CYEG;2002-08-15 00:00;METAR CYEG 150000Z 32012G20KT 15SM BKN035 BKN055 BKN090 14/07 A2985 RMK CU5SC2AC1 FEW TCU ASOCTD SLP117 FEW TCU ASOCTD SLP117
CYEG;2002-08-15 01:00;METAR CYEG 150100Z 32014G26KT 15SM VCSH FEW035 BKN050 BKN100 BKN220 14/07 A2987 RMK CU2SC2AC2CI1 FEW TCU ASOCTD SHRA W + DIST E SLP124 RMK CU2SC2AC2CI1 FEW TCU ASOCTD SHRA W + DIST E SLP124
CYEG;2002-08-15 02:00;METAR CYEG 150200Z 34020G27KT 15SM VCSH BKN036 BKN050 BKN100 BKN220 14/07 A2989 RMK CU5SC1AC1CI1 SHRA NW-N TCU TP DIST S SLP130 RMK CU5SC1AC1CI1 SHRA NW-N TCU TP DIST S SLP130
CYEG;2002-08-15 03:00;METAR CYEG 150300Z 33012G18KT 15SM FEW035 FEW055 FEW100 SCT220 11/07 A2991 RMK CU1SC1AC1CI0 SLP140 CU1SC1AC1CI0 SLP140
CYEG;2002-08-15 04:00;METAR CYEG 150400Z 32008KT 15SM FEW055 FEW100 FEW220 10/06 A2993 RMK SC1AC1CI1 TR SC SLP145 SC SLP145
CYEG;2002-08-15 05:00;METAR CYEG 150500Z 29004KT 15SM FEW100 BKN170 BKN220 09/06 A2994 RMK AC2AC3CI1 SLP147 SLP147
CYEG;2002-08-15 06:00;METAR CYEG 150600Z 29007KT 15SM SCT063 BKN220 09/05 A2994 RMK SC3CI1 SLP150
CYEG;2002-08-15 07:00;METAR CYEG 150700Z 29006KT 15SM FEW063 SCT220 09/06 A2993 RMK SC1CI1 SLP149
CYEG;2002-08-15 08:00;METAR CYEG 150800Z 00000KT 15SM FEW040 FEW220 07/04 A2993 RMK SC1CI1 SLP148
CYEG;2002-08-15 09:00;METAR CYEG 150900Z 26005KT 15SM FEW220 05/03 A2993 RMK CI1 SLP151
CYEG;2002-08-15 10:00;METAR CYEG 151000Z 28004KT 15SM SCT220 06/04 A2993 RMK CI2 SLP151
CYEG;2002-08-15 11:00;METAR CYEG 151100Z 27004KT 15SM SCT060 BKN140 BKN220 06/04 A2993 RMK SC2AC1CI1 SLP152 SLP152
CYEG;2002-08-15 12:00;METAR CYEG 151200Z 26004KT 15SM FEW060 SCT140 BKN220 06/05 A2994 RMK SC1AC2CI3 SLP153 SLP153
CYEG;2002-08-15 13:00;METAR CYEG 151300Z 27003KT 15SM -SHRA BKN060 BKN130 BKN220 08/06 A2995 RMK SC5AC2CI1 CVCTV CLD ASOCTD SLP156
CYEG;2002-08-15 14:00;METAR CYEG 151400Z 28006KT 15SM -SHRA FEW007 BKN060 BKN130 OVC220 09/08 A2995 RMK SF1SC5AC2CI1 TR SF CVCTV CLD EMBD SLP157 SF1SC5AC2CI1 TR SF CVCTV CLD EMBD SLP157
CYEG;2002-08-15 15:00;METAR CYEG 151500Z 31006KT 15SM -SHRA FEW007 FEW030 BKN050 OVC120 10/09 A2996 RMK SF1SC1SC4AC2 CVCTV CLD EMBD SLP157 SF1SC1SC4AC2 CVCTV CLD EMBD SLP157
CYEG;2002-08-15 16:00;METAR CYEG 151600Z 30007KT 15SM -SHRA BKN008 OVC030 11/09 A2996 RMK SF6SC2 CVCTV CLD EMBD SLP157 CLD EMBD SLP157
CYEG;2002-08-15 17:00;METAR CYEG 151700Z 31011KT 12SM -SHRA BKN008 OVC030 11/09 A2996 RMK CF5SC3 CVCTV CLD EMBD CIG RAG SLP157 CLD EMBD CIG RAG SLP157
CYEG;2002-08-15 18:00;METAR CYEG 151800Z 32008KT 12SM -SHRA FEW007 BKN013TCU BKN055 OVC100 12/09 A2995 RMK SF1TCU5SC1AS1 VSBY SW 6 SHRA BR SLP155 RMK SF1TCU5SC1AS1 VSBY SW 6 SHRA BR SLP155
CYEG;2002-08-15 19:00;METAR CYEG 151900Z 31006KT 12SM -SHRA FEW007 BKN011TCU BKN055 BKN100 10/08 A2995 RERA RMK SF1TCU4SC2AC1 VSBY E-SE 5 SHRA BR SLP156 RERA RMK SF1TCU4SC2AC1 VSBY E-SE 5 SHRA BR SLP156
CYEG;2002-08-15 20:00;METAR CYEG 152000Z 30010G15KT 15SM SHRA FEW009 SCT015TCU BKN045 OVC090 11/09 A2995 RMK CF1TCU2SC3AC1 SHRA ALQUADS SLP157 A2995 RMK CF1TCU2SC3AC1 SHRA ALQUADS SLP157
CYEG;2002-08-15 21:00;METAR CYEG 152100Z 32006KT 15SM FEW012 SCT025TCU BKN040 BKN070 13/10 A2994 RERA RMK CF1TCU2SC2AC1 CB ASOCTD NW-N SHRA ALQUADS SLP155 RMK CF1TCU2SC2AC1 CB ASOCTD NW-N SHRA ALQUADS SLP155 RERA RMK CF1TCU5SC2 CB ASOCTD HVYR SHRA N-NE VSBY 5 SLP160
CYEG;2002-08-15 23:00;METAR CYEG 152300Z 36008KT 15SM -SHRA FEW012 BKN030TCU BKN050 10/08 A2996 RETSRA RMK CF1TCU4SC2 CB ASOCTD SHRA ALQUADS HYVR SHRA SE VSBY 5 SLP162 RMK CF1TCU4SC2 CB ASOCTD SHRA ALQUADS HYVR SHRA SE VSBY 5 SLP162
CYEG;2002-08-16 00:00;METAR CYEG 160000Z 36006KT 15SM FEW015 FEW033TCU BKN050 BKN090 12/09 A2995 RMK CF1TCU2SC2AC1 CB ASOCTD SHRA N SLP158 CF1TCU2SC2AC1 CB ASOCTD SHRA N SLP158
CYEG;2002-08-16 01:00;METAR CYEG 160100Z 01008KT 15SM FEW035TCU SCT050 SCT090 12/07 A2995 RMK TCU2SC2AC1 VIRGA E TR AC SLP159
CYEG;2002-08-16 02:00;METAR CYEG 160200Z 36006KT 15SM FEW035TCU FEW050 12/07 A2994 RMK TCU1SC1 SLP156
CYEG;2002-08-16 03:00;METAR CYEG 160300Z 35002KT 15SM FEW025 FEW040 BKN210 10/06 A2995 RMK CF1SC2CI2 SLP158 SLP158
CYEG;2002-08-16 04:00;METAR CYEG 160400Z 36005KT 15SM FEW025 FEW045 FEW120 SCT200 07/04 A2995 RMK SC1SC1AS1CI1 TR LWR SC SLP157
CYEG;2002-08-16 05:00;METAR CYEG 160500Z 30005KT 15SM FEW120 BKN200 06/03 A2997 RMK AS1CI5 SLP163
CYEG;2002-08-16 06:00;METAR CYEG 160600Z 33004KT 15SM FEW120 BKN200 06/03 A2997 RMK AC2CI5 SLP166
CYEG;2002-08-16 07:00;METAR CYEG 160700Z 34004KT 15SM FEW120 BKN180 05/04 A2996 RMK AC1AS6
CYEG;2002-08-16 08:00;METAR CYEG 160800Z 34005KT 15SM FEW120 OVC200 05/03 A2996 RMK AC1CS6 SLP161
CYEG;2002-08-16 09:00;METAR CYEG 160900Z 34004KT 15SM FEW120 OVC210 06/04 A2996 RMK AC1CS6 SLP162
CYEG;2002-08-16 10:00;METAR CYEG 161000Z 35007KT 15SM BKN230 05/03 A2996 RMK CS5 SLP161
CYEG;2002-08-16 11:00;METAR CYEG 161100Z 33003KT 15SM FEW140 BKN220 04/02 A2996 RMK AC1CS4
CYEG;2002-08-16 12:00;METAR CYEG 161200Z 31005KT 15SM FEW080 FEW140 BKN210 03/02 A2998 RMK ACC1AC2CS5 TR ACC SW SLP171 TR ACC SW SLP171 ACC1AC1AS2CI2 ACC W-SW SLP178
CYEG;2002-08-16 14:00;METAR CYEG 161400Z 33006KT 15SM FEW010 FEW120 SCT180 BKN220 05/03 A3002 RMK SF1AC2AC2CI2 TR SF SE SLP184
CYEG;2002-08-16 15:00;METAR CYEG 161500Z 32007KT 15SM FEW010 BKN039 BKN120 07/04 A3003 RMK SF1SC6AC2 TR SF VIRGA W SLP189 SF VIRGA W SLP189
CYEG;2002-08-16 16:00;METAR CYEG 161600Z 31008KT 10SM -SHRA FEW009 OVC031 07/05 A3005 RMK SF2SC6 BR SLP193 SLP193
CYEG;2002-08-16 17:00;METAR CYEG 161700Z 31006KT 12SM -SHRA FEW008 BKN040 BKN071 07/05 A3006 RMK SF2SC5AC1 BR SLP197
CYEG;2002-08-16 18:00;METAR CYEG 161800Z 32010KT 15SM BKN015 BKN055 09/05 A3006 RMK CU6SC2 FEW TCU ASOCTD SLP198 ASOCTD SLP198
CYEG;2002-08-16 19:00;METAR CYEG 161900Z 30012KT 15SM BKN030TCU 11/04 A3005 RMK TCU6 SHRA E SE SLP195
CYEG;2002-08-16 20:00;METAR CYEG 162000Z 31015G21KT 15SM BKN040TCU BKN090 13/02 A3004 RMK TCU6AC1 SHRA N QUAD E TR AC SLP193 N QUAD E TR AC SLP193
CYEG;2002-08-16 21:00;METAR CYEG 162100Z 29012G18KT 15SM BKN040TCU BKN085 12/02 A3004 RMK TCU6AC1 SHRA N QUAD TR AC SLP190 N QUAD TR AC SLP190
CYEG;2002-08-16 22:00;METAR CYEG 162200Z 36010G18KT 15SM BKN040TCU BKN090 12/03 A3004 RMK TCU6AC1 WND SHFT GRDL SHRWS VIRGA E-N-NW SLP189 SHFT GRDL SHRWS VIRGA E-N-NW SLP189
CYEG;2002-08-16 23:00;METAR CYEG 162300Z 01008KT 15SM BKN040TCU BKN085 11/03 A3005 RMK TCU5AC2 SHRA VIRGA ALQDS CB SE SLP194 VIRGA ALQDS CB SE SLP194
CYEG;2002-08-17 00:00;METAR CYEG 170000Z 02004KT 15SM SCT040TCU BKN090 BKN120 12/05 A3005 RMK TCU4AC1AC1 VIRGA N QUAD S SLP195
CYEG;2002-08-17 01:00;METAR CYEG 170100Z 00000KT 15SM FEW040 SCT110 SCT250 11/05 A3004 RMK SC2AC2CI0 SLP192 SLP192
CYEG;2002-08-17 02:00;METAR CYEG 170200Z 12005KT 15SM SCT100 SCT250 10/05 A3004 RMK AC4CI1 SLP191
CYEG;2002-08-17 03:00;METAR CYEG 170300Z 14005KT 15SM SCT100 SCT250 07/05 A3003 RMK AC3CI1
CYEG;2002-08-17 04:00;METAR CYEG 170400Z 14004KT 15SM FEW100 FEW250 06/03 A3003 RMK AC2CI1
CYEG;2002-08-17 05:00;METAR CYEG 170500Z 19007KT 15SM BKN100 06/03 A3002 RMK AC5 SLP189
CYEG;2002-08-17 06:00;METAR CYEG 170600Z 19006KT 15SM OVC094 07/04 A3002 RMK AC8 SLP183
CYEG;2002-08-17 07:00;METAR CYEG 170700Z 18005KT 15SM OVC094 07/05 A3000 RMK AC8 SLP179
CYEG;2002-08-17 08:00;METAR CYEG 170800Z 18005KT 15SM OVC095 07/04 A2999 RMK AC8 SLP174
CYEG;2002-08-17 09:00;METAR CYEG 170900Z 17003KT 15SM OVC091 07/05 A2997 RMK AC8 SLP164
CYEG;2002-08-17 10:00;METAR CYEG 171000Z 17004KT 15SM BKN097 07/04 A2996 RMK AC7 SLP159
CYEG;2002-08-17 11:00;METAR CYEG 171100Z 17002KT 15SM SCT095 04/03 A2994 RMK AC3 SLP155
CYEG;2002-08-17 12:00;METAR CYEG 171200Z 00000KT 15SM FEW095 SCT160 BKN250 03/01 A2994 RMK AC1AC2CI1 SLP156 SLP156
CYEG;2002-08-17 13:00;METAR CYEG 171300Z 13005KT 15SM FEW095 FEW160 FEW250 03/01 A2993 RMK AC1AC1CI0 TR HIER AC / CC ASOCTD SLP154 HIER AC / CC ASOCTD SLP154
CYEG;2002-08-17 14:00;METAR CYEG 171400Z 13002KT 15SM FEW100 FEW250 08/05 A2992 RMK AC1CI0 SLP151
CYEG;2002-08-17 15:00;METAR CYEG 171500Z 15002KT 15SM FEW100 FEW140 FEW250 11/06 A2992 RMK AC1AC1CI1 TR CI SLP147 CI SLP147
CYEG;2002-08-17 16:00;METAR CYEG 171600Z 14002KT 15SM FEW100 FEW140 FEW250 14/07 A2990 RMK AC1AC1CI1 TR LWR AC SLP141 LWR AC SLP141
CYEG;2002-08-17 17:00;METAR CYEG 171700Z 00000KT 15SM FEW100 FEW150 FEW250 16/08 A2989 RMK AC1AC1CI1 TR HIR AC SLP137 HIR AC SLP137
CYEG;2002-08-17 18:00;METAR CYEG 171800Z 00000KT 15SM FEW040 FEW100 FEW150 BKN240 18/08 A2988 RMK CF1AC1AC1CI5 TR CF HIR AC SLP128
CYEG;2002-08-17 19:00;METAR CYEG 171900Z 22002KT 15SM FEW050 FEW140 BKN240 19/05 A2987 RMK CU1AC1CS6 TR CU SLP124 CU SLP124
CYEG;2002-08-17 20:00;METAR CYEG 172000Z 24002KT 15SM FEW060 SCT160 BKN240 19/04 A2986 RMK CU1AS2CS5 SLP122 SLP122
CYEG;2002-08-17 22:00;METAR CYEG 172200Z 00000KT 15SM FEW065 BKN100 BKN220 20/04 A2986 RMK CU2AC4CS2 VIRGA E QUAD W SLP119 VIRGA E QUAD W SLP119
CYEG;2002-08-18 00:00;METAR CYEG 180000Z 32014G21KT 15SM -SHRA BKN065 OVC084 15/07 A2990 RMK SC5AC3 TCU EMBDD SLP143 EMBDD SLP143
CYEG;2002-08-18 01:00;METAR CYEG 180100Z 31011KT 15SM VCSH BKN065 BKN085 OVC220 13/06 A2993 RMK SC5AC2CI2 SHRA S+NW SLP152
CYEG;2002-08-18 02:00;METAR CYEG 180200Z 29006KT 10SM -SHRA BKN062 BKN080 BKN220 11/08 A2994 RMK SC5AC2CI1 SLP155
CYEG;2002-08-18 03:00;METAR CYEG 180300Z 27004KT 15SM FEW065 BKN100 BKN220 10/08 A2995 RMK SC2AC3CI1 SHRA SE SLP155 SHRA SE SLP155
CYEG;2002-08-18 04:00;METAR CYEG 180400Z 27004KT 15SM FEW065 BKN120 BKN250 09/08 A2996 RMK SC1AC4CI1 ACC ASOCTD SLP158 ACC ASOCTD SLP158
CYEG;2002-08-18 05:00;METAR CYEG 180500Z 31004KT 15SM FEW052 BKN120 BKN250 10/08 A2997 RMK SC2AC4CI1 SLP163 SLP163
CYEG;2002-08-18 06:00;METAR CYEG 180600Z 29002KT 15SM FEW050 FEW120 07/06 A2997 RMK SC1AC1 SLP159
CYEG;2002-08-18 07:00;METAR CYEG 180700Z 25005KT 15SM SKC 05/04 A2996 RMK SLP156
CYEG;2002-08-18 08:00;METAR CYEG 180800Z 27006KT 15SM SKC 05/04 A2996 RMK SLP156
CYEG;2002-08-18 09:00;METAR CYEG 180900Z 26006KT 15SM SKC 06/04 A2996 RMK SLP156
CYEG;2002-08-18 10:00;METAR CYEG 181000Z 27006KT 15SM SKC 06/04 A2996 RMK SLP155
CYEG;2002-08-18 11:00;METAR CYEG 181100Z 20002KT 15SM FEW090 05/03 A2995 RMK AC1 SLP152
CYEG;2002-08-18 12:00;METAR CYEG 181200Z 20003KT 15SM FEW090 03/02 A2995 RMK AC1 SLP157
CYEG;2002-08-18 13:00;METAR CYEG 181300Z 22004KT 15SM FEW090 04/02 A2995 RMK AC1 SLP158
CYEG;2002-08-18 14:00;METAR CYEG 181400Z 18003KT 15SM FEW090 06/05 A2995 RMK AC1 SLP158
CYEG;2002-08-18 15:00;METAR CYEG 181500Z 22004KT 15SM FEW250 10/08 A2994 RMK CI1 SLP154
CYEG;2002-08-18 16:00;METAR CYEG 181600Z 23006KT 15SM FEW250 13/09 A2993 RMK CI0 SLP150
CYEG;2002-08-18 17:00;METAR CYEG 181700Z 26007KT 15SM FEW090 FEW250 15/07 A2992 RMK AC1CI0 SLP147
CYEG;2002-08-18 18:00;METAR CYEG 181800Z 27007KT 15SM FEW090 16/08 A2991 RMK AC1 SLP140
CYEG;2002-08-18 19:00;METAR CYEG 181900Z 25010KT 15SM FEW040 FEW090 18/08 A2989 RMK CU1AC1 SLP135
CYEG;2002-08-18 20:00;METAR CYEG 182000Z 26009KT 15SM FEW046 FEW090 19/08 A2989 RMK CU1AC1 SLP132
CYEG;2002-08-18 21:00;METAR CYEG 182100Z 26007KT 15SM FEW048 FEW090 20/09 A2988 RMK CU1AC1 SLP127
CYEG;2002-08-18 22:00;METAR CYEG 182200Z 28006KT 15SM FEW052 FEW090 FEW250 21/08 A2986 RMK CU1AC1CI0 TR AC SLP122 AC SLP122
CYEG;2002-08-18 23:00;METAR CYEG 182300Z 27006KT 15SM FEW052 FEW090 SCT250 22/09 A2985 RMK CU1AC1CI0 TR AC SLP118 AC SLP118
CYEG;2002-08-19 00:00;METAR CYEG 190000Z 27005KT 15SM FEW052 FEW250 22/10 A2984 RMK CU1CI0 SLP115
CYEG;2002-08-19 02:00;METAR CYEG 190200Z 17004KT 15SM FEW090 BKN250 17/11 A2981 RMK AC1CI1 TR AC SLP104
CYEG;2002-08-19 03:00;METAR CYEG 190300Z 16006KT 15SM FEW090 BKN250 16/08 A2980 RMK AC1CI1 TR AC SLP099
CYEG;2002-08-19 04:00;METAR CYEG 190400Z 17006KT 15SM FEW090 BKN250 12/08 A2980 RMK AC1CI2 TR AC SLP098
CYEG;2002-08-19 05:00;METAR CYEG 190500Z 17006KT 15SM FEW080 BKN250 12/08 A2978 RMK ACC1CI1 CB ASOCTD OCNL LTGIC NW SLP093 OCNL LTGIC NW SLP093
CYEG;2002-08-19 06:00;METAR CYEG 190600Z 18007KT 15SM FEW060CB FEW080 BKN250 10/06 A2977 RMK CB1AC1CI1 OCNL LTGICCG N SLP089 OCNL LTGICCG N SLP089
CYEG;2002-08-19 07:00;METAR CYEG 190700Z 29008G17KT 15SM BKN088 BKN120 BKN250 13/06 A2979 RMK AC5AC2CI1 SLP097 SLP097
CYEG;2002-08-19 08:00;METAR CYEG 190800Z 01003KT 15SM TS FEW060CB BKN086 BKN120 13/07 A2978 RMK CB2AC4AC1 OCNL LTGCG SHRA W-NW-N SLP093 RETS RMK CB2AC3AC1CI1 OCNL LTGICCG NE SLP080
CYEG;2002-08-19 10:00;METAR CYEG 191000Z 11005KT 15SM SCT085 OVC120 12/08 A2975 RMK AC3AC5 OCNL LTGIC DIST NE SLP077 DIST NE SLP077
CYEG;2002-08-19 11:00;METAR CYEG 191100Z 17005KT 15SM FEW060CB SCT120 BKN250 10/07 A2975 RMK CB1AC2CI1 OCNL LTGIC DIST WNW SLP076 OCNL LTGIC DIST WNW SLP076 RMK SC1CB2AC2CI1 CB/SHRA ASOCTD NW N + E OCNL LTGIC NW SLP088
CYEG;2002-08-19 13:00;METAR CYEG 191300Z 06002KT 15SM FEW025 FEW060CB BKN100 BKN250 11/08 A2977 RMK SC1CB2AC2CI1 CB/SHRA W-NW-N + E ACC ASOCTD SLP084 SC1CB2AC2CI1 CB/SHRA W-NW-N + E ACC ASOCTD SLP084
CYEG;2002-08-19 14:00;METAR CYEG 191400Z 20003KT 15SM FEW060TCU SCT080 BKN120 11/09 A2978 RMK TCU2ACC2AC2 SHRA SW E NE SLP086
CYEG;2002-08-19 15:00;METAR CYEG 191500Z 26002KT 15SM FEW060 FEW080 SCT120 12/10 A2978 RMK SC2ACC1AC1 VIRGA SE SLP090 VIRGA SE SLP090
CYEG;2002-08-19 16:00;METAR CYEG 191600Z 29007KT 15SM FEW060 FEW080 FEW240 16/10 A2978 RMK SC1ACC1CI1 TR ACC CI SLP092 TR ACC CI SLP092
CYEG;2002-08-19 17:00;METAR CYEG 191700Z 30009KT 15SM FEW030 FEW080 FEW240 18/10 A2978 RMK CF1ACC1CI0 TR CF ACC SLP090 TR CF ACC SLP090
CYEG;2002-08-19 18:00;METAR CYEG 191800Z 32012KT 15SM FEW040 FEW080 FEW250 19/09 A2979 RMK CU1ACC1CI1 TR CU ACC SLP093 TR CU ACC SLP093
CYEG;2002-08-19 19:00;METAR CYEG 191900Z 30012G17KT 15SM FEW040 SCT250 20/10 A2978 RMK CU2CI2 SLP092
CYEG;2002-08-19 20:00;METAR CYEG 192000Z 31010G15KT 15SM SCT040 BKN250 20/10 A2979 RMK CU3CI2 SLP094
CYEG;2002-08-19 21:00;METAR CYEG 192100Z 34010G17KT 15SM SCT040 BKN250 18/10 A2980 RMK CU3CI2 TCU ASOCTD SLP095
CYEG;2002-08-19 22:00;METAR CYEG 192200Z 36014G24KT 15SM FEW040TCU BKN250 18/10 A2980 RMK TCU2CI3 SLP096
CYEG;2002-08-19 23:00;METAR CYEG 192300Z 36014KT 15SM FEW040 BKN250 18/11 A2981 RMK CU2CI3 FEW TCU ASOCTD SLP100 ASOCTD SLP100
CYEG;2002-08-20 00:00;METAR CYEG 200000Z 36008KT 15SM FEW040 BKN240 18/09 A2981 RMK CU2CI3 FEW TCU ASOCTD SLP101 ASOCTD SLP101
CYEG;2002-08-20 01:00;METAR CYEG 200100Z 36006KT 15SM FEW040 BKN240 16/09 A2983 RMK CU2CI3 SLP105
CYEG;2002-08-20 02:00;METAR CYEG 200200Z 02006KT 15SM FEW040 FEW180 BKN240 14/09 A2983 RMK CU1AC1CI3 SLP108 SLP108
CYEG;2002-08-20 03:00;METAR CYEG 200300Z 03006KT 15SM FEW040 FEW140 BKN210 BKN270 11/08 A2984 RMK SC1AC1CI3CI1 TR SC SLP116
CYEG;2002-08-20 05:00;METAR CYEG 200500Z 18003KT 15SM FEW085 BKN110 BKN180 BKN270 11/08 A2987 RMK AC1AC4AS1CI1 SLP125
CYEG;2002-08-20 06:00;METAR CYEG 200600Z 06004KT 15SM FEW085 BKN140 BKN230 09/07 A2986 RMK AC2AC3CI1 SLP120 SLP120
CYEG;2002-08-20 07:00;METAR CYEG 200700Z 14002KT 15SM BKN085 BKN130 BKN230 10/08 A2988 RMK AC5AC1CI1 SLP125 SLP125
CYEG;2002-08-20 08:00;METAR CYEG 200800Z 21002KT 15SM SCT085 OVC100 10/09 A2988 RMK AC2AC6
CYEG;2002-08-20 09:00;METAR CYEG 200900Z 00000KT 15SM SCT085 BKN100 11/08 A2988 RMK AC2AC5 SLP123
CYEG;2002-08-20 10:00;METAR CYEG 201000Z 14002KT 15SM OVC100 11/08 A2987 RMK AC8 SLP122
CYEG;2002-08-20 11:00;METAR CYEG 201100Z 11003KT 15SM OVC095 10/09 A2987 RMK AC7 SLP121
CYEG;2002-08-20 12:00;METAR CYEG 201200Z 14004KT 15SM BKN090 10/09 A2987 RMK AC7 SLP121 CVCTV CLD EMBD SLP124
CYEG;2002-08-20 14:00;METAR CYEG 201400Z 16003KT 12SM -SHRA FEW050 BKN071 BKN090 11/09 A2987 RERA RMK SC2AC4AC2 ACC EMBD VIS LWR SW-W SLP123
CYEG;2002-08-20 15:00;METAR CYEG 201500Z 23002KT 12SM -SHRA SCT053 BKN073 BKN090 12/10 A2989 RERA RMK SC3AC3AC1 VIS W QUAD 6 SLP132
CYEG;2002-08-20 16:00;METAR CYEG 201600Z 00000KT 12SM FEW055 BKN071 OVC090 13/11 A2988 RMK SC2AC5AC2 SHRA NE-SE BR SLP131 SHRA NE-SE BR SLP131
CYEG;2002-08-20 17:00;METAR CYEG 201700Z 00000KT 15SM FEW010 BKN051 OVC070 14/12 A2989 RMK CF1SC6AC2 SLP133 SLP133 CF1SC6ACC1AC1 SHRA SE ACC SW-W TR CF SLP130
CYEG;2002-08-20 19:00;METAR CYEG 201900Z 14004KT 15SM FEW018 BKN030 OVC043 16/11 A2988 RMK CF1SC6SC2 TR CF SLP129 CF SLP129
CYEG;2002-08-20 20:00;METAR CYEG 202000Z 14003KT 15SM FEW020 BKN027 BKN040 18/13 A2987 RMK CU1SC4SC1 TCU ASOCTD SLP126 TCU ASOCTD SLP126
CYEG;2002-08-20 21:00;METAR CYEG 202100Z 14004KT 15SM SCT025TCU 19/12 A2986 RMK TCU4 SHRA SE-S FEW CU SLP119 SLP119
CYEG;2002-08-21 00:00;METAR CYEG 210000Z 18004KT 15SM FEW035 SCT250 20/12 A2984 RMK CU2CI1 TCU ASOCTD CB TPS N + SE-S SLP110 CB TPS N + SE-S SLP110
CYEG;2002-08-21 04:00;METAR CYEG 210400Z 08004KT 15SM FEW090 FEW250 13/11 A2989 RMK AC1CI0 SLP130
CYEG;2002-08-21 05:00;METAR CYEG 210500Z 13006KT 15SM FEW090 10/08 A2989 RMK AC1 SLP131
CYEG;2002-08-21 06:00;METAR CYEG 210600Z 00000KT 15SM SKC 09/07 A2990 RMK SLP137
CYEG;2002-08-21 07:00;METAR CYEG 210700Z 21002KT 15SM SKC 09/07 A2991 RMK SLP140
CYEG;2002-08-21 08:00;METAR CYEG 210800Z CCA 18003KT 6SM BR SKC 08/07 A2991 RMK VIS LWR W-N SLP140
CYEG;2002-08-21 09:00;METAR CYEG 210900Z 17004KT 2SM BR SKC 07/05 A2992 RMK VIS E-S 5 N 1 SM SLP141
CYEG;2002-08-21 10:00;METAR CYEG 211000Z 00000KT 1/2SM R30/P6000FT FG SKC 05/04 A2992 RMK FG2 AURBO SLP143 SLP143
CYEG;2002-08-21 11:00;METAR CYEG 211100Z 19004KT 1SM R12/P6000FT BR SKC 05/04 A2993 RMK FG1 AURBA VIS SE 3 W-N 1/2 SM SLP144 SE 3 W-N 1/2 SM SLP144
CYEG;2002-08-21 12:00;METAR CYEG 211200Z 17004KT 1/2SM R12/P6000FT FG FEW250 04/03 A2993 RMK FG1CI0 SLP146 SLP146
CYEG;2002-08-21 13:00;METAR CYEG 211300Z 17003KT 6SM BR SCT250 07/05 A2993 RMK CI1 SLP147
CYEG;2002-08-21 14:00;METAR CYEG 211400Z 25003KT 12SM BKN250 09/08 A2994 RMK CI1 BR SLP149
CYEG;2002-08-21 15:00;METAR CYEG 211500Z 27004KT 15SM FEW100 SCT250 12/10 A2996 RMK AC1CI1 SLP153
CYEG;2002-08-21 16:00;METAR CYEG 211600Z 21005KT 15SM FEW100 FEW250 16/12 A2996 RMK AC1CI1 SLP154
CYEG;2002-08-21 17:00;METAR CYEG 211700Z 21005KT 15SM FEW200 FEW250 20/12 A2996 RMK CI1CI1 SLP155
CYEG;2002-08-21 18:00;METAR CYEG 211800Z 18009KT 15SM FEW100 FEW200 SCT250 21/11 A2996 RMK AC1CI1CI1 SLP151 SLP151
CYEG;2002-08-21 19:00;METAR CYEG 211900Z 20010KT 15SM FEW200 FEW250 22/11 A2995 RMK CI1CI1 SLP147
CYEG;2002-08-21 20:00;METAR CYEG 212000Z 19011KT 15SM FEW050 SCT270 23/10 A2993 RMK CU1CI2 SLP142
CYEG;2002-08-21 21:00;METAR CYEG 212100Z 22011KT 15SM FEW055 BKN270 24/10 A2992 RMK CU1CI2 SLP138
CYEG;2002-08-21 22:00;METAR CYEG 212200Z 20009KT 15SM FEW055 BKN270 24/10 A2991 RMK CU1CI1 SLP135
CYEG;2002-08-22 00:00;METAR CYEG 220000Z 20008KT 15SM SCT270 24/10 A2989 RMK CI1 SLP130
CYEG;2002-08-22 01:00;METAR CYEG 220100Z 20006KT 15SM BKN270 23/11 A2989 RMK CI2 SLP127
CYEG;2002-08-22 02:00;METAR CYEG 220200Z 18006KT 15SM BKN270 20/12 A2988 RMK CI1 SLP125
CYEG;2002-08-22 03:00;METAR CYEG 220300Z 17004KT 15SM BKN270 16/11 A2988 RMK CI1 SLP126
CYEG;2002-08-22 04:00;METAR CYEG 220400Z 17006KT 15SM BKN270 15/09 A2988 RMK CI1 SLP126
CYEG;2002-08-22 05:00;METAR CYEG 220500Z 18007KT 15SM SCT270 13/09 A2988 RMK CI1 SLP127
CYEG;2002-08-22 06:00;METAR CYEG 220600Z 18007KT 15SM FEW270 12/09 A2988 RMK CI0 SLP122
CYEG;2002-08-22 07:00;METAR CYEG 220700Z 18006KT 15SM FEW270 12/08 A2988 RMK CI0 SLP120
CYEG;2002-08-22 08:00;METAR CYEG 220800Z 18006KT 15SM SKC 11/08 A2988 RMK SLP121
CYEG;2002-08-22 09:00;METAR CYEG 220900Z 18005KT 15SM FEW270 10/08 A2988 RMK CI1 SLP121
CYEG;2002-08-22 10:00;METAR CYEG 221000Z 14003KT 15SM SCT270 07/06 A2990 RMK CI1 CI INVDG SLP126
CYEG;2002-08-22 11:00;METAR CYEG 221100Z 18004KT 15SM FEW180 BKN270 07/05 A2989 RMK AC1CI1 SLP125
CYEG;2002-08-22 12:00;METAR CYEG 221200Z 20004KT 15SM FEW120 SCT180 BKN270 08/06 A2991 RMK AC1AC2CI2 TR LWR AC SLP132 LWR AC SLP132
CYEG;2002-08-22 13:00;METAR CYEG 221300Z 22002KT 15SM FEW120 BKN180 BKN270 08/06 A2993 RMK AC1AC2CI2 VIRGA NW-N SLP138 VIRGA NW-N SLP138
CYEG;2002-08-22 14:00;METAR CYEG 221400Z 23003KT 15SM FEW120 SCT180 BKN270 10/08 A2994 RMK AC1AC2CI2 VIRGA NW-N SLP141 VIRGA NW-N SLP141
CYEG;2002-08-22 15:00;METAR CYEG 221500Z 23003KT 15SM FEW120 BKN180 BKN270 14/11 A2994 RMK AC1AC2CI2 SLP144 SLP144
CYEG;2002-08-22 16:00;METAR CYEG 221600Z 19004KT 15SM SCT180 BKN270 19/12 A2996 RMK AC2CI1 SLP149
CYEG;2002-08-22 17:00;METAR CYEG 221700Z 26003KT 15SM SCT100 SCT180 BKN270 21/11 A2996 RMK AC2AC1CI0 SLP152 SLP152
CYEG;2002-08-22 18:00;METAR CYEG 221800Z 27004KT 15SM SCT100 SCT180 BKN270 22/10 A2996 RMK AC2AC1CI1 CONTRAILS SLP147 CONTRAILS SLP147
CYEG;2002-08-22 19:00;METAR CYEG 221900Z 23002KT 15SM BKN120 BKN270 23/09 A2995 RMK AC2CI1 SLP145
CYEG;2002-08-22 20:00;METAR CYEG 222000Z 27003KT 15SM SCT120 BKN270 24/10 A2995 RMK AC2CI1
CYEG;2002-08-22 21:00;METAR CYEG 222100Z 27002KT 15SM FEW060 FEW120 FEW180 BKN270 25/10 A2994 RMK CU1AC1AC1CI1 SLP139
CYEG;2002-08-22 22:00;METAR CYEG 222200Z 26004KT 15SM FEW060 FEW120 BKN270 25/12 A2993 RMK CU1AC1CI2 SLP138 SLP138
CYEG;2002-08-22 23:00;METAR CYEG 222300Z 18002KT 15SM FEW060 BKN270 25/11 A2994 RMK CU1CI2 SLP139
CYEG;2002-08-23 00:00;METAR CYEG 230000Z 18003KT 15SM FEW060 BKN270 23/15 A2994 RMK CU1CS3 HALO CONTRAILS SLP142
CYEG;2002-08-23 01:00;METAR CYEG 230100Z 18004KT 15SM BKN270 24/13 A2993 RMK CI2 SLP141
CYEG;2002-08-23 02:00;METAR CYEG 230200Z 17004KT 15SM FEW170 OVC270 21/13 A2994 RMK AC2CI2 SLP143
CYEG;2002-08-23 03:00;METAR CYEG 230300Z 18003KT 15SM FEW170 OVC270 17/12 A2994 RMK AC2CI2 SLP144
CYEG;2002-08-23 04:00;METAR CYEG 230400Z 18004KT 15SM FEW170 OVC240 16/11 A2996 RMK AC1CI3 SLP149
CYEG;2002-08-23 05:00;METAR CYEG 230500Z 29004KT 15SM OVC240 14/11 A2999 RMK CI6 SLP158
CYEG;2002-08-23 06:00;METAR CYEG 230600Z 18002KT 15SM OVC240 12/10 A3000 RMK CI5 SLP162
CYEG;2002-08-23 07:00;METAR CYEG 230700Z 00000KT 15SM OVC240 12/09 A3001 RMK CI5 SLP165
CYEG;2002-08-23 08:00;METAR CYEG 230800Z 19005KT 15SM BKN240 12/10 A3000 RMK CI3 SLP163
CYEG;2002-08-23 09:00;METAR CYEG 230900Z 00000KT 15SM FEW090 BKN240 10/08 A3001 RMK AC1CI2 SLP165
CYEG;2002-08-23 10:00;METAR CYEG 231000Z 21002KT 15SM FEW090 BKN240 09/07 A3002 RMK AC1CI2 SLP168
CYEG;2002-08-23 11:00;METAR CYEG 231100Z 22004KT 15SM FEW090 BKN240 10/08 A3003 RMK AC1CI1 SLP173
CYEG;2002-08-23 12:00;METAR CYEG 231200Z 21004KT 15SM FEW065 FEW090 BKN240 10/08 A3005 RMK SC2AC1CI1 SLP179 SLP179
CYEG;2002-08-23 13:00;METAR CYEG 231300Z 19003KT 15SM FEW065 FEW090 BKN240 09/08 A3005 RMK SC1AC1CI2 TR AC SLP181 AC SLP181
CYEG;2002-08-23 14:00;METAR CYEG 231400Z 24002KT 15SM BKN240 11/10 A3006 RMK CI2 SLP184
CYEG;2002-08-23 15:00;METAR CYEG 231500Z 25005KT 15SM BKN240 17/12 A3008 RMK CI2 SLP188
CYEG;2002-08-23 16:00;METAR CYEG 231600Z 28003KT 15SM FEW240 20/13 A3008 RMK CI1 SLP190
CYEG;2002-08-23 17:00;METAR CYEG 231700Z 27005KT 15SM FEW240 23/13 A3008 RMK CI1 SLP189
CYEG;2002-08-23 18:00;METAR CYEG 231800Z 26006KT 15SM FEW270 24/12 A3007 RMK CI1 SLP185
CYEG;2002-08-23 19:00;METAR CYEG 231900Z 29007KT 15SM FEW270 25/12 A3006 RMK CI1 SLP182
CYEG;2002-08-23 20:00;METAR CYEG 232000Z 28005KT 15SM FEW270 26/13 A3005 RMK CI1 SLP178
CYEG;2002-08-23 21:00;METAR CYEG 232100Z 25009KT 15SM SCT270 27/13 A3003 RMK CI1 SLP171
CYEG;2002-08-23 22:00;METAR CYEG 232200Z 26007KT 15SM SCT270 27/13 A3002 RMK CI1 SLP167
CYEG;2002-08-23 23:00;METAR CYEG 232300Z 26007KT 15SM FEW060 FEW270 27/13 A3001 RMK CU1CI1 TR CU DIST SW HRZN SLP164 SW HRZN SLP164
CYEG;2002-08-24 00:00;METAR CYEG 240000Z 26005KT 15SM FEW270 27/14 A3000 RMK CI1 SLP159
CYEG;2002-08-24 01:00;METAR CYEG 240100Z 22002KT 15SM FEW270 26/16 A2999 RMK CI0 SLP156
CYEG;2002-08-24 02:00;METAR CYEG 240200Z 19002KT 15SM FEW270 24/16 A2999 RMK CI0 SLP156
CYEG;2002-08-24 03:00;METAR CYEG 240300Z 17003KT 15SM FEW100 FEW270 21/13 A2999 RMK AC1CI0 SLP155
CYEG;2002-08-24 04:00;METAR CYEG 240400Z 18006KT 15SM FEW270 18/12 A2999 RMK CI1 SLP154
CYEG;2002-08-24 05:00;METAR CYEG 240500Z 18007KT 15SM SKC 16/11 A2999 RMK SLP154
CYEG;2002-08-24 06:00;METAR CYEG 240600Z 18005KT 15SM SKC 15/11 A2999 RMK SLP153
CYEG;2002-08-24 07:00;METAR CYEG 240700Z 19006KT 15SM SKC 15/11 A2999 RMK SLP154
CYEG;2002-08-24 08:00;METAR CYEG 240800Z 25003KT 15SM SKC 12/10 A3000 RMK SLP156
CYEG;2002-08-24 09:00;METAR CYEG 240900Z 18005KT 15SM FEW270 11/09 A3000 RMK CI1 SLP158
CYEG;2002-08-24 10:00;METAR CYEG 241000Z 18007KT 15SM FEW270 12/10 A3000 RMK CI1 SLP158
CYEG;2002-08-24 11:00;METAR CYEG 241100Z 18004KT 15SM SKC 13/10 A3000 RMK SLP158
CYEG;2002-08-24 12:00;METAR CYEG 241200Z 00000KT 15SM FEW100 10/08 A3000 RMK AC1 SLP160
CYEG;2002-08-24 13:00;METAR CYEG 241300Z 15002KT 15SM FEW020TCU FEW100 09/07 A3001 RMK TCU1ACC1 TR CLD TCU NW SLP161 TCU NW SLP161
CYEG;2002-08-24 14:00;METAR CYEG 241400Z 17003KT 15SM FEW030CB FEW100 FEW250 13/11 A3002 RMK CB1ACC1CI1 CB DSNT NW TR CB+CI SLP164 CB DSNT NW TR CB+CI SLP164
CYEG;2002-08-24 15:00;METAR CYEG 241500Z CCB 34003KT 15SM FEW060CB FEW100 FEW250 17/13 A3003 RMK CB1ACC1CI1 CB DISTANT NW TR CB+CI SLP169
CYEG;2002-08-24 16:00;METAR CYEG 241600Z 34004KT 15SM FEW100 FEW250 20/14 A3003 RMK ACC1CI1 TR CI SLP170
CYEG;2002-08-24 17:00;METAR CYEG 241700Z 02003KT 15SM FEW100 FEW250 23/14 A3004 RMK ACC1CI1 SLP173
CYEG;2002-08-24 18:00;METAR CYEG 241800Z 01003KT 15SM FEW100 FEW250 26/15 A3005 RMK ACC1CI1 COTRA TR CI SLP172 SLP172
CYEG;2002-08-24 19:00;METAR CYEG 241900Z 08003KT 15SM FEW100 FEW250 28/14 A3004 RMK ACC1CI1 COTRA TR CI SLP171 SLP171
CYEG;2002-08-24 20:00;METAR CYEG 242000Z 33004KT 15SM FEW100 FEW250 28/14 A3004 RMK ACC1CI1 COTRA TR CI SLP169 SLP169
CYEG;2002-08-24 21:00;METAR CYEG 242100Z 08004KT 15SM FEW100 SCT250 29/13 A3003 RMK ACC1CI0 CB TOPS DSNT ESE SLP168 DSNT ESE SLP168
CYEG;2002-08-24 22:00;METAR CYEG 242200Z 31002KT 15SM FEW060TCU FEW120 SCT250 29/14 A3003 RMK TCU1AC1CI0 CB TOPS DSNT ESE TR AC SLP166
CYEG;2002-08-24 23:00;METAR CYEG 242300Z 00000KT 15SM FEW060 FEW120 FEW250 29/14 A3002 RMK CU1AC1CI1 CB TOPS DSNT ESE+NW SLP163 TOPS DSNT ESE+NW SLP163
CYEG;2002-08-25 00:00;METAR CYEG 250000Z 28002KT 15SM FEW055 FEW120 FEW250 29/15 A3001 RMK CU1AC1CI1 CB TOPS DSNT NW SLP162 TOPS DSNT NW SLP162
CYEG;2002-08-25 01:00;METAR CYEG 250100Z 02003KT 15SM FEW120 FEW250 27/18 A3001 RMK ACC1CI1 CB TOPS DSNT E+NW TR ACC SLP160 DSNT E+NW TR ACC SLP160
CYEG;2002-08-25 02:00;METAR CYEG 250200Z 04005KT 15SM FEW120 FEW250 25/17 A3000 RMK AC1CI1 TR CLD SLP158
CYEG;2002-08-25 03:00;METAR CYEG 250300Z 07004KT 15SM FEW120 FEW250 21/15 A3000 RMK AC1CI1 TR CLD SLP160
CYEG;2002-08-25 04:00;METAR CYEG 250400Z 13003KT 15SM FEW120 FEW250 18/14 A3000 RMK AC1CI1 TR CLD
CYEG;2002-08-25 05:00;METAR CYEG 250500Z 16003KT 15SM SKC 15/12 A3000 RMK SLP159
CYEG;2002-08-25 06:00;METAR CYEG 250600Z 10006KT 15SM SKC 15/12 A2999 RMK SLP153
CYEG;2002-08-25 07:00;METAR CYEG 250700Z 12004KT 15SM SKC 15/12 A2999 RMK SLP153
CYEG;2002-08-25 08:00;METAR CYEG 250800Z 09002KT 15SM SKC 14/11 A3001 RMK SLP159
CYEG;2002-08-25 09:00;METAR CYEG 250900Z 04005KT 15SM FEW120 13/11 A2999 RMK AC1 SLP153
CYEG;2002-08-25 10:00;METAR CYEG 251000Z 00000KT 15SM FEW085 FEW120 FEW250 12/10 A2999 RMK ACC1AC1CI0 ACC S SLP153 ACC S SLP153
CYEG;2002-08-25 11:00;METAR CYEG 251100Z 11002KT 15SM FEW085 FEW120 SCT250 11/09 A2998 RMK ACC1AC1CI0 SLP149 SLP149
CYEG;2002-08-25 12:00;METAR CYEG 251200Z 24002KT 15SM FEW095 FEW180 FEW250 10/08 A2998 RMK ACC1AC1CI0 TR AC SLP150 TR AC SLP150
CYEG;2002-08-25 13:00;METAR CYEG 251300Z 00000KT 15SM FEW095 FEW180 FEW250 09/08 A2997 RMK ACC1AC1CI0 TR AC SLP149 TR AC SLP149
CYEG;2002-08-25 14:00;METAR CYEG 251400Z 18002KT 15SM FEW095 FEW180 BKN250 13/11 A2997 RMK ACC1AC1CI1 SLP147 SLP147
CYEG;2002-08-25 15:00;METAR CYEG 251500Z 18004KT 15SM SCT095 BKN250 17/13 A2997 RMK ACC3CI1
CYEG;2002-08-25 16:00;METAR CYEG 251600Z 00000KT 15SM FEW095 BKN250 21/14 A2997 RMK ACC1CI1
CYEG;2002-08-25 17:00;METAR CYEG 251700Z 29003KT 15SM FEW095 SCT250 24/15 A2997 RMK ACC1CI1 TCU DSNT NW-NE SLP148 NW-NE SLP148
CYEG;2002-08-25 18:00;METAR CYEG 251800Z 35002KT 15SM FEW095 BKN250 25/15 A2997 RMK ACC1CI1 CB TOPS DSNT NW-NE SLP146 DSNT NW-NE SLP146
CYEG;2002-08-25 19:00;METAR CYEG 251900Z 05002KT 15SM FEW095 BKN250 27/15 A2996 RMK ACC1CI1 TCU DSNT NW SLP142 SLP142
CYEG;2002-08-25 20:00;METAR CYEG 252000Z 17003KT 15SM FEW064TCU FEW095 BKN250 29/13 A2995 RMK TCU1ACC2CI1 SLP140
CYEG;2002-08-25 21:00;METAR CYEG 252100Z 17007KT 15SM FEW065TCU FEW095 BKN250 29/13 A2994 RMK TCU2ACC1CI1 SLP133
CYEG;2002-08-25 22:00;METAR CYEG 252200Z 18003KT 15SM FEW060TCU BKN250 29/14 A2992 RMK TCU2CI2 CB TOP + SHRA E SLP129 SHRA E SLP129
CYEG;2002-08-25 23:00;METAR CYEG 252300Z 14008KT 15SM SCT060TCU SCT100 BKN250 28/13 A2992 RMK TCU4AC1CI1 CB TOPS NW+SW+E TR AC SLP129
CYEG;2002-08-26 00:00;METAR CYEG 260000Z 10009KT 15SM SCT050TCU SCT120 BKN210 OVC270 28/15 A2992 RMK TCU4AC1CI1CI0 CB TOPS NW-SW SHRA S TR AC SLP131 TCU4AC1CI1CI0 CB TOPS NW-SW SHRA S TR AC SLP131
CYEG;2002-08-26 01:00;METAR CYEG 260100Z 06004KT 15SM -TSRA SCT044CB BKN100 BKN210 OVC270 23/13 A2993 RMK CB4AC1CI1CI0 SLP134 RMK CB4AC1CI1CI0 SLP134 RETS RMK CB2ACC2CI1CI1 CB SHRA/VIRGA ALQUADS SLP134
CYEG;2002-08-26 04:00;METAR CYEG 260400Z 23011KT 15SM TS SCT050CB BKN090 OVC240 21/11 A2997 RMK CB3ACC2CI2 FRQ LTGICCCCG S-W-N SLP148
CYEG;2002-08-26 05:00;METAR CYEG 260500Z 30017G24KT 15SM -TSRA SCT045CB OVC090 18/13 A2999 RMK CB3ACC5 FRQ LTGICCCCG SW-W-NW + DIST N SLP154 FRQ LTGICCCCG SW-W-NW + DIST N SLP154
CYEG;2002-08-26 06:00;METAR CYEG 260600Z 31006KT 15SM -SHRA FEW045CB OVC090 17/13 A3001 OCNL LTGICCG W ACC ASOCTD SLP160
CYEG;2002-08-26 07:00;METAR CYEG 260700Z 31006KT 15SM FEW045 BKN100 BKN140 OVC270 17/14 A3002 RMK SC2AC4AC2CI0 SLP163
CYEG;2002-08-26 08:00;METAR CYEG 260800Z 06008KT 15SM FEW035 SCT100 BKN140 OVC270 15/13 A3001 RMK SC1AC2AC2CI1 ACC ASOCTD NW SLP158
CYEG;2002-08-26 09:00;METAR CYEG 260900Z 23003KT 15SM BKN120 BKN140 OVC270 14/13 A3003 RMK AC5AC1CI1 SLP164 SLP164
CYEG;2002-08-26 10:00;METAR CYEG 261000Z 27006KT 15SM SCT130 OVC250 14/12 A3003 RMK AC2CS2 HALO SLP166
CYEG;2002-08-26 11:00;METAR CYEG 261100Z 00000KT 15SM FEW130 SCT170 OVC250 13/12 A3004 RMK AC1AC2CS2 HALO SLP168 HALO SLP168
CYEG;2002-08-26 12:00;METAR CYEG 261200Z 26005KT 15SM FEW130 SCT170 OVC240 13/11 A3004 RMK AC1AC2CS3 HALO SLP171 HALO SLP171
CYEG;2002-08-26 13:00;METAR CYEG 261300Z 27005KT 15SM FEW090 FEW120 OVC220 14/12 A3005 RMK ACC1AC2CS4 TR ACC SLP174 TR ACC SLP174
CYEG;2002-08-26 14:00;METAR CYEG 261400Z 27003KT 15SM FEW090 FEW120 OVC210 15/13 A3006 RMK ACC1AC2CS4 TR ACC SLP177 TR ACC SLP177
CYEG;2002-08-26 15:00;METAR CYEG 261500Z 29007KT 15SM FEW090 SCT130 BKN210 18/15 A3007 RMK ACC1AC3CI2 TR ACC SLP182 TR ACC SLP182
CYEG;2002-08-26 16:00;METAR CYEG 261600Z 30006KT 15SM FEW020 FEW090 BKN140 BKN220 18/14 A3008 RMK CF1AC1AC4CI1 TR CF ACC ASOCTD E-SE SLP185
CYEG;2002-08-26 17:00;METAR CYEG 261700Z 28005KT 15SM FEW020 FEW080 FEW130 SCT150 BKN220 18/14 A3008 RMK CF1AC1AC1AC2CI1 TR CF SLP186 RMK CF1AC1AC1AC2CI1 TR CF SLP186
CYEG;2002-08-26 18:00;METAR CYEG 261800Z 31009KT 15SM FEW030 FEW080 SCT150 BKN220 22/14 A3008 RMK CU1AC1AC1CI2 SLP184
CYEG;2002-08-26 20:00;METAR CYEG 262000Z 34005KT 15SM FEW040 SCT110 BKN240 23/14 A3008 RMK CU2AC1CI1 TCU ASOCTD SLP186 TCU ASOCTD SLP186
CYEG;2002-08-26 21:00;METAR CYEG 262100Z 31009KT 15SM FEW045TCU SCT110 BKN240 23/14 A3008 RMK TCU2AC2CI1 CB ASOCTD NE-E SLP186
CYEG;2002-08-26 22:00;METAR CYEG 262200Z 01009KT 15SM FEW045TCU FEW075 SCT110 BKN240 24/14 A3008 RMK TCU2AC1AC1CI1 CB ASOCTD N-E-SE SLP187 TCU2AC1AC1CI1 CB ASOCTD N-E-SE SLP187
CYEG;2002-08-26 23:00;METAR CYEG 262300Z 33012KT 15SM FEW045CB FEW085 SCT140 BKN250 23/14 A3008 RMK CB1AC2AC1CI2 CB N-E-SE SLP187 CB1AC2AC1CI2 CB N-E-SE SLP187
CYEG;2002-08-27 00:00;METAR CYEG 270000Z 36011G16KT 15SM FEW045CB FEW140 BKN220 23/13 A3008 RMK CB1AC1CI2 CB DIST NE-SE-S + NW SLP189
CYEG;2002-08-27 01:00;METAR CYEG 270100Z 35008KT 15SM FEW045TCU FEW120 BKN220 23/12 A3008 RMK TCU1AC1CI2 CB TP DIST SE SLP188
CYEG;2002-08-27 02:00;METAR CYEG 270200Z 35003KT 15SM FEW045TCU FEW120 BKN220 20/14 A3009 RMK TCU1ACC1CI2 TR TCU SE SLP191
CYEG;2002-08-27 03:00;METAR CYEG 270300Z 00000KT 15SM FEW045CB FEW120 BKN250 17/13 A3010 RMK CB1AC1CI2 CB SE SLP197 CB SE SLP197
CYEG;2002-08-27 05:00;METAR CYEG 270500Z 21004KT 15SM SCT250 14/11 A3013 RMK CI2 SLP206
CYEG;2002-08-27 06:00;METAR CYEG 270600Z 20002KT 15SM FEW250 12/09 A3014 RMK CI1 SLP210
CYEG;2002-08-27 07:00;METAR CYEG 270700Z 20005KT 15SM FEW250 11/09 A3015 RMK CI1 SLP212
CYEG;2002-08-27 08:00;METAR CYEG 270800Z 19004KT 15SM FEW250 10/08 A3015 RMK CI1 SLP215
CYEG;2002-08-27 09:00;METAR CYEG 270900Z 23004KT 15SM FEW250 09/07 A3017 RMK CI1 SLP221
CYEG;2002-08-27 10:00;METAR CYEG 271000Z 24003KT 15SM FEW250 09/07 A3017 RMK CI1 SLP223
CYEG;2002-08-27 11:00;METAR CYEG 271100Z 25005KT 15SM FEW250 10/08 A3019 RMK CI1 SLP227
CYEG;2002-08-27 12:00;METAR CYEG 271200Z 27004KT 15SM FEW250 10/08 A3019 RMK CI1 SLP228
CYEG;2002-08-27 13:00;METAR CYEG 271300Z 25005KT 15SM FEW250 08/06 A3021 RMK CI1 SLP233
CYEG;2002-08-27 14:00;METAR CYEG 271400Z 25005KT 15SM FEW120 12/09 A3021 RMK AC1 SLP236
CYEG;2002-08-27 15:00;METAR CYEG 271500Z 30005KT 15SM FEW120 15/10 A3022 RMK AC1 SLP240
CYEG;2002-08-27 16:00;METAR CYEG 271600Z 27006KT 15SM FEW120 FEW250 18/11 A3022 RMK AC1CI1 TR CLD SLP240
CYEG;2002-08-27 17:00;METAR CYEG 271700Z 30004KT 15SM FEW250 20/12 A3022 RMK CI1 SLP241
CYEG;2002-08-27 18:00;METAR CYEG 271800Z 27007KT 15SM FEW040TCU FEW250 22/13 A3022 RMK TCU1CI1 TR TCU DIST SE SLP237 DIST SE SLP237
CYEG;2002-08-27 19:00;METAR CYEG 271900Z 30005KT 15SM FEW040CB FEW250 23/12 A3021 RMK CB1CI0 TR CB E-SE HRZN SLP235 HRZN SLP235
CYEG;2002-08-27 20:00;METAR CYEG 272000Z 27007KT 15SM FEW050 FEW250 24/13 A3021 RMK CF1CI0 TR CF CB TPS E-SE HRZN SLP234 E-SE HRZN SLP234 TPS E-SE HRZN SLP230
CYEG;2002-08-27 22:00;METAR CYEG 272200Z 21002KT 15SM FEW060 FEW280 25/12 A3018 RMK CF1CI0 TR CF SLP226
CYEG;2002-08-27 23:00;METAR CYEG 272300Z 31005KT 15SM FEW060 FEW280 25/10 A3017 RMK CU1CI0 TR CU SLP223
CYEG;2002-08-28 00:00;METAR CYEG 280000Z 31006KT 15SM FEW280 25/11 A3016 RMK CI1 SLP217
CYEG;2002-08-28 01:00;METAR CYEG 280100Z 00000KT 15SM BKN280 25/14 A3015 RMK CI2 SLP214
CYEG;2002-08-28 02:00;METAR CYEG 280200Z 18002KT 15SM BKN280 22/13 A3015 RMK CI2 SLP211
CYEG;2002-08-28 03:00;METAR CYEG 280300Z 18004KT 15SM BKN280 17/10 A3015 RMK CI3 SLP215
CYEG;2002-08-28 04:00;METAR CYEG 280400Z 19006KT 15SM BKN280 16/10 A3015 RMK CI2 SLP216
CYEG;2002-08-28 05:00;METAR CYEG 280500Z 20006KT 15SM BKN280 13/09 A3015 RMK CI2 SLP216
CYEG;2002-08-28 06:00;METAR CYEG 280600Z 20007KT 15SM BKN280 14/09 A3015 RMK CI2 SLP214
CYEG;2002-08-28 07:00;METAR CYEG 280700Z 18006KT 15SM FEW280 12/09 A3014 RMK CI1 SLP210
CYEG;2002-08-28 08:00;METAR CYEG 280800Z 18006KT 15SM FEW280 12/09 A3014 RMK CI1 TR CI SLP210
CYEG;2002-08-28 09:00;METAR CYEG 280900Z 18006KT 15SM SKC 12/09 A3014 RMK SLP208
CYEG;2002-08-28 10:00;METAR CYEG 281000Z 18007KT 15SM SKC 11/08 A3013 RMK SLP206
CYEG;2002-08-28 11:00;METAR CYEG 281100Z 17007KT 15SM FEW280 12/09 A3011 RMK CI1 TR CI SLP199
CYEG;2002-08-28 12:00;METAR CYEG 281200Z 17006KT 15SM FEW100 FEW280 11/08 A3009 RMK AC1CI1 SLP193
CYEG;2002-08-28 13:00;METAR CYEG 281300Z 17007KT 15SM FEW100 BKN280 12/08 A3008 RMK AC1CI2 SLP189
CYEG;2002-08-28 14:00;METAR CYEG 281400Z 17008KT 15SM FEW100 BKN270 14/09 A3007 RMK AC1CI2 SLP186
CYEG;2002-08-28 15:00;METAR CYEG 281500Z 18007KT 15SM BKN270 17/11 A3007 RMK CI2 SLP185
CYEG;2002-08-28 16:00;METAR CYEG 281600Z 18009KT 15SM BKN270 21/12 A3005 RMK CI2 SLP181
CYEG;2002-08-28 17:00;METAR CYEG 281700Z 19010KT 15SM BKN270 24/11 A3004 RMK CI4 SLP178
CYEG;2002-08-28 18:00;METAR CYEG 281800Z 19012KT 15SM BKN270 25/11 A3004 RMK CI4 SLP170
CYEG;2002-08-28 19:00;METAR CYEG 281900Z 18012KT 15SM BKN270 26/11 A3003 RMK CI4 SLP167
CYEG;2002-08-28 20:00;METAR CYEG 282000Z 19008KT 15SM BKN240 27/11 A3002 RMK CI3 SLP163
CYEG;2002-08-28 21:00;METAR CYEG 282100Z 18010G16KT 15SM BKN240 27/11 A2999 RMK CI5 SLP156
CYEG;2002-08-28 22:00;METAR CYEG 282200Z 18008KT 15SM BKN240 27/11 A2997 RMK CI4 SLP149
CYEG;2002-08-28 23:00;METAR CYEG 282300Z 18006KT 15SM BKN240 26/11 A2995 RMK CI5 SLP143
CYEG;2002-08-29 00:00;METAR CYEG 290000Z 17006KT 15SM BKN240 25/12 A2993 RMK CI5 SLP136
CYEG;2002-08-29 01:00;METAR CYEG 290100Z 16007KT 15SM BKN240 26/11 A2991 RMK CI5 SLP131
CYEG;2002-08-29 02:00;METAR CYEG 290200Z 15007KT 15SM BKN240 23/11 A2990 RMK CI4 SLP126
CYEG;2002-08-29 03:00;METAR CYEG 290300Z 15010KT 15SM BKN240 21/10 A2990 RMK CI3 SLP124
CYEG;2002-08-29 04:00;METAR CYEG 290400Z 15009KT 15SM BKN240 21/10 A2989 RMK CI2 SLP123
CYEG;2002-08-29 05:00;METAR CYEG 290500Z 16010KT 15SM BKN240 20/10 A2989 RMK CI2 SLP121
CYEG;2002-08-29 06:00;METAR CYEG 290600Z 16009KT 15SM BKN240 18/10 A2989 RMK CI2 SLP114
CYEG;2002-08-29 07:00;METAR CYEG 290700Z 15008KT 15SM FEW240 17/10 A2988 RMK CI1 SLP112
CYEG;2002-08-29 08:00;METAR CYEG 290800Z 15006KT 15SM FEW240 16/10 A2988 RMK CI1 TR CI SLP111
CYEG;2002-08-29 09:00;METAR CYEG 290900Z 15008KT 15SM SKC 15/10 A2986 RMK SLP108
CYEG;2002-08-29 10:00;METAR CYEG 291000Z 15008KT 15SM SKC 16/10 A2985 RMK SLP103
CYEG;2002-08-29 11:00;METAR CYEG 291100Z 15010KT 15SM SKC 15/10 A2983 RMK SLP098
CYEG;2002-08-29 12:00;METAR CYEG 291200Z 15009KT 15SM FEW240 15/10 A2983 RMK CI1 TR CI SLP098
CYEG;2002-08-29 13:00;METAR CYEG 291300Z 14006KT 15SM FEW240 14/10 A2982 RMK CI1 TR CI SLP095
CYEG;2002-08-29 14:00;METAR CYEG 291400Z 15007KT 15SM FEW240 15/10 A2981 RMK CI1 SLP093
CYEG;2002-08-29 15:00;METAR CYEG 291500Z 16007KT 15SM FEW240 18/11 A2981 RMK CI1 SLP092
CYEG;2002-08-29 16:00;METAR CYEG 291600Z 16009KT 15SM SKC 20/12 A2981 RMK SLP091
CYEG;2002-08-29 17:00;METAR CYEG 291700Z 14007KT 15SM SKC 22/13 A2980 RMK SLP089
CYEG;2002-08-29 18:00;METAR CYEG 291800Z 14013KT 15SM FEW240 25/14 A2978 RMK CI1 SLP080
CYEG;2002-08-29 19:00;METAR CYEG 291900Z 15016G22KT 15SM FEW052 27/14 A2978 RMK CU1 SLP078
CYEG;2002-08-29 20:00;METAR CYEG 292000Z 18009G17KT 15SM FEW054 27/14 A2976 RMK CU2 SLP073
CYEG;2002-08-29 21:00;METAR CYEG 292100Z 16010KT 15SM SCT062 27/14 A2976 RMK CU3 M62 SCT SLP072
CYEG;2002-08-29 22:00;METAR CYEG 292200Z 16006KT 15SM SCT062 27/14 A2974 RMK CU3 SLP067
CYEG;2002-08-29 23:00;METAR CYEG 292300Z 15005KT 15SM FEW062 SCT250 28/14 A2974 RMK CU2CI0 TCU ASOCTD N SLP065 SLP065
CYEG;2002-08-30 00:00;METAR CYEG 300000Z 17005KT 15SM FEW062TCU SCT250 27/13 A2972 RMK TCU2CI1 CB TPS NW-NE-SE SLP058 NW-NE-SE SLP058
CYEG;2002-08-30 01:00;METAR CYEG 300100Z 12005KT 15SM FEW062CB FEW250 25/14 A2970 RMK CB1CI1 CB TPS ALQDS SLP054 ALQDS SLP054
CYEG;2002-08-30 02:00;METAR CYEG 300200Z 08004KT 15SM FEW060TCU FEW250 23/12 A2970 RMK TCU1CI1 CB TP TCU SHRA NE CB TP DSNT SE SLP052 TCU SHRA NE CB TP DSNT SE SLP052
CYEG;2002-08-30 03:00;METAR CYEG 300300Z 02004KT 15SM FEW080 FEW250 17/12 A2971 RMK ACC1CI1 ACC SE + NW-N SLP062 NW-N SLP062
CYEG;2002-08-30 04:00;METAR CYEG 300400Z 32002KT 15SM FEW080 SCT250 15/11 A2972 RMK AC1CI2 LTNG DSNT SW-W-NW SLP063 SW-W-NW SLP063
CYEG;2002-08-30 05:00;METAR CYEG 300500Z 31003KT 15SM FEW080 BKN250 14/10 A2971 RMK AC1CI3 OCNL LTNG DSNT SE + W QUAD SLP061 DSNT SE + W QUAD SLP061
CYEG;2002-08-30 06:00;METAR CYEG 300600Z 24004KT 15SM SCT084 BKN250 14/11 A2975 RMK AC3CI4 FQT LTNG DSNT NE + W QUAD ACC ASOCTD W PRESRR SLP073 DSNT NE + W QUAD ACC ASOCTD W PRESRR SLP073
CYEG;2002-08-30 07:00;METAR CYEG 300700Z 31018G28KT 15SM SCT079 BKN110 BKN250 18/10 A2980 RMK AC3AC1CI2 FQT LTNG DSNT W-NW-N-NE ACC ASOCTD SLP088 FQT LTNG DSNT W-NW-N-NE ACC ASOCTD SLP088
CYEG;2002-08-30 08:00;METAR CYEG 300800Z 32018G25KT 15SM FEW079 SCT110 BKN250 17/10 A2981 RMK AC1AC2CI2 OCNL LTNG DIST NW-N-NE SLP090 OCNL LTNG DIST NW-N-NE SLP090
CYEG;2002-08-30 09:00;METAR CYEG 300900Z 34020G26KT 15SM FEW110 BKN130 BKN250 18/09 A2979 RMK AC1AC6CI1 FQT LTNG DIST NW OCNL LTNG DIST NE SLP081 FQT LTNG DIST NW OCNL LTNG DIST NE SLP081
CYEG;2002-08-30 11:00;METAR CYEG 301100Z 34008KT 15SM FEW140 BKN180 BKN250 15/10 A2984 RMK AC2AC3CI1 SLP095 SLP095
CYEG;2002-08-30 12:00;METAR CYEG 301200Z 32008KT 15SM FEW140 FEW180 SCT250 13/10 A2985 RMK AC1AC1CI1 SLP104 SLP104
CYEG;2002-08-30 13:00;METAR CYEG 301300Z 30006KT 15SM FEW015 FEW120 FEW180 SCT250 12/10 A2987 RMK SC1AC1AC1CI1 TR HIR AC SLP110
CYEG;2002-08-30 14:00;METAR CYEG 301400Z 29006KT 15SM FEW015 FEW180 SCT250 13/10 A2988 RMK SC1AC1CI1 TR AC SLP115 AC SLP115
CYEG;2002-08-30 15:00;METAR CYEG 301500Z 29011G16KT 15SM OVC014 14/11 A2989 RMK SC8 SLP128
CYEG;2002-08-30 16:00;METAR CYEG 301600Z 31009KT 15SM OVC014 15/11 A2990 RMK SC8 SLP130
CYEG;2002-08-30 17:00;METAR CYEG 301700Z 34013G18KT 15SM BKN014 16/11 A2991 RMK SC7 SLP132
CYEG;2002-08-30 18:00;METAR CYEG 301800Z 34012KT 15SM SCT025 BKN250 18/12 A2991 RMK CU4CI0 SLP131
CYEG;2002-08-30 19:00;METAR CYEG 301900Z 31007KT 15SM BKN028TCU BKN090 BKN250 19/12 A2991 RMK TCU5AC2CI0 SLP133
CYEG;2002-08-30 20:00;METAR CYEG 302000Z 34011KT 15SM SCT030TCU BKN060 BKN250 18/12 A2992 RMK TCU3SC3CI0 SLP135
CYEG;2002-08-30 21:00;METAR CYEG 302100Z 34009KT 15SM FEW034 BKN060 BKN250 19/11 A2993 RMK CU2SC3CI1 TCU ASOCTD S SLP135 TCU ASOCTD S SLP135
CYEG;2002-08-30 22:00;METAR CYEG 302200Z 34008KT 15SM SCT041 SCT060 BKN140 BKN250 20/10 A2992 RMK CU3SC1AC2CI0 SLP133
CYEG;2002-08-30 23:00;METAR CYEG 302300Z 34009KT 15SM FEW041 BKN140 BKN250 19/10 A2993 RMK CU2AC3CI0 TCU SW SLP135 TCU SW SLP135
CYEG;2002-08-31 00:00;METAR CYEG 310000Z 35010KT 15SM FEW043 BKN150 BKN250 20/09 A2994 RMK CU2AC2CI0 SLP143 SLP143
CYEG;2002-08-31 01:00;METAR CYEG 310100Z 32004KT 15SM FEW043 SCT150 BKN250 18/10 A2994 RMK CU2AC1CI0 SLP143
CYEG;2002-08-31 02:00;METAR CYEG 310200Z 29004KT 15SM FEW045 SCT130 BKN250 14/09 A2994 RMK CU1AC2CI1 TR CU SLP142 CU SLP142
CYEG;2002-08-31 03:00;METAR CYEG 310300Z 29003KT 15SM BKN120 BKN250 13/09 A2995 RMK AC5CI1 SLP149
CYEG;2002-08-31 04:00;METAR CYEG 310400Z 27004KT 15SM FEW045 BKN110 14/10 A2996 RMK SC2AC6 SLP152
CYEG;2002-08-31 05:00;METAR CYEG 310500Z 26002KT 15SM FEW045 BKN100 13/11 A2996 RMK SC1AC7 SLP154
CYEG;2002-08-31 06:00;METAR CYEG 310600Z 27004KT 15SM SCT052 BKN120 13/11 A2996 RMK SC3AC4
CYEG;2002-08-31 07:00;METAR CYEG 310700Z 27002KT 15SM SCT120 BKN250 11/09 A2996 RMK AC3CI4
CYEG;2002-08-31 08:00;METAR CYEG 310800Z 00000KT 15SM FEW120 BKN240 10/08 A2997 RMK AC2CI4 SLP153
CYEG;2002-08-31 09:00;METAR CYEG 310900Z 24002KT 15SM FEW120 SCT250 10/08 A2997 RMK AC1CI2 SLP156
CYEG;2002-08-31 10:00;METAR CYEG 311000Z 24004KT 15SM FEW100 SCT250 09/07 A2998 RMK AC1CI2 SLP158
CYEG;2002-08-31 11:00;METAR CYEG 311100Z 22003KT 15SM FEW100 BKN240 08/06 A2997 RMK AC1CI2 SLP157
CYEG;2002-08-31 12:00;METAR CYEG 311200Z 22002KT 15SM SCT120 BKN240 07/05 A2997 RMK AC2CI0 SLP160
CYEG;2002-08-31 13:00;METAR CYEG 311300Z 18004KT 15SM FEW120 FEW240 07/05 A2997 RMK AC1CI0 SLP159
CYEG;2002-08-31 14:00;METAR CYEG 311400Z 23004KT 15SM FEW040 FEW120 FEW240 09/07 A2998 RMK SC1AC1CI0 SLP161 SLP161
CYEG;2002-08-31 15:00;METAR CYEG 311500Z 27004KT 15SM FEW040 FEW240 13/10 A2998 RMK SC1CI0 SLP163
CYEG;2002-08-31 16:00;METAR CYEG 311600Z 28004KT 15SM FEW040 FEW240 15/10 A2997 RMK SC1CI0
CYEG;2002-08-31 17:00;METAR CYEG 311700Z 29005KT 15SM FEW040 FEW240 18/10 A2996 RMK SC1CI0
CYEG;2002-08-31 18:00;METAR CYEG 311800Z 25005KT 15SM FEW040 FEW240 20/10 A2994 RMK CU1CI1
CYEG;2002-08-31 19:00;METAR CYEG 311900Z 27007KT 15SM FEW045 FEW240 21/10 A2993 RMK CU1CI1 SLP139
CYEG;2002-08-31 20:00;METAR CYEG 312000Z 20004KT 15SM FEW048 BKN240 22/10 A2991 RMK CU2CI2 SLP132
CYEG;2002-08-31 21:00;METAR CYEG 312100Z 23008KT 15SM BKN054 BKN240 22/09 A2989 RMK CU5CI0 SLP126
CYEG;2002-08-31 22:00;METAR CYEG 312200Z 25008KT 15SM BKN055 BKN240 22/09 A2987 RMK CU5CI2 SLP120
CYEG;2002-08-31 23:00;METAR CYEG 312300Z 22007KT 15SM SCT048 SCT090 BKN220 BKN270 22/09 A2986 RMK CU3AC1CS2CI1 TR AC SLP116
CYEG;2002-09-01 00:00;METAR CYEG 010000Z 23003KT 15SM FEW052 FEW120 BKN200 BKN270 21/09 A2984 RMK CU1AC2CS2CI1 SLP113
CYEG;2002-09-01 01:00;METAR CYEG 010100Z 14002KT 15SM FEW035 SCT150 BKN220 BKN270 21/12 A2983 RMK CU1AC2CS2CI1 SLP107
CYEG;2002-09-01 02:00;METAR CYEG 010200Z 27002KT 15SM BKN084 BKN150 BKN220 19/10 A2982 RMK AC6AC1CI1 SLP106 SLP106
CYEG;2002-09-01 03:00;METAR CYEG 010300Z 35005KT 15SM FEW085 BKN140 OVC220 17/09 A2981 RMK AC1AS6CS1 SLP099 SLP099
CYEG;2002-09-01 04:00;METAR CYEG 010400Z 03006KT 15SM -RA OVC090 16/10 A2981 RMK AS8 SLP099
CYEG;2002-09-01 05:00;METAR CYEG 010500Z 36007KT 15SM OVC096 15/09 A2981 RMK AS8 VIRGA SLP099
CYEG;2002-09-01 06:00;METAR CYEG 010600Z 02007KT 15SM -RA OVC085 14/10 A2979 RMK AS8 SLP090
CYEG;2002-09-01 07:00;METAR CYEG 010700Z 15002KT 12SM -RA OVC080 13/11 A2979 RMK AS8 SLP091
CYEG;2002-09-01 08:00;METAR CYEG 010800Z 10003KT 15SM SCT080 OVC110 13/11 A2977 RMK AC3AS5 SLP084
CYEG;2002-09-01 09:00;METAR CYEG 010900Z 18003KT 15SM FEW080 SCT110 OVC230 12/10 A2975 RMK AC1AS3CI2 SLP076 SLP076
CYEG;2002-09-01 10:00;METAR CYEG 011000Z 34002KT 1 1/2SM R12/4000FT R02/3000FT BR BKN087 09/08 A2975 RMK FG2AC5 SLP076 RMK FG2AC5 SLP076
CYEG;2002-09-01 11:00;METAR CYEG 011100Z 00000KT 8SM BKN090 BKN140 10/09 A2974 RMK AC6AC2 BR SLP073
CYEG;2002-09-01 12:00;METAR CYEG 011200Z 21002KT 5SM -SHRA BR BKN068 OVC090 11/09 A2973 RMK AC5AC3 SLP072 SLP072
CYEG;2002-09-01 13:00;METAR CYEG 011300Z 20004KT 3SM -RA BR BKN069 OVC083 11/10 A2973 RMK AC6AC2 SLP070
CYEG;2002-09-01 14:00;METAR CYEG 011400Z 20006KT 2 1/2SM -RA BR SCT060 OVC090 12/10 A2972 RMK SC4AC4 ACC ASOCTD VSBY N 10SM SLP068 ACC ASOCTD VSBY N 10SM SLP068
CYEG;2002-09-01 15:00;METAR CYEG 011500Z 26006KT 15SM -RA BKN065 OVC090 13/10 A2972 RMK SC5AC3 SLP069
CYEG;2002-09-01 16:00;METAR CYEG 011600Z 25007KT 12SM VCSH BKN060 OVC090 12/10 A2972 RERA RMK SC6AC2 OCNL SHRA SLP069 OCNL SHRA SLP069
CYEG;2002-09-01 17:00;METAR CYEG 011700Z 28008KT 15SM -SHRA BKN058 OVC090 14/10 A2973 RMK SC5AC2
CYEG;2002-09-01 18:00;METAR CYEG 011800Z 28011G17KT 15SM -SHRA FEW014 BKN060 OVC090 13/09 A2974 RMK CU1SC6AC2 G19 PST HR SLP079 CU1SC6AC2 G19 PST HR SLP079
CYEG;2002-09-01 19:00;METAR CYEG 011900Z 27014KT 15SM FEW020 SCT060 BKN140 16/11 A2973 RMK CU1SC2AC2 SLP077 SLP077
CYEG;2002-09-01 20:00;METAR CYEG 012000Z 27011KT 15SM FEW024 FEW060 BKN090 14/09 A2975 RMK CU1SC1AC6 TCU TPS W SLP082 TCU TPS W SLP082
CYEG;2002-09-01 21:00;METAR CYEG 012100Z 27012KT 15SM FEW024 SCT090 BKN140 15/09 A2974 RMK CU1AC2AS4 TCU/RASH W SUN DIMLY VSBL SLP079 TCU/RASH W SUN DIMLY VSBL SLP079
CYEG;2002-09-01 22:00;METAR CYEG 012200Z 28011KT 15SM FEW036 SCT090 BKN140 15/06 A2974 RMK CU2AC2AS3 TCU/RASH SW SUN DIMLY VSBL G19 PST HR SLP079 TCU/RASH SW SUN DIMLY VSBL G19 PST HR SLP079
CYEG;2002-09-01 23:00;METAR CYEG 012300Z 27005KT 15SM FEW036TCU FEW090 BKN140 15/08 A2976 RMK TCU1AC2AS4 RASH W SUN DIMLY VSBL SLP083
CYEG;2002-09-02 01:00;METAR CYEG 020100Z 31011G19KT 15SM FEW044TCU FEW090 FEW200 16/05 A2980 RMK TCU2AC1CI0 CB ASOCTD E + S SLP099
CYEG;2002-09-02 02:00;METAR CYEG 020200Z 31005KT 15SM FEW045TCU FEW090 FEW200 13/06 A2982 RMK TCU1AC1CI2 CB TOPS ALQDS TR AC SLP107
CYEG;2002-09-02 03:00;METAR CYEG 020300Z 30006KT 15SM FEW040 FEW090 FEW200 11/05 A2984 RMK SC1AC1CI1 CB TOP SW TCU EMBDD N TR AC SLP117 TOP SW TCU EMBDD N TR AC SLP117
CYEG;2002-09-02 04:00;METAR CYEG 020400Z 27005KT 15SM FEW090 08/04 A2986 RMK AC1 SLP122
CYEG;2002-09-02 05:00;METAR CYEG 020500Z 27006KT 15SM FEW090 07/04 A2987 RMK AC0 SLP124
CYEG;2002-09-02 06:00;METAR CYEG 020600Z 25007KT 15SM FEW090 05/03 A2987 RMK AC1 SLP131
CYEG;2002-09-02 07:00;METAR CYEG 020700Z 28004KT 15SM FEW090 07/04 A2988 RMK AC1 SLP134
CYEG;2002-09-02 08:00;METAR CYEG 020800Z 26006KT 15SM FEW090 04/02 A2989 RMK AC1 SLP136
CYEG;2002-09-02 09:00;METAR CYEG 020900Z 25005KT 15SM BKN093 06/03 A2989 RMK AC2 SLP134
CYEG;2002-09-02 10:00;METAR CYEG 021000Z 24006KT 15SM FEW095 05/02 A2988 RMK AC2 SLP133
CYEG;2002-09-02 11:00;METAR CYEG 021100Z 24005KT 15SM SKC 04/01 A2988 RMK SLP132
CYEG;2002-09-02 12:00;METAR CYEG 021200Z 24004KT 15SM FEW090 FEW250 04/01 A2987 RMK AC1CI1 SLP131
CYEG;2002-09-02 14:00;METAR CYEG 021400Z 25005KT 15SM FEW100 BKN250 07/04 A2988 RMK AC1CI2 SLP132
CYEG;2002-09-02 15:00;METAR CYEG 021500Z 27007KT 15SM FEW100 BKN250 10/05 A2987 RMK AC1CI2 SLP128
CYEG;2002-09-02 16:00;METAR CYEG 021600Z 28007KT 15SM FEW100 BKN250 13/06 A2986 RMK AC1CI2 SLP126
CYEG;2002-09-02 17:00;METAR CYEG 021700Z 28006KT 15SM FEW100 FEW250 15/05 A2984 RMK AC1CI1 SLP120
CYEG;2002-09-02 18:00;METAR CYEG 021800Z 27006KT 15SM FEW100 BKN250 16/05 A2983 RMK AC1CI2 SLP112
CYEG;2002-09-02 19:00;METAR CYEG 021900Z 27003KT 15SM FEW050 FEW100 BKN250 16/05 A2981 RMK CF1AC1CI3 TR CF VIRGA W QUAD SLP106 CF VIRGA W QUAD SLP106
CYEG;2002-09-02 20:00;METAR CYEG 022000Z 25004KT 15SM FEW050 FEW100 BKN210 BKN250 17/05 A2979 RMK CF1AC1CI3CI0 TR CF VIRGA S SLP102
CYEG;2002-09-02 21:00;METAR CYEG 022100Z 21006KT 15SM FEW050 FEW120 SCT210 SCT250 19/06 A2977 RMK CF1AC1CI1CI0 SLP093
CYEG;2002-09-02 22:00;METAR CYEG 022200Z 19007KT 15SM FEW052 BKN120 BKN210 BKN250 19/06 A2976 RMK CF1AC2CI1CI0 SLP089
CYEG;2002-09-02 23:00;METAR CYEG 022300Z 13007KT 15SM FEW052 BKN100 BKN210 19/06 A2975 RMK CU1AC4CI1 SLP085 SLP085
CYEG;2002-09-03 00:00;METAR CYEG 030000Z 19006KT 15SM FEW052 SCT090 SCT120 BKN210 18/05 A2974 RMK CU1AC2AC1CI1 TR CU SLP081
CYEG;2002-09-03 01:00;METAR CYEG 030100Z 15008KT 15SM FEW090 FEW120 SCT240 18/06 A2971 RMK AC1AC1CI1 SLP073 SLP073
CYEG;2002-09-03 02:00;METAR CYEG 030200Z 11006KT 15SM BKN100 BKN240 15/06 A2971 RMK AC3CI1
CYEG;2002-09-03 03:00;METAR CYEG 030300Z 09008KT 15SM SCT100 BKN150 14/05 A2971 RMK AC2AC1 SLP070
CYEG;2002-09-03 04:00;METAR CYEG 030400Z 10006KT 15SM FEW100 BKN130 13/05 A2970 RMK AC2AC3 LTNG/CB DIST W SLP066 W SLP066
CYEG;2002-09-03 05:00;METAR CYEG 030500Z 11009KT 15SM FEW100 BKN130 13/05 A2969 RMK AC2AC5 SLP065
CYEG;2002-09-03 06:00;METAR CYEG 030600Z 10009KT 15SM FEW090 BKN130 13/04 A2968 RMK AC2AC3 SLP056
CYEG;2002-09-03 07:00;METAR CYEG 030700Z 06008KT 15SM FEW090 SCT130 10/04 A2969 RMK AC1AC2 SLP059
CYEG;2002-09-03 08:00;METAR CYEG 030800Z 08007KT 15SM FEW090 11/04 A2969 RMK AC1 SLP060
CYEG;2002-09-03 09:00;METAR CYEG 030900Z 09007KT 15SM FEW090 09/04 A2969 RMK AC1 SLP060
CYEG;2002-09-03 10:00;METAR CYEG 031000Z 14003KT 15SM FEW090 FEW250 04/02 A2969 RMK AC1CI1 SLP062
CYEG;2002-09-03 11:00;METAR CYEG 031100Z 23003KT 15SM FEW090 FEW250 02/00 A2971 RMK AC1CI1 SLP067
CYEG;2002-09-03 12:00;METAR CYEG 031200Z 27006KT 15SM FEW110 SCT250 02/00 A2971 RMK AC2CI0 SLP075
CYEG;2002-09-03 13:00;METAR CYEG 031300Z 18002KT 15SM FEW110 SCT140 BKN250 04/02 A2973 RMK AC1AC2CI1 SLP079 SLP079
CYEG;2002-09-03 15:00;METAR CYEG 031500Z 29007KT 1/4SM R12/1600FT FG VV002 07/06 A2974 RMK FG8 SLP082
CYEG;2002-09-03 17:00;METAR CYEG 031700Z 28006KT 15SM -SHRA FEW014 BKN090 BKN120 BKN250 12/09 A2976 RMK SF2AC4AC1CI1 SLP090 SF2AC4AC1CI1 SLP090
CYEG;2002-09-03 18:00;METAR CYEG 031800Z 30007KT 15SM FEW015 BKN084 BKN140 13/09 A2976 RMK SC1AC6AC1 SHWRS DSNT E SLP087 SHWRS DSNT E SLP087
CYEG;2002-09-03 19:00;METAR CYEG 031900Z 31010KT 15SM FEW020 BKN087 BKN140 13/09 A2976 RMK CF1AC6AC1 VIRGA SLP087 VIRGA SLP087
CYEG;2002-09-03 20:00;METAR CYEG 032000Z 31011G16KT 15SM FEW024 BKN085 BKN140 15/09 A2976 RMK CF1AC6AC1 VIRGA DSNT ALQDS SLP087 VIRGA DSNT ALQDS SLP087
CYEG;2002-09-03 21:00;METAR CYEG 032100Z 33010KT 15SM FEW036 FEW075 BKN090 BKN120 17/08 A2976 RMK CF1AC2AC3AC1 SHWRS DSNT ALQDS SLP086
CYEG;2002-09-03 22:00;METAR CYEG 032200Z 34005KT 15SM FEW036TCU BKN078 BKN120 17/08 A2978 RMK TCU1AC6AC1 TCU/SHWRS NE-SE SLP092
CYEG;2002-09-03 23:00;METAR CYEG 032300Z 32006KT 15SM FEW036 BKN077 16/08 A2979 RMK CU1AC6 SHWRS SW VIRGA NW SLP097 VIRGA NW SLP097
CYEG;2002-09-04 00:00;METAR CYEG 040000Z 32005KT 15SM -SHRA BKN072 14/08 A2981 RMK AC7 ACC EMBDD SLP113
CYEG;2002-09-04 01:00;METAR CYEG 040100Z 26002KT 15SM -SHRA BKN062 13/10 A2983 RMK SC7 TCU DSNT W-NW SLP120 SLP120
CYEG;2002-09-04 02:00;METAR CYEG 040200Z 19005KT 15SM -SHRA FEW035TCU SCT060 BKN090 BKN120 12/10 A2985 RMK TCU1SC2AC2AC2 ACC ASOCTD SLP124 RMK TCU1SC2AC2AC2 ACC ASOCTD SLP124
CYEG;2002-09-04 03:00;METAR CYEG 040300Z 26004KT 15SM FEW035 FEW060 SCT090 BKN120 10/09 A2985 RMK CU1SC2AC2AC2 TR CU SLP126
CYEG;2002-09-04 04:00;METAR CYEG 040400Z 30007KT 15SM FEW035 FEW060 SCT100 BKN140 10/08 A2987 RMK SC1SC2AC2AC1 AURBO SLP131
CYEG;2002-09-04 05:00;METAR CYEG 040500Z 31008KT 15SM FEW060 BKN110 10/07 A2989 RMK SC1AC3 SLP137
CYEG;2002-09-04 06:00;METAR CYEG 040600Z 32006KT 15SM SCT110 BKN140 09/06 A2990 RMK AC3AC2 SLP138
CYEG;2002-09-04 07:00;METAR CYEG 040700Z 30005KT 15SM FEW120 FEW150 08/05 A2993 RMK AC1AC1 AURBO SLP147
CYEG;2002-09-04 08:00;METAR CYEG 040800Z 31008KT 15SM FEW020 BKN170 08/05 A2993 RMK SC1AC5 SLP148
CYEG;2002-09-04 09:00;METAR CYEG 040900Z 29007KT 15SM FEW015 BKN150 07/05 A2995 RMK SC2AC4 SLP152
CYEG;2002-09-04 10:00;METAR CYEG 041000Z 30008KT 15SM FEW015 BKN150 07/04 A2996 RMK SC1AC5 SLP156
CYEG;2002-09-04 11:00;METAR CYEG 041100Z 30008KT 15SM FEW015 BKN140 06/04 A2997 RMK SC1AC6 SLP159
CYEG;2002-09-04 12:00;METAR CYEG 041200Z 29007KT 15SM FEW130 BKN160 05/03 A2998 RMK AC2AC4 VIRGA SLP167
CYEG;2002-09-04 13:00;METAR CYEG 041300Z 29008KT 15SM FEW015 SCT120 BKN150 BKN250 06/03 A2999 RMK SC1AC3AC2CI0 ACC EMBDD VIRGA SW TR SC SW SLP170
CYEG;2002-09-04 14:00;METAR CYEG 041400Z 26005KT 15SM FEW015 SCT120 SCT150 BKN250 05/03 A3000 RMK SC1AC2AC1CI0 ACC ASOCTD VIRGA S-SW TR SC SW SLP175
CYEG;2002-09-04 15:00;METAR CYEG 041500Z 29005KT 15SM FEW012 FEW020 SCT110 BKN150 BKN250 07/04 A3000 RMK CF1SC1AC2AC2CI1 TR CF SC + CI SLP178 RMK CF1SC1AC2AC2CI1 TR CF SC + CI SLP178
CYEG;2002-09-04 16:00;METAR CYEG 041600Z 27006KT 15SM FEW015 BKN110 BKN140 BKN250 08/04 A3002 RMK CF1AC4AC2CI1 VIRGA SLP185
CYEG;2002-09-04 17:00;METAR CYEG 041700Z 27004KT 15SM FEW018 BKN110 BKN140 BKN250 08/04 A3002 RMK SC1AC4AC1CI1 TR CI SLP184
CYEG;2002-09-04 18:00;METAR CYEG 041800Z 28008KT 15SM SCT020 BKN110 BKN140 11/05 A3002 RMK SC3AC2AC2 SLP183 SLP183
CYEG;2002-09-04 19:00;METAR CYEG 041900Z 25008KT 15SM FEW020 BKN066 BKN110 11/05 A3002 RMK SC2AC4AC2 SLP182 SLP182
CYEG;2002-09-04 20:00;METAR CYEG 042000Z 27005KT 15SM FEW025 BKN067 BKN110 BKN250 12/06 A3002 RMK CU2AC2AC2CI0 SLP183
CYEG;2002-09-04 21:00;METAR CYEG 042100Z 29009KT 15SM FEW035 FEW070 FEW110 15/06 A3002 RMK CU2AC1AC1 TR HIER AC SLP179 HIER AC SLP179
CYEG;2002-09-04 22:00;METAR CYEG 042200Z 27007KT 15SM FEW040 FEW075 FEW120 15/05 A3002 RMK CU2AC1AC1 G15 PST HR TR AC CLD SLP180 G15 PST HR TR AC CLD SLP180
CYEG;2002-09-04 23:00;METAR CYEG 042300Z 29009KT 15SM FEW040 SCT110 BKN130 BKN250 15/05 A3002 RMK CU2AC1AC1CI1 SLP181
CYEG;2002-09-05 00:00;METAR CYEG 050000Z 29007KT 15SM SCT040 SCT110 SCT130 BKN240 15/05 A3004 RMK CU3AC1AC1CI1 TR AC CLD SLP188
CYEG;2002-09-05 01:00;METAR CYEG 050100Z 30007KT 15SM FEW045 SCT110 BKN240 13/05 A3005 RMK CU2AC1CI1 SLP191 SLP191
CYEG;2002-09-05 02:00;METAR CYEG 050200Z 31007KT 15SM FEW045 FEW110 SCT240 11/05 A3007 RMK SC1AC1CI1 CU ASOCTD N SLP197 ASOCTD N SLP197
CYEG;2002-09-05 03:00;METAR CYEG 050300Z 30006KT 15SM FEW045 FEW110 SCT240 08/03 A3009 RMK SC1AC1CI1 SLP211 SLP211
CYEG;2002-09-05 04:00;METAR CYEG 050400Z 30006KT 15SM FEW040 FEW110 07/03 A3010 RMK SC1AC1 TR SC SLP214
CYEG;2002-09-05 05:00;METAR CYEG 050500Z 30005KT 15SM FEW110 05/02 A3010 RMK AC1 SLP215
CYEG;2002-09-05 06:00;METAR CYEG 050600Z 29003KT 15SM FEW040 FEW110 05/02 A3012 RMK SC1AC1 SLP218
CYEG;2002-09-05 07:00;METAR CYEG 050700Z 30004KT 15SM FEW035 FEW110 03/01 A3011 RMK SC1AC1 SLP217
CYEG;2002-09-05 08:00;METAR CYEG 050800Z 31005KT 15SM FEW015 SCT030 03/01 A3011 RMK SC1SC2 LYRS INVDG FM N SLP217 FM N SLP217
CYEG;2002-09-05 09:00;METAR CYEG 050900Z 31005KT 15SM BKN020 04/03 A3013 RMK SC6 SLP219
CYEG;2002-09-05 10:00;METAR CYEG 051000Z 30002KT 15SM BKN020 03/01 A3012 RMK SC2 SLP218
CYEG;2002-09-05 11:00;METAR CYEG 051100Z 24005KT 15SM FEW020 SCT130 BKN220 01/M01 A3014 RMK SC2AC1CI0 SLP223 SLP223
CYEG;2002-09-05 12:00;METAR CYEG 051200Z 25002KT 15SM BKN014 BKN130 BKN250 02/00 A3014 RMK SC4AC2CI1 SLP223
CYEG;2002-09-05 13:00;METAR CYEG 051300Z 35002KT 15SM BKN016 OVC090 04/02 A3013 RMK SC7AC1 SLP221
CYEG;2002-09-05 14:00;METAR CYEG 051400Z 31002KT 15SM FEW006 OVC018 04/03 A3014 RMK CF2SC6
CYEG;2002-09-05 15:00;METAR CYEG 051500Z 34004KT 15SM FEW008 OVC015 05/03 A3014 RMK CF2SC6 SLP229
CYEG;2002-09-05 16:00;METAR CYEG 051600Z 34005KT 15SM OVC012 06/03 A3015 RMK SC8 CIG RAG SLP231
CYEG;2002-09-05 17:00;METAR CYEG 051700Z 34004KT 15SM OVC014 06/02 A3015 RMK SC8 SLP232
CYEG;2002-09-05 18:00;METAR CYEG 051800Z 32006KT 15SM -SHRA OVC014 06/02 A3015 RMK SC8 SLP233
CYEG;2002-09-05 19:00;METAR CYEG 051900Z 32003KT 15SM -SHRA BKN017 OVC023 06/02 A3014 RMK SC7SC1 SLP231
CYEG;2002-09-05 20:00;METAR CYEG 052000Z 34005KT 15SM FEW013 BKN017 OVC023 07/03 A3013 RMK CF1SC6SC1 SLP228 SLP228
CYEG;2002-09-05 21:00;METAR CYEG 052100Z 32004KT 15SM SCT018 OVC053 07/03 A3013 RMK SC4SC4 SLP226
CYEG;2002-09-05 22:00;METAR CYEG 052200Z 35003KT 15SM SCT020 OVC045 07/02 A3012 RMK SC2SC6 SLP224
CYEG;2002-09-05 23:00;METAR CYEG 052300Z 35002KT 15SM FEW020 OVC045 08/03 A3011 RMK SC1SC7 SLP219
CYEG;2002-09-06 00:00;METAR CYEG 060000Z 36004KT 15SM FEW020 OVC039 08/04 A3011 RMK CU1SC7 SLP221
CYEG;2002-09-06 01:00;METAR CYEG 060100Z 28002KT 15SM FEW020 OVC037 08/03 A3011 RMK SC1SC7
CYEG;2002-09-06 02:00;METAR CYEG 060200Z 26002KT 15SM FEW020 OVC038 07/04 A3010 RMK SC1SC7 SLP218
CYEG;2002-09-06 03:00;METAR CYEG 060300Z 00000KT 15SM OVC040 07/04 A3011 RMK SC8 SLP218
CYEG;2002-09-06 04:00;METAR CYEG 060400Z 31002KT 15SM BKN043 OVC060 07/04 A3010 RMK SC7SC1 SLP216
CYEG;2002-09-06 05:00;METAR CYEG 060500Z 00000KT 15SM FEW025 BKN040 OVC055 07/05 A3010 RMK SC1SC6SC1 SLP215 SLP215
CYEG;2002-09-06 06:00;METAR CYEG 060600Z 00000KT 15SM FEW025 BKN040 OVC060 06/05 A3007 RMK SC2SC5SC2 SLP206 SLP206
CYEG;2002-09-06 07:00;METAR CYEG 060700Z 00000KT 15SM VCSH BKN030 BKN040 OVC060 06/05 A3007 RMK SC5SC2SC2 PCPN S SLP206
CYEG;2002-09-06 08:00;METAR CYEG 060800Z 27002KT 10SM -RA FEW020 OVC032 06/04 A3007 RMK SF1SC7 SLP204
CYEG;2002-09-06 09:00;METAR CYEG 060900Z 17002KT 12SM -RA FEW020 BKN032 OVC041 06/05 A3006 RMK SF1SC6SC2 SLP200
CYEG;2002-09-06 10:00;METAR CYEG 061000Z 27002KT 12SM -RA FEW007 SCT018 OVC043 06/04 A3004
CYEG;2002-09-06 11:00;METAR CYEG 061100Z 27002KT 7SM -RA FEW007 OVC040 06/04 A3003 RMK SF1SC7 BR SLP193
CYEG;2002-09-06 12:00;METAR CYEG 061200Z 23002KT 7SM FEW007 BKN042 OVC070 05/04 A3003 RMK SF1SC6AC1 BR SLP190 SLP190
CYEG;2002-09-06 13:00;METAR CYEG 061300Z 00000KT 1SM R30/P6000FT R12/4000FT BR SCT005 BKN045 05/04 A3002 RMK FG2SF1SC4 VSBY VRBL 3/4-11/2 SLP188 A3002 RMK FG2SF1SC4 VSBY VRBL 3/4-11/2 SLP188
CYEG;2002-09-06 14:00;METAR CYEG 061400Z 00000KT 3SM BR FEW005 FEW038 BKN046 OVC070 05/04 A3003 RMK SF1SC1SC6AC1 VSBY LWR NE QUAD TR SF SLP192 SF1SC1SC6AC1 VSBY LWR NE QUAD TR SF SLP192
CYEG;2002-09-06 15:00;METAR CYEG 061500Z 27003KT 8SM FEW006 SCT038 BKN046 OVC070 06/05 A3003 RMK SF1SC3SC2AC1 BR SLP192
CYEG;2002-09-06 16:00;METAR CYEG 061600Z 28002KT 10SM FEW008 BKN037 OVC045 07/05 A3003 RMK CF2SC5SC1 BR SLP190
CYEG;2002-09-06 17:00;METAR CYEG 061700Z 00000KT 10SM BKN015 OVC048 09/05 A3002 RMK CU4SC3 BR SLP187
CYEG;2002-09-06 19:00;METAR CYEG 061900Z 00000KT 15SM BKN020 BKN026 OVC050 10/05 A3001 RMK SC6SC2SC1 SLP181 SLP181
CYEG;2002-09-06 20:00;METAR CYEG 062000Z 00000KT 15SM SCT025 OVC055 10/05 A3000 RMK CU4SC4 SLP178
CYEG;2002-09-06 21:00;METAR CYEG 062100Z 27004KT 15SM BKN030 BKN060 11/05 A2999 RMK SC6SC2 SLP173
CYEG;2002-09-06 22:00;METAR CYEG 062200Z 16002KT 15SM FEW025 BKN037 BKN060 BKN250 12/06 A2998 RMK CU1SC5SC1CI1 TR CI SLP169
CYEG;2002-09-06 23:00;METAR CYEG 062300Z 05002KT 15SM FEW025 BKN032 BKN070 12/04 A2997 RMK SC1CU4AC1 TCU ASOCTD TR SC/AC SLP166 TCU ASOCTD TR SC/AC SLP166
CYEG;2002-09-07 00:00;METAR CYEG 070000Z 00000KT 15SM FEW050 BKN070 12/04 A2996 RMK CU2AC3 TCU ASOCTD SLP161 SLP161
CYEG;2002-09-07 01:00;METAR CYEG 070100Z 13005KT 15SM SCT050 BKN070 11/06 A2995 RMK CU2AC2 SLP160
CYEG;2002-09-07 02:00;METAR CYEG 070200Z 14005KT 15SM FEW050 BKN250 08/05 A2995 RMK SC1CI0 SLP159
CYEG;2002-09-07 03:00;METAR CYEG 070300Z 14006KT 15SM FEW050 FEW070 FEW240 06/03 A2994 RMK SC1AC1CI1 SLP159
CYEG;2002-09-07 04:00;METAR CYEG 070400Z 14004KT 15SM FEW240 04/02 A2993 RMK CI0 SLP157
CYEG;2002-09-07 05:00;METAR CYEG 070500Z 16004KT 15SM SKC 01/M00 A2993 RMK SLP158
CYEG;2002-09-07 06:00;METAR CYEG 070600Z 14004KT 15SM SKC 03/01 A2992 RMK SLP155
CYEG;2002-09-07 07:00;METAR CYEG 070700Z 14002KT 15SM FEW240 03/01 A2990 RMK CI0 SLP149
CYEG;2002-09-07 08:00;METAR CYEG 070800Z 20004KT 10SM SKC 01/M01 A2991 RMK BR SLP152
CYEG;2002-09-07 09:00;METAR CYEG 070900Z 15004KT 10SM BKN240 01/M00 A2990 RMK CI2 BR SLP147
CYEG;2002-09-07 10:00;METAR CYEG 071000Z 12003KT 10SM SCT180 BKN240 02/00 A2988 RMK AC4CI2 BR SLP141
CYEG;2002-09-07 11:00;METAR CYEG 071100Z 16002KT 8SM SCT180 BKN220 02/00 A2987 RMK AC4CI2 BR SLP137
CYEG;2002-09-07 12:00;METAR CYEG 071200Z 18002KT 8SM BKN150 BKN220 03/01 A2987 RMK AC5CI2 BR SLP134
CYEG;2002-09-07 13:00;METAR CYEG 071300Z 14003KT 6SM BR SCT150 BKN220 03/02 A2986 RMK AC3CI2 SLP131
CYEG;2002-09-07 14:00;METAR CYEG 071400Z 17002KT 6SM BR SCT100 BKN150 04/02 A2986 RMK AC2AS5
CYEG;2002-09-07 15:00;METAR CYEG 071500Z 00000KT 6SM BR FEW100 SCT150 BKN220 06/05 A2986 RMK AC1AS3CI2 SLP133 SLP133
CYEG;2002-09-07 16:00;METAR CYEG 071600Z 16004KT 8SM BKN100 BKN220 09/06 A2985 RMK AS6CI1 BR
CYEG;2002-09-07 17:00;METAR CYEG 071700Z 18005KT 10SM FEW075 BKN110 BKN220 10/07 A2985 RMK AC2AS5CI1 BR SLP129 SLP129
CYEG;2002-09-07 18:00;METAR CYEG 071800Z 17006KT 10SM FEW030TCU FEW080 BKN130 BKN220 11/07 A2985 RMK TCU1AC1AS6CI1 BR TR TCU SW SLP127 TCU1AC1AS6CI1 BR TR TCU SW SLP127
CYEG;2002-09-07 19:00;METAR CYEG 071900Z 16008KT 15SM FEW025 SCT100 BKN160 BKN220 14/07 A2983 RMK CU1AC2AS2CI2 SLP123
CYEG;2002-09-07 20:00;METAR CYEG 072000Z 14010G16KT 15SM FEW025 FEW100 SCT160 BKN200 14/07 A2982 RMK CU1AC1AS2CI2 SLP119 CU1AC1AS2CI2 SLP119
CYEG;2002-09-07 21:00;METAR CYEG 072100Z 14012G20KT 15SM FEW030 SCT100 BKN220 14/06 A2982 RMK CU2AC1CI1 SLP115 SLP115
CYEG;2002-09-07 22:00;METAR CYEG 072200Z 14012G18KT 15SM FEW035 FEW100 SCT220 15/05 A2981 RMK CU2AC1CI0 SLP112 SLP112
CYEG;2002-09-07 23:00;METAR CYEG 072300Z 16011KT 15SM FEW035 FEW100 BKN220 14/05 A2980 RMK SC2AC1CI0 TCU W SLP110 TCU W SLP110
CYEG;2002-09-08 00:00;METAR CYEG 080000Z 17008KT 15SM FEW031 FEW090 SCT160 BKN210 12/05 A2981 RMK SC2AC1AS2CI2 SLP114
CYEG;2002-09-08 01:00;METAR CYEG 080100Z 17006KT 15SM FEW030TCU FEW090 SCT160 BKN210 12/07 A2979 RMK TCU1AC1AS2CI0 VIRGA SW SLP108 TCU1AC1AS2CI0 VIRGA SW SLP108
CYEG;2002-09-08 02:00;METAR CYEG 080200Z 14007KT 15SM FEW090 FEW160 BKN220 11/07 A2979 RMK AC1AS1CI2 SLP106 SLP106
CYEG;2002-09-08 03:00;METAR CYEG 080300Z 15006KT 15SM FEW160 SCT220 08/05 A2980 RMK AS1CI1 CB TPS W+N SLP111 SLP111
CYEG;2002-09-08 04:00;METAR CYEG 080400Z 16006KT 15SM FEW220 09/06 A2981 RMK CI1 CB TPS + LTNG W SLP113
CYEG;2002-09-08 05:00;METAR CYEG 080500Z 17006KT 15SM SKC 08/06 A2981 RMK AURBO SLP114
CYEG;2002-09-08 06:00;METAR CYEG 080600Z 18005KT 15SM FEW100 07/05 A2982 RMK AC1 SLP112
CYEG;2002-09-08 07:00;METAR CYEG 080700Z 00000KT 10SM FEW100 04/02 A2982 RMK AC2 BR SLP112
CYEG;2002-09-08 08:00;METAR CYEG 080800Z 14006KT 5SM BR FEW100 02/01 A2982 RMK AC0 SLP112
CYEG;2002-09-08 09:00;METAR CYEG 080900Z 15005KT 1SM R30/2200FT R02/P6000FT BR SKC 02/01 A2982 RMK FG2 SLP114 SLP114
CYEG;2002-09-08 10:00;METAR CYEG 081000Z 20003KT 1SM R30/P6000FT R02/5000FT BR SKC 02/00 A2982 RMK FG2 SLP115 SLP115
CYEG;2002-09-08 11:00;METAR CYEG 081100Z 00000KT 1/2SM R02/0000FT R30/P6000FT FZFG SKC M00/M02 A2983 RMK FG2 SLP117 RMK FG2 SLP117
CYEG;2002-09-08 12:00;METAR CYEG 081200Z 18006KT 6SM BR FEW100 00/M01 A2983 RMK AC1 SLP122
CYEG;2002-09-08 13:00;METAR CYEG 081300Z 20006KT 6SM BR FEW100 01/M01 A2983 RMK ACC1 SLP124
CYEG;2002-09-08 14:00;METAR CYEG 081400Z 19003KT 8SM FEW040 FEW100 FEW220 02/01 A2984 RMK SC1AC1CI1 BR TR CI SLP125 TR CI SLP125
CYEG;2002-09-08 15:00;METAR CYEG 081500Z 20003KT 10SM FEW050 FEW100 FEW220 06/05 A2985 RMK SC2AC1CI1 BR SLP129 SLP129
CYEG;2002-09-08 16:00;METAR CYEG 081600Z 22002KT 15SM FEW050 FEW100 FEW220 10/06 A2986 RMK SC2AC1CI1 SLP131 SLP131
CYEG;2002-09-08 17:00;METAR CYEG 081700Z 22003KT 15SM FEW090 SCT220 15/06 A2986 RMK AC2CI0
CYEG;2002-09-08 18:00;METAR CYEG 081800Z 26005KT 15SM FEW057 BKN100 BKN220 17/03 A2985 RMK CU1AC2CI1 TR CU SLP119 CU SLP119
CYEG;2002-09-08 19:00;METAR CYEG 081900Z 29006KT 15SM FEW045 SCT100 SCT220 18/03 A2985 RMK CU2AC1CI0 FEW TCU SLP118 FEW TCU SLP118
CYEG;2002-09-08 20:00;METAR CYEG 082000Z 26007KT 15SM BKN060 BKN100 BKN220 18/02 A2984 RMK CU5AC1CI0 VIRGA S SLP117 VIRGA S SLP117
CYEG;2002-09-08 21:00;METAR CYEG 082100Z 26007KT 15SM BKN065 BKN100 BKN220 19/02 A2985 RMK CU5AC1CI0 SLP120 SLP120
CYEG;2002-09-08 22:00;METAR CYEG 082200Z 29008KT 15SM FEW065 FEW100 SCT220 19/02 A2984 RMK CU2AC1CI1 TR AC SLP119 AC SLP119
CYEG;2002-09-08 23:00;METAR CYEG 082300Z 26008KT 15SM FEW065 SCT220 19/02 A2984 RMK CU2CI0 SLP117
CYEG;2002-09-09 00:00;METAR CYEG 090000Z 23009KT 15SM FEW065 FEW220 19/02 A2984 RMK CU1CI0 SLP120
CYEG;2002-09-09 01:00;METAR CYEG 090100Z 21004KT 15SM FEW065 FEW220 18/03 A2984 RMK CU1CI1 SLP121
CYEG;2002-09-09 02:00;METAR CYEG 090200Z 18006KT 15SM FEW080 FEW250 12/04 A2985 RMK AC1CI0 SLP122
CYEG;2002-09-09 03:00;METAR CYEG 090300Z 17006KT 15SM FEW080 FEW250 10/02 A2986 RMK AC1CI1 TR CI SLP128
CYEG;2002-09-09 04:00;METAR CYEG 090400Z 18007KT 15SM FEW100 08/02 A2985 RMK AC1 SLP127
CYEG;2002-09-09 05:00;METAR CYEG 090500Z 18007KT 15SM FEW250 06/02 A2987 RMK CI1 SLP131
CYEG;2002-09-09 06:00;METAR CYEG 090600Z 25004KT 15SM SCT240 07/02 A2989 RMK CI1 SLP132
CYEG;2002-09-09 07:00;METAR CYEG 090700Z 25006KT 15SM BKN240 05/02 A2991 RMK CI2 SLP138
CYEG;2002-09-09 08:00;METAR CYEG 090800Z 20004KT 15SM SCT150 BKN240 05/01 A2992 RMK AC2CI1 SLP142
CYEG;2002-09-09 09:00;METAR CYEG 090900Z 21003KT 15SM FEW150 BKN240 04/00 A2993 RMK AC2CI2 SLP148
CYEG;2002-09-09 10:00;METAR CYEG 091000Z 22004KT 15SM FEW100 BKN150 BKN240 05/01 A2995 RMK AC2AC2CI1 SLP153 SLP153
CYEG;2002-09-09 11:00;METAR CYEG 091100Z 20004KT 15SM BKN110 BKN150 BKN240 06/01 A2996 RMK AC5AC1CI1 SLP156 SLP156
CYEG;2002-09-09 12:00;METAR CYEG 091200Z 22003KT 15SM FEW100 BKN130 BKN240 06/01 A2997 RMK AC2AC2CI1 SLP160 SLP160
CYEG;2002-09-09 13:00;METAR CYEG 091300Z 22002KT 15SM FEW100 BKN130 04/00 A2999 RMK AC2AC2 SLP166
CYEG;2002-09-09 14:00;METAR CYEG 091400Z 22005KT 15SM FEW100 FEW130 05/01 A3001 RMK AC1AC1 SLP171
CYEG;2002-09-09 15:00;METAR CYEG 091500Z 25005KT 15SM FEW110 FEW130 FEW250 12/04 A3002 RMK AC1AC1CI0 SLP181 SLP181
CYEG;2002-09-09 16:00;METAR CYEG 091600Z 28004KT 15SM FEW100 FEW140 FEW250 15/03 A3003 RMK AC1AC1CI0 TR HIR AC SLP183 HIR AC SLP183
CYEG;2002-09-09 17:00;METAR CYEG 091700Z 28005KT 15SM FEW100 FEW250 17/04 A3005 RMK AC1CI0 SLP188
CYEG;2002-09-09 18:00;METAR CYEG 091800Z 28007KT 15SM FEW100 FEW250 17/03 A3004 RMK AC1CI0 TR AC SLP184
CYEG;2002-09-09 19:00;METAR CYEG 091900Z 30008KT 15SM FEW060 FEW100 FEW250 19/03 A3004 RMK CU1AC1CI1 TR CU AC SLP183 CU AC SLP183
CYEG;2002-09-09 20:00;METAR CYEG 092000Z 28006KT 15SM FEW065 FEW120 FEW240 19/03 A3003 RMK CU1AC1CI1 TR AC SLP181 AC SLP181
CYEG;2002-09-09 22:00;METAR CYEG 092200Z 24007KT 15SM FEW070 FEW100 SCT240 21/03 A3001 RMK CU2AC1CI1 SLP173 SLP173
CYEG;2002-09-09 23:00;METAR CYEG 092300Z 21005KT 15SM FEW070 FEW100 SCT240 20/02 A3000 RMK CU1AC1CI2 SLP171
CYEG;2002-09-10 00:00;METAR CYEG 100000Z 21003KT 15SM FEW070 SCT100 BKN240 19/03 A3001 RMK CU1AC3CI2 SLP173 SLP173
CYEG;2002-09-10 01:00;METAR CYEG 100100Z 18005KT 15SM FEW100 BKN240 16/08 A3000 RMK AC2CI4 SLP171
CYEG;2002-09-10 02:00;METAR CYEG 100200Z 17004KT 15SM FEW100 BKN250 14/07 A3000 RMK AC2CI3 SLP170
CYEG;2002-09-10 03:00;METAR CYEG 100300Z 14005KT 15SM FEW100 BKN240 BKN300 09/05 A3000 RMK AC2CI2CI2 SLP173
CYEG;2002-09-10 04:00;METAR CYEG 100400Z 19003KT 15SM FEW100 SCT240 BKN300 08/04 A3001 RMK AC2CI2CI1 SLP177 SLP177
CYEG;2002-09-10 05:00;METAR CYEG 100500Z 24002KT 15SM FEW095 SCT240 08/04 A3002 RMK AC2CI0 SLP178
CYEG;2002-09-10 06:00;METAR CYEG 100600Z 15002KT 15SM FEW095 FEW240 06/03 A3002 RMK AC1CI0
CYEG;2002-09-10 07:00;METAR CYEG 100700Z 23003KT 15SM FEW100 05/02 A3002 RMK AC1 SLP180
CYEG;2002-09-10 08:00;METAR CYEG 100800Z 00000KT 15SM FEW100 FEW240 03/01 A3003 RMK AC1CI0 SLP181
CYEG;2002-09-10 09:00;METAR CYEG 100900Z 22003KT 15SM BKN240 05/02 A3002 RMK CI3 SLP178
CYEG;2002-09-10 10:00;METAR CYEG 101000Z 18006KT 15SM BKN240 06/04 A3004 RMK CI3 AURBO SLP183
CYEG;2002-09-10 11:00;METAR CYEG 101100Z 18006KT 15SM BKN210 06/03 A3004 RMK CI2 SLP184
CYEG;2002-09-10 12:00;METAR CYEG 101200Z 18008KT 15SM FEW100 BKN210 06/04 A3004 RMK AC1CI2 SLP182
CYEG;2002-09-10 13:00;METAR CYEG 101300Z 19005KT 15SM FEW100 FEW210 06/03 A3004 RMK AC1CI1 SLP183
CYEG;2002-09-10 14:00;METAR CYEG 101400Z 18006KT 15SM FEW100 BKN220 08/04 A3004 RMK AC1CI3 TR AC
CYEG;2002-09-10 16:00;METAR CYEG 101600Z 17005KT 15SM FEW180 BKN220 15/07 A3002 RMK AC2CI3 SLP179
CYEG;2002-09-10 17:00;METAR CYEG 101700Z 16007KT 15SM SCT180 BKN240 19/08 A3000 RMK AC3CI2
CYEG;2002-09-10 18:00;METAR CYEG 101800Z 16005KT 15SM BKN180 BKN240 20/08 A2998 RMK AC3CI2 SLP162
CYEG;2002-09-10 19:00;METAR CYEG 101900Z 15008KT 15SM SCT180 BKN230 23/08 A2996 RMK AC2CI2 SLP155
CYEG;2002-09-10 20:00;METAR CYEG 102000Z 18007KT 15SM FEW180 BKN230 24/07 A2993 RMK AC2CI2 SLP147
CYEG;2002-09-10 21:00;METAR CYEG 102100Z 18008KT 15SM FEW065 FEW170 SCT230 24/08 A2991 RMK CU1AC1CI2 TR CU SLP137 CU SLP137
CYEG;2002-09-10 22:00;METAR CYEG 102200Z 20007KT 15SM FEW065 FEW170 BKN200 24/08 A2990 RMK CU1AC1CI3 TR CU SLP132 CU SLP132
CYEG;2002-09-10 23:00;METAR CYEG 102300Z 27005KT 15SM FEW065 SCT150 BKN200 22/09 A2989 RMK CU1AC2CI3 TR CU SLP130 CU SLP130
CYEG;2002-09-11 00:00;METAR CYEG 110000Z 00000KT 15SM FEW060 SCT150 BKN210 22/11 A2988 RMK SC1AC3CI2 TR SC SLP126 SC SLP126
CYEG;2002-09-11 01:00;METAR CYEG 110100Z 02005KT 15SM FEW090 SCT150 BKN240 22/10 A2986 RMK AC1AC2CI2 SLP120 SLP120
CYEG;2002-09-11 02:00;METAR CYEG 110200Z 08004KT 15SM FEW080 FEW160 SCT240 17/09 A2986 RMK AC1AC1CI1 SLP120
CYEG;2002-09-11 03:00;METAR CYEG 110300Z 00000KT 15SM FEW130 SCT240 12/08 A2988 RMK AC2CI1 SLP128
CYEG;2002-09-11 04:00;METAR CYEG 110400Z 00000KT 15SM SCT130 SCT240 09/06 A2990 RMK AC2CI1 SLP136
CYEG;2002-09-11 05:00;METAR CYEG 110500Z 34014KT 15SM SCT130 15/07 A2996 RMK AC2 SLP153
CYEG;2002-09-11 07:00;METAR CYEG 110700Z 33005KT 15SM FEW130 11/06 A3000 RMK AC2 SLP163
CYEG;2002-09-11 08:00;METAR CYEG 110800Z 29003KT 15SM FEW130 09/06 A3003 RMK AC2 AURBO SLP172
CYEG;2002-09-11 09:00;METAR CYEG 110900Z 29005KT 15SM FEW130 07/04 A3004 RMK AC1 AURBO SLP179
CYEG;2002-09-11 10:00;METAR CYEG 111000Z 25002KT 15SM FEW130 04/02 A3005 RMK AC1 AURBO SLP182
CYEG;2002-09-11 11:00;METAR CYEG 111100Z 26002KT 15SM FEW130 04/02 A3007 RMK AC1 AURBO SLP187
CYEG;2002-09-11 12:00;METAR CYEG 111200Z 28002KT 15SM FEW120 04/03 A3008 RMK AC1 SLP195
CYEG;2002-09-11 13:00;METAR CYEG 111300Z 26003KT 15SM FEW120 FEW240 04/02 A3008 RMK AC1CI0 SLP198
CYEG;2002-09-11 14:00;METAR CYEG 111400Z 23003KT 15SM FEW120 SCT180 BKN240 05/04 A3009 RMK AC1AC2CI1 CC ASOCTD SLP201 ASOCTD SLP201
CYEG;2002-09-11 15:00;METAR CYEG 111500Z 00000KT 15SM FEW120 BKN240 07/05 A3011 RMK AC2CI1 ACC ASOCTD SLP212 SLP212
CYEG;2002-09-11 16:00;METAR CYEG 111600Z 31006KT 15SM SCT120 BKN240 12/06 A3010 RMK AC2CI1 ACC ASOCTD SLP210 SLP210
CYEG;2002-09-11 17:00;METAR CYEG 111700Z 32006KT 15SM SCT110 SCT240 14/05 A3011 RMK AC2CI1 ACC ASOCTD SLP213 SLP213
CYEG;2002-09-11 18:00;METAR CYEG 111800Z 26007KT 15SM FEW110 FEW240 16/04 A3010 RMK AC1CI1 ACC ASOCTD SLP202 SLP202
CYEG;2002-09-11 19:00;METAR CYEG 111900Z 23003KT 15SM FEW110 FEW240 17/03 A3008 RMK AC1CI1 TR AC SLP195
CYEG;2002-09-11 20:00;METAR CYEG 112000Z 26005KT 15SM FEW110 FEW280 18/02 A3008 RMK AC1CI1 TR AC SLP193
CYEG;2002-09-11 21:00;METAR CYEG 112100Z 29006KT 15SM FEW110 BKN280 19/04 A3007 RMK AC1CI2 TR AC
CYEG;2002-09-11 22:00;METAR CYEG 112200Z 26006KT 15SM BKN280 19/04 A3006 RMK CI2 SLP189
CYEG;2002-09-11 23:00;METAR CYEG 112300Z 17002KT 15SM BKN280 19/04 A3004 RMK CI2 SLP185
CYEG;2002-09-12 00:00;METAR CYEG 120000Z 27003KT 15SM FEW280 19/04 A3003 RMK CI1 SLP182
CYEG;2002-09-12 01:00;METAR CYEG 120100Z 00000KT 15SM FEW150 FEW280 19/05 A3003 RMK AC1CI1 SLP181
CYEG;2002-09-12 02:00;METAR CYEG 120200Z 00000KT 15SM FEW150 SCT250 14/05 A3003 RMK AC1CI1
CYEG;2002-09-12 03:00;METAR CYEG 120300Z 09002KT 15SM FEW250 10/04 A3003 RMK CI1 SLP188
CYEG;2002-09-12 04:00;METAR CYEG 120400Z 11005KT 15SM FEW250 08/03 A3003 RMK CI1 SLP187
CYEG;2002-09-12 05:00;METAR CYEG 120500Z 12003KT 15SM FEW250 07/03 A3003 RMK CI2 SLP188
CYEG;2002-09-12 06:00;METAR CYEG 120600Z 14002KT 15SM FEW250 07/02 A3003 RMK CI2 SLP182
CYEG;2002-09-12 07:00;METAR CYEG 120700Z 13002KT 15SM BKN065 05/03 A3003 RMK SC6 SLP182
CYEG;2002-09-12 08:00;METAR CYEG 120800Z 14004KT 15SM BKN065 10/05 A3002 RMK SC7 SLP179
CYEG;2002-09-12 09:00;METAR CYEG 120900Z 12002KT 15SM BKN065 10/06 A3001 RMK SC7 SLP171
CYEG;2002-09-12 10:00;METAR CYEG 121000Z 14002KT 15SM BKN065 10/07 A3002 RMK SC7 SLP172
CYEG;2002-09-12 11:00;METAR CYEG 121100Z 13003KT 15SM BKN065 BKN140 10/05 A3000 RMK SC5AC2 SLP168
CYEG;2002-09-12 12:00;METAR CYEG 121200Z 13005KT 15SM SCT065 BKN130 10/04 A2999 RMK SC4AC2 SLP161
CYEG;2002-09-12 13:00;METAR CYEG 121300Z 14004KT 15SM FEW065 BKN130 BKN250 09/04 A2997 RMK SC2AC2CI0 SLP157 SLP157
CYEG;2002-09-12 14:00;METAR CYEG 121400Z 12004KT 15SM FEW065 FEW130 BKN250 09/04 A2997 RMK SC1AC1CS1 TR SC HALO SLP155 SC HALO SLP155
CYEG;2002-09-12 15:00;METAR CYEG 121500Z 00000KT 15SM FEW120 FEW180 BKN250 11/05 A2996 RMK AC1AC1CS0 HALO SLP160 HALO SLP160
CYEG;2002-09-12 16:00;METAR CYEG 121600Z 17003KT 15SM FEW120 FEW230 BKN280 13/05 A2996 RMK AC1CI1CS0 SLP159 SLP159
CYEG;2002-09-12 17:00;METAR CYEG 121700Z 34002KT 15SM FEW120 SCT230 BKN280 16/06 A2996 RMK AC1CI2CS0 TR AC SLP158 AC SLP158
CYEG;2002-09-12 18:00;METAR CYEG 121800Z 09002KT 15SM FEW120 BKN230 17/06 A2995 RMK AC1CI3 TR AC SLP152
CYEG;2002-09-12 19:00;METAR CYEG 121900Z 18002KT 15SM SCT230 BKN280 19/08 A2993 RMK CI2CI1 SLP147
CYEG;2002-09-12 20:00;METAR CYEG 122000Z 09002KT 15SM SCT230 BKN280 20/08 A2990 RMK CI2CI2 SLP138
CYEG;2002-09-12 21:00;METAR CYEG 122100Z 16004KT 15SM SCT230 BKN280 21/09 A2989 RMK CI2CI3 SLP127
CYEG;2002-09-12 22:00;METAR CYEG 122200Z 01002KT 15SM SCT230 BKN280 21/09 A2987 RMK CI2CI4 SLP121
CYEG;2002-09-12 23:00;METAR CYEG 122300Z 32003KT 15SM SCT230 BKN280 21/09 A2985 RMK CI2CI4 SLP115
CYEG;2002-09-13 00:00;METAR CYEG 130000Z 34003KT 15SM FEW150 FEW230 BKN280 21/10 A2984 RMK AC1CI2CI3 SLP110 SLP110
CYEG;2002-09-13 01:00;METAR CYEG 130100Z 32003KT 15SM FEW150 FEW230 BKN280 18/10 A2983 RMK AC1CI2CI3 TR AC SLP106 AC SLP106
CYEG;2002-09-13 02:00;METAR CYEG 130200Z 32003KT 15SM FEW150 FEW230 BKN280 15/09 A2982 RMK AC1CI2CI2 TR AC SLP102 AC SLP102
CYEG;2002-09-13 03:00;METAR CYEG 130300Z 35004KT 15SM FEW120 BKN250 13/08 A2983 RMK AC1CI2 SLP112
CYEG;2002-09-13 04:00;METAR CYEG 130400Z 02007KT 15SM FEW120 SCT250 11/05 A2982 RMK AC1CI2 SLP108
CYEG;2002-09-13 05:00;METAR CYEG 130500Z 03007KT 15SM FEW120 FEW250 12/06 A2981 RMK AC1CI1 TR AC SLP107
CYEG;2002-09-13 06:00;METAR CYEG 130600Z 36006KT 15SM SKC 10/05 A2981 RMK SLP103
CYEG;2002-09-13 07:00;METAR CYEG 130700Z 34004KT 15SM FEW120 FEW250 08/05 A2981 RMK AC1CI1 TR AC SLP102
CYEG;2002-09-13 08:00;METAR CYEG 130800Z 34009KT 15SM OVC055 10/06 A2983 RMK SC8 SLP111
CYEG;2002-09-13 09:00;METAR CYEG 130900Z 34008KT 15SM SCT055 BKN120 10/06 A2987 RMK SC3AC3 SLP119
CYEG;2002-09-13 10:00;METAR CYEG 131000Z 33010G17KT 15SM OVC049 11/06 A2989 RMK SC8 SLP126
CYEG;2002-09-13 11:00;METAR CYEG 131100Z 31007KT 15SM FEW049 OVC067 11/07 A2991 RMK SC2AC6 SLP133
CYEG;2002-09-13 12:00;METAR CYEG 131200Z 30010KT 15SM -SHRA OVC077 10/06 A2991 RMK AC8 SLP132
CYEG;2002-09-13 13:00;METAR CYEG 131300Z 27008KT 15SM -SHRA FEW012 BKN040 BKN077 10/07 A2992 RMK CF1SC5AC2 TR CF NE HRZN SLP137
CYEG;2002-09-13 14:00;METAR CYEG 131400Z 27008KT 15SM FEW025 FEW040 SCT080 BKN130 09/06 A2992 RMK SC1SC2AC1AC2 SHRA/VIRGA E-S-SW SLP137
CYEG;2002-09-13 16:00;METAR CYEG 131600Z 31016KT 15SM SCT020 BKN270 13/06 A2995 RMK CF3CI0 SLP153
CYEG;2002-09-13 17:00;METAR CYEG 131700Z 31016KT 15SM FEW025 FEW080 SCT270 13/06 A2996 RMK CU2AC1CI0 SLP157 SLP157
CYEG;2002-09-13 18:00;METAR CYEG 131800Z 34013KT 15SM SCT035 SCT270 14/05 A2998 RMK CU3CI0 PK G20 PST HR SLP164 HR SLP164
CYEG;2002-09-13 19:00;METAR CYEG 131900Z 32012G17KT 15SM SCT040 BKN270 15/05 A2999 RMK CU4CI0 SLP168
CYEG;2002-09-13 20:00;METAR CYEG 132000Z 32008G16KT 15SM SCT045 SCT270 17/04 A3000 RMK CU3CI0 SLP170
CYEG;2002-09-13 21:00;METAR CYEG 132100Z 32011G18KT 15SM FEW060 17/03 A3000 RMK CU2 SLP169
CYEG;2002-09-13 22:00;METAR CYEG 132200Z 32010G15KT 15SM FEW060 FEW270 17/02 A3001 RMK CU2CI0 SLP171
CYEG;2002-09-13 23:00;METAR CYEG 132300Z 33011KT 15SM FEW060 FEW270 17/02 A3001 RMK CU1CI0
CYEG;2002-09-14 00:00;METAR CYEG 140000Z 34009KT 15SM FEW060 FEW270 16/02 A3002 RMK CU1CI0 SLP173
CYEG;2002-09-14 01:00;METAR CYEG 140100Z 30005KT 15SM FEW060 FEW270 16/02 A3001 RMK CU1CI1 TR CU SLP171
CYEG;2002-09-14 02:00;METAR CYEG 140200Z 00000KT 15SM FEW070 SCT270 11/01 A3002 RMK AC1CI1 TR AC
CYEG;2002-09-14 03:00;METAR CYEG 140300Z 19004KT 15SM FEW070 FEW270 06/M00 A3003 RMK AC1CI1 TR CLD SLP187 SLP187
CYEG;2002-09-14 04:00;METAR CYEG 140400Z 18004KT 15SM FEW070 FEW270 06/00 A3004 RMK AC1CI1 TR CLD SLP189
CYEG;2002-09-14 05:00;METAR CYEG 140500Z 18006KT 15SM FEW070 FEW250 06/M00 A3003 RMK AC1CI1 TR AC SLP188
CYEG;2002-09-14 06:00;METAR CYEG 140600Z 18007KT 15SM FEW070 FEW250 04/M01 A3003 RMK AC1CI1 TR CLD SLP186 SLP186
CYEG;2002-09-14 07:00;METAR CYEG 140700Z 18007KT 15SM FEW070 FEW250 05/M00 A3003 RMK AC1CI1 TR CLD SLP185 SLP185
CYEG;2002-09-14 08:00;METAR CYEG 140800Z 18007KT 15SM FEW070 SCT250 04/M01 A3003 RMK AC1CI1
CYEG;2002-09-14 09:00;METAR CYEG 140900Z 18005KT 15SM FEW070 FEW250 03/00 A3002 RMK AC1CI1 SLP182
CYEG;2002-09-14 10:00;METAR CYEG 141000Z 16002KT 15SM FEW270 04/01 A3001 RMK CI1 TR CI SLP177
CYEG;2002-09-14 11:00;METAR CYEG 141100Z 17002KT 15SM SKC 03/00 A3001 RMK SLP177
CYEG;2002-09-14 12:00;METAR CYEG 141200Z 14006KT 15SM FEW270 02/M00 A2999 RMK CI1 TR CI SLP173
CYEG;2002-09-14 13:00;METAR CYEG 141300Z 14005KT 15SM BKN270 04/01 A2997 RMK CI2 CI INVDG SLP167
CYEG;2002-09-14 14:00;METAR CYEG 141400Z 16006KT 15SM BKN270 07/03 A2996 RMK CI2 SLP163
CYEG;2002-09-14 15:00;METAR CYEG 141500Z 20006KT 15SM OVC270 11/05 A2996 RMK CI3 SLP162
CYEG;2002-09-14 16:00;METAR CYEG 141600Z 21006KT 15SM FEW110 BKN270 15/07 A2994 RMK AC1CI3 SLP157
CYEG;2002-09-14 17:00;METAR CYEG 141700Z 18006KT 15SM BKN270 18/08 A2993 RMK CI2 SLP154
CYEG;2002-09-14 18:00;METAR CYEG 141800Z 19007KT 15SM BKN270 21/09 A2991 RMK CI2 SLP138
CYEG;2002-09-14 20:00;METAR CYEG 142000Z 18009KT 15SM FEW110 BKN230 23/09 A2988 RMK AS2CI5 SLP128
CYEG;2002-09-14 21:00;METAR CYEG 142100Z 19011KT 15SM FEW100 SCT150 OVC210 23/06 A2985 RMK AS2AC2CI2 SLP116 SLP116
CYEG;2002-09-14 22:00;METAR CYEG 142200Z 18013KT 15SM FEW100 BKN150 OVC210 23/06 A2983 RMK AC1AS5CI2 SLP110 SLP110
CYEG;2002-09-14 23:00;METAR CYEG 142300Z 19010KT 15SM BKN120 BKN170 OVC210 23/08 A2981 RMK AS5AC1CI2 SLP103 SLP103
CYEG;2002-09-15 00:00;METAR CYEG 150000Z 18009KT 15SM SCT140 BKN180 OVC250 23/08 A2979 RMK AS3AC2CI2 SLP096 SLP096
CYEG;2002-09-15 01:00;METAR CYEG 150100Z 16005KT 15SM FEW120 BKN160 OVC220 20/08 A2976 RMK AS2AC1CI2 SLP088 SLP088
CYEG;2002-09-15 02:00;METAR CYEG 150200Z 17007KT 15SM FEW120 FEW160 BKN210 19/08 A2974 RMK AS1AC1CI5 SLP081 SLP081
CYEG;2002-09-15 03:00;METAR CYEG 150300Z 18007KT 15SM FEW160 SCT200 BKN240 16/08 A2974 RMK AC1CI2CI2 SLP078 SLP078
CYEG;2002-09-15 04:00;METAR CYEG 150400Z 17006KT 15SM BKN160 OVC240 16/08 A2971 RMK AC6CI2 SLP071
CYEG;2002-09-15 05:00;METAR CYEG 150500Z 19006KT 15SM FEW160 BKN240 13/07 A2971 RMK AC2CI5 SLP070
CYEG;2002-09-15 06:00;METAR CYEG 150600Z 21003KT 15SM FEW160 SCT240 10/06 A2972 RMK AC1CI2 TR AC SLP069
CYEG;2002-09-15 07:00;METAR CYEG 150700Z 26005KT 15SM BKN250 10/06 A2974 RMK CI4 SLP073
CYEG;2002-09-15 08:00;METAR CYEG 150800Z 27007KT 15SM FEW160 SCT250 12/06 A2975 RMK AC1CI1 TR AC
CYEG;2002-09-15 09:00;METAR CYEG 150900Z 27006KT 15SM FEW250 11/06 A2977 RMK CI1 SLP082
CYEG;2002-09-15 10:00;METAR CYEG 151000Z 25004KT 15SM FEW250 07/04 A2978 RMK CI1 TR CI SLP086
CYEG;2002-09-15 11:00;METAR CYEG 151100Z 18002KT 15SM FEW250 06/02 A2979 RMK CI1 SLP089
CYEG;2002-09-15 12:00;METAR CYEG 151200Z 23002KT 15SM FEW250 04/01 A2980 RMK CI1 SLP099
CYEG;2002-09-15 13:00;METAR CYEG 151300Z 00000KT 15SM FEW120 BKN250 03/00 A2980 RMK AC1CI2 SLP098
CYEG;2002-09-15 14:00;METAR CYEG 151400Z 19004KT 12SM BKN250 05/03 A2982 RMK CI2 CC ASOCTD BR SLP104
CYEG;2002-09-15 15:00;METAR CYEG 151500Z 19004KT 12SM BKN250 10/06 A2983 RMK CI2 COTRA BR SLP112
CYEG;2002-09-15 16:00;METAR CYEG 151600Z 21002KT 15SM BKN250 15/08 A2984 RMK CI2 SLP115
CYEG;2002-09-15 17:00;METAR CYEG 151700Z 12003KT 15SM SCT250 19/07 A2985 RMK CI1 SLP116
CYEG;2002-09-15 18:00;METAR CYEG 151800Z 12006KT 15SM SCT250 20/08 A2983 RMK CI2 SLP108
CYEG;2002-09-15 19:00;METAR CYEG 151900Z 14007KT 15SM FEW250 21/08 A2982 RMK CI1 SLP103
CYEG;2002-09-15 20:00;METAR CYEG 152000Z 12007KT 15SM FEW250 23/08 A2980 RMK CI1 SLP096
CYEG;2002-09-15 21:00;METAR CYEG 152100Z 15010G15KT 15SM FEW200 SCT250 24/07 A2977 RMK CI1CI1 SLP080
CYEG;2002-09-15 22:00;METAR CYEG 152200Z 13014G21KT 15SM FEW160 BKN250 24/07 A2975 RMK AC1CI2 SLP075
CYEG;2002-09-15 23:00;METAR CYEG 152300Z 16011G18KT 15SM FEW180 BKN250 25/07 A2971 RMK AC2CI2 SLP064
CYEG;2002-09-16 00:00;METAR CYEG 160000Z 14011G16KT 15SM FEW180 BKN250 23/07 A2969 RMK AC1CI2 SLP061
CYEG;2002-09-16 01:00;METAR CYEG 160100Z 13011G16KT 15SM FEW150 FEW210 BKN250 23/08 A2966 RMK AC1CI1CI2 FEW ACSL WSW SLP051 FEW ACSL WSW SLP051
CYEG;2002-09-16 02:00;METAR CYEG 160200Z 10009KT 15SM SCT150 BKN180 BKN250 19/07 A2964 RMK AC2AC2CI1 SLP045 SLP045
CYEG;2002-09-16 03:00;METAR CYEG 160300Z 11010KT 15SM BKN150 BKN250 18/07 A2963 RMK AC6CI1 SLP038
CYEG;2002-09-16 04:00;METAR CYEG 160400Z 12010G15KT 15SM OVC130 19/06 A2961 RMK AC7 VIRGA SLP032
CYEG;2002-09-16 06:00;METAR CYEG 160600Z 12008KT 15SM SCT130 BKN250 13/05 A2958 RMK AC2CI2 SLP018
CYEG;2002-09-16 07:00;METAR CYEG 160700Z 12006KT 15SM FEW130 SCT250 11/04 A2958 RMK AC2CI1 SLP017
CYEG;2002-09-16 08:00;METAR CYEG 160800Z 00000KT 15SM FEW130 BKN250 10/04 A2957 RMK AC2CI2 SLP015
CYEG;2002-09-16 09:00;METAR CYEG 160900Z 25003KT 15SM FEW130 BKN250 07/03 A2958 RMK AC2CI2 SLP019
CYEG;2002-09-16 10:00;METAR CYEG 161000Z 17003KT 15SM FEW130 BKN250 06/02 A2957 RMK AC2CI5
CYEG;2002-09-16 11:00;METAR CYEG 161100Z 19003KT 15SM FEW130 BKN250 06/03 A2957 RMK AC1CI6 SLP016
CYEG;2002-09-16 12:00;METAR CYEG 161200Z 21003KT 15SM FEW130 BKN250 04/01 A2957 RMK AC1CI4
CYEG;2002-09-16 13:00;METAR CYEG 161300Z 23004KT 15SM FEW130 BKN250 07/04 A2958 RMK AC1CI6 SLP023
CYEG;2002-09-16 14:00;METAR CYEG 161400Z 23003KT 15SM FEW130 SCT180 OVC250 07/05 A2957 RMK AC1AC2CI1 SLP019
CYEG;2002-09-16 15:00;METAR CYEG 161500Z 29008KT 15SM FEW130 BKN250 12/07 A2958 RMK AC2CI3
CYEG;2002-09-16 16:00;METAR CYEG 161600Z 27005KT 15SM FEW130 OVC250 14/08 A2959 RMK AC2CI4 SLP024
CYEG;2002-09-16 17:00;METAR CYEG 161700Z 30006KT 15SM FEW170 BKN250 15/08 A2959 RMK AC2CI3 ACC/VIRGA NW SLP022 SLP022
CYEG;2002-09-16 18:00;METAR CYEG 161800Z 33010KT 15SM FEW150 BKN250 19/09 A2957 RMK AC2CI3 ACC/VIRGA N SLP017
CYEG;2002-09-16 19:00;METAR CYEG 161900Z 34005KT 15SM SCT140 BKN250 19/10 A2958 RMK AC3CI3 VIRGA N SLP018
CYEG;2002-09-16 20:00;METAR CYEG 162000Z 35009G15KT 15SM FEW140 BKN250 20/09 A2957 RMK AC2CI3
CYEG;2002-09-16 21:00;METAR CYEG 162100Z 34011KT 15SM SCT120 BKN250 21/09 A2957 RMK AC4CI3
CYEG;2002-09-16 22:00;METAR CYEG 162200Z 33008KT 15SM SCT120 BKN250 20/07 A2958 RMK AC3CI2 TCU TPS W SLP021 SLP021
CYEG;2002-09-16 23:00;METAR CYEG 162300Z 36006KT 15SM FEW120 SCT250 20/08 A2957 RMK AC2CI1 TCU TPS SW SLP019
CYEG;2002-09-17 00:00;METAR CYEG 170000Z 03005KT 15SM FEW120 SCT250 20/07 A2958 RMK AC2CI1 ACC/VIRGA WSW SLP025 WSW SLP025
CYEG;2002-09-17 01:00;METAR CYEG 170100Z 07002KT 15SM FEW120 SCT250 17/08 A2957 RMK AC2CI0 ACC W SLP023
CYEG;2002-09-17 02:00;METAR CYEG 170200Z 08005KT 15SM FEW120 FEW250 14/06 A2957 RMK AC1CI1 CB TPS W NW SLP023
CYEG;2002-09-17 03:00;METAR CYEG 170300Z 30015G20KT 15SM FEW093 SCT120 BKN250 14/06 A2962 RMK AC2AC1CI1 WND SHFT 0257Z CB TPS LTGCC W-SW N SLP038 WND SHFT 0257Z CB TPS LTGCC W-SW N SLP038 RMK CB2AC4CI1 TSTM S MVG E LGTCG S SLP054
CYEG;2002-09-17 05:00;METAR CYEG 170500Z 35003KT 15SM TS FEW060CB SCT091 BKN120 BKN240 11/07 A2969 RMK CB1AC3AC2CI1 LGTCG SE SLP060 CB1AC3AC2CI1 LGTCG SE SLP060
CYEG;2002-09-17 06:00;METAR CYEG 170600Z 24004KT 15SM -SHRA FEW057TCU BKN090 BKN120 10/07 A2970 RMK TCU2AC3AC2 SLP065 TCU2AC3AC2 SLP065
CYEG;2002-09-17 08:00;METAR CYEG 170800Z 29005KT 15SM FEW050 FEW090 SCT130 08/06 A2970 RMK SC1AC1AC2 SLP063 SLP063
CYEG;2002-09-17 09:00;METAR CYEG 170900Z 28007KT 15SM FEW130 08/06 A2970 RMK AC1 AURBO SLP063
CYEG;2002-09-17 10:00;METAR CYEG 171000Z 28007KT 15SM FEW120 07/05 A2970 RMK AC1 SLP065
CYEG;2002-09-17 11:00;METAR CYEG 171100Z 30006KT 15SM FEW120 06/04 A2971 RMK AC1 TR AC SLP067
CYEG;2002-09-17 12:00;METAR CYEG 171200Z 30006KT 15SM FEW120 SCT240 05/03 A2973 RMK AC1CI1 SLP075
CYEG;2002-09-17 13:00;METAR CYEG 171300Z 23004KT 15SM FEW120 SCT240 04/02 A2975 RMK AC1CI2 SLP082
CYEG;2002-09-17 14:00;METAR CYEG 171400Z 00000KT 15SM FEW120 BKN240 03/01 A2976 RMK AC1CI2 SLP084
CYEG;2002-09-17 15:00;METAR CYEG 171500Z 29005KT 15SM FEW120 BKN240 07/05 A2976 RMK AC1CI1 SLP091
CYEG;2002-09-17 16:00;METAR CYEG 171600Z 29005KT 15SM FEW120 BKN240 09/05 A2977 RMK AC1CI1 SLP094
CYEG;2002-09-17 17:00;METAR CYEG 171700Z 30008KT 15SM FEW120 BKN240 12/06 A2978 RMK AC1CI1 SLP096
CYEG;2002-09-17 18:00;METAR CYEG 171800Z 34010KT 15SM FEW120 BKN240 14/04 A2978 RMK AC1CI2
CYEG;2002-09-17 19:00;METAR CYEG 171900Z 30012KT 15SM FEW048 FEW120 SCT240 15/03 A2977 RMK CU1AC1CI2 SLP092 SLP092
CYEG;2002-09-17 20:00;METAR CYEG 172000Z 29009KT 15SM FEW060 FEW120 BKN240 16/01 A2977 RMK CU1AC1CI2 SLP091
CYEG;2002-09-17 21:00;METAR CYEG 172100Z 29011G16KT 15SM FEW064 FEW120 BKN240 16/00 A2976 RMK CU1AC1CI2 TR AC SLP089 TR AC SLP089
CYEG;2002-09-17 22:00;METAR CYEG 172200Z 27006KT 15SM FEW064 FEW120 BKN240 16/01 A2976 RMK CU1AC1CI1 TR AC G19 PST HR SLP087 AC G19 PST HR SLP087
CYEG;2002-09-17 23:00;METAR CYEG 172300Z 30008KT 15SM FEW064 FEW120 BKN240 16/01 A2976 RMK CU1AC1CI1 TR AC TCU W SLP088 AC TCU W SLP088
CYEG;2002-09-18 00:00;METAR CYEG 180000Z 30006KT 15SM FEW064 FEW120 BKN240 16/01 A2976 RMK CU1AC1CI1 TR AC TCU SW SLP091 AC TCU SW SLP091
CYEG;2002-09-18 01:00;METAR CYEG 180100Z 28004KT 15SM FEW064 FEW120 BKN240 15/01 A2977 RMK CU1AC1CI1 TR CU SLP095 CU SLP095
CYEG;2002-09-18 02:00;METAR CYEG 180200Z 31002KT 15SM FEW065 FEW120 SCT240 11/01 A2979 RMK SC1AC1CI1 TR AC SLP099 AC SLP099
CYEG;2002-09-18 03:00;METAR CYEG 180300Z 22003KT 15SM FEW065 SCT240 07/00 A2980 RMK SC1CI2 TR SC SLP110
CYEG;2002-09-18 04:00;METAR CYEG 180400Z 22004KT 15SM FEW150 SCT240 05/M01 A2981 RMK AC1CI2 SLP113
CYEG;2002-09-18 05:00;METAR CYEG 180500Z 21005KT 15SM FEW150 FEW240 04/M01 A2982 RMK AC1CI1 SLP116
CYEG;2002-09-18 06:00;METAR CYEG 180600Z 22005KT 15SM FEW140 FEW240 03/M01 A2983 RMK AC1CI1 TR AC
CYEG;2002-09-18 07:00;METAR CYEG 180700Z 22005KT 15SM FEW140 FEW240 04/M00 A2984 RMK AC1CI0 TR AC SLP120
CYEG;2002-09-18 08:00;METAR CYEG 180800Z 26003KT 15SM SKC 02/M01 A2985 RMK SLP124
CYEG;2002-09-18 09:00;METAR CYEG 180900Z 23004KT 15SM SKC 03/M01 A2986 RMK SLP125
CYEG;2002-09-18 10:00;METAR CYEG 181000Z 24004KT 15SM SKC 02/M02 A2987 RMK SLP130
CYEG;2002-09-18 11:00;METAR CYEG 181100Z 20005KT 15SM SKC 01/M03 A2988 RMK SLP131
CYEG;2002-09-18 12:00;METAR CYEG 181200Z 19003KT 15SM SKC M00/M04 A2988 RMK SLP136
CYEG;2002-09-18 13:00;METAR CYEG 181300Z 20005KT 15SM FEW100 M00/M04 A2987 RMK AC1 SLP134
CYEG;2002-09-18 14:00;METAR CYEG 181400Z 21003KT 15SM BKN100 02/M02 A2989 RMK AC4 SLP138
CYEG;2002-09-18 15:00;METAR CYEG 181500Z 19003KT 15SM SCT100 07/01 A2989 RMK AC2 SLP142
CYEG;2002-09-18 16:00;METAR CYEG 181600Z 22003KT 15SM SCT100 SCT250 12/01 A2988 RMK AC2CI0 SLP139
CYEG;2002-09-18 17:00;METAR CYEG 181700Z 24005KT 15SM SCT085 SCT250 14/M01 A2986 RMK AC2CI0 SLP134
CYEG;2002-09-18 18:00;METAR CYEG 181800Z 28007KT 15SM FEW085 BKN250 16/M01 A2983 RMK AC1CI1 SLP118
CYEG;2002-09-18 19:00;METAR CYEG 181900Z 26011KT 15SM FEW076 FEW085 BKN250 18/M01 A2983 RMK CU1AC1CI1 TR AC SLP116 TR AC SLP116
CYEG;2002-09-18 20:00;METAR CYEG 182000Z 23010G16KT 15SM FEW076 FEW090 BKN250 18/M02 A2982 RMK CU2AC1CI1 G18 PST HR SLP112
CYEG;2002-09-18 21:00;METAR CYEG 182100Z 23010G17KT 15SM FEW080 FEW100 BKN250 18/M02 A2979 RMK CU2AC1CI2 SLP100
CYEG;2002-09-18 22:00;METAR CYEG 182200Z 24005KT 15SM FEW080 FEW100 OVC220 18/M01 A2977 RMK CU1AC1CI3 SLP096 SLP096
CYEG;2002-09-18 23:00;METAR CYEG 182300Z 25007KT 15SM FEW080 FEW100 OVC200 17/M03 A2974 RMK CU1AC2CS4 SLP086 SLP086
CYEG;2002-09-19 00:00;METAR CYEG 190000Z 22005KT 15SM FEW080 SCT100 BKN200 16/M02 A2972 RMK CU1AC2CS4 SLP081 SLP081
CYEG;2002-09-19 01:00;METAR CYEG 190100Z 22004KT 15SM BKN090 BKN200 15/M02 A2971 RMK AC4CS2 SLP079
CYEG;2002-09-19 02:00;METAR CYEG 190200Z 24003KT 15SM BKN085 BKN200 13/M00 A2970 RMK AC3CS3 SLP074
CYEG;2002-09-19 03:00;METAR CYEG 190300Z 23005KT 15SM SCT076 BKN220 11/M01 A2970 RMK AC3CS3 SLP071
CYEG;2002-09-19 04:00;METAR CYEG 190400Z 21005KT 15SM SCT063 BKN120 BKN250 10/00 A2968 RMK SC2AC1CS1 SLP065 SLP065
CYEG;2002-09-19 05:00;METAR CYEG 190500Z 20005KT 15SM FEW060 BKN090 OVC250 09/01 A2965 RMK SC2AC2CS2 SLP058 SLP058
CYEG;2002-09-19 06:00;METAR CYEG 190600Z 19006KT 15SM FEW060 SCT090 BKN250 09/02 A2964 RMK SC1AC2CI1 SLP044 SLP044
CYEG;2002-09-19 07:00;METAR CYEG 190700Z 19007KT 15SM FEW080 SCT120 BKN250 09/02 A2961 RMK AC2AC2CI0 SLP036 SLP036
CYEG;2002-09-19 08:00;METAR CYEG 190800Z 18008KT 15SM FEW080 FEW120 BKN250 08/02 A2957 RMK AC1AC1CI1 SLP023 SLP023
CYEG;2002-09-19 09:00;METAR CYEG 190900Z 19009KT 15SM FEW080 BKN240 10/01 A2953 RMK AC1CI2 SLP007
CYEG;2002-09-19 10:00;METAR CYEG 191000Z 20008KT 15SM FEW120 BKN220 09/02 A2950 RMK AC1CI3 SLP997
CYEG;2002-09-19 11:00;METAR CYEG 191100Z 19009KT 15SM FEW120 BKN240 10/02 A2947 RMK AC2CI3 SLP987
CYEG;2002-09-19 12:00;METAR CYEG 191200Z 19009KT 15SM FEW120 BKN240 11/02 A2944 RMK AC1CI3 SLP975
CYEG;2002-09-19 13:00;METAR CYEG 191300Z 18007KT 15SM FEW070 FEW120 BKN250 10/02 A2941 RMK AC1AC1CI2 TR HIER AC SLP966 HIER AC SLP966
CYEG;2002-09-19 14:00;METAR CYEG 191400Z 18007KT 15SM FEW070 FEW120 BKN180 BKN250 12/03 A2938 RMK AC1AC2AC3CI2 SLP957
CYEG;2002-09-19 15:00;METAR CYEG 191500Z 22010KT 15SM FEW070 FEW120 BKN180 BKN250 16/05 A2936 RMK AC1AC2AC2CI2 SLP947
CYEG;2002-09-19 16:00;METAR CYEG 191600Z 22013KT 15SM FEW070 FEW120 BKN180 BKN250 19/05 A2934 RMK AC1AC1AC2CI2 SLP941
CYEG;2002-09-19 17:00;METAR CYEG 191700Z 35017KT 15SM FEW070 FEW120 SCT180 BKN250 19/06 A2935 RMK AC1AC1AC2CI2 WSHFT 1655Z SLP944 SC1AC1AC1CI1 PK GST 25 PST HR SLP960
CYEG;2002-09-19 19:00;METAR CYEG 191900Z 33017G22KT 15SM FEW035 BKN092 BKN200 15/06 A2943 RMK CF2AC5CI1 SLP971 SLP971
CYEG;2002-09-19 20:00;METAR CYEG 192000Z 32019G33KT 15SM FEW040 SCT064 BKN090 BKN250 14/03 A2946 RMK CF2SC2AC2CI1 SLP983 CF2SC2AC2CI1 SLP983
CYEG;2002-09-19 21:00;METAR CYEG 192100Z 31024G32KT 15SM FEW045 BKN069 OVC200 11/02 A2950 RMK CF2AC5CI1 SLP999 SLP999
CYEG;2002-09-19 22:00;METAR CYEG 192200Z 28011G18KT 15SM -SHRA FEW020 BKN080 OVC120 09/04 A2951 RMK CF2AC6AC1 SLP002 CF2AC6AC1 SLP002
CYEG;2002-09-19 23:00;METAR CYEG 192300Z 27012G18KT 15SM FEW020 SCT030 BKN070 OVC090 09/03 A2951 RMK CF1SC2AC3AC2 SLP003 CF1SC2AC3AC2 SLP003
CYEG;2002-09-20 00:00;METAR CYEG 200000Z 26012KT 15SM FEW020 FEW030 SCT070 BKN090 09/02 A2950 RMK CF1SC2AC2AC3 VIRGA NE-SE-SW BRK NW SLP001
CYEG;2002-09-20 01:00;METAR CYEG 200100Z 28009KT 15SM FEW020 FEW030 SCT090 BKN150 09/02 A2952 RMK CF1SC2AC2AC3 VIRGA TCU TPS NW HRZN SLP007
CYEG;2002-09-20 02:00;METAR CYEG 200200Z 28009KT 15SM FEW025 BKN150 09/01 A2954 RMK SC2AC5 FEW TCU TPS NW-N HRZN SLP013 NW-N HRZN SLP013
CYEG;2002-09-20 03:00;METAR CYEG 200300Z 29009G17KT 15SM FEW025 BKN150 BKN220 09/M01 A2956 RMK SC1AC3CI1 TCU/VIRGA ASOCTD W SLP019
CYEG;2002-09-20 04:00;METAR CYEG 200400Z 29014G21KT 15SM FEW060 FEW150 SCT220 08/M01 A2959 RMK SC1AC1CI2 TR SC SLP029
CYEG;2002-09-20 05:00;METAR CYEG 200500Z 30016KT 15SM FEW060 FEW220 08/M03 A2960 RMK SC1CI1 SLP031
CYEG;2002-09-20 06:00;METAR CYEG 200600Z 28012G18KT 15SM FEW060 FEW180 07/M02 A2961 RMK SC1AC1 SLP039
CYEG;2002-09-20 07:00;METAR CYEG 200700Z 27010G15KT 15SM FEW060 SCT130 BKN220 06/M02 A2962 RMK SC1AC2CI2 SLP042
CYEG;2002-09-20 08:00;METAR CYEG 200800Z 29013G19KT 15SM FEW045 BKN075 OVC130 07/M02 A2965 RMK SC1AC6AC2 SLP051
CYEG;2002-09-20 09:00;METAR CYEG 200900Z 27014G19KT 15SM FEW075 SCT110 SCT210 06/M02 A2966 RMK AC1AC2CI0 TR LWR AC SLP060
CYEG;2002-09-20 10:00;METAR CYEG 201000Z 27014KT 15SM FEW045 BKN095 BKN210 06/M02 A2968 RMK SC1AC5CI1 SLP065 SLP065
CYEG;2002-09-20 11:00;METAR CYEG 201100Z 30015G20KT 15SM -SHRA BKN035 BKN090 06/M01 A2969 RMK SC6AC1 CVCTV CLD EMBD SLP069 CVCTV CLD EMBD SLP069
CYEG;2002-09-20 13:00;METAR CYEG 201300Z 30017G24KT 15SM VCSH BKN031 OVC050 06/01 A2973 RMK SC7SC1 SHRA S-SW-W TCU EMBD SLP084 S-SW-W TCU EMBD SLP084
CYEG;2002-09-20 14:00;METAR CYEG 201400Z 31017G26KT 15SM BKN031 BKN060 07/00 A2976 RMK SC6SC2 SHRA S SLP094 SLP094
CYEG;2002-09-20 15:00;METAR CYEG 201500Z 30023G31KT 15SM FEW034 BKN060 BKN110 08/00 A2977 RMK SC2SC3AC1 SLP098 SLP098
CYEG;2002-09-20 16:00;METAR CYEG 201600Z 29021G29KT 15SM SCT035 BKN060 BKN110 BKN250 09/01 A2978 RMK SC3SC2AC1CI0 CU EMBDD LWR LYR SLP100 SC3SC2AC1CI0 CU EMBDD LWR LYR SLP100
CYEG;2002-09-20 17:00;METAR CYEG 201700Z 30026G34KT 15SM SCT040 BKN080 BKN150 BKN250 10/00 A2979 RMK CU4AC1AC1CI1 SLP104 CU4AC1AC1CI1 SLP104
CYEG;2002-09-20 18:00;METAR CYEG 201800Z 30025G33KT 15SM BKN040 BKN080 BKN250 10/00 A2981 RMK CU6AC1CI0 SLP112 SLP112
CYEG;2002-09-20 19:00;METAR CYEG 201900Z 31023G32KT 15SM SCT048 BKN065 BKN120 BKN250 11/M00 A2982 RMK CU4SC1AC1CI0 VIRGA S-SW SLP114 CU4SC1AC1CI0 VIRGA S-SW SLP114
CYEG;2002-09-20 20:00;METAR CYEG 202000Z 31025G35KT 15SM SCT048 BKN085 BKN120 11/M01 A2983 RMK CU4AC1AC1 SLP117
CYEG;2002-09-20 21:00;METAR CYEG 202100Z 30024G38KT 15SM BKN047 BKN075 11/M01 A2984 RMK CU5AC2 VIRGA SW SLP123 SLP123
CYEG;2002-09-20 22:00;METAR CYEG 202200Z 31023G31KT 15SM VCSH BKN047 BKN062 10/M01 A2986 RMK CU5SC2 SHRA SE+SW PK GST PST HR 40 KTS SLP129 SHRA SE+SW PK GST PST HR 40 KTS SLP129
CYEG;2002-09-20 23:00;METAR CYEG 202300Z 31018G25KT 15SM FEW045 BKN062 BKN200 10/M01 A2989 RMK CF2SC3CI1 VIRGA SW SLP136
CYEG;2002-09-21 00:00;METAR CYEG 210000Z 31017G27KT 15SM FEW045 SCT055 BKN160 BKN250 09/M01 A2991 RMK CF1SC2AC2CI1 CU EMBDD SLP146 CF1SC2AC2CI1 CU EMBDD SLP146
CYEG;2002-09-21 01:00;METAR CYEG 210100Z 31017G27KT 15SM FEW045 FEW055 SCT160 BKN250 08/M01 A2992 RMK CF1SC2AC1CI2 TR CF SLP150 CF1SC2AC1CI2 TR CF SLP150
CYEG;2002-09-21 02:00;METAR CYEG 210200Z 31016G25KT 15SM FEW055 SCT160 BKN230 07/M01 A2995 RMK SC2AC1CI1 TCU EMBDD SLP159
CYEG;2002-09-21 03:00;METAR CYEG 210300Z 30012G18KT 15SM SCT057 BKN230 07/M01 A2997 RMK SC3CI1 SLP170
CYEG;2002-09-21 04:00;METAR CYEG 210400Z 30014G20KT 15SM SCT055 BKN230 06/M00 A3000 RMK SC2CI2 SLP178
CYEG;2002-09-21 05:00;METAR CYEG 210500Z 30013G18KT 15SM FEW055 FEW100 FEW230 06/M00 A3002 RMK SC1AC1CI0 SLP183
CYEG;2002-09-21 06:00;METAR CYEG 210600Z 30010KT 15SM FEW030 FEW070 BKN200 05/M00 A3003 RMK SC1AC1CI2 SLP189 SLP189
CYEG;2002-09-21 07:00;METAR CYEG 210700Z 30013KT 15SM FEW030 FEW100 SCT170 SCT220 05/00 A3005 RMK SC1AC1AC1CI1 SLP194
CYEG;2002-09-21 08:00;METAR CYEG 210800Z 30014KT 15SM SCT030 BKN080 06/00 A3006 RMK SC3AC2 SLP199
CYEG;2002-09-21 09:00;METAR CYEG 210900Z 31011KT 15SM FEW030 BKN084 06/M00 A3008 RMK SC2AC5 SLP205
CYEG;2002-09-21 10:00;METAR CYEG 211000Z 30013G18KT 15SM FEW030 BKN062 BKN085 06/M00 A3010 RMK SC1SC4AC2 SLP212
CYEG;2002-09-21 11:00;METAR CYEG 211100Z 31013G20KT 15SM BKN052 06/M00 A3013 RMK SC7 VIRGA SLP219
CYEG;2002-09-21 12:00;METAR CYEG 211200Z 31013G18KT 15SM BKN030 BKN075 06/M00 A3015 RMK SC5AC2 SLP230
CYEG;2002-09-21 13:00;METAR CYEG 211300Z 31011KT 15SM BKN025 BKN075 06/00 A3017 RMK SC6AC2 SLP236
CYEG;2002-09-21 14:00;METAR CYEG 211400Z 32015G22KT 15SM BKN025 BKN075 06/M00 A3020 RMK SC6AC2 SLP245
CYEG;2002-09-21 15:00;METAR CYEG 211500Z 31009G15KT 15SM FEW020 BKN026 BKN075 06/M00 A3022 RMK CU1SC6AC1 TR CU NE-E SLP257
CYEG;2002-09-21 16:00;METAR CYEG 211600Z 31014G22KT 15SM BKN027 06/M01 A3024 RMK SC7 CU EMBDD SLP262
CYEG;2002-09-21 17:00;METAR CYEG 211700Z 31014KT 15SM BKN028 BKN250 07/M01 A3025 RMK SC6CI1 CU EMBDD SLP265 SLP265
CYEG;2002-09-21 18:00;METAR CYEG 211800Z 31012G18KT 15SM BKN032 BKN250 08/M01 A3024 RMK CU6CI1 SLP264
CYEG;2002-09-21 19:00;METAR CYEG 211900Z 31012G18KT 15SM BKN035 BKN250 09/M01 A3023 RMK CU5CI2 SLP261
CYEG;2002-09-21 20:00;METAR CYEG 212000Z 30013KT 15SM BKN040 BKN250 11/00 A3023 RMK CU5CI2 SLP259
CYEG;2002-09-21 21:00;METAR CYEG 212100Z 31011G16KT 15SM SCT045 BKN250 11/M01 A3021 RMK CU4CS2 SLP249
CYEG;2002-09-21 22:00;METAR CYEG 212200Z 32013KT 15SM FEW048 BKN250 11/M01 A3019 RMK CU2CS4 SLP244
CYEG;2002-09-21 23:00;METAR CYEG 212300Z 32009KT 15SM FEW048 FEW120 BKN220 11/M01 A3018 RMK CU1AC1CS6 TR AC SW SLP240 TR AC SW SLP240
CYEG;2002-09-22 00:00;METAR CYEG 220000Z 34005KT 15SM FEW048 FEW120 BKN220 11/M01 A3018 RMK CF1AC1CS6 TR CF+AC SLP238 TR CF+AC SLP238
CYEG;2002-09-22 01:00;METAR CYEG 220100Z 33004KT 15SM FEW120 BKN210 09/M01 A3015 RMK AC1CS7 SLP231
CYEG;2002-09-22 02:00;METAR CYEG 220200Z 36002KT 15SM FEW100 BKN150 BKN210 06/M02 A3013 RMK AC1AS5CS2 SLP223 SLP223
CYEG;2002-09-22 03:00;METAR CYEG 220300Z 06002KT 15SM BKN140 05/M02 A3011 RMK AS7 SLP221
CYEG;2002-09-22 04:00;METAR CYEG 220400Z 19004KT 15SM OVC120 06/M01 A3010 RMK AS8 SLP218
CYEG;2002-09-22 05:00;METAR CYEG 220500Z 18003KT 15SM OVC090 05/M01 A3009 RMK AS8 SLP214
CYEG;2002-09-22 06:00;METAR CYEG 220600Z 00000KT 15SM VCSH OVC057 06/M00 A3008 RMK SC8 SHRA N SLP205
CYEG;2002-09-22 07:00;METAR CYEG 220700Z 07004KT 15SM -SHRA SCT055 OVC075 06/02 A3006 RMK SC4AC4 SLP199
CYEG;2002-09-22 08:00;METAR CYEG 220800Z 12005KT 15SM FEW055 OVC080 06/02 A3003 RMK SC1AC7 SLP190
CYEG;2002-09-22 09:00;METAR CYEG 220900Z 19006KT 15SM SCT060 OVC077 06/01 A3002 RMK SC4AC4 SLP185
CYEG;2002-09-22 10:00;METAR CYEG 221000Z 20003KT 15SM BKN034 BKN055 OVC075 06/01 A3001 RMK SC5SC2AC2 VIRGA SLP181 VIRGA SLP181
CYEG;2002-09-22 11:00;METAR CYEG 221100Z 26006KT 15SM BKN031 OVC075 06/02 A3001 RMK SC6AC2 VIRGA SLP181
CYEG;2002-09-22 12:00;METAR CYEG 221200Z 29010KT 15SM FEW030 OVC090 06/03 A3002 RMK SC2AC6 VIRGA SLP183
CYEG;2002-09-22 13:00;METAR CYEG 221300Z 31015G20KT 15SM SCT020 BKN045 OVC130 07/03 A3004 RMK CF2SC5AC2 SLP191 SLP191
CYEG;2002-09-22 14:00;METAR CYEG 221400Z 31011G17KT 15SM BKN019 BKN070 07/02 A3008 RMK SC5AC2 SLP202
CYEG;2002-09-22 15:00;METAR CYEG 221500Z 33016G25KT 15SM FEW015 BKN020 OVC070 06/01 A3014 RMK SF1SC6AC1 SLP229 SLP229
CYEG;2002-09-22 16:00;METAR CYEG 221600Z 35012G20KT 15SM -RA SCT010 OVC015 04/01 A3021 RMK SC4SC4 SLP253
CYEG;2002-09-22 17:00;METAR CYEG 221700Z 34013KT 15SM SCT009 BKN012 OVC015 04/01 A3026 RMK SF2SC6SC1 SLP267 SLP267
CYEG;2002-09-22 18:00;METAR CYEG 221800Z 33015KT 15SM SCT012 BKN017 05/00 A3028 RMK SF2SC5 SLP278
CYEG;2002-09-22 19:00;METAR CYEG 221900Z 34015G20KT 15SM BKN020 BKN030 07/M00 A3029 RMK SC6SC2 SLP283
CYEG;2002-09-22 20:00;METAR CYEG 222000Z 33012G17KT 15SM BKN027 BKN040 07/M00 A3031 RMK CU5SC2 VIRGA N SLP288 SLP288 TCU ASOCTD SLP287
CYEG;2002-09-22 22:00;METAR CYEG 222200Z 35011G16KT 15SM SCT035 BKN047 10/M00 A3032 RMK CU3SC2 FEW TCU VIRGA SW+W SLP289 VIRGA SW+W SLP289
CYEG;2002-09-22 23:00;METAR CYEG 222300Z 32012KT 15SM FEW043 BKN048 08/M02 A3033 RMK CF2CU4 FEW TCU VIRGA S SLP292 VIRGA S SLP292
CYEG;2002-09-23 00:00;METAR CYEG 230000Z 31010KT 15SM FEW045 BKN052 08/M02 A3033 RMK CU2SC3 SLP293
CYEG;2002-09-23 01:00;METAR CYEG 230100Z 35006KT 15SM FEW045 FEW052 FEW120 FEW250 07/M02 A3033 RMK CF1SC2AC1CI0 TR CF+AC SLP291 CF1SC2AC1CI0 TR CF+AC SLP291
CYEG;2002-09-23 02:00;METAR CYEG 230200Z 30004KT 15SM BKN041 BKN250 06/M02 A3033 RMK SC5CI0 SLP292
CYEG;2002-09-23 03:00;METAR CYEG 230300Z 35008KT 15SM BKN040 BKN250 06/M02 A3034 RMK SC6CI0 SLP300
CYEG;2002-09-23 04:00;METAR CYEG 230400Z 34004KT 15SM FEW040 FEW250 02/M03 A3035 RMK SC1CI0 SLP302
CYEG;2002-09-23 05:00;METAR CYEG 230500Z 00000KT 15SM FEW050 FEW250 M02/M06 A3034 RMK SC1CI1 TR SC SLP299 SLP299
CYEG;2002-09-23 07:00;METAR CYEG 230700Z 21004KT 15SM FEW250 M04/M07 A3031 RMK CI0 SLP299
CYEG;2002-09-23 08:00;METAR CYEG 230800Z 18003KT 15SM FEW250 M05/M07 A3030 RMK CI0 SLP294
CYEG;2002-09-23 09:00;METAR CYEG 230900Z 19003KT 15SM SCT250 M04/M07 A3028 RMK CI1 SLP286
CYEG;2002-09-23 10:00;METAR CYEG 231000Z 18007KT 15SM FEW160 BKN250 M04/M07 A3025 RMK AC1CI1 FROIN SLP277 SLP277
CYEG;2002-09-23 11:00;METAR CYEG 231100Z 18007KT 15SM BKN170 BKN250 M03/M06 A3022 RMK AC5CI1 SLP267
CYEG;2002-09-23 12:00;METAR CYEG 231200Z 18005KT 15SM BKN150 OVC250 M02/M04 A3019 RMK AC6CI1 SLP252
CYEG;2002-09-23 13:00;METAR CYEG 231300Z 16006KT 15SM BKN140 BKN250 00/M03 A3016 RMK AC6CI0 SLP241
CYEG;2002-09-23 14:00;METAR CYEG 231400Z 17004KT 15SM SCT110 BKN150 BKN180 BKN250 00/M03 A3013 RMK AC2AC1AC1CI1 SLP233 AC2AC1AC1CI1 SLP233
CYEG;2002-09-23 15:00;METAR CYEG 231500Z 14007KT 15SM BKN093 BKN110 BKN250 02/M02 A3010 RMK AC5AC2CI1 SLP221 SLP221
CYEG;2002-09-23 16:00;METAR CYEG 231600Z 17005KT 15SM BKN073 BKN095 BKN110 BKN250 04/M02 A3008 RMK AC6AC1AC1CI1 TR CI SLP215 AC6AC1AC1CI1 TR CI SLP215
CYEG;2002-09-23 17:00;METAR CYEG 231700Z 18006KT 15SM BKN071 OVC095 05/M01 A3006 RMK AC6AC1 VIRGA OVHD NW QUAD SLP208 NW QUAD SLP208
CYEG;2002-09-23 19:00;METAR CYEG 231900Z 27009KT 15SM SCT059 BKN073 BKN100 07/02 A3004 RMK SC3AC3AC1 SLP203 SLP203
CYEG;2002-09-23 20:00;METAR CYEG 232000Z 29009KT 15SM FEW060 SCT075 BKN096 BKN250 09/02 A3003 RMK SC2AC2AC2CI1 SLP201
CYEG;2002-09-23 21:00;METAR CYEG 232100Z 27010KT 15SM FEW030 SCT060 BKN100 BKN250 10/02 A3001 RMK CU2SC2AC2CI1 VIRGA SW G15 PST HR SLP191
CYEG;2002-09-23 22:00;METAR CYEG 232200Z 29011G18KT 15SM SCT035 BKN100 BKN250 11/03 A3001 RMK CU3AC3CI1 SLP190 SLP190
CYEG;2002-09-23 23:00;METAR CYEG 232300Z 30010G15KT 15SM SCT040 SCT100 BKN250 11/02 A3001 RMK CU3AC1CI2 SLP190
CYEG;2002-09-24 00:00;METAR CYEG 240000Z 30013G18KT 15SM BKN043 BKN100 BKN150 12/02 A3002 RMK SC5AC1AC1 SLP188 SLP188
CYEG;2002-09-24 01:00;METAR CYEG 240100Z 32010G15KT 15SM FEW045 SCT060 SCT120 BKN250 10/01 A3002 RMK SC2SC1AC1CI1 TR AC SLP189 SC2SC1AC1CI1 TR AC SLP189
CYEG;2002-09-24 02:00;METAR CYEG 240200Z 35005KT 15SM FEW045 SCT130 BKN250 08/01 A3004 RMK SC2AC1CI1 SLP195 SLP195
CYEG;2002-09-24 03:00;METAR CYEG 240300Z 35005KT 15SM FEW130 FEW250 04/M01 A3005 RMK AC1CI0 SLP204
CYEG;2002-09-24 04:00;METAR CYEG 240400Z 32007KT 15SM SCT055 03/M02 A3007 RMK SC2 SLP211
CYEG;2002-09-24 05:00;METAR CYEG 240500Z 33006KT 15SM FEW050 04/M02 A3009 RMK SC2 SLP217
CYEG;2002-09-24 06:00;METAR CYEG 240600Z 31004KT 15SM FEW050 FEW080 01/M03 A3011 RMK SC1AC1 SLP224
CYEG;2002-09-24 07:00;METAR CYEG 240700Z 27003KT 15SM FEW080 M02/M05 A3012 RMK AC1 SLP226
CYEG;2002-09-24 08:00;METAR CYEG 240800Z 27003KT 15SM SCT075 M03/M06 A3012 RMK AC2 CLD LYR INVDG FM NW SLP227 SLP227
CYEG;2002-09-24 09:00;METAR CYEG 240900Z 22002KT 15SM BKN080 M03/M06 A3012 RMK AC5 SLP228
CYEG;2002-09-24 10:00;METAR CYEG 241000Z 24006KT 15SM BKN075 M02/M05 A3013 RMK AC6 SLP229
CYEG;2002-09-24 11:00;METAR CYEG 241100Z 00000KT 15SM BKN050 OVC075 01/M03 A3013 RMK SC6AC2 VIRGA OVRHD SLP229 SLP229
CYEG;2002-09-24 12:00;METAR CYEG 241200Z 26004KT 15SM BKN048 BKN085 02/M02 A3013 RMK SC6AC1 SLP225
CYEG;2002-09-24 13:00;METAR CYEG 241300Z 34003KT 15SM -SHRAPL FEW038 BKN047 BKN075 01/M02 A3014 RMK SC2SC3AC2 TCU EMBD SLP227 SC2SC3AC2 TCU EMBD SLP227
CYEG;2002-09-24 14:00;METAR CYEG 241400Z 27002KT 15SM BKN028 BKN040 BKN080 02/M01 A3014 RMK SC3SC1AC1 TCU EMBD SH SE QUAD SLP229 TCU EMBD SH SE QUAD SLP229
CYEG;2002-09-24 15:00;METAR CYEG 241500Z 27002KT 15SM FEW030 BKN100 03/00 A3015 RMK SC1AC6 SLP236
CYEG;2002-09-24 16:00;METAR CYEG 241600Z 28002KT 15SM FEW015 FEW030 BKN110 05/01 A3015 RMK CF1SC1AC6 TR CF SLP236 CF SLP236
CYEG;2002-09-24 17:00;METAR CYEG 241700Z 29005KT 15SM FEW020 FEW100 BKN120 06/01 A3015 RMK CU1AC1AC6 SLP239 SLP239
CYEG;2002-09-24 18:00;METAR CYEG 241800Z 27007KT 15SM FEW025 FEW050 SCT100 BKN120 08/02 A3015 RMK CU1SC1AC2AC4 VIRGA NW TR SC SLP236
CYEG;2002-09-24 19:00;METAR CYEG 241900Z 31007KT 15SM FEW035 SCT100 BKN120 09/M01 A3015 RMK CU2AC2AC4 VIRGA S-W SLP236 VIRGA S-W SLP236
CYEG;2002-09-24 20:00;METAR CYEG 242000Z 28009KT 15SM FEW040 SCT100 BKN120 09/M01 A3014 RMK CU2AC2AC3 VIRGA SW QUAD SLP233 VIRGA SW QUAD SLP233
CYEG;2002-09-24 21:00;METAR CYEG 242100Z 31007KT 15SM FEW045 BKN090 BKN120 09/M02 A3013 RMK CU2AC3AC2 VIRGA S-SW SLP230 VIRGA S-SW SLP230
CYEG;2002-09-24 22:00;METAR CYEG 242200Z 29010G18KT 15SM FEW050 SCT090 BKN120 10/M02 A3012 RMK SC2AC2AC2 TCU ASOCTD SHRA N + S QUADS SLP228
CYEG;2002-09-24 23:00;METAR CYEG 242300Z 01017G28KT 15SM VCSH SCT035TCU BKN071 BKN120 06/02 A3013 RMK TCU4AC2AC2 TCU SHRASN SE SLP232 TCU4AC2AC2 TCU SHRASN SE SLP232
CYEG;2002-09-25 00:00;METAR CYEG 250000Z 36007KT 15SM FEW050 BKN091 BKN110 07/01 A3014 RMK SC2AC3AC2 VIRGA ALQDS SLP233 VIRGA ALQDS SLP233
CYEG;2002-09-25 01:00;METAR CYEG 250100Z 35007KT 15SM FEW050 BKN084 BKN110 06/01 A3014 RMK SC2AC2AC1 TCU ASOCTD SH SE VIRGA W QUAD SLP232 TCU ASOCTD SH SE VIRGA W QUAD SLP232
CYEG;2002-09-25 02:00;METAR CYEG 250200Z 35003KT 15SM FEW060 FEW085 FEW250 03/M00 A3015 RMK SC1AC1CI0 SLP237 SLP237
CYEG;2002-09-25 03:00;METAR CYEG 250300Z 22003KT 15SM FEW085 M00/M03 A3016 RMK AC1 SLP244
CYEG;2002-09-25 04:00;METAR CYEG 250400Z 22005KT 15SM SKC M02/M04 A3016 RMK SLP246
CYEG;2002-09-25 05:00;METAR CYEG 250500Z 20004KT 15SM SKC M02/M04 A3017 RMK SLP247
CYEG;2002-09-25 06:00;METAR CYEG 250600Z 20003KT 15SM SKC M04/M06 A3016 RMK SLP244
CYEG;2002-09-25 07:00;METAR CYEG 250700Z 21003KT 15SM FEW040 M03/M05 A3016 RMK SC2 SLP243
CYEG;2002-09-25 08:00;METAR CYEG 250800Z 24004KT 15SM FEW034 M04/M06 A3016 RMK SC2 SLP243
CYEG;2002-09-25 09:00;METAR CYEG 250900Z 23005KT 15SM FEW034 M03/M05 A3015 RMK SC1 FROIN SLP238
CYEG;2002-09-25 10:00;METAR CYEG 251000Z 21005KT 15SM FEW034 M04/M06 A3013 RMK SC1 FROIN SLP233
CYEG;2002-09-25 11:00;METAR CYEG 251100Z 21004KT 15SM FEW034 M04/M06 A3012 RMK SC2 FROIN SLP229
CYEG;2002-09-25 12:00;METAR CYEG 251200Z 22003KT 15SM FEW034 FEW090 M05/M07 A3011 RMK SC1AC1 FROIN SLP227 SLP227
CYEG;2002-09-25 13:00;METAR CYEG 251300Z 26005KT 15SM FEW090 M03/M05 A3011 RMK AC1 FROIN SLP228
CYEG;2002-09-25 14:00;METAR CYEG 251400Z 27006KT 15SM BKN080 BKN090 01/M02 A3011 RMK AC5AC1 AC INVDG SLP229 SLP229
CYEG;2002-09-25 15:00;METAR CYEG 251500Z 29006KT 15SM SCT070 BKN079 03/M00 A3011 RMK AC4AC2 VIRGA/SH DIST SW QUAD SLP228 DIST SW QUAD SLP228
CYEG;2002-09-25 16:00;METAR CYEG 251600Z 29005KT 15SM FEW070 BKN096 04/00 A3012 RMK AC2AC6 VIRGA/SH DIST SW QUAD SLP231 DIST SW QUAD SLP231
CYEG;2002-09-25 18:00;METAR CYEG 251800Z 31006KT 15SM FEW070 BKN100 BKN250 09/M01 A3010 RMK AC1AC4CI1 SLP224 SLP224
CYEG;2002-09-25 19:00;METAR CYEG 251900Z 29009KT 15SM FEW070 BKN100 BKN250 10/M02 A3009 RMK AC1AC5CI1 TR LWR AC SLP220 TR LWR AC SLP220
CYEG;2002-09-25 20:00;METAR CYEG 252000Z 32012G17KT 15SM BKN100 BKN250 12/M07 A3008 RMK AC6CI0 SLP217
CYEG;2002-09-25 21:00;METAR CYEG 252100Z 33009KT 15SM FEW070 BKN100 BKN250 11/M06 A3007 RMK AC1AC6CI1 TR LWR AC SLP208 TR LWR AC SLP208
CYEG;2002-09-25 22:00;METAR CYEG 252200Z 32008KT 15SM BKN079 BKN100 BKN250 11/M06 A3006 RMK AC5AC2CI1 VIRGA NE QUAD SLP207 VIRGA NE QUAD SLP207
CYEG;2002-09-25 23:00;METAR CYEG 252300Z 33006KT 15SM BKN072 BKN100 BKN250 11/M06 A3005 RMK AC6AC2CI1 TR CI SLP204 TR CI SLP204
CYEG;2002-09-26 00:00;METAR CYEG 260000Z 03007KT 15SM BKN071 BKN100 BKN250 10/M06 A3004 RMK AC5AC2CI1 SLP201 SLP201
CYEG;2002-09-26 01:00;METAR CYEG 260100Z 04003KT 15SM BKN067 BKN090 BKN250 08/M05 A3002 RMK AC6AC1CI1 SLP196 SLP196
CYEG;2002-09-26 02:00;METAR CYEG 260200Z 00000KT 15SM SCT067 BKN090 OVC250 06/M04 A3002 RMK AC4AC2CI1 SLP193 SLP193
CYEG;2002-09-26 03:00;METAR CYEG 260300Z 00000KT 15SM SCT067 OVC095 05/M04 A3000 RMK AC4AC4 SLP185
CYEG;2002-09-26 04:00;METAR CYEG 260400Z 18005KT 15SM FEW067 BKN100 06/M05 A2999 RMK AC2AC5 SLP182
CYEG;2002-09-26 05:00;METAR CYEG 260500Z 20005KT 15SM FEW067 BKN100 OVC180 04/M05 A2998 RMK AC1AC6AC1 SLP178 SLP178
CYEG;2002-09-26 06:00;METAR CYEG 260600Z 18007KT 15SM BKN100 BKN150 04/M05 A2996 RMK AC6AC2 SLP167
CYEG;2002-09-26 07:00;METAR CYEG 260700Z 20005KT 15SM SCT100 BKN140 03/M04 A2995 RMK AC3AC4 SLP162
CYEG;2002-09-26 08:00;METAR CYEG 260800Z 21003KT 15SM FEW070 BKN140 BKN250 02/M04 A2993 RMK AC2AC3CI0 SLP158 SLP158
CYEG;2002-09-26 09:00;METAR CYEG 260900Z 01002KT 15SM BKN070 BKN140 02/M03 A2992 RMK AC6AC2 SLP152
CYEG;2002-09-26 10:00;METAR CYEG 261000Z 29003KT 15SM BKN070 OVC140 04/M01 A2991 RMK AC6AC1 SLP149
CYEG;2002-09-26 11:00;METAR CYEG 261100Z 27005KT 15SM -SHRA BKN053 OVC070 04/01 A2990 RMK SC6AC2 SLP146
CYEG;2002-09-26 12:00;METAR CYEG 261200Z 32002KT 15SM -SHRA SCT052 OVC070 04/00 A2990 RMK SC4AC3
CYEG;2002-09-26 13:00;METAR CYEG 261300Z 35003KT 15SM -SHRASN BKN048 BKN070 03/M00 A2990 RMK SC5AC2 SLP146
CYEG;2002-09-26 14:00;METAR CYEG 261400Z 00000KT 15SM -SHRA BKN040 BKN060 BKN250 03/00 A2990 RMK SC5SC2CI1 SLP147
CYEG;2002-09-26 15:00;METAR CYEG 261500Z 33002KT 15SM -SHRA BKN037 BKN120 BKN250 04/01 A2991 RMK SC6AC1CI1 SLP153
CYEG;2002-09-26 16:00;METAR CYEG 261600Z 00000KT 15SM FEW035 BKN053 BKN120 OVC250 05/00 A2992 RMK SC2SC3AC2CI1 SHRA SE NW SLP155
CYEG;2002-09-26 17:00;METAR CYEG 261700Z 04002KT 15SM BKN057 BKN110 BKN250 07/M01 A2993 RMK SC5AC1CI1 SLP157 SLP157
CYEG;2002-09-26 18:00;METAR CYEG 261800Z 33003KT 15SM FEW065 FEW110 SCT250 09/M00 A2992 RMK SC1AC2CI1 SLP154 SLP154
CYEG;2002-09-26 19:00;METAR CYEG 261900Z 36004KT 15SM BKN051 BKN120 OVC250 11/M02 A2992 RMK SC6AC2CI0 SC INDVG SLP154 SC INDVG SLP154
CYEG;2002-09-26 20:00;METAR CYEG 262000Z 36007KT 15SM BKN048 BKN120 10/M03 A2993 RMK SC6AC1
CYEG;2002-09-26 21:00;METAR CYEG 262100Z 02010KT 15SM OVC047 10/M03 A2994 RMK SC8 VIRGA W SLP161
CYEG;2002-09-26 22:00;METAR CYEG 262200Z 01010KT 15SM BKN043 OVC100 09/M02 A2996 RMK SC7AC1 VIRGA S QUAD SLP166 QUAD SLP166
CYEG;2002-09-26 23:00;METAR CYEG 262300Z 03009KT 15SM BKN047 BKN100 OVC240 08/M02 A2997 RMK SC6AC1CI1 VIRGA N-NE SLP169 VIRGA N-NE SLP169
CYEG;2002-09-27 00:00;METAR CYEG 270000Z 36007KT 15SM -SHRA BKN045 BKN240 06/M00 A2999 RMK SC7CI1 TR CI SLP178 SLP178
CYEG;2002-09-27 01:00;METAR CYEG 270100Z 31004KT 15SM BKN065 BKN240 06/M00 A3000 RMK SC6CI0 SHRA S-SE SLP182 SLP182
CYEG;2002-09-27 02:00;METAR CYEG 270200Z 31004KT 15SM BKN067 BKN100 BKN240 04/M01 A3001 RMK AC6AC1CI1 SLP185 SLP185
CYEG;2002-09-27 03:00;METAR CYEG 270300Z 32004KT 15SM FEW067 FEW100 SCT240 02/M02 A3002 RMK AC1AC1CI2 TR HIER AC SLP195 TR HIER AC SLP195
CYEG;2002-09-27 04:00;METAR CYEG 270400Z 31002KT 15SM FEW067 FEW100 OVC210 M01/M03 A3004 RMK AC2AC1CI5 SLP199 SLP199
CYEG;2002-09-27 05:00;METAR CYEG 270500Z 00000KT 15SM FEW067 SCT100 OVC210 M01/M04 A3005 RMK AC1AC2CI3 SLP203 SLP203
CYEG;2002-09-27 06:00;METAR CYEG 270600Z 00000KT 15SM MIFG FEW100 SCT170 BKN210 M01/M03 A3006 RMK AC1AS2CI3 SLP205
CYEG;2002-09-27 07:00;METAR CYEG 270700Z 00000KT 3/4SM R12/P6000FT R02/1100FT BR SCT170 BKN210 M04/M06 A3007 RMK FG2AS1CI2 SLP207 A3007 RMK FG2AS1CI2 SLP207
CYEG;2002-09-27 08:00;METAR CYEG 270800Z 22002KT 1/8SM R12/1600FT R02/1200FT FZFG BKN210 M06/M08 A3008 RMK FG4CI2 FROIN SLP211 RMK FG4CI2 FROIN SLP211
CYEG;2002-09-27 09:00;METAR CYEG 270900Z 17002KT 1/8SM R12/1800FT R02/4000FT FZFG BKN210 M07/M10 A3008 RMK FG5CI2 FROIN SLP218 RMK FG5CI2 FROIN SLP218
CYEG;2002-09-27 10:00;METAR CYEG 271000Z 19002KT 2 1/2SM BR BKN065 BKN210 M07/M09 A3008 RMK FG2SC3CI2 VIS SW NW 3/4 SM FROIN SLP217 VIS SW NW 3/4 SM FROIN SLP217
CYEG;2002-09-27 11:00;METAR CYEG 271100Z 14004KT 15SM FEW064 FEW190 BKN210 M08/M10 A3008 RMK SC1AC1CI2 FROIN SLP217 FROIN SLP217
CYEG;2002-09-27 13:00;METAR CYEG 271300Z 15003KT 15SM FEW060 FEW180 FEW210 M07/M09 A3008 RMK SC1AC1CI1 FROIN SLP221 FROIN SLP221
CYEG;2002-09-27 14:00;METAR CYEG 271400Z 23002KT 15SM FEW060 FEW210 M09/M13 A3008 RMK SC1CI1 TR CI FROIN SLP224 FROIN SLP224
CYEG;2002-09-27 15:00;METAR CYEG 271500Z 18003KT 15SM FEW060 FEW220 M04/M07 A3009 RMK SC1CI1 TR CLD SLP225 SLP225
CYEG;2002-09-27 16:00;METAR CYEG 271600Z 18005KT 15SM FEW003 FEW220 M00/M04 A3008 RMK SF1CI1 TR CI SLP224 SLP224
CYEG;2002-09-27 17:00;METAR CYEG 271700Z 22004KT 15SM FEW020 05/M00 A3008 RMK CU1 TR CU SLP221
CYEG;2002-09-27 18:00;METAR CYEG 271800Z 24004KT 15SM FEW024 07/00 A3006 RMK CU2 SLP206
CYEG;2002-09-27 19:00;METAR CYEG 271900Z 19007KT 15SM SCT040 SCT140 09/M01 A3004 RMK CU3AC1 SLP202
CYEG;2002-09-27 20:00;METAR CYEG 272000Z 18009KT 15SM FEW050 09/M03 A3001 RMK CU2 SLP192
CYEG;2002-09-27 21:00;METAR CYEG 272100Z 19008KT 15SM SCT050 10/M01 A2999 RMK CU4 SLP185
CYEG;2002-09-27 22:00;METAR CYEG 272200Z 23011KT 15SM SCT050 SCT250 11/M01 A2996 RMK CU3CI1 TR CI
CYEG;2002-09-27 23:00;METAR CYEG 272300Z 24012KT 15SM SCT050 SCT250 11/M01 A2995 RMK CU3CI0 SLP173
CYEG;2002-09-28 00:00;METAR CYEG 280000Z 19008KT 15SM FEW050 SCT250 10/M01 A2992 RMK CU1CI2 SLP164
CYEG;2002-09-28 01:00;METAR CYEG 280100Z 18007KT 15SM FEW120 SCT250 08/M02 A2989 RMK AC1CI2 SLP156
CYEG;2002-09-28 02:00;METAR CYEG 280200Z 16007KT 15SM FEW120 FEW250 07/M02 A2988 RMK AC1CI1 SLP150
CYEG;2002-09-28 03:00;METAR CYEG 280300Z 16009KT 15SM FEW150 SCT250 07/M02 A2985 RMK AC1CI1 SLP140
CYEG;2002-09-28 04:00;METAR CYEG 280400Z 16010G15KT 15SM SCT130 BKN240 06/M01 A2983 RMK AC2CI1 SLP133
CYEG;2002-09-28 05:00;METAR CYEG 280500Z 17010KT 15SM FEW130 BKN250 05/M01 A2981 RMK AC1CI2 SLP125
CYEG;2002-09-28 06:00;METAR CYEG 280600Z 18009KT 15SM FEW130 BKN180 BKN250 04/M01 A2978 RMK AC1AS3CI2 SLP107 SLP107
CYEG;2002-09-28 07:00;METAR CYEG 280700Z 18009KT 15SM SCT130 BKN180 05/00 A2976 RMK AC3AS3 SLP098
CYEG;2002-09-28 08:00;METAR CYEG 280800Z 18008KT 15SM SCT100 OVC170 05/01 A2973 RMK AC3AS4 SLP090
CYEG;2002-09-28 09:00;METAR CYEG 280900Z 18008KT 15SM BKN074 OVC130 06/01 A2972 RMK AC5AS3 SLP080
CYEG;2002-09-28 10:00;METAR CYEG 281000Z 21002KT 15SM SCT060 OVC077 06/02 A2971 RMK SC4AC4 VIRGA SLP077
CYEG;2002-09-28 12:00;METAR CYEG 281200Z 18005KT 12SM -SHRA FEW060 OVC084 06/04 A2968 RMK SC2AC6 SLP067
CYEG;2002-09-28 13:00;METAR CYEG 281300Z 18006KT 15SM FEW034 SCT060 BKN085 BKN170 06/04 A2965 RMK CF2SC2AC2AC1 SLP058
CYEG;2002-09-28 14:00;METAR CYEG 281400Z 18006KT 15SM BKN051 BKN090 BKN120 OVC240 06/04 A2964 RMK SC5AC1AS1CI1 VIRGA NW SLP053
CYEG;2002-09-28 15:00;METAR CYEG 281500Z 18008KT 15SM BKN053 BKN090 OVC240 07/05 A2962 RMK SC6AC1CI1 VIRGA NE SLP048 VIRGA NE SLP048
CYEG;2002-09-28 16:00;METAR CYEG 281600Z 18007KT 15SM BKN058 BKN120 OVC240 09/06 A2960 RMK SC6AS1CI1 SLP042 SLP042
CYEG;2002-09-28 17:00;METAR CYEG 281700Z 18009KT 15SM FEW060 BKN140 BKN240 11/07 A2958 RMK SC2AS3CS2 HALO SLP035 HALO SLP035
CYEG;2002-09-28 18:00;METAR CYEG 281800Z 19008KT 15SM FEW063 BKN130 BKN240 13/06 A2956 RMK SC2AS2CS2 SLP026 SLP026
CYEG;2002-09-28 19:00;METAR CYEG 281900Z 18008KT 15SM FEW070 BKN130 BKN240 15/07 A2955 RMK AC1AC3CI2 SLP021 SLP021
CYEG;2002-09-28 20:00;METAR CYEG 282000Z 21007KT 15SM BKN090 BKN240 19/08 A2953 RMK AC5CI1 SLP015
CYEG;2002-09-28 21:00;METAR CYEG 282100Z 19009KT 15SM FEW085 SCT140 BKN240 21/08 A2949 RMK AC2AC1CI1 SLP992 SLP992
CYEG;2002-09-28 22:00;METAR CYEG 282200Z 24009KT 15SM FEW085 SCT140 BKN240 21/07 A2948 RMK AC1AC2CI2 SLP989 SLP989
CYEG;2002-09-28 23:00;METAR CYEG 282300Z 24007KT 15SM FEW080 SCT150 BKN240 22/07 A2945 RMK AC2AC1CI1 VIRGA W-NW FEW CC ASOCTD SLP979 VIRGA W-NW FEW CC ASOCTD SLP979
CYEG;2002-09-29 00:00;METAR CYEG 290000Z 18002KT 15SM FEW055 BKN090 BKN140 BKN240 21/07 A2944 RMK SC1AC4AC1CI1 VIRGA W-N SLP974
CYEG;2002-09-29 01:00;METAR CYEG 290100Z 16002KT 15SM BKN100 BKN140 BKN240 18/08 A2942 RMK AC6AC1CI1 VIRGA N SLP969 VIRGA N SLP969
CYEG;2002-09-29 02:00;METAR CYEG 290200Z 00000KT 15SM FEW075 BKN100 BKN240 15/08 A2942 RMK AC2AC6CI1 VIRGA SLP969 VIRGA SLP969
CYEG;2002-09-29 03:00;METAR CYEG 290300Z 27009KT 15SM BKN090 BKN110 17/07 A2943 RMK AC6AC2 SHRA NE SLP974 SLP974
CYEG;2002-09-29 04:00;METAR CYEG 290400Z 28008KT 15SM BKN110 BKN240 15/06 A2944 RMK AC6CI1 SHRA N SLP977
CYEG;2002-09-29 05:00;METAR CYEG 290500Z 29013KT 15SM BKN110 16/06 A2946 RMK AC5 SHRA N SLP983
CYEG;2002-09-29 06:00;METAR CYEG 290600Z 30007KT 15SM SCT110 BKN240 13/05 A2948 RMK AC2CI1 SLP991
CYEG;2002-09-29 07:00;METAR CYEG 290700Z 32010KT 15SM FEW100 BKN240 14/05 A2951 RMK AC2CI5 SLP998
CYEG;2002-09-29 08:00;METAR CYEG 290800Z 34010G16KT 15SM SCT110 BKN240 12/04 A2952 RMK AC3CI4 SLP003
CYEG;2002-09-29 09:00;METAR CYEG 290900Z 32006KT 15SM FEW100 OVC240 10/04 A2954 RMK AC2CI6 SLP006
CYEG;2002-09-29 10:00;METAR CYEG 291000Z 31004KT 15SM FEW100 OVC240 09/04 A2956 RMK AC2CI5 SLP013
CYEG;2002-09-29 11:00;METAR CYEG 291100Z 28006KT 15SM FEW090 BKN240 08/04 A2959 RMK AC2CI3 SLP023
CYEG;2002-09-29 12:00;METAR CYEG 291200Z 30007KT 15SM BKN085 BKN240 09/04 A2962 RMK AC5CI2 SLP033
CYEG;2002-09-29 13:00;METAR CYEG 291300Z 30003KT 15SM BKN075 BKN240 08/03 A2962 RMK AC6CI1 SLP034
CYEG;2002-09-29 14:00;METAR CYEG 291400Z 31007KT 15SM FEW050 BKN080 OVC240 08/02 A2962 RMK SC2AC5CI1 VIRGA SW-W SLP034 VIRGA SW-W SLP034
CYEG;2002-09-29 15:00;METAR CYEG 291500Z 32005KT 15SM FEW045 OVC078 08/02 A2963 RMK SC2AC6 VIRGA SLP040
CYEG;2002-09-29 16:00;METAR CYEG 291600Z 34006KT 15SM VCSH FEW035 OVC075 08/03 A2963 RMK SC2AS6 SHRA NE VIRGA S-SW-NW SLP042 VIRGA S-SW-NW SLP042
CYEG;2002-09-29 17:00;METAR CYEG 291700Z 34007KT 15SM FEW024 BKN040 OVC070 09/03 A2965 RMK CF1SC6AS2 SHRA E + W SLP047 SHRA E + W SLP047
CYEG;2002-09-29 18:00;METAR CYEG 291800Z 32007KT 12SM -RA FEW025 BKN033 OVC070 08/04 A2966 RMK CF1SC6AS1 SLP055
CYEG;2002-09-29 19:00;METAR CYEG 291900Z 31007KT 12SM -RA FEW025 OVC033 08/05 A2966 RERA RMK CF2SC6 SLP057
CYEG;2002-09-29 20:00;METAR CYEG 292000Z 31007KT 15SM -RA FEW008 BKN012 OVC023 07/05 A2966 RMK CF1CF4SC3 SLP057 VRY LGT SLP057
CYEG;2002-09-29 22:00;METAR CYEG 292200Z 34006KT 15SM VCSH FEW015 BKN035 OVC070 08/04 A2965 RMK CF2SC6AC1 SHRA SE-S-SW VIRGA NW SLP056
CYEG;2002-09-29 23:00;METAR CYEG 292300Z 34005KT 15SM FEW015 SCT040 OVC068 08/04 A2965 RMK CU2SC2AC4 SHRA SE-S-SW SLP056 SHRA SE-S-SW SLP056
CYEG;2002-09-30 00:00;METAR CYEG 300000Z 31003KT 15SM FEW017 SCT040 OVC070 08/05 A2965 RMK CU1SC2AC5 SLP058 SLP058
CYEG;2002-09-30 01:00;METAR CYEG 300100Z 30004KT 15SM FEW020 BKN035 OVC073 07/05 A2966 RMK CU1SC6AC2 SLP060 SLP060
CYEG;2002-09-30 02:00;METAR CYEG 300200Z 28002KT 15SM FEW020 BKN041 OVC075 07/04 A2968 RMK CU1SC7AC1 TR CU SLP065 CU SLP065
CYEG;2002-09-30 03:00;METAR CYEG 300300Z 32003KT 15SM -RA BKN049 OVC070 06/04 A2968 RMK SC5AC3 SLP069
CYEG;2002-09-30 04:00;METAR CYEG 300400Z 33003KT 15SM -RA BKN046 OVC070 06/04 A2969 RMK SC7AC1 SLP072
CYEG;2002-09-30 06:00;METAR CYEG 300600Z 35005KT 15SM BKN043 OVC075 06/03 A2971 RMK SC6AC2 SLP080
CYEG;2002-09-30 07:00;METAR CYEG 300700Z 35006KT 15SM -RA OVC047 05/03 A2971 RMK SC8 SLP081
CYEG;2002-09-30 08:00;METAR CYEG 300800Z 34006KT 15SM BKN055 OVC075 05/03 A2972 RMK SC6AC2 SLP082
CYEG;2002-09-30 09:00;METAR CYEG 300900Z 35007KT 15SM -RA BKN024 OVC055 05/03 A2972 RMK SC6SC2 SLP084
CYEG;2002-09-30 10:00;METAR CYEG 301000Z 02009KT 10SM -RA FEW010 OVC014 05/03 A2973 RMK SF2SC6 SLP087
CYEG;2002-09-30 11:00;METAR CYEG 301100Z 02006KT 12SM -RA FEW007 SCT025 OVC036 04/03 A2975 RMK SF1SC3SC4 SLP094
CYEG;2002-09-30 13:00;METAR CYEG 301300Z 36009KT 5SM -RA BR SCT004 OVC013 04/03 A2978 RMK SF4SC4 SLP106
CYEG;2002-09-30 14:00;METAR CYEG 301400Z 35007KT 4SM -RA BR BKN003 OVC014 04/03 A2980 RMK SF6SC2 SLP111
CYEG;2002-09-30 15:00;METAR CYEG 301500Z 36007KT 4SM -RA BR SCT003 BKN006 OVC018 04/03 A2982 RMK SF2SF5SC1 SLP120
CYEG;2002-09-30 16:00;METAR CYEG 301600Z 01009KT 5SM -RA BR SCT003 BKN006 OVC018 04/03 A2984 RMK SF2SF5SC1 SLP127
CYEG;2002-09-30 17:00;METAR CYEG 301700Z 01008KT 5SM -RA BR FEW005 BKN008 OVC018 04/02 A2986 RMK SF2SF6SC1 SLP133
CYEG;2002-09-30 18:00;METAR CYEG 301800Z 36011KT 12SM -RA SCT007 OVC013 04/02 A2989 RMK SF2SC6 R- INTMT SLP144 SLP144
CYEG;2002-09-30 19:00;METAR CYEG 301900Z 01010G15KT 15SM -RA SCT008 BKN014 OVC030 05/02 A2991 RMK SF2SC4SC2 R- INTMT SUN DMLY VISBL SLP152
CYEG;2002-09-30 20:00;METAR CYEG 302000Z 01011KT 15SM -RA FEW012 BKN020 OVC033 05/01 A2993 RMK SF1SC6SC2 R- INTMT SLP158
CYEG;2002-09-30 21:00;METAR CYEG 302100Z 35012KT 15SM FEW019 BKN025 OVC080 05/M00 A2995 RMK CF1SC6AC2 SHRA DIST S-SW SLP164 SHRA DIST S-SW SLP164
CYEG;2002-09-30 22:00;METAR CYEG 302200Z 35011KT 15SM FEW030 OVC100 05/M01 A2996 RMK CF2AS6 SUN DMLY VISBL SLP170 VISBL SLP170
CYEG;2002-09-30 23:00;METAR CYEG 302300Z 35012KT 15SM FEW030 BKN130 OVC240 06/M01 A2998 RMK CU2AS2CS4 HALO SLP176 HALO SLP176
CYEG;2002-10-01 00:00;METAR CYEG 010000Z 33010KT 15SM FEW033 BKN130 OVC270 06/M00 A3001 RMK CU2AS2CS3 HALO SLP185 HALO SLP185
CYEG;2002-10-01 01:00;METAR CYEG 010100Z 31005KT 15SM FEW035 FEW050 BKN130 BKN270 05/M00 A3003 RMK CU1SC1AS4CS2 TR CU SLP191 CU1SC1AS4CS2 TR CU SLP191
CYEG;2002-10-01 02:00;METAR CYEG 010200Z 29006KT 15SM FEW035 FEW050 BKN150 BKN270 04/M00 A3004 RMK CU1SC1AS4CS2 SLP195 CU1SC1AS4CS2 SLP195
CYEG;2002-10-01 03:00;METAR CYEG 010300Z 29006KT 15SM BKN056 BKN150 BKN270 04/M00 A3006 RMK SC5AS2CS1 SLP206 SLP206
CYEG;2002-10-01 04:00;METAR CYEG 010400Z 28006KT 15SM FEW056 BKN170 OVC230 03/M00 A3007 RMK SC2AS3CS1 SLP208 SLP208
CYEG;2002-10-01 05:00;METAR CYEG 010500Z 28006KT 15SM FEW056 SCT170 BKN220 02/M01 A3008 RMK SC1AS2CS2 SLP210 SLP210
CYEG;2002-10-01 06:00;METAR CYEG 010600Z 27005KT 15SM FEW056 FEW170 BKN220 01/M01 A3008 RMK SC1AS1CS2 SLP217 SLP217
CYEG;2002-10-01 07:00;METAR CYEG 010700Z 26004KT 15SM FEW056 FEW170 SCT220 M00/M02 A3009 RMK SC1AS1CS1 SLP220 SLP220
CYEG;2002-10-01 08:00;METAR CYEG 010800Z 28005KT 15SM FEW056 SCT250 00/M02 A3010 RMK SC1CI1 SLP222
CYEG;2002-10-01 09:00;METAR CYEG 010900Z 24005KT 15SM FEW056 FEW250 M01/M03 A3011 RMK SC1CI1 AURBO SLP228 SLP228
CYEG;2002-10-01 10:00;METAR CYEG 011000Z 22003KT 15SM FEW056 FEW250 M01/M03 A3011 RMK SC1CI1 FROIN AURBO SLP227 AURBO SLP227
CYEG;2002-10-01 11:00;METAR CYEG 011100Z 25003KT 15SM FEW056 FEW250 M01/M03 A3013 RMK SC1CI1 FROIN AURBO TR CLD SLP232 AURBO TR CLD SLP232
CYEG;2002-10-01 12:00;METAR CYEG 011200Z 23004KT 15SM FEW075 FEW250 M02/M04 A3013 RMK AC1CI1 TR CI SLP232 SLP232
CYEG;2002-10-01 13:00;METAR CYEG 011300Z 21004KT 15SM FEW075 FEW250 M03/M05 A3013 RMK AC1CI1 FROIN TR CI SLP234 CI SLP234
CYEG;2002-10-01 14:00;METAR CYEG 011400Z 22004KT 15SM FEW075 FEW250 M03/M05 A3014 RMK AC1CI0 FROIN SLP237 SLP237
CYEG;2002-10-01 15:00;METAR CYEG 011500Z 22003KT 15SM FEW075 SCT250 M00/M03 A3015 RMK AC1CI0 SLP240
CYEG;2002-10-01 16:00;METAR CYEG 011600Z 22003KT 15SM FEW075 FEW250 03/M00 A3015 RMK AC1CI0 SLP242
CYEG;2002-10-01 17:00;METAR CYEG 011700Z 25004KT 15SM FEW075 FEW250 06/01 A3016 RMK AC1CI1 TR CI SLP243
CYEG;2002-10-01 18:00;METAR CYEG 011800Z 24008KT 15SM FEW025 FEW075 FEW250 08/01 A3016 RMK CU1AC1CI1 SLP239 SLP239
CYEG;2002-10-01 19:00;METAR CYEG 011900Z 23010KT 15SM FEW035 FEW075 FEW250 09/M00 A3015 RMK CU1AC1CI1 TR AC CI SLP237 TR AC CI SLP237
CYEG;2002-10-01 20:00;METAR CYEG 012000Z 22009KT 15SM FEW045 10/M01 A3014 RMK CU1 SLP232
CYEG;2002-10-01 21:00;METAR CYEG 012100Z 24008KT 15SM FEW050 11/M02 A3012 RMK CU1 SLP223
CYEG;2002-10-01 22:00;METAR CYEG 012200Z 25009KT 15SM FEW050 11/M02 A3011 RMK CU1 SLP220
CYEG;2002-10-01 23:00;METAR CYEG 012300Z 27008KT 15SM FEW052 11/M02 A3009 RMK CU2 SLP216
CYEG;2002-10-02 00:00;METAR CYEG 020000Z 26009KT 15SM FEW055 FEW250 11/M02 A3009 RMK CU1CI0 SLP215
CYEG;2002-10-02 01:00;METAR CYEG 020100Z 22005KT 15SM FEW055 FEW250 07/M02 A3008 RMK CU1CI1 SLP212
CYEG;2002-10-02 02:00;METAR CYEG 020200Z 19006KT 15SM FEW250 03/M03 A3007 RMK CI1 SLP208
CYEG;2002-10-02 03:00;METAR CYEG 020300Z 19007KT 15SM FEW250 01/M04 A3007 RMK CI1 SLP214
CYEG;2002-10-02 04:00;METAR CYEG 020400Z 18007KT 15SM FEW250 M00/M04 A3005 RMK CI1 AURBO SLP208
CYEG;2002-10-02 05:00;METAR CYEG 020500Z 18007KT 15SM FEW250 M00/M04 A3002 RMK CI1 AURBO SLP201
CYEG;2002-10-02 06:00;METAR CYEG 020600Z 18007KT 15SM FEW250 00/M04 A3001 RMK CI1 AURBO SLP188
CYEG;2002-10-02 07:00;METAR CYEG 020700Z 18007KT 15SM SCT240 00/M03 A2999 RMK CI2 SLP183
CYEG;2002-10-02 08:00;METAR CYEG 020800Z 18008KT 15SM BKN240 01/M03 A2995 RMK CI3 AURBO SLP170
CYEG;2002-10-02 09:00;METAR CYEG 020900Z 18008KT 15SM BKN240 M00/M04 A2993 RMK CI2 AURBO SLP157
CYEG;2002-10-02 10:00;METAR CYEG 021000Z 18005KT 15SM SCT240 M01/M04 A2990 RMK CI2 AURBO SLP148
CYEG;2002-10-02 11:00;METAR CYEG 021100Z 18008KT 15SM FEW130 BKN240 M01/M04 A2987 RMK AC1CI3 SLP138
CYEG;2002-10-02 12:00;METAR CYEG 021200Z 19005KT 15SM BKN120 BKN240 00/M04 A2984 RMK AS3CI2 SLP127
CYEG;2002-10-02 13:00;METAR CYEG 021300Z 19006KT 15SM BKN100 BKN240 01/M03 A2982 RMK AS5CI2 SLP119
CYEG;2002-10-02 14:00;METAR CYEG 021400Z 19005KT 15SM FEW100 OVC140 02/M03 A2981 RMK AC1AS6 SLP116
CYEG;2002-10-02 15:00;METAR CYEG 021500Z 18006KT 15SM BKN070 BKN140 BKN200 03/M02 A2978 RMK AC3AS2CS0 SLP114 SLP114
CYEG;2002-10-02 16:00;METAR CYEG 021600Z 19007KT 15SM BKN056 BKN140 OVC200 08/M00 A2976 RMK SC6AS2CS0 SLP106 SLP106
CYEG;2002-10-02 17:00;METAR CYEG 021700Z 18007KT 15SM BKN058 OVC140 11/02 A2974 RMK SC7AS1 VIRGA SLP101
CYEG;2002-10-02 18:00;METAR CYEG 021800Z 20007KT 15SM -SHRA BKN060 OVC140 12/02 A2973 RMK SC6AS2 SLP088
CYEG;2002-10-02 19:00;METAR CYEG 021900Z 22009KT 15SM -SHRA BKN063 BKN140 14/02 A2970 RMK SC6AS2 SLP078
CYEG;2002-10-02 20:00;METAR CYEG 022000Z 26013G21KT 15SM -SHRA BKN055 OVC140 15/04 A2968 RMK SC6AS2 SLP072 SLP072
CYEG;2002-10-02 21:00;METAR CYEG 022100Z 26010KT 15SM -SHRA BKN055 OVC140 16/04 A2965 RMK SC6AC1 SLP058
CYEG;2002-10-02 22:00;METAR CYEG 022200Z 25011G16KT 15SM BKN060 BKN140 BKN250 17/03 A2964 RMK SC4AC2CI0 VIRGA S SLP053 VIRGA S SLP053
CYEG;2002-10-02 23:00;METAR CYEG 022300Z 25011G19KT 15SM SCT060 BKN100 BKN250 17/03 A2962 RMK SC3AC2CI0 VIRGA S SLP048 VIRGA S SLP048
CYEG;2002-10-03 00:00;METAR CYEG 030000Z 24004KT 15SM BKN070 BKN100 BKN250 16/05 A2960 RMK AC3AC1CI1 VIRGA SE SLP038 VIRGA SE SLP038
CYEG;2002-10-03 01:00;METAR CYEG 030100Z 26006KT 15SM FEW070 BKN100 BKN250 12/04 A2958 RMK AC2AC2CC1 SLP033 SLP033
CYEG;2002-10-03 02:00;METAR CYEG 030200Z 26006KT 15SM SCT075 BKN100 BKN240 10/03 A2959 RMK AC3AC1CI2 SLP035 SLP035
CYEG;2002-10-03 03:00;METAR CYEG 030300Z 27011KT 15SM FEW075 FEW240 11/02 A2960 RMK AC1CI1 SLP042
CYEG;2002-10-03 04:00;METAR CYEG 030400Z 27009KT 15SM SCT065 BKN080 10/02 A2963 RMK SC3AC3 SHRA DIST NW-NE SLP050 NW-NE SLP050
CYEG;2002-10-03 05:00;METAR CYEG 030500Z 32009G16KT 15SM BKN052 OVC085 08/03 A2971 RMK SC6AC2 VIRGA PRESRR PST HR SLP075 PRESRR PST HR SLP075
CYEG;2002-10-03 06:00;METAR CYEG 030600Z 30009KT 15SM FEW052 SCT070 BKN090 08/04 A2973 RMK SC2AC2AC3 VIRGA SLP081 VIRGA SLP081
CYEG;2002-10-03 07:00;METAR CYEG 030700Z 29011KT 15SM BKN100 OVC120 08/02 A2975 RMK AC6AC2 VIRGA SLP088
CYEG;2002-10-03 08:00;METAR CYEG 030800Z 30010G15KT 15SM OVC110 07/02 A2978 RMK AC7 SLP098
CYEG;2002-10-03 09:00;METAR CYEG 030900Z 29008KT 15SM BKN120 07/01 A2980 RMK AC6 SLP104
CYEG;2002-10-03 10:00;METAR CYEG 031000Z 29009KT 15SM FEW120 OVC140 07/01 A2981 RMK AC2AC5 SLP107
CYEG;2002-10-03 11:00;METAR CYEG 031100Z 29009KT 15SM FEW090 SCT140 BKN170 06/00 A2983 RMK AC1AC2AC3 SLP112 SLP112
CYEG;2002-10-03 12:00;METAR CYEG 031200Z 30014KT 15SM FEW090 FEW170 06/M01 A2986 RMK AC1AC1 TR LWR AC SLP123 SLP123
CYEG;2002-10-03 13:00;METAR CYEG 031300Z 31013KT 15SM FEW050 FEW090 FEW170 05/M01 A2988 RMK SC1AC1AC1 TR LWR AC SLP129 TR LWR AC SLP129
CYEG;2002-10-03 14:00;METAR CYEG 031400Z 30011KT 15SM FEW050 FEW170 04/M01 A2990 RMK SC2AC1 SLP136
CYEG;2002-10-03 15:00;METAR CYEG 031500Z 31011G18KT 15SM BKN036 BKN170 04/M01 A2992 RMK SC5AC1 SLP151
CYEG;2002-10-03 16:00;METAR CYEG 031600Z 32018G26KT 15SM SCT035 SCT250 05/M03 A2994 RMK SC4CI1 SLP157
CYEG;2002-10-03 17:00;METAR CYEG 031700Z 33013G19KT 15SM BKN032 BKN250 06/M02 A2996 RMK CU5CI1 SLP161
CYEG;2002-10-03 18:00;METAR CYEG 031800Z 35013KT 15SM BKN035 06/M01 A2997 RMK CU7 SLP169
CYEG;2002-10-03 19:00;METAR CYEG 031900Z 32011KT 15SM BKN035 06/M02 A2998 RMK CU7 SLP172
CYEG;2002-10-03 20:00;METAR CYEG 032000Z 34011KT 15SM BKN035 07/M02 A2998 RMK CU6 SLP171
CYEG;2002-10-03 21:00;METAR CYEG 032100Z 36009G15KT 15SM SCT035 BKN240 07/M02 A2997 RMK CU4CI1 SLP168
CYEG;2002-10-03 22:00;METAR CYEG 032200Z 35009KT 15SM SCT040 BKN240 08/M02 A2996 RMK CU3CI1 SLP167
CYEG;2002-10-03 23:00;METAR CYEG 032300Z 33008KT 15SM SCT040 BKN240 08/M02 A2997 RMK CU3CI1
CYEG;2002-10-04 00:00;METAR CYEG 040000Z 34004KT 15SM SCT050 SCT100 BKN240 07/M02 A2997 RMK SC4AC1CI1 SLP170 SLP170
CYEG;2002-10-04 01:00;METAR CYEG 040100Z 36004KT 15SM FEW050 FEW080 SCT240 05/M03 A2997 RMK SC1AC2CI1 SLP170
CYEG;2002-10-04 02:00;METAR CYEG 040200Z 24003KT 15SM FEW042 SCT120 BKN240 02/M03 A2998 RMK SC2AC2CI2 SLP174 SLP174
CYEG;2002-10-04 03:00;METAR CYEG 040300Z 31005KT 15SM FEW040 FEW130 BKN240 03/M03 A2999 RMK SC1AC2CI1 SLP182 SLP182
CYEG;2002-10-04 04:00;METAR CYEG 040400Z 36003KT 15SM FEW130 SCT250 M01/M04 A3000 RMK AC1CI2 SLP185
CYEG;2002-10-04 05:00;METAR CYEG 040500Z 02005KT 15SM FEW130 SCT250 M01/M05 A3001 RMK AC1CI1 SLP188
CYEG;2002-10-04 06:00;METAR CYEG 040600Z 36003KT 15SM BKN043 BKN120 BKN250 00/M04 A3003 RMK SC5AC1CI1 SLP197 SLP197
CYEG;2002-10-04 07:00;METAR CYEG 040700Z 03003KT 15SM -SHSN BKN036 BKN049 OVC250 02/M03 A3003 RMK SC5SC2CI1 SLP198
CYEG;2002-10-04 08:00;METAR CYEG 040800Z 35006KT 12SM -SHSN BKN028 OVC050 01/M02 A3004 RMK SC6SC2 SLP200
CYEG;2002-10-04 09:00;METAR CYEG 040900Z 30002KT 2 1/2SM -SHSN SCT005 OVC022 00/M01 A3005 RMK SN2SF2SC5 SLP203 SLP203
CYEG;2002-10-04 10:00;METAR CYEG 041000Z 27002KT 2SM -SHSN BKN007 OVC022 00/M01 A3005 RMK SN3SF3SC2 SLP202 SLP202
CYEG;2002-10-04 11:00;METAR CYEG 041100Z 27003KT 8SM -SHSN FEW009 BKN021 OVC044 00/M01 A3004 RMK SF2SC2SC3 SLP201
CYEG;2002-10-04 12:00;METAR CYEG 041200Z CCA 29003KT 15SM -SHSN FEW009 BKN032 BKN082 M00/M02 A3005 RMK SF1SC5AC2 /S02/ SLP202
CYEG;2002-10-04 13:00;METAR CYEG 041300Z 27004KT 15SM FEW028 FEW080 FEW250 M01/M03 A3005 RMK SC1AC1CI0 SLP203
CYEG;2002-10-04 14:00;METAR CYEG 041400Z 34005KT 15SM BKN006 BKN028 M00/M02 A3006 RMK SF5SC1 SLP206
CYEG;2002-10-04 15:00;METAR CYEG 041500Z 30003KT 15SM FEW010 FEW030 M01/M03 A3007 RMK SF1SC1 SLP215
CYEG;2002-10-04 16:00;METAR CYEG 041600Z 35003KT 15SM FEW010 M01/M04 A3007 RMK SF1 SLP216
CYEG;2002-10-04 17:00;METAR CYEG 041700Z 35004KT 15SM FEW015 00/M03 A3006 RMK CF1 SLP213
CYEG;2002-10-04 18:00;METAR CYEG 041800Z 32003KT 15SM FEW018 FEW100 02/M03 A3005 RMK CF1AC1
CYEG;2002-10-04 19:00;METAR CYEG 041900Z 27005KT 15SM FEW026 FEW100 FEW250 04/M03 A3003 RMK CU2AC1CI1 SLP200
CYEG;2002-10-04 20:00;METAR CYEG 042000Z 31003KT 15SM FEW034 FEW100 SCT250 05/M03 A3000 RMK CU2AC1CI1 TR AC SLP191 TR AC SLP191
CYEG;2002-10-04 21:00;METAR CYEG 042100Z 30006KT 15SM SCT047 BKN250 04/M05 A2998 RMK CU3CI0 TR AC
CYEG;2002-10-04 22:00;METAR CYEG 042200Z 24002KT 15SM FEW047 BKN250 06/M04 A2997 RMK CU2CI2 SLP177
CYEG;2002-10-04 23:00;METAR CYEG 042300Z 23003KT 15SM FEW047 BKN250 05/M05 A2994 RMK SC2CI2 SLP169
CYEG;2002-10-05 00:00;METAR CYEG 050000Z 13003KT 15SM FEW047 SCT150 BKN250 05/M04 A2992 RMK SC2AC1CI1 SLP160 SLP160
CYEG;2002-10-05 01:00;METAR CYEG 050100Z 16003KT 15SM FEW052 SCT150 BKN250 02/M04 A2991 RMK SC2AC2CI1 SLP157 SLP157
CYEG;2002-10-05 02:00;METAR CYEG 050200Z 14005KT 15SM FEW052 BKN100 BKN250 02/M03 A2989 RMK SC1AC6CI1 SLP152 SLP152
CYEG;2002-10-05 03:00;METAR CYEG 050300Z 17006KT 15SM OVC080 03/M04 A2988 RMK AC8 SLP149
CYEG;2002-10-05 04:00;METAR CYEG 050400Z 17005KT 15SM BKN080 OVC110 02/M04 A2987 RMK AC5AC3 SLP145
CYEG;2002-10-05 05:00;METAR CYEG 050500Z 19005KT 15SM BKN050 OVC080 02/M03 A2985 RMK SC6AC2 SLP139
CYEG;2002-10-05 06:00;METAR CYEG 050600Z 26005KT 15SM OVC045 02/M02 A2983 RMK SC8 VIRGA SLP130
CYEG;2002-10-05 07:00;METAR CYEG 050700Z 22005KT 10SM -SHRA OVC020 02/M01 A2982 RMK SC8 SLP126
CYEG;2002-10-05 08:00;METAR CYEG 050800Z 14002KT 4SM -RASN FEW011 OVC020 01/M01 A2980 RMK SF2SC6 SLP120
CYEG;2002-10-05 09:00;METAR CYEG 050900Z 13003KT 5SM -SN FEW015 OVC027 00/M01 A2977 RMK SF2SC6 SLP110
CYEG;2002-10-05 10:00;METAR CYEG 051000Z 14005KT 8SM -SN FEW025 OVC045 00/M01 A2975 RMK SF2SC6 SLP102
CYEG;2002-10-05 11:00;METAR CYEG 051100Z 20003KT 3SM -SN SCT010 BKN015 OVC027 00/M01 A2975 RMK SF4SC2SC2 SLP101
CYEG;2002-10-05 12:00;METAR CYEG 051200Z 33003KT 2SM R12/5500FT -SN SCT002 BKN004 OVC008 00/M01 A2975 RMK SF4SF3SC1 SLP102 RMK SF4SF3SC1 SLP102
CYEG;2002-10-05 13:00;METAR CYEG 051300Z 00000KT 2 1/2SM -SN SCT003 BKN007 OVC015 00/M01 A2977 RMK SF4SF3SC1 SLP107 SF4SF3SC1 SLP107
CYEG;2002-10-05 14:00;METAR CYEG 051400Z 34006KT 2SM R30/6000FT -SN BR OVC002 00/M01 A2981 RMK ST8 SLP119 SLP119
CYEG;2002-10-05 15:00;METAR CYEG 051500Z 32006KT 3SM -SN FEW003 BKN005 OVC010 00/M01 A2985 RMK SF2ST5SC1 SLP137
CYEG;2002-10-05 16:00;METAR CYEG 051600Z 32007KT 12SM -SN FEW003 SCT005 SCT011 BKN020 BKN250 01/M01 A2989 RMK SF1SF2SF1SC2CI0 SLP151 A2989 RMK SF1SF2SF1SC2CI0 SLP151
CYEG;2002-10-05 17:00;METAR CYEG 051700Z 30008KT 15SM BKN012 BKN025 02/M00 A2993 RMK SF6SC2 SLP163
CYEG;2002-10-05 19:00;METAR CYEG 051900Z 32012G17KT 15SM BKN019 BKN050 BKN250 04/00 A2997 RMK SC6SC1CI0 SLP177 SLP177
CYEG;2002-10-05 20:00;METAR CYEG 052000Z 31009KT 15SM SCT020 BKN050 06/01 A2998 RMK SC4SC1 SLP181
CYEG;2002-10-05 21:00;METAR CYEG 052100Z 35012G20KT 15SM BKN031 BKN060 03/M00 A3000 RMK SC6SC2 SLP188
CYEG;2002-10-05 22:00;METAR CYEG 052200Z 32011KT 15SM BKN035 BKN067 BKN250 05/M01 A3002 RMK SC6AC1CI0 SHWRS NE-SE SLP195 SHWRS NE-SE SLP195
CYEG;2002-10-05 23:00;METAR CYEG 052300Z 34012G17KT 15SM BKN040 BKN080 BKN250 04/M03 A3004 RMK SC5AC1CI0 SLP201
CYEG;2002-10-06 00:00;METAR CYEG 060000Z 32012KT 15SM SCT040 SCT100 BKN250 04/M04 A3006 RMK SC3AC1CI1 SLP210 SLP210
CYEG;2002-10-06 01:00;METAR CYEG 060100Z 35007KT 15SM SCT040 BKN060 BKN250 02/M04 A3008 RMK SC2SC2CI1 SLP216 SLP216
CYEG;2002-10-06 02:00;METAR CYEG 060200Z 31003KT 15SM FEW040 SCT100 BKN250 00/M04 A3010 RMK SC2AC1CI0 SLP223 SLP223
CYEG;2002-10-06 03:00;METAR CYEG 060300Z 31002KT 15SM BKN100 M00/M05 A3010 RMK AC7 SLP228
CYEG;2002-10-06 04:00;METAR CYEG 060400Z 27002KT 15SM BKN097 M01/M05 A3011 RMK AC6 SLP229
CYEG;2002-10-06 05:00;METAR CYEG 060500Z 19005KT 15SM BKN095 M02/M04 A3011 RMK AC7 SLP229
CYEG;2002-10-06 06:00;METAR CYEG 060600Z 19005KT 15SM BKN039 BKN092 M01/M04 A3010 RMK SC5AC2 SLP227
CYEG;2002-10-06 07:00;METAR CYEG 060700Z 19004KT 15SM SCT037 BKN068 BKN092 M01/M04 A3010 RMK SC3AC2AC2 SLP225 SLP225
CYEG;2002-10-06 08:00;METAR CYEG 060800Z 18005KT 15SM FEW035 BKN067 OVC088 M01/M03 A3008 RMK SC1AC6AC2 SLP219 SLP219
CYEG;2002-10-06 09:00;METAR CYEG 060900Z 17005KT 15SM BKN062 OVC085 00/M04 A3006 RMK SC6AC2 SLP211
CYEG;2002-10-06 10:00;METAR CYEG 061000Z 17004KT 15SM BKN049 OVC076 01/M04 A3004 RMK SC6AC2 SLP203
CYEG;2002-10-06 11:00;METAR CYEG 061100Z 16004KT 15SM SCT050 OVC070 01/M03 A3001 RMK SC4AC4 SLP195
CYEG;2002-10-06 12:00;METAR CYEG 061200Z 17007KT 15SM OVC058 02/M02 A2998 RMK SC8 SLP179
CYEG;2002-10-06 13:00;METAR CYEG 061300Z 19007KT 15SM -SHRA OVC044 02/M01 A2996 RMK SC8 SLP172
CYEG;2002-10-06 14:00;METAR CYEG 061400Z 17006KT 12SM -SHRA BKN031 OVC045 02/M01 A2992 RMK SC6SC2 SLP162
CYEG;2002-10-06 15:00;METAR CYEG 061500Z 18007KT 12SM -SHRA FEW020 OVC042 02/M00 A2990 RMK CF1SC7 SLP155
CYEG;2002-10-06 16:00;METAR CYEG 061600Z 18006KT 15SM -SHRA OVC044 03/01 A2988 RMK SC8 SLP148
CYEG;2002-10-06 17:00;METAR CYEG 061700Z 20004KT 10SM -SHRA OVC040 04/02 A2986 RMK SC8 SLP144
CYEG;2002-10-06 18:00;METAR CYEG 061800Z 20005KT 10SM -SHRA FEW020 OVC045 05/03 A2984 RMK SC1SC7 SLP134
CYEG;2002-10-06 19:00;METAR CYEG 061900Z 23005KT 10SM -SHRA OVC044 06/05 A2983 RMK SC8 SLP132
CYEG;2002-10-06 20:00;METAR CYEG 062000Z 27009KT 12SM -SHRA BKN038 OVC060 08/06 A2982 RMK SC7SC1 SLP128
CYEG;2002-10-06 21:00;METAR CYEG 062100Z 27007KT 12SM -SHRA BKN040 OVC060 09/07 A2982 RMK SC6SC2 SLP121
CYEG;2002-10-06 22:00;METAR CYEG 062200Z 27006KT 15SM -SHRA FEW008 BKN031 OVC058 09/07 A2983 RMK SC2SC4SC2 SLP124
CYEG;2002-10-06 23:00;METAR CYEG 062300Z 30005KT 15SM -SHRA FEW008 BKN024 OVC060 09/08 A2984 RMK CF1SC4SC3 SLP127
CYEG;2002-10-07 00:00;METAR CYEG 070000Z 00000KT 15SM -SHRA FEW008 BKN025 OVC060 09/08 A2983 RMK CF1SC4SC3 SLP124
CYEG;2002-10-07 01:00;METAR CYEG 070100Z 17004KT 15SM -SHRA FEW010 BKN030 BKN110 OVC250 09/07 A2982 RMK CF1SC5AS2CI0 SLP121 CF1SC5AS2CI0 SLP121
CYEG;2002-10-07 02:00;METAR CYEG 070200Z 17003KT 15SM FEW010 BKN063 BKN095 BKN210 08/06 A2983 RMK CF1SC6AC1CI1 TR CF SLP124
CYEG;2002-10-07 03:00;METAR CYEG 070300Z 17003KT 15SM FEW012 BKN060 BKN090 07/06 A2983 RMK SF1SC6AC2 TR SF SLP127 SF SLP127
CYEG;2002-10-07 04:00;METAR CYEG 070400Z 18004KT 15SM SCT055 BKN100 07/06 A2983 RMK SC2AC2 VIRGA NE SLP127 SLP127
CYEG;2002-10-07 05:00;METAR CYEG 070500Z 19002KT 15SM FEW012 SCT055 BKN095 04/03 A2983 RMK SF1SC2AC2 SLP125 SLP125
CYEG;2002-10-07 06:00;METAR CYEG 070600Z 20006KT 15SM FEW012 SCT060 BKN085 05/04 A2983 RMK SF1SC2AC2 SLP124 SLP124
CYEG;2002-10-07 07:00;METAR CYEG 070700Z 30005KT 15SM FEW012 FEW060 BKN090 04/03 A2983 RMK SF1SC2AC2 TR SF SLP125 SF SLP125
CYEG;2002-10-07 08:00;METAR CYEG 070800Z 34007KT 15SM BKN045 BKN075 BKN110 07/05 A2986 RMK SC5AC1AC1 SLP133 SLP133
CYEG;2002-10-07 09:00;METAR CYEG 070900Z 27003KT 15SM FEW045 BKN060 BKN110 BKN220 05/03 A2987 RMK SC1SC4AC1CI1 SLP135
CYEG;2002-10-07 10:00;METAR CYEG 071000Z 23004KT 15SM SCT060 OVC090 04/02 A2986 RMK SC2AC5 SLP132
CYEG;2002-10-07 11:00;METAR CYEG 071100Z 21005KT 15SM VCSH FEW015 SCT060 OVC100 04/03 A2986 RMK SC1SC2AC4 SHRA SW + NE SLP132
CYEG;2002-10-07 12:00;METAR CYEG 071200Z 22004KT 15SM FEW022 SCT055 BKN120 05/04 A2986 RMK SC1SC2AC3 SLP130 SLP130
CYEG;2002-10-07 13:00;METAR CYEG 071300Z 27007KT 15SM BKN050 BKN120 07/04 A2986 RMK SC6AC1
CYEG;2002-10-07 14:00;METAR CYEG 071400Z 29009KT 15SM SCT050 SCT070 BKN110 BKN140 08/04 A2987 RMK SC3AC1AC1AC1 ACC/VIRGA ASOCTD S-W SLP135
CYEG;2002-10-07 15:00;METAR CYEG 071500Z 29010KT 15SM FEW060 FEW080 FEW140 09/04 A2988 RMK SC1AC1AC0 VIRGA E + SW-W SLP137 VIRGA E + SW-W SLP137
CYEG;2002-10-07 16:00;METAR CYEG 071600Z 29011G16KT 15SM FEW060 FEW080 SCT120 SCT200 11/05 A2990 RMK SC1AC1AC1CI0 ACC/VIRGA ASOCTD S-W + NE SLP144 SC1AC1AC1CI0 ACC/VIRGA ASOCTD S-W + NE SLP144
CYEG;2002-10-07 17:00;METAR CYEG 071700Z 32021G27KT 15SM FEW030 FEW060 BKN120 BKN200 12/05 A2993 RMK CU1SC1AC4CI1 SLP151 CU1SC1AC4CI1 SLP151
CYEG;2002-10-07 18:00;METAR CYEG 071800Z 33019G26KT 15SM BKN028 BKN070 BKN140 10/05 A2995 RMK CU6AC1AC1 SLP162 SLP162
CYEG;2002-10-07 19:00;METAR CYEG 071900Z 33014KT 15SM BKN030 BKN050 11/05 A2998 RMK CU6SC2 VIRGA NW SLP170 SLP170
CYEG;2002-10-07 20:00;METAR CYEG 072000Z 32010KT 15SM -SHRA SCT025 BKN080 BKN140 08/06 A3000 RERA RMK CU3AC2AC2 HVYR PCPN SE-S SLP178
CYEG;2002-10-07 22:00;METAR CYEG 072200Z 34008KT 15SM -SHRA BKN029 BKN045 BKN200 08/06 A3004 RMK CU5SC2CI1 TCU AS0CTD SLP192
CYEG;2002-10-07 23:00;METAR CYEG 072300Z 32008KT 15SM FEW030 FEW220 09/06 A3004 RMK CU1CI1 SLP192
CYEG;2002-10-08 00:00;METAR CYEG 080000Z 34005KT 15SM FEW035 FEW220 09/05 A3006 RMK SC1CI0 CU EMBDD SLP200 SLP200
CYEG;2002-10-08 01:00;METAR CYEG 080100Z 35002KT 15SM FEW032 FEW120 07/04 A3007 RMK SC2AC1 SLP202
CYEG;2002-10-08 02:00;METAR CYEG 080200Z 22003KT 15SM FEW032 FEW120 02/01 A3007 RMK SC1AC1 TR CLD SLP203
CYEG;2002-10-08 03:00;METAR CYEG 080300Z 19007KT 15SM SKC 03/01 A3007 RMK SLP206
CYEG;2002-10-08 04:00;METAR CYEG 080400Z 21004KT 15SM SKC 01/M00 A3007 RMK AURBO SLP205
CYEG;2002-10-08 05:00;METAR CYEG 080500Z 20006KT 15SM SKC 01/M00 A3007 RMK AURBO SLP204
CYEG;2002-10-08 06:00;METAR CYEG 080600Z 19007KT 15SM SKC 01/M01 A3005 RMK SLP200
CYEG;2002-10-08 07:00;METAR CYEG 080700Z 20006KT 15SM FEW060 01/M01 A3004 RMK SC1 AURBO SLP196
CYEG;2002-10-08 08:00;METAR CYEG 080800Z 19006KT 15SM FEW060 00/M02 A3002 RMK SC1 AURBO SLP191
CYEG;2002-10-08 09:00;METAR CYEG 080900Z 18006KT 15SM FEW100 M00/M02 A3002 RMK AC1 AURBO SLP188
CYEG;2002-10-08 10:00;METAR CYEG 081000Z 18006KT 15SM FEW240 01/M02 A2999 RMK CI1 SLP180
CYEG;2002-10-08 11:00;METAR CYEG 081100Z 24003KT 15SM FEW100 SCT240 M01/M03 A2997 RMK AC1CI1 FROIN SLP175 SLP175
CYEG;2002-10-08 12:00;METAR CYEG 081200Z 00000KT 15SM FEW085 SCT220 M01/M03 A2996 RMK AC1CI1 FROIN SLP172 SLP172
CYEG;2002-10-08 13:00;METAR CYEG 081300Z 22003KT 15SM FEW085 SCT220 M01/M03 A2995 RMK AC2CI1 FROIN SLP168 SLP168
CYEG;2002-10-08 14:00;METAR CYEG 081400Z 19006KT 15SM FEW084 M01/M03 A2993 RMK AC2 FROIN SLP162
CYEG;2002-10-08 15:00;METAR CYEG 081500Z 19005KT 15SM FEW084 01/M02 A2992 RMK AC1 SLP163
CYEG;2002-10-08 16:00;METAR CYEG 081600Z 22003KT 15SM FEW084 FEW220 04/01 A2991 RMK AC1CI1 SLP160
CYEG;2002-10-08 17:00;METAR CYEG 081700Z 26006KT 15SM FEW084 FEW220 08/02 A2990 RMK AC1CI1 SLP157
CYEG;2002-10-08 18:00;METAR CYEG 081800Z 27007KT 15SM FEW085 FEW220 10/02 A2989 RMK AC1CI1 SLP142
CYEG;2002-10-08 19:00;METAR CYEG 081900Z 29006KT 15SM FEW090 FEW140 FEW220 13/03 A2986 RMK AC1AC1CI1 TR AC SLP134 AC SLP134
CYEG;2002-10-08 20:00;METAR CYEG 082000Z 25008KT 15SM FEW050 FEW090 FEW170 BKN250 13/02 A2983 RMK CF1AC1AC2CI1 TR CF + LWR AC SLP124
CYEG;2002-10-08 21:00;METAR CYEG 082100Z 26008KT 15SM FEW055 FEW090 SCT160 BKN250 15/01 A2980 RMK CF1AC1AC2CI1 TR LWR AC SLP110
CYEG;2002-10-08 22:00;METAR CYEG 082200Z 26009KT 15SM FEW055 FEW060 FEW090 SCT160 BKN250 15/01 A2979 RMK CU1SC1AC1AC1CI0 TR LWR AC SLP106 RMK CU1SC1AC1AC1CI0 TR LWR AC SLP106
CYEG;2002-10-08 23:00;METAR CYEG 082300Z 26007KT 15SM FEW055 FEW100 SCT150 BKN250 15/02 A2977 RMK SC2AC1AC1CI1 VIRGA SW CU EMBDD SLP101
CYEG;2002-10-09 00:00;METAR CYEG 090000Z 24010KT 15SM FEW050 FEW120 SCT160 BKN250 13/01 A2976 RMK SC1AC1AC1CI0 VIRGA/SHRA SW-NW-N TCU EMBDD SLP098
CYEG;2002-10-09 01:00;METAR CYEG 090100Z 22006KT 15SM FEW055 BKN120 BKN250 09/02 A2975 RMK SC2AC2CI0 TCU EMBDD VIRGA ALQDS SLP095 TCU EMBDD VIRGA ALQDS SLP095
CYEG;2002-10-09 02:00;METAR CYEG 090200Z 22005KT 15SM FEW055 SCT120 BKN250 07/01 A2974 RMK SC2AC1CI0 TCU EMBD VIRGA NW SLP092 TCU EMBD VIRGA NW SLP092
CYEG;2002-10-09 03:00;METAR CYEG 090300Z 19005KT 15SM FEW055 SCT120 08/01 A2973 RMK SC1AC1 SLP092
CYEG;2002-10-09 04:00;METAR CYEG 090400Z 21004KT 15SM FEW055 SCT080 05/00 A2974 RMK SC2AC2 TCU EMBD VIRGA SW SLP093 VIRGA SW SLP093
CYEG;2002-10-09 05:00;METAR CYEG 090500Z 24006KT 15SM FEW080 FEW110 05/M01 A2974 RMK AC1AC1 SLP094
CYEG;2002-10-09 06:00;METAR CYEG 090600Z 34003KT 15SM FEW073 SCT110 03/M01 A2975 RMK AC1AC1 SLP093
CYEG;2002-10-09 07:00;METAR CYEG 090700Z 20004KT 15SM FEW075 BKN100 04/M00 A2976 RMK AC2AC4 SLP096
CYEG;2002-10-09 08:00;METAR CYEG 090800Z 21005KT 15SM BKN100 04/M00 A2976 RMK AC6 SLP095
CYEG;2002-10-09 09:00;METAR CYEG 090900Z 20006KT 15SM BKN090 BKN250 03/M00 A2976 RMK AC5CI1 SLP091
CYEG;2002-10-09 10:00;METAR CYEG 091000Z 20006KT 15SM BKN095 BKN250 02/M01 A2975 RMK AC5CI1 SLP089
CYEG;2002-10-09 11:00;METAR CYEG 091100Z 18006KT 15SM FEW095 BKN240 01/M02 A2974 RMK AC2CI2 SLP087
CYEG;2002-10-09 12:00;METAR CYEG 091200Z 20006KT 15SM FEW090 BKN240 00/M03 A2973 RMK AC1CI1 SLP088
CYEG;2002-10-09 13:00;METAR CYEG 091300Z 18003KT 15SM BKN240 M00/M03 A2972 RMK CI2 FROIN SLP083
CYEG;2002-10-09 14:00;METAR CYEG 091400Z 18007KT 15SM FEW090 BKN240 01/M03 A2970 RMK AC1CI3 TR AC SLP079
CYEG;2002-10-09 15:00;METAR CYEG 091500Z 18007KT 15SM FEW090 BKN240 03/M01 A2970 RMK AC1CI5 TR AC SLP081
CYEG;2002-10-09 16:00;METAR CYEG 091600Z 18006KT 15SM FEW090 FEW180 BKN230 07/01 A2969 RMK AC1AC1CI5 TR LWR AC SLP076 LWR AC SLP076
CYEG;2002-10-09 17:00;METAR CYEG 091700Z 18012KT 15SM FEW100 FEW180 BKN220 10/01 A2965 RMK AC1AC1CI5 TR LWR AC SLP065 LWR AC SLP065
CYEG;2002-10-09 18:00;METAR CYEG 091800Z 19015G21KT 15SM FEW100 FEW200 BKN240 12/01 A2964 RMK AC1CI2CI2 SLP054 SLP054
CYEG;2002-10-09 19:00;METAR CYEG 091900Z 19011KT 15SM FEW150 SCT200 BKN240 13/01 A2961 RMK AC2CI2CI2 SLP045 SLP045
CYEG;2002-10-09 20:00;METAR CYEG 092000Z 19008KT 15SM FEW050 FEW140 BKN230 14/01 A2958 RMK CU1AC2CI5 TR CU SLP034 CU SLP034
CYEG;2002-10-09 21:00;METAR CYEG 092100Z 22009KT 15SM FEW055 SCT120 BKN230 14/00 A2956 RMK CU1AC4CI2 TR CU VIRGA W QUAD SLP023 CU VIRGA W QUAD SLP023 SHRA SW VIRGA ALQDS WND SHFT GRDL SLP022
CYEG;2002-10-09 23:00;METAR CYEG 092300Z 34014KT 15SM FEW055 SCT076 BKN100 BKN230 11/M00 A2960 RMK CU1AC3AC2CI2 SHRA W QUAD VIRGA ALQDS OVHD SLP037 CU1AC3AC2CI2 SHRA W QUAD VIRGA ALQDS OVHD SLP037
CYEG;2002-10-10 00:00;METAR CYEG 100000Z 34017G24KT 15SM -SHRA BKN060 BKN084 OVC240 06/02 A2966 RMK SC5AC2CI0 WND G TO 29 PST HR SLP069 SC5AC2CI0 WND G TO 29 PST HR SLP069
CYEG;2002-10-10 01:00;METAR CYEG 100100Z 31002KT 15SM VCSH FEW035 BKN062 BKN085 05/02 A2965 RMK SC2SC4AC2 SHRA E QUAD VIRGA S N W QUADS SLP067
CYEG;2002-10-10 02:00;METAR CYEG 100200Z 18004KT 15SM FEW030 SCT062 BKN085 03/01 A2961 RMK SC1SC2AC1 VIRGA N SLP054 VIRGA N SLP054
CYEG;2002-10-10 03:00;METAR CYEG 100300Z 00000KT 15SM FEW060 BKN095 03/01 A2963 RMK SC2AC4 SLP059
CYEG;2002-10-10 04:00;METAR CYEG 100400Z 21004KT 15SM FEW060 SCT095 BKN140 02/00 A2962 RMK SC1AC2AC2 SLP055 SLP055
CYEG;2002-10-10 05:00;METAR CYEG 100500Z 26003KT 15SM FEW060 SCT140 M00/M02 A2961 RMK SC1AC2 SLP054
CYEG;2002-10-10 06:00;METAR CYEG 100600Z 28004KT 15SM FEW060 BKN120 02/M00 A2963 RMK SC1AC5 AURBO SLP050
CYEG;2002-10-10 07:00;METAR CYEG 100700Z 28007KT 15SM SCT055 OVC120 04/01 A2963 RMK SC4AC4 VIRGA N SLP051 SLP051
CYEG;2002-10-10 08:00;METAR CYEG 100800Z 27009KT 15SM BKN050 OVC120 05/01 A2962 RMK SC6AC2 VIRGA SLP049
CYEG;2002-10-10 09:00;METAR CYEG 100900Z 28006KT 15SM BKN060 OVC120 05/M00 A2964 RMK SC6AC2 VIRGA SLP052
CYEG;2002-10-10 10:00;METAR CYEG 101000Z 28010KT 15SM BKN045 OVC120 06/M02 A2966 RMK SC7AC1 VIRGA SLP057
CYEG;2002-10-10 11:00;METAR CYEG 101100Z 31007KT 15SM -SHRA BKN035 OVC120 06/M03 A2967 RMK SC7AC1
CYEG;2002-10-10 12:00;METAR CYEG 101200Z 26004KT 15SM SCT035 OVC077 04/M02 A2967 RMK SC3AC5 VIRGA S SLP069 SLP069
CYEG;2002-10-10 13:00;METAR CYEG 101300Z 20006KT 15SM FEW035 OVC110 03/M01 A2967 RMK SC2AC6 SLP068
CYEG;2002-10-10 14:00;METAR CYEG 101400Z 20004KT 15SM FEW035 BKN130 02/M01 A2966 RMK SC2AC6 SLP066
CYEG;2002-10-10 15:00;METAR CYEG 101500Z 20003KT 15SM FEW035 BKN160 BKN240 01/M01 A2967 RMK SC1AC6CI1 SLP073 SLP073
CYEG;2002-10-10 16:00;METAR CYEG 101600Z 24007KT 15SM FEW040 SCT160 BKN230 03/M00 A2967 RMK SC1AC2CI3 SLP073
CYEG;2002-10-10 17:00;METAR CYEG 101700Z 27008KT 15SM FEW040 SCT170 BKN230 04/M01 A2967 RMK SC1AC2CS4 SLP074 SLP074
CYEG;2002-10-10 18:00;METAR CYEG 101800Z 28017KT 15SM FEW035 SCT180 BKN230 05/M03 A2965 RMK SC1AC2CS4 SLP065 SLP065
CYEG;2002-10-10 19:00;METAR CYEG 101900Z 30017KT 15SM FEW032 BKN043 BKN230 06/M03 A2966 RMK CU1SC5CS2 TR CU SC INVDG SLP069 TR CU SC INVDG SLP069
CYEG;2002-10-10 20:00;METAR CYEG 102000Z 30020G26KT 15SM FEW032 SCT040 BKN230 06/M02 A2968 RMK CU1SC4CI2 TR CU SLP073
CYEG;2002-10-10 21:00;METAR CYEG 102100Z 31013G21KT 15SM BKN041 BKN240 05/M02 A2970 RMK SC6CI2 FEW CU ASOCTD SLP077 ASOCTD SLP077
CYEG;2002-10-10 22:00;METAR CYEG 102200Z 30017KT 15SM BKN032 BKN240 05/M02 A2971 RMK SC6CI1 FEW TCU EMBDD SHRA W-N SLP083 EMBDD SHRA W-N SLP083
CYEG;2002-10-10 23:00;METAR CYEG 102300Z 31016G25KT 15SM BKN030 BKN057 BKN240 05/M01 A2974 RMK SC5SC2CI0 TCU EMBDD SHRA SW N-NW E SLP092
CYEG;2002-10-11 00:00;METAR CYEG 110000Z 32016G21KT 15SM FEW030TCU SCT055 BKN240 03/M02 A2977 RMK TCU2SC2CI1 SHRA NW NE SE SLP104
CYEG;2002-10-11 01:00;METAR CYEG 110100Z 34018KT 15SM -SHRA FEW012 SCT035 BKN050 BKN240 02/M02 A2980 RMK CF1SC3SC2CI0 SLP116 RMK CF1SC3SC2CI0 SLP116
CYEG;2002-10-11 02:00;METAR CYEG 110200Z 33010KT 15SM -SHRA FEW012 FEW035 SCT090 BKN240 00/M03 A2983 RMK CF1SC2AC2CI0 SLP125 RMK CF1SC2AC2CI0 SLP125
CYEG;2002-10-11 03:00;METAR CYEG 110300Z 34010KT 15SM BKN050 BKN090 BKN240 00/M03 A2985 RMK SC5AC2CI0 SLP140 SLP140
CYEG;2002-10-11 04:00;METAR CYEG 110400Z 34013KT 15SM FEW035 OVC059 00/M03 A2987 RMK SC2SC6 SLP146
CYEG;2002-10-11 05:00;METAR CYEG 110500Z 33009KT 15SM FEW013 BKN021 BKN050 00/M03 A2989 RMK SF2SC3SC1 A13 FEW SLP151 A13 FEW SLP151
CYEG;2002-10-11 06:00;METAR CYEG 110600Z 32007KT 15SM FEW013 SCT018 BKN036 M00/M03 A2990 RMK SF2SC2SC3 SLP153 SLP153
CYEG;2002-10-11 07:00;METAR CYEG 110700Z 33009KT 15SM FEW015 OVC029 M00/M04 A2992 RMK SC2SC6 SLP160
CYEG;2002-10-11 08:00;METAR CYEG 110800Z 32008KT 15SM -SHSN FEW015 BKN029 OVC041 M01/M05 A2994 RMK SC2SC6SC1 SLP164 SC2SC6SC1 SLP164
CYEG;2002-10-11 09:00;METAR CYEG 110900Z 32006KT 15SM FEW015 SCT029 BKN045 M02/M05 A2996 RMK SC2SC2SC2 SLP174 SLP174
CYEG;2002-10-11 10:00;METAR CYEG 111000Z 31009KT 15SM FEW015 BKN031 OVC120 M01/M05 A2998 RMK SC1SC6AC2 SLP181 SLP181
CYEG;2002-10-11 11:00;METAR CYEG 111100Z 32009KT 15SM FEW015 OVC040 M02/M06 A2999 RMK SC1SC8 SLP186
CYEG;2002-10-11 12:00;METAR CYEG 111200Z 32007KT 15SM FEW015 OVC033 M01/M06 A3001 RMK SC1SC7 SLP193
CYEG;2002-10-11 13:00;METAR CYEG 111300Z 32012G17KT 15SM FEW015 OVC040 M01/M07 A3003 RMK SC1SC7 SLP201
CYEG;2002-10-11 14:00;METAR CYEG 111400Z 31010KT 15SM FEW035 FEW090 SCT160 BKN250 M03/M08 A3005 RMK SC2AC1AC1CI1 SLP207 SC2AC1AC1CI1 SLP207
CYEG;2002-10-11 15:00;METAR CYEG 111500Z 31015KT 15SM BKN039 BKN160 M02/M08 A3008 RMK SC6AC1 SLP221
CYEG;2002-10-11 16:00;METAR CYEG 111600Z 31016KT 15SM BKN031 M02/M08 A3011 RMK SC7 SLP230
CYEG;2002-10-11 17:00;METAR CYEG 111700Z 32017KT 12SM -SHSN BKN034 M02/M07 A3014 RMK SC7 SLP240
CYEG;2002-10-11 18:00;METAR CYEG 111800Z 35011G17KT 10SM -SHSN FEW012 BKN026 BKN250 M02/M06 A3016 RMK SF1SC6CI0 TCU EMBDD VSBY W-SW 2 TR SF SLP249 SF1SC6CI0 TCU EMBDD VSBY W-SW 2 TR SF SLP249
CYEG;2002-10-11 19:00;METAR CYEG 111900Z 34013KT 15SM -SHSN BKN028 BKN075 BKN250 M01/M07 A3019 RMK SC5AC1CI0 SLP257 SC5AC1CI0 SLP257
CYEG;2002-10-11 20:00;METAR CYEG 112000Z 34011G17KT 15SM BKN033 BKN078 M01/M08 A3021 RMK CU5AC2 TCU ASOCTD SHSN ALQDS SLP263 ASOCTD SHSN ALQDS SLP263
CYEG;2002-10-11 21:00;METAR CYEG 112100Z 36008KT 8SM -SHSN BKN030TCU BKN080 00/M07 A3021 RMK TCU5AC1 VSBY N-E 21/2 SLP265 VSBY N-E 21/2 SLP265
CYEG;2002-10-11 22:00;METAR CYEG 112200Z 33007KT 10SM -SHSN BKN030TCU BKN240 M03/M07 A3023 RMK TCU5CI0 VSBY SE 3 SLP273 VSBY SE 3 SLP273
CYEG;2002-10-11 23:00;METAR CYEG 112300Z 02007KT 15SM FEW030TCU FEW090 SCT240 M02/M06 A3024 RMK TCU2AC1CI0 SHSN ALQDS SLP276
CYEG;2002-10-12 00:00;METAR CYEG 120000Z 04004KT 15SM FEW030TCU FEW090 M02/M07 A3025 RMK TCU2AC1 SHSN S-SW N SE SLP282 S-SW N SE SLP282
CYEG;2002-10-12 01:00;METAR CYEG 120100Z 21003KT 15SM FEW030 FEW060 M04/M07 A3027 RMK SC1SC1 VIRGA SE SLP287 SLP287
CYEG;2002-10-12 02:00;METAR CYEG 120200Z 18004KT 15SM FEW050 M05/M09 A3027 RMK SC1 SLP289
CYEG;2002-10-12 03:00;METAR CYEG 120300Z 21004KT 15SM FEW050 M08/M10 A3027 RMK SC1 SLP293
CYEG;2002-10-12 04:00;METAR CYEG 120400Z 22005KT 15SM BKN085 M07/M10 A3027 RMK AC5 SLP293
CYEG;2002-10-12 05:00;METAR CYEG 120500Z 20003KT 15SM BKN089 M05/M08 A3026 RMK AC7 VIRGA N-NE SLP292
CYEG;2002-10-12 06:00;METAR CYEG 120600Z 23006KT 15SM BKN086 M04/M09 A3026 RMK AC7 VIRGA SLP289
CYEG;2002-10-12 07:00;METAR CYEG 120700Z 22005KT 15SM OVC084 M04/M09 A3025 RMK AC8 VIRGA SLP285
CYEG;2002-10-12 08:00;METAR CYEG 120800Z 26007KT 15SM OVC083 M02/M09 A3024 RMK AC7 VIRGA SLP283
CYEG;2002-10-12 09:00;METAR CYEG 120900Z 25006KT 15SM BKN086 M02/M09 A3023 RMK AC6 SLP275
CYEG;2002-10-12 10:00;METAR CYEG 121000Z 27008KT 15SM BKN086 M02/M09 A3024 RMK AC6 SLP276
CYEG;2002-10-12 11:00;METAR CYEG 121100Z 26005KT 15SM SCT060 BKN080 M02/M08 A3024 RMK SC4AC3 SLP276
CYEG;2002-10-12 12:00;METAR CYEG 121200Z 26009KT 15SM FEW060 BKN079 M02/M09 A3023 RMK SC2AC4 SLP277
CYEG;2002-10-12 13:00;METAR CYEG 121300Z 26008KT 15SM BKN070 M02/M09 A3024 RMK AC6 SLP278
CYEG;2002-10-12 14:00;METAR CYEG 121400Z 26006KT 15SM FEW070 FEW250 M05/M10 A3023 RMK AC1CI0
CYEG;2002-10-12 15:00;METAR CYEG 121500Z 26010KT 15SM FEW070 SCT250 M03/M10 A3023 RMK AC1CI0 SLP283
CYEG;2002-10-12 16:00;METAR CYEG 121600Z 27009KT 15SM FEW250 M00/M09 A3024 RMK CI0 SLP284
CYEG;2002-10-12 17:00;METAR CYEG 121700Z 27009KT 15SM FEW250 02/M08 A3024 RMK CI0 SLP284
CYEG;2002-10-12 18:00;METAR CYEG 121800Z 27008KT 15SM FEW250 04/M08 A3023 RMK CI0 SLP273
CYEG;2002-10-12 19:00;METAR CYEG 121900Z 29011KT 15SM FEW100 SCT250 05/M08 A3022 RMK AC1CI1 SLP268
CYEG;2002-10-12 20:00;METAR CYEG 122000Z 28009KT 15SM FEW100 SCT150 SCT250 06/M07 A3021 RMK AC1AC2CI0 SLP266 SLP266
CYEG;2002-10-12 21:00;METAR CYEG 122100Z 29010KT 15SM FEW150 BKN250 07/M06 A3020 RMK AC1CI1 SLP255
CYEG;2002-10-12 22:00;METAR CYEG 122200Z 31007KT 15SM FEW100 BKN250 08/M06 A3019 RMK AC1CI1 CC ASOCTD SLP252 SLP252
CYEG;2002-10-12 23:00;METAR CYEG 122300Z 32006KT 15SM FEW100 BKN250 08/M06 A3018 RMK AC1CI1 SLP251
CYEG;2002-10-13 00:00;METAR CYEG 130000Z 31004KT 15SM FEW100 BKN250 07/M06 A3017 RMK AC1CI1 SLP247
CYEG;2002-10-13 01:00;METAR CYEG 130100Z 19003KT 15SM FEW100 SCT250 01/M07 A3015 RMK AC1CI2 SLP240
CYEG;2002-10-13 02:00;METAR CYEG 130200Z 18005KT 15SM FEW080 BKN240 01/M06 A3015 RMK AC1CI3 SLP238
CYEG;2002-10-13 04:00;METAR CYEG 130400Z 18005KT 15SM FEW240 M01/M07 A3013 RMK CI1 SLP240
CYEG;2002-10-13 05:00;METAR CYEG 130500Z 18005KT 15SM FEW240 M02/M07 A3011 RMK CI0 SLP234
CYEG;2002-10-13 06:00;METAR CYEG 130600Z 18005KT 15SM FEW240 M03/M06 A3008 RMK CI1 SLP220
CYEG;2002-10-13 07:00;METAR CYEG 130700Z 20006KT 15SM FEW250 M03/M07 A3007 RMK CI1 SLP214
CYEG;2002-10-13 08:00;METAR CYEG 130800Z 22005KT 15SM FEW250 M02/M06 A3005 RMK CI1 SLP209
CYEG;2002-10-13 09:00;METAR CYEG 130900Z 20006KT 15SM SCT250 M02/M06 A3003 RMK CI2 SLP199
CYEG;2002-10-13 10:00;METAR CYEG 131000Z 20005KT 15SM BKN180 BKN250 M01/M05 A3000 RMK AC4CI1 SLP189
CYEG;2002-10-13 11:00;METAR CYEG 131100Z 19007KT 15SM BKN180 BKN250 M02/M06 A2998 RMK AC4CI1 SLP183
CYEG;2002-10-13 12:00;METAR CYEG 131200Z 20008KT 15SM SCT180 BKN250 M02/M06 A2996 RMK AC2CI2 SLP174
CYEG;2002-10-13 13:00;METAR CYEG 131300Z 19008KT 15SM SCT180 BKN250 M01/M06 A2993 RMK AC2CI2 SLP164
CYEG;2002-10-13 14:00;METAR CYEG 131400Z 21002KT 15SM BKN180 OVC240 M04/M07 A2990 RMK AC6CI0 SLP156
CYEG;2002-10-13 15:00;METAR CYEG 131500Z 20004KT 15SM BKN180 BKN240 M03/M06 A2989 RMK AC6CI0 SLP159
CYEG;2002-10-13 16:00;METAR CYEG 131600Z 20003KT 15SM BKN180 BKN240 M00/M04 A2989 RMK AC6CI1 SLP157
CYEG;2002-10-13 17:00;METAR CYEG 131700Z 21002KT 15SM SCT150 BKN240 02/M02 A2988 RMK AC3CI1 SLP154
CYEG;2002-10-13 18:00;METAR CYEG 131800Z 27007KT 15SM SCT150 BKN240 09/M03 A2987 RMK AC2CI1 SLP142
CYEG;2002-10-13 19:00;METAR CYEG 131900Z 30008KT 15SM FEW100 SCT160 BKN240 12/M03 A2986 RMK AC1AC1CI2 SLP138 SLP138
CYEG;2002-10-13 20:00;METAR CYEG 132000Z 31012G20KT 15SM FEW075 FEW100 FEW160 BKN240 13/M07 A2985 RMK CU1AC1AC0CI2 SLP135 CU1AC1AC0CI2 SLP135
CYEG;2002-10-13 21:00;METAR CYEG 132100Z 29018G26KT 15SM FEW060 FEW100 BKN160 BKN240 11/M04 A2986 RMK SC1AC1AS5CI0 VIRGA W SLP135 SC1AC1AS5CI0 VIRGA W SLP135
CYEG;2002-10-13 22:00;METAR CYEG 132200Z CCA 30015G25KT 15SM -SHRA FEW030 BKN068 BKN240 10/M02 A2987 RMK SC2AC4CI1 SLP137
CYEG;2002-10-13 23:00;METAR CYEG 132300Z 32019G26KT 15SM FEW040 BKN069 BKN150 BKN240 10/M03 A2990 RMK SC2AC4AS1CI0 SLP147 SC2AC4AS1CI0 SLP147
CYEG;2002-10-14 00:00;METAR CYEG 140000Z 33016G25KT 15SM FEW040 BKN085 10/M03 A2993 RMK SC2AC5 SLP162
CYEG;2002-10-14 01:00;METAR CYEG 140100Z 32012G17KT 15SM FEW040 BKN096 BKN150 08/M02 A2995 RMK SC1AC6AC0 VIRGA N-E SLP167
CYEG;2002-10-14 02:00;METAR CYEG 140200Z 31012KT 15SM SCT100 BKN150 07/M02 A2998 RMK AC4AC1 VIRGA N SLP176 SLP176
CYEG;2002-10-14 03:00;METAR CYEG 140300Z 31011KT 15SM BKN100 07/M02 A3001 RMK AC6 VIRGA N SLP191
CYEG;2002-10-14 04:00;METAR CYEG 140400Z 30011KT 15SM FEW065 BKN097 07/M02 A3003 RMK SC2AC6 VIRGA S SLP198 SLP198
CYEG;2002-10-14 05:00;METAR CYEG 140500Z 30014KT 15SM FEW065 BKN092 07/M02 A3005 RMK SC2AC5 SLP204
CYEG;2002-10-14 06:00;METAR CYEG 140600Z 29010KT 15SM FEW060 BKN090 06/M02 A3006 RMK SC1AC4 SLP200
CYEG;2002-10-14 07:00;METAR CYEG 140700Z 30012G18KT 15SM FEW090 FEW110 06/M03 A3009 RMK AC1AC2 SLP209
CYEG;2002-10-14 08:00;METAR CYEG 140800Z 31010G16KT 15SM FEW090 FEW110 05/M03 A3012 RMK AC1AC2 SLP218
CYEG;2002-10-14 09:00;METAR CYEG 140900Z 29009KT 15SM FEW078 SCT110 03/M03 A3012 RMK AC2AC2 SLP221
CYEG;2002-10-14 10:00;METAR CYEG 141000Z 28007KT 15SM FEW078 SCT110 04/M02 A3013 RMK AC2AC1 AURBO SLP223
CYEG;2002-10-14 11:00;METAR CYEG 141100Z 27007KT 15SM BKN090 BKN110 03/M03 A3014 RMK AC5AC2 VIRGA SLP225
CYEG;2002-10-14 12:00;METAR CYEG 141200Z 28006KT 15SM BKN090 04/M02 A3015 RMK AC7 SLP230
CYEG;2002-10-14 13:00;METAR CYEG 141300Z 27007KT 15SM BKN093 03/M03 A3015 RMK AC6 SLP232
CYEG;2002-10-14 14:00;METAR CYEG 141400Z 28004KT 15SM BKN094 03/M03 A3016 RMK AC6 SLP235
CYEG;2002-10-14 15:00;METAR CYEG 141500Z 23003KT 15SM BKN097 01/M04 A3018 RMK AC5 SLP246
CYEG;2002-10-14 16:00;METAR CYEG 141600Z 27008KT 15SM SCT061 BKN097 05/M03 A3018 RMK SC2AC3 SLP248
CYEG;2002-10-14 17:00;METAR CYEG 141700Z 28009KT 15SM SCT065 BKN097 06/M02 A3018 RMK SC3AC3
CYEG;2002-10-14 18:00;METAR CYEG 141800Z 29010KT 15SM BKN065 BKN100 07/M02 A3019 RMK SC5AC2 SLP245
CYEG;2002-10-14 19:00;METAR CYEG 141900Z 28008KT 15SM FEW065 BKN093 BKN250 08/M01 A3019 RMK SC2AC4CI0 SLP245
CYEG;2002-10-14 20:00;METAR CYEG 142000Z 29010KT 15SM FEW044 FEW065 BKN093 BKN250 10/M01 A3017 RMK CU1SC2AC2CI0 SLP241 CU1SC2AC2CI0 SLP241
CYEG;2002-10-14 21:00;METAR CYEG 142100Z 32006KT 15SM FEW048 FEW065 BKN093 BKN250 11/M01 A3016 RMK CU1SC2AC2CI0 SLP236 CU1SC2AC2CI0 SLP236
CYEG;2002-10-14 22:00;METAR CYEG 142200Z 32008KT 15SM FEW048 BKN093 BKN250 11/M01 A3016 RMK CU2AC2CI0 SLP235 SLP235
CYEG;2002-10-14 23:00;METAR CYEG 142300Z 32008KT 15SM SCT048 BKN093 BKN250 09/M01 A3017 RMK CU3AC1CI0 TCU ASOCTD SLP239 TCU ASOCTD SLP239
CYEG;2002-10-15 00:00;METAR CYEG 150000Z 31009KT 15SM SCT048TCU SCT080 BKN250 10/M02 A3018 RMK TCU3AC1CI0 VIRGA N-E SLP241
CYEG;2002-10-15 01:00;METAR CYEG 150100Z 03005KT 15SM FEW048 SCT080 04/M02 A3019 RMK SC2AC1 G18 PST HR SLP244 SLP244
CYEG;2002-10-15 02:00;METAR CYEG 150200Z 04004KT 15SM FEW050 FEW080 01/M03 A3020 RMK SC1AC1 SLP249
CYEG;2002-10-15 03:00;METAR CYEG 150300Z 00000KT 15SM FEW080 M03/M06 A3020 RMK AC2 SLP263
CYEG;2002-10-15 04:00;METAR CYEG 150400Z 21003KT 15SM SCT085 SCT250 M02/M05 A3020 RMK AC3CI0 SLP262
CYEG;2002-10-15 05:00;METAR CYEG 150500Z 21004KT 15SM BKN083 BKN250 M01/M04 A3019 RMK AC5CI0 SLP259
CYEG;2002-10-15 06:00;METAR CYEG 150600Z 20006KT 15SM BKN083 M00/M04 A3018 RMK AC6 SLP247
CYEG;2002-10-15 07:00;METAR CYEG 150700Z 19005KT 15SM SCT080 BKN180 M00/M03 A3015 RMK AC3AC2 SLP239
CYEG;2002-10-15 08:00;METAR CYEG 150800Z 18005KT 15SM FEW070 BKN180 BKN240 M00/M03 A3015 RMK AC2AC2CI1 SLP237 SLP237
CYEG;2002-10-15 09:00;METAR CYEG 150900Z 18005KT 15SM SCT073 BKN240 M00/M03 A3013 RMK AC4CI1 SLP226
CYEG;2002-10-15 10:00;METAR CYEG 151000Z 18006KT 15SM FEW070 SCT160 BKN220 00/M03 A3009 RMK AC2AC1CI2 SLP216 SLP216
CYEG;2002-10-15 11:00;METAR CYEG 151100Z 19005KT 15SM FEW070 SCT160 BKN220 M00/M03 A3008 RMK AC2AC2CI2 SLP211 SLP211
CYEG;2002-10-15 12:00;METAR CYEG 151200Z 22002KT 15SM FEW070 FEW150 BKN220 M02/M04 A3007 RMK AC1AC1CI2 SLP210 SLP210
CYEG;2002-10-15 13:00;METAR CYEG 151300Z 15003KT 15SM BKN093 BKN210 M01/M03 A3006 RMK AC6CI1 AC INVDG SLP207 SLP207
CYEG;2002-10-15 14:00;METAR CYEG 151400Z 00000KT 15SM OVC090 00/M02 A3007 RMK AC8 VIRGA SLP208
CYEG;2002-10-15 15:00;METAR CYEG 151500Z 23005KT 15SM -SHRA SCT040 OVC074 01/M02 A3007 RMK SC3AC5 SLP217
CYEG;2002-10-15 16:00;METAR CYEG 151600Z 32004KT 15SM -SHRA BKN032 OVC074 03/M00 A3008 RMK SC5AC3 SLP221
CYEG;2002-10-15 17:00;METAR CYEG 151700Z 26007KT 15SM FEW032 SCT074 BKN120 05/00 A3007 RMK SC2AC1AC2 SLP219 SLP219
CYEG;2002-10-15 18:00;METAR CYEG 151800Z 30011G16KT 15SM FEW090 BKN120 BKN250 08/00 A3008 RMK AC2AC3CI0 SLP212 SLP212
CYEG;2002-10-15 19:00;METAR CYEG 151900Z 28012KT 15SM FEW030 BKN074 BKN120 09/01 A3008 RMK CU1AC6AC1 TR CU SLP212 CU SLP212
CYEG;2002-10-15 20:00;METAR CYEG 152000Z 32019G24KT 15SM FEW040 FEW100 BKN250 10/00 A3008 RMK CU1AC1CI2 SLP211
CYEG;2002-10-15 21:00;METAR CYEG 152100Z 33014G22KT 15SM FEW044 FEW100 BKN200 11/M00 A3008 RMK CU2AC1CS2 HALO SLP209
CYEG;2002-10-15 22:00;METAR CYEG 152200Z 32017G24KT 15SM FEW045 BKN200 12/00 A3007 RMK CU2CS2 HALO SLP207
CYEG;2002-10-15 23:00;METAR CYEG 152300Z 31022G29KT 15SM SCT055 BKN200 12/M01 A3006 RMK CU3CI1 SLP205
CYEG;2002-10-16 00:00;METAR CYEG 160000Z 33017G25KT 15SM FEW055 BKN250 11/M02 A3008 RMK SC2CI2 SLP210
CYEG;2002-10-16 01:00;METAR CYEG 160100Z 34008KT 15SM FEW062 BKN250 09/M02 A3010 RMK SC2CI1 SLP217
CYEG;2002-10-16 02:00;METAR CYEG 160200Z 35005KT 15SM FEW062 BKN250 03/M02 A3011 RMK SC1CI2 SLP220
CYEG;2002-10-16 03:00;METAR CYEG 160300Z 32003KT 15SM SCT250 01/M04 A3012 RMK CI2 SLP232
CYEG;2002-10-16 04:00;METAR CYEG 160400Z 33004KT 15SM FEW060 SCT250 01/M03 A3014 RMK SC1CI1 SLP237
CYEG;2002-10-16 05:00;METAR CYEG 160500Z 27003KT 15SM FEW060 BKN250 M02/M05 A3014 RMK SC1CI2 SLP238
CYEG;2002-10-16 06:00;METAR CYEG 160600Z 28002KT 15SM FEW080 BKN250 M02/M05 A3014 RMK AC1CI2 SLP235
CYEG;2002-10-16 07:00;METAR CYEG 160700Z 20004KT 15SM BKN095 OVC250 M00/M03 A3014 RMK AC7CI1 AC INVDG SLP234 SLP234
CYEG;2002-10-16 08:00;METAR CYEG 160800Z 21005KT 15SM OVC094 01/M03 A3015 RMK AC8 VIRGA SLP236
CYEG;2002-10-16 09:00;METAR CYEG 160900Z 21004KT 15SM OVC093 01/M02 A3015 RMK AC8 SLP233
CYEG;2002-10-16 10:00;METAR CYEG 161000Z 21004KT 15SM BKN095 OVC250 02/M02 A3014 RMK AC6CI2 VIRGA S-W-NW SLP229
CYEG;2002-10-16 11:00;METAR CYEG 161100Z 18002KT 15SM BKN091 BKN250 01/M02 A3013 RMK AC4CI1 SLP228
CYEG;2002-10-16 12:00;METAR CYEG 161200Z 18003KT 15SM FEW065 BKN090 BKN250 M02/M04 A3012 RMK SC2AC2CI1 SLP225 SLP225
CYEG;2002-10-16 13:00;METAR CYEG 161300Z 18006KT 15SM FEW065 FEW090 SCT250 M01/M05 A3011 RMK SC1AC1CI1 SLP221 SLP221
CYEG;2002-10-16 14:00;METAR CYEG 161400Z 18006KT 15SM FEW065 FEW090 BKN250 M01/M04 A3009 RMK SC1AC1CI1 SLP217
CYEG;2002-10-16 15:00;METAR CYEG 161500Z 20004KT 15SM FEW060 FEW090 BKN250 M01/M04 A3009 RMK SC1AC1CI1 TR SC SLP222 TR SC SLP222
CYEG;2002-10-16 18:00;METAR CYEG 161800Z 26003KT 15SM FEW060 FEW090 BKN300 09/01 A3003 RMK SC1AC1CI2 TR AC SLP196 AC SLP196
CYEG;2002-10-16 19:00;METAR CYEG 161900Z 27004KT 15SM FEW080 BKN300 10/01 A3000 RMK AC1CI2 SLP187 SLP177
CYEG;2002-10-16 21:00;METAR CYEG 162100Z 26004KT 15SM FEW090 FEW240 BKN300 13/02 A2993 RMK AC1CI1CI1 SLP156 SLP156
CYEG;2002-10-16 22:00;METAR CYEG 162200Z 24002KT 15SM FEW050 FEW090 SCT120 SCT240 OVC300 14/02 A2990 RMK CF1AC1AC1CI1CI2 TR CF SLP146 RMK CF1AC1AC1CI1CI2 TR CF SLP146
CYEG;2002-10-16 23:00;METAR CYEG 162300Z 27002KT 15SM SCT060 BKN120 BKN240 OVC300 13/02 A2989 RMK SC3AC2CI1CI1 SLP141
CYEG;2002-10-17 00:00;METAR CYEG 170000Z 15002KT 15SM FEW060 SCT130 BKN240 OVC300 12/02 A2985 RMK SC1AC2CI2CI2 SLP131
CYEG;2002-10-17 01:00;METAR CYEG 170100Z 15006KT 15SM BKN140 BKN240 BKN300 07/01 A2982 RMK AC5CI1CI1 VIRGA SW SLP121 VIRGA SW SLP121
CYEG;2002-10-17 02:00;METAR CYEG 170200Z 16007KT 15SM BKN130 BKN240 11/01 A2979 RMK AC6CI1 SLP114
CYEG;2002-10-17 03:00;METAR CYEG 170300Z 17007KT 15SM OVC120 10/02 A2976 RMK AC8 VIRGA S QUAD SLP100
CYEG;2002-10-17 04:00;METAR CYEG 170400Z 17008KT 15SM BKN091 OVC120 10/02 A2971 RMK AC6AC2 SLP086
CYEG;2002-10-17 05:00;METAR CYEG 170500Z 18008KT 15SM BKN095 OVC120 09/02 A2968 RMK AC6AC2 SLP076
CYEG;2002-10-17 06:00;METAR CYEG 170600Z 23002KT 15SM BKN100 OVC120 08/02 A2966 RMK AC6AC2 VIRGA OVRHD SE-SW SLP059 SE-SW SLP059
CYEG;2002-10-17 07:00;METAR CYEG 170700Z 28005KT 15SM FEW100 BKN170 OVC240 08/01 A2965 RMK AC2AS4CI2 SLP055 SLP055
CYEG;2002-10-17 08:00;METAR CYEG 170800Z 29006KT 15SM FEW100 BKN160 OVC240 10/01 A2964 RMK AC2AS5CI1 SLP053 SLP053
CYEG;2002-10-17 09:00;METAR CYEG 170900Z 28011KT 15SM FEW100 BKN160 BKN210 11/00 A2965 RMK AC1AS4CI2 SLP049 SLP049
CYEG;2002-10-17 10:00;METAR CYEG 171000Z 30008KT 15SM SCT130 BKN170 BKN210 09/M01 A2965 RMK AC2AS2CI2 SLP049
CYEG;2002-10-17 11:00;METAR CYEG 171100Z 29008KT 15SM SCT140 BKN170 BKN240 09/M01 A2964 RMK AC3AC2CI2 SLP048 SLP048
CYEG;2002-10-17 12:00;METAR CYEG 171200Z 30009KT 15SM FEW080 SCT120 BKN240 08/M01 A2965 RMK AC1AC3CI1 SLP053
CYEG;2002-10-17 13:00;METAR CYEG 171300Z 30009KT 15SM BKN073 BKN120 10/00 A2965 RMK AC6AC2
CYEG;2002-10-17 14:00;METAR CYEG 171400Z 30008KT 15SM BKN085 BKN120 OVC240 10/01 A2966 RMK AC6AC1CI1 VIRGA NW-NE-SE SLP057 VIRGA NW-NE-SE SLP057
CYEG;2002-10-17 15:00;METAR CYEG 171500Z 31008KT 15SM BKN073 BKN240 10/01 A2967 RMK AC6CI1 VIRGA N-NE-SE SLP061
CYEG;2002-10-17 16:00;METAR CYEG 171600Z 30007KT 15SM FEW060 BKN073 BKN240 11/02 A2968 RMK SC2AC5CI1 VIRGA N-E-SE SLP063 VIRGA N-E-SE SLP063
CYEG;2002-10-17 17:00;METAR CYEG 171700Z 31009KT 15SM BKN066 BKN120 OVC240 11/02 A2969 RMK AC6AC1CI1 VIRGA DIST NE-SE SLP066 VIRGA DIST NE-SE SLP066
CYEG;2002-10-17 18:00;METAR CYEG 171800Z 31013KT 15SM FEW040 BKN063 OVC120 12/02 A2970 RMK CF1SC6AS2 VIRGA E SLP069 VIRGA E SLP069
CYEG;2002-10-17 19:00;METAR CYEG 171900Z 31012G21KT 15SM FEW040 OVC055 12/02 A2971 RMK CU1SC7 VIRGA SLP072
CYEG;2002-10-17 19:10;SPECI CYEG 171910Z 32013G18KT 15SM -SHRA FEW040 OVC055 RMK CU1SC7 SLP072
CYEG;2002-10-17 20:00;METAR CYEG 172000Z 31014G20KT 15SM FEW040 BKN071 OVC250 13/03 A2970 RMK CU2AC5CI1 VIRGA SE-SW SLP070 VIRGA SE-SW SLP070
CYEG;2002-10-17 22:00;METAR CYEG 172200Z 33015KT 15SM FEW040 BKN070 OVC250 13/03 A2971 RMK CU1AC6CI2 SHRA/VIRGA SW PK GST 25 PST HR SLP070 SHRA/VIRGA SW PK GST 25 PST HR SLP070
CYEG;2002-10-17 23:00;METAR CYEG 172300Z 33013KT 15SM FEW040 BKN060 OVC090 12/03 A2971 RMK CU1SC6AC2 VIRGA SE SLP072 VIRGA SE SLP072
CYEG;2002-10-18 00:00;METAR CYEG 180000Z 32007KT 15SM SCT050 OVC080 12/03 A2972 RMK SC3AC5 VIRGA W SLP077 SLP077
CYEG;2002-10-18 00:44;SPECI CYEG 180044Z 31012KT 15SM -SHRA SCT050 OVC070 RMK SC3AS5 CVCTV CLD EMBD PCPN NW-W-SE PCPN NW-W-SE
CYEG;2002-10-18 01:00;METAR CYEG 180100Z 31010KT 15SM -SHRA SCT048 OVC075 11/02 A2973 RMK SC3AS5 CVCTV CLD EMBD SLP081 CLD EMBD SLP081
CYEG;2002-10-18 02:00;METAR CYEG 180200Z 35009KT 15SM -RA BKN049 OVC070 09/03 A2975 RMK SC7AC1 SLP088
CYEG;2002-10-18 03:00;METAR CYEG 180300Z 35007KT 15SM -RA FEW035 BKN050 OVC070 08/04 A2977 RMK SC2SC3AC3 SLP097
CYEG;2002-10-18 04:00;METAR CYEG 180400Z 36009KT 15SM -RA FEW012 BKN027 OVC035 07/04 A2980 RMK CF1SC6SC2 SLP106 SC1SC6SC1 SLP113 CF2SC5SC1 R- INTMT SLP125
CYEG;2002-10-18 06:46;SPECI CYEG 180646Z 04008KT 15SM VCSH BKN010 OVC035 RMK SC5SC3 SHRA SE-SW
CYEG;2002-10-18 06:54;SPECI CYEG 180654Z 04010KT 15SM SCT010 OVC042 RMK SC3SC5
CYEG;2002-10-18 07:00;METAR CYEG 180700Z 04011KT 15SM SCT010 OVC045 03/00 A2988 RMK SC2SC6 SLP133
CYEG;2002-10-18 08:00;METAR CYEG 180800Z 03006KT 15SM BKN021 OVC045 02/M01 A2990 RMK SC6SC2 SLP140
CYEG;2002-10-18 09:00;METAR CYEG 180900Z 01004KT 15SM FEW010 BKN019 BKN050 OVC120 02/M01 A2992 RMK CF1SC6SC1AC1 TR CF SLP150 CF1SC6SC1AC1 TR CF SLP150
CYEG;2002-10-18 09:54;SPECI CYEG 180954Z 03004KT 15SM FEW010 BKN014 OVC020 RMK CF1SC5SC2
CYEG;2002-10-18 10:00;METAR CYEG 181000Z 03005KT 15SM FEW010 BKN013 OVC020 02/M01 A2993 RMK CF1SC6SC1 SLP153 SLP153
CYEG;2002-10-18 10:51;SPECI CYEG 181051Z 05008KT 15SM OVC008 RMK SC8
CYEG;2002-10-18 11:00;METAR CYEG 181100Z 05007KT 15SM OVC009 01/M02 A2995 RMK ST8 SLP159
CYEG;2002-10-18 11:30;SPECI CYEG 181130Z 04005KT 15SM OVC010 RMK ST8
CYEG;2002-10-18 12:00;METAR CYEG 181200Z 04004KT 15SM OVC013 01/M02 A2996 RMK ST8 SLP166
CYEG;2002-10-18 13:00;METAR CYEG 181300Z 06003KT 15SM OVC012 01/M02 A2997 RMK ST8 SLP170
CYEG;2002-10-18 14:00;METAR CYEG 181400Z 06004KT 15SM OVC013 01/M02 A2998 RMK ST8 SLP174
CYEG;2002-10-18 15:00;METAR CYEG 181500Z 10003KT 15SM OVC012 01/M02 A2999 RMK SC8 SLP181
CYEG;2002-10-18 16:00;METAR CYEG 181600Z 10002KT 15SM BKN013 OVC018 01/M02 A3000 RMK SC7SC1 SLP183
CYEG;2002-10-18 16:08;SPECI CYEG 181608Z 13003KT 15SM FEW007 OVC013 RMK CF1SC7 CF SE HRZN
CYEG;2002-10-18 17:00;METAR CYEG 181700Z 11004KT 15SM SCT006 OVC012 02/M02 A3001 RMK SF2SC6 SF INVDG FM S VSBY S-SW 6 BR SLP187 S VSBY S-SW 6 BR SLP187
CYEG;2002-10-18 17:37;SPECI CYEG 181737Z 15004KT 5SM BR BKN007 OVC011 RMK SF5SC3 VIS N QUAD 15
CYEG;2002-10-18 18:00;METAR CYEG 181800Z 15005KT 5SM BR BKN005 OVC011 02/M01 A3001 RMK SF6SC2 VIS NW-NE 12 SLP189 12 SLP189
CYEG;2002-10-18 19:00;METAR CYEG 181900Z 13005KT 8SM OVC005 02/M00 A3000 RMK ST8 SLP186
CYEG;2002-10-18 20:00;METAR CYEG 182000Z 14007KT 12SM OVC007 02/00 A3000 RMK ST8 SLP185
CYEG;2002-10-18 20:39;SPECI CYEG 182039Z 13006KT 12SM SCT007 OVC010 RMK SF3ST5
CYEG;2002-10-18 21:00;METAR CYEG 182100Z 13008KT 15SM FEW008 BKN011 OVC015 03/M00 A2998 RMK SF2ST5SC2 SLP182 SLP182
CYEG;2002-10-18 22:00;METAR CYEG 182200Z 16005KT 15SM BKN012 OVC020 03/00 A2998 RMK SC6SC2 SLP181
CYEG;2002-10-18 23:00;METAR CYEG 182300Z 16005KT 15SM OVC012 04/00 A2998 RMK SC8 SLP181
CYEG;2002-10-19 00:00;METAR CYEG 190000Z 14005KT 12SM OVC011 04/01 A2998 RMK ST8 VIS SW 6 BR SLP180
CYEG;2002-10-19 01:00;METAR CYEG 190100Z 14006KT 12SM OVC012 OVC070 03/00 A2998 RMK ST7AC1
CYEG;2002-10-19 02:00;METAR CYEG 190200Z 13006KT 12SM OVC012 OVC070 03/00 A2998 RMK ST7AC1
CYEG;2002-10-19 03:00;METAR CYEG 190300Z 15006KT 12SM OVC011 03/00 A2997 RMK ST8 SLP178
CYEG;2002-10-19 03:06;SPECI CYEG 190306Z 16008KT 12SM FEW009 OVC011 RMK SF2ST6
CYEG;2002-10-19 03:13;SPECI CYEG 190313Z 15006KT 10SM SCT005 OVC008 RMK SF3ST5
CYEG;2002-10-19 04:00;METAR CYEG 190400Z 16007KT 6SM BR SCT004 OVC007 03/01 A2997 RMK SF3ST5 SLP178
CYEG;2002-10-19 04:19;SPECI CYEG 190419Z 14006KT 12SM -SG SCT003 OVC006 RMK SF3ST5
CYEG;2002-10-19 05:00;METAR CYEG 190500Z 17006KT 10SM -SG SCT003 OVC005 03/01 A2996 RMK SF3ST5 SLP173
CYEG;2002-10-19 05:35;SPECI CYEG 190535Z 18009KT 10SM -SG FEW002 OVC004 RMK SF2ST6
CYEG;2002-10-19 06:00;METAR CYEG 190600Z 18007KT 5SM -SG BR FEW002 OVC004 03/01 A2995 RMK SF2ST6 SLP169
CYEG;2002-10-19 07:00;METAR CYEG 190700Z 16004KT 3SM -SG BR SCT002 OVC003 03/02 A2993 RMK SF3ST5 ACFT RPTS TPS 1200FT SLP164 RPTS TPS 1200FT SLP164
CYEG;2002-10-19 07:50;SPECI CYEG 190750Z 16005KT 1 1/2SM R12/5000FT R30/6000FT -SG BR SCT002 OVC003 RMK SF3ST5 SF3ST5
CYEG;2002-10-19 08:00;METAR CYEG 190800Z 16006KT 1 1/2SM R12/4500FT R30/5000FT -SG BR FEW002 OVC003 03/02 A2992 RMK SF2ST6 SLP160 OVC003 RMK SF2ST6 03/02 A2992 RMK SF2ST6 SLP160 SF2ST6 A2990 RMK FG2SF6 SLP153 RMK FG2SF6 SLP153 04/03 A2989 RMK FG2SF6 SLP150 A2989 RMK FG2SF6 SLP150 FG2SF6 04/03 A2989 RMK FG2SF6 SLP149 A2989 RMK FG2SF6 SLP149 SLP151 SLP153 SF2SF4ST2 SLP158 SLP160
CYEG;2002-10-19 17:00;METAR CYEG 191700Z 11005KT 4SM BR SCT005 OVC006 04/02 A2994 RMK SF3SF5 SLP163
CYEG;2002-10-19 18:00;METAR CYEG 191800Z 10003KT 4SM BR SCT005 OVC007 03/01 A2995 RMK SF3SF5 SLP168
CYEG;2002-10-19 19:00;METAR CYEG 191900Z 11004KT 7SM FEW006 BKN008 OVC010 03/01 A2996 RMK SF2SF4SC2 BR SLP171 SLP171
CYEG;2002-10-19 20:00;METAR CYEG 192000Z 16004KT 7SM FEW007 BKN009 OVC012 03/01 A2996 RMK SF2SF4SC2 BR SLP172 SLP172
CYEG;2002-10-19 21:00;METAR CYEG 192100Z 16003KT 5SM BR FEW008 BKN009 OVC012 04/01 A2996 RMK SF2SF4SC2 SLP170 SLP170 SF2SF2ST4 SLP172 SF2SF4SC2 VIS SE 3 SM SLP173 RMK SF2SF2ST4 SLP175 SF2SF2ST4 SLP175 RMK SF3SF3ST2 SLP177 SF3SF3ST2 SLP177 SF2SF3ST2 SLP179 SF3SF4ST1 SLP183 SLP187
CYEG;2002-10-20 04:41;SPECI CYEG 200441Z 14008KT 4SM -RA BR FEW003 SCT006 BKN015 OVC050 RMK SF2SF2SC3SC1
CYEG;2002-10-20 05:00;METAR CYEG 200500Z 14007KT 5SM -RA BR BKN004 BKN015 OVC051 02/00 A2998 RMK SF4SC3SC1 SLP182
CYEG;2002-10-20 05:43;SPECI CYEG 200543Z 17008KT 5SM -RA BR BKN004 BKN015 OVC039 RMK SF5SC2SC2
CYEG;2002-10-20 06:00;METAR CYEG 200600Z 16006KT 4SM -RA BR BKN004 BKN012 OVC040 02/00 A2997 RMK SF6SC2SC1 SLP176
CYEG;2002-10-20 07:00;METAR CYEG 200700Z 15002KT 4SM -RA BR BKN005 OVC011 02/01 A2997 RMK SF6SC2 SLP177
CYEG;2002-10-20 08:00;METAR CYEG 200800Z 12004KT 4SM -RA BR OVC006 02/01 A2996 RMK SF8 SLP175
CYEG;2002-10-20 09:00;METAR CYEG 200900Z 10005KT 4SM -RA BR FEW004 OVC008 02/01 A2996 RMK SF2ST6 SLP174
CYEG;2002-10-20 10:00;METAR CYEG 201000Z 11006KT 4SM -RA FEW004 OVC008 02/01 A2996 RMK SF2ST6
CYEG;2002-10-20 11:00;METAR CYEG 201100Z 11005KT 5SM BR FEW002 BKN008 BKN031 OVC080 02/00 A2996 RMK SF2SF3SC2AC1 SLP175 SF2SF3SC2AC1 SLP175
CYEG;2002-10-20 12:00;METAR CYEG 201200Z 12006KT 4SM -SHRA BR BKN002 OVC031 02/01 A2996 RMK SF4SC4 SLP175 SLP175
CYEG;2002-10-20 12:51;SPECI CYEG 201251Z 11005KT 4SM BR SCT002 BKN013 OVC027 RMK SF2SC2SC4
CYEG;2002-10-20 13:00;METAR CYEG 201300Z 11005KT 4SM BR SCT002 BKN015 BKN027 OVC090 02/01 A2997 RMK SF2SC4SC2AC1 SLP176 SF2SC4SC2AC1 SLP176
CYEG;2002-10-20 13:46;SPECI CYEG 201346Z 11004KT 4SM BR SCT002 BKN014 OVC020 RMK SF2SC3SC2
CYEG;2002-10-20 14:00;METAR CYEG 201400Z 10006KT 4SM BR BKN003 BKN014 OVC020 02/00 A2997 RMK SF3SC3SC2 SLP178 SLP178
CYEG;2002-10-20 14:13;SPECI CYEG 201413Z 11006KT 3SM -SHRA BR BKN004 OVC014 RMK SF5SC3
CYEG;2002-10-20 15:24;SPECI CYEG 201524Z 10005KT 3SM BR FEW003 BKN004 OVC013 RMK SF2SF3SC2
CYEG;2002-10-20 16:00;METAR CYEG 201600Z 10004KT 4SM BR FEW003 BKN004 BKN008 OVC013 02/01 A2999 RMK SF2SF4SF2SC1 SLP185
CYEG;2002-10-20 16:52;SPECI CYEG 201652Z 09004KT 4SM BR FEW004 BKN005 OVC009 RMK SF2SF3SC2
CYEG;2002-10-20 17:00;METAR CYEG 201700Z 09004KT 4SM BR FEW004 BKN005 OVC009 02/01 A3000 RMK SF2SF4SC2 SLP188 SLP188
CYEG;2002-10-20 18:00;METAR CYEG 201800Z 06003KT 4SM BR OVC005 03/01 A3001 RMK SF8 SLP192
CYEG;2002-10-20 19:00;METAR CYEG 201900Z 05004KT 4SM BR OVC006 03/02 A3002 RMK SF8 SLP193
CYEG;2002-10-20 19:21;SPECI CYEG 201921Z 06005KT 3SM BR BKN004 OVC006 RMK SF5SF3
CYEG;2002-10-20 19:47;SPECI CYEG 201947Z 07004KT 2SM BR OVC004 RMK SF8
CYEG;2002-10-20 20:00;METAR CYEG 202000Z 06004KT 2SM BR OVC004 03/02 A3002 RMK SF8 CIG RAG SLP195
CYEG;2002-10-20 20:46;SPECI CYEG 202046Z 06004KT 3SM BR OVC004 RMK SF8 CIG RAG
CYEG;2002-10-20 21:00;METAR CYEG 202100Z 05004KT 3SM BR BKN004 OVC005 03/02 A3003 RMK SF6SF2 CIG RAG SLP198 SLP198
CYEG;2002-10-20 21:47;SPECI CYEG 202147Z 10004KT 3SM BR OVC005 RMK SF8 CIG RAG
CYEG;2002-10-20 22:00;METAR CYEG 202200Z 10005KT 3SM BR BKN005 OVC006 03/02 A3004 RMK SF6SF2 CIG RAG SLP200 SLP200
CYEG;2002-10-20 23:00;METAR CYEG 202300Z 11005KT 5SM BR BKN006 OVC007 03/01 A3005 RMK SF6SF2 CIG RAG SLP204 SLP204
CYEG;2002-10-21 00:00;METAR CYEG 210000Z 10008KT 5SM BR OVC007 03/01 A3006 RMK SF8 CIG RAG SLP207
CYEG;2002-10-21 01:00;METAR CYEG 210100Z 11008KT 4SM BR OVC005 02/00 A3006 RMK SF8 CIG RAG SLP209
CYEG;2002-10-21 02:00;METAR CYEG 210200Z 11008KT 4SM BR OVC005 01/M00 A3009 RMK SF8 SLP219
CYEG;2002-10-21 03:00;METAR CYEG 210300Z 11007KT 4SM BR OVC005 01/M01 A3008 RMK SF8 CIG RAG SLP218
CYEG;2002-10-21 03:46;SPECI CYEG 210346Z 12005KT 1 1/2SM BR OVC004 RMK SF8 CIG RAG
CYEG;2002-10-21 04:00;METAR CYEG 210400Z 13007KT 1 1/2SM BR OVC004 01/M01 A3008 RMK SF8 CIG RAG SLP217
CYEG;2002-10-21 05:00;METAR CYEG 210500Z 14007KT 1 1/2SM BR OVC004 00/M01 A3008 RMK SF8 CIG RAG
CYEG;2002-10-21 05:48;SPECI CYEG 210548Z 14007KT 3SM BR OVC005 RMK SF8 CIG RAG
CYEG;2002-10-21 06:00;METAR CYEG 210600Z 11007KT 3SM BR OVC005 00/M01 A3009 RMK SF8 CIG RAG SLP221
CYEG;2002-10-21 07:00;METAR CYEG 210700Z 13008KT 3SM BR OVC005 00/M02 A3009 RMK SF8 CIG RAG SLP220
CYEG;2002-10-21 08:00;METAR CYEG 210800Z 10007KT 3SM BR OVC005 M00/M02 A3009 RMK SF8 CIG RAG VIS SE 11/2SM SLP222 11/2SM SLP222
CYEG;2002-10-21 08:09;SPECI CYEG 210809Z 10009KT 2 1/2SM BR OVC004 RMK SF8 CIG RAG
CYEG;2002-10-21 08:52;SPECI CYEG 210852Z 10008KT 3SM BR OVC005 RMK SF8 CIG RAG
CYEG;2002-10-21 09:00;METAR CYEG 210900Z 10009KT 3SM BR OVC005 M00/M02 A3009 RMK SF8 CIG RAG SLP222
CYEG;2002-10-21 09:55;SPECI CYEG 210955Z 10008KT 3SM -SN BR OVC007 RMK SF8
CYEG;2002-10-21 10:00;METAR CYEG 211000Z 11008KT 3SM -SN OVC007 M01/M03 A3010 RMK SF8 SLP225
CYEG;2002-10-21 11:00;METAR CYEG 211100Z 09008KT 3SM -SN OVC008 M01/M03 A3011 RMK SF8 SLP227
CYEG;2002-10-21 11:17;SPECI CYEG 211117Z 10008KT 2 1/2SM -SN BKN008 OVC021 RMK SF6SC2
CYEG;2002-10-21 11:43;SPECI CYEG 211143Z 09007KT 1SM -SN BKN008 OVC021 RMK SN2SF6SC1
CYEG;2002-10-21 12:00;METAR CYEG 211200Z 09007KT 1SM -SN BKN008 OVC021 M02/M04 A3012 RMK SN2SF6SC1 SLP234 SLP234
CYEG;2002-10-21 13:00;METAR CYEG 211300Z 06006KT 1SM -SN BKN007 OVC022 M02/M04 A3016 RMK SN2SF6SC1 /S01/ SLP245 /S01/ SLP245
CYEG;2002-10-21 13:39;SPECI CYEG 211339Z 07006KT 3SM -SN SCT006 BKN027 OVC054 RMK SF4SC2SC2
CYEG;2002-10-21 14:00;METAR CYEG 211400Z 08008KT 3SM -SN SCT007 BKN022 OVC053 M02/M04 A3018 RMK SF4SC2SC2 /S02/ SLP251
CYEG;2002-10-21 14:25;SPECI CYEG 211425Z 07007KT 10SM SCT007 BKN028 OVC045 RMK SF3SC2SC2 BR
CYEG;2002-10-21 15:00;METAR CYEG 211500Z 08006KT 12SM FEW007 BKN027 OVC046 M02/M05 A3020 RMK SF2SC4SC2 BR SLP262 BR SLP262
CYEG;2002-10-21 16:00;METAR CYEG 211600Z 09008KT 15SM FEW008 OVC028 M02/M06 A3023 RMK SF1SC7 SLP271
CYEG;2002-10-21 17:00;METAR CYEG 211700Z 09007KT 15SM FEW008 OVC032 M02/M06 A3026 RMK SF1SC8 TR SF SLP280 SLP280
CYEG;2002-10-21 18:00;METAR CYEG 211800Z 09007KT 15SM FEW010 BKN035 M02/M06 A3028 RMK SF1SC7 SLP290
CYEG;2002-10-21 19:00;METAR CYEG 211900Z 10007KT 15SM FEW020 SCT035 M01/M07 A3031 RMK CF1SC2 TR CF SLP298 SLP298
CYEG;2002-10-21 20:00;METAR CYEG 212000Z 12006KT 15SM FEW025 FEW035 FEW250 M01/M07 A3033 RMK CF1SC1CI1 TR CF CI SLP305 TR CF CI SLP305
CYEG;2002-10-21 21:00;METAR CYEG 212100Z 10006KT 15SM FEW030 FEW250 M00/M08 A3035 RMK SC1CI1 CU ASOCTD SLP314 SLP314
CYEG;2002-10-21 22:00;METAR CYEG 212200Z 11006KT 15SM FEW030 FEW250 M01/M09 A3036 RMK SC1CI1 TR CI CU ASOCTD SLP317 ASOCTD SLP317
CYEG;2002-10-21 23:00;METAR CYEG 212300Z 10005KT 15SM FEW030 FEW250 M01/M10 A3039 RMK SC1CI1 TR CI SLP325 SLP325
CYEG;2002-10-22 00:00;METAR CYEG 220000Z 11005KT 15SM FEW030 M02/M08 A3040 RMK SC1 SLP335
CYEG;2002-10-22 01:00;METAR CYEG 220100Z 16005KT 15SM FEW030 M04/M09 A3042 RMK SC1 TR SC SLP342
CYEG;2002-10-22 02:00;METAR CYEG 220200Z 15005KT 15SM SKC M06/M10 A3044 RMK SLP346
CYEG;2002-10-22 03:00;METAR CYEG 220300Z 17004KT 15SM SKC M07/M11 A3045 RMK SLP356
CYEG;2002-10-22 04:00;METAR CYEG 220400Z 15005KT 15SM SKC M07/M12 A3046 RMK SLP358
CYEG;2002-10-22 05:00;METAR CYEG 220500Z 19004KT 15SM SKC M08/M12 A3047 RMK SLP363
CYEG;2002-10-22 06:00;METAR CYEG 220600Z 16004KT 15SM SKC M09/M12 A3047 RMK SLP366
CYEG;2002-10-22 07:00;METAR CYEG 220700Z 15007KT 15SM SKC M06/M10 A3047 RMK SLP366
CYEG;2002-10-22 08:00;METAR CYEG 220800Z 15007KT 15SM SKC M07/M10 A3047 RMK SLP364
CYEG;2002-10-22 09:00;METAR CYEG 220900Z 16006KT 15SM SKC M07/M11 A3047 RMK FROIN SLP361
CYEG;2002-10-22 10:00;METAR CYEG 221000Z 16006KT 15SM SKC M07/M11 A3046 RMK FROIN SLP359
CYEG;2002-10-22 11:00;METAR CYEG 221100Z 16005KT 15SM SKC M08/M11 A3046 RMK FROIN SLP357
CYEG;2002-10-22 12:00;METAR CYEG 221200Z 15009KT 15SM SKC M07/M10 A3045 RMK SLP354
CYEG;2002-10-22 13:00;METAR CYEG 221300Z 16009KT 15SM SKC M07/M11 A3044 RMK SLP352
CYEG;2002-10-22 14:00;METAR CYEG 221400Z 16009KT 15SM SKC M08/M11 A3043 RMK SLP348
CYEG;2002-10-22 15:00;METAR CYEG 221500Z 15008KT 15SM SKC M08/M11 A3043 RMK SLP353
CYEG;2002-10-22 16:00;METAR CYEG 221600Z 16007KT 15SM SKC M06/M09 A3043 RMK SLP353
CYEG;2002-10-22 17:00;METAR CYEG 221700Z 16009KT 15SM FEW020 M04/M08 A3043 RMK SC1 TR SC SLP354
CYEG;2002-10-22 18:00;METAR CYEG 221800Z 16010G16KT 15SM FEW020 M02/M07 A3042 RMK SC1 SLP348
CYEG;2002-10-22 19:00;METAR CYEG 221900Z 18014KT 15SM FEW020 M00/M06 A3041 RMK SC1 SLP346
CYEG;2002-10-22 20:00;METAR CYEG 222000Z 16014KT 15SM FEW020 01/M06 A3040 RMK SC1 SLP342
CYEG;2002-10-22 21:00;METAR CYEG 222100Z 18014KT 15SM FEW025 01/M06 A3038 RMK SC1 SLP330
CYEG;2002-10-22 22:00;METAR CYEG 222200Z 18013KT 15SM FEW025 01/M06 A3037 RMK SC1 SLP327
CYEG;2002-10-22 23:00;METAR CYEG 222300Z 18011KT 15SM FEW025 01/M06 A3036 RMK SC1 SLP323
CYEG;2002-10-23 00:00;METAR CYEG 230000Z 16008KT 15SM FEW025 M01/M06 A3036 RMK SC1 SLP322
CYEG;2002-10-23 01:00;METAR CYEG 230100Z 16007KT 15SM FEW025 M02/M07 A3034 RMK SC1 SLP318
CYEG;2002-10-23 02:00;METAR CYEG 230200Z 15008KT 15SM FEW025 M03/M07 A3034 RMK SC1 SLP316
CYEG;2002-10-23 03:00;METAR CYEG 230300Z 17008KT 15SM SKC M02/M07 A3033 RMK SLP315
CYEG;2002-10-23 04:00;METAR CYEG 230400Z 16010KT 15SM SKC M03/M07 A3032 RMK SLP311
CYEG;2002-10-23 05:00;METAR CYEG 230500Z 15009KT 15SM SKC M04/M08 A3031 RMK SLP308
CYEG;2002-10-23 06:00;METAR CYEG 230600Z 15009KT 15SM SKC M04/M08 A3029 RMK SLP298
CYEG;2002-10-23 07:00;METAR CYEG 230700Z 16010KT 15SM SKC M04/M08 A3028 RMK SLP295
CYEG;2002-10-23 08:00;METAR CYEG 230800Z 16007KT 15SM SKC M05/M08 A3028 RMK SLP296
CYEG;2002-10-23 09:00;METAR CYEG 230900Z 16006KT 15SM SKC M07/M09 A3027 RMK SLP290
CYEG;2002-10-23 10:00;METAR CYEG 231000Z 16006KT 15SM SKC M06/M10 A3025 RMK SLP285
CYEG;2002-10-23 11:00;METAR CYEG 231100Z 15007KT 15SM SKC M08/M11 A3023 RMK FROIN SLP278
CYEG;2002-10-23 12:00;METAR CYEG 231200Z 16006KT 15SM SKC M08/M11 A3022 RMK FROIN SLP277
CYEG;2002-10-23 12:55;SPECI CYEG 231255Z 18005KT 15SM SCT009 RMK SF2
CYEG;2002-10-23 13:00;METAR CYEG 231300Z 18004KT 15SM BKN009 M10/M12 A3021 RMK SF5 FROIN SLP273
CYEG;2002-10-23 14:00;METAR CYEG 231400Z 17006KT 8SM OVC006 M06/M09 A3020 RMK ST8 BR FROIN SLP270
CYEG;2002-10-23 15:00;METAR CYEG 231500Z 19004KT 4SM BR OVC006 M05/M07 A3019 RMK ST8 FROIN SLP264
CYEG;2002-10-23 16:00;METAR CYEG 231600Z 22005KT 3SM -SG BR OVC005 M04/M06 A3018 RMK ST8 FROIN SLP260
CYEG;2002-10-23 16:56;SPECI CYEG 231656Z 20006KT 1 1/2SM -SG BR OVC007 RMK ST8
CYEG;2002-10-23 17:00;METAR CYEG 231700Z 20005KT 1 1/2SM -SG BR OVC006 M04/M06 A3017 RMK ST8 VIS E QUAD 3/4 SM FROIN SLP258
CYEG;2002-10-23 17:06;SPECI CYEG 231706Z 21005KT 3SM -SG BR OVC005 RMK ST8 VIS NE QUAD 1 SM 3/4 SM FROIN SLP258
CYEG;2002-10-23 18:00;METAR CYEG 231800Z 18006KT 4SM -SG BR OVC006 M04/M06 A3016 RMK ST8 SLP256
CYEG;2002-10-23 19:00;METAR CYEG 231900Z 21004KT 5SM -SG BR OVC007 M04/M06 A3016 RMK ST8 SLP254
CYEG;2002-10-23 19:33;SPECI CYEG 231933Z 19006KT 5SM HZ OVC007 RMK ST8
CYEG;2002-10-23 20:00;METAR CYEG 232000Z 21005KT 6SM HZ OVC007 M03/M06 A3013 RMK ST8 SLP245
CYEG;2002-10-23 21:00;METAR CYEG 232100Z 17004KT 10SM SCT007 OVC009 M02/M05 A3012 RMK SF2SC5 HZ SLP242
CYEG;2002-10-23 21:10;SPECI CYEG 232110Z 20006KT 10SM FEW007 BKN009 RMK SF1SC3 HZ
CYEG;2002-10-23 22:00;METAR CYEG 232200Z 18009KT 12SM FEW009 BKN250 M00/M04 A3009 RMK SC1CI1 HZ SLP232
CYEG;2002-10-23 23:00;METAR CYEG 232300Z 19006KT 15SM SCT250 01/M04 A3007 RMK CI1 SLP227
CYEG;2002-10-24 00:00;METAR CYEG 240000Z 18005KT 15SM SCT250 M01/M04 A3005 RMK CI2 SLP217
CYEG;2002-10-24 01:00;METAR CYEG 240100Z 17002KT 15SM SCT250 M05/M07 A3005 RMK CI2 SLP216
CYEG;2002-10-24 02:00;METAR CYEG 240200Z 18008KT 15SM BKN250 M02/M05 A3002 RMK CI2 SLP208
CYEG;2002-10-24 03:00;METAR CYEG 240300Z 20005KT 15SM BKN250 M04/M07 A3002 RMK CI2 SLP206
CYEG;2002-10-24 04:00;METAR CYEG 240400Z 20002KT 15SM BKN250 M06/M09 A3002 RMK CI2 FROIN CONTRAILS SLP206 SLP206
CYEG;2002-10-24 05:00;METAR CYEG 240500Z 19006KT 15SM BKN250 M06/M08 A2999 RMK CI2 FROIN CONTRAILS SLP199 SLP199
CYEG;2002-10-24 06:00;METAR CYEG 240600Z 20004KT 15SM BKN250 M07/M09 A2999 RMK CI2 FROIN AURBO
CYEG;2002-10-24 07:00;METAR CYEG 240700Z 00000KT 15SM BKN250 M08/M11 A2998 RMK CI1 FROIN AURBO SLP197
CYEG;2002-10-24 08:00;METAR CYEG 240800Z 22002KT 15SM BKN250 M08/M11 A2998 RMK CI1 FROIN SLP195
CYEG;2002-10-24 09:00;METAR CYEG 240900Z 00000KT 15SM BKN250 M09/M11 A2997 RMK CI2 FROIN SLP193
CYEG;2002-10-24 10:00;METAR CYEG 241000Z 22003KT 12SM FEW190 SCT250 M09/M11 A2996 RMK AS1CI1 VSBY N 4 BR FROIN AURBO SLP190 BR FROIN AURBO SLP190
CYEG;2002-10-24 11:00;METAR CYEG 241100Z 23002KT 10SM BKN250 M08/M10 A2996 RMK CI2 VIS N 4 BR FROIN SLP188 SLP188
CYEG;2002-10-24 12:00;METAR CYEG 241200Z 23002KT 10SM FEW190 BKN250 M08/M11 A2996 RMK AC1CI1 VIS N 5 BR FROIN SLP187 FROIN SLP187
CYEG;2002-10-24 13:00;METAR CYEG 241300Z 23002KT 12SM SCT210 BKN250 M07/M09 A2996 RMK CI2CI2 FROIN SLP185 SLP185
CYEG;2002-10-24 14:00;METAR CYEG 241400Z 26003KT 10SM SCT210 BKN250 M06/M08 A2995 RMK CI2CI2 FROIN SLP184 SLP184
CYEG;2002-10-24 15:00;METAR CYEG 241500Z 00000KT 10SM BKN210 BKN250 M06/M08 A2996 RMK CI2CI2 FROIN SLP186 SLP186
CYEG;2002-10-24 16:00;METAR CYEG 241600Z 29003KT 15SM BKN210 M02/M03 A2996 RMK CI4 FROIN SLP188
CYEG;2002-10-24 17:00;METAR CYEG 241700Z 31005KT 15SM FEW150 BKN210 01/M01 A2996 RMK AC1CI2
CYEG;2002-10-24 18:00;METAR CYEG 241800Z 34008KT 15SM FEW015 FEW150 BKN210 03/M01 A2996 RMK CU1AC1CI2 TR CU SLP182 TR CU SLP182
CYEG;2002-10-24 19:00;METAR CYEG 241900Z 35007KT 15SM FEW015 BKN038 BKN210 03/M01 A2995 RMK CU2SC3CI1 SLP180 SLP180
CYEG;2002-10-24 20:00;METAR CYEG 242000Z 30005KT 15SM SCT042 BKN210 04/00 A2994 RMK SC2CI1 SLP175
CYEG;2002-10-24 21:00;METAR CYEG 242100Z 35005KT 15SM FEW020 FEW080 SCT210 BKN250 06/00 A2994 RMK CU1AC1CI1CI2 SLP173
CYEG;2002-10-24 22:00;METAR CYEG 242200Z 35008KT 15SM FEW025 FEW080 SCT220 BKN250 05/00 A2994 RMK CF1AC1CI3CI3 SLP174
CYEG;2002-10-24 23:00;METAR CYEG 242300Z 35005KT 15SM FEW080 BKN180 BKN220 05/00 A2994 RMK AC1AC3CI2 SLP173 SLP173
CYEG;2002-10-25 00:00;METAR CYEG 250000Z 36003KT 15SM FEW080 SCT160 BKN220 03/M01 A2994 RMK AC1AC2CI2 SLP176 SLP176
CYEG;2002-10-25 01:00;METAR CYEG 250100Z 35002KT 15SM FEW080 FEW160 BKN220 M00/M02 A2994 RMK AC1AC1CI2 SLP176
CYEG;2002-10-25 02:00;METAR CYEG 250200Z 22002KT 15SM FEW080 FEW160 BKN220 M03/M04 A2995 RMK AC1AC1CI1 AURBO SLP179 AURBO SLP179
CYEG;2002-10-25 03:00;METAR CYEG 250300Z 22003KT 15SM FEW080 SCT160 BKN220 M04/M06 A2996 RMK AC2AC1CI2 SLP186 SLP186
CYEG;2002-10-25 04:00;METAR CYEG 250400Z 22004KT 15SM BKN063 BKN250 M03/M05 A2996 RMK SC5CI1 FROIN SLP186
CYEG;2002-10-25 05:00;METAR CYEG 250500Z 23005KT 15SM BKN058 BKN220 M03/M05 A2996 RMK SC2CI1 FROIN SLP188 SLP188
CYEG;2002-10-25 06:00;METAR CYEG 250600Z 29005KT 15SM FEW025 BKN058 BKN220 M01/M03 A2997 RMK SC1SC5CI1 SLP182 SLP182
CYEG;2002-10-25 07:00;METAR CYEG 250700Z 31005KT 15SM FEW025 BKN056 M01/M03 A2999 RMK SC1SC6
CYEG;2002-10-25 08:00;METAR CYEG 250800Z 32003KT 15SM FEW025 BKN056 OVC070 M01/M03 A2999 RMK SC1SC6AC1 SLP188
CYEG;2002-10-25 09:00;METAR CYEG 250900Z 32004KT 15SM FEW025 OVC053 00/M02 A3000 RMK SC1SC8 TR LWR SC SLP187 SLP187
CYEG;2002-10-25 10:00;METAR CYEG 251000Z 32003KT 15SM FEW025 OVC050 M00/M02 A3001 RMK SC1SC7 SLP189
CYEG;2002-10-25 11:00;METAR CYEG 251100Z 31002KT 15SM FEW011 OVC051 M00/M02 A3001 RMK ST2SC6 ST N-NE-E SLP191 SLP191
CYEG;2002-10-25 13:00;METAR CYEG 251300Z 31002KT 15SM SCT008 BKN031 OVC047 M01/M02 A3002 RMK ST3SC3SC2 SLP198 SLP198
CYEG;2002-10-25 14:00;METAR CYEG 251400Z 33002KT 15SM BKN008 OVC031 M01/M02 A3002 RMK SF6SC2 SLP199
CYEG;2002-10-25 15:00;METAR CYEG 251500Z 03002KT 15SM -SN FEW010 BKN033 OVC043 M01/M02 A3003 RMK SF1SC3SC4 SLP206 SF1SC6SC2 SLP208
CYEG;2002-10-25 17:00;METAR CYEG 251700Z 00000KT 15SM -SN FEW008 BKN012 OVC035 00/M02 A3004 RMK SF2SC6SC1 SLP210
CYEG;2002-10-25 18:00;METAR CYEG 251800Z 01003KT 15SM -SN SCT008 BKN012 OVC035 00/M02 A3004 RMK SF2SC5SC1 SLP208
CYEG;2002-10-25 19:00;METAR CYEG 251900Z 35004KT 15SM FEW008 SCT012 OVC026 01/M03 A3005 RMK SF1SC3SC5 SLP209 SLP209
CYEG;2002-10-25 20:00;METAR CYEG 252000Z 36007KT 15SM FEW008 SCT012 OVC027 01/M04 A3005 RMK SF2SC2SC5 SLP209
CYEG;2002-10-25 21:00;METAR CYEG 252100Z 04008KT 4SM -SHSN FEW006 BKN012 OVC021 M01/M03 A3006 RMK SF2SC4SC2 VIS LWR S QUAD SLP213
CYEG;2002-10-25 22:00;METAR CYEG 252200Z 04008KT 5SM -SG SCT008 BKN013 OVC018 M00/M04 A3006 RMK SF3SC4SC1 SLP214
CYEG;2002-10-25 23:00;METAR CYEG 252300Z 05005KT 12SM -SN BKN011 OVC030 M01/M04 A3007 RMK SC3SC5 SLP217
CYEG;2002-10-26 00:00;METAR CYEG 260000Z 01006KT 6SM -SN FEW011 OVC037 M01/M05 A3009 RMK SF2SC6 SLP226
CYEG;2002-10-26 01:00;METAR CYEG 260100Z 33004KT 10SM -SN FEW011 BKN040 OVC060 M02/M05 A3011 RMK SF1SC6SC1 SLP231
CYEG;2002-10-26 02:00;METAR CYEG 260200Z 33006KT 15SM -SN FEW015 OVC049 M02/M05 A3011 RMK SF1SC7 SLP233
CYEG;2002-10-26 03:00;METAR CYEG 260300Z 32005KT 15SM -SN FEW012 OVC049 M02/M05 A3013 RMK SF2SC6 SLP238
CYEG;2002-10-26 04:00;METAR CYEG 260400Z 34005KT 15SM FEW020 SCT050 M03/M06 A3014 RMK SC2SC2 SLP241
CYEG;2002-10-26 05:00;METAR CYEG 260500Z 32003KT 15SM FEW025 SCT058 M05/M07 A3015 RMK SC1SC2 SLP244
CYEG;2002-10-26 06:00;METAR CYEG 260600Z 32004KT 15SM BKN059 M04/M07 A3015 RMK SC7 SLP249
CYEG;2002-10-26 07:00;METAR CYEG 260700Z 34002KT 15SM -SN BKN059 M04/M06 A3015 RMK SC7 SLP249
CYEG;2002-10-26 08:00;METAR CYEG 260800Z 00000KT 15SM -SN OVC057 M04/M06 A3015 RMK SC8 SLP249
CYEG;2002-10-26 09:00;METAR CYEG 260900Z 00000KT 15SM -SN FEW015 OVC055 M04/M06 A3015 RMK SF1SC7 SLP250
CYEG;2002-10-26 10:00;METAR CYEG 261000Z 00000KT 15SM -SN SCT009 OVC054 M04/M06 A3016 RMK SF3SC5 SLP251
CYEG;2002-10-26 11:00;METAR CYEG 261100Z 00000KT 15SM -SN FEW009 OVC054 M05/M07 A3016 RMK SF2SC5
CYEG;2002-10-26 12:00;METAR CYEG 261200Z 34003KT 12SM -SN BKN008 BKN016 OVC054 M03/M05 A3016 RMK SF6SC1SC1 SLP253
CYEG;2002-10-26 13:00;METAR CYEG 261300Z 36002KT 15SM -SN FEW008 BKN017 OVC054 M03/M05 A3016 RMK SF2SC5SC2 SLP253
CYEG;2002-10-26 14:00;METAR CYEG 261400Z 04003KT 12SM -SN FEW008 SCT018 BKN058 M04/M06 A3016 RMK SF1SC3SC4 FROIN TR SF SLP253
CYEG;2002-10-26 15:00;METAR CYEG 261500Z 07004KT 10SM -SN FEW020 BKN058 M03/M06 A3017 RMK SC2SC6 SLP256
CYEG;2002-10-26 16:00;METAR CYEG 261600Z 09005KT 8SM -SN FEW020 BKN059 M03/M06 A3017 RMK SC2SC6 BR SLP256
CYEG;2002-10-26 17:00;METAR CYEG 261700Z 12004KT 8SM -SN FEW020 BKN057 M02/M06 A3017 RMK SC2SC6
CYEG;2002-10-26 18:00;METAR CYEG 261800Z 17002KT 8SM -SN SCT011 BKN059 M02/M06 A3016 RMK SC3SC4 BR SLP255 SLP255
CYEG;2002-10-26 19:00;METAR CYEG 261900Z 00000KT 8SM -SN BKN016 BKN057 M01/M06 A3016 RMK SC5SC2 BR SLP254 SLP254
CYEG;2002-10-26 20:00;METAR CYEG 262000Z 19004KT 12SM -SN BKN020 BKN057 M01/M07 A3015 RMK SC6SC1
CYEG;2002-10-26 21:00;METAR CYEG 262100Z 00000KT 12SM -SN SCT020 BKN054 M00/M06 A3013 RMK SC4SC2 SLP242
CYEG;2002-10-26 22:00;METAR CYEG 262200Z 09003KT 12SM -SN FEW015 BKN030 OVC055 M01/M07 A3012 RMK SF1SC4SC3 SLP239
CYEG;2002-10-26 23:00;METAR CYEG 262300Z 13005KT 12SM -SN FEW020 BKN048 M01/M08 A3012 RMK SC2SC6 SLP239
CYEG;2002-10-27 01:00;METAR CYEG 270100Z 15005KT 15SM -SN SCT030 OVC048 M01/M07 A3011 RMK SC3SC5 SLP233
CYEG;2002-10-27 02:00;METAR CYEG 270200Z 14006KT 15SM -SN FEW030 OVC046 M02/M06 A3010 RMK SC1SC7 SLP230
CYEG;2002-10-27 03:00;METAR CYEG 270300Z 14006KT 15SM -SN SCT028 OVC045 M02/M06 A3008 RMK SC3SC5 SLP224
CYEG;2002-10-27 03:23;SPECI CYEG 270323Z 14008KT 15SM OVC045 RMK SC8
CYEG;2002-10-27 04:00;METAR CYEG 270400Z 15006KT 15SM OVC040 M02/M06 A3006 RMK SC8 SLP219
CYEG;2002-10-27 05:00;METAR CYEG 270500Z 15008KT 15SM OVC044 M02/M06 A3006 RMK SC8 SLP217
CYEG;2002-10-27 06:00;METAR CYEG 270600Z 16007KT 15SM OVC043 M02/M06 A3005 RMK SC8 SLP212
CYEG;2002-10-27 07:00;METAR CYEG 270700Z 15009KT 15SM OVC043 M02/M06 A3003 RMK SC8 SLP206
CYEG;2002-10-27 08:00;METAR CYEG 270800Z 15009KT 15SM OVC042 M02/M06 A3001 RMK SC7 SLP198
CYEG;2002-10-27 09:00;METAR CYEG 270900Z 15007KT 15SM BKN040 M03/M06 A2999 RMK SC7 SLP191
CYEG;2002-10-27 10:00;METAR CYEG 271000Z 15005KT 15SM BKN038 M03/M06 A2997 RMK SC6 SLP186
CYEG;2002-10-27 11:00;METAR CYEG 271100Z 16006KT 15SM BKN036 M03/M06 A2996 RMK SC7 SLP182
CYEG;2002-10-27 12:00;METAR CYEG 271200Z 13007KT 15SM BKN031 M03/M05 A2995 RMK SC7 SLP177
CYEG;2002-10-27 13:00;METAR CYEG 271300Z 14005KT 15SM OVC026 M02/M05 A2993 RMK SC8 SLP171
CYEG;2002-10-27 14:00;METAR CYEG 271400Z 13007KT 10SM OVC023 M02/M05 A2991 RMK SC8 BR SLP166
CYEG;2002-10-27 15:00;METAR CYEG 271500Z 13008KT 10SM OVC021 M02/M05 A2991 RMK SC7 BR SLP164
CYEG;2002-10-27 16:00;METAR CYEG 271600Z 13009KT 12SM OVC023 M01/M05 A2989 RMK SC8 BR SLP160
CYEG;2002-10-27 17:00;METAR CYEG 271700Z 13010KT 12SM OVC023 M01/M05 A2989 RMK SC8 HZ SLP157
CYEG;2002-10-27 18:00;METAR CYEG 271800Z 13010KT 12SM FEW014 OVC023 M01/M05 A2989 RMK CF1SC7 HZ SLP155
CYEG;2002-10-27 19:00;METAR CYEG 271900Z 13007KT 15SM OVC019 M00/M05 A2988 RMK SC8 SLP154
CYEG;2002-10-27 20:00;METAR CYEG 272000Z 12008KT 15SM OVC018 M00/M05 A2986 RMK SC8 SLP147
CYEG;2002-10-27 21:00;METAR CYEG 272100Z 12006KT 15SM OVC019 M00/M05 A2986 RMK SC8 SLP146
CYEG;2002-10-27 22:00;METAR CYEG 272200Z 13006KT 15SM OVC018 M00/M05 A2987 RMK SC8 SLP149
CYEG;2002-10-27 23:00;METAR CYEG 272300Z 10006KT 15SM OVC018 M00/M05 A2988 RMK SC8 SLP151
CYEG;2002-10-28 00:00;METAR CYEG 280000Z 10007KT 12SM FEW012 OVC016 M01/M04 A2989 RMK SF2SC6 VIRGA HZ SLP156 SLP156
CYEG;2002-10-28 01:00;METAR CYEG 280100Z 09009KT 12SM OVC010 M02/M05 A2990 RMK ST8 VIRGA HZ SLP161
CYEG;2002-10-28 02:00;METAR CYEG 280200Z 10009KT 15SM -SN OVC014 M02/M05 A2991 RMK SC8 SLP164
CYEG;2002-10-28 03:00;METAR CYEG 280300Z 10010KT 10SM -SN OVC012 M02/M05 A2992 RMK SC8 SLP168
CYEG;2002-10-28 04:00;METAR CYEG 280400Z 10009KT 4SM -SN FEW009 OVC013 M03/M05 A2994 RMK SF2SC6 SLP175
CYEG;2002-10-28 05:00;METAR CYEG 280500Z 09009KT 4SM -SN FEW008 BKN012 OVC020 M03/M06 A2996 RMK SF2SC4SC2 SLP180
CYEG;2002-10-28 06:00;METAR CYEG 280600Z CCA 09010KT 4SM -SN FEW009 FEW012 OVC024 M03/M06 A2998 RMK SF1SC2SC6 /S01/ SLP188
CYEG;2002-10-28 07:00;METAR CYEG 280700Z 07006KT 3SM -SN SCT008 OVC016 M04/M06 A3000 RMK SF4SC4 SLP194
CYEG;2002-10-28 08:00;METAR CYEG 280800Z 07009KT 2 1/4SM -SN OVC011 M04/M07 A3002 RMK SN2SC6 SLP201
CYEG;2002-10-28 09:00;METAR CYEG 280900Z 07008KT 3SM -SN BKN015 OVC032 M05/M07 A3005 RMK SN2SC5SC2 /S01/ SLP213 /S01/ SLP213
CYEG;2002-10-28 10:00;METAR CYEG 281000Z 07010KT 5SM -SN OVC034 M05/M08 A3007 RMK SC8 /S02/ SLP221
CYEG;2002-10-28 11:00;METAR CYEG 281100Z 04005KT 4SM -SN OVC041 M05/M08 A3011 RMK SC8 SLP232
CYEG;2002-10-28 12:00;METAR CYEG 281200Z 05005KT 6SM -SN OVC049 M05/M08 A3014 RMK SC8 SLP246
CYEG;2002-10-28 13:00;METAR CYEG 281300Z 04004KT 15SM -SN OVC060 M06/M09 A3018 RMK SC8 SLP258
CYEG;2002-10-28 14:00;METAR CYEG 281400Z 04004KT 15SM OVC063 M06/M09 A3020 RMK SC8 SLP266
CYEG;2002-10-28 15:00;METAR CYEG 281500Z 04004KT 15SM BKN063 M06/M09 A3024 RMK SC7 SLP282
CYEG;2002-10-28 16:00;METAR CYEG 281600Z 05007KT 10SM BKN058 M06/M09 A3026 RMK SC7 HZ SLP290
CYEG;2002-10-28 17:00;METAR CYEG 281700Z 09006KT 12SM SCT009 OVC060 M06/M09 A3028 RMK SF2SC5 HZ SLP297
CYEG;2002-10-28 18:00;METAR CYEG 281800Z 05006KT 12SM -SN FEW012 BKN018 OVC060 M05/M09 A3032 RMK SF2SC5SC2 SLP310
CYEG;2002-10-28 19:00;METAR CYEG 281900Z 09007KT 8SM -SN BKN017 OVC065 M05/M10 A3034 RMK SC6SC2 SLP318
CYEG;2002-10-28 20:00;METAR CYEG 282000Z 08006KT 15SM FEW020 BKN066 M05/M11 A3036 RMK SC2AC5 CU ASOCTD SLP324 SLP324
CYEG;2002-10-28 21:00;METAR CYEG 282100Z 02004KT 6SM -SHSN SCT020 BKN045 OVC067 M05/M09 A3038 RMK SC3SC2AC2 VSBY W QUAD 11/2 SLP333
CYEG;2002-10-28 22:00;METAR CYEG 282200Z 07003KT 15SM FEW020 FEW045 BKN066 M05/M10 A3040 RMK SC1SC1AC6 SLP340 SLP340
CYEG;2002-10-28 23:00;METAR CYEG 282300Z 02002KT 15SM FEW020 BKN063 M05/M10 A3042 RMK SC1SC6 SLP347
CYEG;2002-10-29 00:00;METAR CYEG 290000Z 00000KT 15SM FEW020 BKN058 M06/M10 A3045 RMK SC1SC6 VIRGA N SLP359 SLP359
CYEG;2002-10-29 01:00;METAR CYEG 290100Z 07005KT 2SM -SHSN BKN025 OVC055 M06/M09 A3048 RMK SN2SC3SC2 SLP368
CYEG;2002-10-29 01:08;SPECI CYEG 290108Z 07005KT 1SM R30/5500FT R12/5000FT -SHSN VV010 RMK SN8 SLP368
CYEG;2002-10-29 01:21;SPECI CYEG 290121Z 05005KT 1 1/2SM -SHSN BKN007 OVC020 RMK SN5SF2SC2
CYEG;2002-10-29 01:37;SPECI CYEG 290137Z 04002KT 4SM -SHSN FEW007 BKN020 OVC039 RMK SF2SC3SC2
CYEG;2002-10-29 02:00;METAR CYEG 290200Z 03003KT 5SM -SN FEW006 SCT020 OVC040 M07/M09 A3051 RMK SF2SC2SC4 /S01/ SLP378 VRB 1-3 CVCTV CLD EMBD RMK SF2SC5SC2 CVCTV CLD EMBD /S02/ SLP392
CYEG;2002-10-29 04:00;METAR CYEG 290400Z 06007KT 3SM -SHSN FEW008 SCT018 BKN032 OVC051 M08/M11 A3057 RMK SF1SC2SC4SC1 CVCTV CLD EMBD SLP401 RMK SF1SC2SC4SC1 CVCTV CLD EMBD SLP401
CYEG;2002-10-29 05:00;METAR CYEG 290500Z 08007KT 6SM -SN FEW008 BKN022 BKN032 OVC052 M08/M12 A3059 RMK SF1SC6SC1SC1 SLP406 SF1SC6SC1SC1 SLP406
CYEG;2002-10-29 05:34;SPECI CYEG 290534Z 08006KT 15SM SCT018 BKN050 RMK SC2SC4
CYEG;2002-10-29 06:00;METAR CYEG 290600Z 08005KT 15SM FEW018 BKN050 M10/M15 A3060 RMK SC2SC5 SLP415
CYEG;2002-10-29 07:00;METAR CYEG 290700Z 04002KT 15SM BKN050 M12/M16 A3063 RMK SC4 SLP422
CYEG;2002-10-29 08:00;METAR CYEG 290800Z 04003KT 15SM FEW050 M16/M19 A3063 RMK SC1 FROIN SLP424
CYEG;2002-10-29 09:00;METAR CYEG 290900Z 02002KT 15SM FEW050 M18/M21 A3064 RMK SC1 FROIN SLP435
CYEG;2002-10-29 10:00;METAR CYEG 291000Z 00000KT 15SM SKC M20/M22 A3064 RMK FROIN SLP436
CYEG;2002-10-29 11:00;METAR CYEG 291100Z 25002KT 15SM SKC M20/M24 A3064 RMK SLP435
CYEG;2002-10-29 12:00;METAR CYEG 291200Z 00000KT 8SM R12/2400FT R30/6000FT VCFG FEW002 M20/M24 A3065 RMK ST2 VIS N-NE-E 1/2-1 SNW RMVL SLP440 RMK ST2 VIS N-NE-E 1/2-1 SNW RMVL SLP440
CYEG;2002-10-29 13:00;METAR CYEG 291300Z 23002KT 12SM SCT004 M21/M25 A3065 RMK ST1 THN ST LYR NE-E-SE FROIN SLP441 FROIN SLP441
CYEG;2002-10-29 14:00;METAR CYEG 291400Z 20002KT 15SM FEW022 M20/M24 A3065 RMK SC1 TR SC SE SLP440
CYEG;2002-10-29 15:00;METAR CYEG 291500Z 00000KT 15SM FEW022 M20/M24 A3066 RMK SC1 SLP447
CYEG;2002-10-29 16:00;METAR CYEG 291600Z 00000KT 10SM FEW022 FEW250 M16/M19 A3066 RMK SC1CI1 HZ SLP448
CYEG;2002-10-29 17:00;METAR CYEG 291700Z 24002KT 10SM FEW022 FEW250 M13/M15 A3065 RMK SC0CI1 HZ SLP445
CYEG;2002-10-29 18:00;METAR CYEG 291800Z 00000KT 10SM FEW022 M11/M12 A3064 RMK SC0 HZ SLP434
CYEG;2002-10-29 19:00;METAR CYEG 291900Z 31003KT 12SM FEW022 M09/M12 A3063 RMK SC1 HZ SLP430
CYEG;2002-10-29 20:00;METAR CYEG 292000Z 30002KT 15SM FEW022 M08/M12 A3061 RMK SC1 SLP425
CYEG;2002-10-29 21:00;METAR CYEG 292100Z 36002KT 15SM FEW022 M07/M12 A3059 RMK SC1 SLP421
CYEG;2002-10-29 22:00;METAR CYEG 292200Z 00000KT 15SM FEW022 M06/M12 A3057 RMK SC1 SLP415
CYEG;2002-10-29 23:00;METAR CYEG 292300Z 18002KT 15SM SKC M07/M12 A3055 RMK SLP409
CYEG;2002-10-30 00:00;METAR CYEG 300000Z 00000KT 15SM SKC M08/M12 A3053 RMK SLP404
CYEG;2002-10-30 01:00;METAR CYEG 300100Z 17002KT 15SM SKC M14/M17 A3053 RMK SLP401
CYEG;2002-10-30 02:00;METAR CYEG 300200Z 17004KT 15SM SKC M16/M18 A3051 RMK FROIN SLP397
CYEG;2002-10-30 03:00;METAR CYEG 300300Z 17006KT 15SM SKC M14/M16 A3050 RMK FROIN SLP399
CYEG;2002-10-30 04:00;METAR CYEG 300400Z 17006KT 15SM SKC M13/M16 A3048 RMK SLP393
CYEG;2002-10-30 05:00;METAR CYEG 300500Z 18005KT 15SM SKC M15/M17 A3047 RMK SLP389
CYEG;2002-10-30 06:00;METAR CYEG 300600Z 18006KT 15SM SKC M14/M17 A3045 RMK SLP371
CYEG;2002-10-30 07:00;METAR CYEG 300700Z 18008KT 15SM SKC M14/M17 A3044 RMK FROIN SLP367
CYEG;2002-10-30 08:00;METAR CYEG 300800Z 18005KT 15SM SKC M15/M18 A3043 RMK FROIN AURBO SLP365
CYEG;2002-10-30 09:00;METAR CYEG 300900Z 17006KT 15SM SKC M14/M17 A3042 RMK SLP358
CYEG;2002-10-30 10:00;METAR CYEG 301000Z 17007KT 15SM SKC M16/M18 A3041 RMK FROIN SLP354
CYEG;2002-10-30 11:00;METAR CYEG 301100Z 18006KT 15SM SKC M15/M18 A3039 RMK FROIN SLP347
CYEG;2002-10-30 12:00;METAR CYEG 301200Z 17007KT 15SM SKC M15/M17 A3037 RMK FROIN SLP341
CYEG;2002-10-30 13:00;METAR CYEG 301300Z 16006KT 15SM SKC M15/M18 A3036 RMK FROIN SLP339
CYEG;2002-10-30 14:00;METAR CYEG 301400Z 16005KT 15SM SKC M17/M19 A3036 RMK FROIN SLP338
CYEG;2002-10-30 15:00;METAR CYEG 301500Z 17007KT 10SM FEW030 M15/M18 A3035 RMK SC1 HZ SLP341
CYEG;2002-10-30 16:00;METAR CYEG 301600Z 17007KT 10SM FEW250 M14/M17 A3034 RMK CI1 HZ SLP339
CYEG;2002-10-30 17:00;METAR CYEG 301700Z 18008KT 15SM FEW250 M10/M14 A3034 RMK CI0 SLP336
CYEG;2002-10-30 18:00;METAR CYEG 301800Z 17008KT 15SM FEW250 M08/M12 A3034 RMK CI0 SLP329
CYEG;2002-10-30 19:00;METAR CYEG 301900Z 18010KT 15SM FEW250 M06/M11 A3031 RMK CI0 SLP320
CYEG;2002-10-30 20:00;METAR CYEG 302000Z 17008KT 15SM FEW240 M04/M10 A3029 RMK CI1 SLP316
CYEG;2002-10-30 21:00;METAR CYEG 302100Z 18009KT 15SM BKN240 M03/M11 A3028 RMK CI1 SLP307
CYEG;2002-10-30 22:00;METAR CYEG 302200Z 16007KT 15SM SCT240 M03/M11 A3029 RMK CI1 SLP309
CYEG;2002-10-30 23:00;METAR CYEG 302300Z 16007KT 15SM SCT240 M03/M11 A3027 RMK CI1 SLP301
CYEG;2002-10-31 00:00;METAR CYEG 310000Z 18008KT 15SM BKN240 M05/M12 A3026 RMK CI2 SLP301
CYEG;2002-10-31 01:00;METAR CYEG 310100Z 17007KT 15SM BKN220 M07/M12 A3026 RMK CI2 SLP301
CYEG;2002-10-31 02:00;METAR CYEG 310200Z 17009KT 15SM FEW160 BKN220 M07/M12 A3025 RMK AC2CI2 SLP297
CYEG;2002-10-31 03:00;METAR CYEG 310300Z 18009KT 15SM SCT160 BKN220 M08/M13 A3024 RMK AC2CI2
CYEG;2002-10-31 04:00;METAR CYEG 310400Z 18006KT 15SM FEW160 SCT240 M11/M14 A3024 RMK AC2CI1 SLP298
CYEG;2002-10-31 05:00;METAR CYEG 310500Z 17005KT 15SM FEW240 M10/M14 A3023 RMK CI0 SLP294
CYEG;2002-10-31 06:00;METAR CYEG 310600Z 17006KT 15SM FEW120 SCT240 M10/M14 A3022 RMK AC2CI0 SLP286
CYEG;2002-10-31 07:00;METAR CYEG 310700Z 15005KT 15SM BKN170 BKN240 M10/M14 A3022 RMK AC4CI0 SLP285
CYEG;2002-10-31 08:00;METAR CYEG 310800Z 17005KT 15SM BKN160 BKN240 M10/M14 A3022 RMK AC5CI1 SLP284
CYEG;2002-10-31 09:00;METAR CYEG 310900Z 15007KT 15SM BKN140 BKN210 M09/M13 A3021 RMK AC5CI1 SLP278
CYEG;2002-10-31 10:00;METAR CYEG 311000Z 18005KT 15SM SCT130 BKN150 BKN210 M09/M13 A3020 RMK AC2AC1CI1 SLP273 SLP273
CYEG;2002-10-31 11:00;METAR CYEG 311100Z 17004KT 15SM FEW130 FEW210 M13/M16 A3020 RMK AC1CI0 SLP272
CYEG;2002-10-31 12:00;METAR CYEG 311200Z 14003KT 15SM FEW140 FEW210 M13/M16 A3021 RMK AC1CI0 SLP282
CYEG;2002-10-31 13:00;METAR CYEG 311300Z 18005KT 15SM FEW140 FEW210 M13/M16 A3021 RMK AC1CI0 AURBO SLP282
CYEG;2002-10-31 14:00;METAR CYEG 311400Z 20006KT 15SM FEW140 M14/M16 A3021 RMK AC1 SLP282
CYEG;2002-10-31 15:00;METAR CYEG 311500Z 18005KT 12SM FEW140 M13/M16 A3023 RMK AC0 SLP291
CYEG;2002-10-31 16:00;METAR CYEG 311600Z 20004KT 12SM FEW140 M10/M14 A3023 RMK AC1 SLP291
CYEG;2002-10-31 17:00;METAR CYEG 311700Z 21003KT 12SM FEW140 M06/M11 A3024 RMK AC1 SLP294
CYEG;2002-10-31 18:00;METAR CYEG 311800Z 23003KT 15SM FEW140 M02/M08 A3024 RMK AC1 SLP286
CYEG;2002-10-31 19:00;METAR CYEG 311900Z 24005KT 15SM FEW250 M00/M06 A3023 RMK CI1 SLP283
CYEG;2002-10-31 20:00;METAR CYEG 312000Z 21004KT 15SM FEW250 02/M06 A3022 RMK CI1 SLP281
CYEG;2002-10-31 21:00;METAR CYEG 312100Z 18004KT 15SM FEW250 03/M06 A3021 RMK CI0 SLP271
CYEG;2002-10-31 22:00;METAR CYEG 312200Z 18004KT 15SM FEW250 04/M06 A3021 RMK CI0 SLP269
CYEG;2002-10-31 23:00;METAR CYEG 312300Z 17003KT 15SM SCT250 04/M05 A3021 RMK CI1 SLP269
CYEG;2002-11-01 00:00;METAR CYEG 010000Z 18005KT 15SM BKN250 00/M06 A3020 RMK CI1 SLP271
CYEG;2002-11-01 01:00;METAR CYEG 010100Z 18006KT 15SM BKN250 M03/M07 A3019 RMK CI1 CONTRAILS SLP270
CYEG;2002-11-01 02:00;METAR CYEG 010200Z 18008KT 15SM BKN250 M04/M08 A3019 RMK CI1 SLP270
CYEG;2002-11-01 03:00;METAR CYEG 010300Z 18008KT 15SM SCT250 M06/M09 A3019 RMK CI1 SLP276
CYEG;2002-11-01 04:00;METAR CYEG 010400Z 18006KT 15SM FEW240 M06/M10 A3018 RMK CI1 SLP272
CYEG;2002-11-01 05:00;METAR CYEG 010500Z 18007KT 15SM FEW240 M07/M11 A3017 RMK CI1 SLP268
CYEG;2002-11-01 06:00;METAR CYEG 010600Z 18003KT 15SM FEW240 M08/M11 A3016 RMK CI1 SLP258
CYEG;2002-11-01 07:00;METAR CYEG 010700Z 00000KT 15SM SKC M10/M13 A3017 RMK SLP259
CYEG;2002-11-01 08:00;METAR CYEG 010800Z 18007KT 15SM SKC M09/M12 A3015 RMK SLP252
CYEG;2002-11-01 09:00;METAR CYEG 010900Z 20002KT 15SM SKC M11/M14 A3015 RMK SLP250
CYEG;2002-11-01 10:00;METAR CYEG 011000Z 22004KT 15SM SKC M10/M13 A3014 RMK SLP248
CYEG;2002-11-01 11:00;METAR CYEG 011100Z 23004KT 15SM SKC M08/M11 A3013 RMK SLP245
CYEG;2002-11-01 12:00;METAR CYEG 011200Z 23004KT 15SM SKC M08/M11 A3013 RMK AURBO SLP242
CYEG;2002-11-01 13:00;METAR CYEG 011300Z 26004KT 15SM FEW240 M08/M11 A3013 RMK CI1 SLP242
CYEG;2002-11-01 14:00;METAR CYEG 011400Z 26005KT 15SM FEW240 M07/M10 A3012 RMK CI0 SLP241
CYEG;2002-11-01 15:00;METAR CYEG 011500Z 24004KT 15SM BKN240 M06/M09 A3012 RMK CI1 SLP245
CYEG;2002-11-01 16:00;METAR CYEG 011600Z 28004KT 15SM SCT240 M02/M07 A3013 RMK CI0 SLP248
CYEG;2002-11-01 17:00;METAR CYEG 011700Z 28005KT 15SM FEW240 M00/M06 A3014 RMK CI0 SLP250
CYEG;2002-11-01 18:00;METAR CYEG 011800Z 27005KT 15SM FEW240 01/M06 A3013 RMK CI0 SLP243
CYEG;2002-11-01 19:00;METAR CYEG 011900Z 29007KT 15SM FEW240 03/M05 A3012 RMK CI0 SLP239
CYEG;2002-11-01 20:00;METAR CYEG 012000Z 29006KT 15SM FEW240 04/M06 A3009 RMK CI0 SLP232
CYEG;2002-11-01 21:00;METAR CYEG 012100Z 29006KT 15SM FEW300 06/M05 A3008 RMK CI0 CONTRAILS SLP223
CYEG;2002-11-01 22:00;METAR CYEG 012200Z 29006KT 15SM FEW300 06/M06 A3007 RMK CI0 CONTRAILS SLP220
CYEG;2002-11-01 23:00;METAR CYEG 012300Z 25002KT 15SM FEW300 05/M05 A3004 RMK CI1 CONTRAILS SLP213
CYEG;2002-11-02 00:00;METAR CYEG 020000Z 21002KT 15SM SCT300 04/M05 A3004 RMK CI1 CONTRAILS SLP211
CYEG;2002-11-02 01:00;METAR CYEG 020100Z 23004KT 15SM BKN300 M01/M05 A3003 RMK CI1 CONTRAILS SLP207
CYEG;2002-11-02 02:00;METAR CYEG 020200Z 22003KT 15SM FEW300 M03/M07 A3003 RMK CI0 SLP208
CYEG;2002-11-02 03:00;METAR CYEG 020300Z 22003KT 15SM FEW300 M05/M07 A3003 RMK CI0 SLP213
CYEG;2002-11-02 04:00;METAR CYEG 020400Z 20006KT 15SM FEW300 M05/M08 A3002 RMK CI0 SLP208
CYEG;2002-11-02 05:00;METAR CYEG 020500Z 22004KT 15SM FEW300 M06/M09 A3002 RMK CI0 SLP209
CYEG;2002-11-02 06:00;METAR CYEG 020600Z 24004KT 15SM FEW300 M05/M09 A3001 RMK CI1 SLP200
CYEG;2002-11-02 07:00;METAR CYEG 020700Z 26003KT 15SM FEW300 M05/M10 A3000 RMK CI1 SLP196
CYEG;2002-11-02 08:00;METAR CYEG 020800Z 29005KT 15SM SKC M03/M09 A3001 RMK AURBO SLP200
CYEG;2002-11-02 09:00;METAR CYEG 020900Z 26004KT 15SM SKC M06/M10 A3002 RMK SLP197
CYEG;2002-11-02 10:00;METAR CYEG 021000Z 24004KT 15SM SKC M05/M10 A3002 RMK SLP197
CYEG;2002-11-02 11:00;METAR CYEG 021100Z 24004KT 15SM SKC M07/M11 A3001 RMK AURBO SLP195
CYEG;2002-11-02 12:00;METAR CYEG 021200Z 29005KT 15SM SKC M06/M10 A3002 RMK AURBO SLP199
CYEG;2002-11-02 13:00;METAR CYEG 021300Z 27005KT 15SM SKC M06/M10 A3001 RMK SLP198
CYEG;2002-11-02 14:00;METAR CYEG 021400Z 27007KT 15SM SKC M05/M09 A3002 RMK FROIN SLP199
CYEG;2002-11-02 15:00;METAR CYEG 021500Z 28006KT 15SM FEW100 FEW250 M03/M08 A3002 RMK AC1CI0 SLP208
CYEG;2002-11-02 16:00;METAR CYEG 021600Z 27009KT 15SM FEW250 M02/M07 A3004 RMK CI0 SLP212
CYEG;2002-11-02 17:00;METAR CYEG 021700Z 29010KT 15SM FEW250 01/M06 A3004 RMK CI0 SLP213
CYEG;2002-11-02 18:00;METAR CYEG 021800Z 29008KT 15SM FEW250 03/M05 A3004 RMK CI0 SLP209
CYEG;2002-11-02 19:00;METAR CYEG 021900Z 29009KT 15SM SCT250 05/M04 A3004 RMK CI0 SLP207
CYEG;2002-11-02 20:00;METAR CYEG 022000Z 28008KT 15SM SCT250 06/M04 A3003 RMK CI0 SLP205
CYEG;2002-11-02 21:00;METAR CYEG 022100Z 29008KT 15SM SCT250 07/M04 A3002 RMK CI0 SLP200
CYEG;2002-11-02 22:00;METAR CYEG 022200Z 29009KT 15SM SCT250 07/M04 A3002 RMK CI0 SLP197
CYEG;2002-11-02 23:00;METAR CYEG 022300Z 29004KT 15SM SCT250 07/M03 A3002 RMK CI0 SLP198
CYEG;2002-11-03 01:00;METAR CYEG 030100Z 27005KT 15SM FEW100 FEW250 00/M05 A3002 RMK AC1CI1
CYEG;2002-11-03 02:00;METAR CYEG 030200Z 27006KT 15SM FEW066 BKN250 M01/M05 A3002 RMK AC2CI0 SLP200
CYEG;2002-11-03 03:00;METAR CYEG 030300Z 29007KT 15SM BKN067 04/M04 A3004 RMK AC6 SLP205
CYEG;2002-11-03 04:00;METAR CYEG 030400Z 32007KT 15SM OVC067 04/M04 A3006 RMK AC8 SLP211
CYEG;2002-11-03 05:00;METAR CYEG 030500Z 32004KT 15SM OVC067 03/M04 A3007 RMK AC8 SLP216
CYEG;2002-11-03 06:00;METAR CYEG 030600Z 28002KT 15SM BKN063 01/M05 A3009 RMK SC6 SLP220
CYEG;2002-11-03 07:00;METAR CYEG 030700Z 27003KT 15SM BKN055 00/M04 A3010 RMK SC7 SLP222
CYEG;2002-11-03 08:00;METAR CYEG 030800Z 25005KT 15SM SCT051 M02/M05 A3010 RMK SC2 SLP223
CYEG;2002-11-03 10:00;METAR CYEG 031000Z 25003KT 15SM FEW050 M04/M07 A3011 RMK SC1 AURBO SLP228
CYEG;2002-11-03 11:00;METAR CYEG 031100Z 22003KT 15SM FEW050 M05/M08 A3011 RMK SC1 AURBO SLP229
CYEG;2002-11-03 12:00;METAR CYEG 031200Z 22002KT 15SM SKC M06/M08 A3011 RMK FROIN SLP233
CYEG;2002-11-03 13:00;METAR CYEG 031300Z 20003KT 15SM SKC M07/M08 A3010 RMK AURBO SLP230 CONTRAIL SLP226
CYEG;2002-11-03 15:00;METAR CYEG 031500Z 22004KT 15SM BKN250 M07/M09 A3009 RMK CI2 CONTRAIL SLP227
CYEG;2002-11-03 16:00;METAR CYEG 031600Z 00000KT 15SM BKN250 M03/M06 A3008 RMK CI2 SLP225
CYEG;2002-11-03 17:00;METAR CYEG 031700Z 22002KT 15SM FEW100 BKN250 M01/M05 A3007 RMK AC1CI2 SLP221
CYEG;2002-11-03 18:00;METAR CYEG 031800Z 00000KT 15SM FEW100 BKN250 01/M05 A3006 RMK AC1CI2 SLP211
CYEG;2002-11-03 19:00;METAR CYEG 031900Z 17004KT 15SM FEW100 BKN250 03/M04 A3004 RMK AC1CI2 SLP204
CYEG;2002-11-03 20:00;METAR CYEG 032000Z 14005KT 15SM FEW100 BKN230 05/M03 A3001 RMK AC1CI2 SLP195
CYEG;2002-11-03 21:00;METAR CYEG 032100Z 18005KT 15SM FEW100 BKN230 04/M03 A2998 RMK AC1CI3 SLP187
CYEG;2002-11-03 22:00;METAR CYEG 032200Z 15005KT 15SM FEW100 BKN210 04/M03 A2996 RMK AC1CS3 HALO SLP179
CYEG;2002-11-03 23:00;METAR CYEG 032300Z 14007KT 15SM FEW100 BKN210 03/M03 A2994 RMK AC2CS3 HALO SLP174
CYEG;2002-11-04 00:00;METAR CYEG 040000Z 12006KT 15SM SCT150 BKN210 00/M03 A2992 RMK AC2CS3 VIRGA S-SW SLP171 SLP171
CYEG;2002-11-04 01:00;METAR CYEG 040100Z 11007KT 15SM SCT150 BKN210 M00/M04 A2992 RMK AC2CI3 SLP170
CYEG;2002-11-04 02:00;METAR CYEG 040200Z 12005KT 15SM SCT150 BKN210 M01/M04 A2991 RMK AC3CI4 SLP166
CYEG;2002-11-04 03:00;METAR CYEG 040300Z 14006KT 15SM SCT140 BKN210 M02/M04 A2990 RMK AC2CI2 SLP165
CYEG;2002-11-04 04:00;METAR CYEG 040400Z 17004KT 15SM FEW140 SCT200 M03/M05 A2989 RMK AC1CI2 SLP163
CYEG;2002-11-04 05:00;METAR CYEG 040500Z 18004KT 15SM FEW200 M05/M06 A2989 RMK CI2 SLP162
CYEG;2002-11-04 06:00;METAR CYEG 040600Z 17003KT 15SM FEW180 M05/M07 A2987 RMK AC1 SLP151
CYEG;2002-11-04 07:00;METAR CYEG 040700Z 20003KT 15SM FEW180 M08/M09 A2986 RMK AC1 SLP149
CYEG;2002-11-04 08:00;METAR CYEG 040800Z 19005KT 15SM SKC M07/M08 A2985 RMK FROIN AURBO SLP145
CYEG;2002-11-04 09:00;METAR CYEG 040900Z 21005KT 15SM SKC M08/M09 A2984 RMK FROIN SLP141
CYEG;2002-11-04 10:00;METAR CYEG 041000Z 25004KT 15SM SCT180 M08/M09 A2984 RMK AC2 SLP141
CYEG;2002-11-04 11:00;METAR CYEG 041100Z 25005KT 15SM BKN170 M05/M07 A2983 RMK AC4 AC INVDG SLP136
CYEG;2002-11-04 12:00;METAR CYEG 041200Z 25003KT 15SM BKN150 M05/M07 A2982 RMK AC6 SLP135
CYEG;2002-11-04 13:00;METAR CYEG 041300Z 27003KT 15SM FEW150 BKN170 M06/M08 A2982 RMK AC2AC2 SLP133
CYEG;2002-11-04 14:00;METAR CYEG 041400Z 27004KT 15SM FEW150 SCT170 M06/M09 A2981 RMK AC2AC1 FROIN SLP132 SLP132
CYEG;2002-11-04 15:00;METAR CYEG 041500Z 27005KT 15SM FEW150 FEW170 M07/M10 A2982 RMK AC2AC0 FROIN SLP137 SLP137
CYEG;2002-11-04 16:00;METAR CYEG 041600Z 27004KT 15SM FEW150 M04/M07 A2982 RMK AC1 SLP137
CYEG;2002-11-04 17:00;METAR CYEG 041700Z 29006KT 15SM FEW150 M01/M06 A2981 RMK AC1 SLP135
CYEG;2002-11-04 18:00;METAR CYEG 041800Z 29005KT 15SM FEW150 01/M05 A2979 RMK AC1 SLP125
CYEG;2002-11-04 19:00;METAR CYEG 041900Z 29009KT 15SM FEW150 03/M06 A2978 RMK AC1 SLP120
CYEG;2002-11-04 20:00;METAR CYEG 042000Z 28011KT 15SM FEW150 05/M07 A2976 RMK AC1 SLP113
CYEG;2002-11-04 21:00;METAR CYEG 042100Z 28009KT 15SM FEW250 05/M07 A2974 RMK CI0 SLP106
CYEG;2002-11-04 22:00;METAR CYEG 042200Z 27005KT 15SM FEW250 06/M07 A2973 RMK CI0 SLP102
CYEG;2002-11-04 23:00;METAR CYEG 042300Z 25005KT 15SM FEW150 FEW250 04/M07 A2972 RMK AC1CI0 SLP100
CYEG;2002-11-05 00:00;METAR CYEG 050000Z 21003KT 15SM SCT170 BKN250 02/M07 A2971 RMK AC2CI0 SLP096
CYEG;2002-11-05 01:00;METAR CYEG 050100Z 18005KT 15SM SCT170 M03/M08 A2971 RMK AC3 SLP094
CYEG;2002-11-05 02:00;METAR CYEG 050200Z 18007KT 15SM FEW170 M03/M08 A2970 RMK AC2 SLP092
CYEG;2002-11-05 03:00;METAR CYEG 050300Z 19006KT 15SM FEW150 M03/M09 A2970 RMK AC2 SLP099
CYEG;2002-11-05 04:00;METAR CYEG 050400Z 20007KT 15SM FEW150 BKN200 M01/M08 A2970 RMK AC2CI2 SLP097
CYEG;2002-11-05 05:00;METAR CYEG 050500Z 22003KT 15SM SCT150 BKN200 M01/M07 A2970 RMK AC2CI2 SLP099
CYEG;2002-11-05 06:00;METAR CYEG 050600Z 28008KT 15SM SCT160 BKN200 02/M08 A2971 RMK AC4CI1 SLP090
CYEG;2002-11-05 07:00;METAR CYEG 050700Z 28007KT 15SM BKN160 02/M08 A2972 RMK AC4 SLP092
CYEG;2002-11-05 08:00;METAR CYEG 050800Z 29006KT 15SM BKN140 BKN210 01/M08 A2972 RMK AC5CI1 SLP094
CYEG;2002-11-05 09:00;METAR CYEG 050900Z 26004KT 15SM FEW083 BKN150 BKN210 01/M07 A2974 RMK AC2AC4CI1 SLP096
CYEG;2002-11-05 10:00;METAR CYEG 051000Z 26008KT 15SM BKN068 BKN150 03/M07 A2973 RMK AC5AC2 SLP095
CYEG;2002-11-05 11:00;METAR CYEG 051100Z 25007KT 15SM FEW065 BKN079 OVC160 03/M06 A2974 RMK SC2AC3AC2 SLP097
CYEG;2002-11-05 12:00;METAR CYEG 051200Z 27007KT 15SM SCT067 BKN100 OVC160 04/M05 A2974 RMK AC3AC2AC2 SLP097
CYEG;2002-11-05 13:00;METAR CYEG 051300Z 26006KT 15SM BKN096 OVC170 03/M05 A2974 RMK AC5AC2
CYEG;2002-11-05 14:00;METAR CYEG 051400Z 26005KT 15SM SCT110 BKN170 03/M05 A2974 RMK AC3AC2
CYEG;2002-11-05 15:00;METAR CYEG 051500Z 13002KT 15SM BKN100 BKN120 BKN170 M00/M05 A2974 RMK AC3AC2AC2 SLP107 SLP107
CYEG;2002-11-05 16:00;METAR CYEG 051600Z 21003KT 15SM BKN120 BKN170 02/M04 A2975 RMK AC6AS1 SLP108
CYEG;2002-11-05 18:00;METAR CYEG 051800Z 27009KT 15SM FEW120 FEW160 BKN250 09/M05 A2975 RMK AC1AC1CI2 SLP097
CYEG;2002-11-05 19:00;METAR CYEG 051900Z 27008KT 15SM FEW120 FEW160 BKN250 11/M05 A2975 RMK AC1AC1CI2 TR LWR AC SLP096
CYEG;2002-11-05 20:00;METAR CYEG 052000Z 29008KT 15SM FEW120 FEW160 BKN230 11/M05 A2975 RMK AC1AC1CI5 TR LWR AC SLP095 TR LWR AC SLP095
CYEG;2002-11-05 21:00;METAR CYEG 052100Z 31014G21KT 15SM FEW120 BKN160 BKN230 11/M06 A2976 RMK AC1AS6CI1 SLP099
CYEG;2002-11-05 22:00;METAR CYEG 052200Z 31006KT 15SM FEW100 BKN120 09/M05 A2977 RMK AC1AS6 SLP102
CYEG;2002-11-05 23:00;METAR CYEG 052300Z 32009KT 15SM FEW100 BKN110 08/M05 A2978 RMK AC2AS6 VIRGA SLP106
CYEG;2002-11-06 00:00;METAR CYEG 060000Z 31006KT 15SM FEW080 BKN090 07/M05 A2979 RMK AC1AS6 VIRGA SLP108
CYEG;2002-11-06 01:00;METAR CYEG 060100Z 28004KT 15SM BKN080 BKN120 06/M05 A2982 RMK AS6AC1 VIRGA SLP117
CYEG;2002-11-06 02:00;METAR CYEG 060200Z 35007KT 15SM FEW090 SCT110 BKN150 06/M05 A2981 RMK AC2AC2AC2 SLP115 SLP115
CYEG;2002-11-06 03:00;METAR CYEG 060300Z 34006KT 15SM FEW100 SCT250 03/M05 A2982 RMK AC2CI1 SLP129
CYEG;2002-11-06 04:00;METAR CYEG 060400Z 01002KT 15SM SCT230 M00/M07 A2983 RMK CI2 SLP133
CYEG;2002-11-06 05:00;METAR CYEG 060500Z 05003KT 15SM FEW180 BKN230 M02/M06 A2985 RMK AC1CI2 SLP137
CYEG;2002-11-06 06:00;METAR CYEG 060600Z 10007KT 15SM FEW170 BKN230 M01/M05 A2987 RMK AC2CI2 SLP139
CYEG;2002-11-06 07:00;METAR CYEG 060700Z 11007KT 15SM FEW011 SCT170 BKN240 M02/M05 A2987 RMK ST1AC2CI1 ST N HRZN SLP139 ST N HRZN SLP139
CYEG;2002-11-06 08:00;METAR CYEG 060800Z 11005KT 15SM FEW011 BKN160 BKN210 M02/M05 A2987 RMK ST1AC3CI1 ST N - NE SLP139 ST N - NE SLP139
CYEG;2002-11-06 09:00;METAR CYEG 060900Z 11008KT 12SM OVC005 M02/M04 A2987 RMK SF8 CIG RAG SLP138
CYEG;2002-11-06 10:00;METAR CYEG 061000Z 12007KT 12SM OVC004 M02/M04 A2985 RMK ST8 CIG RAG SLP133
CYEG;2002-11-06 11:00;METAR CYEG 061100Z 14007KT 8SM OVC004 M02/M04 A2983 RMK ST8 CIG VRB 3-5 BR SLP127
CYEG;2002-11-06 12:00;METAR CYEG 061200Z 13007KT 12SM OVC005 M02/M04 A2981 RMK SF8 CIG RAG SLP121
CYEG;2002-11-06 14:00;METAR CYEG 061400Z 12009KT 10SM -SNPL SCT007 BKN044 OVC075 M02/M04 A2976 RMK SF2SC5AC1 SLP106 SF2SC5AC1 SLP106
CYEG;2002-11-06 15:00;METAR CYEG 061500Z 14008KT 5SM -SNPL -FZRA SCT045 OVC073 M01/M04 A2974 RMK SC3AC5 SLP101 SLP101
CYEG;2002-11-06 16:00;METAR CYEG 061600Z 14010KT 6SM BR BKN075 BKN093 OVC120 M01/M04 A2971 REFZRA RMK AC4AC2AC1 SLP093 AC4AC2AC1 SLP093
CYEG;2002-11-06 17:00;METAR CYEG 061700Z 14006KT 7SM SCT075 OVC110 00/M03 A2970 RMK AC3AC5 BR SLP090
CYEG;2002-11-06 18:00;METAR CYEG 061800Z 17008KT 7SM -RA OVC060 00/M02 A2968 RMK SC8 BR SLP083
CYEG;2002-11-06 19:00;METAR CYEG 061900Z 17005KT 10SM FEW060 SCT100 BKN160 OVC250 01/M02 A2964 RMK SC2AC2AC2CI2 SLP070 SC2AC2AC2CI2 SLP070
CYEG;2002-11-06 20:00;METAR CYEG 062000Z 15004KT 12SM FEW060 BKN076 BKN160 BKN250 03/M01 A2962 RMK SC1AC4AC2CI1 SLP062 SC1AC4AC2CI1 SLP062
CYEG;2002-11-06 21:00;METAR CYEG 062100Z 16005KT 15SM BKN076 BKN250 04/M01 A2960 RMK AC4CI2 SLP052
CYEG;2002-11-06 22:00;METAR CYEG 062200Z 17003KT 15SM FEW060 BKN077 BKN250 04/M01 A2959 RMK SC1AC6CI1 SLP049 SLP049
CYEG;2002-11-06 23:00;METAR CYEG 062300Z 18003KT 15SM FEW077 BKN095 BKN120 BKN250 04/M01 A2959 RMK AC2AC3AC1CI0 CC ASOCTD SLP048 AC2AC3AC1CI0 CC ASOCTD SLP048
CYEG;2002-11-07 00:00;METAR CYEG 070000Z 22002KT 15SM FEW080 BKN110 BKN240 03/M01 A2958 RMK AC1AC5CI1 TR LWR AC SLP044 TR LWR AC SLP044
CYEG;2002-11-07 01:00;METAR CYEG 070100Z 19004KT 15SM FEW080 FEW110 BKN240 M01/M03 A2956 RMK AC1AC2CI1 TR LWR AC SLP039 TR LWR AC SLP039
CYEG;2002-11-07 02:00;METAR CYEG 070200Z 20005KT 15SM FEW110 FEW250 M02/M04 A2955 RMK AC1CI0 SLP036
CYEG;2002-11-07 03:00;METAR CYEG 070300Z 20006KT 15SM FEW110 SCT250 M02/M04 A2953 RMK AC1CI1 SLP032
CYEG;2002-11-07 04:00;METAR CYEG 070400Z 20006KT 15SM FEW250 M02/M05 A2951 RMK CI0 SLP028
CYEG;2002-11-07 05:00;METAR CYEG 070500Z 00000KT 15SM FEW110 SCT170 BKN210 M04/M06 A2952 RMK AC1AC1CI1 FROIN SLP029 FROIN SLP029
CYEG;2002-11-07 06:00;METAR CYEG 070600Z 23004KT 15SM BKN150 OVC210 01/M03 A2952 RMK AC5CI1 SLP025
CYEG;2002-11-07 07:00;METAR CYEG 070700Z 27007KT 15SM SCT150 BKN220 01/M03 A2953 RMK AC2CI1 SLP028
CYEG;2002-11-07 08:00;METAR CYEG 070800Z 26002KT 15SM FEW220 00/M04 A2951 RMK CI1 SLP024
CYEG;2002-11-07 09:00;METAR CYEG 070900Z 22004KT 15SM SKC M01/M05 A2951 RMK SLP021
CYEG;2002-11-07 10:00;METAR CYEG 071000Z 22004KT 15SM SKC M02/M05 A2951 RMK SLP020
CYEG;2002-11-07 11:00;METAR CYEG 071100Z 21005KT 15SM FEW120 M01/M05 A2951 RMK AC1 TR AC SLP019
CYEG;2002-11-07 12:00;METAR CYEG 071200Z 23004KT 15SM FEW120 M01/M05 A2950 RMK AC1 TR AC SLP018
CYEG;2002-11-07 13:00;METAR CYEG 071300Z 26005KT 15SM FEW120 M01/M05 A2950 RMK AC1 TR AC SLP018
CYEG;2002-11-07 14:00;METAR CYEG 071400Z 24004KT 15SM FEW120 SCT250 M01/M05 A2949 RMK AC1CI0 SLP015
CYEG;2002-11-07 15:00;METAR CYEG 071500Z 27005KT 15SM FEW090 FEW120 BKN250 M02/M06 A2949 RMK AC1AC1CI1 TR HEIR AC SLP019 TR HEIR AC SLP019
CYEG;2002-11-07 16:00;METAR CYEG 071600Z 25003KT 15SM FEW090 FEW210 BKN250 01/M02 A2949 RMK AC1CI1CI2 TR LWR AC SLP021 TR LWR AC SLP021
CYEG;2002-11-07 17:00;METAR CYEG 071700Z 24004KT 15SM FEW090 FEW210 BKN250 03/M02 A2949 RMK AC1CI2CI2 SLP021 SLP021
CYEG;2002-11-07 18:00;METAR CYEG 071800Z 31004KT 15SM FEW090 FEW210 BKN250 06/00 A2949 RMK AC1CI2CI3 SLP011 SLP011
CYEG;2002-11-07 19:00;METAR CYEG 071900Z 08002KT 15SM FEW090 FEW210 BKN250 06/M01 A2948 RMK AC1CI1CI2 TR AC SLP008 TR AC SLP008
CYEG;2002-11-07 20:00;METAR CYEG 072000Z 03003KT 15SM FEW090 FEW210 SCT250 07/M01 A2947 RMK AC1CI1CI1 TR AC SLP003 TR AC SLP003
CYEG;2002-11-07 21:00;METAR CYEG 072100Z 04006KT 15SM FEW028 FEW090 SCT210 BKN250 07/M00 A2946 RMK SC1AC1CI2CI1 TR SC SLP000 SC1AC1CI2CI1 TR SC SLP000
CYEG;2002-11-07 22:00;METAR CYEG 072200Z 05006KT 15SM FEW030 FEW073 SCT210 BKN250 06/M01 A2945 RMK SC1AC2CI2CI1 SLP996 SC1AC2CI2CI1 SLP996
CYEG;2002-11-07 23:00;METAR CYEG 072300Z 04008KT 15SM BKN075 BKN090 BKN250 04/M01 A2944 RMK AC5AC2CI1 SLP994 SLP994
CYEG;2002-11-08 00:00;METAR CYEG 080000Z 05008KT 15SM BKN070 BKN090 BKN250 02/M02 A2944 RMK AC6AC1CI1 SLP997 SLP997
CYEG;2002-11-08 22:00;METAR CYEG 072200Z 05006KT 15SM FEW030 FEW073 SCT210 BKN250 06/M01 A2945 RMK SC1AC2CI2CI1 SLP996 SC1AC2CI2CI1 SLP996
CYEG;2002-11-08 23:00;METAR CYEG 072300Z 04008KT 15SM BKN075 BKN090 BKN250 04/M01 A2944 RMK AC5AC2CI1 SLP994 SLP994
CYEG;2002-11-08 01:00;METAR CYEG 080100Z 07008KT 15SM SCT070 OVC089 01/M02 A2943 RMK AC3AC5 SLP995
CYEG;2002-11-08 02:00;METAR CYEG 080200Z 09011KT 15SM BKN064 OVC090 01/M03 A2943 RMK SC6AC2 SLP993
CYEG;2002-11-08 03:00;METAR CYEG 080300Z 06006KT 15SM -SN FEW035 OVC063 01/M03 A2944 RMK SC2SC6 SLP999
CYEG;2002-11-08 04:00;METAR CYEG 080400Z 09009KT 3SM -SN BKN014 OVC027 M00/M03 A2942 RMK SC5SC3
CYEG;2002-11-08 05:00;METAR CYEG 080500Z 09008KT 12SM -SN BKN016 OVC042 M00/M03 A2940 RMK SC6SC2 SLP988 /S01/ SLP977
CYEG;2002-11-08 07:00;METAR CYEG 080700Z 10009KT 2SM -SN BKN006 OVC017 M01/M03 A2938 RMK SN1SF5SC2 SLP972 SLP972
CYEG;2002-11-08 08:00;METAR CYEG 080800Z 09011KT 3SM -SN SCT005 OVC017 M02/M04 A2936 RMK SN1SF2SC6 /S01/ SLP968 /S01/ SLP968
CYEG;2002-11-08 09:00;METAR CYEG 080900Z 09011KT 3SM -SN FEW008 OVC020 M02/M04 A2935 RMK SF2SC6 SLP964
CYEG;2002-11-08 10:00;METAR CYEG 081000Z 11009KT 7SM -SN BKN008 OVC017 M02/M05 A2936 RMK SF2SC6 SLP966
CYEG;2002-11-08 11:00;METAR CYEG 081100Z 08009KT 8SM -SN BKN009 OVC015 M03/M06 A2933 RMK SF6SC2 SLP957
CYEG;2002-11-08 12:00;METAR CYEG 081200Z 08007KT 12SM -SN FEW007 BKN012 OVC016 M03/M06 A2934 RMK SF2SC6SC1 SLP966
CYEG;2002-11-08 14:00;METAR CYEG 081400Z CCA 09010KT 7SM -SG -FZDZ BKN006 OVC010 M05/M07 A2932 RMK SF6ST2 SNT VIA YYC SLP961 SF6ST2 SNT VIA YYC SLP961
CYEG;2002-11-08 15:00;METAR CYEG 081500Z 09008KT 5SM -SG -FZDZ BKN006 OVC010 M05/M07 A2932 RMK SF6ST2 VIS W-NW 2/ VIA YYC SLP961 VIS W-NW 2/ VIA YYC SLP961
CYEG;2002-11-08 16:00;METAR CYEG 081600Z 11010KT 8SM OVC007 M06/M08 A2932 RMK ST8 BR SLP960
CYEG;2002-11-08 17:00;METAR CYEG 081700Z 09006KT 4SM -SG OVC005 M05/M07 A2933 RMK ST8 SLP964
CYEG;2002-11-08 18:00;METAR CYEG 081800Z 07009KT 4SM -SG -FZDZ OVC006 M05/M07 A2932 RMK ST8
CYEG;2002-11-08 19:00;METAR CYEG 081900Z 08010KT 5SM -SG OVC007 M05/M08 A2932 REFZDZ RMK ST8
CYEG;2002-11-08 20:00;METAR CYEG 082000Z 08009KT 10SM OVC007 M05/M08 A2931 RMK ST8 BR SLP959
CYEG;2002-11-08 21:00;METAR CYEG 082100Z 09005KT 12SM OVC006 M05/M07 A2932 RMK ST8 SLP962
CYEG;2002-11-08 22:00;METAR CYEG 082200Z 07008KT 15SM OVC007 M05/M07 A2932 RMK ST8 SLP962
CYEG;2002-11-08 23:00;METAR CYEG 082300Z 06011KT 8SM OVC006 M06/M08 A2933 RMK ST8 BR SLP966
CYEG;2002-11-09 00:00;METAR CYEG 090000Z 08011KT 15SM OVC009 M06/M09 A2934 RMK ST8 BR SLP973
CYEG;2002-11-09 01:00;METAR CYEG 090100Z 07008KT 15SM -SN OVC009 M07/M09 A2935 RMK ST8 SLP975
CYEG;2002-11-09 02:00;METAR CYEG 090200Z 07007KT 15SM -SG OVC009 M07/M10 A2937 RMK ST8 SLP981
CYEG;2002-11-09 03:00;METAR CYEG 090300Z 07008KT 8SM -SG OVC009 M07/M09 A2937 RMK ST8 BR SLP985
CYEG;2002-11-09 04:00;METAR CYEG 090400Z 08006KT 12SM -SN OVC007 M07/M10 A2937 RMK ST8 SLP985
CYEG;2002-11-09 05:00;METAR CYEG 090500Z 08007KT 5SM -SN BKN009 OVC012 M07/M10 A2938 RMK SF5SC3 SLP990
CYEG;2002-11-09 06:00;METAR CYEG 090600Z 07006KT 3SM -SN FEW008 OVC023 M08/M10 A2939 RMK SF2SC6 /S01/ SLP994 SLP994
CYEG;2002-11-09 08:00;METAR CYEG 090800Z 06004KT 2 1/2SM -SN BKN008 BKN023 OVC053 M08/M10 A2941 RMK SN2SF3SC2SC1 SLP000 SN2SF3SC2SC1 SLP000
CYEG;2002-11-09 09:00;METAR CYEG 090900Z 08006KT 6SM -SN FEW009 FEW018 OVC054 M08/M11 A2942 RMK SF1SC1SC6 SLP003
CYEG;2002-11-09 10:00;METAR CYEG 091000Z 10004KT 12SM -SN FEW008 BKN039 OVC054 M08/M11 A2942 RMK SF1SC5SC3 SLP004
CYEG;2002-11-09 11:00;METAR CYEG 091100Z 07003KT 12SM -SN FEW008 BKN025 OVC050 M08/M11 A2943 RMK SF1SC5SC3 SLP008
CYEG;2002-11-09 12:00;METAR CYEG 091200Z 09003KT 4SM -SN BKN024 BKN034 OVC050 M08/M11 A2945 RMK SC5SC2SC1 /S01/ SLP015
CYEG;2002-11-09 13:00;METAR CYEG 091300Z 12004KT 10SM -SN FEW024 OVC037 M08/M11 A2947 RMK SC2SC6 SLP021
CYEG;2002-11-09 14:00;METAR CYEG 091400Z 09003KT 5SM -SN FEW013 BKN024 OVC037 M08/M11 A2948 RMK SF1SC4SC3 SLP025
CYEG;2002-11-09 14:15;SPECI CYEG 091415Z 10003KT 3SM -SN FEW009 BKN024 OVC032 RMK SF2SC4SC2
CYEG;2002-11-09 15:00;METAR CYEG 091500Z 11005KT 2 1/2SM -SN FEW009 BKN018 OVC059 M08/M11 A2949 RMK SN1SF1SC3SC3 SLP031
CYEG;2002-11-09 15:07;SPECI CYEG 091507Z 10005KT 4SM -SN FEW009 SCT018 OVC057 RMK SF1SC2SC5 SN1SF1SC3SC3 SLP031 RMK SF1SC1SC4SC2 /S01/ SLP036
CYEG;2002-11-09 17:00;METAR CYEG 091700Z 15004KT 15SM -SN FEW015 SCT020 OVC041 M07/M11 A2952 RMK CF1SC2SC5 SLP039
CYEG;2002-11-09 18:00;METAR CYEG 091800Z 18004KT 15SM -SN FEW015 BKN032 OVC041 M07/M11 A2953 RMK CF2SC4SC2 SLP044
CYEG;2002-11-09 18:49;SPECI CYEG 091849Z 18003KT 15SM FEW012 OVC038 RMK CF2SC6
CYEG;2002-11-09 19:00;METAR CYEG 091900Z 19003KT 15SM FEW012 OVC033 M07/M11 A2954 RMK CF2SC6 SLP046
CYEG;2002-11-09 20:00;METAR CYEG 092000Z 19002KT 15SM FEW015 BKN039 OVC060 M07/M11 A2954 RMK CF2SC6SC1 SLP048 SLP048
CYEG;2002-11-09 21:00;METAR CYEG 092100Z 31002KT 15SM FEW015 BKN037 OVC060 M06/M11 A2956 RMK CF2SC5SC2 SLP052 SLP052
CYEG;2002-11-09 22:00;METAR CYEG 092200Z 33002KT 15SM SCT013 BKN037 OVC049 M07/M11 A2957 RMK SC3SC2SC2 SLP055 SLP055
CYEG;2002-11-09 23:00;METAR CYEG 092300Z 30002KT 15SM BKN015 OVC035 M06/M10 A2959 RMK ST5SC3 SLP063
CYEG;2002-11-09 23:17;SPECI CYEG 092317Z 29002KT 15SM -SG OVC015 RMK ST8
CYEG;2002-11-10 23:44;SPECI CYEG 092344Z 31002KT 15SM -SG OVC014 RMK ST8
CYEG;2002-11-10 00:00;METAR CYEG 100000Z CCA 33004KT 12SM -SG OVC014 M07/M10 A2961 RMK ST8 SLP071
CYEG;2002-11-10 01:00;METAR CYEG 100100Z 36005KT 10SM -SN SCT014 BKN019 OVC034 M07/M10 A2963 RMK SF3SC3SC2 SLP076
CYEG;2002-11-10 02:00;METAR CYEG 100200Z 36004KT 12SM -SN FEW014 SCT019 BKN041 OVC067 M07/M10 A2964 RMK SF2SC2SC4AC1 SLP081 SF2SC2SC4AC1 SLP081
CYEG;2002-11-10 02:47;SPECI CYEG 100247Z 36006KT 2 1/2SM -SN SCT011 BKN023 OVC060 RMK SN2SF2SC3SC2
CYEG;2002-11-10 03:00;METAR CYEG 100300Z 36005KT 2 1/2SM -SN SCT011 OVC023 M08/M10 A2965 RMK SN2SF2SC4 SLP086 SLP086
CYEG;2002-11-10 03:17;SPECI CYEG 100317Z 36006KT 3SM -SN SCT013 BKN028 OVC055 RMK SF3SC2SC2
CYEG;2002-11-10 03:28;SPECI CYEG 100328Z 36006KT 1 1/2SM -SN VV017 RMK SN8
CYEG;2002-11-10 03:34;SPECI CYEG 100334Z 35005KT 3SM -SN FEW013 BKN028 BKN055 OVC080 RMK SF2SC2SC2AC1
CYEG;2002-11-10 04:03;SPECI CYEG 100403Z 36006KT 1/2SM SN VV003 RMK SN8
CYEG;2002-11-10 04:00;METAR CYEG 100400Z 36006KT 3/4SM R12/5000FT R02/P6000FT -SN VV011 M08/M11 A2966 RMK SN8 SLP088
CYEG;2002-11-10 04:07;SPECI CYEG 100407Z 35005KT 1 1/2SM R12/P6000FT R30/3500FT -SN VV020 RMK SN8 SLP088
CYEG;2002-11-10 04:15;SPECI CYEG 100415Z 35005KT 5SM -SN FEW013 BKN028 OVC080 RESN RMK SF2SC4AC2
CYEG;2002-11-10 05:00;METAR CYEG 100500Z 34006KT 15SM -SN FEW013 BKN057 OVC120 M08/M11 A2968 RESN RMK SF1SC6AC2 /S02/ SLP094
CYEG;2002-11-10 06:00;METAR CYEG 100600Z 33004KT 15SM -SN FEW060 SCT088 OVC140 M09/M12 A2969 RMK SC2AC2AC4 SLP100
CYEG;2002-11-10 07:00;METAR CYEG 100700Z 34004KT 15SM -SN BKN044 OVC080 M08/M11 A2970 RMK SC6AC2 SLP102
CYEG;2002-11-10 08:00;METAR CYEG 100800Z 35006KT 15SM -SN BKN025 BKN044 OVC080 M08/M12 A2971 RMK SC5SC2AC1 SLP108
CYEG;2002-11-10 08:34;SPECI CYEG 100834Z 35006KT 15SM FEW009 BKN025 OVC044 RMK SF1SC6SC1
CYEG;2002-11-10 09:00;METAR CYEG 100900Z 35007KT 15SM FEW009 BKN022 OVC044 M09/M12 A2973 RMK SF1SC7SC1 SLP112 SLP112
CYEG;2002-11-10 09:50;SPECI CYEG 100950Z 33008KT 15SM FEW008 BKN011 OVC025 RMK SF2ST6SC1
CYEG;2002-11-10 10:00;METAR CYEG 101000Z 34008KT 15SM FEW008 SCT011 OVC017 M09/M12 A2975 RMK SF2SF2SC4 SLP118 SLP118
CYEG;2002-11-10 11:00;METAR CYEG 101100Z 33006KT 15SM FEW009 OVC021 M10/M13 A2976 RMK SF2SC6 SLP121
CYEG;2002-11-10 11:10;SPECI CYEG 101110Z 34007KT 15SM -SN FEW009 OVC021 RMK SF2SC6
CYEG;2002-11-10 12:00;METAR CYEG 101200Z 34006KT 15SM -SN FEW009 BKN027 OVC070 M10/M13 A2977 RMK SF1SC5AC2 SLP128
CYEG;2002-11-10 13:00;METAR CYEG 101300Z 34008KT 15SM -SN SCT028 OVC062 M10/M13 A2978 RMK SC3SC5 SLP132
CYEG;2002-11-10 14:00;METAR CYEG 101400Z 33005KT 5SM -SN FEW015 SCT025 OVC070 M10/M14 A2979 RMK SF1SC3AC4 SLP135
CYEG;2002-11-10 15:00;METAR CYEG 101500Z 32005KT 12SM -SN FEW012 FEW025 BKN075 BKN110 M11/M14 A2981 RMK SF1SC1AC4AC2 TR SF SLP143 SF1SC1AC4AC2 TR SF SLP143
CYEG;2002-11-10 16:00;METAR CYEG 101600Z 33004KT 12SM -SN SCT060 BKN110 OVC140 M11/M15 A2982 RMK SC3AC2AC2 SLP147
CYEG;2002-11-10 17:00;METAR CYEG 101700Z 34004KT 15SM FEW058 BKN140 OVC240 M11/M15 A2983 RMK SC1AC3CS3 SLP150 SLP150
CYEG;2002-11-10 18:00;METAR CYEG 101800Z 35003KT 15SM FEW050 SCT140 OVC240 M11/M15 A2983 RMK SC1AC2CS5 SLP154 SLP154
CYEG;2002-11-10 19:00;METAR CYEG 101900Z 01002KT 15SM FEW050 SCT140 OVC240 M10/M15 A2983 RMK SC1AC2CS4 SLP154
CYEG;2002-11-10 20:00;METAR CYEG 102000Z 25002KT 15SM FEW020 FEW130 BKN240 M10/M15 A2983 RMK SC1AC1CS5 SLP152 SLP152
CYEG;2002-11-10 21:00;METAR CYEG 102100Z 25002KT 15SM FEW020 FEW130 BKN230 M10/M15 A2983 RMK SC1AC1CI5 SLP151 SLP151
CYEG;2002-11-10 22:00;METAR CYEG 102200Z 20002KT 15SM FEW020 FEW085 SCT120 OVC240 M10/M14 A2983 RMK SC1AC2AC1CI4 TR SC SLP152 SC1AC2AC1CI4 TR SC SLP152
CYEG;2002-11-10 23:00;METAR CYEG 102300Z 00000KT 15SM -SN FEW025 SCT068 OVC240 M10/M14 A2983 RMK SC1AC3CI3 SLP151
CYEG;2002-11-11 00:00;METAR CYEG 110000Z 17002KT 10SM -SN FEW065 BKN110 OVC220 M10/M14 A2983 RMK SC2AS3CS2 SLP153
CYEG;2002-11-11 01:00;METAR CYEG 110100Z 16004KT 5SM -SN FEW030 SCT060 BKN110 OVC220 M10/M13 A2983 RMK SC1SC2AS3CS1 SLP153 SC1SC2AS3CS1 SLP153
CYEG;2002-11-11 02:00;METAR CYEG 110200Z 16005KT 12SM -SN BKN047 BKN120 OVC220 M10/M13 A2982 RMK SC5AS2CS1 SLP149
CYEG;2002-11-11 03:00;METAR CYEG 110300Z 15006KT 12SM -SN FEW037 BKN060 OVC120 M10/M14 A2981 RMK SC2SC4AS1 SLP146
CYEG;2002-11-11 04:00;METAR CYEG 110400Z 15007KT 10SM -SN SCT037 OVC056 M10/M13 A2981 RMK SC3SC5 SLP145
CYEG;2002-11-11 05:00;METAR CYEG 110500Z 16007KT 15SM -SN BKN024 OVC065 M09/M12 A2979 RMK SC5SC3 SLP139
CYEG;2002-11-11 06:00;METAR CYEG 110600Z 16004KT 10SM -SN BKN018 OVC055 M09/M12 A2978 RMK SC6SC2 SLP136
CYEG;2002-11-11 07:00;METAR CYEG 110700Z 19006KT 15SM -SN OVC020 M08/M11 A2979 RMK SC8 SLP138
CYEG;2002-11-11 08:00;METAR CYEG 110800Z 18004KT 15SM SCT020 OVC074 M08/M11 A2977 RMK SC2AC6 SLP132
CYEG;2002-11-11 09:00;METAR CYEG 110900Z 20004KT 15SM FEW020 OVC081 M08/M11 A2978 RMK SC2AC6 SLP134
CYEG;2002-11-11 10:00;METAR CYEG 111000Z 21002KT 15SM BKN084 OVC130 M08/M11 A2979 RMK AC6AS2 SLP137
CYEG;2002-11-11 11:00;METAR CYEG 111100Z 21004KT 15SM SCT085 BKN130 M09/M12 A2979 RMK AC2AS2 SLP135
CYEG;2002-11-11 12:00;METAR CYEG 111200Z 27003KT 15SM FEW085 BKN110 M12/M14 A2980 RMK AC2AC5 VIRGA N SLP142 SLP142
CYEG;2002-11-11 13:00;METAR CYEG 111300Z 22003KT 15SM BKN110 M13/M16 A2980 RMK AC4 FROIN SLP143
CYEG;2002-11-11 14:00;METAR CYEG 111400Z 00000KT 15SM SCT110 BKN250 M13/M15 A2982 RMK AC2CI1 FROIN SLP148 SLP148
CYEG;2002-11-11 15:00;METAR CYEG 111500Z 00000KT 5SM BR BKN091 M12/M14 A2983 RMK AC7 VIRGA SE SLP153
CYEG;2002-11-11 16:00;METAR CYEG 111600Z 18002KT 6SM BR BKN091 M10/M12 A2983 RMK AC7 VIRGA SLP155
CYEG;2002-11-11 17:00;METAR CYEG 111700Z 00000KT 1 1/2SM -SN BKN065 OVC090 M08/M10 A2985 RMK SN3SC2AC3 SLP160 SLP160 /S01/ SLP164
CYEG;2002-11-11 19:00;METAR CYEG 111900Z 32002KT 8SM -SN BKN052 OVC090 M06/M09 A2989 RMK SC6AC2 SLP169
CYEG;2002-11-11 20:00;METAR CYEG 112000Z 04003KT 1SM R12/4500FT R30/5500FT -SN VV010 M06/M09 A2990 RMK SN8 VSBY OCNL 3/4 SLP171 SN8 VSBY OCNL 3/4 SLP171 /S01/ SLP175
CYEG;2002-11-11 22:00;METAR CYEG 112200Z 36004KT 4SM -SN FEW015 SCT025 BKN070 M06/M08 A2992 RMK SC2SC2AC3 /S02/ SLP178
CYEG;2002-11-11 23:00;METAR CYEG 112300Z 34005KT 1 1/2SM -SN OVC024 M06/M08 A2996 RMK SN5SC3 VSBY OCNL 1 SLP190 1 SLP190
CYEG;2002-11-12 00:00;METAR CYEG 120000Z 33003KT 1 1/2SM -SN BKN025 OVC047 M06/M08 A2999 RMK SN4SC2SC2 SLP204 SLP204
CYEG;2002-11-12 01:00;METAR CYEG 120100Z 02006KT 3SM -SN FEW030 OVC046 M06/M09 A2999 RMK SC2SC6 SLP206
CYEG;2002-11-12 02:00;METAR CYEG 120200Z 35004KT 1 1/2SM -SN OVC025 M07/M09 A3002 RMK SN6SC2 SLP216
CYEG;2002-11-12 03:00;METAR CYEG 120300Z 35003KT 1 1/2SM -SN OVC025 M07/M09 A3004 RMK SN6SC2 /S01/ SLP222
CYEG;2002-11-12 04:00;METAR CYEG 120400Z 34003KT 1 1/2SM -SN OVC025 M07/M09 A3006 RMK SN6SC2 SLP229
CYEG;2002-11-12 05:00;METAR CYEG 120500Z 35002KT 4SM -SN SCT024 BKN050 OVC090 M07/M10 A3008 RMK SC3SC4AC1 SLP234
CYEG;2002-11-12 06:00;METAR CYEG 120600Z 00000KT 10SM -SN SCT022 OVC055 M07/M10 A3008 RMK SC4SC4 /S02/ SLP231 SLP231
CYEG;2002-11-12 07:00;METAR CYEG 120700Z 00000KT 10SM -SN FEW022 BKN055 BKN090 M08/M10 A3009 RMK SC1SC4AC2 SLP236
CYEG;2002-11-12 08:00;METAR CYEG 120800Z 00000KT 10SM -SN FEW022 SCT055 BKN090 M09/M11 A3009 RMK SC1SC2AC2 SLP235
CYEG;2002-11-12 09:00;METAR CYEG 120900Z 12003KT 1 1/2SM -SN BR FEW055 BKN070 M12/M15 A3008 RMK FG1SC2AC2 SLP238
CYEG;2002-11-12 10:00;METAR CYEG 121000Z 18003KT 15SM VCSH SCT020 BKN063 M09/M12 A3010 RMK SC3SC4 SH NW SLP243 SLP243
CYEG;2002-11-12 11:00;METAR CYEG 121100Z 12004KT 15SM BKN018 OVC063 M08/M10 A3008 RMK SC6SC2 SLP236
CYEG;2002-11-12 12:00;METAR CYEG 121200Z 14007KT 15SM BKN015 OVC063 M07/M10 A3006 RMK SC6SC2 SLP226
CYEG;2002-11-12 13:00;METAR CYEG 121300Z 14007KT 15SM BKN011 OVC020 M07/M10 A3003 RMK SC7SC1
CYEG;2002-11-12 14:00;METAR CYEG 121400Z 14007KT 15SM OVC010 M06/M09 A3001 RMK SC8 SLP208
CYEG;2002-11-12 15:00;METAR CYEG 121500Z 14008KT 12SM OVC006 M06/M09 A3000 RMK ST8 HZ SLP205
CYEG;2002-11-12 16:00;METAR CYEG 121600Z 14009KT 4SM BR OVC005 M06/M09 A2998 RMK ST8 SLP197
CYEG;2002-11-12 17:00;METAR CYEG 121700Z 16010KT 2SM BR OVC004 M06/M08 A2996 RMK FG1ST7 CIG OCNL 3 SLP190 SLP190
CYEG;2002-11-12 18:00;METAR CYEG 121800Z 16009KT 2SM BR OVC003 M06/M08 A2992 RMK FG2ST6 CIG OCNL 4 SLP178 SLP178
CYEG;2002-11-12 19:00;METAR CYEG 121900Z 14010KT 1SM BR OVC003 M05/M07 A2990 RMK FG3ST5 CIG OCNL 2 SLP170 SLP170
CYEG;2002-11-12 20:00;METAR CYEG 122000Z 13009KT 1SM R30/4500FT -SG BR OVC004 M04/M06 A2986 RMK FG2ST6 SLP158 SLP158
CYEG;2002-11-12 21:00;METAR CYEG 122100Z 12010KT 2SM BR OVC004 M04/M06 A2983 RMK ST8 SLP147
CYEG;2002-11-12 22:00;METAR CYEG 122200Z 13011KT 2 1/2SM BR OVC005 M04/M06 A2978 RMK ST8 SLP133
CYEG;2002-11-12 23:00;METAR CYEG 122300Z 13009KT 2 1/2SM BR OVC005 M03/M06 A2978 RMK ST8 CIG OCNL 4 SLP134 SLP134
CYEG;2002-11-13 00:00;METAR CYEG 130000Z 12009KT 2 1/2SM BR OVC005 M04/M06 A2978 RMK ST8 CIG OCNL 4 SLP125 SLP125
CYEG;2002-11-13 01:00;METAR CYEG 130100Z 12010KT 4SM BR OVC005 M04/M06 A2976 RMK ST8 CIG OCNL 4 SLP120 CIG OCNL 4 SLP119
CYEG;2002-11-13 03:00;METAR CYEG 130300Z 11011KT 4SM -PLSN -FZRA FEW004 OVC006 M03/M05 A2973 RMK SF2ST6 SLP109 SLP109
CYEG;2002-11-13 04:00;METAR CYEG 130400Z 10011KT 8SM -SN SCT006 OVC008 M04/M06 A2972 REFZRA RMK SF3ST5 SLP106 SLP106
CYEG;2002-11-13 05:00;METAR CYEG 130500Z 13005KT 7SM OVC008 M04/M06 A2973 RMK ST8 BR SLP107
CYEG;2002-11-13 06:00;METAR CYEG 130600Z 10005KT 7SM OVC008 M04/M06 A2973 RMK ST8 BR SLP109
CYEG;2002-11-13 07:00;METAR CYEG 130700Z 10005KT 6SM BR OVC007 M04/M07 A2974 RMK ST8 SLP112
CYEG;2002-11-13 08:00;METAR CYEG 130800Z 13003KT 5SM BR OVC006 M04/M06 A2975 RMK ST8 SLP115
CYEG;2002-11-13 09:00;METAR CYEG 130900Z 09002KT 5SM BR OVC005 M04/M06 A2976 RMK ST8 SLP117
CYEG;2002-11-13 10:00;METAR CYEG 131000Z 00000KT 3SM -SN OVC005 M04/M06 A2977 RMK SC8 SLP121
CYEG;2002-11-13 11:00;METAR CYEG 131100Z 36004KT 4SM -SN OVC008 M04/M06 A2979 RMK SC8 SLP127
CYEG;2002-11-13 12:00;METAR CYEG 131200Z 36005KT 4SM -SN BR SCT004 OVC007 M04/M06 A2981 REFZRA RMK SF3SC5 SLP134 SF3SC5 SLP134
CYEG;2002-11-13 13:00;METAR CYEG 131300Z 34003KT 4SM -SN BR OVC008 M05/M07 A2983 RMK SC8 SLP140
CYEG;2002-11-13 14:00;METAR CYEG 131400Z 29002KT 4SM BR BKN008 BKN010 OVC160 M05/M07 A2984 RMK SC5SC2AC1 SLP143
CYEG;2002-11-13 15:00;METAR CYEG 131500Z 30002KT 3SM BR SCT008 BKN150 M06/M08 A2986 RMK SC3AC3 SLP151
CYEG;2002-11-13 16:00;METAR CYEG 131600Z 27002KT 2 1/4SM BR OVC004 M06/M09 A2987 RMK FG2ST6 SLP156
CYEG;2002-11-13 17:00;METAR CYEG 131700Z 31002KT 1 3/4SM R30/4000FT R12/P6000FT BR OVC003 M05/M07 A2989 RMK FG2ST6 SLP160 RMK FG2ST6 SLP160
CYEG;2002-11-13 18:00;METAR CYEG 131800Z 29003KT 1/2SM R30/1400FT R12/2200FT FZFG VV002 M05/M07 A2989 RMK FG8 SLP164 RMK FG8 SLP164
CYEG;2002-11-13 19:00;METAR CYEG 131900Z 21003KT 1/4SM R30/1400FT R12/1800FT FZFG VV001 M04/M06 A2990 RMK FG8 SLP166 RMK FG8 SLP166
CYEG;2002-11-13 20:00;METAR CYEG 132000Z 26006KT 1 3/4SM R30/4500FT R12/P6000FT BR SCT002 OVC004 M04/M06 A2990 RMK FG2SF2ST4 SLP166
CYEG;2002-11-13 21:00;METAR CYEG 132100Z 20004KT 2 1/4SM R30/P6000FT R12/P6000FT BR OVC004 M03/M05 A2990 RMK FG2ST6 SLP165 A2990 RMK FG2ST6 SLP165
CYEG;2002-11-13 22:00;METAR CYEG 132200Z 21003KT 3SM BR SCT005 OVC080 M03/M05 A2990 REFZDZ RMK FG1ST3AC3 SLP166
CYEG;2002-11-13 23:00;METAR CYEG 132300Z 17002KT 3SM BR FEW004 SCT077 BKN120 M03/M05 A2990 REFZDZ RMK FG1SF1AC2AC4 SLP165 FG1SF1AC2AC4 SLP165
CYEG;2002-11-14 00:00;METAR CYEG 140000Z 17004KT 3SM BR SCT070 BKN120 M04/M06 A2989 RMK FG1AC2AC1 SLP163
CYEG;2002-11-14 01:00;METAR CYEG 140100Z 23002KT 4SM BR FEW010 BKN096 M04/M06 A2990 RMK SF1AC6 SLP164
CYEG;2002-11-14 02:00;METAR CYEG 140200Z 19004KT 7SM FEW060 SCT095 OVC130 M04/M06 A2990 RMK SC1AC2AC5 BR SLP164 BR SLP164
CYEG;2002-11-14 03:00;METAR CYEG 140300Z 20004KT 7SM FEW060 SCT095 BKN130 M03/M06 A2990 RMK SC1AC2AC2 SLP167
CYEG;2002-11-14 04:00;METAR CYEG 140400Z 22002KT 8SM BKN074 BKN090 BKN140 M03/M06 A2991 RMK AC5AC1AC1 SLP169 SLP169
CYEG;2002-11-14 05:00;METAR CYEG 140500Z 00000KT 10SM FEW074 BKN090 M03/M05 A2991 RMK AC2AC5
CYEG;2002-11-14 06:00;METAR CYEG 140600Z 26003KT 15SM SCT080 BKN110 M02/M05 A2991 RMK AC2AC4
CYEG;2002-11-14 07:00;METAR CYEG 140700Z 26007KT 15SM SCT085 BKN110 M01/M04 A2991 RMK AC3AC3
CYEG;2002-11-14 08:00;METAR CYEG 140800Z 26009KT 15SM FEW085 FEW110 SCT170 M01/M05 A2991 RMK AC1AC1AC1 SLP169
CYEG;2002-11-14 09:00;METAR CYEG 140900Z 27009KT 15SM FEW070 FEW170 M02/M06 A2991 RMK AC1AC1 SLP167
CYEG;2002-11-14 10:00;METAR CYEG 141000Z 27008KT 15SM BKN078 M02/M06 A2991 RMK AC5 SLP168
CYEG;2002-11-14 11:00;METAR CYEG 141100Z 27006KT 15SM BKN073 00/M04 A2991 RMK AC7 SLP168
CYEG;2002-11-14 12:00;METAR CYEG 141200Z 27002KT 15SM BKN075 BKN170 M01/M05 A2992 RMK AC5AC1 SLP168
CYEG;2002-11-14 13:00;METAR CYEG 141300Z 26006KT 15SM BKN075 BKN170 M03/M07 A2992 RMK AC4AC2 SLP170
CYEG;2002-11-14 14:00;METAR CYEG 141400Z 28004KT 15SM BKN075 BKN170 M02/M06 A2992 RMK AC5AC1
CYEG;2002-11-14 15:00;METAR CYEG 141500Z 00000KT 15SM BKN077 BKN170 M01/M05 A2993 RMK AC6AC1 SLP171
CYEG;2002-11-14 16:00;METAR CYEG 141600Z 04004KT 15SM BKN080 BKN220 M02/M05 A2994 RMK AC6CI1 SLP176
CYEG;2002-11-14 17:00;METAR CYEG 141700Z 00000KT 15SM BKN082 BKN220 M00/M04 A2994 RMK AC6CI1 SLP175
CYEG;2002-11-14 18:00;METAR CYEG 141800Z 23004KT 15SM FEW082 SCT093 SCT220 M00/M05 A2995 RMK AC1AC1CI1 SLP177 SLP177
CYEG;2002-11-14 19:00;METAR CYEG 141900Z 27002KT 15SM FEW079 SCT095 BKN220 01/M04 A2995 RMK AC2AC2CI1 SLP177
CYEG;2002-11-14 20:00;METAR CYEG 142000Z 30004KT 15SM BKN082 BKN250 01/M04 A2996 RMK AC6CI1 SLP179
CYEG;2002-11-14 21:00;METAR CYEG 142100Z 00000KT 15SM BKN092 BKN250 02/M04 A2995 RMK AC6CI1
CYEG;2002-11-14 22:00;METAR CYEG 142200Z 00000KT 15SM BKN093 BKN250 03/M04 A2995 RMK AC3CI1
CYEG;2002-11-14 23:00;METAR CYEG 142300Z 00000KT 15SM BKN097 BKN250 01/M04 A2996 RMK AC5CI0 SLP180
CYEG;2002-11-15 00:00;METAR CYEG 150000Z 21005KT 15SM BKN057 BKN097 BKN250 M01/M05 A2997 RMK SC6AC1CI1 SLP185 SLP185
CYEG;2002-11-15 01:00;METAR CYEG 150100Z 21004KT 15SM SCT057 OVC100 M01/M05 A2998 RMK SC3AC4 SLP188
CYEG;2002-11-15 02:00;METAR CYEG 150200Z 18003KT 15SM FEW057 BKN090 OVC110 M02/M06 A2999 RMK SC2AC3AC2 SLP190 SLP190
CYEG;2002-11-15 03:00;METAR CYEG 150300Z 22003KT 15SM -FZRA SCT035 SCT055 OVC090 M00/M05 A3000 RMK SC3SC1AS3 SLP192 SC3SC1AS3 SLP192 RMK SC2SC2AS3 MOON DMLY VISBL SLP196
CYEG;2002-11-15 05:00;METAR CYEG 150500Z 24004KT 15SM FEW060 SCT090 01/M02 A3001 RMK SC2AC1 SLP195
CYEG;2002-11-15 07:00;METAR CYEG 150700Z 25007KT 15SM FEW050 BKN065 M02/M05 A3003 RMK SC2SC3 SLP204
CYEG;2002-11-15 08:00;METAR CYEG 150800Z 22004KT 15SM FEW065 SCT250 M03/M06 A3003 RMK SC1CI0 SLP205
CYEG;2002-11-15 09:00;METAR CYEG 150900Z 26002KT 15SM FEW090 BKN220 M04/M06 A3004 RMK AC2CI1 SLP209
CYEG;2002-11-15 10:00;METAR CYEG 151000Z 25008KT 15SM FEW090 BKN240 M04/M06 A3006 RMK AC1CI2 SLP214
CYEG;2002-11-15 11:00;METAR CYEG 151100Z 22004KT 15SM BKN240 M04/M07 A3004 RMK CI2 FROIN SLP209
CYEG;2002-11-15 12:00;METAR CYEG 151200Z 25005KT 15SM SCT240 M06/M09 A3005 RMK CI1 SLP215
CYEG;2002-11-15 13:00;METAR CYEG 151300Z 22006KT 15SM FEW240 M07/M10 A3004 RMK CI1 SLP213
CYEG;2002-11-15 14:00;METAR CYEG 151400Z 20006KT 15SM FEW240 M06/M09 A3003 RMK CI1 SLP211
CYEG;2002-11-15 16:00;METAR CYEG 151600Z 19006KT 15SM FEW100 SCT240 M06/M10 A3002 RMK AC1CI2 SLP206
CYEG;2002-11-15 17:00;METAR CYEG 151700Z 20005KT 15SM FEW100 BKN240 M02/M07 A3002 RMK AC1CI3
CYEG;2002-11-15 18:00;METAR CYEG 151800Z 19003KT 15SM BKN240 M02/M06 A3002 RMK CI4 SLP201
CYEG;2002-11-15 19:00;METAR CYEG 151900Z 00000KT 15SM BKN170 M02/M06 A3001 RMK AS6 SLP197
CYEG;2002-11-15 20:00;METAR CYEG 152000Z 16002KT 15SM FEW090 BKN150 03/M03 A2999 RMK AC1AS6 SLP192
CYEG;2002-11-15 21:00;METAR CYEG 152100Z 00000KT 15SM FEW090 BKN140 02/M03 A2998 RMK AC1AS6
CYEG;2002-11-15 22:00;METAR CYEG 152200Z 17005KT 15SM FEW090 FEW150 BKN240 02/M03 A2996 RMK AC1AS1CI1 SLP181 SLP181
CYEG;2002-11-15 23:00;METAR CYEG 152300Z 18003KT 15SM FEW090 FEW150 BKN240 01/M04 A2996 RMK AC1AS1CI0 SLP182 SLP182
CYEG;2002-11-16 00:00;METAR CYEG 160000Z 17005KT 15SM FEW100 FEW150 BKN240 M03/M07 A2996 RMK AC1AS1CI0 SLP186 SLP186
CYEG;2002-11-16 01:00;METAR CYEG 160100Z 17004KT 15SM FEW100 BKN240 M04/M08 A2994 RMK AC1CI1 SLP180
CYEG;2002-11-16 02:00;METAR CYEG 160200Z 18008KT 15SM FEW100 SCT240 M03/M08 A2991 RMK AC1CI2 SLP172
CYEG;2002-11-16 03:00;METAR CYEG 160300Z 18005KT 15SM FEW100 BKN250 M03/M08 A2989 RMK AC1CI3 SLP163
CYEG;2002-11-16 04:00;METAR CYEG 160400Z 17004KT 15SM FEW100 BKN240 M05/M09 A2989 RMK AC1CI5
CYEG;2002-11-16 05:00;METAR CYEG 160500Z 14006KT 15SM FEW100 BKN240 M05/M08 A2989 RMK AC1CI5 SLP161
CYEG;2002-11-16 06:00;METAR CYEG 160600Z 16004KT 15SM FEW100 BKN240 M06/M09 A2986 RMK AC1CI5 SLP152
CYEG;2002-11-16 07:00;METAR CYEG 160700Z 14006KT 15SM OVC210 M06/M09 A2984 RMK CS5 SLP145
CYEG;2002-11-16 08:00;METAR CYEG 160800Z 15005KT 15SM OVC180 M05/M09 A2982 RMK AS6 SLP137
CYEG;2002-11-16 09:00;METAR CYEG 160900Z 17007KT 15SM OVC150 M03/M07 A2979 RMK AS6 SLP120
CYEG;2002-11-16 10:00;METAR CYEG 161000Z 17003KT 15SM OVC180 M04/M07 A2976 RMK AS5 SLP112
CYEG;2002-11-16 11:00;METAR CYEG 161100Z 16009KT 15SM OVC150 M00/M06 A2973 RMK AS8 SLP102
CYEG;2002-11-16 12:00;METAR CYEG 161200Z 12007KT 15SM OVC120 M01/M05 A2969 RMK AS8 SLP090
CYEG;2002-11-16 13:00;METAR CYEG 161300Z 14004KT 15SM OVC120 M02/M06 A2967 RMK AS8 SLP083
CYEG;2002-11-16 14:00;METAR CYEG 161400Z 14009KT 15SM OVC100 M02/M06 A2964 RMK AC8 SLP075
CYEG;2002-11-16 15:00;METAR CYEG 161500Z 13009KT 15SM SCT090 BKN180 OVC230 M03/M07 A2960 RMK AC2AS2CI2 SLP060 SLP060
CYEG;2002-11-16 16:00;METAR CYEG 161600Z 14008KT 15SM FEW090 SCT180 OVC270 M02/M07 A2956 RMK AC1AS2CI2 VIRGA NW SLP047
CYEG;2002-11-16 17:00;METAR CYEG 161700Z 16009KT 15SM FEW090 BKN180 OVC270 M01/M06 A2954 RMK AC1AS3CI2 SLP040 SLP040
CYEG;2002-11-16 18:00;METAR CYEG 161800Z 15014KT 15SM FEW090 BKN200 OVC270 M00/M06 A2949 RMK AC2CI2CI4 SLP021 SLP021
CYEG;2002-11-16 19:00;METAR CYEG 161900Z 14008KT 15SM FEW100 BKN180 OVC270 00/M05 A2945 RMK AC2AS3CI2 SLP010 SLP010
CYEG;2002-11-16 20:00;METAR CYEG 162000Z 13009KT 15SM FEW100 BKN210 OVC270 00/M04 A2941 RMK AC2CI4CI2 SLP997 SLP997
CYEG;2002-11-16 21:00;METAR CYEG 162100Z 14012KT 15SM FEW100 BKN160 OVC240 01/M04 A2937 RMK AC2AS2CS4 SLP977 SLP977
CYEG;2002-11-16 22:00;METAR CYEG 162200Z 13010KT 15SM FEW040 SCT160 BKN210 02/M03 A2934 RMK SC1AS2CS5 SLP966 SLP966
CYEG;2002-11-16 23:00;METAR CYEG 162300Z 13010KT 15SM FEW040 FEW160 BKN240 01/M03 A2931 RMK SC1AC2CS6 SLP956 SLP956
CYEG;2002-11-17 00:00;METAR CYEG 170000Z 13007KT 15SM FEW040 SCT160 BKN240 01/M04 A2928 RMK SC1AC2CS3 SLP944
CYEG;2002-11-17 01:00;METAR CYEG 170100Z 16007KT 15SM SCT140 BKN240 02/M04 A2925 RMK AC2CI2 SLP933
CYEG;2002-11-17 02:00;METAR CYEG 170200Z 20007KT 15SM SCT140 BKN240 01/M05 A2922 RMK AC2CI1 SLP926
CYEG;2002-11-17 03:00;METAR CYEG 170300Z 16002KT 15SM BKN140 BKN240 03/M05 A2921 RMK AC5CI0 SLP921
CYEG;2002-11-17 04:00;METAR CYEG 170400Z 35003KT 15SM FEW140 BKN240 01/M07 A2923 RMK AC2CI0 SLP925
CYEG;2002-11-17 05:00;METAR CYEG 170500Z 05005KT 15SM BKN240 M04/M08 A2923 RMK CI1 SLP926
CYEG;2002-11-17 06:00;METAR CYEG 170600Z 09003KT 15SM BKN240 M07/M10 A2924 RMK CI5 SLP937
CYEG;2002-11-17 07:00;METAR CYEG 170700Z 20004KT 15SM BKN180 BKN240 M05/M09 A2926 RMK AC5CI1 SLP941
CYEG;2002-11-17 08:00;METAR CYEG 170800Z 18007KT 15SM SCT150 BKN240 M05/M08 A2926 RMK AC2CI2 SLP943
CYEG;2002-11-17 09:00;METAR CYEG 170900Z 20008KT 15SM BKN120 OVC240 M02/M06 A2928 RMK AC7CI1 VIRGA SLP944 SLP944 SHRA E / VIRGA PRESSRR SLP970
CYEG;2002-11-17 11:00;METAR CYEG 171100Z 28017G24KT 15SM SCT060 OVC085 06/M05 A2940 RMK SC3AC5 VIRGA SLP981 SLP981
CYEG;2002-11-17 12:00;METAR CYEG 171200Z 27009KT 15SM FEW060 OVC100 04/M04 A2940 RMK SC2AC6 VIRGA
CYEG;2002-11-17 13:00;METAR CYEG 171300Z 26008KT 15SM OVC120 02/M03 A2943 RMK AC8 VIRGA SLP989
CYEG;2002-11-17 14:00;METAR CYEG 171400Z 25006KT 15SM BKN150 00/M04 A2944 RMK AC6 VIRGA SLP992
CYEG;2002-11-17 16:00;METAR CYEG 171600Z 25013KT 15SM FEW100 BKN150 02/M06 A2949 RMK AC1AC3 SLP011
CYEG;2002-11-17 17:00;METAR CYEG 171700Z 27014KT 15SM BKN150 BKN200 04/M06 A2951 RMK AC4CI0 SLP019 SLP034
CYEG;2002-11-17 19:00;METAR CYEG 171900Z 27014G20KT 15SM SCT150 SCT200 05/M06 A2955 RMK AC2CI0
CYEG;2002-11-17 20:00;METAR CYEG 172000Z 27010KT 15SM SCT150 BKN200 05/M05 A2956 RMK AC2CI0 SLP042
CYEG;2002-11-17 21:00;METAR CYEG 172100Z 29010KT 15SM FEW070 FEW150 SCT200 06/M05 A2958 RMK AC2AC1CI0 SLP042
CYEG;2002-11-17 22:00;METAR CYEG 172200Z 26006KT 15SM FEW070 FEW150 SCT200 04/M05 A2958 RMK AC1AC1CI0 SLP045 SLP045
CYEG;2002-11-17 23:00;METAR CYEG 172300Z 21005KT 15SM FEW070 FEW150 BKN200 03/M06 A2960 RMK AC1AC1CI1 SLP049 SLP049
CYEG;2002-11-18 00:00;METAR CYEG 180000Z 23006KT 15SM FEW070 FEW150 SCT200 M00/M07 A2961 RMK AC1AC2CI0 SLP053 SLP053
CYEG;2002-11-18 01:00;METAR CYEG 180100Z 21006KT 15SM BKN080 BKN150 01/M06 A2961 RMK AC5AC2 SLP055
CYEG;2002-11-18 02:00;METAR CYEG 180200Z 22005KT 15SM BKN084 OVC150 02/M06 A2961 RMK AC6AC1 SLP054
CYEG;2002-11-18 03:00;METAR CYEG 180300Z 20006KT 15SM BKN084 OVC150 02/M05 A2960 RMK AC6AC1 SLP052
CYEG;2002-11-18 04:00;METAR CYEG 180400Z 20005KT 15SM SCT080 OVC220 00/M07 A2960 RMK AC2CI2
CYEG;2002-11-18 05:00;METAR CYEG 180500Z 18005KT 15SM BKN074 OVC220 M00/M06 A2960 RMK AC6CI2
CYEG;2002-11-18 06:00;METAR CYEG 180600Z 22003KT 15SM BKN069 OVC110 02/M06 A2961 RMK AC7AC1 SLP051
CYEG;2002-11-18 07:00;METAR CYEG 180700Z 22006KT 15SM BKN063 OVC090 03/M05 A2960 RMK SC6AS2 SLP049
CYEG;2002-11-18 08:00;METAR CYEG 180800Z 21006KT 15SM BKN120 OVC250 04/M06 A2960 RMK AC6CI1 SLP047
CYEG;2002-11-18 09:00;METAR CYEG 180900Z 20007KT 15SM FEW070 BKN110 OVC250 02/M05 A2961 RMK AC2AC6CI1 SLP052
CYEG;2002-11-18 10:00;METAR CYEG 181000Z 21003KT 15SM SCT090 BKN120 OVC250 02/M05 A2963 RMK AC2AC4CI1 SLP058 SLP058
CYEG;2002-11-18 11:00;METAR CYEG 181100Z 27004KT 15SM SCT090 BKN120 OVC250 01/M05 A2965 RMK AC2AC3CI1 SLP063 SLP063
CYEG;2002-11-18 12:00;METAR CYEG 181200Z 27007KT 15SM BKN084 BKN120 OVC250 03/M05 A2967 RMK AC5AC1CI1 SLP075 SLP075
CYEG;2002-11-18 13:00;METAR CYEG 181300Z 26007KT 15SM FEW085 BKN120 BKN250 01/M06 A2968 RMK AC2AC3CI0 SLP079 SLP079
CYEG;2002-11-18 14:00;METAR CYEG 181400Z 26006KT 15SM FEW085 BKN110 BKN250 01/M06 A2970 RMK AC1AC4CI0 SLP084 SLP084
CYEG;2002-11-18 15:00;METAR CYEG 181500Z 26003KT 15SM BKN090 BKN250 01/M06 A2972 RMK AC4CI0 SLP093
CYEG;2002-11-18 16:00;METAR CYEG 181600Z 26004KT 15SM BKN092 BKN250 02/M05 A2973 RMK AC4CI1 SLP098
CYEG;2002-11-18 17:00;METAR CYEG 181700Z 24004KT 15SM BKN092 BKN250 04/M04 A2975 RMK AC2CI1 SLP103
CYEG;2002-11-18 18:00;METAR CYEG 181800Z 27004KT 15SM FEW092 SCT250 04/M04 A2976 RMK AC2CI1
CYEG;2002-11-18 19:00;METAR CYEG 181900Z 26003KT 15SM FEW092 BKN250 04/M04 A2976 RMK AC2CI1 SLP102
CYEG;2002-11-18 20:00;METAR CYEG 182000Z 21003KT 15SM FEW090 BKN210 02/M05 A2974 RMK AC1CI2
CYEG;2002-11-18 21:00;METAR CYEG 182100Z 18005KT 15SM FEW090 BKN210 02/M05 A2974 RMK AC1CI3 SLP100
CYEG;2002-11-18 22:00;METAR CYEG 182200Z 18006KT 15SM FEW090 BKN210 02/M04 A2973 RMK AC1CI5 SLP096
CYEG;2002-11-18 23:00;METAR CYEG 182300Z 17005KT 15SM FEW090 BKN210 02/M05 A2974 RMK AC1CI2
CYEG;2002-11-19 00:00;METAR CYEG 190000Z 15007KT 15SM FEW090 BKN240 00/M06 A2973 RMK AC2CI1 SLP096
CYEG;2002-11-19 01:00;METAR CYEG 190100Z 16010KT 15SM FEW090 SCT240 03/M05 A2971 RMK AC2CI1 SLP090
CYEG;2002-11-19 02:00;METAR CYEG 190200Z 16008KT 15SM FEW097 BKN240 01/M06 A2970 RMK AC2CI2 SLP086
CYEG;2002-11-19 03:00;METAR CYEG 190300Z 17009KT 15SM FEW076 SCT110 BKN240 01/M06 A2969 RMK AC2AC2CI2 SLP082 SLP082
CYEG;2002-11-19 04:00;METAR CYEG 190400Z 17007KT 15SM SCT070 BKN100 OVC120 01/M05 A2968 RMK AC3AC2AC2 VIRGA N-NE SLP081 VIRGA N-NE SLP081
CYEG;2002-11-19 05:00;METAR CYEG 190500Z 18004KT 15SM FEW070 BKN100 OVC130 01/M04 A2968 RMK AC2AC5AC1 VIRGA NE SLP080 VIRGA NE SLP080
CYEG;2002-11-19 06:00;METAR CYEG 190600Z 18003KT 15SM BKN083 OVC130 01/M04 A2968 RMK AC7AC1 VIRGA SLP077 SLP073
CYEG;2002-11-19 08:00;METAR CYEG 190800Z 21004KT 15SM BKN088 OVC130 M01/M04 A2968 RMK AC7AC1 VIRGA N SLP078 SLP078
CYEG;2002-11-19 09:00;METAR CYEG 190900Z 22003KT 15SM FEW088 BKN130 BKN240 01/M04 A2969 RMK AC2AC4CI1 VIRGA N SLP084 VIRGA N SLP084
CYEG;2002-11-19 10:00;METAR CYEG 191000Z 20003KT 15SM FEW088 BKN120 01/M05 A2970 RMK AC1AC4 SLP088
CYEG;2002-11-19 11:00;METAR CYEG 191100Z 21003KT 15SM BKN082 OVC120 00/M06 A2972 RMK AC6AC2 SLP093
CYEG;2002-11-19 12:00;METAR CYEG 191200Z 24007KT 15SM FEW082 SCT130 BKN240 02/M05 A2973 RMK AC1AC2CI1 SLP096
CYEG;2002-11-19 13:00;METAR CYEG 191300Z 22003KT 15SM BKN080 BKN130 BKN210 M01/M06 A2976 RMK AC6AC1CI1 SLP107 SLP107
CYEG;2002-11-19 14:00;METAR CYEG 191400Z 26007KT 15SM BKN079 BKN130 02/M04 A2980 RMK AC6AC1 SLP119
CYEG;2002-11-19 15:00;METAR CYEG 191500Z 27008KT 15SM BKN085 OVC220 04/M03 A2981 RMK AC6CI1 VIRGA NE-E SLP123 SLP123
CYEG;2002-11-19 16:00;METAR CYEG 191600Z 24004KT 15SM SCT085 BKN180 BKN210 04/M03 A2983 RMK AC2AS2CI2 VIRGA W-N SLP128 VIRGA W-N SLP128
CYEG;2002-11-19 17:00;METAR CYEG 191700Z 21005KT 15SM FEW085 SCT170 BKN210 03/M03 A2984 RMK AC1AS2CI2 SLP131 SLP131
CYEG;2002-11-19 18:00;METAR CYEG 191800Z 25009KT 15SM FEW085 BKN190 BKN220 05/M03 A2986 RMK AC1AC5CI1 SLP140 SLP140
CYEG;2002-11-19 19:00;METAR CYEG 191900Z 25006KT 15SM FEW090 BKN190 BKN220 06/M02 A2986 RMK AC2AC2CI1 SLP140
CYEG;2002-11-19 20:00;METAR CYEG 192000Z 23006KT 15SM FEW090 BKN180 05/M02 A2988 RMK AC2AC6 SLP145
CYEG;2002-11-19 21:00;METAR CYEG 192100Z 24004KT 15SM FEW090 BKN160 BKN220 05/M02 A2989 RMK AC1AC5CI1 VIRGA SW-W SLP150 VIRGA SW-W SLP150
CYEG;2002-11-19 22:00;METAR CYEG 192200Z 20004KT 15SM FEW090 BKN160 BKN210 05/M02 A2991 RMK AC1AC5CI1 VIRGA NW-SE SLP154 VIRGA NW-SE SLP154
CYEG;2002-11-19 23:00;METAR CYEG 192300Z 23002KT 15SM BKN110 BKN210 04/M02 A2991 RMK AC6CI1 VIRGA NE SLP156 SLP156
CYEG;2002-11-20 01:00;METAR CYEG 200100Z 17004KT 15SM BKN120 BKN170 OVC210 03/M02 A2992 RMK AC6AC1CI1 VIRGA NW-N SLP158 VIRGA NW-N SLP158
CYEG;2002-11-20 02:00;METAR CYEG 200200Z 11004KT 15SM BKN120 OVC160 04/M02 A2993 RMK AC6AC2 SLP163
CYEG;2002-11-20 03:00;METAR CYEG 200300Z 19009KT 15SM BKN110 OVC160 04/M02 A2993 RMK AC6AC2 VIRGA N QUAD SLP161 QUAD SLP161
CYEG;2002-11-20 04:00;METAR CYEG 200400Z 23005KT 15SM -SHRA FEW062 BKN079 OVC110 03/M02 A2995 RMK SC2AC4AC2 SLP165
CYEG;2002-11-20 05:00;METAR CYEG 200500Z 16005KT 15SM -SHRA SCT062 BKN093 OVC130 04/M01 A2993 RMK SC3AC2AC2 SLP159
CYEG;2002-11-20 06:00;METAR CYEG 200600Z 19008KT 15SM BKN078 OVC130 05/M02 A2993 RMK AC7AC1 VIRGA SLP160
CYEG;2002-11-20 07:00;METAR CYEG 200700Z 18011KT 15SM -SHRA BKN075 OVC110 04/M02 A2993 RMK AC6AC2 SLP158
CYEG;2002-11-20 08:00;METAR CYEG 200800Z 22005KT 15SM BKN081 OVC110 07/M01 A2996 RMK AC7AC1 XTNSV VIRGA SLP168 SLP168
CYEG;2002-11-20 09:00;METAR CYEG 200900Z 00000KT 15SM BKN077 OVC110 05/M02 A2996 RMK AC6AC2 VIRGA SLP170
CYEG;2002-11-20 10:00;METAR CYEG 201000Z 25002KT 15SM BKN085 BKN110 OVC160 03/M02 A2998 RMK AC6AC2AC1 SLP177 SLP177
CYEG;2002-11-20 11:00;METAR CYEG 201100Z 23004KT 15SM FEW075 BKN099 OVC120 05/M01 A3001 RMK AC2AC4AC2 VIRGA SLP184 VIRGA SLP184
CYEG;2002-11-20 12:00;METAR CYEG 201200Z 20004KT 15SM BKN087 OVC120 04/M01 A3002 RMK AC5AC2 VIRGA N SLP191 SLP191
CYEG;2002-11-20 13:00;METAR CYEG 201300Z 20004KT 15SM BKN091 BKN120 OVC250 03/M02 A3004 RMK AC5AC2CI1 SLP197 SLP197
CYEG;2002-11-20 14:00;METAR CYEG 201400Z 21004KT 15SM SCT091 BKN120 BKN250 04/M01 A3005 RMK AC2AC1CI1 TR CI SLP200
CYEG;2002-11-20 15:00;METAR CYEG 201500Z 22002KT 15SM FEW092 SCT250 04/M02 A3005 RMK AC2CI0 SLP202
CYEG;2002-11-20 16:00;METAR CYEG 201600Z 28004KT 15SM FEW090 FEW250 03/M02 A3008 RMK AC1CI1 SLP211
CYEG;2002-11-20 17:00;METAR CYEG 201700Z 25004KT 15SM BKN090 BKN250 06/M00 A3011 RMK AC5CI1 TR CI SLP221
CYEG;2002-11-20 18:00;METAR CYEG 201800Z 27003KT 15SM BKN088 BKN250 07/01 A3013 RMK AC3CI1 TR CI SLP224
CYEG;2002-11-20 19:00;METAR CYEG 201900Z 30003KT 15SM FEW090 09/01 A3013 RMK AC1 SLP225
CYEG;2002-11-20 20:00;METAR CYEG 202000Z 27002KT 15SM FEW090 10/01 A3015 RMK AC1 SLP230
CYEG;2002-11-20 21:00;METAR CYEG 202100Z 00000KT 15SM SCT100 10/02 A3015 RMK AC2 SLP231
CYEG;2002-11-20 22:00;METAR CYEG 202200Z 00000KT 15SM FEW100 10/02 A3015 RMK AC1 SLP232
CYEG;2002-11-20 23:00;METAR CYEG 202300Z 00000KT 15SM FEW100 08/01 A3017 RMK AC1 SLP237
CYEG;2002-11-21 00:00;METAR CYEG 210000Z 18002KT 15SM FEW100 FEW250 05/00 A3017 RMK AC1CI0 SLP243
CYEG;2002-11-21 01:00;METAR CYEG 210100Z 00000KT 15SM SCT130 02/M01 A3018 RMK AC2 SLP244
CYEG;2002-11-21 02:00;METAR CYEG 210200Z 18004KT 15SM FEW130 FEW250 01/M02 A3017 RMK AC1CI0
CYEG;2002-11-21 03:00;METAR CYEG 210300Z 17006KT 15SM FEW130 FEW250 01/M02 A3017 RMK AC1CI0 TR AC SLP245
CYEG;2002-11-21 04:00;METAR CYEG 210400Z 15006KT 15SM FEW120 FEW250 04/M01 A3016 RMK AC1CI0 TR AC SLP242
CYEG;2002-11-21 05:00;METAR CYEG 210500Z 13005KT 15SM FEW250 02/M02 A3015 RMK CI1 SLP239
CYEG;2002-11-21 06:00;METAR CYEG 210600Z 16008KT 15SM FEW090 BKN240 05/00 A3014 RMK AC1CI2 SLP228
CYEG;2002-11-21 07:00;METAR CYEG 210700Z 17007KT 15SM FEW090 BKN240 03/M01 A3012 RMK AC1CI2 SLP222
CYEG;2002-11-21 08:00;METAR CYEG 210800Z 16003KT 15SM BKN220 02/M01 A3009 RMK CI3 SLP215
CYEG;2002-11-21 09:00;METAR CYEG 210900Z 18006KT 15SM BKN210 BKN240 02/M01 A3008 RMK CI3CI2 SLP209
CYEG;2002-11-21 10:00;METAR CYEG 211000Z 14009KT 15SM FEW210 BKN240 00/M02 A3005 RMK CI2CI2 SLP201
CYEG;2002-11-21 11:00;METAR CYEG 211100Z 16003KT 15SM FEW200 BKN240 01/M02 A3002 RMK CI1CI2 SLP192
CYEG;2002-11-21 12:00;METAR CYEG 211200Z 16008KT 15SM FEW200 BKN240 02/M02 A2999 RMK CI2CI2 SLP184
CYEG;2002-11-21 13:00;METAR CYEG 211300Z 16004KT 15SM FEW200 BKN240 01/M02 A2997 RMK CI2CI4 SLP177
CYEG;2002-11-21 14:00;METAR CYEG 211400Z 18005KT 15SM FEW180 BKN240 02/M02 A2994 RMK AC1CI6 SLP167
CYEG;2002-11-21 15:00;METAR CYEG 211500Z 17005KT 15SM BKN240 BKN300 00/M03 A2992 RMK CI5CI2 SLP163
CYEG;2002-11-21 16:00;METAR CYEG 211600Z 15005KT 15SM SCT180 BKN240 BKN300 00/M04 A2990 RMK AC2CI2CI2 SLP158 SLP158
CYEG;2002-11-21 17:00;METAR CYEG 211700Z 17005KT 15SM BKN200 BKN300 01/M03 A2988 RMK CI4CI3 SLP151
CYEG;2002-11-21 18:00;METAR CYEG 211800Z 18006KT 15SM SCT200 BKN240 BKN300 03/M02 A2987 RMK CI2CI3CI2 SLP139 SLP139
CYEG;2002-11-21 19:00;METAR CYEG 211900Z 18007KT 15SM SCT180 BKN240 BKN300 03/M02 A2984 RMK AC2CI3CI2 SLP130 SLP130
CYEG;2002-11-21 20:00;METAR CYEG 212000Z 18006KT 15SM SCT180 BKN240 BKN300 04/M01 A2982 RMK AC2CI2CI2 SLP123 SLP123 CU1AC2CI3CI2 TR CU W HRZN SLP115
CYEG;2002-11-21 22:00;METAR CYEG 212200Z 18004KT 15SM FEW025 FEW150 BKN240 BKN300 04/M01 A2977 RMK CU1AC2CI3CI1 TR CU W HRZN SLP106 CU1AC2CI3CI1 TR CU W HRZN SLP106
CYEG;2002-11-21 23:00;METAR CYEG 212300Z 18006KT 15SM FEW025 FEW180 BKN240 BKN300 04/M01 A2974 RMK CU1AC2CI2CI1 TR CU W SLP097 CU1AC2CI2CI1 TR CU W SLP097
CYEG;2002-11-22 00:00;METAR CYEG 220000Z 18008KT 15SM FEW025 FEW180 SCT220 04/M02 A2972 RMK CU1AC2CI1 SLP090 SLP090
CYEG;2002-11-22 01:00;METAR CYEG 220100Z 17005KT 15SM FEW025 FEW180 FEW220 03/M02 A2969 RMK SC1AC1CI1 TR SC W SLP081 TR SC W SLP081
CYEG;2002-11-22 02:00;METAR CYEG 220200Z 18004KT 15SM FEW050 FEW180 FEW220 01/M03 A2967 RMK SC1AC1CI0 SLP075 SLP075
CYEG;2002-11-22 03:00;METAR CYEG 220300Z 10002KT 15SM FEW120 SCT210 02/M02 A2966 RMK AC2CI2 SLP074
CYEG;2002-11-22 04:00;METAR CYEG 220400Z 00000KT 15SM FEW140 SCT210 M00/M04 A2969 RMK AC2CI1 SLP083
CYEG;2002-11-22 05:00;METAR CYEG 220500Z 30008KT 15SM FEW140 SCT220 06/M01 A2972 RMK AC2CI1 SLP091
CYEG;2002-11-22 06:00;METAR CYEG 220600Z 35009KT 15SM BKN140 BKN220 07/M02 A2974 RMK AC6CI1 SLP095
CYEG;2002-11-22 07:00;METAR CYEG 220700Z 31009KT 15SM BKN120 08/M01 A2979 RMK AC7 VIRGA SLP109
CYEG;2002-11-22 08:00;METAR CYEG 220800Z 32012G20KT 15SM FEW080 BKN120 08/M01 A2982 RMK AC2AC6 VIRGA SLP118 SLP118
CYEG;2002-11-22 09:00;METAR CYEG 220900Z 33013G18KT 15SM FEW085 BKN110 07/M02 A2987 RMK AC2AC4 SLP136
CYEG;2002-11-22 10:00;METAR CYEG 221000Z 30010G15KT 15SM FEW085 BKN120 05/M03 A2990 RMK AC2AC4 SLP148
CYEG;2002-11-22 11:00;METAR CYEG 221100Z 30010G15KT 15SM FEW130 04/M03 A2993 RMK AC2 SLP156
CYEG;2002-11-22 12:00;METAR CYEG 221200Z 31018G24KT 15SM FEW130 05/M03 A2996 RMK AC1 SLP169
CYEG;2002-11-22 13:00;METAR CYEG 221300Z 31012G19KT 15SM FEW140 03/M04 A3000 RMK AC1 SLP182
CYEG;2002-11-22 14:00;METAR CYEG 221400Z 30017G22KT 15SM SKC 03/M04 A3002 RMK SLP191
CYEG;2002-11-22 15:00;METAR CYEG 221500Z 29017KT 15SM FEW040 02/M04 A3004 RMK SC1 PK G PST HR 26 KTS SLP202 SLP202
CYEG;2002-11-22 16:00;METAR CYEG 221600Z 31025G34KT 15SM FEW040 02/M05 A3008 RMK SC1 SLP215
CYEG;2002-11-22 17:00;METAR CYEG 221700Z 31020G25KT 15SM FEW040 02/M05 A3012 RMK SC1 TR SC NE SLP226
CYEG;2002-11-22 18:00;METAR CYEG 221800Z 30019G29KT 15SM FEW035 FEW040 FEW300 03/M06 A3015 RMK CF1SC1CI1 TR CLD SLP234
CYEG;2002-11-22 19:00;METAR CYEG 221900Z 31017G27KT 15SM FEW035 FEW300 03/M06 A3017 RMK CF1CI1 TR CLD SLP241 SLP241
CYEG;2002-11-22 20:00;METAR CYEG 222000Z 31015G24KT 15SM FEW035 FEW300 03/M06 A3018 RMK CF1CI1 TR CLD SLP245 SLP245
CYEG;2002-11-22 21:00;METAR CYEG 222100Z 30014G22KT 15SM FEW040 FEW300 03/M06 A3019 RMK CF1CI1 TR CLD SLP248 SLP248
CYEG;2002-11-22 22:00;METAR CYEG 222200Z 31016KT 15SM FEW040 FEW300 03/M06 A3021 RMK SC1CI1 TR CLD SLP253 SLP253
CYEG;2002-11-22 23:00;METAR CYEG 222300Z 31018G24KT 15SM FEW300 02/M08 A3022 RMK CI1 TR CI SLP259
CYEG;2002-11-23 00:00;METAR CYEG 230000Z 31012KT 15SM FEW300 01/M08 A3025 RMK CI1 SLP273
CYEG;2002-11-23 01:00;METAR CYEG 230100Z 31008KT 15SM FEW300 M00/M08 A3026 RMK CI1 SLP277
CYEG;2002-11-23 02:00;METAR CYEG 230200Z 31007KT 15SM FEW300 M01/M08 A3027 RMK CI1 SLP280
CYEG;2002-11-23 03:00;METAR CYEG 230300Z 32004KT 15SM FEW210 M03/M09 A3028 RMK CI0 SLP291
CYEG;2002-11-23 04:00;METAR CYEG 230400Z 32006KT 15SM FEW210 M03/M09 A3030 RMK CI0 SLP295
CYEG;2002-11-23 05:00;METAR CYEG 230500Z 31003KT 15SM FEW210 M04/M09 A3031 RMK CI0 SLP300
CYEG;2002-11-23 06:00;METAR CYEG 230600Z 34004KT 15SM FEW210 M04/M09 A3034 RMK CI0 SLP309
CYEG;2002-11-23 07:00;METAR CYEG 230700Z 31003KT 15SM FEW210 M05/M09 A3035 RMK CI0 SLP313
CYEG;2002-11-23 08:00;METAR CYEG 230800Z 33003KT 15SM FEW210 M05/M09 A3036 RMK CI0 SLP316
CYEG;2002-11-23 09:00;METAR CYEG 230900Z 34005KT 15SM FEW210 M06/M10 A3035 RMK CI1 SLP318
CYEG;2002-11-23 10:00;METAR CYEG 231000Z 31003KT 15SM SKC M08/M11 A3037 RMK SLP323
CYEG;2002-11-23 11:00;METAR CYEG 231100Z 32004KT 15SM FEW210 M08/M11 A3037 RMK CI1 SLP324
CYEG;2002-11-23 12:00;METAR CYEG 231200Z 30004KT 15SM FEW210 M07/M11 A3038 RMK CI1 SLP330
CYEG;2002-11-23 13:00;METAR CYEG 231300Z 28003KT 15SM FEW240 M09/M12 A3039 RMK CI0 FROIN SLP332
CYEG;2002-11-23 15:00;METAR CYEG 231500Z CCA 29004KT 15SM FEW240 M10/M13 A3040 RMK CI1 FROIN SLP343
CYEG;2002-11-23 16:00;METAR CYEG 231600Z 32003KT 15SM FEW030 FEW240 M09/M12 A3042 RMK SC1CI1 SLP349
CYEG;2002-11-23 17:00;METAR CYEG 231700Z 33004KT 15SM FEW030 FEW100 FEW240 M06/M09 A3043 RMK SC1AS1CI1 SLP351 SLP351
CYEG;2002-11-23 18:00;METAR CYEG 231800Z 34005KT 15SM FEW020 FEW240 M05/M09 A3043 RMK SC1CI1
CYEG;2002-11-23 19:00;METAR CYEG 231900Z 33004KT 15SM FEW008 FEW240 M04/M08 A3042 RMK SC1CI1 SLP347
CYEG;2002-11-23 20:00;METAR CYEG 232000Z 36002KT 15SM FEW008 FEW240 M03/M08 A3041 RMK SC1CI1 SLP344
CYEG;2002-11-23 21:00;METAR CYEG 232100Z 02003KT 15SM FEW008 FEW240 M03/M08 A3040 RMK SC1CI1 SLP341
CYEG;2002-11-23 22:00;METAR CYEG 232200Z 01003KT 15SM FEW008 FEW100 FEW240 M03/M08 A3041 RMK ST1AC1CI1 SLP342 SLP342
CYEG;2002-11-23 23:00;METAR CYEG 232300Z 08004KT 15SM FEW008 BKN240 M04/M09 A3040 RMK ST1CI1
CYEG;2002-11-24 00:00;METAR CYEG 240000Z 10004KT 15SM FEW160 BKN250 M07/M10 A3040 RMK AC0CI2 SLP343
CYEG;2002-11-24 01:00;METAR CYEG 240100Z 12007KT 15SM SCT240 M08/M11 A3039 RMK CI1 SLP339
CYEG;2002-11-24 02:00;METAR CYEG 240200Z 14005KT 15SM BKN240 M09/M12 A3039 RMK CI1 SLP339
CYEG;2002-11-24 03:00;METAR CYEG 240300Z 15007KT 15SM FEW240 M08/M11 A3038 RMK CI0 FROIN SLP340
CYEG;2002-11-24 04:00;METAR CYEG 240400Z 15005KT 15SM FEW240 M09/M12 A3038 RMK CI0 FROIN SLP341
CYEG;2002-11-24 05:00;METAR CYEG 240500Z 15005KT 2SM R30/6000FT BR OVC002 M09/M12 A3038 RMK FG2SF4 SLP341 SLP341
CYEG;2002-11-24 06:00;METAR CYEG 240600Z CCA 16006KT 1SM R30/4000FT R02/P6000FT BR OVC002 M09/M11 RMK FG2SF6 SLP335 RMK FG2SF6 FROIN SLP335
CYEG;2002-11-24 07:00;METAR CYEG 240700Z 16006KT 1 1/2SM R30/P6000FT BR OVC002 M08/M11 A3036 RMK FG2SF6 SLP331 SLP331
CYEG;2002-11-24 08:00;METAR CYEG 240800Z 16005KT 3SM BR OVC002 M09/M11 A3034 RMK FG2SF3 FROIN SLP324
CYEG;2002-11-24 09:00;METAR CYEG 240900Z 15005KT 5SM BR SCT002 M09/M12 A3034 RMK SF2 SLP320
CYEG;2002-11-24 10:00;METAR CYEG 241000Z 16005KT 6SM BR FEW002 M10/M12 A3032 RMK SF1 SLP314
CYEG;2002-11-24 11:00;METAR CYEG 241100Z 16007KT 10SM SKC M10/M12 A3029 RMK BR SLP304
CYEG;2002-11-24 12:00;METAR CYEG 241200Z 17008KT 10SM SKC M09/M12 A3026 RMK BR FROIN SLP297
CYEG;2002-11-24 13:00;METAR CYEG 241300Z 17005KT 12SM SKC M10/M13 A3026 RMK BR SLP297
CYEG;2002-11-24 14:00;METAR CYEG 241400Z 17008KT 15SM FEW150 SCT240 M10/M14 A3023 RMK AC1CI1 FROIN SLP289 SLP289
CYEG;2002-11-24 15:00;METAR CYEG 241500Z 18007KT 10SM BKN240 M09/M13 A3022 RMK CI2 BR FROIN SLP285
CYEG;2002-11-24 16:00;METAR CYEG 241600Z 17008KT 10SM FEW100 BKN180 OVC250 M08/M12 A3021 RMK AC0AS5CI0 BR SLP282 BR SLP282
CYEG;2002-11-24 17:00;METAR CYEG 241700Z 19007KT 10SM FEW090 BKN140 OVC250 M07/M10 A3019 RMK AC0AS5CI1 BR SLP274 BR SLP274
CYEG;2002-11-24 19:00;METAR CYEG 241900Z 19008KT 15SM BKN170 OVC250 M03/M08 A3012 RMK AS6CS2 HALO SLP248
CYEG;2002-11-24 20:00;METAR CYEG 242000Z 21005KT 15SM BKN160 OVC250 M02/M07 A3008 RMK AS5CS2 SLP234
CYEG;2002-11-24 21:00;METAR CYEG 242100Z 19004KT 15SM BKN140 BKN250 M01/M05 A3005 RMK AS6CS2 SLP218
CYEG;2002-11-24 22:00;METAR CYEG 242200Z 20005KT 15SM BKN180 OVC250 00/M06 A3001 RMK AS6CS2 SLP205
CYEG;2002-11-24 23:00;METAR CYEG 242300Z 26011KT 15SM BKN180 OVC250 01/M08 A2997 RMK AS5CS2 WSHFT GRDL SLP195 SLP195
CYEG;2002-11-25 00:00;METAR CYEG 250000Z 30008KT 15SM BKN180 BKN250 01/M09 A2999 RMK AS6CS1 SLP197
CYEG;2002-11-25 01:00;METAR CYEG 250100Z 30011KT 15SM BKN190 BKN250 01/M09 A3000 RMK AS6CS2 SLP200
CYEG;2002-11-25 02:00;METAR CYEG 250200Z 30010KT 15SM OVC160 01/M09 A3002 RMK AS8 SLP207
CYEG;2002-11-25 03:00;METAR CYEG 250300Z 31012G17KT 15SM OVC160 04/M11 A3004 RMK AS8 SLP211
CYEG;2002-11-25 04:00;METAR CYEG 250400Z 32014G21KT 15SM OVC170 03/M11 A3006 RMK AS8 SLP218
CYEG;2002-11-25 05:00;METAR CYEG 250500Z 32014G22KT 15SM BKN130 OVC170 03/M10 A3009 RMK AC5AS3 SLP227
CYEG;2002-11-25 06:00;METAR CYEG 250600Z 32012G17KT 15SM BKN130 OVC170 03/M11 A3011 RMK AC6AS2 SLP233
CYEG;2002-11-25 07:00;METAR CYEG 250700Z 32014KT 15SM OVC170 02/M10 A3014 RMK AS8 SLP242
CYEG;2002-11-25 08:00;METAR CYEG 250800Z 32012KT 15SM OVC180 02/M10 A3018 RMK AC7 SLP253
CYEG;2002-11-25 09:00;METAR CYEG 250900Z 34011KT 15SM OVC180 01/M10 A3021 RMK AC7 SLP265
CYEG;2002-11-25 11:00;METAR CYEG 251100Z 36009KT 15SM FEW180 BKN250 M03/M11 A3030 RMK AC1CI1 SLP292
CYEG;2002-11-25 12:00;METAR CYEG 251200Z 36009KT 15SM FEW250 M05/M11 A3032 RMK CI0 SLP305
CYEG;2002-11-25 13:00;METAR CYEG 251300Z 36006KT 15SM SKC M08/M12 A3034 RMK SLP314
CYEG;2002-11-25 14:00;METAR CYEG 251400Z 36002KT 15SM FEW250 M08/M12 A3036 RMK CI1 SLP319
CYEG;2002-11-25 15:00;METAR CYEG 251500Z 19003KT 15SM FEW250 M11/M14 A3037 RMK CI0 SLP327
CYEG;2002-11-25 16:00;METAR CYEG 251600Z 20004KT 15SM FEW250 M10/M13 A3038 RMK CI1 SLP330
CYEG;2002-11-25 17:00;METAR CYEG 251700Z 17004KT 15SM SCT250 M06/M11 A3036 RMK CI2 SLP323
CYEG;2002-11-25 18:00;METAR CYEG 251800Z 17006KT 15SM BKN250 M03/M09 A3035 RMK CI3 SLP313
CYEG;2002-11-25 19:00;METAR CYEG 251900Z 17007KT 15SM FEW120 BKN250 M02/M09 A3033 RMK AC2CI2 SLP307
CYEG;2002-11-25 20:00;METAR CYEG 252000Z 18008KT 15SM FEW120 BKN250 M01/M09 A3032 RMK AC2CI1 SLP303
CYEG;2002-11-25 21:00;METAR CYEG 252100Z 16007KT 15SM FEW120 BKN250 00/M09 A3032 RMK AC1CI1 SLP300
CYEG;2002-11-25 22:00;METAR CYEG 252200Z 17006KT 15SM FEW120 BKN250 M00/M08 A3030 RMK AC1CI2 SLP294
CYEG;2002-11-25 23:00;METAR CYEG 252300Z 16006KT 15SM FEW120 BKN250 M01/M09 A3029 RMK AC1CI2
CYEG;2002-11-26 00:00;METAR CYEG 260000Z 20009KT 15SM FEW120 OVC240 M02/M09 A3027 RMK AC1CI2 SLP292
CYEG;2002-11-26 01:00;METAR CYEG 260100Z 21004KT 15SM OVC240 M03/M09 A3027 RMK CI6 SLP294
CYEG;2002-11-26 02:00;METAR CYEG 260200Z 27008KT 15SM OVC240 M02/M09 A3028 RMK CI7 SLP295
CYEG;2002-11-26 03:00;METAR CYEG 260300Z 26007KT 15SM OVC220 M02/M10 A3028 RMK CI7 SLP302
CYEG;2002-11-26 04:00;METAR CYEG 260400Z 26005KT 15SM OVC200 M03/M10 A3028 RMK CI6 SLP300
CYEG;2002-11-26 05:00;METAR CYEG 260500Z 22005KT 15SM BKN180 OVC220 M02/M10 A3027 RMK AS5CI2 SLP298
CYEG;2002-11-26 06:00;METAR CYEG 260600Z 27006KT 15SM BKN160 OVC220 M04/M09 A3027 RMK AS6CS2 SLP293
CYEG;2002-11-26 07:00;METAR CYEG 260700Z 26005KT 15SM BKN150 OVC250 M02/M09 A3027 RMK AC5CS2
CYEG;2002-11-26 08:00;METAR CYEG 260800Z 22003KT 15SM BKN140 OVC250 M03/M08 A3027 RMK AC6CS2
CYEG;2002-11-26 09:00;METAR CYEG 260900Z 25004KT 15SM FEW140 OVC250 M03/M08 A3027 RMK AC2CS2 SLP290
CYEG;2002-11-26 10:00;METAR CYEG 261000Z 22004KT 15SM FEW140 OVC250 M03/M08 A3027 RMK AC1CS2
CYEG;2002-11-26 11:00;METAR CYEG 261100Z 23006KT 15SM FEW140 OVC250 M04/M08 A3027 RMK AC1CS2 SLP289
CYEG;2002-11-26 12:00;METAR CYEG 261200Z 22006KT 15SM OVC250 M03/M08 A3026 RMK CS2 SLP286
CYEG;2002-11-26 13:00;METAR CYEG 261300Z 25005KT 15SM OVC250 M02/M08 A3026 RMK CS2 HALO SLP285
CYEG;2002-11-26 14:00;METAR CYEG 261400Z 23004KT 15SM BKN200 OVC250 M01/M08 A3025 RMK CI2CS3 SLP283
CYEG;2002-11-26 15:00;METAR CYEG 261500Z 25004KT 15SM FEW150 BKN230 M02/M08 A3023 RMK AC1CI3 SLP277
CYEG;2002-11-26 16:00;METAR CYEG 261600Z 26002KT 15SM FEW180 BKN230 M02/M08 A3022 RMK AC1CI2 SLP274
CYEG;2002-11-26 17:00;METAR CYEG 261700Z 25005KT 15SM FEW180 OVC230 M01/M08 A3022 RMK AC1CI2 SLP273
CYEG;2002-11-26 18:00;METAR CYEG 261800Z 27005KT 15SM FEW180 BKN230 03/M06 A3021 RMK AC1CI2 SLP265
CYEG;2002-11-26 19:00;METAR CYEG 261900Z 29007KT 15SM FEW180 BKN230 04/M05 A3019 RMK AC1CI2 SLP260
CYEG;2002-11-26 20:00;METAR CYEG 262000Z 29006KT 15SM SCT120 BKN230 05/M05 A3017 RMK AC2CI1 SLP254
CYEG;2002-11-26 21:00;METAR CYEG 262100Z 28003KT 15SM FEW043 BKN072 BKN230 05/M04 A3016 RMK SC2AC4CI1 SLP247 SLP247
CYEG;2002-11-26 22:00;METAR CYEG 262200Z 27004KT 15SM SCT047 BKN070 BKN230 05/M03 A3014 RMK SC2AC2CI1 SLP239 SLP239
CYEG;2002-11-26 23:00;METAR CYEG 262300Z 24004KT 15SM SCT050 BKN070 BKN230 03/M02 A3014 RMK SC3AC2CI0 SLP239
CYEG;2002-11-27 00:00;METAR CYEG 270000Z 25005KT 15SM BKN058 BKN080 BKN230 03/M03 A3013 RMK SC3AC2CI1 SLP238 SLP238
CYEG;2002-11-27 01:00;METAR CYEG 270100Z 27007KT 15SM BKN058 BKN080 03/M03 A3013 RMK SC5AC1 SLP236
CYEG;2002-11-27 02:00;METAR CYEG 270200Z 25003KT 15SM BKN058 BKN090 03/M02 A3012 RMK SC5AC2 SLP235
CYEG;2002-11-27 03:00;METAR CYEG 270300Z 26003KT 15SM FEW060 BKN100 03/M02 A3011 RMK SC2AC3 SLP231
CYEG;2002-11-27 04:00;METAR CYEG 270400Z 27002KT 15SM BKN070 BKN130 OVC250 03/M02 A3012 RMK AC5AC1CI1 SLP234 SLP234
CYEG;2002-11-27 05:00;METAR CYEG 270500Z 23002KT 15SM BKN060 BKN110 OVC250 02/M02 A3012 RMK SC6AC1CI1 SLP232 SLP232
CYEG;2002-11-27 06:00;METAR CYEG 270600Z 27003KT 15SM SCT060 BKN120 OVC250 03/M01 A3012 RMK SC3AC2CI2 SLP228 SLP228
CYEG;2002-11-27 07:00;METAR CYEG 270700Z 31003KT 15SM BKN060 BKN100 OVC250 04/M01 A3011 RMK SC5AC2CI1 SLP225 SLP225
CYEG;2002-11-27 08:00;METAR CYEG 270800Z 20002KT 15SM OVC048 03/M01 A3013 RMK SC8 SLP230
CYEG;2002-11-27 09:00;METAR CYEG 270900Z 17004KT 15SM OVC055 03/M01 A3012 RMK SC8 SLP227
CYEG;2002-11-27 10:00;METAR CYEG 271000Z 19005KT 15SM OVC059 02/M01 A3011 RMK SC6 SLP223
CYEG;2002-11-27 11:00;METAR CYEG 271100Z 19004KT 15SM BKN060 OVC250 01/M02 A3008 RMK SC2CS2 SLP216
CYEG;2002-11-27 12:00;METAR CYEG 271200Z 22004KT 15SM FEW060 SCT120 OVC250 01/M02 A3008 RMK SC2AC1CS1 SLP218 SLP218
CYEG;2002-11-27 15:00;METAR CYEG 271500Z 23004KT 15SM FEW060 BKN250 02/M01 A3007 RMK SC1CI5 SLP210
CYEG;2002-11-27 16:00;METAR CYEG 271600Z 25009KT 15SM FEW180 BKN250 04/00 A3006 RMK AC1CI4 SLP208
CYEG;2002-11-27 17:00;METAR CYEG 271700Z 25009KT 15SM FEW180 BKN250 06/00 A3006 RMK AC2CI4
CYEG;2002-11-27 18:00;METAR CYEG 271800Z 25007KT 15SM FEW140 FEW200 BKN250 07/00 A3005 RMK AC1CI1CI5 CC ASOCTD SE TR AC SLP201 ASOCTD SE TR AC SLP201
CYEG;2002-11-27 19:00;METAR CYEG 271900Z 26008KT 15SM FEW140 SCT210 BKN250 10/00 A3004 RMK AC1CI2CI3 TR AC SLP196 AC SLP196
CYEG;2002-11-27 20:00;METAR CYEG 272000Z 23005KT 15SM SCT210 BKN250 08/00 A3001 RMK CI3CI2 SLP188
CYEG;2002-11-27 21:00;METAR CYEG 272100Z 26004KT 15SM FEW180 SCT210 BKN250 11/01 A3000 RMK AC1CI1CI5 SLP179 SLP179
CYEG;2002-11-27 22:00;METAR CYEG 272200Z 26005KT 15SM SCT170 BKN250 10/M00 A2999 RMK AC2CI4 SLP176
CYEG;2002-11-27 23:00;METAR CYEG 272300Z 24003KT 15SM SCT170 BKN250 08/M01 A2997 RMK AC2CI4 SLP172
