CYGK;2017-01-01 00:00;CYGK 010000Z 22017G27KT 12SM -RASN OVC028 03/M02 A2963 RMK NS8 SLP039

CYGK;2017-01-01 00:41;CYGK 010041Z 22016G26KT 10SM -RASN SCT008 OVC015 02/M00 A2963 WS RWY19 RMK SF4NS4 +/- 10 KTS SLP038

CYGK;2017-01-01 01:00;CYGK 010100Z 22017G23KT 5SM -RASN BKN007 OVC015 01/M00 A2963 RMK SF6NS2 SLP039

CYGK;2017-01-01 02:00;CYGK 010200Z 21019G26KT 8SM -RASN SCT007 OVC015 02/01 A2963 RMK SF4NS4 SLP039

CYGK;2017-01-01 03:00;CYGK 010300Z 23015G24KT 10SM -RASN SCT003 OVC010 02/01 A2962 RMK SF3NS5 SLP037

CYGK;2017-01-01 04:00;CYGK 010400Z 22013KT 15SM -RASN OVC008 02/01 A2964 RMK SF8 LAST STFD OBS / NEXT 011100 UTC SLP042

CYGK;2017-01-01 11:00;CYGK 011100Z 27010G17KT 15SM FEW025 FEW200 M01/M06 A2993 RMK SC1CI1 PRESRR SLP141

CYGK;2017-01-01 12:00;CYGK 011200Z 27010KT 15SM FEW025 SCT180 BKN210 M01/M06 A2999 RMK SC1AC3CI3 SC TR PRESRR SLP160

CYGK;2017-01-01 13:00;CYGK 011300Z 27009KT 15SM FEW025 FEW100 BKN160 BKN200 M02/M06 A3005 RMK SC1AC1AC4CI2 SC TR SLP181

CYGK;2017-01-01 14:00;CYGK 011400Z 27007KT 15SM FEW100 BKN160 BKN250 M01/M07 A3008 RMK AC1AC5CI1 SLP191

CYGK;2017-01-01 15:00;CYGK 011500Z 27005KT 15SM FEW100 BKN140 BKN250 M01/M06 A3012 RMK AC1AC5CI1 PRESRR SLP206

CYGK;2017-01-01 16:00;CYGK 011600Z 27006KT 15SM BKN040 BKN130 M00/M07 A3016 RMK SC6AC1 VIRGA SLP218

CYGK;2017-01-01 17:00;CYGK 011700Z 26003KT 15SM FEW038 BKN058 OVC130 00/M07 A3016 RMK SC1SC7AC1 SC TR CU ASOCTD W VIRGA S SLP220

CYGK;2017-01-01 18:00;CYGK 011800Z 21006KT 15SM FEW025 BKN060 01/M07 A3017 RMK SC1SC6 SLP221

CYGK;2017-01-01 19:00;CYGK 011900Z 17003KT 130V190 15SM FEW025 SCT055 01/M06 A3017 RMK SF1SC2 SLP221

CYGK;2017-01-01 20:00;CYGK 012000Z 17006KT 15SM FEW028 SCT050 01/M04 A3018 RMK CU1SC2 SLP226

CYGK;2017-01-01 21:00;CYGK 012100Z 23009KT 180V240 15SM FEW025 FEW050 02/M03 A3021 RMK SC1SC1 SLP234

CYGK;2017-01-01 22:00;CYGK 012200Z 23009KT 15SM FEW030 01/M04 A3025 RMK SC1 SLP250

CYGK;2017-01-01 23:00;CYGK 012300Z 22006KT 15SM SKC 01/M03 A3027 RMK SLP257

CYGK;2017-01-02 00:00;CYGK 020000Z 22007KT 15SM SKC 00/M03 A3030 RMK SLP266

CYGK;2017-01-02 01:00;CYGK 020100Z 22006KT 15SM SKC 00/M03 A3031 RMK SLP269

CYGK;2017-01-02 02:00;CYGK 020200Z 21004KT 15SM SKC M01/M03 A3032 RMK SLP272

CYGK;2017-01-02 03:00;CYGK 020300Z 23003KT 15SM SKC M01/M02 A3033 RMK SLP278

CYGK;2017-01-02 04:00;CYGK 020400Z 34005KT 15SM SKC M05/M06 A3035 RMK LAST STFD OBS/NEXT 021100 UTC SLP284

CYGK;2017-01-02 11:00;CYGK 021100Z 05005KT 15SM BKN180 M03/M05 A3040 RMK AC5 SLP302

CYGK;2017-01-02 12:00;CYGK 021200Z 06004KT 15SM SCT160 BKN200 M04/M05 A3041 RMK AC4CI1 SLP305

CYGK;2017-01-02 13:00;CYGK 021300Z 03005KT 15SM SCT160 BKN200 M05/M06 A3042 RMK AC4CI1 SLP308

CYGK;2017-01-02 14:00;CYGK 021400Z 05004KT 15SM FEW170 SCT200 M03/M05 A3042 RMK AC2CI1 SLP308

CYGK;2017-01-02 15:00;CYGK 021500Z 04004KT 15SM FEW170 SCT250 M01/M04 A3044 RMK AC1CI2 SLP313

CYGK;2017-01-02 16:00;CYGK 021600Z 07006KT 15SM FEW170 FEW250 01/M04 A3041 RMK AC1CI2 AC TR SLP306

CYGK;2017-01-02 17:00;CYGK 021700Z 09005KT 15SM FEW250 03/M04 A3039 RMK CI2 SLP297

CYGK;2017-01-02 18:00;CYGK 021800Z 10006KT 15SM FEW170 FEW250 04/M04 A3036 RMK AC1CI1 SLP287

CYGK;2017-01-02 19:00;CYGK 021900Z 09005KT 15SM FEW040 SCT200 05/M04 A3035 RMK CU1CI3 CU TR SLP283

CYGK;2017-01-02 19:16;CYGK 021916Z 09005KT 15SM FEW025 SCT060 BKN200 05/M04 A3035 RMK SC1SC2CI2 SLP284

CYGK;2017-01-02 20:00;CYGK 022000Z 07005KT 15SM BKN027 BKN060 04/M04 A3035 RMK SC6SC1 SLP285

CYGK;2017-01-02 21:00;CYGK 022100Z 05005KT 15SM BKN029 04/M04 A3035 RMK SC7 SLP285

CYGK;2017-01-02 22:00;CYGK 022200Z 10003KT 050V160 15SM BKN027 03/M04 A3036 RMK SC7 SLP287

CYGK;2017-01-02 23:00;CYGK 022300Z 11006KT 15SM OVC023 03/M02 A3031 RMK SC8 SLP269

CYGK;2017-01-03 00:00;CYGK 030000Z 12009KT 15SM BKN016 OVC022 02/01 A3031 RMK SC5SC3 PRESFR SLP269

CYGK;2017-01-03 01:00;CYGK 030100Z 09007KT 15SM OVC026 02/00 A3030 RMK SC8 SLP266

CYGK;2017-01-03 02:00;CYGK 030200Z 09007KT 15SM OVC024 03/M01 A3025 RMK SC8 SLP250

CYGK;2017-01-03 03:00;CYGK 030300Z 07007KT 15SM OVC025 02/M02 A3021 RMK SC8 SLP235

CYGK;2017-01-03 04:00;CYGK 030400Z 06007KT 15SM OVC026 02/M03 A3021 RMK SC8 LAST STFD OBS / NEXT 031100 UTC SLP235

CYGK;2017-01-03 11:00;CYGK 031100Z 04006KT 3SM -RA BR OVC023 01/00 A3004 RMK SC8 SLP179

CYGK;2017-01-03 11:52;CYGK 031152Z 07008KT 2 1/2SM -RA BR FEW008 OVC024 01/M00 A3000 RMK SF2SC6 PRESFR SLP165

CYGK;2017-01-03 12:00;CYGK 031200Z 08010KT 2 1/2SM -RA BR FEW008 OVC025 01/M00 A2999 RMK SF2SC6 PRESFR SLP161

CYGK;2017-01-03 12:09;CYGK 031209Z 08008KT 2 1/2SM BR FEW008 OVC024 01/M00 A2998 RMK SF2SC6 PRESFR SLP159

CYGK;2017-01-03 12:49;CYGK 031249Z 06007KT 2 1/2SM BR BKN004 OVC022 01/00 A2998 RMK SF5SC3 SLP156

CYGK;2017-01-03 13:00;CYGK 031300Z 05004KT 2SM BR BKN003 OVC022 01/00 A2998 RMK SF6SC2 SLP156

CYGK;2017-01-03 14:00;CYGK 031400Z 06006KT 1 1/2SM -DZ BR SCT003 OVC007 01/00 A2994 RMK SF3NS5 SLP145

CYGK;2017-01-03 15:00;CYGK 031500Z 05005KT 010V080 1 1/2SM -DZ BKN003 OVC007 01/00 A2992 RMK SF5SF3 SLP137

CYGK;2017-01-03 16:00;CYGK 031600Z 04006KT 1 1/2SM -DZ BR BKN004 OVC010 01/01 A2988 RMK SF6NS2 PRESFR SLP125

CYGK;2017-01-03 16:37;CYGK 031637Z 05005KT 2SM BR SCT003 OVC021 02/01 A2985 RMK SF3SC5 SLP113

CYGK;2017-01-03 17:00;CYGK 031700Z 04005KT 2SM BR SCT003 OVC018 02/01 A2983 RMK SF3SC5 SLP107

CYGK;2017-01-03 17:26;CYGK 031726Z 04005KT 1 1/2SM -RA BR FEW004 OVC010 02/01 A2981 RMK SF2NS6 SLP101

CYGK;2017-01-03 18:00;CYGK 031800Z 05004KT 2SM -RA BR BKN006 OVC020 02/01 A2980 RMK SF6NS2 SLP095

CYGK;2017-01-03 19:00;CYGK 031900Z 05007KT 2SM -RA BR SCT009 OVC022 02/01 A2976 RMK SF4SC4 SLP081

CYGK;2017-01-03 19:42;CYGK 031942Z 04006KT 2SM -RA BR FEW002 BKN009 OVC022 02/01 A2974 RMK SF2SF4NS2 SLP076

CYGK;2017-01-03 20:00;CYGK 032000Z 04007KT 2SM -RA BR SCT002 BKN009 OVC022 02/01 A2973 RMK SF4SF3NS1 SLP073

CYGK;2017-01-03 20:44;CYGK 032044Z 05006KT 2 1/4SM -RA BR SCT008 OVC022 02/01 A2971 RMK SF3NS5 SLP066

CYGK;2017-01-03 21:00;CYGK 032100Z 05006KT 2 1/4SM -RA BR FEW007 SCT012 OVC022 02/01 A2970 RMK SF2CU2NS4 SLP063

CYGK;2017-01-03 21:20;CYGK 032120Z 05006KT 2SM -RA BR FEW003 BKN008 OVC022 02/01 A2969 RMK SF1CU5NS2 CIG RAG SLP058

CYGK;2017-01-03 22:00;CYGK 032200Z 06006KT 2SM -RA BR SCT002 BKN008 OVC022 02/01 A2967 RMK SF4SF2NS2 SLP051

CYGK;2017-01-03 22:23;CYGK 032223Z 07006KT 2 1/2SM -RA BR BKN004 BKN010 OVC023 02/01 A2965 RMK SF5SF2NS1 SLP047

CYGK;2017-01-03 23:00;CYGK 032300Z 07005KT 2 1/2SM -RA BR OVC003 02/01 A2963 RMK SF8 SLP040

CYGK;2017-01-04 00:00;CYGK 040000Z 07008KT 3SM -RA BR BKN003 OVC016 02/01 A2961 RMK SF6NS2 SLP031

CYGK;2017-01-04 01:00;CYGK 040100Z 05006KT 3SM -RA BR BKN003 OVC013 02/01 A2957 RMK SF6NS2 SLP020

CYGK;2017-01-04 02:00;CYGK 040200Z 05006KT 2 1/2SM -RA BR BKN002 OVC008 01/01 A2953 RMK SF6NS2 SLP006

CYGK;2017-01-04 03:00;CYGK 040300Z 05007KT 3SM -RA BR SCT002 OVC009 01/00 A2949 RMK SF4NS4 SLP992

CYGK;2017-01-04 04:00;CYGK 040400Z 04004KT 4SM -RA BR FEW002 OVC013 01/00 A2947 RMK SF2NS6 LAST STFD OBS / NEXT 041100 UTC SLP985

CYGK;2017-01-04 11:00;CYGK 041100Z 24005KT 1 1/2SM -DZ BR OVC003 02/01 A2934 RMK ST8 SLP939

CYGK;2017-01-04 11:44;CYGK 041144Z 25010G16KT 2SM -RA BR OVC004 02/01 A2934 RMK SF8 SLP940

CYGK;2017-01-04 12:00;CYGK 041200Z 25011G16KT 3SM -RA BR OVC005 02/01 A2934 RMK SF8 CIG RAG SLP941

CYGK;2017-01-04 12:34;CYGK 041234Z 25009KT 8SM BKN008 OVC045 02/01 A2934 RMK SF7SC1 SLP941

CYGK;2017-01-04 13:00;CYGK 041300Z 25013G18KT 10SM OVC008 02/02 A2936 RMK SF8 SLP947

CYGK;2017-01-04 13:28;CYGK 041328Z 25013G20KT 12SM SCT008 BKN040 BKN120 03/02 A2936 RMK SF4SC2AC1 SLP947

CYGK;2017-01-04 14:00;CYGK 041400Z 25013G18KT 15SM FEW008 BKN030 OVC050 03/01 A2937 RMK SF2SC3SC3 SLP951

CYGK;2017-01-04 15:00;CYGK 041500Z 25014G20KT 15SM FEW012 BKN035 BKN150 03/01 A2938 RMK SC2SC4AC1 SLP955

CYGK;2017-01-04 16:00;CYGK 041600Z 25016G22KT 15SM SCT018 BKN050 BKN075 03/00 A2938 RMK CU3SC2AC2 SLP953

CYGK;2017-01-04 17:00;CYGK 041700Z 24016G28KT 15SM VCSH SCT020 BKN070 04/00 A2935 RMK SC3AC3 SLP944

CYGK;2017-01-04 18:00;CYGK 041800Z 24023G38KT 15SM VCSH SCT020TCU BKN060 03/M03 A2935 RMK TCU4SC3 SLP944

CYGK;2017-01-04 19:03;CYGK 041903Z 24026G42KT 12SM -SHSN OVC023TCU 01/M04 A2938 RMK TCU8 VIS LWR N SLP953

CYGK;2017-01-04 19:06;CYGK 041906Z 24030G40KT 4SM -SHSN DRSN OVC025TCU 01/M04 A2938 RMK TCU8 SLP954

CYGK;2017-01-04 20:00;CYGK 042000Z 25029G39KT 6SM -SHSN BKN020TCU OVC050 M00/M05 A2942 RMK TCU5SC3 SLP967

CYGK;2017-01-04 21:00;CYGK 042100Z 25025G38KT 15SM -SHSN FEW021TCU OVC046 M01/M06 A2945 RMK TCU2SC6 SLP976

CYGK;2017-01-04 22:00;CYGK 042200Z 24025G37KT 15SM -SHSN SCT020 OVC050 M03/M08 A2947 RMK CU3SC5 SLP986

CYGK;2017-01-04 22:46;CYGK 042246Z 26017G30KT 15SM VCSH FEW020 BKN062 M03/M10 A2950 RMK CU1SC5 SLP996

CYGK;2017-01-04 23:00;CYGK 042300Z 26015G27KT 15SM VCSH FEW030 SCT060 M04/M11 A2950 RMK CU2SC2 SLP997

CYGK;2017-01-05 00:00;CYGK 050000Z 26025G37KT 15SM FEW038 SCT064 M04/M12 A2953 RMK CU2SC2 SLP005

CYGK;2017-01-05 01:00;CYGK 050100Z 25023G32KT 15SM FEW030 BKN076 M05/M13 A2954 RMK CU1AC4 SLP010

CYGK;2017-01-05 02:00;CYGK 050200Z 26022G34KT 15SM FEW030 BKN080 M05/M14 A2956 RMK CU2AC4 SLP014

CYGK;2017-01-05 03:00;CYGK 050300Z 25018G26KT 15SM SCT070 M06/M15 A2957 RMK AC3 SLP019

CYGK;2017-01-05 04:00;CYGK 050400Z 25016G33KT 15SM FEW070 M06/M14 A2959 RMK AC2 LAST STFD OBS/NEXT 051100 UTC SLP026

CYGK;2017-01-05 11:00;CYGK 051100Z 27017G29KT 15SM FEW050 M06/M12 A2970 RMK SC1 SLP065

CYGK;2017-01-05 12:00;CYGK 051200Z 26016G28KT 15SM FEW050 M06/M12 A2972 RMK SC2 SLP072

CYGK;2017-01-05 13:00;CYGK 051300Z 28016G25KT 15SM FEW020 FEW050 SCT250 M06/M12 A2973 RMK CF1SC1CI2 CF TR SLP076

CYGK;2017-01-05 14:00;CYGK 051400Z 27020G29KT 15SM FEW020 FEW050 SCT240 M06/M12 A2976 RMK CU1SC2CI2 CU TR SLP085

CYGK;2017-01-05 15:00;CYGK 051500Z 26015G23KT 15SM FEW025 BKN053 BKN240 M05/M12 A2979 RMK CU1SC5CI1 SLP093

CYGK;2017-01-05 16:00;CYGK 051600Z 26017G26KT 15SM VCSH FEW025 BKN056 M05/M13 A2979 RMK CU1SC6 SLP096

CYGK;2017-01-05 17:00;CYGK 051700Z 27013G26KT 15SM FEW032 BKN057 OVC240 M04/M12 A2978 RMK CU2SC5CI1 SLP092

CYGK;2017-01-05 18:00;CYGK 051800Z 25018G24KT 15SM VCSH FEW038 SCT059 BKN240 M04/M14 A2977 RMK CU2SC2CI3 SH SW-SE SLP089

CYGK;2017-01-05 19:00;CYGK 051900Z 26015G25KT 15SM BKN050 BKN240 M04/M13 A2977 RMK SC6CI1 CI TR SLP089

CYGK;2017-01-05 20:00;CYGK 052000Z 25012G21KT 15SM VCSH BKN039 BKN080 M04/M13 A2979 RMK CU5AC2 SLP093

CYGK;2017-01-05 21:00;CYGK 052100Z 25013G23KT 10SM VCSH BKN028 BKN051 M05/M12 A2980 RMK CU5SC2 SLP097

CYGK;2017-01-05 22:00;CYGK 052200Z 26010G17KT 15SM VCSH BKN030 OVC050 M05/M11 A2981 RMK CU5SC3 SLP101

CYGK;2017-01-05 23:00;CYGK 052300Z 27010KT 15SM BKN030 OVC160 M06/M13 A2981 RMK CU5AC3 SLP100

CYGK;2017-01-06 00:00;CYGK 060000Z 28008KT 15SM FEW030 OVC070 M06/M14 A2982 RMK SC2AC6 SLP106

CYGK;2017-01-06 01:00;CYGK 060100Z 29007KT 15SM BKN070 M07/M14 A2984 RMK AC7 SLP111

CYGK;2017-01-06 02:00;CYGK 060200Z 29006KT 15SM BKN070 M07/M14 A2986 RMK AC7 SLP118

CYGK;2017-01-06 03:00;CYGK 060300Z 28004KT 15SM FEW060 BKN100 M08/M15 A2987 RMK SC2AC4 SLP122

CYGK;2017-01-06 04:00;CYGK 060400Z 27004KT 15SM FEW060 SCT080 BKN100 M08/M15 A2988 RMK SC1AC2AC2 LAST STFD OBS/NEXT 061100 UTC SLP125

CYGK;2017-01-06 11:00;CYGK 061100Z 29010KT 15SM FEW010 M11/M16 A2997 RMK CF1 CF TR SLP157

CYGK;2017-01-06 12:00;CYGK 061200Z 29007KT 15SM FEW010 FEW080 M12/M16 A2998 RMK CF1AC1 CF TR SLP161

CYGK;2017-01-06 13:00;CYGK 061300Z 32007KT 15SM FEW015 FEW060 M12/M17 A2999 RMK CF1SC1 CF TR SLP165

CYGK;2017-01-06 14:00;CYGK 061400Z VRB04KT 15SM FEW015 FEW080 M11/M16 A3003 RMK CF1AC2 CF TR SLP177

CYGK;2017-01-06 15:00;CYGK 061500Z VRB02KT 15SM FEW020 SCT061 M10/M16 A3006 RMK CF1SC3 CF TR SLP186

CYGK;2017-01-06 16:00;CYGK 061600Z 22005KT 160V250 15SM FEW020 FEW060 M08/M15 A3007 RMK CF1SC2 CF TR SLP190

CYGK;2017-01-06 17:00;CYGK 061700Z 15004KT 140V250 15SM FEW025 FEW058 FEW240 M08/M14 A3007 RMK CU1SC1CI1 CU TR CI TR SLP189

CYGK;2017-01-06 18:00;CYGK 061800Z 16007KT 15SM FEW025 SCT060 M07/M14 A3007 RMK CU2SC1 SLP191

CYGK;2017-01-06 19:00;CYGK 061900Z 20006KT 180V330 15SM FEW038 SCT060 M06/M14 A3007 RMK CU2SC1 SLP190

CYGK;2017-01-06 20:00;CYGK 062000Z 23009KT 15SM VCSH SCT042 SCT060 M05/M17 A3008 RMK CU3SC1 SLP194

CYGK;2017-01-06 21:00;CYGK 062100Z 27007KT 15SM FEW042 SCT060 M06/M17 A3010 RMK CU1SC2 SLP200

CYGK;2017-01-06 22:00;CYGK 062200Z 26006KT 15SM FEW040 FEW060 M07/M17 A3012 RMK CU1SC1 SLP209

CYGK;2017-01-06 23:00;CYGK 062300Z 27006KT 15SM FEW062 M07/M17 A3014 RMK SC2 SLP216

CYGK;2017-01-07 00:00;CYGK 070000Z 27005KT 15SM SCT048 M07/M16 A3018 RMK SC4 SLP227

CYGK;2017-01-07 01:00;CYGK 070100Z 27006KT 15SM SCT047 M07/M13 A3020 RMK SC4 SLP234

CYGK;2017-01-07 02:00;CYGK 070200Z 28006KT 15SM SCT040 M08/M14 A3021 RMK SC3 SLP237

CYGK;2017-01-07 03:00;CYGK 070300Z 28005KT 15SM FEW040 M09/M15 A3021 RMK SC1 SLP239

CYGK;2017-01-07 04:00;CYGK 070400Z 30007KT 15SM SCT056 M09/M16 A3023 RMK SC3 LAST STFD OBS/NEXT 071100 UTC SLP246

CYGK;2017-01-07 11:00;CYGK 071100Z 36006KT 15SM SKC M14/M17 A3031 RMK SLP274

CYGK;2017-01-07 12:00;CYGK 071200Z 01004KT 15SM FEW020 FEW220 M15/M18 A3033 RMK SC1CI1 SC TR CI TR SLP281

CYGK;2017-01-07 13:00;CYGK 071300Z 01005KT 15SM FEW020 FEW120 FEW220 M14/M17 A3034 RMK CU1AC1CI2 CU TR AC TR SLP283

CYGK;2017-01-07 14:00;CYGK 071400Z 03005KT 350V060 15SM FEW006 SCT020 SCT120 SCT250 M13/M15 A3036 RMK SF1CU2AC1CI1 AC TR SLP288

CYGK;2017-01-07 14:48;CYGK 071448Z 04009KT 15SM BKN006 BKN220 M11/M14 A3035 RMK SF5CI2 SLP286

CYGK;2017-01-07 15:00;CYGK 071500Z 05007KT 15SM BKN006 BKN220 M11/M14 A3035 RMK SF6CI1 VIS SE OVR CITY 6 SLP286

CYGK;2017-01-07 15:17;CYGK 071517Z 04008KT 15SM SCT006 BKN220 M11/M13 A3035 RMK SF3CI3 VIS SE OVR CITY 6 SLP286

CYGK;2017-01-07 15:43;CYGK 071543Z 06008KT 15SM BKN007 BKN220 M11/M13 A3036 RMK SF5CI2 VIS SE OVR CITY 4 SLP289

CYGK;2017-01-07 16:00;CYGK 071600Z 06007KT 15SM BKN007 BKN220 M10/M13 A3035 RMK SF6CI1 SLP287

CYGK;2017-01-07 17:00;CYGK 071700Z 09005KT 030V100 15SM SCT009 BKN220 M10/M12 A3033 RMK SC4CI2 SLP278

CYGK;2017-01-07 18:00;CYGK 071800Z 05003KT 15SM SCT010 BKN060 BKN220 M09/M12 A3030 RMK SC4SC1CI2 SLP269

CYGK;2017-01-07 19:00;CYGK 071900Z 06004KT 15SM SCT010 BKN200 M08/M11 A3027 RMK SC3CI3 SLP260

CYGK;2017-01-07 20:00;CYGK 072000Z 07006KT 15SM FEW012 BKN240 M07/M12 A3025 RMK SC1CI4 SLP253

CYGK;2017-01-07 21:00;CYGK 072100Z 04005KT 020V090 15SM FEW012 FEW060 SCT220 M08/M13 A3025 RMK SC1SC1CI1 SLP252

CYGK;2017-01-07 22:00;CYGK 072200Z 04004KT 15SM FEW012 FEW060 SCT220 M08/M13 A3025 RMK CU1SC1CI3 CU TR SLP253

CYGK;2017-01-07 23:00;CYGK 072300Z 03004KT 15SM FEW060 SCT220 M09/M13 A3024 RMK SC1CI2 SLP251

CYGK;2017-01-08 00:00;CYGK 080000Z 05005KT 15SM BKN047 M09/M13 A3024 RMK SC6 SLP248

CYGK;2017-01-08 01:00;CYGK 080100Z 05007KT 12SM -SN SCT044 OVC073 M09/M13 A3022 RMK SC4AC4 SLP243

CYGK;2017-01-08 02:00;CYGK 080200Z 06006KT 12SM -SN OVC074 M09/M12 A3020 RMK AC8 SLP236

CYGK;2017-01-08 03:00;CYGK 080300Z 06007KT 10SM -SN SCT042 OVC078 M09/M12 A3018 RMK SC4AC4 SLP227

CYGK;2017-01-08 04:00;CYGK 080400Z 04005KT 5SM -SN BKN021 OVC043 M09/M12 A3017 RMK SC5SC3 SLP224

CYGK;2017-01-08 11:00;CYGK 081100Z 32006KT 15SM FEW100 M15/M18 A3016 RMK AC1 SLP222

CYGK;2017-01-08 12:00;CYGK 081200Z 32003KT 15SM FEW025 FEW100 M15/M18 A3018 RMK SC1AC2 SC TR SLP228

CYGK;2017-01-08 13:00;CYGK 081300Z 33007KT 15SM FEW025 FEW100 M16/M19 A3019 RMK CU1AC2 CU TR SLP233

CYGK;2017-01-08 14:00;CYGK 081400Z 30006KT 15SM FEW025 FEW100 SCT230 M15/M18 A3023 RMK CU1AC2CI1 CU TR PRESRR SLP246

CYGK;2017-01-08 15:00;CYGK 081500Z 35009KT 15SM FEW025 FEW060 FEW230 M13/M17 A3024 RMK CU1SC1CI1 CU TR SLP249

CYGK;2017-01-08 16:00;CYGK 081600Z 31006KT 15SM FEW025 SCT051 M11/M16 A3027 RMK CU1SC3 CU TR SLP257

CYGK;2017-01-08 17:00;CYGK 081700Z 32007KT 15SM SCT023 BKN065 M10/M16 A3027 RMK CU4SC2 SLP260

CYGK;2017-01-08 18:00;CYGK 081800Z 34013G18KT 15SM FEW021 SCT045 BKN065 M11/M17 A3030 RMK CU2SC2SC1 SLP270

CYGK;2017-01-08 19:00;CYGK 081900Z 33014G20KT 15SM SCT025 M11/M18 A3033 RMK CU4 SLP281

CYGK;2017-01-08 20:00;CYGK 082000Z 33013G19KT 15SM DRSN SCT025 M11/M18 A3037 RMK SC3 SLP293

CYGK;2017-01-08 21:00;CYGK 082100Z 33014KT 15SM FEW020 M11/M19 A3042 RMK SC1 SLP309

CYGK;2017-01-08 22:00;CYGK 082200Z 33008KT 15SM FEW020 M13/M19 A3045 RMK SC1 SLP320

CYGK;2017-01-08 23:00;CYGK 082300Z 33004KT 15SM FEW022 M14/M20 A3048 RMK SC1 SLP332

CYGK;2017-01-09 00:00;CYGK 090000Z 31004KT 15SM FEW030 M14/M20 A3051 RMK SC1 SC TR SLP343

CYGK;2017-01-09 01:00;CYGK 090100Z 30004KT 15SM FEW030 M15/M20 A3054 RMK SC1 SC TR SLP351

CYGK;2017-01-09 02:00;CYGK 090200Z 29005KT 15SM FEW030 M15/M20 A3056 RMK SC1 SC TR SLP358

CYGK;2017-01-09 03:00;CYGK 090300Z 30005KT 15SM SKC M16/M20 A3056 RMK SLP360

CYGK;2017-01-09 04:00;CYGK 090400Z 28006KT 15SM SKC M16/M20 A3058 RMK LAST STFD OBS/NEXT 091100 UTC SLP364

CYGK;2017-01-09 11:00;CYGK 091100Z 03006KT 15SM BKN044 M14/M18 A3053 RMK SC7 PRESFR SLP349

CYGK;2017-01-09 12:00;CYGK 091200Z 11011KT 8SM -SN FEW009 BKN040 M11/M15 A3054 RMK SF2SC5 SLP352

CYGK;2017-01-09 12:17;CYGK 091217Z 09009KT 5SM -SN BKN011 OVC035 M11/M14 A3054 RMK SC6SC2 SLP350

CYGK;2017-01-09 12:32;CYGK 091232Z 09009KT 2 1/2SM -SN BKN011 OVC025 M11/M14 A3053 RMK SC7SC1 SLP349

CYGK;2017-01-09 12:48;CYGK 091248Z 08008KT 5SM -SN BKN011 OVC018 M11/M14 A3053 RMK SC5SC3 SLP347

CYGK;2017-01-09 13:00;CYGK 091300Z 08006KT 5SM -SN FEW009 BKN012 OVC035 M11/M13 A3053 RMK SF1SC6SC1 SLP349

CYGK;2017-01-09 13:26;CYGK 091326Z 18009KT 070V220 2 1/2SM -SN FEW009 OVC018 M07/M10 A3052 RMK SF1SC7 SLP345

CYGK;2017-01-09 14:00;CYGK 091400Z 18013KT 1 1/4SM -SHSN SCT008 OVC013TCU M06/M09 A3050 RMK SN2SF1TCU5 SLP338

CYGK;2017-01-09 14:11;CYGK 091411Z 17014KT 3/4SM -SN OVC010TCU M06/M08 A3050 RMK SN7TCU1 SLP337

CYGK;2017-01-09 14:23;CYGK 091423Z 18013KT 1SM -SHSN OVC010TCU M05/M08 A3049 RMK SN6TCU2 SLP332

CYGK;2017-01-09 14:42;CYGK 091442Z 24012G23KT 180V250 5SM -SHSN BKN010TCU OVC025 M05/M08 A3049 RMK TCU5SC3 VIS NW-NE 2 SLP333

CYGK;2017-01-09 15:00;CYGK 091500Z 22014G21KT 12SM -SHSN FEW010TCU OVC023 M05/M09 A3049 RMK TCU2SC6 VIS SW 4 SLP332

CYGK;2017-01-09 16:00;CYGK 091600Z 22019KT 15SM -SHSN DRSN FEW010 OVC021TCU M05/M10 A3047 RMK SF1TCU7 SLP326

CYGK;2017-01-09 16:16;CYGK 091616Z 20022G28KT 3SM -SHSN DRSN OVC020TCU M05/M09 A3046 RMK TCU8 OCNL BLSN VIS VRB 2-4 SLP323

CYGK;2017-01-09 16:39;CYGK 091639Z 19020G27KT 15SM DRSN VCSH FEW015TCU OVC020 M05/M09 A3044 RMK TCU2SC6 OCNL BLSN PRESFR SLP316

CYGK;2017-01-09 17:00;CYGK 091700Z 20022G29KT 15SM DRSN VCSH FEW015TCU OVC022 M05/M10 A3042 RMK TCU1SC7 OCNL BLSN SLP311

CYGK;2017-01-09 18:00;CYGK 091800Z 18023G30KT 12SM DRSN BKN021 OVC050 M05/M10 A3040 RMK CU7SC1 OCNL BLSN SLP304

CYGK;2017-01-09 18:13;CYGK 091813Z 19022G28KT 5SM -SHSN DRSN BKN020 M05/M09 A3040 RMK CU7 OCNL BLSN SLP302

CYGK;2017-01-09 18:35;CYGK 091835Z 19023G29KT 1 1/2SM -SHSN DRSN OVC017 M05/M09 A3039 RMK SN6CU2 OCNL BLSN SLP301

CYGK;2017-01-09 18:44;CYGK 091844Z 19022G29KT 1SM -SHSN DRSN VV012 M05/M08 A3039 RMK SN8 OCNL BLSN SLP299

CYGK;2017-01-09 19:00;CYGK 091900Z 20023G29KT 1SM -SHSN DRSN OVC010 M05/M08 A3039 RMK SN7CU1 OCNL BLSN SLP300

CYGK;2017-01-09 19:07;CYGK 091907Z 19023G29KT 3/4SM -SHSN DRSN OVC012 M05/M08 A3038 RMK SN7CU1 OCNL BLSN SLP299

CYGK;2017-01-09 19:18;CYGK 091918Z 18021G28KT 1/2SM SHSN DRSN VV006 M05/M08 A3038 RMK SN8 OCNL BLSN SLP297

CYGK;2017-01-09 19:25;CYGK 091925Z 19022G27KT 1SM -SHSN DRSN OVC013 M05/M08 A3038 RMK SN7CU1 OCNL BLSN SLP297

CYGK;2017-01-09 19:47;CYGK 091947Z 19021G28KT 11SM -SHSN DRSN OVC017 M05/M08 A3038 RMK SC8 CVCTV CLD EMBD SLP296

CYGK;2017-01-09 20:00;CYGK 092000Z 19022G29KT 15SM -SHSN DRSN OVC017 M05/M08 A3038 RMK SC8 CVCTV CLD EMBD SLP296

CYGK;2017-01-09 20:39;CYGK 092039Z 19020G28KT 2 1/2SM -SHSN DRSN OVC017TCU M04/M07 A3037 RMK TCU8 VIS S 4 SLP295

CYGK;2017-01-09 20:50;CYGK 092050Z 18021G28KT 1SM -SHSN DRSN OVC013TCU M04/M07 A3037 RMK TCU8 SLP294

CYGK;2017-01-09 21:00;CYGK 092100Z 20021G27KT 1SM -SHSN DRSN OVC013TCU M04/M07 A3038 RMK TCU8 SLP295

CYGK;2017-01-09 21:22;CYGK 092122Z 21018G27KT 6SM -SHSN DRSN OVC019 M04/M08 A3037 RMK SC8 CVCTV CLD EMBD SLP294

CYGK;2017-01-09 22:00;CYGK 092200Z 21016G25KT 7SM -SHSN DRSN OVC025 M03/M08 A3038 RMK SC8 CVCTV CLD EMBD SLP297

CYGK;2017-01-09 23:00;CYGK 092300Z 21017G23KT 10SM -SHSN DRSN OVC029 M03/M09 A3038 RMK SC8 CVCTV CLD EMBD SLP297

CYGK;2017-01-09 23:39;CYGK 092339Z 22016G24KT 15SM FEW015 OVC046 M03/M09 A3040 RMK SF1SC7 SLP302

CYGK;2017-01-10 00:00;CYGK 100000Z 22013G19KT 15SM OVC034 M03/M09 A3040 RMK SC8 SLP302

CYGK;2017-01-10 01:00;CYGK 100100Z 22013KT 15SM FEW046 M02/M09 A3040 RMK SC1 SLP301

CYGK;2017-01-10 02:00;CYGK 100200Z 22011G18KT 15SM OVC039 M02/M08 A3040 RMK SC8 SLP301

CYGK;2017-01-10 02:10;CYGK 100210Z 22013G18KT 15SM -SN OVC039 M02/M08 A3040 RMK SC8 SLP301

CYGK;2017-01-10 03:00;CYGK 100300Z 22012G17KT 15SM -SN OVC034 M02/M09 A3040 RMK SC8 SLP300

CYGK;2017-01-10 03:32;CYGK 100332Z 22013G19KT 15SM OVC034 M02/M08 A3040 RMK SC8 SLP301

CYGK;2017-01-10 04:00;CYGK 100400Z 21015G22KT 15SM OVC032 M02/M08 A3040 RMK SC8 LAST STFD OBS / NEXT 101100 UTC SLP302

CYGK;2017-01-10 11:00;CYGK 101100Z 17019KT 15SM SCT060 OVC120 M04/M09 A3035 RMK SC3AC5 SLP284

CYGK;2017-01-10 12:00;CYGK 101200Z 17016G22KT 15SM SCT060 OVC100 M04/M09 A3035 RMK SC4AC4 SLP286

CYGK;2017-01-10 13:00;CYGK 101300Z 16018G24KT 15SM FEW060 OVC075 M03/M08 A3034 RMK SC2AC6 SLP280

CYGK;2017-01-10 14:00;CYGK 101400Z 16018G26KT 15SM VCSH OVC040 M03/M08 A3033 RMK NS8 SLP279

CYGK;2017-01-10 14:22;CYGK 101422Z 17020G27KT 12SM -SN OVC030 M03/M08 A3032 RMK SC8 SLP275

CYGK;2017-01-10 14:35;CYGK 101435Z 16020G28KT 2 1/2SM -SN OVC025 M03/M08 A3032 RMK SC8 SLP275

CYGK;2017-01-10 15:03;CYGK 101503Z 16023G28KT 3/4SM -SN DRSN VV006 M04/M07 A3030 RMK SN8 SLP268

CYGK;2017-01-10 15:23;CYGK 101523Z 16020G26KT 1/2SM SN DRSN VV006 M04/M06 A3030 RMK SN8 VIS VRB 3/8-3/4 SLP266

CYGK;2017-01-10 16:00;CYGK 101600Z 16022G28KT 1SM -SN DRSN OVC005 M03/M05 A3027 RMK SN6SF2 SLP258

CYGK;2017-01-10 16:12;CYGK 101612Z 16020G27KT 2SM -SN DRSN OVC007 M03/M05 A3026 RMK SN2SF6 SLP254

CYGK;2017-01-10 17:00;CYGK 101700Z 15021G26KT 3SM -SN DRSN SCT008 OVC018 M03/M06 A3020 RMK SN2SF2SC4 PRESFR SLP233

CYGK;2017-01-10 17:16;CYGK 101716Z 15019G28KT 1 1/2SM -SN DRSN OVC013 M03/M06 A3019 RMK SN4SC4 SLP231

CYGK;2017-01-10 17:25;CYGK 101725Z 15021KT 3/4SM -SN DRSN VV008 M03/M05 A3019 RMK SN8 SLP229

CYGK;2017-01-10 18:00;CYGK 101800Z 16022G31KT 1SM -SN DRSN OVC008 M02/M04 A3015 RMK SN6SF2 VIS VRB 1/2-11/2 PRESFR SLP218

CYGK;2017-01-10 19:00;CYGK 101900Z 16024G32KT 3/4SM -SN DRSN VV008 M03/M04 A3010 RMK SN8 PRESFR SLP198

CYGK;2017-01-10 19:48;CYGK 101948Z 16026G33KT 3/8SM SN BLSN VV006 M02/M04 A3006 RMK SN8 SLP186

CYGK;2017-01-10 20:00;CYGK 102000Z 16026G34KT 3/8SM SN BLSN VV005 M02/M04 A3005 RMK SN8 SLP183

CYGK;2017-01-10 20:25;CYGK 102025Z 16029G35KT 3/4SM -SN BLSN VV007 M02/M04 A3004 RMK SN8 SLP177

CYGK;2017-01-10 20:33;CYGK 102033Z 16026G34KT 1 1/2SM -SN BLSN OVC008 M02/M04 A3002 RMK SN4SF4 PRESFR SLP173

CYGK;2017-01-10 20:40;CYGK 102040Z 16024G33KT 2 1/2SM -SN BLSN OVC008 M02/M04 A3002 RMK SN2SF6 PRESFR SLP172

CYGK;2017-01-10 21:00;CYGK 102100Z 17024G35KT 3/4SM -SN BLSN OVC008 M02/M03 A3001 RMK SN6SF2 SLP167

CYGK;2017-01-10 21:50;CYGK 102150Z 17024G34KT 1SM -SN BLSN OVC008 M01/M02 A2997 RMK SN4SC4 SLP156

CYGK;2017-01-10 22:00;CYGK 102200Z 17024G36KT 2 1/2SM -SN BLSN OVC012 M01/M03 A2996 RMK SC8 PRESFR SLP150

CYGK;2017-01-10 23:00;CYGK 102300Z 17026G35KT 2 1/2SM -SN BLSN OVC010 M01/M03 A2992 RMK SC8 SLP139

CYGK;2017-01-10 23:17;CYGK 102317Z 17027G34KT 2 1/2SM -FZRA -SN BLSN OVC009 M01/M02 A2990 RMK SC8 PRESFR SLP133

CYGK;2017-01-11 00:00;CYGK 110000Z 16024G34KT 2 1/2SM -FZRA -SN BLSN OVC008 M00/M02 A2988 RMK SC8 PRESFR SLP126

CYGK;2017-01-11 00:17;CYGK 110017Z 17025G36KT 3SM -FZRA -SN OVC007 M00/M01 A2986 RMK SC8 PRESFR SLP118

CYGK;2017-01-11 00:36;CYGK 110036Z 17029KT 4SM -FZRA OVC007 M00/M01 A2984 RMK SC8 PRESFR SLP111

CYGK;2017-01-11 01:00;CYGK 110100Z 16026G33KT 2 1/2SM -FZRA BR OVC008 M00/M01 A2984 RMK SC8 SLP109

CYGK;2017-01-11 01:18;CYGK 110118Z 17023G33KT 4SM -RA BR OVC008 00/M01 A2981 RMK SC8 PRESFR SLP101

CYGK;2017-01-11 02:00;CYGK 110200Z 17026G35KT 5SM -RA BR OVC009 00/M01 A2978 RMK SC8 SLP091

CYGK;2017-01-11 03:00;CYGK 110300Z 17028G36KT 4SM -RA BR OVC009 00/M01 A2973 RMK SC8 SLP073

CYGK;2017-01-11 03:22;CYGK 110322Z 17023G36KT 10SM -RA OVC008 00/M01 A2972 RMK SC8 SLP069

CYGK;2017-01-11 04:00;CYGK 110400Z 17026G36KT 10SM -RA BKN009 OVC042 01/M00 A2969 RMK SF5SC3 LAST STFD OBS / NEXT 111000 UTC SLP059

CYGK;2017-01-11 11:00;CYGK 111100Z 25026G37KT 15SM FEW030 OVC052 04/M02 A2984 RMK SC2SC6 PRESRR SLP111

CYGK;2017-01-11 12:00;CYGK 111200Z 23021G27KT 15SM BKN031 03/M01 A2991 RMK SC7 CIG RAG SLP133

CYGK;2017-01-11 13:00;CYGK 111300Z 24021G30KT 15SM BKN026 03/M01 A2996 RMK SC5 SLP152

CYGK;2017-01-11 14:00;CYGK 111400Z 24017G27KT 15SM BKN025 03/M01 A3004 RMK CU6 PRESRR SLP178

CYGK;2017-01-11 15:00;CYGK 111500Z 24018G26KT 15SM BKN025 BKN240 03/M01 A3009 RMK SC6CI1 CI TR SLP196

CYGK;2017-01-11 16:00;CYGK 111600Z 23018G23KT 15SM BKN025 03/M01 A3011 RMK CU5 SLP201

CYGK;2017-01-11 17:00;CYGK 111700Z 24015G23KT 15SM FEW024 BKN240 03/M02 A3011 RMK SC2CI3 SLP202

CYGK;2017-01-11 18:00;CYGK 111800Z 25009G16KT 15SM FEW025 BKN250 04/M02 A3008 RMK CU1CI6 CU TR SLP191

CYGK;2017-01-11 19:00;CYGK 111900Z 21011G16KT 15SM BKN240 04/M02 A3005 RMK CI7 PRESFR SLP182

CYGK;2017-01-11 20:00;CYGK 112000Z 19008KT 15SM FEW075 FEW140 BKN250 02/M00 A3007 RMK AC1AC1CI5 SLP187

CYGK;2017-01-11 21:00;CYGK 112100Z 19004KT 15SM SCT120 OVC250 03/M00 A3007 RMK AC4CI4 SLP188

CYGK;2017-01-11 22:00;CYGK 112200Z 11003KT 15SM BKN110 OVC250 02/01 A3002 RMK AS6CI2 PRESFR SLP171

CYGK;2017-01-11 23:00;CYGK 112300Z 14009KT 15SM BKN140 OVC250 04/M01 A3000 RMK AC5CS3 PRESFR SLP163

CYGK;2017-01-12 00:00;CYGK 120000Z 15012KT 15SM OVC120 04/00 A2996 RMK AS8 SLP150

CYGK;2017-01-12 01:00;CYGK 120100Z 17017G23KT 15SM OVC120 05/00 A2995 RMK AS8 SLP147

CYGK;2017-01-12 02:00;CYGK 120200Z 17020G29KT 15SM OVC130 05/M00 A2992 RMK AS8 SLP137

CYGK;2017-01-12 03:00;CYGK 120300Z 16019G25KT 15SM BKN049 OVC150 05/M00 A2989 RMK SC5AS3 PRESFR SLP126

CYGK;2017-01-12 04:00;CYGK 120400Z 16013G20KT 15SM SCT057 BKN230 04/M00 A2986 RMK SC4CS3 LAST STFD OBS/NEXT 121100UTC PRESFR SLP117

CYGK;2017-01-12 11:00;CYGK 121100Z 21014G20KT 12SM -RA SCT008 OVC012 06/05 A2969 RMK SF3SC5 SLP058

CYGK;2017-01-12 12:00;CYGK 121200Z 21015G21KT 15SM -RA FEW008 OVC014 07/06 A2970 RMK SF1SC7 SLP062

CYGK;2017-01-12 13:03;CYGK 121303Z 24009KT 2SM -DZ BR OVC008 06/05 A2973 RMK SF8 CIG RAG SLP072

CYGK;2017-01-12 14:00;CYGK 121400Z 23008KT 4SM -DZ BR OVC005 07/06 A2975 RMK ST8 SLP077

CYGK;2017-01-12 14:36;CYGK 121436Z 22006KT 1 1/2SM -DZ BR OVC004 07/06 A2976 RMK SF8 CIG RAG SLP082

CYGK;2017-01-12 15:00;CYGK 121500Z 21004KT 5/8SM -DZ BR VV002 06/06 A2977 RMK FG8 SLP086

CYGK;2017-01-12 15:47;CYGK 121547Z 23004KT 5/8SM BR VV002 07/06 A2978 RMK FG8 SLP089

CYGK;2017-01-12 16:00;CYGK 121600Z 21005KT 1/2SM FG VV002 07/07 A2978 RMK FG8 SLP087

CYGK;2017-01-12 16:08;CYGK 121608Z 18008KT 150V220 1/8SM FG VV002 04/04 A2978 RMK FG8 SLP089

CYGK;2017-01-12 16:31;CYGK 121631Z 21004KT 3/8SM FG VV002 06/06 A2977 RMK FG8 SLP085

CYGK;2017-01-12 17:00;CYGK 121700Z 24007KT 1/4SM FG VV002 07/07 A2977 RMK FG8 SLP086

CYGK;2017-01-12 17:40;CYGK 121740Z 24004KT 2SM BR BKN003 OVC035 07/06 A2976 RMK ST5SC3 SLP082

CYGK;2017-01-12 18:00;CYGK 121800Z 25003KT 210V290 4SM BR BKN004 OVC008 07/06 A2977 RMK SF5SF3 SLP086

CYGK;2017-01-12 18:23;CYGK 121823Z 26005KT 8SM OVC006 07/06 A2980 RMK ST8 PRESRR SLP094

CYGK;2017-01-12 18:44;CYGK 121844Z 28007KT 6SM -RA BR OVC003 06/06 A2981 RMK SF8 SLP098

CYGK;2017-01-12 19:00;CYGK 121900Z 28009KT 6SM -RA BR BKN004 OVC015 06/05 A2983 RMK SF6NS2 PRESRR SLP105

CYGK;2017-01-12 20:00;CYGK 122000Z 22005KT 1 1/2SM -RA BR BKN004 OVC070 05/04 A2979 RMK SF5AC3 PRESFR SLP092

CYGK;2017-01-12 20:22;CYGK 122022Z 22004KT 3SM BR FEW004 BKN012 OVC060 05/04 A2978 RMK SF2SC3SC3 SLP088

CYGK;2017-01-12 20:53;CYGK 122053Z 22005KT 2SM BR SCT003 OVC006 04/04 A2981 RMK SF3SF5 SLP100

CYGK;2017-01-12 21:00;CYGK 122100Z 23005KT 1/4SM FG VV003 04/04 A2981 RMK FG8 SLP100

CYGK;2017-01-12 21:15;CYGK 122115Z 26005KT 1/2SM FG VV002 04/04 A2981 RMK FG8 SLP101

CYGK;2017-01-12 21:21;CYGK 122121Z 25006KT 1/4SM FG VV002 04/04 A2982 RMK FG8 SLP102

CYGK;2017-01-12 21:43;CYGK 122143Z 24005KT 1/2SM FG VV004 04/04 A2983 RMK FG8 SLP106

CYGK;2017-01-12 21:50;CYGK 122150Z 25006KT 1/2SM FG VV003 04/04 A2984 RMK FG8 VIS S-SW 1/4 N-NE 3/4 PRESRR SLP109

CYGK;2017-01-12 22:00;CYGK 122200Z 24006KT 3/8SM FG VV002 04/03 A2984 RMK FG8 VIS VRB 1/4-1/2 SLP110

CYGK;2017-01-12 22:10;CYGK 122210Z 24007KT 3/4SM BR VV002 04/03 A2985 RMK FG8 SLP113

CYGK;2017-01-12 22:28;CYGK 122228Z 25007KT 1SM BR OVC002 03/03 A2987 RMK FG4ST4 VIS S-W 1/2 PRESRR SLP120

CYGK;2017-01-12 22:34;CYGK 122234Z 25007KT 5/8SM BR VV002 03/03 A2987 RMK FG8 SLP120

CYGK;2017-01-12 22:38;CYGK 122238Z 24008KT 1/2SM FG VV002 03/03 A2988 RMK FG8 SLP123

CYGK;2017-01-12 23:00;CYGK 122300Z 25008KT 3/8SM FG VV001 03/03 A2989 RMK FG8 SLP127

CYGK;2017-01-12 23:14;CYGK 122314Z 26007KT 1/2SM FG VV002 03/03 A2990 RMK FG8 SLP128

CYGK;2017-01-13 00:00;CYGK 130000Z 26006KT 1/2SM FG VV002 03/03 A2992 RMK FG8 SLP136

CYGK;2017-01-13 00:12;CYGK 130012Z 26006KT 3/4SM BR OVC002 03/03 A2993 RMK FG6ST2 PRESRR SLP141

CYGK;2017-01-13 00:17;CYGK 130017Z 26008KT 1SM BR OVC002 03/02 A2995 RMK FG4ST4 PRESRR SLP145

CYGK;2017-01-13 00:37;CYGK 130037Z 28009G15KT 3SM BR OVC003 03/02 A2996 RMK ST8 SLP150

CYGK;2017-01-13 00:46;CYGK 130046Z 27013KT 8SM BR OVC005 03/02 A2997 RMK ST8 SLP153

CYGK;2017-01-13 01:00;CYGK 130100Z 26010G19KT 10SM OVC007 02/02 A2998 RMK ST8 SLP155

CYGK;2017-01-13 02:00;CYGK 130200Z 26009G16KT 15SM FEW006 SCT010 OVC043 02/01 A3004 RMK SF1SC3SC4 PRESRR SLP176

CYGK;2017-01-13 03:00;CYGK 130300Z 26011G17KT 15SM FEW006 SCT012 BKN035 01/M02 A3008 RMK SF1SC3SC4 SF TR SLP191

CYGK;2017-01-13 11:00;CYGK 131100Z 27015KT 15SM BKN040 M02/M10 A3037 RMK SC6 SLP289

CYGK;2017-01-13 12:00;CYGK 131200Z 29012G19KT 15SM SCT030 M03/M12 A3042 RMK SC3 SLP308

CYGK;2017-01-13 13:00;CYGK 131300Z 29014G21KT 15SM FEW030 M04/M12 A3048 RMK SC1 SLP328

CYGK;2017-01-13 14:00;CYGK 131400Z 28011G19KT 15SM FEW030 FEW230 M04/M12 A3053 RMK CU1CI1 PRESRR SLP345

CYGK;2017-01-13 16:00;CYGK 131600Z 31014G20KT 15SM SCT040 SCT230 M04/M13 A3060 RMK CU3CI1 CI TR SLP369

CYGK;2017-01-13 17:00;CYGK 131700Z 30014G20KT 260V340 15SM SCT040 M03/M13 A3061 RMK CU4 SLP370

CYGK;2017-01-13 18:00;CYGK 131800Z 29016G22KT 15SM SCT042 SCT230 M03/M14 A3061 RMK CU3CI1 CI TR SLP372

CYGK;2017-01-13 19:00;CYGK 131900Z 29014G20KT 15SM SCT050 SCT250 M03/M15 A3062 RMK SC3CI1 SLP375

CYGK;2017-01-13 20:00;CYGK 132000Z 31010G15KT 15SM FEW050 SCT240 M03/M15 A3064 RMK SC1CI2 SLP384

CYGK;2017-01-13 21:00;CYGK 132100Z 31011KT 15SM FEW050 SCT230 M04/M16 A3067 RMK SC1CI3 SLP391

CYGK;2017-01-13 22:00;CYGK 132200Z 30006KT 15SM FEW050 BKN230 M05/M16 A3069 RMK SC1CI5 SC TR SLP401

CYGK;2017-01-13 23:00;CYGK 132300Z 31006KT 15SM SCT230 M06/M16 A3072 RMK CI4 SLP410

CYGK;2017-01-14 00:00;CYGK 140000Z 31005KT 15SM SCT230 M07/M16 A3074 RMK CI3 SLP418

CYGK;2017-01-14 01:00;CYGK 140100Z 33006KT 15SM FEW230 M08/M16 A3077 RMK CI2 SLP426

CYGK;2017-01-14 02:00;CYGK 140200Z 02004KT 15SM FEW230 M09/M16 A3078 RMK CI1 SLP432

CYGK;2017-01-14 03:00;CYGK 140300Z 05008KT 15SM SKC M10/M16 A3078 RMK SLP433

CYGK;2017-01-14 04:00;CYGK 140400Z 04008KT 15SM SKC M11/M18 A3079 RMK LAST STFD OBS/NEXT 141100 UTC SLP434

CYGK;2017-01-14 11:00;CYGK 141100Z 02004KT 15SM BKN140 M14/M19 A3071 RMK AC5 SLP407

CYGK;2017-01-14 12:00;CYGK 141200Z 04004KT 15SM OVC140 M14/M18 A3068 RMK AC8 SLP399

CYGK;2017-01-14 13:00;CYGK 141300Z 03005KT 15SM SCT120 OVC140 M13/M18 A3067 RMK AC4AC4 SLP395

CYGK;2017-01-14 14:00;CYGK 141400Z 02006KT 15SM OVC130 M12/M17 A3065 RMK AC8 SLP388

CYGK;2017-01-14 14:26;CYGK 141426Z 05005KT 12SM -SHSN SCT030 OVC100 M12/M16 A3064 RMK SC3AC5 SLP385

CYGK;2017-01-14 15:00;CYGK 141500Z 06005KT 15SM BKN030 OVC095 M11/M16 A3062 RMK SC5AC3 SLP379

CYGK;2017-01-14 16:00;CYGK 141600Z 05006KT 15SM FEW030 OVC088 M09/M15 A3058 RMK SC2AC6 SLP365

CYGK;2017-01-14 17:00;CYGK 141700Z 07004KT 15SM FEW030 SCT080 OVC110 M08/M14 A3053 RMK SC1AC4AC4 SC TR PRESFR SLP348

CYGK;2017-01-14 18:00;CYGK 141800Z 13005KT 15SM FEW030 SCT076 BKN110 M07/M13 A3046 RMK SC1AC3AC3 PRESFR SLP324

CYGK;2017-01-14 19:00;CYGK 141900Z 12003KT 100V180 15SM OVC070 M06/M11 A3043 RMK AC8 SLP312

CYGK;2017-01-14 20:00;CYGK 142000Z 13003KT 15SM FEW018 SCT067 BKN110 M05/M09 A3040 RMK SF1AC4AC3 SF TR SLP302

CYGK;2017-01-14 21:00;CYGK 142100Z VRB02KT 15SM FEW018 SCT065 BKN086 M05/M09 A3038 RMK SF1SC3AC3 SLP295

CYGK;2017-01-14 22:00;CYGK 142200Z 32002KT 15SM FEW022 BKN082 BKN100 M05/M09 A3035 RMK SC2AC3AC2 SLP286

CYGK;2017-01-14 23:00;CYGK 142300Z 30003KT 15SM SCT076 BKN100 M05/M09 A3034 RMK AC4AC2 SLP283

CYGK;2017-01-15 00:00;CYGK 150000Z 29003KT 15SM BKN080 M06/M09 A3033 RMK AC6 SLP281

CYGK;2017-01-15 01:00;CYGK 150100Z 25005KT 15SM BKN060 M05/M08 A3032 RMK SC7 SLP275

CYGK;2017-01-15 02:00;CYGK 150200Z 30005KT 15SM FEW043 SCT077 M06/M08 A3031 RMK SC2AC1 SLP273

CYGK;2017-01-15 03:00;CYGK 150300Z 26004KT 15SM FEW075 M06/M08 A3031 RMK AC1 SLP272

CYGK;2017-01-15 04:00;CYGK 150400Z 25006KT 15SM BKN032 M05/M08 A3031 RMK SC6 LAST STFD OBS/NEXT 151100 UTC SLP273

CYGK;2017-01-15 11:00;CYGK 151100Z 28007KT 15SM SKC M06/M09 A3033 RMK SLP280

CYGK;2017-01-15 12:00;CYGK 151200Z 29005KT 15SM FEW030 M07/M09 A3036 RMK SC1 SC TR SLP290

CYGK;2017-01-15 13:00;CYGK 151300Z 33004KT 15SM FEW030 FEW250 M08/M10 A3038 RMK SC1CI1 SC TR CI TR SLP297

CYGK;2017-01-15 14:00;CYGK 151400Z 32005KT 15SM FEW025 FEW230 M06/M09 A3040 RMK SC1CI1 SC TR SLP301

CYGK;2017-01-15 15:00;CYGK 151500Z 33006KT 15SM FEW030 FEW250 M04/M09 A3041 RMK CF1CI1 CF TR CI TR SLP304

CYGK;2017-01-15 16:00;CYGK 151600Z 33007KT 310V020 15SM FEW030 FEW230 M03/M10 A3041 RMK SC1CI1 SLP305

CYGK;2017-01-15 17:00;CYGK 151700Z 34004KT 230V030 15SM FEW030 FEW250 M03/M11 A3039 RMK CF1CI1 CI TR SLP297

CYGK;2017-01-15 18:00;CYGK 151800Z 00000KT 15SM FEW030 FEW230 M03/M11 A3037 RMK SC1CI1 SLP290

CYGK;2017-01-15 19:00;CYGK 151900Z 21006KT 15SM FEW030 FEW250 M02/M10 A3036 RMK CF1CI1 CF TR CI TR SLP288

CYGK;2017-01-15 20:00;CYGK 152000Z 18008KT 15SM FEW030 FEW240 M03/M09 A3035 RMK SC1CI2 SC TR SLP286

CYGK;2017-01-15 21:00;CYGK 152100Z 16008KT 15SM FEW030 FEW240 M03/M09 A3036 RMK SC1CI1 SC TR SLP289

CYGK;2017-01-15 22:00;CYGK 152200Z 21006KT 15SM FEW030 SCT240 M04/M09 A3037 RMK SC1CI3 SC TR SLP291

CYGK;2017-01-15 23:00;CYGK 152300Z 23003KT 15SM FEW240 M04/M09 A3038 RMK CI2 SLP294

CYGK;2017-01-16 00:00;CYGK 160000Z 20006KT 15SM SKC M04/M09 A3038 RMK SLP295

CYGK;2017-01-16 01:00;CYGK 160100Z 21005KT 15SM SKC M03/M09 A3037 RMK SLP291

CYGK;2017-01-16 02:00;CYGK 160200Z 31004KT 15SM SKC M08/M10 A3039 RMK SLP298

CYGK;2017-01-16 03:00;CYGK 160300Z 24004KT 15SM FEW240 M04/M09 A3037 RMK CI1 CI TR SLP290

CYGK;2017-01-16 04:00;CYGK 160400Z 25002KT 15SM FEW240 M09/M11 A3037 RMK CI1 CI TR LAST STFD OBS/NEXT 161115 UTC SLP291

CYGK;2017-01-16 11:00;CYGK 161100Z 22010KT 15SM BKN023 M01/M05 A3033 RMK SC7 SLP279

CYGK;2017-01-16 12:00;CYGK 161200Z 22009KT 15SM BKN022 M02/M05 A3033 RMK SC7 SLP277

CYGK;2017-01-16 13:00;CYGK 161300Z 21009KT 15SM BKN020 BKN250 M01/M05 A3033 RMK SC6CI1 SLP278

CYGK;2017-01-16 14:00;CYGK 161400Z 22012G17KT 15SM BKN020 M00/M04 A3033 RMK SC7 SLP277

CYGK;2017-01-16 15:00;CYGK 161500Z 22015KT 15SM BKN017 00/M03 A3032 RMK SC7 SLP275

CYGK;2017-01-16 16:00;CYGK 161600Z 23015KT 15SM SCT018 BKN220 02/M03 A3033 RMK SC3CI3 SLP276

CYGK;2017-01-16 17:00;CYGK 161700Z 23013G18KT 15SM FEW020 BKN250 02/M03 A3029 RMK CF1CI7 CF TR SLP262

CYGK;2017-01-16 18:00;CYGK 161800Z 21011KT 15SM FEW018 BKN250 02/M02 A3026 RMK SC2CI5 SLP255

CYGK;2017-01-16 19:00;CYGK 161900Z 23010G15KT 15SM FEW020 BKN180 02/M02 A3025 RMK CF1AC7 CF TR SLP251

CYGK;2017-01-16 20:00;CYGK 162000Z 23010KT 11SM SCT160 BKN240 02/M02 A3025 RMK AS3CI4 SLP249

CYGK;2017-01-16 21:00;CYGK 162100Z 23011KT 9SM BKN250 01/M02 A3026 RMK CS7 SLP252

CYGK;2017-01-16 22:00;CYGK 162200Z 23010KT 8SM OVC250 00/M02 A3025 RMK CI8 SLP251

CYGK;2017-01-16 23:00;CYGK 162300Z 24007KT 10SM OVC250 00/M02 A3025 RMK CS8 SLP251

CYGK;2017-01-17 00:00;CYGK 170000Z 24006KT 10SM OVC250 00/M02 A3024 RMK CI8 SLP247

CYGK;2017-01-17 01:00;CYGK 170100Z 23005KT 10SM BKN250 M00/M02 A3024 RMK CS7 SLP248

CYGK;2017-01-17 02:00;CYGK 170200Z 22005KT 10SM OVC250 M02/M03 A3024 RMK CS8 SLP247

CYGK;2017-01-17 03:00;CYGK 170300Z 00000KT 10SM FEW250 M03/M04 A3024 RMK CI2 SLP246

CYGK;2017-01-17 04:00;CYGK 170400Z 21002KT 10SM FEW250 M03/M04 A3023 RMK CI2 LAST STFD OBS / NEXT 171100 UTC SLP242

CYGK;2017-01-17 11:00;CYGK 171100Z 03004KT 8SM OVC210 M05/M06 A3019 RMK CS8 SLP229

CYGK;2017-01-17 12:00;CYGK 171200Z 04005KT 5SM BR FEW140 BKN190 M04/M05 A3017 RMK AC2AS5 SLP224

CYGK;2017-01-17 13:00;CYGK 171300Z 05008KT 5SM BR FEW140 OVC180 M03/M05 A3016 RMK AC1AS7 SLP220

CYGK;2017-01-17 14:00;CYGK 171400Z 04007KT 4SM BR FEW110 BKN160 OVC210 M02/M04 A3015 RMK AC2AS5CS1 SLP215

CYGK;2017-01-17 15:00;CYGK 171500Z 06008KT 8SM BKN100 BKN160 M01/M03 A3012 RMK AC5AS2 PRESFR SLP207

CYGK;2017-01-17 16:00;CYGK 171600Z 05010KT 10SM BKN070 OVC095 M01/M03 A3010 RMK AS5AS3 PRESFR SLP200

CYGK;2017-01-17 17:00;CYGK 171700Z 05010KT 15SM BKN060 OVC095 M00/M04 A3005 RMK SC6AC2 PRESFR SLP183

CYGK;2017-01-17 17:07;CYGK 171707Z 04010KT 12SM -FZRA -PL OVC060 M00/M04 A3005 RMK NS8 PRESFR SLP182

CYGK;2017-01-17 17:17;CYGK 171717Z 04010G16KT 12SM -FZRA OVC059 M00/M04 A3004 RMK NS8 SLP179

CYGK;2017-01-17 17:30;CYGK 171730Z 04011KT 12SM -FZRA -PL OVC059 M00/M04 A3003 RMK NS8 SLP176

CYGK;2017-01-17 18:00;CYGK 171800Z 05010KT 5SM -FZRA -PL OVC056 M00/M03 A3002 RMK NS8 SLP172

CYGK;2017-01-17 19:00;CYGK 171900Z 06012KT 5SM -FZRA -PL BR OVC050 M00/M03 A3000 RMK NS8 SLP165

CYGK;2017-01-17 19:43;CYGK 171943Z 06013KT 8SM -RAPL OVC051 00/M03 A2996 RMK NS8 SLP152

CYGK;2017-01-17 20:00;CYGK 172000Z 07013KT 8SM -RA OVC050 00/M03 A2996 RMK NS8 SLP150

CYGK;2017-01-17 20:52;CYGK 172052Z 06015G21KT 5SM -DZ BR BKN025 OVC055 01/M02 A2993 RMK ST6SC2 PRESFR SLP142

CYGK;2017-01-17 21:00;CYGK 172100Z 06013G18KT 5SM -DZ BR BKN025 OVC055 00/M02 A2993 RMK ST6SC2 SLP140

CYGK;2017-01-17 21:34;CYGK 172134Z 07014KT 12SM OVC020 01/M02 A2991 RMK SC8 SLP135

CYGK;2017-01-17 22:00;CYGK 172200Z 07014G22KT 12SM OVC019 01/M02 A2990 RMK SC8 SLP133

CYGK;2017-01-17 22:38;CYGK 172238Z 06012KT 6SM -SHRA BR OVC018 01/M02 A2990 RMK SC8 CVCTV CLD EMBD SLP132

CYGK;2017-01-17 23:00;CYGK 172300Z 07015KT 5SM -SHRA BR OVC018 00/M01 A2989 RMK SC8 CVCTV CLD EMBD SLP127

CYGK;2017-01-18 00:00;CYGK 180000Z 06011KT 6SM -SHRA BR OVC017 00/M01 A2988 RMK SC8 SLP125

CYGK;2017-01-18 00:36;CYGK 180036Z 05013KT 3SM -SHRA BR OVC014 00/M01 A2987 RMK SC8 CVCTV CLD EMBD SLP122

CYGK;2017-01-18 01:00;CYGK 180100Z 05010KT 2 1/2SM -SHRA BR FEW005 OVC012 00/M01 A2987 RMK SF2SC6 CVCTV CLD EMBD SLP119

CYGK;2017-01-18 01:42;CYGK 180142Z 05008KT 2SM -DZ BR SCT004 OVC009 00/M01 A2986 RMK SF4SC4 SLP117

CYGK;2017-01-18 02:00;CYGK 180200Z 07009KT 2 1/2SM -DZ BR BKN003 OVC008 00/M01 A2985 RMK SF5SC3 SLP114

CYGK;2017-01-18 02:47;CYGK 180247Z 04008KT 1 3/4SM -DZ BR SCT003 OVC008 00/M01 A2984 RMK SF4SC4 SLP110

CYGK;2017-01-18 03:00;CYGK 180300Z 05008KT 1 1/4SM -DZ BR SCT003 OVC008 00/M01 A2983 RMK ST4SC4 SLP108

CYGK;2017-01-18 04:00;CYGK 180400Z 05008KT 2SM -DZ BR SCT003 OVC008 00/M00 A2982 RMK SF4ST4 LAST STFD OBS / NEXT 181100 UTC SLP104

CYGK;2017-01-18 11:00;CYGK 181100Z 35008KT 6SM -FZDZ BR OVC004 00/M01 A2982 RMK ST8 SLP105

CYGK;2017-01-18 11:40;CYGK 181140Z 34008KT 8SM -FZDZ OVC005 M00/M01 A2984 RMK NS8 SLP112

CYGK;2017-01-18 12:00;CYGK 181200Z 34008KT 8SM -FZDZ OVC005 M00/M01 A2985 RMK NS8 SLP115

CYGK;2017-01-18 12:09;CYGK 181209Z 34008KT 8SM OVC006 M00/M01 A2986 RMK NS8 SLP116

CYGK;2017-01-18 12:47;CYGK 181247Z 33006KT 8SM OVC004 M00/M01 A2986 RMK NS8 SLP117

CYGK;2017-01-18 13:00;CYGK 181300Z 30004KT 8SM OVC005 M00/M01 A2986 RMK NS8 SLP117

CYGK;2017-01-18 13:26;CYGK 181326Z 28004KT 8SM OVC004 M00/M01 A2987 RMK NS8 SLP122

CYGK;2017-01-18 14:00;CYGK 181400Z 31005KT 6SM -FZDZ BR OVC004 M01/M01 A2989 RMK SF8 CIG RAG SLP128

CYGK;2017-01-18 14:35;CYGK 181435Z 31005KT 2SM -FZRA BR OVC003 M01/M01 A2991 RMK NS8 CIG RAG SLP133

CYGK;2017-01-18 15:00;CYGK 181500Z 31005KT 3SM -FZDZ BR OVC005 M00/M01 A2992 RMK NS8 CIG RAG SLP137

CYGK;2017-01-18 15:30;CYGK 181530Z 31007KT 6SM BR OVC005 M01/M01 A2993 RMK NS8 SLP142

CYGK;2017-01-18 15:45;CYGK 181545Z 30007KT 2 1/2SM -SN OVC005 M01/M02 A2994 RMK NS8 SLP143

CYGK;2017-01-18 16:00;CYGK 181600Z 31006KT 3SM -SHSN BR OVC006 M01/M01 A2993 RMK NS8 SLP142

CYGK;2017-01-18 16:30;CYGK 181630Z 28003KT 8SM OVC007 M00/M01 A2992 RMK NS8 SLP138

CYGK;2017-01-18 17:00;CYGK 181700Z VRB02KT 10SM OVC005 M00/M01 A2991 RMK NS8 SLP133

CYGK;2017-01-18 18:00;CYGK 181800Z 24005KT 8SM OVC007 00/M01 A2991 RMK SF8 SLP135

CYGK;2017-01-18 19:00;CYGK 181900Z 26005KT 12SM OVC007 00/M01 A2993 RMK NS8 SLP139

CYGK;2017-01-18 20:00;CYGK 182000Z 26005KT 12SM OVC007 01/M01 A2995 RMK SC8 SLP146

CYGK;2017-01-18 20:46;CYGK 182046Z 23006KT 12SM SCT008 BKN020 01/M01 A2995 RMK SF4SC3 SLP149

CYGK;2017-01-18 21:00;CYGK 182100Z 24006KT 15SM BKN008 OVC024 01/M01 A2996 RMK SF5SC3 SLP152

CYGK;2017-01-18 22:00;CYGK 182200Z 23006KT 12SM OVC006 01/M00 A2998 RMK SC8 SLP157

CYGK;2017-01-18 23:00;CYGK 182300Z 23006KT 10SM OVC008 01/M00 A2998 RMK SC8 SLP156

CYGK;2017-01-18 23:19;CYGK 182319Z 24006KT 12SM SCT007 OVC011 01/M00 A2998 RMK SF4SC4 SLP158

CYGK;2017-01-19 00:00;CYGK 190000Z 20007KT 12SM SCT007 OVC013 01/00 A2996 RMK SF3SC5 PRESFR SLP150

CYGK;2017-01-19 01:00;CYGK 190100Z 24008KT 15SM OVC011 01/00 A2997 RMK SC8 SLP155

CYGK;2017-01-19 02:00;CYGK 190200Z 23007KT 15SM OVC014 01/00 A2995 RMK SC8 SLP149

CYGK;2017-01-19 02:45;CYGK 190245Z 25004KT 15SM OVC018 01/M00 A2996 RMK SC8 SLP151

CYGK;2017-01-19 03:00;CYGK 190300Z 24005KT 15SM OVC021 01/00 A2996 RMK SC8 SLP152

CYGK;2017-01-19 04:00;CYGK 190400Z 24005KT 12SM OVC015 01/00 A2997 RMK SC8 LAST STFD OBS / NEXT 191100 UTC SLP154

CYGK;2017-01-19 11:00;CYGK 191100Z 24008KT 15SM FEW015 SCT030 01/00 A2999 RMK SC2SC2 SLP162

CYGK;2017-01-19 12:00;CYGK 191200Z 24005KT 15SM FEW015 SCT030 SCT250 01/M00 A3001 RMK SC1SC2CI1 SLP167

CYGK;2017-01-19 12:38;CYGK 191238Z 29004KT 8SM FEW015 BKN035 BKN250 01/M00 A3003 RMK CF1SC5CI2 CF TR VIS LWR NW-NE SLP173

CYGK;2017-01-19 13:00;CYGK 191300Z 26003KT 8SM FEW015 BKN035 BKN250 01/00 A3003 RMK CF1SC6CI1 CF TR SLP175

CYGK;2017-01-19 14:00;CYGK 191400Z 26007KT 15SM FEW015 BKN035 02/01 A3005 RMK CF1SC7 CF TR SLP180

CYGK;2017-01-19 15:00;CYGK 191500Z 26006KT 15SM FEW010 OVC035 03/01 A3006 RMK CF1SC8 CF TR SLP184

CYGK;2017-01-19 16:00;CYGK 191600Z 28005KT 240V300 15SM FEW010 OVC035 03/01 A3005 RMK CF1SC7 SLP182

CYGK;2017-01-19 16:45;CYGK 191645Z 27005KT 220V290 15SM BKN010 OVC035 04/01 A3004 RMK SC5SC3 SLP176

CYGK;2017-01-19 17:00;CYGK 191700Z 25006KT 15SM BKN010 OVC033 03/01 A3003 RMK SC7SC1 SLP174

CYGK;2017-01-19 18:00;CYGK 191800Z 24007KT 12SM -RA BKN020 OVC030 03/01 A3002 RMK SC5SC3 SLP170

CYGK;2017-01-19 18:47;CYGK 191847Z 24006KT 15SM FEW012 OVC030 03/01 A3000 RMK CU2SC6 SLP165

CYGK;2017-01-19 19:00;CYGK 191900Z 24006KT 15SM VCSH FEW015 OVC030 03/01 A3000 RMK CU2SC6 SLP163

CYGK;2017-01-19 20:00;CYGK 192000Z 25005KT 15SM OVC028 03/01 A2999 RMK SC8 SLP162

CYGK;2017-01-19 21:00;CYGK 192100Z 24005KT 15SM VCSH FEW010 OVC023 03/00 A3000 RMK CF1SC7 SLP164

CYGK;2017-01-19 21:20;CYGK 192120Z 24005KT 15SM -RA BKN019 OVC027 02/00 A3000 RMK SC5SC3 SLP164

CYGK;2017-01-19 22:00;CYGK 192200Z 25003KT 15SM -RA SCT018 OVC030 02/01 A3001 RMK SC4SC4 SLP167

CYGK;2017-01-19 22:27;CYGK 192227Z 19004KT 15SM OVC027 01/00 A3001 RMK SC8 SLP168

CYGK;2017-01-19 23:00;CYGK 192300Z 23005KT 15SM FEW012 OVC022 02/00 A3003 RMK SF1SC8 SF TR SLP173

CYGK;2017-01-20 00:00;CYGK 200000Z 26005KT 15SM OVC022 02/01 A3006 RMK SC8 SLP185

CYGK;2017-01-20 01:00;CYGK 200100Z 24004KT 15SM OVC019 01/01 A3005 RMK SC8 SLP181

CYGK;2017-01-20 02:00;CYGK 200200Z 00000KT 15SM OVC021 01/01 A3003 RMK SC8 SLP173

CYGK;2017-01-20 03:00;CYGK 200300Z 11003KT 100V160 8SM OVC021 01/00 A3002 RMK SC8 SLP170

CYGK;2017-01-20 04:00;CYGK 200400Z 15003KT 8SM OVC020 01/00 A3000 RMK SC8 LAST STFD OBS/NEXT 201100 UTC SLP165

CYGK;2017-01-20 11:00;CYGK 201100Z 14005KT 12SM FEW008 OVC015 01/M00 A2993 RMK SF1SC7 SLP139

CYGK;2017-01-20 12:00;CYGK 201200Z 14008KT 15SM FEW008 OVC015 02/M00 A2992 RMK SF1SC8 SF TR SLP136

CYGK;2017-01-20 13:00;CYGK 201300Z 14012KT 15SM OVC014 02/M00 A2992 RMK SC8 SLP136

CYGK;2017-01-20 13:36;CYGK 201336Z 13009KT 15SM OVC015 02/M00 A2992 RMK SC8 SLP136

CYGK;2017-01-20 13:44;CYGK 201344Z 14009KT 15SM OVC013 01/M01 A2992 RMK SC8 SLP136

CYGK;2017-01-20 14:00;CYGK 201400Z 14009KT 12SM OVC010 01/M00 A2991 RMK SC8 SLP134

CYGK;2017-01-20 15:00;CYGK 201500Z 14013KT 15SM BKN012 OVC018 01/M00 A2991 RMK SC7SC1 SLP133

CYGK;2017-01-20 16:00;CYGK 201600Z 13008KT 12SM OVC012 02/M00 A2990 RMK SC8 SLP130

CYGK;2017-01-20 17:00;CYGK 201700Z 10006KT 12SM OVC014 02/00 A2986 RMK SC8 SLP117

CYGK;2017-01-20 17:23;CYGK 201723Z 09007KT 15SM FEW008 OVC015 03/01 A2985 RMK SF1SC7 SLP113

CYGK;2017-01-20 17:40;CYGK 201740Z 09007KT 15SM FEW008 OVC013 02/00 A2984 RMK SF1SC7 SLP111

CYGK;2017-01-20 18:00;CYGK 201800Z 08008KT 15SM FEW008 OVC012 02/00 A2983 RMK SF2SC6 SLP107

CYGK;2017-01-20 19:00;CYGK 201900Z 07007KT 15SM BKN013 OVC022 03/01 A2981 RMK SC6SC2 SLP100

CYGK;2017-01-20 20:00;CYGK 202000Z 06007KT 15SM FEW012 OVC020 03/00 A2981 RMK SC1SC7 SLP098

CYGK;2017-01-20 21:00;CYGK 202100Z 06007KT 15SM OVC020 03/00 A2980 RMK SC8 SLP096

CYGK;2017-01-20 22:00;CYGK 202200Z 06007KT 15SM OVC021 03/00 A2980 RMK SC8 SLP095

CYGK;2017-01-20 23:00;CYGK 202300Z 06007KT 15SM BKN021 OVC026 02/M00 A2980 RMK SC6SC2 SLP095

CYGK;2017-01-21 00:00;CYGK 210000Z 06006KT 15SM OVC024 02/00 A2979 RMK SC8 SLP094

CYGK;2017-01-21 01:00;CYGK 210100Z 05006KT 15SM OVC021 02/00 A2978 RMK SC8 SLP091

CYGK;2017-01-21 02:00;CYGK 210200Z 04003KT 15SM OVC012 02/00 A2979 RMK SC8 SLP094

CYGK;2017-01-21 03:00;CYGK 210300Z 05004KT 15SM OVC011 02/00 A2979 RMK SC8 SLP093

CYGK;2017-01-21 04:00;CYGK 210400Z 06003KT 15SM OVC010 02/00 A2979 RMK SC8 LAST STFD OBS/NEXT 211100 UTC SLP092

CYGK;2017-01-21 11:00;CYGK 211100Z 24008KT 5SM BR OVC004 04/03 A2977 RMK SF8 SLP087

CYGK;2017-01-21 11:49;CYGK 211149Z 25008KT 1/2SM FG VV002 03/03 A2978 RMK FG8 SLP090

CYGK;2017-01-21 12:00;CYGK 211200Z 24008KT 1/4SM FG VV001 03/03 A2978 RMK FG8 SLP091

CYGK;2017-01-21 13:00;CYGK 211300Z 25007KT 3/8SM FG VV002 03/03 A2980 RMK FG8 SLP095

CYGK;2017-01-21 13:07;CYGK 211307Z 26006KT 1 1/2SM BR OVC003 03/03 A2979 RMK SF8 SLP092

CYGK;2017-01-21 13:22;CYGK 211322Z 27007KT 1SM BR OVC003 03/03 A2979 RMK SF8 SLP092

CYGK;2017-01-21 13:27;CYGK 211327Z 27007KT 3/4SM BR OVC002 03/02 A2979 RMK SF8 SLP093

CYGK;2017-01-21 13:45;CYGK 211345Z 28005KT 1/2SM FG VV002 03/02 A2979 RMK FG8 SLP092

CYGK;2017-01-21 14:00;CYGK 211400Z 25007KT 1/2SM FG VV002 03/02 A2980 RMK FG8 SLP095

CYGK;2017-01-21 14:22;CYGK 211422Z 26005KT 3/8SM FG VV002 02/02 A2979 RMK FG8 SLP093

CYGK;2017-01-21 15:00;CYGK 211500Z 25007KT 3/8SM FG VV002 03/02 A2980 RMK FG8 SLP096

CYGK;2017-01-21 16:00;CYGK 211600Z 28005KT 5/8SM BR VV002 03/03 A2980 RMK FG8 VIS S 1/4 SLP096

CYGK;2017-01-21 17:00;CYGK 211700Z 24004KT 1/2SM FG VV002 03/02 A2977 RMK FG8 SLP087

CYGK;2017-01-21 17:22;CYGK 211722Z 22004KT 1/4SM FG VV002 03/02 A2976 RMK FG8 SLP082

CYGK;2017-01-21 18:00;CYGK 211800Z 24005KT 1/4SM FG VV002 03/02 A2976 RMK FG8 SLP083

CYGK;2017-01-21 18:40;CYGK 211840Z 22002KT 5/8SM BR VV003 03/03 A2975 RMK FG8 SLP080

CYGK;2017-01-21 18:50;CYGK 211850Z 20005KT 1/2SM FG VV002 03/03 A2975 RMK FG8 SLP080

CYGK;2017-01-21 19:00;CYGK 211900Z 23005KT 1/2SM FG VV002 03/03 A2976 RMK FG8 SLP083

CYGK;2017-01-21 19:08;CYGK 211908Z 23005KT 3/4SM BR OVC004 03/03 A2976 RMK FG4ST4 VIS S 1/2 SLP084

CYGK;2017-01-21 19:23;CYGK 211923Z 23005KT 1SM BR OVC004 03/03 A2976 RMK ST8 VIS S 1/2 SLP084

CYGK;2017-01-21 20:00;CYGK 212000Z 23004KT 2SM BR OVC004 03/03 A2976 RMK ST8 SLP083

CYGK;2017-01-21 21:00;CYGK 212100Z VRB02KT 4SM BR OVC004 04/03 A2976 RMK ST8 SLP083

CYGK;2017-01-21 22:00;CYGK 212200Z 16005KT 1SM BR OVC003 03/02 A2977 RMK ST8 SLP086

CYGK;2017-01-21 22:09;CYGK 212209Z 14005KT 1SM BR OVC002 03/02 A2976 RMK FG6ST2 VIS LWR S-NW SLP084

CYGK;2017-01-21 22:24;CYGK 212224Z 15004KT 3/4SM BR VV002 03/02 A2977 RMK FG8 SLP085

CYGK;2017-01-21 22:35;CYGK 212235Z 13003KT 1/2SM FG VV002 02/02 A2976 RMK FG8 SLP084

CYGK;2017-01-21 23:00;CYGK 212300Z 14002KT 3/8SM FG VV001 02/02 A2976 RMK FG8 SLP083

CYGK;2017-01-22 00:00;CYGK 220000Z 13003KT 3/8SM FG VV001 03/02 A2976 RMK FG8 SLP082

CYGK;2017-01-22 00:16;CYGK 220016Z 08003KT 1/4SM FG VV001 02/02 A2976 RMK FG8 SLP081

CYGK;2017-01-22 01:00;CYGK 220100Z 04005KT 1/4SM FG VV001 03/02 A2976 RMK FG8 SLP082

CYGK;2017-01-22 02:00;CYGK 220200Z 04003KT 1/2SM FG VV002 03/02 A2977 RMK FG8 SLP085

CYGK;2017-01-22 02:21;CYGK 220221Z 05006KT 1SM BR VV002 03/02 A2977 RMK FG8 SLP085

CYGK;2017-01-22 02:36;CYGK 220236Z 05006KT 3/4SM BR VV002 03/02 A2977 RMK FG8 SLP085

CYGK;2017-01-22 03:00;CYGK 220300Z 05009KT 1 1/2SM BR OVC002 02/02 A2975 RMK FG6ST2 SLP080

CYGK;2017-01-22 03:35;CYGK 220335Z 03008KT 3SM BR BKN002 OVC050 03/02 A2974 RMK ST6SC2 SLP076

CYGK;2017-01-22 04:00;CYGK 220400Z 04010KT 1SM BR OVC002 02/02 A2973 RMK ST8 LAST STFD OBS/NEXT 221100 UTC SLP074

CYGK;2017-01-22 11:00;CYGK 221100Z 03011KT 15SM BKN020 BKN040 OVC070 03/02 A2972 RMK SC5SC2AC1 SLP069

CYGK;2017-01-22 12:00;CYGK 221200Z 04010KT 15SM BKN023 BKN047 03/02 A2973 RMK SC5SC2 SLP074

CYGK;2017-01-22 13:00;CYGK 221300Z 04011KT 15SM SCT024 BKN050 03/02 A2974 RMK SC4SC3 SLP075

CYGK;2017-01-22 14:00;CYGK 221400Z 03011G16KT 15SM FEW010 SCT024 BKN050 BKN072 03/02 A2973 RMK SF1SC2SC3AC1 SLP073

CYGK;2017-01-22 15:00;CYGK 221500Z 05010G17KT 15SM FEW009 OVC020 04/02 A2976 RMK SF2SC6 SLP082

CYGK;2017-01-22 16:00;CYGK 221600Z 04018G23KT 12SM SCT008 OVC029 04/02 A2979 RMK SF3SC5 SLP092

CYGK;2017-01-22 17:00;CYGK 221700Z 04016KT 12SM FEW008 BKN022 OVC028 03/01 A2978 RMK SF2SC4SC2 SLP090

CYGK;2017-01-22 18:00;CYGK 221800Z 04011G20KT 15SM FEW008 OVC023 03/01 A2977 RMK SF2SC6 SLP087

CYGK;2017-01-22 19:00;CYGK 221900Z 04015G23KT 15SM OVC024 03/M00 A2975 RMK SC8 SLP080

CYGK;2017-01-22 20:00;CYGK 222000Z 04016G23KT 15SM OVC023 03/M00 A2975 RMK SC8 SLP079

CYGK;2017-01-22 21:00;CYGK 222100Z 04013G23KT 15SM FEW024 SCT170 BKN200 04/M01 A2976 RMK SC2AC1CI3 SLP082

CYGK;2017-01-22 22:00;CYGK 222200Z 04016G22KT 15SM FEW024 SCT170 BKN230 02/M02 A2979 RMK SC1AC2CI2 SLP093

CYGK;2017-01-22 23:00;CYGK 222300Z 04016G22KT 15SM FEW025 SCT170 BKN230 01/M02 A2980 RMK SC1AC3CI2 SC TR SLP097

CYGK;2017-01-23 00:00;CYGK 230000Z 04014G23KT 15SM SCT160 SCT230 01/M03 A2981 RMK AC3CI1 SLP098

CYGK;2017-01-23 01:00;CYGK 230100Z 04014G19KT 15SM FEW025 SCT150 SCT200 01/M02 A2982 RMK CF1AC3CI1 CF TR SLP103

CYGK;2017-01-23 01:49;CYGK 230149Z 04012G19KT 15SM FEW013 SCT025 BKN160 01/M02 A2984 RMK SC2SC2AC2 SLP108

CYGK;2017-01-23 02:00;CYGK 230200Z 05014G19KT 15SM BKN013 OVC140 01/M02 A2984 RMK SC5AC3 SLP110

CYGK;2017-01-23 02:17;CYGK 230217Z 04013G19KT 15SM OVC013 01/M02 A2984 RMK SC8 SLP108

CYGK;2017-01-23 03:00;CYGK 230300Z 04018G26KT 15SM OVC010 01/M02 A2983 RMK SC8 SLP107

CYGK;2017-01-23 04:00;CYGK 230400Z 04016G25KT 15SM OVC013 01/M02 A2982 RMK SC8 LAST STFD OBS/NEXT 231115 UTC SLP104

CYGK;2017-01-23 11:00;CYGK 231100Z 04012G18KT 2 1/2SM -FZDZ BR BKN005 OVC021 M01/M02 A2986 RMK SF7SC1 SLP116

CYGK;2017-01-23 11:52;CYGK 231152Z 05014G19KT 2SM -FZDZ BR OVC005 M01/M02 A2987 RMK SF8 SLP121

CYGK;2017-01-23 12:00;CYGK 231200Z 04013G19KT 2SM -FZDZ BR OVC006 M01/M02 A2987 RMK SF8 SLP122

CYGK;2017-01-23 12:28;CYGK 231228Z 04013G18KT 3SM -FZDZ BR BKN006 OVC025 M01/M02 A2989 RMK SF7SC1 SLP126

CYGK;2017-01-23 12:43;CYGK 231243Z 04011G19KT 5SM BR BKN005 OVC030 M01/M02 A2988 RMK SF5SC3 SLP124

CYGK;2017-01-23 13:00;CYGK 231300Z 04011G17KT 6SM BR BKN005 OVC031 M01/M02 A2988 RMK SF5SC3 SLP125

CYGK;2017-01-23 14:00;CYGK 231400Z 04013G21KT 6SM BR BKN005 OVC035 M01/M02 A2989 RMK SF6SC2 SLP127

CYGK;2017-01-23 14:48;CYGK 231448Z 04014G20KT 12SM SCT005 BKN034 OVC060 M00/M02 A2989 RMK SF4SC3SC1 SLP128

CYGK;2017-01-23 15:00;CYGK 231500Z 04013KT 10SM SCT005 BKN036 OVC062 M00/M02 A2989 RMK SF4SC3SC1 SLP128

CYGK;2017-01-23 16:00;CYGK 231600Z 04014G19KT 10SM SCT005 OVC034 M00/M01 A2990 RMK SF4SC4 SLP129

CYGK;2017-01-23 17:00;CYGK 231700Z 05009G16KT 10SM SCT006 BKN038 OVC070 00/M01 A2989 RMK SF3SC4AC1 SLP127

CYGK;2017-01-23 18:00;CYGK 231800Z 05013G20KT 15SM SCT010 BKN037 BKN190 01/M01 A2985 RMK SF3SC2CI2 SLP114

CYGK;2017-01-23 19:00;CYGK 231900Z 04009G15KT 15SM FEW010 BKN037 OVC190 01/M01 A2985 RMK SF2SC5CI1 SLP113

CYGK;2017-01-23 20:00;CYGK 232000Z 04013G25KT 15SM FEW010 BKN032 OVC180 01/M02 A2983 RMK SF1SC7AC1 SF TR SLP106

CYGK;2017-01-23 21:00;CYGK 232100Z 03015G22KT 15SM FEW010 BKN028 OVC180 01/M02 A2983 RMK SF1SC5CI2 SLP108

CYGK;2017-01-23 22:00;CYGK 232200Z 04012G20KT 15SM FEW013 FEW030 OVC160 00/M03 A2983 RMK CF1SC1AS6 SLP108

CYGK;2017-01-23 23:00;CYGK 232300Z 04011G17KT 15SM FEW013 FEW030 BKN160 BKN220 M00/M03 A2984 RMK CF1SC1AS4CI2 SC TR SLP112

CYGK;2017-01-24 00:00;CYGK 240000Z 04011G17KT 15SM FEW015 BKN160 OVC210 M00/M04 A2986 RMK CF1AS7CI1 CF TR SLP117

CYGK;2017-01-24 01:00;CYGK 240100Z 04013G18KT 15SM BKN150 OVC180 M01/M04 A2986 RMK AC5AC3 SLP117

CYGK;2017-01-24 02:00;CYGK 240200Z 04013G18KT 15SM SCT150 BKN180 BKN230 M01/M04 A2984 RMK AC3AC2CI2 SLP112

CYGK;2017-01-24 03:00;CYGK 240300Z 04011G18KT 15SM FEW020 SCT150 BKN250 M01/M04 A2983 RMK SC1AC3CI4 SC TR SLP107

CYGK;2017-01-24 04:00;CYGK 240400Z 04010KT 15SM FEW020 BKN075 OVC250 M01/M05 A2982 RMK SC1AC5CI3 SC TR LAST STFD OBS/NEXT 241100 UTC SLP104

CYGK;2017-01-24 11:00;CYGK 241100Z 02011G16KT 12SM -FZRA FEW008 OVC030 M03/M05 A2970 RMK SF1SC7 SLP062

CYGK;2017-01-24 12:00;CYGK 241200Z 03011KT 6SM -FZRA BR FEW012 OVC028 M03/M04 A2970 RMK CF1SC7 SLP062

CYGK;2017-01-24 12:16;CYGK 241216Z 02009G20KT 6SM -FZRA BR BKN011 BKN030 M03/M04 A2969 RMK SF5SC2 SLP061

CYGK;2017-01-24 12:47;CYGK 241247Z 02011G18KT 5SM -FZRA BR BKN008 OVC029 M03/M04 A2969 RMK SF6SC2 SLP059

CYGK;2017-01-24 13:00;CYGK 241300Z 02014KT 5SM -FZRA BR BKN008 OVC030 M03/M04 A2968 RMK SF6SC2 SLP058

CYGK;2017-01-24 14:00;CYGK 241400Z 02012G20KT 5SM -FZRA BR BKN009 OVC025 M02/M04 A2968 RMK SF5SC3 SLP056

CYGK;2017-01-24 14:36;CYGK 241436Z 02011G18KT 4SM -FZRA -PL BR BKN010 OVC025 M02/M04 A2967 RMK SF5SC3 SLP054

CYGK;2017-01-24 15:00;CYGK 241500Z 03009G17KT 4SM -FZRA -PL BR BKN008 OVC024 M02/M03 A2967 RMK SF6SC2 SLP053

CYGK;2017-01-24 15:23;CYGK 241523Z 03012G18KT 5SM -SNPL BR BKN011 OVC025 M02/M04 A2967 RMK SF6SC2 CIG RAG SLP053

CYGK;2017-01-24 15:37;CYGK 241537Z 03012G19KT 4SM -SN BKN008 OVC015 M02/M04 A2967 RMK SF5SC3 SLP052

CYGK;2017-01-24 16:00;CYGK 241600Z 02012G18KT 1 1/2SM -SN BKN010 OVC029 M02/M04 A2966 RMK SF6SC2 CIG RAG SLP050

CYGK;2017-01-24 16:11;CYGK 241611Z 03013KT 1 1/2SM -SN BKN008 OVC025 M02/M04 A2966 RMK SF6SC2 SLP049

CYGK;2017-01-24 16:20;CYGK 241620Z 04013KT 1 1/2SM -FZRA -SN OVC008 M02/M04 A2965 RMK SF8 SLP047

CYGK;2017-01-24 16:35;CYGK 241635Z 03010G17KT 1SM -SN OVC009 M02/M04 A2964 RMK SN4SF4 SLP044

CYGK;2017-01-24 17:02;CYGK 241702Z 03010G18KT 3/4SM -SN VV008 M02/M04 A2963 RMK SN8 SLP041

CYGK;2017-01-24 18:00;CYGK 241800Z 03009KT 5/8SM -SN VV007 M02/M04 A2959 RMK SN8 SLP028

CYGK;2017-01-24 18:44;CYGK 241844Z 02007KT 1SM -SN BKN008 OVC023 M02/M04 A2959 RMK SF6SC2 SLP025

CYGK;2017-01-24 19:00;CYGK 241900Z 01009KT 1SM -SN BKN008 OVC018 M02/M04 A2958 RMK SF6SC2 CIG RAG /S01/ SLP023

CYGK;2017-01-24 20:00;CYGK 242000Z 36010KT 1SM -SN BKN007 OVC025 M03/M04 A2960 RMK SF5NS3 SLP029

CYGK;2017-01-24 21:00;CYGK 242100Z 36007KT 1SM -SN SCT007 BKN011 OVC024 M03/M04 A2961 RMK SF3SC3NS2 SLP033

CYGK;2017-01-24 21:50;CYGK 242150Z 34007KT 2 1/2SM -SN SCT007 OVC020 M03/M04 A2961 RMK SF3NS5 SLP034

CYGK;2017-01-24 22:00;CYGK 242200Z 32006KT 3SM -SN SCT007 OVC020 M03/M04 A2962 RMK SF3NS5 /S03/ SLP036

CYGK;2017-01-24 23:00;CYGK 242300Z 33006KT 8SM -SN FEW007 BKN016 BKN027 OVC090 M03/M04 A2963 RMK SF1SC4SC2AC1 SLP040

CYGK;2017-01-25 00:00;CYGK 250000Z 32007KT 12SM -SN FEW010 SCT015 OVC098 M03/M05 A2963 RMK SF1SC4AC4 SF TR SLP040

CYGK;2017-01-25 00:47;CYGK 250047Z 32008KT 15SM BKN019 BKN085 OVC180 M03/M05 A2963 RMK SC6AC1AC1 SLP040

CYGK;2017-01-25 01:00;CYGK 250100Z 33007KT 15SM BKN019 OVC180 M03/M05 A2963 RMK SC7AC1 SLP040

CYGK;2017-01-25 02:00;CYGK 250200Z 32006KT 15SM BKN018 BKN040 OVC170 M03/M05 A2963 RMK SC6SC1AC1 SLP040

CYGK;2017-01-25 03:00;CYGK 250300Z 31006KT 15SM BKN020 OVC050 M03/M05 A2963 RMK SC7SC1 SLP041

CYGK;2017-01-25 04:00;CYGK 250400Z 31005KT 15SM BKN022 OVC050 M04/M06 A2964 RMK SC5SC3 LAST STFD OBS/NEXT 251100 UTC SLP042

CYGK;2017-01-25 11:00;CYGK 251100Z 27006KT 15SM BKN035 M03/M05 A2963 RMK SC6 SLP041

CYGK;2017-01-25 12:00;CYGK 251200Z 27007KT 15SM FEW015 BKN040 M03/M05 A2964 RMK CU1SC6 SLP043

CYGK;2017-01-25 13:00;CYGK 251300Z 25009KT 15SM FEW015 BKN032 M03/M04 A2965 RMK CU1SC6 SLP046

CYGK;2017-01-25 14:00;CYGK 251400Z 26008KT 15SM FEW015 BKN033 BKN100 M02/M04 A2965 RMK CF1SC5AC1 SLP046

CYGK;2017-01-25 14:47;CYGK 251447Z 27007KT 15SM SCT006 BKN030 M01/M03 A2964 RMK CF4SC3 SLP042

CYGK;2017-01-25 15:00;CYGK 251500Z 26007KT 15SM BKN006 BKN030 M01/M03 A2964 RMK CF5SC2 SLP043

CYGK;2017-01-25 15:31;CYGK 251531Z 26007KT 15SM BKN010 BKN032 M01/M03 A2964 RMK CF5SC2 SLP042

CYGK;2017-01-25 16:00;CYGK 251600Z 26007KT 15SM BKN010 BKN030 M01/M03 A2963 RMK SC6SC1 SLP041

CYGK;2017-01-25 17:00;CYGK 251700Z 26007KT 230V290 10SM BKN010 OVC040 00/M02 A2960 RMK SC5SC3 CIG RAG SLP031

CYGK;2017-01-25 17:37;CYGK 251737Z 24008KT 15SM SCT012 BKN030 OVC040 01/M02 A2959 RMK SC4SC2SC2 SLP024

CYGK;2017-01-25 18:00;CYGK 251800Z 25007KT 15SM FEW012 SCT030 BKN038 01/M01 A2957 RMK SC1SC2SC4 SLP020

CYGK;2017-01-25 19:00;CYGK 251900Z 25006KT 15SM BKN013 OVC038 02/M01 A2957 RMK SC6SC2 SLP020

CYGK;2017-01-25 20:00;CYGK 252000Z 25007KT 15SM FEW013 OVC018 02/M01 A2957 RMK SC1SC7 SLP019

CYGK;2017-01-25 21:00;CYGK 252100Z 20005KT 15SM BKN014 OVC020 02/M00 A2956 RMK SC6SC2 SLP016

CYGK;2017-01-25 22:00;CYGK 252200Z 22004KT 15SM BKN020 BKN090 02/M00 A2954 RMK SC5AC2 SLP010

CYGK;2017-01-25 23:00;CYGK 252300Z 19009KT 15SM -RA BKN020 OVC100 01/M00 A2953 RMK SC7AC1 SLP006

CYGK;2017-01-25 23:33;CYGK 252333Z 20007KT 15SM BKN014 OVC025 01/00 A2952 RMK SC5SC3 SLP002

CYGK;2017-01-26 00:00;CYGK 260000Z 19005KT 15SM BKN026 OVC070 01/00 A2950 RMK SC6AC2 SLP996

CYGK;2017-01-26 00:36;CYGK 260036Z 21007KT 8SM -RA OVC013 01/00 A2953 RMK SC8 PRESRR SLP004

CYGK;2017-01-26 00:47;CYGK 260047Z 21008KT 4SM -RASN OVC011 01/00 A2952 RMK SC8 SLP002

CYGK;2017-01-26 01:00;CYGK 260100Z 25004KT 3SM -RASN BR OVC009 01/00 A2952 RMK SF8 SLP001

CYGK;2017-01-26 01:32;CYGK 260132Z 25003KT 8SM -RA BKN008 OVC016 01/00 A2950 RMK SF6SC2 SLP997

CYGK;2017-01-26 01:44;CYGK 260144Z 24003KT 8SM -SN SCT008 OVC017 01/00 A2950 RMK SF4SC4 SLP994

CYGK;2017-01-26 02:00;CYGK 260200Z 00000KT 8SM SCT008 OVC015 01/00 A2949 RMK SF3SC5 SLP992

CYGK;2017-01-26 02:33;CYGK 260233Z 00000KT 10SM BKN008 OVC014 01/00 A2948 RMK SF5SC3 SLP988

CYGK;2017-01-26 03:00;CYGK 260300Z 00000KT 10SM SCT008 OVC045 01/00 A2947 RMK SF3SC5 SLP983

CYGK;2017-01-26 03:36;CYGK 260336Z VRB02KT 8SM -SN SCT008 OVC035 01/00 A2945 RMK SF3SC5 SLP977

CYGK;2017-01-26 04:00;CYGK 260400Z 08003KT 8SM -SN FEW004 OVC018 01/00 A2943 RMK SF2SC6 LAST STFD OBS/NEXT 261100UTC SLP972

CYGK;2017-01-26 11:00;CYGK 261100Z 27005KT 3SM BR BKN002 OVC031 02/01 A2932 RMK SF7SC1 SLP932

CYGK;2017-01-26 11:45;CYGK 261145Z 24004KT 5/8SM BR VV002 01/01 A2933 RMK FG8 SLP936

CYGK;2017-01-26 12:00;CYGK 261200Z 24007KT 1/4SM FG VV001 01/01 A2934 RMK FG8 SLP940

CYGK;2017-01-26 13:00;CYGK 261300Z 25004KT 1/8SM FG VV001 01/01 A2934 RMK FG8 SLP940

CYGK;2017-01-26 13:15;CYGK 261315Z 24003KT 1/4SM -RA FG VV001 01/01 A2934 RMK FG8 SLP940

CYGK;2017-01-26 14:00;CYGK 261400Z 26003KT 1/8SM -RA VV001 01/01 A2932 RMK FG8 SLP935

CYGK;2017-01-26 14:09;CYGK 261409Z 26004KT 3/8SM -RA FG OVC012 01/01 A2932 RMK FG6SC2 SLP933

CYGK;2017-01-26 14:38;CYGK 261438Z 25005KT 1/2SM -RA FG OVC022 01/01 A2931 RMK FG6SC2 SLP932

CYGK;2017-01-26 15:00;CYGK 261500Z 24005KT 1/4SM -RA FG VV002 01/01 A2931 RMK FG8 SLP932

CYGK;2017-01-26 15:23;CYGK 261523Z 23005KT 1/2SM -RA VV002 01/01 A2931 RMK FG8 SLP932

CYGK;2017-01-26 15:27;CYGK 261527Z 23006KT 3/4SM -RA BR VV003 01/01 A2931 RMK FG8 SLP932

CYGK;2017-01-26 15:41;CYGK 261541Z 25007KT 1SM -RASN BR OVC003 01/01 A2931 RMK FG3NS5 SLP931

CYGK;2017-01-26 16:00;CYGK 261600Z 25007KT 1 1/4SM -RASN BR OVC003 01/01 A2931 RMK FG3NS5 SLP930

CYGK;2017-01-26 16:44;CYGK 261644Z 25006KT 3SM -RASN BR OVC005 01/00 A2929 RMK SF8 SLP924

CYGK;2017-01-26 17:00;CYGK 261700Z 26005KT 4SM -RASN BR OVC006 01/00 A2929 RMK SF8 SLP923

CYGK;2017-01-26 17:27;CYGK 261727Z 27006KT 6SM -RA BR OVC004 01/01 A2928 RMK NS8 SLP921

CYGK;2017-01-26 18:00;CYGK 261800Z 27006KT 8SM -RA OVC006 01/01 A2928 RMK NS8 SLP919

CYGK;2017-01-26 19:00;CYGK 261900Z 27007KT 10SM -RA BKN006 OVC013 01/01 A2929 RMK SF5SC3 SLP923

CYGK;2017-01-26 19:41;CYGK 261941Z 27006KT 7SM -RA SCT006 OVC030 01/01 A2931 RMK SF3SC5 SLP930

CYGK;2017-01-26 20:00;CYGK 262000Z 28008KT 8SM -RA FEW006 OVC030 02/01 A2932 RMK SF2SC6 SLP933

CYGK;2017-01-26 20:38;CYGK 262038Z 28006KT 12SM SCT007 BKN035 OVC080 02/01 A2933 RMK SF3SC2AC3 SLP938

CYGK;2017-01-26 21:00;CYGK 262100Z 27007KT 12SM -SHRA FEW007 BKN035 OVC075 02/01 A2934 RMK SF2CU4AC2 SLP942

CYGK;2017-01-26 21:25;CYGK 262125Z 31011G17KT 260V330 10SM -SHRASN BKN012 02/00 A2936 RMK CU7 VIS NW-N 5 SLP947

CYGK;2017-01-26 22:00;CYGK 262200Z 30008KT 10SM -SHRASN SCT010 OVC030 01/M00 A2938 RMK CU3SC5 VIS S 5 SLP954

CYGK;2017-01-26 22:20;CYGK 262220Z 29007KT 15SM -SHSN SCT012 OVC040 01/M00 A2939 RMK CU3SC5 SLP957

CYGK;2017-01-26 23:00;CYGK 262300Z 29008KT 15SM -SHSN FEW025 BKN060 01/M01 A2941 RMK SC2SC5 SLP963

CYGK;2017-01-26 23:43;CYGK 262343Z 28007KT 15SM BKN060 OVC100 01/M00 A2942 RMK SC5AC3 SLP966

CYGK;2017-01-27 00:00;CYGK 270000Z 27007KT 15SM SCT060 OVC100 01/M00 A2942 RMK SC3AC5 SLP968

CYGK;2017-01-27 01:00;CYGK 270100Z 26009KT 15SM FEW020 OVC098 01/M01 A2943 RMK SC1AC7 SLP971

CYGK;2017-01-27 02:00;CYGK 270200Z 26011G18KT 15SM FEW020 OVC092 01/M01 A2943 RMK SC1AC7 SLP972

CYGK;2017-01-27 03:00;CYGK 270300Z 26012G18KT 15SM SCT018 OVC093 01/M01 A2943 RMK SC3AC5 SLP971

CYGK;2017-01-27 04:00;CYGK 270400Z 28016G25KT 15SM SCT020 OVC086 01/M02 A2944 RMK SC4AC4 LAST STFD OBS/NEXT 271100UTC SLP974

CYGK;2017-01-27 11:00;CYGK 271100Z 27012G26KT 15SM -SN OVC028 00/M05 A2948 RMK SC8 SLP988

CYGK;2017-01-27 12:00;CYGK 271200Z 26015G23KT 15SM BKN036 00/M05 A2949 RMK SC7 SLP992

CYGK;2017-01-27 13:00;CYGK 271300Z 25017G24KT 15SM BKN039 00/M04 A2950 RMK SC6 SLP996

CYGK;2017-01-27 14:00;CYGK 271400Z 25017G25KT 15SM FEW015 OVC042 00/M04 A2952 RMK CU1SC7 SLP000

CYGK;2017-01-27 15:00;CYGK 271500Z 25016G22KT 15SM FEW020 BKN040 00/M05 A2951 RMK CF1SC6 CF TR SLP999

CYGK;2017-01-27 16:00;CYGK 271600Z 25012G22KT 15SM VCSH OVC030 00/M04 A2952 RMK SC8 SLP000

CYGK;2017-01-27 16:07;CYGK 271607Z 25014KT 15SM -SHSN OVC033 00/M04 A2951 RMK SC8 SLP999

CYGK;2017-01-27 17:00;CYGK 271700Z 25015G20KT 15SM -SN BKN030 01/M04 A2949 RMK SC7 SLP992

CYGK;2017-01-27 18:00;CYGK 271800Z 26013G20KT 15SM VCSH BKN030 01/M04 A2947 RMK SC7 CIG RAG SLP983

CYGK;2017-01-27 19:00;CYGK 271900Z 26016G23KT 15SM VCSH FEW025 OVC040 02/M05 A2945 RMK CU2SC6 SLP978

CYGK;2017-01-27 20:00;CYGK 272000Z 26015G20KT 15SM VCSH FEW015 BKN030 BKN250 02/M04 A2945 RMK CF1CU4CI2 SLP977

CYGK;2017-01-27 20:19;CYGK 272019Z 26014G29KT 10SM -SHSN SCT025 OVC038 02/M04 A2945 RMK CU3SC5 SLP978

CYGK;2017-01-27 21:00;CYGK 272100Z 26012G20KT 15SM -SHSN SCT025 OVC045 01/M04 A2946 RMK CU3SC5 SLP981

CYGK;2017-01-27 22:00;CYGK 272200Z 26015G22KT 15SM FEW030 OVC060 01/M05 A2947 RMK CU2SC6 OCNL -SHSN SLP985

CYGK;2017-01-27 23:00;CYGK 272300Z 27017G27KT 8SM -SHSN BKN025 OVC060 01/M04 A2948 RMK CU6SC2 SLP988

CYGK;2017-01-28 00:00;CYGK 280000Z 26015G22KT 15SM -SHSN FEW020 BKN060 00/M04 A2950 RMK CF1SC6 SLP993

CYGK;2017-01-28 01:00;CYGK 280100Z 26010G15KT 6SM -SHSN FEW015 OVC040 M01/M03 A2951 RMK CF1SC7 SLP000

CYGK;2017-01-28 01:42;CYGK 280142Z 27011G17KT 2 1/2SM -SHSN VV011 M01/M03 A2952 RMK SN8 SLP002

CYGK;2017-01-28 02:00;CYGK 280200Z 27008G16KT 1SM -SHSN VV007 M01/M03 A2952 RMK SN8 /S01/ SLP003

CYGK;2017-01-28 02:14;CYGK 280214Z 26009G16KT 1 1/2SM -SHSN OVC020 M01/M03 A2953 RMK SN6CU2 SLP004

CYGK;2017-01-28 02:31;CYGK 280231Z 26009KT 3SM -SHSN OVC020 M01/M02 A2953 RMK CU8 SLP004

CYGK;2017-01-28 03:00;CYGK 280300Z CCA 26010KT 3SM -SHSN OVC020 M01/M03 A2952 RMK SF8 SLP003

CYGK;2017-01-28 03:11;CYGK 280311Z 26009KT 2SM -SHSN OVC020 M01/M03 A2952 RMK SN6CU2 SLP002

CYGK;2017-01-28 03:20;CYGK 280320Z 26011G17KT 1SM -SHSN VV007 M01/M03 A2952 RMK SN8 SLP003

CYGK;2017-01-28 03:26;CYGK 280326Z 26010KT 5SM -SHSN BKN020 OVC030 M01/M03 A2952 RMK CU6SC2 SLP003

CYGK;2017-01-28 04:00;CYGK 280400Z 27009KT 6SM -SHSN BKN020 OVC030 M01/M03 A2953 RMK CU6SC2 /S02/ LAST STFD OBS/NEXT 281100UTC SLP004

CYGK;2017-01-28 11:00;CYGK 281100Z 25007KT 12SM -SHSN SCT025 OVC045 M01/M04 A2953 RMK CU3SC5 SLP004

CYGK;2017-01-28 12:00;CYGK 281200Z 26007KT 8SM -SHSN SCT025 OVC045 M01/M04 A2953 RMK CU3SC5 SLP007

CYGK;2017-01-28 13:00;CYGK 281300Z 27009KT 4SM -SHSN SCT015 OVC035 M01/M05 A2954 RMK CU3SC5 SLP009

CYGK;2017-01-28 14:00;CYGK 281400Z 26009G18KT 15SM -SHSN FEW012 FEW035 OVC061 M01/M05 A2955 RMK SC1CU2SC6 SC TR SLP012

CYGK;2017-01-28 15:00;CYGK 281500Z 25010G17KT 15SM VCSH FEW015 BKN055 OVC100 M00/M05 A2956 RMK CU1SC5AC2 SLP015

CYGK;2017-01-28 16:00;CYGK 281600Z 24013KT 12SM FEW020 SCT052 OVC094 M00/M05 A2956 RMK CU1SC3AC4 SLP016

CYGK;2017-01-28 17:00;CYGK 281700Z 24011KT 15SM FEW020 SCT045 OVC090 00/M05 A2954 RMK CU1SC3AC4 SLP010

CYGK;2017-01-28 17:51;CYGK 281751Z 25014G19KT 10SM -SHSN SCT022 OVC090 00/M05 A2953 RMK CU3AC5 SLP005

CYGK;2017-01-28 18:00;CYGK 281800Z 25016G23KT 8SM -SHSN SCT025 OVC091 00/M04 A2953 RMK CU4AC4 SLP004

CYGK;2017-01-28 19:00;CYGK 281900Z 25012KT 7SM -SHSN SCT019 BKN048 OVC089 00/M03 A2952 RMK CU3SC3AC2 SLP003

CYGK;2017-01-28 20:00;CYGK 282000Z 24012G19KT 5SM -SHSN BKN017 OVC050 M00/M03 A2953 RMK CU7SC1 SLP004

CYGK;2017-01-28 21:00;CYGK 282100Z 24014G23KT 5SM -SHSN BKN018 OVC040 M00/M03 A2953 RMK CU5SC3 SLP004

CYGK;2017-01-28 22:00;CYGK 282200Z 24013G18KT 4SM -SHSN SCT010 OVC018 M00/M03 A2953 RMK SF3CU5 SLP007

CYGK;2017-01-28 22:09;CYGK 282209Z 23012KT 4SM -SHSN BKN011 OVC018 M00/M03 A2953 RMK SF5CU3 SLP007

CYGK;2017-01-28 23:00;CYGK 282300Z 24011G17KT 6SM -SHSN BKN009 OVC018 M01/M02 A2954 RMK SF6CU2 SLP009

CYGK;2017-01-29 00:00;CYGK 290000Z 23013KT 12SM -SHSN BKN007 OVC065 M01/M02 A2954 RMK SF5SC3 SLP009

CYGK;2017-01-29 00:19;CYGK 290019Z 22010G15KT 12SM -SHSN SCT007 BKN022 OVC065 M01/M02 A2954 RMK SF3CU4SC1 SLP010

CYGK;2017-01-29 01:00;CYGK 290100Z 23012G17KT 12SM -SHSN FEW007 OVC018 M00/M02 A2954 RMK SF2CU6 SLP009

CYGK;2017-01-29 02:00;CYGK 290200Z 23013KT 10SM -SHSN FEW007 OVC020 M00/M02 A2954 RMK SF1CU7 SLP008

CYGK;2017-01-29 02:54;CYGK 290254Z 24013G19KT 2SM -SHSN VV012 M00/M03 A2954 RMK SN8 SLP008

CYGK;2017-01-29 03:04;CYGK 290304Z 24015G23KT 1 1/2SM -SHSN VV008 M01/M02 A2954 RMK SN8 SLP008

CYGK;2017-01-29 03:35;CYGK 290335Z 24015G22KT 1/2SM SHSN VV004 M01/M02 A2954 RMK SN8 SLP009

CYGK;2017-01-29 03:39;CYGK 290339Z 23012G22KT 1SM -SHSN VV007 M01/M02 A2954 RMK SHGR8 SLP008

CYGK;2017-01-29 04:00;CYGK 290400Z 23012G20KT 1SM -SHSN VV008 M01/M02 A2953 RMK SN8 /S01/ LAST STFD OBS/NEXT 291100UTC SLP006

CYGK;2017-01-29 11:00;CYGK 291100Z 27008KT 15SM -SN FEW030 OVC100 M03/M06 A2955 RMK SC2AC6 SLP012

CYGK;2017-01-29 12:00;CYGK 291200Z 26008KT 15SM FEW030 OVC097 M03/M06 A2956 RMK SC2AC6 SLP017

CYGK;2017-01-29 13:00;CYGK 291300Z 27006KT 15SM FEW030 BKN100 OVC130 M03/M07 A2957 RMK SC2AC3AC3 SLP018

CYGK;2017-01-29 14:00;CYGK 291400Z 26010KT 15SM FEW020 SCT035 OVC090 M03/M07 A2959 RMK CU1SC2AC5 SLP025

CYGK;2017-01-29 15:00;CYGK 291500Z 26011KT 15SM FEW020 SCT035 BKN087 M02/M08 A2960 RMK CU1SC2AC3 SLP030

CYGK;2017-01-29 16:00;CYGK 291600Z 25012G17KT 15SM SCT030 BKN080 M02/M08 A2962 RMK CU3AC4 SLP036

CYGK;2017-01-29 17:00;CYGK 291700Z 25013G19KT 15SM FEW025 SCT051 BKN080 M02/M09 A2961 RMK SC2SC2AC2 SLP033

CYGK;2017-01-29 18:00;CYGK 291800Z 25011G18KT 15SM VCSH BKN035 M02/M09 A2961 RMK SC7 SLP031

CYGK;2017-01-29 18:06;CYGK 291806Z 24014KT 12SM -SN BKN033 M02/M09 A2961 RMK SC7 SLP031

CYGK;2017-01-29 19:00;CYGK 291900Z 25018KT 15SM -SHSN SCT025TCU BKN062 M02/M09 A2962 RMK TCU3SC3 SLP034

CYGK;2017-01-29 19:46;CYGK 291946Z 26015KT 15SM FEW025 SCT050 M02/M11 A2963 RMK CU2SC2 SLP038

CYGK;2017-01-29 20:00;CYGK 292000Z 26015KT 15SM FEW025 SCT050 SCT070 M02/M12 A2963 RMK CU1SC2AC1 SLP041

CYGK;2017-01-29 21:00;CYGK 292100Z 29014G21KT 15SM VCSH FEW025 BKN050 M03/M12 A2966 RMK CU2SC3 SLP050

CYGK;2017-01-29 22:00;CYGK 292200Z 27009G15KT 15SM FEW025 BKN067 M04/M13 A2968 RMK CU1AC5 CU TR SLP058

CYGK;2017-01-29 23:00;CYGK 292300Z 27006KT 15SM BKN060 M04/M12 A2970 RMK SC6 SLP063

CYGK;2017-01-30 00:00;CYGK 300000Z 28008KT 15SM BKN061 M05/M13 A2972 RMK SC5 SLP070

CYGK;2017-01-30 01:00;CYGK 300100Z 30009G16KT 15SM SCT061 M06/M14 A2972 RMK SC3 SLP070

CYGK;2017-01-30 02:00;CYGK 300200Z 29006KT 15SM FEW060 M07/M14 A2974 RMK SC1 SLP078

CYGK;2017-01-30 03:00;CYGK 300300Z 29005KT 15SM FEW055 M08/M14 A2974 RMK SC1 SLP078

CYGK;2017-01-30 04:00;CYGK 300400Z 30005KT 15SM SKC M09/M14 A2975 RMK LAST STFD OBS/NEXT 301100 UTC SLP080

CYGK;2017-01-30 11:00;CYGK 301100Z 34007KT 15SM FEW020 M15/M18 A2980 RMK SC1 SLP100

CYGK;2017-01-30 12:00;CYGK 301200Z 32006KT 15SM FEW020 FEW100 SCT190 M14/M17 A2982 RMK SC1AC1CI1 SLP108

CYGK;2017-01-30 13:00;CYGK 301300Z 34004KT 15SM FEW024 SCT100 SCT190 M15/M18 A2984 RMK SC1AC2CI1 SLP113

CYGK;2017-01-30 14:00;CYGK 301400Z 34010KT 15SM FEW025 FEW100 SCT190 M13/M18 A2985 RMK SC1AC1CI2 SC TR SLP117

CYGK;2017-01-30 15:00;CYGK 301500Z 35008KT 15SM FEW024 SCT100 SCT200 M12/M18 A2987 RMK SC1AC2CI1 SLP123

CYGK;2017-01-30 16:00;CYGK 301600Z 31006KT 15SM FEW025 FEW100 FEW200 M11/M18 A2988 RMK SC1AC1CI1 SC TR SLP125

CYGK;2017-01-30 17:00;CYGK 301700Z 28009KT 270V330 15SM FEW025 FEW100 FEW200 M10/M18 A2987 RMK SC1AC1CI1 AC TR SLP123

CYGK;2017-01-30 18:00;CYGK 301800Z 32005KT 260V360 15SM FEW031 FEW250 M10/M19 A2986 RMK SC1CI1 CI TR SLP121

CYGK;2017-01-30 19:00;CYGK 301900Z 33006KT 280V340 15SM FEW034 FEW210 M09/M18 A2985 RMK SC2CI1 CI TR SLP118

CYGK;2017-01-30 20:00;CYGK 302000Z 29009KT 210V310 15SM FEW037 FEW250 M08/M18 A2987 RMK SC2CI1 CI TR SLP122

CYGK;2017-01-30 21:00;CYGK 302100Z 27008KT 230V310 15SM FEW040 FEW100 M08/M17 A2988 RMK SC2AC1 AC TR SLP126

CYGK;2017-01-30 22:00;CYGK 302200Z 29006KT 230V320 15SM FEW040 FEW240 M09/M18 A2990 RMK SC2CI1 CI TR SLP132

CYGK;2017-01-30 23:00;CYGK 302300Z 28005KT 15SM FEW040 FEW250 M10/M18 A2992 RMK SC1CI1 CI TR SLP140

CYGK;2017-01-31 00:00;CYGK 310000Z 27005KT 15SM SKC M10/M18 A2993 RMK SLP144

CYGK;2017-01-31 01:00;CYGK 310100Z 28007KT 15SM SKC M10/M18 A2993 RMK SLP145

CYGK;2017-01-31 02:00;CYGK 310200Z 29006KT 15SM SKC M11/M18 A2993 RMK SLP145

CYGK;2017-01-31 03:00;CYGK 310300Z 33005KT 15SM SKC M13/M19 A2992 RMK SLP141

CYGK;2017-01-31 04:00;CYGK 310400Z 34006KT 15SM SKC M14/M18 A2992 RMK LAST STFD OBS/NEXT 311100 UTC SLP141

CYGK;2017-01-31 11:00;CYGK 311100Z 06005KT 15SM FEW025 SCT220 M12/M16 A2985 RMK SC1CI3 SC TR SLP116

CYGK;2017-01-31 12:00;CYGK 311200Z 04006KT 15SM FEW020 SCT040 BKN220 M12/M15 A2983 RMK CU1SC3CI3 CU TR SLP110

CYGK;2017-01-31 13:00;CYGK 311300Z 06005KT 15SM SCT025 BKN110 BKN220 M11/M15 A2983 RMK SC3AC2CI2 SLP111

CYGK;2017-01-31 14:00;CYGK 311400Z 06005KT 15SM FEW025 FEW110 BKN220 M10/M14 A2984 RMK SC1AC1CI5 SLP112

CYGK;2017-01-31 15:00;CYGK 311500Z 07008KT 15SM FEW025 SCT050 BKN220 M08/M12 A2982 RMK CF1SC4CI2 CF TR SLP108

CYGK;2017-01-31 16:00;CYGK 311600Z 09011KT 15SM FEW025 FEW055 SCT160 BKN220 M06/M11 A2979 RMK SC1SC2AC1CI4 SC TR SLP097

CYGK;2017-01-31 17:00;CYGK 311700Z 08011KT 15SM FEW025 FEW050 BKN220 M05/M11 A2976 RMK CF1SC1CI5 CF TR SLP085

CYGK;2017-01-31 18:00;CYGK 311800Z 09011KT 15SM FEW025 FEW150 SCT200 BKN240 M04/M12 A2972 RMK CF1AC2CC1CI3 CF TR SLP071

CYGK;2017-01-31 19:00;CYGK 311900Z 08012KT 15SM BKN037 OVC220 M04/M12 A2971 RMK SC7CI1 SLP067

CYGK;2017-01-31 20:00;CYGK 312000Z 08012KT 10SM -SN OVC029 M04/M11 A2971 RMK SC8 SLP068

CYGK;2017-01-31 21:00;CYGK 312100Z 07012KT 10SM -SN FEW030 OVC047 M04/M09 A2972 RMK SC2SC6 SLP072

CYGK;2017-01-31 22:00;CYGK 312200Z 06007KT 10SM -SN BKN021 OVC025 M04/M08 A2974 RMK SC5SC3 SLP078

CYGK;2017-01-31 23:00;CYGK 312300Z 03008KT 15SM -SN OVC022 M04/M09 A2975 RMK SC8 PCPN VRY LGT SLP083

CYGK;2017-02-01 00:00;CYGK 010000Z 05011KT 15SM -SN OVC025 M04/M11 A2976 RMK SC8 PCPN VRY LGT SLP085

CYGK;2017-02-01 01:00;CYGK 010100Z 05013KT 15SM -SN OVC023 M05/M11 A2975 RMK SC8 PCPN VRY LGT SLP083

CYGK;2017-02-01 02:00;CYGK 010200Z 05011KT 15SM -SN OVC023 M06/M12 A2975 RMK SC8 SLP081

CYGK;2017-02-01 03:00;CYGK 010300Z 05010KT 5SM -SN OVC028 M06/M11 A2973 RMK SC8 SLP076

CYGK;2017-02-01 04:00;CYGK 010400Z 04009KT 5SM -SN BKN017 OVC042 M07/M10 A2972 RMK SC6SC2 LAST STFD OBS/NEXT 011100 UTC SLP072

CYGK;2017-02-01 11:00;CYGK 011100Z 35004KT 6SM -SN FEW018 OVC070 M08/M10 A2975 RMK SC2AC6 /S04 AFT 00Z/ SLP080

CYGK;2017-02-01 12:00;CYGK 011200Z 35003KT 6SM -SN FEW018 OVC070 M09/M10 A2977 RMK SC2AC6 SLP087

CYGK;2017-02-01 12:47;CYGK 011247Z 04002KT 2SM -SN VV010 M08/M10 A2978 RMK SN8 SLP090

CYGK;2017-02-01 12:51;CYGK 011251Z 02002KT 1SM -SN VV010 M08/M10 A2978 RMK SN8 SLP090

CYGK;2017-02-01 13:00;CYGK 011300Z 02002KT 1 1/2SM -SN OVC025 M08/M10 A2978 RMK SN7SC1 SLP092

CYGK;2017-02-01 13:07;CYGK 011307Z 02002KT 2 1/2SM -SN OVC023 M08/M10 A2978 RMK SN4SC4 SLP092

CYGK;2017-02-01 13:32;CYGK 011332Z 06002KT 1 1/2SM -SN OVC020 M08/M10 A2979 RMK SN6SC2 SLP093

CYGK;2017-02-01 13:43;CYGK 011343Z 02003KT 3SM -SN OVC018 M08/M10 A2979 RMK SC8 SLP094

CYGK;2017-02-01 14:00;CYGK 011400Z 02002KT 3SM -SN BKN018 OVC030 M07/M10 A2979 RMK SC6SC2 /S01/ SLP096

CYGK;2017-02-01 14:44;CYGK 011444Z 34002KT 1 1/2SM -SN BKN025 M07/M09 A2980 RMK SN4SC3 SLP098

CYGK;2017-02-01 14:50;CYGK 011450Z 34002KT 3SM -SN BKN025 M07/M09 A2980 RMK SC7 SLP098

CYGK;2017-02-01 15:00;CYGK 011500Z 33002KT 5SM -SN SCT025 BKN250 M07/M09 A2980 RMK SC4CI3 SLP098

CYGK;2017-02-01 15:48;CYGK 011548Z 00000KT 10SM BKN023 BKN080 M06/M09 A2981 RMK SC6AC1 SLP101

CYGK;2017-02-01 16:00;CYGK 011600Z VRB04KT 10SM BKN021 OVC080 M05/M07 A2981 RMK SC7AC1 SLP101

CYGK;2017-02-01 17:00;CYGK 011700Z 28008KT 15SM FEW012 BKN023 M03/M06 A2980 RMK CF1SC7 CF TR SLP099

CYGK;2017-02-01 18:00;CYGK 011800Z 27008KT 15SM FEW018 BKN021 BKN038 BKN080 M02/M06 A2981 RMK CU2SC3SC1AC1 SLP101

CYGK;2017-02-01 19:00;CYGK 011900Z 27009KT 15SM FEW018 FEW030 BKN090 M01/M05 A2981 RMK CU1SC1AC4 SLP101

CYGK;2017-02-01 20:00;CYGK 012000Z 21006KT 15SM SCT024 SCT095 BKN240 M00/M05 A2983 RMK CU3AC1CI1 SLP107

CYGK;2017-02-01 21:00;CYGK 012100Z 25007KT 15SM FEW024 SCT040 BKN100 00/M04 A2984 RMK CU2SC2AC1 SLP113

CYGK;2017-02-01 22:00;CYGK 012200Z 26006KT 15SM FEW024 SCT040 BKN091 01/M07 A2988 RMK CU2SC2AC2 SLP124

CYGK;2017-02-01 23:00;CYGK 012300Z 25008KT 15SM FEW024 SCT040 SCT090 M01/M09 A2990 RMK CU1SC2AC1 SLP132

CYGK;2017-02-02 00:00;CYGK 020000Z 26008KT 15SM FEW024 BKN083 M01/M09 A2993 RMK SC1AC5 SLP142

CYGK;2017-02-02 01:00;CYGK 020100Z 24007KT 15SM BKN061 M01/M07 A2993 RMK SC5 SLP142

CYGK;2017-02-02 02:00;CYGK 020200Z 22007KT 15SM FEW040 SCT070 SCT100 M01/M07 A2993 RMK SC1AC2AC1 SLP142

CYGK;2017-02-02 03:00;CYGK 020300Z 26012KT 15SM BKN087 M01/M07 A2993 RMK AC6 SLP141

CYGK;2017-02-02 04:00;CYGK 020400Z 26008KT 15SM BKN093 M02/M07 A2994 RMK AC6 LAST STFD OBS/ NEXT 021100 UTC SLP144

CYGK;2017-02-02 11:00;CYGK 021100Z 27005KT 15SM BKN065 M07/M12 A3001 RMK SC5 SLP168

CYGK;2017-02-02 12:00;CYGK 021200Z 30005KT 15SM FEW015 BKN065 M08/M12 A3003 RMK CF1SC4 SLP177

CYGK;2017-02-02 13:00;CYGK 021300Z 34004KT 15SM FEW015 BKN055 M09/M13 A3005 RMK CF1SC6 SLP182

CYGK;2017-02-02 14:00;CYGK 021400Z 00000KT 15SM VCSH FEW020 BKN060 M08/M12 A3005 RMK CU1SC6 CU TR SLP184

CYGK;2017-02-02 15:00;CYGK 021500Z 17004KT 15SM FEW015 SCT050 M06/M11 A3005 RMK CF1SC2 SLP184

CYGK;2017-02-02 16:00;CYGK 021600Z 21007KT 15SM FEW015 FEW060 M05/M12 A3005 RMK CF1SC1 SLP182

CYGK;2017-02-02 17:00;CYGK 021700Z 24011KT 15SM FEW020 SCT050 M04/M11 A3002 RMK CU1SC2 SLP173

CYGK;2017-02-02 18:00;CYGK 021800Z 26015G23KT 15SM VCSH FEW025 SCT050 M02/M13 A3000 RMK CF1SC4 CF TR SLP165

CYGK;2017-02-02 19:00;CYGK 021900Z 26015G24KT 15SM DRSN VCSH BKN047 M02/M11 A2999 RMK SC7 SLP162

CYGK;2017-02-02 20:00;CYGK 022000Z 26017G25KT 15SM DRSN VCSH BKN055 M02/M13 A3000 RMK SC7 CU ASOCTD SH ALQDS SLP164

CYGK;2017-02-02 21:00;CYGK 022100Z 27017G24KT 15SM DRSN VCSH BKN050 M03/M14 A3002 RMK SC5 SLP172

CYGK;2017-02-02 22:00;CYGK 022200Z 26013G23KT 15SM DRSN VCSH BKN058 M04/M14 A3004 RMK SC6 CU ASOCTD SLP181

CYGK;2017-02-02 23:00;CYGK 022300Z 28010G18KT 15SM DRSN BKN045 M04/M14 A3007 RMK SC6 CU ASOCTD SLP190

CYGK;2017-02-03 00:00;CYGK 030000Z 27013G21KT 15SM FEW060 M05/M14 A3010 RMK SC2 SLP199

CYGK;2017-02-03 01:00;CYGK 030100Z 27010G17KT 15SM FEW015 BKN056 M05/M13 A3011 RMK CF1SC5 CF TR SLP205

CYGK;2017-02-03 02:00;CYGK 030200Z 26014G19KT 15SM DRSN FEW015 OVC052 M05/M12 A3013 RMK CF1SC8 CF TR SLP210

CYGK;2017-02-03 03:00;CYGK 030300Z 24016G22KT 15SM OVC046 M05/M12 A3013 RMK SC8 SLP212

CYGK;2017-02-03 04:00;CYGK 030400Z 24015G22KT 15SM -SHSN DRSN OVC046 M05/M12 A3014 RMK SC8 CU ASOCTD LAST STFD OBS/NEXT 031100 UTC SLP213

CYGK;2017-02-03 11:00;CYGK 031100Z 26012KT 15SM OVC055 M06/M13 A3010 RMK SC8 SLP199

CYGK;2017-02-03 12:00;CYGK 031200Z 26011G16KT 15SM OVC055 M07/M13 A3010 RMK SC8 SLP200

CYGK;2017-02-03 13:00;CYGK 031300Z 27009G16KT 15SM BKN054 M07/M13 A3012 RMK SC7 SLP206

CYGK;2017-02-03 14:00;CYGK 031400Z 28012KT 15SM FEW020 BKN060 M07/M14 A3014 RMK CU1SC6 SLP213

CYGK;2017-02-03 15:00;CYGK 031500Z 28010KT 15SM FEW020 BKN062 M07/M13 A3014 RMK CU1SC5 CU TR SLP214

CYGK;2017-02-03 16:00;CYGK 031600Z 29011KT 220V290 15SM FEW030 SCT060 BKN250 M06/M13 A3013 RMK CU2SC1CI2 SLP211

CYGK;2017-02-03 17:00;CYGK 031700Z 25011KT 15SM FEW025 SCT061 SCT250 M05/M12 A3011 RMK CU2SC1CI1 CI TR SLP202

CYGK;2017-02-03 18:00;CYGK 031800Z 28010KT 15SM VCSH BKN030 BKN250 M05/M12 A3008 RMK CU5CI1 SLP194

CYGK;2017-02-03 19:00;CYGK 031900Z 25012KT 15SM VCSH SCT035 BKN050 M04/M13 A3007 RMK CU3SC3 SLP190

CYGK;2017-02-03 20:00;CYGK 032000Z 26008G15KT 15SM VCSH SCT035 BKN065 M05/M13 A3007 RMK CU3SC4 SLP191

CYGK;2017-02-03 20:27;CYGK 032027Z 25009KT 10SM BKN037 M05/M12 A3008 RMK CU7 SLP193

CYGK;2017-02-03 21:00;CYGK 032100Z 25012KT 220V290 15SM VCSH FEW012 BKN030 BKN070 M05/M13 A3008 RMK CF1CU4AC2 SLP194

CYGK;2017-02-03 22:00;CYGK 032200Z 27011KT 15SM VCSH FEW012 FEW030 BKN070 M05/M12 A3009 RMK CF1CU2AC4 CF TR SLP195

CYGK;2017-02-03 23:00;CYGK 032300Z 27010KT 15SM FEW030 BKN070 M05/M12 A3010 RMK CU2AC4 SLP200

CYGK;2017-02-04 00:00;CYGK 040000Z 27008KT 15SM SCT068 M06/M12 A3012 RMK AC4 SLP206

CYGK;2017-02-04 01:00;CYGK 040100Z 27010KT 15SM FEW010 FEW060 M06/M12 A3013 RMK SF1SC2 SF TR SLP209

CYGK;2017-02-04 02:00;CYGK 040200Z 26011KT 15SM BKN055 M06/M13 A3013 RMK SC7 SLP212

CYGK;2017-02-04 02:14;CYGK 040214Z 26013G20KT 15SM -SN BKN055 M06/M13 A3013 RMK SC7 SLP212

CYGK;2017-02-04 02:44;CYGK 040244Z 26011G20KT 15SM BKN055 M06/M13 A3014 RMK SC7 SLP214

CYGK;2017-02-04 03:00;CYGK 040300Z 27015G22KT 15SM BKN055 M06/M13 A3015 RMK SC7 SLP216

CYGK;2017-02-04 03:35;CYGK 040335Z 28015G21KT 15SM -SN OVC037 M06/M13 A3016 RMK SC8 SLP220

CYGK;2017-02-04 04:00;CYGK 040400Z 27011G18KT 15SM VCSH FEW020 BKN038 M06/M13 A3016 RMK CF1SC6 LAST STFD OBS/NEXT 041100UTC SLP221

CYGK;2017-02-04 11:00;CYGK 041100Z 26008KT 15SM OVC062 M07/M12 A3023 RMK SC8 SLP245

CYGK;2017-02-04 12:00;CYGK 041200Z 26011KT 15SM FEW015 OVC062 M06/M11 A3024 RMK SC1SC8 SC TR SLP247

CYGK;2017-02-04 13:00;CYGK 041300Z 25011KT 15SM FEW015 OVC060 M06/M11 A3024 RMK SC1SC8 SC TR SLP249

CYGK;2017-02-04 14:00;CYGK 041400Z 25011G16KT 15SM FEW020 OVC055 M06/M11 A3025 RMK CU1SC7 SLP250

CYGK;2017-02-04 15:00;CYGK 041500Z 26012G18KT 15SM FEW020 BKN056 BKN250 M05/M12 A3025 RMK CU1SC7CI1 CU TR CI TR SLP252

CYGK;2017-02-04 16:00;CYGK 041600Z 25014G22KT 15SM FEW020 OVC050 M04/M12 A3025 RMK CU1SC7 SLP251

CYGK;2017-02-04 17:00;CYGK 041700Z 24013KT 15SM FEW020 BKN049 BKN250 M04/M12 A3022 RMK CU1SC6CI1 CU TR CI TR SLP240

CYGK;2017-02-04 18:00;CYGK 041800Z 24016G23KT 15SM FEW020 BKN040 BKN250 M03/M11 A3020 RMK CU2CU4CI1 SLP234

CYGK;2017-02-04 19:00;CYGK 041900Z 24016G24KT 15SM SCT035 BKN050 BKN250 M03/M11 A3018 RMK CU4SC1CI2 SHWRS SE-SW SLP228

CYGK;2017-02-04 20:00;CYGK 042000Z 23016G23KT 15SM FEW035 SCT045 BKN250 M03/M11 A3018 RMK CU2SC2CI2 SLP226

CYGK;2017-02-04 21:00;CYGK 042100Z 24018G26KT 15SM FEW030 BKN043 OVC250 M04/M11 A3018 RMK CU1SC6CI1 SLP226

CYGK;2017-02-04 22:00;CYGK 042200Z 25013G21KT 15SM VCSH FEW025 BKN044 BKN250 M04/M11 A3018 RMK CU1SC5CI1 SLP229

CYGK;2017-02-04 23:00;CYGK 042300Z 24013G20KT 15SM FEW025 SCT042 BKN170 M04/M11 A3018 RMK CU1SC3AC3 SLP227

CYGK;2017-02-05 00:00;CYGK 050000Z 25011KT 15SM BKN035 OVC150 M05/M12 A3018 RMK SC5AC3 SLP227

CYGK;2017-02-05 01:00;CYGK 050100Z 27007KT 15SM BKN038 BKN130 M05/M11 A3017 RMK SC5AC2 SLP223

CYGK;2017-02-05 02:00;CYGK 050200Z 24005KT 15SM SCT035 BKN120 M05/M11 A3013 RMK SC4AC3 SLP211

CYGK;2017-02-05 03:00;CYGK 050300Z 22003KT 15SM BKN033 BKN120 M05/M10 A3012 RMK SC5AC2 SLP205

CYGK;2017-02-05 04:00;CYGK 050400Z 33002KT 15SM SCT034 BKN140 M06/M11 A3010 RMK SC3AC4 LAST STFD OBS/NEXT 051100UTC SLP200

CYGK;2017-02-05 11:00;CYGK 051100Z 22010KT 15SM BKN130 BKN200 M01/M08 A2986 RMK AC5CI2 SLP118

CYGK;2017-02-05 12:00;CYGK 051200Z 21012KT 15SM FEW083 SCT120 BKN180 M02/M09 A2983 RMK AC2AC2CI2 SLP107

CYGK;2017-02-05 13:00;CYGK 051300Z 22013KT 15SM FEW020 OVC079 M01/M08 A2981 RMK SC1AC8 SC TR SLP100

CYGK;2017-02-05 14:00;CYGK 051400Z 21013G18KT 15SM FEW020 OVC060 M01/M08 A2978 RMK SC1SC8 SC TR SLP091

CYGK;2017-02-05 15:02;CYGK 051502Z 25016G25KT 12SM -SN OVC021 M00/M07 A2977 RMK SC8 SLP086

CYGK;2017-02-05 15:18;CYGK 051518Z 24017G25KT 2SM -SN OVC023 M01/M05 A2977 RMK SC8 SLP086

CYGK;2017-02-05 15:27;CYGK 051527Z 24016G24KT 1 1/4SM -SN BKN012 OVC025 M01/M04 A2977 RMK SC5SC3 SLP086

CYGK;2017-02-05 16:00;CYGK 051600Z 23014KT 1SM -SN BKN011 OVC024 M01/M03 A2975 RMK SC6SC2 SLP082

CYGK;2017-02-05 16:07;CYGK 051607Z 22015G20KT 2 1/2SM -SN BKN013 OVC018 M01/M03 A2975 RMK SC6SC2 SLP080

CYGK;2017-02-05 17:00;CYGK 051700Z 24014G24KT 2 1/2SM -SN BKN010 OVC021 M01/M03 A2973 RMK SF5SC3 SLP075

CYGK;2017-02-05 17:23;CYGK 051723Z 24012KT 3SM -SN SCT010 OVC018 M01/M03 A2972 RMK SF4SC4 SLP071

CYGK;2017-02-05 17:32;CYGK 051732Z 24012KT 1 1/2SM -SN SCT012 OVC018 M01/M03 A2972 RMK SC4SC4 SLP069

CYGK;2017-02-05 18:00;CYGK 051800Z 23012KT 3SM -SN BKN009 OVC020 M01/M03 A2970 RMK SF6SC2 SLP064

CYGK;2017-02-05 18:52;CYGK 051852Z 24015G24KT 3SM -SN SCT009 OVC013 M00/M03 A2969 RMK SF3SC5 SLP060

CYGK;2017-02-05 19:00;CYGK 051900Z 24014G20KT 3SM -SN FEW009 OVC015 00/M03 A2969 RMK SF1SC7 SLP060

CYGK;2017-02-05 20:00;CYGK 052000Z 25014G19KT 4SM -SN BKN015 OVC040 M00/M03 A2969 RMK SC6SC2 SLP058

CYGK;2017-02-05 21:00;CYGK 052100Z 25015KT 3SM -SN BKN016 OVC045 M00/M03 A2970 RMK SC5SC3 SLP064

CYGK;2017-02-05 22:00;CYGK 052200Z 25014G21KT 5SM -SN BKN017 OVC033 M00/M03 A2972 RMK SC5SC3 SLP069

CYGK;2017-02-05 23:00;CYGK 052300Z 25016G25KT 10SM -SN BKN018 OVC045 00/M03 A2974 RMK SC5SC3 SLP078

CYGK;2017-02-06 00:00;CYGK 060000Z 26016G25KT 12SM -SN SCT030 BKN060 00/M04 A2977 RMK SC4SC3 SLP088

CYGK;2017-02-06 00:37;CYGK 060037Z 29007G17KT 15SM VCSH SCT025 BKN050 M00/M04 A2980 RMK SC4SC2 SLP096

CYGK;2017-02-06 01:00;CYGK 060100Z 27013G20KT 15SM VCSH SCT023 SCT045 M01/M06 A2981 RMK SC3SC1 SLP100

CYGK;2017-02-06 02:00;CYGK 060200Z 27013G18KT 15SM BKN040 M01/M09 A2984 RMK SC5 SLP112

CYGK;2017-02-06 03:00;CYGK 060300Z 28011G18KT 15SM VCSH FEW025 SCT038 M02/M09 A2988 RMK CU1SC3 SLP124

CYGK;2017-02-06 03:11;CYGK 060311Z 27010KT 8SM -SHSN BKN030 M02/M08 A2989 RMK CU6 SLP127

CYGK;2017-02-06 03:21;CYGK 060321Z 28013G23KT 2SM -SHSN OVC020 M02/M07 A2990 RMK SN6CU2 SLP131

CYGK;2017-02-06 03:30;CYGK 060330Z 29013G22KT 1SM -SHSN VV004 M03/M06 A2991 RMK SN8 VIS E-S 1/2 PRESRR SLP134

CYGK;2017-02-06 03:38;CYGK 060338Z 30013G18KT 1SM -SHSN VV012 M03/M06 A2991 RMK SN8 SLP136

CYGK;2017-02-06 03:44;CYGK 060344Z 30011G18KT 1 1/2SM -SHSN VV015 M03/M06 A2992 RMK SN8 SLP138

CYGK;2017-02-06 04:00;CYGK 060400Z 31016KT 2 1/2SM -SHSN OVC024 M04/M07 A2992 RMK SN4CU4 /S01/ LAST STFD OBS/NEXT 061100UTC SLP139

CYGK;2017-02-06 11:00;CYGK 061100Z 34007KT 15SM OVC052 M09/M15 A3011 RMK SC8 SLP203

CYGK;2017-02-06 12:00;CYGK 061200Z 36005KT 15SM BKN051 OVC095 M10/M15 A3012 RMK SC7AC1 SLP207

CYGK;2017-02-06 12:36;CYGK 061236Z 35006KT 15SM -SN SCT038 OVC051 M10/M15 A3013 RMK NS4SC4 SLP211

CYGK;2017-02-06 12:49;CYGK 061249Z 01003KT 2 1/2SM -SN OVC036 M10/M15 A3014 RMK SN2NS6 SLP212

CYGK;2017-02-06 13:00;CYGK 061300Z 04006KT 2SM -SN OVC035 M10/M15 A3012 RMK SN2NS6 PRESFR SLP206

CYGK;2017-02-06 13:05;CYGK 061305Z 04005KT 4SM -SN BKN035 M10/M14 A3012 RMK NS7 PRESFR SLP205

CYGK;2017-02-06 13:34;CYGK 061334Z 08004KT 15SM SCT035 BKN120 BKN240 M10/M14 A3013 RMK SC4AC1CI2 SLP212

CYGK;2017-02-06 14:00;CYGK 061400Z 05002KT 15SM FEW010 SCT050 BKN140 BKN250 M10/M14 A3014 RMK CF1SC2AC2CI2 SLP213

CYGK;2017-02-06 15:00;CYGK 061500Z 00000KT 15SM BKN034 BKN100 BKN140 M09/M13 A3013 RMK SC5AC1AC1 SLP210

CYGK;2017-02-06 16:00;CYGK 061600Z 19004KT 15SM FEW010 BKN033 OVC090 M08/M12 A3013 RMK CF1SC6AC2 CF TR SLP210

CYGK;2017-02-06 17:00;CYGK 061700Z 21004KT 180V250 12SM -SHSN SCT024 BKN035 OVC080 M07/M13 A3012 RMK CU4SC2AS2 SLP206

CYGK;2017-02-06 18:00;CYGK 061800Z 18005KT 15SM -SHSN FEW024 SCT035 OVC084 M06/M12 A3010 RMK CU2SC1AS5 SLP199

CYGK;2017-02-06 19:00;CYGK 061900Z 20006KT 10SM -SHSN SCT025 BKN050 OVC080 M06/M11 A3008 RMK CU4SC2AC2 SLP193

CYGK;2017-02-06 19:33;CYGK 061933Z 18003KT 160V220 1 3/4SM -SHSN OVC012 M06/M11 A3007 RMK SN4SC4 SLP192

CYGK;2017-02-06 19:45;CYGK 061945Z 19002KT 1SM -SHSN OVC020 M06/M10 A3007 RMK SN6SC2 SLP192

CYGK;2017-02-06 19:52;CYGK 061952Z 00000KT 2SM -SHSN OVC020 M06/M10 A3007 RMK SN4SC4 SLP192

CYGK;2017-02-06 20:00;CYGK 062000Z 00000KT 3SM -SN OVC020 M06/M10 A3007 RMK SC8 SLP190

CYGK;2017-02-06 21:00;CYGK 062100Z 00000KT 5SM -SN OVC014 M06/M09 A3005 RMK SC8 SLP185

CYGK;2017-02-06 22:00;CYGK 062200Z 05004KT 8SM -SN SCT014 BKN032 OVC060 M06/M08 A3005 RMK SC3SC3SC2 SLP183

CYGK;2017-02-06 23:00;CYGK 062300Z 06004KT 12SM -SN SCT035 OVC056 M05/M08 A3003 RMK SC3SC5 SLP176

CYGK;2017-02-06 23:44;CYGK 062344Z 06005KT 15SM OVC055 M05/M08 A3003 RMK SC8 SLP176

CYGK;2017-02-07 00:00;CYGK 070000Z 06005KT 15SM OVC055 M05/M08 A3002 RMK SC8 SLP174

CYGK;2017-02-07 01:00;CYGK 070100Z 05004KT 15SM -SN OVC046 M05/M07 A3002 RMK SC8 SLP172

CYGK;2017-02-07 02:00;CYGK 070200Z 04004KT 15SM -SN OVC052 M05/M07 A3000 RMK SC8 SLP166

CYGK;2017-02-07 02:51;CYGK 070251Z 05003KT 15SM OVC058 M05/M07 A3000 RMK SC8 SLP168

CYGK;2017-02-07 03:00;CYGK 070300Z 05004KT 15SM OVC060 M05/M07 A3000 RMK SC8 SLP168

CYGK;2017-02-07 04:00;CYGK 070400Z 02003KT 360V070 15SM OVC057 M05/M07 A3000 RMK SC8 LAST STFD OBS/NEXT 071100 UTC SLP166

CYGK;2017-02-07 11:00;CYGK 071100Z 04013G18KT 15SM BKN042 OVC057 M07/M09 A2993 RMK SC6SC2 SLP144

CYGK;2017-02-07 12:00;CYGK 071200Z 04013G18KT 15SM BKN040 OVC056 M07/M09 A2992 RMK SC5SC3 SLP139

CYGK;2017-02-07 13:00;CYGK 071300Z 04013G18KT 15SM OVC045 M06/M09 A2993 RMK SC8 SLP141

CYGK;2017-02-07 14:00;CYGK 071400Z 04017KT 15SM DRSN FEW030 OVC045 M07/M10 A2989 RMK CF1SC8 CF TR SLP130

CYGK;2017-02-07 15:00;CYGK 071500Z 04017G24KT 15SM DRSN OVC047 M07/M10 A2987 RMK SC8 SLP123

CYGK;2017-02-07 16:00;CYGK 071600Z 04015G23KT 15SM DRSN FEW020 OVC045 M07/M11 A2985 RMK CF1SC8 CF TR SLP116

CYGK;2017-02-07 17:00;CYGK 071700Z 05017G25KT 15SM OVC052 M07/M11 A2980 RMK SC8 SLP099

CYGK;2017-02-07 18:00;CYGK 071800Z 05018G24KT 15SM DRSN OVC044 M06/M10 A2975 RMK SC8 SLP080

CYGK;2017-02-07 18:39;CYGK 071839Z 04017G23KT 15SM -FZRA DRSN OVC022 M06/M10 A2970 RMK SC8 SLP064

CYGK;2017-02-07 19:00;CYGK 071900Z 04016G23KT 15SM -FZRA DRSN OVC021 M06/M10 A2969 RMK SC8 SLP061

CYGK;2017-02-07 19:23;CYGK 071923Z 05017G24KT 4SM -FZRA BR OVC021 M06/M10 A2967 RMK SC8 PRESFR SLP054

CYGK;2017-02-07 20:00;CYGK 072000Z 04015G22KT 5SM -FZRA BR OVC019 M06/M09 A2965 RMK SC8 SLP046

CYGK;2017-02-07 21:00;CYGK 072100Z 05016G24KT 8SM -FZRA FEW010 OVC016 M07/M09 A2959 RMK SF1SC8 SF TR PRESFR SLP029

CYGK;2017-02-07 21:24;CYGK 072124Z 05016G22KT 5SM -FZRA -PL BR FEW008 OVC017 M07/M09 A2957 RMK SF2SC6 PRESFR SLP022

CYGK;2017-02-07 22:00;CYGK 072200Z 05015G22KT 3SM -FZRA -PL BR OVC015 M07/M09 A2954 RMK SC8 PRESFR SLP010

CYGK;2017-02-07 22:20;CYGK 072220Z 05012G18KT 1 1/4SM -FZRA -PL BR FEW006 OVC012 M07/M08 A2954 RMK SF2SC6 SLP010

CYGK;2017-02-07 23:00;CYGK 072300Z 05014KT 1 3/4SM -FZRA -PL BKN008 OVC014 M05/M06 A2948 RMK SF5SC3 PRESFR SLP991

CYGK;2017-02-07 23:17;CYGK 072317Z 05014G21KT 2SM -FZRA -PL SCT006 OVC010 M05/M06 A2947 RMK SF3SC5 PRESFR SLP986

CYGK;2017-02-07 23:51;CYGK 072351Z 05014G19KT 3SM -FZRA -PL OVC006 M04/M05 A2943 RMK SF8 PRESFR SLP974

CYGK;2017-02-08 00:00;CYGK 080000Z 05013KT 3SM -FZRA -PL OVC006 M03/M05 A2942 RMK SF8 PRESFR SLP970

CYGK;2017-02-08 00:08;CYGK 080008Z 06014KT 4SM -FZRA BR OVC006 M03/M04 A2942 RMK SF8 PRESFR SLP968

CYGK;2017-02-08 01:00;CYGK 080100Z 06009KT 4SM -FZRA BR OVC006 M02/M03 A2936 RMK SF8 PRESFR SLP950

CYGK;2017-02-08 02:00;CYGK 080200Z 09005KT 090V160 4SM -FZRA BR OVC006 M01/M02 A2932 RMK SF8 SLP934

CYGK;2017-02-08 02:18;CYGK 080218Z 12009KT 030V160 5SM -RA BR BKN006 OVC022 01/M00 A2930 RMK SF7SC1 PRESFR SLP927

CYGK;2017-02-08 03:00;CYGK 080300Z 17025G31KT 7SM -RA BR BKN006 OVC025 03/03 A2924 RMK SF5SC3 PRESFR SLP908

CYGK;2017-02-08 03:29;CYGK 080329Z 17027G36KT 8SM -RA SCT006 OVC022 03/03 A2922 RMK SF4SC4 SLP902

CYGK;2017-02-08 04:00;CYGK 080400Z 17025KT 4SM -RA BR FEW002 OVC020 04/03 A2922 RMK SF1SC7 LAST STFD OBS/NEXT 081100 UTC SLP900

CYGK;2017-02-08 11:00;CYGK 081100Z 25011G19KT 15SM BKN016 OVC060 03/01 A2944 RMK SC6SC2 SLP975

CYGK;2017-02-08 11:47;CYGK 081147Z 26016G23KT 15SM -SHRA OVC016 03/00 A2950 RMK SC8 CVCTV CLD ASOCTD PRESRR SLP997

CYGK;2017-02-08 12:05;CYGK 081205Z 26017G30KT 15SM SCT016 02/M01 A2952 RMK SC3 PRESRR SLP002

CYGK;2017-02-08 13:00;CYGK 081300Z 26017G25KT 15SM SCT028 BKN250 01/M05 A2959 RMK SC4CI1 PRESRR SLP025

CYGK;2017-02-08 14:00;CYGK 081400Z 28017KT 15SM FEW027 SCT270 01/M06 A2965 RMK CU2CI2 PRESRR SLP047

CYGK;2017-02-08 15:00;CYGK 081500Z 25013G21KT 15SM FEW030 BKN250 00/M06 A2969 RMK SC1CI5 SLP059

CYGK;2017-02-08 16:00;CYGK 081600Z 27012G22KT 15SM FEW030 SCT100 BKN270 M00/M07 A2973 RMK SC1AC3CI3 SLP073

CYGK;2017-02-08 17:00;CYGK 081700Z 28013G22KT 15SM FEW030 BKN230 M01/M08 A2975 RMK SC1CI7 SC TR SLP078

CYGK;2017-02-08 18:00;CYGK 081800Z 26014G20KT 15SM FEW030 FEW100 SCT270 M01/M09 A2975 RMK SC1AC1CI3 SC TR SLP080

CYGK;2017-02-08 19:00;CYGK 081900Z 27013G21KT 15SM FEW030 BKN120 BKN230 M00/M09 A2978 RMK SC1AC5CI2 SC TR SLP088

CYGK;2017-02-08 20:00;CYGK 082000Z 26012G18KT 15SM FEW030 BKN110 BKN250 M01/M09 A2979 RMK SC1AC4CI1 SLP093

CYGK;2017-02-08 21:00;CYGK 082100Z 26011KT 15SM FEW020 FEW120 BKN270 M02/M10 A2981 RMK CF1AC1CI6 CF TR SLP099

CYGK;2017-02-08 22:00;CYGK 082200Z 25011G17KT 15SM FEW030 BKN110 BKN270 M02/M10 A2981 RMK SC2AC3CI1 SLP102

CYGK;2017-02-08 23:00;CYGK 082300Z 28007KT 15SM FEW030 SCT110 BKN200 M03/M11 A2984 RMK SC1AC2CI2 SLP110

CYGK;2017-02-09 00:00;CYGK 090000Z 28005KT 240V300 15SM FEW030 SCT220 M04/M12 A2985 RMK SC1CI3 SLP113

CYGK;2017-02-09 01:00;CYGK 090100Z 29010KT 15SM FEW030 BKN170 M04/M12 A2987 RMK SC1AC5 SLP120

CYGK;2017-02-09 02:00;CYGK 090200Z 30011KT 15SM SCT130 OVC190 M05/M13 A2987 RMK AC4CI4 SLP122

CYGK;2017-02-09 03:00;CYGK 090300Z 32009KT 15SM FEW045 OVC110 M05/M13 A2987 RMK SC2AC6 SLP120

CYGK;2017-02-09 04:00;CYGK 090400Z 34010KT 15SM SCT045 OVC120 M06/M13 A2987 RMK SC3AC5 LAST STFD OBS/NEXT 091100 UTC SLP120

CYGK;2017-02-09 11:00;CYGK 091100Z 36009G15KT 15SM SCT200 M13/M20 A2991 RMK CI3 SLP137

CYGK;2017-02-09 12:00;CYGK 091200Z 35011KT 15SM BKN180 OVC250 M14/M19 A2992 RMK AC6CI2 SLP141

CYGK;2017-02-09 13:00;CYGK 091300Z 35010G16KT 15SM FEW020 SCT180 M14/M20 A2993 RMK CU1AC4 CU TR SLP144

CYGK;2017-02-09 14:00;CYGK 091400Z 36013KT 15SM FEW020 SCT270 M14/M20 A2993 RMK SC1CI4 SC TR SLP144

CYGK;2017-02-09 15:00;CYGK 091500Z 36009KT 15SM FEW020 FEW190 SCT250 M13/M20 A2993 RMK CU1CI2CI2 CU TR SLP144

CYGK;2017-02-09 16:00;CYGK 091600Z 01006KT 330V030 15SM FEW020 FEW130 BKN270 M12/M20 A2994 RMK SC1AC2CI4 SC TR SLP148

CYGK;2017-02-09 17:00;CYGK 091700Z 36010KT 15SM FEW020 SCT120 BKN250 M11/M20 A2993 RMK CU1AC4CI2 CU TR SLP145

CYGK;2017-02-09 18:00;CYGK 091800Z 33010KT 310V020 15SM FEW020 SCT110 BKN270 M10/M19 A2993 RMK CU1AC3CI4 CU TR SLP145

CYGK;2017-02-09 19:00;CYGK 091900Z 32011KT 15SM FEW020 BKN110 BKN250 M09/M19 A2992 RMK CU1AS5CI1 CU TR SLP140

CYGK;2017-02-09 20:00;CYGK 092000Z 33013KT 15SM FEW020 BKN150 BKN250 M09/M20 A2993 RMK CU1AC4CI1 SLP143

CYGK;2017-02-09 21:00;CYGK 092100Z 33011KT 15SM FEW020 FEW270 M08/M21 A2994 RMK CU1CI2 CU TR SLP147

CYGK;2017-02-09 22:00;CYGK 092200Z 32008KT 15SM FEW020 FEW160 M09/M21 A2996 RMK SC1AC1 SLP152

CYGK;2017-02-09 23:00;CYGK 092300Z 29003KT 15SM FEW020 FEW150 M09/M20 A2996 RMK SC1AC1 AC TR SLP156

CYGK;2017-02-10 00:00;CYGK 100000Z 28003KT 15SM FEW020 M09/M20 A2997 RMK SC1 SLP159

CYGK;2017-02-10 01:00;CYGK 100100Z 27007KT 15SM FEW062 M09/M18 A2997 RMK SC1 SLP157

CYGK;2017-02-10 02:00;CYGK 100200Z 27011KT 15SM BKN070 M09/M17 A2997 RMK AC6 SLP159

CYGK;2017-02-10 03:00;CYGK 100300Z 27010KT 15SM BKN063 M09/M16 A2997 RMK SC6 SLP158

CYGK;2017-02-10 04:00;CYGK 100400Z 28008KT 15SM FEW020 SCT070 M09/M16 A2999 RMK CU1AC3 LAST STFD OBS/NEXT 101100 UTC SLP163

CYGK;2017-02-10 11:00;CYGK 101100Z 32008KT 15SM FEW025 OVC060 M12/M19 A3019 RMK CU1SC7 SLP232

CYGK;2017-02-10 12:00;CYGK 101200Z 34011G18KT 15SM FEW025 OVC060 M13/M22 A3022 RMK CU1SC7 SLP244

CYGK;2017-02-10 13:00;CYGK 101300Z 35008KT 15SM OVC055 M13/M23 A3025 RMK SC8 SLP253

CYGK;2017-02-10 14:00;CYGK 101400Z 34005KT 15SM BKN055 M13/M22 A3025 RMK SC7 SLP253

CYGK;2017-02-10 15:00;CYGK 101500Z 34007KT 15SM OVC055 M13/M22 A3027 RMK SC8 SLP260

CYGK;2017-02-10 16:00;CYGK 101600Z VRB05KT 15SM BKN056 BKN250 M11/M21 A3027 RMK SC6CI1 SLP258

CYGK;2017-02-10 17:00;CYGK 101700Z VRB03KT 15SM FEW060 SCT150 BKN250 M11/M20 A3022 RMK SC2AC2CC2 PRESFR SLP241

CYGK;2017-02-10 18:00;CYGK 101800Z 36006KT 330V030 15SM FEW040 SCT150 BKN250 M10/M19 A3020 RMK SC1AS2CS4 SLP234

CYGK;2017-02-10 19:00;CYGK 101900Z 00000KT 15SM SCT030 BKN150 OVC250 M09/M20 A3017 RMK SC3AS2CS3 SLP225

CYGK;2017-02-10 20:00;CYGK 102000Z 14005KT 15SM FEW030 BKN080 BKN250 M09/M18 A3016 RMK SC2AS3CI2 SLP221

CYGK;2017-02-10 21:00;CYGK 102100Z 12007KT 100V160 15SM BKN029 OVC130 M09/M17 A3013 RMK SC7AS1 SLP212

CYGK;2017-02-10 21:39;CYGK 102139Z 13009KT 10SM -SN OVC030 M09/M16 A3011 RMK SC8 SLP205

CYGK;2017-02-10 21:53;CYGK 102153Z 10008KT 2 1/2SM -SN VV013 M09/M16 A3011 RMK SN8 SLP204

CYGK;2017-02-10 22:00;CYGK 102200Z 12007KT 1 1/2SM -SN VV009 M09/M15 A3010 RMK SN8 PRESFR SLP201

CYGK;2017-02-10 22:06;CYGK 102206Z 12007KT 2 1/2SM -SN VV018 M09/M14 A3010 RMK SN8 SLP200

CYGK;2017-02-10 22:27;CYGK 102227Z 12008KT 1 1/2SM -SN VV012 M09/M14 A3008 RMK SN8 SLP196

CYGK;2017-02-10 22:51;CYGK 102251Z 11009KT 2 1/2SM -SN VV017 M10/M13 A3007 RMK SN8 SLP192

CYGK;2017-02-10 23:00;CYGK 102300Z 11009KT 2SM -SN VV012 M10/M13 A3007 RMK SN8 VIS VRB 1-3 SLP192

CYGK;2017-02-11 00:00;CYGK 110000Z 08007KT 2SM -SN VV010 M09/M11 A3004 RMK SN8 VIS VRB 1-3 /S02/ SLP181

CYGK;2017-02-11 01:00;CYGK 110100Z 09010KT 1 1/2SM -SN VV007 M09/M11 A2999 RMK SN8 VIS VRB 1-2 PRESFR SLP163

CYGK;2017-02-11 02:00;CYGK 110200Z 10010KT 2 1/2SM -SN OVC010 M07/M09 A2993 RMK SN7SC1 /S01/ PRESFR SLP145

CYGK;2017-02-11 02:24;CYGK 110224Z 09010KT 2SM -SN OVC007 M07/M09 A2992 RMK SN7SF1 SLP141

CYGK;2017-02-11 02:41;CYGK 110241Z 11008G16KT 3SM -SN OVC006 M07/M08 A2991 RMK SN4SF4 CIG RAG SLP135

CYGK;2017-02-11 02:50;CYGK 110250Z 11007KT 2SM -SN OVC008 M06/M08 A2991 RMK SN7SF1 SLP135

CYGK;2017-02-11 03:00;CYGK 110300Z 14014G19KT 1 1/2SM -SN OVC007 M05/M06 A2990 RMK SN7SF1 SLP134

CYGK;2017-02-11 03:22;CYGK 110322Z 15018G23KT 4SM -SN DRSN OVC007 M04/M06 A2990 RMK SF8 SLP134

CYGK;2017-02-11 04:00;CYGK 110400Z 16017KT 2SM -SN DRSN OVC008 M04/M06 A2989 RMK SN6SF2 /S02/ LAST STFD OBS/NEXT 111100UTC SLP130

CYGK;2017-02-11 11:00;CYGK 111100Z 17010G15KT 15SM FEW015 OVC044 M01/M04 A2979 RMK SC1SC7 SLP095

CYGK;2017-02-11 12:00;CYGK 111200Z 05009KT 15SM FEW013 OVC040 M05/M08 A2980 RMK SC2SC6 SLP100

CYGK;2017-02-11 13:00;CYGK 111300Z 03008KT 15SM FEW013 OVC037 M07/M09 A2982 RMK SC1SC7 SLP106

CYGK;2017-02-11 14:00;CYGK 111400Z 05006KT 15SM FEW020 OVC037 M07/M10 A2984 RMK CU1SC7 SLP113

CYGK;2017-02-11 15:00;CYGK 111500Z 02006KT 15SM OVC033 M07/M10 A2986 RMK SC8 SLP120

CYGK;2017-02-11 16:00;CYGK 111600Z 03006KT 12SM OVC032 M07/M10 A2988 RMK SC8 SLP126

CYGK;2017-02-11 17:00;CYGK 111700Z 04006KT 12SM OVC028 M06/M09 A2990 RMK SC8 SLP131

CYGK;2017-02-11 18:00;CYGK 111800Z 04005KT 15SM OVC020 M05/M09 A2990 RMK SC8 SLP133

CYGK;2017-02-11 19:00;CYGK 111900Z 04006KT 8SM OVC018 M05/M09 A2993 RMK SC8 SLP143

CYGK;2017-02-11 19:23;CYGK 111923Z 04006KT 6SM -FZDZ BR OVC017 M05/M08 A2993 RMK ST8 SLP143

CYGK;2017-02-11 19:33;CYGK 111933Z 03006KT 5SM -FZDZ BR OVC013 M05/M08 A2994 RMK ST8 SLP144

CYGK;2017-02-11 20:00;CYGK 112000Z 02006KT 5SM -FZDZ BR OVC011 M05/M08 A2996 RMK ST8 SLP151

CYGK;2017-02-11 20:41;CYGK 112041Z 01009KT 10SM FEW005 OVC010 M06/M08 A2997 RMK SF2SC6 SLP157

CYGK;2017-02-11 21:00;CYGK 112100Z 01009KT 12SM SCT005 OVC010 M06/M08 A2999 RMK SF3SC5 PRESRR SLP162

CYGK;2017-02-11 21:43;CYGK 112143Z 02007KT 15SM OVC008 M06/M08 A3001 RMK ST8 SLP171

CYGK;2017-02-11 22:00;CYGK 112200Z 02008KT 15SM BKN007 OVC012 M06/M08 A3001 RMK ST7SC1 SLP171

CYGK;2017-02-11 23:00;CYGK 112300Z 02007KT 15SM BKN007 OVC022 M07/M09 A3006 RMK ST6SC2 SLP186

CYGK;2017-02-12 00:00;CYGK 120000Z 01009KT 15SM SCT007 BKN018 M08/M10 A3008 RMK SF3SC4 SLP193

CYGK;2017-02-12 01:00;CYGK 120100Z 02010KT 15SM SCT007 BKN017 M08/M11 A3011 RMK SF3SC4 SLP204

CYGK;2017-02-12 02:00;CYGK 120200Z 03010KT 15SM SCT007 BKN015 M09/M11 A3012 RMK SF3SC4 SLP208

CYGK;2017-02-12 02:28;CYGK 120228Z 02011KT 15SM FEW007 OVC014 M09/M12 A3012 RMK SF2SC6 SLP207

CYGK;2017-02-12 03:00;CYGK 120300Z 02009KT 15SM FEW007 OVC014 M10/M12 A3013 RMK SF2SC6 SLP209

CYGK;2017-02-12 04:00;CYGK 120400Z 04008G15KT 15SM FEW007 OVC013 M10/M12 A3012 RMK SF1SC7 LAST STFD OBS/NEXT 121100UTC SLP208

CYGK;2017-02-12 11:00;CYGK 121100Z 03007KT 10SM FEW007 OVC013 M09/M11 A3002 RMK SF2SC6 SLP175

CYGK;2017-02-12 12:00;CYGK 121200Z 05010KT 10SM BKN013 OVC038 M09/M11 A2996 RMK SC7SC1 PRESFR SLP155

CYGK;2017-02-12 12:40;CYGK 121240Z 04009KT 10SM -SN BKN013 OVC030 M09/M11 A2996 RMK SC6SC2 SLP152

CYGK;2017-02-12 13:00;CYGK 121300Z 04008KT 2SM -SN BKN012 OVC029 M09/M11 A2994 RMK SC5SC3 SLP148

CYGK;2017-02-12 13:37;CYGK 121337Z 04009KT 1SM -SN OVC012 M09/M11 A2993 RMK SC8 SLP145

CYGK;2017-02-12 14:00;CYGK 121400Z 03009G15KT 1SM -SN OVC010 M09/M11 A2992 RMK SN6SC2 SLP139

CYGK;2017-02-12 15:00;CYGK 121500Z 04009G18KT 1 1/4SM -SN SCT010 OVC017 M08/M11 A2986 RMK SC3SC5 PRESFR SLP119

CYGK;2017-02-12 16:00;CYGK 121600Z 04013KT 3/4SM -SN OVC013 M08/M10 A2982 RMK SN7SC1 PRESFR SLP107

CYGK;2017-02-12 17:00;CYGK 121700Z 03010G15KT 5/8SM -SN VV004 M08/M10 A2978 RMK SN8 SLP091

CYGK;2017-02-12 17:39;CYGK 121739Z 03011G17KT 3/8SM SN VV003 M07/M09 A2975 RMK SN8 SLP083

CYGK;2017-02-12 18:00;CYGK 121800Z 04008KT 3/8SM SN VV003 M07/M09 A2975 RMK SN8 /S06/ SLP083

CYGK;2017-02-12 19:00;CYGK 121900Z 03009KT 3/8SM SN VV003 M07/M09 A2971 RMK SN8 /S01/ SLP070

CYGK;2017-02-12 20:00;CYGK 122000Z 04008KT 1/4SM +SN VV004 M07/M09 A2968 RMK SN8 /S04/ SLP058

CYGK;2017-02-12 20:15;CYGK 122015Z 05005KT 3/8SM SN VV005 M07/M09 A2968 RMK SN8 VIS VRB 1/4-1/2 SLP057

CYGK;2017-02-12 20:43;CYGK 122043Z 04011KT 3/4SM -SN VV008 M07/M09 A2965 RMK SN8 SLP049

CYGK;2017-02-12 21:00;CYGK 122100Z 03007KT 1/2SM SN VV005 M07/M09 A2965 RMK SN8 /S06/ SLP048

CYGK;2017-02-12 21:10;CYGK 122110Z 04008KT 3/4SM -SN VV008 M07/M09 A2964 RMK SN8 SLP045

CYGK;2017-02-12 21:15;CYGK 122115Z 04006KT 1SM -SN OVC009 M07/M09 A2964 RMK SN7SF1 SLP045

CYGK;2017-02-12 21:27;CYGK 122127Z 03009KT 1 1/2SM -SN OVC010 M07/M09 A2964 RMK SN4SF4 SLP043

CYGK;2017-02-12 22:00;CYGK 122200Z 01008KT 1 1/2SM -SN OVC009 M07/M08 A2963 RMK SN4SF4 /S07/ SLP041

CYGK;2017-02-12 23:00;CYGK 122300Z 36009KT 2SM -SN OVC011 M07/M09 A2962 RMK SN2SC6 /S08/ SLP038

CYGK;2017-02-12 23:13;CYGK 122313Z 36011KT 4SM -SN OVC011 M08/M10 A2962 RMK SC8 SLP037

CYGK;2017-02-13 00:00;CYGK 130000Z 35011KT 4SM -SN OVC012 M08/M10 A2962 RMK SC8 SLP038

CYGK;2017-02-13 00:30;CYGK 130030Z 34008KT 6SM -SN SCT012 OVC025 M08/M10 A2962 RMK SC3SC5 SLP039

CYGK;2017-02-13 01:00;CYGK 130100Z 31004KT 260V340 5SM -SN FEW012 OVC030 M08/M10 A2963 RMK SC1SC7 SLP040

CYGK;2017-02-13 01:27;CYGK 130127Z 31006KT 2 1/2SM -SN VV010 M08/M10 A2962 RMK SN8 SLP038

CYGK;2017-02-13 02:00;CYGK 130200Z 30004KT 2SM -SN VV009 M08/M10 A2962 RMK SN8 /S01/ SLP037

CYGK;2017-02-13 02:17;CYGK 130217Z 30005KT 2 1/2SM -SN VV012 M08/M10 A2962 RMK SN8 SLP036

CYGK;2017-02-13 02:34;CYGK 130234Z 31004KT 2SM -SN VV010 M08/M10 A2961 RMK SN8 VIS VRB 11/2-21/2 SLP034

CYGK;2017-02-13 03:00;CYGK 130300Z 32005KT 3SM -SN VV014 M08/M10 A2961 RMK SN8 SLP033

CYGK;2017-02-13 03:23;CYGK 130323Z 33005KT 4SM -SN VV020 M08/M10 A2960 RMK SN8 SLP031

CYGK;2017-02-13 04:00;CYGK 130400Z 30003KT 2 1/2SM -SN VV011 M08/M10 A2960 RMK SN8 LAST STFD OBS/NEXT 131100UTC SLP032

CYGK;2017-02-13 11:00;CYGK 131100Z 30011G17KT 15SM FEW080 SCT140 M06/M10 A2985 RMK AC1AC3 PRESRR SLP116

CYGK;2017-02-13 12:00;CYGK 131200Z 30009KT 15SM FEW030 BKN110 M06/M10 A2990 RMK SC2AC4 SLP131

CYGK;2017-02-13 13:00;CYGK 131300Z 30007KT 15SM FEW030 SCT110 M06/M10 A2993 RMK SC1AC2 SLP141

CYGK;2017-02-13 14:00;CYGK 131400Z 31013KT 15SM SCT030 BKN110 M04/M10 A2995 RMK SC4AC1 SLP150

CYGK;2017-02-13 15:00;CYGK 131500Z 33016G24KT 15SM BKN028 BKN250 M04/M10 A2998 RMK SC6CI1 SLP158

CYGK;2017-02-13 15:43;CYGK 131543Z 33016G22KT 15SM -SN BKN036 BKN110 M04/M10 A2999 RMK SC6AC1 AC TR SLP161

CYGK;2017-02-13 16:00;CYGK 131600Z 32014G19KT 15SM -SN BKN034 M03/M10 A2999 RMK SC6 SLP162

CYGK;2017-02-13 17:00;CYGK 131700Z 33013G21KT 15SM SCT028 BKN100 M03/M10 A2999 RMK SC4AC1 SLP162

CYGK;2017-02-13 18:00;CYGK 131800Z 33012G17KT 280V360 15SM BKN036 M02/M10 A3000 RMK SC6 SLP165

CYGK;2017-02-13 20:00;CYGK 132000Z 29009KT 15SM OVC033 M02/M09 A3000 RMK SC8 SLP167

CYGK;2017-02-13 21:00;CYGK 132100Z 30011KT 15SM OVC038 M02/M10 A3002 RMK SC8 SLP174

CYGK;2017-02-13 22:00;CYGK 132200Z 30007KT 15SM BKN033 OVC250 M02/M09 A3003 RMK SC6CI2 SLP176

CYGK;2017-02-13 23:00;CYGK 132300Z 27004KT 15SM BKN030 OVC220 M03/M09 A3004 RMK SC5CS3 SLP178

CYGK;2017-02-14 00:00;CYGK 140000Z 28005KT 15SM OVC032 M03/M09 A3004 RMK SC8 SLP178

CYGK;2017-02-14 01:00;CYGK 140100Z 29004KT 15SM BKN032 OVC200 M04/M10 A3002 RMK SC6CI2 SLP172

CYGK;2017-02-14 02:00;CYGK 140200Z 28005KT 15SM OVC030 M05/M09 A3002 RMK SC8 SLP174

CYGK;2017-02-14 03:00;CYGK 140300Z 25005KT 230V300 15SM OVC030 M05/M10 A3002 RMK SC8 SLP174

CYGK;2017-02-14 04:00;CYGK 140400Z 28007KT 15SM OVC030 M06/M10 A3001 RMK SC8 LAST STFD OBS/NEXT 141100 UTC SLP168

CYGK;2017-02-14 11:00;CYGK 141100Z 07002KT 15SM FEW023 FEW210 M12/M14 A2989 RMK SC1CI2 SC TR SLP128

CYGK;2017-02-14 12:00;CYGK 141200Z 06004KT 15SM SCT021 BKN140 M13/M15 A2986 RMK SC3AC3 SLP120

CYGK;2017-02-14 13:00;CYGK 141300Z 07004KT 12SM BKN020 BKN120 M10/M12 A2985 RMK SC5AC2 SLP117

CYGK;2017-02-14 14:00;CYGK 141400Z 10007KT 15SM FEW012 OVC015 M06/M08 A2982 RMK CU1SC7 SLP104

CYGK;2017-02-14 15:00;CYGK 141500Z 18015KT 15SM SCT013 BKN021 OVC100 M01/M04 A2979 RMK SC3SC4AC1 WND ESTD SLP095

CYGK;2017-02-14 16:00;CYGK 141600Z 16015G20KT 15SM FEW013 SCT021 BKN084 M01/M04 A2976 RMK CU1SC2AC4 SLP083

CYGK;2017-02-14 17:00;CYGK 141700Z 16013G20KT 15SM FEW020 SCT078 BKN140 M00/M04 A2971 RMK SC1AC3AC2 PRESFR SLP068

CYGK;2017-02-14 18:00;CYGK 141800Z 17018KT 15SM FEW020 BKN070 BKN140 00/M04 A2966 RMK CU1AC4AC2 PRESFR SLP050

CYGK;2017-02-14 19:00;CYGK 141900Z 17015G21KT 15SM BKN060 OVC140 00/M04 A2964 RMK SC6AC2 SLP042

CYGK;2017-02-14 20:00;CYGK 142000Z 17012KT 15SM BKN051 01/M03 A2962 RMK SC7 SLP036

CYGK;2017-02-14 21:00;CYGK 142100Z 17011KT 15SM OVC045 01/M03 A2960 RMK SC8 SLP030

CYGK;2017-02-14 21:33;CYGK 142133Z 16009KT 15SM -SN OVC043 01/M02 A2959 RMK SC8 SLP027

CYGK;2017-02-14 22:00;CYGK 142200Z 17010KT 15SM -SN OVC041 01/M02 A2959 RMK SC8 SLP027

CYGK;2017-02-14 23:00;CYGK 142300Z 17011KT 15SM -SN OVC038 02/M02 A2958 RMK SC8 SLP024

CYGK;2017-02-14 23:43;CYGK 142343Z 17011KT 15SM OVC034 02/M02 A2958 RMK SC8 SLP022

CYGK;2017-02-15 00:00;CYGK 150000Z 19010KT 15SM OVC033 02/M01 A2957 RMK SC8 SLP021

CYGK;2017-02-15 01:00;CYGK 150100Z 18007KT 15SM OVC037 01/M01 A2956 RMK SC8 SLP018

CYGK;2017-02-15 01:37;CYGK 150137Z 23007KT 15SM -RA OVC039 02/M01 A2956 RMK SC8 SLP016

CYGK;2017-02-15 02:00;CYGK 150200Z 23009KT 15SM -RA BKN038 OVC050 02/M01 A2956 RMK SC7SC1 SLP014

CYGK;2017-02-15 02:22;CYGK 150222Z 24011KT 15SM -RA BKN018 OVC037 02/M01 A2956 RMK SC5SC3 SLP015

CYGK;2017-02-15 03:00;CYGK 150300Z 25005KT 15SM -RA BKN020 OVC050 02/M01 A2954 RMK SC6SC2 SLP010

CYGK;2017-02-15 04:00;CYGK 150400Z 23004KT 15SM -RA SCT018 OVC065 01/M01 A2952 RMK SC4SC4 LAST STFD OBS/NEXT 151100UTC SLP002

CYGK;2017-02-15 11:00;CYGK 151100Z 25005KT 3/4SM BR BKN002 OVC021 01/00 A2942 RMK FG4ST3SC1 SLP966

CYGK;2017-02-15 11:21;CYGK 151121Z 25004KT 1 1/2SM BR SCT005 OVC020 01/00 A2942 RMK ST3SC5 SLP966

CYGK;2017-02-15 12:00;CYGK 151200Z 26005KT 210V280 1 1/2SM BR BKN005 OVC050 01/00 A2942 RMK ST6SC2 SLP967

CYGK;2017-02-15 12:15;CYGK 151215Z 27004KT 2SM BR BKN005 OVC027 01/00 A2942 RMK ST5SC3 SLP966

CYGK;2017-02-15 12:31;CYGK 151231Z 29004KT 2 1/2SM BR SCT005 BKN050 BKN150 01/00 A2941 RMK SF3SC2AC2 SLP965

CYGK;2017-02-15 13:00;CYGK 151300Z 27004KT 3SM BR SCT005 SCT050 BKN140 BKN270 01/00 A2941 RMK SF3SC1AC2CI1 SLP965

CYGK;2017-02-15 13:21;CYGK 151321Z 29009KT 3SM BR OVC003 01/00 A2941 RMK ST8 SLP964

CYGK;2017-02-15 13:32;CYGK 151332Z 29009KT 5SM BR OVC005 01/00 A2941 RMK ST8 SLP964

CYGK;2017-02-15 14:00;CYGK 151400Z 30007KT 5SM BR BKN006 BKN050 OVC120 01/M00 A2941 RMK SF6SC1AC1 SLP963

CYGK;2017-02-15 15:00;CYGK 151500Z 33010KT 6SM BR BKN009 BKN150 01/M01 A2940 RMK ST5AC2 SLP960

CYGK;2017-02-15 15:36;CYGK 151536Z 33007KT 15SM BKN010 BKN140 01/M01 A2939 RMK SC5AC2 SLP959

CYGK;2017-02-15 16:00;CYGK 151600Z 33008KT 15SM BKN011 BKN130 02/M01 A2940 RMK SC5AC2 SLP961

CYGK;2017-02-15 17:00;CYGK 151700Z 31006KT 15SM BKN018 BKN150 03/M01 A2940 RMK CU5AC2 SLP962

CYGK;2017-02-15 18:00;CYGK 151800Z 25009KT 15SM FEW016 BKN031 BKN110 03/M03 A2939 RMK CU1SC4AC1 SLP959

CYGK;2017-02-15 19:00;CYGK 151900Z 28010G16KT 15SM FEW024 BKN030 BKN120 03/M04 A2939 RMK CU1SC4AC1 SLP958

CYGK;2017-02-15 20:00;CYGK 152000Z 31010KT 15SM BKN030 BKN240 03/M04 A2940 RMK SC7CI1 CI TR SLP960

CYGK;2017-02-15 21:00;CYGK 152100Z 27004KT 15SM VCSH FEW024 BKN031 02/M04 A2941 RMK CU2SC5 SLP963

CYGK;2017-02-15 21:42;CYGK 152142Z 28008KT 15SM -SHPL SCT024 BKN030 02/M03 A2942 RMK CU3SC4 SLP967

CYGK;2017-02-15 22:00;CYGK 152200Z 28004KT 15SM -SHPL FEW022 BKN030 01/M03 A2942 RMK CU2SC5 SLP968

CYGK;2017-02-15 22:28;CYGK 152228Z 28012G18KT 6SM -SN BKN019 OVC030 01/M02 A2943 RMK SC6SC2 SLP971

CYGK;2017-02-15 22:43;CYGK 152243Z 28008KT 1 1/2SM -SN OVC016 00/M01 A2943 RMK SN4SC4 SLP972

CYGK;2017-02-15 23:04;CYGK 152304Z 29008KT 2 1/4SM -SN OVC013 00/M01 A2944 RMK SC8 SLP974

CYGK;2017-02-16 00:00;CYGK 160000Z 33014KT 2 1/2SM -SN SCT007 OVC017 M01/M02 A2946 RMK SF3SC5 SLP982

CYGK;2017-02-16 00:19;CYGK 160019Z 32011KT 3SM -SN OVC014 M01/M03 A2947 RMK SC8 SLP984

CYGK;2017-02-16 00:33;CYGK 160033Z 32012G18KT 4SM -SN SCT014 OVC028 M01/M04 A2947 RMK SC4SC4 SLP985

CYGK;2017-02-16 01:00;CYGK 160100Z 32009G15KT 3SM -SN FEW014 BKN028 OVC053 M01/M04 A2948 RMK SC2SC3SC3 SLP988

CYGK;2017-02-16 02:00;CYGK 160200Z 31010G16KT 3SM -SN SCT023 OVC055 M02/M06 A2950 RMK SC3SC5 SLP996

CYGK;2017-02-16 02:08;CYGK 160208Z 32012KT 1 1/2SM -SN SCT020 OVC056 M03/M06 A2950 RMK SC3SC5 SLP996

CYGK;2017-02-16 03:00;CYGK 160300Z 30010G15KT 1SM -SN VV009 M04/M06 A2951 RMK SN8 SLP000

CYGK;2017-02-16 03:47;CYGK 160347Z 29008KT 3SM -SN OVC020 M04/M06 A2953 RMK SC8 SLP004

CYGK;2017-02-16 04:00;CYGK 160400Z 29010KT 3SM -SN FEW009 OVC020 M04/M06 A2953 RMK SF2SC6 LAST STFD OBS/NEXT 161100 UTC SLP004

CYGK;2017-02-16 11:00;CYGK 161100Z 31009KT 6SM -SN OVC040 M08/M12 A2959 RMK SC8 SLP028

CYGK;2017-02-16 11:44;CYGK 161144Z 31008KT 15SM VCSH BKN045 OVC085 M08/M13 A2961 RMK SC6AC2 SLP032

CYGK;2017-02-16 12:00;CYGK 161200Z 31012KT 15SM SCT045 BKN087 M08/M13 A2961 RMK SC3AC4 SLP034

CYGK;2017-02-16 13:00;CYGK 161300Z 32013KT 15SM VCSH FEW020 FEW045 BKN085 M09/M14 A2964 RMK CF1SC2AC5 CF TR SLP043

CYGK;2017-02-16 14:00;CYGK 161400Z 31014G19KT 15SM FEW020 FEW035 BKN050 BKN080 M09/M14 A2966 RMK CF1SC2SC3AC2 CF TR SH DIST E-S SLP051

CYGK;2017-02-16 15:00;CYGK 161500Z 31010G16KT 15SM FEW020 FEW050 SCT092 M07/M13 A2967 RMK CF1SC1AC3 CF TR SLP055

CYGK;2017-02-16 16:00;CYGK 161600Z 34008KT 300V360 15SM -SHSN BKN041 BKN090 M07/M13 A2969 RMK CU6AC1 SLP062

CYGK;2017-02-16 16:42;CYGK 161642Z 32010G16KT 290V360 15SM FEW040 BKN084 BKN250 M07/M14 A2970 RMK SC2AC3CI2 WSHFT 1622 SLP064

CYGK;2017-02-16 17:00;CYGK 161700Z 33011KT 15SM FEW025 FEW040 SCT080 BKN250 M07/M13 A2970 RMK CF1SC1AC3CI2 CF TR SLP064

CYGK;2017-02-16 18:00;CYGK 161800Z 33010KT 15SM FEW040 FEW080 SCT250 M05/M13 A2970 RMK SC1AC1CI1 SLP063

CYGK;2017-02-16 19:00;CYGK 161900Z 30010KT 15SM FEW040 FEW080 FEW250 M04/M12 A2970 RMK CU1AC1CI2 CU TR AC TR SLP064

CYGK;2017-02-16 20:00;CYGK 162000Z 28008KT 15SM FEW040 FEW090 FEW230 M03/M12 A2970 RMK CU1AC1CI1 AC TR SLP065

CYGK;2017-02-16 21:00;CYGK 162100Z 29008G20KT 250V320 15SM FEW038 M02/M11 A2970 RMK SC1 SLP066

CYGK;2017-02-16 22:00;CYGK 162200Z 28007KT 15SM FEW028 FEW040 M02/M11 A2973 RMK CU1SC1 SLP073

CYGK;2017-02-16 23:00;CYGK 162300Z 26005KT 15SM FEW028 FEW040 M03/M11 A2976 RMK CU1SC1 CU TR SLP083

CYGK;2017-02-17 00:00;CYGK 170000Z 27009KT 15SM FEW040 M04/M12 A2977 RMK SC1 SLP089

CYGK;2017-02-17 01:00;CYGK 170100Z 28006KT 15SM FEW024 M06/M12 A2980 RMK CU1 CU TR SLP099

CYGK;2017-02-17 02:00;CYGK 170200Z 29006KT 15SM SKC M07/M13 A2983 RMK SLP108

CYGK;2017-02-17 03:00;CYGK 170300Z 28005KT 15SM FEW024 M08/M13 A2984 RMK SC1 SC TR SLP111

CYGK;2017-02-17 04:00;CYGK 170400Z 27006KT 15SM SKC M09/M14 A2985 RMK LAST STFD OBS/NEXT 171100 UTC SLP116

CYGK;2017-02-17 11:00;CYGK 171100Z 30007KT 15SM SCT250 M12/M15 A2990 RMK CS3 SLP131

CYGK;2017-02-17 12:00;CYGK 171200Z 31008KT 15SM FEW025 FEW250 M13/M16 A2991 RMK CU1CI2 CU TR SLP135

CYGK;2017-02-17 13:00;CYGK 171300Z 31007KT 15SM FEW025 FEW250 M12/M15 A2993 RMK CU1CI1 CU TR SLP145

CYGK;2017-02-17 14:00;CYGK 171400Z 32006KT 15SM FEW025 FEW250 M09/M14 A2993 RMK CF1CI1 CF TR CI TR SLP144

CYGK;2017-02-17 15:00;CYGK 171500Z 24003KT 220V310 15SM FEW025 SCT250 M07/M13 A2993 RMK CF1CI4 CF TR SLP142

CYGK;2017-02-17 16:00;CYGK 171600Z 21004KT 15SM FEW025 SCT250 M06/M12 A2993 RMK CU1CI3 CU TR SLP141

CYGK;2017-02-17 17:00;CYGK 171700Z 22008KT 15SM FEW025 BKN220 M05/M12 A2993 RMK CU1CI6 CU TR CC ASOCTD SLP141

CYGK;2017-02-17 18:00;CYGK 171800Z 22008KT 15SM FEW025 BKN250 M04/M11 A2989 RMK CU1CI6 CU TR SLP130

CYGK;2017-02-17 19:00;CYGK 171900Z 22008KT 15SM FEW025 BKN250 M03/M11 A2988 RMK CU1CI7 CU TR SLP125

CYGK;2017-02-17 20:00;CYGK 172000Z 21007KT 15SM FEW025 FEW170 BKN230 M03/M11 A2988 RMK CU1AC1CI4 SLP125

CYGK;2017-02-17 21:00;CYGK 172100Z 20008KT 15SM FEW025 SCT180 BKN250 M03/M09 A2987 RMK CU1AC3CI3 CU TR SLP123

CYGK;2017-02-17 22:00;CYGK 172200Z 22008KT 15SM SCT110 BKN180 M03/M08 A2987 RMK AC3CI4 SLP123

CYGK;2017-02-17 23:00;CYGK 172300Z 22007KT 15SM BKN110 BKN160 M03/M07 A2987 RMK AC5AC2 SLP121

CYGK;2017-02-18 00:00;CYGK 180000Z 22008KT 15SM BKN120 BKN160 M03/M07 A2988 RMK AC5AC2 SLP125

CYGK;2017-02-18 01:00;CYGK 180100Z 22004KT 15SM FEW024 BKN120 M04/M07 A2986 RMK CU1AC6 CU TR SLP119

CYGK;2017-02-18 02:00;CYGK 180200Z 22004KT 15SM FEW012 SCT160 M04/M06 A2985 RMK CU1AC3 SLP115

CYGK;2017-02-18 03:00;CYGK 180300Z 18009KT 15SM FEW012 BKN170 M02/M05 A2982 RMK CU1AC5 SLP106

CYGK;2017-02-18 04:00;CYGK 180400Z 17009KT 15SM FEW012 BKN180 M02/M05 A2981 RMK CU1CI4 LAST STFD OBS/NEXT 181100 UTC SLP100

CYGK;2017-02-18 11:00;CYGK 181100Z 17010KT 15SM FEW120 M00/M03 A2964 RMK AC1 SLP042

CYGK;2017-02-18 12:00;CYGK 181200Z 18009KT 15SM FEW250 M00/M03 A2962 RMK CI2 SLP035

CYGK;2017-02-18 13:00;CYGK 181300Z 18014KT 15SM FEW250 01/M03 A2960 RMK CI2 SLP028

CYGK;2017-02-18 14:00;CYGK 181400Z 18014KT 15SM FEW250 01/M02 A2957 RMK CI2 SLP020

CYGK;2017-02-18 15:00;CYGK 181500Z 18012G18KT 15SM FEW180 BKN250 01/M02 A2955 RMK AC2CI3 SLP013

CYGK;2017-02-18 16:00;CYGK 181600Z 20011KT 15SM FEW200 03/M01 A2955 RMK CI1 SLP013

CYGK;2017-02-18 17:00;CYGK 181700Z 19013KT 15SM FEW250 03/00 A2952 RMK CI1 SLP001

CYGK;2017-02-18 18:00;CYGK 181800Z 20011KT 15SM FEW250 04/01 A2949 RMK CI1 SLP990

CYGK;2017-02-18 19:00;CYGK 181900Z 24012KT 15SM FEW250 07/02 A2947 RMK CI1 SLP985

CYGK;2017-02-18 20:00;CYGK 182000Z 24015G25KT 15SM FEW250 08/01 A2946 RMK CI1 SLP982

CYGK;2017-02-18 21:00;CYGK 182100Z 25010G18KT 15SM FEW250 07/01 A2948 RMK CI1 SLP987

CYGK;2017-02-18 22:00;CYGK 182200Z 23014G19KT 15SM FEW250 07/02 A2949 RMK CI1 CI TR SLP991

CYGK;2017-02-18 23:00;CYGK 182300Z 24012KT 15SM SKC 06/01 A2951 RMK SLP998

CYGK;2017-02-19 00:00;CYGK 190000Z 24011KT 15SM SKC 05/01 A2954 RMK SLP008

CYGK;2017-02-19 01:00;CYGK 190100Z 24010KT 15SM SKC 06/01 A2956 RMK SLP015

CYGK;2017-02-19 02:00;CYGK 190200Z 24009KT 15SM SKC 05/01 A2957 RMK SLP019

CYGK;2017-02-19 03:00;CYGK 190300Z 24007KT 15SM SKC 04/01 A2959 RMK SLP025

CYGK;2017-02-19 04:00;CYGK 190400Z 23009KT 15SM SKC 04/01 A2960 RMK LAST STFD OBS / NEXT 191100 UTC SLP029

CYGK;2017-02-19 11:00;CYGK 191100Z 27008KT 15SM SCT240 03/M00 A2972 RMK CI3 SLP068

CYGK;2017-02-19 12:00;CYGK 191200Z 27008KT 15SM FEW200 BKN250 03/M00 A2974 RMK CI2CI3 SLP075

CYGK;2017-02-19 13:00;CYGK 191300Z 26007KT 15SM FEW250 03/M00 A2977 RMK CI2 SLP085

CYGK;2017-02-19 14:00;CYGK 191400Z 27009KT 15SM SCT220 04/00 A2979 RMK CI3 SLP093

CYGK;2017-02-19 15:00;CYGK 191500Z 27008KT 15SM SCT220 06/00 A2981 RMK CI4 SLP098

CYGK;2017-02-19 16:00;CYGK 191600Z 24007KT 15SM SCT220 07/00 A2981 RMK CI3 SLP097

CYGK;2017-02-19 17:00;CYGK 191700Z 24009KT 15SM FEW025 SCT240 07/00 A2981 RMK SC1CI2 SLP098

CYGK;2017-02-19 18:00;CYGK 191800Z 24010KT 15SM FEW030 FEW220 08/01 A2980 RMK SC1CI1 SC TR CI TR SLP096

CYGK;2017-02-19 19:00;CYGK 191900Z 24010G15KT 15SM BKN053 09/01 A2981 RMK SC5 SLP098

CYGK;2017-02-19 20:00;CYGK 192000Z 25008KT 15SM BKN048 07/01 A2983 RMK SC6 SLP106

CYGK;2017-02-19 21:00;CYGK 192100Z 27009KT 15SM BKN048 10/01 A2986 RMK SC6 SLP116

CYGK;2017-02-19 22:00;CYGK 192200Z 27007KT 15SM SCT055 09/00 A2989 RMK SC3 SLP125

CYGK;2017-02-19 23:00;CYGK 192300Z 26007KT 15SM BKN058 08/00 A2992 RMK SC6 SLP137

CYGK;2017-02-20 00:00;CYGK 200000Z 28012KT 15SM BKN055 08/00 A2996 RMK SC7 SLP151

CYGK;2017-02-20 01:00;CYGK 200100Z 29004KT 15SM BKN057 07/M00 A2999 RMK SC7 SLP159

CYGK;2017-02-20 02:00;CYGK 200200Z 35010KT 15SM BKN058 06/M01 A3002 RMK SC7 SLP171

CYGK;2017-02-20 03:00;CYGK 200300Z 36007KT 15SM BKN059 04/M02 A3006 RMK SC6 SLP183

CYGK;2017-02-20 04:00;CYGK 200400Z 01006KT 15SM FEW060 03/M02 A3008 RMK SC2 LAST STFD OBS/NEXT 201100UTC SLP192

CYGK;2017-02-20 11:00;CYGK 201100Z 33003KT 15SM SKC M03/M08 A3027 RMK SLP255

CYGK;2017-02-20 12:00;CYGK 201200Z 36005KT 15SM FEW240 M04/M08 A3029 RMK CI1 CI TR SLP262

CYGK;2017-02-20 13:00;CYGK 201300Z 33005KT 15SM FEW240 M03/M07 A3032 RMK CI1 CI TR SLP273

CYGK;2017-02-20 14:00;CYGK 201400Z 36011KT 15SM FEW240 M01/M09 A3034 RMK CI1 CI TR SLP278

CYGK;2017-02-20 15:00;CYGK 201500Z 35010G15KT 15SM FEW025 FEW240 M01/M10 A3036 RMK SC1CI1 SC TR CI TR SLP286

CYGK;2017-02-20 16:00;CYGK 201600Z 36009G16KT 15SM FEW250 M00/M11 A3037 RMK CI1 CI TR SLP289

CYGK;2017-02-20 17:00;CYGK 201700Z 33012KT 15SM FEW025 FEW240 01/M11 A3037 RMK SC1CI1 SC TR CI TR SLP290

CYGK;2017-02-20 18:00;CYGK 201800Z 04010KT 010V070 15SM FEW250 01/M12 A3036 RMK CI1 SLP287

CYGK;2017-02-20 19:00;CYGK 201900Z 02007KT 350V060 15SM FEW250 02/M13 A3034 RMK CI1 CI TR SLP280

CYGK;2017-02-20 20:00;CYGK 202000Z 04005KT 360V080 15SM FEW250 03/M14 A3036 RMK CI1 SLP286

CYGK;2017-02-20 21:00;CYGK 202100Z VRB06KT 15SM FEW250 02/M09 A3037 RMK CI2 SLP290

CYGK;2017-02-20 22:00;CYGK 202200Z 20005KT 15SM FEW150 SCT250 01/M08 A3037 RMK AC1CI3 SLP291

CYGK;2017-02-20 23:00;CYGK 202300Z 27002KT 15SM FEW150 FEW250 M01/M10 A3039 RMK AC1CI1 SLP297

CYGK;2017-02-21 01:00;CYGK 210100Z 04004KT 15SM FEW250 M03/M08 A3038 RMK CI1 SLP296

CYGK;2017-02-21 02:00;CYGK 210200Z 05003KT 15SM SKC M02/M12 A3038 RMK SLP295

CYGK;2017-02-21 03:00;CYGK 210300Z 04003KT 15SM FEW250 M02/M12 A3038 RMK CI1 SLP296

CYGK;2017-02-21 04:00;CYGK 210400Z 06005KT 15SM FEW250 M04/M12 A3037 RMK CI1 LAST STFD OBS/NEXT 211100UTC SLP291

CYGK;2017-02-21 11:00;CYGK 211100Z 05003KT 15SM BKN180 M05/M09 A3022 RMK CI5 SLP240

CYGK;2017-02-21 12:00;CYGK 211200Z 04003KT 15SM FEW170 BKN190 M04/M09 A3020 RMK AC2CI4 SLP234

CYGK;2017-02-21 13:00;CYGK 211300Z 09002KT 15SM FEW170 BKN200 M03/M07 A3019 RMK AC2CI5 SLP230

CYGK;2017-02-21 14:00;CYGK 211400Z 15006KT 15SM BKN180 OVC200 00/M07 A3017 RMK AC6CI2 SLP223

CYGK;2017-02-21 15:00;CYGK 211500Z 15016KT 15SM OVC160 01/M05 A3012 RMK AC8 SLP206

CYGK;2017-02-21 16:00;CYGK 211600Z 17013G20KT 15SM BKN160 OVC200 02/M05 A3010 RMK AC6CI2 SLP198

CYGK;2017-02-21 17:00;CYGK 211700Z 17010KT 15SM SCT160 OVC200 02/M04 A3008 RMK AC4CI4 SLP193

CYGK;2017-02-21 18:00;CYGK 211800Z 16009KT 15SM BKN180 BKN220 03/M04 A3004 RMK AC5CI2 SLP178

CYGK;2017-02-21 19:00;CYGK 211900Z 17007KT 15SM FEW024 SCT130 OVC180 03/M03 A3001 RMK CU1AC2CI5 SLP169

CYGK;2017-02-21 20:00;CYGK 212000Z 17007KT 15SM SCT130 OVC160 03/M03 A2998 RMK AC3AS5 PRESFR SLP159

CYGK;2017-02-21 21:00;CYGK 212100Z 16007KT 15SM BKN100 OVC140 03/M03 A2996 RMK AC5AS3 PRESFR SLP152

CYGK;2017-02-21 22:00;CYGK 212200Z 17007KT 15SM BKN055 OVC100 03/M03 A2997 RMK SC6AS2 SLP155

CYGK;2017-02-21 22:41;CYGK 212241Z 17004KT 120V200 15SM -RA BKN059 OVC070 04/M03 A2997 RMK SC6AS2 SLP156

CYGK;2017-02-21 23:00;CYGK 212300Z 14005KT 10SM -RA OVC059 03/M03 A2996 RMK NS8 SLP152

CYGK;2017-02-22 00:00;CYGK 220000Z 18006KT 12SM -RA OVC044 03/M01 A2997 RMK NS8 SLP156

CYGK;2017-02-22 00:23;CYGK 220023Z 18009KT 15SM OVC041 03/M02 A2997 RMK SC8 SLP156

CYGK;2017-02-22 01:00;CYGK 220100Z 19008KT 15SM BKN034 OVC040 03/M02 A2997 RMK SC5SC3 SLP154

CYGK;2017-02-22 02:00;CYGK 220200Z 18010G16KT 15SM OVC036 03/M01 A2995 RMK SC8 SLP149

CYGK;2017-02-22 03:00;CYGK 220300Z 28006KT 210V290 10SM -SHRA SCT028 OVC031 03/M01 A2996 RMK SC3SC5 CVCTV CLD ASOCTD SLP151

CYGK;2017-02-22 03:49;CYGK 220349Z 20009KT 12SM OVC028 03/00 A2996 RMK SC8 SLP151

CYGK;2017-02-22 04:00;CYGK 220400Z 21005KT 15SM OVC026 03/00 A2995 RMK SC8 LAST STFD OBS / NEXT221100 UTC SLP149

CYGK;2017-02-22 11:00;CYGK 221100Z 36002KT 15SM OVC011 02/01 A2993 RMK ST8 SLP142

CYGK;2017-02-22 12:00;CYGK 221200Z 16003KT 10SM BKN009 OVC015 03/01 A2993 RMK SF5SC3 SLP142

CYGK;2017-02-22 13:00;CYGK 221300Z VRB02KT 10SM OVC008 03/01 A2994 RMK ST8 SLP144

CYGK;2017-02-22 14:00;CYGK 221400Z 01003KT 6SM BR OVC008 04/02 A2994 RMK SF8 SLP145

CYGK;2017-02-22 14:26;CYGK 221426Z 35004KT 4SM -DZ BR OVC007 04/02 A2994 RMK SF8 SLP143

CYGK;2017-02-22 15:00;CYGK 221500Z 10003KT 6SM -DZ BR BKN009 OVC015 04/03 A2994 RMK SF7SC1 SLP143

CYGK;2017-02-22 15:27;CYGK 221527Z 06002KT 10SM SCT006 OVC013 05/03 A2994 RMK SF4SC4 BR SLP143

CYGK;2017-02-22 16:00;CYGK 221600Z 08002KT 10SM FEW006 OVC017 05/02 A2991 RMK SF2SC6 BR SLP134

CYGK;2017-02-22 16:48;CYGK 221648Z 15004KT 12SM BKN014 OVC025 06/01 A2989 RMK SC5SC3 SLP127

CYGK;2017-02-22 17:00;CYGK 221700Z 15004KT 15SM BKN014 OVC025 06/01 A2989 RMK SC7SC1 SLP126

CYGK;2017-02-22 17:23;CYGK 221723Z 15003KT 120V210 15SM FEW013 OVC019 06/01 A2988 RMK SC1SC7 SLP122

CYGK;2017-02-22 18:00;CYGK 221800Z 23002KT 15SM OVC018 06/01 A2986 RMK SC8 SLP117

CYGK;2017-02-22 19:00;CYGK 221900Z VRB02KT 15SM SCT016 BKN036 BKN070 08/01 A2985 RMK SC4SC2AC1 SLP113

CYGK;2017-02-22 20:00;CYGK 222000Z 00000KT 15SM FEW015 SCT022 OVC070 09/01 A2983 RMK SC1SC3AC4 SLP104

CYGK;2017-02-22 21:00;CYGK 222100Z 00000KT 15SM FEW020 BKN033 BKN070 09/01 A2982 RMK SC1SC4AC2 SLP103

CYGK;2017-02-22 22:00;CYGK 222200Z 00000KT 15SM OVC033 08/01 A2981 RMK SC8 SLP098

CYGK;2017-02-22 23:00;CYGK 222300Z 11003KT 15SM SCT025 OVC040 07/01 A2979 RMK SC3SC5 SLP093

CYGK;2017-02-23 00:00;CYGK 230000Z 08003KT 15SM SCT025 OVC035 07/02 A2979 RMK SC3SC5 SLP092

CYGK;2017-02-23 01:00;CYGK 230100Z 00000KT 15SM OVC025 07/01 A2979 RMK SC8 SLP093

CYGK;2017-02-23 02:00;CYGK 230200Z 34003KT 15SM OVC030 06/02 A2979 RMK SC8 SLP091

CYGK;2017-02-23 03:00;CYGK 230300Z 18004KT 15SM OVC018 08/02 A2978 RMK SC8 SLP089

CYGK;2017-02-23 04:00;CYGK 230400Z 21005KT 15SM OVC015 07/02 A2977 RMK SC8 LAST STFD OBS/NEXT 231100 UTC SLP084

CYGK;2017-02-23 11:00;CYGK 231100Z 25005KT 210V290 15SM BKN023 OVC070 06/04 A2968 RMK SC7AC1 SLP056

CYGK;2017-02-23 12:00;CYGK 231200Z 20009G16KT 15SM BKN024 BKN060 05/04 A2967 RMK SC6SC1 SLP050

CYGK;2017-02-23 13:00;CYGK 231300Z VRB02KT 15SM BKN027 OVC060 05/03 A2966 RMK SC7SC1 SLP047

CYGK;2017-02-23 13:51;CYGK 231351Z 17008KT 15SM -RA BKN025 OVC040 04/03 A2964 RMK SC6SC2 SLP042

CYGK;2017-02-23 14:00;CYGK 231400Z 17012G18KT 15SM -SHRA BKN026 OVC040 04/03 A2964 RMK SC6SC2 CVCTV CLD ASOCTD SLP042

CYGK;2017-02-23 14:37;CYGK 231437Z 19010KT 12SM OVC022 04/03 A2963 RMK SC8 SLP037

CYGK;2017-02-23 15:00;CYGK 231500Z 20007KT 8SM -SHRA OVC018 05/03 A2963 RMK SC8 CVCTV CLD EMBD SLP037

CYGK;2017-02-23 16:00;CYGK 231600Z 21015G22KT 10SM -SHRA OVC021 07/05 A2961 WS RWY19 RMK SC8 CVCTV CLD ASOCTD SLP030

CYGK;2017-02-23 16:32;CYGK 231632Z 23008KT 10SM OVC020 07/05 A2961 RMK SC8 CU EMBD SLP029

CYGK;2017-02-23 17:00;CYGK 231700Z 24010KT 8SM OVC018 08/06 A2961 RMK SC8 CU EMBD SLP031

CYGK;2017-02-23 18:00;CYGK 231800Z 23010KT 6SM BR VCSH BKN021 OVC038 08/06 A2961 RMK SC5SC3 SLP031

CYGK;2017-02-23 19:00;CYGK 231900Z 24015KT 10SM FEW012 SCT020 11/08 A2960 RMK CU1SC3 MIFG OVR LK SLP026

CYGK;2017-02-23 20:00;CYGK 232000Z 24013G19KT 10SM FEW025 12/09 A2962 RMK CU1 SLP034

CYGK;2017-02-23 21:00;CYGK 232100Z 24013G20KT 10SM FEW018 SCT045 12/08 A2965 RMK CF1SC2 SLP044

CYGK;2017-02-23 22:00;CYGK 232200Z 25010G18KT 10SM FEW012 SCT050 11/08 A2969 RMK CF1SC2 SLP057

CYGK;2017-02-23 23:00;CYGK 232300Z 27008G16KT 15SM FEW250 11/05 A2973 RMK CI2 SLP072

CYGK;2017-02-24 00:00;CYGK 240000Z 25006KT 15SM SCT250 09/04 A2978 RMK CI3 SLP089

CYGK;2017-02-24 01:00;CYGK 240100Z 31007KT 15SM FEW250 07/03 A2981 RMK CI2 SLP099

CYGK;2017-02-24 02:00;CYGK 240200Z 22006KT 15SM FEW250 04/02 A2984 RMK CI2 SLP110

CYGK;2017-02-24 03:00;CYGK 240300Z 26005KT 15SM SCT210 04/02 A2986 RMK CI4 SLP116

CYGK;2017-02-24 04:00;CYGK 240400Z 23003KT 15SM BKN190 02/01 A2988 RMK AC5 LAST STFD OBS/NEXT 241100 UTC SLP122

CYGK;2017-02-24 11:00;CYGK 241100Z 04009KT 15SM OVC015 03/00 A2990 RMK SC8 SLP128

CYGK;2017-02-24 12:00;CYGK 241200Z 04007KT 15SM BKN014 OVC085 03/M00 A2988 RMK SC7AC1 SLP124

CYGK;2017-02-24 12:09;CYGK 241209Z 04010KT 15SM -RA BKN014 OVC050 03/M00 A2987 RMK SC5SC3 SLP120

CYGK;2017-02-24 12:16;CYGK 241216Z 03010KT 15SM -RA FEW014 BKN045 OVC075 03/M00 A2986 RMK SC2SC4AC2 PRESFR SLP116

CYGK;2017-02-24 13:00;CYGK 241300Z 02008KT 12SM -RA FEW014 BKN040 OVC075 03/01 A2987 RMK SC1SC6AC1 SLP119

CYGK;2017-02-24 14:00;CYGK 241400Z 03010G16KT 12SM -RA FEW015 BKN025 OVC055 02/01 A2985 RMK SC1SC4SC3 SLP114

CYGK;2017-02-24 14:47;CYGK 241447Z 03011KT 15SM -RA FEW008 FEW015 OVC025 03/01 A2984 RMK SF1SC1SC7 SF TR SLP110

CYGK;2017-02-24 15:00;CYGK 241500Z 03012KT 15SM -RA FEW008 FEW015 OVC026 03/01 A2983 RMK SF1SC1SC7 SF TR SLP106

CYGK;2017-02-24 16:00;CYGK 241600Z 05013G18KT 15SM FEW008 OVC022 03/01 A2982 RMK SF2SC6 INTMT -RA SLP103

CYGK;2017-02-24 17:00;CYGK 241700Z 04012G19KT 7SM -RA FEW007 BKN016 OVC035 03/02 A2978 RMK SF2SC5SC1 SLP091

CYGK;2017-02-24 17:24;CYGK 241724Z 04015KT 15SM SCT005 OVC013 03/02 A2978 RMK SF3SC5 SLP089

CYGK;2017-02-24 18:00;CYGK 241800Z 04014KT 15SM SCT007 OVC013 03/02 A2978 RMK SF3SC5 SLP089

CYGK;2017-02-24 19:00;CYGK 241900Z 05018KT 15SM FEW007 OVC011 03/01 A2975 RMK SF2SC6 SLP079

CYGK;2017-02-24 20:00;CYGK 242000Z 04013G22KT 12SM BKN008 OVC012 03/01 A2973 RMK SF5SC3 SLP074

CYGK;2017-02-24 21:00;CYGK 242100Z 03012G18KT 15SM BKN007 OVC013 03/01 A2973 RMK SF6SC2 SLP072

CYGK;2017-02-24 21:08;CYGK 242108Z 03010G18KT 15SM -RA BKN008 OVC013 03/01 A2973 RMK SF6SC2 SLP072

CYGK;2017-02-24 21:24;CYGK 242124Z 04012KT 15SM BKN006 OVC050 03/02 A2972 RMK SF6SC2 SLP069

CYGK;2017-02-24 22:00;CYGK 242200Z 05012G19KT 15SM SCT006 BKN048 BKN085 03/02 A2970 RMK SF3SC2AC2 SLP063

CYGK;2017-02-24 22:21;CYGK 242221Z 02011KT 12SM BKN006 BKN054 03/02 A2972 RMK SF5SC2 SLP069

CYGK;2017-02-24 23:00;CYGK 242300Z 03011G17KT 12SM BKN005 BKN055 BKN084 03/01 A2970 RMK SF5SC1AC1 SLP063

CYGK;2017-02-25 00:00;CYGK 250000Z 04012G17KT 12SM SCT004 BKN084 03/01 A2968 RMK SF4AC2 SLP056

CYGK;2017-02-25 00:36;CYGK 250036Z 02012KT 8SM BKN004 OVC070 03/02 A2970 RMK SF6AC2 SLP063

CYGK;2017-02-25 01:00;CYGK 250100Z 03012KT 8SM OVC004 03/02 A2970 RMK SF8 SLP062

CYGK;2017-02-25 02:00;CYGK 250200Z 04011G17KT 5SM BR OVC003 02/02 A2967 RMK SF8 SLP051

CYGK;2017-02-25 03:00;CYGK 250300Z 05013G19KT 2 1/2SM BR OVC002 02/01 A2964 RMK SF8 SLP041

CYGK;2017-02-25 04:00;CYGK 250400Z 04012KT 2SM BR OVC002 02/01 A2963 RMK SF8 LAST STFD OBS/NEXT 251100 UTC SLP040

CYGK;2017-02-25 11:00;CYGK 251100Z 32006KT 290V040 8SM FEW002 OVC037 03/02 A2953 RMK SF1SC7 SLP006

CYGK;2017-02-25 12:00;CYGK 251200Z 06007KT 6SM BR BKN038 BKN058 03/02 A2951 RMK SC6SC1 SLP998

CYGK;2017-02-25 13:00;CYGK 251300Z 06006KT 6SM BR SCT038 BKN072 04/03 A2949 RMK SC3AC4 SLP990

CYGK;2017-02-25 14:00;CYGK 251400Z 06006KT 6SM BR FEW038 BKN070 OVC250 05/04 A2946 RMK SC2AC5CI1 SLP979

CYGK;2017-02-25 15:00;CYGK 251500Z 02003KT 360V080 10SM FEW040 BKN058 OVC080 07/06 A2942 RMK SC2SC5AC1 SH DIST W SLP968

CYGK;2017-02-25 15:13;CYGK 251513Z VRB02KT 12SM -RA BKN040 BKN070 OVC250 07/05 A2942 RMK SC5AC2CI1 SLP966

CYGK;2017-02-25 16:00;CYGK 251600Z 26010KT 150V280 12SM FEW005 BKN035 OVC070 09/07 A2940 RMK SF1SC5AC2 VIS W 5 INTMT -RA SLP959

CYGK;2017-02-25 16:31;CYGK 251631Z 25008KT 2 1/2SM -SHRA BR BKN007 OVC021TCU 09/08 A2940 RMK SF6TCU2 SLP960

CYGK;2017-02-25 16:38;CYGK 251638Z 27011KT 230V300 5SM -SHRA BR SCT007 BKN021TCU OVC040 08/07 A2938 RMK SF4TCU1SC3 PRESFR SLP952

CYGK;2017-02-25 16:45;CYGK 251645Z 24009KT 230V290 1 1/2SM -SHRA BR SCT007 OVC019TCU 08/07 A2940 RMK SF3TCU5 SLP959

CYGK;2017-02-25 16:51;CYGK 251651Z 26009KT 1 1/2SM -TSRA BR SCT007 OVC020CB 08/07 A2939 RMK SF3CB5 VIS S OVR LK 1/2 SLP956

CYGK;2017-02-25 17:00;CYGK 251700Z 27013KT 1 1/2SM -TSRA BR SCT006 BKN020CB OVC028 08/08 A2939 RMK SF4CB3SC1 VIS S OVR LK 1/2 SLP955

CYGK;2017-02-25 17:22;CYGK 251722Z 27014KT 5SM -TSRA BR SCT005 BKN020CB OVC070 08/08 A2939 RMK SF4CB3AC1 FOG BANK S OVR LK SLP956

CYGK;2017-02-25 17:44;CYGK 251744Z 25014G22KT 7SM -SHRA BKN008 OVC055 07/06 A2939 RMK SF7SC1 PRESRR SLP958

CYGK;2017-02-25 18:00;CYGK 251800Z 25012G27KT 6SM -SHRA BR BKN007 OVC035 07/05 A2939 RMK SF7SC1 CIG RAG SLP957

CYGK;2017-02-25 19:00;CYGK 251900Z 24012G18KT 6SM -SHRA BR BKN008 OVC045 05/04 A2942 RMK SF7SC1 PRESRR SLP966

CYGK;2017-02-25 20:00;CYGK 252000Z 27019G27KT 5SM -SHRA BR BKN008 OVC018 05/03 A2947 RMK SF5CU3 SLP985

CYGK;2017-02-25 21:00;CYGK 252100Z 22007KT 12SM -SHRA FEW020 BKN040 OVC070 04/02 A2948 RMK SC1SC6AC1 SLP988

CYGK;2017-02-25 21:12;CYGK 252112Z 22007KT 15SM VCSH FEW020 BKN045 OVC110 04/03 A2948 RMK SC1SC5AC3 SC TR SLP989

CYGK;2017-02-25 22:00;CYGK 252200Z 23008KT 15SM VCSH FEW020 BKN065 OVC100 05/01 A2949 RMK CU2SC3AC3 SLP991

CYGK;2017-02-25 23:00;CYGK 252300Z 25008G17KT 230V290 15SM VCSH SCT016 BKN064 OVC100 04/01 A2952 RMK CU3SC3AC2 PRESRR SLP002

CYGK;2017-02-25 23:22;CYGK 252322Z 25007KT 15SM -SHRA SCT020 BKN040 OVC070 04/01 A2955 RMK CU3SC3AC2 PRESRR SLP011

CYGK;2017-02-26 00:00;CYGK 260000Z 23004KT 200V270 15SM -SHRA SCT020 OVC031 03/00 A2959 RMK CU4SC4 PRESRR SLP025

CYGK;2017-02-26 00:25;CYGK 260025Z 25006KT 15SM -SHRASN SCT020 OVC050 03/00 A2959 RMK CU4SC4 SLP025

CYGK;2017-02-26 00:44;CYGK 260044Z 28012G19KT 15SM -SHSN SCT024 BKN050 OVC078 03/M01 A2959 RMK CU3SC2AC3 SLP023

CYGK;2017-02-26 01:00;CYGK 260100Z 27013G20KT 15SM -SHSN FEW020 SCT050 OVC070 03/M03 A2959 RMK CU2SC2AC4 SLP026

CYGK;2017-02-26 01:19;CYGK 260119Z 25010G17KT 15SM FEW020 OVC080 03/M03 A2960 RMK CU1AC7 SLP027

CYGK;2017-02-26 02:00;CYGK 260200Z 24017G23KT 15SM BKN070 02/M04 A2961 RMK AC6 SLP030

CYGK;2017-02-26 03:00;CYGK 260300Z 26012G24KT 15SM FEW040 BKN072 02/M04 A2964 RMK SC2AC4 SLP041

CYGK;2017-02-26 03:49;CYGK 260349Z 27014G22KT 15SM -SHSN SCT022 BKN052 BKN070 01/M04 A2966 RMK CU3SC3AC1 SLP048

CYGK;2017-02-26 04:00;CYGK 260400Z 26017G27KT 15SM -SHSN SCT020 BKN047 OVC070 00/M05 A2966 RMK CU3SC4AC1 LAST STFD OBS/NEXT 261100 UTC SLP049

CYGK;2017-02-26 11:00;CYGK 261100Z 28012G18KT 15SM SCT035 M04/M10 A2986 RMK SC3 SLP117

CYGK;2017-02-26 12:00;CYGK 261200Z 28009G18KT 15SM FEW035 M04/M12 A2990 RMK CU2 SLP130

CYGK;2017-02-26 13:00;CYGK 261300Z 28013G19KT 15SM FEW030 BKN060 M03/M12 A2995 RMK CU1SC5 SLP148

CYGK;2017-02-26 14:00;CYGK 261400Z 27010G17KT 15SM VCSH FEW025 BKN064 M03/M11 A2998 RMK CU1SC7 CU TR SLP158

CYGK;2017-02-26 15:00;CYGK 261500Z 26010G17KT 230V300 15SM FEW030 SCT050 BKN070 M02/M10 A2999 RMK CU1SC3AC2 SLP162

CYGK;2017-02-26 16:00;CYGK 261600Z 26010G17KT 220V300 15SM FEW035 SCT070 SCT250 M01/M09 A2999 RMK CU1AC2CI1 SLP163

CYGK;2017-02-26 17:00;CYGK 261700Z 27011G21KT 15SM BKN030 BKN250 M01/M08 A3000 RMK CU5CI2 SLP164

CYGK;2017-02-26 18:00;CYGK 261800Z 25012G18KT 15SM BKN033 BKN250 00/M07 A3000 RMK CU5CI1 SLP165

CYGK;2017-02-26 18:49;CYGK 261849Z 27012G19KT 15SM -SHSN BKN037 00/M08 A3000 RMK CU7 SLP165

CYGK;2017-02-26 19:00;CYGK 261900Z 27011G18KT 15SM -SHSN BKN040 00/M09 A3000 RMK CU7 SLP166

CYGK;2017-02-26 20:00;CYGK 262000Z 23012G18KT 15SM -SHSN BKN051 01/M06 A3000 RMK CU6 SLP166

CYGK;2017-02-26 21:00;CYGK 262100Z 24012G17KT 15SM BKN040 01/M07 A3001 RMK CU6 OCNL -SHSN SLP169

CYGK;2017-02-26 22:00;CYGK 262200Z 24016G23KT 15SM VCSH SCT053 00/M07 A3002 RMK CU4 SLP173

CYGK;2017-02-26 23:00;CYGK 262300Z 23012G18KT 15SM FEW040 FEW110 SCT250 M01/M07 A3004 RMK SC1AC1CI1 SLP177

CYGK;2017-02-27 00:00;CYGK 270000Z 22011KT 15SM FEW200 M01/M06 A3004 RMK CI1 SLP178

CYGK;2017-02-27 01:00;CYGK 270100Z 22013KT 15SM FEW025 BKN090 M00/M06 A3004 RMK SC1AS5 SLP179

CYGK;2017-02-27 02:00;CYGK 270200Z 22015G20KT 15SM SCT044 OVC065 00/M06 A3005 RMK SC4SC4 SLP183

CYGK;2017-02-27 02:26;CYGK 270226Z 22013G22KT 12SM -SN SCT015 OVC030 00/M05 A3006 RMK SC4SC4 SLP186

CYGK;2017-02-27 03:00;CYGK 270300Z 22016G29KT 15SM -SN SCT015 BKN040 OVC090 00/M05 A3006 RMK SC3SC3AC2 SLP184

CYGK;2017-02-27 03:32;CYGK 270332Z 22012KT 15SM BKN060 00/M04 A3005 RMK SC6 SLP181

CYGK;2017-02-27 04:00;CYGK 270400Z 21012G18KT 15SM SCT054 OVC075 01/M04 A3004 RMK SC4AC4 LAST STFD OBS/NEXT 271100 UTC SLP177

CYGK;2017-02-27 11:00;CYGK 271100Z 24011G18KT 15SM FEW220 02/M03 A3007 RMK CI2 SLP189

CYGK;2017-02-27 12:00;CYGK 271200Z 22011KT 15SM FEW100 SCT240 02/M03 A3010 RMK AC2CI2 PRESRR SLP199

CYGK;2017-02-27 13:00;CYGK 271300Z 24013G18KT 15SM FEW090 SCT240 03/M03 A3013 RMK AC1CI3 SLP210

CYGK;2017-02-27 14:00;CYGK 271400Z 23015G21KT 15SM FEW090 SCT250 04/M02 A3015 RMK AC2CI1 SLP215

CYGK;2017-02-27 15:00;CYGK 271500Z 23017G23KT 15SM FEW025 FEW090 SCT240 05/M02 A3017 RMK CU1AC1CI2 AC TR SLP222

CYGK;2017-02-27 16:00;CYGK 271600Z 23014G22KT 15SM FEW035 SCT070 SCT250 06/M01 A3018 RMK CU2AC1CI1 SLP227

CYGK;2017-02-27 17:00;CYGK 271700Z 23014G20KT 15SM FEW035 BKN067 BKN240 06/M01 A3020 RMK CU2AC3CI1 SLP232

CYGK;2017-02-27 18:00;CYGK 271800Z 22015KT 15SM BKN040 BKN250 05/M01 A3020 RMK CU5CI1 SLP232

CYGK;2017-02-27 19:00;CYGK 271900Z 23013KT 15SM SCT047 BKN100 07/M01 A3019 RMK SC3AC2 SLP229

CYGK;2017-02-27 20:00;CYGK 272000Z 24012KT 15SM SCT043 SCT140 07/M01 A3020 RMK CU3AC1 SLP230

CYGK;2017-02-27 21:00;CYGK 272100Z 24009G15KT 15SM SCT040 SCT150 06/M01 A3020 RMK CU3AC1 SLP232

CYGK;2017-02-27 22:00;CYGK 272200Z 24008KT 15SM FEW040 05/M02 A3023 RMK CU2 SLP243

CYGK;2017-02-27 23:00;CYGK 272300Z 24004KT 15SM FEW040 SCT270 03/M02 A3024 RMK SC1CI2 SLP247

CYGK;2017-02-28 00:00;CYGK 280000Z 32005KT 15SM FEW270 04/M03 A3026 RMK CI2 SLP252

CYGK;2017-02-28 01:00;CYGK 280100Z 19004KT 180V250 15SM FEW270 M00/M03 A3027 RMK CI1 SLP256

CYGK;2017-02-28 02:00;CYGK 280200Z 34006KT 15SM FEW140 FEW270 M01/M04 A3028 RMK AC1CI1 SLP259

CYGK;2017-02-28 03:00;CYGK 280300Z 35003KT 15SM FEW095 SCT270 M01/M04 A3029 RMK AC2CI1 SLP261

CYGK;2017-02-28 04:00;CYGK 280400Z 16004KT 15SM BKN093 M01/M03 A3030 RMK AC5 LAST STFD OBS / NEXT 281100 UTC SLP265

CYGK;2017-02-28 11:00;CYGK 281100Z 06005KT 15SM BKN100 M01/M03 A3029 RMK AC6 SLP262

CYGK;2017-02-28 12:00;CYGK 281200Z 07002KT 15SM BKN097 M02/M04 A3029 RMK AC5 SLP262

CYGK;2017-02-28 13:00;CYGK 281300Z 07004KT 15SM FEW088 SCT240 01/M01 A3028 RMK AC1CI3 SLP260

CYGK;2017-02-28 14:00;CYGK 281400Z 10004KT 15SM SCT240 05/M00 A3026 RMK CI4 SLP252

CYGK;2017-02-28 15:00;CYGK 281500Z 14006KT 15SM BKN260 06/M01 A3025 RMK CI6 SLP248

CYGK;2017-02-28 16:00;CYGK 281600Z 15005KT 15SM OVC220 05/M01 A3023 RMK CI8 SLP243

CYGK;2017-02-28 17:00;CYGK 281700Z 16006KT 15SM SCT120 OVC220 06/M01 A3019 RMK AS4CI4 SLP230

CYGK;2017-02-28 18:00;CYGK 281800Z 13007KT 15SM SCT069 OVC110 07/00 A3013 RMK AC3AS5 PRESFR SLP208

CYGK;2017-02-28 19:00;CYGK 281900Z 13004KT 15SM FEW070 OVC100 07/01 A3009 RMK AC2AS6 SLP195

CYGK;2017-02-28 20:00;CYGK 282000Z 11004KT 15SM FEW060 SCT075 OVC110 09/02 A3005 RMK SC2AC2AC4 SLP181

CYGK;2017-02-28 21:00;CYGK 282100Z 11005KT 15SM BKN093 OVC110 09/02 A3002 RMK AC6AS2 SLP170

CYGK;2017-02-28 22:00;CYGK 282200Z 09005KT 15SM FEW075 OVC095 09/02 A2997 RMK AC2AC6 SLP155

CYGK;2017-02-28 23:00;CYGK 282300Z 07007KT 15SM OVC075 08/02 A2993 RMK AC8 SLP140

CYGK;2017-02-28 23:14;CYGK 282314Z 08005KT 15SM -RA OVC070 08/02 A2993 RMK AC8 SLP140

CYGK;2017-03-01 00:00;CYGK 010000Z 10006KT 15SM -RA OVC070 08/02 A2991 RMK AC8 SLP133

CYGK;2017-03-01 00:40;CYGK 010040Z 13005KT 15SM OVC065 09/02 A2988 RMK SC8 SLP124

CYGK;2017-03-01 01:00;CYGK 010100Z 14004KT 15SM OVC065 08/02 A2987 RMK SC8 SLP118

CYGK;2017-03-01 02:00;CYGK 010200Z 16012KT 15SM OVC055 05/02 A2983 RMK SC8 SLP106

CYGK;2017-03-01 03:00;CYGK 010300Z 16013KT 15SM OVC045 06/02 A2978 RMK SC8 SLP090

CYGK;2017-03-01 04:00;CYGK 010400Z 18009KT 15SM OVC045 05/01 A2978 RMK SC8 LAST STFD OBS/NEXT 011100 UTC SLP090

CYGK;2017-03-01 11:00;CYGK 011100Z 15016G22KT 4SM RA BR OVC026 06/05 A2946 RMK NS8 PRESFR SLP979

CYGK;2017-03-01 11:18;CYGK 011118Z 14021G27KT 6SM -SHRA BR SCT023 OVC039 07/06 A2943 RMK CU4SC4 PRESFR SLP968

CYGK;2017-03-01 12:00;CYGK 011200Z 16015G22KT 15SM FEW023 OVC035 06/06 A2941 RMK CU2SC6 SLP963

CYGK;2017-03-01 12:48;CYGK 011248Z 19012G23KT 160V300 15SM SCT008 OVC030 07/07 A2944 RMK CU3SC5 SLP972

CYGK;2017-03-01 13:00;CYGK 011300Z 23008G25KT 190V290 15SM FEW008 OVC027 08/07 A2944 RMK CU2SC6 SLP971

CYGK;2017-03-01 14:00;CYGK 011400Z 19014G21KT 12SM FEW008 SCT027 OVC080 08/06 A2939 RMK CF1SC4AC4 CF TR PRESFR SLP955

CYGK;2017-03-01 15:00;CYGK 011500Z 16019KT 15SM FEW010 SCT024 BKN060 BKN140 06/05 A2929 RMK CU1SC2SC2AC2 PRESFR SLP922

CYGK;2017-03-01 16:00;CYGK 011600Z 18014KT 15SM FEW010 BKN030 BKN060 07/06 A2929 RMK CU1SC6SC1 CU TR SLP922

CYGK;2017-03-01 16:10;CYGK 011610Z 25008G19KT 180V290 15SM VCSH SCT007 BKN033 BKN080 09/09 A2931 RMK CU3SC3AC1 PRESRR SLP930 DENSITY ALT 400FT

CYGK;2017-03-01 16:43;CYGK 011643Z 27006KT 15SM VCSH FEW008 BKN013 OVC032 11/10 A2932 RMK CU2SC4SC2 SLP931 DENSITY ALT 600FT

CYGK;2017-03-01 17:00;CYGK 011700Z 26006KT 15SM FEW010 SCT038 BKN100 13/11 A2930 RMK CU1SC3AC3 SLP926 DENSITY ALT 800FT

CYGK;2017-03-01 18:00;CYGK 011800Z 23016G22KT 15SM FEW040 BKN080 OVC180 11/09 A2930 RMK SC2AC4AC2 SLP925 DENSITY ALT 600FT

CYGK;2017-03-01 19:00;CYGK 011900Z 25013G19KT 15SM FEW020 FEW040 SCT080 BKN160 10/07 A2927 RMK CU1SC2AC2AC3 CU TR SLP917 DENSITY ALT 500FT

CYGK;2017-03-01 20:00;CYGK 012000Z 24013G21KT 15SM FEW020 SCT040 BKN130 12/08 A2927 RMK CU1SC3AC3 SLP917 DENSITY ALT 700FT

CYGK;2017-03-01 21:00;CYGK 012100Z 25015G21KT 15SM FEW021 BKN070 OVC130 11/08 A2925 RMK CU2AC4AC2 PRESFR SLP909 DENSITY ALT 600FT

CYGK;2017-03-01 22:00;CYGK 012200Z 25010G17KT 8SM SCT020 OVC035 10/07 A2925 RMK CU4SC4 SLP908 DENSITY ALT 500FT

CYGK;2017-03-01 23:00;CYGK 012300Z 23014G20KT 15SM BKN025 OVC050 10/09 A2923 RMK CU6SC2 SLP902 DENSITY ALT 500FT

CYGK;2017-03-02 00:00;CYGK 020000Z 20009KT 15SM OVC035 06/05 A2922 RMK CU8 SLP898

CYGK;2017-03-02 00:37;CYGK 020037Z 24008G15KT 15SM SCT030 BKN045 OVC100 08/06 A2920 RMK CU3SC3AC2 SLP891

CYGK;2017-03-02 01:00;CYGK 020100Z 22011G19KT 15SM SCT035 OVC100 09/07 A2919 RMK SC3AC5 SLP889 DENSITY ALT 500FT

CYGK;2017-03-02 02:00;CYGK 020200Z 24022G33KT 15SM BKN025 OVC060 09/05 A2921 RMK CU5SC3 SLP894 DENSITY ALT 400FT

CYGK;2017-03-02 02:32;CYGK 020232Z 24025G37KT 8SM -SHRA OVC022 09/05 A2922 RMK CU8 SLP896 DENSITY ALT 400FT

CYGK;2017-03-02 03:00;CYGK 020300Z 24026G37KT 15SM -SHRA OVC022 08/05 A2922 WS ALL RWY RMK CU8 SLP900

CYGK;2017-03-02 04:00;CYGK 020400Z 24023G31KT 12SM -SHRA SCT020 OVC040 05/02 A2927 RMK CU3SC5 LAST STFD OBS/NEXT 021100 UTC SLP914

CYGK;2017-03-02 11:00;CYGK 021100Z 31019G25KT 2 1/2SM -SN DRSN SCT016 OVC028 M08/M13 A2959 RMK CU4SC4 PRESRR SLP027

CYGK;2017-03-02 11:51;CYGK 021151Z 30015G21KT 1SM -SN DRSN BKN006 OVC020 M09/M13 A2966 RMK SN6SF1SC1 PRESRR SLP049

CYGK;2017-03-02 12:00;CYGK 021200Z 31014G24KT 3/4SM -SN DRSN VV005 M10/M13 A2967 RMK SN8 PRESRR SLP054

CYGK;2017-03-02 12:14;CYGK 021214Z 31015G23KT 2SM -SN DRSN SCT005 BKN024 OVC052 M10/M13 A2968 RMK SF4SC2SC2 PRESRR SLP058

CYGK;2017-03-02 12:36;CYGK 021236Z 29018G27KT 15SM DRSN FEW010 BKN027 BKN052 M10/M14 A2971 RMK CU2SC4SC1 PRESRR SLP066

CYGK;2017-03-02 13:00;CYGK 021300Z 31015G24KT 15SM VCSH SCT010 BKN033 M10/M16 A2973 RMK CU3SC3 SLP073

CYGK;2017-03-02 13:46;CYGK 021346Z 28017G26KT 15SM SCT010 BKN080 OVC170 M10/M16 A2977 WS RWY01 RMK CU3AC2AS3 SLP088

CYGK;2017-03-02 14:00;CYGK 021400Z 30017G25KT 15SM FEW012 SCT080 OVC140 M10/M16 A2979 RMK CU2AC2AC4 SLP092

CYGK;2017-03-02 15:00;CYGK 021500Z 30014G21KT 15SM SCT024 SCT080 OVC100 M09/M15 A2983 RMK CU3AC1AS4 SLP107

CYGK;2017-03-02 16:00;CYGK 021600Z 30017G24KT 15SM FEW025 BKN140 M08/M16 A2986 RMK SC1AC7 SC TR SLP118

CYGK;2017-03-02 17:00;CYGK 021700Z 29016KT 15SM FEW024 BKN170 M06/M15 A2989 RMK CU1AC5 SLP126

CYGK;2017-03-02 18:00;CYGK 021800Z 30014G21KT 15SM FEW025 SCT160 BKN240 M05/M14 A2990 RMK SC1AS3CI3 SC TR SLP130

CYGK;2017-03-02 19:00;CYGK 021900Z 27008G17KT 250V330 15SM FEW030 FEW140 BKN240 M04/M14 A2993 RMK SC1AS2CI4 SC TR SLP140

CYGK;2017-03-02 20:00;CYGK 022000Z 29013G20KT 15SM FEW030 BKN140 BKN250 M03/M14 A2994 RMK CU1AS5CI1 CU TR SLP145

CYGK;2017-03-02 21:00;CYGK 022100Z 29010G18KT 260V320 15SM FEW030 FEW150 SCT250 M03/M15 A2996 RMK SC1AC1CI2 SC TR SLP153

CYGK;2017-03-02 22:00;CYGK 022200Z 28009KT 15SM FEW030 BKN140 M03/M16 A2999 RMK CU1AS6 CU TR SLP163

CYGK;2017-03-02 23:00;CYGK 022300Z 28011KT 15SM FEW030 SCT120 OVC140 M04/M15 A3002 RMK SC1AC3AS5 SC TR SLP173

CYGK;2017-03-03 00:00;CYGK 030000Z 29008KT 15SM SCT110 OVC140 M05/M15 A3007 RMK AS4AS4 SLP189

CYGK;2017-03-03 01:00;CYGK 030100Z 30009KT 15SM SCT100 OVC140 M05/M15 A3009 RMK AC3AS5 SLP197

CYGK;2017-03-03 02:00;CYGK 030200Z 30012G19KT 15SM SCT090 OVC150 M06/M15 A3011 RMK AC4AS4 SLP204

CYGK;2017-03-03 03:00;CYGK 030300Z 31012G17KT 15SM SCT090 OVC120 M07/M15 A3013 RMK AC4AS4 SLP210

CYGK;2017-03-03 04:00;CYGK 030400Z 32008KT 15SM OVC100 M07/M14 A3015 RMK AS8 LAST STFD OBS/NEXT 031100 UTC SLP216

CYGK;2017-03-03 11:00;CYGK 031100Z 01004KT 15SM FEW030 SCT270 M12/M19 A3021 RMK SC1CI3 SLP240

CYGK;2017-03-03 12:00;CYGK 031200Z 03003KT 15SM FEW030 BKN270 M12/M18 A3022 RMK SC1CI6 SC TR SLP243

CYGK;2017-03-03 13:00;CYGK 031300Z 06002KT 15SM FEW030 BKN270 M11/M18 A3024 RMK SC1CI5 SC TR SLP247

CYGK;2017-03-03 14:00;CYGK 031400Z 13004KT 060V150 15SM FEW024 SCT160 BKN250 M10/M19 A3023 RMK CU1AC3CI2 SLP244

CYGK;2017-03-03 15:00;CYGK 031500Z 10003KT 070V190 15SM VCSH OVC030 M09/M17 A3022 RMK ST8 SLP242

CYGK;2017-03-03 15:25;CYGK 031525Z 05003KT 360V120 6SM -SN OVC023 M09/M16 A3023 RMK ST8 SLP245

CYGK;2017-03-03 15:40;CYGK 031540Z VRB03KT 1 1/2SM -SN OVC014 M08/M15 A3023 RMK ST8 SLP246

CYGK;2017-03-03 16:00;CYGK 031600Z VRB02KT 2SM -SN OVC018 M09/M14 A3023 RMK ST8 SLP246

CYGK;2017-03-03 16:26;CYGK 031626Z 00000KT 4SM -SN BKN017 BKN030 M09/M13 A3024 RMK ST5SC2 SLP247

CYGK;2017-03-03 16:46;CYGK 031646Z VRB02KT 7SM -SN FEW023 BKN040 M08/M13 A3023 RMK SC2ST5 VIS SE - SW 4 SLP244

CYGK;2017-03-03 17:00;CYGK 031700Z VRB02KT 5SM -SN BKN030 M08/M14 A3023 RMK ST7 SLP244

CYGK;2017-03-03 18:00;CYGK 031800Z 15005KT 100V220 6SM -SN BKN022 M07/M12 A3021 RMK SC7 SLP239

CYGK;2017-03-03 18:21;CYGK 031821Z 34005KT 310V060 2SM -SN OVC024 M07/M12 A3021 RMK SC8 SLP239

CYGK;2017-03-03 18:29;CYGK 031829Z 34008G16KT 3/4SM -SHSN OVC011 M07/M11 A3021 RMK SC8 CVCTV CLD EMBD SLP240

CYGK;2017-03-03 18:41;CYGK 031841Z 36008KT 320V020 1SM -SHSN OVC012 M07/M10 A3021 RMK SC8 CVCTC CLD EMBD SLP240

CYGK;2017-03-03 19:00;CYGK 031900Z 34012KT 1SM -SHSN OVC014 M07/M11 A3022 RMK SC8 CVCTV CLD EMBD SLP242

CYGK;2017-03-03 19:41;CYGK 031941Z 35007KT 4SM -SHSN BKN020 M07/M11 A3025 RMK SC7 CVCTV CLD EMBD SLP253

CYGK;2017-03-03 20:00;CYGK 032000Z 34011G19KT 5SM -SHSN BKN023 BKN060 M07/M13 A3026 RMK SC5SC2 CVCTV CLD EMBD SLP255

CYGK;2017-03-03 21:00;CYGK 032100Z 31012G20KT 3SM -SHSN BKN022 M08/M13 A3030 RMK SC7 CVCTV CLD ASOCTD PRESRR SLP270

CYGK;2017-03-03 21:16;CYGK 032116Z 31015G22KT 1SM -SHSN OVC020 M09/M13 A3032 RMK SN4SC4 SLP275

CYGK;2017-03-03 21:20;CYGK 032120Z 32013G19KT 5/8SM -SHSN VV008 M09/M12 A3032 RMK SN8 SLP276

CYGK;2017-03-03 21:42;CYGK 032142Z 31013G18KT 3/4SM -SHSN OVC017 M09/M12 A3033 RMK SN6SC2 SLP281

CYGK;2017-03-03 22:00;CYGK 032200Z 31008G16KT 1 1/2SM -SHSN BKN020 BKN060 M09/M13 A3035 RMK SC5SC1 SLP286

CYGK;2017-03-03 22:09;CYGK 032209Z 32010KT 4SM -SHSN SCT020 BKN032 M09/M14 A3036 RMK CU3SC4 VIS VRB 2-6 SLP288

CYGK;2017-03-03 23:00;CYGK 032300Z 32012KT 8SM -SHSN FEW020 SCT037 M10/M16 A3039 RMK CU2SC1 SLP299

CYGK;2017-03-04 00:00;CYGK 040000Z 31010KT 12SM FEW020 FEW040 M11/M17 A3043 RMK CU1SC2 CU TR OCNL -SHSN SLP312

CYGK;2017-03-04 00:26;CYGK 040026Z 31006KT 15SM FEW040 M11/M18 A3044 RMK SC2 SLP316

CYGK;2017-03-04 01:00;CYGK 040100Z 31006KT 15SM FEW040 M11/M18 A3044 RMK SC1 SLP319

CYGK;2017-03-04 02:00;CYGK 040200Z 33009KT 15SM FEW040 M12/M19 A3047 RMK SC1 SLP329

CYGK;2017-03-04 03:00;CYGK 040300Z 33008KT 15SM SKC M13/M18 A3049 RMK SLP335

CYGK;2017-03-04 04:00;CYGK 040400Z 31004KT 15SM SKC M13/M20 A3050 RMK LAST STFD OBS/NEXT 041100 UTC SLP336

CYGK;2017-03-04 11:00;CYGK 041100Z 34010G17KT 15SM FEW025 FEW060 FEW250 M14/M20 A3054 RMK CF1SC1CI1 CF TR SLP351

CYGK;2017-03-04 12:00;CYGK 041200Z 34016KT 15SM FEW020 FEW060 M15/M22 A3057 RMK CF1SC1 CF TR SC TR SLP362

CYGK;2017-03-04 13:00;CYGK 041300Z 35012G18KT 15SM FEW025 M15/M22 A3060 RMK CF1 SLP373

CYGK;2017-03-04 14:00;CYGK 041400Z 34012G17KT 320V020 15SM FEW025 M14/M22 A3062 RMK CF1 SLP379

CYGK;2017-03-04 15:00;CYGK 041500Z 34013KT 15SM FEW025 M14/M23 A3065 RMK CF1 CF TR SLP389

CYGK;2017-03-04 16:00;CYGK 041600Z 34011G17KT 15SM FEW025 M14/M23 A3068 RMK CF1 SLP398

CYGK;2017-03-04 17:00;CYGK 041700Z 30010KT 290V030 15SM FEW025 M12/M22 A3069 RMK CF1 CF TR SLP401

CYGK;2017-03-04 18:00;CYGK 041800Z 31011KT 300V010 15SM FEW025 M12/M23 A3069 RMK CF1 CF TR SLP401

CYGK;2017-03-04 19:00;CYGK 041900Z 35008KT 310V030 15SM FEW030 M11/M24 A3068 RMK CF1 CF TR SLP399

CYGK;2017-03-04 20:00;CYGK 042000Z 35009KT 320V020 15SM FEW030 M11/M24 A3068 RMK CU1 CU TR SLP398

CYGK;2017-03-04 21:00;CYGK 042100Z 35007KT 290V360 15SM FEW025 M10/M24 A3068 RMK CF1 CF TR SLP399

CYGK;2017-03-04 22:00;CYGK 042200Z 32008KT 15SM FEW030 M10/M25 A3068 RMK SC1 SC TR SLP400

CYGK;2017-03-04 23:00;CYGK 042300Z 33008KT 15SM FEW030 M11/M25 A3069 RMK SC1 SC TR SLP401

CYGK;2017-03-05 00:00;CYGK 050000Z 01003KT 15SM SKC M12/M24 A3069 RMK SLP403

CYGK;2017-03-05 01:00;CYGK 050100Z 34005KT 15SM SKC M12/M23 A3071 RMK SLP409

CYGK;2017-03-05 02:00;CYGK 050200Z 03005KT 15SM SKC M13/M23 A3073 RMK SLP415

CYGK;2017-03-05 03:00;CYGK 050300Z 04004KT 15SM SKC M14/M23 A3074 RMK SLP419

CYGK;2017-03-05 04:00;CYGK 050400Z 04005KT 15SM SKC M14/M23 A3073 RMK LAST STFD OBS/NEXT 051100 UTC SLP418

CYGK;2017-03-05 11:00;CYGK 051100Z 03003KT 15SM FEW015 M17/M22 A3078 RMK CF1 CF TR SLP433

CYGK;2017-03-05 12:00;CYGK 051200Z 36004KT 15SM FEW015 M17/M22 A3079 RMK CF1 CF TR SLP438

CYGK;2017-03-05 13:00;CYGK 051300Z 04006KT 15SM FEW015 M15/M21 A3078 RMK CF1 CF TR SLP435

CYGK;2017-03-05 14:00;CYGK 051400Z 05006KT 020V090 15SM FEW015 M14/M22 A3079 RMK CF1 CF TR SLP438

CYGK;2017-03-05 15:00;CYGK 051500Z 07006KT 010V100 15SM FEW020 FEW250 M12/M21 A3078 RMK CF1CI1 CF TR CI TR SLP432

CYGK;2017-03-05 16:00;CYGK 051600Z VRB03KT 15SM FEW020 FEW250 M10/M20 A3075 RMK CF1CI1 CF TR CI TR SLP424

CYGK;2017-03-05 17:00;CYGK 051700Z 14007KT 15SM FEW020 FEW250 M09/M19 A3072 RMK CF1CI2 CF TR SLP411

CYGK;2017-03-05 18:00;CYGK 051800Z 16008KT 15SM SCT250 M08/M19 A3068 RMK CI4 SLP400

CYGK;2017-03-05 19:00;CYGK 051900Z 15008KT 15SM SCT250 M07/M19 A3065 RMK CI4 SLP387

CYGK;2017-03-05 20:00;CYGK 052000Z 18006KT 15SM BKN250 M07/M17 A3063 RMK CI5 SLP381

CYGK;2017-03-05 21:00;CYGK 052100Z 20006KT 140V220 15SM SCT250 M07/M16 A3061 RMK CI3 SLP373

CYGK;2017-03-05 22:00;CYGK 052200Z 24004KT 180V260 15SM FEW170 SCT250 M07/M17 A3060 RMK AC1CI2 SLP372

CYGK;2017-03-05 23:00;CYGK 052300Z 28002KT 15SM FEW160 BKN200 M07/M17 A3059 RMK AC1CI4 SLP369

CYGK;2017-03-06 00:00;CYGK 060000Z VRB02KT 15SM BKN170 M07/M16 A3058 RMK AC6 SLP365

CYGK;2017-03-06 01:00;CYGK 060100Z 06003KT 15SM BKN160 M08/M17 A3056 RMK AS6 SLP358

CYGK;2017-03-06 02:00;CYGK 060200Z 07006KT 15SM FEW140 BKN200 M07/M15 A3053 RMK AC2CI4 SLP347

CYGK;2017-03-06 03:00;CYGK 060300Z 09010KT 15SM FEW140 BKN210 M06/M16 A3051 RMK AC1CI5 SLP340

CYGK;2017-03-06 04:00;CYGK 060400Z 09011KT 15SM FEW140 SCT200 M07/M16 A3050 RMK AC2CI2 LAST STFD OBS/NEXT 061100 UTC SLP336

CYGK;2017-03-06 11:00;CYGK 061100Z 06007KT 15SM FEW090 BKN140 M06/M13 A3039 RMK AC2AC5 SLP299

CYGK;2017-03-06 12:00;CYGK 061200Z 05008KT 15SM SCT100 OVC140 M06/M14 A3039 RMK AC3AC5 SLP300

CYGK;2017-03-06 13:00;CYGK 061300Z 06007KT 15SM SCT065 OVC140 M05/M13 A3038 RMK SC3AC5 SLP297

CYGK;2017-03-06 14:00;CYGK 061400Z 06007KT 15SM SCT065 BKN082 M04/M13 A3037 RMK SC3AC4 SLP293

CYGK;2017-03-06 15:00;CYGK 061500Z 07007KT 15SM OVC085 M02/M13 A3036 RMK AC8 SLP287

CYGK;2017-03-06 16:00;CYGK 061600Z 06007KT 15SM OVC080 M01/M13 A3033 RMK AC8 SLP276

CYGK;2017-03-06 17:00;CYGK 061700Z 05007KT 15SM OVC085 01/M13 A3031 RMK AC8 SLP270

CYGK;2017-03-06 18:00;CYGK 061800Z 07007KT 15SM OVC085 02/M12 A3027 RMK AC8 PRESFR SLP258

CYGK;2017-03-06 19:00;CYGK 061900Z 06006KT 030V090 15SM OVC075 02/M12 A3026 RMK AC8 SLP252

CYGK;2017-03-06 20:00;CYGK 062000Z 04005KT 030V110 15SM OVC075 03/M13 A3024 RMK AC8 SLP248

CYGK;2017-03-06 21:00;CYGK 062100Z 05005KT 15SM SCT066 BKN080 03/M13 A3024 RMK SC3AC4 SLP245

CYGK;2017-03-06 22:00;CYGK 062200Z 06008KT 15SM BKN063 OVC120 02/M11 A3022 RMK SC6AC2 SLP240

CYGK;2017-03-06 23:00;CYGK 062300Z 06006KT 15SM OVC050 02/M10 A3021 RMK SC8 SLP237

CYGK;2017-03-07 00:00;CYGK 070000Z 06007KT 15SM OVC050 02/M10 A3021 RMK SC8 SLP236

CYGK;2017-03-07 01:00;CYGK 070100Z 05006KT 15SM OVC048 01/M10 A3020 RMK SC8 SLP234

CYGK;2017-03-07 02:00;CYGK 070200Z 04010KT 15SM OVC047 01/M09 A3019 RMK SC8 SLP231

CYGK;2017-03-07 03:00;CYGK 070300Z 05007KT 15SM OVC045 01/M07 A3018 RMK SC8 SLP227

CYGK;2017-03-07 04:00;CYGK 070400Z 07006KT 15SM OVC039 02/M07 A3016 RMK SC8 LAST STFD OBS / NEXT 071100 UTC SLP219

CYGK;2017-03-07 11:00;CYGK 071100Z 15013KT 1 1/2SM -DZ BR OVC002 03/02 A3004 RMK SF8 SLP178

CYGK;2017-03-07 12:00;CYGK 071200Z 15013KT 1 1/2SM -DZ BR OVC002 03/02 A3002 RMK SF8 SLP171

CYGK;2017-03-07 12:29;CYGK 071229Z 16016G21KT 3SM BR BKN002 OVC016 03/02 A3000 RMK SF5SC3 SLP165

CYGK;2017-03-07 12:42;CYGK 071242Z 16016G21KT 4SM BR SCT002 OVC015 03/03 A3000 RMK SF3SC5 SLP164

CYGK;2017-03-07 13:05;CYGK 071305Z 16014G21KT 4SM -DZ BR FEW002 OVC014 03/03 A3000 RMK SF2SC6 SLP165

CYGK;2017-03-07 14:00;CYGK 071400Z 16013KT 6SM BR FEW004 BKN017 OVC028 03/03 A2999 RMK SF2SC4SC2 VIS NW 4 SLP162

CYGK;2017-03-07 14:20;CYGK 071420Z 16014G20KT 5SM -DZ BR SCT004 OVC036 03/03 A2998 RMK SF4SC4 SLP158

CYGK;2017-03-07 14:42;CYGK 071442Z 16016KT 5SM -RA BR SCT004 OVC024 03/03 A2997 RMK SF3SC5 SLP153

CYGK;2017-03-07 15:00;CYGK 071500Z 16016G23KT 6SM BR FEW004 OVC036 04/03 A2996 RMK SF2SC6 SLP151

CYGK;2017-03-07 15:26;CYGK 071526Z 16014G21KT 9SM FEW004 OVC034 04/03 A2996 RMK SF1SC7 SLP150

CYGK;2017-03-07 16:00;CYGK 071600Z 17019G24KT 5SM -RA BR FEW004 OVC037 04/03 A2995 RMK SF2SC6 SLP149

CYGK;2017-03-07 17:00;CYGK 071700Z 16015G21KT 2 1/2SM -RA BR FEW005 BKN013 OVC020 04/03 A2993 RMK SF1SC5SC2 SLP140

CYGK;2017-03-07 17:34;CYGK 071734Z 17016G23KT 2 1/2SM -RA BR FEW002 BKN012 OVC027 04/04 A2990 RMK SF2SC3SC3 SLP131

CYGK;2017-03-07 18:00;CYGK 071800Z 16016G22KT 2 1/2SM -RA BR FEW002 SCT020 OVC029 04/04 A2989 RMK SF2SC2SC4 SLP126

CYGK;2017-03-07 19:00;CYGK 071900Z 16018G24KT 6SM -RA BR FEW002 OVC027 05/04 A2986 RMK SF1SC7 SLP117

CYGK;2017-03-07 20:00;CYGK 072000Z 16015G22KT 6SM -RA BR FEW003 OVC035 05/04 A2985 RMK SF1SC7 SLP112

CYGK;2017-03-07 21:00;CYGK 072100Z 16015G20KT 8SM -RA FEW003 OVC030 05/04 A2983 RMK SF1SC7 SLP105

CYGK;2017-03-07 22:00;CYGK 072200Z 18015G22KT 6SM -RA BR FEW003 BKN037 OVC070 05/05 A2982 RMK SF1SC7AC1 SF TR SLP104

CYGK;2017-03-07 23:00;CYGK 072300Z 17020KT 3SM -RA BR FEW003 BKN011 OVC030 06/05 A2982 RMK SF1SC5SC3 SF TR SLP103

CYGK;2017-03-08 00:00;CYGK 080000Z 17015KT 6SM -RADZ BR FEW002 OVC016 05/04 A2982 RMK SF2SC6 SLP103

CYGK;2017-03-08 00:22;CYGK 080022Z 18011G16KT 6SM -RADZ BR FEW002 OVC013 05/04 A2981 RMK SF2SC6 SLP100

CYGK;2017-03-08 00:46;CYGK 080046Z 18014KT 8SM -DZ FEW002 OVC014 05/04 A2981 RMK SF1SC7 SLP098

CYGK;2017-03-08 01:00;CYGK 080100Z 17014G21KT 8SM -DZ FEW002 BKN015 OVC032 05/05 A2980 RMK SF1SC7SC1 SF TR SLP095

CYGK;2017-03-08 01:09;CYGK 080109Z 17015G20KT 6SM -RADZ BR BKN014 OVC030 05/05 A2980 RMK SC6SC2 SLP095

CYGK;2017-03-08 02:00;CYGK 080200Z 27011G17KT 160V290 8SM -RADZ FEW002 OVC018 06/06 A2980 RMK SF1SC8 SF TR PRESRR SLP097

CYGK;2017-03-08 03:00;CYGK 080300Z 21008KT 4SM -RADZ BR FEW003 OVC013 07/06 A2980 RMK SF1SC7 SLP094

CYGK;2017-03-08 03:15;CYGK 080315Z 21007KT 2SM -RADZ BR PRFG BKN003 OVC017 07/06 A2979 RMK FG4SF1SC3 VIS S 1/4 SLP091

CYGK;2017-03-08 03:24;CYGK 080324Z 19008KT 3/8SM -RADZ FG VV001 06/05 A2979 RMK FG8 SLP092

CYGK;2017-03-08 04:00;CYGK 080400Z 25010KT 1SM -RA BR PRFG OVC003 07/06 A2980 RMK FG6SF2 VIS S 1/4 FG LAST STFD OBS/NEXT 081100UTC SLP096

CYGK;2017-03-08 11:00;CYGK 081100Z 18010KT 15SM FEW070 02/00 A2990 RMK AC2 SLP130

CYGK;2017-03-08 12:00;CYGK 081200Z 18013KT 15SM FEW015 FEW070 02/01 A2988 RMK CF1AC1 CF TR SLP123

CYGK;2017-03-08 13:00;CYGK 081300Z 19013G18KT 15SM FEW015 FEW070 03/01 A2987 RMK CU1AC1 CU TR AC TR SLP118

CYGK;2017-03-08 14:00;CYGK 081400Z 18013G19KT 15SM FEW025 FEW050 BKN085 03/02 A2984 RMK CF1CU1AC5 CF TR SLP110

CYGK;2017-03-08 15:00;CYGK 081500Z 19012KT 15SM FEW025 FEW090 SCT240 04/02 A2981 RMK CU1AC2CI1 CU TR SLP101

CYGK;2017-03-08 16:00;CYGK 081600Z 20017G23KT 15SM FEW030 BKN090 BKN160 06/01 A2977 RMK CU1AC4AC1 PRESFR SLP085

CYGK;2017-03-08 17:00;CYGK 081700Z 20018G24KT 15SM FEW025 FEW030 FEW080 06/02 A2973 RMK CU1SC1AC1 SC TR SLP073

CYGK;2017-03-08 18:00;CYGK 081800Z 23020G40KT 15SM SCT045 08/M01 A2970 RMK CU3 SLP059

CYGK;2017-03-08 19:00;CYGK 081900Z 24027G36KT 15SM SCT045 08/M04 A2967 RMK CU3 SLP051

CYGK;2017-03-08 20:00;CYGK 082000Z 24023G34KT 15SM SCT045 08/M04 A2966 RMK CU3 SHWRS NW-NE SLP049

CYGK;2017-03-08 21:00;CYGK 082100Z 24023G34KT 15SM VCSH FEW050 BKN085 08/M04 A2965 RMK CU2AC3 SLP045

CYGK;2017-03-08 21:48;CYGK 082148Z 26022G32KT 12SM -SHRA BKN047TCU 07/M03 A2966 RMK TCU6 SLP048

CYGK;2017-03-08 22:00;CYGK 082200Z 25026G41KT 15SM -SHRA FEW020 BKN060 06/M01 A2967 RMK CF1CU7 CF TR PRESRR SLP053

CYGK;2017-03-08 22:12;CYGK 082212Z 25019G37KT 15SM VCSH FEW020 SCT055 BKN080 05/M01 A2968 RMK CF1CU4AC2 CF TR SLP055

CYGK;2017-03-08 23:00;CYGK 082300Z 25012G18KT 15SM VCSH FEW055 SCT080 BKN200 05/M02 A2969 RMK CU2AC1CI2 SLP057

CYGK;2017-03-08 23:25;CYGK 082325Z 28008G16KT 15SM -SHRASN SCT030 BKN065 05/M02 A2969 RMK CU4SC3 SLP059

CYGK;2017-03-09 00:00;CYGK 090000Z 27007KT 15SM VCSH FEW030 BKN065 05/M02 A2971 RMK CU2SC5 SLP067

CYGK;2017-03-09 00:08;CYGK 090008Z 27005KT 15SM -SHSN FEW030 BKN060 05/M02 A2972 RMK CU2SC4 SLP068

CYGK;2017-03-09 01:00;CYGK 090100Z 23008KT 15SM VCSH OVC057 05/M02 A2973 RMK SC8 SLP073

CYGK;2017-03-09 02:00;CYGK 090200Z 28010G20KT 15SM FEW060 BKN140 04/M05 A2974 RMK SC1AC6 SLP077

CYGK;2017-03-09 03:00;CYGK 090300Z 26010G16KT 15SM FEW055 BKN093 04/M05 A2976 RMK SC1AC6 SLP083

CYGK;2017-03-09 04:00;CYGK 090400Z 25015G23KT 15SM BKN085 03/M05 A2977 RMK AC7 LAST STFD OBS/NEXT 091100UTC SLP087

CYGK;2017-03-09 11:00;CYGK 091100Z 27013G24KT 15SM FEW012 SCT080 M04/M10 A2993 RMK CU2AC2 SLP141

CYGK;2017-03-09 12:00;CYGK 091200Z 27015G23KT 15SM SCT012 BKN072 M04/M10 A2996 RMK CU3AC3 SLP150

CYGK;2017-03-09 13:00;CYGK 091300Z 27014G26KT 15SM -SHSN FEW012 SCT025 BKN040 M03/M09 A2997 RMK CU2SC2SC2 SLP154

CYGK;2017-03-09 14:00;CYGK 091400Z 27013G28KT 10SM -SHSN BKN024 BKN045 M02/M08 A2998 RMK CU5SC2 SLP156

CYGK;2017-03-09 15:00;CYGK 091500Z 27014G23KT 15SM -SHSN SCT012 BKN041 M02/M08 A2998 RMK CU3SC4 SLP159

CYGK;2017-03-09 16:00;CYGK 091600Z 26013G21KT 15SM -SHSN BKN030 M02/M08 A3001 RMK SC7 CVCTC CLD EMBD PRESRR SLP166

CYGK;2017-03-09 17:00;CYGK 091700Z 27017G26KT 15SM -SHSN BKN038 M01/M09 A3000 RMK SC6 CVCTV CLD ASOCTD SLP166

CYGK;2017-03-09 18:00;CYGK 091800Z 28016G26KT 15SM FEW024 BKN048 BKN240 01/M08 A3000 RMK CU2SC4CI1 CI TR SLP166

CYGK;2017-03-09 19:00;CYGK 091900Z 25019G30KT 15SM BKN048 BKN240 M00/M09 A2999 RMK SC6CI1 CI TR SLP163

CYGK;2017-03-09 20:00;CYGK 092000Z 27016G25KT 15SM BKN040 BKN220 M00/M10 A3000 RMK SC5CI2 SLP166

CYGK;2017-03-09 21:00;CYGK 092100Z 27020G25KT 15SM SCT043 BKN240 M00/M10 A3000 RMK CU4CI2 SLP166

CYGK;2017-03-09 22:00;CYGK 092200Z 27016G23KT 15SM SCT045 BKN230 M00/M09 A3001 RMK SC3CI3 SLP168

CYGK;2017-03-09 23:00;CYGK 092300Z 27015G25KT 15SM FEW040 BKN220 M01/M09 A3001 RMK SC2CI5 SLP170

CYGK;2017-03-10 00:00;CYGK 100000Z 28016G21KT 15SM FEW040 BKN200 M01/M09 A3003 RMK SC2CI5 SLP175

CYGK;2017-03-10 01:00;CYGK 100100Z 27012KT 15SM BKN200 M01/M09 A3004 RMK CC5 SLP178

CYGK;2017-03-10 02:00;CYGK 100200Z 28014G20KT 15SM FEW040 SCT180 M02/M10 A3005 RMK SC1AC3 SLP183

CYGK;2017-03-10 03:00;CYGK 100300Z 29014G19KT 15SM SCT200 M02/M10 A3003 RMK CI4 SLP176

CYGK;2017-03-10 04:00;CYGK 100400Z 27008KT 15SM SCT200 M02/M10 A3003 RMK CI4 LAST STFD OBS/NEXT 101100 UTC SLP175

CYGK;2017-03-10 11:00;CYGK 101100Z 29009KT 15SM FEW030 BKN130 M05/M11 A2993 RMK CU2AC4 SLP142

CYGK;2017-03-10 12:00;CYGK 101200Z 29010KT 15SM FEW050 SCT120 BKN200 M05/M11 A2995 RMK SC1AC3CI2 SLP147

CYGK;2017-03-10 13:00;CYGK 101300Z 31013KT 15SM FEW025 FEW120 SCT220 M05/M12 A2994 RMK CU1AC1CI1 SLP146

CYGK;2017-03-10 14:00;CYGK 101400Z 30010G18KT 15SM FEW032 FEW120 SCT240 M04/M12 A2994 RMK CU2AC1CI1 AC TR SLP146

CYGK;2017-03-10 15:00;CYGK 101500Z 26011G17KT 15SM SCT042 SCT220 M03/M14 A2994 RMK CU3CI1 SLP145

CYGK;2017-03-10 16:00;CYGK 101600Z 30011G20KT 260V320 15SM VCSH SCT045 M04/M14 A2993 RMK CU3 SLP141

CYGK;2017-03-10 17:00;CYGK 101700Z 30015KT 15SM VCSH BKN050 M03/M16 A2993 RMK CU6 SLP140

CYGK;2017-03-10 18:00;CYGK 101800Z 29012G23KT 15SM VCSH BKN059 M04/M16 A2992 RMK CU5 SLP137

CYGK;2017-03-10 19:00;CYGK 101900Z 28012G21KT 15SM VCSH BKN060 M04/M18 A2990 RMK CU5 SLP133

CYGK;2017-03-10 20:00;CYGK 102000Z 29015G22KT 15SM VCSH FEW040 BKN060 M04/M18 A2990 RMK CU1CU6 SLP133

CYGK;2017-03-10 21:00;CYGK 102100Z 28014G20KT 15SM VCSH BKN050 M05/M20 A2991 RMK CU6 SLP134

CYGK;2017-03-10 22:00;CYGK 102200Z 27013G30KT 15SM VCSH BKN045TCU M06/M17 A2993 RMK TCU7 SLP143

CYGK;2017-03-10 22:20;CYGK 102220Z 29020G31KT 12SM -SHSN BKN040TCU M07/M18 A2995 RMK TCU7 PRESRR SLP149

CYGK;2017-03-10 22:29;CYGK 102229Z 31015G32KT 2SM -SHSN BKN020 OVC040TCU M07/M14 A2996 RMK CU6TCU2 PRESRR SLP151

CYGK;2017-03-10 22:30;CYGK 102230Z 31016G32KT 270V330 1/2SM SHSN VV010 M07/M14 A2996 RMK SN8 PRESRR SLP152

CYGK;2017-03-10 22:39;CYGK 102239Z 33019G30KT 3/4SM -SHSN VV004 M09/M13 A2998 RMK SN8 PRESRR SLP158

CYGK;2017-03-10 22:47;CYGK 102247Z 32013G22KT 3/4SM -SHSN VV005 M09/M12 A2998 RMK SN8 PRESRR SLP160

CYGK;2017-03-10 23:00;CYGK 102300Z 30012KT 3/4SM -SHSN VV005 M09/M12 A2999 RMK SN8 SLP162

CYGK;2017-03-10 23:13;CYGK 102313Z 31013G21KT 2SM -SHSN FEW008 OVC018TCU M10/M12 A3000 RMK SF2TCU6 SLP166

CYGK;2017-03-10 23:21;CYGK 102321Z 31014G20KT 3/4SM -SHSN VV006 M10/M13 A3000 RMK SN8 SLP168

CYGK;2017-03-10 23:37;CYGK 102337Z 32013KT 3SM -SHSN BKN010TCU OVC022 M10/M13 A3001 RMK TCU5SC3 SLP171

CYGK;2017-03-11 00:00;CYGK 110000Z 32012G21KT 2SM -SHSN OVC010TCU M10/M14 A3003 RMK TCU8 SLP176

CYGK;2017-03-11 00:17;CYGK 110017Z 31011G20KT 4SM -SHSN BKN010 OVC020 M10/M15 A3004 RMK CU5SC3 SLP179

CYGK;2017-03-11 00:28;CYGK 110028Z 32015G21KT 15SM FEW010 BKN020 OVC065 M10/M17 A3004 RMK CU2SC4SC2 SLP180

CYGK;2017-03-11 01:00;CYGK 110100Z 33013G20KT 15SM SCT020 BKN050 M11/M18 A3006 RMK CU3SC3 SLP188

CYGK;2017-03-11 02:00;CYGK 110200Z 31013G23KT 15SM SCT040 M12/M22 A3009 RMK CU4 SLP198

CYGK;2017-03-11 03:00;CYGK 110300Z 32018G26KT 15SM SCT040 M13/M22 A3012 RMK CU4 SLP206

CYGK;2017-03-11 04:00;CYGK 110400Z 33011G16KT 15SM SCT040 M14/M23 A3014 RMK CU4 LAST STFD OBS/NEXT 111100 UTC SLP214

CYGK;2017-03-11 11:00;CYGK 111100Z 32004KT 15SM FEW020 FEW070 FEW250 M18/M22 A3019 RMK CF1AC1CI1 CF TR AC TR CI TR SLP231

CYGK;2017-03-11 12:00;CYGK 111200Z 30003KT 15SM FEW020 FEW250 M17/M22 A3020 RMK CF1CI1 CF TR SLP236

CYGK;2017-03-11 13:00;CYGK 111300Z 30008G16KT 15SM FEW020 SCT055 BKN250 M15/M22 A3022 RMK CF1SC3CI2 SLP241

CYGK;2017-03-11 14:00;CYGK 111400Z 31012G21KT 15SM FEW020 SCT054 BKN200 M14/M24 A3022 RMK CU1SC3CI2 SLP241

CYGK;2017-03-11 15:00;CYGK 111500Z 30015G22KT 15SM FEW025 SCT050 BKN080 BKN250 M14/M25 A3021 RMK CF1SC3AC3CI1 CF TR SLP240

CYGK;2017-03-11 16:00;CYGK 111600Z 30014G21KT 15SM FEW025 BKN050 M13/M23 A3020 RMK CU1SC6 SLP235

CYGK;2017-03-11 17:00;CYGK 111700Z 28014G19KT 15SM BKN042 BKN080 M12/M22 A3019 RMK CU6AC1 SLP232

CYGK;2017-03-11 18:00;CYGK 111800Z 27016G23KT 240V320 15SM BKN048 M11/M21 A3018 RMK SC7 SLP229

CYGK;2017-03-11 19:00;CYGK 111900Z 29015G29KT 260V340 15SM BKN050 M10/M22 A3017 RMK CU6 SLP225

CYGK;2017-03-11 20:00;CYGK 112000Z 31015G22KT 15SM BKN060 M09/M21 A3017 RMK SC7 SLP227

CYGK;2017-03-11 21:00;CYGK 112100Z 29016G22KT 15SM BKN042 M10/M23 A3019 RMK SC6 SLP232

CYGK;2017-03-11 22:00;CYGK 112200Z 30013G23KT 15SM SCT058 M10/M23 A3020 RMK SC4 SLP235

CYGK;2017-03-11 23:00;CYGK 112300Z 31011KT 15SM FEW060 M11/M23 A3022 RMK SC2 SLP242

CYGK;2017-03-12 00:00;CYGK 120000Z 32009KT 15SM FEW060 M12/M23 A3023 RMK SC1 SLP248

CYGK;2017-03-12 01:00;CYGK 120100Z 32008KT 15SM SKC M12/M22 A3026 RMK SLP256

CYGK;2017-03-12 02:00;CYGK 120200Z 32010KT 15SM SKC M12/M23 A3028 RMK SLP263

CYGK;2017-03-12 03:00;CYGK 120300Z 34007KT 15SM SKC M14/M22 A3030 RMK SLP272

CYGK;2017-03-12 04:00;CYGK 120400Z 33010KT 15SM SKC M14/M24 A3033 RMK LAST STFD OBS/NEXT 121115 UTC SLP281

CYGK;2017-03-12 10:00;CYGK 121000Z 28005KT 15SM SKC M16/M23 A3036 RMK SLP290

CYGK;2017-03-12 11:00;CYGK 121100Z 29006KT 15SM SKC M16/M23 A3036 RMK SLP290

CYGK;2017-03-12 12:00;CYGK 121200Z 30006KT 15SM FEW020 M16/M22 A3038 RMK CF1 CF TR SLP296

CYGK;2017-03-12 13:00;CYGK 121300Z 31006KT 15SM FEW020 M15/M23 A3038 RMK CF1 CF TR SLP296

CYGK;2017-03-12 14:00;CYGK 121400Z 30006KT 280V350 15SM FEW020 FEW270 M13/M23 A3038 RMK CF1CI1 CF TR SLP296

CYGK;2017-03-12 15:00;CYGK 121500Z 31007KT 270V360 15SM FEW040 FEW270 M12/M22 A3038 RMK CF1CI1 CI TR SLP296

CYGK;2017-03-12 16:00;CYGK 121600Z 23004KT 180V280 15SM FEW045 FEW270 M11/M22 A3037 RMK CF1CI1 SLP293

CYGK;2017-03-12 17:00;CYGK 121700Z 28010G17KT 220V320 15SM FEW045 BKN270 M10/M21 A3035 RMK CF2CI3 SLP287

CYGK;2017-03-12 18:00;CYGK 121800Z 29006G17KT 230V360 15SM FEW050 SCT270 M08/M20 A3034 RMK CF2CI1 SLP284

CYGK;2017-03-12 19:00;CYGK 121900Z 24007KT 220V280 15SM SCT054 BKN270 M09/M21 A3033 RMK SC4CI1 SLP280

CYGK;2017-03-12 20:00;CYGK 122000Z 31009G17KT 270V330 15SM SCT052 BKN250 M07/M21 A3033 RMK SC4CI1 SLP280

CYGK;2017-03-12 21:00;CYGK 122100Z 28010KT 15SM SCT058 SCT250 M07/M21 A3033 RMK SC3CI1 SLP279

CYGK;2017-03-12 22:00;CYGK 122200Z 29009G17KT 15SM FEW050 SCT250 M07/M22 A3034 RMK SC2CI1 SLP283

CYGK;2017-03-12 23:00;CYGK 122300Z 29010KT 15SM FEW050 FEW250 M08/M22 A3035 RMK SC1CI1 SLP287

CYGK;2017-03-13 00:00;CYGK 130000Z 30006KT 15SM FEW050 M09/M21 A3038 RMK SC1 SC TR SLP298

CYGK;2017-03-13 01:00;CYGK 130100Z 29006KT 15SM FEW050 M10/M20 A3041 RMK SC1 SC TR SLP306

CYGK;2017-03-13 02:00;CYGK 130200Z 29006KT 15SM FEW050 M10/M20 A3042 RMK SC1 SC TR SLP310

CYGK;2017-03-13 03:00;CYGK 130300Z 31005KT 15SM FEW050 M11/M20 A3043 RMK SC1 SC TR LAST STFD OBS/NEXT 131000 UTC SLP314

CYGK;2017-03-13 10:00;CYGK 131000Z 36004KT 15SM FEW120 FEW270 M15/M22 A3050 RMK AC1CI2 AC TR SLP338

CYGK;2017-03-13 11:00;CYGK 131100Z 35004KT 15SM BKN270 M15/M22 A3052 RMK CI5 SLP343

CYGK;2017-03-13 12:00;CYGK 131200Z 01004KT 15SM FEW030 FEW180 BKN250 M14/M21 A3054 RMK SC1AC1CI6 SC TR SLP350

CYGK;2017-03-13 13:00;CYGK 131300Z 03005KT 15SM FEW030 BKN160 OVC250 M13/M21 A3054 RMK SC1AS6CS2 SC TR SLP350

CYGK;2017-03-13 14:00;CYGK 131400Z 07005KT 010V080 15SM FEW030 BKN130 OVC230 M12/M23 A3055 RMK SC1AS7CI1 SC TR SLP353

CYGK;2017-03-13 15:00;CYGK 131500Z 07006KT 15SM FEW030 OVC110 M10/M22 A3053 RMK SC1AS8 SC TR SLP347

CYGK;2017-03-13 16:00;CYGK 131600Z 02008KT 330V110 15SM FEW030 OVC110 M09/M23 A3050 RMK SC1AS8 SC TR SLP335

CYGK;2017-03-13 17:00;CYGK 131700Z 15005KT 090V170 15SM FEW030 OVC085 M09/M23 A3049 RMK SC1AS8 SC TR SLP334

CYGK;2017-03-13 18:00;CYGK 131800Z VRB06KT 15SM FEW030 OVC080 M08/M24 A3046 RMK SC1AS8 SC TR PRESFR SLP324

CYGK;2017-03-13 19:00;CYGK 131900Z 00000KT 15SM FEW030 OVC074 M08/M22 A3044 RMK SC1AS8 SC TR SLP317

CYGK;2017-03-13 20:00;CYGK 132000Z 05007KT 310V070 15SM OVC070 M08/M24 A3042 RMK AS8 SLP312

CYGK;2017-03-13 21:00;CYGK 132100Z 05005KT 15SM OVC057 M08/M24 A3039 RMK ST8 SLP301

CYGK;2017-03-13 22:00;CYGK 132200Z 07008KT 15SM OVC040 M08/M23 A3039 RMK ST8 SLP300

CYGK;2017-03-13 23:00;CYGK 132300Z 02007KT 8SM OVC028 M09/M18 A3039 RMK ST8 SLP302

CYGK;2017-03-13 23:22;CYGK 132322Z 03007KT 6SM -SN OVC027 M09/M17 A3039 RMK ST8 SLP302

CYGK;2017-03-14 00:00;CYGK 140000Z 04007KT 6SM -SN OVC024 M09/M17 A3039 RMK NS8 SLP300

CYGK;2017-03-14 01:00;CYGK 140100Z 06009KT 8SM -SN OVC026 M09/M15 A3038 RMK NS8 SLP297

CYGK;2017-03-14 02:00;CYGK 140200Z 05009G15KT 6SM -SN OVC030 M10/M14 A3036 RMK NS8 SLP289

CYGK;2017-03-14 03:00;CYGK 140300Z 04012KT 6SM -SN DRSN OVC020 M10/M14 A3033 RMK NS8 LAST STFD OBS/NEXT 141000 UTC SLP279

CYGK;2017-03-14 10:00;CYGK 141000Z 04015G22KT 1 1/4SM -SN VV010 M11/M14 A3018 RMK SN8 SLP230

CYGK;2017-03-14 10:21;CYGK 141021Z 04015G21KT 1SM -SN VV008 M11/M14 A3018 RMK SN8 SLP228

CYGK;2017-03-14 10:44;CYGK 141044Z 04014KT 1 1/4SM -SN DRSN VV010 M11/M14 A3017 RMK SN8 SLP226

CYGK;2017-03-14 11:00;CYGK 141100Z 03014KT 1 1/4SM -SN DRSN VV010 M11/M14 A3017 RMK SN8 SLP224

CYGK;2017-03-14 12:00;CYGK 141200Z 03014G22KT 1 1/2SM -SN DRSN VV015 M11/M14 A3012 RMK SN8 /S02/ SLP209

CYGK;2017-03-14 12:20;CYGK 141220Z 03013G19KT 1 1/4SM -SN DRSN VV012 M11/M14 A3012 RMK SN8 SLP208

CYGK;2017-03-14 13:00;CYGK 141300Z 03014G20KT 1 1/2SM -SN DRSN VV014 M10/M13 A3011 RMK SN8 /S01/ SLP205

CYGK;2017-03-14 14:00;CYGK 141400Z 02017KT 1 1/2SM -SN DRSN VV012 M10/M13 A3007 RMK SN8 PRESFR SLP191

CYGK;2017-03-14 14:53;CYGK 141453Z 02016G22KT 1SM -SN DRSN VV010 M10/M13 A3003 RMK SN8 PRESFR SLP178

CYGK;2017-03-14 15:00;CYGK 141500Z 02017KT 1SM -SN DRSN VV009 M10/M13 A3002 RMK SN8 /S02/ PRESFR SLP175

CYGK;2017-03-14 15:37;CYGK 141537Z 02018G25KT 1SM -SN DRSN VV013 M10/M13 A2999 RMK SN8 SLP165

CYGK;2017-03-14 16:00;CYGK 141600Z 02017G25KT 1SM -SN DRSN VV010 M10/M13 A2998 RMK SN8 SLP159

CYGK;2017-03-14 16:08;CYGK 141608Z 02016G25KT 1SM -SN DRSN VV009 M10/M13 A2998 RMK SN8 SLP160

CYGK;2017-03-14 16:14;CYGK 141614Z 02015G25KT 3/4SM -SN DRSN VV008 M10/M13 A2998 RMK SN8 SLP160

CYGK;2017-03-14 17:00;CYGK 141700Z 02021G26KT 5/8SM -SN DRSN VV007 M09/M12 A2994 RMK SN8 /S04/ SLP147

CYGK;2017-03-14 18:00;CYGK 141800Z 01018G29KT 5/8SM -SN BLSN VV007 M09/M12 A2988 RMK SN8 PRESFR SLP128

CYGK;2017-03-14 19:00;CYGK 141900Z 36018G29KT 5/8SM -SN BLSN VV007 M09/M12 A2985 RMK SN8 SLP117

CYGK;2017-03-14 20:00;CYGK 142000Z 01019G28KT 5/8SM -SN BLSN VV007 M09/M12 A2982 RMK SN8 SLP106

CYGK;2017-03-14 21:00;CYGK 142100Z 36020G29KT 5/8SM -SN BLSN VV008 M09/M13 A2978 RMK SN8 PRESFR SLP091

CYGK;2017-03-14 21:38;CYGK 142138Z 35018G31KT 1/2SM -SN BLSN VV006 M09/M12 A2977 RMK SN8 SLP089

CYGK;2017-03-14 22:00;CYGK 142200Z 35023G29KT 1/2SM SN BLSN VV006 M10/M12 A2976 RMK SN8 SLP086

CYGK;2017-03-14 23:00;CYGK 142300Z 35020G28KT 1/2SM SN BLSN VV005 M10/M12 A2976 RMK SN8 SLP085

CYGK;2017-03-15 00:00;CYGK 150000Z 34021G29KT 1/2SM SN BLSN VV004 M10/M13 A2975 RMK SN8 SLP082

CYGK;2017-03-15 01:00;CYGK 150100Z 34021G30KT 5/8SM -SN BLSN VV006 M10/M13 A2974 RMK SN8 SLP078

CYGK;2017-03-15 02:00;CYGK 150200Z 33021G28KT 5/8SM -SN BLSN VV006 M10/M12 A2972 RMK SN8 SLP073

CYGK;2017-03-15 03:00;CYGK 150300Z 33019G25KT 3/4SM -SN BLSN VV007 M10/M12 A2971 RMK SN8 LAST STFD OBS / NEXT 151000 UTC SLP067

CYGK;2017-03-15 10:00;CYGK 151000Z 33016G22KT 1 3/4SM -SN DRSN OVC035 M10/M14 A2957 RMK SN6SC2 SLP020

CYGK;2017-03-15 11:00;CYGK 151100Z 32011G18KT 1 3/4SM -SN DRSN VV013 M10/M14 A2957 RMK SN8 SLP021

CYGK;2017-03-15 12:00;CYGK 151200Z 32011G17KT 1 3/4SM -SN DRSN VV014 M10/M14 A2957 RMK SN8 SLP022

CYGK;2017-03-15 12:14;CYGK 151214Z 32011KT 2SM -SN DRSN VV020 M10/M14 A2957 RMK SN8 SLP022

CYGK;2017-03-15 12:48;CYGK 151248Z 33015G20KT 1 1/2SM -SN DRSN VV012 M10/M14 A2957 RMK SN8 SLP023

CYGK;2017-03-15 13:00;CYGK 151300Z 32014G21KT 1 1/4SM -SN DRSN VV013 M10/M14 A2957 RMK SN8 SLP022

CYGK;2017-03-15 13:38;CYGK 151338Z 32013G20KT 1 1/2SM -SN DRSN VV014 M10/M14 A2957 RMK SN8 SLP022

CYGK;2017-03-15 13:48;CYGK 151348Z 32014G20KT 1 1/4SM -SN DRSN VV012 M10/M14 A2957 RMK SN8 SLP023

CYGK;2017-03-15 14:00;CYGK 151400Z 32013KT 1SM -SN DRSN VV012 M10/M13 A2958 RMK SN8 SLP023

CYGK;2017-03-15 14:54;CYGK 151454Z 32011G20KT 3/4SM -SN DRSN VV009 M10/M13 A2959 RMK SN8 SLP027

CYGK;2017-03-15 15:00;CYGK 151500Z 32011G17KT 3/4SM -SN DRSN VV009 M09/M13 A2959 RMK SN8 SLP028

CYGK;2017-03-15 15:15;CYGK 151515Z 32015G21KT 5/8SM -SN DRSN VV008 M09/M13 A2959 RMK SN8 SLP028

CYGK;2017-03-15 15:39;CYGK 151539Z 32015G20KT 3/4SM -SN DRSN VV009 M09/M12 A2960 RMK SN8 SLP031

CYGK;2017-03-15 16:00;CYGK 151600Z 31016G22KT 1SM -SN DRSN VV012 M09/M13 A2960 RMK SN8 SLP031

CYGK;2017-03-15 16:23;CYGK 151623Z 32015G22KT 5/8SM -SN DRSN VV008 M09/M12 A2960 RMK SN8 SLP032

CYGK;2017-03-15 16:51;CYGK 151651Z 32015KT 3/4SM -SN DRSN VV009 M09/M12 A2961 RMK SN8 SLP035

CYGK;2017-03-15 17:00;CYGK 151700Z 31014G25KT 5/8SM -SN DRSN VV008 M08/M12 A2961 RMK SN8 SLP035

CYGK;2017-03-15 17:42;CYGK 151742Z 32016KT 3/4SM -SN DRSN VV010 M08/M12 A2961 RMK SN8 SLP036

CYGK;2017-03-15 18:00;CYGK 151800Z 32015KT 1SM -SN DRSN VV010 M08/M12 A2962 RMK SN8 SLP037

CYGK;2017-03-15 19:00;CYGK 151900Z 32012KT 1 1/2SM -SN DRSN VV011 M07/M11 A2962 RMK SN8 SLP038

CYGK;2017-03-15 19:06;CYGK 151906Z 32010G17KT 2SM -SN DRSN VV015 M07/M11 A2962 RMK SN8 SLP039

CYGK;2017-03-15 19:24;CYGK 151924Z 30009G15KT 3SM -SN DRSN VV015 M07/M11 A2963 RMK SN8 SLP040

CYGK;2017-03-15 20:00;CYGK 152000Z 31013G19KT 6SM -SN DRSN BKN030 M06/M12 A2964 RMK SC7 SLP044

CYGK;2017-03-15 21:00;CYGK 152100Z 32016G23KT 290V350 12SM -SN DRSN FEW015 BKN040 M05/M13 A2965 RMK CF1SC6 SLP048

CYGK;2017-03-15 21:49;CYGK 152149Z 31010G17KT 15SM BKN045 BKN090 M04/M13 A2967 RMK SC5AC2 SLP054

CYGK;2017-03-15 22:00;CYGK 152200Z 31011G17KT 15SM SCT045 BKN075 M04/M14 A2967 RMK SC4AC3 SLP055

CYGK;2017-03-15 23:00;CYGK 152300Z 31008KT 15SM VCSH FEW030 BKN070 M03/M15 A2971 RMK CU1AC6 SLP066

CYGK;2017-03-16 00:00;CYGK 160000Z 31012G20KT 15SM VCSH BKN080 M04/M15 A2974 RMK AC7 SLP080

CYGK;2017-03-16 01:00;CYGK 160100Z 32013KT 15SM VCSH SCT050 OVC120 M05/M15 A2979 RMK SC3AC5 SLP094

CYGK;2017-03-16 02:00;CYGK 160200Z 30009KT 15SM VCSH SCT045 OVC110 M05/M15 A2982 RMK SC3AC5 SLP104

CYGK;2017-03-16 03:00;CYGK 160300Z 30010KT 15SM VCSH FEW045 BKN110 M05/M16 A2983 RMK SC2AC5 LAST STFD OBS/NEXT 161000UTC SLP108

CYGK;2017-03-16 10:00;CYGK 161000Z 30011KT 15SM FEW120 M09/M18 A2989 RMK AC2 SLP128

CYGK;2017-03-16 11:00;CYGK 161100Z 30007KT 15SM FEW120 SCT240 M10/M18 A2991 RMK AC1CI2 SLP135

CYGK;2017-03-16 12:00;CYGK 161200Z 27007KT 15SM FEW120 BKN240 M10/M18 A2993 RMK AC1CI5 AC TR SLP143

CYGK;2017-03-16 13:00;CYGK 161300Z 29011G16KT 15SM FEW030 SCT240 M08/M18 A2994 RMK SC1CI4 SC TR SLP146

CYGK;2017-03-16 14:00;CYGK 161400Z 29012KT 15SM FEW030 BKN240 M07/M18 A2996 RMK SC1CI5 SC TR SLP151

CYGK;2017-03-16 15:00;CYGK 161500Z 27011G17KT 15SM FEW030 BKN240 M06/M17 A2996 RMK SC1CI5 SC TR SLP152

CYGK;2017-03-16 16:00;CYGK 161600Z 29009G15KT 15SM FEW030 SCT240 M04/M16 A2996 RMK SC1CI4 SC TR SLP152

CYGK;2017-03-16 17:00;CYGK 161700Z 24009G18KT 230V290 15SM FEW035 SCT240 M03/M16 A2995 RMK SC1CI4 SC TR SLP150

CYGK;2017-03-16 18:00;CYGK 161800Z 25012G20KT 15SM FEW035 SCT240 M02/M14 A2995 RMK SC1CI4 SC TR SLP149

CYGK;2017-03-16 19:00;CYGK 161900Z 27009G19KT 15SM FEW035 SCT240 M01/M14 A2994 RMK CU1CI3 CU TR SLP147

CYGK;2017-03-16 20:00;CYGK 162000Z 28015G25KT 15SM FEW030 FEW250 M00/M16 A2994 RMK CU1CI2 CU TR SLP147

CYGK;2017-03-16 21:00;CYGK 162100Z 25015KT 15SM FEW035 SCT250 M00/M13 A2995 RMK CU1CI3 CU TR SLP148

CYGK;2017-03-16 22:00;CYGK 162200Z 25013G20KT 15SM FEW035 BKN230 M00/M13 A2996 RMK CU1CI5 CU TR SLP151

CYGK;2017-03-16 23:00;CYGK 162300Z 26010KT 15SM FEW035 BKN200 M01/M13 A2998 RMK CU1CI5 CU TR SLP159

CYGK;2017-03-17 00:00;CYGK 170000Z 27011KT 15SM SCT210 M02/M12 A3001 RMK CI3 SLP171

CYGK;2017-03-17 01:00;CYGK 170100Z 27009KT 15SM SCT220 M02/M12 A3005 RMK CI4 SLP182

CYGK;2017-03-17 02:00;CYGK 170200Z 27009KT 15SM SCT220 M03/M12 A3007 RMK CI4 SLP190

CYGK;2017-03-17 03:00;CYGK 170300Z 27010KT 15SM SCT220 M04/M12 A3008 RMK CI3 LAST STFD OBS/NEXT 171000UTC SLP193

CYGK;2017-03-17 10:00;CYGK 171000Z 31005KT 15SM SKC M08/M13 A3018 RMK SLP227

CYGK;2017-03-17 11:00;CYGK 171100Z 31005KT 15SM FEW250 M10/M13 A3020 RMK CI1 SLP234

CYGK;2017-03-17 12:00;CYGK 171200Z 32005KT 15SM FEW250 M10/M13 A3023 RMK CI1 SLP243

CYGK;2017-03-17 13:00;CYGK 171300Z 35006KT 15SM SKC M08/M13 A3025 RMK SLP250

CYGK;2017-03-17 14:00;CYGK 171400Z 36006KT 15SM SKC M05/M14 A3026 RMK SLP255

CYGK;2017-03-17 15:00;CYGK 171500Z VRB02KT 15SM SKC M03/M15 A3026 RMK SLP255

CYGK;2017-03-17 16:00;CYGK 171600Z 19006KT 15SM SKC M02/M12 A3024 RMK SLP249

CYGK;2017-03-17 17:00;CYGK 171700Z 19008KT 15SM SKC M02/M10 A3023 RMK SLP244

CYGK;2017-03-17 18:00;CYGK 171800Z 17009KT 15SM FEW250 M02/M10 A3022 RMK CI1 SLP240

CYGK;2017-03-17 19:00;CYGK 171900Z 18010KT 15SM FEW250 M01/M10 A3021 RMK CI1 SLP236

CYGK;2017-03-17 20:00;CYGK 172000Z 18009KT 15SM FEW250 M01/M09 A3021 RMK CI1 CI TR SLP236

CYGK;2017-03-17 21:00;CYGK 172100Z 17011KT 15SM FEW250 M01/M08 A3020 RMK CI1 SLP234

CYGK;2017-03-17 22:00;CYGK 172200Z 16009KT 15SM FEW250 M01/M06 A3019 RMK CI1 SLP231

CYGK;2017-03-17 23:00;CYGK 172300Z 16008KT 15SM FEW250 M01/M05 A3018 RMK CI1 SLP229

CYGK;2017-03-18 00:00;CYGK 180000Z 15007KT 15SM FEW250 M01/M05 A3018 RMK CI1 SLP227

CYGK;2017-03-18 01:00;CYGK 180100Z 15006KT 15SM FEW250 M02/M04 A3018 RMK CI1 SLP229

CYGK;2017-03-18 02:00;CYGK 180200Z 08002KT 15SM SKC M05/M06 A3018 RMK SLP228

CYGK;2017-03-18 03:00;CYGK 180300Z 05003KT 15SM SKC M05/M06 A3018 RMK LAST STFD OBS/NEXT 181000 UTC SLP228

CYGK;2017-03-18 10:00;CYGK 181000Z 05005KT 15SM BKN220 M08/M15 A3014 RMK CI6 SLP214

CYGK;2017-03-18 11:00;CYGK 181100Z 04008KT 15SM BKN230 M08/M15 A3014 RMK CI6 SLP214

CYGK;2017-03-18 12:00;CYGK 181200Z 05009KT 15SM BKN230 M07/M15 A3016 RMK CI6 SLP219

CYGK;2017-03-18 13:00;CYGK 181300Z 05010KT 15SM FEW120 SCT240 M05/M15 A3015 RMK AC2CI2 SLP217

CYGK;2017-03-18 14:00;CYGK 181400Z 05012KT 15SM FEW120 BKN220 M03/M14 A3015 RMK AC2CI4 SLP215

CYGK;2017-03-18 15:00;CYGK 181500Z 05009KT 15SM FEW120 BKN220 M00/M13 A3015 RMK AC1CI5 SLP215

CYGK;2017-03-18 16:00;CYGK 181600Z 04012KT 15SM SCT160 BKN230 01/M14 A3014 RMK AC4CI2 SLP212

CYGK;2017-03-18 17:00;CYGK 181700Z 07012KT 15SM FEW120 BKN170 02/M13 A3013 RMK AC1AC5 SLP210

CYGK;2017-03-18 18:00;CYGK 181800Z 05011KT 15SM BKN120 BKN180 03/M12 A3012 RMK AC5AC2 SLP206

CYGK;2017-03-18 19:00;CYGK 181900Z 05015KT 15SM FEW080 BKN120 BKN240 04/M12 A3010 RMK AC1AC6CI1 CI TR SLP201

CYGK;2017-03-18 20:00;CYGK 182000Z 05012G18KT 15SM FEW080 BKN120 BKN240 04/M12 A3010 RMK AC1AC5CI1 SLP198

CYGK;2017-03-18 21:00;CYGK 182100Z 05012G17KT 15SM SCT055 BKN100 03/M11 A3011 RMK NS4AC3 SLP203

CYGK;2017-03-18 22:00;CYGK 182200Z 04007KT 15SM BKN060 BKN100 03/M10 A3013 RMK SC6AC1 SLP210

CYGK;2017-03-18 23:00;CYGK 182300Z 05009KT 15SM BKN055 BKN090 02/M10 A3015 RMK SC5AC2 SLP216

CYGK;2017-03-19 00:00;CYGK 190000Z 04010G16KT 15SM BKN050 01/M10 A3017 RMK SC7 SLP223

CYGK;2017-03-19 01:00;CYGK 190100Z 05009KT 15SM OVC050 00/M09 A3019 RMK SC8 SLP231

CYGK;2017-03-19 02:00;CYGK 190200Z 05007KT 15SM OVC044 00/M09 A3021 RMK SC8 SLP235

CYGK;2017-03-19 03:00;CYGK 190300Z 04006KT 15SM OVC041 M01/M09 A3022 RMK SC8 LAST STFD OBS/NEXT 191000 UTC SLP240

CYGK;2017-03-19 10:00;CYGK 191000Z 01008KT 15SM OVC034 M04/M10 A3026 RMK SC8 SLP253

CYGK;2017-03-19 11:00;CYGK 191100Z 02006KT 15SM BKN033 BKN250 M04/M10 A3029 RMK SC7CI1 CI TR SLP262

CYGK;2017-03-19 12:00;CYGK 191200Z 02009KT 15SM BKN036 BKN250 M04/M10 A3031 RMK SC7CI1 CI TR SLP271

CYGK;2017-03-19 13:00;CYGK 191300Z 02007KT 15SM BKN036 BKN250 M04/M10 A3032 RMK SC7CI1 CI TR SLP275

CYGK;2017-03-19 14:00;CYGK 191400Z 03007KT 15SM FEW035 M01/M09 A3033 RMK SC1 SC TR SLP278

CYGK;2017-03-19 15:00;CYGK 191500Z 36008KT 15SM FEW035 FEW250 01/M09 A3034 RMK SC1CI1 SC TR SLP279

CYGK;2017-03-19 16:00;CYGK 191600Z 36007KT 15SM SKC 02/M07 A3033 RMK SLP276

CYGK;2017-03-19 17:00;CYGK 191700Z VRB02KT 15SM FEW250 03/M07 A3030 RMK CI1 CI TR SLP268

CYGK;2017-03-19 18:00;CYGK 191800Z 17007KT 15SM FEW035 03/M06 A3029 RMK CF1 CF TR SLP264

CYGK;2017-03-19 19:00;CYGK 191900Z 18007KT 15SM FEW055 FEW240 03/M06 A3027 RMK SC1CI1 SC TR CI TR SLP257

CYGK;2017-03-19 20:00;CYGK 192000Z 18007KT 15SM FEW250 03/M05 A3026 RMK CI1 CI TR SLP253

CYGK;2017-03-19 21:00;CYGK 192100Z 18008KT 15SM SKC 02/M05 A3025 RMK SLP251

CYGK;2017-03-19 22:00;CYGK 192200Z 17006KT 15SM FEW250 01/M04 A3025 RMK CI1 CI TR SLP251

CYGK;2017-03-19 23:00;CYGK 192300Z 20006KT 15SM FEW250 01/M03 A3026 RMK CI1 SLP252

CYGK;2017-03-20 00:00;CYGK 200000Z 23004KT 15SM FEW250 M01/M03 A3026 RMK CI1 SLP254

CYGK;2017-03-20 01:00;CYGK 200100Z 24007KT 15SM SKC M00/M03 A3027 RMK SLP256

CYGK;2017-03-20 02:00;CYGK 200200Z 25006KT 15SM SKC M01/M03 A3027 RMK SLP258

CYGK;2017-03-20 03:00;CYGK 200300Z 00000KT 15SM SKC M01/M03 A3027 RMK LAST STFD OBS/NEXT 201000 UTC SLP257

CYGK;2017-03-20 10:00;CYGK 201000Z 26007KT 3/8SM FZFG VV001 M01/M01 A3020 RMK FG8 SLP231

CYGK;2017-03-20 11:00;CYGK 201100Z 25004KT 1/4SM FZFG VV001 M01/M02 A3019 RMK FG8 SLP228

CYGK;2017-03-20 12:00;CYGK 201200Z 24004KT 1/4SM FZFG VV001 M01/M02 A3018 RMK FG8 SLP228

CYGK;2017-03-20 13:00;CYGK 201300Z 22005KT 1/8SM FZFG VV004 M01/M02 A3017 RMK FG8 FROIN SLP222

CYGK;2017-03-20 14:00;CYGK 201400Z 20003KT 1/4SM FZFG VV002 M00/M01 A3016 RMK FG8 SLP218

CYGK;2017-03-20 14:44;CYGK 201444Z 18004KT 5/8SM BR OVC002 00/M00 A3015 RMK FG7SF1 SLP215

CYGK;2017-03-20 15:00;CYGK 201500Z 16005KT 1/4SM FG VV003 00/M00 A3014 RMK FG8 SLP213

CYGK;2017-03-20 15:38;CYGK 201538Z 19005KT 1/2SM FG VV002 00/M00 A3016 RMK FG8 SLP218

CYGK;2017-03-20 15:51;CYGK 201551Z 19006KT 3/4SM BR VV003 00/M00 A3015 RMK FG8 SLP217

CYGK;2017-03-20 16:00;CYGK 201600Z 19005KT 1SM BR OVC003 01/00 A3016 RMK FG6ST2 SLP218

CYGK;2017-03-20 16:22;CYGK 201622Z 18005KT 1SM BR OVC005 01/00 A3015 RMK FG4SF4 SLP217

CYGK;2017-03-20 16:39;CYGK 201639Z 18005KT 1 1/2SM BR BKN005 OVC064 01/00 A3015 RMK FG2SF3SC3 SLP215

CYGK;2017-03-20 17:00;CYGK 201700Z 21003KT 2 1/2SM BR BKN006 OVC064 01/01 A3015 RMK SF6SC2 SLP217

CYGK;2017-03-20 17:27;CYGK 201727Z 17002KT 5SM BR OVC008 01/01 A3015 RMK SF8 SLP215

CYGK;2017-03-20 17:51;CYGK 201751Z 20004KT 5SM BR OVC012 02/01 A3014 RMK SF8 SLP212

CYGK;2017-03-20 18:00;CYGK 201800Z 20003KT 5SM BR OVC012 02/01 A3013 RMK SF8 SLP211

CYGK;2017-03-20 18:18;CYGK 201818Z 23005KT 5SM BR FEW012 OVC064 02/02 A3013 RMK SF2SC6 SLP208

CYGK;2017-03-20 19:00;CYGK 201900Z 18006KT 6SM BR FEW012 OVC070 02/00 A3010 RMK SF1AC8 SF TR SLP199

CYGK;2017-03-20 20:00;CYGK 202000Z 19007KT 12SM FEW015 BKN060 OVC090 02/M00 A3007 RMK CF1SC7AC1 CF TR SLP187

CYGK;2017-03-20 21:00;CYGK 202100Z 19009KT 10SM OVC053 01/M00 A3006 RMK SC8 SLP184

CYGK;2017-03-20 22:00;CYGK 202200Z 19010KT 12SM FEW020 BKN055 OVC080 01/M00 A3004 RMK CU1SC5AC3 CU TR SLP177

CYGK;2017-03-20 23:00;CYGK 202300Z 19007KT 12SM FEW045 SCT060 BKN080 01/M01 A3002 RMK SC2SC2AC2 SLP172

CYGK;2017-03-21 00:00;CYGK 210000Z 20005KT 12SM SCT040 BKN070 BKN120 OVC250 01/M01 A3002 RMK SC4AC1AC1CI2 SLP173

CYGK;2017-03-21 01:00;CYGK 210100Z 21006KT 12SM FEW040 SCT080 SCT120 BKN210 00/M01 A3002 RMK SC2AC1AC1CI1 SLP173

CYGK;2017-03-21 02:00;CYGK 210200Z 22003KT 12SM FEW050 BKN200 00/M01 A3002 RMK SC1CI4 SLP171

CYGK;2017-03-21 03:00;CYGK 210300Z 22004KT 15SM FEW070 FEW110 SCT210 M00/M02 A3001 RMK AC1AC1CI2 LAST STFD OBS/NEXT 211000 UTC SLP170

CYGK;2017-03-21 10:00;CYGK 211000Z 24004KT 6SM -RADZ BR OVC023 01/M00 A2993 RMK SC8 SLP140

CYGK;2017-03-21 11:00;CYGK 211100Z 27003KT 4SM -DZ BR FEW007 OVC018 01/M00 A2992 RMK SF1SC7 SLP138

CYGK;2017-03-21 11:35;CYGK 211135Z 00000KT 4SM -DZ BR BKN007 OVC016 01/M00 A2992 RMK SF5SC3 SLP136

CYGK;2017-03-21 12:00;CYGK 211200Z VRB02KT 2 1/2SM -DZ BR BKN007 OVC012 01/M00 A2991 RMK SF7SC1 SLP135

CYGK;2017-03-21 12:19;CYGK 211219Z 23003KT 1 1/2SM -DZ BR OVC007 01/M00 A2992 RMK SF8 SLP136

CYGK;2017-03-21 13:00;CYGK 211300Z 22003KT 1SM -DZ BR OVC005 01/00 A2991 RMK FG4ST4 SLP134

CYGK;2017-03-21 14:00;CYGK 211400Z 23003KT 1SM BR OVC004 01/00 A2991 RMK FG4SF4 SLP135

CYGK;2017-03-21 14:23;CYGK 211423Z 25004KT 1 1/4SM BR OVC003 02/01 A2991 RMK FG4SF4 SLP133

CYGK;2017-03-21 14:50;CYGK 211450Z 23005KT 1 1/2SM BR OVC005 02/01 A2990 RMK FG4SF4 SLP132

CYGK;2017-03-21 15:00;CYGK 211500Z 24005KT 1 1/2SM BR SCT002 OVC005 02/01 A2990 RMK FG3SF1SF4 SLP132

CYGK;2017-03-21 15:22;CYGK 211522Z 23003KT 2 1/2SM BR OVC007 02/02 A2990 RMK SF8 SLP130

CYGK;2017-03-21 15:47;CYGK 211547Z 23004KT 210V290 4SM BR BKN007 OVC015 04/03 A2990 RMK SF7SC1 SLP129

CYGK;2017-03-21 16:00;CYGK 211600Z 29003KT 210V310 4SM BR SCT007 OVC012 03/02 A2990 RMK SF4SC4 SLP129

CYGK;2017-03-21 17:00;CYGK 211700Z 26006KT 4SM BR FEW007 OVC013 04/02 A2989 RMK SF1SC7 SLP127

CYGK;2017-03-21 17:42;CYGK 211742Z 27008KT 6SM BR FEW007 BKN015 04/01 A2988 RMK SF1SC7 SF TR SLP125

CYGK;2017-03-21 18:00;CYGK 211800Z 24009KT 6SM BR SCT015 BKN023 05/02 A2987 RMK CU4SC1 SLP120

CYGK;2017-03-21 19:00;CYGK 211900Z 23010KT 10SM BKN028 BKN250 06/01 A2985 RMK CU5CI1 CI TR SLP112

CYGK;2017-03-21 20:00;CYGK 212000Z 19011KT 8SM SCT035 BKN080 05/02 A2983 RMK CU4AC1 SLP105

CYGK;2017-03-21 21:00;CYGK 212100Z 23014G20KT 8SM SCT025 BKN080 07/02 A2981 RMK CU3AC3 SLP099

CYGK;2017-03-21 22:00;CYGK 212200Z 22012KT 10SM FEW080 SCT100 06/00 A2980 RMK AC1AC3 SLP096

CYGK;2017-03-21 23:00;CYGK 212300Z 22005KT 200V300 15SM FEW040 FEW070 BKN090 05/M02 A2978 RMK CU1AC1AC6 CU TR VIRGA SLP090

CYGK;2017-03-22 00:00;CYGK 220000Z 24008KT 15SM FEW080 BKN090 03/M03 A2979 RMK AC2AC4 SLP094

CYGK;2017-03-22 01:00;CYGK 220100Z 28011G22KT 15SM FEW040 FEW080 04/M06 A2982 RMK SC1AC1 SC TR SLP102

CYGK;2017-03-22 02:00;CYGK 220200Z 28014KT 15SM FEW042 BKN057 03/M04 A2984 RMK SC1SC4 SLP112

CYGK;2017-03-22 02:52;CYGK 220252Z 32016G21KT 15SM -SHSN FEW030 BKN050 02/M03 A2987 RMK CF1SC6 SLP121

CYGK;2017-03-22 03:00;CYGK 220300Z 33014G21KT 15SM -SHSN SCT030 OVC050 02/M04 A2988 RMK CU3SC5 LAST STFD OBS/NEXT 221000 UTC SLP123

CYGK;2017-03-22 10:00;CYGK 221000Z 35020G26KT 15SM FEW035 M10/M20 A3023 RMK SC2 SLP244

CYGK;2017-03-22 11:00;CYGK 221100Z 35011G18KT 15SM FEW035 M11/M20 A3030 RMK CU1 PRESRR SLP266

CYGK;2017-03-22 12:00;CYGK 221200Z 36014KT 15SM FEW001 M11/M19 A3033 RMK SC1 SLP278

CYGK;2017-03-22 13:00;CYGK 221300Z 35013G19KT 15SM FEW035 M10/M19 A3037 RMK CF2 SLP290

CYGK;2017-03-22 14:00;CYGK 221400Z 32013KT 15SM SCT040 M10/M20 A3039 RMK SC3 SLP298

CYGK;2017-03-22 15:00;CYGK 221500Z 35015G25KT 15SM FEW040 M09/M20 A3042 RMK SC1 SLP307

CYGK;2017-03-22 16:00;CYGK 221600Z 33007G19KT 300V020 15SM FEW040 M09/M21 A3042 RMK SC1 SLP308

CYGK;2017-03-22 17:00;CYGK 221700Z 31010G18KT 280V360 15SM FEW040 M08/M20 A3043 RMK SC1 SC TR SLP312

CYGK;2017-03-22 18:00;CYGK 221800Z 31011G25KT 260V360 15SM FEW040 M06/M19 A3043 RMK SC1 SC TR SLP311

CYGK;2017-03-22 19:00;CYGK 221900Z 33014G20KT 290V360 15SM FEW040 M05/M20 A3042 RMK SC1 SC TR SLP310

CYGK;2017-03-22 20:00;CYGK 222000Z 31009G15KT 290V350 15SM FEW040 M04/M20 A3042 RMK SC1 SC TR SLP310

CYGK;2017-03-22 21:00;CYGK 222100Z 29010G17KT 270V350 15SM FEW040 M04/M20 A3042 RMK SC1 SC TR SLP310

CYGK;2017-03-22 22:00;CYGK 222200Z 33011KT 260V340 15SM FEW040 M04/M21 A3043 RMK SC1 SC TR SLP311

CYGK;2017-03-22 23:00;CYGK 222300Z 31009KT 15SM FEW040 M04/M21 A3043 RMK SC1 SC TR SLP314

CYGK;2017-03-23 00:00;CYGK 230000Z 30005KT 15SM SKC M05/M21 A3045 RMK SLP319

CYGK;2017-03-23 01:00;CYGK 230100Z 29004KT 15SM SKC M06/M21 A3046 RMK SLP322

CYGK;2017-03-23 02:00;CYGK 230200Z 32003KT 15SM SKC M07/M19 A3047 RMK SLP327

CYGK;2017-03-23 03:00;CYGK 230300Z 31003KT 15SM SKC M08/M18 A3047 RMK LAST STFD OBS / NEXT 231000 UTC SLP328

CYGK;2017-03-23 10:00;CYGK 231000Z 27006KT 15SM SKC M10/M15 A3054 RMK SLP351

CYGK;2017-03-23 11:00;CYGK 231100Z 27006KT 15SM SKC M10/M15 A3055 RMK SLP355

CYGK;2017-03-23 12:00;CYGK 231200Z 28005KT 15SM SKC M09/M15 A3057 RMK SLP361

CYGK;2017-03-23 13:00;CYGK 231300Z 29007KT 15SM SKC M06/M13 A3058 RMK SLP365

CYGK;2017-03-23 14:00;CYGK 231400Z 29006KT 15SM SKC M03/M11 A3058 RMK SLP363

CYGK;2017-03-23 15:00;CYGK 231500Z 26004KT 230V310 15SM FEW025 M01/M11 A3058 RMK CF1 CF TR SLP361

CYGK;2017-03-23 16:00;CYGK 231600Z 21010KT 15SM FEW025 M01/M10 A3056 RMK SF1 SLP357

CYGK;2017-03-23 17:00;CYGK 231700Z 22009KT 15SM FEW030 FEW270 01/M09 A3055 RMK CF1CI1 CF TR SLP352

CYGK;2017-03-23 18:00;CYGK 231800Z 19016KT 15SM FEW030 FEW250 00/M08 A3053 RMK CU1CI1 CU TR SLP347

CYGK;2017-03-23 19:00;CYGK 231900Z 20019KT 15SM FEW030 FEW250 00/M08 A3052 RMK CU1CI1 CU TR SLP341

CYGK;2017-03-23 20:00;CYGK 232000Z 20016G24KT 15SM FEW030 FEW250 M00/M08 A3050 RMK CF1CI1 CF TR SLP335

CYGK;2017-03-23 21:00;CYGK 232100Z 21014G20KT 15SM FEW250 00/M10 A3049 RMK CI1 SLP332

CYGK;2017-03-23 22:00;CYGK 232200Z 19017KT 15SM FEW150 FEW250 M01/M10 A3047 RMK AC1CI2 AC TR SLP324

CYGK;2017-03-23 23:00;CYGK 232300Z 21009G17KT 15SM SCT150 SCT250 M01/M12 A3048 RMK AC3CI1 SLP329

CYGK;2017-03-24 00:00;CYGK 240000Z 21006KT 15SM BKN160 M01/M10 A3048 RMK AC6 SLP328

CYGK;2017-03-24 01:00;CYGK 240100Z 20007KT 15SM BKN140 M01/M09 A3047 RMK AC6 SLP325

CYGK;2017-03-24 02:00;CYGK 240200Z 17007KT 15SM BKN120 M01/M08 A3045 RMK AC6 SLP317

CYGK;2017-03-24 03:00;CYGK 240300Z 15010KT 15SM OVC110 M01/M07 A3042 RMK AC8 LAST STFD OBS/NEXT 241000 UTC SLP307

CYGK;2017-03-24 10:00;CYGK 241000Z 16010KT 15SM OVC084 01/M07 A3021 RMK AC8 SLP236

CYGK;2017-03-24 11:00;CYGK 241100Z 15008KT 15SM FEW060 OVC080 01/M05 A3017 RMK SC2AC6 PRESFR SLP221

CYGK;2017-03-24 12:00;CYGK 241200Z 18014KT 15SM OVC032 01/M05 A3015 RMK SC8 PRESFR SLP216

CYGK;2017-03-24 12:13;CYGK 241213Z 18014G20KT 10SM -SN OVC034 02/M05 A3014 RMK SC8 SLP213

CYGK;2017-03-24 12:28;CYGK 241228Z 17015G20KT 2SM -SN OVC013 01/M04 A3013 RMK SC8 SLP209

CYGK;2017-03-24 13:00;CYGK 241300Z 17017KT 3SM -SN SCT010 OVC020 M00/M02 A3013 RMK CU3SC5 SLP208

CYGK;2017-03-24 14:00;CYGK 241400Z 16010KT 3SM -RA BR OVC023 00/M01 A3011 RMK SC8 PRESFR SLP203

CYGK;2017-03-24 14:40;CYGK 241440Z 16010KT 2SM -RA BR OVC005 00/M01 A3008 RMK SF8 SLP193

CYGK;2017-03-24 15:00;CYGK 241500Z 18014KT 3SM -RA BR BKN007 OVC013 01/M00 A3007 RMK SF5SC3 SLP188

CYGK;2017-03-24 15:44;CYGK 241544Z 18010KT 3SM -RA BR BKN003 OVC007 01/00 A3006 RMK SF5SF3 SLP184

CYGK;2017-03-24 16:00;CYGK 241600Z 15010KT 3SM -RA BR OVC004 01/M00 A3004 RMK NS8 PRESFR SLP178

CYGK;2017-03-24 17:00;CYGK 241700Z 17004KT 4SM -RA BR OVC007 01/00 A3002 RMK NS8 SLP172

CYGK;2017-03-24 17:22;CYGK 241722Z 17006KT 5SM BR BKN007 OVC043 01/01 A2999 RMK SF6SC2 PRESFR SLP160

CYGK;2017-03-24 17:42;CYGK 241742Z 19004KT 6SM -RA BR SCT008 BKN018 OVC045 02/01 A2999 RMK SF3SC2SC3 SLP161

CYGK;2017-03-24 18:00;CYGK 241800Z VRB02KT 6SM -RA BR FEW008 SCT018 OVC044 01/01 A2999 RMK SF1SC3SC5 SF TR SLP162

CYGK;2017-03-24 18:34;CYGK 241834Z 17006KT 6SM BR FEW018 OVC060 02/01 A2995 RMK SC2SC6 PRESFR SLP148

CYGK;2017-03-24 19:00;CYGK 241900Z 19007KT 8SM FEW015 OVC055 02/02 A2994 RMK CU1SC7 SLP145

CYGK;2017-03-24 20:00;CYGK 242000Z 22005KT 12SM FEW007 OVC045 03/02 A2995 RMK SF1SC8 SF TR SLP148

CYGK;2017-03-24 21:00;CYGK 242100Z 25002KT 12SM OVC044 03/02 A2996 RMK SC8 SLP150

CYGK;2017-03-24 22:00;CYGK 242200Z 29002KT 10SM OVC040 03/02 A2998 RMK SC8 SLP156

CYGK;2017-03-24 23:00;CYGK 242300Z 35003KT 7SM OVC034 03/02 A3000 RMK SC8 SLP165

CYGK;2017-03-24 23:43;CYGK 242343Z 35004KT 6SM -RA BR OVC030 03/02 A3002 RMK SC8 PRESRR SLP172

CYGK;2017-03-25 00:00;CYGK 250000Z 36002KT 6SM -RA BR OVC030 03/02 A3003 RMK SC8 SLP174

CYGK;2017-03-25 00:31;CYGK 250031Z 00000KT 5SM -RADZ BR OVC031 03/02 A3004 RMK SC8 SLP177

CYGK;2017-03-25 01:00;CYGK 250100Z VRB02KT 6SM -RADZ BR OVC029 03/02 A3006 RMK SC8 SLP184

CYGK;2017-03-25 02:00;CYGK 250200Z 01005KT 6SM -RADZ BR SCT007 OVC025 03/02 A3009 RMK SF3SC5 SLP193

CYGK;2017-03-25 02:48;CYGK 250248Z 02007KT 340V050 6SM -RA BR BKN007 OVC055 02/01 A3009 RMK SF5SC3 SLP196

CYGK;2017-03-25 03:00;CYGK 250300Z 36006KT 6SM -RA BR BKN006 OVC055 02/01 A3011 RMK SF6SC2 LAST STFD OBS/NEXT 251000UTC SLP201

CYGK;2017-03-25 10:00;CYGK 251000Z 02004KT 15SM BKN043 OVC079 01/M00 A3019 RMK SC6AC2 SLP230

CYGK;2017-03-25 11:00;CYGK 251100Z 01006KT 12SM FEW005 FEW042 OVC080 01/M00 A3023 RMK SF1SC2AC6 SF TR PRESRR SLP241

CYGK;2017-03-25 12:00;CYGK 251200Z 03007KT 12SM FEW007 OVC080 01/M00 A3025 RMK SF1AC8 SF TR SLP249

CYGK;2017-03-25 13:00;CYGK 251300Z 03011KT 12SM FEW010 OVC047 01/M00 A3027 RMK SF1SC7 SLP257

CYGK;2017-03-25 14:00;CYGK 251400Z 02008G16KT 12SM FEW008 OVC083 02/M00 A3029 RMK SF2AC6 SLP263

CYGK;2017-03-25 15:00;CYGK 251500Z 04013G21KT 15SM SCT015 OVC096 02/M01 A3031 RMK CF4AC4 SLP268

CYGK;2017-03-25 16:00;CYGK 251600Z 04010G17KT 15SM BKN018 OVC090 02/M01 A3035 RMK SC5AC3 PRESRR SLP282

CYGK;2017-03-25 17:00;CYGK 251700Z 02012KT 15SM OVC021 03/M01 A3035 RMK SC8 SLP282

CYGK;2017-03-25 18:00;CYGK 251800Z 01012KT 15SM OVC017 02/M02 A3036 RMK SC8 SLP287

CYGK;2017-03-25 19:00;CYGK 251900Z 03008G16KT 15SM OVC017 02/M02 A3037 RMK SC8 SLP289

CYGK;2017-03-25 20:00;CYGK 252000Z 05010G16KT 15SM BKN019 02/M02 A3038 RMK SC7 SLP293

CYGK;2017-03-25 21:00;CYGK 252100Z 06010KT 15SM OVC018 02/M02 A3038 RMK SC8 SLP294

CYGK;2017-03-25 22:00;CYGK 252200Z 06007KT 15SM BKN020 02/M02 A3038 RMK SC5 SLP294

CYGK;2017-03-25 23:00;CYGK 252300Z 06009G15KT 15SM SCT023 BKN250 01/M03 A3040 RMK SC3CI4 SLP301

CYGK;2017-03-26 00:00;CYGK 260000Z 05006KT 15SM FEW025 BKN250 00/M03 A3042 RMK SC2CI3 SLP308

CYGK;2017-03-26 01:00;CYGK 260100Z 05004KT 15SM FEW025 SCT250 M01/M04 A3044 RMK SC1CI3 SLP315

CYGK;2017-03-26 02:00;CYGK 260200Z 05005KT 15SM SCT250 M01/M04 A3044 RMK CI3 SLP313

CYGK;2017-03-26 03:00;CYGK 260300Z 04006KT 15SM FEW250 M01/M04 A3043 RMK CI2 LAST STFD OBS/NEXT 261000 UTC SLP310

CYGK;2017-03-26 10:00;CYGK 261000Z 05010KT 15SM BKN120 M01/M06 A3038 RMK AC7 SLP293

CYGK;2017-03-26 11:00;CYGK 261100Z 06010KT 15SM BKN060 BKN120 M01/M05 A3038 RMK SC5AC2 SLP293

CYGK;2017-03-26 11:18;CYGK 261118Z 05009KT 12SM -FZRA BKN057 BKN120 M01/M05 A3038 RMK SC5AC2 SLP293

CYGK;2017-03-26 11:40;CYGK 261140Z 05007KT 15SM BKN053 BKN120 M01/M05 A3037 RMK SC6AC1 SLP291

CYGK;2017-03-26 12:00;CYGK 261200Z 05009KT 15SM BKN053 BKN120 M01/M05 A3037 RMK SC7AC1 AC TR SLP291

CYGK;2017-03-26 12:25;CYGK 261225Z 05012KT 15SM -FZRA FEW025 BKN048 M01/M06 A3038 RMK SC2SC5 SLP292

CYGK;2017-03-26 13:00;CYGK 261300Z 06014KT 15SM -FZRA SCT023 BKN042 M01/M06 A3036 RMK SC4SC3 SLP286

CYGK;2017-03-26 13:46;CYGK 261346Z 06011G16KT 15SM BKN023 OVC040 M01/M06 A3035 RMK SC5SC3 SLP284

CYGK;2017-03-26 14:00;CYGK 261400Z 06013KT 15SM BKN024 OVC040 M01/M06 A3034 RMK SC6SC2 SLP281

CYGK;2017-03-26 14:38;CYGK 261438Z 05011KT 12SM -FZRA BKN027 OVC038 M01/M06 A3034 RMK SC7SC1 SLP280

CYGK;2017-03-26 15:00;CYGK 261500Z 05012G18KT 15SM OVC027 M01/M05 A3033 RMK SC8 SLP276

CYGK;2017-03-26 16:00;CYGK 261600Z 05012G17KT 15SM OVC023 M00/M06 A3032 RMK SC8 SLP272

CYGK;2017-03-26 16:32;CYGK 261632Z 05013KT 15SM -FZRA OVC023 M00/M06 A3030 RMK SC8 SLP268

CYGK;2017-03-26 17:00;CYGK 261700Z 06012KT 15SM -FZRA OVC021 M00/M05 A3029 RMK SC8 SLP262

CYGK;2017-03-26 17:19;CYGK 261719Z 05011G16KT 15SM OVC021 00/M04 A3028 RMK SC8 SLP260

CYGK;2017-03-26 18:00;CYGK 261800Z 05011G19KT 15SM OVC022 00/M04 A3027 RMK SC8 SLP258

CYGK;2017-03-26 19:00;CYGK 261900Z 05012KT 15SM OVC022 01/M04 A3024 RMK SC8 SLP248

CYGK;2017-03-26 20:00;CYGK 262000Z 06014KT 15SM OVC023 01/M03 A3021 RMK SC8 SLP237

CYGK;2017-03-26 21:00;CYGK 262100Z 06010KT 15SM OVC022 01/M03 A3018 RMK SC8 SLP226

CYGK;2017-03-26 22:00;CYGK 262200Z 06008KT 15SM OVC023 02/M02 A3017 RMK SC8 SLP221

CYGK;2017-03-26 23:00;CYGK 262300Z 05006KT 15SM OVC022 02/M02 A3016 RMK SC8 SLP219

CYGK;2017-03-27 00:00;CYGK 270000Z 06006KT 15SM OVC022 01/M02 A3015 RMK SC8 SLP214

CYGK;2017-03-27 01:00;CYGK 270100Z 06004KT 15SM OVC020 01/M01 A3014 RMK SC8 SLP212

CYGK;2017-03-27 02:00;CYGK 270200Z 13007KT 15SM OVC018 03/00 A3013 RMK SC8 SLP207

CYGK;2017-03-27 03:00;CYGK 270300Z 15011KT 15SM OVC017 03/01 A3011 RMK SC8 LAST STFD OBS/NEXT 271000 UTC SLP201

CYGK;2017-03-27 10:00;CYGK 271000Z 16010KT 15SM SCT015 OVC029 02/01 A2995 RMK SC4SC4 SLP148

CYGK;2017-03-27 11:00;CYGK 271100Z 16008KT 15SM FEW015 OVC026 02/01 A2994 RMK SC1SC7 SLP145

CYGK;2017-03-27 11:53;CYGK 271153Z 17008KT 10SM -RA FEW015 OVC018 02/02 A2994 RMK SF2NS6 VIS SW-NW 3 SLP145

CYGK;2017-03-27 12:00;CYGK 271200Z 17009KT 6SM -RA BR BKN014 OVC018 03/02 A2994 RMK SF5NS3 SLP145

CYGK;2017-03-27 12:31;CYGK 271231Z 17010KT 4SM -RADZ BR BKN009 OVC015 03/02 A2994 RMK SF6NS2 SLP145

CYGK;2017-03-27 12:49;CYGK 271249Z 16010KT 3SM -RADZ BR BKN006 OVC014 03/02 A2994 RMK SF6NS2 SLP145

CYGK;2017-03-27 13:00;CYGK 271300Z 17008KT 3SM -RA BR BKN004 OVC012 03/02 A2994 RMK SF5NS3 SLP144

CYGK;2017-03-27 13:25;CYGK 271325Z 17010KT 4SM -RA BR OVC003 03/02 A2994 RMK SF8 SLP143

CYGK;2017-03-27 14:00;CYGK 271400Z 17009KT 5SM -RA BR BKN002 OVC011 03/02 A2993 RMK SF6NS2 SLP141

CYGK;2017-03-27 14:18;CYGK 271418Z 17009KT 6SM BR BKN003 OVC019 03/02 A2993 RMK SF6SC2 SLP139

CYGK;2017-03-27 14:31;CYGK 271431Z 17009KT 10SM SCT003 OVC018 03/02 A2993 RMK SF3SC5 VIS LWR N SLP139

CYGK;2017-03-27 15:00;CYGK 271500Z 16008KT 15SM FEW003 OVC017 03/03 A2992 RMK SF2SC6 SLP136

CYGK;2017-03-27 16:00;CYGK 271600Z 17008KT 15SM FEW005 OVC017 04/03 A2992 RMK SF1SC8 SF TR SLP135

CYGK;2017-03-27 17:00;CYGK 271700Z 17010KT 15SM FEW005 OVC015 04/03 A2991 RMK SF1SC7 SLP135

CYGK;2017-03-27 17:17;CYGK 271717Z 17010G16KT 15SM -RA FEW005 OVC014 04/03 A2991 RMK SF1SC7 VIS N 6 SLP133

CYGK;2017-03-27 17:45;CYGK 271745Z 22005KT 15SM VCSH FEW005 OVC015 04/03 A2991 RMK SF1SC7 SH N VIS 8 SLP133

CYGK;2017-03-27 18:00;CYGK 271800Z 21006KT 15SM FEW005 OVC015 04/03 A2990 RMK SF1SC7 SLP132

CYGK;2017-03-27 19:00;CYGK 271900Z 20005KT 15SM FEW005 OVC014 05/04 A2989 RMK SF1SC8 SF TR SLP127

CYGK;2017-03-27 20:00;CYGK 272000Z 20008KT 15SM FEW005 OVC009 04/03 A2989 RMK SF1SC7 SLP126

CYGK;2017-03-27 20:19;CYGK 272019Z 21007KT 12SM -RA FEW005 OVC008 04/03 A2988 RMK SF1SC7 VIS N 3 SLP124

CYGK;2017-03-27 20:47;CYGK 272047Z 22005KT 12SM OVC007 05/04 A2988 RMK SF8 SLP124

CYGK;2017-03-27 21:00;CYGK 272100Z 21005KT 12SM OVC006 05/04 A2988 RMK SF8 SLP124

CYGK;2017-03-27 22:00;CYGK 272200Z 19007KT 12SM OVC005 05/04 A2989 RMK SF8 SLP127

CYGK;2017-03-27 22:08;CYGK 272208Z 17005KT 10SM OVC004 05/04 A2989 RMK SF8 SLP126

CYGK;2017-03-27 23:00;CYGK 272300Z 19003KT 8SM OVC003 04/03 A2989 RMK SF8 SLP127

CYGK;2017-03-27 23:19;CYGK 272319Z 19002KT 8SM OVC002 04/03 A2990 RMK SF8 SLP128

CYGK;2017-03-28 00:00;CYGK 280000Z 00000KT 3SM BR OVC001 04/03 A2990 RMK FG3SF5 SLP128

CYGK;2017-03-28 00:09;CYGK 280009Z 00000KT 1/2SM FG VV002 04/03 A2990 RMK FG8 SLP128

CYGK;2017-03-28 00:30;CYGK 280030Z VRB02KT 1/4SM FG VV001 04/03 A2989 RMK FG8 SLP127

CYGK;2017-03-28 01:00;CYGK 280100Z 18003KT 1/4SM FG VV001 04/03 A2991 RMK FG8 PRESRR SLP132

CYGK;2017-03-28 02:00;CYGK 280200Z 18004KT 1/4SM FG VV001 03/03 A2991 RMK FG8 SLP133

CYGK;2017-03-28 02:26;CYGK 280226Z 19005KT 1/8SM FG VV001 03/03 A2991 RMK FG8 SLP133

CYGK;2017-03-28 02:51;CYGK 280251Z 19004KT 1/4SM FG VV001 04/03 A2990 RMK FG8 SLP129

CYGK;2017-03-28 03:00;CYGK 280300Z 18004KT 1/2SM FG VV002 03/03 A2990 RMK FG8 LAST STFD OBS/NEXT 281000 UTC SLP129

CYGK;2017-03-28 10:00;CYGK 281000Z VRB02KT 3/8SM -RA BR VV002 03/03 A2987 RMK FG8 SLP120

CYGK;2017-03-28 10:28;CYGK 281028Z 05002KT 3/8SM -RADZ FG VV002 03/03 A2987 RMK FG8 SLP119

CYGK;2017-03-28 10:38;CYGK 281038Z 00000KT 1/2SM -RADZ FG OVC012 03/03 A2987 RMK FG7SC1 SLP120

CYGK;2017-03-28 11:05;CYGK 281105Z 00000KT 1/2SM -RADZ FG OVC015 04/03 A2988 RMK FG6SC2 SLP123

CYGK;2017-03-28 11:46;CYGK 281146Z 00000KT 3/4SM -DZ BR OVC015 03/02 A2989 RMK FG4SC4 SLP127

CYGK;2017-03-28 12:05;CYGK 281205Z 00000KT 1 1/2SM -DZ BR BKN015 OVC035 04/03 A2989 RMK FG1SC5SC2 SLP127

CYGK;2017-03-28 12:19;CYGK 281219Z 32003KT 310V030 1 1/4SM -DZ BR BKN002 OVC008 04/04 A2990 RMK FG2SF4SF2 SLP129

CYGK;2017-03-28 12:30;CYGK 281230Z 36002KT 1 1/2SM -DZ BR SCT002 OVC008 04/04 A2990 RMK FG1SF2SF5 SLP129

CYGK;2017-03-28 13:00;CYGK 281300Z 35003KT 2 1/2SM BR FEW002 OVC009 05/05 A2990 RMK SF1ST7 SLP131

CYGK;2017-03-28 13:21;CYGK 281321Z 01006KT 4SM -DZ BR BKN003 OVC009 06/05 A2991 RMK SF6SF2 SLP134

CYGK;2017-03-28 13:46;CYGK 281346Z 01011KT 15SM -DZ BKN005 OVC010 06/05 A2992 RMK SF7SC1 CIG RAG SLP136

CYGK;2017-03-28 14:00;CYGK 281400Z 02010KT 15SM -DZ BKN005 OVC013 05/05 A2993 RMK SF6SC2 CIG RAG SLP138

CYGK;2017-03-28 14:17;CYGK 281417Z 02009KT 15SM SCT007 OVC012 05/05 A2993 RMK SF4SC4 SLP140

CYGK;2017-03-28 15:00;CYGK 281500Z 01006KT 15SM SCT007 OVC016 05/04 A2995 RMK SF4SC4 SLP145

CYGK;2017-03-28 15:26;CYGK 281526Z 01009KT 15SM BKN007 OVC018 05/04 A2995 RMK SF5SC3 SLP147

CYGK;2017-03-28 15:43;CYGK 281543Z 36008KT 15SM SCT009 OVC019 06/04 A2995 RMK SF3SC5 SLP146

CYGK;2017-03-28 16:00;CYGK 281600Z 36009KT 15SM FEW008 OVC016 06/04 A2995 RMK SF2SC6 SLP146

CYGK;2017-03-28 16:29;CYGK 281629Z 01011KT 15SM BKN009 OVC020 06/04 A2995 RMK SC6SC2 SLP148

CYGK;2017-03-28 17:00;CYGK 281700Z 01009KT 15SM BKN009 OVC020 06/04 A2995 RMK SC5SC3 SLP148

CYGK;2017-03-28 17:34;CYGK 281734Z 01010KT 15SM BKN010 OVC018 06/04 A2995 RMK SC7SC1 SLP148

CYGK;2017-03-28 18:00;CYGK 281800Z 02011KT 15SM BKN013 OVC018 07/04 A2995 RMK SC7SC1 SLP147

CYGK;2017-03-28 19:00;CYGK 281900Z 36011KT 15SM BKN015 OVC025 07/04 A2996 RMK SC7SC1 SLP149

CYGK;2017-03-28 20:00;CYGK 282000Z 01010KT 15SM BKN018 BKN034 07/03 A2997 RMK SC5SC2 SLP154

CYGK;2017-03-28 21:00;CYGK 282100Z 03011KT 15SM FEW018 BKN023 BKN250 07/03 A2999 RMK SC2SC4CI1 SLP159

CYGK;2017-03-28 22:00;CYGK 282200Z 02010KT 15SM FEW018 BKN027 BKN250 07/02 A3001 RMK SC1SC6CI1 CI TR SLP166

CYGK;2017-03-28 23:00;CYGK 282300Z 01015KT 15SM FEW020 BKN027 06/01 A3004 RMK SC1SC6 SLP177

CYGK;2017-03-29 00:00;CYGK 290000Z 03010KT 15SM SCT025 BKN250 05/00 A3007 RMK SC3CI2 SLP187

CYGK;2017-03-29 01:00;CYGK 290100Z 36005KT 15SM SCT029 BKN250 03/M00 A3010 RMK SC3CI2 SLP196

CYGK;2017-03-29 02:00;CYGK 290200Z 30004KT 15SM FEW030 02/M00 A3010 RMK SC2 SLP199

CYGK;2017-03-29 03:00;CYGK 290300Z 31005KT 15SM BKN038 00/M01 A3011 RMK SC7 LAST STFD OBS/NEXT 291000 UTC SLP201

CYGK;2017-03-29 10:00;CYGK 291000Z 33008KT 15SM FEW040 M01/M03 A3019 RMK SC1 SC TR SLP229

CYGK;2017-03-29 11:00;CYGK 291100Z 33007KT 15SM FEW040 M02/M04 A3020 RMK SC1 SLP233

CYGK;2017-03-29 12:00;CYGK 291200Z 35005KT 15SM FEW040 FEW065 M00/M03 A3021 RMK SC1SC1 SLP236

CYGK;2017-03-29 13:00;CYGK 291300Z 34004KT 15SM BKN059 01/M02 A3023 RMK SC7 SLP243

CYGK;2017-03-29 14:00;CYGK 291400Z 33006KT 15SM BKN059 04/M02 A3024 RMK SC7 SLP245

CYGK;2017-03-29 15:00;CYGK 291500Z 02008KT 350V050 15SM FEW030 BKN063 05/M04 A3024 RMK CU1SC7 CU TR SLP246

CYGK;2017-03-29 16:00;CYGK 291600Z 34013KT 15SM FEW030 BKN062 05/M04 A3025 RMK CU2SC5 SLP250

CYGK;2017-03-29 17:00;CYGK 291700Z 33010G19KT 15SM BKN042 BKN061 06/M03 A3025 RMK CU5SC2 SLP250

CYGK;2017-03-29 18:00;CYGK 291800Z 33016KT 280V360 15SM BKN050 06/M03 A3025 RMK SC7 SLP249

CYGK;2017-03-29 19:00;CYGK 291900Z 35014G20KT 15SM BKN052 05/M04 A3025 RMK SC7 SLP250

CYGK;2017-03-29 20:00;CYGK 292000Z 33010G16KT 15SM BKN047 06/M03 A3026 RMK SC6 SLP251

CYGK;2017-03-29 21:00;CYGK 292100Z 33012KT 310V020 15SM SCT050 06/M04 A3026 RMK SC3 SLP251

CYGK;2017-03-29 22:00;CYGK 292200Z 31007KT 15SM FEW056 SCT250 06/M05 A3027 RMK SC1CI3 SLP255

CYGK;2017-03-29 23:00;CYGK 292300Z 03005KT 350V060 15SM FEW055 SCT250 05/M06 A3029 RMK SC1CI3 SC TR SLP262

CYGK;2017-03-30 00:00;CYGK 300000Z 03003KT 15SM FEW055 SCT250 05/M07 A3029 RMK SC1CI3 SC TR SLP263

CYGK;2017-03-30 01:00;CYGK 300100Z 01009G15KT 15SM SCT240 03/M06 A3031 RMK CI4 SLP270

CYGK;2017-03-30 02:00;CYGK 300200Z 01008KT 15SM SCT220 02/M06 A3032 RMK CI4 SLP273

CYGK;2017-03-30 03:00;CYGK 300300Z 01009KT 15SM BKN220 02/M06 A3030 RMK CI5 LAST STFD OBS/NEXT 301000 UTC SLP266

CYGK;2017-03-30 10:00;CYGK 301000Z 35006KT 15SM SCT200 M04/M07 A3031 RMK CI3 SLP271

CYGK;2017-03-30 11:00;CYGK 301100Z 35006KT 15SM FEW180 BKN210 M04/M07 A3032 RMK AC2CI4 SLP274

CYGK;2017-03-30 12:00;CYGK 301200Z 03006KT 15SM SCT170 BKN200 M01/M06 A3031 RMK AC3CI4 SLP269

CYGK;2017-03-30 13:00;CYGK 301300Z 05007KT 15SM FEW180 BKN250 01/M06 A3031 RMK AC2CI4 SLP269

CYGK;2017-03-30 14:00;CYGK 301400Z 06009KT 15SM SCT190 BKN250 02/M06 A3030 RMK AC3CI2 SLP264

CYGK;2017-03-30 15:00;CYGK 301500Z 06009G15KT 15SM BKN180 03/M06 A3028 RMK AC6 SLP259

CYGK;2017-03-30 16:00;CYGK 301600Z 09011G16KT 15SM SCT160 BKN250 03/M05 A3027 RMK AC3CI4 SLP254

CYGK;2017-03-30 17:00;CYGK 301700Z 10014KT 15SM SCT180 OVC250 04/M05 A3023 RMK AC4CI4 SLP241

CYGK;2017-03-30 18:00;CYGK 301800Z 10010KT 15SM SCT180 OVC240 04/M04 A3022 RMK AC4CI4 SLP238

CYGK;2017-03-30 19:00;CYGK 301900Z 11010KT 15SM FEW070 OVC150 05/M05 A3020 RMK AS1AS7 SLP231

CYGK;2017-03-30 20:00;CYGK 302000Z 08011KT 15SM OVC150 05/M06 A3016 RMK AC8 SLP220

CYGK;2017-03-30 21:00;CYGK 302100Z 06012KT 15SM BKN130 05/M05 A3012 RMK AS7 SLP206

CYGK;2017-03-30 22:00;CYGK 302200Z 07010KT 15SM OVC110 05/M05 A3011 RMK AS8 SLP202

CYGK;2017-03-30 23:00;CYGK 302300Z 04007KT 15SM OVC110 04/M05 A3012 RMK AS8 SLP204

CYGK;2017-03-31 00:00;CYGK 310000Z 06008KT 15SM OVC100 03/M05 A3011 RMK AS8 SLP201

CYGK;2017-03-31 01:00;CYGK 310100Z 05010KT 15SM OVC080 03/M06 A3011 RMK AS8 SLP201

CYGK;2017-03-31 02:00;CYGK 310200Z 05009KT 15SM OVC060 03/M07 A3014 RMK NS8 SLP210

CYGK;2017-03-31 03:00;CYGK 310300Z 15006KT 080V170 15SM VCSH OVC040 02/M06 A3013 RMK NS8 LAST STFD OBS/NEXT 311000UTC SLP207

CYGK;2017-03-31 10:00;CYGK 311000Z 07014G20KT 12SM -SN FEW007 OVC031 00/M01 A2995 RMK SF2SC6 PRESFR SLP148

CYGK;2017-03-31 11:00;CYGK 311100Z 05011KT 15SM -SN SCT008 OVC025 00/M01 A2995 RMK SF3SC5 SLP146

CYGK;2017-03-31 11:27;CYGK 311127Z 06013G18KT 15SM SCT008 OVC024 01/M01 A2994 RMK SF3SC5 SLP144

CYGK;2017-03-31 11:53;CYGK 311153Z 06014G19KT 15SM -RA SCT008 OVC025 01/M01 A2993 RMK SF3SC5 SLP141

CYGK;2017-03-31 12:00;CYGK 311200Z 06012G17KT 10SM -RA SCT008 OVC025 01/M01 A2993 RMK SF3SC5 SLP142

CYGK;2017-03-31 13:00;CYGK 311300Z 06013KT 6SM -RA BR SCT007 OVC020 01/M00 A2993 RMK SF4SC4 SLP141

CYGK;2017-03-31 14:00;CYGK 311400Z 06013G18KT 6SM -RA BR SCT008 OVC022 01/00 A2991 RMK SF3SC5 SLP135

CYGK;2017-03-31 15:00;CYGK 311500Z 06013G20KT 6SM -RA BR BKN007 OVC018 02/01 A2990 RMK SF5NS3 SLP130

CYGK;2017-03-31 15:38;CYGK 311538Z 06014KT 5SM -RA BR BKN008 OVC018 02/01 A2990 RMK SF6SC2 SLP129

CYGK;2017-03-31 16:00;CYGK 311600Z 07011G19KT 5SM -RA BR BKN008 OVC020 02/01 A2989 RMK SF6SC2 SLP128

CYGK;2017-03-31 17:00;CYGK 311700Z 06013G18KT 6SM -RA BR BKN006 OVC013 03/02 A2987 RMK SF6NS2 SLP122

CYGK;2017-03-31 18:00;CYGK 311800Z 06013KT 6SM -RA BR BKN006 OVC020 03/02 A2986 RMK SF5NS3 SLP117

CYGK;2017-03-31 19:00;CYGK 311900Z 06014KT 6SM -RA BR BKN006 OVC018 03/02 A2984 RMK SF7SC1 CIG RAG SLP110

CYGK;2017-03-31 19:39;CYGK 311939Z 05011KT 4SM -RA BR BKN005 OVC020 03/02 A2983 RMK SF6NS2 SLP105

CYGK;2017-03-31 20:01;CYGK 312001Z 05015KT 4SM -RA BR BKN005 OVC018 02/02 A2983 RMK SF7SC1 VIA CYXU SLP106

CYGK;2017-03-31 21:00;CYGK 312100Z 04012G17KT 5SM -RA BR BKN005 OVC009 02/01 A2982 RMK SF7SF1 CIG RAG SLP104

CYGK;2017-03-31 22:00;CYGK 312200Z 05010G16KT 5SM -RA BR BKN005 OVC020 02/02 A2982 RMK SF7SC1 SLP105

CYGK;2017-03-31 23:00;CYGK 312300Z 05010G18KT 5SM -RA BR BKN005 OVC027 02/01 A2982 RMK SF6SC2 CIG RAG SLP105

CYGK;2017-03-31 23:51;CYGK 312351Z 05013KT 6SM -RASN BR BKN005 OVC027 01/01 A2982 RMK SF6SC2 CIG RAG SLP104

CYGK;2017-04-01 00:00;CYGK 010000Z 05011G17KT 6SM -SNRA BR BKN005 OVC027 01/00 A2982 RMK SF6SC2 SLP105

CYGK;2017-04-01 01:06;CYGK 010106Z 05010G15KT 10SM -SN OVC004 01/M00 A2984 RMK SF8 SLP110

CYGK;2017-04-01 02:00;CYGK 010200Z 05011KT 8SM -SN BKN004 OVC025 01/00 A2984 RMK SF6SC2 SLP109

CYGK;2017-04-01 03:00;CYGK 010300Z 05011KT 10SM -SN BKN005 OVC030 01/00 A2983 RMK SF6SC2 CIG RAG LAST STFD OBS/NEXT 011000UTC SLP106

CYGK;2017-04-01 10:00;CYGK 011000Z 01006KT 10SM -DZ SCT005 OVC037 01/M00 A2989 RMK SF3SC5 SLP128

CYGK;2017-04-01 10:53;CYGK 011053Z 01006KT 15SM SCT006 OVC032 01/M00 A2991 RMK SF3SC5 SLP133

CYGK;2017-04-01 11:00;CYGK 011100Z 36006KT 15SM SCT007 OVC032 01/M00 A2991 RMK SF4SC4 SLP133

CYGK;2017-04-01 11:22;CYGK 011122Z 01008KT 12SM BKN006 OVC030 01/M00 A2991 RMK SF6SC2 SLP135

CYGK;2017-04-01 12:00;CYGK 011200Z 36008KT 12SM BKN004 OVC028 01/00 A2993 RMK SF7SC1 SLP142

CYGK;2017-04-01 13:00;CYGK 011300Z 36007KT 10SM OVC004 01/00 A2996 RMK SF8 SLP150

CYGK;2017-04-01 14:00;CYGK 011400Z 01010KT 7SM OVC003 01/00 A2997 RMK SF8 SLP155

CYGK;2017-04-01 14:43;CYGK 011443Z 01008KT 10SM OVC005 02/01 A2998 RMK SF8 SLP157

CYGK;2017-04-01 15:00;CYGK 011500Z 01009KT 10SM OVC005 02/01 A2998 RMK SF8 SLP158

CYGK;2017-04-01 15:29;CYGK 011529Z 01009KT 10SM OVC007 02/01 A2999 RMK SF8 SLP160

CYGK;2017-04-01 16:00;CYGK 011600Z 34010KT 10SM OVC006 02/01 A3000 RMK SC8 SLP163

CYGK;2017-04-01 17:00;CYGK 011700Z 34009KT 12SM FEW008 OVC014 03/01 A2999 RMK SF2SC6 SLP162

CYGK;2017-04-01 18:00;CYGK 011800Z 35009KT 15SM BKN015 BKN058 OVC090 04/01 A3000 RMK SC5SC2AC1 SLP163

CYGK;2017-04-01 18:47;CYGK 011847Z 36011KT 15SM OVC018 04/00 A3000 RMK SC8 SLP164

CYGK;2017-04-01 19:00;CYGK 011900Z 34010KT 15SM OVC020 05/01 A3001 RMK SC8 SLP166

CYGK;2017-04-01 20:00;CYGK 012000Z 02009KT 320V030 15SM BKN023 BKN060 05/M00 A3001 RMK SC6SC1 SLP167

CYGK;2017-04-01 21:00;CYGK 012100Z 01009KT 15SM BKN025 05/M00 A3003 RMK SC7 SLP174

CYGK;2017-04-01 22:00;CYGK 012200Z 35006KT 15SM VCSH BKN025 BKN037 05/00 A3005 RMK SC5SC2 SLP181

CYGK;2017-04-01 23:00;CYGK 012300Z 00000KT 15SM FEW025 BKN200 04/00 A3006 RMK SC1CI6 SLP183

CYGK;2017-04-02 00:00;CYGK 020000Z 18005KT 15SM FEW025 BKN240 01/M01 A3006 RMK SC1CI6 SC TR SLP186

CYGK;2017-04-02 01:00;CYGK 020100Z 22006KT 15SM FEW025 BKN200 01/M00 A3007 RMK SC1CI6 SC TR SLP190

CYGK;2017-04-02 02:00;CYGK 020200Z 25004KT 15SM BKN150 01/M01 A3009 RMK AC6 SLP194

CYGK;2017-04-02 03:00;CYGK 020300Z 25005KT 15SM BKN110 01/M00 A3010 RMK AC5 LAST STFD OBS/NEXT 021000UTC SLP197

CYGK;2017-04-02 10:00;CYGK 021000Z 28005KT 15SM SCT100 BKN220 M00/M03 A3008 RMK AC3CI3 SLP190

CYGK;2017-04-02 11:00;CYGK 021100Z 25005KT 15SM VCSH FEW040 BKN100 BKN220 00/M03 A3009 RMK CU2AC4CI1 SLP193

CYGK;2017-04-02 12:00;CYGK 021200Z 26003KT 15SM BKN080 01/M02 A3010 RMK AC6 VIRGA SLP198

CYGK;2017-04-02 13:00;CYGK 021300Z 28006KT 15SM FEW070 SCT100 03/M01 A3011 RMK AC2AC2 VIRGA SLP201

CYGK;2017-04-02 14:00;CYGK 021400Z 27003KT 15SM FEW070 BKN100 05/M01 A3012 RMK AC1AC4 SLP204

CYGK;2017-04-02 15:00;CYGK 021500Z VRB06KT 15SM FEW024 SCT100 07/00 A3012 RMK CU1AC2 SLP204

CYGK;2017-04-02 16:00;CYGK 021600Z 17008KT 15SM FEW030 FEW095 06/01 A3010 RMK CF1AC1 CF TR SLP199

CYGK;2017-04-02 17:00;CYGK 021700Z 18009KT 15SM FEW030 SCT080 07/02 A3009 RMK CU2AC1 SLP195

CYGK;2017-04-02 18:00;CYGK 021800Z 19009KT 15SM BKN065 04/01 A3008 RMK SC5 SLP192

CYGK;2017-04-02 19:00;CYGK 021900Z 19007KT 15SM BKN060 BKN240 06/01 A3008 RMK SC6CI1 SLP192

CYGK;2017-04-02 20:00;CYGK 022000Z 20013KT 15SM SCT070 BKN250 06/01 A3008 RMK AC4CI2 SLP190

CYGK;2017-04-02 21:00;CYGK 022100Z 19008KT 15SM SCT072 BKN240 06/02 A3006 RMK AC4CI2 SLP185

CYGK;2017-04-02 22:00;CYGK 022200Z 18005KT 15SM FEW075 SCT240 06/02 A3006 RMK AC2CI2 SLP183

CYGK;2017-04-02 23:00;CYGK 022300Z 20002KT 15SM FEW075 SCT240 06/02 A3005 RMK AC2CI2 SLP182

CYGK;2017-04-03 00:00;CYGK 030000Z 24007KT 15SM FEW075 SCT240 07/01 A3005 RMK AC1CI2 SLP182

CYGK;2017-04-03 01:00;CYGK 030100Z 24003KT 15SM FEW240 05/00 A3005 RMK CI2 SLP180

CYGK;2017-04-03 02:00;CYGK 030200Z 04002KT 15SM FEW240 02/00 A3005 RMK CI2 SLP181

CYGK;2017-04-03 03:00;CYGK 030300Z VRB04KT 15SM SCT240 01/M01 A3007 RMK CI3 LAST STFD OBS/NEXT 031000 UTC SLP186

CYGK;2017-04-03 10:00;CYGK 031000Z VRB02KT 15SM SCT140 BKN250 01/M01 A3005 RMK AC3CI4 SLP182

CYGK;2017-04-03 11:00;CYGK 031100Z 04004KT 15SM BKN130 BKN250 02/M02 A3008 RMK AC5CI2 SLP192

CYGK;2017-04-03 12:00;CYGK 031200Z 05006KT 15SM BKN110 BKN250 02/M02 A3008 RMK AC6CS1 SLP190

CYGK;2017-04-03 13:00;CYGK 031300Z 03004KT 15SM BKN110 OVC240 04/M01 A3009 RMK AC5CS3 SLP195

CYGK;2017-04-03 14:00;CYGK 031400Z 07006KT 15SM BKN100 OVC150 06/01 A3008 RMK AC6AC2 SLP192

CYGK;2017-04-03 15:00;CYGK 031500Z 08004KT 15SM BKN110 BKN250 07/01 A3007 RMK AC6CI1 SLP187

CYGK;2017-04-03 16:00;CYGK 031600Z 09006KT 15SM BKN098 BKN250 10/01 A3003 RMK AC6CS1 PRESFR SLP174

CYGK;2017-04-03 17:00;CYGK 031700Z 12010KT 15SM FEW095 BKN130 11/M01 A3001 RMK AC2AC4 SLP168

CYGK;2017-04-03 18:00;CYGK 031800Z 08010KT 15SM FEW095 BKN120 11/M01 A2998 RMK AC2AC5 SLP155

CYGK;2017-04-03 19:00;CYGK 031900Z 10007KT 15SM FEW100 BKN150 13/M01 A2994 RMK AC2AC5 SLP143

CYGK;2017-04-03 20:00;CYGK 032000Z 09009KT 15SM FEW100 BKN160 BKN240 13/M02 A2990 RMK AC2AC4CI1 SLP130

CYGK;2017-04-03 21:00;CYGK 032100Z 06011KT 15SM FEW100 BKN140 13/M02 A2987 RMK AC2AC5 SLP117

CYGK;2017-04-03 22:00;CYGK 032200Z 06012KT 15SM BKN120 BKN170 12/M01 A2984 RMK AC5AC2 SLP107

CYGK;2017-04-03 23:00;CYGK 032300Z 05011KT 15SM BKN120 OVC160 11/M03 A2982 RMK AC6AC2 SLP103

CYGK;2017-04-04 00:00;CYGK 040000Z 06017KT 15SM OVC120 10/M02 A2980 RMK AC8 SLP094

CYGK;2017-04-04 01:00;CYGK 040100Z 05016G21KT 15SM OVC100 08/M03 A2978 RMK AC8 SLP089

CYGK;2017-04-04 02:00;CYGK 040200Z 05015G21KT 15SM BKN085 OVC100 07/M03 A2974 RMK AC5AC3 SLP076

CYGK;2017-04-04 03:00;CYGK 040300Z 06015G21KT 15SM OVC094 07/M03 A2971 RMK AC8 LAST STFD OBS/NEXT 041000 UTC SLP064

CYGK;2017-04-04 10:00;CYGK 041000Z 04009KT 5SM -RA BR BKN007 OVC014 06/05 A2945 RMK SC6NS2 SLP976

CYGK;2017-04-04 11:00;CYGK 041100Z 05006KT 3SM -RA BR BKN008 OVC014 06/06 A2945 RMK SF5NS3 SLP975

CYGK;2017-04-04 11:53;CYGK 041153Z 07005KT 040V100 2SM -RA BR BKN007 OVC012 06/06 A2944 RMK SF7NS1 SLP972

CYGK;2017-04-04 12:00;CYGK 041200Z 08006KT 2SM -RA BR FEW004 BKN007 OVC012 07/06 A2944 RMK SF1SF6NS1 SLP972

CYGK;2017-04-04 12:20;CYGK 041220Z 11010KT 050V130 4SM -RA BR SCT004 OVC007 07/07 A2944 RMK SF3SF5 SLP971

CYGK;2017-04-04 13:00;CYGK 041300Z 14006G15KT 6SM -RA BR FEW004 BKN008 OVC014 07/06 A2943 RMK SF1SF5SC2 VIS N 2 SLP968

CYGK;2017-04-04 13:28;CYGK 041328Z 13004KT 110V170 10SM -RA SCT007 SCT016 OVC024 07/06 A2942 RMK SF3SC1NS4 SLP965

CYGK;2017-04-04 14:00;CYGK 041400Z 16019G32KT 110V180 12SM -RA FEW006 BKN017 OVC023 07/07 A2941 RMK SF2SC3NS3 SLP963

CYGK;2017-04-04 15:00;CYGK 041500Z 15006KT 8SM -RA FEW004 SCT012 OVC016 06/06 A2940 RMK SF2SC2SC4 SLP961

CYGK;2017-04-04 15:43;CYGK 041543Z 15005KT 120V190 15SM FEW004 SCT015 OVC021 06/05 A2940 RMK SF1SC2SC5 SLP958

CYGK;2017-04-04 16:00;CYGK 041600Z 15008KT 15SM FEW005 FEW015 OVC021 06/06 A2939 RMK SF1SC2SC6 SF TR SLP956

CYGK;2017-04-04 16:21;CYGK 041621Z VRB04KT 3SM -RA BR FEW004 BKN008 OVC020 06/05 A2939 RMK SF1SF6SC1 SLP955

CYGK;2017-04-04 16:33;CYGK 041633Z 15009G15KT 10SM FEW002 SCT008 OVC016 06/06 A2939 RMK SF1SF2SC5 INTMT -RA SLP954

CYGK;2017-04-04 17:00;CYGK 041700Z 15008KT 8SM -RA FEW008 BKN016 OVC025 06/05 A2938 RMK SF2SC5SC1 SLP953

CYGK;2017-04-04 18:00;CYGK 041800Z 16011G16KT 15SM FEW008 OVC017 06/05 A2938 RMK SF1SC7 INTMT -RA SLP953

CYGK;2017-04-04 18:38;CYGK 041838Z 17014KT 3/4SM -RA BR SCT002 OVC010 06/05 A2939 RMK FG2SF2SC4 SLP955

CYGK;2017-04-04 18:43;CYGK 041843Z 18012G18KT 1/2SM -RA FG OVC008 06/05 A2939 RMK FG6SF2 SLP955

CYGK;2017-04-04 18:49;CYGK 041849Z 18012KT 1/4SM -RA FG VV002 06/05 A2939 RMK FG8 SLP954

CYGK;2017-04-04 19:00;CYGK 041900Z 17017KT 1/4SM -RA FG VV002 07/06 A2939 RMK FG8 SLP956

CYGK;2017-04-04 20:00;CYGK 042000Z 19011G18KT 1/4SM -RA FG VV001 06/05 A2940 RMK FG8 SLP960

CYGK;2017-04-04 20:27;CYGK 042027Z 19014KT 1SM BR SCT002 BKN010 OVC063 06/06 A2940 RMK SF3CU3SC2 SLP961

CYGK;2017-04-04 20:38;CYGK 042038Z 19015G21KT 5SM BR FEW002 BKN028 BKN076 08/08 A2941 RMK SF2SC3AC2 SLP962

CYGK;2017-04-04 21:00;CYGK 042100Z 20012G17KT 15SM SCT002 BKN032 OVC078 07/06 A2942 RMK SF3SC3AC2 SLP966

CYGK;2017-04-04 22:00;CYGK 042200Z 23016G25KT 15SM OVC013 08/06 A2944 RMK SC8 SLP974

CYGK;2017-04-04 22:21;CYGK 042221Z 23014G21KT 12SM -RA OVC013 08/06 A2945 RMK SC8 SLP977

CYGK;2017-04-04 22:34;CYGK 042234Z 23014G22KT 5SM -RA BR OVC010 07/06 A2945 RMK SC8 SLP978

CYGK;2017-04-04 23:00;CYGK 042300Z 24018G25KT 4SM -RA BR BKN009 OVC015 07/06 A2947 RMK SF5SC3 SLP983

CYGK;2017-04-04 23:40;CYGK 042340Z 23018G24KT 10SM -RA BKN018 OVC041 06/05 A2949 RMK SC5SC3 SLP990

CYGK;2017-04-05 00:00;CYGK 050000Z 24019G33KT 15SM -RA SCT015 OVC056 06/04 A2950 RMK SF3SC5 SLP994

CYGK;2017-04-05 01:00;CYGK 050100Z 23016G24KT 12SM -RA OVC010 05/04 A2953 RMK SF8 CIG RAG SLP005

CYGK;2017-04-05 02:00;CYGK 050200Z 24015G22KT 15SM -RA OVC012 05/04 A2956 RMK SC8 SLP015

CYGK;2017-04-05 03:00;CYGK 050300Z 23013G19KT 15SM -RA OVC012 05/03 A2958 RMK SC8 LAST STFD OBS/NEXT 051000 UTC SLP020

CYGK;2017-04-05 10:00;CYGK 051000Z 29010G15KT 15SM FEW006 OVC022 05/03 A2981 RMK SF1SC8 SF TR SLP097

CYGK;2017-04-05 11:00;CYGK 051100Z 30009G15KT 15SM FEW008 FEW012 BKN020 05/03 A2985 RMK SF1SC2SC5 SF TR SLP112

CYGK;2017-04-05 12:00;CYGK 051200Z 31009KT 15SM FEW008 SCT016 BKN043 05/02 A2989 RMK SF1SC4SC3 SF TR SLP126

CYGK;2017-04-05 13:00;CYGK 051300Z 31009G17KT 15SM FEW008 BKN015 BKN035 05/02 A2991 RMK CF1SC5SC2 CF TR SLP134

CYGK;2017-04-05 14:00;CYGK 051400Z 32013KT 15SM SCT018 BKN030 07/03 A2992 RMK CU4SC1 SLP135

CYGK;2017-04-05 15:00;CYGK 051500Z 31006KT 290V350 15SM BKN025 BKN035 07/02 A2995 RMK SC6SC1 SLP146

CYGK;2017-04-05 16:00;CYGK 051600Z 03005KT 320V040 15SM BKN029 08/02 A2995 RMK SC7 SLP148

CYGK;2017-04-05 17:00;CYGK 051700Z 28004KT 260V360 15SM FEW020 OVC030 08/02 A2997 RMK CF1SC8 CF TR SLP153

CYGK;2017-04-05 18:00;CYGK 051800Z 20007KT 15SM FEW015 BKN027 08/04 A2998 RMK CF1SC7 CF TR SLP156

CYGK;2017-04-05 19:00;CYGK 051900Z 19007KT 15SM FEW020 BKN031 07/04 A2995 RMK CU1SC5 SLP146

CYGK;2017-04-05 20:00;CYGK 052000Z 19007KT 15SM FEW020 BKN030 BKN250 07/03 A2993 RMK CF1SC5CI2 CF TR SLP140

CYGK;2017-04-05 21:00;CYGK 052100Z 19007KT 15SM BKN030 BKN250 07/03 A2995 RMK SC5CI2 SLP145

CYGK;2017-04-05 22:00;CYGK 052200Z 18006KT 15SM SCT030 BKN130 05/02 A2997 RMK SC3AC3 PRESRR SLP152

CYGK;2017-04-05 23:00;CYGK 052300Z 12005KT 15SM SCT030 BKN140 04/02 A2994 RMK SC3AC3 SLP143

CYGK;2017-04-06 00:00;CYGK 060000Z 10002KT 15SM BKN031 05/02 A2995 RMK SC7 SLP146

CYGK;2017-04-06 01:00;CYGK 060100Z 09004KT 15SM OVC031 06/03 A2995 RMK SC8 SLP145

CYGK;2017-04-06 02:00;CYGK 060200Z 07010KT 15SM OVC030 06/02 A2994 RMK SC8 SLP143

CYGK;2017-04-06 03:00;CYGK 060300Z 05010KT 15SM OVC026 06/01 A2992 RMK SC8 LAST STFD OBS/NEXT 061000 UTC SLP137

CYGK;2017-04-06 10:00;CYGK 061000Z 06014KT 15SM -RA OVC030 05/03 A2967 RMK SC8 SLP051

CYGK;2017-04-06 10:40;CYGK 061040Z 05014G20KT 15SM OVC028 05/03 A2966 RMK SC8 SLP047

CYGK;2017-04-06 11:00;CYGK 061100Z 05013G20KT 15SM FEW010 OVC027 05/03 A2965 RMK CF2SC6 SLP044

CYGK;2017-04-06 11:30;CYGK 061130Z 05013KT 10SM -RA FEW010 OVC025 05/04 A2964 RMK SF2SC6 SLP041

CYGK;2017-04-06 11:38;CYGK 061138Z 05012KT 4SM -RA BR SCT010 OVC025 05/04 A2963 RMK SF3SC5 SLP039

CYGK;2017-04-06 12:00;CYGK 061200Z 06013G18KT 12SM -RA SCT010 OVC023 05/04 A2962 RMK SF3SC5 SLP035

CYGK;2017-04-06 12:12;CYGK 061212Z 06013G19KT 4SM -RA BR SCT010 OVC023 05/04 A2961 RMK SF3SC5 SLP032

CYGK;2017-04-06 12:35;CYGK 061235Z 06013KT 2 1/2SM -RA BR FEW004 OVC022 05/04 A2960 RMK SF2NS6 SLP029

CYGK;2017-04-06 13:00;CYGK 061300Z CCA 06014KT 5SM -RA BR SCT005 OVC024 05/04 A2958 RMK SF4NS4 SLP022

CYGK;2017-04-06 13:52;CYGK 061352Z 05011KT 4SM -RA BR BKN005 OVC018 05/04 A2955 RMK SF5NS3 SLP011

CYGK;2017-04-06 14:00;CYGK 061400Z 06013KT 2SM -RA BR BKN005 OVC018 05/04 A2955 RMK SF6NS2 CIG RAG SLP011

CYGK;2017-04-06 15:00;CYGK 061500Z 05012KT 4SM -RA BR SCT005 OVC019 05/04 A2954 RMK SF4NS4 SLP006

CYGK;2017-04-06 16:00;CYGK 061600Z 04011G16KT 4SM -RA BR SCT004 OVC020 05/04 A2951 RMK SF4NS4 SLP997

CYGK;2017-04-06 16:27;CYGK 061627Z 04011KT 3SM -RA BR BKN004 OVC018 05/04 A2950 RMK SF5NS3 SLP992

CYGK;2017-04-06 16:46;CYGK 061646Z 05012G18KT 2 1/4SM -RA BR BKN004 OVC017 05/04 A2948 RMK SF5NS3 SLP988

CYGK;2017-04-06 17:00;CYGK 061700Z 05014KT 2 1/4SM -RA BR BKN004 OVC015 05/04 A2947 RMK SF6NS2 CIG RAG SLP985

CYGK;2017-04-06 17:33;CYGK 061733Z 04013G19KT 4SM -RA BR BKN004 OVC017 05/04 A2946 RMK SF6NS2 SLP979

CYGK;2017-04-06 18:00;CYGK 061800Z 04012G20KT 5SM -RA BR BKN004 OVC016 05/04 A2945 RMK SF5NS3 SLP976

CYGK;2017-04-06 18:28;CYGK 061828Z 04014KT 10SM -RA BKN005 OVC016 05/04 A2943 RMK SF6NS2 PRESFR SLP969

CYGK;2017-04-06 18:43;CYGK 061843Z 04013G20KT 15SM BKN005 OVC014 05/04 A2942 RMK SF6NS2 SLP966

CYGK;2017-04-06 19:00;CYGK 061900Z 04014KT 15SM BKN005 OVC018 05/04 A2940 RMK SF6NS2 PRESFR SLP959

CYGK;2017-04-06 19:45;CYGK 061945Z 04015G22KT 4SM -RA BR OVC005 05/04 A2938 RMK SF8 SLP952

CYGK;2017-04-06 20:00;CYGK 062000Z 04014G19KT 2SM -RA BR OVC005 05/04 A2937 RMK SF8 VIS N 1 1/2 SLP950

CYGK;2017-04-06 20:26;CYGK 062026Z 03014G22KT 5SM -RA BR BKN006 OVC019 05/04 A2935 RMK SF7NS1 VIS N 2 SLP944

CYGK;2017-04-06 21:00;CYGK 062100Z 04014G19KT 4SM -RA BR BKN005 OVC017 05/04 A2933 RMK SF7NS1 SLP938

CYGK;2017-04-06 22:00;CYGK 062200Z 03013G19KT 6SM -RA BR BKN006 OVC019 05/04 A2928 RMK SF5NS3 PRESFR SLP921

CYGK;2017-04-06 23:00;CYGK 062300Z 04012G21KT 5SM -RA BR BKN007 OVC020 05/04 A2925 RMK SF7NS1 SLP910

CYGK;2017-04-07 00:00;CYGK 070000Z 02013G20KT 6SM -RA BR BKN007 OVC023 04/04 A2921 RMK SF7NS1 SLP896

CYGK;2017-04-07 00:28;CYGK 070028Z 02013G19KT 4SM RA BR OVC007 04/03 A2920 RMK SF8 SLP892

CYGK;2017-04-07 01:00;CYGK 070100Z 01014G20KT 6SM RA BR OVC007 04/03 A2918 RMK SF8 SLP886

CYGK;2017-04-07 01:38;CYGK 070138Z 01013G19KT 6SM -RA BR OVC008 04/03 A2917 RMK SF8 CIG RAG SLP882

CYGK;2017-04-07 02:00;CYGK 070200Z 01013G21KT 8SM RA OVC008 03/02 A2917 RMK SF8 SLP883

CYGK;2017-04-07 03:00;CYGK 070300Z 03014G23KT 8SM -RA OVC010 03/02 A2915 RMK SF8 LAST STFD OBS/NEXT 071000 UTC SLP876

CYGK;2017-04-07 10:00;CYGK 071000Z 35016KT 7SM -RA OVC011 02/01 A2920 RMK SC8 SLP892

CYGK;2017-04-07 11:00;CYGK 071100Z 34013G20KT 8SM -RA BKN014 OVC025 02/00 A2922 RMK SC6SC2 SLP901

CYGK;2017-04-07 11:21;CYGK 071121Z 34014G20KT 12SM SCT018 OVC027 02/00 A2924 RMK SC4SC4 SLP905

CYGK;2017-04-07 11:42;CYGK 071142Z 33013G19KT 12SM -RA SCT015 OVC032 02/00 A2925 RMK SC4SC4 SLP909

CYGK;2017-04-07 12:00;CYGK 071200Z 33013G19KT 12SM -RA BKN015 OVC028 02/00 A2926 RMK SC5SC3 -RA INTMT SLP912

CYGK;2017-04-07 13:00;CYGK 071300Z 33017KT 10SM -RA BKN013 OVC022 02/M00 A2929 RMK SC5SC3 SLP922

CYGK;2017-04-07 13:26;CYGK 071326Z 33013G22KT 6SM -RASN SCT010 OVC022 02/00 A2930 RMK SC4SC4 SLP928

CYGK;2017-04-07 13:36;CYGK 071336Z 33017G23KT 5SM -RASN BR OVC012 01/M00 A2931 RMK SC8 SLP930

CYGK;2017-04-07 14:00;CYGK 071400Z 33018G25KT 4SM -RASN BR OVC012 01/M00 A2932 RMK SC8 SLP932

CYGK;2017-04-07 15:00;CYGK 071500Z 34017G28KT 3SM -RASN BR OVC013 02/00 A2935 RMK NS8 CIG RAG SLP942

CYGK;2017-04-07 15:35;CYGK 071535Z 33018G27KT 3SM -SN BR OVC015 02/00 A2937 RMK SC8 SLP949

CYGK;2017-04-07 16:00;CYGK 071600Z 33015G28KT 3SM -SN BR OVC014 02/00 A2938 RMK SC8 SLP953

CYGK;2017-04-07 16:40;CYGK 071640Z 33018G27KT 10SM OVC018 03/M00 A2939 RMK SC8 SLP956

CYGK;2017-04-07 17:00;CYGK 071700Z 33022G32KT 10SM -SN OVC025 03/M01 A2940 RMK SC8 SLP961

CYGK;2017-04-07 17:28;CYGK 071728Z 33021G29KT 15SM OVC025 03/M01 A2942 RMK SC8 SLP966

CYGK;2017-04-07 18:00;CYGK 071800Z 33018G29KT 15SM OVC027 03/M01 A2943 RMK SC8 SLP971

CYGK;2017-04-07 19:00;CYGK 071900Z 32017G31KT 15SM OVC028 03/M02 A2946 RMK SC8 SLP982

CYGK;2017-04-07 20:00;CYGK 072000Z 31016G24KT 15SM OVC023 02/M02 A2950 RMK SC8 SLP993

CYGK;2017-04-07 20:50;CYGK 072050Z 32014G25KT 15SM -SHSN OVC027 03/M02 A2952 RMK SC8 SLP001

CYGK;2017-04-07 21:00;CYGK 072100Z 31016G23KT 15SM -SHSN OVC026 03/M02 A2953 RMK SC8 SLP003

CYGK;2017-04-07 22:00;CYGK 072200Z 30015G20KT 15SM OVC027 03/M02 A2957 RMK SC8 SLP017

CYGK;2017-04-07 23:00;CYGK 072300Z 31015G25KT 15SM BKN030 OVC040 03/M03 A2960 RMK SC5SC3 SLP029

CYGK;2017-04-08 00:00;CYGK 080000Z 32014G21KT 15SM SCT035 BKN090 03/M03 A2963 RMK SC3AC3 SLP038

CYGK;2017-04-08 01:00;CYGK 080100Z 31014G22KT 15SM BKN045 BKN090 03/M03 A2966 RMK SC6AC1 SLP048

CYGK;2017-04-08 02:00;CYGK 080200Z 31012G17KT 15SM BKN050 02/M03 A2967 RMK SC7 SLP054

CYGK;2017-04-08 03:00;CYGK 080300Z 31010G18KT 15SM BKN046 02/M04 A2969 RMK SC7 LAST STFD OBS / NEXT 081000 UTC SLP059

CYGK;2017-04-08 10:00;CYGK 081000Z 31010KT 15SM FEW100 M02/M06 A2979 RMK AC1 AC TR SLP093

CYGK;2017-04-08 11:00;CYGK 081100Z 30008KT 15SM FEW080 M02/M06 A2982 RMK AC1 AC TR SLP103

CYGK;2017-04-08 12:00;CYGK 081200Z 30008G15KT 15SM FEW080 M00/M06 A2985 RMK AC1 AC TR SLP113

CYGK;2017-04-08 13:00;CYGK 081300Z 31013KT 15SM FEW080 01/M05 A2987 RMK AC1 SLP119

CYGK;2017-04-08 14:00;CYGK 081400Z 32012G20KT 15SM FEW025 FEW080 03/M05 A2987 RMK CU1AC1 AC TR SLP122

CYGK;2017-04-08 15:00;CYGK 081500Z 30010G18KT 15SM FEW035 SCT250 04/M04 A2989 RMK SC2CI2 SLP127

CYGK;2017-04-08 16:00;CYGK 081600Z 32010G20KT 280V350 15SM FEW040 FEW240 05/M03 A2990 RMK CU1CI1 SLP128

CYGK;2017-04-08 17:00;CYGK 081700Z 31013G21KT 15SM FEW040 SCT250 07/M03 A2989 RMK SC1CI2 SLP126

CYGK;2017-04-08 18:00;CYGK 081800Z 33014G19KT 290V010 15SM FEW040 FEW240 08/M04 A2988 RMK CU1CI1 CU TR SLP123

CYGK;2017-04-08 19:00;CYGK 081900Z 28011G17KT 260V320 15SM FEW040 FEW250 09/M04 A2988 RMK CU1CI1 CU TR SLP122

CYGK;2017-04-08 20:00;CYGK 082000Z 33017KT 15SM FEW250 10/M04 A2987 RMK CI1 CI TR SLP120

CYGK;2017-04-08 21:00;CYGK 082100Z 32011G17KT 270V330 15SM FEW250 11/M06 A2988 RMK CI1 CI TR SLP122

CYGK;2017-04-08 22:00;CYGK 082200Z 24015KT 15SM SKC 08/M02 A2988 RMK SLP123

CYGK;2017-04-08 23:00;CYGK 082300Z 25010KT 15SM FEW250 08/M03 A2990 RMK CI1 CI TR SLP128

CYGK;2017-04-09 00:00;CYGK 090000Z 25010KT 15SM FEW250 05/M02 A2991 RMK CI1 CI TR SLP134

CYGK;2017-04-09 01:00;CYGK 090100Z 24007KT 15SM SKC 05/M02 A2994 RMK SLP144

CYGK;2017-04-09 02:00;CYGK 090200Z 27008KT 15SM SKC 06/M04 A2995 RMK SLP147

CYGK;2017-04-09 03:00;CYGK 090300Z 28005KT 15SM SKC 04/M04 A2996 RMK LAST STFD OBS / NEXT 091000 UTC SLP150

CYGK;2017-04-09 10:00;CYGK 091000Z 20004KT 15SM FEW070 00/M01 A3003 RMK AC1 AC TR SLP173

CYGK;2017-04-09 11:00;CYGK 091100Z 19005KT 15SM FEW030 01/M00 A3004 RMK SC1 SC TR SLP179

CYGK;2017-04-09 12:00;CYGK 091200Z 18008KT 15SM FEW250 03/01 A3007 RMK CI1 SLP186

CYGK;2017-04-09 13:00;CYGK 091300Z 18008KT 15SM BKN250 04/01 A3007 RMK CI5 SLP188

CYGK;2017-04-09 14:00;CYGK 091400Z 18009KT 15SM FEW120 SCT250 04/01 A3007 RMK AC1CI4 AC TR SLP189

CYGK;2017-04-09 15:00;CYGK 091500Z 17006KT 15SM FEW120 BKN250 05/01 A3007 RMK AC1CI6 AC TR SLP189

CYGK;2017-04-09 16:00;CYGK 091600Z 18008KT 15SM FEW120 SCT250 06/01 A3006 RMK AC1CI4 AC TR SLP185

CYGK;2017-04-09 17:00;CYGK 091700Z 20007KT 15SM FEW150 BKN250 08/01 A3006 RMK AC2CI5 SLP182

CYGK;2017-04-09 18:00;CYGK 091800Z 19009KT 15SM FEW090 BKN220 09/02 A3004 RMK AC2CI4 SLP176

CYGK;2017-04-09 19:00;CYGK 091900Z 19007KT 15SM FEW090 OVC250 09/02 A3002 RMK AC2CI6 SLP170

CYGK;2017-04-09 20:00;CYGK 092000Z 20007KT 15SM FEW090 FEW120 OVC240 10/02 A3001 RMK AC1AC1CI7 AC TR SLP165

CYGK;2017-04-09 21:00;CYGK 092100Z 19008KT 15SM BKN140 OVC250 09/01 A2998 RMK AC5CI3 SLP158

CYGK;2017-04-09 22:00;CYGK 092200Z 17009KT 15SM SCT150 BKN250 10/01 A2997 RMK AC4CI3 SLP152

CYGK;2017-04-09 23:00;CYGK 092300Z 19005KT 15SM BKN130 BKN250 10/00 A2996 RMK AC5CI2 SLP149

CYGK;2017-04-10 00:00;CYGK 100000Z 20004KT 15SM FEW120 SCT160 BKN250 09/M01 A2995 RMK AC2AC2CI2 SLP145

CYGK;2017-04-10 01:00;CYGK 100100Z 21006KT 15SM FEW160 SCT250 09/00 A2994 RMK AC2CI2 SLP144

CYGK;2017-04-10 02:00;CYGK 100200Z 21007KT 15SM FEW150 SCT250 09/01 A2994 RMK AC1CI2 SLP143

CYGK;2017-04-10 03:00;CYGK 100300Z 17008KT 15SM FEW250 08/01 A2994 RMK CI1 LAST STFD OBS/NEXT 101000 UTC SLP142

CYGK;2017-04-10 10:00;CYGK 101000Z 19006KT 15SM FEW180 BKN250 08/01 A2994 RMK AC1CI6 SLP141

CYGK;2017-04-10 11:00;CYGK 101100Z 21007KT 15SM FEW180 BKN220 07/01 A2994 RMK AC1CI6 SLP142

CYGK;2017-04-10 12:00;CYGK 101200Z 19008KT 15SM FEW180 FEW220 BKN250 09/02 A2994 RMK AC1CI2CI5 AC TR SLP143

CYGK;2017-04-10 13:00;CYGK 101300Z 21009KT 15SM FEW180 BKN220 10/02 A2994 RMK CI2CI4 SLP143

CYGK;2017-04-10 14:00;CYGK 101400Z 20008KT 15SM BKN250 12/03 A2995 RMK CI6 SLP145

CYGK;2017-04-10 15:00;CYGK 101500Z 21010KT 15SM BKN250 13/03 A2993 RMK CI6 SLP140

CYGK;2017-04-10 16:00;CYGK 101600Z 23010G16KT 15SM BKN250 15/03 A2992 RMK CI7 SLP136

CYGK;2017-04-10 17:00;CYGK 101700Z 23008KT 15SM BKN250 16/04 A2993 RMK CI7 SLP137 DENSITY ALT 400FT

CYGK;2017-04-10 18:00;CYGK 101800Z 20014KT 15SM BKN250 16/05 A2991 RMK CI6 SLP130 DENSITY ALT 500FT

CYGK;2017-04-10 19:00;CYGK 101900Z 20012KT 15SM BKN250 18/06 A2988 RMK CI6 PRESFR SLP121 DENSITY ALT 700FT

CYGK;2017-04-10 20:00;CYGK 102000Z 21009KT 15SM FEW170 BKN250 19/08 A2989 RMK AC1CI5 SLP124 DENSITY ALT 800FT

CYGK;2017-04-10 21:00;CYGK 102100Z 24014KT 15SM VCSH OVC070 18/07 A2994 RMK AC8 LTGCG NORTH PRESRR SLP140 DENSITY ALT 600FT

CYGK;2017-04-10 22:00;CYGK 102200Z 23013KT 15SM VCSH SCT060 OVC120 17/08 A2992 RMK CU4AC4 SLP133 DENSITY ALT 500FT

CYGK;2017-04-10 23:00;CYGK 102300Z 25007KT 15SM FEW060 BKN090 OVC180 16/08 A2992 RMK CU2AC4AC2 SLP133 DENSITY ALT 400FT

CYGK;2017-04-11 00:00;CYGK 110000Z 25004KT 15SM SCT060 BKN100 OVC250 15/07 A2993 RMK CU4AC2CI2 SLP138

CYGK;2017-04-11 01:00;CYGK 110100Z 25005KT 15SM FEW060 SCT100 BKN250 16/09 A2995 RMK SC2AC2CI2 SLP143 DENSITY ALT 400FT

CYGK;2017-04-11 02:00;CYGK 110200Z 25003KT 15SM FEW100 SCT250 08/05 A2997 RMK AC2CI2 SLP151

CYGK;2017-04-11 03:00;CYGK 110300Z 14005KT 15SM BKN250 08/05 A2996 RMK CS6 LAST STFD OBS/NEXT 111000 UTC SLP148

CYGK;2017-04-11 10:00;CYGK 111000Z 10003KT 1 1/2SM BR SCT008 BKN120 09/08 A3000 RMK SF3AC3 SLP161

CYGK;2017-04-11 10:17;CYGK 111017Z 12003KT 3/4SM BR SCT008 BKN120 09/09 A3000 RMK SF3AC3 SLP162

CYGK;2017-04-11 10:29;CYGK 111029Z 10003KT 1/4SM FG VV002 09/08 A3000 RMK FG8 SLP161

CYGK;2017-04-11 10:35;CYGK 111035Z 08003KT 1/8SM FG VV001 09/08 A3000 RMK FG8 SLP161

CYGK;2017-04-11 11:00;CYGK 111100Z 00000KT 1/8SM FG VV001 09/09 A3001 RMK FG8 SLP163

CYGK;2017-04-11 11:43;CYGK 111143Z 12003KT 3/8SM BR BKN038 BKN130 10/10 A3001 RMK FG3SC2AC2 SLP165

CYGK;2017-04-11 11:50;CYGK 111150Z 11002KT 5/8SM BR BKN038 BKN120 10/10 A3001 RMK FG3SC2AC2 SLP166

CYGK;2017-04-11 12:00;CYGK 111200Z 10003KT 1SM BR SCT002 BKN038 BKN120 10/10 A3001 RMK SF3SC2AC2 SLP163

CYGK;2017-04-11 12:09;CYGK 111209Z 11002KT 1 3/4SM BR SCT003 BKN038 BKN120 11/10 A3001 RMK SF4SC2AC1 SLP165

CYGK;2017-04-11 12:24;CYGK 111224Z 00000KT 3SM BR SCT002 BKN031 BKN120 11/11 A3003 RMK SF3SC3AC1 PRESRR SLP170

CYGK;2017-04-11 13:00;CYGK 111300Z 15004KT 070V170 3SM BR VCFG FEW002 SCT030 SCT120 BKN220 12/11 A3003 RMK SF2SC1AC1CI2 SLP170

CYGK;2017-04-11 13:07;CYGK 111307Z 16005KT 110V170 1/2SM FG BKN002 BKN120 12/11 A3003 RMK FG4SF2AC1 PRESRR SLP171

CYGK;2017-04-11 13:17;CYGK 111317Z 16005KT 1SM BR PRFG SCT002 BKN028 BKN200 11/10 A3003 RMK SF3SC2CI1 VIS LWR W SLP173

CYGK;2017-04-11 13:24;CYGK 111324Z 15005KT 5/8SM BR BKN002 BKN028 BKN200 11/10 A3003 RMK FG4ST1SC1CI1 SLP172

CYGK;2017-04-11 13:40;CYGK 111340Z 14003KT 1SM BR SCT002 BKN028 BKN200 10/10 A3004 RMK FG2SF2SC1CI1 SLP175

CYGK;2017-04-11 13:45;CYGK 111345Z VRB02KT 4SM BR SCT002 BKN028 BKN200 10/10 A3004 RMK FG1SF2SC2CI1 SLP177

CYGK;2017-04-11 14:00;CYGK 111400Z VRB02KT 12SM FEW002 SCT028 BKN120 BKN200 12/11 A3005 RMK SF2SC2AC1CI1 SLP178

CYGK;2017-04-11 14:51;CYGK 111451Z 35011KT 10SM BKN006 BKN025 BKN220 12/10 A3005 RMK SF5SC1CI1 SC TR WSHFT 1428 SLP180

CYGK;2017-04-11 15:00;CYGK 111500Z 35012KT 10SM BKN006 BKN025 BKN220 11/10 A3005 RMK SF5SC1CI1 SLP179

CYGK;2017-04-11 16:00;CYGK 111600Z 01007KT 10SM BKN007 OVC012 10/09 A3007 RMK SF6SC2 SLP188

CYGK;2017-04-11 17:00;CYGK 111700Z 34006KT 12SM FEW006 SCT015 OVC180 10/08 A3009 RMK SF2SC2AC4 SLP194

CYGK;2017-04-11 17:18;CYGK 111718Z 35005KT 12SM BKN007 OVC055 10/08 A3008 RMK SF7SC1 SLP188

CYGK;2017-04-11 18:00;CYGK 111800Z 34006KT 12SM BKN007 OVC050 10/08 A3009 RMK SF7SC1 SLP192

CYGK;2017-04-11 18:47;CYGK 111847Z 02004KT 010V080 12SM SCT007 OVC041 10/08 A3009 RMK SF3SC5 SLP193

CYGK;2017-04-11 19:00;CYGK 111900Z 02004KT 12SM FEW007 OVC042 10/08 A3009 RMK SF2SC6 SLP194

CYGK;2017-04-11 19:32;CYGK 111932Z 02005KT 12SM -RA FEW007 OVC044 10/08 A3008 RMK SF2SC6 SLP191

CYGK;2017-04-11 20:00;CYGK 112000Z 03004KT 12SM -RA FEW007 OVC041 10/08 A3008 RMK SF1SC7 SLP191

CYGK;2017-04-11 20:14;CYGK 112014Z 03004KT 350V060 12SM FEW007 OVC038 09/08 A3009 RMK SF1SC7 SLP194

CYGK;2017-04-11 20:25;CYGK 112025Z 01003KT 330V070 10SM -RA FEW007 OVC035 09/08 A3009 RMK SF1SC7 SLP193

CYGK;2017-04-11 21:00;CYGK 112100Z 07004KT 8SM -RA FEW007 OVC030 09/08 A3010 RMK SF1SC7 SLP197

CYGK;2017-04-11 21:48;CYGK 112148Z 02006KT 12SM FEW005 BKN022 OVC030 09/08 A3009 RMK SF1SC4SC3 SLP192

CYGK;2017-04-11 22:00;CYGK 112200Z 05007KT 10SM FEW005 SCT022 BKN030 OVC150 09/08 A3008 RMK SF1SC3SC3AC1 SLP191

CYGK;2017-04-11 23:00;CYGK 112300Z 06007KT 12SM FEW005 FEW021 SCT030 OVC240 09/08 A3007 RMK SF1SC1SC2CI5 SF TR SLP188

CYGK;2017-04-12 00:05;CYGK 120005Z 04007KT 10SM BKN007 OVC028 09/08 A3007 RMK SF6SC2 SLP187

CYGK;2017-04-12 01:00;CYGK 120100Z 06007KT 12SM BKN007 OVC240 08/08 A3007 RMK SF5CI3 SLP186

CYGK;2017-04-12 02:00;CYGK 120200Z 06006KT 12SM BKN006 BKN042 OVC240 08/07 A3006 RMK SF5SC1CI2 SLP183

CYGK;2017-04-12 03:00;CYGK 120300Z 06005KT 8SM OVC005 08/08 A3005 RMK SF8 LAST STFD OBS/NEXT 121000 UTC SLP180

CYGK;2017-04-12 10:00;CYGK 121000Z 25008KT 15SM FEW008 BKN034 07/04 A3013 RMK SF1SC7 SF TR SLP206

CYGK;2017-04-12 11:00;CYGK 121100Z 24005KT 15SM FEW008 SCT016 BKN025 07/04 A3015 RMK SF1SC3SC4 SF TR SLP215

CYGK;2017-04-12 11:13;CYGK 121113Z 26005KT 12SM -RA FEW008 BKN013 BKN025 07/05 A3016 RMK SF1SC5SC2 SF TR SLP217

CYGK;2017-04-12 12:00;CYGK 121200Z 26010KT 6SM -RA BR BKN011 BKN020 06/05 A3018 RMK SC5SC2 SLP226

CYGK;2017-04-12 12:07;CYGK 121207Z 28008KT 15SM VCSH FEW008 SCT011 BKN024 06/05 A3019 RMK SF1SC3SC3 PRESRR SLP228

CYGK;2017-04-12 13:00;CYGK 121300Z 27015KT 15SM FEW008 BKN035 BKN120 BKN220 07/ A3019 RMK SF1SC5AC1CI1 AC TR ALTIMETER 30.19 VIA CYXU SLP227

CYGK;2017-04-12 14:00;CYGK 121400Z 27010KT 15SM SCT023 BKN250 07/M13 A3020 RMK SC4CI3 WND EST VIA CYXU SLP232

CYGK;2017-04-12 15:00;CYGK 121500Z 27015KT 15SM SCT030 BKN220 08/M14 A3021 RMK SC3CI3 WND ESTD VIA CYXU SLP233

CYGK;2017-04-12 16:00;CYGK 121600Z 24015G22KT 15SM BKN032 BKN250 08/01 A3021 RMK SC5CI1 SLP232

CYGK;2017-04-12 17:00;CYGK 121700Z 24015G21KT 15SM BKN033 BKN220 08/01 A3021 RMK SC7CI1 CI TR SLP234

CYGK;2017-04-12 18:00;CYGK 121800Z 24013G19KT 15SM BKN032 OVC220 07/01 A3022 RMK SC7CI1 SLP238

CYGK;2017-04-12 19:00;CYGK 121900Z 24014G20KT 15SM BKN030 07/01 A3023 RMK SC7 SLP241

CYGK;2017-04-12 20:00;CYGK 122000Z 25011G17KT 15SM BKN032 OVC220 06/01 A3023 RMK SC7CI1 SLP242

CYGK;2017-04-12 21:00;CYGK 122100Z 24012G20KT 15SM BKN030 OVC046 07/01 A3024 RMK SC5SC3 SLP244

CYGK;2017-04-12 22:00;CYGK 122200Z 24012G18KT 15SM BKN029 OVC036 06/01 A3025 RMK SC5SC3 SLP248

CYGK;2017-04-12 23:00;CYGK 122300Z 26011G17KT 15SM OVC037 07/02 A3027 RMK SC8 SLP253

CYGK;2017-04-13 00:00;CYGK 130000Z 28011G17KT 15SM OVC034 06/00 A3028 RMK SC8 SLP259

CYGK;2017-04-13 01:00;CYGK 130100Z 27012G22KT 15SM BKN047 05/M01 A3031 RMK SC7 SLP269

CYGK;2017-04-13 02:00;CYGK 130200Z 27011G17KT 15SM BKN034 05/M01 A3034 RMK SC7 SLP277

CYGK;2017-04-13 03:00;CYGK 130300Z 26008KT 15SM SCT040 BKN054 04/M01 A3035 RMK SC3SC3 LAST STFD OBS/NEXT 131000 UTC SLP282

CYGK;2017-04-13 10:00;CYGK 131000Z 29007KT 15SM FEW060 FEW250 01/M02 A3039 RMK SC1CI2 SC TR SLP297

CYGK;2017-04-13 11:00;CYGK 131100Z 28005KT 15SM FEW060 FEW250 01/M01 A3041 RMK SC1CI2 SC TR SLP303

CYGK;2017-04-13 12:00;CYGK 131200Z 28007KT 15SM FEW250 03/M01 A3043 RMK CI2 SLP310

CYGK;2017-04-13 13:00;CYGK 131300Z 31008KT 15SM FEW015 FEW250 05/M00 A3045 RMK CF1CI2 CF TR SLP316

CYGK;2017-04-13 14:00;CYGK 131400Z 31006KT 280V350 15SM FEW030 FEW250 08/M02 A3046 RMK CU1CI1 CU TR SLP319

CYGK;2017-04-13 15:00;CYGK 131500Z 34005KT 15SM FEW030 FEW250 09/M02 A3045 RMK CF1CI2 CF TR SLP317

CYGK;2017-04-13 16:00;CYGK 131600Z 17010KT 15SM FEW040 FEW250 08/00 A3045 RMK CF1CI1 CF TR SLP316

CYGK;2017-04-13 17:00;CYGK 131700Z 19013KT 15SM FEW030 BKN250 07/02 A3043 RMK CF1CI5 CF TR SLP309

CYGK;2017-04-13 18:00;CYGK 131800Z 20014G19KT 15SM FEW030 BKN250 08/01 A3043 RMK CF1CI5 CF TR SLP308

CYGK;2017-04-13 19:00;CYGK 131900Z 20014KT 15SM FEW030 BKN250 09/02 A3041 RMK CF1CI5 CF TR SLP304

CYGK;2017-04-13 20:00;CYGK 132000Z 19013KT 15SM BKN250 08/02 A3040 RMK CI6 SLP298

CYGK;2017-04-13 21:00;CYGK 132100Z 19010G16KT 15SM BKN250 08/02 A3039 RMK CI5 SLP296

CYGK;2017-04-13 22:00;CYGK 132200Z 19009KT 15SM SCT250 07/01 A3038 RMK CI4 SLP294

CYGK;2017-04-13 23:00;CYGK 132300Z 19010KT 15SM FEW250 06/01 A3038 RMK CI2 SLP291

CYGK;2017-04-14 00:00;CYGK 140000Z 21007KT 15SM FEW250 05/00 A3038 RMK CI2 SLP292

CYGK;2017-04-14 01:00;CYGK 140100Z 20008KT 15SM FEW250 04/01 A3039 RMK CI2 SLP297

CYGK;2017-04-14 02:00;CYGK 140200Z 19007KT 15SM FEW250 03/01 A3039 RMK CI1 SLP297

CYGK;2017-04-14 03:00;CYGK 140300Z VRB02KT 15SM FEW250 02/01 A3039 RMK CI1 LAST STFD OBS/NEXT 141000 UTC SLP295

CYGK;2017-04-14 10:00;CYGK 141000Z 35003KT 15SM FEW250 M01/M01 A3041 RMK CI1 SLP303

CYGK;2017-04-14 11:00;CYGK 141100Z 36003KT 15SM FEW250 M01/M01 A3043 RMK CI1 SLP309

CYGK;2017-04-14 12:00;CYGK 141200Z 36002KT 15SM FEW250 02/02 A3044 RMK CI1 SLP312

CYGK;2017-04-14 13:00;CYGK 141300Z 00000KT 15SM FEW250 06/M01 A3045 RMK CI1 SLP317

CYGK;2017-04-14 14:00;CYGK 141400Z 16006KT 15SM FEW250 06/M01 A3046 RMK CI1 SLP320

CYGK;2017-04-14 15:00;CYGK 141500Z 16006KT 15SM FEW250 06/M00 A3046 RMK CI1 CI TR SLP321

CYGK;2017-04-14 16:00;CYGK 141600Z 18006KT 15SM FEW030 FEW250 07/M00 A3045 RMK CU1CI2 CU TR SLP316

CYGK;2017-04-14 17:00;CYGK 141700Z 17006KT 15SM FEW030 FEW250 08/M01 A3043 RMK CF1CI1 CF TR SLP310

CYGK;2017-04-14 18:00;CYGK 141800Z 18008KT 15SM FEW040 FEW250 10/M01 A3041 RMK CU1CI2 CU TR SLP304

CYGK;2017-04-14 19:00;CYGK 141900Z 19009KT 15SM FEW040 FEW250 10/M02 A3040 RMK CF1CI1 CF TR SLP299

CYGK;2017-04-14 20:00;CYGK 142000Z 19009KT 15SM FEW250 11/M02 A3038 RMK CI1 SLP293

CYGK;2017-04-14 21:00;CYGK 142100Z 21008KT 15SM FEW040 FEW250 11/M02 A3037 RMK CF1CI1 CF TR SLP289

CYGK;2017-04-14 22:00;CYGK 142200Z 21007KT 15SM FEW250 11/M02 A3037 RMK CI2 SLP289

CYGK;2017-04-14 23:00;CYGK 142300Z 22005KT 15SM SCT250 10/M03 A3035 RMK CI3 SLP284

CYGK;2017-04-15 00:00;CYGK 150000Z VRB02KT 15SM SCT250 07/M02 A3034 RMK CI3 SLP280

CYGK;2017-04-15 01:00;CYGK 150100Z 00000KT 15SM SCT250 06/M02 A3035 RMK CI3 SLP284

CYGK;2017-04-15 02:00;CYGK 150200Z 20002KT 15SM FEW250 05/M03 A3035 RMK CI2 SLP284

CYGK;2017-04-15 03:00;CYGK 150300Z 03003KT 15SM SKC 03/M03 A3034 RMK LAST STFD OBS/NEXT 151000 UTC SLP279

CYGK;2017-04-15 10:00;CYGK 151000Z 02004KT 15SM FEW250 M00/M02 A3021 RMK CI2 SLP235

CYGK;2017-04-15 11:00;CYGK 151100Z 03004KT 15SM SCT250 01/M02 A3020 RMK CI3 SLP232

CYGK;2017-04-15 12:00;CYGK 151200Z 06004KT 15SM SCT250 06/01 A3020 RMK CI3 SLP231

CYGK;2017-04-15 13:00;CYGK 151300Z 16005KT 15SM BKN250 08/M00 A3018 RMK CI5 SLP225

CYGK;2017-04-15 14:00;CYGK 151400Z 19005KT 15SM BKN240 08/00 A3017 RMK CI7 SLP220

CYGK;2017-04-15 15:00;CYGK 151500Z 19004KT 15SM SCT180 OVC230 09/01 A3015 RMK AC3CI5 SLP213

CYGK;2017-04-15 16:00;CYGK 151600Z 19007KT 15SM SCT080 OVC200 10/02 A3012 RMK AC4CI4 SLP203

CYGK;2017-04-15 17:00;CYGK 151700Z 23005KT 10SM -RA SCT065 OVC080 09/03 A3011 RMK SC4AC4 SLP200

CYGK;2017-04-15 18:00;CYGK 151800Z 20007KT 6SM -RA BR FEW045 OVC070 08/06 A3009 RMK CU2AC6 SLP195

CYGK;2017-04-15 19:00;CYGK 151900Z 17006KT 3SM -RA BR SCT024 OVC031 07/05 A3005 RMK SF3NS5 PRESFR SLP180

CYGK;2017-04-15 19:14;CYGK 151914Z 19007KT 3SM -RA BR BKN012 OVC026 07/06 A3004 RMK SF5NS3 SLP179

CYGK;2017-04-15 20:00;CYGK 152000Z 20007KT 2SM -RA BR OVC012 07/06 A3002 RMK SF8 SLP171

CYGK;2017-04-15 20:11;CYGK 152011Z 20004KT 1SM -RA BR BKN013 OVC024 07/06 A3002 RMK FG2SF5NS1 SLP170

CYGK;2017-04-15 20:42;CYGK 152042Z 17006KT 1 1/2SM BR SCT013 OVC024 07/07 A2998 RMK SF4SC4 VIS S 1/2 SLP159

CYGK;2017-04-15 21:00;CYGK 152100Z 15008KT 1SM BR OVC024 07/07 A2996 RMK SC8 VIS S 1/2 PRESFR SLP150

CYGK;2017-04-15 21:12;CYGK 152112Z 15006KT 3/4SM BR OVC025 08/07 A2995 RMK FG4SC4 VIS S-NW 1/4 PRESFR SLP146

CYGK;2017-04-15 21:21;CYGK 152121Z 15007KT 1/2SM FG VV002 08/07 A2994 RMK FG8 PRESFR SLP143

CYGK;2017-04-15 21:32;CYGK 152132Z 15008KT 1/4SM FG VV001 08/07 A2993 RMK FG8 PRESFR SLP138

CYGK;2017-04-15 22:03;CYGK 152203Z 16010KT 1/4SM FG OVC023 08/08 A2990 RMK FG6SC2 SLP130

CYGK;2017-04-15 22:32;CYGK 152232Z 19008KT 3/4SM BR OVC029 08/08 A2990 RMK FG5SC3 VIS SE-W 1/2 SLP129

CYGK;2017-04-15 22:39;CYGK 152239Z 19009KT 1 1/4SM BR SCT002 BKN026 OVC120 08/08 A2990 RMK SF3SC3AC2 SLP129

CYGK;2017-04-15 22:46;CYGK 152246Z 20008KT 2 1/2SM BR SCT024 OVC120 09/08 A2989 RMK SC4AC4 SLP127

CYGK;2017-04-15 23:00;CYGK 152300Z 25008KT 180V280 2 1/2SM BR SCT003 SCT030 OVC120 09/08 A2989 RMK SF3SC1AC4 SLP126

CYGK;2017-04-15 23:08;CYGK 152308Z 18011KT 160V280 3SM BR SCT002 OVC110 09/08 A2989 RMK SF3AC5 SLP127

CYGK;2017-04-16 00:00;CYGK 160000Z 21008KT 10SM FEW002 SCT085 OVC120 10/09 A2989 RMK SF1AC3AC5 SF TR SLP124

CYGK;2017-04-16 01:00;CYGK 160100Z 18008KT 10SM FEW085 OVC120 08/07 A2988 RMK AC2AC6 SLP123

CYGK;2017-04-16 02:00;CYGK 160200Z 17006KT 15SM OVC130 07/06 A2987 RMK AC8 SLP118

CYGK;2017-04-16 03:00;CYGK 160300Z 22003KT 12SM SCT075 OVC130 08/07 A2985 RMK AC4AC4 LAST STFD OBS / NEXT 161000 UTC SLP111

CYGK;2017-04-16 10:00;CYGK 161000Z 18005KT 15SM SCT100 SCT240 08/07 A2977 RMK AC4CI1 CI TR SLP086

CYGK;2017-04-16 11:00;CYGK 161100Z 17004KT 15SM SCT110 BKN240 07/06 A2978 RMK AC3CI2 SLP087

CYGK;2017-04-16 12:00;CYGK 161200Z 17004KT 140V230 15SM FEW075 SCT110 BKN210 10/07 A2978 RMK AC1AC3CI3 AC TR SLP088

CYGK;2017-04-16 13:00;CYGK 161300Z 16006KT 12SM SCT070 BKN180 BKN250 08/06 A2977 RMK CU3AC2CI2 SLP083

CYGK;2017-04-16 14:00;CYGK 161400Z 22007KT 15SM FEW050 BKN120 BKN220 14/10 A2975 RMK SC2AC3CI2 SLP079 DENSITY ALT 400FT

CYGK;2017-04-16 15:00;CYGK 161500Z 24014KT 12SM BKN070 BKN120 OVC250 17/10 A2973 RMK AC5AC1CI2 SLP072 DENSITY ALT 800FT

CYGK;2017-04-16 16:00;CYGK 161600Z 24009G15KT 14SM FEW090 SCT140 BKN220 19/10 A2971 RMK AC2AC1CI3 SLP063 DENSITY ALT 1000FT

CYGK;2017-04-16 17:00;CYGK 161700Z 18006KT 15SM FEW080 BKN140 OVC250 13/08 A2967 RMK AC2AC3CI3 SLP050 DENSITY ALT 400FT

CYGK;2017-04-16 17:48;CYGK 161748Z 24006KT 180V260 15SM -RA FEW035 BKN070 OVC140 12/08 A2967 RMK CF1AC6AC2 CF TR SLP051

CYGK;2017-04-16 18:00;CYGK 161800Z 24009KT 15SM -RA SCT055 OVC070 14/10 A2967 RMK SC3AC5 SLP050 DENSITY ALT 500FT

CYGK;2017-04-16 18:35;CYGK 161835Z 24014G21KT 15SM SCT060 OVC095 15/10 A2965 RMK SC4AC4 SLP045 DENSITY ALT 600FT

CYGK;2017-04-16 19:00;CYGK 161900Z 24017G27KT 15SM FEW060 BKN090 BKN250 17/11 A2964 RMK SC2AC3CI2 SLP040 DENSITY ALT 900FT

CYGK;2017-04-16 20:00;CYGK 162000Z 25019G30KT 15SM FEW050 SCT088 BKN240 17/10 A2964 RMK SC2AC2CI1 SLP039 DENSITY ALT 800FT

CYGK;2017-04-16 21:00;CYGK 162100Z 25009G15KT 15SM SCT039 BKN070 BKN250 19/11 A2967 RMK CU3AC2CI1 CI TR SLP048 DENSITY ALT 1000FT

CYGK;2017-04-16 22:00;CYGK 162200Z 28015G24KT 15SM SCT040 SCT250 21/12 A2970 RMK SC3CI1 CI TR SLP058 DENSITY ALT 1200FT

CYGK;2017-04-16 23:00;CYGK 162300Z 24007G16KT 220V300 15SM BKN040 BKN063 19/12 A2972 RMK SC5SC2 SLP065 DENSITY ALT 1000FT

CYGK;2017-04-17 00:00;CYGK 170000Z 24005KT 15SM BKN036 BKN250 14/10 A2974 RMK SC6CI1 SLP073 DENSITY ALT 500FT

CYGK;2017-04-17 01:00;CYGK 170100Z 28011G17KT 15SM SCT034 SCT050 17/12 A2976 RMK SC3SC1 SLP081 DENSITY ALT 800FT

CYGK;2017-04-17 02:00;CYGK 170200Z 29016KT 250V310 15SM SKC 16/11 A2978 RMK SLP087 DENSITY ALT 600FT

CYGK;2017-04-17 03:00;CYGK 170300Z 29008KT 15SM BKN090 15/10 A2980 RMK AC6 LAST STFD OBS / NEXT 171000 UTC SLP092 DENSITY ALT 400FT

CYGK;2017-04-17 10:00;CYGK 171000Z 27007KT 12SM FEW024 SCT240 08/05 A2992 RMK SC2CI2 SLP133

CYGK;2017-04-17 11:00;CYGK 171100Z 29009KT 15SM FEW024 SCT240 08/05 A2993 RMK SC2CI1 SLP137

CYGK;2017-04-17 12:00;CYGK 171200Z 28010G15KT 15SM FEW024 SCT240 10/04 A2996 RMK SC2CI1 SLP149

CYGK;2017-04-17 13:00;CYGK 171300Z 29013G19KT 15SM SCT030 SCT240 10/03 A2999 RMK SC3CI1 SLP159

CYGK;2017-04-17 14:00;CYGK 171400Z 31011G17KT 15SM BKN030 BKN240 11/03 A3001 RMK SC5CI1 SLP163

CYGK;2017-04-17 15:00;CYGK 171500Z 35013G19KT 290V360 15SM FEW023 BKN035 BKN240 09/04 A3003 RMK SC1SC6CI1 CI TR SLP173

CYGK;2017-04-17 16:00;CYGK 171600Z 31011G17KT 15SM SCT024 BKN038 09/03 A3006 RMK CU4SC2 SLP182

CYGK;2017-04-17 17:00;CYGK 171700Z 29013G19KT 15SM BKN042 10/01 A3007 RMK SC7 SLP185

CYGK;2017-04-17 18:00;CYGK 171800Z 31009G16KT 280V340 15SM BKN044 12/03 A3007 RMK SC5 SLP186

CYGK;2017-04-17 19:00;CYGK 171900Z 32008KT 250V360 15SM BKN040 11/02 A3007 RMK SC6 SLP186

CYGK;2017-04-17 20:00;CYGK 172000Z 31010G17KT 15SM BKN050 11/01 A3008 RMK SC6 SLP190

CYGK;2017-04-17 21:00;CYGK 172100Z 34008KT 15SM BKN050 10/00 A3010 RMK SC6 SLP197

CYGK;2017-04-17 22:00;CYGK 172200Z 35012KT 15SM BKN055 09/01 A3012 RMK SC6 SLP204

CYGK;2017-04-17 23:00;CYGK 172300Z 01011G17KT 15SM BKN047 08/M01 A3016 RMK SC7 SLP216

CYGK;2017-04-18 00:00;CYGK 180000Z 36012KT 15SM BKN045 07/M02 A3019 RMK SC6 SLP227

CYGK;2017-04-18 01:00;CYGK 180100Z 01010G16KT 15SM BKN050 05/M02 A3023 RMK SC5 SLP240

CYGK;2017-04-18 02:00;CYGK 180200Z 03008KT 15SM SCT050 03/M03 A3026 RMK SC4 SLP251

CYGK;2017-04-18 03:00;CYGK 180300Z 02009KT 15SM BKN043 03/M04 A3028 RMK SC5 LAST STFD OBS/NEXT 181000 UTC SLP257

CYGK;2017-04-18 10:00;CYGK 181000Z 36004KT 15SM FEW040 M02/M05 A3039 RMK SC1 SC TR SLP297

CYGK;2017-04-18 11:00;CYGK 181100Z 35004KT 15SM FEW040 FEW250 M02/M05 A3041 RMK SC1CI1 SC TR CI TR SLP303

CYGK;2017-04-18 12:00;CYGK 181200Z 35005KT 15SM SKC 02/M04 A3044 RMK SLP314

CYGK;2017-04-18 13:00;CYGK 181300Z 06004KT 350V070 15SM SKC 04/M04 A3046 RMK SLP318

CYGK;2017-04-18 14:00;CYGK 181400Z 10005KT 040V120 15SM FEW030 FEW250 05/M04 A3046 RMK CF1CI2 CF TR SLP322

CYGK;2017-04-18 15:00;CYGK 181500Z 16008KT 15SM FEW250 05/M03 A3047 RMK CI1 SLP325

CYGK;2017-04-18 16:00;CYGK 181600Z 14010KT 15SM FEW250 06/M03 A3046 RMK CI2 SLP320

CYGK;2017-04-18 17:00;CYGK 181700Z 17009KT 15SM FEW240 06/M03 A3045 RMK CI1 SLP316

CYGK;2017-04-18 18:00;CYGK 181800Z 16007KT 15SM SCT240 07/M03 A3044 RMK CI4 SLP314

CYGK;2017-04-18 19:00;CYGK 181900Z 18006KT 15SM SCT250 08/M03 A3042 RMK CI4 SLP307

CYGK;2017-04-18 20:00;CYGK 182000Z 17006KT 15SM SCT240 08/M04 A3041 RMK CI3 SLP301

CYGK;2017-04-18 21:00;CYGK 182100Z 14005KT 15SM BKN240 10/M03 A3039 RMK CI5 SLP296

CYGK;2017-04-18 22:00;CYGK 182200Z 15004KT 15SM SCT250 10/M04 A3038 RMK CI4 SLP291

CYGK;2017-04-18 23:00;CYGK 182300Z 18003KT 15SM SCT250 09/M04 A3036 RMK CI3 SLP287

CYGK;2017-04-19 00:00;CYGK 190000Z 15002KT 15SM BKN250 07/M04 A3035 RMK CI5 SLP284

CYGK;2017-04-19 01:00;CYGK 190100Z 08003KT 15SM BKN250 06/M02 A3035 RMK CI5 SLP281

CYGK;2017-04-19 02:00;CYGK 190200Z 00000KT 15SM BKN250 06/M02 A3035 RMK CI5 SLP282

CYGK;2017-04-19 03:00;CYGK 190300Z 07008KT 15SM FEW180 BKN230 06/M02 A3032 RMK AC2CI5 LAST STFD OBS/NEXT 191000 UTC PRESFR SLP274

CYGK;2017-04-19 10:00;CYGK 191000Z 15010KT 15SM BKN110 08/03 A3019 RMK AC7 SLP226

CYGK;2017-04-19 11:00;CYGK 191100Z 16008KT 15SM BKN110 07/03 A3018 RMK AC7 SLP225

CYGK;2017-04-19 12:00;CYGK 191200Z 15013KT 15SM BKN093 OVC110 07/03 A3016 RMK AC6AC2 SLP217

CYGK;2017-04-19 13:00;CYGK 191300Z 16018G25KT 15SM FEW020 BKN090 OVC120 07/03 A3014 RMK CF1AC7AC1 CF TR SLP212

CYGK;2017-04-19 13:20;CYGK 191320Z 16012G23KT 15SM -RA FEW020 BKN085 OVC120 08/03 A3014 RMK CF1AC6AC2 CF TR SLP210

CYGK;2017-04-19 14:00;CYGK 191400Z 15016G25KT 15SM -RA FEW020 BKN045 OVC080 07/03 A3011 RMK CU1SC5AC2 SLP201

CYGK;2017-04-19 14:53;CYGK 191453Z 16019KT 15SM VCSH BKN047 OVC080 07/04 A3009 RMK SC7AC1 SLP193

CYGK;2017-04-19 15:03;CYGK 191503Z 16018KT 15SM -RA BKN045 OVC080 07/04 A3009 RMK SC6AC2 SLP195

CYGK;2017-04-19 16:00;CYGK 191600Z 16010KT 4SM -RA BR OVC032 06/04 A3010 RMK SC8 SLP196

CYGK;2017-04-19 17:00;CYGK 191700Z 15010G17KT 6SM -RA BR OVC027 06/05 A3006 RMK SC8 PRESFR SLP182

CYGK;2017-04-19 17:21;CYGK 191721Z 16012KT 15SM BKN027 OVC031 07/05 A3005 RMK SC5SC3 SLP180

CYGK;2017-04-19 17:52;CYGK 191752Z 16013G20KT 15SM -SHRA FEW012 OVC033 07/06 A3004 RMK CU2SC6 SLP175

CYGK;2017-04-19 18:00;CYGK 191800Z 16015KT 15SM -SHRA FEW012 OVC032 07/06 A3003 RMK CU2SC6 SLP173

CYGK;2017-04-19 19:00;CYGK 191900Z 17019G29KT 12SM -SHRA FEW012 BKN031 OVC050 07/06 A3000 RMK CU1SC7SC1 CU TR SLP163

CYGK;2017-04-19 20:00;CYGK 192000Z 20009G16KT 4SM -SHRA BR FEW012 OVC027 07/06 A3001 RMK CU2SC6 SLP167

CYGK;2017-04-19 21:00;CYGK 192100Z 17014KT 4SM -SHRA BR FEW012 OVC017 07/06 A3001 RMK CU1SC7 SLP167

CYGK;2017-04-19 22:00;CYGK 192200Z 21008G15KT 160V230 5SM -SHRA BR FEW002 OVC019 07/06 A3003 RMK SF1SC8 SF TR SLP172

CYGK;2017-04-19 23:00;CYGK 192300Z 18006KT 12SM -SHRA FEW002 OVC018 07/06 A3003 RMK ST1SC8 ST TR SLP174

CYGK;2017-04-19 23:16;CYGK 192316Z 17006KT 15SM FEW003 OVC018 07/06 A3004 RMK SF1SC8 SF TR SLP177

CYGK;2017-04-20 00:00;CYGK 200000Z 15008KT 15SM OVC017 07/06 A3004 RMK SC8 SLP177

CYGK;2017-04-20 00:41;CYGK 200041Z 15009KT 15SM OVC014 07/06 A3005 RMK SC8 SLP179

CYGK;2017-04-20 01:00;CYGK 200100Z 16008KT 15SM OVC012 07/06 A3005 RMK SC8 SLP179

CYGK;2017-04-20 02:00;CYGK 200200Z 16004KT 060V190 10SM FEW005 OVC011 07/06 A3007 RMK SF1SC7 SLP187

CYGK;2017-04-20 03:00;CYGK 200300Z 15003KT 12SM BKN011 OVC040 07/06 A3008 RMK SC6SC2 LAST STFD OBS/NEXT 201000 UTC SLP190

CYGK;2017-04-20 10:00;CYGK 201000Z 03011G17KT 15SM BKN020 OVC035 06/02 A3018 RMK SC6SC2 SLP224

CYGK;2017-04-20 11:00;CYGK 201100Z 02013G18KT 15SM BKN020 BKN040 06/01 A3018 RMK SC6SC1 SLP226

CYGK;2017-04-20 12:00;CYGK 201200Z 03012G18KT 15SM BKN020 06/02 A3018 RMK SC7 SLP225

CYGK;2017-04-20 13:00;CYGK 201300Z 04012G18KT 15SM OVC019 06/02 A3019 RMK SC8 SLP228

CYGK;2017-04-20 14:00;CYGK 201400Z 05010G15KT 15SM OVC019 06/02 A3018 RMK SC8 PRESFR SLP226

CYGK;2017-04-20 15:00;CYGK 201500Z 02011G17KT 15SM OVC019 07/02 A3020 RMK SC8 SLP232

CYGK;2017-04-20 16:00;CYGK 201600Z 06016KT 15SM SCT021 BKN190 08/02 A3017 RMK SC3AS4 PRESFR SLP220

CYGK;2017-04-20 17:00;CYGK 201700Z 04012KT 15SM FEW022 BKN140 OVC240 08/03 A3017 RMK SC2AC5CI1 SLP219

CYGK;2017-04-20 18:00;CYGK 201800Z 05010G17KT 010V070 15SM VCSH SCT025 BKN090 OVC140 08/03 A3014 RMK SC3AS4AS1 SLP211

CYGK;2017-04-20 19:00;CYGK 201900Z 10013KT 15SM SCT025 OVC087 08/03 A3009 RMK SC4AC4 SLP195

CYGK;2017-04-20 19:25;CYGK 201925Z 08013G23KT 15SM -RA FEW025 BKN087 OVC220 08/03 A3007 RMK SC1AC6CI1 PRESFR SLP185

CYGK;2017-04-20 19:31;CYGK 201931Z 07014KT 15SM -RA FEW025 BKN083 OVC220 08/03 A3007 WS RWY07 RMK SC1AC6CI1 SLP188

CYGK;2017-04-20 20:00;CYGK 202000Z 06014G19KT 15SM -RA FEW025 BKN080 OVC220 08/03 A3007 RMK SC1AC6CI1 SLP185

CYGK;2017-04-20 20:28;CYGK 202028Z 05014G22KT 15SM FEW020 OVC076 08/03 A3006 RMK CU2AC6 SLP184

CYGK;2017-04-20 21:00;CYGK 202100Z 05016G23KT 15SM FEW020 OVC072 08/04 A3005 RMK CU2AC6 PRESFR SLP179

CYGK;2017-04-20 22:00;CYGK 202200Z 05011G18KT 15SM FEW020 OVC064 08/04 A3003 RMK CU2SC6 SLP173

CYGK;2017-04-20 23:00;CYGK 202300Z 06013G18KT 15SM FEW020 OVC068 08/04 A3001 RMK CU1AC8 CU TR SLP165

CYGK;2017-04-21 00:00;CYGK 210000Z 05016G21KT 15SM OVC070 08/04 A2999 RMK AC8 SLP159

CYGK;2017-04-21 00:28;CYGK 210028Z 06012G20KT 15SM -RA OVC064 08/04 A2998 RMK SC8 SLP158

CYGK;2017-04-21 01:00;CYGK 210100Z 06014G19KT 10SM -RA SCT045 OVC091 07/05 A2996 RMK SC4AC4 PRESFR SLP150

CYGK;2017-04-21 02:00;CYGK 210200Z 06014G19KT 8SM -RA OVC052 07/05 A2993 RMK SC8 SLP138

CYGK;2017-04-21 03:00;CYGK 210300Z 05014G19KT 8SM -RA OVC034 07/05 A2991 RMK SC8 LAST STFD OBS/NEXT 211000 UTC SLP133

CYGK;2017-04-21 10:00;CYGK 211000Z VRB04KT 6SM -DZ BR FEW002 OVC005 09/08 A2973 RMK SF2SF6 CIG RAG SLP071

CYGK;2017-04-21 11:03;CYGK 211103Z 18005KT 2SM -DZ BR OVC004 08/07 A2973 RMK SF8 SLP072

CYGK;2017-04-21 11:06;CYGK 211106Z 18005KT 1 1/2SM -DZ BR OVC003 08/07 A2973 RMK FG4SF4 SLP073

CYGK;2017-04-21 11:19;CYGK 211119Z 19009KT 3/4SM -DZ BR VV002 07/07 A2974 RMK FG8 SLP076

CYGK;2017-04-21 11:24;CYGK 211124Z 19012KT 1/4SM FG VV001 07/07 A2974 RMK FG8 INTMT -DZ SLP075

CYGK;2017-04-21 12:00;CYGK 211200Z 19014KT 1/8SM FG VV001 08/07 A2975 RMK FG8 SLP080

CYGK;2017-04-21 13:00;CYGK 211300Z 19014KT 1/8SM FG VV004 06/05 A2977 RMK FG8 SLP084

CYGK;2017-04-21 13:39;CYGK 211339Z 25009G15KT 210V280 1SM BR BKN004 08/08 A2977 RMK ST7 WSHFT 1326 SLP086

CYGK;2017-04-21 13:44;CYGK 211344Z 26009G15KT 3SM BR BKN004 09/08 A2978 RMK SF7 CIG RAG SLP087

CYGK;2017-04-21 14:00;CYGK 211400Z 26007KT 15SM BKN004 09/09 A2978 RMK SF7 VIS SE 5 CIG RAG SLP088

CYGK;2017-04-21 14:07;CYGK 211407Z 26009G16KT 12SM VCFG FEW004 BKN006 10/09 A2978 RMK SF2SC5 VIS SE 4 SLP088

CYGK;2017-04-21 14:40;CYGK 211440Z 28008G15KT 15SM FEW004 FEW008 SCT180 12/11 A2978 RMK SF1SC2AC1 SF TR VIS S 5 SLP086

CYGK;2017-04-21 15:00;CYGK 211500Z 27011G19KT 15SM FEW004 FEW008 SCT180 12/10 A2979 RMK SF1SC2AC1 SF TR VIS SE 5 SLP090

CYGK;2017-04-21 16:00;CYGK 211600Z 23013KT 15SM FEW008 FEW060 11/09 A2980 RMK CF1SC1 SLP094

CYGK;2017-04-21 17:00;CYGK 211700Z 24014KT 15SM FEW010 BKN063 12/08 A2981 RMK CF1SC6 SLP097

CYGK;2017-04-21 18:00;CYGK 211800Z 24013G19KT 15SM FEW020 BKN050 12/07 A2981 RMK CU1SC6 SLP098

CYGK;2017-04-21 19:00;CYGK 211900Z 24014G23KT 15SM SCT020 OVC047 11/07 A2981 RMK CU3SC5 SLP099

CYGK;2017-04-21 20:00;CYGK 212000Z 23016G23KT 12SM SCT020 BKN067 11/07 A2983 RMK CU3AC4 SLP104

CYGK;2017-04-21 21:00;CYGK 212100Z 23012KT 15SM FEW020 OVC059 10/07 A2981 RMK CU2SC6 SLP100

CYGK;2017-04-21 22:00;CYGK 212200Z 23010G16KT 15SM VCSH SCT020 BKN040 BKN076 10/06 A2984 RMK CU3SC2AC2 SLP110

CYGK;2017-04-21 22:20;CYGK 212220Z 24009G16KT 12SM -SHRA FEW020 BKN045 BKN070 09/06 A2985 RMK CU2SC3AC2 SLP113

CYGK;2017-04-21 23:00;CYGK 212300Z 23006KT 15SM VCSH SCT020 BKN058 OVC070 08/06 A2987 RMK CU3SC3AC2 SLP117

CYGK;2017-04-22 00:00;CYGK 220000Z 24010KT 15SM FEW020 OVC064 07/05 A2989 RMK CU2SC6 SLP124

CYGK;2017-04-22 01:00;CYGK 220100Z 24007KT 15SM OVC082 07/05 A2990 RMK AC8 SLP131

CYGK;2017-04-22 02:00;CYGK 220200Z 28010KT 15SM SCT060 OVC080 08/03 A2992 RMK SC4AC4 SLP136

CYGK;2017-04-22 03:00;CYGK 220300Z 28009G15KT 15SM SCT060 OVC076 08/03 A2993 RMK SC4AC4 LAST STFD OBS/NEXT 221000 UTC SLP138

CYGK;2017-04-22 10:00;CYGK 221000Z 25004KT 15SM OVC015 06/03 A2994 RMK SC8 SLP142

CYGK;2017-04-22 11:00;CYGK 221100Z 24004KT 15SM FEW010 BKN018 OVC045 06/04 A2996 RMK CF1SC5SC3 CF TR SLP149

CYGK;2017-04-22 12:00;CYGK 221200Z 29006KT 230V300 15SM OVC017 06/04 A2997 RMK SC8 SLP153

CYGK;2017-04-22 13:00;CYGK 221300Z 31008KT 15SM FEW015 BKN030 OVC053 07/03 A2998 RMK SC2SC3SC3 SLP158

CYGK;2017-04-22 14:00;CYGK 221400Z 30009KT 290V360 15SM OVC022 08/03 A2999 RMK SC8 SLP158

CYGK;2017-04-22 15:00;CYGK 221500Z 34009KT 290V350 15SM BKN020 OVC063 08/03 A3000 RMK SC6SC2 SLP164

CYGK;2017-04-22 16:00;CYGK 221600Z 33010KT 270V350 15SM OVC030 08/01 A3002 RMK SC8 SLP170

CYGK;2017-04-22 17:00;CYGK 221700Z 36009KT 15SM BKN037 BKN250 10/02 A3000 RMK SC6CI1 SLP163

CYGK;2017-04-22 18:00;CYGK 221800Z 34011G17KT 290V020 15SM BKN043 11/02 A3000 RMK SC7 SLP161

CYGK;2017-04-22 19:00;CYGK 221900Z 32009G18KT 15SM BKN049 11/01 A3001 RMK SC7 SLP164

CYGK;2017-04-22 20:00;CYGK 222000Z 33008KT 15SM BKN051 12/01 A3001 RMK SC6 SLP164

CYGK;2017-04-22 21:00;CYGK 222100Z 19008KT 15SM SCT057 SCT270 08/03 A3002 RMK SC3CI1 SLP169

CYGK;2017-04-22 22:00;CYGK 222200Z 20008KT 15SM FEW055 SCT270 09/04 A3003 RMK SC2CI2 SLP172

CYGK;2017-04-22 23:32;CYGK 222332Z 20004KT 15SM FEW050 SCT270 07/03 A3003 RMK SC1CI2 SLP173

CYGK;2017-04-23 00:00;CYGK 230000Z 20004KT 15SM FEW050 BKN270 06/03 A3004 RMK SC1CI5 SC TR SLP175

CYGK;2017-04-23 01:00;CYGK 230100Z 18003KT 15SM SCT270 04/02 A3006 RMK CI4 SLP183

CYGK;2017-04-23 02:00;CYGK 230200Z 08002KT 15SM SCT270 04/03 A3007 RMK CI3 SLP185

CYGK;2017-04-23 03:00;CYGK 230300Z 05002KT 15SM FEW270 03/03 A3007 RMK CI1 SLP188

CYGK;2017-04-23 10:00;CYGK 231000Z 00000KT 10SM MIFG SKC 00/M00 A3007 RMK SLP189

CYGK;2017-04-23 10:49;CYGK 231049Z 00000KT 4SM BR SKC 00/M00 A3009 RMK VIS LWR NW-NE SLP193

CYGK;2017-04-23 11:00;CYGK 231100Z 00000KT 8SM MIFG FEW120 00/M00 A3009 RMK AC1 AC TR SHALLOW FG COVERING AIRPORT SLP193

CYGK;2017-04-23 12:00;CYGK 231200Z 17005KT 15SM FEW250 05/04 A3010 RMK CI1 SLP197

CYGK;2017-04-23 13:00;CYGK 231300Z 16007KT 15SM SCT240 05/05 A3010 RMK CI3 SLP199

CYGK;2017-04-23 14:00;CYGK 231400Z 18007KT 15SM FEW250 06/04 A3011 RMK CI2 SLP200

CYGK;2017-04-23 15:00;CYGK 231500Z 17007KT 15SM FEW240 06/05 A3011 RMK CI2 SLP200

CYGK;2017-04-23 16:00;CYGK 231600Z 17011KT 15SM SCT250 07/05 A3009 RMK CI3 SLP195

CYGK;2017-04-23 17:00;CYGK 231700Z 18011KT 15SM SCT240 08/05 A3008 RMK CI3 SLP192

CYGK;2017-04-23 18:00;CYGK 231800Z 18015KT 15SM SCT240 07/04 A3006 RMK CI3 SLP184

CYGK;2017-04-23 19:00;CYGK 231900Z 18015KT 15SM FEW030 FEW250 08/04 A3003 RMK CU1CI2 CU TR SLP174

CYGK;2017-04-23 20:00;CYGK 232000Z 18012KT 15SM FEW030 SCT240 08/04 A3001 RMK CU1CI3 CU TR SLP168

CYGK;2017-04-23 21:00;CYGK 232100Z 19012KT 15SM FEW030 FEW250 11/04 A3001 RMK CU1CI2 CU TR SLP165

CYGK;2017-04-23 22:00;CYGK 232200Z 19012KT 15SM FEW070 FEW250 09/03 A3001 RMK AC1CI1 AC TR SLP167

CYGK;2017-04-23 23:00;CYGK 232300Z 20013KT 15SM FEW070 FEW250 09/02 A3001 RMK AC1CI1 SLP168

CYGK;2017-04-24 00:00;CYGK 240000Z 21006KT 15SM FEW070 FEW250 07/03 A3002 RMK AC1CI1 SLP170

CYGK;2017-04-24 01:00;CYGK 240100Z 18005KT 15SM FEW070 FEW250 05/03 A3004 RMK AC1CI1 SLP176

CYGK;2017-04-24 02:00;CYGK 240200Z 17004KT 15SM FEW070 05/03 A3006 RMK AC1 SLP183

CYGK;2017-04-24 03:00;CYGK 240300Z 01007KT 15SM FEW070 08/02 A3007 RMK AC1 LAST STFD OBS/NEXT 241000UTC SLP186

CYGK;2017-04-24 10:00;CYGK 241000Z 02010G15KT 15SM BKN250 02/M02 A3017 RMK CI6 SLP221

CYGK;2017-04-24 11:00;CYGK 241100Z 02011G17KT 15SM FEW180 BKN250 02/M02 A3021 RMK AC2CI5 SLP233

CYGK;2017-04-24 12:00;CYGK 241200Z 02011G16KT 15SM FEW100 SCT180 BKN250 02/M03 A3023 RMK AC1AC2CI3 SLP240

CYGK;2017-04-24 13:00;CYGK 241300Z 04013G19KT 15SM SCT200 04/M02 A3024 RMK CI3 SLP243

CYGK;2017-04-24 14:00;CYGK 241400Z 04013G18KT 15SM FEW250 06/M02 A3022 RMK CI1 SLP239

CYGK;2017-04-24 15:00;CYGK 241500Z 02013G19KT 15SM FEW200 07/M02 A3024 RMK CI1 SLP245

CYGK;2017-04-24 16:00;CYGK 241600Z 06012KT 15SM FEW250 09/M01 A3023 RMK CI1 SLP242

CYGK;2017-04-24 17:00;CYGK 241700Z 05012G18KT 15SM FEW220 10/M02 A3022 RMK CI2 SLP238

CYGK;2017-04-24 18:00;CYGK 241800Z 06011G17KT 020V080 15SM SCT250 11/M02 A3021 RMK CI3 SLP232

CYGK;2017-04-24 19:00;CYGK 241900Z 04011G17KT 030V090 15SM BKN250 12/M01 A3019 RMK CI6 SLP226

CYGK;2017-04-24 20:00;CYGK 242000Z 06011G16KT 010V080 15SM BKN250 13/M00 A3018 RMK CI6 SLP222

CYGK;2017-04-24 21:00;CYGK 242100Z 06011G19KT 15SM BKN250 13/01 A3016 RMK CI6 SLP218

CYGK;2017-04-24 22:00;CYGK 242200Z 04012G18KT 15SM SCT250 13/01 A3015 RMK CI4 SLP212

CYGK;2017-04-24 23:00;CYGK 242300Z 04011G16KT 15SM BKN250 12/00 A3014 RMK CI6 SLP210

CYGK;2017-04-25 00:00;CYGK 250000Z 06011G16KT 15SM BKN250 10/01 A3014 RMK CI5 SLP211

CYGK;2017-04-25 01:00;CYGK 250100Z 05017G22KT 15SM BKN250 09/M00 A3014 RMK CI5 SLP212

CYGK;2017-04-25 02:00;CYGK 250200Z 04014G22KT 15SM SCT250 08/M01 A3014 RMK CI3 SLP210

CYGK;2017-04-25 03:00;CYGK 250300Z 04016G22KT 15SM FEW250 08/M02 A3013 RMK CI1 LAST STFD OBS/NEXT 251000UTC SLP207

CYGK;2017-04-25 10:00;CYGK 251000Z 05013KT 15SM SCT250 05/M03 A3008 RMK CI4 SLP189

CYGK;2017-04-25 11:00;CYGK 251100Z 06013KT 15SM FEW140 SCT250 05/M03 A3010 RMK AC1CI3 SLP198

CYGK;2017-04-25 12:00;CYGK 251200Z 05009KT 15SM FEW140 BKN250 07/M02 A3011 RMK AC2CI4 SLP201

CYGK;2017-04-25 13:00;CYGK 251300Z 06010KT 15SM SCT160 BKN220 09/M00 A3012 RMK AC3CI4 SLP203

CYGK;2017-04-25 14:00;CYGK 251400Z 09006KT 15SM SCT038 BKN100 OVC250 10/02 A3013 RMK SC3AC3CI2 SLP207

CYGK;2017-04-25 14:08;CYGK 251408Z 10005KT 15SM -RA SCT038 BKN100 BKN200 10/02 A3013 RMK SC3AC3CI1 SLP207

CYGK;2017-04-25 15:00;CYGK 251500Z 10003KT 12SM BKN043 OVC100 09/04 A3013 RMK SC5AC3 SLP208

CYGK;2017-04-25 16:00;CYGK 251600Z 10005KT 5SM -RA BR OVC028 09/06 A3012 RMK SC8 SLP205

CYGK;2017-04-25 17:00;CYGK 251700Z 05007KT 4SM -RA BR OVC025 10/08 A3010 RMK SC8 SLP196

CYGK;2017-04-25 18:00;CYGK 251800Z 07009KT 5SM -RA BR FEW010 OVC024 10/09 A3007 RMK SF2SC6 SLP188

CYGK;2017-04-25 19:00;CYGK 251900Z 07010KT 10SM FEW005 BKN020 OVC032 11/10 A3005 RMK SF1SC5SC2 SLP181

CYGK;2017-04-25 20:00;CYGK 252000Z 08010KT 12SM -RA FEW007 SCT021 OVC034 11/09 A3003 RMK SF1SC2SC5 SLP174

CYGK;2017-04-25 21:00;CYGK 252100Z 08009KT 12SM -RA FEW007 SCT018 OVC035 11/10 A3001 RMK SF1CU2SC5 SLP167

CYGK;2017-04-25 21:51;CYGK 252151Z 08008KT 15SM FEW012 OVC038 11/10 A3000 RMK CU2SC6 SLP163

CYGK;2017-04-25 22:00;CYGK 252200Z 07009KT 15SM FEW012 BKN040 OVC090 11/10 A3000 RMK CU2SC4AC2 SLP162

CYGK;2017-04-25 22:14;CYGK 252214Z 08008KT 040V110 12SM FEW007 FEW012 BKN040 OVC090 11/10 A2999 RMK SF1CU2SC3AC3 SF TR SLP160

CYGK;2017-04-25 23:00;CYGK 252300Z 07009KT 15SM FEW012 BKN042 OVC100 11/10 A2998 RMK CU1SC5AC2 INTMT -RA SLP154

CYGK;2017-04-26 00:00;CYGK 260000Z 07008KT 15SM FEW010 BKN065 BKN090 OVC250 11/10 A2995 RMK SF1SC5AC1CI2 SF TR SLP147

CYGK;2017-04-26 01:00;CYGK 260100Z 07005KT 15SM SCT040 BKN070 OVC150 11/10 A2995 RMK SC3AC2AC3 SLP147

CYGK;2017-04-26 02:00;CYGK 260200Z 06007KT 15SM FEW065 BKN090 BKN150 10/10 A2995 RMK SC2AC3AC1 SLP146

CYGK;2017-04-26 03:00;CYGK 260300Z 05008KT 15SM OVC050 11/10 A2994 RMK SC8 LAST STFD OBS/NEXT 261000 UTC SLP141

CYGK;2017-04-26 10:00;CYGK 261000Z 06008KT 15SM OVC026 10/09 A2985 RMK SC8 SLP110

CYGK;2017-04-26 10:32;CYGK 261032Z 07009KT 15SM FEW008 OVC025 10/09 A2985 RMK SF1SC8 SF TR SLP110

CYGK;2017-04-26 11:00;CYGK 261100Z 07008KT 15SM FEW008 OVC026 10/09 A2985 RMK SF1SC7 VIS LWR S SLP111

CYGK;2017-04-26 12:00;CYGK 261200Z 06008KT 15SM FEW008 OVC021 11/10 A2985 RMK SF1SC8 SF TR SLP112

CYGK;2017-04-26 13:00;CYGK 261300Z 06007KT 15SM FEW008 BKN022 12/10 A2985 RMK SF1SC6 SLP110

CYGK;2017-04-26 14:00;CYGK 261400Z 06007KT 15SM FEW010 FEW020 OVC027 14/12 A2984 RMK CF1SC1SC6 SLP108

CYGK;2017-04-26 15:00;CYGK 261500Z 08004KT 040V100 15SM SCT012 BKN020 OVC030 15/11 A2984 RMK CF3SC4SC1 SLP107 DENSITY ALT 400FT

CYGK;2017-04-26 16:00;CYGK 261600Z 15005KT 15SM FEW015 SCT022 OVC033 15/11 A2983 RMK CF1SC3SC4 SLP103 DENSITY ALT 400FT

CYGK;2017-04-26 17:00;CYGK 261700Z 18006KT 15SM SCT024 BKN036 17/11 A2981 RMK CU3SC3 SLP098 DENSITY ALT 600FT

CYGK;2017-04-26 18:00;CYGK 261800Z 19008KT 15SM FEW024 FEW035 BKN250 17/11 A2979 RMK CU1SC1CI3 SLP091 DENSITY ALT 700FT

CYGK;2017-04-26 19:00;CYGK 261900Z 19006KT 15SM FEW036 BKN240 18/12 A2978 RMK SC2CI4 SLP086 DENSITY ALT 800FT

CYGK;2017-04-26 20:00;CYGK 262000Z 19007KT 15SM FEW036 SCT240 18/12 A2976 RMK CU2CI2 SLP079 DENSITY ALT 900FT

CYGK;2017-04-26 21:00;CYGK 262100Z 19005KT 15SM FEW036 BKN240 19/12 A2974 RMK SC1CI4 SLP072 DENSITY ALT 1000FT

CYGK;2017-04-26 22:00;CYGK 262200Z 16003KT 120V180 15SM FEW035 BKN250 19/13 A2972 RMK SC1CI6 SC TR SLP068 DENSITY ALT 1000FT

CYGK;2017-04-26 23:00;CYGK 262300Z VRB02KT 15SM FEW035 SCT250 19/13 A2972 RMK SC1CI4 SC TR SLP068 DENSITY ALT 1000FT

CYGK;2017-04-27 00:00;CYGK 270000Z VRB02KT 15SM FEW150 SCT250 17/12 A2972 RMK AC1CI3 AC TR SLP067 DENSITY ALT 800FT

CYGK;2017-04-27 01:00;CYGK 270100Z VRB02KT 15SM SCT250 17/13 A2973 RMK CI3 PRESRR SLP071 DENSITY ALT 700FT

CYGK;2017-04-27 02:00;CYGK 270200Z 06005KT 15SM FEW250 15/13 A2973 RMK CI2 SLP071 DENSITY ALT 600FT

CYGK;2017-04-27 03:00;CYGK 270300Z 07009KT 15SM FEW250 16/13 A2973 RMK CI2 LAST STFD OBS/ NEXT 271000 UTC SLP071 DENSITY ALT 600FT

CYGK;2017-04-27 10:00;CYGK 271000Z 05004KT 15SM FEW250 12/11 A2974 RMK CI1 SLP072

CYGK;2017-04-27 11:00;CYGK 271100Z 12004KT 070V170 15SM FEW250 14/13 A2975 RMK CI1 SLP075 DENSITY ALT 400FT

CYGK;2017-04-27 12:00;CYGK 271200Z 14007KT 15SM FEW250 16/13 A2975 RMK CI1 SLP078 DENSITY ALT 600FT

CYGK;2017-04-27 13:00;CYGK 271300Z 14008KT 15SM FEW250 17/13 A2976 RMK CI1 SLP080 DENSITY ALT 700FT

CYGK;2017-04-27 14:00;CYGK 271400Z 15006KT 15SM SCT250 17/13 A2976 RMK CI3 SLP080 DENSITY ALT 700FT

CYGK;2017-04-27 15:00;CYGK 271500Z 15007KT 15SM BKN250 17/13 A2975 RMK CI5 SLP078 DENSITY ALT 800FT

CYGK;2017-04-27 16:00;CYGK 271600Z 15006KT 15SM BKN250 18/13 A2976 RMK CI6 SLP079 DENSITY ALT 900FT

CYGK;2017-04-27 17:00;CYGK 271700Z 17006KT 15SM BKN250 19/14 A2973 RMK CI6 SLP071 DENSITY ALT 1000FT

CYGK;2017-04-27 18:00;CYGK 271800Z 12008KT 15SM BKN200 22/15 A2969 RMK CI6 SLP055 DENSITY ALT 1400FT

CYGK;2017-04-27 19:00;CYGK 271900Z 17009KT 15SM BKN220 23/15 A2967 RMK CI6 SLP047 DENSITY ALT 1600FT

CYGK;2017-04-27 20:00;CYGK 272000Z 15007KT 15SM BKN250 24/16 A2963 RMK CI6 SLP036 DENSITY ALT 1700FT

CYGK;2017-04-27 21:00;CYGK 272100Z 13008KT 15SM BKN230 24/15 A2960 RMK CI6 SLP026 DENSITY ALT 1700FT

CYGK;2017-04-27 22:00;CYGK 272200Z 16007KT 15SM FEW160 BKN220 22/14 A2959 RMK AC2CI4 SLP023 DENSITY ALT 1500FT

CYGK;2017-04-27 23:00;CYGK 272300Z 14011G17KT 15SM FEW160 BKN240 20/13 A2958 RMK AC2CI5 SLP018 DENSITY ALT 1300FT

CYGK;2017-04-28 00:00;CYGK 280000Z 15011G18KT 15SM SCT150 BKN210 16/12 A2958 RMK AC3CI4 SLP020 DENSITY ALT 800FT

CYGK;2017-04-28 01:00;CYGK 280100Z 18008KT 15SM BKN140 BKN240 13/10 A2961 RMK AC5CI2 PRESRR SLP030 DENSITY ALT 400FT

CYGK;2017-04-28 02:00;CYGK 280200Z 25014G23KT 15SM SCT055 OVC150 18/12 A2967 RMK SC3AC5 SLP049 DENSITY ALT 900FT

CYGK;2017-04-28 02:29;CYGK 280229Z 25011KT 15SM -RA BKN053 OVC140 16/13 A2968 RMK SC6AC2 SLP052 DENSITY ALT 700FT

CYGK;2017-04-28 03:00;CYGK 280300Z 25009KT 15SM -RA OVC053 16/14 A2968 RMK SC8 LAST STFD OBS/NEXT 281000 UTC SLP051 DENSITY ALT 700FT

CYGK;2017-04-28 10:00;CYGK 281000Z 26004KT 15SM FEW030 FEW075 FEW250 09/08 A2988 RMK SC1AC1CI1 SC TR SLP119

CYGK;2017-04-28 11:00;CYGK 281100Z 25005KT 15SM FEW030 FEW250 10/07 A2994 RMK SC1CI1 PRESRR SLP140

CYGK;2017-04-28 12:00;CYGK 281200Z 26005KT 15SM FEW012 BKN038 11/08 A2996 RMK CF1SC6 CF TR SLP147

CYGK;2017-04-28 13:00;CYGK 281300Z 17005KT 150V220 15SM FEW022 SCT041 BKN250 11/09 A2999 RMK CF1SC2CI2 SLP158

CYGK;2017-04-28 14:00;CYGK 281400Z 17007KT 15SM FEW025 FEW040 BKN250 11/08 A3000 RMK CU1SC1CI5 SC TR SLP161

CYGK;2017-04-28 15:00;CYGK 281500Z 20011KT 15SM FEW025 FEW042 BKN200 11/08 A3001 RMK CU1SC1CI5 SLP165

CYGK;2017-04-28 16:00;CYGK 281600Z 20009KT 15SM FEW023 BKN210 12/08 A3001 RMK CU2CI3 SLP166

CYGK;2017-04-28 17:00;CYGK 281700Z 19011KT 15SM FEW029 BKN210 11/07 A3000 RMK CU2CI5 SLP163

CYGK;2017-04-28 18:00;CYGK 281800Z 19012KT 15SM FEW030 BKN250 12/08 A3001 RMK CU1CI4 SLP166

CYGK;2017-04-28 19:00;CYGK 281900Z 23015KT 15SM FEW030 FEW120 SCT250 15/07 A3002 RMK CF1AC1CI3 AC TR SLP168

CYGK;2017-04-28 20:00;CYGK 282000Z 24012G18KT 15SM FEW150 BKN250 16/07 A3000 RMK AC1CI5 AC TR SLP161

CYGK;2017-04-28 21:00;CYGK 282100Z 18008KT 180V240 15SM FEW150 FEW250 13/07 A2999 RMK AC1CI2 AC TR SLP158

CYGK;2017-04-28 22:00;CYGK 282200Z 17009KT 15SM FEW150 SCT250 11/06 A2999 RMK AC1CI2 SLP159

CYGK;2017-04-28 23:00;CYGK 282300Z 19010KT 15SM FEW150 BKN250 09/05 A3000 RMK AC1CI4 SLP163

CYGK;2017-04-29 00:00;CYGK 290000Z 19009KT 12SM FEW150 BKN250 08/05 A2999 RMK AC2CI4 SLP160

CYGK;2017-04-29 01:00;CYGK 290100Z 17011KT 15SM SCT160 BKN250 08/05 A2997 RMK AC4CI2 SLP153

CYGK;2017-04-29 02:00;CYGK 290200Z 22007KT 15SM BKN120 08/05 A2999 RMK AC7 SLP158

CYGK;2017-04-29 03:00;CYGK 290300Z 19007KT 15SM SCT100 OVC130 08/05 A2998 RMK AC3AC5 LAST STFD OBS/NEXT 291000 UTC SLP154

CYGK;2017-04-29 10:00;CYGK 291000Z 19005KT 15SM FEW110 BKN250 07/06 A2996 RMK AC1CI6 SLP148

CYGK;2017-04-29 11:00;CYGK 291100Z 22003KT 15SM FEW110 BKN250 08/06 A2997 RMK AC1CI6 SLP153

CYGK;2017-04-29 12:00;CYGK 291200Z 24005KT 15SM FEW110 BKN250 12/08 A2998 RMK AC1CI6 SLP156

CYGK;2017-04-29 13:00;CYGK 291300Z 24005KT 210V280 15SM BKN110 BKN220 14/08 A3000 RMK AC6CI1 SLP163

CYGK;2017-04-29 14:00;CYGK 291400Z 24008KT 15SM BKN084 13/07 A3001 RMK AC7 SLP164

CYGK;2017-04-29 15:00;CYGK 291500Z 23010G15KT 15SM FEW050 BKN075 14/07 A3001 RMK CF1AC7 CF TR SLP166

CYGK;2017-04-29 16:00;CYGK 291600Z 23015KT 15SM FEW030 BKN074 14/06 A3002 RMK CF1AC7 CF TR SLP170

CYGK;2017-04-29 17:00;CYGK 291700Z 23015G21KT 15SM FEW080 SCT110 BKN250 14/07 A3000 RMK AC2AC1CI4 SLP163

CYGK;2017-04-29 18:00;CYGK 291800Z 21013G19KT 15SM FEW030 FEW110 BKN240 15/07 A3000 RMK CU1AC1CI6 CU TR SLP162

CYGK;2017-04-29 19:00;CYGK 291900Z 23014G21KT 15SM FEW030 FEW110 BKN220 16/05 A3003 RMK CU1AC1CI6 CU TR PRESRR SLP174

CYGK;2017-04-29 20:00;CYGK 292000Z 23017G26KT 15SM FEW030 FEW110 BKN220 13/05 A3006 RMK CU1AC1CI6 CU TR SLP182

CYGK;2017-04-29 21:00;CYGK 292100Z 24016G23KT 15SM FEW030 FEW110 BKN220 13/04 A3007 RMK CF1AC1CI6 CF TR SLP185

CYGK;2017-04-29 22:00;CYGK 292200Z 23013G20KT 15SM FEW030 FEW110 BKN220 12/04 A3007 RMK CU1AC1CI6 CU TR SLP187

CYGK;2017-04-29 23:00;CYGK 292300Z 25013KT 15SM FEW110 BKN210 12/04 A3009 RMK AC1CI5 SLP193

CYGK;2017-04-30 00:00;CYGK 300000Z 25008KT 15SM FEW110 BKN220 10/04 A3012 RMK AC1CI4 SLP204

CYGK;2017-04-30 01:00;CYGK 300100Z 03011G17KT 280V050 15SM FEW220 11/00 A3018 RMK CI1 PRESRR SLP221

CYGK;2017-04-30 02:00;CYGK 300200Z 02009KT 15SM SKC 09/M02 A3021 RMK SLP232

CYGK;2017-04-30 03:00;CYGK 300300Z 03010G17KT 15SM SKC 07/M03 A3025 RMK LAST STFD OBS/NEXT 301000 UTC PRESRR SLP248

CYGK;2017-04-30 10:00;CYGK 301000Z 04011G18KT 15SM SCT090 BKN180 OVC220 04/M04 A3028 RMK AC3AC2CI3 SLP258

CYGK;2017-04-30 11:00;CYGK 301100Z 06012G19KT 15SM FEW090 BKN120 OVC180 04/M04 A3030 RMK AC2AC3AC3 SLP265

CYGK;2017-04-30 11:20;CYGK 301120Z 05014KT 15SM -RA BKN090 OVC120 04/M04 A3029 RMK AC5AC3 SLP262

CYGK;2017-04-30 11:53;CYGK 301153Z 05007KT 15SM BKN085 OVC120 04/M03 A3031 RMK AC6AC2 PRESRR SLP267

CYGK;2017-04-30 12:00;CYGK 301200Z 03010G15KT 15SM BKN085 OVC120 04/M03 A3032 RMK AC6AC2 PRESRR SLP272

CYGK;2017-04-30 12:47;CYGK 301247Z 04009KT 12SM -RA OVC080 04/M03 A3033 RMK AC8 PRESFR SLP276

CYGK;2017-04-30 13:00;CYGK 301300Z 04007KT 12SM -RA OVC080 04/M02 A3033 RMK AC8 SLP274

CYGK;2017-04-30 14:00;CYGK 301400Z 05010G15KT 15SM -RA OVC085 04/M01 A3030 RMK AC8 PRESRR SLP264

CYGK;2017-04-30 15:00;CYGK 301500Z 05013KT 15SM -RA FEW015 BKN072 OVC110 04/M01 A3027 RMK CF1AC7AC1 CF TR SLP253

CYGK;2017-04-30 16:00;CYGK 301600Z 06013G19KT 15SM -RA FEW015 OVC052 04/01 A3025 RMK CU1SC7 SLP249

CYGK;2017-04-30 16:23;CYGK 301623Z 06013KT 15SM FEW015 OVC052 04/01 A3026 RMK CF2SC6 PRESRR SLP250

CYGK;2017-04-30 17:00;CYGK 301700Z 04011KT 15SM FEW015 OVC050 04/01 A3024 RMK CF2SC6 SLP244

CYGK;2017-04-30 18:00;CYGK 301800Z 06013G18KT 15SM FEW015 OVC050 05/01 A3020 RMK CU1SC7 SLP231

CYGK;2017-04-30 19:00;CYGK 301900Z 04010G16KT 15SM FEW015 OVC045 06/01 A3017 RMK CF1SC8 CF TR SLP222

CYGK;2017-04-30 20:00;CYGK 302000Z 06016KT 15SM FEW015 BKN046 07/02 A3012 RMK CF1SC7 CF TR PRESFR SLP205

CYGK;2017-04-30 21:00;CYGK 302100Z 05010G18KT 15SM FEW020 OVC043 07/02 A3010 RMK CF1SC8 CF TR PRESFR SLP198

CYGK;2017-04-30 22:00;CYGK 302200Z 04016G25KT 15SM FEW030 OVC037 07/01 A3009 RMK CF1SC8 CF TR SLP194

CYGK;2017-04-30 23:00;CYGK 302300Z 04014G21KT 15SM FEW025 BKN038 OVC044 06/01 A3008 RMK CF1SC5SC3 CF TR SLP192

CYGK;2017-05-01 00:00;CYGK 010000Z 02015G24KT 15SM FEW025 FEW035 OVC046 06/00 A3007 RMK SC1SC1SC8 SC TR SC TR SLP188

CYGK;2017-05-01 01:01;CYGK 010101Z 05017G24KT 15SM -SHRA BKN045 OVC100 05/01 A3003 RMK SC7AC1 CVCTV CLD EMBD SLP174

CYGK;2017-05-01 01:36;CYGK 010136Z 05013G22KT 15SM BKN047 BKN080 OVC200 04/02 A3001 RMK SC5AC1CI2 PRESFR SLP166

CYGK;2017-05-01 02:03;CYGK 010203Z 05014G23KT 15SM -SHRA SCT050 BKN070 OVC100 04/02 A2999 RMK SC3AC2AC3 CVCTV CLD EMBD SLP162

CYGK;2017-05-01 02:44;CYGK 010244Z 05012G19KT 15SM FEW050 SCT100 OVC160 04/02 A2995 RMK SC2AC2AC4 PRESFR SLP147

CYGK;2017-05-01 03:00;CYGK 010300Z 05013G21KT 15SM FEW050 SCT100 OVC160 04/02 A2994 RMK SC2AC2AC4 LAST STFD OBS/NEXT 011000 UTC SLP143

CYGK;2017-05-01 10:00;CYGK 011000Z 02008KT 350V050 15SM -RA SCT004 BKN029 OVC040 06/05 A2982 RMK SF4SC3SC1 SLP102

CYGK;2017-05-01 10:18;CYGK 011018Z 36011KT 15SM -RA BKN004 OVC030 06/05 A2985 RMK SF5SC3 PRESRR SLP112

CYGK;2017-05-01 10:31;CYGK 011031Z 36012KT 15SM BKN004 OVC030 06/05 A2984 RMK SF5SC3 CIG RAG SLP108

CYGK;2017-05-01 11:00;CYGK 011100Z 04011KT 15SM SCT004 OVC030 06/05 A2981 RMK SF4SC4 SLP099

CYGK;2017-05-01 12:00;CYGK 011200Z 04010KT 15SM FEW004 FEW040 BKN130 OVC230 07/06 A2980 RMK SF1SC1AC4CI2 SLP096

CYGK;2017-05-01 13:00;CYGK 011300Z 05010KT 15SM FEW005 SCT030 OVC090 08/07 A2979 RMK SF1SC2AC5 SLP091

CYGK;2017-05-01 13:39;CYGK 011339Z 05008KT 15SM -RA FEW005 BKN090 OVC230 09/08 A2978 RMK SF1AC5CI2 SLP088

CYGK;2017-05-01 14:00;CYGK 011400Z 04008KT 15SM -RA FEW005 BKN090 OVC230 09/08 A2977 RMK SF1AC6CI2 SF TR SLP086

CYGK;2017-05-01 15:00;CYGK 011500Z 04007KT 8SM -RA SCT040 OVC080 10/09 A2977 RMK SC4AC4 SLP085

CYGK;2017-05-01 16:00;CYGK 011600Z 04007KT 10SM -RA FEW005 FEW070 OVC100 11/10 A2974 RMK SF1AC2AC6 SF TR SLP075

CYGK;2017-05-01 17:00;CYGK 011700Z 04004KT 5SM -RA BR BKN025 OVC065 11/11 A2973 RMK SC5SC3 SLP070

CYGK;2017-05-01 17:52;CYGK 011752Z 08003KT 4SM -RA BR FEW004 OVC016 12/11 A2970 RMK SF2SC6 SLP060

CYGK;2017-05-01 18:00;CYGK 011800Z 06006KT 4SM -RA BR FEW004 OVC014 12/12 A2969 RMK SF2SC6 SLP058

CYGK;2017-05-01 18:20;CYGK 011820Z 08004KT 2SM -RA BR BKN008 OVC014 12/12 A2969 RMK SF6NS2 SLP058

CYGK;2017-05-01 19:00;CYGK 011900Z 08008KT 3SM -RA BR BKN006 OVC014 13/12 A2965 RMK SF5NS3 PRESFR SLP044 DENSITY ALT 400FT

CYGK;2017-05-01 20:00;CYGK 012000Z 08006KT 5SM -RA BR SCT006 BKN015 OVC060 14/14 A2959 RMK SF3CU2SC3 SLP025 DENSITY ALT 600FT

CYGK;2017-05-01 20:38;CYGK 012038Z 08009KT 2 1/2SM -RA BR SCT006 OVC042 14/14 A2957 RMK SF3NS5 PRESFR SLP016 DENSITY ALT 700FT

CYGK;2017-05-01 21:00;CYGK 012100Z 07007KT 2 1/2SM -RA BR FEW006 SCT020 OVC040 14/14 A2955 RMK SF2SC2NS4 PRESFR SLP008 DENSITY ALT 700FT

CYGK;2017-05-01 21:29;CYGK 012129Z 04006KT 2 1/2SM -TSRA BR FEW006 SCT020 OVC032 14/14 A2953 RMK SF2SC1NS5 CB EMBDD PRESFR SLP003 DENSITY ALT 700FT

CYGK;2017-05-01 21:51;CYGK 012151Z VRB14G35KT 1/2SM +TSRA FG BKN003 OVC018CB 14/14 A2959 RMK SF6CB2 PRESRR SLP022 DENSITY ALT 600FT

CYGK;2017-05-01 22:02;CYGK 012202Z 25021G31KT 190V260 4SM -TSRA BR BKN008 OVC016CB 14/14 A2960 RMK SF5CB3 PRESRR SLP026 DENSITY ALT 600FT

CYGK;2017-05-01 22:18;CYGK 012218Z 31006G18KT 260V330 5SM -TSRA BR SCT008 SCT018CB OVC032 15/15 A2958 RMK SF3CB1SC4 OCNL LTGICCG N-SE SLP020 DENSITY ALT 700FT

CYGK;2017-05-01 23:00;CYGK 012300Z 24004KT 4SM -TSRA BR SCT011 BKN032 OVC050 15/14 A2959 RMK SF4SC3SC1 CB ASOCTD PRESRR SLP022 DENSITY ALT 700FT

CYGK;2017-05-01 23:08;CYGK 012308Z 20004KT 180V250 4SM -RA BR SCT011 OVC028 14/13 A2956 RMK SF3NS5 PRESFR SLP014 DENSITY ALT 600FT

CYGK;2017-05-01 23:12;CYGK 012312Z 16004KT 150V210 4SM -RA BR VCFG SCT008 BKN011 OVC028 14/13 A2956 RMK SF4SC1NS3 VIS S 1/4 FG BNK APCHG FM S PRESFR SLP013 DENSITY ALT 600FT

CYGK;2017-05-01 23:27;CYGK 012327Z 14005KT 1/4SM -RA FG OVC006 13/13 A2956 RMK FG4SF4 VIS N 3 SLP012 DENSITY ALT 500FT

CYGK;2017-05-02 00:03;CYGK 020003Z 11013G20KT 3SM -RA BR BKN002 OVC011 13/13 A2947 RMK SF6SC2 PRESFR SLP981 DENSITY ALT 700FT

CYGK;2017-05-02 00:10;CYGK 020010Z 13008G17KT 6SM BR VCFG SCT002 OVC120 13/13 A2950 RMK SF4AC4 VIS S 1/2 PRESRR SLP994 DENSITY ALT 600FT

CYGK;2017-05-02 01:00;CYGK 020100Z 10006KT 10SM FEW004 BKN130 13/13 A2949 RMK SF1AC7 SF TR SLP988 DENSITY ALT 600FT

CYGK;2017-05-02 02:00;CYGK 020200Z 15006KT 15SM OVC035 13/11 A2948 RMK SC8 PRESRR SLP985 DENSITY ALT 600FT

CYGK;2017-05-02 02:25;CYGK 020225Z 18018G26KT 170V270 15SM SCT032 BKN240 12/11 A2948 RMK SC3CI4 WSHFT 0219 SLP986 DENSITY ALT 400FT

CYGK;2017-05-02 03:00;CYGK 020300Z 20012KT 15SM FEW030 OVC240 11/10 A2947 RMK SC1CI7 LAST STFD OBS / NEXT 021000 UTC SLP984

CYGK;2017-05-02 10:00;CYGK 021000Z 24010G15KT 15SM SCT110 SCT270 10/06 A2954 RMK AC3CI1 CI TR SLP006

CYGK;2017-05-02 11:00;CYGK 021100Z 24013G19KT 15SM SCT070 BKN110 10/07 A2955 RMK AC4AC2 CU TOPS DIST NW-NE SLP011

CYGK;2017-05-02 12:00;CYGK 021200Z 25010G16KT 15SM BKN073 10/07 A2955 RMK AC7 SLP008

CYGK;2017-05-02 13:00;CYGK 021300Z 24011G17KT 15SM FEW020 OVC075 11/07 A2955 RMK CU1AC7 SLP009

CYGK;2017-05-02 14:00;CYGK 021400Z 23008KT 15SM SCT040 OVC080 11/08 A2954 RMK CU3AC5 SLP007

CYGK;2017-05-02 15:00;CYGK 021500Z 19012KT 15SM BKN030 OVC080 09/06 A2953 RMK CU5AC3 SLP004

CYGK;2017-05-02 15:31;CYGK 021531Z 19011KT 15SM -SHRA FEW030 OVC066 10/07 A2953 RMK CU2AC6 SLP003

CYGK;2017-05-02 16:00;CYGK 021600Z 21010G15KT 15SM -SHRA SCT030 OVC045 11/07 A2953 RMK CU3SC5 SLP002

CYGK;2017-05-02 17:00;CYGK 021700Z 24009KT 15SM -SHRA SCT035 BKN050 OVC080 12/07 A2950 RMK CU3SC2AC3 SLP994 DENSITY ALT 500FT

CYGK;2017-05-02 18:00;CYGK 021800Z 19011KT 15SM -RA BKN035 OVC050 11/07 A2949 RMK CU5SC3 SLP990

CYGK;2017-05-02 19:00;CYGK 021900Z 24015G22KT 15SM SCT020 OVC060 10/07 A2952 RMK CU4SC4 INTMT -RA SLP000

CYGK;2017-05-02 20:00;CYGK 022000Z 24017G25KT 15SM SCT030 OVC070 10/05 A2953 RMK CU3AC5 SLP001

CYGK;2017-05-02 21:00;CYGK 022100Z 24018G27KT 15SM VCSH BKN030 OVC080 10/04 A2953 RMK CU5AC3 SLP004

CYGK;2017-05-02 21:22;CYGK 022122Z 24019G28KT 15SM -RA BKN028 OVC080 10/05 A2954 RMK CU7AC1 SLP007

CYGK;2017-05-02 22:00;CYGK 022200Z 23017G32KT 15SM VCSH BKN030 OVC080 09/05 A2956 RMK CU6AC2 SLP014

CYGK;2017-05-02 23:00;CYGK 022300Z 24016G28KT 15SM SCT027 BKN075 BKN110 09/04 A2958 RMK CU3AC3AC1 SLP019

CYGK;2017-05-03 00:00;CYGK 030000Z 24018G23KT 15SM FEW025 BKN040 BKN075 08/05 A2958 RMK CF2SC4AC1 SLP022

CYGK;2017-05-03 01:00;CYGK 030100Z 24016G23KT 15SM SCT020 BKN083 08/05 A2960 RMK CU4AC3 SLP028

CYGK;2017-05-03 01:50;CYGK 030150Z 23018G25KT 15SM -RA BKN020 OVC075 08/05 A2962 RMK SC6AC2 SLP033

CYGK;2017-05-03 02:00;CYGK 030200Z 24017G26KT 15SM BKN020 OVC075 08/05 A2962 RMK SC6AC2 INTMT -RA SLP033

CYGK;2017-05-03 03:00;CYGK 030300Z 24014G22KT 8SM -RA BKN013 OVC018 07/06 A2963 RMK SC7SC1 LAST STFD OBS/NEXT 031000UTC SLP038

CYGK;2017-05-03 10:00;CYGK 031000Z 30007KT 15SM -RA FEW008 BKN022 05/03 A2977 RMK CU2SC4 SLP084

CYGK;2017-05-03 10:29;CYGK 031029Z 30008KT 15SM -SHRA FEW010 BKN024 05/03 A2979 RMK CU2SC3 PRESRR SLP092

CYGK;2017-05-03 11:00;CYGK 031100Z 29014G22KT 270V330 15SM VCSH FEW012 SCT030 SCT120 05/02 A2982 RMK CU2SC1AC1 AC TR PRESRR SLP101

CYGK;2017-05-03 12:00;CYGK 031200Z 31014G23KT 15SM SCT018 SCT120 06/01 A2985 RMK CU3AC1 SLP113

CYGK;2017-05-03 13:00;CYGK 031300Z 31013G22KT 15SM BKN028 06/00 A2988 RMK SC6 SLP123

CYGK;2017-05-03 14:00;CYGK 031400Z 32014KT 15SM BKN028 08/01 A2991 RMK SC5 SLP132

CYGK;2017-05-03 15:00;CYGK 031500Z 31012G18KT 15SM BKN032 BKN240 08/01 A2995 RMK SC5CI2 SLP144

CYGK;2017-05-03 16:00;CYGK 031600Z 31009G17KT 15SM BKN045 BKN220 10/01 A2998 RMK SC6CI1 SLP154

CYGK;2017-05-03 17:00;CYGK 031700Z 28010G17KT 270V350 15SM BKN058 BKN220 11/01 A3001 RMK SC5CI2 SLP165

CYGK;2017-05-03 18:00;CYGK 031800Z 31011G19KT 15SM BKN060 BKN270 13/M00 A3003 RMK CU5CI1 SLP172

CYGK;2017-05-03 19:00;CYGK 031900Z 29012G18KT 270V330 15SM SCT065 SCT250 14/M01 A3004 RMK CU3CI1 SLP177

CYGK;2017-05-03 20:00;CYGK 032000Z 32010G20KT 270V350 15SM FEW072 FEW200 15/M01 A3004 RMK CU1CI1 SLP174

CYGK;2017-05-03 21:00;CYGK 032100Z 34015KT 15SM FEW070 FEW250 15/M02 A3004 RMK CU1CI2 CU TR SLP175

CYGK;2017-05-03 22:00;CYGK 032200Z 32006KT 300V360 15SM FEW250 15/M02 A3004 RMK CI2 SLP177

CYGK;2017-05-03 23:00;CYGK 032300Z 34005KT 15SM SCT250 13/M02 A3005 RMK CI3 SLP181

CYGK;2017-05-04 00:00;CYGK 040000Z 21007KT 15SM SCT250 08/04 A3007 RMK CI3 SLP187

CYGK;2017-05-04 01:00;CYGK 040100Z 25007KT 15SM SCT250 08/03 A3012 RMK CI3 PRESRR SLP203

CYGK;2017-05-04 02:00;CYGK 040200Z 25007KT 15SM SCT250 08/04 A3016 RMK CI3 SLP216

CYGK;2017-05-04 03:00;CYGK 040300Z 25007KT 15SM SCT250 08/04 A3018 RMK CI4 LAST STFD OBS/NEXT 041000 UTC SLP223

CYGK;2017-05-04 10:00;CYGK 041000Z 15003KT 15SM FEW150 BKN200 03/01 A3020 RMK AC2CI5 SLP230

CYGK;2017-05-04 11:00;CYGK 041100Z 20005KT 15SM FEW150 OVC190 06/04 A3021 RMK AC1CS7 SLP235

CYGK;2017-05-04 12:00;CYGK 041200Z 15003KT 15SM FEW150 BKN200 07/03 A3021 RMK AC2CS5 SLP236

CYGK;2017-05-04 13:00;CYGK 041300Z 16008KT 15SM FEW160 BKN200 07/04 A3022 RMK AC2CI5 SLP239

CYGK;2017-05-04 14:00;CYGK 041400Z 18008KT 15SM BKN160 BKN200 07/03 A3023 RMK AC6CS1 SLP240

CYGK;2017-05-04 15:00;CYGK 041500Z 17005KT 15SM FEW160 OVC220 08/03 A3021 RMK AC2CI6 SLP235

CYGK;2017-05-04 16:00;CYGK 041600Z 19004KT 15SM OVC140 10/M00 A3020 RMK AC8 SLP229

CYGK;2017-05-04 17:00;CYGK 041700Z 20003KT 15SM OVC120 10/00 A3017 RMK AC8 SLP220

CYGK;2017-05-04 18:00;CYGK 041800Z VRB02KT 15SM OVC120 12/00 A3014 RMK AC8 SLP209

CYGK;2017-05-04 19:00;CYGK 041900Z 15002KT 15SM OVC100 13/01 A3012 RMK AC8 SLP203

CYGK;2017-05-04 20:00;CYGK 042000Z 16004KT 15SM FEW080 OVC100 12/02 A3010 RMK AC2AC6 SLP198

CYGK;2017-05-04 21:00;CYGK 042100Z 18011G16KT 12SM OVC055 12/02 A3011 RMK SC8 SLP199

CYGK;2017-05-04 21:25;CYGK 042125Z 20015KT 140V220 12SM -RA OVC055 11/02 A3010 RMK SC8 SLP198

CYGK;2017-05-04 22:00;CYGK 042200Z 20011KT 10SM -RA OVC042 08/05 A3012 RMK SC8 SLP205

CYGK;2017-05-04 22:17;CYGK 042217Z 18005KT 160V220 5SM -RA BR OVC038 08/05 A3012 RMK SC8 SLP204

CYGK;2017-05-04 23:00;CYGK 042300Z 00000KT 5SM -RA BR OVC035 08/05 A3012 RMK SC8 SLP202

CYGK;2017-05-05 00:00;CYGK 050000Z 04003KT 6SM -RA BR SCT030 OVC042 07/06 A3011 RMK CU4SC4 SLP199

CYGK;2017-05-05 01:00;CYGK 050100Z 05007KT 5SM -RA BR SCT030 OVC042 07/07 A3008 RMK CU3NS5 SLP191

CYGK;2017-05-05 02:00;CYGK 050200Z 07012KT 6SM -RA BR FEW012 OVC042 07/07 A3005 RMK SF2NS6 SLP180

CYGK;2017-05-05 03:00;CYGK 050300Z 08012KT 6SM -RA BR FEW007 OVC040 08/06 A3002 RMK SF1NS7 LAST STFD OBS/NEXT 051000 UTC SLP170

CYGK;2017-05-05 10:00;CYGK 051000Z 05008KT 3SM -RA BR SCT005 OVC017 07/06 A2984 RMK SF4SC4 SLP110

CYGK;2017-05-05 11:00;CYGK 051100Z 05008KT 4SM -RA BR SCT004 OVC018 07/06 A2983 RMK SF4SC4 SLP106

CYGK;2017-05-05 12:00;CYGK 051200Z 06006KT 3SM -RA BR SCT004 OVC014 07/06 A2984 RMK SF4SC4 SLP107

CYGK;2017-05-05 13:00;CYGK 051300Z 05010KT 3SM -RA BR SCT004 OVC018 07/07 A2981 RMK SF3SC5 PRESFR SLP099

CYGK;2017-05-05 14:00;CYGK 051400Z 05011KT 4SM -RA BR FEW004 OVC019 08/07 A2977 RMK SF2SC6 SLP086

CYGK;2017-05-05 15:00;CYGK 051500Z 05011G16KT 4SM -RA BR FEW004 OVC019 08/07 A2974 RMK SF2SC6 SLP075

CYGK;2017-05-05 15:23;CYGK 051523Z 05010KT 3SM -RA BR BKN010 OVC023 08/07 A2973 RMK SF5SC3 SLP072

CYGK;2017-05-05 15:49;CYGK 051549Z 06009KT 3SM -RA BR BKN007 OVC022 08/08 A2972 RMK SF5NS3 SLP066

CYGK;2017-05-05 16:00;CYGK 051600Z 05011KT 3SM -RA BR BKN006 OVC021 08/08 A2971 RMK SF5NS3 CIG VRB 4-8 SLP063

CYGK;2017-05-05 17:00;CYGK 051700Z 05013KT 4SM -RA BR BKN005 OVC016 09/08 A2967 RMK SF5NS3 SLP051

CYGK;2017-05-05 17:23;CYGK 051723Z 05012KT 4SM -RA BR SCT005 OVC018 09/08 A2965 RMK SF3NS5 PRESFR SLP044

CYGK;2017-05-05 18:03;CYGK 051803Z 04011KT 8SM -RA BKN005 OVC020 09/08 A2961 RMK SF5NS3 SLP032

CYGK;2017-05-05 18:38;CYGK 051838Z 05009G15KT 3SM -RA BR BKN005 OVC012 09/08 A2961 RMK SF6NS2 SLP031

CYGK;2017-05-05 19:00;CYGK 051900Z 04011KT 3SM -RA BR BKN005 OVC013 09/09 A2959 RMK SF6NS2 PRESFR SLP023

CYGK;2017-05-05 19:15;CYGK 051915Z 04010G15KT 2SM RA BR BKN004 OVC013 09/09 A2958 RMK SF6NS2 SLP022

CYGK;2017-05-05 19:32;CYGK 051932Z 05009KT 4SM -RA BR BKN005 OVC018 09/09 A2959 RMK SF6NS2 SLP023

CYGK;2017-05-05 19:50;CYGK 051950Z 05011KT 2SM -RA BR BKN004 OVC015 10/09 A2958 RMK SF6NS2 SLP021

CYGK;2017-05-05 20:00;CYGK 052000Z 05010KT 3SM -RA BR BKN004 OVC014 10/09 A2957 RMK SF5NS3 VIS VRB 2-4 PRESFR SLP016

CYGK;2017-05-05 21:00;CYGK 052100Z 05010G15KT 3SM -RA BR BKN004 OVC018 10/10 A2952 RMK SF5NS3 VIS VRB 2-4 SLP001

CYGK;2017-05-05 22:00;CYGK 052200Z 05009KT 3SM -RA BR BKN004 OVC023 10/09 A2951 RMK SF5NS3 VIS VRB 2-4 SLP998

CYGK;2017-05-05 23:00;CYGK 052300Z 04006KT 2 1/2SM -RA BR BKN004 OVC017 10/09 A2950 RMK SF5NS3 VIS VRB 2-3 CIG RAG SLP992

CYGK;2017-05-06 00:00;CYGK 060000Z 04007KT 2 1/2SM -RA BR BKN003 OVC012 10/10 A2948 RMK SF5NS3 SLP986

CYGK;2017-05-06 01:00;CYGK 060100Z 03008KT 10SM -RA SCT003 OVC022 10/10 A2948 RMK SF3NS5 SLP986

CYGK;2017-05-06 02:00;CYGK 060200Z 02007KT 6SM -RA BR SCT003 OVC017 10/10 A2947 RMK SF3NS5 SLP983

CYGK;2017-05-06 03:00;CYGK 060300Z 02007KT 6SM -RA BR BKN003 OVC015 10/09 A2944 RMK SF5NS3 LAST STFD OBS/NEXT 061000 UTC SLP972

CYGK;2017-05-06 10:00;CYGK 061000Z 02008KT 8SM -RA BKN005 OVC019 10/10 A2930 RMK SF7SC1 SLP923 DENSITY ALT 500FT

CYGK;2017-05-06 11:00;CYGK 061100Z 02009KT 4SM -RA BR BKN005 OVC015 10/10 A2929 RMK SF6SC2 SLP921 DENSITY ALT 500FT

CYGK;2017-05-06 12:00;CYGK 061200Z 02007KT 4SM -RA BR BKN004 OVC013 10/09 A2931 RMK SF5SC3 SLP927 DENSITY ALT 400FT

CYGK;2017-05-06 13:00;CYGK 061300Z 01009KT 8SM -RA BKN004 OVC014 10/10 A2927 RMK SF6NS2 SLP914 DENSITY ALT 500FT

CYGK;2017-05-06 13:13;CYGK 061313Z 02009KT 15SM BKN004 OVC013 10/10 A2927 RMK SF6SC2 SLP915 DENSITY ALT 500FT

CYGK;2017-05-06 14:00;CYGK 061400Z 04004KT 15SM BKN004 OVC010 11/10 A2927 RMK SF7SC1 SLP916 DENSITY ALT 500FT

CYGK;2017-05-06 14:23;CYGK 061423Z 02006KT 15SM OVC005 11/10 A2928 RMK SF8 SLP918 DENSITY ALT 500FT

CYGK;2017-05-06 14:33;CYGK 061433Z 05007KT 8SM -RA OVC005 11/10 A2929 RMK SF8 SLP920 DENSITY ALT 500FT

CYGK;2017-05-06 15:00;CYGK 061500Z 02005KT 2 1/2SM -RA BR OVC004 11/10 A2928 RMK SF8 SLP919 DENSITY ALT 500FT

CYGK;2017-05-06 15:22;CYGK 061522Z 02004KT 3SM -RADZ BR BKN003 OVC007 11/10 A2928 RMK SF6SF2 CIG RAG SLP919 DENSITY ALT 600FT

CYGK;2017-05-06 16:00;CYGK 061600Z 02006KT 6SM -RADZ BR OVC004 11/11 A2927 RMK SF8 CIG RAG SLP916 DENSITY ALT 600FT

CYGK;2017-05-06 16:25;CYGK 061625Z 01005KT 8SM OVC004 11/10 A2928 RMK SF8 SLP919 DENSITY ALT 600FT

CYGK;2017-05-06 16:31;CYGK 061631Z 01004KT 8SM -RA OVC004 11/10 A2928 RMK SF8 -RA INTMT SLP919 DENSITY ALT 600FT

CYGK;2017-05-06 17:00;CYGK 061700Z 06006KT 5SM BR OVC005 11/11 A2928 RMK SF8 INTMT -RA SLP918 DENSITY ALT 600FT

CYGK;2017-05-06 17:05;CYGK 061705Z 06006KT 3/4SM -DZ BR OVC003 11/11 A2928 RMK FG3SF5 SLP917 DENSITY ALT 600FT

CYGK;2017-05-06 17:13;CYGK 061713Z 15009KT 050V170 3/8SM -DZ FG VV006 09/08 A2928 RMK FG8 SLP917

CYGK;2017-05-06 17:31;CYGK 061731Z 00000KT 1 1/4SM BR OVC004 08/07 A2927 RMK FG2SF6 SLP913

CYGK;2017-05-06 17:38;CYGK 061738Z 21003KT 100V220 1 1/4SM -RA BR OVC004 08/08 A2927 RMK FG2SF6 SLP913

CYGK;2017-05-06 17:51;CYGK 061751Z 16005KT 130V200 3/8SM -RA FG VV006 08/08 A2926 RMK FG8 SLP911

CYGK;2017-05-06 18:00;CYGK 061800Z 15006KT 1/4SM -RA FG VV006 07/07 A2926 RMK FG8 SLP912

CYGK;2017-05-06 18:21;CYGK 061821Z 14007KT 5/8SM BR OVC004 07/06 A2927 RMK FG3SF5 SLP915

CYGK;2017-05-06 18:28;CYGK 061828Z 14005KT 1 1/4SM BR OVC004 07/07 A2927 RMK FG1SF7 SLP914

CYGK;2017-05-06 18:39;CYGK 061839Z 14006KT 3/4SM BR OVC004 07/07 A2927 RMK FG2SF6 VIS VRB 1/2-1 SLP914

CYGK;2017-05-06 19:00;CYGK 061900Z 00000KT 1SM BR OVC004 07/07 A2927 RMK FG3SF5 SLP913

CYGK;2017-05-06 19:26;CYGK 061926Z VRB02KT 1 1/2SM -DZ BR OVC004 08/07 A2927 RMK FG1SF7 SLP914

CYGK;2017-05-06 20:00;CYGK 062000Z 14009KT 1SM -DZ BR VV006 07/07 A2928 RMK FG8 SLP918

CYGK;2017-05-06 20:54;CYGK 062054Z 17007KT 1SM -RA BR OVC002 06/06 A2930 RMK FG4SF4 SLP925

CYGK;2017-05-06 21:00;CYGK 062100Z 16007KT 1 1/4SM -RA BR OVC002 06/06 A2930 RMK FG5SF3 SLP925

CYGK;2017-05-06 21:21;CYGK 062121Z 20004KT 1 1/2SM -RA BR BKN005 OVC020 07/06 A2930 RMK FG2SF5SC1 SLP926

CYGK;2017-05-06 22:00;CYGK 062200Z 27003KT 2 1/2SM -RA BR BKN004 OVC018 07/07 A2931 RMK FG1SF6SC1 SLP928

CYGK;2017-05-06 22:18;CYGK 062218Z VRB02KT 3/4SM -RA BR VV002 08/08 A2931 RMK FG8 SLP928

CYGK;2017-05-06 23:00;CYGK 062300Z 13002KT 3/4SM -RA BR BKN002 OVC009 08/08 A2932 RMK FG5SF2SF1 SLP933

CYGK;2017-05-07 00:00;CYGK 070000Z 26003KT 1SM -RA BR BKN006 OVC010 08/08 A2933 RMK FG3SF4SC1 SLP937

CYGK;2017-05-07 01:00;CYGK 070100Z 33007KT 5SM -RA BR BKN004 OVC010 09/08 A2935 RMK SF5SC3 SLP943

CYGK;2017-05-07 01:09;CYGK 070109Z 35009KT 10SM -RA FEW005 BKN015 OVC023 09/08 A2935 RMK SF2SC4SC2 SLP943

CYGK;2017-05-07 02:00;CYGK 070200Z 34008KT 10SM -RA FEW005 OVC021 08/08 A2936 RMK SF2SC6 SLP945

CYGK;2017-05-07 03:00;CYGK 070300Z 31003KT 8SM -RA FEW005 BKN012 OVC020 08/07 A2937 RMK SF2SC4SC2 LAST STFD OBS/NEXT 071000 UTC SLP950

CYGK;2017-05-07 10:00;CYGK 071000Z 30010KT 10SM -RA BKN012 OVC030 04/02 A2946 RMK SC5SC3 SLP981

CYGK;2017-05-07 10:33;CYGK 071033Z 30008KT 8SM -RA BKN009 OVC030 03/02 A2948 RMK SF5SC3 SLP987

CYGK;2017-05-07 11:00;CYGK 071100Z 30009KT 12SM VCSH SCT009 OVC035 03/02 A2950 RMK SF4SC4 SLP993

CYGK;2017-05-07 11:32;CYGK 071132Z 28007KT 8SM -DZ BKN010 OVC035 04/03 A2951 RMK SF6SC2 SLP998

CYGK;2017-05-07 11:50;CYGK 071150Z 27010G17KT 250V310 8SM -DZ BKN009 OVC020 04/02 A2952 RMK SF5SC3 SLP000

CYGK;2017-05-07 12:00;CYGK 071200Z 28007KT 8SM -RADZ BKN009 OVC020 04/03 A2952 RMK SF6SC2 SLP001

CYGK;2017-05-07 12:32;CYGK 071232Z 28008KT 15SM SCT009 BKN015 OVC055 04/02 A2953 RMK SF3SC4SC1 INTMT -RA SLP005

CYGK;2017-05-07 13:00;CYGK 071300Z 28008KT 260V330 15SM -RA FEW008 OVC012 05/02 A2955 RMK SF2SC6 SLP011

CYGK;2017-05-07 14:00;CYGK 071400Z 29009KT 10SM -RA BKN015 OVC045 04/02 A2958 RMK SC7SC1 SLP019

CYGK;2017-05-07 15:00;CYGK 071500Z 26006KT 15SM -RA BKN018 OVC047 05/02 A2960 RMK SC5SC3 SLP026

CYGK;2017-05-07 16:00;CYGK 071600Z 22009KT 15SM -RA BKN020 OVC050 06/02 A2961 RMK SC6SC2 VIS LWR N SLP030

CYGK;2017-05-07 17:00;CYGK 071700Z 27007KT 230V320 15SM BKN023 OVC050 07/02 A2962 RMK CU6SC2 OCNL -SHRA SLP033

CYGK;2017-05-07 18:05;CYGK 071805Z 33012KT 15SM -SHRA FEW014 BKN020 OVC052 06/03 A2964 RMK CF1CU5SC2 WSHFT 1753 SLP042

CYGK;2017-05-07 19:00;CYGK 071900Z 27007KT 15SM -SHRA SCT018 OVC045 07/03 A2966 RMK CU4SC4 SLP047

CYGK;2017-05-07 20:00;CYGK 072000Z 31010G21KT 260V340 15SM -SHRA SCT022 OVC050 07/03 A2967 RMK CU3SC5 SLP050

CYGK;2017-05-07 21:00;CYGK 072100Z 32012G17KT 15SM -SHRA SCT022 BKN031 07/02 A2968 RMK CU4SC3 SLP056

CYGK;2017-05-07 22:00;CYGK 072200Z 31010KT 280V340 20SM -SHRA SCT022 OVC060 07/02 A2971 RMK CU3SC5 SLP065

CYGK;2017-05-07 23:00;CYGK 072300Z 29008KT 15SM -SHRA SCT022 OVC035 06/03 A2973 RMK CU4SC4 SLP072

CYGK;2017-05-08 00:00;CYGK 080000Z 32008KT 15SM -SHRA SCT024 OVC040 05/02 A2976 RMK CU3SC5 SLP081

CYGK;2017-05-08 01:00;CYGK 080100Z 35007KT 310V010 15SM -SHRA SCT022 BKN042 BKN073 04/02 A2978 RMK CU3SC3AC1 SLP090

CYGK;2017-05-08 02:00;CYGK 080200Z 33009KT 15SM -SHRA FEW018 SCT060 BKN094 03/01 A2981 RMK CU2SC2AC2 SLP098

CYGK;2017-05-08 03:00;CYGK 080300Z 32012KT 15SM -SHRA SCT023 BKN096 03/M00 A2980 RMK CU3AC3 LAST STFD OBS/NEXT 081000 UTC SLP097

CYGK;2017-05-08 10:00;CYGK 081000Z 32005KT 12SM OVC020 01/M00 A2986 RMK SC8 -SHSN PAST HR SLP115

CYGK;2017-05-08 10:06;CYGK 081006Z 32005KT 10SM -SHRASN OVC020 01/M00 A2986 RMK SC8 SLP116

CYGK;2017-05-08 10:24;CYGK 081024Z 32004KT 15SM VCSH SCT010 OVC025 01/M00 A2986 RMK CU3SC5 SLP117

CYGK;2017-05-08 11:00;CYGK 081100Z 35004KT 15SM VCSH FEW010 BKN020 OVC080 02/00 A2987 RMK CU2SC3AC3 SLP120

CYGK;2017-05-08 12:00;CYGK 081200Z 30003KT 280V350 15SM -SHRA BKN017 OVC040 02/M00 A2987 RMK CU5SC3 SLP121

CYGK;2017-05-08 13:00;CYGK 081300Z 30007KT 15SM -SHRASN FEW008 BKN020 OVC040 03/M01 A2987 RMK SF1CU7SC1 SF TR SLP120

CYGK;2017-05-08 14:00;CYGK 081400Z 31009KT 15SM VCSH BKN020 OVC035 04/M02 A2987 RMK CU5SC3 SLP121

CYGK;2017-05-08 15:00;CYGK 081500Z 28009KT 250V330 15SM VCSH SCT020 BKN030 OVC070 05/M01 A2987 RMK CU3SC4AC1 SLP120

CYGK;2017-05-08 16:00;CYGK 081600Z 33009G18KT 15SM VCSH FEW020 OVC038 05/M03 A2987 RMK CU2SC6 SLP118

CYGK;2017-05-08 16:36;CYGK 081636Z 31010KT 15SM -RA FEW020 OVC040 05/M03 A2987 RMK CU1SC7 SLP118

CYGK;2017-05-08 17:00;CYGK 081700Z 31009KT 260V330 15SM -RA OVC034 06/M01 A2987 RMK SC8 SLP118

CYGK;2017-05-08 18:00;CYGK 081800Z 27007KT 260V330 15SM OVC037 06/M02 A2987 RMK SC8 INTMT -RA SLP118

CYGK;2017-05-08 19:00;CYGK 081900Z 33004KT 300V360 15SM -RA OVC040 06/M01 A2987 RMK SC8 SLP118

CYGK;2017-05-08 20:00;CYGK 082000Z VRB02KT 15SM -RA OVC045 06/M01 A2986 RMK SC8 SLP116

CYGK;2017-05-08 21:00;CYGK 082100Z 01006KT 300V040 15SM -RA OVC040 05/00 A2987 RMK SC8 SLP118

CYGK;2017-05-08 22:00;CYGK 082200Z 35008KT 9SM -RA FEW016 OVC020 04/02 A2988 RMK SF2SC6 SLP124

CYGK;2017-05-08 23:00;CYGK 082300Z 34005KT 300V030 9SM -RA FEW016 OVC019 04/01 A2990 RMK SF1SC7 SLP130

CYGK;2017-05-09 00:00;CYGK 090000Z 24004KT 15SM -RA FEW016 BKN035 OVC070 04/02 A2990 RMK SF1SC5AC2 SLP130

CYGK;2017-05-09 01:00;CYGK 090100Z CCA 00000KT 9SM -RA SCT018 OVC026 02/01 A2991 RMK SC4SC4 SLP135

CYGK;2017-05-09 02:00;CYGK 090200Z 31007KT 9SM -RA FEW017 OVC036 02/01 A2993 RMK SF1SC7 SLP140

CYGK;2017-05-09 03:00;CYGK 090300Z 29003KT 15SM -RA SCT024 OVC066 02/01 A2994 RMK SC3AC5 SLP142

CYGK;2017-05-09 10:00;CYGK 091000Z 36003KT 15SM FEW008 BKN028 OVC070 01/M01 A2995 RMK SF1SC4AC3 SLP149

CYGK;2017-05-09 11:00;CYGK 091100Z 01004KT 15SM FEW008 BKN036 OVC070 01/M00 A2998 RMK SF1SC5AC2 SLP158

CYGK;2017-05-09 12:00;CYGK 091200Z 36003KT 15SM FEW008 BKN040 OVC066 02/M00 A3000 RMK SF2SC4AC2 SLP164

CYGK;2017-05-09 13:00;CYGK 091300Z 04004KT 15SM SCT017 OVC050 02/M01 A3001 RMK SC3SC5 SLP167

CYGK;2017-05-09 14:00;CYGK 091400Z 10003KT 15SM SCT018 OVC060 03/M03 A3002 RMK SC3SC5 SLP170

CYGK;2017-05-09 15:00;CYGK 091500Z 19005KT 15SM BKN030 OVC060 04/M01 A3003 RMK SC6SC2 SLP173

CYGK;2017-05-09 16:00;CYGK 091600Z 22005KT 15SM BKN033 OVC062 04/M01 A3004 RMK SC6SC2 SLP176

CYGK;2017-05-09 17:00;CYGK 091700Z 00000KT 15SM BKN030 OVC065 05/M01 A3003 RMK SC6SC2 SLP173

CYGK;2017-05-09 18:00;CYGK 091800Z 21008KT 15SM OVC032 05/M01 A3003 RMK SC8 SLP175

CYGK;2017-05-09 19:00;CYGK 091900Z 16006KT 15SM BKN031 05/00 A3003 RMK SC7 SLP173

CYGK;2017-05-09 20:00;CYGK 092000Z 20004KT 15SM BKN032 OVC065 05/00 A3003 RMK SC6SC2 SLP175

CYGK;2017-05-09 21:00;CYGK 092100Z VRB02KT 15SM SCT035 OVC080 05/M00 A3003 RMK SC4AC4 SLP175

CYGK;2017-05-09 22:00;CYGK 092200Z 03005KT 010V080 15SM FEW030 BKN095 06/M01 A3004 RMK SC2AC5 SLP176

CYGK;2017-05-09 23:00;CYGK 092300Z 03005KT 15SM FEW030 BKN095 06/M01 A3004 RMK SC2AC5 SLP177

CYGK;2017-05-10 00:00;CYGK 100000Z 05004KT 15SM FEW030 BKN092 06/M00 A3005 RMK SC1AC6 SLP181

CYGK;2017-05-10 01:00;CYGK 100100Z 05005KT 15SM FEW020 FEW038 BKN090 05/M00 A3006 RMK CF1SC2AC5 CF TR SLP184

CYGK;2017-05-10 02:00;CYGK 100200Z 04004KT 15SM FEW045 BKN090 05/M00 A3007 RMK SC1AC6 SLP188

CYGK;2017-05-10 03:00;CYGK 100300Z 03003KT 15SM BKN040 BKN090 05/00 A3007 RMK SC5AC2 LAST STFD OBS/NEXT 101000UTC SLP186

CYGK;2017-05-10 10:00;CYGK 101000Z 34005KT 15SM FEW050 FEW240 M00/M02 A3010 RMK SC1CI1 SC TR CI TR SLP197

CYGK;2017-05-10 11:00;CYGK 101100Z 35005KT 15SM FEW050 FEW250 02/00 A3011 RMK SC1CI1 SC TR CI TR SLP202

CYGK;2017-05-10 12:00;CYGK 101200Z 01004KT 330V030 15SM FEW080 FEW250 05/00 A3013 RMK AC1CI2 AC TR SLP206

CYGK;2017-05-10 13:00;CYGK 101300Z 34005KT 320V070 15SM FEW030 FEW100 FEW250 07/M01 A3013 RMK CF1AC1CI1 CF TR SLP206

CYGK;2017-05-10 14:00;CYGK 101400Z 16002KT 15SM SCT045 BKN120 BKN250 07/00 A3011 RMK SC4AC1CI1 SLP202

CYGK;2017-05-10 15:00;CYGK 101500Z 00000KT 15SM BKN053 BKN120 08/M00 A3011 RMK SC5AC1 SLP199

CYGK;2017-05-10 16:00;CYGK 101600Z 16009KT 15SM BKN053 BKN250 09/00 A3011 RMK SC5CI1 SLP199

CYGK;2017-05-10 17:00;CYGK 101700Z 19009KT 15SM BKN054 BKN070 BKN250 10/02 A3010 RMK SC5AC1CI2 AC TR SLP197

CYGK;2017-05-10 18:00;CYGK 101800Z 20009KT 15SM SCT055 BKN250 10/01 A3009 RMK SC4CI2 SLP194

CYGK;2017-05-10 19:00;CYGK 101900Z 19012KT 15SM SCT060 BKN240 09/M01 A3010 RMK SC4CI2 SLP196

CYGK;2017-05-10 20:00;CYGK 102000Z 21008KT 15SM BKN055 BKN250 10/M00 A3009 RMK SC5CI2 SLP195

CYGK;2017-05-10 21:00;CYGK 102100Z 21007KT 15SM FEW035 SCT060 BKN250 10/01 A3010 RMK CF1SC4CI3 CF TR SLP196

CYGK;2017-05-10 22:00;CYGK 102200Z 25007KT 15SM FEW030 FEW058 SCT240 10/01 A3010 RMK CF1SC1CI3 CF TR SLP196

CYGK;2017-05-10 23:00;CYGK 102300Z 19004KT 180V240 15SM FEW058 SCT240 10/02 A3009 RMK SC1CI4 SC TR SLP193

CYGK;2017-05-11 00:00;CYGK 110000Z 22003KT 15SM FEW055 SCT230 09/01 A3009 RMK SC1CI4 SC TR SLP193

CYGK;2017-05-11 01:00;CYGK 110100Z 24003KT 15SM FEW230 08/02 A3009 RMK CI2 SLP193

CYGK;2017-05-11 02:00;CYGK 110200Z 29002KT 15SM FEW250 06/01 A3010 RMK CI2 SLP197

CYGK;2017-05-11 03:00;CYGK 110300Z 31004KT 15SM SCT250 06/01 A3009 RMK CI3 LAST STFD OBS/NEXT 111000UTC SLP194

CYGK;2017-05-11 10:00;CYGK 111000Z 02004KT 15SM FEW150 BKN250 04/M00 A3006 RMK AC1CI5 SLP182

CYGK;2017-05-11 11:00;CYGK 111100Z 05006KT 15SM FEW060 FEW150 BKN250 05/01 A3006 RMK SC1AC2CI3 SC TR SLP184

CYGK;2017-05-11 12:00;CYGK 111200Z 05006KT 15SM FEW100 SCT200 BKN250 08/03 A3006 RMK AC1CI2CI3 SLP184

CYGK;2017-05-11 13:00;CYGK 111300Z 06006KT 15SM FEW060 FEW100 BKN210 11/04 A3006 RMK SC1AC1CI5 SC TR SLP182

CYGK;2017-05-11 14:00;CYGK 111400Z 07010KT 020V090 15SM FEW040 FEW180 BKN250 13/04 A3005 RMK CU1AC1CI4 CU TR SLP179

CYGK;2017-05-11 15:00;CYGK 111500Z 06011G17KT 15SM FEW040 FEW180 BKN230 13/03 A3003 RMK CU2AC1CI4 AC TR SLP173

CYGK;2017-05-11 16:00;CYGK 111600Z 10012KT 050V120 15SM SCT040 BKN210 BKN250 12/05 A3002 RMK SC4CI1CI1 SLP168

CYGK;2017-05-11 17:00;CYGK 111700Z 05009G17KT 010V090 15SM SCT047 BKN210 BKN240 14/05 A3001 RMK SC4CC1CI1 SLP165

CYGK;2017-05-11 18:00;CYGK 111800Z 02010G20KT 360V060 15SM SCT045 BKN210 14/04 A3000 RMK SC4CI2 SLP163

CYGK;2017-05-11 19:00;CYGK 111900Z 05010G18KT 360V070 15SM SCT045 BKN190 BKN250 15/05 A3000 RMK CU3AC2CI1 SLP162

CYGK;2017-05-11 20:00;CYGK 112000Z 01013KT 15SM FEW042 BKN180 BKN210 14/04 A3000 RMK CU2AC4CI1 SLP163

CYGK;2017-05-11 21:00;CYGK 112100Z 03010G16KT 15SM FEW040 FEW080 BKN180 13/05 A2999 RMK CU1AC1AC5 SLP159

CYGK;2017-05-11 22:00;CYGK 112200Z 03008G15KT 15SM FEW040 FEW080 BKN180 13/05 A2999 RMK CU1AC2AC5 CU TR SLP158

CYGK;2017-05-11 23:00;CYGK 112300Z 01010KT 15SM BKN160 12/05 A3000 RMK AC7 SLP163

CYGK;2017-05-12 00:00;CYGK 120000Z 03008KT 15SM BKN170 12/05 A3001 RMK AC7 SLP166

CYGK;2017-05-12 01:00;CYGK 120100Z 03005KT 15SM BKN180 10/04 A3002 RMK AC7 SLP169

CYGK;2017-05-12 02:00;CYGK 120200Z 04007KT 15SM BKN180 10/05 A3002 RMK AC5 SLP170

CYGK;2017-05-12 03:00;CYGK 120300Z 04009KT 15SM SCT170 09/05 A3001 RMK AC4 LAST STFD OBS/NEXT 121000UTC SLP167

CYGK;2017-05-12 10:00;CYGK 121000Z 03005KT 15SM SCT150 07/06 A3000 RMK AC4 SLP161

CYGK;2017-05-12 11:00;CYGK 121100Z 03003KT 010V070 15SM SCT140 08/07 A3002 RMK AC3 SLP170

CYGK;2017-05-12 12:00;CYGK 121200Z 03004KT 15SM FEW140 10/07 A3002 RMK AC2 SLP169

CYGK;2017-05-12 13:00;CYGK 121300Z 14004KT 080V220 15SM SCT130 12/05 A3002 RMK AC3 SLP168

CYGK;2017-05-12 14:00;CYGK 121400Z 17006KT 15SM FEW020 SCT140 12/06 A3002 RMK CF1AC3 CF TR SLP169

CYGK;2017-05-12 15:00;CYGK 121500Z 16008KT 15SM FEW020 SCT130 11/07 A3002 RMK CF1AC4 CF TR SLP170

CYGK;2017-05-12 16:00;CYGK 121600Z 18006KT 15SM FEW025 BKN130 BKN250 11/07 A3002 RMK CU1AC4CI1 SLP168

CYGK;2017-05-12 17:00;CYGK 121700Z 17004KT 15SM FEW024 FEW070 BKN130 12/07 A3000 RMK CU1AC1AC4 SLP163

CYGK;2017-05-12 18:00;CYGK 121800Z 16004KT 15SM FEW025 SCT130 SCT250 13/08 A2998 RMK CU1AC2CI1 SLP155

CYGK;2017-05-12 19:00;CYGK 121900Z 20006KT 15SM FEW040 SCT070 SCT130 BKN250 14/06 A2996 RMK CU2AC1AC1CI1 SLP149

CYGK;2017-05-12 20:00;CYGK 122000Z 17005KT 15SM FEW040 BKN120 BKN250 13/07 A2995 RMK CU2AC3CI2 SLP144

CYGK;2017-05-12 21:00;CYGK 122100Z 20006KT 15SM FEW028 SCT076 BKN130 BKN250 16/07 A2994 RMK CU2AC1AC2CI2 SLP142 DENSITY ALT 400FT

CYGK;2017-05-12 22:00;CYGK 122200Z 18002KT 15SM FEW080 BKN100 OVC120 15/05 A2993 RMK AC2AC3AC3 SLP138 DENSITY ALT 400FT

CYGK;2017-05-12 23:00;CYGK 122300Z 27002KT 15SM OVC100 16/08 A2992 RMK AC8 SLP136 DENSITY ALT 400FT

CYGK;2017-05-13 00:00;CYGK 130000Z 00000KT 15SM FEW080 FEW100 OVC120 15/08 A2992 RMK AC1AC2AC6 AC TR SLP135 DENSITY ALT 400FT

CYGK;2017-05-13 01:00;CYGK 130100Z 34002KT 15SM BKN080 OVC100 14/08 A2992 RMK AC6AC2 SLP133

CYGK;2017-05-13 02:00;CYGK 130200Z 00000KT 15SM OVC089 15/07 A2992 RMK AC8 SLP133

CYGK;2017-05-13 03:00;CYGK 130300Z 17003KT 040V180 15SM OVC055 14/08 A2992 RMK SC8 LAST STFD OBS/NEXT 131000 UTC SLP133

CYGK;2017-05-13 10:00;CYGK 131000Z 36004KT 10SM -RA FEW008 BKN045 OVC080 10/10 A2989 RMK SF1SC6AC2 SF TR SLP124

CYGK;2017-05-13 11:00;CYGK 131100Z 15006KT 10SM FEW004 OVC050 10/09 A2990 RMK SF1SC7 INTMT -RA SLP127

CYGK;2017-05-13 11:32;CYGK 131132Z 13003KT 15SM FEW004 OVC048 10/09 A2990 RMK SF1SC8 SF TR SLP129

CYGK;2017-05-13 12:00;CYGK 131200Z 13004KT 15SM FEW004 OVC048 10/08 A2990 RMK SF1SC8 SF TR SLP129

CYGK;2017-05-13 12:11;CYGK 131211Z 13003KT 15SM -RA FEW004 OVC048 10/08 A2990 RMK SF1SC8 SF TR -RA INTMT SLP129

CYGK;2017-05-13 13:00;CYGK 131300Z 15005KT 6SM -RA BR BKN038 OVC051 10/09 A2991 RMK SC6SC2 SLP131

CYGK;2017-05-13 14:00;CYGK 131400Z 16006KT 6SM -RA BR FEW005 OVC035 10/09 A2992 RMK SF1SC8 SF TR SLP134

CYGK;2017-05-13 15:00;CYGK 131500Z 14006KT 6SM -RA BR FEW005 OVC040 10/09 A2991 RMK SF2SC6 SLP132

CYGK;2017-05-13 16:00;CYGK 131600Z 14005KT 15SM FEW005 OVC039 10/09 A2990 RMK SF1SC7 SLP129

CYGK;2017-05-13 17:00;CYGK 131700Z 16005KT 15SM FEW006 OVC036 10/08 A2989 RMK CU2SC6 SLP126

CYGK;2017-05-13 18:00;CYGK 131800Z 16004KT 15SM FEW006 BKN037 10/07 A2988 RMK CF1SC6 SLP122

CYGK;2017-05-13 18:10;CYGK 131810Z 18003KT 130V200 15SM -SHRA FEW007 OVC038 10/08 A2988 RMK CU2SC6 SLP121

CYGK;2017-05-13 19:00;CYGK 131900Z 16004KT 15SM -SHRA FEW021 OVC037 10/08 A2987 RMK CU2SC6 SLP119

CYGK;2017-05-13 19:29;CYGK 131929Z 15004KT 12SM VCSH SCT018 OVC030 10/08 A2987 RMK CU3SC5 SLP117

CYGK;2017-05-13 20:00;CYGK 132000Z 13007KT 12SM SCT018 OVC025 11/08 A2986 RMK CU3SC5 SLP115

CYGK;2017-05-13 21:00;CYGK 132100Z 12008KT 15SM FEW020 OVC032 OVC140 10/08 A2985 RMK CU1SC7AC1 AC TR SLP111

CYGK;2017-05-13 22:00;CYGK 132200Z 06004KT 15SM FEW020 BKN040 BKN140 11/07 A2984 RMK CU1SC7AC1 CU TR AC TR SLP106

CYGK;2017-05-13 23:00;CYGK 132300Z 00000KT 15SM FEW020 SCT027 BKN086 BKN140 11/07 A2983 RMK CU1SC3AC3AC1 CU TR SLP105

CYGK;2017-05-14 00:00;CYGK 140000Z 09003KT 15SM SCT028 BKN083 11/07 A2983 RMK SC3AC4 SLP103

CYGK;2017-05-14 01:00;CYGK 140100Z 08002KT 15SM FEW020 SCT082 BKN120 10/07 A2981 RMK SC1AC3AC2 SLP099

CYGK;2017-05-14 02:00;CYGK 140200Z 00000KT 15SM SCT090 BKN120 09/08 A2981 RMK AC4AC2 SLP098

CYGK;2017-05-14 03:00;CYGK 140300Z 00000KT 15SM SCT072 BKN090 08/07 A2980 RMK AC3AC3 LAST STFD OBS/NEXT 141000 UTC SLP096

CYGK;2017-05-14 10:00;CYGK 141000Z VRB02KT 6SM BR BCFG FEW055 BKN075 05/05 A2973 RMK SC2AC5 SLP070

CYGK;2017-05-14 10:15;CYGK 141015Z 00000KT 6SM BR FEW009 SCT060 BKN075 06/05 A2973 RMK ST2SC2AC3 SLP071

CYGK;2017-05-14 11:00;CYGK 141100Z 06002KT 8SM FEW009 SCT060 BKN090 07/07 A2973 RMK ST2SC2AC3 SLP070

CYGK;2017-05-14 11:37;CYGK 141137Z 17003KT 120V190 10SM FEW002 BKN010 BKN090 09/08 A2973 RMK SF1ST4AC2 SLP069

CYGK;2017-05-14 12:00;CYGK 141200Z 18005KT 15SM FEW002 BKN010 BKN093 09/09 A2972 RMK SF1ST4AC2 SLP067

CYGK;2017-05-14 13:00;CYGK 141300Z 21006KT 170V240 15SM FEW004 OVC012 09/09 A2971 RMK SF1SC8 SF TR SLP065

CYGK;2017-05-14 14:00;CYGK 141400Z 22005KT 15SM FEW008 OVC012 10/09 A2971 RMK SF1SC7 SLP064

CYGK;2017-05-14 14:07;CYGK 141407Z 23006KT 12SM BKN006 OVC012 10/09 A2971 RMK SF5SC3 SLP064

CYGK;2017-05-14 14:43;CYGK 141443Z 15004KT 130V220 12SM SCT006 BKN013 BKN090 10/09 A2970 RMK SF3SC3AC1 SLP061

CYGK;2017-05-14 14:51;CYGK 141451Z 15004KT 12SM -SHRA FEW006 SCT012 BKN090 10/09 A2970 RMK SF2SC2AC3 SLP060

CYGK;2017-05-14 15:00;CYGK 141500Z 18005KT 12SM -SHRA FEW006 SCT012 BKN050 BKN085 10/09 A2970 RMK SF1SC2SC2AC2 SLP061

CYGK;2017-05-14 15:30;CYGK 141530Z 18008KT 5SM BR BCFG FEW004 BKN013 BKN080 09/09 A2970 RMK SF2SC4AC1 VIS SE 3/4 DUE FG BANK SLP060

CYGK;2017-05-14 16:00;CYGK 141600Z 18005KT 5SM BR BCFG FEW003 SCT013 SCT072 BKN100 11/09 A2970 RMK SF1CU2AC1AC1 VIS SE-S 3/4 SLP061

CYGK;2017-05-14 17:00;CYGK 141700Z 18009KT 12SM SCT020TCU SCT100 SCT200 11/10 A2967 RMK TCU3AC1CI1 AC TR CB TOPS DIST N-NW SLP051

CYGK;2017-05-14 17:18;CYGK 141718Z 19008KT 10SM TS SCT020CB SCT100 BKN200 12/09 A2967 RMK CB3AC1CI2 AC TR SLP051

CYGK;2017-05-14 17:30;CYGK 141730Z 20008KT 8SM -TSRA BKN025CB BKN100 BKN240 10/08 A2967 RMK CB5AC1CI2 AC TR VIS W-NW 4 SLP051

CYGK;2017-05-14 18:00;CYGK 141800Z 20007KT 9SM -TSRA BKN025CB BKN100 10/09 A2966 RMK CB5AC2 SLP047

CYGK;2017-05-14 18:13;CYGK 141813Z 24008KT 10SM -SHRA BKN040TCU BKN080 11/08 A2966 RMK TCU5AC2 CB EMBD NW-N SLP046

CYGK;2017-05-14 19:00;CYGK 141900Z 25010KT 15SM -SHRA SCT040TCU BKN070 12/07 A2963 RMK TCU3AC3 SLP037

CYGK;2017-05-14 19:20;CYGK 141920Z 28009KT 15SM SCT040TCU SCT100 BKN230 13/08 A2963 RMK TCU3AC1CI2 SLP038 DENSITY ALT 400FT

CYGK;2017-05-14 20:00;CYGK 142000Z 33009KT 280V340 15SM SCT040TCU BKN100 BKN240 14/08 A2963 RMK TCU4AC2CI1 CI TR SLP038 DENSITY ALT 500FT

CYGK;2017-05-14 21:00;CYGK 142100Z 32010G20KT 15SM -SHRA SCT040TCU BKN080 12/07 A2965 RMK TCU4AC3 SLP043

CYGK;2017-05-14 22:00;CYGK 142200Z 34009KT 15SM SCT040TCU BKN078 BKN250 13/07 A2966 RMK TCU3AC3CI1 SLP046

CYGK;2017-05-14 22:12;CYGK 142212Z 35012G17KT 15SM -SHRA SCT040TCU BKN070 BKN250 13/06 A2966 RMK TCU3AC3CI1 SLP047

CYGK;2017-05-14 22:34;CYGK 142234Z 33009KT 15SM SCT040TCU BKN056 BKN250 13/07 A2967 RMK TCU3SC3CI1 SLP050

CYGK;2017-05-14 23:00;CYGK 142300Z 34010KT 300V360 15SM FEW040TCU BKN060 BKN100 13/07 A2967 RMK TCU1SC4AC2 SLP051 DENSITY ALT 400FT

CYGK;2017-05-15 00:00;CYGK 150000Z 35008KT 15SM FEW020 BKN045 BKN070 BKN180 12/07 A2969 RMK CU1SC4AC1CI1 SLP058

CYGK;2017-05-15 01:00;CYGK 150100Z 29004KT 15SM SCT040 BKN065 12/08 A2971 RMK SC3SC3 SLP063

CYGK;2017-05-15 02:00;CYGK 150200Z 32011KT 15SM FEW030 BKN060 BKN130 12/07 A2973 RMK SC2SC4AC1 SLP070

CYGK;2017-05-15 03:00;CYGK 150300Z 32010KT 15SM SCT024 BKN061 12/08 A2974 RMK SC3SC3 LAST STFD OBS/NEXT 151000 UTC SLP073

CYGK;2017-05-15 10:00;CYGK 151000Z 35012G20KT 15SM BKN020 08/05 A2983 RMK SC7 SLP103

CYGK;2017-05-15 11:00;CYGK 151100Z 34013G18KT 15SM SCT020 BKN250 09/05 A2984 RMK SC4CI1 SLP107

CYGK;2017-05-15 12:00;CYGK 151200Z 34012G23KT 15SM BKN022 10/05 A2985 RMK SC5 SLP111

CYGK;2017-05-15 13:00;CYGK 151300Z 34015G24KT 15SM SCT023 BKN250 11/06 A2987 RMK SC4CI1 SLP116

CYGK;2017-05-15 14:00;CYGK 151400Z 32017G25KT 15SM SCT025 BKN250 13/06 A2987 RMK SC3CI2 SLP116

CYGK;2017-05-15 15:00;CYGK 151500Z 33016G22KT 15SM SCT024 SCT250 14/07 A2987 RMK SC3CI1 SLP117

CYGK;2017-05-15 16:00;CYGK 151600Z 34013G20KT 15SM FEW035 SCT250 15/07 A2988 RMK CU2CI1 SLP121 DENSITY ALT 400FT

CYGK;2017-05-15 17:00;CYGK 151700Z 34013G20KT 15SM FEW028 FEW250 16/08 A2987 RMK SC1CI1 CI TR SLP119 DENSITY ALT 500FT

CYGK;2017-05-15 18:00;CYGK 151800Z 35013G19KT 300V010 15SM FEW030 FEW230 18/08 A2987 RMK CU1CI1 CI TR SLP117 DENSITY ALT 700FT

CYGK;2017-05-15 19:00;CYGK 151900Z 31011G18KT 280V010 15SM FEW050 FEW230 19/08 A2987 RMK SC2CI1 CI TR SLP117 DENSITY ALT 800FT

CYGK;2017-05-15 20:00;CYGK 152000Z 29010G16KT 270V340 15SM SCT054 SCT230 20/08 A2986 RMK CU3CI1 CI TR SLP115 DENSITY ALT 1000FT

CYGK;2017-05-15 21:00;CYGK 152100Z 34013G20KT 300V010 15SM SCT060 20/08 A2987 RMK CU3 SLP118 DENSITY ALT 1000FT

CYGK;2017-05-15 22:00;CYGK 152200Z 35017KT 15SM FEW060 FEW230 19/06 A2988 RMK SC2CI1 CI TR SLP120 DENSITY ALT 900FT

CYGK;2017-05-15 23:00;CYGK 152300Z 35012KT 15SM FEW060 FEW230 18/07 A2990 RMK SC1CI1 SC TR SLP127 DENSITY ALT 700FT

CYGK;2017-05-16 00:00;CYGK 160000Z 33009G17KT 15SM FEW060 FEW200 17/07 A2991 RMK SC1CI1 SC TR SLP130 DENSITY ALT 600FT

CYGK;2017-05-16 01:00;CYGK 160100Z 32005KT 15SM FEW060 FEW200 14/07 A2992 RMK SC1CI1 SC TR SLP136

CYGK;2017-05-16 02:00;CYGK 160200Z 31003KT 15SM FEW200 14/06 A2995 RMK CI1 SLP144

CYGK;2017-05-16 03:00;CYGK 160300Z 34003KT 15SM SKC 13/06 A2995 RMK LAST STFD OBS/NEXT 161000UTC SLP144

CYGK;2017-05-16 10:00;CYGK 161000Z 16004KT 060V170 15SM FEW150 BKN250 07/05 A3000 RMK AC2CI3 SLP160

CYGK;2017-05-16 11:00;CYGK 161100Z 15003KT 100V160 15SM FEW150 BKN250 10/08 A3001 RMK AC2CI4 SLP166

CYGK;2017-05-16 12:00;CYGK 161200Z 18004KT 15SM SCT150 BKN250 11/08 A3002 RMK AC3CI3 SLP168

CYGK;2017-05-16 13:00;CYGK 161300Z 20006KT 15SM SCT140 BKN250 12/09 A3004 RMK AC3CI3 SLP174

CYGK;2017-05-16 14:00;CYGK 161400Z 17005KT 15SM FEW150 SCT200 BKN250 12/09 A3004 RMK AC2CI2CI1 SLP176

CYGK;2017-05-16 15:00;CYGK 161500Z 17005KT 15SM FEW020 FEW160 BKN250 13/10 A3004 RMK CF1AC2CI4 CF TR SLP176

CYGK;2017-05-16 16:00;CYGK 161600Z 16008KT 15SM FEW040 SCT160 BKN250 12/09 A3005 RMK CU1AC3CI4 CU TR SLP178

CYGK;2017-05-16 17:00;CYGK 161700Z 18009KT 15SM FEW030 FEW170 BKN250 12/09 A3005 RMK CU1AC2CI5 CU TR SLP178

CYGK;2017-05-16 18:00;CYGK 161800Z 18008KT 15SM FEW030 SCT100 BKN160 BKN250 12/09 A3003 RMK CU1AC3AC2CI2 CU TR SLP172

CYGK;2017-05-16 19:00;CYGK 161900Z 18009KT 15SM FEW030 SCT120 BKN160 BKN250 13/09 A3002 RMK CU1AC4AC2CI1 CU TR SLP168

CYGK;2017-05-16 20:00;CYGK 162000Z 18008KT 15SM SCT110 BKN250 13/09 A2999 RMK AC4CI3 SLP160

CYGK;2017-05-16 21:00;CYGK 162100Z 18010KT 15SM FEW030 FEW100 SCT170 SCT250 16/09 A2996 RMK SC1AC2AC1CI1 SC TR PRESFR SLP148

CYGK;2017-05-16 22:00;CYGK 162200Z 20010KT 15SM FEW100 SCT250 15/08 A2995 RMK AC1CI3 PRESRR SLP145

CYGK;2017-05-16 23:00;CYGK 162300Z 19007KT 15SM SCT100 BKN160 13/09 A2994 RMK AC3AC4 SLP141

CYGK;2017-05-17 00:00;CYGK 170000Z VRB02KT 15SM BKN070 BKN140 12/08 A2993 RMK AC5AC2 SLP140

CYGK;2017-05-17 01:00;CYGK 170100Z 11002KT 15SM BKN058 BKN080 12/08 A2993 RMK SC5AC2 SLP138

CYGK;2017-05-17 02:00;CYGK 170200Z 15003KT 15SM BKN058 OVC130 12/08 A2993 RMK SC6AC2 SLP139

CYGK;2017-05-17 03:00;CYGK 170300Z 10004KT 15SM BKN095 BKN200 12/08 A2991 RMK AC5CI2 LAST STFD OBS/NEXT 171000UTC SLP132

CYGK;2017-05-17 10:00;CYGK 171000Z 21008KT 15SM SCT080 SCT180 BKN250 13/08 A2984 RMK AC3AC1CI2 SLP107

CYGK;2017-05-17 11:00;CYGK 171100Z 21010KT 15SM FEW080 SCT250 13/09 A2984 RMK AC2CI1 SLP107

CYGK;2017-05-17 12:00;CYGK 171200Z 19011KT 15SM FEW080 FEW250 14/09 A2985 RMK AC1CI1 AC TR SLP110

CYGK;2017-05-17 13:00;CYGK 171300Z 19011KT 15SM FEW080 FEW250 13/09 A2986 RMK AC1CI1 AC TR CI TR SLP114

CYGK;2017-05-17 14:00;CYGK 171400Z 19011KT 15SM FEW250 15/11 A2985 RMK CI1 SLP111 DENSITY ALT 400FT

CYGK;2017-05-17 15:00;CYGK 171500Z 22012G20KT 15SM FEW090 SCT250 23/16 A2983 RMK AC1CI2 SLP104 DENSITY ALT 1300FT

CYGK;2017-05-17 16:00;CYGK 171600Z 23015G24KT 15SM FEW040 FEW250 24/16 A2983 RMK CU1CI2 CU TR SLP102 DENSITY ALT 1400FT

CYGK;2017-05-17 17:00;CYGK 171700Z 20011KT 12SM FEW040 SCT250 21/14 A2982 RMK CU1CI3 CU TR SLP100 DENSITY ALT 1100FT

CYGK;2017-05-17 18:00;CYGK 171800Z 19013G20KT 10SM FEW040 FEW160 SCT250 19/13 A2982 RMK CU1AC2CI2 CU TR SLP099 DENSITY ALT 900FT

CYGK;2017-05-17 19:00;CYGK 171900Z 19013G18KT 10SM FEW050 FEW170 BKN250 18/12 A2981 RMK CU1AC2CI5 CU TR SLP097 DENSITY ALT 700FT

CYGK;2017-05-17 20:00;CYGK 172000Z 19011KT 10SM FEW055 FEW160 BKN250 20/14 A2980 RMK CU1AC1CI6 CU TR AC TR SLP094 DENSITY ALT 1000FT

CYGK;2017-05-17 21:00;CYGK 172100Z 24016G21KT 10SM FEW050 FEW160 BKN250 25/15 A2980 RMK CU1AC2CI4 CU TR SLP092 DENSITY ALT 1600FT

CYGK;2017-05-17 22:00;CYGK 172200Z 20008G19KT 170V240 12SM FEW160 SCT250 21/15 A2980 RMK AC1CI2 SLP093 DENSITY ALT 1200FT

CYGK;2017-05-17 23:00;CYGK 172300Z 17005KT 140V210 15SM FEW160 SCT240 19/13 A2980 RMK AC1CI2 SLP094 DENSITY ALT 900FT

CYGK;2017-05-17 23:16;CYGK 172316Z 23009G16KT 190V250 15SM FEW160 SCT240 23/15 A2980 RMK AC1CI3 WSHFT 2302 SLP093 DENSITY ALT 1400FT

CYGK;2017-05-18 00:00;CYGK 180000Z 22009KT 15SM FEW160 SCT250 21/14 A2980 RMK AC1CI3 SLP094 DENSITY ALT 1200FT

CYGK;2017-05-18 01:00;CYGK 180100Z 21004KT 15SM FEW160 SCT250 15/12 A2980 RMK AC1CI2 SLP093 DENSITY ALT 500FT

CYGK;2017-05-18 02:00;CYGK 180200Z 23008KT 15SM FEW160 SCT250 19/14 A2981 RMK AC2CI2 SLP096 DENSITY ALT 1000FT

CYGK;2017-05-18 03:00;CYGK 180300Z 24007KT 15SM FEW080 FEW250 19/14 A2981 RMK AC1CI1 LAST STFD OBS/NEXT 181000UTC SLP094 DENSITY ALT 900FT

CYGK;2017-05-18 10:00;CYGK 181000Z 19004KT 10SM FEW080 SCT200 15/12 A2980 RMK AC1CI2 SLP092 DENSITY ALT 400FT

CYGK;2017-05-18 11:00;CYGK 181100Z 20004KT 15SM FEW140 SCT230 17/13 A2980 RMK AC1CI4 AC TR SLP093 DENSITY ALT 700FT

CYGK;2017-05-18 12:00;CYGK 181200Z 21009KT 15SM FEW140 BKN230 17/12 A2980 RMK AC2CI3 SLP093 DENSITY ALT 700FT

CYGK;2017-05-18 13:00;CYGK 181300Z 18008KT 15SM FEW150 BKN250 16/11 A2979 RMK ACC2CI5 SLP091 DENSITY ALT 500FT

CYGK;2017-05-18 14:00;CYGK 181400Z 17011KT 12SM FEW150 BKN250 15/11 A2980 RMK ACC2CI5 SLP093 DENSITY ALT 500FT

CYGK;2017-05-18 15:00;CYGK 181500Z 23004KT 170V240 15SM SCT150 BKN250 20/14 A2978 RMK AC4CI3 SLP086 DENSITY ALT 1100FT

CYGK;2017-05-18 16:00;CYGK 181600Z 19010KT 15SM FEW150 BKN250 18/13 A2978 RMK AC2CI3 SLP086 DENSITY ALT 800FT

CYGK;2017-05-18 17:00;CYGK 181700Z 20009KT 15SM FEW040 SCT150 BKN250 22/16 A2977 RMK CU1AC2CI2 SLP083 DENSITY ALT 1300FT

CYGK;2017-05-18 18:00;CYGK 181800Z 23015G20KT 10SM FEW040 FEW100 SCT250 26/16 A2975 RMK CU1AC1CI1 SLP076 DENSITY ALT 1700FT

CYGK;2017-05-18 19:00;CYGK 181900Z 19010KT 12SM FEW040 FEW100 FEW250 22/15 A2973 RMK CU1AC1CI1 AC TR SLP070 DENSITY ALT 1300FT

CYGK;2017-05-18 20:00;CYGK 182000Z 19012KT 15SM FEW040 SCT150 SCT250 20/15 A2971 RMK CU1AC2CI1 SLP062 DENSITY ALT 1200FT

CYGK;2017-05-18 21:00;CYGK 182100Z 24013G20KT 15SM FEW040 FEW080 FEW250 26/17 A2969 RMK CU1AC1CI1 CU TR CB DIST SE-S + N SLP056 DENSITY ALT 1900FT

CYGK;2017-05-18 22:00;CYGK 182200Z 22012G20KT 15SM FEW250 26/16 A2967 RMK CI2 CB DIST SE-S + NW-NE SLP048 DENSITY ALT 1800FT

CYGK;2017-05-18 23:00;CYGK 182300Z 21006KT 15SM FEW080 SCT250 21/14 A2965 RMK AC1CI2 CB DIST SE-S + NW-NE SLP043 DENSITY ALT 1300FT

CYGK;2017-05-19 00:00;CYGK 190000Z VRB05KT 15SM FEW050 BKN100 BKN250 19/13 A2970 RMK CU2AC4CI1 CI TR SHWRS DIST N-NE SLP057 DENSITY ALT 1000FT

CYGK;2017-05-19 01:00;CYGK 190100Z 23010G19KT 15SM VCSH FEW030CB SCT080 BKN240 21/12 A2970 RMK CB1AC3CI3 LTNG SW SLP060 DENSITY ALT 1300FT

CYGK;2017-05-19 01:20;CYGK 190120Z 25013G21KT 15SM TS VCSH FEW030CB BKN080 BKN240 20/13 A2971 RMK CB1AC4CI2 LTNG SW MOVG ESE SLP062 DENSITY ALT 1200FT

CYGK;2017-05-19 02:00;CYGK 190200Z 27009KT 15SM FEW030CB SCT075 BKN240 21/14 A2970 RMK CB1AC2CI2 PRESFR SLP060 DENSITY ALT 1200FT

CYGK;2017-05-19 03:00;CYGK 190300Z 30007KT 15SM FEW065 SCT250 21/14 A2972 RMK SC2CI1 LAST STFD OBS/NEXT 191000UTC SLP067 DENSITY ALT 1300FT

CYGK;2017-05-19 10:00;CYGK 191000Z 24009KT 15SM SCT038 BKN058 16/14 A2984 RMK SC4SC3 SLP106 DENSITY ALT 500FT

CYGK;2017-05-19 11:00;CYGK 191100Z 01011KT 15SM BKN018 BKN038 14/11 A2987 RMK SC5SC2 SLP118

CYGK;2017-05-19 12:00;CYGK 191200Z 01012KT 15SM BKN020 OVC040 12/08 A2993 RMK SC6SC2 PRESRR SLP137

CYGK;2017-05-19 13:00;CYGK 191300Z 35016G22KT 15SM OVC022 11/07 A2995 RMK SC8 SLP143

CYGK;2017-05-19 14:00;CYGK 191400Z 36012G17KT 15SM FEW018 OVC030 10/06 A2998 RMK CF1SC7 SLP154

CYGK;2017-05-19 15:00;CYGK 191500Z 35014KT 15SM FEW025 OVC035 11/05 A3001 RMK CU2SC6 SLP166

CYGK;2017-05-19 16:00;CYGK 191600Z 32012KT 15SM FEW028 BKN040 13/05 A3002 RMK SC2SC5 SLP168

CYGK;2017-05-19 17:00;CYGK 191700Z 36007KT 290V030 15SM OVC035 13/06 A3004 RMK SC8 SLP176

CYGK;2017-05-19 18:00;CYGK 191800Z VRB03KT 15SM BKN040 14/06 A3007 RMK SC7 SLP186

CYGK;2017-05-19 19:00;CYGK 191900Z 20004KT 130V250 15SM BKN042 13/07 A3008 RMK SC7 SLP187

CYGK;2017-05-19 20:00;CYGK 192000Z 22008KT 15SM BKN045 BKN250 12/08 A3010 RMK SC5CI2 SLP194

CYGK;2017-05-19 21:00;CYGK 192100Z 19012KT 15SM FEW055 BKN250 13/08 A3011 RMK SC2CI3 SLP200

CYGK;2017-05-19 22:00;CYGK 192200Z 18009KT 15SM FEW058 SCT250 13/08 A3011 RMK SC1CI4 SC TR SLP200

CYGK;2017-05-19 23:00;CYGK 192300Z 23006KT 15SM BKN250 13/08 A3011 RMK CI6 SLP200

CYGK;2017-05-20 00:00;CYGK 200000Z 24003KT 180V250 15SM BKN250 11/09 A3014 RMK CI6 SLP210

CYGK;2017-05-20 01:00;CYGK 200100Z 00000KT 15SM BKN230 11/09 A3015 RMK CI6 SLP213

CYGK;2017-05-20 02:00;CYGK 200200Z 36009KT 15SM BKN210 11/00 A3018 RMK CI6 SLP225

CYGK;2017-05-20 03:00;CYGK 200300Z 36009KT 15SM BKN210 11/M00 A3021 RMK CI5 LAST STFD OBS/NEXT 201000 UTC SLP233

CYGK;2017-05-20 10:00;CYGK 201000Z 03007KT 15SM FEW250 06/M01 A3034 RMK CI2 PRESRR SLP278

CYGK;2017-05-20 11:00;CYGK 201100Z 05015KT 15SM FEW250 08/ A3036 RMK CI2 WND ESTD SLP284

CYGK;2017-05-20 12:00;CYGK 201200Z 05015G//KT 15SM FEW250 08/M01 A3037 RMK CI1 WND ESTD SLP289

CYGK;2017-05-20 13:00;CYGK 201300Z 09015G//KT 15SM FEW250 11/00 A3038 RMK CI1 CI TR WND ESTD SLP292

CYGK;2017-05-20 14:00;CYGK 201400Z 05011G19KT 030V090 15SM FEW250 11/00 A3038 RMK CI1 SLP290

CYGK;2017-05-20 15:00;CYGK 201500Z 05010G16KT 020V080 15SM FEW250 13/02 A3038 RMK CI1 SLP290

CYGK;2017-05-20 16:00;CYGK 201600Z 06012G19KT 15SM FEW250 14/01 A3037 RMK CI1 SLP288

CYGK;2017-05-20 17:00;CYGK 201700Z 05013KT 15SM FEW250 15/01 A3038 RMK CI1 SLP290

CYGK;2017-05-20 18:00;CYGK 201800Z 06009G15KT 010V080 15SM FEW250 16/02 A3037 RMK CI2 SLP286

CYGK;2017-05-20 19:00;CYGK 201900Z 04011G17KT 360V070 15SM FEW250 17/01 A3036 RMK CI2 SLP283

CYGK;2017-05-20 20:00;CYGK 202000Z 04011G16KT 010V070 15SM FEW250 17/00 A3034 RMK CI2 SLP278

CYGK;2017-05-20 21:00;CYGK 202100Z 05011KT 350V080 15SM SCT250 18/01 A3033 RMK CI4 SLP275

CYGK;2017-05-20 22:00;CYGK 202200Z 07008KT 360V080 15SM SCT250 18/00 A3032 RMK CI4 SLP271

CYGK;2017-05-20 23:00;CYGK 202300Z 03009KT 15SM BKN250 17/M01 A3032 RMK CI5 SLP270

CYGK;2017-05-21 00:00;CYGK 210000Z 04007KT 15SM FEW130 BKN230 15/M01 A3031 RMK AC1CI4 SLP268

CYGK;2017-05-21 01:00;CYGK 210100Z 04006KT 15SM FEW130 BKN230 14/M00 A3030 RMK AC1CI4 SLP265

CYGK;2017-05-21 02:00;CYGK 210200Z 06007KT 15SM BKN230 12/00 A3031 RMK CI5 SLP268

CYGK;2017-05-21 03:00;CYGK 210300Z 06009KT 15SM BKN230 12/M01 A3029 RMK CI6 LAST STFD OBS/NEXT 211000 UTC SLP260

CYGK;2017-05-21 10:00;CYGK 211000Z 05007KT 15SM OVC120 11/02 A3028 RMK AC8 SLP257

CYGK;2017-05-21 11:00;CYGK 211100Z 06009KT 15SM BKN110 11/02 A3028 RMK AC7 SLP255

CYGK;2017-05-21 12:00;CYGK 211200Z 06007KT 15SM BKN110 12/02 A3027 RMK AC7 VIRGA SLP253

CYGK;2017-05-21 13:00;CYGK 211300Z 07009KT 15SM BKN080 14/03 A3026 RMK AC7 VIRGA SLP251

CYGK;2017-05-21 14:00;CYGK 211400Z 08008KT 15SM SCT075 BKN110 BKN250 15/05 A3025 RMK AC4AC1CI2 SLP245

CYGK;2017-05-21 15:00;CYGK 211500Z 10008KT 15SM FEW072 OVC100 16/06 A3023 RMK AC2AC6 SLP240

CYGK;2017-05-21 16:00;CYGK 211600Z 09012KT 15SM FEW080 SCT100 BKN140 OVC250 17/05 A3020 RMK AC2AC2AC2CI2 SH DIST W AND N PRESFR SLP229

CYGK;2017-05-21 17:00;CYGK 211700Z 10009KT 15SM VCSH SCT040 OVC100 18/07 A3019 RMK SC3AC5 CVCTV CLD ASOCTD SLP226 DENSITY ALT 400FT

CYGK;2017-05-21 17:31;CYGK 211731Z 09008KT 15SM -SHRA BKN042TCU BKN095 OVC250 17/07 A3018 RMK TCU5AC2CI1 SLP223

CYGK;2017-05-21 17:50;CYGK 211750Z 10010KT 15SM FEW042TCU BKN100 OVC250 18/06 A3016 RMK TCU2AC4CI2 SH W-NE PRESFR SLP215 DENSITY ALT 400FT

CYGK;2017-05-21 18:00;CYGK 211800Z 11012KT 15SM FEW042TCU BKN100 OVC250 18/07 A3015 RMK TCU2AC5CI1 SH NW-NE PRESFR SLP211 DENSITY ALT 500FT

CYGK;2017-05-21 19:00;CYGK 211900Z 10007KT 15SM SCT048 BKN095 OVC250 19/07 A3013 RMK SC3AC4CI1 SLP205 DENSITY ALT 500FT

CYGK;2017-05-21 20:00;CYGK 212000Z 13006KT 15SM OVC051 18/08 A3012 RMK SC8 SLP203 DENSITY ALT 500FT

CYGK;2017-05-21 20:33;CYGK 212033Z 13005KT 15SM -RA BKN054 OVC090 17/08 A3011 RMK SC6AC2 SLP200

CYGK;2017-05-21 21:00;CYGK 212100Z 11006KT 15SM -RA OVC053 17/10 A3010 RMK SC8 SLP196

CYGK;2017-05-21 22:00;CYGK 212200Z 11007KT 15SM -SHRA OVC049 17/10 A3007 RMK SC8 SLP186 DENSITY ALT 400FT

CYGK;2017-05-21 23:00;CYGK 212300Z CCA 10004KT 15SM -SHRA OVC050 15/12 A3008 RMK SC8 SLP190

CYGK;2017-05-22 01:00;CYGK 220100Z 14007KT 15SM OVC037 13/11 A3006 RMK SC8 SLP183

CYGK;2017-05-22 02:00;CYGK 220200Z 17009G15KT 8SM -SHRA OVC033 12/11 A3006 RMK SC8 PRESFR SLP183

CYGK;2017-05-22 03:00;CYGK 220300Z 16004KT 8SM -RA OVC030 11/11 A3005 RMK SC8 CIG RAG/LAST STFD OBS/NEXT 221000 UTC SLP179

CYGK;2017-05-22 10:00;CYGK 221000Z 17010KT 15SM OVC021 11/10 A2994 RMK SC8 SLP142

CYGK;2017-05-22 10:46;CYGK 221046Z 16010G15KT 15SM -RA OVC021 11/10 A2994 RMK SC8 SLP142

CYGK;2017-05-22 11:00;CYGK 221100Z 17010KT 15SM -RA FEW008 OVC020 11/10 A2995 RMK SF1SC8 SF TR SLP144

CYGK;2017-05-22 11:41;CYGK 221141Z 16010KT 15SM FEW006 OVC020 11/10 A2994 RMK SF1SC8 SF TR SLP142

CYGK;2017-05-22 12:00;CYGK 221200Z 17010KT 15SM FEW006 OVC020 11/10 A2995 RMK SF1SC8 SF TR SLP144

CYGK;2017-05-22 12:11;CYGK 221211Z 16014KT 15SM -RA FEW006 OVC018 11/10 A2995 RMK SF1SC8 SF TR SLP143

CYGK;2017-05-22 12:52;CYGK 221252Z 16010G15KT 15SM FEW006 OVC013 11/10 A2994 RMK SF1SC8 SF TR SLP141

CYGK;2017-05-22 13:00;CYGK 221300Z 17011KT 15SM FEW003 OVC013 11/10 A2995 RMK SF1SC7 SLP143

CYGK;2017-05-22 14:00;CYGK 221400Z 17011KT 15SM FEW003 OVC016 11/10 A2993 RMK SF1SC8 SF TR SLP137

CYGK;2017-05-22 15:00;CYGK 221500Z 16008G15KT 15SM FEW003 OVC016 11/10 A2991 RMK SF1SC8 SF TR SLP131

CYGK;2017-05-22 16:00;CYGK 221600Z 18008KT 150V250 15SM FEW003 OVC015 11/10 A2991 RMK SF1SC8 SF TR SLP132

CYGK;2017-05-22 17:00;CYGK 221700Z 17010G16KT 15SM FEW005 OVC018 11/10 A2990 RMK SF1SC8 SF TR SLP126

CYGK;2017-05-22 18:00;CYGK 221800Z 18012KT 15SM FEW006 BKN018 OVC045 11/10 A2989 RMK SF1SC7SC1 SF TR SLP125

CYGK;2017-05-22 19:00;CYGK 221900Z 19010KT 15SM SCT018 OVC048 12/11 A2988 RMK SC4SC4 HZ SLP122

CYGK;2017-05-22 20:00;CYGK 222000Z 19010KT 12SM FEW030 BKN050 BKN250 13/11 A2987 RMK CU2SC3CI1 SLP119

CYGK;2017-05-22 20:08;CYGK 222008Z 24019G25KT 170V250 12SM FEW030 BKN050 BKN250 16/11 A2987 RMK CU2SC3CI1 WSHFT 2001 SLP118 DENSITY ALT 500FT

CYGK;2017-05-22 21:00;CYGK 222100Z 24018G27KT 15SM FEW030 SCT050 BKN250 16/10 A2987 RMK CU2SC2CI1 SLP118 DENSITY ALT 500FT

CYGK;2017-05-22 22:00;CYGK 222200Z 23017G23KT 15SM FEW030 FEW050 BKN220 15/08 A2988 RMK CU2SC1CI3 SC TR SLP122 DENSITY ALT 400FT

CYGK;2017-05-22 23:00;CYGK 222300Z 24011G17KT 15SM FEW030 BKN040 BKN220 14/08 A2990 RMK CU1SC4CI2 SLP127

CYGK;2017-05-23 00:00;CYGK 230000Z 24010G16KT 15SM SCT060 BKN220 13/08 A2993 RMK SC3CI3 SLP138

CYGK;2017-05-23 01:00;CYGK 230100Z 24008KT 15SM SCT052 BKN220 12/08 A2995 RMK SC4CI2 SLP146

CYGK;2017-05-23 02:00;CYGK 230200Z 24007KT 15SM BKN058 12/09 A2996 RMK SC6 SLP148

CYGK;2017-05-23 03:00;CYGK 230300Z 24009KT 15SM BKN060 12/08 A2996 RMK SC6 LAST STFD OBS/NEXT 231000 UTC SLP148

CYGK;2017-05-23 10:00;CYGK 231000Z 19004KT 15SM FEW100 SCT240 08/07 A2993 RMK AC1CI2 SLP137

CYGK;2017-05-23 11:00;CYGK 231100Z 16002KT 15SM FEW100 FEW240 10/08 A2993 RMK AC1CI2 AC TR SLP138

CYGK;2017-05-23 12:00;CYGK 231200Z 17006KT 15SM FEW100 SCT240 10/08 A2992 RMK AC1CI2 SLP135

CYGK;2017-05-23 13:00;CYGK 231300Z 17009KT 15SM SCT085 BKN250 11/08 A2992 RMK AC3CI3 SLP134

CYGK;2017-05-23 14:00;CYGK 231400Z 18009KT 15SM FEW085 BKN250 12/09 A2991 RMK AC1CI5 SLP130

CYGK;2017-05-23 15:00;CYGK 231500Z 17011KT 15SM FEW075 BKN250 12/08 A2991 RMK AC1CI5 SLP131

CYGK;2017-05-23 16:00;CYGK 231600Z 18009KT 15SM FEW075 BKN250 11/08 A2991 RMK AC1CI6 SLP131

CYGK;2017-05-23 17:00;CYGK 231700Z 19007KT 15SM FEW030 SCT110 BKN250 13/09 A2988 RMK CU1AC3CI4 CU TR SLP121

CYGK;2017-05-23 18:00;CYGK 231800Z 17010KT 15SM FEW030 SCT130 BKN250 14/09 A2985 RMK CU1AC3CI2 CU TR SLP112

CYGK;2017-05-23 19:00;CYGK 231900Z 17007KT 15SM FEW020 SCT130 BKN270 13/09 A2984 RMK CU1AC3CI3 CU TR SLP108

CYGK;2017-05-23 20:00;CYGK 232000Z 18009KT 15SM FEW020 SCT120 BKN270 16/10 A2982 RMK CU1AC3CI3 CU TR SLP102 DENSITY ALT 500FT

CYGK;2017-05-23 21:00;CYGK 232100Z 17007KT 15SM FEW035 BKN110 BKN250 16/09 A2981 RMK CU1AC5CI1 SLP098 DENSITY ALT 500FT

CYGK;2017-05-23 22:00;CYGK 232200Z 19004KT 15SM FEW020 BKN080 OVC270 14/08 A2980 RMK CU1AC7CI1 CU TR SLP095 DENSITY ALT 400FT

CYGK;2017-05-23 23:00;CYGK 232300Z 19006KT 15SM SCT080 BKN270 15/09 A2979 RMK AC4CI3 SLP092 DENSITY ALT 500FT

CYGK;2017-05-24 00:00;CYGK 240000Z 18002KT 15SM SCT090 SCT160 OVC270 15/10 A2979 RMK AC3AC1CI4 SLP091 DENSITY ALT 400FT

CYGK;2017-05-24 01:00;CYGK 240100Z 20003KT 15SM FEW100 BKN270 14/09 A2978 RMK AC2CI3 SLP088

CYGK;2017-05-24 02:00;CYGK 240200Z 00000KT 15SM SCT100 BKN270 12/09 A2979 RMK AC3CI3 SLP090

CYGK;2017-05-24 03:00;CYGK 240300Z 32003KT 15SM SCT088 BKN270 12/10 A2978 RMK AC3CI3 SLP087

CYGK;2017-05-24 10:00;CYGK 241000Z 00000KT 12SM BKN120 OVC250 11/10 A2974 RMK AC6CI2 SLP075

CYGK;2017-05-24 11:00;CYGK 241100Z 03002KT 12SM BKN130 12/11 A2974 RMK AC7 SLP073

CYGK;2017-05-24 12:00;CYGK 241200Z 34004KT 12SM OVC130 14/13 A2975 RMK AC8 SLP075 DENSITY ALT 400FT

CYGK;2017-05-24 13:00;CYGK 241300Z 07002KT 15SM OVC140 16/11 A2975 RMK AC8 SLP075 DENSITY ALT 600FT

CYGK;2017-05-24 14:00;CYGK 241400Z 07003KT 12SM FEW050 FEW100 OVC140 17/12 A2975 RMK CF1AC2AC6 CF TR SLP076 DENSITY ALT 700FT

CYGK;2017-05-24 15:00;CYGK 241500Z 08004KT 040V120 12SM FEW050 BKN140 OVC250 19/12 A2974 RMK SC1AC5CS3 SC TR SLP074 DENSITY ALT 900FT

CYGK;2017-05-24 16:00;CYGK 241600Z 10005KT 050V160 15SM FEW040 SCT140 BKN250 21/12 A2973 RMK CU1AC2CI2 SLP069 DENSITY ALT 1200FT

CYGK;2017-05-24 17:00;CYGK 241700Z 16005KT 15SM FEW040 SCT170 BKN250 21/12 A2972 RMK CU1AC3CI3 CU TR SLP067 DENSITY ALT 1200FT

CYGK;2017-05-24 18:00;CYGK 241800Z 19005KT 150V220 15SM FEW050 FEW160 SCT250 22/10 A2971 RMK CU1AC1CI2 SLP063 DENSITY ALT 1400FT

CYGK;2017-05-24 19:00;CYGK 241900Z 18005KT 15SM FEW050 FEW170 BKN250 22/11 A2970 RMK CU1AC1CI4 SLP058 DENSITY ALT 1400FT

CYGK;2017-05-24 20:00;CYGK 242000Z 18004KT 15SM FEW050 SCT080 SCT180 BKN250 23/10 A2970 RMK CU1AC2AS1CS3 SLP058 DENSITY ALT 1500FT

CYGK;2017-05-24 21:00;CYGK 242100Z 15004KT 15SM FEW050 SCT080 BKN220 23/11 A2969 RMK CU2AC1CI4 SLP056 DENSITY ALT 1500FT

CYGK;2017-05-24 22:00;CYGK 242200Z 12005KT 070V140 15SM FEW050 FEW080 SCT150 BKN220 24/11 A2968 RMK CU1AC1AC2CI2 SLP053 DENSITY ALT 1600FT

CYGK;2017-05-24 23:00;CYGK 242300Z 09007KT 15SM FEW050 SCT080 SCT250 22/10 A2970 RMK CU1AC2CI1 SLP059 DENSITY ALT 1400FT

CYGK;2017-05-25 00:00;CYGK 250000Z 07008KT 15SM FEW050 FEW080 SCT250 20/10 A2970 RMK SC1AC1CI2 SLP059 DENSITY ALT 1200FT

CYGK;2017-05-25 01:00;CYGK 250100Z 07008KT 15SM FEW050 FEW080 SCT250 19/10 A2970 RMK SC1AC2CI1 SC TR SLP060 DENSITY ALT 1100FT

CYGK;2017-05-25 02:00;CYGK 250200Z 06008KT 15SM SCT160 BKN250 19/10 A2972 RMK AC3CI2 SLP064 DENSITY ALT 1000FT

CYGK;2017-05-25 03:00;CYGK 250300Z 07009KT 15SM BKN150 18/10 A2971 RMK AC6 LAST STFD OBS/NEXT 251000UTC SLP062 DENSITY ALT 900FT

CYGK;2017-05-25 10:00;CYGK 251000Z 06005KT 15SM OVC090 15/11 A2971 RMK AC8 SLP063 DENSITY ALT 500FT

CYGK;2017-05-25 11:00;CYGK 251100Z 07005KT 15SM OVC100 16/11 A2971 RMK AC8 SLP061 DENSITY ALT 600FT

CYGK;2017-05-25 12:00;CYGK 251200Z 09006KT 15SM OVC080 16/10 A2971 RMK AC8 SLP062 DENSITY ALT 700FT

CYGK;2017-05-25 12:48;CYGK 251248Z 09009KT 15SM -RA BKN075 OVC100 16/09 A2970 RMK AC6AS2 SLP057 DENSITY ALT 700FT

CYGK;2017-05-25 13:00;CYGK 251300Z 07007KT 15SM -RA BKN075 OVC100 16/10 A2969 RMK AC6AS2 SLP056 DENSITY ALT 700FT

CYGK;2017-05-25 14:00;CYGK 251400Z 08008KT 15SM -RA OVC065 17/10 A2968 RMK SC8 SLP053 DENSITY ALT 800FT

CYGK;2017-05-25 15:00;CYGK 251500Z 09013G19KT 15SM -RA SCT052 BKN070 OVC090 17/09 A2967 RMK SC3AC3AS2 SLP047 DENSITY ALT 800FT

CYGK;2017-05-25 16:00;CYGK 251600Z 06015G20KT 8SM -RA OVC055 15/11 A2964 RMK SC8 SLP039 DENSITY ALT 700FT

CYGK;2017-05-25 17:00;CYGK 251700Z 06009KT 8SM -RA OVC041 14/12 A2964 RMK NS8 SLP038 DENSITY ALT 600FT

CYGK;2017-05-25 18:00;CYGK 251800Z 07013G22KT 3SM -RA BR BKN035 OVC050 13/11 A2962 RMK SC6SC2 SLP031 DENSITY ALT 500FT

CYGK;2017-05-25 19:00;CYGK 251900Z 05012KT 6SM -RA BR FEW008 SCT025 OVC040 13/12 A2961 RMK SF1SC3SC4 SLP027 DENSITY ALT 400FT

CYGK;2017-05-25 19:27;CYGK 251927Z 06012G21KT 2 1/2SM -RA BR FEW009 OVC029 13/12 A2961 RMK SF1NS7 SLP029 DENSITY ALT 400FT

CYGK;2017-05-25 19:35;CYGK 251935Z 06014G20KT 1SM -RA BR SCT009 OVC024 13/12 A2962 RMK SF3NS5 SLP032 DENSITY ALT 400FT

CYGK;2017-05-25 20:00;CYGK 252000Z 04013KT 1 1/2SM -RA BR SCT009 OVC025 13/12 A2961 RMK SF3SC5 SLP028 DENSITY ALT 400FT

CYGK;2017-05-25 20:06;CYGK 252006Z 05011G17KT 1SM -RA BR SCT008 OVC024 13/12 A2961 RMK SF4NS4 SLP028 DENSITY ALT 400FT

CYGK;2017-05-25 20:12;CYGK 252012Z 04013KT 3SM -RA BR FEW006 SCT009 BKN012 OVC024 13/12 A2961 RMK SF2SF2SC2NS2 SLP028 DENSITY ALT 400FT

CYGK;2017-05-25 20:21;CYGK 252021Z 04014KT 1 1/2SM -RA BR SCT006 OVC022 13/12 A2960 RMK SF4NS4 SLP024 DENSITY ALT 400FT

CYGK;2017-05-25 20:35;CYGK 252035Z 05008G18KT 2SM -RA BR SCT005 BKN009 OVC016 13/12 A2960 RMK SF4SF2NS2 SLP024 DENSITY ALT 400FT

CYGK;2017-05-25 20:46;CYGK 252046Z 05010G15KT 2SM -RADZ BR BKN006 OVC010 13/12 A2959 RMK SF6NS2 SLP021 DENSITY ALT 500FT

CYGK;2017-05-25 21:00;CYGK 252100Z 05010G17KT 2SM -RADZ BR BKN006 BKN010 OVC019 13/12 A2958 RMK SF5ST2NS1 SLP019 DENSITY ALT 500FT

CYGK;2017-05-25 21:42;CYGK 252142Z 05014G19KT 2 1/2SM -RADZ BR BKN005 OVC010 13/12 A2957 RMK SF7SC1 SLP015 DENSITY ALT 500FT

CYGK;2017-05-25 22:00;CYGK 252200Z 05011G19KT 2 1/2SM -RADZ BR BKN005 OVC020 13/12 A2957 RMK SF6SC2 CIG RAG SLP014 DENSITY ALT 500FT

CYGK;2017-05-25 23:00;CYGK 252300Z 06013G19KT 2 1/2SM -RADZ BR BKN005 OVC020 13/12 A2956 RMK SF7SC1 CIG RAG SLP013 DENSITY ALT 500FT

CYGK;2017-05-25 23:37;CYGK 252337Z 06011G18KT 3SM -RADZ BR BKN006 OVC020 13/12 A2956 RMK SF6SC2 CIG RAG SLP012 DENSITY ALT 500FT

CYGK;2017-05-25 23:46;CYGK 252346Z 06013KT 4SM -DZ BR FEW003 BKN006 OVC020 13/12 A2956 RMK SF1SF6SC1 SLP013 DENSITY ALT 500FT

CYGK;2017-05-26 00:00;CYGK 260000Z 07012G18KT 5SM -DZ BR FEW003 BKN006 OVC018 13/12 A2957 RMK SF1SF7SC1 SF TR SLP016 DENSITY ALT 500FT

CYGK;2017-05-26 00:21;CYGK 260021Z 06011KT 2SM -DZ BR BKN005 OVC018 13/12 A2957 RMK SF7SC1 SLP015 DENSITY ALT 500FT

CYGK;2017-05-26 00:33;CYGK 260033Z 06009G15KT 3SM -DZ BR BKN005 OVC009 13/12 A2957 RMK SF7SF1 SLP014 DENSITY ALT 500FT

CYGK;2017-05-26 01:00;CYGK 260100Z 06010KT 4SM -DZ BR BKN006 OVC020 13/12 A2957 RMK SF7SC1 CIG RAG SLP014 DENSITY ALT 500FT

CYGK;2017-05-26 01:13;CYGK 260113Z 05009KT 4SM -DZ BR OVC005 13/12 A2957 RMK ST8 SLP014 DENSITY ALT 500FT

CYGK;2017-05-26 02:00;CYGK 260200Z 06010KT 6SM -DZ BR BKN005 OVC017 13/12 A2957 RMK SF7SC1 CIG RAG SLP016 DENSITY ALT 500FT

CYGK;2017-05-26 03:00;CYGK 260300Z 05009G15KT 10SM -DZ BKN006 OVC019 13/12 A2955 RMK SF6SC2 LAST STFD OBS/NEXT 261000UTC SLP010 DENSITY ALT 500FT

CYGK;2017-05-26 10:00;CYGK 261000Z 04007KT 2SM -DZ BR BKN004 OVC008 12/12 A2958 RMK SF6ST2 SLP020 DENSITY ALT 400FT

CYGK;2017-05-26 10:39;CYGK 261039Z 03004KT 5SM BR BKN004 OVC009 12/12 A2959 RMK SF6ST2 SLP022 DENSITY ALT 400FT

CYGK;2017-05-26 11:00;CYGK 261100Z 02004KT 5SM BR BKN004 OVC021 13/12 A2959 RMK SF7SC1 SLP024 DENSITY ALT 400FT

CYGK;2017-05-26 12:00;CYGK 261200Z 02005KT 9SM BKN004 OVC015 13/12 A2961 RMK SF5SC3 SLP031 DENSITY ALT 400FT

CYGK;2017-05-26 12:13;CYGK 261213Z 02005KT 11SM BKN006 OVC013 13/12 A2962 RMK SF6SC2 SLP032 DENSITY ALT 400FT

CYGK;2017-05-26 12:46;CYGK 261246Z 35005KT 10SM -DZ BKN006 OVC010 13/12 A2962 RMK SF5SC3 SLP032 DENSITY ALT 500FT

CYGK;2017-05-26 13:00;CYGK 261300Z 34006KT 10SM -DZ BKN006 OVC010 14/13 A2962 RMK SF6SC2 CIG RAG SLP034 DENSITY ALT 500FT

CYGK;2017-05-26 13:22;CYGK 261322Z 35010KT 11SM BKN006 BKN012 14/13 A2962 RMK SF6SC1 SLP034 DENSITY ALT 500FT

CYGK;2017-05-26 14:00;CYGK 261400Z 36007KT 12SM FEW006 BKN010 OVC020 15/13 A2963 RMK SF1SC4SC3 SLP036 DENSITY ALT 700FT

CYGK;2017-05-26 15:00;CYGK 261500Z 34009G15KT 15SM BKN013 OVC028 16/13 A2964 RMK SC5SC3 SLP038 DENSITY ALT 800FT

CYGK;2017-05-26 16:00;CYGK 261600Z 01008KT 15SM VCSH BKN020 OVC050 17/12 A2965 RMK CU6SC2 SLP044 DENSITY ALT 800FT

CYGK;2017-05-26 17:00;CYGK 261700Z 03007KT 15SM OVC018 15/12 A2967 RMK SC8 SLP050 DENSITY ALT 600FT

CYGK;2017-05-26 18:00;CYGK 261800Z 02008KT 15SM FEW018 OVC022 16/12 A2969 RMK CU2SC6 SLP056 DENSITY ALT 700FT

CYGK;2017-05-26 19:00;CYGK 261900Z 36006KT 15SM VCSH BKN020 OVC035 16/12 A2971 RMK CU5SC3 SLP063 DENSITY ALT 700FT

CYGK;2017-05-26 20:00;CYGK 262000Z VRB02KT 15SM VCSH BKN025 OVC040 17/12 A2972 RMK CU6SC2 SLP067 DENSITY ALT 800FT

CYGK;2017-05-26 21:00;CYGK 262100Z 23007KT 15SM VCSH FEW015 BKN026 OVC060 15/13 A2974 RMK CF1CU6SC1 SLP072 DENSITY ALT 500FT

CYGK;2017-05-26 21:14;CYGK 262114Z 25007KT 15SM -SHRA FEW015 BKN025 OVC060 14/13 A2974 RMK CF1CU6SC1 SLP074 DENSITY ALT 400FT

CYGK;2017-05-26 21:31;CYGK 262131Z 24005KT 2 1/2SM -SHRA BR FEW003 BKN023 OVC035 14/13 A2975 RMK SF1CU6SC1 SLP077 DENSITY ALT 400FT

CYGK;2017-05-26 22:00;CYGK 262200Z 20004KT 3SM -SHRA BR FEW003 SCT015 OVC023 14/13 A2976 RMK SF1CF3CU4 SLP080 DENSITY ALT 400FT

CYGK;2017-05-26 22:33;CYGK 262233Z 17005KT 5SM BR VCSH FEW002 FEW007 BKN026 OVC050 14/14 A2977 RMK SF1SF1CU4SC2 SLP083 DENSITY ALT 400FT

CYGK;2017-05-26 23:00;CYGK 262300Z 18004KT 8SM VCFG FEW002 BKN017 OVC023 14/13 A2978 RMK SF1SC5SC2 FG SE OVR RVR AND SW ALONG LK SHORE SLP086

CYGK;2017-05-27 00:00;CYGK 270000Z 18004KT 5SM -SHRA BR FEW002 BKN020 OVC050 13/13 A2980 RMK SF1CU6SC1 SLP095

CYGK;2017-05-27 00:20;CYGK 270020Z 20004KT 2 1/2SM -SHRA BR VCFG SCT002 OVC026 13/13 A2981 RMK FG1SF2CU5 FG BANK SW VIS SW 1/2 SLP098

CYGK;2017-05-27 00:53;CYGK 270053Z 20005KT 5SM BR FEW002 OVC030 13/13 A2981 RMK SF1SC7 SLP099

CYGK;2017-05-27 01:00;CYGK 270100Z 19004KT 8SM FEW002 OVC030 13/12 A2982 RMK SF1SC7 SLP100

CYGK;2017-05-27 02:00;CYGK 270200Z 14002KT 6SM -DZ BR FEW002 OVC020 13/12 A2984 RMK SF2SC6 SLP106

CYGK;2017-05-27 02:33;CYGK 270233Z VRB02KT 3SM -DZ BR FEW002 BKN010 13/12 A2985 RMK SF1SF6 SLP110

CYGK;2017-05-27 03:00;CYGK 270300Z 14003KT 5SM -DZ BR SCT002 OVC018 13/12 A2985 RMK SF3SC5 LAST STFD OBS/NEXT 271000UTC SLP110

CYGK;2017-05-27 10:00;CYGK 271000Z 02002KT 15SM FEW010 BKN045 11/11 A2989 RMK CF1SC7 CF TR SLP123

CYGK;2017-05-27 11:00;CYGK 271100Z 06004KT 010V080 15SM FEW010 BKN049 13/12 A2990 RMK CF1SC7 CF TR SLP127

CYGK;2017-05-27 12:00;CYGK 271200Z 05004KT 15SM FEW015 SCT050 BKN220 12/11 A2991 RMK CF1SC4CI2 CF TR SLP131

CYGK;2017-05-27 13:00;CYGK 271300Z 08006KT 15SM FEW015 FEW050 SCT084 BKN220 15/11 A2991 RMK CF1SC2AC2CI2 CF TR SLP131

CYGK;2017-05-27 14:00;CYGK 271400Z 10005KT 080V160 15SM FEW015 FEW083 SCT250 16/10 A2991 RMK CF1AC2CI1 CF TR SLP130 DENSITY ALT 500FT

CYGK;2017-05-27 15:00;CYGK 271500Z 15006KT 110V170 15SM FEW024 SCT045 SCT090 BKN250 17/10 A2991 RMK CU2SC1AC1CI1 SLP130 DENSITY ALT 600FT

CYGK;2017-05-27 16:00;CYGK 271600Z 17005KT 15SM FEW030 FEW080 SCT250 17/09 A2991 RMK CF1AC1CI2 SLP130 DENSITY ALT 600FT

CYGK;2017-05-27 17:00;CYGK 271700Z 19006KT 15SM SCT030 SCT080 BKN240 18/12 A2991 RMK CU3AC1CI2 SLP130 DENSITY ALT 700FT

CYGK;2017-05-27 18:00;CYGK 271800Z 21007KT 15SM FEW030 SCT080 SCT240 18/12 A2990 RMK SC1AC2CI1 SLP128 DENSITY ALT 700FT

CYGK;2017-05-27 19:00;CYGK 271900Z 20008KT 15SM SCT050 BKN220 19/11 A2990 RMK SC4CI1 SLP126 DENSITY ALT 800FT

CYGK;2017-05-27 20:00;CYGK 272000Z 19007KT 15SM FEW028 BKN057 BKN240 19/11 A2988 RMK CU2SC3CI1 SLP121 DENSITY ALT 800FT

CYGK;2017-05-27 21:00;CYGK 272100Z 21006KT 15SM SCT050 BKN220 19/11 A2989 RMK CU3CI2 SLP122 DENSITY ALT 800FT

CYGK;2017-05-27 22:00;CYGK 272200Z 23006KT 15SM FEW005 SCT220 19/10 A2989 RMK SC2CI2 SLP123 DENSITY ALT 900FT

CYGK;2017-05-27 23:00;CYGK 272300Z 24006KT 15SM FEW050 SCT220 18/10 A2989 RMK CU1CI2 SLP123 DENSITY ALT 700FT

CYGK;2017-05-28 00:37;CYGK 280037Z 24005KT 15SM FEW200 15/10 A2990 RMK CI2 SLP128 DENSITY ALT 400FT

CYGK;2017-05-28 01:00;CYGK 280100Z 25006KT 15SM FEW200 14/10 A2991 RMK CI1 SLP131

CYGK;2017-05-28 02:00;CYGK 280200Z 20002KT 15SM FEW200 13/11 A2991 RMK CI1 CI TR SLP130

CYGK;2017-05-28 03:00;CYGK 280300Z 00000KT 15SM SKC 12/11 A2990 RMK LAST STFD OBS/NEXT 281000 UTC SLP126

CYGK;2017-05-28 10:00;CYGK 281000Z 07003KT 5SM BR FEW002 BKN250 08/08 A2990 RMK SF1CI6 SF TR SLP126

CYGK;2017-05-28 11:00;CYGK 281100Z 15004KT 8SM FEW002 BKN250 12/11 A2991 RMK SF1CI7 SF TR VIS LWR W SLP131

CYGK;2017-05-28 11:50;CYGK 281150Z 14004KT 1SM BR BKN250 12/12 A2990 RMK FG3CI4 SLP126

CYGK;2017-05-28 12:00;CYGK 281200Z 16005KT 1/4SM FG VV005 12/11 A2990 RMK FG8 SLP127

CYGK;2017-05-28 12:25;CYGK 281225Z 18003KT 1/2SM FG VV005 12/11 A2991 RMK FG8 SLP130

CYGK;2017-05-28 12:33;CYGK 281233Z VRB02KT 1SM BR BKN002 BKN250 12/12 A2990 RMK FG4SF2CI1 SLP128

CYGK;2017-05-28 13:00;CYGK 281300Z 15003KT 120V190 5SM BR SCT002 BKN250 13/13 A2990 RMK SF3CI4 VIS S-W-N 1/1/2 SLP126

CYGK;2017-05-28 14:00;CYGK 281400Z 17004KT 120V190 15SM FEW005 FEW180 OVC250 15/12 A2988 RMK CF1AC1CI8 CF TR AC TR SLP122 DENSITY ALT 400FT

CYGK;2017-05-28 15:00;CYGK 281500Z 09003KT 050V190 15SM FEW020 BKN250 17/13 A2988 RMK CU2CI5 SLP120 DENSITY ALT 600FT

CYGK;2017-05-28 16:00;CYGK 281600Z 16005KT 15SM FEW020 FEW180 OVC250 17/13 A2987 RMK CU1AC1CI8 CU TR AC TR SLP119 DENSITY ALT 600FT

CYGK;2017-05-28 17:00;CYGK 281700Z 21004KT 150V230 15SM FEW025 BKN250 20/13 A2988 RMK CU2CI5 SLP121 DENSITY ALT 900FT

CYGK;2017-05-28 18:00;CYGK 281800Z 16004KT 15SM FEW030 BKN250 20/13 A2986 RMK CU2CI5 SLP112 DENSITY ALT 1000FT

CYGK;2017-05-28 19:00;CYGK 281900Z 15004KT 15SM FEW030 BKN073 BKN200 21/13 A2984 RMK CU2AC3CI1 SLP105 DENSITY ALT 1100FT

CYGK;2017-05-28 20:00;CYGK 282000Z 15004KT 15SM FEW035 SCT070 BKN120 BKN250 21/13 A2981 RMK CU1AC3AC1CI2 SLP095 DENSITY ALT 1200FT

CYGK;2017-05-28 21:00;CYGK 282100Z 16004KT 15SM FEW030 SCT060 BKN120 BKN250 23/14 A2979 RMK CU1SC3AC2CI1 SLP091 DENSITY ALT 1400FT

CYGK;2017-05-28 22:00;CYGK 282200Z 14006KT 110V180 15SM FEW032 SCT070 BKN220 23/14 A2977 RMK CU1AC2CI4 SLP084 DENSITY ALT 1400FT

CYGK;2017-05-28 23:00;CYGK 282300Z 13007KT 15SM FEW030 BKN060 OVC250 22/15 A2976 RMK CU1SC6CI1 SLP081 DENSITY ALT 1300FT

CYGK;2017-05-29 00:00;CYGK 290000Z 13006KT 15SM BKN070 OVC220 22/14 A2976 RMK AC7CI1 SLP080 DENSITY ALT 1300FT

CYGK;2017-05-29 01:00;CYGK 290100Z 12007KT 15SM BKN057 OVC090 21/14 A2976 RMK SC6AC2 SLP078 DENSITY ALT 1300FT

CYGK;2017-05-29 02:00;CYGK 290200Z 13011KT 15SM BKN063 21/14 A2975 RMK SC6 SLP075 DENSITY ALT 1200FT

CYGK;2017-05-29 03:00;CYGK 290300Z 14013G18KT 15SM BKN056 20/14 A2975 RMK SC6 LAST STFD OBS/NEXT 291000 UTC SLP076 DENSITY ALT 1100FT

CYGK;2017-05-29 10:00;CYGK 291000Z 15013G20KT 15SM -SHRA FEW005 OVC024 14/13 A2972 RMK SF1SC7 CVCTV CLD EMBD SLP066 DENSITY ALT 500FT

CYGK;2017-05-29 10:40;CYGK 291040Z 15014G20KT 15SM FEW005 OVC024 14/13 A2973 RMK SF1SC8 SF TR SLP068 DENSITY ALT 500FT

CYGK;2017-05-29 11:00;CYGK 291100Z 15014G19KT 15SM VCSH FEW005 OVC020 14/13 A2973 RMK SF1SC8 SF TR SLP069 DENSITY ALT 500FT

CYGK;2017-05-29 12:00;CYGK 291200Z 15017KT 15SM FEW005 BKN022 OVC057 14/13 A2975 RMK SF1SC7SC1 SF TR SLP074 DENSITY ALT 400FT

CYGK;2017-05-29 13:00;CYGK 291300Z 15015G22KT 15SM FEW005 OVC020 13/12 A2975 RMK SF1SC7 SLP078

CYGK;2017-05-29 13:07;CYGK 291307Z 15016G22KT 12SM -RA FEW005 OVC018 13/12 A2975 RMK SF1SC7 SLP078

CYGK;2017-05-29 13:33;CYGK 291333Z 15015G21KT 3SM SHRA SCT005 OVC012 13/12 A2976 RMK SF3SC5 SLP078

CYGK;2017-05-29 13:42;CYGK 291342Z 16016G22KT 2 1/2SM -SHRA BR SCT007 OVC015 13/12 A2975 RMK SF3SC5 CVCTV CLD EMBD SLP078

CYGK;2017-05-29 14:00;CYGK 291400Z 16019G25KT 5SM -SHRA BR SCT006 OVC013 13/12 A2975 RMK SF4SC4 CVCTV CLD EMBD SLP077

CYGK;2017-05-29 15:00;CYGK 291500Z 17015G25KT 6SM -SHRA SCT005 OVC012 12/12 A2975 RMK SF4SC4 CVCTV CLD ASOCTD SLP078

CYGK;2017-05-29 16:00;CYGK 291600Z 17016G22KT 11SM -SHRA FEW005 OVC009 12/12 A2978 RMK SF2SC6 CVCTV CLD EMBD SLP085

CYGK;2017-05-29 16:15;CYGK 291615Z 17015G22KT 12SM FEW005 OVC009 12/12 A2978 RMK SF2SC6 SLP087

CYGK;2017-05-29 17:00;CYGK 291700Z 17010G17KT 12SM -DZ SCT005 OVC010 12/12 A2980 RMK SF3SC5 SLP093

CYGK;2017-05-29 17:18;CYGK 291718Z 17012G17KT 15SM FEW005 OVC010 12/12 A2980 RMK SF2SC6 SLP094

CYGK;2017-05-29 18:00;CYGK 291800Z 18013G20KT 15SM FEW005 OVC009 13/12 A2982 RMK SF2SC6 SLP099

CYGK;2017-05-29 19:00;CYGK 291900Z 19008KT 15SM FEW005 OVC012 13/13 A2982 RMK SF1SC7 SLP100

CYGK;2017-05-29 20:00;CYGK 292000Z 18008G16KT 15SM FEW005 OVC015 15/13 A2983 RMK SF1SC7 SLP102 DENSITY ALT 400FT

CYGK;2017-05-29 21:00;CYGK 292100Z 18009KT 15SM FEW008 BKN015 15/13 A2984 RMK CF1SC7 CF TR CU EMBD SLP105 DENSITY ALT 400FT

CYGK;2017-05-29 22:00;CYGK 292200Z 17007KT 15SM FEW015 BKN025 BKN220 15/13 A2984 RMK CF1CU4CI1 SLP108 DENSITY ALT 400FT

CYGK;2017-05-29 23:00;CYGK 292300Z 15004KT 130V190 15SM FEW015 SCT060 BKN100 15/13 A2986 RMK CF1CU3AC2 CF TR SLP113 DENSITY ALT 400FT

CYGK;2017-05-30 00:00;CYGK 300000Z 15007KT 15SM FEW015 FEW060TCU SCT090 14/13 A2986 RMK CF1TCU2AC1 CF TR SLP114

CYGK;2017-05-30 01:00;CYGK 300100Z 16005KT 15SM FEW060 FEW100 FEW250 14/13 A2988 RMK CU1AC1CI1 CU TR CI TR SLP120

CYGK;2017-05-30 02:00;CYGK 300200Z 14006KT 110V200 15SM FEW100 14/13 A2988 RMK AC1 SLP122

CYGK;2017-05-30 03:00;CYGK 300300Z 17008G16KT 15SM FEW060CB FEW100 14/13 A2988 RMK CB1AC1 CB TR OCNL LTNG DIST SW LAST STFD OBS/NEXT 301000 UTC SLP121

CYGK;2017-05-30 10:00;CYGK 301000Z 16011G18KT 15SM VCSH FEW004 SCT090 BKN140 13/12 A2991 RMK SF1AC4AC3 SF TR SLP131

CYGK;2017-05-30 11:00;CYGK 301100Z 18009G15KT 15SM FEW004 SCT090 BKN120 13/12 A2994 RMK SF1AC2AC4 SHWRS SE SLP141

CYGK;2017-05-30 12:00;CYGK 301200Z 16012G17KT 15SM FEW004 FEW075 SCT100 BKN240 14/13 A2993 RMK SF1AC1AC2CI2 SF TR SLP139

CYGK;2017-05-30 13:00;CYGK 301300Z 19013G19KT 15SM -SHRA FEW004 BKN076 OVC160 13/12 A2997 RMK SF1AC5AC2 CVCTV CLD ASOCTD PRESRR SLP151

CYGK;2017-05-30 14:00;CYGK 301400Z 17010KT 8SM -SHRA FEW004 FEW040 OVC080 13/12 A2996 RMK SF1SC2AC6 SF TR SLP147

CYGK;2017-05-30 14:47;CYGK 301447Z 20010KT 2SM -RA BR SCT003 OVC012 13/12 A2997 RMK SF4SC4 CVCTV CLD ASOCTD SLP152

CYGK;2017-05-30 15:00;CYGK 301500Z 19012KT 1 1/2SM -RA BR SCT002 BKN012 OVC037 13/13 A2998 RMK FG2SF2SC2SC2 SLP153

CYGK;2017-05-30 15:07;CYGK 301507Z 19009G16KT 2 1/2SM -RA BR FEW002 SCT012 OVC037 13/13 A2997 RMK SF1SC2SC5 SLP152

CYGK;2017-05-30 15:53;CYGK 301553Z 16010KT 3SM BR FEW001 SCT040 BKN080 14/13 A2995 RMK SF2SC2AC3 SLP145

CYGK;2017-05-30 16:00;CYGK 301600Z 15009KT 3SM BR FEW001 SCT040 BKN080 13/13 A2995 RMK SF2SC1AC4 SLP144

CYGK;2017-05-30 17:00;CYGK 301700Z 20008KT 10SM FEW001 FEW012 SCT045 BKN085 15/14 A2995 RMK SF1CU1SC2AC2 BR SLP145

CYGK;2017-05-30 18:00;CYGK 301800Z 18007KT 15SM FEW015 SCT270 16/15 A2992 RMK CU2CI1 CB TOP DIST S SLP136 DENSITY ALT 400FT

CYGK;2017-05-30 19:00;CYGK 301900Z 16008KT 12SM FEW020TCU FEW080 FEW180 SCT250 17/15 A2989 RMK TCU1AC1AC1CI1 AC TR VIS S 5 CB TOP DIST E-S SLP124 DENSITY ALT 600FT

CYGK;2017-05-30 20:00;CYGK 302000Z 16010KT 15SM FEW020TCU SCT070 SCT250 17/15 A2989 RMK TCU2AC1CI1 SLP125 DENSITY ALT 600FT

CYGK;2017-05-30 21:00;CYGK 302100Z 19007KT 15SM FEW025TCU FEW120 17/15 A2990 RMK TCU2AC1 AC TR SLP127 DENSITY ALT 600FT

CYGK;2017-05-30 22:00;CYGK 302200Z 17008KT 15SM FEW030TCU FEW120 16/14 A2990 RMK TCU1AC1 SLP126 DENSITY ALT 500FT

CYGK;2017-05-30 22:19;CYGK 302219Z 17007KT 15SM TS VCSH FEW008 FEW020 FEW030CB SCT120 16/14 A2989 RMK CF1SC1CB2AC1 CF TR SC TR CB W-NE SH W-NE SLP123 DENSITY ALT 400FT

CYGK;2017-05-30 22:48;CYGK 302248Z 28008KT 170V300 15SM TS VCSH FEW003 BKN050CB BKN120 14/13 A2990 RMK SF2CB3AC2 CB W NE MOVG E PRESRR SLP128

CYGK;2017-05-30 22:51;CYGK 302251Z 30013KT 170V310 15SM TS VCSH BKN004 BKN050CB BKN120 15/14 A2991 RMK SF5CB2AC1 AC TR PRESRR SLP132

CYGK;2017-05-30 23:05;CYGK 302305Z 31011G17KT 15SM FEW004 BKN020CB BKN120 16/11 A2992 RMK SF2CB3AC1 CB MOVG E SLP135 DENSITY ALT 400FT

CYGK;2017-05-30 23:09;CYGK 302309Z 30010G17KT 15SM -SHRA FEW004 BKN030CB BKN120 16/11 A2992 RMK CF1CB4AC1 CB MOVG E SLP136 DENSITY ALT 400FT

CYGK;2017-05-30 23:14;CYGK 302314Z 33007KT 280V360 15SM VCSH FEW004 SCT036CB BKN120 16/12 A2991 RMK CF1CB3AC1 CB NE-SE MOVG E SH NE SLP131 DENSITY ALT 500FT

CYGK;2017-05-31 00:00;CYGK 310000Z VRB02KT 15SM FEW010 FEW030TCU SCT120 15/11 A2991 RMK CF1TCU2AC1 CF TR TCU DIST NE SLP132 DENSITY ALT 400FT

CYGK;2017-05-31 01:00;CYGK 310100Z 11005KT 15SM SCT018 BKN090 BKN250 15/12 A2990 RMK SC3AC3CI1 ACC ASOCTD SLP129

CYGK;2017-05-31 02:00;CYGK 310200Z 15006KT 15SM SCT018 BKN130 15/13 A2991 RMK SC3AC2 SLP132

CYGK;2017-05-31 03:00;CYGK 310300Z 17004KT 130V220 15SM FEW018 FEW130 14/14 A2991 RMK SC1AC1 LAST STFD OBS/NEXT 311000 UTC SLP130

CYGK;2017-05-31 10:00;CYGK 311000Z 16006KT 8SM MIFG FEW002 FEW025 FEW070 12/12 A2991 RMK SF1SC1AC1 SF TR SC TR SLP132

CYGK;2017-05-31 11:00;CYGK 311100Z 20008KT 15SM FEW070 13/13 A2992 RMK AC1 SLP134

CYGK;2017-05-31 12:00;CYGK 311200Z 19010KT 15SM FEW075 15/12 A2993 RMK AC1 SLP137

CYGK;2017-05-31 13:00;CYGK 311300Z 19010KT 15SM FEW070 BKN120 15/12 A2992 RMK AC1AC4 SLP135

CYGK;2017-05-31 14:00;CYGK 311400Z 19008KT 15SM VCSH FEW090 BKN130 14/11 A2992 RMK AC2AC5 SLP135

CYGK;2017-05-31 15:00;CYGK 311500Z 19008KT 15SM VCSH FEW020 SCT080 BKN120 17/12 A2991 RMK CU1AC3AC4 CU TR SLP132 DENSITY ALT 500FT

CYGK;2017-05-31 16:00;CYGK 311600Z 17009KT 160V240 15SM FEW025 BKN080 BKN120 16/12 A2991 RMK CU1AC4AC1 CB DIST S SLP131 DENSITY ALT 500FT

CYGK;2017-05-31 17:00;CYGK 311700Z 19011KT 15SM FEW030 FEW080 SCT250 16/12 A2988 RMK SF1AC1CI2 SLP122 DENSITY ALT 500FT

CYGK;2017-05-31 18:00;CYGK 311800Z 20012KT 15SM FEW030 FEW080 SCT250 16/11 A2987 RMK CU1AC1CI2 CB DIST NW SE SLP116 DENSITY ALT 500FT

CYGK;2017-05-31 19:00;CYGK 311900Z 19013KT 15SM FEW030 SCT080 SCT220 18/11 A2984 RMK CU2AC1CI1 SLP107 DENSITY ALT 800FT

CYGK;2017-05-31 20:00;CYGK 312000Z 19010KT 15SM FEW040 SCT080 BKN250 17/11 A2984 RMK CU2AC1CI2 SLP105 DENSITY ALT 600FT

CYGK;2017-05-31 21:00;CYGK 312100Z 19007KT 15SM FEW030TCU SCT140 BKN220 16/11 A2983 RMK TCU2AC1CI2 SLP105 DENSITY ALT 600FT

CYGK;2017-05-31 22:00;CYGK 312200Z 20008KT 15SM FEW030 SCT140 BKN220 16/11 A2982 RMK CU1AC2CI2 SLP101 DENSITY ALT 500FT

CYGK;2017-05-31 23:00;CYGK 312300Z 18010KT 15SM FEW030 FEW120 SCT220 15/11 A2981 RMK CU1AC1CI2 SLP097 DENSITY ALT 400FT

CYGK;2017-06-01 00:00;CYGK 010000Z 20009KT 15SM FEW030 SCT120 SCT220 14/10 A2982 RMK CU1AC2CI1 SLP099 DENSITY ALT 400FT

CYGK;2017-06-01 01:00;CYGK 010100Z 22004KT 180V300 15SM FEW030 SCT120 SCT220 14/10 A2982 RMK CU1AC2CI1 SLP101 DENSITY ALT 400FT

CYGK;2017-06-01 02:00;CYGK 010200Z 24008KT 15SM SCT120 14/10 A2984 RMK AC4 SLP108

CYGK;2017-06-01 03:00;CYGK 010300Z 26005KT 15SM SCT079 15/11 A2985 RMK AC4 LAST STFD OBS/NEXT 011000UTC SLP110 DENSITY ALT 400FT

CYGK;2017-06-01 10:00;CYGK 011000Z 27006KT 15SM SCT095 BKN140 12/08 A2989 RMK AC3AC2 SLP125

CYGK;2017-06-01 11:00;CYGK 011100Z 23009KT 15SM SCT090 BKN250 13/08 A2990 RMK AC3CI2 SLP128

CYGK;2017-06-01 12:00;CYGK 011200Z 25011G16KT 15SM FEW025 SCT055 BKN090 14/08 A2990 RMK CU1SC2AC2 SLP129

CYGK;2017-06-01 13:00;CYGK 011300Z 27014G24KT 15SM FEW024 FEW090 SCT220 14/07 A2991 RMK CU1AC1CI1 SLP132

CYGK;2017-06-01 14:00;CYGK 011400Z 25014KT 15SM FEW030 FEW060 SCT100 SCT250 15/07 A2991 RMK CU2SC1AC1CI1 SC TR SLP130 DENSITY ALT 400FT

CYGK;2017-06-01 15:00;CYGK 011500Z 24013G19KT 15SM FEW028 SCT230 15/07 A2991 RMK SC2CI1 SLP130 DENSITY ALT 500FT

CYGK;2017-06-01 16:00;CYGK 011600Z 26013G18KT 15SM BKN040 BKN250 16/07 A2991 RMK SC5CI1 SLP131 DENSITY ALT 600FT

CYGK;2017-06-01 17:00;CYGK 011700Z 25014G21KT 220V280 15SM BKN042 BKN250 16/06 A2991 RMK SC5CI1 SLP132 DENSITY ALT 600FT

CYGK;2017-06-01 18:00;CYGK 011800Z 26018G24KT 15SM BKN055 17/05 A2990 RMK SC6 SLP128 DENSITY ALT 700FT

CYGK;2017-06-01 19:00;CYGK 011900Z 24016G23KT 15SM BKN058 BKN250 16/07 A2990 RMK CU6CI1 SLP128 DENSITY ALT 600FT

CYGK;2017-06-01 20:00;CYGK 012000Z 25016G25KT 15SM BKN053 BKN220 16/05 A2990 RMK SC5CI2 SLP127 DENSITY ALT 500FT

CYGK;2017-06-01 21:00;CYGK 012100Z 26016G23KT 15SM SCT058 BKN230 17/03 A2991 RMK CU3CI4 SLP130 DENSITY ALT 600FT

CYGK;2017-06-01 22:00;CYGK 012200Z 27015G21KT 15SM SCT060 BKN180 15/03 A2991 RMK SC3AC4 SLP132 DENSITY ALT 400FT

CYGK;2017-06-01 23:00;CYGK 012300Z 26012G21KT 15SM FEW060 BKN140 15/03 A2991 RMK SC1AC5 SLP131 DENSITY ALT 400FT

CYGK;2017-06-02 00:00;CYGK 020000Z 27010G17KT 15SM FEW060 SCT140 14/03 A2991 RMK SC1AC3 SLP132

CYGK;2017-06-02 01:00;CYGK 020100Z 27008KT 15SM FEW060 BKN150 14/03 A2992 RMK SC1AC4 SLP136

CYGK;2017-06-02 02:00;CYGK 020200Z 26011G21KT 15SM FEW060 FEW110 13/04 A2994 RMK SC1AC2 SC TR SLP141

CYGK;2017-06-02 03:00;CYGK 020300Z 28008KT 15SM FEW110 11/05 A2994 RMK AC1 LAST STFD OBS/NEXT 021000UTC SLP141

CYGK;2017-06-02 10:00;CYGK 021000Z 27004KT 15SM BKN091 08/07 A2993 RMK AC5 SLP137

CYGK;2017-06-02 11:00;CYGK 021100Z 25005KT 15SM FEW012 BKN085 09/08 A2995 RMK CU1AC5 SLP143

CYGK;2017-06-02 12:00;CYGK 021200Z 29005KT 260V340 15SM FEW012 BKN094 11/08 A2995 RMK CU1AC5 CU TR SLP146

CYGK;2017-06-02 13:00;CYGK 021300Z 33012KT 15SM FEW015 SCT098 SCT250 13/06 A2996 RMK CU1AC3CI1 CU TR CI TR SLP148

CYGK;2017-06-02 14:00;CYGK 021400Z 29011G20KT 15SM SCT031 BKN110 14/05 A2996 RMK CU3AC3 SLP148

CYGK;2017-06-02 15:00;CYGK 021500Z 30011G20KT 15SM BKN045 BKN120 15/06 A2997 RMK SC6AC1 SLP150

CYGK;2017-06-02 16:00;CYGK 021600Z 32011G19KT 270V330 15SM BKN040 BKN120 14/05 A2997 RMK SC7AC1 AC TR SLP153

CYGK;2017-06-02 17:00;CYGK 021700Z 30012KT 15SM BKN050 15/05 A2997 RMK SC7 SLP152 DENSITY ALT 400FT

CYGK;2017-06-02 18:00;CYGK 021800Z 29009G17KT 270V340 15SM BKN050 16/06 A2997 RMK SC7 SLP150 DENSITY ALT 500FT

CYGK;2017-06-02 19:00;CYGK 021900Z 29009G18KT 15SM BKN050 16/06 A2997 RMK SC7 SLP151 DENSITY ALT 500FT

CYGK;2017-06-02 20:00;CYGK 022000Z 27008KT 250V320 15SM BKN053 16/06 A2996 RMK SC7 SLP148 DENSITY ALT 500FT

CYGK;2017-06-02 21:00;CYGK 022100Z 28007KT 15SM BKN050 16/06 A2995 RMK SC7 SLP147 DENSITY ALT 500FT

CYGK;2017-06-02 22:00;CYGK 022200Z 29008KT 260V330 15SM SCT050 BKN070 17/07 A2995 RMK SC4AC3 SLP144 DENSITY ALT 600FT

CYGK;2017-06-02 23:00;CYGK 022300Z 31006KT 15SM SCT055 BKN070 17/06 A2994 RMK SC3AC2 SLP142 DENSITY ALT 600FT

CYGK;2017-06-03 00:00;CYGK 030000Z 22006KT 210V310 15SM SCT050 SCT070 14/09 A2995 RMK SC3AC1 SLP144

CYGK;2017-06-03 01:00;CYGK 030100Z VRB02KT 15SM SCT058 12/10 A2995 RMK SC4 SLP145

CYGK;2017-06-03 02:00;CYGK 030200Z 35002KT 15SM BKN058 12/09 A2996 RMK SC5 SLP148

CYGK;2017-06-03 03:00;CYGK 030300Z 34005KT 15SM BKN058 12/09 A2997 RMK SC6 LAST STFD OBS/NEXT 031000UTC SLP152

CYGK;2017-06-03 10:00;CYGK 031000Z 31005KT 15SM FEW050 FEW140 FEW180 10/07 A2997 RMK CU1AC1AC1 CU TR SLP152

CYGK;2017-06-03 11:00;CYGK 031100Z 33011KT 15SM FEW020 FEW050 FEW140 FEW250 11/08 A3001 RMK CU1SC1AC1CI1 CU TR SC TR CI TR SLP163

CYGK;2017-06-03 12:00;CYGK 031200Z 33008KT 15SM FEW030 FEW080 FEW250 13/05 A3001 RMK CU1AC1CI1 CU TR CI TR SLP165

CYGK;2017-06-03 13:00;CYGK 031300Z 33013KT 15SM FEW030 FEW250 15/03 A3001 RMK CU1CI1 CU TR SLP164

CYGK;2017-06-03 14:00;CYGK 031400Z 30013G20KT 15SM FEW030 FEW120 FEW250 15/02 A3001 RMK CU1AC1CI1 CU TR AC TR SLP163 DENSITY ALT 400FT

CYGK;2017-06-03 15:00;CYGK 031500Z 29011G17KT 15SM FEW030 FEW250 17/03 A3001 RMK SC1CI1 SC TR CI TR SLP164 DENSITY ALT 500FT

CYGK;2017-06-03 16:00;CYGK 031600Z 34010KT 260V360 15SM FEW040 FEW250 18/05 A3000 RMK CU1CI1 CU TR SLP162 DENSITY ALT 600FT

CYGK;2017-06-03 17:00;CYGK 031700Z 32009G17KT 260V350 15SM FEW040 19/08 A3000 RMK SC1 SLP161 DENSITY ALT 700FT

CYGK;2017-06-03 18:00;CYGK 031800Z 36008KT 290V040 15SM FEW050 20/08 A2998 RMK CU1 SLP156 DENSITY ALT 900FT

CYGK;2017-06-03 18:53;CYGK 031853Z 19010KT 150V220 15SM BKN058 17/09 A2999 RMK CU5 WSHFT 1816 SLP159 DENSITY ALT 600FT

CYGK;2017-06-03 19:00;CYGK 031900Z 19011KT 15SM BKN058 18/09 A2999 RMK CU5 SLP158 DENSITY ALT 600FT

CYGK;2017-06-03 20:00;CYGK 032000Z 19012KT 15SM BKN060 17/11 A2998 RMK SC6 SLP156 DENSITY ALT 600FT

CYGK;2017-06-03 21:00;CYGK 032100Z 21006KT 15SM SCT060 SCT250 20/11 A2998 RMK CU4CI1 CI TR SLP153 DENSITY ALT 900FT

CYGK;2017-06-03 22:00;CYGK 032200Z 22010KT 15SM SCT063 SCT250 20/10 A2997 RMK CU3CI1 SLP152 DENSITY ALT 900FT

CYGK;2017-06-03 23:00;CYGK 032300Z 21007KT 15SM SCT065 BKN250 19/10 A2997 RMK CU3CI2 SLP152 DENSITY ALT 900FT

CYGK;2017-06-04 00:00;CYGK 040000Z 24007KT 15SM FEW065 BKN250 17/09 A2998 RMK SC1CI5 SLP154 DENSITY ALT 600FT

CYGK;2017-06-04 01:00;CYGK 040100Z 22007KT 15SM FEW065 SCT250 15/09 A2998 RMK SC1CI4 SC TR SLP154

CYGK;2017-06-04 02:00;CYGK 040200Z 25005KT 14SM FEW060 SCT250 14/10 A2999 RMK SC1CI3 SC TR SLP158

CYGK;2017-06-04 03:00;CYGK 040300Z VRB02KT 15SM FEW250 11/09 A2999 RMK CI2 LAST STFD OBS/NEXT 041000UTC SLP157

CYGK;2017-06-04 10:00;CYGK 041000Z 17005KT 15SM OVC160 12/10 A2995 RMK AC8 SLP144

CYGK;2017-06-04 11:00;CYGK 041100Z 18008KT 15SM OVC150 12/10 A2995 RMK AC8 SLP146

CYGK;2017-06-04 12:00;CYGK 041200Z 19007KT 15SM OVC130 12/10 A2996 RMK AC8 SLP147

CYGK;2017-06-04 13:00;CYGK 041300Z 17005KT 15SM OVC100 12/09 A2995 RMK AC8 SLP145

CYGK;2017-06-04 14:00;CYGK 041400Z 18007KT 15SM SCT045 OVC100 12/09 A2994 RMK SC4AC4 SLP140

CYGK;2017-06-04 15:00;CYGK 041500Z 17007KT 15SM FEW040 OVC100 13/10 A2990 RMK SC2AC6 SLP126

CYGK;2017-06-04 15:47;CYGK 041547Z 17009KT 15SM -RA OVC085 13/09 A2988 RMK AC8 SLP121

CYGK;2017-06-04 16:00;CYGK 041600Z 19010KT 12SM -RA OVC080 13/09 A2990 RMK AC8 PRESRR SLP126

CYGK;2017-06-04 17:00;CYGK 041700Z 20011KT 15SM -RA FEW015 OVC080 12/10 A2990 RMK CF1AC7 SLP127

CYGK;2017-06-04 17:26;CYGK 041726Z 21007KT 15SM FEW020 OVC076 12/09 A2990 RMK SC1AC7 SLP130

CYGK;2017-06-04 18:00;CYGK 041800Z 16005KT 15SM FEW007 BKN070 OVC083 12/10 A2987 RMK SF1AC6AC1 SLP118

CYGK;2017-06-04 18:20;CYGK 041820Z 12003KT 100V160 15SM BKN011 OVC072 12/10 A2987 RMK SC5AC3 SLP118

CYGK;2017-06-04 19:00;CYGK 041900Z 14003KT 120V190 15SM VCSH BKN011 OVC060 12/10 A2986 RMK SC7SC1 SLP113

CYGK;2017-06-04 20:00;CYGK 042000Z VRB02KT 12SM -RA SCT012 BKN020 OVC056 13/11 A2985 RMK SC3SC2SC3 SLP110

CYGK;2017-06-04 20:18;CYGK 042018Z 10004KT 15SM VCSH FEW012 SCT019 OVC052 13/11 A2983 RMK SC1SC2SC5 SLP104

CYGK;2017-06-04 21:00;CYGK 042100Z 12007KT 080V140 15SM FEW010 BKN048 15/11 A2981 RMK CF1SC6 SLP097 DENSITY ALT 500FT

CYGK;2017-06-04 22:00;CYGK 042200Z 08007KT 15SM FEW008 OVC030 15/10 A2980 RMK SF1SC8 SF TR SLP094 DENSITY ALT 500FT

CYGK;2017-06-04 23:00;CYGK 042300Z 04004KT 020V090 15SM VCSH OVC030 14/10 A2979 RMK SC8 PRESRR SLP092 DENSITY ALT 500FT

CYGK;2017-06-04 23:43;CYGK 042343Z 07005KT 10SM -RA OVC026 14/10 A2979 RMK SC8 VIS N 3 SLP090 DENSITY ALT 500FT

CYGK;2017-06-05 00:00;CYGK 050000Z 09005KT 360V100 5SM -RA BR FEW010 OVC026 13/11 A2978 RMK SF1SC8 SF TR SLP089

CYGK;2017-06-05 01:00;CYGK 050100Z 03006KT 010V070 15SM VCSH FEW008 OVC024 13/12 A2978 RMK SF1SC8 SF TR SLP087

CYGK;2017-06-05 02:00;CYGK 050200Z 06006KT 15SM OVC022 13/12 A2978 RMK SC8 SLP086

CYGK;2017-06-05 03:00;CYGK 050300Z 06005KT 15SM BKN022 BKN050 13/12 A2976 RMK SC6SC1 LAST STFD OBS/NEXT 051000UTC SLP081 DENSITY ALT 400FT

CYGK;2017-06-05 10:00;CYGK 051000Z 04003KT 350V070 15SM OVC023 13/12 A2971 RMK SC8 SLP064 DENSITY ALT 400FT

CYGK;2017-06-05 11:00;CYGK 051100Z 36003KT 340V050 15SM FEW012 OVC021 13/12 A2972 RMK CF1SC7 SLP068 DENSITY ALT 500FT

CYGK;2017-06-05 12:00;CYGK 051200Z 06004KT 15SM FEW008 OVC021 14/12 A2972 RMK SF2SC6 SLP068 DENSITY ALT 500FT

CYGK;2017-06-05 13:00;CYGK 051300Z 04006KT 15SM BKN008 OVC014 14/13 A2971 RMK SC5SC3 SLP063 DENSITY ALT 600FT

CYGK;2017-06-05 13:47;CYGK 051347Z 02007KT 350V060 15SM BKN010 OVC017 16/14 A2971 RMK SC5SC3 SLP062 DENSITY ALT 700FT

CYGK;2017-06-05 14:00;CYGK 051400Z 36006KT 340V050 15SM BKN011 OVC018 15/13 A2971 RMK SC6SC2 SLP064 DENSITY ALT 700FT

CYGK;2017-06-05 15:00;CYGK 051500Z 36005KT 15SM OVC012 15/13 A2972 RMK SC8 SLP067 DENSITY ALT 700FT

CYGK;2017-06-05 16:00;CYGK 051600Z 03006KT 15SM OVC013 16/13 A2972 RMK SC8 SLP067 DENSITY ALT 700FT

CYGK;2017-06-05 17:00;CYGK 051700Z 04006KT 15SM OVC015 16/13 A2972 RMK SC8 SLP066 DENSITY ALT 700FT

CYGK;2017-06-05 18:00;CYGK 051800Z 03005KT 12SM -RA OVC013 16/13 A2971 RMK SC8 SLP064 DENSITY ALT 700FT

CYGK;2017-06-05 18:45;CYGK 051845Z 36004KT 15SM FEW010 OVC015 16/14 A2972 RMK CF1SC8 CF TR SLP065 DENSITY ALT 700FT

CYGK;2017-06-05 19:00;CYGK 051900Z 01004KT 15SM FEW010 OVC014 16/13 A2972 RMK CF1SC8 CF TR SLP065 DENSITY ALT 700FT

CYGK;2017-06-05 19:19;CYGK 051919Z 03006KT 15SM -RA FEW010 OVC013 16/13 A2972 RMK CF1SC8 CF TR SLP065 DENSITY ALT 700FT

CYGK;2017-06-05 19:51;CYGK 051951Z 02006KT 340V050 15SM FEW005 OVC015 16/14 A2971 RMK CF1SC8 CF TR SLP063 DENSITY ALT 800FT

CYGK;2017-06-05 20:00;CYGK 052000Z 01005KT 340V060 15SM FEW005 OVC017 17/14 A2971 RMK CF1SC8 CF TR SLP063 DENSITY ALT 900FT

CYGK;2017-06-05 21:00;CYGK 052100Z 02003KT 340V040 15SM FEW007 OVC016 17/13 A2970 RMK CF1SC8 CF TR SLP060 DENSITY ALT 900FT

CYGK;2017-06-05 22:00;CYGK 052200Z 34007KT 15SM OVC015 16/13 A2969 RMK SC8 SLP057 DENSITY ALT 800FT

CYGK;2017-06-05 23:00;CYGK 052300Z 36005KT 15SM OVC016 16/13 A2970 RMK SC8 SLP060 DENSITY ALT 800FT

CYGK;2017-06-06 00:00;CYGK 060000Z 36006KT 15SM OVC021 15/13 A2971 RMK SC8 SLP064 DENSITY ALT 700FT

CYGK;2017-06-06 01:00;CYGK 060100Z 01007KT 15SM BKN029 OVC120 14/13 A2971 RMK SC7AC1 SLP064 DENSITY ALT 600FT

CYGK;2017-06-06 02:00;CYGK 060200Z 34004KT 15SM BKN018 OVC038 14/14 A2973 RMK SC6SC2 SLP069 DENSITY ALT 600FT

CYGK;2017-06-06 02:38;CYGK 060238Z 35003KT 15SM OVC007 14/14 A2973 RMK SC8 SLP069 DENSITY ALT 600FT

CYGK;2017-06-06 03:00;CYGK 060300Z 35003KT 15SM BKN007 OVC013 14/14 A2973 RMK SC6SC2 LAST STFD OBS / NEXT 061000 UTC SLP069 DENSITY ALT 600FT

CYGK;2017-06-06 10:00;CYGK 061000Z 15005KT 5SM -RA BR FEW008 OVC012 13/13 A2972 RMK SF2NS6 SLP068 DENSITY ALT 400FT

CYGK;2017-06-06 10:15;CYGK 061015Z 15005KT 2SM -RA BR FEW008 OVC012 13/13 A2973 RMK SF1NS7 SLP070 DENSITY ALT 400FT

CYGK;2017-06-06 10:31;CYGK 061031Z 15005KT 1SM -RA BR BKN002 OVC010 13/13 A2974 RMK SF6NS2 SLP072 DENSITY ALT 400FT

CYGK;2017-06-06 11:00;CYGK 061100Z 15004KT 1SM -RA BR OVC002 13/13 A2974 RMK SF8 SLP073 DENSITY ALT 400FT

CYGK;2017-06-06 11:07;CYGK 061107Z 13004KT 2SM -RA BR OVC002 13/13 A2974 RMK SF8 SLP074 DENSITY ALT 400FT

CYGK;2017-06-06 11:23;CYGK 061123Z 11004KT 1 1/2SM -RA BR SCT002 OVC012 13/13 A2975 RMK SF4NS4 SLP076 DENSITY ALT 400FT

CYGK;2017-06-06 11:39;CYGK 061139Z 07006KT 030V100 1 1/2SM -RA BR SCT002 OVC009 13/13 A2975 RMK SF4NS4 SLP077 DENSITY ALT 400FT

CYGK;2017-06-06 12:00;CYGK 061200Z 07009KT 1 1/2SM -RA BR SCT004 OVC007 13/13 A2976 RMK SF4NS4 SLP079 DENSITY ALT 400FT

CYGK;2017-06-06 12:23;CYGK 061223Z 06009G15KT 2 1/2SM -RA BR SCT004 OVC008 13/12 A2977 RMK SF3NS5 SLP082

CYGK;2017-06-06 13:00;CYGK 061300Z 06011G18KT 4SM -RA BR BKN006 OVC016 13/12 A2978 RMK SF7NS1 SLP086

CYGK;2017-06-06 13:11;CYGK 061311Z 06011KT 2SM -RA BR BKN006 OVC013 13/12 A2978 RMK SF6NS2 SLP088

CYGK;2017-06-06 13:44;CYGK 061344Z 06011KT 3SM -RA BR BKN006 OVC013 12/12 A2979 RMK SF7NS1 SLP091

CYGK;2017-06-06 14:00;CYGK 061400Z 06011KT 3SM -RA BR BKN006 OVC012 12/12 A2979 RMK SF6NS2 SLP092

CYGK;2017-06-06 14:49;CYGK 061449Z 06011G16KT 4SM RA BR BKN008 OVC025 12/11 A2981 RMK SF5NS3 SLP097

CYGK;2017-06-06 15:00;CYGK 061500Z 05011KT 4SM RA BR BKN008 OVC025 12/11 A2981 RMK SF5NS3 SLP098

CYGK;2017-06-06 15:15;CYGK 061515Z 05012G19KT 4SM -RA BR BKN008 OVC028 12/11 A2981 RMK SF5NS3 SLP099

CYGK;2017-06-06 16:00;CYGK 061600Z 05012G19KT 4SM -RA BR SCT008 OVC029 12/11 A2983 RMK SF4NS4 SLP103

CYGK;2017-06-06 17:00;CYGK 061700Z 05012KT 5SM -RA BR SCT008 OVC025 12/11 A2984 RMK SF4NS4 SLP108

CYGK;2017-06-06 17:24;CYGK 061724Z 05011KT 6SM -RA BR BKN008 OVC025 12/11 A2985 RMK SF5NS3 SLP110

CYGK;2017-06-06 18:00;CYGK 061800Z 05010G19KT 2 1/2SM -RA BR BKN008 OVC022 12/11 A2986 RMK SF6NS2 SLP113

CYGK;2017-06-06 18:16;CYGK 061816Z 05011G20KT 3SM -RA BR BKN007 OVC018 12/11 A2986 RMK SF5NS3 SLP113

CYGK;2017-06-06 19:00;CYGK 061900Z 05012G21KT 5SM -RA BR BKN008 OVC035 12/11 A2986 RMK SF6NS2 SLP113

CYGK;2017-06-06 19:50;CYGK 061950Z 04017G23KT 12SM -RA SCT007 BKN010 OVC035 12/11 A2987 RMK SF3SC4NS1 SLP116

CYGK;2017-06-06 20:00;CYGK 062000Z 05014G19KT 15SM -RA FEW010 BKN015 OVC035 12/11 A2987 RMK SF2SC4NS2 SLP118

CYGK;2017-06-06 21:00;CYGK 062100Z 04013G20KT 10SM -RA SCT009 BKN014 OVC030 12/11 A2988 RMK SF3SC3NS2 SLP122

CYGK;2017-06-06 22:00;CYGK 062200Z 03011G21KT 5SM -RA BR BKN010 OVC022 11/10 A2990 RMK SF6NS2 SLP129

CYGK;2017-06-06 23:00;CYGK 062300Z 03010G16KT 5SM -RA BR FEW010 BKN021 OVC044 11/10 A2992 RMK SF2SC4NS2 SLP136

CYGK;2017-06-06 23:27;CYGK 062327Z 02011G17KT 15SM -RA FEW012 BKN016 OVC060 11/10 A2994 RMK SF2SC4SC2 SLP140

CYGK;2017-06-07 00:00;CYGK 070000Z 03009G16KT 15SM -RA FEW012 BKN018 OVC027 11/10 A2995 RMK SF1SC5SC2 SLP144

CYGK;2017-06-07 01:00;CYGK 070100Z 03009G16KT 8SM -RA SCT014 BKN050 OVC250 11/09 A2996 RMK SC4SC3CS1 SLP150

CYGK;2017-06-07 02:00;CYGK 070200Z 04010KT 15SM FEW012 BKN060 BKN120 10/09 A2999 RMK SF2SC3AC2 SLP158

CYGK;2017-06-07 03:00;CYGK 070300Z 03006KT 15SM FEW010 SCT058 SCT100 10/09 A3000 RMK SF1SC2AC1 LAST STFD OBS/NEXT 071000 UTC SLP162

CYGK;2017-06-07 10:00;CYGK 071000Z 34005KT 15SM MIFG FEW120 05/05 A3005 RMK AC1 AC TR SLP180

CYGK;2017-06-07 11:00;CYGK 071100Z 34003KT 15SM FEW120 09/08 A3007 RMK AC1 AC TR SLP185

CYGK;2017-06-07 12:00;CYGK 071200Z 34004KT 15SM FEW012 FEW120 FEW250 12/10 A3008 RMK CF1AC1CI1 CF TR AC TR CI TR SLP190

CYGK;2017-06-07 13:00;CYGK 071300Z 00000KT 15SM FEW020 FEW250 14/10 A3009 RMK CF1CI1 CF TR SLP193

CYGK;2017-06-07 14:00;CYGK 071400Z 16005KT 15SM FEW015 14/10 A3009 RMK CF1 CF TR SLP192

CYGK;2017-06-07 15:00;CYGK 071500Z 19005KT 15SM FEW020 FEW250 15/10 A3008 RMK CF1CI1 CF TR CI TR SLP190

CYGK;2017-06-07 16:00;CYGK 071600Z 19009KT 15SM FEW025 FEW250 15/11 A3008 RMK CF1CI1 CF TR CI TR SLP188

CYGK;2017-06-07 17:00;CYGK 071700Z 18007KT 15SM FEW025 FEW250 16/12 A3007 RMK CF1CI1 CF TR SLP185 DENSITY ALT 400FT

CYGK;2017-06-07 18:00;CYGK 071800Z 21007KT 160V220 15SM FEW025 FEW250 18/12 A3005 RMK CU1CI1 CU TR CI TR SLP180 DENSITY ALT 600FT

CYGK;2017-06-07 19:00;CYGK 071900Z 19008KT 15SM FEW025 FEW250 18/13 A3004 RMK CU1CI1 CU TR CI TR SLP176 DENSITY ALT 600FT

CYGK;2017-06-07 20:00;CYGK 072000Z 21008KT 15SM FEW025 FEW250 20/14 A3003 RMK CU1CI1 CU TR SLP172 DENSITY ALT 800FT

CYGK;2017-06-07 21:00;CYGK 072100Z 21008KT 15SM FEW025 FEW250 19/13 A3003 RMK CU1CI1 CU TR CI TR SLP171 DENSITY ALT 800FT

CYGK;2017-06-07 22:00;CYGK 072200Z 20007KT 15SM FEW025 FEW250 20/12 A3003 RMK CU1CI1 CU TR CI TR SLP171 DENSITY ALT 800FT

CYGK;2017-06-07 23:00;CYGK 072300Z 22006KT 15SM FEW250 19/12 A3002 RMK CI1 CI TR SLP169 DENSITY ALT 800FT

CYGK;2017-06-08 00:00;CYGK 080000Z 24008KT 15SM FEW250 18/12 A3002 RMK CI1 CI TR SLP168 DENSITY ALT 600FT

CYGK;2017-06-08 01:00;CYGK 080100Z 24009KT 15SM FEW250 16/11 A3002 RMK CI1 CI TR SLP168 DENSITY ALT 400FT

CYGK;2017-06-08 02:00;CYGK 080200Z 29007KT 15SM FEW250 15/11 A3002 RMK CI1 CI TR SLP169

CYGK;2017-06-08 03:00;CYGK 080300Z 27007KT 15SM SKC 14/10 A3003 RMK LAST STFD OBS/NEXT 081000 UTC SLP172

CYGK;2017-06-08 10:00;CYGK 081000Z 20006KT 15SM FEW090 12/11 A3003 RMK AC2 SLP173

CYGK;2017-06-08 11:00;CYGK 081100Z 22003KT 15SM FEW090 13/12 A3004 RMK AC2 SLP175

CYGK;2017-06-08 12:00;CYGK 081200Z 22003KT 170V270 15SM FEW090 15/12 A3005 RMK AC1 SLP178

CYGK;2017-06-08 13:00;CYGK 081300Z 15004KT 15SM SCT095 15/12 A3005 RMK AC3 SLP177

CYGK;2017-06-08 14:00;CYGK 081400Z 16009KT 15SM SCT090 14/12 A3004 RMK AC3 SLP175

CYGK;2017-06-08 15:00;CYGK 081500Z 16008KT 15SM FEW090 14/12 A3003 RMK AC2 SLP172

CYGK;2017-06-08 16:00;CYGK 081600Z 16007KT 15SM FEW100 SCT250 14/12 A3001 RMK AC2CI1 SLP165

CYGK;2017-06-08 17:00;CYGK 081700Z 16004KT 15SM FEW100 FEW250 15/13 A2999 RMK AC1CI1 SLP158 DENSITY ALT 400FT

CYGK;2017-06-08 18:00;CYGK 081800Z 17007KT 15SM FEW050 FEW090 FEW250 15/12 A2997 RMK CU1AC1CI1 AC TR SLP152 DENSITY ALT 400FT

CYGK;2017-06-08 19:00;CYGK 081900Z 16004KT 15SM FEW050 FEW100 FEW250 17/13 A2995 RMK CU1AC1CI1 AC TR SLP144 DENSITY ALT 600FT

CYGK;2017-06-08 20:00;CYGK 082000Z 16004KT 15SM FEW050 FEW250 19/13 A2991 RMK CU1CI1 SLP132 DENSITY ALT 900FT

CYGK;2017-06-08 21:00;CYGK 082100Z 18005KT 15SM FEW050 FEW100 FEW250 21/13 A2989 RMK CU1AC1CI1 AC TR SLP122 DENSITY ALT 1100FT

CYGK;2017-06-08 22:00;CYGK 082200Z 19003KT 15SM FEW050 FEW100 FEW250 20/14 A2986 RMK CU1AC1CI1 AC TR SLP114 DENSITY ALT 1000FT

CYGK;2017-06-08 23:00;CYGK 082300Z 17006KT 15SM FEW050TCU FEW100 FEW250 17/13 A2984 RMK TCU1AC1CI1 TCU TR AC TR TCU DIST S SLP108 DENSITY ALT 800FT

CYGK;2017-06-09 00:00;CYGK 090000Z 24003KT 15SM FEW050TCU FEW100 FEW250 19/14 A2983 RMK TCU1AC1CI1 TCU TR SLP104 DENSITY ALT 1000FT

CYGK;2017-06-09 01:00;CYGK 090100Z 00000KT 15SM FEW120 SCT250 16/13 A2982 RMK AC2CI1 SLP099 DENSITY ALT 600FT

CYGK;2017-06-09 02:00;CYGK 090200Z 00000KT 15SM SCT120 SCT250 15/12 A2981 RMK AC3CI1 SLP098 DENSITY ALT 600FT

CYGK;2017-06-09 03:00;CYGK 090300Z 35003KT 15SM FEW120 BKN250 14/13 A2981 RMK AC1CI5 LAST STFD OBS/NEXT 091000 UTC SLP096 DENSITY ALT 500FT

CYGK;2017-06-09 10:00;CYGK 091000Z 25002KT 15SM FEW090 SCT200 13/08 A2974 RMK AC2CI1 SLP072 DENSITY ALT 400FT

CYGK;2017-06-09 11:00;CYGK 091100Z 16006KT 15SM FEW090 SCT200 14/12 A2974 RMK AC2CI2 SLP074 DENSITY ALT 500FT

CYGK;2017-06-09 12:00;CYGK 091200Z 21009KT 15SM FEW064 BKN190 15/12 A2974 RMK SC2CI3 SLP073 DENSITY ALT 600FT

CYGK;2017-06-09 13:00;CYGK 091300Z 19009KT 15SM FEW065 SCT200 16/12 A2974 RMK CU1CI4 CU TR SLP073 DENSITY ALT 700FT

CYGK;2017-06-09 14:00;CYGK 091400Z 24007KT 15SM FEW060 BKN200 19/12 A2974 RMK CU1CI4 SLP073 DENSITY ALT 1100FT

CYGK;2017-06-09 15:00;CYGK 091500Z 20007KT 15SM FEW070 FEW200 BKN250 18/14 A2974 RMK CU1CI2CI3 CU TR SLP072 DENSITY ALT 1000FT

CYGK;2017-06-09 16:00;CYGK 091600Z 20009KT 15SM FEW030 BKN200 20/14 A2973 RMK CU1CI6 CU TR SLP068 DENSITY ALT 1200FT

CYGK;2017-06-09 17:00;CYGK 091700Z 22009KT 15SM FEW050 BKN220 23/13 A2972 RMK CU1CI6 SLP067 DENSITY ALT 1600FT

CYGK;2017-06-09 18:00;CYGK 091800Z 23010G15KT 15SM FEW058 BKN200 23/16 A2972 RMK CU2CI4 SLP065 DENSITY ALT 1600FT

CYGK;2017-06-09 19:00;CYGK 091900Z 24014G19KT 15SM FEW060 FEW100 SCT200 23/14 A2971 RMK CU1AC1CI1 SLP062 DENSITY ALT 1600FT

CYGK;2017-06-09 20:00;CYGK 092000Z 20013KT 15SM SCT060 SCT220 23/13 A2971 RMK CU3CI1 SLP062 DENSITY ALT 1500FT

CYGK;2017-06-09 21:00;CYGK 092100Z 22012KT 15SM VCSH SCT060 SCT150 23/14 A2970 RMK CU3AC1 SLP061 DENSITY ALT 1600FT

CYGK;2017-06-09 22:00;CYGK 092200Z 25008KT 15SM VCSH SCT065TCU BKN110 22/12 A2971 RMK TCU3AC2 SLP062 DENSITY ALT 1400FT

CYGK;2017-06-09 23:00;CYGK 092300Z 23008KT 15SM FEW065TCU BKN140 21/13 A2973 RMK TCU2AC3 SLP069 DENSITY ALT 1300FT

CYGK;2017-06-10 00:00;CYGK 100000Z 25005KT 15SM FEW060TCU FEW150 SCT270 21/13 A2975 RMK TCU1AC1CI2 SHWRS W SLP074 DENSITY ALT 1300FT

CYGK;2017-06-10 01:00;CYGK 100100Z 26003KT 15SM FEW060 BKN110 BKN270 21/13 A2975 RMK CU2AC3CI1 SLP077 DENSITY ALT 1300FT

CYGK;2017-06-10 02:00;CYGK 100200Z 00000KT 15SM SCT060 BKN140 19/14 A2978 RMK CU3AC3 SHWRS N SLP084 DENSITY ALT 1100FT

CYGK;2017-06-10 02:24;CYGK 100224Z 30012KT 230V320 15SM -SHRA FEW015 BKN055 BKN140 19/14 A2980 RMK CF1CU5AC2 CF TR PRESRR SLP093 DENSITY ALT 1000FT

CYGK;2017-06-10 03:00;CYGK 100300Z 36002KT 15SM SCT055 BKN088 17/15 A2980 RMK CU3AC4 LAST STFD OBS/NEXT 101000UTC SLP093 DENSITY ALT 800FT

CYGK;2017-06-10 10:00;CYGK 101000Z 07003KT 10SM BKN064 BKN120 14/14 A2986 RMK SC5AC1 SLP112 DENSITY ALT 400FT

CYGK;2017-06-10 11:00;CYGK 101100Z 13005KT 10SM SCT062 BKN120 BKN220 14/13 A2987 RMK NS4AC1CI1 SLP116 DENSITY ALT 400FT

CYGK;2017-06-10 12:00;CYGK 101200Z 00000KT 12SM SCT078 SCT120 BKN220 16/14 A2988 RMK AC4AC1CI2 AC TR SLP120 DENSITY ALT 600FT

CYGK;2017-06-10 13:00;CYGK 101300Z 16003KT 12SM FEW015 FEW080 BKN250 16/14 A2989 RMK CF1AC1CI4 CF TR SLP125 DENSITY ALT 600FT

CYGK;2017-06-10 14:00;CYGK 101400Z 17007KT 15SM FEW015 BKN250 17/13 A2990 RMK CF1CI5 CF TR SLP126 DENSITY ALT 700FT

CYGK;2017-06-10 15:00;CYGK 101500Z 18005KT 15SM FEW020 BKN250 17/14 A2990 RMK CF1CI5 CF TR SLP128 DENSITY ALT 700FT

CYGK;2017-06-10 16:00;CYGK 101600Z 16009KT 15SM FEW025 BKN250 18/14 A2991 RMK CU1CI6 CU TR SLP129 DENSITY ALT 700FT

CYGK;2017-06-10 17:00;CYGK 101700Z 18008KT 15SM FEW040 SCT250 18/15 A2991 RMK CU1CI3 SLP130 DENSITY ALT 800FT

CYGK;2017-06-10 18:00;CYGK 101800Z 19010KT 15SM FEW040 SCT250 19/15 A2990 RMK CU1CI2 SLP127 DENSITY ALT 1000FT

CYGK;2017-06-10 19:00;CYGK 101900Z 19011KT 15SM FEW040 FEW200 BKN250 20/15 A2989 RMK CU1CI2CI3 CU TR SLP122 DENSITY ALT 1000FT

CYGK;2017-06-10 20:00;CYGK 102000Z 19009KT 15SM FEW040 FEW200 SCT250 21/16 A2989 RMK CU1CI2CI2 CU TR SLP122 DENSITY ALT 1100FT

CYGK;2017-06-10 21:00;CYGK 102100Z 19009KT 15SM FEW040 FEW160 BKN250 19/15 A2987 RMK CU1AC1CI5 CU TR SLP117 DENSITY ALT 1000FT

CYGK;2017-06-10 22:00;CYGK 102200Z 19007KT 15SM FEW040 SCT190 BKN250 19/15 A2988 RMK CU1AC4CI2 CU TR SLP119 DENSITY ALT 900FT

CYGK;2017-06-10 23:00;CYGK 102300Z 20007KT 15SM SCT160 BKN190 BKN250 19/15 A2987 RMK AC3AC2CI2 SLP116 DENSITY ALT 900FT

CYGK;2017-06-11 00:00;CYGK 110000Z 19005KT 15SM FEW180 BKN250 18/15 A2987 RMK AC2CI5 SLP117 DENSITY ALT 800FT

CYGK;2017-06-11 01:00;CYGK 110100Z 15004KT 15SM SCT160 BKN240 18/15 A2986 RMK AC3CI4 SLP112 DENSITY ALT 800FT

CYGK;2017-06-11 02:00;CYGK 110200Z 19005KT 15SM FEW160 BKN250 17/15 A2986 RMK AC2CI4 SLP113 DENSITY ALT 800FT

CYGK;2017-06-11 03:00;CYGK 110300Z 19005KT 15SM BKN250 18/15 A2986 RMK CI5 LAST STFD OBS / NEXT 111000 UTC SLP113 DENSITY ALT 800FT

CYGK;2017-06-11 10:00;CYGK 111000Z 20005KT 15SM BKN250 17/15 A2988 RMK CI7 SLP119 DENSITY ALT 700FT

CYGK;2017-06-11 11:00;CYGK 111100Z 20008KT 15SM FEW160 BKN250 18/15 A2989 RMK AC1CI6 SLP124 DENSITY ALT 800FT

CYGK;2017-06-11 12:00;CYGK 111200Z 24013G21KT 15SM SCT200 BKN250 21/15 A2990 RMK CI3CI4 SLP128 DENSITY ALT 1200FT

CYGK;2017-06-11 12:26;CYGK 111226Z 23018G28KT 15SM SCT200 BKN250 22/15 A2990 RMK CI3CI3 SLP127 DENSITY ALT 1200FT

CYGK;2017-06-11 13:00;CYGK 111300Z 23018G25KT 15SM BKN250 23/15 A2990 RMK CI6 SLP126 DENSITY ALT 1300FT

CYGK;2017-06-11 14:00;CYGK 111400Z 23017G25KT 15SM BKN250 23/16 A2990 RMK CI5 SLP126 DENSITY ALT 1400FT

CYGK;2017-06-11 15:00;CYGK 111500Z 23016G23KT 15SM BKN250 24/16 A2989 RMK CI5 SLP124 DENSITY ALT 1400FT

CYGK;2017-06-11 16:00;CYGK 111600Z 23018G25KT 15SM SCT250 25/16 A2990 RMK CI4 SLP126 DENSITY ALT 1600FT

CYGK;2017-06-11 17:00;CYGK 111700Z 23019G26KT 15SM SCT250 25/16 A2991 RMK CI3 SLP129 DENSITY ALT 1600FT

CYGK;2017-06-11 18:00;CYGK 111800Z 23018G24KT 15SM FEW067 FEW160 FEW250 26/17 A2991 RMK AC1AC1CI2 AC TR AC TR SLP129 DENSITY ALT 1600FT

CYGK;2017-06-11 19:00;CYGK 111900Z 23017G25KT 15SM FEW230 26/17 A2991 RMK CI1 CI TR SLP129 DENSITY ALT 1700FT

CYGK;2017-06-11 20:00;CYGK 112000Z 23017G28KT 15SM FEW180 FEW230 26/17 A2991 RMK AC1CI1 AC TR SLP130 DENSITY ALT 1700FT

CYGK;2017-06-11 21:00;CYGK 112100Z 24018G26KT 15SM FEW160 FEW230 26/17 A2992 RMK AC1CI1 SLP131 DENSITY ALT 1700FT

CYGK;2017-06-11 22:00;CYGK 112200Z 24016G24KT 15SM FEW200 26/16 A2992 RMK CI1 SLP131 DENSITY ALT 1700FT

CYGK;2017-06-11 23:00;CYGK 112300Z 24011KT 15SM FEW250 24/16 A2991 RMK CI1 SLP130 DENSITY ALT 1500FT

CYGK;2017-06-12 00:00;CYGK 120000Z 23008KT 15SM FEW060 SCT250 23/16 A2992 RMK SC1CI3 SC TR SLP132 DENSITY ALT 1400FT

CYGK;2017-06-12 01:00;CYGK 120100Z 18006KT 140V250 15SM SCT062 BKN250 22/15 A2993 RMK SC3CI4 SLP135 DENSITY ALT 1200FT

CYGK;2017-06-12 02:00;CYGK 120200Z 16004KT 15SM FEW060 BKN250 17/15 A2992 RMK SC2CI3 SLP133 DENSITY ALT 700FT

CYGK;2017-06-12 03:00;CYGK 120300Z VRB02KT 15SM BKN060 BKN095 18/16 A2994 RMK SC5AC2 LAST STFD OBS/NEXT 121000UTC SLP139 DENSITY ALT 800FT

CYGK;2017-06-12 10:00;CYGK 121000Z 17008KT 15SM FEW080 SCT250 16/14 A2994 RMK ACC1CI3 SLP141 DENSITY ALT 500FT

CYGK;2017-06-12 11:00;CYGK 121100Z 19007KT 15SM FEW076 BKN250 17/15 A2996 RMK ACC2CI3 SLP147 DENSITY ALT 600FT

CYGK;2017-06-12 12:00;CYGK 121200Z 18005KT 15SM FEW080 FEW160 BKN250 17/15 A2996 RMK ACC1AC1CI5 AC TR SLP147 DENSITY ALT 600FT

CYGK;2017-06-12 13:00;CYGK 121300Z 18007KT 15SM FEW080 BKN250 18/15 A2994 RMK ACC1CI5 SLP140 DENSITY ALT 800FT

CYGK;2017-06-12 14:00;CYGK 121400Z 19005KT 160V250 15SM FEW075 BKN220 22/17 A2994 RMK AC1CI6 SLP139 DENSITY ALT 1300FT

CYGK;2017-06-12 15:00;CYGK 121500Z 22009KT 15SM FEW080 BKN220 25/19 A2992 RMK AC1CI6 SLP133 DENSITY ALT 1600FT

CYGK;2017-06-12 16:00;CYGK 121600Z 24008KT 15SM FEW150 BKN220 25/18 A2992 RMK AC1CI6 SLP134 DENSITY ALT 1600FT

CYGK;2017-06-12 17:00;CYGK 121700Z 24015KT 12SM FEW150 BKN250 25/18 A2992 RMK AC2CI5 SLP133 DENSITY ALT 1600FT

CYGK;2017-06-12 18:00;CYGK 121800Z 23012G18KT 12SM BKN250 26/18 A2992 RMK CI7 SLP132 DENSITY ALT 1600FT

CYGK;2017-06-12 19:00;CYGK 121900Z 23014G20KT 15SM BKN200 27/18 A2990 RMK CI6 SLP126 DENSITY ALT 1800FT

CYGK;2017-06-12 20:00;CYGK 122000Z 23014KT 12SM FEW040 FEW180 BKN250 27/18 A2990 RMK CU1AC1CI5 CU TR SLP126 DENSITY ALT 1800FT

CYGK;2017-06-12 21:00;CYGK 122100Z 23013G19KT 15SM FEW040 BKN230 27/17 A2989 RMK CU1CI6 CU TR SLP123 DENSITY ALT 1800FT

CYGK;2017-06-12 22:00;CYGK 122200Z 19011KT 15SM BKN230 24/17 A2989 RMK CI7 SLP121 DENSITY ALT 1500FT

CYGK;2017-06-12 23:00;CYGK 122300Z 18006KT 15SM BKN210 21/17 A2989 RMK CI6 SLP122 DENSITY ALT 1200FT

CYGK;2017-06-13 00:00;CYGK 130000Z 21004KT 15SM BKN210 23/17 A2987 RMK CI5 SLP117 DENSITY ALT 1400FT

CYGK;2017-06-13 01:00;CYGK 130100Z 23004KT 15SM FEW120 SCT210 21/17 A2987 RMK AC1CI4 AC TR SLP115 DENSITY ALT 1200FT

CYGK;2017-06-13 02:00;CYGK 130200Z 23006KT 15SM FEW120 SCT210 21/16 A2987 RMK AC1CI3 AC TR SLP116 DENSITY ALT 1200FT

CYGK;2017-06-13 03:00;CYGK 130300Z 23004KT 15SM FEW070 FEW120 SCT210 20/16 A2987 RMK AC1AC1CI2 AC TR LAST STFD OBS/NEXT 131000 UTC SLP115 DENSITY ALT 1100FT

CYGK;2017-06-13 10:00;CYGK 131000Z 21003KT 180V260 10SM FEW040 SCT065 BKN250 18/16 A2990 RMK CU2SC2CI3 TCU TOPS DIST SW SLP125 DENSITY ALT 700FT

CYGK;2017-06-13 11:00;CYGK 131100Z 35003KT 10SM FEW040TCU SCT060 BKN250 21/19 A2990 RMK TCU1SC2CI4 TCU S SLP127 DENSITY ALT 1100FT

CYGK;2017-06-13 12:00;CYGK 131200Z 33005KT 290V010 12SM FEW065 SCT180 BKN250 23/19 A2992 RMK SC2AC2CI3 PRESRR SLP134 DENSITY ALT 1300FT

CYGK;2017-06-13 13:00;CYGK 131300Z 04008KT 340V060 15SM FEW065 SCT120 BKN180 OVC220 24/20 A2992 RMK SC1AC3AC1CI3 ACC ASOCTD SLP133 DENSITY ALT 1500FT

CYGK;2017-06-13 14:00;CYGK 131400Z 00000KT 15SM FEW020 SCT140 BKN250 24/20 A2992 RMK SC2AC2CI3 SLP134 DENSITY ALT 1500FT

CYGK;2017-06-13 15:00;CYGK 131500Z 25004KT 15SM BKN025 BKN070 BKN140 OVC220 24/19 A2995 RMK CU5AC1AC1CI1 SLP142 DENSITY ALT 1400FT

CYGK;2017-06-13 16:00;CYGK 131600Z 36006KT 300V010 15SM FEW030 BKN038 BKN160 26/20 A2995 RMK CF1CU5AC1 SLP144 DENSITY ALT 1600FT

CYGK;2017-06-13 16:49;CYGK 131649Z 01011KT 15SM -SHRA BKN028 BKN120 OVC200 24/18 A2995 RMK CU5AC2CI1 SLP141 DENSITY ALT 1400FT

CYGK;2017-06-13 17:00;CYGK 131700Z 01010KT 15SM -SHRA SCT027 BKN120 OVC200 23/18 A2996 RMK CU4AC3CI1 SLP145 DENSITY ALT 1300FT

CYGK;2017-06-13 17:22;CYGK 131722Z 34011G18KT 15SM SCT030TCU BKN130 OVC200 22/16 A2997 RMK TCU3AC4CI1 TCU SW SLP150 DENSITY ALT 1200FT

CYGK;2017-06-13 17:23;CYGK 131723Z 34012G18KT 15SM -SHRA SCT030TCU BKN120 OVC200 22/16 A2997 RMK TCU3AC4CI1 SLP150 DENSITY ALT 1200FT

CYGK;2017-06-13 18:00;CYGK 131800Z 36010KT 15SM FEW030TCU BKN058 OVC120 21/16 A2997 RMK TCU2SC4AC2 SLP150 DENSITY ALT 1100FT

CYGK;2017-06-13 19:00;CYGK 131900Z 36010KT 15SM FEW030TCU BKN063 BKN140 24/16 A2996 RMK TCU1SC4AC2 SLP146 DENSITY ALT 1400FT

CYGK;2017-06-13 20:00;CYGK 132000Z 36007KT 15SM -SHRA FEW040 BKN130 OVC200 21/14 A2997 RMK CU2AC5CI1 SLP149 DENSITY ALT 1100FT

CYGK;2017-06-13 20:41;CYGK 132041Z 01009KT 15SM FEW040 BKN140 OVC200 22/13 A2997 RMK CU1AC5CI2 SLP149 DENSITY ALT 1200FT

CYGK;2017-06-13 21:00;CYGK 132100Z 36006KT 15SM FEW040 BKN140 OVC200 22/14 A2996 RMK CU1AC6CI2 CU TR SLP146 DENSITY ALT 1200FT

CYGK;2017-06-13 22:00;CYGK 132200Z 03009KT 15SM FEW160 BKN220 24/12 A2996 RMK AC2CI4 SLP147 DENSITY ALT 1400FT

CYGK;2017-06-13 23:00;CYGK 132300Z 04004KT 350V060 15SM FEW160 BKN220 24/13 A2996 RMK AC1CI5 SLP147 DENSITY ALT 1400FT

CYGK;2017-06-14 00:00;CYGK 140000Z 01008G15KT 15SM FEW040TCU BKN220 21/09 A2999 RMK TCU1CI6 TCU TR TCU DIST S SLP155 DENSITY ALT 1000FT

CYGK;2017-06-14 01:00;CYGK 140100Z 00000KT 15SM BKN220 19/09 A2999 RMK CI5 SLP158 DENSITY ALT 800FT

CYGK;2017-06-14 02:00;CYGK 140200Z 00000KT 15SM SCT220 16/10 A3001 RMK CI4 SLP163 DENSITY ALT 400FT

CYGK;2017-06-14 03:00;CYGK 140300Z 34003KT 15SM SCT220 15/11 A3001 RMK CI3 LAST STFD OBS/NEXT 141000 UTC SLP165

CYGK;2017-06-14 10:00;CYGK 141000Z 02009G15KT 15SM SCT250 14/06 A3009 RMK CI4 SLP190

CYGK;2017-06-14 11:00;CYGK 141100Z 03008KT 15SM SCT240 15/06 A3010 RMK CI4 SLP196

CYGK;2017-06-14 12:00;CYGK 141200Z 02010G16KT 15SM SCT240 16/06 A3014 RMK CI4 SLP207

CYGK;2017-06-14 13:00;CYGK 141300Z 03012G18KT 15SM SCT240 17/05 A3012 RMK CI4 SLP203 DENSITY ALT 400FT

CYGK;2017-06-14 14:00;CYGK 141400Z 03009G16KT 010V070 15SM SCT240 18/04 A3012 RMK CI4 SLP202 DENSITY ALT 500FT

CYGK;2017-06-14 15:00;CYGK 141500Z 07010KT 030V090 15SM FEW050 BKN240 19/04 A3012 RMK CF1CI5 CF TR SLP203 DENSITY ALT 600FT

CYGK;2017-06-14 16:00;CYGK 141600Z 06008KT 320V080 15SM SCT250 20/04 A3011 RMK CI3 SLP199 DENSITY ALT 800FT

CYGK;2017-06-14 17:00;CYGK 141700Z 09004KT 15SM SCT250 22/04 A3010 RMK CI4 SLP194 DENSITY ALT 1000FT

CYGK;2017-06-14 18:00;CYGK 141800Z 36008KT 310V070 15SM FEW170 BKN250 22/03 A3009 RMK AC2CI3 SLP190 DENSITY ALT 1000FT

CYGK;2017-06-14 19:00;CYGK 141900Z 15004KT 15SM FEW150 BKN270 21/05 A3009 RMK AC1CI6 SLP190 DENSITY ALT 1000FT

CYGK;2017-06-14 20:00;CYGK 142000Z 18007KT 15SM FEW170 BKN250 20/06 A3008 RMK AC1CI6 AC TR SLP187 DENSITY ALT 900FT

CYGK;2017-06-14 21:00;CYGK 142100Z 22006KT 15SM FEW170 BKN270 20/07 A3007 RMK AC1CI6 SLP186 DENSITY ALT 800FT

CYGK;2017-06-14 22:00;CYGK 142200Z 19005KT 15SM FEW130 BKN270 19/07 A3006 RMK AC2CI4 SLP180 DENSITY ALT 800FT

CYGK;2017-06-14 23:00;CYGK 142300Z 17006KT 15SM SCT140 BKN270 19/08 A3003 RMK AC3CI3 SLP173 DENSITY ALT 800FT

CYGK;2017-06-15 00:00;CYGK 150000Z 04007KT 15SM FEW140 SCT270 21/05 A3003 RMK AC1CI2 SLP171 DENSITY ALT 1000FT

CYGK;2017-06-15 01:00;CYGK 150100Z 05004KT 15SM FEW140 FEW270 19/04 A3003 RMK AC1CI1 SLP171 DENSITY ALT 800FT

CYGK;2017-06-15 02:00;CYGK 150200Z 03003KT 15SM FEW140 18/05 A3005 RMK AC1 SLP177 DENSITY ALT 600FT

CYGK;2017-06-15 03:00;CYGK 150300Z 02003KT 15SM FEW140 14/06 A3006 RMK AC1 LAST STFD OBS / NEXT 151000 UTC SLP181

CYGK;2017-06-15 10:00;CYGK 151000Z 05006KT 15SM FEW120 BKN250 13/07 A3000 RMK AC1CI4 SLP160

CYGK;2017-06-15 11:00;CYGK 151100Z 06008KT 15SM FEW120 SCT250 14/08 A2999 RMK AC1CI4 AC TR SLP159

CYGK;2017-06-15 12:00;CYGK 151200Z 04007KT 15SM FEW120 SCT250 15/09 A2998 RMK AC1CI3 AC TR SLP154 DENSITY ALT 400FT

CYGK;2017-06-15 13:00;CYGK 151300Z 06006KT 15SM FEW120 BKN250 18/10 A2998 RMK AC1CI4 SLP152 DENSITY ALT 700FT

CYGK;2017-06-15 14:00;CYGK 151400Z 06007KT 030V090 15SM FEW120 SCT190 BKN250 20/10 A2997 RMK AC1AC3CI3 SLP150 DENSITY ALT 900FT

CYGK;2017-06-15 15:00;CYGK 151500Z 07008KT 040V100 15SM FEW120 SCT190 BKN250 21/10 A2995 RMK AC1AC2CI3 SLP144 DENSITY ALT 1100FT

CYGK;2017-06-15 16:00;CYGK 151600Z 06008KT 15SM FEW085 BKN150 23/09 A2993 RMK AC2AC5 SLP136 DENSITY ALT 1300FT

CYGK;2017-06-15 17:00;CYGK 151700Z 07010KT 15SM FEW040 BKN080 OVC140 22/10 A2992 RMK CF1AC5AS2 ACC ASOCTD SLP132 DENSITY ALT 1300FT

CYGK;2017-06-15 17:55;CYGK 151755Z 07003KT 020V100 15SM -RA BKN085 OVC110 22/11 A2992 RMK AC5AC3 VIS LOWER W SLP135 DENSITY ALT 1300FT

CYGK;2017-06-15 18:00;CYGK 151800Z 06004KT 040V100 15SM -RA BKN085 OVC110 22/12 A2992 RMK AC6AC2 VIS LWR W SLP134 DENSITY ALT 1300FT

CYGK;2017-06-15 19:00;CYGK 151900Z 14004KT 15SM -RA FEW050 FEW085 BKN120 OVC220 20/14 A2989 RMK SC1AC1AC5CI1 SLP125 DENSITY ALT 1000FT

CYGK;2017-06-15 20:00;CYGK 152000Z 07004KT 15SM -RA FEW030 BKN064 OVC082 21/16 A2988 RMK CU1SC5AC2 SLP119 DENSITY ALT 1100FT

CYGK;2017-06-15 21:00;CYGK 152100Z 05006KT 15SM -RA BKN034 OVC060 20/15 A2986 RMK SC6SC2 SLP115 DENSITY ALT 1100FT

CYGK;2017-06-15 21:17;CYGK 152117Z 05006KT 15SM BKN028 OVC060 21/16 A2985 RMK SC7SC1 SLP111 DENSITY ALT 1200FT

CYGK;2017-06-15 22:00;CYGK 152200Z 05008KT 15SM SCT025 BKN040 OVC120 21/15 A2984 RMK SC3SC3AC2 SLP106 DENSITY ALT 1200FT

CYGK;2017-06-15 23:00;CYGK 152300Z 06007KT 15SM BKN020 BKN030 OVC080 20/15 A2984 RMK SC5SC1AC2 SLP106 DENSITY ALT 1100FT

CYGK;2017-06-16 00:00;CYGK 160000Z 07010KT 15SM -SHRA BKN020 OVC080 20/15 A2982 RMK SC7AC1 CVCTV CLD EMBD VIS LWR SW-NW SLP101 DENSITY ALT 1100FT

CYGK;2017-06-16 01:00;CYGK 160100Z 09004KT 12SM -SHRA BKN019 OVC040 19/17 A2981 RMK SC6SC2 TCU EMBD VIS SE 4 SLP098 DENSITY ALT 1000FT

CYGK;2017-06-16 01:20;CYGK 160120Z 06003KT 15SM OVC019 18/17 A2981 RMK SC8 SLP097 DENSITY ALT 900FT

CYGK;2017-06-16 01:36;CYGK 160136Z 08003KT 8SM -SHRA OVC013 18/17 A2981 RMK SC8 CVCTV CLD EMBD SLP098 DENSITY ALT 900FT

CYGK;2017-06-16 01:46;CYGK 160146Z 09005KT 10SM BKN007 OVC014 18/17 A2981 RMK SF5SC3 OCNL -SHRA SLP098 DENSITY ALT 900FT

CYGK;2017-06-16 02:00;CYGK 160200Z 12006KT 10SM -SHRA SCT007 OVC011 19/18 A2981 RMK SF4SC4 CVCTV CLD EMBD SLP097 DENSITY ALT 1000FT

CYGK;2017-06-16 02:37;CYGK 160237Z 15008KT 6SM BR FEW007 SCT010 OVC013 19/18 A2981 RMK SF2SC2SC4 SLP094 DENSITY ALT 1000FT

CYGK;2017-06-16 03:00;CYGK 160300Z 16008KT 8SM -SHRA SCT012 BKN024 OVC095 18/17 A2981 RMK SF3SC4AC1 CVCTV CLD EMBD LAST STFD OBS/NEXT 161000 UTC SLP094 DENSITY ALT 900FT

CYGK;2017-06-16 10:00;CYGK 161000Z 20006KT 1/8SM FG VV001 16/16 A2982 RMK FG8 SLP098 DENSITY ALT 700FT

CYGK;2017-06-16 11:00;CYGK 161100Z 18007KT 1/8SM FG VV001 16/16 A2983 RMK FG8 SLP104 DENSITY ALT 600FT

CYGK;2017-06-16 11:49;CYGK 161149Z 17008KT 3/8SM FG OVC004 16/16 A2984 RMK FG7SF1 SLP105 DENSITY ALT 600FT

CYGK;2017-06-16 11:53;CYGK 161153Z 18007KT 1/2SM FG OVC004 16/16 A2984 RMK FG7SF1 SLP105 DENSITY ALT 600FT

CYGK;2017-06-16 12:00;CYGK 161200Z 17007KT 1SM BR OVC002 16/16 A2984 RMK FG4ST4 SLP106 DENSITY ALT 600FT

CYGK;2017-06-16 12:09;CYGK 161209Z 17007KT 3/4SM BR OVC002 16/16 A2984 RMK FG6ST2 SLP106 DENSITY ALT 600FT

CYGK;2017-06-16 12:15;CYGK 161215Z 17006KT 1/2SM FG VV002 16/16 A2984 RMK FG8 SLP105 DENSITY ALT 600FT

CYGK;2017-06-16 12:22;CYGK 161222Z 16006KT 1 1/2SM BR BKN002 OVC015 16/16 A2983 RMK FG2SF5SC1 VIS S-SE 4 SW-W 1/2 SLP104 DENSITY ALT 700FT

CYGK;2017-06-16 12:26;CYGK 161226Z 18007KT 4SM BR SCT002 OVC015 16/16 A2984 RMK FG1SF3SC4 VIS SW 3/4 SLP105 DENSITY ALT 700FT

CYGK;2017-06-16 13:00;CYGK 161300Z 16005KT 12SM FEW002 OVC018 16/16 A2984 RMK SF1SC7 SLP108 DENSITY ALT 700FT

CYGK;2017-06-16 14:00;CYGK 161400Z 20003KT 150V230 15SM FEW002 OVC017 17/15 A2985 RMK SF1SC8 SF TR SLP110 DENSITY ALT 700FT

CYGK;2017-06-16 14:11;CYGK 161411Z 22003KT 180V270 15SM -RA FEW002 OVC018 16/15 A2986 RMK SF1SC8 SF TR SLP112 DENSITY ALT 700FT

CYGK;2017-06-16 14:27;CYGK 161427Z 22002KT 15SM FEW002 OVC018 17/15 A2985 RMK SF1SC8 SF TR SLP111 DENSITY ALT 700FT

CYGK;2017-06-16 15:00;CYGK 161500Z 18009G16KT 150V220 15SM FEW005 OVC018 17/15 A2985 RMK SF1SC8 SF TR SLP109 DENSITY ALT 700FT

CYGK;2017-06-16 16:00;CYGK 161600Z 16013G18KT 15SM FEW005 OVC017 18/15 A2984 RMK SF1SC8 SF TR SLP107 DENSITY ALT 800FT

CYGK;2017-06-16 17:00;CYGK 161700Z 17014G20KT 15SM BKN018 19/16 A2984 RMK SC7 SLP106 DENSITY ALT 900FT

CYGK;2017-06-16 18:00;CYGK 161800Z 17008KT 15SM BKN018 BKN025 20/16 A2983 RMK SC5SC2 SLP103 DENSITY ALT 1000FT

CYGK;2017-06-16 19:00;CYGK 161900Z 17008KT 15SM FEW019 SCT050 SCT150 BKN220 20/17 A2982 RMK SC1CU2AC1CI1 SLP101 DENSITY ALT 1100FT

CYGK;2017-06-16 20:00;CYGK 162000Z 16009KT 15SM FEW020 BKN024 19/17 A2982 RMK SC1SC6 SLP101 DENSITY ALT 1000FT

CYGK;2017-06-16 21:00;CYGK 162100Z 16008KT 15SM BKN026 21/17 A2981 RMK SC7 CU EMBD SLP097 DENSITY ALT 1200FT

CYGK;2017-06-16 22:00;CYGK 162200Z 16008KT 15SM BKN027 BKN220 22/18 A2981 RMK SC5CI1 CB DIST S SLP095 DENSITY ALT 1400FT

CYGK;2017-06-16 23:00;CYGK 162300Z CCA 16005KT 15SM FEW030TCU FEW120 SCT220 21/18 A2981 RMK TCU2AC1CI1 AC TR SLP095 DENSITY ALT 1200FT

CYGK;2017-06-17 00:00;CYGK 170000Z 16007KT 15SM FEW030TCU FEW120 SCT220 19/17 A2980 RMK TCU1AC1CI3 AC TR SLP093 DENSITY ALT 1100FT

CYGK;2017-06-17 01:00;CYGK 170100Z 15009KT 15SM FEW030CB FEW120 SCT250 19/17 A2981 RMK CB1AC1CI2 AC TR CB DIST N SLP096 DENSITY ALT 1000FT

CYGK;2017-06-17 02:00;CYGK 170200Z 15005KT 15SM FEW120 SCT250 18/17 A2984 RMK AC1CI2 SLP105 DENSITY ALT 900FT

CYGK;2017-06-17 03:00;CYGK 170300Z 13003KT 090V170 15SM FEW250 18/16 A2984 RMK CI2 LAST STFD OBS/NEXT 171000 UTC SLP106 DENSITY ALT 800FT

CYGK;2017-06-17 10:00;CYGK 171000Z 19006KT 12SM FEW080 BKN120 BKN230 17/16 A2983 RMK AC1AC4CI1 SLP102 DENSITY ALT 800FT

CYGK;2017-06-17 11:00;CYGK 171100Z 20005KT 12SM FEW100 BKN130 BKN230 17/17 A2985 RMK AC2AC4CI1 SLP110 DENSITY ALT 800FT

CYGK;2017-06-17 12:00;CYGK 171200Z 18007KT 12SM SCT100 BKN130 BKN230 18/17 A2985 RMK AC3AC3CI1 SLP109 DENSITY ALT 800FT

CYGK;2017-06-17 13:00;CYGK 171300Z 16006KT 12SM SCT095 BKN110 18/17 A2985 RMK AC3AC4 SLP110 DENSITY ALT 900FT

CYGK;2017-06-17 14:00;CYGK 171400Z 16006KT 12SM SCT090 BKN130 19/18 A2983 RMK AC3AC3 SLP103 DENSITY ALT 1000FT

CYGK;2017-06-17 15:00;CYGK 171500Z 17007KT 12SM FEW040TCU BKN090 BKN140 20/18 A2984 RMK TCU1AC4AC2 SLP107 DENSITY ALT 1100FT

CYGK;2017-06-17 16:00;CYGK 171600Z 19007KT 12SM FEW040TCU SCT100 BKN140 22/19 A2983 RMK TCU1AC3AC2 SLP103 DENSITY ALT 1300FT

CYGK;2017-06-17 17:00;CYGK 171700Z 17007KT 12SM FEW015 FEW040TCU SCT090 BKN220 22/19 A2981 RMK CF1TCU1AC2CI4 CF TR SLP097 DENSITY ALT 1400FT

CYGK;2017-06-17 18:00;CYGK 171800Z 18007KT 15SM FEW040TCU FEW120 BKN220 24/19 A2980 RMK TCU1AC2CI5 TCU TR SLP091 DENSITY ALT 1700FT

CYGK;2017-06-17 19:00;CYGK 171900Z 19008KT 15SM FEW030TCU FEW120 BKN250 26/19 A2978 RMK TCU1AC2CI3 TCU TR SLP087 DENSITY ALT 1800FT

CYGK;2017-06-17 20:00;CYGK 172000Z 18007KT 12SM FEW030TCU FEW120 BKN220 26/20 A2978 RMK TCU1AC1CI3 SLP086 DENSITY ALT 1900FT

CYGK;2017-06-17 21:00;CYGK 172100Z 19006KT 15SM FEW030CB BKN140 BKN250 25/19 A2977 RMK CB1AC6CI1 CB TR CB DIST E SLP082 DENSITY ALT 1800FT

CYGK;2017-06-17 22:00;CYGK 172200Z 16005KT 15SM FEW030TCU SCT140 BKN200 24/19 A2975 RMK TCU1AC4CS3 TCU TR SLP075 DENSITY ALT 1600FT

CYGK;2017-06-17 23:00;CYGK 172300Z 16005KT 15SM BKN190 24/19 A2973 RMK AC7 SLP070 DENSITY ALT 1700FT

CYGK;2017-06-18 00:00;CYGK 180000Z 18004KT 15SM BKN150 BKN220 22/19 A2973 RMK AC5CI2 SLP068 DENSITY ALT 1500FT

CYGK;2017-06-18 01:00;CYGK 180100Z 18008KT 15SM SCT140 BKN250 22/18 A2972 RMK AC4CI2 SLP066 DENSITY ALT 1500FT

CYGK;2017-06-18 02:00;CYGK 180200Z 17006KT 15SM SCT170 BKN250 20/18 A2973 RMK AC3CI2 SLP070 DENSITY ALT 1300FT

CYGK;2017-06-18 03:00;CYGK 180300Z 17007KT 15SM SCT250 19/17 A2973 RMK CI3 LAST STFD OBS / NEXT 181000 UTC SLP070 DENSITY ALT 1100FT

CYGK;2017-06-18 10:00;CYGK 181000Z 17011G16KT 12SM SCT060 BKN200 19/18 A2969 RMK SC3CI3 SLP054 DENSITY ALT 1200FT

CYGK;2017-06-18 11:00;CYGK 181100Z 16014KT 12SM FEW060 SCT200 20/18 A2968 RMK SC1CI2 SLP052 DENSITY ALT 1200FT

CYGK;2017-06-18 12:00;CYGK 181200Z 16012G19KT 12SM FEW025 FEW200 20/19 A2969 RMK CU1CI2 CU TR SLP053 DENSITY ALT 1300FT

CYGK;2017-06-18 13:00;CYGK 181300Z 18011G20KT 10SM FEW025 FEW160 FEW200 21/19 A2967 RMK CU1AC1CI1 CU TR SLP048 DENSITY ALT 1300FT

CYGK;2017-06-18 14:00;CYGK 181400Z 17012G21KT 12SM FEW025 FEW160 FEW200 22/19 A2966 RMK CU1AC1CI1 CU TR SLP045 DENSITY ALT 1600FT

CYGK;2017-06-18 15:00;CYGK 181500Z 17011G18KT 10SM FEW030 FEW050 SCT160 SCT200 22/19 A2964 RMK CU1SC1AC1CI1 SLP039 DENSITY ALT 1600FT

CYGK;2017-06-18 16:00;CYGK 181600Z 18012G18KT 12SM FEW030 FEW050 SCT110 BKN200 21/19 A2962 RMK CU1SC1AC3CI2 CU TR SLP032 DENSITY ALT 1400FT

CYGK;2017-06-18 16:36;CYGK 181636Z 18011G16KT 8SM -SHRA SCT050 BKN090 20/19 A2962 RMK CU3AC4 SLP031 DENSITY ALT 1400FT

CYGK;2017-06-18 17:00;CYGK 181700Z 17010KT 12SM SCT050 BKN090 BKN200 21/19 A2961 RMK SC3AC3CI1 SLP028 DENSITY ALT 1500FT

CYGK;2017-06-18 18:00;CYGK 181800Z 19016KT 12SM FEW048TCU SCT140 SCT220 24/20 A2961 RMK TCU1AC2CI1 SLP026 DENSITY ALT 1800FT

CYGK;2017-06-18 19:00;CYGK 181900Z 19013KT 15SM FEW030TCU BKN140 BKN250 22/19 A2958 RMK TCU1AC4CI1 CB TOP DIST S SLP019 DENSITY ALT 1700FT

CYGK;2017-06-18 20:00;CYGK 182000Z 19011KT 12SM FEW030CB BKN100 BKN140 23/19 A2957 RMK CB1AC4AC2 CB LINE SE-S SLP015 DENSITY ALT 1700FT

CYGK;2017-06-18 20:28;CYGK 182028Z 19013G20KT 15SM -SHRA FEW030CB BKN100 BKN250 21/18 A2958 RMK CB2AC4CI1 CB SE-S PRESRR SLP019 DENSITY ALT 1500FT

CYGK;2017-06-18 21:00;CYGK 182100Z 21017G26KT 15SM -SHRA FEW040CB BKN100 BKN160 BKN250 23/19 A2958 RMK CB1AC4AC1CI1 SLP017 DENSITY ALT 1800FT

CYGK;2017-06-18 21:17;CYGK 182117Z 20018G24KT 15SM FEW040TCU BKN100 BKN160 BKN250 23/19 A2958 RMK TCU2AC3AC1CI1 SH S SLP017 DENSITY ALT 1700FT

CYGK;2017-06-18 22:00;CYGK 182200Z 20014G19KT 15SM SCT040TCU BKN070 BKN120 OVC250 22/18 A2957 RMK TCU4AC2AC1CI1 SLP013 DENSITY ALT 1600FT

CYGK;2017-06-18 23:02;CYGK 182302Z 21011KT 15SM -TSRA SCT037CB BKN130 BKN230 23/19 A2958 RMK CB4AC2CI1 PRESRR SLP019 DENSITY ALT 1700FT

CYGK;2017-06-18 23:35;CYGK 182335Z 21013G20KT 15SM -SHRA BKN037TCU BKN140 BKN240 21/20 A2958 RMK TCU5AC1CI1 SLP016 DENSITY ALT 1500FT

CYGK;2017-06-19 00:00;CYGK 190000Z 22009G18KT 15SM SCT040TCU BKN150 BKN250 20/19 A2958 RMK TCU3AC3CI1 SH SE SLP017 DENSITY ALT 1300FT

CYGK;2017-06-19 01:00;CYGK 190100Z 21010G18KT 15SM FEW025 BKN140 BKN250 19/18 A2962 RMK SC1AC4CI2 PRESRR SLP030 DENSITY ALT 1200FT

CYGK;2017-06-19 02:00;CYGK 190200Z 21006KT 15SM SCT025 BKN045 BKN160 18/18 A2964 RMK SC3SC3AC1 SLP036 DENSITY ALT 1100FT

CYGK;2017-06-19 03:00;CYGK 190300Z 21003KT 150V290 15SM BKN130 18/18 A2964 RMK AC7 LAST STFD OBS / NEXT 191000 UTC SLP036 DENSITY ALT 1100FT

CYGK;2017-06-19 10:00;CYGK 191000Z 20005KT 12SM SCT058 BKN130 BKN200 18/17 A2970 RMK SC4AC2CI1 SLP057 DENSITY ALT 1000FT

CYGK;2017-06-19 11:00;CYGK 191100Z 19005KT 12SM FEW002 SCT060 BKN120 18/18 A2972 RMK SF1SC4AC2 SF TR SLP066 DENSITY ALT 1000FT

CYGK;2017-06-19 12:00;CYGK 191200Z 24007KT 12SM FEW002 SCT060 BKN120 BKN180 20/18 A2973 RMK SF1SC3AC2CI2 SF TR SLP068 DENSITY ALT 1200FT

CYGK;2017-06-19 13:00;CYGK 191300Z 21005KT 15SM -SHRA FEW005 BKN120 BKN180 20/19 A2973 RMK SF1AC5AC2 SF TR SLP069 DENSITY ALT 1200FT

CYGK;2017-06-19 14:00;CYGK 191400Z 18006KT 12SM FEW010 FEW060 BKN130 BKN220 20/19 A2972 RMK CU1SC1AC3CI1 SLP066 DENSITY ALT 1200FT

CYGK;2017-06-19 15:00;CYGK 191500Z 19011KT 15SM FEW025 SCT140 BKN240 20/18 A2973 RMK CU1AC3CI2 SLP070 DENSITY ALT 1200FT

CYGK;2017-06-19 16:00;CYGK 191600Z 19010KT 12SM FEW025 SCT130 BKN200 20/18 A2974 RMK CU1AC2CI3 SLP072 DENSITY ALT 1200FT

CYGK;2017-06-19 17:00;CYGK 191700Z 22007KT 15SM FEW030 BKN170 21/18 A2974 RMK CU1AC6 SLP073 DENSITY ALT 1300FT

CYGK;2017-06-19 18:00;CYGK 191800Z 22008KT 15SM FEW030 FEW120 SCT170 BKN220 22/17 A2974 RMK CU1AC1AC2CI2 SLP071 DENSITY ALT 1500FT

CYGK;2017-06-19 19:00;CYGK 191900Z 23008KT 15SM FEW030TCU SCT150 BKN270 23/16 A2971 RMK TCU1AC2CI4 VIRGA SE TCU TOPS NW - NE SLP061 DENSITY ALT 1600FT

CYGK;2017-06-19 20:00;CYGK 192000Z 19012KT 15SM FEW030TCU SCT160 BKN240 21/16 A2970 RMK TCU1AC2CI3 SLP058 DENSITY ALT 1400FT

CYGK;2017-06-19 21:00;CYGK 192100Z 19011KT 15SM FEW030 SCT140 BKN270 20/16 A2970 RMK CU2AC2CI2 SLP057 DENSITY ALT 1300FT

CYGK;2017-06-19 22:00;CYGK 192200Z 20014KT 15SM FEW030 BKN140 BKN270 21/15 A2970 RMK CU2AC3CI1 SLP058 DENSITY ALT 1400FT

CYGK;2017-06-19 23:00;CYGK 192300Z 19012KT 15SM FEW030 BKN120 BKN270 20/15 A2970 RMK CU1AC5CI1 SLP059 DENSITY ALT 1200FT

CYGK;2017-06-20 00:00;CYGK 200000Z 16007KT 15SM FEW030 BKN120 BKN270 19/15 A2971 RMK CU1AC5CI1 SLP063 DENSITY ALT 1100FT

CYGK;2017-06-20 01:00;CYGK 200100Z 00000KT 15SM VCSH FEW030 BKN110 18/16 A2972 RMK CU1AC6 SLP064 DENSITY ALT 1000FT

CYGK;2017-06-20 02:00;CYGK 200200Z 21009KT 15SM FEW030 BKN110 19/17 A2974 RMK CU1AC6 SLP072 DENSITY ALT 1000FT

CYGK;2017-06-20 03:00;CYGK 200300Z 21010G15KT 15SM SCT060 BKN140 18/17 A2975 RMK SC3AC3 LAST STFD OBS / NEXT 201000 UTC SLP074 DENSITY ALT 1000FT

CYGK;2017-06-20 10:00;CYGK 201000Z 23004KT 15SM SCT010 BKN025 BKN097 17/16 A2974 RMK CF3SC2AC2 SLP071 DENSITY ALT 900FT

CYGK;2017-06-20 10:20;CYGK 201020Z 24005KT 15SM BKN010 BKN022 OVC090 17/16 A2975 RMK CF5SC1AC2 SLP076 DENSITY ALT 900FT

CYGK;2017-06-20 10:47;CYGK 201047Z 26005KT 15SM SCT009 BKN021 OVC080 17/16 A2976 RMK CF4SC2AC2 SLP078 DENSITY ALT 900FT

CYGK;2017-06-20 10:51;CYGK 201051Z 25005KT 15SM -SHRA SCT008 BKN020 OVC080 17/16 A2975 RMK CF4SC1AC3 SLP077 DENSITY ALT 900FT

CYGK;2017-06-20 11:00;CYGK 201100Z 25004KT 15SM -SHRA BKN008 BKN020 OVC080 17/16 A2975 RMK CF5SC1AC2 SLP077 DENSITY ALT 800FT

CYGK;2017-06-20 11:11;CYGK 201111Z 25004KT 12SM -SHRA SCT008 BKN020 OVC080 17/16 A2975 RMK CF4SC2AC2 SLP077 DENSITY ALT 900FT

CYGK;2017-06-20 11:35;CYGK 201135Z 21008KT 12SM -SHRA BKN008 BKN020 OVC080 17/17 A2976 RMK CF6SC1AC1 SLP080 DENSITY ALT 800FT

CYGK;2017-06-20 11:52;CYGK 201152Z 21007KT 15SM SCT012 BKN020 OVC080 17/17 A2976 RMK CF4SC1AC3 SLP080 DENSITY ALT 900FT

CYGK;2017-06-20 12:05;CYGK 201205Z 23009KT 12SM -SHRA SCT012 BKN078 OVC100 17/17 A2977 RMK CU3AC4AC1 SLP083 DENSITY ALT 900FT

CYGK;2017-06-20 12:29;CYGK 201229Z 22010KT 12SM -SHRA BKN008 BKN060 OVC080 17/16 A2978 RMK SF6SC1AC1 CVCTV CLD EMBD SLP085 DENSITY ALT 800FT

CYGK;2017-06-20 12:54;CYGK 201254Z 22010KT 10SM -SHRA BKN005 BKN014 17/17 A2979 RMK SF5SC2 CVCTV CLD ASOCTD SLP088 DENSITY ALT 900FT

CYGK;2017-06-20 13:00;CYGK 201300Z 22010KT 10SM -SHRA BKN005 BKN014 17/17 A2979 RMK SF5SC2 CVCTV CLD EMBD SLP088 DENSITY ALT 900FT

CYGK;2017-06-20 13:19;CYGK 201319Z 24011G17KT 15SM FEW005 BKN012 BKN060 OVC120 18/17 A2979 RMK CF2CU3SC2AC1 SLP091 DENSITY ALT 900FT

CYGK;2017-06-20 14:00;CYGK 201400Z 23013G19KT 15SM SCT025TCU BKN060 BKN120 18/16 A2980 RMK TCU3SC2AC2 SLP093 DENSITY ALT 1000FT

CYGK;2017-06-20 14:33;CYGK 201433Z 24011G17KT 15SM -SHRA SCT025TCU BKN037 BKN140 19/16 A2980 RMK TCU3SC2AC2 SLP093 DENSITY ALT 1000FT

CYGK;2017-06-20 15:00;CYGK 201500Z 23010KT 15SM VCSH SCT025TCU BKN100 19/16 A2981 RMK TCU4AC2 SLP097 DENSITY ALT 1000FT

CYGK;2017-06-20 16:00;CYGK 201600Z 24012G17KT 15SM FEW030 SCT080 SCT150 SCT200 21/15 A2980 RMK CU2AC1AC1CI1 AC TR SLP093 DENSITY ALT 1200FT

CYGK;2017-06-20 17:00;CYGK 201700Z 23012G18KT 15SM VCSH SCT030TCU BKN080 BKN250 22/16 A2980 RMK TCU4AC1CI1 CI TR SLP092 DENSITY ALT 1400FT

CYGK;2017-06-20 17:47;CYGK 201747Z 23015G22KT 15SM TS VCSH BKN040CB BKN110 BKN140 21/15 A2981 RMK CB5AC1AC1 CB SW--NE MOVG E SLP094 DENSITY ALT 1300FT

CYGK;2017-06-20 17:54;CYGK 201754Z 25015G24KT 15SM -TSRA SCT030CB BKN090 BKN140 20/15 A2981 RMK CB3AC3AC1 CB ALQDS MOVG E PRESRR SLP096 DENSITY ALT 1100FT

CYGK;2017-06-20 18:00;CYGK 201800Z 24016G24KT 15SM -TSRA SCT030CB BKN090 BKN140 19/15 A2981 RMK CB4AC2AC1 CB ALQDS MOVG E SLP097 DENSITY ALT 1000FT

CYGK;2017-06-20 18:10;CYGK 201810Z 24014G22KT 15SM FEW030CB SCT060 BKN100 19/16 A2981 RMK CB2SC2AC2 CB NE-E DIST S SLP098 DENSITY ALT 1000FT

CYGK;2017-06-20 19:00;CYGK 201900Z 24014G20KT 15SM FEW030 FEW060 BKN100 BKN220 21/15 A2981 RMK CU2SC1AC3CI1 SC TR CI TR CB TOP DIST NW SLP096 DENSITY ALT 1200FT

CYGK;2017-06-20 20:00;CYGK 202000Z 24014KT 15SM FEW044TCU SCT100 BKN220 21/14 A2981 RMK TCU2AC2CI1 SLP095 DENSITY ALT 1300FT

CYGK;2017-06-20 21:00;CYGK 202100Z 23013G19KT 15SM FEW045 SCT100 BKN220 22/14 A2982 RMK CU2AC1CI2 SLP098 DENSITY ALT 1400FT

CYGK;2017-06-20 22:00;CYGK 202200Z 20014KT 15SM FEW042 SCT110 BKN220 20/16 A2982 RMK CU2AC2CI1 SLP100 DENSITY ALT 1100FT

CYGK;2017-06-20 23:00;CYGK 202300Z 22015KT 15SM VCSH FEW045 BKN100 BKN220 19/15 A2984 RMK CU2AC3CI1 SLP106 DENSITY ALT 1000FT

CYGK;2017-06-21 00:00;CYGK 210000Z 23011KT 15SM FEW040 FEW090 SCT180 SCT220 19/15 A2985 RMK CU1AC2AC1CI1 CU TR CI TR SLP109 DENSITY ALT 900FT

CYGK;2017-06-21 01:00;CYGK 210100Z 21008KT 15SM FEW040 FEW090 FEW180 SCT220 17/15 A2985 RMK CU1AC1AC1CI1 CU TR SLP110 DENSITY ALT 700FT

CYGK;2017-06-21 02:00;CYGK 210200Z 22008KT 15SM FEW100 FEW180 SCT220 17/15 A2986 RMK AC1AC1CI2 SLP113 DENSITY ALT 700FT

CYGK;2017-06-21 03:00;CYGK 210300Z 24011KT 15SM SCT050 BKN110 17/14 A2987 RMK SC3AC2 LAST STFD OBS/NEXT 211000 UTC SLP117 DENSITY ALT 700FT

CYGK;2017-06-21 10:00;CYGK 211000Z 24011KT 15SM FEW010 FEW050 FEW200 15/13 A2987 RMK CF1SC1CI1 SC TR CI TR SLP117 DENSITY ALT 400FT

CYGK;2017-06-21 11:00;CYGK 211100Z 25010G16KT 15SM FEW010 FEW050 SCT200 15/14 A2988 RMK CF2SC1CI1 SC TR SLP121 DENSITY ALT 500FT

CYGK;2017-06-21 11:23;CYGK 211123Z 25009G15KT 15SM BKN011 15/14 A2989 RMK CF5 SLP122 DENSITY ALT 500FT

CYGK;2017-06-21 12:00;CYGK 211200Z 26009KT 15SM BKN012 BKN200 16/13 A2989 RMK CF5CI1 CI TR SLP124 DENSITY ALT 500FT

CYGK;2017-06-21 12:13;CYGK 211213Z 26009G15KT 15SM SCT015 SCT140 SCT200 16/13 A2989 RMK CU4AC1CI1 AC TR CI TR SLP125 DENSITY ALT 600FT

CYGK;2017-06-21 13:00;CYGK 211300Z 24008G15KT 15SM BKN021 BKN140 BKN200 17/13 A2990 RMK CU5AC1CI1 AC TR CI TR SLP128 DENSITY ALT 700FT

CYGK;2017-06-21 14:00;CYGK 211400Z 23010G17KT 15SM FEW021 FEW200 18/14 A2990 RMK CU2CI1 CI TR SLP126 DENSITY ALT 800FT

CYGK;2017-06-21 15:00;CYGK 211500Z 24011KT 15SM BKN027 BKN140 17/13 A2991 RMK SC5AC1 AC TR SLP130 DENSITY ALT 700FT

CYGK;2017-06-21 16:00;CYGK 211600Z 23009KT 15SM FEW030 BKN044 BKN060 19/13 A2991 RMK CF2CU4SC1 SLP131 DENSITY ALT 900FT

CYGK;2017-06-21 17:00;CYGK 211700Z 23012KT 15SM SCT036 BKN061 20/14 A2991 RMK CU3SC2 SLP130 DENSITY ALT 1100FT

CYGK;2017-06-21 18:00;CYGK 211800Z 23012KT 15SM SCT040 BKN072 BKN220 20/14 A2990 RMK CU3AC3CI1 CI TR SLP126 DENSITY ALT 1000FT

CYGK;2017-06-21 19:00;CYGK 211900Z 23010KT 15SM SCT040 SCT220 21/15 A2989 RMK CU3CI1 SLP125 DENSITY ALT 1100FT

CYGK;2017-06-21 20:00;CYGK 212000Z 24013G18KT 15SM SCT036 SCT140 21/15 A2989 RMK CU3AC1 AC TR SLP124 DENSITY ALT 1200FT

CYGK;2017-06-21 21:00;CYGK 212100Z 24011G18KT 15SM SCT035TCU SCT210 21/14 A2988 RMK TCU3CI1 CI TR SLP120 DENSITY ALT 1200FT

CYGK;2017-06-21 22:00;CYGK 212200Z 23010KT 15SM SCT035 SCT210 21/14 A2988 RMK CU3CI1 CI TR SLP121 DENSITY ALT 1100FT

CYGK;2017-06-21 23:00;CYGK 212300Z 24013KT 15SM FEW042 21/14 A2989 RMK CU2 SLP123 DENSITY ALT 1100FT

CYGK;2017-06-22 00:00;CYGK 220000Z 24010KT 15SM FEW040 19/14 A2990 RMK CU1 SLP126 DENSITY ALT 1000FT

CYGK;2017-06-22 01:00;CYGK 220100Z 24008KT 15SM FEW040 18/14 A2991 RMK CU1 SLP130 DENSITY ALT 800FT

CYGK;2017-06-22 02:00;CYGK 220200Z 26006KT 15SM FEW140 18/13 A2994 RMK AC1 AC TR SLP139 DENSITY ALT 700FT

CYGK;2017-06-22 03:00;CYGK 220300Z 26005KT 15SM SKC 17/13 A2993 RMK LAST STFD OBS/NEXT 221000 UTC SLP138 DENSITY ALT 600FT

CYGK;2017-06-22 10:00;CYGK 221000Z 26006KT 15SM FEW120 FEW220 14/11 A2998 RMK AC1CI1 SLP152

CYGK;2017-06-22 11:00;CYGK 221100Z 26003KT 15SM FEW025 FEW250 16/12 A2998 RMK CU1CI1 CU TR SLP152 DENSITY ALT 400FT

CYGK;2017-06-22 12:00;CYGK 221200Z 25005KT 15SM FEW025 FEW120 SCT250 16/13 A2998 RMK CU1AC1CI3 CU TR AC TR SLP153 DENSITY ALT 500FT

CYGK;2017-06-22 13:00;CYGK 221300Z 26005KT 15SM FEW025 FEW100 SCT250 19/12 A2998 RMK CU1AC1CI4 CU TR AC TR SLP153 DENSITY ALT 800FT

CYGK;2017-06-22 14:00;CYGK 221400Z 18004KT 15SM FEW025 FEW100 BKN250 19/13 A2998 RMK CU1AC1CI6 CU TR AC TR SLP153 DENSITY ALT 800FT

CYGK;2017-06-22 15:00;CYGK 221500Z 18008KT 15SM FEW025 FEW100 BKN250 18/14 A2997 RMK CU1AC1CI6 CU TR SLP150 DENSITY ALT 800FT

CYGK;2017-06-22 16:00;CYGK 221600Z 19008KT 15SM FEW025 SCT100 BKN220 18/16 A2996 RMK CU1AC3CI4 CU TR SLP148 DENSITY ALT 800FT

CYGK;2017-06-22 17:00;CYGK 221700Z 19010KT 15SM FEW030 BKN100 OVC240 18/17 A2995 RMK CU1AC7CI1 CU TR SLP143 DENSITY ALT 800FT

CYGK;2017-06-22 18:00;CYGK 221800Z 17011KT 15SM FEW030 SCT100 BKN240 19/17 A2991 RMK CU1AC4CI3 CU TR SLP130 DENSITY ALT 900FT

CYGK;2017-06-22 19:00;CYGK 221900Z 18007KT 15SM FEW030 SCT150 BKN240 19/16 A2990 RMK CU1AC3CI3 SLP127 DENSITY ALT 900FT

CYGK;2017-06-22 20:00;CYGK 222000Z 19009KT 15SM FEW030 BKN080 OVC240 20/15 A2989 RMK CF1AC7CI1 CF TR SLP124 DENSITY ALT 1100FT

CYGK;2017-06-22 21:00;CYGK 222100Z 18007KT 15SM FEW040 OVC058 19/16 A2987 RMK CF1SC7 SLP118 DENSITY ALT 900FT

CYGK;2017-06-22 22:00;CYGK 222200Z 16005KT 15SM OVC050 19/15 A2985 RMK SC8 SLP111 DENSITY ALT 1000FT

CYGK;2017-06-22 23:00;CYGK 222300Z 14005KT 15SM BKN040 BKN060 BKN150 20/14 A2984 RMK SC5SC1AC1 SLP105 DENSITY ALT 1100FT

CYGK;2017-06-23 00:00;CYGK 230000Z 15003KT 15SM FEW035 SCT120 BKN200 19/15 A2982 RMK SC2AC2CI3 SLP100 DENSITY ALT 1000FT

CYGK;2017-06-23 01:00;CYGK 230100Z 15003KT 15SM BKN032 OVC120 19/16 A2981 RMK SC7AC1 SLP094 DENSITY ALT 1000FT

CYGK;2017-06-23 02:00;CYGK 230200Z 18002KT 15SM FEW030 OVC080 18/16 A2981 RMK SC2AC6 SLP096 DENSITY ALT 900FT

CYGK;2017-06-23 03:00;CYGK 230300Z 15004KT 15SM SCT060 BKN140 19/16 A2979 RMK SC3AC4 LAST STFD OBS/NEXT 231000 UTC SLP088 DENSITY ALT 1100FT

CYGK;2017-06-23 10:00;CYGK 231000Z 22005KT 190V260 2 1/2SM -RA BR SCT004 OVC034 19/19 A2970 RMK SF3NS5 SLP057 DENSITY ALT 1200FT

CYGK;2017-06-23 10:16;CYGK 231016Z 18007KT 1 1/2SM -RA BR SCT003 OVC035 19/18 A2969 RMK SF4NS4 VIS S 2 1/2 SLP054 DENSITY ALT 1100FT

CYGK;2017-06-23 10:36;CYGK 231036Z 23008KT 2 1/2SM -RA BR SCT003 OVC035 19/19 A2970 RMK SF3NS5 SLP057 DENSITY ALT 1100FT

CYGK;2017-06-23 11:00;CYGK 231100Z 19008KT 1 1/4SM -RA BR SCT003 OVC068 19/19 A2969 RMK SF3NS5 VIS SE - SW 1/2 SLP055 DENSITY ALT 1100FT

CYGK;2017-06-23 11:09;CYGK 231109Z 21009KT 1 1/2SM -RA BR BKN004 OVC045 19/19 A2969 RMK SF5NS3 VIS SW 2 1/2 SLP054 DENSITY ALT 1100FT

CYGK;2017-06-23 11:23;CYGK 231123Z 22007KT 2 1/2SM -RA BR BKN004 BKN015 OVC080 19/19 A2970 RMK SF5SC1NS2 VIS S 5 SLP057 DENSITY ALT 1100FT

CYGK;2017-06-23 12:00;CYGK 231200Z 20010KT 1 1/2SM -RA BR BKN004 OVC030 19/19 A2970 RMK SF5NS3 SLP060 DENSITY ALT 1100FT

CYGK;2017-06-23 12:21;CYGK 231221Z 24008KT 4SM -RA BR SCT004 OVC032 19/18 A2971 RMK SF3NS5 SLP062 DENSITY ALT 1100FT

CYGK;2017-06-23 12:48;CYGK 231248Z 22006KT 6SM -RA BR FEW003 BKN028 OVC060 19/19 A2968 RMK SF1NS4SC3 PRESFR SLP052 DENSITY ALT 1100FT

CYGK;2017-06-23 13:00;CYGK 231300Z 23006KT 5SM -RA BR FEW003 BKN030 OVC057 19/19 A2968 RMK SF2SC3SC3 SLP051 DENSITY ALT 1100FT

CYGK;2017-06-23 13:14;CYGK 231314Z 26006KT 2SM -RA BR FEW003 BKN018 OVC058 19/18 A2969 RMK SF2NS3SC3 VIS S 5 SLP055 DENSITY ALT 1100FT

CYGK;2017-06-23 13:43;CYGK 231343Z 15009KT 1 1/2SM -RA BR FEW003 BKN018 OVC065 18/18 A2966 RMK SF2SC3SC3 VIS VRB 3/4 - 21/2 SLP044 DENSITY ALT 1100FT

CYGK;2017-06-23 14:00;CYGK 231400Z 18008KT 1 1/2SM -RA BR FEW002 SCT018 OVC028 18/18 A2966 RMK SF2SC2NS4 SLP044 DENSITY ALT 1100FT

CYGK;2017-06-23 14:21;CYGK 231421Z 19010KT 4SM -RA BR FEW002 SCT018 BKN030 OVC070 19/18 A2965 RMK SF2SC1NS2AC3 SLP041 DENSITY ALT 1100FT

CYGK;2017-06-23 14:32;CYGK 231432Z 21010KT 1SM RA BR SCT002 BKN030 OVC070 18/18 A2966 RMK SF3NS4AC1 PRESRR SLP046 DENSITY ALT 1100FT

CYGK;2017-06-23 14:39;CYGK 231439Z 21008KT 2SM -RA BR SCT002 BKN030 OVC070 18/18 A2966 RMK SF4NS3AC1 SLP045 DENSITY ALT 1100FT

CYGK;2017-06-23 14:50;CYGK 231450Z 19009KT 1/2SM -RA BR OVC005 18/18 A2964 RMK FG4SF4 PRESFR SLP040 DENSITY ALT 1100FT

CYGK;2017-06-23 15:00;CYGK 231500Z CCA 18010KT 3/4SM -RA BR BKN004 OVC034 18/18 A2964 RMK FG3SF4NS1 SLP038 DENSITY ALT 1100FT

CYGK;2017-06-23 15:40;CYGK 231540Z 17009KT 1 1/2SM -RA BR SCT002 BKN018 OVC050 18/18 A2963 RMK SF4NS3SC1 SLP035 DENSITY ALT 1100FT

CYGK;2017-06-23 15:51;CYGK 231551Z 19009KT 3SM -RA BR BKN002 OVC020 18/18 A2963 RMK SF6NS2 SLP035 DENSITY ALT 1100FT

CYGK;2017-06-23 16:00;CYGK 231600Z 17007KT 2SM -RA BR BKN002 OVC025 18/18 A2962 RMK SF6NS2 SLP032 DENSITY ALT 1200FT

CYGK;2017-06-23 16:16;CYGK 231616Z 16009KT 2 1/2SM -RA BR SCT002 BKN030 OVC040 19/18 A2961 RMK SF4SC1NS3 PRESFR SLP027 DENSITY ALT 1200FT

CYGK;2017-06-23 16:25;CYGK 231625Z 16008KT 8SM -RA FEW002 SCT025 BKN040 OVC050 19/19 A2961 RMK SF2SC1SC3SC2 SLP027 DENSITY ALT 1200FT

CYGK;2017-06-23 17:00;CYGK 231700Z 15003KT 100V180 10SM -RA SCT002 BKN026 OVC042 19/19 A2960 RMK SF3SC2SC3 SLP023 DENSITY ALT 1300FT

CYGK;2017-06-23 18:00;CYGK 231800Z 15007KT 4SM -RA BR FEW003 SCT018 BKN040 OVC140 19/19 A2957 RMK SF2SC2SC3AC1 SLP013 DENSITY ALT 1300FT

CYGK;2017-06-23 18:26;CYGK 231826Z 18004KT 120V200 4SM -RA BR BKN005 OVC030 19/19 A2957 RMK SF6SC2 SLP013 DENSITY ALT 1300FT

CYGK;2017-06-23 19:00;CYGK 231900Z VRB02KT 4SM -RA BR BKN003 OVC012 20/19 A2955 RMK SF7SC1 CIG VRB 2-4 SLP007 DENSITY ALT 1400FT

CYGK;2017-06-23 19:47;CYGK 231947Z 18006KT 1 1/2SM BR BKN004 OVC012 20/20 A2953 RMK FG2SF4SC2 SLP002 DENSITY ALT 1500FT

CYGK;2017-06-23 20:00;CYGK 232000Z 16007KT 1 1/2SM BR BKN004 OVC010 21/20 A2952 RMK FG2SF4SC2 PRESFR SLP997 DENSITY ALT 1500FT

CYGK;2017-06-23 20:21;CYGK 232021Z 16008KT 1 1/2SM BR OVC006 20/20 A2951 RMK FG3SF5 CIG VRB 5-7 SLP994 DENSITY ALT 1500FT

CYGK;2017-06-23 20:31;CYGK 232031Z 17008KT 4SM BR BKN002 OVC007 20/20 A2951 RMK SF5SF3 SLP993 DENSITY ALT 1500FT

CYGK;2017-06-23 21:00;CYGK 232100Z 23008KT 6SM BR SCT002 BKN024 BKN120 21/20 A2952 RMK SF4SC2AC1 SLP998 DENSITY ALT 1500FT

CYGK;2017-06-23 21:19;CYGK 232119Z 24005KT 6SM BR SCT002 BKN005 OVC017 20/20 A2952 RMK SF3SF3SC2 SLP999 DENSITY ALT 1500FT

CYGK;2017-06-23 22:00;CYGK 232200Z 27005KT 5SM BR BKN004 OVC016 21/20 A2951 RMK SF6SC2 CIG VRB 3-5 SLP995 DENSITY ALT 1500FT

CYGK;2017-06-23 22:09;CYGK 232209Z 24004KT 230V290 2SM BR BKN004 OVC016 21/20 A2951 RMK FG2SF4SC2 SLP994 DENSITY ALT 1500FT

CYGK;2017-06-23 22:16;CYGK 232216Z 24004KT 1SM BR BKN004 OVC016 20/20 A2951 RMK FG3SF3SC2 SLP993 DENSITY ALT 1500FT

CYGK;2017-06-23 22:29;CYGK 232229Z 23004KT 1SM -RA BR BKN004 OVC015 20/20 A2950 RMK FG2SF4SC2 SLP992 DENSITY ALT 1500FT

CYGK;2017-06-23 23:00;CYGK 232300Z 28003KT 2SM -RA BR BKN004 OVC023 20/20 A2950 RMK FG2SF3SC3 SLP992 DENSITY ALT 1500FT

CYGK;2017-06-23 23:10;CYGK 232310Z 28003KT 270V330 3SM -RA BR SCT004 OVC016 20/20 A2951 RMK SF3SC5 SLP993 DENSITY ALT 1500FT

CYGK;2017-06-23 23:31;CYGK 232331Z 20003KT 1/2SM FG VV002 20/20 A2951 RMK FG8 SLP993 DENSITY ALT 1500FT

CYGK;2017-06-23 23:35;CYGK 232335Z 17004KT 150V220 1SM BR BKN004 OVC014 20/20 A2950 RMK FG6SF1SC1 SLP992 DENSITY ALT 1500FT

CYGK;2017-06-24 00:00;CYGK 240000Z 00000KT 1/4SM FG VV002 19/19 A2950 RMK FG8 SLP992 DENSITY ALT 1400FT

CYGK;2017-06-24 00:25;CYGK 240025Z 17006KT 1/8SM FG VV001 19/19 A2950 RMK FG8 SLP990 DENSITY ALT 1400FT

CYGK;2017-06-24 01:00;CYGK 240100Z 19004KT 1/8SM FG OVC014 19/19 A2950 RMK FG6SC2 SLP990 DENSITY ALT 1400FT

CYGK;2017-06-24 01:25;CYGK 240125Z 20004KT 3/8SM FG BKN005 OVC010 19/19 A2951 RMK FG5SF1SC2 SLP993 DENSITY ALT 1300FT

CYGK;2017-06-24 02:00;CYGK 240200Z 20005KT 3/8SM FG BKN005 OVC010 19/19 A2953 RMK FG6SF1SC1 PRESRR SLP000 DENSITY ALT 1300FT

CYGK;2017-06-24 03:00;CYGK 240300Z 24005KT 1/4SM FG VV002 19/19 A2952 RMK FG8 LAST STFD OBS/NEXT 241000 UTC SLP998 DENSITY ALT 1400FT

CYGK;2017-06-24 10:00;CYGK 241000Z 26005KT 15SM FEW036 SCT120 BKN180 17/16 A2958 RMK SC1AC2AC2 SLP018 DENSITY ALT 1000FT

CYGK;2017-06-24 11:00;CYGK 241100Z 26008KT 15SM FEW010 FEW120 BKN170 18/17 A2961 RMK CF1AC1AC4 SLP030 DENSITY ALT 1100FT

CYGK;2017-06-24 11:36;CYGK 241136Z 25007KT 15SM SCT007 SCT170 18/17 A2962 RMK CF3AC1 SLP033 DENSITY ALT 1100FT

CYGK;2017-06-24 12:00;CYGK 241200Z 28007KT 15SM SCT007 SCT170 18/17 A2964 RMK CF3AC1 AC TR SLP037 DENSITY ALT 1100FT

CYGK;2017-06-24 13:00;CYGK 241300Z 28006KT 15SM FEW012 FEW090 20/16 A2965 RMK CF1AC1 CF TR SLP041 DENSITY ALT 1300FT

CYGK;2017-06-24 14:00;CYGK 241400Z 28009KT 15SM FEW030 FEW170 22/16 A2966 RMK CU1AC1 CU TR SLP043 DENSITY ALT 1500FT

CYGK;2017-06-24 15:00;CYGK 241500Z 24012KT 15SM FEW030 FEW170 23/15 A2966 RMK CU1AC1 CU TR SLP046 DENSITY ALT 1600FT

CYGK;2017-06-24 16:00;CYGK 241600Z 24011KT 220V280 15SM FEW045 FEW250 24/13 A2968 RMK CF1CC1 SLP052 DENSITY ALT 1700FT

CYGK;2017-06-24 17:00;CYGK 241700Z 24013G20KT 15SM FEW050 FEW100 FEW250 24/12 A2970 RMK CU1AC1CI1 AC TR CB TOPS DIST N-NE SLP057 DENSITY ALT 1800FT

CYGK;2017-06-24 18:00;CYGK 241800Z 25012G19KT 15SM FEW050 24/13 A2970 RMK CU1 CB TOPS DIST NE SLP058 DENSITY ALT 1800FT

CYGK;2017-06-24 19:00;CYGK 241900Z 23016G23KT 15SM FEW060 FEW120 23/14 A2971 RMK CU2AC1 AC TR SLP063 DENSITY ALT 1600FT

CYGK;2017-06-24 20:00;CYGK 242000Z 23015G22KT 15SM SCT060 SCT120 23/15 A2973 RMK CU3AC1 AC TR SLP069 DENSITY ALT 1600FT

CYGK;2017-06-24 21:00;CYGK 242100Z 26015G24KT 15SM FEW060 FEW120 FEW250 24/10 A2975 RMK CU1AC1CI1 CI TR SLP074 DENSITY ALT 1700FT

CYGK;2017-06-24 22:00;CYGK 242200Z 26015G22KT 15SM FEW050 FEW160 BKN250 24/08 A2975 RMK CU1AC1CI3 SLP077 DENSITY ALT 1600FT

CYGK;2017-06-24 23:00;CYGK 242300Z 25012KT 15SM FEW050CB FEW160 FEW250 23/10 A2978 RMK CB1AC1CI1 CI TR CB DIST NE  SW SLP084 DENSITY ALT 1500FT

CYGK;2017-06-25 00:00;CYGK 250000Z 26009G15KT 15SM FEW050TCU FEW160 FEW250 22/10 A2980 RMK TCU1AC1CI1 CI TR TCU DIST NE SLP092 DENSITY ALT 1400FT

CYGK;2017-06-25 01:00;CYGK 250100Z 26008KT 15SM FEW050 FEW090 FEW250 20/10 A2982 RMK CU1AC1CI1 CI TR SLP100 DENSITY ALT 1200FT

CYGK;2017-06-25 02:00;CYGK 250200Z 24006KT 220V280 15SM FEW065 SCT090 20/12 A2986 RMK CU2AC1 SLP111 DENSITY ALT 1000FT

CYGK;2017-06-25 03:00;CYGK 250300Z 30005KT 15SM FEW065 18/10 A2987 RMK CU1 LAST STFD OBS/NEXT 251000 UTC SLP116 DENSITY ALT 800FT

CYGK;2017-06-25 10:00;CYGK 251000Z 00000KT 15SM FEW055 BKN090 BKN120 13/12 A2991 RMK SC1AC4AC1 ACC ASOCTD WND ESTD SLP130

CYGK;2017-06-25 11:00;CYGK 251100Z VRB02KT 15SM BKN050 BKN090 16/13 A2991 RMK SC5AC1 SLP130 DENSITY ALT 600FT

CYGK;2017-06-25 12:00;CYGK 251200Z 23003KT 210V310 15SM BKN048 BKN070 BKN120 17/13 A2992 RMK SC5ACC1AC1 SLP132 DENSITY ALT 600FT

CYGK;2017-06-25 13:00;CYGK 251300Z 26004KT 220V280 15SM SCT045 BKN080 18/13 A2992 RMK CU3AC3 TCU TOP DIST W SLP132 DENSITY ALT 800FT

CYGK;2017-06-25 14:00;CYGK 251400Z 18007KT 15SM FEW045TCU SCT070 19/16 A2992 RMK TCU2AC2 SLP132 DENSITY ALT 900FT

CYGK;2017-06-25 15:00;CYGK 251500Z 19011KT 15SM SCT043TCU SCT100 20/16 A2991 RMK TCU3AC1 SLP131 DENSITY ALT 1000FT

CYGK;2017-06-25 16:00;CYGK 251600Z 22015KT 15SM SCT028TCU SCT080 22/14 A2991 RMK TCU3AC1 AC TR SH NW AND NE SLP129 DENSITY ALT 1200FT

CYGK;2017-06-25 17:00;CYGK 251700Z 22018G25KT 15SM SCT033TCU SCT200 22/13 A2989 RMK TCU3CI1 CI TR SLP125 DENSITY ALT 1200FT

CYGK;2017-06-25 18:00;CYGK 251800Z 24018G29KT 15SM FEW030TCU FEW050 21/11 A2989 RMK TCU1SC1 SLP123 DENSITY ALT 1200FT

CYGK;2017-06-25 19:00;CYGK 251900Z 24019G31KT 15SM FEW040CB SCT050 SCT080 BKN250 21/11 A2991 RMK CB1CU2AC1CI1 CB NW MOVG E SLP129 DENSITY ALT 1200FT

CYGK;2017-06-25 19:27;CYGK 251927Z 24016G28KT 15SM -SHRA FEW043TCU BKN100 BKN250 20/10 A2991 RMK TCU2AC3CI1 SLP129 DENSITY ALT 1000FT

CYGK;2017-06-25 19:42;CYGK 251942Z 23017G25KT 15SM FEW043TCU SCT090 BKN250 21/10 A2991 RMK TCU2AC2CI1 SLP130 DENSITY ALT 1100FT

CYGK;2017-06-25 20:00;CYGK 252000Z 23016G23KT 15SM FEW043TCU SCT100 BKN250 21/10 A2990 RMK TCU2AC1CI2 SLP127 DENSITY ALT 1100FT

CYGK;2017-06-25 21:00;CYGK 252100Z 24011KT 15SM VCSH FEW050 BKN073 BKN130 19/09 A2990 RMK CU2AC4AC1 SLP127 DENSITY ALT 1000FT

CYGK;2017-06-25 21:24;CYGK 252124Z 24018G31KT 15SM -SHRA FEW035 SCT055 BKN090 BKN130 18/11 A2991 RMK CU1SC2AC3AC1 SLP130 DENSITY ALT 800FT

CYGK;2017-06-25 21:43;CYGK 252143Z 24011G17KT 15SM VCSH FEW035 FEW055 SCT090 BKN120 BKN250 19/11 A2990 RMK CU1SC1AC1AC2CI1 SLP125 DENSITY ALT 900FT

CYGK;2017-06-25 22:00;CYGK 252200Z 23011KT 15SM FEW035 FEW055 BKN110 BKN250 19/10 A2989 RMK CU1SC1AC4CI1 CU TR SHWRS NE-E SLP123 DENSITY ALT 900FT

CYGK;2017-06-25 23:00;CYGK 252300Z 26009G16KT 15SM FEW035TCU FEW110 SCT200 19/09 A2990 RMK TCU1AC1CI1 CB DIST N SLP126 DENSITY ALT 900FT

CYGK;2017-06-26 00:00;CYGK 260000Z 24006KT 15SM FEW035TCU FEW095 SCT200 18/10 A2991 RMK TCU1AC2CI1 TCU TR CB DIST NE SLP131 DENSITY ALT 700FT

CYGK;2017-06-26 00:53;CYGK 260053Z 32004KT 15SM -RA FEW015 BKN060 BKN095 16/10 A2992 RMK CF1SC5AC1 CF TR SLP134 DENSITY ALT 500FT

CYGK;2017-06-26 01:00;CYGK 260100Z 32003KT 15SM -RA FEW015 FEW030TCU BKN055 BKN095 16/10 A2992 RMK CF1TCU1SC5AC1 CF TR TCU TR SLP134 DENSITY ALT 500FT

CYGK;2017-06-26 02:00;CYGK 260200Z 31005KT 15SM VCSH FEW007 FEW040 FEW250 14/11 A2993 RMK SF1SC1CI1 SF TR SLP138

CYGK;2017-06-26 03:00;CYGK 260300Z 25005KT 15SM FEW007 FEW040 14/11 A2994 RMK SF1SC1 SF TR LAST STFD OBS/NEXT 261000UTC SLP141

CYGK;2017-06-26 10:00;CYGK 261000Z 33004KT 15SM SCT045 11/11 A2997 RMK CU4 SLP150

CYGK;2017-06-26 11:00;CYGK 261100Z 00000KT 15SM FEW045 SCT090 13/12 A2998 RMK CU1AC2 SLP154

CYGK;2017-06-26 12:00;CYGK 261200Z VRB02KT 15SM FEW012 FEW045 SCT090 14/12 A2999 RMK CF1CU1AC3 CU TR SLP157

CYGK;2017-06-26 13:00;CYGK 261300Z 15003KT 060V180 15SM FEW015 FEW050 SCT080 16/12 A2998 RMK SF1SC1AC1 SLP156 DENSITY ALT 500FT

CYGK;2017-06-26 14:00;CYGK 261400Z 16005KT 15SM VCSH FEW015 BKN078 BKN150 16/11 A2999 RMK CU1AC5AC1 SLP158 DENSITY ALT 400FT

CYGK;2017-06-26 15:00;CYGK 261500Z 18007KT 15SM VCSH FEW020 SCT070 BKN100 16/12 A2999 RMK CU2AC2AC2 SLP158 DENSITY ALT 500FT

CYGK;2017-06-26 16:00;CYGK 261600Z 18008KT 15SM VCSH SCT020 BKN070 BKN095 17/13 A2999 RMK CU3AC3AC1 SLP157 DENSITY ALT 600FT

CYGK;2017-06-26 17:00;CYGK 261700Z 19009KT 15SM VCSH SCT030TCU BKN095 BKN230 17/12 A2996 RMK TCU3AC2CI1 SLP149 DENSITY ALT 600FT

CYGK;2017-06-26 18:00;CYGK 261800Z 19008KT 15SM VCSH SCT030TCU BKN080 18/13 A2995 RMK TCU3AC3 SLP144 DENSITY ALT 800FT

CYGK;2017-06-26 19:00;CYGK 261900Z 17008KT 15SM VCSH FEW030TCU BKN070 BKN250 17/12 A2995 RMK TCU2AC4CI1 SLP144 DENSITY ALT 600FT

CYGK;2017-06-26 20:00;CYGK 262000Z 18010KT 15SM VCSH SCT035TCU SCT080 BKN230 18/13 A2995 RMK TCU3AC1CI2 SLP143 DENSITY ALT 800FT

CYGK;2017-06-26 21:00;CYGK 262100Z 18011KT 15SM VCSH FEW030TCU SCT085 BKN250 19/14 A2993 RMK TCU2AC1CI2 CB DIST NW-NE SLP139 DENSITY ALT 800FT

CYGK;2017-06-26 22:00;CYGK 262200Z 17007KT 15SM FEW015 FEW025CB SCT080 BKN250 18/13 A2991 RMK CF1CB1AC1CI4 CB LINE NW-NE SLP132 DENSITY ALT 700FT

CYGK;2017-06-26 22:18;CYGK 262218Z 18007KT 15SM TS FEW015 FEW025CB BKN083 BKN240 18/13 A2991 RMK CF1CB2AC3CI2 CF TR SLP132 DENSITY ALT 700FT

CYGK;2017-06-26 22:45;CYGK 262245Z 17007KT 15SM -TSRA FEW006 FEW025CB BKN055 BKN240 18/13 A2990 RMK SF1CB2SC4CI1 SF TR LTNG W MOVG E PRESFR SLP129 DENSITY ALT 700FT

CYGK;2017-06-26 23:00;CYGK 262300Z 30014G26KT 200V320 15SM -TSRA FEW006 FEW018 SCT030CB BKN080 14/11 A2994 RMK SF1CF1CB2AC3 SF TR LTNG N MOVG E PRESRR SLP141

CYGK;2017-06-27 00:00;CYGK 270000Z VRB02KT 15SM VCSH FEW006 FEW015 FEW030CB BKN075 BKN250 14/12 A2994 RMK SF1CF1CB1AC4CI2 SF TR CF TR LTNG E MOVG E SLP141

CYGK;2017-06-27 01:00;CYGK 270100Z 13007KT 15SM FEW008 FEW030 SCT060 BKN240 13/12 A2992 RMK SF1CU1SC2CI3 SF TR CB DSTNT E PRESFR SLP134

CYGK;2017-06-27 02:00;CYGK 270200Z 00000KT 15SM FEW060 FEW240 12/11 A2993 RMK SC1CI1 SLP139

CYGK;2017-06-27 03:00;CYGK 270300Z 22005KT 15SM MIFG FEW015 FEW060 13/13 A2994 RMK SC1SC1 LAST STFD OBS/NEXT 271000UTC SLP142

CYGK;2017-06-27 10:00;CYGK 271000Z 28003KT 230V290 15SM FEW030 BKN090 BKN200 13/12 A2992 RMK CU1AC5CI1 SLP135

CYGK;2017-06-27 11:00;CYGK 271100Z 26003KT 230V310 15SM FEW030 BKN090 BKN210 15/14 A2992 RMK CU1AC5CI1 SLP136 DENSITY ALT 400FT

CYGK;2017-06-27 12:00;CYGK 271200Z 24006KT 15SM FEW025 BKN077 16/13 A2992 RMK CU1AC6 SLP136 DENSITY ALT 500FT

CYGK;2017-06-27 12:21;CYGK 271221Z 24005KT 15SM -RA FEW025 OVC065 15/14 A2993 RMK CU1SC7 SLP137 DENSITY ALT 400FT

CYGK;2017-06-27 13:00;CYGK 271300Z 24011G16KT 15SM -SHRA FEW012 SCT025TCU BKN080 17/14 A2993 RMK CF1TCU2AC4 SLP137 DENSITY ALT 600FT

CYGK;2017-06-27 14:00;CYGK 271400Z 24008KT 15SM FEW014 FEW025 OVC060 15/13 A2992 RMK CF1CU1SC6 SLP136 DENSITY ALT 500FT

CYGK;2017-06-27 15:00;CYGK 271500Z 23005KT 15SM SCT016TCU OVC052 15/13 A2992 RMK TCU3SC5 SLP134 DENSITY ALT 500FT

CYGK;2017-06-27 15:09;CYGK 271509Z 24005KT 220V310 15SM -SHRA FEW016TCU OVC054 15/12 A2992 RMK TCU2SC6 SLP135 DENSITY ALT 400FT

CYGK;2017-06-27 15:41;CYGK 271541Z 28008KT 15SM -TSRA SCT018CB OVC042 15/12 A2992 RMK CB4SC4 VIS W 2 SLP135 DENSITY ALT 400FT

CYGK;2017-06-27 16:00;CYGK 271600Z 26006KT 230V310 4SM -SHRA SCT025CB OVC038 14/13 A2993 RMK CB3SC5 SLP137

CYGK;2017-06-27 16:53;CYGK 271653Z 28007KT 15SM FEW012 SCT025CB BKN080 BKN240 15/13 A2991 RMK CU1CB2AC2CI1 SLP131 DENSITY ALT 400FT

CYGK;2017-06-27 17:00;CYGK 271700Z 28006KT 15SM FEW012 SCT025CB BKN070 BKN240 15/13 A2991 RMK CU2CB1AC2CI1 SLP131 DENSITY ALT 400FT

CYGK;2017-06-27 17:38;CYGK 271738Z 24006KT 15SM -SHRA SCT015TCU BKN050 14/12 A2992 RMK TCU4SC3 SLP133

CYGK;2017-06-27 18:00;CYGK 271800Z 23005KT 210V270 15SM -SHRA SCT015TCU BKN040 BKN150 14/12 A2991 RMK TCU3SC2AC2 SLP132

CYGK;2017-06-27 18:20;CYGK 271820Z 24005KT 200V280 15SM SCT015TCU SCT038 BKN083 16/13 A2991 RMK TCU3SC1AC2 SLP131 DENSITY ALT 500FT

CYGK;2017-06-27 19:00;CYGK 271900Z 24009KT 190V260 15SM SCT025TCU SCT140 BKN240 17/12 A2990 RMK TCU3AC1CI1 SLP128 DENSITY ALT 700FT

CYGK;2017-06-27 20:00;CYGK 272000Z 23009KT 15SM SCT025TCU SCT056 BKN240 17/11 A2990 RMK TCU3SC1CI2 SLP128 DENSITY ALT 700FT

CYGK;2017-06-27 20:47;CYGK 272047Z 24013G18KT 15SM -SHRA SCT030TCU SCT082 BKN240 17/12 A2991 RMK TCU3AC1CI2 SLP131 DENSITY ALT 600FT

CYGK;2017-06-27 21:00;CYGK 272100Z 27010KT 15SM -SHRA SCT030TCU SCT080 BKN240 16/11 A2991 RMK TCU3AC1CI2 SLP131 DENSITY ALT 500FT

CYGK;2017-06-27 21:42;CYGK 272142Z 25009KT 15SM FEW015 FEW030TCU SCT073 BKN240 17/11 A2990 RMK CF1TCU2AC2CI2 CF TR SLP128 DENSITY ALT 700FT

CYGK;2017-06-27 22:00;CYGK 272200Z 26008G16KT 15SM FEW030TCU SCT075 BKN240 18/11 A2990 RMK TCU2AC2CI1 SLP128 DENSITY ALT 800FT

CYGK;2017-06-27 22:42;CYGK 272242Z 26007KT 15SM -SHRA FEW030TCU BKN075 16/10 A2991 RMK TCU2AC4 SLP132 DENSITY ALT 500FT

CYGK;2017-06-27 23:00;CYGK 272300Z 24006KT 15SM -RA FEW030TCU BKN070 15/11 A2992 RMK TCU1AC6 SLP133 DENSITY ALT 400FT

CYGK;2017-06-28 00:00;CYGK 280000Z 22004KT 15SM -RA FEW030TCU SCT065 BKN240 14/12 A2992 RMK TCU1SC3CI2 SLP134 DENSITY ALT 400FT

CYGK;2017-06-28 00:27;CYGK 280027Z 22006KT 15SM FEW030TCU FEW070 BKN240 15/12 A2992 RMK TCU1AC2CI3 TCU TR SLP134 DENSITY ALT 400FT

CYGK;2017-06-28 01:00;CYGK 280100Z 24005KT 15SM FEW030TCU FEW080 SCT240 14/12 A2992 RMK TCU1AC1CI3 TCU TR SLP135

CYGK;2017-06-28 02:00;CYGK 280200Z 27007KT 15SM FEW080 SCT240 15/13 A2994 RMK AC1CI2 SLP142

CYGK;2017-06-28 03:00;CYGK 280300Z 26006KT 15SM FEW080 FEW240 14/13 A2995 RMK AC1CI1 LAST STFD OBS/NEXT 281000 UTC SLP145

CYGK;2017-06-28 10:00;CYGK 281000Z 26004KT 15SM FEW030 FEW140 11/10 A3002 RMK CU1AC1 CU TR SLP167

CYGK;2017-06-28 11:00;CYGK 281100Z 27003KT 15SM FEW030TCU FEW100 14/12 A3003 RMK TCU1AC2 TCU TR TCU DIST SE SLP172

CYGK;2017-06-28 12:00;CYGK 281200Z 26006KT 15SM FEW030 SCT092 16/13 A3004 RMK CU1AC3 CU TR ACC ASOCTD SLP175 DENSITY ALT 400FT

CYGK;2017-06-28 13:00;CYGK 281300Z 24009KT 15SM FEW030TCU FEW080 FEW220 17/13 A3004 RMK TCU1AC1CC1 TCU TR CC TR SLP176 DENSITY ALT 500FT

CYGK;2017-06-28 14:00;CYGK 281400Z 23008KT 15SM FEW030 FEW080 FEW220 18/12 A3004 RMK CU1AC1CI1 CU TR AC TR SLP175 DENSITY ALT 700FT

CYGK;2017-06-28 15:00;CYGK 281500Z 24008KT 15SM FEW030 FEW080 FEW220 20/13 A3005 RMK CU1AC1CI2 CU TR AC TR SLP177 DENSITY ALT 800FT

CYGK;2017-06-28 16:00;CYGK 281600Z 23010KT 15SM FEW035 SCT200 21/12 A3006 RMK CU1CI2 SLP183 DENSITY ALT 1000FT

CYGK;2017-06-28 17:00;CYGK 281700Z 23012KT 15SM FEW035 SCT220 22/12 A3007 RMK CU2CI2 SLP185 DENSITY ALT 1000FT

CYGK;2017-06-28 18:00;CYGK 281800Z 19015KT 15SM FEW040 SCT220 20/14 A3005 RMK CU1CI3 SLP177 DENSITY ALT 900FT

CYGK;2017-06-28 19:00;CYGK 281900Z 21014KT 15SM FEW040 SCT220 22/12 A3004 RMK CU1CI3 SLP176 DENSITY ALT 1100FT

CYGK;2017-06-28 20:00;CYGK 282000Z 19015KT 15SM FEW040 FEW220 21/14 A3003 RMK CU1CI2 CU TR SLP170 DENSITY ALT 900FT

CYGK;2017-06-28 21:00;CYGK 282100Z 20011KT 15SM FEW040 SCT220 21/14 A3001 RMK CU1CI2 SLP166 DENSITY ALT 1000FT

CYGK;2017-06-28 21:25;CYGK 282125Z 23013G20KT 15SM FEW040 SCT220 22/11 A3001 RMK CU1CI3 WSHFT 2106 SLP164 DENSITY ALT 1100FT

CYGK;2017-06-28 22:00;CYGK 282200Z 22009G15KT 15SM FEW040 BKN220 22/12 A3001 RMK CU1CI4 SLP164 DENSITY ALT 1100FT

CYGK;2017-06-28 23:00;CYGK 282300Z 19010KT 15SM FEW040 FEW140 BKN220 19/15 A3000 RMK CU1AC1CI4 CU TR SLP162 DENSITY ALT 800FT

CYGK;2017-06-29 00:00;CYGK 290000Z 21007KT 15SM FEW040 SCT140 SCT220 19/14 A3000 RMK CU1AC3CI1 CU TR SLP161 DENSITY ALT 700FT

CYGK;2017-06-29 01:00;CYGK 290100Z 18006KT 15SM SCT140 BKN200 17/15 A3000 RMK AC3CI4 SLP160 DENSITY ALT 600FT

CYGK;2017-06-29 02:00;CYGK 290200Z 21006KT 15SM BKN190 18/15 A3001 RMK CI7 SLP164 DENSITY ALT 600FT

CYGK;2017-06-29 03:00;CYGK 290300Z 21006KT 15SM BKN200 17/16 A3001 RMK CI7 LAST STFD OBS/NEXT 291000 UTC SLP163 DENSITY ALT 600FT

CYGK;2017-06-29 10:00;CYGK 291000Z 25008KT 15SM -RA FEW030 SCT070 OVC090 17/15 A3004 RMK CF1AC3AC5 CF TR SLP173 DENSITY ALT 500FT

CYGK;2017-06-29 11:00;CYGK 291100Z 34003KT 12SM -RA OVC080 16/15 A3001 RMK AC8 SLP165 DENSITY ALT 500FT

CYGK;2017-06-29 12:00;CYGK 291200Z 05003KT 15SM -RA FEW065 OVC098 17/15 A3000 RMK SC2AC6 SLP159 DENSITY ALT 500FT

CYGK;2017-06-29 13:00;CYGK 291300Z 08002KT 15SM -RA FEW041 OVC090 17/15 A3000 RMK SC2AC6 SLP162 DENSITY ALT 600FT

CYGK;2017-06-29 14:00;CYGK 291400Z 13006KT 15SM -RA FEW035 OVC100 17/15 A2998 RMK CF1AC8 CF TR SLP155 DENSITY ALT 600FT

CYGK;2017-06-29 15:00;CYGK 291500Z 11006KT 15SM -RA FEW035 BKN065 OVC100 18/15 A2995 RMK CF1SC6AC1 PCPN VRY LGT SLP143 DENSITY ALT 700FT

CYGK;2017-06-29 16:00;CYGK 291600Z 16002KT 6SM -RA BR OVC060 18/15 A2998 RMK SC8 SLP154 DENSITY ALT 700FT

CYGK;2017-06-29 17:00;CYGK 291700Z 16010KT 6SM -RA BR OVC052 18/16 A2995 RMK SC8 SLP142 DENSITY ALT 700FT

CYGK;2017-06-29 18:00;CYGK 291800Z 16010G15KT 15SM -RA FEW008 BKN045 OVC070 18/17 A2992 RMK SF1SC7AC1 SF TR SLP133 DENSITY ALT 700FT

CYGK;2017-06-29 18:35;CYGK 291835Z 16008KT 15SM OVC042 19/17 A2991 RMK SC8 SLP130 DENSITY ALT 800FT

CYGK;2017-06-29 19:00;CYGK 291900Z 17011KT 15SM OVC040 19/17 A2989 RMK SC8 SLP124 DENSITY ALT 900FT

CYGK;2017-06-29 19:10;CYGK 291910Z 17013KT 15SM -RA OVC039 19/17 A2989 RMK SC8 SLP123 DENSITY ALT 900FT

CYGK;2017-06-29 19:42;CYGK 291942Z 17011KT 15SM OVC045 19/17 A2989 RMK SC8 SLP122 DENSITY ALT 900FT

CYGK;2017-06-29 20:00;CYGK 292000Z 17009KT 15SM -RA OVC043 18/17 A2989 RMK SC8 -RA I NTMT SLP122 DENSITY ALT 900FT

CYGK;2017-06-29 21:00;CYGK 292100Z 16005KT 15SM -RA OVC041 19/17 A2988 RMK SC8 -RA INTMT SLP120 DENSITY ALT 900FT

CYGK;2017-06-29 21:21;CYGK 292121Z 17008KT 15SM OVC037 19/18 A2987 RMK SC8 SLP118 DENSITY ALT 900FT

CYGK;2017-06-29 22:00;CYGK 292200Z 20006KT 15SM BKN041 OVC120 19/18 A2987 RMK SC6AC2 SLP118 DENSITY ALT 1000FT

CYGK;2017-06-29 23:00;CYGK 292300Z 19008KT 170V240 15SM BKN050 OVC120 19/18 A2986 RMK SC6AC2 SLP112 DENSITY ALT 1000FT

CYGK;2017-06-30 00:00;CYGK 300000Z 16007KT 15SM BKN048 BKN080 BKN120 OVC230 19/18 A2984 RMK SC5AC1AC1CI1 SLP106 DENSITY ALT 900FT

CYGK;2017-06-30 01:00;CYGK 300100Z 00000KT 15SM BKN055 OVC110 19/18 A2984 RMK SC7AC1 SLP107 DENSITY ALT 900FT

CYGK;2017-06-30 02:00;CYGK 300200Z 07003KT 15SM BKN060 BKN140 18/18 A2984 RMK SC6AC1 SLP108 DENSITY ALT 900FT

CYGK;2017-06-30 03:00;CYGK 300300Z 06005KT 15SM OVC056 19/18 A2984 RMK SC8 LAST STFD OBS/NEXT 301000 UTC SLP106 DENSITY ALT 1000FT

CYGK;2017-06-30 10:00;CYGK 301000Z 18005KT 8SM SCT060 BKN240 18/18 A2983 RMK SC3CI4 SLP103 DENSITY ALT 900FT

CYGK;2017-06-30 11:00;CYGK 301100Z 18005KT 8SM FEW060 BKN240 18/18 A2984 RMK SC2CI5 SLP108 DENSITY ALT 900FT

CYGK;2017-06-30 12:00;CYGK 301200Z 22006KT 8SM SCT045 BKN065 OVC240 20/19 A2986 RMK CU3SC4CI1 SLP115 DENSITY ALT 1000FT

CYGK;2017-06-30 12:37;CYGK 301237Z 24009KT 8SM VCSH FEW007 FEW015 BKN030 OVC065 20/20 A2988 RMK SF1CF1CU5SC2 SF TR SLP118 DENSITY ALT 1000FT

CYGK;2017-06-30 12:53;CYGK 301253Z 23012KT 8SM -RA FEW007 OVC030 20/19 A2987 RMK SF1SC8 SF TR SLP117 DENSITY ALT 1100FT

CYGK;2017-06-30 13:00;CYGK 301300Z 22010G16KT 8SM -RA FEW007 OVC030 20/19 A2987 RMK SF1SC8 SF TR SLP118 DENSITY ALT 1100FT

CYGK;2017-06-30 14:00;CYGK 301400Z 19004KT 5SM -RA BR FEW009 OVC035 19/19 A2986 RMK SF1SC7 SLP114 DENSITY ALT 1000FT

CYGK;2017-06-30 15:00;CYGK 301500Z 23006KT 5SM -RA BR OVC007 20/19 A2987 RMK SF8 SLP118 DENSITY ALT 1000FT

CYGK;2017-06-30 15:51;CYGK 301551Z 16009KT 2 1/2SM -RA BR OVC005 19/19 A2986 RMK SF8 CIG RAG SLP115 DENSITY ALT 900FT

CYGK;2017-06-30 16:10;CYGK 301610Z 17011KT 1/2SM -RA FG VV001 19/19 A2987 RMK FG8 SLP116 DENSITY ALT 900FT

CYGK;2017-06-30 16:11;CYGK 301611Z 17010KT 1/4SM -RA FG VV001 19/19 A2987 RMK FG8 SLP116 DENSITY ALT 900FT

CYGK;2017-06-30 16:53;CYGK 301653Z 18011KT 1/2SM -RA FG VV002 19/19 A2986 RMK FG8 SLP115 DENSITY ALT 900FT

CYGK;2017-06-30 17:00;CYGK 301700Z 18009KT 3/4SM -RA BR VV002 19/19 A2986 RMK FG8 SLP115 DENSITY ALT 900FT

CYGK;2017-06-30 17:22;CYGK 301722Z 19008KT 1SM -RA BR OVC004 19/19 A2986 RMK FG4SF4 SLP113 DENSITY ALT 1000FT

CYGK;2017-06-30 18:00;CYGK 301800Z 19008KT 1SM -RA BR BKN004 OVC014 19/19 A2986 RMK FG4SF3SC1 SLP114 DENSITY ALT 1000FT

CYGK;2017-06-30 18:42;CYGK 301842Z 26005KT 3SM -RA BR BKN004 BKN014 OVC070 21/20 A2986 RMK SF5SC2AC1 SLP112 DENSITY ALT 1100FT

CYGK;2017-06-30 18:49;CYGK 301849Z 24005KT 3SM BR SCT005 BKN013 OVC070 21/20 A2986 RMK SF4SC3AC1 SLP111 DENSITY ALT 1100FT

CYGK;2017-06-30 19:00;CYGK 301900Z 23004KT 3SM BR SCT005 BKN013 BKN045 21/21 A2985 RMK SF3SC3SC1 SLP110 DENSITY ALT 1200FT

CYGK;2017-06-30 20:00;CYGK 302000Z 18006KT 6SM BR FEW005 FEW012 BKN021 BKN170 BKN240 21/20 A2983 RMK SF1CU1SC3AC1CI1 SLP103 DENSITY ALT 1200FT

CYGK;2017-06-30 21:00;CYGK 302100Z 17008KT 7SM SCT023 SCT140 BKN240 21/20 A2983 RMK CU3AC1CI3 AC TR SLP101 DENSITY ALT 1300FT

CYGK;2017-06-30 22:00;CYGK 302200Z 19010KT 10SM SCT025 SCT140 BKN240 21/19 A2983 RMK CU3AC1CI2 AC TR SLP101 DENSITY ALT 1200FT

CYGK;2017-06-30 23:00;CYGK 302300Z 20007KT 12SM FEW025 SCT240 21/20 A2982 RMK CU1CI3 CU TR SLP099 DENSITY ALT 1200FT

CYGK;2017-07-01 00:00;CYGK 010000Z 19011KT 15SM FEW025 SCT240 20/19 A2984 RMK CU1CI3 CU TR SLP107 DENSITY ALT 1000FT

CYGK;2017-07-01 01:00;CYGK 010100Z 19008KT 15SM FEW030 SCT240 19/19 A2985 RMK CU1CI4 CU TR SLP110 DENSITY ALT 1000FT

CYGK;2017-07-01 02:00;CYGK 010200Z 18007KT 15SM SCT240 19/19 A2987 RMK CI3 SLP118 DENSITY ALT 900FT

CYGK;2017-07-01 03:00;CYGK 010300Z 16003KT 10SM FEW160 SCT240 19/19 A2986 RMK AC2CI2 LAST STFD OBS/NEXT 011000 UTC SLP115 DENSITY ALT 900FT

CYGK;2017-07-01 10:00;CYGK 011000Z 17006KT 5SM -RA BR BKN055 OVC110 19/19 A2984 RMK SC5AC3 SLP104 DENSITY ALT 1000FT

CYGK;2017-07-01 10:13;CYGK 011013Z 19007KT 3SM -RA BR SCT009 OVC040 19/19 A2984 RMK SF3SC5 SLP106 DENSITY ALT 900FT

CYGK;2017-07-01 10:36;CYGK 011036Z 18005KT 2 1/2SM -RA BR VCFG SCT009 OVC040 19/19 A2984 RMK FG2SF2SC4 VIS SW 3/4 SLP106 DENSITY ALT 900FT

CYGK;2017-07-01 11:00;CYGK 011100Z 19005KT 3SM -RA BR FEW009 SCT045 OVC080 19/19 A2984 RMK SF1SC3AC4 SLP107 DENSITY ALT 1000FT

CYGK;2017-07-01 11:29;CYGK 011129Z 14006KT 1 1/2SM -RA BR VCFG FEW001 OVC120 19/19 A2984 RMK SF2AC6 VIS SE-SW 3/4 SLP105 DENSITY ALT 900FT

CYGK;2017-07-01 11:43;CYGK 011143Z 17007KT 3SM BR FEW001 FEW030 OVC084 19/19 A2984 RMK SF1SC2AC6 SF TR INTMT -RA SLP106 DENSITY ALT 1000FT

CYGK;2017-07-01 12:00;CYGK 011200Z 16005KT 6SM BR FEW001 SCT050 OVC100 19/19 A2983 RMK SF1SC4AC4 SF TR INMT -RA SLP103 DENSITY ALT 1000FT

CYGK;2017-07-01 13:00;CYGK 011300Z CCA 18006KT 6SM -RA BR FEW002 BKN031 OVC080 19/19 A2984 RMK SF1SC6AC2 SF TR -RA INTMT SLP107 DENSITY ALT 1000FT

CYGK;2017-07-01 13:25;CYGK 011325Z 17006KT 1 1/2SM -RA BR VCFG SCT004 OVC029 19/19 A2984 RMK FG2SF1SC5 VIS S-SW 3/4 SLP107 DENSITY ALT 1000FT

CYGK;2017-07-01 13:32;CYGK 011332Z 18006KT 3/4SM -RA BR FEW003 OVC026 19/19 A2984 RMK SF2SC6 SLP107 DENSITY ALT 1000FT

CYGK;2017-07-01 13:41;CYGK 011341Z 17004KT 1SM -RA BR FEW004 OVC028 19/19 A2984 RMK SF2SC6 VIS S 1/2 SLP105 DENSITY ALT 1000FT

CYGK;2017-07-01 13:53;CYGK 011353Z 14002KT 1 1/2SM -RA BR SCT003 OVC012 20/19 A2982 RMK SF3SC5 VIS S 1/2 PRESFR SLP100 DENSITY ALT 1100FT

CYGK;2017-07-01 14:00;CYGK 011400Z VRB02KT 2SM -RA BR FEW003 BKN009 OVC028 20/19 A2983 RMK SF2SF5SC1 VIS S-SW 3/4 SLP103 DENSITY ALT 1100FT

CYGK;2017-07-01 14:10;CYGK 011410Z 00000KT 3/4SM -DZ BR BKN002 OVC010 20/20 A2983 RMK FG2SF3ST3 VIS N-NE 2 SLP102 DENSITY ALT 1100FT

CYGK;2017-07-01 14:27;CYGK 011427Z 17003KT 1/2SM -DZ FG OVC002 20/19 A2984 RMK FG5SF3 SLP104 DENSITY ALT 1100FT

CYGK;2017-07-01 14:46;CYGK 011446Z 18005KT 3/4SM -RA BR SCT003 OVC006 19/19 A2983 RMK FG2SF2SF4 SLP103 DENSITY ALT 1000FT

CYGK;2017-07-01 15:00;CYGK 011500Z 19006KT 1 1/2SM -RA BR SCT003 OVC010 20/20 A2983 RMK FG1SF2SC5 SLP101 DENSITY ALT 1100FT

CYGK;2017-07-01 15:10;CYGK 011510Z 17006KT 1SM -RA BR OVC002 20/20 A2982 RMK SF8 SLP099 DENSITY ALT 1100FT

CYGK;2017-07-01 15:12;CYGK 011512Z 17005KT 3/4SM -RA BR VV002 20/20 A2982 RMK FG8 SLP098 DENSITY ALT 1100FT

CYGK;2017-07-01 15:30;CYGK 011530Z 17005KT 1/2SM -RA FG VV002 20/19 A2982 RMK FG8 SLP098 DENSITY ALT 1100FT

CYGK;2017-07-01 15:46;CYGK 011546Z 19006KT 1SM BR OVC004 19/19 A2982 RMK FG6ST2 SLP099 DENSITY ALT 1000FT

CYGK;2017-07-01 16:00;CYGK 011600Z 19006KT 1 1/2SM BR OVC003 20/19 A2982 RMK ST8 SLP099 DENSITY ALT 1100FT

CYGK;2017-07-01 16:23;CYGK 011623Z 19006KT 1 1/2SM BR OVC002 20/19 A2981 RMK ST8 SLP097 DENSITY ALT 1100FT

CYGK;2017-07-01 16:50;CYGK 011650Z 19009KT 5SM BR SCT002 OVC011 20/20 A2981 RMK SF3SC5 VIS LWR E SLP097 DENSITY ALT 1100FT

CYGK;2017-07-01 17:00;CYGK 011700Z 19008KT 5SM BR SCT003 OVC010 20/20 A2981 RMK SF3SC5 SLP095 DENSITY ALT 1100FT

CYGK;2017-07-01 17:20;CYGK 011720Z 19010KT 6SM BR BKN002 OVC010 20/20 A2981 RMK SF6SC2 SLP094 DENSITY ALT 1200FT

CYGK;2017-07-01 18:00;CYGK 011800Z 19010KT 6SM BR SCT002 BKN006 BKN250 21/20 A2979 RMK SF3SF4CI1 CI TR SLP090 DENSITY ALT 1300FT

CYGK;2017-07-01 18:07;CYGK 011807Z 18010KT 10SM SCT006 BKN100 BKN200 21/20 A2979 RMK SF3AC3CI1 VIS LWR E-SE SLP089 DENSITY ALT 1300FT

CYGK;2017-07-01 19:00;CYGK 011900Z 18009G15KT 15SM FEW006 SCT100 SCT200 21/20 A2978 RMK CF2AC1CI1 SLP084 DENSITY ALT 1300FT

CYGK;2017-07-01 20:00;CYGK 012000Z 19012KT 15SM FEW006 FEW020TCU SCT050 SCT180 BKN200 22/20 A2977 RMK CF1TCU1SC2AC1CI1 AC TR TCU NW-N DIST E-S SLP083 DENSITY ALT 1400FT

CYGK;2017-07-01 21:00;CYGK 012100Z 23009KT 15SM SCT020 BKN042 BKN170 24/20 A2976 RMK CU3SC2AC2 SLP078 DENSITY ALT 1700FT

CYGK;2017-07-01 22:00;CYGK 012200Z 19012KT 15SM BKN023 BKN060 21/20 A2977 RMK CU5SC2 SLP083 DENSITY ALT 1300FT

CYGK;2017-07-01 23:00;CYGK 012300Z 19011KT 15SM FEW021 SCT060 BKN140 20/19 A2976 RMK CU2SC2AC2 SLP080 DENSITY ALT 1200FT

CYGK;2017-07-02 00:00;CYGK 020000Z 21009KT 15SM FEW021 SCT160 BKN220 20/20 A2977 RMK CU2AC2CI1 SLP082 DENSITY ALT 1200FT

CYGK;2017-07-02 01:00;CYGK 020100Z 25010G18KT 15SM FEW020TCU SCT140 21/18 A2978 RMK TCU2AC2 SLP087 DENSITY ALT 1200FT

CYGK;2017-07-02 02:00;CYGK 020200Z 26006KT 15SM FEW022 SCT140 20/17 A2982 RMK CU2AC2 CB DIST NE OCNL LTGIC DIST NE SLP099 DENSITY ALT 1100FT

CYGK;2017-07-02 03:00;CYGK 020300Z 26005KT 15SM FEW042 SCT220 19/17 A2984 RMK CU2CI2 LAST STFD OBS/NEXT 021000 UTC SLP105 DENSITY ALT 1000FT

CYGK;2017-07-02 10:00;CYGK 021000Z 26005KT 15SM SCT030 SCT250 16/14 A2990 RMK SC3CI1 SLP128 DENSITY ALT 500FT

CYGK;2017-07-02 10:16;CYGK 021016Z 26004KT 15SM BKN017 16/14 A2991 RMK SC5 SLP131 DENSITY ALT 600FT

CYGK;2017-07-02 11:00;CYGK 021100Z 22005KT 15SM SCT018 SCT080 17/15 A2992 RMK SC3ACC1 SLP134 DENSITY ALT 700FT

CYGK;2017-07-02 11:35;CYGK 021135Z 26005KT 220V280 15SM BKN017 17/14 A2993 RMK SC7 SLP138 DENSITY ALT 700FT

CYGK;2017-07-02 12:00;CYGK 021200Z 26003KT 220V290 15SM BKN015 18/14 A2993 RMK SC7 SLP138 DENSITY ALT 700FT

CYGK;2017-07-02 13:00;CYGK 021300Z 22006KT 15SM BKN016 18/15 A2995 RMK SC7 SLP143 DENSITY ALT 800FT

CYGK;2017-07-02 14:00;CYGK 021400Z 23007KT 15SM BKN017 19/15 A2996 RMK SC7 SLP146 DENSITY ALT 800FT

CYGK;2017-07-02 15:00;CYGK 021500Z 25008KT 15SM BKN020 20/15 A2996 RMK SC7 SLP146 DENSITY ALT 900FT

CYGK;2017-07-02 16:00;CYGK 021600Z 23006KT 190V260 15SM BKN023 21/17 A2996 RMK CU6 SLP148 DENSITY ALT 1000FT

CYGK;2017-07-02 17:00;CYGK 021700Z 18011KT 15SM SCT030 SCT120 21/16 A2995 RMK CU3AC1 SLP144 DENSITY ALT 1100FT

CYGK;2017-07-02 18:00;CYGK 021800Z 18013KT 15SM SCT030 SCT250 21/17 A2995 RMK CU3CI1 SLP142 DENSITY ALT 1100FT

CYGK;2017-07-02 19:00;CYGK 021900Z 23011KT 15SM FEW030 SCT120 24/17 A2993 RMK CU2AC1 SLP137 DENSITY ALT 1400FT

CYGK;2017-07-02 20:00;CYGK 022000Z 19012KT 15SM FEW030 SCT130 21/17 A2992 RMK CU1AC2 SHWRS NW SLP135 DENSITY ALT 1200FT

CYGK;2017-07-02 21:00;CYGK 022100Z CCA 22007KT 15SM FEW030 BKN098 22/16 A2990 RMK CU1AC6 SH NW SLP128 DENSITY ALT 1300FT

CYGK;2017-07-02 22:00;CYGK 022200Z 22004KT 180V250 15SM VCSH FEW030TCU BKN093 20/18 A2990 RMK TCU2AC5 SLP127 DENSITY ALT 1100FT

CYGK;2017-07-02 22:20;CYGK 022220Z 26005KT 15SM -SHRA SCT020TCU BKN092 22/16 A2991 RMK TCU3AC4 SLP130 DENSITY ALT 1200FT

CYGK;2017-07-02 22:48;CYGK 022248Z 27007KT 15SM SCT025TCU BKN078 20/17 A2989 RMK TCU3AC2 TCU SW PRESFR SLP125 DENSITY ALT 1100FT

CYGK;2017-07-02 23:00;CYGK 022300Z 23008KT 220V280 15SM SCT025TCU BKN085 21/18 A2990 RMK TCU3AC2 TCU SE SLP127 DENSITY ALT 1200FT

CYGK;2017-07-03 00:00;CYGK 030000Z 20006KT 15SM FEW030 FEW140 20/18 A2989 RMK CU1AC1 SLP123 DENSITY ALT 1000FT

CYGK;2017-07-03 01:00;CYGK 030100Z 21007KT 15SM FEW030 FEW140 SCT270 18/17 A2988 RMK CU1AC1CI3 AC TR CB TOP DIST NW SLP119 DENSITY ALT 900FT

CYGK;2017-07-03 01:39;CYGK 030139Z 28010G19KT 220V300 10SM -TSRA OVC017CB 18/17 A2991 RMK CB8 FRQ LTG IC NW - NE PRESRR SLP129 DENSITY ALT 800FT

CYGK;2017-07-03 01:46;CYGK 030146Z 29018G33KT 230V310 2 1/2SM TSRA OVC018CB 17/15 A2995 RMK CB8 WSHFT 0138 FRQ LTNG IC NW-NE MOVG E PRESRR SLP144 DENSITY ALT 600FT

CYGK;2017-07-03 02:00;CYGK 030200Z 31012G17KT 4SM -TSRA OVC019CB 16/15 A2993 RMK CB8 OCNL LTNG IC NE - E MOVG E PRESFR SLP137 DENSITY ALT 500FT

CYGK;2017-07-03 02:17;CYGK 030217Z 30005KT 8SM -SHRA FEW018CB BKN035 OVC082 16/15 A2992 RMK CB2SC4AC2 LTNG DIST SE SLP134 DENSITY ALT 500FT

CYGK;2017-07-03 02:48;CYGK 030248Z 22006KT 190V260 15SM SCT058 OVC079 16/15 A2992 RMK SC4AC4 SLP132 DENSITY ALT 500FT

CYGK;2017-07-03 03:00;CYGK 030300Z 24007KT 15SM FEW015 SCT048 OVC074 16/15 A2992 RMK CF1SC3AC4 LAST STFD OBS/NEXT 031000 UTC SLP133 DENSITY ALT 500FT

CYGK;2017-07-03 10:00;CYGK 031000Z 29004KT 15SM FEW080 14/14 A2996 RMK AC1 SLP146

CYGK;2017-07-03 11:00;CYGK 031100Z 29005KT 15SM FEW020 FEW080 FEW240 15/14 A2997 RMK CU1AC1CI1 CU TR CI TR SLP150 DENSITY ALT 400FT

CYGK;2017-07-03 12:00;CYGK 031200Z 30007KT 15SM FEW020 FEW080 FEW240 17/15 A2999 RMK CU1AC1CI1 CU TR AC TR CI TR SLP156 DENSITY ALT 600FT

CYGK;2017-07-03 13:00;CYGK 031300Z 28006KT 15SM FEW015 FEW250 19/15 A3000 RMK SF1CI2 SF TR SLP159 DENSITY ALT 800FT

CYGK;2017-07-03 14:00;CYGK 031400Z 28008KT 260V330 15SM FEW015 FEW240 21/15 A3000 RMK CU2CI1 CI TR SLP161 DENSITY ALT 1000FT

CYGK;2017-07-03 15:00;CYGK 031500Z 27008KT 15SM FEW025 SCT250 22/15 A3000 RMK CU2CI1 SLP160 DENSITY ALT 1100FT

CYGK;2017-07-03 16:00;CYGK 031600Z 28008KT 260V320 15SM SCT025 SCT250 22/15 A3000 RMK CU4CI1 CI TR SLP161 DENSITY ALT 1200FT

CYGK;2017-07-03 17:00;CYGK 031700Z 25006KT 220V320 15SM BKN035 23/15 A3000 RMK CU5 SLP159 DENSITY ALT 1200FT

CYGK;2017-07-03 18:00;CYGK 031800Z 31007KT 15SM SCT040 22/14 A3000 RMK CU4 SLP159 DENSITY ALT 1200FT

CYGK;2017-07-03 19:00;CYGK 031900Z 23010KT 15SM SCT050 24/14 A2999 RMK CU4 SLP157 DENSITY ALT 1300FT

CYGK;2017-07-03 20:00;CYGK 032000Z 23008KT 15SM SCT050 BKN070 23/14 A3000 RMK CU4AC1 SLP159 DENSITY ALT 1200FT

CYGK;2017-07-03 21:00;CYGK 032100Z 19009KT 15SM SCT045 SCT070 BKN270 22/18 A2999 RMK CU3AC1CI1 SLP157 DENSITY ALT 1100FT

CYGK;2017-07-03 22:00;CYGK 032200Z 20013KT 15SM SCT045 BKN270 21/18 A2999 RMK CU3CI2 SLP157 DENSITY ALT 1100FT

CYGK;2017-07-03 23:00;CYGK 032300Z 21008KT 15SM SCT050 SCT080 BKN270 21/17 A3000 RMK CU3AC1CI2 SHWRS N-NE SLP159 DENSITY ALT 1000FT

CYGK;2017-07-03 23:42;CYGK 032342Z 22007KT 15SM FEW020 FEW040CB SCT090 BKN270 21/17 A3000 RMK CF1CB2AC1CI2 CF TR CB LINE DVLPG NW-E SHWRS NW SLP159 DENSITY ALT 1000FT

CYGK;2017-07-04 00:00;CYGK 040000Z 24009KT 15SM VCSH FEW015 FEW035CB SCT090 SCT270 21/16 A3000 RMK CF1CB2AC1CI1 CF TR CB LINE NW-E SLP160 DENSITY ALT 1000FT

CYGK;2017-07-04 00:11;CYGK 040011Z 25009G15KT 15SM TS VCSH FEW005 SCT035CB BKN090 BKN270 21/16 A3001 RMK SF1CB3AC2CI1 SF TR VIS N 5 CB LIN NW-E SLP163 DENSITY ALT 1000FT

CYGK;2017-07-04 00:16;CYGK 040016Z 29008G15KT 230V300 15SM -TSRA FEW005 SCT030CB BKN045 BKN270 20/17 A3001 RMK SF1CB3SC3CI1 SF TR VIS N-NE 2 CB LINE NW-E SLP164 DENSITY ALT 900FT

CYGK;2017-07-04 00:21;CYGK 040021Z 34011KT 250V350 15SM -TSRA FEW005 SCT030CB BKN047 BKN270 19/17 A3002 RMK SF1CB4SC2CI1 SF TR WSHFT 0015 VIS E 3 PRESRR SLP166 DENSITY ALT 800FT

CYGK;2017-07-04 00:45;CYGK 040045Z 00000KT 15SM VCSH FEW008 FEW030CB SCT045 BKN080 19/17 A3002 RMK SF1CB1SC2AC4 SF TR SLP168 DENSITY ALT 700FT

CYGK;2017-07-04 01:00;CYGK 040100Z 24003KT 180V260 15SM VCSH FEW008 FEW030CB SCT045 BKN090 19/16 A3002 RMK SF1CB1SC2AC3 SF TR SLP166 DENSITY ALT 800FT

CYGK;2017-07-04 02:00;CYGK 040200Z 30003KT 15SM VCSH FEW040 BKN100 17/17 A3004 RMK SC2AC4 SLP173 DENSITY ALT 500FT

CYGK;2017-07-04 03:00;CYGK 040300Z 26003KT 15SM FEW040 FEW100 17/15 A3005 RMK SC1AC1 LAST STFD OBS/NEXT 041000UTC SLP176 DENSITY ALT 500FT

CYGK;2017-07-04 10:00;CYGK 041000Z 35007KT 15SM FEW090 14/13 A3007 RMK AC2 SLP186

CYGK;2017-07-04 11:00;CYGK 041100Z 00000KT 15SM FEW090 FEW240 16/14 A3010 RMK AC1CI1 AC TR CI TR SLP195

CYGK;2017-07-04 12:00;CYGK 041200Z VRB02KT 15SM FEW120 FEW240 18/14 A3012 RMK AC1CI1 AC TR CI TR SLP200 DENSITY ALT 500FT

CYGK;2017-07-04 13:00;CYGK 041300Z 17004KT 130V200 15SM FEW250 19/14 A3013 RMK CI1 CI TR SLP206 DENSITY ALT 700FT

CYGK;2017-07-04 14:00;CYGK 041400Z 17005KT 15SM FEW240 20/14 A3014 RMK CI1 SLP207 DENSITY ALT 700FT

CYGK;2017-07-04 15:00;CYGK 041500Z 19003KT 15SM FEW030 FEW250 21/14 A3014 RMK CU1CI1 SLP207 DENSITY ALT 800FT

CYGK;2017-07-04 16:00;CYGK 041600Z 17005KT 15SM SCT030 SCT240 22/14 A3013 RMK CU3CI1 CI TR SLP206 DENSITY ALT 1000FT

CYGK;2017-07-04 17:00;CYGK 041700Z 19007KT 15SM FEW030 BKN085 21/15 A3012 RMK CU1CU4 SLP203 DENSITY ALT 900FT

CYGK;2017-07-04 18:00;CYGK 041800Z 18008KT 15SM BKN080 23/12 A3012 RMK CU5 SLP201 DENSITY ALT 1100FT

CYGK;2017-07-04 19:00;CYGK 041900Z 19009KT 15SM SCT090 24/14 A3011 RMK CU4 SLP198 DENSITY ALT 1200FT

CYGK;2017-07-04 20:00;CYGK 042000Z 20008KT 15SM SCT085 25/12 A3011 RMK CU4 SLP198 DENSITY ALT 1300FT

CYGK;2017-07-04 21:00;CYGK 042100Z 19009KT 15SM FEW088 23/15 A3011 RMK AC2 SLP198 DENSITY ALT 1100FT

CYGK;2017-07-04 22:00;CYGK 042200Z 21007KT 15SM FEW080 23/11 A3011 RMK AC2 SLP198 DENSITY ALT 1200FT

CYGK;2017-07-04 23:00;CYGK 042300Z 16005KT 15SM FEW080 23/15 A3011 RMK AC1 SLP197 DENSITY ALT 1100FT

CYGK;2017-07-05 00:00;CYGK 050000Z 22003KT 15SM FEW080 FEW230 22/14 A3012 RMK AC1CI1 AC TR SLP199 DENSITY ALT 1000FT

CYGK;2017-07-05 01:00;CYGK 050100Z 00000KT 15SM FEW080 FEW230 19/14 A3013 RMK AC1CI1 AC TR SLP205 DENSITY ALT 600FT

CYGK;2017-07-05 02:00;CYGK 050200Z 00000KT 15SM FEW080 18/14 A3015 RMK AC1 AC TR SLP212 DENSITY ALT 500FT

CYGK;2017-07-05 03:00;CYGK 050300Z 28003KT 15SM SKC 17/13 A3016 RMK LAST STFD OBS/NEXT 051000UTC SLP215 DENSITY ALT 400FT

CYGK;2017-07-05 10:00;CYGK 051000Z 36002KT 15SM FEW100 FEW250 12/12 A3019 RMK AC1CI1 AC TR CI TR SLP224

CYGK;2017-07-05 11:00;CYGK 051100Z 00000KT 15SM FEW100 FEW250 15/14 A3021 RMK AC1CI1 AC TR SLP232

CYGK;2017-07-05 12:00;CYGK 051200Z 14002KT 15SM FEW010 FEW250 20/19 A3022 RMK SC1CI1 SC TR SLP236 DENSITY ALT 600FT

CYGK;2017-07-05 12:22;CYGK 051222Z 16004G27KT 130V210 15SM FEW003 SCT250 20/20 A3023 RMK SF2CI1 SLP239 DENSITY ALT 700FT

CYGK;2017-07-05 13:00;CYGK 051300Z 16005KT 15SM FEW003 FEW250 20/19 A3023 RMK SF1CI1 SF TR CI TR SLP238 DENSITY ALT 700FT

CYGK;2017-07-05 14:00;CYGK 051400Z 16004KT 140V200 15SM FEW015 FEW250 21/18 A3022 RMK CF1CI2 CF TR SLP236 DENSITY ALT 800FT

CYGK;2017-07-05 15:00;CYGK 051500Z 18005KT 15SM FEW020 FEW240 22/14 A3021 RMK CU1CI1 CU TR CI TR SLP232 DENSITY ALT 900FT

CYGK;2017-07-05 16:00;CYGK 051600Z 20006KT 15SM FEW025 FEW240 23/15 A3020 RMK CU1CI1 CI TR SLP228 DENSITY ALT 1000FT

CYGK;2017-07-05 17:00;CYGK 051700Z 17006KT 15SM FEW030 FEW250 24/13 A3018 RMK CU1CI1 SLP222 DENSITY ALT 1100FT

CYGK;2017-07-05 18:00;CYGK 051800Z 20006KT 15SM FEW035 FEW250 25/10 A3017 RMK CU1CI1 SLP218 DENSITY ALT 1300FT

CYGK;2017-07-05 19:00;CYGK 051900Z 23004KT 170V260 15SM FEW060 26/08 A3016 RMK CU1 SLP216 DENSITY ALT 1400FT

CYGK;2017-07-05 20:00;CYGK 052000Z 16004KT 140V200 15SM FEW060 FEW100 FEW250 26/08 A3014 RMK CU1ACC1CI1 CU TR ACC TR CI TR SLP208 DENSITY ALT 1400FT

CYGK;2017-07-05 21:00;CYGK 052100Z 18005KT 15SM FEW060 26/08 A3012 RMK CU1 CU TR SLP203 DENSITY ALT 1400FT

CYGK;2017-07-05 22:00;CYGK 052200Z 17005KT 14SM FEW060 FEW150 FEW250 26/08 A3011 RMK CU1AC1CI1 CU TR AC TR SLP197 DENSITY ALT 1400FT

CYGK;2017-07-05 23:00;CYGK 052300Z 18003KT 15SM FEW150 FEW250 25/10 A3009 RMK AC1CI2 AC TR SLP191 DENSITY ALT 1400FT

CYGK;2017-07-06 00:00;CYGK 060000Z 00000KT 15SM FEW065 FEW250 24/15 A3009 RMK SC1CI1 SLP189 DENSITY ALT 1300FT

CYGK;2017-07-06 01:00;CYGK 060100Z 00000KT 15SM SCT070 SCT250 22/13 A3008 RMK AC3CI1 SLP186 DENSITY ALT 1000FT

CYGK;2017-07-06 02:00;CYGK 060200Z 33005KT 15SM BKN075 20/13 A3008 RMK AC5 SLP187 DENSITY ALT 900FT

CYGK;2017-07-06 03:00;CYGK 060300Z 08002KT 15SM BKN070 20/15 A3006 RMK AC5 LAST STFD OBS/NEXT 061000 UTC SLP182 DENSITY ALT 900FT

CYGK;2017-07-06 10:00;CYGK 061000Z 22005KT 15SM FEW070 SCT230 20/19 A3001 RMK AC1CI3 SLP163 DENSITY ALT 900FT

CYGK;2017-07-06 11:00;CYGK 061100Z 20009KT 15SM FEW080 SCT240 21/19 A3001 RMK AC1CI4 AC TR SLP163 DENSITY ALT 1000FT

CYGK;2017-07-06 12:00;CYGK 061200Z 19010KT 15SM BKN240 22/19 A3001 RMK CI5 SLP164 DENSITY ALT 1100FT

CYGK;2017-07-06 13:00;CYGK 061300Z 19011KT 15SM FEW020 BKN230 22/19 A3003 RMK CF1CI6 CF TR SLP169 DENSITY ALT 1200FT

CYGK;2017-07-06 14:00;CYGK 061400Z 18012KT 15SM FEW020 FEW120 BKN230 22/19 A3001 RMK CF1ACC1CI6 CF TR ACC TR SLP165 DENSITY ALT 1200FT

CYGK;2017-07-06 15:00;CYGK 061500Z 19011KT 15SM FEW025 FEW160 BKN220 23/20 A3001 RMK CU1AC1CI7 CU TR AC TR SLP163 DENSITY ALT 1300FT

CYGK;2017-07-06 16:00;CYGK 061600Z 19011KT 15SM FEW025 FEW150 BKN220 23/20 A3000 RMK CU1AC1CI6 AC TR SLP160 DENSITY ALT 1200FT

CYGK;2017-07-06 17:00;CYGK 061700Z 18011KT 15SM FEW025 FEW160 BKN200 23/20 A2999 RMK CU1AC1CI6 CU TR SLP157 DENSITY ALT 1300FT

CYGK;2017-07-06 18:00;CYGK 061800Z 19013KT 15SM FEW025 FEW160 BKN200 23/20 A2998 RMK CU1AC2CI5 CU TR SLP153 DENSITY ALT 1300FT

CYGK;2017-07-06 19:00;CYGK 061900Z 19014KT 12SM FEW030 SCT150 BKN200 23/20 A2996 RMK CU1AC3CI4 CU TR SLP147 DENSITY ALT 1300FT

CYGK;2017-07-06 20:00;CYGK 062000Z 19011KT 15SM FEW030 FEW170 BKN220 23/20 A2994 RMK CF1AC2CI3 CF TR SLP139 DENSITY ALT 1300FT

CYGK;2017-07-06 21:00;CYGK 062100Z 20011KT 15SM FEW140 FEW180 SCT250 25/20 A2992 RMK AC2AC1CI1 AC TR SLP131 DENSITY ALT 1500FT

CYGK;2017-07-06 22:00;CYGK 062200Z 19007KT 15SM SCT250 24/20 A2990 RMK CI3 SLP125 DENSITY ALT 1500FT

CYGK;2017-07-06 23:00;CYGK 062300Z 20006KT 15SM FEW040 SCT250 24/20 A2988 RMK CU2CI1 SLP120 DENSITY ALT 1500FT

CYGK;2017-07-07 00:00;CYGK 070000Z 22005KT 15SM FEW035 SCT250 23/20 A2988 RMK CU2CI2 SLP119 DENSITY ALT 1400FT

CYGK;2017-07-07 01:00;CYGK 070100Z 27003KT 15SM FEW035 BKN250 22/20 A2987 RMK CU1CI4 SLP116 DENSITY ALT 1200FT

CYGK;2017-07-07 02:00;CYGK 070200Z 18005KT 15SM FEW035 FEW140 BKN250 22/20 A2986 RMK CU1AC2CI3 CU TR SLP113 DENSITY ALT 1300FT

CYGK;2017-07-07 03:00;CYGK 070300Z 20004KT 15SM FEW140 SCT250 22/21 A2986 RMK AC1CI4 AC TR LAST STFD OBS/NEXT 071000 UTC SLP111 DENSITY ALT 1300FT

CYGK;2017-07-07 10:00;CYGK 071000Z 20004KT 10SM SCT062 BKN160 BKN240 20/20 A2979 RMK SC3AC2CI2 SLP088 DENSITY ALT 1200FT

CYGK;2017-07-07 11:00;CYGK 071100Z 23004KT 10SM FEW005 SCT060 SCT180 BKN250 21/20 A2980 RMK SF1SC3AC1CI3 SF TR SLP091 DENSITY ALT 1300FT

CYGK;2017-07-07 12:00;CYGK 071200Z 18006KT 10SM FEW003 FEW060 BKN170 21/21 A2978 RMK SF1SC1AC6 SF TR SLP086 DENSITY ALT 1300FT

CYGK;2017-07-07 13:00;CYGK 071300Z 18006KT 15SM FEW004 SCT060 BKN160 21/21 A2979 RMK CF1SC2AC4 VIS LWR SE SLP089 DENSITY ALT 1300FT

CYGK;2017-07-07 14:00;CYGK 071400Z 19008KT 10SM FEW005 FEW060 BKN160 22/21 A2978 RMK CF1SC1AC5 SLP085 DENSITY ALT 1400FT

CYGK;2017-07-07 15:00;CYGK 071500Z 19008KT 170V240 15SM FEW010 FEW060 SCT140 BKN180 23/21 A2977 RMK CU1SC1AC2AC3 SLP082 DENSITY ALT 1500FT

CYGK;2017-07-07 16:00;CYGK 071600Z 18008KT 12SM FEW010 BKN130 22/21 A2975 RMK CU1AC5 SLP077 DENSITY ALT 1500FT

CYGK;2017-07-07 17:00;CYGK 071700Z 19011KT 12SM FEW012 BKN120 BKN220 23/21 A2975 RMK CU1AC5CI1 SLP073 DENSITY ALT 1500FT

CYGK;2017-07-07 18:00;CYGK 071800Z 19010KT 12SM FEW012CB SCT080 BKN120 BKN220 23/21 A2973 RMK CB1AC3AC2CI1 CB NE SLP069 DENSITY ALT 1600FT

CYGK;2017-07-07 19:00;CYGK 071900Z 20011KT 12SM FEW025TCU FEW078 OVC230 23/21 A2972 RMK TCU1AC1CI6 SLP064 DENSITY ALT 1600FT

CYGK;2017-07-07 20:00;CYGK 072000Z 19008KT 15SM FEW025TCU FEW140 BKN240 25/20 A2970 RMK TCU1AC1CI5 TCU NW-NE SLP058 DENSITY ALT 1800FT

CYGK;2017-07-07 21:00;CYGK 072100Z 19010KT 15SM FEW025TCU SCT140 BKN240 25/20 A2969 RMK TCU2AC1CI3 SLP053 DENSITY ALT 1800FT

CYGK;2017-07-07 22:00;CYGK 072200Z 19009KT 15SM FEW025CB FEW120 BKN240 24/20 A2967 RMK CB2AC1CI4 AC TR CB DIST N-NE SLP048 DENSITY ALT 1800FT

CYGK;2017-07-07 23:00;CYGK 072300Z 02011G16KT 15SM BKN035 BKN240 23/17 A2969 RMK SC6CI1 TCU EMBD SLP055 DENSITY ALT 1600FT

CYGK;2017-07-08 00:00;CYGK 080000Z 02006KT 15SM BKN042 BKN240 22/17 A2970 RMK SC5CI2 SLP059 DENSITY ALT 1500FT

CYGK;2017-07-08 00:36;CYGK 080036Z 05004KT 360V070 15SM -SHRA SCT042 BKN240 22/17 A2970 RMK SC4CI2 TCU EMBD SLP059 DENSITY ALT 1400FT

CYGK;2017-07-08 01:00;CYGK 080100Z 07005KT 360V080 15SM -SHRA BKN040 BKN220 20/19 A2971 RMK SC5CI2 TCU EMBD SLP063 DENSITY ALT 1200FT

CYGK;2017-07-08 01:47;CYGK 080147Z 02002KT 15SM BKN045 BKN140 BKN240 20/19 A2972 RMK SC5AC1CI1 SLP065 DENSITY ALT 1200FT

CYGK;2017-07-08 02:00;CYGK 080200Z 00000KT 15SM SCT043 BKN150 BKN240 19/19 A2972 RMK SC4AC1CI1 SLP065 DENSITY ALT 1100FT

CYGK;2017-07-08 03:00;CYGK 080300Z 00000KT 15SM FEW040 SCT100 BKN220 19/19 A2971 RMK SC2AC2CI1 LAST STFD OBS/NEXT 081000 UTC SLP063 DENSITY ALT 1100FT

CYGK;2017-07-08 10:00;CYGK 081000Z 30004KT 270V330 15SM FEW004 SCT030 BKN070 BKN230 18/17 A2966 RMK SF1SC3AC3CI1 SF TR SLP046 DENSITY ALT 1100FT

CYGK;2017-07-08 11:00;CYGK 081100Z VRB02KT 15SM FEW004 FEW030 SCT070 BKN220 18/17 A2967 RMK SF1SC1AC2CI4 SF TR SLP050 DENSITY ALT 1000FT

CYGK;2017-07-08 12:00;CYGK 081200Z 01004KT 15SM FEW012 BKN035 BKN070 19/18 A2969 RMK CF2SC4AC1 SLP053 DENSITY ALT 1100FT

CYGK;2017-07-08 12:23;CYGK 081223Z 02006KT 350V050 15SM BKN015 OVC035 19/18 A2969 RMK SC5SC3 SLP056 DENSITY ALT 1200FT

CYGK;2017-07-08 13:00;CYGK 081300Z 02005KT 15SM SCT009 BKN035 BKN050 BKN140 20/18 A2970 RMK SF3CU2SC1AC1 SLP059 DENSITY ALT 1200FT

CYGK;2017-07-08 14:00;CYGK 081400Z 33004KT 15SM FEW009 SCT015 BKN032 21/17 A2972 RMK SF1SC2SC4 SLP064 DENSITY ALT 1300FT

CYGK;2017-07-08 15:00;CYGK 081500Z 33009KT 15SM SCT013 BKN019 BKN250 21/18 A2972 RMK CF4CU2CI1 SLP067 DENSITY ALT 1400FT

CYGK;2017-07-08 16:00;CYGK 081600Z 33009G15KT 15SM BKN019 BKN035 21/17 A2973 RMK CU5SC2 SLP070 DENSITY ALT 1300FT

CYGK;2017-07-08 17:00;CYGK 081700Z 32011KT 280V340 15SM SCT030 BKN075 23/16 A2973 RMK CU4AC1 TCU TOPS DIST N SLP069 DENSITY ALT 1600FT

CYGK;2017-07-08 18:00;CYGK 081800Z 27006KT 240V300 15SM SCT034TCU BKN090 23/17 A2973 RMK TCU4AC1 SHWRS NW + NE CB NW SLP069 DENSITY ALT 1600FT

CYGK;2017-07-08 18:25;CYGK 081825Z 33006KT 15SM TS BKN031CB 23/17 A2973 RMK CB6 CB W SLP068 DENSITY ALT 1600FT

CYGK;2017-07-08 18:35;CYGK 081835Z 33004KT 15SM TS VCSH BKN035 BKN100 23/16 A2973 RMK CU6AC1 CB W MOVG E SH W  NE SLP068 DENSITY ALT 1600FT

CYGK;2017-07-08 18:37;CYGK 081837Z 31006KT 290V350 15SM -TSRA BKN035CB BKN100 23/16 A2973 RMK CB6AC1 CB W SLP069 DENSITY ALT 1600FT

CYGK;2017-07-08 19:00;CYGK 081900Z 26011G17KT 15SM -TSRA BKN035CB BKN070 BKN100 19/17 A2974 RMK CB5AC2AC1 AC TR CB OVHD MOVG SE OCNL LTNG SE VIS SE 4 SLP073 DENSITY ALT 1100FT

CYGK;2017-07-08 19:31;CYGK 081931Z 31005KT 15SM -SHRA SCT035CB BKN100 BKN250 21/18 A2975 RMK CB4AC2CI1 CB DIST SE AND S SLP074 DENSITY ALT 1300FT

CYGK;2017-07-08 19:43;CYGK 081943Z 30005KT 15SM SCT035CB BKN100 BKN250 21/17 A2974 RMK CB3AC2CI1 CB DIST SE AND S TCU W-NE SH N  NE AND SE-S SLP073 DENSITY ALT 1300FT

CYGK;2017-07-08 20:00;CYGK 082000Z 29004KT 240V310 15SM SCT035CB BKN100 BKN250 22/18 A2975 RMK CB4AC1CI2 CB SE-S TCU W-E SH NE SLP075 DENSITY ALT 1500FT

CYGK;2017-07-08 21:00;CYGK 082100Z 32009KT 280V340 15SM BKN035CB BKN100 22/15 A2976 RMK CB6AC1 CB SE MOVG E TCU ALQDS SLP078 DENSITY ALT 1500FT

CYGK;2017-07-08 21:11;CYGK 082111Z 30006KT 15SM -SHRA BKN038CB BKN100 22/15 A2976 RMK CB6AC1 CB DIST SE TCU ALQDS SLP079 DENSITY ALT 1400FT

CYGK;2017-07-08 21:24;CYGK 082124Z 30008KT 280V350 15SM BKN040CB BKN100 24/15 A2976 RMK CB6AC1 CB DIST SE TCU SW-NW SLP079 DENSITY ALT 1600FT

CYGK;2017-07-08 22:00;CYGK 082200Z 31005KT 15SM BKN050TCU 23/15 A2977 RMK TCU6 SLP082 DENSITY ALT 1500FT

CYGK;2017-07-08 23:00;CYGK 082300Z 30009KT 15SM BKN060TCU 23/13 A2978 RMK TCU5 TCU NE-SE SLP085 DENSITY ALT 1500FT

CYGK;2017-07-09 00:00;CYGK 090000Z 31006KT 15SM FEW070TCU 22/12 A2980 RMK TCU1 TCU E-SE SLP092 DENSITY ALT 1300FT

CYGK;2017-07-09 01:00;CYGK 090100Z 27004KT 15SM FEW070TCU FEW250 20/11 A2981 RMK TCU1CI1 CI TR TCU DIST E-SE SLP095 DENSITY ALT 1100FT

CYGK;2017-07-09 02:00;CYGK 090200Z 28006KT 15SM FEW070 FEW250 18/11 A2983 RMK AC1CI1 AC TR CI TR SLP102 DENSITY ALT 900FT

CYGK;2017-07-09 03:00;CYGK 090300Z 28009G16KT 15SM FEW080 18/11 A2985 RMK AC2 LAST STFD OBS/NEXT 091000 UTC SLP109 DENSITY ALT 900FT

CYGK;2017-07-09 10:00;CYGK 091000Z 26006KT 15SM SCT200 BKN250 16/11 A2989 RMK CI3CI2 SLP122 DENSITY ALT 500FT

CYGK;2017-07-09 11:00;CYGK 091100Z 25006KT 15SM FEW150 SCT200 BKN250 17/13 A2990 RMK AC2CI2CI1 SLP127 DENSITY ALT 600FT

CYGK;2017-07-09 12:00;CYGK 091200Z 25011KT 15SM SCT180 BKN220 19/13 A2992 RMK AC3CI2 SLP134 DENSITY ALT 800FT

CYGK;2017-07-09 13:00;CYGK 091300Z 28009G15KT 15SM FEW025 SCT110 20/14 A2993 RMK CU1AC4 CU TR SLP137 DENSITY ALT 1000FT

CYGK;2017-07-09 14:00;CYGK 091400Z 26006KT 15SM FEW030 BKN090 21/14 A2994 RMK CU1AC6 CU TR SLP139 DENSITY ALT 1100FT

CYGK;2017-07-09 15:00;CYGK 091500Z 25008KT 15SM FEW030 BKN090 21/14 A2994 RMK CU1AC7 CU TR SLP141 DENSITY ALT 1000FT

CYGK;2017-07-09 16:00;CYGK 091600Z 23012KT 15SM FEW035 BKN100 BKN250 23/15 A2995 RMK CU2AC3CI1 SLP142 DENSITY ALT 1300FT

CYGK;2017-07-09 17:00;CYGK 091700Z 21010G18KT 15SM SCT035 BKN080 BKN120 23/16 A2994 RMK CU3AC2AC2 SLP139 DENSITY ALT 1300FT

CYGK;2017-07-09 18:00;CYGK 091800Z 23013G18KT 15SM VCSH SCT040TCU BKN100 23/16 A2993 RMK TCU3AC2 SLP136 DENSITY ALT 1300FT

CYGK;2017-07-09 18:24;CYGK 091824Z 22013KT 15SM -SHRA FEW030 FEW040TCU BKN100 BKN210 23/16 A2993 RMK CF1TCU2AC4CI1 CF TR SLP137 DENSITY ALT 1300FT

CYGK;2017-07-09 18:39;CYGK 091839Z 21012G18KT 15SM FEW030 SCT040TCU BKN095 24/17 A2992 RMK CF1TCU3AC3 CF TR SLP134 DENSITY ALT 1500FT

CYGK;2017-07-09 19:00;CYGK 091900Z 22013KT 15SM FEW030 FEW045TCU SCT095 BKN130 24/16 A2992 RMK CF1TCU2AC1AC3 CF TR SLP133 DENSITY ALT 1500FT

CYGK;2017-07-09 20:00;CYGK 092000Z 23015G22KT 15SM VCSH FEW020 FEW030TCU BKN090 BKN120 23/15 A2992 RMK CF1TCU2AC3AC2 CF TR SLP134 DENSITY ALT 1300FT

CYGK;2017-07-09 21:00;CYGK 092100Z 25014G24KT 15SM FEW030TCU BKN110 23/14 A2992 RMK TCU2AC5 SLP134 DENSITY ALT 1400FT

CYGK;2017-07-09 22:00;CYGK 092200Z 26014G19KT 15SM FEW030TCU SCT090 BKN110 22/14 A2992 RMK TCU2AC1AC4 SLP135 DENSITY ALT 1200FT

CYGK;2017-07-09 23:00;CYGK 092300Z 23009KT 15SM FEW030TCU FEW080 BKN120 BKN250 21/16 A2992 RMK TCU1AC1AC5CI1 CI TR SLP132 DENSITY ALT 1200FT

CYGK;2017-07-10 00:00;CYGK 100000Z 25005KT 15SM FEW040TCU FEW100 BKN130 BKN250 21/16 A2992 RMK TCU1AC1AC6CI1 TCU TR CI TR SLP135 DENSITY ALT 1100FT

CYGK;2017-07-10 01:00;CYGK 100100Z 21007KT 15SM FEW040 BKN110 BKN250 20/15 A2992 RMK SC1AC6CI1 CI TR SLP133 DENSITY ALT 1100FT

CYGK;2017-07-10 02:00;CYGK 100200Z 23004KT 15SM FEW090 OVC110 20/17 A2993 RMK AC1AC7 SLP137 DENSITY ALT 1000FT

CYGK;2017-07-10 03:00;CYGK 100300Z 23005KT 15SM BKN090 OVC120 20/16 A2992 RMK AC6AC2 LAST STFD OBS/NEXT 101000 UTC SLP135 DENSITY ALT 1000FT

CYGK;2017-07-10 10:00;CYGK 101000Z 21008KT 15SM SCT090 OVC130 19/17 A2992 RMK AC3AC5 SLP135 DENSITY ALT 900FT

CYGK;2017-07-10 11:00;CYGK 101100Z 24006KT 15SM SCT085 BKN140 19/17 A2993 RMK AC4AC3 SLP137 DENSITY ALT 900FT

CYGK;2017-07-10 12:00;CYGK 101200Z 23006KT 15SM FEW080 BKN130 20/17 A2993 RMK AC2AC5 SLP138 DENSITY ALT 1000FT

CYGK;2017-07-10 13:00;CYGK 101300Z 22007KT 15SM FEW020 FEW080 BKN130 21/17 A2994 RMK CF1AC2AC4 CF TR SLP138 DENSITY ALT 1100FT

CYGK;2017-07-10 14:00;CYGK 101400Z 19010KT 15SM FEW030 FEW060 BKN120 22/18 A2994 RMK CF1SC2AC4 CF TR SLP138 DENSITY ALT 1200FT

CYGK;2017-07-10 15:00;CYGK 101500Z 19010KT 15SM FEW020 SCT066 OVC120 21/18 A2994 RMK CF1AC3AC5 CF TR SLP140 DENSITY ALT 1100FT

CYGK;2017-07-10 16:00;CYGK 101600Z 21011KT 15SM FEW060 OVC085 22/17 A2994 RMK SC2AC6 SLP139 DENSITY ALT 1200FT

CYGK;2017-07-10 17:00;CYGK 101700Z 19012KT 15SM FEW020 BKN080 23/18 A2993 RMK CF1AC7 CF TR SLP136 DENSITY ALT 1300FT

CYGK;2017-07-10 18:00;CYGK 101800Z 19012KT 15SM FEW030 BKN090 OVC250 23/19 A2993 RMK CU1AC5CI2 SLP135 DENSITY ALT 1400FT

CYGK;2017-07-10 19:00;CYGK 101900Z 19012KT 15SM FEW030TCU BKN080 BKN180 BKN250 24/18 A2993 RMK TCU1AC4AS1CI1 SLP135 DENSITY ALT 1400FT

CYGK;2017-07-10 20:00;CYGK 102000Z 19012KT 15SM FEW025TCU SCT088 BKN240 24/19 A2991 RMK TCU1AC3CI4 TCU TR SLP130 DENSITY ALT 1500FT

CYGK;2017-07-10 21:00;CYGK 102100Z 19010G15KT 15SM FEW030TCU FEW080 SCT180 BKN250 23/18 A2991 RMK TCU1AC2AS2CI2 TCU TR SLP128 DENSITY ALT 1400FT

CYGK;2017-07-10 22:00;CYGK 102200Z 20007KT 15SM FEW030TCU SCT075 BKN250 23/17 A2989 RMK TCU1ACC4CS3 TCU TR SLP123 DENSITY ALT 1400FT

CYGK;2017-07-10 23:00;CYGK 102300Z 19006KT 15SM FEW030TCU SCT075 BKN240 22/18 A2988 RMK TCU1AC3CS4 TCU TR SLP119 DENSITY ALT 1300FT

CYGK;2017-07-11 00:00;CYGK 110000Z 20006KT 15SM SCT070 BKN230 22/17 A2988 RMK AC3CS3 SLP120 DENSITY ALT 1300FT

CYGK;2017-07-11 01:00;CYGK 110100Z 22007KT 15SM BKN060 BKN150 BKN230 22/17 A2989 RMK SC5AC1CI1 SLP121 DENSITY ALT 1300FT

CYGK;2017-07-11 02:00;CYGK 110200Z 24009KT 15SM FEW040 SCT060 BKN090 BKN220 21/18 A2990 RMK SC1SC3AC2CI1 SLP127 DENSITY ALT 1200FT

CYGK;2017-07-11 03:00;CYGK 110300Z 22007KT 15SM FEW040 BKN080 BKN140 21/18 A2990 RMK SC2AC3AC1 LAST STFD OBS / NEXT 111000 UTC SLP125 DENSITY ALT 1100FT

CYGK;2017-07-11 10:00;CYGK 111000Z 18007KT 12SM SCT008 BKN025 OVC240 20/20 A2987 RMK SF4SC2CI2 SLP117 DENSITY ALT 1100FT

CYGK;2017-07-11 10:54;CYGK 111054Z 20009KT 10SM BKN008 OVC025 20/20 A2988 RMK SF6SC2 SLP120 DENSITY ALT 1100FT

CYGK;2017-07-11 11:00;CYGK 111100Z 21007KT 10SM BKN008 OVC025 20/20 A2988 RMK SF6SC2 SLP120 DENSITY ALT 1100FT

CYGK;2017-07-11 12:00;CYGK 111200Z 24006KT 10SM BKN007 OVC023 21/20 A2989 RMK SF5SC3 SLP123 DENSITY ALT 1100FT

CYGK;2017-07-11 12:27;CYGK 111227Z 24007KT 9SM SCT006 OVC023 21/20 A2990 RMK SF3SC5 SLP125 DENSITY ALT 1100FT

CYGK;2017-07-11 13:00;CYGK 111300Z 23007KT 15SM FEW006 SCT015 OVC025 21/20 A2990 RMK SF1CU3SC5 SF TR SLP127 DENSITY ALT 1100FT

CYGK;2017-07-11 14:00;CYGK 111400Z 25007KT 10SM FEW015 BKN034 22/19 A2991 RMK CU1SC5 SLP129 DENSITY ALT 1300FT

CYGK;2017-07-11 15:00;CYGK 111500Z 23008KT 200V270 12SM BKN030 24/20 A2991 RMK CU5 SLP128 DENSITY ALT 1400FT

CYGK;2017-07-11 16:00;CYGK 111600Z 23007KT 12SM BKN025 24/18 A2990 RMK CU5 SLP126 DENSITY ALT 1500FT

CYGK;2017-07-11 17:00;CYGK 111700Z 18010KT 10SM SCT020 BKN200 23/20 A2991 RMK CU4CI1 SLP128 DENSITY ALT 1300FT

CYGK;2017-07-11 18:00;CYGK 111800Z 19015KT 10SM FEW010 FEW020 SCT120 23/20 A2991 RMK SF1CU1AC1 SLP129 DENSITY ALT 1300FT

CYGK;2017-07-11 19:00;CYGK 111900Z 19013KT 10SM FEW025 23/20 A2991 RMK CU1 SLP129 DENSITY ALT 1400FT

CYGK;2017-07-11 20:00;CYGK 112000Z 19010G16KT 12SM FEW025TCU FEW120 SCT250 23/21 A2990 RMK TCU1AC1CI2 SLP127 DENSITY ALT 1400FT

CYGK;2017-07-11 21:00;CYGK 112100Z 19011KT 15SM FEW030TCU FEW120 SCT250 23/21 A2989 RMK TCU1AC1CI2 AC TR SLP121 DENSITY ALT 1400FT

CYGK;2017-07-11 22:00;CYGK 112200Z 19008KT 15SM FEW030TCU FEW120 FEW250 23/20 A2989 RMK TCU1AC1CI1 CI TR SLP121 DENSITY ALT 1400FT

CYGK;2017-07-11 23:00;CYGK 112300Z 19010KT 15SM FEW030CB FEW120 SCT250 23/20 A2988 RMK CB1AC1CI1 CB DIST N-NE SLP119 DENSITY ALT 1400FT

CYGK;2017-07-12 00:00;CYGK 120000Z 20006KT 15SM FEW030TCU FEW120 BKN250 21/20 A2988 RMK TCU1AC1CI5 TCU TR SLP120 DENSITY ALT 1200FT

CYGK;2017-07-12 01:00;CYGK 120100Z 20003KT 15SM FEW030TCU BKN250 21/19 A2989 RMK TCU1CI4 SLP121 DENSITY ALT 1100FT

CYGK;2017-07-12 02:00;CYGK 120200Z 16004KT 15SM SCT140 BKN250 20/20 A2992 RMK AC3CI3 SLP132 DENSITY ALT 1000FT

CYGK;2017-07-12 03:00;CYGK 120300Z 19005KT 15SM FEW140 BKN250 20/19 A2992 RMK AC2CI3 LAST STFD OBS / NEXT 121000 UTC SLP131 DENSITY ALT 1000FT

CYGK;2017-07-12 10:00;CYGK 121000Z 35004KT 10SM FEW080 SCT250 18/17 A2995 RMK AC2CI1 SLP142 DENSITY ALT 700FT

CYGK;2017-07-12 11:00;CYGK 121100Z 00000KT 12SM FEW010 FEW020 SCT080 19/19 A2996 RMK CF1SC1AC2 SLP148 DENSITY ALT 800FT

CYGK;2017-07-12 12:00;CYGK 121200Z 15005KT 15SM FEW010 SCT080 SCT250 21/20 A2997 RMK CU1AC3CI1 CU TR SLP150 DENSITY ALT 1100FT

CYGK;2017-07-12 13:00;CYGK 121300Z 16003KT 12SM FEW012 SCT150 BKN220 22/20 A2997 RMK CF1AC3CI1 SLP151 DENSITY ALT 1200FT

CYGK;2017-07-12 14:00;CYGK 121400Z VRB02KT 15SM FEW020 SCT050 SCT230 BKN250 24/20 A2999 RMK CU1SC2CC1CI3 SLP157 DENSITY ALT 1300FT

CYGK;2017-07-12 15:00;CYGK 121500Z 17008KT 15SM SCT025 BKN060 24/20 A2999 RMK SC4SC2 SLP156 DENSITY ALT 1300FT

CYGK;2017-07-12 15:09;CYGK 121509Z 17006KT 15SM SCT016 BKN025 BKN060 24/20 A2999 RMK CU3SC2SC2 SLP155 DENSITY ALT 1400FT

CYGK;2017-07-12 16:00;CYGK 121600Z 15003KT 140V220 15SM -SHRA SCT016TCU BKN032 BKN250 24/19 A2998 RMK TCU4SC2CI1 HVYR SH NW SLP153 DENSITY ALT 1400FT

CYGK;2017-07-12 17:00;CYGK 121700Z 36009KT 10SM -SHRA FEW008 BKN015 BKN030 OVC250 21/20 A3000 RMK CF1CU6SC1CI1 CF TR SLP159 DENSITY ALT 1000FT

CYGK;2017-07-12 17:27;CYGK 121727Z 01009KT 12SM -SHRA FEW008 BKN011TCU BKN018 OVC070 21/20 A2999 RMK SF1TCU4SC2AC1 SLP156 DENSITY ALT 1000FT

CYGK;2017-07-12 18:00;CYGK 121800Z 03009G16KT 15SM BKN009 BKN017 OVC070 22/20 A2998 RMK SF5SC2AC1 SLP155 DENSITY ALT 1100FT

CYGK;2017-07-12 18:12;CYGK 121812Z 04010KT 15SM SCT009 BKN030 BKN070 BKN250 22/20 A2998 RMK SF3SC2AC1CI1 SLP152 DENSITY ALT 1200FT

CYGK;2017-07-12 19:00;CYGK 121900Z 05012KT 10SM SCT010 OVC220 23/19 A2997 RMK SC4CI4 SLP148 DENSITY ALT 1300FT

CYGK;2017-07-12 20:00;CYGK 122000Z 02013KT 15SM FEW015 FEW090 BKN220 22/18 A2998 RMK SC1AC2CI5 SC TR SLP152 DENSITY ALT 1200FT

CYGK;2017-07-12 21:00;CYGK 122100Z 03012KT 12SM FEW090 OVC200 22/17 A2997 RMK AC2CI6 SLP150 DENSITY ALT 1100FT

CYGK;2017-07-12 22:00;CYGK 122200Z 03009G17KT 12SM SCT150 OVC250 21/16 A2998 RMK AC4CI4 SLP153 DENSITY ALT 1100FT

CYGK;2017-07-12 23:00;CYGK 122300Z 05011KT 12SM SCT090 BKN200 OVC220 20/15 A2996 RMK AC4CI2CI2 SLP146 DENSITY ALT 1000FT

CYGK;2017-07-13 00:00;CYGK 130000Z 05013KT 15SM SCT090 BKN150 OVC200 20/13 A2996 RMK AC4AC2CI2 SLP147 DENSITY ALT 900FT

CYGK;2017-07-13 00:29;CYGK 130029Z 05012G18KT 12SM -SHRA SCT090 OVC140 19/13 A2995 RMK AC4AC4 SLP145 DENSITY ALT 900FT

CYGK;2017-07-13 01:00;CYGK 130100Z 05009KT 8SM -SHRA SCT050 OVC080 18/14 A2997 RMK SC3AC5 SLP149 DENSITY ALT 700FT

CYGK;2017-07-13 02:00;CYGK 130200Z 05005KT 8SM -SHRA OVC045 16/13 A3000 RMK SC8 PRESRR SLP159 DENSITY ALT 500FT

CYGK;2017-07-13 03:00;CYGK 130300Z 04010G15KT 15SM FEW030 BKN040 OVC100 16/14 A2996 RMK SC2SC3AC3 LAST STFD OBS/NEXT 131000 UTC PRESFR SLP147 DENSITY ALT 500FT

CYGK;2017-07-13 10:00;CYGK 131000Z 02011G17KT 15SM SCT022 SCT120 BKN210 15/10 A2997 RMK SC3AC1CI3 SLP151 DENSITY ALT 400FT

CYGK;2017-07-13 11:00;CYGK 131100Z 03014G19KT 350V060 15SM SCT028 BKN080 BKN210 15/10 A3000 RMK SC4AC1CI2 SLP161 DENSITY ALT 400FT

CYGK;2017-07-13 12:00;CYGK 131200Z 02010G17KT 15SM FEW028 SCT080 BKN210 16/11 A3001 RMK SC2AC2CI3 SLP162 DENSITY ALT 400FT

CYGK;2017-07-13 13:00;CYGK 131300Z 02010KT 15SM FEW028 FEW080 BKN150 BKN240 16/11 A3004 RMK SC1AC1AC4CI2 AC TR PRESRR SLP174 DENSITY ALT 400FT

CYGK;2017-07-13 14:00;CYGK 131400Z 02009KT 15SM FEW028 SCT080 OVC140 16/12 A3003 RMK SC2AC2AS4 SLP171 DENSITY ALT 400FT

CYGK;2017-07-13 14:38;CYGK 131438Z 03011G17KT 15SM -RA FEW025 SCT080 BKN140 OVC240 16/12 A3003 RMK CU1AC2AC4CI1 SLP170 DENSITY ALT 400FT

CYGK;2017-07-13 15:00;CYGK 131500Z 03009G16KT 360V070 15SM -RA FEW016 BKN120 BKN240 15/13 A3004 RMK CU2AC3CI2 SLP175

CYGK;2017-07-13 15:29;CYGK 131529Z 05011G18KT 15SM SCT016 BKN140 OVC240 15/13 A3004 RMK CU3AC3CI2 SLP175

CYGK;2017-07-13 16:00;CYGK 131600Z 05012G17KT 15SM SCT015 BKN130 OVC240 16/13 A3005 RMK CU3AC3CI2 SLP178 DENSITY ALT 400FT

CYGK;2017-07-13 17:00;CYGK 131700Z 02012G17KT 15SM BKN017 BKN120 BKN240 17/13 A3005 RMK SC6AC1CI1 CI TR PRESRR SLP177 DENSITY ALT 500FT

CYGK;2017-07-13 18:00;CYGK 131800Z 05009KT 15SM BKN018 BKN030 BKN120 18/14 A3006 RMK SC5SC1AC1 SLP180 DENSITY ALT 600FT

CYGK;2017-07-13 19:00;CYGK 131900Z 05011G17KT 15SM SCT020 BKN110 19/14 A3004 RMK SC3AC4 PRESFR SLP176 DENSITY ALT 800FT

CYGK;2017-07-13 20:00;CYGK 132000Z 02012KT 360V080 15SM FEW025 BKN110 BKN240 20/14 A3004 RMK CU1AC5CI1 CU TR SLP173 DENSITY ALT 900FT

CYGK;2017-07-13 21:00;CYGK 132100Z 06014KT 15SM FEW020 BKN110 BKN220 22/15 A3002 RMK SC1AC4CI2 SLP168 DENSITY ALT 1100FT

CYGK;2017-07-13 22:00;CYGK 132200Z 05010KT 15SM SCT120 BKN220 21/14 A3002 RMK AC4CI2 SLP168 DENSITY ALT 1000FT

CYGK;2017-07-13 23:00;CYGK 132300Z 05009KT 020V080 15SM FEW120 BKN200 22/14 A3002 RMK AC2CI5 SLP168 DENSITY ALT 1100FT

CYGK;2017-07-14 00:00;CYGK 140000Z 07008KT 15SM SCT080 BKN200 20/13 A3002 RMK AC4CI3 SLP166 DENSITY ALT 900FT

CYGK;2017-07-14 01:00;CYGK 140100Z 06009KT 15SM BKN090 BKN200 19/13 A3001 RMK AC5CI1 SLP165 DENSITY ALT 800FT

CYGK;2017-07-14 02:00;CYGK 140200Z 05006KT 15SM FEW055 BKN090 BKN200 19/14 A3004 RMK SC2AC3CI2 SLP174 DENSITY ALT 800FT

CYGK;2017-07-14 03:00;CYGK 140300Z 06009KT 15SM OVC052 19/14 A3002 RMK SC8 LAST STFD OBS/NEXT 141000 UTC SLP169 DENSITY ALT 800FT

CYGK;2017-07-14 10:00;CYGK 141000Z 05008KT 15SM -SHRA FEW012 BKN030 17/16 A2997 RMK CF1SC7 CF TR CVCTV CLD ASOCTD SLP149 DENSITY ALT 600FT

CYGK;2017-07-14 11:00;CYGK 141100Z 02007KT 360V070 15SM -SHRA FEW012 BKN016 17/16 A2996 RMK CF1SC7 CF TR CVCTV CLD EMBD SLP148 DENSITY ALT 600FT

CYGK;2017-07-14 12:00;CYGK 141200Z 05006KT 12SM VCSH OVC012 17/16 A2995 RMK SC8 CVCTV CLD EMBD SLP145 DENSITY ALT 600FT

CYGK;2017-07-14 13:00;CYGK 141300Z 02007KT 10SM -RA SCT005 OVC012 17/17 A2995 RMK SF4SC4 SLP144 DENSITY ALT 700FT

CYGK;2017-07-14 13:14;CYGK 141314Z 01007KT 10SM VCSH FEW003 OVC008 18/17 A2995 RMK SF2SC6 CVCTV CLD ASOCTD CIG VRB 6-10 SLP144 DENSITY ALT 700FT

CYGK;2017-07-14 13:42;CYGK 141342Z 02006KT 2SM BR FEW003 OVC008 18/17 A2995 RMK SF1SF7 CVCTV CLD ASOCTD CIG VRB 6-10 SLP143 DENSITY ALT 700FT

CYGK;2017-07-14 14:00;CYGK 141400Z 36008KT 2SM BR OVC009 18/18 A2995 RMK SF8 CIG VRB 7-11 SLP142 DENSITY ALT 700FT

CYGK;2017-07-14 14:09;CYGK 141409Z 04006KT 3SM BR SCT004 OVC009 18/18 A2994 RMK SF3SF5 SLP141 DENSITY ALT 700FT

CYGK;2017-07-14 14:32;CYGK 141432Z 01006KT 320V050 3SM BR BKN004 OVC009 18/18 A2995 RMK SF5SF3 SLP143 DENSITY ALT 800FT

CYGK;2017-07-14 15:00;CYGK 141500Z 03007KT 3SM BR BKN005 OVC008 18/18 A2994 RMK SF6SF2 SLP141 DENSITY ALT 700FT

CYGK;2017-07-14 16:00;CYGK 141600Z 04007KT 12SM FEW004 OVC008 19/19 A2993 RMK SF1SF7 SLP136 DENSITY ALT 900FT

CYGK;2017-07-14 17:00;CYGK 141700Z 01005KT 320V060 15SM OVC006 21/20 A2992 RMK SF8 SLP135 DENSITY ALT 1100FT

CYGK;2017-07-14 18:00;CYGK 141800Z 02003KT 360V080 12SM OVC008 21/19 A2992 RMK SF8 SLP134 DENSITY ALT 1100FT

CYGK;2017-07-14 19:00;CYGK 141900Z 35004KT 340V050 12SM OVC007 20/19 A2992 RMK SC8 SLP132 DENSITY ALT 1000FT

CYGK;2017-07-14 20:00;CYGK 142000Z 35004KT 12SM OVC007 21/19 A2991 RMK SF8 SLP129 DENSITY ALT 1100FT

CYGK;2017-07-14 21:00;CYGK 142100Z 30005KT 290V360 12SM OVC007 21/19 A2991 RMK SC8 SLP131 DENSITY ALT 1100FT

CYGK;2017-07-14 22:00;CYGK 142200Z 31003KT 12SM OVC008 20/19 A2992 RMK SC8 SLP132 DENSITY ALT 1000FT

CYGK;2017-07-14 23:00;CYGK 142300Z 33006KT 12SM OVC008 20/19 A2992 RMK SC8 SLP132 DENSITY ALT 1000FT

CYGK;2017-07-14 23:29;CYGK 142329Z 35005KT 310V020 12SM BKN005 20/19 A2991 RMK SF7 SLP131 DENSITY ALT 1000FT

CYGK;2017-07-15 00:00;CYGK 150000Z 31004KT 15SM BKN005 19/19 A2992 RMK SF6 SLP132 DENSITY ALT 900FT

CYGK;2017-07-15 00:18;CYGK 150018Z 28004KT 15SM SCT005 OVC013 20/19 A2992 RMK SF4SC4 SLP133 DENSITY ALT 900FT

CYGK;2017-07-15 01:00;CYGK 150100Z 29003KT 15SM FEW006 OVC015 20/19 A2991 RMK SF1SC7 SLP131 DENSITY ALT 1000FT

CYGK;2017-07-15 02:00;CYGK 150200Z 00000KT 15SM SCT020 BKN090 19/18 A2993 RMK SC3AC4 SLP137 DENSITY ALT 800FT

CYGK;2017-07-15 03:00;CYGK 150300Z 24004KT 15SM FEW020 BKN085 19/18 A2993 RMK SC1AC4 LAST STFD OBS/NEXT 151000 UTC SLP138 DENSITY ALT 900FT

CYGK;2017-07-15 10:00;CYGK 151000Z 29004KT 15SM FEW008 FEW020TCU BKN040 BKN110 BKN250 18/18 A2992 RMK SF1TCU1SC3AC1CI1 SH DIST SE-S SLP132 DENSITY ALT 800FT

CYGK;2017-07-15 10:21;CYGK 151021Z 31004KT 15SM BKN009 BKN045 OVC060 18/18 A2993 RMK SC5SC1SC2 SLP136 DENSITY ALT 800FT

CYGK;2017-07-15 11:00;CYGK 151100Z 33005KT 15SM SCT007 BKN045 BKN110 18/18 A2993 RMK SC3SC3AC1 SLP138 DENSITY ALT 800FT

CYGK;2017-07-15 12:00;CYGK 151200Z 32005KT 15SM FEW009 BKN038 BKN090 19/18 A2993 RMK SC1SC4AC1 SLP138 DENSITY ALT 900FT

CYGK;2017-07-15 13:00;CYGK 151300Z 28007KT 15SM FEW009 BKN040 BKN080 20/18 A2995 RMK CF2SC4AC1 SLP144 DENSITY ALT 1000FT

CYGK;2017-07-15 14:00;CYGK 151400Z 27005KT 250V310 15SM FEW010 SCT065 22/19 A2994 RMK CF2SC2 SLP140 DENSITY ALT 1200FT

CYGK;2017-07-15 15:00;CYGK 151500Z 27007KT 220V280 15SM SCT016 SCT090 23/18 A2994 RMK CU3AC1 SLP139 DENSITY ALT 1300FT

CYGK;2017-07-15 16:00;CYGK 151600Z 00000KT 15SM SCT028 25/17 A2992 RMK CU3 SLP133 DENSITY ALT 1500FT

CYGK;2017-07-15 17:00;CYGK 151700Z 21010KT 15SM BKN038 25/18 A2992 RMK CU5 SLP134 DENSITY ALT 1500FT

CYGK;2017-07-15 18:00;CYGK 151800Z 21010KT 15SM BKN038 BKN065 24/20 A2992 RMK CU5SC2 SLP134 DENSITY ALT 1500FT

CYGK;2017-07-15 19:00;CYGK 151900Z 22011KT 15SM SCT038 BKN075 24/20 A2992 RMK CU3AC4 SLP133 DENSITY ALT 1500FT

CYGK;2017-07-15 20:00;CYGK 152000Z 23012G17KT 15SM FEW042 BKN078 24/19 A2992 RMK CU2AC3 SLP131 DENSITY ALT 1500FT

CYGK;2017-07-15 21:00;CYGK 152100Z 24012KT 15SM SCT040 SCT077 25/18 A2991 RMK CU3AC1 AC TR SLP128 DENSITY ALT 1600FT

CYGK;2017-07-15 22:00;CYGK 152200Z 24013KT 15SM FEW042 FEW075 24/18 A2989 RMK CU1AC1 AC TR SLP124 DENSITY ALT 1500FT

CYGK;2017-07-15 23:00;CYGK 152300Z 24011G17KT 15SM FEW040 FEW075 FEW240 24/18 A2989 RMK CU1AC1CI1 CU TR AC TR CI TR SLP121 DENSITY ALT 1400FT

CYGK;2017-07-16 00:00;CYGK 160000Z 25009KT 15SM FEW070 FEW240 22/18 A2989 RMK AC1CI1 AC TR CI TR SLP123 DENSITY ALT 1300FT

CYGK;2017-07-16 01:00;CYGK 160100Z 26008KT 15SM FEW070 FEW240 22/17 A2989 RMK AC1CI1 AC TR SLP124 DENSITY ALT 1200FT

CYGK;2017-07-16 02:00;CYGK 160200Z 26007KT 15SM FEW240 21/16 A2990 RMK CI1 SLP126 DENSITY ALT 1200FT

CYGK;2017-07-16 03:00;CYGK 160300Z 27007KT 15SM FEW240 21/16 A2990 RMK CI1 LAST STFD OBS/NEXT 161000 UTC SLP126 DENSITY ALT 1100FT

CYGK;2017-07-16 10:00;CYGK 161000Z 26004KT 15SM SCT120 16/12 A2994 RMK ACC4 SLP140 DENSITY ALT 500FT

CYGK;2017-07-16 11:00;CYGK 161100Z 27007KT 15SM FEW065 SCT120 18/12 A2994 RMK SC1ACC3 SLP141 DENSITY ALT 700FT

CYGK;2017-07-16 12:00;CYGK 161200Z 25005KT 15SM FEW065 FEW120 19/13 A2995 RMK SC1ACC1 SLP143 DENSITY ALT 900FT

CYGK;2017-07-16 13:00;CYGK 161300Z 24007KT 15SM FEW025 FEW063 FEW110 SCT240 21/13 A2995 RMK CU1SC1AC2CI2 CU TR SC TR SLP143 DENSITY ALT 1100FT

CYGK;2017-07-16 14:00;CYGK 161400Z 23004KT 15SM FEW060 SCT080 BKN250 23/15 A2994 RMK SC1AC2CI2 SLP140 DENSITY ALT 1300FT

CYGK;2017-07-16 15:00;CYGK 161500Z 19008KT 15SM FEW030 BKN080 BKN220 22/18 A2995 RMK CU1AC4CI1 SLP143 DENSITY ALT 1200FT

CYGK;2017-07-16 16:00;CYGK 161600Z 17008KT 15SM FEW025TCU SCT080 BKN250 23/19 A2995 RMK TCU1AC3CI1 TCU NW-N SLP143 DENSITY ALT 1300FT

CYGK;2017-07-16 17:00;CYGK 161700Z 18011KT 15SM VCSH FEW015 SCT025TCU BKN090 23/20 A2995 RMK CF1TCU3AC2 CF TR SLP142 DENSITY ALT 1300FT

CYGK;2017-07-16 17:24;CYGK 161724Z 17009KT 15SM TS SCT025CB BKN080 23/21 A2994 RMK CB3AC2 SLP139 DENSITY ALT 1400FT

CYGK;2017-07-16 18:00;CYGK 161800Z 17012KT 15SM TS VCSH SCT022CB BKN080 BKN250 23/20 A2994 RMK CB4AC1CI1 CB N-E HVY SH NE OCNL LTGCG NE SLP141 DENSITY ALT 1300FT

CYGK;2017-07-16 18:19;CYGK 161819Z 16009KT 15SM VCSH SCT021CB BKN080 BKN250 24/21 A2994 RMK CB4AC1CI1 CB N-E HVY SH NE SLP140 DENSITY ALT 1400FT

CYGK;2017-07-16 19:00;CYGK 161900Z 17009KT 15SM VCSH FEW025TCU SCT040TCU OVC080 22/20 A2994 RMK TCU1TCU2AC5 SLP141 DENSITY ALT 1200FT

CYGK;2017-07-16 20:00;CYGK 162000Z 19007KT 15SM FEW015 SCT030CB BKN080 BKN240 22/21 A2995 RMK CF1CB3AC3CI1 CF TR CB DIST N-NE VIRGA W SLP142 DENSITY ALT 1200FT

CYGK;2017-07-16 20:29;CYGK 162029Z 19007KT 15SM -SHRA SCT030TCU OVC080 22/20 A2995 RMK TCU3ACC5 SLP142 DENSITY ALT 1200FT

CYGK;2017-07-16 21:00;CYGK 162100Z 29004KT 15SM -TSRA FEW025 SCT050CB OVC090 23/16 A2995 RMK CU1CB3AC4 SLP144 DENSITY ALT 1300FT

CYGK;2017-07-16 21:22;CYGK 162122Z 32008KT 15SM FEW030TCU SCT040CB BKN090 OVC110 22/19 A2996 RMK TCU2CB2AC2AC2 SLP146 DENSITY ALT 1200FT

CYGK;2017-07-16 22:00;CYGK 162200Z 06005KT 15SM FEW020 SCT030TCU BKN090 BKN250 21/19 A2994 RMK CU1TCU2AC3CI1 SLP140 DENSITY ALT 1100FT

CYGK;2017-07-16 23:00;CYGK 162300Z 36006KT 15SM FEW035 SCT100 BKN250 20/18 A2995 RMK CU1AC3CI3 SLP145 DENSITY ALT 1000FT

CYGK;2017-07-17 00:00;CYGK 170000Z 04004KT 15SM FEW030 BKN070 BKN110 BKN250 20/18 A2996 RMK CU1AC4AC1CI1 SLP147 DENSITY ALT 1000FT

CYGK;2017-07-17 01:00;CYGK 170100Z 02003KT 360V070 15SM FEW040 OVC080 20/18 A2996 RMK CU1AC7 SLP148 DENSITY ALT 900FT

CYGK;2017-07-17 02:00;CYGK 170200Z 04002KT 15SM SCT055 BKN090 20/18 A2998 RMK SC3AC3 SLP155 DENSITY ALT 900FT

CYGK;2017-07-17 02:13;CYGK 170213Z 01003KT 12SM -RA BKN045 OVC090 20/18 A2999 RMK SC6AC2 SLP156 DENSITY ALT 900FT

CYGK;2017-07-17 03:00;CYGK 170300Z 07004KT 12SM -RA FEW030 BKN048 OVC110 19/18 A2999 RMK CU1SC4AC3 LAST STFD OBS/NEXT 171000 UTC SLP157 DENSITY ALT 800FT

CYGK;2017-07-17 10:00;CYGK 171000Z 09005KT 10SM VCSH FEW005 SCT020TCU BKN060 BKN240 18/18 A2999 RMK SF1TCU3SC3CI1 CI TR SLP156 DENSITY ALT 700FT

CYGK;2017-07-17 11:00;CYGK 171100Z 08008KT 10SM VCSH SCT030TCU BKN065 BKN240 19/18 A2998 RMK TCU3SC3CI1 CI TR SLP154 DENSITY ALT 800FT

CYGK;2017-07-17 12:00;CYGK 171200Z 03005KT 10SM FEW008 FEW030TCU BKN078 19/18 A3000 RMK SF1TCU2AC3 SF TR SLP161 DENSITY ALT 800FT

CYGK;2017-07-17 13:00;CYGK 171300Z 09007KT 15SM FEW008 FEW030 SCT080 BKN200 21/18 A2999 RMK CF1CU1AC2CI1 SLP158 DENSITY ALT 1000FT

CYGK;2017-07-17 14:00;CYGK 171400Z 06006KT 050V110 15SM FEW015 SCT080 BKN110 BKN240 22/19 A3001 RMK CU2AC1AC2CI1 SLP164 DENSITY ALT 1100FT

CYGK;2017-07-17 14:36;CYGK 171436Z 06003KT 030V150 15SM BKN015 BKN100 22/18 A3001 RMK CU5AC2 CIG RAG SLP165 DENSITY ALT 1100FT

CYGK;2017-07-17 15:00;CYGK 171500Z 15005KT 15SM BKN018 BKN110 BKN250 22/18 A3002 RMK CU5AC1CI1 AC TR SLP167 DENSITY ALT 1100FT

CYGK;2017-07-17 16:00;CYGK 171600Z 18007KT 15SM FEW025 SCT240 22/19 A3001 RMK CU2CI2 SLP165 DENSITY ALT 1100FT

CYGK;2017-07-17 17:00;CYGK 171700Z 17006KT 150V210 15SM SCT030TCU SCT060 BKN100 BKN250 23/17 A3000 RMK TCU3SC1AC1CI1 SLP161 DENSITY ALT 1300FT

CYGK;2017-07-17 18:00;CYGK 171800Z 17007KT 15SM FEW030 SCT050 24/18 A3000 RMK SF2SC1 SLP160 DENSITY ALT 1300FT

CYGK;2017-07-17 19:00;CYGK 171900Z 20005KT 15SM SCT030 SCT220 24/17 A2999 RMK CU3CI1 SLP158 DENSITY ALT 1400FT

CYGK;2017-07-17 20:00;CYGK 172000Z 19006KT 15SM SCT040 SCT250 24/19 A2998 RMK CU3CI1 SLP153 DENSITY ALT 1400FT

CYGK;2017-07-17 21:00;CYGK 172100Z 19008KT 15SM FEW040TCU SCT220 24/18 A2998 RMK TCU2CI1 SLP154 DENSITY ALT 1400FT

CYGK;2017-07-17 22:00;CYGK 172200Z 19006KT 15SM FEW036 SCT250 24/18 A2998 RMK CU2CI1 SLP153 DENSITY ALT 1400FT

CYGK;2017-07-17 23:00;CYGK 172300Z 20005KT 15SM FEW040 SCT250 24/18 A2998 RMK CU2CI1 SLP155 DENSITY ALT 1400FT

CYGK;2017-07-18 00:00;CYGK 180000Z 25004KT 15SM FEW040TCU SCT250 23/18 A3000 RMK TCU1CI2 SLP162 DENSITY ALT 1300FT

CYGK;2017-07-18 01:00;CYGK 180100Z 25006KT 15SM FEW030 FEW070 22/18 A3000 RMK CU1AC1 AC TR SLP162 DENSITY ALT 1100FT

CYGK;2017-07-18 02:00;CYGK 180200Z 25006KT 15SM FEW030 FEW080 21/19 A3002 RMK CU1AC1 SLP166 DENSITY ALT 1000FT

CYGK;2017-07-18 03:00;CYGK 180300Z 26006KT 15SM FEW030 21/19 A3002 RMK CU1 LAST STFD OBS/NEXT 181000 UTC SLP166 DENSITY ALT 1000FT

CYGK;2017-07-18 10:00;CYGK 181000Z 22004KT 12SM BCFG FEW015 19/19 A3005 RMK CU1 CU TR SLP177 DENSITY ALT 800FT

CYGK;2017-07-18 11:00;CYGK 181100Z 20003KT 12SM FEW015 21/20 A3006 RMK CU1 SLP181 DENSITY ALT 900FT

CYGK;2017-07-18 12:00;CYGK 181200Z 19004KT 12SM FEW012 22/20 A3008 RMK SF2 SLP186 DENSITY ALT 1000FT

CYGK;2017-07-18 12:22;CYGK 181222Z 19006KT 12SM SCT008 22/20 A3008 RMK CU4 SLP186 DENSITY ALT 1100FT

CYGK;2017-07-18 12:34;CYGK 181234Z 19007KT 12SM FEW005 BKN010 22/21 A3008 RMK SF2CU4 SLP188 DENSITY ALT 1100FT

CYGK;2017-07-18 13:00;CYGK 181300Z 18007KT 15SM FEW005 BKN012 BKN250 22/21 A3009 RMK SF1CU4CI1 SLP189 DENSITY ALT 1100FT

CYGK;2017-07-18 14:00;CYGK 181400Z 19009KT 15SM FEW008 SCT020TCU BKN250 23/21 A3009 RMK SF1TCU3CI2 SLP190 DENSITY ALT 1100FT

CYGK;2017-07-18 15:00;CYGK 181500Z 17009KT 15SM FEW016 BKN250 23/20 A3009 RMK CU2CI3 SLP192 DENSITY ALT 1200FT

CYGK;2017-07-18 16:00;CYGK 181600Z 18010KT 15SM FEW025 BKN250 23/20 A3009 RMK CU2CI3 SLP192 DENSITY ALT 1200FT

CYGK;2017-07-18 17:00;CYGK 181700Z 19010KT 15SM FEW025 BKN250 23/21 A3009 RMK CU2CI3 SLP190 DENSITY ALT 1200FT

CYGK;2017-07-18 18:00;CYGK 181800Z 19010KT 15SM FEW010 FEW025 SCT250 23/21 A3007 RMK CF1CU1CI2 CF TR SLP185 DENSITY ALT 1200FT

CYGK;2017-07-18 19:00;CYGK 181900Z 19011KT 15SM FEW025 FEW250 23/21 A3006 RMK CU1CI1 SLP182 DENSITY ALT 1200FT

CYGK;2017-07-18 20:00;CYGK 182000Z 19010KT 12SM FEW025 FEW250 24/21 A3006 RMK CU1CI1 SLP181 DENSITY ALT 1200FT

CYGK;2017-07-18 21:00;CYGK 182100Z 18011KT 8SM FEW025 FEW250 23/21 A3003 RMK CU1CI1 CU TR CI TR VIS LWR S HZ SLP172 DENSITY ALT 1200FT

CYGK;2017-07-18 22:00;CYGK 182200Z 19009KT 8SM FEW025 FEW250 23/21 A3003 RMK CU1CI1 CU TR CI TR VIS LWR S HZ SLP172 DENSITY ALT 1200FT

CYGK;2017-07-18 23:00;CYGK 182300Z 19009KT 6SM HZ FEW250 23/21 A3003 RMK CI1 SLP170 DENSITY ALT 1200FT

CYGK;2017-07-19 00:00;CYGK 190000Z 20007KT 8SM FEW250 22/21 A3003 RMK CI1 HZ SLP171 DENSITY ALT 1100FT

CYGK;2017-07-19 01:00;CYGK 190100Z 24006KT 12SM FEW250 22/19 A3004 RMK CI1 SLP175 DENSITY ALT 1100FT

CYGK;2017-07-19 02:00;CYGK 190200Z 21005KT 12SM FEW250 21/18 A3004 RMK CI1 SLP173 DENSITY ALT 1000FT

CYGK;2017-07-19 03:00;CYGK 190300Z 23005KT 12SM SKC 21/18 A3004 RMK LAST STFD OBS / NEXT 191000 UTC SLP173 DENSITY ALT 1000FT

CYGK;2017-07-19 10:00;CYGK 191000Z 23005KT 15SM FEW240 20/19 A3001 RMK CI1 SLP165 DENSITY ALT 900FT

CYGK;2017-07-19 11:00;CYGK 191100Z 23007KT 15SM FEW240 21/19 A3002 RMK CI2 SLP166 DENSITY ALT 1000FT

CYGK;2017-07-19 12:00;CYGK 191200Z 23007KT 15SM SCT240 22/20 A3002 RMK CI3 SLP168 DENSITY ALT 1100FT

CYGK;2017-07-19 13:00;CYGK 191300Z 22006KT 15SM FEW200 BKN250 23/20 A3002 RMK CI2CI3 SLP167 DENSITY ALT 1200FT

CYGK;2017-07-19 14:00;CYGK 191400Z 18009KT 12SM SCT050 BKN240 24/21 A3001 RMK SC4CI3 SLP163 DENSITY ALT 1300FT

CYGK;2017-07-19 15:00;CYGK 191500Z 18012KT 15SM SCT050 BKN200 OVC250 23/21 A3001 RMK SC3CI3CI2 SLP163 DENSITY ALT 1200FT

CYGK;2017-07-19 16:00;CYGK 191600Z 19011KT 12SM FEW050 BKN160 BKN220 23/20 A3000 RMK SC2AC3CI2 SLP161 DENSITY ALT 1300FT

CYGK;2017-07-19 17:00;CYGK 191700Z 19013KT 15SM FEW050 BKN150 BKN250 23/21 A2999 RMK SC2AC3CI2 SLP158 DENSITY ALT 1300FT

CYGK;2017-07-19 18:00;CYGK 191800Z 19013KT 15SM SCT170 BKN220 25/21 A2998 RMK AC4CI2 SLP153 DENSITY ALT 1500FT

CYGK;2017-07-19 19:00;CYGK 191900Z 20009KT 15SM FEW030 BKN110 24/21 A2997 RMK CU1AC7 CU TR SLP149 DENSITY ALT 1400FT

CYGK;2017-07-19 20:00;CYGK 192000Z 19008KT 15SM FEW040 BKN080 25/21 A2995 RMK CU1AC5 SLP144 DENSITY ALT 1600FT

CYGK;2017-07-19 21:00;CYGK 192100Z 19008KT 15SM FEW030 BKN072 25/21 A2995 RMK CU1AC5 SLP141 DENSITY ALT 1500FT

CYGK;2017-07-19 22:00;CYGK 192200Z 22008KT 15SM FEW030TCU SCT070 27/20 A2995 RMK TCU1AC2 SLP142 DENSITY ALT 1800FT

CYGK;2017-07-19 23:00;CYGK 192300Z 21008KT 15SM FEW030 26/21 A2994 RMK CU1 CU TR SLP140 DENSITY ALT 1700FT

CYGK;2017-07-20 00:00;CYGK 200000Z 23007KT 15SM FEW030 25/21 A2994 RMK CU1 CU TR SLP140 DENSITY ALT 1600FT

CYGK;2017-07-20 01:00;CYGK 200100Z 24006KT 15SM FEW030TCU SCT060 SCT120 24/21 A2995 RMK TCU1SC2AC1 SLP144 DENSITY ALT 1400FT

CYGK;2017-07-20 02:00;CYGK 200200Z 23006KT 15SM BKN058 24/21 A2997 RMK SC5 SLP148 DENSITY ALT 1400FT

CYGK;2017-07-20 03:00;CYGK 200300Z 27003KT 15SM BKN060 23/20 A2997 RMK SC5 LAST STFD OBS / NEXT 201000 UTC SLP148 DENSITY ALT 1300FT

CYGK;2017-07-20 10:00;CYGK 201000Z 28005KT 12SM FEW120 BKN250 18/17 A2995 RMK AC2CI4 SLP142 DENSITY ALT 700FT

CYGK;2017-07-20 11:00;CYGK 201100Z 27005KT 15SM FEW120 BKN250 19/18 A2995 RMK AC1CI4 SLP142 DENSITY ALT 800FT

CYGK;2017-07-20 12:00;CYGK 201200Z 27006KT 15SM FEW120 SCT250 20/18 A2996 RMK AC1CI2 SLP147 DENSITY ALT 1000FT

CYGK;2017-07-20 13:00;CYGK 201300Z 27004KT 250V310 15SM FEW120 SCT250 22/19 A2997 RMK AC1CI2 SLP150 DENSITY ALT 1200FT

CYGK;2017-07-20 14:00;CYGK 201400Z 23008KT 15SM FEW120 BKN250 23/18 A2995 RMK AC1CI4 SLP144 DENSITY ALT 1300FT

CYGK;2017-07-20 15:00;CYGK 201500Z 22007KT 15SM FEW025 SCT180 BKN250 24/18 A2995 RMK CU1AC4CI3 CU TR SLP141 DENSITY ALT 1400FT

CYGK;2017-07-20 16:00;CYGK 201600Z 23009KT 15SM BKN160 OVC220 22/19 A2996 RMK AC6CI2 PRESRR SLP147 DENSITY ALT 1200FT

CYGK;2017-07-20 17:00;CYGK 201700Z 26006KT 12SM -RA FEW060 BKN090 OVC120 22/18 A2997 RMK SC2AC3AC3 SLP150 DENSITY ALT 1200FT

CYGK;2017-07-20 18:00;CYGK 201800Z 19011G17KT 10SM -RA BKN038 OVC065 20/18 A2993 RMK SC6SC2 PRESFR SLP137 DENSITY ALT 1000FT

CYGK;2017-07-20 18:46;CYGK 201846Z 26004KT 15SM FEW065 SCT170 SCT240 21/17 A2992 RMK SC2AC2CI1 CI TR PRESFR SLP132 DENSITY ALT 1100FT

CYGK;2017-07-20 19:00;CYGK 201900Z 26004KT 240V300 15SM FEW065 SCT170 SCT240 22/16 A2991 RMK SC1AC3CI1 CI TR SLP129 DENSITY ALT 1200FT

CYGK;2017-07-20 20:00;CYGK 202000Z 18007KT 15SM FEW120 SCT250 23/15 A2989 RMK AC1CI2 SLP124 DENSITY ALT 1400FT

CYGK;2017-07-20 21:00;CYGK 202100Z 18007KT 15SM FEW120 FEW240 23/15 A2989 RMK AC1CI1 AC TR SLP124 DENSITY ALT 1300FT

CYGK;2017-07-20 22:00;CYGK 202200Z 19006KT 180V240 15SM FEW240 23/17 A2988 RMK CI1 SLP119 DENSITY ALT 1400FT

CYGK;2017-07-20 23:00;CYGK 202300Z 18008KT 15SM FEW240 22/17 A2987 RMK CI1 SLP115 DENSITY ALT 1300FT

CYGK;2017-07-21 00:00;CYGK 210000Z 21006KT 15SM FEW240 21/16 A2987 RMK CI2 SLP117 DENSITY ALT 1200FT

CYGK;2017-07-21 01:00;CYGK 210100Z 21008KT 15SM FEW240 21/17 A2988 RMK CI2 SLP120 DENSITY ALT 1100FT

CYGK;2017-07-21 02:00;CYGK 210200Z 23007KT 15SM FEW240 20/17 A2989 RMK CI1 SLP122 DENSITY ALT 1000FT

CYGK;2017-07-21 03:00;CYGK 210300Z 23006KT 15SM FEW240 20/15 A2988 RMK CI1 LAST STFD OBS/NEXT 211000 UTC SLP119 DENSITY ALT 1000FT

CYGK;2017-07-21 10:00;CYGK 211000Z 25004KT 15SM FEW038 18/17 A2986 RMK SC1 SC TR SLP114 DENSITY ALT 800FT

CYGK;2017-07-21 11:00;CYGK 211100Z 26007KT 15SM FEW200 19/18 A2988 RMK CI1 SLP120 DENSITY ALT 1000FT

CYGK;2017-07-21 12:00;CYGK 211200Z 25005KT 15SM FEW220 21/20 A2989 RMK CI1 SLP123 DENSITY ALT 1200FT

CYGK;2017-07-21 13:00;CYGK 211300Z 24007KT 15SM FEW220 23/19 A2989 RMK CI1 SLP121 DENSITY ALT 1400FT

CYGK;2017-07-21 14:00;CYGK 211400Z 24009KT 15SM FEW020 FEW220 24/19 A2989 RMK CF1CI2 CF TR SLP121 DENSITY ALT 1500FT

CYGK;2017-07-21 15:00;CYGK 211500Z 24010KT 15SM FEW024 SCT220 25/20 A2988 RMK CU1CI3 SLP119 DENSITY ALT 1600FT

CYGK;2017-07-21 16:00;CYGK 211600Z 24012KT 15SM FEW030 FEW100 FEW220 26/19 A2986 RMK CF1AC1CI2 CF TR AC TR SLP114 DENSITY ALT 1700FT

CYGK;2017-07-21 17:00;CYGK 211700Z 23013KT 15SM FEW030 FEW100 SCT220 26/19 A2986 RMK CF1AC1CI2 AC TR PRESRR SLP114 DENSITY ALT 1800FT

CYGK;2017-07-21 18:00;CYGK 211800Z 23011G16KT 15SM FEW050 FEW100 SCT220 27/19 A2985 RMK CF1AC1CI3 CF TR AC TR SLP110 DENSITY ALT 1900FT

CYGK;2017-07-21 19:00;CYGK 211900Z 24013G19KT 15SM FEW045 SCT240 27/18 A2985 RMK CU2CI2 SLP109 DENSITY ALT 1900FT

CYGK;2017-07-21 20:00;CYGK 212000Z 23013G19KT 15SM FEW042 BKN240 27/19 A2984 RMK CU2CI3 SLP106 DENSITY ALT 1900FT

CYGK;2017-07-21 21:00;CYGK 212100Z 23011G16KT 15SM FEW055 BKN240 27/19 A2984 RMK CU2CI3 SLP105 DENSITY ALT 1900FT

CYGK;2017-07-21 22:00;CYGK 212200Z 22008KT 15SM FEW060 BKN240 26/20 A2984 RMK CU1CI5 SLP105 DENSITY ALT 1800FT

CYGK;2017-07-21 23:00;CYGK 212300Z 23009KT 15SM FEW060 BKN240 26/19 A2984 RMK CU1CI6 CU TR SLP106 DENSITY ALT 1700FT

CYGK;2017-07-22 00:00;CYGK 220000Z 24007KT 15SM FEW060 BKN220 24/19 A2984 RMK CU1CI6 CU TR SLP107 DENSITY ALT 1600FT

CYGK;2017-07-22 01:00;CYGK 220100Z 25008KT 15SM FEW060 BKN210 24/19 A2986 RMK CU1CI7 CU TR SLP112 DENSITY ALT 1500FT

CYGK;2017-07-22 02:00;CYGK 220200Z 27007KT 15SM BKN210 24/16 A2986 RMK CI5 SLP111 DENSITY ALT 1500FT

CYGK;2017-07-22 03:00;CYGK 220300Z 26006KT 15SM SCT230 22/16 A2986 RMK CI4 LAST STFD OBS/NEXT 221000 UTC SLP113 DENSITY ALT 1300FT

CYGK;2017-07-22 10:00;CYGK 221000Z 32004KT 15SM FEW058 BKN210 BKN250 18/15 A2987 RMK SC1CC5CI1 SLP117 DENSITY ALT 800FT

CYGK;2017-07-22 11:00;CYGK 221100Z VRB02KT 15SM SCT190 BKN210 OVC250 18/16 A2988 RMK AC3CC2CI3 SLP120 DENSITY ALT 800FT

CYGK;2017-07-22 12:00;CYGK 221200Z VRB02KT 15SM SCT180 OVC250 20/16 A2988 RMK AC4CI4 SLP118 DENSITY ALT 1000FT

CYGK;2017-07-22 13:00;CYGK 221300Z 00000KT 15SM SCT180 BKN250 22/17 A2988 RMK AC4CI2 SLP120 DENSITY ALT 1200FT

CYGK;2017-07-22 14:00;CYGK 221400Z 22005KT 15SM SCT180 BKN250 23/18 A2988 RMK AC3CI4 SLP118 DENSITY ALT 1400FT

CYGK;2017-07-22 15:00;CYGK 221500Z 23003KT 180V310 15SM SCT160 OVC230 23/17 A2988 RMK AC4CI4 SLP119 DENSITY ALT 1400FT

CYGK;2017-07-22 16:00;CYGK 221600Z 19004KT 140V210 15SM FEW025 SCT150 BKN220 23/18 A2988 RMK CF1AC3CI4 CF TR SLP119 DENSITY ALT 1400FT

CYGK;2017-07-22 17:00;CYGK 221700Z 18003KT 130V210 15SM FEW025 BKN140 BKN250 23/17 A2987 RMK CU1AC4CI2 SLP115 DENSITY ALT 1400FT

CYGK;2017-07-22 18:00;CYGK 221800Z 17008KT 15SM FEW025 BKN150 OVC240 23/17 A2985 RMK CU1AC4CI3 SLP110 DENSITY ALT 1400FT

CYGK;2017-07-22 19:00;CYGK 221900Z 19006KT 15SM FEW030 BKN140 OVC220 22/18 A2985 RMK CU1AC5CI3 CU TR SLP108 DENSITY ALT 1300FT

CYGK;2017-07-22 20:00;CYGK 222000Z 19006KT 15SM FEW030 SCT140 OVC180 22/19 A2984 RMK CU1AC3CI4 SLP104 DENSITY ALT 1300FT

CYGK;2017-07-22 21:00;CYGK 222100Z 20005KT 15SM FEW030 OVC170 22/19 A2981 RMK CU1AS7 SLP097 DENSITY ALT 1400FT

CYGK;2017-07-22 22:00;CYGK 222200Z 00000KT 15SM FEW030 BKN170 BKN240 23/19 A2980 RMK CU1AC6CI1 CU TR SLP092 DENSITY ALT 1400FT

CYGK;2017-07-22 23:00;CYGK 222300Z 17005KT 15SM BKN170 BKN240 22/20 A2979 RMK AC5CI1 SLP088 DENSITY ALT 1400FT

CYGK;2017-07-23 00:00;CYGK 230000Z 18003KT 15SM SCT170 BKN230 21/20 A2980 RMK AC4CI3 SLP091 DENSITY ALT 1300FT

CYGK;2017-07-23 01:00;CYGK 230100Z 21003KT 15SM BKN170 BKN240 21/20 A2981 RMK AC5CI2 SLP095 DENSITY ALT 1200FT

CYGK;2017-07-23 02:00;CYGK 230200Z 00000KT 15SM BKN160 BKN240 20/19 A2982 RMK AC5CI2 SLP099 DENSITY ALT 1100FT

CYGK;2017-07-23 03:00;CYGK 230300Z 35002KT 15SM BKN180 20/19 A2982 RMK AC7 LAST STFD OBS/NEXT 231000 UTC SLP098 DENSITY ALT 1100FT

CYGK;2017-07-23 10:00;CYGK 231000Z 04007KT 15SM BKN100 OVC150 19/16 A2980 RMK AC6AC2 SLP091 DENSITY ALT 1100FT

CYGK;2017-07-23 11:00;CYGK 231100Z 03005KT 15SM BKN100 OVC120 19/14 A2981 RMK AC6AC2 SLP096 DENSITY ALT 1000FT

CYGK;2017-07-23 12:00;CYGK 231200Z 05009KT 15SM FEW070 BKN110 OVC140 19/14 A2982 RMK AC2AC4AC2 SLP098 DENSITY ALT 1000FT

CYGK;2017-07-23 13:00;CYGK 231300Z 03006KT 15SM FEW070 BKN110 OVC140 19/14 A2984 RMK AC1AC5AC2 ACC ASOCTD SLP104 DENSITY ALT 1000FT

CYGK;2017-07-23 14:00;CYGK 231400Z 04010KT 15SM SCT045 OVC110 20/14 A2984 RMK SC3AC5 SLP106 DENSITY ALT 1100FT

CYGK;2017-07-23 15:00;CYGK 231500Z 03011KT 15SM FEW050 BKN110 OVC200 21/14 A2984 RMK SC1AC5CI2 SLP105 DENSITY ALT 1200FT

CYGK;2017-07-23 16:00;CYGK 231600Z 04010G16KT 15SM FEW042 BKN110 OVC140 22/14 A2984 RMK SC1AC5AC2 SLP105 DENSITY ALT 1300FT

CYGK;2017-07-23 17:00;CYGK 231700Z 04012G20KT 15SM SCT110 OVC230 23/13 A2984 RMK AC4CI4 SLP105 DENSITY ALT 1400FT

CYGK;2017-07-23 18:00;CYGK 231800Z 04013G21KT 15SM FEW040 BKN110 23/13 A2983 RMK SC1AC6 SLP101 DENSITY ALT 1500FT

CYGK;2017-07-23 19:00;CYGK 231900Z 05014G22KT 15SM SCT110 BKN220 23/13 A2982 RMK AC3CI3 SLP099 DENSITY ALT 1500FT

CYGK;2017-07-23 20:00;CYGK 232000Z 07016KT 15SM FEW110 BKN220 24/14 A2980 RMK AC2CI4 SLP093 DENSITY ALT 1600FT

CYGK;2017-07-23 21:00;CYGK 232100Z 05016G22KT 15SM FEW120 BKN220 24/13 A2980 RMK AC2CI4 SLP091 DENSITY ALT 1600FT

CYGK;2017-07-23 22:00;CYGK 232200Z 04014KT 15SM FEW040TCU BKN098 BKN120 23/13 A2980 RMK TCU1AC5AC2 TCU TR SLP092 DENSITY ALT 1500FT

CYGK;2017-07-23 23:00;CYGK 232300Z 05012G19KT 15SM FEW040 BKN085 BKN120 22/12 A2979 RMK CU1AC5AC2 CU TR SLP089 DENSITY ALT 1400FT

CYGK;2017-07-24 00:00;CYGK 240000Z 03011G21KT 15SM BKN090 OVC220 21/12 A2979 RMK AC6CI2 SLP089 DENSITY ALT 1300FT

CYGK;2017-07-24 01:00;CYGK 240100Z 04011G19KT 15SM BKN080 OVC220 21/12 A2980 RMK AC7CI1 SLP091 DENSITY ALT 1200FT

CYGK;2017-07-24 02:00;CYGK 240200Z 05011G18KT 15SM BKN078 OVC220 20/11 A2981 RMK AC7CI1 SLP095 DENSITY ALT 1200FT

CYGK;2017-07-24 03:00;CYGK 240300Z 05011G18KT 15SM -RA BKN067 OVC120 20/12 A2979 RMK AC6AC2 LAST STFD OBS/NEXT 241000 UTC SLP089 DENSITY ALT 1100FT

CYGK;2017-07-24 10:00;CYGK 241000Z 06010KT 5SM -TSRA BR FEW004 BKN012 OVC020CB 17/17 A2973 RMK SF2SC5CB1 SLP068 DENSITY ALT 900FT

CYGK;2017-07-24 10:18;CYGK 241018Z 05010KT 1 1/2SM TSRA BR SCT005 OVC015CB 17/16 A2973 RMK SF3CB5 SLP070 DENSITY ALT 800FT

CYGK;2017-07-24 10:27;CYGK 241027Z 04007G18KT 2 1/2SM -TSRA BR FEW003 OVC007 17/16 A2973 RMK SF2SF6 CB EMBDD SLP069 DENSITY ALT 800FT

CYGK;2017-07-24 11:00;CYGK 241100Z 04011KT 3SM -TSRA BR SCT004 BKN008 OVC015CB 17/17 A2973 RMK SF3SF4CB1 SLP068 DENSITY ALT 900FT

CYGK;2017-07-24 11:19;CYGK 241119Z 06008KT 1 1/2SM -TSRA BR BKN004 OVC015CB 17/17 A2973 RMK SF6CB2 SLP068 DENSITY ALT 900FT

CYGK;2017-07-24 12:00;CYGK 241200Z 07011KT 2SM TSRA BR FEW002 BKN006 OVC015CB 18/17 A2972 RMK SF2SF5CB1 SLP064 DENSITY ALT 900FT

CYGK;2017-07-24 12:16;CYGK 241216Z 05006KT 010V080 2SM TSRA BR FEW002 BKN004 OVC012CB 18/17 A2971 RMK SF1SF6CB1 SLP063 DENSITY ALT 1000FT

CYGK;2017-07-24 12:23;CYGK 241223Z 05003KT 010V080 3/4SM +TSRA BR OVC003 18/17 A2972 RMK SF8 CB EMBDD SLP065 DENSITY ALT 900FT

CYGK;2017-07-24 13:00;CYGK 241300Z 36015KT 15SM +TSRA BR OVC005 17/17 A2974 RMK SF8 CB EMBD PRESRR SLP072 DENSITY ALT 800FT

CYGK;2017-07-24 13:30;CYGK 241330Z 03010G17KT 3SM -TSRA BR BKN004 OVC015CB 17/16 A2974 RMK SF6CB2 SLP071 DENSITY ALT 800FT

CYGK;2017-07-24 14:00;CYGK 241400Z 02010KT 2SM -SHRA BR BKN004 OVC012 16/16 A2973 RMK SF5SC3 SLP070 DENSITY ALT 800FT

CYGK;2017-07-24 14:51;CYGK 241451Z 12003KT 6SM BR SCT005 OVC013 17/17 A2972 RMK SF3SC5 CVCTV CLD ASOCTD SLP067 DENSITY ALT 900FT

CYGK;2017-07-24 15:00;CYGK 241500Z 14012G20KT 10SM SCT005 OVC010 19/19 A2972 RMK SF3SC5 SLP065 DENSITY ALT 1100FT

CYGK;2017-07-24 15:21;CYGK 241521Z 17018G24KT 15SM FEW005 OVC009 20/20 A2972 RMK SF1SF7 SLP064 DENSITY ALT 1200FT

CYGK;2017-07-24 15:39;CYGK 241539Z 16018G28KT 15SM -RA OVC009 20/19 A2971 RMK SF8 SLP063 DENSITY ALT 1200FT

CYGK;2017-07-24 16:00;CYGK 241600Z 17017G26KT 15SM -RA BKN009 OVC015 20/19 A2971 RMK SF7SC1 VIS NE 5 SLP061 DENSITY ALT 1300FT

CYGK;2017-07-24 17:00;CYGK 241700Z 20012KT 15SM SCT005 OVC016 20/19 A2971 RMK SF3SC5 SLP063 DENSITY ALT 1200FT

CYGK;2017-07-24 18:00;CYGK 241800Z 22013KT 15SM VCSH BKN008 OVC015 19/18 A2972 RMK SF7SC1 SLP067 DENSITY ALT 1200FT

CYGK;2017-07-24 19:00;CYGK 241900Z 23009KT 15SM -SHRA OVC008 19/18 A2975 RMK SF8 CVCTV CLD EMBD SLP075 DENSITY ALT 1100FT

CYGK;2017-07-24 19:15;CYGK 241915Z 24011KT 15SM BKN009 19/18 A2975 RMK SC7 SLP074 DENSITY ALT 1100FT

CYGK;2017-07-24 20:00;CYGK 242000Z 23010KT 15SM BKN010 BKN030 BKN140 21/18 A2976 RMK SC5SC1AC1 CVCTV CLD EMBD SLP078 DENSITY ALT 1300FT

CYGK;2017-07-24 21:00;CYGK 242100Z 25006KT 15SM OVC010 19/18 A2977 RMK SC8 SLP082 DENSITY ALT 1100FT

CYGK;2017-07-24 21:25;CYGK 242125Z 26008KT 15SM OVC008 19/17 A2978 RMK SC8 SLP084 DENSITY ALT 1000FT

CYGK;2017-07-24 22:00;CYGK 242200Z 26006KT 15SM OVC008 19/17 A2979 RMK SC8 SLP090 DENSITY ALT 1000FT

CYGK;2017-07-24 22:38;CYGK 242238Z 32009KT 10SM -DZ OVC007 17/16 A2981 RMK SF8 SLP096 DENSITY ALT 800FT

CYGK;2017-07-24 23:00;CYGK 242300Z 33009KT 5SM -DZ FEW005 OVC007 17/16 A2981 RMK SF1ST8 SF TR SLP098 DENSITY ALT 800FT

CYGK;2017-07-24 23:19;CYGK 242319Z 33009KT 10SM OVC008 17/16 A2981 RMK SF8 SLP098 DENSITY ALT 800FT

CYGK;2017-07-25 00:00;CYGK 250000Z 36009KT 15SM OVC009 16/15 A2983 RMK SF8 SLP102 DENSITY ALT 700FT

CYGK;2017-07-25 01:00;CYGK 250100Z 34008KT 10SM -DZ OVC007 16/15 A2985 RMK SF8 SLP110 DENSITY ALT 600FT

CYGK;2017-07-25 02:00;CYGK 250200Z 34008KT 4SM -DZ FEW002 BKN006 OVC010 15/15 A2987 RMK SF1SF5ST2 SLP117 DENSITY ALT 500FT

CYGK;2017-07-25 03:00;CYGK 250300Z 35008KT 5SM -DZ BKN005 OVC010 15/15 A2988 RMK SF5ST3 LAST STFD OBS/NEXT 251000 UTC SLP121 DENSITY ALT 500FT

CYGK;2017-07-25 10:00;CYGK 251000Z 01009G16KT 15SM OVC013 14/13 A3001 RMK SC8 SLP166

CYGK;2017-07-25 11:00;CYGK 251100Z 01008KT 15SM OVC014 14/13 A3005 RMK SC8 SLP178

CYGK;2017-07-25 12:00;CYGK 251200Z 02013G22KT 15SM OVC012 15/13 A3007 RMK SC8 SLP185

CYGK;2017-07-25 13:00;CYGK 251300Z 02015G21KT 15SM BKN011 15/13 A3009 RMK SC7 SLP192

CYGK;2017-07-25 14:00;CYGK 251400Z 03016G23KT 15SM OVC015 16/13 A3012 RMK SC8 SLP200

CYGK;2017-07-25 14:15;CYGK 251415Z 02011G20KT 15SM OVC014 16/13 A3012 RMK SC8 SLP202

CYGK;2017-07-25 15:00;CYGK 251500Z 02013G19KT 15SM BKN015 16/13 A3014 RMK SC7 SLP208

CYGK;2017-07-25 16:00;CYGK 251600Z 02013G18KT 15SM BKN016 OVC025 17/13 A3014 RMK SC6SC2 SLP209 DENSITY ALT 400FT

CYGK;2017-07-25 17:00;CYGK 251700Z 03014G23KT 15SM BKN019 17/13 A3015 RMK SC7 SLP213 DENSITY ALT 400FT

CYGK;2017-07-25 18:00;CYGK 251800Z 03009G18KT 15SM FEW020 BKN026 19/14 A3017 RMK CF1SC6 SLP217 DENSITY ALT 600FT

CYGK;2017-07-25 19:00;CYGK 251900Z 04009G19KT 15SM BKN027 19/14 A3017 RMK SC7 SLP219 DENSITY ALT 700FT

CYGK;2017-07-25 20:00;CYGK 252000Z 04011G18KT 15SM FEW032 BKN039 21/13 A3018 RMK CF1SC6 SLP223 DENSITY ALT 800FT

CYGK;2017-07-25 21:00;CYGK 252100Z 04009KT 15SM FEW030 SCT040 SCT250 21/14 A3018 RMK CU2SC1CI1 SLP221 DENSITY ALT 800FT

CYGK;2017-07-25 22:00;CYGK 252200Z 03007KT 15SM FEW036 SCT250 21/14 A3018 RMK SC2CI1 SLP222 DENSITY ALT 800FT

CYGK;2017-07-25 23:00;CYGK 252300Z 03007KT 360V060 15SM FEW043 SCT250 21/13 A3018 RMK SC2CI1 SLP223 DENSITY ALT 800FT

CYGK;2017-07-26 00:00;CYGK 260000Z 04003KT 15SM FEW045 FEW250 20/14 A3020 RMK SC1CI1 SLP229 DENSITY ALT 600FT

CYGK;2017-07-26 01:00;CYGK 260100Z 11003KT 15SM FEW045 FEW250 17/14 A3021 RMK SC1CI1 SC TR SLP233 DENSITY ALT 400FT

CYGK;2017-07-26 02:00;CYGK 260200Z VRB02KT 15SM FEW040 FEW250 15/14 A3023 RMK SC1CI1 SC TR CI TR SLP238

CYGK;2017-07-26 03:00;CYGK 260300Z 34004KT 15SM SKC 15/15 A3022 RMK LAST STFD OBS/NEXT 261000 UTC SLP237

CYGK;2017-07-26 10:00;CYGK 261000Z 33003KT 15SM FEW020 OVC040 15/15 A3022 RMK CU2SC6 SLP236

CYGK;2017-07-26 11:00;CYGK 261100Z 00000KT 15SM FEW020 OVC042 16/16 A3022 RMK CU1SC7 SLP235

CYGK;2017-07-26 12:00;CYGK 261200Z 00000KT 15SM FEW020 OVC045 18/16 A3021 RMK CU1SC7 SLP233 DENSITY ALT 400FT

CYGK;2017-07-26 13:00;CYGK 261300Z 17002KT 15SM FEW015 BKN047 19/16 A3021 RMK CU1SC6 SLP232 DENSITY ALT 600FT

CYGK;2017-07-26 14:00;CYGK 261400Z 16005KT 15SM FEW020 SCT033 BKN050 OVC250 20/16 A3018 RMK CU1CU3SC3CI1 PRESFR SLP222 DENSITY ALT 700FT

CYGK;2017-07-26 15:00;CYGK 261500Z 16007KT 15SM SCT035 BKN050 21/16 A3017 RMK CU3SC4 SLP220 DENSITY ALT 800FT

CYGK;2017-07-26 16:00;CYGK 261600Z 19011KT 15SM SCT030 OVC050 21/16 A3018 RMK CU3SC5 SLP221 DENSITY ALT 800FT

CYGK;2017-07-26 17:00;CYGK 261700Z 20011KT 15SM SCT019 BKN047 21/16 A3016 RMK CU3SC4 SLP216 DENSITY ALT 900FT

CYGK;2017-07-26 18:00;CYGK 261800Z 20011KT 15SM FEW025 BKN045 OVC250 21/15 A3015 RMK CU2SC4CI2 SLP212 DENSITY ALT 900FT

CYGK;2017-07-26 19:00;CYGK 261900Z 19009KT 15SM FEW020 BKN041 OVC220 21/16 A3013 RMK CU1SC6CS1 SLP205 DENSITY ALT 900FT

CYGK;2017-07-26 20:00;CYGK 262000Z 18008KT 15SM FEW020 SCT040 OVC140 20/16 A3009 RMK CU1SC2AC5 SLP192 DENSITY ALT 800FT

CYGK;2017-07-26 21:00;CYGK 262100Z 22006KT 15SM FEW020 SCT041 OVC130 20/16 A3010 RMK CU1SC3AC5 CU TR SLP194 DENSITY ALT 800FT

CYGK;2017-07-26 22:00;CYGK 262200Z 23004KT 15SM BKN100 OVC230 20/16 A3007 RMK AC6CS2 SLP186 DENSITY ALT 800FT

CYGK;2017-07-26 23:00;CYGK 262300Z 27002KT 15SM OVC096 20/17 A3007 RMK AC8 SLP184 DENSITY ALT 800FT

CYGK;2017-07-27 00:00;CYGK 270000Z 25002KT 15SM OVC110 20/16 A3006 RMK AC8 SLP181 DENSITY ALT 800FT

CYGK;2017-07-27 01:00;CYGK 270100Z 21003KT 15SM OVC100 19/16 A3003 RMK AC8 SLP170 DENSITY ALT 800FT

CYGK;2017-07-27 02:00;CYGK 270200Z 17008KT 15SM -SHRA OVC120 20/18 A2999 RMK AC8 PRESFR SLP156 DENSITY ALT 900FT

CYGK;2017-07-27 03:00;CYGK 270300Z 31005KT 15SM -SHRA OVC120 19/18 A3000 RMK AC8 LAST STFD OBS / NEXT 271000 UTC SLP160 DENSITY ALT 800FT

CYGK;2017-07-27 10:00;CYGK 271000Z 23006KT 15SM VCSH OVC048 20/19 A2991 RMK SC8 SLP131 DENSITY ALT 1000FT

CYGK;2017-07-27 10:43;CYGK 271043Z 25009KT 6SM -SHRA BR BKN023 OVC050 20/19 A2992 RMK SC5SC3 SLP133 DENSITY ALT 1000FT

CYGK;2017-07-27 11:00;CYGK 271100Z 26009KT 8SM -SHRA SCT018 OVC038 20/19 A2992 RMK CU4SC4 SLP132 DENSITY ALT 1000FT

CYGK;2017-07-27 11:31;CYGK 271131Z 26007KT 15SM VCSH FEW010 BKN022 OVC090 19/18 A2992 RMK CU1SC4AC3 PRESRR SLP133 DENSITY ALT 900FT

CYGK;2017-07-27 12:00;CYGK 271200Z 23006KT 15SM VCSH FEW010 SCT020 BKN035 OVC080 20/19 A2991 RMK CF1CU3SC3AC2 CF TR SLP131 DENSITY ALT 1000FT

CYGK;2017-07-27 13:00;CYGK 271300Z 25006KT 15SM SCT010 BKN080 21/19 A2991 RMK CF3AC3 SLP131 DENSITY ALT 1100FT

CYGK;2017-07-27 13:30;CYGK 271330Z 25006KT 15SM BKN013 BKN080 BKN200 21/20 A2991 RMK CU5AC1CI1 SLP128 DENSITY ALT 1200FT

CYGK;2017-07-27 14:00;CYGK 271400Z 31009KT 250V340 15SM BKN017 BKN080 BKN200 23/18 A2990 RMK CU5AC1CI1 SLP126 DENSITY ALT 1300FT

CYGK;2017-07-27 15:00;CYGK 271500Z 29009KT 15SM FEW025 SCT120 SCT220 24/18 A2989 RMK CU2AC1CI1 SLP124 DENSITY ALT 1400FT

CYGK;2017-07-27 16:00;CYGK 271600Z 23006KT 15SM SCT030 SCT120 BKN250 24/19 A2989 RMK CU3AC1CI1 SLP121 DENSITY ALT 1400FT

CYGK;2017-07-27 17:00;CYGK 271700Z 21009KT 15SM FEW038 FEW120 SCT220 25/19 A2988 RMK CU2AC1CI1 AC TR SLP119 DENSITY ALT 1600FT

CYGK;2017-07-27 18:00;CYGK 271800Z 20013KT 15SM SCT042 BKN120 24/21 A2987 RMK CU4AC1 SLP115 DENSITY ALT 1500FT

CYGK;2017-07-27 19:00;CYGK 271900Z 19012KT 15SM BKN055 BKN120 24/21 A2985 RMK CU5AC1 AC TR SLP110 DENSITY ALT 1600FT

CYGK;2017-07-27 20:00;CYGK 272000Z 18012KT 15SM FEW045TCU SCT120 24/21 A2985 RMK TCU2AC1 SLP108 DENSITY ALT 1600FT

CYGK;2017-07-27 21:00;CYGK 272100Z 21012KT 15SM BKN055TCU BKN120 24/20 A2984 RMK TCU5AC1 AC TR SLP105 DENSITY ALT 1500FT

CYGK;2017-07-27 22:00;CYGK 272200Z 24008G16KT 15SM VCSH BKN045TCU BKN120 24/20 A2984 RMK TCU5AC1 AC TR SLP105 DENSITY ALT 1500FT

CYGK;2017-07-27 23:03;CYGK 272303Z 24008KT 15SM SCT040TCU SCT120 24/20 A2983 RMK TCU3AC1 AC TR SLP103 DENSITY ALT 1500FT

CYGK;2017-07-28 00:00;CYGK 280000Z 25005KT 15SM BKN045TCU BKN110 23/20 A2985 RMK TCU5AC1 AC TR SLP108 DENSITY ALT 1400FT

CYGK;2017-07-28 01:00;CYGK 280100Z 33003KT 15SM BKN048TCU 22/19 A2986 RMK TCU5 SLP113 DENSITY ALT 1300FT

CYGK;2017-07-28 02:00;CYGK 280200Z 01006KT 15SM SCT045 21/16 A2988 RMK CU3 SLP119 DENSITY ALT 1200FT

CYGK;2017-07-28 03:00;CYGK 280300Z 01008KT 15SM BKN060 21/16 A2989 RMK SC6 LAST STFD OBS/NEXT 281000 UTC SLP124 DENSITY ALT 1100FT

CYGK;2017-07-28 10:00;CYGK 281000Z 01009KT 15SM FEW060 SCT140 BKN250 16/14 A2994 RMK SC1AC2CI4 SLP140 DENSITY ALT 500FT

CYGK;2017-07-28 11:00;CYGK 281100Z 01009KT 15SM FEW060 FEW140 BKN250 17/14 A2995 RMK SC1AC1CI6 SC TR SLP143 DENSITY ALT 600FT

CYGK;2017-07-28 12:00;CYGK 281200Z 36010KT 15SM FEW140 BKN250 17/12 A2997 RMK AC1CI6 SLP149 DENSITY ALT 600FT

CYGK;2017-07-28 13:00;CYGK 281300Z 01010G16KT 15SM FEW120 BKN250 18/12 A2998 RMK AC2CI5 SLP152 DENSITY ALT 700FT

CYGK;2017-07-28 14:00;CYGK 281400Z 35011KT 340V050 15SM FEW052 SCT120 BKN250 20/12 A2998 RMK SC1AC2CI3 SLP152 DENSITY ALT 900FT

CYGK;2017-07-28 15:00;CYGK 281500Z 01010KT 15SM FEW050 FEW120 BKN250 19/11 A2998 RMK CU1AC1CI5 CU TR SLP152 DENSITY ALT 900FT

CYGK;2017-07-28 16:00;CYGK 281600Z 02009KT 330V060 15SM FEW032 FEW120 BKN250 20/11 A2997 RMK CU1AC1CI5 SLP151 DENSITY ALT 1000FT

CYGK;2017-07-28 17:00;CYGK 281700Z 33006KT 300V040 15SM FEW120 BKN220 21/12 A2996 RMK AC1CI7 AC TR SLP148 DENSITY ALT 1100FT

CYGK;2017-07-28 18:00;CYGK 281800Z 02008KT 15SM FEW040 FEW120 BKN250 21/08 A2996 RMK CU1AC2CI5 CU TR SLP148 DENSITY ALT 1100FT

CYGK;2017-07-28 19:00;CYGK 281900Z 03006KT 330V040 15SM FEW040 BKN250 21/08 A2996 RMK CU1CI7 CU TR SLP147 DENSITY ALT 1100FT

CYGK;2017-07-28 20:00;CYGK 282000Z 35013G20KT 15SM FEW040 BKN250 22/08 A2995 RMK CU1CI6 CU TR SLP143 DENSITY ALT 1200FT

CYGK;2017-07-28 21:00;CYGK 282100Z 36013G18KT 15SM FEW040 BKN220 22/07 A2994 RMK CU1CI6 CU TR SLP140 DENSITY ALT 1200FT

CYGK;2017-07-28 22:00;CYGK 282200Z 01010KT 15SM FEW040 FEW120 BKN220 21/09 A2994 RMK SC1AC1CI6 SC TR SLP139 DENSITY ALT 1100FT

CYGK;2017-07-28 23:00;CYGK 282300Z 02006KT 15SM FEW160 BKN240 20/09 A2994 RMK AC1CI5 SLP140 DENSITY ALT 1000FT

CYGK;2017-07-29 00:00;CYGK 290000Z 35003KT 15SM FEW160 BKN220 19/10 A2994 RMK AC1CI6 AC TR SLP140 DENSITY ALT 900FT

CYGK;2017-07-29 01:00;CYGK 290100Z 36004KT 15SM SCT220 17/12 A2994 RMK CI4 SLP140 DENSITY ALT 700FT

CYGK;2017-07-29 02:00;CYGK 290200Z 34004KT 15SM SCT210 16/13 A2995 RMK CI3 SLP142 DENSITY ALT 500FT

CYGK;2017-07-29 03:00;CYGK 290300Z 34003KT 15SM SCT210 14/13 A2995 RMK CI3 LAST STFD OBS/NEXT 291000 UTC SLP142

CYGK;2017-07-29 10:00;CYGK 291000Z 34007KT 15SM BKN250 12/11 A2995 RMK CI6 SLP146

CYGK;2017-07-29 11:00;CYGK 291100Z 35006KT 15SM SCT250 14/12 A2996 RMK CI4 SLP147

CYGK;2017-07-29 12:00;CYGK 291200Z 35006KT 15SM SCT250 17/13 A2999 RMK CI4 SLP157 DENSITY ALT 600FT

CYGK;2017-07-29 13:00;CYGK 291300Z 03006KT 15SM SCT250 20/12 A3000 RMK CI3 SLP159 DENSITY ALT 900FT

CYGK;2017-07-29 14:00;CYGK 291400Z 01007KT 350V050 15SM FEW250 22/11 A3000 RMK CI2 SLP160 DENSITY ALT 1100FT

CYGK;2017-07-29 15:00;CYGK 291500Z 03011G17KT 350V050 15SM FEW025 SCT240 23/09 A3000 RMK CU1CI3 CU TR SLP162 DENSITY ALT 1200FT

CYGK;2017-07-29 16:00;CYGK 291600Z 36013KT 15SM FEW040 FEW250 24/08 A3000 RMK CF1CI2 CF TR SLP159 DENSITY ALT 1300FT

CYGK;2017-07-29 17:00;CYGK 291700Z 02011G18KT 340V040 15SM FEW040 SCT250 24/07 A2998 RMK CU1CI3 CU TR SLP155 DENSITY ALT 1400FT

CYGK;2017-07-29 18:00;CYGK 291800Z 02010G17KT 340V050 15SM FEW040 FEW250 24/05 A2997 RMK CU1CI2 CU TR SLP151 DENSITY ALT 1400FT

CYGK;2017-07-29 19:00;CYGK 291900Z 33010KT 290V080 15SM FEW040 FEW250 25/08 A2997 RMK SF1CI1 SF TR SLP149 DENSITY ALT 1500FT

CYGK;2017-07-29 20:00;CYGK 292000Z 36006G16KT 330V050 15SM FEW040 SCT250 26/09 A2996 RMK CU1CI3 CU TR SLP146 DENSITY ALT 1600FT

CYGK;2017-07-29 21:00;CYGK 292100Z 01011G17KT 15SM FEW040 FEW250 25/07 A2996 RMK CU1CI2 CU TR SLP148 DENSITY ALT 1600FT

CYGK;2017-07-29 22:00;CYGK 292200Z 01008KT 15SM FEW040 FEW250 25/08 A2997 RMK CU1CI2 CU TR SLP149 DENSITY ALT 1500FT

CYGK;2017-07-29 23:00;CYGK 292300Z 02006KT 15SM FEW250 24/07 A2997 RMK CI1 SLP151 DENSITY ALT 1400FT

CYGK;2017-07-30 00:00;CYGK 300000Z 03003KT 15SM FEW250 22/06 A2998 RMK CI1 SLP153 DENSITY ALT 1200FT

CYGK;2017-07-30 01:00;CYGK 300100Z 06003KT 15SM SKC 20/07 A2998 RMK SLP155 DENSITY ALT 900FT

CYGK;2017-07-30 02:00;CYGK 300200Z 35003KT 15SM SKC 17/08 A2999 RMK SLP158 DENSITY ALT 500FT

CYGK;2017-07-30 03:00;CYGK 300300Z 34005KT 15SM SKC 15/11 A2999 RMK LAST STFD OBS/NEXT 301000 UTC SLP156

CYGK;2017-07-30 10:00;CYGK 301000Z 35006KT 15SM FEW100 12/11 A3003 RMK AC2 SLP170

CYGK;2017-07-30 11:00;CYGK 301100Z 34002KT 15SM FEW060 FEW100 14/12 A3004 RMK SC1AC1 SLP173

CYGK;2017-07-30 12:00;CYGK 301200Z 00000KT 15SM FEW060 FEW100 18/13 A3005 RMK SC1AC1 SC TR AC TR SLP177 DENSITY ALT 600FT

CYGK;2017-07-30 13:00;CYGK 301300Z 17004KT 15SM FEW060 20/13 A3006 RMK SC1 SC TR SLP180 DENSITY ALT 900FT

CYGK;2017-07-30 14:00;CYGK 301400Z 17005KT 15SM FEW120 21/16 A3006 RMK AC1 AC TR SLP179 DENSITY ALT 900FT

CYGK;2017-07-30 15:00;CYGK 301500Z 18008KT 15SM FEW020 FEW120 SCT250 22/17 A3007 RMK CU1AC2CI1 CU TR SLP185 DENSITY ALT 1100FT

CYGK;2017-07-30 16:00;CYGK 301600Z 18008KT 15SM FEW025 FEW110 FEW240 23/16 A3007 RMK CU1AC1CI1 CU TR AC TR CI TR SLP183 DENSITY ALT 1100FT

CYGK;2017-07-30 17:00;CYGK 301700Z 18009KT 15SM FEW028 23/16 A3006 RMK CU1 CU TR SLP183 DENSITY ALT 1200FT

CYGK;2017-07-30 18:00;CYGK 301800Z 18009KT 15SM FEW030 FEW250 24/15 A3006 RMK CU1CI1 CI TR SLP181 DENSITY ALT 1300FT

CYGK;2017-07-30 19:00;CYGK 301900Z 19011KT 15SM FEW030TCU 23/18 A3006 RMK TCU1 SLP181 DENSITY ALT 1200FT

CYGK;2017-07-30 20:00;CYGK 302000Z 19010KT 15SM FEW030TCU 24/17 A3004 RMK TCU2 SLP173 DENSITY ALT 1300FT

CYGK;2017-07-30 21:00;CYGK 302100Z 21008KT 15SM FEW030CB 23/17 A3003 RMK CB2 SLP172 DENSITY ALT 1200FT

CYGK;2017-07-30 22:00;CYGK 302200Z 21006KT 15SM FEW040 SCT120 BKN250 22/18 A3003 RMK CU2AC2CI1 SLP173 DENSITY ALT 1100FT

CYGK;2017-07-30 23:00;CYGK 302300Z 20007KT 15SM SCT120 BKN250 23/20 A3002 RMK AC4CI1 SLP168 DENSITY ALT 1200FT

CYGK;2017-07-31 00:00;CYGK 310000Z 21004KT 15SM SCT120 BKN250 22/20 A3002 RMK AC4CI2 SLP168 DENSITY ALT 1200FT

CYGK;2017-07-31 01:00;CYGK 310100Z 19007KT 15SM FEW080 SCT120 BKN250 22/21 A3003 RMK AC2AC2CI2 SLP170 DENSITY ALT 1100FT

CYGK;2017-07-31 02:00;CYGK 310200Z 18005KT 15SM FEW080 BKN130 21/21 A3003 RMK AC2AC4 SLP172 DENSITY ALT 1000FT

CYGK;2017-07-31 03:00;CYGK 310300Z 19003KT 15SM FEW080 BKN110 21/21 A3003 RMK AC1AC5 LAST STFD OBS/NEXT 301000 UTC SLP171 DENSITY ALT 1000FT

CYGK;2017-07-31 10:00;CYGK 311000Z 27006KT 15SM FEW120 FEW250 16/14 A3005 RMK AC1CI1 AC TR CI TR SLP177

CYGK;2017-07-31 11:00;CYGK 311100Z 28007KT 15SM FEW120 FEW250 17/15 A3006 RMK AC1CI1 CI TR SLP180 DENSITY ALT 500FT

CYGK;2017-07-31 12:00;CYGK 311200Z 28006KT 15SM FEW150 FEW250 19/16 A3006 RMK AC2CI1 CI TR SLP180 DENSITY ALT 700FT

CYGK;2017-07-31 13:00;CYGK 311300Z 22005KT 180V290 15SM FEW160 FEW250 20/17 A3006 RMK AC1CI1 AC TR CI TR SLP182 DENSITY ALT 900FT

CYGK;2017-07-31 14:00;CYGK 311400Z 18005KT 160V230 15SM FEW025 FEW150 21/17 A3006 RMK CU1AC1 CU TR AC TR SLP181 DENSITY ALT 1000FT

CYGK;2017-07-31 15:00;CYGK 311500Z 17006KT 15SM FEW025 FEW150 22/18 A3007 RMK CU1AC1 CU TR AC TR SLP184 DENSITY ALT 1100FT

CYGK;2017-07-31 16:00;CYGK 311600Z 17007KT 15SM FEW025 23/19 A3007 RMK CU1 CU TR CB TOPS DIST NW SLP184 DENSITY ALT 1200FT

CYGK;2017-07-31 17:00;CYGK 311700Z 18009KT 15SM FEW025 FEW120 23/19 A3006 RMK CU1AC1 AC TR CB TOPS DIST NW SLP182 DENSITY ALT 1200FT

CYGK;2017-07-31 18:00;CYGK 311800Z 18009KT 15SM FEW030 FEW120 23/20 A3005 RMK CU1AC1 AC TR CB TOP DIST NW SLP178 DENSITY ALT 1200FT

CYGK;2017-07-31 19:00;CYGK 311900Z 18010KT 15SM TS SCT025CB BKN096 24/20 A3004 RMK CB3AC2 CB NW MOVG E SLP174 DENSITY ALT 1300FT

CYGK;2017-07-31 19:37;CYGK 311937Z 22007KT 8SM -TSRA SCT025CB BKN100 22/20 A3005 RMK CB4AC2 FREQ LTGCG NW-NE MVG EWD SLP178 DENSITY ALT 1100FT

CYGK;2017-07-31 19:40;CYGK 311940Z 26008KT 190V280 8SM TSRA SCT020CB BKN100 22/20 A3006 RMK CB4AC2 FREQ LTGCG NW-NE VIS NW 2 SLP181 DENSITY ALT 1100FT

CYGK;2017-07-31 20:00;CYGK 312000Z 00000KT 10SM TSRA SCT020CB BKN100 BKN230 21/20 A3005 RMK CB3AC2CI2 OCNL LTGCG N-NE MVG EWD SLP176 DENSITY ALT 900FT

CYGK;2017-07-31 20:33;CYGK 312033Z 34003KT 15SM -SHRA FEW020CB SCT140 BKN240 21/20 A3004 RMK CB2AC1CI4 CB NE-E MOVG E SLP173 DENSITY ALT 1000FT

CYGK;2017-07-31 20:53;CYGK 312053Z VRB02KT 15SM FEW020CB SCT082 BKN240 21/19 A3004 RMK CB2AC2CI3 CB E MOVG E SLP173 DENSITY ALT 1000FT

CYGK;2017-07-31 21:00;CYGK 312100Z 36003KT 15SM FEW020CB SCT025TCU BKN082 BKN240 22/19 A3004 RMK CB2TCU1AC2CI2 CB E MOVG E TCU N SLP174 DENSITY ALT 1100FT

CYGK;2017-07-31 21:24;CYGK 312124Z 04003KT 310V040 15SM -SHRA FEW020CB SCT025TCU BKN082 BKN240 22/20 A3003 RMK CB1TCU2AC2CI2 SLP172 DENSITY ALT 1100FT

CYGK;2017-07-31 22:00;CYGK 312200Z 23003KT 190V260 15SM FEW020CB FEW025TCU SCT130 BKN270 23/19 A3003 RMK CB1TCU1AC1CI4 SLP171 DENSITY ALT 1300FT

CYGK;2017-07-31 23:00;CYGK 312300Z 23005KT 170V240 15SM FEW025TCU BKN100 BKN270 23/21 A3005 RMK TCU2AC3CI2 SLP176 DENSITY ALT 1200FT

CYGK;2017-08-01 00:00;CYGK 010000Z 20004KT 15SM FEW090 BKN250 22/19 A3004 RMK AC1CI6 TCU TOP DIST SE SLP173 DENSITY ALT 1000FT

CYGK;2017-08-01 01:00;CYGK 010100Z 17003KT 15SM FEW100 BKN270 21/20 A3004 RMK AC1CI5 SLP173 DENSITY ALT 1000FT

CYGK;2017-08-01 02:00;CYGK 010200Z 26004KT 15SM FEW130 BKN250 19/19 A3006 RMK AC1CI5 AC TR SLP179 DENSITY ALT 800FT

CYGK;2017-08-01 03:00;CYGK 010300Z 00000KT 15SM SCT270 20/20 A3005 RMK CI3 LAST STFD OBS / NEXT 011000 UTC SLP178 DENSITY ALT 900FT

CYGK;2017-08-01 10:00;CYGK 011000Z 35004KT 3/4SM BR BKN250 16/16 A3005 RMK FG2CI3 SLP178 DENSITY ALT 400FT

CYGK;2017-08-01 10:07;CYGK 011007Z 35004KT 1 1/2SM BR FEW001 SCT250 16/16 A3005 RMK SF2CI2 VIS 1/2 N SLP178 DENSITY ALT 400FT

CYGK;2017-08-01 10:28;CYGK 011028Z 01002KT 1SM BR OVC001 16/16 A3006 RMK FG2SF6 SLP180 DENSITY ALT 400FT

CYGK;2017-08-01 10:35;CYGK 011035Z 03002KT 1/2SM FG VV001 16/16 A3006 RMK FG8 SLP180 DENSITY ALT 400FT

CYGK;2017-08-01 10:40;CYGK 011040Z 02003KT 1/4SM FG VV001 17/17 A3006 RMK FG8 SLP180 DENSITY ALT 500FT

CYGK;2017-08-01 11:00;CYGK 011100Z 03002KT 3/8SM FG VV001 17/17 A3006 RMK FG8 SLP182 DENSITY ALT 500FT

CYGK;2017-08-01 11:22;CYGK 011122Z 04005KT 1/4SM FG VV001 18/18 A3007 RMK FG8 SLP184 DENSITY ALT 600FT

CYGK;2017-08-01 12:00;CYGK 011200Z 05003KT 1/8SM FG VV001 19/19 A3008 RMK FG8 SLP187 DENSITY ALT 700FT

CYGK;2017-08-01 13:00;CYGK 011300Z 14004KT 070V150 1/4SM FG VV002 20/20 A3008 RMK FG8 SLP188 DENSITY ALT 800FT

CYGK;2017-08-01 13:06;CYGK 011306Z 10004KT 080V150 1/2SM FG VV002 20/20 A3008 RMK FG8 SLP188 DENSITY ALT 900FT

CYGK;2017-08-01 13:10;CYGK 011310Z 12003KT 080V150 3/4SM BR OVC002 20/20 A3008 RMK FG4ST4 SLP188 DENSITY ALT 900FT

CYGK;2017-08-01 13:16;CYGK 011316Z 10003KT 080V140 1 1/2SM BR OVC003 21/20 A3008 RMK SF8 VIS S 4 SLP188 DENSITY ALT 900FT

CYGK;2017-08-01 13:24;CYGK 011324Z 13004KT 080V150 3SM BR OVC004 21/21 A3008 RMK SF8 SLP188 DENSITY ALT 900FT

CYGK;2017-08-01 13:47;CYGK 011347Z 15003KT 6SM BR OVC006 21/21 A3008 RMK SF8 SLP187 DENSITY ALT 1000FT

CYGK;2017-08-01 14:00;CYGK 011400Z 15006KT 6SM BR BKN007 21/21 A3008 RMK SF7 SLP187 DENSITY ALT 1000FT

CYGK;2017-08-01 15:00;CYGK 011500Z 16003KT 110V210 7SM BKN008 23/21 A3008 RMK CU7 SLP188 DENSITY ALT 1200FT

CYGK;2017-08-01 15:51;CYGK 011551Z 17007KT 8SM SCT008 BKN250 23/21 A3008 RMK CU4CI2 SLP187 DENSITY ALT 1200FT

CYGK;2017-08-01 16:00;CYGK 011600Z 17005KT 8SM SCT008 SCT250 23/22 A3008 RMK CU3CI1 SLP187 DENSITY ALT 1200FT

CYGK;2017-08-01 17:00;CYGK 011700Z 19007KT 6SM BR FEW004 SCT020TCU SCT250 23/21 A3007 RMK SF2TCU1CI1 SLP185 DENSITY ALT 1100FT

CYGK;2017-08-01 18:00;CYGK 011800Z 17007KT 8SM FEW003 FEW020CB 23/22 A3006 RMK SF1CB1 SF TR CB NW SLP181 DENSITY ALT 1200FT

CYGK;2017-08-01 19:00;CYGK 011900Z 20006KT 8SM FEW003 FEW020CB FEW080 24/22 A3005 RMK SF1CB1AC1 SF TR SLP178 DENSITY ALT 1300FT

CYGK;2017-08-01 20:00;CYGK 012000Z 18007KT 10SM FEW020CB FEW110 25/21 A3003 RMK CB1AC1 SLP171 DENSITY ALT 1400FT

CYGK;2017-08-01 21:00;CYGK 012100Z 17006KT 12SM FEW020TCU FEW110 24/20 A3001 RMK TCU1AC1 TCU TR SLP164 DENSITY ALT 1400FT

CYGK;2017-08-01 22:00;CYGK 012200Z 17005KT 12SM FEW020TCU SCT100 SCT250 24/21 A3001 RMK TCU2AC1CI1 SLP164 DENSITY ALT 1400FT

CYGK;2017-08-01 23:00;CYGK 012300Z 17005KT 12SM FEW020 FEW100 SCT250 24/21 A3001 RMK CU1AC1CI1 SLP163 DENSITY ALT 1300FT

CYGK;2017-08-02 00:00;CYGK 020000Z 23004KT 12SM FEW020 FEW100 23/21 A3001 RMK CU1AC1 SLP163 DENSITY ALT 1200FT

CYGK;2017-08-02 01:00;CYGK 020100Z 20005KT 12SM FEW020 FEW100 22/20 A3001 RMK CU1AC2 CU TR SLP165 DENSITY ALT 1100FT

CYGK;2017-08-02 02:00;CYGK 020200Z 21005KT 12SM FEW100 21/21 A3002 RMK AC1 SLP168 DENSITY ALT 1100FT

CYGK;2017-08-02 03:00;CYGK 020300Z 23005KT 12SM FEW100 21/21 A3002 RMK AC1 LAST STFD OBS/NEXT 021000 UTC SLP168 DENSITY ALT 1000FT

CYGK;2017-08-02 10:00;CYGK 021000Z 20006KT 5SM BR MIFG FEW008 SCT140 BKN250 21/21 A3002 RMK CF1AC3CI1 SLP168 DENSITY ALT 1000FT

CYGK;2017-08-02 11:00;CYGK 021100Z 19004KT 6SM BR MIFG FEW006 SCT130 BKN250 22/22 A3002 RMK CF1AC3CI1 SLP167 DENSITY ALT 1100FT

CYGK;2017-08-02 12:00;CYGK 021200Z 19007KT 8SM FEW010 SCT140 BKN250 23/22 A3003 RMK CF1AC4CI1 CF TR SLP169 DENSITY ALT 1200FT

CYGK;2017-08-02 12:41;CYGK 021241Z 19008KT 10SM SCT008 BKN140 BKN250 23/22 A3003 RMK SF4AC2CI1 SLP171 DENSITY ALT 1300FT

CYGK;2017-08-02 13:00;CYGK 021300Z 22008KT 8SM FEW005 BKN150 23/21 A3004 RMK CU2AC4 HZ SLP173 DENSITY ALT 1300FT

CYGK;2017-08-02 14:00;CYGK 021400Z 23004KT 200V260 8SM FEW011 SCT150 BKN250 24/22 A3004 RMK CU2AC2CI1 SLP173 DENSITY ALT 1400FT

CYGK;2017-08-02 15:00;CYGK 021500Z 18010KT 9SM FEW012 BKN250 24/22 A3004 RMK CU2CI3 HZ WND ESTD SLP173 DENSITY ALT 1400FT

CYGK;2017-08-02 16:00;CYGK 021600Z 19010KT 10SM FEW014 BKN250 24/22 A3004 RMK CU2CI3 SLP173 DENSITY ALT 1400FT

CYGK;2017-08-02 17:00;CYGK 021700Z 18010KT 11SM FEW020TCU BKN270 24/22 A3003 RMK TCU2CI4 SLP168 DENSITY ALT 1300FT

CYGK;2017-08-02 18:00;CYGK 021800Z 18011KT 10SM FEW020TCU SCT250 24/22 A3001 RMK TCU1CI2 SLP163 DENSITY ALT 1400FT

CYGK;2017-08-02 19:00;CYGK 021900Z 18010KT 12SM FEW030TCU SCT250 25/22 A2999 RMK TCU2CI2 SLP156 DENSITY ALT 1500FT

CYGK;2017-08-02 20:00;CYGK 022000Z 19012KT 12SM FEW030TCU BKN270 25/22 A2998 RMK TCU2CI4 TCU N - NE SLP152 DENSITY ALT 1500FT

CYGK;2017-08-02 21:00;CYGK 022100Z 19009KT 15SM FEW040TCU SCT250 25/22 A2998 RMK TCU1CI3 SLP152 DENSITY ALT 1500FT

CYGK;2017-08-02 22:00;CYGK 022200Z 18010KT 12SM FEW040TCU BKN250 24/21 A2999 RMK TCU1CI4 SLP155 DENSITY ALT 1400FT

CYGK;2017-08-02 23:00;CYGK 022300Z 19009KT 15SM FEW060 SCT100 BKN250 24/21 A2999 RMK CU1AC3CI2 SLP155 DENSITY ALT 1400FT

CYGK;2017-08-03 00:00;CYGK 030000Z 23004KT 15SM FEW060TCU SCT100 BKN180 BKN250 23/20 A3000 RMK TCU1AC3AC2CI2 TCU TR SLP158 DENSITY ALT 1300FT

CYGK;2017-08-03 01:00;CYGK 030100Z 24005KT 15SM FEW100 SCT180 OVC250 22/20 A3000 RMK AC2AC2CI4 SLP160 DENSITY ALT 1100FT

CYGK;2017-08-03 02:00;CYGK 030200Z 22005KT 15SM FEW120 BKN220 22/20 A3002 RMK AC2CI4 SLP165 DENSITY ALT 1100FT

CYGK;2017-08-03 03:00;CYGK 030300Z 00000KT 15SM SCT130 BKN220 20/19 A3002 RMK AC3CI2 LAST STFD OBS/NEXT 031000 UTC SLP167 DENSITY ALT 900FT

CYGK;2017-08-03 10:00;CYGK 031000Z 36003KT 12SM FEW150 SCT230 17/17 A3004 RMK AC1CI3 SLP174 DENSITY ALT 600FT

CYGK;2017-08-03 11:00;CYGK 031100Z 01002KT 12SM FEW100 BKN230 19/19 A3005 RMK AC1CI4 SLP178 DENSITY ALT 800FT

CYGK;2017-08-03 11:30;CYGK 031130Z 04002KT 10SM BKN009 19/19 A3006 RMK SF6 SLP180 DENSITY ALT 800FT

CYGK;2017-08-03 12:00;CYGK 031200Z VRB03KT 10SM BKN008 BKN015 22/22 A3007 RMK SF6SC1 SLP183 DENSITY ALT 1100FT

CYGK;2017-08-03 13:00;CYGK 031300Z 16009KT 10SM SCT006 BKN013 BKN230 22/21 A3008 RMK SF4SC3CI1 CI TR SLP188 DENSITY ALT 1100FT

CYGK;2017-08-03 14:00;CYGK 031400Z 17009KT 10SM FEW006 BKN014 BKN230 22/21 A3009 RMK SF2SC4CI1 SLP189 DENSITY ALT 1100FT

CYGK;2017-08-03 15:00;CYGK 031500Z 16008KT 10SM FEW009 BKN014 BKN240 23/20 A3009 RMK CF1CU6CI1 CF TR CIG RAG SLP191 DENSITY ALT 1100FT

CYGK;2017-08-03 15:35;CYGK 031535Z 16008KT 12SM FEW009 BKN017 BKN240 23/20 A3009 RMK SF1SC4CI1 SLP192 DENSITY ALT 1200FT

CYGK;2017-08-03 16:00;CYGK 031600Z 15007KT 12SM FEW013 SCT025TCU SCT230 24/21 A3009 RMK SC1TCU2CI1 SLP191 DENSITY ALT 1200FT

CYGK;2017-08-03 16:10;CYGK 031610Z 15007KT 10SM TS FEW005 FEW015CB SCT230 24/21 A3009 RMK SF1CB2CI2 SF TR CB LINE W-N SLP191 DENSITY ALT 1300FT

CYGK;2017-08-03 17:00;CYGK 031700Z 16006KT 130V190 10SM TS SCT015CB SCT160 BKN230 23/20 A3009 RMK CB3AC1CI1 PRESRR SLP190 DENSITY ALT 1200FT

CYGK;2017-08-03 18:00;CYGK 031800Z 20004KT 160V230 10SM TS FEW010 SCT020CB BKN240 23/20 A3007 RMK SF1CB4CI1 SF TR SLP183 DENSITY ALT 1100FT

CYGK;2017-08-03 18:38;CYGK 031838Z 17005KT 12SM VCSH FEW030TCU BKN140 BKN250 24/21 A3005 RMK TCU2AC3CI1 SLP177 DENSITY ALT 1300FT

CYGK;2017-08-03 19:00;CYGK 031900Z 19004KT 150V260 12SM FEW020 FEW030TCU BKN140 BKN250 25/21 A3004 RMK CU1TCU2AC3CI1 CU TR CB NW AND E SLP175 DENSITY ALT 1400FT

CYGK;2017-08-03 20:00;CYGK 032000Z 19007KT 10SM FEW020 FEW030TCU FEW160 SCT240 25/21 A3002 RMK CU1TCU1AC1CI1 AC TR CB DIST NW + E SLP167 DENSITY ALT 1500FT

CYGK;2017-08-03 21:00;CYGK 032100Z 14003KT 090V190 10SM FEW030TCU SCT160 BKN250 26/20 A3001 RMK TCU2AC2CI1 SLP164 DENSITY ALT 1500FT

CYGK;2017-08-03 22:00;CYGK 032200Z 15003KT 12SM FEW040 SCT160 BKN250 26/19 A3002 RMK CU1AC2CI3 SLP166 DENSITY ALT 1600FT

CYGK;2017-08-03 23:00;CYGK 032300Z 13004KT 15SM FEW040TCU BKN250 25/19 A3002 RMK TCU1CI6 SLP168 DENSITY ALT 1500FT

CYGK;2017-08-04 00:00;CYGK 040000Z 06007KT 15SM FEW100 SCT160 BKN250 24/21 A3003 RMK AC1AC3CI3 SLP168 DENSITY ALT 1300FT

CYGK;2017-08-04 01:00;CYGK 040100Z 06004KT 15SM FEW100 BKN250 22/21 A3001 RMK AC1CI6 SLP165 DENSITY ALT 1200FT

CYGK;2017-08-04 02:00;CYGK 040200Z 06006KT 15SM FEW140 OVC250 22/20 A3000 RMK AC2CI6 OCNL LTNG SOUTH SLP162 DENSITY ALT 1100FT

CYGK;2017-08-04 03:00;CYGK 040300Z 09005KT 15SM FEW045 SCT100 OVC250 22/20 A3000 RMK CU1AC2CI5 LAST STFD OBS/NEXT 041000 UTC/ OCNL LTNG SE SLP158 DENSITY ALT 1100FT

CYGK;2017-08-04 10:00;CYGK 041000Z 29003KT 7SM TS VCSH FEW010 BKN020CB OVC100 21/19 A2992 RMK SF2CB4AC2 OCNL LTGICCG N-NE SLP133 DENSITY ALT 1100FT

CYGK;2017-08-04 10:06;CYGK 041006Z 30003KT 7SM -TSRA FEW010 SCT020CB BKN040 OVC100 20/19 A2992 RMK SF1CB3SC3AC1 OCNL LTGICCG N-NE SLP134 DENSITY ALT 1000FT

CYGK;2017-08-04 10:30;CYGK 041030Z 32002KT 10SM VCSH FEW010 FEW020CB BKN042 OVC080 20/19 A2993 RMK SF1CB2SC4AC2 SF TR SLP136 DENSITY ALT 900FT

CYGK;2017-08-04 10:34;CYGK 041034Z 28005KT 260V340 10SM -SHRA FEW010 FEW020CB BKN042 OVC080 20/19 A2994 RMK SF1CB2SC4AC2 SF TR PRESRR SLP140 DENSITY ALT 900FT

CYGK;2017-08-04 11:00;CYGK 041100Z 06002KT 10SM FEW018 BKN042 BKN120 BKN220 19/19 A2992 RMK SC2SC4AC1CI1 CI TR SLP133 DENSITY ALT 900FT

CYGK;2017-08-04 12:00;CYGK 041200Z 17010KT 10SM FEW008 SCT042 SCT140 BKN230 22/22 A2991 RMK SF2SC1AC1CI2 SLP129 DENSITY ALT 1300FT

CYGK;2017-08-04 13:00;CYGK 041300Z 17012G17KT 8SM FEW010 BKN120 BKN250 24/22 A2990 RMK CF1AC5CI1 SLP126 DENSITY ALT 1500FT

CYGK;2017-08-04 14:00;CYGK 041400Z 17013G18KT 10SM FEW010 SCT110 BKN230 23/21 A2990 RMK SF1AC3CI2 SLP126 DENSITY ALT 1400FT

CYGK;2017-08-04 15:00;CYGK 041500Z 18011G16KT 8SM FEW012 FEW040 SCT120 BKN250 24/21 A2990 RMK CU1SC1AC2CI1 SLP127 DENSITY ALT 1500FT

CYGK;2017-08-04 16:00;CYGK 041600Z 18011KT 12SM FEW015 FEW050 BKN120 BKN220 24/22 A2989 RMK CF1SC2AC3CI1 CF TR SLP124 DENSITY ALT 1500FT

CYGK;2017-08-04 17:00;CYGK 041700Z 19008KT 10SM FEW020 SCT110 SCT250 25/21 A2987 RMK CU1AC2CI1 CB DIST SE SLP115 DENSITY ALT 1600FT

CYGK;2017-08-04 18:00;CYGK 041800Z 16006KT 12SM FEW020 FEW100 BKN220 26/23 A2983 RMK CU1AC1CI5 AC TR SLP102 DENSITY ALT 1800FT

CYGK;2017-08-04 19:00;CYGK 041900Z 18009G15KT 12SM FEW030TCU SCT100 BKN250 26/23 A2980 RMK TCU2AC2CI2 CB TOPS S-E NW SLP093 DENSITY ALT 1800FT

CYGK;2017-08-04 20:00;CYGK 042000Z 19008KT 15SM FEW030 BKN090 BKN250 26/20 A2978 RMK CF1AC5CI2 CF TR CB TOPS DIST SE-S SLP086 DENSITY ALT 1800FT

CYGK;2017-08-04 20:51;CYGK 042051Z 20011KT 15SM TS SCT040CB BKN090 OVC250 25/21 A2977 RMK CB3AC3CI2 SLP082 DENSITY ALT 1800FT

CYGK;2017-08-04 21:00;CYGK 042100Z 21011KT 15SM TS FEW020 SCT035CB BKN100 OVC250 25/21 A2977 RMK CU1CB3AC2CI3 CU TR CB S MOVING N SLP082 DENSITY ALT 1700FT

CYGK;2017-08-04 21:40;CYGK 042140Z 20020G28KT 12SM -TSRA BKN040CB OVC120 24/20 A2979 RMK CB5AC3 SLP088 DENSITY ALT 1600FT

CYGK;2017-08-04 22:00;CYGK 042200Z 20014G23KT 12SM -TSRA SCT040CB BKN100 OVC250 21/19 A2977 RMK CB3AC3CI2 PRESFR SLP081 DENSITY ALT 1300FT

CYGK;2017-08-04 22:19;CYGK 042219Z 22007KT 15SM FEW050CB BKN100 OVC250 21/20 A2976 RMK CB2AC4CI2 SLP080 DENSITY ALT 1300FT

CYGK;2017-08-04 23:00;CYGK 042300Z 21005KT 12SM VCSH FEW050TCU BKN100 OVC250 22/20 A2978 RMK TCU2AC5CI1 SLP084 DENSITY ALT 1400FT

CYGK;2017-08-04 23:09;CYGK 042309Z 19006KT 12SM -SHRA FEW025 SCT050TCU OVC100 22/20 A2978 RMK CU1TCU2AC5 SLP084 DENSITY ALT 1400FT

CYGK;2017-08-05 00:00;CYGK 050000Z 21014G24KT 12SM -SHRA SCT022 BKN080 OVC100 21/19 A2981 RMK CU3AC2AC3 SLP094 DENSITY ALT 1200FT

CYGK;2017-08-05 01:00;CYGK 050100Z 21008KT 12SM FEW025 SCT070 OVC110 20/20 A2979 RMK CU1AC3AC4 SLP088 DENSITY ALT 1200FT

CYGK;2017-08-05 01:34;CYGK 050134Z 17007KT 12SM -RA FEW007 SCT025 OVC110 21/20 A2978 RMK SF2CU1AC5 SLP087 DENSITY ALT 1300FT

CYGK;2017-08-05 02:00;CYGK 050200Z 17012G17KT 15SM SCT007 BKN018 OVC120 21/20 A2978 RMK SF3SC3AC2 SLP086 DENSITY ALT 1300FT

CYGK;2017-08-05 02:12;CYGK 050212Z 17012KT 15SM BKN008 OVC120 21/20 A2978 RMK CU5AC3 SLP086 DENSITY ALT 1300FT

CYGK;2017-08-05 02:42;CYGK 050242Z 18014G20KT 15SM OVC012 21/20 A2979 RMK SC8 SLP088 DENSITY ALT 1300FT

CYGK;2017-08-05 03:00;CYGK 050300Z 18013G20KT 15SM OVC015 21/19 A2978 RMK SC8 LAST STFD OBS/NEXT 051000 UTC SLP083 DENSITY ALT 1300FT

CYGK;2017-08-05 10:00;CYGK 051000Z 21013KT 15SM FEW020 SCT030 SCT150 19/15 A2976 RMK CU1SC2AC1 AC TR SLP079 DENSITY ALT 1000FT

CYGK;2017-08-05 11:00;CYGK 051100Z 21016KT 15SM SCT020 BKN072 19/16 A2977 RMK SC4AC1 SLP082 DENSITY ALT 1100FT

CYGK;2017-08-05 12:00;CYGK 051200Z 22017G26KT 15SM SCT020 BKN070 20/15 A2978 RMK CU3AC2 SLP084 DENSITY ALT 1200FT

CYGK;2017-08-05 13:00;CYGK 051300Z 23017G25KT 15SM FEW020 BKN053 19/15 A2979 RMK CU2SC5 SHWRS N SLP088 DENSITY ALT 1100FT

CYGK;2017-08-05 14:00;CYGK 051400Z 21018G26KT 15SM FEW010 SCT020TCU BKN055 20/16 A2979 RMK SF1TCU3SC3 SH NW-NE SLP089 DENSITY ALT 1200FT

CYGK;2017-08-05 14:49;CYGK 051449Z 24016G27KT 200V280 15SM -SHRA FEW008 BKN017 BKN055 19/16 A2981 RMK SF1CU6SC1 SF TR SLP094 DENSITY ALT 1000FT

CYGK;2017-08-05 15:00;CYGK 051500Z 23011G18KT 10SM -SHRA BKN017 BKN040 17/16 A2981 RMK CU5SC2 VIS NE 3 SLP095 DENSITY ALT 800FT

CYGK;2017-08-05 15:12;CYGK 051512Z 22013G18KT 15SM SCT018 BKN040 19/16 A2981 RMK CU3SC3 SH E SLP094 DENSITY ALT 1000FT

CYGK;2017-08-05 16:00;CYGK 051600Z 23014G25KT 15SM BKN018 BKN040 21/17 A2980 RMK CU5SC1 SLP093 DENSITY ALT 1200FT

CYGK;2017-08-05 17:00;CYGK 051700Z 24018G24KT 15SM VCSH SCT020 BKN050 20/15 A2981 RMK CU3SC4 SLP095 DENSITY ALT 1100FT

CYGK;2017-08-05 18:00;CYGK 051800Z 23021G29KT 15SM -SHRA SCT020 BKN048 19/15 A2981 RMK CU3SC4 SLP096 DENSITY ALT 1000FT

CYGK;2017-08-05 19:00;CYGK 051900Z 23017G23KT 15SM -SHRA SCT025 BKN040 19/16 A2981 RMK CU3CU4 SLP094 DENSITY ALT 1100FT

CYGK;2017-08-05 20:00;CYGK 052000Z 25016G26KT 15SM VCSH SCT025 BKN070 20/15 A2981 RMK CU4AC3 TCU ASOCTD SLP096 DENSITY ALT 1200FT

CYGK;2017-08-05 21:00;CYGK 052100Z 24015G28KT 15SM VCSH BKN030 OVC080 20/15 A2982 RMK CU6AC2 SLP099 DENSITY ALT 1100FT

CYGK;2017-08-05 21:11;CYGK 052111Z 27014G21KT 230V300 12SM -SHRA BKN030TCU OVC080 20/14 A2982 RMK TCU6AC2 SLP100 DENSITY ALT 1100FT

CYGK;2017-08-05 21:35;CYGK 052135Z 25010G17KT 15SM VCSH SCT035 BKN050 19/15 A2983 RMK CU4SC3 SLP103 DENSITY ALT 1000FT

CYGK;2017-08-05 22:00;CYGK 052200Z 26014G21KT 15SM VCSH SCT035 BKN050 19/14 A2984 RMK CU3SC4 SLP105 DENSITY ALT 1000FT

CYGK;2017-08-05 23:00;CYGK 052300Z 25016G26KT 15SM FEW030 BKN070 19/11 A2986 RMK CU2SC5 SLP113 DENSITY ALT 1000FT

CYGK;2017-08-06 00:00;CYGK 060000Z 26011G22KT 15SM FEW035 BKN075 18/11 A2988 RMK CU1AC5 SLP120 DENSITY ALT 800FT

CYGK;2017-08-06 01:00;CYGK 060100Z 26014G21KT 15SM FEW030 BKN050 17/11 A2991 RMK CU1SC4 SLP130 DENSITY ALT 700FT

CYGK;2017-08-06 02:00;CYGK 060200Z 27013G20KT 15SM SCT040 SCT060 16/10 A2993 RMK CU3SC1 SLP138 DENSITY ALT 600FT

CYGK;2017-08-06 03:00;CYGK 060300Z 29010G16KT 15SM FEW050 15/09 A2996 RMK CU2 LAST STFD OBS/NEXT 061000 UTC SLP148 DENSITY ALT 400FT

CYGK;2017-08-06 10:00;CYGK 061000Z 27005KT 15SM FEW030TCU FEW060 SCT250 13/11 A3000 RMK TCU1SC1CI2 TCU TR TCU DIST S SLP162

CYGK;2017-08-06 11:00;CYGK 061100Z 26006KT 15SM FEW030TCU FEW060 BKN090 BKN250 15/12 A3002 RMK TCU1SC1AC5CI1 TCU TR TCU DIST S SLP168

CYGK;2017-08-06 12:03;CYGK 061203Z 27009G15KT 15SM -SHRA FEW020 BKN040TCU BKN080 BKN250 15/13 A3004 RMK CF1TCU5AC2CI1 CF TR CI TR TCU EMBD SLP174

CYGK;2017-08-06 12:20;CYGK 061220Z 27006KT 15SM VCSH FEW025 SCT040TCU BKN078 BKN250 15/13 A3003 RMK CF1TCU3AC3CI1 CI TR TCU EMBD SE TCU DIST S SLP172

CYGK;2017-08-06 13:00;CYGK 061300Z 30007KT 15SM FEW025TCU FEW040 SCT100 16/13 A3003 RMK TCU1SC1AC3 TCU TR SLP170 DENSITY ALT 400FT

CYGK;2017-08-06 14:00;CYGK 061400Z 28010KT 240V300 15SM FEW025TCU FEW040 FEW100 FEW250 19/13 A3003 RMK TCU1SC1AC1CI1 TCU TR SC TR SLP173 DENSITY ALT 800FT

CYGK;2017-08-06 15:00;CYGK 061500Z 22010KT 15SM FEW030 SCT090 SCT250 20/14 A3003 RMK CU2AC1CI1 SLP173 DENSITY ALT 900FT

CYGK;2017-08-06 16:00;CYGK 061600Z 24009KT 15SM SCT038 SCT250 21/14 A3003 RMK CU3CI1 SLP170 DENSITY ALT 1000FT

CYGK;2017-08-06 17:00;CYGK 061700Z 25009G16KT 15SM VCSH BKN040 BKN250 22/14 A3003 RMK CU5CI1 SLP171 DENSITY ALT 1100FT

CYGK;2017-08-06 17:22;CYGK 061722Z 21009G15KT 12SM -SHRA BKN040TCU BKN250 21/14 A3003 RMK TCU5CI2 SLP172 DENSITY ALT 1000FT

CYGK;2017-08-06 18:00;CYGK 061800Z 20009KT 15SM -SHRA FEW020 BKN041CB BKN090 BKN250 20/15 A3003 RMK CF1CB5AC2CI1 CF TR CI TR CB NW  S TCU N-E VIS SE-S 4 SLP170 DENSITY ALT 900FT

CYGK;2017-08-06 19:00;CYGK 061900Z 28010G16KT 230V300 3SM -SHRA BR FEW018 BKN038TCU OVC090 19/15 A3003 RMK CF1TCU6AC1 SLP171 DENSITY ALT 700FT

CYGK;2017-08-06 19:06;CYGK 061906Z 29019G24KT 230V300 4SM -TSRA BR FEW018 OVC038CB 17/15 A3004 RMK CF1CB7 OCNL LTGCG SE PRESRR SLP174 DENSITY ALT 500FT

CYGK;2017-08-06 19:29;CYGK 061929Z 01004KT 290V020 15SM VCSH FEW015 FEW035CB BKN060 BKN230 18/16 A3003 RMK CF1CB2SC4CI1 CF TR CI TR SLP171 DENSITY ALT 600FT

CYGK;2017-08-06 20:00;CYGK 062000Z 03002KT 15SM VCSH FEW044TCU BKN060 BKN240 19/15 A3003 RMK TCU2SC3CI1 SLP170 DENSITY ALT 800FT

CYGK;2017-08-06 20:31;CYGK 062031Z 36006KT 10SM -SHRA SCT042TCU BKN060 19/16 A3003 RMK TCU3SC2 SLP173 DENSITY ALT 700FT

CYGK;2017-08-06 21:00;CYGK 062100Z 36004KT 350V050 12SM -SHRA FEW045TCU SCT060 BKN080 17/16 A3003 RMK TCU2SC2AC2 SLP171 DENSITY ALT 500FT

CYGK;2017-08-06 21:40;CYGK 062140Z 07003KT 15SM FEW040 BKN060 BKN110 18/16 A3002 RMK CU2SC3AC1 SLP167 DENSITY ALT 700FT

CYGK;2017-08-06 22:00;CYGK 062200Z 12003KT 15SM SCT060 BKN110 19/16 A3002 RMK SC4AC2 SLP167 DENSITY ALT 700FT

CYGK;2017-08-06 22:26;CYGK 062226Z VRB02KT 10SM -SHRA FEW040TCU BKN060 19/16 A3003 RMK TCU2SC5 SLP171 DENSITY ALT 700FT

CYGK;2017-08-06 23:00;CYGK 062300Z VRB03KT 12SM -SHRA FEW040TCU BKN062 18/17 A3003 RMK TCU2SC4 SLP172 DENSITY ALT 700FT

CYGK;2017-08-06 23:50;CYGK 062350Z 23002KT 12SM FEW040TCU SCT060 BKN082 18/16 A3003 RMK TCU1SC2AC3 SLP172 DENSITY ALT 600FT

CYGK;2017-08-07 00:00;CYGK 070000Z 00000KT 12SM FEW040TCU SCT060 BKN083 18/17 A3003 RMK TCU1SC2AC3 SLP171 DENSITY ALT 600FT

CYGK;2017-08-07 01:00;CYGK 070100Z 00000KT 15SM FEW078 SCT120 BKN230 16/16 A3002 RMK AC1AC3CI1 SLP169 DENSITY ALT 500FT

CYGK;2017-08-07 02:00;CYGK 070200Z 00000KT 15SM FEW075 SCT120 BKN210 16/16 A3003 RMK AC2AC2CI1 SLP171 DENSITY ALT 400FT

CYGK;2017-08-07 03:00;CYGK 070300Z 35005KT 12SM FEW045 SCT098 SCT120 15/15 A3003 RMK SC2AC1AC1 LAST STFD OBS/NEXT 071000 UTC SLP171

CYGK;2017-08-07 10:00;CYGK 071000Z 04004KT 320V050 11SM FEW015 SCT100 BKN270 14/14 A3001 RMK CU1AC2CI2 SLP166

CYGK;2017-08-07 11:00;CYGK 071100Z 03006KT 11SM FEW020 SCT080 BKN130 15/15 A3001 RMK CU2AC1AC3 SLP165

CYGK;2017-08-07 12:00;CYGK 071200Z 04005KT 11SM FEW020 BKN110 OVC130 16/15 A3002 RMK CU1AC5AC2 SLP167 DENSITY ALT 400FT

CYGK;2017-08-07 13:00;CYGK 071300Z 05006KT 15SM FEW010 FEW015TCU BKN110 OVC130 17/16 A3002 RMK SF1TCU1AC6AC1 SF TR SLP168 DENSITY ALT 500FT

CYGK;2017-08-07 13:38;CYGK 071338Z 04006KT 11SM SCT004 SCT015TCU OVC110 17/17 A3001 RMK CF3TCU1AC4 TCU SE SLP166 DENSITY ALT 600FT

CYGK;2017-08-07 13:53;CYGK 071353Z 02007KT 11SM BKN005 OVC110 18/17 A3001 RMK CF5AC3 SLP165 DENSITY ALT 600FT

CYGK;2017-08-07 14:00;CYGK 071400Z 04006KT 11SM OVC006 18/17 A3002 RMK SC8 SLP167 DENSITY ALT 600FT

CYGK;2017-08-07 14:27;CYGK 071427Z 04005KT 12SM SCT005 BKN012 OVC110 18/17 A3002 RMK SC3SC3AC2 SLP167 DENSITY ALT 600FT

CYGK;2017-08-07 15:00;CYGK 071500Z 02007KT 15SM FEW005 FEW012TCU OVC120 18/16 A3001 RMK SF1TCU1AC6 TCU SE-S SLP165 DENSITY ALT 600FT

CYGK;2017-08-07 15:43;CYGK 071543Z 02007KT 15SM FEW005 BKN012 OVC120 18/16 A3001 RMK SF1SC6AC1 SLP165 DENSITY ALT 600FT

CYGK;2017-08-07 16:00;CYGK 071600Z 02006KT 15SM FEW005 BKN011 OVC120 18/16 A3001 RMK SF1SC6AC1 SLP166 DENSITY ALT 700FT

CYGK;2017-08-07 17:00;CYGK 071700Z 36006KT 15SM OVC011 19/17 A3000 RMK SC8 SLP162 DENSITY ALT 800FT

CYGK;2017-08-07 18:00;CYGK 071800Z VRB02KT 15SM BKN013 OVC100 20/17 A2999 RMK SC6AC2 SLP157 DENSITY ALT 900FT

CYGK;2017-08-07 18:09;CYGK 071809Z 34003KT 15SM SCT014 BKN100 21/17 A2999 RMK SC4AC3 ACC ASOCTD SLP156 DENSITY ALT 1000FT

CYGK;2017-08-07 19:00;CYGK 071900Z VRB02KT 15SM FEW015 OVC084 20/17 A2997 RMK SC2AC6 SLP150 DENSITY ALT 1000FT

CYGK;2017-08-07 20:00;CYGK 072000Z 34007KT 300V360 15SM FEW015 BKN080 OVC120 22/17 A2995 RMK SC1AC5AC2 SLP142 DENSITY ALT 1200FT

CYGK;2017-08-07 21:00;CYGK 072100Z 35010KT 15SM FEW020 BKN086 OVC120 20/17 A2994 RMK SC1AC6AC2 SC TR SLP141 DENSITY ALT 1000FT

CYGK;2017-08-07 22:00;CYGK 072200Z 36007KT 15SM -RA FEW020 SCT072 OVC110 20/16 A2995 RMK SC1AC4AC4 SC TR SLP144 DENSITY ALT 900FT

CYGK;2017-08-07 23:00;CYGK 072300Z 33004KT 10SM -RA BKN058 OVC110 17/16 A2996 RMK SC6AC2 SLP148 DENSITY ALT 700FT

CYGK;2017-08-08 00:00;CYGK 080000Z 06004KT 12SM -RA BKN053 OVC110 17/16 A2995 RMK SC7AC1 SLP146 DENSITY ALT 600FT

CYGK;2017-08-08 00:36;CYGK 080036Z 05003KT 12SM FEW045 BKN075 OVC110 17/16 A2996 RMK SC2AC4AC2 SLP148 DENSITY ALT 600FT

CYGK;2017-08-08 01:00;CYGK 080100Z 04004KT 12SM FEW042 BKN083 BKN110 17/16 A2996 RMK SC2AC4AC1 SLP148 DENSITY ALT 600FT

CYGK;2017-08-08 02:00;CYGK 080200Z 00000KT 12SM FEW042 SCT060 BKN092 17/16 A2997 RMK SC1SC3AC3 SLP150 DENSITY ALT 500FT

CYGK;2017-08-08 03:00;CYGK 080300Z 35005KT 15SM SCT110 OVC140 16/16 A2996 RMK AC3AC5 LAST STFD OBS/NEXT 081000 UTC SLP146 DENSITY ALT 500FT

CYGK;2017-08-08 10:00;CYGK 081000Z 33007KT 1/8SM FG SKC 13/13 A2996 RMK FG3 SLP148

CYGK;2017-08-08 10:16;CYGK 081016Z 34007KT 1/8SM FG VV004 13/13 A2996 RMK FG8 SLP148

CYGK;2017-08-08 10:48;CYGK 081048Z 34007KT 3/8SM FG BKN002 14/14 A2997 RMK FG6SF1 SLP150

CYGK;2017-08-08 10:52;CYGK 081052Z 34008KT 3/4SM BR BKN002 14/14 A2997 RMK FG3SF4 SLP150

CYGK;2017-08-08 11:00;CYGK 081100Z 34007KT 1 1/2SM BR BKN002 14/14 A2998 RMK SF7 SLP153

CYGK;2017-08-08 11:14;CYGK 081114Z 34006KT 5SM BR SCT003 SCT100 SCT250 15/14 A2998 RMK SF4AC1CI1 AC TR CI TR SLP154

CYGK;2017-08-08 12:00;CYGK 081200Z 33005KT 10SM FEW004 16/15 A2998 RMK SF2 SLP156 DENSITY ALT 400FT

CYGK;2017-08-08 13:00;CYGK 081300Z 36003KT 330V060 12SM FEW005 FEW070 18/15 A2999 RMK SF2AC1 AC TR SLP158 DENSITY ALT 600FT

CYGK;2017-08-08 14:00;CYGK 081400Z 29003KT 260V070 15SM FEW015TCU 19/16 A3000 RMK TCU1 TCU DIST S SLP161 DENSITY ALT 800FT

CYGK;2017-08-08 15:00;CYGK 081500Z VRB03KT 15SM SCT022 21/17 A3000 RMK CU3 SLP161 DENSITY ALT 1000FT

CYGK;2017-08-08 16:00;CYGK 081600Z 18009KT 15SM SCT030 20/16 A3001 RMK CU4 SLP163 DENSITY ALT 900FT

CYGK;2017-08-08 17:00;CYGK 081700Z 17009KT 15SM SCT035 21/17 A3001 RMK CU4 SLP164 DENSITY ALT 1000FT

CYGK;2017-08-08 18:00;CYGK 081800Z 19013KT 15SM SCT050 21/17 A3000 RMK CU3 SLP161 DENSITY ALT 1000FT

CYGK;2017-08-08 19:00;CYGK 081900Z 18014KT 15SM SCT042 22/18 A3000 RMK CU4 SLP160 DENSITY ALT 1100FT

CYGK;2017-08-08 20:00;CYGK 082000Z 19015KT 15SM SCT052 22/18 A3000 RMK CU4 SLP159 DENSITY ALT 1200FT

CYGK;2017-08-08 21:00;CYGK 082100Z 24013KT 15SM FEW060 22/15 A2999 RMK CU2 SLP158 DENSITY ALT 1200FT

CYGK;2017-08-08 22:00;CYGK 082200Z 23014KT 15SM FEW060 22/15 A2999 RMK CU1 SLP158 DENSITY ALT 1200FT

CYGK;2017-08-08 23:00;CYGK 082300Z 23014KT 15SM FEW100 FEW270 22/14 A3001 RMK AC1CI2 AC TR SLP163 DENSITY ALT 1100FT

CYGK;2017-08-09 00:00;CYGK 090000Z 22009KT 15SM FEW100 FEW270 20/13 A3001 RMK AC1CI2 AC TR SLP165 DENSITY ALT 900FT

CYGK;2017-08-09 01:00;CYGK 090100Z 22008KT 15SM FEW100 FEW270 19/13 A3003 RMK AC1CI1 AC TR SLP169 DENSITY ALT 800FT

CYGK;2017-08-09 02:00;CYGK 090200Z 23007KT 15SM FEW270 19/14 A3004 RMK CI2 SLP173 DENSITY ALT 700FT

CYGK;2017-08-09 03:00;CYGK 090300Z 25008KT 15SM FEW270 20/14 A3004 RMK CI2 SLP175 DENSITY ALT 800FT

CYGK;2017-08-09 10:00;CYGK 091000Z 25007KT 15SM SCT100 19/17 A3009 RMK AC4 TCU TOPS DIST S SLP189 DENSITY ALT 700FT

CYGK;2017-08-09 11:00;CYGK 091100Z 27003KT 15SM FEW025TCU FEW110 FEW250 18/16 A3010 RMK TCU1AC1CI1 TCU TR TCU DIST S SLP194 DENSITY ALT 600FT

CYGK;2017-08-09 12:00;CYGK 091200Z 29007KT 15SM FEW025TCU FEW090 FEW110 FEW250 19/16 A3012 RMK TCU1AC1ACC1CI1 TCU TR AC TR SLP203 DENSITY ALT 700FT

CYGK;2017-08-09 13:00;CYGK 091300Z 30006KT 15SM FEW025TCU FEW120 SCT250 20/16 A3013 RMK TCU1AC2CI2 TCU TR SLP206 DENSITY ALT 800FT

CYGK;2017-08-09 14:00;CYGK 091400Z 31004KT 15SM FEW025TCU FEW120 SCT250 22/17 A3014 RMK TCU1AC1CI1 SLP207 DENSITY ALT 900FT

CYGK;2017-08-09 14:49;CYGK 091449Z 25006KT 220V280 15SM -SHRA FEW030TCU BKN070 BKN120 21/17 A3017 RMK TCU2AC3AC1 PRESRR SLP217 DENSITY ALT 800FT

CYGK;2017-08-09 15:00;CYGK 091500Z VRB02KT 15SM SCT028TCU SCT040 BKN110 BKN250 21/18 A3016 RMK TCU3SC1AC2CI1 TCU SE ACC ASOCTD SLP213 DENSITY ALT 900FT

CYGK;2017-08-09 15:05;CYGK 091505Z 32005KT 200V350 15SM -SHRA SCT030TCU BKN045 BKN100 BKN250 22/17 A3016 RMK TCU3SC2AC2CI1 CI TR TCU NW MOVG E ACC ASOCTD SLP213 DENSITY ALT 900FT

CYGK;2017-08-09 15:37;CYGK 091537Z 34003KT 290V010 15SM VCSH FEW020 FEW030TCU BKN075 BKN110 22/17 A3015 RMK CF1TCU1AC3AC2 SLP211 DENSITY ALT 900FT

CYGK;2017-08-09 16:00;CYGK 091600Z VRB02KT 15SM FEW025 BKN080 BKN110 22/17 A3015 RMK CF1AC4AC2 SLP212 DENSITY ALT 1000FT

CYGK;2017-08-09 17:00;CYGK 091700Z 19009KT 15SM FEW030 FEW100 BKN120 23/18 A3015 RMK CU1AC1AC5 SLP212 DENSITY ALT 1000FT

CYGK;2017-08-09 18:00;CYGK 091800Z 19010KT 15SM FEW030 SCT080 BKN120 23/19 A3015 RMK CU1AC2AC4 SLP211 DENSITY ALT 1100FT

CYGK;2017-08-09 19:00;CYGK 091900Z 17010KT 15SM FEW030 SCT100 BKN270 24/19 A3014 RMK CU2AC1CI2 CB TOP DIST S SLP208 DENSITY ALT 1200FT

CYGK;2017-08-09 20:00;CYGK 092000Z 18010KT 15SM FEW030TCU SCT130 23/19 A3014 RMK TCU2AC1 SLP207 DENSITY ALT 1100FT

CYGK;2017-08-09 21:00;CYGK 092100Z 18009KT 15SM SCT030TCU BKN110 BKN270 23/19 A3014 RMK TCU3AC2CI2 CB TOPS NW - N SLP208 DENSITY ALT 1100FT

CYGK;2017-08-09 21:53;CYGK 092153Z 18009KT 15SM TS SCT020CB BKN110 BKN270 22/18 A3013 RMK CB4AC2CI1 CB NW - N SLP203 DENSITY ALT 1000FT

CYGK;2017-08-09 22:00;CYGK 092200Z 18009KT 15SM TS SCT020CB BKN100 BKN270 22/18 A3013 RMK CB3AC2CI2 CB NW - N MOVG SE SLP204 DENSITY ALT 1000FT

CYGK;2017-08-09 22:44;CYGK 092244Z 18004KT 15SM FEW020CB SCT060 BKN130 BKN270 22/19 A3015 RMK CB2SC1AC3CI1 CB NE - E SLP209 DENSITY ALT 1000FT

CYGK;2017-08-09 23:00;CYGK 092300Z 19004KT 15SM FEW020CB SCT060 BKN130 BKN270 22/19 A3015 RMK CB2SC1AC2CI2 CB NE - E MOVG E SLP209 DENSITY ALT 1000FT

CYGK;2017-08-10 00:00;CYGK 100000Z 22004KT 15SM FEW060 SCT140 BKN270 21/19 A3015 RMK SC1AC3CI2 SLP211 DENSITY ALT 900FT

CYGK;2017-08-10 01:00;CYGK 100100Z 21006KT 15SM FEW140 BKN270 21/19 A3015 RMK AC2CI3 SLP213 DENSITY ALT 800FT

CYGK;2017-08-10 02:00;CYGK 100200Z 21006KT 15SM FEW140 SCT270 20/20 A3017 RMK AC2CI2 SLP216 DENSITY ALT 700FT

CYGK;2017-08-10 03:00;CYGK 100300Z 22006KT 15SM FEW070 SCT270 20/19 A3017 RMK AC2CI2 LAST STFD OBS / NEXT 101000 UTC SLP218 DENSITY ALT 700FT

CYGK;2017-08-10 10:00;CYGK 101000Z 35004KT 6SM BR MIFG FEW120 BKN250 15/15 A3017 RMK AC2CI3 SLP220

CYGK;2017-08-10 11:00;CYGK 101100Z 35003KT 8SM MIFG FEW150 BKN250 16/16 A3018 RMK AC2CI4 SLP223

CYGK;2017-08-10 12:00;CYGK 101200Z VRB02KT 8SM FEW008 SCT160 BKN250 19/19 A3020 RMK CF1AC3CI3 CF TR VIS SE 4 SLP228 DENSITY ALT 600FT

CYGK;2017-08-10 13:00;CYGK 101300Z VRB02KT 7SM FEW008 FEW160 OVC250 21/20 A3019 RMK SF1AC1CI6 SLP226 DENSITY ALT 800FT

CYGK;2017-08-10 14:00;CYGK 101400Z 20006KT 170V230 8SM SCT010 SCT160 BKN250 23/20 A3020 RMK CU3AC1CI3 SLP228 DENSITY ALT 1000FT

CYGK;2017-08-10 15:00;CYGK 101500Z 18010KT 8SM SCT012 BKN250 23/19 A3020 RMK CU3CI4 SLP227 DENSITY ALT 1000FT

CYGK;2017-08-10 16:00;CYGK 101600Z 19008KT 10SM FEW012 SCT070 BKN250 23/20 A3020 RMK CU1AC2CI4 SLP228 DENSITY ALT 1000FT

CYGK;2017-08-10 17:00;CYGK 101700Z 17008KT 10SM FEW020TCU FEW070 BKN240 23/19 A3019 RMK TCU1AC1CI5 SLP224 DENSITY ALT 1000FT

CYGK;2017-08-10 18:00;CYGK 101800Z 18009KT 12SM FEW020TCU FEW070 BKN250 23/19 A3019 RMK TCU1AC1CI4 SLP223 DENSITY ALT 1100FT

CYGK;2017-08-10 19:00;CYGK 101900Z 18009KT 12SM FEW025TCU FEW070 BKN200 23/19 A3017 RMK TCU1AC1CI6 AC TR TCU NW-NE SLP217 DENSITY ALT 1100FT

CYGK;2017-08-10 20:00;CYGK 102000Z 17005KT 10SM FEW025TCU FEW120 BKN200 23/19 A3016 RMK TCU1AC1CI6 TCU TR SLP214 DENSITY ALT 1100FT

CYGK;2017-08-10 21:00;CYGK 102100Z 18004KT 12SM FEW140 BKN220 24/17 A3014 RMK AC1CI6 SLP209 DENSITY ALT 1200FT

CYGK;2017-08-10 22:00;CYGK 102200Z 15005KT 12SM FEW140 BKN200 23/18 A3013 RMK AC1CI7 AC TR SLP205 DENSITY ALT 1200FT

CYGK;2017-08-10 23:00;CYGK 102300Z 15003KT 12SM FEW140 BKN200 24/16 A3012 RMK AC1CI6 AC TR SLP202 DENSITY ALT 1200FT

CYGK;2017-08-11 00:00;CYGK 110000Z 15003KT 12SM FEW180 BKN240 22/19 A3011 RMK AC1CI5 SLP196 DENSITY ALT 1000FT

CYGK;2017-08-11 01:00;CYGK 110100Z 00000KT 15SM BKN250 20/18 A3011 RMK CI7 SLP196 DENSITY ALT 800FT

CYGK;2017-08-11 02:00;CYGK 110200Z 00000KT 15SM BKN220 19/17 A3011 RMK CI7 SLP197 DENSITY ALT 700FT

CYGK;2017-08-11 03:00;CYGK 110300Z 00000KT 15SM BKN230 20/17 A3010 RMK CI6 LAST STFD OBS/NEXT 111000 UTC SLP194 DENSITY ALT 800FT

CYGK;2017-08-11 10:00;CYGK 111000Z 18009KT 15SM FEW140 SCT180 BKN240 21/17 A3006 RMK AC2AC2CI2 SLP182 DENSITY ALT 1000FT

CYGK;2017-08-11 11:00;CYGK 111100Z 19009KT 15SM FEW060 SCT140 BKN210 21/18 A3007 RMK SC1AC2CC3 SLP185 DENSITY ALT 1000FT

CYGK;2017-08-11 12:00;CYGK 111200Z 18010KT 15SM FEW060 SCT140 BKN210 22/18 A3007 RMK SC2AC1CI2 SLP183 DENSITY ALT 1000FT

CYGK;2017-08-11 13:00;CYGK 111300Z 17009KT 15SM SCT140 BKN240 22/18 A3006 RMK AC3CI3 SLP180 DENSITY ALT 1100FT

CYGK;2017-08-11 14:00;CYGK 111400Z 18012KT 15SM FEW100 SCT140 BKN220 22/18 A3006 RMK AC2AC1CI4 SLP181 DENSITY ALT 1100FT

CYGK;2017-08-11 15:00;CYGK 111500Z 19012KT 15SM FEW030 SCT100 BKN220 22/18 A3006 RMK CU1AC3CI4 CU TR SLP179 DENSITY ALT 1100FT

CYGK;2017-08-11 16:00;CYGK 111600Z 18008KT 15SM FEW030 FEW160 BKN220 23/19 A3004 RMK CU1AC1CI7 CU TR AC TR SLP173 DENSITY ALT 1200FT

CYGK;2017-08-11 17:00;CYGK 111700Z 17011KT 15SM FEW030 SCT160 BKN220 22/18 A3003 RMK CU1AC3CI4 CU TR SLP171 DENSITY ALT 1200FT

CYGK;2017-08-11 18:00;CYGK 111800Z 18008KT 15SM FEW030 FEW050 FEW100 OVC200 22/19 A3002 RMK CU1SC1AC1CS6 CU TR SLP167 DENSITY ALT 1200FT

CYGK;2017-08-11 19:00;CYGK 111900Z 19006KT 15SM FEW035 SCT070 BKN140 OVC200 23/19 A3000 RMK CU1AC2AC2CI3 SLP162 DENSITY ALT 1200FT

CYGK;2017-08-11 20:00;CYGK 112000Z 19009KT 15SM FEW030 SCT075 BKN140 OVC200 23/19 A2998 RMK CU1AC4AC2CI2 CU TR SLP153 DENSITY ALT 1200FT

CYGK;2017-08-11 21:00;CYGK 112100Z 20007KT 15SM BKN049 BKN140 OVC240 22/19 A2997 RMK SC5AC2CI1 SLP150 DENSITY ALT 1200FT

CYGK;2017-08-11 22:00;CYGK 112200Z 19006KT 15SM FEW050 SCT160 OVC210 22/20 A2995 RMK SC2AC2CI4 SLP143 DENSITY ALT 1200FT

CYGK;2017-08-11 23:00;CYGK 112300Z 19005KT 12SM FEW050 SCT160 BKN180 OVC200 22/20 A2994 RMK SC1AC2AS3CS2 SLP139 DENSITY ALT 1200FT

CYGK;2017-08-12 00:00;CYGK 120000Z 19002KT 12SM FEW050 SCT120 BKN160 BKN220 21/20 A2992 RMK SC1AC4AS2CI1 SC TR SLP131 DENSITY ALT 1200FT

CYGK;2017-08-12 01:00;CYGK 120100Z 07002KT 12SM SCT100 BKN150 BKN220 21/20 A2992 RMK AC3AS3CS1 SLP131 DENSITY ALT 1100FT

CYGK;2017-08-12 01:42;CYGK 120142Z 09003KT 12SM TS BKN060CB BKN100 OVC150 21/20 A2991 RMK CB5AC2AS1 CB DIST SW-NW FRQ LTNG DIST SW-NW SLP130 DENSITY ALT 1100FT

CYGK;2017-08-12 02:00;CYGK 120200Z 12003KT 12SM TS BKN060CB OVC100 21/20 A2991 RMK CB6AC2 CB W-NW FRQ LTNG W-NW SLP128 DENSITY ALT 1100FT

CYGK;2017-08-12 02:51;CYGK 120251Z 29010G15KT 130V300 12SM TS FEW009 BKN045CB OVC120 21/18 A2989 RMK CF2CB4AC2 FRQ LTGCGIC N-NE MOVG E AND DIST W SLP124 DENSITY ALT 1200FT

CYGK;2017-08-12 03:00;CYGK 120300Z 00000KT 12SM TS FEW012 BKN045CB OVC120 21/18 A2989 RMK CF2CB4AC2 FRQ LTGCGIC W-NE LAST STFD OBS/NEXT 121000 UTC SLP123 DENSITY ALT 1200FT

CYGK;2017-08-12 10:00;CYGK 121000Z 10005KT 10SM FEW010 SCT033 SCT120 18/18 A2983 RMK SC1SC2AC1 SLP102 DENSITY ALT 900FT

CYGK;2017-08-12 11:00;CYGK 121100Z 21008KT 10SM FEW009 SCT021 BKN062 BKN120 20/20 A2984 RMK SF1SC4SC2AC1 SF TR SLP104 DENSITY ALT 1100FT

CYGK;2017-08-12 12:00;CYGK 121200Z 22007KT 12SM FEW012 SCT023 SCT120 21/19 A2984 RMK CF1SC3AC1 CF TR SLP106 DENSITY ALT 1200FT

CYGK;2017-08-12 13:00;CYGK 121300Z 24008KT 15SM BKN015 21/19 A2984 RMK SC7 SLP106 DENSITY ALT 1200FT

CYGK;2017-08-12 14:00;CYGK 121400Z 24009KT 15SM BKN017 BKN210 22/19 A2984 RMK SC5CI1 SLP106 DENSITY ALT 1300FT

CYGK;2017-08-12 15:00;CYGK 121500Z 25007KT 15SM BKN028 BKN200 23/20 A2983 RMK CU6CI1 SLP103 DENSITY ALT 1500FT

CYGK;2017-08-12 16:00;CYGK 121600Z 19015KT 15SM BKN017 BKN210 23/20 A2983 RMK SC5CI2 SLP101 DENSITY ALT 1400FT

CYGK;2017-08-12 17:00;CYGK 121700Z 19016KT 12SM SCT018TCU SCT160 SCT220 23/21 A2982 RMK TCU3AC1CI1 AC TR TCU W-NE SLP099 DENSITY ALT 1500FT

CYGK;2017-08-12 18:00;CYGK 121800Z 18014KT 15SM FEW020TCU BKN085 BKN220 23/21 A2982 RMK TCU2AC3CI1 SLP098 DENSITY ALT 1500FT

CYGK;2017-08-12 19:00;CYGK 121900Z 20014G20KT 15SM FEW020TCU FEW085 BKN250 23/21 A2980 RMK TCU1AC1CI4 CB TOP DIST NE SLP092 DENSITY ALT 1500FT

CYGK;2017-08-12 20:00;CYGK 122000Z 20015G22KT 15SM FEW020TCU FEW090 SCT250 24/20 A2978 RMK TCU1AC1CI1 CB TOPS DIST NE SLP087 DENSITY ALT 1600FT

CYGK;2017-08-12 21:00;CYGK 122100Z CCA 22010KT 15SM FEW020CB FEW090 SCT250 25/18 A2977 RMK CB1AC1CI2 AC TR CB NE SLP082 DENSITY ALT 1700FT

CYGK;2017-08-12 22:00;CYGK 122200Z 25010G19KT 15SM FEW020CB SCT250 23/19 A2978 RMK CB2CI2 CB N-NE SLP087 DENSITY ALT 1500FT

CYGK;2017-08-12 23:00;CYGK 122300Z 24009KT 15SM FEW020CB FEW070 SCT250 23/18 A2979 RMK CB1AC1CI2 CB NE SLP088 DENSITY ALT 1400FT

CYGK;2017-08-13 00:00;CYGK 130000Z 26007KT 15SM FEW020CB FEW100 BKN250 22/17 A2979 RMK CB1AC1CI3 CB N-NE SLP088 DENSITY ALT 1400FT

CYGK;2017-08-13 01:00;CYGK 130100Z 29008KT 15SM FEW020CB FEW100 SCT250 21/17 A2981 RMK CB1AC1CI1 OCNL LTGICCC NE SLP095 DENSITY ALT 1200FT

CYGK;2017-08-13 02:00;CYGK 130200Z 32005KT 15SM SCT090 SCT250 19/17 A2983 RMK AC3CI1 SLP103 DENSITY ALT 1000FT

CYGK;2017-08-13 03:00;CYGK 130300Z 31005KT 15SM SCT095 18/17 A2984 RMK AC3 LAST STFD OBS / NEXT 131000 UTC SLP104 DENSITY ALT 900FT

CYGK;2017-08-13 10:00;CYGK 131000Z 29005KT 15SM FEW012 FEW070 15/15 A2993 RMK CU1AC1 CU TR AC TR SLP136 DENSITY ALT 400FT

CYGK;2017-08-13 11:00;CYGK 131100Z 29003KT 15SM FEW012 FEW080 16/15 A2995 RMK CU1AC1 CU TR AC TR SLP142 DENSITY ALT 500FT

CYGK;2017-08-13 12:00;CYGK 131200Z 31008KT 15SM FEW012 18/16 A2996 RMK CU1 CU TR SLP148 DENSITY ALT 700FT

CYGK;2017-08-13 13:00;CYGK 131300Z 34010KT 15SM FEW020 FEW250 20/15 A2997 RMK CU1CI1 CU TR CI TR SLP150 DENSITY ALT 900FT

CYGK;2017-08-13 14:00;CYGK 131400Z 34008KT 15SM FEW020 FEW250 22/14 A2998 RMK CU1CI1 CU TR CI TR SLP153 DENSITY ALT 1100FT

CYGK;2017-08-13 15:00;CYGK 131500Z 31007KT 15SM FEW020 23/13 A2998 RMK CU1 CU TR SLP154 DENSITY ALT 1300FT

CYGK;2017-08-13 16:00;CYGK 131600Z VRB05KT 15SM FEW040 24/11 A2998 RMK CU2 SLP155 DENSITY ALT 1400FT

CYGK;2017-08-13 17:00;CYGK 131700Z 19011KT 160V300 15SM SCT060 24/15 A2999 RMK CU4 SLP158 DENSITY ALT 1400FT

CYGK;2017-08-13 18:00;CYGK 131800Z 22009KT 180V250 15SM SCT066 24/14 A2999 RMK CU3 SLP157 DENSITY ALT 1400FT

CYGK;2017-08-13 19:00;CYGK 131900Z 19014KT 15SM SCT065 BKN230 24/17 A2999 RMK CU4CI1 SLP157 DENSITY ALT 1400FT

CYGK;2017-08-13 20:00;CYGK 132000Z 21011KT 15SM SCT065 24/16 A2999 RMK CU3 SLP158 DENSITY ALT 1400FT

CYGK;2017-08-13 21:00;CYGK 132100Z 20012KT 15SM FEW065 SCT220 24/18 A2999 RMK CU2CI2 SLP158 DENSITY ALT 1300FT

CYGK;2017-08-13 22:00;CYGK 132200Z 20012KT 15SM FEW065 BKN230 24/17 A2999 RMK CU2CI3 SLP156 DENSITY ALT 1300FT

CYGK;2017-08-13 23:00;CYGK 132300Z 23010KT 15SM FEW060 SCT220 23/16 A2999 RMK CU1CI2 SLP157 DENSITY ALT 1300FT

CYGK;2017-08-14 00:00;CYGK 140000Z 22008KT 15SM FEW060 SCT230 22/15 A2999 RMK CU1CI4 CU TR SLP157 DENSITY ALT 1100FT

CYGK;2017-08-14 01:00;CYGK 140100Z 24006KT 15SM FEW055 SCT230 21/15 A3000 RMK CU1CI4 CU TR SLP160 DENSITY ALT 1000FT

CYGK;2017-08-14 02:00;CYGK 140200Z 22007KT 15SM SCT230 20/15 A3000 RMK CI4 SLP162 DENSITY ALT 900FT

CYGK;2017-08-14 03:00;CYGK 140300Z 26006KT 15SM SCT230 20/14 A3001 RMK CI4 LAST STFD OBS/NEXT 141000 UTC SLP163 DENSITY ALT 900FT

CYGK;2017-08-14 10:00;CYGK 141000Z 36004KT 15SM FEW030 BKN230 15/15 A3002 RMK SC1CC7 SC TR SLP168

CYGK;2017-08-14 11:00;CYGK 141100Z 35004KT 15SM FEW030 FEW180 BKN220 16/15 A3003 RMK SC1AC1CC6 AC TR SLP170 DENSITY ALT 400FT

CYGK;2017-08-14 12:00;CYGK 141200Z 01002KT 15SM FEW020 FEW180 BKN220 20/18 A3003 RMK SC1AC1CC5 SLP169 DENSITY ALT 800FT

CYGK;2017-08-14 13:00;CYGK 141300Z 21005KT 15SM FEW020 SCT140 BKN210 22/19 A3002 RMK CU1AC2CI4 SLP167 DENSITY ALT 1100FT

CYGK;2017-08-14 14:00;CYGK 141400Z 20008KT 15SM SCT012 SCT140 BKN250 22/19 A3002 RMK CU4AC1CI3 AC TR SLP167 DENSITY ALT 1100FT

CYGK;2017-08-14 15:00;CYGK 141500Z 18010KT 15SM FEW012 SCT140 BKN240 22/19 A3002 RMK CU2AC2CI2 SLP167 DENSITY ALT 1100FT

CYGK;2017-08-14 16:00;CYGK 141600Z 17009KT 15SM FEW015 FEW160 BKN240 23/19 A3000 RMK CU1AC1CI6 AC TR SLP161 DENSITY ALT 1200FT

CYGK;2017-08-14 17:00;CYGK 141700Z 19008KT 15SM FEW016 SCT170 BKN220 23/18 A3000 RMK CU2AC2CI3 SLP159 DENSITY ALT 1200FT

CYGK;2017-08-14 18:00;CYGK 141800Z 18008KT 15SM FEW020 BKN220 23/18 A2998 RMK CU1CI6 SLP155 DENSITY ALT 1200FT

CYGK;2017-08-14 19:00;CYGK 141900Z 17007KT 15SM FEW025TCU BKN210 23/19 A2997 RMK TCU1CI6 SLP150 DENSITY ALT 1300FT

CYGK;2017-08-14 20:00;CYGK 142000Z 17006KT 15SM FEW025TCU SCT160 BKN210 24/18 A2995 RMK TCU2AC1CI3 SLP143 DENSITY ALT 1400FT

CYGK;2017-08-14 21:00;CYGK 142100Z 18006KT 15SM FEW025TCU FEW140 BKN200 23/15 A2993 RMK TCU1AC1CI5 TCU TR ACC ASOCTD SLP137 DENSITY ALT 1400FT

CYGK;2017-08-14 22:00;CYGK 142200Z 17004KT 15SM FEW025TCU FEW140 SCT210 24/15 A2990 RMK TCU1AC1CI3 TCU TR SLP127 DENSITY ALT 1500FT

CYGK;2017-08-14 23:00;CYGK 142300Z 14003KT 15SM FEW140 BKN230 24/14 A2988 RMK AC2CI4 SLP120 DENSITY ALT 1500FT

CYGK;2017-08-15 00:00;CYGK 150000Z 09002KT 15SM FEW080 FEW140 BKN230 21/15 A2987 RMK AC1AC2CI4 AC TR SLP117 DENSITY ALT 1200FT

CYGK;2017-08-15 01:00;CYGK 150100Z 06003KT 15SM FEW060 SCT180 BKN230 22/14 A2987 RMK SC1AC3CI3 SC TR SLP116 DENSITY ALT 1200FT

CYGK;2017-08-15 02:00;CYGK 150200Z 07004KT 15SM FEW062 SCT160 BKN210 21/15 A2986 RMK SC2AC1CI2 SLP113 DENSITY ALT 1200FT

CYGK;2017-08-15 03:00;CYGK 150300Z 09005KT 15SM BKN053 BKN120 21/17 A2985 RMK SC5AC2 LAST STFD OBS/NEXT 151000 UTC SLP110 DENSITY ALT 1200FT

CYGK;2017-08-15 10:00;CYGK 151000Z 25004KT 12SM FEW006 FEW060 FEW090 FEW150 20/20 A2983 RMK SF1SC1AC1AC1 SF TR AC TR SLP101 DENSITY ALT 1100FT

CYGK;2017-08-15 11:00;CYGK 151100Z 26004KT 10SM FEW005 FEW060 SCT230 20/20 A2983 RMK SF1SC1CC3 SF TR SLP103 DENSITY ALT 1100FT

CYGK;2017-08-15 12:00;CYGK 151200Z 25006KT 12SM FEW008 FEW110 FEW220 21/20 A2984 RMK SF1AC1CC1 SF TR SLP106 DENSITY ALT 1200FT

CYGK;2017-08-15 13:00;CYGK 151300Z 23007KT 15SM FEW020TCU FEW110 SCT200 22/19 A2985 RMK TCU1AC1CI2 SLP109 DENSITY ALT 1300FT

CYGK;2017-08-15 14:00;CYGK 151400Z 21007KT 15SM FEW020TCU FEW120 SCT220 23/17 A2985 RMK TCU1AC1CI1 SLP109 DENSITY ALT 1400FT

CYGK;2017-08-15 15:00;CYGK 151500Z 22005KT 180V240 15SM FEW025 SCT080 BKN220 24/18 A2985 RMK CU1AC2CI2 SLP109 DENSITY ALT 1600FT

CYGK;2017-08-15 16:00;CYGK 151600Z 17009KT 15SM FEW030TCU SCT090 BKN240 24/21 A2985 RMK TCU1AC2CC2 SLP108 DENSITY ALT 1500FT

CYGK;2017-08-15 17:00;CYGK 151700Z 19012KT 15SM FEW030TCU SCT110 BKN240 23/21 A2985 RMK TCU2AC2CI3 SLP110 DENSITY ALT 1400FT

CYGK;2017-08-15 18:00;CYGK 151800Z 19011KT 12SM FEW030TCU SCT060 BKN130 BKN210 22/20 A2984 RMK TCU2SC1AC2CI2 SLP106 DENSITY ALT 1400FT

CYGK;2017-08-15 19:00;CYGK 151900Z 18011KT 15SM FEW030TCU FEW060 BKN130 BKN210 23/20 A2984 RMK TCU1SC1AC4CI1 SC TR SLP105 DENSITY ALT 1400FT

CYGK;2017-08-15 20:00;CYGK 152000Z 19013KT 15SM FEW030CB SCT140 BKN210 24/21 A2984 RMK CB1AC3CI2 SLP104 DENSITY ALT 1500FT

CYGK;2017-08-15 21:00;CYGK 152100Z 17009KT 15SM VCSH SCT030TCU BKN140 BKN230 24/20 A2983 RMK TCU4AC1CI1 SLP101 DENSITY ALT 1600FT

CYGK;2017-08-15 21:27;CYGK 152127Z 18007KT 10SM -SHRA BKN035TCU BKN120 23/20 A2984 RMK TCU5AC1 SLP105 DENSITY ALT 1400FT

CYGK;2017-08-15 21:41;CYGK 152141Z 02006KT 360V060 6SM SHRA BR BKN025TCU BKN120 21/18 A2985 RMK TCU6AC1 AC TR PRESRR SLP110 DENSITY ALT 1200FT

CYGK;2017-08-15 21:43;CYGK 152143Z 03005KT 2SM SHRA BR BKN022TCU 20/18 A2986 RMK TCU7 PRESRR SLP111 DENSITY ALT 1100FT

CYGK;2017-08-15 22:03;CYGK 152203Z VRB05KT 3SM -TSRA BR FEW012 SCT022CB BKN040 19/19 A2986 RMK SF1CB4SC3 SF TR SLP112 DENSITY ALT 1000FT

CYGK;2017-08-15 22:27;CYGK 152227Z 21003KT 140V240 7SM -TSRA FEW012 SCT025CB BKN038 BKN120 19/19 A2986 RMK SF1CB3SC3AC1 SF TR SLP112 DENSITY ALT 1000FT

CYGK;2017-08-15 22:42;CYGK 152242Z 18005KT 8SM -SHRA FEW015 SCT025CB BKN040 BKN140 20/19 A2985 RMK SF1CB2SC2AC2 SLP108 DENSITY ALT 1000FT

CYGK;2017-08-15 23:00;CYGK 152300Z 28004KT 180V300 10SM -SHRA FEW010 FEW025TCU BKN038 BKN110 20/19 A2986 RMK SF1TCU2SC3AC1 SF TR SLP111 DENSITY ALT 1100FT

CYGK;2017-08-15 23:18;CYGK 152318Z 30005KT 12SM FEW010 FEW030TCU BKN100 20/20 A2986 RMK SF1TCU2AC3 SF TR SLP114 DENSITY ALT 1100FT

CYGK;2017-08-16 00:00;CYGK 160000Z 34004KT 270V340 15SM FEW030TCU SCT058 SCT100 19/18 A2986 RMK TCU1SC3AC1 TCU TR SLP113 DENSITY ALT 1000FT

CYGK;2017-08-16 01:00;CYGK 160100Z 26005KT 15SM FEW080 SCT230 19/19 A2987 RMK AC1CI3 SLP117 DENSITY ALT 900FT

CYGK;2017-08-16 02:00;CYGK 160200Z 27005KT 15SM FEW080 SCT230 18/17 A2988 RMK AC1CI3 SLP118 DENSITY ALT 900FT

CYGK;2017-08-16 03:00;CYGK 160300Z 32005KT 15SM SCT230 17/17 A2990 RMK CI3 LAST STFD OBS/NEXT 161000 UTC SLP125 DENSITY ALT 700FT

CYGK;2017-08-16 10:00;CYGK 161000Z 03006KT 15SM FEW010 BKN070 BKN250 16/14 A3002 RMK CF1AC5CI2 CF TR SLP168 DENSITY ALT 400FT

CYGK;2017-08-16 11:00;CYGK 161100Z 02006KT 15SM FEW010 SCT070 BKN250 15/13 A3003 RMK CF1AC4CI3 CF TR SLP172

CYGK;2017-08-16 12:00;CYGK 161200Z 01007KT 15SM FEW012 SCT080 BKN250 16/14 A3004 RMK CF1AC3CI3 CF TR SLP176 DENSITY ALT 400FT

CYGK;2017-08-16 13:00;CYGK 161300Z 01008KT 15SM FEW012 SCT080 BKN240 17/13 A3007 RMK CF1AC2CI3 SLP184 DENSITY ALT 500FT

CYGK;2017-08-16 14:00;CYGK 161400Z 06005KT 350V090 15SM FEW025 FEW080 BKN220 19/13 A3009 RMK CF1AC1CI5 CF TR SLP191 DENSITY ALT 700FT

CYGK;2017-08-16 15:00;CYGK 161500Z 36011KT 15SM FEW036 FEW080 SCT200 20/11 A3009 RMK CU1AC1CI4 CU TR AC TR SLP190 DENSITY ALT 800FT

CYGK;2017-08-16 16:00;CYGK 161600Z 04007KT 340V070 15SM FEW040 BKN200 21/11 A3008 RMK CF1CI6 CF TR SLP187 DENSITY ALT 900FT

CYGK;2017-08-16 17:00;CYGK 161700Z 35005KT 330V060 15SM FEW040 BKN210 22/12 A3008 RMK SC1CI5 SLP187 DENSITY ALT 1000FT

CYGK;2017-08-16 18:00;CYGK 161800Z 35008KT 270V360 15SM FEW045 BKN220 22/11 A3007 RMK SC1CI6 SLP183 DENSITY ALT 1100FT

CYGK;2017-08-16 19:00;CYGK 161900Z 32007KT 230V350 15SM FEW050 SCT150 BKN250 23/11 A3006 RMK CU2AC1CI3 SLP179 DENSITY ALT 1200FT

CYGK;2017-08-16 20:00;CYGK 162000Z 32007KT 300V360 15SM FEW045 FEW160 BKN210 23/12 A3005 RMK CU1AC1CI5 SLP178 DENSITY ALT 1200FT

CYGK;2017-08-16 21:00;CYGK 162100Z 21007KT 15SM FEW050 SCT160 BKN250 22/14 A3005 RMK CU2AC1CI3 SLP177 DENSITY ALT 1100FT

CYGK;2017-08-16 22:00;CYGK 162200Z 19007KT 15SM FEW055 SCT250 21/14 A3004 RMK CU2CI2 SLP175 DENSITY ALT 1000FT

CYGK;2017-08-16 23:00;CYGK 162300Z 22008KT 15SM FEW050 SCT250 21/13 A3005 RMK SC1CI3 SC TR SLP178 DENSITY ALT 900FT

CYGK;2017-08-17 00:00;CYGK 170000Z 22006KT 15SM SCT250 19/14 A3006 RMK CI4 SLP180 DENSITY ALT 700FT

CYGK;2017-08-17 01:00;CYGK 170100Z 21005KT 15SM FEW250 18/14 A3006 RMK CI2 SLP183 DENSITY ALT 600FT

CYGK;2017-08-17 02:00;CYGK 170200Z 23005KT 15SM SKC 18/14 A3006 RMK SLP182 DENSITY ALT 600FT

CYGK;2017-08-17 03:00;CYGK 170300Z 28002KT 15SM SKC 15/13 A3007 RMK LAST STFD OBS / NEXT 171000 UTC SLP184

CYGK;2017-08-17 10:00;CYGK 171000Z 35005KT 15SM FEW010 SCT250 12/11 A3006 RMK CF1CI4 CF TR SLP180

CYGK;2017-08-17 11:00;CYGK 171100Z 06003KT 15SM FEW015 FEW160 BKN250 12/12 A3006 RMK CU1AC1CI7 CU TR AC TR SLP182

CYGK;2017-08-17 12:00;CYGK 171200Z 04002KT 15SM FEW015 BKN250 17/15 A3007 RMK SC1CI7 SC TR SLP184 DENSITY ALT 500FT

CYGK;2017-08-17 13:00;CYGK 171300Z 00000KT 15SM FEW020 BKN250 20/17 A3007 RMK CU1CI6 SLP185 DENSITY ALT 800FT

CYGK;2017-08-17 14:00;CYGK 171400Z 18007KT 150V210 15SM FEW020 BKN250 21/16 A3006 RMK CU1CI6 SLP182 DENSITY ALT 1000FT

CYGK;2017-08-17 15:00;CYGK 171500Z 16008KT 15SM FEW025 FEW150 BKN250 21/15 A3005 RMK CU1AC1CI5 SLP179 DENSITY ALT 900FT

CYGK;2017-08-17 16:00;CYGK 171600Z 17008KT 15SM FEW025 FEW160 BKN220 21/14 A3004 RMK CU1AC1CI7 CU TR AC TR SLP175 DENSITY ALT 1000FT

CYGK;2017-08-17 17:00;CYGK 171700Z 18006KT 15SM FEW040 FEW150 BKN250 22/13 A3003 RMK CU1AC1CI4 SLP172 DENSITY ALT 1100FT

CYGK;2017-08-17 18:00;CYGK 171800Z 17005KT 080V190 15SM FEW040 FEW160 BKN250 22/12 A3000 RMK CU1AC1CI6 CU TR SLP160 DENSITY ALT 1100FT

CYGK;2017-08-17 19:00;CYGK 171900Z 17003KT 120V200 15SM FEW040 SCT220 OVC250 22/13 A2998 RMK CU1CI3CI5 CU TR SLP153 DENSITY ALT 1200FT

CYGK;2017-08-17 20:00;CYGK 172000Z VRB02KT 15SM SCT200 OVC250 24/13 A2995 RMK CI3CI5 SLP144 DENSITY ALT 1400FT

CYGK;2017-08-17 21:00;CYGK 172100Z 12004KT 15SM SCT200 OVC250 23/13 A2993 RMK CI3CI5 SLP138 DENSITY ALT 1300FT

CYGK;2017-08-17 22:00;CYGK 172200Z 08005KT 15SM BKN140 OVC230 22/15 A2991 RMK AC6CI2 SLP130 DENSITY ALT 1300FT

CYGK;2017-08-17 23:00;CYGK 172300Z 07006KT 15SM BKN150 OVC220 22/15 A2989 RMK AC6CI2 SLP122 DENSITY ALT 1300FT

CYGK;2017-08-18 00:00;CYGK 180000Z 07007KT 15SM BKN120 OVC220 22/14 A2987 RMK AC6CI2 SLP117 DENSITY ALT 1200FT

CYGK;2017-08-18 00:39;CYGK 180039Z 06006KT 15SM -RA BKN094 OVC220 21/15 A2987 RMK AC6CI2 SLP116 DENSITY ALT 1200FT

CYGK;2017-08-18 01:00;CYGK 180100Z 06008KT 15SM -RA SCT090 OVC120 21/16 A2986 RMK AC3AC5 SLP111 DENSITY ALT 1200FT

CYGK;2017-08-18 01:22;CYGK 180122Z 07008KT 15SM SCT090 OVC120 21/16 A2985 RMK AC3AC5 SLP109 DENSITY ALT 1200FT

CYGK;2017-08-18 02:00;CYGK 180200Z 07008KT 15SM -RA BKN062 OVC100 21/16 A2984 RMK SC5AC3 SLP105 DENSITY ALT 1200FT

CYGK;2017-08-18 02:26;CYGK 180226Z 06007KT 15SM OVC056 21/16 A2983 RMK SC8 SLP102 DENSITY ALT 1200FT

CYGK;2017-08-18 03:00;CYGK 180300Z 07005KT 10SM -SHRA OVC053 21/16 A2982 RMK SC8 CVCTV CLD ASOCTD LAST STFD OBS/NEXT 181000 UTC SLP100 DENSITY ALT 1200FT

CYGK;2017-08-18 10:00;CYGK 181000Z 20009KT 6SM BR OVC013 22/22 A2969 RMK SC8 SLP056 DENSITY ALT 1500FT

CYGK;2017-08-18 11:00;CYGK 181100Z 21007KT 6SM BR OVC010 23/22 A2971 RMK SC8 CIG RAG SLP061 DENSITY ALT 1600FT

CYGK;2017-08-18 11:23;CYGK 181123Z 22006KT 8SM SCT012 OVC023 23/23 A2972 RMK SC4CU4 SLP063 DENSITY ALT 1600FT

CYGK;2017-08-18 11:26;CYGK 181126Z 23006KT 8SM BKN010 OVC022 23/23 A2972 RMK CU5SC3 SLP064 DENSITY ALT 1600FT

CYGK;2017-08-18 12:00;CYGK 181200Z 23008KT 8SM FEW005 BKN012 OVC020 23/23 A2972 RMK SF1CU5SC2 SLP065 DENSITY ALT 1600FT

CYGK;2017-08-18 12:19;CYGK 181219Z 23007KT 8SM BKN008 OVC020 23/23 A2972 RMK SF5CU3 SLP065 DENSITY ALT 1600FT

CYGK;2017-08-18 12:45;CYGK 181245Z 24007KT 8SM SCT008 OVC025 24/23 A2972 RMK SF4CU4 SLP065 DENSITY ALT 1600FT

CYGK;2017-08-18 13:00;CYGK 181300Z 24007KT 8SM SCT008 BKN025 24/23 A2972 RMK SF3CU4 SLP065 DENSITY ALT 1600FT

CYGK;2017-08-18 14:00;CYGK 181400Z 25008KT 15SM SCT010 BKN040 25/23 A2972 RMK CU4SC3 SLP063 DENSITY ALT 1800FT

CYGK;2017-08-18 14:18;CYGK 181418Z 24007KT 8SM FEW005 BKN013TCU 25/23 A2972 RMK SF1TCU4 SLP065 DENSITY ALT 1800FT

CYGK;2017-08-18 15:00;CYGK 181500Z 22008KT 10SM FEW008 BKN016TCU BKN220 25/23 A2972 RMK SF1TCU4CI2 SLP064 DENSITY ALT 1800FT

CYGK;2017-08-18 17:00;CYGK 181700Z 19013KT 15SM SCT025 BKN250 25/23 A2971 RMK CU4CI1 SLP062 DENSITY ALT 1900FT

CYGK;2017-08-18 18:00;CYGK 181800Z 18013KT 15SM SCT028 SCT250 26/23 A2970 RMK CU3CI1 SLP059 DENSITY ALT 1900FT

CYGK;2017-08-18 19:00;CYGK 181900Z 19011KT 15SM FEW030 FEW250 26/22 A2969 RMK CU2CI1 CI TR SLP054 DENSITY ALT 1900FT

CYGK;2017-08-18 20:00;CYGK 182000Z 18011KT 15SM FEW030 SCT250 26/22 A2968 RMK CU2CI1 SLP050 DENSITY ALT 1900FT

CYGK;2017-08-18 21:00;CYGK 182100Z 19010KT 15SM FEW040 FEW070 SCT250 25/22 A2967 RMK CU1AC1CI1 SLP047 DENSITY ALT 1900FT

CYGK;2017-08-18 22:00;CYGK 182200Z 24014G20KT 15SM FEW050 BKN094 BKN250 26/19 A2967 RMK CU1AC4CI1 SLP049 DENSITY ALT 2000FT

CYGK;2017-08-18 23:00;CYGK 182300Z 23015G21KT 15SM FEW050TCU SCT080 BKN250 26/19 A2969 RMK TCU1AC3CI1 TCU DIST SE SLP053 DENSITY ALT 1900FT

CYGK;2017-08-19 00:00;CYGK 190000Z 25010G16KT 15SM FEW050TCU FEW070 SCT250 24/19 A2969 RMK TCU1AC1CI1 TCU DIST NE  SE-S SLP055 DENSITY ALT 1700FT

CYGK;2017-08-19 01:00;CYGK 190100Z 26010G15KT 15SM BKN063 24/19 A2970 RMK SC6 SLP058 DENSITY ALT 1700FT

CYGK;2017-08-19 02:00;CYGK 190200Z 24010KT 15SM SCT082 23/19 A2972 RMK AC4 SLP065 DENSITY ALT 1600FT

CYGK;2017-08-19 03:00;CYGK 190300Z 24009KT 15SM SCT082 23/19 A2973 RMK AC4 LAST STFD OBS/NEXT 191000 UTC SLP069 DENSITY ALT 1500FT

CYGK;2017-08-19 10:00;CYGK 191000Z 26009KT 15SM FEW035 OVC080 20/17 A2975 RMK SC2AC6 SLP073 DENSITY ALT 1300FT

CYGK;2017-08-19 11:00;CYGK 191100Z 25009KT 15SM BKN030 OVC080 20/17 A2976 RMK SC6AC2 SLP079 DENSITY ALT 1200FT

CYGK;2017-08-19 12:00;CYGK 191200Z 27006KT 15SM SCT033 OVC064 21/18 A2978 RMK SC4SC4 SLP083 DENSITY ALT 1200FT

CYGK;2017-08-19 12:49;CYGK 191249Z 29007KT 260V320 8SM -RA SCT018 OVC030 20/17 A2979 RMK CU3SC5 VIS S-W 3 SLP088 DENSITY ALT 1200FT

CYGK;2017-08-19 13:00;CYGK 191300Z 27006KT 10SM -RA FEW018 OVC025 20/17 A2979 RMK CU2SC6 SLP088 DENSITY ALT 1100FT

CYGK;2017-08-19 13:20;CYGK 191320Z 24006KT 15SM SCT020 BKN042 20/18 A2979 RMK CU3SC4 SLP088 DENSITY ALT 1200FT

CYGK;2017-08-19 14:00;CYGK 191400Z 26012KT 15SM FEW032 BKN060 BKN230 22/16 A2979 RMK CU2SC4CI1 SLP090 DENSITY ALT 1300FT

CYGK;2017-08-19 15:00;CYGK 191500Z 24012KT 15SM SCT025 BKN045 BKN250 23/17 A2980 RMK CU3SC2CI1 SLP091 DENSITY ALT 1500FT

CYGK;2017-08-19 16:00;CYGK 191600Z 25013G19KT 15SM FEW025 BKN038 BKN220 22/16 A2980 RMK CU2SC3CI2 SLP093 DENSITY ALT 1300FT

CYGK;2017-08-19 17:00;CYGK 191700Z 23012G19KT 15SM FEW030 BKN055 23/16 A2980 RMK CU2SC5 SLP093 DENSITY ALT 1500FT

CYGK;2017-08-19 18:00;CYGK 191800Z 23012G17KT 15SM FEW030 BKN063 BKN230 23/17 A2980 RMK CU2SC3CI1 SLP093 DENSITY ALT 1500FT

CYGK;2017-08-19 19:00;CYGK 191900Z 24012G23KT 15SM VCSH FEW028 BKN040 OVC250 23/17 A2980 RMK CF1SC6CI1 CVCTV CLD EMBD SLP094 DENSITY ALT 1500FT

CYGK;2017-08-19 20:00;CYGK 192000Z 23011G16KT 15SM FEW030 SCT050 BKN080 BKN250 22/17 A2980 RMK CU2SC2AC1CI2 SLP092 DENSITY ALT 1400FT

CYGK;2017-08-19 21:00;CYGK 192100Z 23016G23KT 15SM FEW031 SCT080 BKN200 23/17 A2979 RMK CU2AC1CC4 SLP088 DENSITY ALT 1500FT

CYGK;2017-08-19 22:00;CYGK 192200Z 24014G19KT 15SM FEW032 SCT140 BKN220 23/17 A2978 RMK CU2AC1CI3 SLP084 DENSITY ALT 1500FT

CYGK;2017-08-19 23:00;CYGK 192300Z 23012G18KT 15SM BKN045 BKN080 BKN250 22/16 A2978 RMK CU5AC1CI1 CI TR SLP087 DENSITY ALT 1400FT

CYGK;2017-08-19 23:45;CYGK 192345Z 24013KT 15SM -SHRA SCT030TCU BKN080 BKN250 22/17 A2980 RMK TCU4AC2CI1 SLP091 DENSITY ALT 1400FT

CYGK;2017-08-20 00:00;CYGK 200000Z 29005G20KT 15SM VCSH FEW020 SCT030TCU BKN040 BKN080 BKN250 20/18 A2980 RMK CF1TCU2SC2AC1CI1 SH E SLP093 DENSITY ALT 1100FT

CYGK;2017-08-20 01:00;CYGK 200100Z 25006KT 15SM FEW030 SCT080 BKN250 19/17 A2982 RMK CU1AC2CI2 SLP099 DENSITY ALT 1000FT

CYGK;2017-08-20 02:00;CYGK 200200Z 27007KT 15SM FEW080 BKN095 19/17 A2984 RMK AC2AC4 SLP107 DENSITY ALT 1000FT

CYGK;2017-08-20 03:00;CYGK 200300Z 29005KT 15SM FEW040 OVC080 19/17 A2986 RMK SC2AC6 LAST STFD OBS/NEXT 201000 UTC SLP112 DENSITY ALT 900FT

CYGK;2017-08-20 10:00;CYGK 201000Z 24004KT 15SM SCT230 15/15 A2999 RMK CI3 SLP156 DENSITY ALT 400FT

CYGK;2017-08-20 11:00;CYGK 201100Z 27007KT 15SM FEW010 FEW030 FEW230 16/15 A3000 RMK SF1SC1CI1 SF TR SC TR SLP162 DENSITY ALT 400FT

CYGK;2017-08-20 11:20;CYGK 201120Z 30010KT 12SM SCT004 15/15 A3001 RMK SF4 SLP165

CYGK;2017-08-20 11:24;CYGK 201124Z 29009KT 10SM BKN004 15/15 A3002 RMK SF6 SLP166

CYGK;2017-08-20 11:30;CYGK 201130Z 30008KT 3SM BR BKN003 15/15 A3002 RMK SF7 VIS 8 S SLP167

CYGK;2017-08-20 12:00;CYGK 201200Z 30011KT 3SM BR OVC002 15/15 A3003 RMK SF8 SLP171

CYGK;2017-08-20 12:37;CYGK 201237Z 30008KT 8SM OVC004 16/16 A3004 RMK SF8 SLP173 DENSITY ALT 400FT

CYGK;2017-08-20 13:00;CYGK 201300Z 30005KT 15SM BKN004 17/16 A3004 RMK SF7 SLP173 DENSITY ALT 500FT

CYGK;2017-08-20 13:16;CYGK 201316Z 31004KT 260V330 15SM SCT004 18/17 A3004 RMK SF4 SLP173 DENSITY ALT 600FT

CYGK;2017-08-20 14:00;CYGK 201400Z 21006KT 170V290 15SM FEW008 19/17 A3004 RMK SF1 SLP174 DENSITY ALT 800FT

CYGK;2017-08-20 15:00;CYGK 201500Z 23006KT 160V260 15SM FEW015 21/18 A3005 RMK CU2 SLP177 DENSITY ALT 1000FT

CYGK;2017-08-20 16:00;CYGK 201600Z 23009KT 15SM SCT020 23/18 A3006 RMK CU3 SLP181 DENSITY ALT 1200FT

CYGK;2017-08-20 17:00;CYGK 201700Z 18008KT 15SM SCT025 23/19 A3006 RMK CU3 SLP179 DENSITY ALT 1200FT

CYGK;2017-08-20 18:00;CYGK 201800Z 19015KT 15SM SCT030 23/19 A3005 RMK CU4 SLP178 DENSITY ALT 1200FT

CYGK;2017-08-20 19:00;CYGK 201900Z 21012G17KT 15SM SCT030 24/20 A3005 RMK CU3 SLP176 DENSITY ALT 1300FT

CYGK;2017-08-20 20:00;CYGK 202000Z 21011KT 15SM FEW035 25/19 A3004 RMK CU2 SLP174 DENSITY ALT 1400FT

CYGK;2017-08-20 21:00;CYGK 202100Z 19011KT 15SM FEW030 24/20 A3004 RMK CU1 SLP173 DENSITY ALT 1300FT

CYGK;2017-08-20 22:00;CYGK 202200Z 19010KT 15SM FEW250 23/20 A3003 RMK CI1 CI TR SLP170 DENSITY ALT 1200FT

CYGK;2017-08-20 23:00;CYGK 202300Z 21008KT 15SM FEW250 23/20 A3003 RMK CI1 CI TR SLP171 DENSITY ALT 1300FT

CYGK;2017-08-21 00:00;CYGK 210000Z 22005KT 15SM FEW040 FEW250 22/19 A3004 RMK CU1CI1 CU TR SLP175 DENSITY ALT 1100FT

CYGK;2017-08-21 01:00;CYGK 210100Z 23005KT 15SM FEW250 22/18 A3006 RMK CI1 SLP181 DENSITY ALT 1100FT

CYGK;2017-08-21 02:00;CYGK 210200Z 19006KT 15SM FEW250 21/18 A3008 RMK CI1 SLP186 DENSITY ALT 1000FT

CYGK;2017-08-21 03:00;CYGK 210300Z 23004KT 15SM SCT082 21/20 A3008 RMK AC4 LAST STFD OBS/NEXT 211000 UTC SLP187 DENSITY ALT 1000FT

CYGK;2017-08-21 10:00;CYGK 211000Z 22003KT 10SM BKN240 19/18 A3010 RMK CI5 SLP194 DENSITY ALT 600FT

CYGK;2017-08-21 11:00;CYGK 211100Z 19007KT 10SM BKN240 20/20 A3011 RMK CI6 SLP196 DENSITY ALT 800FT

CYGK;2017-08-21 12:00;CYGK 211200Z 18009KT 12SM BKN240 22/21 A3010 RMK CI5 SLP195 DENSITY ALT 1000FT

CYGK;2017-08-21 13:00;CYGK 211300Z 20010KT 12SM FEW020 SCT240 23/21 A3011 RMK CF1CI4 CF TR SLP196 DENSITY ALT 1100FT

CYGK;2017-08-21 14:00;CYGK 211400Z 19009G17KT 12SM SCT240 23/20 A3010 RMK CI3 SLP194 DENSITY ALT 1200FT

CYGK;2017-08-21 15:00;CYGK 211500Z 19012KT 15SM SCT200 23/20 A3009 RMK CI4 SLP192 DENSITY ALT 1200FT

CYGK;2017-08-21 16:00;CYGK 211600Z 19012KT 15SM BKN230 24/21 A3009 RMK CI5 SLP190 DENSITY ALT 1200FT

CYGK;2017-08-21 17:00;CYGK 211700Z 19012KT 12SM FEW020 24/21 A3007 RMK CU1 CU TR SLP185 DENSITY ALT 1300FT

CYGK;2017-08-21 18:00;CYGK 211800Z 18010KT 12SM BKN220 24/21 A3006 RMK CI5 SLP181 DENSITY ALT 1300FT

CYGK;2017-08-21 19:00;CYGK 211900Z 20008KT 15SM FEW250 24/20 A3005 RMK CI2 SLP176 DENSITY ALT 1300FT

CYGK;2017-08-21 20:00;CYGK 212000Z 20011G18KT 12SM FEW040 FEW210 24/21 A3003 RMK CU1CI2 CU TR SLP171 DENSITY ALT 1400FT

CYGK;2017-08-21 21:00;CYGK 212100Z 19011KT 15SM FEW250 24/21 A3003 RMK CI2 SLP169 DENSITY ALT 1400FT

CYGK;2017-08-21 22:00;CYGK 212200Z 20008KT 15SM FEW250 24/21 A3002 RMK CI2 SLP168 DENSITY ALT 1300FT

CYGK;2017-08-21 23:00;CYGK 212300Z 19009KT 15SM SCT250 23/21 A3001 RMK CI3 SLP164 DENSITY ALT 1300FT

CYGK;2017-08-22 00:00;CYGK 220000Z 20007KT 15SM BKN250 23/21 A3001 RMK CI6 SLP163 DENSITY ALT 1200FT

CYGK;2017-08-22 01:00;CYGK 220100Z 21005KT 15SM SCT250 22/20 A3000 RMK CI4 SLP161 DENSITY ALT 1100FT

CYGK;2017-08-22 02:00;CYGK 220200Z 20004KT 15SM BKN250 22/20 A3002 RMK CI5 SLP168 DENSITY ALT 1100FT

CYGK;2017-08-22 03:00;CYGK 220300Z 24004KT 15SM SCT250 22/21 A3000 RMK CI4 LAST STFD OBS/NEXT 221015Z SLP160 DENSITY ALT 1100FT

CYGK;2017-08-22 10:00;CYGK 221000Z 17009KT 10SM FEW060 BKN220 22/22 A2987 RMK SC2CI4 SLP116 DENSITY ALT 1300FT

CYGK;2017-08-22 10:12;CYGK 221012Z 16010KT 10SM TS FEW025CB SCT055 SCT140 BKN210 22/22 A2986 RMK CB1SC2AC1CI3 AC TR OCNL LTCIC WEST SLP114 DENSITY ALT 1300FT

CYGK;2017-08-22 11:00;CYGK 221100Z 17014G19KT 10SM TS SCT030CB BKN055 BKN210 22/21 A2984 RMK CB3SC3CI1 SLP106 DENSITY ALT 1300FT

CYGK;2017-08-22 11:10;CYGK 221110Z 18014G19KT 10SM FEW030CB BKN055 BKN210 22/21 A2984 RMK CB2SC4CI1 SLP107 DENSITY ALT 1300FT

CYGK;2017-08-22 12:00;CYGK 221200Z 18014G21KT 12SM SCT035 BKN060 OVC220 22/21 A2982 RMK CU3SC4CI1 SLP100 DENSITY ALT 1400FT

CYGK;2017-08-22 13:00;CYGK 221300Z 18014KT 15SM BKN028 OVC060 23/22 A2980 RMK CU6SC2 SLP091 DENSITY ALT 1500FT

CYGK;2017-08-22 14:00;CYGK 221400Z 19012KT 15SM BKN027 BKN060 24/22 A2978 RMK SC5SC2 SLP085 DENSITY ALT 1600FT

CYGK;2017-08-22 15:00;CYGK 221500Z 19017G22KT 15SM SCT030 OVC180 25/22 A2975 RMK CU3AC5 SLP076 DENSITY ALT 1800FT

CYGK;2017-08-22 16:00;CYGK 221600Z 21012G17KT 15SM FEW030 BKN072 OVC200 25/23 A2972 RMK CU2AC3CI3 PRESFR SLP065 DENSITY ALT 1800FT

CYGK;2017-08-22 16:23;CYGK 221623Z 21014G21KT 8SM -TSRA BKN038CB OVC060 25/22 A2972 RMK CB6SC2 SLP064 DENSITY ALT 1800FT

CYGK;2017-08-22 16:29;CYGK 221629Z 21023G36KT 1 1/2SM -TSRA OVC035CB 24/22 A2973 RMK CB8 PRESRR SLP067 DENSITY ALT 1700FT

CYGK;2017-08-22 16:41;CYGK 221641Z 24013G34KT 190V260 10SM -TSRA FEW020 BKN038CB OVC060 22/22 A2971 RMK CU2CB4SC2 PRESFR SLP060 DENSITY ALT 1500FT

CYGK;2017-08-22 17:00;CYGK 221700Z 24008G16KT 12SM -TSRA FEW015 BKN030CB OVC070 23/22 A2971 RMK CU2CB4AC2 SLP061 DENSITY ALT 1500FT

CYGK;2017-08-22 17:08;CYGK 221708Z 25007KT 230V290 12SM FEW015 BKN030CB OVC070 23/22 A2970 RMK CU2CB3AC3 SLP059 DENSITY ALT 1600FT

CYGK;2017-08-22 17:41;CYGK 221741Z 23008KT 10SM -SHRA FEW020 SCT040TCU BKN070 OVC120 24/23 A2968 RMK CU1TCU2AC3AC2 SLP052 DENSITY ALT 1800FT

CYGK;2017-08-22 18:00;CYGK 221800Z 24010KT 12SM -SHRA FEW020 FEW040TCU BKN070 OVC120 25/22 A2967 RMK CU1TCU2AC4AC2 CU TR SLP047 DENSITY ALT 1900FT

CYGK;2017-08-22 18:32;CYGK 221832Z 23010KT 12SM FEW020 FEW040TCU SCT120 OVC170 26/22 A2964 RMK CU1TCU1AC2AC4 PRESFR SLP036 DENSITY ALT 2000FT

CYGK;2017-08-22 19:00;CYGK 221900Z 22016G24KT 12SM FEW020 BKN120 BKN190 26/22 A2961 RMK CU2AC3CI2 PRESFR SLP027 DENSITY ALT 2100FT

CYGK;2017-08-22 20:00;CYGK 222000Z 22022G30KT 15SM VCSH SCT035TCU OVC060 26/22 A2960 RMK TCU4SC4 SLP023 DENSITY ALT 2000FT

CYGK;2017-08-22 20:12;CYGK 222012Z 22020G28KT 10SM -SHRA FEW020 SCT032TCU BKN120 OVC180 26/21 A2960 RMK CU2TCU2AC2CI2 SLP023 DENSITY ALT 2000FT

CYGK;2017-08-22 20:32;CYGK 222032Z 23020G27KT 1/2SM SHRA BR OVC018TCU 24/22 A2960 RMK TCU8 SLP024 DENSITY ALT 1900FT

CYGK;2017-08-22 20:38;CYGK 222038Z 24018G40KT 200V270 10SM -SHRA FEW010 BKN018TCU OVC070 20/18 A2963 RMK SF1TCU4AC3 PRESRR SLP035 DENSITY ALT 1300FT

CYGK;2017-08-22 21:00;CYGK 222100Z 23012G21KT 10SM VCSH FEW010 SCT018TCU BKN074 OVC110 21/20 A2963 RMK SF1TCU3AC3AC1 SLP035 DENSITY ALT 1400FT

CYGK;2017-08-22 22:00;CYGK 222200Z 22009KT 15SM FEW020 BKN100 OVC160 21/19 A2962 RMK CU2AC3AC3 SLP031 DENSITY ALT 1500FT

CYGK;2017-08-22 23:00;CYGK 222300Z 22009KT 15SM FEW020TCU BKN060 OVC160 21/20 A2962 RMK TCU2SC3AC3 SLP031 DENSITY ALT 1500FT

CYGK;2017-08-23 00:00;CYGK 230000Z 21010KT 15SM FEW020 SCT040 BKN140 BKN180 22/20 A2961 RMK CU1SC2AC2CI1 SLP029 DENSITY ALT 1600FT

CYGK;2017-08-23 01:00;CYGK 230100Z 22009G17KT 12SM FEW020 SCT040 BKN090 OVC160 23/21 A2962 RMK CU1SC2AC3AC2 SLP031 DENSITY ALT 1600FT

CYGK;2017-08-23 02:00;CYGK 230200Z 26012G18KT 15SM FEW016 OVC075 22/20 A2962 RMK CU2AC6 SLP032 DENSITY ALT 1600FT

CYGK;2017-08-23 03:00;CYGK 230300Z 27011G20KT 15SM FEW012 SCT080 19/17 A2965 RMK CU1AC2 LAST STFD OBS/NEXT 231000 UTC SLP040 DENSITY ALT 1200FT

CYGK;2017-08-23 10:00;CYGK 231000Z 27009G15KT 15SM FEW020 SCT250 16/13 A2976 RMK CU1CI2 SLP079 DENSITY ALT 700FT

CYGK;2017-08-23 11:00;CYGK 231100Z 26011G20KT 15SM FEW025 FEW250 17/13 A2978 RMK CU1CI2 CU TR SLP085 DENSITY ALT 800FT

CYGK;2017-08-23 12:00;CYGK 231200Z 25011G16KT 15SM FEW025 FEW250 17/14 A2979 RMK CU1CI1 CU TR SLP089 DENSITY ALT 800FT

CYGK;2017-08-23 13:00;CYGK 231300Z 26011G18KT 15SM FEW020 SCT250 18/13 A2979 RMK CU1CI2 SLP090 DENSITY ALT 900FT

CYGK;2017-08-23 14:00;CYGK 231400Z 25010KT 15SM SCT025 19/14 A2980 RMK CU4 SLP093 DENSITY ALT 1000FT

CYGK;2017-08-23 15:00;CYGK 231500Z 28013KT 230V300 15SM BKN032 BKN080 BKN250 20/13 A2981 RMK CU5AC1CI1 AC TR SLP094 DENSITY ALT 1200FT

CYGK;2017-08-23 16:00;CYGK 231600Z 24010KT 15SM BKN032 21/13 A2980 RMK CU5 SLP093 DENSITY ALT 1200FT

CYGK;2017-08-23 17:00;CYGK 231700Z 24012G18KT 15SM SCT038TCU BKN080 22/14 A2979 RMK TCU4AC1 SLP090 DENSITY ALT 1300FT

CYGK;2017-08-23 17:50;CYGK 231750Z 24014G20KT 15SM -SHRA BKN035TCU BKN075 21/14 A2980 RMK TCU5AC2 SLP091 DENSITY ALT 1200FT

CYGK;2017-08-23 18:00;CYGK 231800Z 24014G22KT 15SM -SHRA BKN030TCU BKN070 20/14 A2980 RMK TCU5AC2 VIS LWR N SLP092 DENSITY ALT 1100FT

CYGK;2017-08-23 18:11;CYGK 231811Z 30011G22KT 230V320 5SM -SHRA BR FEW020 BKN030TCU BKN070 17/14 A2982 RMK SF2TCU3AC1 VIS S 10 PRESRR SLP099 DENSITY ALT 800FT

CYGK;2017-08-23 18:13;CYGK 231813Z 30011G22KT 230V320 2 1/2SM SHRA BR FEW020 BKN030TCU BKN070 17/14 A2982 RMK SF2TCU4AC1 PRESRR SLP101 DENSITY ALT 700FT

CYGK;2017-08-23 18:17;CYGK 231817Z 31008G22KT 5SM -SHRA BR FEW020 BKN030TCU BKN070 16/15 A2982 RMK SF1TCU5AC2 SF TR PRESRR SLP099 DENSITY ALT 700FT

CYGK;2017-08-23 19:00;CYGK 231900Z 27008G15KT 12SM -SHRA FEW020 FEW030TCU BKN080 17/15 A2982 RMK SF1TCU2AC5 SF TR SLP100 DENSITY ALT 800FT

CYGK;2017-08-23 19:38;CYGK 231938Z 23012G18KT 15SM SCT030TCU BKN100 19/16 A2982 RMK TCU3AC3 SLP100 DENSITY ALT 1000FT

CYGK;2017-08-23 20:00;CYGK 232000Z 25010G18KT 15SM FEW030TCU SCT100 BKN250 20/15 A2982 RMK TCU2AC2CI2 SLP099 DENSITY ALT 1100FT

CYGK;2017-08-23 21:00;CYGK 232100Z 25011G17KT 15SM FEW030TCU SCT100 SCT230 21/15 A2981 RMK TCU2AC1CI1 CI TR SLP094 DENSITY ALT 1200FT

CYGK;2017-08-23 22:00;CYGK 232200Z 25012G23KT 15SM FEW035TCU SCT100 20/15 A2981 RMK TCU2AC1 SLP097 DENSITY ALT 1200FT

CYGK;2017-08-23 23:00;CYGK 232300Z 25011KT 15SM FEW035TCU SCT100 20/14 A2981 RMK TCU1AC2 SLP097 DENSITY ALT 1100FT

CYGK;2017-08-24 00:00;CYGK 240000Z 27007KT 15SM FEW035TCU FEW110 19/13 A2983 RMK TCU1AC2 TCU TR SLP102 DENSITY ALT 900FT

CYGK;2017-08-24 01:00;CYGK 240100Z 27007KT 15SM FEW110 18/12 A2985 RMK AC2 SLP109 DENSITY ALT 800FT

CYGK;2017-08-24 02:00;CYGK 240200Z 27008KT 15SM FEW120 17/11 A2986 RMK AC2 SLP113 DENSITY ALT 700FT

CYGK;2017-08-24 03:00;CYGK 240300Z 28008KT 15SM FEW120 15/10 A2986 RMK AC2 LAST STFD OBS/NEXT 241000 UTC SLP115 DENSITY ALT 500FT

CYGK;2017-08-24 10:00;CYGK 241000Z 30007KT 15SM FEW020TCU BKN080 12/11 A2993 RMK TCU1AC5 TCU TR SLP137

CYGK;2017-08-24 11:00;CYGK 241100Z 31005KT 15SM FEW020TCU FEW080 12/12 A2994 RMK TCU1AC2 TCU TR SLP142

CYGK;2017-08-24 12:00;CYGK 241200Z 34005KT 15SM FEW020TCU BKN044 14/13 A2995 RMK TCU1SC7 TCU TR SLP146

CYGK;2017-08-24 13:00;CYGK 241300Z 34005KT 15SM FEW020 BKN044 16/13 A2997 RMK CU1SC5 SLP150 DENSITY ALT 400FT

CYGK;2017-08-24 14:00;CYGK 241400Z 36007KT 15SM FEW025 BKN040 17/13 A2998 RMK CU2SC5 SLP155 DENSITY ALT 600FT

CYGK;2017-08-24 15:00;CYGK 241500Z 32005KT 15SM SCT020 BKN046 17/13 A2999 RMK CU3SC4 SLP158 DENSITY ALT 600FT

CYGK;2017-08-24 16:00;CYGK 241600Z 29004KT 260V360 15SM SCT020 BKN040 18/12 A2999 RMK CU3SC4 SLP157 DENSITY ALT 700FT

CYGK;2017-08-24 17:00;CYGK 241700Z 33005KT 270V360 15SM FEW030 BKN050 BKN160 19/12 A2998 RMK CU2SC3AC1 SLP156 DENSITY ALT 900FT

CYGK;2017-08-24 18:00;CYGK 241800Z 32009KT 240V360 15SM SCT025 BKN047 19/12 A2998 RMK CU3SC4 SLP156 DENSITY ALT 900FT

CYGK;2017-08-24 19:00;CYGK 241900Z 30007KT 15SM FEW025 BKN048 19/11 A2999 RMK CU2SC5 SLP158 DENSITY ALT 800FT

CYGK;2017-08-24 20:00;CYGK 242000Z 27004KT 230V360 15SM FEW025 BKN047 19/11 A3000 RMK CU2SC5 SLP160 DENSITY ALT 800FT

CYGK;2017-08-24 21:00;CYGK 242100Z 29007KT 15SM FEW035 BKN058 19/11 A3000 RMK CU2SC5 SLP160 DENSITY ALT 800FT

CYGK;2017-08-24 22:00;CYGK 242200Z 29004KT 15SM FEW035 BKN062 19/12 A3000 RMK CU1SC5 SLP162 DENSITY ALT 800FT

CYGK;2017-08-24 23:00;CYGK 242300Z 30005KT 15SM FEW035 BKN066 18/12 A3000 RMK CU1AC5 SLP162 DENSITY ALT 700FT

CYGK;2017-08-25 00:00;CYGK 250000Z 31005KT 15SM FEW040 BKN070 17/12 A3001 RMK CU1AC6 CU TR SLP165 DENSITY ALT 600FT

CYGK;2017-08-25 01:00;CYGK 250100Z 32004KT 15SM BKN072 16/12 A3002 RMK AC5 SLP168 DENSITY ALT 400FT

CYGK;2017-08-25 02:00;CYGK 250200Z 32006KT 15SM BKN074 15/12 A3003 RMK AC5 SLP171

CYGK;2017-08-25 03:00;CYGK 250300Z 35005KT 15SM FEW073 FEW230 14/11 A3004 RMK AC1CI1 LAST STFD OBS/NEXT 251000 UTC SLP174

CYGK;2017-08-25 10:00;CYGK 251000Z 35007KT 15SM FEW065 FEW250 09/08 A3013 RMK SC1CI1 SLP205

CYGK;2017-08-25 11:00;CYGK 251100Z 35007KT 15SM FEW065 FEW250 09/09 A3014 RMK SC1CI1 SC TR CI TR SLP210

CYGK;2017-08-25 12:00;CYGK 251200Z 35008KT 15SM FEW065 12/10 A3016 RMK SC1 SC TR SLP215

CYGK;2017-08-25 13:00;CYGK 251300Z 35007KT 15SM FEW020 14/11 A3017 RMK CU1 CU TR SLP220

CYGK;2017-08-25 14:00;CYGK 251400Z 36006KT 15SM FEW020 17/11 A3018 RMK CU1 CU TR SLP221

CYGK;2017-08-25 15:00;CYGK 251500Z 35005KT 15SM FEW020 18/10 A3018 RMK CU1 SLP222 DENSITY ALT 500FT

CYGK;2017-08-25 16:00;CYGK 251600Z 34008KT 270V010 15SM SCT045 BKN250 19/09 A3018 RMK CU4CS2 SLP222 DENSITY ALT 600FT

CYGK;2017-08-25 17:00;CYGK 251700Z 35008KT 320V020 15SM BKN050 BKN250 19/09 A3017 RMK CU5CS1 SLP221 DENSITY ALT 600FT

CYGK;2017-08-25 18:00;CYGK 251800Z 29006KT 260V330 15SM BKN055 BKN250 20/09 A3017 RMK SC5CS1 SLP221 DENSITY ALT 700FT

CYGK;2017-08-25 19:00;CYGK 251900Z VRB02KT 15SM SCT057 BKN120 BKN250 20/09 A3017 RMK SC4AC1CI1 SLP218 DENSITY ALT 800FT

CYGK;2017-08-25 20:00;CYGK 252000Z 30005KT 240V310 15SM SCT060 21/08 A3016 RMK CU3 SLP215 DENSITY ALT 900FT

CYGK;2017-08-25 21:00;CYGK 252100Z 30006KT 15SM FEW060 20/09 A3017 RMK CU2 SLP220 DENSITY ALT 800FT

CYGK;2017-08-25 22:00;CYGK 252200Z 27003KT 15SM FEW060 20/09 A3018 RMK CU1 SLP222 DENSITY ALT 700FT

CYGK;2017-08-25 23:00;CYGK 252300Z 00000KT 15SM FEW060 19/11 A3018 RMK CU1 CU TR SLP223 DENSITY ALT 600FT

CYGK;2017-08-26 00:00;CYGK 260000Z 00000KT 15SM FEW053 FEW250 16/09 A3019 RMK SC1CI2 SC TR SLP226

CYGK;2017-08-26 01:00;CYGK 260100Z 28007KT 15SM FEW250 15/11 A3021 RMK CI1 SLP233

CYGK;2017-08-26 02:00;CYGK 260200Z 31005KT 15SM FEW250 14/10 A3022 RMK CI1 SLP237

CYGK;2017-08-26 03:00;CYGK 260300Z 33003KT 15SM FEW250 13/10 A3024 RMK CI1 LAST STFD OBS/NEXT 261000 UTC SLP243

CYGK;2017-08-26 10:00;CYGK 261000Z 34007KT 15SM FEW250 09/08 A3027 RMK CI2 SLP252

CYGK;2017-08-26 11:00;CYGK 261100Z 35007KT 15SM FEW020 FEW250 08/08 A3028 RMK CU1CI2 CU TR SLP256

CYGK;2017-08-26 12:00;CYGK 261200Z 35007KT 15SM FEW020 FEW250 11/10 A3029 RMK CU1CI1 CU TR SLP260

CYGK;2017-08-26 13:00;CYGK 261300Z 33004KT 15SM FEW020 FEW250 14/11 A3030 RMK CU1CI2 CU TR SLP264

CYGK;2017-08-26 14:00;CYGK 261400Z VRB02KT 15SM FEW030 17/10 A3031 RMK CU1 CU TR SLP267

CYGK;2017-08-26 15:00;CYGK 261500Z 13003KT 15SM FEW040 19/11 A3032 RMK CU1 CU TR SLP268 DENSITY ALT 400FT

CYGK;2017-08-26 16:00;CYGK 261600Z 15007KT 15SM FEW030 FEW240 19/11 A3031 RMK CU1CI1 SLP265 DENSITY ALT 400FT

CYGK;2017-08-26 17:00;CYGK 261700Z 17008KT 15SM FEW050 19/10 A3030 RMK CU2 SLP262 DENSITY ALT 500FT

CYGK;2017-08-26 18:00;CYGK 261800Z 16006KT 15SM FEW055 SCT250 20/10 A3029 RMK CU2CI2 SLP260 DENSITY ALT 600FT

CYGK;2017-08-26 19:00;CYGK 261900Z 19008KT 150V210 15SM SCT060 BKN270 20/10 A3029 RMK CU3CI3 SLP258 DENSITY ALT 600FT

CYGK;2017-08-26 20:00;CYGK 262000Z 17006KT 15SM FEW063 BKN270 20/10 A3027 RMK CU2CI3 SLP253 DENSITY ALT 700FT

CYGK;2017-08-26 21:00;CYGK 262100Z 18007KT 15SM FEW062 BKN270 20/10 A3027 RMK CU2CI3 SLP252 DENSITY ALT 600FT

CYGK;2017-08-26 22:00;CYGK 262200Z 20007KT 15SM FEW070 BKN270 20/11 A3027 RMK CU2CI3 SLP252 DENSITY ALT 600FT

CYGK;2017-08-26 23:00;CYGK 262300Z 21006KT 15SM FEW064 BKN270 19/11 A3027 RMK SC2CI3 SLP254 DENSITY ALT 500FT

CYGK;2017-08-27 00:00;CYGK 270000Z 23006KT 15SM FEW064 SCT270 17/10 A3028 RMK SC1CI2 SLP255

CYGK;2017-08-27 01:00;CYGK 270100Z 24005KT 15SM FEW270 17/10 A3029 RMK CI2 SLP259

CYGK;2017-08-27 02:00;CYGK 270200Z 24005KT 15SM FEW270 17/11 A3030 RMK CI2 SLP263

CYGK;2017-08-27 03:00;CYGK 270300Z 32003KT 15SM FEW270 13/11 A3030 RMK CI2 LAST STFD OBS / NEXT 271000 UTC SLP264

CYGK;2017-08-27 10:00;CYGK 271000Z 01003KT 15SM FEW030 FEW250 09/09 A3030 RMK CU1CI2 CU TR SLP264

CYGK;2017-08-27 11:00;CYGK 271100Z 01003KT 15SM FEW030 FEW070 09/09 A3032 RMK CU1AC1 CU TR SLP268

CYGK;2017-08-27 12:00;CYGK 271200Z 00000KT 15SM FEW030 FEW070 14/13 A3032 RMK CU1AC1 CU TR AC TR SLP269

CYGK;2017-08-27 13:00;CYGK 271300Z 08005KT 15SM FEW030 FEW070 18/14 A3031 RMK CU1AC1 CU TR AC TR SLP268

CYGK;2017-08-27 14:00;CYGK 271400Z 11005KT 15SM FEW030 19/13 A3032 RMK CU1 SLP270 DENSITY ALT 500FT

CYGK;2017-08-27 15:00;CYGK 271500Z 16005KT 120V190 15SM FEW035 20/13 A3032 RMK CU2 SLP270 DENSITY ALT 500FT

CYGK;2017-08-27 16:00;CYGK 271600Z 17006KT 15SM SCT040 20/13 A3032 RMK CU3 SLP268 DENSITY ALT 500FT

CYGK;2017-08-27 17:00;CYGK 271700Z 18006KT 170V230 15SM FEW040 20/13 A3030 RMK CU2 SLP264 DENSITY ALT 600FT

CYGK;2017-08-27 18:00;CYGK 271800Z 18007KT 15SM SCT060 SCT250 21/14 A3029 RMK CU3CI1 SLP261 DENSITY ALT 700FT

CYGK;2017-08-27 19:04;CYGK 271904Z 19006KT 15SM FEW060 SCT270 22/12 A3027 RMK CU2CI2 SLP254 DENSITY ALT 800FT

CYGK;2017-08-27 20:00;CYGK 272000Z 18006KT 15SM FEW058 SCT270 22/11 A3026 RMK CU2CI1 SLP251 DENSITY ALT 800FT

CYGK;2017-08-27 21:00;CYGK 272100Z 16006KT 140V210 15SM FEW062 SCT270 22/10 A3025 RMK SC2CI2 SLP246 DENSITY ALT 900FT

CYGK;2017-08-27 22:00;CYGK 272200Z 06006KT 010V080 15SM FEW060 SCT270 22/09 A3025 RMK SC1CI3 SLP245 DENSITY ALT 800FT

CYGK;2017-08-27 23:00;CYGK 272300Z 05006KT 15SM SCT270 20/09 A3024 RMK CI4 SLP243 DENSITY ALT 700FT

CYGK;2017-08-28 00:00;CYGK 280000Z 04004KT 15SM SCT270 19/09 A3024 RMK CI4 SLP243 DENSITY ALT 500FT

CYGK;2017-08-28 01:00;CYGK 280100Z 05005KT 15SM SCT270 17/09 A3025 RMK CI4 SLP244

CYGK;2017-08-28 02:00;CYGK 280200Z 06005KT 15SM SCT270 16/10 A3026 RMK CI4 SLP248

CYGK;2017-08-28 03:00;CYGK 280300Z 05005KT 15SM SCT270 15/10 A3026 RMK CI4 LAST STFD OBS / NEXT 281000 UTC SLP249

CYGK;2017-08-28 10:00;CYGK 281000Z 03004KT 15SM FEW250 13/10 A3026 RMK CI2 SLP247

CYGK;2017-08-28 11:00;CYGK 281100Z 03003KT 15SM SCT250 12/11 A3027 RMK CI4 SLP253

CYGK;2017-08-28 12:00;CYGK 281200Z 07006KT 15SM FEW070 SCT250 15/12 A3029 RMK AC1CI4 AC TR SLP258

CYGK;2017-08-28 13:00;CYGK 281300Z 10005KT 15SM FEW070 SCT250 18/14 A3030 RMK AC2CI2 SLP262

CYGK;2017-08-28 14:00;CYGK 281400Z 17009KT 15SM FEW070 SCT160 BKN220 20/15 A3030 RMK CU2AC1CI3 SLP261 DENSITY ALT 500FT

CYGK;2017-08-28 15:00;CYGK 281500Z 17009KT 15SM FEW060 BKN250 21/15 A3030 RMK CU1CI4 SLP261 DENSITY ALT 700FT

CYGK;2017-08-28 16:00;CYGK 281600Z 17007KT 15SM FEW040 BKN270 22/15 A3029 RMK CU1CI5 SLP260 DENSITY ALT 800FT

CYGK;2017-08-28 17:00;CYGK 281700Z 18006KT 15SM FEW040 BKN250 21/14 A3028 RMK CU1CI6 SLP255 DENSITY ALT 800FT

CYGK;2017-08-28 18:00;CYGK 281800Z 17007KT 15SM FEW040 BKN270 21/15 A3028 RMK CU2CI5 SLP255 DENSITY ALT 800FT

CYGK;2017-08-28 19:00;CYGK 281900Z 18005KT 150V230 15SM FEW040 BKN220 21/15 A3026 RMK CU1CS6 SLP250 DENSITY ALT 800FT

CYGK;2017-08-28 20:00;CYGK 282000Z 18004KT 15SM FEW040 OVC220 21/14 A3025 RMK CU1CS7 SLP246 DENSITY ALT 800FT

CYGK;2017-08-28 21:00;CYGK 282100Z 16003KT 050V180 15SM FEW160 BKN250 21/13 A3024 RMK AS2CS5 SLP242 DENSITY ALT 800FT

CYGK;2017-08-28 22:00;CYGK 282200Z 19002KT 15SM FEW160 BKN250 21/12 A3024 RMK AS2CS5 SLP244 DENSITY ALT 800FT

CYGK;2017-08-28 23:00;CYGK 282300Z 09002KT 15SM FEW160 BKN220 20/14 A3024 RMK CC2CS4 SLP244 DENSITY ALT 600FT

CYGK;2017-08-29 00:00;CYGK 290000Z 08004KT 15SM BKN230 19/12 A3023 RMK CS7 SLP240 DENSITY ALT 500FT

CYGK;2017-08-29 01:00;CYGK 290100Z 07005KT 15SM BKN220 18/12 A3024 RMK CS7 SLP241 DENSITY ALT 400FT

CYGK;2017-08-29 02:00;CYGK 290200Z 08004KT 15SM BKN220 18/13 A3023 RMK CS7 SLP240 DENSITY ALT 400FT

CYGK;2017-08-29 03:00;CYGK 290300Z 08004KT 15SM BKN230 16/13 A3023 RMK CS7 LAST STFD OBS / NEXT 291000 UTC SLP237

CYGK;2017-08-29 10:00;CYGK 291000Z 18010KT 15SM SCT070 BKN230 19/13 A3022 RMK AC3CI4 SLP236 DENSITY ALT 500FT

CYGK;2017-08-29 11:00;CYGK 291100Z 17008KT 15SM FEW070 SCT160 BKN230 18/12 A3023 RMK AC2AC2CI3 SLP239 DENSITY ALT 500FT

CYGK;2017-08-29 12:00;CYGK 291200Z 16010KT 15SM FEW070 FEW160 BKN230 19/13 A3023 RMK AC1AC1CI5 SLP240 DENSITY ALT 500FT

CYGK;2017-08-29 13:00;CYGK 291300Z 14010KT 15SM FEW025 FEW070 BKN240 19/14 A3024 RMK CF1AC1CS6 CF TR SLP241 DENSITY ALT 500FT

CYGK;2017-08-29 14:00;CYGK 291400Z 16010KT 15SM FEW025 FEW070 BKN240 20/13 A3023 RMK CU1AC1CS6 CU TR SLP239 DENSITY ALT 600FT

CYGK;2017-08-29 15:00;CYGK 291500Z 16008KT 15SM FEW030 BKN220 21/14 A3022 RMK CU1CI6 CU TR SLP236 DENSITY ALT 700FT

CYGK;2017-08-29 16:00;CYGK 291600Z 17007KT 15SM FEW025 BKN200 21/15 A3021 RMK CU2CI5 SLP232 DENSITY ALT 800FT

CYGK;2017-08-29 17:00;CYGK 291700Z 18007KT 15SM FEW035 SCT250 21/13 A3019 RMK CU1CI3 SLP225 DENSITY ALT 800FT

CYGK;2017-08-29 18:00;CYGK 291800Z 20006KT 15SM FEW030 BKN210 21/13 A3018 RMK CU2CI4 SLP221 DENSITY ALT 800FT

CYGK;2017-08-29 19:00;CYGK 291900Z 19006KT 15SM FEW040 BKN180 OVC250 21/13 A3016 RMK CU2AC3CS3 SLP213 DENSITY ALT 800FT

CYGK;2017-08-29 20:00;CYGK 292000Z 19005KT 160V240 15SM FEW040 FEW170 BKN250 21/13 A3015 RMK CU1AC1CI3 SLP209 DENSITY ALT 900FT

CYGK;2017-08-29 21:00;CYGK 292100Z 19007KT 15SM FEW045 SCT180 BKN240 21/13 A3013 RMK CU2AC2CI3 SLP205 DENSITY ALT 900FT

CYGK;2017-08-29 22:00;CYGK 292200Z 18007KT 15SM FEW055 SCT180 BKN240 21/12 A3012 RMK CU2AC2CS2 SLP203 DENSITY ALT 800FT

CYGK;2017-08-29 23:00;CYGK 292300Z 18008KT 15SM FEW060 SCT170 BKN250 20/11 A3011 RMK CU1AC2CS3 SLP197 DENSITY ALT 700FT

CYGK;2017-08-30 00:00;CYGK 300000Z 18010KT 15SM FEW170 BKN250 19/09 A3010 RMK AC2CS5 SLP193 DENSITY ALT 700FT

CYGK;2017-08-30 01:00;CYGK 300100Z 17010KT 15SM SCT160 BKN250 19/09 A3009 RMK AC3CI2 SLP191 DENSITY ALT 700FT

CYGK;2017-08-30 02:00;CYGK 300200Z 16008KT 15SM FEW160 BKN250 19/11 A3008 RMK AC2CI3 SLP188 DENSITY ALT 700FT

CYGK;2017-08-30 03:00;CYGK 300300Z 15007KT 15SM SCT160 BKN250 18/11 A3007 RMK AC3CI2 LAST STFD OBS/NEXT 301000 UTC SLP183 DENSITY ALT 600FT

CYGK;2017-08-30 10:00;CYGK 301000Z 34005KT 15SM FEW020 FEW200 10/09 A3001 RMK SC1CI1 SC TR CI TR SLP165

CYGK;2017-08-30 11:00;CYGK 301100Z 35004KT 15SM SKC 10/10 A3002 RMK SLP168

CYGK;2017-08-30 12:00;CYGK 301200Z 06004KT 15SM FEW020 15/13 A3002 RMK SC1 SC TR SLP169

CYGK;2017-08-30 13:00;CYGK 301300Z 00000KT 15SM FEW020 17/14 A3002 RMK SC1 SC TR SLP167 DENSITY ALT 600FT

CYGK;2017-08-30 14:00;CYGK 301400Z 17003KT 15SM FEW020 19/15 A3001 RMK SC1 SLP163 DENSITY ALT 700FT

CYGK;2017-08-30 15:00;CYGK 301500Z 16006KT 15SM FEW020 19/15 A3001 RMK CU1 SLP163 DENSITY ALT 800FT

CYGK;2017-08-30 16:00;CYGK 301600Z 19006KT 15SM FEW025 20/15 A3001 RMK CU2 SLP164 DENSITY ALT 900FT

CYGK;2017-08-30 17:00;CYGK 301700Z 18007KT 15SM FEW025 20/16 A3000 RMK CU2 SLP159 DENSITY ALT 900FT

CYGK;2017-08-30 18:00;CYGK 301800Z 19009KT 15SM FEW030 20/16 A2998 RMK CU2 SLP153 DENSITY ALT 1000FT

CYGK;2017-08-30 19:00;CYGK 301900Z 19010KT 15SM SCT035 21/15 A2997 RMK CU3 SLP149 DENSITY ALT 1000FT

CYGK;2017-08-30 20:00;CYGK 302000Z 19009KT 15SM FEW035 21/15 A2995 RMK CU2 SLP143 DENSITY ALT 1100FT

CYGK;2017-08-30 21:00;CYGK 302100Z 20009KT 15SM FEW040 21/14 A2994 RMK CU2 SLP142 DENSITY ALT 1100FT

CYGK;2017-08-30 22:00;CYGK 302200Z 20008KT 15SM FEW040 20/13 A2993 RMK CU1 SLP138 DENSITY ALT 1000FT

CYGK;2017-08-30 23:00;CYGK 302300Z 21007KT 15SM SKC 19/13 A2992 RMK SLP134 DENSITY ALT 900FT

CYGK;2017-08-31 00:00;CYGK 310000Z 22007KT 15SM FEW100 19/16 A2991 RMK AC1 AC TR SLP130 DENSITY ALT 900FT

CYGK;2017-08-31 01:00;CYGK 310100Z 24006KT 15SM FEW250 19/14 A2992 RMK CI1 SLP132 DENSITY ALT 800FT

CYGK;2017-08-31 02:00;CYGK 310200Z 23007KT 15SM SCT100 19/15 A2990 RMK AC3 SLP128 DENSITY ALT 900FT

CYGK;2017-08-31 03:00;CYGK 310300Z 24006KT 15SM BKN100 19/16 A2989 RMK AC5 LAST STFD OBS/NEXT 311000 UTC SLP125 DENSITY ALT 900FT

CYGK;2017-08-31 10:00;CYGK 311000Z 34008KT 15SM OVC056 15/12 A2994 RMK SC8 SLP140

CYGK;2017-08-31 11:00;CYGK 311100Z 33007KT 15SM FEW020 BKN056 BKN120 OVC250 14/12 A2997 RMK CU1SC4AC1CI2 SLP150

CYGK;2017-08-31 12:00;CYGK 311200Z 36010KT 15SM SCT031 BKN120 15/11 A2999 RMK SC4AC1 SLP157

CYGK;2017-08-31 13:00;CYGK 311300Z 34011KT 15SM FEW028 BKN035 BKN120 BKN220 15/11 A3001 RMK CF1SC4AC1CI1 SLP163 DENSITY ALT 400FT

CYGK;2017-08-31 14:00;CYGK 311400Z 36014KT 15SM FEW023 SCT036 SCT120 BKN220 15/10 A3002 RMK CF1SC2AC1CI2 SLP169

CYGK;2017-08-31 15:00;CYGK 311500Z 35012KT 15SM SCT029 SCT240 17/10 A3003 RMK SC3CI1 SLP171 DENSITY ALT 500FT

CYGK;2017-08-31 16:00;CYGK 311600Z 36011G17KT 15SM SCT032 SCT220 18/09 A3003 RMK SC3CI1 SLP173 DENSITY ALT 600FT

CYGK;2017-08-31 17:00;CYGK 311700Z 31004KT 290V020 15SM FEW035 SCT240 18/08 A3004 RMK SC2CI1 SLP174 DENSITY ALT 600FT

CYGK;2017-08-31 18:00;CYGK 311800Z 34015KT 15SM BKN037 BKN230 18/09 A3004 RMK SC5CI1 SLP174 DENSITY ALT 700FT

CYGK;2017-08-31 19:00;CYGK 311900Z 32010G18KT 310V030 15SM SCT045 18/08 A3004 RMK SC3 SLP176 DENSITY ALT 600FT

CYGK;2017-08-31 20:00;CYGK 312000Z 35012G21KT 15SM FEW045 SCT250 17/07 A3005 RMK SC2CI2 SLP178 DENSITY ALT 400FT

CYGK;2017-08-31 21:00;CYGK 312100Z 36009G19KT 15SM SCT045 BKN250 15/06 A3006 RMK SC4CI2 SLP182

CYGK;2017-08-31 22:00;CYGK 312200Z 35012KT 15SM SCT044 BKN270 14/06 A3008 RMK SC4CI2 SLP187

CYGK;2017-08-31 23:00;CYGK 312300Z 36008KT 15SM FEW045 BKN270 13/05 A3008 RMK SC2CI3 SLP188

CYGK;2017-09-01 00:00;CYGK 010000Z 34007KT 15SM SCT045 BKN270 11/05 A3010 RMK SC3CI3 SLP196

CYGK;2017-09-01 01:00;CYGK 010100Z 35008KT 15SM FEW045 BKN270 11/04 A3012 RMK SC2CI3 SLP201

CYGK;2017-09-01 02:00;CYGK 010200Z 32004KT 15SM FEW045 SCT270 10/05 A3013 RMK SC1CI3 SLP205

CYGK;2017-09-01 03:00;CYGK 010300Z 31005KT 15SM SCT270 09/05 A3013 RMK CI4 LAST STFD OBS / NEXT 011000 UTC SLP207

CYGK;2017-09-01 10:00;CYGK 011000Z 34008KT 15SM FEW020 SCT270 06/05 A3017 RMK CU1CI3 CU TR CU OVR LAKE SLP221

CYGK;2017-09-01 11:00;CYGK 011100Z 33008KT 15SM FEW020 FEW270 07/05 A3020 RMK CU1CI2 CU TR CU OVR LAKE SLP229

CYGK;2017-09-01 12:00;CYGK 011200Z 33012KT 15SM FEW020 FEW270 09/06 A3020 RMK CU1CI2 CU TR CU OVR LK SLP231

CYGK;2017-09-01 13:00;CYGK 011300Z 35011KT 15SM FEW020 FEW250 10/06 A3022 RMK CF1CI2 CF TR SLP236

CYGK;2017-09-01 14:00;CYGK 011400Z 32013KT 15SM FEW020 SCT250 12/06 A3021 RMK CU1CI2 SLP234

CYGK;2017-09-01 15:00;CYGK 011500Z 34010G15KT 320V030 15SM FEW020 SCT270 14/05 A3021 RMK CU1CI3 SLP235

CYGK;2017-09-01 16:00;CYGK 011600Z 36008G16KT 310V030 15SM FEW030 FEW250 15/06 A3021 RMK SC1CI1 SLP233

CYGK;2017-09-01 17:00;CYGK 011700Z 36009KT 15SM FEW020 FEW270 16/04 A3019 RMK SC1CI2 SC TR SLP227

CYGK;2017-09-01 18:00;CYGK 011800Z 01006KT 270V030 15SM FEW040 FEW250 16/05 A3018 RMK SC1CI2 SC TR SLP224

CYGK;2017-09-01 19:00;CYGK 011900Z 29005KT 15SM FEW040 FEW250 17/04 A3017 RMK SC1CI2 SC TR SLP219 DENSITY ALT 400FT

CYGK;2017-09-01 20:00;CYGK 012000Z 30007KT 260V340 15SM FEW040 SCT250 18/04 A3017 RMK SC1CI3 SC TR SLP218 DENSITY ALT 500FT

CYGK;2017-09-01 21:00;CYGK 012100Z 34007KT 280V020 15SM FEW040 FEW250 18/04 A3016 RMK SC1CI2 SC TR SLP217 DENSITY ALT 500FT

CYGK;2017-09-01 22:00;CYGK 012200Z 33006KT 15SM FEW250 18/03 A3016 RMK CI2 SLP215 DENSITY ALT 500FT

CYGK;2017-09-01 23:00;CYGK 012300Z 32002KT 15SM SCT250 17/04 A3015 RMK CI3 SLP214 DENSITY ALT 400FT

CYGK;2017-09-02 00:00;CYGK 020000Z 01004KT 15SM SCT250 14/05 A3016 RMK CI3 SLP218

CYGK;2017-09-02 01:00;CYGK 020100Z 04005KT 15SM FEW250 12/05 A3018 RMK CI1 SLP222

CYGK;2017-09-02 02:00;CYGK 020200Z 03004KT 15SM FEW250 12/05 A3019 RMK CI2 SLP226

CYGK;2017-09-02 03:00;CYGK 020300Z 03004KT 15SM FEW250 08/06 A3020 RMK CI1 LAST STFD OBS/NEXT 021000 UTC SLP231

CYGK;2017-09-02 10:00;CYGK 021000Z 02003KT 15SM FEW250 05/04 A3021 RMK CI2 SLP235

CYGK;2017-09-02 11:00;CYGK 021100Z 03004KT 15SM FEW030 FEW250 05/05 A3021 RMK CU1CI2 CU TR SLP234

CYGK;2017-09-02 12:00;CYGK 021200Z 05004KT 15SM FEW030 FEW250 11/09 A3022 RMK CU1CI2 CU TR SLP235

CYGK;2017-09-02 13:00;CYGK 021300Z 07005KT 15SM FEW030 FEW250 14/11 A3023 RMK SC1CI2 SC TR SLP238

CYGK;2017-09-02 14:00;CYGK 021400Z 11007KT 090V150 15SM FEW030 SCT250 16/08 A3023 RMK SC1CI3 SLP238

CYGK;2017-09-02 15:00;CYGK 021500Z 18007KT 080V190 15SM FEW035 SCT250 17/08 A3023 RMK SC1CI3 SC TR SLP240

CYGK;2017-09-02 16:00;CYGK 021600Z 14005KT 110V200 15SM FEW030 SCT250 17/07 A3021 RMK SC1CI3 SC TR SLP232

CYGK;2017-09-02 17:00;CYGK 021700Z 16007KT 15SM FEW040 SCT250 18/09 A3019 RMK CU1CI3 CU TR SLP225 DENSITY ALT 400FT

CYGK;2017-09-02 18:00;CYGK 021800Z 19007KT 15SM SCT250 18/10 A3017 RMK CI4 SLP219 DENSITY ALT 500FT

CYGK;2017-09-02 19:00;CYGK 021900Z 17006KT 15SM FEW120 FEW220 18/09 A3014 RMK AC1CI2 AC TR SLP208 DENSITY ALT 500FT

CYGK;2017-09-02 20:00;CYGK 022000Z 08003KT 15SM FEW120 BKN250 20/07 A3011 RMK AC1CI6 AC TR SLP200 DENSITY ALT 700FT

CYGK;2017-09-02 21:00;CYGK 022100Z 09005KT 060V120 15SM FEW120 SCT250 20/07 A3010 RMK AC1CI3 SLP196 DENSITY ALT 800FT

CYGK;2017-09-02 22:00;CYGK 022200Z 08006KT 15SM FEW120 BKN240 19/08 A3008 RMK AC2CI4 SLP189 DENSITY ALT 700FT

CYGK;2017-09-02 23:00;CYGK 022300Z 07005KT 15SM FEW120 BKN210 17/09 A3007 RMK AC2CI4 SLP185 DENSITY ALT 500FT

CYGK;2017-09-03 00:00;CYGK 030000Z 06006KT 15SM FEW120 BKN210 16/09 A3005 RMK AC2CI4 SLP178 DENSITY ALT 400FT

CYGK;2017-09-03 01:00;CYGK 030100Z 06008KT 15SM FEW170 SCT220 15/08 A3005 RMK AC2CI2 SLP179

CYGK;2017-09-03 02:00;CYGK 030200Z 06006KT 15SM FEW170 SCT210 15/09 A3004 RMK AC1CI2 SLP176

CYGK;2017-09-03 03:00;CYGK 030300Z 19013KT 15SM BKN068 BKN120 19/10 A3003 RMK AC5AC2 LAST STFD OBS/NEXT 031000 UTC SLP173 DENSITY ALT 700FT

CYGK;2017-09-03 10:00;CYGK 031000Z 11010KT 4SM -DZ BR OVC005 12/12 A2991 RMK SF8 SLP132

CYGK;2017-09-03 11:00;CYGK 031100Z 10011KT 4SM -RA BR BKN005 OVC010 12/12 A2989 RMK SF5NS3 SLP125

CYGK;2017-09-03 12:00;CYGK 031200Z 09010KT 5SM -RA BR FEW004 OVC007 12/11 A2988 RMK SF2NS6 SLP121

CYGK;2017-09-03 12:31;CYGK 031231Z 10007KT 4SM -RA BR OVC004 12/12 A2987 RMK NS8 CIG RAG SLP117

CYGK;2017-09-03 13:00;CYGK 031300Z 11009KT 2SM -RA BR OVC004 13/12 A2986 RMK NS8 CIG RAG SLP113

CYGK;2017-09-03 14:00;CYGK 031400Z 16016G21KT 2SM -RA BR OVC008 15/14 A2983 RMK SF8 CIG RAG SLP104 DENSITY ALT 500FT

CYGK;2017-09-03 15:00;CYGK 031500Z 17019G24KT 5SM -RA BR BKN008 OVC012 15/14 A2981 RMK SF6SC2 CIG RAG SLP098 DENSITY ALT 500FT

CYGK;2017-09-03 15:50;CYGK 031550Z 17018G24KT 2SM -RA BR OVC008 15/15 A2980 RMK NS8 SLP092 DENSITY ALT 600FT

CYGK;2017-09-03 16:00;CYGK 031600Z 17016G22KT 3SM -RA BR OVC006 15/15 A2979 RMK NS8 CIG RAG SLP091 DENSITY ALT 600FT

CYGK;2017-09-03 17:00;CYGK 031700Z 21007KT 5SM -RA BR BKN008 OVC037 16/16 A2978 RMK SF5NS3 SLP087 DENSITY ALT 700FT

CYGK;2017-09-03 18:00;CYGK 031800Z 26005KT 210V280 4SM -RA BR BKN008 OVC017 16/16 A2978 RMK SF5NS3 CIG RAG SLP085 DENSITY ALT 700FT

CYGK;2017-09-03 18:14;CYGK 031814Z 27007KT 8SM -RA SCT008 BKN015 OVC070 16/16 A2978 RMK SF3SC4AC1 SLP086 DENSITY ALT 700FT

CYGK;2017-09-03 18:28;CYGK 031828Z 28006KT 10SM SCT010 OVC083 17/16 A2977 RMK CU3AC5 SLP084 DENSITY ALT 800FT

CYGK;2017-09-03 18:42;CYGK 031842Z 26004KT 12SM -RA BKN008 OVC070 17/17 A2977 RMK SF5AC3 SLP084 DENSITY ALT 800FT

CYGK;2017-09-03 19:00;CYGK 031900Z 27006KT 12SM -SHRA BKN009TCU BKN078 OVC250 17/16 A2977 RMK TCU5AC2CI1 TCU DIST S SLP083 DENSITY ALT 900FT

CYGK;2017-09-03 19:50;CYGK 031950Z 27008KT 15SM SCT016TCU BKN039 OVC085 18/16 A2976 RMK TCU3SC2AC3 SLP081 DENSITY ALT 1000FT

CYGK;2017-09-03 20:00;CYGK 032000Z 27006KT 15SM SCT016TCU BKN039 BKN100 18/16 A2976 RMK TCU3SC2AC2 SLP081 DENSITY ALT 900FT

CYGK;2017-09-03 21:00;CYGK 032100Z 29007KT 15SM SCT020 BKN040 OVC110 19/16 A2976 RMK CU3SC2AC3 SLP081 DENSITY ALT 1000FT

CYGK;2017-09-03 22:00;CYGK 032200Z 29008G15KT 15SM FEW025TCU SCT060 BKN100 BKN250 18/14 A2977 RMK TCU2SC2AC2CI1 SLP083 DENSITY ALT 900FT

CYGK;2017-09-03 23:00;CYGK 032300Z 28013G20KT 15SM VCSH SCT020TCU BKN040 BKN100 BKN250 17/14 A2978 RMK TCU3SC3AC1CI1 CI TR SH NE SLP087 DENSITY ALT 800FT

CYGK;2017-09-04 00:00;CYGK 040000Z 28009KT 15SM FEW025TCU BKN050 BKN110 BKN250 16/14 A2980 RMK TCU1SC4AC2CI1 CI TR SLP093 DENSITY ALT 600FT

CYGK;2017-09-04 01:00;CYGK 040100Z 27008KT 15SM BKN062 BKN100 16/13 A2982 RMK SC6AC1 SLP101 DENSITY ALT 600FT

CYGK;2017-09-04 02:00;CYGK 040200Z 28005KT 15SM FEW030 SCT080 14/13 A2982 RMK SC1AC2 SLP101 DENSITY ALT 400FT

CYGK;2017-09-04 03:00;CYGK 040300Z 27006KT 15SM FEW120 15/13 A2982 RMK AC2 LAST STFD OBS/NEXT 041000 UTC SLP101 DENSITY ALT 500FT

CYGK;2017-09-04 10:00;CYGK 041000Z 24008KT 15SM SCT240 16/15 A2981 RMK CI4 SLP096 DENSITY ALT 700FT

CYGK;2017-09-04 11:00;CYGK 041100Z 23010KT 15SM FEW120 BKN240 17/16 A2980 RMK AC1CI4 SLP094 DENSITY ALT 800FT

CYGK;2017-09-04 12:00;CYGK 041200Z 22010G15KT 15SM FEW012 SCT130 BKN240 18/16 A2980 RMK CU1AC3CI4 CU TR SLP092 DENSITY ALT 900FT

CYGK;2017-09-04 13:00;CYGK 041300Z 23011G18KT 15SM FEW020 BKN130 BKN250 19/17 A2978 RMK CU2AC3CI2 SLP088 DENSITY ALT 1100FT

CYGK;2017-09-04 14:00;CYGK 041400Z 23014G19KT 15SM FEW015 FEW130 BKN230 21/17 A2977 RMK CU1AC2CI4 CU TR SLP083 DENSITY ALT 1200FT

CYGK;2017-09-04 15:00;CYGK 041500Z 21017G22KT 15SM FEW020 SCT130 BKN250 22/17 A2974 RMK CU1AC2CI3 SLP072 DENSITY ALT 1400FT

CYGK;2017-09-04 16:00;CYGK 041600Z 20015G22KT 15SM SCT120 BKN230 22/18 A2972 RMK AC3CI3 SLP065 DENSITY ALT 1500FT

CYGK;2017-09-04 17:00;CYGK 041700Z 20019G27KT 15SM FEW030 FEW180 BKN250 22/17 A2969 RMK CU1AC2CI4 CU TR SLP056 DENSITY ALT 1500FT

CYGK;2017-09-04 18:00;CYGK 041800Z 20021G28KT 15SM FEW030 SCT170 BKN220 23/16 A2968 RMK CU1AC3CI3 CU TR SLP052 DENSITY ALT 1600FT

CYGK;2017-09-04 19:00;CYGK 041900Z 20017G23KT 15SM BKN120 BKN220 23/17 A2967 RMK AC6CI1 ACC ASOCTD SLP049 DENSITY ALT 1600FT

CYGK;2017-09-04 20:00;CYGK 042000Z 20011G16KT 15SM SCT110 BKN150 OVC250 22/18 A2965 RMK AC3AC3CI2 SLP043 DENSITY ALT 1600FT

CYGK;2017-09-04 21:00;CYGK 042100Z 20014KT 15SM BKN100 BKN250 22/18 A2963 RMK AC6CI1 ACC ASOCTD SLP034 DENSITY ALT 1500FT

CYGK;2017-09-04 22:00;CYGK 042200Z 19007KT 15SM BKN100 OVC200 21/18 A2960 RMK AC6CI2 ACC ASOCTD PRESFR SLP025 DENSITY ALT 1500FT

CYGK;2017-09-04 22:13;CYGK 042213Z 19008KT 15SM TS FEW060CB BKN100 OVC200 21/18 A2960 RMK CB1AC6CI1 CB DIST NW OCNL LTGCG NW SLP026 DENSITY ALT 1500FT

CYGK;2017-09-04 22:23;CYGK 042223Z 29007KT 180V290 15SM -TSRA SCT060CB BKN100 OVC200 21/18 A2965 RMK CB3AC4CI1 CB SW-NE OCNL LTGCGCC SW-NE PRESRR SLP041 DENSITY ALT 1400FT

CYGK;2017-09-04 22:30;CYGK 042230Z 29007KT 8SM TSRA BKN058CB BKN100 OVC200 21/18 A2967 RMK CB5AC2CI1 FRQ LTGCGCC ALQDS PRESRR SLP048 DENSITY ALT 1400FT

CYGK;2017-09-04 23:00;CYGK 042300Z 24003KT 220V290 12SM -TSRA BKN060CB BKN110 OVC200 20/17 A2964 RMK CB5AC2CI1 OCNL LTGCGCC W-NE PRESFR SLP039 DENSITY ALT 1400FT

CYGK;2017-09-04 23:46;CYGK 042346Z 00000KT 12SM -SHRA SCT070CB OVC090 19/18 A2966 RMK CB3AC5 SLP044 DENSITY ALT 1200FT

CYGK;2017-09-05 00:00;CYGK 050000Z 16003KT 010V180 12SM -SHRA FEW060CB OVC090 19/18 A2965 RMK CB2AC6 SLP042 DENSITY ALT 1200FT

CYGK;2017-09-05 01:00;CYGK 050100Z 15009KT 12SM -TSRA FEW060CB OVC080 19/18 A2961 RMK CB2AC6 SLP026 DENSITY ALT 1200FT

CYGK;2017-09-05 01:20;CYGK 050120Z 17009KT 8SM -RA FEW060CB OVC100 19/18 A2964 RMK CB2AC6 PRESRR SLP037 DENSITY ALT 1200FT

CYGK;2017-09-05 01:24;CYGK 050124Z 16009KT 6SM -TSRA BR SCT060CB OVC100 19/18 A2963 RMK CB3AC5 OCNL LTGIC OVHD SLP036 DENSITY ALT 1200FT

CYGK;2017-09-05 01:30;CYGK 050130Z 18004KT 150V230 6SM TSRA BR SCT070CB OVC110 19/18 A2963 RMK CB4AC4 SLP036 DENSITY ALT 1200FT

CYGK;2017-09-05 01:39;CYGK 050139Z 16005KT 140V230 6SM SHRA BR FEW070CB OVC110 19/18 A2964 RMK CB1AC7 SLP037 DENSITY ALT 1200FT

CYGK;2017-09-05 01:43;CYGK 050143Z 17006KT 5SM TSRA BR SCT050CB OVC110 19/18 A2964 RMK CB3AC5 OCNL LTGIC OVHD SLP040 DENSITY ALT 1200FT

CYGK;2017-09-05 02:00;CYGK 050200Z 14025G30KT 6SM TSRA BR SCT050CB OVC110 19/18 A2955 RMK CB4AC4 PRESFR SLP007 DENSITY ALT 1300FT

CYGK;2017-09-05 02:09;CYGK 050209Z 15020G31KT 8SM -SHRA SCT050TCU OVC110 19/18 A2956 RMK TCU3AC5 PRESFR SLP010 DENSITY ALT 1300FT

CYGK;2017-09-05 02:22;CYGK 050222Z 14021G26KT 8SM -TSRA SCT050CB OVC110 19/18 A2955 RMK CB4AC4 OCNL LTGIC NW SLP008 DENSITY ALT 1400FT

CYGK;2017-09-05 03:00;CYGK 050300Z 17021G28KT 8SM -TSRA SCT050CB OVC120 20/19 A2954 RMK CB3AC5 LAST STFD OBS/NEXT 051000 UTC PRESFR SLP005 DENSITY ALT 1400FT

CYGK;2017-09-05 10:00;CYGK 051000Z 28005KT 15SM FEW050 OVC160 15/14 A2966 RMK SC1AC8 SC TR SLP044 DENSITY ALT 700FT

CYGK;2017-09-05 11:00;CYGK 051100Z 24005KT 15SM FEW050 BKN150 OVC240 15/14 A2968 RMK SC1AC6CI2 SC TR SLP052 DENSITY ALT 700FT

CYGK;2017-09-05 12:00;CYGK 051200Z 26007KT 15SM FEW020 FEW160 OVC240 16/15 A2970 RMK SC1AC2CI6 SC TR SLP057 DENSITY ALT 800FT

CYGK;2017-09-05 13:00;CYGK 051300Z 28008KT 15SM FEW010 SCT160 OVC250 16/15 A2970 RMK SF1AC3CS5 SF TR SLP059 DENSITY ALT 800FT

CYGK;2017-09-05 14:00;CYGK 051400Z 28004KT 240V300 15SM FEW020 SCT160 OVC250 17/15 A2971 RMK SC1AC2CI5 SLP062 DENSITY ALT 900FT

CYGK;2017-09-05 15:00;CYGK 051500Z 00000KT 15SM SCT015 BKN090 OVC140 17/15 A2971 RMK SC4AC2AC2 SLP062 DENSITY ALT 900FT

CYGK;2017-09-05 16:00;CYGK 051600Z 24004KT 15SM FEW013 SCT090 BKN140 OVC250 18/15 A2972 RMK SC1AC2AC2CI3 SLP064 DENSITY ALT 1000FT

CYGK;2017-09-05 17:00;CYGK 051700Z 28004KT 240V300 15SM FEW015 BKN100 OVC150 18/14 A2971 RMK SC2AC3AS3 SLP062 DENSITY ALT 1000FT

CYGK;2017-09-05 18:00;CYGK 051800Z 20005KT 15SM FEW015 SCT160 BKN250 19/13 A2971 RMK CU2AC1CI4 SLP062 DENSITY ALT 1100FT

CYGK;2017-09-05 19:00;CYGK 051900Z 19008KT 15SM FEW025 BKN150 OVC250 19/15 A2972 RMK CU2AS3CI3 SLP064 DENSITY ALT 1200FT

CYGK;2017-09-05 19:55;CYGK 051955Z 19011KT 15SM FEW035 SCT160 OVC250 19/14 A2972 RMK CU1AS2CI5 SLP064 DENSITY ALT 1200FT

CYGK;2017-09-05 21:00;CYGK 052100Z 20009KT 15SM FEW040 OVC220 19/14 A2972 RMK CU1CI7 SLP065 DENSITY ALT 1200FT

CYGK;2017-09-05 22:00;CYGK 052200Z 24011G16KT 15SM FEW040 FEW120 OVC220 19/13 A2972 RMK CU1AC2CS6 CU TR SLP067 DENSITY ALT 1100FT

CYGK;2017-09-05 23:00;CYGK 052300Z 24009KT 15SM SCT120 BKN270 19/13 A2975 RMK AC3CI4 SLP075 DENSITY ALT 1000FT

CYGK;2017-09-06 00:00;CYGK 060000Z 25006KT 15SM SCT130 BKN270 17/13 A2976 RMK AC4CI3 SLP079 DENSITY ALT 900FT

CYGK;2017-09-06 01:00;CYGK 060100Z 24005KT 15SM FEW100 SCT140 BKN270 17/13 A2978 RMK AC2AC2CI3 SLP087 DENSITY ALT 800FT

CYGK;2017-09-06 02:00;CYGK 060200Z 28004KT 15SM FEW020 SCT120 BKN270 16/12 A2980 RMK CU1AC3CI2 SLP092 DENSITY ALT 600FT

CYGK;2017-09-06 03:00;CYGK 060300Z 27003KT 15SM FEW020 FEW120 BKN270 15/12 A2980 RMK CU1AC1CI5 LAST STFD OBS / NEXT 061000 UTC SLP094 DENSITY ALT 600FT

CYGK;2017-09-06 10:00;CYGK 061000Z 34003KT 330V040 15SM SCT043 BKN240 12/12 A2985 RMK SC4CI2 SLP109

CYGK;2017-09-06 11:00;CYGK 061100Z 35003KT 15SM SCT043 SCT120 BKN230 11/11 A2986 RMK SC3AC1CI3 SLP112

CYGK;2017-09-06 12:00;CYGK 061200Z 02002KT 15SM FEW038 SCT120 BKN230 12/12 A2987 RMK CU2AC1CI4 SLP116

CYGK;2017-09-06 13:00;CYGK 061300Z 01004KT 15SM SCT025 SCT120 BKN220 14/14 A2986 RMK SC3AC1CI3 SLP114 DENSITY ALT 400FT

CYGK;2017-09-06 14:00;CYGK 061400Z 34003KT 15SM FEW012TCU SCT030 BKN210 16/15 A2987 RMK TCU2SC1CI4 SLP117 DENSITY ALT 600FT

CYGK;2017-09-06 15:00;CYGK 061500Z 05003KT 15SM FEW015TCU SCT030 BKN220 18/16 A2987 RMK TCU2SC2CI3 SLP117 DENSITY ALT 800FT

CYGK;2017-09-06 16:00;CYGK 061600Z 05006KT 15SM SCT018TCU SCT040 BKN220 19/15 A2987 RMK TCU3SC1CI3 SLP117 DENSITY ALT 900FT

CYGK;2017-09-06 17:00;CYGK 061700Z 20005KT 15SM SCT020 SCT052 BKN220 19/15 A2988 RMK CU3SC1CI3 SLP119 DENSITY ALT 1000FT

CYGK;2017-09-06 18:00;CYGK 061800Z 16005KT 130V200 15SM SCT022TCU BKN042 OVC220 19/15 A2987 RMK TCU3SC2CI3 SLP118 DENSITY ALT 900FT

CYGK;2017-09-06 19:00;CYGK 061900Z 15006KT 15SM SCT030TCU OVC250 19/15 A2987 RMK TCU3CI5 SLP118 DENSITY ALT 900FT

CYGK;2017-09-06 20:00;CYGK 062000Z 20003KT 170V240 15SM FEW030TCU SCT100 OVC210 19/15 A2987 RMK TCU2AC1CI5 SLP116 DENSITY ALT 900FT

CYGK;2017-09-06 21:00;CYGK 062100Z 19003KT 15SM FEW040TCU BKN100 OVC220 19/14 A2987 RMK TCU2AC3CI3 SLP117 DENSITY ALT 900FT

CYGK;2017-09-06 22:00;CYGK 062200Z 19003KT 15SM FEW040 SCT100 OVC220 18/15 A2987 RMK CU1AC3CS5 CU TR SLP116 DENSITY ALT 900FT

CYGK;2017-09-06 23:00;CYGK 062300Z 22003KT 15SM SCT090 BKN120 OVC250 18/14 A2987 RMK AC3AC2CI3 SLP118 DENSITY ALT 800FT

CYGK;2017-09-07 00:00;CYGK 070000Z 25003KT 15SM SCT090 OVC250 17/14 A2988 RMK AC3CI5 SLP121 DENSITY ALT 700FT

CYGK;2017-09-07 01:00;CYGK 070100Z VRB02KT 15SM BKN100 OVC220 16/14 A2988 RMK AC5CI3 SLP122 DENSITY ALT 600FT

CYGK;2017-09-07 02:00;CYGK 070200Z 00000KT 15SM FEW030TCU OVC120 16/15 A2986 RMK TCU1AC7 SLP114 DENSITY ALT 600FT

CYGK;2017-09-07 02:51;CYGK 070251Z 34002KT 15SM FEW030CB OVC100 15/14 A2985 RMK CB1AC7 CB EAST LTNGCC SLP109 DENSITY ALT 500FT

CYGK;2017-09-07 03:00;CYGK 070300Z VRB02KT 15SM FEW030CB OVC100 15/15 A2985 RMK CB1AC7 CB EAST LTNGCCCG LAST STFD OBS/NEXT 071000 UTC SLP110 DENSITY ALT 500FT

CYGK;2017-09-07 10:00;CYGK 071000Z 35003KT 15SM FEW022CB SCT042 BKN130 13/12 A2979 RMK CB1SC2AC3 OCNL LTGCC DIST ESE SLP089

CYGK;2017-09-07 11:00;CYGK 071100Z 00000KT 15SM BCFG FEW022TCU SCT050 SCT080 BKN180 12/12 A2980 RMK TCU2SC1AC1AC2 SLP092

CYGK;2017-09-07 12:00;CYGK 071200Z CCA 34002KT 15SM FEW020 SCT024CB BKN100 14/13 A2979 RMK CU1CB2AC2 SLP091 DENSITY ALT 400FT

CYGK;2017-09-07 13:00;CYGK 071300Z VRB02KT 15SM TS SCT020CB SCT060 BKN100 17/14 A2978 RMK CB3SC1AC2 SLP087 DENSITY ALT 800FT

CYGK;2017-09-07 13:26;CYGK 071326Z 27004KT 10SM -TSRA FEW010 SCT022CB BKN088 BKN220 17/14 A2979 RMK CF1CB3AC2CI1 FREQ LTGCG SE-NW MVG EWD SLP090 DENSITY ALT 700FT

CYGK;2017-09-07 13:36;CYGK 071336Z 29026G34KT 210V310 4SM TSRA BKN010CB BKN036 BKN088 15/12 A2979 RMK CB5SC1AC1 FREQ LTGCG W VIS W 1 SLP089 DENSITY ALT 500FT

CYGK;2017-09-07 13:43;CYGK 071343Z 30015G34KT 220V310 1SM TSRA BR OVC010CB 12/10 A2981 RMK CB8 FREQ LTGCG OHD MVG EWD PRESRR SLP096

CYGK;2017-09-07 13:52;CYGK 071352Z 32014G22KT 10SM -TSRA BKN010CB BKN087CB 12/11 A2980 RMK CB5CB2 FREQ LTGCG E MVG EWD VIS W 15 SLP093

CYGK;2017-09-07 14:00;CYGK 071400Z 34011G17KT 12SM -TSRA SCT010CB BKN044 OVC100 12/11 A2980 RMK CB4SC2AC2 FREQ LTGCG E MVG EWD VIS E 4 SLP092

CYGK;2017-09-07 14:20;CYGK 071420Z 36007KT 15SM TS SCT015CB BKN050 BKN100 13/11 A2980 RMK CB3SC2AC1 SLP092

CYGK;2017-09-07 14:27;CYGK 071427Z 01005KT 15SM FEW015CB SCT050 BKN070 BKN100 13/11 A2980 RMK CB2SC1AC2AC1 OCNL LTGCG EAST SLP092

CYGK;2017-09-07 15:00;CYGK 071500Z 23005KT 110V250 15SM FEW015CB FEW025TCU SCT040 BKN070 BKN100 14/11 A2982 RMK CB1TCU1SC2AC2AC1 TCU TR SLP099 DENSITY ALT 400FT

CYGK;2017-09-07 16:00;CYGK 071600Z 18004KT 15SM FEW012 FEW024TCU SCT090 BKN210 16/12 A2982 RMK CF1TCU1AC2CI1 SLP101 DENSITY ALT 600FT

CYGK;2017-09-07 17:00;CYGK 071700Z 21012KT 15SM SCT025 BKN080 BKN120 19/12 A2981 RMK SC3AC2AC1 TCU EMBD SLP098 DENSITY ALT 1000FT

CYGK;2017-09-07 17:44;CYGK 071744Z 24011KT 15SM -RA FEW016 SCT024TCU BKN070 BKN210 18/11 A2981 RMK CF1TCU3AC1CI1 SLP095 DENSITY ALT 800FT

CYGK;2017-09-07 18:00;CYGK 071800Z 19012KT 10SM -SHRA FEW016 SCT024TCU BKN073 BKN210 16/10 A2981 RMK CF1TCU3AC1CI1 SLP097 DENSITY ALT 600FT

CYGK;2017-09-07 19:00;CYGK 071900Z 25012G18KT 15SM VCSH FEW020 SCT040TCU BKN090 19/11 A2979 RMK CU1TCU3AC2 SLP089 DENSITY ALT 1100FT

CYGK;2017-09-07 20:00;CYGK 072000Z 24017G23KT 15SM SCT040TCU SCT220 19/11 A2979 RMK TCU3CI1 SLP090 DENSITY ALT 1000FT

CYGK;2017-09-07 21:00;CYGK 072100Z 24016G21KT 15SM -SHRA BKN035TCU BKN100 18/11 A2980 RMK TCU5AC2 SLP094 DENSITY ALT 900FT

CYGK;2017-09-07 22:00;CYGK 072200Z 29005KT 15SM -SHRA BKN038CB BKN100 15/11 A2981 RMK CB5AC2 SLP098 DENSITY ALT 500FT

CYGK;2017-09-07 22:07;CYGK 072207Z 27012G21KT 15SM -TSRA BKN030CB BKN100 15/11 A2983 RMK CB5AC2 PRESRR SLP104 DENSITY ALT 500FT

CYGK;2017-09-07 22:20;CYGK 072220Z 27009KT 15SM -SHRA SCT030CB BKN070 BKN100 13/11 A2982 RMK CB4AC2AC1 SLP102

CYGK;2017-09-07 23:00;CYGK 072300Z 25005KT 15SM -SHRA FEW035TCU BKN070 BKN100 14/12 A2981 RMK TCU2ACC4AC1 SLP099 DENSITY ALT 400FT

CYGK;2017-09-07 23:17;CYGK 072317Z 25004KT 210V280 15SM FEW030TCU BKN070 BKN120 15/13 A2981 RMK TCU1ACC4AC1 SLP099 DENSITY ALT 500FT

CYGK;2017-09-08 00:00;CYGK 080000Z 24005KT 15SM FEW020 FEW040 BKN085 BKN250 15/13 A2982 RMK CU1CU1AC3CI2 SLP101 DENSITY ALT 500FT

CYGK;2017-09-08 01:00;CYGK 080100Z 25010KT 15SM FEW020 BKN080 BKN220 15/12 A2984 RMK CU1AC4CI1 SLP105 DENSITY ALT 500FT

CYGK;2017-09-08 02:00;CYGK 080200Z 26005KT 15SM FEW020 BKN075 BKN200 BKN250 14/12 A2984 RMK CU1AC4CI1CI1 SLP109

CYGK;2017-09-08 03:00;CYGK 080300Z 26005KT 15SM FEW025 BKN075 BKN180 BKN220 14/12 A2985 RMK CU1AC4AC1CI1 LAST STFD OBS/NEXT 081000 UTC SLP112

CYGK;2017-09-08 10:00;CYGK 081000Z 32003KT 260V010 15SM FEW020 BKN034 11/10 A2995 RMK CU1SC7 CU TR CU OVR LK SLP145

CYGK;2017-09-08 11:00;CYGK 081100Z VRB02KT 15SM FEW020 BKN035 11/11 A2998 RMK CU1SC7 CU TR SLP155

CYGK;2017-09-08 12:00;CYGK 081200Z 28006KT 15SM FEW020 FEW034 BKN063 BKN270 12/11 A3001 RMK CU1SC2SC4CI1 CU TR TCU TOP SW SLP163

CYGK;2017-09-08 13:00;CYGK 081300Z 30008KT 15SM FEW012 SCT024 BKN120 BKN220 13/11 A3002 RMK CF1SC3AC1CI1 SLP167

CYGK;2017-09-08 14:00;CYGK 081400Z 29006KT 270V340 15SM BKN016 BKN250 13/10 A3004 RMK SC7CI1 CI TR SLP175

CYGK;2017-09-08 15:00;CYGK 081500Z 30010KT 280V340 15SM BKN020 14/10 A3006 RMK SC7 SLP182

CYGK;2017-09-08 16:00;CYGK 081600Z 34009KT 15SM BKN025 BKN065 14/10 A3008 RMK SC7SC1 SC TR SLP188

CYGK;2017-09-08 17:00;CYGK 081700Z 29012KT 250V320 15SM VCSH BKN032 16/10 A3008 RMK SC6 CVTCV CLD ASOCTD SLP189

CYGK;2017-09-08 17:21;CYGK 081721Z 32013KT 250V330 12SM -SHRA BKN024 15/11 A3008 RMK SC7 CVTCV CLD ASOCTD SLP189

CYGK;2017-09-08 18:00;CYGK 081800Z 33007KT 15SM -SHRA BKN047 17/11 A3009 RMK SC7 CVCTV CLD EMBD SLP193 DENSITY ALT 400FT

CYGK;2017-09-08 18:33;CYGK 081833Z 32009KT 15SM VCSH BKN040 17/11 A3010 RMK SC6 CVCTV CLD EMBD SLP194 DENSITY ALT 500FT

CYGK;2017-09-08 19:00;CYGK 081900Z 33011KT 15SM VCSH BKN042 BKN100 17/10 A3010 RMK SC6AC1 AC TR SLP197 DENSITY ALT 400FT

CYGK;2017-09-08 20:00;CYGK 082000Z 29006KT 280V350 15SM VCSH BKN040 BKN100 18/10 A3011 RMK SC5AC1 AC TR SLP199 DENSITY ALT 500FT

CYGK;2017-09-08 21:00;CYGK 082100Z 35012KT 15SM SCT040 BKN100 17/09 A3012 RMK SC4AC1 SLP202 DENSITY ALT 400FT

CYGK;2017-09-08 22:00;CYGK 082200Z 35013KT 15SM SCT050 17/08 A3014 RMK SC3 SLP209

CYGK;2017-09-08 23:00;CYGK 082300Z 34010KT 15SM FEW050 FEW080 15/07 A3016 RMK SC1AC1 AC TR SLP217

CYGK;2017-09-09 00:00;CYGK 090000Z 35009KT 15SM FEW050 FEW080 12/08 A3019 RMK SC1AC1 SLP227

CYGK;2017-09-09 01:00;CYGK 090100Z 33006KT 15SM FEW050 11/08 A3021 RMK SC1 SLP235

CYGK;2017-09-09 02:00;CYGK 090200Z 33004KT 15SM FEW050 10/08 A3023 RMK SC1 SC TR SLP240

CYGK;2017-09-09 03:00;CYGK 090300Z 33005KT 15SM SKC 09/07 A3025 RMK LAST STFD OBS/NEXT 091000 UTC SLP248

CYGK;2017-09-09 10:00;CYGK 091000Z 31005KT 15SM BKN051 08/07 A3031 RMK SC7 SLP268

CYGK;2017-09-09 11:00;CYGK 091100Z 32003KT 15SM BKN051 09/07 A3033 RMK SC7 SLP274

CYGK;2017-09-09 12:00;CYGK 091200Z 31006KT 15SM FEW030 FEW055 09/08 A3035 RMK CF1SC2 CF TR SLP280

CYGK;2017-09-09 13:00;CYGK 091300Z 35010KT 15SM FEW025 FEW050 12/08 A3035 RMK CU1SC1 CU TR SLP281

CYGK;2017-09-09 14:00;CYGK 091400Z 34009KT 15SM FEW030 FEW070 14/08 A3037 RMK CU1AC2 CU TR SLP288

CYGK;2017-09-09 15:00;CYGK 091500Z 33007KT 320V020 15SM FEW030 FEW070 15/08 A3038 RMK CU1AC2 CU TR SLP290

CYGK;2017-09-09 16:00;CYGK 091600Z 35007KT 15SM FEW030 FEW070 17/09 A3037 RMK CU1AC1 SLP288

CYGK;2017-09-09 17:00;CYGK 091700Z 04007G15KT 330V070 15SM SCT040 SCT070 18/09 A3037 RMK CU4AC1 AC TR SLP286

CYGK;2017-09-09 18:00;CYGK 091800Z 36009KT 340V040 15SM BKN050 BKN100 18/09 A3037 RMK CU5AC1 AC TR SLP286

CYGK;2017-09-09 19:00;CYGK 091900Z 01006G15KT 15SM BKN051 BKN100 17/08 A3035 RMK CU5AC1 AC TR SLP282

CYGK;2017-09-09 20:00;CYGK 092000Z 36008KT 15SM SCT050 BKN060 18/08 A3035 RMK CU4SC3 SLP281

CYGK;2017-09-09 21:00;CYGK 092100Z 35004KT 15SM FEW050 BKN064 18/09 A3035 RMK CU1SC6 SLP280

CYGK;2017-09-09 22:00;CYGK 092200Z 01005KT 15SM FEW050 BKN065 17/09 A3035 RMK CU1SC5 SLP282

CYGK;2017-09-09 23:00;CYGK 092300Z 33003KT 15SM FEW050 BKN070 15/09 A3036 RMK CU1AC4 SLP284

CYGK;2017-09-10 00:00;CYGK 100000Z 34005KT 15SM SCT060 13/10 A3037 RMK SC4 SLP288

CYGK;2017-09-10 01:00;CYGK 100100Z 35007KT 15SM FEW070 11/08 A3039 RMK AC2 SLP294

CYGK;2017-09-10 02:00;CYGK 100200Z 35006KT 15SM FEW070 11/08 A3040 RMK AC1 SLP297

CYGK;2017-09-10 03:00;CYGK 100300Z 34006KT 15SM FEW050 10/07 A3040 RMK SC1 LAST STFD OBS/NEXT 101000 UTC SLP298

CYGK;2017-09-10 10:00;CYGK 101000Z 34007KT 15SM FEW180 FEW250 06/05 A3045 RMK AC1CI1 SLP314

CYGK;2017-09-10 11:00;CYGK 101100Z 34007KT 15SM FEW020 FEW180 FEW250 05/05 A3046 RMK CF1AC1CI1 CF TR SLP318

CYGK;2017-09-10 12:00;CYGK 101200Z 34007KT 15SM FEW020 FEW180 FEW250 08/07 A3047 RMK CU1AC1CI1 CU TR AC TR SLP323

CYGK;2017-09-10 13:00;CYGK 101300Z 35006KT 15SM FEW020 FEW180 FEW250 11/08 A3048 RMK CU1AC1CI1 CU TR AC TR SLP326

CYGK;2017-09-10 14:00;CYGK 101400Z 35005KT 15SM FEW025 FEW250 15/09 A3049 RMK CU1CI1 CU TR CI TR SLP330

CYGK;2017-09-10 15:00;CYGK 101500Z 02005KT 340V050 15SM FEW040 FEW250 16/08 A3049 RMK CU1CI1 CU TR SLP327

CYGK;2017-09-10 16:00;CYGK 101600Z 35005KT 320V080 15SM FEW030 FEW250 17/08 A3047 RMK CF1CI1 CF TR CI TR SLP322

CYGK;2017-09-10 17:00;CYGK 101700Z 02008KT 340V050 15SM FEW045 FEW250 18/07 A3046 RMK CF1CI2 CF TR SLP319

CYGK;2017-09-10 18:00;CYGK 101800Z 01003KT 15SM FEW045 FEW250 19/06 A3045 RMK CF1CI2 CF TR SLP315

CYGK;2017-09-10 19:00;CYGK 101900Z VRB07KT 15SM FEW020 FEW230 20/08 A3043 RMK CU1CI1 CU TR SLP309 DENSITY ALT 400FT

CYGK;2017-09-10 20:00;CYGK 102000Z 19008KT 15SM FEW250 18/09 A3042 RMK CI1 SLP304

CYGK;2017-09-10 21:00;CYGK 102100Z 19007KT 15SM FEW240 18/11 A3041 RMK CI1 SLP300

CYGK;2017-09-10 22:00;CYGK 102200Z 20009KT 15SM FEW220 17/11 A3040 RMK CI1 SLP299

CYGK;2017-09-10 23:00;CYGK 102300Z 22005KT 15SM FEW240 16/10 A3040 RMK CI1 SLP299

CYGK;2017-09-11 00:00;CYGK 110000Z 23007KT 15SM FEW250 15/11 A3040 RMK CI2 SLP297

CYGK;2017-09-11 01:00;CYGK 110100Z 26005KT 15SM FEW250 15/10 A3041 RMK CI1 SLP302

CYGK;2017-09-11 02:00;CYGK 110200Z 27004KT 15SM SKC 13/09 A3041 RMK SLP301

CYGK;2017-09-11 03:00;CYGK 110300Z 28004KT 15SM SKC 12/09 A3042 RMK LAST STFD OBS/NEXT 111000 UTC SLP303

CYGK;2017-09-11 10:00;CYGK 111000Z 04004KT 15SM FEW250 08/07 A3035 RMK CI2 SLP280

CYGK;2017-09-11 11:00;CYGK 111100Z 02002KT 15SM FEW250 08/08 A3036 RMK CI2 SLP284

CYGK;2017-09-11 12:00;CYGK 111200Z 04002KT 15SM SKC 10/10 A3036 RMK SLP283

CYGK;2017-09-11 13:00;CYGK 111300Z 14004KT 120V180 15SM FEW020 16/14 A3037 RMK CU1 SLP286

CYGK;2017-09-11 14:00;CYGK 111400Z 14005KT 15SM FEW020 FEW250 17/13 A3037 RMK CF1CI2 CF TR SLP286

CYGK;2017-09-11 15:00;CYGK 111500Z 19005KT 140V200 15SM FEW020 FEW250 18/15 A3035 RMK CU1CI1 CU TR SLP280

CYGK;2017-09-11 16:00;CYGK 111600Z 17004KT 130V210 15SM FEW024 FEW250 19/13 A3032 RMK CU1CI1 CU TR SLP271 DENSITY ALT 400FT

CYGK;2017-09-11 17:00;CYGK 111700Z 17006KT 15SM FEW024 FEW250 19/13 A3030 RMK CU1CI1 CU TR SLP263 DENSITY ALT 500FT

CYGK;2017-09-11 18:00;CYGK 111800Z 18008KT 15SM FEW030 SCT250 20/12 A3029 RMK CU1CI3 CU TR SLP260 DENSITY ALT 600FT

CYGK;2017-09-11 19:00;CYGK 111900Z 18010KT 15SM FEW020 FEW270 20/14 A3026 RMK CF1CI2 CF TR SLP250 DENSITY ALT 600FT

CYGK;2017-09-11 20:00;CYGK 112000Z 19010KT 15SM SCT250 20/15 A3025 RMK CI4 SLP246 DENSITY ALT 700FT

CYGK;2017-09-11 21:00;CYGK 112100Z 19010KT 15SM BKN270 20/14 A3023 RMK CI5 SLP240 DENSITY ALT 700FT

CYGK;2017-09-11 22:00;CYGK 112200Z 18008KT 15SM BKN270 19/14 A3021 RMK CI6 SLP231 DENSITY ALT 600FT

CYGK;2017-09-11 23:00;CYGK 112300Z 19008KT 15SM BKN270 18/14 A3019 RMK CI6 SLP226 DENSITY ALT 500FT

CYGK;2017-09-12 00:00;CYGK 120000Z 22006KT 15SM BKN270 17/14 A3018 RMK CI6 SLP224

CYGK;2017-09-12 01:00;CYGK 120100Z 00000KT 15SM BKN270 14/12 A3017 RMK CI6 SLP219

CYGK;2017-09-12 02:00;CYGK 120200Z 18002KT 15SM BKN270 13/13 A3016 RMK CI5 SLP216

CYGK;2017-09-12 03:00;CYGK 120300Z 21004KT 210V290 15SM SCT270 13/13 A3015 RMK CI4 LAST STFD OBS / NEXT 121000 UTC SLP212

CYGK;2017-09-12 10:00;CYGK 121000Z 34004KT 15SM FEW250 08/08 A3007 RMK CI2 SLP185

CYGK;2017-09-12 11:00;CYGK 121100Z 34003KT 15SM MIFG FEW015 FEW250 08/08 A3006 RMK SC1CI2 SC TR SLP182

CYGK;2017-09-12 12:00;CYGK 121200Z 34005KT 12SM MIFG FEW015 FEW250 10/10 A3007 RMK SC1CI2 SC TR SLP185

CYGK;2017-09-12 13:00;CYGK 121300Z 29005KT 15SM FEW012 FEW250 15/15 A3006 RMK SC1CI1 CI TR SLP183

CYGK;2017-09-12 14:00;CYGK 121400Z 25005KT 230V300 15SM FEW015 SCT250 18/15 A3006 RMK CU1CI3 SLP180 DENSITY ALT 600FT

CYGK;2017-09-12 15:00;CYGK 121500Z 25005KT 15SM FEW015 FEW250 19/16 A3004 RMK CU1CI1 SLP174 DENSITY ALT 700FT

CYGK;2017-09-12 15:34;CYGK 121534Z 20007KT 160V230 15SM FEW008 SCT250 19/17 A3003 RMK CF1CI2 SLP173 DENSITY ALT 700FT

CYGK;2017-09-12 16:00;CYGK 121600Z 19008KT 15SM FEW010 SCT250 19/17 A3003 RMK CU1CI2 SLP170 DENSITY ALT 800FT

CYGK;2017-09-12 17:00;CYGK 121700Z 17010KT 15SM FEW012 SCT250 20/17 A3001 RMK CU1CI3 CU TR SLP163 DENSITY ALT 900FT

CYGK;2017-09-12 18:00;CYGK 121800Z 18011KT 15SM FEW020 FEW250 20/17 A2999 RMK CF1CI2 CF TR SLP157 DENSITY ALT 900FT

CYGK;2017-09-12 19:00;CYGK 121900Z 18011KT 15SM FEW020 FEW250 20/17 A2996 RMK CF1CI2 CF TR SLP149 DENSITY ALT 1000FT

CYGK;2017-09-12 20:00;CYGK 122000Z 19012KT 15SM SCT250 20/16 A2995 RMK CI3 SLP144 DENSITY ALT 1000FT

CYGK;2017-09-12 21:00;CYGK 122100Z 19010KT 15SM SCT250 20/17 A2992 RMK CI3 SLP136 DENSITY ALT 1000FT

CYGK;2017-09-12 22:00;CYGK 122200Z 20009KT 15SM FEW250 20/16 A2991 RMK CI1 SLP131 DENSITY ALT 1100FT

CYGK;2017-09-12 23:00;CYGK 122300Z 21007KT 15SM FEW250 19/15 A2991 RMK CI1 SLP130 DENSITY ALT 900FT

CYGK;2017-09-13 00:00;CYGK 130000Z 22006KT 15SM FEW250 18/15 A2990 RMK CI1 SLP129 DENSITY ALT 800FT

CYGK;2017-09-13 01:00;CYGK 130100Z 23005KT 15SM SKC 17/13 A2991 RMK SLP130 DENSITY ALT 700FT

CYGK;2017-09-13 02:00;CYGK 130200Z 00000KT 15SM SKC 14/12 A2990 RMK SLP128

CYGK;2017-09-13 10:00;CYGK 131000Z 34003KT 15SM SKC 11/11 A2989 RMK SLP124

CYGK;2017-09-13 11:00;CYGK 131100Z 01002KT 15SM MIFG FEW010 FEW240 11/11 A2990 RMK SC1CI1 SC TR CI TR SLP128

CYGK;2017-09-13 12:00;CYGK 131200Z 35003KT 15SM FEW012 FEW240 14/13 A2990 RMK SC1CI1 CI TR SLP126

CYGK;2017-09-13 13:00;CYGK 131300Z 00000KT 15SM FEW010 SCT250 17/16 A2989 RMK SC2CI1 SLP124 DENSITY ALT 700FT

CYGK;2017-09-13 14:00;CYGK 131400Z 18004KT 140V200 15SM FEW008 SCT240 19/17 A2989 RMK SC2CI2 SLP125 DENSITY ALT 900FT

CYGK;2017-09-13 15:00;CYGK 131500Z 17006KT 15SM FEW008 SCT250 20/17 A2988 RMK CF1CI4 CF TR SLP120 DENSITY ALT 1000FT

CYGK;2017-09-13 16:00;CYGK 131600Z 17009KT 15SM FEW150 BKN240 20/17 A2986 RMK AC1CI5 SLP115 DENSITY ALT 1000FT

CYGK;2017-09-13 17:00;CYGK 131700Z 20007KT 15SM FEW020 FEW150 BKN250 19/16 A2986 RMK CU1AC2CI5 CU TR SLP112 DENSITY ALT 1000FT

CYGK;2017-09-13 18:00;CYGK 131800Z 17005KT 15SM FEW140 BKN210 20/15 A2983 RMK AC2CI4 SLP103 DENSITY ALT 1100FT

CYGK;2017-09-13 19:00;CYGK 131900Z 18005KT 160V230 15SM FEW140 SCT170 BKN270 22/16 A2981 RMK ACC2AC2CI2 SLP096 DENSITY ALT 1300FT

CYGK;2017-09-13 20:00;CYGK 132000Z 19005KT 15SM BKN140 BKN250 21/15 A2980 RMK AC5CI2 SLP093 DENSITY ALT 1300FT

CYGK;2017-09-13 21:00;CYGK 132100Z 21003KT 170V230 15SM SCT100 BKN130 22/15 A2979 RMK AC4AC2 ACC ASOCTD SLP091 DENSITY ALT 1300FT

CYGK;2017-09-13 22:00;CYGK 132200Z VRB02KT 15SM VCSH BKN130 21/15 A2979 RMK AC6 SLP089 DENSITY ALT 1300FT

CYGK;2017-09-13 23:00;CYGK 132300Z 21003KT 15SM SCT080 BKN120 20/16 A2980 RMK AC4AC3 SLP092 DENSITY ALT 1200FT

CYGK;2017-09-14 00:00;CYGK 140000Z 00000KT 15SM SCT090 BKN140 17/16 A2980 RMK AC4AC1 SLP092 DENSITY ALT 800FT

CYGK;2017-09-14 01:00;CYGK 140100Z 34003KT 15SM SCT083 17/15 A2979 RMK AC4 SLP089 DENSITY ALT 800FT

CYGK;2017-09-14 02:00;CYGK 140200Z 33005KT 15SM FEW080 16/15 A2979 RMK AC2 SLP088 DENSITY ALT 700FT

CYGK;2017-09-14 03:00;CYGK 140300Z 00000KT 15SM FEW075 16/15 A2979 RMK AC2 LAST STFD OBS / NEXT 141000 UTC SLP090 DENSITY ALT 600FT

CYGK;2017-09-14 10:00;CYGK 141000Z 34005KT 15SM FEW080 BKN120 BKN250 14/13 A2981 RMK AC2AC3CI1 SLP097 DENSITY ALT 400FT

CYGK;2017-09-14 11:00;CYGK 141100Z 00000KT 15SM BCFG FEW020 SCT090 BKN220 14/13 A2982 RMK CU1AC2CI2 SLP101 DENSITY ALT 400FT

CYGK;2017-09-14 12:00;CYGK 141200Z 34005KT 15SM FEW020 SCT090 BKN220 15/15 A2983 RMK CU1AC2CI2 SLP104 DENSITY ALT 500FT

CYGK;2017-09-14 13:00;CYGK 141300Z 00000KT 15SM FEW100 SCT210 18/16 A2984 RMK AC1CI2 SLP106 DENSITY ALT 900FT

CYGK;2017-09-14 14:00;CYGK 141400Z 18003KT 130V200 15SM FEW020 SCT080 BKN220 20/17 A2985 RMK CU1AC2CI2 SLP111 DENSITY ALT 1100FT

CYGK;2017-09-14 15:00;CYGK 141500Z 19004KT 15SM FEW020 FEW080 SCT240 22/16 A2985 RMK CU1AC1CI2 CU TR SLP111 DENSITY ALT 1300FT

CYGK;2017-09-14 16:00;CYGK 141600Z 16005KT 140V200 15SM FEW020 FEW100 SCT220 23/16 A2985 RMK CU1AC1CI2 SLP109 DENSITY ALT 1400FT

CYGK;2017-09-14 17:00;CYGK 141700Z 18008KT 15SM FEW025 FEW100 SCT240 22/16 A2985 RMK SC1AC1CI2 SC TR SLP108 DENSITY ALT 1400FT

CYGK;2017-09-14 18:00;CYGK 141800Z 19009KT 15SM FEW020 FEW100 SCT220 22/20 A2985 RMK CU1AC1CI1 SLP110 DENSITY ALT 1300FT

CYGK;2017-09-14 19:00;CYGK 141900Z 19008KT 15SM FEW040 FEW110 SCT250 22/19 A2984 RMK CU1AC1CI1 SLP108 DENSITY ALT 1400FT

CYGK;2017-09-14 20:00;CYGK 142000Z 17008KT 15SM FEW040 FEW110 FEW240 22/20 A2985 RMK SC1AC1CI1 AC TR SLP109 DENSITY ALT 1400FT

CYGK;2017-09-14 21:00;CYGK 142100Z 18008KT 15SM FEW040 SCT250 22/19 A2984 RMK CU1CI2 SLP108 DENSITY ALT 1300FT

CYGK;2017-09-14 22:00;CYGK 142200Z 19005KT 15SM FEW050 SCT250 22/17 A2986 RMK CU1CI2 SLP112 DENSITY ALT 1300FT

CYGK;2017-09-14 23:00;CYGK 142300Z 19005KT 15SM FEW050 SCT250 21/16 A2987 RMK CU1CI2 SLP117 DENSITY ALT 1200FT

CYGK;2017-09-15 00:00;CYGK 150000Z 18004KT 15SM FEW050 FEW250 20/18 A2989 RMK CU1CI2 CU TR SLP125 DENSITY ALT 1000FT

CYGK;2017-09-15 01:00;CYGK 150100Z 07002KT 15SM FEW050 FEW250 18/18 A2991 RMK CU1CI2 CU TR SLP130 DENSITY ALT 800FT

CYGK;2017-09-15 02:00;CYGK 150200Z 00000KT 15SM MIFG FEW250 18/18 A2992 RMK CI2 SLP133 DENSITY ALT 800FT

CYGK;2017-09-15 03:00;CYGK 150300Z 28003KT 15SM MIFG FEW250 17/17 A2993 RMK CI2 LAST STFD OBS/NEXT 151000 UTC SLP137 DENSITY ALT 600FT

CYGK;2017-09-15 10:00;CYGK 151000Z 30003KT 230V320 6SM BR SCT005 SCT200 14/14 A3000 RMK SF3CI1 SLP160

CYGK;2017-09-15 10:13;CYGK 151013Z 31002KT 3SM BR BKN005 BKN220 14/14 A3001 RMK SF6CI1 SLP162

CYGK;2017-09-15 10:36;CYGK 151036Z 35002KT 1SM BR OVC005 14/14 A3001 RMK SF8 SLP164

CYGK;2017-09-15 10:42;CYGK 151042Z 35005KT 1/2SM FG BKN004 14/14 A3001 RMK SF7 SLP165

CYGK;2017-09-15 10:48;CYGK 151048Z 34004KT 3/4SM BR BKN005 14/14 A3002 RMK SF6 VIS VRB 1/2-1 SLP166

CYGK;2017-09-15 11:00;CYGK 151100Z 35005KT 1/2SM FG BKN004 14/14 A3002 RMK FG4SF2 VIS VRB 1/4-3/4 SLP169

CYGK;2017-09-15 11:11;CYGK 151111Z 35005KT 1/8SM FG VV002 14/14 A3003 RMK FG8 SLP171

CYGK;2017-09-15 11:47;CYGK 151147Z 00000KT 1/4SM FG VV003 15/15 A3004 RMK FG8 SLP173

CYGK;2017-09-15 12:00;CYGK 151200Z 36003KT 1/2SM FG OVC003 16/16 A3004 RMK FG3SF5 SLP175 DENSITY ALT 400FT

CYGK;2017-09-15 12:06;CYGK 151206Z 01002KT 1SM BR OVC003 16/16 A3004 RMK SF8 SLP173 DENSITY ALT 400FT

CYGK;2017-09-15 12:23;CYGK 151223Z 36003KT 2SM BR OVC004 17/17 A3005 RMK SF8 SLP177 DENSITY ALT 500FT

CYGK;2017-09-15 13:00;CYGK 151300Z 34002KT 1 3/4SM BR OVC002 18/18 A3006 RMK SF8 SLP181 DENSITY ALT 600FT

CYGK;2017-09-15 13:22;CYGK 151322Z 00000KT 2 1/2SM BR OVC002 19/19 A3006 RMK SF8 SLP182 DENSITY ALT 700FT

CYGK;2017-09-15 13:45;CYGK 151345Z VRB02KT 2 1/2SM BR OVC003 19/19 A3007 RMK SF8 SLP185 DENSITY ALT 700FT

CYGK;2017-09-15 14:00;CYGK 151400Z VRB03KT 3SM BR OVC002 19/19 A3008 RMK SF8 SLP187 DENSITY ALT 700FT

CYGK;2017-09-15 14:40;CYGK 151440Z VRB02KT 4SM BR OVC003 20/19 A3009 RMK SF8 SLP190 DENSITY ALT 800FT

CYGK;2017-09-15 15:00;CYGK 151500Z VRB03KT 4SM BR OVC003 20/19 A3009 RMK SF8 SLP190 DENSITY ALT 800FT

CYGK;2017-09-15 15:26;CYGK 151526Z 15004KT 110V170 5SM BR BKN003 20/19 A3008 RMK SC7 SLP188 DENSITY ALT 900FT

CYGK;2017-09-15 15:40;CYGK 151540Z 17005KT 120V200 5SM BR BKN005 21/19 A3009 RMK SF6 SLP190 DENSITY ALT 900FT

CYGK;2017-09-15 16:00;CYGK 151600Z 16005KT 6SM BR BKN005 21/19 A3008 RMK SF6 SLP189 DENSITY ALT 900FT

CYGK;2017-09-15 17:00;CYGK 151700Z 18008KT 5SM BR OVC003 21/20 A3008 RMK SF8 SLP189 DENSITY ALT 900FT

CYGK;2017-09-15 18:00;CYGK 151800Z 16008KT 5SM BR OVC003 20/20 A3008 RMK SF8 SLP188 DENSITY ALT 900FT

CYGK;2017-09-15 19:00;CYGK 151900Z 17008KT 6SM BR OVC003 20/20 A3008 RMK SF8 SLP189 DENSITY ALT 900FT

CYGK;2017-09-15 19:29;CYGK 151929Z 16007KT 6SM BR BKN003 21/20 A3008 RMK ST6 SLP187 DENSITY ALT 900FT

CYGK;2017-09-15 19:35;CYGK 151935Z 17007KT 6SM BR BKN003 BKN025TCU 21/20 A3007 RMK SF5TCU1 SLP186 DENSITY ALT 900FT

CYGK;2017-09-15 20:00;CYGK 152000Z 17007KT 8SM BKN004 BKN025TCU 21/20 A3007 RMK SF5TCU1 SLP186 DENSITY ALT 1000FT

CYGK;2017-09-15 20:32;CYGK 152032Z 16007KT 8SM SCT004 SCT025TCU BKN250 21/20 A3007 RMK SF3TCU1CI2 SLP186 DENSITY ALT 1000FT

CYGK;2017-09-15 21:00;CYGK 152100Z 16007KT 8SM FEW005 SCT025TCU SCT250 21/20 A3007 RMK SF1TCU2CI1 SLP186 DENSITY ALT 900FT

CYGK;2017-09-15 22:00;CYGK 152200Z 18006KT 10SM FEW004 SCT020 SCT250 21/20 A3008 RMK SF2CU1CI1 SLP189 DENSITY ALT 900FT

CYGK;2017-09-15 23:00;CYGK 152300Z 18003KT 10SM FEW005 SCT250 20/19 A3009 RMK SF1CI4 SF TR SLP191 DENSITY ALT 800FT

CYGK;2017-09-15 23:29;CYGK 152329Z 14002KT 10SM MIFG BKN250 19/19 A3009 RMK CI5 SLP193 DENSITY ALT 700FT

CYGK;2017-09-16 00:00;CYGK 160000Z 14002KT 10SM MIFG OVC250 18/18 A3010 RMK CI8 SLP194 DENSITY ALT 600FT

CYGK;2017-09-16 01:00;CYGK 160100Z 00000KT 10SM MIFG OVC250 18/18 A3010 RMK CI8 SLP195 DENSITY ALT 600FT

CYGK;2017-09-16 02:00;CYGK 160200Z 00000KT 8SM MIFG OVC250 17/17 A3011 RMK CI8 SLP199 DENSITY ALT 400FT

CYGK;2017-09-16 03:00;CYGK 160300Z 14003KT 12SM MIFG SCT250 17/17 A3012 RMK CI3 LAST STFD OBS/NEXT 161000 UTC SLP200 DENSITY ALT 400FT

CYGK;2017-09-16 10:00;CYGK 161000Z 34005KT 15SM FEW001 13/13 A3016 RMK SF1 SLP215

CYGK;2017-09-16 11:00;CYGK 161100Z 34005KT 12SM PRFG FEW220 14/14 A3017 RMK CI2 SLP220

CYGK;2017-09-16 12:00;CYGK 161200Z 13002KT 12SM FEW250 15/15 A3018 RMK CI2 SLP223

CYGK;2017-09-16 13:00;CYGK 161300Z 00000KT 12SM FEW002 FEW250 19/19 A3019 RMK SF1CI1 SF TR CI TR SLP226 DENSITY ALT 500FT

CYGK;2017-09-16 14:00;CYGK 161400Z 16003KT 12SM FEW002 FEW250 21/18 A3020 RMK SF1CI1 SF TR CI TR SLP227 DENSITY ALT 800FT

CYGK;2017-09-16 15:00;CYGK 161500Z 15004KT 12SM FEW008 21/19 A3020 RMK CF1 CF TR SLP229 DENSITY ALT 800FT

CYGK;2017-09-16 16:00;CYGK 161600Z 16006KT 8SM VCFG FEW020 21/20 A3020 RMK CU1 FG BNK S- W OVR LK VIS S 1 1/2 SLP228 DENSITY ALT 800FT

CYGK;2017-09-16 17:00;CYGK 161700Z 17006KT 8SM FEW030 FEW250 22/20 A3020 RMK CU1CI1 CI TR VIS SE-SW 4 SLP227 DENSITY ALT 900FT

CYGK;2017-09-16 18:00;CYGK 161800Z 17007KT 10SM FEW030 FEW250 22/20 A3018 RMK CU1CI1 SLP222 DENSITY ALT 1000FT

CYGK;2017-09-16 19:00;CYGK 161900Z 16007KT 12SM FEW030TCU SCT250 23/20 A3017 RMK TCU1CI2 SLP218 DENSITY ALT 1000FT

CYGK;2017-09-16 20:00;CYGK 162000Z 19009KT 15SM FEW040 FEW250 23/20 A3017 RMK CU1CI1 SLP217 DENSITY ALT 1000FT

CYGK;2017-09-16 21:00;CYGK 162100Z 19008KT 15SM FEW040 FEW250 23/19 A3016 RMK CU1CI1 CU TR SLP215 DENSITY ALT 1100FT

CYGK;2017-09-16 22:00;CYGK 162200Z 20007KT 15SM FEW250 23/17 A3015 RMK CI1 SLP212 DENSITY ALT 1000FT

CYGK;2017-09-16 23:00;CYGK 162300Z 20005KT 15SM FEW250 21/18 A3014 RMK CI2 SLP209 DENSITY ALT 900FT

CYGK;2017-09-17 00:00;CYGK 170000Z 24004KT 230V300 15SM FEW250 21/17 A3015 RMK CI2 SLP211 DENSITY ALT 800FT

CYGK;2017-09-17 01:00;CYGK 170100Z 27003KT 15SM SKC 18/17 A3015 RMK SLP213 DENSITY ALT 500FT

CYGK;2017-09-17 02:00;CYGK 170200Z 00000KT 15SM SKC 18/17 A3015 RMK SLP211 DENSITY ALT 500FT

CYGK;2017-09-17 03:00;CYGK 170300Z 34003KT 15SM SKC 18/17 A3015 RMK LAST STFD OBS/NEXT 171000 UTC SLP212 DENSITY ALT 500FT

CYGK;2017-09-17 10:00;CYGK 171000Z 34002KT 15SM MIFG SCT270 13/13 A3016 RMK CI4 SLP215

CYGK;2017-09-17 11:00;CYGK 171100Z 13002KT 10SM MIFG FEW010 BKN270 13/13 A3016 RMK CF1CI6 CF OVR LAKE SLP216

CYGK;2017-09-17 11:21;CYGK 171121Z 01002KT 3/4SM BR OVC004 13/13 A3017 RMK FG2ST6 VIS N 3 SLP219

CYGK;2017-09-17 11:34;CYGK 171134Z 35005KT 340V040 1/8SM FG VV002 14/14 A3018 RMK FG8 SLP221

CYGK;2017-09-17 12:00;CYGK 171200Z VRB02KT 1/8SM FG VV001 15/15 A3017 RMK FG8 SLP219

CYGK;2017-09-17 13:00;CYGK 171300Z 35003KT 340V040 1/4SM FG VV004 18/18 A3017 RMK FG8 SUN DIMLY VISBL SLP219 DENSITY ALT 500FT

CYGK;2017-09-17 13:23;CYGK 171323Z 00000KT 3/8SM FG 18/18 A3017 RMK FG6 SLP220 DENSITY ALT 500FT

CYGK;2017-09-17 13:33;CYGK 171333Z 11002KT 3SM BR SCT004 19/18 A3017 RMK CF4 VIS S - SW 1 BR SLP219 DENSITY ALT 500FT

CYGK;2017-09-17 14:00;CYGK 171400Z VRB02KT 5SM BR FEW005 20/19 A3017 RMK CF2 VIS S - SW 1 BR SLP219 DENSITY ALT 700FT

CYGK;2017-09-17 14:23;CYGK 171423Z 17004KT 1SM BR VCFG SCT002 20/19 A3017 RMK FG2SF2 FG BNK E-NW VIS NW-NE 10 SW-W 3/4 SLP218 DENSITY ALT 700FT

CYGK;2017-09-17 14:46;CYGK 171446Z 17004KT 160V220 3/4SM BR BKN002 20/19 A3016 RMK FG3SF4 SLP216 DENSITY ALT 800FT

CYGK;2017-09-17 15:00;CYGK 171500Z 17003KT 1SM BR BKN002 20/19 A3016 RMK FG2SF3 VIS NW-NE 10 SLP215 DENSITY ALT 800FT

CYGK;2017-09-17 15:08;CYGK 171508Z 16004KT 7SM FEW002 21/19 A3016 RMK SF2 VIS SE - SW 1/2 BR SLP215 DENSITY ALT 800FT

CYGK;2017-09-17 15:22;CYGK 171522Z 17005KT 1SM BR SCT002 21/20 A3016 RMK SF3 VIS NW - NE 6 SLP216 DENSITY ALT 900FT

CYGK;2017-09-17 15:30;CYGK 171530Z 16004KT 6SM BR FEW020 21/19 A3016 RMK CF1 VIS SE - SW 3/4 BR SLP216 DENSITY ALT 900FT

CYGK;2017-09-17 16:00;CYGK 171600Z 18005KT 10SM FEW020 22/19 A3016 RMK CU1 VIS S 6 BR SLP214 DENSITY ALT 900FT

CYGK;2017-09-17 17:00;CYGK 171700Z 17008KT 12SM FEW020 22/19 A3014 RMK CF1 CF TR SLP208 DENSITY ALT 1000FT

CYGK;2017-09-17 18:00;CYGK 171800Z 19006KT 15SM FEW020 23/18 A3013 RMK CU1 SLP206 DENSITY ALT 1100FT

CYGK;2017-09-17 19:00;CYGK 171900Z 15005KT 15SM FEW020 23/18 A3012 RMK CU2 SLP201 DENSITY ALT 1100FT

CYGK;2017-09-17 20:00;CYGK 172000Z 18006KT 15SM FEW020 23/18 A3010 RMK CU1 SLP196 DENSITY ALT 1200FT

CYGK;2017-09-17 21:00;CYGK 172100Z 19006KT 15SM FEW020 23/17 A3009 RMK CU1 SLP193 DENSITY ALT 1200FT

CYGK;2017-09-17 22:00;CYGK 172200Z 18004KT 15SM FEW250 22/18 A3009 RMK CI1 SLP190 DENSITY ALT 1100FT

CYGK;2017-09-17 23:00;CYGK 172300Z 20002KT 15SM SCT250 21/19 A3008 RMK CI3 SLP187 DENSITY ALT 900FT

CYGK;2017-09-18 00:00;CYGK 180000Z 00000KT 15SM BCFG FEW250 18/18 A3008 RMK CI2 SLP189 DENSITY ALT 600FT

CYGK;2017-09-18 01:00;CYGK 180100Z 08002KT 15SM SKC 18/17 A3009 RMK SLP191 DENSITY ALT 500FT

CYGK;2017-09-18 02:00;CYGK 180200Z 35002KT 15SM PRFG SKC 17/17 A3010 RMK SLP194 DENSITY ALT 400FT

CYGK;2017-09-18 03:00;CYGK 180300Z 34004KT 15SM PRFG SKC 16/16 A3010 RMK LAST STFD OBS/NEXT 181000 UTC SLP195

CYGK;2017-09-18 10:00;CYGK 181000Z 36004KT 350V060 15SM SCT270 13/13 A3008 RMK CI3 SLP187

CYGK;2017-09-18 11:00;CYGK 181100Z 03003KT 10SM MIFG BKN270 14/14 A3009 RMK CI5 SLP192

CYGK;2017-09-18 12:00;CYGK 181200Z 05002KT 10SM BKN270 16/16 A3009 RMK CI7 SLP193

CYGK;2017-09-18 13:00;CYGK 181300Z 09002KT 15SM FEW120 BKN270 20/19 A3010 RMK ACC1CI6 SLP196 DENSITY ALT 800FT

CYGK;2017-09-18 14:00;CYGK 181400Z 14004KT 10SM FEW120 BKN270 21/20 A3009 RMK ACC1CI6 SLP192 DENSITY ALT 1000FT

CYGK;2017-09-18 15:00;CYGK 181500Z 15003KT 130V190 12SM FEW160 BKN250 22/19 A3010 RMK AC2CI3 SLP195 DENSITY ALT 1000FT

CYGK;2017-09-18 16:00;CYGK 181600Z 14004KT 11SM FEW030 BKN270 23/20 A3010 RMK CU1CI6 CU TR HZ SLP195 DENSITY ALT 1100FT

CYGK;2017-09-18 17:00;CYGK 181700Z 16006KT 15SM FEW030 SCT250 23/19 A3009 RMK CU1CI4 CU TR SLP192 DENSITY ALT 1200FT

CYGK;2017-09-18 18:00;CYGK 181800Z 19005KT 15SM FEW030TCU FEW150 BKN250 23/19 A3008 RMK TCU1AC1CI5 AC TR SLP187 DENSITY ALT 1200FT

CYGK;2017-09-18 19:00;CYGK 181900Z 15005KT 140V200 15SM FEW030TCU FEW150 BKN250 24/19 A3006 RMK TCU1AC1CI5 SLP183 DENSITY ALT 1200FT

CYGK;2017-09-18 20:00;CYGK 182000Z 15004KT 15SM FEW030TCU FEW180 BKN250 24/19 A3006 RMK TCU1AC2CI4 TCU TR SLP180 DENSITY ALT 1300FT

CYGK;2017-09-18 21:00;CYGK 182100Z 19002KT 15SM FEW030TCU FEW150 BKN250 25/19 A3004 RMK TCU1AC1CI5 SLP175 DENSITY ALT 1400FT

CYGK;2017-09-18 22:00;CYGK 182200Z 30002KT 15SM FEW030 FEW100 BKN240 25/19 A3004 RMK CU1AC2CI5 CU TR SLP173 DENSITY ALT 1400FT

CYGK;2017-09-18 23:00;CYGK 182300Z 34002KT 15SM FEW100 BKN240 22/20 A3004 RMK AC2CI5 SLP173 DENSITY ALT 1100FT

CYGK;2017-09-19 00:00;CYGK 190000Z 11003KT 15SM FEW100 BKN240 20/19 A3004 RMK AC2CI4 SLP173 DENSITY ALT 900FT

CYGK;2017-09-19 01:00;CYGK 190100Z VRB02KT 15SM FEW240 20/19 A3004 RMK CI1 SLP174 DENSITY ALT 800FT

CYGK;2017-09-19 02:00;CYGK 190200Z 07003KT 15SM SKC 19/19 A3005 RMK SLP176 DENSITY ALT 800FT

CYGK;2017-09-19 03:00;CYGK 190300Z 02002KT 15SM SKC 18/18 A3004 RMK LAST STFD OBS/NEXT 191000 UTC SLP175 DENSITY ALT 700FT

CYGK;2017-09-19 10:00;CYGK 191000Z 18011KT 15SM SKC 20/19 A3004 RMK SLP175 DENSITY ALT 900FT

CYGK;2017-09-19 12:00;CYGK 191200Z 17012KT 15SM FEW120 SCT250 20/19 A3006 RMK AC1CI3 SLP180 DENSITY ALT 900FT

CYGK;2017-09-19 13:00;CYGK 191300Z 17008KT 15SM FEW010 SCT120 SCT240 21/19 A3007 RMK CF1AC2CI1 CI TR SLP184 DENSITY ALT 900FT

CYGK;2017-09-19 14:00;CYGK 191400Z 18011KT 15SM FEW010 FEW120 21/19 A3008 RMK CU1AC1 AC TR SLP186 DENSITY ALT 1000FT

CYGK;2017-09-19 15:00;CYGK 191500Z 16009KT 15SM FEW012 FEW120 FEW250 22/19 A3007 RMK CF1AC1CI2 CF TR AC TR SLP185 DENSITY ALT 1000FT

CYGK;2017-09-19 16:00;CYGK 191600Z 16006KT 15SM FEW020 SCT250 22/19 A3007 RMK CF1CI3 CF TR SLP183 DENSITY ALT 1100FT

CYGK;2017-09-19 17:00;CYGK 191700Z 18007KT 15SM FEW020TCU BKN240 22/19 A3006 RMK TCU1CI6 TCU TR SLP179 DENSITY ALT 1100FT

CYGK;2017-09-19 18:00;CYGK 191800Z 18006KT 15SM FEW025 BKN250 22/18 A3004 RMK CU1CI5 CU TR SLP173 DENSITY ALT 1100FT

CYGK;2017-09-19 19:00;CYGK 191900Z 18004KT 160V230 15SM FEW020 SCT270 24/19 A3001 RMK CU1CI3 SLP164 DENSITY ALT 1300FT

CYGK;2017-09-19 20:00;CYGK 192000Z 17004KT 15SM FEW025TCU BKN240 24/17 A3000 RMK TCU1CI5 SLP162 DENSITY ALT 1300FT

CYGK;2017-09-19 21:00;CYGK 192100Z 23002KT 15SM FEW030TCU BKN240 24/17 A2999 RMK TCU1CI5 SLP157 DENSITY ALT 1400FT

CYGK;2017-09-19 22:00;CYGK 192200Z 28002KT 15SM BKN270 24/17 A2999 RMK CI5 TCU TOPS DIST N SLP157 DENSITY ALT 1400FT

CYGK;2017-09-19 23:00;CYGK 192300Z 31002KT 15SM SCT180 BKN270 22/19 A2999 RMK AC3CI4 SLP158 DENSITY ALT 1200FT

CYGK;2017-09-20 00:00;CYGK 200000Z 33004KT 15SM SCT180 BKN270 20/18 A3000 RMK AC4CI3 SLP159 DENSITY ALT 1000FT

CYGK;2017-09-20 01:00;CYGK 200100Z 34006KT 15SM FEW180 BKN270 19/18 A3000 RMK AC2CI3 SLP162 DENSITY ALT 800FT

CYGK;2017-09-20 02:00;CYGK 200200Z 02007KT 15SM FEW180 BKN250 21/20 A3000 RMK AC2CI5 SLP162 DENSITY ALT 1000FT

CYGK;2017-09-20 03:00;CYGK 200300Z 02008KT 15SM FEW180 SCT270 21/20 A3001 RMK AC2CI2 LAST STFD OBS / NEXT 201000 UTC SLP163 DENSITY ALT 1000FT

CYGK;2017-09-20 10:00;CYGK 201000Z 03005KT 4SM BR OVC004 19/19 A3001 RMK SC8 SLP165 DENSITY ALT 800FT

CYGK;2017-09-20 10:45;CYGK 201045Z 04006KT 4SM BR OVC003 19/19 A3002 RMK SC8 SLP166 DENSITY ALT 800FT

CYGK;2017-09-20 11:00;CYGK 201100Z 02005KT 4SM BR OVC003 19/18 A3002 RMK SC8 SLP166 DENSITY ALT 700FT

CYGK;2017-09-20 12:00;CYGK 201200Z 03005KT 4SM BR BKN004 19/19 A3002 RMK SC7 SLP167 DENSITY ALT 700FT

CYGK;2017-09-20 12:32;CYGK 201232Z 02005KT 5SM BR BKN005 19/19 A3003 RMK SC7 SLP170 DENSITY ALT 800FT

CYGK;2017-09-20 12:54;CYGK 201254Z 01004KT 6SM BR SCT006 20/19 A3003 RMK SF4 SLP172 DENSITY ALT 900FT

CYGK;2017-09-20 13:00;CYGK 201300Z 04004KT 350V070 6SM BR SCT006 SCT150 20/19 A3004 RMK SF4AC1 AC TR SLP173 DENSITY ALT 900FT

CYGK;2017-09-20 14:00;CYGK 201400Z 04007KT 15SM FEW020 22/18 A3005 RMK CU1 SLP176 DENSITY ALT 1100FT

CYGK;2017-09-20 15:00;CYGK 201500Z 04006KT 350V070 15SM SKC 24/19 A3004 RMK SLP173 DENSITY ALT 1400FT

CYGK;2017-09-20 16:00;CYGK 201600Z 05012G17KT 15SM FEW030 25/17 A3003 RMK CU1 CU TR SLP172 DENSITY ALT 1400FT

CYGK;2017-09-20 17:00;CYGK 201700Z 03010KT 360V070 15SM FEW030 26/18 A3004 RMK CU2 SLP172 DENSITY ALT 1500FT

CYGK;2017-09-20 18:00;CYGK 201800Z 04008G15KT 010V070 15SM FEW035 26/18 A3002 RMK CU2 SLP167 DENSITY ALT 1600FT

CYGK;2017-09-20 19:00;CYGK 201900Z 04010KT 340V060 15SM SCT035 26/18 A3000 RMK CU3 SLP162 DENSITY ALT 1600FT

CYGK;2017-09-20 20:00;CYGK 202000Z 03008G18KT 360V070 15SM FEW038 27/19 A2999 RMK CU2 SLP157 DENSITY ALT 1700FT

CYGK;2017-09-20 21:00;CYGK 202100Z 04007KT 010V080 15SM FEW040 26/19 A2999 RMK CU1 CU TR SLP155 DENSITY ALT 1600FT

CYGK;2017-09-20 22:00;CYGK 202200Z 04008KT 010V070 15SM FEW040 FEW250 25/18 A3000 RMK SC1CI2 SC TR SLP159 DENSITY ALT 1500FT

CYGK;2017-09-20 23:00;CYGK 202300Z 03004KT 15SM FEW040 SCT250 24/18 A3000 RMK SC1CI4 SC TR SLP161 DENSITY ALT 1400FT

CYGK;2017-09-20 23:26;CYGK 202326Z 35005KT 15SM FEW005 FEW250 22/17 A3001 RMK SF1CI2 SF TR SLP164 DENSITY ALT 1200FT

CYGK;2017-09-21 00:00;CYGK 210000Z 35004KT 15SM FEW250 22/18 A3002 RMK CI1 SLP166 DENSITY ALT 1100FT

CYGK;2017-09-21 01:00;CYGK 210100Z 35005KT 15SM SKC 21/18 A3003 RMK SLP172 DENSITY ALT 900FT

CYGK;2017-09-21 02:00;CYGK 210200Z 01003KT 15SM SKC 20/18 A3004 RMK SLP173 DENSITY ALT 900FT

CYGK;2017-09-21 03:00;CYGK 210300Z 05005KT 15SM SKC 20/18 A3003 RMK LAST STFD OBS/NEXT 211000 UTC SLP172 DENSITY ALT 900FT

CYGK;2017-09-21 10:00;CYGK 211000Z 36005KT 15SM FEW240 16/16 A3010 RMK CI1 SLP194

CYGK;2017-09-21 11:00;CYGK 211100Z 01005KT 12SM MIFG FEW240 16/16 A3011 RMK CI2 SLP198

CYGK;2017-09-21 12:00;CYGK 211200Z 06007KT 12SM SCT240 18/18 A3011 RMK CI4 SLP197 DENSITY ALT 600FT

CYGK;2017-09-21 13:00;CYGK 211300Z 07007KT 12SM SCT240 20/18 A3012 RMK CI3 SLP200 DENSITY ALT 800FT

CYGK;2017-09-21 14:00;CYGK 211400Z 05005KT 010V080 12SM SCT250 22/18 A3012 RMK CI4 SLP200 DENSITY ALT 1000FT

CYGK;2017-09-21 15:00;CYGK 211500Z 04005KT 12SM SCT250 24/18 A3013 RMK CI4 SLP204 DENSITY ALT 1200FT

CYGK;2017-09-21 16:00;CYGK 211600Z 05008KT 010V070 15SM FEW025 SCT250 25/18 A3012 RMK CF1CI4 CF TR SLP200 DENSITY ALT 1400FT

CYGK;2017-09-21 17:00;CYGK 211700Z 05009KT 030V120 15SM FEW030 BKN250 26/17 A3011 RMK CU1CI4 SLP199 DENSITY ALT 1500FT

CYGK;2017-09-21 18:00;CYGK 211800Z 03007KT 010V080 15SM FEW020 FEW270 26/16 A3009 RMK CF1CI2 CF TR SLP191 DENSITY ALT 1500FT

CYGK;2017-09-21 19:00;CYGK 211900Z 06004KT 340V100 15SM FEW020 FEW270 27/17 A3009 RMK CF1CI2 CF TR SLP190 DENSITY ALT 1600FT

CYGK;2017-09-21 20:00;CYGK 212000Z 03008KT 330V050 15SM FEW030 FEW250 27/16 A3009 RMK CF1CI2 CF TR SLP192 DENSITY ALT 1600FT

CYGK;2017-09-21 21:00;CYGK 212100Z 01004KT 15SM FEW250 27/17 A3009 RMK CI2 SLP192 DENSITY ALT 1600FT

CYGK;2017-09-21 22:00;CYGK 212200Z 05006KT 15SM BKN250 25/16 A3009 RMK CI5 SLP191 DENSITY ALT 1400FT

CYGK;2017-09-21 23:00;CYGK 212300Z 02005KT 15SM BKN250 23/15 A3011 RMK CI5 SLP196 DENSITY ALT 1200FT

CYGK;2017-09-22 00:00;CYGK 220000Z 04005KT 15SM BKN250 22/15 A3012 RMK CI6 SLP199 DENSITY ALT 1000FT

CYGK;2017-09-22 01:00;CYGK 220100Z 05003KT 15SM SCT250 21/15 A3013 RMK CI3 SLP203 DENSITY ALT 900FT

CYGK;2017-09-22 02:00;CYGK 220200Z 06005KT 15SM SKC 19/15 A3012 RMK SLP202 DENSITY ALT 600FT

CYGK;2017-09-22 03:00;CYGK 220300Z 06007KT 15SM FEW250 19/14 A3012 RMK CI2 LAST STFD OBS/NEXT 221000 UTC SLP201 DENSITY ALT 600FT

CYGK;2017-09-22 10:00;CYGK 221000Z 04006KT 15SM FEW160 BKN230 15/12 A3013 RMK AC2CI3 SLP204

CYGK;2017-09-22 11:00;CYGK 221100Z 35007KT 15SM SCT250 12/11 A3015 RMK CI3 SLP212

CYGK;2017-09-22 12:00;CYGK 221200Z 36007KT 15SM SCT250 15/13 A3015 RMK CI3 SLP213

CYGK;2017-09-22 13:00;CYGK 221300Z 03007KT 15SM SCT250 19/13 A3015 RMK CI3 SLP212 DENSITY ALT 600FT

CYGK;2017-09-22 14:00;CYGK 221400Z 02006KT 15SM FEW250 21/14 A3015 RMK CI2 SLP212 DENSITY ALT 900FT

CYGK;2017-09-22 15:00;CYGK 221500Z 04010KT 020V090 15SM FEW120 SCT250 24/13 A3015 RMK AC1CI3 AC TR SLP211 DENSITY ALT 1100FT

CYGK;2017-09-22 16:00;CYGK 221600Z 05010KT 15SM FEW120 SCT250 24/12 A3014 RMK AC1CI3 SLP209 DENSITY ALT 1200FT

CYGK;2017-09-22 17:00;CYGK 221700Z 04005KT 360V070 15SM FEW120 BKN250 25/14 A3014 RMK AC1CI5 AC TR SLP206 DENSITY ALT 1400FT

CYGK;2017-09-22 18:00;CYGK 221800Z 02004KT 340V070 15SM FEW250 26/13 A3012 RMK CI2 SLP200 DENSITY ALT 1500FT

CYGK;2017-09-22 19:00;CYGK 221900Z 35005KT 320V050 15SM SCT250 27/13 A3010 RMK CI3 SLP193 DENSITY ALT 1600FT

CYGK;2017-09-22 20:00;CYGK 222000Z 01005KT 360V070 15SM SCT250 27/14 A3007 RMK CI3 SLP185 DENSITY ALT 1700FT

CYGK;2017-09-22 21:00;CYGK 222100Z 03004KT 360V070 15SM FEW250 27/14 A3007 RMK CI1 SLP183 DENSITY ALT 1600FT

CYGK;2017-09-22 22:00;CYGK 222200Z 05003KT 030V100 15SM FEW250 26/15 A3006 RMK CI1 SLP181 DENSITY ALT 1500FT

CYGK;2017-09-22 23:00;CYGK 222300Z 02003KT 15SM FEW250 23/14 A3007 RMK CI1 SLP186 DENSITY ALT 1200FT

CYGK;2017-09-23 00:00;CYGK 230000Z 34002KT 15SM FEW250 21/14 A3008 RMK CI1 SLP187 DENSITY ALT 900FT

CYGK;2017-09-23 01:00;CYGK 230100Z 00000KT 15SM SKC 19/14 A3007 RMK SLP184 DENSITY ALT 700FT

CYGK;2017-09-23 02:00;CYGK 230200Z 33002KT 15SM SKC 17/16 A3007 RMK SLP185 DENSITY ALT 500FT

CYGK;2017-09-23 03:00;CYGK 230300Z 33003KT 15SM SKC 18/15 A3009 RMK LAST STFD OBS / NEXT 231000 UTC SLP189 DENSITY ALT 500FT

CYGK;2017-09-23 10:00;CYGK 231000Z 32003KT 15SM FEW250 14/14 A3007 RMK CI1 SLP184

CYGK;2017-09-23 11:00;CYGK 231100Z 31003KT 15SM FEW120 SCT250 15/14 A3009 RMK AC1CI3 SLP190

CYGK;2017-09-23 12:00;CYGK 231200Z 28002KT 15SM FEW250 17/17 A3010 RMK CI2 SLP195 DENSITY ALT 400FT

CYGK;2017-09-23 13:00;CYGK 231300Z 26003KT 15SM FEW250 20/17 A3011 RMK CI1 SLP198 DENSITY ALT 800FT

CYGK;2017-09-23 14:00;CYGK 231400Z 23006KT 15SM FEW250 22/18 A3011 RMK CI1 SLP198 DENSITY ALT 1000FT

CYGK;2017-09-23 15:00;CYGK 231500Z 19009KT 15SM FEW250 23/19 A3011 RMK CI1 SLP196 DENSITY ALT 1100FT

CYGK;2017-09-23 16:00;CYGK 231600Z 18010KT 15SM FEW250 23/20 A3010 RMK CI1 SLP195 DENSITY ALT 1200FT

CYGK;2017-09-23 17:00;CYGK 231700Z 18012KT 15SM FEW250 23/20 A3009 RMK CI1 SLP192 DENSITY ALT 1200FT

CYGK;2017-09-23 18:00;CYGK 231800Z 18012KT 15SM FEW240 23/20 A3008 RMK CI1 SLP187 DENSITY ALT 1200FT

CYGK;2017-09-23 19:00;CYGK 231900Z 18010KT 15SM FEW250 24/20 A3007 RMK CI1 CI TR SLP183 DENSITY ALT 1300FT

CYGK;2017-09-23 20:00;CYGK 232000Z 20010KT 15SM FEW025 FEW250 25/20 A3005 RMK CF1CI1 SLP177 DENSITY ALT 1400FT

CYGK;2017-09-23 21:00;CYGK 232100Z 16007KT 15SM FEW035 FEW250 24/21 A3004 RMK CU1CI1 CU TR CI TR SLP173 DENSITY ALT 1300FT

CYGK;2017-09-23 22:00;CYGK 232200Z 17005KT 15SM FEW035 FEW250 24/21 A3004 RMK CU1CI1 CU TR CI TR SLP173 DENSITY ALT 1300FT

CYGK;2017-09-23 23:00;CYGK 232300Z 15006KT 15SM SKC 22/21 A3004 RMK SLP174 DENSITY ALT 1100FT

CYGK;2017-09-24 00:00;CYGK 240000Z 15005KT 12SM SKC 21/21 A3004 RMK SLP174 DENSITY ALT 1000FT

CYGK;2017-09-24 01:00;CYGK 240100Z 14004KT 12SM SKC 21/21 A3004 RMK SLP175 DENSITY ALT 1000FT

CYGK;2017-09-24 02:00;CYGK 240200Z 08002KT 12SM SKC 19/19 A3005 RMK SLP178 DENSITY ALT 800FT

CYGK;2017-09-24 03:00;CYGK 240300Z 08002KT 15SM SKC 19/19 A3006 RMK LAST STFD OBS/NEXT 241000 UTC SLP181 DENSITY ALT 700FT

CYGK;2017-09-24 10:00;CYGK 241000Z 28005KT 15SM MIFG SCT160 18/18 A3010 RMK AC4 SLP194 DENSITY ALT 600FT

CYGK;2017-09-24 11:00;CYGK 241100Z 32002KT 8SM MIFG FEW160 18/18 A3011 RMK AC2 SLP197 DENSITY ALT 600FT

CYGK;2017-09-24 12:00;CYGK 241200Z 00000KT 8SM FEW160 19/19 A3011 RMK AC1 AC TR SLP199 DENSITY ALT 700FT

CYGK;2017-09-24 13:00;CYGK 241300Z 28003KT 8SM FEW160 22/20 A3013 RMK AC1 AC TR SLP203 DENSITY ALT 1000FT

CYGK;2017-09-24 14:00;CYGK 241400Z 16005KT 10SM FEW160 23/21 A3012 RMK AC1 AC TR SLP202 DENSITY ALT 1100FT

CYGK;2017-09-24 15:00;CYGK 241500Z 18008KT 10SM FEW160 23/21 A3013 RMK AC1 AC TR SLP203 DENSITY ALT 1200FT

CYGK;2017-09-24 16:00;CYGK 241600Z 18008KT 12SM FEW160 24/22 A3011 RMK AC1 AC TR SLP199 DENSITY ALT 1300FT

CYGK;2017-09-24 17:00;CYGK 241700Z 19010KT 10SM FEW160 25/21 A3010 RMK AC1 AC TR SLP194 DENSITY ALT 1400FT

CYGK;2017-09-24 18:00;CYGK 241800Z 18011KT 12SM FEW025 26/21 A3009 RMK CF1 CF TR SLP189 DENSITY ALT 1500FT

CYGK;2017-09-24 19:00;CYGK 241900Z 18009KT 12SM FEW035 26/22 A3008 RMK CU1 CU TR SLP187 DENSITY ALT 1500FT

CYGK;2017-09-24 20:00;CYGK 242000Z 19009KT 12SM FEW035 25/22 A3007 RMK CU1 CU TR SLP183 DENSITY ALT 1400FT

CYGK;2017-09-24 21:00;CYGK 242100Z 17007KT 12SM FEW035 24/22 A3005 RMK CU1 CU TR SLP178 DENSITY ALT 1400FT

CYGK;2017-09-24 22:00;CYGK 242200Z 13007KT 12SM SKC 24/22 A3006 RMK SLP179 DENSITY ALT 1300FT

CYGK;2017-09-24 23:00;CYGK 242300Z 16006KT 12SM FEW250 23/22 A3006 RMK CI1 CI TR SLP179 DENSITY ALT 1200FT

CYGK;2017-09-25 00:00;CYGK 250000Z 15004KT 12SM SKC 23/22 A3006 RMK SLP180 DENSITY ALT 1100FT

CYGK;2017-09-25 01:00;CYGK 250100Z 18005KT 12SM SKC 22/21 A3006 RMK SLP182 DENSITY ALT 1100FT

CYGK;2017-09-25 02:00;CYGK 250200Z 20007KT 12SM SKC 22/21 A3007 RMK SLP184 DENSITY ALT 1100FT

CYGK;2017-09-25 03:00;CYGK 250300Z 20005KT 12SM SKC 21/21 A3007 RMK LAST STFD OBS/NEXT 251000 UTC SLP184 DENSITY ALT 900FT

CYGK;2017-09-25 10:00;CYGK 251000Z 00000KT 1/8SM FG SKC 17/17 A3008 RMK FG7 SLP186 DENSITY ALT 500FT

CYGK;2017-09-25 11:00;CYGK 251100Z 01003KT 1/8SM FG SKC 17/17 A3008 RMK FG7 SLP188 DENSITY ALT 400FT

CYGK;2017-09-25 12:04;CYGK 251204Z 00000KT 1 1/2SM BR FEW270 18/18 A3010 RMK CS1 CS TR VIS NW 3/4 SLP193 DENSITY ALT 600FT

CYGK;2017-09-25 12:26;CYGK 251226Z 00000KT 4SM BR FEW270 19/19 A3010 RMK CI1 SLP193 DENSITY ALT 700FT

CYGK;2017-09-25 13:00;CYGK 251300Z 15003KT 090V170 5SM BR FEW250 21/21 A3010 RMK CI2 SLP195 DENSITY ALT 900FT

CYGK;2017-09-25 14:00;CYGK 251400Z 16004KT 5SM BR FEW250 23/22 A3010 RMK CI2 SLP195 DENSITY ALT 1100FT

CYGK;2017-09-25 15:00;CYGK 251500Z 18007KT 5SM BR SCT250 23/22 A3010 RMK CI3 SLP193 DENSITY ALT 1200FT

CYGK;2017-09-25 16:00;CYGK 251600Z 19006KT 4SM BR SCT250 23/22 A3009 RMK CI4 SLP192 DENSITY ALT 1200FT

CYGK;2017-09-25 17:00;CYGK 251700Z 17006KT 4SM BR SCT250 24/22 A3009 RMK CI4 SLP190 DENSITY ALT 1300FT

CYGK;2017-09-25 18:00;CYGK 251800Z 17005KT 4SM BR SCT250 25/22 A3007 RMK CI4 SLP184 DENSITY ALT 1400FT

CYGK;2017-09-25 19:00;CYGK 251900Z 17005KT 5SM BR FEW030TCU FEW250 25/22 A3006 RMK TCU1CI2 TCU TR SLP179 DENSITY ALT 1400FT

CYGK;2017-09-25 20:00;CYGK 252000Z 17005KT 8SM FEW030TCU FEW250 25/22 A3004 RMK TCU1CI2 TCU TR SLP174 DENSITY ALT 1500FT

CYGK;2017-09-25 21:00;CYGK 252100Z 17004KT 10SM FEW035TCU FEW200 SCT250 25/23 A3004 RMK TCU1CC1CI2 TCU TR SLP173 DENSITY ALT 1400FT

CYGK;2017-09-25 22:00;CYGK 252200Z 18003KT 10SM BKN250 25/23 A3003 RMK CI5 SLP169 DENSITY ALT 1400FT

CYGK;2017-09-25 23:00;CYGK 252300Z 16003KT 10SM BKN250 23/22 A3002 RMK CI5 SLP168 DENSITY ALT 1200FT

CYGK;2017-09-26 00:00;CYGK 260000Z 17004KT 10SM BKN250 22/22 A3002 RMK CI5 SLP167 DENSITY ALT 1100FT

CYGK;2017-09-26 01:00;CYGK 260100Z 00000KT 10SM MIFG SCT250 20/20 A3002 RMK CI4 SLP166 DENSITY ALT 900FT

CYGK;2017-09-26 02:00;CYGK 260200Z 00000KT 10SM MIFG SCT250 20/20 A3001 RMK CI4 SLP165 DENSITY ALT 900FT

CYGK;2017-09-26 03:00;CYGK 260300Z 36002KT 8SM MIFG SKC 20/20 A3000 RMK LAST STFD OBS/NEXT 261000 UTC SLP162 DENSITY ALT 900FT

CYGK;2017-09-26 10:00;CYGK 261000Z 34006KT 9SM FEW270 17/17 A3000 RMK CI1 SLP162 DENSITY ALT 500FT

CYGK;2017-09-26 11:00;CYGK 261100Z VRB02KT 9SM MIFG BKN270 17/17 A3000 RMK CI5 SLP160 DENSITY ALT 600FT

CYGK;2017-09-26 12:00;CYGK 261200Z 00000KT 9SM MIFG BKN270 19/19 A3001 RMK CI7 SLP165 DENSITY ALT 700FT

CYGK;2017-09-26 13:00;CYGK 261300Z 07002KT 6SM BR BKN270 21/20 A3002 RMK CI7 SLP166 DENSITY ALT 1000FT

CYGK;2017-09-26 14:00;CYGK 261400Z 15004KT 9SM BKN270 23/21 A3001 RMK CI6 BR SLP165 DENSITY ALT 1200FT

CYGK;2017-09-26 15:00;CYGK 261500Z 17006KT 9SM BKN270 23/22 A3001 RMK CI6 BR SLP165 DENSITY ALT 1300FT

CYGK;2017-09-26 16:00;CYGK 261600Z 14004KT 060V190 9SM FEW140 BKN250 23/21 A3000 RMK AC1CI7 AC TR BR SLP162 DENSITY ALT 1300FT

CYGK;2017-09-26 17:00;CYGK 261700Z 15005KT 10SM BKN270 24/21 A3000 RMK CI6 SLP159 DENSITY ALT 1400FT

CYGK;2017-09-26 18:00;CYGK 261800Z 18006KT 10SM BKN270 25/20 A2998 RMK CI6 SLP152 DENSITY ALT 1500FT

CYGK;2017-09-26 19:00;CYGK 261900Z 20005KT 160V220 10SM FEW025 SCT160 BKN270 25/21 A2996 RMK CU1AC3CI3 CU TR SLP148 DENSITY ALT 1500FT

CYGK;2017-09-26 20:00;CYGK 262000Z 19004KT 12SM FEW025 SCT170 BKN270 25/21 A2995 RMK CU1AC3CI2 CU TR SLP143 DENSITY ALT 1500FT

CYGK;2017-09-26 21:00;CYGK 262100Z 16006KT 12SM FEW025 FEW160 BKN220 24/22 A2994 RMK CU1AC2CC3 CU TR SLP140 DENSITY ALT 1400FT

CYGK;2017-09-26 22:00;CYGK 262200Z 17004KT 10SM FEW170 FEW250 24/22 A2993 RMK AC1CI1 SLP137 DENSITY ALT 1400FT

CYGK;2017-09-26 23:00;CYGK 262300Z 20004KT 10SM FEW170 FEW250 22/21 A2993 RMK AC1CI1 CI TR SLP137 DENSITY ALT 1200FT

CYGK;2017-09-27 00:00;CYGK 270000Z 20004KT 10SM FEW170 21/20 A2992 RMK AC1 AC TR SLP135 DENSITY ALT 1100FT

CYGK;2017-09-27 01:00;CYGK 270100Z 00000KT 8SM MIFG SKC 20/20 A2993 RMK SLP137 DENSITY ALT 1000FT

CYGK;2017-09-27 02:00;CYGK 270200Z 18002KT 6SM BR BCFG MIFG SKC 20/20 A2992 RMK SLP134 DENSITY ALT 1000FT

CYGK;2017-09-27 03:00;CYGK 270300Z 18003KT 6SM BR BCFG MIFG SKC 20/20 A2992 RMK LAST STFD OBS / NEXT 271000 UTC SLP132 DENSITY ALT 1100FT

CYGK;2017-09-27 10:00;CYGK 271000Z 17006KT 12SM MIFG FEW002 22/22 A2987 RMK SF1 SF TR SLP115 DENSITY ALT 1200FT

CYGK;2017-09-27 11:00;CYGK 271100Z 19008KT 6SM BR FEW120 SCT250 22/22 A2986 RMK AC1CI3 SLP114 DENSITY ALT 1300FT

CYGK;2017-09-27 11:48;CYGK 271148Z 19008KT 6SM BR FEW005 FEW120 SCT250 22/22 A2986 RMK SF1AC2CI2 SF TR SLP114 DENSITY ALT 1300FT

CYGK;2017-09-27 12:00;CYGK 271200Z 19010KT 5SM BR FEW004 SCT120 BKN250 22/22 A2986 RMK SF1AC2CI2 SLP114 DENSITY ALT 1300FT

CYGK;2017-09-27 13:00;CYGK 271300Z 20009KT 5SM BR FEW003 SCT120 BKN250 23/23 A2986 RMK SF2AC1CI3 SLP112 DENSITY ALT 1400FT

CYGK;2017-09-27 14:00;CYGK 271400Z 18011KT 8SM FEW005 FEW120 SCT250 24/22 A2985 RMK SF1AC2CI2 SF TR SLP108 DENSITY ALT 1500FT

CYGK;2017-09-27 15:00;CYGK 271500Z 18011KT 10SM FEW120 SCT200 24/22 A2984 RMK AC1CI2 SLP106 DENSITY ALT 1600FT

CYGK;2017-09-27 16:00;CYGK 271600Z 18011KT 10SM FEW120 SCT250 24/22 A2982 RMK AC1CI2 SLP098 DENSITY ALT 1600FT

CYGK;2017-09-27 17:00;CYGK 271700Z 18011KT 10SM FEW120 BKN220 25/22 A2980 RMK AC2CI3 SLP092 DENSITY ALT 1800FT

CYGK;2017-09-27 18:00;CYGK 271800Z 19013KT 10SM FEW040 FEW120 BKN250 26/22 A2978 RMK SC1AC2CI4 SC TR SLP086 DENSITY ALT 1800FT

CYGK;2017-09-27 19:00;CYGK 271900Z 19014KT 10SM FEW025CB BKN250 26/22 A2976 RMK CB2CI3 CB DIST W-NE SLP078 DENSITY ALT 1900FT

CYGK;2017-09-27 20:00;CYGK 272000Z 25010KT 12SM FEW025TCU FEW160 SCT250 28/21 A2975 RMK TCU1AC1CI1 SLP076 DENSITY ALT 2100FT

CYGK;2017-09-27 21:00;CYGK 272100Z 25007KT 12SM FEW025 BKN170 BKN250 27/21 A2975 RMK CU1AC6CI1 CU TR SLP073 DENSITY ALT 2000FT

CYGK;2017-09-27 22:00;CYGK 272200Z 30013G22KT 15SM FEW037TCU BKN130 BKN180 25/19 A2976 RMK TCU1AC4AC2 SH DIST SE SLP077 DENSITY ALT 1800FT

CYGK;2017-09-27 23:00;CYGK 272300Z 29011G18KT 15SM FEW038 FEW080 SCT150 BKN190 BKN250 23/18 A2978 RMK CF1AC1AC2AC2CI1 SLP085 DENSITY ALT 1500FT

CYGK;2017-09-28 00:00;CYGK 280000Z 29011G17KT 15SM FEW050 BKN180 BKN250 20/15 A2981 RMK SC1AC4CI2 SLP095 DENSITY ALT 1100FT

CYGK;2017-09-28 01:00;CYGK 280100Z 28011KT 15SM BKN240 19/13 A2984 RMK CI6 SLP104 DENSITY ALT 1000FT

CYGK;2017-09-28 02:00;CYGK 280200Z 29010KT 15SM BKN240 18/12 A2985 RMK CI6 SLP110 DENSITY ALT 800FT

CYGK;2017-09-28 03:00;CYGK 280300Z 28007KT 15SM BKN250 17/11 A2986 RMK CI6 LAST STFD OBS / NEXT 281000 UTC SLP114 DENSITY ALT 700FT

CYGK;2017-09-28 10:00;CYGK 281000Z 32006KT 15SM SCT055 SCT250 11/10 A2994 RMK SC3CI1 SLP139

CYGK;2017-09-28 11:00;CYGK 281100Z 32006KT 15SM FEW020 FEW055 10/09 A2995 RMK CU1SC1 CU TR SLP143

CYGK;2017-09-28 12:00;CYGK 281200Z 35006KT 15SM FEW030 FEW200 11/10 A2998 RMK CU1CI1 SLP153

CYGK;2017-09-28 13:00;CYGK 281300Z 35011KT 15SM FEW030 FEW110 FEW220 13/07 A2999 RMK CU1AC1CI1 AC TR CI TR SLP157

CYGK;2017-09-28 14:00;CYGK 281400Z 36007KT 290V030 15SM FEW040 SCT250 14/07 A3000 RMK SC2CI1 SLP160

CYGK;2017-09-28 15:00;CYGK 281500Z 35008KT 300V010 15SM FEW036 SCT250 15/07 A2999 RMK SC2CI1 SLP159

CYGK;2017-09-28 16:00;CYGK 281600Z 34010KT 15SM SCT037 SCT250 16/06 A3000 RMK CU3CI1 SLP160 DENSITY ALT 400FT

CYGK;2017-09-28 17:00;CYGK 281700Z 33006KT 320V040 15SM SCT040 17/07 A2999 RMK SC4 SLP157 DENSITY ALT 500FT

CYGK;2017-09-28 18:00;CYGK 281800Z 33008G15KT 310V010 15SM SCT045 17/06 A2998 RMK SC4 SLP153 DENSITY ALT 500FT

CYGK;2017-09-28 19:00;CYGK 281900Z 35009G17KT 290V050 15SM BKN046 18/07 A2997 RMK SC5 SLP151 DENSITY ALT 700FT

CYGK;2017-09-28 20:00;CYGK 282000Z 35010KT 15SM SCT050 17/06 A2997 RMK SC3 SLP151 DENSITY ALT 600FT

CYGK;2017-09-28 21:00;CYGK 282100Z 31008KT 15SM SCT050 17/05 A2998 RMK SC3 SLP154 DENSITY ALT 500FT

CYGK;2017-09-28 22:00;CYGK 282200Z 35005KT 330V040 15SM FEW052 15/06 A2999 RMK SC2 SLP159 DENSITY ALT 400FT

CYGK;2017-09-28 23:00;CYGK 282300Z 03006KT 15SM FEW050 13/06 A3000 RMK SC1 SLP161

CYGK;2017-09-29 00:00;CYGK 290000Z 02008KT 15SM FEW057 12/06 A3001 RMK SC2 SLP166

CYGK;2017-09-29 01:00;CYGK 290100Z 03007KT 15SM BKN058 11/06 A3003 RMK SC6 SLP172

CYGK;2017-09-29 02:00;CYGK 290200Z 02006KT 15SM BKN056 11/06 A3004 RMK SC7 SLP176

CYGK;2017-09-29 03:00;CYGK 290300Z 36004KT 15SM BKN052 10/06 A3004 RMK SC7 LAST STFD OBS/NEXT 291000 UTC SLP177

CYGK;2017-09-29 10:00;CYGK 291000Z 35007KT 15SM SCT200 04/04 A3006 RMK CI3 SLP183

CYGK;2017-09-29 11:00;CYGK 291100Z VRB02KT 15SM FEW030 FEW200 05/04 A3007 RMK CU1CI2 CU TR SLP186

CYGK;2017-09-29 12:00;CYGK 291200Z 34004KT 15SM FEW030 FEW200 FEW250 06/05 A3009 RMK SC1CI1CI1 SC TR CI TR SLP194

CYGK;2017-09-29 13:00;CYGK 291300Z 04006KT 350V060 15SM FEW030 FEW110 FEW200 10/06 A3009 RMK SC1AC1CI1 SC TR AC TR CI TR SLP193

CYGK;2017-09-29 14:00;CYGK 291400Z 07004KT 020V100 15SM FEW030 FEW200 SCT250 12/06 A3009 RMK CU1CI2CI2 CU TR SLP193

CYGK;2017-09-29 15:00;CYGK 291500Z 13007KT 060V170 15SM FEW030 FEW200 BKN250 14/07 A3007 RMK CU1CI2CI3 CU TR SLP187

CYGK;2017-09-29 16:00;CYGK 291600Z 11007KT 15SM FEW030 SCT150 BKN210 13/04 A3005 RMK CU1AC3CI2 SLP180

CYGK;2017-09-29 17:00;CYGK 291700Z 14005KT 090V160 15SM FEW040 BKN140 BKN200 14/05 A3005 RMK CU1AC4CI2 SLP179

CYGK;2017-09-29 18:00;CYGK 291800Z 14004KT 15SM FEW040 BKN120 BKN220 13/04 A3003 RMK SC1AC7CI1 SC TR CI TR SLP172

CYGK;2017-09-29 19:00;CYGK 291900Z 11004KT 050V120 15SM FEW015 BKN061 13/06 A3002 RMK CF1SC7 CF TR SLP168

CYGK;2017-09-29 20:00;CYGK 292000Z 04004KT 10SM -SHRA FEW025 BKN054 13/05 A3002 RMK CU1SC6 SLP168

CYGK;2017-09-29 21:00;CYGK 292100Z 06010KT 13SM -SHRA FEW020 OVC065 12/07 A2998 RMK CF1AC8 CF TR SLP157

CYGK;2017-09-29 22:00;CYGK 292200Z 36005KT 15SM -SHRA BKN049 OVC082 12/07 A2999 RMK SC6AC2 CVCTV CLD EMBD SLP161

CYGK;2017-09-29 23:00;CYGK 292300Z 06008KT 9SM FEW010 BKN041 OVC070 10/09 A3000 RMK SF1SC6AC2 SF TR SLP163

CYGK;2017-09-30 00:00;CYGK 300000Z 04008KT 9SM -SHRA OVC048 10/08 A3001 RMK SC8 CVCTV CLD EMBD SLP165

CYGK;2017-09-30 01:00;CYGK 300100Z 03009KT 15SM -SHRA FEW042 OVC080 10/08 A3002 RMK SC2AC6 SLP168

CYGK;2017-09-30 02:00;CYGK 300200Z 03009G15KT 13SM -SHRA OVC055 09/08 A3003 RMK SC8 CVCTV CLD EMBD SLP172

CYGK;2017-09-30 03:00;CYGK 300300Z 03011G19KT 15SM -SHRA FEW010 OVC050 10/08 A3005 RMK SF1SC7 CVCTV CLD EMBD LAST STFD OBS / NEXT 301000 UTC SLP178

CYGK;2017-09-30 10:00;CYGK 301000Z 35008KT 15SM BKN048 07/06 A3020 RMK SC5 SLP231

CYGK;2017-09-30 11:00;CYGK 301100Z 36009KT 15SM FEW019 OVC050 08/07 A3023 RMK SC2SC6 SLP242

CYGK;2017-09-30 12:00;CYGK 301200Z 35010KT 15SM FEW022 BKN048 09/07 A3027 RMK SC1SC6 SLP254

CYGK;2017-09-30 13:00;CYGK 301300Z 35010G15KT 15SM FEW022 BKN048 09/06 A3030 RMK SC1SC6 SLP264

CYGK;2017-09-30 14:00;CYGK 301400Z 01010G15KT 15SM FEW025 FEW055 11/06 A3032 RMK CF1SC1 SLP270

CYGK;2017-09-30 15:00;CYGK 301500Z 01008KT 330V040 15SM FEW030 SCT048 13/06 A3034 RMK CU2SC1 SLP276

CYGK;2017-09-30 16:00;CYGK 301600Z 35008G15KT 330V050 15SM BKN042 14/05 A3035 RMK CU6 SLP279

CYGK;2017-09-30 17:00;CYGK 301700Z 03008G15KT 340V040 15SM BKN050 14/04 A3036 RMK CU6 SLP283

CYGK;2017-09-30 18:00;CYGK 301800Z 01008KT 330V040 15SM BKN045 13/04 A3035 RMK SC6 SLP282

CYGK;2017-09-30 19:00;CYGK 301900Z VRB03KT 15SM BKN050 14/03 A3035 RMK SC5 SLP280

CYGK;2017-09-30 20:00;CYGK 302000Z 31006KT 300V360 15SM SCT050 SCT250 14/03 A3035 RMK SC3CI1 CI TR SLP279

CYGK;2017-09-30 21:00;CYGK 302100Z 36009KT 15SM FEW050 SCT250 14/04 A3035 RMK SC2CI1 SLP279

CYGK;2017-09-30 22:00;CYGK 302200Z 02005KT 15SM FEW050 13/03 A3035 RMK SC2 SLP282

CYGK;2017-09-30 23:00;CYGK 302300Z 01002KT 15SM FEW050 FEW250 11/03 A3036 RMK SC1CI1 SLP284

CYGK;2017-10-01 00:00;CYGK 010000Z 00000KT 15SM FEW050 FEW250 09/04 A3038 RMK SC1CI1 SC TR CI TR SLP290

CYGK;2017-10-01 01:00;CYGK 010100Z 35003KT 15SM FEW250 08/06 A3039 RMK CI1 SLP294

CYGK;2017-10-01 02:00;CYGK 010200Z 35003KT 15SM SKC 06/06 A3039 RMK SLP294

CYGK;2017-10-01 03:00;CYGK 010300Z 34006KT 15SM SKC 04/04 A3039 RMK LAST STFD OBS/NEXT 011000 UTC SLP295

CYGK;2017-10-01 10:00;CYGK 011000Z 34007KT 15SM FEW020 03/02 A3039 RMK SC1 SC TR SLP294

CYGK;2017-10-01 11:00;CYGK 011100Z 34007KT 15SM FEW024 03/02 A3039 RMK SC1 SLP295

CYGK;2017-10-01 12:00;CYGK 011200Z 34006KT 15SM FEW020 FEW160 04/04 A3040 RMK CU1AC1 AC TR SLP300

CYGK;2017-10-01 13:00;CYGK 011300Z 35004KT 15SM FEW020 FEW080 FEW220 08/05 A3041 RMK CU1AC1CI1 CU TR CI TR SLP303

CYGK;2017-10-01 14:00;CYGK 011400Z 32003KT 15SM FEW020 FEW080 FEW220 13/05 A3042 RMK CU1AC1CI1 CU TR CI TR WND ESTD SLP305

CYGK;2017-10-01 15:00;CYGK 011500Z 24007KT 180V260 15SM FEW030 FEW220 14/06 A3041 RMK CU1CI1 CU TR CI TR SLP303

CYGK;2017-10-01 16:00;CYGK 011600Z 24007KT 15SM FEW025 14/05 A3040 RMK CU1 CU TR SLP298

CYGK;2017-10-01 17:00;CYGK 011700Z 22009KT 15SM FEW040 FEW220 15/05 A3038 RMK CU1CI1 CU TR CI TR SLP291

CYGK;2017-10-01 18:00;CYGK 011800Z 22009KT 15SM FEW040 FEW220 16/03 A3036 RMK SC1CI1 SC TR CI TR SLP284

CYGK;2017-10-01 19:00;CYGK 011900Z 23009KT 15SM FEW040 FEW250 17/05 A3033 RMK SC1CI2 SC TR SLP274

CYGK;2017-10-01 20:00;CYGK 012000Z 22010KT 15SM FEW040 FEW250 17/03 A3031 RMK SC1CI2 SC TR SLP268

CYGK;2017-10-01 21:00;CYGK 012100Z 21009KT 15SM SCT250 17/02 A3030 RMK CI4 SLP265

CYGK;2017-10-01 22:00;CYGK 012200Z 20007KT 15SM BKN250 15/07 A3030 RMK CI5 SLP265

CYGK;2017-10-01 23:00;CYGK 012300Z 24006KT 15SM SCT250 14/08 A3030 RMK CI4 SLP266

CYGK;2017-10-02 00:00;CYGK 020000Z 26007KT 15SM SCT250 13/08 A3031 RMK CI3 SLP268

CYGK;2017-10-02 01:00;CYGK 020100Z 27006KT 15SM FEW250 12/08 A3031 RMK CI2 SLP268

CYGK;2017-10-02 02:00;CYGK 020200Z 28006KT 15SM SKC 10/07 A3032 RMK SLP269

CYGK;2017-10-02 03:00;CYGK 020300Z 30003KT 15SM SKC 09/06 A3033 RMK LAST STFD OBS/NEXT 021000 UTC SLP274

CYGK;2017-10-02 10:00;CYGK 021000Z 34006KT 15SM SKC 05/04 A3038 RMK SLP290

CYGK;2017-10-02 11:00;CYGK 021100Z 34006KT 15SM FEW020 FEW250 04/04 A3039 RMK CU1CI1 CU TR CI TR SLP294

CYGK;2017-10-02 12:00;CYGK 021200Z 07003KT 15SM FEW020 FEW250 06/06 A3041 RMK CU1CI1 CU TR SLP301

CYGK;2017-10-02 13:00;CYGK 021300Z 36003KT 15SM FEW020 FEW250 11/08 A3043 RMK CU1CI1 CU TR SLP307

CYGK;2017-10-02 14:00;CYGK 021400Z 08002KT 15SM FEW030 FEW250 15/09 A3044 RMK CU1CI1 CU TR SLP310

CYGK;2017-10-02 15:00;CYGK 021500Z 16003KT 15SM FEW030 SCT250 16/12 A3044 RMK CU1CI2 SLP312

CYGK;2017-10-02 16:00;CYGK 021600Z 17004KT 120V230 15SM FEW025 SCT250 16/13 A3044 RMK CU1CI2 SLP311

CYGK;2017-10-02 17:00;CYGK 021700Z 16006KT 140V210 15SM FEW025 BKN250 17/13 A3044 RMK CU1CI5 CU TR SLP310

CYGK;2017-10-02 18:00;CYGK 021800Z 18007KT 15SM FEW030 SCT250 17/12 A3043 RMK CU1CI3 SLP308

CYGK;2017-10-02 19:00;CYGK 021900Z 20007KT 15SM FEW020 FEW270 17/11 A3042 RMK CF1CI2 CF TR SLP304

CYGK;2017-10-02 20:00;CYGK 022000Z 19006KT 15SM FEW020 FEW250 18/09 A3041 RMK CU1CI2 CU TR SLP302

CYGK;2017-10-02 21:00;CYGK 022100Z 17003KT 15SM SCT250 18/09 A3041 RMK CI4 SLP302

CYGK;2017-10-02 22:00;CYGK 022200Z 00000KT 15SM SCT270 17/09 A3042 RMK CI4 SLP306

CYGK;2017-10-02 23:00;CYGK 022300Z 00000KT 15SM BKN270 13/08 A3043 RMK CI6 SLP308

CYGK;2017-10-03 00:00;CYGK 030000Z 34004KT 15SM BKN270 12/09 A3043 RMK CI5 SLP310

CYGK;2017-10-03 01:00;CYGK 030100Z 01002KT 15SM BKN270 11/10 A3044 RMK CI5 SLP311

CYGK;2017-10-03 02:00;CYGK 030200Z 05003KT 15SM SCT270 10/10 A3044 RMK CI4 SLP311

CYGK;2017-10-03 03:00;CYGK 030300Z 36004KT 15SM SCT270 09/08 A3044 RMK CI3 LAST STFD OBS / NEXT 031000 UTC SLP312

CYGK;2017-10-03 10:00;CYGK 031000Z 17009KT 15SM FEW020 16/11 A3047 RMK SC1 SC TR SLP320

CYGK;2017-10-03 11:00;CYGK 031100Z 18012KT 15SM FEW100 BKN250 15/11 A3047 RMK AC1CI7 AC TR SLP320

CYGK;2017-10-03 12:00;CYGK 031200Z 18013KT 15SM FEW100 SCT250 16/11 A3048 RMK AC1CI3 AC TR SLP325

CYGK;2017-10-03 13:00;CYGK 031300Z 19014KT 15SM SCT270 17/12 A3049 RMK CI3 SLP329

CYGK;2017-10-03 14:00;CYGK 031400Z 18015G20KT 15SM BKN270 17/12 A3050 RMK CI7 SLP330

CYGK;2017-10-03 15:00;CYGK 031500Z 18015KT 15SM SCT270 18/11 A3049 RMK CI3 SLP326

CYGK;2017-10-03 16:00;CYGK 031600Z 18015G21KT 15SM BKN270 18/11 A3047 RMK CI7 SLP322

CYGK;2017-10-03 17:00;CYGK 031700Z 20013KT 15SM FEW270 19/13 A3046 RMK CI2 SLP318

CYGK;2017-10-03 18:00;CYGK 031800Z 19012KT 15SM BKN250 20/12 A3045 RMK CI7 SLP314

CYGK;2017-10-03 19:00;CYGK 031900Z 19010G15KT 15SM SCT250 20/12 A3045 RMK CI4 SLP313 DENSITY ALT 400FT

CYGK;2017-10-03 20:00;CYGK 032000Z 19009KT 15SM SCT270 20/13 A3043 RMK CI4 SLP305 DENSITY ALT 400FT

CYGK;2017-10-03 21:00;CYGK 032100Z 20009KT 15SM BKN250 20/14 A3041 RMK CI5 SLP300 DENSITY ALT 400FT

CYGK;2017-10-03 22:00;CYGK 032200Z 21005KT 15SM SCT250 19/14 A3040 RMK CI4 SLP295 DENSITY ALT 400FT

CYGK;2017-10-03 23:00;CYGK 032300Z 22003KT 15SM BKN250 17/14 A3039 RMK CI5 SLP293

CYGK;2017-10-04 00:00;CYGK 040000Z 19002KT 15SM FEW250 15/14 A3037 RMK CI2 SLP288

CYGK;2017-10-04 01:00;CYGK 040100Z 00000KT 15SM BCFG FEW250 15/14 A3037 RMK CI1 CI TR SLP286

CYGK;2017-10-04 02:00;CYGK 040200Z 18013KT 15SM SKC 19/15 A3036 RMK SLP282 DENSITY ALT 400FT

CYGK;2017-10-04 03:00;CYGK 040300Z 19016KT 15SM SKC 19/14 A3035 RMK LAST STFD OBS/NEXT 041000 UTC SLP281 DENSITY ALT 400FT

CYGK;2017-10-04 10:00;CYGK 041000Z 20014KT 15SM BKN060 18/14 A3028 RMK SC6 SLP255 DENSITY ALT 400FT

CYGK;2017-10-04 11:00;CYGK 041100Z 19017KT 15SM SCT060 BKN250 18/14 A3026 RMK SC3CI3 SLP247

CYGK;2017-10-04 12:00;CYGK 041200Z 19016G22KT 15SM FEW060 BKN250 18/15 A3025 RMK SC2CI3 SLP246 DENSITY ALT 400FT

CYGK;2017-10-04 13:00;CYGK 041300Z 19016KT 15SM SCT068 BKN090 BKN220 19/15 A3023 RMK AC3AC2CI2 SLP240 DENSITY ALT 600FT

CYGK;2017-10-04 14:00;CYGK 041400Z 19013KT 15SM FEW070 BKN090 BKN250 19/15 A3024 RMK AC2AC4CI1 SLP241 DENSITY ALT 500FT

CYGK;2017-10-04 15:00;CYGK 041500Z 19010G17KT 15SM FEW050 BKN080 BKN250 20/16 A3021 RMK SC1AC5CI1 SLP231 DENSITY ALT 600FT

CYGK;2017-10-04 16:00;CYGK 041600Z 19012KT 15SM VCSH FEW050 BKN080 BKN250 20/17 A3017 RMK CU2AC3CI2 SLP220 DENSITY ALT 800FT

CYGK;2017-10-04 16:12;CYGK 041612Z 20012KT 8SM -SHRA SCT050 OVC080 19/17 A3017 RMK CU4AC4 SLP218 DENSITY ALT 600FT

CYGK;2017-10-04 16:33;CYGK 041633Z 19012KT 15SM VCSH SCT050 BKN080 BKN250 19/18 A3016 RMK CU4AC2CI1 SLP215 DENSITY ALT 700FT

CYGK;2017-10-04 17:00;CYGK 041700Z 19012KT 15SM FEW035 BKN050 BKN250 20/18 A3014 RMK CU2SC3CI2 PRESFR SLP207 DENSITY ALT 800FT

CYGK;2017-10-04 18:00;CYGK 041800Z 20013G18KT 15SM FEW040 BKN080 BKN250 21/18 A3009 RMK SC1AC5CI1 SLP189 DENSITY ALT 1000FT

CYGK;2017-10-04 19:00;CYGK 041900Z 20013KT 15SM BKN033 OVC058 21/18 A3006 RMK SC7SC1 SH N SH DIST S SLP182 DENSITY ALT 900FT

CYGK;2017-10-04 19:19;CYGK 041919Z 22012G17KT 10SM -SHRA BKN035 OVC070 22/17 A3006 RMK CU7AC1 SLP180 DENSITY ALT 1100FT

CYGK;2017-10-04 19:36;CYGK 041936Z 21010G16KT 10SM BKN035 OVC060 22/18 A3004 RMK SC7SC1 CVCTV CLD EMBD SH S-SW PRESFR SLP175 DENSITY ALT 1000FT

CYGK;2017-10-04 20:00;CYGK 042000Z 21011G17KT 12SM BKN033 OVC050 22/18 A3004 RMK SC7SC1 CVCTV CLD EMBD SH S-W SLP174 DENSITY ALT 1100FT

CYGK;2017-10-04 21:00;CYGK 042100Z 24017G24KT 15SM FEW030 OVC035 22/18 A3001 RMK SC1SC7 SLP165 DENSITY ALT 1100FT

CYGK;2017-10-04 21:50;CYGK 042150Z 24016G24KT 15SM -SHRA BKN018 OVC030 21/19 A3001 RMK SC6SC2 CVCTV CLD EMBD SLP165 DENSITY ALT 1100FT

CYGK;2017-10-04 22:00;CYGK 042200Z 23018G25KT 15SM -SHRA BKN018 BKN031 OVC085 21/19 A3001 RMK SC6SC1AC1 CVCTV CLD EMBD VIS SW-NW 5 SLP163 DENSITY ALT 1000FT

CYGK;2017-10-04 23:00;CYGK 042300Z 24013G21KT 15SM -SHRA FEW015 BKN023 OVC070 20/19 A3001 RMK SF1SC6AC1 CVCTV CLD EMBD SLP163 DENSITY ALT 900FT

CYGK;2017-10-05 00:00;CYGK 050000Z 25012G22KT 15SM -SHRA BKN014 BKN025 OVC140 20/19 A3002 RMK SF5SC2AC1 OCNL LTNG SW CB EMBD SLP167 DENSITY ALT 900FT

CYGK;2017-10-05 01:00;CYGK 050100Z 28007G15KT 15SM -SHRA BKN055 19/17 A3005 RMK SC7 CVCTV CLD EMBD SLP176 DENSITY ALT 700FT

CYGK;2017-10-05 01:31;CYGK 050131Z 28009G19KT 15SM SCT055 BKN110 19/16 A3005 RMK SC4AC1 SLP177 DENSITY ALT 700FT

CYGK;2017-10-05 02:00;CYGK 050200Z 28011KT 15SM SCT080 18/14 A3006 RMK AC4 SLP183 DENSITY ALT 600FT

CYGK;2017-10-05 03:00;CYGK 050300Z 29012G18KT 15SM FEW110 15/12 A3008 RMK AC1 LAST STFD OBS/NEXT 051000 UTC SLP187

CYGK;2017-10-05 10:00;CYGK 051000Z 27007KT 15SM SKC 12/11 A3010 RMK SLP195

CYGK;2017-10-05 11:00;CYGK 051100Z 27007KT 15SM FEW015 11/10 A3011 RMK CF1 CF TR SLP197

CYGK;2017-10-05 12:00;CYGK 051200Z 26007KT 15SM FEW015 FEW240 11/10 A3012 RMK CF1CI2 CF TR SLP201

CYGK;2017-10-05 13:00;CYGK 051300Z 25003KT 210V340 15SM FEW015 FEW240 13/11 A3013 RMK SC1CI1 SC TR SLP204

CYGK;2017-10-05 14:00;CYGK 051400Z 28006KT 15SM FEW020 FEW240 15/10 A3012 RMK SC1CI2 SC TR SLP203

CYGK;2017-10-05 15:00;CYGK 051500Z 23008KT 15SM FEW020 FEW240 16/11 A3011 RMK SC1CI1 SC TR SLP199

CYGK;2017-10-05 16:00;CYGK 051600Z 23011KT 15SM FEW025 FEW240 18/10 A3009 RMK CU1CI1 SLP192 DENSITY ALT 500FT

CYGK;2017-10-05 17:00;CYGK 051700Z 24009G16KT 15SM FEW030 SCT240 18/10 A3006 RMK CU2CI1 SLP181 DENSITY ALT 700FT

CYGK;2017-10-05 18:00;CYGK 051800Z 23009KT 15SM SCT040 SCT240 20/10 A3004 RMK CU3CI1 SLP174 DENSITY ALT 800FT

CYGK;2017-10-05 19:00;CYGK 051900Z 24011G19KT 15SM SCT045 BKN250 20/10 A3003 RMK SC4CI2 SLP171 DENSITY ALT 900FT

CYGK;2017-10-05 20:00;CYGK 052000Z 24014G21KT 15SM SCT040 BKN250 19/11 A3002 RMK SC3CI2 SLP168 DENSITY ALT 800FT

CYGK;2017-10-05 21:00;CYGK 052100Z 24013G19KT 15SM FEW042 SCT250 19/11 A3001 RMK SC2CI2 SLP166 DENSITY ALT 700FT

CYGK;2017-10-05 22:00;CYGK 052200Z 25014G20KT 15SM FEW040 BKN230 18/11 A3001 RMK SC2CI4 SLP163 DENSITY ALT 700FT

CYGK;2017-10-05 23:00;CYGK 052300Z 26008KT 15SM FEW050 BKN230 18/11 A3001 RMK SC1CI5 SLP166 DENSITY ALT 600FT

CYGK;2017-10-06 00:00;CYGK 060000Z 25005KT 15SM SCT220 17/11 A3002 RMK CI4 SLP167 DENSITY ALT 500FT

CYGK;2017-10-06 01:00;CYGK 060100Z 24007KT 15SM SCT220 16/11 A3003 RMK CI3 SLP170 DENSITY ALT 400FT

CYGK;2017-10-06 02:00;CYGK 060200Z 26006KT 15SM SCT220 16/11 A3004 RMK CI3 SLP174

CYGK;2017-10-06 03:00;CYGK 060300Z 31009KT 15SM SCT200 14/10 A3006 RMK CI4 LAST STFD OBS/NEXT 061000 UTC SLP180

CYGK;2017-10-06 10:00;CYGK 061000Z 27003KT 10SM SCT055 OVC070 13/12 A3007 RMK SC3AC5 SLP185

CYGK;2017-10-06 11:00;CYGK 061100Z 25003KT 12SM -RA SCT040 OVC070 13/12 A3006 RMK SC4AC4 SLP182

CYGK;2017-10-06 11:21;CYGK 061121Z 23004KT 12SM BKN065 OVC100 13/12 A3007 RMK SC7AC1 SLP184

CYGK;2017-10-06 12:00;CYGK 061200Z 23005KT 15SM FEW060 OVC076 14/12 A3008 RMK SC2AC6 SLP187

CYGK;2017-10-06 13:00;CYGK 061300Z 31002KT 15SM SCT065 BKN080 OVC110 14/13 A3009 RMK SC3AC4AC1 SH NW SLP191

CYGK;2017-10-06 13:11;CYGK 061311Z 00000KT 15SM -RA BKN062 OVC080 14/13 A3009 RMK SC5AC3 SLP190

CYGK;2017-10-06 14:00;CYGK 061400Z 22002KT 15SM -RA FEW025 BKN060 OVC082 15/13 A3009 RMK CF1SC6AC2 CF TR SLP193

CYGK;2017-10-06 14:25;CYGK 061425Z 19003KT 15SM FEW025 BKN061 OVC080 15/12 A3009 RMK CF1SC5AC2 SLP192

CYGK;2017-10-06 15:00;CYGK 061500Z 21004KT 15SM FEW030 SCT056 OVC067 16/12 A3009 RMK SC1SC3AC5 SC TR SLP190 DENSITY ALT 400FT

CYGK;2017-10-06 16:00;CYGK 061600Z 19003KT 140V220 15SM FEW015 SCT033 BKN060 OVC080 17/12 A3009 RMK CF1SC2SC4AC1 SLP190 DENSITY ALT 400FT

CYGK;2017-10-06 17:00;CYGK 061700Z 16003KT 15SM FEW032 OVC070 17/12 A3007 RMK SC2AC6 SLP186 DENSITY ALT 500FT

CYGK;2017-10-06 18:00;CYGK 061800Z 16004KT 150V210 15SM SCT025 BKN040 OVC070 17/13 A3006 RMK SC3SC4AC1 SLP180 DENSITY ALT 500FT

CYGK;2017-10-06 19:00;CYGK 061900Z 16006KT 110V180 15SM SCT025 BKN050 BKN090 OVC120 18/14 A3005 RMK CU4SC2AC1AC1 SLP177 DENSITY ALT 700FT

CYGK;2017-10-06 20:00;CYGK 062000Z 16004KT 15SM BKN030 BKN040 BKN070 OVC090 18/14 A3004 RMK CU5SC1AC1AC1 SLP175 DENSITY ALT 600FT

CYGK;2017-10-06 21:00;CYGK 062100Z VRB02KT 15SM SCT028 BKN036 OVC060 18/13 A3004 RMK CU3SC3SC2 SLP174 DENSITY ALT 600FT

CYGK;2017-10-06 22:00;CYGK 062200Z 00000KT 15SM FEW025 OVC050 17/15 A3003 RMK CU2SC6 SLP173 DENSITY ALT 500FT

CYGK;2017-10-06 23:00;CYGK 062300Z 00000KT 15SM FEW025 BKN060 16/14 A3004 RMK CU2SC5 SLP174 DENSITY ALT 400FT

CYGK;2017-10-07 00:00;CYGK 070000Z 00000KT 15SM FEW025 BKN055 BKN090 14/13 A3003 RMK CU1SC4AC1 SLP173

CYGK;2017-10-07 01:00;CYGK 070100Z 34003KT 15SM SCT055 BKN100 13/13 A3005 RMK SC4AC1 SLP178

CYGK;2017-10-07 02:00;CYGK 070200Z 06003KT 15SM SCT070 BKN090 13/13 A3005 RMK AC3AC2 SLP178

CYGK;2017-10-07 03:00;CYGK 070300Z 05002KT 15SM FEW075 BKN100 12/12 A3006 RMK AC2AC3 LAST STFD OBS/NEXT 071000 UTC SLP180

CYGK;2017-10-07 10:00;CYGK 071000Z 11005KT 15SM OVC023 17/16 A2998 RMK SC8 SLP156 DENSITY ALT 500FT

CYGK;2017-10-07 11:00;CYGK 071100Z 16009KT 12SM BKN024 BKN150 18/17 A2998 RMK SC7AC1 AC TR SLP153 DENSITY ALT 700FT

CYGK;2017-10-07 11:27;CYGK 071127Z 16012KT 8SM -RA OVC025 18/17 A2997 RMK SC8 SLP150 DENSITY ALT 700FT

CYGK;2017-10-07 12:00;CYGK 071200Z 17011KT 8SM -RA OVC021 18/17 A2997 RMK SC8 SLP151 DENSITY ALT 700FT

CYGK;2017-10-07 12:31;CYGK 071231Z 18014KT 5SM -RA BR FEW007 OVC014 18/17 A2997 RMK SF2SC6 SLP150 DENSITY ALT 700FT

CYGK;2017-10-07 12:49;CYGK 071249Z 18012G18KT 3SM -RA BR SCT005 OVC018 18/18 A2997 RMK SF4SC4 SLP151 DENSITY ALT 700FT

CYGK;2017-10-07 13:00;CYGK 071300Z 19013KT 3SM -RA BR SCT004 OVC012 18/18 A2997 RMK SF4SC4 SLP152 DENSITY ALT 700FT

CYGK;2017-10-07 13:41;CYGK 071341Z 20015KT 2SM -RA BR OVC004 18/18 A2998 RMK SF8 SLP155 DENSITY ALT 700FT

CYGK;2017-10-07 13:53;CYGK 071353Z 22015KT 3SM -RA BR BKN004 OVC012 18/18 A2998 RMK SF6SC2 SLP156 DENSITY ALT 700FT

CYGK;2017-10-07 14:00;CYGK 071400Z 23013G19KT 4SM -RA BR BKN004 BKN012 OVC053 18/18 A2998 RMK SF5SC2SC1 SLP155 DENSITY ALT 700FT

CYGK;2017-10-07 15:00;CYGK 071500Z 18012KT 5SM -RA BR FEW004 SCT020 OVC100 18/18 A2995 RMK SF2SC2AC4 PRESFR SLP146 DENSITY ALT 800FT

CYGK;2017-10-07 15:31;CYGK 071531Z 18010KT 12SM FEW004 FEW020 BKN070 OVC120 19/19 A2996 RMK SF1SC1AC4AC2 SLP147 DENSITY ALT 900FT

CYGK;2017-10-07 16:00;CYGK 071600Z 17011KT 12SM FEW025 SCT070 OVC130 20/19 A2996 RMK SC1AC2AC5 SLP148 DENSITY ALT 900FT

CYGK;2017-10-07 17:00;CYGK 071700Z 18008KT 12SM FEW006 FEW018 BKN120 20/19 A2995 RMK SF1SC2AC5 SF TR SLP142 DENSITY ALT 900FT

CYGK;2017-10-07 18:00;CYGK 071800Z 16008KT 12SM FEW006 SCT018 BKN140 19/18 A2988 RMK SF1SC2AC4 PRESFR SLP119 DENSITY ALT 1000FT

CYGK;2017-10-07 19:00;CYGK 071900Z 17012G17KT 15SM FEW008 FEW020 BKN120 20/18 A2984 RMK SF1SC2AC5 SF TR SLP108 DENSITY ALT 1100FT

CYGK;2017-10-07 20:00;CYGK 072000Z 16012KT 15SM FEW120 BKN150 BKN180 21/18 A2982 RMK AC2AC3AC2 SLP100 DENSITY ALT 1200FT

CYGK;2017-10-07 21:00;CYGK 072100Z 18007KT 15SM FEW120 BKN150 BKN190 20/19 A2981 RMK AC2AC3CI2 SLP098 DENSITY ALT 1100FT

CYGK;2017-10-07 22:00;CYGK 072200Z 17008KT 15SM SCT180 BKN250 20/19 A2980 RMK AC4CI2 SLP092 DENSITY ALT 1200FT

CYGK;2017-10-07 23:00;CYGK 072300Z 17008KT 15SM FEW080 BKN180 BKN250 20/18 A2979 RMK AC2AC3CI2 SLP088 DENSITY ALT 1100FT

CYGK;2017-10-08 00:00;CYGK 080000Z 18014KT 15SM FEW070 BKN220 21/17 A2978 RMK AC2CI4 SLP085 DENSITY ALT 1200FT

CYGK;2017-10-08 01:00;CYGK 080100Z 19012G17KT 15SM FEW070 BKN220 20/17 A2978 RMK AC2CI5 SLP084 DENSITY ALT 1200FT

CYGK;2017-10-08 02:00;CYGK 080200Z 20014G20KT 15SM FEW070 SCT220 21/17 A2978 RMK AC1CI3 SLP085 DENSITY ALT 1200FT

CYGK;2017-10-08 03:00;CYGK 080300Z 18016G22KT 15SM BKN070 21/17 A2976 RMK AC5 LAST STFD OBS/NEXT 081000 UTC SLP080 DENSITY ALT 1300FT

CYGK;2017-10-08 10:00;CYGK 081000Z 19021G30KT 15SM SCT030 OVC040 20/19 A2959 RMK SC3SC5 SLP022 DENSITY ALT 1400FT

CYGK;2017-10-08 10:52;CYGK 081052Z 19025G34KT 15SM SHRA BKN032TCU OVC080 21/19 A2960 RMK TCU6AC2 SLP024 DENSITY ALT 1400FT

CYGK;2017-10-08 11:00;CYGK 081100Z 20025G36KT 2SM SHRA BR BKN029TCU OVC040 20/19 A2962 RMK TCU7SC1 PRESRR SLP030 DENSITY ALT 1400FT

CYGK;2017-10-08 11:07;CYGK 081107Z 20028G37KT 5SM -SHRA BR FEW018 OVC024TCU 20/19 A2963 RMK SF1TCU7 TCU EMBD PRESRR SLP033 DENSITY ALT 1300FT

CYGK;2017-10-08 11:24;CYGK 081124Z 22019G34KT 15SM FEW025 BKN050 BKN090 20/19 A2964 RMK SC2SC4AC1 CVCTV CLD EMBD SLP038 DENSITY ALT 1300FT

CYGK;2017-10-08 12:00;CYGK 081200Z 24017G26KT 15SM FEW022 SCT046 20/17 A2967 RMK CF1SC4 CF TR SLP047 DENSITY ALT 1300FT

CYGK;2017-10-08 13:00;CYGK 081300Z 24019G28KT 15SM FEW025 20/16 A2971 RMK CU2 SLP063 DENSITY ALT 1200FT

CYGK;2017-10-08 14:00;CYGK 081400Z 25017G23KT 15SM FEW025 SCT050 SCT080 SCT120 21/16 A2975 RMK CU1SC3AC1AC1 CU TR AC TR AC TR SLP075 DENSITY ALT 1300FT

CYGK;2017-10-08 15:00;CYGK 081500Z 25016G22KT 15SM FEW030 BKN045 BKN090 21/16 A2978 RMK CU2SC3AC1 SLP085 DENSITY ALT 1300FT

CYGK;2017-10-08 16:00;CYGK 081600Z 23017G23KT 15SM FEW030 BKN040 BKN100 21/16 A2981 RMK CU2SC3AC1 SLP095 DENSITY ALT 1200FT

CYGK;2017-10-08 17:00;CYGK 081700Z 24017G24KT 15SM FEW030 BKN040 BKN250 20/16 A2983 RMK SC1SC5CI1 SLP103 DENSITY ALT 1200FT

CYGK;2017-10-08 18:00;CYGK 081800Z 24015G22KT 15SM FEW025 OVC038 20/16 A2985 RMK CU1SC7 SLP108 DENSITY ALT 1100FT

CYGK;2017-10-08 19:00;CYGK 081900Z 23015G20KT 15SM FEW025 BKN037 20/15 A2985 RMK CU1SC6 SLP109 DENSITY ALT 1100FT

CYGK;2017-10-08 20:00;CYGK 082000Z 23014G20KT 15SM SCT035 BKN250 21/16 A2985 RMK SC4CI1 SLP110 DENSITY ALT 1200FT

CYGK;2017-10-08 21:00;CYGK 082100Z 23011G17KT 15SM FEW035 FEW100 BKN250 20/16 A2986 RMK CU2AC1CI3 AC TR SLP113 DENSITY ALT 1100FT

CYGK;2017-10-08 22:00;CYGK 082200Z 24008KT 15SM FEW100 BKN250 20/15 A2988 RMK AC1CI6 AC TR SLP119 DENSITY ALT 1000FT

CYGK;2017-10-08 23:00;CYGK 082300Z 24005KT 15SM BKN250 19/15 A2989 RMK CI6 SLP125 DENSITY ALT 900FT

CYGK;2017-10-09 00:00;CYGK 090000Z 27005KT 220V280 15SM BKN250 18/15 A2991 RMK CI6 SLP129 DENSITY ALT 700FT

CYGK;2017-10-09 01:00;CYGK 090100Z 24004KT 15SM OVC250 17/16 A2992 RMK CI8 SLP134 DENSITY ALT 700FT

CYGK;2017-10-09 02:00;CYGK 090200Z 25004KT 15SM FEW160 OVC240 17/15 A2994 RMK AC1CI7 SLP141 DENSITY ALT 700FT

CYGK;2017-10-09 03:00;CYGK 090300Z 17006KT 15SM FEW160 OVC250 17/16 A2995 RMK AC1CI7 LAST STFD OBS/NEXT 091000 UTC SLP143 DENSITY ALT 600FT

CYGK;2017-10-09 10:00;CYGK 091000Z 11007KT 8SM -RA FEW006 OVC070 17/17 A2987 RMK SF1NS7 SLP117 DENSITY ALT 700FT

CYGK;2017-10-09 10:39;CYGK 091039Z 10007KT 4SM -RA BR BKN005 OVC046 17/17 A2986 RMK SF5NS3 PRESFR SLP114 DENSITY ALT 700FT

CYGK;2017-10-09 10:48;CYGK 091048Z 10010KT 3SM -RA BR SCT005 OVC064 17/17 A2986 RMK SF3NS5 SLP112 DENSITY ALT 700FT

CYGK;2017-10-09 11:00;CYGK 091100Z 08012KT 3SM -RA BR SCT005 OVC064 17/17 A2984 RMK SF3NS5 PRESFR SLP107 DENSITY ALT 700FT

CYGK;2017-10-09 11:25;CYGK 091125Z 10009KT 2 1/2SM RA BR SCT005 OVC050 17/17 A2987 RMK SF4NS4 SLP116 DENSITY ALT 700FT

CYGK;2017-10-09 12:00;CYGK 091200Z 08011KT 2 1/2SM RA BR SCT005 OVC036 16/16 A2984 RMK SF3NS5 PRESFR SLP108 DENSITY ALT 700FT

CYGK;2017-10-09 12:19;CYGK 091219Z 09010KT 2 1/2SM -RA BR FEW005 OVC058 16/16 A2984 RMK SF2NS6 SLP105 DENSITY ALT 700FT

CYGK;2017-10-09 12:42;CYGK 091242Z 06010KT 2 1/2SM -RA BR BKN005 OVC057 16/16 A2985 RMK SF5NS3 SLP110 DENSITY ALT 700FT

CYGK;2017-10-09 13:00;CYGK 091300Z 07008KT 6SM -RA BR BKN006 OVC057 16/16 A2986 RMK SF5NS3 PRESRR SLP114 DENSITY ALT 600FT

CYGK;2017-10-09 13:07;CYGK 091307Z 07010KT 2 1/2SM RA BR SCT005 OVC055 16/16 A2985 RMK SF4NS4 SLP110 DENSITY ALT 600FT

CYGK;2017-10-09 13:24;CYGK 091324Z 06012KT 4SM -RA BR SCT005 SCT035 OVC053 16/15 A2985 RMK SF3SC1NS4 SLP111 DENSITY ALT 600FT

CYGK;2017-10-09 13:38;CYGK 091338Z 06010KT 2SM RA BR FEW005 SCT035 OVC052 16/15 A2985 RMK SF2SC2NS4 SLP110 DENSITY ALT 600FT

CYGK;2017-10-09 13:47;CYGK 091347Z 05014KT 5SM -RA BR FEW005 SCT040 OVC058 15/15 A2984 RMK SF2SC2NS4 PRESFR SLP105 DENSITY ALT 500FT

CYGK;2017-10-09 14:00;CYGK 091400Z 04012KT 4SM -RA BR FEW005 SCT040 OVC053 15/15 A2983 RMK SF2SC1NS5 SLP104 DENSITY ALT 500FT

CYGK;2017-10-09 14:20;CYGK 091420Z 04009KT 2 1/2SM RA BR FEW009 SCT040 OVC050 15/15 A2984 RMK SF2SC1NS5 SLP108 DENSITY ALT 500FT

CYGK;2017-10-09 15:00;CYGK 091500Z 05013G20KT 2SM RA BR SCT004 SCT035 OVC048 15/14 A2979 RMK SF3SC1NS4 PRESFR SLP091 DENSITY ALT 500FT

CYGK;2017-10-09 16:00;CYGK 091600Z 03010G16KT 4SM -RA BR FEW005 OVC048 15/15 A2978 RMK SF2NS6 SLP088 DENSITY ALT 600FT

CYGK;2017-10-09 17:00;CYGK 091700Z 04011G23KT 020V080 8SM -RA BKN007 BKN080 16/16 A2974 RMK SF5AC2 SLP072 DENSITY ALT 800FT

CYGK;2017-10-09 17:21;CYGK 091721Z 01010KT 360V060 15SM BKN008 OVC080 17/17 A2975 RMK SF7AC1 SLP078 DENSITY ALT 800FT

CYGK;2017-10-09 18:00;CYGK 091800Z 01010KT 350V050 15SM OVC008 17/17 A2976 RMK SC8 SLP078 DENSITY ALT 900FT

CYGK;2017-10-09 19:00;CYGK 091900Z 35015KT 15SM OVC008 17/16 A2977 RMK SF8 SLP082 DENSITY ALT 900FT

CYGK;2017-10-09 20:00;CYGK 092000Z 35013G20KT 15SM OVC010 18/16 A2978 RMK SF8 SLP088 DENSITY ALT 900FT

CYGK;2017-10-09 21:00;CYGK 092100Z 36010G17KT 15SM OVC011 17/16 A2981 RMK SC8 SLP098 DENSITY ALT 800FT

CYGK;2017-10-09 22:00;CYGK 092200Z 34009KT 15SM BKN011 BKN100 17/16 A2986 RMK SC7AC1 AC TR PRESRR SLP112 DENSITY ALT 800FT

CYGK;2017-10-09 22:30;CYGK 092230Z 02006KT 15SM SCT011 BKN100 17/16 A2987 RMK SC4AC1 SLP117 DENSITY ALT 700FT

CYGK;2017-10-09 23:00;CYGK 092300Z 33003KT 15SM FEW012 SCT030 SCT100 16/15 A2989 RMK SC1SC2AC1 SLP124 DENSITY ALT 600FT

CYGK;2017-10-10 00:00;CYGK 100000Z 00000KT 15SM SCT028 15/15 A2992 RMK SC3 SLP135 DENSITY ALT 400FT

CYGK;2017-10-10 01:00;CYGK 100100Z 16003KT 15SM FEW027 14/14 A2994 RMK SC1 SC TR SLP141

CYGK;2017-10-10 02:00;CYGK 100200Z 18003KT 15SM SCT035 15/15 A2996 RMK SC3 SLP149 DENSITY ALT 400FT

CYGK;2017-10-10 03:00;CYGK 100300Z 18006KT 15SM BKN032 17/17 A2998 RMK SC6 LAST STFD OBS/NEXT 101000 UTC SLP154 DENSITY ALT 600FT

CYGK;2017-10-10 10:00;CYGK 101000Z 29009KT 15SM SKC 14/14 A3003 RMK SLP171

CYGK;2017-10-10 11:00;CYGK 101100Z 29007KT 15SM FEW020 14/13 A3004 RMK SC1 SC TR SLP175

CYGK;2017-10-10 12:00;CYGK 101200Z 28007KT 15SM FEW010 FEW020 FEW030 14/14 A3006 RMK SF1CU1SC1 SF TR CU TR SC TR SLP181

CYGK;2017-10-10 12:13;CYGK 101213Z 29006KT 15SM FEW005 FEW020 FEW030 14/14 A3007 RMK SF1CU1SC1 CU TR SC TR LO CLD APCHG FM N SLP184

CYGK;2017-10-10 13:00;CYGK 101300Z 28004KT 15SM FEW002 FEW020 FEW250 15/14 A3008 RMK SF1CU1CI1 CU TR SLP187

CYGK;2017-10-10 14:00;CYGK 101400Z 24004KT 230V300 15SM FEW004 FEW020 FEW250 16/14 A3009 RMK SF1CU1CI1 SF TR CU TR SLP191

CYGK;2017-10-10 15:00;CYGK 101500Z 23004KT 15SM FEW004 FEW020 FEW250 17/15 A3009 RMK SF1CU1CI1 SF TR CU TR SLP192 DENSITY ALT 500FT

CYGK;2017-10-10 16:00;CYGK 101600Z 23009KT 15SM FEW020 SCT250 19/15 A3009 RMK CU1CI4 CU TR SLP192 DENSITY ALT 700FT

CYGK;2017-10-10 17:00;CYGK 101700Z 24009KT 15SM FEW030 FEW250 21/16 A3010 RMK CU1CI2 CU TR SLP193 DENSITY ALT 900FT

CYGK;2017-10-10 18:00;CYGK 101800Z 23009KT 15SM FEW030 FEW250 22/15 A3008 RMK CU1CI2 CU TR SLP188 DENSITY ALT 1000FT

CYGK;2017-10-10 19:00;CYGK 101900Z 30009G15KT 15SM FEW030 SCT170 22/16 A3009 RMK CU1AC3 SLP191 DENSITY ALT 1000FT

CYGK;2017-10-10 20:00;CYGK 102000Z 29009KT 15SM FEW030TCU FEW150 FEW250 21/15 A3009 RMK TCU1AC1CI1 TCU TR AC TR TCU NE SLP191 DENSITY ALT 900FT

CYGK;2017-10-10 21:00;CYGK 102100Z 29006KT 15SM FEW020 FEW270 20/15 A3009 RMK CU1CI2 CU TR TCU TOP E SLP192 DENSITY ALT 800FT

CYGK;2017-10-10 22:00;CYGK 102200Z 24006KT 15SM FEW150 SCT270 19/15 A3010 RMK AC1CI4 AC TR SLP196 DENSITY ALT 600FT

CYGK;2017-10-10 23:00;CYGK 102300Z 24003KT 15SM SCT270 17/14 A3011 RMK CI3 SLP197 DENSITY ALT 400FT

CYGK;2017-10-11 00:00;CYGK 110000Z 21005KT 15SM BKN270 17/16 A3011 RMK CI5 SLP199 DENSITY ALT 500FT

CYGK;2017-10-11 01:00;CYGK 110100Z 23004KT 15SM BKN270 17/17 A3012 RMK CI5 SLP203 DENSITY ALT 400FT

CYGK;2017-10-11 02:00;CYGK 110200Z 27005KT 15SM SCT270 16/15 A3014 RMK CI4 SLP209

CYGK;2017-10-11 03:00;CYGK 110300Z 32007KT 15SM SCT047 BKN250 15/14 A3014 RMK SC4CI2 LAST STFD OBS / NEXT 111000 UTC SLP207

CYGK;2017-10-11 10:00;CYGK 111000Z 02014G23KT 15SM BKN160 11/04 A3021 RMK AC7 SLP233

CYGK;2017-10-11 11:00;CYGK 111100Z 03009G20KT 15SM BKN150 BKN220 10/04 A3023 RMK AC7CI1 CI TR SLP238

CYGK;2017-10-11 12:00;CYGK 111200Z 03011G17KT 15SM BKN150 10/03 A3024 RMK AC7 SLP242

CYGK;2017-10-11 13:00;CYGK 111300Z 03008G15KT 15SM BKN130 OVC200 10/04 A3028 RMK AC6CI2 SLP255

CYGK;2017-10-11 13:52;CYGK 111352Z 04012G18KT 15SM -RA BKN090 OVC220 10/04 A3027 RMK AC7CI1 SLP254

CYGK;2017-10-11 14:00;CYGK 111400Z 04011G20KT 15SM -RA BKN085 OVC220 10/04 A3027 RMK AC7CI1 SLP254

CYGK;2017-10-11 14:52;CYGK 111452Z 02009G18KT 15SM BKN100 OVC120 10/04 A3029 RMK AC6AC2 SLP259

CYGK;2017-10-11 15:00;CYGK 111500Z 04013G19KT 15SM BKN100 OVC120 10/04 A3029 RMK AC6AC2 SLP260

CYGK;2017-10-11 16:00;CYGK 111600Z 04012G18KT 15SM BKN100 OVC150 11/04 A3029 RMK AC5AC3 SLP260

CYGK;2017-10-11 17:00;CYGK 111700Z 04012G19KT 15SM FEW040 BKN110 OVC140 10/04 A3028 RMK SC1AC6AC2 SC TR SLP258

CYGK;2017-10-11 17:38;CYGK 111738Z 02013G19KT 12SM -RA FEW040 OVC080 09/04 A3027 RMK CU1AC8 CU TR SLP253

CYGK;2017-10-11 18:00;CYGK 111800Z 03011G21KT 11SM -RA FEW040 BKN080 OVC095 08/05 A3026 RMK CU1AC5AC3 CU TR SLP251

CYGK;2017-10-11 19:00;CYGK 111900Z 02008G16KT 11SM -RA FEW010 BKN075 OVC100 09/06 A3026 RMK CF1AC5AC3 CF TR SLP251

CYGK;2017-10-11 20:00;CYGK 112000Z 04012G17KT 10SM -RA OVC080 08/06 A3028 RMK AC8 SLP256

CYGK;2017-10-11 21:00;CYGK 112100Z 04011KT 10SM -RA FEW060 OVC080 08/06 A3028 RMK SC2AC6 SLP257

CYGK;2017-10-11 22:00;CYGK 112200Z 03011G17KT 10SM -RA FEW010 FEW060 OVC090 08/06 A3027 RMK CF1SC1AC7 CF TR SLP253

CYGK;2017-10-11 23:00;CYGK 112300Z 04012G18KT 10SM -RA FEW010 FEW080 OVC110 08/05 A3028 RMK CF1AC1AC6 SLP256

CYGK;2017-10-11 23:34;CYGK 112334Z 03012G21KT 10SM OVC090 08/04 A3029 RMK AC8 SLP260

CYGK;2017-10-12 00:00;CYGK 120000Z 04011G19KT 15SM FEW010 OVC093 08/04 A3029 RMK CF1AC7 SLP260

CYGK;2017-10-12 01:00;CYGK 120100Z 04012G18KT 15SM SCT100 OVC120 09/04 A3029 RMK AC4AC4 SLP262

CYGK;2017-10-12 02:00;CYGK 120200Z 04011KT 15SM BKN110 OVC140 09/04 A3032 RMK AC5AC3 SLP270

CYGK;2017-10-12 03:00;CYGK 120300Z 04010G19KT 15SM FEW077 BKN140 OVC230 09/04 A3032 RMK AC2AC3CI3 LAST STFD OBS/NEXT 121000 UTC SLP272

CYGK;2017-10-12 10:00;CYGK 121000Z 05013KT 15SM SCT060 07/02 A3036 RMK SC3 SLP284

CYGK;2017-10-12 11:00;CYGK 121100Z 04009KT 15SM SCT060 06/02 A3036 RMK SC4 SLP286

CYGK;2017-10-12 12:00;CYGK 121200Z 04012G17KT 15SM SCT050 06/02 A3037 RMK SC4 SLP289

CYGK;2017-10-12 13:00;CYGK 121300Z 05013KT 15SM SCT055 07/02 A3039 RMK SC4 SLP294

CYGK;2017-10-12 14:00;CYGK 121400Z CCA 05015KT 15SM BKN060 09/03 A3040 RMK SC5 WND ESTD SLP298

CYGK;2017-10-12 15:00;CYGK 121500Z 05011KT 15SM SCT060 BKN250 12/05 A3040 RMK SC3CI2 SLP299

CYGK;2017-10-12 16:00;CYGK 121600Z 05009KT 15SM FEW030 SCT055 SCT250 13/06 A3040 RMK SC1SC3CI1 SC TR SLP297

CYGK;2017-10-12 17:00;CYGK 121700Z 05008KT 15SM FEW030 SCT055 BKN250 15/08 A3039 RMK CU1SC4CI1 CU TR SLP294

CYGK;2017-10-12 18:00;CYGK 121800Z 07007KT 350V100 15SM FEW030 SCT058 16/08 A3037 RMK CU1SC3 CU TR SLP288

CYGK;2017-10-12 19:00;CYGK 121900Z 05009KT 15SM FEW030 FEW058 FEW250 17/08 A3035 RMK CU1SC1CI1 CU TR CI TR SLP280

CYGK;2017-10-12 20:00;CYGK 122000Z 09011KT 050V120 15SM FEW030 FEW060 FEW250 17/08 A3034 RMK SC1SC1CI1 SC TR SLP277

CYGK;2017-10-12 21:00;CYGK 122100Z 06008KT 15SM FEW055 FEW250 16/08 A3033 RMK SC1CI1 CI TR SLP274

CYGK;2017-10-12 22:00;CYGK 122200Z 06008KT 15SM FEW060 FEW250 15/08 A3033 RMK SC1CI1 SLP273

CYGK;2017-10-12 23:00;CYGK 122300Z 06006KT 15SM FEW050 FEW250 12/07 A3033 RMK SC1CI1 CI TR SLP276

CYGK;2017-10-13 00:00;CYGK 130000Z 08005KT 15SM FEW050 11/07 A3034 RMK SC1 SLP278

CYGK;2017-10-13 01:00;CYGK 130100Z 07008KT 15SM FEW058 11/06 A3034 RMK SC1 SLP278

CYGK;2017-10-13 02:00;CYGK 130200Z 06005KT 15SM FEW055 10/06 A3034 RMK SC1 SC TR SLP277

CYGK;2017-10-13 03:00;CYGK 130300Z 07007KT 15SM FEW050 09/06 A3033 RMK SC1 SC TR LAST STFD OBS/NEXT 131000 UTC SLP275

CYGK;2017-10-13 10:00;CYGK 131000Z 16020G25KT 15SM SCT071 OVC096 14/08 A3032 RMK AC3AC5 SLP270

CYGK;2017-10-13 11:00;CYGK 131100Z 16020G26KT 15SM BKN072 BKN095 14/09 A3032 RMK AC5AC2 SLP269

CYGK;2017-10-13 12:00;CYGK 131200Z 16019G28KT 15SM FEW025 SCT037 BKN068 13/09 A3032 RMK CF1SC4AC3 CF TR SLP269

CYGK;2017-10-13 13:00;CYGK 131300Z 15018G25KT 15SM FEW010 BKN033 OVC070 13/08 A3031 RMK SF1SC7AC1 SF TR SLP267

CYGK;2017-10-13 14:00;CYGK 131400Z 17018G25KT 15SM BKN033 BKN070 13/08 A3030 RMK SC6AC1 SLP264

CYGK;2017-10-13 15:00;CYGK 131500Z 17018G26KT 15SM SCT033 BKN087 13/08 A3029 RMK SC4AC3 SLP262

CYGK;2017-10-13 16:00;CYGK 131600Z 16016G22KT 15SM FEW033 SCT050 BKN090 14/09 A3028 RMK SC1SC3AC3 SLP256

CYGK;2017-10-13 17:00;CYGK 131700Z 17015G22KT 15SM FEW025 OVC032 14/09 A3026 RMK CU1SC7 SLP252

CYGK;2017-10-13 18:00;CYGK 131800Z 17014G21KT 15SM FEW025 BKN035 15/09 A3025 RMK CU1SC6 SLP246

CYGK;2017-10-13 19:00;CYGK 131900Z 17013KT 15SM FEW025 OVC035 15/10 A3023 RMK CU2SC6 SLP239

CYGK;2017-10-13 20:00;CYGK 132000Z 17014G19KT 15SM FEW025 OVC035 16/11 A3021 RMK CF1SC8 CF TR SLP232

CYGK;2017-10-13 21:00;CYGK 132100Z 18015G21KT 15SM OVC035 16/12 A3020 RMK SC8 SLP228

CYGK;2017-10-13 22:00;CYGK 132200Z 18014G20KT 15SM OVC038 17/13 A3020 RMK SC8 SLP228

CYGK;2017-10-13 23:00;CYGK 132300Z 18018G25KT 15SM OVC038 17/13 A3019 RMK SC8 SLP227

CYGK;2017-10-14 00:00;CYGK 140000Z 18015G21KT 15SM OVC037 17/13 A3019 RMK SC8 SLP227

CYGK;2017-10-14 01:00;CYGK 140100Z 19019G26KT 15SM OVC037 17/13 A3019 RMK SC8 SLP226

CYGK;2017-10-14 02:00;CYGK 140200Z 19018G25KT 15SM BKN035 OVC080 17/13 A3019 RMK SC6AC2 SLP227

CYGK;2017-10-14 03:00;CYGK 140300Z 20017G22KT 15SM FEW018 BKN035 OVC080 16/14 A3020 RMK SC1SC5AC2 LAST STFD OBS/NEXT 141000 UTC SLP228

CYGK;2017-10-14 10:00;CYGK 141000Z 21006KT 15SM OVC021 16/14 A3018 RMK SC8 SLP223

CYGK;2017-10-14 11:00;CYGK 141100Z 20009KT 15SM OVC017 16/14 A3019 RMK SC8 SLP224

CYGK;2017-10-14 12:00;CYGK 141200Z 21008KT 15SM OVC016 16/14 A3019 RMK SC8 SLP226

CYGK;2017-10-14 13:00;CYGK 141300Z 21011KT 15SM OVC016 16/14 A3021 RMK SC8 SLP233

CYGK;2017-10-14 14:00;CYGK 141400Z 22007KT 15SM OVC015 17/15 A3022 RMK SC8 SLP234

CYGK;2017-10-14 14:22;CYGK 141422Z 23007KT 15SM BKN014 OVC055 17/15 A3022 RMK SC7SC1 SLP235

CYGK;2017-10-14 15:00;CYGK 141500Z 21008KT 15SM OVC012 17/15 A3021 RMK SC8 SLP231

CYGK;2017-10-14 16:00;CYGK 141600Z 21007KT 15SM OVC012 17/15 A3020 RMK SC8 SLP230

CYGK;2017-10-14 17:00;CYGK 141700Z 22006KT 15SM SCT013 OVC065 18/15 A3019 RMK SC4SC4 SLP225 DENSITY ALT 400FT

CYGK;2017-10-14 18:00;CYGK 141800Z 19009KT 15SM BKN012 BKN058 OVC093 18/16 A3017 RMK SC5SC2AC1 SLP218 DENSITY ALT 400FT

CYGK;2017-10-14 19:00;CYGK 141900Z 19009KT 15SM SCT012 OVC050 17/16 A3015 RMK CU3SC5 SLP212 DENSITY ALT 400FT

CYGK;2017-10-14 20:00;CYGK 142000Z 19009KT 12SM FEW015 OVC050 17/16 A3015 RMK CU1SC7 SLP210 DENSITY ALT 400FT

CYGK;2017-10-14 21:00;CYGK 142100Z 20006KT 15SM FEW015 OVC050 17/16 A3015 RMK CU1SC8 CU TR SLP211 DENSITY ALT 400FT

CYGK;2017-10-14 22:00;CYGK 142200Z 22002KT 12SM VCSH OVC045 17/16 A3016 RMK SC8 SLP215

CYGK;2017-10-14 22:16;CYGK 142216Z 19003KT 180V240 10SM -RA OVC048 16/16 A3016 RMK SC8 SLP214

CYGK;2017-10-14 23:00;CYGK 142300Z 13002KT 10SM -RA OVC048 16/16 A3015 RMK SC8 SLP210

CYGK;2017-10-15 00:00;CYGK 150000Z VRB02KT 10SM -RA FEW005 OVC045 16/16 A3014 RMK SF1SC7 SLP209

CYGK;2017-10-15 01:00;CYGK 150100Z VRB02KT 10SM -RA OVC040 16/16 A3013 RMK SC8 SLP206

CYGK;2017-10-15 02:00;CYGK 150200Z 12002KT 12SM -RA BKN050 OVC080 16/16 A3011 RMK SC5AC3 SLP199

CYGK;2017-10-15 03:00;CYGK 150300Z 07003KT 5SM -RA BR BKN030 OVC045 16/16 A3010 RMK SC6SC2 LAST STFD OBS/NEXT 151000 UTC SLP195

CYGK;2017-10-15 10:00;CYGK 151000Z 18017G23KT 15SM BKN010 BKN055 OVC090 16/15 A2984 RMK SF5SC2AC1 PRESFR SLP108 DENSITY ALT 700FT

CYGK;2017-10-15 11:00;CYGK 151100Z 18018G26KT 15SM FEW010 BKN068 BKN140 17/15 A2981 RMK SF2AC3AC2 SLP097 DENSITY ALT 700FT

CYGK;2017-10-15 12:00;CYGK 151200Z 18018G26KT 15SM FEW040 OVC040 17/16 A2978 RMK SF1SC7 SLP088 DENSITY ALT 800FT

CYGK;2017-10-15 13:00;CYGK 151300Z 19016G25KT 15SM BKN032 OVC070 18/16 A2975 RMK SC6AC2 SLP078 DENSITY ALT 900FT

CYGK;2017-10-15 14:00;CYGK 151400Z 19021G26KT 15SM BKN032 OVC070 18/16 A2971 RMK SC5AC3 SLP063 DENSITY ALT 1000FT

CYGK;2017-10-15 15:00;CYGK 151500Z 19021G32KT 15SM BKN036 OVC070 19/16 A2967 RMK SC6AC2 SLP050 DENSITY ALT 1100FT

CYGK;2017-10-15 16:00;CYGK 151600Z 19021G28KT 15SM SCT042 BKN070 20/17 A2965 RMK SC3AC3 SLP043 DENSITY ALT 1300FT

CYGK;2017-10-15 17:00;CYGK 151700Z 19019G25KT 15SM BKN043 OVC100 20/17 A2961 RMK SC7AC1 PRESFR SLP028 DENSITY ALT 1300FT

CYGK;2017-10-15 17:53;CYGK 151753Z 19017G25KT 10SM -RA OVC037 20/17 A2957 RMK SC8 SLP015 DENSITY ALT 1400FT

CYGK;2017-10-15 18:00;CYGK 151800Z 19018G23KT 10SM -RA OVC033 20/18 A2957 RMK SC8 SLP014 DENSITY ALT 1400FT

CYGK;2017-10-15 19:00;CYGK 151900Z 20017G24KT 12SM -RA FEW030 OVC040 20/18 A2954 RMK CU2SC6 SLP004 DENSITY ALT 1500FT

CYGK;2017-10-15 19:26;CYGK 151926Z 20017G23KT 12SM OVC040 20/18 A2954 RMK SC8 SLP003 DENSITY ALT 1500FT

CYGK;2017-10-15 20:00;CYGK 152000Z 20013G20KT 12SM BKN042 OVC100 20/18 A2950 RMK SC6AC2 PRESFR SLP992 DENSITY ALT 1500FT

CYGK;2017-10-15 20:08;CYGK 152008Z 20013KT 8SM -RA OVC042 20/18 A2950 RMK SC8 PRESFR SLP989 DENSITY ALT 1400FT

CYGK;2017-10-15 20:57;CYGK 152057Z 21016G25KT 12SM VCSH FEW030 BKN040 OVC070 21/19 A2950 RMK CU2SC4AC2 WSHFT 2025 SLP989 DENSITY ALT 1600FT

CYGK;2017-10-15 21:00;CYGK 152100Z 21016G24KT 12SM FEW030 BKN040 OVC070 21/19 A2950 RMK CU2SC3AC3 SLP989 DENSITY ALT 1600FT

CYGK;2017-10-15 21:29;CYGK 152129Z 23025G33KT 6SM -SHRA BR OVC038 22/18 A2950 RMK CU8 SLP990 DENSITY ALT 1700FT

CYGK;2017-10-15 21:34;CYGK 152134Z 24029G44KT 8SM -SHRA SCT030 OVC045 21/18 A2952 RMK CU3SC5 PRESRR SLP996 DENSITY ALT 1600FT

CYGK;2017-10-15 22:00;CYGK 152200Z 25017G28KT 15SM VCSH FEW035 OVC060 19/17 A2952 RMK CU2SC6 SLP998 DENSITY ALT 1400FT

CYGK;2017-10-15 23:00;CYGK 152300Z 24017G28KT 15SM FEW030 BKN060 OVC080 19/16 A2955 RMK CU1SC4AC3 SLP008 DENSITY ALT 1300FT

CYGK;2017-10-16 00:00;CYGK 160000Z 25018G28KT 15SM FEW035 SCT050 BKN080 OVC160 18/15 A2959 RMK CU1SC3AC2AC3 CU TR SLP022 DENSITY ALT 1200FT

CYGK;2017-10-16 01:00;CYGK 160100Z 26018G31KT 15SM SCT030 BKN100 BKN160 15/10 A2967 RMK CU3AC2AC1 PRESRR SLP047 DENSITY ALT 800FT

CYGK;2017-10-16 02:00;CYGK 160200Z 26013G20KT 15SM BKN030 13/08 A2973 RMK CU5 PRESRR SLP070 DENSITY ALT 400FT

CYGK;2017-10-16 02:31;CYGK 160231Z 28011G22KT 10SM -RA OVC025 13/08 A2976 RMK SC8 PRESRR SLP081

CYGK;2017-10-16 02:50;CYGK 160250Z 31013G19KT 15SM OVC018 10/09 A2979 RMK SC8 WSHFT 0224 PRESRR SLP091

CYGK;2017-10-16 03:00;CYGK 160300Z 32013G20KT 15SM OVC015 10/08 A2980 RMK SC8 LAST STFD OBS/NEXT 161000 UTC SLP093

CYGK;2017-10-16 10:00;CYGK 161000Z 33008KT 15SM BKN035 05/02 A3006 RMK SC6 SLP184

CYGK;2017-10-16 11:00;CYGK 161100Z 32005KT 15SM FEW025 SCT035 SCT100 04/01 A3009 RMK CU1SC4AC1 CU TR AC TR SLP194

CYGK;2017-10-16 12:00;CYGK 161200Z CCA 33007KT 15SM FEW023 BKN035 05/02 A3012 RMK CU1SC7 CU TR VCSH SLP201

CYGK;2017-10-16 12:06;CYGK 161206Z 35013KT 15SM -SHRA FEW020 BKN030 05/02 A3012 RMK CU1SC7 CU TR CVCTV CLD EMBD SLP203

CYGK;2017-10-16 12:24;CYGK 161224Z 33009KT 15SM FEW020 BKN035 BKN045 05/02 A3012 RMK CU1SC5SC1 CU TR SC TR VCSH SLP204

CYGK;2017-10-16 13:00;CYGK 161300Z 35011G19KT 15SM FEW020 BKN035 06/01 A3014 RMK CU2SC4 SLP210

CYGK;2017-10-16 14:00;CYGK 161400Z 33009KT 15SM SCT026 BKN035 BKN050 07/01 A3015 RMK CU4SC2SC1 SC TR SLP213

CYGK;2017-10-16 15:00;CYGK 161500Z 35007KT 15SM VCSH FEW025 OVC037 06/00 A3015 RMK CU2SC6 SLP215

CYGK;2017-10-16 16:00;CYGK 161600Z 34006KT 280V010 15SM VCSH FEW025 BKN042 07/00 A3016 RMK CU1SC6 SLP217

CYGK;2017-10-16 17:00;CYGK 161700Z CCA 30008KT 280V360 15SM VCSH FEW025 SCT038 BKN051 08/M00 A3016 RMK CU1SC3SC3 SLP216

CYGK;2017-10-16 18:00;CYGK 161800Z 28008KT 15SM VCSH SCT043 BKN060 07/01 A3015 RMK SC4SC3 SLP214

CYGK;2017-10-16 18:34;CYGK 161834Z 36011G17KT 310V010 15SM VCSH SCT031 BKN060 07/01 A3015 RMK CU4SC3 WSHFT 1817 SLP214

CYGK;2017-10-16 19:00;CYGK 161900Z 35007KT 15SM VCSH SCT031 BKN054 08/02 A3016 RMK CU3SC4 SLP216

CYGK;2017-10-16 20:00;CYGK 162000Z 31007KT 15SM SCT028 BKN060 08/01 A3017 RMK SC3SC4 SLP222

CYGK;2017-10-16 21:00;CYGK 162100Z 32007KT 270V330 15SM FEW042 BKN060 07/01 A3019 RMK SC2SC5 SLP228

CYGK;2017-10-16 22:00;CYGK 162200Z 32007KT 15SM FEW035 BKN059 07/M00 A3021 RMK CU2SC5 SLP233

CYGK;2017-10-16 23:00;CYGK 162300Z 33006KT 15SM FEW055 05/M02 A3023 RMK SC2 SLP240

CYGK;2017-10-17 00:00;CYGK 170000Z 32004KT 15SM FEW055 04/M02 A3024 RMK SC1 SLP244

CYGK;2017-10-17 01:00;CYGK 170100Z 30004KT 15SM SKC 01/M03 A3024 RMK SLP247

CYGK;2017-10-17 02:00;CYGK 170200Z 33003KT 15SM SKC 02/M01 A3025 RMK SLP247

CYGK;2017-10-17 03:00;CYGK 170300Z 33003KT 15SM SKC 01/M01 A3026 RMK LAST STFD OBS / NEXT 171000 UTC SLP251

CYGK;2017-10-17 10:00;CYGK 171000Z 21007KT 15SM SKC 03/00 A3024 RMK SLP246

CYGK;2017-10-17 11:00;CYGK 171100Z 22011KT 15SM FEW012 FEW100 08/02 A3024 RMK CU1AC1 CU TR SLP244

CYGK;2017-10-17 12:00;CYGK 171200Z 23012G18KT 15SM FEW012 FEW100 SCT250 09/04 A3024 RMK CU1AC1CI2 AC TR SLP243

CYGK;2017-10-17 13:00;CYGK 171300Z 21014KT 15SM FEW024 FEW100 BKN250 10/04 A3024 RMK CU1AC1CI5 CU TR AC TR SLP244

CYGK;2017-10-17 14:00;CYGK 171400Z 20015G20KT 15SM FEW024 FEW100 BKN250 11/04 A3023 RMK CU1AC1CI5 CU TR VIRGA SLP242

CYGK;2017-10-17 15:00;CYGK 171500Z 20016G23KT 15SM FEW025 BKN130 BKN250 12/05 A3020 RMK SF1AC6CI1 SF TR SLP232

CYGK;2017-10-17 16:00;CYGK 171600Z 20018G25KT 15SM SCT040 BKN140 BKN250 13/07 A3018 RMK SC3AC3CI1 CI TR SLP226

CYGK;2017-10-17 17:00;CYGK 171700Z 20021G26KT 15SM FEW040 SCT120 BKN250 14/07 A3015 RMK CU2AC2CI1 SLP215

CYGK;2017-10-17 18:00;CYGK 171800Z 21021G27KT 15SM SCT040 SCT120 BKN250 15/07 A3012 RMK CU3AC1CI2 SLP202

CYGK;2017-10-17 19:00;CYGK 171900Z 22018G26KT 15SM BKN048 BKN250 15/08 A3010 RMK SC6CI1 SLP197

CYGK;2017-10-17 20:00;CYGK 172000Z 21018G24KT 15SM FEW042 FEW250 15/08 A3008 RMK CU2CI1 CI TR SLP190

CYGK;2017-10-17 21:00;CYGK 172100Z 20019KT 15SM FEW042 FEW250 15/09 A3006 RMK CU1CI1 SLP182

CYGK;2017-10-17 22:00;CYGK 172200Z 22014G21KT 15SM FEW040 SCT250 15/09 A3006 RMK CF1CI3 CF TR SLP182

CYGK;2017-10-17 23:00;CYGK 172300Z 23014KT 15SM SCT250 15/09 A3007 RMK CI3 SLP186

CYGK;2017-10-18 00:00;CYGK 180000Z 22015G20KT 15SM FEW250 15/09 A3007 RMK CI2 SLP186

CYGK;2017-10-18 01:00;CYGK 180100Z 22015G21KT 15SM FEW250 15/09 A3007 RMK CI2 SLP187

CYGK;2017-10-18 02:00;CYGK 180200Z 23014G23KT 15SM FEW160 15/10 A3008 RMK AC2 SLP190

CYGK;2017-10-18 03:00;CYGK 180300Z 24013G20KT 15SM FEW160 15/11 A3009 RMK AC2 LAST STFD OBS/NEXT 181000 UTC SLP191

CYGK;2017-10-18 10:00;CYGK 181000Z 24004KT 15SM SKC 11/09 A3018 RMK SLP222

CYGK;2017-10-18 11:00;CYGK 181100Z 28002KT 15SM SCT250 10/09 A3019 RMK CI3 SLP227

CYGK;2017-10-18 12:00;CYGK 181200Z 00000KT 15SM FEW250 08/08 A3021 RMK CI2 SLP234

CYGK;2017-10-18 14:00;CYGK 181400Z 20006KT 15SM FEW030 FEW250 15/10 A3025 RMK CU1CI1 CU TR SLP246

CYGK;2017-10-18 15:00;CYGK 181500Z 24004KT 15SM FEW020 FEW250 16/10 A3024 RMK CU1CI1 CU TR VIA CYXU SLP243

CYGK;2017-10-18 16:00;CYGK 181600Z 19012KT 15SM FEW030 FEW250 17/13 A3024 RMK CU1CI1 CU TR SLP243

CYGK;2017-10-18 17:00;CYGK 181700Z 19013KT 15SM FEW025 FEW250 17/12 A3022 RMK CU1CI1 CU TR SLP237

CYGK;2017-10-18 18:00;CYGK 181800Z 19013KT 15SM FEW030 FEW250 17/12 A3020 RMK CU1CI1 CU TR SLP228 DENSITY ALT 400FT

CYGK;2017-10-18 19:00;CYGK 181900Z 18012KT 15SM FEW025 FEW250 17/13 A3019 RMK CU1CI1 CU TR CI TR SLP226

CYGK;2017-10-18 20:00;CYGK 182000Z 20011G16KT 15SM FEW250 18/13 A3017 RMK CI1 CI TR SLP221 DENSITY ALT 400FT

CYGK;2017-10-18 21:00;CYGK 182100Z 20008KT 15SM SKC 17/13 A3017 RMK SLP218 DENSITY ALT 400FT

CYGK;2017-10-18 22:00;CYGK 182200Z 20008KT 15SM SKC 15/12 A3016 RMK SLP215

CYGK;2017-10-18 23:00;CYGK 182300Z 19009KT 15SM SKC 15/12 A3016 RMK SLP216

CYGK;2017-10-19 00:00;CYGK 190000Z 18007KT 15SM SKC 15/13 A3015 RMK SLP214

CYGK;2017-10-19 01:00;CYGK 190100Z 19006KT 15SM SKC 15/12 A3014 RMK SLP208

CYGK;2017-10-19 02:00;CYGK 190200Z 21006KT 15SM SKC 15/12 A3012 RMK SLP203

CYGK;2017-10-19 03:00;CYGK 190300Z 18006KT 15SM SKC 15/13 A3011 RMK LAST STFD OBS/NEXT 191000 UTC SLP199

CYGK;2017-10-19 10:00;CYGK 191000Z 20014G20KT 15SM SKC 15/10 A3005 RMK SLP178

CYGK;2017-10-19 11:00;CYGK 191100Z CCA 21014G19KT 15SM FEW025 FEW250 15/10 A3003 RMK SC1CI1 SC TR SLP172

CYGK;2017-10-19 12:00;CYGK 191200Z 21014G21KT 15SM FEW150 FEW250 15/09 A3003 RMK AC1CI1 SLP170

CYGK;2017-10-19 13:00;CYGK 191300Z 20018KT 15SM SCT250 16/09 A3001 RMK CI4 SLP165 DENSITY ALT 400FT

CYGK;2017-10-19 14:00;CYGK 191400Z 21017G24KT 15SM BKN250 16/10 A3000 RMK CI6 SLP162 DENSITY ALT 500FT

CYGK;2017-10-19 15:00;CYGK 191500Z 20018G26KT 15SM SCT200 BKN250 16/10 A2999 RMK CC3CI3 SLP157 DENSITY ALT 500FT

CYGK;2017-10-19 16:00;CYGK 191600Z 21017G26KT 15SM FEW025 FEW200 BKN250 18/11 A2998 RMK CU1CC1CI5 CU TR SLP156 DENSITY ALT 700FT

CYGK;2017-10-19 17:00;CYGK 191700Z 22016G25KT 15SM FEW035 BKN250 18/11 A2997 RMK CU1CI6 SLP150 DENSITY ALT 700FT

CYGK;2017-10-19 18:00;CYGK 191800Z 22017G25KT 15SM FEW035 BKN230 18/11 A2994 RMK SC2CI5 SLP139 DENSITY ALT 700FT

CYGK;2017-10-19 19:00;CYGK 191900Z 24019G26KT 15SM FEW035 BKN230 18/11 A2992 RMK SC2CI5 SLP132 DENSITY ALT 800FT

CYGK;2017-10-19 20:00;CYGK 192000Z 24022G31KT 15SM SCT034 BKN250 19/12 A2991 RMK CU4CI3 SLP131 DENSITY ALT 900FT

CYGK;2017-10-19 21:00;CYGK 192100Z 24016G25KT 15SM FEW035 BKN240 18/13 A2991 RMK SC1CI6 SLP130 DENSITY ALT 800FT

CYGK;2017-10-19 22:00;CYGK 192200Z 24013G22KT 15SM FEW035 BKN240 18/12 A2992 RMK SC1CI7 SC TR SLP135 DENSITY ALT 700FT

CYGK;2017-10-19 23:00;CYGK 192300Z 25012G19KT 15SM FEW060 BKN250 17/10 A2995 RMK SC1CI7 SC TR SLP143 DENSITY ALT 700FT

CYGK;2017-10-20 00:00;CYGK 200000Z 26006KT 15SM FEW060 BKN250 16/10 A2998 RMK SC1CI7 SC TR SLP153 DENSITY ALT 400FT

CYGK;2017-10-20 01:00;CYGK 200100Z 28009G16KT 15SM FEW040 BKN250 15/04 A3001 RMK SC1CI6 SLP163

CYGK;2017-10-20 02:00;CYGK 200200Z 27010KT 15SM FEW040 BKN250 14/01 A3001 RMK SC1CI6 SLP165

CYGK;2017-10-20 03:00;CYGK 200300Z 26005KT 15SM FEW040 BKN250 13/02 A3002 RMK SC1CI6 LAST STFD OBS/NEXT 201000 UTC SLP168

CYGK;2017-10-20 10:00;CYGK 201000Z 26006KT 15SM FEW250 10/04 A3012 RMK CI2 SLP203

CYGK;2017-10-20 11:00;CYGK 201100Z 27009KT 15SM FEW250 09/04 A3015 RMK CI1 SLP212

CYGK;2017-10-20 12:00;CYGK 201200Z 28006KT 15SM FEW250 09/04 A3018 RMK CI1 SLP222

CYGK;2017-10-20 13:00;CYGK 201300Z 28007KT 15SM FEW250 11/05 A3020 RMK CI1 SLP230

CYGK;2017-10-20 14:00;CYGK 201400Z 28007KT 15SM FEW250 13/04 A3021 RMK CI1 SLP234

CYGK;2017-10-20 15:00;CYGK 201500Z 26007KT 15SM FEW250 14/03 A3022 RMK CI1 SLP235

CYGK;2017-10-20 16:00;CYGK 201600Z 24008KT 15SM FEW250 16/05 A3021 RMK CI1 SLP234

CYGK;2017-10-20 17:00;CYGK 201700Z 24007KT 190V250 15SM FEW250 17/04 A3019 RMK CI1 SLP227

CYGK;2017-10-20 18:00;CYGK 201800Z 18010KT 15SM FEW250 17/07 A3018 RMK CI1 CI TR SLP221

CYGK;2017-10-20 19:00;CYGK 201900Z 19015KT 15SM FEW250 16/08 A3017 RMK CI1 SLP220

CYGK;2017-10-20 20:00;CYGK 202000Z 21012KT 15SM FEW250 17/09 A3016 RMK CI1 SLP215 DENSITY ALT 400FT

CYGK;2017-10-20 21:00;CYGK 202100Z 21009KT 15SM FEW250 16/10 A3015 RMK CI1 SLP213

CYGK;2017-10-20 22:00;CYGK 202200Z 22009KT 15SM FEW250 14/08 A3015 RMK CI1 SLP213

CYGK;2017-10-20 23:00;CYGK 202300Z 22008KT 15SM FEW250 14/04 A3015 RMK CI1 SLP214

CYGK;2017-10-21 00:00;CYGK 210000Z 22006KT 15SM FEW250 13/06 A3015 RMK CI1 SLP213

CYGK;2017-10-21 01:00;CYGK 210100Z 22006KT 15SM SKC 13/07 A3015 RMK SLP212

CYGK;2017-10-21 02:00;CYGK 210200Z 20007KT 15SM SKC 13/10 A3015 RMK SLP214

CYGK;2017-10-21 03:00;CYGK 210300Z 20006KT 15SM SKC 13/11 A3017 RMK LAST STFD OBS / NEXT 211000 UTC SLP218

CYGK;2017-10-21 10:00;CYGK 211000Z 21008KT 15SM SKC 13/10 A3023 RMK SLP238

CYGK;2017-10-21 11:00;CYGK 211100Z 20008KT 15SM FEW250 13/10 A3023 RMK CI1 CI TR SLP241

CYGK;2017-10-21 12:00;CYGK 211200Z 20008KT 15SM FEW250 14/11 A3025 RMK CI2 SLP245

CYGK;2017-10-21 13:00;CYGK 211300Z 21008KT 15SM FEW250 15/11 A3026 RMK CI2 SLP251

CYGK;2017-10-21 14:00;CYGK 211400Z 21010KT 15SM FEW250 17/11 A3027 RMK CI2 SLP253

CYGK;2017-10-21 15:00;CYGK 211500Z 19012KT 15SM SCT250 17/11 A3027 RMK CI3 SLP253

CYGK;2017-10-21 16:00;CYGK 211600Z 19011KT 15SM SCT160 BKN250 17/13 A3027 RMK AC3CI4 SLP252

CYGK;2017-10-21 17:00;CYGK 211700Z 19008KT 15SM SCT180 BKN240 16/12 A3026 RMK AC3CI4 SLP251

CYGK;2017-10-21 18:00;CYGK 211800Z 19009KT 15SM SCT160 OVC250 17/12 A3025 RMK AC3CI5 SLP247

CYGK;2017-10-21 19:00;CYGK 211900Z 19010KT 15SM SCT180 OVC250 17/12 A3025 RMK AC3CI5 SLP247

CYGK;2017-10-21 20:00;CYGK 212000Z 19008KT 15SM SCT160 BKN230 17/12 A3025 RMK AC3CI4 SLP247

CYGK;2017-10-21 21:00;CYGK 212100Z 20007KT 15SM SCT160 BKN250 16/12 A3026 RMK AC3CI4 SLP248

CYGK;2017-10-21 22:00;CYGK 212200Z 17006KT 15SM SCT200 BKN250 15/13 A3025 RMK CI3CI4 SLP247

CYGK;2017-10-21 23:00;CYGK 212300Z 18005KT 15SM BKN240 15/13 A3026 RMK CI6 SLP249

CYGK;2017-10-22 00:00;CYGK 220000Z 22003KT 15SM BKN240 13/12 A3026 RMK CI7 SLP249

CYGK;2017-10-22 01:00;CYGK 220100Z 00000KT 15SM BKN250 12/11 A3026 RMK CI5 SLP251

CYGK;2017-10-22 02:00;CYGK 220200Z 07002KT 15SM SCT250 10/10 A3026 RMK CI3 SLP249

CYGK;2017-10-22 03:00;CYGK 220300Z 09003KT 15SM SCT250 09/08 A3026 RMK CI3 LAST STFD OBS/NEXT 221000 UTC SLP248

CYGK;2017-10-22 10:00;CYGK 221000Z 18008KT 15SM SKC 14/11 A3029 RMK SLP260

CYGK;2017-10-22 11:00;CYGK 221100Z 17009KT 15SM FEW240 15/11 A3029 RMK CI1 SLP258

CYGK;2017-10-22 12:00;CYGK 221200Z 17009KT 15SM FEW150 SCT240 15/11 A3029 RMK AC1CI3 AC TR SLP260

CYGK;2017-10-22 13:00;CYGK 221300Z 18011KT 15SM FEW120 SCT250 16/11 A3029 RMK AC1CI3 SLP260

CYGK;2017-10-22 14:00;CYGK 221400Z 17011KT 15SM FEW210 BKN250 17/11 A3028 RMK CC1CI4 SLP257

CYGK;2017-10-22 15:00;CYGK 221500Z 18010KT 15SM FEW200 BKN250 17/11 A3028 RMK CC1CI6 SLP258

CYGK;2017-10-22 16:00;CYGK 221600Z 19008KT 15SM BKN240 17/11 A3029 RMK CI7 SLP259

CYGK;2017-10-22 17:00;CYGK 221700Z 18007KT 15SM FEW170 BKN240 17/11 A3028 RMK AC1CI6 SLP256

CYGK;2017-10-22 18:00;CYGK 221800Z 17006KT 15SM FEW160 BKN250 17/12 A3026 RMK AC1CI6 SLP250

CYGK;2017-10-22 19:00;CYGK 221900Z 17007KT 15SM FEW160 BKN250 18/11 A3024 RMK AC1CI6 SLP242 DENSITY ALT 400FT

CYGK;2017-10-22 20:00;CYGK 222000Z 17005KT 15SM SCT150 BKN250 18/11 A3022 RMK AC3CI4 SLP237 DENSITY ALT 500FT

CYGK;2017-10-22 21:00;CYGK 222100Z 16003KT 15SM FEW120 BKN220 18/11 A3021 RMK AC2CI4 SLP233 DENSITY ALT 400FT

CYGK;2017-10-22 22:00;CYGK 222200Z 05003KT 15SM BKN220 17/11 A3020 RMK CI6 SLP229

CYGK;2017-10-22 23:00;CYGK 222300Z 08002KT 15SM BKN240 16/10 A3020 RMK CI6 SLP228

CYGK;2017-10-23 00:00;CYGK 230000Z 13006KT 15SM BKN240 18/11 A3020 RMK CI6 SLP229 DENSITY ALT 400FT

CYGK;2017-10-23 01:00;CYGK 230100Z 15006KT 15SM BKN240 18/12 A3020 RMK CI6 SLP229 DENSITY ALT 400FT

CYGK;2017-10-23 02:00;CYGK 230200Z 16010KT 14SM BKN250 18/13 A3020 RMK CI6 SLP228 DENSITY ALT 400FT

CYGK;2017-10-23 03:00;CYGK 230300Z 16012G19KT 15SM SCT250 18/12 A3018 RMK CI3 LAST STFD OBS/NEXT 231000 UTC SLP222 DENSITY ALT 400FT

CYGK;2017-10-23 10:00;CYGK 231000Z 17008KT 15SM FEW240 16/11 A3014 RMK CI2 SLP208

CYGK;2017-10-23 11:00;CYGK 231100Z 17011KT 15SM FEW120 SCT240 16/11 A3014 RMK AC1CI3 AC TR SLP208

CYGK;2017-10-23 12:00;CYGK 231200Z 16010G15KT 15SM FEW150 OVC240 16/12 A3013 RMK AC1CI7 SLP204

CYGK;2017-10-23 13:00;CYGK 231300Z 16011KT 15SM FEW150 BKN250 16/11 A3013 RMK AC2CI5 SLP204

CYGK;2017-10-23 14:00;CYGK 231400Z 16014KT 15SM FEW150 BKN250 16/11 A3010 RMK AC1CI6 PRESFR SLP196 DENSITY ALT 400FT

CYGK;2017-10-23 15:00;CYGK 231500Z 17012G20KT 15SM FEW150 OVC250 17/12 A3010 RMK AC2CI6 SLP195 DENSITY ALT 500FT

CYGK;2017-10-23 16:00;CYGK 231600Z 16014G19KT 15SM FEW040 SCT160 BKN250 18/13 A3007 RMK CU1AC3CI4 CU TR SLP186 DENSITY ALT 600FT

CYGK;2017-10-23 17:00;CYGK 231700Z 16014G19KT 15SM FEW040 OVC250 18/14 A3004 RMK CU1CI7 SLP176 DENSITY ALT 600FT

CYGK;2017-10-23 18:00;CYGK 231800Z 15012KT 15SM FEW040 OVC250 18/14 A3002 RMK CU1CI7 SLP168 DENSITY ALT 700FT

CYGK;2017-10-23 19:00;CYGK 231900Z 15009KT 15SM FEW040 OVC230 18/14 A3000 RMK CF1CI7 SLP160 DENSITY ALT 700FT

CYGK;2017-10-23 20:00;CYGK 232000Z 16010KT 15SM FEW040 OVC250 18/14 A2996 RMK CU1CI7 SLP147 DENSITY ALT 700FT

CYGK;2017-10-23 21:00;CYGK 232100Z 15011KT 15SM FEW060 SCT160 OVC220 18/14 A2994 RMK CU1AC3CI4 SLP139 DENSITY ALT 700FT

CYGK;2017-10-23 22:00;CYGK 232200Z 13007G16KT 15SM FEW060 SCT120 OVC220 18/13 A2991 RMK CU1AC2CI5 SLP131 DENSITY ALT 800FT

CYGK;2017-10-23 23:00;CYGK 232300Z 13011KT 15SM FEW120 OVC220 19/13 A2989 RMK AC1CI7 SLP125 DENSITY ALT 900FT

CYGK;2017-10-24 00:00;CYGK 240000Z 13009KT 15SM FEW042 OVC150 19/14 A2986 RMK CU2AC6 SLP114 DENSITY ALT 1000FT

CYGK;2017-10-24 01:00;CYGK 240100Z 14014G20KT 15SM FEW042 SCT160 OVC200 19/14 A2983 RMK SC1AC3CI4 SLP104 DENSITY ALT 1000FT

CYGK;2017-10-24 02:00;CYGK 240200Z 14014G22KT 15SM OVC150 19/14 A2981 RMK AC8 SLP096 DENSITY ALT 1100FT

CYGK;2017-10-24 03:00;CYGK 240300Z 14016KT 15SM SCT150 OVC240 20/14 A2978 RMK AC4CI4 LAST STFD OBS/NEXT 241000 UTC SLP087 DENSITY ALT 1100FT

CYGK;2017-10-24 10:00;CYGK 241000Z 22008KT 5SM -RA FEW008 OVC015 15/14 A2960 RMK SF2NS6 SLP026 DENSITY ALT 800FT

CYGK;2017-10-24 10:27;CYGK 241027Z 24005KT 210V270 4SM RA BR BKN003 OVC007 15/14 A2960 RMK SF6NS2 VIS VRB 3-5 SLP026 DENSITY ALT 800FT

CYGK;2017-10-24 11:00;CYGK 241100Z 22010KT 4SM -RA BR BKN003 OVC007 15/14 A2962 RMK SF6NS2 VIS VRB 3-5 PRESRR SLP032 DENSITY ALT 700FT

CYGK;2017-10-24 11:25;CYGK 241125Z 23007KT 6SM -RA BR FEW003 BKN007 OVC040 15/14 A2961 RMK SF2SF3NS3 SLP028 DENSITY ALT 700FT

CYGK;2017-10-24 11:50;CYGK 241150Z 22005KT 6SM BR FEW003 BKN007 OVC040 15/14 A2961 RMK SF2SF3ST3 SLP030 DENSITY ALT 700FT

CYGK;2017-10-24 12:00;CYGK 241200Z 21008KT 4SM -RA BR FEW003 BKN007 OVC030 15/14 A2963 RMK SF2SF3NS3 VIS VRB 3-5 PRESRR SLP036 DENSITY ALT 700FT

CYGK;2017-10-24 12:18;CYGK 241218Z 22003KT 8SM -RA FEW003 BKN013 BKN048 15/14 A2962 RMK SF2SF4SC1 PRESFR SLP032 DENSITY ALT 700FT

CYGK;2017-10-24 12:36;CYGK 241236Z 21006KT 4SM -RA BR FEW003 BKN030 OVC048 15/14 A2964 RMK SF2SF5ST1 VIS VRB 3-5 PRESRR SLP039 DENSITY ALT 700FT

CYGK;2017-10-24 13:00;CYGK 241300Z 16005KT 12SM -RA FEW005 SCT020 BKN045 15/15 A2962 RMK SF1CU3SC4 SF TR PRESFR SLP031 DENSITY ALT 800FT

CYGK;2017-10-24 14:00;CYGK 241400Z 16010KT 15SM FEW005 FEW020 BKN076 16/14 A2964 RMK SF1SC1AC6 SF TR SLP038 DENSITY ALT 800FT

CYGK;2017-10-24 15:00;CYGK 241500Z 16012KT 15SM BKN025 BKN080 17/15 A2965 RMK CU5AC1 SLP042 DENSITY ALT 900FT

CYGK;2017-10-24 16:00;CYGK 241600Z 24012G19KT 15SM SCT019 SCT080 17/13 A2965 RMK SC3AC1 CU ASOCTD SLP042 DENSITY ALT 1000FT

CYGK;2017-10-24 17:00;CYGK 241700Z 25008KT 15SM SCT025 SCT080 17/11 A2964 RMK SC3AC1 SLP039 DENSITY ALT 1000FT

CYGK;2017-10-24 18:00;CYGK 241800Z 24004KT 15SM SCT025 BKN048 16/12 A2963 RMK CU3SC4 SLP036 DENSITY ALT 900FT

CYGK;2017-10-24 19:00;CYGK 241900Z 22004KT 200V270 15SM FEW025 BKN050 17/12 A2964 RMK CU2SC5 SLP037 DENSITY ALT 1000FT

CYGK;2017-10-24 20:00;CYGK 242000Z 17005KT 15SM FEW025 BKN045 BKN065 16/12 A2963 RMK CU1SC4SC1 SLP034 DENSITY ALT 900FT

CYGK;2017-10-24 21:00;CYGK 242100Z 16005KT 15SM FEW043 SCT080 16/12 A2963 RMK SC2AC2 SLP034 DENSITY ALT 800FT

CYGK;2017-10-24 22:00;CYGK 242200Z 24004KT 210V280 15SM SCT090 SCT180 14/12 A2965 RMK AC3AC1 SLP043 DENSITY ALT 700FT

CYGK;2017-10-24 23:00;CYGK 242300Z 26006KT 15SM SCT060 BKN180 15/10 A2967 RMK SC4AC2 SLP050 DENSITY ALT 700FT

CYGK;2017-10-25 00:00;CYGK 250000Z 26005KT 15SM SCT060 BKN100 14/09 A2969 RMK ST3AC4 SLP055 DENSITY ALT 600FT

CYGK;2017-10-25 01:00;CYGK 250100Z 27002KT 15SM FEW060 FEW100 BKN160 14/09 A2969 RMK SC1AC1AC3 SLP055 DENSITY ALT 500FT

CYGK;2017-10-25 02:00;CYGK 250200Z 22009KT 15SM SCT082 BKN160 14/10 A2970 RMK AC3AC3 SLP058 DENSITY ALT 600FT

CYGK;2017-10-25 03:00;CYGK 250300Z 23013G20KT 15SM BKN096 15/06 A2969 RMK AC6 LAST STFD OBS/NEXT 251000 UTC SLP057 DENSITY ALT 600FT

CYGK;2017-10-25 10:00;CYGK 251000Z 20020G30KT 15SM FEW036 12/05 A2967 RMK CF1 SLP049

CYGK;2017-10-25 11:00;CYGK 251100Z 21015G24KT 15SM FEW038 FEW050 11/04 A2967 RMK CF1SC1 SLP049

CYGK;2017-10-25 12:00;CYGK 251200Z 21015G22KT 15SM FEW036 FEW080 11/05 A2967 RMK CF1AC1 SLP050

CYGK;2017-10-25 13:00;CYGK 251300Z CCA 21013G20KT 15SM FEW032 SCT080 11/05 A2968 RMK CF2AC1 SLP053

CYGK;2017-10-25 14:00;CYGK 251400Z 22015G24KT 15SM SCT029 BKN052 12/06 A2968 RMK CU3SC2 SLP052

CYGK;2017-10-25 15:00;CYGK 251500Z 22016G22KT 15SM SCT032 BKN046 12/05 A2969 RMK SC4SC3 SLP056 DENSITY ALT 400FT

CYGK;2017-10-25 16:00;CYGK 251600Z 23013G20KT 15SM SCT032 BKN050 13/06 A2970 RMK CU4SC3 SLP058 DENSITY ALT 400FT

CYGK;2017-10-25 17:00;CYGK 251700Z 23015G21KT 15SM SCT036 BKN047 13/06 A2969 RMK CU3SC4 SLP057 DENSITY ALT 400FT

CYGK;2017-10-25 18:00;CYGK 251800Z 22012KT 15SM SCT035 BKN048 12/05 A2969 RMK CU3SC4 SLP055 DENSITY ALT 400FT

CYGK;2017-10-25 19:00;CYGK 251900Z 23012G18KT 15SM FEW040 SCT080 13/04 A2970 RMK SC2AC2 SLP058 DENSITY ALT 400FT

CYGK;2017-10-25 20:00;CYGK 252000Z 23011G18KT 15SM SCT036 BKN073 12/05 A2971 RMK CU3AC3 SLP063

CYGK;2017-10-25 21:00;CYGK 252100Z 23011G16KT 15SM SCT035 BKN076 12/05 A2972 RMK SC3AC3 SLP066

CYGK;2017-10-25 22:00;CYGK 252200Z 22009KT 15SM SCT041 BKN078 11/05 A2974 RMK SC3AC4 SLP075

CYGK;2017-10-25 23:00;CYGK 252300Z 23011G17KT 15SM SCT060 BKN080 12/05 A2977 RMK SC3AC4 SLP084

CYGK;2017-10-26 00:00;CYGK 260000Z 28010KT 15SM FEW035 SCT062 BKN082 11/05 A2978 RMK SC1SC3AC4 SC TR SLP087

CYGK;2017-10-26 01:00;CYGK 260100Z 31003KT 15SM SCT082 09/05 A2977 RMK AC4 SLP084

CYGK;2017-10-26 02:00;CYGK 260200Z 28003KT 15SM FEW082 08/05 A2978 RMK AC2 SLP089

CYGK;2017-10-26 03:00;CYGK 260300Z 29006KT 15SM FEW082 08/05 A2980 RMK AC1 AC TR LAST STFD OBS/NEXT 261000 UTC SLP095

CYGK;2017-10-26 10:00;CYGK 261000Z 34008KT 15SM SKC 03/02 A2982 RMK SLP103

CYGK;2017-10-26 11:00;CYGK 261100Z 34008KT 15SM FEW080 FEW250 03/02 A2984 RMK AC1CI1 AC TR SLP108

CYGK;2017-10-26 12:00;CYGK 261200Z 33007KT 15SM FEW020 FEW055 FEW250 03/02 A2985 RMK CU1SC1CI1 CU TR SC TR SLP113

CYGK;2017-10-26 13:00;CYGK 261300Z 34008KT 15SM FEW020 FEW055 FEW250 05/03 A2985 RMK CU1SC1CI1 CU TR SC TR SLP111

CYGK;2017-10-26 14:00;CYGK 261400Z 34010KT 15SM FEW020 FEW250 07/04 A2984 RMK CU1CI1 CU TR SLP108

CYGK;2017-10-26 15:00;CYGK 261500Z 35007KT 15SM FEW025 FEW250 10/04 A2984 RMK CU1CI1 CU TR SLP107

CYGK;2017-10-26 16:00;CYGK 261600Z 36006KT 330V040 15SM FEW025 FEW250 11/03 A2983 RMK CU1CI1 SLP105

CYGK;2017-10-26 17:00;CYGK 261700Z 06002KT 15SM SCT035 SCT250 11/03 A2980 RMK CU3CI1 CI TR SLP096

CYGK;2017-10-26 18:00;CYGK 261800Z 28010KT 15SM BKN040 BKN250 11/02 A2980 RMK CU6CI1 SLP094

CYGK;2017-10-26 19:00;CYGK 261900Z 28012G18KT 260V320 15SM BKN042 BKN250 11/02 A2980 RMK SC6CI1 CI TR SLP096

CYGK;2017-10-26 20:00;CYGK 262000Z 29010KT 15SM FEW042 BKN060 BKN250 11/02 A2981 RMK CU1SC5CI1 VIRGA N SLP099

CYGK;2017-10-26 21:00;CYGK 262100Z 30007KT 15SM FEW059 BKN220 11/02 A2980 RMK SC2CI4 SLP095

CYGK;2017-10-26 22:00;CYGK 262200Z 27008KT 15SM FEW059 BKN220 10/02 A2981 RMK SC2CI4 SLP098

CYGK;2017-10-26 23:00;CYGK 262300Z 27006KT 15SM FEW058 BKN240 08/02 A2982 RMK SC2CI4 SLP103

CYGK;2017-10-27 00:00;CYGK 270000Z 32009KT 15SM BKN059 08/03 A2983 RMK SC7 SLP106

CYGK;2017-10-27 01:00;CYGK 270100Z 32010KT 15SM BKN053 07/01 A2985 RMK SC6 SLP111

CYGK;2017-10-27 02:00;CYGK 270200Z 34005KT 15SM BKN055 06/02 A2987 RMK SC6 SLP119

CYGK;2017-10-27 03:00;CYGK 270300Z 31003KT 15SM SCT055 06/01 A2986 RMK SC3 LAST STFD OBS/NEXT 271000 UTC SLP116

CYGK;2017-10-27 12:00;CYGK 271200Z 34003KT 15SM FEW010 FEW020 FEW100 SCT220 01/00 A2998 RMK CF1SC1AC1CI2 CF TR SC TR SLP157

CYGK;2017-10-27 13:00;CYGK 271300Z 01002KT 15SM FEW020 FEW160 BKN250 05/03 A2998 RMK SC1AC1CI6 SC TR AC TR SLP158

CYGK;2017-10-27 14:00;CYGK 271400Z 00000KT 15SM FEW020 FEW160 BKN220 07/03 A2999 RMK SC1AC1CI7 SC TR AC TR SLP161

CYGK;2017-10-27 15:00;CYGK 271500Z 11004KT 090V160 15SM FEW020 BKN240 09/04 A2999 RMK SC1CI7 SC TR SLP160

CYGK;2017-10-27 16:00;CYGK 271600Z 15008KT 15SM BKN025 BKN220 11/06 A2998 RMK SC6CI1 SLP155

CYGK;2017-10-27 17:00;CYGK 271700Z 16010KT 15SM FEW018 BKN250 12/07 A2995 RMK SC2CI5 SLP146

CYGK;2017-10-27 18:00;CYGK 271800Z 14011KT 15SM FEW018 FEW160 BKN240 13/05 A2993 RMK SC1AC1CI6 AC TR SLP140

CYGK;2017-10-27 19:00;CYGK 271900Z 13011KT 15SM FEW160 BKN240 13/06 A2991 RMK AC2CI5 SLP132

CYGK;2017-10-27 20:00;CYGK 272000Z 13009KT 15SM FEW170 BKN250 13/05 A2990 RMK AC1CS6 SLP128

CYGK;2017-10-27 21:00;CYGK 272100Z 13008KT 15SM FEW160 BKN220 13/05 A2989 RMK AC2CI5 SLP124

CYGK;2017-10-27 22:00;CYGK 272200Z 10006KT 15SM FEW160 BKN220 12/04 A2988 RMK AC2CI5 SLP123

CYGK;2017-10-27 23:00;CYGK 272300Z 05004KT 15SM FEW160 SCT220 11/04 A2989 RMK AC2CI2 SLP126

CYGK;2017-10-28 00:00;CYGK 280000Z 06004KT 15SM SKC 09/04 A2989 RMK SLP127

CYGK;2017-10-28 01:00;CYGK 280100Z 06006KT 15SM SKC 08/04 A2989 RMK SLP126

CYGK;2017-10-28 02:00;CYGK 280200Z 15011KT 15SM FEW250 14/08 A2989 RMK CI2 SLP126

CYGK;2017-10-28 03:00;CYGK 280300Z 17016KT 15SM FEW250 15/08 A2988 RMK CI2 LAST STFD OBS/NEXT 281000 UTC SLP120 DENSITY ALT 400FT

CYGK;2017-10-28 10:00;CYGK 281000Z 18015KT 15SM FEW100 13/09 A2983 RMK AC1 AC TR SLP105

CYGK;2017-10-28 11:00;CYGK 281100Z 17016G23KT 15SM FEW100 FEW250 13/08 A2981 RMK AC1CI1 AC TR SLP098

CYGK;2017-10-28 12:00;CYGK 281200Z 17017G22KT 15SM FEW140 BKN250 13/08 A2981 RMK AC1CI5 SLP099

CYGK;2017-10-28 13:00;CYGK 281300Z 16014G22KT 15SM FEW140 BKN240 14/09 A2980 RMK AC2CI5 SLP094 DENSITY ALT 400FT

CYGK;2017-10-28 14:00;CYGK 281400Z 17016G22KT 15SM SCT140 BKN250 14/09 A2980 RMK AC3CI3 SLP092 DENSITY ALT 500FT

CYGK;2017-10-28 15:00;CYGK 281500Z 17015KT 15SM FEW140 BKN250 15/10 A2977 RMK AC2CC5 SLP084 DENSITY ALT 500FT

CYGK;2017-10-28 16:00;CYGK 281600Z 18015G20KT 15SM FEW030 FEW140 BKN210 16/10 A2976 RMK CF1AC2CI5 CF TR SLP079 DENSITY ALT 800FT

CYGK;2017-10-28 17:00;CYGK 281700Z 19013G19KT 15SM SCT085 BKN180 OVC250 16/11 A2975 RMK AC4AC2CI2 SLP078 DENSITY ALT 800FT

CYGK;2017-10-28 18:00;CYGK 281800Z 21009G18KT 15SM FEW040 BKN080 OVC120 15/11 A2974 RMK CU1AC5AC2 SLP072 DENSITY ALT 700FT

CYGK;2017-10-28 18:28;CYGK 281828Z 19014G20KT 12SM -RA SCT060 BKN100 OVC240 15/10 A2973 RMK SC3AC4CI1 SLP071 DENSITY ALT 700FT

CYGK;2017-10-28 19:00;CYGK 281900Z 20008KT 15SM -RA FEW050 BKN090 OVC200 15/11 A2973 RMK SC1AC5CI2 SLP070 DENSITY ALT 600FT

CYGK;2017-10-28 20:00;CYGK 282000Z 22009KT 15SM FEW050 BKN070 BKN090 OVC200 15/11 A2973 RMK SC1AC5AC1CI1 INTMT -RA SLP071 DENSITY ALT 600FT

CYGK;2017-10-28 21:00;CYGK 282100Z 25010G16KT 12SM -RA BKN045 OVC090 14/11 A2974 RMK SC6AC2 -RA INTMT SLP073 DENSITY ALT 400FT

CYGK;2017-10-28 21:43;CYGK 282143Z 25012KT 6SM -RA BR SCT008 BKN045 OVC090 12/11 A2976 RMK SF3SC4AC1 SLP080

CYGK;2017-10-28 22:00;CYGK 282200Z 26009G18KT 8SM -RA BKN007 OVC045 11/10 A2976 RMK SF6SC2 SLP081

CYGK;2017-10-28 22:22;CYGK 282222Z 26008KT 10SM -RA FEW007 SCT012 OVC042 11/09 A2978 RMK SF2SF2SC4 SLP087

CYGK;2017-10-28 23:00;CYGK 282300Z 25011KT 12SM -RA SCT010 BKN028 OVC050 10/09 A2980 RMK SF3SC4SC1 SLP093

CYGK;2017-10-28 23:18;CYGK 282318Z 28009G15KT 12SM -RA BKN011 OVC028 10/08 A2980 RMK SF5SC3 SLP095

CYGK;2017-10-28 23:32;CYGK 282332Z 28008G18KT 12SM -RA SCT012 BKN027 OVC040 09/08 A2981 RMK SF3SC4SC1 SLP098

CYGK;2017-10-29 00:00;CYGK 290000Z 27010KT 12SM -RA FEW011 OVC028 09/08 A2982 RMK SF2NS6 SLP100

CYGK;2017-10-29 01:00;CYGK 290100Z 26012G17KT 6SM -RA BR FEW010 OVC035 08/06 A2984 RMK SF1NS7 SLP108

CYGK;2017-10-29 02:00;CYGK 290200Z 27008KT 15SM OVC038 07/05 A2985 RMK NS8 SLP111

CYGK;2017-10-29 03:00;CYGK 290300Z 26008KT 15SM -RA OVC043 07/05 A2987 RMK NS8 LAST STFD OBS/NEXT 291000 UTC SLP116

CYGK;2017-10-29 10:00;CYGK 291000Z 01003KT 10SM -RA FEW035 OVC045 06/05 A2984 RMK CU2SC6 SLP109

CYGK;2017-10-29 11:00;CYGK 291100Z 34003KT 8SM -RA SCT004 OVC040 06/05 A2985 RMK SF3NS5 SLP112

CYGK;2017-10-29 11:32;CYGK 291132Z 36002KT 5SM -RA BR SCT004 OVC040 06/05 A2984 RMK SF4NS4 SLP110

CYGK;2017-10-29 12:00;CYGK 291200Z 35003KT 4SM -RA BR SCT004 OVC038 06/05 A2984 RMK SF4NS4 SLP109

CYGK;2017-10-29 13:00;CYGK 291300Z 36006KT 5SM -RA BR FEW004 SCT035 OVC060 06/05 A2983 RMK SF1SC4NS4 SF TR SLP104

CYGK;2017-10-29 14:00;CYGK 291400Z 02005KT 6SM -RA BR FEW004 SCT014 OVC035 06/05 A2981 RMK SF2SC2SC4 SLP099

CYGK;2017-10-29 15:00;CYGK 291500Z 04006KT 6SM -RA BR FEW005 OVC030 06/05 A2978 RMK SF1NS7 SLP088

CYGK;2017-10-29 16:00;CYGK 291600Z 03006KT 8SM BKN006 OVC028 07/06 A2975 RMK SF5NS3 SLP079

CYGK;2017-10-29 17:00;CYGK 291700Z 03008KT 7SM -RA BKN007 OVC029 07/06 A2971 RMK SF6SC2 SLP065

CYGK;2017-10-29 18:00;CYGK 291800Z 01009KT 3SM -RA BR OVC006 07/06 A2970 RMK SF8 SLP063

CYGK;2017-10-29 19:00;CYGK 291900Z 35007KT 4SM -RA BR OVC006 07/06 A2967 RMK SF8 SLP052

CYGK;2017-10-29 19:45;CYGK 291945Z 35009KT 2 1/2SM -RA BR BKN007 BKN013 08/07 A2964 RMK SF6NS1 SLP042

CYGK;2017-10-29 20:00;CYGK 292000Z 34012KT 2 1/2SM -RA BR BKN006 OVC012 07/07 A2964 RMK SF7NS1 SLP039

CYGK;2017-10-29 20:14;CYGK 292014Z 34010KT 4SM -RA BR BKN005 OVC012 07/07 A2964 RMK SF6NS2 SLP039

CYGK;2017-10-29 20:43;CYGK 292043Z 36009KT 2SM -RA BR BKN005 OVC012 07/06 A2963 RMK SF6NS2 SLP037

CYGK;2017-10-29 21:00;CYGK 292100Z 36009KT 3SM -RA BR SCT005 OVC013 07/07 A2961 RMK SF4NS4 PRESFR SLP030

CYGK;2017-10-29 22:00;CYGK 292200Z 01009KT 6SM -RA BR BKN006 OVC056 08/07 A2958 RMK SF5NS3 SLP019

CYGK;2017-10-29 23:00;CYGK 292300Z 36013KT 4SM -RA BR BKN006 OVC013 08/07 A2954 RMK SF6NS2 SLP008

CYGK;2017-10-30 00:00;CYGK 300000Z 35011KT 4SM -RA BR OVC006 08/07 A2952 RMK SF8 PRESFR SLP999

CYGK;2017-10-30 01:00;CYGK 300100Z 36015KT 4SM -RA BR SCT007 OVC055 07/06 A2947 RMK SF4NS4 PRESFR SLP982

CYGK;2017-10-30 02:00;CYGK 300200Z 34010KT 4SM -RA BR BKN007 OVC045 07/06 A2943 RMK SF6NS2 SLP970

CYGK;2017-10-30 03:00;CYGK 300300Z 34016KT 5SM -RA BR BKN007 OVC017 07/06 A2935 RMK SF6NS2 LAST STFD OBS / NEXT 301000 UTC PRESFR SLP943

CYGK;2017-10-30 10:00;CYGK 301000Z 29020G27KT 8SM -RA BKN010 OVC035 06/05 A2899 RMK SF5NS3 SLP821 DENSITY ALT 400FT

CYGK;2017-10-30 11:00;CYGK 301100Z 29020G30KT 8SM -RA BKN012 OVC035 06/05 A2902 RMK SF6NS2 SLP832 DENSITY ALT 400FT

CYGK;2017-10-30 12:00;CYGK 301200Z 28020G30KT 8SM -RA OVC015 06/04 A2909 RMK NS8 PRESRR SLP855

CYGK;2017-10-30 13:00;CYGK 301300Z 27021G30KT 8SM -RA SCT012 OVC020 05/04 A2916 RMK SF3NS5 PRESRR SLP878

CYGK;2017-10-30 14:00;CYGK 301400Z 27020G30KT 15SM FEW012 BKN055 BKN080 06/02 A2921 RMK CF2SC3AC2 SLP895

CYGK;2017-10-30 15:00;CYGK 301500Z 26017G25KT 15SM FEW020 SCT060 BKN250 08/02 A2926 RMK CU2SC2CI3 SLP911

CYGK;2017-10-30 16:00;CYGK 301600Z 26023G39KT 15SM SCT032 BKN160 BKN240 09/02 A2931 RMK CU4AC1CI1 PRESRR SLP929 DENSITY ALT 400FT

CYGK;2017-10-30 17:00;CYGK 301700Z 25021G30KT 15SM SCT040 BKN250 10/00 A2934 RMK CU3CI2 SLP940 DENSITY ALT 500FT

CYGK;2017-10-30 18:00;CYGK 301800Z 25025G36KT 15SM BKN040 10/01 A2936 RMK CU5 SLP947 DENSITY ALT 400FT

CYGK;2017-10-30 19:00;CYGK 301900Z 24019G32KT 15SM BKN042 BKN077 10/02 A2940 RMK CU5AC2 SLP958 DENSITY ALT 400FT

CYGK;2017-10-30 20:00;CYGK 302000Z 25021G33KT 15SM BKN035 BKN080 09/02 A2942 RMK CU6AC1 SLP967

CYGK;2017-10-30 21:00;CYGK 302100Z 26016G27KT 12SM SCT032 OVC065 09/03 A2945 RMK CU3SC5 SLP977

CYGK;2017-10-30 21:15;CYGK 302115Z 25016G27KT 10SM -RA SCT035 OVC060 09/02 A2946 RMK CU4SC4 SLP980

CYGK;2017-10-30 22:00;CYGK 302200Z 25018G26KT 8SM -RA SCT025 BKN060 OVC120 07/04 A2948 RMK SC4SC2AC2 SLP986

CYGK;2017-10-30 23:00;CYGK 302300Z 24017G28KT 10SM -RA SCT018 BKN048 08/05 A2950 RMK SC3SC4 SLP995

CYGK;2017-10-30 23:14;CYGK 302314Z 25020G30KT 15SM SCT018 BKN050 BKN180 08/04 A2951 RMK SC3SC3AC1 SLP998

CYGK;2017-10-31 00:00;CYGK 310000Z 25016G25KT 15SM SCT038 BKN160 08/03 A2953 RMK SC3AC2 SLP004

CYGK;2017-10-31 01:00;CYGK 310100Z 24019G29KT 15SM SCT028 08/04 A2955 RMK SC3 SLP011

CYGK;2017-10-31 02:00;CYGK 310200Z 25022G28KT 15SM FEW024 BKN050 08/03 A2958 RMK SC2SC4 SLP021

CYGK;2017-10-31 03:00;CYGK 310300Z 23011G19KT 15SM FEW030 SCT120 08/05 A2959 RMK SC2AC2 LAST STFD OBS/NEXT 311000 UTC SLP024

CYGK;2017-10-31 10:00;CYGK 311000Z 25018G26KT 15SM FEW030 07/01 A2973 RMK SC1 SLP073

CYGK;2017-10-31 11:00;CYGK 311100Z 25019G26KT 15SM FEW030 06/01 A2976 RMK SC1 PRESRR SLP081

CYGK;2017-10-31 12:00;CYGK 311200Z 23015G23KT 15SM FEW010 FEW030 SCT080 06/02 A2978 RMK CF1SC2AC1 CF TR SLP089

CYGK;2017-10-31 13:00;CYGK 311300Z 25018G27KT 15SM FEW010 FEW028 SCT080 06/01 A2981 RMK CF1SC2AC1 CF TR SLP099

CYGK;2017-10-31 14:00;CYGK 311400Z 25018G23KT 15SM FEW024 SCT080 SCT250 07/01 A2984 RMK CU1AC2CI1 CI TR SLP108

CYGK;2017-10-31 15:00;CYGK 311500Z 26017G25KT 15SM FEW040TCU BKN080 08/M00 A2985 RMK TCU2AC5 SLP113

CYGK;2017-10-31 16:00;CYGK 311600Z 24016G25KT 15SM SCT030TCU BKN080 09/01 A2987 RMK TCU3AC4 SLP120

CYGK;2017-10-31 17:00;CYGK 311700Z 24018G24KT 15SM BKN040TCU BKN090 09/00 A2988 RMK TCU5AC2 SLP123

CYGK;2017-10-31 18:00;CYGK 311800Z 23021G29KT 15SM FEW037 FEW096 09/01 A2990 RMK CU2AC1 AC TR SLP127

CYGK;2017-10-31 19:00;CYGK 311900Z 24025G33KT 15SM SCT040 BKN080 09/M00 A2992 RMK CU4AC2 SLP135

CYGK;2017-10-31 20:00;CYGK 312000Z 25020G32KT 15SM FEW015 SCT038 BKN080 08/M01 A2995 RMK CF1SC4AC2 CF TR SLP144

CYGK;2017-10-31 21:00;CYGK 312100Z 25020G30KT 15SM VCSH FEW015 SCT040 BKN080 08/M01 A2998 RMK CU1SC3AC2 CU TR PRESRR SLP157

CYGK;2017-10-31 22:00;CYGK 312200Z 25014G24KT 15SM FEW020 FEW040 BKN060 07/M00 A3001 RMK CU1SC2SC4 CU TR SLP167

CYGK;2017-10-31 23:00;CYGK 312300Z 27010KT 15SM FEW040 SCT060 06/00 A3006 RMK CU2SC2 SLP183

CYGK;2017-11-01 00:00;CYGK 010000Z 27008KT 15SM SCT035 05/01 A3009 RMK SC4 SLP193

CYGK;2017-11-01 01:00;CYGK 010100Z 29006KT 15SM SCT040 04/00 A3011 RMK SC3 SLP202

CYGK;2017-11-01 02:00;CYGK 010200Z 26006KT 15SM FEW040 FEW060 04/00 A3013 RMK SC1SC1 SLP209

CYGK;2017-11-01 03:00;CYGK 010300Z 29006KT 15SM FEW070 BKN220 04/00 A3015 RMK AC2CI3 LAST STFD OBS/NEXT 011000 UTC SLP213

CYGK;2017-11-01 10:00;CYGK 011000Z 34003KT 300V010 15SM FEW030 OVC060 04/02 A3020 RMK SC2SC6 SLP230

CYGK;2017-11-01 11:00;CYGK 011100Z 03002KT 15SM FEW032 OVC060 04/02 A3021 RMK SC2SC6 SLP233

CYGK;2017-11-01 11:47;CYGK 011147Z VRB03KT 10SM -RA FEW020 OVC040 05/03 A3022 RMK SC1SC8 SC TR SLP238

CYGK;2017-11-01 12:00;CYGK 011200Z 00000KT 15SM -RA OVC040 05/03 A3021 RMK SC8 SLP236

CYGK;2017-11-01 12:29;CYGK 011229Z 08003KT 060V210 15SM FEW035 OVC060 05/03 A3022 RMK SC2SC6 SLP239

CYGK;2017-11-01 13:00;CYGK 011300Z 36003KT 300V060 15SM BKN030 BKN040 OVC250 05/04 A3024 RMK CU5SC2CI1 SLP244

CYGK;2017-11-01 13:54;CYGK 011354Z 22009KT 15SM -RA BKN030 OVC070 08/03 A3025 RMK SC5AC3 SLP248

CYGK;2017-11-01 14:00;CYGK 011400Z 19015KT 180V260 15SM -RA SCT030 BKN070 OVC250 08/03 A3025 RMK SC4AC2CI2 SLP247

CYGK;2017-11-01 14:22;CYGK 011422Z 19016KT 15SM SCT032 BKN068 OVC250 08/02 A3025 RMK SC4AC2CI2 SLP248

CYGK;2017-11-01 15:00;CYGK 011500Z 18015G21KT 15SM SCT025 BKN080 OVC250 08/02 A3025 RMK SC4AC2CI2 SLP247

CYGK;2017-11-01 16:00;CYGK 011600Z 19011G18KT 15SM FEW032 BKN140 OVC250 08/01 A3023 RMK CU2AC4CI2 SLP241

CYGK;2017-11-01 17:00;CYGK 011700Z 19014KT 15SM BKN038 OVC120 08/01 A3022 RMK SC5AS3 SLP238

CYGK;2017-11-01 18:00;CYGK 011800Z 21011KT 15SM -SHRA BKN032 OVC120 08/02 A3021 RMK SC5AS3 CVCTV CLD EMBD SLP233

CYGK;2017-11-01 19:00;CYGK 011900Z 22007KT 12SM -SHRA OVC020 07/04 A3019 RMK SC8 SLP229

CYGK;2017-11-01 20:00;CYGK 012000Z CCA 18014KT 6SM -SHRA BR BKN018 OVC032 07/04 A3019 RMK SC6SC2 CVCTV CLD EMBD SLP227

CYGK;2017-11-01 21:00;CYGK 012100Z 17015G20KT 10SM -RA BKN015 OVC035 07/04 A3019 RMK SC6SC2 SLP228

CYGK;2017-11-01 21:48;CYGK 012148Z 18017KT 10SM -RA OVC012 07/05 A3019 RMK SC8 SLP227

CYGK;2017-11-01 22:00;CYGK 012200Z 17015KT 10SM -RA BKN012 OVC023 07/04 A3018 RMK SC5SC3 SLP225

CYGK;2017-11-01 22:51;CYGK 012251Z 17016G21KT 10SM -RA OVC016 07/04 A3018 RMK SC8 SLP224

CYGK;2017-11-01 23:00;CYGK 012300Z 17017G22KT 12SM -RA OVC015 07/04 A3018 RMK SC8 CIG RAG SLP223

CYGK;2017-11-02 00:00;CYGK 020000Z 15013G19KT 15SM -RA OVC015 07/05 A3018 RMK SC8 SLP225

CYGK;2017-11-02 00:36;CYGK 020036Z 14014KT 15SM OVC012 07/05 A3016 RMK SC8 SLP219

CYGK;2017-11-02 01:00;CYGK 020100Z 14011KT 15SM OVC015 08/05 A3016 RMK SC8 SLP219

CYGK;2017-11-02 02:00;CYGK 020200Z 16012KT 15SM OVC015 08/05 A3016 RMK SC8 SLP217

CYGK;2017-11-02 03:00;CYGK 020300Z 20010KT 15SM OVC015 08/06 A3018 RMK SC8 LAST STFD OBS/NEXT 021000 UTC PRESRR SLP223

CYGK;2017-11-02 10:00;CYGK 021000Z 16014G19KT 5SM -RA BR OVC007 11/10 A3001 RMK SC8 CIG VRB 5 - 9 SLP167

CYGK;2017-11-02 11:00;CYGK 021100Z 18023G31KT 5SM -RA BR SCT007 OVC012 12/11 A3000 RMK SF4SC4 SLP161

CYGK;2017-11-02 12:00;CYGK 021200Z 17023KT 5SM -RA BR BKN005 OVC015 12/11 A3000 RMK CF6SC2 SLP163

CYGK;2017-11-02 13:00;CYGK 021300Z 19019G29KT 10SM -RA BKN009 OVC015 12/11 A3002 RMK SC6SC2 SLP168

CYGK;2017-11-02 13:37;CYGK 021337Z 19019G27KT 11SM -RA FEW012 OVC024 13/11 A3002 RMK SF1SC7 SLP170

CYGK;2017-11-02 14:00;CYGK 021400Z 20021G28KT 12SM -RA FEW012 OVC018 13/11 A3003 RMK SF1SC8 SF TR SLP172

CYGK;2017-11-02 14:26;CYGK 021426Z 19020KT 15SM FEW012 SCT018 BKN029 OVC070 13/11 A3003 RMK SF1SC3SC4AC1 SF TR SLP172

CYGK;2017-11-02 15:00;CYGK 021500Z 19018G25KT 15SM FEW012 BKN026 OVC085 13/11 A3004 RMK SF2SC5AC1 SLP174

CYGK;2017-11-02 15:05;CYGK 021505Z 19019KT 15SM -RA FEW012 BKN026 OVC085 13/11 A3003 RMK SF2SC5AC1 SLP173

CYGK;2017-11-02 16:00;CYGK 021600Z 19018G27KT 15SM -RA FEW012 BKN024 OVC085 13/12 A3004 RMK SF2SC5AC1 SLP174

CYGK;2017-11-02 16:41;CYGK 021641Z 19018G24KT 15SM FEW012 BKN025 OVC085 13/11 A3003 RMK SF1SC7AC1 SF TR SLP172

CYGK;2017-11-02 17:00;CYGK 021700Z 19017G23KT 15SM FEW012 OVC026 13/11 A3002 RMK SF1SC8 SF TR SLP169

CYGK;2017-11-02 18:00;CYGK 021800Z 19013G19KT 12SM -RA BKN024 OVC085 13/12 A3002 RMK SC7AC1 VIS LWR W SLP168

CYGK;2017-11-02 18:05;CYGK 021805Z 19014KT 4SM -RA BR OVC022 13/12 A3002 RMK SC8 SLP168

CYGK;2017-11-02 18:51;CYGK 021851Z 18011KT 15SM OVC025 14/12 A3001 RMK SC8 SLP164

CYGK;2017-11-02 19:00;CYGK 021900Z 18011KT 15SM OVC027 14/12 A3000 RMK SC8 SLP163

CYGK;2017-11-02 20:00;CYGK 022000Z 20011G17KT 15SM OVC027 14/12 A3001 RMK SC8 SLP165

CYGK;2017-11-02 20:26;CYGK 022026Z 18013KT 15SM -RA FEW012 OVC028 14/12 A3000 RMK SF1SC8 SF TR SLP163

CYGK;2017-11-02 21:00;CYGK 022100Z 18012KT 15SM -RA OVC028 14/13 A3000 RMK SC8 SLP163

CYGK;2017-11-02 22:00;CYGK 022200Z 20011G16KT 15SM -RA OVC031 15/12 A3000 RMK SC8 SLP162

CYGK;2017-11-02 22:47;CYGK 022247Z 20005KT 15SM OVC036 14/13 A2999 RMK SC8 SLP159

CYGK;2017-11-02 23:00;CYGK 022300Z 20006KT 15SM OVC036 14/12 A2999 RMK SC8 SLP158

CYGK;2017-11-03 00:00;CYGK 030000Z 18013KT 15SM OVC037 15/12 A2997 RMK SC8 SLP151

CYGK;2017-11-03 01:00;CYGK 030100Z 20011G17KT 15SM OVC037 15/12 A2997 RMK SC8 SLP151

CYGK;2017-11-03 02:00;CYGK 030200Z 20015KT 15SM OVC038 15/12 A2996 RMK SC8 SLP148 DENSITY ALT 400FT

CYGK;2017-11-03 03:00;CYGK 030300Z 20016KT 15SM OVC037 15/12 A2995 RMK SC8 LAST STFD OBS/NEXT 031000 UTC SLP144 DENSITY ALT 400FT

CYGK;2017-11-03 10:00;CYGK 031000Z 29003KT 15SM FEW010 BKN037 OVC120 12/11 A2993 RMK SF1SC6AC1 SLP139

CYGK;2017-11-03 11:00;CYGK 031100Z 27005KT 15SM FEW010 OVC042 12/11 A2995 RMK SF1SC7 SLP146

CYGK;2017-11-03 11:11;CYGK 031111Z 29005KT 12SM -SHRA FEW010 OVC045 12/11 A2995 RMK SF2SC6 CVCTV CLD EMBD SLP146

CYGK;2017-11-03 11:35;CYGK 031135Z 27007KT 15SM -SHRA FEW006 BKN044 OVC060 11/10 A2996 RMK SF2SC4SC2 CVCTV CLD EMBD SLP148

CYGK;2017-11-03 12:00;CYGK 031200Z 29007KT 10SM -SHRA FEW006 BKN045 OVC080 11/10 A2998 RMK SF2SC3AC3 CVCTV CLD EMBD SLP154

CYGK;2017-11-03 13:00;CYGK 031300Z 28006KT 15SM FEW015 SCT045 BKN110 10/09 A3000 RMK CF1SC2AC4 OCNL -SHRA CVCTV CLD EMBD SLP162

CYGK;2017-11-03 14:00;CYGK 031400Z 29007G15KT 15SM FEW008 BKN042 BKN130 10/08 A3003 RMK SF1SC5AC2 SF TR SLP173

CYGK;2017-11-03 15:00;CYGK 031500Z 30008KT 15SM FEW015 BKN044 10/06 A3004 RMK CU1SC6 SLP177

CYGK;2017-11-03 16:00;CYGK 031600Z 31016G23KT 15SM FEW044 SCT130 SCT250 11/03 A3006 RMK CU2AC1CC1 SLP183

CYGK;2017-11-03 17:00;CYGK 031700Z 29012G22KT 15SM SCT039 SCT250 12/03 A3007 RMK SC3CI1 CI TR SLP185

CYGK;2017-11-03 18:00;CYGK 031800Z 30015G22KT 250V320 15SM BKN041 12/03 A3008 RMK SC5 SLP189

CYGK;2017-11-03 19:00;CYGK 031900Z 28010G21KT 15SM BKN040 BKN270 12/03 A3011 RMK SC5CI1 CI TR SLP198

CYGK;2017-11-03 20:00;CYGK 032000Z 29011KT 15SM SCT045 SCT250 10/02 A3014 RMK SC4CI1 CI TR SLP208

CYGK;2017-11-03 21:00;CYGK 032100Z 28007G15KT 15SM SCT045 BKN270 11/01 A3016 RMK SC3CI2 SLP216

CYGK;2017-11-03 22:00;CYGK 032200Z 29008KT 15SM SCT047 BKN270 10/01 A3021 RMK SC4CI1 SLP232

CYGK;2017-11-03 23:00;CYGK 032300Z 31007KT 15SM FEW050 08/01 A3025 RMK SC2 PRESRR SLP247

CYGK;2017-11-04 00:00;CYGK 040000Z 33007KT 15SM FEW045 06/00 A3027 RMK SC1 SC TR SLP254

CYGK;2017-11-04 01:00;CYGK 040100Z 32006KT 15SM SKC 05/M00 A3030 RMK SLP264

CYGK;2017-11-04 02:00;CYGK 040200Z 33006KT 15SM SKC 04/M01 A3032 RMK SLP272

CYGK;2017-11-04 03:00;CYGK 040300Z 32003KT 15SM SKC 03/M00 A3034 RMK LAST STFD OBS / NEXT 041000 UTC SLP279

CYGK;2017-11-04 10:00;CYGK 041000Z 35006KT 15SM FEW120 SCT250 M00/M01 A3038 RMK AC1CI3 SLP293

CYGK;2017-11-04 11:00;CYGK 041100Z 34006KT 15SM FEW020 FEW120 BKN250 M01/M02 A3040 RMK CU1AC1CI4 CU TR SLP299

CYGK;2017-11-04 12:00;CYGK 041200Z 36005KT 15SM FEW020 FEW120 BKN250 M01/M02 A3041 RMK CF1AC2CI5 CF TR SLP303

CYGK;2017-11-04 13:00;CYGK 041300Z 03005KT 15SM FEW020 FEW120 BKN250 01/M01 A3041 RMK CU1AC1CI7 CU TR AC TR SLP305

CYGK;2017-11-04 14:00;CYGK 041400Z CCA 04008KT 15SM FEW020 SCT110 BKN250 04/01 A3042 RMK CF1AC3CI3 SLP307

CYGK;2017-11-04 15:00;CYGK 041500Z 06008KT 15SM FEW020 BKN110 BKN250 04/01 A3041 RMK CF1AC5CI1 SLP303

CYGK;2017-11-04 16:00;CYGK 041600Z 06009KT 15SM FEW014 BKN100 OVC250 05/01 A3040 RMK SC1AC6CI1 SLP300

CYGK;2017-11-04 17:00;CYGK 041700Z 03009KT 010V070 15SM FEW020 BKN110 BKN250 05/01 A3038 RMK SC1AC5CI1 SLP293

CYGK;2017-11-04 18:00;CYGK 041800Z 05009G15KT 15SM FEW022 OVC100 05/00 A3035 RMK SC1AC8 SC TR SLP282

CYGK;2017-11-04 19:00;CYGK 041900Z 04011G17KT 15SM FEW015 OVC100 06/00 A3034 RMK SC1AC8 SC TR SLP279

CYGK;2017-11-04 20:00;CYGK 042000Z 06011KT 15SM FEW020 BKN100 OVC250 06/M00 A3033 RMK SF1AC6CS2 SF TR SLP275

CYGK;2017-11-04 21:00;CYGK 042100Z 05011KT 15SM FEW020 BKN100 OVC220 05/M01 A3032 RMK CF1AC5CI3 CF TR SLP274

CYGK;2017-11-04 22:00;CYGK 042200Z 04010KT 15SM BKN100 OVC210 05/M00 A3031 RMK AC5CI3 SLP270

CYGK;2017-11-04 23:00;CYGK 042300Z 05012G18KT 15SM SCT130 BKN220 04/M00 A3028 RMK AC4CI3 SLP258

CYGK;2017-11-05 00:00;CYGK 050000Z 06011G19KT 15SM SCT140 BKN210 04/M00 A3027 RMK AC3CI4 SLP256

CYGK;2017-11-05 01:00;CYGK 050100Z 05014KT 15SM SCT200 04/M01 A3024 RMK CI4 SLP246

CYGK;2017-11-05 02:00;CYGK 050200Z 05010KT 15SM SCT210 03/M00 A3023 RMK CI4 SLP243

CYGK;2017-11-05 03:00;CYGK 050300Z 06011KT 15SM SCT100 BKN210 03/M00 A3018 RMK AC3CI2 LAST STFD OBS/NEXT 051100 UTC PRESFR SLP225

CYGK;2017-11-05 11:00;CYGK 051100Z 16023G29KT 10SM OVC015 09/07 A3004 RMK SC8 SLP178

CYGK;2017-11-05 11:41;CYGK 051141Z 17023G31KT 10SM -RA OVC012 09/08 A3002 RMK SC8 SLP171

CYGK;2017-11-05 12:00;CYGK 051200Z 17021G32KT 8SM -RA OVC010 10/08 A3001 RMK SC8 SLP167

CYGK;2017-11-05 12:37;CYGK 051237Z 17024G30KT 3SM -RA BR OVC010 10/08 A3003 RMK NS8 CIG RAG PRESRR SLP174

CYGK;2017-11-05 13:00;CYGK 051300Z 17021G29KT 5SM -RA BR OVC010 10/09 A3002 RMK NS8 CIG RAG SLP170

CYGK;2017-11-05 14:00;CYGK 051400Z 17023G31KT 6SM -RA BR SCT012 OVC016 10/09 A2999 RMK SF4SC4 SLP160

CYGK;2017-11-05 15:00;CYGK 051500Z 17026G34KT 10SM -RA OVC012 11/09 A2996 RMK SC8 CIG RAG SLP149

CYGK;2017-11-05 15:21;CYGK 051521Z 16022G31KT 12SM BKN012 OVC028 11/09 A2994 RMK SC5SC3 SLP144

CYGK;2017-11-05 16:00;CYGK 051600Z 17025G33KT 6SM -SHRA BR SCT012 OVC025 11/09 A2995 RMK CU3SC5 SLP145

CYGK;2017-11-05 16:20;CYGK 051620Z 17021G32KT 3SM -SHRA BR FEW010 OVC022 11/10 A2994 RMK SF2NS6 SLP141

CYGK;2017-11-05 16:39;CYGK 051639Z 16020G32KT 10SM -SHRA FEW015 OVC030 11/10 A2992 RMK CU2NS6 PRESFR SLP136

CYGK;2017-11-05 17:00;CYGK 051700Z 16020G32KT 10SM -SHRA FEW008 OVC030 11/10 A2991 RMK SF2NS6 PRESFR SLP131

CYGK;2017-11-05 18:00;CYGK 051800Z 17020G29KT 10SM -SHRA FEW008 OVC018 12/10 A2988 RMK SF2NS6 PRESFR SLP123

CYGK;2017-11-05 19:00;CYGK 051900Z 17025G30KT 10SM -SHRA FEW007 BKN045 OVC100 12/11 A2983 RMK SF1SC6AC1 CVCTV CLD EMBD SLP105

CYGK;2017-11-05 20:00;CYGK 052000Z 17021G29KT 2SM -RA BR BKN008 OVC013 12/11 A2983 RMK SF6NS2 VIS VRB 1-3 CVCTV CLD EMBD SLP105

CYGK;2017-11-05 20:22;CYGK 052022Z 18021G29KT 4SM -RA BR BKN008 OVC012 12/12 A2983 RMK SF6NS2 SLP103

CYGK;2017-11-05 21:40;CYGK 052140Z 18017G24KT 15SM SCT008 OVC031 13/12 A2982 RMK SF3SC5 SLP102

CYGK;2017-11-05 22:00;CYGK 052200Z 17017KT 15SM FEW008 OVC031 13/12 A2981 RMK SF1SC7 SLP099

CYGK;2017-11-05 23:00;CYGK 052300Z 18016G22KT 15SM FEW008 OVC030 13/12 A2981 RMK SF1SC8 SF TR SLP099

CYGK;2017-11-05 23:20;CYGK 052320Z 17015G21KT 15SM -SHRA FEW008 OVC030 13/12 A2981 RMK SF1SC8 SF TR CVCTV CLD EMBD SLP096

CYGK;2017-11-06 00:00;CYGK 060000Z 17015G22KT 15SM -SHRA FEW017 OVC020 13/12 A2980 RMK SC2SC6 CVCTV CLD EMBD SLP094

CYGK;2017-11-06 00:12;CYGK 060012Z 17016G21KT 4SM +SHRA OVC015TCU 13/12 A2979 RMK TCU8 SLP091

CYGK;2017-11-06 00:31;CYGK 060031Z 18019G27KT 12SM -SHRA FEW008 OVC021 13/12 A2978 RMK SF2SC6 CVCTV CLD EMBD SLP088 DENSITY ALT 400FT

CYGK;2017-11-06 01:00;CYGK 060100Z 18017G26KT 15SM -SHRA FEW008 OVC014 13/12 A2979 RMK SF2SC6 CVCTV CLD EMBD SLP091 DENSITY ALT 400FT

CYGK;2017-11-06 01:14;CYGK 060114Z 18019G26KT 12SM SHRA SCT011 OVC027TCU 13/12 A2978 RMK SF3TCU5 SLP089 DENSITY ALT 400FT

CYGK;2017-11-06 02:00;CYGK 060200Z 18020G27KT 8SM SHRA FEW008 OVC015TCU 13/12 A2977 RMK SF2TCU6 SLP085 DENSITY ALT 400FT

CYGK;2017-11-06 02:15;CYGK 060215Z 18020G27KT 15SM -SHRA SCT006 OVC017TCU 13/12 A2976 RMK SF3TCU5 SLP082 DENSITY ALT 400FT

CYGK;2017-11-06 03:47;CYGK 060347Z 18019G24KT 15SM FEW005 OVC021 14/13 A2973 RMK SF1SC7 SLP072 DENSITY ALT 500FT

CYGK;2017-11-06 04:00;CYGK 060400Z 18019G24KT 15SM FEW011 OVC021 14/13 A2972 RMK SF1SC7 LAST STFD OBS/NEXT 061100 UTC SLP067 DENSITY ALT 500FT

CYGK;2017-11-06 11:00;CYGK 061100Z 29007KT 12SM SCT013 OVC035 12/10 A2978 RMK SC4SC4 SLP086

CYGK;2017-11-06 12:00;CYGK 061200Z 28009KT 15SM FEW013 SCT035 BKN051 11/09 A2981 RMK SC1SC2SC3 SLP099

CYGK;2017-11-06 13:00;CYGK 061300Z 27006KT 15SM FEW015 SCT050 BKN240 10/07 A2986 RMK SC1SC2CI3 SLP114

CYGK;2017-11-06 14:00;CYGK 061400Z 27012KT 15SM FEW010 FEW050 SCT070 BKN240 09/07 A2989 RMK SF1SC1AC1CI4 SLP124

CYGK;2017-11-06 14:46;CYGK 061446Z 30012G19KT 15SM BKN013 BKN250 10/08 A2990 RMK SC5CI1 SLP129

CYGK;2017-11-06 15:00;CYGK 061500Z 31016G21KT 15SM BKN013 10/07 A2991 RMK SC7 SLP131

CYGK;2017-11-06 15:24;CYGK 061524Z 30017KT 15SM BKN015 BKN160 11/07 A2992 RMK SC7AC1 AC TR SLP134

CYGK;2017-11-06 16:00;CYGK 061600Z 32013G19KT 15SM BKN015 BKN220 10/07 A2993 RMK SC7CC1 CC TR SLP139

CYGK;2017-11-06 17:00;CYGK 061700Z 32009G15KT 15SM BKN022 BKN220 10/06 A2995 RMK SC7CC1 CC TR SLP145

CYGK;2017-11-06 18:00;CYGK 061800Z 30011G18KT 15SM BKN023 09/04 A2999 RMK SC7 PRESRR SLP159

CYGK;2017-11-06 19:00;CYGK 061900Z 29014KT 15SM BKN035 09/02 A3002 RMK SC6 SLP168

CYGK;2017-11-06 20:00;CYGK 062000Z 30010KT 15SM FEW032 BKN038 08/00 A3006 RMK CU1SC4 SLP182

CYGK;2017-11-06 21:00;CYGK 062100Z 31009G17KT 15SM FEW032 SCT040 SCT210 07/M01 A3009 RMK CU1SC2CI1 CI TR SLP193

CYGK;2017-11-06 22:00;CYGK 062200Z 30008KT 15SM FEW032 FEW040 05/M02 A3012 RMK CU1SC2 CU TR SLP204

CYGK;2017-11-06 23:00;CYGK 062300Z 31008KT 15SM FEW040 04/M02 A3016 RMK SC2 PRESRR SLP216

CYGK;2017-11-07 00:00;CYGK 070000Z 31006KT 15SM FEW040 03/M03 A3018 RMK SC2 SLP226

CYGK;2017-11-07 01:00;CYGK 070100Z 30005KT 15SM FEW040 02/M03 A3020 RMK SC2 SLP232

CYGK;2017-11-07 02:00;CYGK 070200Z 31006KT 15SM FEW040 SCT250 01/M03 A3021 RMK SC2CI2 SLP234

CYGK;2017-11-07 03:00;CYGK 070300Z 33005KT 15SM BKN042 02/M02 A3023 RMK SC6 SLP240

CYGK;2017-11-07 04:00;CYGK 070400Z 34003KT 15SM BKN042 01/M02 A3023 RMK SC5 LAST STFD OBS/NEXT 071100 UTC SLP242

CYGK;2017-11-07 11:00;CYGK 071100Z 03004KT 15SM SCT040 01/M04 A3029 RMK SC3 SLP262

CYGK;2017-11-07 12:00;CYGK 071200Z 06002KT 15SM FEW012 FEW040 SCT140 BKN210 00/M04 A3029 RMK SC1SC1AC2CI2 SC TR SLP261

CYGK;2017-11-07 13:00;CYGK 071300Z 03004KT 15SM FEW140 BKN200 01/M03 A3030 RMK AC2CI4 SLP266

CYGK;2017-11-07 14:00;CYGK 071400Z 35003KT 320V030 15SM SCT050 BKN140 BKN200 02/M02 A3032 RMK SC4AC2CI1 SLP273

CYGK;2017-11-07 15:00;CYGK 071500Z VRB03KT 15SM SCT053 SCT140 BKN210 03/M06 A3033 RMK SC3AC1CI2 SLP275

CYGK;2017-11-07 16:00;CYGK 071600Z 11003KT 080V240 15SM FEW025 SCT054 SCT140 BKN210 04/M08 A3031 RMK CF1SC3AC1CI2 CF TR SLP269

CYGK;2017-11-07 17:00;CYGK 071700Z VRB05KT 15SM FEW025 FEW055 FEW100 BKN220 05/M04 A3028 RMK CU1SC1AC1CI4 CU TR SLP258

CYGK;2017-11-07 18:00;CYGK 071800Z 15003KT 15SM FEW025 FEW100 BKN220 05/M04 A3026 RMK CU1AC1CI5 CU TR SLP252

CYGK;2017-11-07 19:00;CYGK 071900Z VRB05KT 15SM SCT050 BKN250 05/M05 A3025 RMK SC3CI3 SLP249

CYGK;2017-11-07 20:00;CYGK 072000Z 16005KT 15SM FEW040 BKN053 BKN120 BKN230 05/M04 A3025 RMK CU1SC4AC1CI1 SLP249

CYGK;2017-11-07 21:00;CYGK 072100Z 20004KT 15SM FEW040 SCT050 BKN120 BKN230 04/M04 A3024 RMK CU1SC3AC1CI2 SLP247

CYGK;2017-11-07 22:00;CYGK 072200Z 14005KT 15SM FEW036 FEW045 FEW120 SCT230 03/M03 A3024 RMK CU1SC1AC1CI1 CU TR SLP244

CYGK;2017-11-07 23:00;CYGK 072300Z 18003KT 160V220 15SM FEW050 SCT170 BKN240 03/M03 A3025 RMK SC2AC2CI2 SLP250

CYGK;2017-11-08 00:00;CYGK 080000Z 00000KT 15SM FEW038 FEW220 02/M04 A3026 RMK SC1CI1 SLP252

CYGK;2017-11-08 01:00;CYGK 080100Z VRB02KT 15SM FEW040 FEW070 SCT220 M00/M03 A3027 RMK SC1AC1CI2 SLP256

CYGK;2017-11-08 02:00;CYGK 080200Z VRB02KT 15SM BKN070 M00/M02 A3027 RMK AC7 SLP257

CYGK;2017-11-08 03:00;CYGK 080300Z 35004KT 15SM OVC062 01/M00 A3027 RMK SC8 SLP256

CYGK;2017-11-08 04:00;CYGK 080400Z 35004KT 15SM FEW036 OVC064 01/M00 A3027 RMK CF1SC7 LAST STFD OBS/NEXT 081100 UTC SLP256

CYGK;2017-11-08 11:00;CYGK 081100Z 28006KT 15SM VCSH SCT030 OVC060 04/01 A3027 RMK CU4SC4 SLP257

CYGK;2017-11-08 11:41;CYGK 081141Z 27007KT 12SM -SHRA SCT020 OVC040 04/01 A3029 RMK CU4SC4 SLP261

CYGK;2017-11-08 12:00;CYGK 081200Z 22009KT 12SM -SHRA SCT020 OVC035 04/02 A3029 RMK CU4SC4 SLP262

CYGK;2017-11-08 12:34;CYGK 081234Z 21009G15KT 15SM VCSH SCT020 BKN035 OVC060 05/02 A3029 RMK CU3SC3SC2 SLP263

CYGK;2017-11-08 13:00;CYGK 081300Z 22012KT 12SM -SHRA BKN022 OVC035 05/02 A3030 RMK CU5SC3 SLP265

CYGK;2017-11-08 13:28;CYGK 081328Z 21012KT 15SM VCSH SCT025 OVC050 04/02 A3029 RMK CU3SC5 SLP263

CYGK;2017-11-08 14:00;CYGK 081400Z 21011KT 15SM FEW010 FEW025 BKN055 BKN100 05/02 A3029 RMK SF1SC2SC4AC1 SF TR SLP263

CYGK;2017-11-08 15:00;CYGK 081500Z 23009KT 15SM VCSH FEW025 OVC050 06/01 A3029 RMK CU1SC7 SLP262

CYGK;2017-11-08 16:00;CYGK 081600Z 24006KT 200V260 15SM VCSH FEW030 BKN055 07/00 A3028 RMK CU2SC5 SLP259

CYGK;2017-11-08 17:00;CYGK 081700Z 25007KT 190V280 15SM VCSH SCT030 BKN055 07/M02 A3026 RMK CU3SC4 SLP251

CYGK;2017-11-08 18:00;CYGK 081800Z 22008KT 15SM FEW030 BKN060 08/M00 A3024 RMK CU2SC5 SLP243

CYGK;2017-11-08 19:00;CYGK 081900Z 21014KT 15SM VCSH FEW030 BKN055 08/M01 A3022 RMK CU2SC5 SLP237

CYGK;2017-11-08 20:00;CYGK 082000Z 23013KT 15SM FEW035 BKN055 07/M00 A3021 RMK CU1SC5 SLP233

CYGK;2017-11-08 21:00;CYGK 082100Z 22017G22KT 15SM BKN038 07/M02 A3021 RMK SC5 SLP234

CYGK;2017-11-08 22:00;CYGK 082200Z 26011G16KT 15SM FEW050 FEW250 06/M02 A3021 RMK SC2CI1 CI TR SLP235

CYGK;2017-11-08 23:00;CYGK 082300Z 25010KT 15SM FEW050 06/M01 A3022 RMK NS2 SLP237

CYGK;2017-11-09 00:00;CYGK 090000Z 23009KT 15SM FEW050 05/M01 A3022 RMK SC1 SLP238

CYGK;2017-11-09 01:00;CYGK 090100Z 23006KT 15SM SKC 05/M01 A3022 RMK SLP237

CYGK;2017-11-09 02:00;CYGK 090200Z 22008KT 15SM SKC 05/M01 A3021 RMK SLP236

CYGK;2017-11-09 03:00;CYGK 090300Z 24006KT 15SM SKC 06/M00 A3020 RMK SLP231

CYGK;2017-11-09 04:00;CYGK 090400Z 23007KT 15SM FEW040 06/00 A3018 RMK SC2 LAST STFD OBS/NEXT 091100 UTC SLP225

CYGK;2017-11-09 11:00;CYGK 091100Z 22010KT 15SM FEW030 SCT045 BKN250 07/01 A3010 RMK CU2SC2CI3 SLP198

CYGK;2017-11-09 12:00;CYGK 091200Z 20018KT 15SM SCT025 BKN045 BKN220 07/02 A3010 RMK CU3SC2CI2 SLP198

CYGK;2017-11-09 13:00;CYGK 091300Z 20015G21KT 15SM SCT030 BKN045 OVC250 07/01 A3009 RMK CU4SC2CI2 SLP195

CYGK;2017-11-09 14:00;CYGK 091400Z 19017G23KT 15SM SCT024 BKN042 OVC250 07/02 A3008 RMK CU4SC3CI1 SLP190

CYGK;2017-11-09 15:00;CYGK 091500Z 20016KT 15SM SCT020 BKN045 OVC065 08/03 A3006 RMK CU3SC2SC3 SLP184

CYGK;2017-11-09 16:00;CYGK 091600Z 20018KT 15SM FEW025 SCT055 OVC210 09/02 A3002 RMK CU1SC3CI4 PRESFR SLP169

CYGK;2017-11-09 17:00;CYGK 091700Z 21016G22KT 15SM FEW029 SCT060 BKN160 BKN200 09/02 A2998 RMK CU1SC2AC3CI1 SLP157

CYGK;2017-11-09 18:00;CYGK 091800Z 21017G23KT 15SM FEW030 BKN055 OVC250 09/01 A2995 RMK CU2SC4CI2 SLP146

CYGK;2017-11-09 19:00;CYGK 091900Z 20015G23KT 15SM SCT035 BKN050 OVC250 08/01 A2992 RMK CU3SC4CI1 SLP135

CYGK;2017-11-09 20:00;CYGK 092000Z 20016G22KT 15SM BKN035 BKN060 BKN250 08/02 A2988 RMK SC5SC1CI1 SLP121

CYGK;2017-11-09 21:00;CYGK 092100Z 19016G25KT 15SM BKN035 BKN049 BKN250 08/02 A2985 RMK SC5SC1CI1 SLP111

CYGK;2017-11-09 22:00;CYGK 092200Z 19022G29KT 12SM BKN044 OVC250 09/02 A2980 RMK SC6CI2 PRESFR SLP096

CYGK;2017-11-09 22:49;CYGK 092249Z 22025G33KT 12SM -RA OVC049 09/02 A2978 RMK SC8 SLP090

CYGK;2017-11-09 23:00;CYGK 092300Z 22024G35KT 10SM -RA OVC040 08/02 A2978 RMK SC8 SLP090

CYGK;2017-11-10 00:00;CYGK 100000Z 22026G39KT 5SM -RA BR FEW015 BKN022 OVC040 06/04 A2978 RMK SC1SC6SC1 SLP090

CYGK;2017-11-10 01:00;CYGK 100100Z 23023G29KT 12SM -RA BKN028 OVC060 07/03 A2975 RMK SC6SC2 SLP079

CYGK;2017-11-10 01:51;CYGK 100151Z 29017G32KT 10SM -TSRA FEW020CB OVC030 04/01 A2977 RMK CB2SC6 OCNL LTGIC SE SLP084

CYGK;2017-11-10 02:00;CYGK 100200Z 29018G28KT 10SM -TSRA FEW020CB OVC030 03/01 A2978 RMK CB1SC7 OCNL LTGIC SE SLP087

CYGK;2017-11-10 02:13;CYGK 100213Z 27013G24KT 15SM -RA FEW017 BKN030 OVC080 03/01 A2979 RMK SC1SC5AC3 SC TR PRESRR SLP091

CYGK;2017-11-10 03:00;CYGK 100300Z 29013G23KT 12SM -RA FEW017 SCT030 OVC060 02/M01 A2982 RMK SC2SC2SC4 SLP103

CYGK;2017-11-10 03:52;CYGK 100352Z 28017G27KT 15SM SCT040 OVC090 01/M05 A2987 RMK SC3AC5 SLP119

CYGK;2017-11-10 04:00;CYGK 100400Z 28015G23KT 15SM SCT040 OVC090 01/M06 A2988 RMK SC3AC5 LAST STFD OBS/NEXT 101100 UTC PRESRR SLP122

CYGK;2017-11-10 11:00;CYGK 101100Z 31014G23KT 15SM FEW024 M08/M17 A3024 RMK SC2 SLP245

CYGK;2017-11-10 12:00;CYGK 101200Z 31012KT 15SM FEW030 M09/M17 A3028 RMK CU2 SLP261

CYGK;2017-11-10 13:00;CYGK 101300Z 31015G22KT 15SM FEW030 M09/M16 A3032 RMK CU1 SLP274

CYGK;2017-11-10 14:00;CYGK 101400Z 31017G24KT 15SM FEW030 M09/M17 A3036 RMK CU1 SLP289

CYGK;2017-11-10 15:00;CYGK 101500Z 31014G20KT 15SM FEW030 M08/M16 A3039 RMK CU1 SLP299

CYGK;2017-11-10 16:00;CYGK 101600Z 31013G20KT 15SM FEW030 M07/M16 A3041 RMK CU1 SLP306

CYGK;2017-11-10 17:00;CYGK 101700Z 32013G20KT 260V340 15SM FEW030 M06/M17 A3041 RMK CU1 SLP306

CYGK;2017-11-10 18:00;CYGK 101800Z 30013G19KT 15SM FEW030 M04/M18 A3042 RMK CU1 SLP307

CYGK;2017-11-10 19:00;CYGK 101900Z 29015G21KT 15SM FEW030 M04/M18 A3042 RMK SC1 SLP309

CYGK;2017-11-10 20:00;CYGK 102000Z 30012G17KT 260V330 15SM FEW030 M04/M17 A3043 RMK CU1 SLP312

CYGK;2017-11-10 21:00;CYGK 102100Z 28013KT 15SM FEW030 M04/M17 A3044 RMK CU1 SLP317

CYGK;2017-11-10 22:00;CYGK 102200Z 28010G17KT 15SM FEW030 M05/M17 A3047 RMK CU1 SLP325

CYGK;2017-11-10 23:00;CYGK 102300Z 29006KT 15SM SKC M06/M16 A3049 RMK SLP332

CYGK;2017-11-11 00:00;CYGK 110000Z 31011KT 15SM SKC M06/M15 A3051 RMK SLP340

CYGK;2017-11-11 01:00;CYGK 110100Z 31009KT 15SM SKC M06/M14 A3052 RMK SLP344

CYGK;2017-11-11 02:00;CYGK 110200Z 30007KT 15SM SKC M07/M13 A3053 RMK SLP346

CYGK;2017-11-11 03:00;CYGK 110300Z 31006KT 15SM SKC M07/M12 A3054 RMK SLP350

CYGK;2017-11-11 04:00;CYGK 110400Z 30005KT 15SM SKC M07/M12 A3055 RMK LAST STFD OBS/NEXT 111100 UTC SLP353

CYGK;2017-11-11 11:00;CYGK 111100Z 01004KT 15SM FEW030 M10/M13 A3064 RMK SC1 SLP383

CYGK;2017-11-11 12:00;CYGK 111200Z 04003KT 15SM FEW030 SCT200 M10/M12 A3064 RMK SC1CI2 SLP383

CYGK;2017-11-11 13:00;CYGK 111300Z VRB02KT 15SM FEW025 FEW200 M08/M11 A3066 RMK SC1CI1 SLP391

CYGK;2017-11-11 14:00;CYGK 111400Z 05005KT 15SM FEW025 SCT250 M07/M11 A3067 RMK SC2CI1 SLP394

CYGK;2017-11-11 15:00;CYGK 111500Z 06004KT 330V080 15SM FEW030 FEW250 M06/M11 A3066 RMK SC1CI1 SLP390

CYGK;2017-11-11 16:00;CYGK 111600Z 14004KT 15SM FEW030 BKN200 M05/M12 A3064 RMK SC2CI3 SLP385

CYGK;2017-11-11 17:00;CYGK 111700Z 14004KT 090V240 15SM FEW030 FEW120 BKN240 M04/M09 A3061 RMK SC1AC1CI4 SLP372

CYGK;2017-11-11 18:00;CYGK 111800Z 12003KT 090V200 15SM FEW030 FEW120 BKN250 M03/M09 A3057 RMK SC1AC1CI6 SC TR AC TR SLP361

CYGK;2017-11-11 19:00;CYGK 111900Z 19003KT 150V230 15SM FEW030 FEW120 BKN250 M03/M09 A3055 RMK SC1AC1CI5 SC TR SLP351

CYGK;2017-11-11 20:00;CYGK 112000Z 18004KT 100V190 15SM FEW030 FEW170 BKN220 M02/M09 A3054 RMK SC1AC1CI5 SC TR SLP348

CYGK;2017-11-11 21:00;CYGK 112100Z 28003KT 220V290 15SM FEW030 BKN120 BKN250 M02/M09 A3053 RMK SC1AC5CI2 SC TR SLP345

CYGK;2017-11-11 22:00;CYGK 112200Z 08004KT 15SM FEW020 BKN120 OVC220 M02/M09 A3050 RMK SC1AC6CS2 SC TR SLP337

CYGK;2017-11-11 23:00;CYGK 112300Z 06005KT 15SM BKN170 M02/M09 A3050 RMK AC6 SLP334

CYGK;2017-11-12 00:00;CYGK 120000Z 06005KT 15SM FEW130 BKN170 M03/M10 A3048 RMK AC2AC5 SLP329

CYGK;2017-11-12 01:00;CYGK 120100Z 05006KT 15SM SCT170 BKN240 M03/M09 A3047 RMK AC3CI3 SLP327

CYGK;2017-11-12 02:00;CYGK 120200Z 06005KT 15SM BKN170 M03/M10 A3045 RMK AC7 SLP319

CYGK;2017-11-12 03:00;CYGK 120300Z 06006KT 15SM OVC160 M03/M09 A3044 RMK AC8 SLP314

CYGK;2017-11-12 04:00;CYGK 120400Z 10007KT 15SM OVC140 M01/M08 A3041 RMK AC8 LAST STFD OBS / NEXT 121100 UTC SLP306

CYGK;2017-11-12 11:00;CYGK 121100Z 02003KT 15SM SCT037 OVC085 M01/M07 A3037 RMK SC3AC5 SLP291

CYGK;2017-11-12 12:00;CYGK 121200Z 35005KT 15SM SCT033 BKN080 BKN100 M01/M06 A3037 RMK SC3AC2AC2 SLP292

CYGK;2017-11-12 13:00;CYGK 121300Z 36004KT 15SM FEW035 SCT075 OVC130 M01/M06 A3039 RMK SC2AC2AC4 SLP297

CYGK;2017-11-12 14:00;CYGK 121400Z 34005KT 15SM FEW035 SCT070 BKN130 01/M05 A3039 RMK CU1AC2AC4 SLP296

CYGK;2017-11-12 15:00;CYGK 121500Z 03004KT 15SM FEW035 SCT053 SCT130 BKN250 05/M05 A3038 RMK CU1SC2AC1CI1 SLP295

CYGK;2017-11-12 16:00;CYGK 121600Z 20005KT 15SM FEW035 BKN064 BKN130 05/M03 A3039 RMK CU1SC4AC2 SLP296

CYGK;2017-11-12 17:00;CYGK 121700Z 16011KT 15SM SCT020 BKN070 BKN110 04/M01 A3038 RMK SC4AC2AC1 SLP293

CYGK;2017-11-12 18:00;CYGK 121800Z 16009KT 15SM BKN022 BKN070 04/M01 A3036 RMK SC5AC2 SLP288

CYGK;2017-11-12 19:00;CYGK 121900Z 16009KT 15SM FEW022 BKN048 OVC100 05/M01 A3037 RMK SC2SC5AC1 SLP289

CYGK;2017-11-12 20:00;CYGK 122000Z 17008KT 15SM FEW030 BKN050 05/M02 A3037 RMK CU1SC6 SLP290

CYGK;2017-11-12 21:00;CYGK 122100Z 18004KT 130V200 15SM SCT026 OVC046 05/M02 A3037 RMK SC4SC4 SLP291

CYGK;2017-11-12 22:00;CYGK 122200Z 10008KT 15SM SCT028 BKN042 04/M02 A3038 RMK CU4SC3 SLP294

CYGK;2017-11-12 23:00;CYGK 122300Z 10006KT 15SM FEW030 BKN041 OVC060 04/M03 A3039 RMK CU2SC3SC3 SLP296

CYGK;2017-11-13 00:00;CYGK 130000Z 11007KT 15SM SCT040 OVC062 04/M04 A3039 RMK SC4SC4 SLP297

CYGK;2017-11-13 01:00;CYGK 130100Z 10007KT 15SM SCT042 OVC074 04/M05 A3039 RMK SC4AC4 SLP297

CYGK;2017-11-13 02:00;CYGK 130200Z 11008KT 15SM SCT042 OVC082 04/M07 A3039 RMK SC4AC4 SLP296

CYGK;2017-11-13 03:00;CYGK 130300Z 08007KT 15SM SCT060 OVC083 03/M07 A3038 RMK SC3AC5 SLP291

CYGK;2017-11-13 04:00;CYGK 130400Z 05004KT 15SM SCT055 OVC075 03/M07 A3037 RMK SC4AC4 LAST STFD OBS/NEXT 131100 UTC SLP289

CYGK;2017-11-13 11:00;CYGK 131100Z 11006KT 10SM -RASN OVC037 02/M01 A3036 RMK SC8 SLP287

CYGK;2017-11-13 12:00;CYGK 131200Z 06003KT 8SM -RASN BKN025 OVC040 01/M00 A3037 RMK SC5SC3 SLP290

CYGK;2017-11-13 12:25;CYGK 131225Z 03004KT 5SM -RASN BR FEW004 OVC023 01/M00 A3038 RMK SF1SC7 SLP292

CYGK;2017-11-13 12:32;CYGK 131232Z 02005KT 4SM -RASN BR SCT005 BKN010 OVC020 01/M00 A3038 RMK SF3SC3SC2 SLP292

CYGK;2017-11-13 12:35;CYGK 131235Z 02005KT 4SM -RASN BR BKN005 OVC010 01/M00 A3038 RMK SF5SC3 SLP294

CYGK;2017-11-13 13:00;CYGK 131300Z 03005KT 3SM -SN BR BKN005 OVC012 00/M00 A3038 RMK SF5SC3 SLP295

CYGK;2017-11-13 13:23;CYGK 131323Z 06005KT 5SM -SN BR FEW003 BKN012 OVC030 00/M00 A3038 RMK SF2SC4SC2 SLP293

CYGK;2017-11-13 13:39;CYGK 131339Z 06006KT 3SM -SN BR FEW003 OVC012 01/M00 A3038 RMK SF2SC6 SLP292

CYGK;2017-11-13 14:00;CYGK 131400Z 05007KT 5SM -SN BR FEW003 BKN010 OVC025 01/M00 A3038 RMK SF1SC6SC1 SLP293

CYGK;2017-11-13 14:40;CYGK 131440Z 05006KT 12SM FEW005 FEW010 BKN018 OVC040 01/00 A3037 RMK SF1CU1SC5SC2 SF TR SLP290

CYGK;2017-11-13 15:00;CYGK 131500Z 03005KT 12SM FEW005 FEW010 OVC020 02/00 A3038 RMK SF1CU2SC6 SF TR SLP292

CYGK;2017-11-13 15:24;CYGK 131524Z 05005KT 12SM FEW005 OVC012 02/M00 A3038 RMK CF2SC6 SLP292

CYGK;2017-11-13 16:00;CYGK 131600Z 05004KT 12SM FEW012 SCT022 OVC040 02/01 A3038 RMK SC1SC2SC5 SLP293

CYGK;2017-11-13 17:00;CYGK 131700Z 02004KT 12SM BKN012 OVC040 03/00 A3037 RMK SC6SC2 SLP288

CYGK;2017-11-13 18:00;CYGK 131800Z 05005KT 12SM OVC010 03/00 A3035 RMK SC8 CIG RAG SLP282

CYGK;2017-11-13 19:00;CYGK 131900Z 05006KT 350V070 12SM OVC012 03/00 A3035 RMK SC8 SLP283

CYGK;2017-11-13 20:00;CYGK 132000Z 05006KT 15SM BKN012 OVC060 03/M00 A3035 RMK SC5SC3 SLP284

CYGK;2017-11-13 21:00;CYGK 132100Z 03004KT 15SM SCT016 BKN041 OVC060 02/M00 A3037 RMK SC3SC3SC2 SLP288

CYGK;2017-11-13 22:00;CYGK 132200Z 02004KT 15SM FEW016 BKN045 OVC057 02/M01 A3037 RMK CF2SC4SC2 SLP290

CYGK;2017-11-13 23:00;CYGK 132300Z 04003KT 15SM FEW018 SCT040 OVC062 02/M01 A3038 RMK CU2SC2SC4 SLP292

CYGK;2017-11-14 00:00;CYGK 140000Z 03002KT 15SM OVC065 02/M01 A3038 RMK SC8 SLP293

CYGK;2017-11-14 01:00;CYGK 140100Z 04005KT 15SM OVC064 02/M01 A3038 RMK SC8 SLP293

CYGK;2017-11-14 02:00;CYGK 140200Z 05005KT 15SM OVC065 02/M02 A3037 RMK SC8 SLP291

CYGK;2017-11-14 03:00;CYGK 140300Z 05006KT 15SM OVC065 02/M02 A3037 RMK SC8 SLP290

CYGK;2017-11-14 04:00;CYGK 140400Z 06004KT 15SM OVC069 01/M02 A3037 RMK AC8 LAST STFD OBS/NEXT 141100 UTC SLP290

CYGK;2017-11-14 11:00;CYGK 141100Z 04005KT 15SM FEW042 OVC070 00/M03 A3037 RMK SC2AC6 SLP289

CYGK;2017-11-14 12:00;CYGK 141200Z 04006KT 15SM FEW041 OVC068 00/M03 A3036 RMK SC1AC7 SLP288

CYGK;2017-11-14 13:00;CYGK 141300Z 04005KT 15SM OVC068 01/M04 A3038 RMK AC8 SLP294

CYGK;2017-11-14 14:00;CYGK 141400Z 03004KT 15SM FEW005 OVC070 01/M03 A3039 RMK SC1AC7 SLP296

CYGK;2017-11-14 15:00;CYGK 141500Z 04005KT 15SM BKN055 OVC070 02/M03 A3039 RMK SC6AC2 SLP297

CYGK;2017-11-14 16:00;CYGK 141600Z 04005KT 15SM OVC060 02/M04 A3038 RMK SC8 SLP294

CYGK;2017-11-14 17:00;CYGK 141700Z 06004KT 15SM FEW057 OVC069 02/M05 A3036 RMK SC2AC6 SLP287

CYGK;2017-11-14 18:00;CYGK 141800Z 07004KT 360V080 15SM OVC070 03/M05 A3035 RMK AC8 SLP282

CYGK;2017-11-14 19:00;CYGK 141900Z 01004KT 350V060 15SM BKN060 OVC070 03/M05 A3033 RMK SC7AC1 SLP277

CYGK;2017-11-14 20:00;CYGK 142000Z 01003KT 15SM FEW060 OVC070 03/M05 A3033 RMK SC2AC6 SLP275

CYGK;2017-11-14 21:00;CYGK 142100Z 01004KT 15SM OVC070 03/M05 A3034 RMK AC8 SLP279

CYGK;2017-11-14 22:00;CYGK 142200Z 01003KT 15SM OVC070 03/M05 A3034 RMK AC8 SLP281

CYGK;2017-11-14 23:00;CYGK 142300Z 06005KT 15SM OVC068 02/M04 A3034 RMK AC8 SLP279

CYGK;2017-11-15 00:00;CYGK 150000Z 05005KT 15SM OVC068 01/M04 A3033 RMK AC8 SLP277

CYGK;2017-11-15 01:00;CYGK 150100Z 05003KT 15SM OVC065 01/M04 A3032 RMK SC8 SLP273

CYGK;2017-11-15 02:00;CYGK 150200Z 02003KT 15SM SCT065 M00/M04 A3032 RMK SC4 SLP273

CYGK;2017-11-15 03:00;CYGK 150300Z 05004KT 15SM SCT060 M01/M04 A3031 RMK SC3 SLP271

CYGK;2017-11-15 04:00;CYGK 150400Z 35003KT 15SM SKC M01/M03 A3030 RMK LAST STFD OBS/NEXT 151100 UTC SLP268

CYGK;2017-11-15 11:00;CYGK 151100Z 04004KT 15SM SKC M04/M06 A3027 RMK SLP257

CYGK;2017-11-15 12:00;CYGK 151200Z 06006KT 15SM FEW025 FEW120 FEW240 M04/M05 A3025 RMK SC1AC1CI1 AC TR SLP251

CYGK;2017-11-15 13:00;CYGK 151300Z 06006KT 15SM SCT040 SCT240 M01/M03 A3024 RMK SC3CI1 SLP247

CYGK;2017-11-15 13:31;CYGK 151331Z 09006KT 15SM SCT015 BKN030 01/M00 A3023 RMK SC3SC3 SLP241

CYGK;2017-11-15 14:00;CYGK 151400Z CCA 14014KT 080V150 15SM BKN015 BKN040 BKN220 04/02 A3021 RMK SC5SC1CI1 SH W-N SLP234

CYGK;2017-11-15 15:00;CYGK 151500Z 16013KT 15SM BKN016 BKN038 05/02 A3021 RMK SC5SC2 SLP234

CYGK;2017-11-15 16:00;CYGK 151600Z 17013G18KT 15SM SCT016 BKN240 07/02 A3017 RMK SC3CI2 SLP222

CYGK;2017-11-15 17:00;CYGK 151700Z 17013G18KT 15SM FEW018 BKN240 07/01 A3013 RMK CU1CI6 SLP208

CYGK;2017-11-15 18:00;CYGK 151800Z 15016KT 15SM FEW020 BKN240 06/01 A3009 RMK CU1CI6 SLP195

CYGK;2017-11-15 19:00;CYGK 151900Z 16014KT 15SM FEW020 BKN220 07/M02 A3007 RMK CU1CI7 CU TR SLP188

CYGK;2017-11-15 20:00;CYGK 152000Z 13010G18KT 15SM BKN170 BKN250 07/M01 A3004 RMK AS6CS1 SLP178

CYGK;2017-11-15 21:00;CYGK 152100Z 12013KT 15SM FEW030 BKN130 OVC250 06/M01 A3001 RMK SC1AS7CS1 SC TR PRESFR SLP166

CYGK;2017-11-15 22:00;CYGK 152200Z 11009KT 15SM OVC140 06/M01 A2998 RMK AS8 SLP157

CYGK;2017-11-15 23:00;CYGK 152300Z 11009KT 15SM OVC140 05/M00 A2997 RMK AS8 SLP153

CYGK;2017-11-16 00:00;CYGK 160000Z 15017G27KT 15SM OVC130 07/01 A2993 RMK AS8 SLP141

CYGK;2017-11-16 01:00;CYGK 160100Z 15022G28KT 15SM OVC100 07/01 A2987 RMK AS8 SLP120

CYGK;2017-11-16 02:00;CYGK 160200Z 16020G28KT 15SM OVC100 07/02 A2985 RMK AS8 SLP113

CYGK;2017-11-16 02:42;CYGK 160242Z 17024G31KT 15SM -RA BKN055 OVC110 08/02 A2983 RMK NS5AS3 PRESFR SLP105

CYGK;2017-11-16 03:00;CYGK 160300Z 17023G29KT 15SM -RA BKN050 OVC100 07/02 A2982 RMK NS6AS2 SLP103

CYGK;2017-11-16 04:00;CYGK 160400Z 17023G32KT 12SM -RA OVC026 07/03 A2978 RMK NS8 LAST STFD OBS / NEXT 161100 UTC PRESFR SLP088

CYGK;2017-11-16 11:00;CYGK 161100Z 21023G31KT 5SM -RA SCT010 OVC025 08/07 A2962 RMK SF3SC5 SLP035

CYGK;2017-11-16 11:49;CYGK 161149Z 23018G24KT 8SM FEW010 BKN020 BKN060 OVC090 08/05 A2963 RMK SF1SC4SC2AC1 SLP038

CYGK;2017-11-16 12:00;CYGK 161200Z 23020G26KT 10SM BKN020 OVC090 08/05 A2963 RMK SC6AC2 SLP038

CYGK;2017-11-16 13:00;CYGK 161300Z 24019G29KT 15SM FEW020 BKN060 BKN100 08/04 A2965 RMK CU2SC4AC1 SH W-S SLP044

CYGK;2017-11-16 13:53;CYGK 161353Z 23022KT 15SM SCT019 BKN062 07/04 A2966 RMK CU3SC4 SLP048

CYGK;2017-11-16 14:00;CYGK 161400Z 23019G29KT 15SM -SHRA SCT019 BKN062 07/04 A2966 RMK CU3SC4 SLP048

CYGK;2017-11-16 15:00;CYGK 161500Z 23019G25KT 15SM -SHRA BKN018 OVC065 07/04 A2967 RMK CU7SC1 SLP051

CYGK;2017-11-16 16:00;CYGK 161600Z 24020G28KT 15SM BKN020 OVC062 08/04 A2967 RMK SC7SC1 SLP050

CYGK;2017-11-16 16:06;CYGK 161606Z 24016G27KT 15SM -RA BKN019 OVC060 07/04 A2967 RMK SC6SC2 SLP049

CYGK;2017-11-16 17:00;CYGK 161700Z 25013G24KT 15SM -RA BKN020 OVC100 07/04 A2966 RMK SC7AC1 SLP046

CYGK;2017-11-16 17:34;CYGK 161734Z 24017G25KT 15SM VCSH BKN018 OVC065 08/03 A2965 RMK SC6SC2 SLP045

CYGK;2017-11-16 18:00;CYGK 161800Z /////KT 15SM VCSH BKN020 BKN060 08/03 A2966 RMK CU6SC1 SC TR CIG RAG SLP047

CYGK;2017-11-16 18:39;CYGK 161839Z 24018G24KT 15SM BKN020 BKN060 08/04 A2966 RMK CU6SC1 SLP046

CYGK;2017-11-16 19:00;CYGK 161900Z 25019G30KT 15SM BKN020 BKN050 07/03 A2966 RMK SC6SC1 SLP047

CYGK;2017-11-16 19:10;CYGK 161910Z 24018KT 15SM -SHRA BKN020 OVC045 07/04 A2966 RMK CU5SC3 SLP047

CYGK;2017-11-16 20:00;CYGK 162000Z 27015G24KT 15SM BKN021 OVC100 07/02 A2967 RMK SC7AC1 SLP052

CYGK;2017-11-16 20:26;CYGK 162026Z 29014G23KT 15SM -SHRA BKN018 OVC080 06/02 A2969 RMK SC6AC2 CVCTV CLD EMBD SLP058

CYGK;2017-11-16 21:00;CYGK 162100Z 29015G26KT 15SM -SHRA SCT018 OVC080 04/01 A2973 RMK SC4AC4 CVCTV CLD EMB SLP070

CYGK;2017-11-16 22:00;CYGK 162200Z 29013G19KT 15SM SCT017 OVC110 04/01 A2978 RMK SC3AC5 OCNL -SHRA SLP087

CYGK;2017-11-16 23:00;CYGK 162300Z 30010G19KT 15SM FEW018 SCT040 BKN070 BKN110 04/01 A2982 RMK SC1SC3AC2AC1 SLP102

CYGK;2017-11-16 23:18;CYGK 162318Z 31013KT 15SM -SHRA FEW020 BKN040 OVC070 04/00 A2983 RMK CU2SC3AC3 SLP106

CYGK;2017-11-16 23:47;CYGK 162347Z 30012G20KT 15SM BKN024 OVC070 03/M00 A2985 RMK SC5AC3 SLP113

CYGK;2017-11-17 00:00;CYGK 170000Z 32013G23KT 15SM BKN021 OVC064 03/M01 A2986 RMK SC6SC2 SLP116

CYGK;2017-11-17 01:00;CYGK 170100Z 31014G21KT 15SM BKN029 OVC090 02/M02 A2990 RMK SC7AC1 SLP128

CYGK;2017-11-17 02:00;CYGK 170200Z 30011G21KT 15SM OVC030 02/M03 A2993 RMK SC8 SLP138

CYGK;2017-11-17 03:00;CYGK 170300Z 31017KT 15SM OVC029 01/M04 A2996 RMK SC8 SLP150

CYGK;2017-11-17 04:00;CYGK 170400Z 30010G16KT 15SM OVC026 01/M04 A2998 RMK SC8 LAST STFD OBS/NEXT 171100 UTC SLP158

CYGK;2017-11-17 11:00;CYGK 171100Z 32010G16KT 15SM FEW025 M04/M10 A3017 RMK SC2 SLP222

CYGK;2017-11-17 12:00;CYGK 171200Z 33006KT 15SM FEW025 M06/M10 A3019 RMK SC2 SLP230

CYGK;2017-11-17 13:00;CYGK 171300Z 33010KT 15SM FEW025 FEW240 M05/M11 A3022 RMK SC1CI1 SLP240

CYGK;2017-11-17 14:00;CYGK 171400Z 32011G17KT 15SM FEW025 FEW240 M04/M11 A3022 RMK SC1CI1 SC TR SLP241

CYGK;2017-11-17 15:00;CYGK 171500Z 33010KT 15SM FEW025 FEW240 M03/M11 A3022 RMK SC1CI2 SC TR SLP240

CYGK;2017-11-17 16:00;CYGK 171600Z 28007KT 270V330 15SM FEW025 BKN240 M02/M12 A3021 RMK SC1CI6 SC TR SLP237

CYGK;2017-11-17 17:00;CYGK 171700Z 34009KT 15SM FEW030 BKN240 M00/M12 A3018 RMK SC1CI6 SC TR SLP227

CYGK;2017-11-17 18:00;CYGK 171800Z 28009KT 15SM FEW030 SCT240 01/M12 A3017 RMK SC1CI4 SC TR SLP222

CYGK;2017-11-17 19:00;CYGK 171900Z 29006KT 15SM FEW030 SCT240 02/M11 A3016 RMK SC1CI3 SC TR SLP219

CYGK;2017-11-17 20:00;CYGK 172000Z 26003KT 200V320 15SM FEW030 SCT250 02/M13 A3015 RMK SC1CI3 SC TR SLP216

CYGK;2017-11-17 21:00;CYGK 172100Z 28003KT 15SM FEW035 FEW140 SCT240 01/M14 A3014 RMK SC1AC1CI3 SC TR AC TR SLP211

CYGK;2017-11-17 22:00;CYGK 172200Z 26005KT 15SM SCT160 BKN270 M00/M11 A3013 RMK AC3CI3 SLP210

CYGK;2017-11-17 23:00;CYGK 172300Z 26003KT 220V290 15SM BKN150 M00/M10 A3011 RMK AC5 SLP204

CYGK;2017-11-18 00:00;CYGK 180000Z 26003KT 15SM SCT120 M01/M11 A3010 RMK AC3 SLP199

CYGK;2017-11-18 01:00;CYGK 180100Z 30003KT 15SM SCT120 M02/M10 A3007 RMK AC3 SLP191

CYGK;2017-11-18 02:00;CYGK 180200Z 35004KT 15SM SCT110 M02/M10 A3004 RMK AC4 SLP180

CYGK;2017-11-18 03:00;CYGK 180300Z 04004KT 15SM BKN120 M03/M06 A3002 RMK AC7 SLP173

CYGK;2017-11-18 04:00;CYGK 180400Z 03005KT 15SM BKN130 M02/M08 A3000 RMK AC7 LAST STFD OBS/NEXT 181100 UTC SLP164

CYGK;2017-11-18 11:00;CYGK 181100Z 08006KT 15SM BKN130 00/M04 A2973 RMK AC7 SLP072

CYGK;2017-11-18 12:00;CYGK 181200Z 07003KT 040V130 15SM FEW130 BKN170 00/M04 A2971 RMK AC2AS5 VIRGA SLP067

CYGK;2017-11-18 13:00;CYGK 181300Z 17015G21KT 15SM SCT080 OVC120 05/M01 A2970 RMK AC3AC5 SLP061

CYGK;2017-11-18 13:29;CYGK 181329Z 14010KT 15SM -RA BKN058 OVC120 05/M00 A2966 RMK NS5AC3 PRESFR SLP049

CYGK;2017-11-18 14:00;CYGK 181400Z 15012G19KT 15SM -RA BKN056 OVC120 05/01 A2965 RMK NS6AC2 SLP046

CYGK;2017-11-18 15:00;CYGK 181500Z 16018G24KT 15SM SCT036 BKN052 OVC120 05/01 A2962 RMK SC3SC3AC2 SLP035

CYGK;2017-11-18 15:31;CYGK 181531Z 17017G22KT 6SM -RA BR FEW025 OVC036 06/02 A2963 RMK SC1NS7 VSBY E 12 SLP039

CYGK;2017-11-18 16:00;CYGK 181600Z 16016G21KT 15SM SCT027 OVC035 06/01 A2959 RMK SC3SC5 PRESFR SLP023

CYGK;2017-11-18 17:00;CYGK 181700Z 17015G21KT 15SM BKN028 OVC042 07/01 A2954 RMK SC6SC2 SLP008

CYGK;2017-11-18 18:00;CYGK 181800Z 17016KT 15SM BKN025 OVC042 07/02 A2950 RMK SC6SC2 PRESFR SLP996

CYGK;2017-11-18 19:00;CYGK 181900Z 17016G22KT 15SM OVC023 07/02 A2949 RMK SC8 SLP989

CYGK;2017-11-18 20:00;CYGK 182000Z 17013G19KT 15SM OVC021 08/02 A2944 RMK SC8 SLP975

CYGK;2017-11-18 21:00;CYGK 182100Z 17012G18KT 15SM FEW010 OVC022 08/03 A2942 RMK CU1SC8 CU TR SLP968

CYGK;2017-11-18 22:00;CYGK 182200Z 16013G20KT 15SM OVC021 08/03 A2940 RMK SC8 SLP961

CYGK;2017-11-18 23:00;CYGK 182300Z 14015G20KT 15SM OVC021 08/03 A2937 RMK SC8 SLP951

CYGK;2017-11-18 23:23;CYGK 182323Z 15015KT 10SM -RA OVC021 08/04 A2937 RMK SC8 SLP951

CYGK;2017-11-19 00:00;CYGK 190000Z 15017KT 5SM -RA BR SCT012 OVC016 07/05 A2935 RMK SC4SC4 SLP943

CYGK;2017-11-19 00:13;CYGK 190013Z 15015G21KT 4SM -RA BR BKN007 OVC016 07/05 A2933 RMK SF5SC3 PRESFR SLP937

CYGK;2017-11-19 01:00;CYGK 190100Z 14014KT 7SM -RA BR BKN006 OVC010 06/05 A2928 RMK SF6SC2 PRESFR SLP920

CYGK;2017-11-19 02:00;CYGK 190200Z 14014G22KT 6SM -RA BR OVC007 07/06 A2926 RMK SF8 PRESFR SLP911

CYGK;2017-11-19 03:00;CYGK 190300Z 14015KT 6SM -RA BR OVC006 07/06 A2921 RMK SF8 PRESFR SLP894

CYGK;2017-11-19 04:00;CYGK 190400Z 15010G16KT 6SM -RA BR OVC006 07/06 A2916 RMK SF8 LAST STFD OBS/NEXT 191100 UTC PRESFR SLP877 DENSITY ALT 400FT

CYGK;2017-11-19 11:00;CYGK 191100Z 32017G26KT 1SM -SN SCT005 OVC009 M00/M01 A2919 RMK SN2SF1NS5 PRESRR SLP889

CYGK;2017-11-19 11:21;CYGK 191121Z 32016KT 2SM -SN FEW006 BKN009 OVC035 M00/M01 A2922 RMK SF2SC3NS3 PRESRR SLP901

CYGK;2017-11-19 12:02;CYGK 191202Z 30011G24KT 3/4SM -SN SCT008 OVC011 M01/M02 A2930 RMK SN2SF2NS4 PRESRR SLP928

CYGK;2017-11-19 12:11;CYGK 191211Z 30012G23KT 3/4SM -SN BKN007 OVC011 M01/M02 A2931 RMK SN2SF3NS3 PRESRR SLP931

CYGK;2017-11-19 13:00;CYGK 191300Z 30012G19KT 3/4SM -SN OVC009 M01/M03 A2938 RMK SN2SF6 PRESRR SLP954

CYGK;2017-11-19 13:07;CYGK 191307Z 29013G25KT 1SM -SN OVC009 M01/M03 A2939 RMK SF8 PRESRR SLP957

CYGK;2017-11-19 13:20;CYGK 191320Z 29011G18KT 3/4SM -SN OVC009 M01/M03 A2941 RMK SN2SF6 PRESRR SLP963

CYGK;2017-11-19 13:41;CYGK 191341Z 29011KT 1SM -SN OVC009 M01/M03 A2942 RMK SF8 SLP969

CYGK;2017-11-19 14:00;CYGK 191400Z 29011G16KT 6SM -SN BKN009 OVC026 M01/M03 A2944 RMK SF5SC3 VIS LWR NE-SE SLP973

CYGK;2017-11-19 14:09;CYGK 191409Z 29013KT 15SM SCT009 BKN024 BKN120 M01/M03 A2944 RMK SF3SC3AC1 SLP975

CYGK;2017-11-19 15:00;CYGK 191500Z 30013KT 15SM BKN026 BKN120 M00/M04 A2948 RMK SC5AC2 SLP987

CYGK;2017-11-19 16:00;CYGK 191600Z 31016G23KT 15SM BKN027 00/M05 A2952 RMK SC7 SLP001

CYGK;2017-11-19 17:00;CYGK 191700Z 28011KT 15SM OVC022 00/M03 A2953 RMK SC8 SLP005

CYGK;2017-11-19 18:00;CYGK 191800Z 27010KT 15SM BKN024 OVC034 01/M03 A2954 RMK SC7SC1 SLP009

CYGK;2017-11-19 19:00;CYGK 191900Z 28008KT 15SM -SHGS BKN024 OVC042 01/M02 A2956 RMK CU5SC3 SLP014

CYGK;2017-11-19 20:00;CYGK 192000Z 28011KT 15SM BKN023 OVC042 01/M02 A2958 RMK CU5SC3 OCNL -SHGS SLP023

CYGK;2017-11-19 21:00;CYGK 192100Z 28008G15KT 15SM SCT022 BKN047 01/M04 A2962 RMK CU4SC3 SLP034

CYGK;2017-11-19 22:00;CYGK 192200Z 28008KT 15SM FEW025 OVC031 01/M04 A2964 RMK CU1SC7 SLP044

CYGK;2017-11-19 23:00;CYGK 192300Z 28010KT 15SM BKN040 OVC086 01/M04 A2966 RMK SC5AC3 SLP050

CYGK;2017-11-19 23:34;CYGK 192334Z 29008KT 15SM -SN BKN033 OVC083 00/M03 A2968 RMK SC5AC3 SLP055

CYGK;2017-11-20 00:00;CYGK 200000Z 28008KT 14SM -SN SCT037 OVC086 00/M03 A2968 RMK SC4AC4 PCPN VRY LGT SLP057

CYGK;2017-11-20 01:00;CYGK 200100Z 28007KT 15SM FEW040 BKN081 M01/M04 A2969 RMK SC1AC6 SLP059

CYGK;2017-11-20 02:00;CYGK 200200Z 28007KT 15SM SCT082 M01/M05 A2971 RMK AC3 SLP066

CYGK;2017-11-20 03:00;CYGK 200300Z 28009KT 15SM FEW080 M02/M06 A2973 RMK AC2 SLP072

CYGK;2017-11-20 03:32;CYGK 200332Z 28011G16KT 15SM -SN SCT050 M02/M06 A2974 RMK SC3 SLP077

CYGK;2017-11-20 04:00;CYGK 200400Z 28009KT 15SM -SN BKN052 M02/M06 A2975 RMK SC5 LAST STFD OBS/NEXT 201100 UTC SLP080

CYGK;2017-11-20 11:00;CYGK 201100Z 29003KT 250V320 12SM -SHSN SCT030 BKN045 OVC065 M04/M10 A2990 RMK CU3SC3SC2 SLP132

CYGK;2017-11-20 11:16;CYGK 201116Z 29005KT 4SM -SHSN OVC035 M05/M09 A2991 RMK CU8 SLP134

CYGK;2017-11-20 11:28;CYGK 201128Z 29005KT 230V300 2 1/2SM -SHSN SCT021 OVC032TCU M05/M09 A2991 RMK SN2SF1TCU5 SLP134

CYGK;2017-11-20 11:46;CYGK 201146Z 00000KT 6SM -SHSN FEW020 OVC026TCU M05/M08 A2992 RMK SF1TCU7 SLP137

CYGK;2017-11-20 12:00;CYGK 201200Z 00000KT 12SM -SHSN FEW015 OVC025 M05/M08 A2992 RMK SF1CU7 VIS LWR E SLP137

CYGK;2017-11-20 13:00;CYGK 201300Z VRB02KT 12SM -SHSN BKN030TCU OVC075 M05/M07 A2992 RMK TCU5AC3 SLP137

CYGK;2017-11-20 14:00;CYGK 201400Z 00000KT 5SM -SHSN BKN035TCU BKN070 M04/M06 A2991 RMK TCU6AC1 SLP134

CYGK;2017-11-20 14:36;CYGK 201436Z 25008KT 230V300 15SM FEW030 SCT045 BKN080 M01/M05 A2990 RMK CU2SC1AC4 SLP130

CYGK;2017-11-20 15:00;CYGK 201500Z 26008KT 15SM FEW030 BKN077 M01/M05 A2989 RMK CU2AC5 SH DIST N-NE AND S SLP128

CYGK;2017-11-20 15:23;CYGK 201523Z 28009KT 15SM FEW035 FEW050 BKN070 M01/M05 A2990 WS ALL RWY RMK CU1SC2AC5 CU TR SLP130

CYGK;2017-11-20 16:00;CYGK 201600Z 26008G15KT 15SM FEW030 BKN045 BKN075 00/M04 A2989 WS ALL RWY RMK CU1SC5AC2 CU TR SLP126

CYGK;2017-11-20 17:00;CYGK 201700Z 28008KT 15SM BKN030 BKN050 02/M04 A2989 RMK SC6SC1 CVCTV CLD EMBD SH ALQDS SLP126

CYGK;2017-11-20 17:20;CYGK 201720Z 33007KT 10SM -SHGS BKN030TCU OVC050 01/M03 A2989 RMK TCU7SC1 SLP126

CYGK;2017-11-20 17:44;CYGK 201744Z 34008KT 5SM -SHGS OVC025TCU M00/M03 A2990 RMK TCU8 VIS NW - N 1 1/2 SLP131

CYGK;2017-11-20 18:00;CYGK 201800Z 36007KT 4SM -SHGS OVC022TCU M01/M03 A2990 RMK TCU8 SLP131

CYGK;2017-11-20 18:22;CYGK 201822Z 35008KT 2 1/2SM -SHSN OVC019TCU M01/M03 A2990 RMK TCU8 SLP132

CYGK;2017-11-20 18:31;CYGK 201831Z 35007KT 3SM -SHSN OVC019TCU M01/M03 A2990 RMK TCU8 SLP132

CYGK;2017-11-20 19:00;CYGK 201900Z 36008KT 6SM -SHSN OVC028TCU M02/M04 A2990 RMK TCU8 VIS LWR N SLP132

CYGK;2017-11-20 20:00;CYGK 202000Z 01007KT 15SM -SHSN FEW018 BKN030 OVC100 M01/M04 A2990 RMK CF1SC6AC1 CVCTV CLD EMBD SLP133

CYGK;2017-11-20 20:38;CYGK 202038Z 01004KT 15SM FEW018 OVC035 M01/M04 A2992 RMK CF1SC7 SLP139

CYGK;2017-11-20 21:00;CYGK 202100Z 36006KT 15SM FEW018 OVC037 M01/M04 A2993 RMK CF1SC8 CF TR SLP140

CYGK;2017-11-20 22:00;CYGK 202200Z 09004KT 15SM FEW020 OVC039 M01/M04 A2994 RMK CF1SC8 CF TR SLP146

CYGK;2017-11-20 23:00;CYGK 202300Z 09004KT 15SM FEW022 OVC035 M01/M04 A2996 RMK CF1SC7 SLP150

CYGK;2017-11-21 00:00;CYGK 210000Z 06004KT 15SM OVC030 M01/M04 A2995 RMK SC8 SLP148

CYGK;2017-11-21 01:00;CYGK 210100Z 10004KT 15SM OVC022 M00/M03 A2994 RMK SC8 SLP146

CYGK;2017-11-21 02:00;CYGK 210200Z 09007KT 15SM SCT018 BKN042 OVC110 M00/M02 A2992 RMK SC3SC4AC1 SLP138

CYGK;2017-11-21 03:00;CYGK 210300Z 09003KT 15SM SCT040 BKN130 M00/M03 A2990 RMK SC4AC2 SLP131

CYGK;2017-11-21 04:00;CYGK 210400Z VRB02KT 15SM FEW040 FEW150 01/M02 A2987 RMK SC1AC1 SC TR AC TR LAST STFD OBS/NEXT 211100 UTC SLP122

CYGK;2017-11-21 11:00;CYGK 211100Z 19020G28KT 15SM SCT250 07/02 A2979 RMK CI3 SLP092

CYGK;2017-11-21 12:00;CYGK 211200Z 19019G28KT 15SM FEW200 SCT250 07/01 A2978 RMK CI2CI2 SLP088

CYGK;2017-11-21 13:00;CYGK 211300Z 19022G29KT 15SM FEW200 BKN250 08/01 A2976 RMK CI2CI3 SLP083

CYGK;2017-11-21 14:00;CYGK 211400Z 19020G27KT 15SM FEW200 BKN250 08/01 A2975 RMK CI2CI4 SLP079

CYGK;2017-11-21 15:00;CYGK 211500Z 20022G27KT 15SM SCT220 BKN250 08/01 A2974 RMK CI3CI3 SLP076

CYGK;2017-11-21 16:00;CYGK 211600Z 20018G25KT 15SM SCT220 BKN250 08/01 A2974 RMK CI4CI2 SLP075

CYGK;2017-11-21 17:00;CYGK 211700Z 20017G26KT 15SM SCT200 BKN250 09/01 A2971 RMK CI4CI3 SLP066

CYGK;2017-11-21 18:00;CYGK 211800Z 20015G22KT 15SM SCT160 BKN240 09/01 A2971 RMK AC3CI4 SLP063

CYGK;2017-11-21 19:00;CYGK 211900Z 21012G18KT 15SM SCT180 BKN200 BKN220 10/02 A2970 RMK AC4CI2CI1 SLP062

CYGK;2017-11-21 20:00;CYGK 212000Z 20010KT 15SM SCT180 SCT250 10/03 A2972 RMK AC3CI1 SLP068

CYGK;2017-11-21 21:00;CYGK 212100Z 24006KT 15SM FEW180 BKN220 10/01 A2975 RMK AC1CI4 SLP078

CYGK;2017-11-21 22:00;CYGK 212200Z 23012G18KT 15SM FEW180 SCT220 09/02 A2976 RMK AC1CI3 AC TR SLP083

CYGK;2017-11-21 23:00;CYGK 212300Z 24011G17KT 15SM FEW220 08/03 A2978 RMK CI2 SLP090

CYGK;2017-11-22 00:00;CYGK 220000Z 24015G21KT 15SM SCT220 09/03 A2980 RMK CI3 SLP095

CYGK;2017-11-22 01:00;CYGK 220100Z 24012G20KT 15SM BKN070 OVC160 09/03 A2980 RMK AC5AC3 SLP096

CYGK;2017-11-22 02:00;CYGK 220200Z 23013G18KT 15SM BKN076 OVC160 09/03 A2981 RMK AC5AC3 SLP099

CYGK;2017-11-22 03:00;CYGK 220300Z 24009G16KT 15SM BKN075 OVC120 09/04 A2981 RMK AC7AC1 SLP097

CYGK;2017-11-22 03:47;CYGK 220347Z 24014G20KT 15SM -RA SCT060 OVC080 09/04 A2982 RMK SC3AC5 SLP101

CYGK;2017-11-22 04:00;CYGK 220400Z 25013G20KT 15SM -RA BKN060 OVC120 09/04 A2981 RMK SC6AC2 LAST STFD OBS/NEXT 221100 UTC SLP100

CYGK;2017-11-22 11:00;CYGK 221100Z 26004KT 15SM -SN OVC050 02/01 A2997 RMK SC8 SLP152

CYGK;2017-11-22 11:25;CYGK 221125Z 26007KT 15SM OVC060 03/01 A2998 RMK SC8 SLP156

CYGK;2017-11-22 12:00;CYGK 221200Z 27007KT 15SM FEW020 OVC065 02/00 A2999 RMK CF1SC8 CF TR SLP159

CYGK;2017-11-22 13:00;CYGK 221300Z 27006KT 15SM FEW020 OVC066 02/00 A3001 RMK CF1AC8 CF TR SLP167

CYGK;2017-11-22 14:00;CYGK 221400Z 28008KT 15SM FEW015 BKN044 OVC066 02/M01 A3003 RMK CF1SC7AC1 CF TR SLP173

CYGK;2017-11-22 15:00;CYGK 221500Z 28007KT 15SM FEW015 BKN044 OVC068 02/M01 A3004 RMK CF1SC6AC1 SLP175

CYGK;2017-11-22 16:00;CYGK 221600Z 30008KT 15SM FEW020 OVC043 02/M01 A3004 RMK CU2SC6 SLP176

CYGK;2017-11-22 16:08;CYGK 221608Z 29007KT 12SM -SHGS SCT020 OVC038 02/M01 A3004 RMK CU3SC5 SLP175

CYGK;2017-11-22 16:55;CYGK 221655Z 33008KT 5SM -SHGS FEW010 OVC025 01/M01 A3004 RMK SF2SC6 VIS W - N 1/2 SLP178

CYGK;2017-11-22 17:00;CYGK 221700Z 33006KT 12SM -SHGS FEW010 OVC017 01/M01 A3004 RMK SF2SC6 SLP178

CYGK;2017-11-22 17:38;CYGK 221738Z 34013KT 15SM BKN020 OVC045 01/M02 A3004 RMK SC6SC2 SLP176

CYGK;2017-11-22 18:00;CYGK 221800Z 33012G17KT 15SM BKN024 OVC038 01/M03 A3005 RMK SC6SC2 SLP181

CYGK;2017-11-22 19:00;CYGK 221900Z 34010KT 15SM BKN021 OVC046 01/M04 A3006 RMK SC6SC2 SLP185

CYGK;2017-11-22 20:00;CYGK 222000Z 32006KT 15SM BKN023 OVC045 01/M04 A3008 RMK SC5SC3 SLP192

CYGK;2017-11-22 21:00;CYGK 222100Z 31007KT 15SM SCT025 OVC042 00/M05 A3010 RMK SC3SC5 SLP200

CYGK;2017-11-22 22:00;CYGK 222200Z 29005KT 15SM FEW025 OVC038 M00/M06 A3013 RMK SC2SC6 SLP209

CYGK;2017-11-22 23:00;CYGK 222300Z 32007KT 15SM OVC037 M01/M06 A3014 RMK SC8 SLP213

CYGK;2017-11-23 00:00;CYGK 230000Z 32011G17KT 15SM OVC035 M02/M08 A3016 RMK SC8 SLP220

CYGK;2017-11-23 01:00;CYGK 230100Z 30011KT 15SM OVC030 M03/M09 A3017 RMK SC8 SLP223

CYGK;2017-11-23 02:00;CYGK 230200Z 33006KT 15SM OVC030 M03/M09 A3017 RMK SC8 SLP223

CYGK;2017-11-23 03:00;CYGK 230300Z 33008KT 15SM OVC030 M04/M10 A3018 RMK SC8 SLP225

CYGK;2017-11-23 04:00;CYGK 230400Z 32007KT 15SM BKN030 M04/M10 A3017 RMK SC7 LAST STFD OBS/NEXT 231100 UTC SLP224

CYGK;2017-11-23 11:00;CYGK 231100Z 32004KT 15SM SCT043 BKN140 M05/M10 A3014 RMK SC3AC2 SLP214

CYGK;2017-11-23 12:00;CYGK 231200Z 36002KT 15SM BKN037 BKN140 M05/M09 A3011 RMK SC6AC1 SLP204

CYGK;2017-11-23 13:00;CYGK 231300Z 05002KT 15SM BKN037 BKN140 M05/M09 A3010 RMK SC6AC1 SLP201

CYGK;2017-11-23 14:00;CYGK 231400Z VRB02KT 15SM FEW015 BKN037 BKN140 M04/M08 A3011 RMK SC1SC7AC1 SC TR AC TR SLP202

CYGK;2017-11-23 15:00;CYGK 231500Z 08002KT 15SM FEW015 BKN032 M02/M06 A3007 RMK CU1SC7 CU TR SLP191

CYGK;2017-11-23 16:00;CYGK 231600Z 22009KT 15SM FEW020 BKN035 OVC120 01/M04 A3005 RMK CU1SC6AC1 SLP181

CYGK;2017-11-23 17:00;CYGK 231700Z 22011KT 15SM FEW020 SCT043 OVC110 02/M03 A3001 RMK CU1SC3AC4 SLP168

CYGK;2017-11-23 18:00;CYGK 231800Z 23011G18KT 15SM FEW020 BKN042 OVC084 02/M04 A2998 RMK CU1SC5AC3 CU TR SLP159

CYGK;2017-11-23 19:00;CYGK 231900Z 23010G18KT 15SM BKN027 OVC080 03/M03 A2995 RMK SC7AC1 CIG RAG SLP149

CYGK;2017-11-23 20:00;CYGK 232000Z 22013G23KT 15SM SCT027 OVC110 03/M02 A2993 RMK SC4AC4 SLP143

CYGK;2017-11-23 21:00;CYGK 232100Z 23014G23KT 15SM SCT040 OVC110 03/M03 A2993 RMK SC3AC5 SLP141

CYGK;2017-11-23 22:00;CYGK 232200Z 23014G20KT 15SM SCT030 OVC100 03/M02 A2992 RMK SC4AC4 SLP137

CYGK;2017-11-23 22:07;CYGK 232207Z 22017KT 15SM BKN030 OVC100 03/M02 A2991 RMK SC6AC2 SLP136

CYGK;2017-11-23 23:00;CYGK 232300Z 23017G24KT 15SM OVC030 03/M01 A2992 RMK SC8 SLP137

CYGK;2017-11-24 00:00;CYGK 240000Z 22015G21KT 15SM OVC025 03/M01 A2990 RMK SC8 SLP132

CYGK;2017-11-24 01:00;CYGK 240100Z 23018KT 15SM OVC023 04/M00 A2991 RMK SC8 SLP134

CYGK;2017-11-24 02:00;CYGK 240200Z 23012G19KT 15SM SCT020 OVC040 04/00 A2990 RMK SC3SC5 SLP129

CYGK;2017-11-24 03:00;CYGK 240300Z 25012G21KT 15SM OVC043 04/M02 A2989 RMK SC8 SLP128

CYGK;2017-11-24 04:00;CYGK 240400Z 26011G18KT 15SM BKN038 OVC075 04/M02 A2990 RMK SC5AC3 LAST STFD OBS/NEXT 241100 UTC SLP131

CYGK;2017-11-24 11:00;CYGK 241100Z 21010KT 15SM OVC043 04/M00 A2989 RMK SC8 SLP126

CYGK;2017-11-24 12:00;CYGK 241200Z 23009KT 15SM OVC043 04/M00 A2989 RMK SC8 SLP127

CYGK;2017-11-24 13:00;CYGK 241300Z 22009KT 15SM FEW025 FEW040 SCT120 BKN240 04/00 A2989 RMK CU1SC1AC1CI4 SLP127

CYGK;2017-11-24 14:00;CYGK 241400Z 22013KT 15SM FEW026 SCT040 BKN120 BKN250 06/01 A2988 RMK CU1SC3AC1CI2 SLP124

CYGK;2017-11-24 15:00;CYGK 241500Z 21017G22KT 15SM FEW025 BKN038 BKN240 06/M01 A2987 RMK CU1SC4CI1 SLP119

CYGK;2017-11-24 16:00;CYGK 241600Z 20018G25KT 15SM BKN025 BKN240 07/01 A2984 RMK SC6CI1 SLP111

CYGK;2017-11-24 17:00;CYGK 241700Z 21019G26KT 15SM BKN020 BKN250 07/02 A2981 RMK CU5CI1 SLP101

CYGK;2017-11-24 18:00;CYGK 241800Z 20019KT 15SM FEW021 BKN250 06/01 A2979 RMK CU2CI4 SLP093

CYGK;2017-11-24 19:00;CYGK 241900Z 21014G26KT 15SM FEW020 FEW120 SCT250 08/M00 A2976 RMK CU1AC1CI3 CU TR SLP083

CYGK;2017-11-24 20:00;CYGK 242000Z 20016G23KT 15SM FEW150 SCT200 BKN250 08/M00 A2975 RMK AC1CI3CI2 SLP078

CYGK;2017-11-24 21:00;CYGK 242100Z 20017G24KT 15SM FEW150 BKN200 BKN250 08/01 A2973 RMK AC1CI4CI2 SLP072

CYGK;2017-11-24 22:00;CYGK 242200Z 19015G21KT 15SM FEW100 SCT200 BKN250 09/03 A2971 RMK AC1CI3CI3 AC TR SLP066

CYGK;2017-11-24 23:00;CYGK 242300Z 19015KT 15SM FEW180 SCT200 BKN250 09/03 A2970 RMK AC2CI2CI2 SLP062

CYGK;2017-11-25 00:00;CYGK 250000Z 18015KT 15SM FEW180 BKN200 09/03 A2969 RMK AC2CI4 SLP057

CYGK;2017-11-25 01:00;CYGK 250100Z 18018G25KT 15SM FEW160 BKN200 09/03 A2968 RMK AC1CI5 SLP055

CYGK;2017-11-25 02:00;CYGK 250200Z 19018G23KT 15SM FEW180 SCT200 09/03 A2968 RMK AC1CI2 SLP054

CYGK;2017-11-25 03:00;CYGK 250300Z 18017G22KT 15SM FEW200 09/02 A2966 RMK CI1 SLP047

CYGK;2017-11-25 04:00;CYGK 250400Z 18020G29KT 15SM SKC 08/02 A2963 RMK LAST STFD OBS/NEXT 251100 UTC SLP038

CYGK;2017-11-25 11:00;CYGK 251100Z 19017KT 15SM FEW095 BKN160 09/04 A2952 RMK AC2AC5 SLP998

CYGK;2017-11-25 12:00;CYGK 251200Z 20015G22KT 15SM BKN100 BKN140 09/03 A2951 RMK AC5AC2 SLP996

CYGK;2017-11-25 12:21;CYGK 251221Z 20014G20KT 15SM -RA BKN100 BKN160 09/04 A2951 RMK AC6AC1 SLP995

CYGK;2017-11-25 13:00;CYGK 251300Z 20016KT 15SM -RA BKN085 BKN160 09/04 A2951 RMK AC6AC1 SLP997

CYGK;2017-11-25 13:30;CYGK 251330Z 20013KT 15SM BKN080 09/04 A2952 RMK AC7 SLP998

CYGK;2017-11-25 13:39;CYGK 251339Z 20015KT 12SM -RA BKN080 09/04 A2952 RMK AC7 SLP998

CYGK;2017-11-25 14:00;CYGK 251400Z 23013G20KT 12SM -SHRA FEW063 OVC080 08/05 A2953 RMK SC2AC6 CVCTV CLD EMBD SLP003

CYGK;2017-11-25 15:00;CYGK 251500Z 22010KT 15SM -RA SCT040 OVC070 08/06 A2954 RMK SC3AC5 SLP008

CYGK;2017-11-25 16:00;CYGK 251600Z 25011KT 10SM -RA BKN027 OVC050 08/06 A2956 RMK SC5SC3 SLP013

CYGK;2017-11-25 17:00;CYGK 251700Z 24011KT 10SM -RA FEW015 BKN022 OVC040 08/06 A2956 RMK SF1SC5SC3 SF TR SLP013

CYGK;2017-11-25 17:17;CYGK 251717Z 25011KT 10SM -RA SCT008 BKN015 OVC030 07/06 A2956 RMK SF4SF2SC2 SLP013

CYGK;2017-11-25 17:33;CYGK 251733Z 25010G15KT 10SM -RA BKN008 OVC035 07/06 A2956 RMK SF5SC3 SLP013

CYGK;2017-11-25 18:00;CYGK 251800Z 25010G15KT 8SM -RA BKN008 OVC030 07/06 A2958 RMK SF6SC2 SLP019

CYGK;2017-11-25 18:26;CYGK 251826Z 25008KT 12SM BKN008 BKN015 OVC030 07/06 A2958 RMK SF5SC2SC1 SLP019

CYGK;2017-11-25 18:48;CYGK 251848Z 26005KT 230V290 12SM SCT008 BKN015 OVC048 08/06 A2958 RMK SF3SC4SC1 SLP019

CYGK;2017-11-25 19:00;CYGK 251900Z 26007KT 12SM FEW008 BKN015 BKN028 OVC048 08/06 A2958 RMK SF2SC3SC2SC1 SLP020

CYGK;2017-11-25 20:00;CYGK 252000Z 27010G16KT 15SM FEW015 OVC030 08/06 A2961 RMK CU2SC6 SLP029

CYGK;2017-11-25 21:00;CYGK 252100Z 23008KT 15SM FEW020 BKN030 BKN069 08/06 A2963 RMK CU2SC4AC1 SLP038

CYGK;2017-11-25 22:00;CYGK 252200Z 25009KT 15SM FEW015 SCT040 BKN070 07/02 A2965 RMK CU1SC2AC2 SLP044

CYGK;2017-11-25 23:00;CYGK 252300Z 27007KT 15SM FEW040 OVC065 06/01 A2967 RMK SC2SC6 SLP051

CYGK;2017-11-26 00:00;CYGK 260000Z 32013KT 15SM FEW040 BKN065 05/01 A2969 RMK CU1SC4 SLP058

CYGK;2017-11-26 01:00;CYGK 260100Z 32006KT 15SM BKN070 04/01 A2971 RMK AC6 SLP066

CYGK;2017-11-26 02:00;CYGK 260200Z 29006KT 15SM FEW035 OVC070 04/00 A2973 RMK SC2AC6 SLP072

CYGK;2017-11-26 03:00;CYGK 260300Z 26004KT 250V320 15SM FEW038 OVC070 04/00 A2975 RMK SC2AC6 SLP079

CYGK;2017-11-26 04:00;CYGK 260400Z 26004KT 15SM FEW035 OVC085 03/01 A2976 RMK SC2AC6 LAST STFD OBS/NEXT 261100 UTC SLP081

CYGK;2017-11-26 11:00;CYGK 261100Z 32011KT 15SM BKN030 BKN060 M01/M06 A2994 RMK SC6SC1 SLP145

CYGK;2017-11-26 12:00;CYGK 261200Z 33011G17KT 15SM OVC030 M01/M06 A2996 RMK SC8 SLP151

CYGK;2017-11-26 13:00;CYGK 261300Z 32012KT 15SM BKN030 M01/M07 A2999 RMK SC7 SLP161

CYGK;2017-11-26 14:00;CYGK 261400Z 33009G17KT 15SM BKN033 M01/M07 A3002 RMK SC7 SLP170

CYGK;2017-11-26 15:00;CYGK 261500Z 33009G17KT 15SM BKN030 M01/M07 A3003 RMK SC7 SLP174

CYGK;2017-11-26 16:00;CYGK 261600Z 29009G17KT 15SM BKN030 M01/M08 A3005 RMK SC7 SLP181

CYGK;2017-11-26 17:00;CYGK 261700Z 28008KT 260V320 15SM SCT030 BKN150 BKN250 M01/M08 A3001 RMK SC4AC2CI1 SLP169

CYGK;2017-11-26 18:00;CYGK 261800Z 28006KT 250V320 15SM FEW030 SCT180 BKN250 M00/M09 A2998 RMK SC2AC2CI1 SLP158

CYGK;2017-11-26 19:00;CYGK 261900Z 25009G18KT 15SM SCT036 BKN180 BKN250 00/M08 A2995 RMK SC3AC3CI1 SLP148

CYGK;2017-11-26 20:00;CYGK 262000Z 26014KT 15SM BKN037 BKN120 OVC250 00/M08 A2993 RMK SC5AC2CI1 SLP140

CYGK;2017-11-26 21:00;CYGK 262100Z 27009G16KT 15SM BKN033 OVC100 00/M07 A2993 RMK SC7AC1 SLP141

CYGK;2017-11-26 23:00;CYGK 262300Z 22011KT 15SM OVC025 01/M04 A2987 RMK SC8 SLP120

CYGK;2017-11-27 00:00;CYGK 270000Z 24010KT 15SM OVC027 02/M03 A2986 RMK SC8 SLP116

CYGK;2017-11-27 00:43;CYGK 270043Z 28008KT 2SM -SN OVC022 01/M03 A2987 RMK SC8 SLP122

CYGK;2017-11-27 00:51;CYGK 270051Z 28007KT 220V300 6SM -SN OVC022 01/M03 A2987 RMK SC8 SLP121

CYGK;2017-11-27 00:55;CYGK 270055Z 27008KT 1 1/2SM -SN OVC020 01/M03 A2987 RMK SC8 SLP122

CYGK;2017-11-27 01:00;CYGK 270100Z 28007KT 1 1/2SM -SN OVC020 00/M02 A2987 RMK SC8 SLP120

CYGK;2017-11-27 01:11;CYGK 270111Z 27008KT 4SM -SN OVC020 00/M02 A2986 RMK SC8 SLP118

CYGK;2017-11-27 01:31;CYGK 270131Z 26012KT 2SM -SN OVC019 01/M02 A2987 RMK SC8 VIS VRB 1-3 SLP119

CYGK;2017-11-27 02:00;CYGK 270200Z 26007KT 3SM -SN FEW010 OVC021 00/M01 A2986 RMK SF1SC7 VIS VRB 1-3 SLP116

CYGK;2017-11-27 02:24;CYGK 270224Z 25009KT 10SM -SN BKN023 OVC051 01/M01 A2984 RMK SC5SC3 SLP112

CYGK;2017-11-27 02:48;CYGK 270248Z 23010KT 15SM FEW020 OVC054 01/M01 A2983 RMK SC2SC6 SLP107

CYGK;2017-11-27 03:00;CYGK 270300Z 22009KT 15SM FEW009 OVC040 01/M01 A2982 RMK SF1SC8 SF TR SLP105

CYGK;2017-11-27 04:00;CYGK 270400Z 24013G22KT 15SM OVC050 03/M01 A2980 RMK SC8 LAST STFD OBS/NEXT 271100 UTC SLP097

CYGK;2017-11-27 11:00;CYGK 271100Z 31009KT 15SM -SHSN BKN025 BKN050 01/M04 A2994 RMK CU5SC2 SLP143

CYGK;2017-11-27 11:16;CYGK 271116Z 30008KT 15SM SCT025 BKN040 01/M04 A2995 RMK CU4SC3 PRESRR SLP148

CYGK;2017-11-27 12:00;CYGK 271200Z 33011KT 15SM FEW025 BKN040 BKN250 M00/M06 A2998 RMK CF1SC4CI2 SLP156

CYGK;2017-11-27 13:00;CYGK 271300Z 34014KT 15SM BKN038 BKN250 M02/M06 A3002 RMK SC5CI2 SLP173

CYGK;2017-11-27 14:00;CYGK 271400Z 35014KT 15SM FEW035 BKN250 M03/M08 A3007 RMK SC2CI3 SLP189

CYGK;2017-11-27 15:00;CYGK 271500Z 33012G18KT 15SM FEW035 SCT250 M03/M09 A3010 RMK SC1CI2 SLP197

CYGK;2017-11-27 16:00;CYGK 271600Z 34009G16KT 15SM FEW030 SCT250 M03/M10 A3013 RMK SC1CI3 SLP208

CYGK;2017-11-27 17:00;CYGK 271700Z 01010G17KT 15SM FEW030 BKN220 M03/M11 A3014 RMK SC1CI4 SLP213

CYGK;2017-11-27 18:00;CYGK 271800Z 36009G17KT 15SM FEW030 SCT220 M03/M11 A3015 RMK SC1CI2 SLP216

CYGK;2017-11-27 19:00;CYGK 271900Z 35013KT 15SM FEW030 FEW140 SCT220 M03/M12 A3017 RMK SC1AC1CI3 AC TR SLP221

CYGK;2017-11-27 20:00;CYGK 272000Z 34008KT 15SM FEW030 FEW140 SCT240 M03/M11 A3019 RMK SC1AC1CI2 AC TR SLP231

CYGK;2017-11-27 21:00;CYGK 272100Z 01008KT 15SM FEW030 FEW250 M04/M12 A3022 RMK SC1CI1 SLP240

CYGK;2017-11-27 22:00;CYGK 272200Z 03007KT 15SM FEW030 FEW140 FEW240 M05/M11 A3024 RMK SC1AC1CI1 SC TR AC TR SLP247

CYGK;2017-11-27 23:00;CYGK 272300Z 05007KT 15SM FEW030 FEW240 M06/M12 A3026 RMK SC1CI1 SC TR SLP253

CYGK;2017-11-28 00:00;CYGK 280000Z 07009KT 15SM FEW150 M07/M11 A3028 RMK AC1 AC TR SLP260

CYGK;2017-11-28 01:00;CYGK 280100Z 07011KT 15SM FEW140 M07/M12 A3029 RMK AC1 SLP264

CYGK;2017-11-28 02:00;CYGK 280200Z 07007KT 15SM FEW030 M08/M12 A3030 RMK SC1 SLP267

CYGK;2017-11-28 03:00;CYGK 280300Z 05005KT 15SM FEW030 M08/M13 A3029 RMK SC1 SLP265

CYGK;2017-11-28 04:00;CYGK 280400Z 06009KT 15SM FEW030 M08/M13 A3028 RMK SC1 LAST STFD OBS/NEXT 281100 UTC PRESFR SLP261

CYGK;2017-11-28 11:00;CYGK 281100Z 08005KT 15SM FEW170 BKN250 M06/M08 A3020 RMK AC2CI3 SLP233

CYGK;2017-11-28 12:00;CYGK 281200Z 08004KT 15SM SCT170 BKN250 M05/M07 A3019 RMK AC4CI3 SLP230

CYGK;2017-11-28 13:00;CYGK 281300Z 11008KT 15SM FEW015 FEW170 BKN250 M02/M05 A3016 RMK CF1AC2CI4 CF TR SLP221

CYGK;2017-11-28 14:00;CYGK 281400Z 13007KT 15SM FEW015 FEW150 BKN250 01/M02 A3015 RMK CF1AC1CI5 CF TR SLP218

CYGK;2017-11-28 15:00;CYGK 281500Z 17018G25KT 15SM SCT270 05/01 A3011 RMK CI3 SLP203

CYGK;2017-11-28 16:00;CYGK 281600Z 17018G26KT 15SM FEW270 07/02 A3007 RMK CI2 PRESFR SLP190

CYGK;2017-11-28 17:00;CYGK 281700Z 18019G25KT 15SM BKN250 09/03 A3003 RMK CI6 PRESFR SLP174

CYGK;2017-11-28 18:00;CYGK 281800Z 19017G23KT 15SM SCT270 10/04 A2999 RMK CI4 SLP161

CYGK;2017-11-28 19:00;CYGK 281900Z 18018KT 15SM BKN270 11/05 A2995 RMK CI5 SLP148

CYGK;2017-11-28 20:00;CYGK 282000Z 19018G25KT 15SM FEW140 BKN250 11/04 A2994 RMK AC1CI4 SLP143

CYGK;2017-11-28 21:00;CYGK 282100Z 20016G21KT 15SM FEW140 BKN250 11/05 A2994 RMK ACC1CI4 SLP143

CYGK;2017-11-28 22:00;CYGK 282200Z 19015G21KT 15SM FEW140 SCT230 10/05 A2993 RMK AC1CI4 AC TR SLP141

CYGK;2017-11-28 23:00;CYGK 282300Z 18018KT 15SM SCT210 11/04 A2993 RMK CI3 SLP139

CYGK;2017-11-29 00:00;CYGK 290000Z 18021KT 15SM SCT230 11/04 A2991 RMK CI3 SLP135

CYGK;2017-11-29 01:00;CYGK 290100Z 19023G31KT 15SM SCT230 10/04 A2989 RMK CI3 SLP126

CYGK;2017-11-29 02:00;CYGK 290200Z 19027G39KT 15SM FEW230 10/03 A2986 RMK CI2 SLP116

CYGK;2017-11-29 03:00;CYGK 290300Z 20024G36KT 15SM BKN060 BKN100 10/04 A2986 RMK SC5AC2 SLP116

CYGK;2017-11-29 04:00;CYGK 290400Z 20021G27KT 15SM OVC070 11/04 A2986 RMK AC8 LAST STFD OBS/NEXT 291100 UTC SLP114

CYGK;2017-11-29 11:00;CYGK 291100Z 27008KT 15SM FEW250 08/04 A2993 RMK CI2 SLP140

CYGK;2017-11-29 12:00;CYGK 291200Z 26008KT 15SM FEW025 FEW250 07/03 A2997 RMK CU1CI1 SLP152

CYGK;2017-11-29 13:00;CYGK 291300Z 27011G16KT 15SM FEW030 SCT250 06/03 A3001 RMK CU2CI1 SLP166

CYGK;2017-11-29 14:00;CYGK 291400Z 29016G22KT 15SM VCSH FEW025 BKN073 08/00 A3005 RMK CU1AC6 SH NW-NE SLP180

CYGK;2017-11-29 15:00;CYGK 291500Z 30010G20KT 15SM VCSH FEW030 OVC060 06/M03 A3010 RMK CU1SC7 PRESRR SLP198

CYGK;2017-11-29 16:00;CYGK 291600Z 29012G25KT 15SM FEW030 BKN065 06/M04 A3013 RMK CU1SC5 SLP208

CYGK;2017-11-29 17:00;CYGK 291700Z 33016G24KT 15SM BKN050 07/M04 A3017 RMK SC5 SLP219

CYGK;2017-11-29 18:00;CYGK 291800Z 34008G16KT 15SM FEW050 FEW120 06/M02 A3021 RMK SC2AC1 AC TR SLP235

CYGK;2017-11-29 19:00;CYGK 291900Z 34010G17KT 15SM FEW050 06/M02 A3023 RMK SC2 SLP239

CYGK;2017-11-29 20:00;CYGK 292000Z 34014G19KT 15SM FEW045 05/M03 A3026 RMK SC2 SLP250

CYGK;2017-11-29 21:00;CYGK 292100Z 32009KT 15SM FEW050 04/M04 A3028 RMK SC1 SLP258

CYGK;2017-11-29 22:00;CYGK 292200Z 32005KT 15SM FEW050 02/M06 A3031 RMK SC1 SLP269

CYGK;2017-11-29 23:00;CYGK 292300Z 36003KT 15SM FEW030 01/M06 A3033 RMK SC1 SLP277

CYGK;2017-11-30 00:00;CYGK 300000Z 36004KT 15SM FEW030 M00/M06 A3035 RMK SC1 SLP283

CYGK;2017-11-30 01:00;CYGK 300100Z 04007KT 15SM FEW030 M01/M07 A3034 RMK SC1 SLP280

CYGK;2017-11-30 02:00;CYGK 300200Z 06006KT 15SM FEW030 M02/M08 A3035 RMK SC1 SLP283

CYGK;2017-11-30 03:00;CYGK 300300Z 06006KT 15SM FEW030 M03/M09 A3036 RMK SC1 SLP287

CYGK;2017-11-30 04:00;CYGK 300400Z 06008KT 15SM FEW030 M03/M09 A3034 RMK SC1 LAST STAFD OBS/NEXT 301100 UTC SLP280

CYGK;2017-11-30 11:00;CYGK 301100Z 16015G21KT 15SM SKC 03/M02 A3017 RMK SLP221

CYGK;2017-11-30 12:00;CYGK 301200Z 17017KT 15SM FEW018 SCT250 03/M01 A3015 RMK SC2CI2 SLP214

CYGK;2017-11-30 13:00;CYGK 301300Z 17018KT 15SM FEW018 SCT220 SCT250 03/M01 A3011 RMK SC2CI1CI1 SLP203

CYGK;2017-11-30 14:00;CYGK 301400Z 18020KT 15SM FEW018 SCT220 04/M00 A3007 RMK CU1CI3 SLP189

CYGK;2017-11-30 15:00;CYGK 301500Z 17018G26KT 15SM FEW020 SCT200 BKN250 04/M00 A3005 RMK SC1CI2CI2 SLP181

CYGK;2017-11-30 16:00;CYGK 301600Z 18019G25KT 15SM FEW020 BKN220 06/M00 A3001 RMK CU1CI4 SLP169

CYGK;2017-11-30 17:00;CYGK 301700Z 18020G28KT 15SM FEW025 FEW210 BKN250 06/00 A2994 RMK SC1CI2CI5 SC TR PRESFR SLP143

CYGK;2017-11-30 18:00;CYGK 301800Z 17020G27KT 15SM SCT068 BKN110 OVC220 07/01 A2988 RMK AC3AC3CI2 PRESFR SLP124

CYGK;2017-11-30 18:54;CYGK 301854Z 18018G26KT 10SM -RA BKN046 OVC090 08/02 A2987 RMK SC5AC3 SLP118

CYGK;2017-11-30 19:00;CYGK 301900Z 18021G28KT 10SM -RA BKN045 OVC090 07/02 A2985 RMK SC6AC2 SLP114

CYGK;2017-11-30 19:51;CYGK 301951Z 18017G27KT 15SM BKN055 OVC090 08/03 A2984 RMK SC7AC1 SLP109

CYGK;2017-11-30 20:00;CYGK 302000Z 18019G26KT 15SM BKN055 OVC090 08/02 A2983 RMK SC7AC1 SLP107

CYGK;2017-11-30 20:19;CYGK 302019Z 19020KT 12SM -RA SCT044 OVC065 08/02 A2983 RMK SC3SC5 SLP107

CYGK;2017-11-30 21:00;CYGK 302100Z 18022G27KT 10SM -RA OVC040 07/03 A2982 RMK SC8 SLP104

CYGK;2017-11-30 22:00;CYGK 302200Z 19022G28KT 8SM -RA OVC036 07/05 A2981 RMK SC8 SLP100

CYGK;2017-11-30 23:00;CYGK 302300Z 18021G27KT 10SM -RA OVC038 07/05 A2982 RMK SC8 SLP103

CYGK;2017-11-30 23:47;CYGK 302347Z 20019G25KT 8SM RA OVC023 07/05 A2983 RMK SC8 SLP106

CYGK;2017-11-30 23:50;CYGK 302350Z 20019G25KT 10SM -RA OVC021 07/05 A2983 RMK SC8 SLP106

CYGK;2017-12-01 00:00;CYGK 010000Z CCA 20018G28KT 5SM -RA BR FEW018 07/05 A2984 RMK SC1 SLP108

CYGK;2017-12-01 00:10;CYGK 010010Z 21016G22KT 4SM RA BR OVC014 07/05 A2984 RMK SC8 SLP111

CYGK;2017-12-01 00:14;CYGK 010014Z 21015G21KT 5SM -RA BR OVC011 07/05 A2984 RMK SC8 SLP111

CYGK;2017-12-01 00:23;CYGK 010023Z 21014G21KT 5SM -RA BR OVC008 07/06 A2985 RMK SF8 SLP113

CYGK;2017-12-01 00:38;CYGK 010038Z 25012KT 6SM -RA BKN008 OVC014 07/06 A2985 RMK SF6SC2 WSHFT 0019 SLP114

CYGK;2017-12-01 01:00;CYGK 010100Z 27014G19KT 10SM -RA SCT010 OVC022 07/05 A2987 RMK SF3SC5 SLP119

CYGK;2017-12-01 01:20;CYGK 010120Z 28009G15KT 12SM SCT016 BKN040 06/04 A2987 RMK SC3SC4 SLP119

CYGK;2017-12-01 02:00;CYGK 010200Z 26007KT 15SM SCT020 BKN040 06/03 A2989 RMK SC3SC3 SLP126

CYGK;2017-12-01 03:00;CYGK 010300Z 25008KT 15SM BKN042 OVC060 06/03 A2992 RMK SC5SC3 SLP135

CYGK;2017-12-01 04:00;CYGK 010400Z 25010G16KT 15SM OVC050 06/03 A2994 RMK SC8 LAST STFD OBS/NEXT 011100 UTC SLP144

CYGK;2017-12-01 11:00;CYGK 011100Z 28008KT 15SM OVC049 04/01 A3010 RMK SC8 SLP199

CYGK;2017-12-01 12:00;CYGK 011200Z 27005KT 15SM FEW025 OVC047 04/00 A3013 RMK CU1SC8 CU TR SLP209

CYGK;2017-12-01 13:00;CYGK 011300Z 28007KT 15SM FEW020 OVC047 04/00 A3016 RMK CU1SC8 CU TR SLP219

CYGK;2017-12-01 14:00;CYGK 011400Z 27008KT 15SM FEW020 OVC048 04/00 A3019 RMK CU1SC8 CU TR SLP228

CYGK;2017-12-01 15:00;CYGK 011500Z 30008KT 15SM FEW020 OVC050 05/M01 A3021 RMK CU1SC7 SLP234

CYGK;2017-12-01 16:00;CYGK 011600Z 27008KT 15SM FEW020 OVC050 05/M01 A3021 RMK CU1SC7 SLP236

CYGK;2017-12-01 17:00;CYGK 011700Z 29006KT 280V350 15SM FEW020 OVC045 06/M04 A3021 RMK CU1SC7 SLP233

CYGK;2017-12-01 18:00;CYGK 011800Z 25006KT 15SM FEW025 BKN045 06/M04 A3021 RMK CU1SC7 CU TR SLP234

CYGK;2017-12-01 19:00;CYGK 011900Z 31005KT 15SM BKN045 05/M05 A3021 RMK SC7 SLP234

CYGK;2017-12-01 20:00;CYGK 012000Z 28006KT 15SM BKN043 05/M04 A3023 RMK SC7 SLP242

CYGK;2017-12-01 21:00;CYGK 012100Z 26003KT 230V300 15SM BKN039 05/M03 A3023 RMK SC7 SLP242

CYGK;2017-12-01 22:00;CYGK 012200Z 30002KT 15SM OVC040 05/M03 A3024 RMK SC8 SLP245

CYGK;2017-12-01 23:00;CYGK 012300Z 32004KT 15SM OVC041 04/M02 A3026 RMK SC8 SLP253

CYGK;2017-12-02 00:00;CYGK 020000Z 32004KT 15SM OVC040 04/M02 A3027 RMK SC8 SLP255

CYGK;2017-12-02 01:00;CYGK 020100Z 31003KT 15SM OVC040 04/M03 A3028 RMK SC8 SLP258

CYGK;2017-12-02 02:00;CYGK 020200Z 36003KT 15SM OVC038 03/M02 A3027 RMK SC8 SLP257

CYGK;2017-12-02 03:00;CYGK 020300Z 36004KT 15SM OVC039 03/M03 A3026 RMK SC8 SLP252

CYGK;2017-12-02 04:00;CYGK 020400Z 36002KT 15SM SCT040 BKN200 03/M04 A3026 RMK SC4CI2 LAST STFD OBS/NEXT 021100 UTC SLP251

CYGK;2017-12-02 11:00;CYGK 021100Z 10004KT 15SM OVC043 03/M00 A3025 RMK SC8 SLP249

CYGK;2017-12-02 12:00;CYGK 021200Z 09005KT 15SM BKN042 OVC160 02/M00 A3024 RMK SC6AC2 SLP247

CYGK;2017-12-02 13:00;CYGK 021300Z 19008KT 15SM BKN028 BKN042 OVC160 05/01 A3025 RMK SC5SC1AC2 SLP248

CYGK;2017-12-02 14:00;CYGK 021400Z 19011KT 15SM FEW030 SCT042 BKN160 BKN200 06/01 A3025 RMK SC1SC3AC1CS2 SLP247

CYGK;2017-12-02 15:00;CYGK 021500Z 17010KT 15SM FEW035 FEW160 BKN200 06/01 A3024 RMK SC1AC1CS6 AC TR SLP246

CYGK;2017-12-02 16:00;CYGK 021600Z 17008KT 15SM FEW040 FEW160 OVC230 06/01 A3023 RMK SC1AC1CS6 SLP241

CYGK;2017-12-02 17:00;CYGK 021700Z 20006KT 15SM FEW018 FEW040 SCT120 OVC230 06/01 A3022 RMK CU1SC1AC2CS5 SC TR SLP240

CYGK;2017-12-02 18:00;CYGK 021800Z 19006KT 15SM FEW018 BKN090 BKN160 OVC220 06/01 A3021 RMK SC1AS5AC1CS1 SLP235

CYGK;2017-12-02 19:00;CYGK 021900Z 17005KT 15SM FEW020 BKN070 BKN250 05/01 A3018 RMK CU1AS6CS1 CU TR SLP225

CYGK;2017-12-02 20:00;CYGK 022000Z 17005KT 15SM FEW020 FEW060 SCT120 BKN250 06/00 A3018 RMK CU1SC2AC1CI2 CU TR SLP223

CYGK;2017-12-02 21:00;CYGK 022100Z 17004KT 15SM FEW020 FEW130 SCT250 05/00 A3017 RMK CF1AC2CI2 CF TR SLP221

CYGK;2017-12-02 22:00;CYGK 022200Z 19003KT 15SM SCT110 BKN250 05/01 A3016 RMK AC3CI3 SLP219

CYGK;2017-12-02 23:00;CYGK 022300Z 17005KT 15SM BKN110 BKN250 05/01 A3017 RMK AC5CI2 SLP221

CYGK;2017-12-03 00:00;CYGK 030000Z 17006KT 15SM OVC120 05/01 A3017 RMK AC8 SLP221

CYGK;2017-12-03 02:00;CYGK 030200Z 34004KT 15SM SCT020 BKN130 BKN220 M00/M01 A3018 RMK SC3AC2CI1 SLP225

CYGK;2017-12-03 03:00;CYGK 030300Z 01002KT 15SM SCT020 OVC090 01/M00 A3017 RMK SC4AC4 SLP220

CYGK;2017-12-03 04:00;CYGK 030400Z 02002KT 15SM BKN022 OVC100 01/M00 A3017 RMK SC5AC3 LAST STFD OBS/NEXT 031100 UTC SLP220

CYGK;2017-12-03 11:00;CYGK 031100Z 07004KT 15SM FEW035 SCT120 BKN240 01/M01 A3014 RMK SC1AC3CI2 SLP212

CYGK;2017-12-03 12:00;CYGK 031200Z 06004KT 15SM SCT032 BKN120 BKN220 M00/M01 A3015 RMK SC3AC2CI2 SLP216

CYGK;2017-12-03 13:00;CYGK 031300Z 06003KT 12SM SCT032 OVC120 M00/M01 A3016 RMK SC4AC4 SLP219

CYGK;2017-12-03 14:00;CYGK 031400Z 06003KT 12SM FEW032 OVC120 02/01 A3018 RMK SC2AC6 SLP225

CYGK;2017-12-03 15:00;CYGK 031500Z 08005KT 12SM FEW032 SCT110 04/02 A3018 RMK SC2AC2 SLP225

CYGK;2017-12-03 16:00;CYGK 031600Z 12004KT 12SM FEW030TCU FEW110 06/03 A3017 RMK TCU1AC1 TCU DIST NW-N SLP221

CYGK;2017-12-03 17:00;CYGK 031700Z 13005KT 100V180 12SM BKN030 BKN120 06/03 A3017 RMK SC5AC1 TCU EMBD N SLP220

CYGK;2017-12-03 17:08;CYGK 031708Z 14004KT 12SM SCT012 BKN030TCU BKN120 06/03 A3016 RMK SC3TCU2AC2 SLP219

CYGK;2017-12-03 17:15;CYGK 031715Z 15006KT 12SM BKN012 BKN130 06/03 A3016 RMK SC5AC2 SLP219

CYGK;2017-12-03 18:00;CYGK 031800Z VRB02KT 12SM BKN012 BKN050 BKN100 06/03 A3017 RMK SC5CU1AC1 SLP220

CYGK;2017-12-03 18:16;CYGK 031816Z 15004KT 110V200 10SM FEW013 BKN120 07/03 A3016 RMK CU2AC4 SLP218

CYGK;2017-12-03 19:00;CYGK 031900Z 17005KT 10SM FEW013 SCT023 SCT120 06/03 A3016 RMK SC1SC2AC1 SLP218

CYGK;2017-12-03 20:00;CYGK 032000Z 11005KT 10SM FEW025 BKN110 BKN250 06/03 A3017 RMK CU2AC3CI2 SLP222

CYGK;2017-12-03 21:00;CYGK 032100Z 14004KT 10SM SCT003 BKN110 05/03 A3018 RMK SC4AC2 SLP227

CYGK;2017-12-03 22:00;CYGK 032200Z 09004KT 10SM SCT035 SCT110 BKN250 03/01 A3018 RMK SC3AC1CI2 SLP227

CYGK;2017-12-03 23:00;CYGK 032300Z 06004KT 10SM FEW040 BKN250 02/01 A3021 RMK CU2CI3 SLP234

CYGK;2017-12-04 00:00;CYGK 040000Z 07003KT 10SM SCT035 BKN250 01/00 A3022 RMK SC3CI3 SLP238

CYGK;2017-12-04 01:00;CYGK 040100Z VRB02KT 10SM OVC038 03/02 A3023 RMK SC8 SLP243

CYGK;2017-12-04 02:00;CYGK 040200Z 06003KT 010V070 12SM OVC045 04/02 A3024 RMK SC8 SLP247

CYGK;2017-12-04 03:00;CYGK 040300Z 03003KT 12SM BKN030 OVC045 04/01 A3026 RMK SC6SC2 SLP253

CYGK;2017-12-04 04:00;CYGK 040400Z 07005KT 12SM OVC033 03/01 A3026 RMK SC8 LAST STFD OBS/NEXT 041100 UTC SLP250

CYGK;2017-12-04 11:00;CYGK 041100Z 05005KT 12SM BKN008 OVC031 01/00 A3032 RMK SC7SC1 SLP275

CYGK;2017-12-04 12:00;CYGK 041200Z 05006KT 6SM BR OVC006 02/00 A3034 RMK SC8 SLP280

CYGK;2017-12-04 13:00;CYGK 041300Z 06007KT 6SM BR SCT007 OVC011 02/01 A3035 RMK SC4SC4 SLP283

CYGK;2017-12-04 13:31;CYGK 041331Z 06008KT 6SM BR BKN007 OVC011 02/01 A3036 RMK SC7SC1 SLP285

CYGK;2017-12-04 14:00;CYGK 041400Z 07007KT 6SM BR OVC005 03/01 A3036 RMK ST8 SLP286

CYGK;2017-12-04 15:00;CYGK 041500Z 08005KT 4SM BR OVC006 04/03 A3036 RMK ST8 SLP286

CYGK;2017-12-04 16:00;CYGK 041600Z 14009KT 4SM BR OVC006 05/04 A3033 RMK ST8 SLP276

CYGK;2017-12-04 17:00;CYGK 041700Z 14005KT 100V160 4SM BR BKN008 OVC025 06/04 A3031 RMK SC7SC1 SLP268

CYGK;2017-12-04 17:36;CYGK 041736Z 15007KT 5SM BR SCT009 OVC150 06/03 A3029 RMK SC4AS4 PRESFR SLP261

CYGK;2017-12-04 18:00;CYGK 041800Z 13006KT 5SM BR SCT010 OVC140 06/03 A3026 RMK SC3AS5 PRESFR SLP252

CYGK;2017-12-04 19:00;CYGK 041900Z 13008KT 6SM BR SCT100 BKN180 BKN250 07/03 A3024 RMK AC3AC3CI1 SLP246

CYGK;2017-12-04 20:00;CYGK 042000Z 13009KT 10SM FEW100 BKN220 08/02 A3022 RMK AC1CI6 SLP238

CYGK;2017-12-04 21:00;CYGK 042100Z 12008KT 12SM FEW100 SCT180 BKN220 08/02 A3019 RMK AC1AC2CI4 SLP229

CYGK;2017-12-04 22:00;CYGK 042200Z 13010KT 12SM BKN140 BKN200 08/03 A3017 RMK AC5CI2 SLP222

CYGK;2017-12-04 23:00;CYGK 042300Z 15012KT 15SM BKN120 09/03 A3016 RMK AC7 SLP218

CYGK;2017-12-05 00:00;CYGK 050000Z 15012KT 15SM BKN110 08/03 A3016 RMK AC7 SLP217

CYGK;2017-12-05 01:05;CYGK 050105Z 15017G22KT 15SM -RA BKN078 OVC100 08/03 A3012 RMK AC5AC3 PRESFR SLP203

CYGK;2017-12-05 01:30;CYGK 050130Z 15015G21KT 15SM OVC150 08/03 A3011 RMK AC8 SLP201

CYGK;2017-12-05 02:00;CYGK 050200Z 15019G25KT 15SM BKN100 OVC120 08/03 A3007 RMK AC5AC3 PRESFR SLP189

CYGK;2017-12-05 03:00;CYGK 050300Z 16019G28KT 15SM OVC094 08/03 A3006 RMK AC8 SLP182

CYGK;2017-12-05 03:17;CYGK 050317Z 15023G29KT 15SM -RA OVC070 08/03 A3003 RMK AC8 PRESFR SLP172

CYGK;2017-12-05 03:53;CYGK 050353Z 16017G25KT 15SM FEW080 OVC150 08/03 A3003 RMK AC2AC6 SLP172

CYGK;2017-12-05 04:00;CYGK 050400Z 17018G26KT 15SM FEW080 OVC150 08/03 A3003 RMK AC2AC6 LAST STFD OBS/NEXT 051100 UTC SLP172

CYGK;2017-12-05 11:00;CYGK 051100Z 17019G25KT 10SM -SHRA BKN055 OVC080 08/05 A2989 RMK SC6AC2 CVCTV CLD EMBD SLP126

CYGK;2017-12-05 12:00;CYGK 051200Z 17019G26KT 12SM -SHRA OVC038 08/06 A2988 RMK SC8 CVCTV CLD EMBD SLP121

CYGK;2017-12-05 13:00;CYGK 051300Z 17020G29KT 6SM -SHRA BR OVC035 08/06 A2986 RMK SC8 CVCTV CLD EMBD SLP114

CYGK;2017-12-05 14:00;CYGK 051400Z 17019G26KT 5SM -SHRA BR FEW010 OVC033 08/07 A2985 RMK SF1SC7 CVCTV CLD EMBD SLP111

CYGK;2017-12-05 14:43;CYGK 051443Z 17020G26KT 4SM -SHRA BR SCT009 OVC027 08/07 A2984 RMK SF4SC4 CVCTV CLD EMBD SLP109

CYGK;2017-12-05 15:00;CYGK 051500Z CCA 17020G27KT 6SM -SHRA BR SCT009 OVC022 08/07 A2983 RMK SF4SC4 CVCTV CLD EMBD SLP106

CYGK;2017-12-05 16:00;CYGK 051600Z 18026G36KT 5SM -SHRA BR SCT012 OVC025 08/07 A2979 RMK SF3SC5 CVCTV CLD ASOCTD SLP092

CYGK;2017-12-05 17:00;CYGK 051700Z 18023G34KT 5SM -SHRA BR FEW014 OVC030 09/07 A2974 RMK SF2SC6 CVCTV CLD ASOCTD PRESFR SLP075

CYGK;2017-12-05 17:35;CYGK 051735Z 17020G27KT 15SM FEW015 OVC035 09/07 A2972 RMK SF1SC8 SF TR SLP068

CYGK;2017-12-05 18:00;CYGK 051800Z 18019G26KT 15SM FEW015 BKN032 OVC055 09/07 A2973 RMK CU1SC7SC1 CU TR SLP069

CYGK;2017-12-05 19:00;CYGK 051900Z 18019G27KT 15SM OVC031 09/07 A2972 RMK SC8 SLP068

CYGK;2017-12-05 20:00;CYGK 052000Z 17017G25KT 15SM BKN033 OVC070 10/07 A2970 RMK SC5AC3 SLP062

CYGK;2017-12-05 21:00;CYGK 052100Z 16018G25KT 15SM BKN030 OVC040 09/07 A2969 RMK SC5SC3 SLP056

CYGK;2017-12-05 22:00;CYGK 052200Z 16019G25KT 15SM BKN030 OVC045 10/07 A2966 RMK SC6SC2 SLP047

CYGK;2017-12-05 23:00;CYGK 052300Z 16021G26KT 15SM BKN030 OVC050 10/08 A2964 RMK SC5SC3 PRESFR SLP039

CYGK;2017-12-05 23:08;CYGK 052308Z 17018G26KT 15SM -SHRA BKN029 OVC045 10/08 A2963 RMK SC6SC2 CVCTV CLD EMBD PRESFR SLP038

CYGK;2017-12-05 23:48;CYGK 052348Z 24014G28KT 4SM -SHRA BR SCT025 OVC029 09/08 A2966 RMK SC4SC4 WSHFT 2333 CVCTV CLD EMBD SLP046

CYGK;2017-12-06 00:00;CYGK 060000Z 24017G28KT 5SM -SHRA BR FEW020 OVC032 08/06 A2966 RMK SC2SC6 CVCTV CLD EMBD SLP047

CYGK;2017-12-06 00:32;CYGK 060032Z 24018G24KT 9SM -SHRA FEW018 OVC044 07/03 A2968 RMK SC2SC6 CVCTV CLD EMBD PRESRR SLP053

CYGK;2017-12-06 01:00;CYGK 060100Z 22016KT 15SM -SHRA FEW025 OVC046 06/03 A2967 RMK SC1SC7 CVCTV CLD EMBD PRESRR SLP053

CYGK;2017-12-06 02:00;CYGK 060200Z 25017G28KT 15SM FEW035 OVC100 07/02 A2967 RMK SC2AC6 SLP051

CYGK;2017-12-06 03:00;CYGK 060300Z 24022G36KT 15SM BKN110 06/M01 A2968 RMK AC7 SLP055

CYGK;2017-12-06 04:00;CYGK 060400Z 25019G26KT 15SM FEW037 BKN120 05/M02 A2971 RMK SC2AC3 LAST STFD OBS / NEXT 061115 UTC SLP065

CYGK;2017-12-06 11:00;CYGK 061100Z 25012G19KT 15SM -SN OVC045 01/M07 A2982 RMK SC8 SLP103

CYGK;2017-12-06 12:00;CYGK 061200Z 24020G29KT 15SM -SN BKN042 02/M07 A2982 RMK SC7 SLP104

CYGK;2017-12-06 12:36;CYGK 061236Z 25020G27KT 15SM BKN040 01/M08 A2983 RMK CU5 SLP107

CYGK;2017-12-06 13:00;CYGK 061300Z 25021G30KT 15SM BKN038 BKN250 01/M08 A2984 RMK CU5CI1 CI TR SLP108

CYGK;2017-12-06 14:00;CYGK 061400Z 24018G28KT 15SM FEW040 02/M07 A2984 RMK CU2 SLP110

CYGK;2017-12-06 15:00;CYGK 061500Z 24016G27KT 15SM SCT050TCU 02/M07 A2984 RMK TCU3 SLP109

CYGK;2017-12-06 16:00;CYGK 061600Z 24022G31KT 15SM BKN036TCU 02/M06 A2982 RMK TCU6 SLP103

CYGK;2017-12-06 16:17;CYGK 061617Z 24024G34KT 15SM -SHSN BKN035TCU 03/M06 A2981 RMK TCU6 VIS LWR S SLP101

CYGK;2017-12-06 17:00;CYGK 061700Z 23017G29KT 15SM -SHSN BKN037TCU 02/M05 A2980 RMK TCU5 VIS SW - SE 5 SLP096

CYGK;2017-12-06 18:00;CYGK 061800Z 22018G24KT 15SM VCSH BKN036TCU 02/M04 A2978 RMK TCU6 OCNL -SHSN VIS SE 6 SLP090

CYGK;2017-12-06 19:00;CYGK 061900Z 23023G28KT 15SM VCSH BKN038TCU 03/M03 A2977 RMK TCU5 SLP086

CYGK;2017-12-06 20:00;CYGK 062000Z 25022G32KT 15SM VCSH SCT038TCU 03/M07 A2978 RMK TCU4 SLP089

CYGK;2017-12-06 21:00;CYGK 062100Z 24019G33KT 15SM VCSH SCT042TCU SCT080 03/M07 A2979 RMK TCU3AC1 SLP094

CYGK;2017-12-06 22:00;CYGK 062200Z 26011G19KT 15SM VCSH SCT045 02/M07 A2980 RMK CU4 SLP097

CYGK;2017-12-06 23:00;CYGK 062300Z 26012G17KT 15SM SCT050 02/M07 A2979 RMK CU3 SLP093

CYGK;2017-12-07 00:00;CYGK 070000Z 26009KT 15SM BKN061 02/M06 A2980 RMK SC7 SLP096

CYGK;2017-12-07 01:00;CYGK 070100Z 24020G26KT 15SM FEW060 03/M05 A2978 RMK SC2 SLP090

CYGK;2017-12-07 02:00;CYGK 070200Z 25015G23KT 15SM BKN070 03/M05 A2978 RMK AC7 SLP091

CYGK;2017-12-07 03:00;CYGK 070300Z 25017G22KT 15SM SCT067 BKN100 03/M04 A2979 RMK AC4AC3 SLP092

CYGK;2017-12-07 04:00;CYGK 070400Z 28009G18KT 15SM BKN072 OVC120 02/M05 A2980 RMK AC6AC2 LAST STFD OBS/NEXT 071100 UTC SLP097

CYGK;2017-12-07 11:00;CYGK 071100Z 26009KT 15SM OVC055 M00/M07 A2987 RMK SC8 SLP119

CYGK;2017-12-07 12:00;CYGK 071200Z 27008G16KT 15SM BKN060 M01/M08 A2987 RMK SC7 SLP121

CYGK;2017-12-07 13:00;CYGK 071300Z 25007KT 15SM BKN060 M01/M08 A2988 RMK SC5 SLP123

CYGK;2017-12-07 14:00;CYGK 071400Z 26012G21KT 15SM FEW052 00/M08 A2988 RMK SC2 SLP124

CYGK;2017-12-07 15:00;CYGK 071500Z 26011G17KT 15SM FEW020 SCT060 BKN075 01/M08 A2988 RMK CF1SC3AC2 CF TR SLP123

CYGK;2017-12-07 16:00;CYGK 071600Z 25010G17KT 15SM FEW015 BKN082 01/M07 A2987 RMK CU1AC7 CU TR SLP122

CYGK;2017-12-07 17:00;CYGK 071700Z 25015G22KT 15SM FEW025 BKN085 02/M08 A2985 RMK CU2AC4 SLP114

CYGK;2017-12-07 18:00;CYGK 071800Z 26014G23KT 15SM FEW040 BKN090 02/M08 A2983 RMK CU1AC5 SLP107

CYGK;2017-12-07 19:00;CYGK 071900Z 26017G24KT 15SM SCT035 BKN090 BKN250 02/M07 A2981 RMK CU3AC2CI2 SLP102

CYGK;2017-12-07 20:00;CYGK 072000Z 26015G23KT 15SM FEW036 BKN090 BKN250 01/M07 A2981 RMK CU2AC3CI1 SLP102

CYGK;2017-12-07 21:00;CYGK 072100Z 26016G22KT 15SM FEW040 SCT090 BKN130 00/M07 A2982 RMK CU1AC2AC4 SLP105

CYGK;2017-12-07 22:00;CYGK 072200Z 25013G25KT 15SM VCSH SCT036 BKN130 BKN250 01/M06 A2983 RMK CU3AC3CI1 SLP107

CYGK;2017-12-07 22:41;CYGK 072241Z 26013G21KT 15SM -SHSN SCT040 BKN120 00/M07 A2984 RMK CU3AC3 SLP112

CYGK;2017-12-07 23:00;CYGK 072300Z 26011G20KT 15SM BKN044 BKN060 00/M07 A2984 RMK CU5SC2 SLP111

CYGK;2017-12-08 00:00;CYGK 080000Z 27008KT 15SM FEW040 SCT130 M01/M08 A2987 RMK CU2AC2 SLP119

CYGK;2017-12-08 01:00;CYGK 080100Z 25013KT 15SM FEW030 FEW130 M01/M07 A2987 RMK CU1AC1 SLP120

CYGK;2017-12-08 02:00;CYGK 080200Z 26011G19KT 15SM FEW030 FEW130 M01/M08 A2988 RMK CU1AC1 SLP125

CYGK;2017-12-08 03:00;CYGK 080300Z 27012KT 15SM FEW030 FEW080 M02/M07 A2989 RMK CU1AC1 SLP128

CYGK;2017-12-08 04:00;CYGK 080400Z 26012G19KT 15SM FEW020 FEW080 M02/M07 A2990 RMK CU1AC1 LAST STFD OBS/NEXT 081100 UTC SLP132

CYGK;2017-12-08 11:00;CYGK 081100Z 22013KT 5SM -SN OVC025 M02/M05 A2993 RMK SC8 SLP141

CYGK;2017-12-08 12:00;CYGK 081200Z 27008G15KT 15SM -SN FEW012 FEW025 SCT062 M03/M07 A2992 RMK CF1SC2SC2 CF TR SLP138

CYGK;2017-12-08 12:42;CYGK 081242Z 26007KT 15SM FEW012 BKN058 M02/M08 A2993 RMK CF1SC5 CF TR SLP140

CYGK;2017-12-08 13:04;CYGK 081304Z 27007KT 15SM -SN BKN055 BKN140 M02/M09 A2992 RMK SC5AC1 AC TR SLP139

CYGK;2017-12-08 14:00;CYGK 081400Z 25011G19KT 8SM -SN SCT025 BKN045 M02/M07 A2993 RMK CU4SC3 SLP143

CYGK;2017-12-08 15:00;CYGK 081500Z 24018G24KT 10SM -SN SCT028 BKN050 M01/M07 A2992 RMK CU3SC4 SLP139

CYGK;2017-12-08 15:35;CYGK 081535Z 25016G22KT 2 1/2SM -SN BKN017 OVC030 M01/M05 A2992 RMK CU6SC2 SLP137

CYGK;2017-12-08 15:48;CYGK 081548Z 22017G25KT 210V270 1SM -SN DRSN OVC018 M01/M04 A2992 RMK SN4CU4 SLP138

CYGK;2017-12-08 16:00;CYGK 081600Z 23018G23KT 2 1/2SM -SN DRSN FEW007 SCT015 OVC028 M01/M04 A2992 RMK CF1CU3SC5 CF TR SLP137

CYGK;2017-12-08 16:30;CYGK 081630Z 24015G23KT 3SM -SN FEW010 OVC029 M01/M04 A2991 RMK CF1SC7 SLP136

CYGK;2017-12-08 17:00;CYGK 081700Z 23016G21KT 3SM -SN FEW010 OVC036 M01/M03 A2991 RMK CF1SC7 SLP135

CYGK;2017-12-08 17:35;CYGK 081735Z 23018G24KT 4SM -SN SCT012 OVC038 M00/M03 A2989 RMK CU3SC5 SLP127

CYGK;2017-12-08 18:00;CYGK 081800Z 23017G30KT 10SM -SN OVC020 M00/M04 A2988 RMK CU8 SLP124

CYGK;2017-12-08 19:00;CYGK 081900Z 23017G26KT 12SM -SN FEW020 OVC032 M00/M04 A2985 RMK CU1SC7 PRESFR SLP114

CYGK;2017-12-08 20:00;CYGK 082000Z 22023G29KT 15SM -SN OVC026 00/M05 A2986 RMK SC8 SLP117

CYGK;2017-12-08 20:53;CYGK 082053Z 22019G31KT 15SM OVC028 M00/M06 A2988 RMK SC8 SLP123

CYGK;2017-12-08 21:00;CYGK 082100Z 22022G28KT 15SM OVC028 M00/M06 A2988 RMK SC8 SLP123

CYGK;2017-12-08 22:00;CYGK 082200Z 23015G24KT 15SM BKN036 M00/M07 A2987 RMK SC7 SLP122

CYGK;2017-12-08 23:00;CYGK 082300Z 21020KT 15SM BKN052 BKN090 01/M07 A2987 RMK SC6AC1 SLP120

CYGK;2017-12-09 00:00;CYGK 090000Z 22021G29KT 15SM OVC048 01/M09 A2987 RMK SC8 SLP122

CYGK;2017-12-09 01:00;CYGK 090100Z 22017G28KT 15SM OVC044 01/M07 A2986 RMK SC8 SLP118

CYGK;2017-12-09 01:10;CYGK 090110Z 23018G26KT 15SM -SN OVC042 01/M07 A2987 RMK SC8 SLP119

CYGK;2017-12-09 02:00;CYGK 090200Z 23018G25KT 15SM -SN SCT036 OVC070 01/M06 A2986 RMK SC4AC4 SLP118

CYGK;2017-12-09 02:24;CYGK 090224Z 22015G22KT 15SM FEW030 SCT070 01/M06 A2986 RMK SC2AC2 SLP117

CYGK;2017-12-09 03:00;CYGK 090300Z 23014G24KT 15SM FEW030 BKN070 01/M05 A2985 RMK SC2AC5 SLP115

CYGK;2017-12-09 03:51;CYGK 090351Z 23013G21KT 15SM -SN BKN033 OVC060 01/M05 A2987 RMK SC6SC2 SLP120

CYGK;2017-12-09 04:00;CYGK 090400Z 23018G24KT 15SM -SN BKN030 OVC058 01/M05 A2987 RMK SC6SC2 LAST STFD OBS/NEXT 091100 UTC SLP119

CYGK;2017-12-09 11:00;CYGK 091100Z 31003KT 15SM -SN OVC043 M00/M07 A2988 RMK SC8 SLP125

CYGK;2017-12-09 12:00;CYGK 091200Z 31004KT 12SM -SN SCT025 OVC041 M00/M06 A2988 RMK SC3SC5 SLP124

CYGK;2017-12-09 13:00;CYGK 091300Z 04003KT 15SM -SN FEW025 BKN055 OVC100 M01/M06 A2989 RMK CU1SC7AC1 CU TR SLP126

CYGK;2017-12-09 13:08;CYGK 091308Z 04003KT 15SM BKN054 OVC100 M01/M05 A2988 RMK SC7AC1 SLP125

CYGK;2017-12-09 14:00;CYGK 091400Z 07004KT 15SM FEW030 OVC060 M00/M05 A2988 RMK CU1SC7 SLP125

CYGK;2017-12-09 14:12;CYGK 091412Z 07005KT 12SM -SN FEW030 OVC060 M00/M05 A2989 RMK CU1SC7 SLP128

CYGK;2017-12-09 15:00;CYGK 091500Z 09005KT 15SM SCT026 OVC060 00/M03 A2988 RMK SC4SC4 SLP124

CYGK;2017-12-09 15:21;CYGK 091521Z 10006KT 2SM -SN OVC022 00/M04 A2987 RMK SC8 SLP122

CYGK;2017-12-09 15:40;CYGK 091540Z 10006KT 5SM -SN OVC025 M00/M02 A2987 RMK SC8 SLP119

CYGK;2017-12-09 16:00;CYGK 091600Z 07004KT 6SM -SN FEW005 OVC022 M00/M02 A2986 RMK SF2SC6 SLP118

CYGK;2017-12-09 16:11;CYGK 091611Z 04005KT 8SM -SN FEW005 FEW020 OVC032 M00/M02 A2985 RMK SF1CU2SC6 SF TR PRESFR SLP113

CYGK;2017-12-09 17:00;CYGK 091700Z 02003KT 15SM -SN FEW020 BKN030 OVC100 00/M02 A2983 RMK CU1SC6AC1 SLP106

CYGK;2017-12-09 18:00;CYGK 091800Z 18011G17KT 15SM -SN SCT020 OVC032 01/M03 A2981 RMK CU3SC5 SLP100

CYGK;2017-12-09 19:00;CYGK 091900Z CCA 18010KT 15SM -SN FEW020 BKN036 OVC080 01/M04 A2979 RMK CU1SC7AC1 CU TR SLP093

CYGK;2017-12-09 19:23;CYGK 091923Z 17008KT 15SM FEW025 BKN042 BKN080 01/M04 A2978 RMK CU1SC6AC1 CU TR SLP090

CYGK;2017-12-09 20:00;CYGK 092000Z 16008KT 15SM FEW026 BKN047 BKN080 02/M05 A2977 RMK CU1SC4AC2 SLP087

CYGK;2017-12-09 21:00;CYGK 092100Z 17007KT 15SM SCT030 BKN050 BKN080 02/M05 A2977 RMK SC4SC2AC1 SLP085

CYGK;2017-12-09 22:00;CYGK 092200Z 04006KT 030V150 15SM FEW038 SCT055 BKN080 M00/M04 A2976 RMK SC2SC2AC2 SLP085

CYGK;2017-12-09 23:00;CYGK 092300Z 04005KT 15SM FEW040 SCT060 BKN130 M01/M05 A2977 RMK CU2SC2AC3 SLP086

CYGK;2017-12-10 00:00;CYGK 100000Z 03004KT 15SM FEW050 FEW080 BKN130 M01/M05 A2976 RMK SC1AC1AC5 SLP084

CYGK;2017-12-10 01:00;CYGK 100100Z 03004KT 15SM FEW042 SCT090 OVC140 M02/M05 A2975 RMK SC1AC2AC5 SLP080

CYGK;2017-12-10 02:00;CYGK 100200Z 07003KT 15SM FEW040 FEW080 OVC140 M02/M05 A2973 RMK SC1AC1AC6 SLP075

CYGK;2017-12-10 03:00;CYGK 100300Z 32006KT 15SM BKN042 OVC080 M02/M04 A2973 RMK SC6AC2 SLP072

CYGK;2017-12-10 03:30;CYGK 100330Z 28008KT 12SM -SN BKN035 OVC050 M02/M04 A2973 RMK SC6SC2 SLP074

CYGK;2017-12-10 04:00;CYGK 100400Z 29005KT 12SM -SN BKN025 OVC040 M01/M04 A2973 RMK SC6SC2 LAST STFD OBS/NEXT 101100 UTC SLP074

CYGK;2017-12-10 11:00;CYGK 101100Z 26009KT 15SM SCT035 OVC082 M02/M05 A2971 RMK SC3AC5 SLP066

CYGK;2017-12-10 12:00;CYGK 101200Z 27009KT 15SM FEW010 FEW035 BKN080 M02/M05 A2973 RMK SF1SC2AC5 SF TR SLP074

CYGK;2017-12-10 13:00;CYGK 101300Z 29009G15KT 15SM FEW010 FEW035 SCT110 BKN250 M03/M08 A2976 RMK SF1SC1AC3CI2 SF TR SLP083

CYGK;2017-12-10 14:00;CYGK 101400Z 26009KT 15SM FEW015 BKN039 OVC140 M03/M08 A2978 RMK CU1SC6AC1 SLP090

CYGK;2017-12-10 14:24;CYGK 101424Z 28007KT 240V310 12SM -SN OVC039 M02/M08 A2979 RMK SC8 VIS LWR N SLP093

CYGK;2017-12-10 15:00;CYGK 101500Z 27011KT 6SM -SN OVC030 M03/M08 A2980 RMK SC8 SLP096

CYGK;2017-12-10 15:05;CYGK 101505Z 27010KT 1 1/4SM -SN OVC014 M03/M08 A2980 RMK SC8 SLP097

CYGK;2017-12-10 15:30;CYGK 101530Z 27009KT 2 1/2SM -SN FEW017 OVC038 M03/M06 A2980 RMK SF2SC6 VIS LWR NW-N SLP096

CYGK;2017-12-10 15:33;CYGK 101533Z 27006KT 4SM -SN FEW018 OVC038 M03/M06 A2980 RMK SF2SC6 VIS NW-N 2 SLP096

CYGK;2017-12-10 16:00;CYGK 101600Z 29008KT 240V300 12SM -SN FEW018 BKN035 OVC120 M03/M06 A2980 RMK SF1SC5AC2 SLP098

CYGK;2017-12-10 17:00;CYGK 101700Z 30007KT 250V320 15SM -SN FEW020 BKN040 OVC080 M03/M07 A2979 RMK CF1SC6AS1 SLP093

CYGK;2017-12-10 18:00;CYGK 101800Z 26009KT 15SM -SN FEW020 OVC030 M02/M07 A2979 RMK CF2SC6 SLP093

CYGK;2017-12-10 18:37;CYGK 101837Z 26009G15KT 15SM SCT015 OVC050 M02/M06 A2978 RMK CF3SC5 SLP090

CYGK;2017-12-10 19:00;CYGK 101900Z 26008KT 15SM FEW015 OVC050 M02/M06 A2977 RMK CF1SC7 SLP088

CYGK;2017-12-10 20:00;CYGK 102000Z 24011G17KT 220V280 15SM FEW020 FEW070 OVC100 M01/M08 A2977 RMK CF1AC1AC6 SLP086

CYGK;2017-12-10 21:00;CYGK 102100Z 25011G18KT 15SM FEW024 FEW060 BKN110 M01/M06 A2977 RMK CF1SC1AC6 SC TR SLP088

CYGK;2017-12-10 22:00;CYGK 102200Z 25017G22KT 15SM FEW025 OVC110 M01/M08 A2978 RMK CF1AC7 SLP090

CYGK;2017-12-10 23:00;CYGK 102300Z 26015G21KT 15SM OVC100 M01/M08 A2979 RMK AC8 SLP095

CYGK;2017-12-11 00:00;CYGK 110000Z 26013KT 15SM OVC100 M01/M08 A2980 RMK AC8 SLP096

CYGK;2017-12-11 01:00;CYGK 110100Z 26013G21KT 15SM OVC100 M01/M08 A2980 RMK AC8 SLP098

CYGK;2017-12-11 02:00;CYGK 110200Z 27010G19KT 15SM OVC093 M01/M07 A2981 RMK AC8 SLP101

CYGK;2017-12-11 03:00;CYGK 110300Z 27010G17KT 15SM SCT035 OVC090 M01/M07 A2982 RMK SC4AC4 SLP104

CYGK;2017-12-11 03:23;CYGK 110323Z 26012G19KT 15SM -SN BKN028 OVC085 M01/M07 A2982 RMK SC5AC3 SLP105

CYGK;2017-12-11 04:00;CYGK 110400Z 27011G16KT 15SM -SN BKN030 OVC070 M01/M07 A2983 RMK SC6AC2 LAST STFD OBS/NEXT 111100UTC SLP106

CYGK;2017-12-11 11:00;CYGK 111100Z 35006KT 15SM SCT060 M09/M13 A2998 RMK SC3 SLP158

CYGK;2017-12-11 12:00;CYGK 111200Z 03008KT 15SM FEW012 FEW060 M10/M13 A3000 RMK SF1SC1 SF TR SLP167

CYGK;2017-12-11 13:00;CYGK 111300Z 03006KT 15SM FEW012 FEW045 FEW080 M11/M14 A3002 RMK CF1SC1AC1 CF TR AC TR SLP172

CYGK;2017-12-11 14:00;CYGK 111400Z 02007KT 15SM FEW010 FEW050 FEW080 FEW250 M10/M14 A3006 RMK SF1SC1AC1CI1 SF TR SC TR AC TR SLP185

CYGK;2017-12-11 15:00;CYGK 111500Z 35005KT 15SM FEW010 FEW050 FEW120 SCT250 M09/M14 A3006 RMK SF1SC1AC1CI4 SF TR SC TR AC TR SLP187

CYGK;2017-12-11 16:00;CYGK 111600Z 35005KT 320V080 15SM FEW010 FEW050 FEW130 BKN250 M08/M15 A3006 RMK SF1SC1AC1CI6 SF TR SC TR AC TR SLP187

CYGK;2017-12-11 17:00;CYGK 111700Z 35004KT 330V060 15SM FEW010 FEW050 FEW080 BKN200 M07/M16 A3004 RMK SF1SC1AC1CI7 SF TR SC TR AC TR SLP179

CYGK;2017-12-11 18:00;CYGK 111800Z 01003KT 320V060 15SM FEW010 FEW130 BKN250 M07/M17 A3002 RMK SF1AC1CI7 SF TR AC TR SLP173

CYGK;2017-12-11 19:00;CYGK 111900Z 00000KT 15SM FEW010 FEW140 BKN200 M07/M17 A3001 RMK SF1AC1CI7 SF TR AC TR SLP171

CYGK;2017-12-11 20:00;CYGK 112000Z 00000KT 15SM FEW080 BKN140 BKN240 M07/M18 A3001 RMK AC2AC3CI1 SLP169

CYGK;2017-12-11 21:00;CYGK 112100Z 13002KT 15SM FEW050 FEW080 BKN120 OVC210 M07/M14 A3001 RMK SC1AC1AC6CI1 SC TR SLP169

CYGK;2017-12-11 22:00;CYGK 112200Z 09005KT 15SM BKN045 OVC100 M06/M13 A3000 RMK SC5AC3 SLP165

CYGK;2017-12-11 22:32;CYGK 112232Z 13005KT 15SM -SN BKN047 OVC100 M06/M13 A2999 RMK SC6AC2 SLP162

CYGK;2017-12-11 23:00;CYGK 112300Z 09006KT 15SM -SN BKN045 M06/M12 A2997 RMK SC7 SLP157

CYGK;2017-12-12 00:00;CYGK 120000Z 07005KT 8SM -SN OVC040 M06/M12 A2994 RMK SC8 SLP145

CYGK;2017-12-12 01:00;CYGK 120100Z 05006KT 8SM -SN BKN030 OVC120 M07/M12 A2991 RMK SC5AC3 SLP138

CYGK;2017-12-12 02:00;CYGK 120200Z 05007KT 10SM -SN FEW020 OVC080 M06/M11 A2988 RMK SC2AC6 SLP126

CYGK;2017-12-12 03:00;CYGK 120300Z 05008KT 7SM -SN SCT025 OVC050 M06/M10 A2987 RMK SC3SC5 SLP121

CYGK;2017-12-12 04:00;CYGK 120400Z 05009KT 8SM -SN OVC035 M07/M10 A2983 RMK SC8 LAST STFD OBS/NEXT 121100 UTC SLP110

CYGK;2017-12-12 11:00;CYGK 121100Z 03010G15KT 1 1/2SM -SN VV005 M07/M09 A2956 RMK SN8 /S04 / SLP017

CYGK;2017-12-12 12:00;CYGK 121200Z 04011KT 1 1/2SM -SN VV009 M07/M09 A2954 RMK SN8 /S05/ SLP009

CYGK;2017-12-12 12:13;CYGK 121213Z 04012KT 1SM -SN BKN015 OVC022 M07/M09 A2953 RMK SN5SC1SC2 SLP007

CYGK;2017-12-12 13:00;CYGK 121300Z 03011KT 1SM -SN DRSN OVC018 M07/M09 A2952 RMK SN6SC2 SLP003

CYGK;2017-12-12 13:23;CYGK 121323Z 03010G16KT 5/8SM -SN DRSN VV005 M07/M09 A2951 RMK SN8 SLP001

CYGK;2017-12-12 13:42;CYGK 121342Z 03011G16KT 3/4SM -SN DRSN VV006 M07/M09 A2951 RMK SN8 SLP999

CYGK;2017-12-12 14:00;CYGK 121400Z 03012KT 3/4SM -SN VV006 M07/M09 A2950 RMK SN8 /S001/ SLP997

CYGK;2017-12-12 15:00;CYGK 121500Z 03010KT 3/4SM -SN VV008 M07/M09 A2949 RMK SN8 VIS LWR S SLP994

CYGK;2017-12-12 15:31;CYGK 121531Z 01009KT 1SM -SN FEW010 OVC020 M07/M09 A2949 RMK SC2SC6 SLP992

CYGK;2017-12-12 15:34;CYGK 121534Z 02009KT 1 1/2SM -SN FEW012 OVC020 M07/M09 A2949 RMK SC2SC6 VIS HIER SW SLP992

CYGK;2017-12-12 16:00;CYGK 121600Z 01010KT 4SM -SN FEW010 BKN014 OVC018 M07/M09 A2948 RMK CF1SC5SC2 SLP989

CYGK;2017-12-12 16:26;CYGK 121626Z 02010KT 1SM -SN BKN012 OVC018 M06/M09 A2947 RMK SC5SC3 SLP986

CYGK;2017-12-12 17:00;CYGK 121700Z 36010KT 3SM -SN FEW012 OVC035 M06/M09 A2945 RMK SC1SC7 SLP981

CYGK;2017-12-12 18:00;CYGK 121800Z 35009KT 3SM -SN OVC038 M06/M09 A2946 RMK SC8 VIS W - NW LWR SLP982

CYGK;2017-12-12 18:30;CYGK 121830Z 33008KT 1 1/2SM -SN OVC028 M06/M09 A2945 RMK SC8 SLP981

CYGK;2017-12-12 19:00;CYGK 121900Z 30007KT 2SM -SN FEW010 SCT014 OVC028 M06/M09 A2947 RMK CF1SC2SC5 SLP987

CYGK;2017-12-12 19:18;CYGK 121918Z 32007KT 1SM -SN BKN011 OVC026 M06/M09 A2948 RMK SN6SC1SC1 SLP988

CYGK;2017-12-12 19:50;CYGK 121950Z 33005KT 3SM -SN BKN010 OVC015 M06/M09 A2949 RMK SF5SC3 SLP992

CYGK;2017-12-12 20:00;CYGK 122000Z 33007KT 290V350 3SM -SN BKN009 OVC015 M06/M09 A2949 RMK SF5SC3 SLP993

CYGK;2017-12-12 20:29;CYGK 122029Z 34006KT 5SM -SN SCT009 BKN025 BKN080 M06/M09 A2950 RMK SF3SC4AC1 AC TR SLP995

CYGK;2017-12-12 20:57;CYGK 122057Z 31007KT 15SM FEW009 SCT040 BKN110 BKN270 M07/M10 A2950 RMK CF2SC1AS3CI1 SLP998

CYGK;2017-12-12 21:00;CYGK 122100Z 31008KT 15SM FEW009 SCT040 BKN110 BKN270 M07/M10 A2950 RMK CF2SC1AS3CI1 SLP997

CYGK;2017-12-12 21:48;CYGK 122148Z 29006KT 12SM -SN FEW009 BKN016 OVC100 M06/M09 A2952 RMK SF2SC3AS3 SLP003

CYGK;2017-12-12 22:00;CYGK 122200Z 31006KT 12SM -SN FEW010 BKN024 OVC100 M06/M10 A2952 RMK CF1SC5AS3 CF TR SLP002

CYGK;2017-12-12 23:00;CYGK 122300Z VRB02KT 4SM -SN OVC022 M07/M09 A2953 RMK SC8 SLP007

CYGK;2017-12-13 00:00;CYGK 130000Z VRB02KT 8SM -SN SCT012 BKN025 M08/M09 A2953 RMK SF3SC3 SLP008

CYGK;2017-12-13 01:00;CYGK 130100Z 27009KT 15SM -SN FEW012 BKN050 M07/M11 A2953 RMK SF2SC4 SLP006

CYGK;2017-12-13 02:00;CYGK 130200Z 27010KT 15SM -SN FEW015 SCT050 M08/M12 A2951 RMK CF1SC2 SLP002

CYGK;2017-12-13 03:00;CYGK 130300Z 27007KT 15SM -SN FEW015 FEW060 M10/M13 A2950 RMK CF1SC2 CF TR SLP998

CYGK;2017-12-13 04:00;CYGK 130400Z 29005KT 15SM -SN BKN019 M10/M12 A2949 RMK SC7 LAST STFD OBS/NEXT 131100 UTC SLP993

CYGK;2017-12-13 11:00;CYGK 131100Z 31011KT 12SM -SN FEW020 OVC070 M13/M17 A2952 RMK CU1AC7 SLP005

CYGK;2017-12-13 12:00;CYGK 131200Z 29008KT 15SM -SN FEW020 SCT066 SCT110 M13/M17 A2954 RMK CU1AC2AC1 SLP011

CYGK;2017-12-13 12:18;CYGK 131218Z 29008KT 15SM FEW020 SCT060 BKN100 M13/M17 A2954 RMK CU1SC2AC2 SLP013

CYGK;2017-12-13 13:00;CYGK 131300Z 29007KT 15SM FEW020 SCT060 BKN090 M14/M18 A2955 RMK CU1SC2AC2 SLP016

CYGK;2017-12-13 14:00;CYGK 131400Z 29011G17KT 15SM FEW020 SCT060 SCT100 BKN250 M14/M19 A2956 RMK CU1SC2AC1CI1 VIS LWR S SLP017

CYGK;2017-12-13 15:00;CYGK 131500Z 30013G19KT 15SM FEW020 SCT090 M13/M19 A2957 RMK CU2AC1 SLP021

CYGK;2017-12-13 16:00;CYGK 131600Z 31014G20KT 15SM FEW020 FEW090 FEW230 M12/M18 A2957 RMK CU1AC1CI1 AC TR CI TR SLP023

CYGK;2017-12-13 17:00;CYGK 131700Z 30011G18KT 15SM DRSN FEW020 FEW090 M11/M18 A2958 RMK CU2AC1 AC TR SLP025

CYGK;2017-12-13 18:00;CYGK 131800Z 29013KT 15SM DRSN FEW020 FEW090 M11/M18 A2957 RMK CU1AC1 AC TR SLP023

CYGK;2017-12-13 19:00;CYGK 131900Z 28012KT 260V320 15SM DRSN FEW020 FEW250 M10/M17 A2957 RMK CU1CI1 CI TR SLP023

CYGK;2017-12-13 20:00;CYGK 132000Z 29012G18KT 15SM DRSN FEW025 FEW250 M10/M18 A2959 RMK CU1CI1 SLP027

CYGK;2017-12-13 21:00;CYGK 132100Z 28008KT 15SM DRSN FEW025 FEW250 M10/M18 A2959 RMK CU1CI1 CU TR SLP027

CYGK;2017-12-13 22:00;CYGK 132200Z 27008KT 15SM FEW025 FEW250 M12/M18 A2959 RMK CU1CI2 CU TR SLP028

CYGK;2017-12-13 23:00;CYGK 132300Z 27011KT 15SM FEW250 M12/M18 A2961 RMK CI2 SLP035

CYGK;2017-12-14 00:00;CYGK 140000Z 28006KT 15SM FEW025 FEW250 M13/M18 A2961 RMK SC1CI1 SLP035

CYGK;2017-12-14 01:00;CYGK 140100Z 28005KT 15SM FEW025 BKN200 M14/M18 A2961 RMK SC1CI5 SLP037

CYGK;2017-12-14 02:00;CYGK 140200Z 28005KT 15SM SCT160 BKN200 M15/M19 A2961 RMK AC3CI3 SLP037

CYGK;2017-12-14 03:00;CYGK 140300Z 30004KT 15SM SCT160 OVC200 M15/M19 A2961 RMK AC3CI5 SLP037

CYGK;2017-12-14 04:00;CYGK 140400Z 33006KT 15SM BKN140 OVC200 M15/M19 A2962 RMK AC5CI3 LAST STFD OBS/NEXT 141100 UTC SLP039

CYGK;2017-12-14 11:00;CYGK 141100Z 35006KT 15SM FEW110 M19/M23 A2970 RMK AC1 AC TR SLP067

CYGK;2017-12-14 12:00;CYGK 141200Z 35006KT 15SM FEW005 FEW110 M20/M23 A2974 RMK SC1AC1 SC TR AC TR SF OVR WATER SOUTH SLP080

CYGK;2017-12-14 13:00;CYGK 141300Z 32007KT 15SM FEW005 FEW110 M20/M24 A2977 RMK SF1AC1 SF TR AC TR SLP093

CYGK;2017-12-14 14:00;CYGK 141400Z 32006KT 15SM FEW005 FEW110 M18/M23 A2982 RMK SF1AC1 SF TR AC TR SLP109

CYGK;2017-12-14 15:00;CYGK 141500Z 31008KT 15SM FEW005 M17/M23 A2984 RMK SF1 SF TR SLP116

CYGK;2017-12-14 16:00;CYGK 141600Z 28006KT 250V320 15SM FEW005 M16/M22 A2986 RMK SF1 SF TR SLP121

CYGK;2017-12-14 17:00;CYGK 141700Z 27009KT 15SM FEW020 M15/M22 A2986 RMK CU1 SLP122

CYGK;2017-12-14 18:00;CYGK 141800Z 27009KT 230V300 15SM FEW020 M14/M20 A2988 RMK SC1 SLP126

CYGK;2017-12-14 19:00;CYGK 141900Z 27010KT 15SM FEW020 M13/M21 A2988 RMK SC1 SC TR SLP127

CYGK;2017-12-14 20:00;CYGK 142000Z 27009KT 15SM FEW020 M13/M21 A2989 RMK CU1 SLP132

CYGK;2017-12-14 21:00;CYGK 142100Z 27012G18KT 15SM FEW025 FEW120 FEW250 M13/M21 A2991 RMK SC1AC1CI1 SC TR AC TR CI TR SLP139

CYGK;2017-12-14 22:00;CYGK 142200Z 26011KT 15SM FEW020 FEW090 M13/M20 A2993 RMK CU1AC1 AC TR SLP146

CYGK;2017-12-14 23:00;CYGK 142300Z 26008KT 15SM FEW020 M13/M19 A2995 RMK CU1 SLP151

CYGK;2017-12-15 00:00;CYGK 150000Z 26008KT 15SM FEW020 M12/M18 A2996 RMK CU1 SLP156

CYGK;2017-12-15 01:00;CYGK 150100Z 26009KT 15SM FEW020 M12/M16 A2998 RMK CU1 SLP162

CYGK;2017-12-15 02:00;CYGK 150200Z 25009KT 15SM FEW020 M11/M15 A3000 RMK CU1 SLP169

CYGK;2017-12-15 03:00;CYGK 150300Z 26008G15KT 15SM FEW020 M11/M15 A3002 RMK CU1 SLP175

CYGK;2017-12-15 04:00;CYGK 150400Z 27007KT 15SM FEW020 M11/M15 A3002 RMK CU1 LAST STFD OBS/NEXT 151100 UTC SLP176

CYGK;2017-12-15 11:00;CYGK 151100Z 03003KT 15SM BKN053 M15/M17 A2997 RMK SC6 SLP157

CYGK;2017-12-15 11:42;CYGK 151142Z 07004KT 15SM -SN OVC051 M13/M15 A2996 RMK SC8 SLP156

CYGK;2017-12-15 12:00;CYGK 151200Z 05005KT 12SM -SN OVC045 M12/M14 A2996 RMK SC8 SLP154

CYGK;2017-12-15 12:47;CYGK 151247Z 02003KT 320V030 2 1/2SM -SN OVC029 M10/M12 A2995 RMK SC8 SLP152

CYGK;2017-12-15 13:00;CYGK 151300Z 03005KT 2 1/2SM -SN OVC026 M10/M12 A2995 RMK SC8 SLP150

CYGK;2017-12-15 13:08;CYGK 151308Z 03004KT 3SM -SN BKN024 OVC060 M09/M11 A2995 RMK SC7SC1 SLP150

CYGK;2017-12-15 13:38;CYGK 151338Z 06004KT 1 1/2SM -SN OVC025 M08/M10 A2995 RMK SC8 SLP150

CYGK;2017-12-15 14:00;CYGK 151400Z 06004KT 4SM -SN SCT018 OVC030 M07/M09 A2995 RMK CU4SC4 SLP150

CYGK;2017-12-15 14:28;CYGK 151428Z 09003KT 7SM FEW008 SCT020 BKN100 M07/M09 A2994 RMK SF1SC3AC4 SF TR SLP147

CYGK;2017-12-15 15:00;CYGK 151500Z VRB02KT 15SM FEW008 SCT020 BKN040 OVC100 M05/M07 A2993 RMK SF1SC2SC2AC3 SLP143

CYGK;2017-12-15 15:37;CYGK 151537Z 24012KT 15SM -SN SCT012 OVC050 M03/M10 A2992 RMK CU3SC5 SLP139

CYGK;2017-12-15 16:00;CYGK 151600Z 22015KT 12SM -SN SCT012 OVC040 M03/M09 A2990 RMK CU3SC5 SLP134

CYGK;2017-12-15 17:00;CYGK 151700Z CCA 26008KT 12SM -SN BKN022 BKN100 M03/M09 A2987 RMK SC6AC1 VIS LWR S SLP124

CYGK;2017-12-15 17:20;CYGK 151720Z 27009KT 6SM -SN SCT018 BKN040 OVC120 M03/M09 A2987 RMK CU3SC3AC2 VIS LWR S OVR WATER SLP121

CYGK;2017-12-15 18:00;CYGK 151800Z 26009KT 12SM -SN SCT020 BKN060 BKN140 M04/M08 A2985 RMK SC3SC2AC2 SLP116

CYGK;2017-12-15 18:47;CYGK 151847Z 28008KT 15SM FEW020 SCT040 OVC065 M04/M09 A2983 RMK CU2SC2SC4 SLP109

CYGK;2017-12-15 19:00;CYGK 151900Z 27005KT 15SM VCSH FEW020 SCT045 OVC060 M04/M08 A2983 RMK CU2SC2SC4 SLP108

CYGK;2017-12-15 20:00;CYGK 152000Z 23004KT 8SM VCSH FEW020 SCT045 OVC080 M04/M07 A2980 RMK CU2SC2AC4 VIS S 3 SLP100

CYGK;2017-12-15 20:07;CYGK 152007Z 21007KT 2 1/2SM -SN OVC020 M04/M07 A2980 RMK SN6SC2 SLP100

CYGK;2017-12-15 20:24;CYGK 152024Z 21003KT 1SM -SN OVC014 M04/M06 A2980 RMK SN7SC1 SLP098

CYGK;2017-12-15 20:38;CYGK 152038Z 21003KT 5/8SM -SN VV008 M04/M06 A2979 RMK SN8 SLP096

CYGK;2017-12-15 20:47;CYGK 152047Z 23005KT 1/2SM -SN VV004 M04/M06 A2979 RMK SN8 SLP095

CYGK;2017-12-15 21:00;CYGK 152100Z 24006KT 1 1/2SM -SN VV006 M04/M05 A2979 RMK SN8 /S02/ SLP096

CYGK;2017-12-15 21:13;CYGK 152113Z 27004KT 230V290 3/4SM -SN VV006 M04/M06 A2979 RMK SN8 VIS VRB 1/2-1 SLP096

CYGK;2017-12-15 21:23;CYGK 152123Z 24008KT 220V290 3SM -SN OVC024 M04/M05 A2979 RMK SN5CU3 SLP094

CYGK;2017-12-15 21:44;CYGK 152144Z 23012KT 3/8SM SN VV003 M03/M06 A2979 RMK SN8 SLP094

CYGK;2017-12-15 21:49;CYGK 152149Z 22012KT 1SM -SN VV009 M04/M05 A2979 RMK SN8 SLP094

CYGK;2017-12-15 22:00;CYGK 152200Z 23013KT 2SM -SN OVC017TCU M04/M05 A2978 RMK SN6TCU2 VIS VRB 1-3 /S03/ SLP093

CYGK;2017-12-15 23:00;CYGK 152300Z 22011KT 3SM -SN BKN015TCU OVC028 M03/M06 A2976 RMK SN3TCU3SC2 VIS VRB 2-4 SLP087

CYGK;2017-12-15 23:40;CYGK 152340Z 23010G16KT 2SM -SN OVC012TCU M03/M06 A2975 RMK SN6TCU2 VIS VRB 1-3 SLP083

CYGK;2017-12-16 00:00;CYGK 160000Z 22012KT 3SM -SN BKN020TCU OVC041 M03/M05 A2975 RMK SN3TCU4SC1 /S05/ SLP082

CYGK;2017-12-16 00:08;CYGK 160008Z 22012KT 2SM -SN OVC017TCU M03/M05 A2975 RMK SN5TCU3 VIS VRB 1-3 SLP081

CYGK;2017-12-16 00:24;CYGK 160024Z 20012G17KT 3/4SM -SN VV005 M03/M04 A2974 RMK SN8 VIS VRB 1/2-1 SLP078

CYGK;2017-12-16 01:00;CYGK 160100Z 20014G20KT 2SM -SN OVC014TCU M03/M05 A2973 RMK SN6TCU2 VIS VRB 1-3 SLP076

CYGK;2017-12-16 01:47;CYGK 160147Z 21018KT 2SM -SN DRSN VV009 M03/M05 A2972 RMK SN8 VIS VRB 1-3 SLP070

CYGK;2017-12-16 02:00;CYGK 160200Z 20015G23KT 1SM -SN DRSN VV005 M03/M04 A2971 RMK SN8 VIS VRB 1/2- 1/12 SLP069

CYGK;2017-12-16 02:12;CYGK 160212Z 20017KT 1/4SM SN DRSN VV004 M03/M04 A2971 RMK SN8 SLP068

CYGK;2017-12-16 02:20;CYGK 160220Z 21015G21KT 3/4SM -SN DRSN BKN005 OVC016 M03/M04 A2971 RMK SN6CF1SC1 VIS VRB 1/2-1 SLP067

CYGK;2017-12-16 02:32;CYGK 160232Z 22015G22KT 2SM SN DRSN BKN018TCU OVC025 M02/M04 A2970 RMK SN4TCU3SC1 VIS VRB 1-3 SLP066

CYGK;2017-12-16 02:44;CYGK 160244Z 22014G20KT 5SM -SN DRSN BKN020 BKN040 OVC090 M02/M05 A2970 RMK CU5SC2AC1 SLP064

CYGK;2017-12-16 03:01;CYGK 160301Z 24018G25KT 1/4SM SN DRSN VV002 M02/M04 A2970 RMK SN8 SLP065

CYGK;2017-12-16 03:12;CYGK 160312Z 26011G23KT 1 1/2SM -SN DRSN OVC015TCU M04/M05 A2971 RMK SN4TCU4 VIS VRB 1/2- 21/2 /S02/ SLP067

CYGK;2017-12-16 03:19;CYGK 160319Z 27011KT 8SM VCSH DRSN SCT015TCU BKN070 OVC120 M04/M06 A2971 RMK TCU3AC4AC1 SLP067

CYGK;2017-12-16 04:00;CYGK 160400Z 27009KT 15SM FEW020 OVC120 M05/M07 A2972 RMK CU1AC7 LAST STFD OBS/NEXT 161100 UTC SLP069

CYGK;2017-12-16 11:00;CYGK 161100Z 27014KT 15SM SCT070 M06/M10 A2981 RMK AC3 SLP102

CYGK;2017-12-16 12:00;CYGK 161200Z 28009G16KT 15SM BKN058 BKN120 M06/M10 A2985 RMK SC5AC2 SLP113

CYGK;2017-12-16 13:00;CYGK 161300Z 26007KT 15SM FEW060 SCT120 M07/M10 A2987 RMK SC2AC1 SLP123

CYGK;2017-12-16 14:00;CYGK 161400Z 27008KT 15SM FEW020 BKN055 BKN090 M06/M11 A2989 RMK CU1SC4AC2 SLP128

CYGK;2017-12-16 15:00;CYGK 161500Z 28010G17KT 15SM FEW020 FEW055 BKN089 M05/M12 A2991 RMK CU1SC2AC3 CU TR SLP135

CYGK;2017-12-16 16:00;CYGK 161600Z 30013KT 15SM FEW020 SCT045 BKN080 M06/M15 A2993 RMK CU1SC2AC3 SLP142

CYGK;2017-12-16 17:00;CYGK 161700Z 33008KT 15SM FEW004 BKN076 BKN240 M05/M15 A2992 RMK SC1AC5CI1 CI TR SLP139

CYGK;2017-12-16 18:00;CYGK 161800Z 30011KT 15SM FEW040 SCT075 M04/M17 A2994 RMK SC2AC2 SLP145

CYGK;2017-12-16 19:00;CYGK 161900Z 32012KT 270V340 15SM FEW020 FEW070 FEW200 M04/M16 A2996 RMK SC1AC1CI1 SC TR SLP153

CYGK;2017-12-16 20:00;CYGK 162000Z 30010G17KT 15SM FEW020 FEW070 FEW250 M04/M17 A3001 RMK SC1AC1CI1 SC TR CI TR PRESRR SLP168

CYGK;2017-12-16 21:00;CYGK 162100Z 30008KT 15SM FEW025 FEW080 FEW250 M05/M16 A3004 RMK CF1AC1CI1 CF TR SLP179

CYGK;2017-12-16 22:00;CYGK 162200Z 29003KT 15SM FEW070 FEW250 M07/M16 A3007 RMK AC1CI1 AC TR CI TR SLP192

CYGK;2017-12-16 23:00;CYGK 162300Z 29005KT 15SM FEW070 M07/M16 A3011 RMK AC1 AC TR SLP204

CYGK;2017-12-17 00:00;CYGK 170000Z 29007KT 15SM FEW070 M08/M17 A3014 RMK AC1 AC TR SLP215

CYGK;2017-12-17 01:00;CYGK 170100Z 01007KT 15SM FEW070 M11/M16 A3018 RMK AC1 AC TR PRESRR SLP229

CYGK;2017-12-17 02:00;CYGK 170200Z 03003KT 15SM SKC M12/M17 A3021 RMK SLP237

CYGK;2017-12-17 03:00;CYGK 170300Z 03005KT 15SM SKC M13/M18 A3023 RMK SLP244

CYGK;2017-12-17 04:00;CYGK 170400Z 05004KT 15SM SKC M14/M18 A3025 RMK LAST STFD OBS/NEXT 171100 UTC SLP251

CYGK;2017-12-17 11:00;CYGK 171100Z 36007KT 15SM FEW120 M19/M22 A3030 RMK AC1 SLP269

CYGK;2017-12-17 12:00;CYGK 171200Z 34006KT 15SM FEW005 FEW250 M19/M22 A3033 RMK SF1CI1 SF TR SLP281

CYGK;2017-12-17 13:00;CYGK 171300Z 01004KT 15SM FEW005 FEW250 M19/M22 A3034 RMK SF1CI1 SLP283

CYGK;2017-12-17 14:00;CYGK 171400Z 02005KT 15SM FEW010 SCT250 M17/M20 A3035 RMK CU1CI3 SLP286

CYGK;2017-12-17 15:00;CYGK 171500Z 05005KT 360V070 15SM FEW010 SCT250 M15/M20 A3036 RMK SC1CI4 SC TR SLP292

CYGK;2017-12-17 16:00;CYGK 171600Z 07005KT 15SM FEW015 BKN250 M14/M19 A3036 RMK CU1CI6 CU TR SLP292

CYGK;2017-12-17 17:00;CYGK 171700Z 07006KT 15SM FEW015 BKN250 M13/M19 A3033 RMK SC1CI6 SC TR SLP281

CYGK;2017-12-17 18:00;CYGK 171800Z 09005KT 15SM FEW015 BKN250 M12/M19 A3030 RMK CU1CI6 CU TR SLP272

CYGK;2017-12-17 19:00;CYGK 171900Z 07006KT 15SM FEW015 BKN230 M12/M19 A3030 RMK SC1CI6 SC TR SLP270

CYGK;2017-12-17 20:00;CYGK 172000Z 06006KT 15SM FEW015 SCT080 BKN160 BKN220 M12/M18 A3030 RMK SC1AC2AC2CI2 SLP270

CYGK;2017-12-17 21:00;CYGK 172100Z 06006KT 15SM FEW020 SCT180 OVC250 M12/M18 A3028 RMK SC1AC3CI5 SC TR SLP264

CYGK;2017-12-17 22:00;CYGK 172200Z 03007KT 15SM FEW020 BKN170 OVC250 M12/M18 A3028 RMK SC1AC5CI3 SC TR SLP263

CYGK;2017-12-17 23:00;CYGK 172300Z 03005KT 15SM FEW020 BKN140 BKN220 M13/M18 A3026 RMK SC1AC4CI2 SLP256

CYGK;2017-12-18 00:00;CYGK 180000Z 04008KT 15SM FEW020 OVC170 M12/M18 A3025 RMK SC1AC7 SLP254

CYGK;2017-12-18 01:00;CYGK 180100Z 04006KT 15SM FEW020 BKN140 BKN200 M13/M17 A3025 RMK SC1AC4CI2 SLP252

CYGK;2017-12-18 02:00;CYGK 180200Z 04007KT 15SM FEW020 SCT140 BKN210 M13/M17 A3021 RMK SC1AC3CI2 PRESFR SLP241

CYGK;2017-12-18 03:00;CYGK 180300Z 04006KT 15SM FEW020 BKN200 M14/M17 A3019 RMK SC1CI4 SLP233

CYGK;2017-12-18 04:00;CYGK 180400Z 03006KT 15SM FEW020 OVC200 M13/M16 A3017 RMK SC1CI7 LAST STFD OBS/NEXT 181100 UTC SLP225

CYGK;2017-12-18 11:00;CYGK 181100Z 04007KT 15SM BKN012 OVC020 M10/M14 A3002 RMK SC7SC1 SLP175

CYGK;2017-12-18 12:00;CYGK 181200Z 05008KT 15SM BKN011 OVC015 M10/M14 A3001 RMK SC7SC1 SLP172

CYGK;2017-12-18 12:22;CYGK 181222Z 04005KT 15SM FEW006 BKN010 OVC015 M10/M14 A3002 RMK SF1SC7SC1 SF TR SLP173

CYGK;2017-12-18 13:00;CYGK 181300Z 05006KT 15SM -SN FEW006 BKN009 OVC015 M10/M13 A3000 RMK SF1SC7SC1 SF TR SLP167

CYGK;2017-12-18 14:00;CYGK 181400Z 03007KT 8SM -SN BKN008 OVC015 M09/M13 A2999 RMK SF7SC1 SLP163

CYGK;2017-12-18 14:18;CYGK 181418Z 05007KT 2 1/2SM -SN BKN009 OVC015 M09/M12 A2998 RMK SC7SC1 SLP162

CYGK;2017-12-18 15:00;CYGK 181500Z 05005KT 2SM -SN OVC009 M09/M12 A2997 RMK NS8 SLP158

CYGK;2017-12-18 16:00;CYGK 181600Z 03006KT 1 1/2SM -SN OVC008 M08/M11 A2994 RMK NS8 SLP147

CYGK;2017-12-18 17:00;CYGK 181700Z 02006KT 1 1/2SM -SN OVC007 M08/M10 A2991 RMK SN2NS6 /S03/ SLP136

CYGK;2017-12-18 17:44;CYGK 181744Z 02007KT 6SM -SN BKN005 OVC009 M07/M10 A2988 RMK SF5NS3 /S04/ SLP127

CYGK;2017-12-18 18:00;CYGK 181800Z 02007KT 8SM -SN OVC006 M07/M09 A2988 RMK SF8 VIS LWR S SLP126

CYGK;2017-12-18 18:11;CYGK 181811Z 03006KT 6SM -PLSN OVC006 M07/M09 A2987 RMK SF8 SLP123

CYGK;2017-12-18 19:00;CYGK 181900Z 02006KT 3SM -SN OVC006 M07/M09 A2986 RMK SF8 SLP119

CYGK;2017-12-18 19:28;CYGK 181928Z 03006KT 3SM -FZDZ -SN OVC007 M07/M09 A2985 RMK SF8 SLP116

CYGK;2017-12-18 19:48;CYGK 181948Z 02004KT 2SM -SN OVC006 M07/M09 A2986 RMK SF8 SLP118

CYGK;2017-12-18 20:00;CYGK 182000Z 03006KT 2SM -SN OVC007 M07/M09 A2985 RMK SF8 /S01/ SLP116

CYGK;2017-12-18 20:16;CYGK 182016Z 03006KT 4SM -SN OVC006 M07/M09 A2985 RMK SF8 SLP116

CYGK;2017-12-18 21:00;CYGK 182100Z 02006KT 5SM -SN OVC006 M07/M09 A2985 RMK SF8 SLP114

CYGK;2017-12-18 21:32;CYGK 182132Z 02005KT 2SM -SN BKN007 OVC020 M07/M09 A2985 RMK SF7SC1 SLP114

CYGK;2017-12-18 22:00;CYGK 182200Z 02005KT 2SM -SN BKN007 OVC020 M07/M09 A2984 RMK SF6SC2 SLP113

CYGK;2017-12-18 22:31;CYGK 182231Z 04004KT 2 1/2SM -SN SCT007 BKN012 OVC020 M07/M08 A2985 RMK SF4SC2SC2 SLP114

CYGK;2017-12-18 22:43;CYGK 182243Z 03004KT 2 1/2SM -FZDZ -SN SCT007 BKN012 OVC020 M07/M08 A2984 RMK SF4SC1SC3 SLP112

CYGK;2017-12-18 23:00;CYGK 182300Z VRB02KT 2 1/2SM -FZDZ -SN SCT007 OVC016 M07/M08 A2984 RMK SF3SC5 SLP111

CYGK;2017-12-19 00:00;CYGK 190000Z 02003KT 3SM -FZDZ -SN FEW003 BKN008 OVC015 M06/M08 A2983 RMK SF2SF4SC2 /S02/ SLP109

CYGK;2017-12-19 01:00;CYGK 190100Z 01005KT 4SM -FZDZ -SN BKN005 OVC015 M06/M08 A2983 RMK SF7SC1 SLP108

CYGK;2017-12-19 01:24;CYGK 190124Z 01005KT 5SM -FZDZ OVC005 M06/M07 A2983 RMK SF8 SLP108

CYGK;2017-12-19 02:00;CYGK 190200Z 01005KT 5SM -FZDZ OVC005 M06/M07 A2983 RMK SF8 SLP108

CYGK;2017-12-19 03:00;CYGK 190300Z 04003KT 5SM -FZDZ OVC005 M06/M07 A2981 RMK SF8 SLP101

CYGK;2017-12-19 03:21;CYGK 190321Z 02002KT 7SM OVC004 M06/M07 A2981 RMK SF8 SLP102

CYGK;2017-12-19 04:00;CYGK 190400Z 03003KT 8SM OVC004 M06/M07 A2982 RMK SF8 LAST STFD OBS/NEXT 191100 UTC SLP106

CYGK;2017-12-19 11:00;CYGK 191100Z 23012G17KT 15SM BKN014 BKN050 OVC130 04/02 A2969 RMK SF6SC1AC1 SLP060

CYGK;2017-12-19 12:00;CYGK 191200Z 23017KT 15SM SCT015 BKN025 OVC050 05/02 A2967 RMK SF3SC4SC1 SLP053

CYGK;2017-12-19 13:00;CYGK 191300Z 23015KT 12SM BKN015 OVC023 05/03 A2965 RMK SC6SC2 SLP045

CYGK;2017-12-19 14:00;CYGK 191400Z 24016G27KT 12SM BKN016 OVC022 05/03 A2966 RMK SC6SC2 SLP048

CYGK;2017-12-19 15:00;CYGK 191500Z 24015G20KT 15SM BKN018 BKN035 OVC080 05/02 A2965 RMK SC5SC2AC1 SLP045

CYGK;2017-12-19 16:00;CYGK 191600Z 24018G24KT 12SM SCT017 BKN022 OVC070 05/02 A2962 RMK SF3SC4AC1 SLP036

CYGK;2017-12-19 17:00;CYGK 191700Z 24021G30KT 12SM BKN022 OVC030 06/02 A2960 RMK SC5SC3 SLP028

CYGK;2017-12-19 18:00;CYGK 191800Z CCA 24018G27KT 12SM SCT022 OVC050 05/02 A2957 RMK SC3SC5 SLP020

CYGK;2017-12-19 19:00;CYGK 191900Z 25015G27KT 12SM FEW015 BKN040 OVC100 05/02 A2956 RMK SF1SC7AC1 SF TR SLP016

CYGK;2017-12-19 20:03;CYGK 192003Z 25019G27KT 10SM -RA SCT019 OVC038 05/02 A2959 RMK CF3SC5 SLP025

CYGK;2017-12-19 20:52;CYGK 192052Z 25013G24KT 12SM SCT040 BKN060 BKN240 05/02 A2960 RMK SC3SC4CI1 CI TR SLP030

CYGK;2017-12-19 21:00;CYGK 192100Z 25015G22KT 12SM FEW040 BKN065 BKN240 05/02 A2960 RMK SC2SC5CI1 CI TR SLP030

CYGK;2017-12-19 22:00;CYGK 192200Z 25014G21KT 12SM SCT038 BKN070 05/01 A2962 RMK SC3AC3 SLP035

CYGK;2017-12-19 23:00;CYGK 192300Z 25012G18KT 12SM FEW042 SCT068 04/01 A2964 RMK SC2AC2 SLP041

CYGK;2017-12-20 00:00;CYGK 200000Z 25011G16KT 15SM SCT240 04/M00 A2966 RMK CI3 SLP047

CYGK;2017-12-20 01:00;CYGK 200100Z 26014G20KT 15SM FEW035 FEW070 04/M01 A2965 RMK SC1AC1 SC TR SLP044

CYGK;2017-12-20 02:00;CYGK 200200Z 25012G20KT 15SM FEW070 03/M01 A2964 RMK AC1 SLP043

CYGK;2017-12-20 02:35;CYGK 200235Z 26021G28KT 15SM -RA SCT040 04/M01 A2965 RMK SC4 SLP045

CYGK;2017-12-20 03:00;CYGK 200300Z 28013G21KT 15SM -RA BKN035 03/M01 A2965 RMK SC6 SLP046

CYGK;2017-12-20 03:18;CYGK 200318Z 28009G16KT 15SM BKN042 02/M01 A2966 RMK SC6 SLP048

CYGK;2017-12-20 04:00;CYGK 200400Z 28008KT 15SM BKN050 02/M01 A2966 RMK SC6 LAST STFD OBS/NEXT 201100 UTC SLP049

CYGK;2017-12-20 11:00;CYGK 201100Z 27010G16KT 15SM FEW055 BKN070 M01/M06 A2981 RMK SC2AC3 SLP100

CYGK;2017-12-20 12:00;CYGK 201200Z 27010G18KT 15SM FEW058 M01/M06 A2984 RMK SC2 SLP111

CYGK;2017-12-20 13:00;CYGK 201300Z 27010KT 15SM FEW030 SCT050 M01/M06 A2986 RMK CU1SC3 SH DIST W-NW SLP118

CYGK;2017-12-20 14:00;CYGK 201400Z 28008G15KT 15SM FEW030 BKN055 M01/M07 A2990 RMK CU1SC6 CU TR SH DIST SW-NW SLP131

CYGK;2017-12-20 15:00;CYGK 201500Z 31009G16KT 15SM FEW030 BKN052 M01/M08 A2993 RMK CU1SC6 SLP141

CYGK;2017-12-20 16:00;CYGK 201600Z 31015G21KT 15SM BKN038 M00/M09 A2993 RMK SC6 SH DIST N-E SLP141

CYGK;2017-12-20 17:00;CYGK 201700Z 31010G16KT 15SM BKN041 M01/M09 A2992 RMK SC6 SLP138

CYGK;2017-12-20 18:00;CYGK 201800Z 27011G20KT 15SM BKN040 M01/M10 A2993 RMK SC6 SLP139

CYGK;2017-12-20 19:00;CYGK 201900Z 29010G17KT 15SM BKN041 M01/M09 A2994 RMK SC7 SLP143

CYGK;2017-12-20 20:00;CYGK 202000Z 28009KT 15SM BKN042 M01/M09 A2995 RMK SC7 SLP146

CYGK;2017-12-20 21:00;CYGK 202100Z 30009KT 15SM BKN044 M01/M10 A2998 RMK SC7 SLP157

CYGK;2017-12-20 22:00;CYGK 202200Z 30007KT 15SM BKN041 M02/M10 A3000 RMK SC7 SLP164

CYGK;2017-12-20 23:00;CYGK 202300Z 29006KT 15SM BKN040 M04/M10 A3004 RMK SC6 SLP178

CYGK;2017-12-21 00:00;CYGK 210000Z 31007KT 15SM BKN042 M04/M10 A3005 RMK SC5 SLP183

CYGK;2017-12-21 01:00;CYGK 210100Z 35009KT 15SM FEW040 M06/M11 A3007 RMK SC2 SLP191

CYGK;2017-12-21 02:00;CYGK 210200Z 34007KT 15SM SCT040 M06/M12 A3009 RMK SC4 SLP197

CYGK;2017-12-21 03:00;CYGK 210300Z 34006KT 15SM BKN036 M07/M12 A3011 RMK SC6 SLP204

CYGK;2017-12-21 04:00;CYGK 210400Z 02005KT 15SM BKN036 M08/M13 A3012 RMK SC5 LAST STFD OBS/NEXT 211100 UTC SLP206

CYGK;2017-12-21 11:00;CYGK 211100Z 07005KT 15SM FEW015 SCT110 M10/M14 A3023 RMK CF1AC4 CF TR SLP243

CYGK;2017-12-21 12:00;CYGK 211200Z 05004KT 15SM FEW015 SCT110 BKN150 M11/M15 A3024 RMK CU1AC2AC2 SLP249

CYGK;2017-12-21 13:00;CYGK 211300Z 02006KT 15SM FEW015 SCT160 M11/M14 A3025 RMK SC2AC2 SLP252

CYGK;2017-12-21 14:00;CYGK 211400Z 07004KT 15SM SCT022 BKN160 M10/M14 A3027 RMK SC3AC2 SLP257

CYGK;2017-12-21 15:00;CYGK 211500Z 06004KT 15SM BKN024 BKN150 M09/M14 A3029 RMK SC5AC2 SLP265

CYGK;2017-12-21 15:48;CYGK 211548Z 00000KT 15SM -SN BKN021 BKN120 M09/M13 A3030 RMK SC6AC1 SLP267

CYGK;2017-12-21 16:00;CYGK 211600Z 07005KT 010V080 12SM -SN BKN018 BKN100 M08/M13 A3029 RMK SC6AC1 SLP266

CYGK;2017-12-21 17:00;CYGK 211700Z 12004KT 12SM -SN BKN018 OVC025 M08/M12 A3029 RMK SC7SC1 SLP264

CYGK;2017-12-21 18:00;CYGK 211800Z CCA 08003KT 050V110 12SM -SN BKN022 BKN120 BKN200 M08/M12 A3027 RMK SC5AC1CI1 AC TR SLP257

CYGK;2017-12-21 18:37;CYGK 211837Z 07003KT 050V110 15SM SCT018 BKN140 BKN230 M07/M12 A3026 RMK SC3AC3CI1 SLP256

CYGK;2017-12-21 19:00;CYGK 211900Z VRB02KT 15SM FEW018 BKN110 BKN200 M07/M13 A3026 RMK SC2AC4CI1 SLP256

CYGK;2017-12-21 20:00;CYGK 212000Z 08003KT 030V140 15SM FEW024 BKN140 BKN200 M07/M12 A3027 RMK SC2AC3CI2 SLP258

CYGK;2017-12-21 21:00;CYGK 212100Z 10004KT 15SM FEW024 OVC130 M07/M12 A3029 RMK SC2AC6 SLP264

CYGK;2017-12-21 22:00;CYGK 212200Z 07005KT 15SM FEW024 OVC130 M07/M12 A3030 RMK SC2AC6 SLP267

CYGK;2017-12-21 23:00;CYGK 212300Z 07004KT 15SM FEW020 OVC130 M07/M12 A3031 RMK SC2AC6 SLP273

CYGK;2017-12-22 00:00;CYGK 220000Z 05007KT 15SM FEW020 OVC090 M08/M13 A3032 RMK SC2AC6 SLP277

CYGK;2017-12-22 01:00;CYGK 220100Z 04007KT 15SM FEW020 OVC078 M08/M13 A3032 RMK SC2AC6 SLP275

CYGK;2017-12-22 02:00;CYGK 220200Z 05009KT 15SM FEW020 OVC090 M08/M13 A3031 RMK SC2AC6 SLP274

CYGK;2017-12-22 03:00;CYGK 220300Z 05007KT 15SM FEW020 OVC087 M08/M13 A3030 RMK SC2AC6 SLP270

CYGK;2017-12-22 04:00;CYGK 220400Z 05009KT 15SM FEW020 OVC087 M08/M13 A3030 RMK SC2AC6 LAST STFD OBS/NEXT 221100 UTC SLP269

CYGK;2017-12-22 11:00;CYGK 221100Z 04010G16KT 3/4SM -SN VV006 M10/M12 A3025 RMK SN8 /S03/ SLP253

CYGK;2017-12-22 11:25;CYGK 221125Z 05012KT 1 1/4SM -SN VV007 M10/M13 A3024 RMK SN8 SLP250

CYGK;2017-12-22 12:00;CYGK 221200Z 04013KT 1 1/2SM -SN VV007 M10/M13 A3023 RMK SN8 SLP244

CYGK;2017-12-22 12:29;CYGK 221229Z 04013G21KT 1SM -SN VV007 M11/M13 A3021 RMK SN8 SLP240

CYGK;2017-12-22 13:00;CYGK 221300Z 04013G19KT 3/4SM -SN VV006 M11/M13 A3020 RMK SN8 SLP236

CYGK;2017-12-22 14:00;CYGK 221400Z 04014G23KT 1SM -SN VV010 M11/M13 A3019 RMK SN8 SLP233

CYGK;2017-12-22 14:28;CYGK 221428Z 04014G22KT 1SM -SN VV007 M11/M13 A3019 RMK SN8 SLP232

CYGK;2017-12-22 15:00;CYGK 221500Z 04013G21KT 1/2SM SN DRSN VV005 M10/M13 A3019 RMK SN8 /S02/ SLP232

CYGK;2017-12-22 15:50;CYGK 221550Z 04015G21KT 1SM -SN VV007 M10/M13 A3017 RMK SN8 SLP226

CYGK;2017-12-22 16:00;CYGK 221600Z 04017G25KT 1 1/2SM -SN OVC020 M10/M13 A3017 RMK SN6SC2 VIS VRB 1-2 /S03/ SLP224

CYGK;2017-12-22 17:00;CYGK 221700Z 04015G22KT 15SM -SN OVC017 M10/M12 A3013 RMK SN6SC2 SLP212

CYGK;2017-12-22 18:00;CYGK 221800Z 04015G23KT 3SM -SN BKN025 OVC070 M09/M12 A3010 RMK SN3SC3AC2 SLP202

CYGK;2017-12-22 19:00;CYGK 221900Z CCA 04013G22KT 6SM -SN DRSN FEW023 OVC052 M09/M12 A3009 RMK SC2SC6 SLP198

CYGK;2017-12-22 20:00;CYGK 222000Z 02014KT 12SM -SN DRSN FEW028 OVC055 M09/M12 A3009 RMK SC2SC6 SLP197

CYGK;2017-12-22 21:00;CYGK 222100Z 04012G19KT 5SM -SN DRSN BKN028 OVC050 M09/M12 A3008 RMK SN2SC4SC2 SLP195

CYGK;2017-12-22 22:00;CYGK 222200Z 03012G19KT 2 1/2SM -SN DRSN BKN018 OVC023 M10/M12 A3009 RMK SC5NS3 SLP199

CYGK;2017-12-22 22:12;CYGK 222212Z 03013G20KT 3SM -SN DRSN BKN018 OVC022 M10/M13 A3009 RMK SC5NS3 SLP199

CYGK;2017-12-22 23:00;CYGK 222300Z 02012G18KT 12SM -SN DRSN OVC018 M10/M13 A3011 RMK SC8 SLP204

CYGK;2017-12-23 00:00;CYGK 230000Z 02014G20KT 3SM -SN DRSN OVC018 M10/M13 A3011 RMK NS8 SLP205

CYGK;2017-12-23 01:00;CYGK 230100Z 02012G19KT 15SM DRSN OVC015 M11/M14 A3011 RMK SC8 SLP206

CYGK;2017-12-23 02:00;CYGK 230200Z 03009KT 15SM OVC012 M10/M13 A3012 RMK SC8 SLP207

CYGK;2017-12-23 03:00;CYGK 230300Z 04008G15KT 15SM OVC009 M11/M13 A3009 RMK ST8 SLP198

CYGK;2017-12-23 04:00;CYGK 230400Z 03009KT 12SM OVC008 M11/M12 A3008 RMK ST8 LAST STFD OBS / NEXT231100 UTC SLP194

CYGK;2017-12-23 11:00;CYGK 231100Z 03009KT 5SM -FZDZ BR BKN006 OVC010 M10/M12 A2996 RMK ST6SC2 SLP153

CYGK;2017-12-23 12:00;CYGK 231200Z 02008KT 4SM -FZDZ BR SCT004 OVC009 M10/M11 A2993 RMK SF4ST4 PRESFR SLP142

CYGK;2017-12-23 13:00;CYGK 231300Z 02009KT 3SM BR OVC004 M10/M11 A2990 RMK ST8 SLP132

CYGK;2017-12-23 13:47;CYGK 231347Z 01011KT 2SM -FZRA BR OVC005 M10/M11 A2990 RMK ST8 SLP134

CYGK;2017-12-23 14:00;CYGK 231400Z 01010KT 2SM -FZRA OVC004 M09/M11 A2990 RMK SF8 SLP132

CYGK;2017-12-23 14:24;CYGK 231424Z 02010KT 2SM -FZRA -SN BKN004 OVC012 M09/M10 A2988 RMK SF7SC1 SLP128

CYGK;2017-12-23 15:00;CYGK 231500Z CCA 01013KT 2SM -FZRA -PL BR SCT004 OVC016 M08/M10 A2986 RMK SF4SC4 SLP120

CYGK;2017-12-23 16:00;CYGK 231600Z 36008KT 1 1/2SM -SHPL BR FEW005 OVC013 M08/M09 A2984 RMK SF2CU6 SLP111

CYGK;2017-12-23 16:25;CYGK 231625Z 01009KT 1 1/2SM -SN FEW005 OVC015 M07/M09 A2983 RMK SF1SC7 SLP110

CYGK;2017-12-23 16:42;CYGK 231642Z 36009KT 1SM -SN BKN014 OVC023 M08/M09 A2981 RMK SC6SC2 PRESFR SLP103

CYGK;2017-12-23 17:00;CYGK 231700Z 36010KT 1SM -SN OVC016 M08/M10 A2981 RMK SC8 SLP101

CYGK;2017-12-23 18:00;CYGK 231800Z 35012KT 3/4SM -SN VV007 M08/M10 A2977 RMK SN8 SLP089

CYGK;2017-12-23 19:00;CYGK 231900Z 36006KT 5/8SM -SN VV006 M07/M09 A2977 RMK SN8 SLP090

CYGK;2017-12-23 20:00;CYGK 232000Z 35007KT 5/8SM -SN VV005 M07/M09 A2980 RMK SN8 /S04/ SLP100

CYGK;2017-12-23 21:00;CYGK 232100Z 32006KT 3/4SM -SN VV008 M07/M09 A2984 RMK SN8 PRESRR SLP111

CYGK;2017-12-23 22:00;CYGK 232200Z 34003KT 1SM -SN BKN013 OVC027 M07/M08 A2985 RMK SN4SC3SC1 SLP114

CYGK;2017-12-23 22:28;CYGK 232228Z 31003KT 2SM -SN BKN012 OVC028 M07/M08 A2985 RMK SN2SC3SC3 PRESRR SLP117

CYGK;2017-12-23 23:00;CYGK 232300Z 29004KT 6SM VCSH SCT027 OVC110 M06/M08 A2987 RMK SC4AC4 SLP124

CYGK;2017-12-24 00:00;CYGK 240000Z 29004KT 15SM BKN033 OVC110 M06/M08 A2990 RMK SC5AC3 SLP134

CYGK;2017-12-24 01:00;CYGK 240100Z 26007KT 15SM BKN026 OVC040 M05/M07 A2995 RMK SC6SC2 PRESRR SLP149

CYGK;2017-12-24 02:00;CYGK 240200Z 25004KT 15SM FEW018 OVC032 M04/M06 A2997 RMK SF1SC7 SLP156

CYGK;2017-12-24 03:00;CYGK 240300Z 28006KT 15SM FEW010 SCT035 BKN160 M04/M06 A3003 RMK SF2SC2AC1 SLP175

CYGK;2017-12-24 04:00;CYGK 240400Z 26007KT 15SM SCT040 M04/M06 A3005 RMK SC4 LAST STFD OBS/NEXT 241100 UTC SLP182

CYGK;2017-12-24 11:00;CYGK 241100Z 28007KT 15SM BKN045 M04/M06 A3021 RMK SC6 SLP237

CYGK;2017-12-24 12:00;CYGK 241200Z 34007KT 15SM BKN042 BKN230 M06/M08 A3022 RMK SC5CI2 SLP240

CYGK;2017-12-24 13:00;CYGK 241300Z 35006KT 15SM BKN053 BKN220 M05/M07 A3023 RMK SC6CI1 SLP244

CYGK;2017-12-24 14:00;CYGK 241400Z 01007KT 15SM BKN051 BKN210 M05/M07 A3025 RMK SC5CI2 SLP250

CYGK;2017-12-24 15:00;CYGK 241500Z 03010KT 15SM FEW015 SCT050 BKN210 M05/M08 A3028 RMK CF1SC3CI3 CF TR SLP261

CYGK;2017-12-24 16:00;CYGK 241600Z 05010KT 15SM FEW010 SCT050 BKN190 M06/M08 A3026 RMK CF1SC2CI4 SLP254

CYGK;2017-12-24 17:00;CYGK 241700Z 06007KT 15SM FEW010 FEW050 BKN200 M06/M10 A3023 RMK CF1SC1CI6 CF TR SLP244

CYGK;2017-12-24 18:00;CYGK 241800Z 06009KT 15SM FEW010 SCT140 BKN220 M05/M10 A3020 RMK CF1AC2CI3 SLP234

CYGK;2017-12-24 19:00;CYGK 241900Z 06007KT 15SM FEW012 BKN044 M05/M09 A3019 RMK CF1SC6 SLP229

CYGK;2017-12-24 20:00;CYGK 242000Z 08012KT 15SM FEW020 SCT042 SCT140 BKN250 M05/M09 A3016 RMK CF1SC3AC1CI2 CF TR PARAHELIA SLP220

CYGK;2017-12-24 21:00;CYGK 242100Z 04009KT 15SM FEW040 BKN120 M06/M10 A3014 RMK SC2AC5 SLP214

CYGK;2017-12-24 22:00;CYGK 242200Z 05009KT 15SM FEW040 OVC110 M06/M12 A3014 RMK SC1AS7 SLP213

CYGK;2017-12-24 23:00;CYGK 242300Z 04012KT 15SM FEW042 OVC090 M06/M11 A3011 RMK SC1AS7 VIRGA PRESFR SLP202

CYGK;2017-12-25 00:00;CYGK 250000Z 05011KT 15SM BKN045 OVC090 M06/M11 A3009 RMK SC6AS2 SLP196

CYGK;2017-12-25 00:10;CYGK 250010Z 05010G16KT 15SM -SN OVC045 M06/M11 A3008 RMK SC8 SLP195

CYGK;2017-12-25 00:39;CYGK 250039Z 05011KT 15SM OVC043 M06/M11 A3007 RMK SC8 SLP190

CYGK;2017-12-25 01:00;CYGK 250100Z 04011G17KT 15SM SCT042 OVC075 M06/M11 A3004 RMK SC4AS4 PRESFR SLP180

CYGK;2017-12-25 02:00;CYGK 250200Z 04012G18KT 15SM OVC043 M06/M11 A2998 RMK SC8 SLP159

CYGK;2017-12-25 03:00;CYGK 250300Z 05013G18KT 15SM FEW033 OVC045 M06/M11 A2993 RMK SC2SC6 PRESFR SLP141

CYGK;2017-12-25 03:47;CYGK 250347Z 06014G19KT 12SM -SN OVC037 M06/M10 A2987 RMK NS8 PRESFR SLP123

CYGK;2017-12-25 04:00;CYGK 250400Z 05015KT 8SM -SN OVC033 M06/M10 A2986 RMK NS8 LAST STFD OBS / NEXT 251100 UTC PRESFR SLP119

CYGK;2017-12-25 11:00;CYGK 251100Z 36007KT 3/4SM -SN VV007 M06/M07 A2952 RMK SN8 SLP002

CYGK;2017-12-25 11:45;CYGK 251145Z 30011KT 2SM -SN OVC009 M06/M07 A2955 RMK SF8 PRESRR SLP013

CYGK;2017-12-25 12:00;CYGK 251200Z 32010KT 2 1/2SM -SN BKN009 OVC020 M06/M08 A2956 RMK SF6SC2 /S10/ AFT 00Z SLP015

CYGK;2017-12-25 12:13;CYGK 251213Z 31010KT 4SM -SN BKN009 BKN020 OVC050 M06/M08 A2956 RMK SF5SC2SC1 SLP018

CYGK;2017-12-25 12:23;CYGK 251223Z 31009KT 5SM -SN SCT009 BKN020 OVC050 M07/M09 A2957 RMK SF3SC2SC3 SLP022

CYGK;2017-12-25 13:00;CYGK 251300Z 29010G16KT 8SM -SN FEW010 BKN050 OVC110 M07/M09 A2961 RMK SF1SC5AC2 PRESRR SLP035

CYGK;2017-12-25 13:35;CYGK 251335Z 29011KT 15SM FEW010 FEW040 SCT130 OVC240 M07/M10 A2965 RMK SC1SC2AC2CI4 SC TR PRESRR SLP046

CYGK;2017-12-25 14:00;CYGK 251400Z 28008KT 15SM FEW015 FEW060 SCT120 BKN240 M07/M10 A2967 RMK SC1SC1AC2CI3 PRESRR SLP053

CYGK;2017-12-25 15:00;CYGK 251500Z 28012G19KT 15SM DRSN FEW015 BKN100 OVC240 M07/M11 A2971 RMK CU1AC4CI3 SLP068

CYGK;2017-12-25 16:00;CYGK 251600Z 27012G20KT 15SM DRSN FEW015 SCT080 BKN210 M07/M11 A2973 RMK CU1AC3CI3 SLP076

CYGK;2017-12-25 17:00;CYGK 251700Z 26014G26KT 15SM DRSN FEW020 SCT100 BKN240 M06/M10 A2973 RMK CU2AC1CI2 SLP075

CYGK;2017-12-25 18:00;CYGK 251800Z 27015G22KT 15SM DRSN BKN023 BKN090 M04/M09 A2974 RMK SC6AC1 SLP078

CYGK;2017-12-25 19:00;CYGK 251900Z 27020G26KT 15SM DRSN FEW025 SCT060 M03/M09 A2975 RMK CU2SC2 SLP081

CYGK;2017-12-25 19:29;CYGK 251929Z 27016G23KT 15SM -SN FEW025 BKN040 M03/M08 A2977 RMK CU1SC5 SLP087

CYGK;2017-12-25 20:00;CYGK 252000Z 26012G19KT 15SM -SN DRSN FEW025 BKN050 M03/M08 A2979 RMK CU1SC6 SLP094

CYGK;2017-12-25 21:00;CYGK 252100Z 26017KT 12SM -SN DRSN FEW022 BKN040 M03/M09 A2982 RMK CU2SC5 SLP106

CYGK;2017-12-25 22:00;CYGK 252200Z 26015G20KT 12SM -SN DRSN FEW015 BKN030 BKN050 M04/M11 A2987 RMK SC1SC4SC2 SLP122

CYGK;2017-12-25 23:00;CYGK 252300Z 27012G18KT 15SM -SN DRSN FEW020 BKN045 OVC080 M05/M10 A2992 RMK SC2SC3AC3 SLP139

CYGK;2017-12-26 00:00;CYGK 260000Z 27015G20KT 15SM -SN DRSN FEW020 FEW050 BKN080 M05/M13 A2994 RMK SC1SC1AC3 SLP147

CYGK;2017-12-26 00:19;CYGK 260019Z 27011G19KT 15SM DRSN FEW020 FEW045 BKN080 M06/M15 A2995 RMK SC1SC1AC3 SLP148

CYGK;2017-12-26 01:00;CYGK 260100Z 26012G22KT 15SM DRSN FEW020 SCT080 BKN240 M06/M15 A2996 RMK SC1AC3CI2 SLP153

CYGK;2017-12-26 02:00;CYGK 260200Z 26012G22KT 15SM DRSN FEW080 SCT240 M07/M16 A2998 RMK AC2CI2 SLP160

CYGK;2017-12-26 03:00;CYGK 260300Z 27015G22KT 15SM DRSN FEW030 FEW080 FEW240 M08/M16 A3001 RMK SC1AC1CI1 SC TR SLP171

CYGK;2017-12-26 04:00;CYGK 260400Z 26017G26KT 15SM DRSN FEW030 FEW080 SCT250 M08/M17 A3003 RMK SC1AC1CI2 SC TR LAST STFD OBS / NEXT AT 261100 UTC SLP177

CYGK;2017-12-26 11:00;CYGK 261100Z 27011KT 15SM FEW100 M12/M18 A3019 RMK AC1 SLP232

CYGK;2017-12-26 12:00;CYGK 261200Z 27011KT 15SM FEW020 FEW050 FEW200 M12/M18 A3021 RMK CF1SC1CI1 CF TR CI TR SLP240

CYGK;2017-12-26 13:00;CYGK 261300Z 27009KT 15SM FEW020 FEW050 FEW140 M13/M18 A3023 RMK CF1SC1AS1 CF TR SLP246

CYGK;2017-12-26 14:00;CYGK 261400Z 27013KT 15SM FEW015 FEW050 FEW100 M12/M18 A3025 RMK CF1SC1AC1 CF TR SC TR AC TR SLP253

CYGK;2017-12-26 15:00;CYGK 261500Z 28010G16KT 15SM FEW020 FEW050 FEW100 M12/M18 A3027 RMK CF1SC1AC1 CF TR SC TR SLP260

CYGK;2017-12-26 16:00;CYGK 261600Z 27012G18KT 15SM FEW020 FEW050 FEW100 M11/M18 A3029 RMK CF1SC1AC1 CF TR SC TR SLP264

CYGK;2017-12-26 17:00;CYGK 261700Z 28014G22KT 15SM DRSN FEW025 FEW100 FEW200 M10/M17 A3028 RMK CU1AC1CI1 AC TR CI TR SLP261

CYGK;2017-12-26 18:00;CYGK 261800Z 28009G17KT 15SM FEW025 FEW100 FEW240 M10/M18 A3027 RMK CU1AC1CI1 AC TR CI TR SLP259

CYGK;2017-12-26 19:00;CYGK 261900Z 29011G18KT 15SM DRSN FEW030 FEW100 FEW240 M10/M19 A3028 RMK CU1AC1CI1 AC TR CI TR SLP262

CYGK;2017-12-26 20:00;CYGK 262000Z 28010G17KT 15SM FEW030 SCT050 M09/M18 A3030 RMK CU2SC1 SLP269

CYGK;2017-12-26 21:00;CYGK 262100Z 29009G15KT 15SM FEW030 FEW050 M10/M18 A3031 RMK CU1SC1 SLP274

CYGK;2017-12-26 22:00;CYGK 262200Z 29008KT 15SM FEW030 FEW050 FEW240 M11/M18 A3033 RMK CU1SC1CI1 CU TR CI TR SLP281

CYGK;2017-12-26 23:00;CYGK 262300Z 32005KT 15SM FEW050 M13/M19 A3035 RMK SC1 SC TR SLP287

CYGK;2017-12-27 00:00;CYGK 270000Z 32006KT 15SM SKC M16/M20 A3037 RMK SLP293

CYGK;2017-12-27 01:00;CYGK 270100Z 31002KT 15SM SKC M15/M18 A3039 RMK SLP299

CYGK;2017-12-27 02:00;CYGK 270200Z 31002KT 15SM SKC M16/M19 A3039 RMK SLP302

CYGK;2017-12-27 03:00;CYGK 270300Z 31004KT 15SM SKC M16/M19 A3040 RMK SLP305

CYGK;2017-12-27 04:00;CYGK 270400Z 29005KT 15SM SKC M17/M19 A3042 RMK LAST STFD OBS/NEXT 271100 UTC SLP310

CYGK;2017-12-27 11:00;CYGK 271100Z 03004KT 15SM FEW020 SCT120 M23/M26 A3045 RMK SC1AC3 SC TR SLP322

CYGK;2017-12-27 12:00;CYGK 271200Z 02006KT 15SM FEW010 FEW100 FEW240 M22/M26 A3046 RMK CF1AC1CI1 CF TR AC TR CI TR SLP325

CYGK;2017-12-27 13:00;CYGK 271300Z 36004KT 15SM FEW015 FEW100 M24/M27 A3047 RMK CU1AC1 CU TR AC TR SLP331

CYGK;2017-12-27 14:00;CYGK 271400Z 35006KT 15SM FEW015 FEW100 M24/M27 A3048 RMK CF1AC1 CF TR AC TR SLP334

CYGK;2017-12-27 15:00;CYGK 271500Z 02006KT 15SM FEW015 FEW100 M18/M24 A3050 RMK CF1AC1 AC TR SLP341

CYGK;2017-12-27 16:00;CYGK 271600Z 36005KT 15SM FEW015 FEW100 M17/M24 A3051 RMK CF1AC1 CF TR AC TR SLP343

CYGK;2017-12-27 17:00;CYGK 271700Z 36005KT 15SM FEW015 FEW100 M16/M25 A3050 RMK CU1AC1 CU TR AC TR SLP341

CYGK;2017-12-27 18:00;CYGK 271800Z 36003KT 15SM FEW015 FEW100 M15/M24 A3048 RMK CF1AC1 CF TR AC TR SLP333

CYGK;2017-12-27 19:00;CYGK 271900Z 31007KT 240V050 15SM FEW015 FEW090 M13/M24 A3048 RMK CF1AC1 CF TR AC TR SLP332

CYGK;2017-12-27 20:00;CYGK 272000Z 30006KT 15SM FEW090 M13/M24 A3048 RMK AC1 AC TR SLP333

CYGK;2017-12-27 21:00;CYGK 272100Z 26008KT 15SM FEW015 FEW100 M14/M23 A3049 RMK CF1AC1 CF TR AC TR SLP336

CYGK;2017-12-27 22:00;CYGK 272200Z 27008KT 15SM FEW020 FEW100 M15/M22 A3050 RMK SC1AC1 SC TR AC TR SLP339

CYGK;2017-12-27 23:00;CYGK 272300Z 27009KT 15SM SKC M15/M23 A3050 RMK SLP341

CYGK;2017-12-28 00:00;CYGK 280000Z 28011KT 15SM SKC M16/M24 A3052 RMK SLP346

CYGK;2017-12-28 01:00;CYGK 280100Z 31007KT 15SM SKC M18/M25 A3054 RMK SLP353

CYGK;2017-12-28 02:00;CYGK 280200Z 03003KT 15SM SKC M20/M26 A3056 RMK SLP360

CYGK;2017-12-28 03:00;CYGK 280300Z 00000KT 15SM SKC M22/M26 A3057 RMK SLP363

CYGK;2017-12-28 04:00;CYGK 280400Z 34004KT 15SM SKC M22/M26 A3058 RMK LAST STFD OBS/NEXT 281100 UTC SLP368

CYGK;2017-12-28 11:00;CYGK 281100Z 27009KT 15SM SKC M26/M30 A3062 RMK SLP380

CYGK;2017-12-28 12:00;CYGK 281200Z 27008KT 15SM VCFG FEW004 M26/M30 A3062 RMK SF1 FG BNK OVR LK S SLP382

CYGK;2017-12-28 13:00;CYGK 281300Z 27009KT 15SM VCFG SKC M26/M30 A3063 RMK FG BNK S OVR LK SLP386

CYGK;2017-12-28 14:00;CYGK 281400Z 29007KT 15SM VCFG FEW080 M25/M30 A3063 RMK AC1 AC TR FG BNK S OVR LK SLP385

CYGK;2017-12-28 15:00;CYGK 281500Z 30007KT 15SM VCFG SKC M23/M29 A3063 RMK FG BNK S OVR LK SLP385

CYGK;2017-12-28 16:00;CYGK 281600Z 28007KT 240V330 15SM VCFG FEW006 FEW080 M21/M28 A3062 RMK CF1AC1 CF TR AC TR FG BNK S OVR LK SLP382

CYGK;2017-12-28 17:00;CYGK 281700Z 31009KT 15SM FEW004 FEW250 M19/M27 A3059 RMK SF1CI1 SF TR CI TR SLP373

CYGK;2017-12-28 18:00;CYGK 281800Z 32007KT 15SM FEW004 FEW250 M18/M26 A3057 RMK SF1CI1 SF TR CI TR SLP364

CYGK;2017-12-28 19:00;CYGK 281900Z 25006KT 240V330 15SM FEW010 FEW250 M17/M26 A3056 RMK CF1CI1 CF TR CI TR SLP362

CYGK;2017-12-28 20:00;CYGK 282000Z 29004KT 260V330 15SM FEW010 FEW250 M17/M26 A3056 RMK CF1CI1 CF TR CI TR SLP360

CYGK;2017-12-28 21:00;CYGK 282100Z 27006KT 15SM FEW010 FEW250 M17/M25 A3056 RMK CU1CI1 CU TR CI TR SLP359

CYGK;2017-12-28 22:00;CYGK 282200Z 27008KT 15SM FEW015 FEW250 M18/M25 A3056 RMK CF1CI1 CF TR CI TR SLP362

CYGK;2017-12-28 23:00;CYGK 282300Z 27007KT 15SM FEW015 FEW240 M18/M25 A3056 RMK CF1CI1 CF TR SLP360

CYGK;2017-12-29 00:00;CYGK 290000Z 29005KT 15SM FEW230 M19/M26 A3054 RMK CI1 SLP356

CYGK;2017-12-29 01:00;CYGK 290100Z 30006KT 15SM FEW015 FEW220 M20/M26 A3053 RMK CF1CI1 CF TR SLP351

CYGK;2017-12-29 02:00;CYGK 290200Z 32007KT 15SM FEW015 FEW220 M21/M26 A3052 RMK SC1CI1 SC TR SLP348

CYGK;2017-12-29 03:00;CYGK 290300Z 34005KT 15SM SCT210 M22/M26 A3051 RMK CI3 SLP342

CYGK;2017-12-29 04:00;CYGK 290400Z 35006KT 15SM SCT130 BKN210 M22/M26 A3049 RMK AC3CI4 LAST STFD OBS/NEXT 291100 UTC SLP336

CYGK;2017-12-29 11:00;CYGK 291100Z 34005KT 15SM BKN120 BKN180 M24/M27 A3037 RMK AC5CI2 SLP295

CYGK;2017-12-29 12:00;CYGK 291200Z 34005KT 15SM SCT120 BKN190 M24/M27 A3036 RMK AC4CI1 SLP294

CYGK;2017-12-29 13:00;CYGK 291300Z 35005KT 15SM FEW010 SCT110 BKN180 M24/M27 A3035 RMK CU1AC4CI2 CU TR SLP290

CYGK;2017-12-29 14:00;CYGK 291400Z 33004KT 15SM FEW010 BKN062 BKN110 M23/M27 A3034 RMK CU1SC5AC1 SLP287

CYGK;2017-12-29 15:00;CYGK 291500Z 34005KT 15SM FEW010 BKN080 BKN180 M21/M26 A3034 RMK CU1AC5CI1 CU TR SLP287

CYGK;2017-12-29 16:00;CYGK 291600Z 34002KT 15SM FEW012 SCT070 BKN180 M20/M25 A3034 RMK CU1AC3CI2 SLP285

CYGK;2017-12-29 17:00;CYGK 291700Z 35003KT 15SM FEW015 FEW070 BKN180 M18/M25 A3031 RMK CU1AC2CI4 CU TR SLP274

CYGK;2017-12-29 18:00;CYGK 291800Z 36005KT 15SM FEW010 FEW160 BKN190 M17/M24 A3030 RMK CU1AC1CI4 SLP271

CYGK;2017-12-29 19:00;CYGK 291900Z 14003KT 060V140 15SM FEW010 FEW080 BKN180 M16/M23 A3028 RMK CU1AC1CI4 SLP265

CYGK;2017-12-29 20:00;CYGK 292000Z VRB02KT 15SM FEW010 FEW080 BKN250 M16/M22 A3027 RMK CU1AC2CI5 CU TR SLP262

CYGK;2017-12-29 21:00;CYGK 292100Z 00000KT 15SM FEW012 FEW080 FEW200 M15/M21 A3027 RMK CU1AC1CI1 AC TR SLP262

CYGK;2017-12-29 22:00;CYGK 292200Z 03002KT 15SM FEW012 FEW100 FEW250 M16/M22 A3027 RMK CF1AC1CI1 CF TR AC TR CI TR SLP260

CYGK;2017-12-29 23:00;CYGK 292300Z VRB02KT 15SM FEW100 FEW250 M18/M21 A3028 RMK AC1CI1 SLP264

CYGK;2017-12-30 00:00;CYGK 300000Z 34004KT 15SM FEW240 M18/M22 A3028 RMK CI2 SLP264

CYGK;2017-12-30 01:00;CYGK 300100Z 35002KT 15SM FEW250 M21/M23 A3026 RMK CI2 SLP258

CYGK;2017-12-30 02:00;CYGK 300200Z 03004KT 15SM FEW035 FEW075 SCT250 M22/M25 A3023 RMK CF1AC1CI3 CF TR AC TR SLP250

CYGK;2017-12-30 03:00;CYGK 300300Z 05003KT 15SM FEW070 SCT240 M22/M24 A3022 RMK AC2CI2 SLP246

CYGK;2017-12-30 04:00;CYGK 300400Z 04003KT 15SM BKN043 BKN070 M18/M21 A3020 RMK SC6AC1 LAST STFD OBS/NEXT 301100 UTC SLP237

CYGK;2017-12-30 11:00;CYGK 301100Z 04011KT 4SM -SN OVC022 M18/M21 A3000 RMK SC8 /S02/ SINCE 00Z SLP171

CYGK;2017-12-30 12:00;CYGK 301200Z 04010G16KT 4SM -SN OVC025 M18/M21 A3000 RMK SC8 SLP168

CYGK;2017-12-30 12:44;CYGK 301244Z 04010KT 2 1/2SM -SN OVC025 M18/M21 A2998 RMK SC8 SLP163

CYGK;2017-12-30 13:00;CYGK 301300Z 05009KT 2SM -SN OVC025 M17/M20 A2998 RMK SN6SC2 SLP162

CYGK;2017-12-30 14:00;CYGK 301400Z 04009KT 4SM -SN OVC030 M17/M20 A2996 RMK SC8 VIS S 1/2 SLP157

CYGK;2017-12-30 14:38;CYGK 301438Z 03010KT 2SM -SN OVC020 M16/M19 A2996 RMK SN4SC4 SLP156

CYGK;2017-12-30 15:00;CYGK 301500Z 02009KT 1 3/4SM -SN VV013 M16/M19 A2996 RMK SN8 SLP157

CYGK;2017-12-30 16:00;CYGK 301600Z 02013KT 2SM -SN DRSN VV012 M16/M19 A2994 RMK SN8 SLP150

CYGK;2017-12-30 17:00;CYGK 301700Z 02012KT 3SM -SN OVC030 M16/M20 A2992 RMK SN3SC5 /S01/ SLP141

CYGK;2017-12-30 18:00;CYGK 301800Z 36013KT 10SM FEW020 SCT040 SCT110 BKN200 M16/M20 A2990 RMK CF1SC2AC1CI2 SH N AND S SLP135

CYGK;2017-12-30 18:36;CYGK 301836Z 01011KT 8SM -SHSN BKN027 BKN200 M15/M20 A2990 RMK CU5CI2 SLP136

CYGK;2017-12-30 18:52;CYGK 301852Z 36011KT 2 1/2SM -SHSN BKN020 M16/M20 A2990 RMK CU7 SLP134

CYGK;2017-12-30 19:00;CYGK 301900Z 01011KT 3SM -SHSN DRSN BKN021 BKN039 M16/M20 A2990 RMK CU6SC1 VIS LWR N SLP134

CYGK;2017-12-30 20:00;CYGK 302000Z 02007KT 4SM -SHSN DRSN BKN025 BKN042 M15/M20 A2991 RMK CU6SC1 SLP140

CYGK;2017-12-30 21:00;CYGK 302100Z 02012G21KT 15SM FEW020 BKN070 M16/M21 A2993 RMK CU2AC4 SLP145

CYGK;2017-12-30 22:00;CYGK 302200Z 03008KT 15SM FEW020 BKN070 BKN100 M16/M21 A2996 RMK CU1AC4AC2 SLP154

CYGK;2017-12-30 23:00;CYGK 302300Z 02010KT 15SM FEW040 BKN070 M17/M21 A2998 RMK SC2AC3 SLP163

CYGK;2017-12-31 00:00;CYGK 310000Z 01011KT 15SM BKN070 M17/M22 A3002 RMK AC6 SLP175

CYGK;2017-12-31 01:00;CYGK 310100Z 35008KT 15SM BKN027 BKN040 OVC070 M18/M22 A3005 RMK SC5SC2AC1 SLP187

CYGK;2017-12-31 01:54;CYGK 310154Z 35008KT 15SM -SN SCT027 OVC086 M19/M22 A3008 RMK SC4AC4 SLP196

CYGK;2017-12-31 02:00;CYGK 310200Z 36008KT 12SM -SN BKN030 OVC060 M19/M22 A3008 RMK SC5SC3 SLP197

CYGK;2017-12-31 03:00;CYGK 310300Z 35009KT 6SM -SN DRSN SCT018 OVC058 M18/M21 A3011 RMK SC4SC4 SLP206

CYGK;2017-12-31 03:38;CYGK 310338Z 32006KT 3SM -SN DRSN BKN010 OVC020 M18/M21 A3014 RMK SC6SC2 SLP216

CYGK;2017-12-31 04:00;CYGK 310400Z 31005KT 8SM -SN DRSN SCT020 OVC070 M18/M22 A3015 RMK SC4AC4 LAST STFD OBS/NEXT 311100 UTC SLP221

CYGK;2017-12-31 11:00;CYGK 311100Z 31007KT 15SM SKC M23/M27 A3031 RMK SLP276

CYGK;2017-12-31 12:00;CYGK 311200Z 29005KT 15SM FEW015 M24/M28 A3033 RMK CU1 CU TR SLP282

CYGK;2017-12-31 13:00;CYGK 311300Z 33008KT 15SM FEW015 M24/M28 A3033 RMK CU1 CU TR SLP283

CYGK;2017-12-31 14:00;CYGK 311400Z 32008KT 15SM FEW015 FEW080 M23/M28 A3036 RMK CU1AC1 AC TR SLP292

CYGK;2017-12-31 15:00;CYGK 311500Z 32012KT 15SM FEW015 M22/M27 A3037 RMK CU1 CU TR SLP297

CYGK;2017-12-31 16:00;CYGK 311600Z 31009KT 15SM FEW012 FEW240 M20/M27 A3038 RMK CU1CI1 CI TR SLP300

CYGK;2017-12-31 17:00;CYGK 311700Z 34009KT 290V360 15SM FEW015 FEW250 M20/M27 A3036 RMK CU1CI1 CU TR SLP293

CYGK;2017-12-31 18:00;CYGK 311800Z 31006KT 290V350 15SM FEW015 FEW240 M18/M26 A3035 RMK CU1CI1 SLP289

CYGK;2017-12-31 19:00;CYGK 311900Z 33006KT 15SM FEW015 FEW250 M18/M26 A3033 RMK CU1CI1 SLP282

CYGK;2017-12-31 20:00;CYGK 312000Z 33003KT 15SM FEW015 SCT250 M17/M26 A3035 RMK CU1CI3 CU TR SLP288

CYGK;2017-12-31 21:00;CYGK 312100Z 28004KT 270V330 15SM FEW015 FEW250 M17/M26 A3036 RMK CU1CI1 SLP292

CYGK;2017-12-31 22:00;CYGK 312200Z 27007KT 15SM FEW015 M18/M25 A3037 RMK CU1 CU TR SLP296

CYGK;2017-12-31 23:00;CYGK 312300Z 27007KT 15SM SKC M19/M25 A3038 RMK SLP300

