CYGK;2013-01-01 00:00;CYGK 010000Z 26014G24KT 15SM -SN OVC035 02/M03 A2978 RMK SC8 SLP087

CYGK;2013-01-01 00:19;CYGK 010019Z 25015G21KT 15SM OVC036 02/M03 A2977 RMK SC8 SLP086

CYGK;2013-01-01 01:00;CYGK 010100Z 25017G25KT 15SM OVC032 02/M03 A2977 RMK SC8 SLP086

CYGK;2013-01-01 01:05;CYGK 010105Z 25017G24KT 12SM -SN DRSN OVC028 02/M03 A2977 RMK SC8 SLP085

CYGK;2013-01-01 02:00;CYGK 010200Z 25016G23KT 10SM -SN DRSN OVC021 01/M02 A2976 RMK SC8 SLP083

CYGK;2013-01-01 03:00;CYGK 010300Z 25013G23KT 12SM -SN DRSN SCT020 OVC048 01/M02 A2976 RMK SC3SC5 SLP081

CYGK;2013-01-01 04:00;CYGK 010400Z 26014G20KT 10SM -SN DRSN FEW020 OVC048 01/M03 A2977 RMK SC2SC6 LAST OBS/NEXT 011100 UTC SLP085

CYGK;2013-01-01 11:00;CYGK 011100Z 28006KT 15SM BKN047 M07/M13 A2992 RMK SC7 SF TR SLP137

CYGK;2013-01-01 12:00;CYGK 011200Z 27008KT 15SM FEW030 SCT045 M08/M13 A2994 RMK SC1SC2 SLP143

CYGK;2013-01-01 13:00;CYGK 011300Z 34005KT 15SM FEW022 BKN031 M10/M14 A2995 RMK SC2SC5 SLP148

CYGK;2013-01-01 13:15;CYGK 011315Z 01004KT 15SM -SHSN FEW020 BKN030 M10/M14 A2996 RMK SC1SC5 CU ASOCTD SLP151

CYGK;2013-01-01 14:00;CYGK 011400Z 31006KT 15SM -SHSN FEW018 BKN031 M09/M13 A2998 RMK SC2SC5 PRESRR SLP158

CYGK;2013-01-01 14:17;CYGK 011417Z 32006KT 5SM -SHSN BKN019 OVC030 M09/M12 A2998 RMK SC7SC1 VIS N-SE 3 S-W 15 SLP158

CYGK;2013-01-01 14:41;CYGK 011441Z 31004KT 2SM -SHSN SCT013 OVC030 M09/M12 A2999 RMK SC4SC4 SLP163

CYGK;2013-01-01 15:00;CYGK 011500Z 05004KT 2SM -SN BKN012 OVC030 M09/M12 A3000 RMK SC5SC3 VIS N 1 SLP165

CYGK;2013-01-01 15:17;CYGK 011517Z 02005KT 2SM -SN SCT012 BKN034 M09/M12 A3000 RMK SC3SC4 VIS S 4  N 1 SLP165

CYGK;2013-01-01 15:31;CYGK 011531Z 02005KT 3SM -SN FEW012 BKN032 M09/M12 A3000 RMK SC2SC4 VIS LWR N SLP164

CYGK;2013-01-01 16:00;CYGK 011600Z 35005KT 15SM -SN SCT031 M09/M13 A3001 RMK SC3 TR CF SLP169

CYGK;2013-01-01 16:17;CYGK 011617Z 35006KT 15SM VCSH BKN019 M09/M12 A3000 RMK CU5 PRESFR SLP164

CYGK;2013-01-01 17:00;CYGK 011700Z 31009KT 15SM SCT022 M08/M14 A2998 RMK CU4 SLP159

CYGK;2013-01-01 18:00;CYGK 011800Z 28008KT 15SM FEW030 M08/M15 A2997 RMK CU1 SLP156

CYGK;2013-01-01 19:00;CYGK 011900Z 35006KT 15SM FEW029 M08/M16 A2996 RMK CU1 SLP152

CYGK;2013-01-01 20:00;CYGK 012000Z 29005KT 15SM FEW025 M07/M16 A2995 RMK CU1 TR CI SLP148

CYGK;2013-01-01 21:00;CYGK 012100Z 27008KT 15SM SKC M08/M16 A2996 RMK TR CF  CI SLP152

CYGK;2013-01-01 22:00;CYGK 012200Z 27010KT 15SM SKC M09/M16 A2998 RMK CF CI TR SLP158

CYGK;2013-01-01 23:00;CYGK 012300Z 26011KT 15SM SKC M09/M16 A3000 RMK SLP165

CYGK;2013-01-02 00:00;CYGK 020000Z 27010KT 15SM SKC M10/M17 A3002 RMK SLP172

CYGK;2013-01-02 01:00;CYGK 020100Z 27010KT 15SM SKC M11/M18 A3002 RMK SLP173

CYGK;2013-01-02 02:00;CYGK 020200Z 27007KT 15SM SKC M12/M18 A3001 RMK SLP171

CYGK;2013-01-02 03:00;CYGK 020300Z 26008KT 15SM BKN120 M11/M17 A3001 RMK AC5 SLP168

CYGK;2013-01-02 04:00;CYGK 020400Z 26012KT 15SM BKN120 M09/M13 A2999 RMK AC7 LAST OBS/NEXT 021100 UTC SLP164

CYGK;2013-01-02 11:00;CYGK 021100Z 29011KT 15SM FEW045 OVC060 M05/M10 A2992 RMK SC1SC7 SLP137

CYGK;2013-01-02 12:00;CYGK 021200Z 28010G16KT 15SM OVC060 M06/M10 A2994 RMK SC8 SLP146

CYGK;2013-01-02 13:00;CYGK 021300Z 29009KT 15SM FEW020 OVC060 M06/M09 A2997 RMK CU1SC7 SLP157

CYGK;2013-01-02 13:49;CYGK 021349Z 31007KT 15SM -SN FEW020 OVC055 M06/M09 A3000 RMK CU1SC7 SLP167

CYGK;2013-01-02 14:00;CYGK 021400Z 32009KT 15SM -SN FEW020 OVC055 M06/M09 A3001 RMK CU1SC7 SLP170

CYGK;2013-01-02 14:07;CYGK 021407Z 33010KT 3SM -SN VV012 M06/M09 A3002 RMK SN8 SLP172

CYGK;2013-01-02 14:13;CYGK 021413Z 35012KT 1 1/2SM -SN VV012 M06/M09 A3003 RMK SN8 PRESRR SLP174

CYGK;2013-01-02 15:00;CYGK 021500Z 36012G18KT 15SM FEW015 OVC060 M09/M14 A3006 RMK CU2SC6 SLP188

CYGK;2013-01-02 16:00;CYGK 021600Z 01015KT 15SM SCT065 M10/M16 A3008 RMK SC4 SLP193

CYGK;2013-01-02 17:00;CYGK 021700Z 02012KT 15SM BKN059 M09/M16 A3009 RMK SC5 TR SC 015 SLP197

CYGK;2013-01-02 18:00;CYGK 021800Z 01013KT 15SM SCT060 M11/M18 A3011 RMK SC4 SLP202

CYGK;2013-01-02 19:00;CYGK 021900Z 36010KT 15SM FEW060 M11/M19 A3014 RMK SC2 SLP213

CYGK;2013-01-02 20:00;CYGK 022000Z 01011G19KT 15SM FEW060 M12/M22 A3017 RMK SC2 SLP224

CYGK;2013-01-02 21:00;CYGK 022100Z 35011KT 15SM FEW055 M14/M22 A3021 RMK SC2 SLP238

CYGK;2013-01-02 22:00;CYGK 022200Z 02006KT 15SM FEW053 M14/M22 A3022 RMK SC2 SLP242

CYGK;2013-01-02 23:00;CYGK 022300Z 03007KT 15SM SCT051 M16/M23 A3024 RMK SC4 SLP249

CYGK;2013-01-03 00:00;CYGK 030000Z 04008KT 15SM FEW050 M17/M23 A3025 RMK SC2 SLP252

CYGK;2013-01-03 01:00;CYGK 030100Z 04007KT 15SM FEW050 M17/M23 A3026 RMK SC2 SLP255

CYGK;2013-01-03 02:00;CYGK 030200Z 04004KT 15SM FEW052 M18/M23 A3028 RMK SC2 SLP261

CYGK;2013-01-03 03:00;CYGK 030300Z 04007KT 15SM BKN051 M18/M23 A3027 RMK SC7 SLP260

CYGK;2013-01-03 04:00;CYGK 030400Z 02004KT 15SM BKN048 M18/M23 A3029 RMK SC7 LAST OBS/NEXT 031100 UTC SLP266

CYGK;2013-01-03 11:00;CYGK 031100Z 05007KT 15SM SCT055 M19/M23 A3020 RMK SC4 SLP237

CYGK;2013-01-03 12:00;CYGK 031200Z 05007KT 15SM FEW015 BKN048 M18/M21 A3019 RMK CU1SC6 SLP231

CYGK;2013-01-03 13:00;CYGK 031300Z 05006KT 15SM FEW005 OVC048 M17/M21 A3018 RMK SF2SC6 SLP228

CYGK;2013-01-03 13:33;CYGK 031333Z 04006KT 15SM SCT012 OVC048 M17/M21 A3016 RMK FU1SC3SC4 SLP224

CYGK;2013-01-03 13:33;CYGK 031333Z 04006KT 15SM SCT012 OVC048 M17/M21 A3016 RMK FU1SC3SC4 SLP224

CYGK;2013-01-03 14:00;CYGK 031400Z 04007KT 15SM BKN010 OVC048 M16/M20 A3015 RMK SC6SC2 SLP220

CYGK;2013-01-03 14:24;CYGK 031424Z 05006KT 10SM -SN FEW003 OVC010 M16/M20 A3014 RMK SF2SC6 VIS S OVR WATER 1 BR SLP217

CYGK;2013-01-03 15:00;CYGK 031500Z 04005KT 10SM -SN SCT002 OVC009 M16/M19 A3014 RMK SF3SC5 VIS S OVR WATER 1 BR SLP214

CYGK;2013-01-03 16:00;CYGK 031600Z 02007KT 15SM -SN FEW003 OVC009 M15/M19 A3012 RMK SF2SC6 SLP209

CYGK;2013-01-03 17:00;CYGK 031700Z 05006KT 10SM -SN FEW003 OVC010 M14/M18 A3007 RMK SF2SC6 VIS LWR SOUTH SLP192

CYGK;2013-01-03 17:50;CYGK 031750Z 04006KT 2 1/2SM -SN SCT003 OVC018 M13/M16 A3003 RMK SF3SC5 SLP177

CYGK;2013-01-03 18:00;CYGK 031800Z 04007KT 2 1/2SM -SN SCT003 OVC016 M12/M15 A3002 RMK SF3SC5 SLP175

CYGK;2013-01-03 18:20;CYGK 031820Z 05006KT 1 1/4SM -SN VV008 M12/M15 A3001 RMK SN8 SLP169

CYGK;2013-01-03 19:00;CYGK 031900Z 04006KT 1 1/2SM -SN OVC014 M11/M14 A2998 RMK SN3NS5 SLP161

CYGK;2013-01-03 20:00;CYGK 032000Z 02005KT 2SM -SN BKN016 OVC023 M10/M12 A2996 RMK SC6SC2 SLP155

CYGK;2013-01-03 20:11;CYGK 032011Z 01004KT 1 1/4SM -SN OVC015 M10/M12 A2996 RMK SN2SC6 SLP153

CYGK;2013-01-03 20:21;CYGK 032021Z 02004KT 2 1/2SM -SN OVC015 M10/M12 A2996 RMK SC8 SLP152

CYGK;2013-01-03 21:00;CYGK 032100Z 02004KT 1 1/4SM -SN OVC021 M09/M11 A2995 RMK SN4SC4 /S02/ SLP150

CYGK;2013-01-03 22:00;CYGK 032200Z 01005KT 1 1/4SM -SN OVC019 M09/M11 A2994 RMK SN4SC4 /S03/ SLP147

CYGK;2013-01-03 22:36;CYGK 032236Z 02002KT 1 1/4SM -SN VV012 M09/M11 A2994 RMK SN8 SLP146

CYGK;2013-01-03 22:53;CYGK 032253Z 01003KT 2 1/2SM -SN OVC025 M09/M11 A2994 RMK SN3SC5 SLP146

CYGK;2013-01-03 23:00;CYGK 032300Z 34004KT 2 1/2SM -SN OVC025 M09/M11 A2993 RMK SN3SC5 /S04/ SLP145

CYGK;2013-01-03 23:23;CYGK 032323Z 34004KT 5SM -SN BKN027 OVC090 M09/M11 A2993 RMK SC5AC3 SLP145

CYGK;2013-01-04 00:00;CYGK 040000Z 35005KT 5SM -SN FEW025 OVC085 M10/M11 A2993 RMK SC2AC6 SLP144

CYGK;2013-01-04 01:00;CYGK 040100Z 29003KT 10SM -SN BKN070 OVC110 M08/M09 A2993 RMK AC5AC3 SLP142

CYGK;2013-01-04 02:00;CYGK 040200Z 25009KT 12SM -SN FEW045 BKN080 OVC095 M05/M07 A2992 RMK SC2AC3AC3 SLP138

CYGK;2013-01-04 03:00;CYGK 040300Z 26012G19KT 12SM -SN FEW050 BKN075 OVC085 M02/M05 A2991 RMK SC2AC4AC2 SLP137

CYGK;2013-01-04 04:00;CYGK 040400Z 26010G17KT 15SM -SN SCT050 BKN080 M03/M06 A2991 RMK SC4AC3 LAST OBS/NEXT 041100 UTC SLP137

CYGK;2013-01-04 11:00;CYGK 041100Z 25022G31KT 15SM DRSN OVC027 M00/M05 A2986 RMK SC8 SLP117

CYGK;2013-01-04 12:00;CYGK 041200Z 24023G30KT 15SM DRSN OVC025 M00/M04 A2984 RMK SC8 OCNL BLSN SLP111

CYGK;2013-01-04 13:00;CYGK 041300Z 23026G34KT 15SM BLSN OVC023 M00/M04 A2982 RMK SC8 PRESFR SLP102

CYGK;2013-01-04 14:00;CYGK 041400Z 24026G37KT 12SM BLSN OVC022 00/M03 A2982 RMK SC8 SLP102

CYGK;2013-01-04 15:00;CYGK 041500Z 25021G32KT 15SM OVC023 01/M03 A2984 RMK SC8 SLP108

CYGK;2013-01-04 16:00;CYGK 041600Z 24018G27KT 15SM DRSN OVC024 01/M03 A2983 RMK SC8 OCNL BLSN SLP106

CYGK;2013-01-04 17:00;CYGK 041700Z 24023G33KT 15SM DRSN FEW020 OVC030 01/M04 A2981 RMK CU2SC6 OCNL BLSN SLP098

CYGK;2013-01-04 18:00;CYGK 041800Z 24024G31KT 15SM DRSN OVC032 00/M05 A2980 RMK SC8 OCNL BLSN SLP094

CYGK;2013-01-04 19:00;CYGK 041900Z 25017G29KT 15SM DRSN VCSH FEW025 OVC032 00/M05 A2980 RMK CF1SC7 SLP094

CYGK;2013-01-04 20:00;CYGK 042000Z 25022G30KT 15SM DRSN OVC031 00/M05 A2980 RMK SC8 SLP097

CYGK;2013-01-04 21:00;CYGK 042100Z 25019G30KT 15SM DRSN OVC031 00/M05 A2982 RMK SC8 SLP101

CYGK;2013-01-04 22:00;CYGK 042200Z 24014G24KT 15SM DRSN OVC030 00/M05 A2983 RMK SC8 SLP105

CYGK;2013-01-04 23:00;CYGK 042300Z 25020G27KT 15SM DRSN OVC030 00/M05 A2983 RMK SC8 SLP106

CYGK;2013-01-05 00:00;CYGK 050000Z 25014G24KT 15SM DRSN OVC028 00/M05 A2985 RMK SC8 SLP112

CYGK;2013-01-05 01:00;CYGK 050100Z 25016G25KT 15SM DRSN OVC030 M00/M04 A2986 RMK SC8 SLP115

CYGK;2013-01-05 02:00;CYGK 050200Z 26016G26KT 15SM DRSN OVC023 00/M04 A2986 RMK SC8 SLP117

CYGK;2013-01-05 03:00;CYGK 050300Z 26015G23KT 15SM DRSN OVC022 00/M04 A2987 RMK SC8 CIG RAG SLP120

CYGK;2013-01-05 03:29;CYGK 050329Z 25017G23KT 15SM -SHSN DRSN OVC025 00/M04 A2988 RMK SC8 CIG RAG SLP123

CYGK;2013-01-05 04:00;CYGK 050400Z 24019KT 15SM -SHSN DRSN OVC022 00/M04 A2988 RMK SC8 CIG RAG LAST OBS/NEXT 051100 UTC SLP124

CYGK;2013-01-05 11:00;CYGK 051100Z 31006KT 15SM FEW020 FEW050 M03/M09 A3013 RMK SC1SC1 PRESRR SLP208

CYGK;2013-01-05 12:00;CYGK 051200Z 30005KT 15SM FEW050 M04/M09 A3017 RMK SC1 SLP223

CYGK;2013-01-05 13:00;CYGK 051300Z 33006KT 15SM FEW050 SCT270 M04/M10 A3020 RMK SC1CI2 SLP233

CYGK;2013-01-05 14:00;CYGK 051400Z 28005KT 15SM FEW050 FEW270 M03/M10 A3024 RMK SC1CI1 SLP244

CYGK;2013-01-05 15:00;CYGK 051500Z 29008KT 15SM FEW050 FEW100 M02/M09 A3027 RMK SC1AC1 SLP257

CYGK;2013-01-05 16:00;CYGK 051600Z 31006KT 15SM FEW050 M01/M09 A3027 RMK SC1 AC TR SLP255

CYGK;2013-01-05 17:00;CYGK 051700Z 01004KT 15SM FEW040 M01/M09 A3025 RMK SC1 CI TR SLP250

CYGK;2013-01-05 18:00;CYGK 051800Z 23006KT 15SM FEW020 SCT040 BKN270 M01/M08 A3024 RMK CF1SC3CI1 SLP247

CYGK;2013-01-05 19:00;CYGK 051900Z 22006KT 15SM BKN042 M01/M08 A3022 RMK SC6 SLP240

CYGK;2013-01-05 20:00;CYGK 052000Z 23003KT 15SM BKN042 M01/M08 A3023 RMK SC7 CI TR SLP242

CYGK;2013-01-05 21:00;CYGK 052100Z 00000KT 15SM BKN044 M01/M08 A3022 RMK SC7 SLP239

CYGK;2013-01-05 22:00;CYGK 052200Z 17005KT 15SM OVC042 M01/M07 A3020 RMK SC8 SLP233

CYGK;2013-01-05 23:00;CYGK 052300Z 16008KT 15SM OVC038 M01/M07 A3019 RMK SC8 SLP229

CYGK;2013-01-06 00:00;CYGK 060000Z 17009KT 15SM OVC037 M00/M05 A3018 RMK SC8 SLP226

CYGK;2013-01-06 01:00;CYGK 060100Z 17010KT 15SM OVC038 00/M04 A3015 RMK SC8 SLP214

CYGK;2013-01-06 02:00;CYGK 060200Z 17011G16KT 15SM OVC033 01/M03 A3012 RMK SC8 SLP204

CYGK;2013-01-06 03:00;CYGK 060300Z 21009KT 15SM OVC033 02/M02 A3011 RMK SC8 SLP199

CYGK;2013-01-06 04:00;CYGK 060400Z 21008KT 15SM OVC033 01/M03 A3009 RMK SC8 LAST OBS/NEXT 061100 UTC SLP193

CYGK;2013-01-06 11:00;CYGK 061100Z 21013KT 6SM -SN FEW008 OVC014 01/M01 A2993 RMK SF2SC6 /S06 AFT 00Z/ SLP138

CYGK;2013-01-06 11:18;CYGK 061118Z 21014G22KT 6SM -SN FEW008 SCT014 OVC022 01/M01 A2992 RMK SF1SC3SC4 SLP136

CYGK;2013-01-06 12:00;CYGK 061200Z 21012G18KT 12SM BKN013 OVC025 01/M00 A2992 RMK SC5SC3 SLP135

CYGK;2013-01-06 13:00;CYGK 061300Z 22013G21KT 10SM VCSH FEW007 BKN010 OVC020 02/00 A2991 RMK SF1SC5SC2 SLP133

CYGK;2013-01-06 13:10;CYGK 061310Z 21014G19KT 6SM -RASN BKN008 OVC015 01/00 A2991 RMK SF5SC3 SLP132

CYGK;2013-01-06 14:00;CYGK 061400Z 23011KT 6SM -SN BR BKN008 OVC020 02/00 A2991 RMK SF7SC1 -SN VRY LGT SLP132

CYGK;2013-01-06 14:16;CYGK 061416Z 23011KT 6SM -RASN BKN008 OVC020 02/01 A2991 RMK SF6SC2 SLP133

CYGK;2013-01-06 15:00;CYGK 061500Z 24007KT 6SM -RASN BKN007 OVC012 02/01 A2991 RMK SF7SC1 SLP132

CYGK;2013-01-06 15:10;CYGK 061510Z 28004KT 6SM -RASN BR BKN005 OVC012 02/01 A2991 RMK SF7SC1 SLP131

CYGK;2013-01-06 16:00;CYGK 061600Z 25004KT 6SM -RA BR OVC007 02/01 A2990 RMK SF8 SLP128

CYGK;2013-01-06 17:00;CYGK 061700Z 24008KT 4SM -RA BR OVC007 02/01 A2987 RMK SF8 SLP118

CYGK;2013-01-06 18:00;CYGK 061800Z 23006KT 3SM -RA BR FEW003 OVC006 01/01 A2985 RMK SF2SF6 VIS S 5 N 2 SLP112

CYGK;2013-01-06 18:19;CYGK 061819Z 23013KT 4SM -RASN BR FEW003 OVC006 01/00 A2985 RMK SF1SF7 VIS N 2 SLP112

CYGK;2013-01-06 19:00;CYGK 061900Z 24010KT 2 1/2SM -RASN BR SCT004 OVC007 01/00 A2985 RMK SF3SC5 SLP112

CYGK;2013-01-06 19:08;CYGK 061908Z 25009G16KT 3SM -SN OVC004 01/00 A2985 RMK SF8 SLP112

CYGK;2013-01-06 19:21;CYGK 061921Z 24009KT 4SM -RA BR SCT004 OVC008 01/00 A2985 RMK SF4SC4 SLP113

CYGK;2013-01-06 19:33;CYGK 061933Z 24009KT 6SM -RASN BR OVC005 01/01 A2985 RMK SF8 SLP113

CYGK;2013-01-06 20:00;CYGK 062000Z 24009KT 6SM -RASN BR OVC005 02/00 A2985 RMK SF8 SLP113

CYGK;2013-01-06 21:00;CYGK 062100Z 25008KT 6SM -RA BR OVC007 02/01 A2987 RMK SF8 SLP118

CYGK;2013-01-06 22:00;CYGK 062200Z 25009KT 6SM -RA BR SCT007 BKN035 OVC050 02/00 A2988 RMK SF4SC2SC2 SLP123

CYGK;2013-01-06 23:00;CYGK 062300Z 25008KT 10SM -DZ FEW007 OVC035 02/00 A2990 RMK SF2SC6 SLP130

CYGK;2013-01-07 00:00;CYGK 070000Z 25010KT 10SM -RA FEW012 OVC035 02/00 A2992 RMK SC2SC6 SLP136

CYGK;2013-01-07 01:00;CYGK 070100Z 27008KT 8SM SCT010 OVC020 02/01 A2993 RMK SC4SC4 WND ESTD SLP141

CYGK;2013-01-07 02:00;CYGK 070200Z 34018KT 280V340 10SM -RA OVC015 00/M02 A2996 RMK SC8 SLP149

CYGK;2013-01-07 02:02;CYGK 070202Z 36021KT 280V360 10SM -SN OVC010 M00/M02 A2996 RMK SC8 SLP150

CYGK;2013-01-07 03:00;CYGK 070300Z 36014G19KT 15SM SCT012 OVC032 M02/M05 A3001 RMK SC3SC5 SLP166

CYGK;2013-01-07 04:00;CYGK 070400Z 35014KT 15SM SCT015 OVC033 M04/M07 A3005 RMK SC3SC5 LAST OBS/NEXT 071100 UTC SLP180

CYGK;2013-01-07 11:00;CYGK 071100Z 35005KT 15SM FEW015 M12/M14 A3031 RMK SC1 SLP271

CYGK;2013-01-07 12:00;CYGK 071200Z 35008KT 15SM FEW012 M13/M15 A3036 RMK SC1 SLP285

CYGK;2013-01-07 13:00;CYGK 071300Z 02004KT 15SM FEW007 FEW012 M14/M16 A3037 RMK SF1SC1 SLP292

CYGK;2013-01-07 14:00;CYGK 071400Z 36004KT 15SM FEW010 SCT018 SCT100 M13/M16 A3041 RMK CF1SC2AC1 SLP303

CYGK;2013-01-07 15:00;CYGK 071500Z 35004KT 15SM BKN016 M12/M15 A3042 RMK SC7 TR SF SLP309

CYGK;2013-01-07 15:31;CYGK 071531Z 00000KT 15SM BKN014 M11/M15 A3042 RMK SC7 SLP308

CYGK;2013-01-07 16:00;CYGK 071600Z 00000KT 15SM BKN011 M11/M15 A3042 RMK SC7 SLP308

CYGK;2013-01-07 16:16;CYGK 071616Z 00000KT 15SM BKN009 M10/M15 A3041 RMK SC6 SLP304

CYGK;2013-01-07 16:35;CYGK 071635Z 16003KT 15SM BKN010 M10/M13 A3040 RMK SC7 SLP302

CYGK;2013-01-07 17:00;CYGK 071700Z 20004KT 15SM BKN011 M10/M12 A3040 RMK SC7 SLP301

CYGK;2013-01-07 17:13;CYGK 071713Z 22004KT 12SM -SN BKN011 M09/M12 A3040 RMK SC7 SLP302

CYGK;2013-01-07 18:00;CYGK 071800Z 18004KT 15SM -SN BKN010 M09/M11 A3038 RMK SC7 SLP294

CYGK;2013-01-07 18:20;CYGK 071820Z 17005KT 15SM BKN010 M08/M10 A3037 RMK SC7 SLP291

CYGK;2013-01-07 19:00;CYGK 071900Z 19004KT 15SM FEW008 BKN012 M07/M09 A3037 RMK SF2SC5 SLP290

CYGK;2013-01-07 19:42;CYGK 071942Z 19005KT 15SM -SN OVC008 M06/M08 A3036 RMK SC8 SLP286

CYGK;2013-01-07 20:00;CYGK 072000Z 16006KT 15SM -SN BKN008 OVC020 M06/M07 A3034 RMK SC6SC2 PRESFR SLP281

CYGK;2013-01-07 20:48;CYGK 072048Z 17010KT 15SM -SN SCT008 OVC024 M04/M06 A3033 RMK SC4SC4 SLP277

CYGK;2013-01-07 21:00;CYGK 072100Z 18011KT 15SM -SN SCT008 OVC020 M04/M05 A3032 RMK SC3SC5 SLP276

CYGK;2013-01-07 22:00;CYGK 072200Z 19008KT 15SM -SN FEW008 OVC025 M03/M05 A3029 RMK SF1SC7 SLP265

CYGK;2013-01-07 22:29;CYGK 072229Z 20011KT 15SM OVC030 M02/M05 A3027 RMK SC8 SLP258

CYGK;2013-01-07 23:00;CYGK 072300Z 21018KT 15SM OVC027 M00/M05 A3026 RMK SC8 SLP253

CYGK;2013-01-08 00:00;CYGK 080000Z 21019G24KT 15SM OVC030 00/M05 A3024 RMK SC8 SLP248

CYGK;2013-01-08 01:00;CYGK 080100Z 20020KT 15SM OVC027 01/M04 A3022 RMK SC8 SLP240

CYGK;2013-01-08 02:00;CYGK 080200Z 20021G27KT 15SM OVC030 01/M04 A3020 RMK SC8 SLP233

CYGK;2013-01-08 03:00;CYGK 080300Z 20017G26KT 15SM OVC028 01/M03 A3018 RMK SC8 SLP226

CYGK;2013-01-08 04:00;CYGK 080400Z 20019G26KT 15SM OVC028 01/M03 A3016 RMK SC8 LAST OBS/NEXT 081100 UTC SLP219

CYGK;2013-01-08 11:00;CYGK 081100Z 21011KT 15SM BKN023 01/M02 A3016 RMK SC7 SLP217

CYGK;2013-01-08 12:00;CYGK 081200Z 21012KT 15SM BKN023 01/M02 A3019 RMK NS7 SLP226

CYGK;2013-01-08 13:00;CYGK 081300Z 22011KT 15SM BKN023 OVC240 01/M02 A3021 RMK SC7CI1 SLP233

CYGK;2013-01-08 14:00;CYGK 081400Z 22011G16KT 12SM BKN020 OVC030 02/M01 A3022 RMK SC5SC3 SLP238

CYGK;2013-01-08 15:00;CYGK 081500Z 22012KT 12SM OVC021 02/M01 A3024 RMK SC8 SLP243

CYGK;2013-01-08 16:00;CYGK 081600Z 22012G18KT 12SM OVC018 02/M01 A3024 RMK SC8 SLP244

CYGK;2013-01-08 17:00;CYGK 081700Z 23015KT 12SM OVC020 02/M01 A3024 RMK SC8 SLP245

CYGK;2013-01-08 18:00;CYGK 081800Z 22010KT 12SM OVC017 02/M01 A3024 RMK SC8 SLP246

CYGK;2013-01-08 19:00;CYGK 081900Z 25006KT 9SM OVC018 02/M00 A3027 RMK SC8 SLP253

CYGK;2013-01-08 20:00;CYGK 082000Z 26009KT 8SM OVC020 02/M01 A3028 RMK SC8 SLP258

CYGK;2013-01-08 21:00;CYGK 082100Z 25008KT 8SM BKN020 02/M01 A3029 RMK SC7 SLP262

CYGK;2013-01-08 22:00;CYGK 082200Z 23009KT 7SM OVC019 02/M01 A3029 RMK SC8 SLP263

CYGK;2013-01-08 23:00;CYGK 082300Z 21005KT 10SM OVC019 02/M01 A3031 RMK SC8 SLP270

CYGK;2013-01-09 00:00;CYGK 090000Z 22003KT 10SM BKN019 02/M01 A3034 RMK SC7 SLP278

CYGK;2013-01-09 01:00;CYGK 090100Z 21003KT 8SM BKN022 01/M01 A3033 RMK SC7 SLP276

CYGK;2013-01-09 02:00;CYGK 090200Z 00000KT 12SM SCT021 01/M01 A3032 RMK SC4 SLP272

CYGK;2013-01-09 03:00;CYGK 090300Z 12004KT 6SM BR FEW020 00/M01 A3032 RMK SC2 SLP272

CYGK;2013-01-09 04:00;CYGK 090400Z 13005KT 8SM FEW020 SCT200 01/M00 A3032 RMK SC1CI2 LAST OBS/NEXT 091100UTC SLP270

CYGK;2013-01-09 11:00;CYGK 091100Z 18013KT 15SM SKC 02/M01 A3021 RMK SLP235

CYGK;2013-01-09 12:00;CYGK 091200Z 17011KT 15SM FEW230 02/M01 A3019 RMK CI1 SLP228

CYGK;2013-01-09 13:00;CYGK 091300Z 17014KT 15SM BKN230 02/M01 A3018 RMK CI5 TR AC SLP223

CYGK;2013-01-09 14:00;CYGK 091400Z 15015G21KT 15SM SCT180 BKN200 02/M01 A3010 RMK AC3CI4 PRESFR SLP197

CYGK;2013-01-09 15:00;CYGK 091500Z 18021G27KT 15SM FEW120 BKN150 OVC200 02/M01 A3010 RMK AC2AC3CI3 PRESRR SLP198

CYGK;2013-01-09 16:00;CYGK 091600Z 18016KT 12SM BKN086 OVC200 03/M00 A3004 RMK AC5CI3 PRESFR SLP176

CYGK;2013-01-09 17:00;CYGK 091700Z 18018G25KT 12SM SCT050 BKN077 OVC200 03/M00 A2996 RMK SC3AC3CI2 PRESFR SLP150

CYGK;2013-01-09 17:25;CYGK 091725Z 19018KT 12SM -SHRA BKN041 BKN080 OVC200 03/M00 A2994 RMK SC6AC1CI1 PRESFR SLP142

CYGK;2013-01-09 18:00;CYGK 091800Z 19016G21KT 12SM BKN043 OVC080 03/00 A2991 RMK SC7AC1 SLP133

CYGK;2013-01-09 19:00;CYGK 091900Z 19014G20KT 11SM VCSH BKN030 OVC080 04/00 A2989 RMK SC7AC1 SLP126

CYGK;2013-01-09 20:00;CYGK 092000Z 23019G24KT 15SM BKN029 OVC080 05/01 A2991 RMK SC7AC1 SLP130

CYGK;2013-01-09 21:00;CYGK 092100Z 24016G23KT 15SM BKN027 05/01 A2991 RMK CU7 SLP130

CYGK;2013-01-09 22:00;CYGK 092200Z 25013KT 15SM BKN040 04/01 A2994 RMK SC7 PRESRR SLP142

CYGK;2013-01-09 23:00;CYGK 092300Z 25014G21KT 15SM BKN045 04/M00 A2997 RMK SC5 SLP153

CYGK;2013-01-10 00:00;CYGK 100000Z 24013G18KT 15SM BKN070 04/00 A3001 RMK AC7 SLP166

CYGK;2013-01-10 01:00;CYGK 100100Z 25018G28KT 15SM FEW050 BKN072 05/M01 A3000 RMK SC2AC3 SLP164

CYGK;2013-01-10 01:29;CYGK 100129Z 26014G23KT 15SM -RA SCT037 OVC070 05/M01 A3002 RMK SC4AC4 SLP169

CYGK;2013-01-10 01:39;CYGK 100139Z 29020G29KT 5SM -RASN FEW007 OVC030 04/M01 A3005 RMK SF1SC7 PRESRR SLP179

CYGK;2013-01-10 02:00;CYGK 100200Z 28016G27KT 15SM SCT030 OVC054 03/M01 A3005 RMK SC3SC5 SLP181

CYGK;2013-01-10 03:00;CYGK 100300Z 27013G25KT 15SM FEW020 SCT040 BKN075 03/M01 A3012 RMK CF1SC3AC3 PRESRR SLP203

CYGK;2013-01-10 03:33;CYGK 100333Z 27014G23KT 12SM -RA BKN035 OVC060 03/M01 A3014 RMK SC5SC3 SLP210

CYGK;2013-01-10 03:37;CYGK 100337Z 28019G33KT 10SM -RASN FEW012 OVC025 03/M01 A3015 RMK CF1SC7 PRESRR SLP212

CYGK;2013-01-10 03:46;CYGK 100346Z 28017G29KT 15SM VCSH SCT025 BKN085 03/M01 A3015 RMK SC3AC4 SLP213

CYGK;2013-01-10 04:00;CYGK 100400Z 28017G24KT 15SM FEW025 BKN085 03/M01 A3015 RMK SC1AC5 LAST OBS/NEXT 101100UTC SLP212

CYGK;2013-01-10 11:00;CYGK 101100Z 25009KT 15SM SKC 00/M04 A3043 RMK SLP308

CYGK;2013-01-10 12:00;CYGK 101200Z 26006KT 15SM FEW200 M01/M05 A3047 RMK CI1 SLP321

CYGK;2013-01-10 13:00;CYGK 101300Z 27007KT 15SM FEW200 M01/M05 A3051 RMK CI2 SLP336

CYGK;2013-01-10 14:00;CYGK 101400Z 26009KT 15SM SCT240 M00/M05 A3055 RMK CI3 TR CU S SLP349

CYGK;2013-01-10 15:00;CYGK 101500Z 27006KT 15SM SCT240 01/M04 A3058 RMK CI3 TR SC SE-SW SLP359

CYGK;2013-01-10 16:00;CYGK 101600Z 30013KT 15SM SCT240 03/M05 A3057 RMK CI3 TR SC S SLP356

CYGK;2013-01-10 17:00;CYGK 101700Z 30008G16KT 15SM FEW240 03/M04 A3054 RMK CI2 TR SC SLP345

CYGK;2013-01-10 18:00;CYGK 101800Z 31006KT 15SM SCT240 04/M05 A3052 RMK CI3 SLP339

CYGK;2013-01-10 19:00;CYGK 101900Z 25002KT 15SM BKN240 04/M04 A3054 RMK CI5 TR SC AC SLP345

CYGK;2013-01-10 20:00;CYGK 102000Z 23003KT 15SM BKN240 04/M03 A3054 RMK CI6 TR SC AC SLP347

CYGK;2013-01-10 21:00;CYGK 102100Z 23004KT 15SM BKN250 03/M04 A3055 RMK CI6 TR SC AC SLP351

CYGK;2013-01-10 22:00;CYGK 102200Z 00000KT 15SM BKN250 02/M04 A3055 RMK CI6 TR AC SLP350

CYGK;2013-01-10 23:00;CYGK 102300Z 16004KT 15SM SCT250 M00/M02 A3055 RMK CI3 SLP351

CYGK;2013-01-11 00:00;CYGK 110000Z 00000KT 15SM FEW250 M01/M03 A3055 RMK CI2 SLP350

CYGK;2013-01-11 01:00;CYGK 110100Z 07003KT 15SM SCT250 M02/M03 A3055 RMK CI4 SLP349

CYGK;2013-01-11 02:00;CYGK 110200Z 00000KT 15SM SCT250 M02/M04 A3055 RMK CI4 SLP349

CYGK;2013-01-11 03:00;CYGK 110300Z 00000KT 15SM SCT250 M03/M04 A3053 RMK CI4 SLP345

CYGK;2013-01-11 04:00;CYGK 110400Z 06002KT 15SM FEW250 M05/M06 A3053 RMK CI2 LAST OBS/NEXT 111100UTC SLP342

CYGK;2013-01-11 11:00;CYGK 111100Z 06008KT 15SM FEW020 OVC150 M02/M04 A3031 RMK SC1AC7 SLP268

CYGK;2013-01-11 12:00;CYGK 111200Z 06008KT 15SM BKN120 OVC160 M02/M05 A3027 RMK AC7AS1 PRESFR SLP257

CYGK;2013-01-11 13:00;CYGK 111300Z 06008KT 15SM BKN090 OVC140 M02/M05 A3025 RMK AS6AC2 SLP248

CYGK;2013-01-11 13:39;CYGK 111339Z 06007KT 15SM -FZRA BKN080 OVC120 M02/M04 A3022 RMK AS7AC1 PRESFR SLP239

CYGK;2013-01-11 14:00;CYGK 111400Z 06005KT 15SM -FZRA OVC075 M01/M04 A3021 RMK AC8 SLP236

CYGK;2013-01-11 14:25;CYGK 111425Z 08005KT 15SM FEW084 OVC110 M01/M03 A3019 RMK AC2AC6 SLP229

CYGK;2013-01-11 15:00;CYGK 111500Z 12006KT 15SM OVC090 01/M03 A3018 REFZRA RMK AC8 SLP225

CYGK;2013-01-11 15:20;CYGK 111520Z 14008KT 15SM -SHRA OVC085 01/M03 A3018 RMK AC8 SLP226

CYGK;2013-01-11 16:00;CYGK 111600Z 16011KT 15SM -SHRA OVC090 03/M01 A3015 RMK AC8 PRESFR SLP215

CYGK;2013-01-11 16:16;CYGK 111616Z 15014KT 15SM OVC083 03/M02 A3014 RMK AC8 SLP211

CYGK;2013-01-11 16:37;CYGK 111637Z 16013KT 15SM -SHRA BKN077 OVC120 03/M01 A3013 RMK AC7AS1 SLP206

CYGK;2013-01-11 17:00;CYGK 111700Z 16013KT 15SM BKN065 BKN110 OVC140 03/M02 A3010 RMK SC5AC2AS1 OCNL -SHRA PRESFR SLP198

CYGK;2013-01-11 18:00;CYGK 111800Z 15012KT 15SM FEW050 SCT070 BKN110 OVC250 03/M01 A3006 RMK SC1SC3AC2CI2 SLP184

CYGK;2013-01-11 19:00;CYGK 111900Z 16015KT 15SM BKN057 OVC110 04/M01 A3004 RMK SC6AC2 SLP177

CYGK;2013-01-11 19:39;CYGK 111939Z 16012G19KT 10SM -SHRA BKN025 OVC045 03/M00 A3003 RMK SC5SC3 SLP175

CYGK;2013-01-11 20:00;CYGK 112000Z 16011KT 10SM -SHRA OVC030 03/00 A3002 RMK SC8 SLP172

CYGK;2013-01-11 21:00;CYGK 112100Z 15010KT 15SM -SHRA OVC031 03/01 A3001 RMK SC8 SLP166

CYGK;2013-01-11 22:00;CYGK 112200Z 16014KT 3SM -RA BR OVC021 03/01 A3000 RMK SC8 SLP164

CYGK;2013-01-11 23:00;CYGK 112300Z 16015G23KT 4SM -RA BR OVC016 03/01 A3000 RMK SC8 SLP165

CYGK;2013-01-11 23:43;CYGK 112343Z 16015KT 4SM -RA BR OVC012 03/02 A3000 RMK SC8 SLP163

CYGK;2013-01-12 00:00;CYGK 120000Z 16013G19KT 8SM -RA BKN012 OVC020 03/02 A2999 RMK SC6SC2 SLP161

CYGK;2013-01-12 00:32;CYGK 120032Z 17013G18KT 3SM -RA BR BKN005 OVC013 03/02 A2998 RMK SF6SC2 SLP158

CYGK;2013-01-12 01:00;CYGK 120100Z 17016G22KT 3SM -RA BR OVC005 03/02 A2998 RMK SF8 SLP156

CYGK;2013-01-12 02:00;CYGK 120200Z 17016KT 5SM -RA BR BKN005 OVC017 03/02 A2997 RMK SF5SC3 SLP154

CYGK;2013-01-12 02:14;CYGK 120214Z 17014KT 12SM SCT005 OVC016 03/02 A2998 RMK SF4SC4 SLP156

CYGK;2013-01-12 03:00;CYGK 120300Z 17010KT 12SM FEW005 OVC014 03/02 A2999 RMK SF2SC6 SLP159

CYGK;2013-01-12 04:00;CYGK 120400Z 17011G16KT 12SM FEW006 OVC014 03/02 A2998 RMK SF2SC6 LAST OBS/NEXT 121100 UTC SLP155

CYGK;2013-01-12 11:00;CYGK 121100Z 19010KT 15SM FEW008 OVC014 04/03 A3000 RMK SF1SC7 SLP164

CYGK;2013-01-12 12:00;CYGK 121200Z 18009KT 15SM FEW010 OVC016 04/03 A3001 RMK SF2SC6 SLP166

CYGK;2013-01-12 13:00;CYGK 121300Z 17013KT 12SM FEW010 BKN021 OVC038 04/03 A3000 RMK SF1SC6SC1 SLP162

CYGK;2013-01-12 14:00;CYGK 121400Z 18010G16KT 12SM FEW010 BKN020 OVC030 04/03 A3000 RMK SF1SC4SC3 PRESRR SLP164

CYGK;2013-01-12 15:00;CYGK 121500Z 00000KT 15SM FEW012 BKN035 OVC140 05/04 A3001 RMK SF1SC6AS1 AC TR SLP167

CYGK;2013-01-12 16:00;CYGK 121600Z 23005KT 12SM FEW010 OVC030 04/03 A3000 RMK SF2SC6 SLP164

CYGK;2013-01-12 16:09;CYGK 121609Z 26003KT 220V330 12SM FEW006 BKN033 OVC200 04/03 A3000 RMK SF1SC6CI1 SLP163

CYGK;2013-01-12 17:00;CYGK 121700Z 20007KT 15SM FEW008 SCT037 OVC200 05/04 A2999 RMK SF1SC3CI4 AC TR SLP161

CYGK;2013-01-12 18:00;CYGK 121800Z 18009KT 15SM FEW010 SCT035 BKN250 05/04 A2997 RMK SF1SC2CI4 SLP151

CYGK;2013-01-12 19:00;CYGK 121900Z 18010G15KT 15SM SCT040 BKN220 05/04 A2996 RMK SC3CI4 SLP148

CYGK;2013-01-12 20:00;CYGK 122000Z 17014KT 15SM FEW040 SCT140 OVC220 06/04 A2996 RMK SC1AC2CI5 SLP148

CYGK;2013-01-12 21:00;CYGK 122100Z 17012KT 15SM SCT027 OVC250 06/04 A2996 RMK SC3CI5 SLP150

CYGK;2013-01-12 22:00;CYGK 122200Z 19009KT 15SM BKN029 OVC220 05/04 A2997 RMK SC5CI3 SLP152

CYGK;2013-01-12 23:00;CYGK 122300Z 18011KT 15SM SCT030 OVC230 05/04 A2998 RMK SC4CI4 SLP155

CYGK;2013-01-13 00:00;CYGK 130000Z 18008KT 15SM SCT026 BKN240 05/04 A2999 RMK SC3CI3 SLP158

CYGK;2013-01-13 01:00;CYGK 130100Z 19009KT 15SM SCT028 05/04 A2999 RMK SC3 SLP160

CYGK;2013-01-13 02:00;CYGK 130200Z 19009KT 15SM FEW028 05/04 A3000 RMK SC2 SLP162

CYGK;2013-01-13 03:00;CYGK 130300Z 20008KT 15SM FEW180 05/04 A3000 RMK AC2 SLP163

CYGK;2013-01-13 04:00;CYGK 130400Z 20006KT 15SM BKN021 05/05 A3000 RMK SC7 LAST OBS/NEXT 131100 UTC SLP163

CYGK;2013-01-13 11:00;CYGK 131100Z 34004KT 15SM BKN026 OVC100 04/04 A2990 RMK SC7AC1 SLP127

CYGK;2013-01-13 11:05;CYGK 131105Z 31003KT 15SM -SHRA BKN028 OVC100 05/05 A2991 RMK SC7AC1 PRESRR SLP130

CYGK;2013-01-13 12:00;CYGK 131200Z 36009KT 360V070 4SM -RA BR SCT030 OVC050 05/05 A2989 RMK SC4NS4 SLP124

CYGK;2013-01-13 12:41;CYGK 131241Z 06010KT 2 1/2SM -RA BR BKN030 OVC062 06/05 A2985 RMK SC5NS3 PRESFR SLP110

CYGK;2013-01-13 13:00;CYGK 131300Z 06005KT 3SM -RA BR SCT018 OVC050 06/05 A2986 RMK SC4NS4 PRESRR SLP116

CYGK;2013-01-13 13:22;CYGK 131322Z 06002KT 1 1/2SM RA BR BKN025 OVC040 06/06 A2988 RMK SC5NS3 PRESRR SLP121

CYGK;2013-01-13 14:00;CYGK 131400Z 12007KT 2SM -RA OVC015 06/06 A2986 RMK NS8 RERA SLP115

CYGK;2013-01-13 14:20;CYGK 131420Z 12008KT 6SM -RA BR SCT009 OVC050 08/07 A2984 RMK CU4NS4 SLP108

CYGK;2013-01-13 14:31;CYGK 131431Z 15010G16KT 6SM -RA BR BKN008 OVC050 08/07 A2984 RMK SF6NS2 SLP108

CYGK;2013-01-13 14:44;CYGK 131444Z 13008KT 8SM -RA SCT008 BKN040 OVC090 07/07 A2984 RMK SF3SC4AC1 SLP107

CYGK;2013-01-13 15:00;CYGK 131500Z 13007KT 8SM -RA FEW008 BKN040 BKN090 OVC200 07/07 A2983 RMK SF1SC4AC2CS1 SLP104

CYGK;2013-01-13 16:00;CYGK 131600Z 17005KT 15SM FEW010 OVC040 06/06 A2980 RMK SF1SC7 SLP093

CYGK;2013-01-13 17:00;CYGK 131700Z 18015G21KT 15SM BKN037 OVC160 07/06 A2976 RMK SC7AC1 SF TR SLP080

CYGK;2013-01-13 18:00;CYGK 131800Z 19013KT 15SM OVC030 07/06 A2976 RMK SC8 SLP082

CYGK;2013-01-13 19:00;CYGK 131900Z 20012G25KT 15SM OVC027 08/06 A2975 RMK SC8 SLP076

CYGK;2013-01-13 20:00;CYGK 132000Z 20013G19KT 15SM BKN025 BKN050 08/07 A2978 RMK SC5SC2 SLP087

CYGK;2013-01-13 21:00;CYGK 132100Z 20012KT 15SM SCT023 BKN160 08/07 A2982 RMK NS3AC3 SLP099

CYGK;2013-01-13 22:00;CYGK 132200Z 18008KT 12SM FEW018 SCT160 BKN200 05/05 A2984 RMK SC2AC2CI3 SLP107

CYGK;2013-01-13 22:27;CYGK 132227Z 16006KT 10SM FEW009 BKN019 BKN160 05/04 A2985 RMK SF2SC3AC2 SLP110

CYGK;2013-01-13 22:49;CYGK 132249Z 18007KT 2SM BR FEW009 BKN020 OVC150 05/05 A2983 RMK SF2SC4AC2 SLP105

CYGK;2013-01-13 23:00;CYGK 132300Z 19006KT 1SM BR BKN020 OVC060 06/06 A2983 RMK FG3SC3SC2 SLP106

CYGK;2013-01-13 23:05;CYGK 132305Z 19008KT 3/4SM BR VV002 06/06 A2984 RMK FG8 SLP109

CYGK;2013-01-13 23:24;CYGK 132324Z 20009KT 1/2SM FG OVC008 06/06 A2985 RMK FG5SF3 SLP113

CYGK;2013-01-14 00:00;CYGK 140000Z 24006KT 1/2SM FG OVC017 07/07 A2987 RMK FG6SC2 SLP117

CYGK;2013-01-14 00:52;CYGK 140052Z 31004KT 3/8SM FG OVC060 08/08 A2984 RMK FG6SC2 SLP108

CYGK;2013-01-14 01:00;CYGK 140100Z 00000KT 1/4SM FG VV001 07/07 A2984 RMK FG8 SLP107

CYGK;2013-01-14 01:50;CYGK 140150Z 21008KT 1/2SM FG VV002 05/05 A2985 RMK FG8 SLP110

CYGK;2013-01-14 02:00;CYGK 140200Z 21008KT 3/4SM BR VV003 06/06 A2984 RMK FG8 SLP108

CYGK;2013-01-14 02:08;CYGK 140208Z 21008KT 1SM BR VV003 06/06 A2984 RMK FG8 SLP107

CYGK;2013-01-14 02:19;CYGK 140219Z 22008KT 1 1/2SM BR OVC004 07/07 A2984 RMK SF8 SLP107

CYGK;2013-01-14 02:44;CYGK 140244Z 22007KT 2SM BR BKN005 OVC015 07/07 A2984 RMK SF7SC1 SLP107

CYGK;2013-01-14 03:00;CYGK 140300Z 22005KT 2SM -DZ BR BKN006 OVC017 07/07 A2984 RMK SF6SC2 SLP107

CYGK;2013-01-14 03:24;CYGK 140324Z 00000KT 1/2SM -DZ FG BKN009 OVC018 07/07 A2983 RMK SF7SC1 SLP103

CYGK;2013-01-14 03:42;CYGK 140342Z 17004KT 3/8SM FG VV003 06/06 A2983 RMK FG8 SLP102

CYGK;2013-01-14 04:00;CYGK 140400Z 17005KT 1/4SM FG VV002 06/06 A2982 RMK FG8 LAST OBS/NEXT 141100 UTC SLP100

CYGK;2013-01-14 11:00;CYGK 141100Z 26013G21KT 15SM OVC017 04/02 A2998 RMK SC8 PRESRR SLP154

CYGK;2013-01-14 12:00;CYGK 141200Z 26013G18KT 15SM OVC020 03/00 A3005 RMK SC8 PRESRR SLP180

CYGK;2013-01-14 13:00;CYGK 141300Z 28010G16KT 12SM -SHRA BKN018 03/M00 A3010 RMK CU7 PRESRR SLP197

CYGK;2013-01-14 13:49;CYGK 141349Z 26010KT 15SM VCSH SCT020 BKN034 02/M00 A3014 RMK CU4SC3 SLP209

CYGK;2013-01-14 14:00;CYGK 141400Z 26013KT 15SM FEW020 BKN034 02/M01 A3015 RMK CU2SC5 SLP212

CYGK;2013-01-14 15:00;CYGK 141500Z 25011G21KT 15SM FEW020 OVC038 03/M02 A3018 RMK CU1SC7 SLP223

CYGK;2013-01-14 16:00;CYGK 141600Z 28013G19KT 15SM VCSH FEW027 BKN043 02/M04 A3022 RMK CU2SC5 SLP236

CYGK;2013-01-14 17:00;CYGK 141700Z 27012G19KT 15SM FEW025 OVC040 02/M04 A3023 RMK CU1SC7 SLP240

CYGK;2013-01-14 18:00;CYGK 141800Z 24013G19KT 15SM FEW025 BKN048 02/M04 A3023 RMK CU1SC6 SLP239

CYGK;2013-01-14 19:00;CYGK 141900Z 24013G19KT 15SM BKN050 02/M05 A3024 RMK SC7 SLP245

CYGK;2013-01-14 20:00;CYGK 142000Z 24011KT 15SM OVC045 02/M05 A3026 RMK SC8 SLP249

CYGK;2013-01-14 21:00;CYGK 142100Z 25010KT 15SM FEW025 OVC035 01/M05 A3027 RMK CF1SC7 SLP253

CYGK;2013-01-14 22:00;CYGK 142200Z 26010KT 15SM OVC040 01/M05 A3029 RMK SC8 CF TR SLP260

CYGK;2013-01-14 22:20;CYGK 142220Z 26008KT 15SM -SN OVC035 01/M05 A3029 RMK SC8 CIG RAG SLP263

CYGK;2013-01-14 23:00;CYGK 142300Z 26009KT 15SM -SN FEW035 OVC040 00/M05 A3031 RMK SC1SC7 SLP268

CYGK;2013-01-15 00:00;CYGK 150000Z 27011KT 15SM -SN OVC040 00/M05 A3034 RMK SC8 PRESRR SLP277

CYGK;2013-01-15 00:45;CYGK 150045Z 27010KT 15SM OVC038 00/M05 A3033 RMK SC8 PRESFR SLP277

CYGK;2013-01-15 01:00;CYGK 150100Z 27006KT 15SM OVC045 M00/M05 A3033 RMK SC8 SLP275

CYGK;2013-01-15 02:00;CYGK 150200Z 29008KT 15SM OVC040 M00/M05 A3031 RMK SC8 SLP270

CYGK;2013-01-15 03:00;CYGK 150300Z 28009KT 15SM OVC030 M01/M07 A3032 RMK SC8 PRESRR SLP274

CYGK;2013-01-15 04:00;CYGK 150400Z 27006KT 15SM BKN035 OVC150 M01/M07 A3034 RMK SC7AC1 LAST OBS/NEXT 151100 UTC SLP279

CYGK;2013-01-15 11:00;CYGK 151100Z 31002KT 15SM BKN045 M04/M07 A3033 RMK SC5 SLP275

CYGK;2013-01-15 12:00;CYGK 151200Z 29004KT 15SM BKN045 BKN250 M04/M06 A3034 RMK SC5CI2 SLP278

CYGK;2013-01-15 13:00;CYGK 151300Z 26005KT 15SM OVC043 M03/M06 A3037 RMK SC8 SLP287

CYGK;2013-01-15 14:00;CYGK 151400Z 27004KT 15SM FEW020 BKN046 M02/M05 A3038 RMK CF1SC5 SLP292

CYGK;2013-01-15 15:00;CYGK 151500Z 22004KT 15SM FEW020 BKN045 BKN250 M01/M05 A3037 RMK CF1SC4CI1 SLP290

CYGK;2013-01-15 16:00;CYGK 151600Z 21006KT 15SM SCT030 BKN045 M01/M06 A3037 RMK CU3SC4 SLP288

CYGK;2013-01-15 17:00;CYGK 151700Z 22006KT 15SM BKN045 M00/M07 A3034 RMK SC7 SLP278

CYGK;2013-01-15 18:00;CYGK 151800Z 24009KT 15SM BKN036 M00/M07 A3032 RMK CU7 SLP271

CYGK;2013-01-15 19:00;CYGK 151900Z 23011KT 15SM FEW035 BKN040 BKN250 00/M06 A3030 RMK CF1SC5CI1 SLP267

CYGK;2013-01-15 20:00;CYGK 152000Z 22009KT 15SM SCT035 BKN250 M00/M07 A3031 RMK SC4CI2 SLP268

CYGK;2013-01-15 21:00;CYGK 152100Z 25009KT 15SM FEW035 BKN250 M00/M07 A3029 RMK SC1CS6 SLP263

CYGK;2013-01-15 22:00;CYGK 152200Z 25009KT 15SM FEW035 BKN250 M01/M08 A3031 RMK SC1CI6 SLP268

CYGK;2013-01-15 23:00;CYGK 152300Z 25007KT 15SM FEW035 BKN230 M01/M07 A3029 RMK SC1CI5 SLP264

CYGK;2013-01-16 00:00;CYGK 160000Z 26005KT 15SM OVC200 M02/M07 A3029 RMK CS8 SLP264

CYGK;2013-01-16 01:00;CYGK 160100Z 28006KT 15SM OVC180 M01/M06 A3029 RMK AS8 PRESFR SLP262

CYGK;2013-01-16 02:00;CYGK 160200Z 28003KT 15SM OVC200 M02/M07 A3027 RMK CS8 SLP254

CYGK;2013-01-16 03:00;CYGK 160300Z 26003KT 15SM FEW160 OVC200 M02/M08 A3025 RMK AC1CS7 SLP248

CYGK;2013-01-16 04:00;CYGK 160400Z 00000KT 15SM FEW110 FEW160 OVC200 M02/M08 A3024 RMK AC1AC1CS6 LAST OBS/NEXT 161100 UTC SLP246

CYGK;2013-01-16 11:00;CYGK 161100Z 06005KT 15SM OVC026 M02/M05 A3005 RMK SC8 SLP181

CYGK;2013-01-16 11:34;CYGK 161134Z 18011KT 15SM OVC026 00/M05 A3004 RMK SC8 WSHFT 1120 SLP179

CYGK;2013-01-16 12:00;CYGK 161200Z 18012KT 15SM OVC027 00/M05 A3003 RMK SC8 SLP176

CYGK;2013-01-16 13:00;CYGK 161300Z 17010KT 15SM FEW025 OVC110 00/M04 A3001 RMK SC2AS6 PRESFR SLP166

CYGK;2013-01-16 14:00;CYGK 161400Z 16014KT 15SM FEW019 BKN090 00/M04 A2998 RMK SC1AS6 SLP158

CYGK;2013-01-16 15:00;CYGK 161500Z 17012G18KT 15SM FEW020 OVC095 01/M03 A2995 RMK SC2AS6 VIRGA SLP148

CYGK;2013-01-16 16:00;CYGK 161600Z 17014KT 15SM BKN018 OVC060 01/M02 A2992 RMK SC6SC2 SLP135

CYGK;2013-01-16 17:00;CYGK 161700Z 18012KT 15SM BKN013 OVC030 01/M02 A2987 RMK SC6SC2 PRESFR SLP118

CYGK;2013-01-16 18:00;CYGK 161800Z 18012KT 15SM FEW009 BKN012 OVC030 01/M02 A2983 RMK SF1SC6SC1 SLP104

CYGK;2013-01-16 19:00;CYGK 161900Z 19014KT 15SM FEW009 OVC013 01/M01 A2980 RMK SF1SC7 SLP095

CYGK;2013-01-16 20:00;CYGK 162000Z 19013G18KT 15SM FEW009 OVC015 01/M01 A2978 RMK SF2SC6 SLP088

CYGK;2013-01-16 21:00;CYGK 162100Z 20011KT 15SM SCT015 01/M01 A2977 RMK SC4 SLP084

CYGK;2013-01-16 22:00;CYGK 162200Z 20015KT 15SM FEW015 BKN020 BKN250 01/M02 A2975 RMK SC1SC4CI1 SLP080

CYGK;2013-01-16 23:00;CYGK 162300Z 20014KT 0SM BKN025 01/M01 A2976 RMK SC7 SLP082

CYGK;2013-01-17 00:00;CYGK 170000Z 22011KT 15SM OVC020 02/M01 A2977 RMK SC8 SLP085

CYGK;2013-01-17 01:00;CYGK 170100Z 20009KT 15SM FEW030 OVC160 02/M00 A2975 RMK SC2AC6 SLP078

CYGK;2013-01-17 02:00;CYGK 170200Z 22015G21KT 15SM SCT025 BKN190 02/M02 A2975 RMK SC3AC2 SLP077

CYGK;2013-01-17 03:00;CYGK 170300Z 24015G23KT 15SM BKN025 BKN070 OVC120 02/M02 A2976 RMK SC6AC1AC1 SLP082

CYGK;2013-01-17 03:50;CYGK 170350Z 25015G21KT 15SM -SN BKN030 OVC060 02/M02 A2977 RMK SC6SC2 SLP084

CYGK;2013-01-17 04:00;CYGK 170400Z 24013G22KT 15SM -SN BKN030 OVC060 02/M02 A2976 RMK SC6SC2 LAST OBS/NEXT 171100 UTC SLP083

CYGK;2013-01-17 11:00;CYGK 171100Z 29017G23KT 15SM -SHSN FEW022 BKN042 BKN073 OVC150 01/M05 A2990 RMK SC1SC4AC2AC1 PRESRR SLP129

CYGK;2013-01-17 12:00;CYGK 171200Z 35014G21KT 15SM -SHSN FEW020 SCT040 OVC070 M03/M08 A2996 RMK SC1SC3AC4 PRESRR SLP152

CYGK;2013-01-17 12:36;CYGK 171236Z 34015KT 15SM FEW020 FEW040 BKN065 M04/M10 A3001 RMK CF1SC1SC5 PRESRR SLP166

CYGK;2013-01-17 13:00;CYGK 171300Z 35013KT 15SM FEW020 FEW040 BKN062 M05/M11 A3003 RMK SC1SC1SC5 PRESRR SLP176

CYGK;2013-01-17 14:00;CYGK 171400Z 35014KT 15SM FEW040 BKN060 M07/M15 A3010 RMK SC1SC6 PRESRR SLP198

CYGK;2013-01-17 15:00;CYGK 171500Z 34014KT 15SM BKN061 M08/M18 A3015 RMK SC7 CI TR SLP215

CYGK;2013-01-17 16:00;CYGK 171600Z 36010KT 15SM FEW061 BKN200 M09/M20 A3018 RMK SC2CI4 SLP224

CYGK;2013-01-17 17:00;CYGK 171700Z 34007KT 15SM FEW060 BKN200 M08/M22 A3017 RMK SC2CI4 SLP223

CYGK;2013-01-17 18:00;CYGK 171800Z 31005KT 15SM FEW060 SCT110 BKN200 M08/M23 A3017 RMK SC2AC1CI3 SLP223

CYGK;2013-01-17 19:00;CYGK 171900Z 35011KT 15SM FEW060 SCT100 BKN200 M07/M22 A3016 RMK SC1AC2CI3 SLP220

CYGK;2013-01-17 20:00;CYGK 172000Z 33009G18KT 15SM FEW060 FEW100 BKN200 M08/M24 A3017 RMK NS1AC1CI4 SLP221

CYGK;2013-01-17 21:00;CYGK 172100Z 36007KT 15SM FEW060 FEW240 M08/M24 A3016 RMK SC1CI1 SLP217

CYGK;2013-01-17 22:00;CYGK 172200Z 06007KT 15SM BKN070 M10/M19 A3017 RMK AC7 CI TR SLP223

CYGK;2013-01-17 23:00;CYGK 172300Z 05007KT 15SM OVC073 M10/M20 A3019 RMK AC8 SLP229

CYGK;2013-01-18 00:00;CYGK 180000Z 05007KT 15SM OVC080 M11/M20 A3020 RMK AC8 SLP232

CYGK;2013-01-18 01:00;CYGK 180100Z 03006KT 15SM FEW060 OVC085 M11/M20 A3022 RMK SC1AC7 SLP240

CYGK;2013-01-18 02:00;CYGK 180200Z 02007KT 15SM FEW060 BKN080 M12/M20 A3022 RMK SC2AC4 SLP242

CYGK;2013-01-18 03:00;CYGK 180300Z 01009KT 15SM FEW060 BKN080 M13/M20 A3022 RMK SC1AC4 SLP240

CYGK;2013-01-18 04:00;CYGK 180400Z 04005KT 15SM SCT055 BKN075 M13/M20 A3019 RMK SC3AC4 LAST OBS/NEXT 181100 UTC SLP232

CYGK;2013-01-18 11:00;CYGK 181100Z 32004KT 15SM FEW070 M14/M18 A3034 RMK AC1 PRESRR SLP280

CYGK;2013-01-18 12:00;CYGK 181200Z 29004KT 15SM FEW020 SCT055 SCT070 BKN200 M13/M19 A3036 RMK SC1SC2AC1CI2 SLP288

CYGK;2013-01-18 13:00;CYGK 181300Z 30004KT 15SM FEW038 SCT072 BKN200 M13/M19 A3037 RMK SC2AC2CI2 SLP291

CYGK;2013-01-18 14:00;CYGK 181400Z 29004KT 15SM FEW072 M11/M17 A3039 RMK AC1 TR SC  CI SLP299

CYGK;2013-01-18 15:00;CYGK 181500Z 28007KT 15SM FEW070 M09/M16 A3041 RMK AC1 SC TR SLP304

CYGK;2013-01-18 16:00;CYGK 181600Z 30007KT 15SM FEW070 M08/M17 A3040 RMK AC1 TR SC SLP300

CYGK;2013-01-18 17:00;CYGK 181700Z 28009G15KT 15SM FEW015 FEW050 M06/M16 A3038 RMK CF1SC1 SLP294

CYGK;2013-01-18 18:00;CYGK 181800Z 25008KT 15SM FEW050 SCT200 M05/M15 A3035 RMK SC1CI2 CF TR SLP284

CYGK;2013-01-18 19:00;CYGK 181900Z 23011G16KT 15SM SCT039 SCT200 M05/M15 A3034 RMK CU3CI1 SLP280

CYGK;2013-01-18 20:00;CYGK 182000Z 25010KT 15SM FEW025 SCT050 BKN200 M05/M15 A3031 RMK CU1SC3CI1 SHGWRS S-SW SLP270

CYGK;2013-01-18 21:00;CYGK 182100Z 24012G17KT 15SM BKN049 M05/M12 A3029 RMK SC7 SLP264

CYGK;2013-01-18 21:22;CYGK 182122Z 22015G21KT 15SM -SHSN BKN040 OVC200 M05/M11 A3028 RMK CU7CI1 VIS S 5 SLP261

CYGK;2013-01-18 21:31;CYGK 182131Z 23012G18KT 2SM -SHSN DRSN OVC025 M05/M10 A3028 RMK CU8 VIS NE 6 SLP260

CYGK;2013-01-18 22:00;CYGK 182200Z 22008KT 6SM -SHSN SCT020 OVC045 M06/M08 A3027 RMK CU4SC4 SLP256

CYGK;2013-01-18 23:00;CYGK 182300Z 22019G27KT 12SM -SHSN FEW025 OVC045 M04/M12 A3025 RMK SF1SC7 SLP251

CYGK;2013-01-19 00:00;CYGK 190000Z 22019G25KT 6SM -SN DRSN OVC028 M04/M09 A3024 RMK NS8 SLP246

CYGK;2013-01-19 00:16;CYGK 190016Z 21019KT 2SM -SN DRSN OVC018 M04/M07 A3023 RMK SN2NS6 SLP245

CYGK;2013-01-19 00:28;CYGK 190028Z 21017G25KT 3SM -SN DRSN OVC020 M04/M07 A3023 RMK NS8 SLP243

CYGK;2013-01-19 01:00;CYGK 190100Z 21018G23KT 12SM -SN BKN020 OVC040 M04/M08 A3021 RMK SC6NS2 SLP238

CYGK;2013-01-19 02:00;CYGK 190200Z 21017G28KT 6SM -SN OVC025 M03/M07 A3017 RMK NS8 SLP223

CYGK;2013-01-19 03:00;CYGK 190300Z 19019G24KT 15SM FEW020 SCT030 OVC080 M02/M08 A3013 RMK SC1SC2AC5 SLP209

CYGK;2013-01-19 03:24;CYGK 190324Z 19022G28KT 15SM -SN FEW058 OVC080 M02/M09 A3011 RMK SC2AC6 SLP203

CYGK;2013-01-19 04:00;CYGK 190400Z 19021G29KT 12SM -SN SCT055 OVC080 M02/M08 A3009 RMK SC3AC5 LAST OBS/NEXT 191100 UTC SLP194

CYGK;2013-01-19 11:00;CYGK 191100Z 20014G20KT 15SM OVC048 03/M02 A2989 RMK SC8 SLP126

CYGK;2013-01-19 12:00;CYGK 191200Z 21014KT 15SM OVC047 04/M02 A2989 RMK SC8 SLP126

CYGK;2013-01-19 13:00;CYGK 191300Z 21013KT 15SM OVC047 04/M01 A2988 RMK SC8 SLP123

CYGK;2013-01-19 14:00;CYGK 191400Z 20014G20KT 15SM OVC045 03/M01 A2988 RMK SC8 SLP124

CYGK;2013-01-19 15:00;CYGK 191500Z 22015G21KT 15SM OVC042 04/M01 A2989 RMK SC8 SLP127

CYGK;2013-01-19 16:00;CYGK 191600Z 23016G23KT 15SM OVC041 05/M01 A2989 RMK SC8 SLP127

CYGK;2013-01-19 17:00;CYGK 191700Z 24016G25KT 15SM BKN036 OVC048 05/M01 A2987 RMK SC7SC1 SLP120

CYGK;2013-01-19 18:00;CYGK 191800Z 23017G25KT 15SM SCT037 OVC047 05/M01 A2986 RMK SC4SC4 SLP114

CYGK;2013-01-19 19:00;CYGK 191900Z 23017G23KT 15SM SCT036 OVC044 05/M01 A2986 RMK SC4SC4 SLP114

CYGK;2013-01-19 20:00;CYGK 192000Z 23017G23KT 15SM OVC040 05/M01 A2985 RMK SC8 SLP111

CYGK;2013-01-19 21:00;CYGK 192100Z 22013KT 15SM OVC038 05/M01 A2984 RMK SC8 SLP107

CYGK;2013-01-19 21:19;CYGK 192119Z 21009KT 15SM -RA OVC039 04/M01 A2983 RMK NS8 SLP106

CYGK;2013-01-19 22:00;CYGK 192200Z 21013KT 15SM -RA OVC040 04/00 A2983 RMK NS8 SLP103

CYGK;2013-01-19 23:00;CYGK 192300Z 19009KT 15SM OVC050 03/01 A2980 RMK SC8 SLP093

CYGK;2013-01-20 00:00;CYGK 200000Z 19007KT 15SM OVC052 03/01 A2977 RMK SC8 VIRGA SLP084

CYGK;2013-01-20 00:54;CYGK 200054Z 18012KT 15SM -RA OVC038 04/01 A2974 RMK NS8 SLP075

CYGK;2013-01-20 01:00;CYGK 200100Z 20012KT 12SM -RA OVC038 04/01 A2974 RMK NS8 SLP073

CYGK;2013-01-20 01:50;CYGK 200150Z 17009KT 15SM SCT040 OVC074 05/01 A2967 RMK SC4AC4 PRESFR SLP052

CYGK;2013-01-20 02:00;CYGK 200200Z 18009KT 15SM SCT040 OVC070 05/01 A2966 RMK SC3AC5 PRESFR SLP048

CYGK;2013-01-20 03:00;CYGK 200300Z 17019G24KT 15SM OVC063 05/M00 A2961 RMK SC8 SLP031

CYGK;2013-01-20 03:50;CYGK 200350Z 22019G29KT 15SM -RA OVC050 06/M01 A2962 RMK SC8 SLP033

CYGK;2013-01-20 04:00;CYGK 200400Z 23021G29KT 15SM -RA OVC047 06/00 A2962 RMK SC8 LAST OBS/NEXT 201100 UTC SLP034

CYGK;2013-01-20 11:00;CYGK 201100Z 26018G30KT 6SM -RASN OVC010 01/M00 A2939 RMK CU8 PRESRR SLP958

CYGK;2013-01-20 11:45;CYGK 201145Z 24018G23KT 12SM FEW010 BKN035 OVC070 01/M01 A2940 RMK CU2SC3AC3 SLP960

CYGK;2013-01-20 12:00;CYGK 201200Z 23018G24KT 12SM FEW010 SCT040 BKN070 OVC120 02/M01 A2942 RMK CU1SC2AC2AC3 PRESRR SLP967

CYGK;2013-01-20 13:00;CYGK 201300Z 25020G36KT 15SM FEW010 SCT030 BKN070 02/M03 A2945 RMK CU1SC2AC2 SLP977

CYGK;2013-01-20 14:00;CYGK 201400Z 26021G40KT 15SM FEW037 SCT060 01/M05 A2950 RMK CU2SC2 PRESRR SLP992

CYGK;2013-01-20 14:48;CYGK 201448Z 26026G43KT 2SM -SHSN BKN030 00/M05 A2957 RMK CU7 PRESRR SLP016

CYGK;2013-01-20 15:00;CYGK 201500Z 27021G40KT 2SM -SHSN DRSN FEW015 OVC030 M01/M04 A2959 RMK CU2CU6 PRESRR SLP025

CYGK;2013-01-20 15:06;CYGK 201506Z 26024G38KT 10SM -SG DRSN FEW015 BKN030 M01/M04 A2960 RMK CU2CU5 PRESRR SLP027

CYGK;2013-01-20 15:23;CYGK 201523Z 26025G41KT 15SM FEW015 SCT041 M01/M06 A2961 RMK CU1CU2 PRESRR SLP029

CYGK;2013-01-20 16:00;CYGK 201600Z 26027G48KT 15SM VCSH SCT038 M01/M08 A2964 RMK CU4 PRESRR SLP042

CYGK;2013-01-20 17:00;CYGK 201700Z 26030G40KT 15SM VCSH BKN040 M01/M11 A2966 RMK CU6 SLP048

CYGK;2013-01-20 18:00;CYGK 201800Z 27021G37KT 15SM VCSH BKN030 M02/M09 A2971 RMK CU6 PRESRR SLP065

CYGK;2013-01-20 19:00;CYGK 201900Z 28021G32KT 15SM SCT040 M03/M13 A2977 RMK CU3 PRESRR SLP084

CYGK;2013-01-20 20:00;CYGK 202000Z 27024G36KT 15SM FEW040 M05/M14 A2983 RMK CU2 PRESRR SLP107

CYGK;2013-01-20 21:00;CYGK 202100Z 28019G28KT 15SM FEW041 M06/M15 A2989 RMK CU2 PRESRR SLP127

CYGK;2013-01-20 22:00;CYGK 202200Z 28014G20KT 15SM FEW041 M08/M16 A2993 RMK SC1 SLP139

CYGK;2013-01-20 23:00;CYGK 202300Z 28016G24KT 15SM FEW041 M08/M16 A2997 RMK SC2 PRESRR SLP155

CYGK;2013-01-21 00:00;CYGK 210000Z 28014G25KT 15SM SCT041 M08/M16 A3000 RMK SC3 SLP165

CYGK;2013-01-21 01:00;CYGK 210100Z 29012G26KT 15SM FEW041 M09/M16 A3001 RMK SC1 SLP170

CYGK;2013-01-21 02:00;CYGK 210200Z 30008KT 15SM FEW042 M10/M16 A3004 RMK SC1 SLP178

CYGK;2013-01-21 03:00;CYGK 210300Z 29012KT 15SM FEW150 M10/M18 A3006 RMK AC1 SLP184

CYGK;2013-01-21 04:00;CYGK 210400Z 29008KT 15SM FEW140 M11/M17 A3007 RMK AC1 LAST OBS/NEXT 211100 UTC SLP187

CYGK;2013-01-21 11:00;CYGK 211100Z 02006KT 15SM OVC110 M14/M19 A3004 RMK AC8 SLP180

CYGK;2013-01-21 12:00;CYGK 211200Z 05005KT 15SM FEW060 OVC110 M14/M20 A3006 RMK SC1AC7 SLP187

CYGK;2013-01-21 13:00;CYGK 211300Z 05006KT 15SM FEW050 OVC100 M13/M19 A3006 RMK SC2AC6 SLP186

CYGK;2013-01-21 14:00;CYGK 211400Z 03006KT 15SM BKN050 OVC100 M13/M19 A3005 RMK SC6AC2 SLP183

CYGK;2013-01-21 15:00;CYGK 211500Z 05007KT 10SM -SN OVC029 M12/M17 A3005 RMK SC8 SLP182

CYGK;2013-01-21 16:00;CYGK 211600Z 06007KT 3SM -SN OVC030 M12/M16 A3003 RMK SC8 SLP178

CYGK;2013-01-21 17:00;CYGK 211700Z 05008KT 3SM -SN OVC027 M11/M15 A2998 RMK SC8 PRESFR SLP160

CYGK;2013-01-21 18:00;CYGK 211800Z 07008KT 4SM -SN OVC030 M10/M14 A2994 RMK SC8 SLP145

CYGK;2013-01-21 19:00;CYGK 211900Z 04008KT 4SM -SN OVC030 M10/M14 A2991 RMK SC8 SLP137

CYGK;2013-01-21 20:00;CYGK 212000Z 03008KT 8SM -SN FEW022 SCT042 OVC100 M11/M15 A2991 RMK SC2SC2AC4 SLP135

CYGK;2013-01-21 20:41;CYGK 212041Z 04012KT 15SM FEW025 BKN060 OVC100 M11/M15 A2990 RMK SC1SC4AC3 SLP133

CYGK;2013-01-21 21:00;CYGK 212100Z 01010KT 15SM BKN055 OVC100 M11/M15 A2990 RMK SC6AC2 SLP133

CYGK;2013-01-21 21:06;CYGK 212106Z 02012KT 12SM -SN SCT028 OVC055 M11/M15 A2990 RMK SC3SC5 SLP133

CYGK;2013-01-21 21:28;CYGK 212128Z 03008KT 2 1/2SM -SN BKN016 OVC055 M11/M14 A2990 RMK SC6SC2 SLP133

CYGK;2013-01-21 22:00;CYGK 212200Z 03009KT 2SM -SN OVC015 M12/M15 A2990 RMK SC8 SLP134

CYGK;2013-01-21 22:22;CYGK 212222Z 04009KT 3SM -SN BKN022 OVC036 M12/M15 A2991 RMK SC6SC2 SLP135

CYGK;2013-01-21 23:00;CYGK 212300Z 05010KT 8SM -SN SCT020 OVC052 M12/M15 A2990 RMK SC3SC5 WND ESTD WND ESTD SLP134

CYGK;2013-01-22 00:00;CYGK 220000Z 05008KT 15SM -SN SCT050 OVC160 M13/M15 A2990 RMK SC4AC4 SLP132

CYGK;2013-01-22 01:00;CYGK 220100Z 05010KT 15SM -SN FEW050 BKN080 OVC160 M13/M16 A2988 RMK SC2AC4AS2 SLP126

CYGK;2013-01-22 02:00;CYGK 220200Z 03009KT 10SM -SN BKN040 OVC080 M13/M16 A2988 RMK SC5AC3 SLP128

CYGK;2013-01-22 02:29;CYGK 220229Z 02007KT 2 1/2SM -SN BKN025 OVC140 M14/M16 A2989 RMK SN3SC3NS2 SLP129

CYGK;2013-01-22 02:39;CYGK 220239Z 01007KT 1 3/4SM -SN OVC018 M14/M16 A2989 RMK SN5SC3 /S01/ SLP131

CYGK;2013-01-22 03:00;CYGK 220300Z 01006KT 2SM -SN OVC020 M14/M16 A2989 RMK SN4SC4 SLP130

CYGK;2013-01-22 03:31;CYGK 220331Z 04009KT 4SM -SN FEW012 BKN022 OVC080 M14/M16 A2988 RMK SF2SC5AS1 PRESFR SLP125

CYGK;2013-01-22 04:00;CYGK 220400Z 33005KT 330V040 10SM -SN FEW012 SCT025 OVC080 M14/M17 A2988 RMK SF2SC1AS5 LAST OBS/NEXT 221100 UTC SLP127

CYGK;2013-01-22 11:00;CYGK 221100Z 27011KT 15SM FEW070 SCT100 M13/M17 A2988 RMK SC1AC3 SLP126

CYGK;2013-01-22 12:00;CYGK 221200Z 27011KT 15SM FEW065 SCT100 BKN130 M13/M17 A2990 RMK SC1AC3AC3 SLP132

CYGK;2013-01-22 13:00;CYGK 221300Z 33008KT 15SM FEW020 SCT060 BKN110 OVC250 M13/M16 A2991 RMK SC1SC2AC2CI3 SLP138

CYGK;2013-01-22 14:00;CYGK 221400Z 32010KT 15SM FEW015 SCT080 BKN250 M14/M17 A2995 RMK CF1AC2CI4 SLP149

CYGK;2013-01-22 15:00;CYGK 221500Z 33013KT 15SM FEW015 SCT090 BKN250 M14/M18 A2999 RMK CF1AC2CI4 SLP162

CYGK;2013-01-22 16:00;CYGK 221600Z 31010KT 15SM FEW020 BKN110 BKN250 M13/M17 A3001 RMK CF1AC4CI2 SLP169

CYGK;2013-01-22 17:00;CYGK 221700Z 30012KT 15SM FEW090 BKN250 M11/M19 A3001 RMK AC2CI4 TR CF SLP168

CYGK;2013-01-22 18:00;CYGK 221800Z 30016G22KT 15SM FEW100 BKN250 M12/M22 A3001 RMK AC2CI5 CF TR SLP170

CYGK;2013-01-22 19:00;CYGK 221900Z 30011G18KT 15SM FEW100 BKN250 M11/M22 A3001 RMK AC2CI4 TR CF SLP172

CYGK;2013-01-22 20:00;CYGK 222000Z 30010G21KT 15SM FEW060 SCT120 BKN250 M12/M24 A3004 RMK SC1AC2CI4 TR CF SLP180

CYGK;2013-01-22 21:00;CYGK 222100Z 30009G19KT 15SM FEW080 BKN250 M12/M25 A3005 RMK AC2CI4 SLP185

CYGK;2013-01-22 22:00;CYGK 222200Z 30012KT 15SM BKN100 BKN250 M13/M25 A3007 RMK AC6CI1 TR CF SLP192

CYGK;2013-01-22 23:00;CYGK 222300Z 31013G18KT 15SM FEW015 SCT090 BKN110 M14/M25 A3010 RMK SC1AC3AS2 SLP201

CYGK;2013-01-23 00:00;CYGK 230000Z 31014G21KT 15SM FEW015 SCT110 BKN250 M15/M25 A3012 RMK SC1AC3CI2 SLP209

CYGK;2013-01-23 01:00;CYGK 230100Z 28009G18KT 15SM FEW015 SCT110 M16/M26 A3014 RMK SC1AC2 SLP213

CYGK;2013-01-23 02:00;CYGK 230200Z 31014G22KT 15SM FEW110 FEW250 M16/M27 A3015 RMK AC1CI1 SLP220

CYGK;2013-01-23 03:00;CYGK 230300Z 30016G24KT 15SM FEW110 M17/M27 A3017 RMK AC1 SLP225

CYGK;2013-01-23 04:00;CYGK 230400Z 32011G17KT 15SM FEW110 M18/M27 A3018 RMK AC1 LAST OBS/NEXT 231100 UTC SLP230

CYGK;2013-01-23 11:00;CYGK 231100Z 36008KT 15SM FEW180 M23/M28 A3023 RMK AC1 WND ESTD SLP246

CYGK;2013-01-23 12:00;CYGK 231200Z 36011KT 15SM FEW005 M24/M28 A3024 RMK SF1 SLP250

CYGK;2013-01-23 13:00;CYGK 231300Z 36007KT 15SM FEW005 M24/M29 A3026 RMK SF1 SLP256

CYGK;2013-01-23 14:00;CYGK 231400Z 03008KT 15SM FEW008 M23/M30 A3027 RMK SF1 SF S OVR LK  SEA SMOKE ON LK SLP259

CYGK;2013-01-23 15:00;CYGK 231500Z 08003KT 15SM FEW008 FEW240 M22/M29 A3029 RMK SF1CI1 SLP266

CYGK;2013-01-23 16:00;CYGK 231600Z 32003KT 320V030 15SM FEW240 M21/M28 A3028 RMK CI1 SF TR FEW008 OVR LK SLP264

CYGK;2013-01-23 17:00;CYGK 231700Z 01003KT 15SM SCT240 M19/M28 A3025 RMK CI3 TR SF FEW008 OVR LK SLP254

CYGK;2013-01-23 18:00;CYGK 231800Z 13003KT 120V210 15SM FEW140 BKN250 M19/M26 A3022 RMK AS1CI5 SF TR FEW008 OVR LK HALO SLP245

CYGK;2013-01-23 19:00;CYGK 231900Z 18003KT 090V180 15SM FEW130 BKN250 M17/M25 A3020 RMK AS1CI6 SF TR OVR LK SLP238

CYGK;2013-01-23 20:00;CYGK 232000Z 13002KT 15SM SCT100 BKN250 M17/M25 A3020 RMK AS4CS3 HALO SF TR OVR LK SLP237

CYGK;2013-01-23 21:00;CYGK 232100Z 11004KT 15SM BKN110 BKN250 M17/M23 A3020 RMK AS5CI2 SF TR OVR LK SLP237

CYGK;2013-01-23 22:00;CYGK 232200Z 10005KT 15SM BKN080 BKN250 M17/M24 A3019 RMK AC5CI2 CF TR OBS TAKEN +07 SLP235

CYGK;2013-01-23 23:00;CYGK 232300Z 09005KT 15SM FEW080 BKN210 M17/M23 A3019 RMK AC2CI4 SLP235

CYGK;2013-01-24 00:00;CYGK 240000Z 05005KT 15SM BKN075 BKN250 M18/M23 A3019 RMK AC5CI2 SLP236

CYGK;2013-01-24 00:43;CYGK 240043Z 04004KT 12SM -SN FEW060 OVC075 M17/M22 A3019 RMK SC1AC7 SLP233

CYGK;2013-01-24 01:00;CYGK 240100Z 05005KT 15SM FEW060 BKN070 OVC250 M17/M22 A3019 RMK SC1AC5CI2 SLP233

CYGK;2013-01-24 01:55;CYGK 240155Z 05005KT 15SM FEW070 BKN250 M18/M22 A3018 RMK AC2CI5 SLP230

CYGK;2013-01-24 02:00;CYGK 240200Z 05005KT 15SM FEW070 BKN250 M18/M22 A3018 RMK AC2CI5 SLP229

CYGK;2013-01-24 03:00;CYGK 240300Z 03005KT 15SM FEW070 BKN250 M18/M23 A3017 RMK AC1CI4 SLP226

CYGK;2013-01-24 04:00;CYGK 240400Z 05007KT 15SM BKN035 OVC250 M18/M23 A3017 RMK SC7CI1 LAST OBS/NEXT 241100 UTC SLP227

CYGK;2013-01-24 11:00;CYGK 241100Z 36008KT 15SM FEW030 M21/M26 A3028 RMK SC1 TR SF OVR LK SLP262

CYGK;2013-01-24 12:00;CYGK 241200Z 35010KT 15SM FEW030 FEW100 M21/M27 A3031 RMK SC1AC1 TR SF OVR LK SLP273

CYGK;2013-01-24 13:00;CYGK 241300Z 36007KT 15SM FEW100 SCT250 M21/M26 A3034 RMK AC1CI2 TR SF OVR LK PRESRR SLP284

CYGK;2013-01-24 14:00;CYGK 241400Z 35009KT 15SM FEW250 M20/M26 A3036 RMK CI1 TR SF OVR LK TR AC SLP291

CYGK;2013-01-24 15:00;CYGK 241500Z 33010KT 15SM FEW250 M19/M27 A3038 RMK CI1 SLP298

CYGK;2013-01-24 16:00;CYGK 241600Z 33008KT 15SM SKC M17/M25 A3040 RMK TR SF OVR LK TR CI SLP304

CYGK;2013-01-24 17:00;CYGK 241700Z 33005KT 15SM FEW250 M15/M25 A3039 RMK CI1 TR SF OVR LK SLP301

CYGK;2013-01-24 18:00;CYGK 241800Z 27007KT 15SM FEW250 M14/M24 A3038 RMK CI1 TR SF OVR LK WSHFT 1751 SLP298

CYGK;2013-01-24 19:00;CYGK 241900Z 30010G15KT 15SM SCT270 M12/M24 A3037 RMK CI3 TR SF OVR LK SLP292

CYGK;2013-01-24 20:00;CYGK 242000Z 27010G16KT 15SM FEW250 M11/M23 A3037 RMK CI1 TR CU OVR LK SLP294

CYGK;2013-01-24 21:00;CYGK 242100Z 30011G17KT 15SM FEW250 M11/M24 A3038 RMK CI1 TR CU OVR LK SLP297

CYGK;2013-01-24 22:00;CYGK 242200Z 30008KT 15SM FEW250 M12/M24 A3040 RMK CI1 TR CU OVR LK SLP304

CYGK;2013-01-24 23:00;CYGK 242300Z 29007KT 15SM FEW250 M13/M23 A3042 RMK CI1 SLP310

CYGK;2013-01-25 00:00;CYGK 250000Z 28008KT 15SM FEW250 M13/M23 A3044 RMK CI1 SLP317

CYGK;2013-01-25 01:00;CYGK 250100Z 28006KT 15SM SKC M14/M22 A3045 RMK SLP323

CYGK;2013-01-25 02:00;CYGK 250200Z 27006KT 15SM SKC M15/M22 A3047 RMK SLP328

CYGK;2013-01-25 03:00;CYGK 250300Z 29005KT 15SM SKC M16/M22 A3047 RMK SLP329

CYGK;2013-01-25 04:00;CYGK 250400Z 30005KT 15SM SKC M17/M22 A3048 RMK LAST OBS/NEXT 251100 UTC SLP332

CYGK;2013-01-25 11:00;CYGK 251100Z 31002KT 15SM BKN200 M19/M23 A3044 RMK CI5 TR SF OVR LK SLP316

CYGK;2013-01-25 12:00;CYGK 251200Z 00000KT 15SM BKN180 M19/M22 A3043 RMK AS7 TR SF OVR LK SLP315

CYGK;2013-01-25 13:00;CYGK 251300Z 34004KT 15SM BKN180 M18/M22 A3041 RMK AS7 TR SF OVR LK SLP308

CYGK;2013-01-25 14:00;CYGK 251400Z 01003KT 15SM BKN160 BKN220 M17/M22 A3040 RMK AS5CI2 TR SF OVR LK SLP305

CYGK;2013-01-25 15:00;CYGK 251500Z 07004KT 15SM FEW030 BKN160 BKN220 M15/M21 A3039 RMK SC1AS4CI2 TR SF OVR LK SLP300

CYGK;2013-01-25 16:00;CYGK 251600Z 12005KT 15SM BKN130 BKN250 M14/M20 A3036 RMK AC5CI2 TR SF OVR LK SLP290

CYGK;2013-01-25 17:00;CYGK 251700Z VRB02KT 15SM OVC130 M13/M19 A3031 RMK AC8 TR SC OVR LK SLP271

CYGK;2013-01-25 18:00;CYGK 251800Z VRB02KT 15SM OVC095 M13/M19 A3026 RMK AC8 TR SC OVR LK SLP257

CYGK;2013-01-25 19:00;CYGK 251900Z 17004KT 15SM OVC080 M12/M17 A3024 RMK AS8 TR SC OVR LK SLP249

CYGK;2013-01-25 20:00;CYGK 252000Z 00000KT 15SM FEW020 OVC080 M12/M17 A3022 RMK SC1AS7 SLP241

CYGK;2013-01-25 21:00;CYGK 252100Z 11003KT 15SM OVC070 M11/M17 A3019 RMK AS8 SLP233

CYGK;2013-01-25 21:08;CYGK 252108Z 08004KT 12SM -SN OVC060 M11/M17 A3019 RMK SC8 SLP232

CYGK;2013-01-25 21:47;CYGK 252147Z 09004KT 2SM -SN OVC030 M11/M17 A3018 RMK NS8 VIS S 4 SLP229

CYGK;2013-01-25 22:00;CYGK 252200Z 08004KT 2SM -SN OVC030 M12/M16 A3018 RMK NS8 SLP228

CYGK;2013-01-25 23:00;CYGK 252300Z 06006KT 3SM -SN VV018 M12/M15 A3016 RMK SN8 SLP223

CYGK;2013-01-26 00:00;CYGK 260000Z 05006KT 3SM -SN VV015 M12/M15 A3015 RMK SN8 SLP220

CYGK;2013-01-26 01:00;CYGK 260100Z 05006KT 3SM -SN VV015 M12/M15 A3015 RMK SN8 SLP218

CYGK;2013-01-26 02:00;CYGK 260200Z 04007KT 4SM -SN VV020 M13/M15 A3014 RMK SN8 SLP215

CYGK;2013-01-26 03:00;CYGK 260300Z 05006KT 6SM -SN OVC030 M13/M15 A3014 RMK SC8 SLP214

CYGK;2013-01-26 04:00;CYGK 260400Z 05005KT 3SM -SN VV015 M13/M15 A3013 RMK SN8 LAST OBS/NEXT 261100 UTC SLP212

CYGK;2013-01-26 11:00;CYGK 261100Z 03005KT 15SM FEW230 M16/M18 A3018 RMK CI2 SLP229

CYGK;2013-01-26 12:00;CYGK 261200Z 03006KT 15SM FEW120 BKN230 M16/M18 A3019 RMK AC2CI4 TR SC. OBS TAKEN +12 SLP233

CYGK;2013-01-26 13:00;CYGK 261300Z 05006KT 15SM SCT050 SCT120 BKN230 M15/M18 A3021 RMK SC3AC1CI2 SLP239

CYGK;2013-01-26 14:00;CYGK 261400Z 03004KT 15SM FEW050 BKN130 BKN240 M15/M18 A3022 RMK SC2AC3CI2 TR SC SLP243

CYGK;2013-01-26 15:00;CYGK 261500Z 04004KT 15SM SCT160 BKN240 M13/M17 A3024 RMK AC4CI3 SLP249

CYGK;2013-01-26 16:00;CYGK 261600Z 08003KT 290V080 15SM FEW130 FEW170 SCT240 M11/M16 A3025 RMK AC1AC1CI1 SLP252

CYGK;2013-01-26 17:00;CYGK 261700Z 18004KT 15SM FEW030 BKN120 BKN240 M10/M15 A3025 RMK CF1AC5CI1 SLP252

CYGK;2013-01-26 18:00;CYGK 261800Z 16004KT 15SM FEW035 BKN130 OVC240 M09/M14 A3026 RMK CF1AC6CI1 SLP255

CYGK;2013-01-26 19:00;CYGK 261900Z 21006KT 15SM FEW030 BKN130 OVC240 M09/M13 A3027 RMK CF1AC5CI2 SLP257

CYGK;2013-01-26 20:00;CYGK 262000Z 22005KT 15SM FEW030 SCT130 BKN240 M08/M13 A3027 RMK CU1AC3CI2 SLP260

CYGK;2013-01-26 21:00;CYGK 262100Z 23005KT 15SM FEW028 FEW240 M08/M13 A3028 RMK CU1CI1 AC TR SLP261

CYGK;2013-01-26 22:00;CYGK 262200Z 22007KT 15SM FEW028 BKN040 M08/M12 A3029 RMK CU1SC6 SLP265

CYGK;2013-01-26 23:00;CYGK 262300Z 22006KT 15SM SCT048 M09/M12 A3030 RMK SC4 SLP270

CYGK;2013-01-27 00:00;CYGK 270000Z 24005KT 15SM SCT048 BKN070 M10/M13 A3032 RMK SC3AC2 SLP274

CYGK;2013-01-27 01:00;CYGK 270100Z 25007KT 15SM FEW048 FEW068 M09/M13 A3032 RMK SC1AC1 SLP275

CYGK;2013-01-27 02:00;CYGK 270200Z 25006KT 15SM VCSH FEW035 BKN064 M10/M13 A3034 RMK SC2SC3 SLP281

CYGK;2013-01-27 03:00;CYGK 270300Z 35007KT 15SM -SN FEW009 BKN043 M10/M12 A3036 RMK SF1SC6 SLP287

CYGK;2013-01-27 04:00;CYGK 270400Z 32006KT 12SM -SN SCT025 SCT065 M11/M13 A3038 RMK SC3SC1 LAST OBS/NEXT 271100UTC SLP296

CYGK;2013-01-27 11:00;CYGK 271100Z 34004KT 15SM SKC M16/M18 A3050 RMK SLP338

CYGK;2013-01-27 12:00;CYGK 271200Z 00000KT 15SM SKC M16/M18 A3053 RMK TR SC OVR LK. SLP348

CYGK;2013-01-27 13:00;CYGK 271300Z 35005KT 15SM SKC M18/M20 A3055 RMK TR SC  AC SLP354

CYGK;2013-01-27 14:00;CYGK 271400Z 34004KT 15SM SKC M14/M17 A3057 RMK TR SC AC SLP359

CYGK;2013-01-27 15:00;CYGK 271500Z 06003KT 15SM SKC M12/M18 A3058 RMK TR AC  CI SLP362

CYGK;2013-01-27 16:00;CYGK 271600Z 16002KT 15SM SKC M11/M17 A3059 RMK TR SC AC SLP366

CYGK;2013-01-27 17:00;CYGK 271700Z 14006KT 15SM SKC M11/M18 A3056 RMK TR SC CI SLP357

CYGK;2013-01-27 18:00;CYGK 271800Z 18005KT 15SM SKC M10/M17 A3053 RMK TR SC  CI SLP347

CYGK;2013-01-27 19:00;CYGK 271900Z 16005KT 15SM FEW250 M09/M17 A3054 RMK CI2 TR SC AC PRESFR SLP349

CYGK;2013-01-27 20:00;CYGK 272000Z 19006KT 15SM SCT140 BKN250 M09/M15 A3053 RMK AC3CI3 TR SC OVR LK SLP346

CYGK;2013-01-27 21:00;CYGK 272100Z 18004KT 15SM BKN120 M09/M15 A3054 RMK AC7 TR SC CI SLP349

CYGK;2013-01-27 22:00;CYGK 272200Z 00000KT 15SM BKN100 M08/M15 A3052 RMK AC7 TR SC OVR LK SLP344

CYGK;2013-01-27 23:00;CYGK 272300Z 19003KT 15SM BKN087 M08/M13 A3052 RMK AC7 TR SC OVR LK SLP342

CYGK;2013-01-28 00:00;CYGK 280000Z 10005KT 15SM BKN082 M08/M13 A3049 RMK AC7 SLP334

CYGK;2013-01-28 01:00;CYGK 280100Z 08004KT 15SM BKN075 M08/M13 A3049 RMK AC7 SLP333

CYGK;2013-01-28 02:00;CYGK 280200Z 13005KT 15SM OVC072 M08/M12 A3048 RMK AC8 SLP330

CYGK;2013-01-28 03:00;CYGK 280300Z 12004KT 15SM BKN074 M07/M10 A3045 RMK AC7 SLP319

CYGK;2013-01-28 04:00;CYGK 280400Z 08005KT 15SM OVC063 M07/M11 A3044 RMK SC8 LAST OBS/NEXT 281100UTC SLP316

CYGK;2013-01-28 11:00;CYGK 281100Z 08005KT 15SM OVC034 M05/M10 A3027 RMK SC8 SLP258

CYGK;2013-01-28 11:35;CYGK 281135Z 08007KT 15SM -SN BKN037 OVC076 M05/M10 A3025 RMK SC7AC1 SLP251

CYGK;2013-01-28 12:00;CYGK 281200Z 09005KT 3SM -SN BKN018 OVC038 M05/M10 A3024 RMK SC6SC2 SLP247

CYGK;2013-01-28 12:05;CYGK 281205Z 08006KT 1 1/2SM -SN BKN009 OVC022 M05/M09 A3023 RMK SF5SC3 SLP244

CYGK;2013-01-28 12:48;CYGK 281248Z 09008KT 2SM -SN OVC012 M06/M08 A3021 RMK SC8 SLP236

CYGK;2013-01-28 13:00;CYGK 281300Z 09008KT 1 1/4SM -SN OVC010 M06/M07 A3020 RMK SC8 SLP234

CYGK;2013-01-28 13:09;CYGK 281309Z 08008KT 1SM -SN OVC009 M06/M07 A3020 RMK SF8 SLP233

CYGK;2013-01-28 13:25;CYGK 281325Z 07007KT 5/8SM -SN OVC010 M06/M07 A3020 RMK SN5SC3 SLP233

CYGK;2013-01-28 14:00;CYGK 281400Z 08007KT 1SM -SN BKN012 OVC020 M05/M06 A3019 RMK SN4SF2SC2 SLP228

CYGK;2013-01-28 14:20;CYGK 281420Z 08009KT 5/8SM -SN OVC012 M05/M06 A3017 RMK SN5SC3 SLP222

CYGK;2013-01-28 15:00;CYGK 281500Z 09010KT 2SM -SN BKN012 OVC020 M05/M06 A3012 RMK SN3SF3SC2 PRESFR SLP205

CYGK;2013-01-28 15:12;CYGK 281512Z 08009KT 4SM -SN FEW012 OVC058 M05/M06 A3011 RMK SF2NS6 PRESFR SLP204

CYGK;2013-01-28 15:34;CYGK 281534Z 08009KT 2SM -SN SCT012 OVC058 M05/M06 A3010 RMK SN2SF2NS4 SLP199

CYGK;2013-01-28 16:00;CYGK 281600Z 09009KT 1SM -SN BKN020 OVC058 M05/M06 A3009 RMK SN4SC3NS1 SLP197

CYGK;2013-01-28 16:11;CYGK 281611Z 08007KT 1/2SM SN VV005 M04/M06 A3009 RMK SN8 SLP196

CYGK;2013-01-28 16:36;CYGK 281636Z 08007KT 5/8SM -SN VV007 M04/M05 A3006 RESN RMK SN8 SLP186

CYGK;2013-01-28 17:00;CYGK 281700Z 07009KT 5/8SM -SN VV007 M04/M05 A3004 RESN RMK SN8 /S03/ PRESFR SLP178

CYGK;2013-01-28 17:19;CYGK 281719Z 07007KT 1 1/2SM -SN OVC014 M04/M05 A3002 RMK SN6SC2 SLP173

CYGK;2013-01-28 17:28;CYGK 281728Z 08006KT 3/4SM -SN VV008 M04/M05 A3002 RMK SN8 SLP171

CYGK;2013-01-28 18:00;CYGK 281800Z 08007KT 5/8SM -SN OVC013 M04/M04 A2999 RMK SN6SC2 PRESFR SLP161

CYGK;2013-01-28 18:14;CYGK 281814Z 08006KT 2SM -SN FEW008 OVC012 M03/M04 A2998 RMK SF1SC7 SLP158

CYGK;2013-01-28 19:00;CYGK 281900Z 07005KT 4SM -SN BR OVC007 M03/M04 A2996 RMK SF8 SLP151

CYGK;2013-01-28 19:08;CYGK 281908Z 08006KT 3SM -FZDZ BR OVC006 M03/M04 A2995 RMK SF8 PRESFR SLP147

CYGK;2013-01-28 19:15;CYGK 281915Z 07007KT 2SM -FZDZ BR OVC006 M03/M04 A2994 RMK FG2SF6 PRESFR SLP143

CYGK;2013-01-28 19:33;CYGK 281933Z 05010KT 2SM -FZDZ BR OVC004 M03/M04 A2993 RMK SF8 SLP143

CYGK;2013-01-28 20:00;CYGK 282000Z 05006KT 2SM -FZDZ -PL BR OVC005 M03/M03 A2993 RMK SF8 SLP142

CYGK;2013-01-28 20:19;CYGK 282019Z 05006KT 2 1/4SM -FZDZ BR OVC007 M03/M03 A2993 RMK SF8 SLP140

CYGK;2013-01-28 20:30;CYGK 282030Z 07008KT 1 1/2SM -SN SCT002 OVC008 M03/M04 A2992 REFZDZ RMK SN2SF1SF5 PRESFR SLP136

CYGK;2013-01-28 20:41;CYGK 282041Z 05006KT 2 1/2SM -FZDZ -SN FEW002 OVC007 M03/M04 A2991 RMK SF1SF7 SLP134

CYGK;2013-01-28 21:00;CYGK 282100Z 05008KT 2 1/2SM -FZDZ -PL FEW004 OVC008 M03/M04 A2990 RMK SF1SF7 /S02/ SLP131

CYGK;2013-01-28 21:16;CYGK 282116Z 06007KT 2 1/2SM -FZRA -SN FEW005 OVC008 M03/M03 A2991 RMK SF1SF7 SLP132

CYGK;2013-01-28 21:36;CYGK 282136Z 05008KT 4SM -FZRA -SN FEW004 OVC007 M03/M03 A2991 RMK SF1SF7 SLP133

CYGK;2013-01-28 22:00;CYGK 282200Z 04008KT 2 1/2SM -FZRA FEW004 OVC008 M02/M03 A2991 RMK SF2SF6 SLP135

CYGK;2013-01-28 22:09;CYGK 282209Z 05009KT 2SM -FZRA -PL FEW004 OVC008 M02/M03 A2991 RMK SF1SF7 SLP133

CYGK;2013-01-28 22:29;CYGK 282229Z 04009KT 3SM -FZRA -SN SCT004 OVC009 M02/M03 A2991 RMK SF3SF5 SLP132

CYGK;2013-01-28 22:49;CYGK 282249Z 04005KT 3SM -FZRA -SN BKN004 OVC009 M02/M03 A2991 RMK SF5SF3 SLP133

CYGK;2013-01-28 23:00;CYGK 282300Z 03007KT 4SM -FZDZ -SN BKN004 OVC009 M02/M03 A2991 REFZRA RMK SF6SF2 SLP133

CYGK;2013-01-28 23:22;CYGK 282322Z 05008KT 4SM -FZRA -SN BKN004 OVC010 M02/M03 A2991 RMK SF5SF3 SLP132

CYGK;2013-01-28 23:31;CYGK 282331Z 03008KT 5SM -FZRA -SN BKN003 OVC010 M03/M03 A2991 RMK SF6SF2 SLP133

CYGK;2013-01-28 23:46;CYGK 282346Z 03008KT 4SM -PLSN BKN004 OVC010 M03/M04 A2991 REFZRA RMK SF5SF3 SLP133

CYGK;2013-01-29 00:00;CYGK 290000Z 03009KT 6SM -SN BKN005 OVC010 M03/M04 A2991 REFZRA REPL RMK SF5SF3 CIG RAG SLP133

CYGK;2013-01-29 00:11;CYGK 290011Z 02011KT 6SM -FZDZ -SN SCT005 OVC010 M04/M05 A2991 RMK SF4SF4 SLP134

CYGK;2013-01-29 00:21;CYGK 290021Z 03010KT 10SM SCT004 BKN011 M04/M05 A2991 REFZDZ RMK SF3SC4 SLP135

CYGK;2013-01-29 01:00;CYGK 290100Z 02008KT 5SM -FZDZ SCT005 OVC010 M04/M05 A2992 RMK SF3SF5 SLP139

CYGK;2013-01-29 02:00;CYGK 290200Z 01011KT 5SM -FZDZ SCT004 OVC010 M05/M06 A2993 RMK SF4SF4 SLP143

CYGK;2013-01-29 02:10;CYGK 290210Z 01012KT 6SM -FZDZ -SN SCT004 OVC010 M05/M06 A2994 RMK SF3SF5 SLP145

CYGK;2013-01-29 02:47;CYGK 290247Z 02010KT 8SM -FZDZ FEW004 OVC012 M05/M06 A2994 RMK SF1SC7 SLP144

CYGK;2013-01-29 03:00;CYGK 290300Z 01010KT 10SM FEW004 OVC013 M05/M06 A2995 REFZDZ RMK SF1SC7 SLP147

CYGK;2013-01-29 04:00;CYGK 290400Z 02010KT 15SM FEW004 OVC013 M06/M07 A2997 RMK SF1SC7 LAST OBS/NEXT 291100UTC SLP154

CYGK;2013-01-29 11:00;CYGK 291100Z 04005KT 15SM OVC005 M07/M09 A3008 RMK ST8 SLP192

CYGK;2013-01-29 11:19;CYGK 291119Z 01004KT 8SM -SN OVC003 M07/M08 A3009 RMK ST8 PRESRR SLP196

CYGK;2013-01-29 11:39;CYGK 291139Z 01006KT 5SM BR OVC004 M07/M08 A3009 RMK SF8 SLP195

CYGK;2013-01-29 12:00;CYGK 291200Z 02008KT 3/4SM BR OVC002 M07/M08 A3009 RMK FG4SF4 SLP195

CYGK;2013-01-29 12:13;CYGK 291213Z 02007KT 1/2SM BR OVC002 M07/M08 A3009 RMK FG6SF2 SLP194

CYGK;2013-01-29 12:33;CYGK 291233Z 03006KT 1/4SM FZFG OVC002 M07/M08 A3008 RMK FG7SF1 SLP192

CYGK;2013-01-29 12:47;CYGK 291247Z 03005KT 1/2SM FZFG OVC002 M07/M08 A3009 RMK FG6SF2 SLP195

CYGK;2013-01-29 13:00;CYGK 291300Z 03007KT 3/4SM BR OVC002 M07/M08 A3009 RMK FG4ST4 SLP193

CYGK;2013-01-29 14:00;CYGK 291400Z 05006KT 1/2SM FZFG VV002 M07/M08 A3011 RMK FG8 PRESFR SLP202

CYGK;2013-01-29 14:28;CYGK 291428Z 04009KT 1SM BR OVC002 M07/M08 A3009 RMK FG3ST5 PRESFR SLP196

CYGK;2013-01-29 14:49;CYGK 291449Z 05006KT 1 1/2SM BR OVC003 M07/M08 A3010 RMK FG2ST6 SLP199

CYGK;2013-01-29 15:00;CYGK 291500Z 04007KT 3SM BR BKN004 BKN008 OVC023 M07/M08 A3011 RMK SF5ST2SC1 PRESRR SLP203

CYGK;2013-01-29 16:00;CYGK 291600Z 04009KT 3SM BR SCT004 BKN009 OVC023 M07/M07 A3007 RMK SF3SF2SC3 SLP188

CYGK;2013-01-29 16:34;CYGK 291634Z 05008KT 4SM BR SCT004 OVC021 M06/M07 A3005 RMK SF3SC5 PRESFR SLP182

CYGK;2013-01-29 17:00;CYGK 291700Z 05007KT 4SM BR SCT005 OVC023 M06/M07 A3004 RMK SF3SC5 SLP179

CYGK;2013-01-29 17:29;CYGK 291729Z 05008KT 4SM BR BKN005 OVC018 M06/M07 A3002 RMK SF5SC3 PRESFR SLP171

CYGK;2013-01-29 17:50;CYGK 291750Z 05007KT 4SM -FZRA BKN008 OVC015 M06/M06 A3000 RMK SF5SC3 SLP165

CYGK;2013-01-29 18:00;CYGK 291800Z 05008KT 4SM -FZRA BR BKN006 OVC015 M05/M06 A2998 RMK SF5SC3 PRESFR SLP160

CYGK;2013-01-29 18:23;CYGK 291823Z 05009KT 3SM BR BKN006 OVC012 M05/M06 A2997 RMK SF5SC3 REFZRA SLP154

CYGK;2013-01-29 19:00;CYGK 291900Z 05010KT 3SM BR FEW004 OVC008 M04/M05 A2995 REFZRA RMK SF2SF6 SLP147

CYGK;2013-01-29 20:00;CYGK 292000Z 03008KT 3SM BR SCT008 OVC021 M03/M05 A2993 RMK SF4SC4 SLP142

CYGK;2013-01-29 20:39;CYGK 292039Z 04009KT 2 1/2SM -FZDZ BR SCT008 OVC015 M03/M04 A2992 RMK SF3ST5 PRESFR SLP138

CYGK;2013-01-29 21:00;CYGK 292100Z 04007KT 2 1/2SM -FZDZ FEW008 OVC015 M03/M04 A2991 RMK SF1ST7 SLP134

CYGK;2013-01-29 22:00;CYGK 292200Z 04008KT 2 1/2SM -FZDZ BR OVC014 M02/M03 A2988 RMK SC8 SLP125

CYGK;2013-01-29 22:33;CYGK 292233Z 05007KT 2SM -FZDZ BR OVC011 M02/M03 A2987 RMK SC8 SLP120

CYGK;2013-01-29 23:00;CYGK 292300Z 05007KT 2SM -FZDZ BR OVC009 M02/M03 A2987 RMK SC8 SLP121

CYGK;2013-01-29 23:36;CYGK 292336Z 05006KT 2 1/2SM BR OVC008 M02/M02 A2986 RMK SF8 REFZDZ SLP117

CYGK;2013-01-29 23:49;CYGK 292349Z 05008KT 1 1/2SM -FZDZ BR OVC008 M02/M02 A2985 RMK SF8 SLP114

CYGK;2013-01-30 00:00;CYGK 300000Z 06007KT 1 1/2SM -FZDZ BR OVC007 M01/M02 A2985 RMK SF8 SLP112

CYGK;2013-01-30 00:18;CYGK 300018Z 05006KT 1SM -FZDZ BR OVC005 M01/M01 A2985 RMK SF8 SLP112

CYGK;2013-01-30 01:00;CYGK 300100Z 06005KT 1SM -FZDZ BR OVC004 M01/M01 A2983 RMK SF8 SLP108

CYGK;2013-01-30 01:27;CYGK 300127Z 05003KT 1 1/2SM BR BKN003 OVC013 M00/M00 A2983 RMK SF7SC1 REFZDZ SLP107

CYGK;2013-01-30 02:00;CYGK 300200Z 11004KT 1SM BR OVC004 00/M00 A2981 RMK SF8 REFZDZ CIG RAG SLP101

CYGK;2013-01-30 02:30;CYGK 300230Z 13008KT 1SM -RA BR OVC003 02/01 A2979 RMK ST8 SLP092

CYGK;2013-01-30 02:51;CYGK 300251Z 15007KT 3/4SM -RA BR VV003 03/03 A2980 RMK FG8 SLP094

CYGK;2013-01-30 03:00;CYGK 300300Z 18006KT 1/2SM FG VV003 03/03 A2979 RMK FG8 SLP093

CYGK;2013-01-30 03:22;CYGK 300322Z 18006KT 3/8SM -RA FG VV002 03/03 A2979 RMK FG8 SLP091

CYGK;2013-01-30 03:52;CYGK 300352Z 17010G17KT 1/4SM -RA FG VV002 04/04 A2977 RMK DZ8 SLP085

CYGK;2013-01-30 04:00;CYGK 300400Z 17014KT 1/4SM -RA FG VV002 04/04 A2977 RMK FG8 LAST OBS/NEXT 301100 UTC SLP084

CYGK;2013-01-30 11:00;CYGK 301100Z 18012KT 10SM SCT150 OVC200 05/04 A2951 RMK AC4CS4 SLP995

CYGK;2013-01-30 12:00;CYGK 301200Z 17017G24KT 12SM FEW150 OVC200 06/05 A2947 RMK AC1CS7 SLP984

CYGK;2013-01-30 13:00;CYGK 301300Z 17014G21KT 12SM SCT150 OVC200 06/04 A2944 RMK AC3CS5 SLP975

CYGK;2013-01-30 14:00;CYGK 301400Z 17018KT 12SM FEW050 SCT090 BKN160 OVC250 06/04 A2941 RMK SC1AC2AC2CI3 PRESFR SLP964

CYGK;2013-01-30 15:00;CYGK 301500Z 16024G31KT 12SM BKN055 OVC160 06/05 A2937 RMK SC6AS2 SLP949

CYGK;2013-01-30 16:00;CYGK 301600Z 16023G30KT 10SM SCT058 BKN070 BKN100 OVC150 07/05 A2934 RMK CU4AC2AC1AC1 SLP939

CYGK;2013-01-30 16:24;CYGK 301624Z 16022G27KT 8SM -SHRA SCT060 BKN100 OVC150 07/05 A2934 RMK SC3AC2AS3 SLP937

CYGK;2013-01-30 17:00;CYGK 301700Z 17021G29KT 4SM -RA BR BKN040 OVC100 07/06 A2931 RMK SC5AC3 SLP929

CYGK;2013-01-30 18:00;CYGK 301800Z 16022G27KT 6SM BR SCT035 BKN120 OVC250 07/07 A2928 RMK SC3AC4CI1 SLP919

CYGK;2013-01-30 19:00;CYGK 301900Z 18014G19KT 15SM FEW035 BKN120 OVC250 08/07 A2926 RMK SC2AC3CI3 PRESRR SLP912

CYGK;2013-01-30 19:42;CYGK 301942Z 28009KT 210V280 5SM BR VCSH SCT007 BKN045 OVC120 08/07 A2931 RMK SF3SC3AC2 PRESRR SLP929

CYGK;2013-01-30 20:00;CYGK 302000Z 22008KT 6SM BR FEW007 SCT040 OVC100 09/08 A2929 RMK SF1SC3AC4 PRESFR SLP922 DENSITY ALT 400FT

CYGK;2013-01-30 21:00;CYGK 302100Z 23008G16KT 8SM FEW010 BKN045 OVC100 10/08 A2933 RMK SF1SC5AC2 PRESFR SLP933 DENSITY ALT 400FT

CYGK;2013-01-30 22:00;CYGK 302200Z 15006KT 8SM SCT043 OVC140 08/07 A2929 RMK SC3AC5 PRESFR SLP922

CYGK;2013-01-30 23:00;CYGK 302300Z 17008KT 8SM BKN041 OVC120 07/06 A2930 RMK SC5AC3 OBS TAKEN +09 SLP924

CYGK;2013-01-31 00:00;CYGK 310000Z 19008KT 10SM OVC040 08/08 A2929 RMK SC8 SLP921

CYGK;2013-01-31 01:00;CYGK 310100Z 16006KT 12SM SCT040 OVC120 06/05 A2924 RMK SC3AC5 PRESFR SLP903

CYGK;2013-01-31 02:00;CYGK 310200Z 16016KT 15SM FEW056 OVC160 07/06 A2919 RMK SC2AC6 SLP887

CYGK;2013-01-31 03:00;CYGK 310300Z 16018KT 15SM BKN059 OVC130 07/06 A2917 RMK SC5AC3 PRESFR SLP880

CYGK;2013-01-31 03:38;CYGK 310338Z 16014G21KT 15SM -RA OVC043 07/06 A2915 RMK SC8 SLP873

CYGK;2013-01-31 04:00;CYGK 310400Z 15017G25KT 12SM -RA OVC037 07/06 A2913 RMK SC8 LAST OBS/NEXT 311100UTC PRESFR SLP865

CYGK;2013-01-31 11:00;CYGK 311100Z 24025G34KT 15SM OVC012 03/01 A2902 RMK SC8 SLP828

CYGK;2013-01-31 11:26;CYGK 311126Z 24022G33KT 15SM SG BKN018 OVC070 02/M00 A2903 RMK SC5AC3 SLP831

CYGK;2013-01-31 12:00;CYGK 311200Z 23025G//KT 15SM -RA SCT010 OVC060 01/M00 A2906 RMK SC3SC5 WND ESTD WND ESTD PRESRR SLP843

CYGK;2013-01-31 12:28;CYGK 311228Z 25028G41KT 15SM VCSH FEW010 BKN045 02/M03 A2908 RMK SC1SC6 PRESRR SLP848

CYGK;2013-01-31 13:00;CYGK 311300Z 25026G42KT 15SM BKN040 01/M05 A2911 RMK SC6 PRESRR SLP862

CYGK;2013-01-31 14:00;CYGK 311400Z 26023G37KT 15SM VCSH SCT040 BKN060 00/M06 A2918 RMK CU3SC4 PRESRR SLP883

CYGK;2013-01-31 15:00;CYGK 311500Z 25023G32KT 15SM FEW040 BKN070 M00/M08 A2922 RMK CU1AC6 PRESRR SLP898

CYGK;2013-01-31 15:45;CYGK 311545Z 26021G33KT 15SM -SHSN BKN038 OVC070 M01/M08 A2925 RMK CU7AC1 TCU ASOCTD SLP908

CYGK;2013-01-31 16:00;CYGK 311600Z 25024G36KT 15SM -SHSN BKN040 BKN070 M01/M08 A2926 RMK CU6AC1 TCU EMBD SLP910

CYGK;2013-01-31 17:00;CYGK 311700Z 26017G33KT 15SM BKN040 BKN060 M01/M09 A2927 RMK CU5SC2 OCNL -SHSN SLP915

CYGK;2013-01-31 18:00;CYGK 311800Z 26024G40KT 15SM VCSH BKN050 M01/M10 A2930 RMK CU7 TCU EMBD SLP925

CYGK;2013-01-31 19:00;CYGK 311900Z 26024G37KT 15SM BKN060 M02/M11 A2934 RMK CU7 SLP937

CYGK;2013-01-31 20:00;CYGK 312000Z 25031G39KT 15SM VCSH BKN055 M02/M13 A2938 RMK CU7 PRESRR SLP951

CYGK;2013-01-31 21:00;CYGK 312100Z 28017G29KT 15SM VCSH BKN048 M03/M11 A2943 RMK CU6 PRESRR SLP970

CYGK;2013-01-31 22:00;CYGK 312200Z 27019G29KT 15SM VCSH SCT043 M05/M12 A2948 RMK CU3 SLP986

CYGK;2013-01-31 23:00;CYGK 312300Z 27014G29KT 15SM FEW055 M05/M12 A2952 RMK CU2 SLP001

CYGK;2013-02-01 00:00;CYGK 010000Z 28011G22KT 15SM FEW050 M06/M12 A2955 RMK CU1 SLP012

CYGK;2013-02-01 01:00;CYGK 010100Z 28010G17KT 15SM FEW048 M07/M12 A2957 RMK SC1 SLP018

CYGK;2013-02-01 02:00;CYGK 010200Z 29007KT 15SM SKC M07/M11 A2959 RMK SLP024

CYGK;2013-02-01 02:44;CYGK 010244Z 29008G16KT 15SM -SN SCT051 M07/M11 A2960 RMK SC4 SLP029

CYGK;2013-02-01 03:00;CYGK 010300Z 28010G18KT 12SM -SN BKN050 M07/M11 A2961 RMK SC6 SLP032

CYGK;2013-02-01 04:00;CYGK 010400Z 28008KT 15SM -SN FEW050 SCT110 M07/M12 A2962 RMK SC1AC2 LAST OBS/NEXT 011100 UTC SLP037

CYGK;2013-02-01 11:00;CYGK 011100Z 32007KT 15SM SCT100 M12/M17 A2977 RMK AC4 SLP086

CYGK;2013-02-01 12:00;CYGK 011200Z 31007KT 15SM FEW045 SCT070 BKN110 M12/M17 A2981 RMK SC2AC1AS4 SLP100

CYGK;2013-02-01 13:00;CYGK 011300Z 33010KT 15SM FEW045 BKN120 BKN250 M12/M17 A2985 RMK CF1AS5CI1 SLP115

CYGK;2013-02-01 14:00;CYGK 011400Z 30010KT 15SM SCT064 BKN120 BKN250 M12/M17 A2989 RMK SC4AC2CI1 TR CF SLP130

CYGK;2013-02-01 15:00;CYGK 011500Z 32008KT 15SM BKN050 BKN100 OVC250 M11/M17 A2993 RMK SC5AS2CI1 TR CF SLP142

CYGK;2013-02-01 16:00;CYGK 011600Z 31006KT 15SM FEW020 BKN050 OVC250 M10/M17 A2995 RMK SC1SC4CI3 SLP150

CYGK;2013-02-01 17:00;CYGK 011700Z 28008KT 15SM FEW040 BKN250 M09/M16 A2996 RMK SC2CI5 SLP152

CYGK;2013-02-01 18:00;CYGK 011800Z 28008KT 15SM FEW030 BKN250 M08/M15 A2996 RMK CF1CI5 SLP151

CYGK;2013-02-01 19:00;CYGK 011900Z 29012G22KT 15SM SCT035 BKN250 M07/M16 A2996 RMK CU4CI2 SLP154

CYGK;2013-02-01 20:00;CYGK 012000Z 27010G16KT 15SM VCSH BKN049 BKN250 M07/M16 A2997 RMK CU6CI1 SLP157

CYGK;2013-02-01 21:00;CYGK 012100Z 26016G23KT 15SM VCSH BKN045 BKN250 M08/M16 A2999 RMK CU5CI2 SLP162

CYGK;2013-02-01 22:00;CYGK 012200Z 28012G22KT 15SM VCSH BKN045 BKN250 M08/M17 A3002 RMK CU5CI2 SLP171

CYGK;2013-02-01 23:00;CYGK 012300Z 27010G18KT 15SM FEW035 BKN200 M09/M17 A3005 RMK SC2CI4 SLP184

CYGK;2013-02-02 00:00;CYGK 020000Z 27007KT 15SM FEW080 BKN200 M10/M17 A3009 RMK AC2CI4 SLP196

CYGK;2013-02-02 01:00;CYGK 020100Z 27010G16KT 15SM FEW030 SCT210 M11/M17 A3011 RMK SC1CI3 SLP205

CYGK;2013-02-02 02:00;CYGK 020200Z 28007G16KT FEW080 SCT250 M11/M18 A3013 RMK AC1CI2 SLP211

CYGK;2013-02-02 03:00;CYGK 020300Z 29008KT 15SM SKC M12/M19 A3015 RMK SLP217

CYGK;2013-02-02 04:00;CYGK 020400Z 27005KT 15SM FEW250 M12/M19 A3017 RMK CI2 LAST OBS/NEXT 021100 UTC SLP225

CYGK;2013-02-02 11:00;CYGK 021100Z 06004KT 350V060 2 1/2SM -SHSN OVC020TCU M11/M13 A3010 RMK SN4TCU4 SLP200

CYGK;2013-02-02 11:06;CYGK 021106Z 08006KT 1SM -SHSN VV004 M11/M13 A3010 RMK SN8 SLP199

CYGK;2013-02-02 11:29;CYGK 021129Z 01004KT 1 1/2SM -SHSN VV007 M11/M13 A3009 RMK SN8 SLP198

CYGK;2013-02-02 12:00;CYGK 021200Z 06006KT 1/2SM SHSN VV004 M11/M13 A3008 RMK SN8 /S01/ SLP194

CYGK;2013-02-02 12:31;CYGK 021231Z 05005KT 5/8SM -SHSN VV006 M11/M13 A3008 RESN RMK SN8 SLP193

CYGK;2013-02-02 12:39;CYGK 021239Z 08007KT 1SM -SHSN OVC015TCU M10/M12 A3007 RESN RMK SN6TCU2 SLP191

CYGK;2013-02-02 12:48;CYGK 021248Z 01003KT 320V080 2SM -SHSN OVC015TCU M10/M12 A3007 RESN RMK SN4TCU4 SLP191

CYGK;2013-02-02 13:02;CYGK 021302Z 34004KT 320V050 5/8SM -SHSN VV006 M10/M12 A3007 RMK SN8 SLP191

CYGK;2013-02-02 13:23;CYGK 021323Z 31006KT 1SM -SHSN VV009 M10/M12 A3008 RMK SN8 SLP192

CYGK;2013-02-02 13:32;CYGK 021332Z 32009KT 2SM -SHSN BKN020TCU OVC250 M10/M12 A3008 RMK SN2TCU5CI1 SLP194

CYGK;2013-02-02 13:44;CYGK 021344Z 33006KT 3SM -SHSN OVC020TCU M11/M13 A3009 RMK TCU8 SLP195

CYGK;2013-02-02 14:00;CYGK 021400Z 36004KT 10SM VCSH SCT020 BKN045 M11/M13 A3008 RMK CU3SC4 /S02/ SLP193

CYGK;2013-02-02 15:00;CYGK 021500Z 14002KT 12SM FEW020 OVC035 M09/ RMK CU1SC7 WND ESTD

CYGK;2013-02-02 15:10;CYGK 021510Z 00000KT 6SM -SHSN SCT020 OVC035 M09/M12 A3007 RMK CU3SC5 SLP190

CYGK;2013-02-02 16:00;CYGK 021600Z 24005KT 5SM -SHSN OVC028 M08/M12 A3006 RMK CU8 SLP187

CYGK;2013-02-02 17:00;CYGK 021700Z 23007KT 2SM -SHSN VV020 M08/M11 A3004 RMK SN8 SLP178

CYGK;2013-02-02 17:37;CYGK 021737Z 22007KT 1SM -SHSN VV009 M08/M11 A3003 RMK SN8 SLP174

CYGK;2013-02-02 18:00;CYGK 021800Z 22005KT 1 1/4SM -SHSN VV010 M08/M10 A3002 RMK SN8 SLP171

CYGK;2013-02-02 18:18;CYGK 021818Z 21005KT 1SM -SHSN VV009 M08/M10 A3001 RMK SN8 SLP168

CYGK;2013-02-02 19:00;CYGK 021900Z 22006KT 1SM -SHSN VV006 M08/M10 A2999 RMK SN8 /S01/ SLP164

CYGK;2013-02-02 19:27;CYGK 021927Z 23005KT 3/4SM -SHSN VV004 M08/M10 A2998 RMK SN8 SLP161

CYGK;2013-02-02 20:00;CYGK 022000Z 26002KT 3/4SM -SHSN VV005 M08/M10 A2998 RMK SN8 /S05/ SLP158

CYGK;2013-02-02 20:17;CYGK 022017Z 25002KT 1SM -SHSN VV006 M08/M10 A2998 RMK SN8 SLP159

CYGK;2013-02-02 21:00;CYGK 022100Z 24005KT 2 1/2SM -SHSN VV017 M08/M10 A2998 RMK SN8 SLP158

CYGK;2013-02-02 21:47;CYGK 022147Z 24004KT 4SM -SHSN FEW020 OVC040 M08/M10 A2997 RMK CF1SC7 SLP157

CYGK;2013-02-02 22:00;CYGK 022200Z 25004KT 5SM -SN OVC040 M08/M10 A2998 RMK SC8 SLP159

CYGK;2013-02-02 23:00;CYGK 022300Z 26002KT 12SM -SN FEW020 BKN075 OVC110 M08/M10 A2998 RMK CF1AC5AC2 SLP161

CYGK;2013-02-02 23:49;CYGK 022349Z 00000KT 15SM -SN FEW008 SCT080 OVC110 M10/M11 A2999 RMK SF1AC2AC5 SLP162

CYGK;2013-02-03 00:00;CYGK 030000Z 26002KT 15SM -SN FEW008 BKN080 OVC110 M10/M11 A2999 RMK SF1AC5AC2 SLP162

CYGK;2013-02-03 00:15;CYGK 030015Z 00000KT 15SM SCT075 BKN110 OVC200 M09/M10 A2999 RMK AC4AC3CS1 TR SF SLP163

CYGK;2013-02-03 01:00;CYGK 030100Z 00000KT 15SM BKN070 BKN110 OVC200 M09/M11 A2999 RMK AC5AC2CS1 SLP164

CYGK;2013-02-03 02:00;CYGK 030200Z 36002KT 12SM SCT080 OVC100 M10/M11 A2999 RMK AC3AC5 SLP164

CYGK;2013-02-03 03:00;CYGK 030300Z 05003KT 15SM FEW085 OVC100 M10/M12 A2999 RMK AC1AC7 SLP162

CYGK;2013-02-03 04:00;CYGK 030400Z 04003KT 15SM BKN080 OVC100 M11/M13 A2998 RMK AC5AC3 LAST OBS/NEXT 031100 UTC SLP161

CYGK;2013-02-03 11:00;CYGK 031100Z 02005KT 15SM -SHSN FEW025 OVC038 M09/M10 A2992 RMK SC1SC7 SLP139

CYGK;2013-02-03 11:37;CYGK 031137Z 02007KT 2SM -SHSN OVC015 M09/M11 A2992 RMK SN4CU4 VIS N 6 SLP139

CYGK;2013-02-03 12:00;CYGK 031200Z 01007KT 6SM -SHSN BKN020 OVC040 M10/M12 A2992 RMK CU6SC2 VIS LWR S SLP139

CYGK;2013-02-03 13:00;CYGK 031300Z 05008KT 8SM -SHSN SCT008 BKN015 BKN025 M11/M12 A2992 RMK SF3CU2SC2 VIS S 2 SLP138

CYGK;2013-02-03 13:07;CYGK 031307Z 05010KT 1SM -SHSN SCT005 BKN014 OVC020 M10/M12 A2991 RMK SF3CU4SC1 VIS NW-N 5 SLP137

CYGK;2013-02-03 13:11;CYGK 031311Z 05009KT 1/2SM SHSN VV004 M10/M12 A2991 RMK SN8 VIS N 1 SLP137

CYGK;2013-02-03 13:13;CYGK 031313Z 05010KT 1/4SM +SHSN VV003 M10/M12 A2991 RMK SN8 SLP137

CYGK;2013-02-03 13:17;CYGK 031317Z 05010KT 1/8SM +SHSN VV002 M10/M12 A2991 RMK SN8 SLP137

CYGK;2013-02-03 13:26;CYGK 031326Z 04009KT 3/8SM SHSN VV005 M10/M12 A2991 RESN RMK SN8 SLP137

CYGK;2013-02-03 13:37;CYGK 031337Z 04008KT 1/4SM +SHSN VV003 M10/M12 A2991 RMK SN8 SLP137

CYGK;2013-02-03 14:00;CYGK 031400Z 04009KT 1/8SM +SHSN VV003 M10/M11 A2991 RMK SN8 /S05/ SLP136

CYGK;2013-02-03 14:49;CYGK 031449Z 05008KT 3/8SM SHSN VV005 M09/M11 A2991 RESN RMK SN8 SLP134

CYGK;2013-02-03 15:00;CYGK 031500Z 06009KT 5/8SM -SHSN VV008 M09/M11 A2991 RESN RMK SN8 /S11/ SLP134

CYGK;2013-02-03 15:11;CYGK 031511Z 04009KT 1 1/2SM -SHSN VV008 M09/M11 A2990 RMK SN8 SLP133

CYGK;2013-02-03 15:16;CYGK 031516Z 04011KT 3/4SM -SHSN VV007 M09/M11 A2990 RMK SN8 SLP132

CYGK;2013-02-03 15:41;CYGK 031541Z 05010KT 1SM -SHSN VV010 M09/M11 A2990 RMK SN8 SLP132

CYGK;2013-02-03 16:00;CYGK 031600Z 05007KT 3/4SM -SHSN VV007 M09/M11 A2990 RMK SN8 /S13/ SLP131

CYGK;2013-02-03 17:00;CYGK 031700Z 08004KT 1/2SM SHSN VV006 M08/M10 A2987 RMK SN8 SLP123

CYGK;2013-02-03 17:12;CYGK 031712Z 07005KT 3/4SM -SHSN VV008 M08/M10 A2986 RESN RMK SN8 SLP120

CYGK;2013-02-03 17:21;CYGK 031721Z 08004KT 1SM -SHSN OVC010 M07/M10 A2986 RESN RMK SN6CU2 SLP119

CYGK;2013-02-03 17:41;CYGK 031741Z 09007KT 2SM -SHSN OVC010 M08/M10 A2985 RESN RMK SN2CU6 SLP115

CYGK;2013-02-03 17:46;CYGK 031746Z 09006KT 3SM -SHSN BKN010 OVC025 M07/M10 A2985 RESN RMK CU5SC3 VIS LWR W-N SLP114

CYGK;2013-02-03 18:00;CYGK 031800Z 09008KT 5SM -SHSN SCT010 OVC025 M08/M10 A2984 RESN RMK CU4SC4 /S14/ VIS LWR NW SLP112

CYGK;2013-02-03 19:00;CYGK 031900Z 07006KT 12SM -SHSN FEW010 BKN018 OVC033 M07/M09 A2981 RMK CF1CU5SC2 SLP102

CYGK;2013-02-03 20:00;CYGK 032000Z 09008KT 3SM -SHSN VV020 M06/M09 A2980 RMK SN8 SLP096

CYGK;2013-02-03 20:41;CYGK 032041Z 14005KT 1 1/2SM -SHSN OVC013 M06/M09 A2980 RMK SN6CU2 VIS SE 5 SLP098

CYGK;2013-02-03 20:44;CYGK 032044Z 18004KT 110V180 3/4SM -SHSN VV008 M06/M09 A2980 RMK SN8 VIS S3E 3 SLP098

CYGK;2013-02-03 20:48;CYGK 032048Z VRB02KT 3/8SM SHSN VV004 M06/M08 A2980 RMK SN8 SLP097

CYGK;2013-02-03 21:00;CYGK 032100Z 00000KT 3/8SM SHSN VV005 M07/M08 A2980 RMK SN8 /S01/ SLP096

CYGK;2013-02-03 21:30;CYGK 032130Z VRB02KT 3/4SM -SHSN BKN015 OVC100 M07/M08 A2980 RMK SN3CU4AC1 SLP096

CYGK;2013-02-03 22:00;CYGK 032200Z 35009KT 4SM -SHSN FEW008 BKN070 OVC230 M08/M10 A2979 RMK CU2AC5CI1 SLP095

CYGK;2013-02-03 22:44;CYGK 032244Z 36006KT 12SM SCT060 OVC130 M08/M10 A2979 RMK SC3AC5 TR CU SLP095

CYGK;2013-02-03 23:00;CYGK 032300Z 01007KT 15SM FEW060 OVC130 M08/M10 A2979 RMK SC1AC7 SLP095

CYGK;2013-02-04 00:00;CYGK 040000Z 35007KT 15SM FEW060 OVC120 M09/M11 A2980 RMK SC1AC7 SLP097

CYGK;2013-02-04 01:00;CYGK 040100Z 36005KT 15SM -SN SCT012 BKN060 OVC080 M09/M11 A2981 RMK SC4SC1AC3 SLP103

CYGK;2013-02-04 02:00;CYGK 040200Z 01004KT 10SM -SN OVC060 M09/M11 A2982 RMK SC8 SLP104

CYGK;2013-02-04 03:00;CYGK 040300Z 31005KT 10SM -SN SCT030 OVC140 M10/M11 A2982 RMK SC3AC5 SLP105

CYGK;2013-02-04 03:39;CYGK 040339Z 34005KT 12SM OVC140 M10/M12 A2982 RMK AC8 SLP103

CYGK;2013-02-04 04:00;CYGK 040400Z 34004KT 15SM SCT140 M11/M12 A2981 RMK AC4 LAST OBS/NEXT 041100 UTC SLP102

CYGK;2013-02-04 11:00;CYGK 041100Z 26006KT 15SM FEW080 M13/M15 A2985 RMK AC2 SC TR SLP114

CYGK;2013-02-04 12:00;CYGK 041200Z 27013KT 15SM FEW080 FEW160 M12/M14 A2986 RMK AC1AC1 SLP119

CYGK;2013-02-04 13:00;CYGK 041300Z 28011G16KT 15SM FEW160 FEW200 M12/M15 A2989 RMK AC1CI1 TR CU SC SLP128

CYGK;2013-02-04 14:00;CYGK 041400Z 29011G17KT 15SM FEW200 M11/M17 A2989 RMK CI1 TR AC SLP130

CYGK;2013-02-04 15:00;CYGK 041500Z 27011KT 15SM FEW200 M10/M18 A2990 RMK CI1 SC TR SLP133

CYGK;2013-02-04 16:00;CYGK 041600Z 28013G20KT 15SM FEW200 M09/M20 A2991 RMK CI2 SC TR SLP136

CYGK;2013-02-04 17:00;CYGK 041700Z 28014G19KT 15SM FEW200 M08/M19 A2990 RMK CI1 TR CU SLP132

CYGK;2013-02-04 18:00;CYGK 041800Z 29010G18KT 15SM FEW040 M08/M19 A2989 RMK CF1 AC TR SLP130

CYGK;2013-02-04 19:00;CYGK 041900Z 28013G22KT 15SM FEW040 M07/M18 A2988 RMK CU2 AC TR SLP127

CYGK;2013-02-04 20:00;CYGK 042000Z 28011G21KT 15SM DRSN FEW050 M07/M18 A2989 RMK SC2 TR CF AC SLP129

CYGK;2013-02-04 21:00;CYGK 042100Z 29012G19KT 15SM DRSN FEW040 M07/M18 A2990 RMK CU2 CU ASOCTD. TR AC SLP133

CYGK;2013-02-04 22:00;CYGK 042200Z 27008KT 15SM DRSN FEW050 M08/M18 A2990 RMK CU1 SLP132

CYGK;2013-02-04 23:00;CYGK 042300Z 27008KT 15SM FEW050 M10/M18 A2991 RMK CU1 SLP135

CYGK;2013-02-05 00:00;CYGK 050000Z 27008KT 15SM SKC M10/M18 A2992 RMK SLP139

CYGK;2013-02-05 01:00;CYGK 050100Z 30008KT 15SM SKC M11/M19 A2993 RMK SLP141

CYGK;2013-02-05 02:00;CYGK 050200Z 32007KT 15SM SKC M12/M19 A2993 RMK TR CU S SLP145

CYGK;2013-02-05 03:00;CYGK 050300Z 34009KT 15SM SKC M14/M20 A2994 RMK TR CU S SLP146

CYGK;2013-02-05 04:00;CYGK 050400Z 35007KT 15SM FEW200 M15/M20 A2994 RMK CI2 SLP146

CYGK;2013-02-05 11:00;CYGK 051100Z 06005KT 15SM OVC047 M15/M22 A2998 RMK SC8 SLP162

CYGK;2013-02-05 12:00;CYGK 051200Z 06004KT 15SM BKN049 M15/M21 A2999 RMK CU5 CI TR SLP163

CYGK;2013-02-05 13:00;CYGK 051300Z 07004KT 15SM FEW049 M17/M21 A3000 RMK SC2 CI TR SLP168

CYGK;2013-02-05 14:00;CYGK 051400Z 09005KT 15SM SCT048 M14/M20 A3001 RMK SC3 SLP168

CYGK;2013-02-05 15:00;CYGK 051500Z 13006KT 15SM BKN050 M12/M20 A3002 RMK SC7 SLP172

CYGK;2013-02-05 16:00;CYGK 051600Z 12004KT 15SM BKN051 BKN220 M12/M19 A3001 RMK SC6CI1 CF TR SLP169

CYGK;2013-02-05 17:00;CYGK 051700Z 00000KT 15SM FEW025 FEW050 BKN230 M11/M18 A2998 RMK CU1SC1CI5 SLP161

CYGK;2013-02-05 18:00;CYGK 051800Z 11004KT 15SM BKN150 BKN200 M09/M18 A2995 RMK AS5CI2 TR CU SC SLP150

CYGK;2013-02-05 19:00;CYGK 051900Z 12004KT 15SM BKN120 BKN220 M08/M17 A2992 RMK AS5CI2 SLP140

CYGK;2013-02-05 20:00;CYGK 052000Z 10005KT 15SM BKN100 BKN200 M08/M17 A2991 RMK AS5CI2 TR SC SLP135

CYGK;2013-02-05 21:00;CYGK 052100Z 09005KT 15SM SCT080 OVC100 M08/M16 A2990 RMK AC4AS4 TR SC SLP131

CYGK;2013-02-05 22:00;CYGK 052200Z 08005KT 15SM FEW030 BKN080 OVC100 M08/M16 A2988 RMK SC1AC4AS3 SLP124

CYGK;2013-02-05 23:00;CYGK 052300Z 05003KT 15SM FEW030 OVC076 M07/M15 A2988 RMK SC2AS6 SLP124

CYGK;2013-02-06 00:00;CYGK 060000Z 07004KT 15SM FEW030 OVC080 M08/M14 A2988 RMK SC2AS6 SLP125

CYGK;2013-02-06 01:00;CYGK 060100Z 06004KT 15SM SCT080 OVC095 M07/M14 A2987 RMK AC4AC4 SLP123

CYGK;2013-02-06 02:00;CYGK 060200Z 07003KT 15SM BKN028 OVC085 M07/M13 A2987 RMK SC5AC3 SLP122

CYGK;2013-02-06 02:30;CYGK 060230Z 10006KT 15SM -SN BKN026 BKN042 M07/M13 A2987 RMK CU5SC2 SLP121

CYGK;2013-02-06 03:00;CYGK 060300Z 11008KT 10SM -SN SCT028 BKN042 OVC070 M07/M13 A2986 RMK CU4SC2AC2 SLP118

CYGK;2013-02-06 04:00;CYGK 060400Z 10006KT 10SM -SN SCT025 OVC100 M07/M11 A2985 RMK CU4AC4 LAST OBS/NEXT 061100 UTC SLP113

CYGK;2013-02-06 11:00;CYGK 061100Z 27012G19KT 10SM -SN OVC056 M04/M07 A2990 RMK SC8 SLP132

CYGK;2013-02-06 12:00;CYGK 061200Z 29009KT 6SM -SN SCT018 BKN038 M04/M07 A2995 RMK SC3SC4 SLP148

CYGK;2013-02-06 12:21;CYGK 061221Z 29009G16KT 12SM VCSH FEW018 SCT040 M04/M09 A2996 RMK CU2SC1 SLP152

CYGK;2013-02-06 13:00;CYGK 061300Z 29011G16KT 15SM FEW026 SCT044 M05/M10 A2999 RMK CU2SC1 SLP162

CYGK;2013-02-06 14:00;CYGK 061400Z 27011G16KT 15SM FEW025 FEW044 M05/M12 A3004 RMK CU1SC1 TR CI SLP179

CYGK;2013-02-06 15:00;CYGK 061500Z 30014G20KT 15SM FEW030 M06/M13 A3008 RMK CU1 CI TR SLP191

CYGK;2013-02-06 16:00;CYGK 061600Z 31014KT 15SM FEW035 M06/M14 A3012 RMK CU1 SLP207

CYGK;2013-02-06 17:00;CYGK 061700Z 33016KT 15SM FEW035 M06/M18 A3015 RMK CU1 SLP215

CYGK;2013-02-06 18:00;CYGK 061800Z 33011G17KT 15SM SKC M07/M19 A3018 RMK TR CF CI SLP225

CYGK;2013-02-06 19:00;CYGK 061900Z 32012KT 15SM SKC M07/M19 A3019 RMK TR CI SLP231

CYGK;2013-02-06 20:00;CYGK 062000Z 26010G15KT 15SM BKN110 M06/M20 A3022 RMK AC6 SLP238

CYGK;2013-02-06 21:00;CYGK 062100Z 30007KT 15SM BKN110 M07/M20 A3025 RMK AC7 SLP250

CYGK;2013-02-06 22:00;CYGK 062200Z 28008KT 15SM BKN110 M07/M20 A3027 RMK AC7 SLP258

CYGK;2013-02-06 23:00;CYGK 062300Z 27005KT 15SM BKN110 M08/M20 A3030 RMK AC7 SLP266

CYGK;2013-02-07 00:00;CYGK 070000Z 27005KT 15SM BKN100 M09/M20 A3032 RMK AC7 SLP276

CYGK;2013-02-07 01:00;CYGK 070100Z 26006KT 15SM FEW100 M09/M19 A3036 RMK AC1 SLP286

CYGK;2013-02-07 02:00;CYGK 070200Z 27007KT 15SM SKC M11/M21 A3039 RMK SLP297

CYGK;2013-02-07 03:00;CYGK 070300Z 29004KT 15SM SKC M12/M21 A3040 RMK SLP301

CYGK;2013-02-07 04:00;CYGK 070400Z 33007KT 15SM BKN065 M11/M21 A3039 RMK SC7 LAST OBS/NEXT 071100 UTC PRESFR SLP298

CYGK;2013-02-07 11:00;CYGK 071100Z 06009KT 15SM BKN045 OVC140 M14/M20 A3048 RMK SC6AC2 SLP331

CYGK;2013-02-07 12:00;CYGK 071200Z 05012KT 15SM FEW045 SCT070 BKN130 M14/M20 A3050 RMK SC2AC2AC3 SLP336

CYGK;2013-02-07 13:00;CYGK 071300Z 05011KT 15SM BKN100 OVC120 M14/M20 A3052 RMK AC5AC3 SLP343

CYGK;2013-02-07 14:00;CYGK 071400Z 05011KT 15SM SCT095 OVC120 M15/M21 A3055 RMK AC3AC5 TR SC SLP352

CYGK;2013-02-07 15:00;CYGK 071500Z 06012KT 15SM SCT060 OVC100 M14/M20 A3053 RMK SC3AC5 SLP347

CYGK;2013-02-07 15:51;CYGK 071551Z 06013KT 15SM BKN040 OVC090 M13/M19 A3054 RMK SC6AC2 SLP349

CYGK;2013-02-07 16:00;CYGK 071600Z 05011G16KT 15SM -SN BKN035 OVC090 M13/M19 A3053 RMK SC7AC1 SLP348

CYGK;2013-02-07 17:00;CYGK 071700Z 05013KT 15SM -SN OVC045 M13/M19 A3050 RMK SC8 SLP335

CYGK;2013-02-07 18:00;CYGK 071800Z 06013KT 15SM -SN OVC040 M12/M18 A3046 RMK SC8 SLP324

CYGK;2013-02-07 19:00;CYGK 071900Z 04012KT 15SM -SN DRSN OVC058 M11/M18 A3043 RMK SC8 SLP314

CYGK;2013-02-07 19:38;CYGK 071938Z 04010G18KT 15SM OVC055 M11/M18 A3042 RMK SC8 SLP310

CYGK;2013-02-07 20:00;CYGK 072000Z 05017KT 15SM DRSN OVC056 M11/M18 A3041 RMK SC8 SLP305

CYGK;2013-02-07 21:00;CYGK 072100Z 04014G22KT 15SM DRSN BKN060 OVC090 M11/M18 A3039 RMK SC5AC3 SLP300

CYGK;2013-02-07 22:00;CYGK 072200Z 04013KT 15SM DRSN BKN045 OVC090 M11/M18 A3038 RMK SC6AC2 SLP295

CYGK;2013-02-07 23:00;CYGK 072300Z 04014G21KT 15SM DRSN BKN060 OVC100 M12/M18 A3038 RMK SC5AC3 SLP295

CYGK;2013-02-07 23:44;CYGK 072344Z 04015G21KT 15SM -SN DRSN BKN063 OVC100 M12/M18 A3037 RMK SC6AC2 SLP292

CYGK;2013-02-08 00:00;CYGK 080000Z 05015G21KT 15SM -SN DRSN BKN058 OVC100 M13/M18 A3036 RMK SC6AC2 SLP290

CYGK;2013-02-08 01:00;CYGK 080100Z 04020KT 15SM -SN DRSN BKN055 OVC080 M13/M18 A3035 RMK SC6AC2 SLP284

CYGK;2013-02-08 02:00;CYGK 080200Z 04017G23KT 10SM -SN DRSN BKN050 OVC065 M14/M17 A3032 RMK SC5NS3 SLP277

CYGK;2013-02-08 03:00;CYGK 080300Z 04015G21KT 15SM -SN DRSN BKN027 OVC070 M14/M17 A3031 RMK SC5NS3 SLP271

CYGK;2013-02-08 04:00;CYGK 080400Z 04013G21KT 4SM -SN DRSN BKN022 OVC050 M14/M17 A3027 RMK SC5NS3 LAST OBS/NEXT 081100 UTC SLP259

CYGK;2013-02-08 11:00;CYGK 081100Z 04015G23KT 1 3/4SM -SN VV015 M14/M16 A3011 RMK SN8 /S05/ SLP206

CYGK;2013-02-08 12:00;CYGK 081200Z 04016KT 1 1/4SM -SN VV010 M14/M16 A3010 RMK SN8 SLP200

CYGK;2013-02-08 13:00;CYGK 081300Z CCA 04017G24KT 1 1/4SM -SN DRSN VV010 M14/M16 A3009 RMK SN8 SLP198

CYGK;2013-02-08 14:00;CYGK 081400Z 04019KT 1 1/2SM -SN DRSN VV015 M13/M16 A3007 RMK SN8 SLP191

CYGK;2013-02-08 14:12;CYGK 081412Z 04015G24KT 1SM -SN BLSN VV010 M13/M16 A3006 RMK SN8 SLP188

CYGK;2013-02-08 14:31;CYGK 081431Z 04017G25KT 3/4SM -SN BLSN VV009 M13/M16 A3005 RMK SN8 SLP185

CYGK;2013-02-08 15:00;CYGK 081500Z 04018G25KT 3/4SM -SN BLSN VV009 M13/M16 A3005 RMK SN8 SLP185

CYGK;2013-02-08 15:29;CYGK 081529Z 04016G23KT 1SM -SN BLSN VV010 M13/M16 A3004 RMK SN8 VIS VRB 3/4-13/4 SLP182

CYGK;2013-02-08 16:00;CYGK 081600Z 03017G26KT 1SM -SN BLSN VV012 M13/M15 A3003 RMK SN8 VIS VRB 3/4-11/4 SLP177

CYGK;2013-02-08 17:00;CYGK 081700Z 03018G25KT 1SM -SN BLSN VV015 M12/M15 A2999 RMK SN8 VIS VRB 3/4 - 1 1/4 SLP163

CYGK;2013-02-08 17:36;CYGK 081736Z 03015G23KT 3/4SM -SN BLSN VV010 M12/M15 A2997 RMK SN8 CIG VRB 7-13 VIS VRB 1/2-1 SLP157

CYGK;2013-02-08 18:00;CYGK 081800Z 03016G23KT 1/2SM -SN BLSN VV010 M12/M15 A2996 RMK SN8 CIG VRB 7-13 VIS VRB 1/4-3/4 /S04/ SLP155

CYGK;2013-02-08 19:00;CYGK 081900Z 02017G24KT 1/4SM SN BLSN VV003 M12/M15 A2994 RMK SN8 /S01/ SLP148

CYGK;2013-02-08 20:00;CYGK 082000Z 04014G24KT 1/4SM SN BLSN VV003 M12/M14 A2994 RMK SN8 /S02/ SLP146

CYGK;2013-02-08 21:00;CYGK 082100Z 04015G23KT 1/4SM SN BLSN VV003 M12/M14 A2993 RMK SN8 /S04/ SLP145

CYGK;2013-02-08 22:00;CYGK 082200Z 04017G26KT 3/8SM SN BLSN VV003 M12/M14 A2994 RMK SN8 /S05/ SLP147

CYGK;2013-02-08 22:25;CYGK 082225Z 03015G25KT 1/2SM -SN BLSN VV004 M12/M14 A2994 RMK SN8 SLP147

CYGK;2013-02-08 23:00;CYGK 082300Z 03017G25KT 1/2SM -SN BLSN VV006 M12/M14 A2995 RMK SN8 /S06/ SLP149

CYGK;2013-02-08 23:15;CYGK 082315Z 03016G28KT 1SM -SN BLSN VV006 M11/M14 A2995 RMK SN8 SLP149

CYGK;2013-02-08 23:40;CYGK 082340Z 03018G26KT 1 1/2SM -SN BLSN VV012 M11/M14 A2996 RMK SN8 SLP152

CYGK;2013-02-09 00:00;CYGK 090000Z 03016G24KT 1 3/4SM -SN BLSN VV011 M11/M14 A2996 RMK SN8 SLP155

CYGK;2013-02-09 00:06;CYGK 090006Z 02016G26KT 1 1/4SM -SN BLSN VV009 M11/M14 A2996 RMK SN8 SLP155

CYGK;2013-02-09 01:00;CYGK 090100Z 02016G24KT 1 1/2SM -SN BLSN VV008 M11/M13 A2999 RMK SN8 /S01/ SLP163

CYGK;2013-02-09 02:00;CYGK 090200Z 02017G24KT 1 1/4SM -SN BLSN VV007 M10/M13 A3001 RMK SN8 SLP171

CYGK;2013-02-09 03:00;CYGK 090300Z 02014G25KT 1 3/4SM -SN BLSN VV009 M10/M12 A3003 RMK SN8 /S02/ SLP176

CYGK;2013-02-09 03:13;CYGK 090313Z 02018G24KT 2 1/2SM -SN BLSN VV012 M10/M12 A3003 RMK SN8 SLP177

CYGK;2013-02-09 03:36;CYGK 090336Z 02016G22KT 4SM -SN BLSN VV016 M10/M12 A3004 RMK SN8 SLP180

CYGK;2013-02-09 04:00;CYGK 090400Z 02017G25KT 4SM -SN BLSN OVC045 M10/M12 A3005 RMK SN6NS2 LAST OBS/NEXT 091100 UTC SLP183

CYGK;2013-02-09 11:00;CYGK 091100Z 35010KT 15SM FEW020 BKN060 M12/M15 A3024 RMK SC2SC3 SLP249

CYGK;2013-02-09 12:00;CYGK 091200Z 34010KT 15SM FEW020 SCT250 M13/M16 A3027 RMK SC1CI3 SLP259

CYGK;2013-02-09 13:00;CYGK 091300Z 34008KT 15SM SCT250 M14/M16 A3031 RMK CI3 TR SC SLP271

CYGK;2013-02-09 14:00;CYGK 091400Z 35011KT 15SM FEW250 M12/M16 A3032 RMK CI1 TR CF DSTNT S SLP274

CYGK;2013-02-09 15:00;CYGK 091500Z 35013KT 15SM FEW250 M10/M15 A3033 RMK CI1 SLP278

CYGK;2013-02-09 16:00;CYGK 091600Z 34006KT 15SM SKC M09/M15 A3035 RMK TR CI SLP282

CYGK;2013-02-09 17:00;CYGK 091700Z 34007KT 15SM SKC M07/M14 A3034 RMK SLP281

CYGK;2013-02-09 18:00;CYGK 091800Z 31008KT 15SM SKC M06/M13 A3034 RMK SLP280

CYGK;2013-02-09 19:00;CYGK 091900Z 32008KT 15SM FEW250 M05/M14 A3032 RMK CI1 SLP276

CYGK;2013-02-09 20:00;CYGK 092000Z 32009KT 15SM FEW250 M04/M15 A3033 RMK CI1 TR CF S SLP277

CYGK;2013-02-09 21:00;CYGK 092100Z 33007KT 15SM FEW250 M05/M15 A3033 RMK CI1 TR CF SLP278

CYGK;2013-02-09 22:00;CYGK 092200Z 31006KT 15SM FEW250 M04/M16 A3035 RMK CI1 TR CF SLP283

CYGK;2013-02-09 23:00;CYGK 092300Z 24006KT 15SM SKC M08/M13 A3036 RMK TR CF CI SLP288

CYGK;2013-02-10 00:00;CYGK 100000Z 28005KT 15SM SKC M09/M14 A3038 RMK SLP295

CYGK;2013-02-10 01:00;CYGK 100100Z 01004KT 15SM SKC M09/M13 A3039 RMK SLP298

CYGK;2013-02-10 02:00;CYGK 100200Z 02002KT 15SM SKC M13/M15 A3040 RMK SLP302

CYGK;2013-02-10 03:00;CYGK 100300Z 00000KT 15SM SKC M14/M16 A3040 RMK SLP304

CYGK;2013-02-10 04:00;CYGK 100400Z 36002KT 15SM FEW200 M17/M19 A3041 RMK CI1 LAST OBS/NEXT 101100 UTC SLP307

CYGK;2013-02-10 11:00;CYGK 101100Z 04005KT 15SM SKC M21/M24 A3041 RMK SLP307

CYGK;2013-02-10 12:00;CYGK 101200Z 05005KT 15SM SKC M20/M22 A3041 RMK TR CF S TR CI SLP306

CYGK;2013-02-10 13:00;CYGK 101300Z 06005KT 15SM FEW002 SCT100 BKN250 M17/M19 A3042 RMK SF2AC1CI2 SLP311

CYGK;2013-02-10 13:08;CYGK 101308Z 06005KT 15SM OVC003 M17/M19 A3043 RMK SF8 VIS S 5 SLP312

CYGK;2013-02-10 13:22;CYGK 101322Z 06005KT 15SM OVC002 M16/M19 A3043 RMK SF8 VIS SW 4 SLP314

CYGK;2013-02-10 14:00;CYGK 101400Z 09005KT 3SM BR OVC002 M13/M14 A3045 RMK SF8 SLP318

CYGK;2013-02-10 14:27;CYGK 101427Z 07006KT 2 1/2SM BR SCT002 OVC004 M12/M14 A3043 RMK SF4ST4 SLP314

CYGK;2013-02-10 14:43;CYGK 101443Z 10005KT 5SM BR OVC003 M11/M12 A3044 RMK SF8 SLP317

CYGK;2013-02-10 15:00;CYGK 101500Z 09007KT 6SM BR OVC003 M10/M11 A3043 RMK SF8 VIS SE 15 SLP313

CYGK;2013-02-10 15:11;CYGK 101511Z 09008KT 8SM OVC004 M10/M11 A3042 RMK SF8 SLP311

CYGK;2013-02-10 16:00;CYGK 101600Z 11008KT 10SM OVC004 M08/M10 A3042 RMK ST8 SLP310

CYGK;2013-02-10 16:34;CYGK 101634Z 13007KT 12SM OVC005 M06/M09 A3041 RMK ST8 SLP305

CYGK;2013-02-10 17:00;CYGK 101700Z 12006KT 15SM OVC005 M06/M07 A3039 RMK SF8 SLP299

CYGK;2013-02-10 17:20;CYGK 101720Z 13007KT 15SM OVC008 M05/M07 A3037 RMK SC8 SLP293

CYGK;2013-02-10 17:50;CYGK 101750Z 12005KT 15SM OVC010 M04/M07 A3036 RMK SC8 SLP289

CYGK;2013-02-10 18:00;CYGK 101800Z 12004KT 15SM BKN010 M04/M07 A3036 RMK SC7 TR AC SLP287

CYGK;2013-02-10 18:17;CYGK 101817Z 12006KT 15SM SCT010 BKN140 BKN250 M04/M07 A3035 RMK SC3AC3CI1 SLP283

CYGK;2013-02-10 19:00;CYGK 101900Z 13004KT 15SM FEW010 BKN150 BKN250 M03/M07 A3034 RMK CF1AC4CI2 SLP281

CYGK;2013-02-10 20:00;CYGK 102000Z 07007KT 15SM BKN150 BKN250 M03/M09 A3030 RMK AC5CI1 SLP269

CYGK;2013-02-10 21:00;CYGK 102100Z 07009KT 15SM FEW160 BKN250 M03/M13 A3027 RMK AC2CI3 PRESFR SLP259

CYGK;2013-02-10 22:00;CYGK 102200Z 06007KT 15SM FEW150 SCT250 M04/M14 A3025 RMK AC2CI2 SLP253

CYGK;2013-02-10 23:00;CYGK 102300Z 05009KT 15SM SCT110 M05/M14 A3023 RMK AC4 SLP244

CYGK;2013-02-11 00:00;CYGK 110000Z 06008KT 15SM SCT110 M05/M15 A3021 RMK AC4 SLP238

CYGK;2013-02-11 01:00;CYGK 110100Z 05008KT 15SM FEW120 SCT250 M05/M15 A3017 RMK AC2CI2 SLP226

CYGK;2013-02-11 02:00;CYGK 110200Z 05010KT 15SM SCT120 BKN250 M06/M15 A3015 RMK AC3CI2 SLP216

CYGK;2013-02-11 03:00;CYGK 110300Z 05005KT 15SM FEW120 OVC250 M06/M15 A3013 RMK AC2CI6 SLP208

CYGK;2013-02-11 04:00;CYGK 110400Z 05006KT 15SM OVC120 M05/M14 A3009 RMK AC8 LAST OBS/NEXT 111100 UTC SLP194

CYGK;2013-02-11 11:00;CYGK 111100Z 15016KT 15SM SCT070 OVC100 01/M05 A2982 RMK AC3AC5 PRESFR SLP103

CYGK;2013-02-11 11:16;CYGK 111116Z 15015G20KT 15SM -RA BKN050 OVC080 01/M05 A2982 RMK SC5AC3 SLP102

CYGK;2013-02-11 12:00;CYGK 111200Z 16012KT 15SM SCT030 OVC050 01/M04 A2981 RMK SC4SC4 PRESFR SLP100

CYGK;2013-02-11 12:09;CYGK 111209Z 17011KT 8SM -SN OVC027 01/M04 A2982 RMK SC8 SLP102

CYGK;2013-02-11 12:45;CYGK 111245Z 17013KT 1SM -SHSN OVC020 00/M02 A2980 RMK SC8 SLP094

CYGK;2013-02-11 13:00;CYGK 111300Z 17010KT 3/4SM -SHSN DRSN SCT008TCU OVC015 M00/M01 A2980 RMK TCU4SC4 SLP096

CYGK;2013-02-11 13:14;CYGK 111314Z 16012KT 2 1/2SM -SHSN DRSN SCT008TCU OVC012 M00/M01 A2980 RMK TCU3SC5 SLP094

CYGK;2013-02-11 13:30;CYGK 111330Z 16013KT 5SM -PL DRSN BKN007 OVC013 M00/M01 A2979 RMK ST6SC2 SLP091

CYGK;2013-02-11 13:47;CYGK 111347Z 16014KT 6SM -RA BR BKN008 OVC013 00/M01 A2977 RMK SF7SC1 PRESFR SLP085

CYGK;2013-02-11 14:00;CYGK 111400Z 16014KT 6SM -RA BR OVC008 00/M01 A2977 RMK SF8 SLP085

CYGK;2013-02-11 14:34;CYGK 111434Z 16015G21KT 4SM BR OVC007 00/M00 A2975 RMK SF8 SLP080

CYGK;2013-02-11 14:50;CYGK 111450Z 16013KT 3SM BR OVC005 00/M00 A2974 RMK SF8 SLP076

CYGK;2013-02-11 15:00;CYGK 111500Z 15013KT 6SM BR OVC006 01/M00 A2973 RMK SF8 VIS N 3 PRESFR SLP072

CYGK;2013-02-11 15:17;CYGK 111517Z 15013KT 8SM SCT006 OVC021 01/M00 A2971 RMK SF4SC4 PRESFR SLP066

CYGK;2013-02-11 16:00;CYGK 111600Z 16010KT 10SM FEW006 OVC021 01/M00 A2970 RMK SF2SC6 SLP061

CYGK;2013-02-11 17:00;CYGK 111700Z 17012KT 15SM OVC022 01/00 A2965 RMK SC8 TR CF 007 SLP046

CYGK;2013-02-11 17:42;CYGK 111742Z 17016G22KT 15SM -SHRAPL BKN025TCU OVC040 02/00 A2961 RMK TCU6SC2 SLP032

CYGK;2013-02-11 18:00;CYGK 111800Z 17014G21KT 15SM -SHRA BKN025TCU OVC040 02/01 A2960 RMK TCU5SC3 SLP027

CYGK;2013-02-11 18:04;CYGK 111804Z 17014G21KT 15SM SCT025TCU BKN035 02/01 A2959 RMK TCU3SC3 TR CF 008 SLP025

CYGK;2013-02-11 19:00;CYGK 111900Z 17014G21KT 15SM FEW025TCU BKN036 02/01 A2956 RMK TCU1SC6 SLP015

CYGK;2013-02-11 19:13;CYGK 111913Z 23013KT 160V230 15SM -SHRA BKN021TCU OVC040 02/01 A2957 RMK TCU5SC3 SLP018

CYGK;2013-02-11 20:00;CYGK 112000Z 20004KT 12SM -SHRA BKN020 OVC040 03/02 A2957 RMK CU7SC1 SLP017

CYGK;2013-02-11 21:00;CYGK 112100Z 21014G20KT 15SM -SHRA FEW020 OVC045 04/02 A2957 RMK CU2SC6 SLP018

CYGK;2013-02-11 22:00;CYGK 112200Z 23021G28KT 15SM SCT045 BKN100 BKN250 04/M01 A2957 RMK SC3AC2CI1 SLP015

CYGK;2013-02-11 23:00;CYGK 112300Z 23026G36KT 15SM FEW030 SCT040 BKN200 03/M02 A2958 RMK SC2SC2CI3 SLP021

CYGK;2013-02-11 23:41;CYGK 112341Z 24022G31KT 12SM -SHSN BKN024 OVC200 02/M01 A2960 RMK SC6CI2 SLP028

CYGK;2013-02-12 00:00;CYGK 120000Z 24018G29KT 12SM -SHSN OVC022 02/M01 A2961 RMK SC8 SLP032

CYGK;2013-02-12 00:42;CYGK 120042Z 24016G25KT 12SM -SHSN OVC013 01/M00 A2963 RMK SC8 SLP039

CYGK;2013-02-12 01:00;CYGK 120100Z 24016KT 12SM -SHSN OVC015 01/M01 A2964 RMK SC8 SLP041

CYGK;2013-02-12 02:00;CYGK 120200Z 24015G26KT 12SM -SHSN OVC017 01/M01 A2965 RMK SC8 SLP043

CYGK;2013-02-12 03:00;CYGK 120300Z 23015KT 15SM OVC022 02/M01 A2964 RMK SC8 SLP040

CYGK;2013-02-12 04:00;CYGK 120400Z 23016G26KT 15SM OVC023 02/M02 A2962 RMK SC8 LAST OBS/NEXT 121100 UTC SLP035

CYGK;2013-02-12 11:00;CYGK 121100Z 26014G26KT 15SM -SN FEW020 OVC050 02/M03 A2968 RMK SC2SC6 SLP054

CYGK;2013-02-12 11:34;CYGK 121134Z 26019G29KT 15SM FEW025 OVC050 01/M04 A2969 RMK SC2SC6 SLP059

CYGK;2013-02-12 12:00;CYGK 121200Z 26016G24KT 15SM SCT025 BKN040 OVC080 01/M04 A2971 RMK SC3SC4AC1 SLP064

CYGK;2013-02-12 13:00;CYGK 121300Z 26014G24KT 15SM OVC025 01/M03 A2974 RMK SC8 SLP076

CYGK;2013-02-12 14:00;CYGK 121400Z 26021G29KT 15SM OVC024 01/M03 A2977 RMK SC8 SLP085

CYGK;2013-02-12 15:00;CYGK 121500Z 26019G27KT 15SM OVC020 01/M03 A2980 RMK SC8 SLP095

CYGK;2013-02-12 16:00;CYGK 121600Z 27020G28KT 15SM OVC022 01/M04 A2983 RMK SC8 SLP103

CYGK;2013-02-12 17:00;CYGK 121700Z 27012G27KT 15SM OVC025 01/M04 A2983 RMK SC8 SLP103

CYGK;2013-02-12 18:00;CYGK 121800Z 26019KT 15SM BKN030 OVC062 01/M05 A2983 RMK SC7SC1 SLP107

CYGK;2013-02-12 19:00;CYGK 121900Z 27016G25KT 15SM BKN033 OVC062 01/M05 A2983 RMK SC7SC1 SLP107

CYGK;2013-02-12 20:00;CYGK 122000Z 27015G24KT 15SM BKN036 BKN080 01/M06 A2983 RMK SC6AC1 SLP104

CYGK;2013-02-12 21:00;CYGK 122100Z 25008G15KT 15SM OVC035 01/M04 A2982 RMK SC8 SLP103

CYGK;2013-02-12 22:00;CYGK 122200Z 26006KT 15SM OVC040 01/M05 A2983 RMK SC8 SLP104

CYGK;2013-02-12 23:00;CYGK 122300Z 27010KT 15SM OVC045 00/M06 A2985 RMK SC8 SLP113

CYGK;2013-02-13 00:00;CYGK 130000Z 26009KT 15SM OVC048 00/M06 A2988 RMK SC8 SLP121

CYGK;2013-02-13 01:00;CYGK 130100Z 24011KT 15SM OVC050 M00/M04 A2990 RMK SC8 SLP130

CYGK;2013-02-13 02:00;CYGK 130200Z 24011KT 15SM OVC030 M00/M04 A2991 RMK SC8 SLP133

CYGK;2013-02-13 03:00;CYGK 130300Z 25010KT 15SM BKN035 OVC080 M00/M05 A2990 RMK SC6AC2 SLP128

CYGK;2013-02-13 04:00;CYGK 130400Z 25010G16KT 15SM OVC035 M00/M05 A2988 RMK SC8 LAST OBS/NEXT 131100 UTC SLP121

CYGK;2013-02-13 11:00;CYGK 131100Z 26005KT 15SM -SN FEW035 OVC051 M01/M05 A2985 RMK SC2SC6 PCPN VRY LGT SLP112

CYGK;2013-02-13 11:53;CYGK 131153Z 23004KT 15SM OVC044 M01/M04 A2985 RMK SC8 SLP113

CYGK;2013-02-13 12:00;CYGK 131200Z 26003KT 15SM OVC043 M01/M04 A2985 RMK SC8 SLP112

CYGK;2013-02-13 12:51;CYGK 131251Z 25003KT 15SM -SN OVC041 M02/M05 A2985 RMK SC8 SLP113

CYGK;2013-02-13 13:00;CYGK 131300Z 25003KT 15SM -SN OVC041 M01/M05 A2985 RMK SC8 SLP113

CYGK;2013-02-13 14:00;CYGK 131400Z 22004KT 12SM -SN OVC045 M01/M04 A2985 RMK SC8 SLP112

CYGK;2013-02-13 15:00;CYGK 131500Z 22005KT 15SM -SN BKN053 M01/M05 A2983 RMK SC7 SLP107

CYGK;2013-02-13 15:34;CYGK 131534Z 20004KT 15SM FEW025 BKN055 M01/M05 A2983 RMK CU1SC6 SLP106

CYGK;2013-02-13 16:00;CYGK 131600Z 20006KT 15SM FEW028 BKN048 M00/M05 A2983 RMK CU2SC5 SLP104

CYGK;2013-02-13 17:00;CYGK 131700Z 17007KT 15SM FEW030 OVC046 M00/M05 A2980 RMK CU1SC7 SLP097

CYGK;2013-02-13 18:00;CYGK 131800Z 19008KT 15SM OVC048 00/M06 A2979 RMK SC8 CF TR SLP091

CYGK;2013-02-13 19:00;CYGK 131900Z 19009KT 15SM OVC048 M00/M05 A2978 RMK SC8 SH SW SLP088

CYGK;2013-02-13 20:00;CYGK 132000Z 20010KT 15SM -SHSN OVC032 M00/M05 A2978 RMK SC8 SLP088

CYGK;2013-02-13 20:39;CYGK 132039Z 19005KT 15SM BKN035 OVC048 M01/M05 A2977 RMK SC6SC2 SLP085

CYGK;2013-02-13 21:00;CYGK 132100Z 18004KT 15SM SCT035 BKN047 M01/M04 A2977 RMK SC4SC3 SLP084

CYGK;2013-02-13 22:00;CYGK 132200Z 19005KT 15SM BKN040 OVC100 M01/M04 A2977 RMK SC7AC1 SLP086

CYGK;2013-02-13 23:00;CYGK 132300Z 22002KT 15SM BKN040 M01/M03 A2976 RMK SC7 SLP082

CYGK;2013-02-14 00:00;CYGK 140000Z 00000KT 15SM SCT039 M02/M04 A2976 RMK SC3 SLP081

CYGK;2013-02-14 01:00;CYGK 140100Z 00000KT 15SM SKC M05/M06 A2977 RMK SLP084

CYGK;2013-02-14 02:00;CYGK 140200Z 00000KT 15SM SKC M04/M04 A2977 RMK SLP086

CYGK;2013-02-14 03:00;CYGK 140300Z 00000KT 10SM MIFG SKC M05/M06 A2978 RMK SLP088

CYGK;2013-02-14 04:00;CYGK 140400Z 33003KT 12SM FEW032 M06/M07 A2978 RMK SC1 LAST OBS/NEXT 141100 UTC SLP090

CYGK;2013-02-14 11:00;CYGK 141100Z 22002KT 15SM OVC037 M05/M07 A2986 RMK SC8 SLP116

CYGK;2013-02-14 12:00;CYGK 141200Z 30005KT 15SM BKN042 M04/M07 A2988 RMK SC7 SLP123

CYGK;2013-02-14 13:00;CYGK 141300Z 25003KT 15SM FEW041 M05/M08 A2990 RMK SC2 SLP132

CYGK;2013-02-14 14:00;CYGK 141400Z 00000KT 15SM FEW042 FEW250 M04/M07 A2992 RMK SC1CI1 SLP136

CYGK;2013-02-14 15:00;CYGK 141500Z 20004KT 15SM FEW140 SCT250 M03/M06 A2992 RMK AC2CI2 SLP136

CYGK;2013-02-14 16:00;CYGK 141600Z 18004KT 15SM SCT110 BKN220 M01/M05 A2992 RMK AC4CI2 CF TR SLP136

CYGK;2013-02-14 17:00;CYGK 141700Z 17005KT 15SM BKN110 BKN220 M00/M04 A2991 RMK AC5CI2 CF TR SLP134

CYGK;2013-02-14 18:00;CYGK 141800Z 13005KT 12SM BKN027 OVC110 M00/M03 A2989 RMK SC6AC2 SLP127

CYGK;2013-02-14 19:00;CYGK 141900Z 16007KT 15SM OVC023 M00/M02 A2988 RMK SC8 SLP122

CYGK;2013-02-14 20:00;CYGK 142000Z 15007KT 10SM BKN022 OVC100 00/M02 A2986 RMK SC6AC2 SLP118

CYGK;2013-02-14 21:00;CYGK 142100Z 15007KT 10SM FEW022 BKN075 OVC100 00/M03 A2987 RMK SC1AC5AS2 VIRGA SLP120

CYGK;2013-02-14 22:00;CYGK 142200Z 16005KT 10SM SCT060 OVC090 M00/M03 A2986 RMK SC4AS4 VIRGA SLP118

CYGK;2013-02-14 22:34;CYGK 142234Z 15004KT 10SM -SN OVC026 M00/M02 A2987 RMK NS8 SLP119

CYGK;2013-02-14 23:00;CYGK 142300Z 14005KT 8SM -SN OVC038 00/M03 A2986 RMK NS8 SLP118

CYGK;2013-02-14 23:33;CYGK 142333Z 15008KT 2SM -SN OVC022 00/M02 A2986 RMK SN2NS6 SLP118

CYGK;2013-02-14 23:41;CYGK 142341Z 16007KT 1 1/2SM -SN OVC020 M00/M01 A2986 RMK SN2NS6 SLP118

CYGK;2013-02-15 00:00;CYGK 150000Z 14006KT 1 1/2SM -SN OVC020 M00/M01 A2986 RMK SN4NS4 SLP116

CYGK;2013-02-15 00:31;CYGK 150031Z 12005KT 3SM -SN OVC035 M00/M01 A2985 RMK NS8 SLP115

CYGK;2013-02-15 01:00;CYGK 150100Z 10005KT 5SM -SN OVC035 M00/M01 A2985 RMK NS8 SLP112

CYGK;2013-02-15 01:28;CYGK 150128Z 12007KT 2 1/2SM -SN OVC018 00/M01 A2984 RMK NS8 SLP110

CYGK;2013-02-15 01:41;CYGK 150141Z 13008KT 2 1/2SM -SN BKN009 OVC018 00/M01 A2984 RMK SF5NS3 SLP108

CYGK;2013-02-15 01:51;CYGK 150151Z 13007KT 3SM -SN BKN006 OVC014 00/M01 A2984 RMK SF5NS3 SLP108

CYGK;2013-02-15 02:00;CYGK 150200Z 13007KT 3SM -SN SCT006 OVC012 00/M01 A2983 RMK SF4NS4 SLP107

CYGK;2013-02-15 02:09;CYGK 150209Z 14007KT 2SM -SN BKN006 OVC010 00/M01 A2983 RMK SF5NS3 SLP106

CYGK;2013-02-15 02:17;CYGK 150217Z 14008KT 2SM -SN OVC004 00/M00 A2983 RMK SF8 SLP106

CYGK;2013-02-15 02:30;CYGK 150230Z 14009KT 1 1/2SM -SN OVC003 00/M00 A2983 RMK SN2SF6 SLP104

CYGK;2013-02-15 03:00;CYGK 150300Z 16010KT 1 1/4SM -SN OVC002 00/M00 A2981 RMK SN2SF6 SLP100

CYGK;2013-02-15 03:32;CYGK 150332Z 16013KT 1SM -SN OVC002 00/M00 A2980 RMK SN6SF2 SLP096

CYGK;2013-02-15 04:00;CYGK 150400Z 17013KT 1 1/2SM -SN OVC002 00/00 A2979 RMK SN4SF4 LAST OBS/NEXT 151100 UTC SLP093

CYGK;2013-02-15 11:00;CYGK 151100Z 21018G23KT 15SM BKN033 OVC052 02/M01 A2975 RMK SC6SC2 SLP079

CYGK;2013-02-15 12:00;CYGK 151200Z 21020KT 15SM BKN027 OVC050 02/M01 A2976 RMK SC7SC1 SLP082

CYGK;2013-02-15 13:00;CYGK 151300Z 22022G29KT 15SM OVC022 02/M01 A2978 RMK SC8 SLP087

CYGK;2013-02-15 14:00;CYGK 151400Z 23020G30KT 15SM FEW019 BKN043 BKN120 02/M03 A2981 RMK SC2SC4AC1 SLP098

CYGK;2013-02-15 15:00;CYGK 151500Z 24021G30KT 15SM BKN025 OVC045 01/M03 A2984 RMK SC6SC2 SLP108

CYGK;2013-02-15 16:00;CYGK 151600Z 24018G27KT 15SM BKN022 BKN037 01/M03 A2987 RMK SC5SC2 SLP118

CYGK;2013-02-15 17:00;CYGK 151700Z 24019G28KT 15SM OVC028 01/M04 A2988 RMK SC8 SLP121

CYGK;2013-02-15 18:00;CYGK 151800Z 24017G29KT 15SM BKN033 01/M04 A2988 RMK SC7 SLP124

CYGK;2013-02-15 19:00;CYGK 151900Z 24019G28KT 15SM FEW030 BKN038 01/M05 A2990 RMK CU1SC6 SLP129

CYGK;2013-02-15 20:00;CYGK 152000Z 24016G23KT 15SM FEW030 FEW040 01/M05 A2991 RMK CF1SC1 AC TR SLP134

CYGK;2013-02-15 21:00;CYGK 152100Z 24019G28KT 15SM BKN030 M00/M06 A2993 RMK SC5 SLP138

CYGK;2013-02-15 22:00;CYGK 152200Z 24016G24KT 15SM BKN040 M01/M07 A2995 RMK SC6 SLP145

CYGK;2013-02-15 23:00;CYGK 152300Z 23013KT 15SM SCT040 M02/M07 A2997 RMK SC3 SLP153

CYGK;2013-02-16 00:00;CYGK 160000Z 25011KT 15SM FEW045 M02/M08 A2999 RMK SC2 SLP160

CYGK;2013-02-16 01:00;CYGK 160100Z 28008KT 15SM FEW045 M03/M08 A2999 RMK SC1 SLP162

CYGK;2013-02-16 02:00;CYGK 160200Z 28005KT 15SM FEW050 M04/M08 A3001 RMK SC2 SLP167

CYGK;2013-02-16 03:00;CYGK 160300Z 28008KT 15SM OVC050 M03/M09 A3001 RMK SC8 SLP167

CYGK;2013-02-16 04:00;CYGK 160400Z 30011G16KT 15SM OVC052 M04/M10 A3002 RMK SC8 LAST OBS/NEXT 161000 UTC SLP170

CYGK;2013-02-16 11:00;CYGK 161100Z 34006KT 15SM SKC M13/M15 A3006 RMK SLP184

CYGK;2013-02-16 12:00;CYGK 161200Z 33005KT 15SM FEW250 M14/M16 A3007 RMK CI1 SLP189

CYGK;2013-02-16 13:00;CYGK 161300Z 36005KT 15SM FEW030 FEW250 M14/M16 A3009 RMK SC1CI1 SLP196

CYGK;2013-02-16 14:00;CYGK 161400Z 05007KT 15SM FEW250 M11/M14 A3009 RMK CI1 TR SC TR AC SLP195

CYGK;2013-02-16 15:00;CYGK 161500Z 07005KT 15SM FEW060 FEW250 M09/M14 A3008 RMK SC1CI1 SLP193

CYGK;2013-02-16 16:00;CYGK 161600Z 05004KT 15SM FEW060 M08/M14 A3007 RMK SC1 TR CF TR CI SLP189

CYGK;2013-02-16 17:00;CYGK 161700Z 00000KT 15SM FEW060 FEW250 M07/M14 A3006 RMK SC1CI1 SLP186

CYGK;2013-02-16 18:00;CYGK 161800Z 00000KT 15SM FEW050 SCT250 M06/M15 A3004 RMK SC2CI1 SLP179

CYGK;2013-02-16 19:00;CYGK 161900Z 00000KT 15SM FEW050 SCT250 M05/M14 A3002 RMK SC2CI1 SLP172

CYGK;2013-02-16 20:00;CYGK 162000Z 19004KT 15SM FEW250 M05/M13 A3000 RMK CI1 TR SC SLP166

CYGK;2013-02-16 21:00;CYGK 162100Z 12008KT 15SM FEW050 FEW250 M05/M13 A3000 RMK SC1CI1 SLP166

CYGK;2013-02-16 22:00;CYGK 162200Z 12008KT 15SM FEW050 M06/M14 A3001 RMK SC1 TR CI SLP170

CYGK;2013-02-16 23:00;CYGK 162300Z 10006KT 15SM FEW050 M07/M14 A3002 RMK SC1 TR CI SLP171

CYGK;2013-02-17 00:00;CYGK 170000Z 06002KT 15SM FEW045 M08/M14 A3003 RMK SC1 SLP176

CYGK;2013-02-17 01:00;CYGK 170100Z 04004KT 15SM SKC M11/M14 A3001 RMK SLP171

CYGK;2013-02-17 02:00;CYGK 170200Z 02005KT 15SM SKC M11/M15 A3001 RMK SLP169

CYGK;2013-02-17 03:00;CYGK 170300Z 04009KT 15SM SKC M10/M16 A2999 RMK SLP164

CYGK;2013-02-17 04:00;CYGK 170400Z 03008KT 15SM SKC M11/M17 A2998 RMK LAST OBS/ NEXT 171100 UTC SLP161

CYGK;2013-02-17 11:00;CYGK 171100Z 36008KT 15SM FEW250 M16/M20 A2996 RMK CI1 SLP155

CYGK;2013-02-17 12:00;CYGK 171200Z 35006KT 15SM FEW250 M17/M20 A2998 RMK CI1 SLP159

CYGK;2013-02-17 13:00;CYGK 171300Z 34008KT 15SM SKC M17/M20 A2999 RMK TR CI SLP162

CYGK;2013-02-17 14:00;CYGK 171400Z 33011KT 15SM SKC M16/M20 A2997 RMK TR CI SLP158

CYGK;2013-02-17 15:00;CYGK 171500Z 36013KT 15SM FEW250 M14/M20 A2997 RMK CI1 TR CF SOUTH SLP156

CYGK;2013-02-17 16:00;CYGK 171600Z 32012KT 15SM SKC M13/M20 A2996 RMK TR CF S TR CI E SLP153

CYGK;2013-02-17 17:00;CYGK 171700Z 31009G20KT 15SM FEW250 M12/M19 A2994 RMK CI1 CF TR SLP147

CYGK;2013-02-17 18:00;CYGK 171800Z 32012G20KT 15SM FEW250 M11/M19 A2992 RMK CI1 TR CF S SLP141

CYGK;2013-02-17 19:00;CYGK 171900Z 33012KT 15SM SKC M10/M19 A2993 RMK TR CF TR CI SLP143

CYGK;2013-02-17 20:00;CYGK 172000Z 32010G20KT 15SM FEW030 M10/M18 A2994 RMK CU1 CI TR SLP146

CYGK;2013-02-17 21:00;CYGK 172100Z 31013KT 15SM FEW040 M10/M19 A2995 RMK CU1 TR CI SLP150

CYGK;2013-02-17 22:00;CYGK 172200Z 32011KT 15SM FEW040 M10/M19 A2996 RMK SC1 SLP154

CYGK;2013-02-17 23:00;CYGK 172300Z 31008KT 15SM FEW230 M11/M20 A2999 RMK CI1 TR SC SLP162

CYGK;2013-02-18 00:00;CYGK 180000Z 30006KT 15SM SKC M12/M20 A3001 RMK SLP171

CYGK;2013-02-18 01:00;CYGK 180100Z 30006KT 15SM SKC M13/M20 A3004 RMK SLP181

CYGK;2013-02-18 02:00;CYGK 180200Z 32011G16KT 15SM SKC M13/M21 A3007 RMK SLP191

CYGK;2013-02-18 03:00;CYGK 180300Z 32011G20KT 15SM SKC M14/M21 A3009 RMK SLP199

CYGK;2013-02-18 04:00;CYGK 180400Z 31011KT 15SM SKC M15/M21 A3011 RMK LAST OBS/NEXT 181100 UTC SLP203

CYGK;2013-02-18 11:00;CYGK 181100Z 26004KT 15SM SKC M18/M22 A3025 RMK SLP252

CYGK;2013-02-18 12:00;CYGK 181200Z 28006KT 15SM SKC M18/M22 A3026 RMK SLP255

CYGK;2013-02-18 13:00;CYGK 181300Z 27007KT 15SM SKC M17/M21 A3027 RMK SLP261

CYGK;2013-02-18 14:00;CYGK 181400Z 27005KT 15SM SKC M15/M20 A3029 RMK SLP265

CYGK;2013-02-18 15:00;CYGK 181500Z 20004KT 15SM SKC M13/M18 A3028 RMK SLP262

CYGK;2013-02-18 16:00;CYGK 181600Z 22006KT 15SM SKC M12/M18 A3027 RMK TR CI SLP260

CYGK;2013-02-18 17:00;CYGK 181700Z 21005KT 15SM FEW250 M11/M17 A3025 RMK CI1 SC TR SLP253

CYGK;2013-02-18 18:00;CYGK 181800Z 21006KT 15SM FEW250 M09/M16 A3024 RMK CI1 SLP248

CYGK;2013-02-18 19:00;CYGK 181900Z 18006KT 15SM FEW250 M08/M15 A3022 RMK CI1 SLP241

CYGK;2013-02-18 20:00;CYGK 182000Z 18005KT 15SM FEW250 M08/M14 A3020 RMK CI2 TR SC AC SLP236

CYGK;2013-02-18 21:00;CYGK 182100Z 16006KT 15SM FEW150 SCT250 M08/M13 A3019 RMK AC1CI2 SLP231

CYGK;2013-02-18 22:00;CYGK 182200Z 19006KT 15SM BKN130 M07/M12 A3018 RMK AC7 SC TR SLP229

CYGK;2013-02-18 23:00;CYGK 182300Z 14008KT 15SM SCT084 BKN130 M07/M11 A3016 RMK AC4AC3 SLP222

CYGK;2013-02-19 00:00;CYGK 190000Z 10006KT 15SM SCT081 BKN140 M07/M11 A3014 RMK AC3AC2 SLP213

CYGK;2013-02-19 01:00;CYGK 190100Z 10008KT 15SM FEW080 BKN100 M07/M12 A3011 RMK AC2AC4 SLP203

CYGK;2013-02-19 02:00;CYGK 190200Z 08009KT 15SM BKN150 M07/M13 A3007 RMK AC7 PRESFR SLP189

CYGK;2013-02-19 03:00;CYGK 190300Z 07008KT 15SM BKN140 BKN220 M07/M13 A3005 RMK AC6CI1 SLP182

CYGK;2013-02-19 04:00;CYGK 190400Z 06006KT 15SM BKN150 M08/M13 A3002 RMK AC7 LAST OBS/NEXT 191100 UTC SLP173

CYGK;2013-02-19 11:00;CYGK 191100Z 06010KT 15SM OVC080 M05/M10 A2981 RMK AC8 SLP101

CYGK;2013-02-19 12:00;CYGK 191200Z 06009KT 15SM SCT080 BKN210 M05/M10 A2977 RMK AC4CI3 SLP087

CYGK;2013-02-19 13:00;CYGK 191300Z 04010KT 15SM FEW080 BKN100 OVC210 M04/M10 A2975 RMK AC1AS5CI2 VIRGA W SLP080

CYGK;2013-02-19 14:00;CYGK 191400Z 06006KT 15SM FEW030 BKN120 BKN210 M03/M09 A2972 RMK SC1AC5CI1 SLP071

CYGK;2013-02-19 15:04;CYGK 191504Z 15007KT 1 1/2SM -SN OVC020 M01/M07 A2972 RMK SN6SC2 SLP068

CYGK;2013-02-19 15:13;CYGK 191513Z 15007KT 1SM -SN OVC019 M01/M05 A2971 RMK SN6SC2 SLP067

CYGK;2013-02-19 15:31;CYGK 191531Z 17013KT 1/2SM -FZRA SN VV006 M01/M03 A2970 RMK SN8 SLP062

CYGK;2013-02-19 16:00;CYGK 191600Z 16014KT 1/2SM SN OVC003 M01/M02 A2969 RMK SN6SF2 /S01/ SLP058

CYGK;2013-02-19 16:19;CYGK 191619Z 16016KT 1SM -SN VV005 M01/M02 A2967 RMK SN8 PRESFR SLP052

CYGK;2013-02-19 16:34;CYGK 191634Z 16016KT 2 1/4SM -SN OVC005 M01/M01 A2965 RMK SN3SF5 PRESFR SLP046

CYGK;2013-02-19 17:00;CYGK 191700Z 15020G25KT 2 1/2SM -SN SCT005 OVC018 00/M01 A2963 RMK SN2SF2CU4 PRESFR SLP038

CYGK;2013-02-19 17:16;CYGK 191716Z 15018G25KT 5SM -SN FEW005 OVC020 00/M01 A2961 RMK SF1SC7 PRESFR SLP033

CYGK;2013-02-19 18:00;CYGK 191800Z 16019KT 4SM -SN FEW007 OVC017 01/M01 A2959 RMK SF1SC7 VSBY N 2 SLP024

CYGK;2013-02-19 19:00;CYGK 191900Z 16017G23KT 5SM -RASN FEW010 OVC020 01/M00 A2957 RMK SF2CU6 SLP017

CYGK;2013-02-19 19:48;CYGK 191948Z 16019G25KT 10SM FEW010 OVC028 01/00 A2956 RMK SF1SC7 SLP013

CYGK;2013-02-19 20:00;CYGK 192000Z 16019KT 10SM FEW010 BKN028 OVC050 01/00 A2956 RMK SF1SC6SC1 SLP013

CYGK;2013-02-19 21:00;CYGK 192100Z 17017KT 4SM -RA BR OVC015 01/00 A2957 RMK CU8 SLP017

CYGK;2013-02-19 21:27;CYGK 192127Z 18018KT 3SM -RA BR OVC010 01/00 A2958 RMK CU8 SLP023

CYGK;2013-02-19 21:30;CYGK 192130Z 18020KT 2SM -RASN BR FEW005 OVC010 01/00 A2959 RMK SF2CU6 SLP023

CYGK;2013-02-19 22:00;CYGK 192200Z 23013G19KT 2SM -RASN BR SCT006 OVC010 01/01 A2960 RMK SF3CU5 SLP027

CYGK;2013-02-19 22:11;CYGK 192211Z 22016KT 10SM -RA FEW006 OVC012 01/00 A2960 RMK SF2CU6 SLP030

CYGK;2013-02-19 22:31;CYGK 192231Z 23019G28KT 12SM -RASN FEW005 BKN015 OVC060 01/M01 A2962 RMK SF1CU6SC1 SLP035

CYGK;2013-02-19 23:00;CYGK 192300Z 24023G36KT 15SM SCT025 BKN052 OVC250 01/M03 A2964 RMK SC4SC3CI1 SLP041

CYGK;2013-02-20 00:00;CYGK 200000Z 24017G28KT 15SM FEW025 SCT055 OVC190 M01/M04 A2965 RMK SC2SC2AC4 SLP046

CYGK;2013-02-20 01:00;CYGK 200100Z 24023G32KT 15SM FEW030 SCT190 M01/M06 A2965 RMK SC1AC2 SLP045

CYGK;2013-02-20 02:00;CYGK 200200Z 23020G29KT 15SM FEW035 BKN250 M01/M06 A2966 RMK SC1CI6 SLP049

CYGK;2013-02-20 03:00;CYGK 200300Z 23019G27KT 15SM -SN FEW025 OVC038 M01/M05 A2966 RMK SC1SC7 SLP048

CYGK;2013-02-20 04:00;CYGK 200400Z 24015G24KT 15SM -SN OVC020 M02/M05 A2966 RMK SC8 LAST OBS/NEXT 201100 UTC SLP050

CYGK;2013-02-20 11:00;CYGK 201100Z 26012G19KT 15SM OVC080 M05/M10 A2972 RMK AC8 SLP071

CYGK;2013-02-20 12:00;CYGK 201200Z 26012G18KT 15SM FEW020 BKN090 OVC250 M06/M10 A2975 RMK CF1AC5CI2 SH DIST S SLP078

CYGK;2013-02-20 13:00;CYGK 201300Z 26012KT 15SM FEW020 BKN080 BKN250 M06/M11 A2976 RMK CU1AC4CI2 SH DIST S SLP081

CYGK;2013-02-20 14:00;CYGK 201400Z 26013KT 15SM FEW020 SCT080 SCT110 BKN250 M05/M11 A2976 RMK CU1AC2AC1CI3 SHWRS DIST S SLP082

CYGK;2013-02-20 15:00;CYGK 201500Z 26012G20KT 15SM SCT026 SCT080 BKN250 M05/M11 A2976 RMK CU3AC1CI3 SH DIST S SLP083

CYGK;2013-02-20 16:00;CYGK 201600Z 27015KT 15SM BKN030 BKN250 M04/M11 A2977 RMK CU6CI1 SLP086

CYGK;2013-02-20 17:00;CYGK 201700Z 27018G24KT 15SM VCSH OVC038 M05/M12 A2978 RMK CU8 SLP088

CYGK;2013-02-20 17:16;CYGK 201716Z 26013G21KT 15SM -SHSN BKN035 M04/M11 A2978 RMK CU7 SLP088

CYGK;2013-02-20 18:00;CYGK 201800Z 25013G20KT 15SM -SHSN BKN034 OVC040 M04/M11 A2979 RMK CU6SC2 SLP092

CYGK;2013-02-20 20:00;CYGK 202000Z 26015G21KT 15SM -SHSN FEW020 OVC038 M04/M10 A2981 RMK CU2CU6 SLP099

CYGK;2013-02-20 21:00;CYGK 202100Z 26015G20KT 12SM -SHSN FEW025 BKN034 M04/M09 A2982 RMK CF2CU5 SLP103

CYGK;2013-02-20 22:00;CYGK 202200Z 25015G23KT 15SM BKN035 BKN140 BKN250 M04/M09 A2983 RMK SC5AC1CI1 SLP107

CYGK;2013-02-20 23:00;CYGK 202300Z 26018G25KT 15SM BKN030 BKN120 M05/M10 A2986 RMK SC6AC1 SLP116

CYGK;2013-02-21 00:00;CYGK 210000Z 27017G25KT 15SM BKN030 OVC120 M06/M12 A2989 RMK SC5AC3 SLP127

CYGK;2013-02-21 00:21;CYGK 210021Z 28020G27KT 15SM -SN SCT030 OVC120 M07/M12 A2990 RMK SC4AC4 SLP130

CYGK;2013-02-21 00:49;CYGK 210049Z 28014G21KT 15SM FEW030 SCT060 OVC130 M07/M13 A2991 RMK SC1SC2AC5 SLP133

CYGK;2013-02-21 01:00;CYGK 210100Z 27018G26KT 15SM FEW030 BKN060 OVC130 M07/M13 A2991 RMK SC1SC5AC2 SLP135

CYGK;2013-02-21 01:33;CYGK 210133Z 27014G28KT 15SM -SN BKN030 OVC060 M07/M13 A2993 RMK SC5SC3 SLP142

CYGK;2013-02-21 02:00;CYGK 210200Z 28013G24KT 15SM -SN FEW030 OVC055 M08/M13 A2993 RMK SC2SC6 SLP143

CYGK;2013-02-21 02:12;CYGK 210212Z 27016G22KT 3SM -SN VV013 M08/M12 A2994 RMK SN8 SLP145

CYGK;2013-02-21 02:30;CYGK 210230Z 28015G25KT 2 1/2SM -SN VV009 M08/M11 A2995 RMK SN8 SLP148

CYGK;2013-02-21 03:00;CYGK 210300Z 28013KT 4SM -SN DRSN BKN030 OVC080 M08/M11 A2995 RMK SC5AC3 SLP149

CYGK;2013-02-21 04:00;CYGK 210400Z 27012G19KT 15SM -SN OVC060 M08/M12 A2995 RMK SC8 LAST OBS/NEXT 211100 UTC SLP148

CYGK;2013-02-21 11:00;CYGK 211100Z 30006KT 15SM SKC M14/M20 A3009 RMK TR SC 020 DIST E TR CI SLP196

CYGK;2013-02-21 12:00;CYGK 211200Z 29005KT 15SM FEW020 BKN053 BKN130 BKN250 M15/M20 A3011 RMK CU1SC4AC1CI1 CU S OVR LK SLP202

CYGK;2013-02-21 13:00;CYGK 211300Z 28010KT 15SM SCT020 BKN050 BKN130 M15/M20 A3014 RMK SC4SC1AC2 TR CU S OVR LK TR CI SLP212

CYGK;2013-02-21 13:52;CYGK 211352Z 30011G17KT 12SM -SN FEW020 BKN040 BKN060 M14/M20 A3014 RMK SC1SC4SC2 SLP215

CYGK;2013-02-21 14:00;CYGK 211400Z 30009KT 12SM -SN FEW020 SCT040 BKN059 M14/M19 A3014 RMK SC1SC3SC3 VSBY NE 6 SLP215

CYGK;2013-02-21 15:00;CYGK 211500Z 29008KT 12SM -SN BKN032 OVC060 M12/M19 A3017 RMK CU6SC2 SLP224

CYGK;2013-02-21 16:00;CYGK 211600Z 29009KT 15SM VCSH FEW035 BKN078 M11/M18 A3019 RMK SC2AC5 SLP231

CYGK;2013-02-21 17:00;CYGK 211700Z 28009KT 15SM -SN OVC032 M10/M17 A3021 RMK SC8 SLP237

CYGK;2013-02-21 18:00;CYGK 211800Z 31008KT 15SM -SN BKN033 BKN050 M08/M15 A3020 RMK SC5SC1 SLP233

CYGK;2013-02-21 18:11;CYGK 211811Z 30009KT 15SM SCT033 M07/M14 A3019 RMK SC4 SLP232

CYGK;2013-02-21 19:00;CYGK 211900Z 34008KT 15SM FEW027 BKN058 M06/M13 A3019 RMK SC2SC4 SLP232

CYGK;2013-02-21 19:28;CYGK 211928Z 31010KT 12SM -SN SCT025 OVC035 M05/M13 A3021 RMK CU3SC5 SLP236

CYGK;2013-02-21 20:00;CYGK 212000Z 00000KT 15SM VCSH BKN030 M05/M12 A3022 RMK SC7 SLP240

CYGK;2013-02-21 21:00;CYGK 212100Z 34003KT 15SM BKN030 M04/M11 A3024 RMK SC7 SLP246

CYGK;2013-02-21 22:00;CYGK 212200Z 33004KT 15SM OVC028 M04/M11 A3027 RMK SC8 SLP257

CYGK;2013-02-21 23:00;CYGK 212300Z 27005KT 15SM OVC028 M04/M11 A3029 RMK SC8 SLP265

CYGK;2013-02-22 00:00;CYGK 220000Z 27006KT 15SM OVC028 M04/M11 A3030 RMK SC8 SLP269

CYGK;2013-02-22 01:00;CYGK 220100Z 25010KT 15SM OVC030 M05/M09 A3036 RMK SC8 PRESRR SLP288

CYGK;2013-02-22 02:00;CYGK 220200Z 28009KT 15SM OVC028 M05/M10 A3039 RMK SC8 SLP299

CYGK;2013-02-22 03:00;CYGK 220300Z 31006KT 15SM FEW030 M05/M10 A3039 RMK SC1 SLP297

CYGK;2013-02-22 04:00;CYGK 220400Z 32003KT 170V320 15SM BKN033 M06/M10 A3041 RMK SC6 LAST OBS/NEXT 221100 UTC SLP304

CYGK;2013-02-22 11:00;CYGK 221100Z 34005KT 15SM SCT012 OVC033 M08/M10 A3042 RMK SC3SC5 SLP308

CYGK;2013-02-22 12:00;CYGK 221200Z 03006KT 15SM FEW012 BKN032 M06/M09 A3041 RMK SC1SC6 SLP303

CYGK;2013-02-22 13:00;CYGK 221300Z 05008KT 15SM BKN028 BKN160 M06/M08 A3040 RMK SC6AS1 SLP302

CYGK;2013-02-22 14:00;CYGK 221400Z 06009KT 15SM SCT026 BKN160 BKN240 M05/M08 A3039 RMK SC4AS1CI2 SLP297

CYGK;2013-02-22 15:00;CYGK 221500Z 09005KT 15SM FEW025 SCT170 BKN220 M04/M08 A3039 RMK SC1AC3CI3 SLP296

CYGK;2013-02-22 16:00;CYGK 221600Z 08009KT 15SM SCT170 BKN200 M04/M08 A3037 RMK AC3CI4 PRESFR SLP290

CYGK;2013-02-22 17:00;CYGK 221700Z 07010KT 15SM FEW120 BKN180 M03/M07 A3031 RMK AC2AC5 SLP271

CYGK;2013-02-22 18:00;CYGK 221800Z 07008KT 15SM BKN150 OVC180 M02/M07 A3029 RMK AC5AC3 SLP263

CYGK;2013-02-22 19:00;CYGK 221900Z 07013KT 15SM OVC140 M01/M07 A3024 RMK AC8 SLP246

CYGK;2013-02-22 20:00;CYGK 222000Z 06014KT 15SM FEW080 BKN150 M01/M06 A3022 RMK AC1AC6 SLP238

CYGK;2013-02-22 21:00;CYGK 222100Z 07010KT 15SM FEW060 OVC100 M00/M06 A3021 RMK NS1AC7 SLP235

CYGK;2013-02-22 22:00;CYGK 222200Z 07008KT 15SM OVC080 M00/M05 A3019 RMK AC8 VIRGA SLP231

CYGK;2013-02-22 23:00;CYGK 222300Z 08009KT 15SM SCT042 OVC090 M00/M05 A3016 RMK SC4AC4 VIRGA SLP219

CYGK;2013-02-22 23:18;CYGK 222318Z 08008KT 15SM -SHSN BKN038 OVC090 00/M05 A3016 RMK SC7AC1 SLP220

CYGK;2013-02-23 00:00;CYGK 230000Z 08007KT 12SM -SHSN OVC033 00/M05 A3016 RMK SC8 SLP217

CYGK;2013-02-23 01:00;CYGK 230100Z 10007KT 12SM -SHSN OVC035 00/M04 A3014 RMK SC8 SLP211

CYGK;2013-02-23 02:00;CYGK 230200Z 13009KT 12SM -SHSN SCT028 OVC036 01/M04 A3013 RMK SC3SC5 SLP207

CYGK;2013-02-23 03:00;CYGK 230300Z 13011KT 15SM -SHSN OVC035 01/M03 A3011 RMK SC8 SLP203

CYGK;2013-02-23 04:00;CYGK 230400Z 13011G19KT 8SM -SHSN OVC032 00/M03 A3009 RMK SC8 LAST OBS/NEXT 231100 UTC SLP196

CYGK;2013-02-23 11:00;CYGK 231100Z 16013KT 8SM -SN OVC011 00/M02 A3001 RMK SC8 SLP166

CYGK;2013-02-23 11:17;CYGK 231117Z 16014KT 5SM -SN FEW007 OVC012 M00/M01 A3000 RMK SF2SC6 SLP164

CYGK;2013-02-23 12:00;CYGK 231200Z 16014KT 6SM -FZDZ -SN SCT006 OVC015 M00/M01 A3000 RMK SF3SC5 SLP163

CYGK;2013-02-23 12:15;CYGK 231215Z 16015KT 5SM -SN BKN006 OVC022 M00/M01 A3000 REFZDZ RMK SF5SC3 SLP163

CYGK;2013-02-23 13:00;CYGK 231300Z 15008KT 5SM -SN SCT007 OVC021 M00/M01 A3000 REFZDZ RMK SF4SC4 SLP163

CYGK;2013-02-23 14:00;CYGK 231400Z 17009KT 5SM -SN FEW007 OVC013 00/M01 A2999 RMK SF2SC6 SLP160

CYGK;2013-02-23 15:00;CYGK 231500Z 17011KT 1 1/2SM -SN OVC005 00/M01 A2997 RMK SF8 CIG RAG PRESFR SLP152

CYGK;2013-02-23 15:29;CYGK 231529Z 16010KT 2 1/2SM -SN OVC004 00/M00 A2995 RMK SF8 SLP147

CYGK;2013-02-23 16:00;CYGK 231600Z 17008KT 3SM -SN OVC003 00/M00 A2995 RMK SF8 VIS N 11/2 SLP146

CYGK;2013-02-23 16:42;CYGK 231642Z 18009KT 2 1/2SM -SN OVC003 00/M00 A2995 RMK SF8 SLP146

CYGK;2013-02-23 17:00;CYGK 231700Z 18008KT 2SM -SN BR OVC003 00/M00 A2995 RMK SF8 SLP145

CYGK;2013-02-23 17:21;CYGK 231721Z 18005KT 1 1/2SM -SN BR OVC003 00/M00 A2994 RMK SF8 SLP142

CYGK;2013-02-23 17:31;CYGK 231731Z 17006KT 1SM -SN BR OVC003 00/M00 A2994 RMK SF8 CIG RAG SLP142

CYGK;2013-02-23 18:00;CYGK 231800Z 17005KT 1 1/4SM -SN BR OVC003 00/M00 A2992 RMK SF8 CIG RAG SLP137

CYGK;2013-02-23 18:10;CYGK 231810Z 16004KT 1 1/2SM -SN BR OVC003 00/M00 A2992 RMK SF8 CIG RAG SLP136

CYGK;2013-02-23 18:34;CYGK 231834Z 16003KT 2 1/2SM BR OVC003 00/M00 A2992 RMK SF8 SLP136

CYGK;2013-02-23 19:00;CYGK 231900Z 17003KT 2SM BR OVC002 00/M00 A2991 RMK FG2SF6 SLP133

CYGK;2013-02-23 19:34;CYGK 231934Z 16004KT 3SM -SN BR SCT003 OVC008 00/M00 A2990 RMK SF4SC4 SLP129

CYGK;2013-02-23 19:43;CYGK 231943Z 17004KT 3SM -DZSG BR SCT003 OVC008 01/00 A2990 RMK SF4SC4 SLP130

CYGK;2013-02-23 20:00;CYGK 232000Z 16004KT 3SM -DZ BR SCT002 OVC007 00/M00 A2990 RMK SF3SC5 SLP129

CYGK;2013-02-23 20:10;CYGK 232010Z 18004KT 3SM -DZ BR BKN002 OVC007 01/00 A2990 RMK SF6SC2 SLP128

CYGK;2013-02-23 20:48;CYGK 232048Z 17004KT 3SM BR SCT002 BKN008 OVC022 01/00 A2989 RMK SF4SC1SC3 SLP126

CYGK;2013-02-23 21:00;CYGK 232100Z 15003KT 4SM BR BKN002 OVC010 01/00 A2989 RMK SF5SC3 SLP127

CYGK;2013-02-23 21:29;CYGK 232129Z 00000KT 5SM BR SCT002 OVC026 01/00 A2989 RMK SF4SC4 SLP125

CYGK;2013-02-23 21:43;CYGK 232143Z 17002KT 4SM BR BKN001 OVC025 01/00 A2988 RMK SF5SC3 SLP124

CYGK;2013-02-23 22:00;CYGK 232200Z 15002KT 4SM BR BKN001 BKN025 OVC034 01/00 A2988 RMK SF5SC1SC2 SLP123

CYGK;2013-02-23 23:00;CYGK 232300Z 18003KT 5SM BR BKN002 OVC042 01/01 A2988 RMK SF6SC2 SLP123

CYGK;2013-02-23 23:08;CYGK 232308Z 00000KT 6SM -SN BKN003 OVC042 01/01 A2988 RMK SF6SC2 SLP123

CYGK;2013-02-23 23:24;CYGK 232324Z 20002KT 8SM -SN SCT003 OVC042 01/01 A2988 RMK SF4SC4 SLP124

CYGK;2013-02-24 00:00;CYGK 240000Z 19002KT 10SM -SN FEW003 OVC045 01/00 A2988 RMK SF2SC6 SLP122

CYGK;2013-02-24 01:00;CYGK 240100Z 24005KT 6SM -RASN SCT006 BKN018 OVC025 01/01 A2989 RMK SF3SC2SC3 SLP125

CYGK;2013-02-24 02:00;CYGK 240200Z 25005KT 8SM -SN FEW005 OVC024 01/00 A2988 RMK SF2SC6 SLP124

CYGK;2013-02-24 03:00;CYGK 240300Z 24005KT 8SM -SN OVC030 01/M00 A2987 RMK SC8 SLP120

CYGK;2013-02-24 04:00;CYGK 240400Z 22005KT 10SM -SN OVC035 01/M01 A2986 RMK SC8 LAST OBS/NEXT 241100 UTC SLP117

CYGK;2013-02-24 11:00;CYGK 241100Z 21004KT 15SM OVC046 M02/M05 A2985 RMK SC8 SLP112

CYGK;2013-02-24 12:00;CYGK 241200Z 24003KT 12SM OVC047 M02/M05 A2985 RMK SC8 SLP112

CYGK;2013-02-24 13:00;CYGK 241300Z 22003KT 10SM OVC051 M02/M05 A2985 RMK SC8 SLP113

CYGK;2013-02-24 13:48;CYGK 241348Z 26002KT 10SM -SN OVC051 M01/M04 A2985 RMK SC8 SLP112

CYGK;2013-02-24 14:00;CYGK 241400Z 27004KT 10SM -SN OVC051 M01/M04 A2985 RMK SC8 SLP112

CYGK;2013-02-24 15:00;CYGK 241500Z 25005KT 10SM -SN OVC040 M01/M04 A2985 RMK SC8 SLP112

CYGK;2013-02-24 16:00;CYGK 241600Z 23005KT 10SM FEW040 OVC073 M00/M03 A2985 RMK SC2AC6 SLP112

CYGK;2013-02-24 16:47;CYGK 241647Z 24007KT 5SM -SN OVC020 00/M03 A2985 RMK SC8 SLP111

CYGK;2013-02-24 17:00;CYGK 241700Z 24007KT 5SM -SN BKN017 OVC073 00/M03 A2985 RMK SC5AC3 SLP112

CYGK;2013-02-24 17:34;CYGK 241734Z 25005KT 6SM BR BKN015 OVC075 01/M03 A2985 RMK SC5AS3 SLP112

CYGK;2013-02-24 18:00;CYGK 241800Z 21007KT 6SM BR BKN018 OVC075 00/M03 A2985 RMK SC5AS3 SLP112

CYGK;2013-02-24 18:44;CYGK 241844Z 23007KT 6SM -SN BR SCT020 OVC034 01/M03 A2985 RMK SC3SC5 SLP114

CYGK;2013-02-24 19:00;CYGK 241900Z 24008KT 6SM -SN BR BKN020 OVC035 01/M03 A2985 RMK SC5SC3 SLP114

CYGK;2013-02-24 19:40;CYGK 241940Z 27010KT 1 1/4SM -SN VV010 00/M02 A2986 RMK SN8 SLP116

CYGK;2013-02-24 20:00;CYGK 242000Z 24006KT 2 1/2SM -SN OVC020 00/M02 A2987 RMK SN4SC4 SLP118

CYGK;2013-02-24 20:20;CYGK 242020Z 23008KT 4SM -SN BKN020 OVC037 00/M02 A2987 RMK SC6SC2 SLP120

CYGK;2013-02-24 20:53;CYGK 242053Z 24010KT 2SM -SN OVC017 00/M02 A2988 RMK SC8 SLP123

CYGK;2013-02-24 21:00;CYGK 242100Z 25008KT 2 1/2SM -SN OVC017 00/M02 A2988 RMK SC8 SLP124

CYGK;2013-02-24 22:00;CYGK 242200Z 26006KT 3SM -SN BKN015 BKN035 OVC250 M00/M02 A2990 RMK SC6SC1CI1 SUN DIMLY VSBL SLP129

CYGK;2013-02-24 22:49;CYGK 242249Z 25007KT 15SM SCT040 BKN090 BKN250 M00/M03 A2991 RMK SC4AC2CI1 SLP134

CYGK;2013-02-24 23:00;CYGK 242300Z 25008KT 15SM FEW040 BKN088 OVC250 00/M03 A2992 RMK SC2AC5CI1 SLP136

CYGK;2013-02-25 00:00;CYGK 250000Z 25006KT 15SM SCT036 OVC084 00/M04 A2993 RMK SC3AC5 SLP142

CYGK;2013-02-25 00:29;CYGK 250029Z 23007KT 15SM -SN FEW030 BKN065 OVC080 M00/M02 A2995 RMK SC2SC3AC3 SLP146

CYGK;2013-02-25 01:00;CYGK 250100Z 25005KT 12SM -SN BKN040 OVC070 00/M03 A2995 RMK SC6AC2 SLP147

CYGK;2013-02-25 02:00;CYGK 250200Z 28007KT 15SM -SN FEW040 OVC080 00/M03 A2996 RMK SC2AC6 SLP152

CYGK;2013-02-25 02:13;CYGK 250213Z 28006KT 15SM OVC080 01/M03 A2997 RMK AC8 SLP153

CYGK;2013-02-25 03:00;CYGK 250300Z 30007KT 15SM OVC080 00/M03 A2997 RMK AC8 SLP152

CYGK;2013-02-25 03:52;CYGK 250352Z 31007KT 15SM -SN OVC071 00/M02 A2997 RMK AC8 SLP154

CYGK;2013-02-25 04:00;CYGK 250400Z 31007KT 15SM -SN OVC072 01/M02 A2997 RMK AC8 LAST OBS/NEXT 251100 UTC SLP154

CYGK;2013-02-25 11:00;CYGK 251100Z 32008KT 15SM OVC060 01/M02 A3009 RMK SC8 SLP195

CYGK;2013-02-25 12:00;CYGK 251200Z 31007KT 15SM OVC060 01/M02 A3011 RMK SC8 SLP199

CYGK;2013-02-25 13:00;CYGK 251300Z 31007KT 15SM OVC060 01/M02 A3012 RMK SC8 SLP205

CYGK;2013-02-25 14:00;CYGK 251400Z 34005KT 15SM OVC057 01/M02 A3013 RMK SC8 SLP208

CYGK;2013-02-25 15:00;CYGK 251500Z 28003KT 15SM OVC060 02/M02 A3015 RMK SC8 SLP215

CYGK;2013-02-25 16:00;CYGK 251600Z 36003KT 15SM FEW020 OVC060 03/M02 A3016 RMK SC1SC7 SLP217

CYGK;2013-02-25 17:00;CYGK 251700Z 23009KT 15SM FEW023 OVC063 02/M02 A3016 RMK SC2SC6 SLP218

CYGK;2013-02-25 18:00;CYGK 251800Z 23010KT 15SM FEW025 OVC055 02/M02 A3018 RMK CU2SC6 SLP224

CYGK;2013-02-25 19:00;CYGK 251900Z 22009KT 15SM FEW025 OVC064 02/M02 A3019 RMK CU1SC7 SLP226

CYGK;2013-02-25 20:00;CYGK 252000Z 20007KT 15SM FEW025 OVC063 02/M02 A3019 RMK CU1SC7 SLP226

CYGK;2013-02-25 21:00;CYGK 252100Z 22005KT 15SM OVC065 02/M02 A3019 RMK SC8 SLP229

CYGK;2013-02-25 22:00;CYGK 252200Z 23006KT 15SM SCT065 SCT220 02/M04 A3019 RMK SC3CI1 SLP229

CYGK;2013-02-25 23:00;CYGK 252300Z 21003KT 15SM FEW062 FEW220 00/M04 A3020 RMK SC1CI1 SLP231

CYGK;2013-02-26 00:00;CYGK 260000Z 22007KT 15SM FEW060 BKN200 M00/M04 A3022 RMK SC1CI4 SLP237

CYGK;2013-02-26 01:00;CYGK 260100Z 24005KT 15SM FEW060 BKN220 M01/M04 A3022 RMK SC2CI3 SLP238

CYGK;2013-02-26 02:00;CYGK 260200Z 21003KT 15SM FEW060 SCT220 M02/M04 A3022 RMK SC1CI3 SLP240

CYGK;2013-02-26 03:00;CYGK 260300Z 00000KT 15SM BKN220 M03/M03 A3022 RMK CI6 SLP240

CYGK;2013-02-26 04:00;CYGK 260400Z 00000KT 15SM BKN220 M03/M04 A3023 RMK CI6 LAST OBS/NEXT 261100 UTC SLP243

CYGK;2013-02-26 11:00;CYGK 261100Z 07003KT 15SM BKN040 OVC250 M04/M04 A3026 RMK SC6CI2 SLP253

CYGK;2013-02-26 12:00;CYGK 261200Z 04003KT 10SM SCT040 BKN200 M04/M04 A3026 RMK SC4CI2 SLP251

CYGK;2013-02-26 13:00;CYGK 261300Z 06003KT 10SM FEW040 BKN180 BKN250 M04/M04 A3026 RMK SC2AC3CI1 SLP253

CYGK;2013-02-26 14:00;CYGK 261400Z 06007KT 10SM BKN180 BKN270 M02/M03 A3025 RMK AC5CI2 SLP248

CYGK;2013-02-26 15:00;CYGK 261500Z 08008KT 12SM FEW190 BKN250 01/M05 A3024 RMK AC2CI5 SLP247

CYGK;2013-02-26 16:00;CYGK 261600Z 10009KT 15SM BKN180 BKN250 02/M05 A3025 RMK AC5CI2 SLP248

CYGK;2013-02-26 17:00;CYGK 261700Z 07006KT 15SM BKN180 BKN250 03/M04 A3024 RMK AC5CC1 SLP244

CYGK;2013-02-26 18:00;CYGK 261800Z 08008KT 15SM BKN180 BKN250 04/M04 A3020 RMK AC5CI1 PRESFR SLP231

CYGK;2013-02-26 19:00;CYGK 261900Z 06011KT 15SM SCT180 BKN250 05/M04 A3014 RMK AC3CI3 PRESFR SLP210

CYGK;2013-02-26 20:00;CYGK 262000Z 07011G18KT 15SM FEW030 BKN180 BKN250 05/M04 A3012 RMK SC1AC4CI2 SLP205

CYGK;2013-02-26 21:00;CYGK 262100Z 06013KT 15SM FEW035 SCT180 BKN250 05/M03 A3011 RMK SC1AC3CI3 SLP199

CYGK;2013-02-26 22:00;CYGK 262200Z 06012KT 15SM FEW180 BKN200 04/M03 A3007 RMK AC2CI5 SLP189

CYGK;2013-02-26 23:00;CYGK 262300Z 05013KT 15SM SCT180 BKN250 04/M03 A3006 RMK AC4CI3 SLP185

CYGK;2013-02-27 00:00;CYGK 270000Z 05011KT 15SM SCT180 OVC250 03/M02 A3008 RMK AC4CI4 SLP189

CYGK;2013-02-27 01:00;CYGK 270100Z 06011KT 15SM FEW190 OVC210 02/M02 A3006 RMK AC2CI6 SLP183

CYGK;2013-02-27 02:00;CYGK 270200Z 06009KT 15SM BKN140 OVC220 02/M02 A3003 RMK AS6CI2 SLP174

CYGK;2013-02-27 03:00;CYGK 270300Z 06011KT 15SM OVC120 02/M02 A2999 RMK AC8 SLP159

CYGK;2013-02-27 04:00;CYGK 270400Z 07011G17KT 15SM OVC120 03/M03 A2997 RMK AC8 LAST OBS/NEXT 271100 UTC SLP154

CYGK;2013-02-27 11:00;CYGK 271100Z 05017G25KT 10SM -RA FEW025 OVC040 01/M01 A2974 RMK CU1SC7 SLP076

CYGK;2013-02-27 12:00;CYGK 271200Z 05017G25KT 8SM OVC022 01/M01 A2975 RMK SC8 SLP079

CYGK;2013-02-27 12:42;CYGK 271242Z 04015G23KT 8SM -RAPL FEW008 OVC023 01/M01 A2973 RMK SF2CU6 SLP073

CYGK;2013-02-27 13:00;CYGK 271300Z 05016G23KT 8SM -RA FEW010 OVC028 01/M01 A2973 REPL RMK SF2CU6 SLP072

CYGK;2013-02-27 13:26;CYGK 271326Z 05015G20KT 8SM -SHRAPL FEW015 OVC028 01/M01 A2973 RMK SF2CU6 SLP071

CYGK;2013-02-27 14:00;CYGK 271400Z 04014G22KT 6SM -SHRASN FEW012 OVC028TCU 01/M00 A2972 REPL RMK SF2TCU6 SLP067

CYGK;2013-02-27 15:00;CYGK 271500Z 04012G18KT 7SM -RASN BKN008 OVC028 01/M00 A2970 RMK SF5SC3 SLP062

CYGK;2013-02-27 15:17;CYGK 271517Z 04014G20KT 8SM -RASN SCT008 BKN028 01/M00 A2970 RMK SF3SC4 SLP060

CYGK;2013-02-27 16:00;CYGK 271600Z 04013G22KT 10SM -SN FEW008 OVC030 01/00 A2969 RMK SF2SC6 PCPN VRY LGT SLP058

CYGK;2013-02-27 16:35;CYGK 271635Z 04011G20KT 2 1/2SM -SN SCT006 OVC025 01/M00 A2969 RMK SF4SC4 SLP058

CYGK;2013-02-27 16:48;CYGK 271648Z 04011G18KT 3/4SM -SN VV005 01/M00 A2969 RMK SN8 SLP057

CYGK;2013-02-27 17:00;CYGK 271700Z 03011KT 3/4SM -SN FEW004 VV006 01/M00 A2968 RMK SF1SN7 SLP056

CYGK;2013-02-27 17:17;CYGK 271717Z 03010G15KT 3/4SM -SN BKN004 VV006 01/M00 A2967 RMK SF6SN2 SLP053

CYGK;2013-02-27 17:35;CYGK 271735Z 03011KT 1SM -SN BKN004 OVC015 01/M00 A2967 RMK SN2SF5SC1 SLP052

CYGK;2013-02-27 18:00;CYGK 271800Z 03010G18KT 2SM -SN BKN006 OVC018 01/M00 A2966 RMK SF5SC3 SLP048

CYGK;2013-02-27 19:00;CYGK 271900Z 03011G17KT 1SM -SN BKN004 OVC015 01/M00 A2966 RMK SN2SF5SC1 VIS VRB 3/4-11/2 SLP047

CYGK;2013-02-27 20:00;CYGK 272000Z 03014KT 1SM -SN OVC006 01/M00 A2963 RMK SF8 VIS VRB 3/4-11/2 CIG RAG SLP039

CYGK;2013-02-27 20:17;CYGK 272017Z 04016G21KT 3SM -SN BKN006 OVC035 01/M00 A2963 RMK SF5SC3 SLP038

CYGK;2013-02-27 20:43;CYGK 272043Z 05018KT 3/4SM -SN OVC006 01/M00 A2963 RMK SF8 SLP037

CYGK;2013-02-27 21:00;CYGK 272100Z 04016G24KT 3/4SM -SN BKN006 OVC018 01/M00 A2963 RMK SN2SF4SC2 SLP037

CYGK;2013-02-27 21:28;CYGK 272128Z 05016G23KT 1/2SM SN OVC004 00/M00 A2962 RMK SN4SF4 SLP035

CYGK;2013-02-27 21:53;CYGK 272153Z 04015G21KT 1SM -SN OVC005 00/M00 A2962 RESN RMK SN4SF4 SLP033

CYGK;2013-02-27 22:00;CYGK 272200Z 04014G21KT 1SM -SN OVC005 00/M00 A2961 RESN RMK SN4SF4 CIG RAG SLP032

CYGK;2013-02-27 22:17;CYGK 272217Z 04016G22KT 3/4SM -SN OVC006 00/M00 A2961 RMK SN5SF3 SLP032

CYGK;2013-02-27 23:00;CYGK 272300Z 05017KT 1 1/4SM -SN BKN006 OVC016 00/M00 A2961 RMK SN3SF3NS2 SLP030

CYGK;2013-02-28 00:00;CYGK 280000Z 05014G19KT 2SM -SN BKN005 OVC023 00/M00 A2960 RMK SN3SF4NS1 SLP027

CYGK;2013-02-28 01:00;CYGK 280100Z 06013KT 2SM -SN BKN005 BKN015 00/M00 A2959 RMK SN2SF4NS1 SLP023

CYGK;2013-02-28 02:00;CYGK 280200Z 05013G18KT 2SM -SN BKN005 OVC017 00/M00 A2958 RMK SN2SF4NS2 SLP020

CYGK;2013-02-28 03:00;CYGK 280300Z 05012KT 2SM -SN BKN005 OVC014 00/M00 A2957 RMK SN3SF3NS2 SLP018

CYGK;2013-02-28 03:51;CYGK 280351Z 05011KT 1 1/2SM -SN BKN005 OVC015 00/M00 A2956 RMK SN3SF4NS1 SLP014

CYGK;2013-02-28 04:00;CYGK 280400Z 05014KT 1 1/2SM -SN BKN005 OVC014 00/M00 A2956 RMK SN3SF4NS1 LAST OBS/NEXT 281100 UTC SLP013

CYGK;2013-02-28 11:00;CYGK 281100Z 24004KT 1 1/2SM -SN OVC006 00/M00 A2953 RMK SN3SF5 SLP003

CYGK;2013-02-28 11:41;CYGK 281141Z 24004KT 3/4SM -SN VV004 M00/M00 A2954 RMK SN8 SLP006

CYGK;2013-02-28 12:00;CYGK 281200Z 24004KT 3/4SM -SN VV003 M00/M00 A2954 RMK SN8 SLP007

CYGK;2013-02-28 12:44;CYGK 281244Z 23005KT 1 1/4SM -SN OVC004 00/M00 A2955 RMK SN4SF4 SLP010

CYGK;2013-02-28 13:00;CYGK 281300Z 22004KT 1 1/2SM -SN OVC003 00/M00 A2955 RMK SN4SF4 SLP011

CYGK;2013-02-28 14:00;CYGK 281400Z 22004KT 1 1/2SM -SN BR OVC003 00/M00 A2956 RMK SN4SF4 SLP014

CYGK;2013-02-28 15:00;CYGK 281500Z 24004KT 2SM -SN BR OVC003 01/00 A2957 RMK SF8 SLP016

CYGK;2013-02-28 15:13;CYGK 281513Z 24005KT 3SM -SN BR OVC003 01/00 A2956 RMK SF8 SN VRY LIGHT SLP015

CYGK;2013-02-28 15:31;CYGK 281531Z 23004KT 5SM -SN BR OVC003 01/M00 A2957 RMK SF8 SLP016

CYGK;2013-02-28 16:00;CYGK 281600Z 21005KT 6SM -SN BR BKN003 BKN006 01/M00 A2957 RMK SF5SF2 SN VERY LIGHT SLP017

CYGK;2013-02-28 16:15;CYGK 281615Z 21005KT 15SM SCT004 BKN012 01/M00 A2957 RMK SF3SC4 SLP017

CYGK;2013-02-28 17:00;CYGK 281700Z 19004KT 15SM FEW004 BKN011 OVC018 01/M00 A2957 RMK SF2SC5SC1 SLP019

CYGK;2013-02-28 18:00;CYGK 281800Z 19004KT 15SM VCSH FEW010 OVC020 01/00 A2957 RMK CU2CU6 SLP019

CYGK;2013-02-28 18:35;CYGK 281835Z 19004KT 8SM -SN FEW010 OVC020 01/M00 A2957 RMK SF2CU6 VIS NE-NW 2 SLP019

CYGK;2013-02-28 19:00;CYGK 281900Z 18004KT 15SM -RA FEW010 SCT015 OVC031 01/00 A2958 RMK SF1SC3SC4 SLP020

CYGK;2013-02-28 19:22;CYGK 281922Z 19003KT 15SM FEW003 FEW008 OVC022 01/00 A2958 RMK SF1SF1SC6 SLP020

CYGK;2013-02-28 20:00;CYGK 282000Z 18004KT 15SM FEW003 OVC028 01/M00 A2959 RMK SF2SC6 SLP023

CYGK;2013-02-28 21:00;CYGK 282100Z 00000KT 12SM -SN SCT010 OVC035 01/00 A2960 RMK SC4SC4 SLP028

CYGK;2013-02-28 21:08;CYGK 282108Z 00000KT 10SM -SN BKN009 BKN030 BKN250 01/00 A2960 RMK SC5SC1CI1 VIS N 2 SLP028

CYGK;2013-02-28 21:27;CYGK 282127Z 36006KT 2 1/2SM -SN BKN009 OVC035 01/M00 A2961 RMK SC5SC3 VIS S 5 SLP030

CYGK;2013-02-28 21:42;CYGK 282142Z 01005KT 2 1/2SM -SN SCT008 OVC025 01/00 A2961 RMK SC3SC5 VIS S 5 SLP031

CYGK;2013-02-28 22:00;CYGK 282200Z 03004KT 2 1/2SM -SN OVC025 01/M00 A2962 RMK SC8 SLP033

CYGK;2013-02-28 22:43;CYGK 282243Z 01005KT 6SM -SN FEW012 SCT025 OVC040 01/00 A2963 RMK SC1SC2SC5 SLP038

CYGK;2013-02-28 23:00;CYGK 282300Z 02006KT 8SM -SN FEW004 OVC045 01/00 A2963 RMK SF1SC7 SLP039

CYGK;2013-03-01 00:00;CYGK 010000Z 01005KT 10SM -SN FEW004 OVC050 01/M00 A2965 RMK SF1SC7 SLP045

CYGK;2013-03-01 01:00;CYGK 010100Z 33004KT 10SM -SN FEW050 BKN094 OVC130 00/M00 A2966 RMK SC2AC5AC1 SLP049

CYGK;2013-03-01 02:00;CYGK 010200Z 33005KT 12SM -SN FEW020 OVC095 00/M01 A2967 RMK SC2AC6 SLP053

CYGK;2013-03-01 03:00;CYGK 010300Z 32006KT 15SM -SN SCT015 BKN025 OVC095 00/M00 A2969 RMK SC3SC4AC1 SLP057

CYGK;2013-03-01 04:00;CYGK 010400Z 30005KT 10SM -SN FEW010 OVC015 00/M00 A2969 RMK SC1SC7 LAST OBS/NEXT 011100 UTC SLP057

CYGK;2013-03-01 11:00;CYGK 011100Z 35014KT 15SM -SN FEW012 BKN026 OVC060 M01/M03 A2976 RMK CF1SC6SC1 SLP082

CYGK;2013-03-01 12:00;CYGK 011200Z 35013G21KT 15SM -SN FEW015 BKN035 OVC071 M01/M03 A2978 RMK CF1SC6AC1 SLP088

CYGK;2013-03-01 13:00;CYGK 011300Z 34012KT 15SM -SN FEW015 SCT035 OVC075 M01/M04 A2980 RMK CF2SC2AC4 SLP095

CYGK;2013-03-01 14:00;CYGK 011400Z 33010G15KT 15SM -SN BKN018 OVC078 M01/M04 A2981 RMK SC5AC3 SLP098

CYGK;2013-03-01 15:00;CYGK 011500Z 33010G16KT 15SM -SN OVC017 M01/M04 A2982 RMK SC8 SLP101

CYGK;2013-03-01 15:24;CYGK 011524Z 33013KT 15SM OVC017 M01/M05 A2982 RMK SC8 SLP103

CYGK;2013-03-01 16:00;CYGK 011600Z 35018KT 15SM BKN017 OVC028 M01/M05 A2983 RMK SC6SC2 SLP104

CYGK;2013-03-01 17:00;CYGK 011700Z 32011KT 15SM SCT020 OVC030 M01/M06 A2984 RMK SC4SC4 SLP108

CYGK;2013-03-01 18:00;CYGK 011800Z 33013KT 15SM FEW015 SCT025 BKN068 00/M06 A2983 RMK CF1SC3AC3 SLP107

CYGK;2013-03-01 19:00;CYGK 011900Z 33011KT 15SM BKN030 OVC070 00/M06 A2984 RMK SC7AC1 SLP108

CYGK;2013-03-01 20:00;CYGK 012000Z 35013KT 15SM OVC030 M00/M06 A2984 RMK SC8 SLP109

CYGK;2013-03-01 21:00;CYGK 012100Z 33011KT 15SM SCT027 OVC034 M01/M06 A2985 RMK SC4SC4 SLP113

CYGK;2013-03-01 21:37;CYGK 012137Z 34009KT 15SM -SN OVC035 M01/M06 A2986 RMK SC8 SLP115

CYGK;2013-03-01 22:00;CYGK 012200Z 34010KT 15SM -SN FEW025 OVC035 M01/M06 A2986 RMK SC2SC6 SLP116

CYGK;2013-03-01 23:00;CYGK 012300Z 34011G16KT 15SM -SN BKN025 OVC035 M02/M06 A2988 RMK SC5SC3 SLP123

CYGK;2013-03-02 00:00;CYGK 020000Z 35012KT 15SM -SN SCT030 OVC045 M02/M06 A2990 RMK SC3SC5 SLP128

CYGK;2013-03-02 01:00;CYGK 020100Z 34014KT 12SM -SN SCT035 OVC053 M03/M07 A2990 RMK SC3SC5 SLP131

CYGK;2013-03-02 02:00;CYGK 020200Z 35012G21KT 15SM -SN SCT038 OVC060 M03/M07 A2991 RMK SC3SC5 SLP133

CYGK;2013-03-02 03:00;CYGK 020300Z 34009KT 12SM -SN FEW020 SCT045 OVC070 M04/M08 A2991 RMK SC1SC2AC5 SLP134

CYGK;2013-03-02 04:00;CYGK 020400Z 34013KT 15SM -SN FEW020 FEW050 OVC090 M05/M08 A2991 RMK SC1SC1AC6 LAST OBS/NEXT 021100 UTC SLP134

CYGK;2013-03-02 11:00;CYGK 021100Z 35010KT 2SM -SN VV012 M08/M10 A2991 RMK SN8 SLP135

CYGK;2013-03-02 11:34;CYGK 021134Z 35007KT 3SM -SN VV014 M08/M10 A2992 RMK SN8 SLP138

CYGK;2013-03-02 12:00;CYGK 021200Z 34007KT 2 1/2SM -SN VV013 M08/M10 A2992 RMK SN8 SLP138

CYGK;2013-03-02 12:05;CYGK 021205Z 34006KT 2 1/2SM -SN BKN022 M08/M10 A2992 RMK SN2SC4 SLP138

CYGK;2013-03-02 12:15;CYGK 021215Z 34006KT 5SM -SN FEW022 BKN036 M08/M10 A2992 RMK SC2SC5 SLP138

CYGK;2013-03-02 13:00;CYGK 021300Z 35007KT 8SM -SN FEW018 BKN032 OVC041 M07/M10 A2993 RMK CF1SC5SC2 SLP140

CYGK;2013-03-02 14:00;CYGK 021400Z 33007KT 15SM -SN FEW018 OVC022 M07/M11 A2992 RMK CF1SC7 SLP139

CYGK;2013-03-02 14:14;CYGK 021414Z 35009KT 15SM BKN019 OVC039 M07/M11 A2992 RMK SC7SC1 SLP138

CYGK;2013-03-02 15:00;CYGK 021500Z 36008KT 15SM OVC020 M07/M11 A2992 RMK SC8 SLP138

CYGK;2013-03-02 16:00;CYGK 021600Z 35007KT 15SM BKN020 OVC040 M06/M11 A2992 RMK SC5SC3 SLP137

CYGK;2013-03-02 17:00;CYGK 021700Z 31008KT 15SM -SN BKN020 OVC040 M06/M10 A2990 RMK SC6SC2 SLP132

CYGK;2013-03-02 18:00;CYGK 021800Z 01006KT 15SM -SN BKN025 OVC035 M05/M10 A2989 RMK SC6SC2 SLP128

CYGK;2013-03-02 18:29;CYGK 021829Z 34007KT 15SM BKN023 OVC035 M05/M10 A2988 RMK SC6SC2 SLP126

CYGK;2013-03-02 19:00;CYGK 021900Z 35006KT 15SM OVC025 M05/M10 A2988 RMK SC8 SLP125

CYGK;2013-03-02 20:00;CYGK 022000Z 34004KT 15SM FEW025 SCT034 OVC040 M05/M10 A2987 RMK SC2SC2SC4 SLP122

CYGK;2013-03-02 21:00;CYGK 022100Z 36007KT 15SM OVC027 M04/M10 A2987 RMK SC8 SLP122

CYGK;2013-03-02 22:00;CYGK 022200Z 01004KT 15SM OVC030 M04/M10 A2987 RMK SC8 SLP121

CYGK;2013-03-02 23:00;CYGK 022300Z 02005KT 15SM OVC027 M05/M10 A2989 RMK SC8 SLP127

CYGK;2013-03-03 00:00;CYGK 030000Z 36007KT 15SM OVC028 M05/M10 A2990 RMK SC8 SLP130

CYGK;2013-03-03 01:00;CYGK 030100Z 35008KT 15SM OVC030 M06/M10 A2989 RMK SC8 SLP129

CYGK;2013-03-03 02:00;CYGK 030200Z 35008KT 15SM OVC025 M06/M10 A2990 RMK NS8 SLP130

CYGK;2013-03-03 03:00;CYGK 030300Z 34013KT 15SM OVC028 M06/M10 A2989 RMK SC8 SLP127

CYGK;2013-03-03 04:00;CYGK 030400Z 35010KT 15SM FEW020 OVC030 M06/M11 A2988 RMK SC2SC6 LAST OBS/NEXT 031100 UTC SLP125

CYGK;2013-03-03 11:00;CYGK 031100Z 31006KT 15SM FEW057 OVC076 M09/M12 A2986 RMK SC2AC6 SLP118

CYGK;2013-03-03 12:00;CYGK 031200Z 32007KT 15SM FEW055 OVC071 M09/M13 A2986 RMK SC1AC7 SLP119

CYGK;2013-03-03 13:00;CYGK 031300Z 33007KT 15SM FEW033 OVC067 M09/M12 A2987 RMK SC2AC6 SLP120

CYGK;2013-03-03 14:00;CYGK 031400Z 34007KT 12SM VCSH FEW023 OVC065 M08/M12 A2986 RMK SC2SC6 SLP119

CYGK;2013-03-03 14:10;CYGK 031410Z 34007KT 12SM -SN FEW023 SCT031 OVC065 M08/M12 A2986 RMK SC2SC2SC4 SLP119

CYGK;2013-03-03 15:00;CYGK 031500Z 35005KT 15SM BKN023 OVC061 M07/M12 A2986 RMK SC6SC2 SLP118

CYGK;2013-03-03 16:00;CYGK 031600Z 28005KT 280V010 15SM FEW020 BKN027 OVC060 M06/M11 A2985 RMK SC1SC6SC1 SLP115

CYGK;2013-03-03 16:51;CYGK 031651Z 21007KT 15SM -SHSN BKN022 OVC060 M06/M10 A2985 RMK SC6SC2 SLP113

CYGK;2013-03-03 17:00;CYGK 031700Z 28003KT 210V280 15SM -SHSN BKN022 OVC060 M05/M11 A2984 RMK CU6SC2 SLP112

CYGK;2013-03-03 18:00;CYGK 031800Z 25006KT 250V330 15SM -SN OVC023 M05/M10 A2983 RMK SC8 SLP105

CYGK;2013-03-03 19:00;CYGK 031900Z 22007KT 15SM -SN BKN025 BKN060 M05/M10 A2982 RMK SC5SC2 -SN INTMT SLP102

CYGK;2013-03-03 20:00;CYGK 032000Z 22008KT 15SM -SN SCT018 BKN027 BKN120 M04/M09 A2982 RMK CU4SC2AC1 SLP103

CYGK;2013-03-03 20:34;CYGK 032034Z 31006KT 210V310 15SM FEW018 BKN026 BKN120 M04/M09 A2981 RMK CU1SC5AC1 SLP100

CYGK;2013-03-03 21:00;CYGK 032100Z 28007KT 15SM FEW018 BKN026 BKN140 M04/M09 A2982 RMK SC1SC4AC2 SLP102

CYGK;2013-03-03 22:00;CYGK 032200Z 29006KT 15SM FEW015 BKN026 BKN036 M04/M10 A2983 RMK CU1SC4SC2 SLP106

CYGK;2013-03-03 22:23;CYGK 032223Z 25007KT 15SM -SN FEW015 BKN028 M04/M08 A2983 RMK CU1SC6 SLP106

CYGK;2013-03-03 23:00;CYGK 032300Z 24007KT 15SM FEW015 BKN031 M04/M08 A2983 RMK CU1SC6 INTMT -SN SLP109

CYGK;2013-03-04 00:00;CYGK 040000Z 25005KT 12SM -SN OVC029 M04/M08 A2984 RMK SC8 SLP112

CYGK;2013-03-04 01:00;CYGK 040100Z 27005KT 15SM -SN BKN029 OVC039 M04/M08 A2984 RMK SC5SC3 SLP111

CYGK;2013-03-04 02:00;CYGK 040200Z 26007KT 15SM -SN BKN024 OVC070 M04/M08 A2984 RMK SC7AC1 SLP112

CYGK;2013-03-04 03:00;CYGK 040300Z 26006KT 15SM -SN SCT024 OVC080 M05/M08 A2984 RMK SC3AC5 SLP110

CYGK;2013-03-04 04:00;CYGK 040400Z 26004KT 15SM -SN FEW020 OVC040 M05/M08 A2983 RMK SC2SC6 LAST OBS/NEXT 041100UTC SLP108

CYGK;2013-03-04 11:00;CYGK 041100Z 30006KT 15SM OVC088 M07/M11 A2990 RMK AC8 SLP131

CYGK;2013-03-04 12:00;CYGK 041200Z 29005KT 15SM FEW042 OVC087 M07/M11 A2990 RMK SC1AC7 SLP131

CYGK;2013-03-04 13:00;CYGK 041300Z 29008KT 15SM BKN086 M07/M11 A2991 RMK AC7 TR SC SLP134

CYGK;2013-03-04 14:00;CYGK 041400Z 32009KT 15SM FEW022 FEW050 BKN080 M06/M12 A2990 RMK CU1SC1AC5 SLP132

CYGK;2013-03-04 15:00;CYGK 041500Z 31007KT 15SM FEW060 SCT220 M05/M12 A2990 RMK SC1CI2 TR SC 025 SLP130

CYGK;2013-03-04 16:00;CYGK 041600Z 30005KT 15SM FEW025 SCT080 M04/M11 A2990 RMK SC1AC2 SLP131

CYGK;2013-03-04 17:00;CYGK 041700Z 25008KT 15SM SCT045 BKN080 M03/M10 A2989 RMK SC4AC1 TR SC 025 OVR LK SLP128

CYGK;2013-03-04 18:00;CYGK 041800Z 23014KT 15SM FEW042 FEW080 SCT200 M02/M09 A2988 RMK SC1AC1CI1 SLP123

CYGK;2013-03-04 19:00;CYGK 041900Z 24012G18KT 15SM FEW040 FEW080 M01/M09 A2987 RMK SC1AC1 TR CF CI SLP119

CYGK;2013-03-04 20:00;CYGK 042000Z 25013KT 15SM SCT040 BKN250 M01/M08 A2987 RMK SC4CI1 TR CF OVR LK SLP121

CYGK;2013-03-04 21:00;CYGK 042100Z 25012KT 15SM OVC042 M01/M08 A2987 RMK SC8 CF TR SLP121

CYGK;2013-03-04 22:00;CYGK 042200Z 25009G16KT 15SM BKN043 M01/M08 A2989 RMK SC7 TR CF SLP126

CYGK;2013-03-04 23:00;CYGK 042300Z 26008KT 15SM BKN041 M01/M08 A2991 RMK SC5 TR CF SLP132

CYGK;2013-03-05 00:00;CYGK 050000Z 29008KT 15SM BKN037 M00/M07 A2993 RMK SC7 SLP139

CYGK;2013-03-05 01:00;CYGK 050100Z 33008KT 15SM OVC031 M01/M07 A2995 RMK SC8 SLP148

CYGK;2013-03-05 02:00;CYGK 050200Z 36011KT 15SM -SN OVC031 M02/M07 A2998 RMK SC8 SLP157

CYGK;2013-03-05 03:00;CYGK 050300Z 35012KT 12SM -SN OVC028 M03/M09 A2999 RMK SC8 SLP162

CYGK;2013-03-05 04:00;CYGK 050400Z 35011KT 12SM -SN BKN028 OVC058 M03/M08 A2999 RMK SC6SC2 LAST OBS/NEXT 051100UTC SLP163

CYGK;2013-03-05 11:00;CYGK 051100Z 28003KT 15SM SCT026 BKN190 M06/M10 A3008 RMK SC3AC3 SLP192

CYGK;2013-03-05 12:00;CYGK 051200Z 30003KT 15SM FEW042 BKN180 M07/M10 A3010 RMK SC2AC3 SLP197

CYGK;2013-03-05 13:00;CYGK 051300Z 34003KT 15SM FEW030 SCT078 BKN180 M06/M10 A3011 RMK SC1AC3AC1 SLP200

CYGK;2013-03-05 14:00;CYGK 051400Z 35004KT 15SM FEW030 BKN073 M06/M10 A3011 RMK SC1AC5 SLP202

CYGK;2013-03-05 15:00;CYGK 051500Z 00000KT 15SM FEW030 BKN073 M04/M09 A3011 RMK SC1AC6 SLP202

CYGK;2013-03-05 16:00;CYGK 051600Z 17004KT 15SM FEW020 BKN078 M04/M08 A3011 RMK SC2AC5 SLP200

CYGK;2013-03-05 17:00;CYGK 051700Z 16005KT 15SM BKN075 M03/M08 A3011 RMK AC7 TR SC  CI SLP200

CYGK;2013-03-05 18:00;CYGK 051800Z 16006KT 15SM FEW078 M03/M08 A3010 RMK AC2 CF TR SLP199

CYGK;2013-03-05 19:00;CYGK 051900Z 18006KT 15SM SCT078 M02/M07 A3011 RMK AC4 SLP202

CYGK;2013-03-05 20:00;CYGK 052000Z 19006KT 15SM FEW052 SCT081 M02/M07 A3011 RMK SC2AC2 SLP201

CYGK;2013-03-05 21:00;CYGK 052100Z 18004KT 15SM FEW050 FEW085 M02/M06 A3010 RMK SC1AC1 SLP198

CYGK;2013-03-05 22:00;CYGK 052200Z 20002KT 15SM FEW085 M02/M06 A3010 RMK AC1 SLP197

CYGK;2013-03-05 23:00;CYGK 052300Z 00000KT 15SM FEW085 M02/M05 A3009 RMK AC1 AC TR SLP196

CYGK;2013-03-06 00:00;CYGK 060000Z 35003KT 15SM SKC M03/M06 A3007 RMK SLP188

CYGK;2013-03-06 01:00;CYGK 060100Z 02005KT 15SM SKC M02/M06 A3007 RMK SLP187

CYGK;2013-03-06 02:00;CYGK 060200Z 04010KT 15SM SKC M01/M05 A3006 RMK SLP186

CYGK;2013-03-06 03:00;CYGK 060300Z 04010G18KT 15SM SKC M01/M05 A3006 RMK SLP183

CYGK;2013-03-06 04:00;CYGK 060400Z 05014KT 15SM SKC M01/M05 A3005 RMK LAST OBS / NEXT 06 1100 UTC SLP181

CYGK;2013-03-06 11:00;CYGK 061100Z 05015KT 15SM FEW012 OVC061 M02/M03 A3008 RMK SF1SC7 SLP190

CYGK;2013-03-06 11:45;CYGK 061145Z 03012G19KT 8SM FEW004 OVC063 M02/M03 A3009 RMK SF2SC6 SLP196

CYGK;2013-03-06 12:00;CYGK 061200Z 04011G17KT 6SM BR SCT004 OVC064 M01/M03 A3011 RMK SF3SC5 SLP200

CYGK;2013-03-06 13:00;CYGK 061300Z 04011G16KT 6SM -SN BR FEW004 OVC061 M01/M02 A3013 RMK SF2SC6 SLP206

CYGK;2013-03-06 13:23;CYGK 061323Z 04010G16KT 8SM FEW004 OVC061 M00/M02 A3013 RMK SF1SC7 SLP207

CYGK;2013-03-06 14:00;CYGK 061400Z 04011G18KT 10SM OVC060 00/M02 A3013 RMK SC8 SLP207

CYGK;2013-03-06 15:00;CYGK 061500Z 05013KT 15SM OVC061 02/M01 A3013 RMK SC8 SF TR SLP207

CYGK;2013-03-06 16:00;CYGK 061600Z 04011G16KT 15SM OVC058 02/M01 A3014 RMK SC8 TR SF SLP212

CYGK;2013-03-06 17:00;CYGK 061700Z 05011G17KT 15SM FEW060 BKN075 03/M01 A3014 RMK SC2AC5 CF TR SLP210

CYGK;2013-03-06 18:00;CYGK 061800Z 03010G16KT 15SM FEW010 SCT040 OVC065 04/M01 A3014 RMK CF1SC3SC4 SLP209

CYGK;2013-03-06 19:00;CYGK 061900Z 03010G18KT 15SM FEW010 SCT048 BKN100 05/M01 A3013 RMK CF1SC2AC4 SLP207

CYGK;2013-03-06 20:00;CYGK 062000Z 05010KT 15SM FEW010 BKN084 BKN100 05/M01 A3013 RMK CF1AC4AC2 SLP207

CYGK;2013-03-06 21:00;CYGK 062100Z 03010G16KT 15SM FEW020 OVC070 05/M02 A3013 RMK SC2SC6 SLP207

CYGK;2013-03-06 22:00;CYGK 062200Z 04011G20KT 15SM FEW020 BKN072 04/M02 A3014 RMK SC1AC6 SLP210

CYGK;2013-03-06 23:00;CYGK 062300Z 04011KT 15SM OVC074 03/M02 A3016 RMK AC8 SLP216

CYGK;2013-03-07 00:00;CYGK 070000Z 04010G16KT 15SM OVC064 03/M02 A3017 RMK SC8 SLP220

CYGK;2013-03-07 01:00;CYGK 070100Z 05012G19KT 15SM SCT048 OVC070 03/M02 A3017 RMK SC3SC5 SLP222

CYGK;2013-03-07 02:00;CYGK 070200Z 05011G18KT 15SM SCT050 OVC069 02/M02 A3017 RMK SC3AC5 SLP222

CYGK;2013-03-07 03:00;CYGK 070300Z 05012KT 15SM SCT062 01/M03 A3016 RMK SC4 SLP219

CYGK;2013-03-07 04:00;CYGK 070400Z 03007KT 15SM FEW058 01/M03 A3017 RMK SC1 LAST OBS/NEXT 07 1100 UTC SLP220

CYGK;2013-03-07 11:00;CYGK 071100Z 03009KT 15SM -SN OVC057 00/M03 A3018 RMK SC8 SLP224

CYGK;2013-03-07 11:15;CYGK 071115Z 03008KT 15SM OVC056 00/M03 A3018 RMK SC8 SLP224

CYGK;2013-03-07 12:00;CYGK 071200Z 03007KT 15SM OVC054 M00/M03 A3019 RMK SC8 SLP226

CYGK;2013-03-07 13:00;CYGK 071300Z 03010KT 15SM OVC050 00/M03 A3020 RMK SC8 SLP232

CYGK;2013-03-07 14:00;CYGK 071400Z 03011G16KT 15SM OVC053 00/M03 A3021 RMK SC8 SLP234

CYGK;2013-03-07 15:00;CYGK 071500Z 04012KT 15SM OVC050 01/M04 A3022 RMK SC8 SLP238

CYGK;2013-03-07 16:00;CYGK 071600Z 04014KT 15SM FEW015 OVC050 01/M05 A3022 RMK CU1SC7 SLP239

CYGK;2013-03-07 17:00;CYGK 071700Z 05010KT 15SM FEW025 OVC055 01/M05 A3024 RMK SC1SC7 SLP243

CYGK;2013-03-07 18:00;CYGK 071800Z 01009KT 15SM SCT030 OVC060 02/M06 A3022 RMK SC4SC4 SLP238

CYGK;2013-03-07 19:00;CYGK 071900Z 03011G17KT 15SM VCSH BKN035 OVC060 03/M07 A3022 RMK CU5SC3 SLP237

CYGK;2013-03-07 19:16;CYGK 071916Z 03014KT 15SM -SHSN BKN035 OVC060 02/M06 A3022 RMK CU5SC3 SLP238

CYGK;2013-03-07 19:47;CYGK 071947Z 02013KT 15SM VCSH BKN035 OVC060 02/M06 A3023 RMK CU5SC3 SLP241

CYGK;2013-03-07 20:00;CYGK 072000Z 03014KT 15SM VCSH BKN035 OVC058 01/M05 A3023 RMK SC5SC3 SLP242

CYGK;2013-03-07 21:00;CYGK 072100Z 01010KT 15SM VCSH SCT024 OVC059 01/M05 A3024 RMK CU3SC5 SLP246

CYGK;2013-03-07 22:00;CYGK 072200Z 03010KT 15SM FEW031 BKN055 01/M06 A3025 RMK CU1SC6 SLP248

CYGK;2013-03-07 23:00;CYGK 072300Z 36008KT 15SM FEW032 OVC057 00/M05 A3027 RMK CU2SC6 SLP256

CYGK;2013-03-08 00:00;CYGK 080000Z 01008KT 15SM FEW037 OVC049 M00/M07 A3028 RMK CU2SC6 SLP258

CYGK;2013-03-08 01:00;CYGK 080100Z 01005KT 15SM OVC053 M01/M06 A3029 RMK SC8 SLP261

CYGK;2013-03-08 02:00;CYGK 080200Z 01009KT 15SM OVC055 M01/M07 A3028 RMK SC8 SLP260

CYGK;2013-03-08 03:00;CYGK 080300Z 02007KT 15SM SCT055 OVC090 M01/M07 A3029 RMK SC4AC4 SLP261

CYGK;2013-03-08 04:00;CYGK 080400Z 01008KT 15SM -SN FEW055 OVC085 M01/M06 A3028 RMK SC1AC7 LAST OBS/NEXT 081100 UTC SLP259

CYGK;2013-03-08 11:00;CYGK 081100Z 34008KT 15SM FEW050 BKN230 M02/M06 A3030 RMK SC2CI5 SLP267

CYGK;2013-03-08 12:00;CYGK 081200Z 33007KT 15SM FEW050 BKN240 M03/M06 A3033 RMK SC2CI4 SLP275

CYGK;2013-03-08 13:00;CYGK 081300Z 34009KT 15SM FEW050 SCT250 M02/M06 A3034 RMK SC1CI3 SLP280

CYGK;2013-03-08 14:00;CYGK 081400Z 02012KT 15SM FEW160 SCT200 00/M06 A3035 RMK AC1CI2 SC TR SLP281

CYGK;2013-03-08 15:00;CYGK 081500Z 02011KT 15SM BKN250 01/M07 A3035 RMK CI5 CF TR SLP283

CYGK;2013-03-08 16:00;CYGK 081600Z 36011KT 15SM BKN230 02/M06 A3035 RMK CI6 CF TR SLP284

CYGK;2013-03-08 17:00;CYGK 081700Z 34008KT 15SM BKN250 03/M06 A3036 RMK CI5 SLP285

CYGK;2013-03-08 18:00;CYGK 081800Z 36010KT 15SM BKN250 03/M06 A3035 RMK CI5 SLP281

CYGK;2013-03-08 19:00;CYGK 081900Z 35011KT 15SM FEW250 04/M06 A3033 RMK CI2 SLP276

CYGK;2013-03-08 20:00;CYGK 082000Z 35010KT 15SM FEW250 04/M05 A3033 RMK CI1 SLP276

CYGK;2013-03-08 21:00;CYGK 082100Z 35010KT 15SM FEW250 04/M06 A3034 RMK CI1 SLP278

CYGK;2013-03-08 22:00;CYGK 082200Z 34007KT 15SM FEW250 04/M05 A3034 RMK CI1 SLP279

CYGK;2013-03-08 23:00;CYGK 082300Z 01005KT 15SM FEW250 04/M06 A3036 RMK CI1 SLP285

CYGK;2013-03-09 00:00;CYGK 090000Z 18006KT 15SM SKC 00/M05 A3037 RMK SLP291

CYGK;2013-03-09 01:00;CYGK 090100Z 00000KT 15SM SKC M00/M03 A3038 RMK SLP293

CYGK;2013-03-09 02:00;CYGK 090200Z 00000KT 15SM SKC M01/M04 A3038 RMK SLP293

CYGK;2013-03-09 03:00;CYGK 090300Z 33003KT 15SM SKC M02/M06 A3039 RMK SLP294

CYGK;2013-03-09 04:00;CYGK 090400Z 30003KT 15SM SKC M03/M06 A3037 RMK LAST OBS/NEXT 091100 UTC SLP291

CYGK;2013-03-09 11:00;CYGK 091100Z 36005KT 15SM SKC M05/M08 A3037 RMK SLP289

CYGK;2013-03-09 12:00;CYGK 091200Z 35004KT 15SM SKC M05/M09 A3038 RMK SLP292

CYGK;2013-03-09 13:00;CYGK 091300Z 34002KT 15SM SKC M03/M07 A3040 RMK TR CI SLP299

CYGK;2013-03-09 14:00;CYGK 091400Z 00000KT 15SM SKC M01/M07 A3041 RMK TR CI SLP302

CYGK;2013-03-09 15:00;CYGK 091500Z 15006KT 15SM SKC 00/M07 A3040 RMK TR CI SLP300

CYGK;2013-03-09 16:00;CYGK 091600Z 16005KT 15SM FEW220 01/M05 A3040 RMK CI1 SLP299

CYGK;2013-03-09 17:00;CYGK 091700Z 17004KT 15SM FEW250 02/M05 A3039 RMK CI1 SLP296

CYGK;2013-03-09 18:00;CYGK 091800Z 19005KT 15SM FEW250 02/M05 A3037 RMK CI1 SLP290

CYGK;2013-03-09 19:00;CYGK 091900Z 19005KT 15SM FEW250 02/M05 A3036 RMK CI1 SLP287

CYGK;2013-03-09 20:00;CYGK 092000Z 20004KT 15SM SKC 03/M04 A3035 RMK SLP284

CYGK;2013-03-09 21:00;CYGK 092100Z 18004KT 15SM FEW250 03/M03 A3034 RMK CI1 SLP280

CYGK;2013-03-09 22:00;CYGK 092200Z 18004KT 15SM BKN250 01/M02 A3034 RMK CI6 SLP279

CYGK;2013-03-09 23:00;CYGK 092300Z 00000KT 15SM BKN250 M00/M03 A3032 RMK CI7 SLP274

CYGK;2013-03-10 00:00;CYGK 100000Z 00000KT 15SM OVC250 M00/M02 A3032 RMK CI8 SLP274

CYGK;2013-03-10 01:00;CYGK 100100Z 00000KT 15SM OVC240 M01/M03 A3033 RMK CI8 SLP275

CYGK;2013-03-10 02:00;CYGK 100200Z 05002KT 15SM OVC240 M01/M03 A3031 RMK CI8 SLP268

CYGK;2013-03-10 03:00;CYGK 100300Z 00000KT 15SM BKN240 M02/M04 A3030 RMK CI6 SLP267

CYGK;2013-03-10 04:00;CYGK 100400Z 08003KT 15SM FEW180 BKN240 M03/M05 A3028 RMK AC1CI5 LAST OBS/NEXT 101000 UTC SLP259

CYGK;2013-03-10 10:00;CYGK 101000Z 08003KT 15SM FEW080 BKN150 M01/M04 A3019 RMK AC1AC6 SLP228

CYGK;2013-03-10 11:00;CYGK 101100Z 13006KT 360V160 15SM FEW070 BKN130 02/M04 A3018 RMK AC1AC6 SLP223

CYGK;2013-03-10 12:00;CYGK 101200Z 10003KT 15SM FEW070 BKN130 01/M04 A3016 RMK AC1AC6 SLP217

CYGK;2013-03-10 13:00;CYGK 101300Z 16003KT 15SM BKN100 OVC130 03/M04 A3016 RMK AC7AC1 SLP219

CYGK;2013-03-10 14:00;CYGK 101400Z 17008KT 15SM BKN100 03/M02 A3015 RMK AC7 SLP214

CYGK;2013-03-10 14:50;CYGK 101450Z 18008KT 15SM -SHRA BKN100 BKN120 03/M02 A3015 RMK AC5AC2 SLP214

CYGK;2013-03-10 15:00;CYGK 101500Z 17008KT 15SM BKN100 BKN120 03/M02 A3015 RMK AC5AC2 VIRGA SLP213

CYGK;2013-03-10 16:00;CYGK 101600Z 19003KT 15SM OVC120 04/M02 A3013 RMK AC8 SLP208

CYGK;2013-03-10 17:00;CYGK 101700Z 21005KT 15SM BKN120 04/M02 A3012 RMK AC7 SLP204

CYGK;2013-03-10 18:00;CYGK 101800Z 17010KT 15SM OVC110 05/M02 A3009 RMK AC8 VIRGA ALQDS SLP193

CYGK;2013-03-10 19:00;CYGK 101900Z 20007KT 15SM BKN110 05/M02 A3007 RMK AC7 VIRGA SLP187

CYGK;2013-03-10 20:00;CYGK 102000Z 18007KT 15SM SCT110 BKN160 05/M02 A3003 RMK AC4AC3 SLP174

CYGK;2013-03-10 21:00;CYGK 102100Z 18009G16KT 15SM FEW110 BKN160 OVC250 05/M02 A3001 RMK AC1AC5CI2 SLP167

CYGK;2013-03-10 22:00;CYGK 102200Z 17008KT 15SM FEW100 SCT160 OVC250 05/M01 A3001 RMK AC1AC2CI5 SLP167

CYGK;2013-03-10 23:00;CYGK 102300Z 17006KT 15SM BKN120 OVC250 05/M01 A3001 RMK AC7CI1 SLP168

CYGK;2013-03-11 00:00;CYGK 110000Z 16011G17KT 15SM BKN120 OVC250 06/M02 A3002 RMK AC7CI1 SLP171

CYGK;2013-03-11 01:00;CYGK 110100Z 17010KT 15SM BKN160 OVC250 05/M02 A3003 RMK AC6CI2 SLP175

CYGK;2013-03-11 02:00;CYGK 110200Z 17011G17KT 15SM SCT110 OVC150 05/M02 A3003 RMK AC3AC5 SLP174

CYGK;2013-03-11 03:00;CYGK 110300Z 16015G21KT 15SM BKN120 OVC160 06/M02 A3003 RMK AC6AC2 LAST OBS/NEXT 111000 UTC SLP173

CYGK;2013-03-11 10:00;CYGK 111000Z 13009KT 15SM BKN120 OVC250 05/M01 A2996 RMK AC6CI2 SLP148

CYGK;2013-03-11 11:00;CYGK 111100Z 14011KT 15SM VCSH BKN120 BKN250 04/M01 A2995 RMK AC5CI2 SLP145

CYGK;2013-03-11 12:00;CYGK 111200Z 18008KT 15SM VCSH FEW050 BKN110 OVC250 04/M01 A2997 RMK SC1AC5CI2 PRESRR SLP153

CYGK;2013-03-11 13:00;CYGK 111300Z 15007KT 15SM VCSH BKN080 OVC120 04/M01 A2998 RMK AC5AC3 SLP154

CYGK;2013-03-11 13:29;CYGK 111329Z 15009KT 15SM -RA BKN080 OVC120 04/M01 A2996 RMK AC6AC2 SLP150

CYGK;2013-03-11 14:00;CYGK 111400Z 16009KT 15SM SCT080 OVC120 04/M01 A2996 RMK AC4AC4 INTMT -RA PRESFR SLP150

CYGK;2013-03-11 14:27;CYGK 111427Z 16009KT 15SM SCT080 OVC120 04/M01 A2996 RMK AC4AC4 VIRGA SLP148

CYGK;2013-03-11 15:00;CYGK 111500Z 16011KT 15SM SCT080 OVC100 05/M01 A2996 RMK AC3AC5 VIRGA SLP149

CYGK;2013-03-11 16:00;CYGK 111600Z 15012G19KT 15SM BKN100 OVC220 05/M01 A2992 RMK AC5CI3 PRESFR SLP135

CYGK;2013-03-11 17:00;CYGK 111700Z 16012KT 15SM FEW080 BKN110 OVC220 04/M01 A2993 RMK AC2AC4CI2 PRESFR SLP138

CYGK;2013-03-11 18:00;CYGK 111800Z 16012KT 15SM FEW080 BKN120 OVC250 05/M00 A2989 RMK AC1AC5CI2 SLP124

CYGK;2013-03-11 19:00;CYGK 111900Z 16012G22KT 15SM SCT090 OVC250 05/M00 A2985 RMK AC3CI5 SLP111

CYGK;2013-03-11 20:00;CYGK 112000Z 14006KT 15SM FEW060 BKN090 OVC250 05/00 A2985 RMK SC1AC4CI3 SLP112

CYGK;2013-03-11 21:00;CYGK 112100Z 14004KT 15SM FEW060 SCT100 BKN250 06/00 A2983 RMK CU1AC3CI3 PRESFR SLP103

CYGK;2013-03-11 22:00;CYGK 112200Z 15009KT 15SM FEW100 OVC250 05/00 A2981 RMK AC1CS7 SLP098

CYGK;2013-03-11 23:00;CYGK 112300Z 17011G18KT 15SM BKN100 OVC240 06/M00 A2979 RMK AC6CS2 PRESRR SLP090

CYGK;2013-03-12 00:00;CYGK 120000Z 15009KT 15SM OVC095 05/M00 A2976 RMK AC8 SLP083

CYGK;2013-03-12 00:12;CYGK 120012Z 16012KT 15SM -RA OVC085 05/00 A2976 RMK AC8 SLP083

CYGK;2013-03-12 01:00;CYGK 120100Z 15010KT 15SM -RA OVC080 05/00 A2975 RMK AC8 PRESFR SLP077

CYGK;2013-03-12 02:00;CYGK 120200Z 17011KT 15SM -RA OVC070 05/01 A2978 RMK AC8 SLP088

CYGK;2013-03-12 03:00;CYGK 120300Z 16013KT 12SM -RA OVC070 04/02 A2975 RMK AC8 LAST OBS/NEXT 121000 UTC SLP079

CYGK;2013-03-12 10:00;CYGK 121000Z 23006KT 9SM -RA SCT003 OVC055 04/04 A2975 RMK SF4SC4 SLP078

CYGK;2013-03-12 11:00;CYGK 121100Z 25008KT 9SM -RA BKN034 OVC055 03/02 A2978 RMK SC5SC3 SLP088

CYGK;2013-03-12 11:48;CYGK 121148Z 24009KT 12SM SCT033 OVC055 03/02 A2979 RMK SC3SC5 SLP090

CYGK;2013-03-12 12:00;CYGK 121200Z 23010KT 15SM SCT032 OVC053 03/02 A2979 RMK SC4SC4 SLP091

CYGK;2013-03-12 12:21;CYGK 121221Z 21009KT 15SM -RA BKN035 OVC053 03/02 A2980 RMK SC5SC3 SLP094

CYGK;2013-03-12 12:44;CYGK 121244Z 23010KT 15SM BKN035 03/01 A2979 RMK SC5 SLP092

CYGK;2013-03-12 13:00;CYGK 121300Z 22010KT 15SM -RA BKN036 BKN070 03/01 A2979 RMK SC6AC1 SLP092

CYGK;2013-03-12 13:23;CYGK 121323Z 22010KT 15SM BKN035 BKN070 03/01 A2980 RMK SC5AC1 TR SF SLP094

CYGK;2013-03-12 14:00;CYGK 121400Z 21007KT 15SM BKN040 03/01 A2981 RMK SC7 SF TR SLP098

CYGK;2013-03-12 14:19;CYGK 121419Z 22009KT 12SM -RA BKN040 OVC080 03/01 A2981 RMK SC7AC1 SF TR SLP099

CYGK;2013-03-12 14:43;CYGK 121443Z 23008KT 15SM BKN046 BKN080 03/01 A2980 RMK SC6AC1 SF TR SLP096

CYGK;2013-03-12 15:00;CYGK 121500Z 22008KT 15SM BKN045 BKN080 03/01 A2981 RMK SC6AC1 SF TR SLP098

CYGK;2013-03-12 16:00;CYGK 121600Z 23008KT 15SM BKN047 BKN080 03/01 A2981 RMK SC6AC1 SF TR SLP098

CYGK;2013-03-12 17:00;CYGK 121700Z 21008KT 15SM FEW024 BKN057 04/02 A2980 RMK SC1SC6 SLP093

CYGK;2013-03-12 18:00;CYGK 121800Z 20010KT 15SM SCT024 OVC057 03/01 A2980 RMK SC3SC5 SLP093

CYGK;2013-03-12 19:00;CYGK 121900Z 23015KT 15SM FEW018 SCT040 SCT250 05/01 A2978 RMK CU2SC1CI1 SLP087

CYGK;2013-03-12 20:00;CYGK 122000Z 24013KT 15SM FEW025 SCT040 SCT200 04/00 A2978 RMK CU2SC1CI1 SLP088

CYGK;2013-03-12 21:00;CYGK 122100Z 24012G21KT 15SM BKN028 BKN062 03/M00 A2980 RMK CU6SC1 SLP094

CYGK;2013-03-12 22:00;CYGK 122200Z 24011KT 15SM BKN018 BKN067 03/00 A2981 RMK CU5AC2 SLP097

CYGK;2013-03-12 23:00;CYGK 122300Z 25009KT 15SM BKN018 OVC067 02/M00 A2983 RMK CU6AC2 SLP103

CYGK;2013-03-13 00:00;CYGK 130000Z 24012KT 15SM SCT018 OVC030 02/M00 A2984 RMK CU3SC5 SLP109

CYGK;2013-03-13 01:00;CYGK 130100Z 25010KT 15SM FEW018 OVC050 02/00 A2985 RMK CU2SC6 SLP113

CYGK;2013-03-13 01:36;CYGK 130136Z 25007KT 15SM SCT014 OVC055 02/M00 A2985 RMK CU3SC5 SLP112

CYGK;2013-03-13 02:00;CYGK 130200Z 23009KT 15SM SCT027 OVC042 02/00 A2986 RMK SC4SC4 SLP115

CYGK;2013-03-13 03:00;CYGK 130300Z 25009KT 15SM FEW027 OVC055 02/M00 A2986 RMK SC1SC7 LAST OBS/NEXT 131000UTC SLP115

CYGK;2013-03-13 10:00;CYGK 131000Z 25005KT 15SM FEW048 OVC069 00/M01 A2984 RMK SC2AC6 SLP109

CYGK;2013-03-13 11:00;CYGK 131100Z 24004KT 15SM OVC071 M00/M01 A2983 RMK AC8 SLP106

CYGK;2013-03-13 11:25;CYGK 131125Z 24005KT 15SM -SN FEW035 OVC070 M00/M01 A2983 RMK SC1AC7 SLP107

CYGK;2013-03-13 12:00;CYGK 131200Z 25006KT 9SM -SN BKN037 OVC070 M00/M01 A2984 RMK SC6AC2 SLP108

CYGK;2013-03-13 12:16;CYGK 131216Z 25004KT 2SM -SN BKN020 OVC040 M00/M01 A2983 RMK SC6SC2 SLP107

CYGK;2013-03-13 12:27;CYGK 131227Z 24004KT 3SM -SN SCT018 OVC032 M00/M01 A2983 RMK SC3SC5 SLP107

CYGK;2013-03-13 13:00;CYGK 131300Z 23003KT 3/4SM -SN FEW003 BKN008 OVC016 M00/M01 A2984 RMK SF2SF3SC3 SLP108

CYGK;2013-03-13 13:12;CYGK 131312Z 24003KT 3/8SM SN VV003 M00/M01 A2983 RMK SN8 SLP107

CYGK;2013-03-13 13:18;CYGK 131318Z 23004KT 1SM -SN SCT003 OVC010 M00/M01 A2983 RMK SF3SC5 SLP107

CYGK;2013-03-13 13:39;CYGK 131339Z 23004KT 1 1/2SM -SN SCT003 OVC009 M00/M01 A2983 RMK SF3SC5 SLP107

CYGK;2013-03-13 14:00;CYGK 131400Z 24004KT 2SM -SN FEW003 SCT008 OVC015 M00/M01 A2983 RMK SF2SF2SC4 SLP106

CYGK;2013-03-13 14:46;CYGK 131446Z 22005KT 4SM -SN FEW004 SCT012 OVC070 M00/M01 A2983 RMK SF1SC3AC4 SLP105

CYGK;2013-03-13 15:03;CYGK 131503Z 23007KT 1 1/2SM -SN VV007 M00/M02 A2984 RMK SN8 SLP108

CYGK;2013-03-13 15:08;CYGK 131508Z 22007KT 1/2SM SN VV004 M00/M01 A2984 RMK SN8 SLP108

CYGK;2013-03-13 15:33;CYGK 131533Z 23007KT 5SM -SN FEW007 SCT020 BKN040 00/M01 A2983 RESN RMK SF1CU3SC3 SLP107

CYGK;2013-03-13 16:00;CYGK 131600Z 23008KT 15SM -SN FEW020 SCT040 BKN250 01/M01 A2984 RESN RMK CU2SC2CI1 VIS LWR N SLP108

CYGK;2013-03-13 16:21;CYGK 131621Z 21007KT 15SM SCT023 BKN120 01/M02 A2983 RMK SC3AC3 SLP107

CYGK;2013-03-13 17:00;CYGK 131700Z 24008KT 15SM SCT038 BKN120 02/M02 A2983 RMK SC3AC4 TR CU 023 SLP106

CYGK;2013-03-13 17:51;CYGK 131751Z 20010KT 4SM -SN SCT018 OVC120 01/M01 A2982 RMK SC3AC5 SLP103

CYGK;2013-03-13 18:00;CYGK 131800Z 21013KT 2 1/2SM -SN BKN018 OVC120 01/M01 A2982 RMK SC6AC2 SLP102

CYGK;2013-03-13 18:05;CYGK 131805Z 23011G17KT 5SM -SN FEW005 OVC018 01/M01 A2982 RMK SF1SC8 SF TR SLP102

CYGK;2013-03-13 19:00;CYGK 131900Z 20012KT 12SM VCSH FEW009 SCT018 BKN045 02/00 A2980 RMK SF1CU4SC3 SF TR VIS LWR N SLP095

CYGK;2013-03-13 20:00;CYGK 132000Z 22009KT 12SM FEW016 BKN100 BKN200 02/M01 A2980 RMK CU2AC3CI2 SLP093

CYGK;2013-03-13 21:00;CYGK 132100Z 20009KT 15SM FEW017 SCT120 BKN200 02/M01 A2979 RMK CU2AC2CI3 TCU ASOCTD SLP093

CYGK;2013-03-13 22:00;CYGK 132200Z 22010KT 10SM -SHSN SCT020TCU BKN110 01/M02 A2980 RMK TCU4AC3 SLP094

CYGK;2013-03-13 22:21;CYGK 132221Z 24016G22KT 1 1/2SM -SHSN OVC018TCU 00/M02 A2980 RMK SN4TCU4 VIS S-W 3/4 SLP096

CYGK;2013-03-13 22:25;CYGK 132225Z 23016G22KT 3/8SM SHSN VV003 00/M01 A2980 RMK SN8 SLP097

CYGK;2013-03-13 22:28;CYGK 132228Z 24015G22KT 3/4SM -SHSN VV010 M00/M02 A2980 RMK SN8 SLP097

CYGK;2013-03-13 22:35;CYGK 132235Z 25011G19KT 1 1/2SM -SHSN BKN017TCU M00/M01 A2980 RESN RMK SN2TCU4 VIS S-W 8 SLP097

CYGK;2013-03-13 22:41;CYGK 132241Z 25008G15KT 5SM -SHSN FEW017TCU SCT028 BKN075 M00/M01 A2980 RESN RMK TCU2SC2AC3 VIS S-W 10 SLP097

CYGK;2013-03-13 23:00;CYGK 132300Z 25010KT 15SM FEW017 SCT035 BKN085 BKN250 M00/M02 A2981 RESN RMK CF1SC2AC2CI2 SLP098

CYGK;2013-03-14 00:00;CYGK 140000Z 25012G20KT 15SM FEW020TCU SCT100 SCT160 M00/M04 A2981 RMK TCU1AC2AC1 SLP099

CYGK;2013-03-14 00:35;CYGK 140035Z 27012KT 15SM -SHSN BKN020 OVC095 M00/M04 A2982 RMK CU5AC3 SLP103

CYGK;2013-03-14 01:00;CYGK 140100Z 26012KT 15SM FEW020 SCT130 M01/M05 A2982 RMK CU2AC2 OCNL -SHSN SLP103

CYGK;2013-03-14 02:00;CYGK 140200Z 24010G15KT 8SM -SHSN SCT017 OVC040 M01/M04 A2983 RMK CU4SC4 VIS S-SW 4 SLP104

CYGK;2013-03-14 03:00;CYGK 140300Z 26011G19KT 15SM VCSH FEW020 SCT052 M03/M07 A2983 RMK CU1SC2 LAST OBS/NEXT 141000UTC SLP107

CYGK;2013-03-14 10:00;CYGK 141000Z 32012G19KT 15SM FEW031 OVC053 M08/M14 A2991 RMK SC1SC7 SLP135

CYGK;2013-03-14 11:00;CYGK 141100Z 32014G22KT 15SM BKN030 OVC053 M09/M15 A2994 RMK SC6SC2 SLP145

CYGK;2013-03-14 12:00;CYGK 141200Z 31014G22KT 15SM FEW030 FEW053 SCT100 BKN240 M10/M17 A2998 RMK SC1SC1AC1CI2 SLP158

CYGK;2013-03-14 13:00;CYGK 141300Z 30013G20KT 15SM FEW030 SCT140 BKN200 M09/M16 A3000 RMK CF1AC2CI3 SLP164

CYGK;2013-03-14 14:00;CYGK 141400Z 30010G17KT 15SM BKN037 M09/M16 A3000 RMK SC7 SLP165

CYGK;2013-03-14 15:00;CYGK 141500Z 30008G18KT 15SM BKN043 M08/M15 A2998 RMK CU7 SLP160

CYGK;2013-03-14 16:00;CYGK 141600Z 27010G16KT 15SM VCSH FEW026 OVC035 M07/M13 A2997 RMK CU2SC6 VIS LWR N SLP156

CYGK;2013-03-14 17:00;CYGK 141700Z 30013G19KT 15SM FEW025 BKN042 M06/M13 A2995 RMK CU1SC6 TR CI SLP148

CYGK;2013-03-14 18:00;CYGK 141800Z 29011G16KT 15SM VCSH SCT030 BKN045 M05/M11 A2994 RMK CU3SC4 SLP144

CYGK;2013-03-14 18:14;CYGK 141814Z 27011G16KT 15SM -SHSN FEW022 BKN035 OVC045 M04/M11 A2993 RMK SF1CU6SC1 SLP142

CYGK;2013-03-14 18:38;CYGK 141838Z 30011KT 15SM SCT030 OVC040 M04/M11 A2992 RMK CU4SC4 VIRGA ALQDS SLP137

CYGK;2013-03-14 19:00;CYGK 141900Z 28014G23KT 15SM FEW020 OVC035 M03/M11 A2991 RMK SC1CU8 SC TR VIRGA ALQDS SLP135

CYGK;2013-03-14 20:00;CYGK 142000Z 31017G22KT 15SM FEW040 OVC058 M03/M11 A2992 RMK SC1CU7 VIRGA ALQDS SLP138

CYGK;2013-03-14 21:00;CYGK 142100Z 32012G18KT 15SM VCSH FEW040 BKN061 M02/M11 A2992 RMK CU2SC5 SLP138

CYGK;2013-03-14 22:00;CYGK 142200Z 31010G17KT 15SM FEW040 BKN062 M02/M11 A2993 RMK CU1SC6 SHWRS SE SLP141

CYGK;2013-03-14 23:00;CYGK 142300Z 31010KT 15SM FEW040 BKN065 BKN250 M02/M12 A2994 RMK CU1SC6CI1 CU TR SLP145

CYGK;2013-03-15 00:00;CYGK 150000Z 31010KT 15SM SCT066 BKN250 M02/M13 A2996 RMK SC4CI1 SLP152

CYGK;2013-03-15 01:00;CYGK 150100Z 33005KT 15SM SCT065 M04/M12 A2998 RMK SC3 SLP158

CYGK;2013-03-15 02:00;CYGK 150200Z 29005KT 15SM FEW065 M04/M12 A3000 RMK SC1 SLP164

CYGK;2013-03-15 03:00;CYGK 150300Z 27004KT 15SM FEW065 M05/M12 A3001 RMK SC1 LAST OBS/NEXT 151000UTC SLP168

CYGK;2013-03-15 10:00;CYGK 151000Z 25004KT 15SM FEW060 OVC100 M04/M09 A2987 RMK SC2AC6 VIRGA SLP120

CYGK;2013-03-15 11:00;CYGK 151100Z 21005KT 15SM BKN055 BKN080 OVC250 M04/M08 A2984 RMK SC5AC1CI2 SLP111

CYGK;2013-03-15 12:00;CYGK 151200Z 20007KT 15SM SCT030 BKN040 BKN060 OVC080 M02/M06 A2980 RMK SC3SC2SC1AC2 SLP097

CYGK;2013-03-15 12:50;CYGK 151250Z 19010KT 4SM -SN OVC023 M01/M05 A2977 RMK SC8 SLP084

CYGK;2013-03-15 13:00;CYGK 151300Z 20013G18KT 4SM -SN SCT018 OVC025 M01/M04 A2976 RMK SC3SC5 SLP082

CYGK;2013-03-15 13:14;CYGK 151314Z 21014KT 2SM -SN BKN013 OVC040 M01/M03 A2975 RMK SN2SC4SC2 SLP078

CYGK;2013-03-15 14:00;CYGK 151400Z 20015KT 1SM -SN VV008 M01/M03 A2972 RMK SN8 SLP071

CYGK;2013-03-15 14:31;CYGK 151431Z 21012KT 5/8SM -SN OVC008 M01/M02 A2971 RMK SN6SC2 SLP066

CYGK;2013-03-15 14:38;CYGK 151438Z 21012KT 5/8SM -SN OVC005 M01/M02 A2970 RMK SN6SF2 SLP064

CYGK;2013-03-15 14:43;CYGK 151443Z 22016KT 1SM -SN BKN005 OVC013 M01/M02 A2970 RMK SN2SF4SC2 SLP063

CYGK;2013-03-15 15:00;CYGK 151500Z 24010G19KT 1SM -SN BKN005 OVC015 M00/M02 A2970 RMK SN1SF5SC2 SLP061

CYGK;2013-03-15 15:08;CYGK 151508Z 24011KT 1 1/2SM -SN SCT005 VV025 M00/M02 A2970 RMK SF4SN4 SLP061

CYGK;2013-03-15 16:00;CYGK 151600Z 24014G19KT 1 1/4SM -SN OVC007 M00/M02 A2967 RMK SN3SF5 SLP054

CYGK;2013-03-15 16:08;CYGK 151608Z 24013G20KT 3SM -SN BKN008 OVC015 00/M02 A2967 RMK SF5SC3 SLP053

CYGK;2013-03-15 17:00;CYGK 151700Z 24013G20KT 15SM -SN FEW010 OVC018 01/M02 A2965 RMK CF2CU6 SLP046

CYGK;2013-03-15 17:40;CYGK 151740Z 24016KT 2SM -SN BKN020 OVC080 01/M02 A2964 RMK SC7AC1 VIS E 4 SLP043

CYGK;2013-03-15 18:00;CYGK 151800Z 25015KT 3SM -SN FEW013 BKN020 OVC040 01/M01 A2964 RMK SF1SC6SC1 SLP043

CYGK;2013-03-15 18:41;CYGK 151841Z 24015KT 12SM VCSH FEW020 SCT060 02/M00 A2962 RMK CU1SC2 SLP034

CYGK;2013-03-15 19:00;CYGK 151900Z 25017G25KT 12SM VCSH FEW020 BKN058 03/M01 A2961 RMK CU2SC3 SLP032

CYGK;2013-03-15 19:50;CYGK 151950Z 27016G23KT 15SM -SN SCT030 BKN040 03/M04 A2961 RMK CU3SC3 SLP032

CYGK;2013-03-15 20:00;CYGK 152000Z 27014G22KT 15SM -SN SCT030 BKN040 04/M04 A2961 RMK CU4SC2 SLP032

CYGK;2013-03-15 21:00;CYGK 152100Z 27015KT 15SM -SHSN BKN050 04/M05 A2962 RMK CU6 OCNL -SHSN SLP035

CYGK;2013-03-15 22:00;CYGK 152200Z 30008KT 15SM BKN055 03/M06 A2965 RMK CU6 OCNL -SHSN SLP043

CYGK;2013-03-15 22:48;CYGK 152248Z 30012G19KT 15SM VCSH SCT055 BKN079 02/M08 A2968 RMK CU4AC2 SLP055

CYGK;2013-03-15 23:00;CYGK 152300Z 31011G18KT 15SM VCSH FEW055 BKN075 02/M09 A2969 RMK CU2AC4 SLP058

CYGK;2013-03-16 00:00;CYGK 160000Z 34015KT 15SM SCT056 00/M09 A2973 RMK SC4 TR CI SLP074

CYGK;2013-03-16 01:00;CYGK 160100Z 33011KT 15SM SCT063 M01/M10 A2978 RMK SC3 SLP088

CYGK;2013-03-16 02:00;CYGK 160200Z 32011KT 15SM FEW065 M02/M11 A2981 RMK SC1 SLP099

CYGK;2013-03-16 03:00;CYGK 160300Z 31007KT 15SM SKC M03/M11 A2985 RMK LAST OBS/NEXT 161100 UTC SLP111

CYGK;2013-03-16 10:00;CYGK 161000Z 01011KT 15SM SCT140 M08/M15 A2991 RMK AC4 SLP133

CYGK;2013-03-16 11:00;CYGK 161100Z 01011KT 15SM BKN130 M08/M16 A2991 RMK AS7 SLP134

CYGK;2013-03-16 12:00;CYGK 161200Z 03010KT 15SM BKN100 BKN130 M08/M16 A2993 RMK AC5AS2 SLP140

CYGK;2013-03-16 13:00;CYGK 161300Z 01013KT 15SM FEW030 BKN110 M09/M16 A2993 RMK SC1AS6 SLP142

CYGK;2013-03-16 14:00;CYGK 161400Z 02009G15KT 15SM FEW030 SCT110 BKN250 M08/M15 A2993 RMK SC1AC4CI2 SC TR SLP141

CYGK;2013-03-16 15:00;CYGK 161500Z 04009KT 15SM FEW030 BKN130 BKN250 M07/M15 A2992 RMK SC1AC5CI2 SC TR SLP139

CYGK;2013-03-16 16:00;CYGK 161600Z 07006KT 15SM FEW080 BKN130 OVC250 M07/M16 A2992 RMK AC2AS4CC2 SLP138

CYGK;2013-03-16 17:00;CYGK 161700Z 04005KT 15SM BKN100 BKN250 M06/M15 A2991 RMK AC5CI2 SLP135

CYGK;2013-03-16 18:00;CYGK 161800Z 01003KT 15SM BKN140 BKN250 M05/M15 A2989 RMK AC5CI2 SLP128

CYGK;2013-03-16 19:00;CYGK 161900Z 33005KT 15SM OVC120 M05/M15 A2989 RMK AC8 SLP127

CYGK;2013-03-16 20:00;CYGK 162000Z 35004KT 15SM BKN120 M05/M14 A2989 RMK AC7 SLP128

CYGK;2013-03-16 21:00;CYGK 162100Z 01003KT 15SM BKN110 M05/M15 A2989 RMK AC7 SLP128

CYGK;2013-03-16 22:00;CYGK 162200Z 28003KT 15SM SCT110 M04/M15 A2990 RMK AC3 SLP130

CYGK;2013-03-16 23:00;CYGK 162300Z 13003KT 15SM FEW110 M05/M14 A2990 RMK AC1 SLP132

CYGK;2013-03-17 00:00;CYGK 170000Z 12002KT 15SM FEW110 M06/M14 A2992 RMK AC1 AC TR SLP137

CYGK;2013-03-17 01:00;CYGK 170100Z 23006KT 15SM SKC M06/M13 A2994 RMK SLP145

CYGK;2013-03-17 02:00;CYGK 170200Z 22007KT 15SM SKC M06/M12 A2995 RMK SLP149

CYGK;2013-03-17 03:00;CYGK 170300Z 23006KT 15SM SKC M06/M11 A2995 RMK LAST OBS/NEXT 171000 UTC SLP148

CYGK;2013-03-17 10:00;CYGK 171000Z 30006KT 15SM FEW070 BKN090 M08/M14 A3006 RMK AC2AC5 SLP183

CYGK;2013-03-17 11:00;CYGK 171100Z 30004KT 15SM FEW090 SCT250 M09/M15 A3009 RMK AC1CI2 SLP195

CYGK;2013-03-17 12:00;CYGK 171200Z 34004KT 15SM FEW090 FEW250 M09/M14 A3011 RMK AC1CI1 SLP201

CYGK;2013-03-17 13:00;CYGK 171300Z 31003KT 15SM SCT075 M07/M13 A3014 RMK AC4 SLP212

CYGK;2013-03-17 14:00;CYGK 171400Z 31009KT 15SM FEW060 SCT080 SCT250 M05/M14 A3016 RMK SC1AC2CI1 SLP220

CYGK;2013-03-17 15:00;CYGK 171500Z 33008G16KT 15SM FEW040 FEW060 FEW100 FEW250 M04/M15 A3019 RMK CF1SC1AC1CI1 CF TR SC TR AC TR CI TR SLP228

CYGK;2013-03-17 16:00;CYGK 171600Z 32010G18KT 15SM FEW040 FEW250 M03/M16 A3021 RMK CF1CI1 CF TR SLP235

CYGK;2013-03-17 17:00;CYGK 171700Z 33015KT 15SM FEW050 FEW250 M03/M17 A3022 RMK CF1CI1 CF TR CI TR SLP240

CYGK;2013-03-17 18:00;CYGK 171800Z 33009G17KT 15SM FEW050 FEW250 M02/M16 A3022 RMK CF1CI1 CF TR CI TR SLP239

CYGK;2013-03-17 19:00;CYGK 171900Z 34007G19KT 15SM FEW060 FEW250 M03/M18 A3022 RMK CF1CI1 CF TR CI TR SLP241

CYGK;2013-03-17 20:00;CYGK 172000Z 31006KT 270V330 15SM FEW060 FEW250 M02/M18 A3023 RMK CF1CI1 CF TR CI TR SLP244

CYGK;2013-03-17 21:00;CYGK 172100Z 34008KT 260V340 15SM FEW250 M02/M17 A3024 RMK CI1 CI TR SLP248

CYGK;2013-03-17 22:00;CYGK 172200Z 01006KT 15SM FEW250 M02/M18 A3026 RMK CI1 CI TR SLP252

CYGK;2013-03-17 23:00;CYGK 172300Z 32004KT 15SM FEW230 M03/M18 A3027 RMK CI1 CI TR SLP256

CYGK;2013-03-18 00:00;CYGK 180000Z 00000KT 15SM FEW230 M03/M15 A3030 RMK CI1 CI TR SLP267

CYGK;2013-03-18 01:00;CYGK 180100Z 00000KT 15SM SKC M04/M15 A3031 RMK SLP271

CYGK;2013-03-18 02:00;CYGK 180200Z 07002KT 15SM SKC M07/M13 A3032 RMK SLP274

CYGK;2013-03-18 03:00;CYGK 180300Z 02002KT 15SM SKC M07/M12 A3033 RMK LAST OBS/NEXT 181000 UTC SLP277

CYGK;2013-03-18 10:00;CYGK 181000Z 06008KT 15SM SKC M09/M14 A3037 RMK SLP289

CYGK;2013-03-18 11:00;CYGK 181100Z 05008KT 15SM FEW020 FEW200 M08/M14 A3038 RMK CU1CI1 CU TR SLP293

CYGK;2013-03-18 12:00;CYGK 181200Z 07008KT 15SM BKN250 M08/M13 A3038 RMK CS5 SLP295

CYGK;2013-03-18 13:00;CYGK 181300Z 09009KT 15SM FEW200 BKN250 M05/M13 A3039 RMK CI1CI6 SLP296

CYGK;2013-03-18 14:00;CYGK 181400Z 08011KT 15SM FEW190 OVC250 M04/M12 A3035 RMK AS2CS6 SLP284

CYGK;2013-03-18 15:00;CYGK 181500Z 07012G20KT 15SM FEW160 OVC240 M02/M13 A3032 RMK AS2CS6 SLP275

CYGK;2013-03-18 16:00;CYGK 181600Z 07016G21KT 15SM FEW180 OVC240 M02/M15 A3030 RMK AS2CS6 SLP267

CYGK;2013-03-18 17:00;CYGK 181700Z 07015G20KT 15SM FEW180 OVC230 M01/M14 A3027 RMK AS2CS6 SLP256

CYGK;2013-03-18 18:00;CYGK 181800Z 06018KT 15SM FEW160 OVC220 M01/M14 A3022 RMK AS2CS6 PRESFR SLP238

CYGK;2013-03-18 19:05;CYGK 181905Z 06019KT 15SM OVC180 00/M14 A3016 RMK AS8 DATA FM 1905 DUE PWR BUMP SLP217

CYGK;2013-03-18 20:00;CYGK 182000Z 07014G19KT 15SM FEW060 OVC160 01/M13 A3012 RMK SC2AS6 SLP206

CYGK;2013-03-18 21:00;CYGK 182100Z 07015KT 15SM FEW070 OVC140 01/M13 A3009 RMK AC1AS7 SLP193

CYGK;2013-03-18 22:00;CYGK 182200Z 07011KT 15SM SCT055 OVC120 01/M12 A3006 RMK SC4AS4 SLP184

CYGK;2013-03-18 23:00;CYGK 182300Z 08009KT 15SM BKN040 01/M12 A3005 RMK SC7 VIRGA SLP182

CYGK;2013-03-18 23:13;CYGK 182313Z 08006KT 12SM -SN OVC040 00/M10 A3005 RMK SC8 SLP181

CYGK;2013-03-19 00:00;CYGK 190000Z 11012G20KT 10SM -SN OVC025 M01/M05 A3005 RMK SC8 SLP180

CYGK;2013-03-19 01:00;CYGK 190100Z 07012G17KT 2 1/2SM -SN VV012 M02/M04 A2999 RMK SN8 SLP162

CYGK;2013-03-19 02:00;CYGK 190200Z 07017KT 3SM -SN VV010 M02/M04 A2995 RMK SN8 SLP146

CYGK;2013-03-19 02:19;CYGK 190219Z 09013G21KT 1 3/4SM -SN VV007 M02/M04 A2993 RMK SHGR8 SLP141

CYGK;2013-03-19 02:29;CYGK 190229Z 08015G23KT 1 1/4SM -SN VV005 M02/M04 A2993 RMK SN8 PRESFR SLP139

CYGK;2013-03-19 02:50;CYGK 190250Z 10015G20KT 5/8SM -SN VV003 M02/M03 A2991 RMK SN8 SLP135

CYGK;2013-03-19 03:00;CYGK 190300Z 08015KT 1/2SM SN VV003 M02/M03 A2991 RMK SN8 LAST OBS/NEXT 191000 UTC PRESFR SLP132

CYGK;2013-03-19 10:00;CYGK 191000Z 16021G28KT 2 1/2SM -SN BLSN OVC004 M01/M01 A2972 RMK SF8 /S12 AFT 00UTC/ SLP067

CYGK;2013-03-19 10:25;CYGK 191025Z 16021G28KT 4SM -SN BLSN OVC008 M01/M01 A2971 RMK SF8 SLP066

CYGK;2013-03-19 10:39;CYGK 191039Z 16019G26KT 6SM -SN OVC006 M00/M01 A2971 RMK SF8 SLP065

CYGK;2013-03-19 11:00;CYGK 191100Z 16023KT 10SM -SN BKN006 OVC015 M00/M01 A2971 RMK SF7NS1 SLP064

CYGK;2013-03-19 11:36;CYGK 191136Z 16022G27KT 2 1/2SM -SN BKN006 OVC015 M00/M01 A2972 RMK SF7NS1 SLP069

CYGK;2013-03-19 11:41;CYGK 191141Z 16021G28KT 4SM -SN BKN006 OVC013 M00/M01 A2972 RMK SF6NS2 SLP069

CYGK;2013-03-19 12:00;CYGK 191200Z 16018G25KT 4SM -SN BKN005 OVC015 M00/M01 A2972 RMK SF7NS1 SLP068

CYGK;2013-03-19 12:39;CYGK 191239Z 16020G29KT 2 1/2SM -SN OVC005 M00/M01 A2972 RMK SF8 SLP068

CYGK;2013-03-19 12:52;CYGK 191252Z 16021G28KT 1 1/2SM -SN BKN003 OVC008 M00/M01 A2971 RMK SN2SF4NS2 SLP067

CYGK;2013-03-19 13:00;CYGK 191300Z 16019G26KT 2SM -SN BKN004 OVC010 M00/M01 A2971 RMK SF6NS2 SLP066

CYGK;2013-03-19 13:13;CYGK 191313Z 16019G26KT 3SM -SN BKN004 OVC010 M00/M01 A2971 RMK SF6NS2 SLP067

CYGK;2013-03-19 13:33;CYGK 191333Z 16020G26KT 10SM VCSH BKN005 OVC010 00/M01 A2971 RMK SF5SC3 SLP066

CYGK;2013-03-19 14:00;CYGK 191400Z 17018KT 15SM SCT005 OVC011 01/M01 A2971 RMK SF3SC5 SLP067

CYGK;2013-03-19 14:46;CYGK 191446Z 17017G22KT 15SM FEW005 SCT013 BKN047 01/M01 A2971 RMK SF1SC2SC4 SLP065

CYGK;2013-03-19 15:00;CYGK 191500Z 16016G24KT 15SM FEW005 FEW013 BKN047 01/M00 A2970 RMK SF1SC2SC5 SF TR SLP063

CYGK;2013-03-19 16:00;CYGK 191600Z 15017G22KT 15SM FEW007 FEW020 SCT045 BKN068 01/M01 A2970 RMK SF1SC2SC2AC3 SF TR SLP060

CYGK;2013-03-19 17:00;CYGK 191700Z 17013KT 15SM BKN018 OVC070 02/M01 A2969 RMK SC7AC1 SLP057

CYGK;2013-03-19 17:31;CYGK 191731Z 17011G17KT 15SM OVC017 01/M01 A2970 RMK SC8 UA/3N CLD BASE 011 ASL SLP060

CYGK;2013-03-19 18:00;CYGK 191800Z 17013KT 15SM -SN OVC016 01/M01 A2969 RMK SC8 VIS W 2 SLP058

CYGK;2013-03-19 18:22;CYGK 191822Z 18011KT 2SM -SN OVC012 01/M01 A2969 RMK NS8 SLP057

CYGK;2013-03-19 18:31;CYGK 191831Z 19012KT 1SM -SN OVC008 01/M01 A2969 RMK SF8 SLP058

CYGK;2013-03-19 18:35;CYGK 191835Z 20013KT 3/4SM -SN VV005 01/M00 A2969 RMK SN8 SLP059

CYGK;2013-03-19 18:44;CYGK 191844Z 22010G18KT 2SM -SN BKN002 OVC026 00/M00 A2969 RMK ST5SC3 SLP059

CYGK;2013-03-19 19:00;CYGK 191900Z 23014KT 3SM -SN SCT002 OVC035 01/M01 A2969 RMK SF3SC5 SLP059

CYGK;2013-03-19 19:18;CYGK 191918Z 24017KT 2SM -SN FEW002 OVC035 00/M02 A2970 RMK SF1SC7 VIS VRB 1-3 SLP062

CYGK;2013-03-19 20:00;CYGK 192000Z 24011KT 2SM -SN FEW008 OVC030 M00/M02 A2970 RMK SF2SC6 VIS VRB 1-3 SLP063

CYGK;2013-03-19 20:13;CYGK 192013Z 24010G16KT 4SM -SN FEW008 OVC025 00/M02 A2970 RMK SF2SC6 SLP063

CYGK;2013-03-19 21:00;CYGK 192100Z 24016KT 12SM SCT012 BKN040 01/M04 A2971 RMK CU4SC3 SLP065

CYGK;2013-03-19 22:00;CYGK 192200Z 24012G24KT 15SM SCT020 BKN090 BKN250 00/M05 A2973 RMK CU3AC2CI1 CI TR SLP072

CYGK;2013-03-19 23:00;CYGK 192300Z 25015G22KT 15SM VCSH BKN022 M01/M05 A2974 RMK CU5 SLP076

CYGK;2013-03-20 00:00;CYGK 200000Z 25012G18KT 15SM SCT025 BKN075 M02/M05 A2976 RMK CU4AC2 SLP083

CYGK;2013-03-20 01:00;CYGK 200100Z 26008KT 15SM SCT030 OVC065 M02/M05 A2978 RMK CU3SC5 SLP088

CYGK;2013-03-20 01:33;CYGK 200133Z 27011KT 8SM -SN BKN020 OVC065 M02/M05 A2978 RMK CU5SC3 SLP090

CYGK;2013-03-20 02:00;CYGK 200200Z 26005KT 12SM SCT020 BKN040 OVC100 M03/M05 A2978 RMK CU3SC3AC2 SLP089

CYGK;2013-03-20 03:00;CYGK 200300Z 25008KT 15SM FEW025 FEW060 BKN110 M03/M06 A2978 RMK CU1SC1AC4 LAST OBS/NEXT 201000 UTC SLP090

CYGK;2013-03-20 10:00;CYGK 201000Z 24011KT 6SM -SHSN BKN030 OVC070 M04/M06 A2975 RMK CU6AC2 SLP079

CYGK;2013-03-20 10:18;CYGK 201018Z 25012KT 5SM -SHSN DRSN FEW008 OVC025 M04/M05 A2975 RMK SF2CU6 SLP079

CYGK;2013-03-20 10:41;CYGK 201041Z 25010G17KT 5SM -SHSN DRSN BKN008 OVC022 M04/M05 A2975 RMK SF6CU2 SLP078

CYGK;2013-03-20 11:00;CYGK 201100Z 25011KT 6SM -SHSN DRSN SCT008 BKN020 OVC090 M04/M05 A2975 RMK SF4CU2AC2 SLP079

CYGK;2013-03-20 11:47;CYGK 201147Z 26008KT 5SM -SHSN DRSN BKN007 BKN025 BKN090 M04/M05 A2975 RMK SF5CU2AC1 AC TR SLP078

CYGK;2013-03-20 12:00;CYGK 201200Z 25009KT 2SM -SHSN DRSN BKN007 OVC025 M03/M05 A2975 RMK SF6CU2 SLP078

CYGK;2013-03-20 12:19;CYGK 201219Z 25010KT 1SM -SHSN DRSN OVC006 M03/M04 A2975 RMK SN4SF4 SLP077

CYGK;2013-03-20 13:00;CYGK 201300Z 25012KT 1 1/2SM -SHSN DRSN BKN008 OVC015 M03/M05 A2974 RMK SF6SC2 SLP076

CYGK;2013-03-20 13:28;CYGK 201328Z 25013KT 2SM -SHSN DRSN BKN008 OVC015 M03/M04 A2974 RMK SF5SC3 SLP076

CYGK;2013-03-20 13:49;CYGK 201349Z 25011G17KT 6SM -SHSN DRSN SCT008 OVC015 M02/M05 A2974 RMK SF4SC4 SLP075

CYGK;2013-03-20 14:00;CYGK 201400Z 25015KT 4SM -SHSN DRSN SCT008 OVC014 M02/M05 A2974 RMK SF3SC5 SLP076

CYGK;2013-03-20 14:47;CYGK 201447Z 25014G19KT 15SM VCSH FEW008 SCT014 BKN060 M01/M05 A2974 RMK SF1SC3SC3 SLP075

CYGK;2013-03-20 15:00;CYGK 201500Z 26015KT 15SM VCSH FEW008 SCT020 BKN060 BKN250 M01/M06 A2974 RMK SF1SC3SC2CI2 SF TR SLP075

CYGK;2013-03-20 16:00;CYGK 201600Z 26010G19KT 15SM BKN025 BKN055 OVC250 00/M06 A2974 RMK CU5SC2CI1 SLP075

CYGK;2013-03-20 17:00;CYGK 201700Z 23016G22KT 15SM BKN030 BKN055 BKN250 01/M06 A2973 RMK CU5SC1CI1 SH DIST N SLP074

CYGK;2013-03-20 18:00;CYGK 201800Z 23016KT 15SM VCSH BKN035 BKN055 OVC250 01/M06 A2973 RMK CU6SC1CI1 SLP072

CYGK;2013-03-20 19:00;CYGK 201900Z 24018KT 15SM VCSH FEW038 BKN055 01/M06 A2972 RMK CU1SC6 SLP069

CYGK;2013-03-20 19:31;CYGK 201931Z 23016G23KT 15SM -SHSN SCT035 BKN058 BKN250 00/M06 A2972 RMK CU3SC3CI1 SLP070

CYGK;2013-03-20 20:00;CYGK 202000Z 24017G24KT 15SM -SHSN SCT035 BKN060 00/M06 A2972 RMK CU4SC3 SLP069

CYGK;2013-03-20 21:00;CYGK 202100Z 23018G25KT 15SM SCT035 BKN065 M00/M06 A2973 RMK CU4SC3 SLP072

CYGK;2013-03-20 22:00;CYGK 202200Z 24016G22KT 15SM -SHSN FEW030 BKN065 M01/M06 A2974 RMK CU1SC6 SLP076

CYGK;2013-03-20 23:00;CYGK 202300Z 24016G21KT 15SM VCSH FEW030 BKN070 M01/M06 A2976 RMK CU2SC5 SLP081

CYGK;2013-03-21 00:00;CYGK 210000Z 25011G17KT 15SM -SHSN SCT010 OVC070 M02/M05 A2977 RMK CU3SC5 SLP085

CYGK;2013-03-21 00:11;CYGK 210011Z 25007KT 15SM FEW010 BKN075 M02/M05 A2977 RMK CU1AC6 SLP085

CYGK;2013-03-21 01:00;CYGK 210100Z 25010KT 15SM FEW020 OVC070 M02/M06 A2977 RMK CU2AC6 SLP084

CYGK;2013-03-21 02:00;CYGK 210200Z 26012KT 15SM BKN070 M03/M07 A2976 RMK AC5 SLP083

CYGK;2013-03-21 03:00;CYGK 210300Z 26009KT 15SM FEW070 M03/M08 A2977 RMK AC2 LAST OBS/NEXT 211000 SLP084

CYGK;2013-03-21 10:00;CYGK 211000Z 25008KT 15SM FEW065 M06/M10 A2973 RMK SC1 SLP072

CYGK;2013-03-21 11:00;CYGK 211100Z 25008KT 15SM FEW065 M06/M10 A2972 RMK SC1 CF TR SLP071

CYGK;2013-03-21 12:00;CYGK 211200Z 26009KT 15SM FEW020 BKN060 M05/M09 A2973 RMK SC1SC5 SC TR SLP073

CYGK;2013-03-21 13:00;CYGK 211300Z 24008KT 15SM FEW020 FEW062 SCT120 M05/M09 A2972 RMK SC1SC2AC1 SC TR SLP071

CYGK;2013-03-21 14:00;CYGK 211400Z 27009KT 15SM BKN071 BKN220 M03/M09 A2972 RMK AC6CI1 CF TR SLP069

CYGK;2013-03-21 15:00;CYGK 211500Z 25010G17KT 15SM FEW020 BKN076 BKN220 M02/M09 A2971 RMK CU1AC4CI1 CI TR SLP066

CYGK;2013-03-21 16:00;CYGK 211600Z 23015G20KT 15SM FEW055 BKN071 M01/M10 A2971 RMK CU1AC6 SLP066

CYGK;2013-03-21 17:00;CYGK 211700Z 23015KT 15SM FEW030 BKN080 BKN250 M01/M09 A2970 RMK CU2AC3CI2 SLP064

CYGK;2013-03-21 18:00;CYGK 211800Z 24015G21KT 15SM BKN042 BKN063 BKN220 M01/M08 A2970 RMK SC5SC1CI1 CI TR SLP061

CYGK;2013-03-21 18:47;CYGK 211847Z 23015KT 8SM -SN BKN035 BKN250 M01/M07 A2969 RMK CU6CI1 SLP060

CYGK;2013-03-21 19:00;CYGK 211900Z 24015G21KT 10SM -SN BKN035 BKN250 M01/M07 A2969 RMK CU5CI2 SLP060

CYGK;2013-03-21 20:00;CYGK 212000Z 24016G21KT 12SM -SN BKN034 BKN250 M01/M07 A2968 RMK CU6CI1 PCPN VRY LGT SLP057

CYGK;2013-03-21 21:00;CYGK 212100Z 23012G19KT 6SM -SN SCT020 BKN035 BKN250 M02/M05 A2969 RMK CU4SC2CI1 SLP058

CYGK;2013-03-21 22:00;CYGK 212200Z 24011KT 8SM -SN FEW012 BKN020 OVC035 M02/M05 A2968 RMK SF1CU6SC1 VIS LWR NW SLP057

CYGK;2013-03-21 22:22;CYGK 212222Z 24013KT 10SM VCSH BKN016 OVC038 M02/M04 A2968 RMK CU7SC1 SLP057

CYGK;2013-03-21 22:40;CYGK 212240Z 24013KT 4SM -SN FEW010 BKN016 OVC038 M02/M04 A2968 RMK CF1CU5SC2 CIG RAG SLP057

CYGK;2013-03-21 23:00;CYGK 212300Z 24010KT 5SM -SN BKN010 BKN025 OVC250 M02/M04 A2968 RMK SF6CU1CI1 SLP057

CYGK;2013-03-21 23:09;CYGK 212309Z 23009KT 6SM -SN SCT006 BKN025 BKN250 M02/M04 A2968 RMK SF4CU2CI1 VIS S 3 SLP057

CYGK;2013-03-22 00:00;CYGK 220000Z 24008KT 12SM -SN SCT007 SCT080 BKN150 BKN250 M02/M04 A2968 RMK CF3AC1AC2CI1 SLP057

CYGK;2013-03-22 00:31;CYGK 220031Z 25007KT 15SM FEW012 OVC090 M02/M05 A2968 RMK CF1AC7 SLP055

CYGK;2013-03-22 01:00;CYGK 220100Z 22006KT 15SM FEW012 SCT065 OVC090 M03/M04 A2968 RMK CF1SC3AC4 SLP056

CYGK;2013-03-22 02:00;CYGK 220200Z 23005KT 15SM FEW055 OVC090 M02/M04 A2968 RMK SC2AC6 SLP055

CYGK;2013-03-22 02:20;CYGK 220220Z 24005KT 15SM -SN BKN050 OVC090 M02/M04 A2968 RMK SC5AC3 SLP055

CYGK;2013-03-22 03:00;CYGK 220300Z CCA 25004KT 15SM -SN SCT050 OVC090 M02/M04 A2967 RMK SC4AC4 SLP054

CYGK;2013-03-22 10:00;CYGK 221000Z 29004KT 12SM -SN SCT040 OVC110 M04/M06 A2968 RMK SC4AC4 SLP057

CYGK;2013-03-22 11:00;CYGK 221100Z 32003KT 8SM -SN FEW014 BKN038 OVC080 M04/M06 A2970 RMK SC2SC4AC2 SLP062

CYGK;2013-03-22 11:09;CYGK 221109Z 33004KT 1 3/4SM -SN BKN014 OVC038 M04/M06 A2970 RMK SN2SC5SC1 SLP063

CYGK;2013-03-22 11:36;CYGK 221136Z 35003KT 8SM -SN SCT008 BKN036 OVC080 M04/M06 A2971 RMK SF4SC3AC1 VIS LWR S SLP066

CYGK;2013-03-22 12:00;CYGK 221200Z 35007KT 15SM -SN FEW008 BKN013 OVC038 M05/M07 A2972 RMK SF1SC6SC1 SLP069

CYGK;2013-03-22 12:20;CYGK 221220Z 34006KT 4SM -SN FEW008 BKN019 OVC038 M04/M07 A2972 RMK SF1SC6SC1 SLP070

CYGK;2013-03-22 12:40;CYGK 221240Z 34003KT 2 1/2SM -SN OVC024 M04/M06 A2972 RMK SN1SC7 SLP070

CYGK;2013-03-22 13:00;CYGK 221300Z 34005KT 2 1/2SM -SN FEW013 OVC032 M04/M06 A2973 RMK SF2SC6 SLP072

CYGK;2013-03-22 13:15;CYGK 221315Z 34007KT 6SM -SN SCT010 OVC029 M04/M07 A2973 RMK SF3SC5 SLP073

CYGK;2013-03-22 13:39;CYGK 221339Z 31008KT 2 1/2SM -SN FEW012 OVC033 M04/M07 A2973 RMK SF2SC6 SLP074

CYGK;2013-03-22 14:00;CYGK 221400Z 32007KT 2 1/2SM -SN FEW010 OVC018 M04/M07 A2973 RMK SF1SC7 SLP074

CYGK;2013-03-22 14:21;CYGK 221421Z 31010KT 5SM -SN FEW010 BKN018 M04/M07 A2974 RMK SF1SC6 VIS LWR E+SW SLP075

CYGK;2013-03-22 14:40;CYGK 221440Z 29007KT 12SM BKN021 BKN230 M03/M08 A2975 RMK SC5CI1 CI TR SLP077

CYGK;2013-03-22 15:00;CYGK 221500Z 32009KT 15SM SCT023 SCT230 M04/M09 A2975 RMK SC4CI1 CI TR SLP078

CYGK;2013-03-22 16:00;CYGK 221600Z 32009G16KT 15SM FEW018 FEW030 FEW230 M03/M11 A2975 RMK CF1SC1CI1 CF TR CI TR SLP080

CYGK;2013-03-22 17:00;CYGK 221700Z 29010KT 15SM FEW020 SCT037 BKN250 M02/M10 A2976 RMK SC1SC4CI1 SC TR SLP081

CYGK;2013-03-22 18:00;CYGK 221800Z 28009G16KT 15SM FEW025 BKN038 M00/M09 A2975 RMK SC1SC7 SC TR SLP080

CYGK;2013-03-22 18:10;CYGK 221810Z 23009KT 15SM FEW025 BKN040 BKN053 M01/M08 A2976 RMK CU1SC5SC1 WSHFT 1800 SLP081

CYGK;2013-03-22 19:00;CYGK 221900Z 24012KT 15SM FEW025 BKN038 BKN055 00/M07 A2975 RMK CU1SC5SC1 SLP079

CYGK;2013-03-22 20:00;CYGK 222000Z 24012G17KT 15SM FEW025 BKN039 M00/M07 A2976 RMK CU1SC7 CU TR SLP081

CYGK;2013-03-22 21:00;CYGK 222100Z 26011G17KT 15SM VCSH FEW025 BKN040 01/M07 A2976 RMK CU1SC5 SLP082

CYGK;2013-03-22 22:00;CYGK 222200Z 27012KT 15SM FEW038 BKN052 01/M07 A2977 RMK CU1SC6 VIRGA N-SE SLP085

CYGK;2013-03-22 23:00;CYGK 222300Z 25013KT 15SM BKN051 01/M06 A2978 RMK SC7 VIRGA NE-SE SLP090

CYGK;2013-03-23 00:00;CYGK 230000Z 25010G18KT 15SM BKN055 00/M05 A2980 RMK SC6 SLP095

CYGK;2013-03-23 01:00;CYGK 230100Z 26010G16KT 15SM SCT055 M01/M06 A2982 RMK SC4 SLP103

CYGK;2013-03-23 02:00;CYGK 230200Z 26010G16KT 15SM BKN042 M01/M05 A2984 RMK SC7 SLP108

CYGK;2013-03-23 03:00;CYGK 230300Z 27008KT 15SM SCT050 BKN110 M02/M06 A2984 RMK SC4AC3 LAST OBS/NEXT 231000 UTC SLP110

CYGK;2013-03-23 10:00;CYGK 231000Z 31008KT 15SM FEW025 M04/M07 A2985 RMK CU1 SLP114

CYGK;2013-03-23 11:00;CYGK 231100Z 29008KT 15SM FEW025 FEW050 M04/M07 A2987 RMK SC1SC1 SC TR SLP120

CYGK;2013-03-23 12:00;CYGK 231200Z 29008KT 15SM FEW025 FEW250 M03/M07 A2988 RMK SC1CI1 CI TR SLP123

CYGK;2013-03-23 13:00;CYGK 231300Z 29010G15KT 15SM FEW025 FEW250 M02/M06 A2988 RMK SC1CI1 CI TR SLP123

CYGK;2013-03-23 14:00;CYGK 231400Z 32015G20KT 15SM FEW020 FEW060 M00/M06 A2989 RMK CF2SC1 SC TR SLP125

CYGK;2013-03-23 15:00;CYGK 231500Z 30014G20KT 15SM BKN030 BKN120 00/M06 A2989 RMK SC6AC1 AC TR SLP126

CYGK;2013-03-23 16:00;CYGK 231600Z 31014G20KT 15SM BKN038 02/M06 A2988 RMK CU6 SLP124

CYGK;2013-03-23 17:00;CYGK 231700Z 30010G19KT 15SM BKN051 02/M07 A2988 RMK SC7 SLP124

CYGK;2013-03-23 18:00;CYGK 231800Z 29012G25KT 15SM BKN045 02/M06 A2988 RMK SC7 SLP123

CYGK;2013-03-23 19:00;CYGK 231900Z 28011G19KT 15SM BKN051 03/M07 A2988 RMK SC7 SLP121

CYGK;2013-03-23 20:00;CYGK 232000Z 28011G19KT 15SM BKN050 03/M07 A2988 RMK SC7 SLP121

CYGK;2013-03-23 21:00;CYGK 232100Z 31012KT 15SM BKN055 03/M07 A2988 RMK SC7 SLP124

CYGK;2013-03-23 22:00;CYGK 232200Z 33013KT 15SM FEW050 BKN064 03/M07 A2990 RMK SC1SC6 SLP130

CYGK;2013-03-23 23:00;CYGK 232300Z 30010KT 15SM BKN061 02/M08 A2992 RMK SC6 VIRGA SLP136

CYGK;2013-03-24 00:00;CYGK 240000Z 31008KT 15SM SCT060 01/M08 A2992 RMK SC3 SLP138

CYGK;2013-03-24 01:00;CYGK 240100Z 29006KT 15SM BKN055 00/M08 A2994 RMK SC5 SLP145

CYGK;2013-03-24 02:00;CYGK 240200Z 28007KT 15SM BKN057 00/M08 A2995 RMK SC6 SLP146

CYGK;2013-03-24 03:00;CYGK 240300Z 30008KT 15SM BKN055 00/M07 A2995 RMK SC7 LAST OBS/NEXT 241000 UTC SLP145

CYGK;2013-03-24 10:00;CYGK 241000Z 29007KT 15SM OVC048 M01/M07 A2994 RMK SC8 SLP143

CYGK;2013-03-24 11:00;CYGK 241100Z 30009KT 15SM FEW025 OVC045 M01/M07 A2996 RMK SC1SC8 SC TR SLP150

CYGK;2013-03-24 12:00;CYGK 241200Z 31008KT 15SM FEW025 BKN045 M00/M06 A2996 RMK SC1SC5 SC TR SLP148

CYGK;2013-03-24 13:00;CYGK 241300Z 32010KT 15SM FEW025 SCT045 BKN250 00/M06 A2996 RMK CF1SC4CI1 CF TR SLP150

CYGK;2013-03-24 14:00;CYGK 241400Z 32012KT 15SM FEW030 FEW045 SCT250 02/M06 A2996 RMK SC1SC1CI3 SC TR PRESRR SLP149

CYGK;2013-03-24 15:00;CYGK 241500Z 35011G18KT 15SM BKN035 01/M06 A2993 RMK SC7 SLP141

CYGK;2013-03-24 16:00;CYGK 241600Z VRB02KT 15SM BKN042 02/M07 A2993 RMK SC7 SLP139

CYGK;2013-03-24 17:00;CYGK 241700Z 15005KT 15SM OVC045 02/M07 A2992 RMK SC8 SLP137

CYGK;2013-03-24 18:00;CYGK 241800Z 17006KT 15SM OVC045 02/M06 A2989 RMK NS8 SLP127

CYGK;2013-03-24 19:00;CYGK 241900Z 19007KT 15SM BKN044 02/M05 A2988 RMK SC7 SLP121

CYGK;2013-03-24 20:00;CYGK 242000Z 18005KT 15SM BKN045 02/M05 A2985 RMK SC7 SLP111

CYGK;2013-03-24 21:00;CYGK 242100Z 18004KT 15SM BKN043 02/M06 A2983 RMK SC7 SLP107

CYGK;2013-03-24 22:00;CYGK 242200Z 06010KT 15SM BKN043 03/M05 A2983 RMK SC7 SLP105

CYGK;2013-03-24 23:00;CYGK 242300Z 04010KT 15SM BKN042 02/M06 A2984 RMK SC7 SLP108

CYGK;2013-03-25 00:00;CYGK 250000Z 03006KT 15SM BKN040 02/M05 A2983 RMK SC7 SLP107

CYGK;2013-03-25 01:00;CYGK 250100Z 05009KT 15SM OVC040 02/M05 A2983 RMK SC8 SLP105

CYGK;2013-03-25 02:00;CYGK 250200Z 05008KT 15SM FEW038 01/M05 A2983 RMK SC1 SLP105

CYGK;2013-03-25 03:00;CYGK 250300Z 05007KT 15SM FEW038 BKN230 M00/M05 A2982 RMK SC1CS5 LAST OBS/NEXT 251000 UTC SLP101

CYGK;2013-03-25 10:00;CYGK 251000Z 05009KT 15SM OVC180 M01/M06 A2972 RMK AC8 SLP070

CYGK;2013-03-25 11:00;CYGK 251100Z 05008KT 15SM OVC180 M01/M06 A2973 RMK AC8 SLP071

CYGK;2013-03-25 12:00;CYGK 251200Z 05010KT 15SM OVC180 M01/M06 A2974 RMK AC8 SLP074

CYGK;2013-03-25 13:00;CYGK 251300Z 05012KT 15SM FEW150 OVC200 M00/M05 A2973 RMK AC1CS7 SLP071

CYGK;2013-03-25 14:00;CYGK 251400Z 05012KT 15SM OVC200 01/M04 A2972 RMK CI8 SLP067

CYGK;2013-03-25 15:00;CYGK 251500Z 05014KT 15SM FEW030 SCT050 BKN190 BKN250 03/M04 A2970 RMK CF1SC3AS3CI1 CF TR SLP063

CYGK;2013-03-25 16:00;CYGK 251600Z 07014G20KT 15SM FEW030 FEW052 BKN190 OVC250 04/M03 A2969 RMK CU1SC1AS4CI2 SLP057

CYGK;2013-03-25 17:00;CYGK 251700Z 04013G19KT 15SM SCT035 OVC200 05/M02 A2967 RMK SC4CI4 SLP053

CYGK;2013-03-25 18:00;CYGK 251800Z 02014G19KT 15SM BKN035 OVC200 04/M03 A2966 RMK SC5CI3 SLP049

CYGK;2013-03-25 19:00;CYGK 251900Z 03014G19KT 15SM BKN033 OVC220 04/M04 A2965 RMK SC7CS1 SLP045

CYGK;2013-03-25 20:00;CYGK 252000Z 04014G20KT 15SM SCT036 OVC200 04/M04 A2964 RMK SC3CS5 SLP042

CYGK;2013-03-25 21:00;CYGK 252100Z 04015G21KT 15SM FEW037 FEW120 BKN200 05/M03 A2965 RMK SC2AC1CS5 AC TR SLP043

CYGK;2013-03-25 22:00;CYGK 252200Z 03013G20KT 15SM FEW038 FEW120 BKN200 04/M04 A2965 RMK SC1AC1CS5 SLP045

CYGK;2013-03-25 23:00;CYGK 252300Z 04012G17KT 15SM FEW038 FEW120 BKN200 04/M04 A2967 RMK SC1AC1CS6 SC TR SLP052

CYGK;2013-03-26 00:00;CYGK 260000Z 02007KT 15SM FEW038 FEW120 BKN240 03/M04 A2969 RMK SC1AC1CS6 SC TR SLP059

CYGK;2013-03-26 01:00;CYGK 260100Z 36006KT 15SM FEW038 FEW120 OVC240 00/M04 A2970 RMK SC1AC1CS7 SC TR SLP062

CYGK;2013-03-26 02:00;CYGK 260200Z 34007KT 15SM SCT080 BKN240 M00/M04 A2971 RMK AC3CS2 SLP065

CYGK;2013-03-26 03:00;CYGK 260300Z 36005KT 15SM BKN070 BKN090 01/M03 A2971 RMK AC5AC2 LAST OBS/NEXT 261000 UTC SLP064

CYGK;2013-03-26 10:00;CYGK 261000Z 03007KT 15SM FEW040 OVC100 01/M03 A2976 RMK SC2AC6 SLP082

CYGK;2013-03-26 11:00;CYGK 261100Z 02006KT 14SM FEW040 SCT080 OVC110 01/M04 A2978 RMK SC1AC3AC4 SLP088

CYGK;2013-03-26 12:00;CYGK 261200Z 05009KT 15SM SCT035 BKN080 OVC110 01/M04 A2980 RMK SC3AC3AC2 SLP095

CYGK;2013-03-26 13:00;CYGK 261300Z 06008KT 15SM FEW030 FEW070 BKN090 02/M04 A2982 RMK SC1AC2AC5 SC TR VIRGA SLP101

CYGK;2013-03-26 14:00;CYGK 261400Z 06008KT 15SM FEW030 BKN080 03/M04 A2983 RMK SC1AC6 SLP103

CYGK;2013-03-26 15:00;CYGK 261500Z 05005KT 330V060 15SM FEW030 FEW070 04/M04 A2983 RMK CF1AC1 CF TR SLP106

CYGK;2013-03-26 16:00;CYGK 261600Z 08003KT 320V100 15SM FEW040 FEW070 05/M04 A2984 RMK CU2AC1 AC TR SLP108

CYGK;2013-03-26 17:00;CYGK 261700Z 15003KT 15SM FEW040 FEW070 05/M02 A2984 RMK CU2AC1 AC TR SLP107

CYGK;2013-03-26 18:00;CYGK 261800Z 19009KT 15SM BKN055 BKN250 06/M01 A2985 RMK CU5CI1 SLP110

CYGK;2013-03-26 19:00;CYGK 261900Z 20010KT 15SM BKN063 BKN250 04/M02 A2984 RMK CU6CI1 CI TR SLP109

CYGK;2013-03-26 20:00;CYGK 262000Z 21009KT 15SM VCSH SCT060 BKN075 04/M02 A2984 RMK SC3AC3 SLP109

CYGK;2013-03-26 21:00;CYGK 262100Z 23010KT 15SM FEW060 BKN081 BKN250 05/M01 A2985 RMK CU2AC4CI1 CI TR SLP111

CYGK;2013-03-26 22:00;CYGK 262200Z 20005KT 15SM FEW062 SCT082 SCT250 05/01 A2986 RMK CU1AC2CI1 CI TR SLP114

CYGK;2013-03-26 23:00;CYGK 262300Z 23007KT 15SM FEW060 FEW082 SCT250 02/M01 A2986 RMK CF1AC1CI2 CF TR SLP115

CYGK;2013-03-27 00:00;CYGK 270000Z 24005KT 15SM FEW080 SCT250 02/M01 A2987 RMK AC1CI2 SLP119

CYGK;2013-03-27 01:00;CYGK 270100Z 25005KT 15SM SCT080 BKN200 02/M01 A2988 RMK AC3CI2 SLP123

CYGK;2013-03-27 02:00;CYGK 270200Z 25007KT 15SM BKN093 BKN200 02/M02 A2988 RMK AC5CI2 SLP123

CYGK;2013-03-27 03:00;CYGK 270300Z 25006KT 15SM BKN093 01/M02 A2987 RMK AC7 LAST OBS/NEXT 271000 UTC SLP119

CYGK;2013-03-27 10:00;CYGK 271000Z 29006KT 15SM FEW080 BKN110 M01/M04 A2985 RMK AC2AC3 SLP114

CYGK;2013-03-27 11:00;CYGK 271100Z 26004KT 15SM VCSH FEW080 BKN110 BKN250 M01/M04 A2988 RMK AC2AC3CI1 SLP121

CYGK;2013-03-27 12:00;CYGK 271200Z 26002KT 15SM VCSH FEW070 SCT100 BKN220 M01/M04 A2990 RMK AC1AC3CI2 SLP128

CYGK;2013-03-27 13:00;CYGK 271300Z 29006KT 15SM BKN100 BKN220 01/M04 A2991 RMK AC5CI2 ACC ASOCTD VIRGA SLP134

CYGK;2013-03-27 14:00;CYGK 271400Z 30005KT 15SM VCSH FEW080 SCT100 BKN170 BKN220 03/M04 A2992 RMK AC2AC1AC2CI1 SLP135

CYGK;2013-03-27 15:00;CYGK 271500Z 35005KT 280V350 15SM FEW030 FEW090 BKN250 05/M03 A2992 RMK CU1AC2CI4 CU TR VIRGA SLP135

CYGK;2013-03-27 16:00;CYGK 271600Z 22007KT 15SM VCSH SCT035 BKN070 BKN250 06/M01 A2993 RMK CU4AC1CI2 SLP138

CYGK;2013-03-27 17:00;CYGK 271700Z VRB02KT 15SM VCSH BKN040 BKN070 BKN250 04/M01 A2993 RMK SC5AC1CI1 SLP141

CYGK;2013-03-27 17:33;CYGK 271733Z 18008KT 15SM -SHRA BKN040 BKN080 05/M00 A2993 RMK CU6AC1 SLP138

CYGK;2013-03-27 18:00;CYGK 271800Z 21009KT 15SM BKN040 BKN080 07/01 A2993 RMK CU5AC2 OCNL -SHRA SLP137

CYGK;2013-03-27 18:40;CYGK 271840Z 21008KT 210V270 15SM -SHRA BKN048 BKN080 05/00 A2993 RMK CU6AC1 SLP138

CYGK;2013-03-27 19:00;CYGK 271900Z 19010KT 15SM BKN047 BKN080 04/M01 A2992 RMK CU6AC1 SLP137

CYGK;2013-03-27 20:00;CYGK 272000Z 23005KT 15SM VCSH BKN040 OVC065 07/00 A2993 RMK CU5SC3 SLP140

CYGK;2013-03-27 21:00;CYGK 272100Z 24005KT 15SM VCSH BKN045 OVC060 07/M01 A2993 RMK CU5SC3 SLP141

CYGK;2013-03-27 21:44;CYGK 272144Z 26012KT 12SM -SHRA OVC040 05/M01 A2995 RMK CU8 SLP146

CYGK;2013-03-27 22:00;CYGK 272200Z 26005KT 12SM -SHRA OVC040 05/M00 A2995 RMK CU8 SLP147

CYGK;2013-03-27 22:21;CYGK 272221Z 24005KT 240V020 15SM VCSH OVC045 05/M00 A2996 RMK CU8 SLP149

CYGK;2013-03-27 23:00;CYGK 272300Z 24005KT 15SM VCSH BKN045 BKN070 04/M01 A2996 RMK CU5SC2 SLP151

CYGK;2013-03-28 00:00;CYGK 280000Z 35003KT 15SM VCSH BKN045 04/M01 A2998 RMK SF7 SLP158

CYGK;2013-03-28 00:26;CYGK 280026Z 31008KT 12SM -SHRA OVC050 04/M01 A2998 RMK CU8 SLP158

CYGK;2013-03-28 01:00;CYGK 280100Z 30004KT 15SM SCT045 OVC070 04/M01 A2999 RMK CU4AC4 SLP160

CYGK;2013-03-28 02:00;CYGK 280200Z 24006KT 15SM FEW045 BKN075 03/M01 A3000 RMK CU2AC5 SLP162

CYGK;2013-03-28 03:00;CYGK 280300Z 27004KT 15SM OVC070 02/M01 A3000 RMK AC8 LAST OBS/NEXT 281000 UTC SLP163

CYGK;2013-03-28 10:00;CYGK 281000Z 31006KT 15SM BKN055 02/M01 A3001 RMK SC7 SLP167

CYGK;2013-03-28 11:00;CYGK 281100Z 29006KT 15SM BKN056 02/M01 A3003 RMK SC7 SLP172

CYGK;2013-03-28 12:00;CYGK 281200Z 28005KT 15SM FEW040 BKN057 02/M01 A3005 RMK CU1SC6 SHWRS NE SLP179

CYGK;2013-03-28 13:00;CYGK 281300Z 31005KT 15SM BKN057 OVC100 03/M00 A3006 RMK SC7AC1 SH DIST NE SLP183

CYGK;2013-03-28 14:00;CYGK 281400Z 32007KT 15SM VCSH BKN049 BKN250 04/00 A3007 RMK SC7CI1 CI TR SLP186

CYGK;2013-03-28 15:00;CYGK 281500Z 28006KT 15SM FEW030 BKN058 07/02 A3008 RMK CU1SC7 CU TR VIRGA SLP189

CYGK;2013-03-28 16:00;CYGK 281600Z 24009KT 15SM VCSH FEW030 BKN053 07/01 A3008 RMK CU2SC5 SLP189

CYGK;2013-03-28 17:00;CYGK 281700Z 22008KT 15SM SCT035 BKN050 BKN100 08/02 A3007 RMK CU3SC3AC1 SLP187

CYGK;2013-03-28 18:00;CYGK 281800Z 23009KT 15SM VCSH BKN050 BKN120 07/01 A3007 RMK SC6AC1 SLP187

CYGK;2013-03-28 19:00;CYGK 281900Z 24007KT 15SM VCSH BKN040 BKN060 BKN120 07/01 A3007 RMK CU5SC2AC1 AC TR SLP187

CYGK;2013-03-28 20:00;CYGK 282000Z 30005KT 15SM FEW030 BKN040 OVC070 09/M00 A3006 RMK CU1CU4AC3 SLP185

CYGK;2013-03-28 21:00;CYGK 282100Z 23007KT 15SM FEW030 OVC050 08/M01 A3007 RMK SF1SC7 SLP186

CYGK;2013-03-28 22:00;CYGK 282200Z 27009KT 15SM FEW040 OVC055 08/M01 A3008 RMK CU1SC7 SLP189

CYGK;2013-03-28 23:00;CYGK 282300Z 26006KT 15SM FEW040 BKN060 07/M00 A3009 RMK CU1SC6 SLP194

CYGK;2013-03-29 00:00;CYGK 290000Z 26005KT 15SM OVC065 06/M01 A3011 RMK SC8 SLP199

CYGK;2013-03-29 01:00;CYGK 290100Z 23007KT 15SM OVC065 04/M00 A3012 RMK SC8 SLP204

CYGK;2013-03-29 02:00;CYGK 290200Z 25007KT 15SM OVC070 05/M01 A3013 RMK SC8 SLP207

CYGK;2013-03-29 03:00;CYGK 290300Z 26008KT 15SM OVC065 04/M01 A3013 RMK SC8 LAST OBS/NEXT 291000 UTC SLP207

CYGK;2013-03-29 10:00;CYGK 291000Z 29007KT 15SM BKN052 OVC070 02/M02 A3014 RMK SC6AC2 SLP209

CYGK;2013-03-29 11:00;CYGK 291100Z 29005KT 15SM VCSH BKN051 OVC070 02/M02 A3014 RMK SC7AC1 SLP211

CYGK;2013-03-29 12:00;CYGK 291200Z 28006KT 15SM BKN050 OVC070 02/M02 A3016 RMK SC7AC1 SLP215

CYGK;2013-03-29 13:00;CYGK 291300Z 30005KT 15SM SCT050 BKN070 03/M01 A3016 RMK SC4AC3 VIRGA SLP216

CYGK;2013-03-29 14:00;CYGK 291400Z 31006KT 15SM BKN048 BKN070 05/M01 A3015 RMK SC5AC2 SLP214

CYGK;2013-03-29 15:00;CYGK 291500Z 25005KT 15SM BKN057 BKN070 05/00 A3016 RMK SC7AC1 AC TR SLP216

CYGK;2013-03-29 16:00;CYGK 291600Z 23007KT 15SM VCSH FEW035 OVC055 07/00 A3015 RMK SC2SC6 SLP214

CYGK;2013-03-29 16:23;CYGK 291623Z 29008KT 15SM VCSH SCT035 OVC055 07/M01 A3015 RMK CU3SC5 WSHFT 1608 SLP213

CYGK;2013-03-29 17:00;CYGK 291700Z 29011G16KT 15SM VCSH BKN035 OVC060 07/M00 A3014 RMK CU5SC3 SLP210

CYGK;2013-03-29 18:00;CYGK 291800Z 26004KT 15SM VCSH BKN031 OVC058 07/M00 A3013 RMK SC5SC3 SLP207

CYGK;2013-03-29 19:00;CYGK 291900Z 17007KT 15SM BKN038 OVC048 04/00 A3012 RMK SC6SC2 SLP203

CYGK;2013-03-29 20:00;CYGK 292000Z 31007KT 220V310 15SM BKN037 BKN050 07/00 A3011 RMK CU5SC2 SLP198

CYGK;2013-03-29 21:00;CYGK 292100Z 25007KT 15SM BKN035 BKN055 BKN250 07/00 A3010 RMK CU5SC2CI1 CI TR SLP197

CYGK;2013-03-29 22:00;CYGK 292200Z 24007KT 15SM SCT040 BKN060 BKN250 06/01 A3010 RMK CU3SC2CI1 SLP197

CYGK;2013-03-29 23:00;CYGK 292300Z 23007KT 15SM FEW040 BKN075 06/00 A3011 RMK CU1AC4 SLP198

CYGK;2013-03-30 00:00;CYGK 300000Z 23006KT 15SM FEW070 04/00 A3011 RMK AC2 SLP198

CYGK;2013-03-30 01:00;CYGK 300100Z 24006KT 15SM FEW070 03/M00 A3012 RMK AC1 SLP202

CYGK;2013-03-30 02:00;CYGK 300200Z 25006KT 15SM SKC 03/M01 A3013 RMK SLP205

CYGK;2013-03-30 03:00;CYGK 300300Z 26005KT 15SM FEW080 02/M01 A3013 RMK AC1 LAST OBS/NEXT 301000 UTC SLP205

CYGK;2013-03-30 10:00;CYGK 301000Z 33008KT 15SM FEW230 M02/M07 A3014 RMK CI1 CI TR SLP211

CYGK;2013-03-30 11:00;CYGK 301100Z 34008KT 15SM FEW230 M02/M07 A3016 RMK CI1 CI TR SLP216

CYGK;2013-03-30 12:00;CYGK 301200Z 35002KT 15SM SKC M01/M06 A3017 RMK SLP221

CYGK;2013-03-30 13:00;CYGK 301300Z VRB02KT 15SM FEW030 02/M05 A3018 RMK SC1 SC TR SLP223

CYGK;2013-03-30 14:00;CYGK 301400Z 16004KT 15SM SKC 03/M06 A3018 RMK SLP223

CYGK;2013-03-30 15:00;CYGK 301500Z 16005KT 15SM FEW035 04/M06 A3018 RMK CF1 CF TR SLP223

CYGK;2013-03-30 16:00;CYGK 301600Z 17008KT 15SM FEW035 05/M03 A3017 RMK CU1 CU TR SLP221

CYGK;2013-03-30 17:00;CYGK 301700Z 17009KT 15SM FEW030 05/M03 A3015 RMK CF1 SLP215

CYGK;2013-03-30 18:00;CYGK 301800Z 18012KT 15SM FEW030 05/M02 A3014 RMK CU1 SLP210

CYGK;2013-03-30 19:00;CYGK 301900Z 19010KT 15SM FEW065 06/02 A3011 RMK CU1 SLP201

CYGK;2013-03-30 20:00;CYGK 302000Z 19015KT 15SM FEW065 07/M00 A3011 RMK CU1 CU TR SLP198

CYGK;2013-03-30 21:00;CYGK 302100Z 20012G20KT 15SM FEW060 FEW250 08/M00 A3010 RMK CU1CI1 CU TR SLP195

CYGK;2013-03-30 22:00;CYGK 302200Z 22012KT 15SM FEW250 08/M03 A3010 RMK CI2 SLP195

CYGK;2013-03-30 23:00;CYGK 302300Z 20005KT 15SM FEW200 05/M03 A3009 RMK CI2 SLP193

CYGK;2013-03-31 00:00;CYGK 310000Z 21009KT 15SM FEW200 03/M04 A3008 RMK CI2 SLP191

CYGK;2013-03-31 01:00;CYGK 310100Z 21006KT 15SM FEW200 02/M04 A3008 RMK CI1 SLP190

CYGK;2013-03-31 02:00;CYGK 310200Z 15004KT 100V180 15SM FEW200 00/M03 A3007 RMK CI1 SLP187

CYGK;2013-03-31 03:00;CYGK 310300Z 20005KT 15SM FEW230 01/M02 A3006 RMK CI2 LAST OBS/NEXT 311000UTC SLP185

CYGK;2013-03-31 10:00;CYGK 311000Z 17007KT 15SM OVC150 03/M02 A2993 RMK AS8 SLP140

CYGK;2013-03-31 11:00;CYGK 311100Z 17010KT 15SM OVC160 03/M02 A2991 RMK AS8 SLP132

CYGK;2013-03-31 12:00;CYGK 311200Z 17014G20KT 15SM BKN160 OVC240 03/M02 A2989 RMK AS6CI2 SLP126

CYGK;2013-03-31 13:00;CYGK 311300Z 16014KT 15SM BKN140 OVC200 04/M01 A2988 RMK AC7CI1 SLP120

CYGK;2013-03-31 14:00;CYGK 311400Z 16015KT 15SM BKN130 OVC200 04/M01 A2985 RMK AC7CI1 SLP110

CYGK;2013-03-31 15:00;CYGK 311500Z 16013G18KT 15SM BKN150 BKN200 05/M01 A2982 RMK AC6CI1 SLP101

CYGK;2013-03-31 16:00;CYGK 311600Z 16011KT 15SM BKN140 OVC200 06/00 A2979 RMK AC6CI2 SLP091

CYGK;2013-03-31 17:00;CYGK 311700Z 16012KT 15SM FEW140 BKN160 OVC240 07/01 A2975 RMK AC1AC5CI2 SLP080

CYGK;2013-03-31 18:00;CYGK 311800Z 16011KT 15SM FEW160 BKN240 07/01 A2972 RMK AC2CI5 SLP069

CYGK;2013-03-31 19:00;CYGK 311900Z 18008KT 15SM BKN080 BKN160 OVC240 07/02 A2970 RMK AC5AS2CI1 SLP060

CYGK;2013-03-31 20:00;CYGK 312000Z 18008KT 15SM BKN060 OVC080 06/02 A2969 RMK SC6AC2 SLP056

CYGK;2013-03-31 21:00;CYGK 312100Z 18022G32KT 15SM -RA BKN051 OVC075 07/03 A2968 RMK SC5AC3 SLP053

CYGK;2013-03-31 22:00;CYGK 312200Z 16018G23KT 8SM -RA OVC042 05/04 A2968 RMK SC8 SLP054

CYGK;2013-03-31 22:40;CYGK 312240Z 17018KT 3SM -RA BR FEW008 OVC035 04/04 A2968 RMK SF1SC7 SLP055

CYGK;2013-03-31 23:00;CYGK 312300Z 16016G21KT 3SM -RA BR FEW005 OVC033 04/04 A2968 RMK SF2SC6 SLP053

CYGK;2013-04-01 00:00;CYGK 010000Z 18014G20KT 5SM -RA BR FEW005 BKN025 OVC040 04/03 A2967 RMK SF1SC6SC1 SLP052

CYGK;2013-04-01 01:00;CYGK 010100Z 16011KT 5SM -RA BR SCT005 OVC029 04/03 A2967 RMK SF3SC5 SLP049

CYGK;2013-04-01 01:12;CYGK 010112Z 16011KT 2SM -RA BR BKN003 OVC025 04/03 A2966 RMK SF6SC2 SLP048

CYGK;2013-04-01 01:22;CYGK 010122Z 16012KT 2SM -RA BR OVC002 04/04 A2966 RMK ST8 SLP048

CYGK;2013-04-01 01:32;CYGK 010132Z 16012KT 1 1/2SM -RA BR OVC002 04/04 A2966 RMK ST8 SLP048

CYGK;2013-04-01 02:00;CYGK 010200Z 15011KT 1 1/2SM -RA BR BKN002 OVC022 04/03 A2965 RMK ST7SC1 SLP044

CYGK;2013-04-01 02:11;CYGK 010211Z 16011KT 2SM BR OVC002 04/03 A2965 RMK ST8 SLP043

CYGK;2013-04-01 02:26;CYGK 010226Z 16012KT 3SM BR BKN002 OVC028 04/04 A2964 RMK ST5SC3 SLP040

CYGK;2013-04-01 03:00;CYGK 010300Z 17011KT 4SM BR BKN002 OVC035 04/03 A2963 RMK ST6SC2 LAST OBS/NEXT 011000UTC SLP037

CYGK;2013-04-01 10:00;CYGK 011000Z 24006KT 3SM BR FEW006 BKN017 OVC078 04/03 A2954 RMK SF2SC4AC2 SLP005

CYGK;2013-04-01 10:16;CYGK 011016Z 23005KT 2SM BR BKN005 OVC025 04/03 A2954 RMK SF5NS3 SLP007

CYGK;2013-04-01 10:52;CYGK 011052Z 23007KT 3SM BR SCT005 BKN012 OVC090 04/03 A2954 RMK SF3SC2AC3 SLP008

CYGK;2013-04-01 11:00;CYGK 011100Z 23008KT 3SM BR FEW005 SCT012 SCT033 BKN075 04/03 A2955 RMK SF2SC1SC1AC3 SLP009

CYGK;2013-04-01 12:00;CYGK 011200Z 26010G16KT 5SM BR BKN012 OVC020 03/03 A2956 RMK SC6SC2 SLP014

CYGK;2013-04-01 12:31;CYGK 011231Z 27015G21KT 7SM -SN FEW010 OVC025 02/00 A2958 RMK SC2SC6 PRESRR SLP021

CYGK;2013-04-01 13:00;CYGK 011300Z 27013KT 12SM FEW010 BKN017 OVC060 02/00 A2959 RMK SF1SC6SC1 INTMT -SN SLP024

CYGK;2013-04-01 14:00;CYGK 011400Z 27018G27KT 15SM FEW020 BKN070 01/M04 A2962 RMK SC2AC5 INTMT -SN SLP033

CYGK;2013-04-01 15:00;CYGK 011500Z 26019G29KT 15SM FEW050 BKN100 02/M06 A2965 RMK CU2AC3 SLP042

CYGK;2013-04-01 16:00;CYGK 011600Z 28017G27KT 15SM BKN048 BKN100 02/M07 A2967 RMK CU6AC1 AC TR SH ALQDS SLP053

CYGK;2013-04-01 17:00;CYGK 011700Z 28022G37KT 15SM -SHSN BKN050 BKN100 02/M06 A2969 RMK ST5AC1 SLP058

CYGK;2013-04-01 18:00;CYGK 011800Z 25019G28KT 15SM -SHSN BKN050 BKN100 01/M05 A2972 RMK CU6AC1 OCNL VIS 4 SLP068

CYGK;2013-04-01 19:00;CYGK 011900Z 27022G34KT 15SM BKN050 BKN080 01/M10 A2974 RMK CU5AC1 OCNL -SHSN SLP074

CYGK;2013-04-01 20:00;CYGK 012000Z 25022G32KT 15SM -SHSN BKN052 01/M09 A2977 RMK CU6 SLP085

CYGK;2013-04-01 20:29;CYGK 012029Z 27023G33KT 15SM VCSH BKN047 00/M10 A2978 RMK CU5 SLP088

CYGK;2013-04-01 21:00;CYGK 012100Z 27021G30KT 15SM VCSH BKN050 01/M10 A2980 RMK CU5 SLP093

CYGK;2013-04-01 22:00;CYGK 012200Z 27016G28KT 15SM VCSH SCT050 M00/M10 A2983 RMK CU4 SLP103

CYGK;2013-04-01 23:00;CYGK 012300Z 28020G29KT 15SM VCSH SCT050 M01/M12 A2985 RMK SC3 SLP113

CYGK;2013-04-02 00:00;CYGK 020000Z 26022G30KT 15SM VCSH FEW050 M02/M10 A2987 RMK SC2 SLP118

CYGK;2013-04-02 01:00;CYGK 020100Z 27014G20KT 15SM FEW040 M03/M11 A2988 RMK SC1 SLP124

CYGK;2013-04-02 02:00;CYGK 020200Z 26010G15KT 15SM SKC M03/M11 A2989 RMK SLP125

CYGK;2013-04-02 03:00;CYGK 020300Z 28010G18KT 15SM SKC M03/M11 A2988 RMK LAST OBS/NEXT 021000UTC SLP122

CYGK;2013-04-02 10:00;CYGK 021000Z /////KT 15SM VCSH BKN025 M05/M09 A2989 RMK CU5 SLP126

CYGK;2013-04-02 10:05;CYGK 021005Z 28011KT 15SM -SHSN BKN025 M05/M09 A2989 RMK CU5 SLP127

CYGK;2013-04-02 11:00;CYGK 021100Z 30006KT 15SM VCSH SCT025 BKN250 M06/M11 A2991 RMK CU4CI1 SLP135

CYGK;2013-04-02 12:00;CYGK 021200Z 29011KT 15SM VCSH FEW025 BKN045 BKN250 M06/M12 A2994 RMK CU2SC3CI1 SLP143

CYGK;2013-04-02 13:00;CYGK 021300Z 28018KT 15SM VCSH BKN038 M05/M13 A2994 RMK CU7 SLP145

CYGK;2013-04-02 14:00;CYGK 021400Z 29014G26KT 15SM BKN040 M04/M13 A2994 RMK CU6 SLP144

CYGK;2013-04-02 15:00;CYGK 021500Z 27019G26KT 15SM BKN045 M03/M12 A2994 RMK SC6 SLP144

CYGK;2013-04-02 16:00;CYGK 021600Z 28015G27KT 15SM BKN040 M03/M12 A2994 RMK SC7 SLP143

CYGK;2013-04-02 17:00;CYGK 021700Z 26017G26KT 15SM VCSH BKN045 M01/M11 A2993 RMK CU7 SLP140

CYGK;2013-04-02 18:00;CYGK 021800Z 27017G33KT 15SM VCSH BKN048 M01/M11 A2992 RMK CU7 SLP136

CYGK;2013-04-02 19:00;CYGK 021900Z 26020G34KT 15SM VCSH BKN050 01/M11 A2991 RMK CU7 SLP132

CYGK;2013-04-02 20:00;CYGK 022000Z 27018G31KT 15SM VCSH BKN051 00/M11 A2990 RMK CU5 SLP130

CYGK;2013-04-02 21:00;CYGK 022100Z 28020G28KT 15SM SCT058 00/M12 A2991 RMK CU4 SLP133

CYGK;2013-04-02 22:00;CYGK 022200Z 28020G33KT 15SM SCT057 00/M12 A2993 RMK CU4 SLP139

CYGK;2013-04-02 23:00;CYGK 022300Z 27019G28KT 15SM SCT055 M01/M12 A2995 RMK CU3 SLP147

CYGK;2013-04-03 00:00;CYGK 030000Z 27020G28KT 15SM FEW055 FEW140 M01/M12 A2998 RMK CU1AC1 SLP156

CYGK;2013-04-03 01:00;CYGK 030100Z 27011G23KT 15SM FEW052 M02/M11 A3001 RMK CU1 SLP167

CYGK;2013-04-03 02:00;CYGK 030200Z 28014KT 15SM SKC M02/M11 A3002 RMK SLP172

CYGK;2013-04-03 03:00;CYGK 030300Z 28010G19KT 15SM SKC M03/M10 A3002 RMK LAST OBS/NEXT 031000 UTC SLP172

CYGK;2013-04-03 10:00;CYGK 031000Z 27006KT 15SM SKC M05/M10 A3008 RMK SLP192

CYGK;2013-04-03 11:00;CYGK 031100Z 27008KT 15SM SKC M05/M10 A3011 RMK SLP202

CYGK;2013-04-03 12:00;CYGK 031200Z 28008KT 15SM SKC M04/M11 A3014 RMK SLP210

CYGK;2013-04-03 13:00;CYGK 031300Z 28011G17KT 15SM SKC M03/M12 A3014 RMK SLP212

CYGK;2013-04-03 14:00;CYGK 031400Z 31013G23KT 15SM FEW020 M01/M13 A3014 RMK CF1 CF TR SLP210

CYGK;2013-04-03 15:00;CYGK 031500Z 27014G22KT 15SM FEW050 M00/M12 A3014 RMK CF1 CF TR SLP212

CYGK;2013-04-03 16:00;CYGK 031600Z 27013G22KT 15SM FEW050 01/M12 A3015 RMK CF1 CF TR SLP215

CYGK;2013-04-03 17:00;CYGK 031700Z 27014G23KT 15SM FEW050 02/M13 A3015 RMK CF1 CF TR SLP213

CYGK;2013-04-03 18:00;CYGK 031800Z 25015G25KT 15SM FEW050 02/M12 A3015 RMK SC1 SC TR SLP214

CYGK;2013-04-03 19:00;CYGK 031900Z 25016G25KT 15SM FEW050 FEW100 03/M12 A3015 RMK SC1AC1 AC TR SLP214

CYGK;2013-04-03 20:00;CYGK 032000Z 27013G24KT 15SM FEW070 FEW100 03/M13 A3016 RMK AC1AC1 AC TR SLP218

CYGK;2013-04-03 21:00;CYGK 032100Z 26012G22KT 15SM FEW050 FEW070 FEW250 03/M13 A3017 RMK CF1AC1CI1 CF TR SLP221

CYGK;2013-04-03 22:00;CYGK 032200Z 28013G19KT 15SM FEW050 FEW070 FEW250 03/M12 A3018 RMK CF1AC1CI1 CF TR SLP226

CYGK;2013-04-03 23:00;CYGK 032300Z 26015KT 15SM FEW070 FEW250 02/M11 A3020 RMK AC1CI1 CI TR SLP233

CYGK;2013-04-04 00:00;CYGK 040000Z 26012KT 15SM FEW250 01/M09 A3023 RMK CI1 CI TR SLP243

CYGK;2013-04-04 01:00;CYGK 040100Z /////KT 15SM SKC M00/M08 A3027 RMK SLP254

CYGK;2013-04-04 02:00;CYGK 040200Z 27012G19KT 15SM SKC M01/M08 A3029 RMK SLP263

CYGK;2013-04-04 03:00;CYGK 040300Z 27009G16KT 15SM SKC M02/M09 A3029 RMK LAST OBS/NEXT 041000 UTC SLP264

CYGK;2013-04-04 10:00;CYGK 041000Z 25008KT 15SM SKC M04/M07 A3029 RMK SLP262

CYGK;2013-04-04 11:00;CYGK 041100Z 24010KT 15SM SKC M02/M06 A3030 RMK SLP265

CYGK;2013-04-04 12:00;CYGK 041200Z 23007KT 15SM FEW030 M01/M06 A3029 RMK CU1 CU TR SLP263

CYGK;2013-04-04 13:00;CYGK 041300Z 23010KT 15SM FEW030 FEW250 01/M06 A3028 RMK CU1CI1 CU TR CI TR SLP259

CYGK;2013-04-04 14:00;CYGK 041400Z 22012KT 15SM FEW030 FEW250 03/M04 A3025 RMK CU1CI1 CU TR SLP248

CYGK;2013-04-04 15:00;CYGK 041500Z 21016KT 15SM FEW025 04/M03 A3022 RMK SC1 SC TR SLP238

CYGK;2013-04-04 16:00;CYGK 041600Z 19016G22KT 15SM FEW030 FEW250 03/M02 A3019 RMK CF1CI1 CF TR SLP229

CYGK;2013-04-04 17:00;CYGK 041700Z 20019G24KT 15SM FEW030 FEW250 03/M02 A3016 RMK CF1CI1 CF TR SLP219

CYGK;2013-04-04 18:00;CYGK 041800Z 19018G24KT 15SM FEW250 03/M02 A3013 RMK CI2 SLP207

CYGK;2013-04-04 19:00;CYGK 041900Z 20014G21KT 15SM SCT250 04/M04 A3008 RMK CI4 PRESFR SLP191

CYGK;2013-04-04 20:00;CYGK 042000Z 20013KT 15SM SCT250 05/M04 A3005 RMK CI3 SLP181

CYGK;2013-04-04 21:00;CYGK 042100Z 21013G18KT 15SM FEW100 BKN250 06/M04 A3001 RMK AC1CI6 AC TR SLP167

CYGK;2013-04-04 22:00;CYGK 042200Z 19010G16KT 15SM FEW100 SCT250 06/M03 A3000 RMK AC1CI3 AC TR SLP162

CYGK;2013-04-04 23:00;CYGK 042300Z 23007KT 15SM FEW100 SCT250 05/M05 A2998 RMK AC1CI3 AC TR SLP156

CYGK;2013-04-05 00:00;CYGK 050000Z 19006KT 15SM FEW100 SCT250 02/M03 A2996 RMK AC1CC3 AC TR SLP150

CYGK;2013-04-05 01:00;CYGK 050100Z 19005KT 15SM BKN220 02/M02 A2995 RMK CI5 SLP144

CYGK;2013-04-05 02:00;CYGK 050200Z 21005KT 15SM BKN200 02/M02 A2993 RMK CI6 SLP139

CYGK;2013-04-05 03:00;CYGK 050300Z 17004KT 15SM SCT200 01/M03 A2990 RMK CI3 LAST OBS/NEXT 051000 UTC SLP130

CYGK;2013-04-05 10:00;CYGK 051000Z 26007KT 15SM SCT050 BKN080 BKN120 01/M02 A2987 RMK SC3AC3AC1 SLP117

CYGK;2013-04-05 11:00;CYGK 051100Z 24005KT 12SM FEW050 FEW120 01/M01 A2988 RMK SC1AC1 SC TR SLP121

CYGK;2013-04-05 12:00;CYGK 051200Z 27007KT 12SM SKC 02/M01 A2990 RMK SLP129

CYGK;2013-04-05 13:00;CYGK 051300Z 29009KT 12SM FEW012 04/M01 A2990 RMK CF1 SLP130

CYGK;2013-04-05 14:00;CYGK 051400Z 29010KT 15SM SCT025 05/M01 A2991 RMK CU3 SLP130

CYGK;2013-04-05 15:00;CYGK 051500Z 32012G18KT 15SM BKN033 05/M02 A2992 RMK CU7 SHWRS W + NE SLP133

CYGK;2013-04-05 16:00;CYGK 051600Z 32010KT 15SM SCT030 OVC060 05/M02 A2993 RMK CU4CU4 SLP138

CYGK;2013-04-05 17:00;CYGK 051700Z 34009G16KT 15SM SCT030 BKN060 05/M04 A2993 RMK CU3SC4 SH DIST ALQDS SLP138

CYGK;2013-04-05 18:00;CYGK 051800Z 32010KT 15SM VCSH FEW030 BKN050 06/M06 A2993 RMK CU2SC5 SLP138

CYGK;2013-04-05 18:43;CYGK 051843Z 31010G19KT 15SM BKN057 06/M06 A2992 RMK CU7 SLP135

CYGK;2013-04-05 19:00;CYGK 051900Z 34012KT 15SM VCSH BKN057 BKN075 07/M05 A2992 RMK CU6AC1 SLP134

CYGK;2013-04-05 20:00;CYGK 052000Z 32011G19KT 15SM VCSH BKN060 05/M06 A2992 RMK CU7 SLP137

CYGK;2013-04-05 21:00;CYGK 052100Z 31014G20KT 15SM BKN060 06/M07 A2993 RMK CU7 SLP139

CYGK;2013-04-05 22:00;CYGK 052200Z 33015KT 15SM VCSH BKN055 05/M08 A2995 RMK SC6 SLP147

CYGK;2013-04-05 23:00;CYGK 052300Z 32012G17KT 15SM SCT060 03/M09 A2999 RMK SC3 SLP158

CYGK;2013-04-06 00:00;CYGK 060000Z 34007KT 15SM FEW070 01/M09 A3001 RMK AC2 SLP166

CYGK;2013-04-06 01:00;CYGK 060100Z 34011KT 15SM SCT070 BKN250 01/M09 A3005 RMK AC4CI2 SLP180

CYGK;2013-04-06 02:00;CYGK 060200Z 35009KT 15SM SCT065 M01/M10 A3008 RMK SC3 SLP190

CYGK;2013-04-06 03:00;CYGK 060300Z 34008KT 15SM SKC M03/M10 A3010 RMK LAST OBS/NEXT 061000 UTC SLP197

CYGK;2013-04-06 10:00;CYGK 061000Z 01007KT 15SM SKC M05/M13 A3027 RMK SLP256

CYGK;2013-04-06 11:00;CYGK 061100Z 02005KT 15SM SKC M06/M14 A3029 RMK SLP263

CYGK;2013-04-06 12:00;CYGK 061200Z 01004KT 15SM SKC M03/M12 A3031 RMK SLP270

CYGK;2013-04-06 13:00;CYGK 061300Z 05006KT 15SM FEW250 M02/M14 A3033 RMK CI1 CI TR SLP275

CYGK;2013-04-06 14:00;CYGK 061400Z 36006KT 15SM FEW250 M01/M15 A3034 RMK CI1 CI TR SLP278

CYGK;2013-04-06 15:00;CYGK 061500Z 18009KT 15SM FEW250 M00/M12 A3035 RMK CI1 CI TR SLP281

CYGK;2013-04-06 16:00;CYGK 061600Z 19006KT 15SM SKC M00/M12 A3034 RMK SLP280

CYGK;2013-04-06 17:00;CYGK 061700Z 19009KT 15SM SKC 00/M10 A3034 RMK SLP277

CYGK;2013-04-06 18:00;CYGK 061800Z 19010KT 15SM FEW250 01/M10 A3032 RMK CI1 SLP271

CYGK;2013-04-06 19:00;CYGK 061900Z 19011KT 15SM SCT250 01/M11 A3031 RMK CI3 SLP269

CYGK;2013-04-06 20:00;CYGK 062000Z 20009KT 15SM FEW100 BKN250 01/M09 A3029 RMK AC1CI6 AC TR SLP262

CYGK;2013-04-06 21:00;CYGK 062100Z 18007KT 15SM FEW100 SCT250 02/M11 A3027 RMK AC1CI3 SLP256

CYGK;2013-04-06 22:00;CYGK 062200Z 17003KT 15SM BKN110 BKN250 01/M11 A3026 RMK AC6CI1 SLP250

CYGK;2013-04-06 23:00;CYGK 062300Z 12003KT 15SM BKN098 01/M11 A3023 RMK AC7 SLP243

CYGK;2013-04-07 00:00;CYGK 070000Z 11005KT 15SM OVC085 01/M10 A3022 RMK AC8 SLP237

CYGK;2013-04-07 01:00;CYGK 070100Z 08006KT 15SM OVC075 02/M09 A3020 RMK AC8 SLP230

CYGK;2013-04-07 02:00;CYGK 070200Z 09008KT 15SM OVC070 02/M08 A3017 RMK AC8 SLP222

CYGK;2013-04-07 03:00;CYGK 070300Z 09006KT 15SM BKN075 OVC100 02/M07 A3015 RMK AC5AC3 LAST OBS/NEXT 071000 UTC SLP214

CYGK;2013-04-07 10:00;CYGK 071000Z 16014G19KT 15SM BKN095 OVC150 05/M02 A2989 RMK AC5AS3 SLP123

CYGK;2013-04-07 11:00;CYGK 071100Z 17007G17KT 15SM SCT080 OVC090 04/M02 A2989 RMK AC3AS5 VIRGA SLP123

CYGK;2013-04-07 12:00;CYGK 071200Z 17020G27KT 15SM SCT085 BKN150 BKN250 05/M01 A2985 RMK AC4AS3CI1 CI TR VIRGA PRESFR SLP110

CYGK;2013-04-07 13:00;CYGK 071300Z 16020G28KT 15SM FEW060 BKN095 OVC250 06/M01 A2981 RMK SC1AS5CS2 SLP099

CYGK;2013-04-07 13:12;CYGK 071312Z 16019G26KT 15SM -SHRA FEW060 BKN070 OVC095 05/M01 A2980 RMK SC1AC5AS2 SLP096

CYGK;2013-04-07 13:49;CYGK 071349Z 16020G25KT 15SM SCT070 BKN120 BKN250 06/M00 A2977 RMK AC4AS2CI1 SH DIST ALQDS PRESFR SLP085

CYGK;2013-04-07 14:00;CYGK 071400Z 16021G28KT 15SM SCT070 BKN120 OVC250 06/M00 A2977 RMK AC4AS3CI1 SH DIST ALQDS SLP085

CYGK;2013-04-07 15:00;CYGK 071500Z 17020G26KT 15SM FEW060 SCT090 BKN120 06/M00 A2975 RMK SC1AC3AC3 SH SW-NW SLP078

CYGK;2013-04-07 15:14;CYGK 071514Z 18017G23KT 12SM -SHRA BKN070 OVC120 06/00 A2976 RMK AC5AC3 SLP082

CYGK;2013-04-07 16:00;CYGK 071600Z 17021G31KT 15SM VCSH OVC065 06/01 A2973 RMK SC8 PRESFR SLP071

CYGK;2013-04-07 17:00;CYGK 071700Z 17021G28KT 15SM BKN065 OVC120 07/01 A2970 RMK SC7AC1 SLP059

CYGK;2013-04-07 18:00;CYGK 071800Z 19017G28KT 15SM OVC065 08/01 A2970 RMK SC8 SLP060

CYGK;2013-04-07 19:00;CYGK 071900Z 19018G26KT 15SM BKN072 11/02 A2971 RMK AC7 SLP061

CYGK;2013-04-07 20:00;CYGK 072000Z 20015G21KT 15SM BKN065 BKN250 12/04 A2969 RMK CU5CI2 SLP054

CYGK;2013-04-07 21:00;CYGK 072100Z 25020G30KT 15SM SCT065 BKN250 15/07 A2970 RMK CU3CI2 SLP058 DENSITY ALT 600FT

CYGK;2013-04-07 22:00;CYGK 072200Z 27014G20KT 15SM FEW045 BKN075 14/06 A2974 RMK CU1AC5 CU TR SLP073 DENSITY ALT 400FT

CYGK;2013-04-07 23:00;CYGK 072300Z 28017G24KT 15SM FEW045 FEW070 11/02 A2980 RMK SC1AC1 SC TR AC TR PRESRR SLP094

CYGK;2013-04-08 00:00;CYGK 080000Z 28013G21KT 15SM FEW045 FEW075 08/00 A2987 RMK SC1AC1 SC TR AC TR PRESRR SLP117

CYGK;2013-04-08 01:00;CYGK 080100Z 27007KT 15SM FEW045 FEW075 06/00 A2993 RMK SC1AC1 SC TR AC TR PRESRR SLP137

CYGK;2013-04-08 02:00;CYGK 080200Z 27006KT 15SM FEW030 05/00 A2997 RMK SC2 SLP150

CYGK;2013-04-08 03:00;CYGK 080300Z 28008KT 15SM OVC025 06/01 A2999 RMK SC8 LAST OBS/NEXT 081000 UTC SLP158

CYGK;2013-04-08 10:00;CYGK 081000Z 31004KT 15SM OVC034 04/01 A3009 RMK SC8 SLP192

CYGK;2013-04-08 11:00;CYGK 081100Z 02006KT 15SM OVC034 04/01 A3010 RMK SC8 SLP195

CYGK;2013-04-08 12:00;CYGK 081200Z 02006KT 15SM OVC034 04/M01 A3012 RMK SC8 SLP203

CYGK;2013-04-08 13:00;CYGK 081300Z 03005KT 15SM OVC034 05/M00 A3014 RMK SC8 SLP209

CYGK;2013-04-08 14:00;CYGK 081400Z 06006KT 15SM OVC035 06/00 A3014 RMK SC8 SLP211

CYGK;2013-04-08 15:00;CYGK 081500Z 08006KT 15SM OVC035 07/00 A3014 RMK SC8 SLP209

CYGK;2013-04-08 16:00;CYGK 081600Z 14008KT 15SM OVC034 07/00 A3015 RMK SC8 SLP213

CYGK;2013-04-08 17:00;CYGK 081700Z 16007KT 15SM BKN033 BKN240 06/01 A3012 RMK SC6CI1 CI TR SLP204

CYGK;2013-04-08 18:00;CYGK 081800Z 18006KT 15SM BKN031 BKN240 06/02 A3010 RMK SC5CI1 SLP197

CYGK;2013-04-08 19:00;CYGK 081900Z 18005KT 15SM FEW030 BKN240 08/01 A3007 RMK SC1CI6 SLP184

CYGK;2013-04-08 20:00;CYGK 082000Z 23006KT 15SM BKN240 08/01 A3005 RMK CI7 SLP177

CYGK;2013-04-08 21:00;CYGK 082100Z 00000KT 15SM SCT120 OVC210 08/01 A3000 RMK AS3CS5 PRESFR SLP162

CYGK;2013-04-08 22:00;CYGK 082200Z 00000KT 15SM SCT060 BKN160 OVC210 09/01 A2999 RMK SC3AS4CS1 SLP159

CYGK;2013-04-08 23:00;CYGK 082300Z 04005KT 15SM BKN100 BKN140 OVC210 10/01 A2998 RMK AC5AS2CS1 VIRGA SLP156

CYGK;2013-04-09 00:00;CYGK 090000Z 05008KT 15SM -RA OVC080 10/01 A2996 RMK AC8 PRESFR SLP147

CYGK;2013-04-09 01:00;CYGK 090100Z 07011KT 15SM -RA OVC072 08/03 A2990 RMK AC8 SLP128

CYGK;2013-04-09 02:00;CYGK 090200Z 05009KT 10SM -RA OVC050 07/04 A2987 RMK NS8 SLP118

CYGK;2013-04-09 03:00;CYGK 090300Z 06012KT 12SM -RA OVC055 06/04 A2980 RMK NS8 OCNL LTNG DIST SW LAST OBS/NEXT 091000 UTC PRESFR SLP095

CYGK;2013-04-09 10:00;CYGK 091000Z 32009KT 15SM BKN006 OVC016 04/03 A2992 RMK SF5SC3 SLP134

CYGK;2013-04-09 11:00;CYGK 091100Z 32008KT 8SM BKN008 OVC016 04/03 A2998 RMK SF7SC1 PRESRR SLP154

CYGK;2013-04-09 11:45;CYGK 091145Z 32005KT 12SM BKN010 BKN030 04/03 A3001 RMK SF6SC1 PRESRR SLP165

CYGK;2013-04-09 12:00;CYGK 091200Z 31004KT 12SM SCT009 BKN031 04/03 A3001 RMK SF3SC2 SLP166

CYGK;2013-04-09 12:23;CYGK 091223Z 29007KT 15SM BKN009 BKN030 05/03 A3004 RMK SF6SC1 PRESRR SLP174

CYGK;2013-04-09 13:00;CYGK 091300Z 33007KT 15SM BKN010 06/04 A3003 RMK SC7 SLP173

CYGK;2013-04-09 14:00;CYGK 091400Z 30005KT 15SM BKN012 BKN250 07/04 A3007 RMK SC6CI1 SLP184

CYGK;2013-04-09 15:00;CYGK 091500Z 22006KT 15SM OVC016 07/04 A3008 RMK SC8 SLP188

CYGK;2013-04-09 16:00;CYGK 091600Z 18007KT 15SM OVC019 07/04 A3009 RMK SC8 SLP192

CYGK;2013-04-09 17:00;CYGK 091700Z 19012KT 15SM BKN020 06/04 A3009 RMK SC7 SLP192

CYGK;2013-04-09 18:00;CYGK 091800Z 18012KT 15SM BKN023 BKN230 06/04 A3007 RMK SC5CI2 SLP187

CYGK;2013-04-09 19:00;CYGK 091900Z 17010KT 15SM BKN023 BKN200 05/04 A3006 RMK SC5CI2 SLP181

CYGK;2013-04-09 20:00;CYGK 092000Z 17008KT 15SM FEW012 SCT022 SCT035 BKN220 05/04 A3006 RMK CF1SC3SC1CI3 CF TR SLP181

CYGK;2013-04-09 21:00;CYGK 092100Z 18008KT 15SM FEW020 SCT100 BKN220 05/04 A3005 RMK SC1AS2CI4 SLP178

CYGK;2013-04-09 22:00;CYGK 092200Z 16005KT 15SM BKN130 BKN160 OVC220 04/03 A3006 RMK AC6AS1CS1 SLP183

CYGK;2013-04-09 23:00;CYGK 092300Z 15004KT 15SM BKN085 OVC120 04/03 A3003 RMK AS7AS1 PRESFR SLP172

CYGK;2013-04-09 23:21;CYGK 092321Z 14003KT 12SM -RA OVC083 04/03 A3002 RMK AS8 SLP169

CYGK;2013-04-10 00:00;CYGK 100000Z 15003KT 12SM -RA OVC080 05/04 A3002 RMK AS8 SLP168

CYGK;2013-04-10 01:00;CYGK 100100Z 00000KT 10SM -RA OVC060 05/04 A3001 RMK NS8 SLP166

CYGK;2013-04-10 02:00;CYGK 100200Z 07002KT 10SM -RA OVC055 05/05 A2998 RMK NS8 SLP155

CYGK;2013-04-10 03:00;CYGK 100300Z 00000KT 4SM -RA OVC050 06/05 A2998 RMK NS8 LAST OBS/NEXT 101000 UTC SLP155

CYGK;2013-04-10 10:00;CYGK 101000Z 36008KT 15SM FEW025 BKN042 OVC058 06/04 A3000 RMK SC1SC5SC2 SLP161

CYGK;2013-04-10 11:00;CYGK 101100Z 01010KT 15SM BKN037 OVC100 05/03 A3001 RMK SC7AC1 SLP167

CYGK;2013-04-10 12:00;CYGK 101200Z 01009KT 15SM OVC042 05/03 A3003 RMK SC8 SLP171

CYGK;2013-04-10 13:00;CYGK 101300Z 01011KT 15SM FEW032 OVC044 06/03 A3005 RMK SC2SC6 SLP178

CYGK;2013-04-10 14:00;CYGK 101400Z 02011KT 15SM FEW032 OVC045 06/02 A3004 RMK SC2SC6 PRESFR SLP176

CYGK;2013-04-10 15:00;CYGK 101500Z 03009KT 15SM -RA SCT044 OVC110 06/02 A3002 RMK SC4AC4 SLP167

CYGK;2013-04-10 16:00;CYGK 101600Z 01007KT 5SM -RA BR SCT033 OVC042 05/03 A3008 RMK SC3SC5 PRESFR SLP189

CYGK;2013-04-10 16:52;CYGK 101652Z 03010KT 15SM SCT042 BKN088 06/04 A3000 RMK SC4AC3 PRESFR SLP160

CYGK;2013-04-10 17:00;CYGK 101700Z 04010G17KT 15SM FEW020 FEW042 BKN088 06/04 A2999 RMK CU1SC2AC5 CU TR PRESFR SLP157

CYGK;2013-04-10 18:00;CYGK 101800Z 04007KT 15SM FEW020 BKN073 08/04 A2999 RMK CF1AC6 SLP158

CYGK;2013-04-10 19:00;CYGK 101900Z 36007KT 15SM FEW022 OVC065 07/03 A3002 RMK SC2SC6 PRESRR SLP167

CYGK;2013-04-10 19:12;CYGK 101912Z 02005KT 6SM -RA BR SCT022 OVC066 07/03 A3001 RMK SC4SC4 SLP165

CYGK;2013-04-10 20:00;CYGK 102000Z 02008KT 15SM -RA FEW022 BKN063 OVC090 06/03 A2997 RMK SC1SC6AC1 SLP150

CYGK;2013-04-10 20:43;CYGK 102043Z 35004KT 3SM RA BR FEW020 OVC058 06/04 A3000 RMK SC1NS7 SLP160

CYGK;2013-04-10 21:00;CYGK 102100Z 02007KT 8SM -RA FEW020 BKN058 OVC085 05/04 A2996 RERA RMK SC1NS5AC2 PRESFR SLP147

CYGK;2013-04-10 21:30;CYGK 102130Z 03007KT 15SM FEW020 SCT058 OVC077 06/04 A2995 RMK SC1SC2AC5 SLP145

CYGK;2013-04-10 22:00;CYGK 102200Z 03010KT 15SM FEW020 FEW058 BKN074 06/03 A2994 RMK SC1SC2AC5 SC TR SLP140

CYGK;2013-04-10 22:09;CYGK 102209Z 02010KT 15SM -RA FEW055 BKN073 OVC120 05/03 A2996 RMK SC2AC5AC1 PRESRR SLP147

CYGK;2013-04-10 23:00;CYGK 102300Z 36005KT 10SM -RA BKN065 OVC080 05/03 A2997 RMK SC5AC3 PRESFR SLP153

CYGK;2013-04-11 00:00;CYGK 110000Z 34007KT -RA BKN048 BKN070 05/03 A3000 RMK SC5AC2 SLP162

CYGK;2013-04-11 01:00;CYGK 110100Z 36005KT 15SM SCT040 BKN060 OVC090 04/03 A2998 RMK SC4SC2AC2 SLP154

CYGK;2013-04-11 02:00;CYGK 110200Z 36004KT 15SM SCT050 BKN070 04/01 A3001 RMK SC4AC2 PRESRR SLP165

CYGK;2013-04-11 03:00;CYGK 110300Z 35006KT 15SM OVC070 03/01 A3000 RMK AC8 LAST OBS/NEXT 111000 UTC SLP161

CYGK;2013-04-11 10:00;CYGK 111000Z 02014G20KT 15SM BKN130 OVC250 00/M08 A3009 RMK AC5CI3 SLP193

CYGK;2013-04-11 11:00;CYGK 111100Z 02013G18KT 15SM BKN120 00/M08 A3010 RMK AC6 SLP197

CYGK;2013-04-11 12:00;CYGK 111200Z 02012G19KT 15SM SCT100 OVC120 M00/M08 A3011 RMK AC4AC4 SLP200

CYGK;2013-04-11 13:00;CYGK 111300Z 01012G18KT 15SM BKN100 OVC230 M00/M08 A3013 RMK AC6CI2 SLP208

CYGK;2013-04-11 14:00;CYGK 111400Z 03008G20KT 15SM BKN080 OVC230 00/M08 A3014 RMK AC7CI1 SLP209

CYGK;2013-04-11 15:00;CYGK 111500Z 01013G18KT 15SM OVC080 M00/M09 A3017 RMK AC8 VIRGA SLP220

CYGK;2013-04-11 16:00;CYGK 111600Z 03010G16KT 15SM OVC070 M01/M10 A3019 RMK AC8 SLP228

CYGK;2013-04-11 17:00;CYGK 111700Z 02010G17KT 15SM BKN042 OVC080 M01/M10 A3018 RMK SC7AC1 SLP224

CYGK;2013-04-11 18:00;CYGK 111800Z 04013G18KT 15SM BKN077 BKN120 00/M09 A3016 RMK AC5AC2 SLP217

CYGK;2013-04-11 19:00;CYGK 111900Z 05013KT 15SM FEW020 BKN075 OVC120 01/M08 A3015 RMK SC1AC6AC2 SC TR SLP214

CYGK;2013-04-11 20:00;CYGK 112000Z 04011KT 15SM FEW025 OVC079 01/M08 A3017 RMK SC1AC8 SC TR SLP219

CYGK;2013-04-11 21:00;CYGK 112100Z 03012G18KT 15SM BKN075 OVC130 02/M09 A3014 RMK AC7AS1 SLP209

CYGK;2013-04-11 22:00;CYGK 112200Z 02012G20KT 15SM BKN076 OVC130 02/M10 A3014 RMK AC7AS1 SLP212

CYGK;2013-04-11 23:00;CYGK 112300Z 05011KT 15SM BKN070 OVC130 02/M09 A3014 RMK AC7AS1 SLP211

CYGK;2013-04-12 00:00;CYGK 120000Z 04011KT 15SM BKN070 OVC120 01/M08 A3013 RMK AC6AC2 SLP208

CYGK;2013-04-12 00:28;CYGK 120028Z 04012KT 15SM -RA SCT070 OVC110 01/M08 A3013 RMK AC4AC4 SLP207

CYGK;2013-04-12 01:00;CYGK 120100Z 04011G17KT 15SM -RA SCT070 OVC110 02/M08 A3013 RMK AC3AC5 SLP206

CYGK;2013-04-12 01:52;CYGK 120152Z 04012G18KT 15SM OVC090 02/M08 A3013 RMK AC8 SLP207

CYGK;2013-04-12 02:00;CYGK 120200Z 05013G18KT 15SM OVC081 02/M07 A3013 RMK AC8 SLP207

CYGK;2013-04-12 03:00;CYGK 120300Z 05013KT 15SM BKN065 OVC080 02/M07 A3012 RMK SC6AC2 LAST OBS/NEXT 121000 UTC SLP204

CYGK;2013-04-12 10:00;CYGK 121000Z 05020G32KT 8SM -FZRA OVC022 M01/M03 A2991 RMK NS8 SLP133

CYGK;2013-04-12 10:41;CYGK 121041Z 06021G32KT 4SM -FZRA BR SCT010 OVC018 M01/M02 A2987 RMK SF3NS5 SLP120

CYGK;2013-04-12 11:00;CYGK 121100Z 05020G28KT 6SM -FZRA BR SCT010 OVC025 M01/M02 A2988 RMK SF4NS4 SLP122

CYGK;2013-04-12 11:47;CYGK 121147Z 05016G27KT 1 1/2SM -FZRA BR SCT007 OVC020 M01/M02 A2984 RMK FG2SF2NS4 SLP107

CYGK;2013-04-12 12:00;CYGK 121200Z 05017G27KT 1 1/4SM -FZRA BR BKN007 OVC018 M00/M01 A2982 RMK FG3SF3NS2 PRESFR SLP103

CYGK;2013-04-12 13:00;CYGK 121300Z 06018G28KT 1 1/2SM -FZRA BR BKN007 OVC014 M00/M01 A2978 RMK SF6SC2 SLP090

CYGK;2013-04-12 14:00;CYGK 121400Z 05019G27KT 3SM -FZRA BR BKN006 OVC022 M00/M01 A2974 RMK SF6SC2 PRESFR SLP074

CYGK;2013-04-12 15:00;CYGK 121500Z 06015KT 3SM -RA BR SCT006 OVC020 00/M01 A2973 RMK SF4SC4 REFZRA SLP072

CYGK;2013-04-12 16:00;CYGK 121600Z 06015KT 4SM -RA BR SCT006 OVC017 00/M00 A2972 RMK ST4NS4 TEMP 0.3 SLP067

CYGK;2013-04-12 17:00;CYGK 121700Z 06011G19KT 5SM -RA BR SCT006 OVC021 00/M00 A2969 RMK SF4NS4 SLP057

CYGK;2013-04-12 18:00;CYGK 121800Z 06012KT 3SM -RA BR BKN005 OVC018 01/00 A2967 RMK SF5NS3 SLP051

CYGK;2013-04-12 19:00;CYGK 121900Z 05012KT 4SM -RA BR BKN005 OVC016 01/00 A2965 RMK SF5NS3 SLP045

CYGK;2013-04-12 19:15;CYGK 121915Z 05012KT 1 3/4SM -RA BR SCT005 OVC013 01/01 A2965 RMK SF4NS4 SLP044

CYGK;2013-04-12 20:00;CYGK 122000Z 05009KT 3SM -RA BR BKN005 OVC012 02/01 A2964 RMK ST5NS3 SLP041

CYGK;2013-04-12 20:52;CYGK 122052Z 06009KT 2SM -RA BR SCT003 OVC009 02/01 A2964 RMK SF3NS5 SLP039

CYGK;2013-04-12 21:00;CYGK 122100Z 06007KT 1 3/4SM -RA BR SCT003 OVC008 02/01 A2964 RMK SF3NS5 SLP039

CYGK;2013-04-12 21:31;CYGK 122131Z 06006KT 3SM -DZ BR SCT003 OVC008 02/02 A2965 RMK SF4ST4 SLP045

CYGK;2013-04-12 22:00;CYGK 122200Z 07005KT 2 1/2SM -DZ BR SCT002 OVC007 02/02 A2966 RMK SF4ST4 SLP048

CYGK;2013-04-12 22:29;CYGK 122229Z 00000KT 2 1/2SM -DZ BR OVC003 02/02 A2967 RMK SF8 SLP051

CYGK;2013-04-12 22:45;CYGK 122245Z 15009KT 8SM -DZ OVC002 03/03 A2967 RMK SF8 VIS LWR NW-NE SLP052

CYGK;2013-04-12 23:00;CYGK 122300Z 19013KT 8SM OVC003 04/04 A2968 RMK SF8 CIG RAG SLP053

CYGK;2013-04-12 23:21;CYGK 122321Z 19010KT 6SM -DZ BKN006 OVC012 04/04 A2968 RMK SF6NS2 CIG RAG SLP054

CYGK;2013-04-13 00:00;CYGK 130000Z 23012G17KT 10SM -DZ BKN010 BKN045 05/04 A2968 RMK SF5SC2 CIG RAG SLP055

CYGK;2013-04-13 00:21;CYGK 130021Z 23012KT 12SM BKN012 BKN046 05/03 A2969 RMK SC6SC1 SLP058

CYGK;2013-04-13 01:00;CYGK 130100Z 25012KT 15SM FEW015 SCT048 04/03 A2971 RMK SC2SC1 PRESRR SLP063

CYGK;2013-04-13 01:28;CYGK 130128Z 23009KT 15SM BKN013 04/03 A2972 RMK SC7 SLP069

CYGK;2013-04-13 02:00;CYGK 130200Z 21007KT 15SM OVC018 04/03 A2973 RMK SC8 SLP072

CYGK;2013-04-13 03:00;CYGK 130300Z 23009KT 12SM OVC008 04/03 A2974 RMK SF8 LAST OBS/NEXT 131000 UTC SLP074

CYGK;2013-04-13 10:00;CYGK 131000Z 21006KT 12SM FEW015 SCT030 OVC060 03/02 A2975 RMK CF1SC2SC5 SLP078

CYGK;2013-04-13 11:00;CYGK 131100Z 20007KT 12SM SCT018 OVC030 03/02 A2977 RMK SC4SC4 SLP084

CYGK;2013-04-13 12:00;CYGK 131200Z 22005KT 12SM FEW015 OVC038 04/02 A2977 RMK SC1SC7 SLP085

CYGK;2013-04-13 13:00;CYGK 131300Z 22009KT 12SM FEW015 OVC040 04/03 A2978 RMK SC2SC6 SLP087

CYGK;2013-04-13 14:00;CYGK 131400Z 21008KT 15SM BKN015 OVC030 05/03 A2978 RMK NS5SC3 SLP087

CYGK;2013-04-13 15:00;CYGK 131500Z 22012KT 15SM BKN015 OVC030 06/04 A2978 RMK SC5SC3 SLP086

CYGK;2013-04-13 16:00;CYGK 131600Z 22014KT 15SM BKN017 OVC030 05/03 A2979 RMK SC6SC2 SLP092

CYGK;2013-04-13 17:00;CYGK 131700Z 22011KT 15SM SCT018 OVC055 05/03 A2979 RMK SC4SC4 SLP091

CYGK;2013-04-13 18:00;CYGK 131800Z 22016G22KT 15SM SCT045 OVC070 07/02 A2979 RMK CU3AC5 SLP090

CYGK;2013-04-13 18:39;CYGK 131839Z 22019KT 10SM -RA BKN022 OVC070 05/02 A2980 RMK SC7AC1 SLP093

CYGK;2013-04-13 19:00;CYGK 131900Z 24015G24KT 15SM -RA SCT019 OVC036 05/02 A2980 RMK SC3SC5 SLP094

CYGK;2013-04-13 19:17;CYGK 131917Z 24014G20KT 15SM FEW018 OVC048 05/02 A2980 RMK CU2SC6 SLP094

CYGK;2013-04-13 20:00;CYGK 132000Z 24014G25KT 15SM FEW020 OVC058 04/02 A2980 RMK CU2SC6 SLP096

CYGK;2013-04-13 21:00;CYGK 132100Z 23018G27KT 15SM FEW022 BKN077 BKN120 05/01 A2981 RMK CU2AC3AS2 SLP097

CYGK;2013-04-13 22:00;CYGK 132200Z 24018KT 15SM SCT028 BKN058 OVC090 05/01 A2983 RMK CU3SC2AC3 SLP105

CYGK;2013-04-13 23:00;CYGK 132300Z 24010G16KT 15SM SCT023 BKN075 BKN120 05/02 A2985 RMK CU3AC3AC1 SLP110

CYGK;2013-04-14 00:00;CYGK 140000Z 23014G20KT 15SM FEW018 SCT035 BKN091 OVC120 04/01 A2986 RMK CF1SC2AC4AC1 SLP113

CYGK;2013-04-14 01:00;CYGK 140100Z 23012G18KT 15SM FEW018 FEW035 BKN091 OVC100 04/01 A2988 RMK CF1SC1AC5AC1 SLP121

CYGK;2013-04-14 02:00;CYGK 140200Z 22009KT 15SM OVC085 04/01 A2989 RMK AC8 SLP123

CYGK;2013-04-14 03:00;CYGK 140300Z 21008KT 15SM BKN035 OVC085 03/02 A2989 RMK SC5AC3 LAST OBS/NEXT 141000 UTC SLP125

CYGK;2013-04-14 10:00;CYGK 141000Z 25007KT 15SM FEW010 BKN018 BKN073 02/01 A2996 RMK SF2SC4AC1 SLP148

CYGK;2013-04-14 10:47;CYGK 141047Z 26009KT 15SM VCSH SCT008 BKN017 BKN080 02/00 A2997 RMK SF3SC2AC2 SLP153

CYGK;2013-04-14 11:00;CYGK 141100Z 27009KT 15SM VCSH FEW008 SCT015 BKN078 02/00 A2998 RMK SF2SC2AC3 SLP155

CYGK;2013-04-14 12:00;CYGK 141200Z 27010G17KT 15SM VCSH FEW009 BKN016 BKN078 02/00 A3001 RMK SF2SC4AC1 SLP165

CYGK;2013-04-14 13:00;CYGK 141300Z 28009G18KT 15SM SCT015 SCT080 03/M01 A3003 RMK CF3AC1 SLP172

CYGK;2013-04-14 14:00;CYGK 141400Z 25009G18KT 15SM BKN027 05/M01 A3004 RMK CU5 SLP177

CYGK;2013-04-14 15:00;CYGK 141500Z 28008G17KT 15SM BKN032 05/M01 A3006 RMK CU6 SLP183

CYGK;2013-04-14 16:00;CYGK 141600Z 26011KT 15SM BKN045 06/M02 A3007 RMK CU6 SLP186

CYGK;2013-04-14 17:00;CYGK 141700Z 26010G16KT 15SM BKN044 06/M03 A3009 RMK CU7 SLP191

CYGK;2013-04-14 18:00;CYGK 141800Z 22010KT 15SM OVC045 05/M02 A3010 RMK CU8 SLP197

CYGK;2013-04-14 19:00;CYGK 141900Z 24014G22KT 15SM BKN045 BKN060 04/M00 A3013 RMK CU5SC2 SLP207

CYGK;2013-04-14 20:00;CYGK 142000Z 24011KT 15SM SCT045 BKN060 05/M01 A3014 RMK CU4SC3 SLP209

CYGK;2013-04-14 21:00;CYGK 142100Z 26006KT 15SM FEW035 BKN055 06/M02 A3015 RMK CU2SC5 SLP212

CYGK;2013-04-14 22:00;CYGK 142200Z 27003KT 15SM BKN055 06/M01 A3016 RMK SC7 SLP216

CYGK;2013-04-14 23:00;CYGK 142300Z 15004KT 140V300 15SM BKN055 04/00 A3017 RMK SC7 SLP218

CYGK;2013-04-15 00:00;CYGK 150000Z 18006KT 15SM SCT055 BKN250 02/00 A3017 RMK SC4CI2 SLP221

CYGK;2013-04-15 01:00;CYGK 150100Z 18003KT 15SM SCT050 BKN250 02/01 A3020 RMK SC3CI2 SLP231

CYGK;2013-04-15 02:00;CYGK 150200Z 14002KT 15SM SCT050 SCT250 01/M01 A3021 RMK SC3CC1 SLP233

CYGK;2013-04-15 03:00;CYGK 150300Z 18005KT 15SM FEW050 FEW160 01/M00 A3022 RMK SC1AC1 SC TR AC TR LAST OBS/NEXT 151000 UTC SLP237

CYGK;2013-04-15 10:00;CYGK 151000Z 05006KT 15SM BKN140 BKN250 01/M01 A3024 RMK AC5CI2 SLP243

CYGK;2013-04-15 11:00;CYGK 151100Z 08006KT 15SM BKN085 BKN150 BKN250 01/M01 A3024 RMK AC5AC1CI1 SLP245

CYGK;2013-04-15 12:00;CYGK 151200Z 05007KT 15SM FEW080 SCT120 BKN250 02/M01 A3025 RMK AC2AC2CI3 SLP247

CYGK;2013-04-15 13:00;CYGK 151300Z 06008KT 15SM SCT090 BKN110 BKN250 04/M01 A3023 RMK AC4AC1CI2 ACC ASOCTD W SLP241

CYGK;2013-04-15 14:00;CYGK 151400Z 10009KT 15SM SCT075 BKN100 BKN250 07/M01 A3022 RMK AC3AC2CI2 SLP236

CYGK;2013-04-15 15:00;CYGK 151500Z 08009KT 15SM SCT090 BKN250 09/02 A3021 RMK AC4CI1 SLP233

CYGK;2013-04-15 16:00;CYGK 151600Z 10009KT 15SM FEW090 FEW250 10/03 A3020 RMK AC1CI1 SLP228

CYGK;2013-04-15 17:00;CYGK 151700Z 11010KT 15SM FEW250 12/02 A3016 RMK CI1 SLP217

CYGK;2013-04-15 18:00;CYGK 151800Z 14010KT 15SM SCT250 13/03 A3015 RMK CI3 SLP214

CYGK;2013-04-15 19:00;CYGK 151900Z 15008KT 15SM FEW120 BKN250 13/03 A3014 RMK AC1CI5 AC TR SLP211

CYGK;2013-04-15 20:00;CYGK 152000Z 14009KT 15SM FEW100 BKN120 OVC250 14/04 A3013 RMK AC2AC3CI3 SLP206

CYGK;2013-04-15 21:00;CYGK 152100Z 12009KT 15SM SCT120 OVC250 15/05 A3010 RMK AC4CI4 SLP194

CYGK;2013-04-15 22:00;CYGK 152200Z 11009KT 15SM OVC250 16/06 A3007 RMK CI8 SLP184

CYGK;2013-04-15 23:00;CYGK 152300Z 09008KT 15SM OVC250 15/06 A3006 RMK CI8 SLP180

CYGK;2013-04-16 00:00;CYGK 160000Z 09006KT 15SM OVC250 14/06 A3005 RMK CI8 SLP178

CYGK;2013-04-16 01:00;CYGK 160100Z 13009KT 15SM FEW100 OVC250 13/05 A3007 RMK AC1CI7 SLP184

CYGK;2013-04-16 02:00;CYGK 160200Z 15016KT 15SM FEW070 BKN250 09/04 A3006 RMK AC1CI6 SLP183

CYGK;2013-04-16 03:00;CYGK 160300Z 16019KT 15SM FEW070 BKN250 09/04 A3006 RMK AC1CI5 LAST OBS/NEXT 161000 UTC SLP183

CYGK;2013-04-16 10:00;CYGK 161000Z 16013G21KT 15SM VCSH FEW050 BKN068 OVC250 07/05 A3002 RMK SC1AC6CI1 SLP167

CYGK;2013-04-16 11:00;CYGK 161100Z 17013KT 15SM BKN068 07/05 A3001 RMK AC7 SLP164

CYGK;2013-04-16 12:00;CYGK 161200Z 17014G21KT 15SM BKN065 BKN110 07/05 A3000 RMK SC5AC2 SLP159

CYGK;2013-04-16 13:00;CYGK 161300Z 16012KT 15SM BKN053 OVC110 07/05 A2997 RMK SC7AC1 SLP151

CYGK;2013-04-16 14:00;CYGK 161400Z 17015G20KT 15SM BKN047 OVC110 08/06 A2996 RMK SC7AC1 SLP146

CYGK;2013-04-16 14:25;CYGK 161425Z 19013KT 15SM -SHRA SCT036 BKN045 OVC110 08/06 A2996 RMK CU4SC3AC1 SLP147

CYGK;2013-04-16 15:00;CYGK 161500Z 19015KT 3SM -SHRA BR BKN035 OVC040 08/07 A2996 RMK CU5SC3 SLP148

CYGK;2013-04-16 15:50;CYGK 161550Z 19014KT 12SM BKN038 OVC050 08/07 A2995 RMK SC7SC1 SLP145

CYGK;2013-04-16 16:00;CYGK 161600Z 19017KT 10SM -RA OVC038 08/07 A2995 RMK SC8 SLP143

CYGK;2013-04-16 17:00;CYGK 161700Z 20019G25KT 8SM -RA BKN032 OVC042 08/07 A2995 RMK CU6SC2 PRESRR SLP145

CYGK;2013-04-16 17:40;CYGK 161740Z 19010KT 8SM VCSH BKN020 OVC040 07/07 A2997 RMK SC7SC1 SLP150

CYGK;2013-04-16 18:00;CYGK 161800Z 23008KT 10SM BKN011 OVC020 10/09 A2997 RMK SF5SC3 SLP150

CYGK;2013-04-16 19:00;CYGK 161900Z 23014KT 10SM OVC012 11/11 A2995 RMK SC8 VIS LWR S OVR WATER SLP145

CYGK;2013-04-16 19:32;CYGK 161932Z 24012G17KT 4SM BR PRFG SCT009 OVC012 11/10 A2995 RMK SF3SC5 FG BNK SE-S SLP144

CYGK;2013-04-16 19:44;CYGK 161944Z 25013G20KT 3SM BR PRFG BKN008 OVC012 10/10 A2995 RMK SF6SC2 FG BNK SE-S SLP144

CYGK;2013-04-16 20:00;CYGK 162000Z 29013G18KT 4SM -RA BR SCT008 OVC016 11/10 A2996 RMK SF3SC5 FROPA SLP147

CYGK;2013-04-16 20:42;CYGK 162042Z 28007KT 10SM SCT010 OVC023 11/09 A2997 RMK SF3SC5 SLP150

CYGK;2013-04-16 21:00;CYGK 162100Z 23007KT 12SM FEW010 BKN025 OVC055 09/08 A2997 RMK SF2SC3SC3 SLP149

CYGK;2013-04-16 22:00;CYGK 162200Z 25011KT 12SM VCSH FEW030 BKN050 BKN080 09/07 A2999 RMK SC2SC3AC1 SLP157

CYGK;2013-04-16 23:00;CYGK 162300Z 26011G19KT 15SM FEW080 SCT250 11/05 A3003 RMK AC2CI1 SLP171

CYGK;2013-04-17 00:00;CYGK 170000Z 25007KT 15SM FEW250 08/04 A3006 RMK CI2 SLP182

CYGK;2013-04-17 01:00;CYGK 170100Z 26011G18KT 15SM SCT220 08/01 A3013 RMK CI3 PRESRR SLP205

CYGK;2013-04-17 02:00;CYGK 170200Z 28009KT 15SM SCT220 07/M00 A3016 RMK CI3 SLP216

CYGK;2013-04-17 03:00;CYGK 170300Z 28007KT 15SM SCT250 05/M00 A3019 RMK CI3 LAST OBS/NEXT 171000 UTC SLP226

CYGK;2013-04-17 10:00;CYGK 171000Z 34009KT 15SM SKC 01/M01 A3028 RMK SLP257

CYGK;2013-04-17 11:00;CYGK 171100Z 35011KT 15SM SKC 02/M01 A3031 RMK SLP267

CYGK;2013-04-17 12:00;CYGK 171200Z 36011G17KT 15SM SKC 04/M00 A3034 RMK SLP277

CYGK;2013-04-17 13:00;CYGK 171300Z 36012KT 15SM FEW230 06/00 A3035 RMK CI1 CI TR SLP281

CYGK;2013-04-17 14:00;CYGK 171400Z 02011G16KT 15SM FEW020 FEW230 07/M00 A3037 RMK CU1CI1 CU TR CI TR SLP285

CYGK;2013-04-17 15:00;CYGK 171500Z 01009KT 15SM FEW020 FEW230 08/01 A3037 RMK CF1CI1 CF TR CI TR SLP285

CYGK;2013-04-17 16:00;CYGK 171600Z 35011KT 340V050 15SM FEW035 10/01 A3035 RMK CF1 SLP281

CYGK;2013-04-17 17:00;CYGK 171700Z 03006KT 15SM FEW040 10/01 A3035 RMK CF1 SLP281

CYGK;2013-04-17 18:00;CYGK 171800Z VRB09KT 15SM FEW045 FEW250 10/00 A3036 RMK CF1CI1 CF TR SLP282

CYGK;2013-04-17 19:00;CYGK 171900Z 18010KT 15SM FEW045 FEW250 09/02 A3035 RMK CF1CI1 CF TR SLP280

CYGK;2013-04-17 20:00;CYGK 172000Z 19007KT 15SM FEW055 BKN250 10/01 A3034 RMK CF1CI6 CF TR SLP277

CYGK;2013-04-17 21:00;CYGK 172100Z 18008KT 15SM FEW050 FEW250 10/01 A3035 RMK CF1CI2 CF TR SLP282

CYGK;2013-04-17 22:00;CYGK 172200Z 19004KT 15SM FEW160 BKN250 10/01 A3035 RMK AS1CI4 SLP280

CYGK;2013-04-17 23:00;CYGK 172300Z 17002KT 15SM FEW160 BKN250 08/01 A3032 RMK AS2CI5 SLP272

CYGK;2013-04-17 23:40;CYGK 172340Z 04008KT 15SM FEW160 BKN250 10/M02 A3032 RMK AS2CI5 WSHFT 2324 SLP270

CYGK;2013-04-18 00:00;CYGK 180000Z 03007KT 15SM FEW160 BKN250 09/M03 A3032 RMK AS2CI5 SLP270

CYGK;2013-04-18 01:00;CYGK 180100Z 06004KT 15SM FEW160 BKN240 07/M02 A3032 RMK AS1CI4 SLP270

CYGK;2013-04-18 02:00;CYGK 180200Z 02002KT 15SM SCT240 07/M02 A3034 RMK CI4 SLP275

CYGK;2013-04-18 03:00;CYGK 180300Z 05006KT 15SM SCT180 BKN240 07/M02 A3032 RMK AS3CI4 LAST OBS/NEXT 181000UTC SLP270

CYGK;2013-04-18 10:00;CYGK 181000Z 07011KT 15SM -RA OVC084 06/02 A3017 RMK AC8 SLP220

CYGK;2013-04-18 11:00;CYGK 181100Z 07011KT 15SM -RA OVC079 06/02 A3014 RMK AC8 SLP209

CYGK;2013-04-18 11:22;CYGK 181122Z 08011KT 15SM OVC072 06/02 A3014 RMK AC8 SLP209

CYGK;2013-04-18 11:28;CYGK 181128Z 09013KT 12SM -RA OVC067 06/02 A3013 RMK AC8 SLP204

CYGK;2013-04-18 12:00;CYGK 181200Z 05007KT 10SM -RA BKN048 OVC065 06/03 A3015 RMK SC5SC3 SLP211

CYGK;2013-04-18 13:00;CYGK 181300Z 12011KT 12SM -RA BKN043 OVC100 07/05 A3010 RMK SC7AC1 PRESFR SLP194

CYGK;2013-04-18 13:26;CYGK 181326Z 12011G20KT 15SM BKN050 OVC100 08/05 A3008 RMK SC6AC2 SLP189

CYGK;2013-04-18 14:00;CYGK 181400Z 12010G15KT 15SM FEW020 BKN057 OVC082 09/05 A3007 RMK CF1SC6AC2 CF TR SLP186

CYGK;2013-04-18 15:00;CYGK 181500Z 13012G19KT 15SM FEW035 BKN060 BKN100 OVC200 11/05 A3003 RMK SC1SC4AC2CI1 PRESFR SLP172

CYGK;2013-04-18 16:00;CYGK 181600Z 14015G21KT 15SM FEW035 SCT100 BKN220 13/05 A2997 RMK SC1AC3CI3 PRESFR SLP152

CYGK;2013-04-18 17:00;CYGK 181700Z 13006KT 15SM SCT110 BKN250 13/05 A2995 RMK AC4CS3 SLP143

CYGK;2013-04-18 18:00;CYGK 181800Z 16008KT 15SM FEW110 BKN220 12/06 A2988 RMK AC1CS6 PRESFR SLP122

CYGK;2013-04-18 19:00;CYGK 181900Z 17009KT 15SM BKN052 BKN110 OVC200 11/06 A2987 RMK SC6AC1CI1 SLP116

CYGK;2013-04-18 20:00;CYGK 182000Z 18016KT 15SM FEW060 BKN200 13/07 A2982 RMK SC1CS6 PRESFR SLP099

CYGK;2013-04-18 21:00;CYGK 182100Z 17016G24KT 15SM FEW060 BKN200 11/07 A2980 RMK SC1CS6 SLP095

CYGK;2013-04-18 22:00;CYGK 182200Z 18017G25KT 15SM FEW060 SCT130 BKN200 11/07 A2980 RMK SC1AC3CS4 SC TR SLP094

CYGK;2013-04-18 23:00;CYGK 182300Z 17021G29KT 15SM SCT130 BKN200 11/08 A2977 RMK AC3CI4 SLP081

CYGK;2013-04-19 00:00;CYGK 190000Z 17024G31KT 15SM FEW130 BKN250 11/09 A2975 RMK AC2CI5 SLP076

CYGK;2013-04-19 01:00;CYGK 190100Z 17023G33KT 15SM FEW130 BKN250 11/09 A2974 RMK AC1CI4 SLP074

CYGK;2013-04-19 02:00;CYGK 190200Z 17018G25KT 15SM FEW120 SCT250 11/09 A2975 RMK AC1CI3 SLP075

CYGK;2013-04-19 03:00;CYGK 190300Z 17021G27KT 15SM BKN097 OVC250 11/09 A2972 RMK AC6CI2 LAST OBS/NEXT 191000UTC SLP067

CYGK;2013-04-19 10:00;CYGK 191000Z 15010KT 15SM SCT071 BKN230 09/08 A2966 RMK AC4CI2 SLP044

CYGK;2013-04-19 11:00;CYGK 191100Z 16011KT 15SM BKN070 OVC200 09/08 A2965 RMK AC5CI3 SLP042

CYGK;2013-04-19 12:00;CYGK 191200Z 16016G21KT 15SM SCT070 BKN200 11/09 A2961 RMK AC3CI4 SLP028

CYGK;2013-04-19 13:00;CYGK 191300Z 16019KT 15SM BKN085 BKN200 11/09 A2958 RMK AC5CI2 SLP018

CYGK;2013-04-19 14:00;CYGK 191400Z 16017G23KT 15SM FEW030 BKN082 OVC180 11/09 A2954 RMK SC1AC5AC2 SLP005

CYGK;2013-04-19 15:00;CYGK 191500Z 17018G23KT 15SM -SHRA FEW030 BKN090 OVC110 11/08 A2953 RMK SC1AC4AS3 SLP000

CYGK;2013-04-19 15:50;CYGK 191550Z 16014G21KT 12SM SHRA FEW030 BKN070 OVC100 10/08 A2950 RMK SC2AC5AS1 SLP992

CYGK;2013-04-19 16:00;CYGK 191600Z 16016G21KT 12SM -SHRA SCT065 OVC100 10/08 A2950 RERA RMK SC4AS4 SLP991

CYGK;2013-04-19 17:00;CYGK 191700Z 17019G29KT 7SM -RA BKN060 OVC100 11/09 A2946 RMK SC6AC2 SLP978

CYGK;2013-04-19 18:00;CYGK 191800Z 15019G25KT 10SM -RA SCT064 BKN100 OVC200 11/10 A2944 RMK SC4AC3CS1 SLP969 DENSITY ALT 400FT

CYGK;2013-04-19 18:18;CYGK 191818Z 15016G25KT 15SM SCT060 BKN095 OVC200 11/10 A2943 RMK SC4AC3CS1 SH DIST E SLP966 DENSITY ALT 500FT

CYGK;2013-04-19 19:00;CYGK 191900Z 16013KT 15SM BKN050 BKN100 OVC200 11/09 A2940 RMK SC6AS1CS1 PRESFR SLP957 DENSITY ALT 500FT

CYGK;2013-04-19 19:35;CYGK 191935Z 15013KT 12SM -SHRA BKN050 OVC095 11/09 A2938 RMK SC5AC3 PRESFR SLP951 DENSITY ALT 400FT

CYGK;2013-04-19 19:48;CYGK 191948Z 22017KT 6SM SHRA BKN030 OVC100 11/09 A2943 RMK CU6AC2 PRESRR SLP966 DENSITY ALT 400FT

CYGK;2013-04-19 19:53;CYGK 191953Z 22018G25KT 6SM -SHRA BKN030 OVC100 11/10 A2943 RERA RMK CU7AC1 PRESRR SLP967 DENSITY ALT 500FT

CYGK;2013-04-19 20:00;CYGK 192000Z 24018G25KT 5SM -SHRA BR FEW030 BKN040 OVC100 12/10 A2943 RERA RMK CF2CU5AC1 PRESRR SLP968 DENSITY ALT 500FT

CYGK;2013-04-19 20:25;CYGK 192025Z 24013G19KT 6SM -SHRA BR SCT011 BKN029 OVC040 11/10 A2944 RMK SF3CU3SC2 PRESRR SLP971 DENSITY ALT 400FT

CYGK;2013-04-19 20:45;CYGK 192045Z 24016KT 15SM SCT011 BKN030 OVC040 10/09 A2944 RMK SF4SC3SC1 PRESRR SLP972

CYGK;2013-04-19 20:51;CYGK 192051Z 23015G20KT 15SM BKN011 OVC035 10/09 A2945 RMK SF6SC2 PRESRR SLP975

CYGK;2013-04-19 21:00;CYGK 192100Z 23024KT 10SM -SHRA BKN011 OVC040 09/08 A2946 RMK SF6SC2 WND 24024G30KT WND ESTD SLP978

CYGK;2013-04-19 21:15;CYGK 192115Z 24019G29KT 15SM -SHRA SCT011 OVC042 08/06 A2946 RMK SF3SC5 SLP977

CYGK;2013-04-19 21:28;CYGK 192128Z 23019G28KT 4SM -SHRA BKN013 OVC042 07/06 A2949 RMK SC7SC1 PRESRR SLP988

CYGK;2013-04-19 22:00;CYGK 192200Z 25015G28KT 5SM -SHRA BR BKN017 OVC059 06/05 A2949 RMK SC5SC3 PRESFR SLP990

CYGK;2013-04-19 23:00;CYGK 192300Z 25018G26KT 12SM -RA FEW017 SCT027 OVC075 06/04 A2956 RMK SC1SC2AC5 PRESRR SLP012

CYGK;2013-04-19 23:15;CYGK 192315Z 24020G27KT 15SM FEW015 SCT030 BKN080 06/03 A2957 RMK SC1SC2AC4 PRESRR SLP014

CYGK;2013-04-20 00:00;CYGK 200000Z 24018G23KT 15SM FEW015 SCT035 BKN090 06/02 A2963 RMK SC1SC2AC4 PRESRR SLP034

CYGK;2013-04-20 01:00;CYGK 200100Z 24018G25KT 15SM SCT048 BKN110 06/01 A2967 RMK SC3AC4 SLP049

CYGK;2013-04-20 02:00;CYGK 200200Z 24016G25KT 15SM SCT054 BKN110 OVC240 06/01 A2969 RMK SC4AC2CI2 SLP055

CYGK;2013-04-20 03:00;CYGK 200300Z 24015G23KT 15SM BKN055 BKN240 06/01 A2970 RMK SC6CI1 LAST OBS/NEXT 201000UTC SLP059

CYGK;2013-04-20 10:00;CYGK 201000Z 24016G25KT 15SM FEW025 BKN080 04/M00 A2973 RMK CU1AC4 SLP070

CYGK;2013-04-20 11:00;CYGK 201100Z 23019G29KT 15SM BKN025 OVC100 04/M00 A2975 RMK SC7AC1 SLP076

CYGK;2013-04-20 11:20;CYGK 201120Z 23021G28KT 15SM -RA BKN020 OVC100 04/00 A2975 RMK CU7AC1 SLP078

CYGK;2013-04-20 12:00;CYGK 201200Z 24020G26KT 15SM VCSH SCT020 BKN080 04/M01 A2977 RMK CU3AC2 SLP082

CYGK;2013-04-20 13:00;CYGK 201300Z 23017G25KT 15SM SCT025 BKN100 05/00 A2978 RMK CU3AC2 SLP086

CYGK;2013-04-20 14:00;CYGK 201400Z 23020G29KT 15SM VCSH SCT020 BKN090 05/00 A2980 RMK CU4AC3 SLP092

CYGK;2013-04-20 14:10;CYGK 201410Z 27020G30KT 3SM SHGS BKN020TCU BKN100 03/M02 A2981 RMK TCU5AC1 PRESRR SLP099

CYGK;2013-04-20 14:30;CYGK 201430Z 26013G24KT 12SM VCSH BKN025 BKN080 02/M02 A2983 RMK CU5AC2 SLP104

CYGK;2013-04-20 15:00;CYGK 201500Z 24016G24KT 15SM SCT025 OVC055 03/M03 A2985 RMK CU4SC4 SLP112

CYGK;2013-04-20 16:00;CYGK 201600Z 25022G34KT 15SM VCSH FEW020 BKN042 BKN080 04/M04 A2989 RMK CF1SC5AC1 CU EMBD SH NW-NE PRESRR SLP125

CYGK;2013-04-20 16:11;CYGK 201611Z 25020G36KT 12SM -SN FEW020 OVC040 03/M03 A2990 RMK CU1SC7 PRESRR SLP129

CYGK;2013-04-20 16:28;CYGK 201628Z 25017G23KT 15SM FEW020 OVC040 03/M03 A2992 RMK CF1SC8 CF TR SLP134

CYGK;2013-04-20 17:00;CYGK 201700Z 23017G22KT 15SM VCSH FEW025 OVC050 03/M03 A2993 RMK CU1SC7 SLP139

CYGK;2013-04-20 17:18;CYGK 201718Z 25021G26KT 12SM -SN FEW025 OVC040 03/M04 A2994 RMK CU1SC7 SLP141

CYGK;2013-04-20 17:42;CYGK 201742Z 24014G33KT 15SM VCSH FEW030 BKN050 BKN100 03/M03 A2996 RMK CF1SC5AC1 SLP147

CYGK;2013-04-20 18:00;CYGK 201800Z 24019G28KT 15SM VCSH FEW030 BKN048 BKN070 03/M04 A2996 RMK CF1SC5AC1 SLP148

CYGK;2013-04-20 19:00;CYGK 201900Z 26012G21KT 15SM VCSH BKN040 OVC060 03/M05 A2999 RMK CU5SC3 SLP160

CYGK;2013-04-20 20:00;CYGK 202000Z 26020G25KT 15SM -SHSN BKN048 BKN070 03/M06 A3004 RMK CU6AC1 PRESRR SLP176

CYGK;2013-04-20 21:00;CYGK 202100Z 26022G31KT 15SM BKN049 03/M08 A3009 RMK CU7 OCNL -SHSN SLP192

CYGK;2013-04-20 22:00;CYGK 202200Z 28014G30KT 15SM BKN047 02/M07 A3014 RMK CU6 OCNL -SHSN SLP208

CYGK;2013-04-20 22:40;CYGK 202240Z 28015G24KT 15SM BKN046 01/M07 A3017 RMK CU6 PRESRR SLP220

CYGK;2013-04-20 23:00;CYGK 202300Z 29019G27KT 15SM BKN044 01/M08 A3019 RMK CU7 PRESRR SLP226

CYGK;2013-04-21 00:00;CYGK 210000Z 29017G23KT 15SM BKN043 M00/M09 A3025 RMK CU7 PRESRR SLP246

CYGK;2013-04-21 01:00;CYGK 210100Z 29007KT 15SM FEW043 M01/M09 A3030 RMK SC2 PRESRR SLP264

CYGK;2013-04-21 02:00;CYGK 210200Z 28009KT 15SM FEW040 M02/M09 A3034 RMK SC1 SLP279

CYGK;2013-04-21 03:00;CYGK 210300Z 27007KT 15SM SKC M02/M09 A3037 RMK LAST OBS/NEXT 211000 UTC SLP287

CYGK;2013-04-21 10:00;CYGK 211000Z 34006KT 15SM SKC M05/M08 A3055 RMK SLP349

CYGK;2013-04-21 11:00;CYGK 211100Z 35005KT 15SM SKC M04/M07 A3059 RMK SLP363

CYGK;2013-04-21 12:00;CYGK 211200Z 36008KT 15SM SKC M01/M07 A3062 RMK SLP375

CYGK;2013-04-21 13:00;CYGK 211300Z 35009KT 15SM SKC 00/M08 A3065 RMK SLP383

CYGK;2013-04-21 14:00;CYGK 211400Z 01002KT 15SM FEW030 00/M10 A3068 RMK CF1 CF TR SLP392

CYGK;2013-04-21 15:00;CYGK 211500Z VRB02KT 15SM SKC 01/M09 A3068 RMK SLP395

CYGK;2013-04-21 16:00;CYGK 211600Z 16008KT 15SM FEW040 02/M07 A3070 RMK CF1 CF TR SLP400

CYGK;2013-04-21 17:00;CYGK 211700Z 17009KT 15SM FEW040 03/M06 A3069 RMK CF1 CF TR SLP397

CYGK;2013-04-21 18:00;CYGK 211800Z 19009KT 15SM FEW040 03/M06 A3068 RMK CF1 CF TR SLP394

CYGK;2013-04-21 19:00;CYGK 211900Z 19011KT 15SM SKC 03/M05 A3068 RMK SLP392

CYGK;2013-04-21 20:00;CYGK 212000Z 18007KT 15SM FEW045 04/M05 A3066 RMK CF1 CF TR SLP386

CYGK;2013-04-21 21:00;CYGK 212100Z 21011KT 15SM FEW220 04/M05 A3065 RMK CI1 CI TR SLP382

CYGK;2013-04-21 22:00;CYGK 212200Z 21007KT 15SM FEW220 04/M05 A3064 RMK CI1 SLP381

CYGK;2013-04-21 23:00;CYGK 212300Z 19005KT 15SM FEW220 03/M04 A3064 RMK CI1 SLP380

CYGK;2013-04-22 00:00;CYGK 220000Z 22005KT 15SM FEW220 01/M04 A3065 RMK CI1 SLP385

CYGK;2013-04-22 01:00;CYGK 220100Z 32003KT 15SM FEW220 01/M05 A3066 RMK CI1 SLP386

CYGK;2013-04-22 02:00;CYGK 220200Z 34004KT 15SM SKC 00/M04 A3066 RMK SLP386

CYGK;2013-04-22 03:00;CYGK 220300Z 35003KT 15SM SKC M01/M04 A3065 RMK LAST OBS/NEXT 221000 UTC SLP384

CYGK;2013-04-22 10:00;CYGK 221000Z 04004KT 15SM FEW250 M02/M07 A3060 RMK CI1 SLP368

CYGK;2013-04-22 11:00;CYGK 221100Z 06004KT 15SM FEW250 M01/M06 A3062 RMK CI1 SLP372

CYGK;2013-04-22 12:00;CYGK 221200Z 06006KT 15SM FEW250 02/M04 A3062 RMK CI2 SLP374

CYGK;2013-04-22 13:00;CYGK 221300Z 13006KT 15SM BKN250 05/M05 A3062 RMK CI7 SLP372

CYGK;2013-04-22 14:00;CYGK 221400Z 15008KT 15SM BKN250 06/M03 A3061 RMK CI6 SLP370

CYGK;2013-04-22 15:00;CYGK 221500Z 16006KT 15SM BKN250 07/M01 A3061 RMK CI7 SLP370

CYGK;2013-04-22 16:00;CYGK 221600Z 16009KT 15SM BKN200 07/M00 A3060 RMK CI7 SLP366

CYGK;2013-04-22 17:00;CYGK 221700Z 16007KT 15SM BKN220 08/00 A3057 RMK CI7 SLP357

CYGK;2013-04-22 18:00;CYGK 221800Z 18007KT 15SM BKN220 10/M04 A3055 RMK CI7 SLP348

CYGK;2013-04-22 19:00;CYGK 221900Z 19006KT 15SM BKN200 12/M04 A3052 RMK CI7 SLP338

CYGK;2013-04-22 20:00;CYGK 222000Z 20007KT 15SM BKN250 12/M05 A3049 RMK CI6 SLP327

CYGK;2013-04-22 21:00;CYGK 222100Z 19006KT 15SM SCT250 12/M04 A3047 RMK CI3 SLP321

CYGK;2013-04-22 22:00;CYGK 222200Z 18005KT 15SM FEW250 12/M05 A3045 RMK CI2 SLP315

CYGK;2013-04-22 23:00;CYGK 222300Z 14003KT 15SM FEW250 11/M05 A3044 RMK CI1 SLP311

CYGK;2013-04-23 00:00;CYGK 230000Z 07003KT 15SM SKC 10/M05 A3043 RMK SLP307

CYGK;2013-04-23 01:00;CYGK 230100Z 07005KT 15SM SKC 09/M05 A3043 RMK SLP307

CYGK;2013-04-23 02:00;CYGK 230200Z 06006KT 15SM SKC 07/M04 A3042 RMK SLP305

CYGK;2013-04-23 03:00;CYGK 230300Z 10006KT 15SM FEW210 07/M04 A3040 RMK CI1 LAST OBS/NEXT 231000 UTC. SLP295

CYGK;2013-04-23 10:00;CYGK 231000Z 14012KT 15SM SKC 05/00 A3038 RMK SLP290

CYGK;2013-04-23 11:00;CYGK 231100Z 15011KT 15SM SKC 05/01 A3038 RMK SLP290

CYGK;2013-04-23 12:00;CYGK 231200Z 15011KT 15SM SKC 05/02 A3037 RMK SLP288

CYGK;2013-04-23 13:00;CYGK 231300Z 15010KT 15SM SKC 06/02 A3037 RMK SLP285

CYGK;2013-04-23 14:00;CYGK 231400Z 15007KT 15SM SKC 07/02 A3034 RMK SLP276

CYGK;2013-04-23 15:00;CYGK 231500Z 16009KT 15SM SKC 07/01 A3032 RMK SLP270

CYGK;2013-04-23 16:00;CYGK 231600Z 18009KT 15SM SKC 08/01 A3030 RMK SLP262

CYGK;2013-04-23 17:00;CYGK 231700Z 18007KT 15SM SKC 09/00 A3026 RMK WND ESTD SLP251

CYGK;2013-04-23 18:00;CYGK 231800Z 20006KT 15SM FEW250 11/M01 A3025 RMK CI1 SLP245

CYGK;2013-04-23 19:00;CYGK 231900Z 18006KT 15SM FEW250 11/M01 A3021 RMK CI2 PRESFR SLP233

CYGK;2013-04-23 20:00;CYGK 232000Z 16005KT 15SM BKN250 11/M02 A3016 RMK CI6 PRESFR SLP214

CYGK;2013-04-23 21:00;CYGK 232100Z 22007KT 15SM SCT250 13/M00 A3016 RMK CI4 SLP215

CYGK;2013-04-23 22:00;CYGK 232200Z 14005KT 15SM SCT250 13/M01 A3011 RMK CI3 SLP199

CYGK;2013-04-23 23:00;CYGK 232300Z 16002KT 15SM SCT250 13/M00 A3010 RMK CI3 SLP194

CYGK;2013-04-24 00:00;CYGK 240000Z 19002KT 15SM SCT250 11/M01 A3007 RMK CI3 SLP186

CYGK;2013-04-24 01:00;CYGK 240100Z 10005KT 15SM SCT250 10/M01 A3006 RMK CI3 SLP182

CYGK;2013-04-24 02:00;CYGK 240200Z 14005KT 15SM BKN250 09/00 A3005 RMK CI6 SLP179

CYGK;2013-04-24 03:00;CYGK 240300Z 14009KT 15SM BKN250 09/04 A3003 RMK CI7 LAST OBS/NEXT 241000 UTC SLP171

CYGK;2013-04-24 10:00;CYGK 241000Z 13009KT 15SM BKN110 BKN230 07/04 A2990 RMK AC5CI2 SLP128

CYGK;2013-04-24 11:00;CYGK 241100Z 17012KT 15SM BKN100 BKN230 08/04 A2991 RMK AC6CI1 SLP129

CYGK;2013-04-24 12:00;CYGK 241200Z 17013KT 15SM SCT080 BKN100 OVC230 08/05 A2990 RMK AC3AC4CI1 SLP127

CYGK;2013-04-24 13:00;CYGK 241300Z 16007KT 15SM FEW080 BKN110 OVC230 08/05 A2987 RMK AC2AC5CI1 SLP118

CYGK;2013-04-24 13:45;CYGK 241345Z 14005KT 15SM -SHRA BKN080 OVC110 07/05 A2986 RMK AC5AC3 SLP112

CYGK;2013-04-24 14:00;CYGK 241400Z 16011KT 15SM -SHRA BKN080 OVC110 07/05 A2984 RMK AC6AC2 SLP108

CYGK;2013-04-24 14:30;CYGK 241430Z 16017G23KT 15SM BKN084 BKN200 08/04 A2983 RMK AC6CI1 SLP102

CYGK;2013-04-24 15:00;CYGK 241500Z 15009KT 15SM BKN076 BKN200 09/06 A2980 RMK AC6CI1 SLP093

CYGK;2013-04-24 16:00;CYGK 241600Z 15012G18KT 15SM BKN090 BKN250 10/06 A2977 RMK AC5CI1 SLP083

CYGK;2013-04-24 17:00;CYGK 241700Z 16008KT 15SM BKN037 BKN050 OVC085 10/06 A2973 RMK SC5SC1AC2 PRESFR SLP069

CYGK;2013-04-24 18:03;CYGK 241803Z 16012KT 12SM -RA OVC034 10/05 A2970 RMK SC8 SLP058

CYGK;2013-04-24 19:00;CYGK 241900Z 18007KT 5SM -RA BR BKN035 OVC050 08/06 A2969 RMK SC6SC2 SLP057

CYGK;2013-04-24 20:00;CYGK 242000Z 14008KT 8SM -RA BKN035 OVC070 10/08 A2963 RMK SC6AC2 SLP036

CYGK;2013-04-24 21:00;CYGK 242100Z 20008KT 4SM -RA BR OVC028 10/09 A2964 RMK SC8 SLP038

CYGK;2013-04-24 22:00;CYGK 242200Z VRB02KT 6SM -RA BR FEW025 BKN035 OVC100 11/10 A2957 RMK SC1SC5AS2 PRESFR SLP016

CYGK;2013-04-24 23:00;CYGK 242300Z 16005KT 3SM -RA BR FEW025 OVC035 08/07 A2959 RMK SC1SC7 SLP022

CYGK;2013-04-24 23:14;CYGK 242314Z 17009KT 2SM -RA BR FEW002 OVC035 07/07 A2958 RMK SF1SC7 SLP019

CYGK;2013-04-24 23:34;CYGK 242334Z 21014KT 6SM -RA BR FEW002 BKN008 OVC035 11/10 A2959 RMK SF1SC5SC3 SF TR SLP021

CYGK;2013-04-24 23:39;CYGK 242339Z 23023G29KT 6SM -RA BR BKN005 OVC035 11/11 A2960 RMK SF7SC1 VIS S 12 W 3 PRESRR SLP025

CYGK;2013-04-24 23:47;CYGK 242347Z 25018G30KT 5SM -RA BR FEW005 OVC025 10/09 A2960 RMK SF1SC7 PRESRR SLP026

CYGK;2013-04-25 00:00;CYGK 250000Z 24015KT 8SM -RA FEW005 OVC030 10/10 A2961 RMK SF1SC8 SF TR SLP030

CYGK;2013-04-25 00:44;CYGK 250044Z 23018G23KT 15SM -RA BKN006 OVC070 09/08 A2963 RMK SF6AC2 PRESRR SLP036

CYGK;2013-04-25 01:00;CYGK 250100Z 25015G24KT 12SM -RA BKN006 OVC020 08/07 A2965 RMK SF5SC3 PRESRR SLP043

CYGK;2013-04-25 02:00;CYGK 250200Z 26016G24KT 15SM -RA FEW006 BKN015 OVC120 07/05 A2973 RMK SF2SC5AC1 PRESRR SLP069

CYGK;2013-04-25 02:35;CYGK 250235Z 24018G25KT 15SM OVC015 06/04 A2977 RMK SC8 PRESRR SLP082

CYGK;2013-04-25 03:00;CYGK 250300Z 26016G22KT 15SM OVC015 05/03 A2980 RMK SC8 LAST OBS/NEXT 251000 UTC PRESRR SLP094

CYGK;2013-04-25 10:00;CYGK 251000Z 27009KT 15SM FEW022 OVC035 03/M01 A3010 RMK SC2SC6 SLP194

CYGK;2013-04-25 11:00;CYGK 251100Z 27005KT 15SM BKN032 02/M01 A3013 RMK SC5 SLP206

CYGK;2013-04-25 12:00;CYGK 251200Z 27010KT 15SM FEW030 03/M01 A3018 RMK SC2 PRESRR SLP223

CYGK;2013-04-25 13:00;CYGK 251300Z 25010KT 15SM FEW025 05/M01 A3020 RMK SC2 SLP228

CYGK;2013-04-25 14:00;CYGK 251400Z 22009KT 15SM FEW025 06/M01 A3020 RMK CF1 SLP231

CYGK;2013-04-25 15:00;CYGK 251500Z 22010KT 15SM FEW030 06/M01 A3023 RMK CU1 SLP239

CYGK;2013-04-25 16:00;CYGK 251600Z 18012KT 15SM SCT030 06/02 A3023 RMK CU3 SLP239

CYGK;2013-04-25 17:00;CYGK 251700Z 19013KT 15SM FEW030 07/03 A3022 RMK SC2 SLP237

CYGK;2013-04-25 18:00;CYGK 251800Z 18010KT 15SM FEW040 07/02 A3022 RMK CU2 SLP235

CYGK;2013-04-25 19:00;CYGK 251900Z 18010G15KT 15SM FEW040 FEW250 07/00 A3022 RMK CU1CI1 SLP235

CYGK;2013-04-25 20:00;CYGK 252000Z 16010KT 15SM FEW040 SCT250 06/03 A3021 RMK CU1CI3 SLP233

CYGK;2013-04-25 21:00;CYGK 252100Z 14009KT 15SM FEW040 BKN250 07/M01 A3020 RMK CU1CI6 CU TR SLP231

CYGK;2013-04-25 22:00;CYGK 252200Z 15007KT 15SM FEW040 SCT180 BKN250 07/M01 A3021 RMK SC1AC3CI4 SC TR SLP234

CYGK;2013-04-25 23:00;CYGK 252300Z 14006KT 15SM BKN160 BKN250 07/M02 A3022 RMK AC5CI2 SLP235

CYGK;2013-04-26 00:00;CYGK 260000Z 12004KT 15SM BKN130 OVC250 07/M03 A3022 RMK AC7CI1 SLP236

CYGK;2013-04-26 01:00;CYGK 260100Z 12005KT 15SM SCT070 BKN170 OVC250 07/M03 A3023 RMK AC3AC3CI2 SLP241

CYGK;2013-04-26 02:04;CYGK 260204Z 25011G18KT 15SM BKN050 OVC065 06/M01 A3030 RMK SC5SC3 WSHFT 0150 PRESRR SLP262

CYGK;2013-04-26 03:00;CYGK 260300Z 28007KT 15SM -RA FEW050 OVC065 05/02 A3030 RMK SC2SC6 LAST OBS/NEXT 261000 UTC SLP263

CYGK;2013-04-26 10:00;CYGK 261000Z 24004KT 10SM FEW022 FEW060 02/01 A3038 RMK SC1SC1 SC TR SLP291

CYGK;2013-04-26 11:00;CYGK 261100Z 27002KT 12SM BKN048 BKN076 03/02 A3041 RMK SC5AC2 SLP300

CYGK;2013-04-26 12:00;CYGK 261200Z 27004KT 15SM FEW020 BKN043 04/02 A3043 RMK CU1SC7 CU TR SLP307

CYGK;2013-04-26 13:00;CYGK 261300Z 22005KT 15SM FEW025 BKN047 05/03 A3044 RMK CU2SC5 SLP311

CYGK;2013-04-26 14:00;CYGK 261400Z 16006KT 15SM VCSH SCT020 BKN040 06/03 A3045 RMK CU3SC3 TCU ASOCTD VIS SE 6 SLP314

CYGK;2013-04-26 15:00;CYGK 261500Z 16006KT 15SM FEW020 BKN042 07/04 A3046 RMK CU2SC4 SLP318

CYGK;2013-04-26 16:00;CYGK 261600Z 17008KT 15SM SCT025 BKN042 07/03 A3047 RMK CU3SC4 SLP321

CYGK;2013-04-26 17:00;CYGK 261700Z 18011KT 15SM FEW030 BKN047 06/03 A3047 RMK CU2SC5 SLP322

CYGK;2013-04-26 18:00;CYGK 261800Z 18010KT 15SM FEW030 BKN048 07/03 A3047 RMK CU2SC5 SLP322

CYGK;2013-04-26 19:00;CYGK 261900Z 19012KT 15SM FEW030 BKN048 07/04 A3047 RMK CU1SC5 SLP321

CYGK;2013-04-26 20:00;CYGK 262000Z 19012KT 15SM FEW035 FEW048 SCT270 07/02 A3047 RMK CU1SC1CI1 SLP320

CYGK;2013-04-26 21:00;CYGK 262100Z 19010KT 15SM FEW035 FEW180 07/02 A3045 RMK CU1AC1 AC TR SLP316

CYGK;2013-04-26 22:00;CYGK 262200Z 19009KT 15SM FEW030 FEW250 07/02 A3045 RMK CU1CI1 SLP314

CYGK;2013-04-26 23:00;CYGK 262300Z 19008KT 15SM FEW030 SCT220 06/02 A3045 RMK CU1CI3 CU TR SLP313

CYGK;2013-04-27 00:00;CYGK 270000Z 20008KT 15SM SCT240 05/01 A3045 RMK CI3 SLP314

CYGK;2013-04-27 01:00;CYGK 270100Z 20006KT 15SM FEW200 04/01 A3046 RMK CI2 SLP317

CYGK;2013-04-27 02:00;CYGK 270200Z 20004KT 15SM FEW220 03/00 A3046 RMK CI1 SLP318

CYGK;2013-04-27 03:00;CYGK 270300Z VRB02KT 15SM FEW100 SCT210 03/01 A3046 RMK AC2CI2 LAST OBS/NEXT 271000 UTC SLP318

CYGK;2013-04-27 10:00;CYGK 271000Z 13003KT 15SM BKN080 04/03 A3042 RMK AC7 SLP305

CYGK;2013-04-27 11:00;CYGK 271100Z 15003KT 15SM BKN080 BKN120 05/03 A3043 RMK AC6AC1 SLP309

CYGK;2013-04-27 12:00;CYGK 271200Z 13004KT 15SM BKN085 BKN098 05/03 A3044 RMK AC5AC2 SLP310

CYGK;2013-04-27 13:00;CYGK 271300Z 15005KT 15SM FEW063 BKN085 BKN098 06/03 A3044 RMK SC2AC3AC2 SLP312

CYGK;2013-04-27 14:00;CYGK 271400Z 15003KT 15SM BKN041 BKN078 OVC200 07/02 A3045 RMK SC5AC2CI1 SLP314

CYGK;2013-04-27 15:00;CYGK 271500Z 13006KT 15SM FEW038 BKN058 OVC200 08/01 A3044 RMK SC2SC4CI2 SLP310

CYGK;2013-04-27 16:00;CYGK 271600Z 10007KT 15SM BKN053 BKN085 09/01 A3041 RMK SC6AC1 SLP302

CYGK;2013-04-27 17:00;CYGK 271700Z 13005KT 15SM BKN048 BKN070 10/01 A3041 RMK SC6AC1 SLP301

CYGK;2013-04-27 18:00;CYGK 271800Z 14005KT 15SM BKN051 BKN083 11/03 A3040 RMK SC5AC2 SLP296

CYGK;2013-04-27 19:00;CYGK 271900Z 17004KT 15SM FEW053 BKN096 12/02 A3037 RMK SC2AC5 SLP288

CYGK;2013-04-27 20:00;CYGK 272000Z 16004KT 15SM FEW045 SCT110 12/00 A3035 RMK SC2AC2 SLP279

CYGK;2013-04-27 21:00;CYGK 272100Z 15004KT 15SM BKN092 12/M01 A3033 RMK AC6 SLP272

CYGK;2013-04-27 22:00;CYGK 272200Z 16005KT 15SM SCT075 BKN098 12/M01 A3031 RMK AC3AC3 SLP268

CYGK;2013-04-27 23:00;CYGK 272300Z 11002KT 15SM FEW080 12/M00 A3030 RMK AC2 SLP263

CYGK;2013-04-28 00:00;CYGK 280000Z 08002KT 15SM FEW080 11/M01 A3028 RMK AC1 AC TR SLP256

CYGK;2013-04-28 01:00;CYGK 280100Z 06002KT 15SM FEW080 10/01 A3029 RMK AC1 AC TR SLP259

CYGK;2013-04-28 02:00;CYGK 280200Z 04002KT 15SM SKC 08/02 A3028 RMK SLP258

CYGK;2013-04-28 03:00;CYGK 280300Z 05003KT 15SM SKC 06/02 A3028 RMK LAST OBS/NEXT 281000 UTC SLP256

CYGK;2013-04-28 10:00;CYGK 281000Z 06003KT 15SM FEW120 FEW250 03/01 A3023 RMK AC1CI1 AC TR SLP240

CYGK;2013-04-28 11:00;CYGK 281100Z 03005KT 15SM FEW120 FEW250 04/03 A3023 RMK AC1CI1 AC TR SLP238

CYGK;2013-04-28 12:00;CYGK 281200Z 07004KT 15SM FEW200 10/05 A3023 RMK CI1 SLP239

CYGK;2013-04-28 13:00;CYGK 281300Z 13006KT 15SM FEW200 13/05 A3023 RMK CI2 SLP238

CYGK;2013-04-28 14:00;CYGK 281400Z 16004KT 15SM SCT250 14/04 A3023 RMK CI3 SLP238

CYGK;2013-04-28 15:00;CYGK 281500Z 17007KT 15SM BKN250 15/04 A3022 RMK CI5 SLP234

CYGK;2013-04-28 16:00;CYGK 281600Z 15007KT 15SM BKN250 15/05 A3019 RMK CI6 SLP226

CYGK;2013-04-28 17:00;CYGK 281700Z 16007KT 15SM BKN250 17/05 A3017 RMK CI6 SLP218

CYGK;2013-04-28 18:00;CYGK 281800Z 15008KT 15SM FEW050 BKN240 18/05 A3014 RMK CU1CI5 SLP209 DENSITY ALT 500FT

CYGK;2013-04-28 19:00;CYGK 281900Z 15006KT 15SM FEW050 BKN240 20/04 A3013 RMK CU1CI6 CU TR SLP204 DENSITY ALT 700FT

CYGK;2013-04-28 20:00;CYGK 282000Z 14006KT 15SM FEW050 BKN230 21/04 A3010 RMK CU1CI6 SLP195 DENSITY ALT 800FT

CYGK;2013-04-28 21:00;CYGK 282100Z 11003KT 15SM FEW050 FEW160 BKN220 21/03 A3007 RMK CU1AC2CI5 CU TR SLP184 DENSITY ALT 900FT

CYGK;2013-04-28 22:00;CYGK 282200Z 12004KT 15SM FEW050 SCT160 BKN210 21/02 A3005 RMK SC1AC2CI4 SLP179 DENSITY ALT 900FT

CYGK;2013-04-28 23:00;CYGK 282300Z 15004KT 15SM FEW050 SCT160 OVC210 20/04 A3004 RMK SC1AC3CI4 SLP175 DENSITY ALT 800FT

CYGK;2013-04-29 00:00;CYGK 290000Z 15004KT 15SM SCT100 BKN160 OVC250 17/04 A3005 RMK AC3AC2CI3 SLP175 DENSITY ALT 400FT

CYGK;2013-04-29 01:00;CYGK 290100Z 18006KT 15SM BKN100 OVC220 16/03 A3005 RMK AC5CI3 SLP178

CYGK;2013-04-29 02:00;CYGK 290200Z 19009KT 15SM BKN094 OVC140 14/05 A3006 RMK AC6AC2 SLP181

CYGK;2013-04-29 03:00;CYGK 290300Z 24006KT 15SM SCT089 OVC170 12/05 A3009 RMK AC4AC4 LAST OBS/NEXT 291000UTC SLP190

CYGK;2013-04-29 10:00;CYGK 291000Z 17010KT 15SM OVC033 09/05 A3007 RMK SC8 SLP183

CYGK;2013-04-29 11:00;CYGK 291100Z 16012KT 10SM -SHRA OVC033 09/06 A3008 RMK SC8 SLP186

CYGK;2013-04-29 12:00;CYGK 291200Z 14010KT 8SM -SHRA OVC032 09/07 A3008 RMK SC8 SLP189

CYGK;2013-04-29 13:00;CYGK 291300Z 14009G16KT 8SM -SHRA OVC035 09/07 A3008 RMK SC8 SLP188

CYGK;2013-04-29 14:00;CYGK 291400Z 13011G16KT 15SM -SHRA OVC035 10/08 A3007 RMK SC8 SLP185

CYGK;2013-04-29 14:24;CYGK 291424Z 13010G16KT 15SM OVC034 10/07 A3008 RMK SC8 SLP186

CYGK;2013-04-29 15:00;CYGK 291500Z 14011KT 15SM OVC030 10/07 A3008 RMK SC8 SLP188

CYGK;2013-04-29 16:00;CYGK 291600Z 14009KT 15SM OVC032 10/08 A3008 RMK SC8 SLP186

CYGK;2013-04-29 17:00;CYGK 291700Z 14008KT 15SM OVC035 11/08 A3007 RMK SC8 SLP183

CYGK;2013-04-29 18:00;CYGK 291800Z 15011KT 15SM OVC037 11/08 A3006 RMK SC8 SLP181

CYGK;2013-04-29 19:00;CYGK 291900Z 15009KT 15SM OVC035 11/08 A3006 RMK SC8 SLP180

CYGK;2013-04-29 20:00;CYGK 292000Z 14011KT 15SM OVC037 11/08 A3005 RMK SC8 SLP176

CYGK;2013-04-29 21:00;CYGK 292100Z 14013KT 15SM OVC031 11/08 A3005 RMK SC8 SLP176

CYGK;2013-04-29 22:00;CYGK 292200Z 14013KT 15SM BKN031 OVC045 12/08 A3005 RMK SC7SC1 SLP178

CYGK;2013-04-29 23:00;CYGK 292300Z 14013KT 15SM BKN030 OVC050 11/08 A3006 RMK SC7SC1 SLP181

CYGK;2013-04-30 00:00;CYGK 300000Z 14012KT 15SM BKN030 OVC050 11/08 A3007 RMK SC7SC1 SLP183

CYGK;2013-04-30 01:00;CYGK 300100Z 14009KT 15SM BKN031 OVC038 10/08 A3008 RMK SC6SC2 SLP188

CYGK;2013-04-30 02:00;CYGK 300200Z 15010KT 15SM OVC035 10/07 A3009 RMK SC8 SLP192

CYGK;2013-04-30 03:00;CYGK 300300Z 15012KT 15SM FEW028 OVC036 10/08 A3009 RMK SC1SC7 LAST OBS/NEXT 301000 UTC SLP193

CYGK;2013-04-30 10:00;CYGK 301000Z 15008KT 15SM OVC027 09/07 A3014 RMK SC8 SLP210

CYGK;2013-04-30 11:00;CYGK 301100Z 15010KT 15SM OVC028 09/07 A3016 RMK SC8 SLP215

CYGK;2013-04-30 12:00;CYGK 301200Z 15009KT 15SM OVC028 09/07 A3017 RMK SC8 SLP220

CYGK;2013-04-30 13:00;CYGK 301300Z 15010KT 15SM BKN025 OVC035 09/08 A3018 RMK SC6SC2 SLP223

CYGK;2013-04-30 14:00;CYGK 301400Z 15009KT 15SM OVC028 09/07 A3019 RMK SC8 SLP224

CYGK;2013-04-30 15:00;CYGK 301500Z 15007KT 15SM OVC030 10/08 A3019 RMK SC8 SLP226

CYGK;2013-04-30 16:00;CYGK 301600Z 15006KT 15SM BKN034 BKN100 10/08 A3020 RMK SC7AC1 AC TR SLP230

CYGK;2013-04-30 17:00;CYGK 301700Z 16009KT 15SM BKN035 BKN100 13/09 A3020 RMK SC5AC2 SLP230

CYGK;2013-04-30 18:00;CYGK 301800Z 17008KT 15SM BKN035 BKN040 BKN130 14/10 A3022 RMK SC5SC2AC1 AC TR SLP235

CYGK;2013-04-30 19:00;CYGK 301900Z 17007KT 15SM SCT037 BKN110 BKN130 15/11 A3022 RMK SC4AC1AC2 SLP235

CYGK;2013-04-30 20:00;CYGK 302000Z 17005KT 15SM FEW020 SCT038 BKN120 15/10 A3021 RMK CF1SC3AC4 CF TR SLP233

CYGK;2013-04-30 21:00;CYGK 302100Z 16005KT 15SM FEW039 SCT063 BKN120 BKN230 16/11 A3021 RMK SC2SC2AC2CI1 CI TR SLP230

CYGK;2013-04-30 22:00;CYGK 302200Z 14007KT 15SM FEW025 FEW040 FEW140 SCT220 17/11 A3019 RMK CU1SC1AC1CI2 CU TR SLP224

CYGK;2013-04-30 23:00;CYGK 302300Z 14008KT 15SM FEW025 FEW040 FEW140 BKN200 15/10 A3019 RMK CU1SC1AC1CI4 CU TR SC TR SLP223

CYGK;2013-05-01 00:00;CYGK 010000Z 14008KT 15SM FEW025 FEW140 BKN250 14/09 A3019 RMK SC1AC1CI5 SC TR SLP223

CYGK;2013-05-01 01:00;CYGK 010100Z 15006KT 15SM FEW140 BKN250 11/08 A3020 RMK AC1CI6 SLP230

CYGK;2013-05-01 02:00;CYGK 010200Z 15008KT 15SM SCT250 12/08 A3022 RMK CI3 SLP236

CYGK;2013-05-01 03:00;CYGK 010300Z 15007KT 15SM BKN150 13/09 A3024 RMK AC5 LAST OBS/NEXT 011000 UTC SLP241

CYGK;2013-05-01 10:00;CYGK 011000Z 16005KT 15SM BKN120 11/08 A3033 RMK AC6 SLP272

CYGK;2013-05-01 11:00;CYGK 011100Z 15008KT 15SM BKN110 10/07 A3035 RMK AC7 SLP279

CYGK;2013-05-01 12:00;CYGK 011200Z 15006KT 15SM BKN120 10/07 A3038 RMK AC7 SLP288

CYGK;2013-05-01 13:00;CYGK 011300Z 17005KT 15SM BKN110 11/07 A3038 RMK AC7 SLP290

CYGK;2013-05-01 14:00;CYGK 011400Z 15007KT 15SM BKN100 11/06 A3039 RMK AC7 SLP292

CYGK;2013-05-01 15:00;CYGK 011500Z 15007KT 15SM BKN110 12/06 A3040 RMK AC7 SLP295

CYGK;2013-05-01 16:00;CYGK 011600Z 15007KT 15SM FEW130 SCT230 15/07 A3039 RMK AC2CI1 SLP292

CYGK;2013-05-01 17:00;CYGK 011700Z 16005KT 14SM FEW130 SCT230 17/06 A3038 RMK AC2CI1 SLP290

CYGK;2013-05-01 18:00;CYGK 011800Z 20006KT 15SM FEW130 SCT250 19/05 A3036 RMK AC1CI3 SLP282

CYGK;2013-05-01 19:00;CYGK 011900Z 21006KT 15SM FEW130 SCT250 21/06 A3036 RMK AC1CI2 SLP282 DENSITY ALT 500FT

CYGK;2013-05-01 20:00;CYGK 012000Z 23005KT 15SM FEW120 FEW250 22/06 A3035 RMK AC1CI1 AC TR SLP277 DENSITY ALT 700FT

CYGK;2013-05-01 21:00;CYGK 012100Z 26006KT 15SM SCT250 23/04 A3034 RMK CI3 SLP276 DENSITY ALT 700FT

CYGK;2013-05-01 22:00;CYGK 012200Z 26003KT 15SM FEW150 FEW250 23/04 A3034 RMK AC1CI2 AC TR SLP276 DENSITY ALT 800FT

CYGK;2013-05-01 23:00;CYGK 012300Z 29002KT 15SM FEW140 SCT250 23/04 A3034 RMK AC2CI2 SLP275 DENSITY ALT 800FT

CYGK;2013-05-02 00:00;CYGK 020000Z 00000KT 15SM BKN140 BKN250 22/03 A3034 RMK AC6CI1 SLP275 DENSITY ALT 600FT

CYGK;2013-05-02 01:00;CYGK 020100Z 00000KT 15SM BKN150 BKN250 17/06 A3035 RMK AC6CI1 SLP280

CYGK;2013-05-02 02:00;CYGK 020200Z 13002KT 15SM FEW120 BKN150 17/04 A3036 RMK AC2AC5 SLP284

CYGK;2013-05-02 03:00;CYGK 020300Z VRB02KT 15SM FEW120 BKN140 17/05 A3036 RMK AC1AC5 LAST OBS/NEXT 021000 UTC SLP282

CYGK;2013-05-02 10:00;CYGK 021000Z 19005KT 15SM FEW100 10/03 A3039 RMK AC1 AC TR SLP291

CYGK;2013-05-02 11:00;CYGK 021100Z 20005KT 15SM FEW100 11/04 A3040 RMK AC1 AC TR SLP295

CYGK;2013-05-02 12:00;CYGK 021200Z 21008KT 15SM SKC 12/04 A3043 RMK SLP306

CYGK;2013-05-02 13:00;CYGK 021300Z 19006KT 15SM SKC 13/05 A3044 RMK SLP309

CYGK;2013-05-02 14:00;CYGK 021400Z 19006KT 15SM FEW270 14/05 A3045 RMK CI1 CI TR SLP312

CYGK;2013-05-02 15:00;CYGK 021500Z 18008KT 15SM SKC 15/05 A3045 RMK SLP313

CYGK;2013-05-02 16:00;CYGK 021600Z 18007KT 15SM FEW270 15/06 A3044 RMK CI1 SLP307

CYGK;2013-05-02 17:00;CYGK 021700Z 19008KT 15SM FEW250 17/06 A3042 RMK CI1 CI TR SLP303

CYGK;2013-05-02 18:00;CYGK 021800Z 19007KT 15SM FEW270 17/05 A3041 RMK CI1 SLP298

CYGK;2013-05-02 19:00;CYGK 021900Z 19006KT 15SM FEW270 18/06 A3039 RMK CI1 CI TR SLP293

CYGK;2013-05-02 20:00;CYGK 022000Z 21004KT 15SM FEW250 22/06 A3037 RMK CI1 SLP284 DENSITY ALT 600FT

CYGK;2013-05-02 21:00;CYGK 022100Z 18004KT 15SM FEW250 21/06 A3035 RMK CI1 SLP279 DENSITY ALT 600FT

CYGK;2013-05-02 22:00;CYGK 022200Z 20003KT 15SM FEW250 22/01 A3033 RMK CI1 SLP272 DENSITY ALT 700FT

CYGK;2013-05-02 23:00;CYGK 022300Z 14002KT 15SM FEW250 22/04 A3031 RMK CI1 SLP266 DENSITY ALT 600FT

CYGK;2013-05-03 00:00;CYGK 030000Z 12002KT 15SM FEW250 18/04 A3031 RMK CI2 SLP266

CYGK;2013-05-03 01:00;CYGK 030100Z 03006KT 15SM FEW250 15/02 A3032 RMK CI2 SLP267

CYGK;2013-05-03 02:00;CYGK 030200Z 03006KT 15SM FEW250 15/03 A3031 RMK CI2 SLP263

CYGK;2013-05-03 03:00;CYGK 030300Z 34003KT 15SM FEW250 14/04 A3029 RMK CI2 LAST OBS/NEXT 031000 UTC SLP257

CYGK;2013-05-03 10:00;CYGK 031000Z 16003KT 15SM SCT110 BKN270 13/05 A3032 RMK AC4CI2 SLP267

CYGK;2013-05-03 11:00;CYGK 031100Z 27002KT 15SM BKN110 BKN270 13/07 A3034 RMK AC6CI1 SLP275

CYGK;2013-05-03 12:00;CYGK 031200Z 29002KT 15SM BKN110 BKN270 14/07 A3035 RMK AC6CI1 SLP278

CYGK;2013-05-03 13:00;CYGK 031300Z VRB02KT 15SM BKN110 BKN270 15/08 A3036 RMK AC6CI1 SLP281

CYGK;2013-05-03 14:00;CYGK 031400Z 14006KT 15SM BKN110 BKN270 16/07 A3036 RMK AC6CI1 SLP282

CYGK;2013-05-03 15:00;CYGK 031500Z 14006KT 15SM SCT110 BKN270 18/08 A3037 RMK AC4CI1 SLP284

CYGK;2013-05-03 16:00;CYGK 031600Z 15008KT 15SM FEW110 SCT270 18/07 A3036 RMK AC2CI1 SLP281

CYGK;2013-05-03 17:00;CYGK 031700Z 14008KT 15SM FEW110 FEW270 18/07 A3034 RMK AC1CI2 AC TR SLP276

CYGK;2013-05-03 18:00;CYGK 031800Z 16007KT 15SM FEW270 19/08 A3033 RMK CI1 SLP273 DENSITY ALT 400FT

CYGK;2013-05-03 19:00;CYGK 031900Z 17006KT 15SM SCT270 21/07 A3032 RMK CI3 SLP266 DENSITY ALT 500FT

CYGK;2013-05-03 20:00;CYGK 032000Z 18004KT 15SM SCT270 21/06 A3030 RMK CI3 SLP259 DENSITY ALT 600FT

CYGK;2013-05-03 21:00;CYGK 032100Z 18003KT 15SM BKN270 21/08 A3028 RMK CI6 SLP254 DENSITY ALT 600FT

CYGK;2013-05-03 22:00;CYGK 032200Z 18004KT 15SM FEW250 21/07 A3027 RMK CI2 SLP252 DENSITY ALT 700FT

CYGK;2013-05-03 23:00;CYGK 032300Z 21003KT 15SM SCT250 21/07 A3026 RMK CI4 SLP249 DENSITY ALT 600FT

CYGK;2013-05-04 00:00;CYGK 040000Z 22004KT 15SM SCT250 20/05 A3026 RMK CI4 SLP247 DENSITY ALT 500FT

CYGK;2013-05-04 01:00;CYGK 040100Z 00000KT 15SM SCT250 16/07 A3026 RMK CI3 SLP249

CYGK;2013-05-04 02:00;CYGK 040200Z 35002KT 15SM SCT250 16/08 A3028 RMK CI3 SLP253

CYGK;2013-05-04 03:00;CYGK 040300Z 05005KT 15SM SCT250 12/08 A3027 RMK CI3 LAST OBS/NEXT 041000 UTC SLP252

CYGK;2013-05-04 10:00;CYGK 041000Z 17007KT 15SM FEW210 09/04 A3029 RMK CI1 SLP257

CYGK;2013-05-04 11:00;CYGK 041100Z 17010KT 15SM FEW210 10/04 A3030 RMK CI1 CI TR SLP260

CYGK;2013-05-04 12:00;CYGK 041200Z 19006KT 15SM FEW210 11/04 A3031 RMK CI1 CI TR SLP265

CYGK;2013-05-04 13:00;CYGK 041300Z 19008KT 15SM FEW210 12/04 A3033 RMK CI1 CI TR SLP272

CYGK;2013-05-04 14:00;CYGK 041400Z 19008KT 15SM FEW250 13/04 A3033 RMK CI1 CI TR SLP270

CYGK;2013-05-04 15:00;CYGK 041500Z 17008KT 15SM FEW250 13/05 A3032 RMK CI1 CI TR SLP270

CYGK;2013-05-04 16:00;CYGK 041600Z 17007KT 15SM FEW040 FEW250 14/05 A3031 RMK CF1CI1 CF TR CI TR SLP266

CYGK;2013-05-04 17:00;CYGK 041700Z 19006KT 15SM FEW040 15/06 A3030 RMK CU1 CU TR SLP261

CYGK;2013-05-04 18:00;CYGK 041800Z 18005KT 15SM FEW040 17/05 A3028 RMK CU1 CU TR SLP255

CYGK;2013-05-04 19:00;CYGK 041900Z 17005KT 15SM FEW040 19/06 A3026 RMK CU1 CU TR SLP249

CYGK;2013-05-04 20:00;CYGK 042000Z 25005KT 15SM FEW040 FEW250 20/05 A3024 RMK SF1CI1 SF TR CI TR SLP240 DENSITY ALT 600FT

CYGK;2013-05-04 21:00;CYGK 042100Z 24006KT 15SM FEW040 21/05 A3022 RMK CU1 CU TR SLP234 DENSITY ALT 700FT

CYGK;2013-05-04 22:00;CYGK 042200Z 23005KT 15SM SKC 20/06 A3020 RMK SLP229 DENSITY ALT 600FT

CYGK;2013-05-04 23:00;CYGK 042300Z 22002KT 15SM SKC 20/05 A3019 RMK SLP225 DENSITY ALT 600FT

CYGK;2013-05-05 00:00;CYGK 050000Z 00000KT 15SM SKC 20/03 A3019 RMK SLP224 DENSITY ALT 500FT

CYGK;2013-05-05 01:00;CYGK 050100Z 04002KT 15SM SKC 17/02 A3020 RMK SLP226

CYGK;2013-05-05 02:00;CYGK 050200Z 35003KT 15SM SKC 15/07 A3020 RMK SLP227

CYGK;2013-05-05 03:00;CYGK 050300Z 34006KT 15SM SKC 13/07 A3020 RMK LAST OBS/NEXT 051000 UTC SLP226

CYGK;2013-05-05 10:00;CYGK 051000Z 35002KT 15SM FEW120 FEW230 08/06 A3019 RMK AC1CI1 AC TR CI TR SLP225

CYGK;2013-05-05 11:00;CYGK 051100Z 19006KT 15SM FEW120 FEW230 13/08 A3020 RMK AC1CI1 AC TR SLP228

CYGK;2013-05-05 12:00;CYGK 051200Z 16006KT 15SM SKC 12/07 A3022 RMK SLP233

CYGK;2013-05-05 13:00;CYGK 051300Z 17005KT 15SM FEW250 13/07 A3022 RMK CI1 CI TR SLP236

CYGK;2013-05-05 14:00;CYGK 051400Z 15006KT 15SM SKC 14/07 A3022 RMK SLP236

CYGK;2013-05-05 15:00;CYGK 051500Z 16006KT 15SM FEW030 14/07 A3022 RMK CF1 CF TR SLP236

CYGK;2013-05-05 16:00;CYGK 051600Z 16007KT 15SM FEW030 15/08 A3022 RMK CU1 CU TR SLP233

CYGK;2013-05-05 17:00;CYGK 051700Z 17004KT 15SM FEW030 16/08 A3020 RMK CU1 CU TR SLP228

CYGK;2013-05-05 18:00;CYGK 051800Z 15004KT 15SM FEW040 18/07 A3019 RMK CU1 CU TR SLP225

CYGK;2013-05-05 19:00;CYGK 051900Z 18006KT 15SM FEW045 FEW250 19/07 A3017 RMK CU1CI1 CU TR CI TR SLP218 DENSITY ALT 500FT

CYGK;2013-05-05 20:00;CYGK 052000Z 18005KT 15SM FEW045 FEW250 20/08 A3015 RMK CU1CI1 CU TR CI TR SLP211 DENSITY ALT 700FT

CYGK;2013-05-05 21:00;CYGK 052100Z 24005KT 15SM FEW045 FEW250 23/08 A3013 RMK CU1CI1 CU TR CI TR SLP204 DENSITY ALT 1000FT

CYGK;2013-05-05 22:00;CYGK 052200Z 25005KT 15SM FEW050 FEW250 23/04 A3012 RMK CU1CI1 CU TR SLP200 DENSITY ALT 1000FT

CYGK;2013-05-05 23:00;CYGK 052300Z 25004KT 15SM FEW050 FEW250 22/04 A3011 RMK SC1CI1 SC TR CI TR SLP198 DENSITY ALT 900FT

CYGK;2013-05-06 00:00;CYGK 060000Z 25003KT 15SM FEW250 21/03 A3011 RMK CI1 SLP198 DENSITY ALT 800FT

CYGK;2013-05-06 01:00;CYGK 060100Z 33004KT 15SM FEW250 18/03 A3011 RMK CI1 SLP198 DENSITY ALT 500FT

CYGK;2013-05-06 02:00;CYGK 060200Z 14003KT 020V140 15SM SKC 16/06 A3013 RMK SLP202

CYGK;2013-05-06 03:00;CYGK 060300Z 01002KT 15SM SKC 14/08 A3013 RMK LAST OBS/NEXT 061000UTC SLP203

CYGK;2013-05-06 10:00;CYGK 061000Z 17009KT 15SM FEW250 12/04 A3015 RMK CI1 SLP210

CYGK;2013-05-06 11:00;CYGK 061100Z 19007KT 15SM FEW250 11/05 A3017 RMK CI1 SLP218

CYGK;2013-05-06 12:00;CYGK 061200Z 20007KT 15SM FEW250 12/05 A3019 RMK CI1 SLP222

CYGK;2013-05-06 13:00;CYGK 061300Z 19007KT 15SM SCT250 12/05 A3020 RMK CI3 SLP228

CYGK;2013-05-06 14:00;CYGK 061400Z 19009KT 15SM FEW250 13/06 A3020 RMK CI2 SLP228

CYGK;2013-05-06 15:00;CYGK 061500Z 17011KT 15SM FEW250 14/06 A3020 RMK CI2 SLP228

CYGK;2013-05-06 16:00;CYGK 061600Z 19007KT 15SM FEW250 15/06 A3019 RMK CI1 CI TR SLP224

CYGK;2013-05-06 17:00;CYGK 061700Z 20005KT 15SM FEW040 FEW250 16/07 A3017 RMK CF1CI2 CF TR SLP217

CYGK;2013-05-06 18:00;CYGK 061800Z 19007KT 15SM FEW270 19/07 A3015 RMK CI1 CI TR SLP209 DENSITY ALT 500FT

CYGK;2013-05-06 19:00;CYGK 061900Z 25006KT 15SM FEW050 FEW250 20/06 A3012 RMK CF1CI1 CF TR SLP201 DENSITY ALT 700FT

CYGK;2013-05-06 20:00;CYGK 062000Z 23005KT 15SM FEW060 FEW250 21/07 A3010 RMK SC1CI1 SC TR CI TR SLP192 DENSITY ALT 800FT

CYGK;2013-05-06 21:00;CYGK 062100Z 22004KT 15SM FEW250 21/03 A3008 RMK CI1 SLP185 DENSITY ALT 900FT

CYGK;2013-05-06 22:00;CYGK 062200Z 24005KT 15SM FEW250 21/01 A3006 RMK CI2 SLP180 DENSITY ALT 900FT

CYGK;2013-05-06 23:00;CYGK 062300Z 25005KT 15SM FEW250 20/03 A3005 RMK CI2 SLP177 DENSITY ALT 700FT

CYGK;2013-05-07 00:00;CYGK 070000Z 29003KT 15SM FEW250 19/M01 A3005 RMK CI1 SLP176 DENSITY ALT 600FT

CYGK;2013-05-07 01:00;CYGK 070100Z 31004KT 15SM FEW250 14/01 A3006 RMK CI1 SLP181

CYGK;2013-05-07 02:00;CYGK 070200Z 35005KT 15SM FEW250 14/03 A3007 RMK CI1 SLP183

CYGK;2013-05-07 03:00;CYGK 070300Z 35005KT 15SM SKC 12/03 A3007 RMK LAST OBS/NEXT 071000UTC SLP183

CYGK;2013-05-07 10:00;CYGK 071000Z 19003KT 15SM FEW250 11/08 A3010 RMK CI1 SLP193

CYGK;2013-05-07 11:00;CYGK 071100Z 18005KT 15SM FEW250 12/09 A3011 RMK CI1 SLP198

CYGK;2013-05-07 12:00;CYGK 071200Z 18007KT 15SM FEW250 13/11 A3012 RMK CI2 SLP201

CYGK;2013-05-07 13:00;CYGK 071300Z 17008KT 15SM SCT200 14/10 A3013 RMK CI3 SLP205

CYGK;2013-05-07 14:00;CYGK 071400Z 18007KT 15SM SCT200 14/10 A3014 RMK CI3 SLP206

CYGK;2013-05-07 15:00;CYGK 071500Z 17006KT 15SM SCT200 15/11 A3014 RMK CI3 SLP208

CYGK;2013-05-07 16:00;CYGK 071600Z 16009KT 15SM FEW025 SCT200 15/11 A3014 RMK CU1CI3 CU TR SLP206

CYGK;2013-05-07 17:00;CYGK 071700Z 16007KT 15SM FEW025 SCT250 16/11 A3012 RMK CU1CI4 CU TR SLP202

CYGK;2013-05-07 18:00;CYGK 071800Z 18006KT 15SM FEW025 SCT270 18/12 A3011 RMK CU1CI2 SLP197 DENSITY ALT 500FT

CYGK;2013-05-07 19:00;CYGK 071900Z 19007KT 15SM FEW030 SCT250 19/12 A3009 RMK CU1CI3 CU TR SLP192 DENSITY ALT 600FT

CYGK;2013-05-07 20:00;CYGK 072000Z 22003KT 15SM FEW040 FEW250 22/13 A3007 RMK CU1CI2 CU TR TCU SE SLP182 DENSITY ALT 1000FT

CYGK;2013-05-07 21:00;CYGK 072100Z 23005KT 15SM FEW040 SCT250 23/10 A3005 RMK CU1CI3 CU TR TCU SE SLP177 DENSITY ALT 1100FT

CYGK;2013-05-07 22:00;CYGK 072200Z 17003KT 15SM FEW040 FEW250 21/12 A3004 RMK CU1CI2 CU TR SLP174 DENSITY ALT 800FT

CYGK;2013-05-07 23:00;CYGK 072300Z 19002KT 15SM FEW040 SCT250 21/09 A3004 RMK SC1CI3 SC TR SLP174 DENSITY ALT 800FT

CYGK;2013-05-08 00:00;CYGK 080000Z 00000KT 15SM FEW040 SCT220 20/10 A3004 RMK SC1CI3 SC TR SLP174 DENSITY ALT 700FT

CYGK;2013-05-08 01:00;CYGK 080100Z 01002KT 15SM FEW220 18/09 A3005 RMK CI2 SLP176 DENSITY ALT 500FT

CYGK;2013-05-08 02:00;CYGK 080200Z 35003KT 15SM FEW220 16/11 A3006 RMK CI1 SLP180

CYGK;2013-05-08 03:00;CYGK 080300Z 02002KT 15SM FEW140 15/12 A3006 RMK AC1 LAST OBS/NEXT 081000UTC SLP181

CYGK;2013-05-08 10:00;CYGK 081000Z 15005KT 15SM FEW150 FEW250 15/11 A3006 RMK AC1CI2 AC TR SLP181

CYGK;2013-05-08 11:00;CYGK 081100Z 15007KT 15SM FEW150 SCT250 16/11 A3008 RMK AC1CI2 SLP186

CYGK;2013-05-08 12:00;CYGK 081200Z 15005KT 15SM FEW160 BKN250 16/11 A3009 RMK AC2CI5 SLP189

CYGK;2013-05-08 13:00;CYGK 081300Z 16006KT 15SM FEW160 SCT270 16/11 A3010 RMK AC2CI2 SLP193

CYGK;2013-05-08 14:00;CYGK 081400Z 15005KT 15SM SCT160 BKN270 18/11 A3009 RMK AC3CI4 SLP191 DENSITY ALT 500FT

CYGK;2013-05-08 15:00;CYGK 081500Z 19007KT 15SM FEW030 FEW100 FEW160 BKN250 20/13 A3009 RMK CU1AC1AC1CI5 CU TR SLP191 DENSITY ALT 700FT

CYGK;2013-05-08 16:00;CYGK 081600Z 17006KT 15SM FEW030 FEW100 BKN270 20/13 A3008 RMK CU1AC1CI5 CU TR SLP187 DENSITY ALT 700FT

CYGK;2013-05-08 17:00;CYGK 081700Z 19008KT 15SM FEW035 FEW040 SCT100 BKN200 21/13 A3006 RMK CU1SC1AC2CI3 SLP180 DENSITY ALT 900FT

CYGK;2013-05-08 18:00;CYGK 081800Z 21005KT 15SM SCT040 BKN083 BKN270 23/14 A3005 RMK CU3AC3CI1 SLP176 DENSITY ALT 1100FT

CYGK;2013-05-08 19:00;CYGK 081900Z 18006KT 15SM FEW030 BKN065 BKN090 BKN200 21/14 A3003 RMK CU1SC4AC2CI1 CI TR SH DIST S SLP171 DENSITY ALT 900FT

CYGK;2013-05-08 19:46;CYGK 081946Z 18010KT 12SM -RA FEW030 BKN058 OVC090 18/13 A3004 RMK CU1SC6AC1 SLP174 DENSITY ALT 500FT

CYGK;2013-05-08 20:00;CYGK 082000Z 18013G18KT 10SM -RA FEW030 BKN058 OVC090 16/14 A3005 RMK CU1SC6AC1 SLP176

CYGK;2013-05-08 21:00;CYGK 082100Z 29004KT 12SM -RA BKN053 OVC090 18/15 A3003 RMK SC7AC1 SLP170 DENSITY ALT 500FT

CYGK;2013-05-08 22:00;CYGK 082200Z 34004KT 15SM -RA BKN052 OVC090 18/16 A3001 RMK SC6AC2 SLP163 DENSITY ALT 600FT

CYGK;2013-05-08 22:35;CYGK 082235Z 01003KT 15SM BKN052 OVC098 18/16 A3000 RMK SC5AC3 SLP161 DENSITY ALT 600FT

CYGK;2013-05-08 23:00;CYGK 082300Z 36005KT 15SM -RA SCT050 OVC083 18/16 A3000 RMK SC4AC4 SLP158 DENSITY ALT 600FT

CYGK;2013-05-08 23:25;CYGK 082325Z 01004KT 15SM SCT050 BKN083 OVC110 18/16 A2999 RMK SC3AC4AC1 SLP157 DENSITY ALT 600FT

CYGK;2013-05-09 00:00;CYGK 090000Z 01004KT 15SM FEW050 BKN081 OVC110 17/16 A2999 RMK SC2AC5AC1 SLP156 DENSITY ALT 500FT

CYGK;2013-05-09 01:00;CYGK 090100Z 03006KT 15SM SCT064 BKN080 OVC110 17/15 A2998 RMK SC3AC3AC2 SLP153 DENSITY ALT 500FT

CYGK;2013-05-09 02:00;CYGK 090200Z 04007KT 15SM SCT058 BKN100 OVC150 17/15 A2998 RMK SC3AC4AC1 SLP151 DENSITY ALT 500FT

CYGK;2013-05-09 02:15;CYGK 090215Z 04006KT 15SM -RA SCT057 OVC098 17/15 A2998 RMK SC4AC4 SLP151 DENSITY ALT 500FT

CYGK;2013-05-09 02:37;CYGK 090237Z 03005KT 15SM SCT062 OVC098 17/15 A2997 RMK SC4AC4 SLP149 DENSITY ALT 500FT

CYGK;2013-05-09 03:00;CYGK 090300Z 04005KT 15SM FEW049 SCT062 OVC098 17/15 A2997 RMK SC2SC2AC4 LAST OBS/NEXT 091000 UTC SLP149 DENSITY ALT 500FT

CYGK;2013-05-09 10:00;CYGK 091000Z 16005KT 15SM FEW003 SCT055 BKN100 13/13 A2991 RMK SF2SC1AC2 TCU TOPS DIST SW SLP129

CYGK;2013-05-09 10:29;CYGK 091029Z 18006KT 15SM BKN003 BKN055 14/13 A2992 RMK SF5SC1 VIS LWR S SLP133

CYGK;2013-05-09 11:02;CYGK 091102Z 17004KT 2SM BR PRFG OVC002 13/13 A2993 RMK FG2SF6 VIS SE 6 VIS SW 1/2 SLP135

CYGK;2013-05-09 11:04;CYGK 091104Z 17004KT 1/2SM FG OVC002 13/13 A2993 RMK FG4SF4 VIS SE 6 SLP135

CYGK;2013-05-09 11:25;CYGK 091125Z 18004KT 1SM BR BKN002 13/13 A2993 RMK FG2SF5 SLP135

CYGK;2013-05-09 12:00;CYGK 091200Z 16004KT 3SM BR BKN002 BKN015 BKN055 14/13 A2993 RMK SF5CF1SC1 VIS E 6 VIS S-SW 1 SLP136

CYGK;2013-05-09 12:05;CYGK 091205Z 17004KT 4SM BR SCT002 SCT015 BKN055 14/13 A2993 RMK SF4CF1SC2 CF TR VIS S-W 1 SLP136

CYGK;2013-05-09 13:00;CYGK 091300Z 17004KT 15SM FEW002 FEW015 FEW100 SCT200 14/13 A2994 RMK SF1CU1AC1CI2 SF TR VIS S 6 SLP138

CYGK;2013-05-09 14:00;CYGK 091400Z 20005KT 15SM FEW002 FEW015 FEW100 BKN220 14/13 A2994 RMK SF1CU1AC1CI3 SF TR SLP139

CYGK;2013-05-09 15:00;CYGK 091500Z 19008KT 15SM FEW012 FEW058 BKN220 16/13 A2994 RMK CU1SC1CI5 SC TR TCU ASOCTD SLP140 DENSITY ALT 400FT

CYGK;2013-05-09 16:00;CYGK 091600Z 18007KT 15SM FEW015 BKN220 16/13 A2994 RMK CU1CI4 TCU ASOCTD CB ANVIL DIST NE SLP138 DENSITY ALT 400FT

CYGK;2013-05-09 17:00;CYGK 091700Z 18008KT 15SM FEW020TCU FEW060 BKN210 17/13 A2993 RMK TCU1SC1CI5 SC TR CB TOPS DIST NW-NE SLP134 DENSITY ALT 600FT

CYGK;2013-05-09 18:00;CYGK 091800Z 17008KT 15SM FEW020TCU BKN210 18/13 A2991 RMK TCU2CI5 CB TOPS S AND NW - NE SLP130 DENSITY ALT 700FT

CYGK;2013-05-09 19:00;CYGK 091900Z 20009KT 15SM FEW025 FEW090 BKN200 18/13 A2991 RMK CU1AC1CI5 AC TR TCU ASOCTD CB TOPS NW-N SLP127 DENSITY ALT 700FT

CYGK;2013-05-09 20:00;CYGK 092000Z 18007KT 15SM FEW030 FEW090 BKN210 19/14 A2990 RMK CU1AC1CI4 AC TR TCU ASOCTD CB TOPS NE SLP125 DENSITY ALT 800FT

CYGK;2013-05-09 21:00;CYGK 092100Z 21005KT 15SM FEW030 FEW070 BKN220 19/14 A2990 RMK CU1AC1CI3 SLP125 DENSITY ALT 900FT

CYGK;2013-05-09 22:00;CYGK 092200Z 23009KT 15SM FEW030 FEW062 SCT140 BKN220 18/14 A2989 RMK CU1SC2AC2CI2 CU TR SLP122 DENSITY ALT 700FT

CYGK;2013-05-09 23:00;CYGK 092300Z 23005KT 15SM FEW030 FEW060 SCT110 BKN220 18/15 A2989 RMK CU1SC1AC2CI2 CU TR SLP121 DENSITY ALT 700FT

CYGK;2013-05-10 00:00;CYGK 100000Z 24006KT 15SM FEW030 SCT110 BKN220 17/15 A2990 RMK CU1AC4CI2 CU TR SLP124 DENSITY ALT 600FT

CYGK;2013-05-10 01:00;CYGK 100100Z 22003KT 15SM SCT140 BKN220 17/15 A2991 RMK AC4CI2 SLP131 DENSITY ALT 500FT

CYGK;2013-05-10 02:00;CYGK 100200Z 21005KT 15SM BKN140 14/13 A2994 RMK AC6 SLP138

CYGK;2013-05-10 03:00;CYGK 100300Z 16006KT 15SM SCT140 12/12 A2994 RMK AC3 LAST OBS/NEXT 101000 UTC SLP140

CYGK;2013-05-10 10:00;CYGK 101000Z 08004KT 1/2SM FG BKN270 10/09 A2997 RMK FG2CI3 VIS NE 1/4 S 2 SLP148

CYGK;2013-05-10 10:10;CYGK 101010Z 10002KT 1/4SM FG SCT270 10/10 A2997 RMK FG2CI2 VIS S 3 SLP150

CYGK;2013-05-10 10:16;CYGK 101016Z 00000KT 2SM BR SCT270 10/10 A2997 RMK FG1CI2 VIS N-NE 1/4 SLP151

CYGK;2013-05-10 10:25;CYGK 101025Z 00000KT 5SM BR PRFG FEW002 FEW060 SCT270 10/10 A2998 RMK SF1SC1CI2 SC TR VIS N-NE 1/2 SLP153

CYGK;2013-05-10 11:00;CYGK 101100Z 04004KT 15SM FEW003 FEW060 BKN270 11/10 A2999 RMK SF1SC1CI5 SF TR SC TR SLP155

CYGK;2013-05-10 12:00;CYGK 101200Z 05007KT 15SM FEW004 FEW015 BKN270 13/09 A2999 RMK SF1SC1CI6 SF TR SLP155

CYGK;2013-05-10 13:00;CYGK 101300Z 07013KT 15SM FEW015 BKN270 15/09 A2997 RMK SC1CI7 SC TR SLP150

CYGK;2013-05-10 14:00;CYGK 101400Z 06009KT 15SM FEW020 BKN200 16/10 A2997 RMK SC1CI6 SLP148 DENSITY ALT 400FT

CYGK;2013-05-10 15:00;CYGK 101500Z 12007KT 15SM FEW020 BKN220 16/10 A2996 RMK SC1CS6 SLP146 DENSITY ALT 400FT

CYGK;2013-05-10 16:00;CYGK 101600Z 08009KT 15SM FEW020 FEW090 OVC140 17/12 A2994 RMK SC1AC2AS6 SC TR SLP138 DENSITY ALT 600FT

CYGK;2013-05-10 17:00;CYGK 101700Z 07004KT 15SM FEW025 BKN093 OVC200 18/13 A2993 RMK SC1AC5CS2 SLP136 DENSITY ALT 700FT

CYGK;2013-05-10 17:14;CYGK 101714Z 08006KT 15SM -RA FEW035 BKN085 OVC120 18/13 A2993 RMK SC1AC6AS1 SLP135 DENSITY ALT 700FT

CYGK;2013-05-10 18:00;CYGK 101800Z 07005KT 12SM -RA BKN035 OVC082 18/14 A2991 RMK SC5AC3 SLP129 DENSITY ALT 700FT

CYGK;2013-05-10 19:00;CYGK 101900Z 08008KT 12SM -RA FEW025 SCT040 OVC090 17/15 A2987 RMK CF1SC3AC5 CF TR VIS LWR S PRESFR SLP116 DENSITY ALT 700FT

CYGK;2013-05-10 19:20;CYGK 101920Z 10010KT 15SM FEW025 FEW040 OVC075 17/14 A2986 RMK CF1SC2AC6 CF TR SLP113 DENSITY ALT 700FT

CYGK;2013-05-10 19:51;CYGK 101951Z 08004KT 10SM -RA FEW020 OVC055 17/14 A2986 RMK CF1SC7 SLP113 DENSITY ALT 600FT

CYGK;2013-05-10 20:00;CYGK 102000Z 10004KT 4SM -RA BR FEW020 BKN053 OVC075 17/14 A2986 RMK CF1SC6AC1 SLP114 DENSITY ALT 600FT

CYGK;2013-05-10 21:00;CYGK 102100Z 06007KT 15SM FEW025 BKN061 OVC080 17/15 A2983 RMK CF1SC5AC2 SLP102 DENSITY ALT 700FT

CYGK;2013-05-10 22:00;CYGK 102200Z 07012KT 15SM BKN050 OVC080 17/15 A2979 RMK SC6AC2 SLP088 DENSITY ALT 700FT

CYGK;2013-05-10 23:00;CYGK 102300Z 07007KT 15SM FEW020 BKN062 OVC100 17/15 A2976 RMK CF1SC6AC2 CF TR SLP077 DENSITY ALT 700FT

CYGK;2013-05-10 23:30;CYGK 102330Z 10010G21KT 15SM TS FEW020 SCT030CB BKN060 OVC100 17/14 A2976 RMK CF1CB3SC3AC2 CF TR LTGCG SLP077 DENSITY ALT 800FT

CYGK;2013-05-10 23:37;CYGK 102337Z 10008G15KT 12SM -TSRA FEW020 SCT030CB BKN060 OVC100 17/14 A2976 RMK CF1CB3SC3AC2 CF TR LTGCG SLP077 DENSITY ALT 700FT

CYGK;2013-05-11 00:00;CYGK 110000Z 07002KT 12SM -TSRA BKN030CB OVC060 16/14 A2977 RMK CB5SC3 LTGCGIC VIS NE-SE 4 SLP082 DENSITY ALT 600FT

CYGK;2013-05-11 00:20;CYGK 110020Z 14006KT 12SM SCT038CB BKN100 OVC240 16/14 A2976 RMK CB3AC3CI2 RETS LTGIC DIST SE PRESFR SLP077 DENSITY ALT 600FT

CYGK;2013-05-11 01:00;CYGK 110100Z 19003KT 15SM FEW032 BKN049 OVC100 15/14 A2975 RMK CU1SC5AC2 RETS SLP076 DENSITY ALT 600FT

CYGK;2013-05-11 01:04;CYGK 110104Z 19008KT 8SM -RA FEW024 BKN042 OVC100 16/14 A2975 RMK CU1SC6AC1 SLP076 DENSITY ALT 600FT

CYGK;2013-05-11 01:36;CYGK 110136Z 24005KT 15SM FEW026 OVC077 14/13 A2975 RMK SC2AC6 SLP075 DENSITY ALT 400FT

CYGK;2013-05-11 02:00;CYGK 110200Z 20004KT 15SM -RA FEW027 BKN038 OVC080 13/12 A2974 RMK SC1SC5AC2 CB EMBD LTGIC W SLP072

CYGK;2013-05-11 02:28;CYGK 110228Z 25007KT 15SM FEW009 OVC040 14/13 A2976 RMK SF2SC6 SLP079 DENSITY ALT 400FT

CYGK;2013-05-11 03:00;CYGK 110300Z 21010G18KT 15SM BKN011 OVC026 15/13 A2975 RMK SC5SC3 LAST OBS/NEXT 111000 UTC SLP074 DENSITY ALT 500FT

CYGK;2013-05-11 10:00;CYGK 111000Z 20009KT 5SM -RA BR BKN003 OVC011 13/13 A2963 RMK SF5SC3 SLP035 DENSITY ALT 400FT

CYGK;2013-05-11 10:22;CYGK 111022Z 20009KT 2SM -RA BR BKN003 OVC010 13/13 A2964 RMK SF5SC3 SLP038 DENSITY ALT 400FT

CYGK;2013-05-11 11:00;CYGK 111100Z 21010KT 3SM -RA BR BKN003 OVC009 13/13 A2964 RMK SF5SC3 VIS SE 11/2 SLP038 DENSITY ALT 500FT

CYGK;2013-05-11 11:24;CYGK 111124Z 21010KT 2SM BR SCT003 OVC007 14/13 A2965 RMK SF3SC5 VIS HIER NW SLP040 DENSITY ALT 500FT

CYGK;2013-05-11 11:39;CYGK 111139Z 23019KT 3SM BR SCT003 OVC011 13/13 A2965 RMK SF3SC5 VIS SE 1 FROPA SLP041 DENSITY ALT 400FT

CYGK;2013-05-11 12:00;CYGK 111200Z 24017G26KT 6SM BR FEW003 SCT011 OVC020 13/12 A2965 RMK SF1SC4SC4 SF TR SLP042 DENSITY ALT 400FT

CYGK;2013-05-11 12:10;CYGK 111210Z 23017G27KT 8SM BKN012 OVC020 13/11 A2965 RMK SC6SC2 SLP041 DENSITY ALT 400FT

CYGK;2013-05-11 13:00;CYGK 111300Z 22014G25KT 8SM FEW008 BKN012 OVC020 11/10 A2966 RMK SF2SC5SC1 SLP044

CYGK;2013-05-11 13:06;CYGK 111306Z 23014G19KT 8SM BKN008 OVC012 11/10 A2966 RMK SF6SC2 SLP044

CYGK;2013-05-11 13:20;CYGK 111320Z 23013G19KT 8SM OVC005 11/10 A2966 RMK SF8 SLP045

CYGK;2013-05-11 13:36;CYGK 111336Z 27010G15KT 8SM OVC008 11/10 A2966 RMK SF8 WSHFT 1320 SLP046

CYGK;2013-05-11 14:00;CYGK 111400Z 26010G16KT 15SM BKN009 OVC014 11/09 A2967 RMK SF5SC3 SLP048

CYGK;2013-05-11 14:10;CYGK 111410Z 27011G19KT 15SM FEW009 BKN015 OVC027 11/09 A2967 RMK SF1SC6SC1 SLP048

CYGK;2013-05-11 15:00;CYGK 111500Z 25010G18KT 15SM FEW010 BKN016 OVC027 11/08 A2969 RMK CF1SC7SC1 CF TR SLP056

CYGK;2013-05-11 16:00;CYGK 111600Z 24012KT 15SM OVC015 12/09 A2970 RMK SC8 SLP058

CYGK;2013-05-11 17:00;CYGK 111700Z 24013KT 15SM FEW012 OVC017 12/09 A2971 RMK CF1SC7 SLP060

CYGK;2013-05-11 18:00;CYGK 111800Z 24010G16KT 15SM FEW012 OVC018 11/09 A2971 RMK CF1SC8 CF TR SLP063

CYGK;2013-05-11 19:00;CYGK 111900Z 24007KT 15SM OVC019 12/09 A2972 RMK SC8 SLP066

CYGK;2013-05-11 20:00;CYGK 112000Z 20011KT 15SM OVC020 12/09 A2972 RMK SC8 SLP063

CYGK;2013-05-11 21:00;CYGK 112100Z 19013KT 15SM FEW020 BKN030 BKN060 11/09 A2971 RMK CU2SC4SC1 SLP062

CYGK;2013-05-11 22:00;CYGK 112200Z 22010G16KT 15SM BKN020 BKN028 12/09 A2972 RMK SC6SC1 SLP063

CYGK;2013-05-11 23:00;CYGK 112300Z 24013KT 15SM FEW020 SCT055 12/08 A2972 RMK SC2SC1 SLP064

CYGK;2013-05-12 00:00;CYGK 120000Z 25008KT 15SM FEW020 FEW055 11/08 A2973 RMK SC1SC1 SC TR SLP068

CYGK;2013-05-12 01:00;CYGK 120100Z 25011KT 15SM BKN055 11/08 A2973 RMK SC7 SLP068

CYGK;2013-05-12 02:00;CYGK 120200Z 23011KT 15SM BKN058 11/09 A2974 RMK SC7 SLP072

CYGK;2013-05-12 03:00;CYGK 120300Z 25012G18KT 15SM OVC056 10/08 A2973 RMK SC8 LAST OBS/NEXT 121000 UTC SLP069

CYGK;2013-05-12 10:00;CYGK 121000Z 27014G24KT 15SM FEW007 FEW015 BKN075 06/04 A2966 RMK SF1SC1AC5 SLP047

CYGK;2013-05-12 10:22;CYGK 121022Z 26018G23KT 15SM FEW007 BKN017 BKN075 05/03 A2969 RMK SF1SC5AC1 SF TR SLP054

CYGK;2013-05-12 11:00;CYGK 121100Z 28013G23KT 15SM BKN019 BKN095 05/02 A2971 RMK SC5AC2 SLP063

CYGK;2013-05-12 12:00;CYGK 121200Z 26017KT 15SM FEW020 SCT110 SCT250 06/01 A2974 RMK SC2AC2CI1 CI TR SLP071

CYGK;2013-05-12 13:00;CYGK 121300Z 24016G22KT 15SM SCT030 SCT250 07/00 A2974 RMK CU3CI1 SLP071

CYGK;2013-05-12 14:00;CYGK 121400Z 23019G25KT 15SM SCT025 SCT100 08/02 A2973 RMK CU4AC1 AC TR SLP070

CYGK;2013-05-12 15:00;CYGK 121500Z 24017G24KT 15SM SCT032 09/02 A2973 RMK CU4 SLP069

CYGK;2013-05-12 16:00;CYGK 121600Z 24020G32KT 15SM BKN040 BKN070 08/01 A2972 RMK CU5AC1 SLP066

CYGK;2013-05-12 17:00;CYGK 121700Z 21020G29KT 15SM SCT035 SCT082 10/02 A2971 RMK CU3AC1 SLP061

CYGK;2013-05-12 18:00;CYGK 121800Z 24025G36KT 15SM SCT035 SCT080 10/M01 A2972 RMK CU3AC1 SLP064

CYGK;2013-05-12 19:00;CYGK 121900Z 24025G38KT 15SM VCSH FEW025 BKN042 BKN080 09/00 A2972 RMK CF1CU4AC1 SLP065

CYGK;2013-05-12 19:13;CYGK 121913Z 24024G36KT 15SM -SHRA BKN040TCU BKN080 09/01 A2972 RMK TCU5AC1 SLP066

CYGK;2013-05-12 19:54;CYGK 121954Z 23023G32KT 15SM VCSH FEW030 BKN040 BKN080 09/01 A2972 RMK CF1CU4AC2 SLP066

CYGK;2013-05-12 20:00;CYGK 122000Z 23023G36KT 15SM VCSH FEW030 BKN040 BKN080 09/02 A2972 RMK CF1CU4AC2 SLP066

CYGK;2013-05-12 21:00;CYGK 122100Z 24018G29KT 15SM BKN035TCU BKN080 08/01 A2973 RMK TCU6AC1 SLP070

CYGK;2013-05-12 22:00;CYGK 122200Z 23022G29KT 15SM VCSH FEW035 SCT080 SCT250 08/01 A2973 RMK CU2AC1CI1 CI TR SLP071

CYGK;2013-05-12 23:00;CYGK 122300Z 27014G30KT 15SM VCSH FEW025 BKN030TCU BKN080 05/00 A2976 RMK CF1TCU7AC1 CF TR AC TR SLP080

CYGK;2013-05-12 23:05;CYGK 122305Z 27017G24KT 15SM -SHPL SCT030TCU SCT080 BKN250 05/01 A2976 RMK TCU3AC1CI3 SLP081

CYGK;2013-05-12 23:33;CYGK 122333Z 27016G30KT 6SM -SHRAPL OVC020TCU 02/00 A2978 RMK TCU8 PRESRR SLP089

CYGK;2013-05-12 23:40;CYGK 122340Z 26015G22KT 15SM -SHRA SCT015TCU BKN065 OVC250 02/01 A2978 RMK TCU3SC3CI2 SLP087

CYGK;2013-05-13 00:00;CYGK 130000Z 26012G18KT 15SM -SHRA FEW015 BKN065 BKN250 03/01 A2978 RMK CU1SC5CI1 SLP089

CYGK;2013-05-13 00:38;CYGK 130038Z 27013G18KT 15SM -SHRA BKN013 OVC060 02/01 A2979 RMK CU6SC2 SLP091

CYGK;2013-05-13 01:00;CYGK 130100Z 25013G19KT 15SM FEW013 SCT060 BKN090 OVC250 04/01 A2978 RMK CU1SC2AC4CI1 SLP086

CYGK;2013-05-13 02:00;CYGK 130200Z 26014KT 15SM FEW025 BKN060 03/M01 A2980 RMK SC2SC3 SLP092

CYGK;2013-05-13 03:00;CYGK 130300Z 27014G22KT 15SM FEW030 SCT090 BKN130 03/M02 A2981 RMK SC2AC1AC4 LAST OBS/NEXT 131000 UTC SLP096

CYGK;2013-05-13 10:00;CYGK 131000Z 25015G21KT 15SM FEW015 BKN040 03/00 A2988 RMK CU2SC5 SLP121

CYGK;2013-05-13 11:00;CYGK 131100Z 26012G19KT 15SM FEW015 BKN036 04/00 A2989 RMK CF1SC6 SLP125

CYGK;2013-05-13 12:00;CYGK 131200Z 26014G22KT 15SM FEW020 FEW035 05/M01 A2991 RMK CF1SC1 SLP131

CYGK;2013-05-13 13:00;CYGK 131300Z 27015G22KT 15SM BKN030 BKN250 05/M02 A2993 RMK CU6CI1 SLP137

CYGK;2013-05-13 14:00;CYGK 131400Z 27016G25KT 15SM BKN036 06/M02 A2994 RMK CU7 SLP140

CYGK;2013-05-13 15:00;CYGK 131500Z 27011G20KT 15SM BKN040 07/M01 A2995 RMK CU7 SLP145

CYGK;2013-05-13 16:00;CYGK 131600Z 25016G24KT 15SM BKN040 07/M01 A2996 RMK CU7 SLP149

CYGK;2013-05-13 17:00;CYGK 131700Z 24019G27KT 15SM VCSH FEW035 BKN050 09/03 A2997 RMK CF1CU6 SLP152

CYGK;2013-05-13 17:27;CYGK 131727Z 24021G29KT 15SM -SHRA BKN040 BKN100 08/01 A2998 RMK CU7AC1 AC TR SLP154

CYGK;2013-05-13 18:00;CYGK 131800Z 24019G29KT 15SM BKN039 BKN120 08/02 A2999 RMK CU6AC1 SLP157

CYGK;2013-05-13 18:28;CYGK 131828Z 24019G30KT 15SM VCSH BKN040 BKN120 08/00 A2999 RMK CU5AC1 SLP158

CYGK;2013-05-13 19:00;CYGK 131900Z 23019G27KT 15SM VCSH FEW025 SCT040 BKN080 10/02 A2999 RMK CF1CU3AC2 SLP159

CYGK;2013-05-13 19:16;CYGK 131916Z 24017G27KT 15SM -SHRA BKN040 BKN080 09/02 A2999 RMK CU6AC1 SLP159

CYGK;2013-05-13 20:00;CYGK 132000Z 23019G27KT 15SM -SHRA SCT040 BKN080 10/02 A2999 RMK CU4AC1 SLP158

CYGK;2013-05-13 21:00;CYGK 132100Z 23020G26KT 15SM VCSH SCT040 SCT080 10/01 A2999 RMK CU3AC1 SLP159

CYGK;2013-05-13 22:00;CYGK 132200Z 24017G25KT 15SM VCSH FEW040 BKN085 09/00 A3000 RMK CU2AC4 SLP161

CYGK;2013-05-13 23:00;CYGK 132300Z 23017G25KT 15SM VCSH FEW040 BKN080 08/00 A3001 RMK CU1AC6 CU TR SLP165

CYGK;2013-05-14 00:00;CYGK 140000Z 23012G21KT 15SM FEW080 08/01 A3003 RMK AC2 SLP170

CYGK;2013-05-14 01:00;CYGK 140100Z 25012G19KT 15SM FEW080 08/01 A3004 RMK AC1 SLP174

CYGK;2013-05-14 02:00;CYGK 140200Z 26009KT 15SM FEW080 07/M02 A3007 RMK AC1 AC TR SLP184

CYGK;2013-05-14 03:00;CYGK 140300Z 27009KT 15SM SKC 05/M04 A3008 RMK LAST OBS/NEXT 141000 UTC SLP187

CYGK;2013-05-14 10:00;CYGK 141000Z 28006KT 15SM FEW080 FEW200 00/M03 A3011 RMK AC1CI1 SLP200

CYGK;2013-05-14 11:00;CYGK 141100Z 26003KT 15SM FEW080 FEW200 03/M02 A3014 RMK AC1CI1 AC TR SLP208

CYGK;2013-05-14 12:00;CYGK 141200Z 29005KT 15SM FEW100 FEW220 04/M01 A3015 RMK AC1CI1 AC TR SLP212

CYGK;2013-05-14 13:00;CYGK 141300Z 00000KT 15SM FEW015 SCT270 07/M01 A3014 RMK CF1CI4 CF TR SLP209

CYGK;2013-05-14 14:00;CYGK 141400Z VRB02KT 15SM FEW030 FEW170 BKN220 08/00 A3013 RMK CF1AC1CI6 CF TR SLP205

CYGK;2013-05-14 15:00;CYGK 141500Z 20005KT 15SM FEW025 SCT170 BKN270 08/00 A3013 RMK CF1AC3CI3 SLP206

CYGK;2013-05-14 16:00;CYGK 141600Z 19011KT 15SM FEW030 BKN150 BKN200 09/01 A3013 RMK CU1AS4CS2 SLP207

CYGK;2013-05-14 17:00;CYGK 141700Z 19013KT 15SM FEW025 BKN130 BKN220 09/03 A3011 RMK CU1AS4CS2 SLP198

CYGK;2013-05-14 18:00;CYGK 141800Z 19016KT 15SM FEW036 FEW130 SCT220 10/01 A3011 RMK CU1AS1CS2 SLP200

CYGK;2013-05-14 19:00;CYGK 141900Z 18014KT 15SM FEW028 FEW130 BKN220 09/02 A3010 RMK CU1AC1CI3 SLP195

CYGK;2013-05-14 20:00;CYGK 142000Z 19016KT 15SM FEW030 FEW130 BKN220 09/01 A3007 RMK CU1AS1CS6 CU TR AS TR SLP186

CYGK;2013-05-14 21:00;CYGK 142100Z 17011KT 15SM FEW030 FEW220 09/02 A3006 RMK CF1CS1 CF TR SLP182

CYGK;2013-05-14 22:00;CYGK 142200Z 17010KT 15SM FEW100 09/02 A3004 RMK AC1 SLP177

CYGK;2013-05-14 23:00;CYGK 142300Z 17008KT 15SM FEW100 09/02 A3003 RMK AC1 SLP171

CYGK;2013-05-15 00:00;CYGK 150000Z 15008KT 15SM FEW100 08/01 A3003 RMK AC1 SLP171

CYGK;2013-05-15 01:00;CYGK 150100Z 13006KT 15SM FEW100 FEW250 07/02 A3003 RMK AC1CI1 AC TR CI TR SLP170

CYGK;2013-05-15 02:00;CYGK 150200Z 16005KT 15SM FEW100 07/03 A3003 RMK AC1 AC TR SLP171

CYGK;2013-05-15 03:00;CYGK 150300Z 15007KT 15SM SKC 08/02 A3002 RMK LAST OBS/NEXT 151000 OTC SLP167

CYGK;2013-05-15 10:00;CYGK 151000Z 10008KT 15SM BKN068 BKN180 08/01 A2987 RMK AC5AC2 PRESFR SLP116

CYGK;2013-05-15 11:00;CYGK 151100Z 10005KT 15SM SCT062 BKN085 BKN160 OVC240 08/01 A2984 RMK SC3AC2AC2CI1 SLP108

CYGK;2013-05-15 11:44;CYGK 151144Z 07005KT 12SM -SHRA BKN062 BKN070 OVC220 08/02 A2983 RMK SC5AC2CI1 SLP104

CYGK;2013-05-15 12:00;CYGK 151200Z 09004KT 10SM -SHRA BKN050 OVC070 07/03 A2983 RMK SC5AC3 SLP102

CYGK;2013-05-15 12:28;CYGK 151228Z 11004KT 15SM SCT062 OVC120 08/03 A2982 RMK SC3AC5 SLP100

CYGK;2013-05-15 12:45;CYGK 151245Z 13007KT 15SM -RA SCT060 BKN110 OVC150 09/04 A2979 RMK SC3AC3AC2 PRESFR SLP089

CYGK;2013-05-15 13:00;CYGK 151300Z 13007KT 15SM -RA FEW060 BKN110 OVC140 09/04 A2980 RMK SC2AC5AC1 SLP092

CYGK;2013-05-15 13:16;CYGK 151316Z 13010KT 15SM VCSH FEW060 BKN110 BKN150 10/05 A2976 RMK SC2AC4AC1 PRESFR SLP078

CYGK;2013-05-15 14:00;CYGK 151400Z 14015G22KT 15SM VCSH FEW060 BKN100 BKN140 11/05 A2972 RMK SC1AC5AC1 ACC ASOCTD PRESFR SLP066

CYGK;2013-05-15 15:00;CYGK 151500Z 16016G21KT 15SM VCSH BKN093 OVC140 11/05 A2970 RMK AC6AC2 SH S-SW SLP059

CYGK;2013-05-15 15:15;CYGK 151515Z 16016KT 15SM -SHRA BKN085 OVC140 11/06 A2969 RMK AC6AC2 ACC EMBD SLP054

CYGK;2013-05-15 16:00;CYGK 151600Z 15015KT 15SM OVC076 10/07 A2965 RMK AC8 OCNL -SHRA PRESFR SLP043

CYGK;2013-05-15 17:00;CYGK 151700Z 16010G16KT 15SM OVC070 11/08 A2960 RMK AC8 SLP025

CYGK;2013-05-15 18:00;CYGK 151800Z 15007KT 15SM OVC045 10/08 A2957 RMK SC8 SLP016

CYGK;2013-05-15 19:00;CYGK 151900Z 19002KT 15SM BKN043 OVC070 11/08 A2956 RMK SC7AC1 SLP011

CYGK;2013-05-15 20:00;CYGK 152000Z 20007KT 15SM BKN045 13/09 A2954 RMK SC6 SLP004 DENSITY ALT 500FT

CYGK;2013-05-15 21:00;CYGK 152100Z 17006KT 15SM FEW030 SCT210 14/09 A2954 RMK CU1CI3 CU TR SLP003 DENSITY ALT 600FT

CYGK;2013-05-15 22:00;CYGK 152200Z 15006KT 15SM FEW020 13/10 A2954 RMK CF1 CF TR SLP004 DENSITY ALT 500FT

CYGK;2013-05-15 22:38;CYGK 152238Z 27015G21KT 190V270 15SM FEW240 19/11 A2954 RMK CI1 CI TR WSHFT 2231 SLP003 DENSITY ALT 1200FT

CYGK;2013-05-15 23:00;CYGK 152300Z 25012G24KT 15SM FEW240 20/10 A2956 RMK CI1 PRESRR SLP009 DENSITY ALT 1300FT

CYGK;2013-05-16 00:00;CYGK 160000Z 26015G23KT 15SM FEW240 19/08 A2960 RMK CI2 SLP023 DENSITY ALT 1100FT

CYGK;2013-05-16 01:00;CYGK 160100Z 27013G20KT 15SM FEW250 16/07 A2963 RMK CI1 SLP035 DENSITY ALT 800FT

CYGK;2013-05-16 02:00;CYGK 160200Z 26007KT 15SM SKC 14/06 A2966 RMK SLP044 DENSITY ALT 500FT

CYGK;2013-05-16 03:00;CYGK 160300Z 21006KT 15SM SKC 11/07 A2966 RMK LAST OBS/NEXT 161000 UTC SLP047

CYGK;2013-05-16 10:00;CYGK 161000Z 24007KT 15SM FEW120 11/06 A2969 RMK AC1 AC TR SLP056

CYGK;2013-05-16 11:00;CYGK 161100Z 24013KT 15SM FEW120 12/06 A2971 RMK AC1 AC TR SLP063

CYGK;2013-05-16 12:00;CYGK 161200Z 23012KT 15SM FEW120 13/07 A2972 RMK AC1 AC TR SLP066

CYGK;2013-05-16 13:00;CYGK 161300Z 24012KT 15SM FEW093 15/07 A2973 RMK AC2 SLP067 DENSITY ALT 600FT

CYGK;2013-05-16 14:00;CYGK 161400Z 23011G18KT 15SM FEW095 17/08 A2972 RMK AC1 SLP065 DENSITY ALT 800FT

CYGK;2013-05-16 15:00;CYGK 161500Z 24013G21KT 15SM FEW040 FEW095 19/06 A2972 RMK CU1AC1 CU TR SLP064 DENSITY ALT 1000FT

CYGK;2013-05-16 16:00;CYGK 161600Z 25018G29KT 15SM FEW040 FEW095 20/04 A2971 RMK CU1AC1 CU TR AC TR SLP062 DENSITY ALT 1200FT

CYGK;2013-05-16 17:00;CYGK 161700Z 25015G23KT 15SM FEW050 20/07 A2970 RMK CU1 SLP058 DENSITY ALT 1100FT

CYGK;2013-05-16 18:00;CYGK 161800Z 25013G24KT 15SM FEW060 23/04 A2970 RMK CU1 SLP056 DENSITY ALT 1500FT

CYGK;2013-05-16 19:00;CYGK 161900Z 27014G27KT 15SM FEW060 22/04 A2971 RMK CU1 SLP061 DENSITY ALT 1400FT

CYGK;2013-05-16 20:00;CYGK 162000Z 25018G24KT 15SM FEW085 22/05 A2972 RMK AC2 SLP065 DENSITY ALT 1300FT

CYGK;2013-05-16 21:00;CYGK 162100Z 26014G19KT 15SM SCT075 20/05 A2974 RMK AC4 SLP073 DENSITY ALT 1100FT

CYGK;2013-05-16 21:34;CYGK 162134Z 29013G20KT 15SM BKN070 20/06 A2976 RMK AC6 WSHFT 2058 SLP078 DENSITY ALT 1100FT

CYGK;2013-05-16 22:00;CYGK 162200Z 34014KT 15SM BKN070 19/06 A2978 RMK AC6 SLP085 DENSITY ALT 1000FT

CYGK;2013-05-16 23:00;CYGK 162300Z 01015G21KT 15SM BKN070 BKN250 17/05 A2982 RMK AC6CI1 CI TR SLP099 DENSITY ALT 700FT

CYGK;2013-05-17 00:00;CYGK 170000Z 35013G20KT 15SM SCT070 15/03 A2988 RMK AC3 PRESRR SLP118

CYGK;2013-05-17 01:00;CYGK 170100Z 36010KT 15SM FEW070 12/03 A2992 RMK AC1 PRESRR SLP133

CYGK;2013-05-17 02:00;CYGK 170200Z 01010G16KT 15SM FEW070 11/03 A2996 RMK AC1 AC TR SLP147

CYGK;2013-05-17 03:00;CYGK 170300Z 35009KT 15SM SKC 09/03 A2997 RMK LAST OBS/NEXT 171000 UTC SLP151

CYGK;2013-05-17 10:00;CYGK 171000Z 33006KT 15SM FEW050 BKN250 05/03 A3011 RMK SC1CI5 SC TR SLP197

CYGK;2013-05-17 11:00;CYGK 171100Z 00000KT 15SM FEW050 SCT250 08/05 A3013 RMK SC1CI3 SC TR SLP203

CYGK;2013-05-17 12:00;CYGK 171200Z 30003KT 15SM SCT250 10/06 A3015 RMK CI4 SLP211

CYGK;2013-05-17 13:00;CYGK 171300Z 36004KT 15SM FEW250 13/07 A3016 RMK CI2 SLP215

CYGK;2013-05-17 14:00;CYGK 171400Z VRB02KT 15SM FEW030 SCT250 15/06 A3017 RMK CF1CI3 CF TR SLP216

CYGK;2013-05-17 15:00;CYGK 171500Z 15009KT 15SM FEW040 SCT250 13/08 A3018 RMK CU1CI3 SLP223

CYGK;2013-05-17 16:00;CYGK 171600Z 19013KT 15SM BKN045 BKN250 13/07 A3019 RMK CU5CI2 SLP224

CYGK;2013-05-17 17:00;CYGK 171700Z 19013KT 15SM BKN060 BKN250 13/07 A3019 RMK CU5CI2 SLP224

CYGK;2013-05-17 18:00;CYGK 171800Z 20012KT 15SM FEW080 SCT250 16/08 A3019 RMK CU2CI2 SLP224

CYGK;2013-05-17 19:00;CYGK 171900Z 20013KT 15SM SCT060 SCT250 15/08 A3019 RMK CU3CI1 SLP225

CYGK;2013-05-17 20:00;CYGK 172000Z 19010G16KT 15SM FEW080 FEW250 15/09 A3018 RMK CU1CI1 SLP222

CYGK;2013-05-17 21:00;CYGK 172100Z 20010KT 15SM FEW080 FEW250 16/09 A3017 RMK CU1CI1 SLP220

CYGK;2013-05-17 22:00;CYGK 172200Z 19009KT 15SM FEW080 FEW250 13/08 A3018 RMK CU1CI1 SLP221

CYGK;2013-05-17 23:00;CYGK 172300Z 19008KT 15SM FEW080 SCT250 11/07 A3018 RMK AC1CI3 SLP223

CYGK;2013-05-18 00:00;CYGK 180000Z 21004KT 15SM FEW080 BKN250 12/08 A3019 RMK AC1CI5 SLP224

CYGK;2013-05-18 01:00;CYGK 180100Z 24007KT 15SM FEW080 BKN250 12/05 A3020 RMK AC1CI4 SLP228

CYGK;2013-05-18 02:00;CYGK 180200Z 26004KT 15SM FEW080 FEW250 11/05 A3022 RMK AC1CI1 AC TR SLP236

CYGK;2013-05-18 03:00;CYGK 180300Z 15002KT 15SM FEW250 09/05 A3024 RMK CI1 LAST OBS/NEXT 181000 UTC SLP241

CYGK;2013-05-18 10:00;CYGK 181000Z 33003KT 15SM MIFG BKN250 05/04 A3026 RMK CI7 SLP250

CYGK;2013-05-18 11:00;CYGK 181100Z 00000KT 15SM OVC250 08/07 A3028 RMK CI8 SLP256

CYGK;2013-05-18 12:00;CYGK 181200Z 20003KT 15SM BKN250 10/07 A3030 RMK CI7 SLP263

CYGK;2013-05-18 13:00;CYGK 181300Z 16003KT 15SM BKN250 12/08 A3030 RMK CI7 SLP263

CYGK;2013-05-18 14:00;CYGK 181400Z 15004KT 15SM BKN250 13/09 A3031 RMK CI7 SLP265

CYGK;2013-05-18 15:00;CYGK 181500Z 17004KT 15SM BKN250 16/06 A3030 RMK CI7 SLP262

CYGK;2013-05-18 16:00;CYGK 181600Z 16005KT 15SM FEW030 BKN250 15/07 A3028 RMK CF1CI7 CF TR SLP257

CYGK;2013-05-18 17:00;CYGK 181700Z 17005KT 15SM FEW040 BKN250 17/06 A3027 RMK CU1CI5 SLP251

CYGK;2013-05-18 18:00;CYGK 181800Z 17004KT 15SM FEW045 BKN210 19/04 A3025 RMK CU1CI7 CU TR SLP244 DENSITY ALT 400FT

CYGK;2013-05-18 19:00;CYGK 181900Z VRB02KT 15SM FEW050 BKN250 19/04 A3023 RMK CU1CI7 CU TR SLP237 DENSITY ALT 500FT

CYGK;2013-05-18 20:00;CYGK 182000Z 18003KT 15SM FEW050 BKN210 19/04 A3022 RMK CF1CI7 CF TR SLP233 DENSITY ALT 400FT

CYGK;2013-05-18 21:00;CYGK 182100Z 16004KT 15SM FEW120 BKN200 20/03 A3021 RMK AC1CI7 AC TR SLP231 DENSITY ALT 600FT

CYGK;2013-05-18 22:00;CYGK 182200Z 18004KT 15SM FEW140 BKN200 20/04 A3020 RMK AC1CI7 AC TR SLP226 DENSITY ALT 600FT

CYGK;2013-05-18 23:00;CYGK 182300Z 22002KT 15SM BKN200 19/05 A3019 RMK CI7 SLP224 DENSITY ALT 500FT

CYGK;2013-05-19 00:00;CYGK 190000Z 30002KT 15SM FEW150 BKN220 18/06 A3019 RMK AC1CI6 SLP225

CYGK;2013-05-19 01:00;CYGK 190100Z 00000KT 15SM BKN220 14/04 A3019 RMK CI7 SLP225

CYGK;2013-05-19 02:00;CYGK 190200Z 01002KT 15SM BKN220 14/05 A3020 RMK CI7 SLP226

CYGK;2013-05-19 03:00;CYGK 190300Z 03004KT 15SM OVC240 11/08 A3019 RMK CI8 LAST OBS/NEXT 191000 UTC SLP224

CYGK;2013-05-19 10:00;CYGK 191000Z 11006KT 15SM SCT150 OVC230 13/10 A3018 RMK AC4CI4 SLP221

CYGK;2013-05-19 11:00;CYGK 191100Z 11007KT 15SM BKN160 OVC230 14/10 A3019 RMK AC5CI3 SLP222

CYGK;2013-05-19 12:00;CYGK 191200Z 12008KT 15SM FEW090 BKN150 OVC230 14/10 A3020 RMK AC1AC6CI1 SLP226

CYGK;2013-05-19 13:00;CYGK 191300Z 12007KT 15SM OVC120 15/11 A3020 RMK AC8 SLP227

CYGK;2013-05-19 14:00;CYGK 191400Z 14010KT 15SM OVC110 15/12 A3019 RMK AC8 SLP225

CYGK;2013-05-19 15:00;CYGK 191500Z 14009KT 15SM SCT030 OVC085 15/12 A3019 RMK SC4AC4 SLP224

CYGK;2013-05-19 16:00;CYGK 191600Z 13008KT 15SM BKN023 OVC080 15/12 A3017 RMK SC6AC2 SLP218

CYGK;2013-05-19 17:00;CYGK 191700Z 13007KT 15SM OVC020 16/13 A3015 RMK SC8 SLP212

CYGK;2013-05-19 18:00;CYGK 191800Z 14010KT 15SM OVC022 17/13 A3013 RMK SC8 SLP203

CYGK;2013-05-19 19:00;CYGK 191900Z 13009KT 15SM OVC025 17/13 A3012 RMK SC8 SLP200

CYGK;2013-05-19 20:00;CYGK 192000Z 13009KT 15SM BKN028 OVC160 18/13 A3010 RMK SC7AC1 SLP194 DENSITY ALT 400FT

CYGK;2013-05-19 21:00;CYGK 192100Z 13008KT 15SM BKN029 OVC160 18/13 A3007 RMK SC7AC1 SLP184 DENSITY ALT 500FT

CYGK;2013-05-19 22:00;CYGK 192200Z 13006KT 15SM BKN030 OVC160 18/14 A3007 RMK SC6AC2 SLP183 DENSITY ALT 500FT

CYGK;2013-05-19 23:00;CYGK 192300Z 14008KT 15SM SCT032 BKN160 17/13 A3005 RMK SC3AC2 SLP177 DENSITY ALT 400FT

CYGK;2013-05-20 00:00;CYGK 200000Z 15009KT 15SM SCT036 BKN150 BKN250 16/13 A3004 RMK SC3AC2CI1 SLP174

CYGK;2013-05-20 01:00;CYGK 200100Z 13009KT 15SM SCT038 SCT150 BKN250 16/13 A3004 RMK SC3AC1CI1 SLP173

CYGK;2013-05-20 02:00;CYGK 200200Z 14010KT 15SM SCT038 BKN094 15/13 A3005 RMK SC3AC4 SLP177

CYGK;2013-05-20 03:00;CYGK 200300Z 16007KT 15SM SCT090 BKN250 13/12 A3004 RMK AC3CI2 LAST OBS/NEXT 201000 UTC SLP173

CYGK;2013-05-20 10:00;CYGK 201000Z 21006KT 10SM BKN055 OVC140 13/12 A3002 RMK CU5AC3 TCU ASOCTD SLP167

CYGK;2013-05-20 10:41;CYGK 201041Z 21006KT 10SM FEW004 BKN055 OVC140 13/12 A3002 RMK SF2CU3AC3 SLP167

CYGK;2013-05-20 11:00;CYGK 201100Z 20007KT 8SM FEW003 BKN050 OVC140 13/12 A3003 RMK SF2CU3AC3 SLP171

CYGK;2013-05-20 11:38;CYGK 201138Z 21005KT 6SM -SHRA BR FEW004 BKN050 OVC140 13/13 A3005 RMK SF1CU5AC2 SLP176

CYGK;2013-05-20 12:00;CYGK 201200Z 21006KT 6SM BR FEW005 OVC050 13/13 A3005 RMK SF2CU6 SLP178

CYGK;2013-05-20 12:18;CYGK 201218Z 18006KT 6SM -SHRA BR FEW005 BKN050 OVC090 13/12 A3005 RMK SF2CU4AC2 TCU ASOCTD SLP176

CYGK;2013-05-20 12:33;CYGK 201233Z 19006KT 6SM -SHRA BR SCT002 OVC045 13/12 A3005 RMK SF3CU5 SLP178

CYGK;2013-05-20 12:47;CYGK 201247Z 19007KT 5SM BR BKN001 OVC045 12/12 A3006 RMK SF6SC2 SLP179

CYGK;2013-05-20 13:00;CYGK 201300Z 19006KT 5SM BR BKN001 OVC042 12/12 A3005 RMK SF7SC1 SLP177

CYGK;2013-05-20 14:00;CYGK 201400Z 19006KT 3SM BR BKN002 OVC040 15/14 A3005 RMK SF5SC3 SLP175

CYGK;2013-05-20 15:00;CYGK 201500Z 15005KT 2SM BR BKN002 BKN026 14/13 A3004 RMK SF6CU1 VIS SE-W 1 VIS N 4 SLP172

CYGK;2013-05-20 16:00;CYGK 201600Z 17007KT 4SM BR SCT002 OVC050 14/13 A3003 RMK SF4CU4 VIS APRON SOUTH 1/APRON NORTH 10 LOW CLD IS APRON AND SOUTH SLP171

CYGK;2013-05-20 17:00;CYGK 201700Z 16008KT 10SM FEW015 FEW065 17/14 A3001 RMK CF1SC1 VIS S OVR LK 2 SLP162 DENSITY ALT 400FT

CYGK;2013-05-20 18:00;CYGK 201800Z 16006KT 10SM BKN060 16/14 A3002 RMK CU5 VIS 5 OVR LK 5 BR SLP165 DENSITY ALT 400FT

CYGK;2013-05-20 19:00;CYGK 201900Z 19007KT 15SM BKN055 BKN085 18/15 A3000 RMK CU5AC1 SLP158 DENSITY ALT 600FT

CYGK;2013-05-20 20:00;CYGK 202000Z 18005KT 10SM FEW030 BKN070 18/15 A2999 RMK CF1AC6 CF TR SLP157 DENSITY ALT 600FT

CYGK;2013-05-20 21:00;CYGK 202100Z 20003KT 10SM FEW075 BKN250 19/16 A2997 RMK AC1CI6 SLP151 DENSITY ALT 700FT

CYGK;2013-05-20 22:00;CYGK 202200Z 13003KT 10SM BKN250 19/16 A2994 RMK CI7 SLP141 DENSITY ALT 800FT

CYGK;2013-05-20 23:00;CYGK 202300Z 07008KT 10SM BKN250 23/17 A2993 RMK CI6 SLP136 DENSITY ALT 1200FT

CYGK;2013-05-21 00:00;CYGK 210000Z 08007KT 10SM BKN250 22/17 A2993 RMK CI6 SLP134 DENSITY ALT 1100FT

CYGK;2013-05-21 01:00;CYGK 210100Z 07008KT 8SM BKN250 20/17 A2993 RMK CI6 SLP136 DENSITY ALT 900FT

CYGK;2013-05-21 02:00;CYGK 210200Z 09010KT 8SM BKN250 20/16 A2992 RMK CI6 SLP132 DENSITY ALT 900FT

CYGK;2013-05-21 03:00;CYGK 210300Z 06008KT 8SM FEW070 OVC180 19/16 A2991 RMK AC2AC6 LAST OBS/NEXT 211000 UTC SLP130 DENSITY ALT 800FT

CYGK;2013-05-21 10:00;CYGK 211000Z 25007KT 12SM FEW040 BKN090 BKN250 14/13 A2988 RMK CU2AC3CI2 SLP120

CYGK;2013-05-21 11:00;CYGK 211100Z 33003KT 10SM FEW040 SCT090 BKN250 15/14 A2990 RMK CU2AC2CI2 SLP125

CYGK;2013-05-21 12:00;CYGK 211200Z 28004KT 10SM FEW010 SCT060 BKN090 17/16 A2991 RMK CU1SC3AC2 SLP130 DENSITY ALT 600FT

CYGK;2013-05-21 13:00;CYGK 211300Z 32003KT 12SM FEW010 FEW050 FEW160 BKN250 20/17 A2991 RMK CF1SC1AC1CI4 CF TR SLP128 DENSITY ALT 900FT

CYGK;2013-05-21 14:00;CYGK 211400Z 35005KT 12SM BKN015 OVC050 21/17 A2991 RMK SC5SC3 SLP130 DENSITY ALT 1000FT

CYGK;2013-05-21 15:00;CYGK 211500Z 03007KT 12SM BKN015 OVC042 21/18 A2991 RMK SC6SC2 SLP128 DENSITY ALT 1000FT

CYGK;2013-05-21 16:00;CYGK 211600Z 05010KT 12SM BKN020 OVC055 21/18 A2990 RMK SC5SC3 SLP123 DENSITY ALT 1100FT

CYGK;2013-05-21 17:00;CYGK 211700Z 05008KT 12SM BKN018 OVC042 21/17 A2991 RMK SC6SC2 SLP127 DENSITY ALT 1100FT

CYGK;2013-05-21 18:00;CYGK 211800Z 04013KT 12SM BKN018 OVC078 22/17 A2987 RMK CU5AS3 SLP113 DENSITY ALT 1200FT

CYGK;2013-05-21 19:00;CYGK 211900Z 06012G17KT 12SM FEW020 SCT060 BKN160 OVC250 22/18 A2985 RMK CU2SC2AC2CI2 SLP108 DENSITY ALT 1200FT

CYGK;2013-05-21 20:00;CYGK 212000Z 05011G20KT 15SM FEW020 FEW030 OVC250 21/17 A2983 RMK CU1SC1CI6 SLP102 DENSITY ALT 1100FT

CYGK;2013-05-21 21:00;CYGK 212100Z 05011G18KT 12SM FEW030 BKN120 OVC230 18/15 A2981 RMK SC1AC6CI1 SLP096 DENSITY ALT 800FT

CYGK;2013-05-21 21:09;CYGK 212109Z 33015G27KT 330V060 7SM -TSGR BKN015CB OVC220 18/15 A2986 RMK CB7CS1 VIS N 1 PRESRR SLP112 DENSITY ALT 800FT

CYGK;2013-05-21 21:22;CYGK 212122Z 32008G23KT 1SM +TSRA OVC015CB 17/15 A2989 RMK CB8 PRESRR SLP121 DENSITY ALT 600FT

CYGK;2013-05-21 21:30;CYGK 212130Z 01009KT 320V030 6SM -TSRA BR FEW005 FEW015CB SCT040 OVC120 16/15 A2985 RMK SF1CB2SC1AC5 SF TR PRESFR SLP107 DENSITY ALT 500FT

CYGK;2013-05-21 22:00;CYGK 212200Z 05007KT 10SM FEW005 FEW015TCU BKN080 OVC200 16/15 A2983 RMK SF1TCU2AC3CS3 SF TR SLP102 DENSITY ALT 600FT

CYGK;2013-05-21 23:00;CYGK 212300Z 05011KT 12SM FEW005 FEW025 SCT100 OVC160 17/15 A2982 RMK CF1SC1AC3AS5 CF TR SC TR SLP097 DENSITY ALT 600FT

CYGK;2013-05-22 00:00;CYGK 220000Z 05013KT 15SM FEW005 SCT100 BKN180 OVC250 16/14 A2980 RMK CF1AC4AC1CS3 CF TR SLP090 DENSITY ALT 500FT

CYGK;2013-05-22 01:00;CYGK 220100Z 01010KT 15SM FEW005 BKN045 OVC100 15/14 A2980 RMK CF1SC7AC1 CF TR SLP092 DENSITY ALT 500FT

CYGK;2013-05-22 02:00;CYGK 220200Z 04010G17KT 15SM BKN040 OVC100 15/13 A2978 RMK SC6AC2 SLP083 DENSITY ALT 500FT

CYGK;2013-05-22 02:14;CYGK 220214Z 34009G16KT 8SM -SHRA OVC030 15/13 A2981 RMK SC8 WSHFT 0200 PRESRR SLP095 DENSITY ALT 400FT

CYGK;2013-05-22 02:41;CYGK 220241Z 07004KT 15SM FEW030 OVC100 14/14 A2981 RMK SC2AC6 PRESRR SLP095 DENSITY ALT 400FT

CYGK;2013-05-22 03:00;CYGK 220300Z 07005KT 15SM FEW030 SCT070 OVC100 14/14 A2979 RMK SC1AC3AC4 LAST OBS/NEXT 221000 UTC PRESFR SLP088 DENSITY ALT 400FT

CYGK;2013-05-22 10:00;CYGK 221000Z 07002KT 1/4SM FG VV001 12/12 A2980 RMK FG8 SLP090

CYGK;2013-05-22 10:10;CYGK 221010Z 12002KT 1/8SM FG VV001 13/13 A2980 RMK FG8 SLP090

CYGK;2013-05-22 11:00;CYGK 221100Z 05004KT 1/8SM FG VV000 14/14 A2980 RMK FG8 VIS <1/8 SLP091

CYGK;2013-05-22 12:00;CYGK 221200Z 06004KT 1/4SM FG VV001 15/15 A2980 RMK FG8 SLP093 DENSITY ALT 400FT

CYGK;2013-05-22 12:28;CYGK 221228Z 05004KT 3/8SM FG VV001 15/15 A2980 RMK FG8 SLP092 DENSITY ALT 500FT

CYGK;2013-05-22 12:37;CYGK 221237Z 04004KT 1/2SM FG VV001 15/15 A2980 RMK FG8 SLP093 DENSITY ALT 500FT

CYGK;2013-05-22 12:47;CYGK 221247Z 03004KT 5/8SM BR VV002 15/15 A2980 RMK FG8 SLP093 DENSITY ALT 500FT

CYGK;2013-05-22 13:00;CYGK 221300Z 07003KT 1/2SM FG VV001 15/15 A2981 RMK FG8 SLP094 DENSITY ALT 500FT

CYGK;2013-05-22 13:23;CYGK 221323Z 08003KT 3/4SM BR VV002 16/16 A2981 RMK FG8 VIS SW 1/4 SLP095 DENSITY ALT 500FT

CYGK;2013-05-22 13:37;CYGK 221337Z 07003KT 1SM BR OVC002 16/16 A2981 RMK FG4SF4 VIS S 1/2 SLP095 DENSITY ALT 600FT

CYGK;2013-05-22 14:00;CYGK 221400Z 10005KT 2SM BR OVC003 17/17 A2980 RMK FG2SF6 SLP090 DENSITY ALT 700FT

CYGK;2013-05-22 15:00;CYGK 221500Z 15005KT 4SM BR OVC004 18/18 A2980 RMK SF8 SLP091 DENSITY ALT 900FT

CYGK;2013-05-22 16:00;CYGK 221600Z 16007KT 5SM BR BKN002 BKN070 19/17 A2980 RMK SF6AC1 SLP090 DENSITY ALT 900FT

CYGK;2013-05-22 16:18;CYGK 221618Z 17007KT 5SM BR SCT002 BKN070 BKN230 18/17 A2980 RMK SF4AC1CI2 SLP090 DENSITY ALT 900FT

CYGK;2013-05-22 16:48;CYGK 221648Z 17007KT 2SM BR BKN230 18/17 A2979 RMK FG3CI4 VIS S 1/2 SLP087 DENSITY ALT 800FT

CYGK;2013-05-22 17:00;CYGK 221700Z 16008KT 4SM BR SCT002 OVC230 17/16 A2979 RMK FG3SF1CI4 SLP087 DENSITY ALT 700FT

CYGK;2013-05-22 17:38;CYGK 221738Z 18006KT 6SM BR FEW004 SCT070 BKN220 18/16 A2979 RMK SF2AC2CI3 SLP087 DENSITY ALT 800FT

CYGK;2013-05-22 18:00;CYGK 221800Z 17008KT 10SM FEW006 SCT070 BKN220 18/16 A2978 RMK SF1AC3CI3 SLP085 DENSITY ALT 800FT

CYGK;2013-05-22 19:00;CYGK 221900Z 19004KT 10SM FEW010 SCT110 BKN160 BKN250 20/17 A2976 RMK CF1AC3AC2CI2 CF TR SLP077 DENSITY ALT 1000FT

CYGK;2013-05-22 20:00;CYGK 222000Z 17004KT 15SM FEW090 BKN160 OVC250 19/16 A2974 RMK AC2AC4CI2 SLP073 DENSITY ALT 1000FT

CYGK;2013-05-22 21:00;CYGK 222100Z 20003KT 10SM FEW100 BKN140 BKN250 20/18 A2973 RMK AC2AC4CI1 SLP069 DENSITY ALT 1100FT

CYGK;2013-05-22 22:00;CYGK 222200Z 19003KT 10SM FEW140 FEW250 21/18 A2970 RMK AC1CI1 AC TR CNVCTV TOPS S AND E SLP056 DENSITY ALT 1300FT

CYGK;2013-05-22 23:00;CYGK 222300Z 13004KT 10SM FEW140 FEW250 22/19 A2968 RMK AC1CI1 AC TR CVCTV TOP DSTNT S SLP051 DENSITY ALT 1400FT

CYGK;2013-05-23 00:00;CYGK 230000Z 00000KT 10SM FEW015 FEW140 SCT250 21/19 A2966 RMK CF1AC1CI4 CF TR AC TR CB TOPS NW-SW AND SE SLP042 DENSITY ALT 1400FT

CYGK;2013-05-23 00:44;CYGK 230044Z 14003KT 10SM -SHRA FEW020CB BKN080 BKN250 21/19 A2963 RMK CB1AC4CI2 LTGCG NW LTGCC SW SLP034 DENSITY ALT 1300FT

CYGK;2013-05-23 00:53;CYGK 230053Z 13004KT 10SM -TSRA SCT020CB BKN080 OVC250 21/19 A2963 RMK CB3AC2CI3 LTNG NW-S SLP032 DENSITY ALT 1400FT

CYGK;2013-05-23 01:00;CYGK 230100Z 14004KT 10SM -TSRA SCT020CB SCT080 BKN130 OVC250 21/19 A2963 RMK CB3AC1AC3CI1 LTNG N-W-S SLP033 DENSITY ALT 1300FT

CYGK;2013-05-23 01:30;CYGK 230130Z 22013KT 3SM TSRA OVC018CB 19/17 A2968 RMK CB8 WSHFT 0120 PRESRR SLP052 DENSITY ALT 1000FT

CYGK;2013-05-23 02:00;CYGK 230200Z 28006KT 15SM -TSRA FEW020CB BKN070 OVC120 19/18 A2968 RMK CB1AC4AC3 LTNG NE-SE RERA SLP052 DENSITY ALT 1000FT

CYGK;2013-05-23 02:18;CYGK 230218Z 25004KT 15SM BKN070 OVC140 19/18 A2969 RMK AC5AC3 LTNG E RETS SLP054 DENSITY ALT 1100FT

CYGK;2013-05-23 03:00;CYGK 230300Z 17005KT 15SM SCT060 BKN140 OVC250 17/17 A2968 RETS RMK SC4AC2CI2 LAST OBS/NEXT 231000 UTC SLP052 DENSITY ALT 900FT

CYGK;2013-05-23 10:00;CYGK 231000Z 23006KT 10SM -SHRA OVC100 16/15 A2970 RMK AC8 SLP058 DENSITY ALT 700FT

CYGK;2013-05-23 11:00;CYGK 231100Z 14003KT 140V260 10SM -SHRA BKN100 BKN120 16/15 A2971 RMK AC6AS1 SLP061 DENSITY ALT 700FT

CYGK;2013-05-23 11:47;CYGK 231147Z 15010KT 10SM -SHRA FEW002 BKN040 OVC100 13/12 A2972 RMK SF1SC5AC2 SLP063

CYGK;2013-05-23 12:00;CYGK 231200Z 19009KT 10SM FEW002 BKN040 BKN100 OVC250 14/13 A2971 RMK SF1SC4AC2CI1 SLP062 DENSITY ALT 400FT

CYGK;2013-05-23 12:19;CYGK 231219Z 19007KT 10SM -SHRA FEW002 BKN038 BKN110 OVC250 15/14 A2972 RMK SF1SC5AC1CI1 SLP063 DENSITY ALT 500FT

CYGK;2013-05-23 13:00;CYGK 231300Z 23003KT 5SM -SHRA BR FEW007 BKN028 OVC040 14/14 A2973 RMK SF2SC5SC1 SLP067 DENSITY ALT 400FT

CYGK;2013-05-23 13:13;CYGK 231313Z 23005KT 3SM -SHRA BR BKN006 OVC020 14/14 A2974 RMK SF6SC2 CVCTV CLD ASOCTD SLP070 DENSITY ALT 400FT

CYGK;2013-05-23 13:50;CYGK 231350Z 20003KT 5SM BR BKN005 BKN030 BKN056 15/15 A2973 RMK SF5SC1SC1 SLP068 DENSITY ALT 600FT

CYGK;2013-05-23 14:00;CYGK 231400Z 20004KT 5SM BR SCT005 BKN021 BKN035 BKN055 16/16 A2973 RMK SF4SC1SC1SC1 SLP067 DENSITY ALT 700FT

CYGK;2013-05-23 14:31;CYGK 231431Z 20006KT 10SM FEW005 SCT021 BKN048 18/17 A2973 RMK SF1CU3SC3 SLP068 DENSITY ALT 800FT

CYGK;2013-05-23 15:00;CYGK 231500Z 20010KT 10SM FEW006 SCT019 BKN110 BKN250 19/17 A2973 RMK CF2CU2AC2CI1 SLP068 DENSITY ALT 1000FT

CYGK;2013-05-23 16:00;CYGK 231600Z 19014KT 10SM FEW020 SCT050 BKN100 BKN250 16/14 A2974 RMK CU2SC1AC2CI1 CB TOP DIST S SLP070 DENSITY ALT 600FT

CYGK;2013-05-23 17:00;CYGK 231700Z 21009KT 10SM FEW020 SCT140 BKN270 19/16 A2973 RMK CU2AC1CI3 SLP066 DENSITY ALT 1000FT

CYGK;2013-05-23 18:00;CYGK 231800Z 23014G20KT 12SM FEW020TCU FEW100 SCT140 BKN250 22/16 A2971 RMK TCU1AC1AC1CI3 TCU DIST N SLP061 DENSITY ALT 1300FT

CYGK;2013-05-23 19:00;CYGK 231900Z 23013KT 15SM FEW020TCU SCT090 BKN270 22/16 A2970 RMK TCU1AC3CI1 SLP056 DENSITY ALT 1300FT

CYGK;2013-05-23 20:00;CYGK 232000Z 23014G20KT 10SM FEW020TCU FEW090 BKN150 BKN250 22/16 A2969 RMK TCU1AC1AC3CI1 SLP055 DENSITY ALT 1400FT

CYGK;2013-05-23 21:00;CYGK 232100Z 28010G19KT 10SM FEW015 BKN100 BKN150 OVC250 19/15 A2971 RMK CF1AC5AC1CI1 SLP060 DENSITY ALT 1100FT

CYGK;2013-05-23 22:00;CYGK 232200Z 35018KT 15SM FEW015 SCT030 BKN110 BKN250 15/11 A2974 RMK SC2SC1AC3CI1 SLP071 DENSITY ALT 500FT

CYGK;2013-05-23 22:33;CYGK 232233Z 36016KT 15SM BKN014 BKN030 OVC080 13/10 A2977 RMK SC6SC1AC1 SLP080

CYGK;2013-05-23 23:00;CYGK 232300Z 36017G22KT 15SM FEW014 SCT030 BKN080 OVC250 12/09 A2976 RMK SC2SC2AC2CI2 SLP079

CYGK;2013-05-24 00:00;CYGK 240000Z 35015KT 15SM FEW013 BKN024 OVC110 10/08 A2980 RMK SC2SC5AC1 SLP094

CYGK;2013-05-24 00:06;CYGK 240006Z 35017KT 15SM BKN012 OVC024 10/08 A2981 RMK SC5SC3 SLP095

CYGK;2013-05-24 01:00;CYGK 240100Z 36015G26KT 15SM BKN015 OVC022 09/06 A2983 RMK SC5SC3 SLP103

CYGK;2013-05-24 01:33;CYGK 240133Z 36014G20KT 10SM -SHRA BKN016 OVC023 08/06 A2985 RMK SC6SC2 SLP109

CYGK;2013-05-24 02:00;CYGK 240200Z 36016G21KT 12SM -SHRA BKN014 OVC023 08/06 A2985 RMK SC6SC2 SLP110

CYGK;2013-05-24 02:21;CYGK 240221Z 36014G21KT 15SM BKN015 OVC022 08/06 A2986 RMK SC6SC2 SLP111

CYGK;2013-05-24 02:52;CYGK 240252Z 36012G19KT 12SM -SHRA BKN015 OVC020 07/05 A2985 RMK SC7SC1 SLP110

CYGK;2013-05-24 03:00;CYGK 240300Z 01018G24KT 12SM -SHRA OVC015 07/05 A2985 RMK SC8 LAST OBS/NEXT 241000 UTC SLP108

CYGK;2013-05-24 10:00;CYGK 241000Z 34015G21KT 10SM -RA OVC015 04/03 A2995 RMK SC8 SLP144

CYGK;2013-05-24 10:19;CYGK 241019Z 34013G19KT 10SM -RA OVC012 04/03 A2997 RMK SC8 SLP149

CYGK;2013-05-24 11:00;CYGK 241100Z 35017G22KT 4SM -RA BR FEW009 OVC015 03/02 A2999 RMK SF2SC6 SLP157

CYGK;2013-05-24 12:00;CYGK 241200Z 35019G24KT 6SM -RA BR FEW009 OVC014 03/02 A3001 RMK SF1SC7 SLP166

CYGK;2013-05-24 12:37;CYGK 241237Z 35016G23KT 6SM -RA BR SCT015 OVC020 03/02 A3003 RMK SC4SC4 SLP172

CYGK;2013-05-24 13:00;CYGK 241300Z 34014G20KT 6SM -RA BR SCT009 BKN014 OVC030 03/02 A3004 RMK SF3SC4SC1 SLP174

CYGK;2013-05-24 13:10;CYGK 241310Z 34015G22KT 8SM -RA BKN008 OVC015 03/02 A3004 RMK SF6SC2 SLP175

CYGK;2013-05-24 14:00;CYGK 241400Z 35017G28KT 8SM -RA FEW009 OVC014 04/03 A3005 RMK SF2SC6 SLP178

CYGK;2013-05-24 14:30;CYGK 241430Z 35017G28KT 15SM -RA FEW009 BKN015 OVC038 05/03 A3006 RMK SF1SC6SC1 -RA INTMT SLP182

CYGK;2013-05-24 15:00;CYGK 241500Z 36017G26KT 15SM -RA OVC016 05/03 A3007 RMK SC8 -RA INTMT SLP184

CYGK;2013-05-24 16:00;CYGK 241600Z 34017KT 15SM -RA FEW017 OVC021 06/02 A3009 RMK SF1SC7 -RA INTMT SLP192

CYGK;2013-05-24 17:00;CYGK 241700Z 35015G22KT 15SM -RA OVC024 06/02 A3010 RMK SC8 -RA INTMT SLP195

CYGK;2013-05-24 18:00;CYGK 241800Z 34013G23KT 15SM -RA BKN028 BKN048 08/03 A3010 RMK SC6SC1 -RA INTMT SLP196

CYGK;2013-05-24 18:36;CYGK 241836Z 34014G21KT 15SM SCT032 BKN058 09/03 A3011 RMK SC4SC3 SLP197

CYGK;2013-05-24 19:00;CYGK 241900Z 35014G20KT 15SM SCT035 BKN058 09/03 A3011 RMK SC3SC4 SLP199

CYGK;2013-05-24 20:00;CYGK 242000Z 34014G20KT 15SM SCT045 BKN062 12/03 A3011 RMK SC4SC3 SLP197

CYGK;2013-05-24 21:00;CYGK 242100Z 35014G19KT 15SM BKN052 BKN120 11/02 A3011 RMK SC6AC1 SLP198

CYGK;2013-05-24 22:00;CYGK 242200Z 34012G18KT 15SM BKN058 BKN130 11/02 A3011 RMK SC6AC1 SLP200

CYGK;2013-05-24 23:00;CYGK 242300Z 36010KT 15SM SCT052 BKN140 11/01 A3013 RMK SC4AC3 SLP204

CYGK;2013-05-25 00:00;CYGK 250000Z 35016G23KT 15SM FEW056 SCT140 BKN230 11/00 A3013 RMK SC2AC2CI1 SLP205

CYGK;2013-05-25 01:00;CYGK 250100Z 33011KT 15SM FEW055 FEW140 BKN240 09/01 A3014 RMK SC1AC1CI3 SLP208

CYGK;2013-05-25 02:00;CYGK 250200Z 31008KT 15SM FEW140 BKN240 08/01 A3015 RMK AC1CI4 SLP212

CYGK;2013-05-25 03:00;CYGK 250300Z 32007KT 15SM FEW140 BKN230 07/02 A3015 RMK AC1CI5 LAST OBS/NEXT 251000 UTC SLP213

CYGK;2013-05-25 10:00;CYGK 251000Z 34011KT 15SM BKN065 BKN250 05/01 A3014 RMK SC6CI1 SLP210

CYGK;2013-05-25 11:00;CYGK 251100Z 35014G19KT 15SM BKN070 BKN250 07/01 A3015 RMK AC6CI1 SLP213

CYGK;2013-05-25 12:00;CYGK 251200Z 36015G24KT 15SM BKN070 BKN250 08/01 A3016 RMK AC5CI1 SLP215

CYGK;2013-05-25 13:00;CYGK 251300Z 36013G22KT 15SM BKN072 BKN230 09/01 A3017 RMK AC5CI2 SLP218

CYGK;2013-05-25 14:00;CYGK 251400Z 35015G21KT 15SM FEW035 SCT070 BKN230 11/01 A3016 RMK CU1AC3CI2 CU TR SLP216

CYGK;2013-05-25 15:00;CYGK 251500Z 34015KT 15SM FEW020 FEW050 SCT070 BKN160 BKN210 12/01 A3016 RMK CU1SC1AC1AS2CI2 SLP215

CYGK;2013-05-25 16:00;CYGK 251600Z 01017G27KT 15SM FEW050 SCT160 BKN200 12/M00 A3016 RMK CU1AS2CS4 SLP215

CYGK;2013-05-25 17:00;CYGK 251700Z 36014G21KT 15SM FEW058 BKN160 BKN200 13/01 A3015 RMK CU1AS4CS2 SLP212

CYGK;2013-05-25 18:00;CYGK 251800Z 34016G23KT 15SM FEW057 SCT160 BKN220 14/02 A3014 RMK CU2AC2CI3 SLP207

CYGK;2013-05-25 19:00;CYGK 251900Z 35014G21KT 15SM FEW060 BKN140 BKN200 14/02 A3013 RMK CU2AS3CS2 SLP206

CYGK;2013-05-25 20:00;CYGK 252000Z 35016G23KT 15SM FEW060 BKN140 BKN200 13/01 A3012 RMK CU2AS3CS2 SLP203

CYGK;2013-05-25 21:00;CYGK 252100Z 34018G24KT 15SM FEW060 SCT160 BKN180 14/01 A3012 RMK CU2AS2CS2 SLP201

CYGK;2013-05-25 22:00;CYGK 252200Z 01014G20KT 15SM FEW060 SCT160 BKN190 14/01 A3011 RMK CU2AS2CI1 SLP199

CYGK;2013-05-25 23:00;CYGK 252300Z 33013KT 15SM FEW063 BKN160 14/02 A3011 RMK SC2AS4 SLP196

CYGK;2013-05-26 00:00;CYGK 260000Z 35014KT 15SM FEW065 SCT160 BKN230 14/01 A3011 RMK SC2AS1CI3 SLP197

CYGK;2013-05-26 01:00;CYGK 260100Z 33007KT 15SM BKN075 BKN230 12/01 A3011 RMK AC5CI1 SLP199

CYGK;2013-05-26 02:00;CYGK 260200Z 07005KT 15SM BKN073 11/02 A3013 RMK AC7 SLP205

CYGK;2013-05-26 03:00;CYGK 260300Z 15004KT 15SM BKN073 OVC110 10/05 A3013 RMK AC5AC3 LAST OBS/NEXT 261000 UTC SLP203

CYGK;2013-05-26 10:00;CYGK 261000Z 32008KT 15SM SCT250 07/01 A3008 RMK CI4 SLP186

CYGK;2013-05-26 11:00;CYGK 261100Z 32009KT 15SM BKN250 07/01 A3009 RMK CI5 SLP191

CYGK;2013-05-26 12:00;CYGK 261200Z 33009KT 15SM BKN250 08/02 A3011 RMK CI5 SLP197

CYGK;2013-05-26 13:00;CYGK 261300Z 33011G20KT 15SM FEW060 FEW180 BKN250 10/01 A3012 RMK SC1AS2CI4 SC TR SLP200

CYGK;2013-05-26 14:00;CYGK 261400Z 35013KT 15SM FEW050 BKN250 12/02 A3013 RMK SC1CI6 SLP204

CYGK;2013-05-26 15:00;CYGK 261500Z 33011G17KT 15SM FEW050 BKN200 14/03 A3013 RMK SC1CI4 SLP205

CYGK;2013-05-26 16:00;CYGK 261600Z 30011G19KT 15SM FEW060 BKN250 15/02 A3011 RMK SC1CI5 SLP199

CYGK;2013-05-26 17:00;CYGK 261700Z 33013G22KT 15SM FEW065 FEW180 BKN250 16/01 A3012 RMK CU1AS1CI4 SLP200

CYGK;2013-05-26 18:00;CYGK 261800Z 34015G21KT 15SM FEW065 SCT250 17/01 A3011 RMK CU1CI3 CU TR SLP199

CYGK;2013-05-26 19:00;CYGK 261900Z 33012G21KT 15SM FEW078 FEW250 17/01 A3011 RMK CU1CI1 SLP198 DENSITY ALT 400FT

CYGK;2013-05-26 20:00;CYGK 262000Z 29006KT 280V340 15SM FEW081 FEW250 18/01 A3011 RMK CU1CI1 CI TR SLP196 DENSITY ALT 500FT

CYGK;2013-05-26 21:00;CYGK 262100Z 33013G20KT 15SM FEW080 FEW250 19/00 A3010 RMK AC1CI1 CI TR SLP195 DENSITY ALT 500FT

CYGK;2013-05-26 22:00;CYGK 262200Z 30010G17KT 15SM FEW080 19/M01 A3010 RMK AC1 AC TR SLP194 DENSITY ALT 500FT

CYGK;2013-05-26 23:00;CYGK 262300Z 32011KT 15SM FEW080 18/M01 A3010 RMK AC1 AC TR SLP194 DENSITY ALT 500FT

CYGK;2013-05-27 00:00;CYGK 270000Z 32006KT 15SM SKC 16/M00 A3010 RMK SLP193

CYGK;2013-05-27 01:00;CYGK 270100Z 33004KT 15SM SKC 13/00 A3011 RMK SLP198

CYGK;2013-05-27 02:00;CYGK 270200Z 32007KT 15SM SKC 11/01 A3013 RMK SLP205

CYGK;2013-05-27 03:00;CYGK 270300Z 32005KT 15SM SKC 11/01 A3014 RMK LAST OBS/NEXT 271000 UTC SLP207

CYGK;2013-05-27 10:00;CYGK 271000Z 31006KT 15SM SKC 06/01 A3021 RMK SLP230

CYGK;2013-05-27 11:00;CYGK 271100Z 32004KT 15SM SKC 09/03 A3022 RMK SLP234

CYGK;2013-05-27 12:00;CYGK 271200Z 32007KT 15SM SKC 12/02 A3024 RMK SLP241

CYGK;2013-05-27 13:00;CYGK 271300Z 33007KT 15SM SKC 14/02 A3024 RMK SLP242

CYGK;2013-05-27 14:00;CYGK 271400Z 23006KT 15SM SKC 15/06 A3025 RMK SLP243

CYGK;2013-05-27 14:27;CYGK 271427Z 29007G16KT 15SM SKC 17/00 A3023 RMK WSHFT 1418 SLP239

CYGK;2013-05-27 15:00;CYGK 271500Z 32007G16KT 15SM SKC 17/00 A3023 RMK SLP237

CYGK;2013-05-27 16:00;CYGK 271600Z 15012KT 15SM SKC 14/07 A3022 RMK SLP233

CYGK;2013-05-27 17:00;CYGK 271700Z 18014KT 15SM SKC 13/07 A3021 RMK SLP232

CYGK;2013-05-27 18:00;CYGK 271800Z 18012KT 15SM FEW250 13/07 A3020 RMK CI1 CI TR SLP227

CYGK;2013-05-27 19:00;CYGK 271900Z 18012G19KT 15SM SKC 13/06 A3018 RMK SLP222

CYGK;2013-05-27 20:00;CYGK 272000Z 18012KT 15SM FEW250 14/06 A3017 RMK CI1 CI TR SLP217

CYGK;2013-05-27 21:00;CYGK 272100Z 18012KT 15SM FEW250 13/06 A3015 RMK CI1 SLP213

CYGK;2013-05-27 22:00;CYGK 272200Z 19012KT 15SM FEW250 13/07 A3015 RMK CI1 SLP212

CYGK;2013-05-27 23:00;CYGK 272300Z 19010KT 15SM FEW250 14/07 A3015 RMK CI1 SLP210

CYGK;2013-05-28 00:00;CYGK 280000Z 19009KT 15SM FEW240 11/06 A3014 RMK CI2 SLP208

CYGK;2013-05-28 01:00;CYGK 280100Z 19007KT 15SM SCT240 10/06 A3014 RMK CI4 SLP207

CYGK;2013-05-28 02:00;CYGK 280200Z 15003KT 15SM SCT240 10/07 A3016 RMK CI4 SLP214

CYGK;2013-05-28 03:00;CYGK 280300Z 14005KT 15SM SCT240 09/07 A3017 RMK CI4 LAST OBS/NEXT 281000 UTC SLP218

CYGK;2013-05-28 10:00;CYGK 281000Z 00000KT 15SM BKN250 05/05 A3015 RMK CI5 SLP213

CYGK;2013-05-28 11:00;CYGK 281100Z 03002KT 15SM BKN250 09/07 A3015 RMK CI6 SLP211

CYGK;2013-05-28 12:00;CYGK 281200Z 05005KT 15SM OVC250 12/07 A3014 RMK CI8 SLP208

CYGK;2013-05-28 13:00;CYGK 281300Z 09007KT 15SM FEW100 OVC250 15/05 A3014 RMK AC1CI7 SLP207

CYGK;2013-05-28 14:00;CYGK 281400Z 09006KT 15SM FEW100 OVC250 16/05 A3013 RMK AC1CI7 SLP205

CYGK;2013-05-28 15:00;CYGK 281500Z 10006KT 15SM FEW100 OVC250 17/06 A3013 RMK AC1CI7 SLP204

CYGK;2013-05-28 16:00;CYGK 281600Z 13008KT 15SM OVC250 19/07 A3013 RMK CI8 SLP203 DENSITY ALT 500FT

CYGK;2013-05-28 17:00;CYGK 281700Z 17006KT 15SM FEW050 BKN150 OVC250 18/09 A3012 RMK SC1AC5CI3 SC TR SLP201 DENSITY ALT 400FT

CYGK;2013-05-28 18:00;CYGK 281800Z 16005KT 15SM SCT040 OVC120 16/07 A3011 RMK SC4AC4 SLP198

CYGK;2013-05-28 19:00;CYGK 281900Z 17005KT 15SM BKN026 OVC120 16/08 A3010 RMK SC6AC2 SLP193

CYGK;2013-05-28 19:42;CYGK 281942Z 18006KT 15SM -RA BKN031 OVC120 15/08 A3009 RMK SC6AC2 SLP191

CYGK;2013-05-28 20:00;CYGK 282000Z 19006KT 15SM -RA BKN032 BKN050 OVC110 14/09 A3008 RMK SC6SC1AC1 SLP189

CYGK;2013-05-28 21:00;CYGK 282100Z 19007KT 15SM -RA SCT033 BKN047 OVC110 13/10 A3008 RMK SC4SC3AC1 -RA INTMT SLP188

CYGK;2013-05-28 21:11;CYGK 282111Z 19008KT 15SM BKN037 BKN050 OVC110 13/11 A3008 RMK SC5SC2AC1 SLP187

CYGK;2013-05-28 22:00;CYGK 282200Z 17009G16KT 15SM BKN044 OVC086 14/11 A3006 RMK SC6AC2 SLP181

CYGK;2013-05-28 23:00;CYGK 282300Z 14011KT 15SM SCT044 OVC072 14/11 A3003 RMK SC3AC5 SLP171

CYGK;2013-05-29 00:00;CYGK 290000Z 15008KT 15SM FEW021 OVC068 15/11 A3003 RMK SC1AC7 SLP171

CYGK;2013-05-29 00:50;CYGK 290050Z 15009KT 15SM -RA OVC025 14/11 A3003 RMK SC8 SLP172

CYGK;2013-05-29 01:00;CYGK 290100Z 14008KT 15SM -RA OVC025 14/12 A3003 RMK SC8 SLP170

CYGK;2013-05-29 02:00;CYGK 290200Z 13010KT 8SM -RA OVC020 14/12 A3001 RMK SC8 SLP164

CYGK;2013-05-29 03:00;CYGK 290300Z 13007KT 12SM -RA SCT019 OVC032 14/13 A3000 RMK SC4SC4 LAST OBS/NEXT 291000 UTC SLP161

CYGK;2013-05-29 10:00;CYGK 291000Z 19007KT 6SM -RA BR OVC003 14/13 A2994 RMK SF8 SLP140

CYGK;2013-05-29 10:20;CYGK 291020Z 17006KT 4SM -RA BR OVC002 13/13 A2994 RMK SF8 SLP141

CYGK;2013-05-29 10:35;CYGK 291035Z 19006KT 2SM -RA BR OVC003 13/13 A2995 RMK FG2SF6 VIS S 1/2 SLP144

CYGK;2013-05-29 10:51;CYGK 291051Z 19006KT 2SM -RA BR OVC002 14/14 A2997 RMK FG2SF6 VIS SE-SW 1/2 SLP148

CYGK;2013-05-29 11:00;CYGK 291100Z 20004KT 1/2SM -RA FG OVC002 14/14 A2997 RMK FG6SF2 INTMT -RA VIS N 1 SLP149

CYGK;2013-05-29 11:12;CYGK 291112Z 19006KT 1/4SM -RA FG VV001 13/13 A2996 RMK FG8 SLP147

CYGK;2013-05-29 12:00;CYGK 291200Z 19003KT 180V300 1/2SM FG VV002 14/13 A2994 RMK FG8 PRESRR SLP141

CYGK;2013-05-29 12:21;CYGK 291221Z 21006KT 1/4SM FG VV001 13/13 A2995 RMK FG8 PRESRR SLP143

CYGK;2013-05-29 13:00;CYGK 291300Z 21005KT 3/8SM FG VV002 13/13 A2995 RMK FG8 SLP144

CYGK;2013-05-29 13:12;CYGK 291312Z 18005KT 1/4SM FG VV001 13/13 A2994 RMK FG8 PRESFR SLP138

CYGK;2013-05-29 13:38;CYGK 291338Z 19006KT 1/8SM FG VV001 13/13 A2994 RMK FG8 SLP139

CYGK;2013-05-29 14:00;CYGK 291400Z 18004KT 0SM FG VV001 13/13 A2994 RMK FG8 SLP138

CYGK;2013-05-29 15:00;CYGK 291500Z 18008KT 0SM FG VV001 14/14 A2993 RMK FG8 SLP135

CYGK;2013-05-29 15:34;CYGK 291534Z 19011KT 1/4SM FG VV001 15/15 A2993 RMK FG8 SLP135

CYGK;2013-05-29 16:00;CYGK 291600Z 18007KT 1/2SM FG VV002 15/15 A2993 RMK FG8 SLP137

CYGK;2013-05-29 16:20;CYGK 291620Z 18010KT 3/4SM BR VV002 15/15 A2994 RMK FG8 SLP140

CYGK;2013-05-29 17:00;CYGK 291700Z 16008KT 1/2SM FG VV001 14/14 A2992 RMK FG8 PRESFR SLP134

CYGK;2013-05-29 17:10;CYGK 291710Z 16008KT 1/2SM -RA FG VV001 14/13 A2991 RMK FG8 SLP131

CYGK;2013-05-29 17:25;CYGK 291725Z 17006KT 1SM -RA BR OVC015 14/14 A2991 RMK FG6SC2 VIS S 1/2 SLP130

CYGK;2013-05-29 17:39;CYGK 291739Z 19009KT 5SM -RA BR FEW005 SCT060 OVC110 15/15 A2992 RMK SF2SC2AC4 SLP133

CYGK;2013-05-29 18:00;CYGK 291800Z 19008KT 5SM BR FEW005 SCT090 BKN120 16/15 A2991 RMK SF1AC3AC3 SLP128 DENSITY ALT 400FT

CYGK;2013-05-29 18:48;CYGK 291848Z 22005KT 10SM FEW015 SCT090 BKN150 20/18 A2991 RMK CU1AC3AC3 SLP129 DENSITY ALT 900FT

CYGK;2013-05-29 19:00;CYGK 291900Z 17006KT 10SM FEW015 SCT090 BKN150 18/16 A2992 RMK CU1AC3AC3 SLP131 DENSITY ALT 700FT

CYGK;2013-05-29 19:16;CYGK 291916Z 23011KT 10SM -RA FEW020 SCT062 BKN110 20/18 A2992 RMK CU2SC2AC3 SLP133 DENSITY ALT 900FT

CYGK;2013-05-29 20:00;CYGK 292000Z 24009KT 12SM VCSH FEW030 BKN055 OVC180 21/18 A2993 RMK CU2SC4AC2 SLP135 DENSITY ALT 1000FT

CYGK;2013-05-29 21:00;CYGK 292100Z 24013G18KT 12SM FEW025 BKN055 BKN120 22/18 A2992 RMK CU2SC3AC2 SLP132 DENSITY ALT 1100FT

CYGK;2013-05-29 22:00;CYGK 292200Z 24010KT 10SM FEW025 SCT040 SCT220 21/18 A2990 RMK CF1SC2CI1 SLP126 DENSITY ALT 1000FT

CYGK;2013-05-29 23:00;CYGK 292300Z 24011KT 10SM FEW250 21/18 A2991 RMK CI2 SLP129 DENSITY ALT 1000FT

CYGK;2013-05-30 00:00;CYGK 300000Z 24010KT 12SM SCT250 20/17 A2991 RMK CI4 SLP130 DENSITY ALT 900FT

CYGK;2013-05-30 01:00;CYGK 300100Z 23008KT 12SM SCT250 18/16 A2992 RMK CI3 SLP133 DENSITY ALT 700FT

CYGK;2013-05-30 02:00;CYGK 300200Z 24005KT 12SM SCT050 18/16 A2995 RMK CU3 SLP144 DENSITY ALT 600FT

CYGK;2013-05-30 03:00;CYGK 300300Z 17002KT 15SM SCT050 14/13 A2998 RMK CU4 LAST OBS/NEXT 301000 UTC SLP152

CYGK;2013-05-30 10:00;CYGK 301000Z 16005KT 1/8SM FG BKN250 12/11 A3007 RMK FG6CI1 SLP182

CYGK;2013-05-30 10:17;CYGK 301017Z 00000KT 1/2SM FG BKN120 BKN250 12/11 A3006 RMK FG4AC1CI1 CI TR SLP181

CYGK;2013-05-30 10:43;CYGK 301043Z VRB02KT 3/4SM BR SCT250 13/13 A3007 RMK FG2CI2 VIS S 1/2 SLP184

CYGK;2013-05-30 11:00;CYGK 301100Z 16002KT 1SM BR SCT250 12/12 A3008 RMK FG2CI1 VIS S-SW 1/2 SLP186

CYGK;2013-05-30 11:26;CYGK 301126Z 02002KT 1 1/2SM BR FEW250 14/13 A3008 RMK CI2 SLP188

CYGK;2013-05-30 11:39;CYGK 301139Z 16004KT 050V160 2SM BR FEW250 14/13 A3009 RMK CI1 TCU TOPS DIST S SLP189

CYGK;2013-05-30 12:00;CYGK 301200Z 15004KT 2 1/2SM BR FEW250 13/12 A3009 RMK CI2 TCU TOPS DIST S SLP189

CYGK;2013-05-30 12:06;CYGK 301206Z VRB02KT 3SM BR FEW100 FEW250 14/13 A3008 RMK AC1CI1 SLP188

CYGK;2013-05-30 13:00;CYGK 301300Z 14002KT 3SM BR FEW100 FEW250 16/14 A3009 RMK AC1CI1 SLP189

CYGK;2013-05-30 14:00;CYGK 301400Z 18009KT 3SM BR FEW250 16/14 A3011 RMK CI2 VIS LWR S SLP195

CYGK;2013-05-30 15:00;CYGK 301500Z 18007KT 4SM BR FEW020 FEW050 SCT250 16/14 A3011 RMK CU1SC1CI4 CU TR SC TR VIS S 2 SLP195

CYGK;2013-05-30 16:00;CYGK 301600Z 17006KT 4SM BR FEW025 SCT250 17/16 A3011 RMK CU1CI4 CU TR SLP195 DENSITY ALT 400FT

CYGK;2013-05-30 17:00;CYGK 301700Z 16007KT 5SM BR FEW025 BKN250 16/15 A3011 RMK CU1CI6 VIS S 2 SLP196

CYGK;2013-05-30 18:00;CYGK 301800Z 17007KT 5SM BR FEW025 BKN250 17/15 A3010 RMK CU1CI7 CU TR VIS S 2 SLP192 DENSITY ALT 400FT

CYGK;2013-05-30 18:27;CYGK 301827Z 15006KT 6SM BR FEW025 SCT250 17/15 A3009 RMK CU1CI3 SLP189 DENSITY ALT 400FT

CYGK;2013-05-30 19:00;CYGK 301900Z 16009KT 6SM BR FEW025 BKN250 17/15 A3008 RMK CU1CI6 SLP187

CYGK;2013-05-30 20:00;CYGK 302000Z 17008KT 6SM BR FEW035 BKN250 17/15 A3007 RMK CU1CI5 SLP184 DENSITY ALT 400FT

CYGK;2013-05-30 21:00;CYGK 302100Z 17006KT 6SM +BLSA FEW030TCU BKN250 18/15 A3006 RMK TCU1CI5 SLP180 DENSITY ALT 500FT

CYGK;2013-05-30 22:00;CYGK 302200Z 17006KT 6SM HZ FEW035 BKN250 18/15 A3005 RMK CU1CI4 SLP175 DENSITY ALT 500FT

CYGK;2013-05-30 23:00;CYGK 302300Z 19006KT 8SM SCT250 18/15 A3004 RMK CI4 SLP174 DENSITY ALT 500FT

CYGK;2013-05-31 00:00;CYGK 310000Z 19005KT 8SM SCT250 18/16 A3004 RMK CI3 SLP173 DENSITY ALT 500FT

CYGK;2013-05-31 01:00;CYGK 310100Z 22002KT 5SM BR SCT250 17/16 A3005 RMK CI3 SLP176 DENSITY ALT 400FT

CYGK;2013-05-31 02:00;CYGK 310200Z 00000KT 6SM BR SCT250 16/15 A3005 RMK CI3 SLP177

CYGK;2013-05-31 03:00;CYGK 310300Z 13004KT 8SM SCT250 15/15 A3005 RMK CI3 LAST OBS/NEXT 311000 UTC SLP177

CYGK;2013-05-31 10:00;CYGK 311000Z 18002KT 10SM FEW120 SCT250 14/13 A3005 RMK AC1CI2 ACC ASOCTD N SLP178

CYGK;2013-05-31 11:00;CYGK 311100Z 17006KT 10SM FEW120 FEW250 16/15 A3006 RMK AC1CI1 AC TR CI TR SLP180

CYGK;2013-05-31 12:00;CYGK 311200Z 18006KT 8SM FEW100 16/15 A3006 RMK AC1 SLP181

CYGK;2013-05-31 13:00;CYGK 311300Z 19011KT 5SM HZ FEW100 18/16 A3006 RMK AC1 AC TR SLP181 DENSITY ALT 500FT

CYGK;2013-05-31 14:00;CYGK 311400Z 18009KT 6SM HZ FEW100 FEW250 18/15 A3005 RMK ACC1CI1 ACC TR CI TR SLP176 DENSITY ALT 500FT

CYGK;2013-05-31 15:00;CYGK 311500Z 17008KT 6SM HZ FEW250 18/15 A3004 RMK CI2 SLP172 DENSITY ALT 500FT

CYGK;2013-05-31 16:00;CYGK 311600Z 17009KT 8SM FEW250 18/15 A3002 RMK CI2 SLP168 DENSITY ALT 600FT

CYGK;2013-05-31 17:00;CYGK 311700Z 19008KT 8SM FEW020 FEW100 FEW250 22/18 A3002 RMK CF1ACC1CI2 CF TR ACC TR SLP164 DENSITY ALT 1000FT

CYGK;2013-05-31 18:00;CYGK 311800Z 19007KT 8SM FEW030 SCT250 25/20 A3000 RMK CF1CI2 SLP160 DENSITY ALT 1400FT

CYGK;2013-05-31 19:00;CYGK 311900Z 20009KT 8SM FEW030 FEW250 25/19 A2999 RMK CU1CI2 CU TR SLP154 DENSITY ALT 1400FT

CYGK;2013-05-31 20:00;CYGK 312000Z 18008KT 10SM FEW030 SCT250 23/18 A2996 RMK CU1CI3 CU TR SLP146 DENSITY ALT 1200FT

CYGK;2013-05-31 21:00;CYGK 312100Z 19007KT 10SM FEW030 SCT250 22/18 A2995 RMK CU1CI3 CU TR SLP141 DENSITY ALT 1100FT

CYGK;2013-05-31 22:00;CYGK 312200Z 19009KT 10SM BKN250 25/19 A2993 RMK CI5 SLP135 DENSITY ALT 1400FT

CYGK;2013-05-31 23:00;CYGK 312300Z 21008KT 12SM BKN260 25/19 A2992 RMK CI6 SLP133 DENSITY ALT 1400FT

CYGK;2013-06-01 00:00;CYGK 010000Z 21004KT 12SM BKN250 22/18 A2992 RMK CI7 SLP132 DENSITY ALT 1200FT

CYGK;2013-06-01 01:00;CYGK 010100Z 22004KT 12SM OVC250 21/17 A2992 RMK CI8 SLP132 DENSITY ALT 1000FT

CYGK;2013-06-01 02:00;CYGK 010200Z 24004KT 15SM OVC250 21/17 A2993 RMK CI8 SLP135 DENSITY ALT 1000FT

CYGK;2013-06-01 03:00;CYGK 010300Z 23007KT 12SM FEW140 OVC250 21/17 A2994 RMK AC2CI6 SLP137 DENSITY ALT 1000FT

CYGK;2013-06-01 10:00;CYGK 011000Z 21005KT 15SM FEW060 SCT110 BKN170 BKN200 16/15 A2992 RMK SC1AC2AC3CI1 SLP132 DENSITY ALT 400FT

CYGK;2013-06-01 11:00;CYGK 011100Z 15007KT 15SM FEW060 FEW130 BKN180 BKN200 17/15 A2992 RMK SC1AC2AC4CI1 SC TR SLP130 DENSITY ALT 500FT

CYGK;2013-06-01 12:00;CYGK 011200Z 16002KT 15SM BKN055 BKN120 BKN200 17/15 A2993 RMK SC5AC1CI1 SLP135 DENSITY ALT 500FT

CYGK;2013-06-01 13:00;CYGK 011300Z 17004KT 15SM FEW038 SCT060 BKN120 BKN200 18/16 A2991 RMK SC2SC2AC2CI1 SLP130 DENSITY ALT 700FT

CYGK;2013-06-01 14:00;CYGK 011400Z 20004KT 15SM BKN031 BKN140 BKN200 19/16 A2991 RMK SC6AC1CI1 CI TR SLP128 DENSITY ALT 800FT

CYGK;2013-06-01 15:00;CYGK 011500Z 19009KT 15SM SCT031 BKN140 BKN200 21/17 A2989 RMK SC3AC2CI2 SLP120 DENSITY ALT 1000FT

CYGK;2013-06-01 16:00;CYGK 011600Z 19008KT 15SM BKN033 OVC140 20/17 A2988 RMK SC7AC1 SLP116 DENSITY ALT 900FT

CYGK;2013-06-01 17:00;CYGK 011700Z 17007KT 15SM FEW037 FEW140 OVC220 22/18 A2985 RMK SC1AC1CI7 AC TR SLP109 DENSITY ALT 1200FT

CYGK;2013-06-01 18:00;CYGK 011800Z 18008KT 15SM FEW030 SCT160 OVC220 21/18 A2984 RMK CU1AS3CS5 CU TR SLP105 DENSITY ALT 1200FT

CYGK;2013-06-01 19:00;CYGK 011900Z 21008KT 15SM FEW045 BKN220 24/20 A2983 RMK SC2CS5 SLP101 DENSITY ALT 1400FT

CYGK;2013-06-01 20:00;CYGK 012000Z 19009KT 15SM FEW045 BKN220 24/19 A2981 RMK CU1CS6 TCU ASOCTD DIST S SLP093 DENSITY ALT 1400FT

CYGK;2013-06-01 21:00;CYGK 012100Z 19008KT 15SM FEW040 SCT070 SCT140 BKN220 22/19 A2977 RMK CU2AC1AS1CS2 CB DIST S SLP080 DENSITY ALT 1300FT

CYGK;2013-06-01 22:00;CYGK 012200Z 19011KT 15SM VCSH FEW030CB BKN060 BKN220 20/17 A2975 RMK CB2SC4CS1 CB N AND DIST SE SLP074 DENSITY ALT 1100FT

CYGK;2013-06-01 22:06;CYGK 012206Z 25012KT 190V250 15SM -TSRA SCT030CB BKN060 BKN220 21/18 A2977 RMK CB4SC2CS1 VIS LWR SW-N PRESRR SLP079 DENSITY ALT 1200FT

CYGK;2013-06-01 22:10;CYGK 012210Z 28012G19KT 190V280 2SM TSRA BR BKN030CB BKN060 OVC220 22/19 A2978 RMK CB5SC2CS1 VIS SE 6 PRESRR SLP084 DENSITY ALT 1300FT

CYGK;2013-06-01 22:15;CYGK 012215Z 25010G19KT 4SM -TSRA BR BKN030CB OVC060 22/20 A2978 RERA RMK CB6SC2 SLP085 DENSITY ALT 1300FT

CYGK;2013-06-01 22:40;CYGK 012240Z 25010KT 2SM TSRA BR BKN035CB OVC060 20/20 A2980 RMK CB7SC1 WSHFT 2209 PRESRR SLP092 DENSITY ALT 1100FT

CYGK;2013-06-01 22:44;CYGK 012244Z 23010KT 4SM -TSRA BR FEW010 BKN035CB OVC060 21/20 A2980 RERA RMK SF1CB5SC2 SLP090 DENSITY ALT 1100FT

CYGK;2013-06-01 22:50;CYGK 012250Z 23011KT 4SM -SHRA BR FEW010 SCT035CB OVC050 21/20 A2980 RETSRA RMK SF2CB2SC4 SLP090 DENSITY ALT 1100FT

CYGK;2013-06-01 23:00;CYGK 012300Z 24009G17KT 8SM -SHRA FEW010 SCT035CB BKN050 OVC120 21/20 A2980 RETSRA RMK SF1CB2SC3AS2 SLP090 DENSITY ALT 1200FT

CYGK;2013-06-01 23:35;CYGK 012335Z 21012G19KT 10SM TS VCSH FEW015 SCT030CB BKN050 OVC100 21/20 A2982 RMK SF1CB2SC3AS2 VIS S 4 PRESRR SLP097 DENSITY ALT 1100FT

CYGK;2013-06-01 23:39;CYGK 012339Z 22008G19KT 10SM -TSRA FEW010 SCT030CB BKN050 OVC100 21/20 A2981 RMK SF1CB2SC3AS2 VIS SE-SW 4 SLP093 DENSITY ALT 1100FT

CYGK;2013-06-02 00:00;CYGK 020000Z 26006KT 10SM -TSRA FEW015 FEW030CB BKN050 OVC100 21/20 A2980 RMK SF1CB2SC3AS3 SF TR CB S SLP089 DENSITY ALT 1100FT

CYGK;2013-06-02 00:28;CYGK 020028Z 23005KT 10SM -SHRA FEW010 FEW030CB SCT050 BKN080 20/20 A2980 RETS RMK SF1CB1SC3AC3 SF TR SLP090 DENSITY ALT 1100FT

CYGK;2013-06-02 01:00;CYGK 020100Z 19004KT 10SM -SHRA FEW010 FEW030TCU BKN080 BKN220 20/19 A2980 RETS RMK SF1TCU1AC4CI1 TCU S PRESFR SLP090 DENSITY ALT 1000FT

CYGK;2013-06-02 01:20;CYGK 020120Z 19006KT 180V240 8SM FEW010 FEW030TCU BKN080 BKN140 BKN250 19/18 A2979 RMK SF1TCU1AC3AC1CI1 SLP086 DENSITY ALT 900FT

CYGK;2013-06-02 02:02;CYGK 020202Z 21005KT 6SM BR PRFG FEW001 BKN080 BKN120 19/19 A2980 RMK SF2AC3AC2 VIS SE-SW 1/2 SLP089 DENSITY ALT 1000FT

CYGK;2013-06-02 02:16;CYGK 020216Z 20008KT 2SM BR PRFG SCT001 BKN100 18/18 A2980 RMK SF3AC4 VIS S 1/2 VIS N 4 SLP090 DENSITY ALT 900FT

CYGK;2013-06-02 02:21;CYGK 020221Z 18010KT 1/2SM FG VV001 18/17 A2980 RMK FG8 SLP091 DENSITY ALT 800FT

CYGK;2013-06-02 02:24;CYGK 020224Z 20007KT 2SM BR PRFG SCT001 OVC100 18/17 A2980 RMK FG2SF1AC5 VIS S 1/2 VIS N 4 FG INVDG FM S OFF LK SLP090 DENSITY ALT 800FT

CYGK;2013-06-02 02:48;CYGK 020248Z 19005KT 3SM BR PRFG OVC002 18/18 A2980 RMK FG2SF6 VIS S 1/2 SLP089 DENSITY ALT 800FT

CYGK;2013-06-02 03:00;CYGK 020300Z 16004KT 3SM BR PRFG OVC002 18/18 A2979 RMK FG2SF6 VIS SE-SW 1/2 LAST OBS/NEXT 021000 UTC SLP088 DENSITY ALT 800FT

CYGK;2013-06-02 10:00;CYGK 021000Z 23004KT 1SM -RA BR OVC001 18/18 A2971 RMK SF8 SLP059 DENSITY ALT 900FT

CYGK;2013-06-02 10:19;CYGK 021019Z 27005KT 1 1/2SM RA BR BKN005 OVC012 18/18 A2970 RMK SF5NS3 SLP058 DENSITY ALT 900FT

CYGK;2013-06-02 10:30;CYGK 021030Z 27002KT 2SM -TSRA BR SCT007 OVC012 18/18 A2971 RERA RMK SF4NS4 CB EMBD SLP059 DENSITY ALT 1000FT

CYGK;2013-06-02 10:45;CYGK 021045Z 22005KT 1 1/4SM -RA BR BKN006 OVC012 18/18 A2971 RETSRA RMK SF6NS2 SLP061 DENSITY ALT 900FT

CYGK;2013-06-02 11:00;CYGK 021100Z 23003KT 1 1/4SM -RA BR BKN003 OVC012 18/18 A2971 RETSRA RMK SF5NS3 SLP059 DENSITY ALT 900FT

CYGK;2013-06-02 11:22;CYGK 021122Z 09007KT 1/4SM -RA FG OVC002 18/18 A2965 RMK FG6SF2 SLP038 DENSITY ALT 1000FT

CYGK;2013-06-02 11:35;CYGK 021135Z 20005KT 110V200 1/4SM FG VV004 18/18 A2968 RMK FG8 PRESRR SLP051 DENSITY ALT 1000FT

CYGK;2013-06-02 12:00;CYGK 021200Z 22009KT 2SM BR OVC002 19/19 A2971 RMK SF8 VIS S 4 PRESRR SLP059 DENSITY ALT 1000FT

CYGK;2013-06-02 12:19;CYGK 021219Z 22010G16KT 3SM BR PRFG BKN004 OVC020 19/19 A2970 RMK SF7SC1 VIS E 1/2 PRESRR SLP058 DENSITY ALT 1100FT

CYGK;2013-06-02 12:39;CYGK 021239Z 22009G15KT 5SM BR PRFG BKN005 BKN025 19/19 A2971 RMK SF6SC1 VIS E-SE 5/8 SLP059 DENSITY ALT 1100FT

CYGK;2013-06-02 12:53;CYGK 021253Z 21009KT 1SM BR OVC002 19/19 A2969 RMK FG3SF5 VIS N 3 SLP055 DENSITY ALT 1100FT

CYGK;2013-06-02 13:00;CYGK 021300Z 19009KT 1/2SM FG VV003 18/18 A2969 RMK FG8 VIS S 1/4 SLP054 DENSITY ALT 1000FT

CYGK;2013-06-02 13:05;CYGK 021305Z 20011KT 1/8SM FG VV003 18/18 A2969 RMK FG8 SLP055 DENSITY ALT 1000FT

CYGK;2013-06-02 13:22;CYGK 021322Z 19008KT 3/8SM FG VV004 17/17 A2970 RMK FG8 SLP056 DENSITY ALT 900FT

CYGK;2013-06-02 13:50;CYGK 021350Z 19007KT 1/8SM FG VV004 16/16 A2970 RMK FG8 SLP057 DENSITY ALT 700FT

CYGK;2013-06-02 14:00;CYGK 021400Z 17006KT 1/8SM FG VV004 16/16 A2970 RMK FG8 SLP057 DENSITY ALT 700FT

CYGK;2013-06-02 14:20;CYGK 021420Z 19004KT 1/2SM FG VV004 16/16 A2970 RMK FG8 VIS S 1/4 SLP058 DENSITY ALT 700FT

CYGK;2013-06-02 14:23;CYGK 021423Z 19003KT 3/4SM BR VV005 16/16 A2970 RMK FG8 VIS S 1/4 SLP057 DENSITY ALT 700FT

CYGK;2013-06-02 14:27;CYGK 021427Z 18003KT 1 1/4SM BR VV005 16/16 A2970 RMK FG8 VIS S 1/2. SE 1/4 SLP056 DENSITY ALT 700FT

CYGK;2013-06-02 14:34;CYGK 021434Z 21004KT 2SM BR OVC002 17/17 A2970 RMK FG3SF5 SLP056 DENSITY ALT 800FT

CYGK;2013-06-02 14:46;CYGK 021446Z 19006KT 8SM SCT003 BKN030 OVC060 17/17 A2969 RMK SF3SC4SC1 VIS N 3 SLP054 DENSITY ALT 800FT

CYGK;2013-06-02 15:00;CYGK 021500Z 18006KT 10SM FEW003 SCT030 OVC048 17/17 A2970 RMK SF1SC2SC5 SLP057 DENSITY ALT 800FT

CYGK;2013-06-02 16:00;CYGK 021600Z 20014G20KT 15SM BKN022 BKN065 OVC200 19/17 A2970 RMK CU6SC1CI1 SLP056 DENSITY ALT 1000FT

CYGK;2013-06-02 17:00;CYGK 021700Z 19012KT 15SM BKN021 BKN065 BKN200 18/16 A2969 RMK CU5SC1CI1 SLP054 DENSITY ALT 1000FT

CYGK;2013-06-02 18:00;CYGK 021800Z 22013G18KT 15SM FEW020 FEW080 BKN220 22/19 A2969 RMK CU1AC1CI4 SLP054 DENSITY ALT 1400FT

CYGK;2013-06-02 19:00;CYGK 021900Z 24018G27KT 15SM FEW023 FEW080 SCT220 22/17 A2968 RMK CU2AC1CI1 AC TR SLP051 DENSITY ALT 1500FT

CYGK;2013-06-02 20:00;CYGK 022000Z 24019G27KT 15SM FEW025 FEW080 SCT220 23/17 A2967 RMK CU1AC1CI1 TCU TOP DIST SE SLP048 DENSITY ALT 1500FT

CYGK;2013-06-02 21:00;CYGK 022100Z 23017G24KT 15SM FEW025TCU FEW080 FEW220 22/16 A2968 RMK TCU1AC1CI1 AC TR SLP051 DENSITY ALT 1400FT

CYGK;2013-06-02 22:00;CYGK 022200Z 24016G22KT 15SM FEW040 FEW070 21/16 A2969 RMK CU1AC1 SLP055 DENSITY ALT 1300FT

CYGK;2013-06-02 23:00;CYGK 022300Z 25011G20KT 15SM FEW040 FEW080 SCT250 20/15 A2971 RMK CU1AC1CI1 SLP061 DENSITY ALT 1100FT

CYGK;2013-06-03 00:00;CYGK 030000Z 24012KT 15SM FEW030TCU FEW070 FEW250 18/15 A2972 RMK TCU1AC1CI1 CI TR SH DIST N-NE SLP063 DENSITY ALT 900FT

CYGK;2013-06-03 01:00;CYGK 030100Z 23009KT 15SM FEW030 FEW080 17/15 A2974 RMK CU1AC1 CU TR SLP071 DENSITY ALT 800FT

CYGK;2013-06-03 02:00;CYGK 030200Z 26010KT 15SM SCT035 18/15 A2978 RMK SC4 SLP085 DENSITY ALT 800FT

CYGK;2013-06-03 03:00;CYGK 030300Z 27007KT 15SM FEW035 15/12 A2980 RMK SC2 LAST OBS/NEXT 031000 UTC SLP091 DENSITY ALT 400FT

CYGK;2013-06-03 10:00;CYGK 031000Z 26009KT 15SM OVC026 12/08 A2989 RMK SC8 SLP123

CYGK;2013-06-03 11:00;CYGK 031100Z 26007KT 15SM OVC025 12/07 A2991 RMK SC8 SLP127

CYGK;2013-06-03 12:00;CYGK 031200Z 25009KT 15SM FEW022 OVC030 12/07 A2992 RMK CU1SC7 SLP132

CYGK;2013-06-03 13:00;CYGK 031300Z 26007KT 15SM FEW022 OVC032 12/08 A2993 RMK CU1SC8 CU TR SLP135

CYGK;2013-06-03 14:00;CYGK 031400Z 28010KT 15SM SCT023 OVC030 12/07 A2993 RMK CU3SC5 SLP137

CYGK;2013-06-03 15:00;CYGK 031500Z 25007KT 15SM FEW023 BKN037 14/07 A2994 RMK CU1SC6 SLP138

CYGK;2013-06-03 16:00;CYGK 031600Z 22009KT 15SM FEW025 BKN038 BKN250 14/08 A2993 RMK CU1SC5CI1 CU TR SLP137

CYGK;2013-06-03 17:00;CYGK 031700Z 23012KT 15SM BKN043 BKN250 15/09 A2993 RMK SC6CI1 CI TR SLP135

CYGK;2013-06-03 18:00;CYGK 031800Z 23014G19KT 15SM BKN036 14/09 A2993 RMK CU5 SLP135

CYGK;2013-06-03 19:00;CYGK 031900Z 23015G21KT 15SM FEW040 16/09 A2991 RMK SF2 SLP130 DENSITY ALT 400FT

CYGK;2013-06-03 20:00;CYGK 032000Z 22015KT 15SM FEW040 15/09 A2990 RMK CF2 SLP127 DENSITY ALT 400FT

CYGK;2013-06-03 21:00;CYGK 032100Z 23014G20KT 15SM FEW040 15/08 A2989 RMK CF1 SLP124 DENSITY ALT 400FT

CYGK;2013-06-03 22:00;CYGK 032200Z 23014G20KT 15SM FEW040 15/08 A2989 RMK CF1 CF TR SLP122 DENSITY ALT 400FT

CYGK;2013-06-03 23:00;CYGK 032300Z 23016G21KT 15SM FEW040 FEW250 15/07 A2990 RMK CF1CI1 CF TR CI TR SLP126

CYGK;2013-06-04 00:00;CYGK 040000Z 24012G19KT 15SM FEW040 FEW250 13/07 A2992 RMK CF1CI1 CF TR CI TR SLP132

CYGK;2013-06-04 01:00;CYGK 040100Z 27008G16KT 15SM FEW040 FEW250 13/05 A2994 RMK SC1CI1 SC TR CI TR SLP138

CYGK;2013-06-04 02:00;CYGK 040200Z 27010KT 15SM FEW250 11/04 A2995 RMK CI1 CI TR SLP145

CYGK;2013-06-04 03:00;CYGK 040300Z 27009KT 15SM SKC 11/04 A2996 RMK LAST OBS/NEXT 041000 UTC SLP147

CYGK;2013-06-04 10:00;CYGK 041000Z 32007KT 15SM FEW230 07/05 A3003 RMK CI1 SLP169

CYGK;2013-06-04 11:00;CYGK 041100Z 31009KT 15SM FEW230 10/06 A3004 RMK CI1 SLP173

CYGK;2013-06-04 12:00;CYGK 041200Z 31013G18KT 15SM FEW020 FEW230 12/06 A3005 RMK CU1CI1 CU TR SLP179

CYGK;2013-06-04 13:00;CYGK 041300Z 32012G18KT 15SM FEW250 13/04 A3007 RMK CI1 SLP184

CYGK;2013-06-04 14:00;CYGK 041400Z 32014G19KT 15SM FEW020 FEW230 15/02 A3008 RMK CU1CI1 CU TR SLP188

CYGK;2013-06-04 15:00;CYGK 041500Z 31011KT 15SM FEW025 16/02 A3008 RMK CU1 CU TR SLP187

CYGK;2013-06-04 16:00;CYGK 041600Z 33013G19KT 15SM FEW025 17/02 A3008 RMK CU1 CU TR SLP189 DENSITY ALT 400FT

CYGK;2013-06-04 17:00;CYGK 041700Z 31005KT 15SM SKC 18/04 A3008 RMK SLP186 DENSITY ALT 500FT

CYGK;2013-06-04 18:00;CYGK 041800Z 18013KT 180V270 15SM FEW270 16/09 A3007 RMK CI1 SLP184

CYGK;2013-06-04 19:00;CYGK 041900Z 18013KT 15SM FEW250 15/10 A3008 RMK CI2 SLP186

CYGK;2013-06-04 20:00;CYGK 042000Z 19013KT 15SM FEW270 16/10 A3007 RMK CI1 SLP185

CYGK;2013-06-04 21:00;CYGK 042100Z 19010KT 15SM FEW250 16/11 A3006 RMK CI2 SLP182

CYGK;2013-06-04 22:00;CYGK 042200Z 23011KT 15SM BKN250 18/08 A3008 RMK CI6 SLP186 DENSITY ALT 500FT

CYGK;2013-06-04 23:00;CYGK 042300Z 24010G16KT 15SM BKN220 16/08 A3008 RMK CI7 SLP189

CYGK;2013-06-05 00:00;CYGK 050000Z 24012KT 15SM FEW160 BKN220 15/08 A3009 RMK AC1CI7 AC TR SLP191

CYGK;2013-06-05 01:00;CYGK 050100Z 26005KT 15SM FEW160 SCT180 BKN220 13/09 A3011 RMK AC1AS3CI4 AC TR SLP197

CYGK;2013-06-05 02:00;CYGK 050200Z 30004KT 15SM FEW160 SCT180 BKN220 12/08 A3013 RMK AC1AS3CI2 SLP203

CYGK;2013-06-05 03:00;CYGK 050300Z 32006KT 15SM SCT180 BKN220 12/07 A3014 RMK AC3CI2 LAST OBS/NEXT 051000 UTC SLP206

CYGK;2013-06-05 10:00;CYGK 051000Z 36006KT 15SM FEW210 08/05 A3021 RMK CI1 SLP231

CYGK;2013-06-05 11:00;CYGK 051100Z 02008KT 15SM FEW120 FEW210 11/05 A3022 RMK AC1CI1 AC TR SLP235

CYGK;2013-06-05 12:00;CYGK 051200Z 04007KT 15SM FEW120 FEW210 13/06 A3023 RMK AC1CI1 SLP239

CYGK;2013-06-05 13:00;CYGK 051300Z 05009KT 15SM FEW120 SCT210 15/05 A3023 RMK AC2CI1 SLP238

CYGK;2013-06-05 14:00;CYGK 051400Z 05008KT 15SM SCT160 SCT220 16/06 A3023 RMK AC3CI1 SLP239

CYGK;2013-06-05 15:00;CYGK 051500Z 03007KT 15SM BKN160 BKN200 17/05 A3024 RMK AC5CI1 SLP240

CYGK;2013-06-05 16:00;CYGK 051600Z 17007KT 15SM BKN160 BKN200 16/06 A3025 RMK AC6CI1 SLP243

CYGK;2013-06-05 17:00;CYGK 051700Z 19004KT 15SM BKN130 BKN200 16/06 A3023 RMK AC6CI1 SLP237

CYGK;2013-06-05 18:00;CYGK 051800Z 16007KT 15SM BKN120 BKN150 17/07 A3019 RMK AC5AC2 SLP223

CYGK;2013-06-05 19:00;CYGK 051900Z 19005KT 15SM BKN130 BKN160 BKN220 17/06 A3018 RMK AC5AC1CI1 SLP222

CYGK;2013-06-05 20:00;CYGK 052000Z 18003KT 15SM FEW030 FEW120 OVC140 17/06 A3018 RMK CF1AC1AC7 CF TR SLP220

CYGK;2013-06-05 21:00;CYGK 052100Z 18003KT 15SM FEW040 BKN140 OVC220 17/07 A3017 RMK CU1AC4CI3 SLP218

CYGK;2013-06-05 22:00;CYGK 052200Z 01007KT 15SM FEW040 FEW110 FEW140 OVC200 18/05 A3015 RMK CU1AC1AC1CI6 CU TR SLP212 DENSITY ALT 400FT

CYGK;2013-06-05 23:00;CYGK 052300Z 05006KT 15SM FEW040TCU SCT120 BKN160 BKN230 17/06 A3016 RMK TCU1AC4AC1CI2 TCU TR SLP214

CYGK;2013-06-06 00:00;CYGK 060000Z 05007KT 15SM FEW040TCU BKN120 BKN230 16/04 A3016 RMK TCU1AC6CI1 TCU TR SLP214

CYGK;2013-06-06 01:00;CYGK 060100Z 03007KT 15SM SCT120 SCT160 BKN230 15/05 A3015 RMK AC3AC1CI2 SLP211

CYGK;2013-06-06 02:00;CYGK 060200Z 04008KT 15SM FEW120 BKN240 13/05 A3015 RMK AC2CI3 SLP211

CYGK;2013-06-06 03:00;CYGK 060300Z 03007KT 15SM SCT170 BKN230 13/05 A3014 RMK AC4CI2 LAST OBS/NEXT 061000 UTC SLP208

CYGK;2013-06-06 10:00;CYGK 061000Z 06013G19KT 15SM BKN073 OVC230 14/06 A3007 RMK AC7CI1 SLP183

CYGK;2013-06-06 11:00;CYGK 061100Z 05013G18KT 15SM BKN069 OVC110 14/05 A3008 RMK AC6AC2 SLP185

CYGK;2013-06-06 12:00;CYGK 061200Z 04010G15KT 15SM BKN064 OVC110 14/06 A3007 RMK SC7AC1 SLP184

CYGK;2013-06-06 12:19;CYGK 061219Z 04010KT 15SM BKN062 OVC082 14/06 A3007 RMK SC6AC2 SLP184

CYGK;2013-06-06 13:00;CYGK 061300Z 04010KT 12SM -RA OVC065 14/07 A3009 RMK SC8 SLP190

CYGK;2013-06-06 14:00;CYGK 061400Z 06014G21KT 15SM OVC054 14/07 A3006 RMK SC8 PRESFR SLP181

CYGK;2013-06-06 15:00;CYGK 061500Z 05015G20KT 15SM OVC035 14/07 A3006 RMK SC8 SLP181

CYGK;2013-06-06 16:00;CYGK 061600Z 07010G18KT 15SM OVC026 14/07 A3007 RMK SC8 SLP183

CYGK;2013-06-06 16:15;CYGK 061615Z 07010KT 10SM -RA OVC025 14/08 A3007 RMK SC8 SLP183

CYGK;2013-06-06 17:00;CYGK 061700Z 06011KT 12SM OVC023 13/09 A3005 RMK SC8 SLP179

CYGK;2013-06-06 18:00;CYGK 061800Z 07011KT 6SM -RA BR OVC020 13/10 A3004 RMK NS8 SLP175

CYGK;2013-06-06 18:30;CYGK 061830Z 07010KT 4SM -RA BR OVC014 12/11 A3004 RMK SC8 SLP174

CYGK;2013-06-06 19:00;CYGK 061900Z 11010KT 3SM -RA BR SCT009 OVC015 13/12 A3005 RMK SF4SC4 SLP177

CYGK;2013-06-06 20:00;CYGK 062000Z 12007KT 4SM -RA BR FEW016 OVC036 13/12 A3004 RMK SF1SC7 SLP173

CYGK;2013-06-06 20:50;CYGK 062050Z 04009KT 3SM -RA BR BKN006 BKN013 OVC035 13/12 A3002 RMK SF5SC2SC1 SLP167

CYGK;2013-06-06 21:00;CYGK 062100Z 05009KT 3SM -RA BR BKN005 OVC015 13/12 A3002 RMK SF5SC3 SLP167

CYGK;2013-06-06 22:00;CYGK 062200Z 05008KT 3SM -RA BR BKN005 BKN016 OVC030 12/12 A3001 RMK SF6SC1SC1 SLP164

CYGK;2013-06-06 23:00;CYGK 062300Z 06011G16KT 4SM -RA BR BKN006 OVC017 12/12 A3000 RMK SF6SC2 SLP158

CYGK;2013-06-07 00:00;CYGK 070000Z 13010G17KT 4SM -RA BR BKN007 OVC016 13/13 A3000 RMK SF5SC3 SLP159

CYGK;2013-06-07 00:14;CYGK 070014Z 13010KT 5SM -RA BR SCT007 BKN015 OVC045 13/13 A2999 RMK SF3SC2SC3 SLP157

CYGK;2013-06-07 00:46;CYGK 070046Z 13010KT 4SM -RA BR BKN009 BKN015 OVC029 13/13 A2999 RMK SF5SC2SC1 SLP155

CYGK;2013-06-07 01:00;CYGK 070100Z 11008KT 4SM -RA BR BKN009 OVC020 13/13 A2998 RMK SF6SC2 SLP153

CYGK;2013-06-07 01:44;CYGK 070144Z 09009KT 6SM -RA BR SCT009 BKN015 OVC050 13/12 A2997 RMK SF3SC3SC2 SLP151

CYGK;2013-06-07 02:00;CYGK 070200Z 09010KT 6SM -RA BR SCT007 BKN014 OVC030 13/12 A2997 RMK SF4SC3SC1 SLP150

CYGK;2013-06-07 03:00;CYGK 070300Z 07007KT 5SM -RA BR FEW004 SCT008 OVC018 13/12 A2995 RMK SF1SF2SC5 LAST OBS/NEXT 071000 UTC SLP144

CYGK;2013-06-07 10:00;CYGK 071000Z 04006KT 1 1/2SM -RADZ BR BKN003 OVC006 13/13 A2986 RMK SF5ST3 SLP114

CYGK;2013-06-07 11:00;CYGK 071100Z 05006KT 1 1/2SM -RADZ BR BKN003 OVC011 13/13 A2987 RMK SF6SC2 CIG RAG SLP116

CYGK;2013-06-07 11:39;CYGK 071139Z 04007KT 2 1/2SM -DZ BR BKN004 OVC011 13/13 A2987 RMK SF5SC3 CIG RAG SLP115

CYGK;2013-06-07 12:00;CYGK 071200Z 04006KT 2 1/2SM -DZ BR BKN004 OVC009 13/13 A2987 RMK SF5SF3 CIG RAG SLP115

CYGK;2013-06-07 13:00;CYGK 071300Z 05007KT 2SM -DZ BR BKN003 OVC011 13/13 A2988 RMK SF6SF2 SLP120

CYGK;2013-06-07 13:47;CYGK 071347Z 05006KT 2 1/2SM -DZ BR BKN004 OVC011 14/13 A2988 RMK SF5SC3 SLP120

CYGK;2013-06-07 14:00;CYGK 071400Z 04006KT 3SM -DZ BR BKN004 OVC012 14/13 A2988 RMK SF5SC3 VIS N 2 SLP119

CYGK;2013-06-07 15:00;CYGK 071500Z 04006KT 2SM -DZ BR BKN003 OVC010 14/14 A2988 RMK SF5SC3 SLP119

CYGK;2013-06-07 16:00;CYGK 071600Z 04005KT 2 1/2SM -DZ BR BKN003 OVC010 15/14 A2989 RMK SF6SC2 SLP122 DENSITY ALT 400FT

CYGK;2013-06-07 17:00;CYGK 071700Z 03006KT 1 1/2SM -DZ BR BKN002 OVC014 15/15 A2988 RMK SF7SC1 SLP118 DENSITY ALT 400FT

CYGK;2013-06-07 17:48;CYGK 071748Z 06005KT 1 1/2SM -DZ BR BKN004 OVC010 16/15 A2987 RMK SF6SC2 SLP116 DENSITY ALT 500FT

CYGK;2013-06-07 18:00;CYGK 071800Z 06007KT 1 1/2SM -DZ BR BKN003 OVC010 16/15 A2987 RMK SF6SC2 SLP116 DENSITY ALT 400FT

CYGK;2013-06-07 18:51;CYGK 071851Z 06004KT 1SM -DZ BR OVC003 16/15 A2986 RMK SF8 SLP114 DENSITY ALT 500FT

CYGK;2013-06-07 19:00;CYGK 071900Z 05004KT 1SM -DZ BR BKN002 OVC008 16/16 A2986 RMK SF7SC1 SLP113 DENSITY ALT 500FT

CYGK;2013-06-07 20:00;CYGK 072000Z 09005KT 1SM -DZ BR VV002 16/16 A2986 RMK FG8 SLP111 DENSITY ALT 500FT

CYGK;2013-06-07 21:00;CYGK 072100Z 10002KT 1SM -DZ BR BKN003 OVC006 16/15 A2985 RMK FG3SF3SF2 SLP108 DENSITY ALT 500FT

CYGK;2013-06-07 22:00;CYGK 072200Z 06006KT 1SM BR VV002 16/15 A2985 RMK FG8 SLP108 DENSITY ALT 500FT

CYGK;2013-06-07 23:00;CYGK 072300Z 04006KT 2SM -RA BR OVC003 16/15 A2984 RMK FG4ST4 SLP105 DENSITY ALT 500FT

CYGK;2013-06-08 00:00;CYGK 080000Z 05006KT 1 1/2SM -RA BR OVC003 15/15 A2983 RMK FG3SF5 SLP103 DENSITY ALT 400FT

CYGK;2013-06-08 01:00;CYGK 080100Z 03007KT 3SM -RA BR OVC004 15/14 A2983 RMK SF8 SLP103 DENSITY ALT 400FT

CYGK;2013-06-08 02:00;CYGK 080200Z 02005KT 3SM PRFG BR SCT004 OVC009 15/14 A2984 RMK SF4SF4 SLP106 DENSITY ALT 400FT

CYGK;2013-06-08 03:00;CYGK 080300Z 02003KT 2SM -DZ BR OVC004 14/14 A2984 RMK FG3SF5 CIG RAG LAST OBS/NEXT 081000 UTC SLP106

CYGK;2013-06-08 10:00;CYGK 081000Z 35006KT 15SM BKN006 BKN040 13/13 A2984 RMK SF7SC1 SC TR SLP104

CYGK;2013-06-08 11:00;CYGK 081100Z 35008KT 15SM BKN007 13/13 A2986 RMK SF7 CIG RAG SLP112

CYGK;2013-06-08 12:00;CYGK 081200Z 33007KT 15SM FEW004 BKN007 BKN045 14/13 A2987 RMK SF1SF6SC1 SC TR SLP117

CYGK;2013-06-08 13:00;CYGK 081300Z 33005KT 15SM BKN010 BKN045 14/13 A2989 RMK SC6SC1 SLP124

CYGK;2013-06-08 13:06;CYGK 081306Z 33007KT 15SM FEW005 BKN010 14/13 A2989 RMK SF1SC6 SLP124

CYGK;2013-06-08 13:31;CYGK 081331Z 32006KT 15SM FEW005 BKN009 14/13 A2990 RMK SF1SF7 SF TR SLP127

CYGK;2013-06-08 14:00;CYGK 081400Z 02003KT 15SM FEW005 BKN009 15/13 A2991 RMK SF1SF7 SF TR SLP129

CYGK;2013-06-08 15:00;CYGK 081500Z 32003KT 15SM BKN009 OVC020 16/14 A2992 RMK SF6SC2 SLP133 DENSITY ALT 400FT

CYGK;2013-06-08 15:41;CYGK 081541Z 33004KT 15SM FEW009 BKN012 15/13 A2993 RMK SF1SC6 SLP135 DENSITY ALT 400FT

CYGK;2013-06-08 16:00;CYGK 081600Z 31003KT 15SM FEW009 BKN014 BKN020 16/13 A2993 RMK SF1SC5SC2 SF TR SLP137 DENSITY ALT 400FT

CYGK;2013-06-08 16:42;CYGK 081642Z 25004KT 15SM -SHRA BKN014 OVC022 15/14 A2993 RMK CU6SC2 SLP136

CYGK;2013-06-08 17:00;CYGK 081700Z 24007KT 15SM VCSH FEW009 BKN014 OVC022 15/14 A2993 RMK SF1CU6SC2 SF TR SH W SLP136

CYGK;2013-06-08 17:24;CYGK 081724Z 22006KT 15SM FEW009 SCT014 BKN021 16/14 A2993 RMK SF1SC4SC3 SF TR SLP137 DENSITY ALT 400FT

CYGK;2013-06-08 18:00;CYGK 081800Z 20008KT 12SM VCSH SCT010 OVC018 15/14 A2994 RMK CU3SC5 SLP141

CYGK;2013-06-08 19:00;CYGK 081900Z 20011KT 8SM FEW002 FEW010 BKN016 OVC025 14/14 A2996 RMK SF1SC1SC3SC3 VIS S 4 FG BNK OVR LK SLP145

CYGK;2013-06-08 19:33;CYGK 081933Z 20009KT 2SM BR BKN005 OVC010 14/13 A2997 RMK SF5SC3 SLP149

CYGK;2013-06-08 20:00;CYGK 082000Z 20006KT 2SM BR FEW002 BKN005 OVC010 14/14 A2997 RMK SF2SF3SC3 SLP149

CYGK;2013-06-08 20:08;CYGK 082008Z 19006KT 3SM BR FEW002 BKN006 OVC010 14/14 A2997 RMK SF1SF4SC3 SLP150

CYGK;2013-06-08 20:15;CYGK 082015Z 19005KT 2SM -DZ BR BKN006 BKN010 OVC018 14/14 A2997 RMK SF5ST2SC1 SLP149

CYGK;2013-06-08 21:00;CYGK 082100Z 20004KT 3SM -DZ BR FEW002 BKN004 OVC012 15/15 A2997 RMK SF2ST4SC2 SLP151

CYGK;2013-06-08 21:27;CYGK 082127Z 17005KT 15SM FEW002 SCT005 BKN020 OVC065 14/14 A2998 RMK SF1SF2SC2SC3 SLP152

CYGK;2013-06-08 22:00;CYGK 082200Z 18005KT 15SM SCT005 BKN025 OVC065 14/13 A2998 RMK SF3SC2SC3 SLP153

CYGK;2013-06-08 23:00;CYGK 082300Z 19007KT 15SM SCT010 OVC065 14/13 A2999 RMK CU3SC5 SLP156

CYGK;2013-06-09 00:00;CYGK 090000Z 20006KT 15SM BKN015 OVC065 13/13 A3001 RMK SC5SC3 SLP162

CYGK;2013-06-09 01:00;CYGK 090100Z 23006KT 15SM SCT015 SCT025 OVC070 14/13 A3002 RMK CU3SC1AC4 SLP165

CYGK;2013-06-09 02:00;CYGK 090200Z 18005KT 15SM FEW020 OVC075 13/12 A3004 RMK SC2AC6 SLP174

CYGK;2013-06-09 03:00;CYGK 090300Z 18008KT 15SM SCT055 OVC075 13/12 A3005 RMK SC3AC5 LAST OBS/NEXT 091000 UTC SLP176

CYGK;2013-06-09 10:00;CYGK 091000Z 25005KT 8SM MIFG FEW005 FEW040 SCT270 12/11 A3010 RMK SF1SC1CI3 SF TR SLP194

CYGK;2013-06-09 11:00;CYGK 091100Z 27006KT 12SM FEW005 FEW073 SCT270 13/13 A3013 RMK SF1AC2CI2 SF TR SLP203

CYGK;2013-06-09 12:00;CYGK 091200Z 27008KT 15SM FEW010 FEW040 SCT077 BKN270 16/13 A3014 RMK ST1SC1AC2CI2 ST TR SLP208

CYGK;2013-06-09 13:00;CYGK 091300Z 29005KT 15SM FEW015 FEW080 FEW270 17/14 A3016 RMK CF1AC1CI1 CF TR SLP214

CYGK;2013-06-09 14:00;CYGK 091400Z 30006KT 15SM FEW020 FEW080 SCT270 19/14 A3016 RMK CF1AC1CI3 CF TR SLP213 DENSITY ALT 500FT

CYGK;2013-06-09 15:00;CYGK 091500Z 17011KT 160V220 15SM FEW020 FEW100 BKN270 17/14 A3017 RMK CF1AC1CI4 SLP217

CYGK;2013-06-09 16:00;CYGK 091600Z 18010KT 15SM FEW030 SCT100 BKN220 17/15 A3017 RMK CU2AC1CI2 SLP219

CYGK;2013-06-09 17:00;CYGK 091700Z 19011KT 15SM FEW030 FEW100 SCT220 18/14 A3017 RMK CU2AC1CI2 AC TR SLP217 DENSITY ALT 400FT

CYGK;2013-06-09 18:00;CYGK 091800Z 18009KT 15SM SCT030 BKN250 18/15 A3016 RMK CU3CI2 SLP215 DENSITY ALT 500FT

CYGK;2013-06-09 19:00;CYGK 091900Z 19011G16KT 15SM FEW030 SCT250 17/14 A3016 RMK CU1CI2 SLP214

CYGK;2013-06-09 20:00;CYGK 092000Z 19011KT 15SM FEW035 SCT250 18/14 A3016 RMK CU2CI2 SLP213 DENSITY ALT 400FT

CYGK;2013-06-09 21:00;CYGK 092100Z 20010KT 15SM FEW035 SCT250 20/14 A3015 RMK SF2CI1 SLP209 DENSITY ALT 600FT

CYGK;2013-06-09 22:00;CYGK 092200Z 19009KT 15SM FEW035 SCT250 20/14 A3015 RMK CU1CI2 SLP211 DENSITY ALT 700FT

CYGK;2013-06-09 23:00;CYGK 092300Z 23004KT 15SM SCT250 20/13 A3015 RMK CI3 SLP209 DENSITY ALT 700FT

CYGK;2013-06-10 00:00;CYGK 100000Z 00000KT 15SM SCT250 18/14 A3016 RMK CI3 SLP212 DENSITY ALT 400FT

CYGK;2013-06-10 01:00;CYGK 100100Z 15004KT 15SM SCT250 14/12 A3016 RMK CI4 SLP213

CYGK;2013-06-10 02:00;CYGK 100200Z 12002KT 15SM SCT250 13/12 A3018 RMK CI4 SLP219

CYGK;2013-06-10 03:00;CYGK 100300Z 00000KT 15SM SCT250 12/11 A3018 RMK CI4 SLP220

CYGK;2013-06-10 10:00;CYGK 101000Z 03005KT 15SM SCT140 BKN240 13/12 A3011 RMK AC3CI4 SLP198

CYGK;2013-06-10 11:00;CYGK 101100Z 05006KT 15SM SCT140 OVC220 14/13 A3010 RMK AC3CI5 SLP194

CYGK;2013-06-10 12:00;CYGK 101200Z 06006KT 15SM SCT110 OVC220 16/14 A3009 RMK AC3CI5 SLP189

CYGK;2013-06-10 13:00;CYGK 101300Z 07007KT 15SM FEW110 BKN200 BKN240 19/14 A3008 RMK AC2CI4CC1 SLP186 DENSITY ALT 600FT

CYGK;2013-06-10 14:00;CYGK 101400Z 07009KT 15SM BKN180 OVC240 20/15 A3006 RMK AC6CI2 SLP181 DENSITY ALT 800FT

CYGK;2013-06-10 15:00;CYGK 101500Z 09009KT 15SM FEW050 FEW110 OVC200 21/15 A3005 RMK SC1AC1CS7 SC TR SLP176 DENSITY ALT 900FT

CYGK;2013-06-10 16:00;CYGK 101600Z 08009KT 15SM FEW060 OVC160 22/15 A3004 RMK SC1AC7 SLP173 DENSITY ALT 900FT

CYGK;2013-06-10 17:00;CYGK 101700Z 15006KT 15SM -RA BKN035 BKN110 OVC200 21/16 A3003 RMK SC5AC2CS1 SLP171 DENSITY ALT 900FT

CYGK;2013-06-10 18:00;CYGK 101800Z 13007KT 5SM -RA BR BKN027 OVC110 18/17 A3002 RMK SC5AS3 SLP165 DENSITY ALT 600FT

CYGK;2013-06-10 19:00;CYGK 101900Z 12008KT 8SM -RA SCT027 OVC050 19/17 A2999 RMK SC3NS5 SLP156 DENSITY ALT 700FT

CYGK;2013-06-10 20:00;CYGK 102000Z 12008KT 8SM FEW025 BKN061 OVC110 19/17 A2997 RMK SC1SC5AS2 SLP150 DENSITY ALT 700FT

CYGK;2013-06-10 21:00;CYGK 102100Z 09010G16KT 5SM -RA BR FEW018 BKN050 OVC065 19/17 A2995 RMK SC1SC6SC1 SLP142 DENSITY ALT 800FT

CYGK;2013-06-10 21:19;CYGK 102119Z 08009KT 5SM -RA BR FEW009 SCT025 OVC035 19/18 A2994 RMK SF1SC3SC4 SLP139 DENSITY ALT 700FT

CYGK;2013-06-10 22:00;CYGK 102200Z 08010KT 5SM -RA BR FEW009 BKN027 OVC050 18/17 A2992 RMK SF1SC5SC2 SLP133 DENSITY ALT 700FT

CYGK;2013-06-10 23:00;CYGK 102300Z 08012KT 4SM -RA BR FEW008 BKN030 OVC050 18/17 A2991 RMK SF2SC3SC3 SLP128 DENSITY ALT 600FT

CYGK;2013-06-11 00:00;CYGK 110000Z 08012G18KT 4SM -RA BR SCT005 OVC026 17/16 A2988 RMK SF4SC4 SLP119 DENSITY ALT 600FT

CYGK;2013-06-11 00:17;CYGK 110017Z 08012G19KT 2 1/2SM -RA BR BKN006 OVC025 17/16 A2988 RMK SF5SC3 SLP117 DENSITY ALT 600FT

CYGK;2013-06-11 01:00;CYGK 110100Z 07014G23KT 2 1/2SM -RA BR BKN006 OVC030 17/16 A2985 RMK SF6SC2 CIG RAG SLP110 DENSITY ALT 600FT

CYGK;2013-06-11 01:13;CYGK 110113Z 08017KT 4SM -RA BR BKN006 OVC022 17/16 A2985 RMK SF6SC2 CIG RAG SLP109 DENSITY ALT 600FT

CYGK;2013-06-11 02:00;CYGK 110200Z 06013G19KT 4SM -RA BR BKN006 OVC021 16/16 A2984 RMK SF7SC1 SLP104 DENSITY ALT 600FT

CYGK;2013-06-11 03:00;CYGK 110300Z 07011G18KT 5SM -RA BR BKN006 OVC015 16/16 A2981 RMK SF7SC1 LAST OBS/NEXT 111000UTC SLP094 DENSITY ALT 600FT

CYGK;2013-06-11 10:00;CYGK 111000Z 06006KT 2SM -DZ BR OVC004 16/16 A2966 RMK SF8 SLP044 DENSITY ALT 700FT

CYGK;2013-06-11 10:16;CYGK 111016Z 06007KT 1 1/2SM -DZ BR OVC004 16/16 A2966 RMK SF8 SLP044 DENSITY ALT 700FT

CYGK;2013-06-11 11:00;CYGK 111100Z 07009KT 1 1/4SM -DZ BR OVC004 16/16 A2966 RMK SF8 CIG RAG SLP043 DENSITY ALT 700FT

CYGK;2013-06-11 11:51;CYGK 111151Z 07008KT 2SM -DZ BR BKN005 OVC013 16/16 A2965 RMK SF6SC2 SLP039 DENSITY ALT 800FT

CYGK;2013-06-11 12:00;CYGK 111200Z 07009KT 2SM -DZ BR BKN004 OVC014 16/16 A2965 RMK SF7SC1 SLP039 DENSITY ALT 700FT

CYGK;2013-06-11 12:08;CYGK 111208Z 07009KT 2 1/2SM -RA BR BKN005 OVC013 16/16 A2965 RMK SF6SC2 SLP039 DENSITY ALT 700FT

CYGK;2013-06-11 12:43;CYGK 111243Z 07009KT 1 1/2SM -RA BR BKN005 OVC013 16/16 A2964 RMK SF6SC2 SLP038 DENSITY ALT 800FT

CYGK;2013-06-11 13:00;CYGK 111300Z 06008KT 1 1/2SM -RA BR FEW004 BKN006 OVC011 16/16 A2964 RMK SF1SF5SC2 SLP037 DENSITY ALT 800FT

CYGK;2013-06-11 13:24;CYGK 111324Z 06010KT 2 1/2SM -DZ BR BKN005 OVC016 16/16 A2963 RMK SF7SC1 CIG RAG SLP035 DENSITY ALT 800FT

CYGK;2013-06-11 13:50;CYGK 111350Z 05006KT 1 1/2SM -RA BR BKN004 OVC010 16/16 A2963 RMK SF7SC1 SLP033 DENSITY ALT 800FT

CYGK;2013-06-11 14:00;CYGK 111400Z 05009KT 1 1/2SM -RA BR BKN004 OVC010 16/16 A2963 RMK SF7SC1 SLP033 DENSITY ALT 800FT

CYGK;2013-06-11 14:34;CYGK 111434Z 02008KT 1 1/2SM -DZ BR BKN005 OVC010 16/16 A2963 RMK SF6ST2 SLP032 DENSITY ALT 800FT

CYGK;2013-06-11 14:54;CYGK 111454Z 02010G16KT 2SM -RA BR BKN005 OVC010 16/15 A2963 RMK SF5ST3 SLP033 DENSITY ALT 700FT

CYGK;2013-06-11 15:00;CYGK 111500Z 02007G16KT 2SM -RA BR BKN005 OVC010 16/15 A2963 RMK SF5ST3 SLP033 DENSITY ALT 700FT

CYGK;2013-06-11 15:14;CYGK 111514Z 02008KT 3SM -RA BR BKN007 OVC032 16/15 A2963 RMK SF6SC2 SLP032 DENSITY ALT 700FT

CYGK;2013-06-11 16:00;CYGK 111600Z 01011KT 12SM -DZ BKN008 OVC011 16/15 A2963 RMK SF7ST1 SLP032 DENSITY ALT 800FT

CYGK;2013-06-11 16:26;CYGK 111626Z 35010G16KT 12SM SCT008 OVC011 17/16 A2963 RMK SF4SC4 INTMT -DZ SLP034 DENSITY ALT 900FT

CYGK;2013-06-11 16:46;CYGK 111646Z 35013KT 15SM FEW008 OVC012 17/15 A2964 RMK SF2SC6 SLP038 DENSITY ALT 900FT

CYGK;2013-06-11 17:00;CYGK 111700Z 35010G18KT 15SM OVC012 17/15 A2965 RMK SC8 SLP040 DENSITY ALT 800FT

CYGK;2013-06-11 17:28;CYGK 111728Z 35011KT 15SM -DZ BKN011 OVC018 17/15 A2965 RMK SC6SC2 SLP041 DENSITY ALT 800FT

CYGK;2013-06-11 18:00;CYGK 111800Z 35009KT 15SM -DZ BKN012 BKN030 OVC075 18/16 A2965 RMK SC6SC1AC1 -DZ INTMT SLP041 DENSITY ALT 1000FT

CYGK;2013-06-11 18:27;CYGK 111827Z 36010G17KT 15SM BKN016 OVC070 19/16 A2966 RMK SC6AC2 SLP042 DENSITY ALT 1000FT

CYGK;2013-06-11 19:00;CYGK 111900Z 35009G18KT 15SM BKN020 BKN040 OVC070 18/15 A2966 RMK SC5SC2AC1 SLP044 DENSITY ALT 1000FT

CYGK;2013-06-11 19:50;CYGK 111950Z 34014KT 15SM -SHRA BKN016 BKN040 18/15 A2968 RMK CU5SC2 SLP050 DENSITY ALT 900FT

CYGK;2013-06-11 20:00;CYGK 112000Z 34011G17KT 15SM BKN016 BKN040 17/15 A2968 RMK CU5SC2 OCNL -SHRA SLP051 DENSITY ALT 900FT

CYGK;2013-06-11 20:28;CYGK 112028Z 34011KT 15SM VCSH BKN016 BKN047 18/15 A2968 RMK CU5SC2 SLP051 DENSITY ALT 900FT

CYGK;2013-06-11 20:40;CYGK 112040Z 33017KT 15SM -SHRA BKN018 BKN038 18/14 A2969 RMK CU6SC1 SLP053 DENSITY ALT 900FT

CYGK;2013-06-11 21:00;CYGK 112100Z 35014G21KT 15SM -SHRA BKN018 BKN036 17/14 A2969 RMK CU6SC1 VIS N 5 SLP054 DENSITY ALT 800FT

CYGK;2013-06-11 22:00;CYGK 112200Z 35012G18KT 15SM VCSH FEW015 SCT030 BKN055 17/14 A2971 RMK CU2SC2SC1 SLP060 DENSITY ALT 800FT

CYGK;2013-06-11 23:00;CYGK 112300Z 33007KT 15SM VCSH FEW017 SCT035 SCT060 17/14 A2973 RMK CU2SC1SC1 SLP067 DENSITY ALT 700FT

CYGK;2013-06-11 23:53;CYGK 112353Z 34007KT 15SM -SHRA SCT018 BKN035 16/13 A2974 RMK CU4SC3 SLP072 DENSITY ALT 600FT

CYGK;2013-06-12 00:00;CYGK 120000Z 34012KT 15SM VCSH SCT017 BKN035 16/13 A2974 RMK CU4SC3 SLP072 DENSITY ALT 600FT

CYGK;2013-06-12 01:00;CYGK 120100Z 32010KT 15SM VCSH SCT017 SCT035 15/13 A2976 RMK SC3SC1 SLP077 DENSITY ALT 500FT

CYGK;2013-06-12 02:00;CYGK 120200Z 34010KT 15SM FEW017 FEW035 14/12 A2977 RMK SC1SC1 SLP083 DENSITY ALT 400FT

CYGK;2013-06-12 03:00;CYGK 120300Z 31006KT 15SM SCT017 13/12 A2980 RMK SC4 LAST OBS/NEXT 121000UTC SLP090

CYGK;2013-06-12 10:00;CYGK 121000Z 33007KT 15SM FEW040 FEW240 12/11 A2987 RMK SC1CI1 SC TR SLP116

CYGK;2013-06-12 11:00;CYGK 121100Z 35005KT 15SM FEW040 FEW240 13/12 A2988 RMK SC1CI1 SC TR SLP120

CYGK;2013-06-12 12:00;CYGK 121200Z 35007KT 15SM FEW020 FEW240 16/12 A2990 RMK CU1CI1 CU TR SLP125 DENSITY ALT 500FT

CYGK;2013-06-12 13:00;CYGK 121300Z 01006KT 15SM FEW023 FEW250 18/13 A2990 RMK CF1CI1 CF TR CI TR SLP125 DENSITY ALT 600FT

CYGK;2013-06-12 14:00;CYGK 121400Z 35008KT 15SM FEW025 19/13 A2991 RMK CF1 CF TR SLP128 DENSITY ALT 800FT

CYGK;2013-06-12 15:00;CYGK 121500Z 16008KT 020V160 15SM FEW038 19/12 A2991 RMK CF1 SLP129 DENSITY ALT 800FT

CYGK;2013-06-12 16:00;CYGK 121600Z 18009KT 15SM FEW037 18/13 A2992 RMK SF1 SLP132 DENSITY ALT 700FT

CYGK;2013-06-12 17:00;CYGK 121700Z 19012KT 15SM FEW040 18/14 A2992 RMK CU1 SLP131 DENSITY ALT 700FT

CYGK;2013-06-12 18:00;CYGK 121800Z 19012KT 15SM FEW040 18/13 A2989 RMK CU1 SLP122 DENSITY ALT 700FT

CYGK;2013-06-12 19:00;CYGK 121900Z 21012KT 15SM FEW040 18/13 A2988 RMK CU1 SLP118 DENSITY ALT 800FT

CYGK;2013-06-12 20:00;CYGK 122000Z 21009KT 15SM FEW040 20/13 A2987 RMK CU1 SLP115 DENSITY ALT 900FT

CYGK;2013-06-12 21:00;CYGK 122100Z 21010KT 15SM FEW040 20/13 A2986 RMK CU1 SLP113 DENSITY ALT 900FT

CYGK;2013-06-12 22:00;CYGK 122200Z 23011G16KT 15SM FEW040 SCT140 SCT230 20/11 A2986 RMK CU1AC2CI1 SLP111 DENSITY ALT 1000FT

CYGK;2013-06-12 23:00;CYGK 122300Z 19009KT 15SM FEW040 FEW140 SCT230 18/13 A2984 RMK CU1AC2CI2 CU TR SLP106 DENSITY ALT 700FT

CYGK;2013-06-13 00:00;CYGK 130000Z 19005KT 15SM FEW040 FEW100 FEW230 16/12 A2984 RMK CU1AC1CI1 CU TR SLP104 DENSITY ALT 600FT

CYGK;2013-06-13 01:00;CYGK 130100Z 25002KT 15SM FEW040 FEW100 FEW230 15/11 A2984 RMK SC1AC1CI1 SC TR SLP106 DENSITY ALT 400FT

CYGK;2013-06-13 02:00;CYGK 130200Z 00000KT 15SM FEW040 FEW100 FEW220 14/11 A2984 RMK SC1AC1CI1 SC TR SLP104

CYGK;2013-06-13 03:00;CYGK 130300Z 19004KT 15SM FEW100 13/11 A2982 RMK AC1 LAST OBS/NEXT 131000UTC SLP098

CYGK;2013-06-13 10:00;CYGK 131000Z 05007KT 15SM FEW100 BKN170 BKN200 13/12 A2969 RMK AC1AC5CI1 SLP054 DENSITY ALT 400FT

CYGK;2013-06-13 11:00;CYGK 131100Z 05007KT 15SM FEW095 BKN160 OVC200 14/12 A2968 RMK AC1AC5CI2 SLP050 DENSITY ALT 400FT

CYGK;2013-06-13 12:00;CYGK 131200Z 06009KT 15SM SCT085 BKN140 OVC200 14/12 A2967 RMK AC3AC3CI2 SLP048 DENSITY ALT 500FT

CYGK;2013-06-13 12:32;CYGK 131232Z 05008KT 15SM -SHRA FEW090 BKN120 OVC200 15/13 A2967 RMK AC2AC5CI1 SLP048 DENSITY ALT 600FT

CYGK;2013-06-13 13:00;CYGK 131300Z 03007KT 15SM -SHRA FEW090 OVC130 15/13 A2967 RMK AC2AC6 SLP047 DENSITY ALT 700FT

CYGK;2013-06-13 14:00;CYGK 131400Z 07010KT 15SM -SHRA SCT100 BKN140 OVC200 16/13 A2966 RMK AC4AC3CI1 SLP043 DENSITY ALT 800FT

CYGK;2013-06-13 15:00;CYGK 131500Z 07008KT 15SM -SHRA FEW090 OVC120 18/14 A2966 RMK AC1AC8 AC TR SLP043 DENSITY ALT 900FT

CYGK;2013-06-13 15:27;CYGK 131527Z 07008KT 15SM FEW090 BKN110 OVC200 18/14 A2967 RMK AC1AC7CI1 AC TR SLP047 DENSITY ALT 900FT

CYGK;2013-06-13 16:00;CYGK 131600Z 08011G17KT 15SM FEW060 BKN090 OVC140 17/13 A2967 RMK CF1AC7AC1 CF TR SLP047 DENSITY ALT 900FT

CYGK;2013-06-13 16:25;CYGK 131625Z 09009G16KT 15SM -RA FEW030 BKN060 OVC090 17/14 A2967 RMK SC1SC5AC3 SC TR SLP047 DENSITY ALT 900FT

CYGK;2013-06-13 17:00;CYGK 131700Z 07011KT 15SM -RA FEW030 SCT060 OVC090 17/14 A2967 RMK SC1SC4AC4 SC TR SLP047 DENSITY ALT 800FT

CYGK;2013-06-13 18:00;CYGK 131800Z 07009KT 12SM -RA FEW040 OVC090 16/14 A2967 RMK SC2AC6 SLP049 DENSITY ALT 800FT

CYGK;2013-06-13 19:00;CYGK 131900Z 08009KT 12SM -RA FEW040 OVC060 17/13 A2967 RMK SC1SC7 SLP049 DENSITY ALT 800FT

CYGK;2013-06-13 20:00;CYGK 132000Z 09007G16KT 12SM -RA FEW028 OVC070 17/13 A2970 RMK SC2AC6 SLP057 DENSITY ALT 800FT

CYGK;2013-06-13 21:00;CYGK 132100Z 11004KT 15SM -RA FEW028 BKN047 OVC100 16/14 A2971 RMK SC2SC4AC2 SLP061 DENSITY ALT 700FT

CYGK;2013-06-13 21:38;CYGK 132138Z 11003KT 15SM FEW030 SCT060 BKN120 BKN230 17/13 A2971 RMK SC2SC2AC2CI1 SLP062 DENSITY ALT 800FT

CYGK;2013-06-13 22:00;CYGK 132200Z 11003KT 15SM FEW030 SCT060 BKN120 BKN180 18/13 A2971 RMK SC2SC2AC2CI1 SLP063 DENSITY ALT 900FT

CYGK;2013-06-13 22:50;CYGK 132250Z 14002KT 15SM -RA SCT053 BKN120 BKN180 17/14 A2972 RMK SC4AC3CI1 CI TR SLP066 DENSITY ALT 800FT

CYGK;2013-06-13 23:00;CYGK 132300Z 18002KT 15SM -RA SCT053 BKN120 BKN180 17/14 A2973 RMK SC4AC3CI1 CI TR SLP067 DENSITY ALT 700FT

CYGK;2013-06-14 00:00;CYGK 140000Z VRB02KT 15SM -RA BKN055 BKN120 17/14 A2975 RMK SC5AC2 SLP074 DENSITY ALT 700FT

CYGK;2013-06-14 00:37;CYGK 140037Z 17004KT 15SM SCT060 BKN120 BKN180 15/14 A2975 RMK SC4AC1CI1 SLP075 DENSITY ALT 600FT

CYGK;2013-06-14 01:00;CYGK 140100Z 29002KT 15SM FEW030 FEW060 FEW120 BKN200 15/14 A2975 RMK SC1SC2AC1CI3 SC TR AC TR SLP076 DENSITY ALT 500FT

CYGK;2013-06-14 02:00;CYGK 140200Z 34003KT 15SM FEW060 SCT200 13/12 A2977 RMK SC2CI1 SLP083

CYGK;2013-06-14 03:00;CYGK 140300Z 32005KT 15SM FEW060 12/12 A2978 RMK SC1 LAST OBS/NEXT 141000 UTC SLP084

CYGK;2013-06-14 10:00;CYGK 141000Z 34007KT 15SM FEW110 13/12 A2980 RMK AC2 SLP091

CYGK;2013-06-14 11:00;CYGK 141100Z 36007KT 15SM FEW090 14/13 A2981 RMK AC1 SLP095 DENSITY ALT 400FT

CYGK;2013-06-14 12:00;CYGK 141200Z 36011KT 15SM FEW090 17/14 A2983 RMK AC1 SLP102 DENSITY ALT 600FT

CYGK;2013-06-14 13:00;CYGK 141300Z 01015KT 15SM FEW015 BKN110 18/14 A2985 RMK CF1AC5 CF TR SLP108 DENSITY ALT 800FT

CYGK;2013-06-14 14:00;CYGK 141400Z 01012G19KT 15SM FEW015 BKN110 19/14 A2986 RMK CF1AC5 CF TR SLP111 DENSITY ALT 800FT

CYGK;2013-06-14 15:00;CYGK 141500Z 36012KT 15SM FEW025 FEW100 20/14 A2987 RMK CF1AC1 CF TR SLP115 DENSITY ALT 1000FT

CYGK;2013-06-14 16:00;CYGK 141600Z 34011KT 15SM FEW025 FEW250 22/13 A2987 RMK CF1CI1 CF TR SLP115 DENSITY ALT 1100FT

CYGK;2013-06-14 17:00;CYGK 141700Z 34011G17KT 15SM FEW040 23/13 A2987 RMK CU1 SLP115 DENSITY ALT 1300FT

CYGK;2013-06-14 18:00;CYGK 141800Z 32012KT 15SM FEW048 24/13 A2987 RMK CU2 SLP116 DENSITY ALT 1400FT

CYGK;2013-06-14 19:00;CYGK 141900Z 36008G15KT 15SM SCT050 24/12 A2988 RMK CU3 SLP118 DENSITY ALT 1400FT

CYGK;2013-06-14 20:00;CYGK 142000Z 34013G18KT 15SM SCT057 25/13 A2988 RMK CU3 SLP118 DENSITY ALT 1500FT

CYGK;2013-06-14 21:00;CYGK 142100Z 35008KT 15SM FEW060 24/12 A2988 RMK CU2 SLP119 DENSITY ALT 1400FT

CYGK;2013-06-14 22:00;CYGK 142200Z 35012G19KT 12SM FEW062 23/07 A2988 RMK CU1 SLP118 DENSITY ALT 1300FT

CYGK;2013-06-14 22:14;CYGK 142214Z 34015KT 8SM FEW062 23/06 A2988 RMK CU1 HAZE SLP120 DENSITY ALT 1300FT

CYGK;2013-06-14 23:00;CYGK 142300Z 35010KT 8SM SKC 22/06 A2989 RMK HZ2 SLP122 DENSITY ALT 1200FT

CYGK;2013-06-15 00:00;CYGK 150000Z 36005KT 10SM SCT240 19/08 A2991 RMK CI4 SLP127 DENSITY ALT 900FT

CYGK;2013-06-15 01:00;CYGK 150100Z 34004KT 12SM BKN240 17/09 A2991 RMK CI5 SLP130 DENSITY ALT 500FT

CYGK;2013-06-15 02:00;CYGK 150200Z 35005KT 12SM SCT240 16/09 A2993 RMK CI4 SLP134 DENSITY ALT 400FT

CYGK;2013-06-15 03:00;CYGK 150300Z 34006KT 15SM SCT240 14/09 A2994 RMK CI3 LAST OBS/NEXT 151000 UTC SLP137

CYGK;2013-06-15 10:00;CYGK 151000Z 35008KT 15SM SKC 09/07 A2998 RMK SLP152

CYGK;2013-06-15 11:00;CYGK 151100Z 34006KT 15SM FEW230 12/09 A3000 RMK CI1 CI TR SLP158

CYGK;2013-06-15 12:00;CYGK 151200Z 21003KT 15SM FEW230 15/10 A3002 RMK CI1 SLP165

CYGK;2013-06-15 13:00;CYGK 151300Z 19002KT 15SM SCT250 16/10 A3002 RMK CI3 SLP166 DENSITY ALT 400FT

CYGK;2013-06-15 14:00;CYGK 151400Z 21003KT 15SM SCT250 18/12 A3002 RMK CI3 SLP167 DENSITY ALT 600FT

CYGK;2013-06-15 15:00;CYGK 151500Z 19007KT 15SM FEW030 FEW250 19/11 A3002 RMK CU1CI1 SLP167 DENSITY ALT 600FT

CYGK;2013-06-15 16:00;CYGK 151600Z 19012KT 15SM FEW062 SCT250 19/12 A3001 RMK CU2CI1 SLP164 DENSITY ALT 600FT

CYGK;2013-06-15 17:00;CYGK 151700Z 19013KT 15SM FEW070 SCT250 18/13 A2999 RMK CU2CI1 SLP157 DENSITY ALT 600FT

CYGK;2013-06-15 18:00;CYGK 151800Z 19014G20KT 15SM FEW075 FEW250 19/13 A2997 RMK CU1CI1 SLP150 DENSITY ALT 700FT

CYGK;2013-06-15 19:00;CYGK 151900Z 19012G18KT 15SM SCT070 BKN250 21/12 A2996 RMK CU4CI1 SLP147 DENSITY ALT 1000FT

CYGK;2013-06-15 20:00;CYGK 152000Z 23015G20KT 15SM FEW070 FEW250 22/10 A2995 RMK CU1CI1 SLP143 DENSITY ALT 1100FT

CYGK;2013-06-15 21:00;CYGK 152100Z 24010KT 15SM FEW075 FEW180 FEW250 21/11 A2994 RMK CU1AC1CI2 CU TR AC TR SLP140 DENSITY ALT 1000FT

CYGK;2013-06-15 22:00;CYGK 152200Z 24010KT 15SM FEW075 FEW250 20/10 A2993 RMK CF1CI2 CF TR SLP137 DENSITY ALT 900FT

CYGK;2013-06-15 23:00;CYGK 152300Z 23013KT 15SM FEW080 FEW180 SCT250 20/09 A2994 RMK AC1AC1CI3 AC TR AC TR SLP140 DENSITY ALT 900FT

CYGK;2013-06-16 00:00;CYGK 160000Z 23009KT 15SM FEW140 BKN250 18/10 A2994 RMK AC1CI4 SLP139 DENSITY ALT 700FT

CYGK;2013-06-16 01:00;CYGK 160100Z 23007KT 15SM BKN140 BKN160 17/09 A2994 RMK AC5AC2 SLP138 DENSITY ALT 600FT

CYGK;2013-06-16 02:00;CYGK 160200Z 22005KT 15SM BKN130 17/11 A2994 RMK AC7 SLP140 DENSITY ALT 500FT

CYGK;2013-06-16 03:00;CYGK 160300Z 23006KT 15SM BKN120 17/10 A2993 RMK AC7 LAST OBS/NEXT 161000 UTC SLP136 DENSITY ALT 500FT

CYGK;2013-06-16 10:00;CYGK 161000Z 19007KT 8SM FEW120 SCT160 BKN250 14/13 A2985 RMK AC2AC2CI2 SLP108

CYGK;2013-06-16 11:00;CYGK 161100Z 17009KT 10SM SCT060 BKN080 OVC100 15/14 A2984 RMK SC3AC3AC2 SLP106 DENSITY ALT 400FT

CYGK;2013-06-16 11:47;CYGK 161147Z 16009KT 10SM -SHRA SCT044 BKN060 OVC080 15/14 A2982 RMK CU3SC2AC3 SLP100 DENSITY ALT 500FT

CYGK;2013-06-16 12:00;CYGK 161200Z 16007KT 10SM -SHRA SCT044 OVC075 15/14 A2982 RMK CU4AC4 SLP098 DENSITY ALT 500FT

CYGK;2013-06-16 13:00;CYGK 161300Z 17004KT 10SM -SHRA FEW035 BKN085 OVC160 15/14 A2981 RMK SC2AC5AC1 SLP094 DENSITY ALT 500FT

CYGK;2013-06-16 14:00;CYGK 161400Z 15005KT 10SM -SHRA FEW035 BKN075 OVC100 15/14 A2977 RMK SC2AC4AS2 SLP080 DENSITY ALT 500FT

CYGK;2013-06-16 15:00;CYGK 161500Z 16005KT 6SM -SHRA BR FEW025 BKN069 OVC100 15/14 A2974 RMK SC1AC6AS1 SLP072 DENSITY ALT 600FT

CYGK;2013-06-16 15:33;CYGK 161533Z 17004KT 4SM RA BR FEW035 OVC040 15/14 A2972 RMK SC2NS6 SLP066 DENSITY ALT 600FT

CYGK;2013-06-16 15:41;CYGK 161541Z 29006KT 170V290 4SM RA BR BKN015 BKN040 15/14 A2975 RMK NS6SC1 PRESRR SLP075 DENSITY ALT 500FT

CYGK;2013-06-16 15:45;CYGK 161545Z 25004KT 200V290 2SM RA BR OVC015 15/14 A2975 RMK NS8 PRESRR SLP075 DENSITY ALT 500FT

CYGK;2013-06-16 16:00;CYGK 161600Z 17005KT 2SM RA BR FEW009 BKN015 OVC020 15/14 A2973 RMK SF1SC4NS3 PRESFR SLP067 DENSITY ALT 500FT

CYGK;2013-06-16 16:19;CYGK 161619Z 16003KT 2SM RA BR BKN007 OVC015 14/14 A2972 RMK SF5SC3 SLP064 DENSITY ALT 500FT

CYGK;2013-06-16 17:00;CYGK 161700Z 17005KT 2SM -RA BR BKN003 OVC006 15/14 A2970 RERA RMK SF5SF3 SLP058 DENSITY ALT 500FT

CYGK;2013-06-16 18:00;CYGK 161800Z 20007KT 2 1/2SM -RA BR OVC002 15/15 A2969 RMK SF8 SLP056 DENSITY ALT 600FT

CYGK;2013-06-16 19:00;CYGK 161900Z 25007KT 2SM BR OVC002 16/16 A2970 RMK SF8 SLP059 DENSITY ALT 700FT

CYGK;2013-06-16 19:33;CYGK 161933Z 25004KT 3SM BR SCT002 BKN006 BKN017 17/17 A2971 RMK SF3SF2SC2 SLP060 DENSITY ALT 800FT

CYGK;2013-06-16 20:00;CYGK 162000Z 28007KT 7SM FEW002 BKN008 BKN019 18/17 A2971 RMK SF1SF4SC2 SLP062 DENSITY ALT 1000FT

CYGK;2013-06-16 20:22;CYGK 162022Z 29009KT 15SM SCT008 BKN013 BKN020 19/17 A2971 RMK SF4SC2SC1 SLP063 DENSITY ALT 1000FT

CYGK;2013-06-16 20:35;CYGK 162035Z 28008KT 15SM FEW008 SCT013 SCT027 BKN270 20/17 A2972 RMK SF1SC2SC1CI1 SLP063 DENSITY ALT 1100FT

CYGK;2013-06-16 21:00;CYGK 162100Z 31007KT 15SM FEW014 SCT030 SCT250 21/17 A2972 RMK CF2SC1CI1 SLP066 DENSITY ALT 1200FT

CYGK;2013-06-16 22:00;CYGK 162200Z 31006KT 15SM BKN020 BKN250 20/17 A2974 RMK CU5CI1 SLP069 DENSITY ALT 1200FT

CYGK;2013-06-16 23:00;CYGK 162300Z 33006KT 15SM FEW020 BKN035 20/16 A2976 RMK CF1SC5 SLP078 DENSITY ALT 1100FT

CYGK;2013-06-17 00:00;CYGK 170000Z 14004KT 15SM FEW020TCU FEW250 18/16 A2976 RMK TCU1CI1 TCU TR CI TR CB DSTNT W SLP079 DENSITY ALT 800FT

CYGK;2013-06-17 01:00;CYGK 170100Z 15006KT 10SM FEW020TCU FEW080 FEW120 FEW250 16/16 A2977 RMK TCU1ACC1AC1CI1 TCU TR ACC TR CB SW SLP082 DENSITY ALT 600FT

CYGK;2013-06-17 02:00;CYGK 170200Z 15008KT 10SM MIFG FEW020 FEW250 16/15 A2979 RMK SC1CI1 CB S SLP087 DENSITY ALT 600FT

CYGK;2013-06-17 03:00;CYGK 170300Z 19002KT 10SM SCT030 15/15 A2979 RMK SC3 LAST OBS/NEXT 171000 UTC SLP089 DENSITY ALT 500FT

CYGK;2013-06-17 10:00;CYGK 171000Z 28004KT 15SM FEW120 FEW250 14/13 A2982 RMK AC1CI1 ACC ASOCTD SLP099 DENSITY ALT 400FT

CYGK;2013-06-17 11:00;CYGK 171100Z 29005KT 15SM FEW100 BKN140 16/14 A2984 RMK AC2AC4 SH DIST W-NW ACC ASOCTD SLP104 DENSITY ALT 500FT

CYGK;2013-06-17 11:18;CYGK 171118Z 30005KT 15SM -SHRA BKN090 BKN140 16/15 A2984 RMK ACC5AC2 SLP105 DENSITY ALT 500FT

CYGK;2013-06-17 11:37;CYGK 171137Z 33006KT 15SM BKN090 BKN120 16/15 A2983 RMK ACC5AC2 SH DIST ALQDS SLP103 DENSITY ALT 600FT

CYGK;2013-06-17 12:00;CYGK 171200Z 30004KT 15SM BKN080 BKN110 17/15 A2985 RMK AC6AC1 ACC ASOCTD SH DIST ALQDS SLP107 DENSITY ALT 600FT

CYGK;2013-06-17 12:24;CYGK 171224Z 23002KT 15SM -SHRA BKN080 16/15 A2985 RMK AC7 ACC ASOCTD SLP108 DENSITY ALT 500FT

CYGK;2013-06-17 13:00;CYGK 171300Z VRB02KT 15SM VCSH FEW010 SCT080 SCT110 BKN220 18/16 A2984 RMK CF1AC3AC1CI1 CF TR ACC ASOCTD SLP105 DENSITY ALT 700FT

CYGK;2013-06-17 14:00;CYGK 171400Z 20005KT 15SM FEW010 SCT065 BKN080 BKN120 18/16 A2984 RMK CF1SC2AC2AC2 ACC ASOCTD SLP105 DENSITY ALT 800FT

CYGK;2013-06-17 14:17;CYGK 171417Z 21005KT 15SM -SHRA FEW017 BKN062 BKN110 18/16 A2984 RMK CF1SC5AC1 ACC ASOCTD SLP104 DENSITY ALT 700FT

CYGK;2013-06-17 14:35;CYGK 171435Z 20005KT 15SM VCSH FEW017 BKN060 BKN100 18/16 A2984 RMK CF1SC5AC1 CB EMBDD S-SW MOVG E SLP105 DENSITY ALT 800FT

CYGK;2013-06-17 14:45;CYGK 171445Z 19008KT 15SM -SHRA FEW020 BKN040 BKN100 17/15 A2985 RMK CF2SC4AC1 CB EMBDD S SLP109 DENSITY ALT 600FT

CYGK;2013-06-17 15:00;CYGK 171500Z 18008KT 15SM -SHRA FEW010 FEW020 BKN060 OVC100 17/15 A2985 RMK SF1CF2SC5AC1 SF TR CB EMBDD SLP109 DENSITY ALT 600FT

CYGK;2013-06-17 15:19;CYGK 171519Z 18005KT 15SM FEW020 BKN060 BKN100 17/16 A2985 RMK CF2SC4AC1 SLP110 DENSITY ALT 600FT

CYGK;2013-06-17 16:00;CYGK 171600Z 18006KT 15SM FEW020 BKN060 OVC080 17/16 A2986 RMK CF1SC4AC3 SH DIST SW-N CVCTV CLD ASOCTD SLP112 DENSITY ALT 600FT

CYGK;2013-06-17 16:19;CYGK 171619Z 19004KT 15SM -SHRA FEW010 BKN060 OVC080 16/15 A2988 RMK SF1SC7AC1 SF TR TCU EMBDD VIS N 3 PRESRR SLP117 DENSITY ALT 500FT

CYGK;2013-06-17 16:36;CYGK 171636Z 24005KT 15SM VCSH FEW019 BKN065 BKN100 17/16 A2987 RERA RMK CU2SC4AC1 TCU EMBDD SLP116 DENSITY ALT 600FT

CYGK;2013-06-17 17:00;CYGK 171700Z 18006KT 15SM FEW020 BKN063 BKN095 17/16 A2988 RERA RMK CU2SC3AC2 TCU ASOCTD SLP119 DENSITY ALT 600FT

CYGK;2013-06-17 18:00;CYGK 171800Z 25006KT 15SM SCT020 BKN090 21/16 A2986 RMK CU4AC2 SH NW SLP113 DENSITY ALT 1100FT

CYGK;2013-06-17 18:26;CYGK 171826Z 29003KT 230V300 15SM -SHRA SCT025TCU BKN090 21/16 A2986 RMK TCU4AC3 SLP113 DENSITY ALT 1100FT

CYGK;2013-06-17 19:00;CYGK 171900Z 26007KT 15SM VCSH FEW025TCU SCT078 22/17 A2986 RMK TCU2AC2 SLP112 DENSITY ALT 1200FT

CYGK;2013-06-17 20:00;CYGK 172000Z 36008KT 15SM BKN030TCU BKN060 20/15 A2987 RMK TCU6SC1 CB S SLP114 DENSITY ALT 900FT

CYGK;2013-06-17 20:29;CYGK 172029Z 01004KT 15SM -SHRA SCT030TCU BKN050 BKN100 20/15 A2987 RMK TCU4SC2AC1 SLP114 DENSITY ALT 900FT

CYGK;2013-06-17 21:00;CYGK 172100Z 17007KT 15SM -SHRA SCT030TCU BKN080 19/16 A2987 RMK TCU4AC3 SLP114 DENSITY ALT 900FT

CYGK;2013-06-17 22:00;CYGK 172200Z 15004KT 15SM -SHRA FEW030TCU BKN040 BKN080 18/16 A2989 RMK TCU1SC5AC1 SLP122 DENSITY ALT 700FT

CYGK;2013-06-17 22:19;CYGK 172219Z 14004KT 15SM FEW030TCU BKN040 BKN080 18/16 A2989 RMK TCU1SC6AC1 TCU TR SLP123 DENSITY ALT 600FT

CYGK;2013-06-17 23:00;CYGK 172300Z 06004KT 320V060 15SM FEW030TCU SCT050 BKN090 BKN250 19/16 A2991 RMK TCU1SC3AC1CI1 SLP127 DENSITY ALT 800FT

CYGK;2013-06-18 00:00;CYGK 180000Z 06008KT 15SM FEW025 BKN035 BKN250 18/13 A2991 RMK CU1SC4CI2 SLP128 DENSITY ALT 700FT

CYGK;2013-06-18 01:00;CYGK 180100Z 04011KT 15SM SCT040 BKN250 17/11 A2992 RMK SC4CI1 SLP133 DENSITY ALT 500FT

CYGK;2013-06-18 02:00;CYGK 180200Z 04004KT 15SM BKN040 16/11 A2996 RMK SC7 SLP144

CYGK;2013-06-18 03:00;CYGK 180300Z 03004KT 15SM SCT045 14/10 A2997 RMK SC3 LAST OBS/NEXT 181000 UTC SLP148

CYGK;2013-06-18 10:00;CYGK 181000Z 34003KT 15SM FEW020 SCT050 BKN090 13/11 A2998 RMK SF1SC3AC3 SH DIST S SLP152

CYGK;2013-06-18 11:00;CYGK 181100Z 36003KT 15SM -SHRA FEW020 FEW050 BKN075 BKN140 13/11 A2999 RMK SC1SC1AC3AC2 SLP157

CYGK;2013-06-18 11:14;CYGK 181114Z 35004KT 15SM FEW020 FEW050 BKN075 BKN140 13/11 A3000 RMK SC1SC1AC4AC1 SH DIST SE-SW SLP158

CYGK;2013-06-18 11:23;CYGK 181123Z 36004KT 15SM -SHRA FEW050 BKN075 BKN110 13/11 A3000 RMK SC2AC3AC2 SLP158

CYGK;2013-06-18 12:00;CYGK 181200Z 01006KT 15SM -SHRA FEW050 BKN080 BKN110 14/11 A3000 RMK SC1AC4AC2 SLP159

CYGK;2013-06-18 12:21;CYGK 181221Z 36006KT 15SM BKN080 BKN120 14/11 A3000 RMK AC5AC2 SLP160

CYGK;2013-06-18 13:00;CYGK 181300Z 04006KT 15SM BKN096 BKN120 15/10 A3000 RMK AC6AC1 SLP158

CYGK;2013-06-18 14:00;CYGK 181400Z 05008KT 15SM SCT100 BKN130 17/09 A2999 RMK AC4AC2 SLP157 DENSITY ALT 400FT

CYGK;2013-06-18 15:00;CYGK 181500Z 02006KT 15SM FEW030 SCT120 18/09 A3000 RMK CU1AC2 SLP160 DENSITY ALT 600FT

CYGK;2013-06-18 16:00;CYGK 181600Z 01008G15KT 15SM FEW050 SCT120 19/08 A3000 RMK CU2AC1 SLP160 DENSITY ALT 700FT

CYGK;2013-06-18 17:00;CYGK 181700Z 33010G16KT 15SM SCT055 SCT120 SCT250 20/09 A2999 RMK CU3AC1CI1 CI TR SLP157 DENSITY ALT 900FT

CYGK;2013-06-18 18:00;CYGK 181800Z 03004KT 15SM SCT062 SCT120 BKN250 20/09 A2999 RMK CU4AC1CI1 AC TR SLP155 DENSITY ALT 800FT

CYGK;2013-06-18 19:00;CYGK 181900Z 02011KT 360V060 15SM BKN060 BKN120 BKN250 20/08 A2998 RMK CU5AC1CI1 SLP153 DENSITY ALT 900FT

CYGK;2013-06-18 20:00;CYGK 182000Z 36006KT 15SM SCT060 BKN250 20/08 A2998 RMK CU4CI1 SLP153 DENSITY ALT 800FT

CYGK;2013-06-18 21:00;CYGK 182100Z 01005KT 15SM SCT065 SCT250 21/08 A2997 RMK SC3CI1 SLP148 DENSITY ALT 1000FT

CYGK;2013-06-18 22:00;CYGK 182200Z 34009KT 15SM SCT065 SCT250 21/07 A2997 RMK SC3CI1 SLP147 DENSITY ALT 1000FT

CYGK;2013-06-18 23:00;CYGK 182300Z 01011KT 15SM FEW065 20/08 A2997 RMK SC1 SLP148 DENSITY ALT 900FT

CYGK;2013-06-19 00:00;CYGK 190000Z 01008KT 15SM FEW070 18/07 A2999 RMK AC1 SLP156 DENSITY ALT 600FT

CYGK;2013-06-19 01:00;CYGK 190100Z 02005KT 15SM FEW070 16/07 A3001 RMK AC1 AC TR SLP162 DENSITY ALT 400FT

CYGK;2013-06-19 02:00;CYGK 190200Z 02006KT 15SM FEW070 15/07 A3003 RMK AC1 AC TR SLP170

CYGK;2013-06-19 03:00;CYGK 190300Z 35006KT 15SM FEW070 12/07 A3004 RMK AC1 AC TR LAST OBS/NEXT 191000 UTC SLP174

CYGK;2013-06-19 10:00;CYGK 191000Z 35005KT 15SM FEW140 07/05 A3011 RMK AC1 AC TR SLP198

CYGK;2013-06-19 11:00;CYGK 191100Z 35006KT 15SM FEW140 FEW250 10/06 A3013 RMK AC1CI1 AC TR CI TR SLP203

CYGK;2013-06-19 12:00;CYGK 191200Z 01006KT 15SM FEW250 13/06 A3015 RMK CI1 SLP211

CYGK;2013-06-19 13:00;CYGK 191300Z 36009KT 15SM FEW250 15/05 A3016 RMK CI1 CI TR SLP214

CYGK;2013-06-19 14:00;CYGK 191400Z 35009KT 15SM FEW040 FEW250 16/05 A3017 RMK CF1CI1 CF TR SLP215

CYGK;2013-06-19 15:00;CYGK 191500Z 35006KT 15SM FEW040 FEW270 17/04 A3017 RMK CF1CI1 CF TR SLP219

CYGK;2013-06-19 16:00;CYGK 191600Z 32005G16KT 320V040 15SM FEW040 FEW250 17/06 A3017 RMK CF1CI1 CF TR SLP218

CYGK;2013-06-19 17:00;CYGK 191700Z VRB07KT 15SM FEW040 FEW270 18/05 A3017 RMK CF1CI1 CF TR SLP216 DENSITY ALT 400FT

CYGK;2013-06-19 18:00;CYGK 191800Z 28005KT 15SM FEW045 FEW270 19/05 A3016 RMK CF1CI1 CF TR SLP213 DENSITY ALT 500FT

CYGK;2013-06-19 19:00;CYGK 191900Z 18011KT 15SM FEW050 FEW270 18/08 A3015 RMK CF1CI1 CF TR SLP212 DENSITY ALT 400FT

CYGK;2013-06-19 20:00;CYGK 192000Z 19014KT 15SM FEW050 FEW270 18/09 A3015 RMK CF1CI1 CF TR CI TR SLP210 DENSITY ALT 400FT

CYGK;2013-06-19 21:00;CYGK 192100Z 20011KT 15SM FEW050 FEW270 17/09 A3015 RMK CF1CI1 CF TR CI TR SLP211

CYGK;2013-06-19 22:00;CYGK 192200Z 22009KT 15SM FEW050 17/08 A3015 RMK CF1 CF TR SLP210

CYGK;2013-06-19 23:00;CYGK 192300Z 22007KT 15SM SKC 17/09 A3015 RMK SLP212

CYGK;2013-06-20 00:00;CYGK 200000Z 22007KT 15SM SKC 15/08 A3016 RMK SLP213

CYGK;2013-06-20 01:00;CYGK 200100Z 25007KT 15SM FEW250 14/07 A3016 RMK CI1 CI TR SLP215

CYGK;2013-06-20 02:00;CYGK 200200Z 26004KT 15SM FEW250 13/09 A3018 RMK CI1 CI TR SLP221

CYGK;2013-06-20 03:00;CYGK 200300Z 27006KT 15SM SKC 13/07 A3019 RMK LAST OBS/NEXT 201000 UTC SLP223

CYGK;2013-06-20 10:00;CYGK 201000Z 00000KT 15SM FEW250 08/07 A3024 RMK CI1 SLP240

CYGK;2013-06-20 11:00;CYGK 201100Z 00000KT 15SM FEW250 12/11 A3025 RMK CI1 SLP244

CYGK;2013-06-20 12:00;CYGK 201200Z 20006KT 15SM FEW010 FEW250 15/12 A3026 RMK CF1CI1 CF TR SLP249

CYGK;2013-06-20 13:00;CYGK 201300Z 23005KT 15SM FEW015 FEW250 17/12 A3028 RMK CF1CI1 CF TR SLP253

CYGK;2013-06-20 14:00;CYGK 201400Z 19007KT 15SM SCT250 16/13 A3028 RMK CI3 SLP255

CYGK;2013-06-20 15:00;CYGK 201500Z 17009KT 15SM FEW030 FEW250 17/12 A3028 RMK CU1CI2 CU TR SLP253

CYGK;2013-06-20 16:00;CYGK 201600Z 18008KT 15SM FEW025 SCT250 17/12 A3027 RMK CF1CI3 CF TR SLP251

CYGK;2013-06-20 17:00;CYGK 201700Z 17010KT 15SM FEW040 FEW250 17/11 A3025 RMK CU1CI2 CU TR SLP246

CYGK;2013-06-20 18:00;CYGK 201800Z 17009KT 15SM FEW040 BKN270 17/11 A3025 RMK CF1CI5 CF TR SLP246

CYGK;2013-06-20 19:00;CYGK 201900Z 17009KT 15SM FEW040 SCT270 18/11 A3025 RMK CU1CI4 CU TR SLP243

CYGK;2013-06-20 20:00;CYGK 202000Z 19007KT 15SM FEW040 SCT270 19/12 A3024 RMK CU1CI4 CU TR SLP241 DENSITY ALT 400FT

CYGK;2013-06-20 21:00;CYGK 202100Z 21007KT 15SM FEW040 BKN270 19/10 A3024 RMK CU1CI6 CU TR SLP240 DENSITY ALT 500FT

CYGK;2013-06-20 22:00;CYGK 202200Z 19009KT 15SM FEW040 BKN270 20/08 A3022 RMK CF1CI5 CF TR SLP235 DENSITY ALT 500FT

CYGK;2013-06-20 23:00;CYGK 202300Z 20006KT 15SM FEW100 BKN270 19/08 A3022 RMK AC1CI5 AC TR SLP235 DENSITY ALT 400FT

CYGK;2013-06-21 00:00;CYGK 210000Z 19006KT 15SM BKN270 18/09 A3021 RMK CI5 SLP229

CYGK;2013-06-21 01:00;CYGK 210100Z 23004KT 15SM FEW100 FEW270 16/10 A3021 RMK AC1CI1 SLP231

CYGK;2013-06-21 02:00;CYGK 210200Z 23005KT 15SM FEW100 FEW270 15/10 A3022 RMK AC1CI1 CI TR SLP234

CYGK;2013-06-21 03:00;CYGK 210300Z 23002KT 15SM FEW100 14/11 A3022 RMK AC1 LAST OBS/NEXT 211000 UTC SLP233

CYGK;2013-06-21 10:00;CYGK 211000Z 00000KT 15SM BKN100 13/10 A3025 RMK AC6 SLP244

CYGK;2013-06-21 11:00;CYGK 211100Z 18004KT 15SM BKN075 BKN100 16/13 A3026 RMK AC5AC1 SLP246

CYGK;2013-06-21 12:00;CYGK 211200Z 19006KT 15SM FEW075 BKN120 17/13 A3026 RMK AC1AC5 SLP247

CYGK;2013-06-21 13:00;CYGK 211300Z 18005KT 15SM FEW065 BKN077 BKN120 17/14 A3028 RMK SC1AC5AC1 SLP256

CYGK;2013-06-21 14:00;CYGK 211400Z 17006KT 15SM FEW070 FEW120 SCT250 18/14 A3027 RMK AC1AC1CI1 SLP252

CYGK;2013-06-21 15:00;CYGK 211500Z 18005KT 15SM FEW070 FEW120 FEW250 19/14 A3028 RMK AC1AC1CI1 AC TR SLP254 DENSITY ALT 400FT

CYGK;2013-06-21 16:00;CYGK 211600Z 17009KT 15SM FEW070 SCT250 19/14 A3028 RMK AC2CI1 SLP255 DENSITY ALT 400FT

CYGK;2013-06-21 17:00;CYGK 211700Z 17010KT 15SM FEW070 SCT250 18/15 A3027 RMK AC1CI3 AC TR SLP251

CYGK;2013-06-21 18:00;CYGK 211800Z 17007KT 15SM FEW035 SCT250 20/13 A3027 RMK CF1CI3 CF TR SLP252 DENSITY ALT 500FT

CYGK;2013-06-21 19:00;CYGK 211900Z 19007KT 15SM FEW035 FEW070 FEW250 21/12 A3026 RMK CU1AC1CI1 AC TR SLP249 DENSITY ALT 700FT

CYGK;2013-06-21 20:00;CYGK 212000Z 15007KT 15SM FEW035 FEW070 FEW250 21/13 A3025 RMK CU1AC1CI2 CU TR AC TR SLP246 DENSITY ALT 600FT

CYGK;2013-06-21 21:00;CYGK 212100Z 18006KT 15SM FEW035 SCT250 22/13 A3024 RMK SC1CI3 SC TR SLP241 DENSITY ALT 800FT

CYGK;2013-06-21 22:00;CYGK 212200Z 19005KT 15SM BKN250 22/12 A3023 RMK CI5 SLP237 DENSITY ALT 700FT

CYGK;2013-06-21 23:00;CYGK 212300Z 20003KT 15SM FEW120 BKN250 21/11 A3022 RMK AC1CI5 SLP234 DENSITY ALT 700FT

CYGK;2013-06-22 00:00;CYGK 220000Z 11002KT 15SM FEW120 BKN250 20/13 A3021 RMK AC1CI5 PARAHELIA SLP229 DENSITY ALT 600FT

CYGK;2013-06-22 01:00;CYGK 220100Z 00000KT 15SM FEW120 SCT250 19/13 A3019 RMK AC1CI3 SLP223 DENSITY ALT 500FT

CYGK;2013-06-22 02:00;CYGK 220200Z 17006KT 070V180 15SM FEW120 SCT250 18/13 A3019 RMK AC1CI2 SLP223

CYGK;2013-06-22 03:00;CYGK 220300Z 00000KT 15SM SCT250 16/13 A3019 RMK CI4 LAST OBS/NEXT 221000 UTC SLP223

CYGK;2013-06-22 10:00;CYGK 221000Z 16005KT 12SM SCT065 BKN140 BKN250 17/15 A3011 RMK SC4AC2CI1 SLP198 DENSITY ALT 400FT

CYGK;2013-06-22 11:00;CYGK 221100Z 18005KT 12SM FEW065 SCT140 OVC250 18/16 A3012 RMK SC1AC2CS5 SLP198 DENSITY ALT 400FT

CYGK;2013-06-22 12:00;CYGK 221200Z 17005KT 12SM BKN065 OVC100 18/16 A3013 RMK CU7AC1 SLP203 DENSITY ALT 400FT

CYGK;2013-06-22 13:00;CYGK 221300Z 16006KT 12SM BKN065 BKN100 OVC160 18/17 A3014 RMK SC5AC2AC1 SLP205 DENSITY ALT 500FT

CYGK;2013-06-22 14:00;CYGK 221400Z 14008KT 12SM SCT070 OVC120 19/17 A3013 RMK AC4AC4 SLP203 DENSITY ALT 500FT

CYGK;2013-06-22 15:00;CYGK 221500Z 18007KT 12SM FEW070 OVC130 19/17 A3013 RMK SC2AC6 SLP203 DENSITY ALT 600FT

CYGK;2013-06-22 16:00;CYGK 221600Z 19008KT 10SM FEW100 BKN140 21/18 A3012 RMK AC2AC5 SLP201 DENSITY ALT 700FT

CYGK;2013-06-22 17:00;CYGK 221700Z 22005KT 160V220 10SM FEW090 BKN110 OVC250 21/18 A3011 RMK AC1AC4CI3 PRESRR SLP198 DENSITY ALT 800FT

CYGK;2013-06-22 18:00;CYGK 221800Z 20004KT 10SM BKN078 BKN120 OVC220 22/18 A3008 RMK AC6AC1CI1 ACC ASOCTD SLP187 DENSITY ALT 900FT

CYGK;2013-06-22 19:00;CYGK 221900Z 17005KT 10SM BKN065 OVC110 22/19 A3007 RMK SC5AC3 SLP183 DENSITY ALT 1000FT

CYGK;2013-06-22 19:12;CYGK 221912Z 20006KT 6SM -SHRA BR FEW050 BKN080 OVC110 22/19 A3008 RMK SC1AC6AC1 VIS LWR W SLP185 DENSITY ALT 900FT

CYGK;2013-06-22 20:00;CYGK 222000Z 29004KT 220V290 3SM -SHRA BR FEW030 BKN060 OVC080 21/20 A3008 RMK SC1SC6AC1 SLP188 DENSITY ALT 800FT

CYGK;2013-06-22 21:00;CYGK 222100Z 00000KT 4SM -SHRA BR BKN045 OVC080 21/20 A3006 RMK SC6AC2 SLP179 DENSITY ALT 900FT

CYGK;2013-06-22 21:13;CYGK 222113Z 00000KT 4SM BR SCT045 OVC054 21/20 A3005 RMK SC3SC5 SLP175 DENSITY ALT 900FT

CYGK;2013-06-22 22:00;CYGK 222200Z 00000KT 4SM BR BKN045 OVC058 21/20 A3004 RMK SC5SC3 SLP171 DENSITY ALT 900FT

CYGK;2013-06-22 23:00;CYGK 222300Z 13003KT 4SM BR SCT045 OVC062 22/21 A3004 RMK SC3SC5 SLP172 DENSITY ALT 900FT

CYGK;2013-06-23 00:00;CYGK 230000Z 11003KT 2 1/2SM BR OVC049 21/20 A3003 RMK SC8 SLP169 DENSITY ALT 900FT

CYGK;2013-06-23 00:33;CYGK 230033Z 12004KT 3SM BR OVC051 21/20 A3003 RMK SC8 SLP170 DENSITY ALT 900FT

CYGK;2013-06-23 01:00;CYGK 230100Z 08002KT 3SM BR BKN053 OVC080 21/20 A3003 RMK SC7AC1 SLP169 DENSITY ALT 800FT

CYGK;2013-06-23 02:00;CYGK 230200Z 02003KT 5SM BR BKN045 OVC110 21/20 A3005 RMK SC7AC1 SLP175 DENSITY ALT 800FT

CYGK;2013-06-23 02:24;CYGK 230224Z 04002KT 5SM SHRA BR BKN043 OVC110 20/20 A3005 RMK SC7AC1 TCU EMBD SLP176 DENSITY ALT 800FT

CYGK;2013-06-23 02:29;CYGK 230229Z 36002KT 6SM -SHRA BR OVC044 20/20 A3005 RERA RMK SC8 TCU EMBD SLP176 DENSITY ALT 800FT

CYGK;2013-06-23 02:41;CYGK 230241Z 35004KT 8SM OVC040 20/20 A3005 RMK SC8 SLP177 DENSITY ALT 800FT

CYGK;2013-06-23 03:00;CYGK 230300Z 35003KT 8SM BKN040 OVC080 20/20 A3006 RERA RMK SC6AC2 LAST OBS/NEXT 231000 UTC SLP178 DENSITY ALT 800FT

CYGK;2013-06-23 10:00;CYGK 231000Z 04005KT 3/8SM FG VV002 19/19 A3005 RMK FG8 SLP175 DENSITY ALT 600FT

CYGK;2013-06-23 11:00;CYGK 231100Z 06005KT 3/8SM FG VV001 19/19 A3006 RMK FG8 SLP179 DENSITY ALT 600FT

CYGK;2013-06-23 11:45;CYGK 231145Z 07004KT 1/2SM FG VV002 19/19 A3007 RMK FG8 SLP181 DENSITY ALT 600FT

CYGK;2013-06-23 11:51;CYGK 231151Z 08005KT 3/4SM BR OVC002 19/19 A3006 RMK SF8 SLP180 DENSITY ALT 700FT

CYGK;2013-06-23 12:00;CYGK 231200Z 08005KT 3/4SM BR OVC002 19/19 A3006 RMK SF8 SLP179 DENSITY ALT 700FT

CYGK;2013-06-23 13:00;CYGK 231300Z 09005KT 1SM BR OVC002 20/20 A3005 RMK FG5SF3 SLP177 DENSITY ALT 700FT

CYGK;2013-06-23 14:00;CYGK 231400Z 16002KT 3/4SM BR OVC002 20/20 A3006 RMK SF8 SLP178 DENSITY ALT 800FT

CYGK;2013-06-23 14:13;CYGK 231413Z 00000KT 2SM BR BKN002 OVC150 20/20 A3006 RMK FG2SF3AC3 VIS S-SW 1 SLP178 DENSITY ALT 800FT

CYGK;2013-06-23 14:38;CYGK 231438Z 31002KT 2SM BR BKN004 BKN150 21/20 A3006 RMK FG2SF3AC2 VIS S-SW 1 SLP178 DENSITY ALT 900FT

CYGK;2013-06-23 15:00;CYGK 231500Z 27002KT 2 1/2SM BR BKN004 OVC010 22/20 A3005 RMK FG2SF3SC3 VIS S-SW 1 SLP177 DENSITY ALT 900FT

CYGK;2013-06-23 15:21;CYGK 231521Z 31004KT 3SM BR BKN008 OVC230 22/21 A3006 RMK SF7CI1 VIS S 11/2 SLP178 DENSITY ALT 1000FT

CYGK;2013-06-23 16:00;CYGK 231600Z 27002KT 4SM BR BKN008 OVC014 24/21 A3005 RMK SF5SC3 SLP176 DENSITY ALT 1200FT

CYGK;2013-06-23 16:27;CYGK 231627Z 15007KT 4SM BR SCT008 BKN015 OVC040 23/21 A3005 RMK SF3SC3SC2 SLP176 DENSITY ALT 1100FT

CYGK;2013-06-23 17:00;CYGK 231700Z 17008KT 4SM BR SCT015 BKN040 OVC250 23/21 A3005 RMK SC3SC2CI3 SLP174 DENSITY ALT 1100FT

CYGK;2013-06-23 18:00;CYGK 231800Z 16009KT 3SM BR FEW018 FEW090 SCT140 BKN230 22/20 A3003 RMK SC1AC1AC2CI2 SLP169 DENSITY ALT 1000FT

CYGK;2013-06-23 19:00;CYGK 231900Z 16005KT 4SM BR SCT160 BKN250 23/21 A3002 RMK AC4CI2 SLP164 DENSITY ALT 1200FT

CYGK;2013-06-23 20:00;CYGK 232000Z 16006KT 4SM HZ FEW025 SCT160 BKN220 24/21 A3000 RMK CU1AC2CI3 SLP157 DENSITY ALT 1300FT

CYGK;2013-06-23 21:00;CYGK 232100Z 18011KT 5SM HZ FEW025 SCT180 BKN220 24/21 A2997 RMK CU1AC2CI2 SLP147 DENSITY ALT 1300FT

CYGK;2013-06-23 22:00;CYGK 232200Z 19011KT 5SM HZ FEW025 FEW180 SCT220 22/20 A2998 RMK CF1AC2CI2 CF TR SLP152 DENSITY ALT 1100FT

CYGK;2013-06-23 23:00;CYGK 232300Z 21010KT 6SM HZ FEW180 SCT220 23/20 A2998 RMK AC1CI3 SLP153 DENSITY ALT 1100FT

CYGK;2013-06-24 00:00;CYGK 240000Z 22005KT 6SM HZ FEW180 BKN250 22/20 A2997 RMK AC1CI5 SLP150 DENSITY ALT 1000FT

CYGK;2013-06-24 01:00;CYGK 240100Z 18005KT 5SM HZ FEW130 BKN250 21/20 A2997 RMK AC1CI5 SLP148 DENSITY ALT 900FT

CYGK;2013-06-24 02:00;CYGK 240200Z 21007KT 8SM FEW130 BKN250 20/19 A2998 RMK AC1CI4 SLP152 DENSITY ALT 900FT

CYGK;2013-06-24 03:00;CYGK 240300Z 21007KT 12SM FEW055 SCT250 20/20 A2998 RMK CU1CI3 LAST OBS/NEXT 241000 UTC SLP151 DENSITY ALT 900FT

CYGK;2013-06-24 10:00;CYGK 241000Z 17005KT 8SM SCT070 OVC160 19/19 A3000 RMK AC3AC5 SLP158 DENSITY ALT 800FT

CYGK;2013-06-24 11:00;CYGK 241100Z 17006KT 6SM BR FEW070 SCT160 OVC200 19/18 A3000 RMK AC2AC2CS4 SLP159 DENSITY ALT 700FT

CYGK;2013-06-24 12:00;CYGK 241200Z 17008KT 5SM BR BKN060 BKN160 OVC220 20/18 A3001 RMK SC6AC1CI1 ACC ASOCTD SLP161 DENSITY ALT 800FT

CYGK;2013-06-24 13:00;CYGK 241300Z 18009KT 5SM BR SCT060 BKN160 OVC220 21/19 A3001 RMK SC3AC3CI2 SLP161 DENSITY ALT 900FT

CYGK;2013-06-24 14:00;CYGK 241400Z 18009KT 6SM HZ FEW060 BKN160 BKN220 21/19 A3000 RMK SC1AC4CI2 SLP159 DENSITY ALT 900FT

CYGK;2013-06-24 15:00;CYGK 241500Z 19007KT 6SM HZ FEW060 BKN160 BKN220 23/20 A2999 RMK SC1AC4CI2 SLP155 DENSITY ALT 1100FT

CYGK;2013-06-24 16:00;CYGK 241600Z 17004KT 6SM HZ FEW060 OVC160 23/20 A3000 RMK SC2AC6 SLP157 DENSITY ALT 1100FT

CYGK;2013-06-24 17:00;CYGK 241700Z 24012G17KT 8SM BKN160 OVC250 25/21 A2999 RMK AC5CI3 SLP154 DENSITY ALT 1400FT

CYGK;2013-06-24 18:00;CYGK 241800Z 23012G17KT 8SM BKN170 OVC250 26/21 A2998 RMK AC6CI2 SLP151 DENSITY ALT 1500FT

CYGK;2013-06-24 19:00;CYGK 241900Z 24011G17KT 8SM SCT160 BKN250 28/22 A2994 RMK AC3CI3 TCU/CB TOPS NW SLP138 DENSITY ALT 1700FT

CYGK;2013-06-24 20:00;CYGK 242000Z 23012KT 8SM FEW050CB FEW160 BKN250 28/22 A2991 RMK CB1AC1CI3 CB NW-N SLP129 DENSITY ALT 1800FT

CYGK;2013-06-24 21:00;CYGK 242100Z 24010G15KT 8SM FEW050CB BKN250 27/22 A2991 RMK CB1CI5 CB N SLP126 DENSITY ALT 1700FT

CYGK;2013-06-24 22:00;CYGK 242200Z 22015G20KT 8SM BKN250 27/22 A2988 RMK CI6 SLP118 DENSITY ALT 1800FT

CYGK;2013-06-24 23:00;CYGK 242300Z 24012KT 10SM BKN250 27/22 A2989 RMK CI7 SLP121 DENSITY ALT 1700FT

CYGK;2013-06-25 00:00;CYGK 250000Z 20007KT 15SM SCT230 22/20 A2991 RMK CI4 VIS LWR S QUAD SLP126 DENSITY ALT 1200FT

CYGK;2013-06-25 01:00;CYGK 250100Z 20004KT 15SM FEW140 FEW230 21/19 A2991 RMK AC1CI2 AC TR CB TOP DIST NW SLP127 DENSITY ALT 1000FT

CYGK;2013-06-25 02:00;CYGK 250200Z 24006KT 15SM FEW140 FEW230 22/19 A2992 RMK AC1CI2 AC TR SLP130 DENSITY ALT 1100FT

CYGK;2013-06-25 03:00;CYGK 250300Z 20004KT 15SM FEW230 20/19 A2991 RMK CI2 LAST OBS/NEXT 251000 UTC SLP129 DENSITY ALT 1000FT

CYGK;2013-06-25 10:00;CYGK 251000Z 18008KT 6SM BR SCT270 19/18 A2987 RMK CI3 SLP115 DENSITY ALT 900FT

CYGK;2013-06-25 11:00;CYGK 251100Z 17008KT 6SM BR SCT047 BKN270 20/18 A2988 RMK SC4CI2 SLP116 DENSITY ALT 900FT

CYGK;2013-06-25 12:00;CYGK 251200Z 17009KT 5SM BR FEW045TCU SCT270 21/19 A2987 RMK TCU1CI2 SLP114 DENSITY ALT 1000FT

CYGK;2013-06-25 13:00;CYGK 251300Z 18009KT 6SM HZ FEW270 21/19 A2986 RMK CI2 SLP112 DENSITY ALT 1100FT

CYGK;2013-06-25 14:00;CYGK 251400Z 19012KT 5SM HZ SCT038TCU BKN070 BKN200 21/19 A2987 RMK TCU3AC2CI2 CB SW SLP114 DENSITY ALT 1100FT

CYGK;2013-06-25 14:14;CYGK 251414Z 22008KT 5SM -SHRA HZ BKN038TCU BKN070 OVC200 23/20 A2986 RMK TCU5AC1CI2 SLP112 DENSITY ALT 1300FT

CYGK;2013-06-25 14:45;CYGK 251445Z 25010G18KT 5SM HZ FEW018 BKN040TCU OVC100 23/20 A2985 RMK SF1TCU4AC3 SLP107 DENSITY ALT 1400FT

CYGK;2013-06-25 15:00;CYGK 251500Z 24011G17KT 5SM HZ FEW018 SCT040TCU OVC110 23/20 A2985 RMK SF1TCU3AC5 SF TR SLP107 DENSITY ALT 1300FT

CYGK;2013-06-25 16:00;CYGK 251600Z 23010KT 6SM HZ FEW020 BKN120 OVC250 24/21 A2984 RMK CU1AC5CI3 CU TR SLP105 DENSITY ALT 1500FT

CYGK;2013-06-25 17:00;CYGK 251700Z 24010KT 5SM HZ FEW020 SCT050 BKN110 OVC250 23/21 A2984 RMK CU1SC3AC3CI1 SLP105 DENSITY ALT 1300FT

CYGK;2013-06-25 17:11;CYGK 251711Z 23012KT 5SM -SHRA HZ SCT050TCU OVC100 23/21 A2984 RMK TCU3AC5 SLP104 DENSITY ALT 1300FT

CYGK;2013-06-25 18:00;CYGK 251800Z 25009KT 6SM HZ FEW018 BKN080 OVC250 22/21 A2983 RMK SF1AC5CI2 SLP100 DENSITY ALT 1300FT

CYGK;2013-06-25 19:00;CYGK 251900Z 25009KT 6SM HZ FEW020 BKN070 OVC250 22/21 A2983 RMK CU1AC5CI2 SLP100 DENSITY ALT 1300FT

CYGK;2013-06-25 20:00;CYGK 252000Z 24007KT 8SM FEW020 SCT070 BKN140 BKN250 26/22 A2980 RMK CU1AC2AC2CI1 SLP088 DENSITY ALT 1700FT

CYGK;2013-06-25 21:00;CYGK 252100Z 20008KT 8SM SCT025TCU BKN250 25/22 A2978 RMK TCU3CI3 SLP085 DENSITY ALT 1600FT

CYGK;2013-06-25 22:00;CYGK 252200Z 24011KT 8SM FEW030TCU BKN250 25/21 A2977 RMK TCU1CI7 TCU TR SLP082 DENSITY ALT 1600FT

CYGK;2013-06-25 23:00;CYGK 252300Z 24011KT 10SM FEW030TCU BKN180 BKN250 23/20 A2977 RMK TCU1AC5CI2 TCU TR SLP079 DENSITY ALT 1500FT

CYGK;2013-06-26 00:00;CYGK 260000Z 25006KT 10SM FEW030 BKN180 BKN250 23/20 A2978 RMK CU1AC5CI2 CU TR SLP084 DENSITY ALT 1400FT

CYGK;2013-06-26 01:00;CYGK 260100Z 05009KT 12SM SCT020 BKN050 OVC130 23/18 A2980 RMK SC3SC3AC2 SLP091 DENSITY ALT 1400FT

CYGK;2013-06-26 02:00;CYGK 260200Z 14004KT 12SM SCT060 OVC150 21/19 A2980 RMK SC4AC4 SLP089 DENSITY ALT 1200FT

CYGK;2013-06-26 03:00;CYGK 260300Z 13003KT 12SM FEW060 BKN090 OVC140 21/19 A2980 RMK SC1AC4AC3 LAST OBS/NEXT 261000 UTC SLP090 DENSITY ALT 1100FT

CYGK;2013-06-26 10:00;CYGK 261000Z 24006KT 8SM FEW035 BKN078 OVC120 20/19 A2977 RMK SC1AC6AC1 SLP078 DENSITY ALT 1100FT

CYGK;2013-06-26 11:00;CYGK 261100Z 25005KT 8SM SCT078 OVC110 20/19 A2978 RMK AC4AC4 SLP083 DENSITY ALT 1100FT

CYGK;2013-06-26 12:00;CYGK 261200Z 25005KT 6SM BR FEW015 FEW075 BKN110 BKN200 21/20 A2979 RMK CF1AC2AC4CI1 CF TR SLP086 DENSITY ALT 1200FT

CYGK;2013-06-26 13:00;CYGK 261300Z 22006KT 6SM BR BKN013 BKN100 OVC200 22/20 A2980 RMK CU6AC1CI1 SLP090 DENSITY ALT 1300FT

CYGK;2013-06-26 13:42;CYGK 261342Z 21006KT 5SM HZ SCT015 SCT100 BKN200 24/21 A2979 RMK CU3AC1CI3 SLP086 DENSITY ALT 1500FT

CYGK;2013-06-26 14:00;CYGK 261400Z 21007KT 6SM HZ SCT016 BKN092 BKN220 23/20 A2979 RMK CU4AC1CI2 SLP087 DENSITY ALT 1400FT

CYGK;2013-06-26 15:00;CYGK 261500Z 21008KT 10SM FEW020 SCT090 BKN220 25/21 A2978 RMK CU2AC2CI1 VIS LWR S OVR LK SLP083 DENSITY ALT 1600FT

CYGK;2013-06-26 16:00;CYGK 261600Z 19013KT 8SM FEW020 SCT090 BKN220 23/21 A2978 RMK CU2AC1CI2 SLP083 DENSITY ALT 1400FT

CYGK;2013-06-26 17:00;CYGK 261700Z 18011KT 6SM HZ FEW025 FEW220 22/20 A2978 RMK CU1CI1 SLP083 DENSITY ALT 1300FT

CYGK;2013-06-26 18:00;CYGK 261800Z 18011KT 8SM FEW030 23/20 A2978 RMK CU2 TCU ASOCTD SLP084 DENSITY ALT 1400FT

CYGK;2013-06-26 19:00;CYGK 261900Z 19012KT 8SM FEW030TCU 23/20 A2978 RMK TCU2 CB TOPS DIST N-NE VIS LWR S SLP083 DENSITY ALT 1400FT

CYGK;2013-06-26 20:00;CYGK 262000Z 19012G17KT 10SM FEW030TCU SCT250 24/21 A2976 RMK TCU2CI1 CB N-NE SLP075 DENSITY ALT 1600FT

CYGK;2013-06-26 21:00;CYGK 262100Z 23008KT 10SM FEW030CB SCT220 27/23 A2977 RMK CB1CI3 CB NE SLP078 DENSITY ALT 1900FT

CYGK;2013-06-26 22:00;CYGK 262200Z 17006KT 12SM FEW035TCU SCT220 24/21 A2975 RMK TCU2CI1 SLP073 DENSITY ALT 1600FT

CYGK;2013-06-26 23:00;CYGK 262300Z 16004KT 12SM FEW030 FEW150 FEW250 24/20 A2975 RMK CU1ACC1CI1 CU TR ACC TR SLP072 DENSITY ALT 1600FT

CYGK;2013-06-27 00:00;CYGK 270000Z 24009KT 15SM FEW150 SCT250 24/20 A2975 RMK ACC1CI3 ACC TR SLP073 DENSITY ALT 1600FT

CYGK;2013-06-27 01:00;CYGK 270100Z 22003KT 15SM FEW040 FEW120 FEW250 23/19 A2976 RMK SC1AC1CI2 SC TR AC TR SLP075 DENSITY ALT 1400FT

CYGK;2013-06-27 02:00;CYGK 270200Z 24004KT 15SM FEW040 FEW250 22/18 A2977 RMK SC1CI2 SC TR SLP081 DENSITY ALT 1300FT

CYGK;2013-06-27 03:00;CYGK 270300Z 27005KT 15SM FEW120 FEW250 21/19 A2979 RMK AC1CI1 AC TR LAST OBS/NEXT 271000 UTC SLP087 DENSITY ALT 1200FT

CYGK;2013-06-27 10:00;CYGK 271000Z 19006KT 8SM FEW140 BKN250 18/18 A2978 RMK AC1CI5 SLP085 DENSITY ALT 900FT

CYGK;2013-06-27 11:00;CYGK 271100Z VRB02KT 8SM FEW180 BKN250 20/19 A2978 RMK CI2CI4 SLP084 DENSITY ALT 1000FT

CYGK;2013-06-27 12:00;CYGK 271200Z 22005KT 8SM FEW140 SCT200 BKN250 20/18 A2979 RMK AC1CI3CI3 SLP086 DENSITY ALT 1100FT

CYGK;2013-06-27 13:00;CYGK 271300Z 17004KT 10SM OVC250 21/19 A2978 RMK CI8 SLP084 DENSITY ALT 1100FT

CYGK;2013-06-27 14:00;CYGK 271400Z 17005KT 10SM FEW025 BKN200 22/19 A2978 RMK CF1CI7 CF TR SLP084 DENSITY ALT 1300FT

CYGK;2013-06-27 15:00;CYGK 271500Z 15005KT 8SM FEW025 BKN220 22/20 A2978 RMK CU1CI6 SLP083 DENSITY ALT 1300FT

CYGK;2013-06-27 16:00;CYGK 271600Z 16005KT 8SM FEW025 SCT160 BKN220 23/20 A2977 RMK CU1AC3CI3 SLP082 DENSITY ALT 1400FT

CYGK;2013-06-27 17:00;CYGK 271700Z 16004KT 8SM FEW030 SCT150 OVC220 23/20 A2977 RMK CU1AC2CI5 SLP078 DENSITY ALT 1400FT

CYGK;2013-06-27 18:00;CYGK 271800Z 15004KT 10SM FEW030 OVC230 24/20 A2976 RMK CU1CI7 SLP075 DENSITY ALT 1500FT

CYGK;2013-06-27 19:00;CYGK 271900Z 16005KT 12SM FEW030 OVC220 24/19 A2974 RMK CU1CI8 CU TR SLP071 DENSITY ALT 1600FT

CYGK;2013-06-27 20:00;CYGK 272000Z 00000KT 12SM FEW030 OVC220 25/19 A2972 RMK CU1CS7 SLP063 DENSITY ALT 1800FT

CYGK;2013-06-27 21:00;CYGK 272100Z 14005KT 15SM FEW030TCU FEW080 OVC180 25/18 A2971 RMK TCU1AC1AS8 TCU TR AC TR SLP060 DENSITY ALT 1700FT

CYGK;2013-06-27 22:00;CYGK 272200Z 17005KT 15SM FEW030TCU FEW080 BKN180 OVC250 24/20 A2970 RMK TCU1AC1AC7CS1 TCU TR AC TR SLP057 DENSITY ALT 1600FT

CYGK;2013-06-27 23:00;CYGK 272300Z 18002KT 15SM FEW090 BKN180 OVC250 25/21 A2970 RMK AC1AC5CS2 SLP056 DENSITY ALT 1700FT

CYGK;2013-06-28 00:00;CYGK 280000Z 06004KT 15SM FEW090 SCT180 OVC250 25/21 A2968 RMK AC1AC2CS5 SLP051 DENSITY ALT 1700FT

CYGK;2013-06-28 01:00;CYGK 280100Z 05006KT 15SM FEW030 SCT100 OVC250 24/20 A2968 RMK SC2AC2CS4 SLP051 DENSITY ALT 1700FT

CYGK;2013-06-28 02:00;CYGK 280200Z 06012KT 15SM FEW030 FEW100 OVC250 24/20 A2968 RMK SC1AC1CI6 SLP051 DENSITY ALT 1600FT

CYGK;2013-06-28 03:00;CYGK 280300Z 05009KT 15SM FEW035 OVC100 23/19 A2967 RMK SC1AC7 LAST OBS/NEXT 281000 UTC SLP045 DENSITY ALT 1600FT

CYGK;2013-06-28 10:00;CYGK 281000Z 03011G18KT 8SM -RA SCT010 OVC110 17/15 A2958 RMK SC3AC5 SLP015 DENSITY ALT 900FT

CYGK;2013-06-28 10:13;CYGK 281013Z 03011KT 8SM -RA BKN010 OVC110 17/16 A2958 RMK SC6AC2 SLP016 DENSITY ALT 900FT

CYGK;2013-06-28 10:37;CYGK 281037Z 02011KT 7SM -RA OVC009 16/15 A2957 RMK SF8 SLP014 DENSITY ALT 900FT

CYGK;2013-06-28 11:00;CYGK 281100Z 02012G18KT 7SM -RA BKN009 OVC030 16/15 A2957 RMK SF7SC1 SLP013 DENSITY ALT 800FT

CYGK;2013-06-28 12:00;CYGK 281200Z 02012KT 8SM -RA OVC009 16/15 A2957 RMK SF8 SLP013 DENSITY ALT 800FT

CYGK;2013-06-28 13:00;CYGK 281300Z 04008KT 10SM -RA BKN008 OVC080 16/15 A2957 RMK SF7AC1 SLP013 DENSITY ALT 800FT

CYGK;2013-06-28 14:00;CYGK 281400Z 01008KT 10SM -RA BKN008 BKN022 OVC080 15/14 A2956 RMK SF5SC2AC1 SLP010 DENSITY ALT 800FT

CYGK;2013-06-28 14:12;CYGK 281412Z 01008KT 8SM -RA FEW009 OVC027 15/14 A2956 RMK SF2SC6 SLP010 DENSITY ALT 700FT

CYGK;2013-06-28 14:41;CYGK 281441Z 01008KT 4SM -RA BR BKN009 OVC033 15/15 A2956 RMK SF6SC2 SLP009 DENSITY ALT 800FT

CYGK;2013-06-28 15:00;CYGK 281500Z 02010KT 6SM -RA BR BKN010 OVC030 15/14 A2956 RMK SF5SC3 SLP008 DENSITY ALT 700FT

CYGK;2013-06-28 16:00;CYGK 281600Z 02010KT 8SM -RA BKN009 OVC060 16/15 A2955 RMK SF6SC2 SLP006 DENSITY ALT 900FT

CYGK;2013-06-28 17:00;CYGK 281700Z 03004KT 8SM -RA BKN009 OVC030 17/16 A2955 RMK SF6SC2 SLP007 DENSITY ALT 1000FT

CYGK;2013-06-28 18:00;CYGK 281800Z 02007KT 8SM -RA BKN009 OVC022 17/16 A2955 RMK SF7SC1 SLP006 DENSITY ALT 1000FT

CYGK;2013-06-28 19:00;CYGK 281900Z 03005KT 3SM -RA BR BKN006 OVC025 17/16 A2955 RMK SF5SC3 SLP007 DENSITY ALT 900FT

CYGK;2013-06-28 19:44;CYGK 281944Z 35006KT 10SM -RA BKN008 OVC025 18/16 A2954 RMK SF6SC2 CIG RAG SLP004 DENSITY ALT 1000FT

CYGK;2013-06-28 20:00;CYGK 282000Z 01007KT 12SM -RA FEW006 BKN010 OVC018 18/16 A2954 RMK SF1SF6SC1 CIG RAG SLP004 DENSITY ALT 1000FT

CYGK;2013-06-28 21:00;CYGK 282100Z 01008KT 12SM SCT009 BKN022 OVC100 17/16 A2955 RMK SF3SC4AC1 SLP007 DENSITY ALT 1000FT

CYGK;2013-06-28 22:00;CYGK 282200Z 01007KT 15SM -RA SCT008 BKN022 OVC110 17/16 A2954 RMK SF3SC2AC3 SLP005 DENSITY ALT 1000FT

CYGK;2013-06-28 22:25;CYGK 282225Z 01009KT 15SM SCT009 BKN120 BKN250 17/16 A2953 RMK SF3AC2CI2 SLP001 DENSITY ALT 1000FT

CYGK;2013-06-28 23:00;CYGK 282300Z 02007KT 15SM SCT009 BKN140 BKN250 17/16 A2952 RMK SF3AC2CI2 SLP996 DENSITY ALT 1000FT

CYGK;2013-06-29 00:00;CYGK 290000Z 02004KT 15SM FEW008 BKN013 OVC110 17/16 A2954 RMK SF1SC5AC2 SLP003 DENSITY ALT 1000FT

CYGK;2013-06-29 00:37;CYGK 290037Z 03005KT 15SM -RA FEW008 BKN015 OVC110 17/15 A2954 RMK SF1SC6AC1 SLP005 DENSITY ALT 1000FT

CYGK;2013-06-29 01:00;CYGK 290100Z 35007KT 15SM FEW008 BKN017 OVC110 17/15 A2954 RMK SF1SC5AC2 INTMT -RA SLP004 DENSITY ALT 900FT

CYGK;2013-06-29 01:21;CYGK 290121Z 35008KT 15SM VCSH FEW008 BKN017 OVC110 17/16 A2954 RMK SF1SC6AC1 SLP005 DENSITY ALT 900FT

CYGK;2013-06-29 02:00;CYGK 290200Z 36005KT 15SM FEW008 BKN016 BKN098 16/15 A2955 RMK SF1SC6AC1 SF TR SLP007 DENSITY ALT 900FT

CYGK;2013-06-29 02:34;CYGK 290234Z 03004KT 15SM -RA BKN014 OVC097 16/15 A2955 RMK SC6AC2 SLP007 DENSITY ALT 900FT

CYGK;2013-06-29 03:00;CYGK 290300Z 03002KT 15SM -RA FEW008 BKN014 OVC097 17/15 A2955 RMK SF1SC6AC1 LAST OBS/NEXT 291000UTC SLP007 DENSITY ALT 900FT

CYGK;2013-06-29 10:00;CYGK 291000Z 12004KT 15SM FEW020 BKN150 BKN230 15/15 A2953 RMK SC1AC5CI1 SLP999 DENSITY ALT 800FT

CYGK;2013-06-29 11:00;CYGK 291100Z 14004KT 15SM FEW020 BKN130 BKN230 17/16 A2954 RMK SC1AC6CI1 SC TR SLP003 DENSITY ALT 1000FT

CYGK;2013-06-29 12:00;CYGK 291200Z 16003KT 15SM FEW020 FEW070 BKN140 OVC230 17/15 A2955 RMK SC1AC1AC7CI1 SC TR AC TR SLP006 DENSITY ALT 1000FT

CYGK;2013-06-29 13:00;CYGK 291300Z 20004KT 15SM FEW013 SCT022 SCT110 OVC150 18/16 A2956 RMK SF2SC1AC1AC4 SLP009 DENSITY ALT 1100FT

CYGK;2013-06-29 14:00;CYGK 291400Z 18004KT 15SM SCT012 SCT060 BKN110 OVC150 18/15 A2955 RMK SF3SC1AC1AC3 SLP008 DENSITY ALT 1100FT

CYGK;2013-06-29 15:00;CYGK 291500Z 18008KT 15SM FEW015 BKN026 OVC120 18/16 A2956 RMK SC1SC4AC3 SLP011 DENSITY ALT 1100FT

CYGK;2013-06-29 16:00;CYGK 291600Z 20006KT 15SM FEW015 BKN023 OVC120 19/16 A2957 RMK SC1SC6AC2 SC TR SLP012 DENSITY ALT 1200FT

CYGK;2013-06-29 17:00;CYGK 291700Z 18004KT 15SM FEW015 BKN030 BKN110 OVC220 20/16 A2957 RMK CU1SC5AC1CI1 SLP012 DENSITY ALT 1300FT

CYGK;2013-06-29 18:00;CYGK 291800Z 18007KT 15SM FEW030 SCT055 BKN220 20/17 A2957 RMK CU2SC1CI4 SLP013 DENSITY ALT 1300FT

CYGK;2013-06-29 19:00;CYGK 291900Z 17008KT 15SM FEW030 FEW110 BKN200 20/17 A2957 RMK CU1AC1CI5 AC TR SLP014 DENSITY ALT 1300FT

CYGK;2013-06-29 20:00;CYGK 292000Z 17009KT 15SM FEW030 FEW110 BKN200 21/17 A2958 RMK CU1AC1CI4 SLP016 DENSITY ALT 1400FT

CYGK;2013-06-29 21:00;CYGK 292100Z 19011KT 15SM FEW010 FEW030 BKN058 BKN220 20/17 A2959 RMK CF1CU1SC4CI2 CF TR CB SHWRS N SLP020 DENSITY ALT 1300FT

CYGK;2013-06-29 22:00;CYGK 292200Z 19011KT 15SM FEW007 FEW030TCU BKN060 BKN220 20/17 A2960 RMK SF1TCU1SC5CI1 SF TR CB NE SLP024 DENSITY ALT 1300FT

CYGK;2013-06-29 23:00;CYGK 292300Z 20011KT 15SM FEW030 FEW065 SCT170 21/17 A2961 RMK CU1SC1AC2 TCU ASOCTD SLP026 DENSITY ALT 1300FT

CYGK;2013-06-30 00:00;CYGK 300000Z 22006KT 15SM FEW010 FEW030CB SCT160 SCT200 19/17 A2963 RMK SF1CB1AC2CI1 SF TR CB SHWRS NW-NE SLP035 DENSITY ALT 1100FT

CYGK;2013-06-30 01:00;CYGK 300100Z 34005KT 15SM FEW007 SCT023 BKN170 19/17 A2965 RMK SF1SC4AC2 SF TR SHWRS W NE SLP041 DENSITY ALT 1100FT

CYGK;2013-06-30 02:00;CYGK 300200Z 06004KT 15SM FEW007 SCT023 BKN045 BKN180 19/17 A2968 RMK SF1SC4SC2AC1 SF TR SLP049 DENSITY ALT 1000FT

CYGK;2013-06-30 03:00;CYGK 300300Z 02003KT 15SM FEW023 SCT180 17/16 A2968 RMK SC1AC2 LAST OBS/NEXT 301000UTC SLP052 DENSITY ALT 900FT

CYGK;2013-06-30 10:00;CYGK 301000Z 01004KT 15SM SCT058 BKN240 16/15 A2977 RMK SC3CI3 SLP082 DENSITY ALT 600FT

CYGK;2013-06-30 11:00;CYGK 301100Z 36006KT 15SM FEW055 SCT240 17/16 A2980 RMK SC2CI2 SLP089 DENSITY ALT 600FT

CYGK;2013-06-30 12:00;CYGK 301200Z 02007KT 15SM FEW055 SCT240 18/15 A2981 RMK SC2CI1 SLP094 DENSITY ALT 800FT

CYGK;2013-06-30 13:00;CYGK 301300Z 01005KT 15SM FEW015 FEW040 FEW080 FEW250 20/15 A2982 RMK CF1SC1AC1CI1 SC TR AC TR SLP097 DENSITY ALT 1000FT

CYGK;2013-06-30 14:00;CYGK 301400Z 12006KT 15SM FEW024 SCT035 SCT080 SCT250 21/16 A2983 RMK CU2SC1AC1CI1 AC TR CI TR SLP102 DENSITY ALT 1100FT

CYGK;2013-06-30 15:00;CYGK 301500Z 15009KT 15SM FEW024 FEW080 SCT250 21/16 A2984 RMK CU2AC1CI1 AC TR SLP104 DENSITY ALT 1100FT

CYGK;2013-06-30 16:00;CYGK 301600Z 17006KT 15SM SCT027 SCT250 21/17 A2985 RMK CU3CI1 CI TR SLP108 DENSITY ALT 1100FT

CYGK;2013-06-30 17:00;CYGK 301700Z 16007KT 15SM FEW030 SCT250 22/16 A2985 RMK CU2CI1 SLP110 DENSITY ALT 1300FT

CYGK;2013-06-30 18:00;CYGK 301800Z 16005KT 15SM SCT035 SCT150 23/17 A2985 RMK CU3AC1 SLP110 DENSITY ALT 1300FT

CYGK;2013-06-30 19:00;CYGK 301900Z 18005KT 15SM SCT035 SCT140 SCT250 23/17 A2986 RMK CU3AC1CI1 AC TR SLP110 DENSITY ALT 1300FT

CYGK;2013-06-30 20:00;CYGK 302000Z 17005KT 15SM SCT035 SCT140 SCT250 24/16 A2985 RMK CU3AC1CI1 CI TR SLP107 DENSITY ALT 1400FT

CYGK;2013-06-30 21:00;CYGK 302100Z 18006KT 15SM SCT035 SCT055 BKN140 BKN250 24/17 A2986 RMK CU3SC1AC1CI1 CI TR SLP110 DENSITY ALT 1500FT

CYGK;2013-06-30 22:00;CYGK 302200Z 21004KT 15SM FEW040 SCT140 SCT250 25/17 A2985 RMK CU2AC1CI1 SLP109 DENSITY ALT 1500FT

CYGK;2013-06-30 23:00;CYGK 302300Z 04007KT 15SM FEW045 FEW140 BKN250 25/16 A2987 RMK SC1AC1CI3 SLP115 DENSITY ALT 1500FT

CYGK;2013-07-01 00:00;CYGK 010000Z 03007KT 15SM FEW045 FEW140 BKN250 23/16 A2989 RMK SC1AC1CI5 SC TR SLP120 DENSITY ALT 1300FT

CYGK;2013-07-01 01:00;CYGK 010100Z 02006KT 15SM FEW040 BKN250 22/15 A2990 RMK SC1CI6 SC TR SLP124 DENSITY ALT 1200FT

CYGK;2013-07-01 02:00;CYGK 010200Z 02009KT 15SM BKN250 21/16 A2993 RMK CI5 SLP134 DENSITY ALT 1000FT

CYGK;2013-07-01 03:00;CYGK 010300Z 02010KT 15SM FEW045 SCT200 20/16 A2994 RMK SC2CI2 LAST OBS/NEXT 011000UTC SLP140 DENSITY ALT 900FT

CYGK;2013-07-01 10:00;CYGK 011000Z 02007KT 10SM SCT140 BKN250 17/13 A3000 RMK AC3CI4 SLP157 DENSITY ALT 500FT

CYGK;2013-07-01 11:00;CYGK 011100Z 02009KT 8SM FEW140 BKN250 17/13 A3001 RMK AC2CI5 SLP163 DENSITY ALT 400FT

CYGK;2013-07-01 12:00;CYGK 011200Z 02009KT 8SM FEW150 OVC250 18/14 A3001 RMK AC1CI7 SLP163 DENSITY ALT 600FT

CYGK;2013-07-01 13:00;CYGK 011300Z 03008KT 8SM FEW150 OVC200 19/15 A3002 RMK AC2CS6 SLP167 DENSITY ALT 700FT

CYGK;2013-07-01 14:00;CYGK 011400Z 04013KT 10SM OVC220 20/15 A3002 RMK CS8 SLP166 DENSITY ALT 700FT

CYGK;2013-07-01 15:00;CYGK 011500Z 02011KT 10SM SCT140 OVC200 22/16 A3003 RMK AS3CS5 SLP169 DENSITY ALT 1000FT

CYGK;2013-07-01 16:00;CYGK 011600Z 04013G19KT 12SM OVC200 22/16 A3002 RMK CS8 SLP167 DENSITY ALT 1000FT

CYGK;2013-07-01 17:00;CYGK 011700Z 03014G22KT 10SM BKN092 OVC200 22/16 A3002 RMK AC5CS3 SLP166 DENSITY ALT 1000FT

CYGK;2013-07-01 18:00;CYGK 011800Z 03016G21KT 15SM FEW045 BKN090 OVC180 23/16 A3002 RMK SC2AC4CS2 SLP166 DENSITY ALT 1100FT

CYGK;2013-07-01 19:00;CYGK 011900Z 02015G25KT 10SM FEW050 SCT090 BKN130 OVC220 22/16 A3002 RMK SC2AC1AS3CS2 SLP166 DENSITY ALT 1100FT

CYGK;2013-07-01 20:00;CYGK 012000Z 04014G23KT 12SM SCT040 OVC130 22/14 A3002 RMK SC3AC5 SLP166 DENSITY ALT 1000FT

CYGK;2013-07-01 20:11;CYGK 012011Z 04014G21KT 10SM -SHRA SCT045 OVC130 22/14 A3002 RMK SC4AC4 SLP165 DENSITY ALT 1000FT

CYGK;2013-07-01 20:25;CYGK 012025Z 03013G22KT 10SM BKN046 OVC120 22/13 A3002 RMK SC5AC3 SLP167 DENSITY ALT 1000FT

CYGK;2013-07-01 20:30;CYGK 012030Z 03014G22KT 8SM -SHRA BKN043 OVC120 22/13 A3003 RMK SC5AC3 SLP168 DENSITY ALT 1000FT

CYGK;2013-07-01 21:00;CYGK 012100Z 03012G18KT 9SM -RA BKN040 OVC120 21/13 A3002 RMK SC5AC3 SLP166 DENSITY ALT 900FT

CYGK;2013-07-01 21:42;CYGK 012142Z 03012G20KT 12SM BKN043 OVC120 21/12 A3002 RMK SC6AC2 SLP167 DENSITY ALT 900FT

CYGK;2013-07-01 22:00;CYGK 012200Z 03009G20KT 12SM BKN042 OVC120 21/12 A3003 RMK SC6AC2 SLP168 DENSITY ALT 800FT

CYGK;2013-07-01 23:00;CYGK 012300Z 02013G18KT 12SM BKN043 OVC120 21/11 A3003 RMK SC6AC2 SLP168 DENSITY ALT 900FT

CYGK;2013-07-02 00:00;CYGK 020000Z 03012G18KT 12SM BKN043 OVC120 20/14 A3004 RMK SC6AC2 SLP172 DENSITY ALT 800FT

CYGK;2013-07-02 01:00;CYGK 020100Z 02011KT 12SM BKN039 OVC100 20/14 A3005 RMK SC7AC1 SLP176 DENSITY ALT 700FT

CYGK;2013-07-02 02:00;CYGK 020200Z 02010KT 12SM BKN040 OVC092 19/13 A3007 RMK SC7AC1 SLP181 DENSITY ALT 700FT

CYGK;2013-07-02 03:00;CYGK 020300Z 03010G15KT 15SM OVC038 19/13 A3007 RMK SC8 LAST OBS/NEXT 021000 UTC SLP182 DENSITY ALT 700FT

CYGK;2013-07-02 10:00;CYGK 021000Z 05010G18KT 4SM BR OVC018 17/12 A3005 RMK NS8 SLP177 DENSITY ALT 400FT

CYGK;2013-07-02 11:00;CYGK 021100Z 04013G19KT 5SM BR OVC015 17/12 A3006 RMK SC8 SLP180 DENSITY ALT 400FT

CYGK;2013-07-02 12:00;CYGK 021200Z 05012G20KT 5SM BR OVC013 16/14 A3008 RMK SC8 PRESRR SLP187

CYGK;2013-07-02 13:00;CYGK 021300Z 04012KT 4SM HZ OVC012 16/14 A3010 RMK SC8 SLP192

CYGK;2013-07-02 14:00;CYGK 021400Z 03010KT 4SM HZ OVC010 17/14 A3009 RMK SC8 SLP191

CYGK;2013-07-02 15:00;CYGK 021500Z 03010KT 4SM HZ OVC009 17/15 A3009 RMK SC8 SLP191

CYGK;2013-07-02 16:00;CYGK 021600Z 04009KT 4SM HZ OVC010 18/16 A3009 RMK NS8 SLP190 DENSITY ALT 500FT

CYGK;2013-07-02 17:00;CYGK 021700Z 04007KT 4SM HZ OVC013 18/16 A3009 RMK SC8 SLP190 DENSITY ALT 500FT

CYGK;2013-07-02 18:00;CYGK 021800Z 04006KT 4SM HZ OVC012 19/16 A3008 RMK SC8 SLP187 DENSITY ALT 600FT

CYGK;2013-07-02 19:00;CYGK 021900Z 04008KT 5SM HZ OVC013 20/16 A3009 RMK SC8 SLP188 DENSITY ALT 700FT

CYGK;2013-07-02 20:00;CYGK 022000Z 03007KT 5SM HZ OVC013 21/17 A3008 RMK SC8 SLP186 DENSITY ALT 800FT

CYGK;2013-07-02 20:36;CYGK 022036Z 04008KT 5SM HZ OVC017 21/17 A3008 RMK SC8 SLP186 DENSITY ALT 800FT

CYGK;2013-07-02 21:00;CYGK 022100Z 04008KT 5SM HZ BKN013 OVC021 21/17 A3008 RMK SC6SC2 SLP185 DENSITY ALT 800FT

CYGK;2013-07-02 21:33;CYGK 022133Z 03009KT 5SM HZ SCT015 OVC022 21/17 A3008 RMK SC4SC4 SLP185 DENSITY ALT 800FT

CYGK;2013-07-02 22:00;CYGK 022200Z 02010KT 5SM HZ FEW015 OVC021 21/17 A3008 RMK SC2SC6 SLP184 DENSITY ALT 900FT

CYGK;2013-07-02 23:00;CYGK 022300Z 02007KT 5SM HZ SCT021 BKN240 21/17 A3008 RMK SC3CI4 SLP187 DENSITY ALT 800FT

CYGK;2013-07-03 00:00;CYGK 030000Z 02007KT 5SM HZ FEW021 SCT060 BKN240 21/17 A3009 RMK SC1SC2CI4 SLP190 DENSITY ALT 800FT

CYGK;2013-07-03 01:00;CYGK 030100Z 01006KT 5SM HZ SCT056 BKN240 20/17 A3009 RMK SC3CI4 SLP191 DENSITY ALT 700FT

CYGK;2013-07-03 02:00;CYGK 030200Z 35005KT 5SM HZ FEW056 BKN240 18/16 A3011 RMK SC2CI4 SLP196 DENSITY ALT 500FT

CYGK;2013-07-03 03:00;CYGK 030300Z 36006KT 5SM HZ BKN240 18/17 A3010 RMK CI5 LAST OBS/NEXT 031000 UTC SLP194 DENSITY ALT 500FT

CYGK;2013-07-03 10:00;CYGK 031000Z 02006KT 4SM HZ FEW007 BKN020 BKN070 OVC250 18/17 A3012 RMK SF1SC5AC1CI2 SF TR SLP200 DENSITY ALT 400FT

CYGK;2013-07-03 11:00;CYGK 031100Z 04006KT 3SM BR BKN008 OVC020 18/17 A3014 RMK SF5SC3 SLP207 DENSITY ALT 500FT

CYGK;2013-07-03 11:32;CYGK 031132Z 04007KT 3SM BR OVC005 19/17 A3015 RMK ST8 SLP208 DENSITY ALT 500FT

CYGK;2013-07-03 12:00;CYGK 031200Z 05006KT 3SM BR BKN004 OVC010 19/18 A3016 RMK ST5SC3 SLP212 DENSITY ALT 600FT

CYGK;2013-07-03 12:42;CYGK 031242Z 04004KT 3SM BR FEW005 BKN008 OVC020 20/18 A3016 RMK SF1SF4SC3 SLP213 DENSITY ALT 600FT

CYGK;2013-07-03 13:00;CYGK 031300Z 07004KT 3SM BR BKN008 OVC020 20/18 A3017 RMK SF5SC3 SLP215 DENSITY ALT 700FT

CYGK;2013-07-03 14:00;CYGK 031400Z 09002KT 3SM BR OVC010 22/19 A3017 RMK SC8 SLP218 DENSITY ALT 800FT

CYGK;2013-07-03 15:00;CYGK 031500Z 13007KT 3SM HZ SCT017 BKN250 23/20 A3017 RMK CU3CI4 SLP218 DENSITY ALT 900FT

CYGK;2013-07-03 16:00;CYGK 031600Z 16006KT 5SM HZ BKN018 BKN250 23/20 A3017 RMK CU5CI1 SLP215 DENSITY ALT 1000FT

CYGK;2013-07-03 17:00;CYGK 031700Z 16006KT 5SM HZ FEW018 BKN220 23/20 A3017 RMK CU2CI5 SLP215 DENSITY ALT 1000FT

CYGK;2013-07-03 18:00;CYGK 031800Z 16006KT 4SM HZ FEW024 BKN210 24/20 A3016 RMK CU2CI5 SLP211 DENSITY ALT 1100FT

CYGK;2013-07-03 19:00;CYGK 031900Z 18009KT 5SM HZ FEW024 BKN210 23/21 A3015 RMK CU2CI5 SLP209 DENSITY ALT 1000FT

CYGK;2013-07-03 20:00;CYGK 032000Z 17006KT 5SM HZ FEW025 BKN210 24/21 A3014 RMK CU1CI5 SLP204 DENSITY ALT 1100FT

CYGK;2013-07-03 21:00;CYGK 032100Z 15003KT 8SM FEW025 BKN190 25/21 A3012 RMK CU1CI4 TCU ASOCTD SLP198 DENSITY ALT 1300FT

CYGK;2013-07-03 22:00;CYGK 032200Z 18006KT 8SM FEW025 SCT190 24/21 A3012 RMK CU1CI4 CU TR SLP198 DENSITY ALT 1100FT

CYGK;2013-07-03 23:00;CYGK 032300Z 18006KT 9SM BKN190 23/21 A3013 RMK CI6 SLP201 DENSITY ALT 1000FT

CYGK;2013-07-04 00:00;CYGK 040000Z 23004KT 9SM BKN200 24/21 A3012 RMK CI6 SLP199 DENSITY ALT 1100FT

CYGK;2013-07-04 01:00;CYGK 040100Z 20003KT 170V230 8SM FEW150 BKN220 23/21 A3013 RMK AC2CI3 SLP202 DENSITY ALT 1000FT

CYGK;2013-07-04 02:00;CYGK 040200Z 18002KT 8SM FEW140 SCT220 21/21 A3014 RMK AC2CI2 SLP205 DENSITY ALT 800FT

CYGK;2013-07-04 03:00;CYGK 040300Z 19007KT 8SM FEW140 SCT220 22/21 A3014 RMK AC1CI3 LAST OBS/NEXT 041000 UTC SLP204 DENSITY ALT 800FT

CYGK;2013-07-04 10:00;CYGK 041000Z 00000KT 3SM BR FEW060 SCT100 BKN130 BKN250 20/20 A3014 RMK SC2AC2AC2CI1 ACC ASOCTD VIS S 1 SLP204 DENSITY ALT 700FT

CYGK;2013-07-04 10:11;CYGK 041011Z 11003KT 3SM BR BKN011 BKN100 BKN130 20/20 A3014 RMK SF5AC1AC1 ACC ASOCTD VIS S 1 SLP204 DENSITY ALT 700FT

CYGK;2013-07-04 10:25;CYGK 041025Z 15002KT 3SM BR SCT011 SCT080 BKN120 BKN160 BKN250 21/21 A3014 RMK SF3AC1AC2AC1CI1 CI TR ACC ASOCTD VIS S 3/4 SLP204 DENSITY ALT 700FT

CYGK;2013-07-04 11:00;CYGK 041100Z 13003KT 3SM BR SCT008 BKN075 OVC160 21/21 A3014 RMK SF3AC3AC2 SLP205 DENSITY ALT 800FT

CYGK;2013-07-04 11:16;CYGK 041116Z 24006KT 130V240 4SM BR VCSH BKN008 OVC075 21/21 A3016 RMK SF6AC2 SH N PRESRR SLP213 DENSITY ALT 800FT

CYGK;2013-07-04 11:35;CYGK 041135Z VRB02KT 2 1/2SM BR BKN010 OVC075 21/21 A3016 RMK SF5AC3 SLP212 DENSITY ALT 800FT

CYGK;2013-07-04 11:42;CYGK 041142Z VRB02KT 3SM BR SCT010 SCT060 BKN100 BKN250 21/21 A3016 RMK SF3SC1AC2CI1 VIS S 11/2 SLP212 DENSITY ALT 800FT

CYGK;2013-07-04 12:00;CYGK 041200Z 03003KT 030V100 4SM BR FEW010 SCT060 BKN075 BKN100 22/21 A3016 RMK SF2SC1AC3AC1 SLP211 DENSITY ALT 900FT

CYGK;2013-07-04 13:00;CYGK 041300Z 14005KT 5SM BR FEW020 SCT070 OVC095 22/21 A3016 RMK SC1AC3AC4 SLP211 DENSITY ALT 900FT

CYGK;2013-07-04 13:38;CYGK 041338Z 18007KT 3SM -SHRA BR BKN005 OVC040 22/21 A3016 RMK SF5SC3 SLP214 DENSITY ALT 800FT

CYGK;2013-07-04 14:00;CYGK 041400Z 19006KT 3SM -SHRA BR SCT005 BKN040 OVC080 21/21 A3017 RMK SF4SC2AC2 VIS LWR S PCPN VRY LGT SLP215 DENSITY ALT 800FT

CYGK;2013-07-04 14:21;CYGK 041421Z 21007KT 3SM BR SCT005 SCT040 OVC085 22/21 A3017 RMK SF3SC1AC4 SLP215 DENSITY ALT 800FT

CYGK;2013-07-04 14:53;CYGK 041453Z 25009KT 3SM -SHRA BR FEW005 SCT042 OVC120 22/21 A3016 RMK SF2SC2AC4 SLP214 DENSITY ALT 900FT

CYGK;2013-07-04 15:00;CYGK 041500Z 26009KT 3SM -SHRA BR FEW005 SCT042 OVC120 22/21 A3016 RMK SF2SC2AC4 SLP214 DENSITY ALT 900FT

CYGK;2013-07-04 15:23;CYGK 041523Z 24008KT 4SM BR SCT050 OVC110 23/21 A3017 RMK SC4AC4 SLP215 DENSITY ALT 1000FT

CYGK;2013-07-04 16:00;CYGK 041600Z 24004KT 6SM BR FEW010 BKN055 BKN090 23/21 A3016 RMK SF1SC4AC2 SLP213 DENSITY ALT 1000FT

CYGK;2013-07-04 17:00;CYGK 041700Z 16006KT 5SM BR SCT018 BKN080 24/22 A3015 RMK CU3AC4 SLP209 DENSITY ALT 1100FT

CYGK;2013-07-04 18:00;CYGK 041800Z 19010KT 5SM BR FEW018 BKN070 BKN140 24/22 A3014 RMK CU2AC3AC1 SLP204 DENSITY ALT 1100FT

CYGK;2013-07-04 19:00;CYGK 041900Z 18010KT 5SM BR FEW020 SCT080 BKN270 23/21 A3013 RMK CU2AC1CI2 CB TOP DIST SE SLP202 DENSITY ALT 1000FT

CYGK;2013-07-04 20:00;CYGK 042000Z 20011KT 8SM FEW025TCU SCT150 BKN250 25/22 A3011 RMK TCU2AC2CI1 SLP196 DENSITY ALT 1300FT

CYGK;2013-07-04 21:00;CYGK 042100Z 19012KT 10SM FEW030TCU SCT150 24/21 A3011 RMK TCU2AC1 SLP194 DENSITY ALT 1100FT

CYGK;2013-07-04 22:00;CYGK 042200Z 23012KT 15SM FEW030TCU FEW250 26/21 A3010 RMK TCU1CI1 SLP192 DENSITY ALT 1400FT

CYGK;2013-07-04 23:00;CYGK 042300Z 23009KT 15SM FEW030TCU FEW250 25/20 A3010 RMK TCU1CI1 TCU TR SLP191 DENSITY ALT 1300FT

CYGK;2013-07-05 00:00;CYGK 050000Z 22006KT 15SM FEW250 24/20 A3010 RMK CI1 SLP191 DENSITY ALT 1200FT

CYGK;2013-07-05 01:00;CYGK 050100Z 18006KT 15SM FEW150 SCT250 21/20 A3011 RMK AC2CI1 SLP195 DENSITY ALT 800FT

CYGK;2013-07-05 02:00;CYGK 050200Z 19002KT 15SM FEW080 SCT250 21/20 A3011 RMK AC1CI3 SLP195 DENSITY ALT 800FT

CYGK;2013-07-05 03:00;CYGK 050300Z 20007KT 15SM FEW090 SCT250 21/20 A3013 RMK AC1CI3 LAST OBS/NEXT 051000 UTC SLP201 DENSITY ALT 700FT

CYGK;2013-07-05 10:00;CYGK 051000Z 23005KT 6SM -SHRA BR BKN055 BKN100 21/20 A3013 RMK SC5AC2 VIS SW 2 SLP203 DENSITY ALT 800FT

CYGK;2013-07-05 11:00;CYGK 051100Z 21006KT 6SM -SHRA BR BKN060 BKN120 21/21 A3013 RMK SC5AC2 SLP202 DENSITY ALT 800FT

CYGK;2013-07-05 11:39;CYGK 051139Z 21005KT 10SM SCT060 BKN140 BKN220 22/21 A3013 RMK SC3AC2CI1 SH DIST E SLP202 DENSITY ALT 800FT

CYGK;2013-07-05 12:00;CYGK 051200Z 25005KT 12SM FEW060 SCT140 BKN220 22/21 A3013 RMK SC2AC1CI3 SLP201 DENSITY ALT 900FT

CYGK;2013-07-05 13:00;CYGK 051300Z 19006KT 12SM FEW010 FEW060 SCT140 BKN220 23/21 A3013 RMK CF1SC1AC3CI2 CF TR VIS S 6 SLP203 DENSITY ALT 1000FT

CYGK;2013-07-05 14:00;CYGK 051400Z 19007KT 10SM FEW015 BKN190 BKN240 23/21 A3013 RMK CF1AC5CI1 CF TR SLP202 DENSITY ALT 1000FT

CYGK;2013-07-05 15:00;CYGK 051500Z 18009KT 10SM FEW015 SCT045 OVC120 22/21 A3013 RMK CF1SC3AC4 SLP203 DENSITY ALT 900FT

CYGK;2013-07-05 16:00;CYGK 051600Z 19008KT 10SM FEW015 BKN042 BKN120 BKN240 23/21 A3013 RMK CU1SC5AC1CI1 CU TR SLP203 DENSITY ALT 1000FT

CYGK;2013-07-05 16:28;CYGK 051628Z 19007KT 10SM -SHRA FEW015 SCT042 BKN120 23/21 A3013 RMK CU1SC3AC3 SLP203 DENSITY ALT 1000FT

CYGK;2013-07-05 17:00;CYGK 051700Z 18008KT 10SM FEW018 FEW038 BKN140 BKN200 24/21 A3013 RMK CU1SC1AC3CI2 SLP201 DENSITY ALT 1100FT

CYGK;2013-07-05 18:00;CYGK 051800Z 19007KT 10SM FEW025 SCT040 BKN120 BKN220 24/21 A3011 RMK SF2SC2AC2CI1 SLP196 DENSITY ALT 1200FT

CYGK;2013-07-05 18:15;CYGK 051815Z 19007KT 8SM -SHRA FEW025 BKN040 BKN120 24/21 A3011 RMK CU2SC3AC2 SLP196 DENSITY ALT 1100FT

CYGK;2013-07-05 19:00;CYGK 051900Z 24005KT 10SM VCSH FEW025 SCT040 BKN075 OVC120 24/22 A3010 RMK CU1SC2AC3AC2 TCU ASOCTD SLP193 DENSITY ALT 1200FT

CYGK;2013-07-05 20:00;CYGK 052000Z 21005KT 12SM FEW025 BKN090 BKN220 25/22 A3008 RMK CU2AC4CI1 SLP185 DENSITY ALT 1400FT

CYGK;2013-07-05 21:00;CYGK 052100Z 17006KT 15SM FEW025TCU BKN090 BKN250 25/22 A3006 RMK TCU1AC4CI2 SLP180 DENSITY ALT 1300FT

CYGK;2013-07-05 22:00;CYGK 052200Z 17007KT 15SM FEW030TCU BKN090 BKN250 24/22 A3006 RMK TCU2AC3CI1 SLP178 DENSITY ALT 1200FT

CYGK;2013-07-05 23:00;CYGK 052300Z 19008KT 15SM FEW030TCU FEW090 SCT250 23/21 A3005 RMK TCU2AC1CI1 AC TR SLP176 DENSITY ALT 1100FT

CYGK;2013-07-06 00:00;CYGK 060000Z 22006KT 15SM FEW030TCU SCT090 SCT250 23/21 A3005 RMK TCU1AC2CC1 SLP175 DENSITY ALT 1100FT

CYGK;2013-07-06 01:00;CYGK 060100Z 22007KT 15SM FEW090 SCT250 22/21 A3006 RMK AC2CI1 SLP178 DENSITY ALT 1000FT

CYGK;2013-07-06 02:00;CYGK 060200Z 22007KT 15SM FEW090 SCT250 22/21 A3006 RMK AC1CI2 SLP179 DENSITY ALT 900FT

CYGK;2013-07-06 03:00;CYGK 060300Z 21004KT 15SM FEW080 FEW250 21/21 A3007 RMK AC1CI1 LAST OBS/NEXT 061000 UTC SLP181 DENSITY ALT 900FT

CYGK;2013-07-06 10:00;CYGK 061000Z 25005KT 5SM BR SCT060 BKN250 21/20 A3010 RMK SC3CI4 SLP193 DENSITY ALT 800FT

CYGK;2013-07-06 10:18;CYGK 061018Z 26004KT 5SM BR SCT003 BKN060 BKN250 21/20 A3011 RMK ST4SC1CI2 SLP195 DENSITY ALT 800FT

CYGK;2013-07-06 10:23;CYGK 061023Z 26003KT 5SM BR BKN004 OVC039 21/20 A3011 RMK ST6SC2 SLP196 DENSITY ALT 800FT

CYGK;2013-07-06 11:00;CYGK 061100Z 28005KT 4SM BR BKN003 OVC040 21/21 A3012 RMK SF7SC1 VIS 2 N SLP198 DENSITY ALT 800FT

CYGK;2013-07-06 11:09;CYGK 061109Z 26005KT 2SM BR OVC002 21/20 A3012 RMK SF8 SLP199 DENSITY ALT 800FT

CYGK;2013-07-06 11:51;CYGK 061151Z 28004KT 3SM BR OVC003 21/21 A3012 RMK SF8 SLP200 DENSITY ALT 800FT

CYGK;2013-07-06 12:00;CYGK 061200Z 29005KT 3SM BR OVC003 21/21 A3012 RMK SF8 SLP199 DENSITY ALT 800FT

CYGK;2013-07-06 13:00;CYGK 061300Z 29006KT 5SM BR BKN004 BKN250 23/21 A3012 RMK SF5CI2 SLP200 DENSITY ALT 1000FT

CYGK;2013-07-06 13:06;CYGK 061306Z 27005KT 5SM BR SCT004 BKN220 23/20 A3012 RMK SF3CI4 SLP200 DENSITY ALT 1000FT

CYGK;2013-07-06 14:00;CYGK 061400Z 21007KT 6SM BR FEW006 FEW160 BKN220 23/21 A3012 RMK SF1AC1CI5 AC TR SLP200 DENSITY ALT 1000FT

CYGK;2013-07-06 15:00;CYGK 061500Z 18008KT 5SM BR FEW015 FEW160 BKN200 24/21 A3012 RMK CF1AC1CI4 SLP200 DENSITY ALT 1100FT

CYGK;2013-07-06 16:00;CYGK 061600Z 19011KT 4SM HZ FEW020 BKN200 23/21 A3013 RMK CF1CI5 SLP203 DENSITY ALT 1100FT

CYGK;2013-07-06 16:10;CYGK 061610Z 18012KT 2 1/2SM BR BKN002 OVC200 23/21 A3013 RMK SF6CI2 SLP203 DENSITY ALT 1000FT

CYGK;2013-07-06 16:14;CYGK 061614Z 19011KT 1/2SM FG OVC002 23/22 A3013 RMK SF8 SLP202 DENSITY ALT 1000FT

CYGK;2013-07-06 16:20;CYGK 061620Z 18012KT 3/8SM FG VV002 23/21 A3013 RMK FG8 SLP202 DENSITY ALT 1000FT

CYGK;2013-07-06 17:00;CYGK 061700Z 18011KT 3/8SM FG VV002 22/21 A3012 RMK FG8 SLP199 DENSITY ALT 900FT

CYGK;2013-07-06 17:11;CYGK 061711Z 18009KT 1/2SM FG VV002 22/21 A3012 RMK FG8 SLP199 DENSITY ALT 900FT

CYGK;2013-07-06 17:19;CYGK 061719Z 17009KT 1SM BR VV002 22/20 A3012 RMK FG8 VIS E-SW 1/2 SLP198 DENSITY ALT 900FT

CYGK;2013-07-06 17:36;CYGK 061736Z 17008KT 3SM BR BKN002 22/21 A3012 RMK SF7 VIS E-SW 1 SLP198 DENSITY ALT 900FT

CYGK;2013-07-06 17:44;CYGK 061744Z 15008KT 5SM BR FEW002 FEW015 BKN250 22/21 A3011 RMK SF1CU1CI5 SLP196 DENSITY ALT 900FT

CYGK;2013-07-06 18:00;CYGK 061800Z 17009KT 6SM BR SCT025 BKN250 23/21 A3011 RMK CU3CI4 SLP195 DENSITY ALT 1000FT

CYGK;2013-07-06 19:00;CYGK 061900Z 18011KT 8SM FEW025 FEW180 BKN240 26/22 A3009 RMK CU1AC1CI5 SLP189 DENSITY ALT 1300FT

CYGK;2013-07-06 20:00;CYGK 062000Z 19010KT 8SM FEW025 FEW180 BKN220 25/21 A3008 RMK CU1AC1CI5 SLP187 DENSITY ALT 1300FT

CYGK;2013-07-06 21:00;CYGK 062100Z 19008KT 10SM SCT180 BKN250 25/21 A3007 RMK AC3CI3 SLP181 DENSITY ALT 1400FT

CYGK;2013-07-06 22:00;CYGK 062200Z 23010KT 12SM FEW180 SCT250 26/19 A3005 RMK AC2CI2 SLP174 DENSITY ALT 1500FT

CYGK;2013-07-06 23:00;CYGK 062300Z 23008KT 15SM FEW180 FEW250 26/18 A3003 RMK AC1CI1 SLP168 DENSITY ALT 1500FT

CYGK;2013-07-07 00:00;CYGK 070000Z 20006KT 15SM FEW250 23/19 A3002 RMK CI2 SLP166 DENSITY ALT 1100FT

CYGK;2013-07-07 01:00;CYGK 070100Z 22004KT 15SM FEW250 22/19 A3003 RMK CI2 SLP170 DENSITY ALT 1000FT

CYGK;2013-07-07 02:00;CYGK 070200Z 22003KT 15SM FEW250 21/19 A3005 RMK CI2 SLP177 DENSITY ALT 900FT

CYGK;2013-07-07 03:00;CYGK 070300Z 20005KT 15SM FEW250 20/19 A3005 RMK CI2 LAST OBS/NEXT 071000 UTC SLP177 DENSITY ALT 800FT

CYGK;2013-07-07 10:00;CYGK 071000Z 25003KT 5SM BR SCT083 BKN140 21/20 A3000 RMK AC4AC3 SLP158 DENSITY ALT 900FT

CYGK;2013-07-07 11:00;CYGK 071100Z 23003KT 5SM BR FEW080 BKN130 BKN200 22/20 A3000 RMK AC1AC4CI2 SLP158 DENSITY ALT 1000FT

CYGK;2013-07-07 12:00;CYGK 071200Z 18007KT 4SM BR BKN077 OVC140 21/21 A3002 RMK AC6AC2 SLP165 DENSITY ALT 1000FT

CYGK;2013-07-07 13:00;CYGK 071300Z 20008KT 5SM BR FEW003 SCT050 OVC083 22/21 A3002 RMK SF1SC4AC4 SF TR SLP166 DENSITY ALT 1000FT

CYGK;2013-07-07 14:00;CYGK 071400Z 19011KT 6SM BR FEW005 SCT035 BKN045 OVC090 22/21 A3002 RMK SF1SC2SC4AC1 SLP166 DENSITY ALT 1000FT

CYGK;2013-07-07 14:09;CYGK 071409Z 19010KT 2 1/2SM -RA BR FEW005 SCT023 BKN050 22/21 A3002 RMK SF1SC2SC2 SLP166 DENSITY ALT 1000FT

CYGK;2013-07-07 14:41;CYGK 071441Z 18009KT 4SM BR FEW003 SCT025 OVC060 22/21 A3002 RMK SF2SC2SC4 SLP164 DENSITY ALT 1000FT

CYGK;2013-07-07 15:00;CYGK 071500Z 18008KT 4SM BR BKN002 BKN028 OVC078 22/21 A3001 RMK SF5SC2AC1 SLP162 DENSITY ALT 1000FT

CYGK;2013-07-07 15:06;CYGK 071506Z 18005KT 5SM -SHRA BR SCT002 BKN028TCU OVC070 22/22 A3001 RMK SF4TCU2AC2 SLP161 DENSITY ALT 1000FT

CYGK;2013-07-07 15:22;CYGK 071522Z 18007KT 6SM BR FEW002 BKN024 OVC070 22/22 A3001 RMK SF2SC4AC2 TCU ASOCTD SLP161 DENSITY ALT 1100FT

CYGK;2013-07-07 16:00;CYGK 071600Z 16009KT 10SM FEW005 BKN014 OVC060 22/21 A3001 RMK SF1SC5SC2 SLP161 DENSITY ALT 1000FT

CYGK;2013-07-07 16:19;CYGK 071619Z 16008KT 10SM -SHRA FEW005 SCT015 OVC060 22/21 A3001 RMK SF1SC3SC4 TCU ASOCTD SLP161 DENSITY ALT 1000FT

CYGK;2013-07-07 16:39;CYGK 071639Z 16008KT 12SM FEW004 FEW015 SCT060 BKN230 23/22 A3000 RMK SF1SC2SC2CI3 SF TR TCU ASOCTD SLP159 DENSITY ALT 1100FT

CYGK;2013-07-07 17:00;CYGK 071700Z 16008KT 12SM SCT018 SCT060 BKN230 23/22 A3000 RMK SC3SC1CI3 SLP157 DENSITY ALT 1200FT

CYGK;2013-07-07 18:00;CYGK 071800Z 24011G17KT 12SM FEW025 SCT060 BKN200 27/22 A2997 RMK CU2SC1CI4 TCU ASOCTD SLP149 DENSITY ALT 1600FT

CYGK;2013-07-07 19:00;CYGK 071900Z 23014KT 15SM SCT035 SCT080 BKN200 26/21 A2997 RMK CU3AC1CI3 SLP146 DENSITY ALT 1500FT

CYGK;2013-07-07 20:00;CYGK 072000Z 24014G20KT 15SM FEW035 SCT080 SCT170 BKN200 27/20 A2994 RMK CU2AC1AC1CI3 TCU ASOCTD SLP139 DENSITY ALT 1700FT

CYGK;2013-07-07 21:00;CYGK 072100Z 24014G20KT 15SM FEW035 SCT160 BKN200 26/20 A2994 RMK CU2AC2CI3 TCU ASOCTD SLP138 DENSITY ALT 1600FT

CYGK;2013-07-07 22:00;CYGK 072200Z 24008KT 15SM FEW030 SCT042 BKN140 BKN200 25/20 A2993 RMK CU1SC2AC2CI2 TCU ASOCTD SLP134 DENSITY ALT 1500FT

CYGK;2013-07-07 23:00;CYGK 072300Z 24008KT 15SM FEW030 BKN058 BKN120 25/20 A2993 RMK CU1SC4AC2 SLP134 DENSITY ALT 1400FT

CYGK;2013-07-08 00:00;CYGK 080000Z 24008KT 15SM FEW040 SCT060 BKN160 24/20 A2993 RMK SC1SC2AC4 SLP133 DENSITY ALT 1400FT

CYGK;2013-07-08 01:00;CYGK 080100Z 24007KT 15SM FEW030 FEW060 BKN150 BKN250 23/20 A2992 RMK SC1SC1AC3CI2 SLP132 DENSITY ALT 1300FT

CYGK;2013-07-08 02:00;CYGK 080200Z 23004KT 15SM FEW030 BKN075 BKN150 23/20 A2993 RMK SC2AC3AC2 SLP133 DENSITY ALT 1300FT

CYGK;2013-07-08 03:00;CYGK 080300Z 23003KT 15SM FEW030 BKN100 OVC240 23/20 A2994 RMK SC2AC5CI1 LAST OBS/NEXT 081000UTC SLP138 DENSITY ALT 1200FT

CYGK;2013-07-08 10:00;CYGK 081000Z 29005KT 15SM FEW012 FEW130 SCT180 BKN220 19/19 A2998 RMK SF1AC2AC2CI3 SF TR SLP150 DENSITY ALT 800FT

CYGK;2013-07-08 11:00;CYGK 081100Z 34004KT 15SM FEW012 FEW050 FEW120 BKN220 OVC230 20/19 A2999 RMK SF1SC1AC1CC5CI2 SF TR SC TR SLP153 DENSITY ALT 800FT

CYGK;2013-07-08 12:00;CYGK 081200Z 33003KT 15SM FEW015 FEW060 BKN130 BKN230 21/19 A3001 RMK CF1SC1AC4CC2 CF TR SLP160 DENSITY ALT 1000FT

CYGK;2013-07-08 13:00;CYGK 081300Z 24002KT 15SM FEW015 FEW060 BKN150 BKN240 22/20 A3001 RMK CF1SC1AC4CI2 CF TR SLP160 DENSITY ALT 1100FT

CYGK;2013-07-08 14:00;CYGK 081400Z 19003KT 15SM FEW015 FEW060 SCT150 BKN250 23/20 A3002 RMK CU1SC1AC3CI2 SC TR SLP164 DENSITY ALT 1100FT

CYGK;2013-07-08 15:00;CYGK 081500Z 21005KT 15SM FEW018 SCT150 25/20 A3002 RMK CU1AC2 SLP165 DENSITY ALT 1300FT

CYGK;2013-07-08 16:00;CYGK 081600Z 17006KT 15SM FEW020 SCT150 25/20 A3003 RMK CU1AC2 SLP168 DENSITY ALT 1400FT

CYGK;2013-07-08 17:00;CYGK 081700Z 17008KT 15SM FEW026 BKN150 25/21 A3004 RMK CU2AC3 SLP170 DENSITY ALT 1300FT

CYGK;2013-07-08 18:00;CYGK 081800Z 18010KT 15SM SCT027 BKN130 BKN270 24/21 A3003 RMK CU3AC2CI1 SLP168 DENSITY ALT 1200FT

CYGK;2013-07-08 19:00;CYGK 081900Z 17008KT 10SM FEW002 FEW030 SCT062 BKN270 23/22 A3002 RMK SF1CU2SC2CI2 SF TR SLP165 DENSITY ALT 1200FT

CYGK;2013-07-08 20:00;CYGK 082000Z 16007KT 8SM FEW030 SCT110 BKN270 23/21 A3001 RMK CU1AC3CI2 CB DIST NW-N SLP163 DENSITY ALT 1200FT

CYGK;2013-07-08 21:00;CYGK 082100Z 15007KT 8SM FEW025 SCT120 BKN270 24/21 A3000 RMK CU1AC2CI3 CB N SLP158 DENSITY ALT 1300FT

CYGK;2013-07-08 22:00;CYGK 082200Z 15004KT 8SM VCSH FEW012 SCT025CB BKN080 BKN270 23/21 A3001 RMK CF1CB2AC3CI1 SLP162 DENSITY ALT 1200FT

CYGK;2013-07-08 22:22;CYGK 082222Z 30005KT 160V300 8SM TS VCSH FEW008 BKN025CB OVC120 23/21 A3002 RMK SF1CB4AC3 PRESRR SLP167 DENSITY ALT 1100FT

CYGK;2013-07-08 22:37;CYGK 082237Z 28003KT 8SM -TSRA FEW008 BKN025CB OVC120 23/20 A3002 RMK SF1CB6AC1 VIS N 11/2 SLP167 DENSITY ALT 1100FT

CYGK;2013-07-08 23:00;CYGK 082300Z 11003KT 100V170 5SM -TSRA FEW008 SCT025CB BKN080 22/21 A3002 RERA RMK SF1CB3AC3 SLP165 DENSITY ALT 1000FT

CYGK;2013-07-08 23:25;CYGK 082325Z 22005KT 160V220 6SM -SHRA FEW008 FEW025CB BKN095 OVC250 22/21 A3002 RETS RMK SF1CB2AC5CI1 SF TR SLP167 DENSITY ALT 1000FT

CYGK;2013-07-09 00:00;CYGK 090000Z 29005KT 6SM -SHRA BR FEW006 SCT025 BKN085 22/21 A3003 RETS RMK SF1SC3AC4 SF TR CB EMBDD SLP169 DENSITY ALT 1000FT

CYGK;2013-07-09 01:00;CYGK 090100Z 01002KT 8SM -SHRA SCT025 BKN090 OVC130 22/21 A3002 RMK SC3AC3AC2 SLP167 DENSITY ALT 1000FT

CYGK;2013-07-09 01:46;CYGK 090146Z 13004KT 8SM VCSH FEW025 OVC100 22/21 A3003 RMK SC2AC6 SLP168 DENSITY ALT 1000FT

CYGK;2013-07-09 02:00;CYGK 090200Z VRB02KT 8SM FEW025 BKN100 22/21 A3004 RMK SC1AC6 SLP171 DENSITY ALT 1000FT

CYGK;2013-07-09 03:00;CYGK 090300Z 00000KT 8SM FEW006 SCT100 OVC190 21/21 A3004 RMK SF1AC3AC4 LAST OBS/NEXT 091000UTC SLP172 DENSITY ALT 900FT

CYGK;2013-07-09 10:00;CYGK 091000Z 10002KT 3SM BR FEW030 BKN110 OVC220 21/21 A3004 RMK SC1AC4CC3 SLP171 DENSITY ALT 800FT

CYGK;2013-07-09 10:30;CYGK 091030Z 11003KT 3SM BR BKN005 BKN110 OVC220 21/21 A3004 RMK SF5AC2CC1 SLP172 DENSITY ALT 900FT

CYGK;2013-07-09 10:45;CYGK 091045Z 09002KT 3SM BR BKN003 OVC110 21/21 A3004 RMK SF5AC3 SLP173 DENSITY ALT 900FT

CYGK;2013-07-09 11:00;CYGK 091100Z 09003KT 4SM BR BKN003 OVC110 22/21 A3005 RMK SF6AC2 SLP175 DENSITY ALT 900FT

CYGK;2013-07-09 12:00;CYGK 091200Z 17006KT 2 1/2SM BR OVC002 22/21 A3005 RMK SF8 SLP176 DENSITY ALT 1000FT

CYGK;2013-07-09 12:27;CYGK 091227Z 19005KT 2 1/2SM BR SCT002 OVC120 22/21 A3005 RMK SF3AC5 SLP176 DENSITY ALT 1000FT

CYGK;2013-07-09 13:00;CYGK 091300Z 20005KT 4SM BR SCT002 OVC110 22/21 A3005 RMK SF3AC5 VIS N 2 SLP177 DENSITY ALT 1000FT

CYGK;2013-07-09 14:00;CYGK 091400Z 18006KT 5SM BR FEW004 FEW015TCU FEW070 BKN110 22/21 A3005 RMK SF1TCU1AC1AC5 TCU TR TCU N SLP176 DENSITY ALT 1000FT

CYGK;2013-07-09 14:18;CYGK 091418Z 18005KT 4SM BR BKN002 OVC015 22/21 A3005 RMK SF6SC2 SLP176 DENSITY ALT 1000FT

CYGK;2013-07-09 15:00;CYGK 091500Z 18005KT 3SM BR OVC002 22/22 A3005 RMK SF8 SLP177 DENSITY ALT 1000FT

CYGK;2013-07-09 15:30;CYGK 091530Z 20006KT 3SM BR SCT002 OVC100 22/22 A3005 RMK SF3AC5 SLP176 DENSITY ALT 1000FT

CYGK;2013-07-09 16:00;CYGK 091600Z 18005KT 6SM BR FEW005 FEW100 BKN130 23/22 A3004 RMK SF1AC1AC4 VIS SE-SW 3 SLP171 DENSITY ALT 1100FT

CYGK;2013-07-09 17:00;CYGK 091700Z 16007KT 5SM BR FEW003 FEW025 BKN120 24/22 A3003 RMK SF1CU1AC5 SF TR CU TR TCU ASOCTD SLP168 DENSITY ALT 1200FT

CYGK;2013-07-09 18:00;CYGK 091800Z 16006KT 5SM HZ FEW005 SCT150 24/22 A3002 RMK SF1AC2 SLP163 DENSITY ALT 1300FT

CYGK;2013-07-09 19:00;CYGK 091900Z 16003KT 5SM HZ FEW025 SCT130 BKN200 25/22 A3001 RMK CF1AC3CI2 CF TR SLP161 DENSITY ALT 1400FT

CYGK;2013-07-09 20:00;CYGK 092000Z 16003KT 6SM HZ FEW030TCU BKN120 26/21 A2999 RMK TCU1AC6 TCU TR SLP153 DENSITY ALT 1500FT

CYGK;2013-07-09 21:00;CYGK 092100Z 18005KT 8SM FEW030CB FEW120 SCT270 26/21 A2996 RMK CB1AC2CI2 CB TR CB S SLP145 DENSITY ALT 1600FT

CYGK;2013-07-09 22:00;CYGK 092200Z 18015G21KT 8SM VCSH FEW008 SCT030CB OVC100 24/22 A2997 RMK SF1CB3AC5 SF TR CB SSE MVG NE VIS SE-S 3 SLP149 DENSITY ALT 1300FT

CYGK;2013-07-09 22:04;CYGK 092204Z 17012G21KT 8SM -SHRA FEW008 SCT030CB BKN040 OVC100 24/22 A2997 RMK SF1CB3SC3AC2 SF TR CB SE MVG NE VIS SE 3 SLP149 DENSITY ALT 1300FT

CYGK;2013-07-09 22:36;CYGK 092236Z 14006KT 8SM VCSH FEW008 FEW030 BKN040 BKN070 23/21 A2996 RMK SF1CU2SC3AC2 SF TR CB ESE SLP143 DENSITY ALT 1200FT

CYGK;2013-07-09 23:00;CYGK 092300Z 19004KT 10SM VCSH FEW025 BKN060 BKN110 24/20 A2995 RMK SC1SC4AC2 SLP140 DENSITY ALT 1300FT

CYGK;2013-07-10 00:00;CYGK 100000Z 15008KT 10SM FEW030 SCT070 BKN270 23/22 A2992 RMK SC1AC3CI3 SLP131 DENSITY ALT 1300FT

CYGK;2013-07-10 01:00;CYGK 100100Z 16002KT 8SM FEW030 SCT078 BKN270 23/21 A2993 RMK SC1AC2CI2 SLP133 DENSITY ALT 1200FT

CYGK;2013-07-10 02:00;CYGK 100200Z 19002KT 10SM FEW050 SCT080 BKN140 22/21 A2994 RMK SC2AC2AC2 SLP137 DENSITY ALT 1100FT

CYGK;2013-07-10 03:00;CYGK 100300Z 14004KT 8SM FEW057 BKN080 OVC120 23/21 A2991 RMK SC2AC5AC1 LAST OBS/NEXT 101000UTC SLP129 DENSITY ALT 1200FT

CYGK;2013-07-10 10:00;CYGK 101000Z 19007KT 3SM BR FEW005 SCT015 BKN090 OVC250 22/22 A2982 RMK SF2SC2AC3CI1 VIS N 11/2 SLP098 DENSITY ALT 1200FT

CYGK;2013-07-10 11:00;CYGK 101100Z 20009KT 3SM BR FEW005 SCT010 BKN100 OVC250 22/22 A2981 RMK SF1SC3AC3CI1 SLP095 DENSITY ALT 1300FT

CYGK;2013-07-10 12:00;CYGK 101200Z 20010KT 3SM BR FEW004 BKN055 OVC120 22/22 A2980 RMK SF2SC4AC2 SLP090 DENSITY ALT 1300FT

CYGK;2013-07-10 12:30;CYGK 101230Z 20012KT 2 1/2SM -SHRA BR FEW004 OVC016 22/21 A2980 RMK SF1SC7 SLP091 DENSITY ALT 1300FT

CYGK;2013-07-10 13:00;CYGK 101300Z 19010KT 2 1/2SM -RA BR FEW004 BKN016 OVC028 22/22 A2980 RMK SF1SC6SC1 SLP088 DENSITY ALT 1300FT

CYGK;2013-07-10 13:25;CYGK 101325Z 20009KT 1 1/2SM -RA BR OVC015 22/22 A2979 RMK SC8 SLP088 DENSITY ALT 1300FT

CYGK;2013-07-10 14:00;CYGK 101400Z 20011KT 3SM BR FEW005 OVC018 22/22 A2979 RMK SF1SC8 SF TR SLP087 DENSITY ALT 1300FT

CYGK;2013-07-10 15:00;CYGK 101500Z 20012KT 3SM BR FEW005 OVC021 23/22 A2978 RMK SF1SC7 SLP083 DENSITY ALT 1400FT

CYGK;2013-07-10 16:00;CYGK 101600Z 19014KT 4SM BR OVC020 23/22 A2976 RMK SC8 CIG RAG SLP077 DENSITY ALT 1400FT

CYGK;2013-07-10 17:00;CYGK 101700Z 20011KT 6SM BR OVC020 23/22 A2975 RMK SC8 SLP074 DENSITY ALT 1500FT

CYGK;2013-07-10 18:00;CYGK 101800Z 19013KT 10SM BKN022 25/22 A2973 RMK SC7 SLP067 DENSITY ALT 1700FT

CYGK;2013-07-10 19:00;CYGK 101900Z 23014G23KT 10SM BKN026 28/23 A2972 RMK SC6 SLP062 DENSITY ALT 2000FT

CYGK;2013-07-10 20:00;CYGK 102000Z 23017G23KT 12SM FEW026 FEW160 28/23 A2970 RMK CU2AC1 AC TR SLP055 DENSITY ALT 2100FT

CYGK;2013-07-10 21:00;CYGK 102100Z 23016G25KT 10SM FEW030 FEW160 SCT220 28/22 A2969 RMK CU1AC1CI1 SLP053 DENSITY ALT 2100FT

CYGK;2013-07-10 22:00;CYGK 102200Z 20010G16KT 10SM FEW030 FEW160 BKN220 26/22 A2968 RMK CU1AC1CI5 AC TR TCU ASOCTD SLP051 DENSITY ALT 1900FT

CYGK;2013-07-10 23:00;CYGK 102300Z 21011KT 10SM FEW030CB FEW160 OVC250 26/22 A2969 RMK CB1AC1CI6 CB N-NE SLP053 DENSITY ALT 1900FT

CYGK;2013-07-11 00:00;CYGK 110000Z 21007KT 12SM FEW040 FEW160 OVC220 25/22 A2969 RMK CU1AC1CS7 CU TR VIS S 6 HZ SLP053 DENSITY ALT 1800FT

CYGK;2013-07-11 01:00;CYGK 110100Z 23009KT 12SM FEW050TCU SCT140 BKN220 25/22 A2971 RMK TCU2AC1CS4 VIS S 6 HZ SLP060 DENSITY ALT 1700FT

CYGK;2013-07-11 02:00;CYGK 110200Z 24008KT 12SM SCT055CB BKN070 BKN250 24/22 A2973 RMK CB3AC2CS2 LTG CB TOPS DIST E-SE SLP067 DENSITY ALT 1600FT

CYGK;2013-07-11 03:00;CYGK 110300Z 26005KT 12SM BKN059TCU OVC120 24/21 A2975 RMK TCU5AC3 LAST OBS/NEXT 111000 UTC SLP072 DENSITY ALT 1600FT

CYGK;2013-07-11 10:00;CYGK 111000Z 26007KT 15SM BKN040 17/15 A2986 RMK SC7 SLP112 DENSITY ALT 600FT

CYGK;2013-07-11 11:00;CYGK 111100Z 28006KT 15SM SCT045 17/15 A2988 RMK SC3 SLP119 DENSITY ALT 600FT

CYGK;2013-07-11 12:00;CYGK 111200Z 30007KT 15SM BKN045 19/16 A2990 RMK SC6 SLP125 DENSITY ALT 800FT

CYGK;2013-07-11 13:00;CYGK 111300Z 33006KT 15SM BKN051 20/17 A2992 RMK SC6 SLP132 DENSITY ALT 900FT

CYGK;2013-07-11 14:00;CYGK 111400Z 32006KT 320V040 15SM FEW020 BKN055 21/16 A2993 RMK CU2SC5 SLP135 DENSITY ALT 1000FT

CYGK;2013-07-11 15:00;CYGK 111500Z 01003KT 360V070 15SM SCT023 BKN055 23/16 A2995 RMK CU4SC3 SLP140 DENSITY ALT 1200FT

CYGK;2013-07-11 15:27;CYGK 111527Z 14006KT 15SM -SHRA BKN025 BKN040 21/17 A2995 RMK CU6SC1 SLP140 DENSITY ALT 1000FT

CYGK;2013-07-11 16:00;CYGK 111600Z 16008KT 15SM BKN030 BKN100 22/17 A2995 RMK CU5AC1 SLP140 DENSITY ALT 1100FT

CYGK;2013-07-11 17:00;CYGK 111700Z 18005KT 15SM -SHRA BKN035 BKN100 21/17 A2995 RMK CU5AC1 TCU ASOCTD SLP142 DENSITY ALT 1000FT

CYGK;2013-07-11 17:36;CYGK 111736Z 20009KT 15SM BKN038 BKN090 22/17 A2995 RMK CU5AC1 TCU ASOCTD SLP142 DENSITY ALT 1100FT

CYGK;2013-07-11 18:00;CYGK 111800Z 21009KT 15SM BKN038 BKN090 23/18 A2995 RMK CU6AC1 TCU ASOCTD SLP141 DENSITY ALT 1200FT

CYGK;2013-07-11 18:32;CYGK 111832Z 22009KT 15SM -SHRA BKN041 BKN072 21/18 A2996 RMK CU5AC2 TCU ASOCTD SLP146 DENSITY ALT 1000FT

CYGK;2013-07-11 19:00;CYGK 111900Z 23004KT 15SM SCT041 BKN085 21/19 A2996 RMK CU3AC3 SLP146 DENSITY ALT 1000FT

CYGK;2013-07-11 20:00;CYGK 112000Z 23008KT 15SM FEW045 SCT095 23/18 A2996 RMK CU1AC2 SLP146 DENSITY ALT 1200FT

CYGK;2013-07-11 21:00;CYGK 112100Z 19009KT 15SM FEW045TCU SCT066 BKN100 23/18 A2997 RMK TCU2AC2AC1 TCU W-NW SLP148 DENSITY ALT 1100FT

CYGK;2013-07-11 22:00;CYGK 112200Z 26006KT 15SM VCSH SCT052 BKN075 21/17 A2998 RMK CU3AC4 TCU ASOCTD SLP151 DENSITY ALT 1000FT

CYGK;2013-07-11 23:00;CYGK 112300Z 29005KT 15SM SCT058 BKN090 21/18 A2999 RMK SC4AC3 TCU ASOCTD SLP155 DENSITY ALT 900FT

CYGK;2013-07-11 23:12;CYGK 112312Z 32007KT 15SM -SHRA SCT050 BKN072 20/17 A3000 RMK SC4AC3 TCU ASOCTD SLP157 DENSITY ALT 900FT

CYGK;2013-07-11 23:39;CYGK 112339Z 27006KT 15SM SCT056 BKN096 20/17 A3000 RMK SC4AC3 TCU ASOCTD SLP157 DENSITY ALT 800FT

CYGK;2013-07-12 00:00;CYGK 120000Z 31006KT 15SM SCT060 BKN100 20/18 A3000 RMK SC3AC4 TCU ASOCTD SLP160 DENSITY ALT 800FT

CYGK;2013-07-12 01:00;CYGK 120100Z 32005KT 15SM BKN054 BKN100 19/18 A3001 RMK SC5AC2 SLP162 DENSITY ALT 700FT

CYGK;2013-07-12 02:00;CYGK 120200Z 34007KT 15SM SCT042 BKN072 20/18 A3002 RMK SC3AC4 SLP167 DENSITY ALT 800FT

CYGK;2013-07-12 03:00;CYGK 120300Z 35007KT 15SM SCT082 18/17 A3004 RMK AC3 LAST OBS/NEXT 121000 UTC SLP172 DENSITY ALT 600FT

CYGK;2013-07-12 10:00;CYGK 121000Z 03007KT 15SM BKN250 16/13 A3013 RMK CS7 SLP204

CYGK;2013-07-12 11:00;CYGK 121100Z 02008KT 15SM BKN250 16/13 A3015 RMK CS7 SLP210

CYGK;2013-07-12 12:00;CYGK 121200Z 04007KT 15SM BKN250 17/13 A3016 RMK CS7 SLP214

CYGK;2013-07-12 13:00;CYGK 121300Z 04008KT 15SM FEW030 BKN200 19/15 A3017 RMK SC1CS6 SC TR SLP216 DENSITY ALT 500FT

CYGK;2013-07-12 14:00;CYGK 121400Z 01008KT 15SM BKN230 20/15 A3017 RMK CS7 SLP218 DENSITY ALT 700FT

CYGK;2013-07-12 15:00;CYGK 121500Z 07006KT 15SM FEW025 BKN240 22/15 A3018 RMK CF1CS7 CF TR SLP219 DENSITY ALT 800FT

CYGK;2013-07-12 16:00;CYGK 121600Z 02008KT 15SM FEW035 BKN220 23/15 A3017 RMK CF1CS7 CF TR SLP214 DENSITY ALT 1000FT

CYGK;2013-07-12 17:00;CYGK 121700Z 04005KT 320V050 15SM FEW040 FEW140 BKN230 24/15 A3017 RMK CU1AC1CS7 CU TR AC TR SLP214 DENSITY ALT 1100FT

CYGK;2013-07-12 18:00;CYGK 121800Z 01006KT 15SM FEW045 BKN220 25/14 A3017 RMK CU2CS5 SLP214 DENSITY ALT 1200FT

CYGK;2013-07-12 19:00;CYGK 121900Z 08006KT 330V090 15SM FEW050 BKN220 25/15 A3017 RMK CU1CS6 SLP214 DENSITY ALT 1300FT

CYGK;2013-07-12 20:00;CYGK 122000Z 18007KT 120V200 15SM FEW048 FEW160 BKN220 25/16 A3015 RMK CU1AC1CS5 SLP210 DENSITY ALT 1200FT

CYGK;2013-07-12 21:00;CYGK 122100Z 06005KT 15SM FEW048 BKN220 25/15 A3015 RMK CU1CI5 SLP209 DENSITY ALT 1200FT

CYGK;2013-07-12 22:00;CYGK 122200Z 04006KT 15SM FEW045 BKN200 25/16 A3014 RMK CU1CI7 CU TR SLP207 DENSITY ALT 1200FT

CYGK;2013-07-12 23:00;CYGK 122300Z 01005KT 15SM BKN200 24/16 A3014 RMK CI6 SLP207 DENSITY ALT 1100FT

CYGK;2013-07-13 00:00;CYGK 130000Z 02005KT 15SM BKN200 23/15 A3015 RMK CI6 SLP211 DENSITY ALT 1000FT

CYGK;2013-07-13 01:00;CYGK 130100Z 36004KT 15SM FEW140 BKN200 21/15 A3016 RMK AC1CI5 SLP214 DENSITY ALT 700FT

CYGK;2013-07-13 02:00;CYGK 130200Z 01006KT 15SM BKN200 19/15 A3018 RMK CI7 SLP220 DENSITY ALT 500FT

CYGK;2013-07-13 03:00;CYGK 130300Z 03005KT 15SM BKN200 19/15 A3019 RMK CI7 LAST OBS/NEXT 131000 UTC SLP223 DENSITY ALT 500FT

CYGK;2013-07-13 10:00;CYGK 131000Z 02004KT 15SM BKN250 15/13 A3022 RMK CI6 SLP232

CYGK;2013-07-13 11:00;CYGK 131100Z 01007KT 15SM FEW080 BKN200 18/15 A3023 RMK AC2CI5 SLP237

CYGK;2013-07-13 12:00;CYGK 131200Z 04005KT 15SM FEW080 SCT200 BKN270 19/16 A3025 RMK AC1CI3CI3 SLP244 DENSITY ALT 400FT

CYGK;2013-07-13 13:00;CYGK 131300Z 06003KT 15SM FEW080 BKN270 22/17 A3026 RMK AC1CI5 SLP247 DENSITY ALT 700FT

CYGK;2013-07-13 14:00;CYGK 131400Z VRB02KT 15SM FEW080 BKN270 24/17 A3025 RMK AC1CI5 SLP244 DENSITY ALT 1000FT

CYGK;2013-07-13 15:00;CYGK 131500Z 20005KT 15SM FEW036 FEW080 BKN270 25/18 A3025 RMK CU1AC1CI6 CU TR AC TR SLP243 DENSITY ALT 1100FT

CYGK;2013-07-13 16:00;CYGK 131600Z 16004KT 15SM FEW040 FEW085 BKN270 26/18 A3025 RMK CU1AC1CI5 AC TR SLP241 DENSITY ALT 1200FT

CYGK;2013-07-13 17:00;CYGK 131700Z 20007KT 15SM FEW040 FEW085 BKN270 26/18 A3024 RMK CU1AC1CI4 AC TR SLP240 DENSITY ALT 1200FT

CYGK;2013-07-13 18:00;CYGK 131800Z 19011KT 15SM FEW040 BKN050 25/19 A3024 RMK CU1SC6 SLP241 DENSITY ALT 1100FT

CYGK;2013-07-13 19:00;CYGK 131900Z 20008KT 15SM FEW040 FEW050 SCT270 25/19 A3024 RMK CU1SC1CI2 SLP240 DENSITY ALT 1100FT

CYGK;2013-07-13 20:00;CYGK 132000Z 19008KT 15SM FEW040 FEW120 SCT300 25/19 A3024 RMK CU1AC1CI3 CU TR SLP241 DENSITY ALT 1100FT

CYGK;2013-07-13 21:00;CYGK 132100Z 19006KT 15SM FEW045 FEW060 SCT300 25/19 A3024 RMK CU1SC1CI2 CU TR SLP240 DENSITY ALT 1100FT

CYGK;2013-07-13 22:00;CYGK 132200Z 15003KT 15SM FEW045 FEW060 FEW300 25/19 A3024 RMK CU1SC1CI2 CU TR SC TR SLP239 DENSITY ALT 1200FT

CYGK;2013-07-13 23:00;CYGK 132300Z 18004KT 15SM FEW040 FEW060 FEW300 25/19 A3024 RMK CU1SC1CI1 CU TR SLP240 DENSITY ALT 1100FT

CYGK;2013-07-14 00:00;CYGK 140000Z 26002KT 15SM FEW060 FEW300 25/20 A3024 RMK SC1CI1 CI TR SLP240 DENSITY ALT 1100FT

CYGK;2013-07-14 01:00;CYGK 140100Z 22002KT 15SM FEW060 FEW120 FEW300 24/20 A3024 RMK SC1AC1CI1 SC TR AC TR SLP240 DENSITY ALT 1000FT

CYGK;2013-07-14 02:00;CYGK 140200Z 17003KT 15SM FEW060 FEW300 22/19 A3025 RMK SC1CI1 SC TR CI TR SLP244 DENSITY ALT 800FT

CYGK;2013-07-14 03:00;CYGK 140300Z 00000KT 15SM FEW060 21/20 A3026 RMK SC1 SC TR LAST OBS NEXT 141000 UTC SLP246 DENSITY ALT 600FT

CYGK;2013-07-14 10:00;CYGK 141000Z 36004KT 350V060 10SM FEW075 19/18 A3029 RMK AC1 SLP256

CYGK;2013-07-14 10:34;CYGK 141034Z 36004KT 10SM FEW005 FEW075 19/19 A3030 RMK SF1AC1 SF TR SLP259 DENSITY ALT 400FT

CYGK;2013-07-14 11:00;CYGK 141100Z VRB02KT 8SM FEW005 21/21 A3030 RMK SF1 SLP260 DENSITY ALT 600FT

CYGK;2013-07-14 12:00;CYGK 141200Z 14003KT 8SM FEW006 23/22 A3031 RMK CU2 SLP264 DENSITY ALT 800FT

CYGK;2013-07-14 13:00;CYGK 141300Z 17004KT 10SM FEW009 FEW250 24/22 A3032 RMK CU2CI1 CI TR SLP265 DENSITY ALT 900FT

CYGK;2013-07-14 14:00;CYGK 141400Z 16005KT 8SM FEW015 FEW200 24/22 A3031 RMK CU2CI1 CI TR TCU ASOCTD SLP262 DENSITY ALT 900FT

CYGK;2013-07-14 15:00;CYGK 141500Z 18008KT 10SM FEW015TCU 24/22 A3031 RMK TCU2 SLP262 DENSITY ALT 1000FT

CYGK;2013-07-14 16:00;CYGK 141600Z 17008KT 8SM FEW020TCU 25/22 A3030 RMK TCU2 SLP260 DENSITY ALT 1000FT

CYGK;2013-07-14 17:00;CYGK 141700Z 17010KT 8SM FEW025 25/22 A3030 RMK CU1 SLP259 DENSITY ALT 1000FT

CYGK;2013-07-14 18:00;CYGK 141800Z 18009KT 12SM FEW030 FEW060 25/22 A3029 RMK CU1SC1 SLP257 DENSITY ALT 1100FT

CYGK;2013-07-14 19:00;CYGK 141900Z 19008KT 12SM FEW030 FEW060 26/22 A3028 RMK CU1SC1 SLP255 DENSITY ALT 1100FT

CYGK;2013-07-14 20:00;CYGK 142000Z 18007KT 12SM FEW030 FEW060 26/22 A3027 RMK CU1SC1 SLP250 DENSITY ALT 1200FT

CYGK;2013-07-14 21:00;CYGK 142100Z 19006KT 15SM FEW030 FEW060 27/23 A3026 RMK CU1SC1 CU TR SLP247 DENSITY ALT 1300FT

CYGK;2013-07-14 22:00;CYGK 142200Z 17005KT 15SM FEW030 26/22 A3025 RMK CU1 CU TR SLP243 DENSITY ALT 1200FT

CYGK;2013-07-14 23:00;CYGK 142300Z 18006KT 15SM SKC 26/21 A3025 RMK SLP242 DENSITY ALT 1200FT

CYGK;2013-07-15 00:00;CYGK 150000Z 18005KT 15SM SKC 25/22 A3024 RMK SLP239 DENSITY ALT 1100FT

CYGK;2013-07-15 01:00;CYGK 150100Z 16003KT 15SM SKC 23/22 A3024 RMK SLP239 DENSITY ALT 900FT

CYGK;2013-07-15 02:00;CYGK 150200Z 18003KT 15SM SKC 23/22 A3024 RMK SLP240 DENSITY ALT 900FT

CYGK;2013-07-15 03:00;CYGK 150300Z 18004KT 15SM SKC 22/22 A3024 RMK LAST OBS/NEXT 151000 UTC SLP240 DENSITY ALT 800FT

CYGK;2013-07-15 10:00;CYGK 151000Z 26002KT 10SM MIFG SCT055 SCT270 20/20 A3026 RMK SC3CI1 SLP247 DENSITY ALT 500FT

CYGK;2013-07-15 11:00;CYGK 151100Z 27004KT 12SM SCT057 SCT270 22/21 A3027 RMK SC3CI1 SLP250 DENSITY ALT 700FT

CYGK;2013-07-15 12:00;CYGK 151200Z 28003KT 15SM FEW055 FEW120 SCT270 24/21 A3028 RMK SC1AC1CI1 SLP253 DENSITY ALT 900FT

CYGK;2013-07-15 13:00;CYGK 151300Z 29004KT 15SM FEW120 FEW270 27/21 A3028 RMK AC1CI1 AC TR CI TR SLP254 DENSITY ALT 1300FT

CYGK;2013-07-15 14:00;CYGK 151400Z 26002KT 15SM FEW270 28/19 A3028 RMK CI1 CI TR SLP251 DENSITY ALT 1400FT

CYGK;2013-07-15 15:00;CYGK 151500Z 18007KT 15SM FEW035 28/21 A3027 RMK CU1 CU TR SLP248 DENSITY ALT 1400FT

CYGK;2013-07-15 16:00;CYGK 151600Z 27005KT 15SM FEW040 30/21 A3026 RMK CU1 CU TR WND ESTD SLP247 DENSITY ALT 1600FT

CYGK;2013-07-15 17:00;CYGK 151700Z 23008KT 220V300 15SM FEW040 30/20 A3025 RMK CF1 CF TR SLP244 DENSITY ALT 1700FT

CYGK;2013-07-15 18:00;CYGK 151800Z 33006KT 15SM FEW045 31/18 A3025 RMK CF1 CF TR SLP241 DENSITY ALT 1800FT

CYGK;2013-07-15 18:13;CYGK 151813Z 20011KT 180V320 15SM FEW040 28/22 A3025 RMK CF1 CF TR WSHFT 1804 SLP241 DENSITY ALT 1500FT

CYGK;2013-07-15 19:00;CYGK 151900Z 19013KT 15SM FEW040 28/22 A3024 RMK CF1 SLP239 DENSITY ALT 1500FT

CYGK;2013-07-15 20:00;CYGK 152000Z 19011KT 15SM FEW060 28/22 A3022 RMK SC1 SLP234 DENSITY ALT 1500FT

CYGK;2013-07-15 21:00;CYGK 152100Z 19010KT 15SM FEW060 SCT300 28/23 A3022 RMK SC2CI1 SLP231 DENSITY ALT 1500FT

CYGK;2013-07-15 22:00;CYGK 152200Z 21008KT 15SM FEW060 FEW300 29/22 A3021 RMK SC1CI1 SLP228 DENSITY ALT 1600FT

CYGK;2013-07-15 23:00;CYGK 152300Z 21006KT 15SM FEW060 FEW300 28/23 A3020 RMK SC1CI1 SC TR CI TR SLP225 DENSITY ALT 1600FT

CYGK;2013-07-16 00:00;CYGK 160000Z 23006KT 15SM FEW060 FEW300 28/22 A3020 RMK SC1CI1 SC TR CI TR SLP225 DENSITY ALT 1500FT

CYGK;2013-07-16 01:00;CYGK 160100Z 25006KT 15SM SKC 26/22 A3019 RMK SLP223 DENSITY ALT 1300FT

CYGK;2013-07-16 02:00;CYGK 160200Z 26004KT 15SM SKC 25/21 A3020 RMK SLP226 DENSITY ALT 1200FT

CYGK;2013-07-16 03:00;CYGK 160300Z 29003KT 15SM SKC 24/20 A3021 RMK LAST OBS/NEXT 161000 UTC SLP230 DENSITY ALT 1100FT

CYGK;2013-07-16 10:00;CYGK 161000Z 36004KT 15SM SKC 21/19 A3024 RMK SLP238 DENSITY ALT 700FT

CYGK;2013-07-16 11:00;CYGK 161100Z 36005KT 15SM SKC 23/20 A3025 RMK SLP242 DENSITY ALT 900FT

CYGK;2013-07-16 12:00;CYGK 161200Z 17002KT 15SM SKC 25/20 A3026 RMK SLP246 DENSITY ALT 1000FT

CYGK;2013-07-16 13:00;CYGK 161300Z 23004KT 15SM SKC 25/21 A3027 RMK SLP248 DENSITY ALT 1100FT

CYGK;2013-07-16 14:00;CYGK 161400Z 19005KT 15SM SKC 27/22 A3026 RMK SLP247 DENSITY ALT 1300FT

CYGK;2013-07-16 15:00;CYGK 161500Z 17006KT 15SM FEW250 27/22 A3026 RMK CI1 CI TR SLP247 DENSITY ALT 1300FT

CYGK;2013-07-16 16:00;CYGK 161600Z 17007KT 15SM FEW030 FEW250 28/21 A3025 RMK CU1CI1 CU TR CI TR SLP244 DENSITY ALT 1400FT

CYGK;2013-07-16 17:00;CYGK 161700Z 18008KT 15SM FEW030 FEW250 29/21 A3025 RMK CU1CI1 CI TR SLP241 DENSITY ALT 1600FT

CYGK;2013-07-16 18:00;CYGK 161800Z 19012KT 15SM FEW035TCU SCT300 29/22 A3023 RMK TCU2CI1 SLP236 DENSITY ALT 1500FT

CYGK;2013-07-16 19:00;CYGK 161900Z 19012KT 15SM FEW035 FEW250 29/23 A3022 RMK CU1CI1 SLP232 DENSITY ALT 1600FT

CYGK;2013-07-16 20:00;CYGK 162000Z 20011KT 15SM FEW035 BKN250 29/23 A3021 RMK CU1CI5 SLP229 DENSITY ALT 1600FT

CYGK;2013-07-16 21:00;CYGK 162100Z 20008KT 15SM FEW035 BKN250 30/23 A3020 RMK CU1CI5 SLP226 DENSITY ALT 1700FT

CYGK;2013-07-16 22:00;CYGK 162200Z 22011KT 15SM FEW035 SCT270 30/22 A3019 RMK CU1CI4 CU TR SLP222 DENSITY ALT 1700FT

CYGK;2013-07-16 23:00;CYGK 162300Z 23008KT 15SM SCT270 29/22 A3018 RMK CI4 SLP219 DENSITY ALT 1700FT

CYGK;2013-07-17 00:00;CYGK 170000Z 23006KT 15SM FEW040 SCT270 28/22 A3019 RMK SC1CI3 SC TR SLP221 DENSITY ALT 1500FT

CYGK;2013-07-17 01:00;CYGK 170100Z 25006KT 15SM FEW070 SCT270 26/22 A3019 RMK AC1CI2 SLP223 DENSITY ALT 1300FT

CYGK;2013-07-17 02:00;CYGK 170200Z 25005KT 15SM FEW070 FEW270 25/21 A3020 RMK AC1CI1 SLP224 DENSITY ALT 1200FT

CYGK;2013-07-17 03:00;CYGK 170300Z 22005KT 15SM SKC 25/21 A3019 RMK LAST OBS/NEXT 171000UTC SLP223 DENSITY ALT 1100FT

CYGK;2013-07-17 10:00;CYGK 171000Z 25004KT 15SM FEW140 FEW240 23/21 A3019 RMK AC1CI2 AC TR SLP223 DENSITY ALT 900FT

CYGK;2013-07-17 11:00;CYGK 171100Z 21003KT 12SM FEW140 FEW240 24/21 A3021 RMK AC1CC1 SLP228 DENSITY ALT 1000FT

CYGK;2013-07-17 12:00;CYGK 171200Z 20003KT 15SM FEW100 SCT240 25/21 A3020 RMK AC1CI3 CC ASOCTD SLP224 DENSITY ALT 1200FT

CYGK;2013-07-17 13:00;CYGK 171300Z 18005KT 15SM FEW100 BKN240 26/22 A3020 RMK AC1CI4 SLP225 DENSITY ALT 1200FT

CYGK;2013-07-17 14:00;CYGK 171400Z 18008KT 15SM FEW025TCU SCT076 SCT100 BKN240 27/23 A3019 RMK TCU1AC2AC1CI2 SLP222 DENSITY ALT 1400FT

CYGK;2013-07-17 15:00;CYGK 171500Z 19009KT 10SM SCT065 SCT090 BKN240 27/24 A3018 RMK SC3AC1CI2 VIS S 4 HZ SLP220 DENSITY ALT 1400FT

CYGK;2013-07-17 16:00;CYGK 171600Z 19010KT 8SM FEW025 SCT240 28/25 A3016 RMK CU1CI3 CU TR VIS S 4HZ SLP212 DENSITY ALT 1500FT

CYGK;2013-07-17 17:00;CYGK 171700Z 18011KT 8SM FEW025 SCT250 28/24 A3015 RMK CU1CI2 CB TOP DIST NW VIS S 4 HZ SLP208 DENSITY ALT 1500FT

CYGK;2013-07-17 17:53;CYGK 171753Z 19012KT 4SM TS HZ FEW025CB BKN200 28/25 A3011 RMK CB2CI4 PRESFR SLP194 DENSITY ALT 1600FT

CYGK;2013-07-17 18:00;CYGK 171800Z 19013KT 4SM TS HZ FEW025CB BKN200 27/24 A3011 RMK CB2CI4 SLP195 DENSITY ALT 1500FT

CYGK;2013-07-17 18:41;CYGK 171841Z 23009KT 6SM -TSRA HZ FEW015 SCT025CB BKN070 BKN200 28/24 A3012 RMK SF1CB2AC2CI2 SLP197 DENSITY ALT 1500FT

CYGK;2013-07-17 19:00;CYGK 171900Z 23009KT 6SM -TSRA HZ FEW015 SCT025CB BKN070 BKN200 27/24 A3010 RMK SF1CB3AC3CI1 SF TR MAMMATUS SLP192 DENSITY ALT 1500FT

CYGK;2013-07-17 19:31;CYGK 171931Z 23007KT 6SM TS HZ VCSH FEW025CB BKN090 BKN240 26/25 A3008 RMK CB2AC4CI1 PRESFR SLP187 DENSITY ALT 1400FT

CYGK;2013-07-17 20:00;CYGK 172000Z 23009KT 6SM HZ FEW025CB FEW090 BKN240 28/25 A3006 RETS RMK CB1AC1CI3 SLP179 DENSITY ALT 1600FT

CYGK;2013-07-17 21:00;CYGK 172100Z 18006KT 6SM HZ FEW070 FEW140 SCT250 27/25 A3006 RMK AC1AC1CI2 CB DIST N-NE PRESRR SLP178 DENSITY ALT 1600FT

CYGK;2013-07-17 22:00;CYGK 172200Z 19012KT 6SM HZ VCSH FEW012 SCT025CB SCT130 BKN250 28/25 A3005 RMK CF1CB2AC1CI1 SLP174 DENSITY ALT 1700FT

CYGK;2013-07-17 22:17;CYGK 172217Z 21010KT 6SM TS HZ VCSH SCT025CB BKN070 BKN250 27/24 A3005 RMK CB3AC2CI2 SLP173 DENSITY ALT 1600FT

CYGK;2013-07-17 22:20;CYGK 172220Z 20008KT 6SM -TSRA HZ SCT025CB BKN070 BKN250 27/24 A3005 RMK CB3AC2CI2 SLP173 DENSITY ALT 1600FT

CYGK;2013-07-17 23:00;CYGK 172300Z 20006KT 110V220 8SM TS FEW030CB FEW070 SCT250 28/24 A3005 RERA RMK CB1AC1CI2 SLP173 DENSITY ALT 1700FT

CYGK;2013-07-17 23:22;CYGK 172322Z 23006KT 8SM VCSH FEW030CB FEW060 SCT250 28/24 A3004 RETS RMK CB1SC1CI2 SLP172 DENSITY ALT 1600FT

CYGK;2013-07-18 00:00;CYGK 180000Z 24006KT 10SM FEW030CB FEW250 28/25 A3004 RETS RMK CB1CI1 SLP170 DENSITY ALT 1700FT

CYGK;2013-07-18 01:00;CYGK 180100Z 27004KT 8SM FEW030TCU SCT250 27/24 A3003 RMK TCU2CI2 CB DIST N & E SLP169 DENSITY ALT 1600FT

CYGK;2013-07-18 02:00;CYGK 180200Z 35005KT 15SM FEW250 25/22 A3005 RMK CI1 SLP175 DENSITY ALT 1300FT

CYGK;2013-07-18 03:00;CYGK 180300Z 00000KT 15SM FEW250 25/21 A3006 RMK CI1 LAST OBS/NEXT 181000UTC SLP179 DENSITY ALT 1300FT

CYGK;2013-07-18 10:00;CYGK 181000Z 27004KT 12SM FEW160 FEW240 23/21 A3003 RMK AC1CI1 SLP168 DENSITY ALT 1100FT

CYGK;2013-07-18 11:00;CYGK 181100Z 26005KT 12SM FEW160 FEW240 25/22 A3004 RMK AC1CI1 SLP171 DENSITY ALT 1300FT

CYGK;2013-07-18 12:00;CYGK 181200Z 26007KT 15SM SCT240 26/23 A3005 RMK CI3 SLP173 DENSITY ALT 1500FT

CYGK;2013-07-18 13:00;CYGK 181300Z 27007KT 15SM SCT240 27/23 A3005 RMK CI4 SLP174 DENSITY ALT 1600FT

CYGK;2013-07-18 14:00;CYGK 181400Z 26005KT 15SM SCT240 28/23 A3004 RMK CI4 SLP170 DENSITY ALT 1700FT

CYGK;2013-07-18 15:00;CYGK 181500Z 23007KT 15SM FEW022 SCT240 29/24 A3004 RMK CF1CI4 CF TR SLP170 DENSITY ALT 1800FT

CYGK;2013-07-18 16:00;CYGK 181600Z 18012KT 15SM FEW025 SCT240 28/24 A3003 RMK CF1CI4 CF TR TCU DIST SW SLP167 DENSITY ALT 1700FT

CYGK;2013-07-18 17:00;CYGK 181700Z 23011KT 15SM FEW040 BKN240 31/24 A3002 RMK CU2CI3 CB ANVIL DIST SW SLP162 DENSITY ALT 2100FT

CYGK;2013-07-18 18:00;CYGK 181800Z 22008KT 15SM SCT042 BKN200 31/23 A2999 RMK CU3CI4 TCU ASOCTD SLP155 DENSITY ALT 2100FT

CYGK;2013-07-18 19:00;CYGK 181900Z 20012KT 15SM FEW045 BKN200 29/24 A2998 RMK CU1CI6 TCU ASOCTD PRESFR SLP149 DENSITY ALT 1900FT

CYGK;2013-07-18 20:00;CYGK 182000Z 21007KT 15SM FEW040TCU SCT080 BKN160 BKN250 30/25 A2996 RMK TCU2AC2AC1CI2 SLP144 DENSITY ALT 2000FT

CYGK;2013-07-18 21:00;CYGK 182100Z 23009KT 15SM VCSH FEW015 FEW040CB BKN120 BKN250 29/23 A2995 RMK CF1CB2AC3CI2 CF TR SLP139 DENSITY ALT 1900FT

CYGK;2013-07-18 22:00;CYGK 182200Z 24005KT 15SM FEW015 FEW040CB SCT120 BKN250 30/24 A2994 RMK CF1CB1AC3CI2 CF TR CB LINE N-E SLP136 DENSITY ALT 2000FT

CYGK;2013-07-18 22:41;CYGK 182241Z 20010KT 15SM TS VCSH FEW015 FEW040CB BKN110 BKN250 28/23 A2994 RMK CF1CB2AC4CI1 CF TR SLP138 DENSITY ALT 1800FT

CYGK;2013-07-18 23:00;CYGK 182300Z 19010KT 15SM TS VCSH FEW015 FEW040CB SCT110 BKN250 27/23 A2994 RMK CF1CB2AC2CI2 CF TR SLP138 DENSITY ALT 1700FT

CYGK;2013-07-19 00:00;CYGK 190000Z 23008KT 15SM TS FEW005 FEW030CB SCT120 BKN250 27/22 A2994 RMK SF1CB1AC2CI2 SF TR SLP135 DENSITY ALT 1700FT

CYGK;2013-07-19 00:15;CYGK 190015Z 23005KT 15SM FEW030CB FEW070 SCT120 BKN200 27/22 A2994 RETS RMK CB1AC1AC2CI3 SLP135 DENSITY ALT 1700FT

CYGK;2013-07-19 01:00;CYGK 190100Z 21003KT 15SM FEW030CB FEW120 SCT200 26/22 A2994 RETS RMK CB1AC1CI2 SLP135 DENSITY ALT 1600FT

CYGK;2013-07-19 02:00;CYGK 190200Z 23003KT 15SM FEW030 SCT200 25/22 A2992 RMK SC1CI2 CB DIST E SLP131 DENSITY ALT 1500FT

CYGK;2013-07-19 03:00;CYGK 190300Z 23005KT 15SM SCT200 25/23 A2992 RMK CI3 CB DIST NE LAST OBS/NEXT 191000UTC SLP129 DENSITY ALT 1500FT

CYGK;2013-07-19 10:00;CYGK 191000Z 22009KT 12SM FEW100 BKN250 25/23 A2982 RMK AC2CI5 SLP095 DENSITY ALT 1600FT

CYGK;2013-07-19 11:00;CYGK 191100Z 22012KT 12SM FEW150 BKN250 26/23 A2981 RMK AC2CI4 SLP094 DENSITY ALT 1700FT

CYGK;2013-07-19 12:00;CYGK 191200Z 22013KT 15SM BKN250 27/23 A2981 RMK CI5 SLP093 DENSITY ALT 1800FT

CYGK;2013-07-19 13:00;CYGK 191300Z 21013G19KT 12SM FEW055 BKN250 28/24 A2980 RMK CU1CI4 SLP089 DENSITY ALT 2000FT

CYGK;2013-07-19 14:00;CYGK 191400Z 22013G20KT 12SM FEW030 SCT250 29/24 A2978 RMK SF1CI4 SF TR SLP083 DENSITY ALT 2100FT

CYGK;2013-07-19 15:00;CYGK 191500Z 23021G27KT 12SM FEW025 FEW300 30/24 A2977 RMK CU1CI1 SLP078 DENSITY ALT 2200FT

CYGK;2013-07-19 16:00;CYGK 191600Z 23021G26KT 12SM FEW030 FEW250 31/24 A2975 RMK CU1CI1 SLP071 DENSITY ALT 2300FT

CYGK;2013-07-19 17:00;CYGK 191700Z 24021G28KT 12SM FEW030 31/24 A2974 RMK CU1 SLP067 DENSITY ALT 2300FT

CYGK;2013-07-19 18:00;CYGK 191800Z 23018G27KT 12SM FEW030 31/24 A2971 RMK CU2 TCU DIST SE SLP059 DENSITY ALT 2400FT

CYGK;2013-07-19 19:00;CYGK 191900Z 22018G26KT 12SM FEW040 32/24 A2970 RMK CU1 SLP054 DENSITY ALT 2600FT

CYGK;2013-07-19 20:00;CYGK 192000Z 21017G26KT 12SM FEW040 FEW270 31/24 A2967 RMK CU2CI1 CI TR SLP045 DENSITY ALT 2500FT

CYGK;2013-07-19 21:00;CYGK 192100Z 24016G31KT 15SM FEW040 FEW270 32/23 A2966 RMK CU2CI1 CI TR CB TOPS DIST N SLP042 DENSITY ALT 2500FT

CYGK;2013-07-19 21:34;CYGK 192134Z 30018G41KT 250V320 12SM -SHRA FEW020 BKN055 26/19 A2974 RMK CF1SC7 CF TR TCU EMBD PRESRR SLP071 DENSITY ALT 1800FT

CYGK;2013-07-19 22:00;CYGK 192200Z 28014G23KT 12SM -SHRA BKN055 BKN092 22/20 A2974 RMK SC5AC2 TCU EMBD PRESFR SLP069 DENSITY ALT 1300FT

CYGK;2013-07-19 22:14;CYGK 192214Z 28006G20KT 15SM BKN060 BKN100 22/20 A2972 RMK SC5AC1 PRESFR SLP062 DENSITY ALT 1300FT

CYGK;2013-07-19 22:19;CYGK 192219Z 30007KT 15SM -SHRA BKN060 BKN100 22/20 A2970 RMK SC5AC1 TCU EMBD PRESFR SLP056 DENSITY ALT 1400FT

CYGK;2013-07-19 23:00;CYGK 192300Z 24007KT 15SM SCT060 BKN110 23/20 A2969 RMK SC3AC2 SLP054 DENSITY ALT 1500FT

CYGK;2013-07-19 23:26;CYGK 192326Z 23006KT 15SM TS SCT062 BKN100 23/21 A2971 RMK SC4AC3 CB EMBD W LTGCG SLP058 DENSITY ALT 1500FT

CYGK;2013-07-19 23:40;CYGK 192340Z 24006KT 15SM -TSRA SCT058 BKN100 23/20 A2971 RMK SC4AC3 CB EMBD W-SW LTGCG SLP059 DENSITY ALT 1500FT

CYGK;2013-07-20 00:00;CYGK 200000Z 25016G23KT 2 1/2SM TSRA BKN042CB BKN100 22/20 A2975 RMK CB5AC2 LTGCG PRESRR SLP073 DENSITY ALT 1400FT

CYGK;2013-07-20 00:16;CYGK 200016Z 21009G23KT 3SM -TSRA OVC040 22/21 A2972 RMK SC8 CB EMBD E+S LTGCG PRESFR SLP063 DENSITY ALT 1300FT

CYGK;2013-07-20 01:00;CYGK 200100Z 22016KT 6SM -TSRA FEW015 SCT040 OVC065 22/21 A2974 RMK SF1SC3SC4 CB EMBD E+S LTGIC SLP070 DENSITY ALT 1300FT

CYGK;2013-07-20 01:30;CYGK 200130Z 22006KT 10SM -RA FEW008 FEW040 BKN140 21/21 A2973 RMK SF1SC2AC5 SF TR PRESRR SLP066 DENSITY ALT 1300FT

CYGK;2013-07-20 02:00;CYGK 200200Z 23010KT 12SM SCT008 BKN062 BKN200 21/20 A2973 RMK SF3SC3CI1 PRESRR SLP067 DENSITY ALT 1200FT

CYGK;2013-07-20 03:00;CYGK 200300Z 25010KT 15SM FEW008 SCT045 OVC220 21/20 A2973 RMK SF2SC2CI4 LAST OBS/NEXT 201000 UTC SLP065 DENSITY ALT 1300FT

CYGK;2013-07-20 10:00;CYGK 201000Z 22006KT 12SM -RA BKN020 OVC040 21/20 A2970 RMK SC5SC3 SLP055 DENSITY ALT 1300FT

CYGK;2013-07-20 11:00;CYGK 201100Z 23017KT 15SM BKN018 OVC060 22/21 A2969 RMK SC5SC3 SLP054 DENSITY ALT 1400FT

CYGK;2013-07-20 12:00;CYGK 201200Z 23010G17KT 15SM OVC018 22/21 A2969 RMK SC8 SLP052 DENSITY ALT 1400FT

CYGK;2013-07-20 13:00;CYGK 201300Z 26010G16KT 15SM FEW015 BKN025 OVC250 24/21 A2969 RMK CF1SC5CI2 SLP053 DENSITY ALT 1600FT

CYGK;2013-07-20 14:00;CYGK 201400Z 27012G21KT 15SM FEW020 BKN250 24/18 A2970 RMK CU1CI6 SLP056 DENSITY ALT 1600FT

CYGK;2013-07-20 15:00;CYGK 201500Z 29008KT 15SM FEW050 BKN250 25/19 A2971 RMK SC1CS6 SLP061 DENSITY ALT 1700FT

CYGK;2013-07-20 16:00;CYGK 201600Z 27010G18KT 15SM BKN220 26/16 A2972 RMK CI5 SLP063 DENSITY ALT 1800FT

CYGK;2013-07-20 17:00;CYGK 201700Z 26008KT 15SM FEW040 FEW250 26/17 A2972 RMK CF1CI2 CF TR SLP064 DENSITY ALT 1800FT

CYGK;2013-07-20 18:00;CYGK 201800Z 26011G17KT 15SM FEW040 FEW250 28/16 A2972 RMK CU1CI2 CU TR SLP064 DENSITY ALT 2000FT

CYGK;2013-07-20 19:00;CYGK 201900Z 29011G17KT 15SM FEW060 SCT250 28/16 A2974 RMK CU2CI1 SLP068 DENSITY ALT 2100FT

CYGK;2013-07-20 20:00;CYGK 202000Z 30007KT 15SM SCT060 SCT250 28/16 A2975 RMK CU3CI1 SLP074 DENSITY ALT 2000FT

CYGK;2013-07-20 21:00;CYGK 202100Z 27010G20KT 15SM SCT065 BKN250 28/15 A2975 RMK CU4CI1 SLP072 DENSITY ALT 2000FT

CYGK;2013-07-20 22:00;CYGK 202200Z 26011G16KT 15SM FEW075 SCT240 27/15 A2976 RMK CU2CI1 SLP076 DENSITY ALT 1900FT

CYGK;2013-07-20 23:00;CYGK 202300Z 28010G16KT 15SM FEW080 FEW240 27/14 A2977 RMK CU1CI1 SLP079 DENSITY ALT 1800FT

CYGK;2013-07-21 00:00;CYGK 210000Z 28005KT 15SM FEW083 SCT240 25/15 A2979 RMK AC2CI1 SLP085 DENSITY ALT 1600FT

CYGK;2013-07-21 01:00;CYGK 210100Z 27004KT 15SM FEW061 FEW085 FEW240 24/15 A2981 RMK CU1AC1CI1 CU TR SLP092 DENSITY ALT 1400FT

CYGK;2013-07-21 02:00;CYGK 210200Z 28006KT 15SM FEW085 22/15 A2983 RMK AC1 SLP100 DENSITY ALT 1200FT

CYGK;2013-07-21 03:00;CYGK 210300Z 28006KT 15SM FEW085 FEW240 21/15 A2985 RMK AC1CI1 AC TR CI TR LAST OBS/NEXT 211000 UTC SLP109 DENSITY ALT 1100FT

CYGK;2013-07-21 10:00;CYGK 211000Z 03008KT 15SM FEW025 SCT250 14/09 A2999 RMK NS1CI2 SLP155

CYGK;2013-07-21 11:00;CYGK 211100Z 02008KT 15SM FEW030 SCT250 14/09 A3000 RMK SC1CI2 SLP160

CYGK;2013-07-21 12:00;CYGK 211200Z 03011G17KT 15SM FEW030 SCT250 16/10 A3002 RMK SC1CI2 SLP164

CYGK;2013-07-21 13:00;CYGK 211300Z 06009KT 15SM FEW030 BKN250 17/10 A3004 RMK SC1CI5 SLP171 DENSITY ALT 500FT

CYGK;2013-07-21 14:00;CYGK 211400Z 05006KT 15SM FEW080 BKN250 19/10 A3004 RMK AC1CI4 SLP171 DENSITY ALT 600FT

CYGK;2013-07-21 15:00;CYGK 211500Z 02008G15KT 360V070 15SM FEW080 FEW250 20/11 A3004 RMK AC1CI2 AC TR SLP171 DENSITY ALT 800FT

CYGK;2013-07-21 16:00;CYGK 211600Z 05006KT 330V050 15SM SCT250 21/10 A3004 RMK CI3 SLP173 DENSITY ALT 900FT

CYGK;2013-07-21 17:00;CYGK 211700Z 34008KT 340V060 15SM FEW040 FEW080 FEW250 22/11 A3004 RMK CF1AC1CI1 CF TR AC TR CI TR SLP171 DENSITY ALT 1000FT

CYGK;2013-07-21 18:00;CYGK 211800Z 30005KT 270V340 15SM FEW045 FEW250 23/11 A3003 RMK CU1CI2 CU TR SLP169 DENSITY ALT 1100FT

CYGK;2013-07-21 19:00;CYGK 211900Z 02004KT 310V020 15SM FEW050 SCT250 23/10 A3002 RMK CU1CI3 SLP165 DENSITY ALT 1200FT

CYGK;2013-07-21 20:00;CYGK 212000Z 16006KT 15SM FEW054 BKN250 23/13 A3000 RMK CU1CI5 SLP157 DENSITY ALT 1100FT

CYGK;2013-07-21 21:00;CYGK 212100Z 15007KT 15SM FEW059 BKN250 23/12 A3000 RMK CU1CI5 SLP157 DENSITY ALT 1200FT

CYGK;2013-07-21 22:00;CYGK 212200Z 19006KT 15SM FEW058 BKN240 23/12 A2999 RMK CU1CI6 SLP156 DENSITY ALT 1200FT

CYGK;2013-07-21 23:00;CYGK 212300Z 16004KT 15SM FEW055 BKN240 23/13 A2999 RMK CU1CI6 CU TR SLP155 DENSITY ALT 1100FT

CYGK;2013-07-22 00:00;CYGK 220000Z 13004KT 15SM FEW050 BKN240 22/13 A2999 RMK CU1CI5 CU TR SLP154 DENSITY ALT 1000FT

CYGK;2013-07-22 01:00;CYGK 220100Z 09004KT 15SM BKN240 19/12 A2999 RMK CI5 SLP155 DENSITY ALT 800FT

CYGK;2013-07-22 02:00;CYGK 220200Z 04004KT 15SM SCT240 19/12 A3001 RMK CI3 SLP162 DENSITY ALT 600FT

CYGK;2013-07-22 03:00;CYGK 220300Z 35005KT 15SM FEW240 16/13 A3002 RMK CI2 LAST OBS/NEXT 221000 UTC SLP165 DENSITY ALT 400FT

CYGK;2013-07-22 10:00;CYGK 221000Z 04005KT 15SM FEW200 BKN250 15/13 A3001 RMK CI2CI3 SLP161

CYGK;2013-07-22 11:00;CYGK 221100Z 05005KT 15SM SCT250 16/14 A3000 RMK CI4 SLP159

CYGK;2013-07-22 12:00;CYGK 221200Z 07005KT 15SM BKN250 19/16 A3000 RMK CI6 SLP160 DENSITY ALT 700FT

CYGK;2013-07-22 13:00;CYGK 221300Z 07008KT 15SM BKN250 21/14 A3000 RMK CI7 SLP160 DENSITY ALT 900FT

CYGK;2013-07-22 14:00;CYGK 221400Z 09007KT 15SM BKN220 21/12 A3000 RMK CI7 SLP160 DENSITY ALT 900FT

CYGK;2013-07-22 15:00;CYGK 221500Z 09008KT 15SM BKN250 23/12 A2999 RMK CI7 SLP155 DENSITY ALT 1100FT

CYGK;2013-07-22 16:00;CYGK 221600Z 07009KT 15SM FEW150 BKN250 24/11 A2998 RMK AC1CI5 SLP153 DENSITY ALT 1200FT

CYGK;2013-07-22 17:00;CYGK 221700Z 12010KT 15SM BKN250 24/12 A2997 RMK CI7 SLP149 DENSITY ALT 1300FT

CYGK;2013-07-22 18:00;CYGK 221800Z 11009KT 15SM BKN250 24/11 A2995 RMK CI7 SLP143 DENSITY ALT 1300FT

CYGK;2013-07-22 19:00;CYGK 221900Z 08008KT 15SM FEW100 BKN250 25/11 A2993 RMK AC2CI5 SLP134 DENSITY ALT 1500FT

CYGK;2013-07-22 20:00;CYGK 222000Z 04005KT 15SM FEW100 FEW200 BKN250 25/10 A2990 RMK AC1CI1CC4 SLP124 DENSITY ALT 1600FT

CYGK;2013-07-22 21:00;CYGK 222100Z 09002KT 15SM SCT200 BKN250 26/11 A2987 RMK CI3CI3 SLP115 DENSITY ALT 1600FT

CYGK;2013-07-22 22:00;CYGK 222200Z 03006KT 15SM SCT200 BKN250 25/10 A2986 RMK CI4CI3 SLP110 DENSITY ALT 1500FT

CYGK;2013-07-22 23:00;CYGK 222300Z 05007KT 15SM FEW160 BKN220 24/09 A2985 RMK AC2CI5 SLP106 DENSITY ALT 1500FT

CYGK;2013-07-23 00:00;CYGK 230000Z 05006KT 15SM FEW180 OVC250 23/11 A2984 RMK AC2CI6 SLP104 DENSITY ALT 1300FT

CYGK;2013-07-23 01:00;CYGK 230100Z 04006KT 15SM BKN180 22/13 A2983 RMK AC7 SLP101 DENSITY ALT 1300FT

CYGK;2013-07-23 02:00;CYGK 230200Z 06007KT 15SM OVC160 22/12 A2982 RMK AC8 SLP098 DENSITY ALT 1200FT

CYGK;2013-07-23 03:00;CYGK 230300Z 04004KT 15SM OVC160 21/12 A2982 RMK AC8 LAST OBS/NEXT 231000 UTC SLP096 DENSITY ALT 1200FT

CYGK;2013-07-23 10:00;CYGK 231000Z 05005KT 15SM VCSH BKN006 OVC011 20/16 A2971 RMK SF6SC2 SH S AND E SLP059 DENSITY ALT 1100FT

CYGK;2013-07-23 10:14;CYGK 231014Z 07004KT 15SM BKN008 BKN020 BKN250 20/16 A2971 RMK SF5SC2CI1 CI TR SLP059 DENSITY ALT 1200FT

CYGK;2013-07-23 10:24;CYGK 231024Z 08005KT 15SM FEW008 BKN010 BKN030 OVC100 20/17 A2971 RMK SF2SC4SC1AC1 SLP059 DENSITY ALT 1200FT

CYGK;2013-07-23 10:33;CYGK 231033Z 04002KT 15SM SCT010 BKN023 BKN033 OVC100 20/17 A2971 RMK SC3SC2SC2AC1 SLP059 DENSITY ALT 1200FT

CYGK;2013-07-23 11:00;CYGK 231100Z 00000KT 15SM FEW008 SCT025TCU BKN110 BKN250 19/17 A2970 RMK SF1TCU3AC3CI1 SF TR SLP057 DENSITY ALT 1100FT

CYGK;2013-07-23 12:00;CYGK 231200Z 36002KT 15SM FEW025 SCT080 SCT110 BKN250 22/18 A2969 RMK CU2ACC1AC1CI2 SLP053 DENSITY ALT 1300FT

CYGK;2013-07-23 13:00;CYGK 231300Z 22007KT 15SM FEW010 FEW040 BKN250 23/20 A2968 RMK CF1SC1CI6 CF TR SLP048 DENSITY ALT 1500FT

CYGK;2013-07-23 14:00;CYGK 231400Z 21007KT 15SM FEW020 SCT250 24/20 A2966 RMK CU1CI2 SLP042 DENSITY ALT 1700FT

CYGK;2013-07-23 15:00;CYGK 231500Z 24008KT 15SM FEW030 SCT250 26/18 A2967 RMK CU2CI1 SLP045 DENSITY ALT 1900FT

CYGK;2013-07-23 16:00;CYGK 231600Z 19014KT 15SM FEW030 FEW250 25/21 A2965 RMK CU1CI1 SLP040 DENSITY ALT 1800FT

CYGK;2013-07-23 17:00;CYGK 231700Z 18014KT 15SM FEW025 SCT250 25/22 A2963 RMK CU2CI1 SLP032 DENSITY ALT 1800FT

CYGK;2013-07-23 18:00;CYGK 231800Z 19016KT 15SM FEW035 SCT250 25/21 A2962 RMK CU2CI2 SLP028 DENSITY ALT 1900FT

CYGK;2013-07-23 19:00;CYGK 231900Z 20015KT 15SM FEW030 BKN250 26/21 A2961 RMK CU1CI6 CU TR SLP027 DENSITY ALT 1900FT

CYGK;2013-07-23 20:00;CYGK 232000Z 24013G18KT 15SM FEW030 BKN250 27/18 A2960 RMK CU1CI5 SLP023 DENSITY ALT 2100FT

CYGK;2013-07-23 21:00;CYGK 232100Z 24013G19KT 15SM FEW030 SCT150 BKN250 26/17 A2959 RMK CU1AC2CI4 SLP019 DENSITY ALT 2000FT

CYGK;2013-07-23 22:00;CYGK 232200Z 28019G28KT 15SM VCSH BKN035CB OVC250 26/17 A2959 RMK CB5CI3 SLP020 DENSITY ALT 1900FT

CYGK;2013-07-23 23:00;CYGK 232300Z 28007KT 15SM VCSH BKN030TCU OVC250 23/16 A2959 RMK TCU5CI3 PRESRR SLP019 DENSITY ALT 1600FT

CYGK;2013-07-24 00:00;CYGK 240000Z 30003KT 15SM SCT030 BKN140 BKN250 22/18 A2958 RMK CU3AC2CI2 SLP015 DENSITY ALT 1500FT

CYGK;2013-07-24 01:00;CYGK 240100Z 32004KT 15SM FEW040 SCT090 BKN140 OVC250 21/18 A2958 RMK CU1AC2AC2CI3 SLP016 DENSITY ALT 1400FT

CYGK;2013-07-24 02:00;CYGK 240200Z 27005KT 15SM FEW040 BKN110 OVC220 21/19 A2960 RMK SF2AC4CI2 SLP023 DENSITY ALT 1400FT

CYGK;2013-07-24 03:00;CYGK 240300Z 28010KT 15SM BKN040 OVC250 21/18 A2962 RMK SC5CI3 LAST OBS/NEXT 241000 UTC SLP029 DENSITY ALT 1300FT

CYGK;2013-07-24 10:00;CYGK 241000Z 33011G17KT 15SM BKN027 BKN065 14/10 A2977 RMK SC5SC2 SLP079 DENSITY ALT 400FT

CYGK;2013-07-24 11:00;CYGK 241100Z 32010G17KT 15SM BKN028 BKN060 14/08 A2979 RMK SC5SC2 SLP086

CYGK;2013-07-24 12:00;CYGK 241200Z 33015G21KT 15SM BKN028 14/07 A2982 RMK SC7 SLP098

CYGK;2013-07-24 13:00;CYGK 241300Z 34013G22KT 15SM BKN030 15/08 A2985 RMK SC6 SLP108 DENSITY ALT 400FT

CYGK;2013-07-24 14:00;CYGK 241400Z 34012G17KT 15SM BKN030 15/08 A2987 RMK SC7 SLP116 DENSITY ALT 400FT

CYGK;2013-07-24 15:00;CYGK 241500Z 32014G24KT 15SM BKN035 16/08 A2990 RMK SC7 SLP126 DENSITY ALT 500FT

CYGK;2013-07-24 16:00;CYGK 241600Z 33015KT 15SM BKN038 16/07 A2993 RMK SC5 SLP134 DENSITY ALT 400FT

CYGK;2013-07-24 17:00;CYGK 241700Z 36006G18KT 15SM BKN040 17/08 A2994 RMK SC7 SLP139 DENSITY ALT 500FT

CYGK;2013-07-24 18:00;CYGK 241800Z 01005KT 290V010 15SM BKN045 18/08 A2995 RMK SC7 SLP142 DENSITY ALT 600FT

CYGK;2013-07-24 19:00;CYGK 241900Z 35008KT 15SM BKN045 18/09 A2995 RMK SC6 SLP143 DENSITY ALT 700FT

CYGK;2013-07-24 20:00;CYGK 242000Z 32006KT 15SM BKN045 19/09 A2995 RMK SC6 SLP142 DENSITY ALT 800FT

CYGK;2013-07-24 21:00;CYGK 242100Z 32006KT 15SM BKN050 20/10 A2995 RMK SC5 WND ESTD SLP143 DENSITY ALT 900FT

CYGK;2013-07-24 22:00;CYGK 242200Z 32006KT 320V070 15SM SCT050 20/08 A2997 RMK SC4 SLP147 DENSITY ALT 800FT

CYGK;2013-07-24 23:00;CYGK 242300Z 33006KT 15SM FEW050 FEW250 20/09 A2997 RMK SC1CI1 SLP147 DENSITY ALT 800FT

CYGK;2013-07-25 00:00;CYGK 250000Z 36005KT 15SM FEW250 19/09 A2998 RMK CI2 SLP154 DENSITY ALT 700FT

CYGK;2013-07-25 01:00;CYGK 250100Z 09003KT 15SM FEW250 17/09 A3000 RMK CI2 SLP159 DENSITY ALT 400FT

CYGK;2013-07-25 02:00;CYGK 250200Z 02002KT 15SM FEW250 15/09 A3001 RMK CI2 SLP164

CYGK;2013-07-25 03:00;CYGK 250300Z 28005KT 15SM SKC 15/11 A3002 RMK LAST OBS/NEXT 251000 UTC SLP167

CYGK;2013-07-25 10:00;CYGK 251000Z 36003KT 15SM FEW025 FEW140 FEW200 10/09 A3008 RMK CU1AC1CI1 CU TR SLP188

CYGK;2013-07-25 11:00;CYGK 251100Z 04003KT 15SM FEW025 FEW200 13/12 A3010 RMK CU1CI2 CU TR TCU ASOCTD SLP194

CYGK;2013-07-25 12:00;CYGK 251200Z 09004KT 15SM FEW025TCU FEW200 17/14 A3012 RMK TCU1CI1 TCU TR SLP200

CYGK;2013-07-25 13:00;CYGK 251300Z 08005KT 15SM FEW025TCU FEW200 18/12 A3013 RMK TCU1CI1 TCU TR SLP204 DENSITY ALT 500FT

CYGK;2013-07-25 14:00;CYGK 251400Z 07005KT 15SM FEW030 FEW220 20/12 A3014 RMK CU1CI1 CU TR SLP207 DENSITY ALT 600FT

CYGK;2013-07-25 15:00;CYGK 251500Z 06006KT 15SM FEW030 SCT220 21/12 A3015 RMK CU2CI1 SLP210 DENSITY ALT 700FT

CYGK;2013-07-25 16:00;CYGK 251600Z 07008KT 15SM SCT043 BKN270 22/10 A3015 RMK CU3CI3 SLP209 DENSITY ALT 900FT

CYGK;2013-07-25 17:00;CYGK 251700Z 07007KT 15SM FEW055 BKN250 22/11 A3014 RMK CU1CI4 SLP207 DENSITY ALT 900FT

CYGK;2013-07-25 18:00;CYGK 251800Z 01007KT 340V050 15SM FEW058 BKN270 23/09 A3013 RMK CU2CI3 SLP203 DENSITY ALT 1000FT

CYGK;2013-07-25 19:00;CYGK 251900Z 01009KT 010V090 15SM FEW058 FEW250 24/11 A3012 RMK CU2CI1 CI TR SLP201 DENSITY ALT 1100FT

CYGK;2013-07-25 20:00;CYGK 252000Z 03010KT 15SM FEW058 23/10 A3012 RMK CU1 SLP199 DENSITY ALT 1100FT

CYGK;2013-07-25 21:00;CYGK 252100Z 08011G21KT 15SM FEW060 23/10 A3011 RMK SC1 SLP197 DENSITY ALT 1000FT

CYGK;2013-07-25 22:00;CYGK 252200Z 02009KT 15SM FEW060 23/10 A3011 RMK SC1 SC TR SLP196 DENSITY ALT 1000FT

CYGK;2013-07-25 23:00;CYGK 252300Z 04009KT 15SM FEW060 22/10 A3011 RMK SC1 SC TR SLP198 DENSITY ALT 900FT

CYGK;2013-07-26 00:00;CYGK 260000Z 05009KT 15SM SKC 21/10 A3012 RMK SLP199 DENSITY ALT 800FT

CYGK;2013-07-26 01:00;CYGK 260100Z 04005KT 15SM SKC 19/10 A3013 RMK SLP202 DENSITY ALT 600FT

CYGK;2013-07-26 02:00;CYGK 260200Z 03005KT 15SM SKC 18/11 A3013 RMK SLP203 DENSITY ALT 400FT

CYGK;2013-07-26 03:00;CYGK 260300Z 03004KT 15SM SKC 17/11 A3013 RMK LAST OBS/NEXT 261000 UTC SLP204

CYGK;2013-07-26 10:00;CYGK 261000Z 35009KT 15SM FEW160 10/09 A3011 RMK AC1 SLP198

CYGK;2013-07-26 11:00;CYGK 261100Z 35006KT 15SM FEW200 13/11 A3013 RMK CI1 SLP202

CYGK;2013-07-26 12:00;CYGK 261200Z 02006KT 15SM FEW200 17/12 A3014 RMK CI1 SLP206

CYGK;2013-07-26 13:00;CYGK 261300Z 05009G16KT 15SM FEW020 FEW200 19/11 A3013 RMK CU1CI1 CU TR SLP203 DENSITY ALT 600FT

CYGK;2013-07-26 14:00;CYGK 261400Z 03011G17KT 15SM FEW020 FEW200 21/11 A3013 RMK CF1CI1 CF TR SLP202 DENSITY ALT 800FT

CYGK;2013-07-26 15:00;CYGK 261500Z 07012G18KT 15SM FEW020 FEW200 22/11 A3012 RMK CF1CI1 CF TR SLP200 DENSITY ALT 900FT

CYGK;2013-07-26 16:00;CYGK 261600Z 06008G17KT 15SM FEW030 FEW220 23/12 A3010 RMK CU1CI1 CU TR SLP194 DENSITY ALT 1000FT

CYGK;2013-07-26 17:00;CYGK 261700Z 36006KT 15SM FEW030 FEW220 24/11 A3009 RMK CU1CI1 CU TR SLP191 DENSITY ALT 1100FT

CYGK;2013-07-26 17:42;CYGK 261742Z 06008G17KT 15SM FEW030 FEW220 24/12 A3008 RMK CU1CI1 CU TR WSHFT 1718 SLP187 DENSITY ALT 1200FT

CYGK;2013-07-26 18:00;CYGK 261800Z 08008KT 15SM FEW030 FEW220 25/11 A3008 RMK CU1CI1 CU TR SLP186 DENSITY ALT 1200FT

CYGK;2013-07-26 19:00;CYGK 261900Z 06009KT 15SM FEW030 FEW220 26/12 A3007 RMK SF1CI2 SF TR SLP182 DENSITY ALT 1400FT

CYGK;2013-07-26 20:00;CYGK 262000Z VRB03KT 15SM FEW055 FEW250 26/12 A3005 RMK CF1CI2 CF TR SLP176 DENSITY ALT 1400FT

CYGK;2013-07-26 21:00;CYGK 262100Z 08005KT 15SM FEW055 FEW250 26/11 A3004 RMK CU1CI2 CU TR SLP173 DENSITY ALT 1400FT

CYGK;2013-07-26 22:00;CYGK 262200Z 05004KT 050V160 15SM FEW050 SCT250 25/11 A3003 RMK CU1CI3 CU TR SLP171 DENSITY ALT 1400FT

CYGK;2013-07-26 23:00;CYGK 262300Z 10005KT 15SM FEW050 FEW120 FEW250 24/12 A3003 RMK CU1AC1CI2 CU TR AC TR SLP168 DENSITY ALT 1300FT

CYGK;2013-07-27 00:00;CYGK 270000Z 06004KT 15SM FEW120 FEW250 22/12 A3003 RMK AC1CI1 AC TR SLP169 DENSITY ALT 1000FT

CYGK;2013-07-27 01:00;CYGK 270100Z 00000KT 15SM FEW250 19/12 A3004 RMK CI1 SLP171 DENSITY ALT 700FT

CYGK;2013-07-27 02:00;CYGK 270200Z 35004KT 15SM FEW220 19/14 A3004 RMK CI1 CI TR SLP173 DENSITY ALT 600FT

CYGK;2013-07-27 03:00;CYGK 270300Z 35005KT 15SM SKC 16/14 A3004 RMK LAST OBS/NEXT 271000 UTC SLP172

CYGK;2013-07-27 10:00;CYGK 271000Z 04003KT 15SM FEW160 BKN220 13/12 A2999 RMK AC1CI4 SLP154

CYGK;2013-07-27 11:00;CYGK 271100Z 06005KT 15SM FEW160 BKN250 16/15 A2999 RMK AC1CI5 SLP154 DENSITY ALT 400FT

CYGK;2013-07-27 12:00;CYGK 271200Z 10005KT 15SM FEW160 SCT200 BKN230 20/17 A2999 RMK AC2CC2CI3 SLP154 DENSITY ALT 800FT

CYGK;2013-07-27 13:00;CYGK 271300Z 12005KT 15SM FEW160 SCT200 OVC220 21/16 A2999 RMK AC1CC2CI5 SLP155 DENSITY ALT 900FT

CYGK;2013-07-27 14:00;CYGK 271400Z 13008KT 15SM FEW180 FEW210 BKN230 23/17 A2998 RMK AC1CC1CI5 SLP152 DENSITY ALT 1200FT

CYGK;2013-07-27 15:00;CYGK 271500Z 16008KT 15SM FEW180 FEW210 BKN230 24/17 A2997 RMK AC1CC1CI6 AC TR SLP150 DENSITY ALT 1300FT

CYGK;2013-07-27 16:00;CYGK 271600Z 15009KT 15SM FEW180 BKN220 24/18 A2997 RMK AC1CI6 SLP150 DENSITY ALT 1300FT

CYGK;2013-07-27 17:00;CYGK 271700Z 15009KT 15SM FEW025 FEW063 OVC200 24/17 A2996 RMK SF1SC1CI7 SF TR SLP145 DENSITY ALT 1400FT

CYGK;2013-07-27 18:00;CYGK 271800Z 15008KT 15SM FEW025 BKN210 25/19 A2994 RMK CU1CI7 CU TR SLP138 DENSITY ALT 1500FT

CYGK;2013-07-27 19:00;CYGK 271900Z 14007KT 15SM FEW025 FEW062 OVC200 25/18 A2992 RMK CU1SC1CI7 CU TR SLP133 DENSITY ALT 1400FT

CYGK;2013-07-27 20:00;CYGK 272000Z 14006KT 15SM FEW030 BKN065 OVC200 25/19 A2991 RMK CU1SC4CI3 SLP128 DENSITY ALT 1500FT

CYGK;2013-07-27 21:00;CYGK 272100Z 15009KT 15SM SCT050 BKN065 BKN150 OVC200 26/19 A2989 RMK CU3SC2AS2CS1 SLP121 DENSITY ALT 1600FT

CYGK;2013-07-27 22:00;CYGK 272200Z 15012KT 15SM FEW050 BKN130 BKN200 26/19 A2988 RMK CU2AC4CI1 SLP118 DENSITY ALT 1700FT

CYGK;2013-07-27 22:29;CYGK 272229Z 16015KT 15SM -SHRA BKN050 OVC130 25/19 A2988 RMK CU5AC3 SLP118 DENSITY ALT 1500FT

CYGK;2013-07-27 23:00;CYGK 272300Z 16015G23KT 12SM -SHRA SCT050 BKN100 OVC130 23/20 A2988 RMK CU4AC2AS2 SLP116 DENSITY ALT 1300FT

CYGK;2013-07-27 23:32;CYGK 272332Z 15013G18KT 15SM VCSH FEW050 BKN100 OVC200 22/20 A2987 RMK CU2AC4CI2 SLP116 DENSITY ALT 1200FT

CYGK;2013-07-28 00:00;CYGK 280000Z 14014G21KT 15SM FEW050 SCT065 BKN098 OVC200 22/20 A2988 RMK CU2SC1AC3CI2 SLP116 DENSITY ALT 1200FT

CYGK;2013-07-28 01:00;CYGK 280100Z 15015G20KT 15SM FEW050 SCT090 BKN120 OVC250 22/20 A2988 RMK CU1AC2AC3CI2 SLP117 DENSITY ALT 1200FT

CYGK;2013-07-28 01:19;CYGK 280119Z 14017KT 12SM -SHRA FEW050 SCT090 OVC110 22/20 A2988 RMK SC1AC3AC4 SLP118 DENSITY ALT 1200FT

CYGK;2013-07-28 02:00;CYGK 280200Z 14012KT 15SM OVC090 22/19 A2989 RMK AC8 SLP120 DENSITY ALT 1100FT

CYGK;2013-07-28 02:07;CYGK 280207Z 14014KT 12SM -SHRA BKN040 OVC080 22/19 A2989 RMK CU5AC3 SLP122 DENSITY ALT 1100FT

CYGK;2013-07-28 03:00;CYGK 280300Z 13011KT 12SM -SHRA SCT018 OVC040 21/19 A2988 RMK SF3CU5 LAST OBS/NEXT 281000 UTC SLP119 DENSITY ALT 1000FT

CYGK;2013-07-28 10:00;CYGK 281000Z 18016G23KT 10SM FEW015 SCT034 BKN130 22/20 A2984 RMK SC2SC2AC3 SLP103 DENSITY ALT 1200FT

CYGK;2013-07-28 10:16;CYGK 281016Z 18016KT 12SM BKN013 OVC035 22/20 A2984 RMK SC6SC2 SLP104 DENSITY ALT 1200FT

CYGK;2013-07-28 11:00;CYGK 281100Z 20013G21KT 12SM BKN013 BKN055 BKN140 22/20 A2986 RMK SC5SC1AC1 SLP111 DENSITY ALT 1200FT

CYGK;2013-07-28 11:42;CYGK 281142Z 19015G20KT 12SM SCT017 BKN040 BKN070 22/20 A2986 RMK SC4SC2AC1 SLP110 DENSITY ALT 1200FT

CYGK;2013-07-28 12:00;CYGK 281200Z 18015KT 12SM SCT017 SCT040 BKN068 22/20 A2986 RMK SC3SC1AC3 SLP110 DENSITY ALT 1200FT

CYGK;2013-07-28 13:00;CYGK 281300Z 19013G19KT 15SM BKN018 BKN035 OVC060 22/20 A2987 RMK CU5SC2SC1 SLP115 DENSITY ALT 1200FT

CYGK;2013-07-28 14:00;CYGK 281400Z 18011G19KT 12SM VCSH SCT013 BKN030 BKN100 23/19 A2986 RMK CU4SC1AC2 PRESFR SLP110 DENSITY ALT 1300FT

CYGK;2013-07-28 14:07;CYGK 281407Z 21013KT 12SM -SHRA BKN013 BKN080 22/19 A2988 RMK CU5AC2 PRESRR SLP116 DENSITY ALT 1200FT

CYGK;2013-07-28 15:00;CYGK 281500Z 22009KT 15SM FEW012 BKN040 BKN120 22/18 A2988 RMK CU2SC3AC2 SLP116 DENSITY ALT 1200FT

CYGK;2013-07-28 16:00;CYGK 281600Z 25010G16KT 10SM -RA SCT018 BKN040 OVC120 20/17 A2989 RMK CU3SC2AC3 SLP121 DENSITY ALT 900FT

CYGK;2013-07-28 17:00;CYGK 281700Z 24009KT 12SM VCSH SCT020 BKN050 OVC140 21/19 A2990 RMK CU3SC2AC3 SLP123 DENSITY ALT 1000FT

CYGK;2013-07-28 18:00;CYGK 281800Z 24010KT 15SM FEW012 BKN091 OVC180 22/18 A2990 RMK CU1AC6AC1 SLP124 DENSITY ALT 1100FT

CYGK;2013-07-28 19:00;CYGK 281900Z 24007KT 15SM FEW020 OVC075 22/17 A2990 RMK CU2AC6 SLP125 DENSITY ALT 1200FT

CYGK;2013-07-28 20:00;CYGK 282000Z 24010G18KT 15SM FEW020 FEW076 BKN250 24/13 A2989 RMK CU1AC2CI3 CU TR SLP122 DENSITY ALT 1400FT

CYGK;2013-07-28 21:00;CYGK 282100Z 25011G18KT 15SM FEW030 FEW080 SCT250 24/13 A2989 RMK CU1AC1CI3 CU TR AC TR SLP120 DENSITY ALT 1400FT

CYGK;2013-07-28 22:00;CYGK 282200Z 24012KT 15SM FEW040 SCT070 BKN250 23/12 A2990 RMK CU1AC3CI3 CU TR SLP124 DENSITY ALT 1200FT

CYGK;2013-07-28 23:00;CYGK 282300Z 25009KT 15SM FEW040 FEW060 SCT100 BKN250 23/12 A2991 RMK CU1SC1AC2CI2 CU TR SLP128 DENSITY ALT 1200FT

CYGK;2013-07-29 00:00;CYGK 290000Z 24009G17KT 15SM FEW040 BKN057 BKN080 BKN250 21/12 A2994 RMK CF1SC6AC1CI1 CF TR AC TR SLP138 DENSITY ALT 1000FT

CYGK;2013-07-29 01:00;CYGK 290100Z 25006KT 15SM FEW030 BKN064 BKN140 21/11 A2994 RMK CF1SC6AC1 CF TR SLP139 DENSITY ALT 1000FT

CYGK;2013-07-29 02:00;CYGK 290200Z 25006KT 15SM BKN062 BKN120 21/11 A2996 RMK SC6AC1 SLP143 DENSITY ALT 900FT

CYGK;2013-07-29 03:00;CYGK 290300Z 25007KT 15SM OVC091 20/11 A2996 RMK AC8 LAST OBS/NEXT 291000 UTC SLP146 DENSITY ALT 900FT

CYGK;2013-07-29 10:00;CYGK 291000Z 23007KT 15SM FEW020 FEW080 BKN180 18/14 A2999 RMK CU1AC1CI5 AC TR SLP154 DENSITY ALT 600FT

CYGK;2013-07-29 11:00;CYGK 291100Z 24009KT 15SM SCT023 SCT080 BKN180 19/14 A3000 RMK CU3AC1CI4 AC TR SLP157 DENSITY ALT 700FT

CYGK;2013-07-29 12:00;CYGK 291200Z 24010KT 15SM VCSH SCT025 SCT100 OVC170 19/14 A3000 RMK CU3AC1CI4 SLP157 DENSITY ALT 700FT

CYGK;2013-07-29 13:00;CYGK 291300Z 23013G18KT 15SM SCT025 BKN100 BKN140 19/14 A3000 RMK CU3AC2AC2 SLP160 DENSITY ALT 700FT

CYGK;2013-07-29 14:00;CYGK 291400Z 24011G17KT 15SM FEW024 SCT100 BKN140 21/15 A3001 RMK CU2AC2AC2 SLP162 DENSITY ALT 900FT

CYGK;2013-07-29 14:24;CYGK 291424Z 25011KT 12SM -SHRA SCT025 BKN080 BKN140 19/14 A3002 RMK CU3AC2AC2 SLP164 DENSITY ALT 700FT

CYGK;2013-07-29 15:00;CYGK 291500Z 22008KT 15SM VCSH SCT025 BKN090 19/15 A3002 RMK CU3AC4 SLP165 DENSITY ALT 600FT

CYGK;2013-07-29 16:00;CYGK 291600Z 24013KT 15SM VCSH SCT030 BKN100 BKN200 20/12 A3003 RMK CU3AC3CI1 CI TR SLP168 DENSITY ALT 800FT

CYGK;2013-07-29 17:00;CYGK 291700Z 23009G18KT 15SM VCSH SCT035 BKN080 BKN200 22/14 A3003 RMK CU4AC1CI1 TCU ASOCTD SLP169 DENSITY ALT 1100FT

CYGK;2013-07-29 18:00;CYGK 291800Z 19018KT 15SM SCT035 BKN070 BKN200 22/15 A3003 RMK CU4AC1CI1 SLP170 DENSITY ALT 1000FT

CYGK;2013-07-29 19:00;CYGK 291900Z 20016G23KT 15SM SCT030 BKN090 BKN200 21/15 A3003 RMK CU4AC1CI1 TCU ASOCTD SLP169 DENSITY ALT 900FT

CYGK;2013-07-29 20:00;CYGK 292000Z 23016G23KT 15SM FEW045 BKN100 BKN160 22/11 A3004 RMK CU1AC4AC2 TCU ASOCTD SLP173 DENSITY ALT 1000FT

CYGK;2013-07-29 20:25;CYGK 292025Z 24015G21KT 15SM -SHRA FEW040TCU BKN100 BKN140 20/13 A3005 RMK TCU1AC5AC1 SLP176 DENSITY ALT 800FT

CYGK;2013-07-29 20:51;CYGK 292051Z 22012G23KT 15SM FEW030 BKN100 BKN140 19/14 A3006 RMK CU2AC4AC1 TCU ASOCTD SLP178 DENSITY ALT 700FT

CYGK;2013-07-29 21:00;CYGK 292100Z CCA 24013G19KT 15SM -SHRA FEW030 BKN090 BKN140 19/13 A3005 RMK CU1AC5AC1 TCU ASOCTD SLP178 DENSITY ALT 600FT

CYGK;2013-07-29 21:31;CYGK 292131Z 24010G19KT 15SM FEW030 SCT110 20/14 A3005 RMK CU1AC3 TCU ASOCTD SLP177 DENSITY ALT 800FT

CYGK;2013-07-29 22:00;CYGK 292200Z 22012G17KT 15SM FEW030 FEW080 SCT110 21/13 A3005 RMK CU1AC1AC2 TCU ASOCTD SLP176 DENSITY ALT 900FT

CYGK;2013-07-29 23:00;CYGK 292300Z 22014KT 15SM FEW030 BKN070 BKN110 20/14 A3006 RMK CU2AC4AC1 SLP180 DENSITY ALT 700FT

CYGK;2013-07-30 00:00;CYGK 300000Z 22010KT 15SM FEW035 BKN050 BKN080 19/14 A3007 RMK CU1SC4AC1 SLP182 DENSITY ALT 600FT

CYGK;2013-07-30 01:00;CYGK 300100Z 25009KT 15SM FEW022TCU SCT050 BKN110 18/14 A3008 RMK TCU1SC2AC4 SLP188 DENSITY ALT 500FT

CYGK;2013-07-30 02:00;CYGK 300200Z 25007KT 15SM SCT018 BKN110 18/15 A3009 RMK CU3AC3 TCU ASOCTD SLP190 DENSITY ALT 500FT

CYGK;2013-07-30 03:00;CYGK 300300Z 26009KT 15SM FEW020 BKN110 18/15 A3010 RMK CU1AC6 LAST OBS/NEXT 301000 UTC SLP193 DENSITY ALT 500FT

CYGK;2013-07-30 10:00;CYGK 301000Z 28005KT 15SM FEW020 FEW120 13/12 A3014 RMK CU1AC1 CU TR AC TR SLP207

CYGK;2013-07-30 11:00;CYGK 301100Z 33005KT 15SM FEW020 FEW230 14/13 A3015 RMK CU1CI2 CU TR SLP209

CYGK;2013-07-30 12:00;CYGK 301200Z 28003KT 15SM FEW025 BKN200 17/14 A3016 RMK CU1CI6 CU TR SLP213

CYGK;2013-07-30 13:00;CYGK 301300Z 24008KT 15SM FEW025 BKN250 18/14 A3017 RMK CU1CI5 SLP216 DENSITY ALT 400FT

CYGK;2013-07-30 14:00;CYGK 301400Z 28007KT 15SM FEW025 BKN250 20/14 A3017 RMK CU2CI3 SLP218 DENSITY ALT 600FT

CYGK;2013-07-30 15:00;CYGK 301500Z 23010KT 15SM BKN025 BKN250 21/14 A3018 RMK CU6CI1 SLP219 DENSITY ALT 700FT

CYGK;2013-07-30 16:00;CYGK 301600Z 23008KT 15SM SCT030 BKN050 BKN250 22/14 A3017 RMK CU3SC3CI1 SLP218 DENSITY ALT 800FT

CYGK;2013-07-30 17:00;CYGK 301700Z 22009KT 15SM SCT030 BKN060 BKN250 22/15 A3016 RMK CU3SC3CI1 SLP214 DENSITY ALT 900FT

CYGK;2013-07-30 18:00;CYGK 301800Z 22010KT 15SM SCT040 BKN250 23/15 A3014 RMK CU4CI1 SLP208 DENSITY ALT 1000FT

CYGK;2013-07-30 19:00;CYGK 301900Z 02010KT 15SM SCT040 BKN070 21/15 A3013 RMK CU4AC1 WND ESTD WND ESTD SLP203 DENSITY ALT 800FT

CYGK;2013-07-30 20:00;CYGK 302000Z 19014KT 15SM SCT040 SCT070 SCT250 23/16 A3012 RMK CU3AC1CI1 AC TR SLP200 DENSITY ALT 1100FT

CYGK;2013-07-30 21:00;CYGK 302100Z 20015KT 15SM FEW042 SCT220 22/16 A3012 RMK CU2CI2 SLP200 DENSITY ALT 900FT

CYGK;2013-07-30 22:00;CYGK 302200Z 22014KT 15SM FEW038 FEW070 BKN220 23/16 A3011 RMK CU1AC1CI5 AC TR SLP198 DENSITY ALT 1000FT

CYGK;2013-07-30 23:00;CYGK 302300Z 24012G18KT 15SM FEW050 FEW070 BKN220 21/15 A3012 RMK CU1AC1CI4 SLP200 DENSITY ALT 800FT

CYGK;2013-07-31 00:00;CYGK 310000Z 24014G21KT 15SM FEW050 FEW070 BKN220 21/16 A3012 RMK CU1AC1CI4 AC TR SLP199 DENSITY ALT 800FT

CYGK;2013-07-31 01:00;CYGK 310100Z 25012KT 15SM FEW050 FEW100 SCT220 20/16 A3011 RMK CU1AC1CI2 SLP198 DENSITY ALT 700FT

CYGK;2013-07-31 02:00;CYGK 310200Z 25007KT 15SM FEW050 FEW100 FEW220 20/16 A3012 RMK CU1AC1CI1 CU TR SLP199 DENSITY ALT 600FT

CYGK;2013-07-31 03:00;CYGK 310300Z 25007KT 15SM FEW070 19/16 A3012 RMK AC1 LAST OBS/NEXT 311000 UTC SLP200 DENSITY ALT 500FT

CYGK;2013-07-31 10:00;CYGK 311000Z 27003KT 15SM BKN270 14/13 A3014 RMK CI6 SLP206

CYGK;2013-07-31 11:00;CYGK 311100Z 31003KT 15SM FEW140 BKN270 15/13 A3014 RMK AC1CI5 SLP208

CYGK;2013-07-31 12:00;CYGK 311200Z 34005KT 15SM FEW140 BKN270 17/14 A3013 RMK AC1CI6 SLP203

CYGK;2013-07-31 13:00;CYGK 311300Z 00000KT 15SM FEW025 FEW140 BKN270 20/16 A3013 RMK CU1AC1CI7 CU TR AC TR SLP203 DENSITY ALT 700FT

CYGK;2013-07-31 14:00;CYGK 311400Z 20008KT 15SM FEW030 FEW140 BKN240 20/16 A3014 RMK CU1AC1CI6 CU TR SLP204 DENSITY ALT 700FT

CYGK;2013-07-31 15:00;CYGK 311500Z 20010KT 15SM FEW030 FEW140 BKN240 21/16 A3014 RMK CU1AC1CI7 CU TR AC TR SLP206 DENSITY ALT 800FT

CYGK;2013-07-31 16:00;CYGK 311600Z 21009KT 15SM FEW030 BKN240 23/14 A3013 RMK CU1CI6 SLP201 DENSITY ALT 1000FT

CYGK;2013-07-31 17:00;CYGK 311700Z 18013KT 15SM FEW030 BKN240 24/18 A3011 RMK CU1CI6 SLP194 DENSITY ALT 1100FT

CYGK;2013-07-31 18:00;CYGK 311800Z 18013KT 15SM FEW030 BKN270 24/17 A3010 RMK CU2CI5 SLP192 DENSITY ALT 1100FT

CYGK;2013-07-31 19:00;CYGK 311900Z 19012KT 15SM FEW030 BKN270 24/17 A3008 RMK CU1CI4 SLP184 DENSITY ALT 1100FT

CYGK;2013-07-31 20:00;CYGK 312000Z 18009KT 15SM FEW030 BKN270 23/18 A3006 RMK CU2CI4 SLP179 DENSITY ALT 1100FT

CYGK;2013-07-31 21:00;CYGK 312100Z 18008KT 15SM FEW030 BKN250 22/17 A3005 RMK CU2CI5 SLP174 DENSITY ALT 1000FT

CYGK;2013-07-31 22:00;CYGK 312200Z 21008KT 15SM FEW030 SCT150 BKN250 24/15 A3003 RMK CU2AC2CI3 SLP169 DENSITY ALT 1200FT

CYGK;2013-07-31 23:00;CYGK 312300Z 19005KT 15SM BKN140 BKN250 23/16 A3002 RMK AC5CI2 SLP164 DENSITY ALT 1100FT

CYGK;2013-08-01 00:00;CYGK 010000Z 18003KT 15SM BKN140 BKN250 22/16 A3000 RMK AC5CI2 SLP158 DENSITY ALT 1000FT

CYGK;2013-08-01 01:00;CYGK 010100Z 00000KT 15SM OVC140 21/16 A3000 RMK AC8 SLP157 DENSITY ALT 900FT

CYGK;2013-08-01 02:00;CYGK 010200Z 35004KT 15SM FEW050 OVC130 20/17 A3000 RMK SC1AC7 SLP158 DENSITY ALT 800FT

CYGK;2013-08-01 03:00;CYGK 010300Z 09003KT 15SM FEW050 SCT090 BKN130 OVC220 19/17 A2998 RMK SC1AC2AC3CI2 LAST OBS/NEXT 011000 UTC SLP152 DENSITY ALT 700FT

CYGK;2013-08-01 10:00;CYGK 011000Z 16013G19KT 15SM BKN063 BKN110 22/18 A2984 RMK SC5AC2 SLP103 DENSITY ALT 1200FT

CYGK;2013-08-01 11:00;CYGK 011100Z 17017G22KT 15SM VCSH FEW030 BKN061 BKN090 22/19 A2982 RMK SC1SC5AC1 SLP099 DENSITY ALT 1200FT

CYGK;2013-08-01 12:00;CYGK 011200Z 18016G23KT 15SM VCSH BKN023 OVC070 22/19 A2982 RMK SC6AC2 SLP097 DENSITY ALT 1200FT

CYGK;2013-08-01 12:20;CYGK 011220Z 19016G23KT 10SM -RA OVC022 22/19 A2982 RMK SC8 SLP096 DENSITY ALT 1200FT

CYGK;2013-08-01 12:52;CYGK 011252Z 18018G24KT 3SM RA BR SCT014 OVC020 21/19 A2981 RMK SF3SC5 SLP094 DENSITY ALT 1100FT

CYGK;2013-08-01 13:05;CYGK 011305Z 20014G25KT 3SM RA BR FEW007 BKN011 OVC018 20/19 A2980 RMK SF2SF5SC1 VIS N 11/2 SLP092 DENSITY ALT 1000FT

CYGK;2013-08-01 13:24;CYGK 011324Z 22008G16KT 180V240 3SM -RA BR BKN006 OVC011 20/19 A2978 RERA RMK SF6SC2 SLP085 DENSITY ALT 1100FT

CYGK;2013-08-01 13:46;CYGK 011346Z 24015G22KT 6SM -RA BR FEW003 BKN006 OVC023 19/18 A2980 RERA RMK SF1SF4SC3 PRESRR SLP091 DENSITY ALT 900FT

CYGK;2013-08-01 14:00;CYGK 011400Z 22011KT 6SM -RA BR FEW006 SCT023 OVC070 19/17 A2980 RERA RMK SF2SC2AC4 SLP092 DENSITY ALT 900FT

CYGK;2013-08-01 14:35;CYGK 011435Z 18008KT 12SM FEW006 FEW023 SCT070 BKN160 OVC250 20/19 A2978 RMK SF1CU2AC1AC4CI1 SF TR SLP084 DENSITY ALT 1000FT

CYGK;2013-08-01 14:47;CYGK 011447Z 19010KT 12SM BKN007 BKN023 OVC070 20/19 A2979 RMK SF6CU1AC1 SLP086 DENSITY ALT 1000FT

CYGK;2013-08-01 15:00;CYGK 011500Z 20013G19KT 12SM -SHRA SCT007 BKN025 BKN080 BKN120 20/18 A2978 RMK SF4CU1AC1AC1 SLP085 DENSITY ALT 1000FT

CYGK;2013-08-01 15:47;CYGK 011547Z 19014KT 12SM FEW007 BKN012 OVC050 21/19 A2979 RMK SF1SC6SC1 OCNL -SHRA SLP086 DENSITY ALT 1100FT

CYGK;2013-08-01 16:00;CYGK 011600Z 20015KT 12SM FEW007 BKN012 OVC048 21/19 A2979 RMK SF1SC5SC3 SF TR OCNL -SHRA SLP087 DENSITY ALT 1100FT

CYGK;2013-08-01 17:00;CYGK 011700Z 20015G20KT 8SM -SHRA BKN010 OVC026 21/20 A2977 RMK CU6SC2 SLP080 DENSITY ALT 1200FT

CYGK;2013-08-01 17:14;CYGK 011714Z 20018G24KT 6SM BR BKN010 OVC022 21/20 A2976 RMK CU6SC2 SLP078 DENSITY ALT 1200FT

CYGK;2013-08-01 17:50;CYGK 011750Z 31009G16KT 11SM SCT010TCU BKN022 OVC080 19/17 A2978 RMK TCU4SC2AC2 WND SHFT 1750 SLP085 DENSITY ALT 1000FT

CYGK;2013-08-01 18:00;CYGK 011800Z 32009KT 15SM SCT010TCU BKN030 BKN080 19/17 A2978 RMK TCU4SC2AC1 SLP084 DENSITY ALT 1000FT

CYGK;2013-08-01 18:36;CYGK 011836Z 30004KT 15SM SCT010TCU BKN040 BKN080 20/18 A2978 RMK TCU3SC3AC1 SH DIST E-SE SLP084 DENSITY ALT 1100FT

CYGK;2013-08-01 19:00;CYGK 011900Z 30006KT 260V320 15SM FEW010 FEW015 BKN045 22/19 A2977 RMK SF1CU1SC3 SLP082 DENSITY ALT 1300FT

CYGK;2013-08-01 20:00;CYGK 012000Z 31007KT 15SM FEW015 BKN030 24/19 A2977 RMK CU2CU4 TCU ASOCTD SLP081 DENSITY ALT 1600FT

CYGK;2013-08-01 21:00;CYGK 012100Z 31004KT 15SM BKN035 24/18 A2979 RMK CU6 TCU ASOCTD SLP085 DENSITY ALT 1600FT

CYGK;2013-08-01 22:00;CYGK 012200Z 23006KT 15SM BKN040 24/17 A2979 RMK CU5 SLP085 DENSITY ALT 1500FT

CYGK;2013-08-01 23:00;CYGK 012300Z 26007KT 15SM SCT040 24/16 A2979 RMK CU4 SLP085 DENSITY ALT 1500FT

CYGK;2013-08-02 00:00;CYGK 020000Z 23009KT 15SM FEW040 SCT250 22/18 A2980 RMK CU2CI2 SLP091 DENSITY ALT 1300FT

CYGK;2013-08-02 01:00;CYGK 020100Z 23008KT 15SM FEW040 SCT250 21/18 A2981 RMK CU1CC2 SLP094 DENSITY ALT 1200FT

CYGK;2013-08-02 02:00;CYGK 020200Z 24005KT 15SM SCT250 20/17 A2982 RMK CI3 SLP096 DENSITY ALT 1100FT

CYGK;2013-08-02 03:00;CYGK 020300Z 26006KT 15SM FEW250 20/16 A2982 RMK CI2 LAST OBS/NEXT 021000 UTC SLP097 DENSITY ALT 1000FT

CYGK;2013-08-02 10:00;CYGK 021000Z 25002KT 15SM MIFG FEW080 FEW220 15/14 A2985 RMK AC1CI2 AC TR SLP106 DENSITY ALT 400FT

CYGK;2013-08-02 11:00;CYGK 021100Z 26005KT 15SM FEW220 16/14 A2985 RMK CI2 SLP108 DENSITY ALT 500FT

CYGK;2013-08-02 12:00;CYGK 021200Z 26006KT 15SM SCT220 17/15 A2986 RMK CI4 SLP112 DENSITY ALT 700FT

CYGK;2013-08-02 13:00;CYGK 021300Z 28007KT 15SM FEW020 FEW160 BKN220 19/16 A2987 RMK CU1AC1CI6 CU TR AC TR SLP115 DENSITY ALT 900FT

CYGK;2013-08-02 14:00;CYGK 021400Z 23006KT 15SM FEW025 FEW080 FEW120 BKN220 21/16 A2987 RMK CU1AC1AC1CI6 CU TR AC TR SLP115 DENSITY ALT 1100FT

CYGK;2013-08-02 15:00;CYGK 021500Z 24007KT 15SM FEW030 FEW060 SCT120 BKN220 22/15 A2988 RMK CU1SC1AC1CI3 TCU TOPS DIST W-NW SLP116 DENSITY ALT 1100FT

CYGK;2013-08-02 16:00;CYGK 021600Z 21010KT 15SM FEW035TCU SCT070 SCT110 BKN220 21/16 A2986 RMK TCU2AC1AC1CI3 SLP112 DENSITY ALT 1100FT

CYGK;2013-08-02 16:14;CYGK 021614Z 21008KT 15SM -SHRA SCT025TCU SCT070 BKN110 BKN220 22/16 A2985 RMK TCU3AC1AC1CI1 SLP108 DENSITY ALT 1200FT

CYGK;2013-08-02 16:27;CYGK 021627Z 22009KT 15SM SCT025TCU SCT070 BKN220 22/16 A2986 RMK TCU3AC1CI2 SLP110 DENSITY ALT 1200FT

CYGK;2013-08-02 17:00;CYGK 021700Z 24008KT 15SM FEW025TCU SCT140 SCT220 23/17 A2985 RMK TCU2AC1CI1 CB DIST N SLP107 DENSITY ALT 1300FT

CYGK;2013-08-02 18:00;CYGK 021800Z 19014KT 15SM VCSH SCT030TCU BKN250 23/17 A2985 RMK TCU3CI2 CB DIST N SLP106 DENSITY ALT 1400FT

CYGK;2013-08-02 19:00;CYGK 021900Z 20013G21KT 15SM SCT030TCU SCT120 BKN220 23/16 A2983 RMK TCU3AC1CI1 CB DIST NW-NE AND S SLP102 DENSITY ALT 1300FT

CYGK;2013-08-02 20:00;CYGK 022000Z 21013G18KT 15SM SCT030TCU BKN120 BKN220 21/15 A2983 RMK TCU3AC2CI1 SLP102 DENSITY ALT 1100FT

CYGK;2013-08-02 21:00;CYGK 022100Z 20013G20KT 15SM FEW030 BKN100 BKN250 23/16 A2981 RMK CF2AC3CI1 SLP094 DENSITY ALT 1400FT

CYGK;2013-08-02 22:00;CYGK 022200Z 23013G21KT 15SM FEW030TCU BKN140 BKN250 22/17 A2981 RMK TCU2AC4CI1 SLP096 DENSITY ALT 1200FT

CYGK;2013-08-02 23:00;CYGK 022300Z 24012G21KT 15SM FEW030 BKN160 BKN250 22/16 A2982 RMK CU1AC4CI1 SLP096 DENSITY ALT 1200FT

CYGK;2013-08-03 00:00;CYGK 030000Z 23013G19KT 15SM FEW030 BKN130 BKN250 21/16 A2982 RMK CU1AC5CI1 CU TR SLP099 DENSITY ALT 1100FT

CYGK;2013-08-03 01:00;CYGK 030100Z 24017G23KT 15SM SCT100 BKN140 OVC250 21/14 A2983 RMK AC3AC2CI3 SLP102 DENSITY ALT 1100FT

CYGK;2013-08-03 01:26;CYGK 030126Z 23015G23KT 15SM -RA BKN085 OVC140 19/15 A2984 RMK AC5AC3 SLP103 DENSITY ALT 900FT

CYGK;2013-08-03 02:00;CYGK 030200Z 23009KT 15SM BKN080 OVC140 18/15 A2985 RMK AC5AC3 SLP107 DENSITY ALT 700FT

CYGK;2013-08-03 03:00;CYGK 030300Z 22010KT 10SM -RA SCT050 OVC080 18/15 A2983 RMK CU4AC4 LAST OBS NEXT 031000 UTC LTNG DIST W-NW SLP100 DENSITY ALT 800FT

CYGK;2013-08-03 10:00;CYGK 031000Z 27006KT 15SM FEW022 FEW120 FEW250 15/14 A2983 RMK CU1AC1CI1 CU TR AC TR CI TR SLP103 DENSITY ALT 400FT

CYGK;2013-08-03 11:00;CYGK 031100Z 25008KT 15SM FEW020 FEW250 16/15 A2984 RMK CU1CI1 CU TR CI TR SLP106 DENSITY ALT 500FT

CYGK;2013-08-03 12:00;CYGK 031200Z 28009KT 15SM FEW012 FEW250 17/15 A2986 RMK CF1CI1 CI TR SLP112 DENSITY ALT 600FT

CYGK;2013-08-03 13:00;CYGK 031300Z 28008KT 15SM FEW012 FEW250 18/15 A2987 RMK CF1CI1 CI TR SLP115 DENSITY ALT 700FT

CYGK;2013-08-03 14:00;CYGK 031400Z 29008KT 15SM FEW019 19/16 A2987 RMK CU1 TCU ASOCTD DIST S SLP115 DENSITY ALT 900FT

CYGK;2013-08-03 15:00;CYGK 031500Z 27007G15KT 15SM FEW026 FEW250 20/14 A2987 RMK CU2CI1 CI TR SLP115 DENSITY ALT 1000FT

CYGK;2013-08-03 16:00;CYGK 031600Z 27010KT 15SM SCT033 22/14 A2987 RMK CU4 SLP113 DENSITY ALT 1200FT

CYGK;2013-08-03 17:00;CYGK 031700Z 26007G17KT 15SM SCT042 SCT250 21/14 A2986 RMK CU3CI1 SLP113 DENSITY ALT 1100FT

CYGK;2013-08-03 18:00;CYGK 031800Z 29007KT 15SM BKN042 22/14 A2986 RMK CU5 TCU ASOCTD SLP111 DENSITY ALT 1200FT

CYGK;2013-08-03 19:00;CYGK 031900Z 23010KT 15SM VCSH SCT042 BKN090 22/15 A2986 RMK CU4AC1 TCU ASOCTD SH S SLP111 DENSITY ALT 1300FT

CYGK;2013-08-03 19:32;CYGK 031932Z 23011KT 15SM -SHRA SCT050 BKN090 22/15 A2985 RMK CU4AC2 TCU ASOCTD SLP109 DENSITY ALT 1200FT

CYGK;2013-08-03 19:48;CYGK 031948Z 24007KT 15SM VCSH SCT050TCU SCT090 22/18 A2985 RMK TCU3AC1 SLP109 DENSITY ALT 1200FT

CYGK;2013-08-03 20:00;CYGK 032000Z 23012KT 55SM SCT050TCU SCT100 23/18 A2985 RMK TCU3AC1 SLP108 DENSITY ALT 1400FT

CYGK;2013-08-03 20:40;CYGK 032040Z 24014G21KT 15SM -SHRA SCT040TCU BKN080 21/17 A2985 RMK TCU3AC2 SLP107 DENSITY ALT 1200FT

CYGK;2013-08-03 21:00;CYGK 032100Z 23013KT 15SM VCSH SCT040TCU SCT100 22/17 A2985 RMK TCU3AC1 SLP107 DENSITY ALT 1200FT

CYGK;2013-08-03 22:00;CYGK 032200Z 24012G17KT 15SM FEW040TCU SCT100 SCT250 22/16 A2985 RMK TCU2AC1CI1 CB DIST NW SLP107 DENSITY ALT 1300FT

CYGK;2013-08-03 22:44;CYGK 032244Z 25010G16KT 15SM TS VCSH SCT040TCU BKN100 22/16 A2985 RMK TCU3AC3 CB LTNG NW MOVG SW SLP109 DENSITY ALT 1200FT

CYGK;2013-08-03 22:50;CYGK 032250Z 25012G18KT 15SM -TSRA SCT040CB BKN100 22/16 A2985 RMK CB4AC3 LTGCG NW MOVG SE SLP110 DENSITY ALT 1200FT

CYGK;2013-08-03 23:00;CYGK 032300Z 27010G18KT 15SM -TSRA FEW020 SCT040CB BKN090 21/16 A2986 RMK CF1CB4AC3 CF TR SLP112 DENSITY ALT 1000FT

CYGK;2013-08-03 23:16;CYGK 032316Z 26007KT 15SM -SHRA FEW020 SCT040CB BKN090 BKN200 19/16 A2986 RETS RMK CF1CB3AC2CI2 CF TR SLP112 DENSITY ALT 900FT

CYGK;2013-08-03 23:30;CYGK 032330Z 27006KT 15SM VCSH FEW020 FEW040CB SCT100 BKN200 19/15 A2986 RETS RMK CF1CB2AC2CI1 CF TR SLP112 DENSITY ALT 900FT

CYGK;2013-08-04 00:00;CYGK 040000Z 25007KT 15SM -SHRA FEW035CB SCT100 SCT200 19/15 A2986 RETS RMK CB2AC1CI1 SLP112 DENSITY ALT 900FT

CYGK;2013-08-04 00:17;CYGK 040017Z 31012G20KT 15SM -SHRA SCT035TCU BKN095 BKN200 18/14 A2987 RMK TCU3AC2CI1 WSHFT 0007 CB DIST E SLP115 DENSITY ALT 700FT

CYGK;2013-08-04 00:33;CYGK 040033Z 30008G15KT 15SM FEW035TCU FEW070 SCT100 SCT200 18/14 A2986 RMK TCU1AC1AC1CI1 SLP113 DENSITY ALT 700FT

CYGK;2013-08-04 01:00;CYGK 040100Z 29006KT 15SM FEW020 FEW035 SCT070 17/14 A2988 RMK CU1SC2AC2 CU TR CB DIST E SLP118 DENSITY ALT 600FT

CYGK;2013-08-04 02:00;CYGK 040200Z 29007KT 15SM FEW030 FEW060 17/14 A2990 RMK SC1SC1 SLP124 DENSITY ALT 600FT

CYGK;2013-08-04 03:00;CYGK 040300Z 31008KT 15SM BKN098 17/14 A2989 RMK AC6 LAST OBS/NEXT 041000UTC SLP123 DENSITY ALT 600FT

CYGK;2013-08-04 10:00;CYGK 041000Z 28004KT 15SM FEW020TCU SCT080 SCT250 13/12 A2991 RMK TCU1AC3CI1 TCU TR DIST S SLP128

CYGK;2013-08-04 11:00;CYGK 041100Z 32006KT 15SM FEW020TCU FEW080 FEW250 14/13 A2992 RMK TCU1AC1CI1 TCU TR DIST S SLP132

CYGK;2013-08-04 12:00;CYGK 041200Z 32010KT 15SM FEW010 FEW080 FEW250 16/13 A2993 RMK CF1AC1CI1 AC TR TCU TOPS DIST S SLP136 DENSITY ALT 400FT

CYGK;2013-08-04 12:31;CYGK 041231Z 34010KT 15SM BKN014 BKN250 16/13 A2994 RMK SC5CI1 TCU TOPS DIST S SLP138 DENSITY ALT 400FT

CYGK;2013-08-04 12:49;CYGK 041249Z 35011G18KT 15SM SCT018 SCT085 SCT250 16/13 A2994 RMK SC3AC1CI1 AC TR TCU ASOCTD S SLP140 DENSITY ALT 500FT

CYGK;2013-08-04 13:00;CYGK 041300Z 34011KT 15SM FEW017 FEW085 SCT250 16/13 A2994 RMK SC2AC1CI1 AC TR TCU ASOCTD DIST S SLP139 DENSITY ALT 400FT

CYGK;2013-08-04 14:00;CYGK 041400Z 30008KT 15SM SCT022 SCT250 18/13 A2995 RMK SC4CI1 CI TR TCU ASOCTD DIST S SLP143 DENSITY ALT 700FT

CYGK;2013-08-04 15:00;CYGK 041500Z 34014KT 15SM BKN032 BKN250 19/12 A2996 RMK SC5CI1 CI TR TCU ASOCTD DIST SE-SW SLP144 DENSITY ALT 700FT

CYGK;2013-08-04 16:00;CYGK 041600Z 32010KT 15SM BKN037 19/12 A2996 RMK CU6 SLP145 DENSITY ALT 800FT

CYGK;2013-08-04 17:00;CYGK 041700Z 33011KT 15SM BKN050 21/11 A2995 RMK CU6 SLP143 DENSITY ALT 1000FT

CYGK;2013-08-04 18:00;CYGK 041800Z 29012KT 15SM BKN043 21/11 A2995 RMK CU5 TCU ASOCTD SLP143 DENSITY ALT 1000FT

CYGK;2013-08-04 19:00;CYGK 041900Z 30011G18KT 15SM BKN047 BKN080 21/11 A2995 RMK CU5AC1 TCU ASOCTD SLP142 DENSITY ALT 1000FT

CYGK;2013-08-04 20:00;CYGK 042000Z 32011G17KT 15SM SCT053 SCT080 22/12 A2995 RMK CU3AC1 TCU ASOCTD SLP142 DENSITY ALT 1200FT

CYGK;2013-08-04 21:00;CYGK 042100Z 28015KT 15SM FEW050 SCT080 22/11 A2995 RMK CU2AC1 SLP142 DENSITY ALT 1100FT

CYGK;2013-08-04 22:00;CYGK 042200Z 30012G17KT 15SM FEW045 SCT080 22/11 A2995 RMK CU2AC1 TCU E SLP142 DENSITY ALT 1100FT

CYGK;2013-08-04 23:00;CYGK 042300Z 28007G15KT 15SM FEW045 FEW080 21/12 A2996 RMK CU2AC1 AC TR SLP146 DENSITY ALT 1000FT

CYGK;2013-08-05 00:00;CYGK 050000Z 33008KT 15SM FEW045 19/11 A2998 RMK CU1 SLP151 DENSITY ALT 800FT

CYGK;2013-08-05 01:00;CYGK 050100Z 36008KT 15SM FEW050 FEW250 17/08 A3000 RMK SC1CI1 CI TR SLP161 DENSITY ALT 500FT

CYGK;2013-08-05 02:00;CYGK 050200Z 35007KT 15SM FEW050 14/09 A3002 RMK SC1 SC TR SLP168

CYGK;2013-08-05 03:00;CYGK 050300Z 34005KT 15SM SKC 13/09 A3003 RMK LAST OBS/NEXT 051000UTC SLP171

CYGK;2013-08-05 10:00;CYGK 051000Z 33007KT 15SM FEW020 FEW220 09/08 A3007 RMK CU1CI1 CU TR CI TR SLP184

CYGK;2013-08-05 11:00;CYGK 051100Z 34005KT 15SM FEW020 FEW220 11/09 A3008 RMK CU1CI1 CU TR CI TR SLP187

CYGK;2013-08-05 12:00;CYGK 051200Z 34005KT 15SM FEW250 14/09 A3009 RMK CI1 SLP190

CYGK;2013-08-05 13:00;CYGK 051300Z 32003KT 15SM FEW020 FEW250 18/11 A3010 RMK CU1CI2 CU TR SLP192 DENSITY ALT 500FT

CYGK;2013-08-05 14:00;CYGK 051400Z 24002KT 15SM FEW020 SCT250 20/09 A3011 RMK CU1CI3 CU TR SLP195 DENSITY ALT 600FT

CYGK;2013-08-05 15:00;CYGK 051500Z 19006KT 15SM FEW040 SCT250 21/09 A3010 RMK CU1CI3 CU TR SLP193 DENSITY ALT 800FT

CYGK;2013-08-05 16:00;CYGK 051600Z 20006KT 15SM FEW045 SCT240 22/08 A3009 RMK CU1CI2 SLP190 DENSITY ALT 900FT

CYGK;2013-08-05 17:00;CYGK 051700Z 17010KT 15SM FEW045 SCT220 21/10 A3008 RMK CU1CI2 SLP185 DENSITY ALT 900FT

CYGK;2013-08-05 18:00;CYGK 051800Z 19012KT 15SM SCT060 SCT220 21/11 A3006 RMK CU3CI1 SLP181 DENSITY ALT 900FT

CYGK;2013-08-05 19:00;CYGK 051900Z 19012KT 15SM FEW065 FEW220 21/13 A3005 RMK CU1CI1 SLP178 DENSITY ALT 900FT

CYGK;2013-08-05 20:00;CYGK 052000Z 19012KT 15SM SCT070 SCT220 22/15 A3005 RMK CU3CI1 SLP178 DENSITY ALT 900FT

CYGK;2013-08-05 21:00;CYGK 052100Z 19012KT 15SM FEW070 BKN220 21/14 A3004 RMK CU1CI5 SLP174 DENSITY ALT 900FT

CYGK;2013-08-05 22:00;CYGK 052200Z 19012KT 15SM FEW060 BKN250 21/14 A3004 RMK CU1CI5 SLP172 DENSITY ALT 900FT

CYGK;2013-08-05 23:00;CYGK 052300Z 20010KT 15SM FEW060 FEW120 BKN250 21/13 A3003 RMK CU1AC1CI5 CU TR SLP170 DENSITY ALT 900FT

CYGK;2013-08-06 00:00;CYGK 060000Z 22008KT 15SM FEW060 BKN250 20/12 A3003 RMK SC1CI6 SC TR SLP169 DENSITY ALT 700FT

CYGK;2013-08-06 01:00;CYGK 060100Z 22006KT 15SM FEW050 SCT240 19/12 A3003 RMK SC1CI4 SC TR SLP170 DENSITY ALT 600FT

CYGK;2013-08-06 02:00;CYGK 060200Z 21006KT 15SM FEW040 SCT240 18/12 A3004 RMK SC1CI3 SC TR SLP172 DENSITY ALT 500FT

CYGK;2013-08-06 03:00;CYGK 060300Z 23005KT 15SM SCT240 18/13 A3004 RMK CI4 LAST OBS/NEXT 061000UTC SLP172 DENSITY ALT 500FT

CYGK;2013-08-06 10:00;CYGK 061000Z 35003KT 15SM FEW030 SCT150 BKN250 11/11 A3005 RMK CU1AC2CI3 SLP178

CYGK;2013-08-06 11:00;CYGK 061100Z 18008KT 15SM FEW020 SCT160 BKN250 19/15 A3006 RMK CU1AC3CI3 SLP179 DENSITY ALT 600FT

CYGK;2013-08-06 12:00;CYGK 061200Z 16008KT 15SM FEW020 BKN160 BKN250 19/16 A3007 RMK CU1AC4CI2 SLP182 DENSITY ALT 600FT

CYGK;2013-08-06 13:00;CYGK 061300Z 15007KT 15SM FEW070 BKN120 20/16 A3007 RMK AC1AC6 SLP181 DENSITY ALT 700FT

CYGK;2013-08-06 14:00;CYGK 061400Z 17008KT 15SM FEW025 BKN120 BKN250 21/15 A3007 RMK CF1AC5CI1 CF TR SLP183 DENSITY ALT 800FT

CYGK;2013-08-06 15:00;CYGK 061500Z 15011KT 15SM FEW030 FEW120 SCT250 22/15 A3008 RMK CU1AC1CI1 SLP185 DENSITY ALT 900FT

CYGK;2013-08-06 16:00;CYGK 061600Z 18011KT 15SM FEW030 FEW120 SCT250 22/15 A3008 RMK CU1AC1CI2 SLP186 DENSITY ALT 900FT

CYGK;2013-08-06 17:00;CYGK 061700Z 16010KT 15SM FEW030 FEW250 22/16 A3007 RMK CU1CI1 SLP181 DENSITY ALT 1000FT

CYGK;2013-08-06 18:00;CYGK 061800Z 17010KT 15SM FEW030 FEW250 22/16 A3007 RMK CU1CI1 SLP183 DENSITY ALT 1000FT

CYGK;2013-08-06 19:00;CYGK 061900Z 17008KT 15SM FEW035 FEW250 22/16 A3007 RMK CU1CI1 SLP183 DENSITY ALT 1000FT

CYGK;2013-08-06 20:00;CYGK 062000Z 17008KT 15SM FEW040 FEW060 FEW250 22/16 A3006 RMK CU1SC1CI1 SC TR SLP181 DENSITY ALT 1000FT

CYGK;2013-08-06 21:00;CYGK 062100Z 18007KT 15SM FEW040 FEW250 23/15 A3005 RMK CU1CI1 TCU ASOCTD SLP178 DENSITY ALT 1000FT

CYGK;2013-08-06 22:00;CYGK 062200Z 18007KT 15SM FEW040TCU FEW250 22/12 A3005 RMK TCU1CI2 TCU TR SLP178 DENSITY ALT 1000FT

CYGK;2013-08-06 23:00;CYGK 062300Z 17002KT 15SM FEW040TCU SCT250 22/13 A3004 RMK TCU1CI4 TCU TR SLP172 DENSITY ALT 1000FT

CYGK;2013-08-07 00:00;CYGK 070000Z 13003KT 15SM FEW100 FEW250 21/14 A3004 RMK AC1CI2 AC TR SLP173 DENSITY ALT 800FT

CYGK;2013-08-07 01:00;CYGK 070100Z 06002KT 15SM FEW100 FEW250 18/13 A3004 RMK AC1CI2 AC TR SLP172 DENSITY ALT 500FT

CYGK;2013-08-07 02:00;CYGK 070200Z 07003KT 15SM FEW250 18/13 A3004 RMK CI1 SLP172 DENSITY ALT 500FT

CYGK;2013-08-07 03:00;CYGK 070300Z 05003KT 15SM SKC 17/14 A3004 RMK LAST OBS/NEXT 071000 UTC SLP171 DENSITY ALT 400FT

CYGK;2013-08-07 10:00;CYGK 071000Z 17015KT 15SM FEW040 BKN140 OVC250 21/17 A3001 RMK CU1AC5CI2 SLP163 DENSITY ALT 900FT

CYGK;2013-08-07 11:00;CYGK 071100Z 17015KT 15SM FEW020 BKN120 OVC250 21/17 A3002 RMK SF2AC4CI2 SLP166 DENSITY ALT 900FT

CYGK;2013-08-07 12:00;CYGK 071200Z 17013G19KT 15SM SCT020 SCT100 BKN250 20/17 A3002 RMK SC3AC1CI2 SLP167 DENSITY ALT 800FT

CYGK;2013-08-07 13:00;CYGK 071300Z 17015G21KT 15SM SCT018 BKN140 BKN250 21/17 A3001 RMK SC4AC2CI1 SLP162 DENSITY ALT 1000FT

CYGK;2013-08-07 14:00;CYGK 071400Z 17016KT 15SM BKN018 BKN250 22/17 A3000 RMK SC5CI1 SLP158 DENSITY ALT 1000FT

CYGK;2013-08-07 15:00;CYGK 071500Z 18015G21KT 15SM FEW018 BKN250 22/18 A2999 RMK SC1CI6 SLP156 DENSITY ALT 1100FT

CYGK;2013-08-07 16:00;CYGK 071600Z 17017KT 15SM FEW020 BKN250 24/19 A2998 RMK SC2CI5 SLP153 DENSITY ALT 1200FT

CYGK;2013-08-07 17:00;CYGK 071700Z 17014G21KT 15SM FEW018 BKN028 OVC250 24/19 A2998 RMK SC1SC4CI3 SLP152 DENSITY ALT 1300FT

CYGK;2013-08-07 18:00;CYGK 071800Z 18014G19KT 15SM FEW020 BKN030 OVC170 23/19 A2997 RMK CF1SC6AS1 SLP147 DENSITY ALT 1200FT

CYGK;2013-08-07 19:03;CYGK 071903Z 17015KT 15SM -RA FEW020 BKN030 BKN075 OVC250 23/19 A2996 RMK SC1SC4AC2CI1 SLP144 DENSITY ALT 1200FT

CYGK;2013-08-07 19:43;CYGK 071943Z 16013KT 15SM FEW028 SCT070 BKN160 OVC220 23/20 A2994 RMK SC2AC2AC3CI1 SLP138 DENSITY ALT 1200FT

CYGK;2013-08-07 20:00;CYGK 072000Z 16014G19KT 15SM FEW029 FEW070 BKN130 OVC210 23/20 A2994 RMK SC1AC1AC4CI2 SLP137 DENSITY ALT 1200FT

CYGK;2013-08-07 21:00;CYGK 072100Z 16013G19KT 12SM FEW032 FEW070 BKN110 OVC220 23/20 A2992 RMK SC1AC1AC5CI1 SLP132 DENSITY ALT 1300FT

CYGK;2013-08-07 22:00;CYGK 072200Z 16015G22KT 15SM BKN110 23/20 A2991 RMK AC7 SLP126 DENSITY ALT 1300FT

CYGK;2013-08-07 23:00;CYGK 072300Z 16014KT 15SM BKN110 BKN210 23/20 A2990 RMK AC6CI1 TCU TOPS DIST W SLP124 DENSITY ALT 1300FT

CYGK;2013-08-08 00:00;CYGK 080000Z 16012KT 15SM BKN095 BKN210 23/20 A2990 RMK AC5CI2 CB TOPS DIST S SLP124 DENSITY ALT 1300FT

CYGK;2013-08-08 01:00;CYGK 080100Z 17017G22KT 15SM BKN090 BKN150 BKN220 23/20 A2989 RMK AC5AC1CI1 SLP121 DENSITY ALT 1300FT

CYGK;2013-08-08 02:00;CYGK 080200Z 17016G26KT 15SM FEW050CB SCT080 OVC170 23/20 A2988 RMK CB1AC2AC5 FRG LTGCGCC DIST W-NW SLP119 DENSITY ALT 1200FT

CYGK;2013-08-08 02:11;CYGK 080211Z 17015G21KT 15SM TS FEW050CB SCT080 OVC160 23/20 A2990 RMK CB2AC2AC4 FRQ LTGCGCC DIST W-N SLP123 DENSITY ALT 1200FT

CYGK;2013-08-08 02:50;CYGK 080250Z 18014G22KT 12SM -TSRA SCT048CB OVC120 22/20 A2990 RMK CB4AC4 FRQ LTGCGCC W-NE SLP124 DENSITY ALT 1200FT

CYGK;2013-08-08 02:53;CYGK 080253Z 18016G22KT 12SM TSRA SCT045CB OVC120 22/20 A2990 RMK CB4AC4 FRQ LTGCGCC W-NE SLP124 DENSITY ALT 1200FT

CYGK;2013-08-08 03:00;CYGK 080300Z 18015G22KT 10SM TSRA BKN045CB OVC100 22/20 A2990 RMK CB5AC3 FRQ LTGCGCC W-NE LAST OBS/NEXT 081000 UTC SLP123 DENSITY ALT 1100FT

CYGK;2013-08-08 10:00;CYGK 081000Z 00000KT 12SM MIFG FEW008 FEW017 BKN067 BKN250 17/17 A2994 RMK SF1SC2AC3CI2 SF TR SLP137 DENSITY ALT 600FT

CYGK;2013-08-08 10:41;CYGK 081041Z 00000KT 12SM FEW008 BKN014 OVC063 18/18 A2995 RMK SF1SC6SC1 SLP142 DENSITY ALT 600FT

CYGK;2013-08-08 11:00;CYGK 081100Z 36002KT 10SM FEW008 BKN011 OVC059 18/18 A2995 RMK SF1SC7SC1 SF TR SLP142 DENSITY ALT 700FT

CYGK;2013-08-08 11:40;CYGK 081140Z 05002KT 10SM SCT010 BKN060 BKN093 19/19 A2996 RMK SF4SC1AC2 SLP143 DENSITY ALT 800FT

CYGK;2013-08-08 12:00;CYGK 081200Z 05002KT 10SM SCT009 SCT060 BKN088 20/19 A2996 RMK SF3SC1AC3 SLP143 DENSITY ALT 800FT

CYGK;2013-08-08 12:41;CYGK 081241Z 27005KT 10SM BKN006 BKN087 22/20 A2996 RMK SF5AC2 SLP143 DENSITY ALT 1100FT

CYGK;2013-08-08 13:00;CYGK 081300Z 27005KT 12SM OVC006 22/20 A2997 RMK SF8 SLP146 DENSITY ALT 1100FT

CYGK;2013-08-08 14:00;CYGK 081400Z 24004KT 10SM BKN008 OVC015 21/20 A2997 RMK SF7SC1 CIG RAG SLP149 DENSITY ALT 1000FT

CYGK;2013-08-08 14:49;CYGK 081449Z 23006KT 10SM FEW005 OVC010 22/20 A2997 RMK SF1SC7 SLP147 DENSITY ALT 1000FT

CYGK;2013-08-08 15:00;CYGK 081500Z 23005KT 10SM FEW005 OVC012 22/20 A2996 RMK SF1SC7 SLP145 DENSITY ALT 1000FT

CYGK;2013-08-08 15:34;CYGK 081534Z 25004KT 8SM FEW005 BKN018 22/20 A2995 RMK SF1SC6 SLP142 DENSITY ALT 1100FT

CYGK;2013-08-08 16:00;CYGK 081600Z 17005KT 15SM FEW005 BKN020 23/20 A2995 RMK SF2SC5 SLP142 DENSITY ALT 1200FT

CYGK;2013-08-08 16:36;CYGK 081636Z 19009KT 12SM BKN005 OVC010 22/20 A2997 RMK SF5SC3 SLP148 DENSITY ALT 1100FT

CYGK;2013-08-08 17:00;CYGK 081700Z 20007KT 15SM SCT005 OVC010 22/21 A2997 RMK SF4SC4 SLP148 DENSITY ALT 1100FT

CYGK;2013-08-08 17:14;CYGK 081714Z 19008KT 15SM FEW008 BKN015 OVC020 22/21 A2997 RMK SF1SC4SC3 SLP150 DENSITY ALT 1100FT

CYGK;2013-08-08 18:00;CYGK 081800Z 19009KT 15SM SCT010 OVC021 22/21 A2998 RMK SC4SC4 SLP152 DENSITY ALT 1100FT

CYGK;2013-08-08 19:00;CYGK 081900Z 18007KT 15SM FEW020 FEW030 BKN250 24/21 A2997 RMK CU1SC1CI5 SLP147 DENSITY ALT 1300FT

CYGK;2013-08-08 20:00;CYGK 082000Z 17008KT 15SM FEW025 BKN250 23/21 A2996 RMK CU1CI6 SLP143 DENSITY ALT 1200FT

CYGK;2013-08-08 21:00;CYGK 082100Z 17005KT 15SM FEW030 FEW130 BKN210 23/21 A2994 RMK CU1AC1CI6 AC TR CB ASOCTD NW SLP138 DENSITY ALT 1300FT

CYGK;2013-08-08 22:00;CYGK 082200Z 17006KT 15SM FEW030 FEW150 BKN210 24/20 A2994 RMK CU1AC1CI5 CB ASOCTD NW SLP138 DENSITY ALT 1300FT

CYGK;2013-08-08 23:00;CYGK 082300Z 18003KT 15SM FEW040 SCT085 SCT160 BKN220 23/21 A2994 RMK CU1AC3AC1CI3 CU TR TCU ASOCTD NE SLP138 DENSITY ALT 1200FT

CYGK;2013-08-09 00:00;CYGK 090000Z 25002KT 15SM FEW050TCU FEW100 OVC220 22/21 A2994 RMK TCU1AC2CI6 TCU TR TCU NE SLP136 DENSITY ALT 1100FT

CYGK;2013-08-09 01:00;CYGK 090100Z 18002KT 15SM FEW050TCU FEW080 SCT100 BKN250 22/21 A2993 RMK TCU1AC1AC2CI4 TCU TR SLP135 DENSITY ALT 1100FT

CYGK;2013-08-09 02:00;CYGK 090200Z 23003KT 15SM BKN090 OVC250 20/20 A2994 RMK AC5CI3 SLP140 DENSITY ALT 900FT

CYGK;2013-08-09 03:00;CYGK 090300Z 34002KT 12SM SCT082 BKN250 20/20 A2993 RMK AC4CI3 LAST OBS/NEXT 091000 UTC SLP134 DENSITY ALT 900FT

CYGK;2013-08-09 10:00;CYGK 091000Z 35004KT 2 1/2SM BR FEW004 BKN057 OVC080 19/19 A2987 RMK SF1SC4AC3 SLP114 DENSITY ALT 900FT

CYGK;2013-08-09 11:00;CYGK 091100Z 34006KT 3SM BR FEW037 OVC079 20/20 A2987 RMK SC2AC6 SLP115 DENSITY ALT 900FT

CYGK;2013-08-09 12:00;CYGK 091200Z 36005KT 5SM -RA BR FEW008 FEW037 BKN075 OVC100 20/20 A2988 RMK SF1SC2AC4AC2 SF TR SLP116 DENSITY ALT 1000FT

CYGK;2013-08-09 13:00;CYGK 091300Z 02005KT 5SM -RA BR FEW037 OVC075 20/19 A2987 RMK SC2AC6 SLP113 DENSITY ALT 1000FT

CYGK;2013-08-09 14:00;CYGK 091400Z 36007KT 5SM -RA BR SCT012 OVC075 20/19 A2986 RMK SC3AC5 SLP111 DENSITY ALT 900FT

CYGK;2013-08-09 14:29;CYGK 091429Z 02005KT 10SM FEW005 OVC012 20/19 A2987 RMK SF1SC8 SF TR SLP113 DENSITY ALT 900FT

CYGK;2013-08-09 15:00;CYGK 091500Z 02008KT 12SM FEW008 BKN014 OVC080 21/19 A2986 RMK SF1SC6AC2 SF TR SLP111 DENSITY ALT 1100FT

CYGK;2013-08-09 15:42;CYGK 091542Z 01007KT 12SM FEW008 BKN018 OVC070 22/19 A2986 RMK SF1SC6AC1 SLP111 DENSITY ALT 1200FT

CYGK;2013-08-09 16:00;CYGK 091600Z 35008KT 15SM FEW008 BKN018 OVC052 21/19 A2986 RMK SF1SC6SC2 SF TR SLP111 DENSITY ALT 1100FT

CYGK;2013-08-09 17:00;CYGK 091700Z 36006KT 330V030 15SM BKN018 OVC035 24/21 A2985 RMK SC6SC2 SLP108 DENSITY ALT 1400FT

CYGK;2013-08-09 18:00;CYGK 091800Z 31006KT 15SM FEW020 SCT035 OVC050 25/20 A2984 RMK SC2SC2SC4 SLP105 DENSITY ALT 1600FT

CYGK;2013-08-09 19:00;CYGK 091900Z 06003KT 340V060 15SM FEW030 SCT035 BKN250 25/19 A2983 RMK CF1SC2CI3 SLP102 DENSITY ALT 1600FT

CYGK;2013-08-09 20:00;CYGK 092000Z 21007KT 15SM FEW030 BKN045 BKN250 26/20 A2983 RMK CU1CU4CI2 SLP100 DENSITY ALT 1600FT

CYGK;2013-08-09 21:00;CYGK 092100Z 19010KT 15SM FEW030 BKN050 BKN250 23/21 A2982 RMK SF1CU4CI1 SLP099 DENSITY ALT 1400FT

CYGK;2013-08-09 22:00;CYGK 092200Z 21012KT 15SM SCT030 BKN250 24/21 A2982 RMK CU4CI1 SLP097 DENSITY ALT 1400FT

CYGK;2013-08-09 23:00;CYGK 092300Z 23014KT 15SM SCT030 BKN250 24/19 A2981 RMK CU3CI2 SLP095 DENSITY ALT 1500FT

CYGK;2013-08-10 00:00;CYGK 100000Z 24011G18KT 15SM FEW035 SCT250 23/17 A2982 RMK SF1CI3 SLP099 DENSITY ALT 1300FT

CYGK;2013-08-10 01:00;CYGK 100100Z 25008KT 15SM SCT250 22/18 A2984 RMK CI3 SLP105 DENSITY ALT 1200FT

CYGK;2013-08-10 02:00;CYGK 100200Z 26008KT 15SM FEW250 20/17 A2986 RMK CI2 SLP110 DENSITY ALT 1000FT

CYGK;2013-08-10 03:00;CYGK 100300Z 28010KT 15SM FEW250 20/16 A2986 RMK CI2 LAST OBS/NEXT 101000 UTC SLP112 DENSITY ALT 1000FT

CYGK;2013-08-10 10:00;CYGK 101000Z 28006KT 15SM FEW080 FEW250 15/11 A2997 RMK AC1CI1 SLP147

CYGK;2013-08-10 11:00;CYGK 101100Z 26005KT 15SM FEW250 15/11 A2999 RMK CI1 SLP155

CYGK;2013-08-10 12:00;CYGK 101200Z 30007KT 15SM FEW250 16/11 A3001 RMK CI2 SLP162 DENSITY ALT 400FT

CYGK;2013-08-10 13:00;CYGK 101300Z 33011KT 15SM FEW025 SCT250 17/10 A3002 RMK CU1CI3 CU TR SLP165 DENSITY ALT 500FT

CYGK;2013-08-10 14:00;CYGK 101400Z 35011KT 15SM FEW030 SCT250 18/09 A3003 RMK CF1CI3 CF TR SLP168 DENSITY ALT 600FT

CYGK;2013-08-10 15:00;CYGK 101500Z 32011KT 15SM FEW040 SCT250 20/10 A3004 RMK CU1CI2 SLP172 DENSITY ALT 700FT

CYGK;2013-08-10 16:00;CYGK 101600Z 30007KT 15SM FEW040 FEW250 21/10 A3004 RMK CF1CI1 SLP173 DENSITY ALT 900FT

CYGK;2013-08-10 17:00;CYGK 101700Z 27010KT 15SM FEW050 SCT250 22/09 A3004 RMK CU2CI1 SLP171 DENSITY ALT 1000FT

CYGK;2013-08-10 18:00;CYGK 101800Z 27013KT 15SM SCT050 BKN250 22/10 A3004 RMK CU4CI1 SLP172 DENSITY ALT 1000FT

CYGK;2013-08-10 19:00;CYGK 101900Z 30007KT 15SM SCT059 SCT250 22/10 A3003 RMK CU4CI1 CI TR SLP170 DENSITY ALT 1000FT

CYGK;2013-08-10 20:00;CYGK 102000Z 27009KT 15SM BKN060 23/10 A3003 RMK CU5 SLP170 DENSITY ALT 1100FT

CYGK;2013-08-10 21:00;CYGK 102100Z 27007KT 15SM BKN065 23/10 A3003 RMK CU5 SLP169 DENSITY ALT 1200FT

CYGK;2013-08-10 22:00;CYGK 102200Z 26008KT 15SM BKN065 23/10 A3003 RMK CU5 SLP168 DENSITY ALT 1100FT

CYGK;2013-08-10 23:00;CYGK 102300Z 29006KT 15SM BKN065 21/10 A3003 RMK SC6 SLP168 DENSITY ALT 900FT

CYGK;2013-08-11 00:00;CYGK 110000Z 29004KT 15SM SCT065 20/10 A3004 RMK SC4 SLP173 DENSITY ALT 800FT

CYGK;2013-08-11 01:00;CYGK 110100Z 26004KT 14SM SCT065 19/10 A3005 RMK SC4 SLP177 DENSITY ALT 600FT

CYGK;2013-08-11 02:00;CYGK 110200Z 26006KT 15SM FEW065 18/12 A3007 RMK SC2 SLP182 DENSITY ALT 500FT

CYGK;2013-08-11 03:00;CYGK 110300Z 26007KT 15SM FEW060 18/12 A3007 RMK SC1 LAST OBS/NEXT 111000 UTC SLP181 DENSITY ALT 500FT

CYGK;2013-08-11 10:00;CYGK 111000Z 26009KT 15SM SKC 13/11 A3009 RMK SLP191

CYGK;2013-08-11 11:00;CYGK 111100Z 27008KT 15SM SKC 13/11 A3011 RMK SLP195

CYGK;2013-08-11 12:00;CYGK 111200Z 27007KT 15SM SKC 15/12 A3011 RMK SLP196

CYGK;2013-08-11 13:00;CYGK 111300Z 24004KT 15SM FEW025 FEW270 17/13 A3011 RMK CU1CI1 CU TR SLP197 DENSITY ALT 400FT

CYGK;2013-08-11 14:00;CYGK 111400Z 24007KT 15SM FEW030 FEW270 19/14 A3011 RMK CU1CI2 CU TR SLP198 DENSITY ALT 600FT

CYGK;2013-08-11 15:00;CYGK 111500Z 22009KT 15SM FEW030 SCT200 21/15 A3011 RMK CU2CI1 SLP198 DENSITY ALT 800FT

CYGK;2013-08-11 16:00;CYGK 111600Z 24008KT 15SM SCT035 BKN250 22/15 A3010 RMK CU3CI2 SLP193 DENSITY ALT 900FT

CYGK;2013-08-11 17:00;CYGK 111700Z 22012KT 15SM SCT040 SCT250 23/15 A3009 RMK CU3CI1 SLP190 DENSITY ALT 1000FT

CYGK;2013-08-11 18:00;CYGK 111800Z 18017KT 15SM SCT050 BKN250 23/15 A3008 RMK CU4CI1 SLP186 DENSITY ALT 1000FT

CYGK;2013-08-11 19:00;CYGK 111900Z 19018KT 15SM FEW050 SCT220 23/15 A3006 RMK CU2CI2 SLP181 DENSITY ALT 1000FT

CYGK;2013-08-11 20:00;CYGK 112000Z 19015G22KT 15SM SCT050 BKN250 22/15 A3005 RMK CU3CI2 SLP178 DENSITY ALT 1000FT

CYGK;2013-08-11 21:00;CYGK 112100Z 21012G19KT 15SM SCT050 BKN250 22/13 A3004 RMK CU3CI3 SLP174 DENSITY ALT 1000FT

CYGK;2013-08-11 22:00;CYGK 112200Z 22012KT 15SM FEW045 BKN180 BKN220 21/13 A3004 RMK CU2AC3CI2 SLP173 DENSITY ALT 900FT

CYGK;2013-08-11 23:00;CYGK 112300Z 22008KT 15SM FEW050 BKN180 BKN220 21/14 A3003 RMK CU1AC4CI2 SLP170 DENSITY ALT 900FT

CYGK;2013-08-12 00:00;CYGK 120000Z 24013KT 15SM BKN180 20/13 A3002 RMK AC7 SLP167 DENSITY ALT 800FT

CYGK;2013-08-12 01:00;CYGK 120100Z 25009KT 15SM BKN180 20/14 A3003 RMK AC7 SLP168 DENSITY ALT 700FT

CYGK;2013-08-12 02:00;CYGK 120200Z 25005KT 15SM OVC180 19/14 A3003 RMK AC8 SLP170 DENSITY ALT 700FT

CYGK;2013-08-12 03:00;CYGK 120300Z 25008KT 15SM OVC140 20/14 A3004 RMK AC8 LAST OBS/NEX 121000 UTC SLP172 DENSITY ALT 700FT

CYGK;2013-08-12 10:00;CYGK 121000Z 27005KT 15SM FEW025TCU FEW080 FEW240 15/12 A3002 RMK TCU1AC1CI1 AC TR SLP164

CYGK;2013-08-12 11:00;CYGK 121100Z 30004KT 15SM FEW025TCU FEW080 FEW240 15/13 A3002 RMK TCU1AC1CI1 TCU TR SLP166

CYGK;2013-08-12 12:00;CYGK 121200Z 31004KT 15SM FEW025 FEW080 FEW240 18/15 A3002 RMK CU1AC1CI2 CU TR AC TR SLP167 DENSITY ALT 600FT

CYGK;2013-08-12 13:00;CYGK 121300Z 26003KT 15SM FEW080 FEW240 21/14 A3002 RMK AC1CI2 AC TR SLP167 DENSITY ALT 900FT

CYGK;2013-08-12 14:00;CYGK 121400Z 23005KT 15SM FEW025 FEW240 21/14 A3001 RMK CU1CI1 CU TR SLP163 DENSITY ALT 1000FT

CYGK;2013-08-12 15:00;CYGK 121500Z 22008KT 15SM FEW030 FEW240 23/15 A3001 RMK CU1CI2 CU TR SLP162 DENSITY ALT 1100FT

CYGK;2013-08-12 16:00;CYGK 121600Z 16011KT 15SM FEW035 BKN240 22/16 A3000 RMK CU2CI4 SLP159 DENSITY ALT 1000FT

CYGK;2013-08-12 17:00;CYGK 121700Z 19014KT 15SM FEW035 BKN220 23/15 A2999 RMK CU2CI4 SLP155 DENSITY ALT 1200FT

CYGK;2013-08-12 18:00;CYGK 121800Z 19013KT 15SM FEW035 BKN220 23/16 A2998 RMK CU2CI5 SLP151 DENSITY ALT 1100FT

CYGK;2013-08-12 19:00;CYGK 121900Z 19016KT 15SM FEW030 FEW100 BKN220 23/15 A2997 RMK CU1AC1CI5 AC TR SLP150 DENSITY ALT 1200FT

CYGK;2013-08-12 20:00;CYGK 122000Z 21010G16KT 15SM FEW030 SCT080 BKN230 23/16 A2996 RMK CU1AC2CI2 SLP145 DENSITY ALT 1200FT

CYGK;2013-08-12 21:00;CYGK 122100Z 21009G15KT 15SM FEW030 FEW080 SCT120 BKN230 24/15 A2994 RMK CU1AC1AC2CI2 SLP140 DENSITY ALT 1400FT

CYGK;2013-08-12 22:00;CYGK 122200Z 19007KT 15SM FEW030 SCT090 BKN120 BKN230 22/16 A2992 RMK CU1AC2AC3CI1 SLP132 DENSITY ALT 1100FT

CYGK;2013-08-12 23:00;CYGK 122300Z 18008KT 15SM FEW030 SCT080 BKN130 BKN230 22/16 A2990 RMK CU1AC3AC2CI1 CU TR SLP126 DENSITY ALT 1100FT

CYGK;2013-08-13 00:00;CYGK 130000Z 18010KT 15SM FEW030 FEW070 SCT090 BKN130 BKN230 21/15 A2989 RMK CU1AC2AC2AC2CI1 CU TR ACC ASOCTD WND ESTD SLP123 DENSITY ALT 1100FT

CYGK;2013-08-13 01:00;CYGK 130100Z 18009KT 15SM SCT050 BKN080 BKN130 21/16 A2988 RMK SC4AC2AC1 SLP118 DENSITY ALT 1100FT

CYGK;2013-08-13 02:00;CYGK 130200Z 18008KT 15SM BKN039 BKN060 22/16 A2987 RMK SC5SC2 SLP115 DENSITY ALT 1100FT

CYGK;2013-08-13 03:00;CYGK 130300Z 18010KT 15SM OVC038 22/17 A2986 RMK SC8 LAST OBS/NEXT 131000 UTC SLP112 DENSITY ALT 1200FT

CYGK;2013-08-13 10:00;CYGK 131000Z 23005KT 15SM -RA FEW007 BKN013 OVC120 20/19 A2976 RMK SF2SC4AC2 SLP078 DENSITY ALT 1100FT

CYGK;2013-08-13 10:11;CYGK 131011Z 24006KT 12SM FEW007 SCT013 OVC110 20/19 A2976 RMK SF2SC2AC4 SLP077 DENSITY ALT 1100FT

CYGK;2013-08-13 11:00;CYGK 131100Z 26005KT 12SM FEW008 SCT020 BKN110 20/19 A2976 RMK SF2SC1AC4 SLP078 DENSITY ALT 1100FT

CYGK;2013-08-13 12:00;CYGK 131200Z 30007KT 6SM BR FEW008 FEW020CB FEW110 SCT250 20/19 A2974 RMK ST1CB1AC1CI1 AC TR SLP071 DENSITY ALT 1200FT

CYGK;2013-08-13 12:24;CYGK 131224Z 31006KT 6SM BR BKN009 BKN110 BKN250 21/19 A2975 RMK CU5AC1CI1 SLP073 DENSITY ALT 1200FT

CYGK;2013-08-13 13:00;CYGK 131300Z 33007KT 6SM BR SCT008 SCT023 BKN110 BKN250 21/19 A2974 RMK CU3SC1AC2CI1 CI TR SLP071 DENSITY ALT 1200FT

CYGK;2013-08-13 14:00;CYGK 131400Z 36006KT 8SM SCT015 BKN072 22/18 A2974 RMK CU3AC4 SLP070 DENSITY ALT 1300FT

CYGK;2013-08-13 15:00;CYGK 131500Z 19006KT 180V290 9SM BKN024 BKN072 BKN250 23/18 A2974 RMK CU5AC1CI1 SLP071 DENSITY ALT 1400FT

CYGK;2013-08-13 16:00;CYGK 131600Z 18008KT 10SM SCT030TCU BKN070 BKN230 23/18 A2973 RMK TCU4AC1CI1 SLP067 DENSITY ALT 1500FT

CYGK;2013-08-13 17:00;CYGK 131700Z 18009KT 11SM FEW025 SCT040 SCT230 24/19 A2972 RMK CU1SC3CI1 CI TR TCU ASOCTD SLP064 DENSITY ALT 1500FT

CYGK;2013-08-13 18:00;CYGK 131800Z 19011KT 12SM TS BKN025CB BKN040TCU BKN110 22/19 A2971 RMK CB5TCU1AC1 SLP061 DENSITY ALT 1400FT

CYGK;2013-08-13 18:36;CYGK 131836Z 19014KT 12SM FEW025CB BKN039TCU BKN230 22/19 A2970 RMK CB2TCU3CI2 RETS SLP057 DENSITY ALT 1400FT

CYGK;2013-08-13 19:00;CYGK 131900Z 25009KT 12SM TS FEW025CB SCT038TCU BKN110 BKN230 23/17 A2971 RMK CB2TCU2AC2CI1 LTGIC NE SLP059 DENSITY ALT 1500FT

CYGK;2013-08-13 19:19;CYGK 131919Z 30010G17KT 15SM -SHRA FEW025CB SCT040 BKN100 BKN230 21/17 A2971 RETS RMK CB2SC2AC1CI1 WSHFT 1911 SLP062 DENSITY ALT 1200FT

CYGK;2013-08-13 19:32;CYGK 131932Z 27007KT 15SM FEW025TCU BKN070 BKN110 BKN230 21/17 A2971 RETS RMK TCU2AC3AC1CI1 CI TR SLP061 DENSITY ALT 1300FT

CYGK;2013-08-13 20:00;CYGK 132000Z 22007KT 15SM FEW030TCU SCT080 22/17 A2970 RETS RMK TCU2AC1 SLP057 DENSITY ALT 1400FT

CYGK;2013-08-13 21:00;CYGK 132100Z 26011G20KT 15SM SCT030TCU SCT080 24/16 A2970 RMK TCU3AC1 SLP057 DENSITY ALT 1600FT

CYGK;2013-08-13 22:00;CYGK 132200Z 27014G24KT 15SM FEW030TCU 22/13 A2972 RMK TCU2 TCU E SLP063 DENSITY ALT 1400FT

CYGK;2013-08-13 23:00;CYGK 132300Z 28015G23KT 15SM FEW030TCU FEW250 20/11 A2974 RMK TCU1CI1 TCU E SLP069 DENSITY ALT 1100FT

CYGK;2013-08-14 00:00;CYGK 140000Z 26013G22KT 15SM FEW030TCU FEW040 17/10 A2975 RMK TCU1SC1 TCU TR E SLP075 DENSITY ALT 800FT

CYGK;2013-08-14 01:00;CYGK 140100Z 26013G19KT 15SM FEW040 FEW250 16/10 A2977 RMK SC1CI1 SC TR CI TR SLP081 DENSITY ALT 600FT

CYGK;2013-08-14 02:00;CYGK 140200Z 27011G17KT 15SM SKC 14/09 A2979 RMK SLP087 DENSITY ALT 400FT

CYGK;2013-08-14 03:00;CYGK 140300Z 27010G16KT 15SM FEW050 14/10 A2979 RMK SC2 LAST OBS/NEXT 141000 UTC SLP087

CYGK;2013-08-14 10:00;CYGK 141000Z 28008KT 12SM FEW030 BKN049 BKN070 12/11 A2979 RMK SC1SC4AC1 SLP088

CYGK;2013-08-14 11:00;CYGK 141100Z 28010KT 15SM FEW012 FEW045 FEW085 SCT250 12/11 A2980 RMK CF1SC1AC1CI1 CF TR SLP093

CYGK;2013-08-14 12:00;CYGK 141200Z 30009KT 15SM FEW020 FEW045 SCT085 SCT250 14/12 A2982 RMK CU1SC1AC2CI1 SC TR SLP100 DENSITY ALT 400FT

CYGK;2013-08-14 13:00;CYGK 141300Z 31009G17KT 15SM BKN023 BKN085 BKN250 15/12 A2985 RMK CU5AC1CI1 CI TR SLP108 DENSITY ALT 500FT

CYGK;2013-08-14 14:00;CYGK 141400Z 33020G28KT 15SM SCT025 SCT250 17/11 A2986 RMK CU3CI1 SHWRS E-SE SLP112 DENSITY ALT 600FT

CYGK;2013-08-14 15:00;CYGK 141500Z 33014G21KT 15SM SCT038 BKN081 18/11 A2989 RMK CU4AC2 SLP123 DENSITY ALT 700FT

CYGK;2013-08-14 16:00;CYGK 141600Z 32011G19KT 15SM BKN030 BKN250 18/10 A2991 RMK CU6CI1 SLP129 DENSITY ALT 700FT

CYGK;2013-08-14 17:00;CYGK 141700Z 33013G21KT 15SM BKN035 20/10 RMK CU6

CYGK;2013-08-14 18:00;CYGK 141800Z 30009G19KT 15SM BKN040 21/10 A2993 RMK CU5 SLP136 DENSITY ALT 1000FT

CYGK;2013-08-14 19:00;CYGK 141900Z 32010G17KT 15SM BKN050 21/09 A2993 RMK CU6 SLP135 DENSITY ALT 1000FT

CYGK;2013-08-14 20:00;CYGK 142000Z 33013G18KT 15SM SCT050 BKN080 21/09 A2994 RMK CU4AC2 SLP138 DENSITY ALT 1000FT

CYGK;2013-08-14 21:00;CYGK 142100Z 32011G17KT 15SM FEW050 BKN080 20/07 A2995 RMK CU2AC3 SLP142 DENSITY ALT 900FT

CYGK;2013-08-14 22:00;CYGK 142200Z 31008G17KT 15SM FEW060 SCT080 20/08 A2996 RMK CU2AC2 SLP146 DENSITY ALT 900FT

CYGK;2013-08-14 23:00;CYGK 142300Z 31009KT 15SM FEW060 FEW080 20/07 A2997 RMK CU1AC1 SLP151 DENSITY ALT 800FT

CYGK;2013-08-15 00:00;CYGK 150000Z 29004KT 15SM FEW040 FEW080 18/08 A2999 RMK CU1AC1 CU TR SLP156 DENSITY ALT 600FT

CYGK;2013-08-15 01:00;CYGK 150100Z 27004KT 15SM FEW080 17/08 A3000 RMK AC1 SH DIST N SLP160 DENSITY ALT 500FT

CYGK;2013-08-15 02:00;CYGK 150200Z 27006KT 15SM FEW070 16/08 A3001 RMK AC1 SLP164 DENSITY ALT 400FT

CYGK;2013-08-15 03:00;CYGK 150300Z 29009G15KT 15SM SCT060 16/09 A3002 RMK SC3 LAST OBS/NEXT 151000 UTC SLP166

CYGK;2013-08-15 10:00;CYGK 151000Z 27007KT 15SM FEW030 FEW250 12/10 A3005 RMK CU1CI1 SLP178

CYGK;2013-08-15 11:00;CYGK 151100Z 26008KT 15SM FEW030 13/11 A3007 RMK CU1 SLP183

CYGK;2013-08-15 12:00;CYGK 151200Z 27012KT 15SM FEW030 15/12 A3008 RMK CU1 SLP187

CYGK;2013-08-15 13:00;CYGK 151300Z 29011G17KT 15SM FEW030 17/12 A3008 RMK CU1 SLP188 DENSITY ALT 400FT

CYGK;2013-08-15 14:00;CYGK 151400Z 26010KT 15SM FEW030 19/12 A3008 RMK CU1 SLP188 DENSITY ALT 600FT

CYGK;2013-08-15 15:00;CYGK 151500Z 26011G17KT 15SM FEW035 21/11 A3008 RMK CU2 SLP186 DENSITY ALT 800FT

CYGK;2013-08-15 16:00;CYGK 151600Z 24012G19KT 15SM SCT040 21/11 A3008 RMK CU4 SLP185 DENSITY ALT 900FT

CYGK;2013-08-15 17:00;CYGK 151700Z 25011G19KT 15SM SCT055 21/09 A3007 RMK CU4 SLP182 DENSITY ALT 900FT

CYGK;2013-08-15 18:00;CYGK 151800Z 23012G18KT 15SM BKN055 BKN230 21/12 A3006 RMK CU5CI1 CI TR SLP181 DENSITY ALT 800FT

CYGK;2013-08-15 19:00;CYGK 151900Z 23014G20KT 15SM FEW055 BKN060 23/12 A3005 RMK CF1SC5 SLP176 DENSITY ALT 1100FT

CYGK;2013-08-15 20:00;CYGK 152000Z 23014KT 15SM FEW045 BKN062 BKN230 23/12 A3004 RMK CF1SC5CI1 CI TR SLP173 DENSITY ALT 1100FT

CYGK;2013-08-15 21:00;CYGK 152100Z 24015KT 15SM SCT065 SCT230 22/13 A3004 RMK CU3CI1 SLP173 DENSITY ALT 1000FT

CYGK;2013-08-15 22:00;CYGK 152200Z 24013G20KT 15SM FEW067 SCT230 22/12 A3004 RMK CU2CI1 SLP174 DENSITY ALT 900FT

CYGK;2013-08-15 23:00;CYGK 152300Z 24013G18KT 15SM FEW065 FEW230 21/12 A3004 RMK CU1CI1 CU TR SLP174 DENSITY ALT 900FT

CYGK;2013-08-16 00:00;CYGK 160000Z 25012KT 15SM FEW065 FEW230 20/11 A3005 RMK CU1CI2 CU TR SLP177 DENSITY ALT 800FT

CYGK;2013-08-16 01:00;CYGK 160100Z 24010KT 15SM FEW230 20/12 A3007 RMK CI2 SLP183 DENSITY ALT 700FT

CYGK;2013-08-16 02:00;CYGK 160200Z 25008KT 15SM FEW200 19/12 A3008 RMK CI2 SLP187 DENSITY ALT 600FT

CYGK;2013-08-16 03:00;CYGK 160300Z 25007KT 15SM FEW200 18/12 A3009 RMK CI2 LAST OBS/NEXT 161000 UTC SLP190 DENSITY ALT 500FT

CYGK;2013-08-16 10:00;CYGK 161000Z 27004KT 15SM BKN085 15/12 A3011 RMK AC5 SLP198

CYGK;2013-08-16 11:00;CYGK 161100Z 29006KT 15SM SCT085 15/12 A3013 RMK AC3 SLP203

CYGK;2013-08-16 12:00;CYGK 161200Z 24005KT 15SM FEW085 SCT250 17/12 A3014 RMK AC2CI1 SLP207

CYGK;2013-08-16 13:00;CYGK 161300Z 24008KT 15SM FEW030 FEW085 19/12 A3015 RMK CF1AC2 CF TR SLP210 DENSITY ALT 500FT

CYGK;2013-08-16 14:00;CYGK 161400Z 23007KT 15SM FEW030 SCT060 SCT090 21/13 A3016 RMK CU1SC2AC1 SLP213 DENSITY ALT 700FT

CYGK;2013-08-16 15:00;CYGK 161500Z 22010KT 15SM FEW040 FEW060 FEW095 22/12 A3016 RMK CU1SC1AC1 SC TR AC TR SLP213 DENSITY ALT 900FT

CYGK;2013-08-16 16:00;CYGK 161600Z 24009KT 15SM FEW040 FEW060 SCT090 23/12 A3016 RMK CU1SC1AC1 SLP213 DENSITY ALT 1000FT

CYGK;2013-08-16 17:00;CYGK 161700Z 19015KT 15SM FEW050 SCT068 SCT090 23/13 A3016 RMK CU1AC2AC1 SLP212 DENSITY ALT 1000FT

CYGK;2013-08-16 18:00;CYGK 161800Z 19014KT 15SM SCT060 SCT240 24/14 A3016 RMK SC3CI1 SLP212 DENSITY ALT 1100FT

CYGK;2013-08-16 19:00;CYGK 161900Z 19017KT 15SM FEW050 SCT250 23/15 A3015 RMK CU2CI1 SLP211 DENSITY ALT 1000FT

CYGK;2013-08-16 20:00;CYGK 162000Z 19014G21KT 15SM FEW055 FEW250 23/15 A3015 RMK CU1CI1 SLP210 DENSITY ALT 1000FT

CYGK;2013-08-16 21:00;CYGK 162100Z 20014KT 15SM FEW055 FEW092 FEW250 22/14 A3015 RMK CU1AC1CI1 AC TR SLP210 DENSITY ALT 900FT

CYGK;2013-08-16 22:00;CYGK 162200Z 22010KT 15SM SCT080 SCT250 22/14 A3016 RMK AC4CI1 CI TR SLP213 DENSITY ALT 800FT

CYGK;2013-08-16 23:00;CYGK 162300Z 20006KT 15SM SCT062 BKN090 22/15 A3017 RMK SC3AC2 SLP216 DENSITY ALT 900FT

CYGK;2013-08-17 00:00;CYGK 170000Z 20006KT 15SM FEW070 SCT092 21/14 A3017 RMK AC2AC2 SLP218 DENSITY ALT 800FT

CYGK;2013-08-17 01:00;CYGK 170100Z 22002KT 15SM SCT071 20/14 A3019 RMK AC3 SLP223 DENSITY ALT 600FT

CYGK;2013-08-17 02:00;CYGK 170200Z 21002KT 15SM FEW060 17/14 A3020 RMK SC1 SLP227

CYGK;2013-08-17 03:00;CYGK 170300Z 00000KT 15SM SCT060 17/14 A3021 RMK SC3 LAST OBS/NEXT 171000 UTC SLP229

CYGK;2013-08-17 10:00;CYGK 171000Z 02004KT 10SM MIFG FEW250 13/12 A3027 RMK CI2 SLP250

CYGK;2013-08-17 11:00;CYGK 171100Z 03004KT 12SM FEW200 15/14 A3028 RMK CI2 SLP253

CYGK;2013-08-17 12:00;CYGK 171200Z 05006KT 15SM FEW030 FEW200 17/15 A3029 RMK CU1CI1 SLP256

CYGK;2013-08-17 13:00;CYGK 171300Z 07006KT 15SM FEW030 19/17 A3030 RMK CU1 SLP259 DENSITY ALT 400FT

CYGK;2013-08-17 13:36;CYGK 171336Z 08005KT 15SM SCT010 20/17 A3029 RMK CU3 SLP258 DENSITY ALT 500FT

CYGK;2013-08-17 13:53;CYGK 171353Z 06004KT 12SM BKN010 20/17 A3029 RMK CU5 FLIGHT VIS LWR SLP257 DENSITY ALT 500FT

CYGK;2013-08-17 14:00;CYGK 171400Z 10006KT 12SM BKN010 21/18 A3029 RMK CU5 FLIGHT VIS LWR SLP257 DENSITY ALT 600FT

CYGK;2013-08-17 15:00;CYGK 171500Z 15007KT 12SM BKN012 22/18 A3030 RMK CU5 SLP261 DENSITY ALT 700FT

CYGK;2013-08-17 15:22;CYGK 171522Z 16008KT 12SM FEW008 BKN012 22/19 A3031 RMK SF1SF4 SLP263 DENSITY ALT 700FT

CYGK;2013-08-17 16:00;CYGK 171600Z 16009KT 12SM SCT015 22/18 A3031 RMK CU3 SLP263 DENSITY ALT 700FT

CYGK;2013-08-17 17:00;CYGK 171700Z 18009KT 10SM FEW020 SCT250 22/19 A3030 RMK CU2CI1 TCU ASOCTD SLP260 DENSITY ALT 700FT

CYGK;2013-08-17 18:00;CYGK 171800Z 17008KT 12SM SCT030 SCT075 23/18 A3029 RMK CU4AC1 AC TR TCU ASOCTD SLP257 DENSITY ALT 800FT

CYGK;2013-08-17 19:00;CYGK 171900Z 19007KT 12SM FEW030 BKN055 BKN250 23/18 A3028 RMK CU1SC4CI2 SLP252 DENSITY ALT 900FT

CYGK;2013-08-17 20:00;CYGK 172000Z 18008KT 15SM FEW030 FEW062 SCT250 23/18 A3027 RMK CU1SC1CI2 SC TR SLP249 DENSITY ALT 900FT

CYGK;2013-08-17 21:00;CYGK 172100Z 19007KT 15SM FEW035 FEW060 SCT250 23/18 A3026 RMK CU1SC1CI2 SC TR SLP248 DENSITY ALT 800FT

CYGK;2013-08-17 22:00;CYGK 172200Z 19008KT 15SM FEW035 FEW250 23/17 A3026 RMK CU1CI2 CU TR SLP247 DENSITY ALT 800FT

CYGK;2013-08-17 23:00;CYGK 172300Z 20006KT 15SM FEW035 SCT250 22/17 A3025 RMK CU1CI3 CU TR SLP245 DENSITY ALT 800FT

CYGK;2013-08-18 00:00;CYGK 180000Z 23003KT 15SM SCT250 21/16 A3025 RMK CI4 SLP244 DENSITY ALT 600FT

CYGK;2013-08-18 01:00;CYGK 180100Z 24003KT 15SM SCT250 20/16 A3025 RMK CI3 SLP245 DENSITY ALT 500FT

CYGK;2013-08-18 02:00;CYGK 180200Z 00000KT 15SM FEW230 17/16 A3026 RMK CI1 SLP247

CYGK;2013-08-18 03:00;CYGK 180300Z VRB02KT 15SM SKC 17/16 A3025 RMK LAST OBS/NEXT 181000 UTC SLP245

CYGK;2013-08-18 10:00;CYGK 181000Z 34006KT 2SM BR BCFG SCT220 11/11 A3025 RMK CI3 SLP245

CYGK;2013-08-18 10:06;CYGK 181006Z 34006KT 3SM BR BCFG SCT220 11/11 A3025 RMK CI3 SLP245

CYGK;2013-08-18 11:00;CYGK 181100Z 34005KT 6SM BR FEW003 SCT220 12/12 A3026 RMK SF1CI3 SF TR SLP247

CYGK;2013-08-18 12:00;CYGK 181200Z 36002KT 10SM FEW005 SCT220 15/15 A3027 RMK ST1CI3 ST TR SLP249

CYGK;2013-08-18 13:00;CYGK 181300Z 14003KT 10SM BKN220 19/18 A3027 RMK CI6 SLP250 DENSITY ALT 400FT

CYGK;2013-08-18 14:00;CYGK 181400Z 15004KT 12SM FEW012 BKN210 21/18 A3027 RMK CF1CI6 CF TR SLP250 DENSITY ALT 700FT

CYGK;2013-08-18 15:00;CYGK 181500Z 17008KT 12SM FEW015 BKN210 22/19 A3026 RMK CU1CI5 SLP248 DENSITY ALT 800FT

CYGK;2013-08-18 16:00;CYGK 181600Z 17008KT 12SM FEW025 BKN210 22/19 A3025 RMK CU1CI6 SLP242 DENSITY ALT 800FT

CYGK;2013-08-18 17:00;CYGK 181700Z 17008KT 15SM FEW030 BKN250 23/18 A3023 RMK SF2CI4 SLP236 DENSITY ALT 900FT

CYGK;2013-08-18 18:00;CYGK 181800Z 17007KT 12SM FEW040 BKN250 24/16 A3021 RMK SC1CI4 SLP229 DENSITY ALT 1000FT

CYGK;2013-08-18 19:00;CYGK 181900Z 18007KT 15SM FEW040 BKN250 24/17 A3018 RMK SC1CI4 SLP221 DENSITY ALT 1100FT

CYGK;2013-08-18 20:00;CYGK 182000Z 18008KT 15SM FEW040 SCT250 24/16 A3017 RMK SC1CI2 SLP215 DENSITY ALT 1100FT

CYGK;2013-08-18 21:00;CYGK 182100Z 19009KT 15SM FEW040 SCT250 24/17 A3016 RMK SC1CI2 SLP212 DENSITY ALT 1000FT

CYGK;2013-08-18 22:00;CYGK 182200Z 20008KT 15SM FEW040 FEW250 24/17 A3014 RMK SC1CI2 SC TR SLP207 DENSITY ALT 1100FT

CYGK;2013-08-18 23:00;CYGK 182300Z 20008KT 15SM FEW250 23/16 A3012 RMK CI1 SLP201 DENSITY ALT 1000FT

CYGK;2013-08-19 00:00;CYGK 190000Z 20007KT 15SM FEW250 21/17 A3012 RMK CI1 SLP200 DENSITY ALT 800FT

CYGK;2013-08-19 01:00;CYGK 190100Z 23006KT 15SM FEW250 20/16 A3011 RMK CI1 CI TR SLP196 DENSITY ALT 700FT

CYGK;2013-08-19 02:00;CYGK 190200Z 23005KT 15SM FEW250 19/17 A3011 RMK CI1 SLP194 DENSITY ALT 600FT

CYGK;2013-08-19 03:00;CYGK 190300Z 25004KT 15SM FEW250 20/17 A3011 RMK CI1 LAST OBS/NEXT 191000 UTC SLP195 DENSITY ALT 600FT

CYGK;2013-08-19 10:00;CYGK 191000Z 27005KT 15SM FEW270 16/14 A3009 RMK CI2 SLP188

CYGK;2013-08-19 11:00;CYGK 191100Z 30006KT 15SM MIFG FEW270 15/13 A3009 RMK CI2 SLP188

CYGK;2013-08-19 12:00;CYGK 191200Z 28005KT 15SM FEW270 18/14 A3008 RMK CI1 SLP186 DENSITY ALT 500FT

CYGK;2013-08-19 13:00;CYGK 191300Z 29007KT 15SM SKC 21/16 A3008 RMK SLP186 DENSITY ALT 800FT

CYGK;2013-08-19 14:00;CYGK 191400Z 28004KT 15SM FEW030 24/16 A3008 RMK CU1 CU TR SLP185 DENSITY ALT 1100FT

CYGK;2013-08-19 15:00;CYGK 191500Z 22007KT 15SM FEW030 24/17 A3008 RMK CU1 CU TR SLP184 DENSITY ALT 1200FT

CYGK;2013-08-19 16:00;CYGK 191600Z 21010KT 15SM FEW040 25/17 A3006 RMK CU1 SLP180 DENSITY ALT 1300FT

CYGK;2013-08-19 17:00;CYGK 191700Z 17012KT 15SM FEW045 25/19 A3005 RMK CU1 SLP176 DENSITY ALT 1300FT

CYGK;2013-08-19 18:00;CYGK 191800Z 19013KT 15SM FEW045 25/19 A3004 RMK CU1 SLP171 DENSITY ALT 1400FT

CYGK;2013-08-19 19:00;CYGK 191900Z 19013KT 15SM FEW050 FEW250 25/19 A3002 RMK CU1CI1 SLP167 DENSITY ALT 1400FT

CYGK;2013-08-19 20:00;CYGK 192000Z 19013KT 15SM FEW050 FEW250 26/20 A3002 RMK CU1CI1 SLP165 DENSITY ALT 1500FT

CYGK;2013-08-19 21:00;CYGK 192100Z 20014G20KT 12SM FEW055 FEW250 26/17 A3001 RMK SC1CI1 SLP162 DENSITY ALT 1500FT

CYGK;2013-08-19 22:00;CYGK 192200Z 23013KT 15SM FEW055 25/15 A3001 RMK SC1 SC TR SLP162 DENSITY ALT 1400FT

CYGK;2013-08-19 23:00;CYGK 192300Z 24011G16KT 15SM FEW250 24/15 A3001 RMK CI1 SLP162 DENSITY ALT 1300FT

CYGK;2013-08-20 00:00;CYGK 200000Z 23007KT 15SM FEW250 22/15 A3001 RMK CI1 SLP161 DENSITY ALT 1100FT

CYGK;2013-08-20 01:00;CYGK 200100Z 24006KT 15SM FEW250 22/16 A3001 RMK CI1 SLP163 DENSITY ALT 1000FT

CYGK;2013-08-20 02:00;CYGK 200200Z 24006KT 15SM SKC 21/16 A3002 RMK SLP163 DENSITY ALT 900FT

CYGK;2013-08-20 03:00;CYGK 200300Z 25006KT 15SM SKC 21/16 A3002 RMK LAST OBS/NEXT 201000 UTC SLP165 DENSITY ALT 900FT

CYGK;2013-08-20 10:00;CYGK 201000Z 26007KT 6SM BR MIFG FEW200 17/17 A3006 RMK CI1 SLP179 DENSITY ALT 400FT

CYGK;2013-08-20 11:00;CYGK 201100Z 25006KT 7SM MIFG FEW150 SCT200 18/17 A3007 RMK AC1CI2 SLP183 DENSITY ALT 400FT

CYGK;2013-08-20 12:00;CYGK 201200Z 26002KT 8SM SCT150 BKN250 19/18 A3009 RMK AC3CI3 SLP189 DENSITY ALT 600FT

CYGK;2013-08-20 13:00;CYGK 201300Z 22006KT 8SM SCT230 21/18 A3009 RMK CI4 SLP190 DENSITY ALT 800FT

CYGK;2013-08-20 14:00;CYGK 201400Z 23005KT 8SM FEW230 23/19 A3010 RMK CI1 SLP191 DENSITY ALT 1100FT

CYGK;2013-08-20 15:00;CYGK 201500Z 22008KT 10SM SKC 25/19 A3010 RMK SLP191 DENSITY ALT 1300FT

CYGK;2013-08-20 16:00;CYGK 201600Z 19013KT 6SM HZ FEW030 25/20 A3009 RMK CU1 CU TR SLP189 DENSITY ALT 1300FT

CYGK;2013-08-20 17:00;CYGK 201700Z 19013KT 8SM FEW030 25/20 A3009 RMK CU1 SLP190 DENSITY ALT 1300FT

CYGK;2013-08-20 18:00;CYGK 201800Z 19013KT 10SM FEW030 26/20 A3009 RMK CU1 SLP189 DENSITY ALT 1400FT

CYGK;2013-08-20 19:00;CYGK 201900Z 19012KT 12SM FEW035 27/20 A3008 RMK CU1 SLP184 DENSITY ALT 1500FT

CYGK;2013-08-20 20:00;CYGK 202000Z 23013G18KT 12SM FEW040 FEW250 28/18 A3007 RMK CU1CI1 SLP181 DENSITY ALT 1700FT

CYGK;2013-08-20 21:00;CYGK 202100Z 23017G23KT 12SM FEW045 FEW250 27/16 A3006 RMK CU1CI1 CU TR SLP180 DENSITY ALT 1600FT

CYGK;2013-08-20 22:00;CYGK 202200Z 23011KT 12SM FEW250 26/17 A3007 RMK CI1 SLP183 DENSITY ALT 1400FT

CYGK;2013-08-20 23:00;CYGK 202300Z 24011KT 12SM FEW250 25/17 A3007 RMK CI1 SLP182 DENSITY ALT 1400FT

CYGK;2013-08-21 00:00;CYGK 210000Z 23007KT 12SM FEW250 24/17 A3007 RMK CI1 SLP183 DENSITY ALT 1200FT

CYGK;2013-08-21 01:00;CYGK 210100Z 22005KT 12SM FEW250 23/18 A3008 RMK CI1 SLP186 DENSITY ALT 1100FT

CYGK;2013-08-21 02:00;CYGK 210200Z 23007KT 12SM FEW250 22/18 A3009 RMK CI1 SLP190 DENSITY ALT 1000FT

CYGK;2013-08-21 03:00;CYGK 210300Z 23006KT 15SM SKC 22/19 A3010 RMK LAST OBS/NEXT 211000 UTC SLP191 DENSITY ALT 900FT

CYGK;2013-08-21 10:00;CYGK 211000Z 25003KT 6SM BR MIFG FEW060 SCT240 20/19 A3011 RMK SC1CI2 SLP197 DENSITY ALT 700FT

CYGK;2013-08-21 11:00;CYGK 211100Z 21005KT 6SM BR BKN060 BKN240 20/20 A3013 RMK SC5CI1 SLP201 DENSITY ALT 700FT

CYGK;2013-08-21 12:00;CYGK 211200Z 21006KT 8SM FEW060 SCT240 21/20 A3013 RMK SC2CI1 SLP203 DENSITY ALT 800FT

CYGK;2013-08-21 13:00;CYGK 211300Z 21007KT 8SM SCT055 23/20 A3014 RMK CU3 SLP204 DENSITY ALT 1000FT

CYGK;2013-08-21 14:00;CYGK 211400Z 18010KT 10SM SCT056 23/20 A3014 RMK CU4 SLP204 DENSITY ALT 1000FT

CYGK;2013-08-21 15:00;CYGK 211500Z 17013KT 8SM FEW070 SCT120 24/20 A3014 RMK CU2AC1 SLP204 DENSITY ALT 1100FT

CYGK;2013-08-21 16:00;CYGK 211600Z 18014KT 10SM FEW056 SCT180 24/20 A3012 RMK CU1CI3 SLP200 DENSITY ALT 1200FT

CYGK;2013-08-21 17:00;CYGK 211700Z 19014KT 10SM SCT058 SCT220 26/20 A3012 RMK CU3CI1 SLP199 DENSITY ALT 1400FT

CYGK;2013-08-21 18:00;CYGK 211800Z 19014KT 8SM FEW055TCU 27/20 A3010 RMK TCU2 SLP191 DENSITY ALT 1600FT

CYGK;2013-08-21 19:00;CYGK 211900Z 19014KT 10SM FEW060 27/20 A3008 RMK CU1 SLP183 DENSITY ALT 1500FT

CYGK;2013-08-21 20:00;CYGK 212000Z 19011G16KT 8SM FEW055 FEW090 27/20 A3007 RMK CU1AC1 SLP180 DENSITY ALT 1500FT

CYGK;2013-08-21 21:00;CYGK 212100Z 19013KT 8SM FEW050 FEW075 26/20 A3005 RMK CU1AC1 CU TR SLP173 DENSITY ALT 1400FT

CYGK;2013-08-21 22:00;CYGK 212200Z 20011KT 10SM FEW250 25/20 A3003 RMK CI1 SLP168 DENSITY ALT 1400FT

CYGK;2013-08-21 23:00;CYGK 212300Z 20012KT 10SM FEW250 24/20 A3001 RMK CI1 SLP163 DENSITY ALT 1300FT

CYGK;2013-08-22 00:00;CYGK 220000Z 21008KT 10SM FEW250 24/19 A3001 RMK CI1 SLP160 DENSITY ALT 1300FT

CYGK;2013-08-22 01:00;CYGK 220100Z 26006KT 12SM SKC 23/20 A3000 RMK SLP158 DENSITY ALT 1200FT

CYGK;2013-08-22 02:00;CYGK 220200Z 23010KT 15SM SKC 23/20 A3000 RMK WND ESTD SLP158 DENSITY ALT 1100FT

CYGK;2013-08-22 03:00;CYGK 220300Z 23005KT 12SM SKC 22/20 A3000 RMK LAST OBS/NEXT 221000UTC SLP158 DENSITY ALT 1100FT

CYGK;2013-08-22 10:00;CYGK 221000Z 22009KT 8SM FEW200 21/19 A2993 RMK CI2 SLP135 DENSITY ALT 1000FT

CYGK;2013-08-22 11:00;CYGK 221100Z 21009KT 8SM FEW120 SCT200 21/19 A2994 RMK AC1CI4 AC TR SLP137 DENSITY ALT 1000FT

CYGK;2013-08-22 12:00;CYGK 221200Z 21009KT 8SM FEW090 BKN200 22/19 A2994 RMK AC2CI4 SLP139 DENSITY ALT 1100FT

CYGK;2013-08-22 13:00;CYGK 221300Z 23009KT 10SM FEW060 SCT095 BKN230 24/20 A2994 RMK CU1AC2CI2 SLP138 DENSITY ALT 1300FT

CYGK;2013-08-22 14:00;CYGK 221400Z 23009KT 10SM SCT060 SCT095 BKN170 24/19 A2994 RMK SC3AC1AC2 SLP136 DENSITY ALT 1400FT

CYGK;2013-08-22 15:00;CYGK 221500Z 23012KT 8SM SCT063 25/20 A2993 RMK SC4 SLP135 DENSITY ALT 1500FT

CYGK;2013-08-22 16:00;CYGK 221600Z 24009KT 8SM FEW035 BKN061 BKN095 26/20 A2992 RMK CU1SC5AC2 CU TR SLP132 DENSITY ALT 1600FT

CYGK;2013-08-22 16:54;CYGK 221654Z 29011G18KT 8SM TS VCSH FEW022 BKN040CB OVC090 24/19 A2992 RMK CF1CB6AC1 SLP131 DENSITY ALT 1400FT

CYGK;2013-08-22 17:00;CYGK 221700Z 33013G19KT 250V330 8SM TS VCSH FEW022 BKN050CB OVC090 24/18 A2992 RMK CF1CB4AC3 SLP131 DENSITY ALT 1300FT

CYGK;2013-08-22 17:06;CYGK 221706Z 33011G17KT 10SM -TSRA FEW022 BKN060CB OVC090 23/18 A2992 RMK CF1CB5AC2 LTGCG E SLP132 DENSITY ALT 1200FT

CYGK;2013-08-22 17:33;CYGK 221733Z 26003KT 2SM +TSRA FEW020 BKN060CB OVC090 20/18 A2992 RMK CF2CB5AC1 LTGIC SLP131 DENSITY ALT 900FT

CYGK;2013-08-22 18:02;CYGK 221802Z VRB02KT 10SM -TSRA FEW020 SCT040CB OVC090 20/19 A2991 RMK CF1CB3AC4 VIS SE-SW 4 CB E SW SLP128 DENSITY ALT 900FT

CYGK;2013-08-22 18:33;CYGK 221833Z 19004KT 8SM TSRA FEW002 BKN030CB OVC090 20/19 A2992 RMK SF1CB6AC2 SF TR VIS SE 4 SLP130 DENSITY ALT 900FT

CYGK;2013-08-22 18:46;CYGK 221846Z 14005KT 10SM -TSRA SCT025CB OVC090 20/19 A2990 RERA RMK CB4AC4 PRESFR SLP125 DENSITY ALT 900FT

CYGK;2013-08-22 19:00;CYGK 221900Z 15005KT 12SM TS FEW025CB SCT060 BKN130 OVC210 21/19 A2990 RERA RMK CB2SC1AC4CI1 OCNL -SHRA CB SE SLP124 DENSITY ALT 1000FT

CYGK;2013-08-22 19:20;CYGK 221920Z 00000KT 15SM VCSH FEW025 BKN040 BKN130 21/19 A2989 RETS RMK SC2SC3AC2 SLP122 DENSITY ALT 1000FT

CYGK;2013-08-22 20:04;CYGK 222004Z 33006KT 10SM TS VCSH FEW025CB BKN055 OVC100 21/20 A2989 RMK CB2SC4AC2 SLP120 DENSITY ALT 1100FT

CYGK;2013-08-22 20:20;CYGK 222020Z 30002KT 6SM TSRA SCT025CB BKN055 OVC095 21/20 A2989 RMK CB4SC2AC2 SLP121 DENSITY ALT 1100FT

CYGK;2013-08-22 20:36;CYGK 222036Z 00000KT 6SM -SHRA BR FEW012 SCT025TCU BKN060 BKN130 21/20 A2989 RETSRA RMK CF1TCU3SC2AC2 CF TR SLP120 DENSITY ALT 1100FT

CYGK;2013-08-22 20:44;CYGK 222044Z 34004KT 8SM VCSH SCT015 BKN025TCU BKN130 21/21 A2989 RETSRA RMK CF3TCU2AC2 SLP122 DENSITY ALT 1100FT

CYGK;2013-08-22 21:00;CYGK 222100Z 33004KT 10SM VCSH SCT016 SCT025TCU BKN070 BKN130 21/20 A2990 RETSRA RMK CF3TCU1AC2AC1 SLP123 DENSITY ALT 1100FT

CYGK;2013-08-22 22:00;CYGK 222200Z 28003KT 8SM FEW016 SCT080 BKN220 22/21 A2989 RMK CF2AC2CI3 SLP121 DENSITY ALT 1200FT

CYGK;2013-08-22 22:16;CYGK 222216Z 26003KT 8SM FEW008 SCT015 BKN080 BKN220 22/21 A2989 RMK SF2CF2AC2CI1 SLP121 DENSITY ALT 1200FT

CYGK;2013-08-23 00:00;CYGK 230000Z 23003KT 8SM MIFG FEW008 FEW025TCU SCT170 BKN230 21/21 A2990 RMK SF1TCU1AC2CI4 TCU TR SLP125 DENSITY ALT 1100FT

CYGK;2013-08-23 03:00;CYGK 230300Z 35006KT 15SM FEW120 BKN250 18/17 A2997 RMK AC1CI4 LAST OBS/NEXT 231000UTC SLP146 DENSITY ALT 600FT

CYGK;2013-08-23 10:00;CYGK 231000Z 35005KT 15SM FEW230 12/11 A3005 RMK CI1 SLP176

CYGK;2013-08-23 11:00;CYGK 231100Z 01005KT 15SM FEW230 13/12 A3007 RMK CI1 SLP183

CYGK;2013-08-23 12:00;CYGK 231200Z 35009KT 15SM FEW025 FEW230 15/13 A3009 RMK CF1CI1 CF TR SLP190

CYGK;2013-08-23 13:00;CYGK 231300Z 02012G17KT 15SM FEW025 FEW220 17/13 A3010 RMK CF1CI1 CF TR SLP193

CYGK;2013-08-23 14:00;CYGK 231400Z 36008KT 15SM FEW030 19/14 A3012 RMK CU1 SLP199 DENSITY ALT 500FT

CYGK;2013-08-23 15:00;CYGK 231500Z 34009KT 15SM FEW029 20/13 A3012 RMK CU1 SLP201 DENSITY ALT 700FT

CYGK;2013-08-23 16:00;CYGK 231600Z 35007KT 15SM BKN035 20/13 A3013 RMK CU5 SLP203 DENSITY ALT 700FT

CYGK;2013-08-23 17:00;CYGK 231700Z 36006KT 15SM SCT041 21/12 A3013 RMK CU3 SLP203 DENSITY ALT 800FT

CYGK;2013-08-23 18:00;CYGK 231800Z 33010KT 330V050 15SM SCT043 21/12 A3013 RMK CU4 SLP204 DENSITY ALT 800FT

CYGK;2013-08-23 19:00;CYGK 231900Z 34006KT 15SM SCT050 22/11 A3014 RMK CU4 SLP205 DENSITY ALT 900FT

CYGK;2013-08-23 20:00;CYGK 232000Z 03007KT 15SM SCT050 23/11 A3014 RMK CU4 SLP205 DENSITY ALT 1000FT

CYGK;2013-08-23 21:00;CYGK 232100Z 01006KT 15SM SCT050 22/11 A3014 RMK CU4 SLP206 DENSITY ALT 900FT

CYGK;2013-08-23 22:00;CYGK 232200Z 00000KT 15SM FEW055 21/13 A3015 RMK CU2 SLP209 DENSITY ALT 800FT

CYGK;2013-08-23 23:00;CYGK 232300Z 13003KT 050V130 15SM FEW055 21/13 A3015 RMK CU1 SLP209 DENSITY ALT 800FT

CYGK;2013-08-24 00:00;CYGK 240000Z 00000KT 15SM FEW050 19/12 A3016 RMK SC1 SLP214 DENSITY ALT 600FT

CYGK;2013-08-24 01:00;CYGK 240100Z 01004KT 15SM FEW050 FEW200 16/12 A3018 RMK SC1CI1 SC TR SLP221

CYGK;2013-08-24 02:00;CYGK 240200Z 01005KT 15SM FEW200 16/13 A3021 RMK CI1 SLP229

CYGK;2013-08-24 03:00;CYGK 240300Z 02006KT 15SM SKC 16/11 A3021 RMK LAST OBS/NEXT 241000UTC SLP230

CYGK;2013-08-24 10:00;CYGK 241000Z 34004KT 15SM FEW250 09/09 A3031 RMK CI1 SLP264

CYGK;2013-08-24 11:00;CYGK 241100Z 34005KT 15SM FEW250 10/10 A3033 RMK CI1 SLP270

CYGK;2013-08-24 12:00;CYGK 241200Z 33004KT 15SM SCT250 13/12 A3034 RMK CI3 SLP276

CYGK;2013-08-24 13:00;CYGK 241300Z 02003KT 15SM FEW025 BKN250 17/13 A3036 RMK CF1CI7 CF TR SLP280

CYGK;2013-08-24 14:00;CYGK 241400Z 08002KT 15SM FEW030 BKN250 19/12 A3036 RMK CU1CI6 CU TR SLP283

CYGK;2013-08-24 15:00;CYGK 241500Z 16005KT 15SM FEW025 BKN250 20/10 A3037 RMK CF1CI5 CF TR SLP285 DENSITY ALT 400FT

CYGK;2013-08-24 16:00;CYGK 241600Z 20007KT 15SM FEW040 SCT250 21/11 A3036 RMK CU1CI4 CU TR SLP283 DENSITY ALT 500FT

CYGK;2013-08-24 17:00;CYGK 241700Z 19009KT 15SM FEW040 SCT250 22/12 A3036 RMK CF1CI3 CF TR SLP280 DENSITY ALT 600FT

CYGK;2013-08-24 18:00;CYGK 241800Z 17009KT 15SM FEW040 SCT250 22/11 A3034 RMK CU1CI4 CU TR SLP276 DENSITY ALT 600FT

CYGK;2013-08-24 19:00;CYGK 241900Z 19009KT 15SM FEW040 FEW250 22/13 A3033 RMK CU1CI2 CU TR SLP272 DENSITY ALT 700FT

CYGK;2013-08-24 20:00;CYGK 242000Z 18008KT 15SM FEW040 FEW250 23/13 A3032 RMK CU1CI2 CU TR SLP268 DENSITY ALT 800FT

CYGK;2013-08-24 21:00;CYGK 242100Z 19010KT 15SM FEW040 FEW250 22/14 A3032 RMK CU1CC2 CU TR SLP268 DENSITY ALT 700FT

CYGK;2013-08-24 22:00;CYGK 242200Z 21009KT 15SM SCT250 22/13 A3032 RMK CI3 SLP269 DENSITY ALT 700FT

CYGK;2013-08-24 23:00;CYGK 242300Z 21007KT 15SM SCT230 21/14 A3032 RMK CI4 SLP268 DENSITY ALT 600FT

CYGK;2013-08-25 00:00;CYGK 250000Z 22008KT 15SM SCT230 19/14 A3033 RMK CI4 SLP270 DENSITY ALT 400FT

CYGK;2013-08-25 01:00;CYGK 250100Z 22007KT 15SM FEW230 19/14 A3034 RMK CI2 SLP276

CYGK;2013-08-25 02:00;CYGK 250200Z 23005KT 15SM FEW230 18/14 A3034 RMK CI1 SLP275

CYGK;2013-08-25 03:00;CYGK 250300Z 26003KT 15SM SKC 15/13 A3033 RMK LAST OBS/NEXT 251000 UTC SLP273

CYGK;2013-08-25 10:00;CYGK 251000Z 01004KT 15SM BKN240 12/12 A3035 RMK CI7 SLP277

CYGK;2013-08-25 11:00;CYGK 251100Z 03002KT 15SM BKN240 13/12 A3035 RMK CI6 SLP279

CYGK;2013-08-25 12:00;CYGK 251200Z 00000KT 15SM SCT240 17/15 A3035 RMK CI4 SLP277

CYGK;2013-08-25 13:00;CYGK 251300Z 19005KT 15SM FEW020 FEW220 SCT250 21/16 A3034 RMK CF1CC1CI3 CF TR SLP275 DENSITY ALT 500FT

CYGK;2013-08-25 14:00;CYGK 251400Z 16009KT 15SM FEW025 SCT240 21/17 A3033 RMK CU1CI4 CU TR SLP271 DENSITY ALT 600FT

CYGK;2013-08-25 15:00;CYGK 251500Z 18010KT 15SM FEW025 BKN250 21/16 A3033 RMK CF1CI6 CF TR SLP272 DENSITY ALT 600FT

CYGK;2013-08-25 16:00;CYGK 251600Z 19010KT 15SM FEW030 BKN250 21/16 A3032 RMK CU1CI5 CU TR SLP267 DENSITY ALT 600FT

CYGK;2013-08-25 17:00;CYGK 251700Z 19011KT 15SM FEW030 BKN250 22/16 A3028 RMK CU1CI7 CU TR SLP255 DENSITY ALT 700FT

CYGK;2013-08-25 18:00;CYGK 251800Z 18008KT 15SM FEW030 FEW160 BKN230 22/16 A3028 RMK CU1AC2CI5 CU TR SLP252 DENSITY ALT 700FT

CYGK;2013-08-25 19:00;CYGK 251900Z 18009KT 15SM FEW040 FEW160 OVC220 22/16 A3026 RMK CU1AC1CI7 CU TR SLP249 DENSITY ALT 800FT

CYGK;2013-08-25 20:00;CYGK 252000Z 20008KT 15SM FEW160 OVC220 22/17 A3024 RMK AC2CI6 SLP242 DENSITY ALT 800FT

CYGK;2013-08-25 21:00;CYGK 252100Z 19008KT 15SM FEW120 FEW160 OVC220 22/17 A3020 RMK AC1AC1CI6 SLP226 DENSITY ALT 800FT

CYGK;2013-08-25 22:00;CYGK 252200Z 19013KT 15SM SCT140 OVC220 22/17 A3013 RMK AC4CI4 PRESFR SLP204 DENSITY ALT 900FT

CYGK;2013-08-25 23:00;CYGK 252300Z 21008KT 15SM BKN100 OVC200 22/18 A3015 RMK AC5CI3 SLP209 DENSITY ALT 900FT

CYGK;2013-08-26 00:00;CYGK 260000Z 20013KT 15SM FEW070 OVC120 22/18 A3010 RMK AC2AC6 SLP192 DENSITY ALT 900FT

CYGK;2013-08-26 01:00;CYGK 260100Z 21012G18KT 15SM OVC120 23/17 A3011 RMK AC8 SLP196 DENSITY ALT 1000FT

CYGK;2013-08-26 01:08;CYGK 260108Z 23009G16KT 15SM -RA OVC120 23/17 A3011 RMK AC8 SLP197 DENSITY ALT 1000FT

CYGK;2013-08-26 01:48;CYGK 260148Z 23009G16KT 15SM BKN100 22/17 A3011 RMK AC7 SLP194 DENSITY ALT 900FT

CYGK;2013-08-26 02:00;CYGK 260200Z 24009KT 15SM OVC110 22/17 A3010 RMK AC8 SLP192 DENSITY ALT 900FT

CYGK;2013-08-26 03:00;CYGK 260300Z 25016G23KT 10SM -RA SCT080 OVC140 22/17 A3011 RMK AC4AC4 LAST OBS/NEXT 261000 UTC SLP195 DENSITY ALT 900FT

CYGK;2013-08-26 10:00;CYGK 261000Z 21007KT 12SM BKN075 OVC250 21/19 A3002 RMK AC6CI2 SLP164 DENSITY ALT 900FT

CYGK;2013-08-26 11:00;CYGK 261100Z 22008KT 10SM BKN060 BKN160 OVC220 21/20 A3002 RMK SC5AC2CI1 SLP164 DENSITY ALT 900FT

CYGK;2013-08-26 12:00;CYGK 261200Z 24009KT 8SM BKN070 BKN160 OVC220 22/20 A3002 RMK AC5AC1CI2 SLP165 DENSITY ALT 1000FT

CYGK;2013-08-26 13:00;CYGK 261300Z 24012G18KT 12SM BKN072 OVC160 22/20 A3002 RMK AC7AS1 SLP163 DENSITY ALT 1000FT

CYGK;2013-08-26 13:09;CYGK 261309Z /////KT -RA BR FEW030 BKN060 OVC160 21/20 A3001 RMK CF1SC5AC3 CF TR SLP162 DENSITY ALT 1000FT

CYGK;2013-08-26 14:00;CYGK 261400Z 24010KT 6SM -RA BR FEW007 BKN060 OVC160 22/21 A3000 RMK SF2SC3AC3 SLP160 DENSITY ALT 1000FT

CYGK;2013-08-26 14:08;CYGK 261408Z 24010G16KT 6SM BR FEW007 BKN057 BKN100 OVC130 22/21 A3001 RMK SF1SC4AC2AS1 SLP161 DENSITY ALT 1000FT

CYGK;2013-08-26 14:25;CYGK 261425Z 25008KT 6SM -RA BR FEW007 BKN060 OVC100 22/21 A3000 RMK SF1SC6AC1 SLP159 DENSITY ALT 1100FT

CYGK;2013-08-26 15:00;CYGK 261500Z 26008KT 6SM BR FEW009 BKN060 OVC140 22/21 A3002 RMK SF2SC5AC1 SLP165 DENSITY ALT 1100FT

CYGK;2013-08-26 16:00;CYGK 261600Z 28006KT 6SM BR BKN010 OVC060 23/21 A3000 RMK SC6SC2 CIG RAG SLP160 DENSITY ALT 1100FT

CYGK;2013-08-26 17:00;CYGK 261700Z 24008KT 8SM BKN018 OVC045 22/21 A2998 RMK SC5SC3 CIG RAG SLP153 DENSITY ALT 1100FT

CYGK;2013-08-26 18:00;CYGK 261800Z 20003KT 7SM FEW018 BKN045 OVC220 24/21 A2994 RMK SC2SC3CS3 SLP136 DENSITY ALT 1300FT

CYGK;2013-08-26 19:00;CYGK 261900Z 22011KT 6SM BR FEW015 SCT080 OVC170 23/21 A2996 RMK SC2AC1AC5 SLP143 DENSITY ALT 1200FT

CYGK;2013-08-26 19:05;CYGK 261905Z 22011KT 6SM -RA BR SCT013 BKN080 OVC170 23/21 A2996 RMK SC4AC1AC3 SLP143 DENSITY ALT 1200FT

CYGK;2013-08-26 20:00;CYGK 262000Z 25007KT 6SM -RA BR SCT013 BKN050 OVC140 22/21 A2993 RMK SC3SC3AC2 SLP135 DENSITY ALT 1200FT

CYGK;2013-08-26 21:00;CYGK 262100Z 25006KT 4SM -RA BR FEW010 BKN036 OVC070 21/21 A2994 RMK SC2SC5AC1 SLP137 DENSITY ALT 1100FT

CYGK;2013-08-26 21:35;CYGK 262135Z 29007KT 2 1/2SM -RA BR SCT006 OVC022 21/21 A2994 RMK SF4SC4 SLP139 DENSITY ALT 1000FT

CYGK;2013-08-26 22:00;CYGK 262200Z 25006KT 2 1/2SM -RA BR BKN005 OVC028 21/21 A2995 RMK SF5SC3 SLP140 DENSITY ALT 1000FT

CYGK;2013-08-26 22:15;CYGK 262215Z 26008KT 4SM -RA BR SCT007 BKN028 OVC057 21/21 A2994 RMK SF3SC2SC3 SLP137 DENSITY ALT 1000FT

CYGK;2013-08-26 23:00;CYGK 262300Z 25005KT 5SM -RA BR FEW006 SCT028 BKN060 OVC140 21/20 A2992 RMK SF1SC2SC3AC2 SLP132 DENSITY ALT 1000FT

CYGK;2013-08-27 00:00;CYGK 270000Z 32003KT 6SM -RA BR SCT042 OVC082 20/20 A2992 RMK SC4AC4 SLP131 DENSITY ALT 1000FT

CYGK;2013-08-27 01:00;CYGK 270100Z 30004KT 7SM -RA FEW062 OVC120 20/20 A2994 RMK SC2AC6 SLP137 DENSITY ALT 900FT

CYGK;2013-08-27 02:00;CYGK 270200Z 27003KT 8SM -RA SCT028 OVC130 20/20 A2993 RMK SC4AC4 SLP134 DENSITY ALT 900FT

CYGK;2013-08-27 02:27;CYGK 270227Z VRB02KT 8SM SCT026 OVC130 20/19 A2993 RMK SC3AC5 SLP134 DENSITY ALT 900FT

CYGK;2013-08-27 03:00;CYGK 270300Z 28002KT 8SM FEW025 OVC130 20/19 A2993 RMK SC2AC6 LAST OBS/NEXT 271000 UTC SLP134 DENSITY ALT 800FT

CYGK;2013-08-27 10:00;CYGK 271000Z 29004KT 1SM BR OVC002 20/20 A2991 RMK FG2ST6 SLP129 DENSITY ALT 900FT

CYGK;2013-08-27 10:10;CYGK 271010Z 26004KT 1/2SM FG VV002 20/20 A2991 RMK FG8 SLP129 DENSITY ALT 900FT

CYGK;2013-08-27 11:00;CYGK 271100Z 28005KT 3/8SM FG VV002 19/19 A2993 RMK FG8 SLP136 DENSITY ALT 800FT

CYGK;2013-08-27 11:34;CYGK 271134Z 27005KT 5/8SM BR VV002 19/19 A2994 RMK FG8 SLP137 DENSITY ALT 800FT

CYGK;2013-08-27 11:46;CYGK 271146Z 28003KT 1SM BR OVC002 20/20 A2993 RMK FG2ST6 VIS S 5 SLP136 DENSITY ALT 800FT

CYGK;2013-08-27 12:00;CYGK 271200Z 31003KT 3/4SM BR OVC002 20/20 A2994 RMK FG2ST6 VIS S 4 SLP137 DENSITY ALT 800FT

CYGK;2013-08-27 12:12;CYGK 271212Z 32004KT 2SM BR OVC002 20/20 A2994 RMK ST8 VIS W 1 SLP137 DENSITY ALT 800FT

CYGK;2013-08-27 13:00;CYGK 271300Z 33003KT 6SM BR BKN003 20/20 A2993 RMK SF7 SLP136 DENSITY ALT 900FT

CYGK;2013-08-27 13:32;CYGK 271332Z 00000KT 8SM BKN004 BKN040 21/20 A2993 RMK SF6SC1 SLP135 DENSITY ALT 1000FT

CYGK;2013-08-27 14:00;CYGK 271400Z VRB02KT 8SM BKN005 OVC040 21/20 A2994 RMK SF7SC1 SLP137 DENSITY ALT 1000FT

CYGK;2013-08-27 14:42;CYGK 271442Z 21003KT 8SM SCT005 BKN038 22/21 A2993 RMK SF3SC4 SLP135 DENSITY ALT 1100FT

CYGK;2013-08-27 15:00;CYGK 271500Z 22004KT 7SM SCT005 BKN038 BKN270 23/21 A2994 RMK SF3SC3CI1 SLP136 DENSITY ALT 1200FT

CYGK;2013-08-27 15:07;CYGK 271507Z 23004KT 7SM BKN006 BKN038 22/21 A2994 RMK SF6SC1 SLP136 DENSITY ALT 1200FT

CYGK;2013-08-27 15:39;CYGK 271539Z 17005KT 7SM BKN005 BKN039 23/21 A2994 RMK SF6SC1 SLP136 DENSITY ALT 1200FT

CYGK;2013-08-27 15:50;CYGK 271550Z 19005KT 5SM BR BKN003 OVC039 22/21 A2994 RMK SF6SC2 SLP136 DENSITY ALT 1200FT

CYGK;2013-08-27 16:00;CYGK 271600Z 18006KT 3SM BR OVC002 22/21 A2993 RMK SF8 SLP135 DENSITY ALT 1200FT

CYGK;2013-08-27 16:43;CYGK 271643Z 19008KT 2SM BR OVC002 22/21 A2993 RMK SF8 VIS NE 3 SW 1 SLP134 DENSITY ALT 1100FT

CYGK;2013-08-27 17:00;CYGK 271700Z 19008KT 2SM BR OVC002 22/21 A2993 RMK ST8 SLP133 DENSITY ALT 1100FT

CYGK;2013-08-27 17:23;CYGK 271723Z 17008KT 4SM BR SCT002 BKN007 OVC012 22/21 A2993 RMK SF4SC3SC1 SLP133 DENSITY ALT 1100FT

CYGK;2013-08-27 18:00;CYGK 271800Z 18009KT 4SM BR SCT007 BKN042 BKN150 23/22 A2992 RMK SF4SC2AC1 SLP130 DENSITY ALT 1300FT

CYGK;2013-08-27 19:00;CYGK 271900Z 18010KT 5SM BR FEW003 FEW009 SCT150 BKN250 24/22 A2990 RMK SF1SF1AC1CI3 SLP125 DENSITY ALT 1400FT

CYGK;2013-08-27 19:10;CYGK 271910Z 18010KT 4SM BR BKN003 BKN010 23/21 A2991 RMK SF5SC2 SLP127 DENSITY ALT 1300FT

CYGK;2013-08-27 19:19;CYGK 271919Z 17010KT 5SM BR SCT003 BKN010 24/22 A2991 RMK ST4SC3 SLP128 DENSITY ALT 1300FT

CYGK;2013-08-27 20:00;CYGK 272000Z 17010KT 4SM BR FEW003 SCT010 BKN040 23/22 A2990 RMK SF2SC2SC2 SLP123 DENSITY ALT 1300FT

CYGK;2013-08-27 21:00;CYGK 272100Z 18009KT 4SM BR FEW003 SCT010 BKN250 23/22 A2989 RMK SF2SC1CI2 SLP121 DENSITY ALT 1300FT

CYGK;2013-08-27 22:00;CYGK 272200Z 19009KT 5SM BR FEW010 SCT250 23/22 A2988 RMK CU2CI2 SLP118 DENSITY ALT 1300FT

CYGK;2013-08-27 23:00;CYGK 272300Z 17005KT 5SM BR BKN250 23/22 A2988 RMK CI5 SLP117 DENSITY ALT 1200FT

CYGK;2013-08-28 00:00;CYGK 280000Z 18006KT 4SM BR BKN220 22/21 A2989 RMK CI5 SLP120 DENSITY ALT 1200FT

CYGK;2013-08-28 01:00;CYGK 280100Z 19003KT 6SM BR FEW120 BKN220 21/21 A2991 RMK AC2CC4 SLP126 DENSITY ALT 1100FT

CYGK;2013-08-28 02:00;CYGK 280200Z VRB02KT 6SM BR BKN110 21/21 A2990 RMK AC6 SLP124 DENSITY ALT 1000FT

CYGK;2013-08-28 03:00;CYGK 280300Z 14003KT 3SM BR SCT002 BKN005 OVC110 21/21 A2990 RMK SF3SF3AC2 LAST OBS/NEXT 281000 UTC SLP123 DENSITY ALT 1000FT

CYGK;2013-08-28 10:00;CYGK 281000Z 04003KT 1/8SM FG BKN250 18/18 A2987 RMK FG6CI1 SLP115 DENSITY ALT 800FT

CYGK;2013-08-28 10:24;CYGK 281024Z 00000KT 1/8SM FG VV001 19/19 A2988 RMK FG8 SLP116 DENSITY ALT 800FT

CYGK;2013-08-28 11:00;CYGK 281100Z 00000KT 1/8SM FG VV001 19/19 A2989 RMK FG8 SLP121 DENSITY ALT 900FT

CYGK;2013-08-28 12:00;CYGK 281200Z 06003KT 1/8SM FG VV001 20/20 A2990 RMK FG8 SLP123 DENSITY ALT 900FT

CYGK;2013-08-28 12:34;CYGK 281234Z 04005KT 1/4SM FG VV001 20/20 A2990 RMK FG8 SLP124 DENSITY ALT 900FT

CYGK;2013-08-28 13:00;CYGK 281300Z 36003KT 3/8SM FG SKC 20/20 A2990 RMK FG6 SLP125 DENSITY ALT 900FT

CYGK;2013-08-28 13:05;CYGK 281305Z 01003KT 1/2SM FG SKC 20/20 A2990 RMK FG7 SLP125 DENSITY ALT 900FT

CYGK;2013-08-28 13:09;CYGK 281309Z 03004KT 3/4SM BR BKN002 20/20 A2990 RMK FG2SF5 SLP125 DENSITY ALT 1000FT

CYGK;2013-08-28 13:17;CYGK 281317Z 04002KT 1 1/2SM BR BKN002 20/20 A2990 RMK FG1SF5 SLP125 DENSITY ALT 900FT

CYGK;2013-08-28 13:28;CYGK 281328Z 05004KT 2 1/2SM BR BKN002 21/21 A2990 RMK SF6 SLP125 DENSITY ALT 1000FT

CYGK;2013-08-28 13:33;CYGK 281333Z 07002KT 3SM BR BKN002 21/21 A2990 RMK SF5 SLP125 DENSITY ALT 1000FT

CYGK;2013-08-28 13:46;CYGK 281346Z 07003KT 030V110 4SM BR BKN005 21/21 A2990 RMK CF5 VIS S-SW 2 SLP124 DENSITY ALT 1100FT

CYGK;2013-08-28 14:00;CYGK 281400Z 00000KT 4SM BR SCT006 SCT240 22/22 A2990 RMK CF4CI1 CI TR VIS S-SW 2 SLP124 DENSITY ALT 1200FT

CYGK;2013-08-28 14:30;CYGK 281430Z 17007KT 4SM BR PRFG FEW007 SCT240 23/22 A2990 RMK SF2CI2 VIS SE-SW 1/2 SLP125 DENSITY ALT 1300FT

CYGK;2013-08-28 15:00;CYGK 281500Z 16006KT 5SM BR FEW007 FEW140 BKN250 23/21 A2991 RMK SF1AC1CI5 VIS S 11/2 FG BANK OVR LK SLP126 DENSITY ALT 1300FT

CYGK;2013-08-28 16:00;CYGK 281600Z 12004KT 12SM FEW020 BKN250 25/21 A2990 RMK CU1CI6 SLP125 DENSITY ALT 1500FT

CYGK;2013-08-28 17:00;CYGK 281700Z 12006KT 15SM FEW030 BKN240 28/20 A2990 RMK CU1CI6 SLP123 DENSITY ALT 1800FT

CYGK;2013-08-28 18:00;CYGK 281800Z 14008KT 15SM SCT030 BKN250 28/20 A2989 RMK CU3CI4 SLP122 DENSITY ALT 1800FT

CYGK;2013-08-28 19:00;CYGK 281900Z 06006KT 15SM FEW035 BKN250 28/20 A2988 RMK CU1CI6 SLP118 DENSITY ALT 1900FT

CYGK;2013-08-28 20:00;CYGK 282000Z 06006KT 15SM SCT035 BKN250 29/20 A2988 RMK CU3CI3 SLP118 DENSITY ALT 2000FT

CYGK;2013-08-28 21:00;CYGK 282100Z 05007KT 15SM SCT040 BKN250 29/21 A2988 RMK CU3CI3 SLP118 DENSITY ALT 1900FT

CYGK;2013-08-28 22:00;CYGK 282200Z 04006KT 15SM FEW040 SCT250 28/21 A2989 RMK CU2CI2 SLP120 DENSITY ALT 1900FT

CYGK;2013-08-28 23:00;CYGK 282300Z 03008KT 15SM FEW040 SCT250 28/20 A2990 RMK CU1CI2 SLP123 DENSITY ALT 1800FT

CYGK;2013-08-29 00:00;CYGK 290000Z 03005KT 15SM FEW250 26/20 A2991 RMK CI2 SLP129 DENSITY ALT 1600FT

CYGK;2013-08-29 01:00;CYGK 290100Z 01002KT 15SM SKC 24/20 A2993 RMK SLP134 DENSITY ALT 1400FT

CYGK;2013-08-29 02:00;CYGK 290200Z 03005KT 15SM SKC 24/20 A2995 RMK SLP141 DENSITY ALT 1300FT

CYGK;2013-08-29 03:00;CYGK 290300Z 34004KT 15SM SKC 21/20 A2996 RMK LAST OBS/NEXT 291000 UTC SLP145 DENSITY ALT 1000FT

CYGK;2013-08-29 10:00;CYGK 291000Z 36007KT 15SM FEW170 FEW250 18/17 A3000 RMK AC1CI1 AC TR CI TR SLP156 DENSITY ALT 600FT

CYGK;2013-08-29 10:23;CYGK 291023Z 01007KT 15SM FEW005 FEW170 19/18 A3000 RMK ST1AC1 AC TR ST LYR NE MVG SW SLP157 DENSITY ALT 700FT

CYGK;2013-08-29 10:33;CYGK 291033Z 02007KT 12SM BKN003 19/18 A3000 RMK SF5 SLP158 DENSITY ALT 700FT

CYGK;2013-08-29 10:45;CYGK 291045Z 03008KT 5SM BR OVC003 19/19 A3000 RMK SF8 VIS N-NE 2 SLP159 DENSITY ALT 700FT

CYGK;2013-08-29 11:00;CYGK 291100Z 03009KT 2 1/2SM BR OVC002 19/19 A3001 RMK SF8 VIS S-SW 3 SLP161 DENSITY ALT 700FT

CYGK;2013-08-29 11:12;CYGK 291112Z 04008KT 1 1/2SM BR OVC002 19/19 A3002 RMK FG2SF6 SLP163 DENSITY ALT 700FT

CYGK;2013-08-29 11:20;CYGK 291120Z 04006KT 1SM BR OVC002 19/19 A3002 RMK FG4SF4 SLP164 DENSITY ALT 700FT

CYGK;2013-08-29 11:28;CYGK 291128Z 03008KT 3/4SM BR OVC002 19/19 A3002 RMK FG6SF2 SLP165 DENSITY ALT 700FT

CYGK;2013-08-29 11:51;CYGK 291151Z 04009KT 1/2SM FG VV002 19/19 A3003 RMK FG8 SLP168 DENSITY ALT 700FT

CYGK;2013-08-29 12:00;CYGK 291200Z 04007KT 3/4SM BR VV002 19/19 A3003 RMK FG8 SLP169 DENSITY ALT 700FT

CYGK;2013-08-29 12:09;CYGK 291209Z 02008KT 1SM BR OVC002 19/19 A3003 RMK FG4SF4 SLP169 DENSITY ALT 700FT

CYGK;2013-08-29 12:29;CYGK 291229Z 01009KT 1 1/2SM BR OVC002 20/19 A3004 RMK FG2SF6 SLP171 DENSITY ALT 700FT

CYGK;2013-08-29 12:51;CYGK 291251Z 02008KT 2SM BR OVC003 20/19 A3004 RMK SF8 SLP172 DENSITY ALT 700FT

CYGK;2013-08-29 13:00;CYGK 291300Z 03008KT 2 1/2SM BR OVC003 20/19 A3005 RMK SF8 SLP174 DENSITY ALT 700FT

CYGK;2013-08-29 13:33;CYGK 291333Z 02004KT 3SM BR OVC003 20/20 A3005 RMK SF8 SLP176 DENSITY ALT 800FT

CYGK;2013-08-29 14:00;CYGK 291400Z 03006KT 4SM BR OVC004 20/19 A3006 RMK SF8 SLP178 DENSITY ALT 800FT

CYGK;2013-08-29 14:26;CYGK 291426Z 02006KT 5SM BR OVC004 20/19 A3006 RMK SF8 SLP178 DENSITY ALT 800FT

CYGK;2013-08-29 14:49;CYGK 291449Z 01009KT 6SM BR OVC006 20/19 A3006 RMK SF8 SLP178 DENSITY ALT 800FT

CYGK;2013-08-29 15:00;CYGK 291500Z 05008KT 8SM OVC007 21/19 A3006 RMK SF8 SLP178 DENSITY ALT 800FT

CYGK;2013-08-29 16:00;CYGK 291600Z 03007KT 8SM OVC008 21/19 A3006 RMK SF8 SLP180 DENSITY ALT 900FT

CYGK;2013-08-29 16:42;CYGK 291642Z 02007KT 8SM OVC011 22/19 A3006 RMK SF8 SLP180 DENSITY ALT 1000FT

CYGK;2013-08-29 17:00;CYGK 291700Z 02006KT 8SM OVC012 22/19 A3006 RMK SF8 SLP180 DENSITY ALT 1000FT

CYGK;2013-08-29 17:49;CYGK 291749Z 36008KT 10SM BKN015 23/20 A3006 RMK SC7 SLP180 DENSITY ALT 1100FT

CYGK;2013-08-29 18:00;CYGK 291800Z 35005KT 10SM BKN015 23/19 A3006 RMK SC6 SLP178 DENSITY ALT 1100FT

CYGK;2013-08-29 18:23;CYGK 291823Z 01007KT 11SM FEW015 24/20 A3005 RMK CF1 SLP175 DENSITY ALT 1200FT

CYGK;2013-08-29 19:00;CYGK 291900Z 03008KT 11SM FEW015 26/19 A3004 RMK CF1 SLP172 DENSITY ALT 1400FT

CYGK;2013-08-29 20:00;CYGK 292000Z 04006KT 12SM FEW020 26/20 A3003 RMK CU2 SLP168 DENSITY ALT 1400FT

CYGK;2013-08-29 21:00;CYGK 292100Z 36004KT 310V020 12SM SCT025 26/20 A3002 RMK CU3 SLP165 DENSITY ALT 1500FT

CYGK;2013-08-29 22:00;CYGK 292200Z 33005KT 15SM FEW030 26/20 A3002 RMK CU1 SLP167 DENSITY ALT 1500FT

CYGK;2013-08-29 23:00;CYGK 292300Z 08003KT 15SM SKC 25/19 A3001 RMK SLP161 DENSITY ALT 1400FT

CYGK;2013-08-30 00:00;CYGK 300000Z VRB03KT 15SM SKC 23/20 A3000 RMK SLP158 DENSITY ALT 1100FT

CYGK;2013-08-30 01:00;CYGK 300100Z 31002KT 15SM SKC 21/20 A3002 RMK SLP166 DENSITY ALT 900FT

CYGK;2013-08-30 02:00;CYGK 300200Z 29004KT 15SM SKC 21/20 A3003 RMK SLP170 DENSITY ALT 900FT

CYGK;2013-08-30 03:00;CYGK 300300Z 27006KT 15SM SKC 21/20 A3002 RMK LAST OBS/NEXT 301000 UTC SLP167 DENSITY ALT 900FT

CYGK;2013-08-30 10:00;CYGK 301000Z 24003KT 8SM BKN250 19/19 A2996 RMK CI7 SLP145 DENSITY ALT 800FT

CYGK;2013-08-30 11:00;CYGK 301100Z 22005KT 8SM MIFG SCT140 BKN250 20/19 A2995 RMK AC3CI4 SLP142 DENSITY ALT 900FT

CYGK;2013-08-30 11:39;CYGK 301139Z 22004KT 8SM FEW005 FEW090 BKN140 BKN250 21/20 A2995 RMK SF1AC1AC3CI2 SLP140 DENSITY ALT 1000FT

CYGK;2013-08-30 12:00;CYGK 301200Z 21004KT 8SM FEW005 FEW090 BKN140 BKN250 22/21 A2996 RMK SF1AC1AC4CI1 SLP143 DENSITY ALT 1100FT

CYGK;2013-08-30 13:00;CYGK 301300Z 19010KT 10SM FEW008 FEW140 BKN240 23/21 A2994 RMK SF1AC2CI3 SF TR SLP139 DENSITY ALT 1300FT

CYGK;2013-08-30 14:00;CYGK 301400Z 19011KT 12SM FEW008 FEW140 SCT240 24/22 A2994 RMK CF1AC1CI2 SLP136 DENSITY ALT 1400FT

CYGK;2013-08-30 15:00;CYGK 301500Z 18013KT 10SM FEW010 FEW140 BKN240 24/22 A2992 RMK CF1AC2CI3 CF TR SLP131 DENSITY ALT 1400FT

CYGK;2013-08-30 15:15;CYGK 301515Z 18012KT 8SM FEW008 SCT180 BKN240 24/22 A2992 RMK CF2AC2CI3 SLP130 DENSITY ALT 1400FT

CYGK;2013-08-30 16:00;CYGK 301600Z 18015KT 8SM FEW008 FEW050 BKN160 BKN240 24/22 A2991 RMK CF1SC1AC3CI2 SLP126 DENSITY ALT 1400FT

CYGK;2013-08-30 17:00;CYGK 301700Z 19012KT 8SM FEW008 FEW050 SCT160 BKN240 24/22 A2988 RMK CF1SC1AC2CI2 CF TR SLP119 DENSITY ALT 1400FT

CYGK;2013-08-30 18:00;CYGK 301800Z 20011KT 8SM BKN160 OVC240 25/22 A2988 RMK AC5CI3 SLP116 DENSITY ALT 1500FT

CYGK;2013-08-30 19:00;CYGK 301900Z 23009KT 8SM BKN160 OVC240 26/22 A2986 RMK AC6CI2 SLP110 DENSITY ALT 1600FT

CYGK;2013-08-30 19:35;CYGK 301935Z 22010KT 8SM -SHRA FEW090 BKN140 OVC240 25/22 A2985 RMK AC2AC4CI2 SLP106 DENSITY ALT 1500FT

CYGK;2013-08-30 20:00;CYGK 302000Z 20009KT 8SM FEW040 BKN130 OVC240 24/22 A2983 RMK CU1AC5CI2 SLP100 DENSITY ALT 1500FT

CYGK;2013-08-30 21:00;CYGK 302100Z 22006KT 8SM FEW040 BKN130 BKN240 25/21 A2981 RMK CU1AC6CI1 CU TR SLP095 DENSITY ALT 1600FT

CYGK;2013-08-30 22:00;CYGK 302200Z 17007KT 10SM SCT160 BKN250 24/22 A2979 RMK AC3CI3 SLP087 DENSITY ALT 1500FT

CYGK;2013-08-30 23:00;CYGK 302300Z 18005KT 10SM SCT130 SCT180 BKN250 23/21 A2978 RMK AC3AC1CI3 SLP085 DENSITY ALT 1400FT

CYGK;2013-08-31 00:00;CYGK 310000Z 17007KT 10SM BKN150 BKN250 23/22 A2977 RMK AC6CI1 SLP080 DENSITY ALT 1400FT

CYGK;2013-08-31 01:00;CYGK 310100Z 21006KT 10SM FEW080 OVC110 23/20 A2979 RMK AC1AC7 SLP085 DENSITY ALT 1500FT

CYGK;2013-08-31 01:10;CYGK 310110Z 22006KT 10SM -SHRA OVC100 23/20 A2979 RMK AC8 SLP086 DENSITY ALT 1400FT

CYGK;2013-08-31 02:00;CYGK 310200Z 28002KT 10SM -SHRA OVC100 23/21 A2979 RMK AC8 SLP086 DENSITY ALT 1300FT

CYGK;2013-08-31 03:00;CYGK 310300Z 26006KT 10SM -SHRA SCT040 OVC090 23/21 A2979 RMK SC3AC5 LAST OBS/NEXT 311000 UTC SLP085 DENSITY ALT 1400FT

CYGK;2013-08-31 10:00;CYGK 311000Z 04006KT 6SM -RA BR FEW007 OVC012 20/19 A2974 RMK SF1SC7 SLP071 DENSITY ALT 1100FT

CYGK;2013-08-31 10:28;CYGK 311028Z 05004KT 8SM -DZ FEW005 OVC011 20/19 A2975 RMK SF1SC7 SLP075 DENSITY ALT 1000FT

CYGK;2013-08-31 11:00;CYGK 311100Z 03006KT 8SM FEW005 BKN013 OVC020 20/19 A2975 RMK SF1SC4SC3 SLP075 DENSITY ALT 1100FT

CYGK;2013-08-31 11:26;CYGK 311126Z 03008KT 8SM -RA FEW005 OVC017 20/19 A2976 RMK SF1SC8 SF TR SLP076 DENSITY ALT 1100FT

CYGK;2013-08-31 12:00;CYGK 311200Z 02007KT 8SM -RA FEW004 SCT011 OVC017 20/19 A2976 RMK SF2SC2SC4 SLP078 DENSITY ALT 1100FT

CYGK;2013-08-31 12:05;CYGK 311205Z 03006KT 6SM BR BKN004 OVC017 20/19 A2976 RMK SF6SC2 INTMT -RA SLP078 DENSITY ALT 1100FT

CYGK;2013-08-31 12:26;CYGK 311226Z 04007KT 8SM SCT004 OVC016 20/19 A2977 RMK SF3SC5 INTMT -RA SLP079 DENSITY ALT 1100FT

CYGK;2013-08-31 12:39;CYGK 311239Z 04006KT 8SM FEW004 OVC016 20/19 A2976 RMK SF2SC6 SLP078 DENSITY ALT 1100FT

CYGK;2013-08-31 13:00;CYGK 311300Z 04008KT 7SM FEW006 OVC016 20/19 A2976 RMK SF2SC6 SLP078 DENSITY ALT 1100FT

CYGK;2013-08-31 14:00;CYGK 311400Z 04006KT 8SM FEW006 OVC016 20/19 A2977 RMK SF2SC6 SLP082 DENSITY ALT 1100FT

CYGK;2013-08-31 14:12;CYGK 311412Z 04007KT 9SM -RA FEW006 OVC016 20/19 A2978 RMK SF2SC6 SLP083 DENSITY ALT 1100FT

CYGK;2013-08-31 15:00;CYGK 311500Z 03007KT 8SM -RA SCT005 OVC017 20/19 A2979 RMK SF3SC5 SLP086 DENSITY ALT 1100FT

CYGK;2013-08-31 15:18;CYGK 311518Z 03010KT 8SM BKN005 OVC017 20/19 A2979 RMK SF5SC3 SLP086 DENSITY ALT 1100FT

CYGK;2013-08-31 16:00;CYGK 311600Z 02009KT 10SM -DZ BKN006 OVC015 20/19 A2979 RMK SF6SC2 SLP086 DENSITY ALT 1100FT

CYGK;2013-08-31 16:34;CYGK 311634Z 03009KT 10SM SCT007 OVC019 21/20 A2978 RMK SF4SC4 SLP083 DENSITY ALT 1200FT

CYGK;2013-08-31 17:00;CYGK 311700Z 03008KT 10SM BKN008 OVC020 21/20 A2978 RMK SF6SC2 SLP083 DENSITY ALT 1200FT

CYGK;2013-08-31 18:00;CYGK 311800Z 05007KT 10SM BKN010 OVC021 22/19 A2978 RMK SC7SC1 WND ESTD SLP083 DENSITY ALT 1300FT

CYGK;2013-08-31 19:00;CYGK 311900Z 01006KT 10SM SCT012 OVC026 22/20 A2978 RMK SC3SC5 SLP084 DENSITY ALT 1300FT

CYGK;2013-08-31 19:38;CYGK 311938Z 34005KT 10SM -SHRA SCT012 OVC035 22/20 A2978 RMK SC3SC5 SLP083 DENSITY ALT 1300FT

CYGK;2013-08-31 20:00;CYGK 312000Z 35006KT 10SM SCT009 OVC033 23/21 A2977 RMK CU4SC4 SLP081 DENSITY ALT 1400FT

CYGK;2013-08-31 21:00;CYGK 312100Z 36008KT 12SM FEW009 SCT015 BKN020 OVC031 23/20 A2978 RMK SF1SC2SC2SC3 SLP084 DENSITY ALT 1400FT

CYGK;2013-08-31 22:00;CYGK 312200Z 01005KT 12SM FEW015 OVC028 23/19 A2980 RMK SF2SC6 SLP090 DENSITY ALT 1300FT

CYGK;2013-08-31 23:00;CYGK 312300Z 35004KT 15SM FEW015 OVC040 22/20 A2981 RMK SC2SC6 SLP094 DENSITY ALT 1300FT

CYGK;2013-09-01 00:00;CYGK 010000Z 35005KT 15SM BKN037 22/20 A2981 RMK SC7 SLP095 DENSITY ALT 1200FT

CYGK;2013-09-01 01:00;CYGK 010100Z 36005KT 15SM BKN042 BKN075 21/19 A2982 RMK SC5AC2 SLP099 DENSITY ALT 1200FT

CYGK;2013-09-01 02:00;CYGK 010200Z 01005KT 15SM BKN075 20/18 A2984 RMK AC7 SLP103 DENSITY ALT 1000FT

CYGK;2013-09-01 03:00;CYGK 010300Z 35006KT 15SM BKN075 20/17 A2987 RMK AC7 LAST OBS/NEXT 011000 UTC SLP113 DENSITY ALT 900FT

CYGK;2013-09-01 10:00;CYGK 011000Z 13003KT 030V140 15SM FEW007 FEW060 15/15 A2988 RMK CF1SC1 CF TR SLP118 DENSITY ALT 400FT

CYGK;2013-09-01 11:00;CYGK 011100Z 00000KT 15SM FEW007 FEW037 16/15 A2988 RMK CF1SC2 CF TR SLP119 DENSITY ALT 400FT

CYGK;2013-09-01 12:00;CYGK 011200Z 35002KT 15SM FEW007 FEW037 FEW080 FEW250 17/17 A2988 RMK CF1SC1AC1CI1 CF TR CI TR SLP120 DENSITY ALT 600FT

CYGK;2013-09-01 13:00;CYGK 011300Z 03005KT 15SM FEW008 FEW037 FEW080 FEW250 19/17 A2988 RMK CF1SC1AC1CI1 SC TR AC TR SLP116 DENSITY ALT 900FT

CYGK;2013-09-01 14:00;CYGK 011400Z VRB03KT 15SM FEW015 FEW037 SCT250 21/18 A2988 RMK CU2SC1CI1 SC TR SLP119 DENSITY ALT 1100FT

CYGK;2013-09-01 15:00;CYGK 011500Z 16004KT 15SM SCT023 SCT250 22/18 A2988 RMK CU3CI1 SLP117 DENSITY ALT 1200FT

CYGK;2013-09-01 16:00;CYGK 011600Z 16007KT 15SM FEW030 BKN270 23/18 A2986 RMK CU2CI4 SLP111 DENSITY ALT 1300FT

CYGK;2013-09-01 17:00;CYGK 011700Z 14005KT 15SM FEW030 BKN270 24/17 A2985 RMK SF1CI4 SLP107 DENSITY ALT 1400FT

CYGK;2013-09-01 18:00;CYGK 011800Z 14008KT 15SM FEW030 SCT270 25/18 A2985 RMK CU1CI3 SLP106 DENSITY ALT 1500FT

CYGK;2013-09-01 19:00;CYGK 011900Z 16008KT 15SM FEW035 BKN230 25/18 A2983 RMK CU2CI4 SLP101 DENSITY ALT 1600FT

CYGK;2013-09-01 20:00;CYGK 012000Z 16006KT 15SM FEW035 BKN230 25/18 A2982 RMK CU1CI4 SLP097 DENSITY ALT 1600FT

CYGK;2013-09-01 21:00;CYGK 012100Z 16005KT 15SM FEW035 BKN250 25/17 A2981 RMK CU1CI5 SLP093 DENSITY ALT 1600FT

CYGK;2013-09-01 22:00;CYGK 012200Z 22002KT 15SM FEW035 BKN070 BKN250 25/17 A2980 RMK CU1AC5CI1 SLP091 DENSITY ALT 1600FT

CYGK;2013-09-01 23:00;CYGK 012300Z 10002KT 15SM FEW030 SCT070 BKN250 25/16 A2980 RMK CU1AC3CI3 CU TR SLP090 DENSITY ALT 1600FT

CYGK;2013-09-02 00:00;CYGK 020000Z 05002KT 15SM BKN070 BKN250 23/17 A2980 RMK AC5CI2 VIRGA SLP089 DENSITY ALT 1300FT

CYGK;2013-09-02 01:00;CYGK 020100Z 36004KT 15SM BKN085 BKN140 22/18 A2979 RMK AC6AC1 OCNL LTGIC DIST SW SLP088 DENSITY ALT 1200FT

CYGK;2013-09-02 02:00;CYGK 020200Z 03005KT 15SM TS BKN052 OVC090 23/18 A2979 RMK SC5AC3 OCNL LTGIC SW-NW CB SW-NW SLP086 DENSITY ALT 1400FT

CYGK;2013-09-02 02:28;CYGK 020228Z 05007KT 12SM -TSRA BKN050CB OVC070 23/19 A2979 RMK CB5AC3 OCNL LTGIC S-NW SLP087 DENSITY ALT 1400FT

CYGK;2013-09-02 03:00;CYGK 020300Z 04007KT 8SM -TSRA BKN050CB OVC080 22/20 A2979 RMK CB7AC1 OCNL LTGIC S-NW LAST OBS/NEXT 021000 UTC SLP086 DENSITY ALT 1300FT

CYGK;2013-09-02 10:00;CYGK 021000Z 14002KT 10SM SCT005 OVC013 20/20 A2974 RMK SF4SC4 SLP071 DENSITY ALT 1100FT

CYGK;2013-09-02 10:23;CYGK 021023Z 04002KT 12SM BKN007 OVC015 20/20 A2974 RMK SF6SC2 SLP071 DENSITY ALT 1100FT

CYGK;2013-09-02 11:00;CYGK 021100Z 05004KT 12SM BKN006 OVC015 20/20 A2974 RMK SF6SC2 SLP070 DENSITY ALT 1100FT

CYGK;2013-09-02 12:00;CYGK 021200Z 05004KT 12SM BKN007 OVC013 21/21 A2974 RMK SF6SC2 SLP071 DENSITY ALT 1200FT

CYGK;2013-09-02 13:00;CYGK 021300Z 06004KT 15SM BKN005 OVC020 22/21 A2973 RMK SF7SC1 SLP067 DENSITY ALT 1300FT

CYGK;2013-09-02 14:00;CYGK 021400Z 21005KT 15SM SCT005 OVC035 23/21 A2974 RMK SF4SC4 SLP069 DENSITY ALT 1500FT

CYGK;2013-09-02 15:00;CYGK 021500Z 17010KT 15SM BKN005 OVC018 23/21 A2974 RMK SF5SC3 SLP068 DENSITY ALT 1500FT

CYGK;2013-09-02 16:00;CYGK 021600Z 17009KT 15SM OVC007 23/21 A2973 RMK SF8 CIG RAG SLP065 DENSITY ALT 1400FT

CYGK;2013-09-02 16:47;CYGK 021647Z 16010KT 15SM FEW007 BKN025 OVC140 23/21 A2971 RMK SF2SC5AC1 SLP060 DENSITY ALT 1500FT

CYGK;2013-09-02 17:00;CYGK 021700Z 16011KT 15SM FEW007 SCT020 BKN140 OVC250 24/21 A2971 RMK SF2SC2AC2CI2 SLP059 DENSITY ALT 1600FT

CYGK;2013-09-02 18:00;CYGK 021800Z 16010KT 11SM BKN007 OVC250 23/21 A2971 RMK SC6CI2 SLP058 DENSITY ALT 1500FT

CYGK;2013-09-02 18:16;CYGK 021816Z 16009KT 11SM SCT007 BKN250 24/22 A2970 RMK CF3CI3 CB TOPS DIST NW - N SLP055 DENSITY ALT 1600FT

CYGK;2013-09-02 18:35;CYGK 021835Z 17010KT 12SM BKN006 OVC250 24/22 A2969 RMK CF5CI3 SLP053 DENSITY ALT 1700FT

CYGK;2013-09-02 19:00;CYGK 021900Z 17011KT 12SM SCT006 BKN012TCU BKN140 OVC250 24/22 A2968 RMK SF4TCU2AC1CI1 SLP048 DENSITY ALT 1600FT

CYGK;2013-09-02 20:00;CYGK 022000Z 17007KT 12SM SCT007 SCT012 OVC140 23/22 A2968 RMK SF4SC1AC4 SC TR SLP051 DENSITY ALT 1500FT

CYGK;2013-09-02 20:20;CYGK 022020Z 16005KT 10SM BKN005 BKN015TCU OVC250 23/22 A2967 RMK SF6TCU1CI1 SLP047 DENSITY ALT 1500FT

CYGK;2013-09-02 20:51;CYGK 022051Z 20008KT 12SM SCT005 BKN020 OVC160 23/22 A2967 RMK SF3SC3AC2 SLP045 DENSITY ALT 1600FT

CYGK;2013-09-02 21:00;CYGK 022100Z 20010KT 10SM FEW005 BKN022 OVC160 24/22 A2966 RMK SF2SC4AC2 SLP042 DENSITY ALT 1600FT

CYGK;2013-09-02 22:00;CYGK 022200Z 23008KT 12SM FEW008 SCT022 BKN160 24/22 A2964 RMK SF1SC4AC3 SF TR TCU EMBD SLP037 DENSITY ALT 1700FT

CYGK;2013-09-02 23:00;CYGK 022300Z 31009KT 15SM BKN019 BKN240 23/19 A2966 RMK SC6CI1 SLP042 DENSITY ALT 1500FT

CYGK;2013-09-03 00:00;CYGK 030000Z 30009G16KT 15SM BKN025 21/18 A2969 RMK SC7 SLP054 DENSITY ALT 1200FT

CYGK;2013-09-03 01:00;CYGK 030100Z 30007KT 15SM FEW025 SCT160 19/15 A2971 RMK SC2AC1 SLP062 DENSITY ALT 1000FT

CYGK;2013-09-03 02:00;CYGK 030200Z 27006KT 15SM FEW023 SCT160 18/15 A2973 RMK SC1AC2 SLP068 DENSITY ALT 800FT

CYGK;2013-09-03 03:00;CYGK 030300Z 26008KT 15SM FEW160 17/14 A2974 RMK AC2 LAST OBS/NEXT 031000 UTC SLP069 DENSITY ALT 800FT

CYGK;2013-09-03 10:00;CYGK 031000Z 27006KT 15SM FEW040 SCT250 15/13 A2976 RMK SC2CI1 SLP078 DENSITY ALT 500FT

CYGK;2013-09-03 11:00;CYGK 031100Z 25005KT 15SM FEW020 SCT040 15/13 A2977 RMK CF1SC2 SLP080 DENSITY ALT 500FT

CYGK;2013-09-03 12:00;CYGK 031200Z 25008G16KT 15SM FEW020 SCT040 16/14 A2977 RMK CF1SC3 SLP082 DENSITY ALT 600FT

CYGK;2013-09-03 13:00;CYGK 031300Z 26007KT 15SM FEW020 FEW040 18/14 A2978 RMK CF1SC1 SLP084 DENSITY ALT 800FT

CYGK;2013-09-03 14:00;CYGK 031400Z 27011KT 15SM SCT020 BKN045 BKN075 18/14 A2979 RMK SC3SC2AC1 SLP086 DENSITY ALT 900FT

CYGK;2013-09-03 15:00;CYGK 031500Z 24012G19KT 15SM SCT025 BKN045 BKN080 20/15 A2978 RMK CU4SC2AC1 SLP085 DENSITY ALT 1100FT

CYGK;2013-09-03 16:00;CYGK 031600Z 26011KT 15SM SCT025 BKN045 OVC080 19/14 A2979 RMK CU4SC2AC2 SLP086 DENSITY ALT 1000FT

CYGK;2013-09-03 17:00;CYGK 031700Z 26010KT 15SM SCT025 BKN080 20/14 A2979 RMK CU3AC4 SLP086 DENSITY ALT 1000FT

CYGK;2013-09-03 18:00;CYGK 031800Z 27009G16KT 15SM BKN031 20/14 A2979 RMK SC7 SLP086 DENSITY ALT 1000FT

CYGK;2013-09-03 19:00;CYGK 031900Z 27011G19KT 15SM FEW030 BKN040 20/14 A2978 RMK CU1SC6 SLP085 DENSITY ALT 1100FT

CYGK;2013-09-03 20:00;CYGK 032000Z 29011KT 15SM OVC038 20/14 A2979 RMK SC8 SLP086 DENSITY ALT 1100FT

CYGK;2013-09-03 21:00;CYGK 032100Z 27010G18KT 15SM FEW031 BKN041 20/14 A2979 RMK CU1SC6 SLP089 DENSITY ALT 1000FT

CYGK;2013-09-03 22:00;CYGK 032200Z 27011KT 15SM FEW032 OVC048 19/15 A2980 RMK CU2SC6 SLP093 DENSITY ALT 1000FT

CYGK;2013-09-03 23:00;CYGK 032300Z 27009KT 15SM FEW027 OVC043 19/15 A2982 RMK SF2SC6 SLP097 DENSITY ALT 900FT

CYGK;2013-09-04 00:00;CYGK 040000Z 27006KT 15SM FEW025 BKN035 BKN058 18/15 A2984 RMK SF1SC4SC2 SLP104 DENSITY ALT 800FT

CYGK;2013-09-04 01:00;CYGK 040100Z 25006KT 15SM FEW028 OVC058 18/15 A2987 RMK SC2SC6 SLP114 DENSITY ALT 700FT

CYGK;2013-09-04 02:00;CYGK 040200Z 26007KT 15SM SCT055 17/14 A2988 RMK SC3 SLP117 DENSITY ALT 600FT

CYGK;2013-09-04 03:00;CYGK 040300Z 26008KT 15SM FEW055 17/14 A2988 RMK SC1 LAST OBS/NEXT 041000 UTC SLP118 DENSITY ALT 600FT

CYGK;2013-09-04 10:00;CYGK 041000Z 25010G15KT 15SM FEW250 15/13 A2990 RMK CI1 SLP126 DENSITY ALT 400FT

CYGK;2013-09-04 11:00;CYGK 041100Z 25010G15KT 15SM FEW200 16/13 A2990 RMK CI2 SLP126 DENSITY ALT 400FT

CYGK;2013-09-04 12:00;CYGK 041200Z 25009KT 15SM FEW100 SCT250 17/13 A2991 RMK AC2CI1 SLP129 DENSITY ALT 500FT

CYGK;2013-09-04 13:00;CYGK 041300Z 24011KT 15SM FEW100 BKN140 18/13 A2992 RMK AC2AC5 SLP133 DENSITY ALT 700FT

CYGK;2013-09-04 14:00;CYGK 041400Z 24013G18KT 15SM FEW030 BKN100 BKN140 19/14 A2993 RMK CU1AC5ACC1 CU TR SLP136 DENSITY ALT 800FT

CYGK;2013-09-04 15:00;CYGK 041500Z 25008KT 15SM FEW030 BKN100 BKN140 20/15 A2993 RMK CF1AC5AC1 SLP135 DENSITY ALT 900FT

CYGK;2013-09-04 16:00;CYGK 041600Z 28006KT 15SM FEW030 SCT090 BKN140 BKN250 22/15 A2994 RMK CU1AC2AC2CC1 SLP138 DENSITY ALT 1100FT

CYGK;2013-09-04 17:00;CYGK 041700Z 29009KT 15SM SCT035 BKN090 BKN250 22/14 A2993 RMK CU4AC1CI1 CI TR SLP135 DENSITY ALT 1100FT

CYGK;2013-09-04 18:00;CYGK 041800Z 13002KT 15SM BKN035 BKN090 23/15 A2992 RMK CU5AC2 SLP133 DENSITY ALT 1200FT

CYGK;2013-09-04 19:00;CYGK 041900Z 18004KT 15SM BKN040 BKN090 22/15 A2991 RMK CU6AC1 SLP128 DENSITY ALT 1100FT

CYGK;2013-09-04 20:00;CYGK 042000Z 33010KT 15SM BKN044 BKN240 20/15 A2991 RMK SC7CI1 CI TR SLP129 DENSITY ALT 1000FT

CYGK;2013-09-04 21:00;CYGK 042100Z 31007KT 15SM VCSH FEW038 BKN051 20/16 A2991 RMK SC2SC5 SLP130 DENSITY ALT 900FT

CYGK;2013-09-04 22:00;CYGK 042200Z 28005KT 15SM SCT040 OVC060 20/16 A2991 RMK SC3SC5 SLP130 DENSITY ALT 900FT

CYGK;2013-09-04 22:20;CYGK 042220Z 25005KT 12SM -RA SCT045 OVC062 20/16 A2991 RMK SC3SC5 SLP129 DENSITY ALT 900FT

CYGK;2013-09-04 22:48;CYGK 042248Z 27005KT 15SM FEW042 BKN059 19/16 A2991 RMK SC2SC5 SLP128 DENSITY ALT 900FT

CYGK;2013-09-04 23:00;CYGK 042300Z 26004KT 15SM FEW042 BKN059 BKN083 19/16 A2991 RMK SC2SC4AC1 SLP129 DENSITY ALT 900FT

CYGK;2013-09-05 00:00;CYGK 050000Z 26006KT 15SM SCT047 SCT100 BKN240 19/16 A2992 RMK SC3AC1CI1 SLP131 DENSITY ALT 800FT

CYGK;2013-09-05 01:00;CYGK 050100Z 28007KT 15SM FEW045 18/16 A2993 RMK SC2 SLP135 DENSITY ALT 700FT

CYGK;2013-09-05 02:00;CYGK 050200Z 29007KT 15SM FEW100 17/15 A2993 RMK AC1 SLP135 DENSITY ALT 600FT

CYGK;2013-09-05 03:00;CYGK 050300Z 35007KT 15SM FEW083 15/14 A2994 RMK AC1 LAST OBS/NEXT 051000 UTC SLP140

CYGK;2013-09-05 10:00;CYGK 051000Z 35005KT 15SM BKN120 11/09 A3005 RMK AC6 SLP175

CYGK;2013-09-05 11:00;CYGK 051100Z 34006KT 15SM FEW120 SCT200 10/08 A3008 RMK AC1CI2 SLP186

CYGK;2013-09-05 12:00;CYGK 051200Z 35010KT 15SM FEW020 FEW120 SCT270 12/09 A3009 RMK CF1AC1CI3 CF TR SLP191

CYGK;2013-09-05 13:00;CYGK 051300Z 36008KT 15SM FEW025 FEW270 14/08 A3011 RMK CU1CI1 CU TR SLP195

CYGK;2013-09-05 14:00;CYGK 051400Z 34009KT 15SM FEW025 FEW270 15/08 A3012 RMK CU1CI1 CU TR SLP200

CYGK;2013-09-05 15:00;CYGK 051500Z 02010KT 15SM FEW035 FEW270 16/07 A3012 RMK CU1CI1 CU TR CI TR SLP201

CYGK;2013-09-05 16:00;CYGK 051600Z 34012KT 15SM SCT045 SCT270 16/06 A3013 RMK CU3CI1 SLP204

CYGK;2013-09-05 17:00;CYGK 051700Z 33011G18KT 15SM BKN050 17/06 A3014 RMK CU6 SLP207

CYGK;2013-09-05 18:00;CYGK 051800Z 32008KT 15SM BKN055 16/05 A3014 RMK CU5 SLP207

CYGK;2013-09-05 19:00;CYGK 051900Z 32006G15KT 15SM SCT055 17/04 A3014 RMK CU3 SLP209

CYGK;2013-09-05 20:00;CYGK 052000Z 35009KT 15SM FEW060 17/04 A3014 RMK CU2 SLP207

CYGK;2013-09-05 21:00;CYGK 052100Z 31012KT 15SM SCT065 16/03 A3014 RMK CU3 SLP208

CYGK;2013-09-05 22:00;CYGK 052200Z 32009KT 15SM FEW065 17/03 A3016 RMK CU2 SLP213

CYGK;2013-09-05 23:00;CYGK 052300Z 34006KT 15SM FEW065 15/02 A3017 RMK CU1 SLP216

CYGK;2013-09-06 00:00;CYGK 060000Z 33002KT 15SM FEW065 13/04 A3017 RMK SC1 SC TR SLP219

CYGK;2013-09-06 01:00;CYGK 060100Z 34005KT 15SM SKC 10/05 A3020 RMK SLP227

CYGK;2013-09-06 02:00;CYGK 060200Z 34005KT 15SM SKC 09/05 A3021 RMK SLP230

CYGK;2013-09-06 03:00;CYGK 060300Z 35005KT 15SM SKC 08/06 A3021 RMK LAST OBS/NEXT 061000 UTC SLP232

CYGK;2013-09-06 10:00;CYGK 061000Z 33002KT 15SM BKN220 06/04 A3025 RMK CI6 SLP247

CYGK;2013-09-06 11:00;CYGK 061100Z 32004KT 15SM FEW015 BKN220 05/04 A3027 RMK CF1CI6 CF TR SLP252

CYGK;2013-09-06 12:00;CYGK 061200Z 31002KT 15SM FEW020 SCT220 09/07 A3028 RMK CF1CI4 CF TR SLP254

CYGK;2013-09-06 13:00;CYGK 061300Z 29003KT 15SM FEW020 SCT220 13/09 A3027 RMK CU1CI3 CU TR SLP253

CYGK;2013-09-06 14:00;CYGK 061400Z 27006KT 15SM FEW025 FEW100 SCT220 16/06 A3027 RMK CU1AC1CI4 CU TR AC TR SLP250

CYGK;2013-09-06 15:00;CYGK 061500Z 21010KT 15SM FEW040 FEW230 17/05 A3026 RMK CU1CI2 CU TR SLP250

CYGK;2013-09-06 16:00;CYGK 061600Z 23011KT 15SM FEW040 FEW230 18/06 A3025 RMK CU1CI2 CU TR SLP245

CYGK;2013-09-06 17:00;CYGK 061700Z 23009KT 15SM FEW040 FEW120 SCT230 18/05 A3023 RMK CU1AC1CI4 CU TR AC TR SLP237 DENSITY ALT 400FT

CYGK;2013-09-06 18:00;CYGK 061800Z 22011KT 15SM FEW120 BKN250 19/05 A3021 RMK AC1CI5 SLP230 DENSITY ALT 500FT

CYGK;2013-09-06 19:00;CYGK 061900Z 23010G16KT 15SM FEW040 FEW120 BKN250 20/07 A3019 RMK CU1AC1CI5 CU TR SLP224 DENSITY ALT 600FT

CYGK;2013-09-06 20:00;CYGK 062000Z 24009G18KT 15SM FEW120 BKN250 19/08 A3016 RMK AC2CI4 SLP215 DENSITY ALT 600FT

CYGK;2013-09-06 21:00;CYGK 062100Z 23013G19KT 15SM BKN120 BKN250 19/09 A3015 RMK AC5CI2 SLP211 DENSITY ALT 500FT

CYGK;2013-09-06 22:00;CYGK 062200Z 24014G21KT 15SM BKN120 BKN140 BKN250 18/07 A3015 RMK AC5AC1CI1 SLP210 DENSITY ALT 400FT

CYGK;2013-09-06 23:00;CYGK 062300Z 22013KT 15SM BKN130 BKN250 17/09 A3013 RMK AC5CI2 SLP204 DENSITY ALT 400FT

CYGK;2013-09-07 00:00;CYGK 070000Z 22011G17KT 15SM SCT130 OVC250 17/10 A3011 RMK AC4CI4 SLP198

CYGK;2013-09-07 01:00;CYGK 070100Z 22011KT 15SM SCT130 OVC250 17/11 A3011 RMK AC4CI4 SLP196

CYGK;2013-09-07 02:00;CYGK 070200Z 22008KT 15SM FEW140 OVC250 17/12 A3010 RMK AC2CI6 SLP192

CYGK;2013-09-07 03:00;CYGK 070300Z 23006KT 15SM OVC220 17/13 A3008 RMK CI8 LAST OBS/NEXT 071000 UTC SLP186

CYGK;2013-09-07 10:00;CYGK 071000Z 22010KT 15SM BKN120 18/13 A3001 RMK AC7 SLP161 DENSITY ALT 600FT

CYGK;2013-09-07 11:00;CYGK 071100Z 22007KT 15SM FEW020 BKN130 18/14 A3001 RMK CF1AC7 CF TR SLP161 DENSITY ALT 600FT

CYGK;2013-09-07 12:00;CYGK 071200Z 22009KT 15SM BKN120 BKN180 18/14 A3000 RMK AC5AC2 SLP160 DENSITY ALT 600FT

CYGK;2013-09-07 13:00;CYGK 071300Z 22011G16KT 15SM FEW015 BKN120 BKN140 OVC200 19/15 A2999 RMK CF1AC5AC2CI1 CF TR SLP156 DENSITY ALT 700FT

CYGK;2013-09-07 14:00;CYGK 071400Z 24012G18KT 15SM FEW010 BKN120 BKN180 OVC200 20/15 A2999 RMK CF1AC5AC2CI1 CF TR SH DIST SW-W SLP154 DENSITY ALT 800FT

CYGK;2013-09-07 15:00;CYGK 071500Z 24012G21KT 15SM FEW020 BKN110 OVC180 20/16 A2998 RMK CF1AC5AC2 SLP151 DENSITY ALT 800FT

CYGK;2013-09-07 15:20;CYGK 071520Z 24012G19KT 15SM FEW020 BKN110 BKN130 OVC200 20/15 A2997 RMK CF1AC4AC2CI1 SLP149 DENSITY ALT 900FT

CYGK;2013-09-07 15:45;CYGK 071545Z 28010G16KT 15SM FEW020 BKN080 BKN110 OVC200 20/14 A2997 RMK CF1AC4AC2CI1 SLP148 DENSITY ALT 800FT

CYGK;2013-09-07 15:53;CYGK 071553Z 25009KT 15SM -SHRA FEW020 BKN090 OVC110 19/14 A2997 RMK CF1AC5AC2 SLP147 DENSITY ALT 800FT

CYGK;2013-09-07 16:00;CYGK 071600Z 25007KT 15SM -SHRA FEW020 SCT076 BKN090 OVC110 19/15 A2996 RMK CF1AC2AC4AC1 SLP145 DENSITY ALT 800FT

CYGK;2013-09-07 16:43;CYGK 071643Z 25014KT 15SM FEW015 OVC085 18/14 A2996 RMK CU1AC7 SLP145 DENSITY ALT 700FT

CYGK;2013-09-07 17:00;CYGK 071700Z 25011G18KT 15SM FEW015 BKN090 OVC200 18/14 A2995 RMK CU1AC6CI1 SH DIST N SLP143 DENSITY ALT 600FT

CYGK;2013-09-07 17:05;CYGK 071705Z 25009G17KT 15SM -RA FEW015 SCT070 OVC090 18/14 A2995 RMK CU1AC2AC5 SLP142 DENSITY ALT 600FT

CYGK;2013-09-07 18:00;CYGK 071800Z 22007KT 15SM SCT020 OVC065 19/16 A2994 RMK CU4SC4 SLP139 DENSITY ALT 700FT

CYGK;2013-09-07 19:00;CYGK 071900Z 22010KT 15SM FEW015 OVC050 19/16 A2991 RMK CU2SC6 SLP130 DENSITY ALT 800FT

CYGK;2013-09-07 20:00;CYGK 072000Z 21012G19KT 15SM SCT020 OVC040 19/16 A2990 RMK CU4SC4 SLP126 DENSITY ALT 800FT

CYGK;2013-09-07 20:31;CYGK 072031Z 22014KT 10SM -RA BKN020 OVC040 19/16 A2989 RMK ST5SC3 SLP123 DENSITY ALT 800FT

CYGK;2013-09-07 21:00;CYGK 072100Z 23011G18KT 7SM BKN018 OVC040 18/16 A2989 RMK CU6SC2 SLP122 DENSITY ALT 700FT

CYGK;2013-09-07 21:27;CYGK 072127Z 22012G17KT 4SM -RA +BLSA FEW008 OVC013 17/16 A2988 RMK SF2SC6 SLP120 DENSITY ALT 600FT

CYGK;2013-09-07 22:00;CYGK 072200Z 21009KT 3SM -RA BR FEW005 OVC010 17/16 A2988 RMK SF2SC6 SLP119 DENSITY ALT 600FT

CYGK;2013-09-07 22:36;CYGK 072236Z 23008KT 2SM -RA BR FEW002 OVC005 17/17 A2989 RMK SF2SF6 SLP121 DENSITY ALT 600FT

CYGK;2013-09-07 23:00;CYGK 072300Z 22009G15KT 2SM -RA BR OVC003 17/17 A2988 RMK SF8 SLP119 DENSITY ALT 600FT

CYGK;2013-09-07 23:27;CYGK 072327Z 25010KT 3SM BR OVC003 18/17 A2988 RMK ST8 SLP118 DENSITY ALT 700FT

CYGK;2013-09-08 00:00;CYGK 080000Z 26008KT 4SM -DZ BR OVC004 18/17 A2988 RMK SF8 SLP118 DENSITY ALT 700FT

CYGK;2013-09-08 01:00;CYGK 080100Z 27005KT 8SM OVC006 18/17 A2988 RMK SF8 SLP118 DENSITY ALT 700FT

CYGK;2013-09-08 01:45;CYGK 080145Z 29005KT 8SM FEW005 OVC010 17/17 A2987 RMK SF2SC6 SLP116 DENSITY ALT 700FT

CYGK;2013-09-08 02:00;CYGK 080200Z 28004KT 10SM BKN010 OVC020 17/17 A2987 RMK SC5SC3 SLP116 DENSITY ALT 700FT

CYGK;2013-09-08 03:00;CYGK 080300Z 28004KT 10SM SCT010 BKN040 OVC060 17/17 A2987 RMK SC3SC3SC2 LAST OBS/NEXT 081000 UTC SLP114 DENSITY ALT 600FT

CYGK;2013-09-08 10:00;CYGK 081000Z 01011KT 15SM FEW055 BKN100 14/08 A2993 RMK SC2AC3 SLP135

CYGK;2013-09-08 11:00;CYGK 081100Z 36010KT 15SM FEW015 FEW055 FEW100 SCT250 12/08 A2997 RMK CF1SC1AC1CI2 CF TR AC TR WND ESTD SLP148

CYGK;2013-09-08 12:00;CYGK 081200Z 36011G18KT 15SM FEW015 FEW055 FEW250 13/09 A2999 RMK CF1SC1CI1 CF TR SC TR SLP156

CYGK;2013-09-08 13:00;CYGK 081300Z 02012G20KT 15SM FEW020 FEW220 14/06 A3001 RMK CF1CI1 CF TR SLP163

CYGK;2013-09-08 14:00;CYGK 081400Z 01014G22KT 15SM FEW040 FEW120 FEW220 15/05 A3003 RMK CU1AC1CI2 CU TR AC TR SLP170

CYGK;2013-09-08 15:00;CYGK 081500Z 01017G24KT 15SM FEW045 FEW160 FEW220 16/02 A3004 RMK CU1AC1CI2 CU TR AC TR SLP173

CYGK;2013-09-08 16:00;CYGK 081600Z 01015G24KT 15SM FEW045 BKN250 16/04 A3005 RMK CU1CI5 CU TR SLP176

CYGK;2013-09-08 17:00;CYGK 081700Z 36015G23KT 15SM FEW045 SCT250 17/05 A3005 RMK CU1CI3 CU TR SLP177 DENSITY ALT 500FT

CYGK;2013-09-08 18:00;CYGK 081800Z 33012G22KT 15SM FEW045 SCT250 18/04 A3005 RMK CU1CI4 CU TR SLP178 DENSITY ALT 500FT

CYGK;2013-09-08 19:00;CYGK 081900Z 36013G19KT 15SM FEW050 FEW250 19/05 A3005 RMK CU1CI2 CU TR SLP175 DENSITY ALT 600FT

CYGK;2013-09-08 20:00;CYGK 082000Z 35016KT 15SM FEW050 FEW250 18/04 A3004 RMK CU1CI2 CU TR SLP174 DENSITY ALT 600FT

CYGK;2013-09-08 21:00;CYGK 082100Z 34011KT 15SM FEW050 FEW250 18/05 A3005 RMK CU1CI1 CU TR SLP178 DENSITY ALT 500FT

CYGK;2013-09-08 22:00;CYGK 082200Z 34012KT 15SM FEW050 FEW250 18/04 A3007 RMK SC1CI1 SC TR SLP183 DENSITY ALT 400FT

CYGK;2013-09-08 23:00;CYGK 082300Z 02004KT 15SM FEW050 FEW250 16/05 A3008 RMK SC1CI1 SC TR SLP188

CYGK;2013-09-09 00:00;CYGK 090000Z 03004KT 15SM FEW100 FEW250 15/05 A3010 RMK AC1CI1 AC TR SLP193

CYGK;2013-09-09 01:00;CYGK 090100Z 05004KT 15SM FEW250 12/06 A3011 RMK CI1 SLP199

CYGK;2013-09-09 02:00;CYGK 090200Z 05004KT 15SM FEW250 11/06 A3012 RMK CI1 SLP201

CYGK;2013-09-09 03:00;CYGK 090300Z 05003KT 15SM FEW250 09/07 A3011 RMK CI1 LAST OBS/NEXT 091000UTC SLP199

CYGK;2013-09-09 10:00;CYGK 091000Z 18011KT 15SM FEW035 SCT250 15/08 A3015 RMK CF1CI4 CF TR SLP210

CYGK;2013-09-09 11:00;CYGK 091100Z 18011KT 15SM FEW035 BKN250 15/09 A3016 RMK CF1CI7 CF TR SLP212

CYGK;2013-09-09 12:00;CYGK 091200Z 18011G17KT 15SM SCT029 BKN250 17/11 A3016 RMK SC4CI3 SLP212

CYGK;2013-09-09 13:00;CYGK 091300Z 19015KT 15SM SCT033 BKN250 17/11 A3015 RMK SC3CI4 SLP210

CYGK;2013-09-09 14:00;CYGK 091400Z 20013G21KT 15SM SCT026 BKN250 18/11 A3016 RMK SC3CI4 SLP215 DENSITY ALT 400FT

CYGK;2013-09-09 15:00;CYGK 091500Z 18017KT 15SM FEW025 BKN250 18/10 A3015 RMK SC1CI6 SLP211 DENSITY ALT 400FT

CYGK;2013-09-09 16:00;CYGK 091600Z 19014G19KT 15SM FEW025 FEW130 BKN250 19/10 A3014 RMK SC1AC1CI6 SC TR AC TR SLP209 DENSITY ALT 500FT

CYGK;2013-09-09 17:00;CYGK 091700Z 17014KT 15SM FEW025 FEW180 SCT220 BKN250 18/10 A3014 RMK SC1AC1CC3CI3 SC TR SLP206 DENSITY ALT 500FT

CYGK;2013-09-09 18:00;CYGK 091800Z 17010KT 15SM FEW180 BKN220 19/11 A3012 RMK AC2CC5 SLP200 DENSITY ALT 500FT

CYGK;2013-09-09 19:00;CYGK 091900Z 17011KT 15SM FEW180 SCT230 BKN250 20/10 A3008 RMK AC2CC2CI3 SLP189 DENSITY ALT 700FT

CYGK;2013-09-09 20:00;CYGK 092000Z 18008KT 15SM FEW120 SCT160 BKN220 20/10 A3006 RMK AC2AC1CI4 SLP182 DENSITY ALT 700FT

CYGK;2013-09-09 21:00;CYGK 092100Z 19011KT 15SM FEW120 FEW160 BKN220 20/10 A3004 RMK AC1AC1CI5 SLP174 DENSITY ALT 800FT

CYGK;2013-09-09 22:00;CYGK 092200Z 19011KT 15SM FEW150 BKN250 20/12 A3003 RMK AC2CI5 SLP171 DENSITY ALT 800FT

CYGK;2013-09-09 23:00;CYGK 092300Z 20006KT 15SM FEW150 BKN250 19/13 A3002 RMK AC2CI5 SLP165 DENSITY ALT 700FT

CYGK;2013-09-10 00:00;CYGK 100000Z 21004KT 15SM FEW150 BKN250 18/14 A3000 RMK AC2CI5 SLP157 DENSITY ALT 600FT

CYGK;2013-09-10 01:00;CYGK 100100Z 17005KT 15SM BKN240 19/15 A2999 RMK CI6 SLP155 DENSITY ALT 700FT

CYGK;2013-09-10 02:00;CYGK 100200Z 15005KT 15SM FEW120 SCT240 18/14 A2998 RMK AC2CI2 SLP152 DENSITY ALT 600FT

CYGK;2013-09-10 03:00;CYGK 100300Z 19011KT 15SM SCT220 20/17 A2997 RMK CI3 LAST OBS/NEXT 101000UTC SLP147 DENSITY ALT 900FT

CYGK;2013-09-10 10:00;CYGK 101000Z 17014KT 10SM -TSRA SCT024CB OVC046 19/18 A2992 RMK CB3SC5 OCNL LTGIC ALQDS SLP131 DENSITY ALT 800FT

CYGK;2013-09-10 10:12;CYGK 101012Z 16015KT 6SM TSRA BR BKN030CB OVC045 19/18 A2989 RMK CB5SC3 FQT LTGCCIC ALQDS SLP121 DENSITY ALT 900FT

CYGK;2013-09-10 10:26;CYGK 101026Z 16014G21KT 1 1/2SM TSRA BR OVC028CB 19/18 A2989 RMK CB8 CONTUS LTGCCCGIC ALQDS SLP120 DENSITY ALT 900FT

CYGK;2013-09-10 10:34;CYGK 101034Z 25008G19KT 160V250 3/4SM +TSRA BR OVC020CB 19/18 A2997 RMK CB8 CONTUS LTGCGCCIC ALQDS PRESRR SLP147 DENSITY ALT 800FT

CYGK;2013-09-10 10:39;CYGK 101039Z 21003KT 170V290 3/4SM TSRA BR BKN009 OVC020CB 19/18 A2995 RERA RMK SF5CB3 CONTUS LTGCCCGIC ALQDS PRESRR SLP141 DENSITY ALT 800FT

CYGK;2013-09-10 10:44;CYGK 101044Z 17013KT 160V290 2SM TSRA BR BKN008 OVC020CB 19/19 A2992 RERA RMK SF6CB2 CONTUS LTGCCCGIC ALQDS SLP133 DENSITY ALT 800FT

CYGK;2013-09-10 10:51;CYGK 101051Z 17017KT 2 1/2SM TSRA BR BKN005 OVC016CB 19/19 A2988 RERA RMK SF6CB2 FRQ LTGCCIC ALQDS PRESFR SLP119 DENSITY ALT 800FT

CYGK;2013-09-10 11:00;CYGK 101100Z 18018G23KT 3SM -TSRA BR BKN005 BKN010 OVC016CB 19/19 A2987 RERA RMK SF5SC1CB2 FRQ LTGCCIC E SLP116 DENSITY ALT 900FT

CYGK;2013-09-10 11:05;CYGK 101105Z 17018G25KT 4SM -TSRA BR SCT005 OVC015 19/19 A2987 RMK SF4SC4 CB ASOCTD E OCNL LTGCCCGIC E-SE SLP116 DENSITY ALT 900FT

CYGK;2013-09-10 11:27;CYGK 101127Z 18017KT 5SM -SHRA BR SCT007 OVC015 20/19 A2986 RETS RMK SF4SC4 PRESFR SLP111 DENSITY ALT 900FT

CYGK;2013-09-10 12:00;CYGK 101200Z 20015G24KT 8SM FEW007 BKN013 OVC150 21/20 A2991 RMK SF1SC5AC2 PRESRR SLP129 DENSITY ALT 1000FT

CYGK;2013-09-10 12:13;CYGK 101213Z 20016G23KT 8SM FEW013 BKN038 OVC160 21/20 A2992 RMK SF2SC3AC3 PRESRR SLP133 DENSITY ALT 1000FT

CYGK;2013-09-10 13:00;CYGK 101300Z 22010G16KT 10SM BKN020 OVC180 21/20 A2992 RMK SC6AC2 SLP132 DENSITY ALT 1000FT

CYGK;2013-09-10 14:00;CYGK 101400Z 21008KT 10SM BKN023 OVC190 22/21 A2993 RMK SC7AC1 SLP134 DENSITY ALT 1100FT

CYGK;2013-09-10 15:00;CYGK 101500Z 22012G19KT 10SM FEW012 BKN019 OVC200 23/21 A2993 RMK SF1SC7CI1 SF TR SLP134 DENSITY ALT 1200FT

CYGK;2013-09-10 16:00;CYGK 101600Z 19014G20KT 10SM FEW012 BKN020 BKN200 23/21 A2993 RMK SF1SC6CI1 SF TR SLP133 DENSITY ALT 1200FT

CYGK;2013-09-10 17:00;CYGK 101700Z 19012KT 8SM FEW012 OVC022 22/21 A2992 RMK SF1SC8 SF TR SLP131 DENSITY ALT 1200FT

CYGK;2013-09-10 18:00;CYGK 101800Z 19012KT 7SM BKN024 OVC100 23/21 A2992 RMK SC7AC1 BR SLP131 DENSITY ALT 1200FT

CYGK;2013-09-10 19:00;CYGK 101900Z 18011KT 7SM FEW024 24/21 A2991 RMK SC2 SLP127 DENSITY ALT 1400FT

CYGK;2013-09-10 20:00;CYGK 102000Z 18010KT 5SM HZ FEW025 24/22 A2991 RMK CU1 SLP127 DENSITY ALT 1400FT

CYGK;2013-09-10 20:33;CYGK 102033Z 23012G18KT 5SM HZ FEW025 28/23 A2991 RMK CU1 WSHFT 2021 SLP127 DENSITY ALT 1800FT

CYGK;2013-09-10 21:00;CYGK 102100Z 22013G18KT 5SM HZ SKC 29/23 A2990 RMK SLP125 DENSITY ALT 1900FT

CYGK;2013-09-10 22:00;CYGK 102200Z 18009KT 6SM HZ FEW100 FEW270 24/22 A2991 RMK AC1CI1 SLP127 DENSITY ALT 1400FT

CYGK;2013-09-10 23:00;CYGK 102300Z 19009KT 6SM BR FEW100 FEW270 23/21 A2991 RMK AC1CI1 SLP127 DENSITY ALT 1200FT

CYGK;2013-09-11 00:00;CYGK 110000Z 17008KT 6SM BR FEW270 22/21 A2992 RMK CI2 SLP130 DENSITY ALT 1200FT

CYGK;2013-09-11 01:00;CYGK 110100Z 17007KT 6SM BR FEW270 22/21 A2993 RMK CI1 SLP134 DENSITY ALT 1100FT

CYGK;2013-09-11 02:00;CYGK 110200Z 19006KT 8SM FEW140 SCT270 22/21 A2994 RMK AC2CI1 SLP137 DENSITY ALT 1100FT

CYGK;2013-09-11 03:00;CYGK 110300Z 18005KT 8SM FEW270 22/21 A2994 RMK CI1 LAST OBS/NEXT 111000UTC SLP138 DENSITY ALT 1100FT

CYGK;2013-09-11 10:00;CYGK 111000Z 23005KT 10SM SKC 22/20 A2997 RMK SLP148 DENSITY ALT 1000FT

CYGK;2013-09-11 11:00;CYGK 111100Z 18006KT 5SM BR FEW250 21/20 A2999 RMK CI1 SLP154 DENSITY ALT 1000FT

CYGK;2013-09-11 12:00;CYGK 111200Z 23007KT 5SM BR FEW250 23/22 A3000 RMK CI1 SLP157 DENSITY ALT 1200FT

CYGK;2013-09-11 13:00;CYGK 111300Z 19008KT 5SM BR FEW250 25/23 A2999 RMK CI1 SLP154 DENSITY ALT 1400FT

CYGK;2013-09-11 14:00;CYGK 111400Z 18010KT 5SM BR FEW100 SCT250 24/22 A2999 RMK ACC1CI2 SLP154 DENSITY ALT 1300FT

CYGK;2013-09-11 15:00;CYGK 111500Z 19007KT 5SM BR SCT160 SCT250 26/23 A2997 RMK AC3CI1 ACC ASOCTD SLP149 DENSITY ALT 1500FT

CYGK;2013-09-11 16:00;CYGK 111600Z 19010KT 5SM HZ FEW140 SCT180 BKN250 26/23 A2997 RMK AC2AC2CI3 SLP149 DENSITY ALT 1500FT

CYGK;2013-09-11 17:00;CYGK 111700Z 21009KT 5SM HZ FEW140 FEW250 26/22 A2996 RMK AC2CI1 CI TR SLP144 DENSITY ALT 1500FT

CYGK;2013-09-11 18:00;CYGK 111800Z 19012G17KT 5SM HZ FEW140 SCT250 25/22 A2995 RMK AC2CI1 SLP141 DENSITY ALT 1500FT

CYGK;2013-09-11 19:00;CYGK 111900Z 23013KT 5SM HZ FEW030 BKN150 BKN250 29/23 A2994 RMK CU1AC4CI1 TCU ASOCTD N SLP137 DENSITY ALT 1900FT

CYGK;2013-09-11 20:00;CYGK 112000Z 23012KT 10SM FEW035TCU SCT150 BKN250 29/22 A2991 RMK TCU1AC3CI1 TCU N-NE CB TOPS DIST NW SLP126 DENSITY ALT 2000FT

CYGK;2013-09-11 21:00;CYGK 112100Z 23014G20KT 10SM FEW040CB SCT150 BKN250 29/22 A2988 RMK CB1AC2CI2 CB DIST NW-N DIST S SLP117 DENSITY ALT 2000FT

CYGK;2013-09-11 22:00;CYGK 112200Z 25010KT 10SM FEW040CB BKN150 BKN250 27/22 A2990 RMK CB1AC4CI2 CB DIST NE SLP123 DENSITY ALT 1700FT

CYGK;2013-09-11 23:00;CYGK 112300Z 24007KT 10SM FEW045TCU SCT160 BKN250 26/22 A2992 RMK TCU1AC3CI3 TCU DIST N NE SLP130 DENSITY ALT 1500FT

CYGK;2013-09-12 00:00;CYGK 120000Z 22007KT 10SM FEW050CB FEW100 BKN170 BKN250 25/21 A2990 RMK CB1AC1AC4CI1 CB DIST NE FRQ LTG DIST NE SLP125 DENSITY ALT 1500FT

CYGK;2013-09-12 01:00;CYGK 120100Z 17013KT 9SM BKN070 OVC160 23/21 A2991 RMK AC7AC1 SLP129 DENSITY ALT 1300FT

CYGK;2013-09-12 02:00;CYGK 120200Z 18013KT 12SM BKN050 BKN170 23/21 A2989 RMK SC5AC2 CB ASOCTD OCNL LTGIC SW PRESFR SLP122 DENSITY ALT 1200FT

CYGK;2013-09-12 02:06;CYGK 120206Z 18014KT 12SM TS SCT050CB BKN180 22/21 A2990 RMK CB4AC3 FRQ LTGCCCG NE OCNL LTGCC SW SLP123 DENSITY ALT 1200FT

CYGK;2013-09-12 02:27;CYGK 120227Z 19016G25KT 12SM BKN050CB BKN120 22/21 A2991 RMK CB5AC2 FRQ LTGCCCG SE-S OCNL LTGCG N-NE SLP126 DENSITY ALT 1200FT

CYGK;2013-09-12 02:47;CYGK 120247Z 20016G23KT 8SM -SHRA BKN066CB BKN140 22/21 A2991 RETS RMK CB5AC2 OCNL LTGIC E SLP126 DENSITY ALT 1200FT

CYGK;2013-09-12 03:00;CYGK 120300Z 22012G19KT 10SM BKN060 BKN140 22/21 A2990 RETS RMK SC5AC2 CB ASOCTD OCNL LTGCG E LAST OBS/NEXT 121000 UTC SLP123 DENSITY ALT 1200FT

CYGK;2013-09-12 10:00;CYGK 121000Z 21007KT 6SM -RA BR FEW002 SCT010 OVC040 21/20 A2984 RMK SF1CU3SC4 SLP102 DENSITY ALT 1100FT

CYGK;2013-09-12 10:32;CYGK 121032Z 23006KT 4SM -RA BR SCT002 OVC010 21/20 A2984 RMK ST3CU5 SLP103 DENSITY ALT 1100FT

CYGK;2013-09-12 11:00;CYGK 121100Z 27006KT 4SM -RA BR BKN003 OVC010 21/20 A2984 RMK SF6SC2 SLP103 DENSITY ALT 1100FT

CYGK;2013-09-12 11:51;CYGK 121151Z 23007KT 2 1/2SM -RA BR BKN003 OVC010 21/20 A2984 RMK FG2SF3SC3 SLP104 DENSITY ALT 1100FT

CYGK;2013-09-12 12:00;CYGK 121200Z 22007KT 2 1/2SM -RA BR SCT003 OVC005 21/20 A2983 RMK FG2SF2SF4 SLP102 DENSITY ALT 1100FT

CYGK;2013-09-12 12:21;CYGK 121221Z 23006KT 6SM BR SCT005 BKN025 OVC040 20/20 A2982 RMK SF3CU3SC2 SLP098 DENSITY ALT 1100FT

CYGK;2013-09-12 13:00;CYGK 121300Z 23007KT 8SM BKN004 OVC025 21/20 A2982 RMK SF5SC3 SLP098 DENSITY ALT 1100FT

CYGK;2013-09-12 14:00;CYGK 121400Z 22006KT 8SM -RA BKN005 OVC015 21/20 A2981 RMK SF6SC2 SLP093 DENSITY ALT 1100FT

CYGK;2013-09-12 14:38;CYGK 121438Z 22008KT 8SM OVC007 21/21 A2980 RMK SF8 SLP090 DENSITY ALT 1200FT

CYGK;2013-09-12 15:00;CYGK 121500Z 23009KT 8SM OVC007 21/20 A2979 RMK SF8 SLP087 DENSITY ALT 1200FT

CYGK;2013-09-12 16:00;CYGK 121600Z 22009KT 10SM SCT006 OVC015 22/20 A2977 RMK SF3SC5 SLP082 DENSITY ALT 1300FT

CYGK;2013-09-12 16:09;CYGK 121609Z 23008KT 10SM OVC008 22/20 A2977 RMK SC8 SLP082 DENSITY ALT 1300FT

CYGK;2013-09-12 17:00;CYGK 121700Z 22012KT 8SM BKN008 OVC018 22/20 A2977 RMK SF5SC3 SLP078 DENSITY ALT 1300FT

CYGK;2013-09-12 18:00;CYGK 121800Z 23011G17KT 8SM SCT009 OVC160 22/20 A2974 RMK SF3AS5 SLP072 DENSITY ALT 1300FT

CYGK;2013-09-12 18:40;CYGK 121840Z 22009KT 7SM BKN008 BKN040 OVC160 22/20 A2974 RMK SF6SC1AC1 SLP068 DENSITY ALT 1400FT

CYGK;2013-09-12 19:00;CYGK 121900Z 23013KT 7SM SCT008 BKN040 OVC200 22/20 A2972 RMK SF3SC2CS3 SLP064 DENSITY ALT 1400FT

CYGK;2013-09-12 20:00;CYGK 122000Z 23010KT 8SM FEW018 FEW038 SCT160 OVC220 22/20 A2971 RMK CF1SC1AC1CS5 TCU ASOCTD DIST W SLP061 DENSITY ALT 1400FT

CYGK;2013-09-12 21:00;CYGK 122100Z 25009KT 8SM FEW040CB SCT160 OVC200 22/20 A2969 RMK CB1AC2CS5 CB W SLP052 DENSITY ALT 1400FT

CYGK;2013-09-12 22:00;CYGK 122200Z 26008KT 9SM FEW015 BKN110 OVC200 22/20 A2968 RMK CF1AC5CS2 SLP050 DENSITY ALT 1400FT

CYGK;2013-09-12 23:00;CYGK 122300Z 27008KT 15SM FEW020TCU BKN110 BKN220 20/18 A2968 RMK TCU1AC5CI1 TCU DIST N-SE SLP052 DENSITY ALT 1200FT

CYGK;2013-09-13 00:00;CYGK 130000Z 24005KT 15SM FEW030TCU SCT110 BKN220 19/18 A2969 RMK TCU1AC3CI2 SLP055 DENSITY ALT 1100FT

CYGK;2013-09-13 01:00;CYGK 130100Z 27006KT 15SM FEW120 FEW220 19/17 A2970 RMK AC1CI1 SLP057 DENSITY ALT 1000FT

CYGK;2013-09-13 02:00;CYGK 130200Z 34008KT 15SM SCT055 18/16 A2970 RMK SC4 SLP057 DENSITY ALT 900FT

CYGK;2013-09-13 03:00;CYGK 130300Z 36008KT 15SM FEW032 BKN054 18/15 A2971 RMK SC2SC3 LAST OBS/NEXT 131000 UTC SLP060 DENSITY ALT 900FT

CYGK;2013-09-13 10:00;CYGK 131000Z 35015G22KT 15SM BKN018 BKN035 12/09 A2980 RMK SC5SC2 SLP090

CYGK;2013-09-13 11:00;CYGK 131100Z 35013G19KT 15SM OVC017 11/08 A2982 RMK SC8 SLP097

CYGK;2013-09-13 12:00;CYGK 131200Z 35017G22KT 15SM OVC020 11/07 A2983 RMK SC8 SLP102

CYGK;2013-09-13 13:00;CYGK 131300Z 36011G20KT 15SM BKN018 OVC030 11/07 A2985 RMK SC7SC1 SLP109

CYGK;2013-09-13 14:00;CYGK 131400Z 01013G18KT 15SM OVC020 11/07 A2987 RMK SC8 SLP117

CYGK;2013-09-13 15:00;CYGK 131500Z 33014KT 15SM BKN022 OVC035 11/07 A2987 RMK SC7SC1 SLP117

CYGK;2013-09-13 16:00;CYGK 131600Z 36011G22KT 15SM BKN020 OVC035 12/08 A2988 RMK SC6SC2 SLP119

CYGK;2013-09-13 17:00;CYGK 131700Z 34015KT 15SM OVC020 12/07 A2989 RMK SC8 SLP123

CYGK;2013-09-13 18:00;CYGK 131800Z 34014KT 15SM OVC025 12/07 A2989 RMK SC8 SLP124

CYGK;2013-09-13 19:00;CYGK 131900Z 36011G17KT 15SM OVC025 12/07 A2990 RMK SC8 SLP125

CYGK;2013-09-13 20:00;CYGK 132000Z 35010KT 15SM OVC026 12/07 A2991 RMK SC8 SLP130

CYGK;2013-09-13 21:00;CYGK 132100Z 35012KT 15SM OVC027 12/07 A2993 RMK SC8 SLP135

CYGK;2013-09-13 22:00;CYGK 132200Z 35012G19KT 15SM OVC026 11/06 A2994 RMK SC8 SLP140

CYGK;2013-09-13 23:00;CYGK 132300Z 35011KT 15SM OVC033 11/06 A2996 RMK SC8 SLP147

CYGK;2013-09-14 00:00;CYGK 140000Z 35011G17KT 15SM OVC029 10/06 A2998 RMK SC8 SLP155

CYGK;2013-09-14 01:00;CYGK 140100Z 34008KT 15SM SCT026 BKN036 OVC100 10/06 A3000 RMK SC3SC4AC1 SLP161

CYGK;2013-09-14 02:00;CYGK 140200Z 34010KT 15SM OVC032 10/05 A3001 RMK SC8 SLP163

CYGK;2013-09-14 03:00;CYGK 140300Z 33009KT 15SM BKN031 OVC100 10/05 A3001 RMK SC7AC1 LAST OBS/NEXT 141000 UTC SLP164

CYGK;2013-09-14 10:00;CYGK 141000Z 33006KT 15SM BKN058 08/05 A3003 RMK SC7 SLP171

CYGK;2013-09-14 11:00;CYGK 141100Z 32004KT 15SM FEW020 FEW055 08/05 A3005 RMK CF1SC2 CF TR SLP177

CYGK;2013-09-14 12:00;CYGK 141200Z 33006KT 15SM FEW020 FEW055 09/05 A3007 RMK CF1SC1 CF TR SC TR SLP183

CYGK;2013-09-14 13:00;CYGK 141300Z 34007KT 15SM FEW020 FEW055 10/05 A3008 RMK CF1SC1 CF TR SC TR SLP187

CYGK;2013-09-14 14:00;CYGK 141400Z 01004KT 15SM FEW020 FEW055 FEW250 11/06 A3009 RMK CF1SC1CI1 CF TR SC TR CI TR SLP190

CYGK;2013-09-14 15:00;CYGK 141500Z 35005KT 15SM FEW025 13/07 A3008 RMK CF1 CF TR SLP187

CYGK;2013-09-14 16:00;CYGK 141600Z VRB02KT 15SM FEW040 15/07 A3007 RMK CU1 SLP184

CYGK;2013-09-14 17:00;CYGK 141700Z 28003KT 15SM FEW045 16/05 A3007 RMK FU1 SLP184

CYGK;2013-09-14 18:00;CYGK 141800Z 23010KT 15SM FEW045 16/06 A3005 RMK SC2 SLP178

CYGK;2013-09-14 19:00;CYGK 141900Z 24010G16KT 15SM FEW055 17/07 A3004 RMK CF1 SLP173 DENSITY ALT 400FT

CYGK;2013-09-14 20:00;CYGK 142000Z 24012KT 15SM FEW050 17/07 A3003 RMK CF1 SLP171 DENSITY ALT 400FT

CYGK;2013-09-14 21:00;CYGK 142100Z 24010KT 15SM FEW050 17/06 A3004 RMK SC1 SLP173 DENSITY ALT 400FT

CYGK;2013-09-14 22:00;CYGK 142200Z 24013G19KT 15SM FEW250 16/08 A3005 RMK CI1 SLP176

CYGK;2013-09-14 23:00;CYGK 142300Z 22013G19KT 15SM FEW055 FEW250 14/09 A3006 RMK CF1CC1 CF TR SLP179

CYGK;2013-09-15 00:00;CYGK 150000Z 24011KT 15SM FEW250 14/09 A3007 RMK CI1 SLP183

CYGK;2013-09-15 01:00;CYGK 150100Z 26008KT 15SM SKC 14/09 A3009 RMK SLP190

CYGK;2013-09-15 02:00;CYGK 150200Z 26008KT 15SM SKC 13/09 A3008 RMK SLP189

CYGK;2013-09-15 03:00;CYGK 150300Z 25006KT 15SM FEW250 13/08 A3009 RMK CI1 LAST OBS/NEXT 151000 UTC SLP190

CYGK;2013-09-15 10:00;CYGK 151000Z 27005KT 15SM FEW015 FEW250 11/11 A3009 RMK CU1CI2 CU TR SLP190

CYGK;2013-09-15 11:00;CYGK 151100Z 27003KT 15SM MIFG FEW015 FEW150 BKN240 BKN280 12/11 A3010 RMK CU1AC2CI3CI1 CU TR S OVR LK SLP194

CYGK;2013-09-15 12:00;CYGK 151200Z 25003KT 15SM FEW015 SCT220 BKN250 13/10 A3010 RMK CU1CI4CI3 CU TR S OVR LK SLP195

CYGK;2013-09-15 13:00;CYGK 151300Z 23008KT 15SM FEW015 BKN210 BKN250 16/13 A3011 RMK CU1CI4CI2 SLP196

CYGK;2013-09-15 14:00;CYGK 151400Z 23013KT 15SM FEW020 SCT210 BKN250 18/14 A3011 RMK CU1CI3CI4 CU TR SLP198 DENSITY ALT 400FT

CYGK;2013-09-15 15:00;CYGK 151500Z 24014G21KT 15SM FEW020 BKN220 18/12 A3011 RMK CF1CI6 SLP197 DENSITY ALT 400FT

CYGK;2013-09-15 16:00;CYGK 151600Z 24011G17KT 15SM FEW020 SCT170 BKN200 19/13 A3009 RMK CU1AC2CS4 SLP189 DENSITY ALT 500FT

CYGK;2013-09-15 17:00;CYGK 151700Z 22013KT 15SM FEW025 BKN180 OVC250 19/12 A3008 RMK CF1AC5CI2 SLP188 DENSITY ALT 600FT

CYGK;2013-09-15 18:00;CYGK 151800Z 22013G18KT 15SM FEW030 OVC160 19/11 A3006 RMK SC1AC7 SLP181 DENSITY ALT 600FT

CYGK;2013-09-15 19:00;CYGK 151900Z 23015KT 15SM FEW030 OVC160 18/12 A3006 RMK CF1AC7 SLP179 DENSITY ALT 600FT

CYGK;2013-09-15 20:00;CYGK 152000Z 22012KT 15SM FEW030 OVC140 18/12 A3004 RMK SC1AC7 SLP173 DENSITY ALT 600FT

CYGK;2013-09-15 21:00;CYGK 152100Z 23013G18KT 15SM FEW030 OVC140 18/12 A3005 RMK SC1AC7 SLP178 DENSITY ALT 600FT

CYGK;2013-09-15 22:00;CYGK 152200Z 23011KT 15SM FEW030 OVC100 18/13 A3005 RMK SC1AC7 SLP176 DENSITY ALT 500FT

CYGK;2013-09-15 22:18;CYGK 152218Z 25009KT 15SM -RA FEW030 OVC090 18/14 A3005 RMK SC1AC7 SLP177 DENSITY ALT 500FT

CYGK;2013-09-15 23:04;CYGK 152304Z 27006KT 15SM -SHRA FEW025 OVC080 17/14 A3005 RMK CU2AC6 SLP175 DENSITY ALT 500FT

CYGK;2013-09-15 23:24;CYGK 152324Z 26012G18KT 4SM -RA BR SCT020 OVC040 16/14 A3006 RMK CU4SC4 SLP179

CYGK;2013-09-16 00:00;CYGK 160000Z 25009KT 6SM -RA +BLSA SCT025 OVC070 15/13 A3006 RMK CU3AC5 SLP179

CYGK;2013-09-16 01:00;CYGK 160100Z 28004KT 8SM SCT025 OVC070 15/14 A3006 RMK CU3AC5 SLP180

CYGK;2013-09-16 02:00;CYGK 160200Z 30007KT 6SM -RA BR SCT007 BKN010 OVC020 15/14 A3006 RMK SF3SC3SC2 SLP180

CYGK;2013-09-16 03:00;CYGK 160300Z 28007KT 6SM -RA BR SCT010 OVC060 14/12 A3007 RMK CU3SC5 LAST OBS/NEXT 161000 UTC SLP183

CYGK;2013-09-16 10:00;CYGK 161000Z 36010G16KT 15SM BKN009 OVC022 10/09 A3010 RMK SF7SC1 SLP195

CYGK;2013-09-16 10:44;CYGK 161044Z 02012KT 15SM SCT009 BKN022 OVC043 10/08 A3013 RMK SF4SC3SC1 SLP204

CYGK;2013-09-16 11:00;CYGK 161100Z 02014G20KT 15SM BKN010 BKN022 OVC060 09/07 A3014 RMK SF5SC2SC1 SLP206

CYGK;2013-09-16 11:23;CYGK 161123Z 01010KT 15SM -SHRA SCT011 BKN027 OVC040 09/06 A3015 RMK SF4SC2SC2 SLP212

CYGK;2013-09-16 11:49;CYGK 161149Z 01015G21KT 15SM SCT011 BKN027 OVC040 08/06 A3016 RMK SF4SC3SC1 SLP214

CYGK;2013-09-16 12:00;CYGK 161200Z 01012G21KT 15SM BKN013 BKN027 OVC040 08/06 A3017 RMK SC5SC2SC1 SLP216

CYGK;2013-09-16 12:15;CYGK 161215Z 01012G20KT 15SM -SHRA BKN013 OVC030 08/05 A3017 RMK SC5SC3 SLP217

CYGK;2013-09-16 12:41;CYGK 161241Z 02013KT 15SM BKN014 OVC030 08/05 A3019 RMK SC7SC1 SH DIST NE-E PRESRR SLP223

CYGK;2013-09-16 13:04;CYGK 161304Z 01014KT 15SM -SHRA BKN015 BKN032 07/05 A3019 RMK SC6SC1 SLP226

CYGK;2013-09-16 13:50;CYGK 161350Z 01012KT 15SM FEW015 BKN038 07/05 A3022 RMK SC2SC5 SLP235

CYGK;2013-09-16 14:00;CYGK 161400Z 02011G21KT 15SM FEW015 BKN040 07/05 A3022 RMK SC2SC5 SLP236

CYGK;2013-09-16 15:00;CYGK 161500Z 01014G20KT 15SM FEW020 BKN060 09/04 A3024 RMK SC1SC6 SLP241

CYGK;2013-09-16 16:00;CYGK 161600Z 02010G20KT 15SM BKN028 BKN060 11/05 A3025 RMK SC6SC1 SC TR SLP246

CYGK;2013-09-16 17:00;CYGK 161700Z 02016KT 15SM SCT032 SCT250 12/05 A3025 RMK SC3CI1 SLP247

CYGK;2013-09-16 18:00;CYGK 161800Z 02012G19KT 15SM SCT037 12/04 A3026 RMK SC3 SLP249

CYGK;2013-09-16 19:00;CYGK 161900Z 35011KT 15SM FEW040 13/03 A3026 RMK SC1 SLP250

CYGK;2013-09-16 20:00;CYGK 162000Z 35011G16KT 15SM FEW040 13/03 A3027 RMK SC1 WSHFT 1954 SLP251

CYGK;2013-09-16 21:00;CYGK 162100Z 34012KT 15SM FEW040 13/02 A3028 RMK SC1 SLP254

CYGK;2013-09-16 22:00;CYGK 162200Z 36010G16KT 15SM FEW040 12/02 A3030 RMK SC1 SC TR SLP261

CYGK;2013-09-16 23:00;CYGK 162300Z 01006KT 15SM FEW040 10/02 A3032 RMK SC1 SC TR SLP269

CYGK;2013-09-17 00:00;CYGK 170000Z 35005KT 15SM SKC 08/03 A3034 RMK SLP276

CYGK;2013-09-17 01:00;CYGK 170100Z 33005KT 15SM SKC 07/03 A3036 RMK SLP283

CYGK;2013-09-17 02:00;CYGK 170200Z 34005KT 15SM SKC 05/03 A3037 RMK SLP287

CYGK;2013-09-17 03:00;CYGK 170300Z 35004KT 15SM SKC 06/03 A3039 RMK LAST OBS/NEXT 171000 UTC SLP293

CYGK;2013-09-17 10:00;CYGK 171000Z 35007KT 15SM FEW020 FEW250 02/02 A3045 RMK SC1CI1 SC TR CI TR SLP314

CYGK;2013-09-17 11:00;CYGK 171100Z 35006KT 15SM FEW030 FEW250 02/02 A3047 RMK SC1CI1 SC TR SLP320

CYGK;2013-09-17 12:00;CYGK 171200Z 34004KT 15SM FEW030 FEW250 05/04 A3048 RMK SC1CI1 SC TR SLP326

CYGK;2013-09-17 13:00;CYGK 171300Z 05002KT 15SM FEW030 FEW250 10/06 A3050 RMK SC1CI1 SC TR SLP330

CYGK;2013-09-17 14:00;CYGK 171400Z 00000KT 15SM FEW030 FEW250 12/05 A3051 RMK CF1CI1 CF TR SLP333

CYGK;2013-09-17 15:00;CYGK 171500Z 16004KT 15SM FEW035 FEW250 13/05 A3050 RMK CF1CI1 CF TR SLP331

CYGK;2013-09-17 16:00;CYGK 171600Z 16003KT 15SM FEW035 FEW250 13/05 A3049 RMK CF1CI1 CF TR CI TR SLP328

CYGK;2013-09-17 17:00;CYGK 171700Z 16006KT 15SM FEW035 FEW250 14/05 A3048 RMK CF1CI1 CF TR CI TR SLP323

CYGK;2013-09-17 18:00;CYGK 171800Z 17008KT 15SM FEW030 14/06 A3045 RMK CF1 CF TR SLP315

CYGK;2013-09-17 19:00;CYGK 171900Z 19008KT 15SM FEW030 15/06 A3043 RMK CF1 CF TR SLP305

CYGK;2013-09-17 20:00;CYGK 172000Z 17007KT 15SM FEW030 15/06 A3041 RMK SC1 SC TR DIST E SLP298

CYGK;2013-09-17 21:00;CYGK 172100Z 19007KT 15SM SKC 15/06 A3038 RMK SLP291

CYGK;2013-09-17 22:00;CYGK 172200Z 20006KT 15SM SKC 14/06 A3037 RMK SLP287

CYGK;2013-09-17 23:00;CYGK 172300Z 21004KT 15SM SKC 13/07 A3035 RMK SLP280

CYGK;2013-09-18 00:00;CYGK 180000Z 22004KT 15SM SKC 11/06 A3035 RMK SLP278

CYGK;2013-09-18 01:00;CYGK 180100Z 00000KT 15SM SKC 09/07 A3034 RMK SLP275

CYGK;2013-09-18 02:00;CYGK 180200Z 36003KT 15SM SKC 07/06 A3033 RMK SLP272

CYGK;2013-09-18 03:00;CYGK 180300Z 36003KT 15SM SKC 07/06 A3032 RMK LAST OBS/NEXT 181000 UTC SLP270

CYGK;2013-09-18 10:00;CYGK 181000Z 34005KT 15SM FEW020 04/04 A3027 RMK CF1 CF TR SLP253

CYGK;2013-09-18 11:00;CYGK 181100Z 19012KT 15SM FEW020 FEW250 14/12 A3027 RMK CF1CI1 CF TR CI TR SLP252

CYGK;2013-09-18 12:00;CYGK 181200Z 18012KT 15SM FEW020 FEW250 15/13 A3027 RMK CF1CI1 CF TR CI TR SLP251

CYGK;2013-09-18 13:00;CYGK 181300Z 21009KT 15SM FEW020 FEW250 17/12 A3026 RMK CF1CI1 CF TR CI TR SLP248

CYGK;2013-09-18 14:00;CYGK 181400Z 19010KT 15SM FEW020 18/12 A3026 RMK CF1 CF TR SLP248

CYGK;2013-09-18 15:00;CYGK 181500Z 18013KT 15SM FEW020 18/13 A3025 RMK CF1 CF TR SLP244

CYGK;2013-09-18 16:00;CYGK 181600Z 19011G16KT 15SM FEW020 18/12 A3024 RMK CF1 CF TR SLP240

CYGK;2013-09-18 17:00;CYGK 181700Z 18010KT 15SM FEW025 FEW250 18/12 A3022 RMK CF1CI1 CF TR CI TR SLP236 DENSITY ALT 400FT

CYGK;2013-09-18 18:00;CYGK 181800Z 17010KT 15SM FEW025 FEW250 18/13 A3021 RMK CF1CI1 CF TR CF CI TR SLP230 DENSITY ALT 400FT

CYGK;2013-09-18 19:00;CYGK 181900Z 17011KT 15SM FEW025 FEW250 18/13 A3019 RMK CF1CI1 CF TR CI TR SLP224 DENSITY ALT 400FT

CYGK;2013-09-18 20:00;CYGK 182000Z 19011KT 15SM FEW025 FEW250 19/13 A3017 RMK CF1CI1 CF TR CI TR SLP217 DENSITY ALT 500FT

CYGK;2013-09-18 21:00;CYGK 182100Z 18010KT 15SM FEW250 19/12 A3015 RMK CI1 CI TR SLP212 DENSITY ALT 500FT

CYGK;2013-09-18 22:00;CYGK 182200Z 19007KT 15SM FEW250 18/11 A3015 RMK CI1 CI TR SLP210 DENSITY ALT 500FT

CYGK;2013-09-18 23:00;CYGK 182300Z 18008KT 15SM FEW250 17/10 A3013 RMK CI1 CI TR SLP205

CYGK;2013-09-19 00:00;CYGK 190000Z 22003KT 15SM FEW250 16/10 A3013 RMK CI1 CI TR SLP205

CYGK;2013-09-19 01:00;CYGK 190100Z 22002KT 15SM SKC 12/09 A3013 RMK SLP205

CYGK;2013-09-19 02:00;CYGK 190200Z 00000KT 15SM FEW250 11/10 A3013 RMK CI1 CI TR SLP204

CYGK;2013-09-19 03:00;CYGK 190300Z 35005KT 15SM SKC 09/09 A3013 RMK LAST OBS/NEXT 191000 UTC SLP205

CYGK;2013-09-19 10:00;CYGK 191000Z 34009KT 270V340 15SM FEW160 07/07 A3011 RMK AC1 AC TR SLP196

CYGK;2013-09-19 11:00;CYGK 191100Z 35005KT 15SM MIFG FEW010 FEW080 FEW200 08/08 A3012 RMK SF1AC1CI1 SF TR AC TR SLP200

CYGK;2013-09-19 12:00;CYGK 191200Z 35003KT 15SM VCFG FEW030 FEW080 FEW200 10/10 A3012 RMK SC1AC1CI1 SC TR AC TR VIS SW 2 N 2 SLP200

CYGK;2013-09-19 13:00;CYGK 191300Z 00000KT 15SM FEW020 FEW080 FEW240 16/15 A3012 RMK SC1AC1CI1 SC TR CI TR SLP200

CYGK;2013-09-19 14:00;CYGK 191400Z 15004KT 15SM FEW012 FEW080 FEW250 18/16 A3013 RMK CF1AC1CI1 AC TR CI TR SLP203 DENSITY ALT 500FT

CYGK;2013-09-19 15:00;CYGK 191500Z 18010KT 15SM FEW015 FEW250 19/16 A3013 RMK CF1CI1 CF TR CI TR SLP204 DENSITY ALT 500FT

CYGK;2013-09-19 16:00;CYGK 191600Z 17011KT 15SM FEW020 FEW250 19/15 A3012 RMK CF1CI1 CF TR SLP202 DENSITY ALT 500FT

CYGK;2013-09-19 17:00;CYGK 191700Z 17010KT 15SM FEW020 FEW120 FEW250 19/15 A3011 RMK CU1AC1CI1 CU TR AC TR SLP197 DENSITY ALT 600FT

CYGK;2013-09-19 18:00;CYGK 191800Z 17008KT 15SM FEW020 FEW120 FEW270 19/15 A3009 RMK SC1AC1CI1 AC TR AC CI TR SLP189 DENSITY ALT 600FT

CYGK;2013-09-19 19:00;CYGK 191900Z 19009KT 15SM FEW020 FEW250 19/15 A3007 RMK CU1CI1 CU TR CI TR SLP185 DENSITY ALT 700FT

CYGK;2013-09-19 20:00;CYGK 192000Z 19008KT 15SM FEW020 FEW270 20/15 A3006 RMK CF1CI1 CF TR CI TR SLP180 DENSITY ALT 700FT

CYGK;2013-09-19 21:00;CYGK 192100Z 19008KT 15SM FEW240 20/15 A3005 RMK CI1 CI TR SLP176 DENSITY ALT 700FT

CYGK;2013-09-19 22:00;CYGK 192200Z 20007KT 15SM FEW130 FEW240 20/15 A3005 RMK AC1CI1 AC TR CI TR SLP178 DENSITY ALT 700FT

CYGK;2013-09-19 23:00;CYGK 192300Z 19005KT 15SM FEW130 FEW240 18/15 A3005 RMK AC1CI1 AC TR CI TR SLP178 DENSITY ALT 500FT

CYGK;2013-09-20 00:00;CYGK 200000Z VRB02KT 15SM FEW130 FEW220 16/14 A3005 RMK AC1CI1 AC TR CI TR SLP176

CYGK;2013-09-20 01:00;CYGK 200100Z 33002KT 15SM SKC 15/14 A3005 RMK SLP176

CYGK;2013-09-20 02:00;CYGK 200200Z 01002KT 15SM SKC 14/13 A3004 RMK SLP173

CYGK;2013-09-20 03:00;CYGK 200300Z 06002KT 15SM FEW230 13/13 A3004 RMK CI1 CI TR LAST OBS/NEXT 201000 UTC SLP171

CYGK;2013-09-20 10:00;CYGK 201000Z 18008KT 15SM FEW250 18/16 A3001 RMK CI2 SLP161 DENSITY ALT 500FT

CYGK;2013-09-20 11:00;CYGK 201100Z 17009KT 15SM SCT250 18/17 A3000 RMK CC3 SLP160 DENSITY ALT 500FT

CYGK;2013-09-20 12:00;CYGK 201200Z 17009KT 12SM FEW010 SCT250 18/17 A3001 RMK SC2CI2 SLP162 DENSITY ALT 600FT

CYGK;2013-09-20 13:00;CYGK 201300Z 16011KT 12SM SCT009 BKN250 19/17 A3000 RMK CF3CI3 SLP160 DENSITY ALT 600FT

CYGK;2013-09-20 14:00;CYGK 201400Z 18011KT 12SM FEW010 19/17 A3001 RMK CF1 SLP161 DENSITY ALT 700FT

CYGK;2013-09-20 14:52;CYGK 201452Z 17011KT 12SM FEW008 FEW250 19/17 A2999 RMK CF1CI1 CI TR SLP156 DENSITY ALT 800FT

CYGK;2013-09-20 15:00;CYGK 201500Z 17011G16KT 12SM FEW008 FEW250 20/17 A2999 RMK CF1CI1 SLP156 DENSITY ALT 800FT

CYGK;2013-09-20 16:00;CYGK 201600Z 17013KT 12SM SCT250 20/17 A2998 RMK CI3 SLP151 DENSITY ALT 800FT

CYGK;2013-09-20 17:00;CYGK 201700Z 17011KT 12SM SCT250 21/17 A2995 RMK CI3 SLP143 DENSITY ALT 1000FT

CYGK;2013-09-20 18:00;CYGK 201800Z 16011KT 12SM SCT250 22/17 A2992 RMK CI3 SLP132 DENSITY ALT 1100FT

CYGK;2013-09-20 19:00;CYGK 201900Z 16009KT 12SM FEW100 SCT250 22/18 A2990 RMK AC2CI1 SLP126 DENSITY ALT 1200FT

CYGK;2013-09-20 20:00;CYGK 202000Z 16007KT 12SM BKN120 BKN250 21/18 A2989 RMK AC6CI1 CI TR SLP121 DENSITY ALT 1100FT

CYGK;2013-09-20 21:00;CYGK 202100Z 18007KT 15SM SCT150 BKN250 23/17 A2987 RMK AC3CI3 SLP114 DENSITY ALT 1300FT

CYGK;2013-09-20 22:00;CYGK 202200Z 15006KT 15SM BKN160 BKN250 21/18 A2985 RMK AC5CI1 SLP107 DENSITY ALT 1100FT

CYGK;2013-09-20 23:00;CYGK 202300Z 16006KT 15SM BKN150 BKN250 21/18 A2983 RMK AC5CI2 SLP101 DENSITY ALT 1100FT

CYGK;2013-09-21 00:00;CYGK 210000Z 16011KT 15SM BKN170 BKN250 22/18 A2981 RMK AC5CI2 SLP096 DENSITY ALT 1200FT

CYGK;2013-09-21 01:00;CYGK 210100Z 16014G20KT 15SM FEW050 SCT080 BKN150 OVC250 22/17 A2981 RMK SC1AC2AC3CI2 SLP092 DENSITY ALT 1200FT

CYGK;2013-09-21 02:00;CYGK 210200Z 16015G22KT 15SM BKN056 OVC080 21/17 A2980 RMK SC6AC2 SLP091 DENSITY ALT 1200FT

CYGK;2013-09-21 03:00;CYGK 210300Z 17016G22KT 15SM FEW058 BKN110 BKN250 21/17 A2979 RMK SC1AC4CI2 LAST OBS/NEXT 211000 UTC SLP088 DENSITY ALT 1100FT

CYGK;2013-09-21 10:00;CYGK 211000Z 17021G26KT 15SM FEW030 OVC045 19/17 A2970 RMK SC2SC6 SLP055 DENSITY ALT 1100FT

CYGK;2013-09-21 11:00;CYGK 211100Z 17020G27KT 15SM OVC028 19/17 A2968 RMK SC8 SLP051 DENSITY ALT 1100FT

CYGK;2013-09-21 11:26;CYGK 211126Z 17020G26KT 7SM -RA BKN030 OVC070 19/16 A2967 RMK SC7AC1 SLP046 DENSITY ALT 1100FT

CYGK;2013-09-21 12:00;CYGK 211200Z 18018G26KT 5SM SHRA BR SCT015TCU OVC030 18/17 A2968 RMK TCU3SC5 VIS N 2 SLP051 DENSITY ALT 1000FT

CYGK;2013-09-21 12:11;CYGK 211211Z 18019G25KT 1 1/2SM SHRA BR BKN015TCU OVC030 18/17 A2968 RMK TCU7SC1 SLP051 DENSITY ALT 900FT

CYGK;2013-09-21 12:14;CYGK 211214Z 18020G25KT 6SM SHRA BR BKN015TCU OVC030 18/17 A2968 RMK TCU6SC2 VIS N 3 SLP051 DENSITY ALT 900FT

CYGK;2013-09-21 13:00;CYGK 211300Z 18016G24KT 6SM -RA BR OVC015 18/17 A2967 RMK CU8 RERA SLP048 DENSITY ALT 1000FT

CYGK;2013-09-21 13:30;CYGK 211330Z 18018G27KT 6SM -SHRA BR SCT008 OVC050 18/17 A2967 RMK SF4SC4 SLP045 DENSITY ALT 1000FT

CYGK;2013-09-21 13:52;CYGK 211352Z 19021G28KT 6SM -SHRA BR BKN009 OVC030 18/18 A2968 RMK CU6SC2 PRESRR SLP050 DENSITY ALT 1000FT

CYGK;2013-09-21 14:00;CYGK 211400Z 20017G28KT 2 1/2SM -SHRA BR OVC008TCU 18/18 A2968 RMK TCU8 PRESRR SLP050 DENSITY ALT 1000FT

CYGK;2013-09-21 15:00;CYGK 211500Z 19009KT 10SM SCT010 OVC060 18/17 A2965 RMK SF3SC5 SLP041 DENSITY ALT 1000FT

CYGK;2013-09-21 15:12;CYGK 211512Z 20009KT 10SM -RA SCT010 OVC057 18/17 A2964 RMK CU3SC5 -RA INTMT SLP038 DENSITY ALT 1000FT

CYGK;2013-09-21 16:00;CYGK 211600Z 25006KT 8SM -RA FEW015 SCT032 OVC058 18/17 A2965 RMK CU2SC1SC5 -RA INTMT SLP039 DENSITY ALT 1000FT

CYGK;2013-09-21 17:00;CYGK 211700Z 26007KT 8SM -RA FEW002 OVC050 17/17 A2965 RMK SF2SC6 SLP039 DENSITY ALT 900FT

CYGK;2013-09-21 17:46;CYGK 211746Z 24005KT 240V300 6SM -RA BR BKN003 OVC010 17/17 A2964 RMK SF5CU3 SLP036 DENSITY ALT 900FT

CYGK;2013-09-21 18:00;CYGK 211800Z 28008KT 3SM -RA BR BKN004 OVC012 17/17 A2963 RMK SF5SF3 SLP034 DENSITY ALT 900FT

CYGK;2013-09-21 19:00;CYGK 211900Z 28006KT 4SM -RA BR BKN004 OVC023 17/16 A2963 RMK SF5SC3 SLP032 DENSITY ALT 900FT

CYGK;2013-09-21 20:00;CYGK 212000Z 02008KT 3SM -RA BR BKN004 OVC013 16/16 A2961 RMK SF5CU3 PRESFR SLP028 DENSITY ALT 800FT

CYGK;2013-09-21 21:00;CYGK 212100Z 30003KT 5SM -RA BR BKN005 OVC058 16/15 A2963 RMK SF7NS1 SLP034 DENSITY ALT 800FT

CYGK;2013-09-21 21:31;CYGK 212131Z 31004KT 5SM -RA BR SCT007 OVC055 16/15 A2963 RMK SF3NS5 SLP032 DENSITY ALT 700FT

CYGK;2013-09-21 22:00;CYGK 212200Z 26003KT 5SM -RA BR FEW008 BKN055 OVC085 15/14 A2963 RMK SF2NS5AC1 SLP032 DENSITY ALT 700FT

CYGK;2013-09-21 23:00;CYGK 212300Z 25003KT 6SM -RA BR FEW010 OVC090 15/14 A2963 RMK SF2AC6 SLP032 DENSITY ALT 600FT

CYGK;2013-09-22 00:00;CYGK 220000Z 20003KT 12SM -RA FEW008 SCT018 OVC100 15/14 A2963 RMK SF1SC2AC5 SLP033 DENSITY ALT 700FT

CYGK;2013-09-22 00:32;CYGK 220032Z 20004KT 8SM -RA BKN009 OVC020 16/15 A2963 RMK SF5SC3 SLP032 DENSITY ALT 700FT

CYGK;2013-09-22 01:00;CYGK 220100Z 18006KT 10SM -RA BKN007 BKN020 OVC038 16/15 A2962 RMK SF5SC2SC1 SLP030 DENSITY ALT 700FT

CYGK;2013-09-22 02:02;CYGK 220202Z 21008KT 10SM -RA BKN005 OVC020 16/16 A2961 RMK SF5SC3 CIG RAG SLP025 DENSITY ALT 800FT

CYGK;2013-09-22 03:00;CYGK 220300Z 28008G17KT 8SM -RA BKN006 OVC041 14/13 A2963 RMK SF5SC3 CIG RAG LAST OBS/NEXT 221000 UTC SLP033 DENSITY ALT 500FT

CYGK;2013-09-22 10:00;CYGK 221000Z 31008KT 15SM FEW025 BKN040 OVC075 10/08 A2973 RMK CU2SC3AC3 SLP069

CYGK;2013-09-22 11:00;CYGK 221100Z 29007KT 15SM BKN020 OVC075 10/08 A2976 RMK SC6AC2 SLP079

CYGK;2013-09-22 12:00;CYGK 221200Z 30007KT 15SM SCT020 BKN075 10/08 A2978 RMK SC4AC1 SLP087

CYGK;2013-09-22 13:00;CYGK 221300Z 31008KT 15SM SCT015 SCT030 BKN075 11/07 A2981 RMK SC3SC1AC1 SLP096

CYGK;2013-09-22 14:00;CYGK 221400Z 31011KT 15SM VCSH FEW015 BKN035 11/06 A2983 RMK CF2CU5 SLP103

CYGK;2013-09-22 14:22;CYGK 221422Z 35015KT 15SM -SHRA BKN020 BKN040 10/07 A2984 RMK CU6SC1 VIS NE 6 SLP104

CYGK;2013-09-22 15:00;CYGK 221500Z 33008KT 15SM VCSH SCT025 BKN040 12/06 A2985 RMK CU4SC2 SLP108

CYGK;2013-09-22 16:00;CYGK 221600Z 31011KT 15SM VCSH FEW025 BKN045 12/06 A2985 RMK CU2SC4 SLP110

CYGK;2013-09-22 17:00;CYGK 221700Z 32008KT 15SM VCSH FEW025 OVC045 12/06 A2987 RMK CU1CU7 SLP115

CYGK;2013-09-22 18:00;CYGK 221800Z 32011G17KT 15SM FEW030 BKN044 13/06 A2987 RMK CU1SC6 SLP115

CYGK;2013-09-22 19:00;CYGK 221900Z 32009KT 15SM FEW035 BKN050 12/05 A2988 RMK CF2SC5 SLP118

CYGK;2013-09-22 20:00;CYGK 222000Z 33009G17KT 15SM FEW035 BKN048 BKN080 13/05 A2989 RMK CU2SC5AC1 AC TR SLP122

CYGK;2013-09-22 21:00;CYGK 222100Z 30010KT 15SM FEW038 BKN048 12/05 A2990 RMK CF1SC7 CF TR SLP128

CYGK;2013-09-22 22:00;CYGK 222200Z 30008KT 15SM BKN046 11/04 A2992 RMK SC5 SLP134

CYGK;2013-09-22 23:00;CYGK 222300Z 28004KT 15SM FEW050 10/04 A2994 RMK SC2 SLP140

CYGK;2013-09-23 00:00;CYGK 230000Z 31004KT 15SM BKN045 09/05 A2996 RMK SC5 SLP148

CYGK;2013-09-23 01:00;CYGK 230100Z 34005KT 15SM FEW040 07/04 A2998 RMK SC1 SLP156

CYGK;2013-09-23 02:00;CYGK 230200Z 32006KT 15SM FEW042 07/05 A3000 RMK SC2 SLP162

CYGK;2013-09-23 03:00;CYGK 230300Z 34007KT 15SM FEW050 FEW220 06/04 A3001 RMK SC1CI1 LAST OBS/NEXT 231000 UTC SLP166

CYGK;2013-09-23 10:00;CYGK 231000Z 33007KT 15SM SKC 04/03 A3008 RMK SLP188

CYGK;2013-09-23 10:09;CYGK 231009Z 34007KT 15SM FEW005 04/03 A3009 RMK SF1 SF TR SLP190

CYGK;2013-09-23 11:00;CYGK 231100Z 34006KT 15SM FEW005 FEW015 03/03 A3010 RMK SF1SC1 SF TR SC TR SLP194

CYGK;2013-09-23 12:00;CYGK 231200Z 33008KT 15SM FEW006 FEW015 05/04 A3011 RMK CF1SC1 CF TR SLP199

CYGK;2013-09-23 13:00;CYGK 231300Z 35011KT 15SM FEW015 07/05 A3013 RMK CF1 CF TR SLP205

CYGK;2013-09-23 14:00;CYGK 231400Z 02008KT 15SM SCT018 09/05 A3013 RMK SC3 SLP207

CYGK;2013-09-23 15:00;CYGK 231500Z 35008KT 320V030 15SM BKN023 10/04 A3014 RMK SC5 SLP208

CYGK;2013-09-23 16:00;CYGK 231600Z 31008KT 15SM BKN030 11/05 A3014 RMK SC6 SLP209

CYGK;2013-09-23 17:00;CYGK 231700Z 34004KT 320V040 15SM BKN037 11/04 A3014 RMK SC7 SLP208

CYGK;2013-09-23 18:00;CYGK 231800Z 29007KT 15SM BKN035 12/04 A3012 RMK SC6 SLP202

CYGK;2013-09-23 19:00;CYGK 231900Z 34007KT 15SM BKN035 12/05 A3011 RMK SC5 SLP198

CYGK;2013-09-23 20:00;CYGK 232000Z 33004KT 15SM SCT035 12/04 A3011 RMK SC4 SLP199

CYGK;2013-09-23 21:00;CYGK 232100Z 35003KT 300V360 15SM FEW035 12/05 A3011 RMK SC1 SLP199

CYGK;2013-09-23 22:00;CYGK 232200Z 33005KT 15SM FEW035 12/05 A3011 RMK SC1 TR SC SLP199

CYGK;2013-09-23 23:00;CYGK 232300Z 35002KT 15SM FEW035 11/05 A3012 RMK SC1 SC TR SLP201

CYGK;2013-09-24 00:00;CYGK 240000Z 00000KT 15SM SKC 09/05 A3012 RMK SLP201

CYGK;2013-09-24 01:00;CYGK 240100Z 34004KT 15SM SKC 07/06 A3012 RMK SLP204

CYGK;2013-09-24 02:00;CYGK 240200Z 03004KT 15SM SKC 06/05 A3013 RMK SLP207

CYGK;2013-09-24 03:00;CYGK 240300Z 34003KT 15SM SKC 05/04 A3014 RMK LAST OBS/NEXT 241000 UTC SLP209

CYGK;2013-09-24 10:00;CYGK 241000Z 33005KT 15SM FEW200 03/02 A3013 RMK CI1 SLP207

CYGK;2013-09-24 11:00;CYGK 241100Z 33005KT 15SM MIFG FEW010 FEW025 FEW200 03/02 A3015 RMK CF1SC1CI1 CF TR SC TR SLP212

CYGK;2013-09-24 12:00;CYGK 241200Z 33006KT 15SM FEW010 FEW025 FEW200 05/04 A3015 RMK CF1SC1CI1 CF TR SC TR CI TR SLP212

CYGK;2013-09-24 13:00;CYGK 241300Z 34006KT 15SM FEW010 07/05 A3014 RMK CF1 CF TR SLP210

CYGK;2013-09-24 14:00;CYGK 241400Z 35008KT 15SM FEW015 09/05 A3012 RMK SC2 SLP203

CYGK;2013-09-24 15:00;CYGK 241500Z 34007KT 15SM FEW020 11/06 A3012 RMK CF1 SLP200

CYGK;2013-09-24 16:00;CYGK 241600Z 02005KT 15SM FEW025 12/06 A3011 RMK CU1 SLP197

CYGK;2013-09-24 17:00;CYGK 241700Z 00000KT 15SM FEW030 FEW250 14/07 A3009 RMK CF1CI1 CF TR CI TR SLP190

CYGK;2013-09-24 18:00;CYGK 241800Z 17007KT 15SM FEW030 FEW250 14/08 A3005 RMK CF1CI1 CF TR SLP179

CYGK;2013-09-24 19:00;CYGK 241900Z 18010KT 15SM FEW250 14/09 A3004 RMK CI1 SLP173

CYGK;2013-09-24 20:00;CYGK 242000Z 19010KT 15SM FEW250 15/09 A3002 RMK CI1 SLP167

CYGK;2013-09-24 21:00;CYGK 242100Z 18007KT 15SM FEW250 17/10 A3000 RMK CI1 SLP159 DENSITY ALT 500FT

CYGK;2013-09-24 22:00;CYGK 242200Z 18008KT 15SM FEW250 16/11 A2999 RMK CI1 SLP157 DENSITY ALT 400FT

CYGK;2013-09-24 23:00;CYGK 242300Z 23006KT 15SM FEW250 15/10 A2998 RMK CI1 SLP156

CYGK;2013-09-25 00:00;CYGK 250000Z 27007KT 15SM FEW250 14/09 A2998 RMK CI1 SLP156

CYGK;2013-09-25 01:00;CYGK 250100Z 31006KT 15SM SKC 12/09 A2999 RMK SLP158

CYGK;2013-09-25 02:00;CYGK 250200Z 33004KT 15SM SKC 11/09 A3001 RMK SLP163

CYGK;2013-09-25 03:00;CYGK 250300Z 34004KT 15SM SKC 09/09 A3001 RMK LAST OBS/NEXT 251000 UTC SLP162

CYGK;2013-09-25 10:00;CYGK 251000Z 35007KT 15SM FEW250 05/04 A2999 RMK CI1 CI TR SLP158

CYGK;2013-09-25 11:00;CYGK 251100Z 00000KT 15SM MIFG FEW010 FEW200 06/05 A3000 RMK CF1CI1 CF TR SLP161

CYGK;2013-09-25 12:00;CYGK 251200Z 34004KT 15SM FEW015 FEW200 07/06 A3001 RMK CF1CI1 CF TR SLP164

CYGK;2013-09-25 13:00;CYGK 251300Z 03006KT 15SM FEW015 FEW200 11/07 A3001 RMK CF1CI1 CF TR SLP164

CYGK;2013-09-25 14:00;CYGK 251400Z 00000KT 15SM FEW020 FEW200 14/08 A3002 RMK CF1CI2 CF TR SLP167

CYGK;2013-09-25 15:00;CYGK 251500Z 16003KT 15SM FEW025 FEW250 15/09 A3001 RMK CF1CI1 CF TR SLP165

CYGK;2013-09-25 16:00;CYGK 251600Z 18005KT 15SM FEW025 FEW250 16/09 A3001 RMK CF1CI1 CF TR WND ESTD SLP164

CYGK;2013-09-25 17:00;CYGK 251700Z 17006KT 15SM FEW250 17/09 A3000 RMK CI1 SLP160 DENSITY ALT 500FT

CYGK;2013-09-25 18:00;CYGK 251800Z 19007KT 15SM FEW250 17/11 A2998 RMK CI1 SLP154 DENSITY ALT 500FT

CYGK;2013-09-25 19:00;CYGK 251900Z 18007KT 15SM FEW250 18/11 A2997 RMK CI1 SLP150 DENSITY ALT 600FT

CYGK;2013-09-25 20:00;CYGK 252000Z 19006KT 15SM FEW250 19/10 A2996 RMK CI1 SLP146 DENSITY ALT 700FT

CYGK;2013-09-25 21:00;CYGK 252100Z 18006KT 15SM FEW250 18/10 A2995 RMK CI1 SLP145 DENSITY ALT 700FT

CYGK;2013-09-25 22:00;CYGK 252200Z 18004KT 15SM FEW250 17/11 A2996 RMK CI2 SLP148 DENSITY ALT 500FT

CYGK;2013-09-25 23:00;CYGK 252300Z 26002KT 15SM FEW250 14/11 A2997 RMK CI2 SLP149

CYGK;2013-09-26 00:00;CYGK 260000Z 00000KT 15SM SCT250 12/11 A2998 RMK CI3 SLP152

CYGK;2013-09-26 01:00;CYGK 260100Z 35003KT 15SM SCT250 11/10 A2999 RMK CI3 SLP156

CYGK;2013-09-26 02:00;CYGK 260200Z 35006KT 15SM SCT250 10/09 A3000 RMK CI3 SLP159

CYGK;2013-09-26 03:00;CYGK 260300Z 35006KT 15SM FEW250 09/08 A3000 RMK CI2 LAST OBS/NEXT 261000 UTC SLP160

CYGK;2013-09-26 10:00;CYGK 261000Z 03007KT 15SM FEW240 09/09 A3005 RMK CI1 CI TR SLP177

CYGK;2013-09-26 11:00;CYGK 261100Z 04004KT 15SM FEW020 FEW240 09/08 A3007 RMK CF1CI1 CF TR SLP183

CYGK;2013-09-26 12:00;CYGK 261200Z 03004KT 15SM FEW020 SCT240 10/09 A3009 RMK CF1CI3 CF TR SLP189

CYGK;2013-09-26 13:00;CYGK 261300Z 06007KT 15SM FEW020 SCT250 12/10 A3010 RMK SC1CI4 SC TR SLP194

CYGK;2013-09-26 14:00;CYGK 261400Z 03006KT 15SM FEW020 BKN250 14/11 A3012 RMK SC1CI5 SC TR SLP200

CYGK;2013-09-26 15:00;CYGK 261500Z 04007KT 15SM FEW025 BKN250 16/11 A3012 RMK CF1CI6 CF TR SLP201

CYGK;2013-09-26 16:00;CYGK 261600Z 06011KT 15SM BKN270 18/10 A3011 RMK CI6 SLP198 DENSITY ALT 400FT

CYGK;2013-09-26 17:00;CYGK 261700Z 04007KT 15SM FEW030 BKN270 18/11 A3011 RMK CU1CI5 CU TR SLP198 DENSITY ALT 500FT

CYGK;2013-09-26 18:00;CYGK 261800Z 05007KT 15SM FEW035 BKN250 19/11 A3010 RMK CU1CI5 CU TR SLP193 DENSITY ALT 600FT

CYGK;2013-09-26 19:00;CYGK 261900Z 36010KT 15SM FEW030 BKN270 20/11 A3009 RMK CU1CI4 SLP192 DENSITY ALT 700FT

CYGK;2013-09-26 20:00;CYGK 262000Z 02009KT 15SM FEW040 SCT270 20/11 A3010 RMK CU1CI3 SLP194 DENSITY ALT 600FT

CYGK;2013-09-26 21:00;CYGK 262100Z 02009KT 15SM FEW040 SCT270 19/11 A3011 RMK SC1CI2 SLP196 DENSITY ALT 600FT

CYGK;2013-09-26 22:00;CYGK 262200Z 02008KT 15SM FEW040 FEW270 18/10 A3012 RMK SC1CI1 SLP200 DENSITY ALT 500FT

CYGK;2013-09-26 23:00;CYGK 262300Z 03005KT 15SM SCT041 SCT270 17/10 A3013 RMK SC3CI1 SLP205

CYGK;2013-09-27 00:00;CYGK 270000Z 04008KT 15SM BKN041 16/10 A3015 RMK SC6 SLP212

CYGK;2013-09-27 01:00;CYGK 270100Z 07007KT 15SM FEW040 13/09 A3016 RMK SC1 SLP215

CYGK;2013-09-27 02:00;CYGK 270200Z 05006KT 15SM SKC 12/09 A3017 RMK SLP217

CYGK;2013-09-27 03:00;CYGK 270300Z 02005KT 15SM SKC 12/09 A3017 RMK LAST OBS/NEXT 271000UTC SLP218

CYGK;2013-09-27 10:00;CYGK 271000Z 02006KT 15SM SKC 09/08 A3023 RMK SLP240

CYGK;2013-09-27 11:00;CYGK 271100Z 02006KT 15SM FEW240 10/08 A3025 RMK CI1 CI TR SLP244

CYGK;2013-09-27 12:00;CYGK 271200Z 04007KT 15SM FEW020 FEW240 11/09 A3026 RMK CF1CI1 CF TR CI TR SLP249

CYGK;2013-09-27 13:00;CYGK 271300Z 05006KT 15SM FEW010 FEW250 13/10 A3028 RMK SF1CI1 SF TR CI TR SLP254

CYGK;2013-09-27 14:00;CYGK 271400Z 06008KT 15SM FEW010 15/10 A3029 RMK CF1 CF TR SLP257

CYGK;2013-09-27 15:00;CYGK 271500Z 09009KT 15SM FEW020 16/11 A3029 RMK CF1 CF TR SLP259

CYGK;2013-09-27 16:00;CYGK 271600Z 07007KT 15SM FEW025 17/11 A3029 RMK CF1 SLP259

CYGK;2013-09-27 17:00;CYGK 271700Z 10010KT 15SM FEW032 18/11 A3029 RMK CU2 SLP257

CYGK;2013-09-27 18:00;CYGK 271800Z 13009KT 15SM FEW036 19/12 A3027 RMK CU2 SLP250 DENSITY ALT 400FT

CYGK;2013-09-27 19:00;CYGK 271900Z 04009KT 15SM FEW039 SCT250 20/12 A3026 RMK SC2CI1 SLP247 DENSITY ALT 500FT

CYGK;2013-09-27 20:00;CYGK 272000Z 04007KT 15SM FEW035 FEW250 20/12 A3025 RMK CU1CI1 SLP243 DENSITY ALT 500FT

CYGK;2013-09-27 21:00;CYGK 272100Z 03009KT 15SM FEW035 20/12 A3025 RMK SC1 SLP243 DENSITY ALT 500FT

CYGK;2013-09-27 22:00;CYGK 272200Z 06008KT 15SM FEW040 19/12 A3025 RMK SC1 SC TR SLP244 DENSITY ALT 400FT

CYGK;2013-09-27 23:00;CYGK 272300Z 06004KT 15SM FEW270 17/11 A3025 RMK CI1 CI TR SLP245

CYGK;2013-09-28 00:00;CYGK 280000Z 07005KT 15SM SKC 15/11 A3026 RMK SLP249

CYGK;2013-09-28 01:00;CYGK 280100Z 05004KT 15SM SKC 15/11 A3027 RMK SLP253

CYGK;2013-09-28 02:00;CYGK 280200Z 04004KT 15SM SKC 14/11 A3028 RMK SLP254

CYGK;2013-09-28 03:00;CYGK 280300Z 03004KT 15SM SKC 11/11 A3028 RMK LAST OBS/NEXT 281000UTC SLP256

CYGK;2013-09-28 10:00;CYGK 281000Z 06004KT 15SM SKC 09/08 A3032 RMK SLP269

CYGK;2013-09-28 11:00;CYGK 281100Z 02003KT 15SM MIFG FEW020 09/09 A3033 RMK CF1 CF TR SLP271

CYGK;2013-09-28 12:00;CYGK 281200Z 04003KT 15SM FEW020 09/09 A3034 RMK CF1 CF TR SLP276

CYGK;2013-09-28 13:00;CYGK 281300Z 06004KT 15SM FEW020 13/11 A3035 RMK CF1 CF TR SLP277

CYGK;2013-09-28 14:00;CYGK 281400Z 13009KT 15SM FEW020 16/11 A3035 RMK CU1 CU TR SLP279

CYGK;2013-09-28 15:00;CYGK 281500Z 10004KT 15SM FEW025 17/12 A3035 RMK CF1 SLP277

CYGK;2013-09-28 16:00;CYGK 281600Z 16007KT 15SM FEW025 17/12 A3034 RMK CU1 CU TR SLP274

CYGK;2013-09-28 17:00;CYGK 281700Z 16007KT 15SM FEW025 18/12 A3032 RMK CF1 CF TR SLP270

CYGK;2013-09-28 18:00;CYGK 281800Z 16006KT 15SM FEW035 18/12 A3029 RMK CU1 CU TR SLP260

CYGK;2013-09-28 19:00;CYGK 281900Z 18006KT 15SM FEW035 18/13 A3028 RMK CF1 CF TR SLP254

CYGK;2013-09-28 20:00;CYGK 282000Z 18005KT 15SM FEW035 18/13 A3026 RMK CF1 CF TR SLP249

CYGK;2013-09-28 21:00;CYGK 282100Z 19006KT 15SM FEW035 19/13 A3024 RMK SC1 SC TR SLP242 DENSITY ALT 400FT

CYGK;2013-09-28 22:00;CYGK 282200Z 15003KT 15SM SKC 19/13 A3024 RMK SLP242 DENSITY ALT 400FT

CYGK;2013-09-28 23:00;CYGK 282300Z 12002KT 15SM FEW270 17/13 A3024 RMK CI1 SLP240

CYGK;2013-09-29 00:00;CYGK 290000Z 11003KT 15SM FEW270 16/12 A3022 RMK CI1 SLP235

CYGK;2013-09-29 01:00;CYGK 290100Z 09005KT 15SM SKC 14/12 A3022 RMK SLP233

CYGK;2013-09-29 02:00;CYGK 290200Z 09002KT 15SM SKC 15/13 A3021 RMK SLP232

CYGK;2013-09-29 03:00;CYGK 290300Z 13009KT 15SM SKC 17/14 A3020 RMK LAST OBS/NEXT 291000UTC SLP227

CYGK;2013-09-29 10:00;CYGK 291000Z 18011G16KT 15SM SKC 16/14 A3015 RMK SLP208

CYGK;2013-09-29 11:00;CYGK 291100Z 17013KT 15SM FEW250 16/14 A3015 RMK CI1 CI TR SLP209

CYGK;2013-09-29 12:00;CYGK 291200Z 17014G19KT 15SM FEW100 FEW250 17/13 A3015 RMK AC1CI1 AC TR CI TR SLP209

CYGK;2013-09-29 13:00;CYGK 291300Z 17016G21KT 15SM FEW015 FEW250 17/13 A3014 RMK CF1CI1 CF TR CI TR SLP208

CYGK;2013-09-29 14:00;CYGK 291400Z 17017KT 15SM FEW015 FEW200 17/13 A3014 RMK CF1CI1 CF TR SLP208

CYGK;2013-09-29 15:00;CYGK 291500Z 17014G20KT 15SM FEW015 FEW250 18/14 A3013 RMK CF1CI1 CI TR SLP204 DENSITY ALT 400FT

CYGK;2013-09-29 16:00;CYGK 291600Z 18015KT 15SM FEW020 19/13 A3013 RMK CU1 SLP202 DENSITY ALT 500FT

CYGK;2013-09-29 17:00;CYGK 291700Z 18015G//KT 15SM FEW025 20/13 A3012 RMK SC1 WND EST WND ESTD SLP198 DENSITY ALT 600FT

CYGK;2013-09-29 18:00;CYGK 291800Z 20011KT 15SM FEW030 FEW240 20/14 A3009 RMK SC1CI1 SC TR SLP190 DENSITY ALT 700FT

CYGK;2013-09-29 19:00;CYGK 291900Z 19009KT 15SM FEW030 FEW250 20/14 A3007 RMK SC1CI1 SC TR SLP183 DENSITY ALT 700FT

CYGK;2013-09-29 20:00;CYGK 292000Z 15009KT 15SM FEW030 FEW250 20/14 A3005 RMK SC1CI1 SC TR SLP177 DENSITY ALT 700FT

CYGK;2013-09-29 21:00;CYGK 292100Z 16007KT 15SM FEW250 19/13 A3003 RMK CI2 SLP171 DENSITY ALT 700FT

CYGK;2013-09-29 22:00;CYGK 292200Z 16003KT 15SM SCT250 18/14 A3003 RMK CI4 SLP171 DENSITY ALT 600FT

CYGK;2013-09-29 23:00;CYGK 292300Z 00000KT 15SM BKN230 16/13 A3004 RMK CI5 SLP171

CYGK;2013-09-30 00:00;CYGK 300000Z 35003KT 15SM BKN230 15/14 A3004 RMK CI6 SLP172

CYGK;2013-09-30 01:00;CYGK 300100Z 06003KT 360V060 15SM BKN230 14/13 A3004 RMK CC6 SLP172

CYGK;2013-09-30 02:00;CYGK 300200Z 11003KT 15SM SCT230 15/13 A3004 RMK CI4 SLP172

CYGK;2013-09-30 03:00;CYGK 300300Z 09002KT 15SM SCT230 14/13 A3003 RMK CI3 LAST OBS/NEXT 301000 UTC SLP171

CYGK;2013-09-30 10:00;CYGK 301000Z 17009KT 15SM BKN085 16/14 A3002 RMK AC5 SLP165 DENSITY ALT 400FT

CYGK;2013-09-30 11:00;CYGK 301100Z 17011KT 15SM FEW060 SCT100 BKN220 17/13 A3003 RMK SC2AC2CI2 SLP168 DENSITY ALT 400FT

CYGK;2013-09-30 12:00;CYGK 301200Z 17011KT 15SM FEW059 SCT100 SCT220 16/14 A3004 RMK SC2AC1CI1 SLP172

CYGK;2013-09-30 13:00;CYGK 301300Z 17010KT 15SM FEW058 BKN100 17/14 A3004 RMK SC2AC3 SLP171 DENSITY ALT 400FT

CYGK;2013-09-30 14:00;CYGK 301400Z 19011KT 15SM FEW020 FEW075 18/14 A3004 RMK SC1AC2 SC TR SLP172 DENSITY ALT 500FT

CYGK;2013-09-30 15:00;CYGK 301500Z 17008KT 15SM SCT050 BKN075 BKN250 18/14 A3004 RMK SC3AC3CI1 SLP172 DENSITY ALT 500FT

CYGK;2013-09-30 16:00;CYGK 301600Z 17008KT 15SM FEW055 BKN080 18/14 A3003 RMK SC1AC5 SLP169 DENSITY ALT 500FT

CYGK;2013-09-30 17:00;CYGK 301700Z 19008KT 15SM BKN073 18/14 A3002 RMK AC6 SLP166 DENSITY ALT 500FT

CYGK;2013-09-30 18:00;CYGK 301800Z 18006KT 15SM BKN062 18/14 A3001 RMK AC7 SLP161 DENSITY ALT 600FT

CYGK;2013-09-30 19:00;CYGK 301900Z 19005KT 15SM OVC059 18/15 A2999 RMK SC8 SLP156 DENSITY ALT 600FT

CYGK;2013-09-30 20:00;CYGK 302000Z 17005KT 15SM BKN077 19/15 A2998 RMK AC6 SLP151 DENSITY ALT 800FT

CYGK;2013-09-30 21:00;CYGK 302100Z 18003KT 15SM SCT057 BKN080 19/15 A2998 RMK SC4AC3 SLP151 DENSITY ALT 700FT

CYGK;2013-09-30 22:00;CYGK 302200Z 15004KT 15SM BKN073 BKN240 18/15 A2997 RMK AC5CI1 SLP149 DENSITY ALT 700FT

CYGK;2013-09-30 23:00;CYGK 302300Z 13003KT 15SM BKN075 18/15 A2997 RMK AC7 SLP149 DENSITY ALT 600FT

CYGK;2013-10-01 00:00;CYGK 010000Z 13002KT 15SM BKN077 18/16 A2998 RMK AC7 SLP151 DENSITY ALT 600FT

CYGK;2013-10-01 01:00;CYGK 010100Z 17002KT 15SM OVC078 18/15 A2998 RMK AC8 SLP153 DENSITY ALT 600FT

CYGK;2013-10-01 02:00;CYGK 010200Z 20003KT 15SM FEW044 OVC084 18/16 A2998 RMK SC1AC8 SC TR SLP154 DENSITY ALT 600FT

CYGK;2013-10-01 03:00;CYGK 010300Z 16003KT 15SM SCT056 OVC083 18/16 A2998 RMK SC3AC5 LAST OBS/NEXT 011000 UTC SLP153 DENSITY ALT 600FT

CYGK;2013-10-01 10:00;CYGK 011000Z 23005KT 15SM FEW060 BKN095 17/16 A2998 RMK SC1AC6 SLP153 DENSITY ALT 400FT

CYGK;2013-10-01 10:36;CYGK 011036Z 19004KT 8SM SCT008 BKN060 BKN090 17/16 A2999 RMK SF4SC2AC1 SLP155 DENSITY ALT 400FT

CYGK;2013-10-01 11:00;CYGK 011100Z 21004KT 8SM FEW009 SCT060 BKN090 17/16 A2999 RMK SF2SC2AC2 SLP157 DENSITY ALT 400FT

CYGK;2013-10-01 11:36;CYGK 011136Z 24003KT 8SM BKN009 BKN057 BKN070 17/16 A3000 RMK SF5SC1AC1 SLP160 DENSITY ALT 400FT

CYGK;2013-10-01 12:00;CYGK 011200Z 22005KT 8SM SCT012 BKN055 BKN070 17/16 A3000 RMK SF4SC1AC2 SLP159 DENSITY ALT 500FT

CYGK;2013-10-01 12:14;CYGK 011214Z 22004KT 10SM BKN008 BKN052 BKN070 17/16 A3000 RMK SF6SC1AC1 AC TR SLP160 DENSITY ALT 500FT

CYGK;2013-10-01 12:37;CYGK 011237Z 24003KT 10SM BKN013 BKN055 BKN090 17/16 A3001 RMK SF5SC1AC1 SLP161 DENSITY ALT 500FT

CYGK;2013-10-01 13:00;CYGK 011300Z 26003KT 12SM BKN008 OVC060 17/16 A3001 RMK SF6SC2 SLP161 DENSITY ALT 500FT

CYGK;2013-10-01 13:46;CYGK 011346Z 27006KT 8SM BKN012 OVC058 17/16 A3001 RMK SF7SC1 SLP163 DENSITY ALT 500FT

CYGK;2013-10-01 14:00;CYGK 011400Z 25005KT 6SM BR BKN010 BKN045 OVC058 17/15 A3001 RMK SF6SC1SC1 SLP162 DENSITY ALT 500FT

CYGK;2013-10-01 14:40;CYGK 011440Z 28005KT 6SM BR SCT010 BKN050 18/16 A3001 RMK SF3SC2 SLP162 DENSITY ALT 600FT

CYGK;2013-10-01 15:00;CYGK 011500Z 28007KT 6SM BR FEW012 BKN050 19/16 A3001 RMK CF1SC4 SLP162 DENSITY ALT 700FT

CYGK;2013-10-01 16:00;CYGK 011600Z 22010KT 10SM SCT050 SCT140 BKN250 20/15 A2999 RMK CU3AC1CI1 SLP157 DENSITY ALT 900FT

CYGK;2013-10-01 17:00;CYGK 011700Z 23010KT 10SM SCT045 BKN250 21/12 A2998 RMK SC4CI1 SLP150 DENSITY ALT 1000FT

CYGK;2013-10-01 18:00;CYGK 011800Z 18012KT 11SM SCT035 20/17 A2996 RMK SC3 SLP144 DENSITY ALT 900FT

CYGK;2013-10-01 19:00;CYGK 011900Z 19012G18KT 12SM SCT045 21/16 A2995 RMK SC4 SLP141 DENSITY ALT 1000FT

CYGK;2013-10-01 20:00;CYGK 012000Z 20013KT 15SM FEW040 FEW230 21/14 A2993 RMK SC2CI1 CI TR SLP136 DENSITY ALT 1000FT

CYGK;2013-10-01 21:00;CYGK 012100Z 23012KT 15SM FEW230 21/13 A2993 RMK CI1 SLP134 DENSITY ALT 1000FT

CYGK;2013-10-01 22:00;CYGK 012200Z 23009KT 15SM FEW080 FEW230 20/14 A2992 RMK AC2CI1 CI TR SLP131 DENSITY ALT 900FT

CYGK;2013-10-01 23:00;CYGK 012300Z 20008KT 15SM FEW080 BKN190 18/16 A2992 RMK AC2CI3 SLP131 DENSITY ALT 700FT

CYGK;2013-10-02 00:00;CYGK 020000Z 20008KT 15SM SCT160 BKN210 18/16 A2992 RMK AC3CI3 SLP130 DENSITY ALT 600FT

CYGK;2013-10-02 01:00;CYGK 020100Z 20008KT 15SM BKN160 18/16 A2991 RMK AC5 SLP129 DENSITY ALT 600FT

CYGK;2013-10-02 02:00;CYGK 020200Z 21007KT 15SM SCT160 18/16 A2990 RMK AC4 SLP125 DENSITY ALT 600FT

CYGK;2013-10-02 03:00;CYGK 020300Z 19010KT 15SM FEW170 18/16 A2988 RMK AC1 LAST OBS/NEXT 021000 UTC SLP119 DENSITY ALT 700FT

CYGK;2013-10-02 10:00;CYGK 021000Z 24006KT 15SM OVC024 18/17 A2990 RMK SC8 SLP124 DENSITY ALT 700FT

CYGK;2013-10-02 11:00;CYGK 021100Z 25005KT 8SM SCT030 SCT160 BKN250 17/16 A2991 RMK SC3AC1CI1 SLP127 DENSITY ALT 600FT

CYGK;2013-10-02 12:00;CYGK 021200Z 24009KT 10SM BKN030 BKN250 18/17 A2991 RMK SC5CI1 SLP129 DENSITY ALT 700FT

CYGK;2013-10-02 13:00;CYGK 021300Z 25007KT 8SM FEW030 FEW230 19/17 A2993 RMK SC1CI1 SLP134 DENSITY ALT 800FT

CYGK;2013-10-02 14:00;CYGK 021400Z 25007KT 10SM FEW020 SCT056 BKN160 20/17 A2994 RMK CF1SC4AC2 CF TR SLP137 DENSITY ALT 900FT

CYGK;2013-10-02 15:00;CYGK 021500Z 25009KT 10SM SCT020 SCT055 21/18 A2993 RMK CU3SC1 SLP135 DENSITY ALT 1000FT

CYGK;2013-10-02 16:00;CYGK 021600Z 23011KT 10SM SCT025 SCT050 22/18 A2993 RMK CU3SC1 SLP134 DENSITY ALT 1200FT

CYGK;2013-10-02 17:00;CYGK 021700Z 26010G15KT 15SM FEW040 24/14 A2992 RMK CU1 SLP132 DENSITY ALT 1400FT

CYGK;2013-10-02 18:00;CYGK 021800Z 26011G16KT 15SM FEW045 24/13 A2992 RMK CU1 SLP130 DENSITY ALT 1400FT

CYGK;2013-10-02 19:00;CYGK 021900Z 27012G21KT 15SM FEW060 25/09 A2992 RMK CU1 SLP130 DENSITY ALT 1500FT

CYGK;2013-10-02 20:00;CYGK 022000Z 28012G20KT 15SM FEW060 25/08 A2992 RMK CF1 CF TR SLP130 DENSITY ALT 1500FT

CYGK;2013-10-02 21:00;CYGK 022100Z 27014G22KT 15SM SKC 24/07 A2992 RMK SLP133 DENSITY ALT 1300FT

CYGK;2013-10-02 22:00;CYGK 022200Z 27011G17KT 15SM SKC 22/05 A2994 RMK SLP139 DENSITY ALT 1200FT

CYGK;2013-10-02 23:00;CYGK 022300Z 27009G16KT 15SM SKC 20/05 A2996 RMK SLP146 DENSITY ALT 900FT

CYGK;2013-10-03 00:00;CYGK 030000Z 27009KT 15SM SKC 19/06 A2998 RMK SLP153 DENSITY ALT 700FT

CYGK;2013-10-03 01:00;CYGK 030100Z 27011G17KT 15SM SKC 18/04 A3000 RMK SLP158 DENSITY ALT 600FT

CYGK;2013-10-03 02:00;CYGK 030200Z 29004KT 15SM SKC 16/04 A3002 RMK SLP166

CYGK;2013-10-03 03:00;CYGK 030300Z 26005KT 15SM SKC 14/05 A3004 RMK LAST OBS NEXT 031000 UTC SLP172

CYGK;2013-10-03 10:00;CYGK 031000Z 25002KT 15SM FEW250 10/07 A3008 RMK CI1 SLP186

CYGK;2013-10-03 11:00;CYGK 031100Z 27003KT 15SM FEW080 SCT250 07/05 A3010 RMK AC1CI4 AC TR SLP194

CYGK;2013-10-03 12:00;CYGK 031200Z 30003KT 15SM FEW080 SCT250 08/07 A3011 RMK AC1CI4 AC TR PARAHELIA SLP197

CYGK;2013-10-03 13:00;CYGK 031300Z 30006KT 15SM FEW080 BKN250 13/09 A3013 RMK AC1CI4 SLP204

CYGK;2013-10-03 14:00;CYGK 031400Z 34003KT 15SM FEW020 FEW080 SCT250 15/09 A3013 RMK CU1AC1CI4 CU TR AC TR SLP205

CYGK;2013-10-03 15:00;CYGK 031500Z 15006KT 15SM FEW025 SCT250 16/10 A3012 RMK CU1CI4 CU TR SLP201

CYGK;2013-10-03 16:00;CYGK 031600Z 17007KT 15SM FEW025 BKN250 17/11 A3011 RMK CU1CI6 CU TR SLP198

CYGK;2013-10-03 17:00;CYGK 031700Z 19009KT 15SM FEW025 BKN250 18/12 A3010 RMK CF1CI6 CF TR SLP195 DENSITY ALT 400FT

CYGK;2013-10-03 18:00;CYGK 031800Z 19008KT 15SM FEW025 FEW170 BKN270 18/13 A3008 RMK CF1AC2CI3 TR CF SLP187 DENSITY ALT 500FT

CYGK;2013-10-03 19:00;CYGK 031900Z 18008KT 15SM FEW030 FEW170 BKN250 18/13 A3007 RMK CF1AC1CI5 CF TR SLP184 DENSITY ALT 500FT

CYGK;2013-10-03 20:00;CYGK 032000Z 18010KT 15SM FEW170 SCT250 18/13 A3006 RMK AC1CI2 SLP179 DENSITY ALT 600FT

CYGK;2013-10-03 21:00;CYGK 032100Z 19007KT 15SM FEW170 FEW250 18/14 A3005 RMK AC1CI1 SLP178 DENSITY ALT 600FT

CYGK;2013-10-03 22:00;CYGK 032200Z 19005KT 15SM FEW120 SCT250 17/13 A3006 RMK AC2CI1 SLP181 DENSITY ALT 400FT

CYGK;2013-10-03 23:00;CYGK 032300Z 18004KT 15SM FEW100 FEW250 16/13 A3006 RMK AC1CI1 SLP180

CYGK;2013-10-04 00:00;CYGK 040000Z 13002KT 15SM SCT110 15/12 A3006 RMK AC4 SLP179

CYGK;2013-10-04 01:00;CYGK 040100Z 36004KT 15SM FEW110 FEW250 13/12 A3007 RMK AC1CI1 SLP183

CYGK;2013-10-04 02:00;CYGK 040200Z 02002KT 15SM MIFG FEW110 FEW250 12/12 A3005 RMK AC1CI1 SLP178

CYGK;2013-10-04 03:00;CYGK 040300Z 03003KT 15SM MIFG FEW110 FEW250 10/10 A3006 RMK AC1CI1 LAST OBS/NEXT 041000 UTC SLP181

CYGK;2013-10-04 10:00;CYGK 041000Z 04006KT 15SM BKN049 OVC075 13/11 A3004 RMK SC6AC2 SLP173

CYGK;2013-10-04 11:00;CYGK 041100Z 01002KT 15SM -SHRA OVC050 OVC075 13/11 A3006 RMK SC8AC1 AC TR PRESRR SLP181

CYGK;2013-10-04 11:42;CYGK 041142Z 04006KT 15SM BKN045 OVC070 13/11 A3005 RMK SC6AC2 SLP178

CYGK;2013-10-04 12:00;CYGK 041200Z 05007KT 15SM SCT045 BKN060 OVC120 13/11 A3006 RMK SC4SC3AC1 SH DIST ALQDS SLP180

CYGK;2013-10-04 12:48;CYGK 041248Z 03007KT 15SM -RA BKN049 OVC070 13/11 A3007 RMK SC5AC3 SLP184

CYGK;2013-10-04 13:00;CYGK 041300Z 03006KT 15SM -RA BKN048 OVC060 13/11 A3007 RMK SC5SC3 SLP184

CYGK;2013-10-04 14:00;CYGK 041400Z 05008KT 15SM -RA BKN042 OVC080 14/11 A3007 RMK SC5AC3 SLP185

CYGK;2013-10-04 15:00;CYGK 041500Z 01007KT 12SM -RA BKN041 OVC080 13/11 A3008 RMK SC6AC2 SLP187

CYGK;2013-10-04 16:00;CYGK 041600Z 05008KT 15SM -RA FEW010 BKN040 OVC080 14/12 A3007 RMK CF1SC6AC2 CF TR PRESFR SLP184

CYGK;2013-10-04 16:18;CYGK 041618Z 05010G15KT 15SM VCSH FEW010 BKN040 BKN080 15/12 A3007 RMK CF1SC6AC1 CF TR SLP183

CYGK;2013-10-04 17:00;CYGK 041700Z 04011G18KT 15SM VCSH FEW008 BKN039 BKN085 15/12 A3006 RMK CF1SC5AC2 CF TR SLP179

CYGK;2013-10-04 17:23;CYGK 041723Z 05008KT 15SM -SHRA FEW008 BKN036 OVC085 15/12 A3006 RMK CF1SC7AC1 CF TR VIS LWR W CVCTV CLD ASOCTD SLP179

CYGK;2013-10-04 18:00;CYGK 041800Z 05011KT 15SM -SHRA FEW008 OVC038 15/12 A3005 RMK SF1SC8 SF TR SLP177

CYGK;2013-10-04 19:00;CYGK 041900Z 05010KT 15SM FEW008 OVC031 16/12 A3005 RMK SF1SC8 SF TR SLP176

CYGK;2013-10-04 20:00;CYGK 042000Z 05010KT 12SM -SHRA OVC031 16/12 A3005 RMK SC8 WND EST WND ESTD SLP176

CYGK;2013-10-04 20:33;CYGK 042033Z 04009KT 15SM BKN030 16/12 A3005 RMK SC7 SLP176

CYGK;2013-10-04 21:00;CYGK 042100Z 02007KT 15SM FEW015 BKN030 OVC050 16/13 A3006 RMK SF1SC5SC3 SF TR SLP179

CYGK;2013-10-04 22:00;CYGK 042200Z 04009KT 15SM BKN031 BKN270 16/12 A3005 RMK SC5CI2 SLP178

CYGK;2013-10-04 23:00;CYGK 042300Z 02007KT 15SM BKN032 BKN058 BKN270 15/11 A3006 RMK SC5SC1CI1 SLP182

CYGK;2013-10-05 00:00;CYGK 050000Z 03008KT 15SM FEW035 OVC045 15/12 A3008 RMK SC2SC6 SLP186

CYGK;2013-10-05 01:00;CYGK 050100Z 01008KT 15SM SCT050 OVC080 15/10 A3009 RMK SC3AC5 PRESRR SLP192

CYGK;2013-10-05 02:00;CYGK 050200Z 03007KT 15SM BKN055 OVC085 15/10 A3009 RMK SC7AC1 SLP190

CYGK;2013-10-05 03:00;CYGK 050300Z 01007KT 15SM SCT046 OVC088 14/10 A3009 RMK SC4AC4 LAST OBS/NEXT 051000 UTDC SLP190

CYGK;2013-10-05 10:00;CYGK 051000Z 03005KT 15SM -SHRA FEW025 BKN040 OVC070 14/07 A3010 RMK SC1SC6AC1 SLP195

CYGK;2013-10-05 10:13;CYGK 051013Z 02005KT 15SM VCSH BKN040 BKN120 13/07 A3011 RMK SC6AC1 SLP196

CYGK;2013-10-05 11:00;CYGK 051100Z 03005KT 15SM VCSH SCT040 BKN070 BKN120 13/06 A3011 RMK SC4AC2AC1 SLP197

CYGK;2013-10-05 12:00;CYGK 051200Z 02007KT 15SM BKN046 BKN070 BKN120 14/06 A3012 RMK SC5AC1AC1 SLP199

CYGK;2013-10-05 13:00;CYGK 051300Z 02007KT 15SM BKN043 BKN120 14/06 A3012 RMK SC5AC2 SLP202

CYGK;2013-10-05 14:00;CYGK 051400Z 03008KT 15SM BKN045 BKN100 14/07 A3013 RMK SC5AC2 SLP205

CYGK;2013-10-05 15:00;CYGK 051500Z 03010KT 15SM SCT043 BKN097 BKN120 15/07 A3013 RMK SC3AC4AC1 AC TR SLP204

CYGK;2013-10-05 16:00;CYGK 051600Z 03007KT 15SM FEW015 SCT045 BKN088 16/08 A3012 RMK SC1SC4AC3 SC TR SLP202

CYGK;2013-10-05 17:00;CYGK 051700Z 05011KT 15SM FEW057 SCT082 BKN110 18/08 A3011 RMK SC2AC2AC2 SLP197 DENSITY ALT 500FT

CYGK;2013-10-05 18:00;CYGK 051800Z 06016G21KT 15SM FEW050 SCT080 BKN110 19/05 A3009 RMK SC1AC2AC2 SLP190 DENSITY ALT 500FT

CYGK;2013-10-05 19:00;CYGK 051900Z 04013KT 15SM BKN053 BKN100 18/06 A3010 RMK SC5AC2 SLP194 DENSITY ALT 500FT

CYGK;2013-10-05 20:00;CYGK 052000Z 03010KT 15SM BKN053 BKN110 18/07 A3010 RMK SC6AC1 SLP193 DENSITY ALT 500FT

CYGK;2013-10-05 21:00;CYGK 052100Z 04011KT 15SM BKN050 18/06 A3010 RMK SC7 SLP193 DENSITY ALT 500FT

CYGK;2013-10-05 22:00;CYGK 052200Z 05006KT 15SM BKN048 BKN055 BKN170 17/07 A3009 RMK SC5SC1AC1 SH DIST NW SLP192 DENSITY ALT 400FT

CYGK;2013-10-05 23:00;CYGK 052300Z 06007KT 15SM SCT050 BKN160 15/08 A3007 RMK SC4AC3 SLP184

CYGK;2013-10-06 00:00;CYGK 060000Z 03007KT 15SM FEW028 BKN130 16/08 A3010 RMK SC2AC5 SLP194

CYGK;2013-10-06 01:00;CYGK 060100Z 04006KT 15SM FEW028 FEW080 BKN140 15/07 A3010 RMK SC1AC1AC5 SLP194

CYGK;2013-10-06 02:00;CYGK 060200Z 05007KT 15SM BKN140 15/07 A3011 RMK AC7 SLP196

CYGK;2013-10-06 03:00;CYGK 060300Z 04008KT 15SM OVC120 15/07 A3010 RMK AC8 LAST OBS/NEXT 061000 UTC SLP193

CYGK;2013-10-06 10:00;CYGK 061000Z 05011G16KT 15SM SCT020 OVC047 13/05 A3004 RMK SC4SC4 SLP173

CYGK;2013-10-06 10:18;CYGK 061018Z 05011KT 15SM -SHRA FEW020 BKN043 OVC120 12/05 A3003 RMK SC2SC5AC1 SLP168

CYGK;2013-10-06 11:00;CYGK 061100Z 05011G16KT 10SM -SHRA FEW012 BKN024 OVC045 11/06 A3002 RMK SC1SC6SC1 SLP168

CYGK;2013-10-06 12:00;CYGK 061200Z 05014G19KT 12SM -SHRA BKN018 BKN045 OVC110 10/07 A3000 RMK SC5SC2AC1 SLP160

CYGK;2013-10-06 12:44;CYGK 061244Z 04009KT 15SM OVC016 10/07 A3001 RMK SC8 SLP165

CYGK;2013-10-06 13:00;CYGK 061300Z 05014KT 15SM OVC015 10/07 A3000 RMK SC8 SLP161

CYGK;2013-10-06 14:00;CYGK 061400Z 04013G18KT 10SM -SHRA OVC014 11/07 A2999 RMK SC8 SLP156

CYGK;2013-10-06 15:00;CYGK 061500Z 06007KT 4SM -RA BR OVC014 11/08 A2998 RMK SC8 SLP152

CYGK;2013-10-06 16:00;CYGK 061600Z 04005KT 5SM -RA BR OVC011 11/10 A2996 RMK SC8 SLP147

CYGK;2013-10-06 16:47;CYGK 061647Z 05006KT 12SM OVC010 11/10 A2994 RMK SC8 CIG RAG SLP140

CYGK;2013-10-06 17:00;CYGK 061700Z 05006KT 12SM -RA BKN009 BKN012 11/10 A2994 RMK SF6SC1 -RA INTMT WND ESTD SLP140

CYGK;2013-10-06 18:00;CYGK 061800Z 06005KT 6SM -RA BR OVC007 12/11 A2991 RMK SF8 PRESFR SLP130

CYGK;2013-10-06 19:00;CYGK 061900Z 04006KT 8SM -RA OVC007 12/12 A2990 RMK SF8 SLP124

CYGK;2013-10-06 19:21;CYGK 061921Z 06008KT 10SM FEW002 OVC007 13/13 A2989 RMK SF2SC6 SLP123

CYGK;2013-10-06 20:00;CYGK 062000Z 03006KT 12SM FEW002 BKN004 BKN250 14/14 A2987 RMK SF2SC5CI1 CI TR SLP117

CYGK;2013-10-06 21:00;CYGK 062100Z 04005KT 8SM BKN004 OVC250 15/14 A2986 RMK SC7CI1 SLP112 DENSITY ALT 400FT

CYGK;2013-10-06 21:21;CYGK 062121Z 05006KT 6SM BR BKN002 BKN250 15/14 A2985 RMK SF6CI1 SLP109 DENSITY ALT 400FT

CYGK;2013-10-06 21:43;CYGK 062143Z 03007KT 2SM BR OVC002 15/14 A2985 RMK SF8 VIS S-SW 6 SLP109 DENSITY ALT 400FT

CYGK;2013-10-06 22:00;CYGK 062200Z 03006KT 1 1/4SM BR OVC002 15/14 A2985 RMK FG2SF6 VIS N 3/4 VIS S 3 SLP108

CYGK;2013-10-06 22:04;CYGK 062204Z 03006KT 3/4SM BR OVC002 15/14 A2985 RMK FG4SF4 SLP108 DENSITY ALT 400FT

CYGK;2013-10-06 22:07;CYGK 062207Z 03006KT 1/2SM FG VV002 15/14 A2985 RMK FG8 SLP108 DENSITY ALT 400FT

CYGK;2013-10-06 22:12;CYGK 062212Z 04006KT 1/4SM FG VV002 15/15 A2984 RMK FG8 SLP106 DENSITY ALT 400FT

CYGK;2013-10-06 23:00;CYGK 062300Z 02006KT 1/4SM FG VV001 15/15 A2984 RMK FG8 SLP105 DENSITY ALT 400FT

CYGK;2013-10-06 23:12;CYGK 062312Z 04006KT 1/2SM FG VV002 15/14 A2984 RMK FG8 SLP105 DENSITY ALT 400FT

CYGK;2013-10-06 23:16;CYGK 062316Z 04005KT 3/4SM BR BKN002 BKN010 15/14 A2984 RMK FG4SF2SC1 SLP105 DENSITY ALT 400FT

CYGK;2013-10-06 23:26;CYGK 062326Z 04006KT 1 1/2SM BR BKN002 BKN050 15/14 A2984 RMK SF5SC2 SLP105 DENSITY ALT 400FT

CYGK;2013-10-06 23:46;CYGK 062346Z 04006KT 3/4SM BR BKN002 BKN060 15/15 A2984 RMK FG2SF4SC1 SLP104 DENSITY ALT 400FT

CYGK;2013-10-07 00:00;CYGK 070000Z 05006KT 3/4SM BR BKN002 BKN050 15/15 A2983 RMK FG2SF3SC2 SLP103 DENSITY ALT 400FT

CYGK;2013-10-07 00:14;CYGK 070014Z 07006KT 1 1/2SM BR SCT002 BKN060 BKN100 14/14 A2982 RMK SF3SC2AC1 SLP100 DENSITY ALT 400FT

CYGK;2013-10-07 00:35;CYGK 070035Z 06005KT 4SM BR FEW002 BKN055 14/14 A2982 RMK SF2SC4 SLP100 DENSITY ALT 400FT

CYGK;2013-10-07 01:00;CYGK 070100Z 06003KT 10SM FEW002 SCT055 14/14 A2982 RMK SF1SC3 SF TR SLP099

CYGK;2013-10-07 01:39;CYGK 070139Z 13014G23KT 15SM SCT060 19/17 A2980 RMK SC4 FROPA SLP093 DENSITY ALT 900FT

CYGK;2013-10-07 02:00;CYGK 070200Z 15017G23KT 15SM SCT060 19/17 A2979 RMK SC3 SLP088 DENSITY ALT 1000FT

CYGK;2013-10-07 03:00;CYGK 070300Z 16024G31KT 15SM FEW060 19/17 A2978 RMK SC2 LAST OBS/NEXT 071000 UTC SLP083 DENSITY ALT 1000FT

CYGK;2013-10-07 10:00;CYGK 071000Z 16024G31KT 15SM FEW120 20/17 A2966 RMK AC2 SLP044 DENSITY ALT 1200FT

CYGK;2013-10-07 11:00;CYGK 071100Z 15022G31KT 15SM BKN058 BKN120 20/17 A2964 RMK SC6AC1 SLP038 DENSITY ALT 1200FT

CYGK;2013-10-07 12:00;CYGK 071200Z 15022G30KT 15SM BKN055 BKN190 20/17 A2963 RMK SC6AC1 SLP032 DENSITY ALT 1200FT

CYGK;2013-10-07 12:39;CYGK 071239Z 16022G29KT 15SM -SHRA BKN036 BKN080 BKN190 20/17 A2961 RMK CU5AC2AC1 AC TR SLP028 DENSITY ALT 1300FT

CYGK;2013-10-07 13:00;CYGK 071300Z 17019KT 12SM -RA BKN031 BKN080 OVC120 19/18 A2962 RMK SC6AC1AC1 SLP031 DENSITY ALT 1200FT

CYGK;2013-10-07 13:13;CYGK 071313Z 20020G37KT 12SM -SHRA FEW007 BKN011 OVC080 19/18 A2964 RMK SF1CU7AC1 SF TR SLP035 DENSITY ALT 1200FT

CYGK;2013-10-07 13:32;CYGK 071332Z 27011KT 12SM -SHRA FEW007 SCT011 BKN025 OVC080 18/16 A2963 RMK SF1SC3CU4AC1 SF TR VIS W 5 SLP033 DENSITY ALT 1000FT

CYGK;2013-10-07 14:00;CYGK 071400Z 27010G//KT 6SM -SHRA BR FEW011 OVC036 17/15 A2964 RMK SC2SC6 WND ESTD SLP038 DENSITY ALT 800FT

CYGK;2013-10-07 15:00;CYGK 071500Z 25012G18KT 4SM -SHRA BR FEW013 OVC050 15/14 A2964 RMK SC2SC6 SLP038 DENSITY ALT 700FT

CYGK;2013-10-07 15:24;CYGK 071524Z 26009KT 4SM -SHRA BR BKN007 OVC013 15/15 A2964 RMK SF5SC3 SLP038 DENSITY ALT 700FT

CYGK;2013-10-07 16:00;CYGK 071600Z 24012G17KT 5SM -SHRA BR BKN007 OVC013 15/15 A2966 RMK SF6SC2 CIG RAG SLP042 DENSITY ALT 700FT

CYGK;2013-10-07 17:00;CYGK 071700Z 25012G19KT 5SM -SHRA BR BKN008 OVC022 15/14 A2966 RMK SF5SC3 SLP042 DENSITY ALT 600FT

CYGK;2013-10-07 17:10;CYGK 071710Z 25013G20KT 6SM -SHRA BR SCT008 BKN022 OVC075 15/14 A2966 RMK SF3SC4AC1 SLP043 DENSITY ALT 600FT

CYGK;2013-10-07 17:19;CYGK 071719Z 25015G22KT 5SM -SHRA BR FEW008 BKN012 OVC022 14/13 A2965 RMK SF2SC4SC2 SLP041 DENSITY ALT 600FT

CYGK;2013-10-07 18:00;CYGK 071800Z 26011G19KT 6SM -SHRA BR FEW008 OVC058 13/12 A2967 RMK SF1SC7 SLP047 DENSITY ALT 400FT

CYGK;2013-10-07 18:43;CYGK 071843Z 24009G18KT 12SM FEW008 BKN046 BKN080 13/12 A2968 RMK SF1SC6AC1 SF TR SLP050 DENSITY ALT 400FT

CYGK;2013-10-07 19:00;CYGK 071900Z 24013G19KT 15SM FEW010 BKN050 BKN080 14/12 A2968 RMK SF1SC5AC2 SF TR SLP052 DENSITY ALT 500FT

CYGK;2013-10-07 20:00;CYGK 072000Z 22020G28KT 15SM FEW010 FEW025 SCT050 BKN150 BKN250 15/08 A2969 RMK SF1CU1SC3AC2CI2 SF TR CU TR SLP055 DENSITY ALT 500FT

CYGK;2013-10-07 21:00;CYGK 072100Z 23026G34KT 15SM FEW010 FEW040 SCT150 SCT200 15/08 A2971 RMK SF1CU2AC1CI1 SF TR SLP061 DENSITY ALT 600FT

CYGK;2013-10-07 22:00;CYGK 072200Z 22019G32KT 15SM FEW038 SCT120 SCT200 15/08 A2974 RMK SC1AC2CI1 SLP071 DENSITY ALT 500FT

CYGK;2013-10-07 23:00;CYGK 072300Z 24020G31KT 15SM FEW040 FEW120 SCT200 15/08 A2978 RMK CU1AC1CI1 TCU ASOCTD DIST SE SH DIST SE SLP085 DENSITY ALT 400FT

CYGK;2013-10-08 00:00;CYGK 080000Z 25020G32KT 15SM SCT060 BKN090 15/09 A2981 RMK SC4AC2 SLP095 DENSITY ALT 400FT

CYGK;2013-10-08 01:00;CYGK 080100Z 28016G29KT 15SM SCT034 OVC060 14/06 A2986 RMK SC4SC4 PRESRR SLP111

CYGK;2013-10-08 02:00;CYGK 080200Z 27012G19KT 15SM FEW040 12/07 A2990 RMK SC2 SLP126

CYGK;2013-10-08 03:00;CYGK 080300Z 28010KT 15SM FEW040 11/07 A2995 RMK SC2 LAST OBS/NEXT 081000 UTC SLP142

CYGK;2013-10-08 10:00;CYGK 081000Z 29005KT 15SM BKN055 08/04 A3017 RMK SC7 SLP217

CYGK;2013-10-08 11:00;CYGK 081100Z 30003KT 15SM SCT055 07/04 A3020 RMK SC4 SLP228

CYGK;2013-10-08 12:00;CYGK 081200Z 31002KT 15SM FEW055 07/04 A3023 RMK SC2 SLP238

CYGK;2013-10-08 13:00;CYGK 081300Z 33004KT 15SM FEW035 FEW050 FEW250 09/06 A3026 RMK SC1SC1CI1 SC TR SC TR SLP248

CYGK;2013-10-08 14:00;CYGK 081400Z 33005KT 15SM FEW030 FEW050 11/05 A3029 RMK CU1SC1 SLP258

CYGK;2013-10-08 15:00;CYGK 081500Z 36005KT 15SM FEW030 13/ RMK CU1 ALT 30.30 VIA CYXU

CYGK;2013-10-08 16:00;CYGK 081600Z 20006KT 15SM SCT040 14/05 A3031 RMK CU4 SLP265

CYGK;2013-10-08 17:00;CYGK 081700Z 17006KT 15SM BKN045 14/07 A3030 RMK CU6 SLP263

CYGK;2013-10-08 18:00;CYGK 081800Z 21007KT 15SM SCT042 15/07 A3030 RMK SC3 SLP262

CYGK;2013-10-08 19:00;CYGK 081900Z 19009KT 15SM SCT040 14/06 A3031 RMK SC4 SLP267

CYGK;2013-10-08 20:00;CYGK 082000Z 18010KT 15SM FEW045 15/07 A3032 RMK SC2 SLP268

CYGK;2013-10-08 21:00;CYGK 082100Z 20009KT 15SM FEW043 15/08 A3032 RMK SC1 SLP271

CYGK;2013-10-08 22:00;CYGK 082200Z 20010KT 15SM FEW042 14/06 A3032 RMK SC1 SC TR SLP271

CYGK;2013-10-08 23:00;CYGK 082300Z 20006KT 15SM FEW040 13/07 A3034 RMK SC1 SC TR SLP276

CYGK;2013-10-09 00:00;CYGK 090000Z 24004KT 15SM SKC 13/07 A3034 RMK SLP277

CYGK;2013-10-09 01:00;CYGK 090100Z 32004KT 15SM SKC 10/07 A3034 RMK SLP277

CYGK;2013-10-09 02:00;CYGK 090200Z 00000KT 15SM SKC 09/07 A3036 RMK SLP283

CYGK;2013-10-09 03:00;CYGK 090300Z 00000KT 15SM SKC 07/06 A3036 RMK LAST OBS/NEXT 091000 UTC SLP283

CYGK;2013-10-09 10:00;CYGK 091000Z 04004KT 15SM SKC 04/03 A3040 RMK SLP295

CYGK;2013-10-09 11:00;CYGK 091100Z 04004KT 15SM FEW250 03/03 A3041 RMK CI1 SLP299

CYGK;2013-10-09 12:00;CYGK 091200Z 05003KT 15SM FEW250 06/06 A3041 RMK CI1 SLP300

CYGK;2013-10-09 13:00;CYGK 091300Z 04002KT 15SM FEW250 11/09 A3042 RMK CI1 SLP304

CYGK;2013-10-09 14:00;CYGK 091400Z 13005KT 15SM FEW030 FEW250 14/10 A3043 RMK CF1CI1 TR CF SLP308

CYGK;2013-10-09 15:00;CYGK 091500Z 17009KT 15SM FEW030 FEW250 15/08 A3044 RMK CF1CI1 SLP310

CYGK;2013-10-09 16:00;CYGK 091600Z 19010KT 15SM FEW030 FEW250 15/09 A3043 RMK SC1CC1 SLP308

CYGK;2013-10-09 17:00;CYGK 091700Z 17007KT 15SM FEW030 FEW250 15/09 A3043 RMK SC1CI1 SC TR SLP305

CYGK;2013-10-09 18:00;CYGK 091800Z 18004KT 15SM FEW270 16/09 A3040 RMK CI1 SLP295

CYGK;2013-10-09 19:00;CYGK 091900Z 16004KT 15SM FEW250 16/08 A3037 RMK CI1 SLP286

CYGK;2013-10-09 20:00;CYGK 092000Z 16007KT 15SM SCT270 16/08 A3036 RMK CI3 SLP282

CYGK;2013-10-09 21:00;CYGK 092100Z 18003KT 15SM SCT250 16/06 A3035 RMK CI4 SLP278

CYGK;2013-10-09 22:00;CYGK 092200Z 00000KT 15SM BKN250 15/06 A3033 RMK CI6 SLP273

CYGK;2013-10-09 23:00;CYGK 092300Z 00000KT 15SM BKN250 12/06 A3033 RMK CI6 SLP272

CYGK;2013-10-10 00:00;CYGK 100000Z 06002KT 15SM BKN240 11/06 A3032 RMK CI5 SLP270

CYGK;2013-10-10 01:00;CYGK 100100Z 36003KT 15SM BKN240 10/07 A3033 RMK CI5 SLP273

CYGK;2013-10-10 02:00;CYGK 100200Z 36003KT 15SM BKN240 08/06 A3032 RMK CI5 SLP270

CYGK;2013-10-10 03:00;CYGK 100300Z 36003KT 15SM BKN240 06/05 A3032 RMK CI6 LAST OBS/NEXT 101000 UTC SLP270

CYGK;2013-10-10 10:00;CYGK 101000Z 01004KT 15SM FEW250 04/03 A3029 RMK CI1 SLP259

CYGK;2013-10-10 11:00;CYGK 101100Z 04004KT 15SM FEW100 FEW200 SCT250 05/05 A3030 RMK AC1CI1CI2 SLP264

CYGK;2013-10-10 12:00;CYGK 101200Z 04004KT 15SM FEW200 BKN250 07/07 A3031 RMK CI2CI3 SLP265

CYGK;2013-10-10 13:00;CYGK 101300Z 06005KT 15SM BKN250 10/08 A3031 RMK CI5 SLP267

CYGK;2013-10-10 14:00;CYGK 101400Z 09003KT 15SM BKN250 13/10 A3031 RMK CI6 SLP266

CYGK;2013-10-10 15:00;CYGK 101500Z 15004KT 15SM BKN250 14/08 A3030 RMK CI6 SLP264

CYGK;2013-10-10 16:00;CYGK 101600Z 16005KT 15SM BKN250 15/09 A3029 RMK CI6 SLP260

CYGK;2013-10-10 17:00;CYGK 101700Z 16006KT 15SM BKN220 16/10 A3028 RMK CI6 SLP257

CYGK;2013-10-10 18:00;CYGK 101800Z 20005KT 15SM BKN230 16/09 A3026 RMK CI7 SLP249

CYGK;2013-10-10 19:00;CYGK 101900Z 15002KT 15SM BKN230 16/09 A3024 RMK CI6 SLP243

CYGK;2013-10-10 20:00;CYGK 102000Z 18002KT 15SM BKN230 16/09 A3024 RMK CI6 SLP240

CYGK;2013-10-10 21:00;CYGK 102100Z 00000KT 15SM BKN230 16/10 A3022 RMK CI6 SLP234

CYGK;2013-10-10 22:00;CYGK 102200Z 00000KT 15SM SCT180 BKN230 16/11 A3021 RMK AC3CI2 SLP232

CYGK;2013-10-10 23:00;CYGK 102300Z 36002KT 15SM FEW180 SCT240 14/10 A3021 RMK AC2CC2 SLP230

CYGK;2013-10-11 00:00;CYGK 110000Z 35004KT 15SM SCT240 12/11 A3020 RMK CI4 SLP228

CYGK;2013-10-11 01:00;CYGK 110100Z 35005KT 15SM SCT240 10/09 A3020 RMK CC3 SLP227

CYGK;2013-10-11 02:00;CYGK 110200Z 35005KT 15SM SCT240 09/08 A3019 RMK CI3 SLP224

CYGK;2013-10-11 03:00;CYGK 110300Z 00000KT 15SM FEW240 08/07 A3019 RMK CI2 LAST OBS/NEXT 111000 UTC SLP224

CYGK;2013-10-11 10:00;CYGK 111000Z 02005KT 15SM FEW200 05/04 A3018 RMK CI1 SLP221

CYGK;2013-10-11 11:00;CYGK 111100Z 01007KT 15SM FEW120 SCT200 05/04 A3018 RMK AC1CI3 SLP220

CYGK;2013-10-11 12:00;CYGK 111200Z 03005KT 15SM FEW120 SCT200 BKN250 08/06 A3018 RMK AC1CI3CI3 SLP220

CYGK;2013-10-11 13:00;CYGK 111300Z 03006KT 15SM FEW120 BKN250 10/08 A3018 RMK AC1CI7 AC TR SLP220

CYGK;2013-10-11 14:00;CYGK 111400Z 03007KT 15SM FEW120 BKN250 12/08 A3018 RMK AC1CI7 AC TR SLP223

CYGK;2013-10-11 15:00;CYGK 111500Z 05007KT 15SM FEW120 BKN250 15/08 A3019 RMK AC1CI6 AC TR SLP225

CYGK;2013-10-11 16:00;CYGK 111600Z 05009KT 15SM BKN250 17/07 A3018 RMK CI6 SLP220

CYGK;2013-10-11 17:00;CYGK 111700Z 06007KT 15SM BKN250 19/08 A3016 RMK CI5 SLP215 DENSITY ALT 500FT

CYGK;2013-10-11 18:00;CYGK 111800Z 02007KT 15SM SCT250 21/06 A3015 RMK CI4 SLP210 DENSITY ALT 700FT

CYGK;2013-10-11 19:00;CYGK 111900Z 02006KT 15SM FEW250 22/06 A3014 RMK CI1 SLP206 DENSITY ALT 800FT

CYGK;2013-10-11 20:00;CYGK 112000Z 02005KT 15SM FEW250 22/06 A3013 RMK CI1 SLP204 DENSITY ALT 900FT

CYGK;2013-10-11 21:00;CYGK 112100Z 01005KT 15SM FEW250 21/06 A3013 RMK CI1 SLP205 DENSITY ALT 800FT

CYGK;2013-10-11 22:00;CYGK 112200Z 02005KT 15SM FEW250 20/06 A3014 RMK CI1 SLP207 DENSITY ALT 600FT

CYGK;2013-10-11 23:00;CYGK 112300Z 02006KT 15SM FEW250 18/05 A3014 RMK CI1 SLP207 DENSITY ALT 400FT

CYGK;2013-10-12 00:00;CYGK 120000Z 02006KT 15SM SKC 14/05 A3014 RMK SLP209

CYGK;2013-10-12 01:00;CYGK 120100Z 03007KT 15SM SKC 15/04 A3015 RMK SLP210

CYGK;2013-10-12 02:00;CYGK 120200Z 02005KT 15SM SKC 12/05 A3015 RMK SLP213

CYGK;2013-10-12 03:00;CYGK 120300Z 02005KT 15SM SKC 09/05 A3015 RMK LAST OBS/NEXT 121000 UTC SLP211

CYGK;2013-10-12 10:00;CYGK 121000Z 03004KT 15SM SKC 09/07 A3020 RMK SLP226

CYGK;2013-10-12 11:00;CYGK 121100Z 02004KT 15SM SKC 07/06 A3021 RMK SLP232

CYGK;2013-10-12 12:00;CYGK 121200Z 03005KT 15SM SKC 09/07 A3024 RMK SLP241

CYGK;2013-10-12 13:00;CYGK 121300Z 03004KT 15SM SKC 12/08 A3024 RMK SLP242

CYGK;2013-10-12 14:00;CYGK 121400Z 04005KT 15SM SKC 15/09 A3024 RMK SLP241

CYGK;2013-10-12 15:00;CYGK 121500Z 07003KT 15SM SKC 17/08 A3024 RMK SLP243

CYGK;2013-10-12 16:00;CYGK 121600Z 15003KT 15SM SKC 20/06 A3024 RMK SLP240 DENSITY ALT 500FT

CYGK;2013-10-12 17:00;CYGK 121700Z 16004KT 15SM SKC 21/06 A3022 RMK SLP235 DENSITY ALT 600FT

CYGK;2013-10-12 18:00;CYGK 121800Z 13006KT 15SM SKC 20/07 A3022 RMK SLP233 DENSITY ALT 600FT

CYGK;2013-10-12 19:00;CYGK 121900Z 17004KT 15SM SKC 21/08 A3021 RMK SLP230 DENSITY ALT 700FT

CYGK;2013-10-12 20:00;CYGK 122000Z 18003KT 15SM SKC 22/09 A3019 RMK SLP225 DENSITY ALT 800FT

CYGK;2013-10-12 21:00;CYGK 122100Z 20004KT 15SM SKC 21/08 A3018 RMK SLP222 DENSITY ALT 700FT

CYGK;2013-10-12 22:00;CYGK 122200Z 00000KT 15SM FEW250 20/08 A3018 RMK CI1 SLP221 DENSITY ALT 600FT

CYGK;2013-10-12 23:00;CYGK 122300Z 06002KT 15SM FEW250 16/09 A3019 RMK CI1 SLP224

CYGK;2013-10-13 00:00;CYGK 130000Z 06006KT 15SM SKC 16/08 A3020 RMK SLP227

CYGK;2013-10-13 01:00;CYGK 130100Z 06003KT 15SM SKC 15/09 A3020 RMK SLP230

CYGK;2013-10-13 02:00;CYGK 130200Z 05003KT 15SM SKC 13/08 A3022 RMK SLP233

CYGK;2013-10-13 03:00;CYGK 130300Z 05003KT 15SM SKC 13/09 A3023 RMK LAST OBS/NEXT 131000 UTC SLP237

CYGK;2013-10-13 10:00;CYGK 131000Z 17016KT 15SM FEW250 15/11 A3029 RMK CI1 SLP258

CYGK;2013-10-13 11:00;CYGK 131100Z 16016KT 15SM FEW017 FEW090 SCT250 15/11 A3030 RMK SC1AC1CI2 SC TR SLP262

CYGK;2013-10-13 12:00;CYGK 131200Z 15015G22KT 15SM FEW100 BKN250 15/11 A3030 RMK AC1CI4 SLP261

CYGK;2013-10-13 13:00;CYGK 131300Z 15015KT 15SM SCT100 BKN250 16/11 A3031 RMK AC3CI3 SLP264

CYGK;2013-10-13 14:00;CYGK 131400Z 16015KT 15SM FEW012 SCT030 BKN100 BKN250 16/11 A3032 RMK CF1SC4AC1CI2 CF TR SLP269

CYGK;2013-10-13 15:00;CYGK 131500Z 17014KT 15SM FEW015 SCT030 SCT100 BKN250 17/11 A3032 RMK CF1SC3AC1CI2 CF TR SLP270

CYGK;2013-10-13 16:00;CYGK 131600Z 18012KT 15SM FEW015 FEW030 SCT160 BKN250 17/11 A3032 RMK CF1SC1AC1CI2 SLP267

CYGK;2013-10-13 17:00;CYGK 131700Z 17012KT 15SM FEW030 FEW150 BKN250 18/12 A3030 RMK SC1AC1CI3 SLP260

CYGK;2013-10-13 18:00;CYGK 131800Z 17010KT 15SM SCT050 BKN120 BKN250 18/12 A3028 RMK SC3AC2CI1 SLP254

CYGK;2013-10-13 19:00;CYGK 131900Z 18011KT 15SM FEW050 BKN120 OVC250 18/12 A3027 RMK SC1AC4CI3 SLP251

CYGK;2013-10-13 20:00;CYGK 132000Z 17008KT 15SM FEW050 BKN130 BKN250 18/13 A3026 RMK SC1AC5CI1 SLP246

CYGK;2013-10-13 21:00;CYGK 132100Z 18005KT 15SM FEW050 BKN130 18/14 A3025 RMK SC1AC6 SLP243

CYGK;2013-10-13 22:00;CYGK 132200Z 17005KT 15SM BKN040 BKN130 18/14 A3025 RMK SC5AC2 SLP243

CYGK;2013-10-13 23:00;CYGK 132300Z 17006KT 12SM -RA SCT040 OVC070 18/14 A3025 RMK SC4AC4 SLP244

CYGK;2013-10-13 23:46;CYGK 132346Z 17004KT 15SM OVC038 17/15 A3025 RMK SC8 SLP245

CYGK;2013-10-14 00:00;CYGK 140000Z 18003KT 15SM BKN038 OVC046 17/15 A3025 RMK SC5SC3 SLP244

CYGK;2013-10-14 01:00;CYGK 140100Z 21007KT 12SM OVC030 18/15 A3026 RMK SC8 SLP246

CYGK;2013-10-14 01:19;CYGK 140119Z 20010KT 6SM -RA BR FEW010 OVC020 17/15 A3026 RMK SF2SC6 SLP248

CYGK;2013-10-14 01:42;CYGK 140142Z 25004KT 12SM FEW010 OVC035 17/16 A3026 RMK SF2SC6 SLP246

CYGK;2013-10-14 02:00;CYGK 140200Z 23005KT 10SM -RA BKN011 OVC035 17/16 A3026 RMK SF5SC3 VIS W 4 SLP247

CYGK;2013-10-14 02:17;CYGK 140217Z 22006KT 8SM -RA OVC008 17/16 A3026 RMK SF8 SLP248

CYGK;2013-10-14 02:28;CYGK 140228Z 22006KT 10SM -RA SCT006 OVC025 17/16 A3026 RMK SF4SC4 SLP246

CYGK;2013-10-14 03:00;CYGK 140300Z 19007KT 4SM -RA BR BKN020 OVC030 16/16 A3026 RMK SC6SC2 LAST OBS/NEXT 141000 UTC SLP246

CYGK;2013-10-14 10:00;CYGK 141000Z 28004KT 3SM -DZ BR OVC018 15/14 A3026 RMK ST8 SLP248

CYGK;2013-10-14 11:00;CYGK 141100Z 27006KT 4SM -RA BR FEW016 SCT023 OVC037 14/14 A3027 RMK SF2SC2SC4 SLP251

CYGK;2013-10-14 11:17;CYGK 141117Z 29005KT 8SM FEW009 SCT023 OVC044 14/13 A3027 RMK SF2SC1SC5 SLP251

CYGK;2013-10-14 12:00;CYGK 141200Z 28005KT 15SM FEW009 FEW020 BKN038 14/12 A3028 RMK SF1SC2SC5 SF TR SLP254

CYGK;2013-10-14 13:00;CYGK 141300Z 30007KT 15SM FEW010 FEW040 BKN061 BKN100 13/12 A3029 RMK SF1SC1SC6AC1 SF TR SC TR SLP258

CYGK;2013-10-14 14:00;CYGK 141400Z 32008KT 15SM FEW010 FEW040 FEW061 FEW100 14/11 A3030 RMK SF1SC1SC1AC1 SF TR SC TR SLP260

CYGK;2013-10-14 15:00;CYGK 141500Z 28006KT 15SM FEW020 FEW100 16/12 A3030 RMK CF1AC2 CF TR SLP260

CYGK;2013-10-14 16:00;CYGK 141600Z 26008KT 15SM FEW030 FEW100 17/11 A3030 RMK CU2AC1 AC TR SLP260

CYGK;2013-10-14 17:00;CYGK 141700Z 24009KT 15SM FEW030 FEW100 FEW240 17/11 A3028 RMK CU2AC1CI1 AC TR CI TR SLP255

CYGK;2013-10-14 18:00;CYGK 141800Z 21012KT 15SM SCT035 SCT100 SCT250 18/10 A3027 RMK CU3AC1CI1 AC TR CI TR SLP251

CYGK;2013-10-14 19:00;CYGK 141900Z 28009KT 15SM FEW039 FEW100 SCT250 18/09 A3026 RMK SC1AC1CI1 SLP249

CYGK;2013-10-14 20:00;CYGK 142000Z 33008KT 15SM FEW040 FEW100 FEW250 17/08 A3026 RMK SC1AC1CI1 AC TR SLP246

CYGK;2013-10-14 21:00;CYGK 142100Z 35007KT 15SM FEW040 FEW100 FEW250 16/06 A3026 RMK SC1AC1CI1 AC TR SLP248

CYGK;2013-10-14 22:00;CYGK 142200Z 30004KT 15SM FEW040 FEW250 15/08 A3028 RMK SC1CI1 SLP255

CYGK;2013-10-14 23:00;CYGK 142300Z 33007KT 15SM FEW040 FEW250 13/09 A3030 RMK SC1CI1 SC TR SLP262

CYGK;2013-10-15 00:00;CYGK 150000Z 35003KT 15SM FEW250 11/09 A3030 RMK CI1 SLP263

CYGK;2013-10-15 01:00;CYGK 150100Z 36005KT 15SM FEW210 11/09 A3031 RMK CI1 SLP265

CYGK;2013-10-15 02:00;CYGK 150200Z 33003KT 15SM SCT200 09/08 A3031 RMK CI3 SLP266

CYGK;2013-10-15 03:00;CYGK 150300Z 35005KT 15SM MIFG FEW200 08/08 A3031 RMK CI2 LAST OBS/NEXT 151000UTC SLP265

CYGK;2013-10-15 10:00;CYGK 151000Z 36005KT 15SM SCT040 05/05 A3027 RMK SC4 SLP252

CYGK;2013-10-15 11:00;CYGK 151100Z 04004KT 15SM FEW040 SCT230 07/07 A3026 RMK SC2CI1 SLP250

CYGK;2013-10-15 12:00;CYGK 151200Z 06003KT 12SM FEW010 FEW040 BKN230 07/07 A3027 RMK SF1SC2CI4 SF TR SLP252

CYGK;2013-10-15 12:43;CYGK 151243Z 06005KT 10SM BKN003 BKN040 09/08 A3027 RMK SF5SC1 SLP252

CYGK;2013-10-15 12:51;CYGK 151251Z 06004KT 2SM BR BKN002 09/09 A3026 RMK SF7 SLP250

CYGK;2013-10-15 13:00;CYGK 151300Z 06006KT 15SM PRFG SCT042 10/09 A3026 RMK FG2SC2 VIS E-SW 1/2 SLP249

CYGK;2013-10-15 13:21;CYGK 151321Z 06006KT 1 1/2SM BR BKN002 BKN040 10/09 A3026 RMK ST6SC1 VIS N-NW 12 SLP249

CYGK;2013-10-15 13:37;CYGK 151337Z 06004KT 1/2SM FG VV001 10/09 A3026 RMK FG8 VIS N 4 SLP248

CYGK;2013-10-15 13:49;CYGK 151349Z 06005KT 1SM BR VV002 09/09 A3026 RMK FG8 VIS VRB 1/2-11/2 SLP247

CYGK;2013-10-15 14:00;CYGK 151400Z 04004KT 1SM BR VV002 10/09 A3026 RMK FG8 VIS VRB 1/2-11/2 SLP248

CYGK;2013-10-15 14:08;CYGK 151408Z 04004KT 1/4SM FG VV005 10/09 A3026 RMK FG8 SLP249

CYGK;2013-10-15 14:40;CYGK 151440Z 02003KT 1/2SM FG VV002 10/10 A3025 RMK FG8 SLP245

CYGK;2013-10-15 14:48;CYGK 151448Z 04003KT 1SM BR OVC002 10/10 A3025 RMK FG5SF3 SLP244

CYGK;2013-10-15 15:00;CYGK 151500Z 05003KT 1 1/2SM BR OVC003 11/11 A3024 RMK FG2SF6 SLP242

CYGK;2013-10-15 15:10;CYGK 151510Z 06006KT 3SM BR BKN003 BKN042 BKN240 12/11 A3024 RMK SF5SC2CI1 CI TR SLP240

CYGK;2013-10-15 15:21;CYGK 151521Z 07005KT 4SM BR SCT003 BKN042 BKN240 12/11 A3023 RMK SC3SC2CI1 SLP239

CYGK;2013-10-15 16:00;CYGK 151600Z 12006KT 10SM FEW008 SCT040 BKN240 15/12 A3021 RMK SF1SC2CI4 SLP231

CYGK;2013-10-15 17:00;CYGK 151700Z 16006KT 15SM FEW020 SCT047 BKN140 BKN210 15/12 A3020 RMK CU1SC2AC2CI2 SLP228

CYGK;2013-10-15 18:00;CYGK 151800Z 15007KT 15SM FEW020 SCT047 BKN230 16/11 A3017 RMK CU1SC3CI2 SLP219

CYGK;2013-10-15 19:00;CYGK 151900Z 15004KT 15SM FEW025 FEW140 BKN230 17/09 A3014 RMK CU1AC1CI6 AC TR SLP208

CYGK;2013-10-15 20:00;CYGK 152000Z 17005KT 15SM FEW025 SCT045 SCT140 BKN250 17/09 A3012 RMK CU1SC3AC1CI3 AC TR SLP200

CYGK;2013-10-15 21:00;CYGK 152100Z 14002KT 15SM BKN045 BKN250 16/10 A3010 RMK SC5CI2 SLP194

CYGK;2013-10-15 22:00;CYGK 152200Z 34003KT 15SM BKN050 BKN250 16/11 A3008 RMK SC6CI1 SLP189

CYGK;2013-10-15 23:00;CYGK 152300Z 07003KT 15SM BKN041 BKN250 14/10 A3007 RMK SC6CI1 SLP185

CYGK;2013-10-16 00:00;CYGK 160000Z 07002KT 15SM BKN040 15/11 A3006 RMK SC6 SLP179

CYGK;2013-10-16 01:00;CYGK 160100Z 09006KT 15SM SCT038 OVC240 15/11 A3004 RMK SC4CS4 SLP173

CYGK;2013-10-16 02:00;CYGK 160200Z 09006KT 15SM SCT050 BKN075 OVC240 14/11 A3002 RMK SC3AC3CS2 SLP167

CYGK;2013-10-16 03:00;CYGK 160300Z 07005KT 15SM BKN050 OVC250 14/11 A3000 RMK SC5CS3 LAST OBS/NEXT 161000 UTC SLP160

CYGK;2013-10-16 10:00;CYGK 161000Z 17017G22KT 15SM BKN062 OVC140 17/13 A2990 RMK SC6AC2 SLP125 DENSITY ALT 500FT

CYGK;2013-10-16 11:00;CYGK 161100Z 17020G26KT 15SM BKN039 BKN062 OVC140 17/12 A2988 RMK SC6SC1AC1 SLP119 DENSITY ALT 600FT

CYGK;2013-10-16 12:00;CYGK 161200Z 17018G27KT 15SM SCT032 BKN060 OVC120 17/12 A2988 RMK SC3SC2AC3 SLP119 DENSITY ALT 600FT

CYGK;2013-10-16 12:45;CYGK 161245Z 18019G26KT 5SM -SHRA BR OVC031 16/12 A2989 RMK CU8 CVCTV CLD EMBD SLP124 DENSITY ALT 400FT

CYGK;2013-10-16 13:00;CYGK 161300Z 19017G27KT 8SM -SHRA OVC031 16/11 A2989 RMK SC8 SLP124 DENSITY ALT 400FT

CYGK;2013-10-16 14:00;CYGK 161400Z 18020G25KT 11SM -SHRA BKN023 BKN093 15/12 A2989 RMK SC6AC1 SLP124 DENSITY ALT 400FT

CYGK;2013-10-16 14:44;CYGK 161444Z 18022KT 12SM BKN024 OVC140 16/12 A2988 RMK SC7AC1 SLP120 DENSITY ALT 500FT

CYGK;2013-10-16 15:00;CYGK 161500Z 18019G24KT 15SM FEW016 BKN022 OVC140 16/12 A2988 RMK CF1SC7AC1 CF TR SLP120 DENSITY ALT 500FT

CYGK;2013-10-16 16:00;CYGK 161600Z 18017G23KT 15SM FEW015 OVC022 16/13 A2987 RMK CF1SC8 CF TR SLP117 DENSITY ALT 500FT

CYGK;2013-10-16 17:00;CYGK 161700Z 18017KT 15SM FEW015 BKN023 OVC170 17/13 A2986 RMK CF1SC7AC1 CF TR SLP110 DENSITY ALT 700FT

CYGK;2013-10-16 18:00;CYGK 161800Z 18020G26KT 15SM FEW010 BKN031 OVC170 16/13 A2984 RMK CF1SC6AC2 CF TR SLP103 DENSITY ALT 600FT

CYGK;2013-10-16 18:47;CYGK 161847Z 18016G23KT 15SM BKN008 OVC025 16/14 A2984 RMK SF6SC2 SLP103 DENSITY ALT 500FT

CYGK;2013-10-16 19:00;CYGK 161900Z 19015G21KT 15SM SCT009 BKN025 OVC070 16/14 A2983 RMK SF3SC2AC3 SLP101 DENSITY ALT 500FT

CYGK;2013-10-16 19:50;CYGK 161950Z 18017G23KT 15SM -SHRA FEW009 FEW013 SCT030 BKN080 BKN250 16/14 A2982 RMK CF1SC2SC2AC1CI1 CF TR SLP099 DENSITY ALT 600FT

CYGK;2013-10-16 20:00;CYGK 162000Z 18014G22KT 15SM -SHRA FEW009 FEW013 BKN030 BKN080 BKN120 16/13 A2981 RMK CF1SC1SC4AC1CU1 CF TR SLP096 DENSITY ALT 600FT

CYGK;2013-10-16 20:49;CYGK 162049Z 17018G26KT 15SM FEW009 FEW030 BKN170 17/13 A2979 RMK CF1SC2AC4 CF TR SLP087 DENSITY ALT 700FT

CYGK;2013-10-16 21:00;CYGK 162100Z 17019G24KT 15SM FEW015 FEW030 SCT130 BKN170 17/14 A2979 RMK CF1SC1AC2AC2 CF TR SLP087 DENSITY ALT 700FT

CYGK;2013-10-16 22:00;CYGK 162200Z 18017G23KT 15SM SCT029 BKN170 17/13 A2978 RMK SC4AC1 TCU TOPS DIST S SLP086 DENSITY ALT 700FT

CYGK;2013-10-16 23:00;CYGK 162300Z 18016G23KT 15SM FEW030 SCT095 BKN140 17/14 A2977 RMK SC1ACC2AC3 SLP082 DENSITY ALT 700FT

CYGK;2013-10-17 00:00;CYGK 170000Z 17016G22KT 15SM -SHRA SCT070 OVC100 17/14 A2976 RMK AC4AC4 SLP077 DENSITY ALT 700FT

CYGK;2013-10-17 00:20;CYGK 170020Z 18019KT 4SM SHRA BR OVC029 16/14 A2978 RMK SC8 PRESRR SLP084 DENSITY ALT 600FT

CYGK;2013-10-17 00:34;CYGK 170034Z 18017G23KT 6SM -SHRA BR FEW012 BKN028 OVC090 16/14 A2977 RERA RMK SF1SC5AC2 SLP080 DENSITY ALT 600FT

CYGK;2013-10-17 01:00;CYGK 170100Z 18016G23KT 6SM -SHRA BR FEW015 BKN030 OVC060 16/14 A2978 RMK SF2SC4SC2 SLP083 DENSITY ALT 600FT

CYGK;2013-10-17 01:09;CYGK 170109Z 18015KT 2 1/2SM -SHRA BR OVC015 16/15 A2978 RMK SF8 SLP083 DENSITY ALT 500FT

CYGK;2013-10-17 01:21;CYGK 170121Z 17014G20KT 3SM -SHRA BR SCT007 OVC015 16/15 A2977 RMK SF3SC5 SLP082 DENSITY ALT 600FT

CYGK;2013-10-17 01:27;CYGK 170127Z 18014G19KT 8SM -SHRA BKN007 OVC013 16/15 A2977 RMK SF5SC3 SLP080 DENSITY ALT 600FT

CYGK;2013-10-17 02:00;CYGK 170200Z 18017G25KT 8SM -SHRA BKN007 OVC029 16/15 A2976 RMK SF6SC2 SLP078 DENSITY ALT 600FT

CYGK;2013-10-17 02:27;CYGK 170227Z 19017KT 10SM SCT007 BKN013 OVC020 16/15 A2975 RMK SF3SC3SC2 SLP076 DENSITY ALT 600FT

CYGK;2013-10-17 03:00;CYGK 170300Z 20019KT 15SM SCT009 OVC013 16/15 A2975 RMK SF4SC4 LAST OBS/NEXT 171000 UTC SLP075 DENSITY ALT 700FT

CYGK;2013-10-17 10:00;CYGK 171000Z 25009KT 15SM FEW035 OVC050 13/10 A2983 RMK CU2SC6 SLP102

CYGK;2013-10-17 11:00;CYGK 171100Z 26008KT 15SM FEW030 BKN045 13/10 A2984 RMK CU2SC5 SLP105

CYGK;2013-10-17 12:00;CYGK 171200Z 28007KT 15SM BKN055 13/09 A2984 RMK SC6 SLP107

CYGK;2013-10-17 13:00;CYGK 171300Z 26007KT 15SM FEW055 13/10 A2985 RMK SC2 SLP110

CYGK;2013-10-17 14:00;CYGK 171400Z 26009KT 15SM BKN055 14/10 A2985 RMK SC5 SLP109

CYGK;2013-10-17 15:00;CYGK 171500Z 24007KT 15SM FEW025 BKN060 14/09 A2985 RMK CF1SC7 CF TR SLP109

CYGK;2013-10-17 16:00;CYGK 171600Z 22007KT 15SM FEW025 SCT055 BKN065 15/10 A2985 RMK CF1SC3SC4 CF TR SLP108 DENSITY ALT 400FT

CYGK;2013-10-17 17:00;CYGK 171700Z 22009KT 15SM FEW025 BKN065 15/09 A2983 RMK SF2SC5 SLP103 DENSITY ALT 400FT

CYGK;2013-10-17 18:00;CYGK 171800Z 22011KT 15SM FEW030 BKN069 BKN100 16/10 A2981 RMK CU1AC4AC1 SLP097 DENSITY ALT 500FT

CYGK;2013-10-17 19:00;CYGK 171900Z 19012KT 15SM SCT030 BKN065 15/11 A2980 RMK CU3SC4 SLP093 DENSITY ALT 500FT

CYGK;2013-10-17 20:00;CYGK 172000Z 19008KT 15SM FEW035 BKN064 15/11 A2979 RMK CU2SC5 SLP088 DENSITY ALT 500FT

CYGK;2013-10-17 21:00;CYGK 172100Z 20010KT 15SM FEW040 BKN063 BKN100 BKN200 15/11 A2977 RMK CU1SC5AC1CI1 CI TR SLP082 DENSITY ALT 500FT

CYGK;2013-10-17 22:00;CYGK 172200Z 20006KT 15SM BKN060 BKN100 BKN200 15/11 A2974 RMK SC6AC1CI1 AC TR SLP073 DENSITY ALT 500FT

CYGK;2013-10-17 23:00;CYGK 172300Z 17004KT 15SM SCT060 BKN140 BKN200 14/11 A2972 RMK SC4AC2CI1 SLP063 DENSITY ALT 400FT

CYGK;2013-10-18 00:00;CYGK 180000Z 18004KT 15SM SCT060 SCT100 BKN140 14/11 A2973 RMK SC3AC1AC3 SLP068 DENSITY ALT 500FT

CYGK;2013-10-18 00:47;CYGK 180047Z 21004KT 15SM -RA BKN063 OVC140 14/11 A2974 RMK NS5AC3 PRESFR SLP072 DENSITY ALT 400FT

CYGK;2013-10-18 01:00;CYGK 180100Z 23005KT 10SM -RA BKN060 OVC140 14/12 A2974 RMK SC7AC1 SLP073 DENSITY ALT 400FT

CYGK;2013-10-18 02:00;CYGK 180200Z 19005KT 10SM -RA FEW019 OVC058 13/11 A2973 RMK SC1SC7 SLP069

CYGK;2013-10-18 03:00;CYGK 180300Z 09007KT 15SM -RA SCT060 OVC095 12/10 A2967 RMK SC4AC4 LAST OBS/NEXT 181000 UTC PRESFR SLP048

CYGK;2013-10-18 10:00;CYGK 181000Z 25010G20KT 15SM FEW010 11/09 A2969 RMK CU2 SLP056

CYGK;2013-10-18 11:00;CYGK 181100Z 27010KT 15SM FEW015 FEW035 09/08 A2972 RMK CU1SC1 SLP065

CYGK;2013-10-18 12:00;CYGK 181200Z 28009KT 15SM FEW015 FEW150 09/08 A2975 RMK CU1AC1 SLP074

CYGK;2013-10-18 13:00;CYGK 181300Z 29009KT 15SM FEW015 FEW100 10/08 A2976 RMK CF1AC2 CF TR SLP080

CYGK;2013-10-18 14:00;CYGK 181400Z 29014KT 15SM FEW020 SCT100 12/08 A2979 RMK CU2AC1 SLP088

CYGK;2013-10-18 15:00;CYGK 181500Z 26009G18KT 15SM SCT020 BKN100 13/08 A2981 RMK CU4AC2 SLP094

CYGK;2013-10-18 16:00;CYGK 181600Z 25013KT 15SM BKN025 14/07 A2981 RMK CU5 SLP095 DENSITY ALT 400FT

CYGK;2013-10-18 17:00;CYGK 181700Z 24016G23KT 15SM SCT030 BKN060 14/07 A2981 RMK CU4SC2 SLP095

CYGK;2013-10-18 18:00;CYGK 181800Z 26012G24KT 15SM SCT038 BKN060 13/05 A2981 RMK CU3SC4 SLP095

CYGK;2013-10-18 19:00;CYGK 181900Z 25016G23KT 15SM BKN040 BKN060 15/04 A2982 RMK CU6SC1 SC TR SLP098 DENSITY ALT 400FT

CYGK;2013-10-18 20:00;CYGK 182000Z 24017G23KT 15SM SCT062 14/05 A2983 RMK CU3 SLP101 DENSITY ALT 400FT

CYGK;2013-10-18 21:00;CYGK 182100Z 24017G22KT 15SM FEW069 FEW100 13/04 A2984 RMK CU2AC1 AC TR SLP104

CYGK;2013-10-18 22:00;CYGK 182200Z 27015G//KT 15SM FEW038 FEW075 13/05 A2984 RMK CU1AC1 WND ESTD SLP105

CYGK;2013-10-18 23:00;CYGK 182300Z 23011G24KT 15SM FEW035 FEW077 13/07 A2985 RMK CU1AC1 SLP111

CYGK;2013-10-19 00:00;CYGK 190000Z 25009G20KT 15SM FEW035 FEW080 13/07 A2986 RMK CF1AC1 CF TR SLP114

CYGK;2013-10-19 01:00;CYGK 190100Z 24008KT 15SM FEW076 12/07 A2987 RMK AC1 SLP118

CYGK;2013-10-19 02:00;CYGK 190200Z 26008KT 15SM FEW080 13/07 A2988 RMK AC2 SLP121

CYGK;2013-10-19 03:00;CYGK 190300Z 26005KT 15SM SKC 12/07 A2989 RMK LAST OBS/NEXT 191000 UTC SLP121

CYGK;2013-10-19 10:00;CYGK 191000Z 22006KT 15SM SCT035 BKN090 13/10 A2984 RMK SC4AC3 SLP106

CYGK;2013-10-19 11:00;CYGK 191100Z 22008KT 15SM FEW040 BKN090 BKN200 13/09 A2983 RMK SC2AC3CI2 SLP103

CYGK;2013-10-19 12:00;CYGK 191200Z 22009KT 15SM FEW060 BKN080 BKN200 13/09 A2983 RMK SC1AC4CI2 SLP102

CYGK;2013-10-19 13:00;CYGK 191300Z 21009KT 15SM SCT060 BKN080 BKN200 14/10 A2982 RMK SC3AC3CI1 SLP100 DENSITY ALT 400FT

CYGK;2013-10-19 14:00;CYGK 191400Z 20013G19KT 15SM FEW025 SCT060 BKN080 OVC200 15/10 A2981 RMK SC1SC3AC2CI2 SLP097 DENSITY ALT 400FT

CYGK;2013-10-19 15:00;CYGK 191500Z 20015KT 15SM FEW025 BKN060 BKN090 15/10 A2982 RMK SC2SC3AC2 SLP098 DENSITY ALT 500FT

CYGK;2013-10-19 16:00;CYGK 191600Z 21014KT 15SM FEW025 BKN065 OVC090 15/09 A2980 RMK SC2SC4AC2 SLP093 DENSITY ALT 400FT

CYGK;2013-10-19 17:00;CYGK 191700Z 18012G18KT 15SM SCT020 OVC075 15/10 A2977 RMK SC4AS4 SLP082 DENSITY ALT 500FT

CYGK;2013-10-19 18:00;CYGK 191800Z 20012KT 15SM -SHRA FEW022 BKN071 OVC240 14/09 A2974 RMK SC2AC5CI1 SLP073 DENSITY ALT 500FT

CYGK;2013-10-19 18:35;CYGK 191835Z 22010G16KT 15SM SCT025 OVC055 15/10 A2973 RMK SC3SC5 SLP069 DENSITY ALT 500FT

CYGK;2013-10-19 19:00;CYGK 191900Z 22010KT 15SM SCT025 BKN055 BKN080 15/09 A2972 RMK SC3SC3AC1 SLP066 DENSITY ALT 500FT

CYGK;2013-10-19 19:28;CYGK 191928Z 23007KT 15SM -SHRA FEW030 BKN060 OVC100 14/09 A2970 RMK CU2SC4AC2 TCU ASOCTD SLP058 DENSITY ALT 500FT

CYGK;2013-10-19 19:47;CYGK 191947Z 21006KT 15SM FEW028TCU SCT100 BKN140 BKN240 15/09 A2969 RMK TCU2AC1AC2CI2 PRESFR SLP053 DENSITY ALT 500FT

CYGK;2013-10-19 20:00;CYGK 192000Z 19006KT 15SM FEW040TCU FEW060 BKN140 BKN240 15/09 A2968 RMK TCU1SC1AC3CI2 SLP051 DENSITY ALT 600FT

CYGK;2013-10-19 21:00;CYGK 192100Z 19017KT 15SM FEW060TCU SCT160 BKN220 16/08 A2965 RMK TCU2AC1CI2 SLP042 DENSITY ALT 800FT

CYGK;2013-10-19 22:00;CYGK 192200Z 18017KT 15SM SCT058 BKN080 BKN220 16/07 A2962 RMK CU4AC2CI1 TCU ASOCTD SLP032 DENSITY ALT 800FT

CYGK;2013-10-19 23:00;CYGK 192300Z 18024G30KT 15SM -SHRA BKN050TCU BKN160 OVC200 15/09 A2959 RMK TCU5AC2CI1 SLP022 DENSITY ALT 700FT

CYGK;2013-10-19 23:29;CYGK 192329Z 18024G33KT 15SM BKN040TCU OVC100 15/09 A2959 RMK TCU6AC2 CB ASOCTD OCNL LTG DIST NE SLP021 DENSITY ALT 700FT

CYGK;2013-10-19 23:32;CYGK 192332Z 19033G40KT 15SM -SHRA BKN040TCU OVC100 15/10 A2959 RMK TCU6AC2 SLP020 DENSITY ALT 700FT

CYGK;2013-10-20 00:00;CYGK 200000Z 19014G23KT 10SM -SHRA BKN056TCU OVC100 12/10 A2960 RMK TCU7AC1 SLP024

CYGK;2013-10-20 01:00;CYGK 200100Z 27010G15KT 10SM -RA FEW020 OVC052 11/09 A2960 RMK CF1NS7 CB EMBD OCNL LTG DIST E SLP024

CYGK;2013-10-20 02:00;CYGK 200200Z 27013G22KT 10SM -RA FEW010 OVC035 09/07 A2961 RMK SF2SC6 SLP030

CYGK;2013-10-20 03:00;CYGK 200300Z 26013KT 15SM -RA BKN018 OVC060 08/07 A2964 RMK SC6SC2 LAST OBS/NEXT 201000 UTC SLP037

CYGK;2013-10-20 10:00;CYGK 201000Z 26010KT 15SM FEW015 06/03 A2976 RMK CU1 CU TR DIST S SLP080

CYGK;2013-10-20 11:00;CYGK 201100Z 26010KT 15SM FEW015 FEW040 FEW220 06/03 A2978 RMK CU1SC1CI1 CU TR SC TR CI TR SLP085

CYGK;2013-10-20 12:00;CYGK 201200Z 26009KT 15SM FEW015 FEW040 06/03 A2980 RMK CU1SC1 CU TR SC TR SLP094

CYGK;2013-10-20 13:00;CYGK 201300Z 26007KT 15SM FEW015 FEW200 07/04 A2983 RMK CU1CI1 CU TR TCU DIST S SLP103

CYGK;2013-10-20 14:00;CYGK 201400Z 28009KT 15SM FEW020 FEW200 09/04 A2985 RMK CU1CI1 CI TR TCU ASOCTD DIST S SLP109

CYGK;2013-10-20 15:00;CYGK 201500Z 27009G16KT 15SM FEW020 10/05 A2987 RMK CU1 TCU ASOCTD DIST S SLP115

CYGK;2013-10-20 16:00;CYGK 201600Z 25013KT 15SM FEW030 11/03 A2988 RMK CU2 SLP119

CYGK;2013-10-20 17:00;CYGK 201700Z 28008KT 15SM SCT035 12/04 A2988 RMK CU4 TCU ASOCTD DIST S SLP120

CYGK;2013-10-20 18:00;CYGK 201800Z 25009G16KT 15SM BKN040 13/03 A2988 RMK CU6 SLP120

CYGK;2013-10-20 19:00;CYGK 201900Z 25010KT 15SM SCT050 BKN065 13/03 A2989 RMK CU4SC1 SLP123

CYGK;2013-10-20 20:00;CYGK 202000Z 22011KT 15SM FEW050 BKN070 BKN250 12/03 A2990 RMK CU2AC3CI1 SLP128

CYGK;2013-10-20 21:00;CYGK 202100Z 24011KT 15SM FEW035 FEW080 SCT250 12/03 A2991 RMK CU1AC1CI1 SLP131

CYGK;2013-10-20 22:00;CYGK 202200Z 23012KT 15SM VCSH FEW050 BKN080 11/04 A2993 RMK CU2AC3 SLP138

CYGK;2013-10-20 23:00;CYGK 202300Z 23009KT 15SM FEW060 BKN090 10/05 A2995 RMK SF2AC3 SLP143

CYGK;2013-10-21 00:00;CYGK 210000Z 28006KT 15SM FEW060 SCT090 10/05 A2995 RMK CU1AC3 SLP146

CYGK;2013-10-21 01:00;CYGK 210100Z 22010KT 15SM SCT090 10/06 A2996 RMK AC3 SLP149

CYGK;2013-10-21 02:00;CYGK 210200Z 26004KT 15SM SCT090 10/06 A2997 RMK AC4 SLP150

CYGK;2013-10-21 03:00;CYGK 210300Z 32003KT 260V340 15SM FEW030 SCT090 07/05 A2997 RMK CU1AC3 LAST OBS/NEXT 211000 UTC SLP151

CYGK;2013-10-21 10:00;CYGK 211000Z 18014KT 15SM FEW030 BKN045 OVC075 13/06 A2996 RMK SC1SC5AC2 SLP147

CYGK;2013-10-21 10:17;CYGK 211017Z 18016KT 15SM -SHRA FEW030 BKN045 OVC073 13/07 A2996 RMK SC1SC5AC2 SLP146

CYGK;2013-10-21 11:00;CYGK 211100Z 18016G21KT 15SM SCT022 BKN040 BKN090 13/08 A2994 RMK SC3SC3AC1 SLP141

CYGK;2013-10-21 12:00;CYGK 211200Z 20016G21KT 15SM FEW020 SCT040 SCT080 BKN120 BKN240 13/08 A2995 RMK CF1SC3AC1AC1CI2 CF TR SLP143

CYGK;2013-10-21 13:00;CYGK 211300Z 20015KT 15SM FEW020 SCT040 BKN110 BKN240 13/07 A2995 RMK CF1SC3AC2CI2 CF TR SHWRS NW SLP142

CYGK;2013-10-21 14:00;CYGK 211400Z 21015G23KT 15SM FEW020 FEW040 BKN100 BKN240 14/07 A2994 RMK CF1SC2AC3CI2 CF TR SLP141

CYGK;2013-10-21 15:00;CYGK 211500Z 21015G20KT 15SM FEW025 SCT038 BKN069 OVC240 15/07 A2993 RMK CU1SC4AC3CI1 CU TR SLP137

CYGK;2013-10-21 16:00;CYGK 211600Z 21018G26KT 15SM FEW035 BKN070 OVC240 15/06 A2993 RMK SC2AC4CI2 SLP136

CYGK;2013-10-21 17:00;CYGK 211700Z 21015G22KT 15SM -RA SCT035 BKN080 OVC240 15/06 A2991 RMK SC4AC3CI1 SLP129

CYGK;2013-10-21 18:00;CYGK 211800Z 20014KT 15SM FEW080 OVC140 15/07 A2989 RMK AC2AS6 SLP122

CYGK;2013-10-21 19:00;CYGK 211900Z 20013KT 15SM FEW040 BKN100 OVC140 16/08 A2987 RMK SC2AC4AS2 SLP115 DENSITY ALT 500FT

CYGK;2013-10-21 20:00;CYGK 212000Z 18015KT 15SM FEW085 OVC110 16/09 A2984 RMK AC1AC7 SLP108 DENSITY ALT 600FT

CYGK;2013-10-21 21:00;CYGK 212100Z 18018KT 15SM FEW080 OVC160 17/09 A2982 RMK AC1AS7 SLP098 DENSITY ALT 600FT

CYGK;2013-10-21 22:00;CYGK 212200Z 17017G23KT 15SM SCT080 OVC160 16/09 A2981 RMK AC3AS5 SLP095 DENSITY ALT 600FT

CYGK;2013-10-21 23:00;CYGK 212300Z 17017KT 15SM BKN085 OVC160 16/09 A2979 RMK AC5AS3 SLP090 DENSITY ALT 600FT

CYGK;2013-10-22 00:00;CYGK 220000Z 19016G22KT 15SM OVC080 16/09 A2979 RMK AC8 SLP088 DENSITY ALT 600FT

CYGK;2013-10-22 01:00;CYGK 220100Z 21012G17KT 15SM OVC085 16/07 A2979 RMK AC8 SLP088 DENSITY ALT 600FT

CYGK;2013-10-22 02:00;CYGK 220200Z 24006KT 15SM OVC090 14/08 A2979 RMK AC8 SLP089 DENSITY ALT 400FT

CYGK;2013-10-22 03:00;CYGK 220300Z 28010G15KT 15SM BKN050 OVC085 12/08 A2980 RMK SC5AC3 LAST OBS/NEXT 221000 UTC SLP092

CYGK;2013-10-22 10:00;CYGK 221000Z 28007KT 15SM FEW008 BKN040 OVC070 09/08 A2971 RMK SF2SC4AC2 SLP061

CYGK;2013-10-22 10:23;CYGK 221023Z 26008KT 15SM -SHRA FEW008 OVC040 09/07 A2971 RMK SF2SC6 CVCTV CLD ASOCTD SLP063

CYGK;2013-10-22 11:00;CYGK 221100Z 27013KT 15SM -SHRA FEW008 BKN050 08/05 A2972 RMK SF1SC7 SF TR CVCTV CLD ASOCTD SLP064

CYGK;2013-10-22 11:19;CYGK 221119Z 29009KT 15SM FEW010 BKN050 BKN080 BKN250 08/04 A2971 RMK CF1SC4AC1CI1 SH DIST E-SW CVCTV CLD ASOCTD SLP062

CYGK;2013-10-22 12:00;CYGK 221200Z 26013KT 15SM FEW010 BKN055 BKN100 BKN250 07/01 A2974 RMK CF1SC7AC1CI1 CF TR AC TR CI TR SH DIST SE-SW SLP073

CYGK;2013-10-22 13:00;CYGK 221300Z 27008G16KT 15SM FEW010 SCT062 BKN270 07/02 A2976 RMK CF1SC4CI1 CF TR SLP078

CYGK;2013-10-22 14:00;CYGK 221400Z 26012G17KT 15SM FEW025 FEW040 SCT170 07/02 A2977 RMK CF1SC1AC1 SLP082

CYGK;2013-10-22 15:00;CYGK 221500Z 26013G21KT 15SM SCT029 BKN170 08/02 A2977 RMK CU4AC1 SLP081

CYGK;2013-10-22 16:00;CYGK 221600Z 26016G26KT 15SM SCT038 09/M01 A2977 RMK CU3 SLP082

CYGK;2013-10-22 17:00;CYGK 221700Z 26013G19KT 15SM FEW040 10/M02 A2977 RMK CU2 SLP082

CYGK;2013-10-22 18:00;CYGK 221800Z 24018KT 15SM FEW039 SCT250 09/00 A2976 RMK CU2CI1 SLP081

CYGK;2013-10-22 19:00;CYGK 221900Z 25014G22KT 15SM SCT042 SCT270 09/M00 A2976 RMK CU3CI1 SLP080

CYGK;2013-10-22 20:00;CYGK 222000Z 24017G26KT 15SM FEW040 SCT250 08/M01 A2977 RMK SC2CI1 SLP084

CYGK;2013-10-22 21:00;CYGK 222100Z 25017G24KT 15SM FEW040 08/M02 A2978 RMK SC1 SLP087

CYGK;2013-10-22 22:00;CYGK 222200Z 26013G24KT 15SM FEW040 07/M03 A2979 RMK SC1 SLP089

CYGK;2013-10-22 23:00;CYGK 222300Z 25019G25KT 15SM FEW040 07/M01 A2979 RMK SC2 SLP090

CYGK;2013-10-23 00:00;CYGK 230000Z 25018G26KT 15SM FEW037 FEW070 08/M01 A2978 RMK SC1AC1 SLP088

CYGK;2013-10-23 01:00;CYGK 230100Z 25016G25KT 15SM FEW060 08/01 A2978 RMK SC1 SLP087

CYGK;2013-10-23 02:00;CYGK 230200Z 24019G27KT 15SM SCT060 08/01 A2978 RMK SC4 SLP088

CYGK;2013-10-23 03:00;CYGK 230300Z 26017G24KT 15SM FEW025 SCT055 08/01 A2978 RMK CF1SC3 CF TR LAST OBS/NEXT 231000 UTC SLP087

CYGK;2013-10-23 10:00;CYGK 231000Z 32005KT 15SM BKN150 BKN200 02/00 A2974 RMK AC5CI2 SLP075

CYGK;2013-10-23 11:00;CYGK 231100Z 32005KT 15SM FEW015 BKN120 BKN200 01/M00 A2974 RMK CF1AC5CI2 CF TR SLP075

CYGK;2013-10-23 12:00;CYGK 231200Z 34005KT 15SM FEW015 BKN120 BKN200 01/00 A2975 RMK CF1AC5CI2 CF TR SLP076

CYGK;2013-10-23 13:00;CYGK 231300Z 35005KT 15SM FEW015 BKN070 BKN120 OVC200 03/01 A2976 RMK CF1AC5AC1CI1 SLP078

CYGK;2013-10-23 14:00;CYGK 231400Z 36007KT 15SM FEW015 FEW070 BKN120 BKN200 04/02 A2975 RMK CF1AC1AC5CI1 CF TR SLP075

CYGK;2013-10-23 15:00;CYGK 231500Z 31004KT 15SM FEW015 FEW070 BKN120 BKN200 05/01 A2975 RMK CF1AC1AC5CI1 CF TR SLP075

CYGK;2013-10-23 16:00;CYGK 231600Z 00000KT 15SM FEW020 SCT065 BKN120 06/01 A2974 RMK CF1SC2AC4 SLP072

CYGK;2013-10-23 17:00;CYGK 231700Z 28003KT 280V010 15SM FEW025 SCT055 BKN120 07/M01 A2972 RMK CF1SC3AC4 CF TR SLP066

CYGK;2013-10-23 18:00;CYGK 231800Z 27006KT 15SM VCSH FEW025 BKN055 07/M02 A2970 RMK CU1SC6 SLP059

CYGK;2013-10-23 19:00;CYGK 231900Z 25005KT 15SM FEW025 BKN057 07/M01 A2968 RMK CU2SC5 SLP054

CYGK;2013-10-23 20:00;CYGK 232000Z 27006KT 210V290 15SM FEW025 SCT038 BKN110 07/00 A2969 RMK CU2SC2AC3 SLP055

CYGK;2013-10-23 21:00;CYGK 232100Z 26006KT 15SM FEW025 BKN060 BKN120 07/00 A2969 RMK CU2SC4AC1 SLP057

CYGK;2013-10-23 22:00;CYGK 232200Z 27006KT 15SM FEW020 SCT065 06/M01 A2970 RMK CU2SC1 SLP062

CYGK;2013-10-23 23:00;CYGK 232300Z 27005KT 15SM FEW020 FEW065 SCT120 05/M01 A2972 RMK CU1SC1AC1 SLP067

CYGK;2013-10-24 00:00;CYGK 240000Z 27007KT 15SM FEW080 05/M01 A2973 RMK AC2 SLP071

CYGK;2013-10-24 01:00;CYGK 240100Z 29006KT 15SM SKC 04/M01 A2974 RMK SLP073

CYGK;2013-10-24 02:00;CYGK 240200Z 29006KT 15SM SKC 03/M02 A2975 RMK SLP077

CYGK;2013-10-24 03:00;CYGK 240300Z 30005KT 15SM FEW220 02/M03 A2975 RMK CI1 LAST OBS/NEXT 241000 UTC SLP078

CYGK;2013-10-24 10:00;CYGK 241000Z 27009KT 15SM FEW015 FEW080 02/M01 A2974 RMK CF1AC1 SLP073

CYGK;2013-10-24 11:00;CYGK 241100Z 26007KT 15SM FEW010 FEW082 02/M00 A2975 RMK CF1AC1 SLP077

CYGK;2013-10-24 12:00;CYGK 241200Z 26010KT 15SM FEW012 FEW072 SCT200 01/M00 A2976 RMK CU1AC1CI1 SLP080

CYGK;2013-10-24 13:00;CYGK 241300Z 27009KT 15SM FEW012 SCT060 BKN200 03/00 A2977 RMK CU2SC2CI3 SLP085

CYGK;2013-10-24 14:00;CYGK 241400Z CCA 26008KT 15SM FEW010 BKN060 OVC200 04/02 A2977 RMK CU2SC4CI2 SLP085

CYGK;2013-10-24 14:47;CYGK 241447Z 25011KT 15SM -RA BKN018 BKN060 OVC200 05/02 A2978 RMK SC5SC2CI1 -RA INTMT SLP086

CYGK;2013-10-24 15:00;CYGK 241500Z 28012G18KT 15SM -RA BKN018 OVC058 05/01 A2978 RMK SC6SC2 -RA INTMT SLP087

CYGK;2013-10-24 15:34;CYGK 241534Z 28013KT 15SM BKN022 BKN200 06/01 A2978 RMK SC5CI2 SLP087

CYGK;2013-10-24 16:00;CYGK 241600Z 26012KT 15SM BKN025 BKN220 07/01 A2978 RMK SC5CI2 SLP087

CYGK;2013-10-24 17:00;CYGK 241700Z 29011G19KT 15SM BKN029 BKN110 07/00 A2977 RMK SC6AC1 SHWRS NW-N SLP085

CYGK;2013-10-24 17:25;CYGK 241725Z 30013G18KT 15SM -SHRA BKN028 BKN110 BKN200 06/01 A2977 RMK SC6AC1CI1 AC TR CU ASOCTD SLP085

CYGK;2013-10-24 17:44;CYGK 241744Z 26006KT 15SM VCSH BKN030 BKN250 07/02 A2977 RMK SC5CI2 WSHFT 1730 SLP085

CYGK;2013-10-24 18:00;CYGK 241800Z 30012G19KT 15SM VCSH BKN030 BKN250 07/M01 A2977 RMK CU6CI1 SLP084

CYGK;2013-10-24 19:00;CYGK 241900Z 28011G17KT 15SM VCSH BKN041 BKN250 08/M01 A2979 RMK CU6CI1 SLP089

CYGK;2013-10-24 21:00;CYGK 242100Z 29010G16KT 15SM FEW035 BKN055 BKN250 07/M01 A2983 RMK CU2SC4CI1 SH DIST ALQDS SLP103

CYGK;2013-10-24 22:00;CYGK 242200Z 29006KT 15SM FEW035 SCT055 OVC100 06/M01 A2985 RMK CU1SC2AS5 SHWRS NW SLP111

CYGK;2013-10-24 23:00;CYGK 242300Z 31006KT 15SM BKN055 BKN250 06/M01 A2987 RMK SC5CI2 SLP119

CYGK;2013-10-25 00:00;CYGK 250000Z 31010KT 15SM BKN140 BKN200 05/M01 A2990 RMK AC5CI2 SLP127

CYGK;2013-10-25 01:00;CYGK 250100Z 30006KT 15SM FEW055 OVC130 04/M01 A2991 RMK SC1AC7 SLP133

CYGK;2013-10-25 02:00;CYGK 250200Z 32008KT 15SM FEW030 FEW055 OVC100 04/M02 A2994 RMK SC1SC1AC6 SLP141

CYGK;2013-10-25 03:00;CYGK 250300Z 30005KT 15SM FEW100 SCT230 02/M02 A2996 RMK AC2CI2 LAST OBS/NEXT 251000 UTC SLP148

CYGK;2013-10-25 10:00;CYGK 251000Z 32006KT 15SM FEW055 00/M02 A3007 RMK SC1 SC TR SLP186

CYGK;2013-10-25 11:00;CYGK 251100Z 31002KT 15SM FEW015 FEW055 FEW220 M01/M03 A3009 RMK CF1SC1CI1 CF TR SLP192

CYGK;2013-10-25 12:00;CYGK 251200Z 30004KT 15SM FEW015 FEW038 FEW220 01/M02 A3011 RMK CF1SC1CI1 CF TR SLP199

CYGK;2013-10-25 13:00;CYGK 251300Z 29008KT 15SM FEW015 FEW038 FEW220 02/M01 A3012 RMK CF1SC1CI1 CF TR SLP204

CYGK;2013-10-25 14:00;CYGK 251400Z 30007KT 15SM FEW020 FEW220 04/M01 A3014 RMK CU1CI1 SLP208

CYGK;2013-10-25 15:00;CYGK 251500Z 30011G18KT 15SM FEW037 FEW220 06/M01 A3014 RMK CU2CI1 CI TR SLP208

CYGK;2013-10-25 16:00;CYGK 251600Z 31011KT 15SM SCT036 06/M02 A3014 RMK CU3 SLP208

CYGK;2013-10-25 17:00;CYGK 251700Z 27008G18KT 15SM SCT040 09/M00 A3012 RMK SC4 SLP202

CYGK;2013-10-25 18:00;CYGK 251800Z 29013G18KT 15SM SCT042 09/M02 A3010 RMK CU4 SLP197

CYGK;2013-10-25 19:00;CYGK 251900Z 27014G23KT 15SM SCT050 09/M03 A3010 RMK CU3 SLP195

CYGK;2013-10-25 20:00;CYGK 252000Z 26015G22KT 15SM FEW055 08/M04 A3010 RMK CU2 SLP197

CYGK;2013-10-25 21:00;CYGK 252100Z 27014KT 15SM FEW052 FEW070 09/M04 A3011 RMK CU1AC1 SLP198

CYGK;2013-10-25 22:00;CYGK 252200Z 26010KT 15SM FEW050 BKN085 07/M03 A3011 RMK CU1AC4 SLP200

CYGK;2013-10-25 23:00;CYGK 252300Z 27008KT 15SM FEW050 BKN085 07/M03 A3012 RMK CU1AC6 CU TR SLP203

CYGK;2013-10-26 10:00;CYGK 261000Z 26012G23KT 8SM -RA SCT010 OVC025 03/02 A2997 RMK CU4SC4 SLP150

CYGK;2013-10-26 11:00;CYGK 261100Z 23011G20KT 8SM -RA FEW010 OVC025 04/03 A2993 RMK SC2CU6 SLP138

CYGK;2013-10-26 12:00;CYGK 261200Z 21022G30KT 8SM -RA BR OVC018 06/04 A2989 RMK CU8 SLP125

CYGK;2013-10-26 13:00;CYGK 261300Z 21024G33KT 6SM -RA BR OVC018 06/03 A2987 RMK CU8 SLP118

CYGK;2013-10-26 14:00;CYGK 261400Z 21018G32KT 8SM -RA OVC030 06/03 A2983 RMK CU8 PRESFR SLP104

CYGK;2013-10-26 15:00;CYGK 261500Z 21028G36KT 8SM -RA OVC025 06/02 A2981 RMK SC8 SLP096

CYGK;2013-10-26 16:00;CYGK 261600Z 21024G33KT 6SM -RA BR OVC025 06/03 A2979 RMK SC8 SLP092

CYGK;2013-10-26 17:00;CYGK 261700Z 21018G33KT 5SM -RA BR OVC018 06/04 A2978 RMK SC8 SLP086

CYGK;2013-10-26 18:00;CYGK 261800Z 23025G33KT 6SM -RA BR OVC022 06/04 A2976 RMK SC8 SLP079

CYGK;2013-10-26 19:00;CYGK 261900Z 23025G34KT 6SM -RA BR OVC018 06/04 A2975 RMK SC8 SLP076

CYGK;2013-10-26 20:00;CYGK 262000Z 23020G31KT 5SM -RA BR FEW012 OVC025 06/05 A2976 RMK SF2SC6 SLP078

CYGK;2013-10-26 21:00;CYGK 262100Z 23018G28KT 15SM FEW012 OVC021 07/05 A2976 RMK SC2SC6 SLP078

CYGK;2013-10-26 22:00;CYGK 262200Z 23020G30KT 10SM -RA FEW012 OVC022 07/05 A2975 RMK SF1SC7 SLP076

CYGK;2013-10-26 23:00;CYGK 262300Z 23023G32KT 12SM -RA SCT018 OVC033 07/04 A2976 RMK SC3SC5 SLP081

CYGK;2013-10-27 00:00;CYGK 270000Z 26012G25KT 12SM -RA SCT009 OVC020 06/04 A2976 RMK SF3SC5 SLP080

CYGK;2013-10-27 03:00;CYGK 270300Z 26013KT 12SM -RA SCT012 BKN022 OVC100 07/05 A2974 RMK SF3SC2AC3 LAST OBS/NEXT 271000 UTC SLP072

CYGK;2013-10-27 10:00;CYGK 271000Z 28010KT 15SM BKN020 04/02 A2982 RMK SC6 SLP102

CYGK;2013-10-27 11:00;CYGK 271100Z 29006KT 15SM SCT020 03/01 A2984 RMK CU3 SLP109

CYGK;2013-10-27 12:00;CYGK 271200Z 28007KT 15SM FEW020 SCT250 02/01 A2988 RMK CU2CI2 SLP120

CYGK;2013-10-27 13:00;CYGK 271300Z 28009KT 15SM FEW010 FEW020 BKN250 03/01 A2991 RMK CF1SC1CI5 SLP132

CYGK;2013-10-27 14:00;CYGK 271400Z 29009KT 15SM FEW015 BKN250 04/02 A2993 RMK CF2CI5 SLP138

CYGK;2013-10-27 15:00;CYGK 271500Z 27007KT 15SM SCT016 OVC160 05/01 A2994 RMK SC4AS4 SLP142

CYGK;2013-10-27 16:00;CYGK 271600Z 30007KT 15SM SCT016 BKN140 BKN250 06/02 A2995 RMK SC3AS2CI2 SLP146

CYGK;2013-10-27 17:00;CYGK 271700Z 27011KT 15SM BKN022 BKN240 07/00 A2995 RMK CU5CI2 SLP146

CYGK;2013-10-27 18:00;CYGK 271800Z 24008KT 15SM BKN030 BKN250 09/01 A2994 RMK CU6CI1 SLP140

CYGK;2013-10-27 19:00;CYGK 271900Z 26006KT 15SM BKN038 BKN250 07/00 A2995 RMK CU5CI1 SLP143

CYGK;2013-10-27 20:00;CYGK 272000Z 25012KT 15SM VCSH BKN038 BKN060 08/M01 A2995 RMK SC5SC1 SLP146

CYGK;2013-10-27 21:00;CYGK 272100Z 27008KT 15SM VCSH FEW038 BKN063 07/M00 A2997 RMK CU2SC5 SLP151

CYGK;2013-10-27 22:00;CYGK 272200Z 25011KT 15SM FEW040 BKN068 BKN210 07/02 A2998 RMK CU1AC6CI1 CI TR SLP155

CYGK;2013-10-27 23:00;CYGK 272300Z 26009KT 15SM FEW040 BKN071 06/02 A3000 RMK CU1AC6 CU TR SLP161

CYGK;2013-10-28 00:00;CYGK 280000Z 26007KT 15SM FEW040 BKN075 OVC120 06/02 A3001 RMK CU1AC7AC1 CU TR SLP164

CYGK;2013-10-28 01:00;CYGK 280100Z 25008G15KT 15SM FEW020 SCT050 OVC070 06/02 A3001 RMK CF1SC3AC5 CF TR SLP164

CYGK;2013-10-28 02:00;CYGK 280200Z 27007KT 15SM FEW050 BKN068 06/02 A3002 RMK SC2AC5 SLP170

CYGK;2013-10-28 03:00;CYGK 280300Z 26006KT 15SM FEW020 BKN068 BKN110 06/02 A3003 RMK CF1AC5AC1 CF TR LAST OBS/NEXT 281000 UTC SLP171

CYGK;2013-10-28 10:00;CYGK 281000Z 25014G27KT 15SM FEW030 BKN080 OVC110 10/04 A2998 RMK SC1AC4AC3 SLP155

CYGK;2013-10-28 11:00;CYGK 281100Z 26016G23KT 15SM FEW030 OVC070 08/03 A3001 RMK SC1AC7 PRESRR SLP166

CYGK;2013-10-28 12:00;CYGK 281200Z 30013G21KT 15SM SCT030 BKN070 07/02 A3007 RMK SC4AC2 PRESRR SLP183

CYGK;2013-10-28 13:00;CYGK 281300Z 33012G23KT 15SM SCT030 BKN080 BKN250 07/01 A3013 RMK SC4AC1CI1 PRESRR SLP206

CYGK;2013-10-28 14:00;CYGK 281400Z 34010G21KT 15SM FEW032 FEW080 SCT250 07/00 A3018 RMK SC2AC1CI2 AC TR SLP221

CYGK;2013-10-28 15:00;CYGK 281500Z 34015G22KT 15SM FEW034 SCT250 07/M02 A3021 RMK SC1CI2 SLP231

CYGK;2013-10-28 16:00;CYGK 281600Z 36011KT 15SM FEW035 SCT250 06/M04 A3025 RMK SC2CI1 SLP246

CYGK;2013-10-28 17:00;CYGK 281700Z 01010G20KT 15SM FEW041 SCT250 06/M04 A3027 RMK SC2CI2 SLP254

CYGK;2013-10-28 18:00;CYGK 281800Z 01010G21KT 15SM FEW043 FEW240 06/M07 A3030 RMK SC1CI2 SC TR SLP261

CYGK;2013-10-28 19:00;CYGK 281900Z 02010G17KT 15SM FEW045 FEW250 06/M08 A3031 RMK SC1CI2 SC TR SLP265

CYGK;2013-10-28 20:00;CYGK 282000Z 36005KT 15SM FEW045 FEW240 06/M07 A3033 RMK SC1CI1 SC TR WSHFT 1953 SLP272

CYGK;2013-10-28 21:00;CYGK 282100Z 35009KT 15SM FEW045 FEW240 05/M07 A3034 RMK SC1CI1 SC TR SLP277

CYGK;2013-10-28 22:00;CYGK 282200Z 35008KT 15SM FEW045 FEW240 02/M06 A3036 RMK SC1CI1 SC TR SLP284

CYGK;2013-10-28 23:00;CYGK 282300Z 36006KT 15SM FEW045 FEW200 01/M07 A3038 RMK SC1CI1 SC TR SLP290

CYGK;2013-10-29 00:00;CYGK 290000Z 01007KT 15SM FEW200 01/M06 A3040 RMK CI2 SLP297

CYGK;2013-10-29 01:00;CYGK 290100Z 02006KT 15SM FEW200 00/M06 A3040 RMK CI2 SLP299

CYGK;2013-10-29 02:00;CYGK 290200Z 02006KT 15SM SKC 00/M06 A3042 RMK SLP304

CYGK;2013-10-29 03:00;CYGK 290300Z 36005KT 15SM SKC M00/M06 A3043 RMK LAST OBS/NEXT 291000 UTC SLP308

CYGK;2013-10-29 10:00;CYGK 291000Z 34006KT 15SM SKC M06/M07 A3047 RMK SLP323

CYGK;2013-10-29 11:00;CYGK 291100Z 35006KT 15SM FEW015 M06/M07 A3047 RMK CF1 CF TR SLP325

CYGK;2013-10-29 12:00;CYGK 291200Z 01005KT 15SM FEW015 M05/M06 A3048 RMK CF1 CF TR SLP327

CYGK;2013-10-29 13:00;CYGK 291300Z 02006KT 15SM FEW015 FEW250 M01/M04 A3049 RMK CF1CI1 CF TR CI TR SLP331

CYGK;2013-10-29 14:00;CYGK 291400Z 02006KT 15SM FEW020 01/M04 A3051 RMK CU1 SLP335

CYGK;2013-10-29 15:00;CYGK 291500Z 01002KT 15SM FEW020 02/M05 A3051 RMK CU1 SLP335

CYGK;2013-10-29 16:00;CYGK 291600Z 36004KT 260V360 15SM FEW020 FEW250 03/M04 A3050 RMK SC1CI1 SC TR SLP332

CYGK;2013-10-29 17:00;CYGK 291700Z VRB02KT 15SM FEW020 FEW250 05/M05 A3047 RMK SC1CI1 SC TR SLP324

CYGK;2013-10-29 18:00;CYGK 291800Z 16006KT 15SM FEW020 FEW270 04/M03 A3045 RMK SC1CI1 SC TR CI TR SLP317

CYGK;2013-10-29 19:00;CYGK 291900Z 15005KT 100V180 15SM FEW035 FEW270 05/M05 A3043 RMK CF1CI1 CF TR SLP308

CYGK;2013-10-29 20:00;CYGK 292000Z 15004KT 15SM FEW040 BKN250 05/M04 A3041 RMK SC1CI7 SC TR SLP302

CYGK;2013-10-29 21:00;CYGK 292100Z 19004KT 15SM FEW220 BKN300 04/M03 A3041 RMK CI2CI5 SLP303

CYGK;2013-10-29 22:00;CYGK 292200Z 20006KT 15SM OVC240 04/M03 A3040 RMK CI8 SLP300

CYGK;2013-10-29 23:00;CYGK 292300Z 21004KT 15SM OVC200 04/M03 A3039 RMK CI8 SLP296

CYGK;2013-10-30 00:00;CYGK 300000Z 20005KT 15SM FEW030 OVC160 04/M03 A3038 RMK SC1AS8 SC TR SLP292

CYGK;2013-10-30 01:00;CYGK 300100Z 22005KT 15SM FEW025 OVC140 04/M02 A3036 RMK SC1AS7 SLP286

CYGK;2013-10-30 02:00;CYGK 300200Z 31003KT 15SM FEW025 OVC140 03/M02 A3035 RMK SC1AS7 SLP282

CYGK;2013-10-30 03:00;CYGK 300300Z 34004KT 15SM FEW025 OVC110 02/M02 A3034 RMK SC1AS7 LAST OBS/NEXT 301000 UTC SLP278

CYGK;2013-10-30 10:00;CYGK 301000Z 34004KT 10SM -RA FEW015 OVC035 02/02 A3027 RMK CU2SC6 SLP254

CYGK;2013-10-30 11:00;CYGK 301100Z 34003KT 10SM -RA SCT020 OVC040 03/02 A3026 RMK CU3SC5 SLP251

CYGK;2013-10-30 12:00;CYGK 301200Z 36004KT 8SM -RA FEW020 OVC038 03/02 A3027 RMK CU1SC7 SLP254

CYGK;2013-10-30 13:00;CYGK 301300Z 35004KT 10SM FEW020 BKN034 BKN045 OVC100 03/02 A3028 RMK CU1SC5SC2AC1 CU TR TRANVERSE BANDING WITH AC SLP258

CYGK;2013-10-30 14:00;CYGK 301400Z 35005KT 10SM -RA FEW015 OVC040 04/02 A3029 RMK CU2SC6 SLP260

CYGK;2013-10-30 15:00;CYGK 301500Z 33004KT 10SM FEW017 BKN032 BKN090 05/03 A3027 RMK CU1SC5AC1 SLP255

CYGK;2013-10-30 16:00;CYGK 301600Z VRB02KT 12SM SCT013 BKN030 BKN090 06/02 A3027 RMK SC4SC2AC1 SLP252

CYGK;2013-10-30 17:00;CYGK 301700Z 20003KT 12SM FEW013 BKN029 BKN039 OVC080 06/03 A3025 RMK SC2SC3SC2AC1 SLP246

CYGK;2013-10-30 18:00;CYGK 301800Z 00000KT 10SM FEW017 BKN034 BKN097 07/03 A3022 RMK CF1SC6AC1 CF TR SLP237

CYGK;2013-10-30 19:00;CYGK 301900Z 19003KT 12SM SCT013 BKN025 OVC032 07/04 A3022 RMK SC3SC3SC2 SLP236

CYGK;2013-10-30 19:51;CYGK 301951Z 15003KT 12SM BKN013 BKN020 OVC030 07/04 A3020 RMK SC6SC1SC1 SLP230

CYGK;2013-10-30 20:00;CYGK 302000Z 23003KT 150V230 15SM BKN013 BKN020 OVC030 07/04 A3020 RMK SC5SC1SC2 SLP231

CYGK;2013-10-30 21:00;CYGK 302100Z 23005KT 12SM SCT014 BKN028 OVC085 07/04 A3020 RMK SC3SC2AC3 SLP228

CYGK;2013-10-30 22:00;CYGK 302200Z VRB02KT 12SM FEW020 OVC083 07/04 A3020 RMK SC1AC7 SLP230

CYGK;2013-10-30 23:00;CYGK 302300Z 05003KT 15SM OVC080 05/04 A3020 RMK AC8 SLP231

CYGK;2013-10-31 00:00;CYGK 310000Z 04003KT 15SM FEW015 OVC075 06/04 A3021 RMK SC2AC6 SLP232

CYGK;2013-10-31 01:00;CYGK 310100Z 07003KT 15SM SCT075 OVC110 05/04 A3018 RMK AC3AC5 SLP225

CYGK;2013-10-31 02:00;CYGK 310200Z 04003KT 15SM BKN070 OVC110 05/04 A3018 RMK AC5AC3 SLP225

CYGK;2013-10-31 03:00;CYGK 310300Z 06005KT 15SM FEW075 OVC100 05/04 A3018 RMK AC1AC7 LAST OBS/NEXT 311000 UTC SLP221

CYGK;2013-10-31 10:00;CYGK 311000Z 16013KT 15SM OVC160 10/08 A2998 RMK AC8 SLP156

CYGK;2013-10-31 11:00;CYGK 311100Z 17015KT 12SM SCT090 OVC160 11/09 A2995 RMK AC4AC4 SLP145

CYGK;2013-10-31 11:19;CYGK 311119Z 17016KT 10SM -RA OVC100 12/09 A2995 RMK AC8 SLP143

CYGK;2013-10-31 12:00;CYGK 311200Z 18014KT 4SM -RA BR OVC080 11/09 A2995 RMK AC8 SLP143

CYGK;2013-10-31 12:34;CYGK 311234Z 17015KT 3SM -RA BR SCT010 OVC070 11/10 A2993 RMK CU3AC5 SLP136

CYGK;2013-10-31 12:47;CYGK 311247Z 16015KT 3SM -RA BR SCT010 OVC023 11/10 A2992 RMK SF4NS4 SLP135

CYGK;2013-10-31 13:00;CYGK 311300Z 16017KT 2SM -RA BR SCT008 OVC025 11/10 A2992 RMK SF3NS5 SLP133

CYGK;2013-10-31 14:00;CYGK 311400Z 17019G24KT 2SM -RA BR OVC008 11/10 A2988 RMK NS8 CIG RAG SLP119

CYGK;2013-10-31 15:00;CYGK 311500Z 16018G26KT 1 1/2SM -RA BR BKN005 OVC009 12/11 A2983 RMK SF6NS2 SLP102

CYGK;2013-10-31 15:27;CYGK 311527Z 18019KT 1SM -RA BR OVC004 12/12 A2981 RMK NS8 SLP097

CYGK;2013-10-31 15:49;CYGK 311549Z 20022G32KT 1 1/2SM -RA BR SCT005 OVC008 13/13 A2980 RMK SF3NS5 CIG RAG SLP092

CYGK;2013-10-31 16:00;CYGK 311600Z 19020G28KT 3SM -RA BR SCT007 OVC020 14/13 A2979 RMK SF3NS5 SLP090

CYGK;2013-10-31 17:00;CYGK 311700Z 19020G31KT 5SM -RA BR FEW008 OVC018 14/13 A2975 RMK SF1NS7 SLP077 DENSITY ALT 400FT

CYGK;2013-10-31 17:33;CYGK 311733Z 18022G28KT 9SM FEW008 OVC090 14/13 A2972 RMK SF1AS7 PRESFR SLP067 DENSITY ALT 400FT

CYGK;2013-10-31 18:00;CYGK 311800Z 18021G32KT 10SM FEW008 SCT040 OVC100 14/13 A2971 RMK SF1SC3AS4 SLP063 DENSITY ALT 500FT

CYGK;2013-10-31 19:00;CYGK 311900Z 17018G27KT 8SM FEW010 BKN053 OVC100 14/13 A2970 RMK SF1SC6AS1 SLP059 DENSITY ALT 500FT

CYGK;2013-10-31 20:00;CYGK 312000Z 17019KT 10SM FEW010 OVC035 14/13 A2967 RMK SF1SC8 SF TR PRESFR SLP050 DENSITY ALT 500FT

CYGK;2013-10-31 21:00;CYGK 312100Z 18019G25KT 10SM FEW008 SCT035 OVC080 15/13 A2967 RMK SF1SC3AC4 SLP050 DENSITY ALT 600FT

CYGK;2013-10-31 22:00;CYGK 312200Z 18019G24KT 6SM -RA BR FEW040 OVC090 14/13 A2965 RMK SC2AC6 SLP042 DENSITY ALT 600FT

CYGK;2013-10-31 22:36;CYGK 312236Z 17018G26KT 10SM SCT045 OVC100 15/13 A2962 RMK SC3AC5 SLP031 DENSITY ALT 600FT

CYGK;2013-10-31 23:04;CYGK 312304Z 17020G25KT 10SM -RA BKN040 OVC090 15/13 A2961 RMK SC6AC2 SLP027 DENSITY ALT 600FT

CYGK;2013-11-01 00:00;CYGK 010000Z 18022G27KT 8SM -RA OVC040 15/14 A2960 RMK SC8 SLP023 DENSITY ALT 700FT

CYGK;2013-11-01 01:00;CYGK 010100Z 18016G23KT 8SM -RA SCT020 OVC040 14/14 A2957 RMK SC3SC5 SLP014 DENSITY ALT 600FT

CYGK;2013-11-01 01:33;CYGK 010133Z 16017G25KT 6SM -RA BR FEW004 BKN018 OVC035 14/14 A2953 RMK SF2SC4SC2 PRESFR SLP002 DENSITY ALT 700FT

CYGK;2013-11-01 01:43;CYGK 010143Z 17017G25KT 4SM -RA BR BKN004 BKN020 OVC050 14/14 A2952 RMK SF5SC2SC1 PRESFR SLP998 DENSITY ALT 700FT

CYGK;2013-11-01 02:00;CYGK 010200Z 16017G23KT 5SM -RA BR FEW004 SCT025 OVC050 14/14 A2951 RMK SF2SC2SC4 PRESFR SLP993 DENSITY ALT 700FT

CYGK;2013-11-01 03:00;CYGK 010300Z 16020KT 6SM -RA BR OVC020 14/14 A2946 RMK SC8 LAST OBS/NEXT 011000 UTC PRESFR SLP978 DENSITY ALT 800FT

CYGK;2013-11-01 10:00;CYGK 011000Z 19026G37KT 4SM -RA BR BKN021 OVC040 15/14 A2918 RMK SC6SC2 SLP880 DENSITY ALT 1200FT

CYGK;2013-11-01 10:43;CYGK 011043Z 18026G34KT 8SM SCT020 BKN040 OVC110 16/14 A2913 RMK SC4SC2AC2 PRESFR SLP863 DENSITY ALT 1300FT

CYGK;2013-11-01 11:00;CYGK 011100Z 18027KT 10SM BKN040 OVC100 16/13 A2914 RMK SC5AC3 WND ESTD PRESRR SLP869 DENSITY ALT 1300FT

CYGK;2013-11-01 11:06;CYGK 011106Z 19026KT 10SM -RA SCT040 OVC100 16/13 A2914 RMK SC3AC5 PRESRR SLP869 DENSITY ALT 1300FT

CYGK;2013-11-01 11:38;CYGK 011138Z 20026G34KT 12SM BKN048 BKN100 16/13 A2916 RMK SC5AC2 SLP875 DENSITY ALT 1300FT

CYGK;2013-11-01 12:00;CYGK 011200Z 22028G42KT 15SM FEW030 BKN045 BKN100 17/13 A2918 RMK SC2SC4AC1 PRESRR SLP883 DENSITY ALT 1400FT

CYGK;2013-11-01 13:00;CYGK 011300Z 22027G38KT 15SM FEW030 SCT050 SCT100 16/12 A2922 RMK SC2SC1AC1 SLP895 DENSITY ALT 1200FT

CYGK;2013-11-01 14:00;CYGK 011400Z 23025G44KT 15SM FEW032 FEW050 SCT100 16/10 A2923 RMK SC2SC1AC1 SC TR SLP899 DENSITY ALT 1200FT

CYGK;2013-11-01 15:00;CYGK 011500Z 24031G44KT 15SM BKN030 BKN200 14/08 A2927 RMK SC7CI1 CI TR CU ASOCTD SLP913 DENSITY ALT 1000FT

CYGK;2013-11-01 16:00;CYGK 011600Z 23031G47KT 15SM FEW032 BKN053 14/08 A2929 RMK SC2SC5 SLP918 DENSITY ALT 900FT

CYGK;2013-11-01 17:00;CYGK 011700Z 24027G48KT 15SM BKN030 OVC100 13/08 A2930 RMK SC7AC1 SLP923 DENSITY ALT 800FT

CYGK;2013-11-01 18:00;CYGK 011800Z 24031G46KT 15SM BKN032 BKN100 13/07 A2931 RMK SC7AC1 AC TR SLP927 DENSITY ALT 800FT

CYGK;2013-11-01 19:00;CYGK 011900Z 24030G45KT 15SM BKN029 OVC100 13/07 A2936 RMK SC7AC1 SLP941 DENSITY ALT 700FT

CYGK;2013-11-01 20:00;CYGK 012000Z 24029G45KT 15SM BKN029 BKN110 12/07 A2942 RMK SC7AC1 AC TR PRESRR SLP963 DENSITY ALT 600FT

CYGK;2013-11-01 21:00;CYGK 012100Z 24025G37KT 15SM BKN029 BKN100 12/07 A2947 RMK SC6AC1 SLP981 DENSITY ALT 500FT

CYGK;2013-11-01 22:00;CYGK 012200Z 24024G37KT 15SM OVC030 12/07 A2953 RMK SC8 PRESRR SLP000 DENSITY ALT 400FT

CYGK;2013-11-01 23:00;CYGK 012300Z 24022G29KT 15SM BKN035 12/07 A2957 RMK SC7 PRESRR SLP014

CYGK;2013-11-02 00:00;CYGK 020000Z 24018G32KT 15SM OVC040 12/07 A2960 RMK SC8 SLP024

CYGK;2013-11-02 01:00;CYGK 020100Z 25013G23KT 15SM OVC041 12/06 A2961 RMK SC8 SLP028

CYGK;2013-11-02 02:00;CYGK 020200Z 25011KT 15SM BKN043 BKN060 12/07 A2963 RMK SC5SC2 SLP033

CYGK;2013-11-02 03:00;CYGK 020300Z 23012KT 15SM BKN055 OVC095 11/07 A2964 RMK SC5AC3 LAST OBS/NEXT 021000 UTC SLP036

CYGK;2013-11-02 10:00;CYGK 021000Z 29002KT 15SM FEW015 OVC069 09/07 A2961 RMK SC2AC6 SLP030

CYGK;2013-11-02 11:00;CYGK 021100Z 27003KT 270V340 15SM BKN017 OVC064 09/07 A2962 RMK SC5SC3 SLP033

CYGK;2013-11-02 12:00;CYGK 021200Z 03009KT 15SM BKN018 OVC065 07/05 A2964 RMK SC6SC2 SLP037

CYGK;2013-11-02 12:11;CYGK 021211Z 02009KT 15SM -RA SCT018 BKN032 OVC065 07/05 A2964 RMK SC4SC2SC2 SLP039

CYGK;2013-11-02 12:29;CYGK 021229Z 01011KT 8SM -RA BKN009 BKN018 OVC030 06/05 A2965 RMK SF5SC2SC1 SLP042

CYGK;2013-11-02 13:00;CYGK 021300Z 01009KT 6SM -RA BR BKN008 OVC017 06/05 A2966 RMK SF7SC1 SLP046

CYGK;2013-11-02 14:00;CYGK 021400Z 02013G18KT 8SM -RA BKN008 OVC018 05/04 A2967 RMK SF6SC2 SLP048

CYGK;2013-11-02 14:51;CYGK 021451Z 02011G19KT 12SM BKN009 OVC018 05/03 A2967 RMK SF6SC2 SLP050

CYGK;2013-11-02 15:00;CYGK 021500Z 02009G18KT 15SM BKN010 OVC018 05/04 A2968 RMK SF7SC1 SLP052

CYGK;2013-11-02 16:00;CYGK 021600Z 01013KT 15SM BKN012 OVC025 05/03 A2970 RMK SC6SC2 SLP060

CYGK;2013-11-02 16:32;CYGK 021632Z 02012KT 15SM FEW013 OVC028 05/03 A2970 RMK SC2SC6 SLP059

CYGK;2013-11-02 17:00;CYGK 021700Z 02012G17KT 15SM SCT014 OVC033 05/02 A2970 RMK SC3SC5 SLP061

CYGK;2013-11-02 17:26;CYGK 021726Z 03014KT 15SM -RA SCT018 OVC032 06/02 A2970 RMK SC3SC5 SLP061

CYGK;2013-11-02 18:00;CYGK 021800Z 01013KT 15SM -RA SCT018 OVC032 05/02 A2971 RMK SC4SC4 SLP064

CYGK;2013-11-02 19:00;CYGK 021900Z 01013KT 10SM -RA BKN017 OVC030 04/02 A2974 RMK SC5SC3 SLP072

CYGK;2013-11-02 20:00;CYGK 022000Z 36014G21KT 8SM -RA FEW011 BKN015 OVC022 04/02 A2976 RMK SF2SC4SC2 SLP081

CYGK;2013-11-02 21:00;CYGK 022100Z 01011G19KT 8SM -RA SCT011 BKN022 BKN033 OVC049 03/02 A2980 RMK SF3SC2SC1SC2 SLP092

CYGK;2013-11-02 22:00;CYGK 022200Z 36015G21KT 10SM -RA FEW009 BKN014 OVC040 03/01 A2983 RMK SF2SC4SC2 SLP104

CYGK;2013-11-02 22:49;CYGK 022249Z 01010KT 12SM -RASN SCT014 OVC050 03/01 A2986 RMK SC4SC4 SLP115

CYGK;2013-11-02 23:00;CYGK 022300Z 36011KT 15SM -RASN FEW014 OVC050 03/01 A2987 RMK SC2SC6 SLP117

CYGK;2013-11-02 23:40;CYGK 022340Z 36011KT 15SM OVC060 03/M01 A2989 RMK SC8 SLP123

CYGK;2013-11-03 11:00;CYGK 031100Z 36008KT 15SM FEW120 M03/M08 A3021 RMK AC1 SLP235

CYGK;2013-11-03 12:00;CYGK 031200Z 35009KT 15SM FEW042 FEW120 M04/M08 A3025 RMK SC1AC1 SC TR SLP248

CYGK;2013-11-03 13:00;CYGK 031300Z 35009KT 15SM FEW020 FEW042 FEW100 M02/M07 A3029 RMK CU1SC1AC1 CU TR SC TR SLP260

CYGK;2013-11-03 14:00;CYGK 031400Z 02012G21KT 15SM FEW020 FEW100 FEW200 M00/M07 A3031 RMK CF1AC1CI1 CF TR CI TR SLP267

CYGK;2013-11-03 15:00;CYGK 031500Z 02012KT 15SM FEW025 FEW200 01/M07 A3033 RMK CF1CI1 CI TR SLP274

CYGK;2013-11-03 16:00;CYGK 031600Z 02009G16KT 15SM FEW035 02/M07 A3034 RMK CU2 SLP279

CYGK;2013-11-03 17:00;CYGK 031700Z 02011KT 15SM FEW037 03/M08 A3034 RMK CU2 SLP278

CYGK;2013-11-03 18:00;CYGK 031800Z 35009G16KT 330V030 15SM FEW040 03/M09 A3035 RMK CU1 SLP282

CYGK;2013-11-03 19:00;CYGK 031900Z 36008G16KT 15SM FEW040 03/M09 A3038 RMK CF1 SLP290

CYGK;2013-11-03 20:00;CYGK 032000Z 01010G17KT 15SM FEW040 03/M11 A3038 RMK SC1 SLP292

CYGK;2013-11-03 21:00;CYGK 032100Z 35009KT 15SM FEW040 03/M11 A3039 RMK SC1 SC TR SLP297

CYGK;2013-11-03 22:00;CYGK 032200Z 35004KT 15SM FEW040 01/M11 A3042 RMK SC1 SC TR SLP307

CYGK;2013-11-03 23:00;CYGK 032300Z 34004KT 15SM FEW040 M01/M09 A3045 RMK SC1 SC TR SLP317

CYGK;2013-11-04 00:00;CYGK 040000Z 34003KT 15SM SKC M01/M08 A3047 RMK SLP323

CYGK;2013-11-04 01:00;CYGK 040100Z 35004KT 15SM SKC M02/M06 A3049 RMK SLP330

CYGK;2013-11-04 02:00;CYGK 040200Z 35005KT 15SM SKC M02/M06 A3050 RMK SLP333

CYGK;2013-11-04 03:00;CYGK 040300Z 34004KT 15SM SKC M03/M07 A3052 RMK SLP340

CYGK;2013-11-04 04:00;CYGK 040400Z 34006KT 15SM SKC M04/M06 A3054 RMK LAST OBS/NEXT 041100 UTC SLP346

CYGK;2013-11-04 11:00;CYGK 041100Z 04005KT 14SM SKC M04/M07 A3065 RMK SLP383

CYGK;2013-11-04 12:00;CYGK 041200Z 04005KT 15SM FEW020 M04/M07 A3066 RMK SC1 SLP388

CYGK;2013-11-04 13:00;CYGK 041300Z 04006KT 15SM FEW025 FEW250 M02/M06 A3068 RMK SC1CI1 SLP395

CYGK;2013-11-04 14:00;CYGK 041400Z 06006KT 15SM FEW025 BKN250 00/M05 A3069 RMK SC1CI7 SC TR SLP397

CYGK;2013-11-04 15:00;CYGK 041500Z 07004KT 15SM FEW025 BKN250 02/M03 A3069 RMK SC1CI7 SC TR SLP399

CYGK;2013-11-04 17:00;CYGK 041700Z 05008KT 15SM BKN250 03/M08 A3068 RMK CI6 SLP394

CYGK;2013-11-04 18:00;CYGK 041800Z 08010G16KT 15SM FEW040 FEW180 BKN220 04/M08 A3066 RMK SC1AC2CI5 SC TR PRESFR SLP386

CYGK;2013-11-04 19:00;CYGK 041900Z 09007KT 15SM SCT240 BKN270 04/M07 A3064 RMK CC4CI2 SLP380

CYGK;2013-11-04 20:00;CYGK 042000Z 06010KT 15SM FEW040 FEW180 SCT220 BKN240 03/M08 A3063 RMK SC1AC2CC2CS3 SC TR SLP376

CYGK;2013-11-04 21:00;CYGK 042100Z 06007KT 15SM FEW180 SCT220 BKN240 02/M08 A3062 RMK AC2CC2CS3 SLP375

CYGK;2013-11-04 22:00;CYGK 042200Z 04006KT 15SM FEW180 FEW220 BKN240 01/M08 A3061 RMK AC1CC1CS6 AC TR SLP370

CYGK;2013-11-04 23:00;CYGK 042300Z 06007KT 15SM BKN200 01/M07 A3059 RMK CS7 SLP364

CYGK;2013-11-05 00:00;CYGK 050000Z 06010KT 15SM SCT150 BKN200 01/M07 A3056 RMK AC3CS3 PRESFR SLP354

CYGK;2013-11-05 01:00;CYGK 050100Z 04005KT 15SM BKN170 01/M07 A3058 RMK AC6 SLP359

CYGK;2013-11-05 02:00;CYGK 050200Z 06008KT 15SM OVC160 01/M06 A3056 RMK AC8 SLP352

CYGK;2013-11-05 03:00;CYGK 050300Z 10009KT 15SM BKN160 OVC230 03/M05 A3055 RMK AC5CI3 SLP351

CYGK;2013-11-05 04:00;CYGK 050400Z 15017G23KT 15SM BKN180 BKN220 05/M02 A3053 RMK AC6CI1 LAST OBS/NEXT 051100 UTC SLP341

CYGK;2013-11-05 11:00;CYGK 051100Z 18018G24KT 15SM SCT160 06/M01 A3047 RMK AC3 SLP323

CYGK;2013-11-05 12:00;CYGK 051200Z 18020G25KT 15SM FEW150 06/M01 A3048 RMK AC2 SLP324

CYGK;2013-11-05 13:00;CYGK 051300Z 18017G23KT 15SM FEW150 07/00 A3048 RMK AC2 SLP325

CYGK;2013-11-05 14:00;CYGK 051400Z 18017G23KT 15SM SCT150 08/00 A3049 RMK AC3 SLP328

CYGK;2013-11-05 15:00;CYGK 051500Z 18017G22KT 15SM BKN150 08/01 A3049 RMK AC5 SLP327

CYGK;2013-11-05 16:00;CYGK 051600Z 18016KT 15SM BKN060 BKN150 09/02 A3049 RMK SC5AC2 SLP326

CYGK;2013-11-05 17:00;CYGK 051700Z 18016KT 15SM SCT060 BKN140 10/02 A3047 RMK SC4AC2 SLP321

CYGK;2013-11-05 18:00;CYGK 051800Z 18013G19KT 15SM FEW060 FEW140 FEW250 11/02 A3044 RMK SC1AC1CI1 SC TR SLP311

CYGK;2013-11-05 19:00;CYGK 051900Z 18014KT 15SM BKN060 BKN140 11/02 A3044 RMK SC5AC1 SLP310

CYGK;2013-11-05 20:00;CYGK 052000Z 19013KT 15SM FEW060 SCT140 BKN220 11/02 A3042 RMK SC2AC1CI2 SLP304

CYGK;2013-11-05 21:00;CYGK 052100Z 18012G18KT 15SM FEW130 BKN220 11/03 A3041 RMK AC2CI4 SLP300

CYGK;2013-11-05 22:00;CYGK 052200Z 19014G19KT 15SM FEW130 BKN220 11/04 A3040 RMK AC2CI4 SLP295

CYGK;2013-11-05 23:00;CYGK 052300Z 18015G23KT 15SM FEW130 BKN220 11/05 A3039 RMK AC1CI5 SLP294

CYGK;2013-11-06 00:00;CYGK 060000Z 19015G22KT 15SM SCT100 BKN220 11/05 A3040 RMK AC3CI2 SLP295

CYGK;2013-11-06 01:00;CYGK 060100Z 19018G25KT 15SM SCT100 SCT200 11/04 A3038 RMK AC3CI1 SLP289

CYGK;2013-11-06 02:00;CYGK 060200Z 18016G25KT 15SM BKN100 11/05 A3037 RMK AC5 SLP285

CYGK;2013-11-06 03:00;CYGK 060300Z 18016KT 15SM SCT100 11/04 A3036 RMK AC3 SLP284

CYGK;2013-11-06 04:00;CYGK 060400Z 18018G24KT 15SM FEW100 10/05 A3034 RMK AC2 LAST OBS/NEXT 061100 UTC SLP276

CYGK;2013-11-06 11:00;CYGK 061100Z 18016G22KT 15SM OVC150 11/06 A3024 RMK AC8 SLP240

CYGK;2013-11-06 12:00;CYGK 061200Z 18017G23KT 15SM BKN140 11/06 A3021 RMK AC7 SLP231

CYGK;2013-11-06 13:00;CYGK 061300Z 18017G23KT 15SM SCT060 BKN130 11/07 A3019 RMK SC3AC4 SLP224

CYGK;2013-11-06 14:00;CYGK 061400Z 18017G24KT 15SM FEW015 FEW060 SCT120 BKN250 11/07 A3017 RMK SC1SC1AC1CI4 SLP219

CYGK;2013-11-06 15:00;CYGK 061500Z 18016G24KT 15SM FEW025 FEW060 SCT120 BKN250 12/07 A3013 RMK SC1SC1AC2CI3 SLP206

CYGK;2013-11-06 16:00;CYGK 061600Z 18016KT 15SM FEW030 FEW120 BKN200 12/08 A3011 RMK CF1AC2CI4 CF TR SLP198

CYGK;2013-11-06 17:00;CYGK 061700Z 18014KT 15SM BKN060 BKN250 13/08 A3007 RMK SC5CI2 PRESFR SLP184

CYGK;2013-11-06 18:00;CYGK 061800Z 18014KT 15SM OVC056 13/09 A3003 RMK SC8 PRESFR SLP169

CYGK;2013-11-06 18:32;CYGK 061832Z 18016KT 15SM -SHRA BKN048 OVC090 13/09 A3001 RMK SC7AC1 PRESFR SLP163

CYGK;2013-11-06 19:00;CYGK 061900Z 18017KT 15SM FEW030 BKN038 OVC090 13/09 A3000 RMK SC1SC6AC1 SLP160

CYGK;2013-11-06 19:25;CYGK 061925Z 18018KT 15SM FEW036 BKN050 OVC110 14/09 A2998 RMK CU1SC6AC1 SLP152

CYGK;2013-11-06 20:00;CYGK 062000Z 17018G23KT 15SM BKN047 BKN140 14/09 A2995 RMK SC6AC1 SLP145

CYGK;2013-11-06 21:00;CYGK 062100Z 18018G26KT 15SM FEW047 BKN060 BKN140 14/09 A2993 RMK SC2SC4AC1 SLP136

CYGK;2013-11-06 22:00;CYGK 062200Z 17019G28KT 15SM FEW060 BKN081 BKN160 14/09 A2987 RMK SC2AC3AC2 PRESFR SLP118

CYGK;2013-11-06 23:00;CYGK 062300Z 18019G26KT 15SM BKN056 OVC160 14/10 A2985 RMK SC6AC2 SLP109

CYGK;2013-11-06 23:43;CYGK 062343Z 18020G30KT 12SM -RA OVC052 14/10 A2985 RMK SC8 SLP110

CYGK;2013-11-07 00:00;CYGK 070000Z 18020G28KT 12SM -RA OVC046 14/10 A2984 RMK SC8 SLP105

CYGK;2013-11-07 01:00;CYGK 070100Z 19021G28KT 15SM -RA OVC054 14/10 A2981 RMK SC8 PRESFR SLP097

CYGK;2013-11-07 02:00;CYGK 070200Z 19024G32KT 15SM -RA OVC039 14/10 A2980 RMK SC8 SLP091

CYGK;2013-11-07 03:00;CYGK 070300Z 20021G28KT 15SM OVC033 13/11 A2978 RMK SC8 SLP087

CYGK;2013-11-07 04:00;CYGK 070400Z 20019G25KT 10SM -RA OVC022 13/11 A2977 RMK SC8 LAST OBS/NEXT 071100 UTC SLP083

CYGK;2013-11-07 11:00;CYGK 071100Z 27011G17KT 15SM BKN019 OVC080 07/05 A2980 RMK SC7AC1 SLP093

CYGK;2013-11-07 12:00;CYGK 071200Z 26009KT 15SM FEW015 BKN023 OVC130 07/04 A2983 RMK SF1SC6AC1 SLP103

CYGK;2013-11-07 13:00;CYGK 071300Z 28011G19KT 15SM FEW020 BKN032 BKN160 06/03 A2987 RMK CF1SC4AC2 SLP116

CYGK;2013-11-07 14:00;CYGK 071400Z 29011KT 15SM FEW020 FEW030 BKN200 05/02 A2989 RMK CF1SC2CI5 CF TR SLP124

CYGK;2013-11-07 15:00;CYGK 071500Z 30012G18KT 15SM FEW023 SCT070 SCT240 06/01 A2991 RMK CF2AC1CI1 SLP130

CYGK;2013-11-07 16:00;CYGK 071600Z 30011G19KT 15SM BKN030 BKN250 07/01 A2991 RMK SC5CI1 SLP130

CYGK;2013-11-07 17:00;CYGK 071700Z 29013G19KT 15SM BKN035 BKN080 BKN250 07/M01 A2991 RMK SC5AC1CI1 CI TR SLP131

CYGK;2013-11-07 18:00;CYGK 071800Z 29009G18KT 15SM SCT040 SCT080 07/M01 A2989 RMK SC3AC1 SLP124

CYGK;2013-11-07 19:00;CYGK 071900Z 28014G22KT 15SM FEW030 BKN049 07/M04 A2989 RMK CF1SC5 SLP124

CYGK;2013-11-07 20:00;CYGK 072000Z 28013G21KT 15SM FEW030 FEW055 08/M04 A2989 RMK CF1SC2 CF TR SLP123

CYGK;2013-11-07 21:00;CYGK 072100Z 31013G19KT 15SM BKN060 06/M05 A2991 RMK SC5 SLP130

CYGK;2013-11-07 22:00;CYGK 072200Z 33005KT 15SM FEW030 BKN060 04/M04 A2992 RMK CU1SC4 SLP133

CYGK;2013-11-07 23:00;CYGK 072300Z 34003KT 15SM BKN070 04/M04 A2993 RMK AC6 SLP137

CYGK;2013-11-08 00:00;CYGK 080000Z 00000KT 15SM OVC080 04/M04 A2993 RMK AC8 SLP137

CYGK;2013-11-08 01:00;CYGK 080100Z 28002KT 15SM OVC075 04/M03 A2993 RMK AC8 SLP138

CYGK;2013-11-08 02:00;CYGK 080200Z 28009KT 15SM OVC080 04/M03 A2993 RMK AC8 SLP136

CYGK;2013-11-08 03:00;CYGK 080300Z 27009KT 15SM OVC085 04/M01 A2992 RMK AC8 SLP134

CYGK;2013-11-08 04:00;CYGK 080400Z 27009G15KT 15SM OVC090 04/00 A2990 RMK AC8 LAST OBS/NEXT 081100 UTC SLP128

CYGK;2013-11-08 11:00;CYGK 081100Z 27008KT 15SM FEW080 SCT220 01/M01 A2993 RMK AC1CI3 SLP139

CYGK;2013-11-08 11:26;CYGK 081126Z 28006KT 15SM FEW009 FEW080 SCT240 00/M01 A2994 RMK CF1AC1CI3 AC TR SLP142

CYGK;2013-11-08 12:00;CYGK 081200Z 30006KT 15SM FEW010 FEW020 SCT220 00/M02 A2996 RMK CF1SC1CI1 SN SH DIST N SLP147

CYGK;2013-11-08 13:00;CYGK 081300Z 32009KT 15SM FEW010 BKN023 BKN080 01/M02 A2999 RMK CF1SC5AC1 CF TR SN SH DIST N-SE CVCTV CLD EMBD SLP159

CYGK;2013-11-08 14:00;CYGK 081400Z 28013KT 15SM FEW010 FEW023 FEW080 02/M03 A3001 RMK CF1SC1AC1 AC TR SLP166

CYGK;2013-11-08 15:00;CYGK 081500Z 27012G19KT 15SM FEW030 FEW080 03/M05 A3002 RMK CU2AC1 AC TR SLP170

CYGK;2013-11-08 16:00;CYGK 081600Z 30013G19KT 15SM SCT050 BKN080 04/M06 A3004 RMK SC4AC1 SLP174

CYGK;2013-11-08 17:00;CYGK 081700Z 28017G23KT 15SM BKN045 04/M06 A3003 RMK SC7 SLP173

CYGK;2013-11-08 18:00;CYGK 081800Z 27013G23KT 15SM BKN049 06/M06 A3003 RMK SC6 SLP173

CYGK;2013-11-08 19:00;CYGK 081900Z 30013KT 15SM BKN050 06/M06 A3004 RMK SC5 SLP177

CYGK;2013-11-08 20:00;CYGK 082000Z 31010G18KT 15SM SCT053 05/M06 A3006 RMK SC4 SLP182

CYGK;2013-11-08 21:00;CYGK 082100Z 30014G20KT 15SM BKN050 04/M06 A3009 RMK SC5 SLP194

CYGK;2013-11-08 22:00;CYGK 082200Z 30008KT 15SM SCT050 03/M06 A3012 RMK SC4 SLP202

CYGK;2013-11-08 23:00;CYGK 082300Z 32007KT 15SM SCT050 01/M06 A3014 RMK SC3 SLP210

CYGK;2013-11-09 00:00;CYGK 090000Z 32005KT 15SM SCT050 01/M06 A3016 RMK SC3 SLP217

CYGK;2013-11-09 01:00;CYGK 090100Z 30004KT 15SM SCT050 00/M06 A3018 RMK SC3 SLP223

CYGK;2013-11-09 02:00;CYGK 090200Z 29005KT 15SM FEW050 M00/M06 A3019 RMK SC2 SLP227

CYGK;2013-11-09 03:00;CYGK 090300Z 28004KT 15SM FEW040 M01/M06 A3020 RMK SC1 SLP230

CYGK;2013-11-09 04:00;CYGK 090400Z 29004KT 15SM SKC M01/M06 A3019 RMK LAST OBS/NEXT 091100 UTC SLP228

CYGK;2013-11-09 11:00;CYGK 091100Z 35004KT 15SM OVC065 M01/M03 A3019 RMK SC8 SLP229

CYGK;2013-11-09 12:00;CYGK 091200Z 14002KT 15SM FEW015 BKN064 M00/M03 A3020 RMK CU1SC7 CU TR DIST S SLP231

CYGK;2013-11-09 13:00;CYGK 091300Z 01002KT 15SM FEW015 BKN062 BKN120 BKN200 00/M02 A3020 RMK CF1SC5AS1CS1 CF TR DIST S SLP230

CYGK;2013-11-09 14:00;CYGK 091400Z 11007KT 15SM FEW015 FEW062 BKN090 03/M05 A3019 RMK CF1SC2AS5 CF TR SLP227

CYGK;2013-11-09 15:00;CYGK 091500Z 12008KT 15SM FEW015 BKN059 OVC090 04/M04 A3017 RMK CF1SC6AS2 CF TR VIRGA SLP219

CYGK;2013-11-09 15:40;CYGK 091540Z 14010KT 12SM -RA BKN025 OVC090 04/M02 A3014 RMK SC7AS1 SLP211

CYGK;2013-11-09 16:00;CYGK 091600Z 13011KT 10SM -RA BKN019 OVC040 03/01 A3013 RMK SC7SC1 SLP206

CYGK;2013-11-09 17:00;CYGK 091700Z 14006KT 12SM -RA BKN013 OVC040 04/02 A3007 RMK SC7SC1 SLP187

CYGK;2013-11-09 17:39;CYGK 091739Z 23009KT 15SM FEW010 BKN019 OVC035 05/02 A3005 RMK SF1SC7SC1 SF TR SHWRS NE SLP178

CYGK;2013-11-09 18:00;CYGK 091800Z 20013KT 15SM FEW010 BKN019 BKN030 OVC070 06/02 A3003 RMK SF1SC6SC1AC1 SF TR SHWRS NE SLP172

CYGK;2013-11-09 19:00;CYGK 091900Z 17014KT 15SM OVC025 06/02 A2999 RMK CU8 SLP159

CYGK;2013-11-09 20:00;CYGK 092000Z 15013G18KT 15SM SCT020 BKN055 BKN098 06/02 A2996 RMK CU3SC2AC2 SLP148

CYGK;2013-11-09 21:00;CYGK 092100Z 16015G23KT 14SM SCT025 OVC070 07/01 A2993 RMK CU4AC4 SLP140

CYGK;2013-11-09 22:00;CYGK 092200Z 15016G22KT 15SM SCT025 OVC060 07/02 A2992 RMK CU3SC5 SLP135

CYGK;2013-11-09 22:28;CYGK 092228Z 15016G21KT 15SM -RA FEW025 OVC060 07/02 A2991 RMK CU2SC6 SLP133

CYGK;2013-11-09 23:00;CYGK 092300Z 14017KT 15SM FEW030 OVC060 07/02 A2990 RMK CU2SC6 SLP130

CYGK;2013-11-10 00:00;CYGK 100000Z 21017G24KT 10SM -RA OVC030 07/03 A2990 RMK SC8 SLP129

CYGK;2013-11-10 01:00;CYGK 100100Z 20014G21KT 8SM BKN025 OVC050 07/04 A2987 RMK CU5SC3 SLP118

CYGK;2013-11-10 02:00;CYGK 100200Z 18016KT 10SM -RA BKN025 OVC045 08/03 A2983 RMK CU5SC3 SLP104

CYGK;2013-11-10 03:00;CYGK 100300Z 17019G24KT 12SM -RA SCT025 OVC045 09/03 A2980 RMK CU3SC5 SLP092

CYGK;2013-11-10 04:00;CYGK 100400Z 20017G25KT 8SM -RA OVC030 08/04 A2976 RMK SC8 SLP082

CYGK;2013-11-10 11:00;CYGK 101100Z 25008KT 15SM FEW020 OVC074 07/04 A2973 RMK SC2AC6 SLP069

CYGK;2013-11-10 12:00;CYGK 101200Z 26012G19KT 15SM FEW025 BKN078 07/03 A2974 RMK SC2AC5 SLP074

CYGK;2013-11-10 13:00;CYGK 101300Z 25011G16KT 15SM FEW022 BKN080 07/03 A2975 RMK SC1AC6 SLP075

CYGK;2013-11-10 14:00;CYGK 101400Z 24012G19KT 15SM FEW022 BKN097 07/02 A2975 RMK SC1AC7 SC TR SLP075

CYGK;2013-11-10 14:47;CYGK 101447Z 24013G19KT 15SM -SHRA FEW028 BKN065 OVC090 07/02 A2974 RMK CF1SC4AC3 SLP074

CYGK;2013-11-10 15:00;CYGK 101500Z 26014G19KT 15SM -SHRA FEW028 BKN065 OVC090 07/02 A2974 RMK CF1SC4AC3 SLP074

CYGK;2013-11-10 16:00;CYGK 101600Z 25017G23KT 15SM FEW028 BKN060 OVC090 07/02 A2975 RMK CU1SC5AS2 OCNL -SHRA SLP075

CYGK;2013-11-10 17:00;CYGK 101700Z 26016G22KT 15SM -SHRA SCT027 OVC060 07/03 A2974 RMK CU3SC5 SLP073

CYGK;2013-11-10 17:47;CYGK 101747Z 26014G24KT 15SM BKN026 OVC060 08/02 A2973 RMK CU5SC3 SLP070

CYGK;2013-11-10 18:03;CYGK 101803Z 26017G23KT 15SM -SHRA BKN027 BKN060 OVC080 08/03 A2973 RMK CU6SC1AS1 SLP070

CYGK;2013-11-10 19:00;CYGK 101900Z 26016G28KT 12SM -SHRA BKN025 OVC060 07/03 A2974 RMK CU6SC2 SLP072

CYGK;2013-11-10 19:30;CYGK 101930Z 27015G23KT 15SM VCSH BKN027 BKN060 08/02 A2975 RMK CU6SC1 SLP075

CYGK;2013-11-10 20:00;CYGK 102000Z 27017G25KT 15SM VCSH BKN027 BKN060 07/01 A2975 RMK CU6SC1 SLP077

CYGK;2013-11-10 20:10;CYGK 102010Z 27019G30KT 15SM -SHRA BKN024 OVC060 07/01 A2976 RMK CU6SC2 VIS LWR N SLP079

CYGK;2013-11-10 20:46;CYGK 102046Z 27015G22KT 15SM VCSH SCT025 BKN057 BKN140 06/01 A2978 RMK CU3SC2AC2 SLP087

CYGK;2013-11-10 21:00;CYGK 102100Z 27014G34KT 15SM FEW025 BKN060 BKN130 06/00 A2979 RMK CU2SC3AC2 SLP091

CYGK;2013-11-10 22:00;CYGK 102200Z 28016G25KT 15SM FEW030 SCT050 BKN075 BKN130 05/M02 A2984 RMK CU2SC2AC2AC1 PRESRR SLP108

CYGK;2013-11-10 23:00;CYGK 102300Z 27013G23KT 15SM FEW030 BKN055 BKN140 03/M02 A2990 RMK SC1SC4AC1 SLP127

CYGK;2013-11-11 00:00;CYGK 110000Z 28016G22KT 15SM BKN045 03/M03 A2994 RMK SC7 SLP142

CYGK;2013-11-11 01:00;CYGK 110100Z 29012G24KT 15SM BKN044 04/M02 A2996 RMK SC7 SLP148

CYGK;2013-11-11 02:00;CYGK 110200Z 30012G17KT 15SM FEW038 03/M03 A3001 RMK SC2 SLP164

CYGK;2013-11-11 03:00;CYGK 110300Z 29010G18KT 15SM BKN040 04/M03 A3005 RMK SC7 SLP178

CYGK;2013-11-11 04:00;CYGK 110400Z 28010G17KT 15SM BKN038 03/M03 A3006 RMK SC7 LAST OBS/NEXT 111100 UTC SLP183

CYGK;2013-11-11 11:00;CYGK 111100Z 26004KT 15SM FEW120 SCT170 BKN220 01/M04 A3012 RMK AC2AS2CI2 SLP202

CYGK;2013-11-11 12:00;CYGK 111200Z 00000KT 15SM FEW035 SCT120 BKN170 BKN220 M00/M04 A3010 RMK SC1AC2AS2CI2 SLP198

CYGK;2013-11-11 13:00;CYGK 111300Z 15003KT 15SM BKN045 BKN100 BKN220 03/M03 A3009 RMK SC5AC2CI1 CI TR SLP192

CYGK;2013-11-11 13:53;CYGK 111353Z 19010KT 15SM -SHRA BKN025 BKN050 OVC100 04/00 A3006 RMK SC6SC1AC1 SLP182

CYGK;2013-11-11 14:00;CYGK 111400Z 19014KT 15SM -SHRA BKN023 BKN044 OVC100 04/01 A3006 RMK SC6SC1AC1 SLP182

CYGK;2013-11-11 14:51;CYGK 111451Z 23017KT 15SM BKN026 BKN050 OVC100 06/01 A3002 RMK SC5SC2AC1 SLP170

CYGK;2013-11-11 15:00;CYGK 111500Z 23015G22KT 15SM SCT025 BKN042 OVC100 06/00 A3002 RMK SC4SC3AC1 SLP168

CYGK;2013-11-11 15:30;CYGK 111530Z 23019G26KT 12SM -RA FEW019 BKN025 OVC100 06/00 A3000 RMK CU2SC5AC1 SLP163

CYGK;2013-11-11 16:00;CYGK 111600Z 22014G19KT 9SM -RA BKN023 OVC040 05/02 A2998 RMK SC6SC2 SLP156

CYGK;2013-11-11 17:00;CYGK 111700Z 24016G24KT 7SM -RA FEW012 BKN017 OVC035 05/03 A2995 RMK SF1SC5SC2 SLP146

CYGK;2013-11-11 17:21;CYGK 111721Z 24011G17KT 12SM -RA BKN011 OVC018 05/04 A2993 RMK SC5SC3 SLP140

CYGK;2013-11-11 18:00;CYGK 111800Z 23011G19KT 8SM -RA SCT011 OVC018 05/04 A2991 RMK SC3SC5 SLP133

CYGK;2013-11-11 18:20;CYGK 111820Z 24014G21KT 6SM -RA BR FEW008 BKN010 OVC018 05/03 A2991 RMK SF1SC6SC1 SLP131

CYGK;2013-11-11 19:00;CYGK 111900Z 24016KT 6SM -RA BR FEW008 BKN011 OVC020 05/03 A2989 RMK SF2SC5SC1 SLP124

CYGK;2013-11-11 20:00;CYGK 112000Z 25015G26KT 8SM -RA FEW007 BKN011 OVC020 05/04 A2987 RMK SF1SC6SC1 SLP118

CYGK;2013-11-11 21:00;CYGK 112100Z 25022G30KT 10SM -RA BKN012 OVC017 06/03 A2987 RMK SC6SC2 SLP117

CYGK;2013-11-11 22:00;CYGK 112200Z 25015G22KT 10SM -RA BKN014 BKN020 OVC040 06/04 A2986 RMK SF5SC2SC1 SLP116

CYGK;2013-11-11 23:00;CYGK 112300Z 26015KT 12SM -RA BKN016 OVC040 05/03 A2987 RMK SC5SC3 SLP118

CYGK;2013-11-11 23:25;CYGK 112325Z 28015G24KT 10SM -RASN BKN014 OVC020 04/03 A2989 RMK SC5SC3 SLP124

CYGK;2013-11-11 23:48;CYGK 112348Z 30016KT 12SM -RASN SCT014 BKN025 OVC040 03/M00 A2990 RMK SC4SC2SC2 SLP128

CYGK;2013-11-12 00:00;CYGK 120000Z 29012G17KT 15SM -RASN FEW014 BKN035 OVC055 02/M00 A2990 RMK SC2SC4SC2 SLP129

CYGK;2013-11-12 00:11;CYGK 120011Z 29011G17KT 15SM FEW014 BKN035 OVC060 02/M01 A2990 RMK SC1SC6SC1 SLP130

CYGK;2013-11-12 00:36;CYGK 120036Z 29012G22KT 10SM -SN SCT035 OVC055 02/M01 A2992 RMK SC3SC5 SLP134

CYGK;2013-11-12 01:00;CYGK 120100Z 29013KT 10SM -SN OVC055 02/M02 A2993 RMK SC8 SLP137

CYGK;2013-11-12 01:39;CYGK 120139Z 30011G16KT 15SM BKN031 OVC085 02/M02 A2995 RMK SC5AC3 SLP144

CYGK;2013-11-12 01:50;CYGK 120150Z 30010G18KT 10SM -SN SCT016 OVC025 01/M02 A2995 RMK SC4SC4 SLP147

CYGK;2013-11-12 02:00;CYGK 120200Z 33012G20KT 10SM -SN BKN017 OVC033 01/M02 A2996 RMK SC6SC2 PRESRR SLP150

CYGK;2013-11-12 02:22;CYGK 120222Z 32016G22KT 15SM FEW017 BKN025 BKN040 OVC090 00/M04 A2997 RMK SC2SC3SC1AC2 SLP153

CYGK;2013-11-12 03:00;CYGK 120300Z 33011G20KT 15SM BKN040 OVC075 M01/M07 A3001 RMK SC5AC3 SLP165

CYGK;2013-11-12 04:00;CYGK 120400Z 33013G19KT 15SM FEW040 SCT080 BKN140 OVC210 M02/M07 A3004 RMK SC1AC2AC3CI2 LAST OBS/NEXT 121100 UTC SLP178

CYGK;2013-11-12 11:00;CYGK 121100Z 30007KT 15SM SCT030 M06/M10 A3020 RMK SC3 SLP231

CYGK;2013-11-12 12:00;CYGK 121200Z 31007KT 15SM OVC034 M04/M09 A3022 RMK SC8 SLP238

CYGK;2013-11-12 13:00;CYGK 121300Z 32008G15KT 15SM BKN033 M04/M09 A3024 RMK SC7 SLP246

CYGK;2013-11-12 14:00;CYGK 121400Z 33011KT 15SM BKN031 M03/M09 A3026 RMK SC7 SLP250

CYGK;2013-11-12 15:00;CYGK 121500Z 30009G16KT 15SM BKN028 M03/M09 A3027 RMK SC6 SLP254

CYGK;2013-11-12 16:00;CYGK 121600Z 27006KT 15SM BKN030 M01/M09 A3026 RMK SC5 SLP251

CYGK;2013-11-12 17:00;CYGK 121700Z 30008KT 15SM BKN035 M00/M08 A3025 RMK SC5 SLP249

CYGK;2013-11-12 18:00;CYGK 121800Z 27013G18KT 15SM BKN040 M00/M10 A3025 RMK SC7 SLP247

CYGK;2013-11-12 19:00;CYGK 121900Z 32015KT 15SM BKN041 M01/M10 A3025 RMK SC7 WND ESTD SLP249

CYGK;2013-11-12 20:00;CYGK 122000Z 29009KT 15SM BKN040 M01/M10 A3027 RMK SC5 SLP256

CYGK;2013-11-12 21:00;CYGK 122100Z 32009G16KT 15SM BKN040 M02/M11 A3028 RMK SC5 SLP260

CYGK;2013-11-12 22:00;CYGK 122200Z 30009KT 15SM BKN040 M03/M11 A3030 RMK SC6 SLP265

CYGK;2013-11-12 23:00;CYGK 122300Z 32008G15KT 15SM BKN040 M03/M11 A3031 RMK SC7 SLP270

CYGK;2013-11-13 00:00;CYGK 130000Z 31010KT 15SM BKN040 M04/M12 A3033 RMK SC7 SLP277

CYGK;2013-11-13 01:00;CYGK 130100Z 31011KT 15SM BKN040 M04/M13 A3035 RMK SC7 SLP281

CYGK;2013-11-13 01:11;CYGK 130111Z 30011KT 15SM -SHSN BKN040 M04/M13 A3035 RMK SC7 SLP281

CYGK;2013-11-13 01:30;CYGK 130130Z 33009KT 15SM BKN040 M04/M13 A3035 RMK SC7 SLP284

CYGK;2013-11-13 02:00;CYGK 130200Z 34011KT 15SM BKN040 M05/M13 A3036 RMK SC7 SLP287

CYGK;2013-11-13 03:00;CYGK 130300Z 31009KT 15SM BKN039 M05/M13 A3036 RMK SC7 SLP287

CYGK;2013-11-13 04:00;CYGK 130400Z 32007KT 15SM BKN040 BKN100 M05/M13 A3037 RMK SC6AC1 LAST OBS/NEXT 131100 UTC SLP290

CYGK;2013-11-13 11:00;CYGK 131100Z 28005KT 15SM SKC M08/M12 A3038 RMK SLP292

CYGK;2013-11-13 12:00;CYGK 131200Z 29007KT 15SM FEW030 M08/M12 A3039 RMK CF1 CF TR SLP296

CYGK;2013-11-13 13:00;CYGK 131300Z 28008KT 15SM FEW030 FEW250 M07/M11 A3040 RMK CF1CI1 CF TR SLP301

CYGK;2013-11-13 14:00;CYGK 131400Z 26008KT 15SM FEW030 BKN050 M05/M11 A3039 RMK SC1SC5 SLP298

CYGK;2013-11-13 15:00;CYGK 131500Z 26007KT 15SM OVC050 M03/M11 A3039 RMK SC8 SLP297

CYGK;2013-11-13 16:00;CYGK 131600Z 26007KT 15SM OVC047 M01/M08 A3035 RMK SC8 SLP284

CYGK;2013-11-13 17:00;CYGK 131700Z 24012KT 15SM FEW027 OVC043 01/M06 A3032 RMK SC2SC6 SLP272

CYGK;2013-11-13 18:00;CYGK 131800Z 24013G21KT 15SM FEW030 OVC045 02/M05 A3028 RMK SC2SC6 SLP257

CYGK;2013-11-13 19:00;CYGK 131900Z 26016G22KT 15SM SCT028 OVC041 02/M07 A3025 RMK SC4SC4 SLP247

CYGK;2013-11-13 20:00;CYGK 132000Z 25012G20KT 15SM BKN033 02/M05 A3023 RMK SC7 SLP242

CYGK;2013-11-13 21:00;CYGK 132100Z 23022G31KT 15SM BKN034 BKN150 02/M05 A3020 RMK SC5AC1 SLP231

CYGK;2013-11-13 22:00;CYGK 132200Z 23019G27KT 15SM FEW035 SCT150 02/M04 A3017 RMK SC2AC2 SLP222

CYGK;2013-11-13 23:00;CYGK 132300Z 23017G26KT 15SM FEW037 BKN190 03/M05 A3017 RMK SC2CI4 SLP221

CYGK;2013-11-14 00:00;CYGK 140000Z 24014G25KT 15SM FEW039 BKN200 03/M04 A3014 RMK SC1CI4 SLP211

CYGK;2013-11-14 01:00;CYGK 140100Z 23019KT 15SM SCT031 BKN200 04/M02 A3010 RMK SC3CI2 SLP199

CYGK;2013-11-14 02:00;CYGK 140200Z 23020G27KT 15SM BKN030 BKN200 05/M01 A3007 RMK SC5CI2 SLP187

CYGK;2013-11-14 03:00;CYGK 140300Z 22021G28KT 15SM BKN030 BKN200 04/M00 A3004 RMK SC6CI1 SLP178

CYGK;2013-11-14 04:00;CYGK 140400Z 22020G31KT 15SM FEW030 BKN180 BKN200 04/M01 A3001 RMK SC2AC4CI1 LAST OBS/NEXT 141100 UTC SLP168

CYGK;2013-11-14 11:00;CYGK 141100Z 26013G24KT 15SM FEW200 04/M04 A3003 RMK CI1 SLP171

CYGK;2013-11-14 12:00;CYGK 141200Z 26012G20KT 15SM FEW030 FEW250 03/M04 A3004 RMK CF1CI2 CF TR SLP175

CYGK;2013-11-14 13:00;CYGK 141300Z 25015G21KT 15SM FEW030 SCT250 04/M03 A3005 RMK CF1CI3 CF TR SLP178

CYGK;2013-11-14 14:00;CYGK 141400Z 25016G23KT 15SM FEW030 SCT250 05/M03 A3005 RMK CF1CI4 CF TR SLP178

CYGK;2013-11-14 15:00;CYGK 141500Z 25016G25KT 15SM FEW030 SCT250 05/M03 A3005 RMK CF1CI4 CF TR SLP179

CYGK;2013-11-14 16:00;CYGK 141600Z 25017G24KT 15SM FEW030 SCT250 06/M03 A3005 RMK CU1CI4 CU TR SLP178

CYGK;2013-11-14 17:00;CYGK 141700Z 24016G23KT 15SM FEW030 SCT250 07/M02 A3003 RMK CF1CI3 CF TR SLP171

CYGK;2013-11-14 18:00;CYGK 141800Z 24016G28KT 15SM FEW030 SCT250 08/M01 A3001 RMK SC2CI1 SLP165

CYGK;2013-11-14 19:00;CYGK 141900Z 24019G26KT 15SM BKN030 07/00 A3001 RMK SC7 SLP166

CYGK;2013-11-14 20:00;CYGK 142000Z 24017G26KT 15SM FEW029 SCT250 07/02 A3001 RMK SC2CI2 SLP165

CYGK;2013-11-14 21:00;CYGK 142100Z 23015G24KT 15SM FEW030 BKN250 08/01 A3000 RMK SC1CI5 SLP162

CYGK;2013-11-14 22:00;CYGK 142200Z 22011G16KT 15SM FEW030 BKN250 07/01 A3000 RMK SC1CI5 SC TR SLP161

CYGK;2013-11-14 23:00;CYGK 142300Z 22012KT 15SM FEW032 BKN200 07/00 A2999 RMK SC1CI5 SC TR SLP159

CYGK;2013-11-15 00:00;CYGK 150000Z 23015KT 15SM BKN200 08/M01 A2998 RMK CI7 SLP157

CYGK;2013-11-15 01:00;CYGK 150100Z 23014G20KT 15SM BKN250 08/M01 A2998 RMK CI6 SLP156

CYGK;2013-11-15 02:00;CYGK 150200Z 23012G18KT 15SM BKN250 08/M01 A2999 RMK CI7 SLP158

CYGK;2013-11-15 03:00;CYGK 150300Z 23009KT 15SM BKN250 07/01 A2999 RMK CI6 SLP159

CYGK;2013-11-15 04:00;CYGK 150400Z 22008KT 15SM BKN250 07/01 A3000 RMK CS5 LAST OBS/NEXT 151100 UTC SLP161

CYGK;2013-11-15 11:00;CYGK 151100Z 23015KT 15SM SCT200 08/00 A3004 RMK CI4 SLP173

CYGK;2013-11-15 12:00;CYGK 151200Z 23014G20KT 15SM OVC220 08/00 A3005 RMK CI8 SLP177

CYGK;2013-11-15 13:00;CYGK 151300Z 22014G20KT 15SM OVC250 08/01 A3007 RMK CI8 SLP183

CYGK;2013-11-15 14:00;CYGK 151400Z 22016KT 15SM OVC250 08/00 A3007 RMK CI8 SLP186

CYGK;2013-11-15 15:00;CYGK 151500Z 22014KT 15SM BKN200 BKN300 09/00 A3008 RMK CI5CI2 SLP188

CYGK;2013-11-15 16:00;CYGK 151600Z 22014G21KT 15SM BKN170 BKN200 09/00 A3008 RMK AC5CI2 SLP189

CYGK;2013-11-15 17:00;CYGK 151700Z 23011G19KT 15SM SCT170 BKN220 10/01 A3007 RMK AC3CI4 SLP184

CYGK;2013-11-15 18:00;CYGK 151800Z 24012G20KT 15SM SCT160 BKN250 10/01 A3007 RMK AC3CI4 SLP183

CYGK;2013-11-15 19:00;CYGK 151900Z 22015KT 15SM SCT180 BKN250 09/00 A3006 RMK AC4CI2 SLP181

CYGK;2013-11-15 20:00;CYGK 152000Z 21012G21KT 15SM FEW140 BKN200 10/M00 A3006 RMK AC2CI5 SLP181

CYGK;2013-11-15 21:00;CYGK 152100Z 21010KT 15SM BKN190 BKN250 09/01 A3006 RMK AC6CI1 SLP181

CYGK;2013-11-15 22:00;CYGK 152200Z 21009KT 15SM FEW140 BKN200 09/01 A3006 RMK AC2CI5 SLP182

CYGK;2013-11-15 23:00;CYGK 152300Z 22010KT 15SM FEW140 BKN180 BKN200 09/01 A3007 RMK AC2AC3CI2 SLP184

CYGK;2013-11-16 00:00;CYGK 160000Z 21009KT 15SM BKN140 OVC180 09/02 A3007 RMK AS5AC3 SLP184

CYGK;2013-11-16 01:00;CYGK 160100Z 22004KT 15SM SCT150 OVC180 08/02 A3008 RMK AS3AC5 SLP189

CYGK;2013-11-16 02:00;CYGK 160200Z 22005KT 15SM BKN160 OVC200 08/02 A3010 RMK AC5CI3 SLP196

CYGK;2013-11-16 03:00;CYGK 160300Z 22005KT 15SM BKN160 OVC220 08/01 A3011 RMK AC5CI3 SLP199

CYGK;2013-11-16 04:00;CYGK 160400Z 21007KT 15SM BKN160 OVC200 09/00 A3011 RMK AC6CI2 LAST OBS/NEXT 161100 UTC SLP199

CYGK;2013-11-16 11:00;CYGK 161100Z 21007KT 15SM BKN075 09/03 A3016 RMK AC7 SLP215

CYGK;2013-11-16 12:00;CYGK 161200Z 21005KT 15SM BKN080 08/02 A3018 RMK AC7 SLP222

CYGK;2013-11-16 13:00;CYGK 161300Z 22008KT 15SM BKN077 09/03 A3020 RMK AC7 SLP230

CYGK;2013-11-16 14:00;CYGK 161400Z 24006KT 15SM BKN076 10/03 A3022 RMK AC7 SLP237

CYGK;2013-11-16 15:00;CYGK 161500Z 23009KT 15SM BKN075 10/03 A3024 RMK AC6 SLP243

CYGK;2013-11-16 16:00;CYGK 161600Z 22008KT 15SM BKN073 11/03 A3024 RMK AC7 SLP244

CYGK;2013-11-16 17:00;CYGK 161700Z 19010KT 15SM BKN070 10/04 A3023 RMK AC6 SLP238

CYGK;2013-11-16 18:00;CYGK 161800Z 20008KT 15SM BKN062 11/05 A3022 RMK SC6 SLP237

CYGK;2013-11-16 19:00;CYGK 161900Z 19009KT 15SM SCT250 11/05 A3021 RMK CI3 SLP231

CYGK;2013-11-16 20:00;CYGK 162000Z 18007KT 15SM SCT250 10/05 A3020 RMK CI3 SLP228

CYGK;2013-11-16 21:00;CYGK 162100Z 20004KT 15SM SCT250 09/05 A3019 RMK CI4 SLP226

CYGK;2013-11-16 22:00;CYGK 162200Z 15003KT 15SM SCT250 07/06 A3018 RMK CI4 SLP224

CYGK;2013-11-16 23:00;CYGK 162300Z 08003KT 15SM FEW220 BKN300 06/05 A3016 RMK CI1CI4 SLP216

CYGK;2013-11-17 00:00;CYGK 170000Z 07006KT 15SM BKN220 BKN300 05/03 A3015 RMK CI5CI2 SLP212

CYGK;2013-11-17 01:00;CYGK 170100Z 05003KT 15SM OVC250 05/02 A3014 RMK CI8 SLP210

CYGK;2013-11-17 02:00;CYGK 170200Z 13009KT 15SM OVC240 10/03 A3012 RMK CI8 SLP203

CYGK;2013-11-17 03:00;CYGK 170300Z 14012KT 15SM OVC240 10/05 A3012 RMK CI8 SLP200

CYGK;2013-11-17 04:00;CYGK 170400Z 16013KT 15SM BKN080 OVC240 11/06 A3010 RMK AC6CI2 LAST OBS/NEXT 081100 UTC SLP195

CYGK;2013-11-17 11:00;CYGK 171100Z 15007G15KT 15SM FEW050 BKN130 BKN240 10/07 A2998 RMK SC2AC3CI2 SLP156

CYGK;2013-11-17 12:00;CYGK 171200Z 16016G25KT 15SM FEW050 BKN110 BKN240 10/08 A2997 RMK SC2AC4CI1 SLP152

CYGK;2013-11-17 13:00;CYGK 171300Z 16012KT 15SM FEW050 BKN110 10/08 A2998 RMK SC1AC6 SLP153

CYGK;2013-11-17 13:12;CYGK 171312Z 15010KT 15SM -RA SCT032 BKN110 11/08 A2997 RMK SC4AC3 SLP151

CYGK;2013-11-17 14:00;CYGK 171400Z 16018G24KT 15SM BKN027 OVC100 11/09 A2995 RMK SC6AC2 INTMT -RA SLP142

CYGK;2013-11-17 15:00;CYGK 171500Z 16018G25KT 12SM -RA FEW010 BKN026 OVC100 11/09 A2993 RMK SF1SC7AC1 SF TR SLP137

CYGK;2013-11-17 16:00;CYGK 171600Z 16020KT 6SM -RA BR FEW010 FEW017 OVC025 11/10 A2991 RMK SF1SF1NS6 SLP131

CYGK;2013-11-17 16:40;CYGK 171640Z 16018G25KT 12SM -RA FEW008 SCT018 OVC040 11/10 A2989 RMK SF1SC3SC4 SLP122

CYGK;2013-11-17 17:00;CYGK 171700Z 16017G23KT 15SM FEW008 SCT018 OVC035 11/10 A2988 RMK SF2SC2SC4 INTMT -RA SLP119

CYGK;2013-11-17 18:00;CYGK 171800Z 16016G23KT 12SM -RA FEW018 BKN025 OVC040 11/10 A2984 RMK SF1SC4SC3 SLP108

CYGK;2013-11-17 19:00;CYGK 171900Z 16019G25KT 10SM -RA FEW017 BKN022 OVC030 11/10 A2982 RMK SF2SC3SC3 VIS LWR S SLP100

CYGK;2013-11-17 19:07;CYGK 171907Z 16019G24KT 3SM -RA BR SCT017 BKN022 OVC035 11/11 A2982 RMK SF3SC4SC1 SLP098

CYGK;2013-11-17 19:27;CYGK 171927Z 16019G24KT 10SM -RA FEW017 SCT022 OVC029 11/10 A2981 RMK SF1SC2SC5 SLP096

CYGK;2013-11-17 20:00;CYGK 172000Z 16016G22KT 15SM FEW017 FEW022 OVC029 11/11 A2980 RMK SF1SC1SC6 SLP093

CYGK;2013-11-17 20:27;CYGK 172027Z 16020G26KT 4SM -RA BR FEW015 OVC022 12/11 A2978 RMK SF1SC7 SLP087

CYGK;2013-11-17 21:00;CYGK 172100Z 15016G21KT 15SM FEW010 OVC030 11/11 A2975 RMK SF1SC7 PRESFR SLP077

CYGK;2013-11-17 22:00;CYGK 172200Z 16018KT 15SM FEW010 BKN030 OVC080 12/11 A2973 RMK SF1SC7AC1 SF TR SLP069

CYGK;2013-11-17 23:00;CYGK 172300Z 15017G23KT 15SM SCT030 OVC060 12/11 A2971 RMK SC4SC4 SLP061

CYGK;2013-11-17 23:37;CYGK 172337Z 15020KT 10SM -RA SCT025 OVC050 12/11 A2967 RMK SC4SC4 PRESFR SLP049

CYGK;2013-11-18 00:00;CYGK 180000Z 15020G25KT 15SM -RA FEW022 BKN055 OVC080 12/11 A2964 RMK SC1SC5AC2 PRESFR SLP040

CYGK;2013-11-18 01:00;CYGK 180100Z 16021KT 12SM -RA FEW020 SCT050 OVC100 12/11 A2960 RMK SC1SC3AC4 SLP025

CYGK;2013-11-18 02:00;CYGK 180200Z 15021G26KT 12SM -RA FEW015 SCT040 OVC080 12/11 A2954 RMK SF1SC3AC5 SF TR SLP004 DENSITY ALT 400FT

CYGK;2013-11-18 02:35;CYGK 180235Z 15022G30KT 15SM FEW015 FEW040 BKN075 OVC110 12/11 A2950 RMK SF1SC1AC4AC3 SF TR PRESFR SLP989 DENSITY ALT 500FT

CYGK;2013-11-18 03:00;CYGK 180300Z 15021G31KT 15SM FEW060 OVC090 12/11 A2947 RMK SC2AC6 PRESFR SLP980 DENSITY ALT 500FT

CYGK;2013-11-18 03:24;CYGK 180324Z 15024G31KT 12SM -RA OVC090 13/11 A2944 RMK AC8 PRESFR SLP969 DENSITY ALT 600FT

CYGK;2013-11-18 04:00;CYGK 180400Z 15023G29KT 12SM -RA FEW025 OVC090 13/11 A2941 RMK SC1AC7 LAST OBS/NEXT 181100 UTC PRESFR SLP959 DENSITY ALT 600FT

CYGK;2013-11-18 11:00;CYGK 181100Z 24025G39KT 15SM BKN027 OVC070 10/06 A2942 RMK SC7AC1 SLP963

CYGK;2013-11-18 11:35;CYGK 181135Z 24023G38KT 15SM -SHRA BKN023 OVC070 10/06 A2943 RMK SC7AC1 SLP967

CYGK;2013-11-18 12:00;CYGK 181200Z 24026G34KT 15SM BKN023 OVC035 10/06 A2944 RMK SC7SC1 SLP970

CYGK;2013-11-18 13:00;CYGK 181300Z 24021G34KT 15SM SCT023 BKN034 09/05 A2947 RMK SC3SC4 SLP980

CYGK;2013-11-18 14:00;CYGK 181400Z 23025G35KT 15SM FEW025 OVC040 09/03 A2949 RMK SC2SC6 SLP986

CYGK;2013-11-18 15:00;CYGK 181500Z 24024G36KT 15SM OVC045 09/02 A2950 RMK SC8 SLP990

CYGK;2013-11-18 16:00;CYGK 181600Z 25025G39KT 15SM FEW040 OVC060 09/01 A2950 RMK CU2SC6 SLP992

CYGK;2013-11-18 17:00;CYGK 181700Z 24027G37KT 15SM SCT035 BKN060 09/02 A2950 RMK CU3SC4 SLP991

CYGK;2013-11-18 18:00;CYGK 181800Z 24026G44KT 15SM SCT035 BKN064 09/01 A2951 RMK CU3SC4 SLP995

CYGK;2013-11-18 19:00;CYGK 181900Z 24021G34KT 15SM FEW040 OVC060 08/02 A2953 RMK CU2SC6 SLP002

CYGK;2013-11-18 19:39;CYGK 181939Z 23019G31KT 15SM -SHRA BKN045 OVC060 08/02 A2955 RMK CU5SC3 SLP008

CYGK;2013-11-18 20:00;CYGK 182000Z 23022G35KT 15SM SCT045 OVC062 08/02 A2955 RMK CU4SC4 OCNL -SHRA SLP009

CYGK;2013-11-18 21:00;CYGK 182100Z 24021G34KT 15SM FEW040 OVC060 07/01 A2958 RMK CU2SC6 SLP018

CYGK;2013-11-18 22:00;CYGK 182200Z 25020G28KT 15SM OVC050 07/M01 A2961 RMK SC8 PRESRR SLP029

CYGK;2013-11-18 22:03;CYGK 182203Z 26019G27KT 15SM -RA OVC045 07/M01 A2961 RMK SC8 PRESRR SLP030

CYGK;2013-11-18 22:26;CYGK 182226Z 27016G26KT 15SM -RASN OVC035 04/00 A2964 RMK SC8 SLP039

CYGK;2013-11-18 23:00;CYGK 182300Z 25016G28KT 15SM -RASN SCT035 OVC060 05/M00 A2964 RMK SC3SC5 SLP041

CYGK;2013-11-19 00:00;CYGK 190000Z 26018G28KT 15SM -RASN FEW035 OVC070 05/M00 A2966 RMK SC1AC7 SLP045

CYGK;2013-11-19 00:09;CYGK 190009Z 25021G32KT 15SM OVC070 05/M01 A2966 RMK AC8 SLP045

CYGK;2013-11-19 01:00;CYGK 190100Z 26015G30KT 15SM SCT040 BKN080 04/M03 A2969 RMK SC3AC4 SLP055

CYGK;2013-11-19 02:00;CYGK 190200Z 25016G31KT 15SM FEW035 SCT090 BKN250 04/M03 A2971 RMK SC2AC2CI2 SLP063

CYGK;2013-11-19 02:40;CYGK 190240Z 26011G24KT 15SM -SN FEW035 OVC070 03/M03 A2973 RMK SC1AC7 SLP068

CYGK;2013-11-19 03:00;CYGK 190300Z 26020G30KT 15SM FEW035 OVC050 03/M03 A2973 RMK SC2SC6 SLP070

CYGK;2013-11-19 03:11;CYGK 190311Z 26020G28KT 12SM -SN FEW035 OVC050 03/M02 A2974 RMK SC1SC7 SLP073

CYGK;2013-11-19 03:42;CYGK 190342Z 26015G26KT 15SM FEW035 SCT065 BKN180 01/M01 A2976 RMK SC1SC3AC3 SLP080

CYGK;2013-11-19 04:00;CYGK 190400Z 26014G24KT 15SM FEW035 SCT050 BKN190 01/M01 A2977 RMK SC2SC2AC3 LAST OBS/NEXT 191100 UTC SLP083

CYGK;2013-11-19 11:00;CYGK 191100Z 30009KT 15SM FEW040 SCT170 M01/M08 A3002 RMK SC2AC1 SLP171

CYGK;2013-11-19 12:00;CYGK 191200Z 30009KT 15SM FEW038 M02/M08 A3007 RMK SC1 SLP186

CYGK;2013-11-19 13:00;CYGK 191300Z 29006KT 15SM FEW038 M01/M08 A3010 RMK SC2 SLP196

CYGK;2013-11-19 14:00;CYGK 191400Z 30014KT 15SM BKN035 M01/M09 A3013 RMK SC7 SLP208

CYGK;2013-11-19 15:00;CYGK 191500Z 30011G18KT 15SM BKN033 M00/M07 A3016 RMK SC7 SLP216

CYGK;2013-11-19 16:00;CYGK 191600Z 32010G17KT 15SM BKN034 00/M07 A3018 RMK SC7 SLP222

CYGK;2013-11-19 17:00;CYGK 191700Z 30011G16KT 15SM BKN038 02/M07 A3018 RMK SC5 SLP225

CYGK;2013-11-19 18:00;CYGK 191800Z 34011KT 15SM SCT039 02/M08 A3020 RMK SC4 SLP231

CYGK;2013-11-19 19:00;CYGK 191900Z 30007KT 15SM SCT040 02/M08 A3022 RMK SC3 SLP237

CYGK;2013-11-19 20:00;CYGK 192000Z 31012KT 15SM FEW040 01/M09 A3024 RMK SC2 SLP245

CYGK;2013-11-19 21:00;CYGK 192100Z 33009KT 15SM FEW040 01/M09 A3027 RMK SC1 SLP254

CYGK;2013-11-19 22:00;CYGK 192200Z 31005KT 15SM FEW040 M01/M09 A3030 RMK SC1 SC TR SLP266

CYGK;2013-11-19 23:00;CYGK 192300Z 33004KT 15SM FEW040 M02/M09 A3035 RMK SC1 SC TR SLP281

CYGK;2013-11-20 00:00;CYGK 200000Z 35006KT 15SM FEW040 M03/M08 A3037 RMK SC1 SC TR SLP289

CYGK;2013-11-20 01:00;CYGK 200100Z 36006KT 15SM FEW040 M04/M10 A3039 RMK SC1 SC TR SLP295

CYGK;2013-11-20 02:00;CYGK 200200Z 01006KT 15SM SKC M05/M10 A3042 RMK SLP306

CYGK;2013-11-20 03:00;CYGK 200300Z 02006KT 15SM SKC M04/M10 A3044 RMK SLP313

CYGK;2013-11-20 04:00;CYGK 200400Z 33004KT 15SM SKC M05/M10 A3046 RMK LAST OBS/NEXT 201100UTC SLP320

CYGK;2013-11-20 11:00;CYGK 201100Z 01005KT 15SM SKC M07/M10 A3057 RMK SLP359

CYGK;2013-11-20 12:00;CYGK 201200Z 04004KT 15SM FEW020 FEW230 M07/M10 A3060 RMK CF1CI2 CF TR SLP367

CYGK;2013-11-20 13:00;CYGK 201300Z 04004KT 15SM FEW020 BKN230 M06/M09 A3062 RMK CF1CI5 CF TR SLP374

CYGK;2013-11-20 14:00;CYGK 201400Z 05006KT 15SM FEW020 BKN230 M04/M08 A3064 RMK SC1CI6 SLP380

CYGK;2013-11-20 15:00;CYGK 201500Z 06004KT 15SM FEW020 FEW150 BKN230 M03/M07 A3064 RMK SC1AC1CI6 SC TR AC TR SLP382

CYGK;2013-11-20 16:00;CYGK 201600Z 10003KT 020V100 15SM FEW020 BKN230 M01/M07 A3063 RMK SC1CI6 SC TR SLP378

CYGK;2013-11-20 17:00;CYGK 201700Z 13005KT 15SM FEW030 SCT240 M01/M07 A3061 RMK SC1CI4 SC TR SLP371

CYGK;2013-11-20 18:00;CYGK 201800Z 15005KT 15SM FEW030 BKN240 00/M07 A3061 RMK SC1CI5 SC TR SLP369

CYGK;2013-11-20 19:00;CYGK 201900Z 16004KT 15SM FEW030 BKN250 00/M08 A3060 RMK SC1CI6 SC TR SLP366

CYGK;2013-11-20 20:00;CYGK 202000Z 13002KT 15SM BKN250 01/M07 A3059 RMK CI6 SLP364

CYGK;2013-11-20 21:00;CYGK 202100Z 10005KT 15SM BKN240 M00/M09 A3058 RMK CS7 SLP361

CYGK;2013-11-20 22:00;CYGK 202200Z 05005KT 15SM BKN230 M01/M09 A3058 RMK CI6 SLP360

CYGK;2013-11-20 23:00;CYGK 202300Z 06007KT 15SM SCT230 M03/M09 A3058 RMK CI3 SLP361

CYGK;2013-11-21 00:00;CYGK 210000Z 05006KT 15SM SCT230 M02/M09 A3058 RMK CI4 SLP362

CYGK;2013-11-21 01:00;CYGK 210100Z 06007KT 15SM SCT220 M03/M08 A3058 RMK CI3 SLP360

CYGK;2013-11-21 02:00;CYGK 210200Z 06008KT 15SM BKN230 M03/M07 A3056 RMK CI5 SLP353

CYGK;2013-11-21 03:00;CYGK 210300Z 06009KT 15SM BKN230 M02/M06 A3055 RMK CI6 SLP349

CYGK;2013-11-21 04:00;CYGK 210400Z 07007KT 15SM BKN230 M02/M06 A3054 RMK CI5 LAST OBS/NEXT 211100UTC SLP348

CYGK;2013-11-21 11:00;CYGK 211100Z 17017G23KT 15SM FEW250 03/M05 A3048 RMK CI2 SLP326

CYGK;2013-11-21 12:00;CYGK 211200Z 18017G23KT 15SM BKN230 03/M05 A3048 RMK CI6 SLP325

CYGK;2013-11-21 13:00;CYGK 211300Z 18016G22KT 15SM SCT160 BKN200 04/M04 A3048 RMK AC3CI4 SLP326

CYGK;2013-11-21 14:00;CYGK 211400Z 18018G25KT 15SM BKN180 BKN220 04/M05 A3047 RMK AC5CI2 SLP322

CYGK;2013-11-21 15:00;CYGK 211500Z 18015G24KT 15SM BKN140 BKN200 04/M04 A3046 RMK AC5CI2 SLP320

CYGK;2013-11-21 16:00;CYGK 211600Z 18017G22KT 15SM BKN140 BKN200 04/M03 A3043 RMK AC6CI1 SLP309

CYGK;2013-11-21 17:00;CYGK 211700Z 19016KT 15SM BKN110 BKN200 05/M03 A3042 RMK AC6CI1 SLP305

CYGK;2013-11-21 18:00;CYGK 211800Z 19013G18KT 15SM FEW110 BKN140 BKN200 06/M02 A3039 RMK AC2AC4CI1 SLP296

CYGK;2013-11-21 19:00;CYGK 211900Z 19013G18KT 15SM SCT075 BKN130 BKN200 06/M00 A3038 RMK AC4AC2CI1 SLP293

CYGK;2013-11-21 20:00;CYGK 212000Z 21012KT 15SM BKN072 OVC140 07/M01 A3038 RMK AC6AC2 SLP292

CYGK;2013-11-21 21:00;CYGK 212100Z 20011KT 15SM BKN070 OVC130 07/M00 A3038 RMK AC6AC2 SLP291

CYGK;2013-11-21 22:00;CYGK 212200Z 20010KT 15SM BKN064 OVC110 07/M00 A3037 RMK SC7AC1 SLP288

CYGK;2013-11-21 23:00;CYGK 212300Z 20010G16KT 15SM BKN060 OVC110 07/M00 A3036 RMK SC7AC1 SLP285

CYGK;2013-11-22 00:00;CYGK 220000Z 20010KT 15SM BKN054 OVC072 07/01 A3036 RMK SC6AC2 SLP285

CYGK;2013-11-22 01:00;CYGK 220100Z 19011KT 15SM FEW055 OVC110 07/01 A3035 RMK SC2AC6 SLP281

CYGK;2013-11-22 02:00;CYGK 220200Z 17011KT 15SM FEW070 OVC110 07/02 A3032 RMK AC2AC6 SLP271

CYGK;2013-11-22 03:00;CYGK 220300Z 18014KT 15SM BKN045 OVC110 07/02 A3031 RMK SC5AC3 SLP266

CYGK;2013-11-22 04:00;CYGK 220400Z 19014KT 15SM BKN044 OVC065 07/02 A3030 RMK SC6SC2 LAST OBS/NEXT 221100UTC SLP264

CYGK;2013-11-22 11:00;CYGK 221100Z 24004KT 10SM -RA FEW005 OVC018 06/05 A3014 RMK SF2NS6 SLP210

CYGK;2013-11-22 12:00;CYGK 221200Z 00000KT 6SM BR FEW005 BKN011 OVC018 06/05 A3013 RMK SF1SC5SC2 SLP207

CYGK;2013-11-22 12:33;CYGK 221233Z 36002KT 2 1/4SM BR SCT006 OVC014 05/05 A3012 RMK SF3SC5 SLP204

CYGK;2013-11-22 13:00;CYGK 221300Z 03002KT 2 1/4SM BR FEW005 OVC011 06/05 A3012 RMK SF2SC6 VIS SE-SW 8 SLP201

CYGK;2013-11-22 13:28;CYGK 221328Z 00000KT 2 1/2SM -RA BR FEW005 OVC012 06/05 A3011 RMK SF2NS6 VIS SE - SW 6 SLP199

CYGK;2013-11-22 14:00;CYGK 221400Z 23005KT 5SM -RA BR FEW005 OVC012 07/06 A3010 RMK SF2SC6 SLP197

CYGK;2013-11-22 15:00;CYGK 221500Z 23005KT 6SM -RA BR FEW003 BKN008 OVC012 07/06 A3008 RMK SF1SF4SC3 SLP188

CYGK;2013-11-22 15:39;CYGK 221539Z 24004KT 2 1/2SM -RA BR SCT003 OVC008 07/06 A3007 RMK SF4NS4 VIS S 4 SLP185

CYGK;2013-11-22 16:00;CYGK 221600Z 24004KT 2 1/2SM -RA BR SCT003 OVC007 07/07 A3007 RMK SF4NS4 VIS S 5 SLP183

CYGK;2013-11-22 16:50;CYGK 221650Z 24006KT 1 1/2SM -RA BR SCT002 OVC006 07/07 A3004 RMK SF3NS5 SLP173

CYGK;2013-11-22 17:00;CYGK 221700Z 24006KT 1 1/2SM -DZ BR OVC002 07/07 A3003 RMK NS8 SLP171

CYGK;2013-11-22 17:12;CYGK 221712Z 24006KT 1SM -DZ BR OVC003 07/07 A3002 RMK ST8 SLP169

CYGK;2013-11-22 17:40;CYGK 221740Z 24006KT 2 1/4SM -DZ BR OVC003 07/07 A3002 RMK SF8 SLP169

CYGK;2013-11-22 18:00;CYGK 221800Z 23006KT 2 1/2SM BR OVC004 07/07 A3001 RMK SF8 SLP164

CYGK;2013-11-22 18:14;CYGK 221814Z 23007KT 3SM BR OVC003 07/07 A3001 RMK SF8 CIG VRB 2-4 SLP163

CYGK;2013-11-22 19:00;CYGK 221900Z 23007KT 2 1/2SM BR OVC003 07/07 A2998 RMK SF8 CIG VRB 2-4 SLP154

CYGK;2013-11-22 19:30;CYGK 221930Z 23009KT 5SM BR BKN003 OVC008 07/07 A2997 RMK SF6NS2 SLP151

CYGK;2013-11-22 20:00;CYGK 222000Z 24009KT 4SM BR SCT003 OVC008 07/07 A2996 RMK SF4NS4 VIS S 6 SLP149

CYGK;2013-11-22 20:52;CYGK 222052Z 27006KT 5SM -RA BR SCT003 OVC008 07/06 A2994 RMK SF4NS4 SLP141

CYGK;2013-11-22 21:00;CYGK 222100Z 26006KT 5SM -RA BR SCT003 OVC008 07/06 A2994 RMK SF4NS4 SLP142

CYGK;2013-11-22 21:34;CYGK 222134Z 25006KT 5SM -RA BR BKN004 OVC010 07/06 A2993 RMK SF5NS3 CIG VRB 3-5 SLP139

CYGK;2013-11-22 22:00;CYGK 222200Z 26008KT 5SM -RA BR BKN004 OVC012 07/06 A2993 RMK SF5NS3 CIG VRB 3-5 SLP139

CYGK;2013-11-22 22:36;CYGK 222236Z 26008KT 6SM -RA BR SCT004 BKN011 OVC045 07/06 A2993 RMK ST4SC2SC2 SLP137

CYGK;2013-11-22 23:00;CYGK 222300Z 26008KT 6SM -RA BR FEW005 SCT012 BKN031 OVC050 07/06 A2993 RMK SF2SC2SC2SC2 SLP136

CYGK;2013-11-22 23:36;CYGK 222336Z 27010KT 6SM -RA BR BKN007 OVC030 07/06 A2993 RMK SF5SC3 SLP138

CYGK;2013-11-23 00:00;CYGK 230000Z 27009KT 8SM -RA SCT007 BKN023 OVC060 06/05 A2993 RMK SF4SC2SC2 SLP136

CYGK;2013-11-23 01:00;CYGK 230100Z 28012G18KT 10SM -RA FEW008 SCT013 BKN025 06/04 A2994 RMK SF2SC2SC3 SLP142

CYGK;2013-11-23 01:24;CYGK 230124Z 28014G23KT 12SM FEW008 SCT015 BKN033 05/03 A2996 RMK SF2SC1SC4 SLP147

CYGK;2013-11-23 02:00;CYGK 230200Z 29015G21KT 15SM SCT017 04/01 A2997 RMK SC3 SLP152

CYGK;2013-11-23 03:00;CYGK 230300Z 30013G22KT 15SM SCT015 BKN030 03/M00 A3001 RMK SC4SC2 SLP165

CYGK;2013-11-23 04:00;CYGK 230400Z 31011G18KT 15SM BKN020 M00/M03 A3006 RMK SC5 LAST OBS/NEXT 231100 UTC SLP182

CYGK;2013-11-23 11:00;CYGK 231100Z 26006KT 15SM FEW025 BKN150 M04/M06 A3012 RMK SC1AC4 SLP203

CYGK;2013-11-23 12:00;CYGK 231200Z 27006KT 15SM FEW015 FEW030 BKN130 M04/M06 A3011 RMK SC1SC1AC6 SC TR SLP201

CYGK;2013-11-23 13:00;CYGK 231300Z 26003KT 15SM FEW020 FEW030 BKN120 M04/M06 A3010 RMK SC1SC1AC6 SC TR SLP196

CYGK;2013-11-23 14:00;CYGK 231400Z 26006KT 15SM FEW015 BKN045 BKN120 OVC250 M02/M05 A3006 RMK CF1SC6AC1CI1 CF TR SLP184

CYGK;2013-11-23 14:33;CYGK 231433Z 26004KT 15SM -SHSN FEW018 BKN050 BKN110 M01/M04 A3005 RMK CF1SC6AC1 AC TR SLP180

CYGK;2013-11-23 15:00;CYGK 231500Z 26003KT 15SM -SHSN FEW016 BKN040 OVC110 M01/M05 A3002 RMK CF1SC6AC1 PRESFR SLP170

CYGK;2013-11-23 15:32;CYGK 231532Z 24005KT 4SM -SHSN BKN011 OVC040 M01/M05 A2999 RMK CU7SC1 VIS SW 2 VIS E 10 PRESFR SLP160

CYGK;2013-11-23 15:38;CYGK 231538Z 24008KT 3/4SM -SHSN OVC011 M01/M04 A2999 RMK CU8 SLP160

CYGK;2013-11-23 15:47;CYGK 231547Z 24013G21KT 1/4SM +SHSN OVC006TCU M01/M02 A2998 RMK TCU8 SLP158

CYGK;2013-11-23 15:56;CYGK 231556Z 24013KT 3/4SM -SHSN BKN006TCU OVC025 M01/M02 A2998 RMK TCU6SC2 PRESFR SLP155

CYGK;2013-11-23 16:00;CYGK 231600Z 25010G16KT 3SM -SHSN BKN006 OVC040 M01/M02 A2997 RMK CU5SC3 PRESFR SLP152

CYGK;2013-11-23 16:30;CYGK 231630Z 25010KT 12SM VCSH FEW012 SCT020 BKN050 BKN090 M00/M02 A2995 RMK CU2SC2SC1AC2 SLP145

CYGK;2013-11-23 17:00;CYGK 231700Z 25014G25KT 15SM VCSH FEW012 BKN042 BKN120 OVC250 01/M03 A2992 RMK CU2SC3AC2CI1 SH ALQDS SLP137

CYGK;2013-11-23 17:14;CYGK 231714Z 26013G23KT 12SM -SHSN BKN012TCU OVC030 01/M03 A2991 RMK TCU5SC3 VIS W 2 PRESFR SLP132

CYGK;2013-11-23 17:26;CYGK 231726Z 27013G30KT 15SM SCT012TCU BKN040 BKN120 BKN250 M00/M04 A2991 RMK TCU3SC2AC1CI1 SLP133

CYGK;2013-11-23 18:00;CYGK 231800Z 29016G24KT 15SM VCSH FEW015 SCT040 BKN110 BKN250 01/M06 A2989 RMK CU1SC2AC2CI2 SLP127

CYGK;2013-11-23 19:00;CYGK 231900Z 29021G29KT 15SM VCSH SCT041 SCT110 BKN250 01/M08 A2989 RMK SC3AC1CI2 SLP127

CYGK;2013-11-23 20:00;CYGK 232000Z 28019G27KT 15SM FEW045 SCT100 M00/M12 A2990 RMK SC2AC1 SLP131

CYGK;2013-11-23 21:00;CYGK 232100Z 27013G25KT 15SM SCT050 M02/M12 A2993 RMK SC3 SLP138

CYGK;2013-11-23 22:00;CYGK 232200Z 29014G23KT 15SM FEW050 M03/M12 A2996 RMK SC2 SLP149

CYGK;2013-11-23 23:00;CYGK 232300Z 29011G21KT 15SM FEW050 M04/M12 A2998 RMK SC1 SLP156

CYGK;2013-11-24 00:00;CYGK 240000Z 30011G20KT 15SM SCT043 M05/M12 A3000 RMK SC3 SLP163

CYGK;2013-11-24 01:00;CYGK 240100Z 32018G29KT 15SM FEW023 SCT060 M07/M14 A3002 RMK SC2SC2 SLP169

CYGK;2013-11-24 01:24;CYGK 240124Z 31019G26KT 15SM -SN BKN037 M07/M12 A3002 RMK SC6 SLP173

CYGK;2013-11-24 02:00;CYGK 240200Z 30015G20KT 15SM -SN SCT032 BKN058 M08/M13 A3004 RMK SC4SC2 SLP178

CYGK;2013-11-24 02:21;CYGK 240221Z 31014G22KT 15SM FEW022 SCT065 M08/M13 A3005 RMK SC2SC2 SLP181

CYGK;2013-11-24 03:00;CYGK 240300Z 31016G24KT 15SM FEW026 FEW084 M09/M14 A3006 RMK SC1AC1 SLP186

CYGK;2013-11-24 04:00;CYGK 240400Z 32015G25KT 15SM FEW024 FEW070 M10/M15 A3009 RMK SC1AC1 SC TR LAST OBS/NEXT 241100 UTC SLP194

CYGK;2013-11-24 11:00;CYGK 241100Z 32017KT 15SM FEW028 BKN110 M11/M16 A3021 RMK SC1AC5 SLP237

CYGK;2013-11-24 12:00;CYGK 241200Z 31013G19KT 15SM FEW028 BKN140 BKN250 M11/M16 A3023 RMK SC1AC4CI2 SLP244

CYGK;2013-11-24 13:00;CYGK 241300Z 31011G19KT 15SM FEW025 BKN140 BKN250 M11/M16 A3026 RMK SC1AC4CI1 SLP254

CYGK;2013-11-24 14:00;CYGK 241400Z 31014G23KT 15SM FEW025 FEW140 FEW250 M10/M16 A3028 RMK CF1AC1CI1 CF TR SLP261

CYGK;2013-11-24 15:00;CYGK 241500Z 31015G22KT 15SM FEW025 FEW140 M08/M15 A3030 RMK CF1AC1 CF TR SLP267

CYGK;2013-11-24 16:00;CYGK 241600Z 31014G21KT 15SM FEW030 FEW140 M07/M14 A3030 RMK CF1AC1 CF TR AC TR SLP268

CYGK;2013-11-24 17:00;CYGK 241700Z 33014G21KT 15SM FEW030 FEW140 M06/M15 A3029 RMK CU1AC1 AC TR SLP264

CYGK;2013-11-24 18:00;CYGK 241800Z 32015G25KT 15SM FEW040 M05/M17 A3029 RMK CU1 SLP263

CYGK;2013-11-24 19:00;CYGK 241900Z 30012G22KT 15SM FEW051 M05/M16 A3029 RMK CU2 SLP264

CYGK;2013-11-24 20:00;CYGK 242000Z 31018KT 15SM FEW050 M05/M17 A3029 RMK SC2 SLP262

CYGK;2013-11-24 21:00;CYGK 242100Z 32011G17KT 15SM FEW060 M06/M18 A3031 RMK SC2 SLP270

CYGK;2013-11-24 22:00;CYGK 242200Z 30008KT 15SM FEW060 FEW240 M07/M18 A3033 RMK SC2CI1 CI TR SLP276

CYGK;2013-11-24 23:00;CYGK 242300Z 31008KT 15SM FEW060 M08/M18 A3035 RMK SC1 SLP283

CYGK;2013-11-25 00:00;CYGK 250000Z 30010KT 15SM SKC M08/M18 A3036 RMK SLP288

CYGK;2013-11-25 01:00;CYGK 250100Z 30010G16KT 15SM SKC M09/M18 A3038 RMK SLP295

CYGK;2013-11-25 02:00;CYGK 250200Z 30007KT 15SM SKC M10/M18 A3038 RMK SLP294

CYGK;2013-11-25 03:00;CYGK 250300Z 30005KT 15SM SKC M11/M18 A3038 RMK SLP294

CYGK;2013-11-25 04:00;CYGK 250400Z 32006KT 15SM SKC M11/M18 A3039 RMK LAST OBS/NEXT 251100 UTC SLP296

CYGK;2013-11-25 11:00;CYGK 251100Z 07005KT 15SM OVC150 M11/M16 A3036 RMK AC8 SLP287

CYGK;2013-11-25 12:00;CYGK 251200Z 06004KT 15SM FEW020 SCT100 BKN140 M10/M16 A3035 RMK SC1AC2AC4 SLP283

CYGK;2013-11-25 13:00;CYGK 251300Z 09004KT 15SM FEW012 SCT022 BKN060 BKN140 M07/M10 A3033 RMK SF1CF4SC1AC2 SF TR SLP275

CYGK;2013-11-25 14:00;CYGK 251400Z 09009KT 15SM FEW009 BKN017 BKN140 M06/M08 A3030 RMK SF2SC4AC1 SHWRS S SLP268

CYGK;2013-11-25 14:11;CYGK 251411Z 10007KT 15SM -SHSN SCT008 BKN017 BKN140 M05/M07 A3030 RMK SF4CU2AC1 VIS LWR S SLP266

CYGK;2013-11-25 14:18;CYGK 251418Z 07008KT 12SM -SHSN BKN007 OVC017 M05/M07 A3030 RMK SF5CU3 SLP265

CYGK;2013-11-25 14:33;CYGK 251433Z 02002KT 15SM -SHSN SCT007 BKN015 M05/M07 A3030 RMK SF4CU3 SLP265

CYGK;2013-11-25 14:47;CYGK 251447Z 05004KT 15SM FEW007 BKN017 M04/M06 A3028 RMK SF2CU5 SH DIST NW-E SLP261

CYGK;2013-11-25 14:54;CYGK 251454Z VRB13KT 15SM FEW007 BKN017 M02/M05 A3028 RMK SF1CU6 SLP260

CYGK;2013-11-25 15:00;CYGK 251500Z 23016KT 090V240 15SM FEW007 BKN017 BKN035 M01/M05 A3028 RMK SF1CU5SC1 SLP259

CYGK;2013-11-25 16:00;CYGK 251600Z 22018G25KT 15SM BKN025 BKN170 00/M06 A3024 RMK CU6AC1 SLP247

CYGK;2013-11-25 17:00;CYGK 251700Z 22020G27KT 15SM BKN027 BKN170 M00/M06 A3022 RMK CU6AC1 SLP240

CYGK;2013-11-25 18:00;CYGK 251800Z 22021G26KT 15SM BKN025 M00/M05 A3018 RMK CU7 SLP226

CYGK;2013-11-25 19:00;CYGK 251900Z 21017G27KT 15SM BKN025 BKN270 01/M05 A3015 RMK SC6CI1 SLP214

CYGK;2013-11-25 20:00;CYGK 252000Z 21022G29KT 15SM BKN030 BKN150 01/M06 A3013 RMK CU5AC2 SLP209

CYGK;2013-11-25 21:00;CYGK 252100Z 21020G28KT 15SM FEW035 BKN080 OVC150 01/M09 A3011 RMK CU1AC7AC1 CU TR SLP203

CYGK;2013-11-25 22:00;CYGK 252200Z 22021G28KT 15SM FEW035 OVC070 02/M09 A3012 RMK CF1AC8 CF TR SLP204

CYGK;2013-11-25 23:00;CYGK 252300Z 22018G24KT 15SM FEW050 OVC080 02/M10 A3010 RMK SC1AC7 SLP198

CYGK;2013-11-26 00:00;CYGK 260000Z 22014G26KT 15SM OVC080 03/M09 A3008 RMK AC8 SLP190

CYGK;2013-11-26 01:00;CYGK 260100Z 23016G26KT 15SM OVC090 03/M09 A3007 RMK AC8 SLP188

CYGK;2013-11-26 01:26;CYGK 260126Z 22017G29KT 15SM -SN OVC060 03/M09 A3007 RMK SC8 SLP189

CYGK;2013-11-26 02:00;CYGK 260200Z 23022G35KT 12SM -SN OVC050 02/M07 A3008 RMK SC8 SLP191

CYGK;2013-11-26 03:00;CYGK 260300Z 23020G29KT 15SM -SN OVC040 02/M07 A3008 RMK SC8 SLP189

CYGK;2013-11-26 04:00;CYGK 260400Z 23019G29KT 15SM -SN BKN040 OVC085 02/M05 A3007 RMK SC6AC2 LAST OBS/NEXT 261100 UTC SLP188

CYGK;2013-11-26 11:00;CYGK 261100Z 27007KT 15SM -SHSN FEW012 OVC020 01/M02 A3010 RMK SF2CU6 SLP195

CYGK;2013-11-26 12:00;CYGK 261200Z 25004KT 15SM -SHSN FEW014 OVC020 01/M02 A3012 RMK SF1CU7 SLP204

CYGK;2013-11-26 12:44;CYGK 261244Z 24005KT 15SM FEW014 SCT020 OVC040 01/M02 A3014 RMK SF1CU4SC4 SF TR SLP209

CYGK;2013-11-26 13:00;CYGK 261300Z 25010KT 15SM SCT020 OVC036 02/M03 A3014 RMK CU3SC5 SLP209

CYGK;2013-11-26 14:00;CYGK 261400Z 23006KT 8SM SCT015 OVC035 01/M01 A3015 RMK CU3SC5 SLP212

CYGK;2013-11-26 14:28;CYGK 261428Z 22009KT 6SM -SHSN FEW015 BKN025 OVC035 01/M01 A3015 RMK SF1CU4SC3 SLP214

CYGK;2013-11-26 15:00;CYGK 261500Z 24006KT 6SM -SHSN FEW005 OVC015 01/M00 A3014 RMK CF2SC6 VIS N 3 SLP211

CYGK;2013-11-26 15:16;CYGK 261516Z 24009KT 10SM -DZ SCT006 BKN015 OVC020 01/M00 A3013 RMK CF3SC3SC2 PCPN VRY LGT SLP207

CYGK;2013-11-26 16:00;CYGK 261600Z 24010KT 12SM -DZ FEW006 SCT015 OVC020 02/M00 A3013 RMK CF2SC2SC4 PCPN VRY LGT SLP208

CYGK;2013-11-26 17:00;CYGK 261700Z 24009KT 15SM FEW006 BKN020 OVC040 03/M00 A3012 RMK SF1SC5SC2 SLP205

CYGK;2013-11-26 18:00;CYGK 261800Z 22013KT 15SM OVC025 03/M01 A3012 RMK SC8 SLP202

CYGK;2013-11-26 19:00;CYGK 261900Z 20012KT 15SM OVC022 03/M00 A3008 RMK SC8 SLP191

CYGK;2013-11-26 20:00;CYGK 262000Z 19013G18KT 15SM SCT020 OVC026 04/00 A3008 RMK CU3SC5 SLP190

CYGK;2013-11-26 20:08;CYGK 262008Z 17018KT 12SM -RA OVC016 03/01 A3008 RMK SC8 SLP189

CYGK;2013-11-26 21:00;CYGK 262100Z 17016G22KT 12SM -RA SCT010 OVC020 03/00 A3006 RMK CU3SC5 SLP182

CYGK;2013-11-26 21:51;CYGK 262151Z 15017G23KT 10SM -SN OVC006 02/01 A3006 RMK SF8 SLP182

CYGK;2013-11-26 22:00;CYGK 262200Z 14016G24KT 10SM -RASN OVC007 02/01 A3005 RMK SF8 SLP180

CYGK;2013-11-26 23:00;CYGK 262300Z 15015G21KT 8SM -RASN OVC006 02/01 A3004 RMK NS8 CIG RAG SLP176

CYGK;2013-11-27 00:00;CYGK 270000Z 15012KT 8SM -RASN BKN006 OVC015 02/01 A3001 RMK SF6SC2 SLP165

CYGK;2013-11-27 01:00;CYGK 270100Z 15012G17KT 8SM -RASN OVC006 02/01 A2999 RMK NS8 CIG RAG SLP160

CYGK;2013-11-27 01:41;CYGK 270141Z 11007G17KT 4SM -SN BKN003 OVC007 01/00 A2995 RMK SF5NS3 SLP147

CYGK;2013-11-27 02:00;CYGK 270200Z 10007KT 3SM -SN OVC003 00/M00 A2994 RMK NS8 SLP143

CYGK;2013-11-27 03:00;CYGK 270300Z 08004KT 2 1/2SM -SN OVC003 00/M00 A2991 RMK NS8 CIG RAG SLP132

CYGK;2013-11-27 04:00;CYGK 270400Z 06004KT 1SM -SN VV003 00/M00 A2988 RMK SN8 LAST OBS/NEXT 271100 UTC SLP122

CYGK;2013-11-27 11:00;CYGK 271100Z 33009KT 2 1/2SM -SN BKN005 OVC020 00/M01 A2962 RMK SN2SF3NS3 /S15 AFT 00UTC/ SLP032

CYGK;2013-11-27 11:06;CYGK 271106Z 34010KT 4SM -SN SCT005 BKN020 OVC057 00/M01 A2961 RMK SF3SC3NS2 SLP031

CYGK;2013-11-27 12:00;CYGK 271200Z 33007KT 1 1/2SM -SN SCT005 OVC025 00/M01 A2961 RMK SN2SF2NS4 SLP031

CYGK;2013-11-27 12:46;CYGK 271246Z 31008KT 2 1/2SM -SN SCT005 OVC035 M00/M01 A2962 RMK SF4NS4 PRESRR SLP033

CYGK;2013-11-27 13:00;CYGK 271300Z 31007KT 3SM -SN BKN005 OVC028 M00/M01 A2961 RMK SF5NS3 SLP031

CYGK;2013-11-27 13:31;CYGK 271331Z 32008KT 6SM -SHSN SCT006 OVC040 M00/M01 A2962 RMK SF3NS5 PCPN VRY LGT SLP032

CYGK;2013-11-27 14:00;CYGK 271400Z 31011KT 6SM BR SCT008 OVC035 00/M01 A2961 RMK SF3NS5 SLP031

CYGK;2013-11-27 14:22;CYGK 271422Z 31010G16KT 4SM -SN SCT009 BKN035 BKN060 00/M01 A2960 RMK SF3SC3NS1 SLP028

CYGK;2013-11-27 14:46;CYGK 271446Z 31011KT 10SM SCT009 OVC035 00/M01 A2961 RMK SF4SC4 SLP029

CYGK;2013-11-27 15:00;CYGK 271500Z 32013KT 12SM SCT009 OVC035 00/M01 A2960 RMK SF3SC5 SLP028

CYGK;2013-11-27 16:00;CYGK 271600Z 30008KT 12SM FEW009 OVC040 01/M01 A2960 RMK SF1SC7 SLP027

CYGK;2013-11-27 17:00;CYGK 271700Z 31008KT 12SM FEW010 BKN050 OVC100 01/M01 A2958 RMK SF1SC6AC1 SLP019

CYGK;2013-11-27 18:00;CYGK 271800Z 30008KT 15SM SCT012 OVC060 01/M01 A2957 RMK SF3SC5 SLP018

CYGK;2013-11-27 19:00;CYGK 271900Z 32009KT 15SM FEW012 BKN020 OVC060 02/M01 A2956 RMK SF2SC4SC2 PRESFR SLP014

CYGK;2013-11-27 20:00;CYGK 272000Z 30007KT 15SM FEW012 OVC035 01/M01 A2957 RMK SF1SC7 PRESFR SLP017

CYGK;2013-11-27 21:00;CYGK 272100Z 30009KT 15SM FEW010 OVC025 01/M01 A2958 RMK SF2SC6 SLP019

CYGK;2013-11-27 22:00;CYGK 272200Z 32012G18KT 15SM SCT010 OVC027 01/M03 A2961 RMK CU3SC5 SLP031

CYGK;2013-11-27 23:00;CYGK 272300Z 30012KT 15SM BKN017 OVC080 M00/M03 A2964 RMK NS6AC2 SLP039

CYGK;2013-11-28 00:00;CYGK 280000Z 31012G22KT 15SM OVC017 M03/M06 A2966 RMK SC8 SLP048

CYGK;2013-11-28 01:00;CYGK 280100Z 31014G20KT 15SM BKN022 OVC085 M04/M08 A2969 RMK SC6AC2 SLP057

CYGK;2013-11-28 02:00;CYGK 280200Z 31011G20KT 15SM BKN025 OVC085 M05/M09 A2971 RMK SC6AC2 SLP065

CYGK;2013-11-28 03:00;CYGK 280300Z 31008G15KT 15SM BKN025 OVC090 M06/M09 A2973 RMK SC5AC3 SLP074

CYGK;2013-11-28 04:00;CYGK 280400Z 30012G17KT 12SM -SN BKN020 OVC045 M06/M09 A2976 RMK SC5SC3 LAST OBS/NEXT 281100 UTC SLP082

CYGK;2013-11-28 11:00;CYGK 281100Z 27011KT 15SM SKC M10/M14 A3010 RMK PRESRR SLP197

CYGK;2013-11-28 12:00;CYGK 281200Z 27010G16KT 15SM FEW015 M10/M14 A3014 RMK SC1 SLP212

CYGK;2013-11-28 13:00;CYGK 281300Z 28011KT 15SM FEW020 FEW140 M09/M14 A3018 RMK CU1AC1 AC TR SLP226

CYGK;2013-11-28 14:00;CYGK 281400Z 28012G18KT 15SM FEW020 FEW220 M08/M13 A3021 RMK CU1CI1 CU TR CI TR SLP237

CYGK;2013-11-28 15:00;CYGK 281500Z 28012KT 15SM FEW020 FEW220 M07/M13 A3024 RMK CU1CI1 CU TR CI TR SLP246

CYGK;2013-11-28 16:00;CYGK 281600Z 27006KT 15SM FEW020 FEW220 M06/M13 A3026 RMK CU1CI1 CU TR CI TR SLP252

CYGK;2013-11-28 17:00;CYGK 281700Z 26006KT 15SM FEW025 FEW250 M05/M13 A3025 RMK CU1CI1 CU TR SLP251

CYGK;2013-11-28 18:00;CYGK 281800Z 26011KT 15SM FEW025 FEW250 M05/M13 A3026 RMK CU1CI1 CU TR SLP253

CYGK;2013-11-28 19:00;CYGK 281900Z 25011KT 15SM FEW025 FEW250 M05/M14 A3026 RMK CU1CI1 CU TR SLP253

CYGK;2013-11-28 20:00;CYGK 282000Z 26011KT 15SM FEW025 FEW140 SCT250 M05/M15 A3028 RMK CU1AC1CI2 SLP261

CYGK;2013-11-28 21:00;CYGK 282100Z 26011G16KT 15SM FEW025 SCT150 BKN250 M06/M15 A3031 RMK CU1AC4CI2 CU TR SLP269

CYGK;2013-11-28 22:00;CYGK 282200Z 27008KT 15SM FEW025 FEW100 BKN140 BKN250 M06/M15 A3033 RMK CU1AC1AC4CI1 CU TR DIST S SLP277

CYGK;2013-11-28 23:00;CYGK 282300Z 28006KT 15SM BKN140 BKN250 M07/M14 A3036 RMK AC6CI1 SLP286

CYGK;2013-11-29 00:00;CYGK 290000Z 28005KT 15SM FEW100 BKN140 M07/M14 A3038 RMK AC1AC6 SLP295

CYGK;2013-11-29 01:00;CYGK 290100Z 30007KT 15SM OVC140 M07/M13 A3039 RMK AC8 SLP299

CYGK;2013-11-29 02:00;CYGK 290200Z 30005KT 15SM SCT080 BKN140 M07/M13 A3041 RMK AC3AC3 SLP305

CYGK;2013-11-29 03:00;CYGK 290300Z 36006KT 15SM FEW080 SCT140 M09/M13 A3042 RMK AC2AC2 SLP307

CYGK;2013-11-29 04:00;CYGK 290400Z 35005KT 15SM FEW080 SCT140 M10/M13 A3043 RMK AC2AC2 LAST OBS/NEXT 291100 UTC SLP311

CYGK;2013-11-29 11:00;CYGK 291100Z 35007KT 15SM SKC M15/M17 A3055 RMK SLP353

CYGK;2013-11-29 12:00;CYGK 291200Z 35007KT 15SM FEW010 FEW030 FEW200 M15/M17 A3057 RMK CF1SC1CI1 CF TR SC TR CI TR SLP360

CYGK;2013-11-29 13:00;CYGK 291300Z 34007KT 15SM VCFG FEW010 FEW100 M15/M17 A3060 RMK CF1AC1 AC TR FG BNK OVR WATER VIS S 1/2 SLP370

CYGK;2013-11-29 14:00;CYGK 291400Z 35007KT 15SM FEW015 M13/M15 A3063 RMK SC1 SC TR SLP379

CYGK;2013-11-29 15:00;CYGK 291500Z 35006KT 15SM FEW015 FEW100 M10/M14 A3065 RMK CF1AC1 CF TR AC TR SLP386

CYGK;2013-11-29 16:00;CYGK 291600Z 35006KT 15SM FEW020 M09/M14 A3066 RMK CF1 CF TR SLP390

CYGK;2013-11-29 17:00;CYGK 291700Z 34004KT 15SM FEW020 M07/M14 A3066 RMK SC1 SLP388

CYGK;2013-11-29 18:00;CYGK 291800Z 35009KT 15SM FEW020 M07/M15 A3066 RMK SC1 SLP390

CYGK;2013-11-29 19:00;CYGK 291900Z 34005KT 15SM FEW020 M07/M14 A3067 RMK CU1 SLP392

CYGK;2013-11-29 20:00;CYGK 292000Z VRB02KT 15SM FEW025 M07/M15 A3068 RMK CU1 SLP396

CYGK;2013-11-29 21:00;CYGK 292100Z 30004KT 15SM FEW025 M07/M15 A3070 RMK SC1 SLP403

CYGK;2013-11-29 22:00;CYGK 292200Z 29003KT 15SM FEW025 FEW250 M07/M14 A3072 RMK SC1CI1 SC TR CI TR SLP410

CYGK;2013-11-29 23:00;CYGK 292300Z 31002KT 15SM SKC M09/M15 A3073 RMK SLP414

CYGK;2013-11-30 00:00;CYGK 300000Z 28003KT 15SM SKC M11/M15 A3074 RMK SLP418

CYGK;2013-11-30 01:00;CYGK 300100Z 33003KT 15SM SKC M11/M13 A3075 RMK SLP421

CYGK;2013-11-30 02:00;CYGK 300200Z 35005KT 15SM SKC M13/M15 A3075 RMK SLP421

CYGK;2013-11-30 03:00;CYGK 300300Z 34005KT 15SM SKC M14/M15 A3075 RMK SLP421

CYGK;2013-11-30 04:00;CYGK 300400Z 02003KT 15SM SKC M14/M16 A3076 RMK LAST OBS/NEXT 301100 UTC SLP423

CYGK;2013-11-30 11:00;CYGK 301100Z 07007KT 15SM SCT025 BKN170 M11/M14 A3070 RMK SC3AC3 SLP405

CYGK;2013-11-30 12:00;CYGK 301200Z 11010KT 15SM SCT022 SCT140 BKN180 BKN220 M07/M13 A3069 RMK SC3AC1AC2CI1 SLP398

CYGK;2013-11-30 13:00;CYGK 301300Z 12012KT 15SM FEW022 SCT140 BKN180 BKN230 M06/M11 A3068 RMK SC1AC2AC2CI2 SLP395

CYGK;2013-11-30 14:00;CYGK 301400Z 12012KT 15SM FEW022 SCT085 BKN140 BKN230 M05/M11 A3064 RMK SC1AC3AC3CI1 SC TR SLP384

CYGK;2013-11-30 15:00;CYGK 301500Z 12010KT 15SM FEW022 BKN110 BKN160 OVC230 M05/M10 A3064 RMK SC1AS5AC1CI1 SLP381

CYGK;2013-11-30 16:00;CYGK 301600Z 13010KT 15SM FEW022 BKN110 OVC220 M04/M09 A3058 RMK SC1AS6CI2 SC TR PRESFR SLP363

CYGK;2013-11-30 17:00;CYGK 301700Z 15018G26KT 15SM FEW030 FEW080 BKN110 OVC220 M03/M08 A3052 RMK SC1AC1AS5CI1 PRESFR SLP340

CYGK;2013-11-30 18:00;CYGK 301800Z 16018KT 15SM SCT072 BKN110 OVC220 M02/M08 A3046 RMK AC4AS3CI1 PRESFR SLP321

CYGK;2013-11-30 19:00;CYGK 301900Z 16019G25KT 15SM FEW030 OVC075 M01/M08 A3042 RMK SC1AC8 SC TR SLP306

CYGK;2013-11-30 20:00;CYGK 302000Z 18019G27KT 15SM FEW030 OVC083 M01/M07 A3039 RMK SC1AC8 SC TR SLP299

CYGK;2013-11-30 21:00;CYGK 302100Z 17025KT 15SM DRSN FEW030 SCT080 OVC100 M01/M07 A3033 RMK SC1AC4AS4 SC TR PRESFR SLP275

CYGK;2013-11-30 22:00;CYGK 302200Z 17020KT 15SM FEW030 SCT110 BKN140 00/M06 A3033 RMK SC1AC3AC4 SC TR VIRGA SLP276

CYGK;2013-11-30 23:00;CYGK 302300Z 17023G29KT 15SM FEW030 BKN120 BKN210 01/M06 A3030 RMK SC1AC5CI2 SC TR SLP266

CYGK;2013-12-01 00:00;CYGK 010000Z 17024G32KT 15SM BKN130 01/M05 A3027 RMK AC7 SLP254

CYGK;2013-12-01 01:00;CYGK 010100Z 18024G30KT 15SM BKN120 BKN200 01/M05 A3025 RMK AC6CI1 SLP250

CYGK;2013-12-01 02:00;CYGK 010200Z 18025G31KT 15SM SCT140 BKN200 02/M04 A3023 RMK AC4CI3 SLP240

CYGK;2013-12-01 03:00;CYGK 010300Z 19024G32KT 15SM SCT065 OVC140 02/M03 A3021 RMK SC3AC5 SLP236

CYGK;2013-12-01 04:00;CYGK 010400Z 20019G27KT 15SM FEW030 BKN062 OVC140 02/M03 A3021 RMK SC1SC5AC2 LAST OBS/NEXT 011100 UTC SLP236

CYGK;2013-12-01 11:00;CYGK 011100Z 19013KT 15SM BKN020 OVC035 03/M01 A3013 RMK SC6SC2 SLP206

CYGK;2013-12-01 12:00;CYGK 011200Z 17013G18KT 12SM OVC017 03/M01 A3012 RMK SC8 SLP204

CYGK;2013-12-01 13:00;CYGK 011300Z 18013KT 12SM BKN020 OVC040 03/M01 A3012 RMK SC5SC3 SLP202

CYGK;2013-12-01 14:00;CYGK 011400Z 17011G17KT 12SM BKN020 OVC030 03/M00 A3011 RMK SC5SC3 SLP201

CYGK;2013-12-01 15:00;CYGK 011500Z 17013KT 15SM BKN022 OVC050 03/M01 A3011 RMK SC5SC3 SLP200

CYGK;2013-12-01 16:00;CYGK 011600Z 17012G17KT 12SM -RA BKN020 OVC040 03/M01 A3010 RMK SC5SC3 SLP195

CYGK;2013-12-01 17:00;CYGK 011700Z 17012KT 10SM -RA OVC018 03/M00 A3008 RMK SC8 SLP189

CYGK;2013-12-01 18:00;CYGK 011800Z 16010KT 10SM -RA OVC013 02/M00 A3006 RMK SC8 SLP183

CYGK;2013-12-01 19:00;CYGK 011900Z 14008KT 10SM -RA OVC015 02/M00 A3005 RMK SC8 SLP178

CYGK;2013-12-01 20:00;CYGK 012000Z 14008KT 10SM -RA OVC015 02/M00 A3004 RMK SC8 SLP178

CYGK;2013-12-01 21:00;CYGK 012100Z 16009KT 8SM -RA FEW009 OVC016 02/00 A3005 RMK ST2SC6 SLP178

CYGK;2013-12-01 21:48;CYGK 012148Z 16009KT 8SM -RA OVC012 02/00 A3004 RMK SC8 SLP176

CYGK;2013-12-01 22:00;CYGK 012200Z 14007KT 8SM -RA OVC011 02/00 A3004 RMK CU8 SLP176

CYGK;2013-12-01 23:00;CYGK 012300Z 08004KT 080V140 10SM -RA OVC015 01/M00 A3003 RMK SC8 SLP173

CYGK;2013-12-02 00:00;CYGK 020000Z 06007KT 8SM -RA OVC014 01/00 A3004 RMK SC8 SLP176

CYGK;2013-12-02 01:00;CYGK 020100Z 06007KT 6SM -RA OVC014 01/M00 A3003 RMK SC8 SLP174

CYGK;2013-12-02 02:00;CYGK 020200Z 05007KT 6SM -SN BR OVC010 01/M00 A3003 RMK SF8 SLP172

CYGK;2013-12-02 02:24;CYGK 020224Z 06008KT 5SM -SN BR OVC008 01/M00 A3002 RMK SF8 SLP171

CYGK;2013-12-02 03:00;CYGK 020300Z 06006KT 5SM -SN BR OVC009 01/M00 A3002 RMK SF8 SLP169

CYGK;2013-12-02 04:00;CYGK 020400Z 06006KT 6SM -SN BR OVC007 01/00 A3000 RMK SF8 LAST OBS/NEXT 021100 UTC SLP163

CYGK;2013-12-02 11:00;CYGK 021100Z 06007KT 6SM -DZ BR OVC006 01/00 A2994 RMK ST8 SLP142

CYGK;2013-12-02 12:00;CYGK 021200Z 05006KT 4SM -DZ BR SCT006 OVC012 01/00 A2993 RMK ST4SC4 SLP140

CYGK;2013-12-02 13:00;CYGK 021300Z 06006KT 2SM BR OVC008 01/00 A2993 RMK FG4ST4 SLP138

CYGK;2013-12-02 14:00;CYGK 021400Z 06007KT 2SM BR SCT005 OVC010 01/00 A2992 RMK FG2SF1ST5 VIS S 4 SLP137

CYGK;2013-12-02 15:00;CYGK 021500Z 08005KT 2 1/2SM BR SCT001 OVC008 01/00 A2992 RMK FG2SF1ST5 SLP135

CYGK;2013-12-02 16:00;CYGK 021600Z 10006KT 6SM BR FEW007 OVC011 02/01 A2991 RMK SF2SC6 SLP131

CYGK;2013-12-02 16:37;CYGK 021637Z 08009KT 6SM BR BKN007 OVC011 02/01 A2989 RMK SF5SC3 SLP126

CYGK;2013-12-02 17:00;CYGK 021700Z 17005KT 100V170 8SM BKN007 OVC012 03/02 A2989 RMK SF5SC3 SLP124

CYGK;2013-12-02 17:39;CYGK 021739Z 16010KT 8SM SCT007 BKN012 OVC030 04/03 A2987 RMK SF3SC4SC1 WSHFT 1658 SLP119

CYGK;2013-12-02 18:00;CYGK 021800Z 16012KT 7SM BKN008 OVC040 04/03 A2987 RMK SF6SC2 SLP117

CYGK;2013-12-02 18:46;CYGK 021846Z 30003KT 10SM SCT008 BKN018 OVC057 04/02 A2986 RMK SF3SC3SC2 SLP115

CYGK;2013-12-02 19:00;CYGK 021900Z 32002KT 8SM FEW007 BKN018 OVC058 03/02 A2986 RMK SF2SC4SC2 SLP115

CYGK;2013-12-02 20:00;CYGK 022000Z 00000KT 8SM SCT017 OVC055 03/02 A2986 RMK SC4SC4 SLP115

CYGK;2013-12-02 21:00;CYGK 022100Z 24008KT 6SM BR FEW018 OVC057 04/01 A2987 RMK SC2SC6 SLP117

CYGK;2013-12-02 22:00;CYGK 022200Z 25003KT 6SM BR FEW018 OVC056 04/01 A2987 RMK SC1SC7 SLP119

CYGK;2013-12-02 23:00;CYGK 022300Z 22005KT 8SM FEW015 OVC057 03/02 A2989 RMK SC2SC6 SLP124

CYGK;2013-12-03 00:00;CYGK 030000Z 25005KT 8SM FEW010 OVC059 03/01 A2989 RMK SF1SC7 SLP126

CYGK;2013-12-03 01:00;CYGK 030100Z 29004KT 8SM FEW010 SCT045 OVC060 02/01 A2990 RMK SF1SC2SC5 SLP128

CYGK;2013-12-03 02:00;CYGK 030200Z 31003KT 6SM BR FEW010 FEW042 OVC060 02/01 A2990 RMK SF1SC1SC6 SLP129

CYGK;2013-12-03 03:00;CYGK 030300Z 00000KT 6SM BR FEW010 SCT040 OVC056 02/01 A2990 RMK SF1SC3SC4 SLP128

CYGK;2013-12-03 04:00;CYGK 030400Z 29002KT 6SM BR FEW005 OVC054 01/00 A2990 RMK SF1SC7 LAST OBS/NEXT 031100 UTC SLP129

CYGK;2013-12-03 11:00;CYGK 031100Z 30005KT 15SM OVC038 00/M01 A2994 RMK SC8 SLP143

CYGK;2013-12-03 12:00;CYGK 031200Z 32003KT 15SM OVC038 00/M01 A2995 RMK SC8 SLP144

CYGK;2013-12-03 13:00;CYGK 031300Z 28003KT 15SM OVC040 00/M01 A2995 RMK SC8 SLP147

CYGK;2013-12-03 14:00;CYGK 031400Z 31004KT 12SM FEW010 OVC040 00/M01 A2996 RMK CF1SC8 CF TR SLP151

CYGK;2013-12-03 15:00;CYGK 031500Z 35003KT 15SM FEW010 OVC038 01/M01 A2998 RMK CF1SC8 CF TR SLP155

CYGK;2013-12-03 16:00;CYGK 031600Z 00000KT 15SM FEW010 OVC040 02/M02 A2998 RMK CU1SC8 CU TR SLP156

CYGK;2013-12-03 17:00;CYGK 031700Z 30005KT 15SM BKN039 02/M05 A2997 RMK SC7 SLP152

CYGK;2013-12-03 18:00;CYGK 031800Z 29003KT 15SM OVC038 02/M05 A2997 RMK SC8 SLP151

CYGK;2013-12-03 19:00;CYGK 031900Z 32005KT 15SM BKN038 OVC250 02/M04 A2996 RMK SC7CI1 WND ESTD SLP151

CYGK;2013-12-03 20:00;CYGK 032000Z 00000KT 15SM BKN038 BKN250 03/M05 A2998 RMK SC6CI1 SLP155

CYGK;2013-12-03 21:00;CYGK 032100Z 28004KT 15SM FEW035 BKN240 03/M05 A2998 RMK SC2CI5 SLP158

CYGK;2013-12-03 22:00;CYGK 032200Z 35003KT 15SM FEW037 BKN220 01/M05 A3000 RMK SC2CI3 SLP162

CYGK;2013-12-03 23:00;CYGK 032300Z 36005KT 15SM FEW035 SCT150 BKN220 M01/M06 A3001 RMK SC1AC2CI2 SLP168

CYGK;2013-12-04 00:00;CYGK 040000Z 36005KT 15SM FEW035 FEW150 SCT220 M02/M05 A3003 RMK SC1AC1CI2 SC TR SLP173

CYGK;2013-12-04 01:00;CYGK 040100Z 02005KT 15SM FEW150 FEW220 M02/M05 A3004 RMK AC1CI1 SLP175

CYGK;2013-12-04 02:00;CYGK 040200Z 01005KT 15SM FEW220 M03/M05 A3004 RMK CI2 SLP176

CYGK;2013-12-04 03:00;CYGK 040300Z 36005KT 15SM SKC M04/M05 A3004 RMK SLP177

CYGK;2013-12-04 04:00;CYGK 040400Z 04005KT 15SM FEW065 M03/M05 A3003 RMK SC1 SC TR LAST OBS/NEXT 041100 UTC SLP174

CYGK;2013-12-04 11:00;CYGK 041100Z 04006KT 15SM BKN038 OVC070 M03/M04 A3009 RMK SC6AC2 SLP194

CYGK;2013-12-04 11:18;CYGK 041118Z 04006KT 15SM -SN OVC040 M03/M04 A3010 RMK SC8 SLP196

CYGK;2013-12-04 12:00;CYGK 041200Z 04010KT 4SM -SN OVC037 M03/M04 A3009 RMK SC8 SLP194

CYGK;2013-12-04 12:17;CYGK 041217Z 04012KT 12SM VCSH FEW015 BKN037 BKN160 M03/M04 A3009 RMK CF1SC6AC1 CF TR SLP194

CYGK;2013-12-04 13:00;CYGK 041300Z 04009KT 15SM FEW015 BKN040 BKN070 OVC160 M03/M04 A3011 RMK CF1SC5AC2AC1 CF TR SLP200

CYGK;2013-12-04 13:45;CYGK 041345Z 05010KT 12SM -FZRA FEW015 SCT030 OVC038 M02/M03 A3009 RMK CF1SC3NS5 CF TR SLP195

CYGK;2013-12-04 14:00;CYGK 041400Z 05008KT 12SM -FZRA FEW015 OVC038 M02/M04 A3010 RMK CF1NS8 CF TR SLP199

CYGK;2013-12-04 15:00;CYGK 041500Z 06008KT 15SM -FZRA BKN038 OVC076 M01/M03 A3009 RMK SC6AC2 SLP194

CYGK;2013-12-04 15:18;CYGK 041518Z 05008KT 15SM SCT038 BKN055 OVC070 M01/M03 A3009 RMK SC3SC3AC2 SLP193

CYGK;2013-12-04 16:00;CYGK 041600Z 06008KT 15SM BKN050 BKN065 M00/M03 A3008 RMK SC5SC2 PRESFR SLP190

CYGK;2013-12-04 17:00;CYGK 041700Z 04007KT 15SM BKN060 BKN120 01/M03 A3007 RMK SC5AC2 SLP188

CYGK;2013-12-04 18:00;CYGK 041800Z 05007KT 15SM BKN050 OVC120 01/M04 A3005 RMK SC7AC1 PRESFR SLP181

CYGK;2013-12-04 19:00;CYGK 041900Z 05010KT 15SM BKN050 BKN120 01/M03 A3002 RMK SC6AC1 SLP171

CYGK;2013-12-04 20:00;CYGK 042000Z 04010KT 15SM OVC057 01/M03 A3004 RMK SC8 SLP176

CYGK;2013-12-04 21:00;CYGK 042100Z 04011G16KT 15SM BKN060 BKN250 01/M03 A3005 RMK SC7CS1 CS TR SLP180

CYGK;2013-12-04 22:00;CYGK 042200Z 05012G17KT 15SM OVC250 00/M03 A3004 RMK CS8 SLP178

CYGK;2013-12-04 23:00;CYGK 042300Z 04009KT 15SM OVC250 00/M03 A3005 RMK CS8 SLP180

CYGK;2013-12-05 00:00;CYGK 050000Z 04011KT 15SM OVC250 00/M03 A3004 RMK CS8 SLP177

CYGK;2013-12-05 01:00;CYGK 050100Z 05011KT 15SM OVC250 M00/M02 A3003 RMK CS8 SLP174

CYGK;2013-12-05 02:00;CYGK 050200Z 04009KT 15SM OVC250 M00/M02 A3002 RMK CS8 SLP171

CYGK;2013-12-05 03:00;CYGK 050300Z 04008KT 15SM OVC200 M00/M02 A3000 RMK CS8 SLP164

CYGK;2013-12-05 04:00;CYGK 050400Z 05008KT 15SM OVC180 M00/M02 A2999 RMK AS8 LAST OBS/NEXT 051100 UTC SLP161

CYGK;2013-12-05 11:00;CYGK 051100Z 14006KT 15SM FEW019 OVC075 08/05 A2983 RMK SC2AC6 SLP103

CYGK;2013-12-05 11:30;CYGK 051130Z 15010KT 12SM -RA SCT019 OVC040 07/05 A2982 RMK SC3SC5 SLP100

CYGK;2013-12-05 12:00;CYGK 051200Z 16011KT 12SM SCT019 BKN039 OVC075 07/06 A2980 RMK SC3SC4AC1 SLP094

CYGK;2013-12-05 13:00;CYGK 051300Z 16017G23KT 10SM FEW020 BKN036 OVC075 08/06 A2978 RMK SC1SC6AC1 SLP088

CYGK;2013-12-05 13:15;CYGK 051315Z 16018KT 4SM -RA BR OVC036 08/06 A2977 RMK SC8 SLP084

CYGK;2013-12-05 13:34;CYGK 051334Z 17021G28KT 1 1/2SM -RA BR OVC034 08/06 A2978 RMK SC8 SLP087

CYGK;2013-12-05 13:41;CYGK 051341Z 17020G29KT 3SM -RA BR OVC033 08/07 A2978 RMK SC8 SLP086

CYGK;2013-12-05 13:52;CYGK 051352Z 17019G26KT 6SM BR OVC033 08/07 A2978 RMK SC8 SLP087

CYGK;2013-12-05 14:00;CYGK 051400Z 17022G27KT 6SM BR FEW010 OVC033 08/07 A2979 RMK SF1SC8 SF TR SLP089

CYGK;2013-12-05 15:00;CYGK 051500Z 17019G25KT 10SM BKN034 OVC070 09/07 A2978 RMK SC6AC2 SLP088

CYGK;2013-12-05 16:00;CYGK 051600Z 17019G27KT 10SM BKN032 BKN070 09/07 A2976 RMK SC5AC2 SLP082

CYGK;2013-12-05 17:00;CYGK 051700Z 18012G20KT 10SM BKN032 BKN062 09/07 A2975 RMK SC5SC2 SLP077

CYGK;2013-12-05 18:00;CYGK 051800Z 17015KT 8SM FEW030 OVC045 09/08 A2973 RMK CU2SC6 SLP070

CYGK;2013-12-05 19:00;CYGK 051900Z 17015KT 6SM BR BKN030 OVC050 09/08 A2971 RMK SC7SC1 SLP065

CYGK;2013-12-05 20:00;CYGK 052000Z 18014G23KT 8SM BKN030 OVC120 10/08 A2971 RMK CU6AC2 SLP062

CYGK;2013-12-05 20:53;CYGK 052053Z 19015G22KT 10SM -SHRA OVC025 10/08 A2973 RMK CU8 PRESRR SLP071

CYGK;2013-12-05 21:00;CYGK 052100Z 18016G21KT 10SM -SHRA OVC025 10/09 A2974 RMK CU8 SLP072

CYGK;2013-12-05 22:00;CYGK 052200Z 20017G23KT 10SM SCT025 BKN040 OVC070 10/09 A2976 RMK CU3SC3AC2 SLP078

CYGK;2013-12-05 23:00;CYGK 052300Z 27016G23KT 12SM FEW040 SCT055 BKN078 OVC150 10/06 A2979 RMK SC1SC3AC2AC2 PRESRR SLP091

CYGK;2013-12-06 00:00;CYGK 060000Z 29012G22KT 15SM FEW070 SCT170 BKN250 08/03 A2984 RMK AC2AC2CS3 SLP105

CYGK;2013-12-06 01:00;CYGK 060100Z 29011KT 15SM OVC075 07/02 A2988 RMK AC8 SLP120

CYGK;2013-12-06 02:00;CYGK 060200Z 27009KT 15SM SCT075 OVC160 06/M00 A2990 RMK AC3AC5 SLP127

CYGK;2013-12-06 03:00;CYGK 060300Z 26007KT 15SM OVC150 05/M00 A2994 RMK AS8 SLP142

CYGK;2013-12-06 04:00;CYGK 060400Z 27010KT 15SM OVC110 05/M01 A2998 RMK AS8 LAST OBS/NEXT 061100 UTC PRESRR SLP154

CYGK;2013-12-06 11:00;CYGK 061100Z 26009KT 15SM OVC085 02/M04 A3004 RMK AC8 SLP175

CYGK;2013-12-06 12:00;CYGK 061200Z 25009G16KT 15SM OVC085 02/M04 A3007 RMK AC8 SLP185

CYGK;2013-12-06 13:00;CYGK 061300Z 26010G17KT 15SM FEW040 OVC085 02/M05 A3008 RMK NS1AC7 SLP190

CYGK;2013-12-06 14:00;CYGK 061400Z 26010G16KT 15SM FEW030 FEW085 BKN110 01/M05 A3011 RMK SC1AC1AC6 SC TR PRESRR SLP198

CYGK;2013-12-06 15:00;CYGK 061500Z 26011G17KT 15SM FEW030 BKN085 OVC110 01/M05 A3012 RMK SC1AC4AS3 SLP203

CYGK;2013-12-06 16:00;CYGK 061600Z 27011G17KT 15SM FEW030 OVC110 01/M06 A3014 RMK SC1AC7 SLP209

CYGK;2013-12-06 17:00;CYGK 061700Z 27008KT 15SM FEW030 OVC110 02/M06 A3013 RMK SC2AC6 SLP207

CYGK;2013-12-06 18:00;CYGK 061800Z 26010KT 15SM FEW035 BKN110 OVC250 02/M06 A3013 RMK SC2AC4CS2 SLP207

CYGK;2013-12-06 19:00;CYGK 061900Z 27008KT 15SM FEW035 BKN100 OVC250 02/M06 A3012 RMK SC1AC6CS1 SLP205

CYGK;2013-12-06 20:00;CYGK 062000Z 27008KT 15SM FEW035 BKN110 OVC250 01/M06 A3012 RMK SC1AC6CS1 SLP203

CYGK;2013-12-06 21:00;CYGK 062100Z 26007KT 15SM FEW035 OVC100 01/M07 A3013 RMK SC1AC8 SC TR SLP206

CYGK;2013-12-06 22:00;CYGK 062200Z 26008KT 15SM FEW035 OVC100 01/M06 A3015 RMK SC1AC8 SC TR SLP212

CYGK;2013-12-06 23:00;CYGK 062300Z 27007KT 15SM OVC110 01/M06 A3017 RMK AC8 SLP219

CYGK;2013-12-07 00:00;CYGK 070000Z 27005KT 15SM OVC110 00/M06 A3016 RMK AC8 SLP216

CYGK;2013-12-07 01:00;CYGK 070100Z 26006KT 15SM OVC110 00/M06 A3018 RMK AC8 SLP225

CYGK;2013-12-07 02:00;CYGK 070200Z 28009KT 15SM OVC100 M00/M06 A3018 RMK AC8 SLP226

CYGK;2013-12-07 03:00;CYGK 070300Z 28008KT 15SM OVC090 M01/M07 A3021 RMK AC8 SLP234

CYGK;2013-12-07 04:00;CYGK 070400Z 27008KT 15SM OVC090 M01/M07 A3020 RMK AC8 LAST OBS/NEXT 071100 UTC SLP232

CYGK;2013-12-07 11:00;CYGK 071100Z 27008KT 15SM FEW040 BKN110 M02/M07 A3028 RMK SC2AC5 SLP258

CYGK;2013-12-07 12:00;CYGK 071200Z 27009KT 15SM SCT041 BKN110 M03/M07 A3030 RMK SC3AC2 SLP267

CYGK;2013-12-07 13:00;CYGK 071300Z 26007KT 15SM FEW015 BKN059 BKN110 M03/M07 A3032 RMK CF1SC6AC1 CF TR SLP273

CYGK;2013-12-07 14:00;CYGK 071400Z 27006KT 15SM VCSH FEW020 BKN056 M02/M06 A3035 RMK CF1SC6 SH NW-NE SLP281

CYGK;2013-12-07 15:00;CYGK 071500Z 28008KT 15SM FEW020 BKN060 M02/M07 A3036 RMK CF1SC7 CF TR SLP285

CYGK;2013-12-07 15:26;CYGK 071526Z 29009KT 15SM -SHSN SCT022 BKN057 M01/M07 A3036 RMK CU3SC4 VIS NW-NE 8 SLP287

CYGK;2013-12-07 15:51;CYGK 071551Z 28009KT 15SM VCSH FEW025 BKN059 M02/M07 A3036 RMK CU2SC5 SH N-NE SLP287

CYGK;2013-12-07 16:00;CYGK 071600Z 30011KT 15SM -SHSN FEW025 BKN059 M02/M07 A3036 RMK CU2SC5 SLP287

CYGK;2013-12-07 16:50;CYGK 071650Z 30009KT 15SM FEW028 BKN060 M01/M07 A3036 RMK CU2SC5 SLP286

CYGK;2013-12-07 17:00;CYGK 071700Z 29005KT 15SM FEW026 BKN062 M01/M07 A3036 RMK CU2SC5 SLP285

CYGK;2013-12-07 18:00;CYGK 071800Z 26013KT 15SM FEW032 BKN059 M00/M09 A3036 RMK CU2SC5 SLP285

CYGK;2013-12-07 19:00;CYGK 071900Z 28013G19KT 15SM VCSH SCT030 BKN060 M01/M08 A3037 RMK CU4SC3 SLP288

CYGK;2013-12-07 20:00;CYGK 072000Z 30007KT 15SM VCSH SCT030 OVC060 M01/M07 A3038 RMK CU3SC5 SH S NW SLP293

CYGK;2013-12-07 20:11;CYGK 072011Z 30009KT 15SM -SHSN BKN030 BKN060 M01/M07 A3038 RMK CU5SC2 SLP293

CYGK;2013-12-07 20:49;CYGK 072049Z 27008KT 15SM VCSH SCT030 BKN060 M03/M07 A3041 RMK CU3SC4 SH SE SLP301

CYGK;2013-12-07 21:00;CYGK 072100Z 27008KT 15SM FEW030 BKN064 M03/M07 A3041 RMK CU2SC5 SH DIST SE SLP301

CYGK;2013-12-07 22:00;CYGK 072200Z 27007KT 15SM FEW030 BKN060 M02/M07 A3042 RMK CU1SC5 SH DIST N SLP305

CYGK;2013-12-07 23:00;CYGK 072300Z 26005KT 15SM FEW030 BKN058 M03/M07 A3043 RMK CU1SC5 SLP310

CYGK;2013-12-08 00:00;CYGK 080000Z 27011KT 15SM BKN055 M03/M08 A3045 RMK SC7 SLP317

CYGK;2013-12-08 01:00;CYGK 080100Z 29007KT 15SM BKN057 M03/M08 A3047 RMK SC7 SLP324

CYGK;2013-12-08 02:00;CYGK 080200Z 28008KT 15SM FEW055 M04/M10 A3049 RMK SC2 SLP329

CYGK;2013-12-08 03:00;CYGK 080300Z 27006KT 15SM FEW055 M05/M10 A3051 RMK SC1 SLP337

CYGK;2013-12-08 04:00;CYGK 080400Z 27008KT 15SM SKC M05/M09 A3051 RMK LAST OBS/NEXT 081100 UTC SLP337

CYGK;2013-12-08 11:00;CYGK 081100Z 29006KT 15SM FEW240 M07/M11 A3055 RMK CI2 SLP352

CYGK;2013-12-08 12:00;CYGK 081200Z 33003KT 15SM FEW150 BKN240 M08/M11 A3055 RMK AC2CI3 SLP352

CYGK;2013-12-08 13:00;CYGK 081300Z 35004KT 15SM SCT048 BKN150 BKN240 M07/M10 A3055 RMK SC4AC2CI1 SLP352

CYGK;2013-12-08 14:00;CYGK 081400Z 32007KT 15SM BKN045 BKN200 M06/M10 A3057 RMK SC6CI1 SLP358

CYGK;2013-12-08 15:00;CYGK 081500Z 28005KT 280V340 15SM FEW038 BKN220 M05/M10 A3058 RMK SC1CI6 SLP361

CYGK;2013-12-08 16:00;CYGK 081600Z 33006KT 15SM FEW038 BKN220 M04/M10 A3056 RMK SC1CI6 SLP354

CYGK;2013-12-08 17:00;CYGK 081700Z 29005KT 15SM FEW040 BKN220 M03/M12 A3055 RMK SC1CI6 SLP349

CYGK;2013-12-08 18:00;CYGK 081800Z 01006KT 270V010 15SM FEW040 FEW170 BKN200 M02/M13 A3050 RMK SC1AC1CI4 PRESFR SLP335

CYGK;2013-12-08 19:00;CYGK 081900Z 21004KT 15SM FEW040 FEW170 BKN210 M02/M13 A3050 RMK SC1AC1CI4 SLP332

CYGK;2013-12-08 20:00;CYGK 082000Z 20005KT 15SM FEW040 SCT110 BKN150 BKN200 M02/M11 A3050 RMK SC1AS3AC1CI2 SLP335

CYGK;2013-12-08 21:00;CYGK 082100Z 20002KT 15SM FEW036 BKN110 BKN200 M03/M10 A3050 RMK SC1AS5CI1 SLP333

CYGK;2013-12-08 22:00;CYGK 082200Z 12004KT 15SM FEW036 BKN110 OVC200 M03/M10 A3049 RMK SC1AS6CI2 SC TR SLP329

CYGK;2013-12-08 23:00;CYGK 082300Z 10005KT 15SM FEW035 OVC100 M03/M10 A3047 RMK SC2AS6 SLP323

CYGK;2013-12-09 00:00;CYGK 090000Z 10007KT 15SM SCT034 OVC110 M03/M09 A3045 RMK SC4AS4 SLP318

CYGK;2013-12-09 01:00;CYGK 090100Z 10011KT 15SM FEW030 OVC100 M03/M08 A3044 RMK SC2AS6 SLP313

CYGK;2013-12-09 02:00;CYGK 090200Z 10009KT 15SM SCT030 OVC075 M03/M07 A3042 RMK SC4AS4 SLP308

CYGK;2013-12-09 03:00;CYGK 090300Z 11010KT 15SM OVC100 M02/M07 A3038 RMK AS8 PRESFR SLP294

CYGK;2013-12-09 04:00;CYGK 090400Z 10008KT 15SM OVC068 M02/M07 A3036 RMK AS8 LAST OBS/NEXT 091100 UTC SLP284

CYGK;2013-12-09 11:00;CYGK 091100Z 11009G16KT 1 1/2SM -SN OVC014 M03/M03 A3000 RMK SC8 PRESFR SLP165

CYGK;2013-12-09 11:24;CYGK 091124Z 11010KT 1SM -SN OVC010 M02/M03 A2998 RMK SN4SC4 SLP158

CYGK;2013-12-09 11:47;CYGK 091147Z 13011G17KT 1 1/2SM -SN OVC009 M02/M02 A2997 RMK SN2SC6 SLP152

CYGK;2013-12-09 12:00;CYGK 091200Z 13016G24KT 1 1/4SM -SN DRSN OVC010 M01/M02 A2995 RMK SN2SC6 PRESFR SLP147

CYGK;2013-12-09 12:19;CYGK 091219Z 14021KT 1SM -SN DRSN OVC008 M01/M02 A2993 RMK SN4SF4 PRESFR SLP140

CYGK;2013-12-09 13:00;CYGK 091300Z 15018G26KT 1 1/2SM -SN DRSN OVC009 M00/M01 A2992 RMK SN3SF5 SLP135

CYGK;2013-12-09 14:00;CYGK 091400Z 17019G26KT 1 1/4SM -SN DRSN OVC005 01/M00 A2990 RMK SN2SF6 SLP130

CYGK;2013-12-09 14:49;CYGK 091449Z 18024G31KT 2 1/2SM -RASN OVC005 02/01 A2987 RMK SF8 SLP121

CYGK;2013-12-09 15:00;CYGK 091500Z 18025G//KT 2 1/2SM -RASN OVC005 02/01 A2987 RMK SF8 GUST 31 KT WND ESTD SLP120

CYGK;2013-12-09 16:00;CYGK 091600Z 19026G35KT 4SM -RASN OVC007 03/02 A2984 RMK SF8 PRESFR SLP110

CYGK;2013-12-09 17:00;CYGK 091700Z 20024G32KT 5SM -RASN OVC012 04/02 A2981 RMK SF8 SLP098

CYGK;2013-12-09 17:35;CYGK 091735Z 20021G32KT 6SM -RA BR OVC014 04/03 A2979 RMK SC8 SLP092

CYGK;2013-12-09 18:00;CYGK 091800Z 21018G25KT 6SM -RA BR OVC012 04/03 A2979 RMK SC8 SLP093

CYGK;2013-12-09 18:20;CYGK 091820Z 22019G28KT 8SM -RA OVC017 04/02 A2979 RMK SC8 SLP093

CYGK;2013-12-09 19:00;CYGK 091900Z 23024G30KT 2SM -RA BR OVC014 04/02 A2979 RMK SC8 SLP093

CYGK;2013-12-09 19:17;CYGK 091917Z 25018G30KT 4SM -RA BR SCT008 OVC014 03/02 A2980 RMK SF3SC5 SLP095

CYGK;2013-12-09 19:44;CYGK 091944Z 25017KT 10SM BKN013 OVC035 02/01 A2981 RMK SC5NS3 CIG RAG SLP098

CYGK;2013-12-09 20:00;CYGK 092000Z 25020G30KT 10SM BKN012 OVC035 02/00 A2981 RMK SC6NS2 CIG RAG SLP100

CYGK;2013-12-09 20:19;CYGK 092019Z 25019G33KT 10SM SCT014 OVC037 02/M00 A2982 RMK SC4SC4 SLP102

CYGK;2013-12-09 21:00;CYGK 092100Z 24020G30KT 12SM SCT016 OVC046 02/M01 A2982 RMK SC3SC5 SLP103

CYGK;2013-12-09 21:34;CYGK 092134Z 25019G27KT 12SM BKN015 OVC050 02/M02 A2984 RMK SC6SC2 SLP108

CYGK;2013-12-09 22:00;CYGK 092200Z 25018G24KT 12SM BKN015 OVC020 02/M02 A2985 RMK SC5SC3 SLP113

CYGK;2013-12-09 22:03;CYGK 092203Z 25014G24KT 12SM -SHSN OVC017 02/M01 A2985 RMK CU8 SLP113

CYGK;2013-12-09 22:39;CYGK 092239Z 26016G26KT 15SM SCT017 OVC022 01/M02 A2987 RMK CU3SC5 SLP119

CYGK;2013-12-09 23:00;CYGK 092300Z 25016G24KT 15SM OVC025 01/M03 A2987 RMK SC8 SLP121

CYGK;2013-12-10 00:00;CYGK 100000Z 25017G27KT 15SM OVC027 01/M03 A2989 RMK SC8 SLP126

CYGK;2013-12-10 01:00;CYGK 100100Z 25016G26KT 15SM OVC028 01/M03 A2991 RMK SC8 SLP133

CYGK;2013-12-10 02:00;CYGK 100200Z 25017G24KT 15SM OVC030 01/M04 A2990 RMK SC8 SLP127

CYGK;2013-12-10 03:00;CYGK 100300Z 25018G25KT 15SM OVC026 01/M05 A2990 RMK SC8 SLP127

CYGK;2013-12-10 03:21;CYGK 100321Z 25017G25KT 15SM -SHSN OVC026 01/M05 A2990 RMK SC8 SLP127

CYGK;2013-12-10 03:38;CYGK 100338Z 25017G27KT 15SM OVC032 01/M05 A2990 RMK SC8 SLP127

CYGK;2013-12-10 04:00;CYGK 100400Z 25016G25KT 15SM BKN029 OVC045 01/M05 A2990 RMK SC5SC3 LAST OBS/NEXT 101100 UTC SLP129

CYGK;2013-12-10 11:00;CYGK 101100Z 27016G21KT 15SM SCT030 BKN180 M04/M11 A2995 RMK CU3AC2 SLP146

CYGK;2013-12-10 12:00;CYGK 101200Z 26013G19KT 15SM FEW030 BKN180 M04/M12 A2997 RMK CU2AC4 SLP152

CYGK;2013-12-10 13:00;CYGK 101300Z 27010KT 15SM FEW040 SCT180 BKN210 M05/M13 A2996 RMK SC2AC2CI2 SLP149

CYGK;2013-12-10 14:00;CYGK 101400Z 28010KT 15SM FEW040 FEW190 BKN250 M06/M13 A2996 RMK SC1AC2CI3 SC TR SLP151

CYGK;2013-12-10 15:00;CYGK 101500Z 28011G17KT 15SM FEW040 FEW180 SCT250 M05/M13 A2996 RMK SC1AC2CI1 SC TR SLP148

CYGK;2013-12-10 16:00;CYGK 101600Z 28011G17KT 15SM FEW040 FEW180 FEW250 M04/M13 A2994 RMK CF1AC1CI2 CF TR AC TR SLP142

CYGK;2013-12-10 17:00;CYGK 101700Z 26011KT 15SM FEW040 SCT250 M04/M13 A2990 RMK CU1CI2 SLP130

CYGK;2013-12-10 18:00;CYGK 101800Z 25009G16KT 15SM SCT040 SCT250 M04/M13 A2989 RMK CU3CI1 SLP126

CYGK;2013-12-10 19:00;CYGK 101900Z 26008G15KT 15SM SCT044 SCT220 M05/M14 A2987 RMK CU3CI1 SLP121

CYGK;2013-12-10 20:00;CYGK 102000Z 26008KT 15SM FEW040 BKN150 BKN250 M04/M14 A2987 RMK SC2AC3CI1 SH N-E SLP119

CYGK;2013-12-10 21:00;CYGK 102100Z 24016KT 15SM FEW045 FEW150 BKN220 M05/M14 A2987 RMK CU1AC1CI3 SLP120

CYGK;2013-12-10 22:00;CYGK 102200Z 26016KT 15SM FEW040 SCT090 BKN220 M06/M15 A2989 RMK SC1AC2CI3 SLP127

CYGK;2013-12-10 23:00;CYGK 102300Z 26012G17KT 15SM SCT080 BKN140 M06/M15 A2992 RMK AC3AC3 SLP136

CYGK;2013-12-11 00:00;CYGK 110000Z 28010G16KT 15SM SCT060 BKN100 M07/M16 A2993 RMK SC3AC3 SLP140

CYGK;2013-12-11 01:00;CYGK 110100Z 27013KT 15SM SCT080 M07/M15 A2993 RMK AC3 SLP142

CYGK;2013-12-11 02:00;CYGK 110200Z 28011KT 15SM FEW080 M07/M14 A2994 RMK AC1 SLP144

CYGK;2013-12-11 03:00;CYGK 110300Z 26009KT 15SM SKC M07/M13 A2995 RMK SLP147

CYGK;2013-12-11 04:00;CYGK 110400Z 25015G23KT 15SM SKC M06/M13 A2996 RMK LAST OBS/NEXT 111100 UTC SLP150

CYGK;2013-12-11 11:00;CYGK 111100Z 26012G18KT 15SM SCT140 M05/M12 A3007 RMK AC4 SLP188

CYGK;2013-12-11 12:00;CYGK 111200Z 26016G25KT 15SM FEW030 SCT160 BKN250 M05/M13 A3009 RMK CU1AC3CI1 SLP194

CYGK;2013-12-11 13:00;CYGK 111300Z 26017G24KT 15SM FEW030 SCT120 BKN250 M05/M13 A3009 RMK CU1AC2CS3 SLP196

CYGK;2013-12-11 14:00;CYGK 111400Z 26013G24KT 15SM FEW030 BKN110 OVC250 M05/M12 A3011 RMK CU1AS5CS2 SLP203

CYGK;2013-12-11 15:00;CYGK 111500Z 26015G25KT 15SM FEW030 OVC120 M04/M13 A3012 RMK CU1AS7 SLP204

CYGK;2013-12-11 16:00;CYGK 111600Z 25021G30KT 15SM FEW030 BKN090 OVC240 M04/M13 A3011 RMK CU1AS4CS3 SLP203

CYGK;2013-12-11 17:00;CYGK 111700Z 27020G29KT 15SM FEW030 BKN090 OVC250 M04/M14 A3010 RMK CU1AS4CS3 SLP197

CYGK;2013-12-11 18:00;CYGK 111800Z 26015G25KT 15SM FEW035 BKN075 BKN230 M04/M15 A3008 RMK CU1AS5CS1 SLP192

CYGK;2013-12-11 19:00;CYGK 111900Z 27019G27KT 15SM SCT042 BKN080 BKN240 M04/M14 A3009 RMK SC3AS3CS1 SLP193

CYGK;2013-12-11 20:00;CYGK 112000Z 27016G23KT 15SM FEW050 BKN090 BKN240 M04/M15 A3010 RMK CU2AS3CI2 SLP197

CYGK;2013-12-11 21:00;CYGK 112100Z 26018G27KT 15SM FEW048 SCT090 BKN240 M05/M16 A3011 RMK CU2AS2CI2 SLP201

CYGK;2013-12-11 22:00;CYGK 112200Z 33010KT 270V330 15SM FEW045 SCT080 SCT200 M06/M12 A3013 RMK CU2AC1CI1 SLP209

CYGK;2013-12-11 22:35;CYGK 112235Z 32009KT 12SM -SHSN FEW042 SCT200 M07/M11 A3015 RMK CU2CI2 SLP214

CYGK;2013-12-11 23:00;CYGK 112300Z 32008KT 15SM -SHSN FEW025 FEW040 SCT200 M08/M11 A3016 RMK CF1CU1CI1 SLP217

CYGK;2013-12-11 23:16;CYGK 112316Z 31007KT 15SM FEW017 SCT045 M08/M10 A3016 RMK CF1CU2 SLP219

CYGK;2013-12-12 00:00;CYGK 120000Z 31006KT 15SM FEW046 M08/M12 A3017 RMK CU2 SLP223

CYGK;2013-12-12 01:00;CYGK 120100Z 30007KT 15SM FEW045 M09/M13 A3019 RMK SC1 SLP231

CYGK;2013-12-12 02:00;CYGK 120200Z 32010KT 15SM SKC M10/M15 A3021 RMK SLP235

CYGK;2013-12-12 03:00;CYGK 120300Z 32006KT 15SM SKC M10/M15 A3023 RMK SLP243

CYGK;2013-12-12 04:00;CYGK 120400Z 32007KT 15SM SKC M11/M15 A3025 RMK LAST OBS/NEXT 121100 UTC SLP249

CYGK;2013-12-12 11:00;CYGK 121100Z 35004KT 15SM BKN050 M14/M20 A3029 RMK SC6 SLP265

CYGK;2013-12-12 12:00;CYGK 121200Z 32004KT 15SM BKN050 M14/M20 A3031 RMK SC5 SLP271

CYGK;2013-12-12 13:00;CYGK 121300Z 04002KT 15SM SCT040 BKN250 M14/M19 A3030 RMK SC4CI1 SLP267

CYGK;2013-12-12 14:00;CYGK 121400Z 00000KT 15SM FEW030 SCT160 SCT270 M12/M17 A3029 RMK SC1AC2CI1 SLP263

CYGK;2013-12-12 15:00;CYGK 121500Z 18007KT 15SM FEW030 SCT060 BKN250 M08/M15 A3027 RMK CF1SC3CI2 SLP257

CYGK;2013-12-12 16:00;CYGK 121600Z 23009G17KT 15SM FEW030 BKN058 BKN160 BKN250 M07/M13 A3023 RMK CU2SC3AC1CI1 PRESFR SLP244

CYGK;2013-12-12 17:00;CYGK 121700Z 24007KT 15SM VCSH FEW025 BKN060 BKN250 M07/M13 A3018 RMK CU2SC3CI2 PRESFR SLP227

CYGK;2013-12-12 18:00;CYGK 121800Z 23013G18KT 15SM VCSH FEW027 BKN035 M06/M12 A3015 RMK CF1CU6 SH SE-SW VIS S 5 SLP217

CYGK;2013-12-12 18:06;CYGK 121806Z 24016G21KT 10SM -SHSN BKN025 BKN250 M06/M13 A3015 RMK CU5CI2 SLP216

CYGK;2013-12-12 19:00;CYGK 121900Z 26017G23KT 15SM -SHSN BKN025 BKN120 M07/M12 A3012 RMK CU5AC1 AC TR VIS SE-S 6 SLP206

CYGK;2013-12-12 20:00;CYGK 122000Z 27016G23KT 15SM -SHSN FEW028 SCT120 BKN200 M07/M13 A3009 RMK CU2AC1CI3 SLP197

CYGK;2013-12-12 21:00;CYGK 122100Z 25015G23KT 15SM FEW030 FEW120 SCT200 M07/M15 A3009 RMK CU2AC1CI1 AC TR SLP196

CYGK;2013-12-12 22:00;CYGK 122200Z 25014G23KT 15SM FEW030 BKN110 BKN200 M08/M16 A3009 RMK CU1AC4CI2 SLP197

CYGK;2013-12-12 23:00;CYGK 122300Z 26012G18KT 15SM BKN110 BKN200 M08/M16 A3008 RMK AC5CI1 SLP192

CYGK;2013-12-13 00:00;CYGK 130000Z 26013KT 15SM FEW080 BKN110 M08/M15 A3005 RMK AC2AC5 SLP183

CYGK;2013-12-13 00:23;CYGK 130023Z 25012G18KT 15SM -SN FEW037 SCT085 OVC110 M07/M13 A3004 RMK SC1AC3AC4 SLP179

CYGK;2013-12-13 01:00;CYGK 130100Z 25016G22KT 15SM -SN SCT016 OVC096 M06/M09 A3002 RMK SC3AC5 SLP172

CYGK;2013-12-13 01:25;CYGK 130125Z 23013G22KT 15SM -SN BKN015 OVC093 M06/M09 A3000 RMK SC5AC3 PCPN VRY LGT SLP167

CYGK;2013-12-13 02:00;CYGK 130200Z 25013G24KT 15SM -SN SCT016 OVC089 M06/M10 A2999 RMK SC4AC4 SLP160

CYGK;2013-12-13 03:00;CYGK 130300Z 26020G26KT 15SM FEW018 SCT090 OVC140 M06/M13 A2997 RMK SC2AC2AC4 SLP154

CYGK;2013-12-13 04:00;CYGK 130400Z 26017G25KT 15SM FEW090 OVC140 M07/M13 A2995 RMK AC2AC6 LAST OBS/NEXT 131100 UTC SLP147

CYGK;2013-12-13 11:00;CYGK 131100Z 36005KT 2 1/2SM -SHSN BKN025 BKN045 OVC080 M08/M10 A2997 RMK CU5SC1AC2 SLP156

CYGK;2013-12-13 12:00;CYGK 131200Z 34007KT 2 1/2SM -SHSN BKN025 OVC080 M09/M11 A3001 RMK CU6AC2 PRESRR SLP168

CYGK;2013-12-13 12:16;CYGK 131216Z 36006KT 1SM -SHSN OVC025 M09/M11 A3001 RMK SN4CU4 PRESRR SLP169

CYGK;2013-12-13 12:45;CYGK 131245Z 35006KT 1 1/2SM -SHSN OVC025 M09/M10 A3003 RMK SN2CU6 SLP175

CYGK;2013-12-13 13:00;CYGK 131300Z 35008KT 2 1/2SM -SHSN BKN025 OVC080 M09/M11 A3004 RMK CU6AC2 SLP177

CYGK;2013-12-13 13:14;CYGK 131314Z 34008KT 5SM -SHSN BKN025 OVC080 M09/M11 A3004 RMK CU5AC3 SLP180

CYGK;2013-12-13 14:00;CYGK 131400Z 34012G18KT 6SM -SHSN FEW020 BKN040 OVC140 M09/M12 A3008 RMK CU2SC4AC2 SLP192

CYGK;2013-12-13 14:22;CYGK 131422Z 35014KT 6SM -SHSN DRSN FEW012 SCT022 BKN040 BKN080 M09/M12 A3010 RMK SF1CU3SC1AC1 VIS NW 3 SLP198

CYGK;2013-12-13 15:00;CYGK 131500Z 33013G19KT 15SM DRSN FEW012 FEW022 SCT070 BKN250 M09/M15 A3012 RMK SF1CU1AC3CI4 SF TR CU TR SLP205

CYGK;2013-12-13 16:00;CYGK 131600Z 33012G18KT 15SM FEW015 FEW060 BKN080 M09/M18 A3013 RMK CU1SC1AC5 SLP211

CYGK;2013-12-13 17:00;CYGK 131700Z 34010KT 15SM SCT023 BKN073 BKN250 M09/M15 A3015 RMK CU3AC3CI1 SLP217

CYGK;2013-12-13 18:00;CYGK 131800Z 34011G18KT 15SM FEW023 FEW073 SCT150 BKN250 M09/M16 A3016 RMK CU1AC1AC1CI2 SLP219

CYGK;2013-12-13 19:00;CYGK 131900Z 35011KT 15SM FEW020 FEW160 SCT270 M10/M18 A3019 RMK CF1AC1CI2 SLP228

CYGK;2013-12-13 20:00;CYGK 132000Z 36010KT 15SM FEW020 FEW070 SCT270 M11/M19 A3022 RMK CF1AC1CI3 CF TR SLP239

CYGK;2013-12-13 21:00;CYGK 132100Z 35008KT 15SM FEW020 FEW070 SCT250 M12/M20 A3026 RMK SC1AC1CI2 SLP254

CYGK;2013-12-13 22:00;CYGK 132200Z 36009KT 15SM FEW070 SCT250 M13/M21 A3030 RMK AC2CI1 SLP266

CYGK;2013-12-13 23:00;CYGK 132300Z 36007KT 15SM FEW070 SCT250 M14/M21 A3033 RMK AC1CI2 SLP279

CYGK;2013-12-14 00:00;CYGK 140000Z 02007KT 15SM SCT250 M14/M22 A3036 RMK CI3 SLP290

CYGK;2013-12-14 01:00;CYGK 140100Z 04008KT 15SM FEW250 M15/M22 A3038 RMK CI2 PRESRR SLP296

CYGK;2013-12-14 02:00;CYGK 140200Z 04009KT 15SM FEW140 SCT250 M16/M23 A3041 RMK AC1CI2 SLP306

CYGK;2013-12-14 03:00;CYGK 140300Z 03009KT 15SM SCT250 M17/M22 A3042 RMK CI3 SLP309

CYGK;2013-12-14 04:00;CYGK 140400Z 03008KT 15SM SCT250 M17/M23 A3045 RMK CI3 LAST OBS/NEXT 141100 UTC SLP321

CYGK;2013-12-14 11:00;CYGK 141100Z 04012G17KT 15SM OVC170 M18/M23 A3053 RMK AS8 SLP346

CYGK;2013-12-14 12:00;CYGK 141200Z 04013KT 15SM FEW020 BKN160 OVC230 M18/M22 A3052 RMK CU1AS6CI2 CU TR SLP344

CYGK;2013-12-14 13:00;CYGK 141300Z 05011G19KT 15SM FEW020 BKN110 BKN230 M18/M22 A3054 RMK CU1AS6CI1 CU TR STEAM FOG OVR LK SLP351

CYGK;2013-12-14 14:00;CYGK 141400Z 04011G17KT 15SM VCFG SCT012 BKN090 OVC220 M17/M22 A3056 RMK SC3AS4CS1 FG OVR LK SLP356

CYGK;2013-12-14 15:00;CYGK 141500Z 04009KT 15SM VCFG FEW012 SCT080 BKN100 OVC220 M17/M21 A3056 RMK SC2AC2AS3CI1 FG OVR LK SLP357

CYGK;2013-12-14 16:00;CYGK 141600Z 04014KT 15SM VCFG FEW012 BKN070 OVC220 M16/M21 A3051 RMK SC1AS6CS1 FG OVR LK PRESFR SLP341

CYGK;2013-12-14 17:00;CYGK 141700Z 04011G16KT 15SM FEW017 OVC070 M16/M21 A3048 RMK SC1AS7 SLP332

CYGK;2013-12-14 18:00;CYGK 141800Z 05011G18KT 15SM FEW012 OVC050 M15/M21 A3044 RMK CF1NS7 SLP317

CYGK;2013-12-14 19:00;CYGK 141900Z 06015KT 15SM FEW010 OVC040 M15/M20 A3039 RMK CU1NS7 SLP301

CYGK;2013-12-14 19:26;CYGK 141926Z 05015G21KT 5SM -SN OVC025 M14/M20 A3037 RMK NS8 PRESFR SLP293

CYGK;2013-12-14 19:45;CYGK 141945Z 05018KT 2SM -SN VV020 M14/M20 A3035 RMK SN8 PRESFR SLP286

CYGK;2013-12-14 20:00;CYGK 142000Z 05014G22KT 2 1/2SM -SN DRSN VV023 M14/M19 A3035 RMK SN8 SLP285

CYGK;2013-12-14 20:43;CYGK 142043Z 04015KT 1 1/2SM -SN DRSN VV010 M15/M18 A3031 RMK SN8 PRESFR SLP272

CYGK;2013-12-14 21:00;CYGK 142100Z 04014G22KT 2SM -SN DRSN VV015 M14/M18 A3030 RMK SN8 SLP269

CYGK;2013-12-14 22:00;CYGK 142200Z 04013G21KT 3SM -SN DRSN VV012 M15/M17 A3025 RMK SN8 SLP252

CYGK;2013-12-14 23:00;CYGK 142300Z 04015G22KT 1 3/4SM -SN DRSN VV008 M15/M18 A3019 RMK SN8 PRESFR SLP232

CYGK;2013-12-14 23:43;CYGK 142343Z 05017G25KT 1 1/4SM -SN DRSN VV005 M15/M18 A3016 RMK SN8 SLP222

CYGK;2013-12-15 00:00;CYGK 150000Z 05016G23KT 3/4SM -SN BLSN VV005 M15/M17 A3015 RMK SN8 /S02/ SLP218

CYGK;2013-12-15 01:00;CYGK 150100Z 04014G21KT 3/4SM -SN BLSN VV005 M15/M17 A3012 RMK SN8 SLP208

CYGK;2013-12-15 01:46;CYGK 150146Z 05015G20KT 1 1/2SM -SN BLSN VV010 M15/M17 A3009 RMK SN8 SLP199

CYGK;2013-12-15 02:00;CYGK 150200Z 04014G20KT 2SM -SN BLSN VV012 M15/M17 A3008 RMK SN8 SLP195

CYGK;2013-12-15 02:48;CYGK 150248Z 04013G19KT 1SM -SN VV006 M14/M17 A3004 RMK SN8 PRESFR SLP180

CYGK;2013-12-15 03:00;CYGK 150300Z 04012G19KT 1SM -SN VV006 M14/M17 A3002 RMK SN8 /S04/ PRESFR SLP175

CYGK;2013-12-15 03:22;CYGK 150322Z 04014G20KT 1 1/4SM -SN VV005 M14/M17 A3000 RMK SN8 PRESFR SLP168

CYGK;2013-12-15 04:00;CYGK 150400Z 05015KT 1SM -SN VV006 M15/M17 A2997 RMK SN8 LAST OBS/NEXT 151100 UTC PRESFR SLP156

CYGK;2013-12-15 11:00;CYGK 151100Z 02012KT 1SM -SN DRSN OVC020 M14/M17 A2968 RMK SN6NS2 SLP060

CYGK;2013-12-15 11:24;CYGK 151124Z 03010G17KT 2SM -SN DRSN BKN020 OVC038 M14/M17 A2968 RMK SN2SF3NS3 SLP060

CYGK;2013-12-15 11:31;CYGK 151131Z 02013KT 4SM -SN DRSN SCT020 OVC038 M14/M17 A2969 RMK SC4NS4 SLP063

CYGK;2013-12-15 11:46;CYGK 151146Z 03013KT 2 1/2SM -SN DRSN OVC038 M14/M17 A2968 RMK SN2NS6 SLP059

CYGK;2013-12-15 12:00;CYGK 151200Z 03012G18KT 2 1/2SM -SN DRSN SCT027 BKN037 M14/M17 A2969 RMK SN2SC2NS2 SLP061

CYGK;2013-12-15 12:05;CYGK 151205Z 03012G18KT 4SM -SN DRSN BKN027 OVC035 M14/M16 A2969 RMK SC5NS3 SLP061

CYGK;2013-12-15 13:00;CYGK 151300Z 02010G17KT 10SM -SN DRSN FEW010 BKN021 OVC030 M13/M16 A2969 RMK SF1SC6NS2 SF TR S OVR LK SLP062

CYGK;2013-12-15 14:00;CYGK 151400Z 01010KT 6SM -SN FEW010 BKN020 OVC030 M13/M16 A2969 RMK SF1SC7NS1 SF TR S OVR LK SLP063

CYGK;2013-12-15 15:00;CYGK 151500Z 01009KT 6SM -SN FEW020 BKN040 M12/M15 A2969 RMK SC2SC5 SLP062

CYGK;2013-12-15 16:00;CYGK 151600Z 01007KT 12SM -SN FEW020 FEW030 SCT050 BKN160 M11/M15 A2968 RMK CF1SC2SC2AC2 CF TR VIS LWR S-W SLP057

CYGK;2013-12-15 17:00;CYGK 151700Z 27006KT 4SM -SN BKN022 OVC045 M10/M14 A2968 RMK CU6SC2 SLP056

CYGK;2013-12-15 18:00;CYGK 151800Z 25006KT 3SM -SN BKN012 OVC025 M10/M14 A2967 RMK SC6SC2 SLP053

CYGK;2013-12-15 18:30;CYGK 151830Z 27004KT 3SM -SN SCT013 SCT045 OVC055 M10/M14 A2966 RMK SC3SC1SC4 SLP052

CYGK;2013-12-15 19:00;CYGK 151900Z 26008KT 3SM -SN FEW015 OVC036 M10/M13 A2967 RMK SC2SC6 SLP053

CYGK;2013-12-15 20:00;CYGK 152000Z 27011KT 5SM -SN FEW013 BKN035 OVC160 M10/M14 A2967 RMK SC2SC5AC1 VIS SW 10 SLP055

CYGK;2013-12-15 21:00;CYGK 152100Z 27010KT 15SM FEW015 SCT040 SCT080 BKN140 M10/M14 A2969 RMK SC1SC2AC1AC1 SLP061

CYGK;2013-12-15 22:00;CYGK 152200Z 27009KT 15SM FEW020 SCT040 OVC085 M10/M14 A2971 RMK SC1SC2AC5 SLP068

CYGK;2013-12-15 23:00;CYGK 152300Z 27008KT 15SM FEW040 OVC090 M10/M14 A2971 RMK SC2AC6 SLP068

CYGK;2013-12-16 00:00;CYGK 160000Z 28006KT 15SM OVC095 M11/M14 A2971 RMK AC8 SLP068

CYGK;2013-12-16 01:00;CYGK 160100Z 31004KT 15SM SCT045 OVC090 M10/M14 A2972 RMK CU3AC5 SLP070

CYGK;2013-12-16 01:12;CYGK 160112Z 31004KT 10SM -SN SCT040 OVC080 M10/M14 A2972 RMK CU3AC5 SLP070

CYGK;2013-12-16 01:38;CYGK 160138Z 33006KT 3SM -SN BKN020 OVC045 M10/M13 A2972 RMK CU5SC3 SLP070

CYGK;2013-12-16 02:00;CYGK 160200Z 34008KT 6SM -SN FEW020 SCT045 OVC080 M11/M13 A2970 RMK CU2SC2AC4 SLP065

CYGK;2013-12-16 03:00;CYGK 160300Z 34006KT 3SM -SN OVC025 M10/M13 A2974 RMK CU8 SLP077

CYGK;2013-12-16 04:00;CYGK 160400Z 34009KT 4SM -SN SCT010 BKN020 OVC040 M11/M13 A2975 RMK CU3SC2SC3 LAST OBS/NEXT 161100 UTC SLP082

CYGK;2013-12-16 11:00;CYGK 161100Z 33002KT 15SM FEW020 FEW080 M19/M22 A2999 RMK SC1AC1 SC TR SLP162

CYGK;2013-12-16 12:00;CYGK 161200Z 30005KT 15SM FEW015 FEW100 BKN120 M19/M21 A3001 RMK SC1AC2AS3 SC TR SLP170

CYGK;2013-12-16 13:00;CYGK 161300Z 26004KT 15SM FEW015 FEW072 BKN100 BKN120 M19/M21 A3003 RMK CF1AC2AC3AC1 CF TR SLP178

CYGK;2013-12-16 14:00;CYGK 161400Z 27005KT 15SM FEW015 FEW080 SCT120 BKN230 M17/M21 A3006 RMK CF1AC2AS2CI2 CF TR SLP188

CYGK;2013-12-16 15:00;CYGK 161500Z 28006KT 15SM FEW015 FEW070 BKN080 BKN230 M16/M22 A3009 RMK CF1AC2AS3CI2 CF TR SLP196

CYGK;2013-12-16 16:00;CYGK 161600Z 33004KT 15SM FEW015 FEW070 BKN230 M16/M22 A3009 RMK CF1AC2CI4 CF TR SLP198

CYGK;2013-12-16 17:00;CYGK 161700Z 35007KT 15SM FEW015 FEW070 FEW230 M16/M22 A3009 RMK CF1AC1CI1 CF TR SLP197

CYGK;2013-12-16 18:00;CYGK 161800Z 30009KT 15SM FEW015 FEW230 M14/M22 A3010 RMK CF1CI1 CF TR SLP200

CYGK;2013-12-16 19:00;CYGK 161900Z 31007KT 15SM FEW015 FEW230 M13/M22 A3010 RMK CF1CI1 CF TR SLP199

CYGK;2013-12-16 20:00;CYGK 162000Z 29007KT 15SM FEW015 FEW230 M13/M21 A3011 RMK CF1CI1 CF TR CI TR SLP206

CYGK;2013-12-16 21:00;CYGK 162100Z 27007KT 15SM FEW015 M13/M20 A3013 RMK CF1 CF TR SLP211

CYGK;2013-12-16 22:00;CYGK 162200Z 27004KT 15SM FEW015 FEW210 M14/M21 A3016 RMK CU1CI1 CU TR CI TR SLP220

CYGK;2013-12-16 23:00;CYGK 162300Z 29003KT 15SM SKC M15/M21 A3017 RMK SLP224

CYGK;2013-12-17 00:00;CYGK 170000Z 29005KT 15SM SKC M17/M21 A3019 RMK SLP231

CYGK;2013-12-17 01:00;CYGK 170100Z 35009KT 15SM SKC M19/M23 A3021 RMK WSHFT 0052 SLP240

CYGK;2013-12-17 02:00;CYGK 170200Z 04008KT 15SM SKC M18/M23 A3021 RMK SLP240

CYGK;2013-12-17 03:00;CYGK 170300Z 04006KT 15SM SKC M18/M23 A3022 RMK SLP243

CYGK;2013-12-17 04:00;CYGK 170400Z 05008KT 15SM FEW015 M18/M23 A3023 RMK CF1 CF TR LAST OBS/NEXT 171100 UTC SLP247

CYGK;2013-12-17 11:00;CYGK 171100Z 04010KT 15SM SCT022 OVC200 M19/M22 A3012 RMK SC3CI5 SLP210

CYGK;2013-12-17 12:00;CYGK 171200Z 04011KT 15SM FEW022 SCT090 BKN110 BKN200 M19/M21 A3009 RMK SC2AC2AC2CI1 SLP200

CYGK;2013-12-17 12:17;CYGK 171217Z 05010G15KT 15SM VCFG FEW022 BKN090 BKN110 BKN200 M18/M21 A3008 RMK SC1AC5AC1CI1 CI TR FG BNK OVR WATER VIS SE-SW 1/2 SLP196

CYGK;2013-12-17 13:00;CYGK 171300Z 05011KT 15SM VCFG FEW022 BKN070 OVC120 M18/M21 A3007 RMK SC1AC6AC1 FG BNK OVR WATER VIS SE-SW 1/2 SLP193

CYGK;2013-12-17 13:20;CYGK 171320Z 04011KT 10SM -SN VCFG FEW027 BKN040 BKN100 BKN120 M18/M21 A3006 RMK SC1NS5AC1AC1 SC TR FG BNK OVR WATER VIS SE-SW 3/4 SLP189

CYGK;2013-12-17 13:31;CYGK 171331Z 03012KT 2SM -SN BKN030 OVC042 M18/M20 A3005 RMK SN2SC3NS3 VIS SE-SW 3/4 SLP187

CYGK;2013-12-17 13:39;CYGK 171339Z 04012KT 1SM -SN BKN030 OVC040 M18/M20 A3005 RMK SN4SC2NS2 SLP187

CYGK;2013-12-17 14:00;CYGK 171400Z 04011G17KT 1 1/4SM -SN SCT021 OVC032 M17/M20 A3004 RMK SN3SC1NS4 SLP181

CYGK;2013-12-17 14:15;CYGK 171415Z 04012KT 1 1/2SM -SN SCT022 OVC040 M17/M20 A3003 RMK SN3SC1NS4 SLP179

CYGK;2013-12-17 15:00;CYGK 171500Z 05012KT 4SM -SN VCFG FEW018 OVC039 M16/M19 A3002 RMK SC1NS7 FG BNK OVR WATER VIS SE-SW 3/4 /S01/ SLP174

CYGK;2013-12-17 15:33;CYGK 171533Z 04012KT 2 1/2SM -SN BKN022 OVC038 M16/M19 A3001 RMK SC5SC3 SLP170

CYGK;2013-12-17 16:00;CYGK 171600Z 04010G15KT 2 1/2SM -SN DRSN SCT022 OVC030 M15/M18 A3000 RMK SC4SC4 SLP167

CYGK;2013-12-17 16:33;CYGK 171633Z 04011G17KT 3SM -SN DRSN SCT017 OVC022 M15/M18 A2997 RMK SC4SC4 SLP158

CYGK;2013-12-17 17:00;CYGK 171700Z 03013KT 3SM -SN DRSN OVC017 M15/M18 A2996 RMK SC8 VIS LWR S SLP155

CYGK;2013-12-17 17:07;CYGK 171707Z 04012G17KT 2SM -SN DRSN OVC017 M15/M17 A2995 RMK SC8 VIS SE-SW 1 PRESFR SLP152

CYGK;2013-12-17 17:54;CYGK 171754Z 04012KT 1 1/2SM -SN DRSN OVC015 M14/M17 A2994 RMK SN2SC6 SLP147

CYGK;2013-12-17 18:00;CYGK 171800Z 04012KT 1 1/2SM -SN DRSN OVC015 M14/M17 A2993 RMK SN1SC7 /S02/ SLP145

CYGK;2013-12-17 19:00;CYGK 171900Z 03013KT 1 1/4SM -SN DRSN OVC016 M14/M17 A2992 RMK SN3SC5 SLP141

CYGK;2013-12-17 19:07;CYGK 171907Z 03011G16KT 3/4SM -SN DRSN VV007 M14/M16 A2992 RMK SN8 SLP141

CYGK;2013-12-17 19:29;CYGK 171929Z 02009G15KT 1 1/2SM -SN DRSN OVC014 M13/M16 A2993 RMK SN2SC6 SLP142

CYGK;2013-12-17 19:38;CYGK 171938Z 03010KT 2 1/2SM -SN DRSN OVC014 M13/M16 A2993 RMK SC8 VIS S 1 SLP142

CYGK;2013-12-17 20:00;CYGK 172000Z 01009KT 3SM -SN OVC013 M13/M16 A2994 RMK SC8 SLP146

CYGK;2013-12-17 20:13;CYGK 172013Z 03010KT 5SM -SN BKN015 OVC027 M13/M16 A2994 RMK SC5SC3 SLP146

CYGK;2013-12-17 21:00;CYGK 172100Z 03011KT 10SM -SN BKN013 OVC027 M13/M16 A2995 RMK SC6SC2 VIS LWR S SLP152

CYGK;2013-12-17 21:18;CYGK 172118Z 02009KT 10SM OVC012 M13/M16 A2996 RMK SC8 SLP153

CYGK;2013-12-17 22:00;CYGK 172200Z 36009KT 12SM OVC011 M14/M17 A2997 RMK SC8 SLP158

CYGK;2013-12-17 22:07;CYGK 172207Z 36009KT 10SM -SN OVC011 M14/M17 A2998 RMK SC8 SLP160

CYGK;2013-12-17 23:00;CYGK 172300Z 03006KT 15SM -SN OVC010 M14/M17 A2998 RMK SC8 SLP161

CYGK;2013-12-17 23:23;CYGK 172323Z 02009KT 15SM BKN008 OVC035 M14/M18 A2998 RMK SC6SC2 SLP160

CYGK;2013-12-18 00:00;CYGK 180000Z 02008KT 15SM -SN BKN009 OVC030 M14/M18 A2999 RMK SC5SC3 SLP164

CYGK;2013-12-18 01:00;CYGK 180100Z 03006KT 15SM -SN BKN008 OVC027 M14/M17 A3000 RMK SC5SC3 SLP166

CYGK;2013-12-18 01:18;CYGK 180118Z 05007KT 15SM -SN SCT008 OVC024 M14/M17 A2999 RMK SC4SC4 SLP165

CYGK;2013-12-18 02:00;CYGK 180200Z 02007KT 10SM -SN SCT008 OVC022 M14/M17 A2999 RMK SC3SC5 SLP163

CYGK;2013-12-18 03:00;CYGK 180300Z 02006KT 10SM -SN SCT007 OVC020 M14/M17 A3000 RMK SC3SC5 SLP167

CYGK;2013-12-18 04:00;CYGK 180400Z 03005KT 4SM -SN FEW025 OVC035 M14/M16 A2999 RMK SC2SC6 LAST OBS/NEXT 181100 UTC SLP163

CYGK;2013-12-18 11:00;CYGK 181100Z 06006KT 12SM SCT012 OVC060 M12/M15 A2996 RMK SC4SC4 SLP151

CYGK;2013-12-18 12:00;CYGK 181200Z 33005KT 330V050 10SM -SN BKN012 OVC065 M12/M14 A2998 RMK SC5SC3 SLP158

CYGK;2013-12-18 12:16;CYGK 181216Z 01004KT 4SM -SN SCT012 OVC065 M12/M14 A2997 RMK SC4SC4 SLP158

CYGK;2013-12-18 12:37;CYGK 181237Z 36003KT 3SM -SN BKN012 OVC070 M12/M14 A2998 RMK SC6AC2 SLP158

CYGK;2013-12-18 13:00;CYGK 181300Z 03005KT 5SM -SN SCT012 OVC050 M12/M14 A2997 RMK SC4SC4 VIS S-SW 1 SLP158

CYGK;2013-12-18 14:00;CYGK 181400Z 36004KT 15SM FEW012 BKN025 OVC060 M11/M13 A2998 RMK SC2SC5SC1 SLP158

CYGK;2013-12-18 14:05;CYGK 181405Z 36005KT 2SM -SN SCT012 OVC019 M11/M13 A2997 RMK SN2SC2CU4 SLP157

CYGK;2013-12-18 14:14;CYGK 181414Z 02004KT 1SM -SN OVC019 M11/M13 A2997 RMK SN2CU6 SLP157

CYGK;2013-12-18 14:21;CYGK 181421Z 01003KT 3/4SM -SN OVC019 M11/M13 A2997 RMK SN4CU4 SLP157

CYGK;2013-12-18 14:31;CYGK 181431Z 02004KT 1 1/2SM -SN BKN019 M11/M13 A2997 RMK SN2CU5 SLP156

CYGK;2013-12-18 14:37;CYGK 181437Z 02005KT 2 1/2SM -SN BKN019 M11/M13 A2997 RMK SN2CU5 SLP156

CYGK;2013-12-18 14:48;CYGK 181448Z 02004KT 5SM -SN SCT019 BKN073 M10/M13 A2997 RMK CU4AC3 SLP157

CYGK;2013-12-18 15:00;CYGK 181500Z 01003KT 5SM -SN SCT019 BKN073 M10/M13 A2998 RMK CU3AC4 SLP158

CYGK;2013-12-18 16:00;CYGK 181600Z 00000KT 4SM -SN FEW009 BKN023 OVC070 M09/M11 A2999 RMK SF1SC6AC1 SLP161

CYGK;2013-12-18 16:40;CYGK 181640Z 21003KT 140V210 6SM BR SCT030 BKN110 M08/M10 A2997 RMK CU3AC4 SLP157

CYGK;2013-12-18 17:00;CYGK 181700Z 22003KT 6SM BR FEW035 BKN110 M07/M08 A2996 RMK CU2AC5 SLP154

CYGK;2013-12-18 18:00;CYGK 181800Z 27005KT 8SM FEW035 BKN093 M04/M07 A2994 RMK CU1AC6 WND ESTD SLP146

CYGK;2013-12-18 19:00;CYGK 181900Z 26006KT 15SM FEW025 FEW050 BKN120 M03/M07 A2994 RMK CU1SC2AC5 CU TR SLP145

CYGK;2013-12-18 20:00;CYGK 182000Z 26009KT 12SM FEW025 SCT082 BKN110 M01/M06 A2994 RMK CU1AC4AC3 CU TR SLP146

CYGK;2013-12-18 21:00;CYGK 182100Z 26010KT 15SM FEW025 SCT035 BKN080 M01/M06 A2996 RMK CU1SC4AC2 CU TR SLP152

CYGK;2013-12-18 22:00;CYGK 182200Z 25010KT 15SM FEW015 BKN025 BKN050 M01/M05 A2997 RMK CF1SC5SC2 CF TR SLP155

CYGK;2013-12-18 22:42;CYGK 182242Z 25006KT 15SM -SN SCT022 OVC053 M01/M05 A2999 RMK SC3SC5 SLP160

CYGK;2013-12-18 23:00;CYGK 182300Z 26009KT 15SM -SN SCT022 OVC038 M01/M05 A3000 RMK SC3SC5 SLP164

CYGK;2013-12-19 00:00;CYGK 190000Z 26011KT 15SM -SN FEW025 OVC040 M02/M06 A3001 RMK CU2SC6 SLP167

CYGK;2013-12-19 01:00;CYGK 190100Z 25007KT 15SM FEW025 OVC048 M02/M07 A3003 RMK CU1SC7 INTMT -SN SLP174

CYGK;2013-12-19 02:00;CYGK 190200Z 28009KT 15SM BKN048 BKN120 M02/M08 A3003 RMK SC6AC1 SLP174

CYGK;2013-12-19 03:00;CYGK 190300Z 27005KT 15SM FEW015 OVC037 M02/M09 A3003 RMK CF1SC8 CF TR SLP174

CYGK;2013-12-19 04:00;CYGK 190400Z 25003KT 15SM FEW015 OVC029 M02/M08 A3002 RMK CF1SC8 CF TR LAST OBS/NEXT 191100 UTC SLP172

CYGK;2013-12-19 11:00;CYGK 191100Z 21013G19KT 15SM FEW030 OVC058 00/M06 A2988 RMK CU1SC7 SLP124

CYGK;2013-12-19 12:00;CYGK 191200Z 21014KT 15SM BKN055 OVC250 M00/M06 A2987 RMK SC5CI3 SLP120

CYGK;2013-12-19 13:00;CYGK 191300Z 22011KT 15SM SCT050 BKN220 00/M05 A2987 RMK SC4CI3 SLP120

CYGK;2013-12-19 14:00;CYGK 191400Z 21010KT 15SM OVC047 01/M04 A2988 RMK SC8 SLP123

CYGK;2013-12-19 15:00;CYGK 191500Z 22011KT 15SM BKN028 OVC050 01/M04 A2990 RMK SC6SC2 SLP129

CYGK;2013-12-19 16:00;CYGK 191600Z 25013G19KT 15SM OVC033 02/M04 A2991 RMK SC8 SLP133

CYGK;2013-12-19 17:00;CYGK 191700Z 27009G16KT 15SM OVC036 01/M05 A2991 RMK SC8 SLP133

CYGK;2013-12-19 18:00;CYGK 191800Z 25007KT 15SM OVC032 02/M04 A2991 RMK SC8 SLP134

CYGK;2013-12-19 19:00;CYGK 191900Z 28005KT 15SM SCT030 OVC250 02/M04 A2993 RMK SC4CI4 SLP141

CYGK;2013-12-19 20:00;CYGK 192000Z 27004KT 15SM FEW032 OVC190 02/M04 A2996 RMK SC2AS6 SLP148

CYGK;2013-12-19 21:00;CYGK 192100Z 26003KT 15SM BKN029 OVC180 02/M04 A2998 RMK SC7AS1 SLP158

CYGK;2013-12-19 22:00;CYGK 192200Z 20008KT 15SM BKN027 OVC170 01/M03 A3000 RMK SC6AS2 SLP162

CYGK;2013-12-19 23:00;CYGK 192300Z 23005KT 15SM OVC025 01/M03 A3002 RMK SC8 SLP170

CYGK;2013-12-20 00:00;CYGK 200000Z 24005KT 15SM OVC025 01/M03 A3004 RMK SC8 SLP178

CYGK;2013-12-20 01:00;CYGK 200100Z 23005KT 12SM OVC024 01/M02 A3004 RMK SC8 SLP178

CYGK;2013-12-20 02:00;CYGK 200200Z 23004KT 12SM OVC023 01/M02 A3004 RMK SC8 SLP176

CYGK;2013-12-20 03:00;CYGK 200300Z 33003KT 12SM BKN022 OVC120 01/M02 A3005 RMK SC7AC1 SLP179

CYGK;2013-12-20 04:00;CYGK 200400Z 00000KT 12SM FEW022 OVC029 00/M02 A3005 RMK SC2SC6 LAST OBS/NEXT 201100 UTC SLP179

CYGK;2013-12-20 11:00;CYGK 201100Z 05006KT 2SM -FZDZ BR SCT008 OVC015 M00/M01 A2992 RMK SF4SC4 SLP136

CYGK;2013-12-20 11:44;CYGK 201144Z 04007KT 2SM -FZDZ BR BKN003 OVC015 M00/M01 A2992 RMK SF5SC3 SLP136

CYGK;2013-12-20 12:00;CYGK 201200Z 05008KT 2 1/2SM -FZDZ BR SCT003 BKN015 OVC030 M00/M01 A2990 RMK SF3SC2SC3 TEMP M0.3 PRESFR SLP130

CYGK;2013-12-20 12:37;CYGK 201237Z 03008KT 2 1/2SM -SHPLSN BR BKN003 OVC030 M00/M01 A2990 RMK SF5CU3 SLP128

CYGK;2013-12-20 13:00;CYGK 201300Z 04009KT 2 1/2SM -SHPL BR BKN003 OVC030TCU M00/M01 A2989 RMK SF5TCU3 SLP126

CYGK;2013-12-20 13:22;CYGK 201322Z 05009KT 2SM -FZDZ BR BKN003 OVC012 M00/M01 A2988 RMK FG2SF4CU2 TEMP M0.3 SLP123

CYGK;2013-12-20 14:00;CYGK 201400Z 04010KT 2SM -FZDZ BR BKN003 OVC010 M01/M01 A2988 RMK FG2SF4SC2 TEMP M0.5 SLP123

CYGK;2013-12-20 15:00;CYGK 201500Z 03007KT 2SM -FZDZ BR BKN003 OVC010 M01/M01 A2990 RMK FG2SF4SC2 SLP130

CYGK;2013-12-20 15:48;CYGK 201548Z 02009KT 3SM BR BKN004 OVC009 M01/M02 A2990 RMK SF6SC2 SLP128

CYGK;2013-12-20 16:00;CYGK 201600Z 01012KT 3SM BR BKN005 OVC009 M01/M02 A2989 RMK SF7SC1 SLP127

CYGK;2013-12-20 16:21;CYGK 201621Z 02014KT 2SM -FZDZ BR OVC006 M01/M03 A2989 RMK SF8 SLP125

CYGK;2013-12-20 16:49;CYGK 201649Z 02012KT 2SM -FZDZ BR BKN005 OVC011 M02/M03 A2988 RMK SF6SC2 SLP124

CYGK;2013-12-20 17:00;CYGK 201700Z 02012G17KT 2 1/2SM -FZDZ BR BKN005 OVC011 M02/M03 A2988 RMK SF6SC2 SLP124

CYGK;2013-12-20 17:33;CYGK 201733Z 03011G19KT 2SM -FZRA BR BKN005 OVC010 M02/M03 A2988 RMK FG2SF3CU3 SLP122

CYGK;2013-12-20 18:00;CYGK 201800Z 03014G19KT 2SM -FZRA BR OVC006 M02/M04 A2987 RMK FG2NS6 SLP121

CYGK;2013-12-20 18:47;CYGK 201847Z 04013G19KT 3SM -FZRA -PL BR FEW005 OVC014 M03/M05 A2987 RMK SF2SC6 SLP120

CYGK;2013-12-20 19:00;CYGK 201900Z 04009G17KT 4SM -FZRA -PLSN BR FEW005 OVC014 M03/M05 A2987 RMK SF1SC7 SLP118

CYGK;2013-12-20 19:20;CYGK 201920Z 04012G18KT 4SM -FZRA -PL BR FEW005 OVC014 M04/M05 A2987 RMK SF1SC7 SLP119

CYGK;2013-12-20 20:00;CYGK 202000Z 04013KT 5SM -FZRA -PL BR SCT006 OVC012 M04/M06 A2987 RMK SF4SC4 SLP120

CYGK;2013-12-20 20:16;CYGK 202016Z 03012KT 4SM -FZDZ BR OVC012 M04/M06 A2987 RMK ST8 SLP119

CYGK;2013-12-20 20:36;CYGK 202036Z 03015G21KT 2 1/2SM -FZDZ -PL BR OVC012 M05/M07 A2987 RMK ST8 SLP118

CYGK;2013-12-20 20:41;CYGK 202041Z 04015G21KT 2 1/2SM -FZRA -PL BR OVC012 M05/M06 A2987 RMK ST8 SLP118

CYGK;2013-12-20 21:00;CYGK 202100Z 03010KT 4SM -FZDZ BR OVC012 M05/M06 A2988 RMK ST8 SLP123

CYGK;2013-12-20 21:30;CYGK 202130Z 03012KT 4SM -FZRA BR OVC012 M05/M06 A2987 RMK SC8 SLP121

CYGK;2013-12-20 22:00;CYGK 202200Z 03012G17KT 5SM -FZRA BR SCT006 OVC012 M05/M07 A2990 RMK SF3SC5 PRESRR SLP129

CYGK;2013-12-20 22:13;CYGK 202213Z 03011G17KT 3SM -FZDZ -SN SCT007 OVC013 M05/M06 A2989 RMK SF3NS5 SLP127

CYGK;2013-12-20 23:00;CYGK 202300Z 03010G16KT 4SM -FZDZ -SN SCT006 OVC011 M05/M07 A2989 RMK SF4NS4 SLP125

CYGK;2013-12-20 23:35;CYGK 202335Z 03011KT 4SM -FZDZ BKN008 OVC012 M06/M07 A2989 RMK SF6NS2 SLP126

CYGK;2013-12-21 00:00;CYGK 210000Z 03013KT 5SM -FZDZ BKN006 OVC012 M06/M07 A2990 RMK SF6NS2 PRESRR SLP129

CYGK;2013-12-21 00:14;CYGK 210014Z 04010G17KT 5SM -FZRA BR BKN006 OVC012 M06/M07 A2990 RMK SF6NS2 SLP128

CYGK;2013-12-21 01:00;CYGK 210100Z 03013KT 6SM -FZRA BR OVC008 M05/M07 A2990 RMK SF8 SLP130

CYGK;2013-12-21 02:00;CYGK 210200Z 02012G18KT 8SM -FZRA -SN BKN007 OVC011 M05/M07 A2990 RMK SF5NS3 PRESRR SLP130

CYGK;2013-12-21 02:16;CYGK 210216Z 05012G17KT 6SM -FZRA BR SCT006 OVC011 M05/M06 A2987 RMK SF4NS4 PRESFR SLP120

CYGK;2013-12-21 03:00;CYGK 210300Z 04013G20KT 10SM -FZRA SCT007 OVC011 M05/M07 A2988 RMK SF4NS4 SLP122

CYGK;2013-12-21 03:10;CYGK 210310Z 04012G20KT 10SM -FZRA -SN OVC009 M06/M07 A2986 RMK SF8 SLP117

CYGK;2013-12-21 04:00;CYGK 210400Z 04010G16KT 10SM -FZRA -SN OVC009 M06/M07 A2985 RMK SF8 LAST OBS/NEXT 211100 UTC SLP114

CYGK;2013-12-21 11:00;CYGK 211100Z 02009KT 8SM -FZRA BKN004 OVC010 M02/M03 A2977 RMK SF5NS3 SLP087

CYGK;2013-12-21 12:00;CYGK 211200Z 01012KT 8SM -FZRA BKN004 OVC010 M02/M03 A2978 RMK SF5NS3 SLP090

CYGK;2013-12-21 12:38;CYGK 211238Z 02009KT 2SM -FZRA BR BKN004 OVC012 M02/M03 A2980 RMK FG2SF3NS3 SLP096

CYGK;2013-12-21 13:00;CYGK 211300Z 01010KT 3SM -FZRA BR BKN004 OVC013 M02/M03 A2980 RMK SF5NS3 SLP096

CYGK;2013-12-21 13:38;CYGK 211338Z 02007KT 3SM -FZDZ BKN004 OVC013 M02/M03 A2981 RMK SF5NS3 SLP099

CYGK;2013-12-21 14:00;CYGK 211400Z 02008KT 3SM -FZDZ BR SCT004 OVC008 M02/M03 A2982 RMK SF3NS5 SLP102

CYGK;2013-12-21 15:00;CYGK 211500Z 02009KT 3SM BR FEW003 OVC005 M03/M04 A2982 RMK SF1NS7 SLP101

CYGK;2013-12-21 15:34;CYGK 211534Z 36010KT 2SM -FZRA BR OVC003 M03/M04 A2986 RMK NS8 PRESRR SLP115

CYGK;2013-12-21 16:00;CYGK 211600Z 02008KT 2 1/2SM -FZRA BR BKN003 OVC008 M03/M03 A2984 RMK SF6NS2 SLP109

CYGK;2013-12-21 16:34;CYGK 211634Z 01010KT 6SM -FZRA BR OVC004 M03/M04 A2984 RMK NS8 SLP111

CYGK;2013-12-21 16:55;CYGK 211655Z 01012G18KT 5SM -FZRA BR OVC005 M03/M04 A2985 RMK NS8 SLP114

CYGK;2013-12-21 17:00;CYGK 211700Z 01014KT 5SM -FZRA BR OVC005 M03/M04 A2985 RMK NS8 SLP113

CYGK;2013-12-21 18:00;CYGK 211800Z 02010G15KT 10SM -FZRA BKN005 OVC010 M03/M04 A2984 RMK SF6NS2 SLP111

CYGK;2013-12-21 18:34;CYGK 211834Z 05008KT 8SM -FZRA SCT005 OVC015 M03/M04 A2985 RMK SF4NS4 SLP113

CYGK;2013-12-21 19:00;CYGK 211900Z 03009KT 10SM -FZRA BKN005 OVC010 M03/M04 A2987 RMK SF5NS3 SLP118

CYGK;2013-12-21 20:00;CYGK 212000Z 01011KT 12SM -FZRA OVC006 M04/M05 A2987 RMK SC8 SLP120

CYGK;2013-12-21 21:00;CYGK 212100Z 01013G19KT 12SM -FZRA BKN007 BKN015 OVC070 M04/M05 A2989 RMK SF5SC2AC1 PRESRR SLP127

CYGK;2013-12-21 22:00;CYGK 212200Z 02015G20KT 6SM -FZRA BR BKN008 OVC016 M04/M06 A2991 RMK SF6SC2 SLP135

CYGK;2013-12-21 23:00;CYGK 212300Z 02015KT 8SM -FZRA BKN008 BKN017 OVC070 M04/M05 A2992 RMK SF5NS2AC1 SLP137

CYGK;2013-12-22 00:00;CYGK 220000Z 03011G18KT 8SM -FZRA BKN008 OVC020 M04/M05 A2993 RMK SF5NS3 SLP142

CYGK;2013-12-22 01:00;CYGK 220100Z 04016G21KT 8SM -FZRA BKN009 OVC020 M04/M05 A2993 RMK SF5NS3 SLP141

CYGK;2013-12-22 02:00;CYGK 220200Z 03017KT 6SM -FZRA BR BKN009 OVC019 M04/M05 A2993 RMK SF6NS2 SLP138

CYGK;2013-12-22 02:45;CYGK 220245Z 02014G23KT 8SM -FZRA -PL SCT009 OVC021 M04/M05 A2994 RMK SF4NS4 SLP142

CYGK;2013-12-22 03:00;CYGK 220300Z 02014G20KT 6SM -FZRA -PL SCT011 OVC023 M04/M05 A2994 RMK SF3NS5 SLP143

CYGK;2013-12-22 03:08;CYGK 220308Z 02014G19KT 4SM -PL SCT012 BKN024 OVC030 M04/M06 A2994 RMK SF3SC2NS3 SLP143

CYGK;2013-12-22 04:00;CYGK 220400Z 03016KT 5SM -FZRA -PL FEW011 BKN025 OVC120 M03/M05 A2993 RMK SF2NS5AC1 LAST OBS/NEXT 221100 UTC SLP138

CYGK;2013-12-22 11:00;CYGK 221100Z 05020KT 5SM -FZDZ BR BKN009 OVC032 M04/M06 A2968 RMK SF5NS3 WND ESTD SLP055

CYGK;2013-12-22 11:42;CYGK 221142Z 04018G26KT 9SM BKN013 OVC031 M04/M06 A2973 RMK SF7NS1 PRESRR SLP071

CYGK;2013-12-22 12:00;CYGK 221200Z 03018G27KT 9SM BKN013 OVC030 M05/M07 A2973 RMK SF7NS1 PRESRR SLP074

CYGK;2013-12-22 13:00;CYGK 221300Z 03018G27KT 11SM BKN011 OVC030 M05/M07 A2977 RMK ST7NS1 PRESRR SLP087

CYGK;2013-12-22 13:45;CYGK 221345Z 03020G29KT 4SM -FZDZ BR OVC010 M05/M07 A2980 RMK ST8 PRESRR SLP097

CYGK;2013-12-22 13:53;CYGK 221353Z 03017G29KT 2SM -FZDZ BR OVC009 M05/M07 A2978 RMK ST8 PRESFR SLP090

CYGK;2013-12-22 14:00;CYGK 221400Z 04020G26KT 2SM -FZDZ BR OVC009 M05/M07 A2978 RMK ST8 PRESFR SLP088

CYGK;2013-12-22 14:23;CYGK 221423Z 04017G28KT 5SM -FZDZ BR OVC008 M05/M07 A2977 RMK ST8 SLP086

CYGK;2013-12-22 15:00;CYGK 221500Z 05019G30KT 11SM OVC008 M06/M07 A2973 RMK ST8 PRESFR SLP072

CYGK;2013-12-22 16:00;CYGK 221600Z 04015G24KT 10SM OVC007 M06/M07 A2974 RMK ST8 SLP077

CYGK;2013-12-22 16:49;CYGK 221649Z 05013G26KT 11SM -FZDZ OVC006 M06/M07 A2971 RMK ST8 SLP066

CYGK;2013-12-22 17:00;CYGK 221700Z 04012G20KT 11SM -FZDZ OVC006 M06/M07 A2970 RMK ST8 SLP063

CYGK;2013-12-22 18:00;CYGK 221800Z 03012G20KT 9SM -FZDZ OVC006 M06/M07 A2971 RMK ST8 VIS W 2 SLP064

CYGK;2013-12-22 18:31;CYGK 221831Z 04014KT 2SM -FZRA BR OVC006 M06/M07 A2971 RMK ST8 SLP066

CYGK;2013-12-22 19:00;CYGK 221900Z 03012KT 2 1/2SM -FZDZ BR OVC006 M06/M07 A2971 RMK ST8 FOR STORM CENTER CYUL TOTAL ICE 2.0 CM SLP067

CYGK;2013-12-22 20:00;CYGK 222000Z 03011KT 10SM -FZDZ OVC007 M05/M07 A2975 RMK ST8 SLP079

CYGK;2013-12-22 20:40;CYGK 222040Z 03012KT 12SM FEW007 OVC010 M06/M07 A2976 RMK SF2SC6 SLP083

CYGK;2013-12-22 21:00;CYGK 222100Z 04009G16KT 12SM FEW007 OVC012 M06/M07 A2978 RMK SF2SC6 SLP090

CYGK;2013-12-22 21:24;CYGK 222124Z 03011KT 2 1/2SM BR FEW006 OVC010 M06/M07 A2980 RMK SF1ST7 SLP095

CYGK;2013-12-22 21:42;CYGK 222142Z 03009KT 4SM BR SCT005 OVC010 M06/M07 A2980 RMK SF3ST5 SLP097

CYGK;2013-12-22 22:00;CYGK 222200Z 03007KT 4SM BR BKN005 OVC010 M06/M07 A2983 RMK SF6ST2 PRESRR SLP107

CYGK;2013-12-22 22:49;CYGK 222249Z 04007KT 15SM FEW005 OVC009 M06/M07 A2985 RMK SF2ST6 SLP113

CYGK;2013-12-22 23:00;CYGK 222300Z 02006KT 15SM SCT005 OVC007 M06/M07 A2986 RMK SF3ST5 PRESRR SLP118

CYGK;2013-12-23 00:00;CYGK 230000Z 04006KT 12SM SCT005 OVC007 M06/M07 A2990 RMK SF3ST5 PRESRR SLP129

CYGK;2013-12-23 00:47;CYGK 230047Z 04003KT 4SM BR OVC004 M06/M06 A2991 RMK SF8 SLP133

CYGK;2013-12-23 01:00;CYGK 230100Z 03006KT 5SM BR OVC004 M06/M06 A2991 RMK SF8 SLP134

CYGK;2013-12-23 01:21;CYGK 230121Z 04006KT 5SM BR OVC003 M06/M06 A2992 RMK SF8 SLP136

CYGK;2013-12-23 02:00;CYGK 230200Z 03003KT 8SM OVC003 M06/M06 A2994 RMK ST8 SLP144

CYGK;2013-12-23 03:00;CYGK 230300Z 04004KT 6SM BR OVC003 M05/M06 A2996 RMK ST8 SLP152

CYGK;2013-12-23 03:12;CYGK 230312Z 03004KT 3SM BR OVC002 M05/M06 A2996 RMK ST8 SLP150

CYGK;2013-12-23 03:38;CYGK 230338Z 01004KT 6SM BR SCT004 BKN008 OVC015 M05/M06 A2996 RMK SF4ST3CU1 SLP149

CYGK;2013-12-23 04:00;CYGK 230400Z 02005KT 8SM SCT004 OVC030 M05/M06 A2995 RMK SF3SC5 LAST OBS/NEXT 231115 UTC SLP146

CYGK;2013-12-23 11:00;CYGK 231100Z 01005KT 10SM FEW012 OVC020 M03/M04 A2999 RMK SC1SC7 SLP160

CYGK;2013-12-23 11:07;CYGK 231107Z 36006KT 5SM -SN FEW012 OVC020 M03/M04 A2999 RMK SC2SC6 SLP162

CYGK;2013-12-23 12:00;CYGK 231200Z 02004KT 5SM -SN OVC020 M04/M04 A3001 RMK SC8 SLP167

CYGK;2013-12-23 13:00;CYGK 231300Z 04004KT 4SM -SN FEW008 BKN020 OVC027 M04/M05 A3002 RMK SF1SC7SC1 SF TR SLP172

CYGK;2013-12-23 13:36;CYGK 231336Z 08004KT 1SM -SN OVC019 M04/M05 A3004 RMK SN2NS6 PRESRR SLP179

CYGK;2013-12-23 14:00;CYGK 231400Z 03003KT 1 1/4SM -SN OVC020 M04/M05 A3004 RMK SN4NS4 SLP179

CYGK;2013-12-23 14:38;CYGK 231438Z 04004KT 2SM -SN BR OVC024 M04/M05 A3005 RMK NS8 SLP182

CYGK;2013-12-23 15:00;CYGK 231500Z 03004KT 2SM -SN BR OVC025 M04/M05 A3006 RMK NS8 SLP185

CYGK;2013-12-23 15:34;CYGK 231534Z 02002KT 5SM -SN BR SCT004 OVC015 M04/M05 A3008 RMK SF3NS5 SLP191

CYGK;2013-12-23 16:00;CYGK 231600Z 33003KT 4SM BR BKN003 OVC015 M04/M04 A3008 RMK SF5NS3 SLP192

CYGK;2013-12-23 16:32;CYGK 231632Z 33003KT 6SM BR FEW003 BKN016 OVC024 M03/M04 A3007 RMK SF2SC5SC1 SLP189

CYGK;2013-12-23 17:00;CYGK 231700Z 30002KT 5SM BR FEW003 BKN016 OVC021 M03/M04 A3007 RMK SF1SC5SC2 SLP188

CYGK;2013-12-23 18:00;CYGK 231800Z 32005KT 10SM FEW005 OVC025 M03/M05 A3007 RMK SF2SC6 SLP189

CYGK;2013-12-23 19:00;CYGK 231900Z 28005KT 12SM FEW007 OVC030 M02/M04 A3009 RMK SF2SC6 SLP194

CYGK;2013-12-23 20:00;CYGK 232000Z 26007KT 15SM FEW007 BKN037 OVC100 M03/M05 A3011 RMK SF1SC6AC1 SLP202

CYGK;2013-12-23 21:00;CYGK 232100Z 28009KT 15SM OVC039 M03/M07 A3014 RMK SC8 SLP210

CYGK;2013-12-23 22:00;CYGK 232200Z 27008KT 15SM FEW010 BKN045 OVC055 M04/M07 A3018 RMK SF1SC7SC1 SF TR SLP224

CYGK;2013-12-23 23:00;CYGK 232300Z 27013G21KT 15SM OVC050 M05/M09 A3020 RMK SC8 SLP233

CYGK;2013-12-24 00:00;CYGK 240000Z 29008KT 15SM FEW050 M06/M10 A3023 RMK SC1 SLP241

CYGK;2013-12-24 01:00;CYGK 240100Z 30008G17KT 15SM SKC M08/M11 A3024 RMK SLP247

CYGK;2013-12-24 02:00;CYGK 240200Z 30007KT 15SM SKC M08/M11 A3026 RMK SLP254

CYGK;2013-12-24 03:00;CYGK 240300Z 27008KT 15SM SKC M09/M12 A3027 RMK SLP258

CYGK;2013-12-24 04:00;CYGK 240400Z 28008KT 15SM SKC M10/M13 A3026 RMK LAST OBS/NEXT 241100 UTC SLP253

CYGK;2013-12-24 11:00;CYGK 241100Z 35005KT 15SM SCT030 M15/M17 A3028 RMK SC3 SLP260

CYGK;2013-12-24 12:00;CYGK 241200Z 01005KT 15SM FEW012 FEW030 M16/M17 A3027 RMK CU1SC2 CU TR SLP256

CYGK;2013-12-24 12:29;CYGK 241229Z 02007KT 15SM SCT004 SCT012 BKN030 M15/M16 A3026 RMK ST4CU1SC1 CU TR SLP255

CYGK;2013-12-24 12:45;CYGK 241245Z 01008KT 15SM BKN005 BKN012 BKN030 M15/M16 A3027 RMK ST5SC1SC2 SC TR SLP257

CYGK;2013-12-24 13:00;CYGK 241300Z 02008KT 15SM SCT006 SCT012 BKN030 BKN090 M14/M16 A3026 RMK ST4SC1SC2AC1 SC TR SLP255

CYGK;2013-12-24 14:00;CYGK 241400Z 02009KT 15SM FEW005 FEW060 M15/M17 A3028 RMK ST1SC1 SLP261

CYGK;2013-12-24 15:00;CYGK 241500Z 02007KT 15SM FEW006 FEW075 M14/M17 A3029 RMK SF1AC1 SF TR SLP265

CYGK;2013-12-24 16:00;CYGK 241600Z 02007KT 15SM FEW008 FEW075 FEW250 M14/M18 A3030 RMK SF1AC1CI1 SF TR SLP267

CYGK;2013-12-24 17:00;CYGK 241700Z 01006KT 15SM FEW008 FEW060 BKN082 M14/M17 A3028 RMK SF1SC1AC4 SLP260

CYGK;2013-12-24 18:00;CYGK 241800Z 03004KT 15SM SCT015 BKN082 M13/M16 A3026 RMK CF4AC1 SLP255

CYGK;2013-12-24 19:00;CYGK 241900Z 35006KT 15SM SCT015 SCT250 M12/M16 A3027 RMK CU4CI1 CI TR SLP257

CYGK;2013-12-24 20:00;CYGK 242000Z 35007KT 15SM SCT015 M13/M16 A3028 RMK CU3 SLP263

CYGK;2013-12-24 21:00;CYGK 242100Z 33005KT 15SM SCT017 M13/M16 A3031 RMK SC4 SLP273

CYGK;2013-12-24 22:00;CYGK 242200Z 33004KT 15SM FEW013 SCT020 M14/M16 A3034 RMK CF1SC4 CF TR SLP282

CYGK;2013-12-24 23:00;CYGK 242300Z 34004KT 15SM BKN022 M14/M17 A3036 RMK SC6 SLP290

CYGK;2013-12-24 23:36;CYGK 242336Z 33005KT 15SM -SN FEW023 BKN040 OVC250 M14/M17 A3039 RMK SC1SC4CS3 SLP298

CYGK;2013-12-25 00:00;CYGK 250000Z 33005KT 15SM -SN FEW075 BKN250 M15/M18 A3039 RMK AC2CS4 SLP300

CYGK;2013-12-25 00:34;CYGK 250034Z 32007KT 15SM FEW075 SCT250 M15/M18 A3041 RMK AC1CS2 SLP305

CYGK;2013-12-25 01:00;CYGK 250100Z 32006KT 15SM FEW080 FEW250 M15/M19 A3042 RMK AC1CI2 AC TR SLP309

CYGK;2013-12-25 02:00;CYGK 250200Z 33008KT 15SM FEW140 M16/M20 A3044 RMK AC1 SLP317

CYGK;2013-12-25 03:00;CYGK 250300Z 34005KT 15SM SKC M17/M20 A3045 RMK SLP321

CYGK;2013-12-25 04:00;CYGK 250400Z 33005KT 15SM SKC M17/M21 A3047 RMK LAST OBS/NEXT 251100 UTC SLP326

CYGK;2013-12-25 11:00;CYGK 251100Z 02004KT 15SM SKC M22/M24 A3055 RMK SLP354

CYGK;2013-12-25 12:00;CYGK 251200Z 36003KT 15SM FEW015 M22/M25 A3055 RMK SC1 SC TR SLP355

CYGK;2013-12-25 13:00;CYGK 251300Z 35006KT 15SM FEW015 FEW180 M24/M26 A3056 RMK SC1AC1 SC TR AC TR SLP358

CYGK;2013-12-25 14:00;CYGK 251400Z 01005KT 15SM FEW015 FEW180 SCT230 M21/M24 A3056 RMK SC1AC1CI3 SC TR AC TR SLP357

CYGK;2013-12-25 15:00;CYGK 251500Z 05007KT 15SM FEW015 SCT180 BKN230 M18/M22 A3056 RMK SC1AC3CI2 SC TR SLP356

CYGK;2013-12-25 16:00;CYGK 251600Z 06005KT 12SM FEW012 SCT160 BKN230 M16/M19 A3054 RMK SC1AC3CI3 SLP350

CYGK;2013-12-25 16:32;CYGK 251632Z 05006KT 12SM FEW007 SCT170 BKN230 M16/M18 A3052 RMK SF2AC2CI3 SLP345

CYGK;2013-12-25 17:00;CYGK 251700Z 06005KT 15SM FEW007 BKN170 BKN230 M15/M18 A3052 RMK SF2AC3CI2 SLP343

CYGK;2013-12-25 17:11;CYGK 251711Z 06005KT 12SM BKN009 BKN170 BKN230 M15/M18 A3052 RMK SF5AC1CI1 SLP344

CYGK;2013-12-25 18:00;CYGK 251800Z 07007KT 12SM SCT009 BKN140 OVC230 M14/M17 A3049 RMK SF4AC3CI1 SLP333

CYGK;2013-12-25 18:46;CYGK 251846Z 05008KT 10SM -SN SCT015 OVC130 M14/M16 A3047 RMK SC4AS4 PRESFR SLP326

CYGK;2013-12-25 19:00;CYGK 251900Z 06006KT 12SM -SN FEW015 OVC130 M14/M16 A3047 RMK SC2AS6 SLP326

CYGK;2013-12-25 19:22;CYGK 251922Z 06008KT 15SM FEW015 OVC090 M14/M16 A3046 RMK SC2AS6 SLP323

CYGK;2013-12-25 20:00;CYGK 252000Z 04007KT 15SM FEW015 SCT090 OVC130 M13/M16 A3044 RMK SC2AS2AS4 VIS LWR W SLP317

CYGK;2013-12-25 20:10;CYGK 252010Z 04007KT 15SM -SN SCT017 OVC090 M13/M15 A3044 RMK SC3AS5 VIS LWR W SLP316

CYGK;2013-12-25 21:00;CYGK 252100Z 04007KT 6SM -SN FEW013 BKN019 OVC080 M13/M15 A3043 RMK SC1SC6AS1 VIS E-S 12 SLP314

CYGK;2013-12-25 22:00;CYGK 252200Z 05010KT 12SM -SN FEW007 FEW016 BKN020 OVC070 M13/M16 A3041 RMK SF1CU2SC5AS1 SF TR VIS LWR NW-N SLP307

CYGK;2013-12-25 23:00;CYGK 252300Z 07011KT 15SM VCSH SCT016 OVC080 M13/M15 A3039 RMK CU3AC5 SLP299

CYGK;2013-12-26 00:00;CYGK 260000Z 07009KT 15SM SCT020 OVC075 M13/M15 A3036 RMK SC3AC5 SLP292

CYGK;2013-12-26 01:00;CYGK 260100Z 06006KT 15SM VCSH SCT020 OVC075 M12/M14 A3034 RMK CU4AC4 SLP285

CYGK;2013-12-26 01:19;CYGK 260119Z 06008KT 12SM -SN SCT020 OVC070 M12/M14 A3033 RMK CU4AC4 SLP282

CYGK;2013-12-26 02:00;CYGK 260200Z 05006KT 6SM -SN SCT020 OVC064 M12/M14 A3031 RMK CU3SC5 SLP274

CYGK;2013-12-26 03:00;CYGK 260300Z 06006KT 12SM -SN BKN025 OVC060 M12/M14 A3028 RMK CU6SC2 SLP262

CYGK;2013-12-26 04:00;CYGK 260400Z 05006KT 15SM -SN BKN024 OVC055 M11/M13 A3026 RMK CU6SC2 LAST OBS/NEXT 261100UTC SLP255

CYGK;2013-12-26 11:00;CYGK 261100Z 18015G21KT 8SM -SN OVC021 M02/M05 A3012 RMK SC8 CIG RAG SLP207

CYGK;2013-12-26 12:00;CYGK 261200Z 18017G24KT 5SM -SN OVC018 M03/M05 A3011 RMK SC8 SLP203

CYGK;2013-12-26 12:28;CYGK 261228Z 17019KT 2SM -SN OVC017 M03/M05 A3010 RMK SC8 SLP201

CYGK;2013-12-26 12:51;CYGK 261251Z 17017G23KT 3SM -SN FEW010 OVC017 M02/M04 A3010 RMK SC2SC6 SLP198

CYGK;2013-12-26 13:00;CYGK 261300Z 17018G23KT 3SM -SN SCT010 OVC018 M02/M04 A3010 RMK SC3SC5 SLP198

CYGK;2013-12-26 13:35;CYGK 261335Z 17018KT 2SM -SN BKN010 OVC020 M02/M04 A3009 RMK SC5SC3 SLP196

CYGK;2013-12-26 13:47;CYGK 261347Z 17017G22KT 2SM -SN DRSN OVC008 M02/M04 A3009 RMK NS8 SLP196

CYGK;2013-12-26 14:00;CYGK 261400Z 18016G24KT 2SM -SN DRSN OVC009 M02/M04 A3009 RMK NS8 SLP196

CYGK;2013-12-26 14:45;CYGK 261445Z 18018KT 1 1/2SM -SN OVC008 M02/M03 A3009 RMK NS8 SLP195

CYGK;2013-12-26 15:00;CYGK 261500Z 18017G22KT 1 1/2SM -SN DRSN BKN007 OVC012 M02/M03 A3009 RMK SF6NS2 SLP196

CYGK;2013-12-26 15:20;CYGK 261520Z 17018KT 3/4SM -SN DRSN BKN007 OVC012 M02/M03 A3009 RMK SN2SF5NS1 SLP195

CYGK;2013-12-26 15:31;CYGK 261531Z 18017G22KT 5/8SM -SN DRSN OVC005 M02/M03 A3008 RMK SN4SF4 SLP193

CYGK;2013-12-26 15:40;CYGK 261540Z 18017KT 1SM -SN DRSN BKN005 OVC010 M02/M03 A3008 RMK SN2SF5NS1 SLP193

CYGK;2013-12-26 15:49;CYGK 261549Z 19017G22KT 2SM -SN DRSN BKN005 OVC011 M01/M03 A3008 RMK SF6NS2 SLP191

CYGK;2013-12-26 16:00;CYGK 261600Z 20015G21KT 1 1/2SM -SN DRSN BKN006 OVC012 M01/M03 A3007 RMK SF5NS3 SLP190

CYGK;2013-12-26 17:00;CYGK 261700Z 22010KT 2 1/2SM -SN DRSN BKN007 BKN012 OVC027 M01/M02 A3005 RMK SF5NS2SC1 SLP181

CYGK;2013-12-26 17:20;CYGK 261720Z 22010KT 2 1/2SM -SN SCT007 BKN015 OVC021 M01/M02 A3004 RMK SF3SC3NS2 SLP178

CYGK;2013-12-26 17:46;CYGK 261746Z 21011KT 1 1/2SM -SN SCT006 BKN011 OVC020 M01/M02 A3004 RMK SN2SF2SC2NS2 SLP176

CYGK;2013-12-26 18:00;CYGK 261800Z 21010KT 3SM -SN SCT006 OVC015 M01/M02 A3003 RMK SF4CU4 SLP173

CYGK;2013-12-26 18:39;CYGK 261839Z 22012G18KT 8SM SCT006 BKN020 BKN070 M01/M02 A3003 RMK SF3SC2AC2 SLP175

CYGK;2013-12-26 19:00;CYGK 261900Z 22012KT 15SM BKN007 BKN050 M01/M02 A3003 RMK SF5SC2 SLP175

CYGK;2013-12-26 19:13;CYGK 261913Z 25013G19KT 15SM SCT007 SCT020 BKN050 BKN070 M01/M03 A3004 RMK SF3SC1SC1AC1 SLP178

CYGK;2013-12-26 20:00;CYGK 262000Z 26013G19KT 15SM FEW007 FEW020 SCT070 M02/M05 A3006 RMK SF1CU1AC1 SLP184

CYGK;2013-12-26 21:00;CYGK 262100Z 28008KT 15SM FEW007 FEW020 FEW070 M03/M06 A3009 RMK SF1CU1AC1 SF TR SLP193

CYGK;2013-12-26 22:00;CYGK 262200Z 27010KT 15SM FEW007 BKN028 BKN070 M03/M06 A3013 RMK SF1SC6AC1 SF TR SLP209

CYGK;2013-12-26 23:00;CYGK 262300Z 28006KT 15SM BKN030 OVC110 M03/M06 A3016 RMK SC7AC1 SLP217

CYGK;2013-12-27 00:00;CYGK 270000Z 30005KT 15SM FEW008 SCT040 M04/M06 A3017 RMK SF1SC4 SF TR SLP223

CYGK;2013-12-27 01:00;CYGK 270100Z 26003KT 15SM BKN058 M04/M06 A3018 RMK SC6 SLP227

CYGK;2013-12-27 02:00;CYGK 270200Z 29002KT 15SM OVC063 M04/M06 A3019 RMK SC8 SLP230

CYGK;2013-12-27 03:00;CYGK 270300Z 25008KT 15SM -SN OVC063 M03/M05 A3019 RMK SC8 SLP228

CYGK;2013-12-27 04:00;CYGK 270400Z 26007KT 15SM OVC066 M03/M05 A3019 RMK SC8 LAST OBS/NEXT 271100UTC SLP227

CYGK;2013-12-27 11:00;CYGK 271100Z 25006KT 15SM OVC060 M05/M08 A3022 RMK SC8 SLP239

CYGK;2013-12-27 12:00;CYGK 271200Z 26005KT 15SM OVC058 M05/M08 A3022 RMK SC8 SLP238

CYGK;2013-12-27 12:51;CYGK 271251Z 24004KT 12SM -SN OVC053 M05/M08 A3022 RMK SC8 SLP238

CYGK;2013-12-27 13:00;CYGK 271300Z 25003KT 12SM -SN OVC054 M05/M08 A3022 RMK SC8 SLP239

CYGK;2013-12-27 13:17;CYGK 271317Z 25005KT 2 1/2SM -SN BKN032 OVC055 M05/M08 A3022 RMK SC5SC3 SLP239

CYGK;2013-12-27 13:45;CYGK 271345Z 26006KT 1 1/2SM -SN OVC020 M05/M07 A3023 RMK SN2CU6 SLP241

CYGK;2013-12-27 14:00;CYGK 271400Z 27005KT 1SM -SN OVC018 M05/M06 A3022 RMK SN4CU4 SLP240

CYGK;2013-12-27 14:27;CYGK 271427Z 26005KT 3/4SM -SN OVC015 M04/M05 A3022 RMK SN4CU4 SLP240

CYGK;2013-12-27 15:00;CYGK 271500Z 25005KT 1SM -SN OVC015 M04/M05 A3022 RMK SN3CU5 SLP240

CYGK;2013-12-27 15:26;CYGK 271526Z 24004KT 2SM -SN FEW015 BKN021 BKN100 M03/M05 A3022 RMK SF2CU4AC1 SLP238

CYGK;2013-12-27 15:32;CYGK 271532Z 23006KT 4SM -SN FEW015 BKN021 BKN100 M03/M04 A3021 RMK SF1CU4AC2 SLP237

CYGK;2013-12-27 15:41;CYGK 271541Z 25005KT 6SM -SN SCT004 BKN020 BKN070 M03/M04 A3021 RMK SF3CU2AC1 VIS LWR S SLP237

CYGK;2013-12-27 15:48;CYGK 271548Z 24006KT 6SM -SN BKN005 BKN020 BKN070 M03/M04 A3021 RMK SF5CU1AC1 SLP237

CYGK;2013-12-27 16:00;CYGK 271600Z 26006KT 6SM -SN SCT006 BKN020 BKN065 M03/M04 A3021 RMK SF4CU1SC2 /S01/ SLP236

CYGK;2013-12-27 16:42;CYGK 271642Z 29006KT 10SM FEW006 FEW020 BKN057 M03/M05 A3020 RMK SF1CU1SC4 SLP232

CYGK;2013-12-27 17:00;CYGK 271700Z 28007KT 10SM FEW010 FEW020 BKN058 M03/M05 A3020 RMK SF1CU1SC4 SLP232

CYGK;2013-12-27 18:00;CYGK 271800Z 27009KT 12SM BKN013 BKN055 M03/M05 A3019 RMK CF5SC1 SLP228

CYGK;2013-12-27 18:19;CYGK 271819Z 28007KT 12SM BKN015 BKN230 M02/M05 A3019 RMK SC6CI1 SLP228

CYGK;2013-12-27 19:00;CYGK 271900Z 25007KT 15SM BKN017 M02/M05 A3018 RMK CU5 SLP226

CYGK;2013-12-27 20:00;CYGK 272000Z 26009KT 15SM FEW017 M02/M06 A3019 RMK CU2 SLP229

CYGK;2013-12-27 21:00;CYGK 272100Z 24006KT 15SM FEW017 SCT038 M03/M06 A3021 RMK CU1SC2 SLP235

CYGK;2013-12-27 22:00;CYGK 272200Z 27008KT 15SM FEW008 FEW015 BKN036 M03/M06 A3023 RMK SF1CU1SC6 SF TR SLP241

CYGK;2013-12-27 23:00;CYGK 272300Z 27005KT 15SM FEW015 BKN034 M03/M06 A3023 RMK CU1SC6 SLP243

CYGK;2013-12-28 00:00;CYGK 280000Z 22003KT 15SM SCT030 OVC160 M04/M07 A3022 RMK SC3AC5 SLP238

CYGK;2013-12-28 01:00;CYGK 280100Z 20006KT 15SM FEW022 BKN140 M05/M08 A3021 RMK SC2AC3 SLP235

CYGK;2013-12-28 02:00;CYGK 280200Z 20008KT 15SM BKN023 OVC160 M03/M07 A3018 RMK SC7AC1 SLP225

CYGK;2013-12-28 03:00;CYGK 280300Z 20008KT 15SM SCT024 BKN120 M03/M07 A3014 RMK SC4AC1 PRESFR SLP212

CYGK;2013-12-28 04:00;CYGK 280400Z 20009KT 15SM SCT020 BKN110 M01/M04 A3010 RMK SC3AC2 LAST OBS/NEXT 281100UTC SLP199

CYGK;2013-12-28 11:00;CYGK 281100Z 22009KT 15SM OVC035 03/M00 A2996 RMK SC8 SLP148

CYGK;2013-12-28 12:00;CYGK 281200Z 24007KT 15SM OVC035 02/00 A2997 RMK SC8 SLP152

CYGK;2013-12-28 13:00;CYGK 281300Z 25009KT 10SM OVC030 03/00 A2998 RMK SC8 SLP158

CYGK;2013-12-28 14:00;CYGK 281400Z 24007KT 10SM OVC030 03/00 A3001 RMK SC8 SLP166

CYGK;2013-12-28 15:00;CYGK 281500Z 23008KT 10SM OVC028 02/00 A3002 RMK SC8 SLP171

CYGK;2013-12-28 16:00;CYGK 281600Z 23007KT 12SM OVC025 02/00 A3003 RMK SC8 SLP172

CYGK;2013-12-28 17:00;CYGK 281700Z 23010KT 10SM OVC023 03/00 A3002 RMK SC8 SLP170

CYGK;2013-12-28 18:00;CYGK 281800Z 22009KT 10SM OVC022 02/M00 A3000 RMK SC8 SLP163

CYGK;2013-12-28 19:00;CYGK 281900Z 24007KT 12SM OVC022 02/M00 A3000 RMK SC8 SLP162

CYGK;2013-12-28 20:00;CYGK 282000Z 23007KT 10SM OVC020 02/M00 A3000 RMK SC8 SLP162

CYGK;2013-12-28 21:00;CYGK 282100Z 23009KT 10SM OVC020 02/00 A3000 RMK SC8 SLP163

CYGK;2013-12-28 22:00;CYGK 282200Z 24009KT 12SM OVC018 03/00 A3001 RMK SC8 SLP164

CYGK;2013-12-28 23:00;CYGK 282300Z 23007KT 12SM BKN019 OVC027 02/00 A3001 RMK SC5SC3 SLP166

CYGK;2013-12-29 00:00;CYGK 290000Z 21007KT 12SM OVC027 02/00 A3004 RMK SC8 SLP177

CYGK;2013-12-29 01:00;CYGK 290100Z 23007KT 12SM BKN028 02/M00 A3004 RMK SC6 SLP175

CYGK;2013-12-29 02:00;CYGK 290200Z 19006KT 12SM SCT030 BKN120 01/M00 A3000 RMK SC3AC3 SLP163

CYGK;2013-12-29 03:00;CYGK 290300Z 21005KT 12SM SCT120 01/M00 A2999 RMK AC3 SLP161

CYGK;2013-12-29 04:00;CYGK 290400Z 19006KT 12SM SCT120 01/00 A2997 RMK AC3 LAST OBS/NEXT 291100 UTC SLP152

CYGK;2013-12-29 11:00;CYGK 291100Z 18007KT 15SM OVC220 03/01 A2984 RMK CI8 SLP110

CYGK;2013-12-29 12:00;CYGK 291200Z 19006KT 15SM OVC220 03/01 A2983 RMK CI8 SLP105

CYGK;2013-12-29 13:00;CYGK 291300Z 19009KT 15SM OVC220 03/01 A2984 RMK CI8 SLP107

CYGK;2013-12-29 14:00;CYGK 291400Z 18011KT 15SM FEW150 OVC210 04/01 A2980 RMK AC2CI6 SLP095

CYGK;2013-12-29 15:00;CYGK 291500Z 18010KT 15SM OVC220 04/01 A2979 RMK CI8 SLP093

CYGK;2013-12-29 16:00;CYGK 291600Z 18010KT 15SM OVC200 04/01 A2976 RMK CI8 PRESFR SLP082

CYGK;2013-12-29 17:00;CYGK 291700Z 19010KT 15SM OVC180 03/01 A2973 RMK AC8 SLP070

CYGK;2013-12-29 18:00;CYGK 291800Z 18013G19KT 15SM OVC150 04/01 A2969 RMK AC8 SLP057

CYGK;2013-12-29 19:00;CYGK 291900Z 20007KT 15SM OVC120 04/01 A2965 RMK AC8 SLP044

CYGK;2013-12-29 20:00;CYGK 292000Z 22005KT 15SM OVC120 04/01 A2964 RMK AC8 SLP040

CYGK;2013-12-29 21:00;CYGK 292100Z 22004KT 15SM FEW025 OVC100 03/02 A2963 RMK SC1AC8 SC TR SLP038

CYGK;2013-12-29 22:00;CYGK 292200Z 18010KT 15SM FEW025 BKN110 03/02 A2961 RMK SC1AC6 SC TR SLP031

CYGK;2013-12-29 23:00;CYGK 292300Z 19010KT 12SM FEW006 SCT037 OVC110 03/02 A2961 RMK SF2SC2AC4 SLP029

CYGK;2013-12-29 23:13;CYGK 292313Z 20012KT 10SM FEW002 BKN006 OVC035 03/03 A2961 RMK SF1SF4SC3 SLP031

CYGK;2013-12-30 00:00;CYGK 300000Z 20010KT 10SM BKN005 OVC034 03/03 A2961 RMK SF5SC3 SLP028

CYGK;2013-12-30 00:23;CYGK 300023Z 21009KT 12SM FEW005 BKN032 BKN200 04/03 A2960 RMK SF2SC3CI2 SLP028

CYGK;2013-12-30 01:00;CYGK 300100Z 21010KT 12SM FEW004 BKN037 BKN180 03/03 A2960 RMK SF2SC4AC1 SLP028

CYGK;2013-12-30 02:00;CYGK 300200Z 25006KT 15SM BKN034 03/01 A2961 RMK SC5 SLP028

CYGK;2013-12-30 03:00;CYGK 300300Z 22008KT 15SM BKN041 03/M01 A2960 RMK SC7 SLP026

CYGK;2013-12-30 04:00;CYGK 300400Z 27016G23KT 15SM FEW015 SCT031 OVC045 02/M02 A2963 RMK SC2SC2SC4 LAST OBS/NEXT 301100 UTC SLP036

CYGK;2013-12-30 11:00;CYGK 301100Z 27011G18KT 15SM -SN OVC023 M10/M14 A2996 RMK SC8 PRESRR SLP152

CYGK;2013-12-30 12:00;CYGK 301200Z 27011G17KT 15SM BKN020 M11/M15 A3004 RMK SC7 PRESRR SLP176

CYGK;2013-12-30 13:00;CYGK 301300Z 28010KT 15SM FEW020 M13/M17 A3009 RMK SC2 SLP196

CYGK;2013-12-30 14:00;CYGK 301400Z 29011KT 15SM FEW018 M13/M18 A3013 RMK CF1 CF TR SLP209

CYGK;2013-12-30 15:00;CYGK 301500Z 33012KT 15SM FEW020 M14/M19 A3016 RMK CF1 CF TR SLP218

CYGK;2013-12-30 16:00;CYGK 301600Z 30010KT 15SM FEW020 M13/M21 A3018 RMK CF1 CF TR SLP226

CYGK;2013-12-30 17:00;CYGK 301700Z 31008KT 15SM FEW020 M13/M21 A3018 RMK CF1 CF TR SLP226

CYGK;2013-12-30 18:00;CYGK 301800Z 30010KT 15SM FEW020 FEW250 M12/M20 A3019 RMK CF1CI2 CF TR SLP228

CYGK;2013-12-30 19:00;CYGK 301900Z 29007KT 15SM FEW020 FEW250 M11/M20 A3019 RMK CF1CI1 CF TR CI TR SLP229

CYGK;2013-12-30 20:00;CYGK 302000Z 32007KT 15SM FEW020 M12/M21 A3020 RMK CF1 CF TR SLP232

CYGK;2013-12-30 21:00;CYGK 302100Z 35006KT 15SM FEW020 M12/M22 A3020 RMK CF1 CF TR SLP235

CYGK;2013-12-30 22:00;CYGK 302200Z 34003KT 15SM FEW020 FEW230 M12/M21 A3022 RMK SC1CI1 SC TR CI TR SLP241

CYGK;2013-12-30 23:00;CYGK 302300Z 28006KT 15SM SKC M13/M20 A3024 RMK SLP246

CYGK;2013-12-31 00:00;CYGK 310000Z 28005KT 15SM FEW180 M14/M20 A3023 RMK AC1 AC TR SLP243

CYGK;2013-12-31 01:00;CYGK 310100Z 30006KT 15SM BKN160 M14/M21 A3025 RMK AC5 SLP252

CYGK;2013-12-31 02:00;CYGK 310200Z 32005KT 15SM BKN160 M14/M21 A3024 RMK AC7 SLP248

CYGK;2013-12-31 03:00;CYGK 310300Z 33005KT 15SM OVC150 M14/M21 A3023 RMK AC8 SLP246

CYGK;2013-12-31 04:00;CYGK 310400Z 35006KT 15SM OVC140 M15/M20 A3023 RMK AC8 LAST OBS/NEXT 311100 UTC SLP244

CYGK;2013-12-31 11:00;CYGK 311100Z 10009KT 15SM OVC047 M12/M20 A3008 RMK SC8 SLP195

CYGK;2013-12-31 12:00;CYGK 311200Z 10010KT 15SM OVC050 M11/M20 A3007 RMK SC8 SLP189

CYGK;2013-12-31 13:00;CYGK 311300Z 10010KT 15SM SCT050 OVC070 M11/M17 A3003 RMK SC4AS4 SN DIST SW-W SLP178

CYGK;2013-12-31 13:16;CYGK 311316Z 10010KT 12SM -SN FEW036 OVC060 M11/M15 A3002 RMK SC2NS6 VIS S 5 VIS SW 3 SLP173

CYGK;2013-12-31 14:00;CYGK 311400Z 10011KT 6SM -SN OVC025 M10/M13 A3001 RMK SC8 VIS S-W 3 SLP169

CYGK;2013-12-31 14:10;CYGK 311410Z 11012KT 2SM -SN VV010 M10/M13 A3001 RMK SN8 SLP168

CYGK;2013-12-31 14:13;CYGK 311413Z 11011KT 1SM -SN VV007 M10/M13 A3001 RMK SN8 SLP168

CYGK;2013-12-31 14:18;CYGK 311418Z 10011KT 1/2SM SN VV005 M10/M12 A3000 RMK SN8 SLP167

CYGK;2013-12-31 14:45;CYGK 311445Z 10013KT 3/8SM SN VV006 M10/M12 A2999 RMK SN8 SLP162

CYGK;2013-12-31 14:54;CYGK 311454Z 10010KT 1/4SM +SN VV004 M10/M12 A2999 RMK SN8 SLP162

CYGK;2013-12-31 15:00;CYGK 311500Z 09011KT 1/8SM +SN VV003 M10/M11 A2999 RMK SN8 /S03/ SLP161

CYGK;2013-12-31 15:06;CYGK 311506Z 09010KT 3/8SM SN VV005 M10/M11 A2999 RMK SN8 SLP161

CYGK;2013-12-31 15:13;CYGK 311513Z 10010KT 1/4SM +SN VV003 M10/M11 A2998 RMK SN8 SLP160

CYGK;2013-12-31 15:28;CYGK 311528Z 09009KT 1/2SM SN VV005 M10/M12 A2998 RMK SN8 SLP159

CYGK;2013-12-31 15:31;CYGK 311531Z 09010KT 3/4SM -SN OVC016 M10/M12 A2998 RMK SN4SF4 SLP159

CYGK;2013-12-31 15:51;CYGK 311551Z 09009KT 1SM -SN OVC018 M09/M11 A2997 RMK SN2SF6 SLP156

CYGK;2013-12-31 16:00;CYGK 311600Z CCA 06008KT 2SM -SN FEW010 BKN020 BKN040 BKN250 M09/M11 A2996 RMK SF1CU4SC1CI1 /S06/ SLP154

CYGK;2013-12-31 16:05;CYGK 311605Z 06010KT 6SM -SN FEW010 SCT020 BKN040 BKN090 M09/M11 A2996 RMK SF1CU3SC2AC2 SF TR SLP153

CYGK;2013-12-31 16:19;CYGK 311619Z 04007KT 8SM -SN FEW008 SCT015 BKN040 BKN090 M09/M11 A2996 RMK SF2CU2SC2AC1 SLP151

CYGK;2013-12-31 16:27;CYGK 311627Z 04006KT 2 1/2SM -SN FEW005 BKN012 OVC040 M09/M11 A2995 RMK SF2CU4SC2 SLP150

CYGK;2013-12-31 16:37;CYGK 311637Z 05007KT 3SM -SN FEW005 BKN012 OVC040 M09/M11 A2995 RMK SF1CU4SC3 SLP148

CYGK;2013-12-31 17:00;CYGK 311700Z 05006KT 2 1/2SM -SN FEW005 OVC020 M09/M11 A2994 RMK SF1CU7 SLP145

CYGK;2013-12-31 17:16;CYGK 311716Z 01006KT 1 1/2SM -SN OVC020 M09/M11 A2994 RMK SN2SC6 SLP144

CYGK;2013-12-31 17:22;CYGK 311722Z 01007KT 3/4SM -SN OVC020 M09/M11 A2993 RMK SN4SC4 SLP143

CYGK;2013-12-31 17:46;CYGK 311746Z 34005KT 3/4SM -SN VV009 M08/M10 A2994 RMK SN8 SLP144

CYGK;2013-12-31 18:00;CYGK 311800Z 33003KT 3/4SM -SN VV008 M08/M10 A2994 RMK SN8 /S07/ SLP146

CYGK;2013-12-31 18:06;CYGK 311806Z 33003KT 3/8SM SN VV005 M08/M10 A2994 RMK SN8 SLP146

CYGK;2013-12-31 18:17;CYGK 311817Z 28004KT 1SM -SN VV008 M08/M09 A2995 RMK SN8 SLP148

CYGK;2013-12-31 18:32;CYGK 311832Z 26009KT 1 1/2SM -SN SCT010 OVC020 M07/M10 A2995 RMK CU3SC5 SLP149

CYGK;2013-12-31 18:43;CYGK 311843Z 28011G17KT 5SM -SN DRSN FEW015 BKN028 BKN060 M07/M10 A2995 RMK CU2SC3SC2 SLP149

CYGK;2013-12-31 19:00;CYGK 311900Z 27012G18KT 6SM -SN FEW015 SCT028 BKN060 M07/M10 A2996 RMK CF1SC2SC4 SLP152

CYGK;2013-12-31 19:19;CYGK 311919Z 28008KT 15SM FEW015 SCT045 BKN070 OVC250 M08/M11 A2996 RMK CF1SC3AC3CI2 CF TR SH NW SLP152

CYGK;2013-12-31 20:00;CYGK 312000Z 26009KT 15SM DRSN FEW015 FEW045 BKN085 BKN120 M07/M12 A2997 RMK CF1SC1AC4AC1 SLP157

CYGK;2013-12-31 21:00;CYGK 312100Z 26014G20KT 15SM FEW015 SCT035 BKN047 M07/M13 A3001 RMK CF1SC2SC4 SLP169

CYGK;2013-12-31 22:00;CYGK 312200Z 25016G23KT 15SM DRSN FEW015 FEW045 M07/M13 A3005 RMK CF1SC2 CF TR SLP181

CYGK;2013-12-31 23:00;CYGK 312300Z 26011G17KT 15SM DRSN FEW020 SCT035 M08/M14 A3009 RMK CU2SC2 SLP195

