CYQB;2010-01-01 01:00;CYQB 010100Z 07009KT 15SM BKN046 OVC068 M05/M07 A3012 RMK SC6SC2 SLP204

CYQB;2010-01-01 02:00;CYQB 010200Z 07008KT 15SM -SN OVC057 M05/M07 A3011 RMK SC8 SLP200

CYQB;2010-01-01 03:00;CYQB 010300Z 08006KT 5SM -SN BKN016 OVC057 M05/M07 A3010 RMK SC5SC3 SLP197

CYQB;2010-01-01 04:00;CYQB 010400Z 07009KT 6SM -SN FEW020 SCT052 M05/M07 A3008 RMK SC2SC2 SLP191

CYQB;2010-01-01 05:00;CYQB 010500Z 07007KT 15SM -SN BKN067 BKN080 M05/M07 A3005 RMK AS2AC1 SLP182

CYQB;2010-01-01 06:00;CYQB 010600Z 06009KT 15SM BKN064 BKN080 M05/M07 A3004 RMK SC5AC2 SLP176

CYQB;2010-01-01 07:00;CYQB 010700Z 07011KT 15SM FEW015 BKN065 BKN085 M05/M07 A3004 RMK SC2SC5AC1 SLP176

CYQB;2010-01-01 08:00;CYQB 010800Z 07010G17KT 6SM -SN FEW015 BKN031 OVC065 M05/M07 A3003 RMK SF1SC6SC1 SLP173

CYQB;2010-01-01 09:00;CYQB 010900Z 08014KT 5SM -SN BKN010 OVC036 M05/M07 A3001 RMK SF6SC2 SLP168

CYQB;2010-01-01 10:00;CYQB 011000Z 07013G20KT 5SM -SN OVC018 M06/M07 A3001 RMK SC8 SLP166

CYQB;2010-01-01 11:00;CYQB 011100Z 07014G19KT 5SM -SN FEW010 BKN023 OVC049 M05/M07 A3000 RMK SF2SC6SC1 /S01/ SLP164

CYQB;2010-01-01 12:00;CYQB 011200Z 07011KT 1 1/2SM -SN VV008 M06/M07 A3000 RMK SN8 VIS VRB 1-2 CIG VRB 7-9 SLP163

CYQB;2010-01-01 13:00;CYQB 011300Z 07015KT 1 1/2SM -SN BKN008 OVC033 M06/M07 A3000 RMK SF5SC3 VIS VRB 1-2 SLP162

CYQB;2010-01-01 13:04;CYQB 011304Z 07012G18KT 5SM -SN SCT008 OVC033 M06/ RMK SF3SC5

CYQB;2010-01-01 14:00;CYQB 011400Z 07014G19KT 5SM -SN SCT008 OVC031 M05/M07 A2999 RMK SF3SC5 VIS VRB 3-7 /S03/ SLP160

CYQB;2010-01-01 15:00;CYQB 011500Z 07014KT 1/2SM R06/6000FT/D SN VV009 M05/M07 A2998 RMK SN8 VIS VRB 1/4-1 SLP157

CYQB;2010-01-01 16:00;CYQB 011600Z 07012G18KT 1/2SM R06/P6000FT/U SN VV009 M05/M07 A2996 RMK SN8 VIS VRB 1/4-1 SLP149

CYQB;2010-01-01 17:00;CYQB 011700Z 07015G20KT 1/2SM R06/P6000FT/U SN VV008 M05/M07 A2994 RMK SN8 VIS VRB 1/4-1 /S02/ SLP143

CYQB;2010-01-01 18:00;CYQB 011800Z 07013G20KT 3/4SM R06/P6000FT/U -SN OVC013 M05/M06 A2993 RMK SN6SC2 VIS VRB 1/2-1 /S01/ SLP139

CYQB;2010-01-01 19:00;CYQB 011900Z 07016KT 2 1/2SM -SN FEW010 BKN022 OVC033 M05/M06 A2992 RMK ST1SC6SC2 SLP136

CYQB;2010-01-01 20:00;CYQB 012000Z 07015G20KT 2SM -SN SCT010 OVC037 M05/M06 A2992 RMK ST3SC5 /S02/ SLP135

CYQB;2010-01-01 21:00;CYQB 012100Z 07016G22KT 2SM -SN SCT010 OVC036 M05/M06 A2991 RMK ST3SC5 /S03/ SLP133

CYQB;2010-01-01 21:22;CYQB 012122Z 07015G22KT 3/4SM R06/P6000FT/U -SN BLSN BKN010 OVC032 M05/ RMK SN3SC3SC2 VIS VRB 1/2-1

CYQB;2010-01-01 22:00;CYQB 012200Z 08015G25KT 1 1/2SM -SN BLSN BKN011 OVC030 M05/M06 A2991 RMK SN2SC2SC3 SLP134

CYQB;2010-01-01 23:00;CYQB 012300Z 08014G21KT 1 1/2SM -SN BLSN BKN017 OVC033 M05/M06 A2991 RMK SN3SC2SC2 SLP132

CYQB;2010-01-02 00:00;CYQB 020000Z CCA 08014G21KT 1 1/2SM -SN BLSN SCT010 SCT030 OVC050 M05/M06 A2990 RMK SN2SC2SC1SC4 VIS VRB 1-2 /S05/ SLP130

CYQB;2010-01-02 01:00;CYQB 020100Z 07016G22KT 2 1/2SM -SN BLSN SCT009 SCT026 OVC047 M04/M06 A2989 RMK SN2SC2SC1SC4 SLP127

CYQB;2010-01-02 02:00;CYQB 020200Z 07017G22KT 2 1/2SM -SN BLSN OVC010 M04/M06 A2987 RMK SN3SC5 CIG VRB 8-12 /S01/ SLP119

CYQB;2010-01-02 03:00;CYQB 020300Z 08017G25KT 1SM R06/P6000FT/N -SN BLSN BKN010 OVC043 M04/M06 A2985 RMK SN3SC4SC1 CIG VRB 8-12 SLP113

CYQB;2010-01-02 04:00;CYQB 020400Z CCA 08012G24KT 5SM -SN BKN006 BKN013 OVC020 M04/M06 A2984 REBLSN RMK SF6SC1SC2 SLP109

CYQB;2010-01-02 05:00;CYQB 020500Z 08011G19KT 5SM -SN SCT010 OVC040 M04/M07 A2983 RMK SF4SC4 SLP105

CYQB;2010-01-02 06:00;CYQB 020600Z 08012G17KT 15SM BKN013 BKN020 OVC040 M04/M06 A2981 RMK SF6SC2SC1 -SN INTMT SLP098

CYQB;2010-01-02 07:00;CYQB 020700Z 08013G21KT 15SM -SN BKN010 BKN027 M04/M06 A2981 RMK SF6SC1 CIG VRB 8-12 SLP097

CYQB;2010-01-02 08:00;CYQB 020800Z 07013G19KT 12SM BKN015 BKN030 M04/M07 A2980 RMK SF6SC2 INTMT -SN CIG VRB 11-19 SLP094

CYQB;2010-01-02 09:00;CYQB 020900Z 07016G24KT 5SM -SN BKN013 M05/M07 A2979 RMK SC7 SLP092

CYQB;2010-01-02 10:00;CYQB 021000Z 07016G21KT 12SM -SN OVC014 M05/M07 A2978 RMK SC8 SLP090

CYQB;2010-01-02 11:00;CYQB 021100Z 07015G21KT 10SM -SN OVC012 M05/M07 A2978 RMK SC8 SLP089

CYQB;2010-01-02 12:00;CYQB 021200Z 08012G21KT 10SM -SN OVC014 M05/M07 A2977 RMK SC8 SLP084

CYQB;2010-01-02 12:42;CYQB 021242Z 06014G22KT 15SM OVC018 M05/ RMK SC8

CYQB;2010-01-02 13:00;CYQB 021300Z 07010G16KT 10SM -SN OVC014 M05/M07 A2976 RMK SC8 SLP083

CYQB;2010-01-02 14:00;CYQB 021400Z 06010G18KT 10SM -SN OVC020 M04/M08 A2975 RMK SC8 SLP079

CYQB;2010-01-02 15:00;CYQB 021500Z 06008G15KT 10SM -SN OVC023 M04/M08 A2975 RMK SC8 SLP080

CYQB;2010-01-02 16:00;CYQB 021600Z 05012KT 8SM -SN OVC027 M04/M09 A2973 RMK SC8 SLP071

CYQB;2010-01-02 17:00;CYQB 021700Z 06008KT 15SM FEW030 OVC070 M04/M09 A2970 RMK SC2AC6 SLP061

CYQB;2010-01-02 18:00;CYQB 021800Z 06004KT 5SM -SN VV025 M04/M09 A2969 RMK SN8 SLP057

CYQB;2010-01-02 18:14;CYQB 021814Z 07005KT 1 1/2SM -SN VV010 M04/ RMK SN8

CYQB;2010-01-02 19:00;CYQB 021900Z 09003KT 1 1/2SM -SN VV013 M05/M07 A2967 RMK SN8 SLP052

CYQB;2010-01-02 20:00;CYQB 022000Z 07005KT 1SM R06/P6000FT/N -SN FEW005 VV011 M05/M06 A2967 RMK SF2SN6 SLP052

CYQB;2010-01-02 21:00;CYQB 022100Z 06004KT 1SM R06/P6000FT/U -SN VV011 M05/M06 A2965 RMK SN8 /S01/ SLP044

CYQB;2010-01-02 22:00;CYQB 022200Z 27002KT 1 1/4SM -SN VV011 M05/M06 A2962 RMK SN8 SLP035

CYQB;2010-01-02 22:33;CYQB 022233Z 26003KT 1 1/2SM -SN OVC023 M05/ RMK SC8

CYQB;2010-01-02 23:00;CYQB 022300Z 21004KT 1 1/2SM -SN OVC021 M05/M06 A2960 RMK SC8 SLP027

CYQB;2010-01-03 00:00;CYQB 030000Z CCB 36005KT 2SM -SN OVC015 M05/M07 A2956 RMK SC8 /S02/ SLP015

CYQB;2010-01-03 01:00;CYQB 030100Z 35004KT 2 1/2SM -SN OVC019 M05/M07 A2953 RMK SC8 SLP005

CYQB;2010-01-03 02:00;CYQB 030200Z 35010G16KT 1 1/4SM -SN VV010 M05/M07 A2948 RMK SN8 /S01/ SLP988

CYQB;2010-01-03 03:00;CYQB 030300Z 35009KT 1 1/4SM -SN VV007 M05/M07 A2944 RMK SN8 /S01/ SLP972

CYQB;2010-01-03 03:41;CYQB 030341Z 35014G19KT 3/4SM R06/P6000FT/D -SN BLSN VV007 M04/ RMK SN8

CYQB;2010-01-03 04:00;CYQB 030400Z CCB 34012G19KT 1/4SM R06/4000VP6000FT/D +SN +BLSN VV004 M05/M06 A2935 RMK SN8 /S03/ PRESFR SLP943

CYQB;2010-01-03 04:23;CYQB 030423Z 35013G19KT 2 1/2SM -SN BLSN OVC033 M04/ RESN RMK SN3SC5

CYQB;2010-01-03 04:53;CYQB 030453Z 35017KT 1SM R06/P6000FT/D -SN BLSN VV009 M03/ RESN RMK SN8

CYQB;2010-01-03 05:00;CYQB 030500Z CCC 35018KT 4SM -SN BLSN OVC017 M03/M06 A2927 RESN RMK SN1SC7 VIS VRB 3-5 PRESFR /S05/ SLP916

CYQB;2010-01-03 06:00;CYQB 030600Z 35015G21KT 1/2SM R06/4000V6000FT/U SN BLSN VV005 M04/M05 A2925 RMK SN8 SLP908

CYQB;2010-01-03 07:00;CYQB 030700Z 36016G22KT 3SM -SN BLSN OVC025 M02/M05 A2923 RESN RMK SN2SC6 /S02/ SLP901

CYQB;2010-01-03 08:00;CYQB 030800Z 02010KT 10SM -SN FEW025 OVC045 M01/M05 A2923 REBLSN RMK SC2SC6 SLP902

CYQB;2010-01-03 09:00;CYQB 030900Z 06023G33KT 15SM BKN049 BKN073 04/M02 A2924 RMK SC6AC1 SLP904

CYQB;2010-01-03 10:00;CYQB 031000Z 06018G24KT 15SM SCT049 OVC061 04/M02 A2925 RMK SC4SC4 SLP907

CYQB;2010-01-03 11:00;CYQB 031100Z 06016G21KT 15SM SCT036 BKN055 04/M02 A2927 RMK SC4SC2 SLP915

CYQB;2010-01-03 12:00;CYQB 031200Z 05013G27KT 15SM OVC035 03/M02 A2930 RMK SC8 SLP925

CYQB;2010-01-03 13:00;CYQB 031300Z 05017KT 15SM OVC034 03/M02 A2933 RMK SC8 SLP936

CYQB;2010-01-03 13:51;CYQB 031351Z 06016G25KT 8SM -RA OVC034 03/ RMK SC8

CYQB;2010-01-03 14:00;CYQB 031400Z 06017G28KT 8SM -RA OVC031 03/M01 A2936 RMK SC8 SLP945

CYQB;2010-01-03 15:00;CYQB 031500Z 05010G18KT 10SM OVC030 03/M01 A2938 RMK SC8 SLP953

CYQB;2010-01-03 16:00;CYQB 031600Z 05018G27KT 15SM OVC034 04/M02 A2939 RMK SC8 SLP954

CYQB;2010-01-03 17:00;CYQB 031700Z 07012G17KT 5SM -SN OVC035 03/M02 A2940 RMK SC8 SLP958

CYQB;2010-01-03 18:00;CYQB 031800Z 08010G17KT 10SM -SN OVC034 02/M02 A2942 RMK SC8 SLP965

CYQB;2010-01-03 19:00;CYQB 031900Z 06012KT 15SM BKN040 BKN120 OVC220 03/M02 A2943 RMK SC6AC1CS1 SLP969

CYQB;2010-01-03 20:00;CYQB 032000Z 06017G24KT 15SM FEW040 BKN060 OVC150 03/M03 A2945 RMK SC2SC3AC2 SLP977

CYQB;2010-01-03 21:00;CYQB 032100Z 07011G18KT 30SM SCT040 BKN150 BKN220 02/M03 A2948 RMK SC4AC3CI1 SLP984

CYQB;2010-01-03 22:00;CYQB 032200Z 06006KT 15SM BKN040 OVC220 02/M03 A2949 RMK SC7CI1 SLP990

CYQB;2010-01-03 23:00;CYQB 032300Z 27003KT 15SM OVC040 02/M02 A2950 RMK SC8 SLP994

CYQB;2010-01-04 00:00;CYQB 040000Z 31004KT 15SM OVC040 01/M02 A2950 RMK SC8 SLP994

CYQB;2010-01-04 01:00;CYQB 040100Z 34005KT 15SM OVC045 01/M03 A2950 RMK SC8 SLP994

CYQB;2010-01-04 02:00;CYQB 040200Z 33009KT 15SM OVC045 02/M04 A2949 RMK SC8 SLP990

CYQB;2010-01-04 03:00;CYQB 040300Z 34012KT 15SM BKN047 02/M04 A2948 RMK SC7 SLP987

CYQB;2010-01-04 03:42;CYQB 040342Z 33013KT 15SM OVC052 01/ RMK SC8

CYQB;2010-01-04 04:00;CYQB 040400Z 33011KT 15SM BKN052 01/M04 A2948 RMK SC7 SLP984

CYQB;2010-01-04 05:00;CYQB 040500Z 33011G16KT 15SM BKN053 00/M05 A2947 RMK SC5 SLP981

CYQB;2010-01-04 06:00;CYQB 040600Z 33012KT 15SM BKN058 M00/M05 A2946 RMK SC6 SLP979

CYQB;2010-01-04 07:00;CYQB 040700Z 32008KT 15SM SCT060 M01/M05 A2946 RMK SC4 SLP979

CYQB;2010-01-04 08:00;CYQB 040800Z 33006KT 15SM FEW060 SCT200 M01/M06 A2946 RMK SC2CI1 SLP980

CYQB;2010-01-04 09:00;CYQB 040900Z 31008KT 15SM FEW041 FEW200 M01/M06 A2946 RMK SC2CI1 SLP979

CYQB;2010-01-04 10:00;CYQB 041000Z 32010KT 15SM FEW041 SCT160 SCT200 M01/M06 A2946 RMK SC2AC2CI1 SLP979

CYQB;2010-01-04 11:00;CYQB 041100Z 31010KT 15SM BKN049 BKN075 M01/M06 A2946 RMK SC5AC2 SLP978

CYQB;2010-01-04 12:00;CYQB 041200Z 15003KT 15SM BKN040 OVC110 M00/M05 A2947 RMK SC6AC2 SLP983

CYQB;2010-01-04 13:00;CYQB 041300Z 26010KT 15SM BKN047 OVC110 M01/M05 A2948 RMK SC6AC2 SLP985

CYQB;2010-01-04 14:00;CYQB 041400Z 25012KT 25SM BKN037 BKN080 M02/M05 A2950 RMK SC6AC1 SLP992

CYQB;2010-01-04 15:00;CYQB 041500Z 25014KT 30SM BKN033 BKN070 M01/M04 A2951 RMK SC6AC1 SLP996

CYQB;2010-01-04 16:00;CYQB 041600Z 23011KT 30SM BKN031 OVC060 00/M03 A2951 RMK SC7SC1 SLP996

CYQB;2010-01-04 17:00;CYQB 041700Z 22014KT 30SM FEW030 BKN060 M00/M03 A2950 RMK SC2SC4 SLP994

CYQB;2010-01-04 18:00;CYQB 041800Z 22018KT 30SM SCT040 OVC070 M00/M04 A2950 RMK SC3AC5 SLP994

CYQB;2010-01-04 19:00;CYQB 041900Z 23018KT 30SM BKN040 OVC070 M01/M04 A2951 RMK SC6AC1 DIST SH E SLP998

CYQB;2010-01-04 20:00;CYQB 042000Z 23019G25KT 15SM VCSH BKN031 OVC070 M02/M05 A2954 RMK SC7AC1 SLP006

CYQB;2010-01-04 21:00;CYQB 042100Z 24017KT 15SM -PL OVC035 M02/M05 A2955 RMK SC8 VIS E 6 SLP010

CYQB;2010-01-04 22:00;CYQB 042200Z 23016G21KT 10SM -SHSN SCT014 OVC030 M03/M06 A2956 REPL RMK SF4SC4 VIS E 4 SLP013

CYQB;2010-01-04 23:00;CYQB 042300Z 23015KT 4SM -SHSN BKN019 OVC030 M03/M05 A2957 RMK SF6SC2 SLP016

CYQB;2010-01-04 23:26;CYQB 042326Z 23015KT 2SM -SHSN VV011 M04/ RMK SN8

CYQB;2010-01-05 00:00;CYQB 050000Z 23015KT 2SM -SHSN VV010 M04/M05 A2958 RMK SN8 SLP020

CYQB;2010-01-05 00:37;CYQB 050037Z 22014KT 3SM -SHSN BKN017 OVC035 M04/ RMK SF6SC2

CYQB;2010-01-05 01:00;CYQB 050100Z 23015KT 4SM -SHSN BKN019 OVC035 M04/M06 A2959 RMK SC6SC2 SLP022

CYQB;2010-01-05 02:00;CYQB 050200Z 22014KT 5SM -SHSN FEW015 BKN044 OVC080 M04/M06 A2959 RMK SF2SC6AC1 SLP024

CYQB;2010-01-05 03:00;CYQB 050300Z 23014KT 5SM -SHSN SCT008 OVC032 M04/M06 A2960 RMK SF4SC4 SLP026

CYQB;2010-01-05 04:00;CYQB 050400Z 23011KT 5SM -SHSN FEW008 SCT014 OVC027 M04/M06 A2960 RMK SF1SC3SC4 SLP027

CYQB;2010-01-05 05:00;CYQB 050500Z 22009KT 4SM -SHSN FEW008 OVC028 M05/M06 A2960 RMK SF1SC7 SLP026

CYQB;2010-01-05 06:00;CYQB 050600Z 23011KT 4SM -SHSN SCT012 OVC027 M05/M06 A2960 RMK SC3SC5 SLP028

CYQB;2010-01-05 07:00;CYQB 050700Z 23011KT 10SM -SHSN BKN010 OVC026 M05/M07 A2961 RMK SC6SC2 SLP031

CYQB;2010-01-05 07:33;CYQB 050733Z 24012KT 12SM BKN010 OVC025 M05/ RMK SC6SC2

CYQB;2010-01-05 08:00;CYQB 050800Z 23013KT 15SM OVC009 M06/M08 A2961 RMK SF8 SLP032

CYQB;2010-01-05 09:00;CYQB 050900Z 24015KT 15SM OVC008 M06/M08 A2961 RMK SF8 SLP030

CYQB;2010-01-05 10:00;CYQB 051000Z 24014KT 15SM OVC008 M06/M08 A2960 RMK SF8 SLP029

CYQB;2010-01-05 11:00;CYQB 051100Z 23013KT 15SM OVC009 M06/M08 A2960 RMK SF8 SLP029

CYQB;2010-01-05 12:00;CYQB 051200Z 23014KT 10SM OVC009 M06/M08 A2960 RMK SF8 SLP027

CYQB;2010-01-05 13:00;CYQB 051300Z 24013KT 4SM BR OVC006 M06/M08 A2961 RMK ST8 SLP030

CYQB;2010-01-05 13:34;CYQB 051334Z 24011KT 5SM BR BKN010 OVC012 M06/ RMK ST6SC2

CYQB;2010-01-05 13:40;CYQB 051340Z CCA 24011KT 5SM BR BKN010 OVC012 M06/ RMK ST6SC2 CIG VRB 8-12

CYQB;2010-01-05 14:00;CYQB 051400Z 24011KT 10SM BKN009 OVC029 M06/M08 A2961 RMK ST7SC1 CIG VRB 8-10 SLP031

CYQB;2010-01-05 15:00;CYQB 051500Z 24015KT 10SM BKN008 OVC030 M06/M08 A2960 RMK ST6SC2 CIG VRB 7-9 SLP029

CYQB;2010-01-05 16:00;CYQB 051600Z 23015KT 10SM BKN007 OVC028 M06/M07 A2959 RMK ST6SC2 CIG VRB 6-8 SLP025

CYQB;2010-01-05 17:00;CYQB 051700Z 23015KT 10SM BKN008 OVC025 M05/M07 A2956 RMK ST6SC2 CIG VRB 7-9 SLP016

CYQB;2010-01-05 18:00;CYQB 051800Z 24016KT 10SM SCT008 OVC029 M05/M07 A2955 RMK ST4SC3 CIG LWR SE-SW SLP012

CYQB;2010-01-05 19:00;CYQB 051900Z 24015KT 10SM FEW008 OVC029 M04/M07 A2955 RMK SF2SC6 SLP012

CYQB;2010-01-05 19:47;CYQB 051947Z 22018KT 10SM BKN008 BKN034 M05/ RMK SF5SC2

CYQB;2010-01-05 20:00;CYQB 052000Z 24016KT 10SM BKN008 BKN034 M05/M07 A2956 RMK SF7SC1 SLP013

CYQB;2010-01-05 21:00;CYQB 052100Z 25014KT 6SM BR BKN007 M05/M07 A2955 RMK SF6 CIG VRB 6-8 DIST SH NE SLP012

CYQB;2010-01-05 22:00;CYQB 052200Z 24014KT 5SM BR BKN006 BKN028 M05/M07 A2955 RMK SF6SC1 CIG VRB 5-7 DIST SH NE SLP010

CYQB;2010-01-05 22:48;CYQB 052248Z 22010KT 8SM SCT006 OVC026 M05/ RMK SF3SC5

CYQB;2010-01-05 23:00;CYQB 052300Z 22012KT 8SM FEW006 OVC025 M05/M07 A2956 RMK SF2SC6 DIST SH SE SLP016

CYQB;2010-01-06 00:00;CYQB 060000Z 23013KT 10SM FEW006 OVC025 M05/M06 A2956 RMK SF2SC6 SLP016

CYQB;2010-01-06 01:00;CYQB 060100Z 23011KT 10SM FEW006 BKN032 OVC063 M04/M06 A2956 RMK SF1SC6SC2 SLP013

CYQB;2010-01-06 02:00;CYQB 060200Z 24010KT 10SM FEW006 BKN034 OVC063 M04/M06 A2954 RMK SF1SC6SC1 SLP009

CYQB;2010-01-06 03:00;CYQB 060300Z 26013KT 10SM OVC059 M04/M06 A2953 RMK SC8 SLP004

CYQB;2010-01-06 04:00;CYQB 060400Z 26013KT 15SM BKN058 OVC070 M03/M05 A2952 RMK SC6AC2 SLP001

CYQB;2010-01-06 05:00;CYQB 060500Z 26012KT 15SM BKN033 OVC070 M03/M05 A2951 RMK SC6AC2 SLP998

CYQB;2010-01-06 06:00;CYQB 060600Z 26014KT 15SM SCT032 OVC070 M03/M06 A2950 RMK SC3AC5 SLP993

CYQB;2010-01-06 07:00;CYQB 060700Z 26013KT 15SM BKN030 OVC069 M03/M06 A2950 RMK SC5AC3 SLP995

CYQB;2010-01-06 07:50;CYQB 060750Z 26012KT 15SM -SN SCT030 OVC052 M03/ RMK SC3SC5

CYQB;2010-01-06 08:00;CYQB 060800Z 27013KT 15SM -SN FEW030 OVC057 M04/M07 A2951 RMK SC2SC6 SLP996

CYQB;2010-01-06 09:00;CYQB 060900Z 26015KT 15SM OVC076 M04/M07 A2950 RMK AC8 INTMT -SN SLP994

CYQB;2010-01-06 09:21;CYQB 060921Z 26014KT 15SM OVC071 M04/ RMK AC8

CYQB;2010-01-06 10:00;CYQB 061000Z 26014KT 15SM OVC076 M04/M07 A2949 RMK AC8 SLP992

CYQB;2010-01-06 11:00;CYQB 061100Z 25015KT 15SM BKN085 BKN120 M04/M07 A2949 RMK AC5AC2 SLP991

CYQB;2010-01-06 12:00;CYQB 061200Z 24015KT 15SM SCT085 BKN130 M04/M07 A2950 RMK AC4AC3 SLP993

CYQB;2010-01-06 13:00;CYQB 061300Z 24017KT 15SM BKN066 BKN130 M04/M07 A2950 RMK SC6AC2 SLP993

CYQB;2010-01-06 14:00;CYQB 061400Z 24017KT 20SM FEW012 BKN078 M04/M07 A2949 RMK CF1AC7 SLP992

CYQB;2010-01-06 15:00;CYQB 061500Z 24018KT 20SM FEW012 BKN075 M04/M07 A2949 RMK CF1AC7 SLP989

CYQB;2010-01-06 16:00;CYQB 061600Z 24017KT 20SM FEW020 BKN081 M03/M06 A2947 RMK SC1AC6 SLP982

CYQB;2010-01-06 17:00;CYQB 061700Z CCA 24014KT 20SM VCSH BKN029 OVC080 M02/M05 A2945 RMK SC6AC2 SLP978

CYQB;2010-01-06 18:00;CYQB 061800Z 25016KT 15SM -SHSN BKN033 M02/M05 A2945 RMK SC7 SLP976

CYQB;2010-01-06 18:40;CYQB 061840Z 24016KT 20SM SCT030 BKN074 M02/ RMK SC4AC3

CYQB;2010-01-06 19:00;CYQB 061900Z 25017KT 20SM SCT036 BKN075 M02/M05 A2945 RMK SC4AC3 SLP976

CYQB;2010-01-06 20:00;CYQB 062000Z 25017KT 20SM FEW012 BKN032 OVC080 M02/M06 A2946 RMK SF1SC4AC3 SLP979

CYQB;2010-01-06 21:00;CYQB 062100Z 25014KT 30SM FEW012 BKN035 OVC080 M02/M06 A2947 RMK CF1SC6AC2 SLP983

CYQB;2010-01-06 22:00;CYQB 062200Z 25016KT 15SM FEW012 BKN030 OVC090 M02/M06 A2948 RMK SC1SC6AC1 SLP986

CYQB;2010-01-06 23:00;CYQB 062300Z 25016KT 15SM SCT035 OVC075 M02/M06 A2948 RMK SC4AC4 SLP987

CYQB;2010-01-07 00:00;CYQB 070000Z 25015KT 15SM FEW035 OVC100 M03/M06 A2949 RMK SC2AC6 SLP991

CYQB;2010-01-07 01:00;CYQB 070100Z 25016KT 15SM SCT038 OVC100 M03/M06 A2950 RMK SC3AC5 SLP994

CYQB;2010-01-07 02:00;CYQB 070200Z 25017KT 15SM BKN037 OVC100 M03/M07 A2951 RMK SC6AC2 SLP996

CYQB;2010-01-07 03:00;CYQB 070300Z 25014KT 15SM BKN038 OVC130 M03/M06 A2951 RMK SC5AC3 SLP998

CYQB;2010-01-07 04:00;CYQB 070400Z 25015KT 15SM BKN033 OVC120 M03/M07 A2953 RMK SC5AC3 SLP002

CYQB;2010-01-07 05:00;CYQB 070500Z 23016KT 15SM BKN036 OVC120 M03/M07 A2952 RMK SC6AC2 SLP001

CYQB;2010-01-07 06:00;CYQB 070600Z 27013KT 15SM BKN035 OVC120 M02/M07 A2953 RMK SC5AC3 SLP004

CYQB;2010-01-07 07:00;CYQB 070700Z 25013KT 15SM BKN030 OVC100 M02/M06 A2955 RMK SC6AC2 SLP009

CYQB;2010-01-07 08:00;CYQB 070800Z 25016KT 15SM BKN033 OVC100 M02/M07 A2956 RMK SC6AC2 SLP013

CYQB;2010-01-07 09:00;CYQB 070900Z 26014KT 15SM BKN031 OVC100 M03/M07 A2956 RMK SC6AC2 SLP015

CYQB;2010-01-07 10:00;CYQB 071000Z 27013KT 15SM BKN033 OVC100 M03/M07 A2958 RMK SC6AC2 SLP019

CYQB;2010-01-07 11:00;CYQB 071100Z 27014KT 15SM FEW029 BKN150 OVC200 M04/M07 A2959 RMK SC2AC6CI1 SLP025

CYQB;2010-01-07 12:00;CYQB 071200Z 27013KT 30SM FEW025 BKN210 M04/M08 A2961 RMK SC2CI2 SLP032

CYQB;2010-01-07 13:00;CYQB 071300Z 26015KT 30SM FEW025 FEW150 BKN210 M05/M09 A2962 RMK SC1AC1CI1 SLP036

CYQB;2010-01-07 14:00;CYQB 071400Z 24011KT 30SM BKN027 BKN150 M05/M09 A2965 RMK SC5AC1 SLP044

CYQB;2010-01-07 15:00;CYQB 071500Z 27013KT 30SM BKN030 BKN150 M03/M09 A2966 RMK SC5AC1 SLP047

CYQB;2010-01-07 16:00;CYQB 071600Z 31015KT 30SM BKN030 BKN150 M03/M10 A2965 RMK SC5AC1 SLP044

CYQB;2010-01-07 17:00;CYQB 071700Z 27015G21KT 30SM SCT030 BKN130 M03/M09 A2963 RMK SC3AC3 SLP038

CYQB;2010-01-07 18:00;CYQB 071800Z 25018KT 30SM SCT035 BKN130 M03/M08 A2963 RMK SC4AC3 SLP039

CYQB;2010-01-07 19:00;CYQB 071900Z 26017KT 30SM BKN037 BKN130 M03/M08 A2964 RMK SC6AC1 SLP042

CYQB;2010-01-07 20:00;CYQB 072000Z 27014KT 30SM BKN040 BKN100 M04/M09 A2967 RMK SC5AC2 SLP052

CYQB;2010-01-07 21:00;CYQB 072100Z 27011G18KT 30SM SCT025 BKN080 BKN110 M04/M10 A2968 RMK SC3AC2AC1 SLP055

CYQB;2010-01-07 22:00;CYQB 072200Z 28010KT 15SM FEW030 SCT100 M05/M10 A2970 RMK SC2AC1 SLP063

CYQB;2010-01-07 23:00;CYQB 072300Z 25010G15KT 15SM FEW030 M06/M10 A2972 RMK SC2 SLP068

CYQB;2010-01-08 00:00;CYQB 080000Z 24012KT 15SM SCT035 M06/M11 A2972 RMK SC3 SLP070

CYQB;2010-01-08 01:00;CYQB 080100Z 24014KT 15SM FEW035 BKN079 M06/M10 A2972 RMK SC1AC4 SLP070

CYQB;2010-01-08 02:00;CYQB 080200Z 26011KT 15SM FEW035 BKN076 M07/M10 A2973 RMK SC1AC6 SLP073

CYQB;2010-01-08 03:00;CYQB 080300Z 26011KT 15SM BKN036 OVC085 M07/M10 A2974 RMK SC5AC3 SLP076

CYQB;2010-01-08 04:00;CYQB 080400Z 25011KT 15SM SCT036 BKN085 M07/M10 A2973 RMK SC3AC3 SLP073

CYQB;2010-01-08 04:24;CYQB 080424Z 26013KT 15SM -SHSN SCT036 BKN085 M07/ RMK SC3AC4

CYQB;2010-01-08 05:00;CYQB 080500Z 25010KT 15SM FEW035 BKN085 M08/M11 A2974 RMK SC2AC3 SLP074

CYQB;2010-01-08 06:00;CYQB 080600Z 26010KT 14SM FEW035 SCT085 M09/M12 A2973 RMK CF1AC2 SLP073

CYQB;2010-01-08 07:00;CYQB 080700Z 26010KT 15SM FEW035 FEW085 M09/M12 A2974 RMK CF1AC2 SLP077

CYQB;2010-01-08 08:00;CYQB 080800Z 26010KT 15SM FEW035 FEW085 M09/M12 A2974 RMK CF1AC2 SLP075

CYQB;2010-01-08 09:00;CYQB 080900Z 25009KT 15SM FEW050 FEW085 M09/M12 A2973 RMK CF1AC2 SLP074

CYQB;2010-01-08 10:00;CYQB 081000Z 27010KT 15SM FEW050 FEW085 M09/M13 A2972 RMK CF1AC2 SLP071

CYQB;2010-01-08 11:00;CYQB 081100Z 25011KT 15SM FEW054 SCT075 M09/M12 A2972 RMK SC2AC2 SLP070

CYQB;2010-01-08 12:00;CYQB 081200Z 22007KT 30SM FEW055 M09/M12 A2971 RMK SC2 SLP067

CYQB;2010-01-08 13:00;CYQB 081300Z 23004KT 30SM FEW060 M09/M12 A2972 RMK SC2 SLP070

CYQB;2010-01-08 14:00;CYQB 081400Z 23006KT 30SM SCT063 M08/M12 A2973 RMK SC3 SLP072

CYQB;2010-01-08 15:00;CYQB 081500Z 25004KT 30SM BKN076 M05/M11 A2974 RMK AC5 SLP075

CYQB;2010-01-08 16:00;CYQB 081600Z 22004KT 30SM FEW030 BKN075 M05/M11 A2972 RMK SC1AC6 SLP069

CYQB;2010-01-08 17:00;CYQB 081700Z 23005KT 30SM FEW030 SCT060 SCT150 M04/M11 A2970 RMK SC1SC3AC1 SLP062

CYQB;2010-01-08 18:00;CYQB 081800Z 22012KT 30SM FEW030 FEW070 BKN110 BKN250 M04/M09 A2968 RMK SC1AC2AC2CI1 SLP056

CYQB;2010-01-08 19:00;CYQB 081900Z 22010KT 30SM FEW030 BKN087 BKN250 M04/M09 A2967 RMK SC1AC5CI1 SLP053

CYQB;2010-01-08 20:00;CYQB 082000Z 23010KT 30SM FEW030 BKN087 BKN250 M04/M09 A2967 RMK SC1AC5CI1 SLP052

CYQB;2010-01-08 21:00;CYQB 082100Z 31006KT 30SM FEW030 SCT087 SCT120 M05/M10 A2968 RMK SC2AC2AC1 SLP057

CYQB;2010-01-08 22:00;CYQB 082200Z 33012KT 15SM FEW030 FEW087 SCT120 M05/M10 A2970 RMK SC2AC1AC2 SLP062

CYQB;2010-01-08 23:00;CYQB 082300Z 36012KT 15SM SCT030 BKN090 M05/M11 A2973 RMK SC4AC2 SLP074

CYQB;2010-01-09 00:00;CYQB 090000Z 34006KT 15SM FEW041 SCT090 BKN220 M05/M12 A2976 RMK SC2AC2CI1 SLP082

CYQB;2010-01-09 01:00;CYQB 090100Z 32008KT 15SM BKN039 OVC110 M06/M12 A2976 RMK SC5AC3 SLP083

CYQB;2010-01-09 02:00;CYQB 090200Z 32010KT 15SM BKN041 BKN110 M06/M12 A2976 RMK SC6AC2 SLP084

CYQB;2010-01-09 03:00;CYQB 090300Z 34013KT 15SM SCT040 BKN110 M07/M13 A2977 RMK SC3AC2 SLP086

CYQB;2010-01-09 04:00;CYQB 090400Z 34014G19KT 15SM FEW040 FEW110 M08/M14 A2978 RMK CF1AC2 SLP090

CYQB;2010-01-09 05:00;CYQB 090500Z 34014KT 15SM FEW040 FEW110 M09/M15 A2979 RMK CF1AC2 SLP093

CYQB;2010-01-09 06:00;CYQB 090600Z 34010G17KT 15SM FEW040 FEW110 M09/M16 A2980 RMK CF1AC2 SLP097

CYQB;2010-01-09 07:00;CYQB 090700Z 32009KT 15SM FEW030 FEW220 M10/M16 A2983 RMK SC1CI1 SLP106

CYQB;2010-01-09 08:00;CYQB 090800Z 33013KT 15SM FEW030 M11/M17 A2985 RMK SC1 SLP112

CYQB;2010-01-09 09:00;CYQB 090900Z 34015KT 15SM FEW030 M12/M17 A2986 RMK SC1 SLP117

CYQB;2010-01-09 10:00;CYQB 091000Z 33012G19KT 15SM SKC M13/M18 A2989 RMK SLP126

CYQB;2010-01-09 11:00;CYQB 091100Z 33008G16KT 15SM SKC M13/M18 A2992 RMK SLP138

CYQB;2010-01-09 12:00;CYQB 091200Z 32015KT 20SM FEW025 M13/M19 A2995 RMK SC1 SLP149

CYQB;2010-01-09 13:00;CYQB 091300Z 30010KT 15SM FEW200 M14/M19 A3000 RMK CI1 SLP164

CYQB;2010-01-09 14:00;CYQB 091400Z 30014KT 30SM SKC M14/M24 A3000 RMK SLP166

CYQB;2010-01-09 15:00;CYQB 091500Z 27011KT 30SM SKC M14/M22 A3004 RMK SLP178

CYQB;2010-01-09 16:00;CYQB 091600Z 25018KT 30SM SKC M14/M22 A3003 RMK SLP175

CYQB;2010-01-09 17:00;CYQB 091700Z 25015G20KT 30SM SKC M13/M22 A3001 RMK SLP169

CYQB;2010-01-09 18:00;CYQB 091800Z 24014KT 30SM FEW200 M11/M21 A3001 RMK CI1 SLP168

CYQB;2010-01-09 19:00;CYQB 091900Z 28012KT 30SM FEW200 M10/M20 A3001 RMK CI1 SLP169

CYQB;2010-01-09 20:00;CYQB 092000Z 29011G17KT 30SM FEW200 M10/M20 A3003 RMK CI1 SLP176

CYQB;2010-01-09 21:00;CYQB 092100Z 31009G15KT 30SM FEW050 M11/M21 A3007 RMK SC1 SLP188

CYQB;2010-01-09 22:00;CYQB 092200Z 32011KT 15SM FEW050 M12/M22 A3009 RMK SC1 SLP197

CYQB;2010-01-09 23:00;CYQB 092300Z 32011G17KT 15SM SKC M13/M23 A3011 RMK SLP201

CYQB;2010-01-10 00:00;CYQB 100000Z 29005KT 15SM SKC M15/M23 A3013 RMK SLP211

CYQB;2010-01-10 01:00;CYQB 100100Z 31009KT 15SM SKC M15/M24 A3014 RMK SLP213

CYQB;2010-01-10 02:00;CYQB 100200Z 30008KT 15SM SKC M15/M24 A3014 RMK SLP213

CYQB;2010-01-10 03:00;CYQB 100300Z 31014KT 15SM SKC M16/M24 A3014 RMK SLP213

CYQB;2010-01-10 04:00;CYQB 100400Z 31016KT 15SM SKC M16/M24 A3013 RMK SLP211

CYQB;2010-01-10 05:00;CYQB 100500Z 30014KT 15SM SCT200 M16/M24 A3014 RMK CI3 SLP212

CYQB;2010-01-10 06:00;CYQB 100600Z 29009KT 15SM FEW200 M16/M24 A3014 RMK CI2 SLP212

CYQB;2010-01-10 07:00;CYQB 100700Z 27007KT 15SM SKC M17/M24 A3015 RMK SLP217

CYQB;2010-01-10 08:00;CYQB 100800Z 28009KT 15SM SKC M18/M24 A3015 RMK SLP218

CYQB;2010-01-10 09:00;CYQB 100900Z 26010KT 15SM SKC M18/M24 A3015 RMK SLP217

CYQB;2010-01-10 10:00;CYQB 101000Z 26006KT 15SM SKC M19/M25 A3015 RMK SLP216

CYQB;2010-01-10 11:00;CYQB 101100Z 23009KT 15SM SKC M19/M25 A3016 RMK SLP219

CYQB;2010-01-10 12:00;CYQB 101200Z 20010KT 15SM FEW200 M20/M25 A3016 RMK CI1 SLP221

CYQB;2010-01-10 13:00;CYQB 101300Z 23009KT 30SM BKN140 BKN180 M19/M24 A3017 RMK AC6AC1 SLP225

CYQB;2010-01-10 14:00;CYQB 101400Z 23009KT 30SM BKN140 M18/M24 A3018 RMK AC7 SLP226

CYQB;2010-01-10 15:00;CYQB 101500Z 24012KT 30SM OVC140 M17/M23 A3017 RMK AC7 SLP224

CYQB;2010-01-10 16:00;CYQB 101600Z 23008KT 30SM OVC140 M15/M21 A3017 RMK AC8 SLP222

CYQB;2010-01-10 17:00;CYQB 101700Z 23006KT 30SM SCT031 OVC140 M15/M21 A3013 RMK SC3AC5 SLP209

CYQB;2010-01-10 18:00;CYQB 101800Z 23010KT 30SM BKN028 OVC140 M14/M22 A3010 RMK SC6AC2 SLP201

CYQB;2010-01-10 19:00;CYQB 101900Z 25012KT 30SM BKN029 OVC034 M14/M21 A3008 RMK SC7SC1 SLP194

CYQB;2010-01-10 20:00;CYQB 102000Z 26010KT 25SM OVC030 M14/M20 A3007 RMK SC8 SLP191

CYQB;2010-01-10 21:00;CYQB 102100Z 27005KT 20SM SCT030 OVC130 M14/M19 A3005 RMK SC4AC4 SLP184

CYQB;2010-01-10 22:00;CYQB 102200Z 28005KT 15SM FEW030 BKN130 M14/M19 A3005 RMK SC1AC6 SLP183

CYQB;2010-01-10 23:00;CYQB 102300Z 29004KT 15SM BKN022 BKN033 OVC130 M14/M18 A3005 RMK SC5SC1AC2 SLP182

CYQB;2010-01-10 23:40;CYQB 102340Z 31002KT 15SM -SN BKN022 BKN033 OVC040 M14/ RMK SC5SC2SC2

CYQB;2010-01-11 00:00;CYQB 110000Z 35002KT 10SM -SN FEW022 OVC034 M14/M18 A3004 RMK SC2SC6 SLP180

CYQB;2010-01-11 01:00;CYQB 110100Z 36003KT 10SM -SN OVC026 M14/M18 A3004 RMK SC8 SLP180

CYQB;2010-01-11 02:00;CYQB 110200Z 34003KT 10SM -SN OVC033 M14/M18 A3003 RMK SC8 SLP178

CYQB;2010-01-11 03:00;CYQB 110300Z 00000KT 10SM -SN OVC038 M14/M17 A3002 RMK SC8 SLP173

CYQB;2010-01-11 04:00;CYQB 110400Z 29004KT 10SM -SN FEW040 BKN120 M14/M17 A3000 RMK SC1AC6 SLP168

CYQB;2010-01-11 05:00;CYQB 110500Z 27007KT 10SM -SN SCT035 BKN120 M13/M16 A2999 RMK SC3AC4 SLP162

CYQB;2010-01-11 06:00;CYQB 110600Z 26008KT 10SM -SN FEW033 SCT120 M13/M17 A2997 RMK SC2AC2 SLP155

CYQB;2010-01-11 07:00;CYQB 110700Z 28005KT 15SM -SN SCT035 OVC200 M14/M18 A2996 RMK SC4CI0 SLP152

CYQB;2010-01-11 08:00;CYQB 110800Z 24005KT 15SM -SN OVC039 M12/M18 A2995 RMK SC6 SLP149

CYQB;2010-01-11 09:00;CYQB 110900Z 13002KT 15SM -SN OVC038 M14/M18 A2994 RMK SC8 SLP147

CYQB;2010-01-11 10:00;CYQB 111000Z 12002KT 15SM -SN FEW017 FEW028 BKN120 M15/M17 A2995 RMK SC1SC1AC1 SLP148

CYQB;2010-01-11 11:00;CYQB 111100Z 00000KT 15SM -SN FEW015 SCT038 BKN150 M13/M16 A2995 RMK SF1SC2AC4 SLP148

CYQB;2010-01-11 12:00;CYQB 111200Z 26010KT 12SM -SN SCT070 BKN140 M12/M15 A2994 RMK AC3AC4 SLP147

CYQB;2010-01-11 12:32;CYQB 111232Z 24009KT 12SM FEW050 BKN140 M12/ RMK SC1AC6

CYQB;2010-01-11 13:00;CYQB 111300Z 23011KT 12SM -SN FEW015 SCT053 BKN140 M12/M14 A2994 RMK SF1SC3AC4 SLP147

CYQB;2010-01-11 14:00;CYQB 111400Z 23009KT 12SM -SN FEW025 BKN060 BKN090 OVC130 M11/M13 A2994 RMK SC1SC6AC1AC1 SLP147

CYQB;2010-01-11 15:00;CYQB 111500Z 24013KT 12SM -SN FEW030 BKN058 OVC090 M11/M13 A2994 RMK SC1SC7AC1 SLP147

CYQB;2010-01-11 16:00;CYQB 111600Z 24010KT 10SM -SN FEW040 OVC059 M10/M12 A2993 RMK SC1SC7 SLP143

CYQB;2010-01-11 17:00;CYQB 111700Z 22009KT 20SM FEW015 BKN042 BKN062 M09/M11 A2992 RMK SC1SC6SC1 SLP137

CYQB;2010-01-11 18:00;CYQB 111800Z 18003KT 20SM SCT035 BKN053 M07/M10 A2990 RMK SC4SC3 SLP132

CYQB;2010-01-11 19:00;CYQB 111900Z 24012KT 30SM BKN041 BKN050 M07/M10 A2990 RMK SC7SC1 SLP130

CYQB;2010-01-11 20:00;CYQB 112000Z 22009KT 20SM FEW020 BKN044 M06/M09 A2991 RMK CU1SC7 SLP134

CYQB;2010-01-11 21:00;CYQB 112100Z 29009KT 20SM FEW020 BKN043 M05/M10 A2992 RMK CU1SC7 SLP138

CYQB;2010-01-11 22:00;CYQB 112200Z 30010G15KT 20SM FEW020 SCT043 BKN065 M06/M11 A2995 RMK CU1SC3SC4 SLP148

CYQB;2010-01-11 23:00;CYQB 112300Z 28009KT 20SM FEW020 BKN065 M07/M11 A2997 RMK CU1SC6 SLP155

CYQB;2010-01-12 00:00;CYQB 120000Z 31007KT 20SM FEW060 BKN076 M07/M12 A2998 RMK SC1AC6 SLP159

CYQB;2010-01-12 01:00;CYQB 120100Z 34008KT 20SM BKN078 M07/M13 A2999 RMK AC7 SLP162

CYQB;2010-01-12 02:00;CYQB 120200Z 31004KT 20SM FEW060 OVC080 M08/M13 A3000 RMK SC1AC7 SLP166

CYQB;2010-01-12 03:00;CYQB 120300Z 29004KT 15SM FEW060 OVC075 M08/M14 A3000 RMK SC1AC7 SLP164

CYQB;2010-01-12 04:00;CYQB 120400Z 28007KT 15SM OVC075 M08/M13 A2999 RMK AC8 SLP162

CYQB;2010-01-12 05:00;CYQB 120500Z 31005KT 15SM OVC075 M08/M14 A2999 RMK AC8 SLP160

CYQB;2010-01-12 06:00;CYQB 120600Z 26005KT 15SM FEW075 M10/M15 A2998 RMK AC2 SLP157

CYQB;2010-01-12 07:00;CYQB 120700Z 29012KT 15SM SCT040 M10/M15 A2999 RMK SC3 SLP161

CYQB;2010-01-12 08:00;CYQB 120800Z 28006KT 15SM BKN040 M10/M14 A2999 RMK SC4 SLP162

CYQB;2010-01-12 09:00;CYQB 120900Z 26009KT 15SM OVC040 M10/M14 A2999 RMK SC5 SLP160

CYQB;2010-01-12 10:00;CYQB 121000Z 28005KT 15SM SCT040 M11/M15 A2999 RMK SC3 SLP160

CYQB;2010-01-12 11:00;CYQB 121100Z 32005KT 15SM FEW040 M11/M17 A2999 RMK SC2 SLP160

CYQB;2010-01-12 12:00;CYQB 121200Z 33014G21KT 15SM SCT040 BKN110 M12/M19 A3000 RMK SC3AC3 SLP166

CYQB;2010-01-12 13:00;CYQB 121300Z 32008KT 30SM SCT040 BKN110 M13/M19 A3003 RMK SC4AC3 SLP173

CYQB;2010-01-12 14:00;CYQB 121400Z 32009KT 30SM FEW040 BKN100 BKN130 M12/M19 A3002 RMK SC2AC1AC2 SLP172

CYQB;2010-01-12 15:00;CYQB 121500Z 34014KT 30SM FEW040 BKN087 M12/M19 A3002 RMK SC2AC3 SLP171

CYQB;2010-01-12 16:00;CYQB 121600Z 33015KT 30SM BKN090 M10/M18 A3000 RMK AC6 SLP166

CYQB;2010-01-12 17:00;CYQB 121700Z 32012KT 30SM SCT090 BKN200 M10/M18 A3000 RMK AC3CI1 SLP163

CYQB;2010-01-12 18:00;CYQB 121800Z 32009KT 30SM FEW030 FEW090 BKN200 M10/M18 A2998 RMK SC1AC2CI1 SLP157

CYQB;2010-01-12 19:00;CYQB 121900Z 31011KT 30SM FEW030 FEW150 M10/M17 A2997 RMK SC1AC1 SLP155

CYQB;2010-01-12 20:00;CYQB 122000Z 29016KT 30SM FEW030 FEW150 M10/M17 A2997 RMK SC1AC1 SLP156

CYQB;2010-01-12 21:00;CYQB 122100Z 30013KT 30SM FEW030 FEW150 M11/M18 A3000 RMK SC1AC1 SLP163

CYQB;2010-01-12 22:00;CYQB 122200Z 30009KT 15SM FEW030 FEW150 M12/M18 A3001 RMK SC1AC1 SLP167

CYQB;2010-01-12 23:00;CYQB 122300Z 30007KT 15SM FEW030 M13/M18 A3001 RMK SC1 SLP169

CYQB;2010-01-13 00:00;CYQB 130000Z 30006KT 15SM FEW030 M14/M18 A3002 RMK SC1 SLP172

CYQB;2010-01-13 01:00;CYQB 130100Z 31011KT 15SM FEW030 M13/M19 A3001 RMK SC1 SLP170

CYQB;2010-01-13 02:00;CYQB 130200Z 30010KT 15SM FEW100 M14/M20 A3002 RMK AC1 SLP172

CYQB;2010-01-13 03:00;CYQB 130300Z 30009KT 15SM FEW100 M15/M20 A3002 RMK AC2 SLP172

CYQB;2010-01-13 04:00;CYQB 130400Z 29013KT 15SM FEW100 M15/M20 A3003 RMK AC1 SLP174

CYQB;2010-01-13 05:00;CYQB 130500Z 29008KT 15SM FEW220 M16/M21 A3001 RMK CI1 SLP169

CYQB;2010-01-13 06:00;CYQB 130600Z 27012KT 15SM FEW100 FEW220 M17/M24 A3002 RMK AC1CI1 SLP171

CYQB;2010-01-13 07:00;CYQB 130700Z 27010KT 15SM FEW190 M17/M23 A3003 RMK CI0 SLP177

CYQB;2010-01-13 08:00;CYQB 130800Z 23011KT 15SM FEW090 FEW190 M18/M24 A3004 RMK AC1CI0 SLP178

CYQB;2010-01-13 09:00;CYQB 130900Z 24013KT 15SM FEW190 M19/M24 A3004 RMK CI0 SLP181

CYQB;2010-01-13 10:00;CYQB 131000Z 24014KT 15SM FEW190 M19/M25 A3005 RMK CI1 SLP182

CYQB;2010-01-13 11:00;CYQB 131100Z 25011KT 15SM FEW200 M19/M25 A3006 RMK CI1 SLP187

CYQB;2010-01-13 12:00;CYQB 131200Z 24015KT 30SM SCT220 M19/M25 A3007 RMK CI3 SLP191

CYQB;2010-01-13 13:00;CYQB 131300Z 26016KT 30SM BKN210 M19/M24 A3008 RMK CI6 SLP195

CYQB;2010-01-13 14:00;CYQB 131400Z 25017KT 30SM BKN220 M18/M24 A3010 RMK CI6 SLP200

CYQB;2010-01-13 15:00;CYQB 131500Z 24015KT 30SM BKN220 M17/M23 A3012 RMK CI5 SLP207

CYQB;2010-01-13 16:00;CYQB 131600Z 24015G20KT 30SM BKN200 M16/M23 A3010 RMK CI3 SLP201

CYQB;2010-01-13 17:00;CYQB 131700Z 24016KT 30SM SCT200 M14/M23 A3008 RMK CI1 SLP195

CYQB;2010-01-13 18:00;CYQB 131800Z 23012KT 30SM BKN200 M13/M22 A3007 RMK CI1 SLP190

CYQB;2010-01-13 19:00;CYQB 131900Z 23014KT 30SM BKN160 M12/M21 A3006 RMK AS1 SLP188

CYQB;2010-01-13 20:00;CYQB 132000Z 22012KT 30SM SCT160 M11/M21 A3007 RMK AS1 SLP189

CYQB;2010-01-13 21:00;CYQB 132100Z 23010KT 30SM FEW180 M11/M20 A3008 RMK AC1 SLP194

CYQB;2010-01-13 22:00;CYQB 132200Z 24011KT 15SM FEW180 M12/M19 A3009 RMK AC1 SLP196

CYQB;2010-01-13 23:00;CYQB 132300Z 25010KT 15SM FEW180 M13/M21 A3010 RMK AC1 SLP201

CYQB;2010-01-14 00:00;CYQB 140000Z 23013KT 15SM FEW100 M13/M20 A3011 RMK AC1 SLP205

CYQB;2010-01-14 01:00;CYQB 140100Z 24010KT 15SM FEW100 M14/M20 A3013 RMK AC1 SLP210

CYQB;2010-01-14 02:00;CYQB 140200Z 23008KT 15SM FEW100 M14/M19 A3014 RMK AC1 SLP214

CYQB;2010-01-14 03:00;CYQB 140300Z 30003KT 15SM FEW100 M16/M20 A3015 RMK AC1 SLP218

CYQB;2010-01-14 04:00;CYQB 140400Z 00000KT 15SM SKC M17/M22 A3017 RMK SLP222

CYQB;2010-01-14 05:00;CYQB 140500Z 02002KT 15SM SCT006 M19/M23 A3017 RMK SF2 SLP225

CYQB;2010-01-14 06:00;CYQB 140600Z 00000KT 15SM FEW006 M21/M25 A3018 RMK SF1 SLP228

CYQB;2010-01-14 07:00;CYQB 140700Z 34002KT 15SM FEW006 FEW200 M21/M25 A3020 RMK SF1CI1 SLP234

CYQB;2010-01-14 08:00;CYQB 140800Z 00000KT 15SM SCT004 BKN200 M21/M25 A3021 RMK SF2CI1 SLP237

CYQB;2010-01-14 08:43;CYQB 140843Z 00000KT 8SM -SN BKN003 OVC200 M21/M25 RMK SF6CI1

CYQB;2010-01-14 09:00;CYQB 140900Z 00000KT 8SM -SN BKN003 BKN006 OVC200 M20/M24 A3022 RMK SF5SF2CI2 SLP239

CYQB;2010-01-14 09:37;CYQB 140937Z 32003KT 7SM BKN001 OVC006 M19/M23 RMK SF5SF3

CYQB;2010-01-14 10:00;CYQB 141000Z 32003KT 1/2SM R06/2800VP6000FT/D FZFG VV001 M18/M21 A3023 RMK FG8 SLP243

CYQB;2010-01-14 10:34;CYQB 141034Z 00000KT 1/4SM R06/2400FT/N FZFG VV001 M19/M21 RMK FG8

CYQB;2010-01-14 11:00;CYQB 141100Z 00000KT 1/8SM R06/1600FT/N FZFG VV001 M18/M21 A3023 RMK FG8 SLP244

CYQB;2010-01-14 11:28;CYQB 141128Z 00000KT 3/8SM R06/1800FT/N FZFG VV001 M18/ RMK FG8

CYQB;2010-01-14 12:00;CYQB 141200Z 00000KT 3/8SM R06/3500VP6000FT/N FZFG VV001 M18/M21 A3023 RMK FG8 SLP243

CYQB;2010-01-14 12:34;CYQB 141234Z 00000KT 1/8SM R06/0900V1800FT/U FZFG BKN220 M19/ RMK FG6CI1

CYQB;2010-01-14 12:35;CYQB 141235Z CCA 00000KT 1/8SM R06/0900V1800FT/U FZFG BKN220 M19/ RMK FG6CI1

CYQB;2010-01-14 12:52;CYQB 141252Z 27003KT 1/4SM R06/1000FT/N FZFG SKC M19/ RMK FG7

CYQB;2010-01-14 13:00;CYQB 141300Z 27002KT 1/2SM R06/1000FT/N FZFG SKC M19/M22 A3024 RMK FG7 SLP247

CYQB;2010-01-14 13:20;CYQB 141320Z 00000KT 1/4SM R06/0700FT/N FZFG BKN025 M19/ RMK FG6SC2 VIS NE-S 3/4

CYQB;2010-01-14 13:37;CYQB 141337Z 00000KT 1/8SM R06/0700V1100FT/N FZFG BKN023 M18/ RMK FG6SC2

CYQB;2010-01-14 14:00;CYQB 141400Z 00000KT 5/8SM R06/P6000FT/N BR BKN021 M18/M20 A3025 RMK FG2SC6 VIS NE-SE 4 SLP249

CYQB;2010-01-14 14:35;CYQB 141435Z 00000KT 8SM R06/4000VP6000FT/U BKN017 M17/ RMK SC7 VIS SW 4

CYQB;2010-01-14 15:00;CYQB 141500Z 00000KT 15SM BKN016 M16/M19 A3024 RMK SC7 VIS LWR SW SLP248

CYQB;2010-01-14 16:00;CYQB 141600Z 00000KT 10SM BKN017 M14/M16 A3022 RMK SC7 SLP242

CYQB;2010-01-14 17:00;CYQB 141700Z 00000KT 15SM BKN014 M13/M15 A3019 RMK ST7 SLP232

CYQB;2010-01-14 18:00;CYQB 141800Z 00000KT 15SM BKN011 OVC016 M12/M16 A3016 RMK ST6SC2 VIS E 3 IN HZ SLP220

CYQB;2010-01-14 19:00;CYQB 141900Z 00000KT 10SM OVC013 M11/M16 A3014 RMK ST8 VIS E 3 HZ SLP213

CYQB;2010-01-14 20:00;CYQB 142000Z 00000KT 8SM -SN OVC011 M10/M14 A3012 RMK ST8 VIS E 3 HZ SLP207

CYQB;2010-01-14 20:32;CYQB 142032Z 35002KT 8SM BKN017 OVC030 M10/ RMK ST6SC2 VIS E 2 HZ

CYQB;2010-01-14 21:00;CYQB 142100Z 00000KT 8SM BKN017 OVC031 M10/M14 A3010 RMK ST7SC1 VIS E QUAD 2 HZ SLP199

CYQB;2010-01-14 22:00;CYQB 142200Z 00000KT 8SM BKN018 OVC028 M09/M14 A3007 RMK ST7SC1 SLP189

CYQB;2010-01-14 23:00;CYQB 142300Z 04002KT 8SM FEW018 OVC028 M08/M12 A3004 RMK ST2SC6 SLP181

CYQB;2010-01-15 00:00;CYQB 150000Z 00000KT 8SM OVC028 M08/M11 A3003 RMK SC8 SLP175

CYQB;2010-01-15 01:00;CYQB 150100Z 00000KT 6SM BR OVC026 M08/M11 A3001 RMK SC8 SLP169

CYQB;2010-01-15 02:00;CYQB 150200Z 00000KT 5SM -SN BR OVC023 M08/M10 A2999 RMK SC8 SLP163

CYQB;2010-01-15 03:00;CYQB 150300Z 00000KT 6SM -SN BR OVC024 M07/M09 A2997 RMK SC8 SLP156

CYQB;2010-01-15 04:00;CYQB 150400Z 25002KT 6SM -SN -FZDZ BR OVC019 M07/M09 A2994 RMK SC8 SLP147

CYQB;2010-01-15 05:00;CYQB 150500Z 27002KT 6SM -FZDZ BR OVC023 M06/M08 A2992 RMK SC8 SLP137

CYQB;2010-01-15 06:00;CYQB 150600Z 23003KT 5SM -FZDZ BR BKN018 OVC032 M06/M07 A2990 RMK SC6SC2 SLP132

CYQB;2010-01-15 07:00;CYQB 150700Z 23005KT 10SM -FZDZ OVC014 M05/M05 A2989 RMK SF8 SLP129

CYQB;2010-01-15 08:00;CYQB 150800Z 25008KT 10SM -FZDZ BKN013 OVC025 M04/M05 A2989 RMK SF6SC2 SLP126

CYQB;2010-01-15 09:00;CYQB 150900Z 26013KT 8SM -FZDZ BKN009 OVC025 M04/M05 A2987 RMK SF7SC1 SLP121

CYQB;2010-01-15 10:00;CYQB 151000Z 25011KT 8SM -FZDZ OVC008 M04/M05 A2986 RMK ST8 SLP118

CYQB;2010-01-15 11:00;CYQB 151100Z 23012KT 5SM -FZDZ BR OVC007 M04/M05 A2987 RMK ST8 SLP119

CYQB;2010-01-15 12:00;CYQB 151200Z 22012KT 2 1/2SM BR OVC009 M04/M05 A2987 REFZDZ RMK ST8 SLP121

CYQB;2010-01-15 13:00;CYQB 151300Z 22014KT 1 3/4SM BR SCT009 OVC043 M04/M05 A2988 RMK SF3SC5 SLP124

CYQB;2010-01-15 14:00;CYQB 151400Z 23015KT 1 1/2SM BR FEW009 OVC046 M04/M05 A2989 RMK SF1SC7 SLP125

CYQB;2010-01-15 15:00;CYQB 151500Z 22014KT 2SM BR FEW020 OVC049 M03/M05 A2990 RMK SC2SC6 SLP130

CYQB;2010-01-15 16:00;CYQB 151600Z 23012KT 2SM BR FEW020 OVC050 M02/M04 A2990 RMK SC1SC7 SLP130

CYQB;2010-01-15 17:00;CYQB 151700Z 23011KT 2 1/2SM BR FEW025 OVC062 M02/M03 A2988 RMK SC2SC6 SLP122

CYQB;2010-01-15 17:47;CYQB 151747Z 26014KT 5SM BR FEW025 SCT060 BKN077 M00/ RMK SC2SC2AC4

CYQB;2010-01-15 18:00;CYQB 151800Z 25013KT 8SM FEW025 SCT060 BKN080 00/M03 A2987 RMK SC2SC2AC2 HAZY VIS NE-NW LWR SLP118

CYQB;2010-01-15 19:00;CYQB 151900Z 26012KT 8SM FEW025 OVC040 01/M02 A2989 RMK SC2SC5 HAZY VIS LWR N-SE SLP125

CYQB;2010-01-15 20:00;CYQB 152000Z 26012KT 10SM FEW020 OVC030 01/M02 A2991 RMK SC2SC6 HAZY SLP131

CYQB;2010-01-15 21:00;CYQB 152100Z 29013KT 15SM FEW020 OVC030 01/M03 A2993 RMK SC2SC6 SLP140

CYQB;2010-01-15 22:00;CYQB 152200Z 29014KT 15SM BKN030 00/M05 A2996 RMK SC6 SLP148

CYQB;2010-01-15 23:00;CYQB 152300Z 28015G20KT 15SM SCT030 M01/M06 A2998 RMK SC2 SLP156

CYQB;2010-01-16 00:00;CYQB 160000Z 28014KT 15SM FEW030 M03/M07 A3000 RMK SC2 SLP162

CYQB;2010-01-16 01:00;CYQB 160100Z 27008KT 15SM FEW030 M05/M08 A3000 RMK SC2 SLP164

CYQB;2010-01-16 02:00;CYQB 160200Z 29010G15KT 15SM FEW030 FEW200 M04/M08 A3001 RMK SC1CI1 SLP167

CYQB;2010-01-16 03:00;CYQB 160300Z 31004KT 15SM FEW030 FEW150 M05/M08 A3002 RMK CF1AC2 SLP169

CYQB;2010-01-16 04:00;CYQB 160400Z 29006KT 15SM SCT027 BKN150 M04/M07 A3001 RMK SC3AC2 SLP168

CYQB;2010-01-16 05:00;CYQB 160500Z 23005KT 15SM BKN025 OVC140 M04/M07 A2999 RMK SC6AC2 SLP159

CYQB;2010-01-16 06:00;CYQB 160600Z 26006KT 15SM OVC024 M04/M06 A2998 RMK SC8 SLP155

CYQB;2010-01-16 07:00;CYQB 160700Z 27006KT 15SM OVC021 M04/M06 A2997 RMK SC8 SLP152

CYQB;2010-01-16 08:00;CYQB 160800Z 24006KT 15SM OVC019 M03/M06 A2994 RMK SC8 SLP141

CYQB;2010-01-16 09:00;CYQB 160900Z 24005KT 15SM OVC023 M03/M05 A2992 RMK SC8 SLP134

CYQB;2010-01-16 10:00;CYQB 161000Z 20004KT 15SM OVC023 M02/M04 A2992 RMK SC8 SLP137

CYQB;2010-01-16 10:21;CYQB 161021Z 26009KT 10SM -SN OVC023 M01/ RMK SC8

CYQB;2010-01-16 11:00;CYQB 161100Z 24009KT 10SM -SN OVC024 M01/M03 A2992 RMK SC8 SLP134

CYQB;2010-01-16 11:20;CYQB 161120Z 25010KT 10SM OVC015 M01/ RMK SC8

CYQB;2010-01-16 11:35;CYQB 161135Z 25012KT 2 1/2SM -SHSNGS BKN013 OVC025 M01/ RMK SC7SC1

CYQB;2010-01-16 12:00;CYQB 161200Z 25014KT 2 1/2SM -SHSNGS FEW013 BKN026 OVC072 M01/M02 A2990 RMK SC2SC5AC1 SLP128

CYQB;2010-01-16 12:32;CYQB 161232Z 24017KT 2SM -SHSN BKN012 OVC025 M00/ RMK SC6SC2

CYQB;2010-01-16 13:00;CYQB 161300Z 24015KT 2SM -SHSN VV018 M01/M01 A2991 RMK SN8 /S01/ SLP131

CYQB;2010-01-16 13:30;CYQB 161330Z 24017KT 1 1/4SM -SHSN VV009 M01/ RMK SN8

CYQB;2010-01-16 14:00;CYQB 161400Z 24016KT 1 1/4SM -SHSN VV009 M00/M01 A2991 RMK SN8 SLP133

CYQB;2010-01-16 15:00;CYQB 161500Z 25015G20KT 5SM -SHSN BR OVC008 M00/M00 A2993 RMK SC8 SLP140

CYQB;2010-01-16 16:00;CYQB 161600Z 25017KT 5SM BR OVC015 01/M00 A2992 RMK SC8 SLP138

CYQB;2010-01-16 16:44;CYQB 161644Z 24017KT 5SM -SHSN OVC017 01/ RMK SC8

CYQB;2010-01-16 17:00;CYQB 161700Z 24020KT 5SM -SHSN OVC015 01/M00 A2991 RMK SC8 SLP132

CYQB;2010-01-16 18:00;CYQB 161800Z 25016KT 5SM -SHSN OVC013 01/M01 A2991 RMK SC8 SLP132

CYQB;2010-01-16 19:00;CYQB 161900Z 22016G21KT 15SM -SHSN BKN018 OVC032 01/M01 A2992 RMK SC6SC2 SLP134

CYQB;2010-01-16 19:33;CYQB 161933Z 24013KT 15SM BKN013 BKN025 01/ RMK SC6SC2

CYQB;2010-01-16 20:00;CYQB 162000Z 25014KT 8SM -SHSN BKN013 OVC023 01/M01 A2993 RMK SC7SC1 SLP138

CYQB;2010-01-16 21:00;CYQB 162100Z 25013KT 8SM -SHSN BKN013 OVC039 01/M01 A2995 RMK SC6SC2 SLP147

CYQB;2010-01-16 21:32;CYQB 162132Z 28010KT 4SM -SHSN BKN015 OVC022 01/ RMK SC7SC1

CYQB;2010-01-16 22:00;CYQB 162200Z 28009KT 8SM -SHSN BKN015 OVC023 01/M01 A2998 RMK SC6SC2 SLP155

CYQB;2010-01-16 23:00;CYQB 162300Z 29007KT 10SM SCT017 BKN056 01/M04 A3002 RMK SC3SC4 SLP168

CYQB;2010-01-17 00:00;CYQB 170000Z 01012KT 15SM BKN056 M02/M07 A3004 RMK SC5 SLP178

CYQB;2010-01-17 01:00;CYQB 170100Z CCA 36014KT 15SM FEW045 BKN058 M04/M11 A3010 RMK SC2SC3 PRESRR SLP198

CYQB;2010-01-17 02:00;CYQB 170200Z 35012KT 15SM FEW042 SCT120 BKN200 M06/M15 A3014 RMK SC1AC2CI1 SLP211

CYQB;2010-01-17 03:00;CYQB 170300Z 02009KT 15SM FEW040 SCT120 M08/M16 A3017 RMK SC2AC2 SLP222

CYQB;2010-01-17 04:00;CYQB 170400Z 36010KT 15SM FEW120 M09/M20 A3018 RMK AC2 SLP226

CYQB;2010-01-17 05:00;CYQB 170500Z 36006KT 15SM FEW120 M10/M21 A3019 RMK AC2 SLP228

CYQB;2010-01-17 06:00;CYQB 170600Z 01004KT 15SM FEW120 M11/M20 A3019 RMK AC2 SLP230

CYQB;2010-01-17 07:00;CYQB 170700Z 01004KT 15SM FEW120 M12/M20 A3021 RMK AC1 SLP236

CYQB;2010-01-17 08:00;CYQB 170800Z CCA 02004KT 15SM FEW120 M13/M20 A3023 RMK AC1 OBS TAKEN +09 SLP242

CYQB;2010-01-17 09:00;CYQB 170900Z 02005KT 15SM FEW120 FEW210 M14/M21 A3024 RMK AC1CI1 SLP244

CYQB;2010-01-17 10:00;CYQB 171000Z 02005KT 15SM FEW210 M14/M20 A3026 RMK CI2 SLP251

CYQB;2010-01-17 11:00;CYQB 171100Z 02007KT 15SM FEW210 M14/M20 A3026 RMK CI2 SLP251

CYQB;2010-01-17 12:00;CYQB 171200Z 01005KT 15SM BKN099 M14/M20 A3026 RMK AC5 SLP252

CYQB;2010-01-17 13:00;CYQB 171300Z 05010KT 30SM BKN097 M13/M19 A3025 RMK AC6 SLP249

CYQB;2010-01-17 14:00;CYQB 171400Z 06007KT 30SM BKN098 BKN160 M12/M18 A3026 RMK AC5AC2 SLP254

CYQB;2010-01-17 15:00;CYQB 171500Z 07014G19KT 30SM BKN087 OVC160 M11/M17 A3023 RMK AC6AC2 SLP243

CYQB;2010-01-17 16:00;CYQB 171600Z 07015KT 30SM BKN088 BKN140 M11/M15 A3022 RMK AC6AC2 SLP239

CYQB;2010-01-17 17:00;CYQB 171700Z 07012G19KT 30SM FEW020 BKN090 BKN170 M10/M14 A3018 RMK SC1AC5AC2 SLP227

CYQB;2010-01-17 18:00;CYQB 171800Z 07015KT 30SM FEW038 BKN090 BKN170 M09/M09 A3014 RMK SC2AC4AC1 SLP214

CYQB;2010-01-17 19:00;CYQB 171900Z 07012G20KT 30SM BKN036 OVC090 M09/M15 A3013 RMK SC6AC2 SLP209

CYQB;2010-01-17 20:00;CYQB 172000Z 06012G19KT 30SM BKN032 OVC090 M09/M14 A3011 RMK SC6AC2 SLP203

CYQB;2010-01-17 21:00;CYQB 172100Z 07015G20KT 30SM OVC030 M09/M15 A3012 RMK SC8 SLP205

CYQB;2010-01-17 22:00;CYQB 172200Z 07018G24KT 30SM BKN023 OVC030 M09/M14 A3010 RMK SC7SC1 SLP198

CYQB;2010-01-17 23:00;CYQB 172300Z 07012G22KT 15SM OVC023 M08/M14 A3008 RMK SC8 SLP193

CYQB;2010-01-18 00:00;CYQB 180000Z 07017KT 15SM OVC023 M08/M13 A3007 RMK SC8 SLP188

CYQB;2010-01-18 01:00;CYQB 180100Z 07014G21KT 15SM OVC028 M07/M13 A3004 RMK SC8 SLP180

CYQB;2010-01-18 02:00;CYQB 180200Z 07016G24KT 15SM OVC030 M07/M13 A3003 RMK SC8 SLP175

CYQB;2010-01-18 03:00;CYQB 180300Z 07015G21KT 15SM OVC029 M07/M12 A3003 RMK SC8 SLP173

CYQB;2010-01-18 04:00;CYQB 180400Z 08016G25KT 15SM OVC029 M07/M12 A3000 RMK SC8 SLP166

CYQB;2010-01-18 05:00;CYQB 180500Z 08011G18KT 15SM OVC032 M07/M12 A2999 RMK SC8 SLP160

CYQB;2010-01-18 06:00;CYQB 180600Z 07016G24KT 15SM BKN028 OVC150 M07/M12 A2996 RMK SC6AC2 SLP151

CYQB;2010-01-18 07:00;CYQB 180700Z 08010G18KT 15SM OVC033 M07/M11 A2994 RMK SC8 SLP146

CYQB;2010-01-18 08:00;CYQB 180800Z 07014KT 15SM OVC035 M06/M11 A2993 RMK SC8 SLP142

CYQB;2010-01-18 09:00;CYQB 180900Z 07016G21KT 15SM OVC034 M06/M11 A2991 RMK SC8 SLP134

CYQB;2010-01-18 10:00;CYQB 181000Z 07012G17KT 15SM OVC036 M06/M11 A2991 RMK SC8 SLP133

CYQB;2010-01-18 11:00;CYQB 181100Z 07012G17KT 15SM FEW010 OVC036 M06/M11 A2991 RMK SF2SC6 SLP133

CYQB;2010-01-18 13:00;CYQB 181300Z 07017G22KT 25SM FEW010 OVC036 M06/M11 A2989 RMK SF1SC7 SLP128

CYQB;2010-01-18 14:00;CYQB 181400Z 08014G20KT 25SM FEW010 OVC035 M06/M11 A2990 RMK SF1SC7 SLP130

CYQB;2010-01-18 15:00;CYQB 181500Z 07018G25KT 25SM FEW010 OVC039 M05/M11 A2991 RMK SF1SC7 SLP132

CYQB;2010-01-18 16:00;CYQB 181600Z 07015G21KT 25SM FEW010 BKN039 OVC047 M05/M10 A2989 RMK SF1SC6SC1 SLP127

CYQB;2010-01-18 17:00;CYQB 181700Z 07012G18KT 25SM BKN040 OVC047 M04/M10 A2987 RMK SC6SC2 SLP121

CYQB;2010-01-18 18:00;CYQB 181800Z 07011KT 25SM OVC034 M04/M10 A2986 RMK SC8 SLP115

CYQB;2010-01-18 19:00;CYQB 181900Z 07007KT 25SM OVC028 M04/M09 A2984 RMK SC8 SLP111

CYQB;2010-01-18 20:00;CYQB 182000Z 08009KT 25SM OVC027 M04/M09 A2984 RMK SC8 SLP110

CYQB;2010-01-18 21:00;CYQB 182100Z 07013KT 25SM OVC028 M04/M08 A2985 RMK SC8 SLP113

CYQB;2010-01-18 22:00;CYQB 182200Z 06013KT 10SM -SHSN BKN028 OVC040 M04/M08 A2986 RMK SC6SC2 SLP118

CYQB;2010-01-18 23:00;CYQB 182300Z 07007KT 10SM -SHSN FEW025 OVC035 M04/M08 A2988 RMK SC2SC6 SLP124

CYQB;2010-01-19 00:00;CYQB 190000Z 06011KT 1 1/2SM -SHSN OVC025 M05/M07 A2989 RMK SN4SC4 SLP125

CYQB;2010-01-19 00:36;CYQB 190036Z 06007KT 10SM -SHSN OVC028 M06/ RMK SC8

CYQB;2010-01-19 01:00;CYQB 190100Z 07009KT 15SM OVC028 M05/M06 A2989 RMK SC8 SLP126

CYQB;2010-01-19 02:00;CYQB 190200Z 07009KT 5SM -SHSN OVC038 M05/M06 A2989 RMK SC8 SLP125

CYQB;2010-01-19 03:00;CYQB 190300Z 07008KT 5SM -SHSN OVC034 M05/M06 A2989 RMK SC8 SLP127

CYQB;2010-01-19 04:00;CYQB 190400Z 08008KT 5SM -SHSN OVC030 M05/M06 A2989 RMK SC8 SLP126

CYQB;2010-01-19 05:00;CYQB 190500Z CCA 08006KT 6SM -SHSN OVC018 M04/M06 A2989 RMK SC8 SLP128

CYQB;2010-01-19 06:00;CYQB 190600Z 08006KT 6SM -SHSN OVC015 M04/M06 A2990 RMK SC8 SLP130

CYQB;2010-01-19 07:00;CYQB 190700Z 07006KT 10SM -SHSN OVC013 M04/M06 A2992 RMK SC8 SLP135

CYQB;2010-01-19 08:00;CYQB 190800Z 08003KT 10SM OVC010 M04/M06 A2991 RMK SF8 SLP134

CYQB;2010-01-19 09:00;CYQB 190900Z 09002KT 12SM OVC009 M05/M06 A2991 RMK SF8 SLP134

CYQB;2010-01-19 09:53;CYQB 190953Z 00000KT 15SM OVC014 M05/ RMK SC8

CYQB;2010-01-19 10:00;CYQB 191000Z 00000KT 15SM -SG FEW008 OVC013 M05/M06 A2992 RMK SF2ST6 SLP137

CYQB;2010-01-19 11:00;CYQB 191100Z 00000KT 12SM -SHSN OVC012 M05/M06 A2993 RMK ST8 SLP141

CYQB;2010-01-19 12:00;CYQB 191200Z 32003KT 4SM -SHSN OVC013 M05/M06 A2994 RMK SC8 SLP142

CYQB;2010-01-19 12:35;CYQB 191235Z 36002KT 2 1/2SM -SHSN BR FEW013 OVC028 M05/ RMK SC2SC6

CYQB;2010-01-19 13:00;CYQB 191300Z 06002KT 4SM -SHSN BR OVC022 M05/M06 A2994 RMK SC8 SLP143

CYQB;2010-01-19 14:00;CYQB 191400Z 06004KT 6SM -SHSN BR OVC022 M04/M06 A2995 RMK SC8 SLP147

CYQB;2010-01-19 15:00;CYQB 191500Z 05006KT 2 1/2SM -SHSN OVC021 M04/M06 A2995 RMK SC8 SLP147

CYQB;2010-01-19 15:10;CYQB 191510Z 07005KT 4SM -SHSN OVC021 M04/ RMK SC8

CYQB;2010-01-19 16:00;CYQB 191600Z 08005KT 8SM -SHSN FEW020 OVC037 M04/M06 A2994 RMK CU2SC6 SLP144

CYQB;2010-01-19 16:13;CYQB 191613Z 06005KT 8SM -SHSN FEW008 SCT014 BKN018 OVC037 M04/ RMK CF1CU3SC3SC2

CYQB;2010-01-19 17:00;CYQB 191700Z 06004KT 8SM -SHSN BKN012 BKN017 OVC035 M03/M05 A2993 RMK SC6SC2SC1 SLP141

CYQB;2010-01-19 18:00;CYQB 191800Z CCA 06005KT 8SM -SHSN OVC012 M03/M05 A2992 RMK SC8 SLP137

CYQB;2010-01-19 19:00;CYQB 191900Z 07005KT 10SM -SHSN OVC012 M03/M05 A2992 RMK SC8 SLP136

CYQB;2010-01-19 20:00;CYQB 192000Z 07006KT 3SM -SHSN BKN012 OVC040 M03/M05 A2992 RMK SC6SC2 SLP136

CYQB;2010-01-19 20:10;CYQB 192010Z 07005KT 1 1/4SM -SHSN VV008 M03/ RMK SN8

CYQB;2010-01-19 20:19;CYQB 192019Z 07005KT 1/2SM R06/6000FT/U SHSN VV007 M03/ RMK SN8

CYQB;2010-01-19 20:28;CYQB 192028Z 06005KT 1 1/2SM -SHSN OVC030 M03/ RMK SN4SC4 RESN

CYQB;2010-01-19 20:46;CYQB 192046Z 06006KT 4SM -SHSN OVC030 M03/ RMK SC8 RESN

CYQB;2010-01-19 21:00;CYQB 192100Z 08006KT 5SM -SHSN OVC028 M03/M04 A2992 RMK SC8 RESN SLP137

CYQB;2010-01-19 22:00;CYQB 192200Z 09005KT 4SM -SHSN OVC025 M03/M04 A2992 RMK SC8 SLP138

CYQB;2010-01-19 23:00;CYQB 192300Z 08007KT 3SM -SHSN OVC028 M04/M05 A2993 RMK SN2SC6 SLP141

CYQB;2010-01-19 23:46;CYQB 192346Z 07007KT 1 1/2SM -SHSN VV012 M04/ RMK SN8

CYQB;2010-01-20 00:00;CYQB 200000Z 06008KT 1SM R06/P6000FT/D -SHSN VV010 M04/M05 A2993 RMK SN8 /S01/ SLP139

CYQB;2010-01-20 01:00;CYQB 200100Z 06006KT 2SM -SHSN FEW010 OVC024 M04/M04 A2993 RMK SF2SC6 SLP139

CYQB;2010-01-20 01:20;CYQB 200120Z 07007KT 5SM -SHSN FEW010 OVC023 M04/ RMK SF2SC6

CYQB;2010-01-20 02:00;CYQB 200200Z 06006KT 4SM -SHSN FEW010 OVC020 M04/M04 A2993 RMK SF2SC6 SLP141

CYQB;2010-01-20 03:00;CYQB 200300Z 07007KT 6SM -SHSN FEW006 OVC019 M03/M04 A2994 RMK SF2SC6 SLP142

CYQB;2010-01-20 04:00;CYQB 200400Z 07004KT 10SM -SHSN SCT006 OVC020 M03/M04 A2994 RMK SF3SC5 SLP143

CYQB;2010-01-20 05:00;CYQB 200500Z 07006KT 10SM -SHSN BKN007 OVC025 M03/M04 A2993 RMK SF6SC2 SLP140

CYQB;2010-01-20 06:00;CYQB 200600Z 07007KT 10SM -SHSN BKN007 OVC022 M03/M04 A2993 RMK SF6SC2 SLP139

CYQB;2010-01-20 07:00;CYQB 200700Z 07007KT 12SM -SHSN FEW007 BKN022 BKN032 OVC090 M03/M04 A2994 RMK SF1SC6SC1AC1 SLP142

CYQB;2010-01-20 08:00;CYQB 200800Z 07005KT 15SM -SHSN FEW007 BKN022 OVC087 M04/M04 A2992 RMK SF1SC7AC1 -SHSN OCNL SLP138

CYQB;2010-01-20 08:36;CYQB 200836Z 06005KT 15SM BKN022 OVC089 M04/ RMK SC6AC2

CYQB;2010-01-20 09:00;CYQB 200900Z 07006KT 15SM BKN029 OVC089 M03/M04 A2992 RMK SC6AC2 SLP138

CYQB;2010-01-20 10:00;CYQB 201000Z 05003KT 15SM SCT009 BKN039 OVC090 M04/M05 A2993 RMK SF3SC4AC1 SLP140

CYQB;2010-01-20 11:00;CYQB 201100Z 06004KT 15SM BKN009 OVC040 M03/M04 A2994 RMK SF6SC2 SLP144

CYQB;2010-01-20 12:00;CYQB 201200Z 05005KT 15SM SCT009 BKN110 M04/M05 A2995 RMK SF3AC4 SLP147

CYQB;2010-01-20 13:00;CYQB 201300Z 04007KT 20SM FEW009 FEW040 BKN110 M04/M05 A2997 RMK SF1SC1AC6 SLP152

CYQB;2010-01-20 14:00;CYQB 201400Z 06007KT 20SM FEW012 FEW040 BKN110 M03/M05 A2997 RMK SC1SC1AC5 SLP155

CYQB;2010-01-20 14:54;CYQB 201454Z 06009KT 30SM BKN010 BKN040 BKN110 M02/ RMK SC5SC2AC1

CYQB;2010-01-20 15:00;CYQB 201500Z 06008KT 25SM BKN010 BKN040 BKN110 M03/M04 A2998 RMK SC5SC1AC2 SLP156

CYQB;2010-01-20 15:17;CYQB 201517Z 06007KT 25SM SCT010 SCT070 BKN100 M02/ RMK SC3AC1AC2

CYQB;2010-01-20 16:00;CYQB 201600Z 07007KT 25SM SCT011 BKN100 M02/M04 A2997 RMK SC4AC2 SLP153

CYQB;2010-01-20 17:00;CYQB 201700Z 06006KT 25SM FEW013 BKN100 M02/M04 A2996 RMK SC2AC4 SLP149

CYQB;2010-01-20 18:00;CYQB 201800Z 05006KT 25SM FEW012 FEW025 BKN100 M01/M04 A2995 RMK SF1CU1AC4 SLP148

CYQB;2010-01-20 19:00;CYQB 201900Z 09006KT 25SM FEW012 FEW025 SCT100 M01/M04 A2995 RMK SF1CU1AC1 SLP148

CYQB;2010-01-20 20:00;CYQB 202000Z 09006KT 30SM FEW015 FEW025 SCT100 M01/M04 A2997 RMK SF1SC1AC2 SLP153

CYQB;2010-01-20 21:00;CYQB 202100Z 07004KT 30SM FEW012 SCT045 BKN082 M02/M04 A2998 RMK SC1SC3AC2 SLP156

CYQB;2010-01-20 22:00;CYQB 202200Z 10005KT 15SM FEW012 FEW023 BKN046 OVC080 M02/M04 A2999 RMK SC1SC2SC4AC1 SLP161

CYQB;2010-01-20 23:00;CYQB 202300Z 10002KT 15SM FEW012 OVC022 M02/M04 A3000 RMK SC1SC7 SLP163

CYQB;2010-01-21 00:00;CYQB 210000Z 00000KT 10SM BKN012 OVC020 M03/M04 A3001 RMK ST7SC1 MT TOP OBSC NW SLP168

CYQB;2010-01-21 01:00;CYQB 210100Z 21002KT 10SM BKN010 OVC020 M03/M04 A3002 RMK ST7SC1 SLP170

CYQB;2010-01-21 02:00;CYQB 210200Z 22002KT 10SM BKN010 OVC020 M03/M04 A3003 RMK ST6SC2 SLP173

CYQB;2010-01-21 03:00;CYQB 210300Z 20002KT 10SM BKN009 OVC020 M03/M04 A3003 RMK ST6SC2 SLP174

CYQB;2010-01-21 04:00;CYQB 210400Z 25004KT 15SM SCT009 OVC035 M04/M05 A3003 RMK SF3SC5 SLP175

CYQB;2010-01-21 05:00;CYQB 210500Z 25007KT 15SM FEW009 FEW035 M04/M05 A3003 RMK SF1SC2 SLP173

CYQB;2010-01-21 06:00;CYQB 210600Z 28004KT 15SM FEW100 M07/M07 A3003 RMK AC1 SLP173

CYQB;2010-01-21 07:00;CYQB 210700Z 31007KT 15SM FEW071 M05/M08 A3005 RMK AC2 SLP180

CYQB;2010-01-21 08:00;CYQB 210800Z 33012G19KT 15SM SCT068 M05/M09 A3006 RMK AC3 SLP184

CYQB;2010-01-21 09:00;CYQB 210900Z 29005KT 15SM FEW069 M06/M10 A3006 RMK AC2 SLP185

CYQB;2010-01-21 10:00;CYQB 211000Z 29004KT 15SM FEW064 M06/M10 A3008 RMK SC2 SLP189

CYQB;2010-01-21 11:00;CYQB 211100Z 29006KT 15SM FEW058 M06/M09 A3009 RMK SC2 SLP193

CYQB;2010-01-21 12:00;CYQB 211200Z 20004KT 15SM FEW060 M07/M10 A3010 RMK SC1 SLP199

CYQB;2010-01-21 13:00;CYQB 211300Z 24007KT 30SM FEW060 M08/M10 A3011 RMK SC1 SLP203

CYQB;2010-01-21 14:00;CYQB 211400Z 24011KT 30SM FEW060 M06/M09 A3013 RMK SC1 SLP208

CYQB;2010-01-21 15:00;CYQB 211500Z 24011KT 30SM FEW050 M05/M08 A3013 RMK SC1 SLP208

CYQB;2010-01-21 16:00;CYQB 211600Z 24014KT 30SM FEW022 M04/M08 A3011 RMK SC2 SLP202

CYQB;2010-01-21 17:00;CYQB 211700Z 24016KT 30SM FEW023 M04/M08 A3010 RMK SC2 SLP197

CYQB;2010-01-21 18:00;CYQB 211800Z 25017G22KT 30SM BKN022 M04/M07 A3010 RMK SC6 SLP197

CYQB;2010-01-21 19:00;CYQB 211900Z 23015KT 30SM BKN022 M04/M07 A3011 RMK SC6 SLP201

CYQB;2010-01-21 20:00;CYQB 212000Z 25016KT 30SM FEW022 M04/M08 A3011 RMK SC2 SLP203

CYQB;2010-01-21 21:00;CYQB 212100Z 24012KT 30SM FEW022 M04/M08 A3013 RMK SC2 SLP208

CYQB;2010-01-21 22:00;CYQB 212200Z 24010KT 30SM FEW028 M05/M09 A3012 RMK SC2 SLP206

CYQB;2010-01-21 23:00;CYQB 212300Z 26009KT 30SM FEW028 M06/M09 A3011 RMK SC1 SLP201

CYQB;2010-01-22 00:00;CYQB 220000Z 25013KT 30SM FEW025 M06/M08 A3010 RMK SC1 SLP199

CYQB;2010-01-22 01:00;CYQB 220100Z 24018G24KT 15SM BKN012 M06/M08 A3008 RMK SC5 SLP193

CYQB;2010-01-22 02:00;CYQB 220200Z 25014G21KT 15SM BKN011 M06/M08 A3008 RMK SC7 SLP191

CYQB;2010-01-22 02:40;CYQB 220240Z 24014KT 15SM OVC009 M06/ RMK SC8

CYQB;2010-01-22 03:00;CYQB 220300Z 25011KT 15SM OVC009 M06/M08 A3006 RMK ST8 SLP185

CYQB;2010-01-22 04:00;CYQB 220400Z 26012KT 15SM OVC008 M07/M08 A3006 RMK ST8 SLP184

CYQB;2010-01-22 05:00;CYQB 220500Z 25011KT 15SM OVC006 M07/M08 A3005 RMK ST8 SLP181

CYQB;2010-01-22 06:00;CYQB 220600Z 26011KT 15SM OVC006 M07/M08 A3004 RMK ST8 SLP176

CYQB;2010-01-22 07:00;CYQB 220700Z 26013KT 15SM OVC004 M08/M09 A3006 RMK ST8 SLP183

CYQB;2010-01-22 07:34;CYQB 220734Z 24013KT 12SM SCT004 OVC040 M08/ RMK SF4SC4

CYQB;2010-01-22 08:00;CYQB 220800Z 25011KT 12SM SCT006 OVC038 M08/M09 A3009 RMK SF4SC4 SLP193

CYQB;2010-01-22 09:00;CYQB 220900Z 27012KT 12SM BKN004 M08/M09 A3010 RMK SF2 SLP198

CYQB;2010-01-22 10:00;CYQB 221000Z 27010G15KT 10SM FEW004 M09/M10 A3011 RMK SF1 FROIN SLP201

CYQB;2010-01-22 11:00;CYQB 221100Z 00000KT 10SM FEW004 M09/M10 A3012 RMK SF1 FROIN SLP205

CYQB;2010-01-22 12:00;CYQB 221200Z 36007KT 10SM FEW004 FEW030 M10/M11 A3011 RMK SF1SC1 SLP202

CYQB;2010-01-22 13:00;CYQB 221300Z 34008KT 30SM FEW030 M11/M13 A3010 RMK SC1 SLP198

CYQB;2010-01-22 14:00;CYQB 221400Z 01004KT 30SM FEW250 M07/M11 A3011 RMK CI1 SLP203

CYQB;2010-01-22 15:00;CYQB 221500Z 04006KT 30SM FEW250 M06/M11 A3013 RMK CI1 SLP208

CYQB;2010-01-22 16:00;CYQB 221600Z 06005KT 30SM FEW250 M05/M11 A3014 RMK CI1 SLP212

CYQB;2010-01-22 17:00;CYQB 221700Z 11005KT 20SM FEW250 M05/M10 A3014 RMK CI1 SLP212

CYQB;2010-01-22 18:00;CYQB 221800Z 11007KT 20SM FEW250 M05/M10 A3014 RMK CI1 SLP210

CYQB;2010-01-22 19:00;CYQB 221900Z 11005KT 30SM SKC M04/M11 A3014 RMK SLP212

CYQB;2010-01-22 20:00;CYQB 222000Z 15005KT 30SM SKC M04/M11 A3015 RMK SLP216

CYQB;2010-01-22 21:00;CYQB 222100Z 10003KT 30SM SKC M05/M11 A3016 RMK SLP219

CYQB;2010-01-22 22:00;CYQB 222200Z 07004KT 30SM SKC M06/M11 A3018 RMK SLP224

CYQB;2010-01-22 23:00;CYQB 222300Z 34003KT 15SM SKC M08/M12 A3019 RMK SLP228

CYQB;2010-01-23 00:00;CYQB 230000Z 35003KT 15SM SKC M09/M13 A3020 RMK SLP234

CYQB;2010-01-23 01:00;CYQB 230100Z 33004KT 15SM SKC M09/M12 A3021 RMK SLP236

CYQB;2010-01-23 02:00;CYQB 230200Z 33005KT 15SM SKC M10/M15 A3021 RMK SLP237

CYQB;2010-01-23 03:00;CYQB 230300Z 36002KT 15SM SKC M09/M15 A3023 RMK SLP242

CYQB;2010-01-23 04:00;CYQB 230400Z 01006KT 15SM SKC M10/M16 A3024 RMK SLP245

CYQB;2010-01-23 05:00;CYQB 230500Z 03002KT 15SM SKC M12/M17 A3024 RMK SLP244

CYQB;2010-01-23 06:00;CYQB 230600Z 00000KT 15SM SKC M13/M18 A3025 RMK SLP248

CYQB;2010-01-23 07:00;CYQB 230700Z 02004KT 15SM SKC M12/M21 A3026 RMK SLP254

CYQB;2010-01-23 08:00;CYQB 230800Z 03007KT 15SM SKC M11/M20 A3027 RMK SLP257

CYQB;2010-01-23 09:00;CYQB 230900Z 31002KT 15SM SKC M16/M22 A3028 RMK SLP258

CYQB;2010-01-23 10:00;CYQB 231000Z 00000KT 15SM SKC M17/M21 A3028 RMK SLP259

CYQB;2010-01-23 11:00;CYQB 231100Z 00000KT 15SM FEW210 M18/M21 A3030 RMK CI0 SLP265

CYQB;2010-01-23 12:00;CYQB 231200Z 00000KT 6SM BR FEW004 SCT210 M16/M19 A3031 RMK SF2CI1 VIS SE-SW 3 SLP270

CYQB;2010-01-23 13:00;CYQB 231300Z 36002KT 25SM FEW004 FEW210 M17/M20 A3031 RMK SF2CI0 VIS LWR S SLP271

CYQB;2010-01-23 14:00;CYQB 231400Z 24003KT 15SM FEW004 FEW070 M15/M18 A3032 RMK SF1AC1 SLP273

CYQB;2010-01-23 15:00;CYQB 231500Z 24007KT 25SM FEW004 FEW070 M12/M17 A3032 RMK SF0AC1 SLP274

CYQB;2010-01-23 16:00;CYQB 231600Z 24008KT 25SM FEW004 M10/M17 A3029 RMK SF0 SLP263

CYQB;2010-01-23 17:00;CYQB 231700Z 22009KT 25SM FEW004 FEW210 M09/M15 A3025 RMK SF1CI1 SLP251

CYQB;2010-01-23 18:00;CYQB 231800Z 22012KT 25SM FEW004 M09/M13 A3023 RMK SF1 SLP244

CYQB;2010-01-23 19:00;CYQB 231900Z 23014G19KT 25SM FEW210 M08/M14 A3022 RMK CI0 SLP240

CYQB;2010-01-23 20:00;CYQB 232000Z 22010KT 30SM FEW210 M07/M14 A3022 RMK CI0 SLP240

CYQB;2010-01-23 21:00;CYQB 232100Z 22009KT 30SM SCT210 M07/M14 A3024 RMK CI1 SLP245

CYQB;2010-01-23 22:00;CYQB 232200Z 23012KT 30SM FEW220 M08/M14 A3026 RMK CI1 SLP252

CYQB;2010-01-23 23:00;CYQB 232300Z 23012G19KT 15SM FEW220 M07/M14 A3025 RMK CI1 SLP248

CYQB;2010-01-24 00:00;CYQB 240000Z 23011KT 15SM FEW230 M08/M13 A3025 RMK CI1 SLP252

CYQB;2010-01-24 01:00;CYQB 240100Z 23009KT 15SM BKN230 M09/M14 A3026 RMK CI2 SLP254

CYQB;2010-01-24 02:00;CYQB 240200Z 23010KT 15SM BKN230 M09/M14 A3025 RMK CI2 SLP249

CYQB;2010-01-24 03:00;CYQB 240300Z 24013KT 15SM BKN180 M09/M15 A3023 RMK AC5 SLP243

CYQB;2010-01-24 04:00;CYQB 240400Z 24007KT 15SM SCT180 OVC210 M10/M14 A3024 RMK AC3CI2 SLP247

CYQB;2010-01-24 05:00;CYQB 240500Z 24007KT 15SM BKN180 M10/M15 A3025 RMK AC7 SLP248

CYQB;2010-01-24 06:00;CYQB 240600Z 23006KT 15SM OVC160 M10/M14 A3023 RMK AC8 SLP243

CYQB;2010-01-24 07:00;CYQB 240700Z 22005KT 15SM OVC140 M10/M14 A3023 RMK AC8 SLP243

CYQB;2010-01-24 08:00;CYQB 240800Z 24004KT 15SM OVC120 M10/M14 A3022 RMK AC8 SLP241

CYQB;2010-01-24 09:00;CYQB 240900Z 00000KT 15SM BKN160 OVC220 M10/M14 A3021 RMK AC6CI2 SLP236

CYQB;2010-01-24 10:00;CYQB 241000Z 00000KT 15SM OVC180 M11/M14 A3022 RMK AC8 SLP238

CYQB;2010-01-24 11:00;CYQB 241100Z 34003KT 15SM BKN170 M11/M15 A3020 RMK AC6 SLP232

CYQB;2010-01-24 12:00;CYQB 241200Z 03003KT 20SM BKN170 BKN220 M12/M15 A3019 RMK AC6CI1 SLP231

CYQB;2010-01-24 13:00;CYQB 241300Z 02004KT 30SM BKN180 BKN220 M11/M14 A3019 RMK AC6CI1 SLP231

CYQB;2010-01-24 14:00;CYQB 241400Z 05005KT 30SM BKN180 BKN220 M09/M14 A3019 RMK AC6CI1 SLP229

CYQB;2010-01-24 15:00;CYQB 241500Z 04005KT 30SM FEW170 FEW220 M07/M13 A3018 RMK AC2CI0 SLP226

CYQB;2010-01-24 16:00;CYQB 241600Z 06003KT 30SM FEW180 FEW230 M06/M13 A3015 RMK AC1CI1 SLP217

CYQB;2010-01-24 17:00;CYQB 241700Z 06006KT 30SM FEW180 FEW230 M04/M12 A3012 RMK AC1CI1 SLP206

CYQB;2010-01-24 18:00;CYQB 241800Z 04004KT 30SM FEW180 FEW240 M03/M12 A3011 RMK AC1CI1 SLP201

CYQB;2010-01-24 19:00;CYQB 241900Z 04006KT 30SM FEW032 FEW180 SCT240 M02/M10 A3008 RMK SC1AC1CI1 SLP192

CYQB;2010-01-24 20:00;CYQB 242000Z 04007KT 30SM FEW032 FEW180 BKN240 M03/M09 A3007 RMK SC1AC1CI2 SLP188

CYQB;2010-01-24 21:00;CYQB 242100Z 07006KT 30SM FEW140 FEW180 BKN240 M04/M08 A3006 RMK AC1AC1CI2 SLP184

CYQB;2010-01-24 22:00;CYQB 242200Z 08007KT 30SM FEW160 BKN240 M04/M07 A3006 RMK AC2CI2 SLP184

CYQB;2010-01-24 23:00;CYQB 242300Z 08009KT 15SM FEW160 BKN240 M04/M07 A3007 RMK AC2CI2 SLP187

CYQB;2010-01-25 00:00;CYQB 250000Z 06014KT 15SM FEW160 BKN230 M04/M08 A3004 RMK AC2CI2 SLP178

CYQB;2010-01-25 01:00;CYQB 250100Z 07010G17KT 15SM FEW160 BKN230 M04/M07 A3003 RMK AC2CI2 SLP176

CYQB;2010-01-25 02:00;CYQB 250200Z 06013KT 15SM FEW060 FEW160 BKN240 M04/M06 A3003 RMK SC1AC2CI2 SLP176

CYQB;2010-01-25 03:00;CYQB 250300Z 09007KT 15SM FEW060 SCT140 OVC240 M04/M07 A3001 RMK SC2AC2CI2 SLP167

CYQB;2010-01-25 04:00;CYQB 250400Z 08008KT 15SM BKN044 OVC120 M03/M07 A2999 RMK SC5AC3 SLP161

CYQB;2010-01-25 05:00;CYQB 250500Z 07011KT 15SM BKN025 OVC035 M03/M08 A2995 RMK SC7SC1 SLP147

CYQB;2010-01-25 06:00;CYQB 250600Z 07014KT 15SM OVC023 M02/M07 A2993 RMK SC8 SLP139

CYQB;2010-01-25 07:00;CYQB 250700Z 08008KT 15SM OVC022 M02/M07 A2992 RMK SC8 SLP134

CYQB;2010-01-25 08:00;CYQB 250800Z 07008KT 15SM -FZRA OVC017 M02/M06 A2989 RMK SC8 SLP124

CYQB;2010-01-25 09:00;CYQB 250900Z 08009G16KT 5SM -FZRA BR FEW008 OVC012 M02/M03 A2986 RMK SF1SC7 SLP115

CYQB;2010-01-25 10:00;CYQB 251000Z 07014KT 5SM -FZRA BR BKN005 OVC012 M02/M02 A2983 RMK SF6SC2 SLP104

CYQB;2010-01-25 11:00;CYQB 251100Z 07009G17KT 5SM -FZRA BR BKN005 OVC015 M01/M02 A2980 RMK SF6SC2 SLP095

CYQB;2010-01-25 12:00;CYQB 251200Z 07011KT 3SM -FZRA BR BKN004 OVC016 M01/M01 A2977 RMK SF6SC2 SLP085

CYQB;2010-01-25 13:00;CYQB 251300Z 07012KT 2 1/2SM -FZRA BR BKN004 OVC017 M00/M01 A2975 RMK SF7SC1 SLP078

CYQB;2010-01-25 14:00;CYQB 251400Z 07010G15KT 2 1/2SM -FZRA BR BKN003 OVC018 M00/M01 A2971 RMK SF7SC1 SLP064

CYQB;2010-01-25 14:42;CYQB 251442Z 07012KT 2 1/2SM -RA BR BKN003 OVC019 00/M00 RMK SF7SC1

CYQB;2010-01-25 15:00;CYQB 251500Z 07012KT 2 1/2SM -RA BR BKN003 OVC019 00/M00 A2966 REFZRA RMK SF7SC1 SLP046

CYQB;2010-01-25 16:00;CYQB 251600Z 07012KT 2SM -RA BR BKN003 OVC019 01/00 A2961 RMK SF6SC2 SLP030

CYQB;2010-01-25 17:00;CYQB 251700Z 06012G19KT 2SM -RA BR BKN003 OVC015 01/01 A2952 RMK SF7SC1 SLP001

CYQB;2010-01-25 18:00;CYQB 251800Z 06021G28KT 6SM -RA BR BKN004 OVC020 02/02 A2943 RMK SF6SC2 PRESFR SLP970

CYQB;2010-01-25 19:00;CYQB 251900Z 07016G25KT 10SM -RA FEW004 BKN016 BKN023 OVC033 03/02 A2935 RMK SF2ST3SC2SC1 VIS LWR N SLP942

CYQB;2010-01-25 20:00;CYQB 252000Z 08013G28KT 6SM -RA BR FEW004 SCT015 BKN024 OVC033 03/02 A2932 RMK SF2SF2SC2SC2 SLP931

CYQB;2010-01-25 21:00;CYQB 252100Z 06019G24KT 8SM -RA SCT015 BKN022 OVC033 04/03 A2926 RMK SF3SC3SC2 SLP911

CYQB;2010-01-25 22:00;CYQB 252200Z 07015G22KT 8SM -RA BKN019 BKN029 OVC046 04/04 A2919 RMK SC5SC2SC1 SLP887

CYQB;2010-01-25 23:00;CYQB 252300Z 05004KT 10SM -RA FEW011 BKN015 OVC030 05/05 A2918 RMK SF2SC4SC2 SLP885

CYQB;2010-01-26 00:00;CYQB 260000Z 07010KT 6SM -RA BR FEW011 BKN017 OVC029 05/05 A2916 RMK SF2SC5SC2 SLP876

CYQB;2010-01-26 01:00;CYQB 260100Z 09004KT 1 1/2SM R06/1800FT/N -RA BR BKN009 OVC024 05/05 A2915 RMK SF6SC2 SLP874

CYQB;2010-01-26 01:13;CYQB 260113Z 11003KT 3/4SM R06/1200V1800FT/N -RA BR FEW007 OVC010 05/ RMK SF2ST6

CYQB;2010-01-26 01:30;CYQB 260130Z 00000KT 1/2SM R06/2400FT/N -RA FG FEW002 OVC007 04/ RMK SF2ST6

CYQB;2010-01-26 01:47;CYQB 260147Z 22004KT 1 1/2SM R06/2400FT/N BR SCT006 OVC010 05/ RMK SF3SF5

CYQB;2010-01-26 02:00;CYQB 260200Z 26004KT 1 1/2SM R06/2600V4500FT/U -RA BR SCT006 OVC010 04/04 A2916 RMK SF4SF4 VIS HIR S SLP877

CYQB;2010-01-26 02:25;CYQB 260225Z 25006KT 2SM R06/4500VP6000FT/D -RA BR SCT005 OVC010 06/ RMK SF4SF4

CYQB;2010-01-26 02:37;CYQB 260237Z 23010KT 3SM -RA BR SCT005 OVC010 06/ RMK SF3SF5

CYQB;2010-01-26 03:00;CYQB 260300Z 24016G21KT 5SM -RA BR SCT005 BKN010 OVC015 07/06 A2919 RMK SF3SF4SC1 SLP886

CYQB;2010-01-26 04:00;CYQB 260400Z 25024G30KT 10SM FEW007 OVC010 05/05 A2920 RMK SF2SC6 SLP889

CYQB;2010-01-26 05:00;CYQB 260500Z 25016KT 15SM FEW006 OVC010 04/03 A2923 RMK SF1SC7 SLP900

CYQB;2010-01-26 06:00;CYQB 260600Z 24018KT 15SM FEW008 OVC011 03/02 A2925 RMK SF1SC7 SLP909

CYQB;2010-01-26 07:00;CYQB 260700Z 23011G19KT 15SM OVC011 03/01 A2928 RMK SC8 SLP918

CYQB;2010-01-26 08:00;CYQB 260800Z 23012KT 15SM OVC014 02/00 A2929 RMK SC8 SLP920

CYQB;2010-01-26 09:00;CYQB 260900Z 25011G18KT 15SM OVC014 02/00 A2928 RMK SC8 SLP918

CYQB;2010-01-26 10:00;CYQB 261000Z 25012KT 15SM OVC014 01/M00 A2927 RMK SC8 SLP915

CYQB;2010-01-26 11:00;CYQB 261100Z 25012G17KT 15SM OVC014 01/M00 A2928 RMK SC8 SLP919

CYQB;2010-01-26 12:00;CYQB 261200Z 24011KT 15SM OVC016 01/M01 A2931 RMK SC8 SLP927

CYQB;2010-01-26 13:00;CYQB 261300Z 23013KT 12SM OVC016 01/M01 A2933 RMK SC8 N-E VIS 6 BR SLP934

CYQB;2010-01-26 14:00;CYQB 261400Z 22009KT 12SM OVC016 01/M01 A2934 RMK SC8 VIS N-E 6 NR SLP939

CYQB;2010-01-26 15:00;CYQB 261500Z 23010KT 12SM OVC015 01/M01 A2934 RMK SC8 N-E VIS 6 BR SLP939

CYQB;2010-01-26 16:00;CYQB 261600Z 24011KT 6SM -SHSN BR OVC017 01/M01 A2933 RMK SC8 VIS LWR OVER MTNS SLP935

CYQB;2010-01-26 17:00;CYQB 261700Z 24012KT 3SM -SHSN BR OVC017 01/M01 A2932 RMK SC8 SLP930

CYQB;2010-01-26 18:00;CYQB 261800Z 24009G15KT 4SM -SHSN BR OVC017 01/M01 A2931 RMK SC8 SLP928

CYQB;2010-01-26 19:00;CYQB 261900Z 24016KT 5SM -SHSN OVC019 01/M01 A2931 RMK SC8 SLP929

CYQB;2010-01-26 20:00;CYQB 262000Z 24013G19KT 6SM -SHSN OVC016 01/M01 A2934 RMK SC8 SLP939

CYQB;2010-01-26 21:00;CYQB 262100Z 24013G18KT 2SM -SHSN OVC013 00/M01 A2936 RMK SC8 SLP947

CYQB;2010-01-26 21:44;CYQB 262144Z 24016KT 1SM R06/P6000FT/N -SHSN BKN008 OVC013 M00/ RMK SF5SC3

CYQB;2010-01-26 22:00;CYQB 262200Z 23015KT 3/4SM R06/P6000FT/N -SHSN BR BKN008 OVC013 M00/M00 A2938 RMK SF6SC2 SLP953

CYQB;2010-01-26 22:44;CYQB 262244Z 24016KT 1 1/2SM -SHSN BR SCT006 OVC010 00/ RMK SF4SF4

CYQB;2010-01-26 23:00;CYQB 262300Z 24014KT 1 1/2SM -SHSN BR SCT007 OVC011 00/M00 A2940 RMK SF4SF4 SLP959

CYQB;2010-01-26 23:25;CYQB 262325Z 24014KT 1 1/2SM -SHSN BR OVC008 00/ RMK SF8 CIG VRB 6-11

CYQB;2010-01-27 00:00;CYQB 270000Z 24017KT 2SM -SHSN OVC008 00/M00 A2942 RMK SC8 CIG VRB 6-10 SLP964

CYQB;2010-01-27 00:49;CYQB 270049Z 25016KT 4SM -SHSN OVC008 00/ RMK SF8

CYQB;2010-01-27 01:00;CYQB 270100Z 24017KT 6SM -SHSN OVC007 00/M00 A2943 RMK SF8 SLP969

CYQB;2010-01-27 02:00;CYQB 270200Z CCA 25019G24KT 6SM BR OVC006 00/00 A2945 RMK SF8 CIG VRB 5-7 SLP977

CYQB;2010-01-27 03:00;CYQB 270300Z 25017KT 6SM BR OVC006 01/00 A2948 RMK SF8 SLP986

CYQB;2010-01-27 04:00;CYQB 270400Z 25014G20KT 10SM OVC006 01/00 A2951 RMK SF8 SLP995

CYQB;2010-01-27 05:00;CYQB 270500Z 25011KT 15SM BKN005 OVC098 00/M00 A2953 RMK SF4AC4 SLP001

CYQB;2010-01-27 06:00;CYQB 270600Z 25014KT 15SM BKN005 OVC097 00/M00 A2956 RMK SF4AC4 SLP014

CYQB;2010-01-27 07:00;CYQB 270700Z 25011KT 15SM SCT030 BKN041 OVC100 00/M00 A2959 RMK SC3SC3AC2 SLP022

CYQB;2010-01-27 08:00;CYQB 270800Z 24008KT 10SM -SHSN OVC020 00/M00 A2961 RMK SC8 SLP030

CYQB;2010-01-27 09:00;CYQB 270900Z 25008KT 3SM -SHSN FEW005 SCT010 OVC017 M00/M00 A2963 RMK SF1SC3SC4 VIS LWR N QUAD SLP038

CYQB;2010-01-27 10:00;CYQB 271000Z 24007KT 4SM -SHSN OVC015 M00/M01 A2965 RMK SC8 SLP045

CYQB;2010-01-27 11:00;CYQB 271100Z 25007KT 2SM -SHSN VV005 M00/M01 A2968 RMK SN8 /S01/ SLP054

CYQB;2010-01-27 11:24;CYQB 271124Z 25006KT 2SM -SHSN VV012 M01/ RMK SN8

CYQB;2010-01-27 11:43;CYQB 271143Z 24005KT 3SM -SHSN OVC020 M01/ RMK SC8

CYQB;2010-01-27 12:00;CYQB 271200Z 23006KT 4SM -SHSN OVC022 M01/M01 A2971 RMK SC8 SLP063

CYQB;2010-01-27 13:00;CYQB 271300Z 24008KT 5SM -SHSN FEW015 OVC030 M01/M02 A2973 RMK SC1SC7 SLP072

CYQB;2010-01-27 14:00;CYQB 271400Z 26006KT 5SM -SHSN FEW018 OVC032 M01/M03 A2976 RMK SC1SC7 /S01/ SLP082

CYQB;2010-01-27 15:00;CYQB 271500Z 26012KT 5SM -SHSN FEW018 SCT030 OVC053 M01/M03 A2980 RMK SC1SC3SC4 SLP094

CYQB;2010-01-27 16:00;CYQB 271600Z 25011KT 5SM -SHSN BKN020 OVC034 M02/M04 A2982 RMK SC6SC2 SLP101

CYQB;2010-01-27 17:00;CYQB 271700Z 26015KT 10SM -SHSN BKN019 BKN030 M03/M05 A2984 RMK SC6SC1 SLP108

CYQB;2010-01-27 18:00;CYQB 271800Z 26013KT 10SM -SHSN SCT020 BKN034 M03/M06 A2986 RMK SC4SC3 SLP114

CYQB;2010-01-27 18:43;CYQB 271843Z 27013KT 15SM FEW020 SCT035 M03/ RMK SC2SC2

CYQB;2010-01-27 19:00;CYQB 271900Z CCA 27011G16KT 15SM FEW020 SCT040 M04/M07 A2988 RMK SC1SC3 SLP123

CYQB;2010-01-27 20:00;CYQB 272000Z 26010KT 20SM VCSH FEW020 BKN038 M04/M07 A2990 RMK SC2SC4 SLP129

CYQB;2010-01-27 21:00;CYQB 272100Z 26007KT 20SM VCSH FEW030 M04/M07 A2992 RMK SC2 SLP136

CYQB;2010-01-27 22:00;CYQB 272200Z 26006KT 20SM FEW030 M06/M08 A2994 RMK SC2 SLP143

CYQB;2010-01-27 23:00;CYQB 272300Z 23005KT 15SM FEW030 M06/M08 A2996 RMK SC2 SLP149

CYQB;2010-01-28 00:00;CYQB 280000Z 28003KT 15SM FEW030 SCT060 M06/M08 A2997 RMK SC1SC2 SLP154

CYQB;2010-01-28 01:00;CYQB 280100Z 00000KT 15SM BKN072 M07/M08 A2997 RMK AC6 SLP155

CYQB;2010-01-28 02:00;CYQB 280200Z 05003KT 12SM OVC077 M06/M08 A2998 RMK AC8 SLP156

CYQB;2010-01-28 02:45;CYQB 280245Z 16003KT 8SM -SHSN SCT035 OVC050 M05/ RMK SC4SC4

CYQB;2010-01-28 03:00;CYQB 280300Z 17002KT 1SM R06/P6000FT/D -SHSN FEW005 BKN035 OVC050 M05/M07 A2998 RMK SF2SC4SC2 SLP157

CYQB;2010-01-28 03:24;CYQB 280324Z 00000KT 8SM -SHSN FEW020 BKN030 OVC078 M05/ RMK SF2SC4AC2

CYQB;2010-01-28 04:00;CYQB 280400Z 10002KT 12SM -SHSN FEW020 BKN030 OVC076 M05/M06 A2997 RMK SC2SC4AC2 SLP153

CYQB;2010-01-28 05:00;CYQB 280500Z 20005KT 12SM -SHSN FEW017 BKN030 OVC075 M05/M06 A2996 RMK SC2SC4AC2 SLP149

CYQB;2010-01-28 06:00;CYQB 280600Z 22009KT 1 1/2SM -SHSN FEW006 SCT013 OVC030 M04/M05 A2996 RMK SF2SC2SC4 SLP149

CYQB;2010-01-28 07:00;CYQB 280700Z 21010G16KT 10SM SCT028 OVC060 M04/M06 A2996 RMK SC3SC5 SLP150

CYQB;2010-01-28 08:00;CYQB 280800Z 21007KT 10SM SCT028 BKN060 M05/M07 A2996 RMK SC3SC3 SLP150

CYQB;2010-01-28 09:00;CYQB 280900Z 21009KT 15SM OVC080 M05/M08 A2996 RMK AC8 SLP149

CYQB;2010-01-28 10:00;CYQB 281000Z 22009G19KT 3SM -SHSN OVC029 M05/M08 A2995 RMK SN6SC2 SLP146

CYQB;2010-01-28 11:00;CYQB 281100Z 24007KT 2 1/2SM -SHSN OVC020 M05/M07 A2993 RMK SN6SC2 SLP141

CYQB;2010-01-28 12:00;CYQB 281200Z 21002KT 1 1/2SM -SHSN OVC022 M05/M07 A2992 RMK SN6SC2 SLP137

CYQB;2010-01-28 12:24;CYQB 281224Z 00000KT 4SM -SHSN BKN022 OVC053 M06/ RMK SC6SC2

CYQB;2010-01-28 13:00;CYQB 281300Z 00000KT 2SM -SHSN BKN024 OVC040 M06/M07 A2991 RMK SC6SC2 SLP133

CYQB;2010-01-28 13:16;CYQB 281316Z 00000KT 1 1/4SM -SHSN BKN014 OVC025 M06/ RMK SC7SC1

CYQB;2010-01-28 13:30;CYQB 281330Z 00000KT 1SM R06/P6000FT/U -SN OVC017 M05/ RMK SN6SC2

CYQB;2010-01-28 14:00;CYQB 281400Z 00000KT 1 1/2SM -SN BKN010 OVC015 M05/M07 A2990 RMK SN5SC2SC1 VSBY VRB 1-2 SLP129

CYQB;2010-01-28 14:43;CYQB 281443Z 04002KT 3SM -SN BKN015 BKN030 BKN067 M05/ RMK SC5SC2SC1

CYQB;2010-01-28 15:00;CYQB 281500Z 02003KT 6SM BR BKN020 BKN030 BKN067 BKN200 M05/M06 A2987 RMK SC5SC1AC1CI1 VIS LWR OVR MTNS SLP121

CYQB;2010-01-28 16:00;CYQB 281600Z 09002KT 6SM BR BKN030 OVC058 M04/M06 A2986 RMK SC6SC2 SLP115

CYQB;2010-01-28 16:32;CYQB 281632Z 06004KT 6SM -SHSN BR BKN035 OVC058 M03/ RMK SC6SC1

CYQB;2010-01-28 17:00;CYQB 281700Z 05004KT 6SM -SHSN BKN034 OVC058 M03/M06 A2981 RMK SC6SC1 SLP101

CYQB;2010-01-28 18:00;CYQB 281800Z 07003KT 3SM -SHSN BKN012 OVC034 M03/M06 A2978 RMK SC7SC1 SLP087

CYQB;2010-01-28 18:16;CYQB 281816Z 05005KT 2 1/4SM -SHSN OVC014 M03/ RMK SC8

CYQB;2010-01-28 19:00;CYQB 281900Z CCA 08006KT 2 1/4SM -SN BR BKN014 OVC041 M03/M06 A2975 RMK SC6SC2 SLP077

CYQB;2010-01-28 19:19;CYQB 281919Z 07008KT 3SM BR BKN014 OVC038 M03/ RMK SC5SC3

CYQB;2010-01-28 19:43;CYQB 281943Z 06010KT 5SM BR SCT014 OVC060 M03/ RMK SC3SC5

CYQB;2010-01-28 20:00;CYQB 282000Z 06011KT 8SM FEW014 SCT060 OVC100 M03/M06 A2972 RMK SC2SC2AC4 SLP067

CYQB;2010-01-28 21:00;CYQB 282100Z 08008KT 8SM FEW014 BKN040 OVC055 M03/M06 A2969 RMK SC2SC3SC3 SLP058

CYQB;2010-01-28 21:23;CYQB 282123Z 08009KT 4SM -SHSN BKN024 OVC041 M03/ RMK SC5SC3

CYQB;2010-01-28 21:39;CYQB 282139Z 09007KT 1SM R06/P6000FT/U -SHSN BKN013 OVC028 M03/ RMK SC6SC2

CYQB;2010-01-28 22:00;CYQB 282200Z 09007KT 1SM R06/P6000FT/D -SHSN VV009 M03/M05 A2968 RMK SN8 VIS VRB 3/4-11/2 SLP056

CYQB;2010-01-28 23:00;CYQB 282300Z 08011KT 1 1/2SM -SHSN FEW008 OVC035 M04/M04 A2967 RMK SF2SC6 SLP050

CYQB;2010-01-28 23:20;CYQB 282320Z 07009KT 3SM -SHSN FEW006 OVC025 M04/ RMK SF2SC6

CYQB;2010-01-29 00:00;CYQB 290000Z 08010G16KT 1 1/2SM -SHSN FEW006 OVC016 M04/M05 A2965 RMK SF2SC6 TCU ASOCTD SLP044

CYQB;2010-01-29 00:12;CYQB 290012Z 07012G17KT 1SM R06/P6000FT/D -SHSN BKN008 OVC015 M04/ RMK SF6SC2 TCU ASOCTD

CYQB;2010-01-29 00:23;CYQB 290023Z 08012KT 1/2SM R06/4000VP6000FT/D SHSN BKN003 OVC009 M04/ RMK SF6SC2

CYQB;2010-01-29 00:31;CYQB 290031Z 16006KT 1/4SM R06/1600V2200FT/N +SHSN BKN002 OVC007 M04/ RMK SF6SC2

CYQB;2010-01-29 00:43;CYQB 290043Z 20006KT 1SM R06/2800VP6000FT/N -SHSN BKN005 OVC010 M04/ RMK SF6SC2 VIS VRB 3/4-11/2

CYQB;2010-01-29 00:47;CYQB 290047Z 22008KT 3SM R06/3000VP6000FT/U -SHSN SCT007 OVC030 M04/ RMK SF3SC5

CYQB;2010-01-29 01:00;CYQB 290100Z 26023G28KT 1/2SM R06/2600V4000FT/N SHSN VV004 M04/M05 A2965 RMK SN8 RESN /S04/ SLP046

CYQB;2010-01-29 01:12;CYQB 290112Z 25013KT 1SM R06/P6000FT/U -SHSN BKN009 OVC030 M04/ RMK SF6SC2 RESN

CYQB;2010-01-29 01:16;CYQB 290116Z 25013KT 1 1/2SM -SHSN BKN011 OVC030 M05/ RMK SF6SC2 RESN

CYQB;2010-01-29 01:37;CYQB 290137Z 24018G24KT 4SM -SHSN DRSN SCT010 OVC022 M05/ RMK SF3SC5 RESN

CYQB;2010-01-29 01:42;CYQB 290142Z 22019G24KT 1SM R06/P6000FT/D -SHSN DRSN SCT003 OVC011 M05/ RMK SN2SF2SC5 VIS VRB 1/2-1 RESN

CYQB;2010-01-29 02:00;CYQB 290200Z 25021G31KT 3SM -SHSN DRSN FEW003 BKN015 OVC063 M06/M07 A2967 RMK SF2SC3SC3 RESN /S05/ SLP053

CYQB;2010-01-29 03:00;CYQB 290300Z 22017G28KT 3SM -SHSN DRSN FEW003 OVC015 M07/M08 A2968 RMK SF2SC6 SLP054

CYQB;2010-01-29 04:00;CYQB 290400Z 24019G27KT 3SM -SHSN DRSN OVC015 M09/M10 A2968 RMK SN3SC5 SLP054

CYQB;2010-01-29 05:00;CYQB 290500Z 24017G25KT 2SM -SHSN DRSN OVC015 M10/M11 A2969 RMK SN3SC5 /S07/ SLP058

CYQB;2010-01-29 06:00;CYQB 290600Z 23016KT 1SM R06/P6000FT/U -SHSN DRSN VV007 M11/M12 A2968 RMK SN8 SLP056

CYQB;2010-01-29 06:28;CYQB 290628Z 23015KT 1SM R06/P6000FT/U -SHSN DRSN BKN009 OVC024 M11/ RMK SF6SC2

CYQB;2010-01-29 07:00;CYQB 290700Z 23014KT 1 1/2SM -SHSN DRSN BKN008 OVC024 M10/M12 A2966 RMK SF6SC2 SLP050

CYQB;2010-01-29 07:24;CYQB 290724Z 25012KT 8SM -SHSN DRSN FEW010 SCT024 OVC074 M10/ RMK SF2SC2AC4

CYQB;2010-01-29 08:00;CYQB 290800Z 29015KT 10SM -SHSN DRSN FEW010 BKN040 OVC056 M09/M13 A2968 RMK SF2SC5SC2 SLP055

CYQB;2010-01-29 09:00;CYQB 290900Z 28010G17KT 8SM -SHSN DRSN SCT017 OVC033 M12/M14 A2972 RMK SC3SC5 SLP068

CYQB;2010-01-29 09:25;CYQB 290925Z 27013G22KT 1 1/2SM -SHSN DRSN BKN009 OVC024 M12/ RMK SF6SC2

CYQB;2010-01-29 10:00;CYQB 291000Z CCA 27017G24KT 3/4SM R06/6000FT/D -SHSN BLSN VV007 M13/M15 A2974 RMK SN8 /S01/ SLP077

CYQB;2010-01-29 11:00;CYQB 291100Z 27015KT 3/4SM R06/P6000FT/U -SHSN VV009 M14/M16 A2978 RMK SN8 SLP090

CYQB;2010-01-29 12:00;CYQB 291200Z 28014G22KT 3/4SM R06/P6000FT/D -SN DRSN VV009 M15/M17 A2981 RMK SN8 SLP102

CYQB;2010-01-29 12:40;CYQB 291240Z 27014G21KT 1/2SM R06/P6000FT/U SN DRSN VV008 M15/ RMK SN8

CYQB;2010-01-29 13:00;CYQB 291300Z CCA 26017KT 5/8SM R06/P6000FT/N -SN DRSN VV008 M16/M18 A2984 RMK SN8 VIS VRB 1/2-3/4 SLP110

CYQB;2010-01-29 14:00;CYQB 291400Z 26019KT 5/8SM R06/5500FT/U -SN DRSN VV008 M16/M18 A2986 RMK SN8 VIS VRB 1/2-3/4 SLP118

CYQB;2010-01-29 15:00;CYQB 291500Z 28018G26KT 5/8SM R06/3500V5000FT/U -SN BLSN VV008 M16/M20 A2987 RMK SN8 VIS VRB 1/2-3/4 SLP122

CYQB;2010-01-29 15:33;CYQB 291533Z 27018G25KT 3/4SM R06/P6000FT/U -SN BLSN VV009 M17/ RMK SN8 VIS VRB 5/8-1

CYQB;2010-01-29 16:00;CYQB 291600Z 28021KT 1SM R06/4500VP6000FT/U -SN BLSN OVC012 M17/M20 A2987 RMK SC8 VIS VRB 3/4-11/4 SLP122

CYQB;2010-01-29 17:00;CYQB 291700Z 27022KT 1SM R06/5500FT/D -SN BLSN VV010 M17/M20 A2986 RMK SN8 VIS VRB 3/4-11/4 SLP118

CYQB;2010-01-29 18:00;CYQB 291800Z 27021G29KT 3/4SM R06/5500FT/D -SN BLSN VV008 M17/M20 A2986 RMK SN8 VIS VRB 5/8-1 SLP117

CYQB;2010-01-29 18:32;CYQB 291832Z 27021G29KT 1 1/4SM -SN BLSN OVC011 M17/M20 RMK SC8

CYQB;2010-01-29 19:00;CYQB 291900Z CCA 25019G25KT 3SM -SN SCT011 OVC022 M16/M20 A2986 RMK SC3SC5 REBLSN SLP119

CYQB;2010-01-29 20:00;CYQB 292000Z 26020G27KT 6SM BLSN OVC034 M16/M20 A2988 RMK SC8 SLP126

CYQB;2010-01-29 21:00;CYQB 292100Z 26022G28KT 8SM OVC021 M16/M20 A2991 REBLSN RMK SC8 SLP134

CYQB;2010-01-29 22:00;CYQB 292200Z 26020G25KT 12SM OVC055 M16/M20 A2993 RMK SC8 SLP142

CYQB;2010-01-29 23:00;CYQB 292300Z 26022KT 6SM -SHSN OVC029 M16/M21 A2995 RMK SC8 SLP149

CYQB;2010-01-30 00:00;CYQB 300000Z 25019G24KT 3SM -SHSN OVC050 M17/M21 A2997 RMK SC8 SLP156

CYQB;2010-01-30 01:00;CYQB 300100Z 25020G25KT 8SM OVC055 M17/M22 A2998 RMK SC8 SLP159

CYQB;2010-01-30 02:00;CYQB 300200Z 25019G24KT 8SM OVC060 M17/M22 A3000 RMK SC8 SLP165

CYQB;2010-01-30 02:17;CYQB 300217Z 26019G25KT 6SM -SHSN OVC040 M17/ RMK SC8

CYQB;2010-01-30 03:00;CYQB 300300Z 26019G24KT 5SM -SHSN BKN042 M18/M22 A3001 RMK SC6 SLP171

CYQB;2010-01-30 04:00;CYQB 300400Z 26020KT 6SM -SHSN BKN055 M18/M22 A3003 RMK SC6 SLP176

CYQB;2010-01-30 04:38;CYQB 300438Z 25020KT 15SM SCT070 BKN090 M18/ RMK AC3AC2

CYQB;2010-01-30 05:00;CYQB 300500Z 26021G26KT 15SM FEW062 BKN090 M18/M22 A3004 RMK SC2AC3 SLP180

CYQB;2010-01-30 06:00;CYQB 300600Z 26018G24KT 10SM -SHSN FEW055 OVC080 M18/M23 A3005 RMK SC2AC3 SLP184

CYQB;2010-01-30 07:00;CYQB 300700Z 26014G19KT 12SM -SHSN FEW063 BKN075 M18/M24 A3007 RMK SC2AS3 SLP191

CYQB;2010-01-30 08:00;CYQB 300800Z 24020KT 15SM FEW060 BKN092 M18/M24 A3008 RMK SC2AS1 SLP195

CYQB;2010-01-30 09:00;CYQB 300900Z 25013G20KT 15SM BKN080 M18/M25 A3010 RMK AS3 SLP201

CYQB;2010-01-30 10:00;CYQB 301000Z 25018KT 15SM FEW100 M19/M25 A3012 RMK AC2 SLP208

CYQB;2010-01-30 11:00;CYQB 301100Z 24015KT 15SM FEW100 M20/M26 A3014 RMK AC2 SLP213

CYQB;2010-01-30 12:00;CYQB 301200Z 24017KT 15SM FEW020 FEW100 M21/M26 A3015 RMK CF1AC2 SLP219

CYQB;2010-01-30 13:00;CYQB 301300Z 24014KT 25SM FEW100 M21/M26 A3016 RMK AC1 SLP220

CYQB;2010-01-30 14:00;CYQB 301400Z 25017KT 25SM FEW100 M20/M26 A3018 RMK AC1 SLP227

CYQB;2010-01-30 15:00;CYQB 301500Z 25015KT 25SM FEW030 FEW100 M20/M25 A3019 RMK CU1AC1 SLP233

CYQB;2010-01-30 16:00;CYQB 301600Z 24019KT 25SM FEW030 FEW100 M18/M25 A3019 RMK CU1AC1 SLP232

CYQB;2010-01-30 17:00;CYQB 301700Z 24019KT 25SM FEW030 FEW100 M17/M23 A3016 RMK CF1AC1 SLP222

CYQB;2010-01-30 18:00;CYQB 301800Z 23016KT 25SM FEW025 M16/M23 A3014 RMK CU1 SLP215

CYQB;2010-01-30 19:00;CYQB 301900Z 22014KT 25SM FEW025 M15/M22 A3013 RMK CU1 SLP209

CYQB;2010-01-30 20:00;CYQB 302000Z 23018KT 25SM FEW025 M15/M22 A3012 RMK CU1 SLP208

CYQB;2010-01-30 21:00;CYQB 302100Z 24017G25KT 25SM FEW025 FEW230 M16/M22 A3012 RMK CF1CI1 SLP208

CYQB;2010-01-30 22:00;CYQB 302200Z 24013KT 25SM FEW025 FEW230 M17/M23 A3013 RMK CF1CI1 SLP209

CYQB;2010-01-30 23:00;CYQB 302300Z 24006KT 25SM FEW230 M18/M24 A3012 RMK CI1 SLP208

CYQB;2010-01-31 00:00;CYQB 310000Z 22004KT 25SM FEW200 M19/M24 A3011 RMK CI1 SLP204

CYQB;2010-01-31 01:00;CYQB 310100Z 21002KT 25SM FEW020 SCT200 M19/M24 A3011 RMK SC2CI1 SLP203

CYQB;2010-01-31 02:00;CYQB 310200Z 25003KT 15SM BKN019 M19/M24 A3009 RMK SC6 SLP199

CYQB;2010-01-31 03:00;CYQB 310300Z 26007KT 15SM OVC017 M19/M23 A3008 RMK SC8 SLP193

CYQB;2010-01-31 04:00;CYQB 310400Z 24008KT 15SM BKN016 BKN080 M19/M23 A3006 RMK SC6AC1 SLP188

CYQB;2010-01-31 05:00;CYQB 310500Z 25005KT 15SM FEW015 FEW055 M20/M24 A3003 RMK SC2SC1 SLP179

CYQB;2010-01-31 06:00;CYQB 310600Z 25007KT 10SM BKN060 M20/M24 A3000 RMK SC4 SLP168

CYQB;2010-01-31 07:00;CYQB 310700Z 24004KT 15SM FEW050 M20/M24 A3000 RMK SC1 SLP165

CYQB;2010-01-31 08:00;CYQB 310800Z 15002KT 15SM FEW050 FEW210 M20/M24 A2998 RMK SC1CI1 SLP161

CYQB;2010-01-31 09:00;CYQB 310900Z 18003KT 8SM -SHSN BKN061 M19/M23 A2997 RMK SC7 SLP155

CYQB;2010-01-31 10:00;CYQB 311000Z 16006KT 15SM BKN040 BKN061 M20/M25 A2996 RMK SC5SC2 SLP154

CYQB;2010-01-31 10:38;CYQB 311038Z 16005KT 15SM BKN009 BKN040 M20/ RMK SF5SC2

CYQB;2010-01-31 11:00;CYQB 311100Z 16006KT 15SM BKN008 BKN040 M20/M24 A2996 RMK SF5SC2 SLP154

CYQB;2010-01-31 11:25;CYQB 311125Z 16005KT 15SM FEW009 SCT040 M20/ RMK SF2SC1

CYQB;2010-01-31 11:51;CYQB 311151Z 18005KT 10SM -SN FEW011 BKN054 M20/ RMK SC2SC4

CYQB;2010-01-31 12:00;CYQB 311200Z 18004KT 15SM -SN FEW010 BKN053 M20/M24 A2997 RMK SC1SC4 SLP157

CYQB;2010-01-31 12:28;CYQB 311228Z CCA 20003KT 25SM FEW009 BKN054 M20/ RMK SC1SC5 IC

CYQB;2010-01-31 13:00;CYQB 311300Z CCA 18002KT 20SM FEW009 BKN050 M20/M23 A2998 RMK SC1SC4 IC VIS LWR S SLP159

CYQB;2010-01-31 13:27;CYQB 311327Z 22004KT 5SM IC SCT011 BKN049 M19/ RMK SC4SC2 IC

CYQB;2010-01-31 14:00;CYQB 311400Z 22005KT 6SM IC FEW012 SCT020 BKN046 M18/M22 A2998 RMK SC2SC2SC2 SLP160

CYQB;2010-01-31 14:27;CYQB 311427Z CCA 22007KT 7SM BKN011 BKN043 M18/ RMK SC5SC1 IC

CYQB;2010-01-31 14:47;CYQB 311447Z CCA 22008KT 10SM FEW011 SCT043 M18/ RMK SC2SC2 IC

CYQB;2010-01-31 15:00;CYQB 311500Z CCA 23008KT 10SM FEW011 FEW043 M18/M22 A2997 RMK SC1SC1 IC SLP158

CYQB;2010-01-31 16:00;CYQB 311600Z 23010KT 12SM FEW011 FEW045 SCT250 M16/M20 A2996 RMK SC1SC1CI0 IC SLP152

CYQB;2010-01-31 17:00;CYQB 311700Z 22009KT 15SM FEW015 FEW045 FEW100 M15/M20 A2992 RMK SC1SC1AC1 SLP141

CYQB;2010-01-31 18:00;CYQB 311800Z 23013KT 25SM FEW015 FEW045 FEW100 SCT250 M14/M19 A2989 RMK SC1SC1AC1CI0 SLP131

CYQB;2010-01-31 19:00;CYQB 311900Z 24012KT 25SM FEW015 FEW042 BKN250 M13/M18 A2987 RMK SC1SC1CI1 SLP124

CYQB;2010-01-31 20:00;CYQB 312000Z 23015KT 25SM FEW015 FEW100 FEW250 M12/M17 A2987 RMK SC1AC1CI0 SLP122

CYQB;2010-01-31 21:00;CYQB 312100Z 23010KT 25SM FEW015 FEW100 FEW250 M12/M17 A2986 RMK SC1AC1CI0 SLP120

CYQB;2010-01-31 22:00;CYQB 312200Z 25005KT 25SM FEW015 FEW100 FEW220 M14/M18 A2986 RMK SC1AC1CI0 SLP118

CYQB;2010-01-31 23:00;CYQB 312300Z 27008KT 15SM SCT025 BKN036 BKN220 M14/M18 A2987 RMK SC3SC2CI0 SLP121

CYQB;2010-01-31 23:15;CYQB 312315Z 27004KT 10SM -SN OVC032 M13/ RMK SC8

CYQB;2010-02-01 01:00;CYQB 010100Z 27004KT 15SM -SN OVC017 M13/M15 A2986 RMK SC8 SLP120

CYQB;2010-02-01 02:00;CYQB 010200Z 23006KT 15SM FEW015 BKN035 BKN220 M13/M16 A2986 RMK SC2SC4CI0 SLP119

CYQB;2010-02-01 03:00;CYQB 010300Z 02002KT 15SM FEW035 FEW180 M14/M18 A2986 RMK SC1AS1 SLP118

CYQB;2010-02-01 04:00;CYQB 010400Z 04004KT 12SM FEW070 M15/M18 A2984 RMK AS1 SLP113

CYQB;2010-02-01 05:00;CYQB 010500Z 02004KT 12SM FEW035 FEW070 M15/M18 A2983 RMK SC1AS1 SLP107

CYQB;2010-02-01 06:00;CYQB 010600Z 36002KT 6SM IC FEW041 M15/M18 A2982 RMK SC1 SLP104

CYQB;2010-02-01 07:00;CYQB 010700Z 00000KT 5SM IC FEW041 M15/M18 A2983 RMK SC2 SLP108

CYQB;2010-02-01 07:36;CYQB 010736Z 00000KT 5SM -SHSN BKN050 M15/ RMK SC6

CYQB;2010-02-01 08:00;CYQB 010800Z 36002KT 10SM -SHSN BKN050 M15/M18 A2985 RMK SC7 SLP114

CYQB;2010-02-01 09:00;CYQB 010900Z 31006KT 10SM -SHSN OVC045 M13/M17 A2987 RMK SC4 SLP121

CYQB;2010-02-01 10:00;CYQB 011000Z 27009KT 15SM BKN080 M14/M20 A2990 RMK AC6 SLP132

CYQB;2010-02-01 11:00;CYQB 011100Z 25009KT 15SM FEW080 M17/M23 A2995 RMK AC2 SLP147

CYQB;2010-02-01 12:00;CYQB 011200Z 23011KT 15SM FEW080 M17/M22 A3000 RMK AC1 SLP165

CYQB;2010-02-01 13:00;CYQB 011300Z 24012KT 25SM FEW024 M17/M23 A3003 RMK CF1 SLP176

CYQB;2010-02-01 14:00;CYQB 011400Z 25012G17KT 25SM FEW028 M17/M23 A3005 RMK CF1 SLP182

CYQB;2010-02-01 15:00;CYQB 011500Z 28018KT 25SM FEW032 M16/M23 A3006 RMK CF2 SLP185

CYQB;2010-02-01 16:00;CYQB 011600Z 28008G15KT 25SM FEW029 SCT120 M15/M22 A3006 RMK CF2AC2 SLP187

CYQB;2010-02-01 17:00;CYQB 011700Z 26011G17KT 25SM FEW036 BKN140 M15/M22 A3001 RMK CF2AC1 SLP171

CYQB;2010-02-01 17:34;CYQB 011734Z 25015KT 5SM -SHSN BKN022 OVC120 M14/ RMK SC6AC2

CYQB;2010-02-01 17:43;CYQB 011743Z 25013KT 1 1/2SM -SHSN DRSN SCT009 OVC020 M14/ RMK SN1SF2SC5

CYQB;2010-02-01 18:00;CYQB 011800Z 23018KT 6SM -SHSN DRSN SCT009 OVC020 M14/M18 A2997 RMK SN2SF2SC5 VIS N-NE 11/2 SLP155

CYQB;2010-02-01 19:00;CYQB 011900Z 24018G28KT 8SM -SHSN DRSN BKN028 OVC120 M14/M20 A2995 RMK SC6AC2 SLP150

CYQB;2010-02-01 20:00;CYQB 012000Z 24018G25KT 15SM DRSN SCT038 SCT080 M13/M21 A2995 RMK SC3AC1 SLP149

CYQB;2010-02-01 21:00;CYQB 012100Z 25017G24KT 8SM -SHSN DRSN OVC020 M13/M19 A2995 RMK SC8 SLP149

CYQB;2010-02-01 21:15;CYQB 012115Z 25017G22KT 1SM R06/P6000FT/N -SHSN DRSN VV011 M13/ RMK SN8

CYQB;2010-02-01 21:44;CYQB 012144Z 25016KT 3/4SM R06/P6000FT/D -SHSN DRSN VV008 M13/ RMK SN8

CYQB;2010-02-01 22:00;CYQB 012200Z 25016G24KT 1SM R06/P6000FT/D -SHSN DRSN VV012 M13/M15 A2997 RMK SN8 SLP154

CYQB;2010-02-01 22:23;CYQB 012223Z 27016KT 4SM -SHSN DRSN BKN012 M13/ RMK SN5SC2

CYQB;2010-02-01 22:46;CYQB 012246Z 28021G28KT 10SM DRSN SCT035 M13/ RMK SC4

CYQB;2010-02-01 23:00;CYQB 012300Z 28017G27KT 10SM DRSN FEW035 M13/M20 A3001 RMK SC2 SLP168

CYQB;2010-02-02 00:00;CYQB 020000Z 28010G20KT 15SM FEW035 M14/M22 A3004 RMK SC1 SLP179

CYQB;2010-02-02 01:00;CYQB 020100Z 28013G18KT 15SM FEW030 M15/M23 A3008 RMK SC1 SLP192

CYQB;2010-02-02 02:00;CYQB 020200Z 29014KT 15SM FEW035 M16/M23 A3011 RMK SC2 SLP203

CYQB;2010-02-02 03:00;CYQB 020300Z 28012KT 15SM FEW040 FEW200 M17/M26 A3014 RMK SC1CI1 SLP214

CYQB;2010-02-02 04:00;CYQB 020400Z 25009KT 15SM FEW035 FEW190 M18/M27 A3016 RMK SC1CI1 SLP221

CYQB;2010-02-02 05:00;CYQB 020500Z 26012KT 15SM FEW180 M18/M26 A3018 RMK CI1 SLP226

CYQB;2010-02-02 06:00;CYQB 020600Z 27010KT 15SM FEW040 M19/M27 A3019 RMK SC1 SLP231

CYQB;2010-02-02 07:00;CYQB 020700Z 31006KT 15SM SKC M19/M27 A3020 RMK SLP234

CYQB;2010-02-02 08:00;CYQB 020800Z 30006KT 15SM SKC M20/M28 A3023 RMK SLP243

CYQB;2010-02-02 09:00;CYQB 020900Z 23002KT 15SM SKC M21/M28 A3024 RMK SLP249

CYQB;2010-02-02 10:00;CYQB 021000Z 26004KT 15SM SKC M24/M29 A3026 RMK SLP254

CYQB;2010-02-02 11:00;CYQB 021100Z 26005KT 15SM SKC M24/M29 A3026 RMK SLP256

CYQB;2010-02-02 12:00;CYQB 021200Z 14004KT 30SM FEW020 FEW100 M24/M30 A3028 RMK SC1AC1 SLP261

CYQB;2010-02-02 13:00;CYQB 021300Z 27003KT 30SM FEW025 M23/M30 A3028 RMK SC1 SLP261

CYQB;2010-02-02 14:00;CYQB 021400Z 24004KT 30SM FEW025 M21/M28 A3029 RMK CU1 SLP266

CYQB;2010-02-02 15:00;CYQB 021500Z 25006KT 30SM SKC M19/M28 A3029 RMK SLP265

CYQB;2010-02-02 16:00;CYQB 021600Z 24008KT 30SM SKC M18/M27 A3029 RMK SLP264

CYQB;2010-02-02 17:00;CYQB 021700Z 22009KT 30SM FEW040 M17/M26 A3027 RMK CU1 SLP257

CYQB;2010-02-02 18:00;CYQB 021800Z 23011KT 30SM FEW090 M16/M25 A3025 RMK AC1 SLP250

CYQB;2010-02-02 19:00;CYQB 021900Z 24008KT 30SM FEW090 M15/M24 A3022 RMK AC1 SLP240

CYQB;2010-02-02 20:00;CYQB 022000Z 25007KT 30SM FEW090 FEW200 M15/M24 A3020 RMK AC1CI1 SLP236

CYQB;2010-02-02 21:00;CYQB 022100Z 23005KT 30SM FEW090 FEW200 M15/M24 A3020 RMK AC1CI1 SLP235

CYQB;2010-02-02 22:00;CYQB 022200Z 00000KT 30SM FEW160 FEW200 M15/M24 A3019 RMK AC1CI1 SLP232

CYQB;2010-02-02 23:00;CYQB 022300Z 00000KT 15SM FEW090 M18/M25 A3019 RMK AC1 SLP232

CYQB;2010-02-03 00:00;CYQB 030000Z 35004KT 15SM FEW090 M18/M25 A3019 RMK AC1 SLP232

CYQB;2010-02-03 01:00;CYQB 030100Z 02004KT 15SM BKN031 M18/M25 A3018 RMK SC6 SLP229

CYQB;2010-02-03 02:00;CYQB 030200Z 35005KT 15SM BKN025 M17/M24 A3018 RMK SC6 SLP229

CYQB;2010-02-03 03:00;CYQB 030300Z 34007KT 15SM SCT025 M18/M25 A3017 RMK SC4 SLP226

CYQB;2010-02-03 04:00;CYQB 030400Z 35005KT 15SM FEW025 M18/M25 A3017 RMK SC2 SLP224

CYQB;2010-02-03 05:00;CYQB 030500Z 35002KT 15SM FEW025 M20/M26 A3015 RMK SC2 SLP219

CYQB;2010-02-03 06:00;CYQB 030600Z 35002KT 15SM FEW180 M19/M25 A3014 RMK CI2 SLP216

CYQB;2010-02-03 07:00;CYQB 030700Z 02004KT 15SM FEW180 M20/M25 A3014 RMK CI2 SLP214

CYQB;2010-02-03 08:00;CYQB 030800Z 00000KT 15SM SCT140 M22/M27 A3013 RMK AC3 SLP212

CYQB;2010-02-03 09:00;CYQB 030900Z 36002KT 15SM FEW140 M20/M25 A3013 RMK AC2 SLP209

CYQB;2010-02-03 10:00;CYQB 031000Z 36002KT 15SM FEW180 M20/M25 A3012 RMK CI2 SLP208

CYQB;2010-02-03 11:00;CYQB 031100Z CCA 01003KT 15SM FEW150 BKN230 M21/M27 A3012 RMK AC2CI2 SLP207

CYQB;2010-02-03 12:00;CYQB 031200Z 00000KT 30SM VCFG SCT150 BKN220 M22/M27 A3012 RMK AC4CI2 VIS LWR SW-W SLP208

CYQB;2010-02-03 12:39;CYQB 031239Z 28002KT 30SM R06/4000VP6000FT/U BCFG FEW100 BKN180 M22/ RMK AC2AC2 VIS SW-NW 1

CYQB;2010-02-03 13:00;CYQB 031300Z CCA 00000KT 30SM R06/4500VP6000FT/D BCFG FEW120 BKN170 M20/M24 A3011 RMK AC2AC3 VIS S-NW 3/4 SLP206

CYQB;2010-02-03 13:13;CYQB 031313Z 27003KT 3/4SM R06/3000VP6000FT/N BR BKN120 BKN170 M20/ RMK FG2AC3AC2 VIS N-E 30

CYQB;2010-02-03 13:23;CYQB 031323Z 30003KT 1/4SM R06/2800VP6000FT/N FZFG BKN120 M19/ RMK FG6AC1 VIS HIER E

CYQB;2010-02-03 13:32;CYQB 031332Z 29003KT 1/8SM R06/1200FT/N FZFG VV001 M18/ RMK FG8

CYQB;2010-02-03 13:49;CYQB 031349Z 25004KT 1/2SM R06/1200FT/N FZFG BKN120 BKN220 M18/ RMK FG2AC3CI1 VIS HIER NW

CYQB;2010-02-03 14:00;CYQB 031400Z CCA 26003KT 6SM R06/2000V2800FT/N BR BKN100 BKN220 M17/M20 A3011 RMK AC5CI1 VIS LWR SW-NW SLP204

CYQB;2010-02-03 15:00;CYQB 031500Z 26002KT 12SM FEW120 BKN220 M16/M18 A3010 RMK AC1CI4 SLP200

CYQB;2010-02-03 16:00;CYQB 031600Z 24003KT 12SM FEW100 BKN220 M14/M19 A3009 RMK AC2CI2 SLP197

CYQB;2010-02-03 17:00;CYQB 031700Z 28002KT 12SM FEW100 BKN220 M13/M18 A3007 RMK AC2CI2 SLP191

CYQB;2010-02-03 18:00;CYQB 031800Z 26004KT 12SM FEW100 BKN220 M10/M16 A3004 RMK AC1CI6 SLP181

CYQB;2010-02-03 19:00;CYQB 031900Z 19004KT 15SM SCT100 BKN220 M09/M15 A3002 RMK AC3CI3 SLP173

CYQB;2010-02-03 20:00;CYQB 032000Z 22007KT 15SM SCT098 BKN220 M08/M14 A3000 RMK AC3CI4 SLP167

CYQB;2010-02-03 21:00;CYQB 032100Z 22007KT 15SM SCT100 OVC220 M09/M15 A3000 RMK AC3CI3 SLP164

CYQB;2010-02-03 22:00;CYQB 032200Z 23009KT 15SM SCT094 BKN230 M10/M16 A3000 RMK AC4CI2 SLP166

CYQB;2010-02-03 23:00;CYQB 032300Z 25010KT 15SM BKN082 OVC230 M10/M16 A3001 RMK AC6CI2 SLP168

CYQB;2010-02-04 00:00;CYQB 040000Z 27008KT 15SM BKN130 BKN230 M10/M17 A3000 RMK AC5CI1 SLP167

CYQB;2010-02-04 01:00;CYQB 040100Z 23007KT 15SM FEW060 BKN080 OVC200 M10/M16 A3000 RMK SC2AC5CI0 SLP167

CYQB;2010-02-04 02:00;CYQB 040200Z 26009KT 15SM FEW058 BKN078 OVC200 M11/M14 A3000 RMK SC2AC4CI1 SLP166

CYQB;2010-02-04 03:00;CYQB 040300Z 26008KT 15SM FEW058 BKN078 OVC200 M11/M13 A2999 RMK SC2AC5CI1 SLP163

CYQB;2010-02-04 04:00;CYQB 040400Z CCA 24008KT 5SM -SHSN FEW016 SCT036 OVC055 M11/M13 A2999 RMK SC2SC2SC4 SLP162

CYQB;2010-02-04 05:00;CYQB 040500Z 23012KT 12SM FEW016 SCT040 BKN100 M11/M13 A2998 RMK SC2SC2AC3 SLP158

CYQB;2010-02-04 06:00;CYQB 040600Z 23011KT 15SM SCT040 BKN068 M12/M14 A2998 RMK SC3SC2 SLP159

CYQB;2010-02-04 07:00;CYQB 040700Z 23010KT 15SM SCT075 M13/M15 A3001 RMK AC4 SLP170

CYQB;2010-02-04 08:00;CYQB 040800Z 33007KT 15SM FEW035 FEW070 M13/M16 A3006 RMK SC1SC2 SLP184

CYQB;2010-02-04 09:00;CYQB 040900Z 29011KT 15SM FEW070 M12/M17 A3009 RMK SC2 SLP197

CYQB;2010-02-04 10:00;CYQB 041000Z 30010G15KT 15SM FEW070 M13/M20 A3012 RMK AC2 SLP207

CYQB;2010-02-04 11:00;CYQB 041100Z 28009KT 15SM FEW100 FEW220 M14/M23 A3016 RMK AC1CI1 SLP219

CYQB;2010-02-04 12:00;CYQB 041200Z 26013KT 30SM FEW100 M16/M21 A3019 RMK AC1 SLP228

CYQB;2010-02-04 13:00;CYQB 041300Z 25013KT 30SM FEW100 M16/M21 A3022 RMK AC1 SLP239

CYQB;2010-02-04 14:00;CYQB 041400Z 26015KT 30SM FEW050 FEW100 M15/M21 A3022 RMK SC1AC1 SLP240

CYQB;2010-02-04 15:00;CYQB 041500Z 26014KT 30SM FEW050 FEW100 M14/M20 A3021 RMK SC1AC1 SLP238

CYQB;2010-02-04 16:00;CYQB 041600Z 25017KT 30SM FEW050 FEW100 M13/M19 A3019 RMK SC1AC1 SLP232

CYQB;2010-02-04 17:00;CYQB 041700Z 25019G26KT 30SM BKN043 M12/M18 A3019 RMK SC2 SLP230

CYQB;2010-02-04 18:00;CYQB 041800Z 24019KT 30SM BKN043 M11/M17 A3017 RMK SC3 SLP223

CYQB;2010-02-04 19:00;CYQB 041900Z 27014G20KT 25SM BKN040 M11/M17 A3017 RMK SC5 SLP221

CYQB;2010-02-04 20:00;CYQB 042000Z 26010G16KT 25SM BKN038 M10/M16 A3016 RMK SC3 SLP219

CYQB;2010-02-04 21:00;CYQB 042100Z 27010KT 30SM SCT052 M09/M17 A3014 RMK SC2 SLP214

CYQB;2010-02-04 22:00;CYQB 042200Z 23008KT 30SM FEW052 M10/M18 A3014 RMK SC2 SLP213

CYQB;2010-02-04 23:00;CYQB 042300Z 23009KT 15SM FEW050 M12/M19 A3013 RMK SC2 SLP210

CYQB;2010-02-05 00:00;CYQB 050000Z 24008KT 15SM FEW180 SCT220 M13/M19 A3014 RMK AC2CI0 SLP215

CYQB;2010-02-05 01:00;CYQB 050100Z 26015KT 15SM FEW180 M13/M19 A3014 RMK AC2 SLP215

CYQB;2010-02-05 02:00;CYQB 050200Z 23011KT 15SM FEW050 FEW180 M13/M20 A3017 RMK SC2AC0 SLP222

CYQB;2010-02-05 03:00;CYQB 050300Z 23009KT 15SM FEW040 FEW180 M13/M19 A3018 RMK CF2CI1 SLP226

CYQB;2010-02-05 04:00;CYQB 050400Z 25003KT 15SM BKN040 M12/M18 A3018 RMK SC5 SLP228

CYQB;2010-02-05 05:00;CYQB 050500Z 28009KT 15SM BKN040 BKN180 M12/M19 A3019 RMK SC5CI1 SLP231

CYQB;2010-02-05 06:00;CYQB 050600Z 27010KT 15SM BKN036 M12/M19 A3018 RMK SC6 SLP226

CYQB;2010-02-05 07:00;CYQB 050700Z 32008KT 15SM BKN040 M12/M20 A3017 RMK SC7 SLP224

CYQB;2010-02-05 08:00;CYQB 050800Z 30009G15KT 15SM BKN038 M12/M20 A3017 RMK SC6 SLP223

CYQB;2010-02-05 09:00;CYQB 050900Z 26012KT 15SM BKN035 M13/M19 A3017 RMK SC6 SLP223

CYQB;2010-02-05 10:00;CYQB 051000Z 26012KT 15SM FEW035 M14/M19 A3018 RMK SC2 SLP226

CYQB;2010-02-05 11:00;CYQB 051100Z 25009KT 15SM SCT035 M15/M20 A3018 RMK SC3 SLP225

CYQB;2010-02-05 12:00;CYQB 051200Z 25012KT 25SM BKN035 M15/M20 A3018 RMK SC5 SLP226

CYQB;2010-02-05 13:00;CYQB 051300Z 25010KT 25SM FEW035 M15/M19 A3017 RMK SC2 SLP225

CYQB;2010-02-05 14:00;CYQB 051400Z 28010KT 25SM FEW035 M14/M19 A3018 RMK SC2 SLP226

CYQB;2010-02-05 15:00;CYQB 051500Z 27007KT 25SM FEW030 M12/M19 A3017 RMK SC2 SLP223

CYQB;2010-02-05 16:00;CYQB 051600Z 28011KT 25SM FEW030 M11/M19 A3017 RMK SC2 SLP222

CYQB;2010-02-05 17:00;CYQB 051700Z 28014KT 25SM FEW038 M10/M19 A3015 RMK SC2 SLP217

CYQB;2010-02-05 18:00;CYQB 051800Z 28012G19KT 25SM FEW038 M11/M19 A3014 RMK SC2 SLP213

CYQB;2010-02-05 19:00;CYQB 051900Z 30012G18KT 25SM FEW040 M11/M20 A3016 RMK SC2 SLP218

CYQB;2010-02-05 20:00;CYQB 052000Z 32011G16KT 30SM FEW040 M11/M21 A3017 RMK SC2 SLP223

CYQB;2010-02-05 21:00;CYQB 052100Z 29012KT 30SM FEW040 M12/M20 A3018 RMK SC2 SLP227

CYQB;2010-02-05 22:00;CYQB 052200Z 27008KT 30SM BKN043 M12/M19 A3020 RMK SC6 SLP233

CYQB;2010-02-05 23:00;CYQB 052300Z 25012KT 15SM OVC043 M12/M20 A3020 RMK SC8 SLP232

CYQB;2010-02-06 00:00;CYQB 060000Z 25009KT 15SM OVC039 M12/M19 A3017 RMK SC8 SLP225

CYQB;2010-02-06 01:00;CYQB 060100Z 25011KT 15SM OVC036 M13/M19 A3015 RMK SC8 SLP217

CYQB;2010-02-06 02:00;CYQB 060200Z 26012KT 15SM BKN040 M14/M20 A3014 RMK SC5 SLP214

CYQB;2010-02-06 03:00;CYQB 060300Z 27006KT 15SM FEW040 M15/M20 A3013 RMK SC2 SLP211

CYQB;2010-02-06 04:00;CYQB 060400Z 25004KT 15SM FEW040 M15/M21 A3013 RMK SC1 SLP211

CYQB;2010-02-06 05:00;CYQB 060500Z 24002KT 15SM SKC M16/M22 A3011 RMK SLP205

CYQB;2010-02-06 06:00;CYQB 060600Z 27004KT 15SM SKC M16/M22 A3010 RMK SLP200

CYQB;2010-02-06 07:00;CYQB 060700Z 29004KT 15SM SKC M18/M23 A3009 RMK SLP197

CYQB;2010-02-06 08:00;CYQB 060800Z 25006KT 15SM SKC M17/M22 A3009 RMK SLP196

CYQB;2010-02-06 09:00;CYQB 060900Z 33008KT 15SM SKC M15/M22 A3008 RMK SLP191

CYQB;2010-02-06 10:00;CYQB 061000Z 33006KT 15SM SKC M16/M23 A3006 RMK SLP185

CYQB;2010-02-06 11:00;CYQB 061100Z 29008KT 15SM FEW100 M16/M23 A3003 RMK AC1 SLP177

CYQB;2010-02-06 12:00;CYQB 061200Z 28006KT 30SM FEW100 M17/M22 A3001 RMK AC1 SLP169

CYQB;2010-02-06 13:00;CYQB 061300Z 28010KT 30SM FEW060 M17/M22 A3002 RMK SC1 SLP173

CYQB;2010-02-06 14:00;CYQB 061400Z 29005KT 30SM FEW060 M14/M21 A3003 RMK SC1 SLP176

CYQB;2010-02-06 15:00;CYQB 061500Z 27008KT 30SM FEW060 M12/M20 A3004 RMK SC2 SLP179

CYQB;2010-02-06 16:00;CYQB 061600Z 27011KT 30SM BKN040 M11/M18 A3003 RMK SC7 SLP177

CYQB;2010-02-06 17:00;CYQB 061700Z 26007KT 30SM FEW040 M10/M19 A3000 RMK SC2 SLP164

CYQB;2010-02-06 18:00;CYQB 061800Z 30010G15KT 30SM FEW039 M09/M17 A2995 RMK SC1 SLP148

CYQB;2010-02-06 19:00;CYQB 061900Z 32009KT 30SM FEW040 M08/M17 A2992 RMK SC1 SLP139

CYQB;2010-02-06 20:00;CYQB 062000Z 34010KT 30SM FEW040 M08/M17 A2989 RMK SC1 SLP130

CYQB;2010-02-06 21:00;CYQB 062100Z 32012KT 30SM FEW040 M08/M17 A2989 RMK SC1 SLP128

CYQB;2010-02-06 22:00;CYQB 062200Z 32011KT 30SM FEW040 M10/M18 A2990 RMK SC1 SLP130

CYQB;2010-02-06 23:00;CYQB 062300Z 33007KT 15SM FEW040 M11/M18 A2991 RMK SC1 SLP134

CYQB;2010-02-07 00:00;CYQB 070000Z 35013KT 15SM FEW040 M11/M19 A2991 RMK SC1 SLP135

CYQB;2010-02-07 01:00;CYQB 070100Z 36011G16KT 15SM BKN061 M11/M19 A2991 RMK SC3 SLP134

CYQB;2010-02-07 02:00;CYQB 070200Z 35009KT 15SM FEW035 FEW065 M11/M19 A2989 RMK SC1AC1 SLP128

CYQB;2010-02-07 03:00;CYQB 070300Z 33007KT 15SM FEW035 FEW068 M11/M18 A2986 RMK SC1AC1 SLP118

CYQB;2010-02-07 04:00;CYQB 070400Z 31012KT 15SM SKC M11/M18 A2984 RMK SLP112

CYQB;2010-02-07 05:00;CYQB 070500Z 32010KT 15SM FEW200 M11/M17 A2982 RMK CI1 SLP104

CYQB;2010-02-07 06:00;CYQB 070600Z 29007KT 15SM BKN160 BKN200 M11/M17 A2981 RMK AC5CI0 SLP102

CYQB;2010-02-07 07:00;CYQB 070700Z 29006KT 15SM BKN060 OVC160 M11/M17 A2980 RMK SC6AC2 SLP098

CYQB;2010-02-07 08:00;CYQB 070800Z 31008KT 15SM BKN051 OVC074 M10/M16 A2978 RMK SC6AC2 SLP092

CYQB;2010-02-07 09:00;CYQB 070900Z 29011KT 15SM BKN047 OVC065 M10/M16 A2977 RMK SC6SC2 SLP087

CYQB;2010-02-07 09:53;CYQB 070953Z 27008KT 15SM -SHSN BKN039 OVC060 M10/ RMK SC7SC1

CYQB;2010-02-07 10:00;CYQB 071000Z 27009KT 10SM -SHSN BKN039 OVC060 M10/M16 A2977 RMK SC7SC1 SLP086

CYQB;2010-02-07 11:00;CYQB 071100Z 26007KT 10SM -SHSN BKN035 OVC060 M11/M15 A2976 RMK SC7SC1 SLP082

CYQB;2010-02-07 12:00;CYQB 071200Z 25009KT 10SM -SHSN BKN045 OVC060 M11/M16 A2976 RMK SC7SC1 SLP085

CYQB;2010-02-07 13:00;CYQB 071300Z 24011KT 10SM -SHSN BKN045 OVC056 M11/M16 A2976 RMK SC7SC1 SLP084

CYQB;2010-02-07 14:00;CYQB 071400Z 26013KT 6SM -SHSN BKN026 OVC042 M10/M15 A2975 RMK SC6SC2 SLP082

CYQB;2010-02-07 15:00;CYQB 071500Z 27009KT 6SM -SN BKN033 OVC042 M09/M15 A2974 RMK SC6SC2 SLP077

CYQB;2010-02-07 16:00;CYQB 071600Z 28010KT 12SM -SN BKN042 OVC056 M08/M15 A2973 RMK SC6SC2 SLP074

CYQB;2010-02-07 17:00;CYQB 071700Z 29008KT 4SM -SN BKN020 OVC040 M07/M12 A2971 RMK SC7SC1 SLP067

CYQB;2010-02-07 17:16;CYQB 071716Z 30010KT 1 3/4SM -SN BKN011 OVC020 M07/ RMK SC5SC3

CYQB;2010-02-07 18:00;CYQB 071800Z 30009KT 1 1/2SM -SN SCT011 OVC017 M07/M11 A2970 RMK SC4SC4 SLP063

CYQB;2010-02-07 19:00;CYQB 071900Z CCA 26013KT 1 1/2SM -SN FEW010 OVC020 M07/M09 A2969 RMK SC2SC6 VIS HIER W QUAD SLP060

CYQB;2010-02-07 20:00;CYQB 072000Z 30007KT 15SM -SN FEW010 SCT020 OVC060 M06/M11 A2969 RMK SF1SC2SC5 SLP060

CYQB;2010-02-07 20:34;CYQB 072034Z 32011KT 25SM FEW010 SCT020 OVC040 M06/ RMK SF1SC2SC5

CYQB;2010-02-07 21:00;CYQB 072100Z 31009KT 25SM FEW023 SCT044 BKN056 OVC210 M06/M12 A2970 RMK SC2SC2SC3CI1 SLP063

CYQB;2010-02-07 22:00;CYQB 072200Z 30009KT 25SM FEW025 SCT055 BKN080 OVC120 M06/M11 A2970 RMK SC1SC2AC3AC1 SLP063

CYQB;2010-02-07 23:00;CYQB 072300Z 30009KT 15SM FEW060 SCT120 BKN180 M07/M13 A2971 RMK SC1AC3CI2 SLP067

CYQB;2010-02-08 00:00;CYQB 080000Z 29008KT 15SM BKN055 OVC180 M07/M13 A2972 RMK SC6CI2 SLP068

CYQB;2010-02-08 01:00;CYQB 080100Z 26008KT 15SM FEW015 OVC048 M07/M12 A2971 RMK SC2SC6 SLP067

CYQB;2010-02-08 02:00;CYQB 080200Z 25010KT 15SM OVC054 M07/M11 A2971 RMK SC8 SLP065

CYQB;2010-02-08 03:00;CYQB 080300Z 25012KT 15SM OVC054 M08/M12 A2969 RMK SC8 SLP060

CYQB;2010-02-08 04:00;CYQB 080400Z 25014KT 15SM SCT030 OVC055 M08/M12 A2968 RMK SC3SC5 SLP055

CYQB;2010-02-08 05:00;CYQB 080500Z 25007KT 15SM SCT029 OVC053 M08/M11 A2967 RMK SC3SC5 SLP054

CYQB;2010-02-08 06:00;CYQB 080600Z 27007KT 15SM SCT025 BKN055 OVC120 M08/M11 A2967 RMK SC3SC4AC1 SLP053

CYQB;2010-02-08 06:23;CYQB 080623Z 25007KT 5SM -SN BKN029 OVC045 M08/ RMK SC5SC3

CYQB;2010-02-08 07:00;CYQB 080700Z 24008KT 5SM -SN BKN029 OVC040 M08/M10 A2968 RMK SC6SC2 SLP055

CYQB;2010-02-08 08:00;CYQB 080800Z 23012KT 5SM -SN BKN020 OVC040 M08/M10 A2967 RMK SC6SC2 /S01/ SLP053

CYQB;2010-02-08 09:00;CYQB 080900Z 24010KT 6SM -SN BKN024 OVC050 M08/M10 A2968 RMK SC6SC2 SLP055

CYQB;2010-02-08 10:00;CYQB 081000Z 24011KT 12SM -SN BKN058 M08/M10 A2969 RMK SC7 SLP058

CYQB;2010-02-08 11:00;CYQB 081100Z 26010KT 12SM -SHSN BKN058 BKN110 M08/M11 A2970 RMK SC6AC2 SLP062

CYQB;2010-02-08 11:44;CYQB 081144Z 24010KT 25SM BKN052 BKN110 M08/ RMK SC6AC2

CYQB;2010-02-08 12:00;CYQB 081200Z 25008KT 30SM BKN052 BKN110 BKN150 M09/M12 A2971 RMK SC5AC2AC1 SLP065

CYQB;2010-02-08 13:00;CYQB 081300Z 24012KT 30SM BKN055 BKN150 BKN220 M08/M12 A2971 RMK SC5AC1CI0 SLP067

CYQB;2010-02-08 14:00;CYQB 081400Z 25014G19KT 30SM BKN057 BKN150 BKN220 M07/M11 A2971 RMK SC5AC2CI0 SLP066

CYQB;2010-02-08 15:00;CYQB 081500Z 25016KT 30SM BKN057 OVC090 M07/M10 A2972 RMK SC6AC2 VIS N-NE 10 SLP070

CYQB;2010-02-08 16:00;CYQB 081600Z 24018KT 5SM -SN SCT020 BKN055 M06/M10 A2972 RMK SC3SC4 SLP070

CYQB;2010-02-08 17:00;CYQB 081700Z 25018KT 10SM FEW020 OVC060 M05/M09 A2970 RMK SC2SC5 SLP064

CYQB;2010-02-08 17:26;CYQB 081726Z 24020KT 8SM -SHSN FEW020 OVC060 M05/ RMK SC2SC5

CYQB;2010-02-08 18:00;CYQB 081800Z 25018KT 15SM -SHSN FEW020 BKN036 OVC060 M05/M09 A2971 RMK SC2SC3SC2 SLP065

CYQB;2010-02-08 18:43;CYQB 081843Z 25021KT 20SM FEW020 BKN034 OVC060 M05/ RMK SC2SC3SC2

CYQB;2010-02-08 19:00;CYQB 081900Z 25020G25KT 25SM BKN033 OVC060 M06/M09 A2971 RMK SC6SC2 SLP066

CYQB;2010-02-08 20:00;CYQB 082000Z 25018G24KT 25SM OVC030 M05/M09 A2973 RMK SC8 SLP074

CYQB;2010-02-08 21:00;CYQB 082100Z 25019G24KT 30SM OVC030 M05/M09 A2975 RMK SC8 SLP079

CYQB;2010-02-08 22:00;CYQB 082200Z 25018KT 30SM OVC025 M05/M09 A2977 RMK SC8 SLP085

CYQB;2010-02-08 23:00;CYQB 082300Z 25017KT 15SM BKN028 OVC041 M05/M09 A2978 RMK SC6SC2 SLP091

CYQB;2010-02-09 00:00;CYQB 090000Z 25018KT 15SM BKN028 OVC049 M05/M09 A2979 RMK SC5SC3 SLP093

CYQB;2010-02-09 01:00;CYQB 090100Z 26018KT 15SM FEW025 BKN044 OVC058 M05/M08 A2979 RMK SC2SC3SC3 SLP092

CYQB;2010-02-09 02:00;CYQB 090200Z 27019G24KT 15SM BKN040 BKN046 M05/M08 A2979 RMK SC6SC1 SLP093

CYQB;2010-02-09 03:00;CYQB 090300Z 26017KT 15SM BKN045 BKN052 M05/M07 A2980 RMK SC6SC2 SLP096

CYQB;2010-02-09 04:00;CYQB 090400Z 26016KT 15SM BKN057 BKN065 M05/M08 A2980 RMK SC6SC2 SLP095

CYQB;2010-02-09 05:00;CYQB 090500Z 26017KT 15SM BKN032 BKN060 M05/M08 A2982 RMK SC6SC1 SLP102

CYQB;2010-02-09 06:00;CYQB 090600Z 27017KT 15SM BKN043 M05/M08 A2983 RMK SC7 SLP105

CYQB;2010-02-09 07:00;CYQB 090700Z 27015KT 15SM BKN032 M05/M08 A2984 RMK SC7 SLP111

CYQB;2010-02-09 08:00;CYQB 090800Z 26016KT 15SM BKN032 BKN045 M05/M08 A2986 RMK SC6SC1 SLP118

CYQB;2010-02-09 09:00;CYQB 090900Z 26015KT 15SM FEW032 M05/M08 A2989 RMK SC1 SLP125

CYQB;2010-02-09 10:00;CYQB 091000Z 26017KT 15SM FEW240 M06/M08 A2991 RMK CI1 SLP132

CYQB;2010-02-09 11:00;CYQB 091100Z 28013KT 15SM FEW240 M05/M08 A2992 RMK CI1 SLP135

CYQB;2010-02-09 12:00;CYQB 091200Z 25016KT 20SM FEW006 FEW030 M05/M08 A2993 RMK SF1SC1 SLP139

CYQB;2010-02-09 13:00;CYQB 091300Z 24014KT 20SM FEW008 FEW030 M05/M07 A2993 RMK SF1SC1 SLP139

CYQB;2010-02-09 14:00;CYQB 091400Z 24014KT 20SM FEW008 FEW030 M03/M06 A2994 RMK SF1SC1 SLP145

CYQB;2010-02-09 15:00;CYQB 091500Z 24015KT 20SM FEW010 FEW030 FEW250 M02/M06 A2995 RMK SF1SC1CI1 SLP146

CYQB;2010-02-09 16:00;CYQB 091600Z 23012G17KT 20SM FEW030 FEW250 M02/M05 A2994 RMK SC1CI1 SLP145

CYQB;2010-02-09 17:00;CYQB 091700Z 23020KT 25SM FEW030 FEW250 M01/M05 A2993 RMK SC1CI0 SLP140

CYQB;2010-02-09 18:00;CYQB 091800Z 23023KT 25SM FEW030 BKN070 M01/M05 A2992 RMK SC1AC2 SLP136

CYQB;2010-02-09 19:00;CYQB 091900Z 22021G26KT 30SM FEW030 FEW070 FEW180 M02/M06 A2992 RMK CF1AC1CI0 SLP135

CYQB;2010-02-09 20:00;CYQB 092000Z 23020G28KT 30SM FEW030 FEW070 M02/M06 A2992 RMK CF1AC1 SLP136

CYQB;2010-02-09 21:00;CYQB 092100Z 23020KT 30SM FEW030 FEW070 M02/M07 A2991 RMK CF1AC1 SLP134

CYQB;2010-02-09 22:00;CYQB 092200Z 22017G24KT 30SM FEW030 FEW070 M03/M08 A2991 RMK CF1AC1 SLP134

CYQB;2010-02-09 23:00;CYQB 092300Z 24015KT 15SM FEW030 FEW070 M04/M08 A2991 RMK CF1AC1 SLP134

CYQB;2010-02-10 00:00;CYQB 100000Z 24017KT 15SM SKC M05/M09 A2990 RMK SLP129

CYQB;2010-02-10 01:00;CYQB 100100Z 25016KT 15SM FEW190 M06/M09 A2988 RMK CI2 SLP123

CYQB;2010-02-10 02:00;CYQB 100200Z 22013KT 15SM SKC M07/M09 A2986 RMK SLP117

CYQB;2010-02-10 03:00;CYQB 100300Z 22008KT 15SM FEW190 M07/M09 A2986 RMK CI1 SLP118

CYQB;2010-02-10 04:00;CYQB 100400Z 23007KT 15SM SKC M08/M10 A2986 RMK SLP116

CYQB;2010-02-10 05:00;CYQB 100500Z 23005KT 15SM SKC M09/M10 A2984 RMK SLP109

CYQB;2010-02-10 06:00;CYQB 100600Z 22004KT 15SM FEW190 M10/M11 A2982 RMK CI1 SLP103

CYQB;2010-02-10 07:00;CYQB 100700Z 00000KT 15SM SKC M11/M12 A2982 RMK SLP102

CYQB;2010-02-10 08:00;CYQB 100800Z 00000KT 15SM SKC M13/M15 A2981 RMK SLP098

CYQB;2010-02-10 09:00;CYQB 100900Z 00000KT 15SM FEW210 M13/M15 A2978 RMK CI1 SLP090

CYQB;2010-02-10 10:00;CYQB 101000Z 07002KT 15SM BKN210 M13/M15 A2975 RMK CI6 FROIN SLP080

CYQB;2010-02-10 11:00;CYQB 101100Z 00000KT 15SM BKN210 M14/M15 A2974 RMK CI6 SLP075

CYQB;2010-02-10 12:00;CYQB 101200Z 00000KT 8SM BCFG FEW030 BKN190 M13/M15 A2972 RMK SC1AC6 SLP071

CYQB;2010-02-10 13:00;CYQB 101300Z 03006KT 8SM BCFG FEW180 BKN220 M12/M13 A2971 RMK AC2CI2 SLP066

CYQB;2010-02-10 14:00;CYQB 101400Z 03002KT 8SM FEW170 BKN200 M09/M21 A2969 RMK AC1CI2 SLP060

CYQB;2010-02-10 15:00;CYQB 101500Z 08006KT 8SM BKN200 M07/M09 A2968 RMK CI2 SLP056

CYQB;2010-02-10 16:00;CYQB 101600Z 07006KT 8SM SCT200 M05/M08 A2966 RMK CI3 SLP049

CYQB;2010-02-10 17:00;CYQB 101700Z 07009KT 15SM BKN200 M04/M08 A2962 RMK CI4 SLP037

CYQB;2010-02-10 18:00;CYQB 101800Z 06007KT 15SM BKN200 M04/M07 A2960 RMK CI3 SLP028

CYQB;2010-02-10 19:00;CYQB 101900Z 07009KT 20SM SCT200 M04/M08 A2957 RMK CI2 SLP017

CYQB;2010-02-10 20:00;CYQB 102000Z 06010G15KT 30SM FEW120 SCT200 M04/M09 A2955 RMK AC1CI1 SLP010

CYQB;2010-02-10 21:00;CYQB 102100Z 08009KT 30SM FEW190 M04/M09 A2954 RMK CI1 SLP009

CYQB;2010-02-10 22:00;CYQB 102200Z 07007KT 30SM FEW190 M05/M09 A2954 RMK CI1 SLP010

CYQB;2010-02-10 23:00;CYQB 102300Z 06007KT 15SM FEW120 M05/M09 A2954 RMK AC1 SLP010

CYQB;2010-02-11 00:00;CYQB 110000Z 06007KT 15SM SKC M05/M08 A2953 RMK SLP007

CYQB;2010-02-11 01:00;CYQB 110100Z 03005KT 15SM SKC M06/M08 A2953 RMK SLP007

CYQB;2010-02-11 02:00;CYQB 110200Z 03004KT 15SM FEW040 M06/M08 A2953 RMK SC2 SLP005

CYQB;2010-02-11 03:00;CYQB 110300Z 01003KT 15SM FEW040 M06/M09 A2953 RMK SC1 SLP005

CYQB;2010-02-11 04:00;CYQB 110400Z 36006KT 15SM FEW035 M07/M10 A2953 RMK SC1 SLP003

CYQB;2010-02-11 05:00;CYQB 110500Z 02003KT 15SM BKN036 M08/M10 A2953 RMK SC7 SLP006

CYQB;2010-02-11 06:00;CYQB 110600Z 02006KT 15SM FEW015 BKN032 M07/M09 A2953 RMK CF1SC6 SLP005

CYQB;2010-02-11 07:00;CYQB 110700Z 02006KT 15SM OVC035 M07/M10 A2954 RMK SC8 SLP007

CYQB;2010-02-11 08:00;CYQB 110800Z 00000KT 15SM OVC032 M07/M09 A2954 RMK SC8 SLP007

CYQB;2010-02-11 09:00;CYQB 110900Z 00000KT 15SM OVC030 M06/M09 A2954 RMK SC8 OBS TAKEN +20 SLP008

CYQB;2010-02-11 10:00;CYQB 111000Z 00000KT 15SM OVC028 M07/M09 A2955 RMK SC8 SLP012

CYQB;2010-02-11 11:00;CYQB 111100Z 27003KT 15SM OVC029 M06/M09 A2955 RMK SC8 SLP012

CYQB;2010-02-11 12:00;CYQB 111200Z 24003KT 15SM OVC030 M06/M08 A2956 RMK SC8 SLP015

CYQB;2010-02-11 13:00;CYQB 111300Z 26004KT 15SM OVC033 M06/M08 A2957 RMK SC8 SLP018

CYQB;2010-02-11 14:00;CYQB 111400Z 23006KT 15SM OVC033 M05/M08 A2958 RMK SC8 SLP021

CYQB;2010-02-11 15:00;CYQB 111500Z 22004KT 15SM OVC033 M05/M08 A2958 RMK SC8 SLP020

CYQB;2010-02-11 16:00;CYQB 111600Z 21005KT 20SM OVC032 M04/M08 A2958 RMK SC8 SLP021

CYQB;2010-02-11 17:00;CYQB 111700Z 23007KT 15SM OVC032 M03/M07 A2957 RMK SC8 SLP019

CYQB;2010-02-11 18:00;CYQB 111800Z 21008KT 20SM OVC035 M03/M07 A2956 RMK SC8 SLP016

CYQB;2010-02-11 19:00;CYQB 111900Z 23011KT 20SM OVC038 M03/M08 A2956 RMK SC8 SLP015

CYQB;2010-02-11 20:00;CYQB 112000Z 23010KT 20SM OVC042 M02/M07 A2957 RMK SC8 SLP017

CYQB;2010-02-11 21:00;CYQB 112100Z 22009KT 30SM SCT042 BKN087 M02/M07 A2956 RMK SC4AC3 SLP016

CYQB;2010-02-11 22:00;CYQB 112200Z 22009KT 15SM BKN042 BKN088 M02/M07 A2957 RMK SC5AC2 SLP019

CYQB;2010-02-11 23:00;CYQB 112300Z 24009KT 15SM SCT040 BKN087 M02/M07 A2959 RMK SC3AC4 SLP024

CYQB;2010-02-12 00:00;CYQB 120000Z 26008KT 15SM SCT035 BKN065 BKN085 M02/M06 A2960 RMK SC3SC2AC2 SLP027

CYQB;2010-02-12 01:00;CYQB 120100Z 26008KT 15SM -SHSN SCT055 BKN065 M02/M06 A2961 RMK SC4SC3 SLP031

CYQB;2010-02-12 02:00;CYQB 120200Z 24008KT 10SM -SHSN FEW035 BKN065 OVC080 M03/M06 A2961 RMK SC2SC5AC1 SLP032

CYQB;2010-02-12 03:00;CYQB 120300Z 23008KT 15SM -SHSN FEW045 BKN074 M03/M06 A2961 RMK SC1AC6 SLP032

CYQB;2010-02-12 04:00;CYQB 120400Z 24008KT 15SM BKN046 BKN065 M04/M06 A2961 RMK SC6SC1 OCNL -SHSN SLP032

CYQB;2010-02-12 04:18;CYQB 120418Z 24008KT 15SM BKN050 M04/ RMK SC7

CYQB;2010-02-12 05:00;CYQB 120500Z 22006KT 15SM BKN035 OVC055 M04/M06 A2962 RMK SC6SC2 SLP035

CYQB;2010-02-12 06:00;CYQB 120600Z 23008KT 15SM BKN037 BKN100 M04/M07 A2962 RMK SC6AC1 SLP035

CYQB;2010-02-12 07:00;CYQB 120700Z 23011KT 15SM BKN035 OVC100 M05/M07 A2964 RMK SC6AC2 SLP040

CYQB;2010-02-12 08:00;CYQB 120800Z 24013KT 15SM BKN037 OVC066 M05/M07 A2964 RMK SC6SC2 SLP043

CYQB;2010-02-12 09:00;CYQB 120900Z 24013KT 15SM BKN035 OVC045 M05/M08 A2965 RMK SC6SC2 SLP045

CYQB;2010-02-12 10:00;CYQB 121000Z 23013KT 15SM BKN037 OVC043 M06/M09 A2967 RMK SC6SC2 SLP050

CYQB;2010-02-12 11:00;CYQB 121100Z 23012KT 15SM OVC035 M06/M09 A2969 RMK SC8 SLP057

CYQB;2010-02-12 12:00;CYQB 121200Z 24014KT 15SM BKN037 OVC100 M06/M09 A2969 RMK SC7AC1 SLP058

CYQB;2010-02-12 13:00;CYQB 121300Z 24014KT 25SM BKN033 BKN100 M06/M10 A2970 RMK SC6AC1 SLP060

CYQB;2010-02-12 14:00;CYQB 121400Z 24013KT 25SM BKN032 OVC100 M06/M09 A2971 RMK SC7AS1 SLP066

CYQB;2010-02-12 15:00;CYQB 121500Z 23017KT 25SM BKN032 OVC100 M06/M10 A2970 RMK SC6AS2 SLP063

CYQB;2010-02-12 16:00;CYQB 121600Z 23019G24KT 25SM BKN030 BKN100 M06/M10 A2972 RMK SC6AC1 SLP068

CYQB;2010-02-12 17:00;CYQB 121700Z 23021KT 25SM BKN030 BKN070 BKN100 M07/M11 A2971 RMK SC5AC2AC1 SLP064

CYQB;2010-02-12 18:00;CYQB 121800Z 23017KT 25SM BKN032 BKN100 M07/M11 A2970 RMK SC5AC2 SLP061

CYQB;2010-02-12 19:00;CYQB 121900Z 23018KT 25SM BKN032 BKN100 M07/M11 A2970 RMK SC5AC2 SLP060

CYQB;2010-02-12 20:00;CYQB 122000Z 23017KT 30SM BKN032 BKN100 M07/M11 A2969 RMK SC3AS1 SLP058

CYQB;2010-02-12 21:00;CYQB 122100Z 23019KT 30SM BKN029 OVC140 M07/M12 A2970 RMK SC7AS0 SLP064

CYQB;2010-02-12 22:00;CYQB 122200Z 25016KT 20SM BKN027 OVC140 M07/M11 A2971 RMK SC7AC1 SLP067

CYQB;2010-02-12 23:00;CYQB 122300Z 25011KT 15SM -SN OVC026 M08/M11 A2972 RMK SC8 SLP071

CYQB;2010-02-13 00:00;CYQB 130000Z 25013KT 10SM -SN OVC026 M08/M11 A2972 RMK SC8 SLP071

CYQB;2010-02-13 01:00;CYQB 130100Z 25011G17KT 6SM -SN OVC019 M08/M10 A2972 RMK SC8 SLP069

CYQB;2010-02-13 02:00;CYQB 130200Z 25013KT 10SM -SN SCT025 BKN060 OVC080 M08/M10 A2972 RMK SC3SC2AC2 SLP068

CYQB;2010-02-13 02:34;CYQB 130234Z 24012KT 15SM FEW038 BKN060 OVC080 M08/ RMK SC2SC3AC2

CYQB;2010-02-13 03:00;CYQB 130300Z 25013KT 15SM FEW038 BKN080 M08/M10 A2971 RMK SC1AC6 SLP066

CYQB;2010-02-13 04:00;CYQB 130400Z 25014KT 15SM FEW015 OVC028 M08/M10 A2970 RMK SC1SC7 SLP061

CYQB;2010-02-13 05:00;CYQB 130500Z 25014KT 15SM OVC025 M08/M10 A2968 RMK SC8 SLP057

CYQB;2010-02-13 06:00;CYQB 130600Z 25014KT 15SM OVC025 M08/M10 A2966 RMK SC8 SLP049

CYQB;2010-02-13 07:00;CYQB 130700Z 25014KT 15SM OVC026 M08/M10 A2963 RMK SC8 SLP039

CYQB;2010-02-13 08:00;CYQB 130800Z 25015KT 15SM OVC025 M08/M10 A2959 RMK SC8 SLP027

CYQB;2010-02-13 09:00;CYQB 130900Z 25018KT 15SM OVC025 M08/M10 A2958 RMK SC8 SLP021

CYQB;2010-02-13 10:00;CYQB 131000Z 25019G25KT 15SM OVC022 M08/M10 A2957 RMK SC8 SLP019

CYQB;2010-02-13 11:00;CYQB 131100Z 24014KT 15SM OVC020 M07/M09 A2958 RMK SC8 SLP022

CYQB;2010-02-13 12:00;CYQB 131200Z 26011KT 20SM FEW005 BKN010 OVC024 M07/M09 A2957 RMK SF2SC3SC2 SLP018

CYQB;2010-02-13 13:00;CYQB 131300Z 25015KT 15SM FEW005 BKN020 M07/M09 A2954 RMK SF2SC3 SLP008

CYQB;2010-02-13 14:00;CYQB 131400Z 24016KT 10SM FEW008 BKN025 M05/M07 A2952 RMK SF1SC2 SLP001

CYQB;2010-02-13 15:00;CYQB 131500Z 24016KT 25SM FEW008 FEW024 M05/M07 A2948 RMK SF0SC2 SLP989

CYQB;2010-02-13 16:00;CYQB 131600Z 23016KT 30SM FEW008 FEW024 M04/M07 A2945 RMK SF0SC2 SLP977

CYQB;2010-02-13 17:00;CYQB 131700Z 23024KT 30SM FEW008 FEW015 SCT070 M04/M07 A2941 RMK SF1SC2AC1 SLP965

CYQB;2010-02-13 18:00;CYQB 131800Z 23020KT 30SM FEW015 FEW070 M04/M07 A2938 RMK SC2AC1 SLP953

CYQB;2010-02-13 19:00;CYQB 131900Z 23022KT 30SM FEW017 FEW070 M03/M07 A2935 RMK SC1AC1 SLP942

CYQB;2010-02-13 20:00;CYQB 132000Z 23023G29KT 30SM FEW020 FEW120 M03/M07 A2933 RMK SC1AC1 SLP937

CYQB;2010-02-13 21:00;CYQB 132100Z 24018KT 30SM FEW030 FEW120 M03/M07 A2933 RMK SC1AC1 SLP937

CYQB;2010-02-13 22:00;CYQB 132200Z 21016KT 30SM BKN035 M03/M07 A2934 RMK SC6 SLP940

CYQB;2010-02-13 23:00;CYQB 132300Z 24019KT 15SM BKN038 M04/M08 A2934 RMK SC7 SLP940

CYQB;2010-02-14 00:00;CYQB 140000Z 24020G25KT 15SM BKN038 M05/M08 A2934 RMK SC7 SLP939

CYQB;2010-02-14 01:00;CYQB 140100Z 25017KT 15SM OVC040 M05/M08 A2932 RMK SC8 SLP934

CYQB;2010-02-14 02:00;CYQB 140200Z 24013G19KT 15SM FEW015 OVC029 M05/M08 A2931 RMK SC1SC7 SLP930

CYQB;2010-02-14 03:00;CYQB 140300Z 25015KT 15SM FEW015 OVC039 M06/M09 A2928 RMK SC1SC7 SLP918

CYQB;2010-02-14 04:00;CYQB 140400Z 25013KT 15SM OVC034 M06/M08 A2926 RMK SC8 SLP913

CYQB;2010-02-14 05:00;CYQB 140500Z 25012KT 15SM OVC030 M06/M08 A2926 RMK SC8 SLP912

CYQB;2010-02-14 06:00;CYQB 140600Z 25013KT 15SM OVC032 M06/M08 A2925 RMK SC8 SLP908

CYQB;2010-02-14 07:00;CYQB 140700Z 25011KT 15SM OVC027 M06/M08 A2924 RMK SC8 SLP906

CYQB;2010-02-14 08:00;CYQB 140800Z 25008KT 15SM OVC027 M05/M08 A2922 RMK SC8 SLP900

CYQB;2010-02-14 09:00;CYQB 140900Z 26012KT 15SM OVC031 M04/M08 A2922 RMK SC8 SLP897

CYQB;2010-02-14 10:00;CYQB 141000Z 27011KT 15SM OVC027 M04/M08 A2922 RMK SC8 SLP898

CYQB;2010-02-14 11:00;CYQB 141100Z 27012KT 15SM OVC031 M04/M08 A2923 RMK SC8 SLP901

CYQB;2010-02-14 12:00;CYQB 141200Z 26013KT 15SM FEW010 BKN031 OVC048 M04/M08 A2924 RMK SF1SC6SC1 SLP905

CYQB;2010-02-14 13:00;CYQB 141300Z 25015KT 15SM SCT020 OVC044 M04/M09 A2925 RMK SC3SC5 DIST SH NE-E SLP908

CYQB;2010-02-14 14:00;CYQB 141400Z 26018KT 15SM -SN FEW020 OVC043 M04/M09 A2925 RMK SC2SC6 VIS N-NE 5 SLP911

CYQB;2010-02-14 15:00;CYQB 141500Z 27017KT 8SM -SN FEW020 OVC046 M04/M09 A2927 RMK SC2SC6 SLP915

CYQB;2010-02-14 16:00;CYQB 141600Z CCA 26016G21KT 15SM -SHSN FEW020 OVC046 M04/M09 A2927 RMK SC1SC6 VIS NE 5 SLP915

CYQB;2010-02-14 16:48;CYQB 141648Z 25019KT 15SM FEW020 BKN046 M03/ RMK SC1SC5

CYQB;2010-02-14 17:00;CYQB 141700Z 25018KT 20SM FEW020 BKN046 BKN080 M03/M08 A2926 RMK SC1SC5AC1 SLP912

CYQB;2010-02-14 18:00;CYQB 141800Z 25016KT 20SM BKN047 OVC080 M02/M08 A2925 RMK SC5AC2 SLP911

CYQB;2010-02-14 19:00;CYQB 141900Z 24018KT 15SM SCT046 BKN054 M03/M09 A2926 RMK SC3SC3 DIST SH NE SLP913

CYQB;2010-02-14 19:23;CYQB 141923Z 24018KT 15SM -SHSN FEW046 OVC052 M03/ RMK SC2SC6

CYQB;2010-02-14 20:00;CYQB 142000Z 23018KT 5SM -SHSN FEW020 OVC050 M03/M08 A2928 RMK SC2SC6 VIS HIER W SLP918

CYQB;2010-02-14 20:12;CYQB 142012Z 23016KT 15SM -SHSN FEW020 OVC049 M03/ RMK SC2SC6 PCPN VRY LGT

CYQB;2010-02-14 21:00;CYQB 142100Z 28011KT 4SM -SHSN FEW023 OVC044 M03/M08 A2930 RMK SC2SC6 VIS S-W 15 SLP926

CYQB;2010-02-14 21:31;CYQB 142131Z 27013G19KT 8SM -SHSN FEW020 OVC051 M03/ RMK SC1SC7

CYQB;2010-02-14 22:00;CYQB 142200Z 27014KT 10SM -SHSN FEW020 OVC050 M03/M08 A2933 RMK SC1SC7 VIS N-E 4 SLP935

CYQB;2010-02-14 22:14;CYQB 142214Z 27012G18KT 2SM -SHSN FEW020 OVC045 M04/ RMK SC1SC7 VIS HIER S-W

CYQB;2010-02-14 23:00;CYQB 142300Z 25013KT 3SM -SHSN FEW020 OVC049 M05/M06 A2934 RMK SC2SC6 SLP941

CYQB;2010-02-15 00:00;CYQB 150000Z 25012G17KT 3SM -SHSN FEW020 OVC044 M05/M07 A2936 RMK SC2SC6 VIS VRB 2-4 SLP945

CYQB;2010-02-15 01:00;CYQB 150100Z 25016KT 4SM -SHSN OVC047 M05/M07 A2936 RMK SC8 VIS VRB 3-5 SLP948

CYQB;2010-02-15 02:00;CYQB 150200Z 24016KT 4SM -SHSN BKN041 OVC063 M05/M07 A2937 RMK SC5SC3 VIS VRB 3-5 SLP950

CYQB;2010-02-15 03:00;CYQB 150300Z 25016KT 4SM -SHSN OVC038 M06/M07 A2937 RMK SC8 SLP950

CYQB;2010-02-15 04:00;CYQB 150400Z 25017KT 6SM -SHSN FEW015 OVC039 M06/M08 A2937 RMK SC1SC8 SLP951

CYQB;2010-02-15 05:00;CYQB 150500Z 25016G21KT 6SM -SHSN FEW015 OVC032 M06/M08 A2939 RMK SC2SC6 SLP958

CYQB;2010-02-15 05:42;CYQB 150542Z 25017KT 6SM -SHSN BKN014 OVC032 M06/ RMK SC6SC2

CYQB;2010-02-15 06:00;CYQB 150600Z 25015KT 6SM -SHSN SCT014 OVC032 M06/M08 A2940 RMK SC3SC5 SLP959

CYQB;2010-02-15 07:00;CYQB 150700Z 25013KT 6SM -SHSN FEW014 OVC032 M06/M08 A2942 RMK SC2SC6 SLP966

CYQB;2010-02-15 08:00;CYQB 150800Z 25012KT 6SM -SHSN FEW014 OVC038 M06/M08 A2943 RMK SC2SC6 SLP969

CYQB;2010-02-15 09:00;CYQB 150900Z 25011KT 6SM -SHSN FEW012 OVC040 M06/M09 A2944 RMK SC2SC6 SLP974

CYQB;2010-02-15 10:00;CYQB 151000Z 24013KT 6SM -SHSN SCT015 BKN042 OVC150 M06/M09 A2945 RMK SC3SC2AC3 SLP977

CYQB;2010-02-15 11:00;CYQB 151100Z 24015KT 6SM -SHSN SCT015 BKN040 OVC150 M06/M08 A2947 RMK SC3SC2SC2 SLP982

CYQB;2010-02-15 12:00;CYQB 151200Z 24012KT 3SM -SHSN BKN013 OVC040 M06/M09 A2949 RMK SC6SC2 SLP990

CYQB;2010-02-15 13:00;CYQB 151300Z 24016KT 4SM -SHSN BKN014 OVC040 M06/M09 A2950 RMK SC6SC2 SLP995

CYQB;2010-02-15 14:00;CYQB 151400Z 24012G18KT 5SM -SHSN BKN013 OVC040 M06/M08 A2952 RMK SC6SC2 SLP002

CYQB;2010-02-15 15:00;CYQB 151500Z 24013KT 4SM -SHSN BKN014 OVC040 M06/M08 A2953 RMK SC6SC2 SLP006

CYQB;2010-02-15 16:00;CYQB 151600Z 24013G18KT 4SM -SHSN BKN017 OVC040 M05/M08 A2955 RMK SC7SC1 SLP010

CYQB;2010-02-15 16:47;CYQB 151647Z 24016KT 8SM BKN018 OVC040 M05/ RMK SC6SC2

CYQB;2010-02-15 17:00;CYQB 151700Z 24015KT 8SM BKN019 OVC040 M05/M08 A2955 RMK SC6SC2 SLP010

CYQB;2010-02-15 18:00;CYQB 151800Z 26014KT 8SM OVC024 M04/M08 A2956 RMK SC8 SLP013

CYQB;2010-02-15 19:00;CYQB 151900Z 25011KT 8SM OVC022 M04/M08 A2956 RMK SC8 SLP015

CYQB;2010-02-15 20:00;CYQB 152000Z 25011KT 8SM OVC025 M03/M08 A2958 RMK SC8 SLP021

CYQB;2010-02-15 21:00;CYQB 152100Z 25010KT 8SM BKN021 OVC040 M03/M08 A2960 RMK SC7SC1 SLP028

CYQB;2010-02-15 22:00;CYQB 152200Z 25007KT 15SM BKN036 BKN042 M03/M08 A2962 RMK SC6SC1 SLP034

CYQB;2010-02-15 23:00;CYQB 152300Z 26006KT 15SM OVC047 M03/M08 A2964 RMK SC8 SLP040

CYQB;2010-02-16 00:00;CYQB 160000Z 25004KT 15SM BKN037 OVC047 M04/M08 A2964 RMK SC6SC2 SLP043

CYQB;2010-02-16 01:00;CYQB 160100Z 26004KT 15SM OVC036 M04/M08 A2966 RMK SC8 SLP047

CYQB;2010-02-16 02:00;CYQB 160200Z 24004KT 15SM OVC038 M04/M08 A2966 RMK SC8 SLP048

CYQB;2010-02-16 03:00;CYQB 160300Z 23004KT 15SM OVC035 M04/M08 A2966 RMK SC8 SLP048

CYQB;2010-02-16 04:00;CYQB 160400Z 25006KT 15SM OVC036 M04/M08 A2966 RMK SC8 SLP047

CYQB;2010-02-16 05:00;CYQB 160500Z 26005KT 15SM OVC034 M04/M08 A2965 RMK SC8 SLP046

CYQB;2010-02-16 06:00;CYQB 160600Z 24004KT 15SM OVC033 M05/M08 A2964 RMK SC8 SLP043

CYQB;2010-02-16 07:00;CYQB 160700Z 27003KT 15SM BKN034 M05/M07 A2963 RMK SC7 SLP038

CYQB;2010-02-16 08:00;CYQB 160800Z 23005KT 15SM BKN033 M05/M08 A2962 RMK SC7 SLP034

CYQB;2010-02-16 09:00;CYQB 160900Z 26007KT 15SM OVC032 M05/M07 A2961 RMK SC8 SLP033

CYQB;2010-02-16 10:00;CYQB 161000Z 26006KT 15SM OVC031 M05/M07 A2961 RMK SC8 SLP033

CYQB;2010-02-16 11:00;CYQB 161100Z 23007KT 15SM OVC029 M05/M07 A2961 RMK SC8 SLP033

CYQB;2010-02-16 12:00;CYQB 161200Z 00000KT 8SM OVC030 M05/M07 A2961 RMK SC8 SLP033

CYQB;2010-02-16 13:00;CYQB 161300Z 23004KT 8SM OVC030 M04/M07 A2962 RMK SC8 SLP036

CYQB;2010-02-16 14:00;CYQB 161400Z 23004KT 8SM -SHSN OVC029 M04/M07 A2962 RMK SC8 VIS N 5 SLP034

CYQB;2010-02-16 14:51;CYQB 161451Z CCA 25006KT 2 1/2SM -SHSN OVC021 M03/ RMK SN2SC6 VIS SE-SW 5

CYQB;2010-02-16 15:00;CYQB 161500Z CCA 24007KT 2 1/2SM -SHSN OVC021 M03/M06 A2960 RMK SN2SC6 VIS S 5 SLP028

CYQB;2010-02-16 15:10;CYQB 161510Z 22007KT 5SM -SHSN OVC030 M03/ RMK SC8 VIS S 10

CYQB;2010-02-16 16:00;CYQB 161600Z 23005KT 5SM -SHSN OVC030 M03/M06 A2958 RMK SC8 VIS S 10 SLP022

CYQB;2010-02-16 16:50;CYQB 161650Z 23007KT 12SM BKN030 OVC120 M02/ RMK SC5AC3

CYQB;2010-02-16 17:00;CYQB 161700Z 23005KT 15SM SCT030 BKN120 OVC240 M02/M06 A2956 RMK SC4AC3CI1 SLP013

CYQB;2010-02-16 18:00;CYQB 161800Z 21007KT 15SM BKN028 OVC120 M02/M05 A2953 RMK SC5AC3 SLP002

CYQB;2010-02-16 19:00;CYQB 161900Z 22005KT 15SM FEW030 SCT120 OVC250 M01/M06 A2950 RMK SC2AC2CS3 SLP994

CYQB;2010-02-16 20:00;CYQB 162000Z 22005KT 15SM FEW030 SCT120 BKN250 M01/M06 A2949 RMK SC2AC2CS4 VIS NW-NE LWR SLP991

CYQB;2010-02-16 20:45;CYQB 162045Z 24007KT 10SM -SHSN BKN028 OVC250 M01/ RMK SC6CS2 VIS NW-NE LWR

CYQB;2010-02-16 21:00;CYQB 162100Z 23006KT 10SM -SHSN FEW020 BKN038 OVC250 M01/M06 A2948 RMK SC2SC6CS1 VIS NW-NE 3 SLP987

CYQB;2010-02-16 21:18;CYQB 162118Z 21006KT 2SM -SHSN OVC029 M02/ RMK SN2SC6

CYQB;2010-02-16 22:00;CYQB 162200Z 23006KT 1 1/2SM -SHSN OVC032 M03/M04 A2948 RMK SN3SC5 SLP987

CYQB;2010-02-16 23:00;CYQB 162300Z 24004KT 2 1/2SM -SHSN OVC033 M03/M04 A2947 RMK SN2SC6 SLP983

CYQB;2010-02-17 00:00;CYQB 170000Z 22005KT 2SM -SHSN OVC029 M03/M04 A2946 RMK SN3SC5 SLP981

CYQB;2010-02-17 01:00;CYQB 170100Z 23004KT 1 1/2SM -SHSN OVC029 M03/M04 A2945 RMK SN3SC5 SLP977

CYQB;2010-02-17 02:00;CYQB 170200Z 18002KT 1 1/2SM -SN SCT005 OVC022 M03/M04 A2945 RMK SN3SF1SC4 /S01/ SLP976

CYQB;2010-02-17 02:27;CYQB 170227Z 18003KT 3SM -SN FEW005 SCT009 OVC020 M03/ RMK SF2SF2SC4

CYQB;2010-02-17 03:00;CYQB 170300Z 20002KT 3SM -SN OVC024 M03/M04 A2943 RMK SN6SC2 SLP970

CYQB;2010-02-17 03:37;CYQB 170337Z 00000KT 3SM -SN BKN009 OVC020 M03/ RMK ST6SC2

CYQB;2010-02-17 04:00;CYQB 170400Z 35002KT 3SM -SN BKN007 OVC055 M03/M04 A2941 RMK ST7SC1 SLP963

CYQB;2010-02-17 04:27;CYQB 170427Z 00000KT 3SM -SN BKN004 M03/ RMK ST7

CYQB;2010-02-17 04:44;CYQB 170444Z 00000KT 3SM -SN SCT004 OVC020 M04/ RMK SF4SC4

CYQB;2010-02-17 05:00;CYQB 170500Z 00000KT 3SM -SN BKN006 M04/M04 A2940 RMK SF7 SLP961

CYQB;2010-02-17 05:36;CYQB 170536Z 00000KT 3SM R06/3000VP6000FT/D -SN BKN004 OVC046 M05/ RMK SF6SC2

CYQB;2010-02-17 06:00;CYQB 170600Z 00000KT 4SM -SN BKN005 OVC046 M04/M05 A2940 RMK SF7SC1 SLP959

CYQB;2010-02-17 07:00;CYQB 170700Z 33002KT 4SM -SN BKN005 OVC042 M04/M05 A2939 RMK SF6SC2 SLP958

CYQB;2010-02-17 07:46;CYQB 170746Z 00000KT 8SM -SN FEW005 BKN026 OVC042 M04/ RMK SF2SC3SC2

CYQB;2010-02-17 08:00;CYQB 170800Z 00000KT 8SM -SN FEW005 SCT025 OVC041 M04/M05 A2940 RMK SF2SC2SC4 SLP959

CYQB;2010-02-17 08:30;CYQB 170830Z 03002KT 4SM -SN BKN003 BKN010 OVC025 M04/ RMK SF5SF2SC2

CYQB;2010-02-17 09:00;CYQB 170900Z 35002KT 4SM -SN FEW003 OVC006 M04/M05 A2941 RMK SF2SF6 SLP962

CYQB;2010-02-17 10:00;CYQB 171000Z 34002KT 4SM -SN OVC006 M03/M04 A2940 RMK SF8 SLP961

CYQB;2010-02-17 11:00;CYQB 171100Z 34002KT 5SM -SN BKN006 OVC067 M04/M04 A2939 RMK SF6SC2 SLP957

CYQB;2010-02-17 12:00;CYQB 171200Z 00000KT 3SM -SN BKN008 BKN040 BKN067 M04/M05 A2941 RMK SF6SC1SC1 SLP963

CYQB;2010-02-17 12:21;CYQB 171221Z 00000KT 4SM -SN BKN007 OVC040 M04/ RMK SF5SC3

CYQB;2010-02-17 13:00;CYQB 171300Z 00000KT 5SM -SN BKN007 OVC040 M03/M04 A2941 RMK SF6SC2 SLP964

CYQB;2010-02-17 14:00;CYQB 171400Z 26005KT 4SM -SN BKN007 BKN040 OVC070 M02/M03 A2941 RMK SF6SC2AC1 SLP963

CYQB;2010-02-17 15:00;CYQB 171500Z 23005KT 5SM -SN BR BKN007 BKN040 OVC050 M02/M03 A2942 RMK SF5SC2SC2 SLP966

CYQB;2010-02-17 16:00;CYQB 171600Z 23008KT 5SM -SN BR BKN009 BKN040 BKN065 M02/M03 A2942 RMK SF5SC2SC1 SLP965

CYQB;2010-02-17 17:00;CYQB 171700Z 23010KT 6SM -SN BR SCT009 BKN040 BKN053 M01/M03 A2939 RMK SF4SC2SC1 SLP956

CYQB;2010-02-17 17:31;CYQB 171731Z 23012KT 6SM BR FEW009 SCT019 BKN040 M01/ RMK SF2SC2SC2

CYQB;2010-02-17 18:00;CYQB 171800Z 24011KT 6SM BR FEW009 SCT023 BKN040 M00/M03 A2938 RMK SF2SC2SC3 SLP953

CYQB;2010-02-17 19:00;CYQB 171900Z 25012KT 8SM SCT011 BKN023 BKN040 M00/M03 A2937 RMK SF3SC2SC2 SLP949

CYQB;2010-02-17 20:00;CYQB 172000Z 23011KT 10SM FEW011 FEW023 BKN054 00/M03 A2936 RMK SF2SC1SC4 SLP947

CYQB;2010-02-17 21:00;CYQB 172100Z 22013KT 10SM FEW011 FEW023 BKN060 M00/M03 A2935 RMK SF1SC1SC6 SLP944

CYQB;2010-02-17 22:00;CYQB 172200Z 25009KT 10SM FEW013 BKN050 M01/M03 A2935 RMK SF1SC7 SLP944

CYQB;2010-02-17 23:00;CYQB 172300Z 25013KT 10SM FEW015 BKN055 M01/M03 A2936 RMK SF1SC7 SLP945

CYQB;2010-02-18 00:00;CYQB 180000Z 25016KT 10SM FEW015 BKN044 M01/M03 A2935 RMK SF1SC7 SLP943

CYQB;2010-02-18 01:00;CYQB 180100Z 24016KT 10SM BKN051 M01/M03 A2934 RMK SC7 SLP939

CYQB;2010-02-18 02:00;CYQB 180200Z 23014G19KT 10SM SCT053 BKN062 M01/M03 A2932 RMK SC4SC3 SLP933

CYQB;2010-02-18 03:00;CYQB 180300Z 24015KT 15SM OVC051 M01/M03 A2931 RMK SC8 SLP929

CYQB;2010-02-18 04:00;CYQB 180400Z 23013KT 15SM OVC051 M01/M03 A2930 RMK SC8 SLP925

CYQB;2010-02-18 05:00;CYQB 180500Z 24014KT 15SM OVC060 M01/M03 A2929 RMK SC8 SLP921

CYQB;2010-02-18 05:37;CYQB 180537Z 25015KT 8SM -SHSN OVC067 M01/ RMK AC8

CYQB;2010-02-18 06:00;CYQB 180600Z 24014KT 8SM -SHSN OVC077 M01/M03 A2928 RMK AC8 SLP920

CYQB;2010-02-18 07:00;CYQB 180700Z 24017KT 5SM -SHSN OVC063 M01/M03 A2928 RMK SC8 SLP917

CYQB;2010-02-18 08:00;CYQB 180800Z 24015KT 5SM -SHSN BKN050 OVC150 M01/M02 A2926 RMK SC6AC2 SLP912

CYQB;2010-02-18 09:00;CYQB 180900Z 24017KT 3SM -SHSN OVC070 M01/M02 A2926 RMK AC8 SLP911

CYQB;2010-02-18 10:00;CYQB 181000Z 24017KT 5SM -SHSN FEW030 OVC058 M01/M02 A2925 RMK SC2SC6 SLP907

CYQB;2010-02-18 10:34;CYQB 181034Z 23016KT 4SM -SHGSSN FEW030 OVC047 M01/ RMK SC2SC6

CYQB;2010-02-18 11:00;CYQB 181100Z 24016KT 4SM -SHSN FEW030 OVC061 M00/M01 A2924 RMK SC2SC6 SLP905

CYQB;2010-02-18 12:00;CYQB 181200Z 25014KT 6SM BR FEW002 SCT030 BKN090 00/M01 A2925 RMK SF1SC2AC3 SLP907

CYQB;2010-02-18 13:00;CYQB 181300Z 24013KT 15SM SCT030 BKN090 01/M01 A2925 RMK SC3AC3 SLP910

CYQB;2010-02-18 14:00;CYQB 181400Z 24012KT 15SM FEW030 BKN077 01/M01 A2925 RMK SC2SC4 SLP909

CYQB;2010-02-18 15:00;CYQB 181500Z 24008KT 25SM FEW030 BKN073 04/M01 A2926 RMK SC2SC5 SLP912

CYQB;2010-02-18 16:00;CYQB 181600Z CCA 25007KT 25SM SCT039 BKN072 04/M01 A2926 RMK SC4AC2 SLP911

CYQB;2010-02-18 17:00;CYQB 181700Z 27010KT 25SM SCT039 BKN084 05/M01 A2923 RMK SC4AC2 SLP903

CYQB;2010-02-18 18:00;CYQB 181800Z 28014KT 30SM SCT039 BKN093 04/M01 A2923 RMK SC3AC3 SLP901

CYQB;2010-02-18 19:00;CYQB 181900Z 26018G25KT 30SM SCT039 BKN087 03/M02 A2923 RMK SC3AC2 SLP901

CYQB;2010-02-18 20:00;CYQB 182000Z 25020G25KT 30SM SCT039 BKN085 03/M02 A2924 RMK SC3AC2 SLP904

CYQB;2010-02-18 21:00;CYQB 182100Z 28018KT 30SM FEW039 BKN088 02/M02 A2926 RMK SC2AC4 SLP913

CYQB;2010-02-18 22:00;CYQB 182200Z 26018KT 30SM FEW035 BKN087 02/M03 A2929 RMK SC2AC4 SLP923

CYQB;2010-02-18 23:00;CYQB 182300Z 26017KT 15SM FEW030 SCT050 BKN083 01/M03 A2931 RMK SC2SC2AC4 SLP929

CYQB;2010-02-19 00:00;CYQB 190000Z 27017KT 15SM FEW050 OVC062 01/M04 A2931 RMK SC2SC6 SLP930

CYQB;2010-02-19 01:00;CYQB 190100Z 26015G20KT 15SM FEW028 SCT060 OVC075 00/M04 A2931 RMK SC1SC4AC4 SLP930

CYQB;2010-02-19 02:00;CYQB 190200Z 25013G18KT 15SM BKN025 OVC075 M00/M04 A2931 RMK SC6AC2 SLP929

CYQB;2010-02-19 03:00;CYQB 190300Z 25015KT 15SM BKN025 OVC080 M01/M05 A2931 RMK SC6AC2 SLP927

CYQB;2010-02-19 04:00;CYQB 190400Z 25017KT 15SM SCT025 OVC078 M01/M05 A2930 RMK SC4AC4 SLP925

CYQB;2010-02-19 05:00;CYQB 190500Z 24017KT 15SM -SHSN SCT025 OVC080 M02/M06 A2931 RMK SC3AC5 SLP930

CYQB;2010-02-19 06:00;CYQB 190600Z 25015KT 3SM -SHSN BKN021 OVC040 M02/M05 A2932 RMK SC6SC2 SLP933

CYQB;2010-02-19 06:13;CYQB 190613Z 25018KT 1 1/2SM -SHSN VV012 M03/ RMK SN8

CYQB;2010-02-19 06:45;CYQB 190645Z 25016KT 2SM -SHSN OVC032 M03/ RMK SN6SC2

CYQB;2010-02-19 07:00;CYQB 190700Z 25014G20KT 1 1/2SM -SHSN VV013 M03/M05 A2934 RMK SN8 SLP939

CYQB;2010-02-19 08:00;CYQB 190800Z 25017KT 1/2SM R06/P6000FT/N SHSN VV006 M04/M04 A2934 RMK SN8 /S01/ SLP939

CYQB;2010-02-19 08:36;CYQB 190836Z CCA 25016KT 1SM R06/P6000FT/U -SHSN VV011 M04/ RESN RMK SN8

CYQB;2010-02-19 09:00;CYQB 190900Z 25017KT 1SM R06/P6000FT/D -SHSN VV009 M04/M05 A2934 RESN RMK SN8 /S03/ SLP940

CYQB;2010-02-19 09:35;CYQB 190935Z 25016KT 1/2SM R06/P6000FT/D SHSN VV006 M04/ RMK SN8

CYQB;2010-02-19 10:00;CYQB 191000Z 25017KT 3SM -SHSN SCT020 OVC064 M04/M05 A2935 RESN RMK SC4SC4 /S04/ SLP942

CYQB;2010-02-19 11:00;CYQB 191100Z 24017KT 3SM -SHSN FEW010 SCT020 OVC064 M04/M06 A2936 RMK SF1SC2SC5 SLP946

CYQB;2010-02-19 12:00;CYQB 191200Z 25016KT 3SM -SHSN BR FEW010 OVC034 M05/M07 A2939 RMK SF1SC7 VIS LWR N SLP955

CYQB;2010-02-19 12:36;CYQB 191236Z 25018KT 1 1/2SM -SHSN OVC014 M05/ RMK SC8

CYQB;2010-02-19 13:00;CYQB 191300Z 25017KT 1 1/2SM -SHSN OVC015 M05/M06 A2941 RMK SC8 SLP962

CYQB;2010-02-19 13:25;CYQB 191325Z 24018KT 2SM -SHSN SCT015 BKN024 M05/ RMK SC3SC4 VIS HIER N-NE

CYQB;2010-02-19 14:00;CYQB 191400Z CCA 24019G25KT 10SM SCT015 BKN060 BKN100 M05/M07 A2943 RMK SC3SC2AC2 SLP969

CYQB;2010-02-19 15:00;CYQB 191500Z 24019KT 10SM FEW015 BKN057 BKN100 M04/M06 A2945 RMK SC2SC4AC2 SLP975

CYQB;2010-02-19 16:00;CYQB 191600Z 24020KT 25SM FEW015 SCT056 BKN089 M03/M06 A2945 RMK SC2SC2AC3 SLP977

CYQB;2010-02-19 17:00;CYQB 191700Z 24017G24KT 25SM FEW030 FEW056 BKN100 M02/M06 A2946 RMK SC1SC2AC4 SLP979

CYQB;2010-02-19 18:00;CYQB 191800Z 25019KT 25SM FEW050 BKN087 M00/M05 A2946 RMK SC2AC5 SLP981

CYQB;2010-02-19 19:00;CYQB 191900Z 22012G24KT 25SM FEW050 BKN090 BKN180 M01/M05 A2948 RMK SC1AC5CI1 SLP988

CYQB;2010-02-19 20:00;CYQB 192000Z 25014KT 15SM FEW050 SCT090 BKN180 01/M04 A2951 RMK SC1AC2CI2 SLP996

CYQB;2010-02-19 21:00;CYQB 192100Z 23015G22KT 15SM BKN030 BKN090 BKN210 01/M05 A2954 RMK SC6AC1CI1 SLP008

CYQB;2010-02-19 22:00;CYQB 192200Z 25016KT 15SM FEW030 BKN084 BKN210 M01/M05 A2958 RMK SC2AC3CI1 SLP019

CYQB;2010-02-19 23:00;CYQB 192300Z 24011KT 15SM FEW030 BKN080 BKN210 M01/M05 A2961 RMK SC2AC3CI1 SLP031

CYQB;2010-02-20 00:00;CYQB 200000Z 25013KT 15SM FEW035 BKN080 OVC180 M01/M05 A2962 RMK SC2AC3AC2 SLP035

CYQB;2010-02-20 01:00;CYQB 200100Z 24013KT 15SM FEW030 BKN080 BKN140 M01/M05 A2964 RMK SC2AC3AC2 SLP042

CYQB;2010-02-20 02:00;CYQB 200200Z 23013KT 15SM SCT070 BKN130 M00/M04 A2965 RMK AC3AC4 SLP044

CYQB;2010-02-20 03:00;CYQB 200300Z 28009KT 15SM FEW030 OVC074 M00/M04 A2967 RMK SC1AC7 SLP050

CYQB;2010-02-20 04:00;CYQB 200400Z 25007KT 15SM FEW030 OVC070 00/M03 A2967 RMK SC2AC6 SLP052

CYQB;2010-02-20 05:00;CYQB 200500Z CCA 25013G18KT 15SM FEW030 OVC075 M00/M04 A2968 RMK SC2AC6 DIST SH E-SW SLP056

CYQB;2010-02-20 06:00;CYQB 200600Z 25015KT 15SM FEW030 SCT070 M01/M04 A2968 RMK SC1AC3 SLP055

CYQB;2010-02-20 07:00;CYQB 200700Z 24015KT 15SM BKN080 M02/M05 A2971 RMK AC5 SLP064

CYQB;2010-02-20 08:00;CYQB 200800Z 25013G18KT 15SM FEW030 SCT080 M02/M05 A2971 RMK SC1AC4 SLP065

CYQB;2010-02-20 09:00;CYQB 200900Z 23008KT 15SM FEW030 BKN080 M03/M05 A2973 RMK SC2AC2 SLP072

CYQB;2010-02-20 10:00;CYQB 201000Z 24007KT 15SM FEW030 FEW080 M03/M06 A2975 RMK SC1AC2 SLP077

CYQB;2010-02-20 11:00;CYQB 201100Z 27014KT 15SM FEW030 BKN130 M02/M05 A2975 RMK SC2AC5 SLP078

CYQB;2010-02-20 12:00;CYQB 201200Z 23010KT 15SM FEW022 BKN130 M02/M05 A2976 RMK SC2AC5 SLP081

CYQB;2010-02-20 13:00;CYQB 201300Z 24014KT 30SM BKN024 BKN130 M02/M05 A2976 RMK SC5AC2 SLP082

CYQB;2010-02-20 14:00;CYQB 201400Z 23013G18KT 30SM BKN023 BKN130 M01/M04 A2976 RMK SC6AC1 SLP082

CYQB;2010-02-20 15:00;CYQB 201500Z 23012KT 30SM BKN025 M00/M04 A2976 RMK SC7 SLP080

CYQB;2010-02-20 16:00;CYQB 201600Z 23015KT 30SM BKN031 01/M05 A2974 RMK SC6 SLP075

CYQB;2010-02-20 17:00;CYQB 201700Z 24017KT 30SM BKN031 01/M05 A2972 RMK SC6 SLP069

CYQB;2010-02-20 18:00;CYQB 201800Z 22016G21KT 30SM BKN033 00/M05 A2972 RMK SC6 SLP067

CYQB;2010-02-20 19:00;CYQB 201900Z 23019KT 30SM BKN037 01/M05 A2970 RMK SC7 SLP062

CYQB;2010-02-20 20:00;CYQB 202000Z 24014KT 30SM BKN036 02/M05 A2971 RMK SC6 SLP065

CYQB;2010-02-20 21:00;CYQB 202100Z 26013G18KT 30SM BKN037 01/M04 A2972 RMK SC7 SLP067

CYQB;2010-02-20 22:00;CYQB 202200Z 26015KT 20SM BKN035 00/M04 A2973 RMK SC7 SLP072

CYQB;2010-02-20 23:00;CYQB 202300Z 26014KT 20SM BKN032 M00/M05 A2975 RMK SC7 SLP076

CYQB;2010-02-21 00:00;CYQB 210000Z 25010KT 20SM BKN036 M00/M05 A2975 RMK SC7 SLP078

CYQB;2010-02-21 01:00;CYQB 210100Z 25014KT 20SM BKN036 M01/M05 A2974 RMK SC7 SLP076

CYQB;2010-02-21 02:00;CYQB 210200Z 25011KT 20SM FEW036 M02/M06 A2974 RMK SC2 SLP076

CYQB;2010-02-21 03:00;CYQB 210300Z 24014KT 15SM BKN028 M02/M06 A2974 RMK SC5 SLP076

CYQB;2010-02-21 04:00;CYQB 210400Z 28007KT 15SM BKN029 M03/M06 A2975 RMK SC6 SLP078

CYQB;2010-02-21 05:00;CYQB 210500Z 26010KT 15SM SCT028 M04/M07 A2974 RMK SC4 SLP074

CYQB;2010-02-21 06:00;CYQB 210600Z 26008KT 15SM FEW028 SCT075 BKN150 M04/M07 A2975 RMK SC2AC2AC2 SLP077

CYQB;2010-02-21 07:00;CYQB 210700Z 23010KT 15SM FEW030 SCT070 BKN130 M04/M08 A2974 RMK SC1AC3AC3 SLP076

CYQB;2010-02-21 08:00;CYQB 210800Z 25012KT 15SM SCT063 SCT092 BKN130 M05/M08 A2973 RMK SC3AC1AC2 SLP073

CYQB;2010-02-21 09:00;CYQB 210900Z 24014KT 15SM -SN BKN038 OVC065 M05/M08 A2974 RMK SC5SC3 SLP074

CYQB;2010-02-21 10:00;CYQB 211000Z 25012KT 15SM -SN BKN021 OVC050 M05/M07 A2975 RMK SC5SC3 SLP078

CYQB;2010-02-21 11:00;CYQB 211100Z 24013KT 12SM -SN BKN022 BKN050 OVC130 M05/M07 A2975 RMK SC5SC2AC1 SLP080

CYQB;2010-02-21 11:29;CYQB 211129Z 25010KT 15SM FEW006 SCT022 BKN120 OVC150 M05/ RMK SF1SC2AC2AC2

CYQB;2010-02-21 12:00;CYQB 211200Z 24011KT 20SM FEW006 FEW022 BKN110 OVC150 M05/M07 A2977 RMK SF1SC2AC3AC2 SLP085

CYQB;2010-02-21 12:19;CYQB 211219Z 23011KT 20SM -SN FEW006 BKN040 OVC110 M05/ RMK SF1SC6AC2

CYQB;2010-02-21 13:00;CYQB 211300Z 24012KT 15SM -SN FEW006 OVC050 M05/M07 A2978 RMK SF1SC8 SLP088

CYQB;2010-02-21 14:00;CYQB 211400Z 23012KT 15SM -SN FEW006 FEW030 OVC050 M04/M07 A2979 RMK SF1SC2SC6 SLP093

CYQB;2010-02-21 15:00;CYQB 211500Z CCA 23011KT 20SM FEW009 BKN033 OVC084 M03/M06 A2980 RMK SF1SC6AC2 INTMT -SN SLP094

CYQB;2010-02-21 15:41;CYQB 211541Z 22012KT 20SM FEW009 BKN032 OVC084 M03/ RMK SF1SC5AC2

CYQB;2010-02-21 16:00;CYQB 211600Z 22011KT 20SM FEW009 BKN032 OVC080 M03/M06 A2981 RMK SF1SC6AC2 SLP097

CYQB;2010-02-21 17:00;CYQB 211700Z 23011KT 25SM BKN031 OVC080 M02/M05 A2980 RMK SC6AC2 SLP095

CYQB;2010-02-21 18:00;CYQB 211800Z 22015KT 25SM BKN030 OVC080 M01/M05 A2980 RMK SC5AC3 SLP094

CYQB;2010-02-21 19:00;CYQB 211900Z 23014KT 25SM -SHSN BKN044 OVC080 M01/M05 A2979 RMK SC6AC2 SLP093

CYQB;2010-02-21 19:43;CYQB 211943Z 23013KT 15SM BKN036 OVC080 M01/ RMK SC7AC1

CYQB;2010-02-21 20:00;CYQB 212000Z 23015KT 15SM BKN041 M01/M04 A2981 RMK SC7 SLP097

CYQB;2010-02-21 20:48;CYQB 212048Z 23013KT 12SM -SHGS FEW036 BKN048 M01/ RMK SC2SC5

CYQB;2010-02-21 21:00;CYQB 212100Z 23014G19KT 12SM -SHGS FEW035 BKN044 M01/M04 A2981 RMK SC2SC5 SLP099

CYQB;2010-02-21 22:00;CYQB 212200Z 23016KT 5SM -SHGS FEW020 BKN042 BKN070 M00/M04 A2981 RMK SC1SC6AC1 VIS LWR E SLP100

CYQB;2010-02-21 22:44;CYQB 212244Z 23013KT 15SM SCT050 BKN067 M01/ RMK SC3AC2

CYQB;2010-02-21 23:00;CYQB 212300Z 22013KT 15SM SCT058 BKN070 M01/M04 A2983 RMK SC4AC2 SLP105

CYQB;2010-02-22 00:00;CYQB 220000Z 23015KT 15SM BKN060 M00/M04 A2983 RMK SC7 SLP105

CYQB;2010-02-22 01:00;CYQB 220100Z 24011KT 15SM BKN063 M00/M03 A2984 RMK SC4 SLP108

CYQB;2010-02-22 02:00;CYQB 220200Z 24008KT 15SM SCT050 BKN077 01/M02 A2984 RMK SC4AC0 SLP109

CYQB;2010-02-22 03:00;CYQB 220300Z 30005KT 15SM BKN040 01/M02 A2984 RMK SC5 SLP109

CYQB;2010-02-22 04:00;CYQB 220400Z 31004KT 15SM FEW040 SCT160 00/M02 A2984 RMK SC2AC1 SLP109

CYQB;2010-02-22 05:00;CYQB 220500Z 25007KT 15SM FEW040 SCT160 M00/M02 A2984 RMK SC1AC2 SLP110

CYQB;2010-02-22 06:00;CYQB 220600Z 00000KT 15SM BKN060 M01/M03 A2985 RMK SC5 SLP113

CYQB;2010-02-22 07:00;CYQB 220700Z 33007KT 15SM BKN073 02/M02 A2986 RMK AC6 SLP117

CYQB;2010-02-22 08:00;CYQB 220800Z 36005KT 15SM FEW050 BKN057 02/M03 A2986 RMK SC2SC5 SLP116

CYQB;2010-02-22 09:00;CYQB 220900Z 11005KT 15SM BKN043 M00/M03 A2989 RMK SC6 SLP125

CYQB;2010-02-22 10:00;CYQB 221000Z 25003KT 15SM BKN046 M01/M03 A2990 RMK SC6 SLP129

CYQB;2010-02-22 11:00;CYQB 221100Z 22004KT 15SM BKN049 M00/M03 A2992 RMK SC7 SLP134

CYQB;2010-02-22 12:00;CYQB 221200Z 21006KT 30SM BKN041 M01/M03 A2994 RMK SC7 SLP142

CYQB;2010-02-22 13:00;CYQB 221300Z 23009KT 30SM OVC035 M01/M03 A2996 RMK SC8 SLP148

CYQB;2010-02-22 13:19;CYQB 221319Z 23005KT 15SM -SHGS FEW020 OVC042 M01/ RMK SC1SC7 VIS LWR S

CYQB;2010-02-22 14:00;CYQB 221400Z 23006KT 15SM -SHGS FEW020 OVC037 M01/M03 A2997 RMK SC1SC8 SLP152

CYQB;2010-02-22 15:00;CYQB 221500Z 24006KT 8SM -SHSN BKN018 OVC025 M01/M04 A2998 RMK SC6SC2 SLP156

CYQB;2010-02-22 16:00;CYQB 221600Z 23004KT 15SM -SHSN OVC012 M00/M03 A2999 RMK SC8 SLP159

CYQB;2010-02-22 17:00;CYQB 221700Z 12004KT 15SM OVC009 01/M02 A2999 RMK ST8 SLP160

CYQB;2010-02-22 18:00;CYQB 221800Z 13003KT 10SM OVC009 01/M01 A2999 RMK ST8 SLP158

CYQB;2010-02-22 19:00;CYQB 221900Z 10006KT 12SM OVC010 02/M01 A2999 RMK ST8 SLP158

CYQB;2010-02-22 20:00;CYQB 222000Z 09005KT 15SM OVC015 02/M01 A3000 RMK ST8 CIG LWR N SLP162

CYQB;2010-02-22 21:00;CYQB 222100Z 09004KT 15SM OVC012 02/M01 A3000 RMK SC8 CIG LWR N CIG RAG SLP161

CYQB;2010-02-22 22:00;CYQB 222200Z 06005KT 15SM OVC012 01/M01 A3001 RMK SC8 CIG LWR N SLP165

CYQB;2010-02-22 22:35;CYQB 222235Z 08009KT 15SM OVC009 01/ RMK SC8

CYQB;2010-02-22 23:00;CYQB 222300Z 06009G19KT 10SM OVC008 01/M01 A3001 RMK ST8 SLP166

CYQB;2010-02-23 00:00;CYQB 230000Z 07011KT 12SM FEW006 OVC009 01/M01 A3001 RMK SF1ST8 SLP165

CYQB;2010-02-23 01:00;CYQB 230100Z 06010G18KT 15SM OVC007 01/M01 A3001 RMK ST8 SLP165

CYQB;2010-02-23 02:00;CYQB 230200Z 06010G16KT 15SM OVC007 00/M01 A3001 RMK ST8 SLP166

CYQB;2010-02-23 03:00;CYQB 230300Z 07008G15KT 10SM OVC007 00/M01 A3002 RMK ST8 SLP168

CYQB;2010-02-23 03:39;CYQB 230339Z 07009KT 10SM OVC004 00/ RMK ST8

CYQB;2010-02-23 04:00;CYQB 230400Z 05010KT 10SM SCT004 OVC008 00/M01 A3002 RMK ST4ST4 SLP168

CYQB;2010-02-23 05:00;CYQB 230500Z 06009G15KT 10SM BKN004 OVC007 00/M01 A3001 RMK ST6ST2 SLP166

CYQB;2010-02-23 05:33;CYQB 230533Z 09005KT 5SM -SN OVC004 00/ RMK ST8

CYQB;2010-02-23 06:00;CYQB 230600Z 07010KT 4SM -SN OVC004 00/M00 A3001 RMK ST8 SLP165

CYQB;2010-02-23 07:00;CYQB 230700Z 07010KT 10SM -SN OVC004 00/M00 A2999 RMK SF8 SLP160

CYQB;2010-02-23 08:00;CYQB 230800Z 08006KT 10SM -SN OVC003 00/M01 A2998 RMK ST8 SLP157

CYQB;2010-02-23 09:00;CYQB 230900Z 07007KT 10SM OVC003 00/M00 A2998 RMK ST8 SLP157

CYQB;2010-02-23 10:00;CYQB 231000Z 07008KT 10SM OVC003 00/M01 A2999 RMK ST8 SLP158

CYQB;2010-02-23 11:00;CYQB 231100Z 07009KT 8SM OVC003 00/M01 A2998 RMK ST8 SLP157

CYQB;2010-02-23 11:16;CYQB 231116Z 07009KT 2SM BR OVC002 M00/ RMK ST8

CYQB;2010-02-23 11:48;CYQB 231148Z 07008KT 1SM R06/P6000FT/D BR OVC002 00/ RMK ST8

CYQB;2010-02-23 12:00;CYQB 231200Z 08007KT 1SM R06/P6000FT/D BR OVC002 00/M00 A3000 RMK ST8 SLP163

CYQB;2010-02-23 12:31;CYQB 231231Z 07009KT 1 1/2SM BR OVC002 00/ RMK ST8 CIG VRB 1-3

CYQB;2010-02-23 13:00;CYQB 231300Z 07011KT 5SM BR BKN003 OVC045 00/M00 A3000 RMK SF5SC3 VIS SW 10 SLP164

CYQB;2010-02-23 13:30;CYQB 231330Z 08009KT 8SM SCT004 OVC044 01/ RMK SF3SC5

CYQB;2010-02-23 14:00;CYQB 231400Z 07007KT 15SM FEW004 OVC042 01/M00 A3001 RMK SF1SC7 SLP167

CYQB;2010-02-23 15:00;CYQB 231500Z 07005G15KT 25SM FEW012 OVC044 02/M01 A3002 RMK SF1SC8 SLP168

CYQB;2010-02-23 16:00;CYQB 231600Z 10008KT 25SM FEW012 OVC043 03/M02 A3001 RMK SC1SC8 SLP167

CYQB;2010-02-23 17:00;CYQB 231700Z 08009KT 25SM FEW014 OVC041 03/M01 A3001 RMK SC1SC8 SLP167

CYQB;2010-02-23 18:00;CYQB 231800Z 11011KT 30SM FEW014 OVC040 03/M03 A3000 RMK SC1SC8 SLP164

CYQB;2010-02-23 19:00;CYQB 231900Z 06009KT 30SM FEW014 OVC041 03/M01 A3000 RMK SC1SC8 SLP162

CYQB;2010-02-23 20:00;CYQB 232000Z 07009KT 30SM FEW014 BKN039 03/M00 A3000 RMK SC1SC7 SLP163

CYQB;2010-02-23 21:00;CYQB 232100Z 07009KT 25SM FEW013 BKN037 03/M01 A3000 RMK SC1SC7 VIRGA SW SLP164

CYQB;2010-02-23 21:25;CYQB 232125Z 06007KT 20SM -SHRA FEW013 BKN020 03/ RMK SC1SC7 VIS LWR NW

CYQB;2010-02-23 22:00;CYQB 232200Z 07003KT 30SM FEW015 BKN034 BKN053 03/M01 A3002 RMK SC1SC6SC1 VIS LWR NW SLP169

CYQB;2010-02-23 23:00;CYQB 232300Z 11009KT 15SM FEW034 OVC068 03/M02 A3003 RMK SC2AC6 SLP174

CYQB;2010-02-24 00:00;CYQB 240000Z 08005KT 15SM BKN036 OVC074 03/M03 A3004 RMK SC6AC2 SLP177

CYQB;2010-02-24 01:00;CYQB 240100Z 07008KT 15SM BKN039 OVC077 02/M02 A3005 RMK SC6AC2 SLP178

CYQB;2010-02-24 02:00;CYQB 240200Z 07011G16KT 15SM BKN039 OVC140 02/M02 A3004 RMK SC6AC2 SLP176

CYQB;2010-02-24 03:00;CYQB 240300Z 08009KT 15SM BKN040 OVC140 02/M02 A3004 RMK SC6AC2 SLP177

CYQB;2010-02-24 04:00;CYQB 240400Z 10010G15KT 15SM OVC036 03/M02 A3005 RMK SC7 SLP180

CYQB;2010-02-24 05:00;CYQB 240500Z 11010KT 15SM BKN039 OVC090 02/M02 A3006 RMK SC7AC1 SLP181

CYQB;2010-02-24 06:00;CYQB 240600Z 08010G16KT 15SM BKN040 OVC100 02/M03 A3007 RMK SC7AC1 SLP187

CYQB;2010-02-24 07:00;CYQB 240700Z 10008KT 15SM OVC033 02/M03 A3007 RMK SC8 SLP187

CYQB;2010-02-24 08:00;CYQB 240800Z 10006KT 15SM OVC033 01/M03 A3007 RMK SC8 SLP187

CYQB;2010-02-24 09:00;CYQB 240900Z 07007KT 15SM OVC032 01/M03 A3007 RMK SC8 SLP185

CYQB;2010-02-24 10:00;CYQB 241000Z 07010KT 15SM OVC037 01/M03 A3007 RMK SC8 SLP185

CYQB;2010-02-24 11:00;CYQB 241100Z 06006KT 15SM OVC032 01/M02 A3008 RMK SC8 SLP188

CYQB;2010-02-24 12:00;CYQB 241200Z 08007KT 15SM OVC030 01/M02 A3008 RMK SC8 SLP190

CYQB;2010-02-24 12:31;CYQB 241231Z 07007KT 15SM -SHSN OVC032 01/ RMK SC8

CYQB;2010-02-24 13:00;CYQB 241300Z 06011KT 15SM -SHSN FEW010 OVC030 01/M01 A3009 RMK SF1SC7 SLP193

CYQB;2010-02-24 14:00;CYQB 241400Z CCA 07011G16KT 8SM -SHSN FEW010 OVC022 01/M01 A3009 RMK SF1SC7 VIS LWR N-NE SLP193

CYQB;2010-02-24 15:00;CYQB 241500Z 07011KT 10SM -SHSN FEW010 OVC025 02/M01 A3009 RMK SF1SC7 VIS LWER N-NE/VERY LIGHT SHSN SLP194

CYQB;2010-02-24 16:00;CYQB 241600Z 07013G18KT 10SM FEW010 OVC030 02/M01 A3010 RMK SF1SC7 VIS LWR NE-E SLP197

CYQB;2010-02-24 16:27;CYQB 241627Z 07016G21KT 5SM -SN FEW010 OVC031 02/ RMK SF2SC6

CYQB;2010-02-24 16:39;CYQB 241639Z 07014G20KT 1 1/2SM -SN VV012 01/ RMK SN8

CYQB;2010-02-24 17:00;CYQB 241700Z 07013G20KT 3/4SM R06/6000FT/N -SN VV009 01/M01 A3009 RMK SN8 SLP194

CYQB;2010-02-24 17:13;CYQB 241713Z 09013KT 1 1/4SM -SN VV012 01/ RMK SN8

CYQB;2010-02-24 17:29;CYQB 241729Z 09014G20KT 1SM R06/P6000FT/D -SN VV007 01/ RMK SN8 VIS VRB 3/4-11/4

CYQB;2010-02-24 18:00;CYQB 241800Z 07014KT 1SM R06/4500VP6000FT/D -SN VV008 00/M01 A3008 RMK SN8 VIS VRB 3/4-11/4 SLP188

CYQB;2010-02-24 18:11;CYQB 241811Z 09016KT 3/4SM R06/4500FT/N -SN VV007 00/ RMK SN8 VIS VRB 5/8-1

CYQB;2010-02-24 19:00;CYQB 241900Z 07015G25KT 1SM R06/P6000FT/N -SN VV010 01/M01 A3006 RMK SN8 VIS VRB 3/4-11/4 SLP183

CYQB;2010-02-24 19:17;CYQB 241917Z 07016G22KT 1 3/4SM -SN OVC020 01/ RMK SN3SC5

CYQB;2010-02-24 19:41;CYQB 241941Z 07013G22KT 1SM R06/P6000FT/D -SN OVC018 01/ RMK SN5SC3

CYQB;2010-02-24 20:00;CYQB 242000Z 06016G22KT 1SM R06/6000FT/U -SN BKN005 OVC018 00/M01 A3005 RMK SN5SF2SC1 VIS VRB 3/4-11/4 SLP179

CYQB;2010-02-24 20:50;CYQB 242050Z 08013G22KT 3SM -SN BKN012 OVC025 01/ RMK SC6SC2

CYQB;2010-02-24 21:00;CYQB 242100Z 07015G20KT 4SM -SN FEW005 SCT010 OVC021 01/M01 A3005 RMK SF1SC3SC5 SLP180

CYQB;2010-02-24 21:15;CYQB 242115Z 07015G21KT 1 1/2SM -SN BKN009 OVC025 01/ RMK SN3SF2SC2 CIG RAG

CYQB;2010-02-24 21:33;CYQB 242133Z 07018G26KT 1SM R06/P6000FT/D -SN BKN006 OVC020 00/ RMK SN5SF2SC1 VIS VRB 3/4-11/4 CIG RAG

CYQB;2010-02-24 22:00;CYQB 242200Z 08015G24KT 1/2SM R06/6000FT/D SN OVC004 00/M00 A3006 RMK SN6SF2 CIG VRB 3-5 SLP181

CYQB;2010-02-24 22:35;CYQB 242235Z 07015G20KT 3/4SM R06/P6000FT/U -SN VV003 00/ RMK SN8 RESN

CYQB;2010-02-24 23:00;CYQB 242300Z 07016G21KT 1SM R06/P6000FT/U -SN OVC003 00/M00 A3006 RESN RMK SN6SF2 VIS VRB 3/4-11/4 SLP184

CYQB;2010-02-24 23:22;CYQB 242322Z 07015G22KT 3SM -SN OVC004 00/ RMK SF8

CYQB;2010-02-24 23:34;CYQB 242334Z 07014G22KT 1SM R06/P6000FT/D -SN OVC004 00/ RMK SN6SF2 VIS VRB 3/4-11/4

CYQB;2010-02-25 00:00;CYQB 250000Z 06015G21KT 1SM R06/P6000FT/U -SN BKN005 OVC015 00/M00 A3005 RMK SN4SF2SC2 VIS VRB 3/4-11/4 /S04/ SLP180

CYQB;2010-02-25 00:17;CYQB 250017Z 06015G22KT 2 1/2SM -SN BKN005 OVC012 00/ RMK SN3SF3SC2 CIG RAG

CYQB;2010-02-25 00:28;CYQB 250028Z 07014G22KT 4SM -SN BKN005 OVC012 00/ RMK SF6SC2 CIG RAG

CYQB;2010-02-25 00:41;CYQB 250041Z 07013G20KT 2 1/2SM -SN BKN005 OVC012 00/ RMK SN2SF4SC2 CIG RAG

CYQB;2010-02-25 01:00;CYQB 250100Z 07016G25KT 1SM R06/P6000FT/D -SN BKN005 OVC012 00/M00 A3004 RMK SN5SF2SC1 CIG RAG VIS VRB 3/4-11/4 /S01/ SLP177

CYQB;2010-02-25 02:00;CYQB 250200Z 07016G21KT 1 1/2SM -SN BKN005 OVC012 00/M00 A3004 RMK SN2SF4SC2 CIG RAG VIS VRB 1-2 SLP175

CYQB;2010-02-25 03:00;CYQB 250300Z 07016G22KT 1 1/2SM -SN OVC004 00/M00 A3003 RMK SN5SF3 SLP173

CYQB;2010-02-25 04:00;CYQB 250400Z 06019G33KT 1 1/4SM -SN OVC004 00/M00 A3001 RMK SN6SF2 /S03/ SLP165

CYQB;2010-02-25 04:46;CYQB 250446Z 07015G26KT 3SM -SN FEW004 OVC013 00/ RMK SF2SC6

CYQB;2010-02-25 05:00;CYQB 250500Z 07016G24KT 4SM -SN OVC011 00/00 A3000 RMK SC8 /S04/ SLP163

CYQB;2010-02-25 06:00;CYQB 250600Z 07021G26KT 1SM R06/P6000FT/D -SN VV007 00/M00 A2998 RMK SN8 /S05/ SLP157

CYQB;2010-02-25 06:43;CYQB 250643Z 07017G26KT 3SM -SN OVC009 00/ RMK ST8

CYQB;2010-02-25 07:00;CYQB 250700Z 06024G31KT 3SM -SN OVC009 00/M00 A2997 RMK ST8 SLP151

CYQB;2010-02-25 08:00;CYQB 250800Z 08018G27KT 2 1/2SM -SN OVC008 00/M01 A2995 RMK ST8 SLP145

CYQB;2010-02-25 09:00;CYQB 250900Z 07030G40KT 3SM -SN OVC006 M00/M00 A2994 RMK ST8 SLP141

CYQB;2010-02-25 09:40;CYQB 250940Z 07027G38KT 6SM -SN BKN009 OVC021 M00/ RMK ST6SC2

CYQB;2010-02-25 10:00;CYQB 251000Z 07017G32KT 15SM -SN BKN010 OVC022 M00/M00 A2994 RMK ST6SC2 SLP142

CYQB;2010-02-25 11:00;CYQB 251100Z 07019G35KT 2SM R06/6000FT/U -SN BKN008 OVC011 M00/M00 A2993 RMK ST5SC3 SLP140

CYQB;2010-02-25 11:04;CYQB 251104Z 07023G32KT 3/4SM R06/P6000FT/U -SN BKN006 OVC011 M00/ RMK ST6SC2

CYQB;2010-02-25 12:00;CYQB 251200Z 07018G34KT 3/4SM R06/5500FT/D -SN OVC007 M01/M01 A2994 RMK ST8 /S02/ SLP144

CYQB;2010-02-25 13:00;CYQB 251300Z 08016G34KT 1SM R06/4000FT/N -SN BKN005 OVC010 M01/M01 A2995 RMK ST6ST2 /S02/ SLP146

CYQB;2010-02-25 14:00;CYQB 251400Z 07026G39KT 1/2SM R06/2200FT/N -SN BLSN OVC006 M01/M01 A2993 RMK ST8 /S03/ SLP140

CYQB;2010-02-25 14:26;CYQB 251426Z 07029G37KT 1SM R06/P6000FT/U -SN BLSN SCT006 OVC020 M01/ RMK ST4SC4

CYQB;2010-02-25 15:00;CYQB 251500Z 07027G34KT 4SM -SN BLSN FEW010 SCT018 OVC028 M01/M01 A2992 RMK ST2SC2SC4 SLP137

CYQB;2010-02-25 15:28;CYQB 251528Z 07026G38KT 5SM BLSN FEW010 OVC020 M01/ RMK ST2SC6

CYQB;2010-02-25 15:40;CYQB 251540Z 07022G34KT 4SM -SN BLSN FEW010 SCT015 OVC020 M01/ RMK ST2SC2SC4

CYQB;2010-02-25 16:00;CYQB 251600Z 07024G37KT 1SM R06/3500VP6000FT/D -SN BLSN FEW008 OVC011 M01/M01 A2994 RMK ST2SC6 /S04/ SLP141

CYQB;2010-02-25 16:17;CYQB 251617Z 07023G34KT 3/4SM R06/3500FT/U -SN BLSN OVC007 M01/ RMK ST8

CYQB;2010-02-25 17:00;CYQB 251700Z CCA 07021G32KT 3/4SM R06/3000FT/U -SN BLSN VV008 M01/M02 A2992 RMK SN8 /S05/ SLP134

CYQB;2010-02-25 18:00;CYQB 251800Z 08023G35KT 3/4SM R06/3000VP6000FT/D -SN BLSN VV008 M01/M02 A2989 RMK SN8 SLP126

CYQB;2010-02-25 18:31;CYQB 251831Z 07028G34KT 1/2SM R06/2600FT/N -SN BLSN VV008 M02/ RMK SN8

CYQB;2010-02-25 19:00;CYQB 251900Z 08023G31KT 1/2SM R06/2800V5000FT/U -SN BLSN VV008 M01/M02 A2986 RMK SN8 SLP117

CYQB;2010-02-25 20:00;CYQB 252000Z 06023G32KT 4SM R06/4500VP6000FT/D -SN BKN005 OVC020 M01/M02 A2985 RMK SN2SF3SC2 SLP113

CYQB;2010-02-25 20:19;CYQB 252019Z 07021G32KT 6SM -SNPL SCT005 BKN012 OVC019 M01/ RMK SF3SC3SC2

CYQB;2010-02-25 21:00;CYQB 252100Z 07024G32KT 6SM -SNPL SCT012 SCT020 OVC038 M00/M01 A2983 RMK SC3SC1SC4 SLP107

CYQB;2010-02-25 21:48;CYQB 252148Z 07022G32KT 15SM FEW010 SCT028 OVC032 00/ RMK SF1SC2SC5

CYQB;2010-02-25 22:00;CYQB 252200Z 06021G29KT 15SM FEW010 OVC028 00/M01 A2981 RMK SF1SC7 SLP097

CYQB;2010-02-25 23:00;CYQB 252300Z 08024G32KT 15SM BKN018 OVC026 01/M00 A2981 RMK SC6SC2 SLP100

CYQB;2010-02-26 00:00;CYQB 260000Z 07026G39KT 15SM OVC026 00/M00 A2980 RMK SC8 SLP096

CYQB;2010-02-26 01:00;CYQB 260100Z 07023G39KT 15SM SCT026 BKN038 OVC066 01/M00 A2977 RMK SC3SC3SC2 SLP086

CYQB;2010-02-26 02:00;CYQB 260200Z 07025G40KT 15SM FEW025 BKN050 OVC200 01/00 A2975 RMK SC1SC5CI2 SLP079

CYQB;2010-02-26 03:00;CYQB 260300Z 07030G40KT 15SM FEW025 SCT090 OVC180 01/M00 A2972 RMK SC1AC2CI4 SLP067

CYQB;2010-02-26 04:00;CYQB 260400Z 07029G42KT 15SM FEW025 FEW090 OVC190 01/M00 A2970 RMK SC1AC2CI6 SLP060

CYQB;2010-02-26 05:00;CYQB 260500Z 07033G45KT 15SM FEW025 OVC090 01/00 A2969 RMK SC1AC7 SLP057

CYQB;2010-02-26 06:00;CYQB 260600Z 07029G43KT 15SM FEW012 OVC079 01/M00 A2968 RMK SC1AC8 SLP055

CYQB;2010-02-26 07:00;CYQB 260700Z 07028G41KT 15SM FEW015 OVC065 01/M03 A2963 RMK CF1SC7 SLP036

CYQB;2010-02-26 08:00;CYQB 260800Z 07036G50KT 15SM FEW015 SCT065 OVC210 01/M03 A2959 RMK CF2SC2CI4 SLP024

CYQB;2010-02-26 09:00;CYQB 260900Z 07035G53KT 15SM FEW015 SCT032 OVC085 00/M04 A2957 RMK CF2SC2AC4 SLP018

CYQB;2010-02-26 10:00;CYQB 261000Z 07032G43KT 12SM -SHSN SCT032 BKN085 OVC190 00/M05 A2958 RMK SC3AC4CI1 SLP019

CYQB;2010-02-26 11:00;CYQB 261100Z CCA 07027G42KT 4SM -SHSN SCT046 BKN085 OVC190 M00/ A2958 RMK SC3AC4CI1 SLP021

CYQB;2010-02-26 11:16;CYQB 261116Z 06033G45KT 1 1/4SM -SHSN OVC013 M00/ RMK SN4SC4

CYQB;2010-02-26 12:00;CYQB 261200Z 06032G45KT 1SM R06/3000V5500FT/D -SHSN OVC011 M01/ A2959 RMK SN4SC4 SLP023

CYQB;2010-02-26 13:00;CYQB 261300Z 07029G40KT 3/4SM R06/3000FT/N -SHSN VV008 M01/ A2959 RMK SN8 SLP025

CYQB;2010-02-26 13:25;CYQB 261325Z 07026G39KT 3/8SM R06/2400FT/N SN BLSN VV007 M01/ RMK SN8

CYQB;2010-02-26 13:48;CYQB 261348Z 07028G41KT 5/8SM R06/2600FT/N -SN VV005 M01/ RMK SN8 VIS VRB 3/4-1/2

CYQB;2010-02-26 14:00;CYQB 261400Z 07028G38KT 1 1/4SM R06/3500VP6000FT/U -SN BLSN BKN008 OVC013 M01/ A2961 RMK SC7SC1 SLP032

CYQB;2010-02-26 14:18;CYQB 261418Z 07027G37KT 5SM BLSN BKN009 BKN023 M01/ RMK SC5SC2

CYQB;2010-02-26 15:00;CYQB 261500Z 07027G37KT 5SM BLSN BKN009 BKN023 BKN046 00/ A2965 RMK SC5SC2SC1 SLP043

CYQB;2010-02-26 16:00;CYQB 261600Z 07027G37KT 5SM BLSN SCT009 OVC039 01/ A2966 RMK SC3SC5 SLP047

CYQB;2010-02-26 17:00;CYQB 261700Z 06022G33KT 5SM FEW009 OVC040 02/ A2968 RMK SC2SC6 SLP053

CYQB;2010-02-26 18:00;CYQB 261800Z 07025G34KT 5SM -SHSN FEW009 BKN020 BKN040 02/ A2970 RMK SC2SC3SC2 SLP061

CYQB;2010-02-26 19:00;CYQB 261900Z 06019G35KT 10SM FEW009 SCT020 OVC040 02/M01 A2970 RMK SC1SC2SC5 VIS LWR S SLP061

CYQB;2010-02-26 20:00;CYQB 262000Z 06023G29KT 10SM FEW009 SCT024 OVC038 02/M01 A2971 RMK SC1SC3SC5 SLP064

CYQB;2010-02-26 20:45;CYQB 262045Z 07021G27KT 8SM -SHSN BKN011 OVC038 01/ RMK SC5SC3

CYQB;2010-02-26 21:00;CYQB 262100Z 06017G25KT 6SM -SHSN BKN009 OVC025 01/M01 A2970 RMK SC7SC1 SLP062

CYQB;2010-02-26 22:00;CYQB 262200Z 07013G20KT 8SM -SHSN BKN010 BKN027 01/M01 A2969 RMK SC6SC2 SLP057

CYQB;2010-02-26 22:35;CYQB 262235Z 08016G22KT 8SM -SHSN SCT010 SCT028 OVC051 01/ RMK SC3SC1SC3

CYQB;2010-02-26 23:00;CYQB 262300Z 07015G22KT 6SM -SHSN BKN008 OVC050 01/M01 A2968 RMK SC7SC1 SLP055

CYQB;2010-02-27 00:00;CYQB 270000Z 07018G29KT 8SM -SHSN BKN012 BKN065 01/M01 A2965 RMK SC5SC2 SLP045

CYQB;2010-02-27 00:27;CYQB 270027Z 07019G27KT 8SM -SHSN BKN008 BKN071 01/ RMK SC6SC1

CYQB;2010-02-27 01:00;CYQB 270100Z 06019G26KT 6SM -SHSN OVC008 01/M01 A2963 RMK SC8 SLP037

CYQB;2010-02-27 02:00;CYQB 270200Z 07016G29KT 5SM -SHSN OVC008 01/M00 A2961 RMK SC8 SLP031

CYQB;2010-02-27 03:00;CYQB 270300Z 07020G30KT 10SM -SHSN FEW008 SCT020 OVC030 01/M01 A2959 RMK SF2SC2SC4 SLP025

CYQB;2010-02-27 04:00;CYQB 270400Z 07020G30KT 15SM FEW020 SCT100 02/M01 A2956 RMK SC2AC2 SLP015

CYQB;2010-02-27 05:00;CYQB 270500Z 07019G26KT 15SM FEW020 BKN066 02/M01 A2956 RMK SC2AC4 SLP012

CYQB;2010-02-27 06:00;CYQB 270600Z 07021G31KT 15SM FEW045 OVC071 02/M01 A2955 RMK SC2AC6 SLP009

CYQB;2010-02-27 07:00;CYQB 270700Z 07020G30KT 15SM FEW018 FEW040 OVC085 02/M01 A2953 RMK CF1SC2AC6 SLP004

CYQB;2010-02-27 08:00;CYQB 270800Z 07020G34KT 15SM FEW018 FEW040 OVC085 02/M01 A2953 RMK CF1SC2AC6 SLP004

CYQB;2010-02-27 08:30;CYQB 270830Z 07027G35KT 12SM -SHRA FEW015 FEW040 BKN055 OVC082 02/ RMK CF1SC2SC4AC2

CYQB;2010-02-27 09:00;CYQB 270900Z 07026G36KT 15SM -SHRA FEW015 FEW040 OVC080 02/M01 A2954 RMK CF1SC2AC6 SLP007

CYQB;2010-02-27 10:00;CYQB 271000Z 07024G36KT 15SM FEW040 FEW075 OVC100 02/M00 A2955 RMK SC2AC1AC6 SLP009

CYQB;2010-02-27 11:00;CYQB 271100Z 07026G34KT 15SM FEW016 FEW075 BKN120 02/M01 A2957 RMK SC1AC1AC6 SLP017

CYQB;2010-02-27 12:00;CYQB 271200Z 08027G34KT 25SM FEW015 FEW040 BKN120 02/M01 A2961 RMK SC1SC2AC2 SLP029

CYQB;2010-02-27 13:00;CYQB 271300Z 07020G31KT 25SM FEW015 FEW035 SCT120 BKN200 02/M01 A2963 RMK SC1SC2AC2CI0 SLP036

CYQB;2010-02-27 14:00;CYQB 271400Z 07019G28KT 25SM FEW017 SCT035 BKN120 02/M01 A2965 RMK SC1SC2AC1 SLP043

CYQB;2010-02-27 15:00;CYQB 271500Z 07020G36KT 25SM FEW017 FEW035 SCT120 03/M01 A2965 RMK SC1SC2AC1 SLP043

CYQB;2010-02-27 16:00;CYQB 271600Z 06016G30KT 25SM SCT019 SCT070 BKN200 03/M01 A2967 RMK SC3AC1CI0 SLP051

CYQB;2010-02-27 17:00;CYQB 271700Z 06016G25KT 25SM FEW017 BKN022 OVC070 02/M01 A2968 RMK SC1SC7AC1 SLP053

CYQB;2010-02-27 18:00;CYQB 271800Z 07015G24KT 25SM FEW017 BKN023 OVC070 03/M01 A2967 RMK SC1SC7AC1 SLP052

CYQB;2010-02-27 19:00;CYQB 271900Z 06016G22KT 25SM FEW017 OVC023 03/M01 A2967 RMK SC1SC8 SLP052

CYQB;2010-02-27 20:00;CYQB 272000Z 07016G22KT 25SM FEW017 BKN024 OVC060 02/M01 A2969 RMK SC1SC7SC1 SLP057

CYQB;2010-02-27 20:39;CYQB 272039Z 06019G27KT 25SM -SHSN FEW017 OVC024 02/ RMK SC1SC7

CYQB;2010-02-27 21:00;CYQB 272100Z 07016G22KT 25SM -SHSN FEW017 BKN024 OVC060 02/M01 A2969 RMK SC1SC7SC1 SLP057

CYQB;2010-02-27 22:00;CYQB 272200Z 06018KT 25SM -SHSN BKN024 OVC035 02/M01 A2971 RMK SC5SC3 SLP063

CYQB;2010-02-27 23:00;CYQB 272300Z 07012G24KT 15SM -SHSN BKN025 OVC042 02/M01 A2972 RMK SC5SC3 SLP069

CYQB;2010-02-28 00:00;CYQB 280000Z 06015KT 15SM -SHSN BKN020 OVC040 02/M01 A2973 RMK SC6SC2 SLP072

CYQB;2010-02-28 00:34;CYQB 280034Z 06013KT 10SM -SHSN BKN010 OVC042 01/ RMK SC5SC3

CYQB;2010-02-28 01:00;CYQB 280100Z 07013KT 10SM -SHSN OVC010 01/M00 A2974 RMK SC8 SLP074

CYQB;2010-02-28 01:38;CYQB 280138Z 07012G18KT 3SM -SHSN OVC008 01/ RMK SC8

CYQB;2010-02-28 02:00;CYQB 280200Z 07013KT 3SM -SHSN OVC009 01/M00 A2974 RMK SC8 SLP074

CYQB;2010-02-28 03:00;CYQB 280300Z 07013KT 3SM -SHSN BKN006 BKN018 OVC045 01/M00 A2973 RMK SF5SC2SC2 SLP071

CYQB;2010-02-28 03:35;CYQB 280335Z 06011KT 3SM -SHSN SCT006 OVC076 01/ RMK SF4AC4

CYQB;2010-02-28 04:00;CYQB 280400Z 07009G16KT 10SM -SHSN FEW006 OVC078 01/M00 A2973 RMK SF2AC6 SLP071

CYQB;2010-02-28 05:00;CYQB 280500Z 07013G18KT 10SM -SHSN FEW006 SCT030 OVC060 01/M01 A2973 RMK SF2SC2SC4 SLP070

CYQB;2010-02-28 06:00;CYQB 280600Z 08012G19KT 6SM -SHSN FEW006 BKN011 BKN028 OVC050 00/M01 A2973 RMK SF2SC3SC2SC1 SLP070

CYQB;2010-02-28 07:00;CYQB 280700Z 08011KT 5SM -SHSN BKN007 OVC025 00/M01 A2972 RMK ST6SC2 SLP068

CYQB;2010-02-28 08:00;CYQB 280800Z 07010KT 5SM -SHSN BKN007 OVC020 00/M01 A2972 RMK ST6SC2 CIG VRB 5-9 SLP066

CYQB;2010-02-28 09:00;CYQB 280900Z 07011G16KT 2SM -SHSN OVC006 M00/M01 A2972 RMK ST8 CIG VRB 4-8 SLP066

CYQB;2010-02-28 10:00;CYQB 281000Z 07009KT 1SM R06/P6000FT/U -SHSN VV005 M00/M01 A2970 RMK SN8 SLP061

CYQB;2010-02-28 11:00;CYQB 281100Z 07009KT 3SM -SHSN OVC006 M00/M01 A2970 RMK SN4SC4 SLP061

CYQB;2010-02-28 11:39;CYQB 281139Z 07010KT 4SM -SHSN BKN006 BKN026 OVC080 M00/ RMK SC5SC2AC1

CYQB;2010-02-28 12:00;CYQB 281200Z 07008KT 5SM BR SCT006 BKN026 OVC068 M00/M01 A2971 RMK SF4SC3AC1 SLP064

CYQB;2010-02-28 13:00;CYQB 281300Z 08011KT 5SM BR FEW006 BKN034 OVC060 00/M01 A2972 RMK SF2SC4AC2 SLP069

CYQB;2010-02-28 13:23;CYQB 281323Z 09011KT 2SM -SHSN BR FEW006 OVC034 00/ RMK SF2SC6 VIS HIR S

CYQB;2010-02-28 14:00;CYQB 281400Z 07012KT 1 1/4SM -SHSN BR SCT006 OVC032 00/M01 A2973 RMK SF4SC4 SLP071

CYQB;2010-02-28 15:00;CYQB 281500Z 07012KT 1 1/4SM -SHSN BR SCT008 BKN016 OVC032 01/M00 A2973 RMK SF3SC4SC1 SLP072

CYQB;2010-02-28 16:00;CYQB 281600Z 07011KT 1 1/4SM -SHSN BR BKN008 OVC023 01/M00 A2974 RMK SC6SC2 SLP075

CYQB;2010-02-28 17:00;CYQB 281700Z 07008KT 6SM -SHSN BKN010 OVC020 02/00 A2974 RMK SC6SC2 SLP073

CYQB;2010-02-28 17:41;CYQB 281741Z 07008KT 6SM BR BKN012 OVC040 02/ RMK SC5SC3

CYQB;2010-02-28 18:00;CYQB 281800Z 08008KT 15SM SCT013 BKN028 OVC041 02/M00 A2972 RMK SC4SC3SC1 SLP069

CYQB;2010-02-28 19:00;CYQB 281900Z 07010G15KT 15SM FEW010 BKN030 BKN055 02/M01 A2972 RMK SC1SC5SC2 SLP067

CYQB;2010-02-28 20:00;CYQB 282000Z 07008KT 15SM FEW010 BKN037 02/M00 A2971 RMK SC1SC6 SLP065

CYQB;2010-02-28 21:00;CYQB 282100Z 08009KT 15SM FEW010 SCT040 SCT062 01/M01 A2971 RMK SC1SC3SC1 SLP064

CYQB;2010-02-28 22:00;CYQB 282200Z 09008KT 15SM FEW005 SCT038 BKN065 01/M01 A2972 RMK SC1SC2SC3 SLP066

CYQB;2010-02-28 22:30;CYQB 282230Z 09006KT 10SM BKN006 BKN060 00/ RMK SF5SC2

CYQB;2010-02-28 23:00;CYQB 282300Z 07012KT 10SM BKN006 BKN060 01/M01 A2973 RMK SF6SC1 SLP072

CYQB;2010-03-01 01:00;CYQB 010100Z 07006KT 10SM BKN007 OVC031 00/M01 A2973 RMK SF7SC1 SLP072

CYQB;2010-03-01 02:00;CYQB 010200Z 07005KT 10SM FEW007 OVC037 00/M01 A2973 RMK SF2SC6 SLP071

CYQB;2010-03-01 03:00;CYQB 010300Z 08005KT 10SM FEW007 BKN034 OVC053 00/M01 A2972 RMK SF1SC5SC2 SLP066

CYQB;2010-03-01 04:00;CYQB 010400Z 10004KT 10SM SCT006 OVC034 00/M01 A2971 RMK SF4SC4 SLP065

CYQB;2010-03-01 05:00;CYQB 010500Z 07007KT 10SM SCT005 OVC032 00/M01 A2971 RMK SF4SC4 SLP065

CYQB;2010-03-01 06:00;CYQB 010600Z 10002KT 10SM FEW008 OVC032 M00/M02 A2971 RMK SF2SC6 SLP064

CYQB;2010-03-01 07:00;CYQB 010700Z 09004KT 15SM -SHSN FEW008 OVC034 00/M02 A2971 RMK SF2SC6 SLP063

CYQB;2010-03-01 08:00;CYQB 010800Z 05003KT 15SM -SN FEW008 OVC036 00/M02 A2970 RMK SF2SC6 SLP060

CYQB;2010-03-01 08:29;CYQB 010829Z 03002KT 15SM FEW008 BKN037 00/ RMK SF1SC6

CYQB;2010-03-01 09:00;CYQB 010900Z 05003KT 15SM FEW008 BKN036 00/M02 A2971 RMK SF2SC6 SLP064

CYQB;2010-03-01 10:00;CYQB 011000Z 00000KT 15SM FEW008 BKN035 00/M02 A2971 RMK SF2SC6 SLP065

CYQB;2010-03-01 11:00;CYQB 011100Z 08005KT 15SM FEW008 FEW035 BKN083 00/M02 A2972 RMK SF1SC2AC6 SLP068

CYQB;2010-03-01 12:00;CYQB 011200Z 35002KT 25SM FEW010 BKN035 BKN080 00/M02 A2974 RMK SF1SC7AC1 SLP075

CYQB;2010-03-01 13:00;CYQB 011300Z 24004KT 30SM BKN035 00/M01 A2975 RMK SC7 SLP078

CYQB;2010-03-01 14:00;CYQB 011400Z 23003KT 30SM BKN035 01/M02 A2976 RMK SC7 SLP080

CYQB;2010-03-01 15:00;CYQB 011500Z 27007KT 30SM BKN036 01/M01 A2977 RMK SC7 SLP083

CYQB;2010-03-01 16:00;CYQB 011600Z 23005KT 30SM FEW010 BKN040 02/M01 A2977 RMK CF1SC7 SLP083

CYQB;2010-03-01 17:00;CYQB 011700Z 15003KT 30SM FEW010 BKN048 BKN160 BKN250 04/M01 A2977 RMK SC1SC5AC2CI1 SLP083

CYQB;2010-03-01 18:00;CYQB 011800Z 12003KT 30SM FEW010 SCT050 BKN170 BKN250 04/M03 A2977 RMK SC1SC3AC2CI0 SLP085

CYQB;2010-03-01 19:00;CYQB 011900Z 09004KT 30SM FEW010 FEW050 SCT150 BKN250 04/M02 A2977 RMK SC1SC2AC2CI1 SLP084

CYQB;2010-03-01 20:00;CYQB 012000Z 11007KT 30SM FEW060 SCT160 BKN240 04/M02 A2978 RMK SC2AC2CI0 SLP088

CYQB;2010-03-01 21:00;CYQB 012100Z 09006KT 30SM BKN058 BKN160 BKN240 04/M02 A2979 RMK SC4AC1CI0 SLP092

CYQB;2010-03-01 22:00;CYQB 012200Z 12005KT 30SM BKN056 BKN160 BKN240 02/M02 A2981 RMK SC6AC1CI1 SLP099

CYQB;2010-03-01 23:00;CYQB 012300Z 08004KT 30SM BKN053 BKN150 02/M03 A2984 RMK SC7AC1 SLP107

CYQB;2010-03-02 00:00;CYQB 020000Z 07003KT 15SM BKN063 02/M03 A2985 RMK SC7 SLP113

CYQB;2010-03-02 01:00;CYQB 020100Z 09003KT 15SM BKN066 02/M04 A2986 RMK AC5 SLP116

CYQB;2010-03-02 02:00;CYQB 020200Z 00000KT 15SM BKN066 02/M04 A2987 RMK AC5 SLP118

CYQB;2010-03-02 03:00;CYQB 020300Z 27002KT 15SM OVC064 00/M03 A2988 RMK SC8 SLP122

CYQB;2010-03-02 04:00;CYQB 020400Z 28003KT 15SM OVC063 00/M02 A2989 RMK SC8 SLP127

CYQB;2010-03-02 05:00;CYQB 020500Z 00000KT 15SM OVC063 01/M03 A2992 RMK SC8 SLP134

CYQB;2010-03-02 06:00;CYQB 020600Z 03002KT 15SM OVC065 01/M03 A2993 RMK SC8 SLP139

CYQB;2010-03-02 07:00;CYQB 020700Z 07006KT 15SM BKN068 01/M04 A2993 RMK AC7 SLP140

CYQB;2010-03-02 08:00;CYQB 020800Z 07005KT 15SM OVC070 01/M05 A2993 RMK AC8 SLP140

CYQB;2010-03-02 09:00;CYQB 020900Z 09007KT 15SM BKN071 00/M05 A2993 RMK AC7 SLP140

CYQB;2010-03-02 10:00;CYQB 021000Z 08007KT 15SM BKN070 M00/M05 A2994 RMK AC7 SLP143

CYQB;2010-03-02 11:00;CYQB 021100Z 11006KT 15SM SCT070 BKN200 M01/M05 A2995 RMK AC3CI1 SLP146

CYQB;2010-03-02 12:00;CYQB 021200Z 04003KT 25SM FEW070 FEW200 M01/M05 A2997 RMK AC2CI1 SLP153

CYQB;2010-03-02 13:00;CYQB 021300Z 08007KT 30SM FEW070 FEW200 M00/M06 A2998 RMK AC1CI1 SLP157

CYQB;2010-03-02 14:00;CYQB 021400Z 09006KT 30SM FEW025 FEW070 FEW200 00/M05 A3000 RMK SC1AC1CI1 SLP161

CYQB;2010-03-02 15:00;CYQB 021500Z 09010KT 30SM FEW025 FEW200 01/M05 A3000 RMK SC1CI1 SLP163

CYQB;2010-03-02 16:00;CYQB 021600Z 07009KT 30SM FEW025 FEW200 FEW220 01/M04 A3000 RMK SC1CI1CI1 SLP161

CYQB;2010-03-02 17:00;CYQB 021700Z 10008KT 30SM FEW025 SCT200 01/M05 A2999 RMK SC1CI2 SLP160

CYQB;2010-03-02 18:00;CYQB 021800Z 09005KT 30SM FEW025 SCT200 01/M04 A2997 RMK SC1CI1 SLP154

CYQB;2010-03-02 19:00;CYQB 021900Z 10008KT 30SM FEW025 FEW200 01/M04 A2996 RMK SC1CI1 SLP148

CYQB;2010-03-02 20:00;CYQB 022000Z 11007KT 30SM FEW025 FEW200 01/M04 A2996 RMK SC1CI1 SLP150

CYQB;2010-03-02 21:00;CYQB 022100Z 09008KT 30SM FEW025 FEW200 01/M04 A2997 RMK SC1CI1 SLP151

CYQB;2010-03-02 22:00;CYQB 022200Z 08007KT 30SM FEW025 FEW200 00/M04 A2997 RMK SC1CI1 SLP152

CYQB;2010-03-02 23:00;CYQB 022300Z 08006KT 30SM FEW025 FEW200 M01/M05 A2997 RMK SC1CI1 SLP154

CYQB;2010-03-03 00:00;CYQB 030000Z 06004KT 15SM SCT200 M01/M05 A2998 RMK CI1 SLP157

CYQB;2010-03-03 01:00;CYQB 030100Z 06005KT 15SM FEW200 M01/M06 A2998 RMK CI1 SLP155

CYQB;2010-03-03 02:00;CYQB 030200Z 04006KT 15SM FEW200 M02/M06 A2998 RMK CI1 SLP155

CYQB;2010-03-03 03:00;CYQB 030300Z 06003KT 15SM SKC M02/M06 A2997 RMK SLP152

CYQB;2010-03-03 04:00;CYQB 030400Z 04003KT 15SM SKC M02/M06 A2996 RMK SLP150

CYQB;2010-03-03 05:00;CYQB 030500Z 04005KT 15SM SCT034 M02/M06 A2995 RMK SC3 SLP146

CYQB;2010-03-03 06:00;CYQB 030600Z 07005KT 15SM FEW034 M02/M06 A2994 RMK SC2 SLP141

CYQB;2010-03-03 07:00;CYQB 030700Z 06002KT 15SM FEW030 M03/M06 A2992 RMK SC1 SLP137

CYQB;2010-03-03 08:00;CYQB 030800Z 36003KT 15SM FEW030 M04/M07 A2993 RMK SC1 SLP138

CYQB;2010-03-03 09:00;CYQB 030900Z 03005KT 15SM BKN008 M04/M07 A2993 RMK ST3 SLP139

CYQB;2010-03-03 10:00;CYQB 031000Z 02004KT 15SM BKN008 M05/M07 A2994 RMK ST2 FROIN SLP143

CYQB;2010-03-03 11:00;CYQB 031100Z 01006KT 30SM BKN008 BKN030 M05/M08 A2992 RMK ST6SC1 SLP136

CYQB;2010-03-03 11:35;CYQB 031135Z 02003KT 30SM SCT010 SCT180 M06/ RMK ST3CI1

CYQB;2010-03-03 12:00;CYQB 031200Z 36002KT 30SM SCT009 SCT180 M06/M08 A2993 RMK ST3CI1 SLP139

CYQB;2010-03-03 12:13;CYQB 031213Z 02003KT 30SM BKN009 BKN180 M05/ RMK ST6AC1

CYQB;2010-03-03 13:00;CYQB 031300Z 01005KT 30SM BKN008 BKN160 M04/M08 A2993 RMK ST6AS1 SLP139

CYQB;2010-03-03 13:19;CYQB 031319Z 03003KT 30SM FEW008 SCT160 BKN200 M03/ RMK ST2AS2CI1

CYQB;2010-03-03 14:00;CYQB 031400Z 08006KT 30SM FEW008 FEW080 SCT160 BKN200 M02/M05 A2992 RMK ST1AC1AS3CI1 SLP136

CYQB;2010-03-03 15:00;CYQB 031500Z 06009KT 30SM FEW008 SCT160 BKN200 M02/M05 A2990 RMK ST1AS3CI1 SLP129

CYQB;2010-03-03 16:00;CYQB 031600Z 09010KT 30SM FEW013 FEW080 FEW160 OVC200 M01/M04 A2989 RMK SC1AC1AS2CI1 SLP125

CYQB;2010-03-03 17:00;CYQB 031700Z 07009KT 30SM FEW030 FEW140 OVC200 M00/M05 A2987 RMK SC1AC1CI3 SLP119

CYQB;2010-03-03 18:00;CYQB 031800Z 07009G15KT 30SM FEW030 BKN220 00/M06 A2984 RMK SC1CI2 SLP110

CYQB;2010-03-03 19:00;CYQB 031900Z 10012G17KT 30SM FEW030 BKN220 00/M05 A2983 RMK SC1CI5 SLP105

CYQB;2010-03-03 20:00;CYQB 032000Z 08011G16KT 30SM FEW040 FEW120 BKN200 00/M05 A2984 RMK SC1AC1CI6 SLP108

CYQB;2010-03-03 21:00;CYQB 032100Z 08011G17KT 30SM FEW040 FEW120 BKN200 00/M05 A2982 RMK SC1AC1CI5 SLP103

CYQB;2010-03-03 22:00;CYQB 032200Z 06007KT 30SM FEW040 FEW120 BKN200 M00/M05 A2983 RMK SC1AC1CS4 SLP106

CYQB;2010-03-03 23:00;CYQB 032300Z 06008KT 30SM FEW040 FEW120 BKN230 M01/M05 A2983 RMK SC1AC1CI4 SLP107

CYQB;2010-03-04 00:00;CYQB 040000Z 07012KT 15SM BKN220 M01/M06 A2983 RMK CI4 SLP107

CYQB;2010-03-04 01:00;CYQB 040100Z 08007KT 15SM BKN220 M01/M06 A2983 RMK CI4 SLP106

CYQB;2010-03-04 02:00;CYQB 040200Z 03003KT 15SM BKN200 M01/M06 A2983 RMK CI3 SLP107

CYQB;2010-03-04 03:00;CYQB 040300Z 06004KT 15SM BKN180 M02/M05 A2982 RMK AC3 SLP103

CYQB;2010-03-04 04:00;CYQB 040400Z 03002KT 15SM BKN180 M02/M06 A2982 RMK AS1 SLP101

CYQB;2010-03-04 05:00;CYQB 040500Z 36003KT 15SM FEW210 M03/M06 A2981 RMK CI0 SLP098

CYQB;2010-03-04 06:00;CYQB 040600Z 36003KT 15SM FEW008 BKN240 M04/M06 A2980 RMK SF1CI1 SLP095

CYQB;2010-03-04 07:00;CYQB 040700Z 03005KT 15SM FEW008 BKN240 M03/M05 A2980 RMK SF1CI1 SLP094

CYQB;2010-03-04 08:00;CYQB 040800Z 04006KT 15SM FEW008 SCT240 M03/M05 A2980 RMK SF1CI1 SLP095

CYQB;2010-03-04 09:00;CYQB 040900Z 02004KT 15SM SCT180 M03/M05 A2981 RMK AS1 SLP100

CYQB;2010-03-04 10:00;CYQB 041000Z 01004KT 15SM BKN180 M03/M05 A2983 RMK AS1 SLP104

CYQB;2010-03-04 11:00;CYQB 041100Z 03007KT 15SM BKN180 M02/M07 A2983 RMK AS1 SLP107

CYQB;2010-03-04 12:00;CYQB 041200Z 06008KT 30SM FEW025 SCT150 BKN180 M02/M09 A2986 RMK SC1AC2AC2 SLP116

CYQB;2010-03-04 13:00;CYQB 041300Z 07011KT 30SM FEW150 BKN220 M02/M08 A2988 RMK AC2CI4 SLP121

CYQB;2010-03-04 14:00;CYQB 041400Z 07014KT 30SM FEW025 BKN220 M00/M07 A2989 RMK SC1CI6 SLP126

CYQB;2010-03-04 15:00;CYQB 041500Z 07012G17KT 30SM FEW030 BKN210 00/M07 A2990 RMK SC2CI3 SLP130

CYQB;2010-03-04 16:00;CYQB 041600Z 09013KT 30SM FEW030 BKN210 00/M07 A2990 RMK SC2CI2 SLP130

CYQB;2010-03-04 17:00;CYQB 041700Z 08010G15KT 30SM FEW030 SCT210 00/M06 A2990 RMK SC1CI1 SLP128

CYQB;2010-03-04 18:00;CYQB 041800Z 08012G18KT 30SM SCT210 00/M05 A2989 RMK CI2 SLP127

CYQB;2010-03-04 19:00;CYQB 041900Z 09012G17KT 30SM SCT210 00/M05 A2991 RMK CI2 SLP131

CYQB;2010-03-04 20:00;CYQB 042000Z 08012G17KT 30SM SCT210 00/M04 A2991 RMK CI1 SLP133

CYQB;2010-03-04 21:00;CYQB 042100Z 08014KT 30SM BKN210 00/M05 A2993 RMK CI1 SLP138

CYQB;2010-03-04 22:00;CYQB 042200Z 06012KT 30SM FEW160 BKN210 M00/M05 A2995 RMK AC1CI1 SLP147

CYQB;2010-03-04 23:00;CYQB 042300Z CCA 07008KT 30SM SCT210 M01/M05 A2998 RMK CI0 SLP156

CYQB;2010-03-05 00:00;CYQB 050000Z 07009KT 30SM FEW210 M02/M05 A3000 RMK CI0 SLP164

CYQB;2010-03-05 01:00;CYQB 050100Z 07011G16KT 30SM FEW210 M02/M06 A3002 RMK CI0 SLP169

CYQB;2010-03-05 02:00;CYQB 050200Z 07013KT 30SM BKN210 M02/M06 A3003 RMK CI2 SLP172

CYQB;2010-03-05 03:00;CYQB 050300Z 07007KT 30SM FEW210 M03/M06 A3003 RMK CI1 SLP175

CYQB;2010-03-05 04:00;CYQB 050400Z 07005KT 30SM SKC M03/M06 A3004 RMK SLP178

CYQB;2010-03-05 05:00;CYQB 050500Z 02002KT 30SM FEW210 M04/M06 A3006 RMK CI1 SLP183

CYQB;2010-03-05 06:00;CYQB 050600Z 36003KT 30SM FEW210 M04/M08 A3007 RMK CI1 SLP187

CYQB;2010-03-05 07:00;CYQB 050700Z 03005KT 25SM FEW210 M05/M11 A3008 RMK CI1 SLP189

CYQB;2010-03-05 08:00;CYQB 050800Z 35004KT 25SM FEW210 M05/M10 A3009 RMK CI1 SLP193

CYQB;2010-03-05 09:00;CYQB 050900Z 01005KT 25SM FEW210 M06/M12 A3010 RMK CI1 SLP196

CYQB;2010-03-05 10:00;CYQB 051000Z 01005KT 25SM FEW210 M06/M14 A3012 RMK CI1 SLP204

CYQB;2010-03-05 11:00;CYQB 051100Z 33003KT 15SM FEW210 M07/M15 A3014 RMK CI1 SLP209

CYQB;2010-03-05 12:00;CYQB 051200Z 36003KT 30SM FEW210 M07/M15 A3016 RMK CI1 SLP217

CYQB;2010-03-05 13:00;CYQB 051300Z 01007KT 30SM FEW210 M06/M14 A3017 RMK CI2 SLP223

CYQB;2010-03-05 14:00;CYQB 051400Z 08007KT 30SM FEW210 M04/M13 A3019 RMK CI1 SLP227

CYQB;2010-03-05 15:00;CYQB 051500Z 08007KT 30SM FEW210 M03/M13 A3020 RMK CI1 SLP230

CYQB;2010-03-05 16:00;CYQB 051600Z 06004KT 30SM FEW210 M02/M11 A3020 RMK CI0 SLP230

CYQB;2010-03-05 17:00;CYQB 051700Z 10004KT 30SM FEW210 M02/M11 A3019 RMK CI1 SLP227

CYQB;2010-03-05 18:00;CYQB 051800Z 12004KT 30SM FEW210 M01/M10 A3017 RMK CI1 SLP222

CYQB;2010-03-05 19:00;CYQB 051900Z 12006KT 30SM FEW210 M01/M09 A3017 RMK CI1 SLP219

CYQB;2010-03-05 20:00;CYQB 052000Z 13006KT 30SM FEW210 M00/M08 A3016 RMK CI1 SLP218

CYQB;2010-03-05 21:00;CYQB 052100Z 11005KT 30SM FEW210 M01/M08 A3016 RMK CI1 SLP218

CYQB;2010-03-05 22:00;CYQB 052200Z 08004KT 30SM FEW210 M01/M08 A3017 RMK CI1 SLP221

CYQB;2010-03-05 23:00;CYQB 052300Z 04004KT 20SM FEW210 M02/M09 A3018 RMK CI1 SLP224

CYQB;2010-03-06 00:00;CYQB 060000Z 35003KT 15SM FEW210 M02/M09 A3018 RMK CI1 SLP225

CYQB;2010-03-06 01:00;CYQB 060100Z 34003KT 15SM FEW190 M03/M09 A3017 RMK CI1 SLP222

CYQB;2010-03-06 02:00;CYQB 060200Z 23003KT 15SM FEW180 M05/M09 A3017 RMK AS1 SLP220

CYQB;2010-03-06 03:00;CYQB 060300Z 22004KT 15SM FEW180 M05/M09 A3015 RMK AS1 SLP214

CYQB;2010-03-06 04:00;CYQB 060400Z 23004KT 15SM SKC M05/M09 A3015 RMK SLP213

CYQB;2010-03-06 05:00;CYQB 060500Z 23005KT 15SM SKC M06/M10 A3014 RMK SLP211

CYQB;2010-03-06 06:00;CYQB 060600Z 26004KT 15SM SKC M05/M11 A3014 RMK SLP209

CYQB;2010-03-06 07:00;CYQB 060700Z 23006KT 30SM FEW160 SCT240 M06/M11 A3013 RMK AC1CI1 SLP207

CYQB;2010-03-06 08:00;CYQB 060800Z 19003KT 30SM FEW160 FEW240 M05/M11 A3012 RMK AC1CI1 SLP203

CYQB;2010-03-06 09:00;CYQB 060900Z 29006KT 30SM FEW120 FEW240 M06/M10 A3010 RMK AC1CI1 SLP198

CYQB;2010-03-06 10:00;CYQB 061000Z 24008KT 30SM FEW110 M05/M10 A3010 RMK AC2 SLP197

CYQB;2010-03-06 11:00;CYQB 061100Z 25008KT 30SM FEW100 M06/M09 A3010 RMK AC1 SLP196

CYQB;2010-03-06 12:00;CYQB 061200Z 24010KT 30SM FEW100 M04/M10 A3011 RMK AC2 SLP199

CYQB;2010-03-06 13:00;CYQB 061300Z 23009KT 30SM FEW100 M03/M09 A3009 RMK AC1 SLP195

CYQB;2010-03-06 14:00;CYQB 061400Z 23011KT 30SM FEW100 M02/M08 A3008 RMK AC1 SLP191

CYQB;2010-03-06 15:00;CYQB 061500Z 23011KT 30SM FEW100 00/M07 A3006 RMK AC1 SLP185

CYQB;2010-03-06 16:00;CYQB 061600Z 23011G16KT 30SM SKC 02/M08 A3004 RMK SLP177

CYQB;2010-03-06 17:00;CYQB 061700Z 23018KT 30SM SKC 03/M08 A3000 RMK SLP165

CYQB;2010-03-06 18:00;CYQB 061800Z 23018G25KT 30SM SKC 04/M07 A2996 RMK SLP150

CYQB;2010-03-06 19:00;CYQB 061900Z 24022KT 30SM SKC 05/M08 A2993 RMK SLP140

CYQB;2010-03-06 20:00;CYQB 062000Z 23016KT 30SM SKC 05/M07 A2993 RMK SLP138

CYQB;2010-03-06 21:00;CYQB 062100Z 23014G20KT 30SM SKC 05/M07 A2993 RMK SLP138

CYQB;2010-03-06 22:00;CYQB 062200Z 25011G17KT 30SM SKC 04/M07 A2994 RMK SLP142

CYQB;2010-03-06 23:00;CYQB 062300Z 26012KT 15SM SKC 02/M06 A2994 RMK SLP141

CYQB;2010-03-07 00:00;CYQB 070000Z 24010KT 15SM SKC 02/M07 A2993 RMK SLP139

CYQB;2010-03-07 01:00;CYQB 070100Z 25012KT 15SM SKC 01/M07 A2992 RMK SLP137

CYQB;2010-03-07 02:00;CYQB 070200Z 25010KT 15SM SKC M00/M06 A2992 RMK SLP135

CYQB;2010-03-07 03:00;CYQB 070300Z 25011KT 15SM FEW200 M00/M06 A2991 RMK CI0 SLP132

CYQB;2010-03-07 04:00;CYQB 070400Z 16013KT 15SM FEW200 M01/M05 A2990 RMK CI0 SLP130

CYQB;2010-03-07 05:00;CYQB 070500Z 23007KT 15SM FEW200 M01/M06 A2990 RMK CI0 SLP130

CYQB;2010-03-07 06:00;CYQB 070600Z 00000KT 15SM FEW200 M02/M06 A2990 RMK CI1 SLP129

CYQB;2010-03-07 07:00;CYQB 070700Z 26003KT 15SM FEW200 M03/M06 A2990 RMK CI1 SLP128

CYQB;2010-03-07 08:00;CYQB 070800Z 00000KT 15SM SKC M03/M06 A2988 RMK SLP123

CYQB;2010-03-07 09:00;CYQB 070900Z 17004KT 15SM SKC M03/M06 A2988 RMK SLP121

CYQB;2010-03-07 10:00;CYQB 071000Z 22002KT 15SM SKC M04/M07 A2988 RMK SLP122

CYQB;2010-03-07 11:00;CYQB 071100Z 25012KT 15SM FEW230 M03/M07 A2989 RMK CI0 SLP125

CYQB;2010-03-07 12:00;CYQB 071200Z 23012KT 25SM FEW200 M03/M06 A2989 RMK CI1 SLP124

CYQB;2010-03-07 13:00;CYQB 071300Z 25012KT 25SM FEW200 M03/M06 A2988 RMK CI1 SLP122

CYQB;2010-03-07 14:00;CYQB 071400Z CCA 24015KT 25SM FEW090 FEW200 M01/M06 A2987 RMK AC1CI0 SLP118

CYQB;2010-03-07 15:00;CYQB 071500Z 23010KT 25SM FEW090 FEW200 01/M05 A2985 RMK AC2CI0 SLP113

CYQB;2010-03-07 16:00;CYQB 071600Z 22009KT 30SM SCT051 01/M05 A2983 RMK SC4 SLP105

CYQB;2010-03-07 17:00;CYQB 071700Z 23013G18KT 30SM BKN055 03/M05 A2980 RMK SC6 SLP095

CYQB;2010-03-07 18:00;CYQB 071800Z 24016KT 30SM SCT060 05/M04 A2977 RMK SC4 SLP083

CYQB;2010-03-07 19:00;CYQB 071900Z 24011KT 30SM SCT060 05/M03 A2975 RMK SC3 SLP076

CYQB;2010-03-07 20:00;CYQB 072000Z 25012KT 30SM BKN056 05/M03 A2973 RMK SC6 SLP071

CYQB;2010-03-07 21:00;CYQB 072100Z 25012KT 30SM BKN059 04/M02 A2972 RMK SC5 SLP067

CYQB;2010-03-07 22:00;CYQB 072200Z 25011KT 30SM FEW060 SCT200 04/M02 A2972 RMK SC2CI1 SLP066

CYQB;2010-03-07 23:00;CYQB 072300Z 26013KT 30SM FEW060 FEW200 03/M02 A2971 RMK SC1CI1 SLP064

CYQB;2010-03-08 00:00;CYQB 080000Z 27010KT 15SM FEW060 FEW200 02/M01 A2971 RMK SC1CI1 SLP063

CYQB;2010-03-08 01:00;CYQB 080100Z 27011KT 15SM FEW050 SCT200 02/M01 A2972 RMK SC2CI0 SLP066

CYQB;2010-03-08 02:00;CYQB 080200Z 25014KT 15SM FEW060 SCT240 02/M02 A2971 RMK SC2CI1 SLP065

CYQB;2010-03-08 03:00;CYQB 080300Z 24012KT 15SM FEW060 FEW100 SCT250 02/M02 A2971 RMK SC1AC2CI0 SLP065

CYQB;2010-03-08 04:00;CYQB 080400Z 24011KT 15SM SCT220 02/M02 A2971 RMK CI2 SLP063

CYQB;2010-03-08 05:00;CYQB 080500Z 24011KT 15SM SCT200 02/M02 A2970 RMK CI2 SLP061

CYQB;2010-03-08 06:00;CYQB 080600Z 26009KT 15SM FEW100 SCT200 00/M02 A2970 RMK AC1CI2 SLP060

CYQB;2010-03-08 07:00;CYQB 080700Z 26009KT 15SM BKN220 M00/M02 A2968 RMK CI6 SLP053

CYQB;2010-03-08 08:00;CYQB 080800Z 24012KT 15SM BKN170 01/M02 A2967 RMK AC6 SLP049

CYQB;2010-03-08 09:00;CYQB 080900Z 24012G17KT 15SM FEW150 BKN200 01/M02 A2966 RMK AC1CI2 SLP048

CYQB;2010-03-08 10:00;CYQB 081000Z 23013KT 15SM BKN160 01/M02 A2967 RMK AC2 SLP051

CYQB;2010-03-08 11:00;CYQB 081100Z 24012KT 15SM FEW060 BKN160 01/M03 A2967 RMK SC2AC2 SLP052

CYQB;2010-03-08 12:00;CYQB 081200Z 24011KT 30SM FEW060 BKN160 02/M03 A2968 RMK SC2AC2 SLP054

CYQB;2010-03-08 13:00;CYQB 081300Z 28007KT 30SM FEW060 SCT140 02/M03 A2970 RMK SC1AC2 SLP059

CYQB;2010-03-08 14:00;CYQB 081400Z 29014G19KT 30SM FEW035 FEW150 03/M05 A2969 RMK CU2AC1 SLP057

CYQB;2010-03-08 15:00;CYQB 081500Z 30013G20KT 30SM FEW050 FEW150 03/M08 A2969 RMK CU2AC1 SLP056

CYQB;2010-03-08 16:00;CYQB 081600Z 31016G21KT 30SM FEW050 03/M08 A2966 RMK CU1 SLP048

CYQB;2010-03-08 17:00;CYQB 081700Z CCA 30012G18KT 30SM FEW050 04/M08 A2964 RMK CU1 SLP041

CYQB;2010-03-08 18:00;CYQB 081800Z 28016G22KT 30SM FEW050 04/M07 A2962 RMK CU1 SLP034

CYQB;2010-03-08 19:00;CYQB 081900Z 28014G22KT 30SM FEW060 05/M08 A2961 RMK CU1 SLP031

CYQB;2010-03-08 20:00;CYQB 082000Z 28017G27KT 30SM FEW060 05/M08 A2961 RMK CU2 SLP031

CYQB;2010-03-08 21:00;CYQB 082100Z 27020G26KT 30SM FEW060 05/M07 A2961 RMK CU2 SLP031

CYQB;2010-03-08 22:00;CYQB 082200Z 32016G28KT 30SM FEW060 05/M09 A2962 RMK SC1 SLP034

CYQB;2010-03-08 23:00;CYQB 082300Z 30018G24KT 30SM FEW060 04/M09 A2965 RMK SC1 SLP044

CYQB;2010-03-09 00:00;CYQB 090000Z 31013G21KT 15SM FEW060 03/M09 A2967 RMK SC1 SLP052

CYQB;2010-03-09 01:00;CYQB 090100Z 30009G16KT 15SM FEW060 02/M09 A2968 RMK SC1 SLP055

CYQB;2010-03-09 02:00;CYQB 090200Z 00000KT 15SM FEW060 02/M08 A2972 RMK SC2 SLP066

CYQB;2010-03-09 03:00;CYQB 090300Z 18004KT 15SM BKN066 00/M06 A2974 RMK SC5 SLP074

CYQB;2010-03-09 04:00;CYQB 090400Z 34008G18KT 15SM BKN043 00/M08 A2975 RMK SC6 SLP078

CYQB;2010-03-09 05:00;CYQB 090500Z 34007KT 15SM BKN044 M00/M08 A2977 RMK SC6 SLP083

CYQB;2010-03-09 06:00;CYQB 090600Z 35008KT 15SM BKN048 M01/M10 A2979 RMK SC7 SLP090

CYQB;2010-03-09 07:00;CYQB 090700Z 35010KT 15SM BKN042 M01/M10 A2980 RMK SC7 SLP093

CYQB;2010-03-09 08:00;CYQB 090800Z 35009KT 15SM BKN044 M02/M11 A2980 RMK SC7 SLP095

CYQB;2010-03-09 09:00;CYQB 090900Z 33013G19KT 15SM OVC041 M02/M11 A2981 RMK SC8 SLP098

CYQB;2010-03-09 10:00;CYQB 091000Z 34008KT 15SM OVC037 M03/M10 A2984 RMK SC8 SLP108

CYQB;2010-03-09 11:00;CYQB 091100Z 34009G18KT 30SM BKN037 BKN140 M03/M11 A2986 RMK SC6AC1 SLP116

CYQB;2010-03-09 12:00;CYQB 091200Z 34012KT 30SM BKN037 BKN140 M04/M11 A2989 RMK SC5AC1 SLP127

CYQB;2010-03-09 13:00;CYQB 091300Z 33014G19KT 30SM FEW037 FEW140 M03/M11 A2992 RMK SC2AC1 SLP136

CYQB;2010-03-09 14:00;CYQB 091400Z 34012G17KT 30SM FEW035 FEW140 M03/M11 A2993 RMK SC2AC1 SLP139

CYQB;2010-03-09 15:00;CYQB 091500Z 32011G17KT 30SM FEW040 M02/M11 A2993 RMK SC1 SLP138

CYQB;2010-03-09 16:00;CYQB 091600Z 31011KT 30SM FEW040 M01/M10 A2993 RMK SC1 SLP140

CYQB;2010-03-09 17:00;CYQB 091700Z 29005KT 30SM FEW040 M01/M10 A2993 RMK SC1 SLP139

CYQB;2010-03-09 18:00;CYQB 091800Z 30007KT 30SM FEW040 00/M09 A2992 RMK SC1 SLP137

CYQB;2010-03-09 19:00;CYQB 091900Z 27008KT 30SM FEW040 02/M07 A2992 RMK SC1 SLP136

CYQB;2010-03-09 20:00;CYQB 092000Z 25008KT 30SM FEW040 FEW200 02/M08 A2992 RMK SC1CI1 SLP136

CYQB;2010-03-09 21:00;CYQB 092100Z 27008KT 30SM FEW040 02/M08 A2993 RMK SC1 SLP139

CYQB;2010-03-09 22:00;CYQB 092200Z 27008KT 30SM FEW040 01/M07 A2994 RMK SC1 SLP144

CYQB;2010-03-09 23:00;CYQB 092300Z 26008KT 30SM SKC M00/M08 A2996 RMK SLP150

CYQB;2010-03-10 00:00;CYQB 100000Z 24009KT 15SM FEW200 M01/M09 A2998 RMK CI2 SLP156

CYQB;2010-03-10 01:00;CYQB 100100Z 28010KT 15SM SKC M02/M08 A2998 RMK SLP158

CYQB;2010-03-10 02:00;CYQB 100200Z 31010KT 15SM SKC M02/M09 A2999 RMK SLP160

CYQB;2010-03-10 03:00;CYQB 100300Z 26006KT 15SM SKC M03/M09 A2999 RMK SLP160

CYQB;2010-03-10 04:00;CYQB 100400Z 26002KT 15SM SKC M03/M10 A2999 RMK SLP159

CYQB;2010-03-10 05:00;CYQB 100500Z 36006KT 15SM SKC M03/M10 A2999 RMK SLP159

CYQB;2010-03-10 06:00;CYQB 100600Z 32004KT 15SM SKC M04/M10 A3000 RMK SLP164

CYQB;2010-03-10 07:00;CYQB 100700Z 26003KT 15SM SKC M06/M10 A3001 RMK SLP167

CYQB;2010-03-10 08:00;CYQB 100800Z 00000KT 15SM SKC M05/M11 A3002 RMK SLP169

CYQB;2010-03-10 09:00;CYQB 100900Z 29004KT 15SM SKC M06/M11 A3002 RMK SLP170

CYQB;2010-03-10 10:00;CYQB 101000Z 35007KT 15SM SKC M06/M11 A3002 RMK SLP170

CYQB;2010-03-10 11:00;CYQB 101100Z 36004KT 30SM FEW020 M06/M12 A3003 RMK SC1 SLP172

CYQB;2010-03-10 12:00;CYQB 101200Z 00000KT 30SM SKC M07/M11 A3004 RMK SLP178

CYQB;2010-03-10 13:00;CYQB 101300Z 27002KT 30SM SKC M04/M10 A3006 RMK SLP182

CYQB;2010-03-10 14:00;CYQB 101400Z 24008KT 30SM SKC M03/M09 A3005 RMK SLP181

CYQB;2010-03-10 15:00;CYQB 101500Z 22011KT 30SM SKC M02/M09 A3005 RMK SLP181

CYQB;2010-03-10 16:00;CYQB 101600Z 23011G16KT 30SM SKC M01/M08 A3004 RMK SLP178

CYQB;2010-03-10 17:00;CYQB 101700Z 23014KT 30SM SKC 00/M07 A3003 RMK SLP174

CYQB;2010-03-10 18:00;CYQB 101800Z 24016G21KT 30SM FEW080 01/M07 A3002 RMK AC1 SLP170

CYQB;2010-03-10 19:00;CYQB 101900Z 21017KT 30SM FEW080 FEW180 02/M06 A3000 RMK AC1CI1 SLP163

CYQB;2010-03-10 20:00;CYQB 102000Z 22017KT 30SM SKC 02/M07 A3000 RMK SLP164

CYQB;2010-03-10 21:00;CYQB 102100Z 22016KT 30SM SKC 03/M07 A3001 RMK SLP166

CYQB;2010-03-10 22:00;CYQB 102200Z 24014G19KT 30SM SKC 02/M07 A3002 RMK SLP169

CYQB;2010-03-10 23:00;CYQB 102300Z 24013KT 30SM SKC 01/M07 A3004 RMK SLP177

CYQB;2010-03-11 00:00;CYQB 110000Z 26011KT 30SM FEW180 M00/M07 A3006 RMK CI1 SLP184

CYQB;2010-03-11 01:00;CYQB 110100Z 26007KT 30SM FEW190 M00/M07 A3008 RMK CI1 SLP189

CYQB;2010-03-11 02:00;CYQB 110200Z 25010KT 30SM FEW180 M01/M07 A3009 RMK CI1 HAZE OVR RIVER SLP194

CYQB;2010-03-11 03:00;CYQB 110300Z 22005KT 15SM FEW240 M02/M08 A3011 RMK CI1 SLP200

CYQB;2010-03-11 04:00;CYQB 110400Z 09002KT 15SM FEW240 M03/M07 A3012 RMK CI1 SLP204

CYQB;2010-03-11 05:00;CYQB 110500Z 03003KT 15SM FEW210 M02/M08 A3013 RMK CI1 SLP207

CYQB;2010-03-11 06:00;CYQB 110600Z 02003KT 15SM FEW190 M02/M08 A3014 RMK CI1 SLP211

CYQB;2010-03-11 07:00;CYQB 110700Z 03002KT 15SM FEW190 M04/M08 A3015 RMK CI1 SLP214

CYQB;2010-03-11 08:00;CYQB 110800Z 02004KT 15SM SCT220 M03/M08 A3015 RMK CI0 SLP215

CYQB;2010-03-11 09:00;CYQB 110900Z 36003KT 15SM FEW200 M04/M09 A3017 RMK CI0 SLP219

CYQB;2010-03-11 10:00;CYQB 111000Z 00000KT 15SM FEW140 M05/M10 A3018 RMK AS1 SLP223

CYQB;2010-03-11 11:00;CYQB 111100Z CCA 01004KT 30SM FEW140 FEW180 M05/M10 A3020 RMK AC1AC1 SLP231

CYQB;2010-03-11 12:00;CYQB 111200Z 02004KT 30SM FEW140 SCT180 M04/M10 A3021 RMK AC2AC1 SLP234

CYQB;2010-03-11 13:00;CYQB 111300Z 03006KT 30SM FEW140 FEW180 M03/M09 A3021 RMK AC2AC1 SLP235

CYQB;2010-03-11 14:00;CYQB 111400Z CCA 06007KT 30SM FEW140 FEW220 M01/M07 A3021 RMK AC1CI1 SLP235

CYQB;2010-03-11 15:00;CYQB 111500Z 07008KT 30SM FEW120 FEW220 01/M07 A3021 RMK AC2CI1 SLP234

CYQB;2010-03-11 16:00;CYQB 111600Z 12004KT 30SM FEW130 FEW220 02/M07 A3020 RMK AC2CI1 SLP231

CYQB;2010-03-11 17:00;CYQB 111700Z 09002KT 30SM BKN091 BKN150 04/M07 A3020 RMK AC5AC1 SLP231

CYQB;2010-03-11 18:00;CYQB 111800Z 12002KT 30SM BKN090 BKN220 04/M06 A3019 RMK AC6CI1 SLP229

CYQB;2010-03-11 19:00;CYQB 111900Z 06007KT 30SM SCT090 SCT220 03/M05 A3018 RMK AC3CI1 SLP224

CYQB;2010-03-11 20:00;CYQB 112000Z 09007KT 30SM SCT090 SCT220 03/M06 A3018 RMK AC3CI1 SLP225

CYQB;2010-03-11 21:00;CYQB 112100Z 07008KT 30SM BKN120 BKN200 03/M06 A3019 RMK AC5CI1 SLP226

CYQB;2010-03-11 22:00;CYQB 112200Z 06008KT 30SM BKN120 BKN200 02/M06 A3019 RMK AC5CI1 SLP229

CYQB;2010-03-11 23:00;CYQB 112300Z 08005KT 30SM FEW100 FEW200 01/M06 A3020 RMK AC2CI1 SLP230

CYQB;2010-03-12 00:00;CYQB 120000Z 07007KT 15SM FEW100 M00/M05 A3021 RMK AC2 SLP235

CYQB;2010-03-12 01:00;CYQB 120100Z 06003KT 15SM FEW100 M01/M05 A3022 RMK AC1 SLP239

CYQB;2010-03-12 02:00;CYQB 120200Z 06005KT 15SM FEW100 M01/M05 A3024 RMK AC1 SLP243

CYQB;2010-03-12 03:00;CYQB 120300Z 06010KT 15SM FEW100 M01/M06 A3025 RMK AC1 SLP246

CYQB;2010-03-12 04:00;CYQB 120400Z 07009KT 15SM FEW190 M01/M06 A3025 RMK AS0 SLP249

CYQB;2010-03-12 05:00;CYQB 120500Z 06007KT 15SM SKC M02/M06 A3028 RMK SLP256

CYQB;2010-03-12 06:00;CYQB 120600Z 06009KT 15SM SKC M02/M05 A3029 RMK SLP260

CYQB;2010-03-12 07:00;CYQB 120700Z 06009KT 15SM SKC M02/M06 A3029 RMK SLP261

CYQB;2010-03-12 08:00;CYQB 120800Z 07011G17KT 15SM SKC M02/M06 A3028 RMK SLP259

CYQB;2010-03-12 09:00;CYQB 120900Z 06008KT 15SM SKC M02/M07 A3030 RMK SLP263

CYQB;2010-03-12 10:00;CYQB 121000Z 08004KT 15SM SKC M03/M08 A3032 RMK SLP270

CYQB;2010-03-12 11:00;CYQB 121100Z 02005KT 20SM SKC M03/M09 A3033 RMK SLP276

CYQB;2010-03-12 12:00;CYQB 121200Z 04006KT 30SM SKC M02/M08 A3034 RMK SLP280

CYQB;2010-03-12 13:00;CYQB 121300Z CCB 08008KT 30SM SKC M01/M07 A3035 RMK SLP283

CYQB;2010-03-12 14:00;CYQB 121400Z 09011KT 30SM SKC 00/M08 A3036 RMK SLP284

CYQB;2010-03-12 15:00;CYQB 121500Z 07012G18KT 30SM FEW220 02/M09 A3035 RMK CI1 SLP280

CYQB;2010-03-12 16:00;CYQB 121600Z 09009G17KT 30SM FEW220 03/M09 A3034 RMK CI1 SLP278

CYQB;2010-03-12 17:00;CYQB 121700Z 09011KT 30SM FEW220 04/M09 A3033 RMK CI1 SLP276

CYQB;2010-03-12 18:00;CYQB 121800Z 07010KT 30SM FEW220 04/M06 A3033 RMK CI1 SLP274

CYQB;2010-03-12 19:00;CYQB 121900Z 08012KT 30SM FEW220 04/M07 A3032 RMK CI1 SLP272

CYQB;2010-03-12 20:00;CYQB 122000Z 09012KT 30SM FEW220 04/M07 A3032 RMK CI1 SLP270

CYQB;2010-03-12 21:00;CYQB 122100Z 08009G16KT 30SM FEW220 04/M07 A3031 RMK CI1 SLP268

CYQB;2010-03-12 22:00;CYQB 122200Z 09011KT 30SM FEW220 03/M08 A3031 RMK CI1 SLP268

CYQB;2010-03-12 23:00;CYQB 122300Z 06006KT 30SM FEW220 02/M08 A3032 RMK CI1 SLP272

CYQB;2010-03-13 00:00;CYQB 130000Z 06007KT 15SM FEW220 01/M08 A3033 RMK CI1 SLP273

CYQB;2010-03-13 01:00;CYQB 130100Z 06009KT 15SM FEW190 00/M08 A3032 RMK CI2 SLP270

CYQB;2010-03-13 02:00;CYQB 130200Z 06007KT 15SM SKC 00/M08 A3032 RMK SLP270

CYQB;2010-03-13 03:00;CYQB 130300Z 07006KT 15SM SKC M00/M09 A3033 RMK SLP273

CYQB;2010-03-13 04:00;CYQB 130400Z 06006KT 15SM SKC M00/M09 A3033 RMK SLP273

CYQB;2010-03-13 05:00;CYQB 130500Z 06005KT 15SM SKC M01/M08 A3033 RMK SLP273

CYQB;2010-03-13 06:00;CYQB 130600Z 08005KT 15SM SKC M01/M06 A3033 RMK SLP276

CYQB;2010-03-13 07:00;CYQB 130700Z 07008KT 15SM SKC M01/M08 A3033 RMK SLP273

CYQB;2010-03-13 08:00;CYQB 130800Z 08006KT 15SM SKC M02/M07 A3033 RMK SLP273

CYQB;2010-03-13 09:00;CYQB 130900Z 07009KT 15SM SKC M02/M08 A3033 RMK SLP276

CYQB;2010-03-13 10:00;CYQB 131000Z 07010G15KT 15SM SKC M02/M10 A3035 RMK SLP280

CYQB;2010-03-13 11:00;CYQB 131100Z 07010KT 30SM FEW180 FEW250 M02/M09 A3034 RMK AC1CI1 SLP277

CYQB;2010-03-13 12:00;CYQB 131200Z 06012KT 30SM FEW180 FEW250 M01/M09 A3034 RMK AC1CI0 SLP277

CYQB;2010-03-13 13:00;CYQB 131300Z 07010G15KT 30SM FEW250 01/M07 A3034 RMK CI0 SLP278

CYQB;2010-03-13 14:00;CYQB 131400Z 07012G17KT 30SM FEW250 02/M07 A3033 RMK CI0 SLP276

CYQB;2010-03-13 15:00;CYQB 131500Z 06010G17KT 30SM BKN250 04/M06 A3034 RMK CI0 SLP279

CYQB;2010-03-13 16:00;CYQB 131600Z 07009G15KT 30SM BKN250 04/M06 A3033 RMK CI0 SLP275

CYQB;2010-03-13 17:00;CYQB 131700Z 09006KT 30SM BKN250 05/M05 A3032 RMK CI0 SLP270

CYQB;2010-03-13 18:00;CYQB 131800Z 07008G15KT 30SM BKN250 06/M05 A3029 RMK CI0 SLP262

CYQB;2010-03-13 19:00;CYQB 131900Z 08009KT 30SM BKN250 07/M05 A3027 RMK CI0 SLP253

CYQB;2010-03-13 20:00;CYQB 132000Z 08013KT 30SM SCT250 07/M05 A3025 RMK CI0 SLP248

CYQB;2010-03-13 21:00;CYQB 132100Z 08009KT 30SM BKN250 05/M05 A3025 RMK CI0 SLP247

CYQB;2010-03-13 22:00;CYQB 132200Z 08006KT 30SM BKN250 04/M05 A3026 RMK CI2 SLP251

CYQB;2010-03-13 23:00;CYQB 132300Z 07008KT 30SM BKN250 03/M05 A3027 RMK CI2 SLP253

CYQB;2010-03-14 00:00;CYQB 140000Z 07010G15KT 20SM BKN250 02/M05 A3027 RMK CI2 SLP254

CYQB;2010-03-14 01:00;CYQB 140100Z 07007KT 20SM BKN250 02/M05 A3028 RMK CI2 SLP256

CYQB;2010-03-14 02:00;CYQB 140200Z 07009KT 20SM BKN250 02/M05 A3028 RMK CI2 SLP258

CYQB;2010-03-14 03:00;CYQB 140300Z 07010KT 15SM SKC 01/M04 A3027 RMK SLP255

CYQB;2010-03-14 04:00;CYQB 140400Z 08006KT 15SM SKC 01/M03 A3027 RMK SLP255

CYQB;2010-03-14 05:00;CYQB 140500Z 06010KT 15SM FEW250 00/M04 A3026 RMK CI1 SLP251

CYQB;2010-03-14 06:00;CYQB 140600Z 07009KT 15SM SCT250 01/M05 A3025 RMK CI1 SLP248

CYQB;2010-03-14 07:00;CYQB 140700Z 06011KT 15SM SCT240 01/M06 A3023 RMK CI2 SLP240

CYQB;2010-03-14 08:00;CYQB 140800Z 07011KT 15SM BKN240 02/M07 A3022 RMK CI3 SLP235

CYQB;2010-03-14 09:00;CYQB 140900Z 07015G22KT 15SM BKN240 02/M08 A3021 RMK CI3 SLP233

CYQB;2010-03-14 10:00;CYQB 141000Z 08016G27KT 15SM BKN240 02/M08 A3021 RMK CI6 SLP233

CYQB;2010-03-14 11:00;CYQB 141100Z 07018G27KT 25SM SCT220 BKN250 01/M07 A3021 RMK CI2CI3 SLP234

CYQB;2010-03-14 12:00;CYQB 141200Z 07016G25KT 30SM BKN220 OVC250 02/M08 A3022 RMK CI5CI1 SLP236

CYQB;2010-03-14 13:00;CYQB 141300Z 06015G21KT 30SM BKN210 BKN250 03/M08 A3022 RMK CI5CI2 SLP237

CYQB;2010-03-14 14:00;CYQB 141400Z 07018G29KT 20SM BKN200 03/M09 A3022 RMK CI6 SLP236

CYQB;2010-03-14 15:00;CYQB 141500Z 07017G27KT 20SM BKN200 05/M08 A3022 RMK CI4 SLP236

CYQB;2010-03-14 16:00;CYQB 141600Z 07019G29KT 20SM OVC200 05/M09 A3021 RMK CI2 SLP233

CYQB;2010-03-14 17:00;CYQB 141700Z 07025G30KT 20SM FEW180 OVC200 06/M09 A3019 RMK AC1CI2 SLP227

CYQB;2010-03-14 18:00;CYQB 141800Z 07016G24KT 20SM FEW180 OVC220 06/M08 A3017 RMK AC1CI2 SLP220

CYQB;2010-03-14 19:00;CYQB 141900Z 07014G19KT 20SM FEW180 OVC200 06/M05 A3016 RMK AC1CI2 SLP217

CYQB;2010-03-14 20:00;CYQB 142000Z 07013KT 20SM FEW180 OVC210 05/M04 A3015 RMK AC1CI2 SLP213

CYQB;2010-03-14 21:00;CYQB 142100Z 08010G15KT 20SM FEW180 OVC210 04/M05 A3014 RMK AC2CI2 SLP208

CYQB;2010-03-14 22:00;CYQB 142200Z 08011KT 25SM FEW150 BKN210 03/M04 A3013 RMK AC2CI2 SLP206

CYQB;2010-03-14 23:00;CYQB 142300Z 07011G16KT 25SM FEW150 BKN210 03/M05 A3013 RMK AC2CI2 SLP206

CYQB;2010-03-15 00:00;CYQB 150000Z 08008KT 15SM FEW150 BKN230 02/M06 A3014 RMK AC2CI2 SLP208

CYQB;2010-03-15 01:00;CYQB 150100Z 07010KT 15SM FEW150 SCT240 02/M06 A3013 RMK AC1CI1 SLP206

CYQB;2010-03-15 02:00;CYQB 150200Z 08009KT 15SM FEW200 02/M06 A3013 RMK CI1 SLP206

CYQB;2010-03-15 03:00;CYQB 150300Z 08010KT 15SM SKC 02/M05 A3012 RMK SLP203

CYQB;2010-03-15 04:00;CYQB 150400Z 08012G17KT 15SM FEW220 02/M04 A3011 RMK CI1 SLP199

CYQB;2010-03-15 05:00;CYQB 150500Z 07013KT 15SM FEW190 01/M04 A3010 RMK AC2 SLP196

CYQB;2010-03-15 06:00;CYQB 150600Z 06009KT 15SM SKC 01/M04 A3009 RMK SLP192

CYQB;2010-03-15 07:00;CYQB 150700Z 08009KT 15SM SKC 01/M04 A3008 RMK SLP190

CYQB;2010-03-15 08:00;CYQB 150800Z 08012G18KT 15SM FEW240 01/M05 A3008 RMK CI1 SLP188

CYQB;2010-03-15 09:00;CYQB 150900Z 08010KT 15SM SCT240 01/M04 A3008 RMK CI2 SLP188

CYQB;2010-03-15 10:00;CYQB 151000Z 07011KT 15SM BKN220 01/M05 A3008 RMK CI2 SLP190

CYQB;2010-03-15 11:00;CYQB 151100Z 08006KT 30SM BKN220 00/M04 A3009 RMK CI3 SLP193

CYQB;2010-03-15 12:00;CYQB 151200Z 08007KT 30SM SCT220 01/M05 A3010 RMK CI2 SLP195

CYQB;2010-03-15 13:00;CYQB 151300Z 07009G15KT 30SM BKN220 03/M04 A3010 RMK CI3 SLP195

CYQB;2010-03-15 14:00;CYQB 151400Z 07012KT 30SM BKN220 04/M04 A3010 RMK CI4 SLP197

CYQB;2010-03-15 15:00;CYQB 151500Z 07009G17KT 30SM SCT220 05/M04 A3011 RMK CI2 SLP198

CYQB;2010-03-15 16:00;CYQB 151600Z 08009G15KT 30SM BKN220 05/M04 A3010 RMK CI2 SLP196

CYQB;2010-03-15 17:00;CYQB 151700Z 08013KT 30SM BKN220 07/M04 A3010 RMK CI3 SLP195

CYQB;2010-03-15 18:00;CYQB 151800Z 09010KT 30SM BKN220 07/M03 A3008 RMK CI4 SLP190

CYQB;2010-03-15 19:00;CYQB 151900Z 09010KT 30SM BKN220 06/M02 A3008 RMK CI2 SLP188

CYQB;2010-03-15 20:00;CYQB 152000Z 09009KT 30SM BKN220 06/M02 A3008 RMK CI2 SLP188

CYQB;2010-03-15 21:00;CYQB 152100Z 07008KT 30SM BKN210 06/M03 A3008 RMK CI2 SLP188

CYQB;2010-03-15 22:00;CYQB 152200Z 07013G19KT 30SM BKN210 05/M04 A3008 RMK CI2 SLP190

CYQB;2010-03-15 23:00;CYQB 152300Z 08010G15KT 30SM BKN220 04/M03 A3009 RMK CI1 SLP193

CYQB;2010-03-16 00:00;CYQB 160000Z 07010KT 30SM BKN210 03/M03 A3010 RMK CI2 SLP196

CYQB;2010-03-16 01:00;CYQB 160100Z 07009KT 30SM BKN200 02/M03 A3011 RMK CI4 SLP198

CYQB;2010-03-16 02:00;CYQB 160200Z 03002KT 15SM SKC 02/M03 A3011 RMK SLP198

CYQB;2010-03-16 03:00;CYQB 160300Z 05002KT 15SM SKC 00/M03 A3010 RMK SLP197

CYQB;2010-03-16 04:00;CYQB 160400Z 00000KT 15SM FEW200 M01/M04 A3009 RMK CI1 SLP194

CYQB;2010-03-16 05:00;CYQB 160500Z 05003KT 15SM FEW210 M02/M04 A3009 RMK CI1 SLP193

CYQB;2010-03-16 06:00;CYQB 160600Z 00000KT 15SM SKC M02/M05 A3008 RMK SLP190

CYQB;2010-03-16 07:00;CYQB 160700Z 03003KT 15SM SKC M03/M06 A3007 RMK SLP187

CYQB;2010-03-16 08:00;CYQB 160800Z 01004KT 15SM SKC M01/M05 A3007 RMK SLP186

CYQB;2010-03-16 09:00;CYQB 160900Z 36002KT 15SM SKC M03/M06 A3007 RMK SLP185

CYQB;2010-03-16 10:00;CYQB 161000Z 29002KT 20SM SKC M04/M06 A3007 RMK SLP185

CYQB;2010-03-16 11:00;CYQB 161100Z 26003KT 30SM SKC M05/M07 A3007 RMK SLP186

CYQB;2010-03-16 12:00;CYQB 161200Z 26002KT 30SM SKC M02/M04 A3008 RMK SLP188

CYQB;2010-03-16 13:00;CYQB 161300Z 25002KT 30SM SKC 01/M02 A3008 RMK SLP188

CYQB;2010-03-16 14:00;CYQB 161400Z 24006KT 30SM SKC 03/M02 A3006 RMK SLP184

CYQB;2010-03-16 15:00;CYQB 161500Z 22007KT 30SM SKC 05/M03 A3006 RMK SLP181

CYQB;2010-03-16 16:00;CYQB 161600Z 22007KT 30SM FEW220 07/M03 A3003 RMK CI1 SLP172

CYQB;2010-03-16 17:00;CYQB 161700Z 24010KT 20SM FEW220 09/M02 A3000 RMK CI1 SLP163

CYQB;2010-03-16 18:00;CYQB 161800Z 22009KT 30SM FEW220 11/M01 A2997 RMK CI1 SLP152

CYQB;2010-03-16 19:00;CYQB 161900Z 22010G15KT 30SM FEW220 12/M01 A2995 RMK CI0 SLP146

CYQB;2010-03-16 20:00;CYQB 162000Z 22011KT 30SM FEW220 13/M01 A2994 RMK CI0 SLP140

CYQB;2010-03-16 21:00;CYQB 162100Z 26008KT 30SM FEW140 FEW220 14/M03 A2993 RMK AC1CI0 SLP139

CYQB;2010-03-16 22:00;CYQB 162200Z 33008KT 30SM FEW140 FEW220 14/M05 A2995 RMK AC1CI1 SLP144

CYQB;2010-03-16 23:00;CYQB 162300Z 36005KT 30SM FEW140 FEW220 11/M04 A2997 RMK AC1CI1 SLP151

CYQB;2010-03-17 00:00;CYQB 170000Z 35006KT 30SM SKC 10/M05 A2999 RMK SLP157

CYQB;2010-03-17 01:00;CYQB 170100Z 35003KT 25SM SKC 08/M05 A3000 RMK SLP161

CYQB;2010-03-17 02:00;CYQB 170200Z 03004KT 15SM SKC 07/M04 A3000 RMK SLP163

CYQB;2010-03-17 03:00;CYQB 170300Z 03004KT 15SM SKC 07/M04 A3000 RMK SLP162

CYQB;2010-03-17 04:00;CYQB 170400Z 01003KT 15SM SKC 06/M04 A3000 RMK SLP162

CYQB;2010-03-17 05:00;CYQB 170500Z 36004KT 15SM SKC 05/M05 A2999 RMK SLP158

CYQB;2010-03-17 05:26;CYQB 170526Z 33002KT 15SM SKC 02/

CYQB;2010-03-17 06:00;CYQB 170600Z 33002KT 15SM SKC M00/M05 A2998 RMK SLP155

CYQB;2010-03-17 07:00;CYQB 170700Z 00000KT 15SM FEW200 M00/M05 A2997 RMK CI1 SLP150

CYQB;2010-03-17 08:00;CYQB 170800Z 00000KT 15SM SKC M01/M05 A2996 RMK SLP147

CYQB;2010-03-17 09:00;CYQB 170900Z 00000KT 15SM FEW200 M02/M06 A2995 RMK CI1 SLP144

CYQB;2010-03-17 10:00;CYQB 171000Z 26004KT 15SM FEW190 M03/M06 A2994 RMK CI2 SLP140

CYQB;2010-03-17 11:00;CYQB 171100Z 27002KT 30SM FEW190 M02/M04 A2993 RMK CI1 SLP138

CYQB;2010-03-17 12:00;CYQB 171200Z 27003KT 30SM BKN190 M01/M03 A2993 RMK CI2 SLP138

CYQB;2010-03-17 13:00;CYQB 171300Z 23004KT 30SM FEW190 BKN250 01/M03 A2993 RMK AC2CI0 SLP137

CYQB;2010-03-17 14:00;CYQB 171400Z 22005KT 30SM FEW210 BKN250 03/M03 A2991 RMK CI2CI1 SLP131

CYQB;2010-03-17 15:00;CYQB 171500Z 22011KT 30SM BKN180 04/M03 A2988 RMK AC7 SLP120

CYQB;2010-03-17 16:00;CYQB 171600Z 24013KT 30SM FEW100 BKN200 05/M04 A2986 RMK AC1CI5 SLP113

CYQB;2010-03-17 17:00;CYQB 171700Z 22014KT 30SM FEW130 BKN180 07/M03 A2982 RMK AC1AC5 SLP100

CYQB;2010-03-17 18:00;CYQB 171800Z 22013G19KT 30SM FEW140 SCT180 BKN250 08/M04 A2978 RMK AC2AC2CI1 SLP089

CYQB;2010-03-17 19:00;CYQB 171900Z 22016KT 30SM FEW140 SCT230 09/M04 A2975 RMK AC2CI1 SLP079

CYQB;2010-03-17 20:00;CYQB 172000Z 23021G27KT 30SM FEW140 FEW230 10/M03 A2973 RMK AC1CI1 SLP070

CYQB;2010-03-17 21:00;CYQB 172100Z 24017G22KT 30SM FEW140 FEW250 10/M03 A2970 RMK AC1CI1 SLP061

CYQB;2010-03-17 22:00;CYQB 172200Z 25009KT 30SM FEW060 FEW140 FEW250 09/M02 A2969 RMK SC1AC1CI1 SLP058

CYQB;2010-03-17 23:00;CYQB 172300Z 25008KT 15SM FEW060 FEW250 08/M03 A2967 RMK SC1CI1 SLP050

CYQB;2010-03-18 00:00;CYQB 180000Z 25013KT 15SM BKN082 07/M01 A2965 RMK AC6 SLP044

CYQB;2010-03-18 01:00;CYQB 180100Z 27008KT 15SM BKN083 06/M00 A2965 RMK AC7 SLP044

CYQB;2010-03-18 02:00;CYQB 180200Z 25011KT 15SM SCT083 06/M01 A2964 RMK AC3 SLP041

CYQB;2010-03-18 03:00;CYQB 180300Z 23009KT 15SM BKN086 06/M01 A2963 RMK AC6 SLP035

CYQB;2010-03-18 04:00;CYQB 180400Z 22007KT 15SM BKN085 BKN120 06/M01 A2961 RMK AC5AC1 SLP031

CYQB;2010-03-18 05:00;CYQB 180500Z 22007KT 15SM BKN081 BKN120 06/M01 A2959 RMK AC5AC1 SLP024

CYQB;2010-03-18 06:00;CYQB 180600Z 23008KT 15SM FEW080 OVC110 05/M01 A2960 RMK AC1AC7 SLP025

CYQB;2010-03-18 07:00;CYQB 180700Z 22004KT 15SM OVC120 05/M01 A2958 RMK AC8 SLP020

CYQB;2010-03-18 08:00;CYQB 180800Z 19005KT 15SM BKN096 05/M01 A2957 RMK AC7 SLP017

CYQB;2010-03-18 09:00;CYQB 180900Z 20008KT 15SM BKN086 04/M00 A2958 RMK AC7 SLP018

CYQB;2010-03-18 10:00;CYQB 181000Z 20006KT 15SM FEW055 BKN095 04/M00 A2958 RMK SC1AC6 SLP020

CYQB;2010-03-18 11:00;CYQB 181100Z 21005KT 25SM FEW055 FEW078 OVC098 04/M00 A2959 RMK SC1SC2AC6 SLP023

CYQB;2010-03-18 12:00;CYQB 181200Z 28008KT 25SM FEW078 BKN100 BKN210 05/00 A2961 RMK AC2AC5CI1 SLP030

CYQB;2010-03-18 13:00;CYQB 181300Z 27007KT 30SM FEW050 BKN120 BKN210 06/01 A2962 RMK SC2AC4CI1 SLP034

CYQB;2010-03-18 14:00;CYQB 181400Z 31010G17KT 30SM FEW040 BKN090 BKN210 07/M02 A2963 RMK SC2AC4CI1 SLP036

CYQB;2010-03-18 15:00;CYQB 181500Z 32013G18KT 30SM FEW040 SCT090 BKN210 08/M03 A2963 RMK SC2AC1CI2 SLP037

CYQB;2010-03-18 16:00;CYQB 181600Z 34013G20KT 30SM SCT050 BKN200 08/M04 A2963 RMK CU3CI1 SLP036

CYQB;2010-03-18 17:00;CYQB 181700Z 28012G20KT 30SM BKN058 BKN200 10/M01 A2963 RMK CU5CI1 SLP037

CYQB;2010-03-18 18:00;CYQB 181800Z 32019G27KT 30SM BKN062 BKN200 10/M05 A2962 RMK CU5CI1 SLP033

CYQB;2010-03-18 19:00;CYQB 181900Z 33014G19KT 30SM FEW062 FEW200 10/M04 A2963 RMK CU2CI1 SLP035

CYQB;2010-03-18 20:00;CYQB 182000Z 30012KT 30SM FEW062 FEW200 10/M05 A2963 RMK CU2CI1 SLP037

CYQB;2010-03-18 21:00;CYQB 182100Z 31011KT 30SM FEW062 FEW200 09/M06 A2965 RMK CU1CI2 SLP042

CYQB;2010-03-18 22:00;CYQB 182200Z 31011KT 30SM FEW062 SCT200 09/M07 A2967 RMK CU1CI2 SLP048

CYQB;2010-03-18 23:00;CYQB 182300Z 35006KT 30SM FEW064 FEW170 08/M08 A2968 RMK CU1AS2 SLP053

CYQB;2010-03-19 00:00;CYQB 190000Z 26002KT 15SM FEW170 04/M06 A2970 RMK AS1 SLP061

CYQB;2010-03-19 01:00;CYQB 190100Z 00000KT 15SM FEW210 04/M07 A2972 RMK CI1 SLP066

CYQB;2010-03-19 02:00;CYQB 190200Z 35004KT 15SM FEW080 FEW210 03/M06 A2974 RMK AC1CI0 SLP073

CYQB;2010-03-19 03:00;CYQB 190300Z 06006KT 15SM SKC 02/M06 A2976 RMK SLP082

CYQB;2010-03-19 04:00;CYQB 190400Z 05007KT 15SM FEW100 02/M04 A2978 RMK AC0 SLP088

CYQB;2010-03-19 05:00;CYQB 190500Z 05005KT 15SM BKN086 01/M04 A2979 RMK AC2 SLP090

CYQB;2010-03-19 06:00;CYQB 190600Z 07007KT 15SM BKN100 01/M04 A2980 RMK AC2 SLP094

CYQB;2010-03-19 07:00;CYQB 190700Z 06006KT 15SM BKN096 01/M04 A2981 RMK AC6 SLP096

CYQB;2010-03-19 08:00;CYQB 190800Z 07008KT 15SM BKN095 01/M04 A2981 RMK AC7 SLP098

CYQB;2010-03-19 09:00;CYQB 190900Z 06008KT 15SM BKN100 01/M04 A2981 RMK AC7 SLP099

CYQB;2010-03-19 10:00;CYQB 191000Z 06008KT 15SM BKN075 01/M05 A2982 RMK AC7 SLP101

CYQB;2010-03-19 11:00;CYQB 191100Z 06011KT 30SM BKN060 01/M05 A2982 RMK SC6 SLP100

CYQB;2010-03-19 12:00;CYQB 191200Z 07011G16KT 50SM BKN051 01/M06 A2982 RMK SC7 SLP100

CYQB;2010-03-19 13:00;CYQB 191300Z 07012G17KT 50SM BKN052 01/M06 A2981 RMK SC7 SLP098

CYQB;2010-03-19 14:00;CYQB 191400Z 07014G20KT 50SM FEW058 BKN075 BKN120 01/M06 A2980 RMK SC2AC5AC1 SLP093

CYQB;2010-03-19 15:00;CYQB 191500Z 07013KT 50SM FEW062 BKN075 BKN110 BKN250 03/M05 A2979 RMK SC2AC3AC2CI0 SLP091

CYQB;2010-03-19 16:00;CYQB 191600Z 08009KT 30SM FEW060 SCT100 OVC250 04/M04 A2977 RMK SC2AC2CI2 SLP084

CYQB;2010-03-19 17:00;CYQB 191700Z 08005KT 30SM SCT072 OVC085 04/M04 A2975 RMK AC3AC5 SLP079

CYQB;2010-03-19 18:00;CYQB 191800Z 07010KT 30SM BKN066 OVC085 04/M04 A2973 RMK SC6AC2 SLP071

CYQB;2010-03-19 19:00;CYQB 191900Z 06008KT 30SM BKN065 OVC080 04/M04 A2972 RMK SC6AC2 SLP068

CYQB;2010-03-19 20:00;CYQB 192000Z 09005KT 30SM BKN065 OVC080 04/M04 A2972 RMK SC7AC1 SLP066

CYQB;2010-03-19 21:00;CYQB 192100Z 10005KT 30SM BKN065 BKN100 04/M04 A2972 RMK SC6AC2 SLP066

CYQB;2010-03-19 22:00;CYQB 192200Z 09005KT 30SM BKN065 BKN100 BKN150 03/M03 A2972 RMK SC5AC2AC1 SLP069

CYQB;2010-03-19 23:00;CYQB 192300Z 08004KT 30SM SCT060 BKN099 OVC150 03/M03 A2975 RMK SC4AC2AC2 SLP076

CYQB;2010-03-19 23:43;CYQB 192343Z 10003KT 15SM -SHRA BKN052 BKN090 OVC150 02/M03 RMK SC6AC2AC1

CYQB;2010-03-20 00:00;CYQB 200000Z 09003KT 15SM -SHRA BKN055 BKN095 OVC150 02/M03 A2976 RMK SC6AC1AC1 SLP081

CYQB;2010-03-20 01:00;CYQB 200100Z 14002KT 15SM SCT055 BKN079 OVC150 02/M02 A2978 RMK SC3AC4AC1 SLP087

CYQB;2010-03-20 02:00;CYQB 200200Z 03003KT 15SM OVC070 03/M02 A2978 RMK AC8 SLP086

CYQB;2010-03-20 03:00;CYQB 200300Z 01002KT 15SM OVC075 03/M02 A2976 RMK AC8 SLP082

CYQB;2010-03-20 04:00;CYQB 200400Z 21002KT 15SM BKN072 OVC090 02/M02 A2976 RMK AC7AC1 SLP080

CYQB;2010-03-20 05:00;CYQB 200500Z 25003KT 15SM BKN072 OVC100 02/M02 A2976 RMK AC5AC3 SLP080

CYQB;2010-03-20 06:00;CYQB 200600Z 25002KT 15SM BKN045 BKN075 OVC100 02/M01 A2975 RMK SC5AC2AC2 SLP078

CYQB;2010-03-20 07:00;CYQB 200700Z 22004KT 15SM BKN043 BKN100 02/M02 A2975 RMK SC5AC2 SLP079

CYQB;2010-03-20 08:00;CYQB 200800Z 23007KT 15SM SCT043 BKN110 03/M01 A2975 RMK SC4AC3 SLP078

CYQB;2010-03-20 09:00;CYQB 200900Z 22009KT 15SM -SHRASN BKN043 BKN075 03/M01 A2977 RMK SC6AC2 SLP083

CYQB;2010-03-20 10:00;CYQB 201000Z 23008KT 10SM -SHRA BKN053 03/M00 A2980 RMK SC7 SLP093

CYQB;2010-03-20 11:00;CYQB 201100Z 24009KT 10SM -SHRA FEW035 BKN076 03/01 A2982 RMK SC1AC6 SLP102

CYQB;2010-03-20 12:00;CYQB 201200Z 23007KT 20SM OVC065 03/01 A2983 RMK SC8 VIRGA SLP106

CYQB;2010-03-20 13:00;CYQB 201300Z 25010KT 20SM BKN066 05/02 A2986 RMK AC7 SLP113

CYQB;2010-03-20 14:00;CYQB 201400Z 25009KT 20SM FEW030 BKN048 06/01 A2987 RMK CU1SC6 SLP118

CYQB;2010-03-20 15:00;CYQB 201500Z 27009KT 20SM FEW030 BKN044 07/M00 A2988 RMK CU1SC6 SLP121

CYQB;2010-03-20 16:00;CYQB 201600Z 27009KT 30SM OVC043 06/M02 A2990 RMK SC8 OBS TAKEN +11 SLP127

CYQB;2010-03-20 17:00;CYQB 201700Z 27012KT 30SM FEW030 OVC053 06/M02 A2990 RMK SC1SC8 SLP129

CYQB;2010-03-20 18:00;CYQB 201800Z 27011KT 30SM BKN058 06/M03 A2992 RMK SC7 SLP134

CYQB;2010-03-20 19:00;CYQB 201900Z 25013KT 30SM BKN058 BKN120 06/M04 A2993 RMK SC6AC1 SLP137

CYQB;2010-03-20 20:00;CYQB 202000Z 28010G16KT 30SM BKN060 BKN120 BKN200 06/M05 A2996 RMK SC5AC1CI1 SLP147

CYQB;2010-03-20 21:00;CYQB 202100Z 26013G19KT 30SM FEW060 SCT120 BKN200 05/M06 A2998 RMK SC2AC2CI3 SLP155

CYQB;2010-03-20 22:00;CYQB 202200Z 28011G16KT 30SM FEW060 FEW130 BKN180 04/M06 A3002 RMK SC2AC1CI4 SLP167

CYQB;2010-03-20 23:00;CYQB 202300Z 30012KT 30SM FEW060 BKN190 03/M08 A3005 RMK SC1CI2 SLP179

CYQB;2010-03-20 23:51;CYQB 202351Z 30010KT 15SM FEW060 BKN200 02/ RMK SC1CI2

CYQB;2010-03-21 00:00;CYQB 210000Z 30008KT 15SM FEW060 BKN190 02/M08 A3009 RMK SC1CI2 SLP192

CYQB;2010-03-21 01:00;CYQB 210100Z 32009KT 15SM FEW190 01/M09 A3011 RMK CI1 SLP201

CYQB;2010-03-21 02:00;CYQB 210200Z 32011KT 15SM SKC M00/M10 A3013 RMK SLP207

CYQB;2010-03-21 03:00;CYQB 210300Z 31010KT 15SM SKC M01/M11 A3016 RMK SLP217

CYQB;2010-03-21 04:00;CYQB 210400Z 32006KT 15SM SKC M02/M12 A3018 RMK SLP223

CYQB;2010-03-21 05:00;CYQB 210500Z 33003KT 15SM SCT240 M02/M12 A3019 RMK CI1 SLP226

CYQB;2010-03-21 06:00;CYQB 210600Z 36007KT 15SM FEW240 M02/M11 A3020 RMK CI1 SLP232

CYQB;2010-03-21 07:00;CYQB 210700Z 36009KT 15SM BKN220 M04/M13 A3022 RMK CI2 SLP237

CYQB;2010-03-21 08:00;CYQB 210800Z 01007KT 15SM FEW210 M04/M14 A3022 RMK CI1 SLP239

CYQB;2010-03-21 09:00;CYQB 210900Z 01004KT 15SM FEW210 M05/M13 A3024 RMK CI0 SLP243

CYQB;2010-03-21 10:00;CYQB 211000Z 36004KT 15SM FEW150 BKN220 M05/M13 A3025 RMK AC2CI0 SLP248

CYQB;2010-03-21 11:00;CYQB 211100Z 01005KT 15SM FEW100 FEW150 BKN220 M05/M13 A3026 RMK AC1AC1CI0 SLP252

CYQB;2010-03-21 12:00;CYQB 211200Z 02004KT 15SM BKN210 M05/M11 A3027 RMK CI0 SLP254

CYQB;2010-03-21 13:00;CYQB 211300Z 05008KT 15SM SCT210 M03/M10 A3029 RMK CI0 SLP260

CYQB;2010-03-21 14:00;CYQB 211400Z 10008KT 15SM SCT210 M02/M11 A3029 RMK CI0 SLP260

CYQB;2010-03-21 15:00;CYQB 211500Z 05003KT 15SM SCT200 M01/M10 A3028 RMK CI1 SLP259

CYQB;2010-03-21 16:00;CYQB 211600Z 04003KT 15SM FEW200 01/M09 A3026 RMK CI0 SLP252

CYQB;2010-03-21 17:00;CYQB 211700Z 28002KT 15SM FEW210 02/M10 A3024 RMK CI0 SLP245

CYQB;2010-03-21 18:00;CYQB 211800Z 21007KT 15SM SCT200 03/M11 A3021 RMK CI0 SLP234

CYQB;2010-03-21 19:00;CYQB 211900Z 24003KT 30SM FEW090 SCT210 04/M09 A3018 RMK AC1CI1 SLP223

CYQB;2010-03-21 20:00;CYQB 212000Z 00000KT 30SM FEW090 BKN210 04/M09 A3015 RMK AC1CI2 SLP213

CYQB;2010-03-21 21:00;CYQB 212100Z 00000KT 30SM FEW160 BKN210 04/M09 A3012 RMK AC2CI2 SLP204

CYQB;2010-03-21 22:00;CYQB 212200Z 00000KT 30SM FEW090 BKN180 04/M09 A3011 RMK AC1AC5 SLP202

CYQB;2010-03-21 23:00;CYQB 212300Z 00000KT 30SM FEW090 BKN180 03/M09 A3012 RMK AC1AC5 SLP203

CYQB;2010-03-22 00:00;CYQB 220000Z 16002KT 30SM FEW180 BKN230 01/M08 A3012 RMK AC2CI3 SLP205

CYQB;2010-03-22 01:00;CYQB 220100Z 00000KT 15SM BKN200 M01/M06 A3011 RMK CI4 SLP201

CYQB;2010-03-22 02:00;CYQB 220200Z 23003KT 15SM FEW090 M00/M05 A3011 RMK AC1 SLP201

CYQB;2010-03-22 03:00;CYQB 220300Z 26006KT 15SM FEW090 M02/M04 A3011 RMK AC1 SLP200

CYQB;2010-03-22 04:00;CYQB 220400Z 00000KT 15SM FEW090 M02/M04 A3011 RMK AC2 FROIN SLP199

CYQB;2010-03-22 05:00;CYQB 220500Z 00000KT 15SM FEW012 FEW090 M01/M03 A3010 RMK SC2AC1 SLP198

CYQB;2010-03-22 06:00;CYQB 220600Z 24003KT 15SM FEW012 FEW090 M03/M04 A3010 RMK SC1AC1 SLP197

CYQB;2010-03-22 07:00;CYQB 220700Z 31002KT 15SM BKN016 M03/M05 A3010 RMK SC5 SLP195

CYQB;2010-03-22 07:25;CYQB 220725Z 00000KT 10SM BKN010 M03/ RMK ST7

CYQB;2010-03-22 08:00;CYQB 220800Z 00000KT 10SM BKN008 M02/M04 A3010 RMK ST7 SLP196

CYQB;2010-03-22 08:18;CYQB 220818Z 34004KT 15SM BKN006 M03/ RMK ST7

CYQB;2010-03-22 09:00;CYQB 220900Z 35005KT 8SM OVC006 M02/M04 A3011 RMK ST8 SLP200

CYQB;2010-03-22 10:00;CYQB 221000Z 34003KT 8SM SCT005 OVC009 M02/M03 A3013 RMK SF4SF4 SLP206

CYQB;2010-03-22 10:37;CYQB 221037Z 34005KT 8SM SCT006 OVC012 RMK SF4SC4

CYQB;2010-03-22 11:00;CYQB 221100Z 35004KT 5SM BR BKN007 OVC009 M02/M04 A3014 RMK SF6SF2 SLP209

CYQB;2010-03-22 12:00;CYQB 221200Z 36004KT 4SM BR OVC006 M02/M04 A3015 RMK SF8 SLP213

CYQB;2010-03-22 12:49;CYQB 221249Z 27004KT 4SM BR SCT007 OVC010 M01/ RMK SF4SC4 TOPS 016

CYQB;2010-03-22 13:00;CYQB 221300Z 27005KT 5SM BR BKN008 OVC011 M01/M03 A3017 RMK SF6SC2 SLP221

CYQB;2010-03-22 14:00;CYQB 221400Z 28002KT 10SM BKN008 M01/M03 A3017 RMK SC7 SLP219

CYQB;2010-03-22 14:41;CYQB 221441Z 27004KT 15SM SCT009 BKN250 00/ RMK SF3CI1

CYQB;2010-03-22 15:00;CYQB 221500Z CCA 20003KT 15SM SCT010 BKN250 00/M02 A3017 RMK SF3CI0 SLP219

CYQB;2010-03-22 16:00;CYQB 221600Z 23006KT 15SM FEW012 BKN230 02/M02 A3016 RMK SC1CI0 SLP216

CYQB;2010-03-22 17:00;CYQB 221700Z 23006KT 20SM FEW170 BKN200 BKN230 05/M03 A3014 RMK AC1CS1CI1 SLP210

CYQB;2010-03-22 18:00;CYQB 221800Z 21010KT 20SM FEW060 FEW160 SCT200 BKN240 06/M02 A3013 RMK SC1AC1CS1CI1 SLP205

CYQB;2010-03-22 19:00;CYQB 221900Z 22007KT 20SM FEW060 FEW160 SCT200 BKN240 08/M04 A3010 RMK SC1AC1CS1CI1 SLP197

CYQB;2010-03-22 20:00;CYQB 222000Z 20007KT 20SM FEW060 FEW150 FEW200 SCT230 08/M06 A3008 RMK SC1AC1CS1CI1 SLP190

CYQB;2010-03-22 21:00;CYQB 222100Z 22009KT 20SM FEW060 FEW170 SCT230 09/M07 A3008 RMK SC1AC1CI1 SLP191

CYQB;2010-03-22 22:00;CYQB 222200Z 23007KT 20SM FEW100 FEW160 SCT200 BKN230 07/M08 A3010 RMK AC1AC1CI1CI2 SLP196

CYQB;2010-03-22 23:00;CYQB 222300Z 26003KT 20SM FEW100 SCT160 BKN220 06/M07 A3013 RMK AC1AC1CI4 SLP206

CYQB;2010-03-23 00:00;CYQB 230000Z 27003KT 20SM FEW100 BKN230 04/M05 A3011 RMK AC2CI4 SLP201

CYQB;2010-03-23 01:00;CYQB 230100Z 07003KT 20SM FEW100 BKN210 05/M07 A3011 RMK AC2CI6 SLP201

CYQB;2010-03-23 02:00;CYQB 230200Z 07010G15KT 15SM BKN170 04/M05 A3013 RMK AC6 SLP206

CYQB;2010-03-23 03:00;CYQB 230300Z 06008KT 15SM OVC150 04/M05 A3013 RMK AC8 SLP207

CYQB;2010-03-23 04:00;CYQB 230400Z 07009G16KT 15SM OVC140 04/M06 A3015 RMK AC8 SLP212

CYQB;2010-03-23 05:00;CYQB 230500Z 06015G20KT 15SM OVC140 03/M06 A3015 RMK AC8 SLP212

CYQB;2010-03-23 06:00;CYQB 230600Z 07016G22KT 15SM BKN120 OVC140 02/M07 A3014 RMK AC7AC1 SLP211

CYQB;2010-03-23 07:00;CYQB 230700Z 07019G25KT 15SM OVC120 02/M07 A3014 RMK AC8 SLP211

CYQB;2010-03-23 08:00;CYQB 230800Z 07025G35KT 15SM OVC100 01/M09 A3012 RMK AC8 SLP204

CYQB;2010-03-23 09:00;CYQB 230900Z 08019G29KT 15SM OVC080 01/M11 A3011 RMK AC8 SLP201

CYQB;2010-03-23 10:00;CYQB 231000Z 07019G27KT 15SM OVC046 00/M10 A3012 RMK SC8 SLP203

CYQB;2010-03-23 10:43;CYQB 231043Z 07027G34KT 15SM -FZRA OVC030 M00/M10 RMK SC8

CYQB;2010-03-23 11:00;CYQB 231100Z 07022G35KT 10SM -SN -FZRA OVC027 M00/M10 A3010 RMK SC8 SLP195

CYQB;2010-03-23 11:38;CYQB 231138Z 07019G35KT 8SM -SN OVC027 M00/ REFZRA RMK SC8

CYQB;2010-03-23 12:00;CYQB 231200Z 06028G35KT 2 1/2SM -SN OVC020 M01/M08 A3008 REFZRA RMK SC8 SLP189

CYQB;2010-03-23 12:24;CYQB 231224Z 06023G35KT 3SM -SN OVC024 M01/ RMK SC8

CYQB;2010-03-23 13:00;CYQB 231300Z 06024G32KT 2 1/2SM -PLSN DRSN OVC015 M02/M06 A3006 RMK SC8 SLP183

CYQB;2010-03-23 13:12;CYQB 231312Z 06018G35KT 1SM R06/P6000FT/D -PLSN DRSN VV010 M02/ RMK SN8

CYQB;2010-03-23 14:00;CYQB 231400Z 07019G32KT 3/4SM R06/5500FT/N -PLSN DRSN OVC022 M03/M04 A3004 RMK SN6SC2 SLP176

CYQB;2010-03-23 14:37;CYQB 231437Z 06023G31KT 1 1/4SM -PLSN DRSN OVC019 M02/ RMK SN6SC2

CYQB;2010-03-23 15:00;CYQB 231500Z 06020G30KT 1SM R06/P6000FT/N -PLSN DRSN OVC021 M02/M04 A3000 RMK SN5SC3 /S01/ SLP164

CYQB;2010-03-23 15:37;CYQB 231537Z 07020G29KT 3/4SM R06/6000FT/D -PLSN BKN008 OVC020 M02/ RMK SN5SF2SC1

CYQB;2010-03-23 16:00;CYQB 231600Z 07024G32KT 3/4SM R06/4500FT/N -PLSN DRSN OVC008 M02/M03 A2996 RMK SN5SF3 /S02/ SLP149

CYQB;2010-03-23 16:20;CYQB 231620Z 06022G34KT 1/2SM R06/4000V5500FT/D -PLSN BLSN VV007 M02/ RMK SN8

CYQB;2010-03-23 17:00;CYQB 231700Z 07022G34KT 3/4SM R06/4000FT/D -PLSN BLSN OVC011 M02/M02 A2991 RMK SN6SF2 SLP131

CYQB;2010-03-23 17:50;CYQB 231750Z 07020G28KT 1SM R06/P6000FT/U -PLSN BLSN OVC008 M01/ RMK SN4SF4

CYQB;2010-03-23 18:00;CYQB 231800Z CCA 07020G32KT 1SM R06/6000FT/D -PLSN BLSN OVC008 M01/M02 A2987 RMK SN4SF4 CIG VRB 5-11 VIS VRB 3/4-11/4 /S02/ SLP118

CYQB;2010-03-23 19:00;CYQB 231900Z 07019G33KT 1SM R06/6000FT/D -PLSN BLSN OVC009 M01/M02 A2982 RMK SN4SF4 CIG VRB 6-12 VIS VRB 3/4-11/4 /S04/ SLP102

CYQB;2010-03-23 20:00;CYQB 232000Z 07020G27KT 1 1/2SM -SNPL BLSN OVC012 M01/M02 A2980 RMK SF8 CIG VRB 8-16 VIS VRB 1-2 /S05/ SLP094

CYQB;2010-03-23 21:00;CYQB 232100Z 08017G27KT 1 1/2SM -SNPL BLSN OVC012 M01/M02 A2978 RMK SF8 CIG VRB 8-16 VIS VRB 1-2 SLP089

CYQB;2010-03-23 22:00;CYQB 232200Z 07021G32KT 1 1/2SM -SN BLSN BKN012 OVC025 M00/M02 A2976 RMK SF7SC1 CIG VRB 8-16 VIS VRB 1-2 /S06/ SLP082

CYQB;2010-03-23 23:00;CYQB 232300Z 07015G29KT 1 1/2SM -SN BLSN BKN012 OVC020 M00/M01 A2975 RMK SF7SC1 SLP076

CYQB;2010-03-24 00:00;CYQB 240000Z CCA 07018G31KT 3SM -SHSN BLSN BKN012 BKN024 OVC040 M00/M01 A2972 RMK SC6SC1SC1 CIG VRB 8-16 VIS VRB 1-5 /S07/ SLP067

CYQB;2010-03-24 01:00;CYQB 240100Z CCA 07020G27KT 2 1/2SM -SN BLSN BKN010 OVC025 M00/M02 A2971 RMK SC7SC1 CIG VRB 7-13 VIS VRB 1-4 SLP065

CYQB;2010-03-24 02:00;CYQB 240200Z 06013G27KT 1SM R06/4500VP6000FT/U -SN BLSN BKN008 OVC020 M01/M01 A2969 RMK SC7SC1 CIG VRB 6-10 /S02/ SLP058

CYQB;2010-03-24 03:00;CYQB 240300Z 07015G21KT 3SM -SN BLSN BKN010 OVC030 M00/M01 A2967 RMK SC5SC3 VIS VRB 1-5 /S03/

CYQB;2010-03-24 04:00;CYQB 240400Z 06015KT 2SM -SNPL BLSN FEW010 OVC036 00/M02 A2964 RMK SC2SC6 VIS VRB 1-4

CYQB;2010-03-24 04:25;CYQB 240425Z 06011G18KT 3SM -PLSN BLSN BKN010 OVC036 00/ RMK SC5SC3 VIS VRB 2-4

CYQB;2010-03-24 05:00;CYQB 240500Z 06011G17KT 3SM -PLSN BLSN FEW010 OVC034 00/M02 A2961 RMK SC2SC6 VIS VRB 2-4 SLP032

CYQB;2010-03-24 06:00;CYQB 240600Z 06009KT 3SM -SN FEW010 OVC037 00/M02 A2960 RMK SC1SC7 VIS VRB 2-4 /S03/ SLP026

CYQB;2010-03-24 07:00;CYQB 240700Z 03003KT 3SM -SN OVC038 00/M01 A2958 RMK SC8 VIS VRB 2-4 SLP021

CYQB;2010-03-24 08:00;CYQB 240800Z 08004KT 1SM R06/P6000FT/D -SN BKN008 OVC024 M00/M01 A2958 RMK SF6SC2 VIS VRB 1/2-2 SLP021

CYQB;2010-03-24 09:00;CYQB 240900Z 00000KT 1SM R06/P6000FT/D -SN OVC007 M00/M01 A2959 RMK ST8 VIS VRB 1/2-2 /S01/ SLP022

CYQB;2010-03-24 09:42;CYQB 240942Z 00000KT 1SM R06/P6000FT/D -SN OVC003 M00/ RMK SF8

CYQB;2010-03-24 10:00;CYQB 241000Z 00000KT 1 1/2SM -SN BKN003 OVC018 M01/M01 A2959 RMK SF6SC2 /S02/ SLP023

CYQB;2010-03-24 11:00;CYQB 241100Z 21002KT 1 1/2SM -SN SCT002 BKN009 OVC015 M01/M01 A2960 RMK SF4SF3SC1 SLP028

CYQB;2010-03-24 12:00;CYQB 241200Z 00000KT 1SM R06/P6000FT/N -SN SCT004 BKN009 OVC017 M00/M01 A2961 RMK SF3SF3SC2 /S03/ SLP029

CYQB;2010-03-24 12:38;CYQB 241238Z 20002KT 1 1/2SM R06/6000FT/U -SN FEW002 BKN005 OVC009 M00/ RMK SF2SF4SF2

CYQB;2010-03-24 13:00;CYQB 241300Z CCA 17003KT 1SM R06/P6000FT/D -SN FEW002 BKN005 OVC009 M00/M01 A2960 RMK SF2SF6SF1 /S01/ SLP026

CYQB;2010-03-24 14:00;CYQB 241400Z 05003KT 1 1/2SM -SN SCT005 BKN011 OVC025 00/M01 A2960 RMK SF3SC3SC2 SLP027

CYQB;2010-03-24 14:40;CYQB 241440Z 08008KT 1SM R06/P6000FT/N -SN VV009 M00/ RMK SN8

CYQB;2010-03-24 15:00;CYQB 241500Z CCA 09009KT 1SM R06/P6000FT/N -SN VV010 M01/M02 A2961 RMK SN8 SLP030

CYQB;2010-03-24 16:00;CYQB 241600Z CCA 08007KT 1 1/2SM -SN VV019 00/M02 A2961 RMK SN8 SLP031

CYQB;2010-03-24 16:40;CYQB 241640Z 34005KT 2SM -SN OVC031 01/ RMK SN6SC2

CYQB;2010-03-24 17:00;CYQB 241700Z 30007KT 2SM -SN OVC024 00/M02 A2963 RMK SN3SC5 SLP037

CYQB;2010-03-24 18:00;CYQB 241800Z 32010G15KT 15SM BKN040 OVC060 02/M03 A2964 RMK SC6SC2 SLP040

CYQB;2010-03-24 19:00;CYQB 241900Z 33014G22KT 20SM FEW038 BKN090 02/M04 A2965 RMK SC2AC5 SLP045

CYQB;2010-03-24 20:00;CYQB 242000Z 32015KT 25SM BKN036 BKN150 BKN220 02/M04 A2968 RMK SC5AC1CI0 SLP055

CYQB;2010-03-24 21:00;CYQB 242100Z 31011KT 30SM BKN036 BKN220 02/M04 A2970 RMK SC5CI0 SLP060

CYQB;2010-03-24 22:00;CYQB 242200Z 31005KT 30SM SCT042 BKN220 02/M03 A2972 RMK SC3CI0 SLP066

CYQB;2010-03-24 23:00;CYQB 242300Z 00000KT 30SM FEW040 BKN220 02/M04 A2973 RMK SC2CI1 SLP071

CYQB;2010-03-25 00:00;CYQB 250000Z 00000KT 15SM FEW220 01/M04 A2975 RMK CI0 SLP076

CYQB;2010-03-25 01:00;CYQB 250100Z 24003KT 15SM SKC M02/M04 A2977 RMK SLP084

CYQB;2010-03-25 02:00;CYQB 250200Z 22003KT 15SM SKC M03/M04 A2978 RMK SLP088

CYQB;2010-03-25 03:00;CYQB 250300Z 24004KT 15SM SKC M05/M06 A2978 RMK SLP089

CYQB;2010-03-25 04:00;CYQB 250400Z 22008KT 15SM SKC 01/M04 A2978 RMK SLP088

CYQB;2010-03-25 05:00;CYQB 250500Z 23008KT 15SM SKC 01/M07 A2979 RMK SLP092

CYQB;2010-03-25 06:00;CYQB 250600Z 24008KT 15SM SKC M02/M08 A2980 RMK SLP095

CYQB;2010-03-25 07:00;CYQB 250700Z 27010KT 15SM SKC M03/M07 A2982 RMK SLP103

CYQB;2010-03-25 08:00;CYQB 250800Z 28009KT 15SM SKC M03/M08 A2984 RMK SLP108

CYQB;2010-03-25 09:00;CYQB 250900Z 28004KT 15SM SKC M04/M08 A2984 RMK SLP109

CYQB;2010-03-25 10:00;CYQB 251000Z 22003KT 15SM FEW200 M05/M08 A2984 RMK CI1 SLP109

CYQB;2010-03-25 11:00;CYQB 251100Z 23003KT 30SM FEW200 M07/M09 A2985 RMK CI1 SLP111

CYQB;2010-03-25 12:00;CYQB 251200Z 25002KT 30SM FEW200 M06/M08 A2984 RMK CI1 SLP108

CYQB;2010-03-25 13:00;CYQB 251300Z 24007KT 30SM SKC M02/M06 A2984 RMK SLP109

CYQB;2010-03-25 14:00;CYQB 251400Z 27005KT 30SM FEW200 M00/M06 A2982 RMK CI0 SLP102

CYQB;2010-03-25 15:00;CYQB 251500Z 26006KT 30SM FEW200 01/M06 A2979 RMK CI0 SLP091

CYQB;2010-03-25 16:00;CYQB 251600Z 19003KT 30SM FEW200 04/M05 A2975 RMK CI1 SLP079

CYQB;2010-03-25 17:00;CYQB 251700Z 34002KT 30SM BKN200 05/M05 A2971 RMK CI2 SLP065

CYQB;2010-03-25 18:00;CYQB 251800Z 32003KT 30SM BKN200 07/M03 A2965 RMK CI5 PRESFR SLP044

CYQB;2010-03-25 19:00;CYQB 251900Z 24013KT 30SM BKN200 09/M02 A2961 RMK CI5 SLP032

CYQB;2010-03-25 20:00;CYQB 252000Z 24015KT 30SM FEW060 SCT090 BKN200 10/M01 A2959 RMK CU1AC2CI2 SLP022

CYQB;2010-03-25 21:00;CYQB 252100Z 24019G24KT 30SM FEW060 SCT090 BKN200 10/M01 A2956 RMK CU2AC2CI3 SLP013

CYQB;2010-03-25 22:00;CYQB 252200Z 27018G26KT 10SM -SHRA FEW040 BKN060 OVC090 08/M01 A2958 RMK CF1SC6AC1 SLP019

CYQB;2010-03-25 23:00;CYQB 252300Z 31014G22KT 12SM -SHRA BKN044 OVC060 04/M01 A2964 RMK SC7SC1 VIS LWR NW SLP040

CYQB;2010-03-26 00:00;CYQB 260000Z 32008KT 6SM -SHSN FEW020 OVC043 02/M02 A2967 RMK SC2SC6 SLP051

CYQB;2010-03-26 01:00;CYQB 260100Z 33016G22KT 15SM FEW045 OVC060 02/M08 A2971 RMK SC1SC7 SLP064

CYQB;2010-03-26 02:00;CYQB 260200Z 33016KT 15SM FEW045 OVC072 M01/M15 A2975 RMK SC1AC7 SLP080

CYQB;2010-03-26 03:00;CYQB 260300Z 35011G18KT 15SM BKN078 M03/M16 A2981 RMK AC7 SLP097

CYQB;2010-03-26 04:00;CYQB 260400Z 34015G20KT 15SM BKN081 M05/M17 A2985 RMK AC7 SLP112

CYQB;2010-03-26 05:00;CYQB 260500Z 33013G19KT 15SM BKN088 M07/M18 A2988 RMK AC5 SLP123

CYQB;2010-03-26 06:00;CYQB 260600Z 33013G20KT 15SM BKN088 M09/M19 A2991 RMK AC5 SLP133

CYQB;2010-03-26 07:00;CYQB 260700Z 34016G21KT 15SM FEW090 M10/M20 A2993 RMK AC2 SLP140

CYQB;2010-03-26 08:00;CYQB 260800Z 32009KT 15SM FEW210 M11/M20 A2995 RMK CI1 SLP145

CYQB;2010-03-26 09:00;CYQB 260900Z 33011G16KT 15SM FEW210 M12/M21 A2998 RMK CI1 SLP155

CYQB;2010-03-26 10:00;CYQB 261000Z 33008KT 15SM FEW200 M13/M24 A3002 RMK CI0 SLP169

CYQB;2010-03-26 11:00;CYQB 261100Z 32004KT 30SM FEW200 M14/M24 A3004 RMK CI0 SLP177

CYQB;2010-03-26 12:00;CYQB 261200Z 32006KT 30SM FEW090 FEW200 M14/M23 A3006 RMK AC0CI0 SLP186

CYQB;2010-03-26 13:00;CYQB 261300Z 34007KT 30SM FEW160 FEW200 M13/M24 A3010 RMK AC0CI0 SLP199

CYQB;2010-03-26 14:00;CYQB 261400Z 32007KT 30SM FEW160 FEW220 M11/M22 A3011 RMK AC1CI1 SLP201

CYQB;2010-03-26 15:00;CYQB 261500Z 34008KT 30SM FEW050 FEW220 M09/M23 A3011 RMK SC1CI0 SLP200

CYQB;2010-03-26 16:00;CYQB 261600Z 30006G15KT 30SM FEW060 FEW220 M08/M22 A3009 RMK SC1CI1 SLP196

CYQB;2010-03-26 17:00;CYQB 261700Z 29011G16KT 30SM FEW055 FEW220 M07/M20 A3009 RMK SC1CI1 SLP194

CYQB;2010-03-26 18:00;CYQB 261800Z 32003KT 30SM FEW055 FEW220 M07/M22 A3008 RMK SC1CI0 SLP191

CYQB;2010-03-26 19:00;CYQB 261900Z CCA 29010KT 30SM FEW055 FEW220 M06/M21 A3007 RMK SC1CI0 OBS TAKEN +10 SLP188

CYQB;2010-03-26 20:00;CYQB 262000Z 30011KT 30SM SKC M05/M19 A3007 RMK SLP188

CYQB;2010-03-26 21:00;CYQB 262100Z 31009KT 30SM SKC M05/M20 A3008 RMK SLP192

CYQB;2010-03-26 22:00;CYQB 262200Z 30013KT 30SM FEW050 M06/M20 A3010 RMK CF1 SLP199

CYQB;2010-03-26 23:00;CYQB 262300Z 29008KT 30SM SKC M06/M19 A3014 RMK SLP211

CYQB;2010-03-27 00:00;CYQB 270000Z 32008KT 15SM SKC M07/M22 A3017 RMK SLP224

CYQB;2010-03-27 01:00;CYQB 270100Z 33008KT 15SM SKC M08/M23 A3021 RMK SLP235

CYQB;2010-03-27 02:00;CYQB 270200Z 33007KT 15SM SKC M09/M24 A3023 RMK SLP244

CYQB;2010-03-27 03:00;CYQB 270300Z 35009KT 15SM SKC M09/M23 A3025 RMK SLP249

CYQB;2010-03-27 04:00;CYQB 270400Z 36010KT 15SM SKC M11/M22 A3027 RMK SLP256

CYQB;2010-03-27 05:00;CYQB 270500Z 02008KT 15SM SKC M12/M24 A3030 RMK SLP265

CYQB;2010-03-27 06:00;CYQB 270600Z 00000KT 15SM SKC M13/M24 A3032 RMK SLP273

CYQB;2010-03-27 07:00;CYQB 270700Z 00000KT 15SM SKC M13/M24 A3034 RMK SLP280

CYQB;2010-03-27 08:00;CYQB 270800Z 30004KT 15SM SKC M14/M22 A3036 RMK SLP285

CYQB;2010-03-27 09:00;CYQB 270900Z 32005KT 15SM FEW200 M15/M23 A3039 RMK CI1 SLP295

CYQB;2010-03-27 10:00;CYQB 271000Z 32004KT 15SM FEW200 M15/M23 A3040 RMK CI1 SLP300

CYQB;2010-03-27 11:00;CYQB 271100Z 34005KT 15SM FEW030 M14/M24 A3042 RMK SC1 SLP307

CYQB;2010-03-27 12:00;CYQB 271200Z 34005KT 15SM FEW030 M13/M23 A3044 RMK SC1 SLP314

CYQB;2010-03-27 13:00;CYQB 271300Z 34007KT 30SM FEW070 FEW210 M12/M24 A3046 RMK AC1CI1 SLP321

CYQB;2010-03-27 14:00;CYQB 271400Z 28005KT 30SM FEW070 FEW210 M10/M23 A3047 RMK AC1CI1 SLP326

CYQB;2010-03-27 15:00;CYQB 271500Z 27004KT 30SM SKC M09/M21 A3047 RMK SLP324

CYQB;2010-03-27 16:00;CYQB 271600Z 19007KT 30SM SKC M08/M19 A3044 RMK SLP316

CYQB;2010-03-27 17:00;CYQB 271700Z 21010KT 30SM FEW210 M08/M19 A3042 RMK CI0 SLP309

CYQB;2010-03-27 18:00;CYQB 271800Z 23008KT 30SM SKC M06/M18 A3041 RMK SLP303

CYQB;2010-03-27 19:00;CYQB 271900Z 21010G15KT 30SM SKC M05/M18 A3040 RMK SLP299

CYQB;2010-03-27 20:00;CYQB 272000Z 20013KT 30SM FEW220 M04/M18 A3038 RMK CI1 SLP294

CYQB;2010-03-27 21:00;CYQB 272100Z 23010KT 30SM BKN220 M04/M17 A3038 RMK CI2 SLP293

CYQB;2010-03-27 22:00;CYQB 272200Z 25005KT 30SM FEW150 BKN210 M04/M16 A3037 RMK AC2CS2 CONTRAILS SLP290

CYQB;2010-03-27 23:00;CYQB 272300Z 20002KT 30SM BKN240 M04/M17 A3037 RMK CS2 SLP289

CYQB;2010-03-28 00:00;CYQB 280000Z 00000KT 15SM FEW150 BKN200 M04/M17 A3037 RMK AC2CS2 SLP291

CYQB;2010-03-28 01:00;CYQB 280100Z 02003KT 15SM SCT070 BKN190 M04/M16 A3038 RMK AC3CS1 SLP292

CYQB;2010-03-28 02:00;CYQB 280200Z 05003KT 15SM OVC073 M04/M15 A3037 RMK AC8 SLP290

CYQB;2010-03-28 03:00;CYQB 280300Z 04004KT 15SM SCT069 M04/M14 A3036 RMK AC2 SLP288

CYQB;2010-03-28 04:00;CYQB 280400Z 05005KT 15SM BKN081 M04/M13 A3036 RMK AC6 SLP287

CYQB;2010-03-28 05:00;CYQB 280500Z 05005KT 15SM BKN078 M04/M14 A3036 RMK AC3 SLP286

CYQB;2010-03-28 06:00;CYQB 280600Z 06007KT 15SM OVC064 M04/M13 A3035 RMK SC7 SLP281

CYQB;2010-03-28 07:00;CYQB 280700Z 06007KT 15SM BKN060 OVC120 M05/M14 A3032 RMK SC6AC2 SLP273

CYQB;2010-03-28 08:00;CYQB 280800Z 06009KT 15SM OVC060 M05/M13 A3030 RMK SC8 SLP267

CYQB;2010-03-28 09:00;CYQB 280900Z 06007KT 15SM SCT060 BKN100 M05/M13 A3029 RMK SC3AC2 SLP263

CYQB;2010-03-28 10:00;CYQB 281000Z 07008KT 15SM FEW072 SCT240 M05/M12 A3028 RMK AC2CI1 SLP258

CYQB;2010-03-28 11:00;CYQB 281100Z 06008KT 15SM BKN062 OVC080 M04/M11 A3028 RMK SC6AC2 SLP260

CYQB;2010-03-28 12:00;CYQB 281200Z 06006KT 15SM FEW060 FEW080 OVC240 M04/M11 A3027 RMK SC1AC1CI5 SLP254

CYQB;2010-03-28 13:00;CYQB 281300Z 07008KT 15SM FEW080 OVC150 M03/M10 A3024 RMK AC1AC8 SLP246

CYQB;2010-03-28 14:00;CYQB 281400Z 07010KT 15SM FEW080 OVC150 M01/M08 A3022 RMK AC1AC8 SLP240

CYQB;2010-03-28 15:00;CYQB 281500Z 08005KT 15SM OVC100 00/M08 A3022 RMK AC8 SLP237

CYQB;2010-03-28 16:00;CYQB 281600Z 07009KT 15SM OVC090 00/M07 A3019 RMK AC8 SLP229

CYQB;2010-03-28 17:00;CYQB 281700Z 07009KT 15SM FEW060 OVC100 01/M06 A3016 RMK SC2AC6 SLP218

CYQB;2010-03-28 18:00;CYQB 281800Z 05006KT 15SM FEW120 OVC200 03/M06 A3012 RMK AC2CI5 SLP204

CYQB;2010-03-28 19:00;CYQB 281900Z 05007KT 15SM FEW120 BKN200 04/M05 A3010 RMK AC2CI4 SLP196

CYQB;2010-03-28 20:00;CYQB 282000Z 20009KT 15SM SCT070 OVC200 06/M08 A3008 RMK AC3CI4 SLP192

CYQB;2010-03-28 21:00;CYQB 282100Z 21012G17KT 15SM BKN070 OVC200 06/M06 A3007 RMK AC6CI1 SLP187

CYQB;2010-03-28 22:00;CYQB 282200Z CCB 21006KT 15SM OVC063 05/M05 A3007 RMK SC8 SLP186

CYQB;2010-03-28 23:00;CYQB 282300Z 19003KT 15SM BKN060 OVC200 05/M05 A3007 RMK SC7CI1 SLP186

CYQB;2010-03-29 00:00;CYQB 290000Z 15005KT 15SM OVC058 05/M05 A3007 RMK SC8 SLP187

CYQB;2010-03-29 01:00;CYQB 290100Z 16004KT 15SM OVC056 04/M04 A3008 RMK SC8 SLP189

CYQB;2010-03-29 02:00;CYQB 290200Z 17004KT 15SM OVC047 04/M05 A3008 RMK SC8 SLP190

CYQB;2010-03-29 02:53;CYQB 290253Z 19013KT 10SM -RA OVC050 04/ RMK SC8

CYQB;2010-03-29 03:00;CYQB 290300Z 20012KT 15SM -RA OVC050 04/M03 A3009 RMK SC8 SLP194

CYQB;2010-03-29 04:00;CYQB 290400Z 18004KT 15SM OVC041 04/M03 A3008 RMK SC8 SLP189

CYQB;2010-03-29 05:00;CYQB 290500Z 27003KT 10SM -RASN OVC027 02/M01 A3008 RMK SC8 SLP189

CYQB;2010-03-29 05:40;CYQB 290540Z 06005KT 2SM -SN OVC022 01/M00 RMK SC8

CYQB;2010-03-29 06:00;CYQB 290600Z 06005KT 1 1/2SM -SN OVC020 00/M00 A3005 RMK SC8 SLP180

CYQB;2010-03-29 06:37;CYQB 290637Z 07006KT 3/4SM R06/P6000FT/D -SN OVC010 00/ RMK SN6SC2

CYQB;2010-03-29 07:00;CYQB 290700Z CCA 06007KT 3/4SM R06/P6000FT/D -SN VV005 00/M00 A3001 RMK SN8 /S01/ SLP167

CYQB;2010-03-29 08:00;CYQB 290800Z 07006KT 3/4SM R06/P6000FT/D -SN VV006 00/M00 A2999 RMK SN8 SLP159

CYQB;2010-03-29 08:35;CYQB 290835Z 08006KT 1/2SM R06/3000VP6000FT/D SN VV005 00/ RMK SN8 /S02/

CYQB;2010-03-29 09:00;CYQB 290900Z 07007KT 1/2SM R06/3000VP6000FT/D SN FEW002 VV005 00/M00 A2996 RMK SF2SN6 SLP147

CYQB;2010-03-29 10:00;CYQB 291000Z 07008KT 3/4SM R06/P6000FT/U -SN VV010 00/M00 A2992 RMK SN8 SLP136

CYQB;2010-03-29 10:07;CYQB 291007Z 06007KT 1SM R06/P6000FT/U -SN FEW002 VV010 00/ RMK SF2SN6

CYQB;2010-03-29 11:00;CYQB 291100Z 07009KT 1 1/4SM -SN FEW002 VV010 00/M00 A2990 RMK SF2SN6 SLP128

CYQB;2010-03-29 12:00;CYQB 291200Z 07008KT 1SM R06/P6000FT/U -SN FEW002 VV012 00/M00 A2989 RMK SF2SN6 SLP125

CYQB;2010-03-29 12:21;CYQB 291221Z 07008KT 1SM R06/P6000FT/D -SNPL FEW002 VV010 00/M00 RMK SF2SN6

CYQB;2010-03-29 13:00;CYQB 291300Z 08007KT 3/4SM R06/P6000FT/N -SNPL FEW002 VV012 00/00 A2987 RMK SF1SN7 SLP118

CYQB;2010-03-29 14:00;CYQB 291400Z 07007KT 1 1/4SM -SNPL FEW003 VV012 01/00 A2986 RMK SF1SN7 SLP113

CYQB;2010-03-29 14:40;CYQB 291440Z 05006KT 1 1/4SM -RA SCT002 OVC013 01/00 RMK SF3SC5

CYQB;2010-03-29 15:00;CYQB 291500Z 06007KT 1 1/4SM -RA BKN002 OVC013 01/00 A2984 RMK SF7SC1 SLP108

CYQB;2010-03-29 15:40;CYQB 291540Z 07008KT 1 1/2SM -RA BR FEW002 OVC014 01/ RMK SF2SC6

CYQB;2010-03-29 16:00;CYQB 291600Z 07009KT 1 1/2SM -RA BR FEW002 OVC014 01/01 A2982 RMK SF2SC6 SLP100

CYQB;2010-03-29 17:00;CYQB 291700Z 07005KT 4SM -RA BR BKN003 OVC014 01/01 A2980 RMK SF5SC3 SLP095

CYQB;2010-03-29 18:00;CYQB 291800Z 07006KT 5SM -RA BR BKN004 OVC015 02/01 A2979 RMK SF6SC2 SLP092

CYQB;2010-03-29 19:00;CYQB 291900Z 08005KT 4SM -RA BR OVC004 02/02 A2978 RMK SF8 SLP087

CYQB;2010-03-29 20:00;CYQB 292000Z 11004KT 4SM -RA BR OVC004 02/02 A2978 RMK SF8 SLP087

CYQB;2010-03-29 21:00;CYQB 292100Z CCA 09002KT 4SM -RA BR BKN004 OVC012 02/02 A2979 RMK SF7SC1 SLP091

CYQB;2010-03-29 22:00;CYQB 292200Z 13002KT 5SM -RA BR SCT004 BKN008 OVC012 02/01 A2981 RMK SF4SC2SC2 SLP096

CYQB;2010-03-29 22:21;CYQB 292221Z 17002KT 5SM -RA BR BKN005 OVC008 02/ RMK SF6SC2

CYQB;2010-03-29 22:37;CYQB 292237Z 18003KT 2SM -RA BR OVC002 02/ RMK FG1SF7

CYQB;2010-03-29 23:00;CYQB 292300Z 18003KT 3SM -RA BR OVC005 02/01 A2983 RMK SF8 SLP105

CYQB;2010-03-29 23:33;CYQB 292333Z 00000KT 4SM -RA BR OVC006 01/ RMK SF8

CYQB;2010-03-30 00:00;CYQB 300000Z 21002KT 4SM -RA BR OVC006 02/01 A2986 RMK SF8 SLP115

CYQB;2010-03-30 00:30;CYQB 300030Z 00000KT 2SM -DZ BR OVC004 02/ RMK FG2SF6

CYQB;2010-03-30 01:00;CYQB 300100Z 11003KT 1SM R06/P6000FT/D -DZ BR OVC003 02/01 A2989 RMK FG3SF5 SLP124

CYQB;2010-03-30 01:34;CYQB 300134Z 08006KT 1 1/2SM -DZ BR OVC004 02/ RMK FG2SF6

CYQB;2010-03-30 02:00;CYQB 300200Z 06006KT 1 1/2SM -DZ BR BKN002 OVC005 02/01 A2991 RMK FG2SF5SF1 SLP132

CYQB;2010-03-30 02:43;CYQB 300243Z 07003KT 2SM -DZ BR OVC007 01/ RMK FG2SF6

CYQB;2010-03-30 03:00;CYQB 300300Z 00000KT 2SM -DZ BR BKN007 OVC050 01/01 A2993 RMK FG2SF6SC1 SLP139

CYQB;2010-03-30 04:00;CYQB 300400Z 22002KT 1 1/4SM R06/3000VP6000FT/U -DZ BR BKN002 OVC008 01/01 A2997 RMK FG2SF5SF1 SLP151

CYQB;2010-03-30 05:00;CYQB 300500Z 09002KT 1 1/4SM R06/4500VP6000FT/D -DZ BR OVC003 01/01 A2999 RMK FG2SF6 SLP160

CYQB;2010-03-30 06:00;CYQB 300600Z 03005KT 1 1/2SM BR OVC003 01/01 A2999 RMK FG3SF5 SLP159

CYQB;2010-03-30 07:00;CYQB 300700Z 10004KT 1 1/2SM BR OVC002 01/00 A3001 RMK FG5SF3 SLP167

CYQB;2010-03-30 08:00;CYQB 300800Z 01003KT 1 1/2SM BR OVC005 01/00 A3003 RMK FG2SF6 SLP174

CYQB;2010-03-30 09:00;CYQB 300900Z 04003KT 3SM BR OVC003 01/00 A3005 RMK SF8 SLP178

CYQB;2010-03-30 10:00;CYQB 301000Z 02005KT 3SM BR OVC006 01/00 A3006 RMK ST8 SLP184

CYQB;2010-03-30 11:00;CYQB 301100Z 03008KT 3SM BR FEW004 OVC006 00/M01 A3007 RMK SF2ST6 SLP186

CYQB;2010-03-30 11:17;CYQB 301117Z 06003KT 3SM BR OVC003 00/ RMK ST8 VIS LWR N-E

CYQB;2010-03-30 12:00;CYQB 301200Z 04002KT 3SM BR OVC005 00/M01 A3010 RMK ST8 SLP196

CYQB;2010-03-30 13:00;CYQB 301300Z 00000KT 4SM BR BKN008 01/M00 A3012 RMK ST7 VIS LWR N SLP202

CYQB;2010-03-30 13:36;CYQB 301336Z 07012KT 4SM BR SCT008 OVC012 02/ RMK SF4SF4

CYQB;2010-03-30 14:00;CYQB 301400Z 06013KT 5SM BR SCT009 OVC013 02/M00 A3012 RMK SF4SF4 SLP202

CYQB;2010-03-30 14:33;CYQB 301433Z 05019G24KT 6SM BR FEW009 SCT014 OVC170 02/ RMK SF2SF2CI4

CYQB;2010-03-30 15:00;CYQB 301500Z 07013G24KT 8SM FEW009 BKN015 BKN180 02/M00 A3012 RMK SF2CF4CI2 SLP203

CYQB;2010-03-30 16:00;CYQB 301600Z 07017G26KT 10SM FEW009 SCT015 BKN180 03/M01 A3012 RMK SF1CF2CI4 SLP202

CYQB;2010-03-30 17:00;CYQB 301700Z 07011G24KT 15SM FEW015 BKN200 04/M02 A3010 RMK CF2CI5 SLP196

CYQB;2010-03-30 18:00;CYQB 301800Z 08015G28KT 15SM FEW015 BKN220 04/M02 A3009 RMK CF2CI6 SLP192

CYQB;2010-03-30 19:00;CYQB 301900Z 07021G32KT 15SM FEW015 FEW100 OVC200 04/M02 A3005 RMK SC2AC1CI6 SLP180

CYQB;2010-03-30 20:00;CYQB 302000Z 07015G27KT 15SM BKN080 OVC200 04/M03 A3003 RMK AC5CI3 SLP173

CYQB;2010-03-30 21:00;CYQB 302100Z 08015KT 15SM BKN070 OVC200 03/M02 A3003 RMK AC7CI1 SLP173

CYQB;2010-03-30 22:00;CYQB 302200Z 07014G22KT 15SM BKN060 OVC200 03/M02 A3003 RMK SC7CI1 SLP171

CYQB;2010-03-30 22:31;CYQB 302231Z 07018G25KT 15SM -RA BKN057 OVC200 02/ RMK SC7CI1

CYQB;2010-03-30 23:00;CYQB 302300Z 06017G24KT 15SM -RA FEW048 BKN055 OVC200 03/M02 A3001 RMK SC1SC6CI1 SLP165

CYQB;2010-03-30 23:35;CYQB 302335Z 07020G29KT 15SM -RA BKN049 BKN060 OVC200 02/ RMK SC5SC2CI1

CYQB;2010-03-31 00:00;CYQB 310000Z 07017G25KT 15SM -SHRA BKN044 OVC056 02/M03 A3001 RMK SC6SC2 SLP165

CYQB;2010-03-31 01:00;CYQB 310100Z 07019G27KT 15SM SCT040 BKN050 OVC110 03/M03 A3001 RMK SC4SC3AC1 SLP166

CYQB;2010-03-31 02:00;CYQB 310200Z 07018KT 15SM BKN040 BKN050 OVC110 03/M02 A3000 RMK SC5SC2AC1 SLP161

CYQB;2010-03-31 03:00;CYQB 310300Z 07012G18KT 15SM FEW020 BKN045 OVC060 02/M01 A2999 RMK SC2SC6SC1 SLP159

CYQB;2010-03-31 04:00;CYQB 310400Z 07012KT 15SM FEW008 SCT025 BKN045 OVC060 02/00 A2998 RMK SF2SC2SC3SC1 SLP155

CYQB;2010-03-31 05:00;CYQB 310500Z 08012G18KT 10SM BKN005 OVC020 02/01 A2997 RMK SF7SC1 SLP154

CYQB;2010-03-31 06:00;CYQB 310600Z 07013G20KT 6SM BR OVC005 02/01 A2996 RMK SF8 SLP150

CYQB;2010-03-31 07:00;CYQB 310700Z 07017KT 6SM BR OVC005 02/01 A2996 RMK SF8 SLP150

CYQB;2010-03-31 07:33;CYQB 310733Z 07016KT 6SM -RA BR OVC005 02/ RMK SF8

CYQB;2010-03-31 08:00;CYQB 310800Z 07016KT 6SM -RA BR OVC005 02/01 A2995 RMK SF8 SLP145

CYQB;2010-03-31 09:00;CYQB 310900Z 07017G22KT 6SM BR OVC007 03/01 A2995 RMK SF8 SLP144

CYQB;2010-03-31 10:00;CYQB 311000Z 07017G25KT 6SM -RA BR BKN010 OVC019 03/01 A2995 RMK SC6SC2 SLP145

CYQB;2010-03-31 11:00;CYQB 311100Z CCA 07015G20KT 12SM -RA BKN009 BKN025 03/01 A2996 RMK SF6SC1 SLP149

CYQB;2010-03-31 12:00;CYQB 311200Z 07018G26KT 12SM -RA BKN009 OVC023 03/01 A2997 RMK SF6SC2 SLP151

CYQB;2010-03-31 13:00;CYQB 311300Z 06017KT 15SM BKN009 OVC026 03/01 A2998 RMK SF7SC1 SLP156

CYQB;2010-03-31 14:00;CYQB 311400Z 07009G19KT 15SM BKN010 OVC025 03/01 A2999 RMK SF6SC2 SLP158

CYQB;2010-03-31 15:00;CYQB 311500Z CCA 09011KT 15SM FEW010 BKN025 OVC080 04/02 A2998 RMK SF2SC4AC2 SLP157

CYQB;2010-03-31 16:00;CYQB 311600Z 09013G18KT 20SM FEW010 SCT025 BKN120 04/02 A2998 RMK SF1SC3AC3 SLP155

CYQB;2010-03-31 16:45;CYQB 311645Z 08011KT 30SM BKN011 BKN025 BKN120 04/ RMK SF5SC2AC1

CYQB;2010-03-31 17:00;CYQB 311700Z 09013KT 20SM BKN011 BKN025 BKN120 04/02 A3000 RMK SF6SC1AC1 SLP162

CYQB;2010-03-31 18:00;CYQB 311800Z 08014G22KT 20SM -SHRA BKN012 BKN026 OVC076 04/02 A3001 RMK SF5SC2AC1 SLP167

CYQB;2010-03-31 18:37;CYQB 311837Z 09013G18KT 20SM SCT012 BKN026 OVC080 04/ RMK SF4SC2AC1

CYQB;2010-03-31 19:00;CYQB 311900Z 09014KT 20SM SCT011 BKN026 OVC060 04/02 A3001 RMK SF3SC3SC1 SLP165

CYQB;2010-03-31 19:34;CYQB 311934Z 08012G18KT 15SM BKN009 OVC028 03/ RMK SF6SC2

CYQB;2010-03-31 20:00;CYQB 312000Z 09012KT 15SM BKN009 OVC028 03/01 A3001 RMK SF7SC1 SLP166

CYQB;2010-03-31 21:00;CYQB 312100Z 07014G19KT 15SM OVC008 03/01 A3002 RMK SF8 SLP169

CYQB;2010-03-31 22:00;CYQB 312200Z 07013G19KT 15SM OVC008 02/00 A3003 RMK SF8 SLP173

CYQB;2010-03-31 23:00;CYQB 312300Z 06013G20KT 12SM OVC008 02/00 A3006 RMK SF8 SLP181

CYQB;2010-04-01 01:00;CYQB 010100Z 08007KT 8SM OVC007 02/00 A3008 RMK SF8 SLP190

CYQB;2010-04-01 01:21;CYQB 010121Z 08007KT 8SM OVC005 02/ RMK SF8

CYQB;2010-04-01 02:00;CYQB 010200Z 06010G16KT 8SM OVC006 01/00 A3009 RMK SF8 SLP192

CYQB;2010-04-01 03:00;CYQB 010300Z 06011KT 6SM BR OVC006 01/00 A3010 RMK SF8 SLP196

CYQB;2010-04-01 04:00;CYQB 010400Z 08006KT 6SM BR OVC005 01/00 A3009 RMK SF8 SLP193

CYQB;2010-04-01 05:00;CYQB 010500Z 07006KT 6SM BR OVC005 01/00 A3010 RMK SF8 SLP196

CYQB;2010-04-01 06:00;CYQB 010600Z 06007KT 5SM BR OVC004 01/00 A3011 RMK SF8 SLP199

CYQB;2010-04-01 07:00;CYQB 010700Z 07010KT 6SM BR OVC005 01/00 A3011 RMK SF8 SLP199

CYQB;2010-04-01 08:00;CYQB 010800Z 07009KT 4SM BR OVC005 01/00 A3011 RMK SF8 SLP201

CYQB;2010-04-01 09:00;CYQB 010900Z 06008KT 5SM BR OVC005 01/00 A3015 RMK SF8 SLP212

CYQB;2010-04-01 09:35;CYQB 010935Z 07007KT 4SM BR OVC004 01/ RMK SF8

CYQB;2010-04-01 10:00;CYQB 011000Z 08004KT 4SM BR OVC004 01/00 A3016 RMK SF8 SLP217

CYQB;2010-04-01 11:00;CYQB 011100Z 07006KT 4SM BR OVC004 01/00 A3018 RMK SF8 SLP222

CYQB;2010-04-01 12:00;CYQB 011200Z 07006KT 1 1/2SM BR OVC003 01/01 A3017 RMK FG3SF5 SLP221

CYQB;2010-04-01 13:00;CYQB 011300Z 09006KT 1 1/2SM BR BKN003 OVC005 01/01 A3016 RMK FG3SF3SF2 SLP216

CYQB;2010-04-01 13:38;CYQB 011338Z 07009KT 2SM BR OVC005 02/ RMK FG2SF6

CYQB;2010-04-01 14:00;CYQB 011400Z 06005KT 2 1/2SM BR OVC005 02/01 A3019 RMK FG1SF7 SLP225

CYQB;2010-04-01 14:46;CYQB 011446Z 09007KT 3SM BR OVC007 03/ RMK SF8

CYQB;2010-04-01 15:00;CYQB 011500Z 10006KT 3SM BR OVC008 03/01 A3018 RMK SF8 SLP223

CYQB;2010-04-01 16:00;CYQB 011600Z 09003KT 6SM BR BKN009 03/01 A3017 RMK SF7 SLP219

CYQB;2010-04-01 16:34;CYQB 011634Z 08007KT 15SM FEW009 SCT025 BKN220 04/ RMK SF2SC1CI1

CYQB;2010-04-01 17:00;CYQB 011700Z 11003KT 30SM FEW015 SCT250 05/02 A3016 RMK SC1CI1 SLP216

CYQB;2010-04-01 18:00;CYQB 011800Z 06005KT 30SM FEW250 07/03 A3014 RMK CI1 SLP211

CYQB;2010-04-01 19:00;CYQB 011900Z 10003KT 30SM FEW250 08/03 A3012 RMK CI1 SLP204

CYQB;2010-04-01 20:00;CYQB 012000Z 00000KT 30SM FEW250 09/03 A3011 RMK CI0 SLP199

CYQB;2010-04-01 21:00;CYQB 012100Z 09004KT 30SM FEW250 09/04 A3009 RMK CI0 SLP193

CYQB;2010-04-01 22:00;CYQB 012200Z 08004KT 30SM FEW250 09/03 A3009 RMK CI1 SLP192

CYQB;2010-04-01 23:00;CYQB 012300Z 05005KT 30SM FEW250 07/02 A3009 RMK CI1 SLP191

CYQB;2010-04-02 00:00;CYQB 020000Z 08004KT 15SM FEW250 06/02 A3010 RMK CI1 SLP196

CYQB;2010-04-02 01:00;CYQB 020100Z 05005KT 15SM FEW250 04/02 A3011 RMK CI1 SLP199

CYQB;2010-04-02 02:00;CYQB 020200Z 06005KT 15SM FEW240 03/01 A3011 RMK CI1 SLP198

CYQB;2010-04-02 03:00;CYQB 020300Z 06006KT 15SM SKC 03/01 A3011 RMK SLP198

CYQB;2010-04-02 03:05;CYQB 020305Z 07007KT 15SM SKC 02/

CYQB;2010-04-02 04:00;CYQB 020400Z 06005KT 15SM SKC 02/01 A3011 RMK SLP198

CYQB;2010-04-02 05:00;CYQB 020500Z 04003KT 15SM FEW008 02/01 A3011 RMK SF1 SLP198

CYQB;2010-04-02 06:00;CYQB 020600Z 05004KT 15SM FEW008 01/00 A3011 RMK SF1 SLP198

CYQB;2010-04-02 07:00;CYQB 020700Z 06006KT 15SM FEW008 01/00 A3009 RMK SF1 SLP193

CYQB;2010-04-02 07:39;CYQB 020739Z 07008KT 1/4SM R06/P6000FT/D FG VV001 01/ RMK FG8

CYQB;2010-04-02 08:00;CYQB 020800Z 06006KT 1/4SM R06/2200FT/N FG VV001 01/00 A3010 RMK FG8 SLP195

CYQB;2010-04-02 09:00;CYQB 020900Z 07008KT 1/4SM R06/2400FT/N FG VV001 00/M00 A3011 RMK FG8 SLP201

CYQB;2010-04-02 10:00;CYQB 021000Z 07009KT 1/4SM R06/2000FT/N FZFG VV001 00/M00 A3014 RMK FG8 SLP208

CYQB;2010-04-02 11:00;CYQB 021100Z 07009KT 1/4SM R06/1600FT/N FZFG VV001 M00/M00 A3015 RMK FG8 SLP212

CYQB;2010-04-02 12:00;CYQB 021200Z 05008KT 1/4SM R06/1200FT/N FZFG VV001 00/00 A3016 RMK FG8 SLP215

CYQB;2010-04-02 13:00;CYQB 021300Z 06010KT 1/4SM R06/1400V2400FT/N FG VV001 01/00 A3015 RMK FG8 SLP213

CYQB;2010-04-02 14:00;CYQB 021400Z 06007KT 1 1/4SM BR OVC003 01/01 A3014 RMK FG3SF5 SLP210

CYQB;2010-04-02 14:17;CYQB 021417Z 08007KT 3SM BR OVC013 02/ RMK FG2SF6

CYQB;2010-04-02 14:40;CYQB 021440Z 05005KT 6SM BR SCT003 BKN220 03/ RMK SF3CI0

CYQB;2010-04-02 15:00;CYQB 021500Z 06007KT 6SM BR FEW003 BKN220 05/03 A3012 RMK SF2CI0 SLP203

CYQB;2010-04-02 16:00;CYQB 021600Z 05005KT 8SM BKN220 07/04 A3012 RMK CI2 SLP203

CYQB;2010-04-02 17:00;CYQB 021700Z 09004KT 8SM BKN220 09/04 A3010 RMK CI2 SLP196

CYQB;2010-04-02 18:00;CYQB 021800Z 10006KT 10SM SCT220 12/06 A3008 RMK CI1 SLP188

CYQB;2010-04-02 19:00;CYQB 021900Z 06005KT 15SM FEW220 14/06 A3005 RMK CI0 SLP179

CYQB;2010-04-02 20:00;CYQB 022000Z 07004KT 15SM FEW220 15/07 A3003 RMK CI0 SLP173

CYQB;2010-04-02 21:00;CYQB 022100Z 00000KT 15SM FEW220 17/07 A3002 RMK CI0 SLP169

CYQB;2010-04-02 22:00;CYQB 022200Z 07003KT 15SM FEW220 15/07 A3001 RMK CI1 SLP165

CYQB;2010-04-02 23:00;CYQB 022300Z 06005KT 15SM FEW220 11/05 A3003 RMK CI1 SLP171

CYQB;2010-04-03 00:00;CYQB 030000Z 05004KT 15SM FEW220 09/05 A3003 RMK CI1 SLP170

CYQB;2010-04-03 01:00;CYQB 030100Z 06002KT 15SM SKC 08/04 A3002 RMK SLP167

CYQB;2010-04-03 02:00;CYQB 030200Z 09002KT 15SM SKC 06/04 A3001 RMK SLP165

CYQB;2010-04-03 03:00;CYQB 030300Z 06002KT 15SM SKC 05/03 A3001 RMK SLP164

CYQB;2010-04-03 04:00;CYQB 030400Z 07005KT 15SM SKC 06/03 A3001 RMK SLP166

CYQB;2010-04-03 05:00;CYQB 030500Z 00000KT 15SM SKC 05/03 A3001 RMK SLP164

CYQB;2010-04-03 06:00;CYQB 030600Z 06003KT 15SM SKC 04/02 A3000 RMK SLP163

CYQB;2010-04-03 07:00;CYQB 030700Z 03006KT 15SM SKC 05/03 A3000 RMK SLP161

CYQB;2010-04-03 08:00;CYQB 030800Z 00000KT 15SM SKC 05/03 A3000 RMK SLP161

CYQB;2010-04-03 09:00;CYQB 030900Z 00000KT 15SM SKC 03/01 A3000 RMK SLP160

CYQB;2010-04-03 10:00;CYQB 031000Z 21009KT 15SM SKC 02/01 A3001 RMK SLP164

CYQB;2010-04-03 11:00;CYQB 031100Z 00000KT 10SM FEW240 03/02 A3002 RMK CI1 SLP168

CYQB;2010-04-03 12:00;CYQB 031200Z 00000KT 25SM FEW240 07/05 A3003 RMK CI1 SLP172

CYQB;2010-04-03 13:00;CYQB 031300Z 26002KT 25SM FEW240 10/06 A3004 RMK CI1 SLP174

CYQB;2010-04-03 14:00;CYQB 031400Z 27003KT 30SM FEW260 16/09 A3003 RMK CI1 SLP170

CYQB;2010-04-03 15:00;CYQB 031500Z 24009KT 30SM BKN260 18/10 A3001 RMK CI2 SLP164

CYQB;2010-04-03 16:00;CYQB 031600Z 25008KT 30SM BKN260 20/11 A2999 RMK CI3 SLP156

CYQB;2010-04-03 17:00;CYQB 031700Z 26009KT 30SM BKN260 22/10 A2997 RMK CI2 SLP150

CYQB;2010-04-03 18:00;CYQB 031800Z 26006KT 30SM BKN260 24/11 A2995 RMK CI2 SLP143

CYQB;2010-04-03 19:00;CYQB 031900Z 24004KT 30SM FEW150 BKN260 25/11 A2992 RMK AC1CI2 SLP134

CYQB;2010-04-03 20:00;CYQB 032000Z 29002KT 30SM BKN260 26/10 A2990 RMK CI4 SLP126

CYQB;2010-04-03 21:00;CYQB 032100Z 12004KT 30SM BKN260 25/11 A2988 RMK CI4 SLP118

CYQB;2010-04-03 22:00;CYQB 032200Z 06005KT 30SM BKN260 25/10 A2986 RMK CI4 SLP111

CYQB;2010-04-03 23:00;CYQB 032300Z 08005KT 30SM FEW100 BKN260 22/10 A2984 RMK AC1CI1 SLP107

CYQB;2010-04-04 00:00;CYQB 040000Z 36003KT 15SM FEW100 SCT260 19/10 A2984 RMK AC1CI0 SLP106

CYQB;2010-04-04 01:00;CYQB 040100Z 03004KT 15SM SCT250 17/09 A2984 RMK CI0 SLP106

CYQB;2010-04-04 02:00;CYQB 040200Z 04005KT 15SM SKC 15/08 A2983 RMK SLP101

CYQB;2010-04-04 03:00;CYQB 040300Z 02003KT 15SM SKC 14/07 A2982 RMK SLP100

CYQB;2010-04-04 04:00;CYQB 040400Z 02004KT 15SM SKC 13/07 A2982 RMK SLP098

CYQB;2010-04-04 05:00;CYQB 040500Z 31002KT 15SM SKC 11/06 A2982 RMK SLP099

CYQB;2010-04-04 06:00;CYQB 040600Z 01004KT 15SM BKN250 12/06 A2982 RMK CI3 SLP097

CYQB;2010-04-04 07:00;CYQB 040700Z 03005KT 15SM OVC250 11/06 A2982 RMK CS8 SLP098

CYQB;2010-04-04 08:00;CYQB 040800Z 36003KT 15SM OVC240 10/05 A2983 RMK CS8 SLP100

CYQB;2010-04-04 09:00;CYQB 040900Z 00000KT 15SM OVC240 08/05 A2984 RMK CS8 SLP105

CYQB;2010-04-04 10:00;CYQB 041000Z 26006KT 15SM BKN250 10/07 A2986 RMK CI4 SLP113

CYQB;2010-04-04 11:00;CYQB 041100Z 25011KT 30SM BKN250 12/08 A2989 RMK CI5 SLP123

CYQB;2010-04-04 12:00;CYQB 041200Z 24007KT 30SM SCT250 15/08 A2993 RMK CI2 SLP135

CYQB;2010-04-04 13:00;CYQB 041300Z 27012G17KT 30SM FEW250 15/08 A2995 RMK CI1 SLP142

CYQB;2010-04-04 14:00;CYQB 041400Z 28016G24KT 30SM FEW030 SCT250 16/05 A2996 RMK SC1CI1 SLP145

CYQB;2010-04-04 15:00;CYQB 041500Z 26016G27KT 30SM FEW030 SCT250 16/04 A2997 RMK SC1CI1 SLP150

CYQB;2010-04-04 16:00;CYQB 041600Z 26018G25KT 30SM FEW035 FEW250 17/03 A2998 RMK SC1CI1 SLP153

CYQB;2010-04-04 17:00;CYQB 041700Z 25016G26KT 30SM FEW040 FEW250 18/03 A2997 RMK SC1CI1 SLP148

CYQB;2010-04-04 18:00;CYQB 041800Z 25016G26KT 30SM FEW040 FEW250 18/02 A2997 RMK SC1CI1 SLP148

CYQB;2010-04-04 19:00;CYQB 041900Z 22017G22KT 30SM FEW045 FEW250 18/02 A2997 RMK SC1CI1 SLP148

CYQB;2010-04-04 20:00;CYQB 042000Z 28016G24KT 30SM FEW050 FEW083 FEW250 18/01 A2997 RMK SC1AC1CI1 SLP148

CYQB;2010-04-04 21:00;CYQB 042100Z 28018G25KT 30SM FEW050 FEW250 17/M03 A2998 RMK SC1CI1 SLP153

CYQB;2010-04-04 22:00;CYQB 042200Z 26012G18KT 30SM FEW050 FEW250 17/M02 A3000 RMK SC1CI1 SLP160

CYQB;2010-04-04 23:00;CYQB 042300Z CCA 28008KT 30SM FEW090 FEW240 14/M02 A3000 RMK AC1CI1 SLP162

CYQB;2010-04-05 00:00;CYQB 050000Z 26006KT 15SM FEW240 11/M03 A3002 RMK CI1 SLP166

CYQB;2010-04-05 01:00;CYQB 050100Z 24005KT 15SM SKC 10/M03 A3004 RMK SLP173

CYQB;2010-04-05 02:00;CYQB 050200Z 25007KT 15SM SKC 10/M03 A3003 RMK SLP171

CYQB;2010-04-05 03:00;CYQB 050300Z 25008KT 15SM SKC 10/M02 A3002 RMK SLP168

CYQB;2010-04-05 04:00;CYQB 050400Z 25003KT 15SM SKC 07/M01 A3003 RMK SLP170

CYQB;2010-04-05 05:00;CYQB 050500Z 00000KT 15SM SKC 07/M01 A3003 RMK SLP171

CYQB;2010-04-05 06:00;CYQB 050600Z 23003KT 15SM SKC 05/M01 A3004 RMK SLP173

CYQB;2010-04-05 07:00;CYQB 050700Z 05004KT 15SM SKC 04/M02 A3005 RMK SLP177

CYQB;2010-04-05 08:00;CYQB 050800Z 01003KT 15SM SKC 04/M03 A3004 RMK SLP175

CYQB;2010-04-05 09:00;CYQB 050900Z 01003KT 15SM BKN250 04/M02 A3005 RMK CI3 SLP176

CYQB;2010-04-05 10:00;CYQB 051000Z 36002KT 20SM FEW250 03/M02 A3004 RMK CI1 SLP174

CYQB;2010-04-05 11:00;CYQB 051100Z 02003KT 30SM FEW100 BKN230 03/M02 A3004 RMK AC1CI3 SLP174

CYQB;2010-04-05 12:00;CYQB 051200Z 09003KT 30SM FEW100 SCT120 OVC230 07/00 A3001 RMK AC1AC2CI2 SLP165

CYQB;2010-04-05 13:00;CYQB 051300Z 35008KT 15SM FEW100 SCT120 OVC210 09/01 A3000 RMK AC2AC2CI3 SLP163

CYQB;2010-04-05 14:00;CYQB 051400Z 01007KT 15SM BKN055 OVC100 09/01 A2997 RMK SC6AC2 SLP151

CYQB;2010-04-05 15:00;CYQB 051500Z 36002KT 15SM OVC055 10/01 A2997 RMK SC8 SLP149

CYQB;2010-04-05 15:28;CYQB 051528Z 32002KT 15SM -SHRA BKN060 OVC090 11/ RMK SC6AC2

CYQB;2010-04-05 16:00;CYQB 051600Z 35003KT 15SM -SHRA BKN060 OVC090 11/02 A2993 RMK SC6AC2 SLP138

CYQB;2010-04-05 16:23;CYQB 051623Z 23002KT 15SM OVC060 11/ RMK SC8

CYQB;2010-04-05 17:00;CYQB 051700Z 10005KT 15SM -SHRA OVC021 11/05 A2989 RMK SC8 SLP125

CYQB;2010-04-05 18:00;CYQB 051800Z 07003KT 30SM BKN085 OVC095 13/04 A2986 RMK AC7AC1 SLP114

CYQB;2010-04-05 19:00;CYQB 051900Z 08010KT 30SM OVC095 12/04 A2981 RMK AC8 SLP097

CYQB;2010-04-05 20:00;CYQB 052000Z 36008G15KT 20SM -SHRA BKN070 OVC084 12/03 A2979 RMK AC6AC2 PCPN VRY LGT SLP090

CYQB;2010-04-05 21:00;CYQB 052100Z 00000KT 20SM -SHRA BKN065 OVC080 11/04 A2981 RMK SC6AC2 PCPN VRY LGT SLP095

CYQB;2010-04-05 22:00;CYQB 052200Z 11003KT 20SM BKN058 OVC064 10/07 A2976 RMK SC6SC2 SLP081

CYQB;2010-04-05 23:00;CYQB 052300Z 00000KT 15SM BKN056 OVC065 10/05 A2977 RMK SC6SC2 SLP082

CYQB;2010-04-06 00:00;CYQB 060000Z 00000KT 15SM BKN065 10/06 A2977 RMK SC6 SLP083

CYQB;2010-04-06 01:00;CYQB 060100Z 01003KT 15SM BKN048 BKN120 09/06 A2976 RMK SC5AC2 SLP081

CYQB;2010-04-06 02:00;CYQB 060200Z 01007KT 10SM -TSRA OVC060 09/06 A2972 RMK SC8 CB EMBDD SLP066

CYQB;2010-04-06 02:12;CYQB 060212Z 32013G25KT 1 1/2SM TSRA BR SCT011 OVC030CB 08/ RMK FG2SF2CB5

CYQB;2010-04-06 02:26;CYQB 060226Z 35004KT 4SM -TSRA FEW010 BKN045CB OVC080 08/ RMK SF2CB4AC2

CYQB;2010-04-06 03:00;CYQB 060300Z 18005KT 10SM OVC090 08/07 A2975 RETSRA RMK AC8 SLP075

CYQB;2010-04-06 04:00;CYQB 060400Z 23010KT 15SM OVC120 07/06 A2975 RMK AC8 SLP076

CYQB;2010-04-06 05:00;CYQB 060500Z 24015KT 15SM FEW120 07/06 A2978 RMK AC2 SLP086

CYQB;2010-04-06 06:00;CYQB 060600Z 23011KT 15SM BKN037 07/06 A2981 RMK SC6 SLP095

CYQB;2010-04-06 07:00;CYQB 060700Z 22009KT 15SM BKN041 07/05 A2982 RMK SC6 SLP100

CYQB;2010-04-06 08:00;CYQB 060800Z 23011KT 15SM FEW040 FEW220 07/05 A2985 RMK SC2CI0 SLP110

CYQB;2010-04-06 09:00;CYQB 060900Z 24009KT 15SM FEW060 FEW240 06/04 A2989 RMK SC2CI1 SLP123

CYQB;2010-04-06 10:00;CYQB 061000Z 26011G17KT 15SM FEW060 BKN230 07/04 A2990 RMK SC1CI2 SLP128

CYQB;2010-04-06 11:00;CYQB 061100Z 19004KT 30SM FEW015 FEW060 BKN220 06/04 A2991 RMK SC1SC2CI1 SLP131

CYQB;2010-04-06 12:00;CYQB 061200Z 26007KT 30SM FEW015 BKN220 07/05 A2991 RMK SC1CI2 SLP131

CYQB;2010-04-06 13:00;CYQB 061300Z 24005KT 30SM FEW015 BKN220 09/06 A2989 RMK SC1CI2 SLP123

CYQB;2010-04-06 14:00;CYQB 061400Z 24006KT 30SM FEW015 BKN220 10/06 A2988 RMK SC1CI1 SLP120

CYQB;2010-04-06 15:00;CYQB 061500Z 24009KT 30SM FEW015 BKN200 11/07 A2988 RMK SC1CI1 SLP120

CYQB;2010-04-06 16:00;CYQB 061600Z 24012KT 30SM FEW015 BKN200 12/07 A2988 RMK SC1CI1 SLP120

CYQB;2010-04-06 17:00;CYQB 061700Z 23009G16KT 30SM FEW025 FEW140 BKN240 13/05 A2987 RMK CF1AC1CS5 SLP116

CYQB;2010-04-06 18:00;CYQB 061800Z 25013KT 30SM FEW035 FEW140 BKN240 15/03 A2986 RMK CF1AC1CS2 SLP112

CYQB;2010-04-06 19:00;CYQB 061900Z 25009KT 30SM FEW040 FEW140 BKN240 15/03 A2983 RMK CF1AC1CS2 SLP103

CYQB;2010-04-06 20:00;CYQB 062000Z 25010KT 30SM FEW045 BKN240 16/00 A2980 RMK CF1CS6 SLP094

CYQB;2010-04-06 21:00;CYQB 062100Z 24006KT 30SM FEW045 FEW120 OVC250 15/03 A2978 RMK CF1AC1CS6 SLP088

CYQB;2010-04-06 22:00;CYQB 062200Z 27005KT 30SM FEW045 FEW120 BKN240 15/03 A2978 RMK CF1AC1CS6 SLP088

CYQB;2010-04-06 23:00;CYQB 062300Z 23003KT 30SM FEW040 FEW100 BKN240 14/04 A2978 RMK CF1AC1CS2 SLP086

CYQB;2010-04-07 00:00;CYQB 070000Z 32002KT 15SM FEW065 FEW100 SCT230 12/04 A2978 RMK SC1AC1CS1 SLP086

CYQB;2010-04-07 01:00;CYQB 070100Z 00000KT 15SM FEW064 BKN120 12/03 A2978 RMK SC2AC3 SLP087

CYQB;2010-04-07 02:00;CYQB 070200Z 01002KT 15SM FEW065 BKN110 11/03 A2976 RMK SC2AC4 SLP080

CYQB;2010-04-07 03:00;CYQB 070300Z 01003KT 15SM FEW062 BKN100 10/02 A2975 RMK SC2AC5 SLP074

CYQB;2010-04-07 04:00;CYQB 070400Z 01003KT 15SM BKN067 OVC100 10/02 A2972 RMK SC5AC3 SLP066

CYQB;2010-04-07 05:00;CYQB 070500Z 08003KT 15SM -RA BKN069 OVC100 09/03 A2968 RMK AC6AC2 SLP051

CYQB;2010-04-07 05:47;CYQB 070547Z 01004KT 15SM BKN047 09/ RMK SC7

CYQB;2010-04-07 06:00;CYQB 070600Z 33004KT 10SM -RA OVC048 08/05 A2970 RMK SC8 SLP057

CYQB;2010-04-07 07:00;CYQB 070700Z 04006KT 8SM -RA BKN047 OVC071 08/06 A2967 RMK SC7AC1 SLP047

CYQB;2010-04-07 08:00;CYQB 070800Z 03002KT 10SM OVC064 07/06 A2963 RMK SC8 SLP035

CYQB;2010-04-07 09:00;CYQB 070900Z 05005KT 15SM BKN040 07/06 A2961 RMK SC7 SLP029

CYQB;2010-04-07 10:00;CYQB 071000Z 06005KT 15SM OVC031 07/05 A2960 RMK SC8 SLP025

CYQB;2010-04-07 11:00;CYQB 071100Z 08005KT 15SM FEW010 OVC031 07/05 A2960 RMK SF1SC7 SLP026

CYQB;2010-04-07 12:00;CYQB 071200Z 05005KT 6SM BR OVC021 07/05 A2958 RMK SC8 SLP019

CYQB;2010-04-07 13:00;CYQB 071300Z 05007KT 10SM -SHRA OVC024 07/05 A2956 RMK SC8 SLP011

CYQB;2010-04-07 14:00;CYQB 071400Z 04004KT 4SM -SHRA BR OVC023 07/05 A2957 RMK SC8 SLP016

CYQB;2010-04-07 15:00;CYQB 071500Z 07005KT 6SM BR FEW012 BKN025 08/07 A2954 RMK SF2SC6 SLP006

CYQB;2010-04-07 16:00;CYQB 071600Z 11004KT 6SM BR FEW010 OVC027 08/07 A2957 RMK SF1SC7 SLP014

CYQB;2010-04-07 17:00;CYQB 071700Z 10002KT 6SM BR SCT011 OVC045 09/07 A2959 RMK SF3SC5 SLP022

CYQB;2010-04-07 18:00;CYQB 071800Z 15002KT 10SM BKN010 OVC045 09/07 A2961 RMK ST5SC3 HAZY SLP028

CYQB;2010-04-07 19:00;CYQB 071900Z CCA 17005KT 10SM BKN011 OVC040 10/07 A2961 RMK ST6SC2 HAZY MT TOPS OBSC N SLP029

CYQB;2010-04-07 20:00;CYQB 072000Z 19004KT 10SM BKN011 OVC042 10/08 A2961 RMK ST6SC2 HAZY MT TOPS OBSC N SLP030

CYQB;2010-04-07 21:00;CYQB 072100Z 23004KT 10SM BKN011 OVC048 11/08 A2964 RMK ST6SC2 HAZY MT TOPS OBSC N SLP039

CYQB;2010-04-07 22:00;CYQB 072200Z 22005KT 15SM FEW011 BKN044 OVC050 11/08 A2965 RMK ST2SC5SC1 SLP043

CYQB;2010-04-07 23:00;CYQB 072300Z 25005KT 15SM FEW015 BKN054 11/09 A2967 RMK SC1SC6 SLP050

CYQB;2010-04-08 00:00;CYQB 080000Z 32007KT 15SM BKN062 11/07 A2971 RMK SC6 SLP062

CYQB;2010-04-08 01:00;CYQB 080100Z 30006KT 15SM BKN063 10/06 A2974 RMK SC6 SLP073

CYQB;2010-04-08 02:00;CYQB 080200Z 35009KT 15SM FEW063 FEW240 09/04 A2975 RMK SC2CI0 SLP078

CYQB;2010-04-08 03:00;CYQB 080300Z 00000KT 15SM FEW080 FEW240 08/03 A2977 RMK AC1CI0 SLP082

CYQB;2010-04-08 04:00;CYQB 080400Z 35005KT 15SM FEW090 07/02 A2979 RMK AC1 SLP091

CYQB;2010-04-08 05:00;CYQB 080500Z 01011KT 15SM SCT240 05/M01 A2983 RMK CI2 SLP104

CYQB;2010-04-08 06:00;CYQB 080600Z 36011KT 15SM SCT240 04/M04 A2986 RMK CI3 SLP112

CYQB;2010-04-08 07:00;CYQB 080700Z 02010KT 15SM SCT240 03/M05 A2986 RMK CI3 SLP113

CYQB;2010-04-08 08:00;CYQB 080800Z 36009KT 15SM SCT240 02/M06 A2988 RMK CI3 SLP119

CYQB;2010-04-08 09:00;CYQB 080900Z 36006KT 15SM SCT230 01/M05 A2991 RMK CI3 SLP130

CYQB;2010-04-08 10:00;CYQB 081000Z 02005KT 30SM BKN240 01/M05 A2993 RMK CI5 SLP137

CYQB;2010-04-08 11:00;CYQB 081100Z 01005KT 30SM FEW240 01/M06 A2996 RMK CI2 SLP147

CYQB;2010-04-08 12:00;CYQB 081200Z 07005KT 30SM SCT230 03/M06 A2997 RMK CI3 SLP151

CYQB;2010-04-08 13:00;CYQB 081300Z 07015G20KT 30SM BKN230 04/M05 A2998 RMK CI2 SLP155

CYQB;2010-04-08 14:00;CYQB 081400Z 06011KT 30SM SCT090 BKN230 05/M05 A3000 RMK AC4CI0 SLP161

CYQB;2010-04-08 15:00;CYQB 081500Z 09014KT 30SM SCT090 BKN150 BKN250 05/M04 A2997 RMK AC4AC1CI0 SLP151

CYQB;2010-04-08 16:00;CYQB 081600Z 10016KT 30SM SCT090 BKN150 OVC210 05/M04 A2995 RMK AC3AC2CI2 SLP146

CYQB;2010-04-08 17:00;CYQB 081700Z 07016G21KT 30SM SCT080 BKN100 OVC210 06/M05 A2993 RMK AC4AC2CI1 SLP137

CYQB;2010-04-08 18:00;CYQB 081800Z 07017KT 30SM -SHRAPL BKN078 OVC210 06/M05 A2990 RMK AC7CI1 SLP129

CYQB;2010-04-08 18:29;CYQB 081829Z 07015KT 30SM -SHRA BKN071 OVC210 06/ RMK AC7CI1

CYQB;2010-04-08 19:00;CYQB 081900Z 08017KT 30SM -SHRA BKN065 OVC080 06/M04 A2988 RMK SC6AC2 SLP122

CYQB;2010-04-08 20:00;CYQB 082000Z 10016G21KT 30SM BKN051 OVC065 06/M05 A2986 RMK SC7SC1 SLP114

CYQB;2010-04-08 21:00;CYQB 082100Z 08014G20KT 30SM BKN049 OVC065 06/M04 A2984 RMK SC7SC1 SLP107

CYQB;2010-04-08 22:00;CYQB 082200Z 07021G29KT 30SM BKN036 OVC040 06/05 A2981 RMK SC6SC2 SLP099

CYQB;2010-04-08 23:00;CYQB 082300Z 08017G25KT 30SM OVC035 05/M04 A2981 RMK SC8 SLP097

CYQB;2010-04-09 00:00;CYQB 090000Z 06017G28KT 15SM OVC037 06/M04 A2981 RMK SC8 SLP097

CYQB;2010-04-09 01:00;CYQB 090100Z 08016G22KT 15SM OVC036 06/M03 A2980 RMK SC8 SLP094

CYQB;2010-04-09 02:00;CYQB 090200Z 08019G27KT 15SM OVC032 07/M04 A2977 RMK SC8 SLP085

CYQB;2010-04-09 03:00;CYQB 090300Z 08013G21KT 15SM OVC033 07/M03 A2978 RMK SC8 SLP085

CYQB;2010-04-09 04:00;CYQB 090400Z 08011G21KT 15SM OVC033 07/M02 A2977 RMK SC8 SLP084

CYQB;2010-04-09 05:00;CYQB 090500Z 08013G20KT 15SM OVC033 07/M02 A2975 RMK SC8 SLP078

CYQB;2010-04-09 06:00;CYQB 090600Z 08013G18KT 15SM BKN033 OVC051 07/M01 A2972 RMK SC6SC2 SLP066

CYQB;2010-04-09 07:00;CYQB 090700Z 08013G20KT 15SM OVC047 07/M01 A2969 RMK SC8 SLP055

CYQB;2010-04-09 08:00;CYQB 090800Z 07015G20KT 15SM OVC041 07/M01 A2965 RMK SC8 SLP044

CYQB;2010-04-09 08:30;CYQB 090830Z 09014G21KT 15SM -RA OVC040 08/ RMK SC8

CYQB;2010-04-09 09:00;CYQB 090900Z 08015G20KT 10SM -RA OVC035 07/01 A2967 RMK SC8 WND ESTD SLP049

CYQB;2010-04-09 10:00;CYQB 091000Z 06011KT 10SM -RA OVC030 06/02 A2968 RMK SC8 SLP052

CYQB;2010-04-09 11:00;CYQB 091100Z 07015KT 8SM -RA OVC030 05/03 A2968 RMK SC8 SLP053

CYQB;2010-04-09 12:00;CYQB 091200Z 09010KT 10SM -RA OVC025 05/04 A2969 RMK SC8 SLP055

CYQB;2010-04-09 13:00;CYQB 091300Z 08010G15KT 6SM -RA BKN014 OVC030 05/04 A2968 RMK SF6SC2 SLP052

CYQB;2010-04-09 13:30;CYQB 091330Z 12003KT 6SM -RA BKN008 OVC015 06/ RMK SF6SC2

CYQB;2010-04-09 14:00;CYQB 091400Z 09005KT 1 1/2SM -RA BR OVC008 06/05 A2970 RMK SF8 SLP060

CYQB;2010-04-09 14:15;CYQB 091415Z 09009KT 1 1/2SM -RA BR BKN004 OVC010 06/ RMK SF6SC2

CYQB;2010-04-09 15:00;CYQB 091500Z 09004KT 1 1/2SM -RA BR BKN003 OVC008 06/06 A2970 RMK SF6SC2 SLP061

CYQB;2010-04-09 16:00;CYQB 091600Z 07005KT 3/4SM R06/P6000FT/N -RA BR BKN003 OVC008 06/06 A2969 RMK SF7SC1 SLP057

CYQB;2010-04-09 16:35;CYQB 091635Z 00000KT 1 1/2SM -RA BR BKN005 OVC010 07/ RMK SF6SC2

CYQB;2010-04-09 17:00;CYQB 091700Z 18003KT 1 1/2SM -RA BR BKN006 OVC010 07/06 A2970 RMK SF6SC2 SLP060

CYQB;2010-04-09 17:30;CYQB 091730Z 22005KT 3SM -RA BR BKN008 OVC025 07/ RMK SF6SC2

CYQB;2010-04-09 18:00;CYQB 091800Z 22005KT 8SM -RA SCT008 OVC032 07/06 A2969 RMK SF3SC5 SLP057

CYQB;2010-04-09 18:16;CYQB 091816Z 21006KT 8SM -RA FEW003 SCT008 OVC025 08/ RMK SF2SC2SC4

CYQB;2010-04-09 19:00;CYQB 091900Z 22006KT 15SM FEW010 OVC024 08/05 A2968 RMK SF2SC6 SLP053

CYQB;2010-04-09 20:00;CYQB 092000Z 23006KT 15SM OVC020 07/05 A2967 RMK SC8 SLP051

CYQB;2010-04-09 21:00;CYQB 092100Z 21003KT 15SM SCT022 OVC045 07/04 A2968 RMK SC4SC4 SLP053

CYQB;2010-04-09 22:00;CYQB 092200Z 00000KT 15SM FEW030 OVC050 07/03 A2968 RMK SC2SC6 SLP053

CYQB;2010-04-09 23:00;CYQB 092300Z 21002KT 15SM BKN060 07/03 A2968 RMK SC7 SLP052

CYQB;2010-04-10 00:00;CYQB 100000Z 24005KT 15SM FEW030 BKN065 BKN130 06/03 A2969 RMK SC1SC6AC1 SLP055

CYQB;2010-04-10 01:00;CYQB 100100Z 24010KT 15SM BKN047 BKN130 06/02 A2968 RMK SC7AC1 SLP053

CYQB;2010-04-10 02:00;CYQB 100200Z 23007KT 15SM BKN045 OVC070 06/02 A2966 RMK SC6AC2 SLP047

CYQB;2010-04-10 03:00;CYQB 100300Z 26008KT 15SM SCT034 OVC045 05/02 A2964 RMK SC4SC4 SLP041

CYQB;2010-04-10 04:00;CYQB 100400Z 27008KT 15SM -SHRA OVC033 05/02 A2963 RMK SC8 SLP037

CYQB;2010-04-10 05:00;CYQB 100500Z 30008KT 15SM SCT033 OVC045 05/M01 A2963 RMK SC4SC4 SLP035

CYQB;2010-04-10 06:00;CYQB 100600Z 25007KT 15SM OVC052 04/M01 A2961 RMK SC8 SLP029

CYQB;2010-04-10 07:00;CYQB 100700Z 26013KT 15SM OVC055 04/M01 A2961 RMK SC8 SLP030

CYQB;2010-04-10 08:00;CYQB 100800Z 26014KT 15SM FEW030 OVC064 03/M01 A2962 RMK SC2SC6 SLP032

CYQB;2010-04-10 09:00;CYQB 100900Z 26013KT 15SM FEW030 OVC062 03/M01 A2963 RMK SC2SC6 SLP036

CYQB;2010-04-10 10:00;CYQB 101000Z 26014G19KT 15SM FEW030 OVC058 03/M01 A2965 RMK SC2SC6 SLP043

CYQB;2010-04-10 11:00;CYQB 101100Z 27015KT 15SM FEW030 OVC057 03/M01 A2967 RMK SC2SC6 SLP050

CYQB;2010-04-10 12:00;CYQB 101200Z 27016G21KT 30SM FEW030 BKN054 03/M00 A2969 RMK SC1SC6 SLP055

CYQB;2010-04-10 13:00;CYQB 101300Z 27019KT 30SM FEW030 OVC055 04/M00 A2971 RMK SC2SC5 SLP063

CYQB;2010-04-10 14:00;CYQB 101400Z 29018G28KT 30SM BKN037 06/M00 A2973 RMK SC6 CU ASOCTD SLP071

CYQB;2010-04-10 15:00;CYQB 101500Z 28020G36KT 30SM BKN039 05/M02 A2978 RMK SC7 SLP086

CYQB;2010-04-10 16:00;CYQB 101600Z 28019G33KT 30SM BKN040 05/M04 A2981 RMK SC7 SLP097

CYQB;2010-04-10 17:00;CYQB 101700Z 27027KT 30SM SCT060 07/M02 A2980 RMK SC4 SLP095

CYQB;2010-04-10 18:00;CYQB 101800Z 28020G31KT 30SM FEW030 09/M03 A2981 RMK SC2 SLP095

CYQB;2010-04-10 19:00;CYQB 101900Z 26028G33KT 30SM SCT063 09/M04 A2981 RMK SC3 SLP097

CYQB;2010-04-10 20:00;CYQB 102000Z 27022G29KT 30SM FEW062 09/M04 A2983 RMK SC2 SLP104

CYQB;2010-04-10 21:00;CYQB 102100Z 28020G28KT 30SM FEW075 09/M05 A2984 RMK AC2 SLP107

CYQB;2010-04-10 22:00;CYQB 102200Z 27021G32KT 30SM FEW075 FEW240 09/M06 A2985 RMK AC1CI1 SLP110

CYQB;2010-04-10 23:00;CYQB 102300Z 27017G30KT 30SM FEW075 FEW150 SCT250 08/M07 A2986 RMK AC1AC1CI0 SLP113

CYQB;2010-04-11 00:00;CYQB 110000Z 26015G20KT 15SM FEW070 FEW120 BKN190 07/M06 A2987 RMK SC1AC1CI1 SLP119

CYQB;2010-04-11 01:00;CYQB 110100Z 26016KT 15SM FEW070 BKN130 BKN250 07/M06 A2991 RMK AC1AC4CI1 SLP130

CYQB;2010-04-11 02:00;CYQB 110200Z 26019G24KT 15SM OVC130 07/M06 A2992 RMK AC8 SLP134

CYQB;2010-04-11 03:00;CYQB 110300Z 26016G21KT 15SM SCT120 06/M05 A2993 RMK AC2 SLP137

CYQB;2010-04-11 04:00;CYQB 110400Z 25014KT 15SM SCT060 05/M04 A2993 RMK SC3 SLP139

CYQB;2010-04-11 05:00;CYQB 110500Z 25012KT 15SM FEW060 FEW120 04/M02 A2994 RMK SC2AC1 SLP142

CYQB;2010-04-11 06:00;CYQB 110600Z 25010G16KT 15SM FEW060 FEW120 03/M03 A2995 RMK SC2AC1 SLP146

CYQB;2010-04-11 07:00;CYQB 110700Z 25007KT 15SM SKC 02/M02 A2996 RMK SLP147

CYQB;2010-04-11 08:00;CYQB 110800Z 25007KT 15SM SKC 02/M02 A2996 RMK SLP148

CYQB;2010-04-11 09:00;CYQB 110900Z 22009KT 15SM SKC 02/M02 A2997 RMK SLP152

CYQB;2010-04-11 10:00;CYQB 111000Z 24010KT 15SM FEW035 02/M02 A2999 RMK SC2 SLP159

CYQB;2010-04-11 11:00;CYQB 111100Z 24011KT 30SM FEW075 FEW210 02/M02 A3000 RMK AC2CI1 SLP162

CYQB;2010-04-11 12:00;CYQB 111200Z 25014G19KT 30SM FEW075 FEW210 04/M02 A3001 RMK AC2CI1 SLP165

CYQB;2010-04-11 13:00;CYQB 111300Z 26017G25KT 30SM FEW035 FEW075 FEW210 06/M01 A3000 RMK SC1AC2CI1 SLP163

CYQB;2010-04-11 14:00;CYQB 111400Z 28016G21KT 30SM FEW045 SCT075 SCT210 08/M03 A3001 RMK SC2AC2CI1 SLP165

CYQB;2010-04-11 15:00;CYQB 111500Z 29021G27KT 30SM SCT045 SCT110 BKN210 09/M02 A2999 RMK SC3AC1CI0 SLP158

CYQB;2010-04-11 16:00;CYQB 111600Z 25023G31KT 30SM SCT045 SCT060 SCT210 09/M03 A2997 RMK SC3SC1CI1 SLP153

CYQB;2010-04-11 17:00;CYQB 111700Z 28026G31KT 30SM BKN068 10/M04 A2997 RMK AC5 SLP151

CYQB;2010-04-11 18:00;CYQB 111800Z 28023G34KT 30SM BKN082 11/M04 A2997 RMK AC6 SLP150

CYQB;2010-04-11 19:00;CYQB 111900Z 27027G33KT 30SM BKN085 12/M03 A2995 RMK AC6 SLP146

CYQB;2010-04-11 20:00;CYQB 112000Z 28026KT 30SM -SHRA BKN061 11/M03 A2996 RMK SC7 SLP148

CYQB;2010-04-11 20:31;CYQB 112031Z 27024G38KT 30SM BKN072 11/ RMK AC7

CYQB;2010-04-11 21:00;CYQB 112100Z 27025G34KT 15SM FEW030 BKN095 10/M04 A2997 RMK SC2AC6 VIRGA SLP153

CYQB;2010-04-11 22:00;CYQB 112200Z 28013G22KT 30SM VCSH FEW030 BKN070 10/M03 A2999 RMK SC2AC4 TCU EMBD VIRGA SLP159

CYQB;2010-04-11 23:00;CYQB 112300Z 27018G24KT 30SM FEW070 09/M03 A3001 RMK AC2 VIRGA SLP165

CYQB;2010-04-12 00:00;CYQB 120000Z 29010G17KT 30SM SCT063 08/M03 A3004 RMK SC2 SLP174

CYQB;2010-04-12 01:00;CYQB 120100Z 27011KT 30SM SKC 06/M02 A3006 RMK SLP183

CYQB;2010-04-12 02:00;CYQB 120200Z 26008KT 15SM FEW060 04/M02 A3008 RMK SC1 SLP190

CYQB;2010-04-12 03:00;CYQB 120300Z 26011KT 15SM FEW060 FEW120 03/M01 A3009 RMK SC1AC1 SLP191

CYQB;2010-04-12 04:00;CYQB 120400Z 30006KT 15SM FEW060 FEW120 SCT190 04/M05 A3011 RMK SC1AC1AC2 SLP198

CYQB;2010-04-12 05:00;CYQB 120500Z 29006KT 15SM FEW060 FEW120 SCT160 02/M05 A3013 RMK SC1AC1AC1 SLP206

CYQB;2010-04-12 06:00;CYQB 120600Z 31008KT 15SM FEW040 SCT100 BKN160 03/M05 A3015 RMK SC2AC2AC1 SLP212

CYQB;2010-04-12 07:00;CYQB 120700Z 30006KT 15SM FEW040 SCT100 BKN160 02/M05 A3016 RMK SC2AC2AC2 SLP216

CYQB;2010-04-12 08:00;CYQB 120800Z 26006KT 15SM BKN040 OVC100 01/M04 A3018 RMK SC7AC1 SLP221

CYQB;2010-04-12 09:00;CYQB 120900Z 27005KT 15SM OVC040 02/M04 A3019 RMK SC8 SLP227

CYQB;2010-04-12 10:00;CYQB 121000Z 27010KT 20SM BKN043 BKN120 01/M04 A3021 RMK SC6AC1 SLP233

CYQB;2010-04-12 11:00;CYQB 121100Z 26008KT 30SM FEW045 BKN062 02/M03 A3024 RMK SC2SC6 SLP242

CYQB;2010-04-12 12:00;CYQB 121200Z 27005KT 30SM FEW045 BKN081 BKN240 03/M03 A3026 RMK SC1AC6CI1 VIRGA SLP250

CYQB;2010-04-12 13:00;CYQB 121300Z 32009KT 30SM FEW045 SCT090 BKN210 04/M05 A3029 RMK SC1AC3CI4 SLP259

CYQB;2010-04-12 14:00;CYQB 121400Z 32007G15KT 30SM FEW040 FEW090 OVC240 06/M05 A3030 RMK SC1AC2CI6 SLP263

CYQB;2010-04-12 15:00;CYQB 121500Z 30009KT 30SM FEW040 SCT200 OVC240 08/M05 A3031 RMK SC1CI3CI4 SLP266

CYQB;2010-04-12 16:00;CYQB 121600Z 32010G16KT 30SM FEW040 SCT200 OVC240 08/M06 A3030 RMK SC1CI3CI2 SLP264

CYQB;2010-04-12 17:00;CYQB 121700Z 34008KT 30SM FEW050 SCT180 BKN240 09/M07 A3028 RMK SC1AC4CI2 SLP258

CYQB;2010-04-12 18:00;CYQB 121800Z 34012G19KT 30SM FEW050 SCT180 BKN240 10/M06 A3028 RMK SC1AC4CI2 SLP258

CYQB;2010-04-12 19:00;CYQB 121900Z 29009KT 30SM FEW060 BKN210 12/M04 A3028 RMK SC2CI2 SLP257

CYQB;2010-04-12 20:00;CYQB 122000Z 33012KT 30SM FEW070 BKN210 11/M05 A3028 RMK SC2CI2 SLP258

CYQB;2010-04-12 21:00;CYQB 122100Z 30009KT 30SM FEW075 BKN210 11/M06 A3030 RMK SC2CI2 SLP262

CYQB;2010-04-12 22:00;CYQB 122200Z 31013KT 30SM FEW080 BKN210 10/M06 A3031 RMK AC1CI4 SLP268

CYQB;2010-04-12 23:00;CYQB 122300Z 33004KT 30SM FEW080 SCT210 10/M07 A3033 RMK AC1CI2 SLP273

CYQB;2010-04-13 00:00;CYQB 130000Z 36008KT 30SM FEW210 08/M07 A3036 RMK CI2 SLP282

CYQB;2010-04-13 01:00;CYQB 130100Z 02006KT 15SM FEW250 07/M06 A3039 RMK CI2 SLP292

CYQB;2010-04-13 02:00;CYQB 130200Z 36005KT 15SM SKC 06/M06 A3040 RMK SLP298

CYQB;2010-04-13 03:00;CYQB 130300Z 36011KT 15SM SKC 05/M06 A3041 RMK SLP301

CYQB;2010-04-13 04:00;CYQB 130400Z 02005KT 15SM SKC 04/M06 A3043 RMK SLP306

CYQB;2010-04-13 05:00;CYQB 130500Z 01006KT 15SM BKN240 04/M07 A3044 RMK CI6 SLP309

CYQB;2010-04-13 05:47;CYQB 130547Z 00000KT 15SM BKN240 02/ RMK CI6

CYQB;2010-04-13 06:00;CYQB 130600Z 02005KT 15SM BKN230 02/M06 A3045 RMK CI6 SLP314

CYQB;2010-04-13 07:00;CYQB 130700Z 34004KT 15SM BKN240 02/M07 A3046 RMK CI6 SLP318

CYQB;2010-04-13 08:00;CYQB 130800Z 36002KT 15SM OVC230 02/M07 A3047 RMK CI7 SLP320

CYQB;2010-04-13 09:00;CYQB 130900Z 03004KT 15SM SCT220 01/M07 A3048 RMK CI3 SLP325

CYQB;2010-04-13 10:00;CYQB 131000Z 36004KT 30SM FEW210 01/M07 A3050 RMK CI2 SLP332

CYQB;2010-04-13 11:00;CYQB 131100Z 33003KT 30SM FEW210 01/M06 A3052 RMK CI2 SLP340

CYQB;2010-04-13 12:00;CYQB 131200Z 01005KT 30SM FEW210 03/M06 A3054 RMK CI1 SLP344

CYQB;2010-04-13 13:00;CYQB 131300Z 00000KT 30SM FEW210 05/M06 A3055 RMK CI1 SLP347

CYQB;2010-04-13 14:00;CYQB 131400Z 15002KT 30SM SCT210 07/M07 A3055 RMK CI1 SLP347

CYQB;2010-04-13 15:00;CYQB 131500Z 30004KT 30SM FEW210 08/M06 A3054 RMK CI1 SLP344

CYQB;2010-04-13 16:00;CYQB 131600Z 22004KT 30SM FEW180 08/M06 A3051 RMK AC1 SLP336

CYQB;2010-04-13 17:00;CYQB 131700Z 24007KT 30SM FEW210 10/M04 A3050 RMK CI0 SLP330

CYQB;2010-04-13 18:00;CYQB 131800Z 18010KT 30SM FEW210 11/M04 A3048 RMK CI0 SLP323

CYQB;2010-04-13 19:00;CYQB 131900Z 21014KT 30SM FEW030 SCT220 11/M05 A3045 RMK SC1CS0 SLP314

CYQB;2010-04-13 20:00;CYQB 132000Z 20013KT 30SM FEW040 SCT220 12/M06 A3044 RMK SC1CI0 SLP311

CYQB;2010-04-13 21:00;CYQB 132100Z 22013G18KT 30SM FEW040 BKN220 12/M08 A3043 RMK SC1CS0 SLP306

CYQB;2010-04-13 22:00;CYQB 132200Z 31007G17KT 30SM FEW040 SCT180 BKN220 12/M09 A3044 RMK SC1CI0CS0 SLP309

CYQB;2010-04-13 23:00;CYQB 132300Z 32006KT 30SM FEW040 SCT170 BKN220 11/M10 A3043 RMK SC1AC0CI0 SLP308

CYQB;2010-04-14 00:00;CYQB 140000Z 30004KT 30SM FEW040 FEW140 SCT220 09/M10 A3044 RMK SC1AC0CI0 SLP312

CYQB;2010-04-14 01:00;CYQB 140100Z 29004KT 15SM SKC 05/M08 A3046 RMK SLP316

CYQB;2010-04-14 02:00;CYQB 140200Z 28005KT 15SM FEW240 03/M07 A3046 RMK CI1 SLP317

CYQB;2010-04-14 03:00;CYQB 140300Z 00000KT 15SM FEW140 FEW240 04/M08 A3045 RMK AC1CI0 SLP314

CYQB;2010-04-14 04:00;CYQB 140400Z 14002KT 15SM FEW140 03/M08 A3044 RMK AC2 SLP312

CYQB;2010-04-14 05:00;CYQB 140500Z 05004KT 15SM FEW120 03/M08 A3044 RMK AC1 SLP309

CYQB;2010-04-14 06:00;CYQB 140600Z 00000KT 15SM FEW120 FEW240 02/M08 A3042 RMK AC1CI1 SLP304

CYQB;2010-04-14 07:00;CYQB 140700Z 36002KT 15SM FEW120 FEW240 01/M07 A3041 RMK AC1CI1 SLP302

CYQB;2010-04-14 08:00;CYQB 140800Z 00000KT 15SM SCT200 M01/M07 A3041 RMK CI2 SLP301

CYQB;2010-04-14 09:00;CYQB 140900Z 00000KT 15SM FEW120 SCT200 M01/M06 A3041 RMK AC1CI3 SLP302

CYQB;2010-04-14 10:00;CYQB 141000Z 00000KT 15SM FEW150 BKN210 M01/M07 A3044 RMK AC2CI2 SLP309

CYQB;2010-04-14 11:00;CYQB 141100Z 00000KT 15SM FEW150 OVC210 00/M06 A3044 RMK AC2CI3 SLP312

CYQB;2010-04-14 12:00;CYQB 141200Z 00000KT 15SM SCT150 OVC210 03/M04 A3046 RMK AC3CI3 SLP317

CYQB;2010-04-14 13:00;CYQB 141300Z 23007KT 15SM FEW140 OVC180 05/M04 A3046 RMK AC2AS6 SLP316

CYQB;2010-04-14 14:00;CYQB 141400Z 23012KT 15SM FEW040 FEW160 OVC250 06/M05 A3045 RMK CF1AC2CI2 SLP314

CYQB;2010-04-14 15:00;CYQB 141500Z 19006KT 15SM FEW055 FEW180 SCT250 09/M06 A3042 RMK CF1AC1CI1 SLP305

CYQB;2010-04-14 16:00;CYQB 141600Z 30007G17KT 15SM FEW070 FEW180 FEW250 11/M07 A3038 RMK CF1AC1CI0 SLP289

CYQB;2010-04-14 17:00;CYQB 141700Z 30011G19KT 15SM FEW080 FEW180 FEW250 12/M08 A3034 RMK AC1AC1CI0 SLP278

CYQB;2010-04-14 18:00;CYQB 141800Z 28011G22KT 15SM FEW090 FEW250 14/M07 A3032 RMK AC2CI0 SLP269

CYQB;2010-04-14 19:00;CYQB 141900Z 28012G19KT 25SM SCT090 13/M07 A3029 RMK AC4 SLP260

CYQB;2010-04-14 20:00;CYQB 142000Z 30013G21KT 25SM BKN090 BKN250 14/M07 A3025 RMK AC5CI2 SLP247

CYQB;2010-04-14 21:00;CYQB 142100Z 32015G26KT 25SM SCT040 BKN090 BKN250 14/M07 A3023 RMK SC3AC2CI0 SLP241

CYQB;2010-04-14 22:00;CYQB 142200Z 33015KT 25SM SCT090 BKN210 14/M07 A3023 RMK AC4CI0 SLP239

CYQB;2010-04-14 23:00;CYQB 142300Z 34007KT 25SM FEW090 FEW210 12/M07 A3023 RMK AC2CI1 SLP240

CYQB;2010-04-15 00:00;CYQB 150000Z 34004KT 15SM FEW090 10/M07 A3024 RMK AC2 SLP242

CYQB;2010-04-15 01:00;CYQB 150100Z 03010KT 15SM FEW100 10/M09 A3026 RMK AC2 SLP251

CYQB;2010-04-15 02:00;CYQB 150200Z 01015G20KT 15SM FEW100 09/M08 A3029 RMK AC2 SLP259

CYQB;2010-04-15 03:00;CYQB 150300Z 02012KT 15SM FEW100 07/M09 A3030 RMK AC1 SLP262

CYQB;2010-04-15 04:00;CYQB 150400Z 07010KT 15SM FEW100 04/00 A3031 RMK AC1 SLP267

CYQB;2010-04-15 05:00;CYQB 150500Z 07006KT 15SM FEW100 04/00 A3031 RMK AC1 SLP268

CYQB;2010-04-15 06:00;CYQB 150600Z 30002KT 15SM FEW010 FEW100 00/M02 A3032 RMK SF1AC1 SLP269

CYQB;2010-04-15 07:00;CYQB 150700Z 01003KT 15SM FEW010 02/M01 A3032 RMK SF1 SLP270

CYQB;2010-04-15 08:00;CYQB 150800Z 35002KT 15SM FEW010 M01/M02 A3033 RMK SF1 SLP273

CYQB;2010-04-15 09:00;CYQB 150900Z 00000KT 15SM SKC 00/M04 A3034 RMK SLP276

CYQB;2010-04-15 10:00;CYQB 151000Z 36003KT 15SM FEW025 M00/M06 A3035 RMK SC1 SLP279

CYQB;2010-04-15 11:00;CYQB 151100Z 05004KT 25SM FEW025 00/M05 A3036 RMK SC1 SLP285

CYQB;2010-04-15 12:00;CYQB 151200Z 06005KT 15SM FEW025 03/M05 A3038 RMK SC1 SLP291

CYQB;2010-04-15 13:00;CYQB 151300Z 08006KT 25SM FEW017 05/M05 A3039 RMK SC1 SLP294

CYQB;2010-04-15 14:00;CYQB 151400Z 07009KT 25SM FEW040 06/M04 A3039 RMK SC2 SLP295

CYQB;2010-04-15 15:00;CYQB 151500Z 07010G18KT 25SM SCT035 06/M03 A3039 RMK SC4 SLP295

CYQB;2010-04-15 16:00;CYQB 151600Z 09009KT 25SM SCT032 07/M02 A3039 RMK SC3 SLP294

CYQB;2010-04-15 17:00;CYQB 151700Z 09011G18KT 25SM SCT032 08/M03 A3039 RMK SC3 SLP292

CYQB;2010-04-15 18:00;CYQB 151800Z 10015KT 25SM SCT032 08/M04 A3037 RMK SC3 SLP289

CYQB;2010-04-15 19:00;CYQB 151900Z 10013KT 15SM FEW035 SCT250 09/M05 A3036 RMK CU2CI0 SLP283

CYQB;2010-04-15 20:00;CYQB 152000Z 08009KT 15SM FEW035 FEW250 09/M05 A3033 RMK SC2CI0 CU ASOCTD SLP276

CYQB;2010-04-15 21:00;CYQB 152100Z 07010KT 15SM FEW035 FEW220 SCT250 08/M04 A3033 RMK CU2CC1CI0 SLP274

CYQB;2010-04-15 22:00;CYQB 152200Z 07011G16KT 15SM FEW030 FEW050 BKN230 07/M06 A3032 RMK CU1SC1CS3 SLP270

CYQB;2010-04-15 23:00;CYQB 152300Z 07011G16KT 15SM FEW030 FEW050 BKN230 06/M04 A3031 RMK CU1SC1CS5 SLP268

CYQB;2010-04-16 00:00;CYQB 160000Z 08008KT 15SM FEW050 OVC230 04/M03 A3031 RMK SC1CS6 SLP267

CYQB;2010-04-16 01:00;CYQB 160100Z 07010G15KT 15SM FEW050 OVC200 04/M05 A3030 RMK SC1CS7 SLP265

CYQB;2010-04-16 02:00;CYQB 160200Z 08011G16KT 15SM OVC220 04/M05 A3030 RMK CI8 SLP264

CYQB;2010-04-16 03:00;CYQB 160300Z 07010G17KT 15SM OVC220 04/M05 A3029 RMK CI8 SLP261

CYQB;2010-04-16 04:00;CYQB 160400Z 08012G18KT 15SM OVC190 04/M03 A3027 RMK AC8 SLP253

CYQB;2010-04-16 05:00;CYQB 160500Z 08012KT 15SM OVC190 03/M02 A3026 RMK AC8 SLP251

CYQB;2010-04-16 06:00;CYQB 160600Z 07012G20KT 15SM OVC220 03/M01 A3023 RMK CI8 SLP241

CYQB;2010-04-16 07:00;CYQB 160700Z 07014G19KT 15SM OVC180 03/M01 A3022 RMK AC8 SLP235

CYQB;2010-04-16 08:00;CYQB 160800Z 09010G18KT 15SM OVC160 03/M01 A3019 RMK AC8 SLP226

CYQB;2010-04-16 09:00;CYQB 160900Z 07016G21KT 15SM OVC150 03/M01 A3015 RMK AC8 SLP214

CYQB;2010-04-16 10:00;CYQB 161000Z 07013KT 30SM FEW015 BKN150 02/M01 A3013 RMK SF1AS2 SLP206

CYQB;2010-04-16 11:00;CYQB 161100Z 08015KT 30SM OVC150 03/M01 A3013 RMK AS8 SLP205

CYQB;2010-04-16 12:00;CYQB 161200Z CCA 07014G19KT 30SM FEW030 OVC140 04/M02 A3012 RMK SC1AS8 ACSL ASOCTD SLP202

CYQB;2010-04-16 13:00;CYQB 161300Z 09011G16KT 30SM FEW030 FEW100 OVC120 05/M02 A3011 RMK SC1AC1AS8 ACSL SLP199

CYQB;2010-04-16 14:00;CYQB 161400Z 07015G20KT 30SM FEW030 OVC100 06/M01 A3009 RMK SC1AS8 ACSL ASOCTD SLP192

CYQB;2010-04-16 15:00;CYQB 161500Z 09015G20KT 30SM SCT037 OVC080 06/M01 A3006 RMK SC4AC4 SLP181

CYQB;2010-04-16 16:00;CYQB 161600Z 07013G22KT 30SM BKN037 OVC080 06/M02 A3002 RMK SC7AC1 SLP168

CYQB;2010-04-16 17:00;CYQB 161700Z 10010G15KT 30SM OVC039 08/M00 A2998 RMK SC8 SLP154

CYQB;2010-04-16 18:00;CYQB 161800Z 13013G24KT 30SM BKN042 BKN070 BKN085 OVC250 10/M01 A2996 RMK SC7AC1AC1CI0 SLP148

CYQB;2010-04-16 19:00;CYQB 161900Z 13012G20KT 30SM BKN045 OVC067 09/M01 A2993 RMK SC6SC2 SLP138

CYQB;2010-04-16 20:00;CYQB 162000Z 16012G17KT 30SM FEW045 OVC063 08/M01 A2990 RMK SC2SC6 SLP128

CYQB;2010-04-16 21:00;CYQB 162100Z 14013KT 15SM -RA OVC064 08/M01 A2987 RMK SC8 SLP119

CYQB;2010-04-16 22:00;CYQB 162200Z 13015G22KT 30SM OVC065 08/M02 A2986 RMK SC8 SLP115

CYQB;2010-04-16 23:00;CYQB 162300Z 10008G19KT 30SM OVC066 07/M01 A2984 RMK SC8 SLP107

CYQB;2010-04-17 00:00;CYQB 170000Z 08007KT 15SM FEW030 OVC067 07/M01 A2984 RMK SC2SC6 SLP107

CYQB;2010-04-17 00:26;CYQB 170026Z 08004KT 15SM -RA SCT030 OVC067 06/ RMK SC3SC5

CYQB;2010-04-17 01:00;CYQB 170100Z 11011KT 10SM -RA SCT020 BKN040 OVC067 06/00 A2985 RMK SC3SC2AC3 SLP110

CYQB;2010-04-17 02:00;CYQB 170200Z 13011G16KT 12SM -RA SCT023 OVC040 05/00 A2983 RMK SC3SC5 SLP105

CYQB;2010-04-17 03:00;CYQB 170300Z 13016KT 8SM -RA FEW012 OVC025 04/01 A2981 RMK SF2SC6 SLP098

CYQB;2010-04-17 04:00;CYQB 170400Z 09007G15KT 8SM -RA SCT019 OVC049 04/01 A2979 RMK SC3SC5 SLP090

CYQB;2010-04-17 05:00;CYQB 170500Z 10014G25KT 12SM -RA FEW014 OVC042 04/00 A2978 RMK SC2SC6 SLP086

CYQB;2010-04-17 06:00;CYQB 170600Z 09010G19KT 15SM OVC043 04/M00 A2975 RMK SC8 SLP077

CYQB;2010-04-17 07:00;CYQB 170700Z 09010G16KT 15SM OVC038 05/M01 A2974 RMK SC8 SLP072

CYQB;2010-04-17 08:00;CYQB 170800Z 09013KT 15SM -RA FEW028 OVC039 05/M01 A2973 RMK SC2SC6 SLP071

CYQB;2010-04-17 09:00;CYQB 170900Z 09011KT 15SM -RA OVC042 05/M02 A2973 RMK SC8 SLP070

CYQB;2010-04-17 10:00;CYQB 171000Z 12015G22KT 10SM -RA OVC027 03/M02 A2974 RMK SC8 SLP073

CYQB;2010-04-17 10:21;CYQB 171021Z 13014KT 4SM -RAPL BR OVC032 02/ RMK SC8

CYQB;2010-04-17 10:32;CYQB 171032Z 11012G17KT 1 1/2SM -RAPLSN BR OVC028 02/ RMK FG3SC5

CYQB;2010-04-17 11:00;CYQB 171100Z 09011G16KT 3/4SM R06/P6000FT/N -RASN BR OVC008 01/M00 A2976 RMK SF8 SLP079

CYQB;2010-04-17 11:10;CYQB 171110Z 09011G17KT 1SM R06/P6000FT/D -SN BR OVC007 01/ RMK SN3SF5

CYQB;2010-04-17 11:28;CYQB 171128Z 09009G15KT 3/4SM R06/P6000FT/N -SN BR OVC005 01/ RMK SN3SF5 CIG VRB 4-6

CYQB;2010-04-17 12:00;CYQB 171200Z 07008KT 3/4SM R06/6000FT/U -SN BR OVC006 00/M02 A2978 RMK SN3SF5 CIG VRB 5-7 /S01/ SLP086

CYQB;2010-04-17 13:00;CYQB 171300Z 07010G15KT 3/4SM R06/5000FT/N -SN BR OVC007 01/M00 A2980 RMK SN3SF5 SLP093

CYQB;2010-04-17 13:31;CYQB 171331Z 08010KT 1SM R06/P6000FT/N -RASN BR SCT007 OVC012 01/ RMK SF4SC4

CYQB;2010-04-17 14:00;CYQB 171400Z 07010KT 3SM -RA BR FEW007 BKN010 OVC015 02/00 A2980 RMK SF2SC6SC1 SLP095

CYQB;2010-04-17 14:36;CYQB 171436Z 07012KT 1 1/2SM -RASN BR BKN007 OVC016 01/ RMK FG2ST3SC3

CYQB;2010-04-17 15:00;CYQB 171500Z 07010G15KT 1/2SM R06/P6000FT/N -RASN FG BKN003 OVC007 01/M00 A2982 RMK FG4SF2SC2 SLP100

CYQB;2010-04-17 15:18;CYQB 171518Z 07007KT 1/2SM R06/6000FT/N -SN FG BKN005 OVC012 01/ RMK FG4ST3SC1 CIG VRB 3-7

CYQB;2010-04-17 15:44;CYQB 171544Z 08007KT 1 1/2SM -SN BR BKN007 OVC012 01/ RMK FG2SF3SC2 CIG VRB 5-9

CYQB;2010-04-17 16:00;CYQB 171600Z 10010G15KT 2SM -SN BR BKN007 OVC012 01/00 A2982 RMK FG2ST3SC2 SLP102

CYQB;2010-04-17 16:26;CYQB 171626Z CCA 09007G15KT 2SM -RASN BR OVC005 01/ RMK ST8 CIG VRB 4-6

CYQB;2010-04-17 17:00;CYQB 171700Z 08013G19KT 1SM R06/P6000FT/N -RASN BR BKN007 OVC012 01/M00 A2983 RMK FG2ST4SC2 CIG VRB 5-9 SLP104

CYQB;2010-04-17 17:11;CYQB 171711Z 07011G16KT 1/2SM R06/4500VP6000FT/D -RASN FG OVC004 01/ RMK FG4ST4

CYQB;2010-04-17 18:00;CYQB 171800Z 08011KT 1 1/4SM -RASN BR BKN005 OVC010 01/M00 A2983 RMK FG3SF2SC2 CIG VRB 3-7 SLP106

CYQB;2010-04-17 19:00;CYQB 171900Z 09008KT 1 1/2SM -RASN BR BKN007 OVC010 01/00 A2983 RMK FG2ST4SC2 CIG VRB 5-9 SLP106

CYQB;2010-04-17 19:13;CYQB 171913Z 09006KT 3SM -RASN BR BKN008 OVC012 01/ RMK FG2ST5SC2 VIS LWR N-NE

CYQB;2010-04-17 19:38;CYQB 171938Z 08005KT 5SM -RASN VCFG BKN007 OVC012 02/00 RMK ST6SC2 VIS LWR W-N

CYQB;2010-04-17 20:00;CYQB 172000Z 07002KT 6SM -RA SCT007 BKN012 OVC031 02/01 A2983 RMK SF3SC3SC2 SLP105

CYQB;2010-04-17 20:13;CYQB 172013Z 00000KT 6SM -RA VCFG SCT005 BKN012 OVC031 02/ RMK SF3ST3SC2 VIS LWR W-NE

CYQB;2010-04-17 21:00;CYQB 172100Z 04004KT 6SM -RA VCFG SCT005 BKN015 OVC025 03/01 A2983 RMK SF3ST3SC2 SLP105

CYQB;2010-04-17 22:00;CYQB 172200Z 08009G15KT 15SM BKN035 BKN060 04/00 A2984 RMK SC5SC2 SLP108

CYQB;2010-04-17 23:00;CYQB 172300Z 05004KT 15SM FEW035 SCT060 BKN100 04/00 A2983 RMK SC2SC2AC1 SLP106

CYQB;2010-04-18 00:00;CYQB 180000Z 36006KT 15SM SCT065 BKN090 02/01 A2985 RMK SC4AC1 SLP110

CYQB;2010-04-18 01:00;CYQB 180100Z 35004KT 15SM BKN065 OVC090 02/00 A2985 RMK SC7AC1 SLP111

CYQB;2010-04-18 02:00;CYQB 180200Z 05002KT 15SM BKN069 02/00 A2985 RMK AC7 SLP112

CYQB;2010-04-18 03:00;CYQB 180300Z 00000KT 15SM OVC065 02/01 A2984 RMK SC8 SLP108

CYQB;2010-04-18 04:00;CYQB 180400Z 21002KT 15SM OVC064 02/01 A2983 RMK SC8 SLP103

CYQB;2010-04-18 05:00;CYQB 180500Z 30002KT 15SM OVC072 01/00 A2982 RMK AC8 SLP102

CYQB;2010-04-18 06:00;CYQB 180600Z 27004KT 15SM OVC070 01/00 A2979 RMK AC8 SLP092

CYQB;2010-04-18 07:00;CYQB 180700Z 00000KT 15SM BKN057 OVC070 01/00 A2978 RMK SC7AC1 SLP087

CYQB;2010-04-18 08:00;CYQB 180800Z 31002KT 15SM BKN056 OVC073 01/00 A2976 RMK SC7AC1 SLP081

CYQB;2010-04-18 09:00;CYQB 180900Z 00000KT 15SM -RA OVC021 01/00 A2976 RMK SC8 SLP080

CYQB;2010-04-18 10:00;CYQB 181000Z 29004KT 15SM -RA OVC018 02/01 A2975 RMK SC8 SLP078

CYQB;2010-04-18 11:00;CYQB 181100Z 31005KT 15SM -RA OVC023 03/01 A2975 RMK SC8 SLP079

CYQB;2010-04-18 12:00;CYQB 181200Z 04002KT 15SM -RA OVC024 03/02 A2976 RMK SC8 SLP081

CYQB;2010-04-18 13:00;CYQB 181300Z 06004KT 15SM -RA FEW011 OVC020 03/02 A2977 RMK SF2SC6 SLP083

CYQB;2010-04-18 14:00;CYQB 181400Z 07005KT 15SM OVC012 04/02 A2978 RMK SC8 SLP087

CYQB;2010-04-18 15:00;CYQB 181500Z 07007KT 15SM -RA OVC011 05/03 A2980 RMK SC8 SLP093

CYQB;2010-04-18 16:00;CYQB 181600Z 09009KT 15SM -RA SCT012 OVC022 05/03 A2981 RMK SF3SC5 SLP096

CYQB;2010-04-18 17:00;CYQB 181700Z 09013KT 15SM FEW012 OVC020 06/03 A2981 RMK SF2SC6 SLP098

CYQB;2010-04-18 18:00;CYQB 181800Z 07014G21KT 25SM SCT018 OVC020 06/02 A2982 RMK SF3SC5 SLP101

CYQB;2010-04-18 19:00;CYQB 181900Z 07016G21KT 25SM FEW020 BKN030 OVC060 07/02 A2982 RMK SF2SC4SC2 SLP102

CYQB;2010-04-18 20:00;CYQB 182000Z 07015G22KT 20SM FEW025 BKN100 BKN250 08/02 A2983 RMK CU2AC3CI1 SLP106

CYQB;2010-04-18 21:00;CYQB 182100Z 09016G22KT 20SM SCT025 BKN063 BKN100 07/02 A2985 RMK SC4SC2AC1 SLP112

CYQB;2010-04-18 22:00;CYQB 182200Z 09013G18KT 20SM SCT025 BKN065 BKN100 06/02 A2987 RMK CU4SC2AC1 SLP117

CYQB;2010-04-18 23:00;CYQB 182300Z 09009G15KT 15SM FEW025 SCT065 05/01 A2988 RMK CU2SC2 SLP120

CYQB;2010-04-19 00:00;CYQB 190000Z 07007KT 15SM FEW060 04/01 A2989 RMK SC2 SLP126

CYQB;2010-04-19 01:00;CYQB 190100Z 06006KT 15SM FEW015 FEW060 04/01 A2991 RMK SC1SC2 SLP132

CYQB;2010-04-19 02:00;CYQB 190200Z 01003KT 15SM BKN058 04/01 A2991 RMK SC6 SLP132

CYQB;2010-04-19 03:00;CYQB 190300Z 00000KT 15SM BKN050 BKN110 02/00 A2992 RMK SC5AC2 SLP134

CYQB;2010-04-19 04:00;CYQB 190400Z 24006KT 15SM BKN096 02/00 A2990 RMK AC7 SLP128

CYQB;2010-04-19 05:00;CYQB 190500Z 21002KT 15SM BKN054 BKN075 03/01 A2989 RMK SC6AC1 SLP126

CYQB;2010-04-19 06:00;CYQB 190600Z 00000KT 15SM BKN060 BKN140 03/01 A2988 RMK SC6AC1 OBS TAKEN +15 SLP120

CYQB;2010-04-19 07:00;CYQB 190700Z 07003KT 15SM BKN060 BKN081 02/01 A2988 RMK SC5AC2 SLP120

CYQB;2010-04-19 08:00;CYQB 190800Z 32002KT 15SM SCT039 01/M00 A2988 RMK SC3 SLP120

CYQB;2010-04-19 09:00;CYQB 190900Z 24002KT 15SM BKN034 01/00 A2988 RMK SC7 SLP121

CYQB;2010-04-19 10:00;CYQB 191000Z 04003KT 25SM BKN035 BKN088 OVC220 01/00 A2990 RMK SC6AC2CI1 SLP128

CYQB;2010-04-19 11:00;CYQB 191100Z 00000KT 20SM BKN032 BKN088 OVC220 03/01 A2992 RMK SC6AC2CI0 SLP136

CYQB;2010-04-19 12:00;CYQB 191200Z CCA 26003KT 20SM BKN032 BKN088 BKN220 05/02 A2994 RMK SC5AC2CI1 VIS LWR NE SLP143

CYQB;2010-04-19 13:00;CYQB 191300Z 10003KT 25SM SCT034 BKN110 BKN220 07/03 A2995 RMK SC4AC2CI1 VIS NE 8 SLP145

CYQB;2010-04-19 14:00;CYQB 191400Z 12005KT 25SM FEW017 SCT030 BKN120 BKN220 08/04 A2996 RMK SC2SC2AC2CI1 VIS LWR NE SLP149

CYQB;2010-04-19 15:00;CYQB 191500Z 00000KT 25SM FEW020 SCT035 BKN120 09/04 A2997 RMK SC2SC2AC2 SLP150

CYQB;2010-04-19 16:00;CYQB 191600Z 20005KT 25SM FEW017 SCT040 BKN055 BKN120 10/03 A2996 RMK SC2SC2SC2AC2 VCSH SLP148

CYQB;2010-04-19 16:16;CYQB 191616Z 20005KT 10SM -SHRA BKN020 OVC035 09/ RMK SC5SC3

CYQB;2010-04-19 17:00;CYQB 191700Z 18005KT 25SM SCT020 BKN035 BKN120 10/05 A2995 RMK SC3SC3AC1 OCNL -SHRA SLP144

CYQB;2010-04-19 18:00;CYQB 191800Z CCA 23005KT 20SM -SHRA SCT025 BKN038 OVC120 12/06 A2994 RMK SC3SC4AC1 VIS NE 6 SLP143

CYQB;2010-04-19 19:00;CYQB 191900Z 24006KT 20SM -SHRA SCT025 BKN044 BKN120 13/06 A2993 RMK SC3SC3AC1 SLP139

CYQB;2010-04-19 20:00;CYQB 192000Z 24005KT 30SM -SHRA SCT025 BKN045 BKN100 14/06 A2991 RMK SC3SC2AC2 SLP132

CYQB;2010-04-19 20:35;CYQB 192035Z 11004KT 30SM SCT030 BKN052 BKN100 14/ RMK SC3SC2AC1 VCSH

CYQB;2010-04-19 21:00;CYQB 192100Z 04004KT 30SM FEW030 BKN055 BKN120 15/06 A2991 RMK SC2SC2AC1 SLP129

CYQB;2010-04-19 21:20;CYQB 192120Z 11005KT 20SM -SHRA SCT030 SCT120 BKN220 14/ RMK CU3AC1CI0

CYQB;2010-04-19 22:00;CYQB 192200Z 07011G17KT 20SM SCT040 SCT120 BKN240 12/06 A2991 RMK CU3AC1CI0 SLP131

CYQB;2010-04-19 23:00;CYQB 192300Z 09009KT 20SM SCT060 SCT100 BKN240 09/06 A2992 RMK CU3AC1CI1 SLP133

CYQB;2010-04-20 00:00;CYQB 200000Z 08006KT 15SM SCT060 SCT120 08/05 A2994 RMK SC3AC1 SLP142

CYQB;2010-04-20 01:00;CYQB 200100Z 13004KT 15SM SCT070 BKN120 07/05 A2994 RMK AC3AC3 SLP142

CYQB;2010-04-20 02:00;CYQB 200200Z 05004KT 15SM BKN090 BKN120 08/05 A2994 RMK AC6AC1 SLP141

CYQB;2010-04-20 03:00;CYQB 200300Z 29003KT 15SM BKN074 BKN120 06/05 A2993 RMK AC5AC2 SLP139

CYQB;2010-04-20 04:00;CYQB 200400Z 27002KT 15SM BKN087 BKN100 06/05 A2992 RMK AC6AC1 SLP135

CYQB;2010-04-20 05:00;CYQB 200500Z 27002KT 15SM BKN077 06/05 A2991 RMK AC7 SLP131

CYQB;2010-04-20 06:00;CYQB 200600Z 25002KT 15SM -SHRA OVC076 06/06 A2989 RMK AC8 -SHRA OCNL SLP123

CYQB;2010-04-20 06:17;CYQB 200617Z 00000KT 15SM BKN085 06/ RMK AC7

CYQB;2010-04-20 07:00;CYQB 200700Z 22002KT 15SM BKN090 06/05 A2988 RMK AC7 SLP119

CYQB;2010-04-20 08:00;CYQB 200800Z 22003KT 15SM OVC100 06/05 A2988 RMK AC8 SLP121

CYQB;2010-04-20 09:00;CYQB 200900Z 27002KT 15SM SCT100 04/04 A2988 RMK AC4 SLP119

CYQB;2010-04-20 10:00;CYQB 201000Z 00000KT 15SM MIFG FEW010 FEW030 FEW100 03/03 A2988 RMK SF1SC1AC1 SLP119

CYQB;2010-04-20 11:00;CYQB 201100Z 00000KT 30SM FEW030 FEW100 03/03 A2988 RMK SC1AC1 SLP121

CYQB;2010-04-20 12:00;CYQB 201200Z 00000KT 30SM FEW099 FEW200 09/05 A2988 RMK AC2CI1 SLP121

CYQB;2010-04-20 13:00;CYQB 201300Z 23004KT 30SM FEW100 11/02 A2988 RMK AC2 SLP120

CYQB;2010-04-20 14:00;CYQB 201400Z 24006KT 30SM FEW100 FEW240 14/04 A2988 RMK AC1CI1 SLP119

CYQB;2010-04-20 15:00;CYQB 201500Z 34007G15KT 30SM FEW100 FEW210 15/03 A2986 RMK AC1CI1 SLP112

CYQB;2010-04-20 16:00;CYQB 201600Z 31003G16KT 30SM FEW100 FEW170 16/01 A2984 RMK AC1AC2 SLP106

CYQB;2010-04-20 17:00;CYQB 201700Z 31014KT 30SM FEW030 FEW100 FEW210 18/03 A2981 RMK CU1AC2CI1 SLP098

CYQB;2010-04-20 18:00;CYQB 201800Z 34017KT 30SM FEW100 FEW210 18/M01 A2980 RMK AC2CI1 SLP093

CYQB;2010-04-20 19:00;CYQB 201900Z 30016G25KT 30SM FEW088 18/00 A2978 RMK CU2 SLP087

CYQB;2010-04-20 20:00;CYQB 202000Z 34011G19KT 30SM FEW089 18/M01 A2978 RMK CU2 SLP085

CYQB;2010-04-20 21:00;CYQB 202100Z 32009G16KT 30SM FEW090 19/M00 A2977 RMK CU2 SLP082

CYQB;2010-04-20 22:00;CYQB 202200Z 29010KT 30SM FEW090 17/M00 A2977 RMK AC2 SLP082

CYQB;2010-04-20 23:00;CYQB 202300Z 30006KT 30SM FEW090 16/M00 A2978 RMK AC1 SLP084

CYQB;2010-04-21 00:00;CYQB 210000Z 31006KT 30SM FEW090 14/M01 A2978 RMK AC1 SLP087

CYQB;2010-04-21 01:00;CYQB 210100Z 32006KT 15SM SKC 11/M00 A2980 RMK SLP091

CYQB;2010-04-21 02:00;CYQB 210200Z 34008KT 15SM SKC 11/M02 A2981 RMK SLP095

CYQB;2010-04-21 03:00;CYQB 210300Z 02006KT 15SM FEW070 FEW110 10/M03 A2982 RMK AC1AC1 SLP098

CYQB;2010-04-21 04:00;CYQB 210400Z 02008KT 15SM SCT085 09/M04 A2982 RMK AC3 SLP100

CYQB;2010-04-21 05:00;CYQB 210500Z 36005KT 15SM SCT090 SCT180 08/M04 A2983 RMK AC3AC1 SLP101

CYQB;2010-04-21 06:00;CYQB 210600Z 32003KT 15SM FEW090 SCT180 05/M03 A2982 RMK AC1AC3 SLP100

CYQB;2010-04-21 07:00;CYQB 210700Z 35005KT 15SM FEW150 SCT210 05/M03 A2982 RMK AC1CI1 SLP099

CYQB;2010-04-21 08:00;CYQB 210800Z 35003KT 15SM FEW150 SCT210 05/M03 A2982 RMK AC1CI0 SLP101

CYQB;2010-04-21 09:00;CYQB 210900Z 36003KT 15SM BKN071 06/M04 A2982 RMK AC6 SLP099

CYQB;2010-04-21 10:00;CYQB 211000Z 34002KT 30SM BKN055 05/M03 A2983 RMK SC7 SLP102

CYQB;2010-04-21 11:00;CYQB 211100Z 36007KT 30SM SCT060 BKN100 09/M02 A2983 RMK SC4AC3 SLP103

CYQB;2010-04-21 12:00;CYQB 211200Z 36008KT 30SM FEW060 BKN097 07/M03 A2983 RMK SC2AC3 SLP104

CYQB;2010-04-21 13:00;CYQB 211300Z 32003KT 30SM FEW060 FEW100 08/M02 A2983 RMK SC2AC1 SLP102

CYQB;2010-04-21 14:00;CYQB 211400Z 02004KT 30SM FEW100 10/M01 A2982 RMK AC2 SLP100

CYQB;2010-04-21 15:00;CYQB 211500Z 00000KT 30SM FEW100 11/M00 A2981 RMK AC2 SLP096

CYQB;2010-04-21 16:00;CYQB 211600Z 21002KT 30SM FEW060 FEW100 12/00 A2978 RMK SC1AC1 SLP088

CYQB;2010-04-21 17:00;CYQB 211700Z 13003KT 30SM FEW060 SCT100 13/00 A2976 RMK SC1AC2 SLP080

CYQB;2010-04-21 18:00;CYQB 211800Z 19005KT 30SM FEW050 FEW090 SCT210 14/02 A2974 RMK SC1AC1CI0 SLP074

CYQB;2010-04-21 19:00;CYQB 211900Z 17005KT 30SM FEW050 SCT090 SCT210 15/03 A2972 RMK CU1AC2CI0 SLP065

CYQB;2010-04-21 20:00;CYQB 212000Z 22010KT 30SM FEW050 SCT090 BKN210 15/03 A2970 RMK CU1AC1CI0 SLP061

CYQB;2010-04-21 21:00;CYQB 212100Z 24009KT 30SM FEW050 SCT090 BKN180 15/03 A2970 RMK CU1AC1AC1 SLP059

CYQB;2010-04-21 22:00;CYQB 212200Z 19007KT 30SM FEW050 SCT090 BKN150 14/03 A2970 RMK CU1AC1AC3 SLP057

CYQB;2010-04-21 23:00;CYQB 212300Z 22006KT 30SM FEW050 FEW090 BKN150 13/03 A2969 RMK SC1AC1AC4 SLP055

CYQB;2010-04-22 00:00;CYQB 220000Z 06008KT 30SM FEW070 FEW150 BKN230 11/02 A2971 RMK AC1AC1CI4 SLP062

CYQB;2010-04-22 01:00;CYQB 220100Z 06005KT 15SM FEW070 SCT230 10/01 A2972 RMK AC1CI2 SLP067

CYQB;2010-04-22 02:00;CYQB 220200Z 06005KT 15SM SCT160 09/02 A2971 RMK AC2 SLP063

CYQB;2010-04-22 03:00;CYQB 220300Z 36003KT 15SM SCT070 BKN240 08/01 A2972 RMK AC4CI0 SLP065

CYQB;2010-04-22 04:00;CYQB 220400Z 07008KT 15SM FEW070 SCT140 BKN240 08/M01 A2971 RMK AC2AC2CI1 SLP062

CYQB;2010-04-22 05:00;CYQB 220500Z 02006KT 15SM SCT070 BKN140 BKN240 07/M01 A2971 RMK AC3AC1CI0 SLP063

CYQB;2010-04-22 06:00;CYQB 220600Z 02003KT 15SM SCT070 BKN140 07/01 A2969 RMK AC3AC2 SLP055

CYQB;2010-04-22 07:00;CYQB 220700Z 36005KT 15SM SCT070 BKN120 06/02 A2969 RMK AC4AC2 SLP055

CYQB;2010-04-22 08:00;CYQB 220800Z 00000KT 15SM BKN070 BKN110 06/02 A2972 RMK AC6AC1 SLP064

CYQB;2010-04-22 09:00;CYQB 220900Z 36004KT 15SM BKN062 BKN110 06/03 A2970 RMK SC6AC1 SLP058

CYQB;2010-04-22 10:00;CYQB 221000Z 00000KT 10SM -RA OVC054 06/04 A2972 RMK SC8 SLP066

CYQB;2010-04-22 11:00;CYQB 221100Z 01004KT 12SM VCSH SCT054 BKN072 06/04 A2972 RMK SC4AC3 VIRGA ALL QDS SLP066

CYQB;2010-04-22 12:00;CYQB 221200Z 07010G15KT 15SM FEW008 SCT060 SCT100 07/04 A2974 RMK SF1SC3AC1 VIRGA SLP072

CYQB;2010-04-22 13:00;CYQB 221300Z 09013KT 15SM FEW015 SCT060 BKN120 08/03 A2974 RMK SC1SC3AC1 SLP072

CYQB;2010-04-22 14:00;CYQB 221400Z 10007KT 15SM FEW030 SCT060 BKN095 09/01 A2975 RMK SC1SC3AC2 SLP075

CYQB;2010-04-22 15:00;CYQB 221500Z 09005KT 8SM -SHRA FEW035 BKN057 OVC095 09/02 A2975 RMK SC2SC4AC2 SLP075

CYQB;2010-04-22 16:00;CYQB 221600Z 08007KT 8SM -SHRA FEW035 BKN055 OVC095 10/03 A2973 RMK SC1SC5AC2 SLP070

CYQB;2010-04-22 16:49;CYQB 221649Z 09008KT 15SM FEW035 BKN065 BKN095 10/ RMK SC1SC5SC2

CYQB;2010-04-22 17:00;CYQB 221700Z 10008KT 15SM FEW035 BKN065 BKN095 10/03 A2972 RMK SC1SC4AC2 VIRGA SLP067

CYQB;2010-04-22 18:00;CYQB 221800Z 08006KT 15SM FEW035 BKN065 BKN095 11/04 A2972 RMK SC2SC3AC2 SLP066

CYQB;2010-04-22 19:00;CYQB 221900Z 09007KT 30SM FEW032 BKN060 11/03 A2971 RMK SC2SC1 SLP064

CYQB;2010-04-22 20:00;CYQB 222000Z 08005KT 30SM FEW032 SCT060 BKN095 12/03 A2971 RMK SC1SC2AC0 SLP062

CYQB;2010-04-22 21:00;CYQB 222100Z 10011KT 30SM FEW030 FEW055 SCT095 12/03 A2971 RMK SC1SC1AC0 SLP062

CYQB;2010-04-22 22:00;CYQB 222200Z 09005KT 30SM FEW055 SCT095 11/03 A2972 RMK SC2AC1 SLP065

CYQB;2010-04-22 23:00;CYQB 222300Z 10006KT 20SM FEW055 SCT095 SCT240 09/02 A2973 RMK SC2AC2CI1 SLP069

CYQB;2010-04-23 00:00;CYQB 230000Z 08006KT 15SM FEW055 SCT092 SCT240 08/02 A2974 RMK SC1AC3CI1 SLP074

CYQB;2010-04-23 01:00;CYQB 230100Z 07007KT 15SM -SHRA BKN042 BKN090 08/02 A2977 RMK SC6AC1 SLP084

CYQB;2010-04-23 02:00;CYQB 230200Z 03006KT 6SM -SHRA BR SCT045 OVC058 07/05 A2977 RMK SC3SC5 SLP084

CYQB;2010-04-23 03:00;CYQB 230300Z 04004KT 15SM BKN060 BKN096 08/05 A2977 RMK SC5AC2 SLP084

CYQB;2010-04-23 03:45;CYQB 230345Z 36004KT 15SM BKN057 BKN096 07/ RMK SC5AC2

CYQB;2010-04-23 04:00;CYQB 230400Z 36004KT 15SM BKN056 BKN096 07/05 A2978 RMK SC6AC1 SLP087

CYQB;2010-04-23 05:00;CYQB 230500Z 04003KT 15SM BKN045 BKN070 07/05 A2978 RMK SC6AC1 SLP087

CYQB;2010-04-23 06:00;CYQB 230600Z 00000KT 15SM OVC046 07/05 A2978 RMK SC8 SLP085

CYQB;2010-04-23 07:00;CYQB 230700Z 09003KT 15SM BKN048 06/05 A2977 RMK SC5 SLP083

CYQB;2010-04-23 08:00;CYQB 230800Z 00000KT 15SM FEW050 BKN098 05/05 A2978 RMK SC1AC2 SLP087

CYQB;2010-04-23 09:00;CYQB 230900Z 00000KT 15SM BKN099 04/04 A2979 RMK AC7 SLP090

CYQB;2010-04-23 10:00;CYQB 231000Z 31006KT 30SM BKN100 BKN290 05/01 A2980 RMK AC5CI1 SLP093

CYQB;2010-04-23 11:00;CYQB 231100Z 00000KT 15SM FEW008 FEW020 BKN100 BKN290 06/02 A2982 RMK CF1SC1AC4CI1 SLP101

CYQB;2010-04-23 12:00;CYQB 231200Z 36004KT 15SM FEW008 FEW070 SCT100 BKN290 07/01 A2983 RMK CF1AC1AC2CI1 SLP105

CYQB;2010-04-23 13:00;CYQB 231300Z 02003KT 30SM FEW030 FEW100 BKN290 08/03 A2984 RMK CU1AC1CI2 SLP108

CYQB;2010-04-23 14:00;CYQB 231400Z 00000KT 30SM FEW035 FEW100 BKN290 10/02 A2985 RMK CU1AC1CI1 SLP109

CYQB;2010-04-23 15:00;CYQB 231500Z 10003KT 30SM FEW035 BKN280 12/03 A2983 RMK CU2CI0 SLP104

CYQB;2010-04-23 16:00;CYQB 231600Z 12005KT 20SM FEW015 BKN040 13/03 A2982 RMK CU1CU6 SLP100

CYQB;2010-04-23 17:00;CYQB 231700Z 05006KT 20SM BKN040 BKN075 12/02 A2984 RMK CU5AC2 SLP106

CYQB;2010-04-23 18:00;CYQB 231800Z 20002KT 20SM SCT040 BKN093 12/01 A2984 RMK CU4AC3 SLP106

CYQB;2010-04-23 19:00;CYQB 231900Z 18004KT 20SM SCT040 BKN096 BKN250 13/01 A2984 RMK CU3AC4CI1 SLP107

CYQB;2010-04-23 20:00;CYQB 232000Z 23005KT 20SM SCT040 BKN096 BKN250 14/01 A2985 RMK CU3AC3CI0 SLP109

CYQB;2010-04-23 21:00;CYQB 232100Z CCA 21002KT 20SM FEW050 BKN095 BKN250 14/M00 A2986 RMK CU2AC3CI0 SLP113

CYQB;2010-04-23 22:00;CYQB 232200Z 24006KT 30SM FEW050 BKN090 BKN250 14/00 A2987 RMK CU1AC5CI0 SLP116

CYQB;2010-04-23 23:00;CYQB 232300Z 02009KT 30SM FEW050 BKN088 BKN250 13/01 A2989 RMK CU1AC5CI1 SLP123

CYQB;2010-04-24 00:00;CYQB 240000Z 05003KT 30SM FEW050 BKN089 BKN250 12/02 A2992 RMK CU1AC5CI1 SLP133

CYQB;2010-04-24 01:00;CYQB 240100Z 07008KT 15SM SCT090 09/04 A2995 RMK AC3 SLP143

CYQB;2010-04-24 02:00;CYQB 240200Z 07005KT 15SM FEW090 08/03 A2996 RMK AC1 SLP147

CYQB;2010-04-24 03:00;CYQB 240300Z 00000KT 15SM SKC 05/02 A2997 RMK SLP149

CYQB;2010-04-24 04:00;CYQB 240400Z 00000KT 15SM SKC 04/02 A2997 RMK SLP152

CYQB;2010-04-24 05:00;CYQB 240500Z 00000KT 15SM SKC 03/01 A2999 RMK SLP157

CYQB;2010-04-24 06:00;CYQB 240600Z 36003KT 15SM SKC 04/M01 A2999 RMK SLP159

CYQB;2010-04-24 07:00;CYQB 240700Z 01003KT 15SM SKC 03/M02 A2999 RMK SLP159

CYQB;2010-04-24 08:00;CYQB 240800Z 03002KT 15SM SKC 02/M02 A3000 RMK SLP163

CYQB;2010-04-24 09:00;CYQB 240900Z 34004KT 15SM SKC 03/M02 A3001 RMK SLP164

CYQB;2010-04-24 10:00;CYQB 241000Z 28003KT 30SM SKC 01/M02 A3003 RMK SLP170

CYQB;2010-04-24 11:00;CYQB 241100Z 27003KT 30SM SKC 02/01 A3005 RMK SLP177

CYQB;2010-04-24 12:00;CYQB 241200Z 23004KT 30SM SKC 05/03 A3006 RMK SLP181

CYQB;2010-04-24 13:00;CYQB 241300Z 24006KT 30SM SKC 08/02 A3005 RMK SLP179

CYQB;2010-04-24 14:00;CYQB 241400Z 19008KT 30SM SKC 10/02 A3004 RMK SLP175

CYQB;2010-04-24 15:00;CYQB 241500Z 21011KT 30SM FEW045 FEW090 12/00 A3001 RMK CU1AS1 SLP166

CYQB;2010-04-24 16:00;CYQB 241600Z 19008KT 30SM FEW055 SCT090 BKN180 15/M00 A2997 RMK CU1AC2AC1 SLP150

CYQB;2010-04-24 17:00;CYQB 241700Z 22014G19KT 30SM FEW055 BKN095 BKN180 15/M02 A2995 RMK CU1AC4AC0 SLP144

CYQB;2010-04-24 18:00;CYQB 241800Z 23016G27KT 30SM FEW060 FEW075 BKN110 BKN180 16/M02 A2993 RMK CU1AC1AC5AC0 SLP138

CYQB;2010-04-24 19:00;CYQB 241900Z 27019G28KT 30SM FEW030 FEW065 OVC110 13/00 A2994 RMK SC1SC2AC6 VIRGA ALQDS SLP141

CYQB;2010-04-24 19:48;CYQB 241948Z 31011G17KT 30SM -SHRA FEW040 BKN070 OVC110 12/ RMK SC2AC4AC2

CYQB;2010-04-24 20:00;CYQB 242000Z 31009KT 30SM -SHRA FEW025 BKN055 OVC110 13/02 A2992 RMK SC2SC4AC2 SLP132

CYQB;2010-04-24 21:00;CYQB 242100Z 26005KT 30SM FEW025 BKN045 OVC110 13/01 A2989 RMK SC2SC6AC1 SLP123

CYQB;2010-04-24 22:00;CYQB 242200Z 12003KT 30SM FEW030 SCT055 BKN086 BKN220 13/02 A2985 RMK SC1SC3AC2CI1 SLP110

CYQB;2010-04-24 22:47;CYQB 242247Z 11003KT 30SM -SHRA FEW030 BKN080 OVC200 12/ RMK SC2AC6CI1

CYQB;2010-04-24 23:00;CYQB 242300Z 11003KT 30SM BKN070 OVC200 12/01 A2983 RMK AC6CI2 OCNL -SHRA VIRGA W-N SLP103

CYQB;2010-04-25 00:00;CYQB 250000Z 32004KT 15SM BKN060 OVC200 12/02 A2984 RMK SC7CI1 OCNL -SHRA SLP106

CYQB;2010-04-25 01:00;CYQB 250100Z 00000KT 10SM -SHRA BKN025 OVC045 10/06 A2986 RMK SC7SC1 SLP112

CYQB;2010-04-25 02:00;CYQB 250200Z 20004KT 8SM -SHRA BKN028 OVC044 08/07 A2985 RMK SC7SC1 SLP109

CYQB;2010-04-25 03:00;CYQB 250300Z 22007KT 10SM -SHRA OVC032 08/07 A2981 RMK SC8 SLP095

CYQB;2010-04-25 04:00;CYQB 250400Z 32009KT 15SM BKN049 07/05 A2979 RMK SC7 OCNL -SHRA SLP091

CYQB;2010-04-25 04:11;CYQB 250411Z 32006KT 15SM BKN049 BKN059 07/ RMK SC6SC1

CYQB;2010-04-25 05:00;CYQB 250500Z 28003KT 15SM FEW060 06/04 A2978 RMK SC1 SLP086

CYQB;2010-04-25 06:00;CYQB 250600Z 25003KT 15SM FEW070 04/03 A2977 RMK AC1 SLP084

CYQB;2010-04-25 07:00;CYQB 250700Z 35003KT 15SM BKN046 05/03 A2977 RMK SC6 SLP082

CYQB;2010-04-25 08:00;CYQB 250800Z 35005KT 15SM FEW050 05/03 A2977 RMK SC1 SLP083

CYQB;2010-04-25 09:00;CYQB 250900Z 32004KT 15SM SCT040 03/02 A2977 RMK SC3 SLP084

CYQB;2010-04-25 10:00;CYQB 251000Z 10002KT 15SM FEW040 03/02 A2978 RMK SC1 SLP085

CYQB;2010-04-25 11:00;CYQB 251100Z 36003KT 15SM FEW030 05/03 A2978 RMK SC1 SLP087

CYQB;2010-04-25 12:00;CYQB 251200Z 00000KT 15SM FEW025 07/03 A2979 RMK CF1 SLP089

CYQB;2010-04-25 13:00;CYQB 251300Z 18002KT 15SM FEW025 09/04 A2978 RMK CF1 SLP086

CYQB;2010-04-25 14:00;CYQB 251400Z 26003KT 15SM FEW028 10/03 A2977 RMK CF1 SLP083

CYQB;2010-04-25 15:00;CYQB 251500Z 07002KT 15SM FEW030 11/04 A2975 RMK CF2 SLP077

CYQB;2010-04-25 16:00;CYQB 251600Z 18007KT 15SM FEW035 12/04 A2973 RMK CU2 SLP071

CYQB;2010-04-25 17:00;CYQB 251700Z 24007KT 15SM SCT050 14/04 A2971 RMK CU4 SLP062

CYQB;2010-04-25 18:00;CYQB 251800Z 27004KT 15SM FEW060 15/03 A2967 RMK CU2 SLP049

CYQB;2010-04-25 19:00;CYQB 251900Z 18006KT 30SM FEW060 16/04 A2963 RMK CU2 SLP034

CYQB;2010-04-25 20:00;CYQB 252000Z 20009KT 30SM FEW060 FEW220 16/03 A2959 RMK CU1CI1 SLP023

CYQB;2010-04-25 21:00;CYQB 252100Z 21006KT 30SM FEW060 FEW220 16/03 A2957 RMK CU1CI1 SLP016

CYQB;2010-04-25 22:00;CYQB 252200Z 22009KT 30SM FEW060 FEW220 16/02 A2956 RMK CU1CI1 SLP013

CYQB;2010-04-25 23:00;CYQB 252300Z 23008KT 30SM FEW060 FEW220 16/02 A2955 RMK CF1CI1 SLP009

CYQB;2010-04-26 00:00;CYQB 260000Z 28002KT 30SM FEW220 13/02 A2956 RMK CI1 SLP011

CYQB;2010-04-26 01:00;CYQB 260100Z 36004KT 15SM SKC 13/01 A2956 RMK SLP012

CYQB;2010-04-26 02:00;CYQB 260200Z 33005KT 15SM SKC 11/00 A2955 RMK SLP008

CYQB;2010-04-26 03:00;CYQB 260300Z 36003KT 15SM SKC 08/01 A2953 RMK SLP002

CYQB;2010-04-26 04:00;CYQB 260400Z 05006KT 15SM SKC 08/01 A2952 RMK SLP999

CYQB;2010-04-26 05:00;CYQB 260500Z 01005KT 15SM SKC 08/01 A2950 RMK SLP993

CYQB;2010-04-26 06:00;CYQB 260600Z 01005KT 15SM SKC 07/01 A2949 RMK SLP987

CYQB;2010-04-26 07:00;CYQB 260700Z 03007KT 15SM BKN078 06/00 A2948 RMK AC3 SLP983

CYQB;2010-04-26 08:00;CYQB 260800Z 07017KT 15SM FEW078 06/M02 A2949 RMK AC1 SLP989

CYQB;2010-04-26 09:00;CYQB 260900Z 07013G21KT 15SM FEW078 06/M04 A2948 RMK AC1 SLP986

CYQB;2010-04-26 10:00;CYQB 261000Z 07011G17KT 25SM FEW074 SCT120 SCT230 05/M03 A2949 RMK AC1AC1CI1 SLP987

CYQB;2010-04-26 11:00;CYQB 261100Z 08013G21KT 30SM FEW040 SCT074 BKN230 06/M04 A2950 RMK SC1AC2CI1 SLP990

CYQB;2010-04-26 12:00;CYQB 261200Z 08012G22KT 30SM BKN076 BKN240 06/M04 A2949 RMK AC4CI1 SLP989

CYQB;2010-04-26 13:00;CYQB 261300Z 07019G26KT 30SM FEW040 BKN079 BKN240 06/M02 A2949 RMK SC1AC6CI1 SLP988

CYQB;2010-04-26 14:00;CYQB 261400Z 08014G19KT 30SM FEW032 SCT081 07/M02 A2948 RMK CU1AC3 SLP986

CYQB;2010-04-26 15:00;CYQB 261500Z 07013G21KT 30SM FEW036 SCT080 08/M01 A2948 RMK CU1AC2 SLP983

CYQB;2010-04-26 16:00;CYQB 261600Z 08014G24KT 30SM FEW036 SCT080 08/M01 A2947 RMK CU1AC2 SLP980

CYQB;2010-04-26 17:00;CYQB 261700Z 09016G26KT 30SM FEW040 SCT075 08/M01 A2946 RMK CU2AC2 SLP979

CYQB;2010-04-26 18:00;CYQB 261800Z 08017G26KT 30SM FEW040 BKN075 09/M02 A2945 RMK CU2AC3 SLP975

CYQB;2010-04-26 19:00;CYQB 261900Z 08019G27KT 30SM FEW040 BKN080 09/M03 A2945 RMK CU2AC4 SLP974

CYQB;2010-04-26 20:00;CYQB 262000Z 06019G28KT 30SM FEW060 SCT085 08/M04 A2943 RMK CU2AC2 SLP969

CYQB;2010-04-26 21:00;CYQB 262100Z 08020G28KT 30SM FEW060 FEW085 08/M05 A2944 RMK CU1AC2 SLP970

CYQB;2010-04-26 22:00;CYQB 262200Z 07019G26KT 30SM FEW060 FEW085 08/M06 A2945 RMK CU1AC2 SLP974

CYQB;2010-04-26 23:00;CYQB 262300Z 07020G26KT 20SM SCT085 07/M07 A2946 RMK AC4 SLP979

CYQB;2010-04-27 00:00;CYQB 270000Z 07017G22KT 20SM SCT085 07/M06 A2948 RMK AC4 SLP984

CYQB;2010-04-27 01:00;CYQB 270100Z 07014G21KT 20SM BKN090 06/M06 A2950 RMK AC6 SLP991

CYQB;2010-04-27 02:00;CYQB 270200Z 06013G20KT 15SM BKN090 06/M07 A2950 RMK AC7 SLP990

CYQB;2010-04-27 03:00;CYQB 270300Z 06013G22KT 15SM OVC088 06/M09 A2950 RMK AC8 SLP991

CYQB;2010-04-27 04:00;CYQB 270400Z 07017KT 15SM -SN OVC045 05/M07 A2950 RMK SC8 SLP990

CYQB;2010-04-27 05:00;CYQB 270500Z 07012G28KT 15SM OVC047 04/M04 A2949 RMK SC8 INTMT -SN SLP989

CYQB;2010-04-27 06:00;CYQB 270600Z 07015KT 15SM OVC056 05/M05 A2949 RMK SC8 SLP987

CYQB;2010-04-27 07:00;CYQB 270700Z 07015G22KT 15SM OVC056 05/M06 A2947 RMK SC8 SLP980

CYQB;2010-04-27 08:00;CYQB 270800Z 08013G19KT 15SM OVC055 05/M06 A2947 RMK SC8 SLP981

CYQB;2010-04-27 09:00;CYQB 270900Z 08016G31KT 15SM -SN OVC067 04/M07 A2946 RMK AC8 SLP977

CYQB;2010-04-27 10:00;CYQB 271000Z 08021G27KT 20SM -SN OVC055 04/M07 A2946 RMK SC8 SLP979

CYQB;2010-04-27 11:00;CYQB 271100Z 06015G25KT 20SM OVC045 04/M06 A2946 RMK SC8 SLP979

CYQB;2010-04-27 12:00;CYQB 271200Z 06013G22KT 15SM OVC025 04/M05 A2947 RMK SC8 SLP983

CYQB;2010-04-27 12:10;CYQB 271210Z 06020G26KT 6SM -SN OVC025 04/ RMK SC8

CYQB;2010-04-27 12:20;CYQB 271220Z 07019G37KT 1SM R06/P6000FT/N -SN BR OVC010 03/ RMK SN6SC2

CYQB;2010-04-27 12:30;CYQB 271230Z 06021G37KT 3SM -SN BR BKN010 OVC020 03/ RMK SC6SC2

CYQB;2010-04-27 12:45;CYQB 271245Z 05021G29KT 1SM R06/P6000FT/N -SN BR BKN010 OVC020 03/ RMK SN4SC3SC1

CYQB;2010-04-27 13:00;CYQB 271300Z 05019G28KT 2SM -SN OVC020 03/M03 A2948 RMK SN2SC6 SLP987

CYQB;2010-04-27 14:00;CYQB 271400Z 03017G24KT 2SM -SN BKN012 OVC020 01/M01 A2948 RMK SN3SC3SC2 SLP986

CYQB;2010-04-27 15:00;CYQB 271500Z 05016G26KT 3/4SM R06/P6000FT/N -SN BKN008 OVC020 01/M00 A2948 RMK SN5SC2SC2 SLP987

CYQB;2010-04-27 16:00;CYQB 271600Z 05012KT 1/2SM R06/5500FT/U SN VV006 01/00 A2948 RMK SN8 SLP985

CYQB;2010-04-27 16:10;CYQB 271610Z 05013KT 1SM R06/P6000FT/U -SN VV010 01/ RMK SN8

CYQB;2010-04-27 16:30;CYQB 271630Z 06009G15KT 1SM R06/P6000FT/D -SN OVC010 01/ RMK SN6SC2

CYQB;2010-04-27 17:00;CYQB 271700Z 06017G22KT 1SM R06/P6000FT/D -SN BR BKN007 OVC010 01/01 A2947 RMK SN2SF2SF3 VIS VRB 3/4-11/4 SLP983

CYQB;2010-04-27 17:27;CYQB 271727Z 06016G24KT 1 1/2SM -SN BR BKN008 OVC010 02/ RMK SN2SF3SF3

CYQB;2010-04-27 18:00;CYQB 271800Z 06014G20KT 1 1/2SM -SN BR BKN009 OVC012 02/01 A2947 RMK SN2SF3SF3 SLP981

CYQB;2010-04-27 19:00;CYQB 271900Z 05011G16KT 1 1/2SM -SN BR BKN006 OVC010 02/01 A2946 RMK SN2SF3SF3 VIS VRB 1-2 SLP979

CYQB;2010-04-27 19:37;CYQB 271937Z 06017G24KT 2SM -SN BR FEW004 BKN009 OVC012 02/ RMK SF2SF3SF3 VIS VRB 11/2-21/2

CYQB;2010-04-27 20:00;CYQB 272000Z 06014G20KT 2SM -SN BR FEW007 BKN009 OVC013 02/01 A2945 RMK SF1SF5SF2 VIS VRB 11/2-21/2 SLP975

CYQB;2010-04-27 21:00;CYQB 272100Z 07015KT 2SM -SN BR SCT006 BKN009 OVC012 02/01 A2945 RMK SF3SF3SF2 VIS VRB 11/2-21/2 SLP977

CYQB;2010-04-27 21:22;CYQB 272122Z 07010G17KT 2SM -RASN BR SCT006 BKN009 OVC012 02/ RMK SF3SF3SF2 VIS VRB 11/2-21/2

CYQB;2010-04-27 22:00;CYQB 272200Z 06012KT 4SM -RASN BR SCT006 BKN009 OVC012 02/01 A2945 RMK SF3SF3SC2 VIS W-NE 21/2 SLP977

CYQB;2010-04-27 23:00;CYQB 272300Z 07014KT 6SM -RASN BKN008 OVC013 02/01 A2946 RMK SF5SC3 VIS W-NE 4 SLP978

CYQB;2010-04-28 00:00;CYQB 280000Z 05010KT 6SM -RA FEW007 BKN009 OVC014 02/02 A2947 RMK SF2SF4SF2 SLP983

CYQB;2010-04-28 01:00;CYQB 280100Z 04010G17KT 6SM -RA BKN010 BKN015 OVC025 02/02 A2948 RMK SF5SF2SC2 SLP985

CYQB;2010-04-28 01:21;CYQB 280121Z 04007KT 8SM -RA SCT017 OVC045 03/ RMK SF3SC5

CYQB;2010-04-28 01:29;CYQB 280129Z 03007KT 8SM -RA FEW008 SCT017 OVC045 03/ RMK SF1SF2SC5

CYQB;2010-04-28 02:00;CYQB 280200Z 04016G24KT 12SM -RA OVC034 04/01 A2948 RMK SC8 -RA INTMT SLP984

CYQB;2010-04-28 03:00;CYQB 280300Z 04014G21KT 15SM -RA OVC024 04/01 A2946 RMK SC8 SLP980

CYQB;2010-04-28 04:00;CYQB 280400Z 01006KT 15SM -RA BKN038 OVC052 03/01 A2945 RMK SC6SC2 INTMT -RA SLP975

CYQB;2010-04-28 05:00;CYQB 280500Z 06003KT 15SM FEW010 OVC041 03/01 A2943 RMK SF1SC8 INTMT -RA SLP969

CYQB;2010-04-28 05:20;CYQB 280520Z 03005KT 15SM FEW010 OVC045 04/ RMK SF1SC8

CYQB;2010-04-28 06:00;CYQB 280600Z 35004KT 15SM FEW010 OVC041 03/02 A2942 RMK SF1SC8 SLP964

CYQB;2010-04-28 07:00;CYQB 280700Z 05004KT 15SM -RA BKN035 OVC054 04/02 A2941 RMK SC6SC2 SLP961

CYQB;2010-04-28 08:00;CYQB 280800Z 02004KT 15SM -RA BKN031 OVC052 04/01 A2941 RMK SC7SC1 -RA INTMT SLP962

CYQB;2010-04-28 09:00;CYQB 280900Z 04005KT 15SM BKN036 OVC056 04/01 A2942 RMK SC7SC1 INTMT -RA SLP964

CYQB;2010-04-28 09:21;CYQB 280921Z 01004KT 15SM BKN038 OVC062 04/ RMK SC7SC1

CYQB;2010-04-28 10:00;CYQB 281000Z 03005KT 30SM BKN043 OVC063 04/01 A2942 RMK SC7SC1 SLP964

CYQB;2010-04-28 11:00;CYQB 281100Z CCA 36005KT 20SM BKN027 OVC041 04/02 A2943 RMK SC7SC1 VIS NW-N 4 SLP968

CYQB;2010-04-28 12:00;CYQB 281200Z 03005KT 30SM FEW020 SCT045 OVC080 05/01 A2944 RMK SC1SC3AC4 SLP971

CYQB;2010-04-28 13:00;CYQB 281300Z 02002KT 30SM FEW020 FEW045 BKN071 06/01 A2944 RMK SC1SC2AC5 SLP973

CYQB;2010-04-28 14:00;CYQB 281400Z 29002KT 30SM FEW020 BKN075 07/01 A2945 RMK CF1AC6 SLP976

CYQB;2010-04-28 15:00;CYQB 281500Z 22002KT 30SM FEW035 BKN096 09/01 A2945 RMK SC2AC3 SLP973

CYQB;2010-04-28 16:00;CYQB 281600Z 18004KT 30SM SCT055 BKN220 10/02 A2944 RMK SC3CI2 SLP970

CYQB;2010-04-28 17:00;CYQB 281700Z 20006KT 30SM SCT060 BKN160 12/02 A2943 RMK SC4AC1 SLP967

CYQB;2010-04-28 18:00;CYQB 281800Z 25004KT 30SM SCT063 BKN160 12/01 A2942 RMK SC4AC1 SLP963

CYQB;2010-04-28 19:00;CYQB 281900Z 34007G16KT 30SM FEW073 SCT230 13/M03 A2939 RMK CU2CI1 SLP956

CYQB;2010-04-28 20:00;CYQB 282000Z 30016G21KT 30SM FEW078 SCT240 14/M02 A2939 RMK AC2CI1 SLP954

CYQB;2010-04-28 21:00;CYQB 282100Z 35017G25KT 30SM FEW080 SCT240 14/M04 A2940 RMK AC2CI1 SLP958

CYQB;2010-04-28 22:00;CYQB 282200Z 34016G21KT 30SM FEW080 FEW240 13/M06 A2942 RMK AC1CI1 SLP965

CYQB;2010-04-28 23:00;CYQB 282300Z 36010G17KT 30SM FEW080 FEW240 12/M05 A2944 RMK AC1CI1 SLP971

CYQB;2010-04-29 00:00;CYQB 290000Z 34012G19KT 30SM FEW080 11/M05 A2948 RMK AC2 SLP983

CYQB;2010-04-29 01:00;CYQB 290100Z 34007KT 15SM FEW080 09/M05 A2951 RMK AC1 SLP996

CYQB;2010-04-29 02:00;CYQB 290200Z 32007KT 15SM SKC 06/M04 A2953 RMK SLP000

CYQB;2010-04-29 03:00;CYQB 290300Z 33013G19KT 15SM FEW080 07/M05 A2952 RMK AC1 SLP997

CYQB;2010-04-29 04:00;CYQB 290400Z 33018G25KT 15SM FEW080 06/M05 A2950 RMK AC1 SLP992

CYQB;2010-04-29 05:00;CYQB 290500Z 33012G19KT 15SM FEW200 05/M05 A2950 RMK CI1 SLP993

CYQB;2010-04-29 06:00;CYQB 290600Z 32009KT 15SM BKN210 04/M05 A2950 RMK CS0 SLP991

CYQB;2010-04-29 07:00;CYQB 290700Z 31011KT 15SM BKN190 03/M05 A2950 RMK CS2 SLP993

CYQB;2010-04-29 08:00;CYQB 290800Z 32009KT 15SM BKN075 BKN150 BKN190 03/M05 A2950 RMK AC5AC2CS0 SLP991

CYQB;2010-04-29 09:00;CYQB 290900Z 31007KT 15SM BKN080 BKN150 BKN190 03/M05 A2950 RMK AC5AC2CS1 SLP992

CYQB;2010-04-29 10:00;CYQB 291000Z 32009KT 30SM FEW030 BKN064 BKN120 03/M05 A2950 RMK SC1SC6AC1 SLP991

CYQB;2010-04-29 11:00;CYQB 291100Z 31007KT 30SM FEW030 FEW060 BKN084 BKN150 03/M05 A2951 RMK SC1SC2AC4AC1 VIRGA SE-SW SLP996

CYQB;2010-04-29 12:00;CYQB 291200Z 33010G16KT 30SM BKN041 BKN090 BKN250 04/M05 A2952 RMK SC6AC1CI1 SLP999

CYQB;2010-04-29 13:00;CYQB 291300Z 35010KT 30SM BKN052 BKN140 BKN250 05/M06 A2953 RMK SC6AC1CI1 SLP001

CYQB;2010-04-29 13:54;CYQB 291354Z 32009G15KT 30SM -SHSN BKN050 BKN150 05/ RMK SC6AC1

CYQB;2010-04-29 14:00;CYQB 291400Z 31010G15KT 30SM -SHSN BKN054 BKN150 05/M04 A2953 RMK SC6AC1 SLP003

CYQB;2010-04-29 14:42;CYQB 291442Z 30011G16KT 30SM FEW035 OVC045 06/ RMK SC1SC7

CYQB;2010-04-29 15:00;CYQB 291500Z 32013G20KT 20SM VCSH FEW035 SCT043 OVC065 06/M03 A2953 RMK SC2SC2SC4 SLP003

CYQB;2010-04-29 15:12;CYQB 291512Z 33016G21KT 15SM -SHSN FEW030 BKN039 BKN062 06/ RMK SC2SC3SC2

CYQB;2010-04-29 15:50;CYQB 291550Z 34018KT 20SM VCSH FEW030 SCT040 BKN060 07/ RMK SC2SC2SC3

CYQB;2010-04-29 16:00;CYQB 291600Z 34022G30KT 30SM FEW030 BKN046 BKN070 08/M04 A2953 RMK SC1SC5AC1 SLP003

CYQB;2010-04-29 17:00;CYQB 291700Z 33017G26KT 30SM BKN053 BKN210 08/M04 A2954 RMK SC5CI1 SLP006

CYQB;2010-04-29 18:00;CYQB 291800Z 34017G29KT 30SM BKN050 BKN210 09/M03 A2956 RMK SC6CI1 SLP013

CYQB;2010-04-29 19:00;CYQB 291900Z 31022G29KT 30SM BKN054 BKN210 09/M03 A2957 RMK SC7CI1 SLP015

CYQB;2010-04-29 20:00;CYQB 292000Z 29022G30KT 30SM BKN054 BKN210 10/M02 A2956 RMK SC5CC1 SLP012

CYQB;2010-04-29 21:00;CYQB 292100Z 30017G26KT 30SM BKN058 BKN120 BKN240 10/M02 A2957 RMK SC5AC2CC0 SLP016

CYQB;2010-04-29 22:00;CYQB 292200Z 30016G30KT 30SM SCT060 BKN120 BKN240 12/M02 A2958 RMK SC4AC2CC1 SLP018

CYQB;2010-04-29 23:00;CYQB 292300Z 29013G19KT 30SM SCT060 BKN160 BKN240 10/M02 A2959 RMK SC4AC2CC1 SLP024

CYQB;2010-04-30 00:00;CYQB 300000Z 29015G22KT 30SM FEW060 BKN180 09/M02 A2960 RMK SC2AC2 SLP026

CYQB;2010-04-30 01:00;CYQB 300100Z 28010KT 15SM BKN072 BKN180 08/M02 A2960 RMK AC5AC2 SLP027

CYQB;2010-04-30 02:00;CYQB 300200Z 27012G18KT 15SM BKN075 BKN200 08/M01 A2960 RMK AC6CI1 SLP027

CYQB;2010-04-30 03:00;CYQB 300300Z 26012G17KT 15SM BKN071 09/M02 A2960 RMK AC7 SLP026

CYQB;2010-04-30 04:00;CYQB 300400Z 26012KT 15SM BKN071 08/M01 A2960 RMK AC7 SLP025

CYQB;2010-04-30 05:00;CYQB 300500Z 30011KT 15SM BKN067 09/M02 A2960 RMK AC7 SLP027

CYQB;2010-04-30 06:00;CYQB 300600Z 28011KT 15SM OVC058 08/M01 A2960 RMK SC8 SLP025

CYQB;2010-04-30 07:00;CYQB 300700Z 30011G16KT 15SM BKN055 08/M02 A2959 RMK SC7 SLP023

CYQB;2010-04-30 08:00;CYQB 300800Z 30008KT 15SM SCT055 07/M02 A2960 RMK SC3 SLP024

CYQB;2010-04-30 09:00;CYQB 300900Z 28008KT 15SM FEW050 05/M02 A2961 RMK SC2 SLP030

CYQB;2010-04-30 10:00;CYQB 301000Z 28010KT 30SM FEW050 FEW100 05/M01 A2963 RMK SC1AC1 SLP035

CYQB;2010-04-30 11:00;CYQB 301100Z 25011G16KT 30SM FEW050 FEW100 06/M01 A2965 RMK SC1AC1 SLP042

CYQB;2010-04-30 12:00;CYQB 301200Z 29011G17KT 30SM FEW045 FEW100 08/M01 A2966 RMK SC2AC1 SLP046

CYQB;2010-04-30 13:00;CYQB 301300Z 29011KT 30SM FEW045 FEW120 10/M01 A2966 RMK SC2AC1 SLP045

CYQB;2010-04-30 14:00;CYQB 301400Z CCA 28011G18KT 30SM FEW045 FEW120 FEW250 11/M00 A2966 RMK SC2AC1CI1 SLP045

CYQB;2010-04-30 15:00;CYQB 301500Z 32014G21KT 30SM FEW050 FEW120 FEW250 14/M00 A2964 RMK SC1AC1CI1 SLP040

CYQB;2010-04-30 16:00;CYQB 301600Z 30017G25KT 30SM FEW060 FEW250 15/M01 A2963 RMK SC1CI1 SLP035

CYQB;2010-04-30 17:00;CYQB 301700Z 29011G19KT 30SM FEW065 SCT250 17/00 A2962 RMK CU2CI1 SLP033

CYQB;2010-04-30 18:00;CYQB 301800Z 30008G20KT 30SM FEW080 SCT250 18/M01 A2962 RMK CU2CI1 SLP032

CYQB;2010-04-30 19:00;CYQB 301900Z 31014G21KT 30SM FEW060 SCT080 BKN250 19/M01 A2962 RMK CU2AC1CI0 SLP031

CYQB;2010-04-30 20:00;CYQB 302000Z 31012G19KT 30SM FEW080 BKN250 19/M01 A2962 RMK CU2CI1 SLP032

CYQB;2010-04-30 21:00;CYQB 302100Z 31015G21KT 30SM FEW080 BKN250 19/M01 A2963 RMK CU1CI1 SLP035

CYQB;2010-04-30 22:00;CYQB 302200Z 31011G21KT 30SM FEW080 BKN250 18/M02 A2964 RMK CU1CI1 SLP039

CYQB;2010-04-30 23:00;CYQB 302300Z 31012G17KT 30SM FEW080 BKN250 17/M02 A2966 RMK CF1CI2 SLP045

CYQB;2010-05-01 01:00;CYQB 010100Z 29009KT 15SM FEW250 14/M01 A2970 RMK CI0 SLP060

CYQB;2010-05-01 02:00;CYQB 010200Z 25006KT 15SM SKC 12/M02 A2973 RMK SLP068

CYQB;2010-05-01 03:00;CYQB 010300Z 23008KT 15SM SKC 12/M02 A2975 RMK SLP074

CYQB;2010-05-01 04:00;CYQB 010400Z 25005KT 15SM FEW250 11/M02 A2976 RMK CI0 SLP079

CYQB;2010-05-01 05:00;CYQB 010500Z 32003KT 15SM FEW250 10/M02 A2977 RMK CI0 SLP081

CYQB;2010-05-01 06:00;CYQB 010600Z 28004KT 15SM SKC 06/M02 A2976 RMK SLP080

CYQB;2010-05-01 07:00;CYQB 010700Z 27005KT 15SM SKC 03/M01 A2977 RMK SLP081

CYQB;2010-05-01 08:00;CYQB 010800Z 34003KT 15SM SKC 04/M01 A2979 RMK SLP088

CYQB;2010-05-01 09:00;CYQB 010900Z 34005KT 15SM SKC 06/M02 A2980 RMK SLP092

CYQB;2010-05-01 10:00;CYQB 011000Z 31007KT 30SM SKC 06/M02 A2982 RMK SLP098

CYQB;2010-05-01 11:00;CYQB 011100Z 19004KT 30SM FEW100 08/01 A2982 RMK AC1 SLP100

CYQB;2010-05-01 12:00;CYQB 011200Z 35004KT 30SM FEW100 11/M01 A2982 RMK AC1 SLP099

CYQB;2010-05-01 13:00;CYQB 011300Z 25007KT 30SM FEW100 13/02 A2983 RMK AC1 SLP103

CYQB;2010-05-01 14:00;CYQB 011400Z 23010KT 30SM FEW100 14/02 A2982 RMK AC1 SLP099

CYQB;2010-05-01 15:00;CYQB 011500Z 22012G17KT 30SM FEW100 FEW220 16/01 A2983 RMK AC1CI1 SLP103

CYQB;2010-05-01 16:00;CYQB 011600Z 22011G18KT 30SM FEW100 FEW220 17/01 A2981 RMK AC1CI1 SLP097

CYQB;2010-05-01 17:00;CYQB 011700Z 21013KT 30SM FEW160 FEW220 18/M01 A2980 RMK AC1CI1 SLP093

CYQB;2010-05-01 18:00;CYQB 011800Z 19012KT 30SM FEW160 BKN220 19/M00 A2979 RMK AC2CI2 SLP088

CYQB;2010-05-01 19:00;CYQB 011900Z 23012G17KT 30SM FEW160 BKN220 21/M04 A2979 RMK AC2CI3 SLP088

CYQB;2010-05-01 20:00;CYQB 012000Z 26010KT 30SM SCT120 OVC220 20/M03 A2978 RMK AC4CI4 SLP084

CYQB;2010-05-01 21:00;CYQB 012100Z 24009KT 30SM BKN080 OVC097 19/M02 A2977 RMK AC6AC2 SLP081

CYQB;2010-05-01 22:00;CYQB 012200Z 25008KT 30SM BKN058 OVC080 18/01 A2978 RMK SC6AC2 SLP087

CYQB;2010-05-01 23:00;CYQB 012300Z 23004KT 30SM SCT060 OVC095 17/01 A2976 RMK SC3AC5 SLP080

CYQB;2010-05-02 00:00;CYQB 020000Z 21002KT 30SM FEW043 FEW080 BKN100 OVC180 16/01 A2975 RMK SC1AC1AC6AC1 SLP076

CYQB;2010-05-02 01:00;CYQB 020100Z 00000KT 15SM SCT040 BKN060 OVC100 15/03 A2976 RMK SC3SC3AC2 SLP080

CYQB;2010-05-02 02:00;CYQB 020200Z 21007KT 15SM FEW040 SCT060 BKN100 15/04 A2977 RMK SC2SC2AC3 SLP081

CYQB;2010-05-02 03:00;CYQB 020300Z 24002KT 15SM SCT040 BKN100 BKN150 14/04 A2976 RMK SC3AC2AC1 SLP078

CYQB;2010-05-02 04:00;CYQB 020400Z 00000KT 15SM FEW040 BKN054 14/04 A2975 RMK SC2SC4 SLP074

CYQB;2010-05-02 05:00;CYQB 020500Z 00000KT 15SM BKN049 13/05 A2975 RMK SC7 SLP076

CYQB;2010-05-02 06:00;CYQB 020600Z 00000KT 15SM SCT050 BKN090 13/06 A2975 RMK SC3AC3 SLP077

CYQB;2010-05-02 07:00;CYQB 020700Z 00000KT 15SM FEW030 BKN051 BKN090 13/04 A2975 RMK SC2SC3AC2 SLP074

CYQB;2010-05-02 08:00;CYQB 020800Z 27003KT 15SM BKN053 BKN090 12/07 A2975 RMK SC5AC2 SLP076

CYQB;2010-05-02 09:00;CYQB 020900Z 00000KT 15SM FEW050 SCT090 11/06 A2975 RMK SC2AC2 SLP075

CYQB;2010-05-02 10:00;CYQB 021000Z 00000KT 30SM BKN045 BKN089 BKN250 12/06 A2976 RMK SC6AC2CI1 SLP079

CYQB;2010-05-02 11:00;CYQB 021100Z 02002KT 30SM FEW080 14/06 A2976 RMK AC2 SLP079

CYQB;2010-05-02 12:00;CYQB 021200Z 00000KT 30SM OVC034 15/08 A2978 RMK SC8 SLP084

CYQB;2010-05-02 13:00;CYQB 021300Z 23004KT 30SM OVC035 16/09 A2977 RMK SC8 SLP083

CYQB;2010-05-02 14:00;CYQB 021400Z 21004KT 30SM BKN045 BKN090 17/10 A2976 RMK SC6AC2 SLP078

CYQB;2010-05-02 15:00;CYQB 021500Z 18004KT 30SM OVC046 17/10 A2975 RMK SC8 SLP076

CYQB;2010-05-02 16:00;CYQB 021600Z 25004KT 30SM FEW050 SCT080 BKN220 20/12 A2975 RMK SC2AC2CI2 SLP074

CYQB;2010-05-02 17:00;CYQB 021700Z 24006KT 30SM FEW050 SCT080 OVC220 22/14 A2972 RMK SC2AC2CI3 SLP067

CYQB;2010-05-02 18:00;CYQB 021800Z 24005KT 30SM FEW030 FEW065 SCT120 OVC240 24/16 A2970 RMK CU1SC1AC2CI4 SLP056

CYQB;2010-05-02 19:00;CYQB 021900Z 25008KT 30SM FEW030 BKN060 OVC240 24/15 A2968 RMK CU2SC4CI2 SLP050

CYQB;2010-05-02 20:00;CYQB 022000Z 23005KT 30SM SCT060 BKN080 BKN240 25/16 A2965 RMK CU4AC1CI0 SLP040

CYQB;2010-05-02 20:51;CYQB 022051Z 25005KT 15SM -SHRA BKN053 OVC080 24/ RMK SC6AC2 CU EMBD VIS NE 8

CYQB;2010-05-02 21:00;CYQB 022100Z 25004KT 30SM -SHRA BKN050 OVC070 24/16 A2964 RMK SC7AC1 TCU EMBD VIS NE 8 SLP037

CYQB;2010-05-02 22:00;CYQB 022200Z 21002KT 30SM -SHRA SCT045 OVC060 21/17 A2964 RMK SC4SC4 SLP037

CYQB;2010-05-02 23:00;CYQB 022300Z 00000KT 30SM -SHRA BKN060 OVC110 21/17 A2962 RMK SC6AC2 SLP031

CYQB;2010-05-03 00:00;CYQB 030000Z 00000KT 30SM BKN070 OVC080 21/16 A2961 RMK AC7AC1 SLP027

CYQB;2010-05-03 01:00;CYQB 030100Z 00000KT 15SM BKN070 OVC090 20/17 A2961 RMK AC6AC2 SLP028

CYQB;2010-05-03 02:00;CYQB 030200Z 33002KT 15SM BKN070 BKN090 19/17 A2960 RMK AC5AC2 SLP024

CYQB;2010-05-03 03:00;CYQB 030300Z 00000KT 15SM BKN085 18/17 A2958 RMK AC6 SLP018

CYQB;2010-05-03 04:00;CYQB 030400Z 00000KT 15SM BKN100 18/17 A2958 RMK AC7 SLP017

CYQB;2010-05-03 05:00;CYQB 030500Z 24003KT 15SM BKN090 18/16 A2957 RMK AC7 SLP014

CYQB;2010-05-03 06:00;CYQB 030600Z 13004KT 15SM BKN070 18/16 A2956 RMK AC7 SLP010

CYQB;2010-05-03 07:00;CYQB 030700Z 08005KT 15SM BKN063 16/15 A2955 RMK SC7 SLP006

CYQB;2010-05-03 08:00;CYQB 030800Z 07007KT 15SM BKN052 16/15 A2954 RMK SC7 SLP002

CYQB;2010-05-03 09:00;CYQB 030900Z 08005KT 5SM BR FEW002 SCT050 OVC084 15/14 A2951 RMK SF2SC2AC4 SLP992

CYQB;2010-05-03 09:21;CYQB 030921Z 07005KT 1 1/2SM BR BKN002 OVC084 14/ RMK SF5AC3

CYQB;2010-05-03 09:40;CYQB 030940Z 06007KT 1SM R06/P6000FT/D BR BKN003 OVC095 14/ RMK SF6AC2

CYQB;2010-05-03 10:00;CYQB 031000Z 07005KT 1SM R06/P6000FT/U -SHRA BR BKN003 OVC095 14/14 A2950 RMK SF6AC2 SLP991

CYQB;2010-05-03 10:21;CYQB 031021Z 07005KT 1 1/2SM -SHRA BR BKN003 OVC060 14/ RMK SF7SC1

CYQB;2010-05-03 10:31;CYQB 031031Z 04004KT 1 1/4SM -SHRA BR BKN004 BKN050 OVC080 14/ RMK FG1SF5SC1AC2

CYQB;2010-05-03 10:43;CYQB 031043Z 04005KT 1SM R06/P6000FT/D -SHRA BR SCT003 BKN040 OVC060 14/ RMK FG2SF2SC2SC2

CYQB;2010-05-03 11:00;CYQB 031100Z 12007KT 3/4SM R06/P6000FT/D -SHRA BR BKN002 OVC030 13/13 A2945 RMK FG3SF3SC2 SLP973

CYQB;2010-05-03 11:09;CYQB 031109Z 07002KT 3/4SM R06/P6000FT/U -TSRA BR OVC002 14/ RMK FG5SF3 CB EMBDD

CYQB;2010-05-03 11:45;CYQB 031145Z 04007KT 1 1/4SM -SHRA BR OVC002 14/ RMK FG4SF4

CYQB;2010-05-03 12:00;CYQB 031200Z 05010KT 1 1/4SM -SHRA BR OVC002 13/13 A2945 RMK FG3SF5 RETS SLP971

CYQB;2010-05-03 13:00;CYQB 031300Z 07004KT 1 1/4SM -SHRA BR OVC002 12/12 A2942 RMK FG2SF6 SLP961

CYQB;2010-05-03 13:43;CYQB 031343Z 08004KT 2 1/2SM BR BKN002 OVC030 13/ RMK FG1SF6SC2

CYQB;2010-05-03 14:00;CYQB 031400Z 07004KT 2 1/4SM BR BKN002 OVC031 13/12 A2938 RMK FG1SF6SC1 SLP948

CYQB;2010-05-03 14:22;CYQB 031422Z 10003KT 1 1/2SM -SHRA BR BKN002 OVC018 13/ RMK FG2SF6SC1

CYQB;2010-05-03 15:00;CYQB 031500Z 02002KT 1 1/2SM -SHRA BR BKN002 OVC008 13/M13 A2936 RMK FG2SF6SF1 SLP941

CYQB;2010-05-03 15:37;CYQB 031537Z 00000KT 1SM R06/P6000FT/N BR BKN002 BKN009 OVC025 14/ RMK FG2SF4SF2SC1

CYQB;2010-05-03 16:00;CYQB 031600Z 23010KT 6SM BR FEW002 SCT009 SCT020 OVC067 17/16 A2934 RMK SF2SF2SC1AC3 SLP934

CYQB;2010-05-03 16:20;CYQB 031620Z 23012KT 8SM -SHRA FEW006 OVC077 19/ RMK SF2AC6

CYQB;2010-05-03 17:00;CYQB 031700Z 24010G18KT 8SM -SHRA FEW006 SCT038 OVC090 19/17 A2933 RMK SF2SC2AC4 SLP932

CYQB;2010-05-03 18:00;CYQB 031800Z 25014G20KT 15SM FEW006 FEW022 SCT050 SCT100 21/17 A2931 RMK SF1SC2CU1AC1 SLP927

CYQB;2010-05-03 19:00;CYQB 031900Z 28026G37KT 3SM SHRA FEW002 SCT012 BKN045TCU 19/16 A2933 RMK SF2SC2TCU2 SLP931

CYQB;2010-05-03 19:39;CYQB 031939Z 29020G32KT 25SM SCT029 BKN055 BKN080 20/ RMK SC3SC2ACC1 RESHRA

CYQB;2010-05-03 20:00;CYQB 032000Z CCA 28017G26KT 25SM -SHRA FEW029 BKN050 BKN080 19/14 A2935 RMK SC2SC3ACC1 RESHRA SLP940

CYQB;2010-05-03 20:52;CYQB 032052Z 31031G43KT 1/2SM R06/P6000FT/N +SHRA BKN038 BKN055TCU 18/ RMK SC6TCU1

CYQB;2010-05-03 21:00;CYQB 032100Z CCA 28022G41KT 20SM -SHRA SCT038 SCT055TCU BKN080 19/13 A2938 RMK CU3TCU1AC2 TCU EMBD RESHRA SLP950

CYQB;2010-05-03 21:50;CYQB 032150Z 30023G36KT 1SM R06/P6000FT/D +SHRA BKN035TCU BKN090 17/ RMK TCU5AC1

CYQB;2010-05-03 22:00;CYQB 032200Z 30025G37KT 15SM -SHRA FEW030TCU BKN090 16/13 A2944 RMK TCU2AC2 RESHRA SLP969

CYQB;2010-05-03 22:36;CYQB 032236Z 29013G18KT 25SM FEW078 FEW100 18/ RMK AC2AC1 RESHRA VCSH

CYQB;2010-05-03 23:00;CYQB 032300Z 30014G19KT 25SM FEW070 FEW100 17/11 A2947 RMK AC2AC1 SLP979

CYQB;2010-05-04 00:00;CYQB 040000Z 27013KT 25SM FEW035 16/11 A2952 RMK SC2 SLP996

CYQB;2010-05-04 01:00;CYQB 040100Z 28011G16KT 15SM FEW045 15/10 A2956 RMK SC1 SLP011

CYQB;2010-05-04 02:00;CYQB 040200Z 29004KT 15SM SKC 13/09 A2961 RMK SLP027

CYQB;2010-05-04 03:00;CYQB 040300Z 23004KT 15SM SCT110 12/10 A2962 RMK AC3 SLP031

CYQB;2010-05-04 04:00;CYQB 040400Z 20005KT 15SM FEW120 SCT190 12/09 A2962 RMK AC2CI2 SLP033

CYQB;2010-05-04 05:00;CYQB 040500Z 21006KT 15SM FEW110 12/09 A2962 RMK AC2 SLP031

CYQB;2010-05-04 06:00;CYQB 040600Z 25005KT 15SM FEW110 10/08 A2962 RMK AC2 SLP032

CYQB;2010-05-04 07:00;CYQB 040700Z 26004KT 15SM SKC 10/08 A2964 RMK SLP038

CYQB;2010-05-04 08:00;CYQB 040800Z 23003KT 15SM SKC 09/08 A2963 RMK SLP033

CYQB;2010-05-04 09:00;CYQB 040900Z 22009KT 15SM SKC 10/08 A2963 RMK SLP035

CYQB;2010-05-04 10:00;CYQB 041000Z 22010KT 30SM FEW130 FEW240 09/08 A2964 RMK AC1CI1 SLP036

CYQB;2010-05-04 11:00;CYQB 041100Z 24007KT 30SM FEW130 FEW240 11/09 A2965 RMK AC1CI1 SLP041

CYQB;2010-05-04 12:00;CYQB 041200Z 23010KT 30SM FEW120 BKN240 13/09 A2964 RMK AC1CI2 SLP038

CYQB;2010-05-04 13:00;CYQB 041300Z 29005KT 30SM SCT110 BKN240 15/09 A2965 RMK AC3CI2 SLP041

CYQB;2010-05-04 14:00;CYQB 041400Z 22008KT 30SM FEW025 BKN100 BKN240 16/10 A2965 RMK CU1AC4CI1 SLP041

CYQB;2010-05-04 15:00;CYQB 041500Z 21011KT 30SM FEW030 SCT100 BKN200 16/10 A2963 RMK CU1AC2CI2 SLP034

CYQB;2010-05-04 16:00;CYQB 041600Z 26010G18KT 30SM FEW040 FEW100 FEW220 19/09 A2961 RMK CU1AC1CI1 SLP028

CYQB;2010-05-04 17:00;CYQB 041700Z 21012G17KT 30SM FEW040 SCT100 SCT200 20/09 A2958 RMK CU2AC1CI1 SLP018

CYQB;2010-05-04 18:00;CYQB 041800Z 26014G19KT 30SM SCT050 BKN120 BKN220 20/08 A2958 RMK CU3AC3CI1 DIST CB W-N MOVG E SLP016

CYQB;2010-05-04 19:00;CYQB 041900Z 26017KT 30SM VCSH SCT055 BKN072 BKN120 BKN220 20/08 A2958 RMK CU4AC2AC2CI1 TCU EMBD VIS N-E 5 SLP016

CYQB;2010-05-04 19:03;CYQB 041903Z 27016G21KT 20SM -SHRA SCT055 BKN072 BKN120 BKN220 19/ RMK CU4AC2AC2CI1 TCU EMBD

CYQB;2010-05-04 20:00;CYQB 042000Z CCA 27005KT 20SM SCT055 BKN100 BKN220 17/10 A2955 RMK CU3AC3CI1 MAMMA W CB ASOCTD SLP008

CYQB;2010-05-04 21:00;CYQB 042100Z 36009G15KT 20SM FEW055 BKN100 BKN220 17/08 A2958 RMK CU2AC3CI1 MAMMA WSW CB ASOCTD SLP018

CYQB;2010-05-04 22:00;CYQB 042200Z 03007KT 20SM FEW055 SCT100 BKN220 17/08 A2958 RMK CU2AC2CI2 DIST CB SW-W SLP018

CYQB;2010-05-04 23:00;CYQB 042300Z 16004KT 20SM FEW055 SCT100 BKN220 17/08 A2959 RMK CU1AC2CI3 DIST PCPN SW SLP022

CYQB;2010-05-04 23:39;CYQB 042339Z 18005KT 20SM FEW055 BKN100 BKN220 16/ RMK CU1AC4CI1 DIST LTGCG W CB ASOCTD

CYQB;2010-05-05 00:00;CYQB 050000Z 26002KT 20SM FEW055 SCT100 BKN220 15/08 A2961 RMK CU1AC3CI2 DIST FRQ LTGICCG SW CB ASOCTD SLP027

CYQB;2010-05-05 01:00;CYQB 050100Z 23004KT 20SM FEW050 BKN120 BKN220 14/09 A2963 RMK CU1AC4CI2 SLP033

CYQB;2010-05-05 02:00;CYQB 050200Z 24007KT 15SM FEW060 BKN100 13/10 A2964 RMK CU1AC6 SLP039

CYQB;2010-05-05 03:00;CYQB 050300Z 23004KT 15SM BKN070 BKN140 12/10 A2967 RMK SC5AC2 SLP048

CYQB;2010-05-05 04:00;CYQB 050400Z 22005KT 15SM BKN077 12/10 A2968 RMK AC6 SLP052

CYQB;2010-05-05 05:00;CYQB 050500Z 33003KT 15SM BKN070 BKN130 11/10 A2969 RMK AC5AC1 SLP056

CYQB;2010-05-05 06:00;CYQB 050600Z 34002KT 15SM BKN084 10/09 A2972 RMK AC6 SLP064

CYQB;2010-05-05 07:00;CYQB 050700Z 06005KT 15SM SCT064 BKN084 11/08 A2972 RMK SC3AC3 SLP067

CYQB;2010-05-05 08:00;CYQB 050800Z 04005KT 15SM FEW010 SCT075 BKN100 10/08 A2975 RMK SF1AC3AC2 SLP075

CYQB;2010-05-05 08:50;CYQB 050850Z 07005KT 15SM BKN010 BKN074 09/ RMK SF5AC2

CYQB;2010-05-05 09:00;CYQB 050900Z 07006KT 15SM BKN010 BKN074 09/08 A2978 RMK SF5AC2 VIS LWR N SLP085

CYQB;2010-05-05 10:00;CYQB 051000Z 09006KT 15SM BKN009 BKN074 09/07 A2982 RMK SF7AC1 SLP098

CYQB;2010-05-05 11:00;CYQB 051100Z 08006KT 10SM OVC010 09/07 A2984 RMK SF8 SLP105

CYQB;2010-05-05 12:00;CYQB 051200Z 07005KT 10SM OVC010 10/08 A2985 RMK SF7 SLP110

CYQB;2010-05-05 13:00;CYQB 051300Z 11004KT 15SM BKN013 11/08 A2986 RMK SC6 SLP112

CYQB;2010-05-05 13:48;CYQB 051348Z 09002KT 15SM BKN017 BKN240 12/ RMK SC5CI1

CYQB;2010-05-05 14:00;CYQB 051400Z 00000KT 15SM SCT016 BKN240 12/08 A2986 RMK SC4CI0 SLP113

CYQB;2010-05-05 15:00;CYQB 051500Z 18005KT 20SM FEW020 BKN240 14/09 A2985 RMK SC2CI1 SLP110

CYQB;2010-05-05 16:00;CYQB 051600Z 18008KT 25SM FEW030 BKN240 16/09 A2983 RMK CU1CI1 SLP104

CYQB;2010-05-05 17:00;CYQB 051700Z 20008G15KT 25SM FEW040 SCT070 BKN240 18/08 A2982 RMK CU2AC1CI0 SLP099

CYQB;2010-05-05 18:00;CYQB 051800Z 23014KT 25SM FEW040 BKN120 BKN220 18/07 A2981 RMK CU2AC5CI1 SLP097

CYQB;2010-05-05 19:00;CYQB 051900Z 23013G20KT 30SM FEW050 BKN110 BKN220 18/06 A2981 RMK CU2AC5CI1 SLP096

CYQB;2010-05-05 20:00;CYQB 052000Z 24009G15KT 30SM FEW050 BKN085 17/08 A2980 RMK SC1AC6 SLP093

CYQB;2010-05-05 21:00;CYQB 052100Z 24004KT 30SM FEW050 BKN084 17/07 A2979 RMK SC1AC7 SLP088

CYQB;2010-05-05 22:00;CYQB 052200Z 12002KT 30SM FEW050 BKN085 BKN140 17/09 A2977 RMK SC1AC5AC2 SLP082

CYQB;2010-05-05 23:00;CYQB 052300Z 12003KT 30SM FEW040 BKN062 BKN140 17/08 A2977 RMK SC1SC6AC2 SLP082

CYQB;2010-05-06 00:00;CYQB 060000Z 08004KT 30SM SCT060 BKN140 BKN220 16/07 A2977 RMK SC3AC2CI0 SLP082

CYQB;2010-05-06 01:00;CYQB 060100Z 08005KT 15SM FEW140 BKN200 13/09 A2976 RMK AC2CI2 SLP080

CYQB;2010-05-06 02:00;CYQB 060200Z 07010KT 15SM FEW060 SCT140 12/09 A2974 RMK CU1AC3 SLP073

CYQB;2010-05-06 03:00;CYQB 060300Z 08012G17KT 15SM FEW060 SCT080 OVC150 11/09 A2970 RMK CU2AC2AC4 SLP058

CYQB;2010-05-06 04:00;CYQB 060400Z 05008KT 15SM -SHRA SCT065 OVC090 11/09 A2969 RMK SC3AC5 SLP055

CYQB;2010-05-06 05:00;CYQB 060500Z 11006KT 15SM -SHRA SCT060 OVC084 10/09 A2968 RMK SC4AC4 SLP052

CYQB;2010-05-06 06:00;CYQB 060600Z 35003KT 15SM -SHRA SCT040 OVC080 11/09 A2968 RMK SC4AC4 SLP051

CYQB;2010-05-06 07:00;CYQB 060700Z 08009KT 15SM -SHRA SCT072 OVC100 10/09 A2963 RMK AC4AC4 SLP035

CYQB;2010-05-06 08:00;CYQB 060800Z 08005KT 15SM OVC080 10/09 A2961 RMK AC8 SLP029

CYQB;2010-05-06 09:00;CYQB 060900Z 07004KT 15SM OVC054 10/10 A2959 RMK SC8 SLP019

CYQB;2010-05-06 09:45;CYQB 060945Z 07002KT 12SM -SHRA OVC037 10/ RMK SC8

CYQB;2010-05-06 10:00;CYQB 061000Z 07004KT 4SM -SHRA BR SCT018 OVC044 10/10 A2956 RMK SF4SC4 SLP012

CYQB;2010-05-06 11:00;CYQB 061100Z 03005KT 1 1/2SM -DZ BR SCT003 OVC024 11/10 A2953 RMK SF3SC5 VIS S 4 SLP000

CYQB;2010-05-06 11:18;CYQB 061118Z 02005KT 2SM -DZ BR BKN003 OVC022 11/ RMK SF5SC3

CYQB;2010-05-06 12:00;CYQB 061200Z 12003KT 1 1/4SM -DZ BR OVC003 11/10 A2951 RMK SF8 SLP995

CYQB;2010-05-06 13:00;CYQB 061300Z 00000KT 1 1/4SM -DZ BR OVC003 11/11 A2949 RMK SF8 SLP986

CYQB;2010-05-06 13:49;CYQB 061349Z 00000KT 1 3/4SM BR BKN002 OVC010 12/ RMK SF7ST1

CYQB;2010-05-06 14:00;CYQB 061400Z 27002KT 2 1/2SM BR BKN006 OVC012 13/12 A2947 RMK SF5SC3 SLP981

CYQB;2010-05-06 14:28;CYQB 061428Z 25007KT 5SM BR BKN006 BKN018 14/ RMK SF5SC2

CYQB;2010-05-06 15:00;CYQB 061500Z 27011G16KT 10SM -SHRA BKN011 16/14 A2945 RMK SC6 TCU ASOCTD SLP973

CYQB;2010-05-06 16:00;CYQB 061600Z 27009G15KT 20SM -SHRA BKN020 16/12 A2942 RMK SC6 TCU ASOCTD SLP965

CYQB;2010-05-06 16:27;CYQB 061627Z 27011KT 25SM SCT025 SCT240 18/ RMK CU3CI0 TCU ASOCTD

CYQB;2010-05-06 17:00;CYQB 061700Z CCA 25012G17KT 25SM SCT035 BKN240 19/10 A2940 RMK CU3CI1 TCU ASOCTD SLP958

CYQB;2010-05-06 17:32;CYQB 061732Z 25042G51KT 25SM BKN040 16/ RMK SC6

CYQB;2010-05-06 17:42;CYQB 061742Z 27039G54KT 15SM -TSRA BKN040 13/ RMK SC7 CB EMBD VIS LWR W

CYQB;2010-05-06 18:00;CYQB 061800Z 29025G38KT 12SM -TSRA FEW025 BKN050 11/08 A2949 RMK CF1SC7 PRESRR CB EMBD SLP988

CYQB;2010-05-06 18:20;CYQB 061820Z 26014G24KT 10SM -SHRA FEW025 OVC050 10/ RETS RMK CF2SC6

CYQB;2010-05-06 18:36;CYQB 061836Z 28007KT 15SM -SHRAPL FEW025 BKN050 10/ RETS RMK CF2SC6

CYQB;2010-05-06 19:00;CYQB 061900Z 29005KT 20SM FEW025 SCT050 BKN090 11/08 A2948 RETS RMK CF1SC3AC3 SLP985

CYQB;2010-05-06 20:00;CYQB 062000Z 24015KT 30SM FEW015 SCT050 BKN240 14/10 A2949 RMK CF2SC2CI0 SLP988

CYQB;2010-05-06 20:35;CYQB 062035Z 26013G20KT 20SM -TSRA FEW020 BKN055TCU BKN240 13/ RMK CF2TCU3CI1 CB ASOCTD

CYQB;2010-05-06 21:00;CYQB 062100Z 26012G22KT 20SM FEW020 SCT055 BKN090 11/09 A2951 RETS RMK CF2SC2AC2 SHWRS E SLP996

CYQB;2010-05-06 22:00;CYQB 062200Z 26011KT 30SM FEW020 SCT055 BKN240 12/10 A2953 RMK CF2SC2CI2 SLP000

CYQB;2010-05-06 23:00;CYQB 062300Z 26017KT 30SM FEW020 BKN043 BKN090 11/09 A2955 RMK CF2CU3AC2 SLP008

CYQB;2010-05-06 23:37;CYQB 062337Z 29018KT 15SM -SHRA FEW020 BKN043 BKN090 11/ RMK CF2CU4AC2

CYQB;2010-05-07 00:00;CYQB 070000Z 27016G21KT 15SM FEW020 SCT045 BKN095 10/07 A2958 RMK CF1SC3AC2 SLP019

CYQB;2010-05-07 01:00;CYQB 070100Z 25012KT 15SM SCT035 BKN095 10/07 A2962 RMK SC3AC3 SLP031

CYQB;2010-05-07 02:00;CYQB 070200Z 26016G22KT 15SM SCT035 BKN120 10/07 A2963 RMK SC3AC2 SLP035

CYQB;2010-05-07 03:00;CYQB 070300Z 27016G21KT 15SM SCT035 09/05 A2967 RMK SC4 SLP047

CYQB;2010-05-07 04:00;CYQB 070400Z 27016G22KT 15SM SCT038 08/03 A2970 RMK SC2 SLP060

CYQB;2010-05-07 05:00;CYQB 070500Z 28012G17KT 15SM BKN038 08/02 A2973 RMK SC5 SLP070

CYQB;2010-05-07 06:00;CYQB 070600Z 27014G21KT 15SM BKN039 07/01 A2975 RMK SC7 SLP077

CYQB;2010-05-07 07:00;CYQB 070700Z 27012G19KT 15SM BKN033 06/01 A2975 RMK SC7 SLP078

CYQB;2010-05-07 08:00;CYQB 070800Z 27015KT 15SM BKN034 06/00 A2978 RMK SC6 SLP087

CYQB;2010-05-07 09:00;CYQB 070900Z 26016KT 15SM BKN034 05/M01 A2981 RMK SC6 SLP097

CYQB;2010-05-07 10:00;CYQB 071000Z 27013G21KT 25SM BKN033 BKN065 05/M01 A2983 RMK SC5SC1 SLP102

CYQB;2010-05-07 11:00;CYQB 071100Z 26014G20KT 20SM -RA FEW018 BKN035 BKN060 05/00 A2985 RMK SF2SC3SC1 SLP109

CYQB;2010-05-07 11:30;CYQB 071130Z 27021KT 25SM FEW022 SCT038 BKN058 06/ RMK SF2SC2SC1

CYQB;2010-05-07 12:00;CYQB 071200Z 27014G21KT 25SM FEW024 SCT038 SCT058 06/M01 A2985 RMK SF1SC2SC1 SLP111

CYQB;2010-05-07 13:00;CYQB 071300Z 26016G21KT 25SM FEW024 BKN034 BKN052 07/00 A2985 RMK SF1SC4SC1 SLP110

CYQB;2010-05-07 14:00;CYQB 071400Z 29013G18KT 25SM BKN045 08/00 A2986 RMK SC6 SLP115

CYQB;2010-05-07 15:00;CYQB 071500Z 28015KT 25SM BKN042 10/02 A2986 RMK SC7 SLP112

CYQB;2010-05-07 16:00;CYQB 071600Z 27015G22KT 25SM BKN044 10/02 A2986 RMK SC6 SLP113

CYQB;2010-05-07 17:00;CYQB 071700Z 28014G24KT 25SM BKN045 11/01 A2987 RMK SC6 SLP118

CYQB;2010-05-07 18:00;CYQB 071800Z 29010G16KT 25SM BKN049 12/00 A2985 RMK SC6 SLP111

CYQB;2010-05-07 19:00;CYQB 071900Z 28014G19KT 25SM BKN052 14/02 A2986 RMK SC5 SLP113

CYQB;2010-05-07 20:00;CYQB 072000Z 29019G27KT 25SM SCT055 SCT250 13/01 A2987 RMK SC4CI1 SLP116

CYQB;2010-05-07 21:00;CYQB 072100Z 29009G19KT 25SM FEW055 BKN250 12/01 A2984 RMK SC2CI1 SLP107

CYQB;2010-05-07 22:00;CYQB 072200Z 31012KT 25SM FEW052 SCT250 11/M00 A2985 RMK SC2CI1 SLP110

CYQB;2010-05-07 23:00;CYQB 072300Z 31013G19KT 25SM FEW052 BKN220 09/M01 A2985 RMK SC2CI2 SLP111

CYQB;2010-05-08 00:00;CYQB 080000Z 31005KT 25SM FEW050 FEW150 OVC200 08/M01 A2986 RMK SC2AC1CI3 SLP112

CYQB;2010-05-08 01:00;CYQB 080100Z 31006KT 15SM FEW050 SCT150 OVC230 07/M01 A2988 RMK SC2AC2CI2 SLP120

CYQB;2010-05-08 02:00;CYQB 080200Z 30005KT 15SM FEW090 SCT240 06/M01 A2987 RMK AC1CI2 SLP116

CYQB;2010-05-08 03:00;CYQB 080300Z 00000KT 15SM FEW240 05/M01 A2983 RMK CI0 SLP105

CYQB;2010-05-08 04:00;CYQB 080400Z 26006KT 15SM BKN200 04/M01 A2984 RMK CI3 SLP108

CYQB;2010-05-08 05:00;CYQB 080500Z 26002KT 15SM BKN200 03/M01 A2981 RMK CI2 SLP098

CYQB;2010-05-08 06:00;CYQB 080600Z 26003KT 15SM BKN180 02/M01 A2981 RMK AC3 SLP096

CYQB;2010-05-08 07:00;CYQB 080700Z 00000KT 15SM BKN170 02/M01 A2979 RMK AC5 SLP090

CYQB;2010-05-08 08:00;CYQB 080800Z 35003KT 20SM SCT170 03/M01 A2976 RMK AC2 SLP080

CYQB;2010-05-08 09:00;CYQB 080900Z 36005KT 30SM FEW080 FEW170 02/M02 A2975 RMK AC1AC1 SLP075

CYQB;2010-05-08 10:00;CYQB 081000Z 01005KT 30SM FEW080 BKN170 02/M02 A2973 RMK AC1AC2 SLP069

CYQB;2010-05-08 11:00;CYQB 081100Z 07007KT 30SM FEW080 FEW170 04/00 A2972 RMK AC1AC2 SLP065

CYQB;2010-05-08 12:00;CYQB 081200Z 09011G16KT 30SM FEW020 FEW170 06/00 A2969 RMK CU2AC1 SLP057

CYQB;2010-05-08 13:00;CYQB 081300Z 10012G19KT 30SM FEW020 FEW170 07/01 A2964 RMK CU1AC2 SLP041

CYQB;2010-05-08 14:00;CYQB 081400Z 09011G16KT 30SM FEW020 BKN090 07/M00 A2961 RMK CU1AC6 SLP030

CYQB;2010-05-08 15:00;CYQB 081500Z 06015KT 30SM BKN055 BKN090 07/01 A2956 RMK SC6AC2 PFR SLP013

CYQB;2010-05-08 16:00;CYQB 081600Z 09011G18KT 30SM BKN045 OVC090 07/00 A2952 RMK SC7AC1 SLP000

CYQB;2010-05-08 16:35;CYQB 081635Z 08011G19KT 30SM -RA BKN035 OVC090 06/ RMK SC7AC1

CYQB;2010-05-08 17:00;CYQB 081700Z 08012G20KT 6SM -RA OVC030 06/02 A2948 RMK SC8 SLP985

CYQB;2010-05-08 18:00;CYQB 081800Z 07012G20KT 6SM -RA OVC028 06/03 A2944 RMK SC8 SLP973

CYQB;2010-05-08 18:33;CYQB 081833Z 07012G18KT 1 1/2SM -RA BR OVC028 06/ RMK FG2SC6

CYQB;2010-05-08 18:49;CYQB 081849Z 07010G19KT 5SM -RA BR OVC024 06/ RMK SC8

CYQB;2010-05-08 19:00;CYQB 081900Z 07014G20KT 1 1/4SM -RA BR OVC022 06/04 A2942 RMK FG2SC6 SLP967

CYQB;2010-05-08 19:41;CYQB 081941Z 07014KT 1SM R06/P6000FT/U -RA BR SCT005 OVC015 05/ RMK FG2SF2SC4

CYQB;2010-05-08 20:00;CYQB 082000Z 07015G20KT 1 1/2SM -RA BR SCT005 OVC015 05/04 A2940 RMK FG2SF2SC4 VIS VRB 1-2 SLP959

CYQB;2010-05-08 20:26;CYQB 082026Z CCA 07015G21KT 1 1/2SM -RA BR BKN005 OVC015 05/ RMK FG2SF2SC3 VIS VRB 1-2

CYQB;2010-05-08 21:00;CYQB 082100Z 07012G18KT 2 1/2SM -RA BR BKN005 OVC030 05/05 A2938 RMK SF5SC3 VIS VRB 2-3 SLP952

CYQB;2010-05-08 22:00;CYQB 082200Z 06006KT 3SM -RA BR BKN005 OVC018 06/05 A2935 RMK SF6SC2 SLP942

CYQB;2010-05-08 23:00;CYQB 082300Z 07010G15KT 6SM -RA BR BKN006 OVC015 06/05 A2935 RMK SF5SC3 SLP941

CYQB;2010-05-09 00:00;CYQB 090000Z 07012KT 6SM -RA BR BKN007 OVC013 06/05 A2934 RMK SF6SC2 SLP938

CYQB;2010-05-09 01:00;CYQB 090100Z 08009KT 10SM SCT006 OVC015 06/05 A2935 RMK SF4SC4 SLP940

CYQB;2010-05-09 02:00;CYQB 090200Z 08008KT 10SM BKN009 OVC016 06/04 A2933 RMK SF6SC2 SLP935

CYQB;2010-05-09 03:00;CYQB 090300Z 12004KT 10SM OVC011 06/04 A2932 RMK SC8 SLP932

CYQB;2010-05-09 04:00;CYQB 090400Z 09008KT 10SM OVC015 06/04 A2931 RMK SC8 SLP929

CYQB;2010-05-09 05:00;CYQB 090500Z 02002KT 10SM OVC015 06/04 A2932 RMK SC8 SLP931

CYQB;2010-05-09 06:00;CYQB 090600Z 00000KT 12SM -DZ BKN010 OVC040 05/05 A2931 RMK ST6SC2 SLP929

CYQB;2010-05-09 07:00;CYQB 090700Z 22006KT 12SM -DZ OVC007 06/05 A2932 RMK ST8 SLP931

CYQB;2010-05-09 07:28;CYQB 090728Z 25010KT 2SM -RA BR OVC005 05/ RMK ST8

CYQB;2010-05-09 08:00;CYQB 090800Z 25008KT 1 1/2SM -RA BR OVC004 05/05 A2934 RMK ST8 SLP936

CYQB;2010-05-09 08:21;CYQB 090821Z 30003KT 2SM -RA BR OVC006 05/ RMK ST8

CYQB;2010-05-09 08:52;CYQB 090852Z 22003KT 15SM FEW006 OVC020 05/ RMK SF2SC6 VIS LWR E

CYQB;2010-05-09 09:00;CYQB 090900Z 20003KT 15SM FEW006 BKN020 OVC040 05/05 A2935 RMK SF2SC6SC1 VIS LWR E SLP941

CYQB;2010-05-09 10:00;CYQB 091000Z 25006KT 30SM FEW006 BKN047 OVC070 05/04 A2937 RMK SF1SC5AC2 SLP947

CYQB;2010-05-09 11:00;CYQB 091100Z 26009KT 30SM FEW012 SCT060 OVC084 06/04 A2939 RMK SC1SC2AC5 ACSL NE SLP955

CYQB;2010-05-09 12:00;CYQB 091200Z 26008KT 30SM FEW030 FEW060 OVC079 06/04 A2942 RMK SC2SC1AC6 SLP965

CYQB;2010-05-09 13:00;CYQB 091300Z CCA 29011KT 30SM SCT036 OVC080 07/03 A2944 RMK SC4AC4 VIRGA SLP972

CYQB;2010-05-09 14:00;CYQB 091400Z 30014G20KT 30SM FEW033 BKN042 OVC080 07/01 A2947 RMK SC2SC5AC2 VIRGA E SLP981

CYQB;2010-05-09 15:00;CYQB 091500Z CCA 30015G21KT 30SM BKN040 OVC070 08/01 A2950 RMK SC6AC2 VIRGA SE-SW SLP991

CYQB;2010-05-09 16:00;CYQB 091600Z 29013G20KT 30SM BKN040 OVC050 07/00 A2953 RMK SC6SC2 VIRGA SE-SW SLP001

CYQB;2010-05-09 16:40;CYQB 091640Z 29016G25KT 30SM -SHRA BKN043 OVC055 07/ RMK SC7SC1

CYQB;2010-05-09 17:00;CYQB 091700Z 31018G25KT 30SM -SHRA BKN041 OVC053 07/M00 A2956 RMK SC7SC1 SLP011

CYQB;2010-05-09 18:00;CYQB 091800Z 29010G21KT 25SM -SHRA SCT035 OVC044 07/01 A2960 RMK SC3SC5 PRESRR SLP025

CYQB;2010-05-09 19:00;CYQB 091900Z 30014G21KT 25SM SCT036 OVC041 07/00 A2963 RMK SC4SC4 SLP035

CYQB;2010-05-09 20:00;CYQB 092000Z 29014G24KT 30SM SCT040 OVC053 07/00 A2965 RMK SC3SC5 SLP043

CYQB;2010-05-09 21:00;CYQB 092100Z CCA 29017KT 20SM -SHRA BKN035 OVC055 06/01 A2970 RMK SC6SC2 PRESRR SLP060

CYQB;2010-05-09 22:00;CYQB 092200Z 29011G21KT 25SM VCSH BKN037 OVC050 06/00 A2974 RMK SC5SC3 SLP074

CYQB;2010-05-09 23:00;CYQB 092300Z CCA 28015G22KT 25SM VCSH SCT045 OVC060 05/M01 A2978 RMK SC4SC4 SLP087

CYQB;2010-05-10 00:00;CYQB 100000Z 28017KT 20SM -SHRA SCT036 OVC043 03/M00 A2984 RMK SC3SC5 -SHRA OCNL SLP107

CYQB;2010-05-10 01:00;CYQB 100100Z 27017KT 15SM OVC040 03/M01 A2987 RMK SC8 OCNL -SHRA SLP118

CYQB;2010-05-10 02:00;CYQB 100200Z 28014G22KT 15SM BKN033 OVC080 03/M01 A2989 RMK SC6AC2 SLP123

CYQB;2010-05-10 03:00;CYQB 100300Z 27009KT 15SM OVC040 03/M02 A2990 RMK SC8 SLP127

CYQB;2010-05-10 04:00;CYQB 100400Z 31011G18KT 15SM BKN040 OVC080 02/M03 A2991 RMK SC6AC2 SLP131

CYQB;2010-05-10 05:00;CYQB 100500Z 33010KT 15SM OVC031 02/M03 A2992 RMK SC8 SLP133

CYQB;2010-05-10 06:00;CYQB 100600Z 32007KT 15SM OVC030 02/M04 A2994 RMK SC8 SLP140

CYQB;2010-05-10 07:00;CYQB 100700Z 32009KT 15SM OVC030 02/M04 A2996 RMK SC8 SLP147

CYQB;2010-05-10 08:00;CYQB 100800Z 31007KT 15SM OVC031 02/M04 A2998 RMK SC8 SLP154

CYQB;2010-05-10 09:00;CYQB 100900Z 30009KT 15SM OVC028 01/M04 A2999 RMK SC8 SLP159

CYQB;2010-05-10 10:00;CYQB 101000Z 30006KT 15SM OVC033 03/M01 A3002 RMK SC8 SLP168

CYQB;2010-05-10 11:00;CYQB 101100Z 33007KT 15SM OVC029 03/M01 A3004 RMK SC8 SLP175

CYQB;2010-05-10 12:00;CYQB 101200Z 32009G15KT 15SM OVC032 03/M01 A3006 RMK SC8 SLP183

CYQB;2010-05-10 13:00;CYQB 101300Z 33009G15KT 15SM OVC032 03/M01 A3008 RMK SC8 SLP191

CYQB;2010-05-10 14:00;CYQB 101400Z 32008KT 15SM OVC030 03/M01 A3011 RMK SC8 SLP198

CYQB;2010-05-10 15:00;CYQB 101500Z 29011G16KT 15SM OVC033 03/M01 A3011 RMK SC8 SLP201

CYQB;2010-05-10 16:00;CYQB 101600Z 31010G16KT 15SM OVC036 03/M01 A3013 RMK SC8 SLP206

CYQB;2010-05-10 17:00;CYQB 101700Z 33009KT 15SM OVC036 03/M05 A3015 RMK SC8 SLP212

CYQB;2010-05-10 18:00;CYQB 101800Z 31012KT 30SM OVC041 04/M04 A3016 RMK SC8 SLP215

CYQB;2010-05-10 19:00;CYQB 101900Z 32012G18KT 30SM OVC038 04/M05 A3017 RMK SC8 SLP221

CYQB;2010-05-10 20:00;CYQB 102000Z 32010KT 30SM BKN042 BKN220 05/M04 A3019 RMK SC7CI1 SLP225

CYQB;2010-05-10 21:00;CYQB 102100Z 34011G16KT 30SM BKN042 BKN220 05/M05 A3020 RMK SC5CI0 SLP230

CYQB;2010-05-10 22:00;CYQB 102200Z 36009KT 30SM FEW051 BKN240 07/M05 A3022 RMK SC2CI0 SLP236

CYQB;2010-05-10 23:00;CYQB 102300Z 01007KT 30SM FEW050 BKN240 06/M05 A3024 RMK SC2CI0 SLP244

CYQB;2010-05-11 00:00;CYQB 110000Z 34004KT 30SM FEW050 SCT240 06/M06 A3026 RMK SC1CI0 SLP251

CYQB;2010-05-11 01:00;CYQB 110100Z 33002KT 15SM FEW050 FEW240 03/M06 A3029 RMK SC1CI0 SLP260

CYQB;2010-05-11 02:00;CYQB 110200Z 25003KT 15SM FEW240 01/M05 A3030 RMK CI0 SLP264

CYQB;2010-05-11 03:00;CYQB 110300Z 26008KT 15SM FEW240 01/M05 A3031 RMK CI0 SLP267

CYQB;2010-05-11 04:00;CYQB 110400Z 24005KT 15SM FEW240 01/M05 A3032 RMK CI0 SLP270

CYQB;2010-05-11 05:00;CYQB 110500Z 27002KT 15SM FEW240 M01/M05 A3032 RMK CI0 SLP272

CYQB;2010-05-11 06:00;CYQB 110600Z 00000KT 15SM FEW250 M02/M05 A3033 RMK CI0 SLP275

CYQB;2010-05-11 07:00;CYQB 110700Z 00000KT 15SM FEW250 M02/M05 A3034 RMK CI1 SLP278

CYQB;2010-05-11 08:00;CYQB 110800Z 00000KT 15SM FEW250 M03/M05 A3035 RMK CI1 SLP281

CYQB;2010-05-11 09:00;CYQB 110900Z 00000KT 15SM FEW100 M01/M05 A3036 RMK AC1 SLP286

CYQB;2010-05-11 10:00;CYQB 111000Z 10004KT 30SM FEW100 M00/M04 A3038 RMK AC1 SLP290

CYQB;2010-05-11 11:00;CYQB 111100Z 00000KT 30SM FEW100 02/M03 A3039 RMK AC1 SLP293

CYQB;2010-05-11 12:00;CYQB 111200Z 24002KT 30SM FEW100 03/M01 A3039 RMK AC2 SLP293

CYQB;2010-05-11 13:00;CYQB 111300Z 24004KT 30SM FEW060 BKN078 05/M01 A3038 RMK SC1AC6 SLP292

CYQB;2010-05-11 14:00;CYQB 111400Z 22008KT 30SM FEW065 SCT080 06/M02 A3037 RMK SC1AC3 SLP289

CYQB;2010-05-11 15:00;CYQB 111500Z 24005G16KT 30SM FEW065 FEW080 09/M01 A3035 RMK SC1AC2 SLP281

CYQB;2010-05-11 16:00;CYQB 111600Z 24011KT 30SM FEW055 11/M01 A3032 RMK SC2 SLP271

CYQB;2010-05-11 17:00;CYQB 111700Z CCA 26010KT 30SM SCT062 11/M02 A3029 RMK SC4 SLP260

CYQB;2010-05-11 18:00;CYQB 111800Z 22013KT 30SM FEW065 SCT078 12/M01 A3027 RMK SC1AC3 SLP252

CYQB;2010-05-11 19:00;CYQB 111900Z 21012KT 30SM SCT060 BKN085 12/M01 A3026 RMK SC4AC2 SLP249

CYQB;2010-05-11 20:00;CYQB 112000Z 25012KT 30SM BKN077 13/M01 A3024 RMK AC6 SLP242

CYQB;2010-05-11 21:00;CYQB 112100Z 25012KT 30SM SCT080 BKN092 14/M01 A3023 RMK AC4AC2 SLP240

CYQB;2010-05-11 22:00;CYQB 112200Z 30004KT 30SM BKN082 BKN220 14/M02 A3024 RMK AC6CI0 SLP243

CYQB;2010-05-11 23:00;CYQB 112300Z 04008KT 30SM SCT092 BKN220 13/01 A3025 RMK AC4CI0 SLP245

CYQB;2010-05-12 00:00;CYQB 120000Z 06007KT 30SM FEW085 SCT220 10/02 A3026 RMK AC2CI0 SLP249

CYQB;2010-05-12 01:00;CYQB 120100Z 05008KT 30SM FEW085 FEW210 09/M01 A3027 RMK AC2CI0 SLP254

CYQB;2010-05-12 02:00;CYQB 120200Z 04004KT 30SM FEW085 08/M02 A3028 RMK AC1 SLP256

CYQB;2010-05-12 03:00;CYQB 120300Z 02002KT 30SM FEW085 07/M02 A3028 RMK AC2 SLP257

CYQB;2010-05-12 04:00;CYQB 120400Z 36003KT 30SM FEW085 04/M02 A3029 RMK AC2 SLP259

CYQB;2010-05-12 05:00;CYQB 120500Z 04002KT 30SM FEW090 05/M02 A3029 RMK AC2 SLP258

CYQB;2010-05-12 06:00;CYQB 120600Z 01004KT 15SM FEW090 04/M03 A3028 RMK AC2 SLP254

CYQB;2010-05-12 07:00;CYQB 120700Z 01005KT 15SM FEW070 FEW090 03/M03 A3027 RMK AC1AC1 SLP251

CYQB;2010-05-12 08:00;CYQB 120800Z 36004KT 15SM FEW080 03/M04 A3026 RMK AC1 SLP250

CYQB;2010-05-12 09:00;CYQB 120900Z 03006KT 15SM SKC 02/M04 A3026 RMK SLP249

CYQB;2010-05-12 10:00;CYQB 121000Z 02008KT 25SM FEW080 03/M04 A3027 RMK AC1 SLP253

CYQB;2010-05-12 11:00;CYQB 121100Z 02005KT 25SM FEW080 05/M03 A3027 RMK AC1 SLP253

CYQB;2010-05-12 12:00;CYQB 121200Z 01008KT 25SM FEW080 FEW180 07/M03 A3028 RMK AC1CI1 SLP254

CYQB;2010-05-12 13:00;CYQB 121300Z 03002KT 25SM FEW040 FEW180 09/M03 A3027 RMK CU1CI1 SLP253

CYQB;2010-05-12 14:00;CYQB 121400Z 08004KT 25SM FEW060 FEW180 11/M03 A3025 RMK CU2CI1 SLP245

CYQB;2010-05-12 15:00;CYQB 121500Z 07008KT 25SM SCT060 SCT180 11/M00 A3024 RMK CU3CI1 SLP241

CYQB;2010-05-12 16:00;CYQB 121600Z 07005KT 25SM SCT065 BKN200 11/M01 A3023 RMK CU3CI2 SLP240

CYQB;2010-05-12 17:00;CYQB 121700Z 08007KT 25SM SCT065 BKN200 10/M01 A3025 RMK CU4CI1 SLP244

CYQB;2010-05-12 18:00;CYQB 121800Z 09006KT 30SM FEW061 SCT240 12/M01 A3023 RMK CU2CI1 SLP239

CYQB;2010-05-12 19:00;CYQB 121900Z 04008KT 30SM FEW060 BKN240 12/M02 A3021 RMK CU1CI1 SLP233

CYQB;2010-05-12 20:00;CYQB 122000Z 06012KT 30SM FEW060 BKN240 11/M02 A3020 RMK SC1CI1 SLP230

CYQB;2010-05-12 21:00;CYQB 122100Z 09008KT 30SM FEW060 BKN240 12/M03 A3021 RMK SC1CI2 SLP234

CYQB;2010-05-12 22:00;CYQB 122200Z 06010KT 30SM FEW060 BKN240 11/M03 A3023 RMK SC1CI2 SLP241

CYQB;2010-05-12 23:00;CYQB 122300Z 06007KT 30SM FEW060 BKN240 10/M04 A3024 RMK SC1CI1 SLP243

CYQB;2010-05-13 00:00;CYQB 130000Z 07005KT 30SM FEW070 FEW240 09/M04 A3026 RMK AC1CI0 SLP248

CYQB;2010-05-13 01:00;CYQB 130100Z 35002KT 15SM FEW070 FEW240 08/M04 A3027 RMK AC1CI1 SLP252

CYQB;2010-05-13 02:00;CYQB 130200Z 00000KT 15SM FEW240 04/M02 A3028 RMK CI1 SLP254

CYQB;2010-05-13 03:00;CYQB 130300Z 00000KT 15SM SKC 03/M02 A3027 RMK SLP252

CYQB;2010-05-13 04:00;CYQB 130400Z 34003KT 15SM SKC 02/M02 A3026 RMK SLP249

CYQB;2010-05-13 05:00;CYQB 130500Z 34004KT 15SM SKC 03/M03 A3025 RMK SLP246

CYQB;2010-05-13 06:00;CYQB 130600Z 00000KT 15SM SKC 00/M03 A3024 RMK SLP244

CYQB;2010-05-13 07:00;CYQB 130700Z 32004KT 15SM SKC 02/M05 A3024 RMK SLP244

CYQB;2010-05-13 08:00;CYQB 130800Z 00000KT 15SM SKC M01/M05 A3025 RMK SLP245

CYQB;2010-05-13 09:00;CYQB 130900Z 35007KT 15SM SKC 03/M05 A3026 RMK SLP249

CYQB;2010-05-13 10:00;CYQB 131000Z 00000KT 30SM SKC M00/M04 A3028 RMK SLP255

CYQB;2010-05-13 11:00;CYQB 131100Z 00000KT 30SM SKC 05/M03 A3027 RMK SLP254

CYQB;2010-05-13 12:00;CYQB 131200Z 27007KT 30SM SKC 09/M02 A3027 RMK SLP253

CYQB;2010-05-13 13:00;CYQB 131300Z 27013KT 30SM SKC 10/M03 A3027 RMK SLP251

CYQB;2010-05-13 14:00;CYQB 131400Z 31015G20KT 30SM SKC 12/M03 A3024 RMK SLP243

CYQB;2010-05-13 15:00;CYQB 131500Z 33011G18KT 30SM SKC 13/M04 A3022 RMK SLP236

CYQB;2010-05-13 16:00;CYQB 131600Z 31010G17KT 30SM SKC 15/M04 A3021 RMK SLP231

CYQB;2010-05-13 17:00;CYQB 131700Z 33015KT 30SM FEW250 16/M05 A3018 RMK CI1 SLP222

CYQB;2010-05-13 18:00;CYQB 131800Z 34012G20KT 30SM FEW250 18/M05 A3017 RMK CI1 SLP217

CYQB;2010-05-13 19:00;CYQB 131900Z 34013G20KT 30SM FEW250 18/M05 A3016 RMK CI1 SLP215

CYQB;2010-05-13 20:00;CYQB 132000Z 32011G18KT 30SM FEW250 19/M06 A3014 RMK CI1 SLP207

CYQB;2010-05-13 21:00;CYQB 132100Z 30011G18KT 30SM FEW250 19/M05 A3014 RMK CI1 SLP207

CYQB;2010-05-13 22:00;CYQB 132200Z 34008G16KT 30SM FEW250 18/M06 A3014 RMK CI1 SLP207

CYQB;2010-05-13 23:00;CYQB 132300Z 36009KT 30SM FEW250 18/M06 A3015 RMK CI1 SLP211

CYQB;2010-05-14 00:00;CYQB 140000Z 35006KT 30SM FEW250 16/M06 A3014 RMK CI1 SLP208

CYQB;2010-05-14 01:00;CYQB 140100Z 33004KT 15SM FEW250 13/M04 A3013 RMK CI2 SLP204

CYQB;2010-05-14 02:00;CYQB 140200Z 01004KT 15SM SKC 13/M04 A3014 RMK SLP206

CYQB;2010-05-14 03:00;CYQB 140300Z 36004KT 15SM FEW230 11/M04 A3013 RMK CI1 SLP204

CYQB;2010-05-14 04:00;CYQB 140400Z 00000KT 15SM BKN230 09/M02 A3012 RMK CI6 SLP200

CYQB;2010-05-14 05:00;CYQB 140500Z 00000KT 15SM FEW170 SCT210 09/M02 A3011 RMK AC1CI3 SLP199

CYQB;2010-05-14 06:00;CYQB 140600Z 00000KT 15SM BKN200 08/M02 A3011 RMK CI6 SLP196

CYQB;2010-05-14 07:00;CYQB 140700Z 01003KT 15SM BKN170 08/M01 A3011 RMK AC7 SLP196

CYQB;2010-05-14 08:00;CYQB 140800Z 02005KT 15SM BKN160 08/M02 A3010 RMK AC7 SLP193

CYQB;2010-05-14 09:00;CYQB 140900Z 02006KT 15SM BKN150 08/M02 A3009 RMK AC7 SLP190

CYQB;2010-05-14 10:00;CYQB 141000Z 36002KT 25SM BKN150 08/M01 A3008 RMK AC7 SLP189

CYQB;2010-05-14 11:00;CYQB 141100Z 00000KT 25SM BKN120 08/00 A3009 RMK AC7 SLP191

CYQB;2010-05-14 12:00;CYQB 141200Z 03003KT 25SM OVC120 09/01 A3008 RMK AC8 SLP189

CYQB;2010-05-14 13:00;CYQB 141300Z 09006KT 25SM BKN110 BKN150 12/01 A3007 RMK AC6AC1 SLP184

CYQB;2010-05-14 14:00;CYQB 141400Z 08008KT 30SM BKN110 12/00 A3006 RMK AC6 SLP180

CYQB;2010-05-14 15:00;CYQB 141500Z 07005KT 30SM BKN100 13/01 A3004 RMK AC7 SLP173

CYQB;2010-05-14 16:00;CYQB 141600Z 09003KT 30SM OVC100 14/01 A3002 RMK AC8 SLP168

CYQB;2010-05-14 17:00;CYQB 141700Z 08005KT 30SM OVC098 15/01 A3000 RMK AC8 SLP161

CYQB;2010-05-14 18:00;CYQB 141800Z 07004KT 30SM FEW060 OVC093 15/02 A2997 RMK CU1AC7 SLP150

CYQB;2010-05-14 19:00;CYQB 141900Z 09005KT 30SM BKN089 16/02 A2995 RMK AC6 SLP143

CYQB;2010-05-14 20:00;CYQB 142000Z 09004KT 30SM OVC080 16/03 A2992 RMK AC8 SLP134

CYQB;2010-05-14 21:00;CYQB 142100Z 10003KT 30SM BKN069 16/03 A2990 RMK AC7 SLP127

CYQB;2010-05-14 22:00;CYQB 142200Z 16004KT 30SM OVC059 16/03 A2988 RMK SC8 SLP121

CYQB;2010-05-14 23:00;CYQB 142300Z 28003KT 30SM -SHRA OVC060 15/05 A2989 RMK SC8 SLP125

CYQB;2010-05-15 00:00;CYQB 150000Z 08008KT 30SM FEW050 OVC058 12/05 A2988 RMK CU1SC7 SLP120

CYQB;2010-05-15 01:00;CYQB 150100Z 07004KT 15SM -SHRA OVC047 11/02 A2991 RMK SC8 VERY FINE RAIN SLP130

CYQB;2010-05-15 02:00;CYQB 150200Z 12007KT 15SM -SHRA OVC032 09/04 A2991 RMK SC8 SLP131

CYQB;2010-05-15 03:00;CYQB 150300Z 15002KT 15SM -SHRA OVC034 08/06 A2989 RMK SC8 SLP124

CYQB;2010-05-15 03:37;CYQB 150337Z 27002KT 15SM OVC036 08/ RMK SC8

CYQB;2010-05-15 04:00;CYQB 150400Z 28004KT 10SM -SHRA OVC035 08/07 A2988 RMK SC8 SLP120

CYQB;2010-05-15 05:00;CYQB 150500Z 29004KT 15SM -SHRA OVC038 08/07 A2987 RMK SC8 SLP118

CYQB;2010-05-15 06:00;CYQB 150600Z 08003KT 15SM BKN043 08/06 A2985 RMK SC7 SLP109

CYQB;2010-05-15 07:00;CYQB 150700Z 05005KT 15SM OVC044 08/06 A2984 RMK SC8 SLP106

CYQB;2010-05-15 08:00;CYQB 150800Z 07008KT 15SM OVC045 08/06 A2983 RMK SC8 SLP104

CYQB;2010-05-15 09:00;CYQB 150900Z 06005KT 15SM BKN048 OVC090 08/06 A2984 RMK SC6AC2 SLP107

CYQB;2010-05-15 10:00;CYQB 151000Z 07008KT 15SM OVC050 08/04 A2986 RMK SC8 SLP113

CYQB;2010-05-15 11:00;CYQB 151100Z 06012G17KT 20SM FEW009 BKN050 OVC080 07/04 A2988 RMK ST1SC5AC2 ST OVR MTN N-NE SLP120

CYQB;2010-05-15 12:00;CYQB 151200Z 05009KT 15SM -RA FEW009 BKN051 OVC080 07/05 A2991 RMK ST1SC6AC2 SLP131

CYQB;2010-05-15 13:00;CYQB 151300Z 08007KT 20SM FEW007 BKN051 OVC080 08/05 A2994 RMK ST1SC6AC2 SLP141

CYQB;2010-05-15 14:00;CYQB 151400Z 08007KT 20SM FEW009 BKN047 OVC080 09/05 A2996 RMK ST1SC6AC1 SLP147

CYQB;2010-05-15 14:46;CYQB 151446Z 07007KT 15SM -DZ FEW012 BKN047 OVC080 09/ RMK ST1SC6AC2 VIS LWR N-NE

CYQB;2010-05-15 15:00;CYQB 151500Z 06007KT 15SM -DZ FEW012 BKN055 OVC080 10/06 A2999 RMK SC1SC6AC2 SLP156

CYQB;2010-05-15 15:41;CYQB 151541Z 06004KT 20SM FEW012 BKN052 OVC080 11/ RMK SC1SC4AC3

CYQB;2010-05-15 16:00;CYQB 151600Z 12003KT 30SM FEW012 SCT045 BKN095 12/05 A2999 RMK SC1SC3AC3 SLP158

CYQB;2010-05-15 17:00;CYQB 151700Z 10002KT 30SM FEW015 BKN049 BKN095 13/05 A2999 RMK SC1SC4AC2 SLP157

CYQB;2010-05-15 18:00;CYQB 151800Z 27008KT 20SM VCSH FEW028 FEW040TCU BKN095 14/06 A3000 RMK CU1TCU2AC3 SHRA N-NE SLP159

CYQB;2010-05-15 18:16;CYQB 151816Z 24004KT 15SM -SHRA FEW028 SCT040TCU BKN095 13/ RMK CU1TCU2AC3 VIS W-NE 3

CYQB;2010-05-15 18:31;CYQB 151831Z 24009KT 20SM VCSH FEW028 SCT040 BKN081 13/ RMK SC2CU2AC2 SHRA NW E MVG S

CYQB;2010-05-15 19:00;CYQB 151900Z 22009KT 30SM VCSH FEW028 FEW040 BKN081 14/08 A3000 RMK SC1CU2AC2 SHRA N SLP161

CYQB;2010-05-15 20:00;CYQB 152000Z 19006KT 15SM BKN043 BKN088 14/07 A3000 RMK CU6AC2 SLP159

CYQB;2010-05-15 20:37;CYQB 152037Z 19010KT 15SM BKN038 BKN084 15/ RMK CU5AC1 VCSH

CYQB;2010-05-15 21:00;CYQB 152100Z 20009KT 15SM SCT036 SCT096 15/07 A2998 RMK CU4AC1 SLP155

CYQB;2010-05-15 22:00;CYQB 152200Z 21008KT 15SM SCT060 16/07 A2997 RMK SC3 SLP152

CYQB;2010-05-15 23:00;CYQB 152300Z 07009KT 15SM FEW060 12/04 A3000 RMK SC2 SLP161

CYQB;2010-05-16 00:00;CYQB 160000Z 08006KT 15SM BKN080 11/03 A3004 RMK AC5 SLP174

CYQB;2010-05-16 01:00;CYQB 160100Z 04004KT 15SM SCT080 10/02 A3006 RMK AC4 SLP181

CYQB;2010-05-16 02:00;CYQB 160200Z 27004KT 15SM FEW085 07/03 A3006 RMK AC2 SLP181

CYQB;2010-05-16 03:00;CYQB 160300Z 00000KT 15SM SKC 07/03 A3004 RMK SLP176

CYQB;2010-05-16 04:00;CYQB 160400Z 00000KT 15SM SKC 04/03 A3004 RMK SLP175

CYQB;2010-05-16 05:00;CYQB 160500Z 35004KT 15SM SKC 05/03 A3003 RMK SLP173

CYQB;2010-05-16 06:00;CYQB 160600Z 01006KT 15SM SKC 06/02 A3003 RMK SLP171

CYQB;2010-05-16 07:00;CYQB 160700Z 03003KT 15SM SKC 05/01 A3004 RMK SLP175

CYQB;2010-05-16 08:00;CYQB 160800Z 34007KT 15SM SKC 05/00 A3006 RMK SLP180

CYQB;2010-05-16 09:00;CYQB 160900Z 32008KT 15SM SKC 03/00 A3008 RMK SLP187

CYQB;2010-05-16 10:00;CYQB 161000Z 02006KT 30SM SKC 06/M01 A3010 RMK SLP194

CYQB;2010-05-16 11:00;CYQB 161100Z 00000KT 30SM SKC 09/M01 A3011 RMK SLP198

CYQB;2010-05-16 12:00;CYQB 161200Z 33007KT 30SM FEW150 12/M01 A3011 RMK AC1 SLP197

CYQB;2010-05-16 13:00;CYQB 161300Z 34013G18KT 30SM FEW150 14/M03 A3009 RMK AC1 SLP191

CYQB;2010-05-16 14:00;CYQB 161400Z 33017G25KT 30SM FEW260 15/M02 A3008 RMK CI0 SLP186

CYQB;2010-05-16 15:00;CYQB 161500Z 32011G22KT 30SM FEW030 FEW150 FEW260 16/M01 A3007 RMK CF1AC1CI2 SLP184

CYQB;2010-05-16 16:00;CYQB 161600Z 34013G20KT 30SM FEW030 FEW150 FEW260 18/M03 A3005 RMK SC1AC1CI2 OBS TAKEN +18 SLP178

CYQB;2010-05-16 17:00;CYQB 161700Z 35016G24KT 30SM FEW050 SCT260 19/M05 A3005 RMK SC1CI2 SLP176

CYQB;2010-05-16 18:00;CYQB 161800Z 35011G22KT 30SM FEW050 SCT260 19/M06 A3003 RMK SC1CI2 SLP171

CYQB;2010-05-16 19:00;CYQB 161900Z 36024G30KT 30SM FEW050 FEW260 20/M05 A3003 RMK SC1CI1 SLP169

CYQB;2010-05-16 20:00;CYQB 162000Z 36018G24KT 30SM FEW070 BKN260 20/M05 A3002 RMK AC1CI2 SLP168

CYQB;2010-05-16 21:00;CYQB 162100Z 34023G31KT 30SM FEW070 FEW260 21/M07 A3002 RMK AC1CI1 SLP167

CYQB;2010-05-16 22:00;CYQB 162200Z 35014G30KT 30SM FEW070 FEW260 21/M08 A3001 RMK AC1CI1 SLP165

CYQB;2010-05-16 23:00;CYQB 162300Z 35021G27KT 30SM FEW070 FEW260 21/M09 A3001 RMK AC1CI0 SLP165

CYQB;2010-05-17 00:00;CYQB 170000Z 35013G19KT 30SM FEW070 FEW260 20/M09 A3003 RMK AC1CI0 SLP169

CYQB;2010-05-17 01:00;CYQB 170100Z 32007KT 15SM FEW070 16/M06 A3005 RMK AC0 SLP175

CYQB;2010-05-17 02:00;CYQB 170200Z 31005KT 15SM SKC 13/M05 A3006 RMK SLP180

CYQB;2010-05-17 03:00;CYQB 170300Z 00000KT 15SM FEW240 13/M05 A3006 RMK CI1 SLP182

CYQB;2010-05-17 04:00;CYQB 170400Z 32004KT 15SM FEW250 13/M04 A3007 RMK CI1 SLP185

CYQB;2010-05-17 05:00;CYQB 170500Z 36002KT 15SM SKC 09/M02 A3009 RMK SLP190

CYQB;2010-05-17 06:00;CYQB 170600Z 32005KT 15SM SKC 11/M04 A3010 RMK SLP193

CYQB;2010-05-17 07:00;CYQB 170700Z 00000KT 15SM SKC 06/M02 A3011 RMK SLP197

CYQB;2010-05-17 08:00;CYQB 170800Z 30007KT 15SM FEW080 05/M02 A3013 RMK AC1 SLP204

CYQB;2010-05-17 09:00;CYQB 170900Z 02005KT 30SM FEW080 08/M02 A3015 RMK AC1 SLP211

CYQB;2010-05-17 10:00;CYQB 171000Z 34004KT 30SM FEW100 07/M02 A3017 RMK AC1 SLP217

CYQB;2010-05-17 11:00;CYQB 171100Z 36004KT 30SM FEW100 10/M01 A3019 RMK AC1 SLP226

CYQB;2010-05-17 12:00;CYQB 171200Z 03003KT 35SM FEW100 FEW260 12/M01 A3020 RMK AC1CI0 SLP229

CYQB;2010-05-17 13:00;CYQB 171300Z 00000KT 35SM FEW260 14/03 A3021 RMK CI0 SLP230

CYQB;2010-05-17 14:00;CYQB 171400Z 00000KT 35SM SKC 15/02 A3020 RMK SLP228

CYQB;2010-05-17 15:00;CYQB 171500Z 16003KT 35SM SKC 16/03 A3019 RMK SLP225

CYQB;2010-05-17 16:00;CYQB 171600Z 19006KT 35SM SKC 19/04 A3017 RMK SLP219

CYQB;2010-05-17 17:00;CYQB 171700Z 20006KT 30SM SKC 20/03 A3016 RMK SLP213

CYQB;2010-05-17 18:00;CYQB 171800Z 16003KT 30SM SKC 21/05 A3014 RMK SLP206

CYQB;2010-05-17 19:00;CYQB 171900Z 00000KT 30SM SKC 22/03 A3012 RMK SLP200

CYQB;2010-05-17 20:00;CYQB 172000Z 14004KT 30SM SKC 22/05 A3011 RMK SLP196

CYQB;2010-05-17 21:00;CYQB 172100Z 07012KT 30SM SKC 22/06 A3010 RMK SLP194

CYQB;2010-05-17 22:00;CYQB 172200Z 08011KT 30SM FEW240 21/05 A3009 RMK CI0 SLP192

CYQB;2010-05-17 23:00;CYQB 172300Z 07009KT 30SM FEW240 20/05 A3009 RMK CI0 SLP192

CYQB;2010-05-18 00:00;CYQB 180000Z 07006KT 30SM FEW240 19/04 A3010 RMK CI0 SLP194

CYQB;2010-05-18 01:00;CYQB 180100Z 36003KT 30SM SKC 17/04 A3012 RMK SLP200

CYQB;2010-05-18 02:00;CYQB 180200Z 04003KT 15SM SKC 15/05 A3012 RMK SLP200

CYQB;2010-05-18 03:00;CYQB 180300Z 28002KT 15SM SKC 11/05 A3012 RMK SLP202

CYQB;2010-05-18 04:00;CYQB 180400Z 02002KT 15SM SKC 10/04 A3012 RMK SLP201

CYQB;2010-05-18 05:00;CYQB 180500Z 03004KT 15SM SKC 12/05 A3012 RMK SLP200

CYQB;2010-05-18 06:00;CYQB 180600Z 35002KT 15SM SKC 08/04 A3011 RMK SLP198

CYQB;2010-05-18 07:00;CYQB 180700Z 01003KT 15SM SKC 08/04 A3011 RMK SLP196

CYQB;2010-05-18 08:00;CYQB 180800Z 00000KT 15SM SKC 08/03 A3011 RMK SLP196

CYQB;2010-05-18 09:00;CYQB 180900Z 00000KT 30SM FEW100 FEW240 05/03 A3011 RMK AC1CI1 SLP198

CYQB;2010-05-18 10:00;CYQB 181000Z 00000KT 30SM FEW100 SCT240 06/04 A3012 RMK AC1CI0 SLP200

CYQB;2010-05-18 11:00;CYQB 181100Z 00000KT 30SM SCT240 10/05 A3012 RMK CI0 SLP200

CYQB;2010-05-18 12:00;CYQB 181200Z 00000KT 30SM FEW080 BKN240 14/06 A3011 RMK AC1CI1 SLP197

CYQB;2010-05-18 13:00;CYQB 181300Z 22004KT 30SM SCT240 17/07 A3010 RMK CI1 SLP194

CYQB;2010-05-18 14:00;CYQB 181400Z 23007KT 30SM SCT240 19/06 A3008 RMK CI1 SLP189

CYQB;2010-05-18 15:00;CYQB 181500Z 22007KT 30SM FEW100 BKN240 22/05 A3007 RMK AC1CI0 SLP182

CYQB;2010-05-18 16:00;CYQB 181600Z 26011G17KT 30SM FEW040 BKN240 24/06 A3006 RMK SC1CI0 SLP178

CYQB;2010-05-18 17:00;CYQB 181700Z 25011KT 30SM FEW040 BKN240 25/05 A3004 RMK SC1CI0 SLP172

CYQB;2010-05-18 18:00;CYQB 181800Z 23012KT 30SM FEW040 BKN240 26/05 A3002 RMK SC1CI1 SLP165

CYQB;2010-05-18 19:00;CYQB 181900Z 25013G18KT 30SM FEW040 BKN240 27/05 A3000 RMK SC2CI1 SLP160

CYQB;2010-05-18 20:00;CYQB 182000Z 23011KT 30SM FEW040 BKN240 27/04 A2998 RMK SC2CI1 SLP152

CYQB;2010-05-18 21:00;CYQB 182100Z CCA 26008KT 30SM FEW040 BKN240 27/04 A2997 RMK SC2CI1 SLP149

CYQB;2010-05-18 22:00;CYQB 182200Z 25007KT 30SM FEW050 FEW190 BKN270 26/04 A2997 RMK CU1AC1CI1 SLP148

CYQB;2010-05-18 23:00;CYQB 182300Z 25005KT 30SM FEW050 BKN270 25/06 A2996 RMK CU1CI1 SLP147

CYQB;2010-05-19 00:00;CYQB 190000Z 27005KT 30SM FEW050 BKN270 22/07 A2996 RMK SC1CI1 SLP146

CYQB;2010-05-19 01:00;CYQB 190100Z 28002KT 30SM FEW260 19/06 A2995 RMK CI0 SLP144

CYQB;2010-05-19 02:00;CYQB 190200Z 36002KT 30SM FEW260 19/05 A2995 RMK CI0 SLP143

CYQB;2010-05-19 03:00;CYQB 190300Z 00000KT 25SM FEW260 14/07 A2994 RMK CI0 SLP140

CYQB;2010-05-19 04:00;CYQB 190400Z 29005KT 25SM FEW260 12/07 A2997 RMK CI1 SLP149

CYQB;2010-05-19 05:00;CYQB 190500Z 28002KT 25SM FEW200 13/06 A2997 RMK CI1 SLP150

CYQB;2010-05-19 06:00;CYQB 190600Z 04002KT 25SM FEW220 11/06 A2999 RMK CI1 SLP155

CYQB;2010-05-19 07:00;CYQB 190700Z 00000KT 25SM FEW220 10/06 A3000 RMK CI1 SLP159

CYQB;2010-05-19 08:00;CYQB 190800Z 00000KT 25SM FEW200 11/07 A3000 RMK CI1 SLP159

CYQB;2010-05-19 09:00;CYQB 190900Z 02003KT 25SM SCT240 12/06 A2999 RMK CI3 SLP157

CYQB;2010-05-19 10:00;CYQB 191000Z 01002KT 25SM FEW075 BKN240 12/06 A3000 RMK AC2CI2 SLP160

CYQB;2010-05-19 11:00;CYQB 191100Z 02002KT 20SM FEW075 SCT160 BKN220 13/06 A3001 RMK AC2AC2CI2 SLP162

CYQB;2010-05-19 12:00;CYQB 191200Z 00000KT 20SM FEW110 BKN200 13/08 A3002 RMK AC2CI3 VCFG SLP167

CYQB;2010-05-19 13:00;CYQB 191300Z 34002KT 20SM FEW110 BKN200 15/07 A3001 RMK AC2CI4 SLP164

CYQB;2010-05-19 14:00;CYQB 191400Z CCA 23003KT 15SM FEW110 SCT160 BKN200 18/08 A3000 RMK AC2AC2CI2 HAZY SLP159

CYQB;2010-05-19 15:00;CYQB 191500Z 26004KT 15SM FEW160 BKN200 20/06 A2998 RMK AC2CI3 HAZY SLP154

CYQB;2010-05-19 16:00;CYQB 191600Z 28005KT 20SM FEW160 BKN200 21/07 A2995 RMK AC2CI2 SLP143

CYQB;2010-05-19 17:00;CYQB 191700Z 31003KT 25SM FEW075 SCT170 BKN220 22/05 A2992 RMK AC1AC2CI1 SLP132

CYQB;2010-05-19 18:00;CYQB 191800Z 20004KT 25SM FEW090 FEW170 BKN210 23/06 A2991 RMK AC1AC2CI1 SLP128

CYQB;2010-05-19 19:00;CYQB 191900Z 21009KT 30SM FEW090 FEW180 BKN210 24/04 A2989 RMK AC1AC2CI1 SLP121

CYQB;2010-05-19 20:00;CYQB 192000Z 27003KT 30SM FEW060 SCT180 BKN210 23/05 A2986 RMK SC1AC2CI3 SLP112

CYQB;2010-05-19 21:00;CYQB 192100Z 21005KT 30SM FEW090 SCT180 BKN220 23/06 A2985 RMK AC1AC2CI3 SLP108

CYQB;2010-05-19 22:00;CYQB 192200Z 19007KT 30SM FEW080 SCT150 BKN210 22/08 A2984 RMK AC1AC2CI2 SLP107

CYQB;2010-05-19 23:00;CYQB 192300Z 21009KT 25SM FEW080 FEW180 BKN220 20/10 A2985 RMK AC1AC2CI1 SLP109

CYQB;2010-05-20 00:00;CYQB 200000Z 20005KT 25SM FEW080 BKN230 18/09 A2984 RMK AC1CI2 SLP107

CYQB;2010-05-20 01:00;CYQB 200100Z 17004KT 15SM FEW100 BKN230 17/09 A2984 RMK AC2CI2 SLP107

CYQB;2010-05-20 02:00;CYQB 200200Z 22004KT 15SM BKN100 BKN230 16/08 A2985 RMK AC5CI1 SLP109

CYQB;2010-05-20 03:00;CYQB 200300Z 18005KT 15SM SCT100 BKN230 15/08 A2984 RMK AC3CI2 SLP107

CYQB;2010-05-20 04:00;CYQB 200400Z 23003KT 15SM FEW100 BKN220 13/08 A2983 RMK AC2CI2 SLP104

CYQB;2010-05-20 05:00;CYQB 200500Z 00000KT 15SM SCT120 BKN200 12/08 A2982 RMK AC3CI2 SLP100

CYQB;2010-05-20 06:00;CYQB 200600Z 24003KT 15SM FEW120 BKN200 11/08 A2980 RMK AC2CI2 SLP091

CYQB;2010-05-20 07:00;CYQB 200700Z 22002KT 15SM FEW120 SCT200 12/08 A2978 RMK AC2CI2 SLP086

CYQB;2010-05-20 08:00;CYQB 200800Z 23006KT 15SM FEW120 SCT200 11/07 A2976 RMK AC2CI2 SLP079

CYQB;2010-05-20 09:00;CYQB 200900Z 23006KT 25SM SCT140 BKN200 11/08 A2975 RMK AC4CI2 SLP074

CYQB;2010-05-20 10:00;CYQB 201000Z 24012KT 30SM SCT140 12/08 A2975 RMK AC3 SLP075

CYQB;2010-05-20 11:00;CYQB 201100Z 23013KT 30SM SCT130 13/09 A2975 RMK AC4 SLP076

CYQB;2010-05-20 12:00;CYQB 201200Z 26013KT 30SM FEW030 FEW130 BKN240 15/09 A2976 RMK CU1AC2CI0 SLP079

CYQB;2010-05-20 13:00;CYQB 201300Z 24012G17KT 30SM FEW030 BKN240 18/10 A2976 RMK SC2CI1 SLP079

CYQB;2010-05-20 14:00;CYQB 201400Z 27004G15KT 30SM SCT045 BKN240 20/11 A2977 RMK SC4CI0 SLP080

CYQB;2010-05-20 15:00;CYQB 201500Z 35013G18KT 30SM SCT045 BKN240 22/10 A2978 RMK SC4CI0 SLP083

CYQB;2010-05-20 16:00;CYQB 201600Z 33011G19KT 30SM SCT050 BKN240 23/10 A2978 RMK SC3CI0 SLP086

CYQB;2010-05-20 17:00;CYQB 201700Z 31016G22KT 30SM FEW060 BKN240 23/08 A2979 RMK SC2CI0 SLP088

CYQB;2010-05-20 18:00;CYQB 201800Z 30013G20KT 30SM FEW060 BKN240 24/08 A2980 RMK SC2CI0 SLP092

CYQB;2010-05-20 19:00;CYQB 201900Z 34010G21KT 30SM FEW076 FEW130 BKN230 24/07 A2981 RMK AC1AC1CI1 CONTRAILS SLP096

CYQB;2010-05-20 20:00;CYQB 202000Z 34013G18KT 30SM FEW070 FEW150 BKN220 24/03 A2982 RMK AC1AC1CI1 SLP097

CYQB;2010-05-20 21:00;CYQB 202100Z 30013G18KT 30SM FEW070 FEW180 BKN250 23/04 A2983 RMK AC1AC2CI0 SLP104

CYQB;2010-05-20 22:00;CYQB 202200Z 30015G24KT 30SM FEW070 FEW190 BKN250 22/M01 A2986 RMK AC1AC1CI0 SLP112

CYQB;2010-05-20 23:00;CYQB 202300Z 31009G17KT 30SM SCT250 21/M01 A2988 RMK CI1 TCU SW SLP119

CYQB;2010-05-21 00:00;CYQB 210000Z 31007KT 30SM FEW250 19/M04 A2991 RMK CI0 SLP130

CYQB;2010-05-21 01:00;CYQB 210100Z 31007KT 30SM FEW250 16/M03 A2995 RMK CI1 SLP142

CYQB;2010-05-21 02:00;CYQB 210200Z 35008KT 15SM SKC 15/M03 A2998 RMK SLP153

CYQB;2010-05-21 03:00;CYQB 210300Z 36005KT 15SM SKC 13/M02 A3001 RMK SLP164

CYQB;2010-05-21 04:00;CYQB 210400Z 33005KT 15SM SKC 12/M03 A3004 RMK SLP173

CYQB;2010-05-21 05:00;CYQB 210500Z 04003KT 15SM SKC 08/M02 A3006 RMK SLP181

CYQB;2010-05-21 06:00;CYQB 210600Z 36006KT 15SM SKC 10/M03 A3010 RMK SLP192

CYQB;2010-05-21 07:00;CYQB 210700Z 35005KT 15SM SKC 09/M03 A3013 RMK SLP202

CYQB;2010-05-21 08:00;CYQB 210800Z 34004KT 15SM SKC 07/M03 A3016 RMK SLP212

CYQB;2010-05-21 09:00;CYQB 210900Z 33006KT 15SM SKC 06/M03 A3018 RMK SLP221

CYQB;2010-05-21 10:00;CYQB 211000Z 33003KT 30SM FEW240 06/M02 A3020 RMK CI1 SLP228

CYQB;2010-05-21 11:00;CYQB 211100Z 06008KT 30SM FEW240 09/M02 A3022 RMK CI1 SLP234

CYQB;2010-05-21 12:00;CYQB 211200Z 06005KT 30SM FEW240 11/M02 A3024 RMK CI1 WND ESTD SLP240

CYQB;2010-05-21 13:00;CYQB 211300Z 00000KT 30SM FEW240 12/M02 A3025 RMK CI1 SLP243

CYQB;2010-05-21 14:00;CYQB 211400Z 31003KT 30SM FEW240 14/M01 A3024 RMK CI1 SLP242

CYQB;2010-05-21 15:00;CYQB 211500Z 13003KT 30SM FEW240 14/M04 A3024 RMK CI1 SLP242

CYQB;2010-05-21 16:00;CYQB 211600Z 23005KT 30SM FEW240 15/M02 A3024 RMK CI1 SLP240

CYQB;2010-05-21 17:00;CYQB 211700Z 18010KT 30SM FEW240 16/M02 A3022 RMK CI1 SLP236

CYQB;2010-05-21 18:00;CYQB 211800Z 19008KT 30SM FEW240 17/M01 A3020 RMK CI2 SLP229

CYQB;2010-05-21 19:00;CYQB 211900Z 24010G15KT 50SM FEW240 18/M01 A3018 RMK CI1 SLP222

CYQB;2010-05-21 20:00;CYQB 212000Z 22010G16KT 50SM FEW240 19/M01 A3017 RMK CI1 SLP216

CYQB;2010-05-21 21:00;CYQB 212100Z 21010G15KT 50SM FEW240 19/M02 A3015 RMK CI0 SLP211

CYQB;2010-05-21 22:00;CYQB 212200Z 22010G15KT 50SM SKC 19/M01 A3015 RMK SLP210

CYQB;2010-05-21 23:00;CYQB 212300Z 23007KT 50SM SKC 19/M01 A3016 RMK SLP213

CYQB;2010-05-22 00:00;CYQB 220000Z 23004KT 50SM FEW240 17/01 A3017 RMK CI1 SLP217

CYQB;2010-05-22 01:00;CYQB 220100Z 00000KT 30SM FEW240 14/02 A3019 RMK CI1 SLP225

CYQB;2010-05-22 02:00;CYQB 220200Z 34002KT 15SM FEW240 10/02 A3021 RMK CI1 SLP230

CYQB;2010-05-22 03:00;CYQB 220300Z 00000KT 15SM SKC 11/02 A3020 RMK SLP228

CYQB;2010-05-22 04:00;CYQB 220400Z 07003KT 15SM FEW240 09/02 A3020 RMK CI0 SLP229

CYQB;2010-05-22 05:00;CYQB 220500Z 01003KT 15SM FEW240 08/02 A3021 RMK CI0 SLP230

CYQB;2010-05-22 06:00;CYQB 220600Z 00000KT 15SM SKC 07/02 A3020 RMK SLP229

CYQB;2010-05-22 07:00;CYQB 220700Z 02004KT 15SM SCT250 07/02 A3021 RMK CI2 SLP231

CYQB;2010-05-22 08:00;CYQB 220800Z 36005KT 15SM FEW090 08/02 A3020 RMK AC1 SLP230

CYQB;2010-05-22 09:00;CYQB 220900Z 04002KT 15SM FEW100 FEW250 07/02 A3022 RMK AC1CI0 SLP233

CYQB;2010-05-22 10:00;CYQB 221000Z 01006KT 30SM FEW100 SCT250 08/01 A3023 RMK AC1CI0 SLP238

CYQB;2010-05-22 11:00;CYQB 221100Z 02007KT 30SM BKN250 11/02 A3023 RMK CI1 SLP239

CYQB;2010-05-22 12:00;CYQB 221200Z 00000KT 30SM BKN250 14/03 A3025 RMK CI1 SLP244

CYQB;2010-05-22 13:00;CYQB 221300Z 00000KT 30SM BKN250 17/03 A3024 RMK CI1 SLP242

CYQB;2010-05-22 14:00;CYQB 221400Z 00000KT 30SM BKN250 20/06 A3024 RMK CI2 SLP241

CYQB;2010-05-22 15:00;CYQB 221500Z 16004KT 30SM FEW080 BKN250 23/02 A3022 RMK AC1CI2 SLP236

CYQB;2010-05-22 16:00;CYQB 221600Z 23005KT 30SM FEW080 BKN250 24/02 A3021 RMK AC1CI1 SLP230

CYQB;2010-05-22 17:00;CYQB 221700Z 25009KT 30SM FEW080 BKN250 25/04 A3019 RMK AC1CI2 SLP226

CYQB;2010-05-22 18:00;CYQB 221800Z 24009KT 30SM FEW120 BKN250 26/03 A3018 RMK AC2CI2 SLP222

CYQB;2010-05-22 19:00;CYQB 221900Z 24010G16KT 30SM BKN120 OVC250 25/06 A3017 RMK AC5CI2 SLP216

CYQB;2010-05-22 20:00;CYQB 222000Z 22008KT 30SM SCT120 BKN250 26/09 A3014 RMK AC3CI2 SLP209

CYQB;2010-05-22 21:00;CYQB 222100Z 22009KT 30SM SCT150 BKN250 25/09 A3014 RMK AC3CI2 SLP207

CYQB;2010-05-22 22:00;CYQB 222200Z 25007KT 30SM BKN150 BKN250 24/10 A3014 RMK AC6CI0 SLP208

CYQB;2010-05-22 23:00;CYQB 222300Z 32004KT 30SM FEW080 BKN160 BKN250 23/11 A3014 RMK ACC1AC6CI1 SLP209

CYQB;2010-05-23 00:00;CYQB 230000Z 35004KT 30SM FEW080 BKN160 BKN250 23/10 A3015 RMK ACC1AC6CI1 SLP210

CYQB;2010-05-23 01:00;CYQB 230100Z 34004KT 15SM SCT160 BKN190 BKN250 22/10 A3016 RMK AC3AC3CI1 SLP213

CYQB;2010-05-23 02:00;CYQB 230200Z 00000KT 15SM SCT170 OVC190 19/11 A3017 RMK AC2AC5 SLP215

CYQB;2010-05-23 03:00;CYQB 230300Z 00000KT 15SM FEW170 BKN190 18/11 A3017 RMK AC2AC5 SLP216

CYQB;2010-05-23 04:00;CYQB 230400Z 00000KT 15SM SCT130 BKN180 17/11 A3017 RMK AC3AC3 SLP215

CYQB;2010-05-23 05:00;CYQB 230500Z 29003KT 15SM FEW140 BKN180 16/10 A3017 RMK AC2AC2 SLP217

CYQB;2010-05-23 06:00;CYQB 230600Z 00000KT 15SM FEW140 SCT180 15/10 A3017 RMK AC2AC0 SLP215

CYQB;2010-05-23 07:00;CYQB 230700Z 00000KT 15SM FEW060 SCT140 14/10 A3018 RMK SC1AC2 SLP220

CYQB;2010-05-23 08:00;CYQB 230800Z 00000KT 15SM FEW090 14/10 A3019 RMK AC1 SLP225

CYQB;2010-05-23 09:00;CYQB 230900Z 02003KT 30SM FEW090 FEW130 14/10 A3021 RMK AC1AC1 SLP231

CYQB;2010-05-23 10:00;CYQB 231000Z 29002KT 30SM FEW100 15/11 A3023 RMK AC1 SLP237

CYQB;2010-05-23 11:00;CYQB 231100Z 26004KT 30SM FEW220 18/13 A3024 RMK CC1 SLP241

CYQB;2010-05-23 12:00;CYQB 231200Z 21008KT 15SM FEW120 FEW220 21/15 A3024 RMK AC1CI1 SLP241

CYQB;2010-05-23 13:00;CYQB 231300Z 24014KT 15SM FEW120 FEW220 22/14 A3024 RMK AC1CI1 SLP240

CYQB;2010-05-23 14:00;CYQB 231400Z 24012KT 15SM FEW040 FEW220 23/13 A3023 RMK CU1CI0 SLP236

CYQB;2010-05-23 15:00;CYQB 231500Z 24012KT 15SM FEW040 FEW220 25/13 A3022 RMK CU1CI1 SLP235

CYQB;2010-05-23 16:00;CYQB 231600Z 25010G17KT 15SM FEW040 FEW220 26/13 A3020 RMK CU1CI2 SLP227

CYQB;2010-05-23 17:00;CYQB 231700Z 25010G18KT 25SM FEW050 FEW220 27/14 A3020 RMK CU1CI1 SLP226

CYQB;2010-05-23 18:00;CYQB 231800Z 25007G19KT 25SM FEW060 FEW220 28/13 A3017 RMK CU2CI1 SLP216

CYQB;2010-05-23 19:00;CYQB 231900Z 24013KT 25SM FEW060 FEW220 28/13 A3015 RMK CU1CI1 SLP209

CYQB;2010-05-23 20:00;CYQB 232000Z 26013G18KT 25SM FEW060 FEW220 28/12 RMK CU1CI1 ALTM MISG

CYQB;2010-05-23 21:00;CYQB 232100Z 26014KT 30SM FEW100 FEW220 28/13 A3012 RMK CU1CI1

CYQB;2010-05-23 22:00;CYQB 232200Z 26012KT 30SM FEW060 FEW240 28/13 A3011 RMK CU1CI0 SLP197

CYQB;2010-05-23 23:00;CYQB 232300Z 26008KT 30SM FEW060 SCT240 26/13 A3012 RMK CU1CI1 SLP200

CYQB;2010-05-24 00:00;CYQB 240000Z 26007KT 30SM FEW240 24/13 A3013 RMK CI0 SLP203

CYQB;2010-05-24 01:00;CYQB 240100Z 26003KT 15SM FEW250 22/12 A3014 RMK CI1 SLP208

CYQB;2010-05-24 02:00;CYQB 240200Z 23005KT 15SM FEW200 21/13 A3015 RMK CI0 SLP209

CYQB;2010-05-24 03:00;CYQB 240300Z 25007KT 15SM FEW200 20/13 A3015 RMK CI1 SLP209

CYQB;2010-05-24 04:00;CYQB 240400Z 24008KT 15SM FEW200 20/13 A3015 RMK CI0 SLP210

CYQB;2010-05-24 05:00;CYQB 240500Z 24007KT 15SM SKC 19/13 A3015 RMK SLP211

CYQB;2010-05-24 06:00;CYQB 240600Z 24008KT 15SM SKC 19/13 A3015 RMK SLP209

CYQB;2010-05-24 07:00;CYQB 240700Z 23008KT 15SM SKC 18/13 A3015 RMK SLP211

CYQB;2010-05-24 08:00;CYQB 240800Z 24008KT 15SM FEW220 18/14 A3016 RMK CI0 SLP214

CYQB;2010-05-24 09:00;CYQB 240900Z 25007KT 15SM SCT220 17/13 A3018 RMK CI0 CC ASOCTD SLP219

CYQB;2010-05-24 10:00;CYQB 241000Z 25010KT 15SM FEW120 FEW220 17/14 A3020 RMK AC1CI0 SLP226

CYQB;2010-05-24 11:00;CYQB 241100Z 24011KT 8SM FEW060 FEW140 SCT220 18/14 A3021 RMK CU1AC1CI0 SLP229

CYQB;2010-05-24 12:00;CYQB 241200Z 23012KT 15SM FEW058 FEW140 FEW220 20/15 A3022 RMK SC1AC1CI0 SLP232

CYQB;2010-05-24 13:00;CYQB 241300Z 22011KT 15SM SCT058 SCT220 21/15 A3022 RMK SC3CI1 SLP233

CYQB;2010-05-24 14:00;CYQB 241400Z 23012KT 15SM FEW058 BKN210 24/16 A3022 RMK SC1CI1 SLP232

CYQB;2010-05-24 15:00;CYQB 241500Z 22011G16KT 25SM FEW058 FEW220 25/16 A3022 RMK SC1CI0 SLP232

CYQB;2010-05-24 16:00;CYQB 241600Z 24013G20KT 25SM SCT050 SCT220 27/16 A3020 RMK SC3CI0 SLP228

CYQB;2010-05-24 17:00;CYQB 241700Z 24015KT 25SM SCT050 BKN210 27/16 A3019 RMK SC4CI0 SLP224

CYQB;2010-05-24 18:00;CYQB 241800Z CCA 25011G18KT 25SM SCT050 BKN220 29/16 A3018 RMK SC3CI0 SLP220

CYQB;2010-05-24 19:00;CYQB 241900Z 25012G20KT 30SM FEW050 SCT220 29/16 A3017 RMK CU2CI0 SLP217

CYQB;2010-05-24 20:00;CYQB 242000Z 25012KT 30SM FEW050 FEW220 29/16 A3017 RMK CU2CI0 COTRA SLP215

CYQB;2010-05-24 21:00;CYQB 242100Z 26012KT 30SM FEW050 FEW220 29/16 A3016 RMK CU2CI0 SLP212

CYQB;2010-05-24 22:00;CYQB 242200Z 23010G15KT 30SM FEW220 29/16 A3015 RMK CI0 COTRA SLP209

CYQB;2010-05-24 23:00;CYQB 242300Z 24010KT 30SM FEW220 28/16 A3015 RMK CI0 SLP210

CYQB;2010-05-25 00:00;CYQB 250000Z 25007KT 30SM FEW220 27/16 A3014 RMK CI1 SLP206

CYQB;2010-05-25 01:00;CYQB 250100Z 23007KT 15SM FEW220 24/16 A3015 RMK CI0 SLP210

CYQB;2010-05-25 02:00;CYQB 250200Z 23002KT 15SM SKC 23/16 A3016 RMK SLP213

CYQB;2010-05-25 03:00;CYQB 250300Z 00000KT 15SM SKC 21/16 A3015 RMK SLP211

CYQB;2010-05-25 04:00;CYQB 250400Z 15004KT 15SM SKC 20/16 A3014 RMK SLP207

CYQB;2010-05-25 05:00;CYQB 250500Z 00000KT 15SM SKC 20/16 A3014 RMK SLP207

CYQB;2010-05-25 06:00;CYQB 250600Z 22002KT 15SM SKC 19/16 A3014 RMK SLP205

CYQB;2010-05-25 07:00;CYQB 250700Z 30002KT 15SM SKC 19/16 A3015 RMK SLP210

CYQB;2010-05-25 08:00;CYQB 250800Z 00000KT 15SM SKC 18/15 A3015 RMK SLP210

CYQB;2010-05-25 09:00;CYQB 250900Z 07008KT 15SM FEW150 14/12 A3017 RMK AC2 SLP215

CYQB;2010-05-25 10:00;CYQB 251000Z 08005KT 8SM BKN250 13/11 A3017 RMK CI1 SLP218

CYQB;2010-05-25 11:00;CYQB 251100Z 06003KT 8SM BKN082 OVC200 14/11 A3018 RMK AC6CS1 HAZY SLP221

CYQB;2010-05-25 12:00;CYQB 251200Z 02004KT 10SM FEW030 FEW082 OVC200 15/11 A3018 RMK CU1AC2CI0 HAZY SLP220

CYQB;2010-05-25 13:00;CYQB 251300Z 00000KT 10SM FEW065 FEW090 BKN200 17/13 A3017 RMK CU1AC1CI0 HAZY SLP216

CYQB;2010-05-25 14:00;CYQB 251400Z 21007KT 10SM FEW065 BKN230 23/17 A3013 RMK CU1CI1 HAZY SLP202

CYQB;2010-05-25 15:00;CYQB 251500Z 25011KT 12SM BKN200 25/18 A3011 RMK CI0 HAZY SLP197

CYQB;2010-05-25 16:00;CYQB 251600Z 25012G17KT 12SM FEW050 BKN220 27/19 A3007 RMK CU1CS0 HAZY SLP184

CYQB;2010-05-25 17:00;CYQB 251700Z 26017KT 15SM FEW050 FEW170 BKN220 30/19 A3005 RMK CU1AC1CS0 SLP176

CYQB;2010-05-25 18:00;CYQB 251800Z 25016KT 12SM FEW030CB FEW130 BKN210 31/19 A3001 RMK CB1AC1CI0 CB N-NE VIS LWR N-E SLP162

CYQB;2010-05-25 18:53;CYQB 251853Z 24007G18KT 10SM TS SCT030CB BKN085 BKN210 31/ RMK CB3AC0CI0 CB N-NE VIS LWR N-NE

CYQB;2010-05-25 19:00;CYQB 251900Z 08008G17KT 10SM TS VCSH SCT030CB BKN049 BKN085 26/20 A3001 RMK CB4SC1AC0 CB NE-E LTGCG VIS NE 3 SLP163

CYQB;2010-05-25 19:08;CYQB 251908Z 12006G17KT 10SM -TSRA BKN030CB BKN050 BKN085 25/ RMK CB5SC2AC0 CN NE-E LTGICCG VIS NE 3

CYQB;2010-05-25 19:20;CYQB 251920Z 36010KT 3SM TSRA OVC019CB 25/ RMK CB8 LTGICCG

CYQB;2010-05-25 19:34;CYQB 251934Z CCA 00000KT 15SM -TSRA FEW015 FEW020CB SCT050 BKN085 BKN230 24/ RERA RMK SF1CB2SC2AC3CI1 CB SE-SW LTGIC VIS SE-SW LWR

CYQB;2010-05-25 19:49;CYQB 251949Z 15004KT 15SM FEW012 FEW030CB SCT085 BKN240 23/ RETSRA RMK SF1CB1AC2CI4 CB SE-SW VIS LWR S

CYQB;2010-05-25 20:00;CYQB 252000Z 18004KT 15SM FEW011 FEW030CB SCT085 BKN240 24/22 A3000 RETSRA RMK SF1CB1AC2CI2 CB TOPS S SLP158

CYQB;2010-05-25 21:00;CYQB 252100Z 22007KT 10SM BKN240 27/22 A2997 RMK CI5 DIST CB TOP N HAZY SLP148

CYQB;2010-05-25 22:00;CYQB 252200Z 24007KT 10SM BKN240 28/22 A2993 RMK CI3 HAZY DIST CB TOPS N-NE SLP136

CYQB;2010-05-25 22:45;CYQB 252245Z 19004KT 10SM TS SCT120 BKN240 28/ RMK AC2CI2 HAZY CB N-NE LTGCG

CYQB;2010-05-25 23:00;CYQB 252300Z 00000KT 10SM TS FEW030CB BKN100 BKN240 27/22 A2991 RMK CB1AC5CI1 CB N-E LTGCG HAZY SLP129

CYQB;2010-05-25 23:16;CYQB 252316Z 00000KT 10SM -TSRA FEW030CB BKN085 BKN240 27/ RMK CB2AC4CI1 VIS N-E 3 CB N-E LTGCCCG HAZY

CYQB;2010-05-25 23:41;CYQB 252341Z 36022G35KT 3/4SM R06/P6000FT/N +TSRA OVC028CB 24/ RMK CB8 LTGICCG

CYQB;2010-05-26 00:00;CYQB 260000Z 22009G20KT 5SM -TSRA FEW028CB OVC090 24/20 A2993 RERA RMK CB2AC5 CB N-S LTGCG N SLP135

CYQB;2010-05-26 00:28;CYQB 260028Z 33024G29KT 3/4SM R06/4000VP6000FT/D +TSRA OVC019CB 22/ RMK CB8 LTGICCG

CYQB;2010-05-26 00:40;CYQB 260040Z 30008G25KT 6SM -TSRA SCT019CB BKN090 OVC190 21/ RERA RMK CB3AC3CI2 LTGICCG CB ALL QUADS

CYQB;2010-05-26 01:00;CYQB 260100Z 34009KT 6SM -TSRA FEW020CB SCT090 OVC140 21/21 A2996 RERA RMK CB2AC2AC4 LTGICCG CB ALL QUADS SLP145

CYQB;2010-05-26 02:00;CYQB 260200Z 27007KT 8SM -TSRA FEW020CB FEW090 OVC120 21/21 A2992 RMK CB2AC1AC6 LGTCG SLP131

CYQB;2010-05-26 03:00;CYQB 260300Z 00000KT 15SM TS FEW080CB BKN120 21/21 A2989 RMK CB2AC2 LTGCG SLP122

CYQB;2010-05-26 03:21;CYQB 260321Z 25008KT 8SM -TSRA BKN080CB 21/ RMK CB6 LTGCG

CYQB;2010-05-26 04:00;CYQB 260400Z CCA 25008KT 8SM -TSRA BKN100CB 22/21 A2989 RMK CB7 LTGCG SLP121

CYQB;2010-05-26 05:00;CYQB 260500Z 22007KT 15SM OVC074 21/21 A2989 RMK AC8 SLP122

CYQB;2010-05-26 06:00;CYQB 260600Z 03003KT 15SM OVC062 21/20 A2987 RETS RMK SC8 SLP115

CYQB;2010-05-26 07:00;CYQB 260700Z 05005KT 15SM BKN085 21/21 A2987 RMK AC7 SLP114

CYQB;2010-05-26 08:00;CYQB 260800Z 08004KT 1/4SM R06/P6000FT/D FG OVC001 15/15 A2987 RMK ST8 SLP114

CYQB;2010-05-26 09:00;CYQB 260900Z 09002KT 1/4SM R06/1600FT/N FG VV001 14/14 A2988 RMK FG8 SLP117

CYQB;2010-05-26 10:00;CYQB 261000Z 08002KT 1/8SM R06/1000FT/N FG VV001 14/14 A2989 RMK FG8 SLP121

CYQB;2010-05-26 11:00;CYQB 261100Z 05004KT 1/8SM R06/0900FT/N FG VV001 14/14 A2990 RMK FG8 SLP124

CYQB;2010-05-26 12:00;CYQB 261200Z 00000KT 1/4SM R06/1600FT/N FG VV001 14/14 A2990 RMK FG8 SLP125

CYQB;2010-05-26 12:12;CYQB 261212Z 00000KT 3/8SM R06/1400V2200FT/N FG VV002 14/ RMK FG8

CYQB;2010-05-26 12:26;CYQB 261226Z 00000KT 1/2SM R06/2600FT/N FG BKN002 15/ RMK FG5SF2

CYQB;2010-05-26 12:47;CYQB 261247Z 26002KT 1SM R06/4000VP6000FT/U BR BKN002 15/ RMK FG3SF3

CYQB;2010-05-26 13:00;CYQB 261300Z 24003KT 2SM BR SCT003 BKN025 16/16 A2989 RMK FG1SF1CU1 SLP121

CYQB;2010-05-26 13:25;CYQB 261325Z 25002KT 6SM BR FEW003 SCT025 SCT150 19/ RMK SF1CU4AC1

CYQB;2010-05-26 14:00;CYQB 261400Z 24004KT 15SM FEW050 23/23 A2986 RMK CU2 SLP112

CYQB;2010-05-26 15:00;CYQB 261500Z 34010G18KT 30SM FEW050 27/26 A2984 RMK CU2 SLP104

CYQB;2010-05-26 16:00;CYQB 261600Z 31011G16KT 30SM FEW050 28/14 A2983 RMK CU1 SLP101

CYQB;2010-05-26 17:00;CYQB 261700Z 07019G24KT 30SM FEW060 24/15 A2986 RMK CU1 SLP110

CYQB;2010-05-26 18:00;CYQB 261800Z 08013G21KT 30SM FEW060 23/13 A2986 RMK CU1 SLP110

CYQB;2010-05-26 19:00;CYQB 261900Z 09016KT 30SM FEW060 23/12 A2984 RMK CU1 SLP106

CYQB;2010-05-26 20:00;CYQB 262000Z 07017G22KT 30SM FEW060 FEW160 22/11 A2984 RMK CU1AC1 SLP105

CYQB;2010-05-26 21:00;CYQB 262100Z 08011G19KT 30SM FEW060 FEW160 FEW240 22/10 A2984 RMK CU1AC1CI0 SLP104

CYQB;2010-05-26 22:00;CYQB 262200Z 07015G20KT 30SM FEW150 SCT240 22/09 A2985 RMK AC1CI2 SLP107

CYQB;2010-05-26 23:00;CYQB 262300Z 07014G20KT 30SM FEW150 SCT240 20/09 A2987 RMK AC1CI2 SLP114

CYQB;2010-05-27 00:00;CYQB 270000Z 07014G19KT 30SM FEW130 SCT240 18/08 A2986 RMK AC2CI0 SLP114

CYQB;2010-05-27 01:00;CYQB 270100Z 08010G17KT 30SM FEW130 SCT240 17/09 A2988 RMK AC2CI0 SLP118

CYQB;2010-05-27 02:00;CYQB 270200Z 08009KT 15SM FEW150 15/09 A2990 RMK AC2 SLP127

CYQB;2010-05-27 03:00;CYQB 270300Z 07012KT 15SM FEW150 14/09 A2992 RMK AC1 SLP130

CYQB;2010-05-27 04:00;CYQB 270400Z 07007KT 15SM SKC 13/08 A2993 RMK SLP135

CYQB;2010-05-27 05:00;CYQB 270500Z 07009KT 15SM SKC 13/09 A2993 RMK SLP134

CYQB;2010-05-27 06:00;CYQB 270600Z 05005KT 15SM SKC 12/08 A2993 RMK SLP136

CYQB;2010-05-27 07:00;CYQB 270700Z 06007KT 15SM SKC 12/08 A2994 RMK SLP139

CYQB;2010-05-27 08:00;CYQB 270800Z 04004KT 15SM SKC 11/08 A2995 RMK SLP144

CYQB;2010-05-27 09:00;CYQB 270900Z 06006KT 15SM FEW250 11/08 A2996 RMK CI1 SLP147

CYQB;2010-05-27 10:00;CYQB 271000Z 04004KT 30SM FEW250 11/08 A2997 RMK CI1 SLP149

CYQB;2010-05-27 11:00;CYQB 271100Z 08005KT 30SM FEW250 13/08 A2998 RMK CI1 SLP153

CYQB;2010-05-27 12:00;CYQB 271200Z 07005KT 30SM FEW250 14/08 A2999 RMK CI1 SLP156

CYQB;2010-05-27 13:00;CYQB 271300Z 08009KT 30SM FEW250 16/05 A2999 RMK CI1 SLP157

CYQB;2010-05-27 14:00;CYQB 271400Z 09012G18KT 30SM FEW250 16/06 A3000 RMK CI1 SLP158

CYQB;2010-05-27 15:00;CYQB 271500Z 08010G16KT 30SM FEW250 16/06 A2998 RMK CI1 SLP154

CYQB;2010-05-27 16:00;CYQB 271600Z 07011G17KT 30SM FEW250 16/06 A2997 RMK CI1 SLP151

CYQB;2010-05-27 17:00;CYQB 271700Z 10012G17KT 30SM FEW250 16/07 A2996 RMK CI1 SLP146

CYQB;2010-05-27 18:00;CYQB 271800Z 07009G15KT 30SM FEW250 18/07 A2994 RMK CI0 SLP141

CYQB;2010-05-27 19:00;CYQB 271900Z 07012G18KT 30SM FEW045 FEW250 18/07 A2994 RMK CU1CI0 SLP138

CYQB;2010-05-27 20:00;CYQB 272000Z 07008KT 30SM FEW050 FEW250 19/06 A2993 RMK CU1CI0 SLP137

CYQB;2010-05-27 21:00;CYQB 272100Z 07011KT 30SM FEW055 FEW250 19/05 A2992 RMK CU1CI0 SLP134

CYQB;2010-05-27 22:00;CYQB 272200Z 09009KT 30SM FEW060 FEW250 19/04 A2992 RMK CU1CI0 SLP133

CYQB;2010-05-27 23:00;CYQB 272300Z 09008KT 30SM FEW250 18/04 A2992 RMK CI0 SLP134

CYQB;2010-05-28 00:00;CYQB 280000Z 06009KT 30SM SCT250 17/03 A2994 RMK CI0 SLP141

CYQB;2010-05-28 01:00;CYQB 280100Z 06005KT 30SM FEW250 16/03 A2996 RMK CI0 SLP146

CYQB;2010-05-28 02:00;CYQB 280200Z 09004KT 15SM FEW250 15/04 A2998 RMK CI1 SLP152

CYQB;2010-05-28 03:00;CYQB 280300Z 00000KT 15SM FEW250 11/05 A2998 RMK CI1 SLP155

CYQB;2010-05-28 04:00;CYQB 280400Z 03004KT 30SM SCT250 12/05 A2998 RMK CI1 SLP154

CYQB;2010-05-28 05:00;CYQB 280500Z 36004KT 15SM FEW250 11/06 A2998 RMK CI1 SLP155

CYQB;2010-05-28 06:00;CYQB 280600Z 02005KT 15SM FEW250 11/06 A2998 RMK CI1 SLP154

CYQB;2010-05-28 07:00;CYQB 280700Z 02005KT 15SM FEW250 10/06 A2999 RMK CI0 SLP156

CYQB;2010-05-28 08:00;CYQB 280800Z 35003KT 15SM FEW250 10/06 A3000 RMK CI1 SLP161

CYQB;2010-05-28 09:00;CYQB 280900Z 03005KT 30SM FEW250 09/06 A3002 RMK CI1 SLP167

CYQB;2010-05-28 10:00;CYQB 281000Z 02004KT 30SM FEW150 BKN250 10/06 A3004 RMK AC1CI2 SLP173

CYQB;2010-05-28 11:00;CYQB 281100Z 05005KT 30SM FEW150 BKN250 12/07 A3006 RMK AC1CI2 SLP179

CYQB;2010-05-28 12:00;CYQB 281200Z 07009KT 30SM FEW035 BKN250 15/06 A3006 RMK SC1CI2 SLP182

CYQB;2010-05-28 13:00;CYQB 281300Z 09009KT 30SM FEW040 BKN250 15/07 A3006 RMK SC1CI2 SLP181

CYQB;2010-05-28 14:00;CYQB 281400Z 11010KT 30SM FEW040 BKN250 16/07 A3006 RMK SC1CI2 SLP179

CYQB;2010-05-28 15:00;CYQB 281500Z 11007KT 30SM FEW040 BKN250 17/07 A3004 RMK CU1CI2 SLP174

CYQB;2010-05-28 16:00;CYQB 281600Z 08006KT 30SM FEW040 BKN250 18/08 A3003 RMK CU1CI2 SLP172

CYQB;2010-05-28 17:00;CYQB 281700Z 09003KT 30SM FEW040 FEW160 BKN250 18/09 A3002 RMK CU1AC2CI1 SLP168

CYQB;2010-05-28 18:00;CYQB 281800Z 07009KT 30SM FEW040 FEW160 BKN250 19/08 A3001 RMK CU1AC1CI2 SLP165

CYQB;2010-05-28 19:00;CYQB 281900Z 08010G15KT 30SM FEW040 FEW160 BKN220 19/08 A3000 RMK CU1AC1CI2 SLP162

CYQB;2010-05-28 20:00;CYQB 282000Z 09010KT 30SM FEW040 FEW180 BKN240 19/08 A3000 RMK CU1AC1CI3 SLP159

CYQB;2010-05-28 21:00;CYQB 282100Z 07007KT 30SM FEW045 FEW180 BKN240 19/08 A2998 RMK SC1AC1CI2 SLP153

CYQB;2010-05-28 22:00;CYQB 282200Z 07012KT 30SM FEW045 FEW160 SCT230 19/07 A2997 RMK SC1AC1CI1 SLP152

CYQB;2010-05-28 23:00;CYQB 282300Z 08008KT 30SM FEW045 FEW180 SCT230 18/06 A2997 RMK SC1AC1CI1 CC ASOCTD SLP149

CYQB;2010-05-29 00:00;CYQB 290000Z 07007KT 30SM FEW045 SCT190 BKN240 17/06 A2997 RMK CU1AC2CI1 SLP151

CYQB;2010-05-29 01:00;CYQB 290100Z 06004KT 15SM BKN180 16/06 A2997 RMK AC6 SLP150

CYQB;2010-05-29 02:00;CYQB 290200Z 01004KT 15SM BKN170 15/07 A2997 RMK AC6 SLP150

CYQB;2010-05-29 03:00;CYQB 290300Z 06003KT 15SM BKN160 15/07 A2995 RMK AC5 SLP144

CYQB;2010-05-29 04:00;CYQB 290400Z 03003KT 15SM BKN150 14/08 A2995 RMK AC6 SLP142

CYQB;2010-05-29 05:00;CYQB 290500Z 36002KT 15SM OVC140 14/08 A2994 RMK AC7 SLP138

CYQB;2010-05-29 06:00;CYQB 290600Z 36003KT 15SM BKN140 14/09 A2992 RMK AC7 SLP132

CYQB;2010-05-29 07:00;CYQB 290700Z 36002KT 15SM BKN120 14/09 A2990 RMK AC7 SLP127

CYQB;2010-05-29 08:00;CYQB 290800Z 02003KT 15SM BKN120 BKN160 13/09 A2989 RMK AC6AC1 SLP123

CYQB;2010-05-29 09:00;CYQB 290900Z 01003KT 30SM BKN110 OVC130 13/09 A2988 RMK AC7AC1 SLP120

CYQB;2010-05-29 10:00;CYQB 291000Z 36003KT 30SM BKN110 13/09 A2988 RMK AC7 SLP120

CYQB;2010-05-29 11:00;CYQB 291100Z 02003KT 35SM BKN110 14/09 A2987 RMK AC7 SLP117

CYQB;2010-05-29 12:00;CYQB 291200Z 00000KT 35SM BKN110 15/10 A2986 RMK AC7 SLP114

CYQB;2010-05-29 13:00;CYQB 291300Z 12002KT 35SM BKN110 16/11 A2985 RMK AC7 SLP108

CYQB;2010-05-29 14:00;CYQB 291400Z 00000KT 35SM BKN100 17/10 A2983 RMK AC7 SLP104

CYQB;2010-05-29 15:00;CYQB 291500Z 21003KT 35SM FEW035 SCT100 BKN250 19/11 A2982 RMK CU1AC3CI0 SLP098

CYQB;2010-05-29 16:00;CYQB 291600Z 21005KT 35SM SCT100 BKN220 21/12 A2980 RMK AC2CI0 SLP092

CYQB;2010-05-29 17:00;CYQB 291700Z 22007KT 35SM SCT100 BKN200 21/13 A2979 RMK AC3CI4 SLP088

CYQB;2010-05-29 18:00;CYQB 291800Z 25012KT 30SM FEW050 SCT100 BKN200 23/13 A2977 RMK CU1AC3CI3 SLP081

CYQB;2010-05-29 19:00;CYQB 291900Z 24008KT 20SM FEW080 BKN200 23/13 A2975 RMK CU2CI3 SLP075

CYQB;2010-05-29 20:00;CYQB 292000Z 28011G16KT 15SM FEW080 BKN220 23/12 A2974 RMK CU2CI5 SLP070

CYQB;2010-05-29 21:00;CYQB 292100Z 28011KT 15SM FEW079 BKN240 23/12 A2973 RMK CU2CI2 SLP068

CYQB;2010-05-29 22:00;CYQB 292200Z 28011G17KT 10SM FEW079 BKN240 22/12 A2973 RMK CU1CI3 SLP068

CYQB;2010-05-29 23:00;CYQB 292300Z 31011KT 15SM BKN160 BKN240 21/11 A2976 RMK AC5CI2 SLP077

CYQB;2010-05-30 00:00;CYQB 300000Z 31008KT 20SM FEW160 BKN240 20/10 A2976 RMK AC2CI0 SLP078

CYQB;2010-05-30 01:00;CYQB 300100Z 26004KT 15SM FEW100 FEW160 BKN240 17/10 A2975 RMK AC2AC1CI0 SLP076

CYQB;2010-05-30 02:00;CYQB 300200Z 27004KT 15SM FEW100 BKN210 16/10 A2977 RMK AC2CI1 SLP080

CYQB;2010-05-30 03:00;CYQB 300300Z 32002KT 15SM BKN190 16/09 A2976 RMK AC5 SLP078

CYQB;2010-05-30 04:00;CYQB 300400Z 35005KT 15SM FEW140 BKN180 16/08 A2978 RMK AC1AC6 SLP084

CYQB;2010-05-30 05:00;CYQB 300500Z 36008KT 15SM OVC130 17/02 A2978 RMK AC8 SLP084

CYQB;2010-05-30 06:00;CYQB 300600Z 04006KT 15SM FEW060 OVC120 16/02 A2978 RMK SC2AC6 SLP085

CYQB;2010-05-30 07:00;CYQB 300700Z 33004KT 15SM OVC100 14/04 A2979 RMK AC8 SLP087

CYQB;2010-05-30 08:00;CYQB 300800Z 31006KT 15SM OVC110 13/05 A2979 RMK AC8 SLP087

CYQB;2010-05-30 09:00;CYQB 300900Z 32005KT 15SM OVC100 12/06 A2980 RMK AC8 SLP091

CYQB;2010-05-30 10:00;CYQB 301000Z 33003KT 30SM FEW080 BKN110 13/05 A2981 RMK AC1AC6 ACC ASOCTD SLP095

CYQB;2010-05-30 11:00;CYQB 301100Z CCA 33003KT 25SM FEW070 BKN130 14/05 A2981 RMK AC2AC3 SLP096

CYQB;2010-05-30 12:00;CYQB 301200Z 26010KT 25SM SCT080 BKN130 16/05 A2980 RMK AC3AC2 SLP090

CYQB;2010-05-30 13:00;CYQB 301300Z 27011G17KT 7SM BKN058 16/05 A2979 RMK SC6 SLP087

CYQB;2010-05-30 14:00;CYQB 301400Z 29015KT 8SM SCT067 18/06 A2978 RMK CU4 SLP085

CYQB;2010-05-30 15:00;CYQB 301500Z 29017G31KT 10SM SCT065 19/04 A2976 RMK CU4 SLP078

CYQB;2010-05-30 16:00;CYQB 301600Z 29014G26KT 15SM FEW075 20/02 A2974 RMK CU2 SLP072

CYQB;2010-05-30 17:00;CYQB 301700Z 30015G24KT 25SM FEW080 21/M01 A2973 RMK CU2 SLP069

CYQB;2010-05-30 18:00;CYQB 301800Z 29017G25KT 20SM FEW090 FEW150 21/M01 A2972 RMK CU1AC1 SLP066

CYQB;2010-05-30 19:00;CYQB 301900Z CCA 29018G25KT 15SM FEW090 BKN240 22/M03 A2972 RMK AC1CI2 SLP064

CYQB;2010-05-30 19:56;CYQB 301956Z 33020G26KT 2SM FU OVC020 19/ RMK FU2FU0

CYQB;2010-05-30 20:00;CYQB 302000Z 32012G26KT 2SM FU OVC020 19/M05 A2974 RMK FU2FU0 SLP071

CYQB;2010-05-30 20:31;CYQB 302031Z 31017G25KT 1SM R06/P6000FT/N FU OVC022 19/ RMK FU3FU0

CYQB;2010-05-30 21:00;CYQB 302100Z 32014G25KT 3/4SM R06/P6000FT/N FU VV016 19/M03 A2976 RMK FU8 SLP080

CYQB;2010-05-30 22:00;CYQB 302200Z 30014KT 3/4SM R06/P6000FT/N FU VV015 18/M04 A2978 RMK FU8 SLP085

CYQB;2010-05-30 23:00;CYQB 302300Z 28007KT 1SM R06/P6000FT/N FU VV015 16/M02 A2979 RMK FU8 SLP090

CYQB;2010-05-30 23:29;CYQB 302329Z 27007KT 1 1/2SM FU OVC240 15/ RMK FU3CI0

CYQB;2010-05-31 00:00;CYQB 310000Z 27008KT 2SM FU BKN084 14/M01 A2982 RMK AC3 SLP099

CYQB;2010-05-31 00:28;CYQB 310028Z 29004KT 3SM FU SCT084 11/ RMK AC2

CYQB;2010-05-31 01:00;CYQB 310100Z 33005KT 6SM FU FEW084 13/M00 A2986 RMK AC2 SLP111

CYQB;2010-05-31 02:00;CYQB 310200Z 34004KT 10SM FEW080 12/00 A2989 RMK AC2 SLP124

CYQB;2010-05-31 03:00;CYQB 310300Z 34006KT 10SM FEW080 11/01 A2992 RMK AC1 SLP131

CYQB;2010-05-31 04:00;CYQB 310400Z 00000KT 15SM FEW080 09/01 A2994 RMK AC1 SLP141

CYQB;2010-05-31 05:00;CYQB 310500Z 33005KT 15SM FEW080 09/01 A2996 RMK AC1 SLP145

CYQB;2010-05-31 06:00;CYQB 310600Z 27004KT 15SM SKC 07/01 A2998 RMK SLP153

CYQB;2010-05-31 07:00;CYQB 310700Z 33008KT 15SM SKC 07/01 A2998 RMK SLP155

CYQB;2010-05-31 08:00;CYQB 310800Z 31010KT 15SM SKC 07/01 A3000 RMK SLP159

CYQB;2010-05-31 09:00;CYQB 310900Z 00000KT 30SM FEW080 05/00 A3002 RMK SC2 SLP168

CYQB;2010-05-31 10:00;CYQB 311000Z 28005KT 30SM FEW080 FEW250 06/02 A3005 RMK AC1CI2 SLP178

CYQB;2010-05-31 11:00;CYQB 311100Z 33003KT 30SM FEW080 SCT250 10/03 A3008 RMK AC1CI1 SLP186

CYQB;2010-05-31 12:00;CYQB 311200Z 32004KT 30SM SCT250 11/01 A3008 RMK CI1 SLP187

CYQB;2010-05-31 13:00;CYQB 311300Z 35003KT 30SM FEW100 FEW250 13/01 A3008 RMK AC1CI0 CONTRAILS SLP188

CYQB;2010-05-31 14:00;CYQB 311400Z 21003KT 30SM FEW100 FEW250 14/01 A3008 RMK AC1CI2 SLP188

CYQB;2010-05-31 15:00;CYQB 311500Z 27003KT 30SM FEW100 SCT250 15/02 A3006 RMK AC1CI2 SLP179

CYQB;2010-05-31 16:00;CYQB 311600Z 25003KT 30SM FEW200 BKN230 17/03 A3004 RMK CI1CI2 SLP174

CYQB;2010-05-31 17:00;CYQB 311700Z 21007KT 30SM FEW170 BKN240 18/04 A3002 RMK AC2CI1 SLP168

CYQB;2010-05-31 18:00;CYQB 311800Z 18008KT 30SM SCT140 BKN200 18/00 A3000 RMK AC4CI2 SLP161

CYQB;2010-05-31 19:00;CYQB 311900Z 26007KT 30SM SCT140 BKN220 17/03 A2998 RMK AC4CI3 SLP154

CYQB;2010-05-31 20:00;CYQB 312000Z 25003KT 30SM BKN110 OVC220 18/04 A2996 RMK AC6CI2 SLP146

CYQB;2010-05-31 21:00;CYQB 312100Z 29003KT 30SM BKN084 OVC140 17/04 A2994 RMK AC6AC2 SLP140

CYQB;2010-05-31 22:00;CYQB 312200Z 00000KT 30SM BKN080 OVC140 17/02 A2992 RMK AC7AC1 SLP133

CYQB;2010-05-31 23:00;CYQB 312300Z 35003KT 30SM BKN067 BKN080 OVC140 17/04 A2991 RMK AC5AC2AC1 SLP129

CYQB;2010-06-01 01:00;CYQB 010100Z 36003KT 15SM SCT060 BKN160 16/06 A2986 RMK SC4AC1 SLP111

CYQB;2010-06-01 02:00;CYQB 010200Z 36004KT 15SM BKN065 OVC140 16/05 A2985 RMK SC7AC1 SLP109

CYQB;2010-06-01 03:00;CYQB 010300Z 35006KT 15SM OVC090 15/07 A2982 RMK AC8 SLP100

CYQB;2010-06-01 03:28;CYQB 010328Z 36010KT 10SM -SHRA BKN062 OVC090 15/ RMK SC6AC2

CYQB;2010-06-01 04:00;CYQB 010400Z 01007KT 15SM OVC062 14/09 A2982 RMK SC8 SLP100

CYQB;2010-06-01 04:19;CYQB 010419Z 36013KT 10SM -SHRA OVC075 14/ RMK AC8

CYQB;2010-06-01 05:00;CYQB 010500Z 01007KT 8SM -SHRA OVC068 12/10 A2982 RMK AC8 SLP100

CYQB;2010-06-01 06:00;CYQB 010600Z 00000KT 8SM -SHRA OVC058 12/10 A2981 RMK SC8 SLP097

CYQB;2010-06-01 07:00;CYQB 010700Z 00000KT 3SM -SHRA BR OVC040 12/11 A2981 RMK SC8 SLP095

CYQB;2010-06-01 07:50;CYQB 010750Z 06003KT 3SM -SHRA BR OVC005 12/ RMK SF8

CYQB;2010-06-01 08:00;CYQB 010800Z 07003KT 2SM -SHRA BR OVC003 12/11 A2978 RMK SF8 SLP085

CYQB;2010-06-01 09:00;CYQB 010900Z 07004KT 3SM BR BKN006 OVC012 12/12 A2976 RMK SF6SC2 SLP080

CYQB;2010-06-01 09:37;CYQB 010937Z 03006KT 3SM -SHRA BR SCT005 OVC011 12/ RMK SF4SC4

CYQB;2010-06-01 10:00;CYQB 011000Z 06005KT 2SM -SHRA BR SCT004 OVC012 12/11 A2978 RMK SF4SC4 SLP085

CYQB;2010-06-01 11:00;CYQB 011100Z 08002KT 2SM -SHRA BR FEW005 OVC013 12/11 A2978 RMK SF2SC6 SLP086

CYQB;2010-06-01 12:00;CYQB 011200Z 04007KT 2SM -SHRA BR BKN004 OVC021 13/12 A2977 RMK SF6SC2 SLP081

CYQB;2010-06-01 13:00;CYQB 011300Z 10004KT 2SM -SHRA BR OVC005 13/12 A2975 RMK SF8 SLP076

CYQB;2010-06-01 14:00;CYQB 011400Z 06004KT 3SM -SHRA BR BKN005 OVC008 13/12 A2975 RMK SF4SC4 SLP074

CYQB;2010-06-01 15:00;CYQB 011500Z 05006KT 3SM -SHRA BR OVC006 13/12 A2974 RMK SF8 SLP073

CYQB;2010-06-01 15:21;CYQB 011521Z 06005KT 4SM -SHRA BR SCT003 BKN005 OVC017 13/ RMK SF4SF3SC1

CYQB;2010-06-01 16:00;CYQB 011600Z 06006KT 4SM -SHRA BR BKN006 OVC017 14/13 A2973 RMK SF7SC1 SLP068

CYQB;2010-06-01 16:18;CYQB 011618Z 10006KT 5SM BR BKN006 OVC027 13/ RMK SF4SC4

CYQB;2010-06-01 17:00;CYQB 011700Z 10012KT 4SM -SHRA BR OVC005 14/13 A2968 RMK SF8 SLP053

CYQB;2010-06-01 17:31;CYQB 011731Z 05004KT 8SM BKN009 BKN012 14/ RMK SF6SC1

CYQB;2010-06-01 18:00;CYQB 011800Z 12008KT 8SM BKN008 BKN026 14/13 A2970 RMK SF6SC1 SLP059

CYQB;2010-06-01 19:00;CYQB 011900Z 04004KT 10SM BKN011 OVC025 15/13 A2971 RMK SF7SC1 SLP063

CYQB;2010-06-01 19:20;CYQB 011920Z 11008KT 15SM FEW011 SCT027 BKN042 BKN240 16/ RMK SF2SC2SC2CI0

CYQB;2010-06-01 19:45;CYQB 011945Z 08008KT 15SM BKN011 OVC025 16/ RMK SC7SC1

CYQB;2010-06-01 20:00;CYQB 012000Z 06007KT 25SM BKN012 OVC025 16/13 A2971 RMK SC7SC1 SLP061

CYQB;2010-06-01 21:00;CYQB 012100Z 09006KT 25SM BKN016 17/13 A2971 RMK SC6 SLP063

CYQB;2010-06-01 22:00;CYQB 012200Z 09008KT 25SM FEW013 OVC016 15/13 A2972 RMK SC2SC5 SLP067

CYQB;2010-06-01 22:29;CYQB 012229Z 10007KT 25SM FEW009 SCT013 OVC020 15/ RMK SF1SC2SC5

CYQB;2010-06-01 22:44;CYQB 012244Z 10007KT 15SM SCT009 BKN012 OVC020 15/ RMK SF3SC4SC1

CYQB;2010-06-01 23:00;CYQB 012300Z 10008KT 15SM SCT009 BKN012 OVC019 14/12 A2975 RMK SF4SC2SC2 SLP077

CYQB;2010-06-02 00:00;CYQB 020000Z 07008KT 15SM SCT010 OVC020 14/12 A2975 RMK SC4SC4 SLP077

CYQB;2010-06-02 01:00;CYQB 020100Z 06006KT 15SM FEW010 OVC022 14/11 A2977 RMK SC1SC7 SLP083

CYQB;2010-06-02 02:00;CYQB 020200Z 07004KT 15SM FEW010 OVC024 14/10 A2978 RMK SC1SC7 SLP087

CYQB;2010-06-02 03:00;CYQB 020300Z 00000KT 15SM BKN024 14/11 A2979 RMK SC7 SLP088

CYQB;2010-06-02 04:00;CYQB 020400Z 07005KT 15SM BKN024 OVC031 14/11 A2977 RMK SC7SC1 SLP083

CYQB;2010-06-02 05:00;CYQB 020500Z 07003KT 15SM BKN022 OVC031 13/11 A2978 RMK SC7SC1 SLP084

CYQB;2010-06-02 06:00;CYQB 020600Z 09006KT 15SM OVC016 13/11 A2977 RMK ST8 SLP081

CYQB;2010-06-02 07:00;CYQB 020700Z 06005KT 15SM OVC015 13/11 A2976 RMK SC8 SLP080

CYQB;2010-06-02 08:00;CYQB 020800Z 05005KT 15SM OVC008 13/11 A2978 RMK ST8 SLP085

CYQB;2010-06-02 09:00;CYQB 020900Z 07004KT 10SM OVC008 13/11 A2977 RMK ST8 SLP083

CYQB;2010-06-02 10:00;CYQB 021000Z 08004KT 8SM OVC007 13/11 A2978 RMK ST8 SLP087

CYQB;2010-06-02 11:00;CYQB 021100Z 08004KT 8SM OVC007 14/12 A2978 RMK ST8 SLP087

CYQB;2010-06-02 12:00;CYQB 021200Z 06002KT 8SM OVC008 14/12 A2979 RMK ST8 SLP088

CYQB;2010-06-02 13:00;CYQB 021300Z 00000KT 8SM BKN010 OVC014 16/13 A2978 RMK ST7SC1 SLP085

CYQB;2010-06-02 14:00;CYQB 021400Z 27002KT 10SM BKN014 17/14 A2977 RMK SC7 SLP081

CYQB;2010-06-02 15:00;CYQB 021500Z 26005KT 10SM BKN020 BKN140 19/15 A2975 RMK SC5AC1 SLP075

CYQB;2010-06-02 16:00;CYQB 021600Z 27008KT 10SM BKN026 BKN085 BKN190 21/17 A2974 RMK SC5AC1CI0 SLP071

CYQB;2010-06-02 16:19;CYQB 021619Z 29008KT 8SM -SHRA FEW025 BKN034 OVC066 20/ RMK SC2SC5SC1 VIS NW-NE 3

CYQB;2010-06-02 17:00;CYQB 021700Z 32006KT 8SM -SHRA FEW025 BKN032 OVC075 20/17 A2972 RMK SC2SC4AC2 SLP066

CYQB;2010-06-02 17:23;CYQB 021723Z 33002KT 10SM VCSH FEW040TCU SCT075 BKN140 20/ RMK TCU2AC2AC3

CYQB;2010-06-02 18:00;CYQB 021800Z 26006KT 10SM -SHRA FEW040TCU BKN094 OVC140 21/17 A2970 RMK TCU2AC3AC2 SLP058

CYQB;2010-06-02 18:48;CYQB 021848Z 31005KT 6SM -TSRA BR SCT040CB OVC090 20/ RMK CB4AC4

CYQB;2010-06-02 19:00;CYQB 021900Z 34007KT 2SM -TSRA BR FEW005 BKN030CB OVC085 19/17 A2971 RMK SF1CB4AC3 SLP060

CYQB;2010-06-02 19:38;CYQB 021938Z 25012G17KT 5SM -TSRA BR FEW005 BKN025CB OVC080 19/ RMK SF1CB4AC3

CYQB;2010-06-02 20:00;CYQB 022000Z CCA 25004KT 5SM -SHRA BR FEW015 BKN025TCU OVC080 19/17 A2971 RMK SC1TCU5AC2 CB EMBD SLP062

CYQB;2010-06-02 20:45;CYQB 022045Z 08003KT 1/2SM R06/2800VP6000FT/D TSRA FG VV005 18/ RMK FG8 CB EMBD

CYQB;2010-06-02 20:50;CYQB 022050Z 00000KT 5SM R06/3000VP6000FT/U -TSRA BR FEW006 FEW015 BKN039 OVC090 18/ RMK SF1SC2SC5AC1 CB EMBD RERA

CYQB;2010-06-02 21:00;CYQB 022100Z 26002KT 6SM -SHRA BR FEW001 FEW015 BKN045 OVC090 18/16 A2971 RMK SF1SC2SC5AC1 CB EMBD RETS RERA SLP060

CYQB;2010-06-02 22:00;CYQB 022200Z 21008KT 10SM FEW005 FEW018 BKN040 OVC070 18/17 A2972 RMK SF1SC2SC4AC2 TCU EMBD RERA SHWRS W AND E QUAD ONCL -SHRA SLP063

CYQB;2010-06-02 23:00;CYQB 022300Z 27005KT 10SM FEW018 SCT040 OVC075 18/17 A2971 RMK SC2SC2AC4 SLP061

CYQB;2010-06-03 00:00;CYQB 030000Z 22005KT 8SM FEW020 SCT060 OVC090 17/16 A2972 RMK CF2SC2AC4 SLP063

CYQB;2010-06-03 00:37;CYQB 030037Z 24006KT 8SM FEW001 FEW015 SCT070 OVC090 17/ RMK SF1CF2AC2AC4

CYQB;2010-06-03 01:00;CYQB 030100Z 23006KT 8SM FEW001 FEW015 SCT063 OVC085 17/16 A2972 RMK SF1CF2SC2AC4 SLP064

CYQB;2010-06-03 02:00;CYQB 030200Z 28003KT 8SM BKN063 OVC090 17/16 A2972 RMK SC6AC2 SLP064

CYQB;2010-06-03 03:00;CYQB 030300Z 36005KT 15SM OVC092 18/14 A2970 RMK AC8 SLP058

CYQB;2010-06-03 04:00;CYQB 030400Z 16008KT 15SM OVC096 16/15 A2971 RMK AC8 SLP062

CYQB;2010-06-03 05:00;CYQB 030500Z 00000KT 15SM BKN042 OVC100 16/15 A2973 RMK SC6AC2 SLP068

CYQB;2010-06-03 06:00;CYQB 030600Z 34005KT 15SM BKN043 OVC150 16/14 A2973 RMK SC6AC2 SLP069

CYQB;2010-06-03 07:00;CYQB 030700Z 00000KT 10SM OVC045 15/14 A2972 RMK SC8 SLP066

CYQB;2010-06-03 08:00;CYQB 030800Z 04004KT 10SM BKN070 OVC085 16/14 A2972 RMK AC6AC2 SLP063

CYQB;2010-06-03 08:33;CYQB 030833Z 09002KT 10SM OVC040 15/ RMK SC8

CYQB;2010-06-03 09:00;CYQB 030900Z 36002KT 10SM -RA OVC031 16/14 A2972 RMK SC8 SLP066

CYQB;2010-06-03 10:00;CYQB 031000Z 08009G16KT 4SM -RA BR SCT008 OVC023 14/13 A2973 RMK SF4SC4 SLP067

CYQB;2010-06-03 11:00;CYQB 031100Z 06014KT 4SM -RA BR BKN010 OVC023 14/12 A2974 RMK SF5SC3 SLP070

CYQB;2010-06-03 12:00;CYQB 031200Z 08011KT 6SM -RA BR BKN009 OVC020 13/12 A2973 RMK SF6SC2 SLP069

CYQB;2010-06-03 13:00;CYQB 031300Z 07016KT 6SM -RA BR BKN008 OVC026 13/12 A2972 RMK SF6SC2 SLP064

CYQB;2010-06-03 13:07;CYQB 031307Z 08010G20KT 6SM BR BKN008 OVC026 13/ RMK SF6SC2

CYQB;2010-06-03 14:00;CYQB 031400Z 06013KT 8SM SCT008 OVC028 13/10 A2973 RMK SF3SC5 SLP068

CYQB;2010-06-03 15:00;CYQB 031500Z 06017G22KT 12SM FEW012 BKN026 OVC060 13/09 A2973 RMK SF2SC6SC1 SLP069

CYQB;2010-06-03 16:00;CYQB 031600Z 08012G17KT 12SM FEW015 BKN026 OVC060 14/09 A2975 RMK SF1SC6SC1 SLP075

CYQB;2010-06-03 17:00;CYQB 031700Z 07008G16KT 15SM BKN027 OVC050 14/10 A2975 RMK SC6SC2 SLP074

CYQB;2010-06-03 18:00;CYQB 031800Z CCA 06011G16KT 20SM BKN029 OVC050 14/10 A2974 RMK SC6SC2 VIS LWR N SLP071

CYQB;2010-06-03 19:00;CYQB 031900Z 06010G15KT 20SM FEW015 OVC030 15/10 A2974 RMK CF1SC8 SLP073

CYQB;2010-06-03 20:00;CYQB 032000Z 07009KT 20SM FEW015 OVC034 15/09 A2974 RMK CF1SC7 SLP073

CYQB;2010-06-03 21:00;CYQB 032100Z 06006KT 30SM FEW020 BKN038 OVC050 15/10 A2975 RMK CF1SC4SC3 SLP075

CYQB;2010-06-03 22:00;CYQB 032200Z 06006KT 30SM FEW020 SCT034 BKN053 15/09 A2975 RMK CF1SC3SC3 SLP076

CYQB;2010-06-03 23:00;CYQB 032300Z 07008KT 30SM FEW020 FEW035 SCT060 BKN130 15/10 A2974 RMK CF1SC2SC2AC3 SLP073

CYQB;2010-06-04 00:00;CYQB 040000Z 06006KT 30SM FEW035 SCT070 BKN130 15/09 A2974 RMK CF1AC2AC4 SLP072

CYQB;2010-06-04 01:00;CYQB 040100Z 07006KT 15SM FEW035 BKN075 BKN130 14/09 A2975 RMK SC1AC5AC2 SLP074

CYQB;2010-06-04 02:00;CYQB 040200Z 06003KT 15SM -SHRA FEW030 OVC089 14/10 A2975 RMK SC1AC7 SLP076

CYQB;2010-06-04 02:50;CYQB 040250Z 00000KT 15SM FEW030 BKN071 OVC084 14/ RMK SC1AC5AC3

CYQB;2010-06-04 03:00;CYQB 040300Z 35003KT 15SM FEW030 SCT070 OVC084 14/10 A2975 RMK SC1AC3AC5 SLP075

CYQB;2010-06-04 03:45;CYQB 040345Z 34003KT 15SM -SHRA FEW030 SCT060 OVC088 14/ RMK SC1SC4AC4

CYQB;2010-06-04 04:00;CYQB 040400Z 01002KT 15SM -SHRA FEW030 FEW060 OVC081 14/11 A2975 RMK SC1SC2AC6 SLP074

CYQB;2010-06-04 05:00;CYQB 040500Z 00000KT 15SM -SHRA FEW030 SCT060 OVC086 13/12 A2974 RMK SC1SC4AC4 SLP073

CYQB;2010-06-04 06:00;CYQB 040600Z 00000KT 15SM -SHRA FEW058 OVC087 13/12 A2975 RMK SC2AC6 SLP075

CYQB;2010-06-04 07:00;CYQB 040700Z 00000KT 15SM SCT100 13/11 A2975 RMK AC4 SLP075

CYQB;2010-06-04 08:00;CYQB 040800Z 00000KT 15SM BKN086 12/11 A2975 RMK AC6 SLP077

CYQB;2010-06-04 09:00;CYQB 040900Z 00000KT 20SM BKN080 12/11 A2976 RMK AC6 SLP079

CYQB;2010-06-04 10:00;CYQB 041000Z 00000KT 25SM SCT080 12/11 A2977 RMK AC2 SLP082

CYQB;2010-06-04 11:00;CYQB 041100Z 27004KT 25SM FEW030 FEW080 14/13 A2979 RMK CF1AC2 SLP088

CYQB;2010-06-04 12:00;CYQB 041200Z 24009KT 25SM FEW030 FEW080 16/12 A2979 RMK CF2AC1 SLP089

CYQB;2010-06-04 13:00;CYQB 041300Z 26010KT 20SM BKN025 BKN080 16/12 A2980 RMK SC5AC1 SLP093

CYQB;2010-06-04 14:00;CYQB 041400Z 24008KT 20SM BKN018 18/13 A2980 RMK SC5 SLP093

CYQB;2010-06-04 15:00;CYQB 041500Z 20009KT 25SM FEW018 FEW200 18/14 A2979 RMK SC2CI1 SLP089

CYQB;2010-06-04 16:00;CYQB 041600Z 22011KT 25SM FEW018 FEW200 20/14 A2979 RMK CU2CI1 SLP088

CYQB;2010-06-04 17:00;CYQB 041700Z 21011G16KT 25SM FEW020 FEW200 21/14 A2978 RMK CU2CI1 SLP085

CYQB;2010-06-04 18:00;CYQB 041800Z 23015KT 25SM FEW050 21/12 A2977 RMK CU2 SLP081

CYQB;2010-06-04 19:00;CYQB 041900Z 22016G22KT 30SM FEW060 23/11 A2977 RMK CU2 SLP080

CYQB;2010-06-04 20:00;CYQB 042000Z 23013G19KT 30SM SCT060 22/11 A2976 RMK CU3 SLP079

CYQB;2010-06-04 21:00;CYQB 042100Z 24017KT 30SM FEW060 BKN220 24/11 A2976 RMK CU2CI0 SLP077

CYQB;2010-06-04 22:00;CYQB 042200Z 24013KT 30SM FEW060 BKN220 23/11 A2975 RMK CU2CI0 SLP075

CYQB;2010-06-04 23:00;CYQB 042300Z 24008KT 30SM FEW050 FEW100 BKN220 22/11 A2975 RMK CU1AC2CI0 SLP075

CYQB;2010-06-05 00:00;CYQB 050000Z 26006KT 30SM FEW050 FEW100 BKN220 20/12 A2976 RMK CF1AC2CI2 SLP077

CYQB;2010-06-05 01:00;CYQB 050100Z 24004KT 15SM FEW050 FEW100 BKN220 18/12 A2977 RMK CF1AC2CI2 SLP080

CYQB;2010-06-05 02:00;CYQB 050200Z 24004KT 15SM FEW050 BKN170 OVC220 18/13 A2978 RMK CF1AC5CI2 SLP083

CYQB;2010-06-05 03:00;CYQB 050300Z 27002KT 15SM FEW050 OVC170 17/13 A2977 RMK SC1AC8 SLP082

CYQB;2010-06-05 04:00;CYQB 050400Z 28003KT 15SM OVC150 17/13 A2976 RMK AC8 SLP079

CYQB;2010-06-05 05:00;CYQB 050500Z 00000KT 15SM OVC140 17/12 A2974 RMK AC8 SLP072

CYQB;2010-06-05 06:00;CYQB 050600Z 00000KT 15SM OVC140 17/13 A2973 RMK AC8 SLP067

CYQB;2010-06-05 07:00;CYQB 050700Z 00000KT 15SM OVC130 16/12 A2972 RMK AC8 SLP066

CYQB;2010-06-05 08:00;CYQB 050800Z 36003KT 15SM OVC120 16/13 A2972 RMK AC8 SLP063

CYQB;2010-06-05 09:00;CYQB 050900Z 07004KT 15SM FEW035 SCT100 OVC140 16/13 A2971 RMK CF1AC3AC5 SLP062

CYQB;2010-06-05 10:00;CYQB 051000Z 09007KT 25SM FEW035 SCT100 OVC130 16/13 A2971 RMK CF1AC3AC5 SLP060

CYQB;2010-06-05 11:00;CYQB 051100Z 07011KT 25SM FEW035 BKN090 OVC130 17/11 A2970 RMK CF1AC6AC2 SLP058

CYQB;2010-06-05 12:00;CYQB 051200Z 09011G16KT 25SM BKN087 OVC130 16/08 A2968 RMK AC6AC2 SLP052

CYQB;2010-06-05 13:00;CYQB 051300Z 09012G19KT 25SM BKN058 OVC100 15/05 A2967 RMK SC6AC2 SLP049

CYQB;2010-06-05 14:00;CYQB 051400Z 08010G19KT 25SM BKN065 OVC090 15/05 A2967 RMK SC6AC2 SLP046

CYQB;2010-06-05 15:00;CYQB 051500Z 09013G20KT 25SM SCT055 BKN085 OVC180 15/05 A2965 RMK SC4AC2AS2 SLP042

CYQB;2010-06-05 16:00;CYQB 051600Z 07010G18KT 25SM BKN046 OVC090 15/06 A2965 RMK SC6AC2 SLP040

CYQB;2010-06-05 17:00;CYQB 051700Z 08011G16KT 25SM SCT040 OVC046 14/05 A2964 RMK SC3SC5 SLP039

CYQB;2010-06-05 17:11;CYQB 051711Z 06010G16KT 15SM -SHRA BKN032 OVC046 13/ RMK SC5SC3

CYQB;2010-06-05 18:00;CYQB 051800Z 07013G18KT 10SM -SHRA OVC030 12/08 A2963 RMK SC8 SLP034

CYQB;2010-06-05 18:28;CYQB 051828Z 07012G18KT 15SM OVC030 12/ RMK SC8

CYQB;2010-06-05 19:00;CYQB 051900Z 07011KT 25SM FEW015 OVC029 12/07 A2962 RMK SC1SC8 SLP032

CYQB;2010-06-05 20:00;CYQB 052000Z 07017KT 25SM FEW012 OVC030 12/06 A2961 RMK SC1SC8 SLP029

CYQB;2010-06-05 21:00;CYQB 052100Z 06016G24KT 25SM FEW012 OVC030 12/06 A2961 RMK SC1SC8 SLP028

CYQB;2010-06-05 22:00;CYQB 052200Z 07010G17KT 15SM -SHRA OVC025 12/06 A2960 RMK SC8 SLP023

CYQB;2010-06-05 23:00;CYQB 052300Z 08013G21KT 8SM -SHRA FEW015 OVC033 10/08 A2960 RMK SC1SC7 SLP023

CYQB;2010-06-06 00:00;CYQB 060000Z 07012KT 15SM -SHRA FEW012 OVC032 11/09 A2959 RMK SC2SC6 VIS LWR NE SLP022

CYQB;2010-06-06 00:41;CYQB 060041Z 05007KT 2 1/2SM SHRA BR SCT011 OVC024 10/ RMK SF3SC5

CYQB;2010-06-06 01:00;CYQB 060100Z 05007KT 6SM -SHRA BR SCT011 OVC025 10/09 A2961 RERA RMK SF4SC4 SLP028

CYQB;2010-06-06 02:00;CYQB 060200Z 07007KT 5SM -SHRA BR FEW005 SCT011 OVC025 10/09 A2962 RMK SF1SF2SC5 SLP031

CYQB;2010-06-06 02:38;CYQB 060238Z 08004KT 6SM -SHRA BR BKN006 OVC025 10/ RMK SF6SC2

CYQB;2010-06-06 03:00;CYQB 060300Z 05005KT 5SM -SHRA BR BKN005 BKN014 OVC025 10/10 A2961 RMK SF5SF2SC2 SLP030

CYQB;2010-06-06 04:00;CYQB 060400Z 00000KT 5SM -DZ BR OVC006 10/10 A2962 RMK ST8 SLP031

CYQB;2010-06-06 05:00;CYQB 060500Z 00000KT 2SM -SHRA BR SCT003 OVC007 11/10 A2962 RMK FG2SF2ST5 SLP031

CYQB;2010-06-06 06:00;CYQB 060600Z 15003KT 3SM -DZ BR FEW003 OVC008 10/09 A2962 RMK SF2ST6 VIS VRB 2-4 SLP033

CYQB;2010-06-06 06:36;CYQB 060636Z 19002KT 1SM R06/P6000FT/N -DZ BR FEW003 OVC007 10/ RMK FG1SF2ST6

CYQB;2010-06-06 07:00;CYQB 060700Z 21002KT 1 1/2SM -DZ BR FEW003 BKN009 OVC017 10/09 A2963 RMK SF2ST6SC1 VIS VRB 1-2 SLP035

CYQB;2010-06-06 08:00;CYQB 060800Z CCA 00000KT 1 1/2SM -DZ BR SCT004 OVC010 10/10 A2964 RMK SF4ST4 VIS VRB 1-2 SLP040

CYQB;2010-06-06 09:00;CYQB 060900Z 19002KT 1 1/2SM -DZ BR FEW003 OVC008 10/10 A2964 RMK SF2ST6 VIS VRB 1-2 SLP038

CYQB;2010-06-06 09:26;CYQB 060926Z 12003KT 1SM R06/P6000FT/D -DZ BR BKN003 OVC008 10/ RMK SF5ST3 VIS VRB 3/4-11/4

CYQB;2010-06-06 10:00;CYQB 061000Z 14004KT 1SM R06/P6000FT/U -DZ BR BKN003 OVC006 10/10 A2964 RMK FG2ST6ST1 SLP037

CYQB;2010-06-06 10:25;CYQB 061025Z 15003KT 1 1/2SM -DZ BR SCT002 OVC005 10/ RMK FG2SF2ST5

CYQB;2010-06-06 10:48;CYQB 061048Z 00000KT 2 1/2SM BR FEW002 SCT005 OVC035 11/ RMK SF1SF2SC5

CYQB;2010-06-06 11:00;CYQB 061100Z 00000KT 2 1/2SM BR FEW002 BKN011 OVC038 11/10 A2965 RMK SF2ST3SC3 SLP043

CYQB;2010-06-06 11:43;CYQB 061143Z 00000KT 6SM BR OVC005 11/ RMK ST8

CYQB;2010-06-06 11:48;CYQB 061148Z CCA 00000KT 6SM BR OVC005 11/ RMK ST8

CYQB;2010-06-06 12:00;CYQB 061200Z 35002KT 6SM BR OVC005 11/10 A2964 RMK SF8 SLP039

CYQB;2010-06-06 13:00;CYQB 061300Z 00000KT 8SM SCT005 OVC040 12/10 A2962 RMK SF3SC5 SLP032

CYQB;2010-06-06 14:00;CYQB 061400Z 08004KT 15SM SCT008 OVC040 12/10 A2960 RMK SF4SC4 SLP024

CYQB;2010-06-06 14:29;CYQB 061429Z 06007KT 15SM FEW006 BKN020 OVC040 13/ RMK SF1SC4SC3

CYQB;2010-06-06 15:00;CYQB 061500Z 04008KT 15SM FEW010 BKN020 OVC045 13/10 A2959 RMK SF1SC5SC2 SLP020

CYQB;2010-06-06 16:00;CYQB 061600Z 08005KT 15SM FEW020 BKN052 OVC070 13/10 A2956 RMK CF1SC5AC2 SLP013

CYQB;2010-06-06 16:34;CYQB 061634Z 08010KT 10SM -RA SCT050 OVC070 13/ RMK SC4AC4

CYQB;2010-06-06 17:00;CYQB 061700Z 06011KT 10SM -RA FEW020 SCT070 OVC080 12/09 A2956 RMK SC1AC3AC4 SLP011

CYQB;2010-06-06 18:00;CYQB 061800Z 06011KT 8SM -RA FEW020 SCT058 OVC070 12/09 A2953 RMK SF1SC4AC4 SLP003

CYQB;2010-06-06 19:00;CYQB 061900Z 06008KT 10SM -RA FEW020 FEW050 OVC066 12/09 A2951 RMK SF1SC2AC6 SLP996

CYQB;2010-06-06 20:00;CYQB 062000Z 07006KT 8SM -RA FEW009 FEW020 OVC064 12/09 A2951 RMK SF1SC1SC7 SLP994

CYQB;2010-06-06 21:00;CYQB 062100Z 06006KT 3SM -RA BR SCT009 SCT026 OVC050 11/09 A2951 RMK SF3SC1SC4 SLP995

CYQB;2010-06-06 22:00;CYQB 062200Z 05005KT 5SM -RA BR BKN011 OVC050 11/10 A2952 RMK SF5SC3 SLP998

CYQB;2010-06-06 22:24;CYQB 062224Z 06004KT 6SM -RA BR SCT011 OVC054 11/ RMK SF4SC4

CYQB;2010-06-06 23:00;CYQB 062300Z 07003KT 5SM -RA BR SCT011 BKN021 OVC056 11/10 A2954 RMK SF3SC2SC2 SLP005

CYQB;2010-06-07 00:00;CYQB 070000Z 29003KT 6SM -RA BR FEW003 FEW020 OVC056 11/10 A2955 RMK SF1SC2SC6 SLP009

CYQB;2010-06-07 01:00;CYQB 070100Z 00000KT 8SM -RA FEW026 OVC057 11/10 A2957 RMK SC2SC6 SLP014

CYQB;2010-06-07 02:00;CYQB 070200Z 32005KT 8SM -RA OVC061 11/10 A2958 RMK SC8 SLP017

CYQB;2010-06-07 03:00;CYQB 070300Z 30004KT 10SM -RA OVC071 11/09 A2958 RMK AC8 SLP017

CYQB;2010-06-07 04:00;CYQB 070400Z 26004KT 15SM OVC090 10/09 A2958 RMK AC8 SLP018

CYQB;2010-06-07 05:00;CYQB 070500Z 26006KT 15SM OVC091 11/09 A2958 RMK AC8 SLP018

CYQB;2010-06-07 06:00;CYQB 070600Z 28005KT 15SM FEW010 OVC099 10/09 A2957 RMK CF1AC8 SLP014

CYQB;2010-06-07 07:00;CYQB 070700Z 27006KT 15SM FEW010 OVC110 10/09 A2956 RMK CF1AC8 SLP013

CYQB;2010-06-07 08:00;CYQB 070800Z 00000KT 15SM FEW010 BKN120 10/09 A2957 RMK CF1AC6 SLP015

CYQB;2010-06-07 09:00;CYQB 070900Z 29007KT 20SM SCT120 10/08 A2958 RMK AC2 DIST FG E SLP018

CYQB;2010-06-07 10:00;CYQB 071000Z 32010KT 25SM FEW120 11/07 A2959 RMK AC2 SLP023

CYQB;2010-06-07 11:00;CYQB 071100Z 34006KT 25SM FEW100 12/08 A2961 RMK AC2 SLP028

CYQB;2010-06-07 12:00;CYQB 071200Z 30008KT 25SM FEW100 14/08 A2962 RMK AC1 SLP032

CYQB;2010-06-07 13:00;CYQB 071300Z 25006KT 25SM FEW050 FEW100 15/09 A2964 RMK CU1AC1 SLP037

CYQB;2010-06-07 14:00;CYQB 071400Z 29005KT 25SM FEW050 FEW100 16/09 A2964 RMK CU2AC1 SLP038

CYQB;2010-06-07 15:00;CYQB 071500Z CCA 30016KT 25SM SCT050 17/09 A2964 RMK CU4 SLP038

CYQB;2010-06-07 16:00;CYQB 071600Z 32010G17KT 25SM BKN050 17/07 A2964 RMK CU6 SLP039

CYQB;2010-06-07 16:46;CYQB 071646Z 01010G18KT 15SM -SHRA BKN050 BKN080 16/ RMK CU6AC1 TCU EMBD VIS LWR E

CYQB;2010-06-07 17:00;CYQB 071700Z 31012KT 15SM -SHRA BKN050 BKN080 17/09 A2964 RMK CU6AC1 TCU EMBD VIS LWR NE-E HAIL ASSOC SLP038

CYQB;2010-06-07 18:00;CYQB 071800Z 32012G18KT 20SM VCSH BKN055 BKN095 17/06 A2964 RMK CU5AC1 SLP040

CYQB;2010-06-07 19:00;CYQB 071900Z 30014G20KT 20SM BKN055 BKN095 19/07 A2966 RMK CU5AC1 TCU ASOCTD SLP045

CYQB;2010-06-07 20:00;CYQB 072000Z 33009G16KT 25SM FEW048TCU SCT240 18/06 A2967 RMK TCU2CI1 SLP048

CYQB;2010-06-07 21:00;CYQB 072100Z 28010G15KT 25SM SCT060TCU SCT120 BKN240 18/05 A2969 RMK TCU3AC1CI0 SLP055

CYQB;2010-06-07 22:00;CYQB 072200Z 33014G25KT 25SM BKN060TCU 16/05 A2971 RMK TCU6 SLP062

CYQB;2010-06-07 23:00;CYQB 072300Z 31010G15KT 25SM FEW050TCU SCT240 16/06 A2972 RMK TCU2CI0 SLP067

CYQB;2010-06-08 00:00;CYQB 080000Z CCA 33015G26KT 25SM VCSH BKN050 BKN240 14/06 A2976 RMK SC5CI1 TCU ASOCTD SLP078

CYQB;2010-06-08 00:09;CYQB 080009Z 33009G21KT 25SM -SHRA BKN050 BKN240 13/ RMK SC5CI1 TCU ASOCTD

CYQB;2010-06-08 01:00;CYQB 080100Z 30006KT 25SM BKN050 BKN090 12/08 A2977 RMK SC5AC2 SLP081

CYQB;2010-06-08 02:00;CYQB 080200Z 26005KT 20SM FEW050 BKN110 11/08 A2978 RMK SC1AC6 SLP085

CYQB;2010-06-08 03:00;CYQB 080300Z 27007KT 20SM FEW050 BKN150 11/07 A2980 RMK SC1AC6 SLP092

CYQB;2010-06-08 04:00;CYQB 080400Z 25008KT 20SM FEW050 BKN140 10/08 A2981 RMK SC1AC5 SLP096

CYQB;2010-06-08 05:00;CYQB 080500Z 27005KT 20SM FEW030 BKN120 10/07 A2982 RMK SC2AC6 SLP099

CYQB;2010-06-08 06:00;CYQB 080600Z 26004KT 20SM OVC100 10/07 A2983 RMK AC8 SLP103

CYQB;2010-06-08 07:00;CYQB 080700Z 31004KT 20SM OVC090 10/06 A2985 RMK AC8 SLP108

CYQB;2010-06-08 08:00;CYQB 080800Z 30005KT 15SM OVC100 09/06 A2986 RMK AC8 SLP111

CYQB;2010-06-08 09:00;CYQB 080900Z 25006KT 15SM BKN082 08/06 A2987 RMK AC7 SLP116

CYQB;2010-06-08 10:00;CYQB 081000Z 25007KT 30SM FEW070 BKN100 09/07 A2989 RMK AC1AC6 SLP121

CYQB;2010-06-08 11:00;CYQB 081100Z 26006KT 30SM FEW030 SCT110 BKN240 10/08 A2990 RMK SC1AC3CI0 SLP126

CYQB;2010-06-08 12:00;CYQB 081200Z 25006KT 30SM SCT050 BKN090 BKN240 11/08 A2992 RMK SC3AC2CI0 SLP132

CYQB;2010-06-08 13:00;CYQB 081300Z 25010KT 30SM BKN040 BKN100 13/08 A2993 RMK SC6AC1 SLP138

CYQB;2010-06-08 14:00;CYQB 081400Z 35009KT 30SM SCT050 BKN090 BKN240 15/07 A2993 RMK SC3AC2CI0 SLP138

CYQB;2010-06-08 15:00;CYQB 081500Z 34020KT 15SM -SHRA BKN050 BKN090 BKN240 16/05 A2994 RMK SC5AC2CI0 SLP139

CYQB;2010-06-08 15:29;CYQB 081529Z 33009G21KT 20SM VCSH SCT030 BKN060 BKN090 BKN240 15/ RMK CU3CU2AC1CI1 CB ASOCTD E

CYQB;2010-06-08 16:00;CYQB 081600Z 33007KT 20SM VCSH SCT055 BKN090 BKN240 16/05 A2994 RMK CU3AC2CI0 SLP141

CYQB;2010-06-08 17:00;CYQB 081700Z 34009KT 30SM VCSH SCT050 BKN090 BKN240 17/05 A2996 RMK CU3AC2CI0 SLP148

CYQB;2010-06-08 18:00;CYQB 081800Z 01006KT 30SM SCT050 BKN100 BKN240 16/04 A2996 RMK CU3AC2CI0 SLP147

CYQB;2010-06-08 19:00;CYQB 081900Z 32007KT 30SM SCT050 BKN100 BKN210 17/05 A2996 RMK CU4AC1CI0 VIRGA SLP147

CYQB;2010-06-08 20:00;CYQB 082000Z 06003KT 30SM SCT060 SCT100 BKN210 17/04 A2996 RMK CU3AC1CI0 SLP147

CYQB;2010-06-08 20:37;CYQB 082037Z 33014G25KT 30SM -SHRA BKN060 BKN100 17/ RMK SC5AC1

CYQB;2010-06-08 21:00;CYQB 082100Z 32012G17KT 30SM SCT070 SCT100 17/05 A2997 RMK AC3AC1 TCU ASOCTD SHRA E SLP151

CYQB;2010-06-08 22:00;CYQB 082200Z 30008KT 30SM FEW070 SCT120 17/06 A2999 RMK AC2AC2 SLP157

CYQB;2010-06-08 23:00;CYQB 082300Z 31011G16KT 30SM FEW060 SCT110 17/06 A3001 RMK SC2AC2 TCU ASOCTD DIST SHRA MOVG S SLP163

CYQB;2010-06-09 00:00;CYQB 090000Z 27005KT 30SM SCT110 15/07 A3001 RMK AC3 SLP163

CYQB;2010-06-09 01:00;CYQB 090100Z 27002KT 30SM FEW120 13/06 A3002 RMK AC2 SLP167

CYQB;2010-06-09 02:00;CYQB 090200Z 00000KT 15SM FEW120 09/06 A3004 RMK AC2 SLP173

CYQB;2010-06-09 03:00;CYQB 090300Z 00000KT 15SM FEW120 11/06 A3005 RMK AC1 SLP176

CYQB;2010-06-09 04:00;CYQB 090400Z 12003KT 15SM BKN110 09/06 A3004 RMK AC6 SLP175

CYQB;2010-06-09 05:00;CYQB 090500Z 00000KT 15SM BKN100 10/07 A3004 RMK AC6 SLP175

CYQB;2010-06-09 06:00;CYQB 090600Z 04003KT 15SM BKN110 11/07 A3004 RMK AC7 SLP175

CYQB;2010-06-09 07:00;CYQB 090700Z 00000KT 15SM FEW110 08/07 A3004 RMK AC2 SLP175

CYQB;2010-06-09 08:00;CYQB 090800Z 01004KT 15SM BKN110 10/06 A3005 RMK AC6 SLP177

CYQB;2010-06-09 09:00;CYQB 090900Z 35004KT 15SM FEW110 10/06 A3006 RMK AC2 SLP179

CYQB;2010-06-09 10:00;CYQB 091000Z 15003KT 30SM FEW100 09/07 A3007 RMK AC1 SLP184

CYQB;2010-06-09 11:00;CYQB 091100Z 01004KT 30SM FEW100 FEW240 12/06 A3007 RMK AC1CI1 SLP184

CYQB;2010-06-09 12:00;CYQB 091200Z 35006KT 30SM FEW240 15/06 A3007 RMK CI1 SLP185

CYQB;2010-06-09 13:00;CYQB 091300Z 27004KT 30SM FEW040 SCT240 17/07 A3007 RMK SC1CI1 SLP183

CYQB;2010-06-09 14:00;CYQB 091400Z 22007KT 30SM FEW040 BKN240 17/09 A3006 RMK SC1CI1 SLP182

CYQB;2010-06-09 15:00;CYQB 091500Z 26006KT 30SM SCT060 BKN240 19/07 A3006 RMK SC3CI1 SLP181

CYQB;2010-06-09 16:00;CYQB 091600Z 20006KT 30SM SCT060 BKN240 20/08 A3004 RMK SC3CI1 SLP174

CYQB;2010-06-09 17:00;CYQB 091700Z 21008KT 30SM SCT065 BKN240 20/08 A3002 RMK SC3CI1 SLP166

CYQB;2010-06-09 18:00;CYQB 091800Z 21010G15KT 30SM SCT065 BKN180 BKN240 21/08 A2999 RMK SC3AC1CI1 SLP156

CYQB;2010-06-09 19:00;CYQB 091900Z 21009KT 30SM FEW065 SCT180 BKN220 21/08 A2998 RMK SC2AC1CI1 SLP152

CYQB;2010-06-09 20:00;CYQB 092000Z 21007KT 30SM FEW065 FEW090 BKN220 21/07 A2996 RMK SC2AC1CI1 SLP146

CYQB;2010-06-09 21:00;CYQB 092100Z 26004KT 30SM FEW065 FEW120 SCT220 22/07 A2996 RMK SC1AC1CI1 SLP145

CYQB;2010-06-09 22:00;CYQB 092200Z 19002KT 30SM FEW065 BKN240 20/06 A2994 RMK CU1CI2 SLP139

CYQB;2010-06-09 23:00;CYQB 092300Z 06009KT 30SM FEW060 SCT180 BKN240 19/08 A2993 RMK CU1AC2CI1 SLP136

CYQB;2010-06-10 00:00;CYQB 100000Z 07008KT 30SM FEW150 BKN180 18/07 A2992 RMK AC1AC4 SLP134

CYQB;2010-06-10 01:00;CYQB 100100Z 08006KT 15SM FEW180 SCT220 16/06 A2993 RMK AC2CI1 SLP136

CYQB;2010-06-10 02:00;CYQB 100200Z 06005KT 15SM BKN240 16/06 A2993 RMK CI3 SLP136

CYQB;2010-06-10 03:00;CYQB 100300Z 06005KT 15SM OVC220 15/07 A2992 RMK CI5 SLP134

CYQB;2010-06-10 04:00;CYQB 100400Z 07008KT 15SM OVC230 14/07 A2991 RMK CS6 SLP129

CYQB;2010-06-10 05:00;CYQB 100500Z 07007KT 15SM OVC250 14/06 A2990 RMK CS6 SLP125

CYQB;2010-06-10 06:00;CYQB 100600Z 07007KT 15SM OVC220 13/07 A2988 RMK CS6 SLP119

CYQB;2010-06-10 07:00;CYQB 100700Z 14003KT 15SM BKN090 13/07 A2988 RMK AC6 SLP119

CYQB;2010-06-10 08:00;CYQB 100800Z 07006KT 15SM SCT090 BKN230 13/06 A2986 RMK AC4CS2 SLP114

CYQB;2010-06-10 09:00;CYQB 100900Z 09004KT 30SM SCT090 BKN230 12/06 A2987 RMK AC3CI2 SLP115

CYQB;2010-06-10 10:00;CYQB 101000Z 09002KT 30SM BKN090 BKN210 12/08 A2987 RMK AC5CI1 SLP115

CYQB;2010-06-10 11:00;CYQB 101100Z 09006KT 30SM BKN090 BKN210 13/08 A2988 RMK AC5CI1 SLP118

CYQB;2010-06-10 12:00;CYQB 101200Z 08012KT 30SM BKN088 BKN210 15/07 A2988 RMK AC6CI0 SLP119

CYQB;2010-06-10 13:00;CYQB 101300Z 07010KT 30SM FEW090 BKN210 17/08 A2988 RMK AC1CI1 SLP119

CYQB;2010-06-10 14:00;CYQB 101400Z 07011KT 30SM FEW035 FEW090 BKN210 18/09 A2987 RMK CU1AC1CI0 SLP117

CYQB;2010-06-10 15:00;CYQB 101500Z 08009KT 30SM FEW040 FEW090 BKN210 19/09 A2986 RMK CU1AC1CI1 SLP114

CYQB;2010-06-10 16:00;CYQB 101600Z 08005KT 30SM FEW040 FEW085 BKN200 20/10 A2986 RMK CU2AC1CI0 SLP111

CYQB;2010-06-10 17:00;CYQB 101700Z 09009KT 30SM FEW050 SCT085 BKN230 20/09 A2985 RMK CU2AC2CI1 SLP109

CYQB;2010-06-10 18:00;CYQB 101800Z 09006KT 30SM FEW055 SCT085 BKN230 21/10 A2984 RMK CU2AC2CI1 SLP106

CYQB;2010-06-10 19:00;CYQB 101900Z 07007KT 30SM FEW055 SCT085 BKN230 22/09 A2984 RMK CU2AC2CI1 SLP107

CYQB;2010-06-10 20:00;CYQB 102000Z 07005KT 30SM FEW055 SCT090 BKN230 22/09 A2985 RMK CU1AC2CI1 SLP110

CYQB;2010-06-10 21:00;CYQB 102100Z 13009KT 30SM FEW050 FEW093 SCT230 21/09 A2987 RMK CU1AC2CI1 SLP117

CYQB;2010-06-10 22:00;CYQB 102200Z 15008KT 30SM FEW055 FEW093 SCT230 21/09 A2988 RMK CU1AC1CI1 SLP120

CYQB;2010-06-10 23:00;CYQB 102300Z 23006KT 30SM FEW050 FEW093 FEW230 20/11 A2991 RMK CU1AC1CI0 SLP130

CYQB;2010-06-11 00:00;CYQB 110000Z 20006KT 30SM FEW050 FEW090 FEW230 18/11 A2994 RMK CU1AC1CI0 SLP139

CYQB;2010-06-11 01:00;CYQB 110100Z 22005KT 30SM FEW090 FEW230 15/11 A2995 RMK AC1CI0 SLP142

CYQB;2010-06-11 02:00;CYQB 110200Z 27003KT 15SM FEW230 14/10 A2999 RMK CI0 SLP155

CYQB;2010-06-11 03:00;CYQB 110300Z 23004KT 15SM SKC 13/10 A3001 RMK SLP164

CYQB;2010-06-11 04:00;CYQB 110400Z 23004KT 15SM SKC 13/10 A3002 RMK SLP166

CYQB;2010-06-11 05:00;CYQB 110500Z 00000KT 15SM SKC 12/10 A3002 RMK SLP167

CYQB;2010-06-11 06:00;CYQB 110600Z 27002KT 15SM SKC 10/08 A3004 RMK SLP174

CYQB;2010-06-11 07:00;CYQB 110700Z 26002KT 15SM SKC 09/08 A3006 RMK SLP179

CYQB;2010-06-11 08:00;CYQB 110800Z 35002KT 15SM FEW230 11/09 A3005 RMK CI1 SLP177

CYQB;2010-06-11 09:00;CYQB 110900Z 00000KT 15SM SCT230 09/08 A3005 RMK CI0 SLP178

CYQB;2010-06-11 10:00;CYQB 111000Z 00000KT 25SM FEW120 BKN230 10/09 A3008 RMK AC1CI4 SLP186

CYQB;2010-06-11 11:00;CYQB 111100Z 24005KT 25SM FEW030 FEW120 BKN200 13/11 A3008 RMK CU1AC1CI3 SLP187

CYQB;2010-06-11 12:00;CYQB 111200Z 22007KT 25SM FEW120 BKN200 15/11 A3010 RMK AC1CI4 HAZY SLP194

CYQB;2010-06-11 13:00;CYQB 111300Z 23007KT 25SM FEW120 BKN200 16/12 A3010 RMK AC1CI4 SLP194

CYQB;2010-06-11 14:00;CYQB 111400Z 23006KT 25SM FEW120 BKN200 18/13 A3010 RMK AC1CI4 SLP194

CYQB;2010-06-11 15:00;CYQB 111500Z 22011KT 25SM FEW030 FEW120 BKN200 19/12 A3009 RMK CU1AC1CI3 SLP191

CYQB;2010-06-11 16:00;CYQB 111600Z 23010G15KT 25SM FEW040 FEW100 BKN200 20/13 A3008 RMK CU1AC1CI2 SLP189

CYQB;2010-06-11 17:00;CYQB 111700Z 24011G17KT 25SM FEW040 FEW100 BKN190 20/13 A3006 RMK CU1AC1CI2 SLP182

CYQB;2010-06-11 18:00;CYQB 111800Z 24013G18KT 25SM FEW040 FEW100 BKN190 23/13 A3005 RMK CU1AC1CI2 OBS TAKEN +15 SLP177

CYQB;2010-06-11 19:00;CYQB 111900Z 24013G18KT 25SM FEW040 FEW100 FEW190 23/13 A3005 RMK CU1AC1CI1 TCU N SLP176

CYQB;2010-06-11 20:00;CYQB 112000Z 24014KT 25SM FEW045 FEW110 SCT200 22/12 A3004 RMK CU1AC2CI2 SLP173

CYQB;2010-06-11 21:00;CYQB 112100Z CCA 25009G15KT 25SM FEW050 SCT100 SCT200 22/10 A3003 RMK CU1AC2CI0 TCU N SLP172

CYQB;2010-06-11 22:00;CYQB 112200Z 25013KT 25SM FEW070 SCT110 SCT200 23/11 A3003 RMK AC1AC2CI0 TCU N SLP172

CYQB;2010-06-11 23:00;CYQB 112300Z 25015KT 25SM FEW090 FEW110 22/11 A3003 RMK AC2AC1 SLP172

CYQB;2010-06-12 00:00;CYQB 120000Z 25010KT 25SM FEW120 SCT200 20/12 A3005 RMK AC1CI1 SLP175

CYQB;2010-06-12 01:00;CYQB 120100Z 26010KT 15SM FEW120 BKN200 18/12 A3005 RMK AC1CI1 SLP177

CYQB;2010-06-12 02:00;CYQB 120200Z 00000KT 15SM FEW080 SCT120 17/12 A3009 RMK AC1AC2 SLP190

CYQB;2010-06-12 03:00;CYQB 120300Z 20002KT 15SM BKN076 BKN120 15/13 A3009 RMK AC3AC1 SLP190

CYQB;2010-06-12 04:00;CYQB 120400Z 22004KT 15SM FEW120 BKN240 15/12 A3008 RMK AC1CI4 SLP187

CYQB;2010-06-12 05:00;CYQB 120500Z 24003KT 15SM FEW120 BKN230 15/12 A3008 RMK AC1CI7 SLP186

CYQB;2010-06-12 06:00;CYQB 120600Z 29003KT 15SM FEW120 BKN220 14/12 A3008 RMK AC1CI5 SLP188

CYQB;2010-06-12 07:00;CYQB 120700Z 00000KT 15SM FEW090 BKN210 14/12 A3008 RMK AC1CI7 SLP185

CYQB;2010-06-12 08:00;CYQB 120800Z 00000KT 15SM FEW090 BKN200 14/12 A3007 RMK AC1CI7 SLP184

CYQB;2010-06-12 09:00;CYQB 120900Z 00000KT 30SM BKN088 BKN240 13/12 A3008 RMK AC4CI1 SLP186

CYQB;2010-06-12 10:00;CYQB 121000Z 03003KT 25SM BKN090 OVC240 15/12 A3008 RMK AC5CI1 SLP187

CYQB;2010-06-12 11:00;CYQB 121100Z 02002KT 25SM SCT090 OVC200 16/13 A3009 RMK AC4CI2 SLP190

CYQB;2010-06-12 12:00;CYQB 121200Z 05003KT 25SM SCT090 OVC180 17/13 A3010 RMK AC4CI2 SLP193

CYQB;2010-06-12 13:00;CYQB 121300Z 12004KT 25SM BKN088 OVC180 17/13 A3010 RMK AC6CI2 SLP193

CYQB;2010-06-12 14:00;CYQB 121400Z 09004KT 25SM BKN100 18/13 A3009 RMK AC7 SLP191

CYQB;2010-06-12 15:00;CYQB 121500Z 13003KT 25SM BKN092 BKN110 19/14 A3009 RMK AC6AC2 HAZY SLP189

CYQB;2010-06-12 16:00;CYQB 121600Z 08005KT 25SM FEW029 BKN090 BKN110 20/14 A3008 RMK SC1AC4AC2 HAZY SLP187

CYQB;2010-06-12 17:00;CYQB 121700Z 05006KT 25SM BKN030 BKN090 BKN110 21/14 A3007 RMK SC5AC1AC2 SLP183

CYQB;2010-06-12 18:00;CYQB 121800Z 09005KT 25SM SCT030 BKN080 BKN110 22/14 A3004 RMK SC4AC1AC2 SLP173

CYQB;2010-06-12 19:00;CYQB 121900Z 27003KT 25SM FEW030 BKN080 BKN200 24/16 A3003 RMK SC2AC2CI0 HAZY SLP169

CYQB;2010-06-12 20:00;CYQB 122000Z 26005KT 25SM FEW030 BKN110 24/15 A3001 RMK SC2AC6 HAZY TCU N SLP163

CYQB;2010-06-12 21:00;CYQB 122100Z 00000KT 25SM FEW030 BKN120 24/14 A3000 RMK SC2AC4 SLP161

CYQB;2010-06-12 22:00;CYQB 122200Z 24003KT 25SM FEW035 SCT120 BKN220 24/14 A3000 RMK CU2AC2CI1 TCU SW SLP159

CYQB;2010-06-12 23:00;CYQB 122300Z 25005KT 25SM FEW035TCU SCT120 22/14 A2999 RMK TCU1AC2 SLP157

CYQB;2010-06-13 00:00;CYQB 130000Z 25003KT 25SM FEW035TCU FEW120 21/14 A2999 RMK TCU1AC1 SLP156

CYQB;2010-06-13 01:00;CYQB 130100Z 00000KT 25SM FEW035 FEW120 19/14 A3000 RMK CU1AC1 SLP158

CYQB;2010-06-13 02:00;CYQB 130200Z 00000KT 15SM FEW035 FEW080 18/13 A3000 RMK SC1AC1 SLP160

CYQB;2010-06-13 03:00;CYQB 130300Z 06005KT 15SM FEW035 FEW090 18/14 A3001 RMK SC1AC1 SLP163

CYQB;2010-06-13 04:00;CYQB 130400Z 34003KT 15SM FEW100 17/14 A2999 RMK AC1 SLP157

CYQB;2010-06-13 05:00;CYQB 130500Z 36003KT 15SM SKC 16/13 A3000 RMK HAZY SLP158

CYQB;2010-06-13 06:00;CYQB 130600Z 01005KT 15SM FEW090 15/13 A2999 RMK AC1 SLP156

CYQB;2010-06-13 07:00;CYQB 130700Z 00000KT 15SM FEW100 15/12 A2998 RMK AC2 SLP154

CYQB;2010-06-13 08:00;CYQB 130800Z 03004KT 15SM SCT090 BKN250 14/12 A2998 RMK AC3CI1 SLP154

CYQB;2010-06-13 09:00;CYQB 130900Z 02004KT 15SM SCT090 BKN250 14/11 A2998 RMK AC3CI1 SLP154

CYQB;2010-06-13 10:00;CYQB 131000Z 02003KT 25SM FEW090 BKN200 14/11 A2998 RMK AC2CI3 SLP154

CYQB;2010-06-13 11:00;CYQB 131100Z 36004KT 25SM FEW090 BKN210 16/12 A2999 RMK AC2CI5 SLP157

CYQB;2010-06-13 12:00;CYQB 131200Z 05002KT 25SM FEW100 BKN210 17/13 A3000 RMK AC1CI2 SLP158

CYQB;2010-06-13 13:00;CYQB 131300Z 00000KT 25SM BKN150 18/14 A2998 RMK AC7 SLP154

CYQB;2010-06-13 14:00;CYQB 131400Z 00000KT 25SM OVC180 19/14 A2997 RMK AC8 SLP151

CYQB;2010-06-13 15:00;CYQB 131500Z 00000KT 25SM FEW030 OVC150 20/15 A2997 RMK CU1AC7 SLP150

CYQB;2010-06-13 16:00;CYQB 131600Z 00000KT 25SM FEW030 OVC140 21/15 A2996 RMK CU1AC7 SLP145

CYQB;2010-06-13 17:00;CYQB 131700Z 29002KT 25SM FEW030 OVC100 22/16 A2995 RMK CU1AC7 SLP142

CYQB;2010-06-13 18:00;CYQB 131800Z 26003KT 25SM FEW030 OVC090 22/15 A2993 RMK CU1AC7 TCU NE SLP135

CYQB;2010-06-13 19:00;CYQB 131900Z 24007KT 25SM FEW040 OVC090 23/15 A2991 RMK CU2AC6 TCU NE SLP130

CYQB;2010-06-13 20:00;CYQB 132000Z 24006KT 25SM FEW040 FEW100 SCT130 OVC170 24/14 A2989 RMK CU1AC2AC2AC4 SLP124

CYQB;2010-06-13 21:00;CYQB 132100Z 26008KT 25SM FEW045 SCT100 BKN150 BKN250 24/12 A2988 RMK CU1AC2AC2CI2 SLP119

CYQB;2010-06-13 22:00;CYQB 132200Z 27006KT 25SM FEW050TCU FEW100 SCT160 BKN250 24/11 A2987 RMK TCU1AC1AC2CI1 SLP115

CYQB;2010-06-13 23:00;CYQB 132300Z 27007KT 25SM FEW050 FEW120 SCT190 22/11 A2987 RMK CU1AC2CI1 SLP114

CYQB;2010-06-14 00:00;CYQB 140000Z 27006KT 25SM FEW050 FEW120 FEW250 21/12 A2986 RMK CU1AC1CI1 SLP112

CYQB;2010-06-14 01:00;CYQB 140100Z 27007KT 25SM FEW120 SCT250 18/11 A2987 RMK AC1CI1 SLP114

CYQB;2010-06-14 02:00;CYQB 140200Z 19002KT 15SM FEW120 SCT250 15/10 A2988 RMK AC1CI1 SLP117

CYQB;2010-06-14 03:00;CYQB 140300Z 00000KT 15SM FEW100 SCT250 15/10 A2987 RMK AC1CI1 SLP115

CYQB;2010-06-14 04:00;CYQB 140400Z 04008KT 15SM SCT250 15/10 A2986 RMK CI2 SLP114

CYQB;2010-06-14 05:00;CYQB 140500Z 36003KT 15SM BKN250 15/09 A2986 RMK CI2 SLP113

CYQB;2010-06-14 06:00;CYQB 140600Z 03002KT 15SM BKN150 13/08 A2986 RMK AC6 SLP111

CYQB;2010-06-14 07:00;CYQB 140700Z 28002KT 15SM SCT100 OVC150 13/08 A2985 RMK AC3AC5 SLP108

CYQB;2010-06-14 08:00;CYQB 140800Z 36003KT 15SM SCT100 BKN130 14/08 A2983 RMK AC3AC3 SLP102

CYQB;2010-06-14 09:00;CYQB 140900Z 00000KT 15SM SCT100 BKN130 BKN200 14/07 A2983 RMK AC3AC2CI1 SLP101

CYQB;2010-06-14 10:00;CYQB 141000Z 33003KT 35SM BKN120 BKN150 BKN200 14/08 A2983 RMK AC6AC2CI1 SLP100

CYQB;2010-06-14 11:00;CYQB 141100Z 30003KT 35SM BKN092 BKN110 OVC200 14/09 A2983 RMK AC6AC2CI0 SLP100

CYQB;2010-06-14 12:00;CYQB 141200Z 27003KT 35SM BKN078 BKN110 OVC200 15/11 A2984 RMK AC6AC2CI1 SLP106

CYQB;2010-06-14 12:39;CYQB 141239Z CCA 26003KT 30SM -SHRA FEW026 BKN073 OVC110 15/ RMK SC2AC4AC2

CYQB;2010-06-14 13:00;CYQB 141300Z 31012KT 35SM -RA BKN053 OVC070 17/09 A2986 RMK SC6AC2 SLP112

CYQB;2010-06-14 14:00;CYQB 141400Z 33009KT 35SM -RA BKN073 OVC110 15/09 A2988 RMK AC6AC2 SLP118

CYQB;2010-06-14 15:00;CYQB 141500Z 32007KT 35SM -RA BKN075 OVC110 16/10 A2987 RMK AC6AC2 SLP115

CYQB;2010-06-14 16:00;CYQB 141600Z 27005KT 35SM BKN081 OVC110 17/09 A2985 RMK AC6AC2 SLP109

CYQB;2010-06-14 17:00;CYQB 141700Z 23009KT 35SM FEW081 BKN110 OVC200 18/11 A2983 RMK AC2AC4CI1 SLP103

CYQB;2010-06-14 18:00;CYQB 141800Z 22009G16KT 35SM FEW028 FEW110 BKN200 19/11 A2981 RMK SC1AC1CI5 SLP097

CYQB;2010-06-14 19:00;CYQB 141900Z 21011G19KT 20SM FEW035 FEW090 20/10 A2980 RMK CU1AC1 SLP091

CYQB;2010-06-14 20:00;CYQB 142000Z 22011G20KT 20SM FEW035 20/09 A2979 RMK CU2 SLP090

CYQB;2010-06-14 21:00;CYQB 142100Z 23018KT 20SM SCT040 SCT100 20/10 A2978 RMK CU3AC1 SLP087

CYQB;2010-06-14 22:00;CYQB 142200Z 26013G21KT 30SM BKN086 19/10 A2979 RMK AC6 SLP090

CYQB;2010-06-14 23:00;CYQB 142300Z 25011KT 30SM SCT090 19/11 A2980 RMK AC4 SLP091

CYQB;2010-06-15 00:00;CYQB 150000Z 24010KT 30SM FEW090 17/11 A2982 RMK AC2 SLP099

CYQB;2010-06-15 01:00;CYQB 150100Z 23009KT 30SM FEW090 15/11 A2983 RMK AC1 SLP102

CYQB;2010-06-15 02:00;CYQB 150200Z 24011G17KT 15SM FEW090 15/11 A2985 RMK AC1 SLP108

CYQB;2010-06-15 03:00;CYQB 150300Z 24003KT 15SM SKC 12/10 A2988 RMK SLP119

CYQB;2010-06-15 04:00;CYQB 150400Z 36002KT 15SM SKC 12/07 A2991 RMK SLP129

CYQB;2010-06-15 05:00;CYQB 150500Z 36008KT 15SM SKC 14/02 A2995 RMK SLP142

CYQB;2010-06-15 06:00;CYQB 150600Z 01007KT 15SM FEW090 11/M01 A2997 RMK AC1 SLP149

CYQB;2010-06-15 07:00;CYQB 150700Z 35008KT 15SM SKC 10/M00 A2999 RMK SLP155

CYQB;2010-06-15 08:00;CYQB 150800Z 33006KT 15SM SKC 08/M01 A3001 RMK SLP164

CYQB;2010-06-15 09:00;CYQB 150900Z 35007KT 30SM FEW100 FEW220 09/M02 A3004 RMK AC1CI1 SLP174

CYQB;2010-06-15 10:00;CYQB 151000Z 34007KT 30SM FEW230 09/M02 A3006 RMK CI1 SLP182

CYQB;2010-06-15 11:00;CYQB 151100Z 34007KT 30SM BKN230 10/M00 A3009 RMK CI2 SLP191

CYQB;2010-06-15 12:00;CYQB 151200Z 31004KT 30SM BKN230 12/01 A3011 RMK CI2 SLP197

CYQB;2010-06-15 13:00;CYQB 151300Z 02005KT 30SM SCT240 13/00 A3011 RMK CI1 SLP199

CYQB;2010-06-15 14:00;CYQB 151400Z 34007KT 30SM FEW240 15/01 A3011 RMK CI0 SLP196

CYQB;2010-06-15 15:00;CYQB 151500Z 31009KT 30SM FEW240 18/00 A3009 RMK CI0 SLP192

CYQB;2010-06-15 16:00;CYQB 151600Z 33004KT 30SM SKC 19/M00 A3009 RMK SLP192

CYQB;2010-06-15 17:00;CYQB 151700Z 33007KT 30SM SKC 21/00 A3009 RMK SLP190

CYQB;2010-06-15 18:00;CYQB 151800Z 31009G17KT 30SM FEW250 23/01 A3008 RMK CI0 SLP187

CYQB;2010-06-15 19:00;CYQB 151900Z 34015KT 30SM FEW250 23/M01 A3007 RMK CI0 SLP183

CYQB;2010-06-15 20:00;CYQB 152000Z 32012KT 30SM FEW200 23/M01 A3007 RMK CI1 SLP182

CYQB;2010-06-15 21:00;CYQB 152100Z 33009G18KT 30SM FEW220 23/M02 A3008 RMK CI1 SLP185

CYQB;2010-06-15 22:00;CYQB 152200Z 31010KT 30SM FEW220 23/M01 A3008 RMK CI1 SLP187

CYQB;2010-06-15 23:00;CYQB 152300Z 31006KT 30SM FEW220 22/M02 A3008 RMK CI1 SLP188

CYQB;2010-06-16 00:00;CYQB 160000Z 29006KT 30SM FEW220 18/04 A3008 RMK CI1 SLP188

CYQB;2010-06-16 01:00;CYQB 160100Z 27007KT 15SM FEW220 15/03 A3009 RMK CI1 SLP191

CYQB;2010-06-16 02:00;CYQB 160200Z 24005KT 15SM FEW220 15/02 A3010 RMK CI1 SLP195

CYQB;2010-06-16 03:00;CYQB 160300Z 34002KT 15SM SKC 14/03 A3011 RMK SLP197

CYQB;2010-06-16 04:00;CYQB 160400Z 00000KT 15SM SKC 12/03 A3011 RMK SLP199

CYQB;2010-06-16 05:00;CYQB 160500Z 01002KT 15SM FEW220 10/04 A3013 RMK CI1 SLP204

CYQB;2010-06-16 06:00;CYQB 160600Z 00000KT 15SM FEW220 10/03 A3014 RMK CI1 SLP207

CYQB;2010-06-16 07:00;CYQB 160700Z 01003KT 15SM FEW220 10/03 A3015 RMK CI1 SLP210

CYQB;2010-06-16 08:00;CYQB 160800Z 00000KT 15SM FEW220 07/03 A3015 RMK CI2 SLP212

CYQB;2010-06-16 09:00;CYQB 160900Z 00000KT 30SM FEW200 SCT220 08/03 A3016 RMK CI1CI2 SLP213

CYQB;2010-06-16 10:00;CYQB 161000Z 00000KT 30SM FEW160 BKN220 08/04 A3017 RMK AC1CI2 SLP216

CYQB;2010-06-16 11:00;CYQB 161100Z 00000KT 35SM SCT200 OVC220 11/05 A3015 RMK CI1CI2 SLP211

CYQB;2010-06-16 12:00;CYQB 161200Z 24005KT 35SM OVC220 13/07 A3014 RMK CI3 SLP207

CYQB;2010-06-16 13:00;CYQB 161300Z 28003KT 25SM FEW170 OVC220 15/08 A3012 RMK AC2CI5 SLP201

CYQB;2010-06-16 14:00;CYQB 161400Z 00000KT 25SM OVC220 19/10 A3010 RMK CI6 SLP194

CYQB;2010-06-16 15:00;CYQB 161500Z 20005KT 25SM FEW160 OVC220 18/08 A3009 RMK AC2CI6 SLP191

CYQB;2010-06-16 16:00;CYQB 161600Z 22008KT 25SM FEW160 OVC220 20/08 A3007 RMK AC2CI5 SLP183

CYQB;2010-06-16 17:00;CYQB 161700Z 25009KT 25SM OVC220 21/08 A3004 RMK CI7 SLP173

CYQB;2010-06-16 18:00;CYQB 161800Z 26005KT 25SM OVC220 22/07 A3000 RMK CI7 SLP160

CYQB;2010-06-16 19:00;CYQB 161900Z 25005KT 10SM OVC200 22/06 A2997 RMK CI7 SLP151

CYQB;2010-06-16 20:00;CYQB 162000Z 31004KT 12SM OVC170 22/07 A2994 RMK AC8 SLP141

CYQB;2010-06-16 21:00;CYQB 162100Z 32003KT 12SM BKN150 OVC200 22/08 A2992 RMK AC6CI2 SLP133

CYQB;2010-06-16 22:00;CYQB 162200Z 33002KT 12SM OVC120 22/07 A2990 RMK AC8 SLP127

CYQB;2010-06-16 23:00;CYQB 162300Z 23002KT 12SM OVC100 19/12 A2989 RMK AC8 SLP123

CYQB;2010-06-16 23:17;CYQB 162317Z 23002KT 12SM -SHRA OVC100 19/ RMK AC8

CYQB;2010-06-17 00:00;CYQB 170000Z 00000KT 10SM -SHRA OVC110 19/12 A2986 RMK AC8 SLP113

CYQB;2010-06-17 01:00;CYQB 170100Z 28003KT 10SM -SHRA BKN100 OVC200 17/13 A2986 RMK AC6CI2 SLP111

CYQB;2010-06-17 02:00;CYQB 170200Z 22006KT 15SM -SHRA BKN090 15/13 A2986 RMK AC7 SLP113

CYQB;2010-06-17 02:19;CYQB 170219Z 31004KT 15SM OVC090 15/ RMK AC8

CYQB;2010-06-17 03:00;CYQB 170300Z 27003KT 15SM -SHRA FEW062 OVC090 15/13 A2985 RMK SC1AC7 SLP110

CYQB;2010-06-17 03:24;CYQB 170324Z 29003KT 15SM FEW062 OVC090 15/ RMK SC1AC7 OCNL -SHRA

CYQB;2010-06-17 03:30;CYQB 170330Z CCA 29003KT 15SM FEW062 OVC090 15/ RMK SC1AC7 OCNL -SHRA

CYQB;2010-06-17 04:00;CYQB 170400Z 34003KT 15SM OVC080 15/13 A2983 RMK AC8 SLP101

CYQB;2010-06-17 05:00;CYQB 170500Z 01005KT 15SM FEW060 OVC090 15/12 A2979 RMK SC1AC7 SLP090

CYQB;2010-06-17 06:00;CYQB 170600Z 36006KT 15SM OVC090 14/12 A2978 RMK AC8 SLP084

CYQB;2010-06-17 06:34;CYQB 170634Z 02006KT 15SM -SHRA OVC090 14/ RMK AC8

CYQB;2010-06-17 07:00;CYQB 170700Z 03006KT 15SM OVC090 14/12 A2977 RMK AC8 OCNL -SHRA SLP081

CYQB;2010-06-17 08:00;CYQB 170800Z 01007KT 10SM -SHRA FEW060 OVC080 14/11 A2976 RMK SC2AC6 SLP079

CYQB;2010-06-17 09:00;CYQB 170900Z 03006KT 10SM -SHRA BKN060 OVC080 14/12 A2979 RMK SC2AC5 SLP089

CYQB;2010-06-17 10:00;CYQB 171000Z 02007KT 15SM -SHRA FEW025 OVC060 14/12 A2979 RMK SC1SC7 SLP087

CYQB;2010-06-17 11:00;CYQB 171100Z 00000KT 10SM -SHRA FEW025 SCT040 OVC075 15/12 A2981 RMK SC2SC2AC5 SLP093

CYQB;2010-06-17 12:00;CYQB 171200Z 02003KT 10SM -SHRA FEW040 FEW070 OVC095 16/13 A2981 RMK SC1AC2AC6 SLP094

CYQB;2010-06-17 12:39;CYQB 171239Z 05002KT 7SM FEW015 SCT090 BKN110 17/ RMK SC1AC3AC4

CYQB;2010-06-17 13:00;CYQB 171300Z 07003KT 7SM FEW020 BKN100 BKN170 17/13 A2982 RMK SC1AC5AC2 SLP097

CYQB;2010-06-17 14:00;CYQB 171400Z 08003KT 7SM SCT110 BKN250 19/14 A2983 RMK AC4CI1 SLP101

CYQB;2010-06-17 15:00;CYQB 171500Z 15003KT 6SM FU FEW030 FEW100 BKN250 21/13 A2981 RMK CU1AC1CI2 SLP096

CYQB;2010-06-17 16:00;CYQB 171600Z 13006KT 6SM FU FEW035 SCT250 23/14 A2983 RMK CU1CI1 SLP100

CYQB;2010-06-17 17:00;CYQB 171700Z 25006KT 6SM FU FEW035 SCT250 24/15 A2983 RMK CU1CI1 SLP100

CYQB;2010-06-17 18:00;CYQB 171800Z 22008KT 6SM FU FEW036 24/15 A2983 RMK CU2 SLP101

CYQB;2010-06-17 19:00;CYQB 171900Z 20009KT 6SM FU FEW041 25/14 A2983 RMK CU2 SLP100

CYQB;2010-06-17 20:00;CYQB 172000Z 23010KT 7SM FEW044 SCT150 26/15 A2982 RMK CU2AS0 SLP097

CYQB;2010-06-17 21:00;CYQB 172100Z 20008KT 10SM FEW044 FEW190 26/15 A2982 RMK CU2CI0 SLP097

CYQB;2010-06-17 22:00;CYQB 172200Z CCA 22011KT 10SM FEW046 26/25 A2981 RMK CU2 SLP094

CYQB;2010-06-17 23:00;CYQB 172300Z 24006KT 10SM FEW060 26/15 A2981 RMK SC1 SLP096

CYQB;2010-06-18 00:00;CYQB 180000Z 29009KT 15SM FEW060 BKN260 24/13 A2983 RMK SC2CI0 SLP102

CYQB;2010-06-18 01:00;CYQB 180100Z 28007KT 12SM FEW090 SCT170 BKN270 21/13 A2985 RMK AC2AS1CI0 SLP107

CYQB;2010-06-18 02:00;CYQB 180200Z 23010KT 15SM FEW110 21/13 A2985 RMK AC1 SLP109

CYQB;2010-06-18 03:00;CYQB 180300Z 24011KT 15SM SKC 20/14 A2986 RMK SLP111

CYQB;2010-06-18 04:00;CYQB 180400Z 24012KT 8SM BKN090 19/14 A2986 RMK AC5 SLP110

CYQB;2010-06-18 05:00;CYQB 180500Z 23008KT 8SM SCT100 18/14 A2987 RMK AC3 SLP114

CYQB;2010-06-18 06:00;CYQB 180600Z 22011KT 8SM FEW100 18/14 A2987 RMK AC2 SLP114

CYQB;2010-06-18 07:00;CYQB 180700Z 23012KT 8SM FEW100 17/14 A2987 RMK AC2 SLP116

CYQB;2010-06-18 08:00;CYQB 180800Z 21006KT 8SM SCT100 17/13 A2989 RMK AC4 SLP120

CYQB;2010-06-18 09:00;CYQB 180900Z 23009KT 8SM FEW100 BKN220 17/13 A2990 RMK AC2CI2 SLP124

CYQB;2010-06-18 10:00;CYQB 181000Z 22007KT 15SM FEW070 BKN250 16/13 A2991 RMK AC2CI1 SLP128

CYQB;2010-06-18 11:00;CYQB 181100Z 23010KT 12SM FEW080 BKN250 18/13 A2993 RMK AC2CI1 SLP136

CYQB;2010-06-18 12:00;CYQB 181200Z 22009KT 12SM FEW090 SCT120 BKN250 19/13 A2994 RMK AC1AC4CI1 SLP139

CYQB;2010-06-18 13:00;CYQB 181300Z 23011KT 12SM FEW095 BKN130 BKN250 20/14 A2996 RMK AC2AC5CI0 SLP145

CYQB;2010-06-18 14:00;CYQB 181400Z CCA 24012KT 12SM FEW040 SCT120 23/15 A2994 RMK FU1AC2 SLP139

CYQB;2010-06-18 15:00;CYQB 181500Z 25013G18KT 12SM FEW100 SCT250 24/15 A2994 RMK AC2CI1 SLP140

CYQB;2010-06-18 16:00;CYQB 181600Z 26013G18KT 12SM FEW040 SCT120 BKN250 25/15 A2994 RMK CU1AC2CI1 SLP138

CYQB;2010-06-18 17:00;CYQB 181700Z 24015KT 15SM FEW040 SCT120 BKN250 27/16 A2993 RMK CU2AC2CI0 SLP135

CYQB;2010-06-18 18:00;CYQB 181800Z 24009KT 15SM FEW045 BKN250 28/17 A2992 RMK CU2CI0 SLP132

CYQB;2010-06-18 19:00;CYQB 181900Z 22014KT 15SM FEW050TCU BKN250 28/17 A2991 RMK TCU2CI0 SLP129

CYQB;2010-06-18 20:00;CYQB 182000Z 20010G16KT 15SM FEW055TCU BKN250 29/17 A2991 RMK TCU2CI0 SLP129

CYQB;2010-06-18 21:00;CYQB 182100Z 23013G19KT 15SM FEW055 BKN250 29/16 A2991 RMK CU2CI0 SLP127

CYQB;2010-06-18 22:00;CYQB 182200Z 24011KT 15SM FEW055 BKN250 28/17 A2991 RMK CU2CI0 SLP127

CYQB;2010-06-18 23:00;CYQB 182300Z 22011KT 15SM FEW055 SCT150 BKN250 27/16 A2991 RMK CU2AC2CI0 SLP128

CYQB;2010-06-19 00:00;CYQB 190000Z 23013KT 15SM FEW055 FEW150 BKN250 26/14 A2992 RMK CU1AC2CI0 SLP130

CYQB;2010-06-19 01:00;CYQB 190100Z 23009KT 15SM FEW055 SCT150 BKN250 24/13 A2992 RMK CU1AC2CI0 SLP132

CYQB;2010-06-19 02:00;CYQB 190200Z 24009KT 15SM FEW150 BKN250 23/12 A2993 RMK AC2CI1 SLP135

CYQB;2010-06-19 03:00;CYQB 190300Z 25005KT 15SM FEW250 20/13 A2993 RMK CI0 SLP136

CYQB;2010-06-19 04:00;CYQB 190400Z 24006KT 15SM SCT250 19/14 A2994 RMK CI2 SLP137

CYQB;2010-06-19 05:00;CYQB 190500Z 24006KT 15SM BKN250 19/14 A2994 RMK CI3 SLP138

CYQB;2010-06-19 06:00;CYQB 190600Z 23004KT 15SM BKN250 18/14 A2994 RMK CI3 SLP140

CYQB;2010-06-19 07:00;CYQB 190700Z 26004KT 15SM BKN250 18/14 A2996 RMK CI3 SLP144

CYQB;2010-06-19 08:00;CYQB 190800Z 24002KT 15SM SCT070 18/13 A2996 RMK AC4 SLP144

CYQB;2010-06-19 09:00;CYQB 190900Z 27003KT 15SM SCT070 17/13 A2995 RMK AC4 SLP142

CYQB;2010-06-19 10:00;CYQB 191000Z 25004KT 15SM SCT070 BKN120 18/14 A2997 RMK AC4AC2 SLP147

CYQB;2010-06-19 11:00;CYQB 191100Z CCA 27006KT 15SM FEW070 BKN140 19/14 A2996 RMK AC2AC4 SLP146

CYQB;2010-06-19 12:00;CYQB 191200Z 25005KT 12SM FEW140 BKN230 20/15 A2995 RMK AC2CI2 SLP142

CYQB;2010-06-19 13:00;CYQB 191300Z 25008KT 12SM FEW140 BKN200 23/15 A2995 RMK AC1CC4 SLP142

CYQB;2010-06-19 14:00;CYQB 191400Z 25010KT 12SM FEW140 BKN210 24/16 A2993 RMK AC1CC4 SLP135

CYQB;2010-06-19 15:00;CYQB 191500Z 23011G17KT 12SM FEW170 FEW220 BKN300 26/17 A2992 RMK AC1CC2CI1 SLP130

CYQB;2010-06-19 16:00;CYQB 191600Z 24012KT 12SM FEW040 SCT180 BKN300 27/17 A2990 RMK CU1AC3CC1 SLP124

CYQB;2010-06-19 17:00;CYQB 191700Z 24013KT 12SM FEW045 BKN180 BKN300 28/18 A2987 RMK CU2AC3CC1 SLP116

CYQB;2010-06-19 18:00;CYQB 191800Z 24014G19KT 12SM FEW045 SCT180 BKN300 29/17 A2984 RMK CU2AC2CI1 SLP105

CYQB;2010-06-19 19:00;CYQB 191900Z 24012G19KT 12SM FEW060 SCT180 BKN300 29/17 A2982 RMK CU2AC2CI2 SLP097

CYQB;2010-06-19 20:00;CYQB 192000Z 24014G19KT 15SM FEW060 BKN090 BKN250 28/16 A2981 RMK CU2AC2CI1 SLP093

CYQB;2010-06-19 21:00;CYQB 192100Z 25008KT 15SM FEW050 BKN068 OVC210 27/17 A2979 RMK CU1AC6CI2 SLP089

CYQB;2010-06-19 22:00;CYQB 192200Z 26008KT 15SM -SHRA BKN068 OVC210 26/17 A2979 RMK AC6CI2 SLP089

CYQB;2010-06-19 23:00;CYQB 192300Z 23019G24KT 10SM -SHRA FEW015 SCT060 BKN120 OVC210 22/18 A2979 RMK SF1SC3AC3CI2 SLP089

CYQB;2010-06-19 23:44;CYQB 192344Z 25012G19KT 10SM FEW015 FEW060 BKN120 BKN210 22/ RMK CF1CU2AC3CI2

CYQB;2010-06-20 00:00;CYQB 200000Z 24008KT 12SM FEW015 FEW060 BKN120 BKN210 21/19 A2979 RMK CF1CU2AC3CI1 SLP089

CYQB;2010-06-20 01:00;CYQB 200100Z 30004KT 12SM FEW010 FEW050 FEW120 20/18 A2980 RMK SF1CU1AC2 SLP090

CYQB;2010-06-20 02:00;CYQB 200200Z 27004KT 10SM FEW012 FEW030 SCT120 19/18 A2980 RMK SF1CU1AC2 SLP092

CYQB;2010-06-20 03:00;CYQB 200300Z 27005KT 8SM FEW015 SCT030 20/18 A2980 RMK SF1CU3 SLP092

CYQB;2010-06-20 04:00;CYQB 200400Z 26004KT 5SM BR FEW010 BKN030 20/18 A2979 RMK SF1SC5 SLP087

CYQB;2010-06-20 05:00;CYQB 200500Z 24003KT 4SM BR SCT015 OVC030 20/19 A2978 RMK ST3SC5 SLP085

CYQB;2010-06-20 05:15;CYQB 200515Z 25003KT 4SM BR BKN014 OVC030 20/ RMK SF6SC2

CYQB;2010-06-20 06:00;CYQB 200600Z 19004KT 3SM BR BKN008 OVC012 20/19 A2977 RMK SF7SC1 SLP081

CYQB;2010-06-20 06:03;CYQB 200603Z 18004KT 3SM -SHRA BR BKN008 OVC012 20/ RMK SF7SC1

CYQB;2010-06-20 06:40;CYQB 200640Z 19006KT 1SM R06/P6000FT/U BR OVC008 20/ RMK SF8

CYQB;2010-06-20 07:00;CYQB 200700Z 21005KT 3SM BR BKN008 OVC012 20/18 A2977 RMK SF6SC2 SLP079

CYQB;2010-06-20 08:00;CYQB 200800Z 23007KT 6SM BR FEW008 SCT030 19/18 A2976 RMK SF2SC1 SLP077

CYQB;2010-06-20 09:00;CYQB 200900Z 28004KT 3SM BR FEW008 FEW030 19/18 A2976 RMK SF1SC1 SLP079

CYQB;2010-06-20 10:00;CYQB 201000Z 25005KT 2SM BR FEW007 FEW030 20/18 A2978 RMK SF1SC2 SLP083

CYQB;2010-06-20 10:20;CYQB 201020Z 25002KT 1 1/2SM BR FEW007 FEW030 20/ RMK SF1SC2

CYQB;2010-06-20 11:00;CYQB 201100Z 00000KT 2SM BR BKN007 OVC030 20/19 A2978 RMK SF6SC2 SLP085

CYQB;2010-06-20 12:00;CYQB 201200Z 24002KT 2 1/2SM BR BKN007 OVC050 21/19 A2977 RMK SF5SC3 SLP081

CYQB;2010-06-20 12:23;CYQB 201223Z 00000KT 3SM -SHRA BR BKN013 OVC026 21/ RMK SC5SC3 TCU EMBD

CYQB;2010-06-20 13:00;CYQB 201300Z 00000KT 4SM BR SCT012 OVC025 22/19 A2976 RMK SF4SC4 SLP079

CYQB;2010-06-20 13:30;CYQB 201330Z 29003KT 4SM TS BR SCT012 BKN040 23/ RMK SF3SC2 CB EMDB

CYQB;2010-06-20 14:00;CYQB 201400Z 35003KT 4SM BR FEW012 BKN025TCU BKN040TCU 22/19 A2976 RETS RMK SF2TCU3TCU2 CB EMDB VIS N 10 SLP078

CYQB;2010-06-20 15:00;CYQB 201500Z 23004KT 6SM BR FEW015 BKN025 OVC070 23/19 A2975 RMK SC1SC4AC2 CB EMBD VIS 10 W - N SLP076

CYQB;2010-06-20 16:00;CYQB 201600Z 35008KT 15SM FEW015 BKN040 BKN060 25/18 A2976 RMK SC1SC4SC2 VIS S 6 SLP077

CYQB;2010-06-20 17:00;CYQB 201700Z 28005KT 15SM TS BKN040TCU BKN180 26/17 A2975 RMK TCU5AC1 DIST CB S SLP076

CYQB;2010-06-20 17:52;CYQB 201752Z 32010G15KT 30SM BKN040 BKN130 26/ RETS RMK CU5AC2

CYQB;2010-06-20 18:00;CYQB 201800Z 32010G15KT 30SM BKN040 BKN130 26/16 A2975 RETS RMK CU5AC2 SLP073

CYQB;2010-06-20 19:00;CYQB 201900Z 33011KT 30SM FEW050TCU SCT130 27/16 A2974 RMK TCU2AC2 SLP070

CYQB;2010-06-20 20:00;CYQB 202000Z 36008KT 30SM BKN062 BKN120 27/14 A2975 RMK CU6AC1 TCU ASOCTD SLP073

CYQB;2010-06-20 21:00;CYQB 202100Z 09011G17KT 20SM BKN072 BKN120 23/17 A2977 RMK CU6AC1 HAZY SLP081

CYQB;2010-06-20 22:00;CYQB 202200Z CCA 09008KT 15SM BKN060 BKN250 23/18 A2979 RMK CU5CI1 HAZY SLP089

CYQB;2010-06-20 23:00;CYQB 202300Z 08005KT 15SM SCT075 SCT130 22/17 A2982 RMK AC3AC1 HAZY SLP098

CYQB;2010-06-21 00:00;CYQB 210000Z 02003KT 25SM FEW065 FEW120 21/17 A2984 RMK CU1AC1 SLP105

CYQB;2010-06-21 01:00;CYQB 210100Z 03002KT 25SM FEW065 FEW120 20/16 A2985 RMK CU1AC1 SLP109

CYQB;2010-06-21 02:00;CYQB 210200Z 33003KT 15SM FEW120 18/15 A2987 RMK AC1 SLP114

CYQB;2010-06-21 03:00;CYQB 210300Z 30004KT 15SM FEW110 16/15 A2987 RMK AC1 SLP114

CYQB;2010-06-21 04:00;CYQB 210400Z CCA 33005KT 15SM SKC 17/13 A2986 RMK SLP111

CYQB;2010-06-21 05:00;CYQB 210500Z 08002KT 15SM FEW100 15/13 A2986 RMK AC1 SLP112

CYQB;2010-06-21 06:00;CYQB 210600Z 00000KT 15SM FEW100 15/13 A2986 RMK AC1 SLP113

CYQB;2010-06-21 07:00;CYQB 210700Z 33006KT 15SM FEW090 14/11 A2987 RMK AC1 SLP114

CYQB;2010-06-21 08:00;CYQB 210800Z 32003KT 15SM BKN090 16/10 A2988 RMK AC6 SLP117

CYQB;2010-06-21 09:00;CYQB 210900Z 03005KT 15SM BKN090 16/09 A2988 RMK AC6 SLP119

CYQB;2010-06-21 10:00;CYQB 211000Z 00000KT 25SM BKN090 16/10 A2990 RMK AC5 SLP124

CYQB;2010-06-21 11:00;CYQB 211100Z 28002KT 25SM BKN090 18/08 A2992 RMK AC6 SLP133

CYQB;2010-06-21 12:00;CYQB 211200Z 27002KT 25SM BKN090 18/09 A2995 RMK AC6 SLP142

CYQB;2010-06-21 13:00;CYQB 211300Z 29003KT 25SM SCT078 21/09 A2995 RMK AC4 SLP143

CYQB;2010-06-21 14:00;CYQB 211400Z 25004KT 25SM FEW078 22/09 A2994 RMK AC2 SLP141

CYQB;2010-06-21 15:00;CYQB 211500Z 30010KT 25SM FEW078 25/07 A2994 RMK AC1 SLP139

CYQB;2010-06-21 16:00;CYQB 211600Z 32008KT 25SM FEW078 24/07 A2994 RMK AC1 SLP139

CYQB;2010-06-21 17:00;CYQB 211700Z 29011G16KT 25SM FEW065 25/07 A2994 RMK CU1 SLP137

CYQB;2010-06-21 18:00;CYQB 211800Z 28008G18KT 25SM FEW065 26/06 A2995 RMK SC1 SLP141

CYQB;2010-06-21 19:00;CYQB 211900Z 34014G29KT 30SM FEW065 26/06 A2995 RMK SC1 SLP142

CYQB;2010-06-21 20:00;CYQB 212000Z 32012G19KT 30SM FEW065 26/05 A2997 RMK SC1 SLP147

CYQB;2010-06-21 21:00;CYQB 212100Z 29013KT 30SM FEW065 26/05 A2997 RMK SC1 SLP149

CYQB;2010-06-21 22:00;CYQB 212200Z 28012KT 25SM SKC 26/05 A2999 RMK SLP154

CYQB;2010-06-21 23:00;CYQB 212300Z 29007KT 15SM SKC 25/07 A3000 RMK SLP159

CYQB;2010-06-22 00:00;CYQB 220000Z 27006KT 15SM FEW100 22/09 A3000 RMK AC1 SLP161

CYQB;2010-06-22 01:00;CYQB 220100Z 28004KT 15SM FEW060 18/08 A3001 RMK SC1 SLP164

CYQB;2010-06-22 02:00;CYQB 220200Z 27004KT 15SM FEW080 17/07 A3004 RMK AC1 SLP174

CYQB;2010-06-22 03:00;CYQB 220300Z 33005KT 15SM SKC 19/06 A3005 RMK SLP177

CYQB;2010-06-22 04:00;CYQB 220400Z 36008KT 15SM SKC 17/07 A3007 RMK SLP182

CYQB;2010-06-22 05:00;CYQB 220500Z 04010KT 15SM SKC 17/06 A3008 RMK SLP187

CYQB;2010-06-22 06:00;CYQB 220600Z CCA 01003KT 15SM SKC 15/06 A3009 RMK SLP190

CYQB;2010-06-22 07:00;CYQB 220700Z 03004KT 15SM SKC 14/06 A3009 RMK SLP189

CYQB;2010-06-22 08:00;CYQB 220800Z 01005KT 15SM SKC 14/06 A3010 RMK SLP193

CYQB;2010-06-22 09:00;CYQB 220900Z 00000KT 15SM SKC 10/06 A3013 RMK SLP202

CYQB;2010-06-22 10:00;CYQB 221000Z 24005KT 30SM BKN240 11/07 A3015 RMK CI1 SLP209

CYQB;2010-06-22 11:00;CYQB 221100Z 35002KT 30SM BKN260 14/09 A3015 RMK CI1 SLP210

CYQB;2010-06-22 12:00;CYQB 221200Z 06003KT 30SM BKN260 18/07 A3014 RMK CI1 SLP207

CYQB;2010-06-22 13:00;CYQB 221300Z 00000KT 30SM OVC360 20/10 A3016 RMK CI1 SLP212

CYQB;2010-06-22 14:00;CYQB 221400Z 00000KT 30SM BKN260 22/10 A3015 RMK CI1 SLP209

CYQB;2010-06-22 15:00;CYQB 221500Z 18004KT 30SM BKN260 23/10 A3014 RMK CI1 SLP208

CYQB;2010-06-22 16:00;CYQB 221600Z 18005KT 30SM BKN260 25/08 A3012 RMK CI0 SLP201

CYQB;2010-06-22 17:00;CYQB 221700Z 29004KT 30SM BKN260 26/08 A3011 RMK CI0 SLP195

CYQB;2010-06-22 18:00;CYQB 221800Z 21006KT 30SM SCT260 26/09 A3007 RMK CI0 SLP183

CYQB;2010-06-22 19:00;CYQB 221900Z 22008KT 30SM SCT260 27/09 A3005 RMK CI1 SLP177

CYQB;2010-06-22 20:00;CYQB 222000Z 18004KT 30SM BKN260 27/08 A3004 RMK CI2 SLP172

CYQB;2010-06-22 21:00;CYQB 222100Z 26004KT 25SM OVC210 27/09 A3003 RMK CI4 SLP169

CYQB;2010-06-22 22:00;CYQB 222200Z 29002KT 25SM OVC210 26/10 A3002 RMK CS6 SLP165

CYQB;2010-06-22 23:00;CYQB 222300Z 31003KT 25SM SCT150 OVC210 25/12 A3001 RMK AC2CI6 SLP163

CYQB;2010-06-23 00:00;CYQB 230000Z 33003KT 15SM BKN150 OVC200 23/12 A3000 RMK AS5CS3 SLP159

CYQB;2010-06-23 01:00;CYQB 230100Z 34004KT 15SM OVC150 23/12 A2999 RMK AS8 SLP157

CYQB;2010-06-23 02:00;CYQB 230200Z 01005KT 15SM OVC160 23/12 A2999 RMK AS8 SLP157

CYQB;2010-06-23 03:00;CYQB 230300Z 02004KT 15SM OVC170 22/12 A2998 RMK AS8 SLP153

CYQB;2010-06-23 04:00;CYQB 230400Z 02004KT 15SM OVC140 21/12 A2996 RMK AS8 SLP146

CYQB;2010-06-23 05:00;CYQB 230500Z 02004KT 15SM OVC120 21/11 A2996 RMK AS8 SLP145

CYQB;2010-06-23 06:00;CYQB 230600Z 09006KT 15SM OVC110 20/10 A2994 RMK AS8 SLP137

CYQB;2010-06-23 07:00;CYQB 230700Z 05005KT 15SM OVC094 20/11 A2994 RMK AS8 SLP138

CYQB;2010-06-23 08:00;CYQB 230800Z 06003KT 15SM OVC090 19/11 A2993 RMK AS8 SLP134

CYQB;2010-06-23 09:00;CYQB 230900Z 07005KT 15SM FEW090 OVC120 19/10 A2992 RMK AS2AS6 SLP130

CYQB;2010-06-23 10:00;CYQB 231000Z 09005KT 25SM OVC082 19/12 A2992 RMK AC8 SLP131

CYQB;2010-06-23 11:00;CYQB 231100Z 06005KT 25SM FEW052 BKN090 20/12 A2991 RMK SC2AC5 SLP129

CYQB;2010-06-23 12:00;CYQB 231200Z 05006KT 25SM BKN043 OVC090 20/12 A2991 RMK SC5AC3 SLP129

CYQB;2010-06-23 13:00;CYQB 231300Z 08003KT 25SM BKN072 22/15 A2991 RMK AC7 SLP129

CYQB;2010-06-23 14:00;CYQB 231400Z 16008KT 25SM SCT045 BKN210 22/15 A2988 RMK SC4CI1 SLP118

CYQB;2010-06-23 15:00;CYQB 231500Z 09006KT 25SM BKN031 23/16 A2987 RMK SC7 SLP115

CYQB;2010-06-23 16:00;CYQB 231600Z 13011KT 25SM OVC035 22/16 A2986 RMK SC8 SLP110

CYQB;2010-06-23 17:00;CYQB 231700Z 15003KT 25SM OVC028 22/16 A2986 RMK SC8 SLP112

CYQB;2010-06-23 18:00;CYQB 231800Z 08002KT 25SM OVC027 22/16 A2984 RMK SC8 SLP104

CYQB;2010-06-23 19:00;CYQB 231900Z 25003KT 20SM OVC030 22/16 A2984 RMK SC8 SLP106

CYQB;2010-06-23 20:00;CYQB 232000Z 15002KT 20SM FEW030 OVC050 23/17 A2983 RMK SC1SC6 SLP102

CYQB;2010-06-23 21:00;CYQB 232100Z 21006KT 20SM FEW050 SCT090 BKN240 24/17 A2981 RMK SC2AC1CI2 SLP094

CYQB;2010-06-23 22:00;CYQB 232200Z 22005KT 20SM FEW050 FEW090 BKN240 23/17 A2979 RMK SC1AC1CI2 SLP087

CYQB;2010-06-23 23:00;CYQB 232300Z 26006KT 20SM FEW050 FEW090 BKN240 23/17 A2979 RMK SC2AC1CI2 SLP088

CYQB;2010-06-24 00:00;CYQB 240000Z 19003KT 15SM SCT050 SCT080 BKN240 23/17 A2978 RMK SC3AC1CI1 SLP083

CYQB;2010-06-24 01:00;CYQB 240100Z 17004KT 15SM SCT030 BKN090 OVC240 22/17 A2977 RMK SC4AC2CI1 SLP080

CYQB;2010-06-24 02:00;CYQB 240200Z 00000KT 10SM -SHRA SCT032 BKN059 OVC240 22/18 A2977 RMK SC4SC2CI2 SLP081

CYQB;2010-06-24 02:28;CYQB 240228Z 21004KT 10SM SCT032 BKN057 OVC240 21/ RMK SC3SC2CI2

CYQB;2010-06-24 03:00;CYQB 240300Z 19002KT 15SM SCT032 BKN055 21/18 A2974 RMK SC3SC3 SLP072

CYQB;2010-06-24 04:00;CYQB 240400Z 00000KT 15SM FEW030 SCT055 BKN220 20/18 A2972 RMK SC2SC1CI3 SLP064

CYQB;2010-06-24 04:42;CYQB 240442Z 00000KT 10SM -SHRA FEW030 BKN120 OVC240 19/ RMK SC2AC3CI2

CYQB;2010-06-24 05:00;CYQB 240500Z 23002KT 10SM -SHRA FEW030 BKN120 20/18 A2971 RMK SC2AC5 SLP061

CYQB;2010-06-24 06:00;CYQB 240600Z 00000KT 8SM -SHRA BKN021 OVC100 20/18 A2969 RMK SC6AC2 SLP054

CYQB;2010-06-24 06:40;CYQB 240640Z 00000KT 3SM SHRA BR BKN014 OVC022 20/ RMK SC6SC2

CYQB;2010-06-24 06:47;CYQB 240647Z 00000KT 2SM SHRA BR BKN013 OVC024 20/ RMK SC6SC2

CYQB;2010-06-24 07:00;CYQB 240700Z 00000KT 5SM -SHRA BR BKN014 OVC024 20/19 A2965 RERA RMK SC6SC2 SLP042

CYQB;2010-06-24 07:04;CYQB 240704Z 00000KT 1/2SM R06/3000VP6000FT/D +SHRA FG BKN005 OVC015 20/ RMK SF5SC3

CYQB;2010-06-24 07:12;CYQB 240712Z 00000KT 3SM R06/3500VP6000FT/U -SHRA BR SCT005 OVC015 20/ RERA RMK SF4SC4 VIS E 1/2

CYQB;2010-06-24 07:22;CYQB 240722Z 00000KT 3SM -SHRA BR BKN006 OVC015 20/ RERA RMK SF5SC3

CYQB;2010-06-24 07:45;CYQB 240745Z 10002KT 4SM -SHRA BR SCT005 OVC019 20/ RERA RMK SF3SC5

CYQB;2010-06-24 08:00;CYQB 240800Z 12003KT 4SM -SHRA BR FEW005 OVC015 20/19 A2962 RERA RMK SF2SC6 SLP030

CYQB;2010-06-24 08:12;CYQB 240812Z 17005KT 1 1/2SM SHRA BR SCT005 OVC015 19/ RMK FG2SF2SC4

CYQB;2010-06-24 08:30;CYQB 240830Z 18005KT 3SM -SHRA BR FEW005 OVC013 20/ RERA RMK SF2SC6

CYQB;2010-06-24 09:00;CYQB 240900Z 14004KT 1SM R06/P6000FT/N -SHRA BR SCT005 OVC013 20/19 A2959 RERA RMK FG2SF2SC5 SLP021

CYQB;2010-06-24 09:13;CYQB 240913Z 13004KT 1SM R06/P6000FT/N -SHRA BR BKN005 OVC013 20/ RMK FG2SF4SC2

CYQB;2010-06-24 09:35;CYQB 240935Z 12004KT 1SM R06/P6000FT/D -SHRA BR SCT005 OVC015 20/ RMK FG2SF2SC5

CYQB;2010-06-24 10:00;CYQB 241000Z 12003KT 3SM -SHRA BR FEW005 SCT015 OVC042 20/19 A2956 RMK SF2SC2SC4 VIS LWR N-E SLP008

CYQB;2010-06-24 10:41;CYQB 241041Z 09003KT 2 1/2SM -SHRA BR FEW005 BKN017 OVC045 20/ RMK SF2SC5SC2

CYQB;2010-06-24 11:00;CYQB 241100Z 07004KT 1 1/2SM -SHRA BR SCT005 OVC013 20/19 A2953 RMK FG2SF2SC4 SLP998

CYQB;2010-06-24 12:00;CYQB 241200Z 07004KT 2 1/2SM -SHRA BR SCT004 BKN013 OVC042 20/19 A2951 RMK SF3SC2SC2 SLP993

CYQB;2010-06-24 12:35;CYQB 241235Z CCA 35009KT 3SM -SHRA BR SCT005 BKN013 OVC045 20/ RMK SF3SC3SC2 VIS VRB 2-4 CIG LWR W

CYQB;2010-06-24 13:00;CYQB 241300Z 01008KT 10SM -SHRA FEW007 FEW015 OVC036 20/17 A2950 RMK SF1SC2SC6 VIS LWR SE SLP990

CYQB;2010-06-24 14:00;CYQB 241400Z 35003KT 12SM -SHRA FEW010 OVC052 20/18 A2951 RMK SF2SC6 SLP994

CYQB;2010-06-24 15:00;CYQB 241500Z 25007KT 15SM FEW015 BKN055 BKN200 20/18 A2953 RMK SC2SC5CI1 VIS SE 5 SLP000

CYQB;2010-06-24 16:00;CYQB 241600Z 25010KT 15SM FEW018 OVC055 22/18 A2955 RMK SC2SC6 SLP005

CYQB;2010-06-24 17:00;CYQB 241700Z 27009KT 15SM FEW020 BKN052 OVC160 22/18 A2954 RMK SC2SC5AC2 SLP003

CYQB;2010-06-24 18:00;CYQB 241800Z 32009G16KT 15SM FEW030 SCT060 OVC150 23/16 A2955 RMK CU1SC2AS5 SLP005

CYQB;2010-06-24 19:00;CYQB 241900Z 32010KT 20SM FEW030 OVC120 22/16 A2957 RMK CU2AC6 SLP014

CYQB;2010-06-24 20:00;CYQB 242000Z 31007KT 20SM FEW035 BKN150 23/16 A2959 RMK CU2AC5 SLP019

CYQB;2010-06-24 21:00;CYQB 242100Z 31008G15KT 30SM SCT040 BKN150 23/15 A2959 RMK CU4AC2 SLP021

CYQB;2010-06-24 22:00;CYQB 242200Z 28006KT 30SM FEW040 SCT130 BKN210 22/15 A2961 RMK CU2AC2CI2 SLP027

CYQB;2010-06-24 23:00;CYQB 242300Z 31008KT 30SM FEW040 SCT210 22/14 A2964 RMK CF2CI1 SLP036

CYQB;2010-06-25 00:00;CYQB 250000Z 29008KT 30SM FEW035 SCT210 20/13 A2967 RMK CF1CI2 SLP049

CYQB;2010-06-25 01:00;CYQB 250100Z 27006KT 15SM FEW210 17/12 A2970 RMK CI1 SLP058

CYQB;2010-06-25 02:00;CYQB 250200Z 26007KT 15SM SKC 16/12 A2973 RMK SLP069

CYQB;2010-06-25 03:00;CYQB 250300Z 26010KT 15SM SKC 16/12 A2975 RMK SLP076

CYQB;2010-06-25 04:00;CYQB 250400Z 25008KT 15SM SKC 15/12 A2977 RMK SLP082

CYQB;2010-06-25 05:00;CYQB 250500Z 00000KT 15SM SKC 14/12 A2979 RMK SLP089

CYQB;2010-06-25 06:00;CYQB 250600Z 35002KT 15SM SKC 12/10 A2982 RMK SLP097

CYQB;2010-06-25 07:00;CYQB 250700Z 30004KT 15SM SKC 12/09 A2984 RMK SLP104

CYQB;2010-06-25 08:00;CYQB 250800Z 29005KT 15SM FEW100 11/08 A2986 RMK AC1 SLP112

CYQB;2010-06-25 09:00;CYQB 250900Z 27002KT 10SM FEW100 FEW200 11/08 A2988 RMK AC1CI1 SLP119

CYQB;2010-06-25 10:00;CYQB 251000Z 30004KT 30SM FEW210 12/08 A2991 RMK CI0 SLP130

CYQB;2010-06-25 11:00;CYQB 251100Z 27007KT 30SM FEW100 14/09 A2994 RMK AC1 SLP139

CYQB;2010-06-25 12:00;CYQB 251200Z 29004KT 30SM FEW060 16/07 A2994 RMK SC1 SLP141

CYQB;2010-06-25 13:00;CYQB 251300Z 32009KT 30SM FEW080 FEW130 17/08 A2994 RMK AC1AC1 SLP139

CYQB;2010-06-25 14:00;CYQB 251400Z 28010KT 30SM FEW040 FEW080 FEW130 19/08 A2994 RMK CU1AC1AC1 SLP139

CYQB;2010-06-25 15:00;CYQB 251500Z 27013KT 30SM FEW040 FEW080 FEW130 20/08 A2994 RMK CU1AC1AC1 SLP139

CYQB;2010-06-25 16:00;CYQB 251600Z 28010G17KT 30SM FEW040 FEW130 21/08 A2994 RMK CU2AC1 SLP138

CYQB;2010-06-25 17:00;CYQB 251700Z 28012G17KT 30SM FEW040 BKN070 20/07 A2994 RMK CU1AC4 SLP138

CYQB;2010-06-25 18:00;CYQB 251800Z 27011G18KT 30SM BKN060 21/08 A2994 RMK CU5 SLP139

CYQB;2010-06-25 19:00;CYQB 251900Z 27014KT 30SM BKN065 21/08 A2992 RMK SC6 SLP134

CYQB;2010-06-25 20:00;CYQB 252000Z 24010G16KT 30SM BKN067 21/09 A2992 RMK SC5 SLP132

CYQB;2010-06-25 21:00;CYQB 252100Z 24013KT 30SM BKN080 22/10 A2991 RMK AC5 SLP129

CYQB;2010-06-25 22:00;CYQB 252200Z 26012KT 30SM SCT100 22/11 A2989 RMK AC4 OBS TAKEN +20 SLP124

CYQB;2010-06-25 23:00;CYQB 252300Z 25010G16KT 30SM SCT063 SCT110 21/10 A2989 RMK SC3AS1 SLP122

CYQB;2010-06-26 00:00;CYQB 260000Z 23004KT 30SM SCT068 BKN110 19/11 A2989 RMK AC3AS1 SLP123

CYQB;2010-06-26 01:00;CYQB 260100Z 31016G21KT 15SM -SHRA FEW040 FEW080 SCT120 18/11 A2991 RMK CU1AC1AS2 SLP129

CYQB;2010-06-26 02:00;CYQB 260200Z 26004KT 15SM FEW040 SCT090 16/11 A2990 RMK SC2AC2 SLP126

CYQB;2010-06-26 02:50;CYQB 260250Z 24008KT 12SM -SHRA SCT040 OVC090 16/ RMK SC4AC4

CYQB;2010-06-26 03:00;CYQB 260300Z CCA 22007KT 15SM SCT045 BKN090 16/12 A2990 RMK SC4AC2 OCNL -SHRA SLP125

CYQB;2010-06-26 04:00;CYQB 260400Z 25004KT 15SM FEW045 BKN130 15/12 A2987 RMK SC2AC3 SLP117

CYQB;2010-06-26 05:00;CYQB 260500Z 26004KT 15SM BKN100 15/12 A2986 RMK AC6 SLP113

CYQB;2010-06-26 06:00;CYQB 260600Z 31006KT 15SM BKN080 16/13 A2986 RMK AC7 SLP113

CYQB;2010-06-26 07:00;CYQB 260700Z 20006KT 15SM FEW064 BKN080 BKN110 15/13 A2986 RMK SC2AC4AC2 SLP112

CYQB;2010-06-26 08:00;CYQB 260800Z CCA 25005KT 10SM -SHRA OVC078 15/12 A2985 RMK AC8 OCNL -SHRA SLP109

CYQB;2010-06-26 09:00;CYQB 260900Z 22003KT 10SM -SHRA OVC060 14/13 A2984 RMK SC8 SLP104

CYQB;2010-06-26 10:00;CYQB 261000Z 27004KT 15SM -SHRA FEW007 SCT045 OVC080 14/13 A2986 RMK SF1SC3AC4 SLP111

CYQB;2010-06-26 10:34;CYQB 261034Z 28003KT 20SM FEW006 FEW050 SCT080 BKN100 14/ RMK SF1SC2AC2AC3

CYQB;2010-06-26 11:00;CYQB 261100Z 25007KT 20SM FEW006 SCT050 BKN100 14/13 A2984 RMK SF1SC2AC2 SLP106

CYQB;2010-06-26 12:00;CYQB 261200Z 25007KT 20SM FEW006 FEW050 BKN100 15/13 A2984 RMK SF1SC2AC2 SLP107

CYQB;2010-06-26 13:00;CYQB 261300Z 26008KT 20SM FEW012 SCT040 BKN090 BKN260 17/14 A2984 RMK SC2CU2AC2CI0 SLP107

CYQB;2010-06-26 14:00;CYQB 261400Z 22008KT 20SM SCT019 SCT090 BKN230 19/13 A2983 RMK CU3AC1CI0 SLP104

CYQB;2010-06-26 15:00;CYQB 261500Z 25010G15KT 20SM SCT030 BKN230 20/13 A2982 RMK CU4CI0 SLP098

CYQB;2010-06-26 16:00;CYQB 261600Z 24009KT 20SM SCT036 BKN230 21/13 A2981 RMK CU3CI0 SLP094

CYQB;2010-06-26 17:00;CYQB 261700Z 29013G19KT 30SM SCT045 SCT090 BKN230 23/08 A2979 RMK CU3AC1CI0 SLP089

CYQB;2010-06-26 18:00;CYQB 261800Z 31014G27KT 30SM BKN071 22/09 A2979 RMK AC5 SLP087

CYQB;2010-06-26 18:10;CYQB 261810Z 33010KT 30SM -SHRA BKN074 21/ RMK AC6

CYQB;2010-06-26 18:25;CYQB 261825Z 33014KT 30SM BKN078 21/ RMK AC5

CYQB;2010-06-26 19:00;CYQB 261900Z 33012G17KT 30SM FEW040 SCT075 BKN130 BKN220 21/09 A2978 RMK CU2AC2AC1CI0 SLP084

CYQB;2010-06-26 20:00;CYQB 262000Z 30005KT 30SM FEW040 SCT090 BKN220 22/09 A2976 RMK CU1AC3CI0 SLP077

CYQB;2010-06-26 21:00;CYQB 262100Z 29005KT 30SM FEW060 SCT090 22/09 A2975 RMK SC2AC2 SLP074

CYQB;2010-06-26 22:00;CYQB 262200Z 24008KT 30SM SCT060 BKN220 21/11 A2974 RMK SC3CI0 SLP072

CYQB;2010-06-26 23:00;CYQB 262300Z 26006KT 30SM -SHRA FEW060 BKN078 20/12 A2976 RMK SC2AC3 SLP077

CYQB;2010-06-26 23:10;CYQB 262310Z 28005KT 30SM VCSH FEW060 BKN078 20/ RMK SC2AC2

CYQB;2010-06-27 00:00;CYQB 270000Z 32003KT 30SM FEW060 SCT120 BKN220 19/12 A2975 RMK SC2AC2CI0 TCU ASOCTD E VIRGA SLP076

CYQB;2010-06-27 01:00;CYQB 270100Z CCA 24006KT 30SM FEW060 SCT110 SCT220 16/11 A2976 RMK SC2AC2CI0 DIST CB SW SLP077

CYQB;2010-06-27 02:00;CYQB 270200Z 27004KT 15SM FEW080 SCT110 16/11 A2977 RMK AC1AC2 SLP080

CYQB;2010-06-27 03:00;CYQB 270300Z 27005KT 15SM SCT080 14/12 A2977 RMK AC3 SLP082

CYQB;2010-06-27 04:00;CYQB 270400Z 04002KT 15SM BKN080 14/11 A2979 RMK AC6 SLP087

CYQB;2010-06-27 05:00;CYQB 270500Z 00000KT 15SM BKN100 14/09 A2978 RMK AC6 SLP086

CYQB;2010-06-27 06:00;CYQB 270600Z 00000KT 15SM FEW100 12/09 A2978 RMK AC2 SLP085

CYQB;2010-06-27 07:00;CYQB 270700Z 36003KT 15SM SKC 12/08 A2979 RMK SLP087

CYQB;2010-06-27 08:00;CYQB 270800Z 36002KT 15SM SKC 11/07 A2979 RMK SLP088

CYQB;2010-06-27 09:00;CYQB 270900Z 02005KT 15SM FEW016 10/07 A2978 RMK ST2 OBS TAKEN +8 SLP086

CYQB;2010-06-27 10:00;CYQB 271000Z 01006KT 15SM BKN013 BKN120 11/07 A2978 RMK SC6AS1 SLP087

CYQB;2010-06-27 10:32;CYQB 271032Z 02002KT 15SM BKN008 11/ RMK SF7

CYQB;2010-06-27 11:00;CYQB 271100Z 01005KT 15SM BKN007 12/08 A2978 RMK SF7 SLP087

CYQB;2010-06-27 12:00;CYQB 271200Z 01004KT 15SM BKN006 OVC025 13/08 A2978 RMK SF6SC2 SLP087

CYQB;2010-06-27 12:40;CYQB 271240Z 01003KT 15SM SCT006 OVC027 14/ RMK SF4SC4

CYQB;2010-06-27 13:00;CYQB 271300Z 01002KT 15SM FEW006 SCT019 OVC025 15/10 A2978 RMK SF2SC2SC4 SLP086

CYQB;2010-06-27 14:00;CYQB 271400Z 25003KT 15SM SCT017 OVC200 17/13 A2976 RMK SC4CS2 SLP079

CYQB;2010-06-27 15:00;CYQB 271500Z 26011G16KT 15SM BKN019 BKN200 20/15 A2976 RMK SC6CS2 SLP078

CYQB;2010-06-27 16:00;CYQB 271600Z 27011KT 15SM BKN023 BKN200 21/15 A2974 RMK CU5CC1 SLP071

CYQB;2010-06-27 17:00;CYQB 271700Z 30005KT 15SM BKN032 BKN080 22/15 A2972 RMK CU5AC0 SLP065

CYQB;2010-06-27 18:00;CYQB 271800Z 21011KT 15SM BKN039TCU BKN100 24/15 A2969 RMK TCU5AC0 SLP055

CYQB;2010-06-27 19:00;CYQB 271900Z CCA 22013G22KT 15SM FEW034 SCT045TCU BKN100 23/13 A2969 RMK CU2TCU2AC2 SLP053

CYQB;2010-06-27 20:00;CYQB 272000Z 26012KT 20SM FEW040 FEW061TCU SCT100 BKN230 24/10 A2967 RMK CU2TCU1AC1CI2 SLP046

CYQB;2010-06-27 21:00;CYQB 272100Z 25010G17KT 20SM FEW042 FEW100 SCT230 24/12 A2964 RMK CU2AC1CI2 SLP039

CYQB;2010-06-27 22:00;CYQB 272200Z 25010G15KT 20SM FEW040 FEW100 SCT140 BKN230 23/12 A2965 RMK CU1AC2AS1CI2 SLP040

CYQB;2010-06-27 23:00;CYQB 272300Z 24004KT 20SM FEW040 SCT100 BKN140 BKN230 23/13 A2966 RMK CU1AC2AS2CI2 SLP043

CYQB;2010-06-28 00:00;CYQB 280000Z 08005KT 20SM FEW040 BKN100 BKN210 21/13 A2967 RMK CU1AC4CI2 SLP048

CYQB;2010-06-28 01:00;CYQB 280100Z 07014G19KT 15SM FEW040 SCT110 BKN220 17/09 A2969 RMK SC1AS3CI2 SLP053

CYQB;2010-06-28 02:00;CYQB 280200Z 07012KT 15SM FEW110 BKN220 17/09 A2969 RMK AC2CI3 SLP055

CYQB;2010-06-28 03:00;CYQB 280300Z 08009G16KT 15SM SCT180 OVC220 16/09 A2970 RMK AC4CI4 SLP056

CYQB;2010-06-28 04:00;CYQB 280400Z 07010KT 15SM SCT160 SCT200 BKN220 16/09 A2967 RMK AC3CI1CI2 SLP046

CYQB;2010-06-28 05:00;CYQB 280500Z 07006KT 15SM BKN150 BKN180 BKN220 16/09 A2965 RMK AC5AC1CI2 SLP042

CYQB;2010-06-28 06:00;CYQB 280600Z 08007G17KT 15SM OVC180 15/10 A2963 RMK AC8 SLP034

CYQB;2010-06-28 07:00;CYQB 280700Z 07011G19KT 15SM SCT140 BKN190 15/10 A2961 RMK AC3AC4 SLP029

CYQB;2010-06-28 08:00;CYQB 280800Z 07015G20KT 15SM FEW050 OVC120 16/10 A2958 RMK SC1AC7 SLP017

CYQB;2010-06-28 09:00;CYQB 280900Z 07016G25KT 15SM -SHRA BKN040 OVC090 16/10 A2958 RMK SC7AC1 SLP017

CYQB;2010-06-28 10:00;CYQB 281000Z 08016G24KT 20SM -SHRA BKN025 OVC070 15/10 A2957 RMK SC7AC1 SLP012

CYQB;2010-06-28 11:00;CYQB 281100Z 08017G25KT 20SM -SHRA BKN021 OVC065 14/09 A2955 RMK SC7AC1 SLP006

CYQB;2010-06-28 12:00;CYQB 281200Z 06015G26KT 20SM FEW021 OVC051 14/09 A2953 RMK SC2SC6 SLP002

CYQB;2010-06-28 13:00;CYQB 281300Z 07020G25KT 20SM SCT021 OVC045 15/09 A2953 RMK SC4SC4 SLP001

CYQB;2010-06-28 13:12;CYQB 281312Z 07019G29KT 15SM -SHRA SCT021 OVC043 15/ RMK SC4SC4

CYQB;2010-06-28 14:00;CYQB 281400Z 07013G24KT 12SM -SHRA OVC018 14/11 A2953 RMK SC8 SLP001

CYQB;2010-06-28 15:00;CYQB 281500Z 07017G27KT 12SM -SHRA BKN010 OVC026 14/11 A2951 RMK SC6SC2 VIS E 5 BR SLP994

CYQB;2010-06-28 16:00;CYQB 281600Z 07013G19KT 15SM BKN010 OVC021 14/12 A2953 RMK SC6SC2 VIS NE 5 BR SLP000

CYQB;2010-06-28 16:05;CYQB 281605Z 07017G22KT 15SM BKN007 OVC021 14/ RMK SF6SC2 VIS NE 5

CYQB;2010-06-28 17:00;CYQB 281700Z 09013G21KT 15SM SCT007 BKN010 OVC021 14/12 A2952 RMK SF4SC2SC2 VIS NE 5 BR SLP997

CYQB;2010-06-28 18:00;CYQB 281800Z 08011G21KT 15SM FEW007 BKN010 OVC018 14/12 A2953 RMK SF2SC4SC2 SLP000

CYQB;2010-06-28 19:00;CYQB 281900Z 07014KT 5SM -SHRA BR BKN008 OVC018 14/13 A2954 RMK SF7SC1 SLP005

CYQB;2010-06-28 19:47;CYQB 281947Z 07009G17KT 3SM -SHRA BR BKN006 OVC012 14/ RMK SF6SC2

CYQB;2010-06-28 20:00;CYQB 282000Z 07012KT 3SM -SHRA BR BKN006 OVC012 14/13 A2953 RMK SF6SC2 SLP002

CYQB;2010-06-28 21:00;CYQB 282100Z 07011KT 4SM -SHRA BR BKN006 OVC016 14/13 A2953 RMK SF6SC2 SLP001

CYQB;2010-06-28 21:16;CYQB 282116Z 07009G16KT 8SM BKN008 OVC010 14/ RMK SF6SC2

CYQB;2010-06-28 22:00;CYQB 282200Z 09007KT 8SM OVC006 14/13 A2954 RMK SF8 SLP005

CYQB;2010-06-28 23:00;CYQB 282300Z 08007KT 5SM BR OVC006 14/13 A2955 RMK SF8 SLP007

CYQB;2010-06-28 23:48;CYQB 282348Z 06004KT 5SM TS BR OVC006 14/ RMK SF8 CB EMBDD

CYQB;2010-06-29 00:00;CYQB 290000Z 00000KT 1 1/2SM +TSRA BR OVC006 15/13 A2957 RMK SF8 CB EMBDD SLP015

CYQB;2010-06-29 00:08;CYQB 290008Z 10010KT 3SM -TSRA BR BKN006 BKN010CB 14/ RMK SF5CB2 RERA

CYQB;2010-06-29 00:26;CYQB 290026Z 09008KT 5SM -SHRA BR BKN005 BKN120 14/ RMK SF6AC1 RETS RERA

CYQB;2010-06-29 01:00;CYQB 290100Z 06007KT 8SM OVC005 14/13 A2955 RMK SF8 RETS RERA SLP007

CYQB;2010-06-29 01:27;CYQB 290127Z 08008KT 8SM OVC007 14/ RMK SF8

CYQB;2010-06-29 02:00;CYQB 290200Z 08006KT 6SM BR OVC006 14/13 A2956 RMK ST8 SLP012

CYQB;2010-06-29 03:00;CYQB 290300Z 05006KT 6SM BR OVC004 14/13 A2958 RMK ST8 SLP017

CYQB;2010-06-29 04:00;CYQB 290400Z 05008KT 6SM -RA BR OVC005 14/13 A2957 RMK ST8 SLP015

CYQB;2010-06-29 05:00;CYQB 290500Z 06004KT 6SM BR BKN007 OVC023 14/13 A2958 RMK SF7SC1 SLP018

CYQB;2010-06-29 06:00;CYQB 290600Z 06004KT 6SM BR OVC004 14/13 A2960 RMK ST8 SLP023

CYQB;2010-06-29 07:00;CYQB 290700Z 05003KT 3SM -DZ BR OVC004 14/14 A2960 RMK ST8 SLP025

CYQB;2010-06-29 08:00;CYQB 290800Z 05002KT 1 1/2SM -DZ BR OVC003 14/14 A2962 RMK FG2ST6 SLP030

CYQB;2010-06-29 09:00;CYQB 290900Z 00000KT 1 1/4SM -DZ BR OVC002 14/14 A2964 RMK FG2ST6 SLP036

CYQB;2010-06-29 10:00;CYQB 291000Z 00000KT 1SM R06/P6000FT/D -DZ BR OVC008 14/14 A2967 RMK FG5ST3 SLP046

CYQB;2010-06-29 10:41;CYQB 291041Z 19004KT 2SM -DZ BR OVC006 14/ RMK FG2ST6

CYQB;2010-06-29 11:00;CYQB 291100Z 19002KT 2SM BR OVC009 14/14 A2968 RMK FG2ST6 SLP052

CYQB;2010-06-29 11:45;CYQB 291145Z 13002KT 1 1/4SM BR OVC003 14/ RMK FG5ST3

CYQB;2010-06-29 12:00;CYQB 291200Z 00000KT 1 1/4SM BR OVC003 15/14 A2970 RMK FG5ST3 SLP057

CYQB;2010-06-29 13:00;CYQB 291300Z 17003KT 1 1/4SM BR OVC005 15/15 A2970 RMK FG5ST3 SLP059

CYQB;2010-06-29 13:07;CYQB 291307Z 19003KT 2SM BR OVC006 15/ RMK FG4ST4

CYQB;2010-06-29 13:35;CYQB 291335Z 20003KT 5SM BR OVC005 16/ RMK ST8

CYQB;2010-06-29 14:00;CYQB 291400Z 22004KT 5SM BR OVC005 16/15 A2971 RMK ST8 SLP063

CYQB;2010-06-29 15:00;CYQB 291500Z 17004KT 8SM SCT005 BKN014 16/15 A2972 RMK SF4SC3 VIS LWR N-NE SLP067

CYQB;2010-06-29 16:00;CYQB 291600Z 26007KT 15SM FEW005 FEW015 BKN032 18/15 A2973 RMK SF1SC2SC5 SLP069

CYQB;2010-06-29 17:00;CYQB 291700Z 26010KT 30SM FEW020 SCT075 BKN110 19/14 A2974 RMK SC1AC3AC3 SLP072

CYQB;2010-06-29 18:00;CYQB 291800Z 23007KT 30SM FEW020 BKN062 BKN080 20/15 A2973 RMK SC2SC3AC1 SLP067

CYQB;2010-06-29 19:00;CYQB 291900Z 23010KT 30SM FEW025 BKN062 20/14 A2973 RMK CU2SC5 SLP068

CYQB;2010-06-29 20:00;CYQB 292000Z 26012KT 30SM FEW028 BKN051 19/13 A2974 RMK SC2SC6 SLP071

CYQB;2010-06-29 20:38;CYQB 292038Z 29011G17KT 30SM -SHRA FEW028 BKN049 17/ RMK SC2SC5 VIS W QUAD 4

CYQB;2010-06-29 21:00;CYQB 292100Z 30015KT 5SM -SHRA BR FEW028 OVC047 15/12 A2978 RMK SC2SC6 SLP085

CYQB;2010-06-29 22:00;CYQB 292200Z 03005KT 20SM -SHRA FEW011 SCT040 BKN084 15/12 A2979 RMK SF1SC3AC4 SLP089

CYQB;2010-06-29 22:15;CYQB 292215Z 34006KT 20SM FEW011 FEW040 BKN086 15/ RMK SF1SC2AC6

CYQB;2010-06-29 23:00;CYQB 292300Z 30003KT 30SM FEW015 BKN110 15/11 A2982 RMK SF1AC6 SLP098

CYQB;2010-06-30 00:00;CYQB 300000Z 29003KT 30SM FEW020 FEW120 15/11 A2984 RMK SC1AC2 SLP106

CYQB;2010-06-30 01:00;CYQB 300100Z 00000KT 20SM FEW040 BKN084 14/12 A2984 RMK SC1AC6 SLP106

CYQB;2010-06-30 02:00;CYQB 300200Z 26004KT 15SM -SHRA FEW040 BKN078 13/11 A2986 RMK SC2AC3 SLP112

CYQB;2010-06-30 02:27;CYQB 300227Z 31003KT 15SM SCT040 OVC110 13/ RMK SC3AC5

CYQB;2010-06-30 03:00;CYQB 300300Z 00000KT 15SM BKN040 12/11 A2986 RMK SC7 SLP113

CYQB;2010-06-30 04:00;CYQB 300400Z 00000KT 15SM FEW011 BKN040 12/11 A2987 RMK SF2SC5 SLP115

CYQB;2010-06-30 05:00;CYQB 300500Z 00000KT 15SM SCT011 OVC090 13/11 A2987 RMK SF4AC4 SLP116

CYQB;2010-06-30 06:00;CYQB 300600Z 03003KT 15SM SCT011 BKN090 12/11 A2987 RMK SF3AC4 SLP115

CYQB;2010-06-30 07:00;CYQB 300700Z 30002KT 8SM SCT010 OVC070 11/10 A2988 RMK ST4AC4 SLP119

CYQB;2010-06-30 08:00;CYQB 300800Z 00000KT 8SM BKN009 OVC070 11/10 A2988 RMK ST5AC3 SLP118

CYQB;2010-06-30 09:00;CYQB 300900Z 26004KT 8SM OVC006 12/11 A2987 RMK ST8 SLP116

CYQB;2010-06-30 10:00;CYQB 301000Z 34002KT 10SM OVC005 12/11 A2988 RMK SF8 VIS NW 4 BR SLP119

CYQB;2010-06-30 10:37;CYQB 301037Z 26006KT 15SM SCT005 BKN010 12/ RMK SF3SC3

CYQB;2010-06-30 11:00;CYQB 301100Z 24007KT 15SM FEW005 BKN010 BKN081 12/10 A2989 RMK SF2SC2AC2 SLP122

CYQB;2010-06-30 11:30;CYQB 301130Z 24009KT 20SM FEW010 FEW081 BKN190 13/ RMK SC2AC1CI2

CYQB;2010-06-30 12:00;CYQB 301200Z 24009KT 20SM FEW009 FEW150 BKN220 13/11 A2989 RMK SF2AC1CI0 SLP124

CYQB;2010-06-30 13:00;CYQB 301300Z 24010KT 25SM FEW049 SCT150 15/10 A2989 RMK SC2AC2 SLP124

CYQB;2010-06-30 14:00;CYQB 301400Z 24013KT 25SM BKN034 16/10 A2988 RMK SC5 SLP119

CYQB;2010-06-30 15:00;CYQB 301500Z 23017G25KT 25SM BKN036 OVC043 15/08 A2987 RMK SC6SC2 SLP117

CYQB;2010-06-30 16:00;CYQB 301600Z 24019G26KT 25SM BKN035 16/08 A2985 RMK SC7 SLP110

CYQB;2010-06-30 17:00;CYQB 301700Z 24022KT 25SM BKN037 17/09 A2985 RMK SC7 SLP109

CYQB;2010-06-30 17:07;CYQB 301707Z 26017G28KT 25SM -SHRA BKN037 16/ RMK SC7

CYQB;2010-06-30 18:00;CYQB 301800Z 28014G20KT 4SM -SHRA BR OVC040 13/10 A2988 RMK SC8 SLP119

CYQB;2010-06-30 19:00;CYQB 301900Z CCA 26010KT 20SM -SHRA SCT035 BKN047TCU 14/11 A2987 RMK SC3TCU4 VIS N 6 SLP118

CYQB;2010-06-30 19:38;CYQB 301938Z 25017KT 25SM FEW035 BKN070 BKN100 15/ RMK CU2AC4AC1 TCU W

CYQB;2010-06-30 19:50;CYQB 301950Z 24020KT 20SM -SHRA FEW025 BKN060TCU BKN100 15/ RMK SC2TCU4AC2 VIS W 3

CYQB;2010-06-30 20:00;CYQB 302000Z CCA 29026G40KT 4SM +SHRA BR BKN020 OVC060TCU 11/08 A2989 RMK SC5TCU3 VIS S 20 PRESRR WSHFT 1957 SLP122

CYQB;2010-06-30 20:18;CYQB 302018Z 27010G17KT 15SM -SHRA FEW020 BKN060TCU 11/ RMK SC2TCU5 VIS E 6 RERA

CYQB;2010-06-30 20:47;CYQB 302047Z CCA 25012G17KT 20SM FEW020 SCT060 13/ RMK SC1SC3 TCU E RERA

CYQB;2010-06-30 21:00;CYQB 302100Z 26017KT 25SM FEW020 SCT060 13/09 A2989 RERA RMK SC1SC2 SLP125

CYQB;2010-06-30 22:00;CYQB 302200Z 25012KT 25SM FEW025 FEW080 14/08 A2992 RMK SC2AC1 SLP132

CYQB;2010-06-30 23:00;CYQB 302300Z 24007KT 30SM SCT044 14/08 A2993 RMK SC3 SLP137

CYQB;2010-07-01 01:00;CYQB 010100Z 25005KT 30SM FEW035 FEW050 BKN068 13/09 A2994 RMK SC1SC2AC2 SLP141

CYQB;2010-07-01 02:00;CYQB 010200Z 26006KT 15SM FEW040 BKN060 10/09 A2995 RMK SC2SC4 SLP145

CYQB;2010-07-01 03:00;CYQB 010300Z 27008KT 15SM FEW060 10/08 A2994 RMK SC2 SLP142

CYQB;2010-07-01 04:00;CYQB 010400Z 26010KT 15SM FEW060 10/08 A2994 RMK SC1 SLP142

CYQB;2010-07-01 05:00;CYQB 010500Z 27008KT 15SM FEW060 10/08 A2996 RMK SC1 SLP147

CYQB;2010-07-01 06:00;CYQB 010600Z 27008KT 15SM FEW070 09/07 A2996 RMK SC1 SLP148

CYQB;2010-07-01 07:00;CYQB 010700Z 22006KT 15SM FEW071 09/07 A2997 RMK AC2 SLP149

CYQB;2010-07-01 08:00;CYQB 010800Z 08002KT 15SM SCT072 09/07 A2997 RMK SC4 SLP150

CYQB;2010-07-01 09:00;CYQB 010900Z 24002KT 15SM FEW070 FEW200 08/06 A2997 RMK SC1CI2 SLP149

CYQB;2010-07-01 10:00;CYQB 011000Z 24007KT 15SM FEW008 FEW030 FEW070 SCT200 09/07 A2998 RMK SF1SC1AC1CI2 SLP154

CYQB;2010-07-01 11:00;CYQB 011100Z 26006KT 25SM FEW011 FEW070 SCT200 10/07 A2999 RMK SC1AC2CI1 SLP158

CYQB;2010-07-01 12:00;CYQB 011200Z 25007KT 25SM FEW012 BKN084 BKN200 12/09 A3000 RMK CF1AC6CI0 SLP160

CYQB;2010-07-01 13:00;CYQB 011300Z 24009KT 15SM FEW015 BKN080 BKN200 13/09 A3000 RMK CF1AC6CI0 SLP160

CYQB;2010-07-01 14:00;CYQB 011400Z 25007KT 25SM SCT025 BKN083 BKN200 15/10 A2999 RMK CU3AC2CI0 SLP157

CYQB;2010-07-01 15:00;CYQB 011500Z 25008G16KT 25SM VCSH BKN029 BKN058 OVC085 15/10 A2998 RMK SC6SC2AC1 SLP155

CYQB;2010-07-01 16:00;CYQB 011600Z 28012KT 25SM VCSH SCT032 BKN048 OVC080 16/08 A2997 RMK SC4SC2AC2 SLP152

CYQB;2010-07-01 17:00;CYQB 011700Z 24015KT 25SM VCSH SCT040TCU BKN080 OVC120 18/10 A2996 RMK TCU4AC2AC2 SLP146

CYQB;2010-07-01 17:07;CYQB 011707Z 22017KT 25SM -SHRA FEW026 BKN040TCU BKN080 OVC120 16/ RMK SC2TCU2AC2AC2

CYQB;2010-07-01 18:00;CYQB 011800Z 23014G19KT 20SM -SHRA FEW020 BKN039TCU BKN065 16/11 A2995 RMK SC2TCU3SC2 SLP143

CYQB;2010-07-01 19:00;CYQB 011900Z 29012G17KT 25SM FEW025 SCT040TCU BKN066 16/10 A2996 RMK SC2TCU2SC4 SLP147

CYQB;2010-07-01 19:15;CYQB 011915Z 31014G19KT 20SM -SHRA FEW025 SCT040TCU BKN085 16/ RMK SC2TCU2AC3

CYQB;2010-07-01 19:41;CYQB 011941Z 29009KT 25SM FEW025 SCT045TCU BKN110 17/ RMK SC2TCU2AC3

CYQB;2010-07-01 20:00;CYQB 012000Z 32009KT 30SM FEW020 FEW038TCU BKN110 17/10 A2996 RMK SC2TCU1AC3 SLP148

CYQB;2010-07-01 20:48;CYQB 012048Z 30014G24KT 8SM -SHRA FEW023 BKN043TCU BKN110 15/ RMK SC2TCU3AC1

CYQB;2010-07-01 21:00;CYQB 012100Z 32005G24KT 20SM VCSH FEW023 SCT045TCU BKN085 15/12 A2998 RMK SC2TCU2AC2 SLP154

CYQB;2010-07-01 22:00;CYQB 012200Z 29005KT 20SM VCSH FEW020 BKN066TCU BKN100 16/10 A2999 RMK SC2TCU3AC2 SLP156

CYQB;2010-07-01 23:00;CYQB 012300Z 28007KT 20SM VCSH FEW020 SCT065 BKN100 16/11 A2999 RMK SC2CU2AC3 TCU ASCTD SLP158

CYQB;2010-07-02 00:00;CYQB 020000Z 28006KT 25SM FEW025 FEW050 BKN120 16/10 A3000 RMK CU1SC2AC3 SLP160

CYQB;2010-07-02 01:00;CYQB 020100Z 29008KT 25SM FEW035 FEW065 FEW120 13/09 A3001 RMK CU1SC1AC1 SLP165

CYQB;2010-07-02 02:00;CYQB 020200Z 25005KT 15SM FEW035 FEW065 FEW120 12/09 A3003 RMK CU1SC1AC1 SLP172

CYQB;2010-07-02 03:00;CYQB 020300Z 11002KT 15SM FEW065 11/09 A3005 RMK SC1 SLP178

CYQB;2010-07-02 04:00;CYQB 020400Z 25002KT 15SM FEW065 12/09 A3006 RMK SC1 SLP179

CYQB;2010-07-02 05:00;CYQB 020500Z 00000KT 15SM SKC 12/09 A3007 RMK SLP184

CYQB;2010-07-02 06:00;CYQB 020600Z 00000KT 15SM SKC 11/08 A3009 RMK SLP190

CYQB;2010-07-02 07:00;CYQB 020700Z 24006KT 15SM SKC 09/07 A3009 RMK SLP190

CYQB;2010-07-02 08:00;CYQB 020800Z 26003KT 15SM SKC 08/07 A3010 RMK SLP194

CYQB;2010-07-02 09:00;CYQB 020900Z 25007KT 25SM SKC 08/06 A3012 RMK SLP202

CYQB;2010-07-02 10:00;CYQB 021000Z 27004KT 25SM FEW220 10/08 A3014 RMK CI1 SLP206

CYQB;2010-07-02 11:00;CYQB 021100Z 27006KT 25SM FEW220 13/10 A3014 RMK CI1 SLP209

CYQB;2010-07-02 12:00;CYQB 021200Z 25004KT 25SM SCT220 15/09 A3016 RMK CI0 SLP213

CYQB;2010-07-02 13:00;CYQB 021300Z 20004KT 25SM FEW220 16/10 A3016 RMK CI0 SLP215

CYQB;2010-07-02 14:00;CYQB 021400Z 20009KT 25SM FEW030 FEW220 18/11 A3016 RMK SC1CI1 SLP215

CYQB;2010-07-02 15:00;CYQB 021500Z 17008KT 25SM FEW030 FEW220 20/12 A3015 RMK SC1CI1 SLP211

CYQB;2010-07-02 16:00;CYQB 021600Z 33009KT 25SM FEW030 FEW220 22/08 A3014 RMK SC1CI0 SLP206

CYQB;2010-07-02 17:00;CYQB 021700Z 30010KT 25SM FEW030 FEW220 24/10 A3012 RMK SC1CI0 SLP201

CYQB;2010-07-02 18:00;CYQB 021800Z 29004KT 25SM FEW030 FEW220 24/08 A3010 RMK SC1CI0 SLP194

CYQB;2010-07-02 19:00;CYQB 021900Z 27009KT 30SM FEW070 FEW240 25/09 A3008 RMK CU1CI0 SLP188

CYQB;2010-07-02 20:00;CYQB 022000Z 25012KT 30SM FEW075 BKN240 24/10 A3007 RMK AC2CI0 SLP184

CYQB;2010-07-02 21:00;CYQB 022100Z 24011G20KT 30SM FEW075 BKN240 24/11 A3005 RMK AC2CI1 SLP177

CYQB;2010-07-02 22:00;CYQB 022200Z 24015KT 30SM FEW060 FEW120 BKN240 24/11 A3004 RMK CU1AC1CI6 SLP174

CYQB;2010-07-02 23:00;CYQB 022300Z 24010KT 30SM FEW060 FEW120 OVC230 22/12 A3002 RMK CU1AC1CI7 SLP167

CYQB;2010-07-03 00:00;CYQB 030000Z 23008KT 30SM FEW060 FEW120 OVC220 21/12 A3002 RMK CU1AC1CI7 SLP165

CYQB;2010-07-03 01:00;CYQB 030100Z 25005KT 20SM BKN130 OVC220 20/12 A3002 RMK AC6CI2 SLP167

CYQB;2010-07-03 02:00;CYQB 030200Z 25007KT 15SM BKN120 OVC220 20/13 A3003 RMK AC6CI2 SLP168

CYQB;2010-07-03 02:15;CYQB 030215Z 25007KT 15SM -SHRA OVC110 19/ RMK AC8 ACC ASOCTD

CYQB;2010-07-03 03:00;CYQB 030300Z 26008KT 15SM OVC090 19/13 A3003 RMK AC8 SLP170

CYQB;2010-07-03 03:24;CYQB 030324Z 25008KT 15SM -SHRA OVC090 19/ RMK AC8 ACC ASOCTD

CYQB;2010-07-03 04:00;CYQB 030400Z 26007KT 15SM -SHRA OVC080 18/14 A3003 RMK ACC8 SLP170

CYQB;2010-07-03 05:00;CYQB 030500Z 20003KT 15SM -SHRA OVC100 17/13 A3003 RMK ACC8 SLP168

CYQB;2010-07-03 06:00;CYQB 030600Z 24003KT 15SM -SHRA OVC095 16/14 A3001 RMK ACC8 SLP162

CYQB;2010-07-03 06:30;CYQB 030630Z 25005KT 15SM OVC085 RMK ACC8

CYQB;2010-07-03 07:00;CYQB 030700Z 23004KT 15SM OVC075 16/14 A3001 RMK AC8 SLP162

CYQB;2010-07-03 08:00;CYQB 030800Z 21002KT 15SM OVC070 16/14 A3000 RMK AC8 SLP159

CYQB;2010-07-03 09:00;CYQB 030900Z 23002KT 15SM -SHRA BKN075 OVC100 16/14 A2998 RMK AC7AC1 SLP154

CYQB;2010-07-03 10:00;CYQB 031000Z 22003KT 15SM BKN075 BKN100 16/14 A2998 RMK AC6AC1 SLP153

CYQB;2010-07-03 11:00;CYQB 031100Z 26007KT 15SM FEW030 BKN100 BKN250 17/14 A2999 RMK CF1AC4CI1 SLP155

CYQB;2010-07-03 12:00;CYQB 031200Z 25014G19KT 15SM FEW030 FEW100 FEW250 18/13 A2998 RMK CU1AC1CI0 SLP152

CYQB;2010-07-03 13:00;CYQB 031300Z 24013G20KT 15SM FEW030 FEW100 FEW250 19/13 A2997 RMK CU1AC1CI0 SLP149

CYQB;2010-07-03 14:00;CYQB 031400Z 25014G19KT 15SM FEW030 FEW100 FEW250 22/14 A2995 RMK CU1AC1CI0 SLP143

CYQB;2010-07-03 15:00;CYQB 031500Z 25016KT 15SM FEW035 FEW120 SCT250 23/14 A2994 RMK CU1AC1CI0 SLP137

CYQB;2010-07-03 16:00;CYQB 031600Z 24013G18KT 20SM FEW040 FEW250 23/15 A2992 RMK CU1CI1 SLP132

CYQB;2010-07-03 17:00;CYQB 031700Z 24014G21KT 45SM FEW040 FEW090 FEW250 25/15 A2990 RMK CU1AC1CI0 SLP125

CYQB;2010-07-03 18:00;CYQB 031800Z 24019KT 45SM FEW040 BKN250 26/16 A2988 RMK CU1CI1 SLP117

CYQB;2010-07-03 19:00;CYQB 031900Z 25016G21KT 45SM FEW040 FEW180 BKN250 26/16 A2986 RMK CU1AC1CI1 SLP111

CYQB;2010-07-03 20:00;CYQB 032000Z 25015G20KT 45SM FEW045 BKN250 27/16 A2984 RMK CU1CI2 SLP105

CYQB;2010-07-03 21:00;CYQB 032100Z 25013G18KT 45SM FEW045 FEW190 BKN250 28/17 A2982 RMK CU1AC1CI2 SLP099

CYQB;2010-07-03 22:00;CYQB 032200Z 24012G17KT 45SM FEW040 FEW080 FEW190 BKN250 27/16 A2981 RMK CU1AC1AC1CI2 SLP095

CYQB;2010-07-03 23:00;CYQB 032300Z 23008KT 45SM FEW040 FEW080 FEW140 BKN240 26/17 A2981 RMK CU1AC1AC1CI2 SLP095

CYQB;2010-07-04 00:00;CYQB 040000Z 22007KT 30SM FEW035 SCT110 SCT150 BKN240 25/17 A2981 RMK CU1AC2AC1CI1 SLP093

CYQB;2010-07-04 01:00;CYQB 040100Z 24008KT 30SM FEW030 FEW070 SCT110 BKN200 24/17 A2980 RMK CU1AC2AC2CI2 SLP092

CYQB;2010-07-04 02:00;CYQB 040200Z 25013KT 15SM FEW030 SCT100 BKN210 24/17 A2981 RMK CF1AC2CI2 SLP095

CYQB;2010-07-04 03:00;CYQB 040300Z 25011KT 15SM FEW100 BKN210 23/17 A2981 RMK AC2CI2 SLP093

CYQB;2010-07-04 04:00;CYQB 040400Z 23010KT 15SM FEW100 BKN210 23/17 A2981 RMK AC2CI2 SLP093

CYQB;2010-07-04 05:00;CYQB 040500Z 23009KT 15SM BKN130 OVC210 23/17 A2981 RMK AC5CI2 SLP093

CYQB;2010-07-04 05:47;CYQB 040547Z 23008KT 15SM -SHRA FEW100 OVC120 21/ RMK AC2ACC6

CYQB;2010-07-04 06:00;CYQB 040600Z 23009KT 15SM -SHRA SCT100 OVC120 21/17 A2982 RMK AC3ACC5 SLP097

CYQB;2010-07-04 07:00;CYQB 040700Z 24007KT 15SM FEW100 BKN150 21/16 A2982 RMK AC2AC3 SLP097

CYQB;2010-07-04 08:00;CYQB 040800Z 24006KT 15SM FEW100 BKN140 20/16 A2981 RMK AC2AC5 SLP096

CYQB;2010-07-04 09:00;CYQB 040900Z 24007KT 15SM FEW120 BKN160 20/16 A2982 RMK AC2AC5 SLP098

CYQB;2010-07-04 10:00;CYQB 041000Z 29008KT 20SM FEW120 BKN160 BKN220 19/16 A2983 RMK AC2AC3CI0 SLP102

CYQB;2010-07-04 11:00;CYQB 041100Z 23006KT 20SM FEW120 BKN170 BKN220 20/16 A2984 RMK AC2AC3CI1 SLP105

CYQB;2010-07-04 12:00;CYQB 041200Z 25012KT 20SM FEW070 BKN120 OVC220 21/17 A2985 RMK AC2AC4CI0 SLP107

CYQB;2010-07-04 13:00;CYQB 041300Z 23012KT 20SM FEW070 FEW150 OVC240 23/17 A2984 RMK AC1AC1CI4 SLP105

CYQB;2010-07-04 14:00;CYQB 041400Z 24010KT 20SM FEW030 FEW150 BKN240 24/17 A2984 RMK CU1AC1CI4 SLP104

CYQB;2010-07-04 15:00;CYQB 041500Z 24010G17KT 20SM FEW030 FEW150 BKN240 26/18 A2984 RMK CU1AC1CI2 SLP105

CYQB;2010-07-04 16:00;CYQB 041600Z 25012G18KT 25SM BKN063 BKN150 BKN240 25/18 A2984 RMK SC5AC2CI1 SLP104

CYQB;2010-07-04 17:00;CYQB 041700Z 24014KT 25SM -SHRA SCT060 BKN140 OVC240 25/17 A2982 RMK SC3AC2CI2 SLP099

CYQB;2010-07-04 18:00;CYQB 041800Z 26011G17KT 20SM -SHRA FEW040 BKN085 OVC140 23/18 A2983 RMK SC1AC6ACC2 SLP100

CYQB;2010-07-04 18:28;CYQB 041828Z 27008KT 20SM FEW050 OVC094 24/ RMK SC1AC7

CYQB;2010-07-04 19:00;CYQB 041900Z 25009KT 20SM FEW050 BKN090 BKN240 25/19 A2982 RMK SC1AC6CI1 SLP097

CYQB;2010-07-04 20:00;CYQB 042000Z 25011KT 20SM FEW040 BKN090 BKN300 25/17 A2981 RMK SC1AC6CI1 SLP095

CYQB;2010-07-04 21:00;CYQB 042100Z 25013KT 20SM FEW040 BKN067 BKN200 25/17 A2982 RMK SC1AC5CI2 SLP097

CYQB;2010-07-04 22:00;CYQB 042200Z 27009KT 20SM BKN057 BKN140 24/17 A2983 RMK SC5AC2 SLP101

CYQB;2010-07-04 23:00;CYQB 042300Z 23009KT 20SM BKN057 BKN110 22/17 A2984 RMK SC5AC2 SLP105

CYQB;2010-07-05 01:00;CYQB 050100Z 27003KT 25SM FEW055 BKN096 21/17 A2985 RMK SC2AC6 SLP108

CYQB;2010-07-05 02:00;CYQB 050200Z 22003KT 15SM SCT047 BKN085 21/17 A2986 RMK SC3AC4 SLP113

CYQB;2010-07-05 03:00;CYQB 050300Z 27002KT 15SM FEW047 BKN064 BKN085 21/17 A2986 RMK SC2SC3AC2 SLP110

CYQB;2010-07-05 04:00;CYQB 050400Z 11004KT 15SM FEW045 BKN064 21/17 A2985 RMK SC2SC5 SLP109

CYQB;2010-07-05 05:00;CYQB 050500Z 36002KT 15SM FEW045 BKN070 21/18 A2985 RMK SC2AC6 SLP107

CYQB;2010-07-05 06:00;CYQB 050600Z 02002KT 15SM FEW045 BKN070 21/18 A2984 RMK SC2AC6 SLP106

CYQB;2010-07-05 07:00;CYQB 050700Z 00000KT 15SM FEW080 OVC120 21/18 A2983 RMK AC2AC6 SLP103

CYQB;2010-07-05 08:00;CYQB 050800Z 00000KT 15SM OVC100 20/18 A2984 RMK AC8 SLP106

CYQB;2010-07-05 09:00;CYQB 050900Z 00000KT 20SM BKN100 BKN220 20/18 A2986 RMK AC6CI1 SLP111

CYQB;2010-07-05 10:00;CYQB 051000Z 00000KT 25SM FEW100 SCT220 19/17 A2986 RMK AC2CI0 SLP112

CYQB;2010-07-05 11:00;CYQB 051100Z 24004KT 20SM FEW100 SCT220 21/17 A2988 RMK AC2CI0 SLP119

CYQB;2010-07-05 12:00;CYQB 051200Z 23009KT 15SM FEW100 SCT220 22/17 A2988 RMK AC1CI0 HAZY SLP118

CYQB;2010-07-05 13:00;CYQB 051300Z 26007KT 15SM FEW220 23/17 A2989 RMK CI1 HAZY SLP122

CYQB;2010-07-05 14:00;CYQB 051400Z 19005KT 15SM FEW220 24/18 A2986 RMK CI1 SLP113

CYQB;2010-07-05 15:00;CYQB 051500Z 24007KT 15SM FEW220 26/19 A2986 RMK CI1 SLP113

CYQB;2010-07-05 16:00;CYQB 051600Z 23006KT 15SM SCT050 OVC220 26/19 A2986 RMK SC4CI2 SLP112

CYQB;2010-07-05 17:00;CYQB 051700Z 25009KT 6SM HZ SCT050 BKN100 28/20 A2984 RMK SC4AC3 SLP104

CYQB;2010-07-05 18:00;CYQB 051800Z 23007KT 6SM HZ FEW045 FEW080 BKN100 30/21 A2982 RMK SC1AC2AC2 SLP096

CYQB;2010-07-05 19:00;CYQB 051900Z 25011KT 6SM HZ BKN200 31/20 A2981 RMK CI4 SLP092

CYQB;2010-07-05 20:00;CYQB 052000Z 25011KT 6SM HZ FEW050 SCT100 BKN150 31/22 A2979 RMK SC1AC2AC1 SLP088

CYQB;2010-07-05 21:00;CYQB 052100Z 25015KT 6SM HZ FEW050 FEW100 BKN160 32/22 A2978 RMK SC1AC2AC2 SLP085

CYQB;2010-07-05 22:00;CYQB 052200Z 25010KT 8SM FEW060 BKN100 30/22 A2979 RMK CU2AC6 SLP086

CYQB;2010-07-05 23:00;CYQB 052300Z 24013G19KT 8SM OVC085 30/22 A2980 RMK AC7 SLP089

CYQB;2010-07-06 00:00;CYQB 060000Z 26004KT 8SM OVC063 28/22 A2981 RMK SC8 SLP095

CYQB;2010-07-06 01:00;CYQB 060100Z 31011G16KT 8SM OVC053 28/22 A2984 RMK SC8 SLP104

CYQB;2010-07-06 02:00;CYQB 060200Z 33004KT 6SM -SHRA OVC046 26/23 A2986 RMK SC8 SLP110

CYQB;2010-07-06 03:00;CYQB 060300Z 36005KT 6SM BR OVC086 25/22 A2986 RMK AC8 SLP110

CYQB;2010-07-06 04:00;CYQB 060400Z 33002KT 10SM FEW050 OVC099 24/22 A2986 RMK SC2AC6 SLP111

CYQB;2010-07-06 05:00;CYQB 060500Z 00000KT 4SM BR FEW050 OVC100 23/22 A2988 RMK SC2AC6 SLP116

CYQB;2010-07-06 06:00;CYQB 060600Z 00000KT 4SM BR FEW065 OVC075 23/22 A2989 RMK SC2AC6 SLP119

CYQB;2010-07-06 07:00;CYQB 060700Z 00000KT 8SM FEW060 OVC094 24/22 A2990 RMK SC2AC6 SLP123

CYQB;2010-07-06 08:00;CYQB 060800Z 00000KT 10SM FEW078 OVC092 23/22 A2991 RMK AC2AC6 SLP126

CYQB;2010-07-06 09:00;CYQB 060900Z 35003KT 15SM FEW010 SCT095 23/21 A2992 RMK ST1AC2 MTS TOPS OBSC N SLP132

CYQB;2010-07-06 10:00;CYQB 061000Z 00000KT 15SM FEW100 BKN280 23/21 A2995 RMK AC1CI0 ACC TOPS SW SLP140

CYQB;2010-07-06 11:00;CYQB 061100Z 03006KT 35SM FEW100 BKN280 25/21 A2997 RMK AC1CI1 VIS NE-SE 5 SLP148

CYQB;2010-07-06 12:00;CYQB 061200Z 06006KT 5SM HZ FEW100 BKN280 23/21 A2999 RMK AC1CI1 SLP155

CYQB;2010-07-06 12:37;CYQB 061237Z CCA 08006KT 1 1/4SM BR SCT001 BKN280 22/ RMK SF3CI0 VIS SW-NW 21/2

CYQB;2010-07-06 13:00;CYQB 061300Z 04008KT 2 1/2SM BR SCT001 BKN280 22/19 A3000 RMK SF4CI0 SLP160

CYQB;2010-07-06 13:35;CYQB 061335Z 05010KT 6SM BR SCT005 SCT015 BKN280 23/ RMK SF4CF1CI0

CYQB;2010-07-06 14:00;CYQB 061400Z 12006KT 8SM FEW005 FEW018 FEW120 BKN280 23/20 A3001 RMK SF0CF1AC1CI1 HAZY SLP161

CYQB;2010-07-06 15:00;CYQB 061500Z 11004KT 12SM FEW020 BKN280 25/20 A3001 RMK CU1CI1 HAZY SLP161

CYQB;2010-07-06 16:00;CYQB 061600Z 06006KT 25SM FEW024TCU SCT280 27/21 A3000 RMK TCU1CI1 HAZY SLP159

CYQB;2010-07-06 17:00;CYQB 061700Z 08004KT 30SM FEW026TCU FEW280 28/21 A3000 RMK TCU1CI1 SLP157

CYQB;2010-07-06 18:00;CYQB 061800Z 07005KT 30SM FEW040TCU FEW080 BKN280 28/20 A2998 RMK TCU2AC1CI1 SLP153

CYQB;2010-07-06 19:00;CYQB 061900Z 22005KT 30SM FEW040TCU FEW080 SCT280 31/19 A2997 RMK TCU1AC1CI1 SLP149

CYQB;2010-07-06 20:00;CYQB 062000Z 24008KT 30SM FEW040 FEW080 FEW280 32/19 A2997 RMK CU1AC1CI1 SLP147

CYQB;2010-07-06 21:00;CYQB 062100Z 23009KT 30SM FEW040 FEW080 32/19 A2996 RMK CU1AC2 SLP145

CYQB;2010-07-06 22:00;CYQB 062200Z 20004KT 30SM FEW040 BKN085 30/20 A2996 RMK CU1AC4 SLP144

CYQB;2010-07-06 23:00;CYQB 062300Z 23004KT 25SM FEW040 BKN085 30/19 A2996 RMK CU1AC6 SLP145

CYQB;2010-07-07 00:00;CYQB 070000Z 14003KT 25SM FEW040 SCT080 28/21 A2997 RMK CU1AC3 SLP149

CYQB;2010-07-07 01:00;CYQB 070100Z 06004KT 20SM FEW040 FEW080 25/19 A2997 RMK CU1AC1 SLP148

CYQB;2010-07-07 02:00;CYQB 070200Z 05005KT 15SM FEW080 24/19 A2999 RMK AC2 SLP154

CYQB;2010-07-07 03:00;CYQB 070300Z 08003KT 15SM SCT088 23/19 A2998 RMK AC3 SLP153

CYQB;2010-07-07 04:00;CYQB 070400Z 04003KT 15SM FEW080 24/20 A2997 RMK AC2 SLP149

CYQB;2010-07-07 05:00;CYQB 070500Z 31009KT 15SM BKN049 23/20 A2998 RMK SC5 SLP153

CYQB;2010-07-07 06:00;CYQB 070600Z 06004KT 15SM BKN050 OVC095 24/21 A2997 RMK SC5AC3 SLP148

CYQB;2010-07-07 07:00;CYQB 070700Z 00000KT 15SM BKN090 23/21 A2997 RMK AC5 SLP149

CYQB;2010-07-07 08:00;CYQB 070800Z 32002KT 15SM BKN090 23/21 A2996 RMK AC5 SLP145

CYQB;2010-07-07 09:00;CYQB 070900Z 27002KT 15SM FEW100 SCT250 22/21 A2997 RMK AC2CI0 SLP148

CYQB;2010-07-07 10:00;CYQB 071000Z 27002KT 20SM FEW100 FEW250 22/21 A2998 RMK AC1CI1 SLP152

CYQB;2010-07-07 11:00;CYQB 071100Z 24006KT 10SM FEW250 24/21 A2999 RMK CI1 HAZY SLP156

CYQB;2010-07-07 12:00;CYQB 071200Z 26008KT 8SM FEW020 FEW250 26/22 A2999 RMK SC1CI1 SLP155

CYQB;2010-07-07 13:00;CYQB 071300Z 23008KT 6SM HZ FEW015 FEW250 27/23 A2998 RMK SC1CI1 SLP153

CYQB;2010-07-07 14:00;CYQB 071400Z 22009KT 6SM HZ FEW250 28/23 A2997 RMK CI1 SLP150

CYQB;2010-07-07 15:00;CYQB 071500Z 22011KT 5SM HZ FEW250 30/23 A2997 RMK CI1 SLP149

CYQB;2010-07-07 16:00;CYQB 071600Z 25011KT 6SM HZ FEW032 FEW250 31/22 A2997 RMK SC1CI1 SLP147

CYQB;2010-07-07 17:00;CYQB 071700Z 24011G16KT 10SM FEW040 FEW250 32/22 A2996 RMK CU1CI1 HAZY SLP145

CYQB;2010-07-07 18:00;CYQB 071800Z 24016KT 10SM FEW040 FEW250 33/22 A2995 RMK CU1CI1 SLP142

CYQB;2010-07-07 19:00;CYQB 071900Z 24015G20KT 10SM FEW050 FEW250 33/21 A2995 RMK CU1CI1 SLP140

CYQB;2010-07-07 20:00;CYQB 072000Z 24013G18KT 15SM FEW050 FEW250 33/22 A2994 RMK CU1CI0 SLP139

CYQB;2010-07-07 21:00;CYQB 072100Z 24013KT 15SM FEW050 FEW250 33/22 A2994 RMK CU1CI0 SLP138

CYQB;2010-07-07 22:00;CYQB 072200Z 26009KT 15SM FEW050 33/22 A2994 RMK CU1 SLP138

CYQB;2010-07-07 23:00;CYQB 072300Z 24009KT 15SM FEW045 32/22 A2994 RMK CU1 SLP138

CYQB;2010-07-08 00:00;CYQB 080000Z 25007KT 15SM FEW045 30/22 A2994 RMK CU2 SLP138

CYQB;2010-07-08 01:00;CYQB 080100Z CCA 27002KT 15SM FEW040 SCT250 29/21 A2996 RMK CU2CI0 CB TOPS N SLP143

CYQB;2010-07-08 02:00;CYQB 080200Z 00000KT 10SM FEW073 27/22 A2995 RMK AC2 HAZY SLP142

CYQB;2010-07-08 03:00;CYQB 080300Z 00000KT 10SM SCT071 27/21 A2996 RMK AC4 HAZY SLP145

CYQB;2010-07-08 04:00;CYQB 080400Z 00000KT 10SM FEW060 27/21 A2996 RMK SC2 HAZY SLP145

CYQB;2010-07-08 05:00;CYQB 080500Z 07009G15KT 10SM FEW060 FEW160 21/18 A2997 RMK SC1AC1 HAZY SLP149

CYQB;2010-07-08 06:00;CYQB 080600Z 06007KT 12SM FEW180 20/17 A2998 RMK AC1 HAZY SLP153

CYQB;2010-07-08 07:00;CYQB 080700Z 07005KT 12SM SCT070 SCT180 19/17 A2999 RMK AC3AC1 HAZY SLP154

CYQB;2010-07-08 08:00;CYQB 080800Z 09007KT 6SM BR SCT006 BKN070 19/17 A3000 RMK SF4AC2 SLP158

CYQB;2010-07-08 09:00;CYQB 080900Z 07005KT 5SM BR BKN005 OVC070 19/17 A3001 RMK ST6AC2 SLP161

CYQB;2010-07-08 09:49;CYQB 080949Z 07008KT 3SM BR OVC004 18/ RMK ST8

CYQB;2010-07-08 10:00;CYQB 081000Z 06006KT 3SM BR OVC004 18/17 A3001 RMK ST8 SLP163

CYQB;2010-07-08 11:00;CYQB 081100Z 07005KT 5SM BR OVC005 19/17 A3002 RMK ST8 SLP164

CYQB;2010-07-08 11:31;CYQB 081131Z 06005KT 5SM BR SCT006 OVC011 19/ RMK SF3SC5

CYQB;2010-07-08 12:00;CYQB 081200Z 06007KT 5SM HZ FEW006 OVC014 20/17 A3002 RMK SF2SC6 SLP165

CYQB;2010-07-08 13:00;CYQB 081300Z 04005KT 5SM HZ FEW006 BKN013 BKN064 21/18 A3002 RMK SF2SC5SC1 SLP165

CYQB;2010-07-08 13:45;CYQB 081345Z 08004KT 6SM HZ FEW012 BKN060 23/ RMK SC2SC3

CYQB;2010-07-08 14:00;CYQB 081400Z 10005KT 7SM FEW012 SCT060 24/19 A3000 RMK SC2SC2 SLP160

CYQB;2010-07-08 15:00;CYQB 081500Z 06004KT 8SM FEW020 SCT060 26/20 A3000 RMK CU2SC2 SLP158

CYQB;2010-07-08 16:00;CYQB 081600Z 04003KT 8SM FEW035 FEW060 27/20 A2998 RMK CU2SC1 SLP152

CYQB;2010-07-08 17:00;CYQB 081700Z 11003KT 8SM FEW035 FEW060 29/21 A2995 RMK CU2SC1 SLP143

CYQB;2010-07-08 18:00;CYQB 081800Z 25012G18KT 10SM FEW038 32/21 A2993 RMK CU2 SLP136

CYQB;2010-07-08 19:00;CYQB 081900Z 25012KT 15SM FEW048 32/20 A2992 RMK CU2 SLP131

CYQB;2010-07-08 20:00;CYQB 082000Z 26014KT 15SM FEW056 33/19 A2990 RMK CU2 TCU E SLP125

CYQB;2010-07-08 21:00;CYQB 082100Z 25010G18KT 30SM FEW050 33/20 A2988 RMK CU2 CB TOPS E SLP117

CYQB;2010-07-08 22:00;CYQB 082200Z 25009KT 30SM FEW045 32/20 A2987 RMK CU1 CB TOPS E SLP115

CYQB;2010-07-08 23:00;CYQB 082300Z 25006KT 30SM FEW045TCU FEW280 32/20 A2988 RMK TCU1CI1 SLP116

CYQB;2010-07-09 00:00;CYQB 090000Z 21003KT 30SM FEW040TCU FEW280 30/20 A2988 RMK TCU1CI1 CB TOPS E SLP117

CYQB;2010-07-09 01:00;CYQB 090100Z 27002KT 15SM FEW030TCU FEW250 27/21 A2987 RMK TCU1CI1 CB TOP S VIS LWR N SLP116

CYQB;2010-07-09 02:00;CYQB 090200Z 27002KT 15SM SKC 26/21 A2989 RMK SLP120

CYQB;2010-07-09 03:00;CYQB 090300Z 00000KT 15SM SKC 25/21 A2989 RMK SLP122

CYQB;2010-07-09 04:00;CYQB 090400Z 32002KT 15SM SCT049 25/20 A2988 RMK SC4 SLP119

CYQB;2010-07-09 05:00;CYQB 090500Z 22005KT 15SM FEW049 FEW130 25/21 A2988 RMK SC2AC1 SLP117

CYQB;2010-07-09 06:00;CYQB 090600Z 22009KT 12SM FEW140 25/21 A2989 RMK AC1 SLP120

CYQB;2010-07-09 07:00;CYQB 090700Z 25007KT 12SM FEW050 SCT150 25/21 A2988 RMK SC1AC2 SLP118

CYQB;2010-07-09 08:00;CYQB 090800Z 26007KT 12SM FEW050 FEW080 SCT140 24/21 A2989 RMK SC1AC1AC2 SLP121

CYQB;2010-07-09 09:00;CYQB 090900Z 26007KT 10SM FEW050 FEW140 SCT210 23/20 A2990 RMK SC1AC2CI0 SLP123

CYQB;2010-07-09 10:00;CYQB 091000Z 20007KT 20SM FEW050 FEW140 FEW210 23/20 A2991 RMK SC1AC1CI1 SLP126

CYQB;2010-07-09 11:00;CYQB 091100Z 23008KT 25SM FEW210 25/21 A2991 RMK CI1 SLP128

CYQB;2010-07-09 12:00;CYQB 091200Z 25007KT 25SM FEW210 26/21 A2991 RMK CI1 SLP127

CYQB;2010-07-09 13:00;CYQB 091300Z 18004KT 20SM FEW025 SCT210 27/22 A2990 RMK SC1CI1 SLP124

CYQB;2010-07-09 14:00;CYQB 091400Z 22004KT 20SM FEW025 FEW210 28/21 A2988 RMK CU1CI1 SLP118

CYQB;2010-07-09 15:00;CYQB 091500Z 21005KT 20SM FEW032 FEW120 SCT210 28/20 A2988 RMK CU1AC2CI0 SLP116

CYQB;2010-07-09 16:00;CYQB 091600Z 25005KT 20SM BKN057 BKN130 30/22 A2986 RMK SC5AC2 SLP112

CYQB;2010-07-09 17:00;CYQB 091700Z 21004KT 12SM FEW035 SCT055 BKN210 30/23 A2983 RMK SC2SC2CI2 HAZY SLP101

CYQB;2010-07-09 17:49;CYQB 091749Z 21008KT 20SM -SHRA FEW019 SCT055 BKN210 29/ RMK SC2SC2CI2

CYQB;2010-07-09 18:00;CYQB 091800Z 21006KT 20SM -SHRA FEW019 SCT055 BKN210 29/23 A2980 RMK SC2SC2CI2 SLP090

CYQB;2010-07-09 18:35;CYQB 091835Z 25005KT 20SM FEW019 SCT055 BKN130 31/ RMK SC2SC2AC2

CYQB;2010-07-09 19:00;CYQB 091900Z 21006KT 20SM FEW050TCU BKN130 31/23 A2976 RMK TCU2AC2 SLP076

CYQB;2010-07-09 19:12;CYQB 091912Z 27004KT 15SM TS SCT047TCU OVC120 30/ RMK TCU3AC4 CB EMBDD

CYQB;2010-07-09 19:23;CYQB 091923Z 17011KT 5SM R06/4500VP6000FT/D +TSRA BKN031TCU OVC120 27/ RMK TCU5AC2 CB EMBD OCNL LGT IC

CYQB;2010-07-09 19:33;CYQB 091933Z 17014G20KT 2 1/2SM +TSRA OVC027CB 24/ RMK CB8

CYQB;2010-07-09 19:41;CYQB 091941Z 21011G34KT 6SM -TSRA BR SCT008 BKN028CB OVC140 23/ RMK CF3CB3AC2 RERA VIS N QUAD 21/2

CYQB;2010-07-09 20:00;CYQB 092000Z 28017G28KT 20SM -TSRA FEW008 BKN054CB OVC140 23/20 A2982 RMK SF1CB5AC3 RERA VIS N 6 SLP096

CYQB;2010-07-09 20:53;CYQB 092053Z 29006KT 5SM -SHRA BR FEW008 OVC033 22/ RMK SF2SC6 RETS

CYQB;2010-07-09 21:00;CYQB 092100Z 31007KT 5SM -SHRA BR FEW021 OVC028 22/20 A2982 RMK SC2SC6 RETS SLP098

CYQB;2010-07-09 21:33;CYQB 092133Z 36010KT 10SM -SHRA FEW008 SCT028 OVC100 22/ RMK CF1SC4AC4

CYQB;2010-07-09 22:00;CYQB 092200Z 36003KT 20SM VCSH FEW008 FEW028 BKN047 OVC140 23/20 A2979 RMK CF1SC2SC3AC3 SLP089

CYQB;2010-07-09 23:00;CYQB 092300Z 08004KT 20SM FEW008 SCT047 OVC120 23/20 A2979 RMK SF1SC4AC4 SLP087

CYQB;2010-07-09 23:33;CYQB 092333Z 13004KT 20SM -SHRA FEW008 SCT050 OVC120 22/ RMK SF1SC3AC5

CYQB;2010-07-10 00:00;CYQB 100000Z 00000KT 15SM FEW012 SCT042 OVC120 22/20 A2978 RMK SF1SC3AC5 SLP084

CYQB;2010-07-10 00:25;CYQB 100025Z 00000KT 15SM -SHRA SCT017 SCT042 OVC120 22/ RMK SF3SC1AC4

CYQB;2010-07-10 00:33;CYQB 100033Z 00000KT 15SM -SHRA BKN012 OVC040 22/ RMK SF5SC3

CYQB;2010-07-10 01:00;CYQB 100100Z 29003KT 15SM -SHRA BKN012 OVC039 22/20 A2980 RMK SF6SC2 SLP089

CYQB;2010-07-10 01:25;CYQB 100125Z 29002KT 8SM -SHRA SCT012 OVC039 22/ RMK SF3SC5

CYQB;2010-07-10 02:00;CYQB 100200Z 26004KT 10SM FEW008 BKN017 OVC038 22/20 A2980 RMK SF2SF4SC2 OCNL -SHRA VIS LWR SE SLP091

CYQB;2010-07-10 03:00;CYQB 100300Z 26005KT 8SM -SHRA BKN010 OVC020 22/20 A2980 RMK SF5SC3 SLP090

CYQB;2010-07-10 04:00;CYQB 100400Z 00000KT 8SM FEW010 BKN018 BKN029 OVC047 21/20 A2978 RMK SF1SC6SC1SC1 OCNL -SHRA SLP085

CYQB;2010-07-10 05:00;CYQB 100500Z 18003KT 8SM FEW010 BKN020 OVC092 21/20 A2977 RMK SF1SC6AC2 SLP079

CYQB;2010-07-10 06:00;CYQB 100600Z 24003KT 6SM BR FEW030 OVC120 21/20 A2975 RMK SF1AC7 SLP074

CYQB;2010-07-10 07:00;CYQB 100700Z 24003KT 5SM BR FEW010 BKN120 21/20 A2975 RMK SF2AC5 SLP074

CYQB;2010-07-10 08:00;CYQB 100800Z 24007KT 5SM -SHRA BR OVC017 21/19 A2976 RMK SF8 SLP076

CYQB;2010-07-10 08:28;CYQB 100828Z 27005KT 5SM BR BKN030 OVC130 21/ RMK SF6AC2

CYQB;2010-07-10 09:00;CYQB 100900Z 27005KT 5SM -SHRA BR FEW030 OVC120 21/19 A2976 RMK SF2AC6 SLP078

CYQB;2010-07-10 10:00;CYQB 101000Z 25007KT 5SM BR FEW004 SCT070 OVC094 21/19 A2978 RMK SF2AC2AC4 SLP085

CYQB;2010-07-10 11:00;CYQB 101100Z 24008KT 5SM BR SCT005 OVC090 21/19 A2979 RMK SF4AC3 SLP088

CYQB;2010-07-10 12:00;CYQB 101200Z 25008KT 10SM FEW005 SCT090 OVC180 21/20 A2980 RMK SF1AC3AC4 TWR VIS 15 SLP090

CYQB;2010-07-10 13:00;CYQB 101300Z 24008KT 15SM FEW006 FEW012 SCT090 BKN230 22/20 A2980 RMK SF2CF1AC2CI2 CIG LWR SE-SW SLP092

CYQB;2010-07-10 14:00;CYQB 101400Z CCA 24010KT 15SM FEW012 SCT160 BKN230 24/20 A2981 RMK CU2AC2CI3 CIG S-SW LWR SLP096

CYQB;2010-07-10 15:00;CYQB 101500Z 25010KT 15SM FEW012 SCT029 BKN160 OVC230 24/19 A2981 RMK CF1CU3AC2CI2 MDT CU EMBD SLP096

CYQB;2010-07-10 16:00;CYQB 101600Z 21010KT 15SM FEW028 FEW160 OVC230 25/20 A2981 RMK CU2AC1CI6 SLP095

CYQB;2010-07-10 17:00;CYQB 101700Z 23015KT 20SM SCT031 BKN210 26/20 A2982 RMK CU4CI3 SLP097

CYQB;2010-07-10 18:00;CYQB 101800Z 23011KT 20SM FEW033 BKN240 27/20 A2981 RMK CU2CI2 SLP095

CYQB;2010-07-10 19:00;CYQB 101900Z 22013KT 20SM FEW033 BKN240 27/20 A2981 RMK CU2CI3 SLP096

CYQB;2010-07-10 20:00;CYQB 102000Z 26012KT 30SM FEW035 BKN240 28/19 A2981 RMK CU2CI2 TCU N SLP096

CYQB;2010-07-10 21:00;CYQB 102100Z 24013KT 30SM FEW040 BKN240 28/18 A2982 RMK CU1CI3 SLP097

CYQB;2010-07-10 22:00;CYQB 102200Z 27006KT 30SM FEW040 BKN240 27/16 A2982 RMK CU1CI3 SLP098

CYQB;2010-07-10 23:00;CYQB 102300Z 26008KT 30SM FEW040 BKN240 27/18 A2983 RMK CU1CI2 SLP100

CYQB;2010-07-11 00:00;CYQB 110000Z 23005KT 30SM FEW045 BKN240 26/18 A2983 RMK SC1CI3 SLP103

CYQB;2010-07-11 01:00;CYQB 110100Z 24005KT 30SM FEW050 BKN240 24/18 A2985 RMK SC1CI2 SLP109

CYQB;2010-07-11 02:00;CYQB 110200Z 24005KT 15SM BKN240 23/19 A2987 RMK CI2 SLP114

CYQB;2010-07-11 03:00;CYQB 110300Z 00000KT 15SM FEW240 22/19 A2988 RMK CI1 SLP118

CYQB;2010-07-11 04:00;CYQB 110400Z 00000KT 15SM SKC 21/18 A2989 RMK SLP121

CYQB;2010-07-11 05:00;CYQB 110500Z 35002KT 15SM SKC 22/18 A2989 RMK SLP121

CYQB;2010-07-11 06:00;CYQB 110600Z 00000KT 15SM SKC 20/17 A2989 RMK SLP120

CYQB;2010-07-11 07:00;CYQB 110700Z 02007KT 15SM SKC 20/17 A2988 RMK SLP118

CYQB;2010-07-11 08:00;CYQB 110800Z 36005KT 15SM FEW240 19/16 A2987 RMK CS1 SLP115

CYQB;2010-07-11 09:00;CYQB 110900Z 01004KT 30SM FEW012 FEW240 18/15 A2989 RMK SC1CS1 SLP120

CYQB;2010-07-11 10:00;CYQB 111000Z 01005KT 15SM VCFG FEW008 FEW050 SCT240 18/15 A2990 RMK ST1SC2CI1 SLP124

CYQB;2010-07-11 11:00;CYQB 111100Z 01003KT 30SM VCFG FEW085 SCT240 19/15 A2990 RMK AC2CI0 SLP125

CYQB;2010-07-11 12:00;CYQB 111200Z 00000KT 30SM FEW085 BKN240 22/16 A2992 RMK AC2CI1 SLP130

CYQB;2010-07-11 13:00;CYQB 111300Z 09003KT 30SM FEW050 FEW085 BKN240 23/17 A2991 RMK CU1AC1CI1 SLP129

CYQB;2010-07-11 14:00;CYQB 111400Z 07005KT 30SM FEW050 FEW085 BKN220 25/17 A2989 RMK CU1AC1CI2 SLP122

CYQB;2010-07-11 15:00;CYQB 111500Z 11003KT 30SM FEW050 BKN220 26/18 A2990 RMK CU2CI2 SLP126

CYQB;2010-07-11 16:00;CYQB 111600Z 02002KT 30SM FEW050 BKN220 28/18 A2990 RMK CU2CI2 SLP124

CYQB;2010-07-11 17:00;CYQB 111700Z 00000KT 30SM FEW050 BKN220 29/15 A2988 RMK CU2CI2 SLP118

CYQB;2010-07-11 18:00;CYQB 111800Z 00000KT 30SM FEW050 BKN210 29/13 A2986 RMK CU2CI2 SLP110

CYQB;2010-07-11 19:00;CYQB 111900Z 08003KT 30SM FEW050 BKN210 30/15 A2984 RMK CU2CI2 SLP106

CYQB;2010-07-11 20:00;CYQB 112000Z 17003KT 30SM FEW060 BKN210 30/15 A2983 RMK CU2CI2 SLP100

CYQB;2010-07-11 21:00;CYQB 112100Z 09002KT 30SM FEW060 BKN210 30/15 A2982 RMK CU2CI2 SLP097

CYQB;2010-07-11 22:00;CYQB 112200Z 06007KT 30SM FEW060 BKN210 28/16 A2981 RMK CU2CI2 SLP094

CYQB;2010-07-11 23:00;CYQB 112300Z 05005KT 30SM FEW060 BKN210 26/17 A2981 RMK CU2CI2 SLP096

CYQB;2010-07-12 00:00;CYQB 120000Z 07007KT 30SM FEW060 SCT210 25/17 A2981 RMK CU1CI1 SLP096

CYQB;2010-07-12 01:00;CYQB 120100Z 06006KT 30SM FEW060 FEW100 SCT210 24/17 A2983 RMK CU1AC1CI0 SLP100

CYQB;2010-07-12 02:00;CYQB 120200Z 03003KT 15SM FEW120 23/17 A2983 RMK AC2 SLP100

CYQB;2010-07-12 03:00;CYQB 120300Z 36003KT 15SM FEW120 21/17 A2983 RMK AC2 SLP101

CYQB;2010-07-12 04:00;CYQB 120400Z 35003KT 15SM FEW120 21/17 A2983 RMK AC2 SLP101

CYQB;2010-07-12 05:00;CYQB 120500Z 05004KT 15SM FEW120 21/16 A2983 RMK AC2 SLP103

CYQB;2010-07-12 06:00;CYQB 120600Z 01005KT 15SM FEW120 20/16 A2984 RMK AC2 SLP105

CYQB;2010-07-12 07:00;CYQB 120700Z 02005KT 15SM SKC 19/15 A2984 RMK SLP106

CYQB;2010-07-12 08:00;CYQB 120800Z 36004KT 15SM FEW120 19/15 A2984 RMK AC1 SLP104

CYQB;2010-07-12 09:00;CYQB 120900Z 04003KT 15SM FEW120 FEW240 17/15 A2985 RMK AC1CI1 SLP108

CYQB;2010-07-12 10:00;CYQB 121000Z 02004KT 25SM FEW240 18/15 A2986 RMK CI1 SLP113

CYQB;2010-07-12 11:00;CYQB 121100Z 01002KT 25SM FEW240 20/15 A2986 RMK CI1 SLP111

CYQB;2010-07-12 12:00;CYQB 121200Z 02002KT 25SM FEW240 22/16 A2987 RMK CI1 SLP114

CYQB;2010-07-12 13:00;CYQB 121300Z 00000KT 25SM SKC 23/17 A2987 RMK SLP114

CYQB;2010-07-12 14:00;CYQB 121400Z 21002KT 25SM FEW025 25/18 A2986 RMK CU1 SLP112

CYQB;2010-07-12 15:00;CYQB 121500Z 24007KT 25SM FEW035 27/19 A2987 RMK CU1 SLP115

CYQB;2010-07-12 16:00;CYQB 121600Z 21004KT 25SM FEW040 FEW240 28/17 A2986 RMK CU1CI1 SLP113

CYQB;2010-07-12 17:00;CYQB 121700Z 25002KT 20SM FEW045 FEW260 29/18 A2985 RMK CU1CI0 SLP107

CYQB;2010-07-12 18:00;CYQB 121800Z 21007KT 20SM FEW048 FEW260 29/17 A2983 RMK CU1CI1 SLP101

CYQB;2010-07-12 19:00;CYQB 121900Z 23011KT 30SM FEW050 FEW260 31/18 A2982 RMK CU1CI1 SLP097

CYQB;2010-07-12 20:00;CYQB 122000Z 24012G18KT 30SM FEW055 SCT280 30/17 A2981 RMK CU1CI1 SLP094

CYQB;2010-07-12 21:00;CYQB 122100Z 26010G15KT 30SM FEW060 BKN280 30/18 A2981 RMK CU1CI1 SLP094

CYQB;2010-07-12 22:00;CYQB 122200Z 26008KT 30SM FEW060 FEW180 BKN280 29/18 A2982 RMK CU1AC1CI2 SLP097

CYQB;2010-07-12 23:00;CYQB 122300Z 26005KT 30SM FEW060TCU FEW180 BKN280 28/18 A2982 RMK TCU1AC1CI1 SLP098

CYQB;2010-07-13 00:00;CYQB 130000Z 24005KT 30SM FEW060TCU FEW180 BKN260 26/18 A2983 RMK TCU1AC1CI4 SLP102

CYQB;2010-07-13 01:00;CYQB 130100Z 25003KT 15SM FEW060 BKN240 BKN260 25/18 A2984 RMK CU1CI5CI2 SLP106

CYQB;2010-07-13 02:00;CYQB 130200Z 27002KT 15SM FEW060 OVC240 23/18 A2986 RMK CU2CI6 SLP111

CYQB;2010-07-13 03:00;CYQB 130300Z 00000KT 15SM FEW060 OVC260 23/18 A2986 RMK CU2CI6 SLP112

CYQB;2010-07-13 04:00;CYQB 130400Z 00000KT 15SM FEW060 SCT120 BKN260 21/18 A2988 RMK CU2AC2CI3 SLP117

CYQB;2010-07-13 04:37;CYQB 130437Z 33002KT 10SM -SHRA BKN057TCU OVC120 22/ RMK TCU5AC3

CYQB;2010-07-13 05:00;CYQB 130500Z 00000KT 15SM BKN053 BKN120 21/19 A2989 RMK SC6AC2 EMBD TCU OCNL -SHRA SLP120

CYQB;2010-07-13 06:00;CYQB 130600Z 00000KT 15SM SCT060 BKN110 OVC150 22/19 A2989 RMK SC4AC3AC1 SLP123

CYQB;2010-07-13 07:00;CYQB 130700Z 00000KT 15SM FEW060 BKN140 BKN180 21/19 A2988 RMK SC2AC2AC2 SLP118

CYQB;2010-07-13 08:00;CYQB 130800Z 33004KT 10SM -SHRA FEW010 FEW025 BKN060 OVC120 20/19 A2991 RMK SF1SC1SC5AC2 SLP127

CYQB;2010-07-13 09:00;CYQB 130900Z 00000KT 15SM BKN060 OVC150 20/18 A2993 RMK SC5AC3 OCNL -SHRA SLP135

CYQB;2010-07-13 10:00;CYQB 131000Z 04002KT 25SM SCT060 OVC130 20/18 A2993 RMK SC3AC5 SLP134

CYQB;2010-07-13 11:00;CYQB 131100Z 03004KT 25SM FEW060 OVC120 20/19 A2992 RMK SC2AC6 SLP132

CYQB;2010-07-13 12:00;CYQB 131200Z 01004KT 25SM FEW060 OVC120 21/18 A2994 RMK SC1AC8 SLP139

CYQB;2010-07-13 13:00;CYQB 131300Z 05003KT 25SM OVC150 22/19 A2994 RMK AC8 SLP137

CYQB;2010-07-13 14:00;CYQB 131400Z 10006KT 20SM OVC120 24/20 A2994 RMK AC8 SLP137

CYQB;2010-07-13 15:00;CYQB 131500Z 10002KT 25SM OVC120 25/19 A2994 RMK AC8 SLP137

CYQB;2010-07-13 16:00;CYQB 131600Z 24004KT 25SM FEW070 OVC120 25/19 A2994 RMK AC1AC8 SLP137

CYQB;2010-07-13 17:00;CYQB 131700Z 24003KT 20SM FEW060 OVC110 25/20 A2993 RMK SC1AC8 SLP134

CYQB;2010-07-13 18:00;CYQB 131800Z 27004KT 10SM -SHRA FEW030 BKN055 OVC100 25/20 A2993 RMK CF2SC4AC2 SLP134

CYQB;2010-07-13 18:42;CYQB 131842Z 30005KT 15SM FEW015 SCT035 OVC110 25/ RMK CF2CU2AC4

CYQB;2010-07-13 18:52;CYQB 131852Z 31009KT 10SM -SHRA FEW015 BKN060 OVC110 24/ RMK CF2CU4AC2

CYQB;2010-07-13 19:00;CYQB 131900Z CCA 31007KT 10SM -SHRA FEW015 SCT060 OVC110 24/20 A2992 RMK CF2CU2ACC4 SLP133

CYQB;2010-07-13 19:31;CYQB 131931Z 33009KT 20SM FEW015 BKN048 OVC110 24/ RMK CF2SC4AC2

CYQB;2010-07-13 19:48;CYQB 131948Z 34004KT 15SM -SHRA FEW012 OVC060 23/ RMK CF2SC6

CYQB;2010-07-13 20:00;CYQB 132000Z 31004KT 15SM -SHRA FEW012 OVC065 23/20 A2992 RMK CF2SC6 SLP133

CYQB;2010-07-13 20:40;CYQB 132040Z 34007KT 20SM FEW012 OVC075 23/ RMK CF2AC6 SHWRS N

CYQB;2010-07-13 21:00;CYQB 132100Z CCA 34007KT 20SM FEW012 OVC060 23/19 A2992 RMK CF1SC7 SHWRS N SLP131

CYQB;2010-07-13 22:00;CYQB 132200Z 33002KT 20SM FEW012 OVC060 23/18 A2992 RMK CF2SC6 SHWRS ALQDS SLP132

CYQB;2010-07-13 22:26;CYQB 132226Z 25002KT 10SM -SHRA FEW010 OVC041 22/ RMK CF2SC6 TCU ASOCTD

CYQB;2010-07-13 22:35;CYQB 132235Z 19005KT 8SM -TSRA FEW010 OVC036TCU 22/ RMK CF2TCU6 CB ASOCTD LTGCC S

CYQB;2010-07-13 23:00;CYQB 132300Z 30003KT 10SM -TSRA FEW008 BKN042TCU OVC100 22/19 A2995 RMK CF1TCU5AC2 CB ASOCTD SLP141

CYQB;2010-07-13 23:52;CYQB 132352Z 34002KT 10SM -SHRA FEW008 SCT040TCU OVC080 20/ RETSRA RMK SF2TCU2AC4

CYQB;2010-07-14 00:00;CYQB 140000Z 00000KT 10SM -SHRA FEW008 SCT028 OVC046 20/19 A2995 RETSRA RMK SF2CF2CU3 SLP142

CYQB;2010-07-14 00:34;CYQB 140034Z 10005KT 5SM BR FEW005 FEW025 BKN110 BKN220 20/ RMK SF2CF1AC3CI1

CYQB;2010-07-14 01:00;CYQB 140100Z 36003KT 4SM BR BKN005 BKN110 BKN220 20/20 A2997 RMK SF3AC2CI1 SLP147

CYQB;2010-07-14 02:00;CYQB 140200Z 00000KT 5SM BR BKN009 OVC120 20/19 A2997 RMK SF4AC4 SLP149

CYQB;2010-07-14 03:00;CYQB 140300Z 01002KT 5SM BR FEW005 SCT009 OVC200 20/19 A2996 RMK SF2SF2CI4 SLP145

CYQB;2010-07-14 04:00;CYQB 140400Z 02004KT 3SM BR SCT007 BKN012 OVC060 20/19 A2996 RMK SF4SC3SC1 SLP145

CYQB;2010-07-14 04:30;CYQB 140430Z 04005KT 5SM BR FEW004 SCT012 OVC016 20/ RMK SF2SF2SC4

CYQB;2010-07-14 05:00;CYQB 140500Z 04006KT 6SM BR FEW009 OVC018 20/19 A2996 RMK SF2SC6 SLP144

CYQB;2010-07-14 06:00;CYQB 140600Z 36002KT 10SM FEW009 SCT018 OVC140 20/19 A2995 RMK SF2SC2AC5 SLP143

CYQB;2010-07-14 07:00;CYQB 140700Z 07005KT 10SM FEW010 SCT070 BKN150 OVC220 20/19 A2995 RMK SF1AC2AC4CI1 SLP143

CYQB;2010-07-14 08:00;CYQB 140800Z 36005KT 10SM BKN005 OVC060 19/19 A2995 RMK SF4SC4 SLP143

CYQB;2010-07-14 09:00;CYQB 140900Z 03004KT 15SM BKN060 BKN080 OVC130 19/18 A2996 RMK SC6AC2AC1 SLP145

CYQB;2010-07-14 10:00;CYQB 141000Z 02005KT 15SM FEW060 SCT130 OVC240 19/18 A2997 RMK SC2AC2CI3 SLP148

CYQB;2010-07-14 11:00;CYQB 141100Z 36006KT 15SM SCT030 OVC140 20/18 A2999 RMK SC4AC4 SLP154

CYQB;2010-07-14 12:00;CYQB 141200Z 03005KT 15SM BKN031 OVC140 21/19 A3000 RMK SC6AC2 SLP158

CYQB;2010-07-14 13:00;CYQB 141300Z 06008KT 20SM SCT035 BKN140 BKN240 22/19 A3000 RMK SC3AC2CI2 SLP159

CYQB;2010-07-14 14:00;CYQB 141400Z 08007KT 25SM FEW020 FEW240 24/19 A3000 RMK CU1CI1 SLP160

CYQB;2010-07-14 15:00;CYQB 141500Z 08008KT 25SM FEW020 FEW240 25/19 A3000 RMK SC1CI1 SLP158

CYQB;2010-07-14 16:00;CYQB 141600Z 09006KT 25SM FEW020 FEW240 26/18 A3000 RMK SC2CI0 SLP158

CYQB;2010-07-14 17:00;CYQB 141700Z 07007KT 30SM SCT060 BKN240 26/19 A2999 RMK CU3CI0 SLP156

CYQB;2010-07-14 18:00;CYQB 141800Z 09007KT 30SM FEW060 SCT240 27/18 A2999 RMK CU2CI0 SLP154

CYQB;2010-07-14 19:00;CYQB 141900Z 09008KT 30SM FEW060 FEW240 27/18 A2999 RMK CU1CI0 SLP156

CYQB;2010-07-14 20:00;CYQB 142000Z 09010KT 30SM FEW060 FEW240 27/18 A2998 RMK CU1CI0 SLP152

CYQB;2010-07-14 21:00;CYQB 142100Z 07008KT 30SM FEW065 FEW240 28/16 A2998 RMK CU1CI0 SLP153

CYQB;2010-07-14 22:00;CYQB 142200Z 06007KT 30SM FEW060 SCT100 BKN240 27/16 A2999 RMK CU1AC3CI0 SLP156

CYQB;2010-07-14 23:00;CYQB 142300Z 07004KT 30SM FEW060 SCT100 27/16 A3000 RMK CU1AC3 SLP159

CYQB;2010-07-15 00:00;CYQB 150000Z 07003KT 30SM FEW055 FEW100 26/14 A3001 RMK CU1AC1 SLP161

CYQB;2010-07-15 01:00;CYQB 150100Z 33004KT 15SM FEW050 23/17 A3002 RMK SC1 SLP165

CYQB;2010-07-15 02:00;CYQB 150200Z 36002KT 15SM SKC 22/16 A3003 RMK SLP170

CYQB;2010-07-15 03:00;CYQB 150300Z 02005KT 15SM FEW025 22/15 A3004 RMK SC1 SLP172

CYQB;2010-07-15 04:00;CYQB 150400Z 04006KT 15SM FEW025 20/16 A3005 RMK SC1 SLP174

CYQB;2010-07-15 05:00;CYQB 150500Z 01003KT 15SM FEW070 20/16 A3004 RMK AC1 SLP173

CYQB;2010-07-15 06:00;CYQB 150600Z 36003KT 15SM SKC 20/16 A3006 RMK SLP180

CYQB;2010-07-15 07:00;CYQB 150700Z 01005KT 15SM SKC 19/15 A3005 RMK SLP175

CYQB;2010-07-15 08:00;CYQB 150800Z 02005KT 15SM FEW075 18/15 A3004 RMK AC1 SLP173

CYQB;2010-07-15 09:00;CYQB 150900Z 02005KT 15SM FEW070 18/14 A3006 RMK AC2 SLP179

CYQB;2010-07-15 10:00;CYQB 151000Z 01004KT 25SM FEW070 18/14 A3008 RMK AC2 SLP185

CYQB;2010-07-15 11:00;CYQB 151100Z 03004KT 25SM SCT074 19/15 A3008 RMK AC3 SLP185

CYQB;2010-07-15 12:00;CYQB 151200Z 01002KT 25SM FEW074 SCT240 21/16 A3007 RMK AC1CI0 SLP183

CYQB;2010-07-15 13:00;CYQB 151300Z 03002KT 25SM FEW030 BKN240 24/17 A3008 RMK SC1CI2 SLP184

CYQB;2010-07-15 14:00;CYQB 151400Z 00000KT 25SM FEW030 BKN240 25/17 A3009 RMK SC1CI1 SLP189

CYQB;2010-07-15 15:00;CYQB 151500Z 20004KT 25SM FEW032 OVC240 26/18 A3008 RMK CU1CI6 SLP184

CYQB;2010-07-15 16:00;CYQB 151600Z 22005KT 25SM FEW035 OVC240 28/18 A3006 RMK CU1CI6 SLP180

CYQB;2010-07-15 17:00;CYQB 151700Z 23008KT 25SM FEW035 BKN240 28/17 A3004 RMK CU1CI2 SLP173

CYQB;2010-07-15 18:00;CYQB 151800Z 25005KT 25SM FEW050 SCT240 29/17 A3002 RMK CU1CI1 SLP165

CYQB;2010-07-15 19:00;CYQB 151900Z 27004KT 25SM FEW050 FEW160 SCT240 29/17 A3000 RMK CU2AC1CI0 SLP159

CYQB;2010-07-15 20:00;CYQB 152000Z 18003KT 25SM FEW058 SCT180 SCT240 30/18 A2998 RMK CU2AC2CI0 SLP153

CYQB;2010-07-15 21:00;CYQB 152100Z 26002KT 30SM FEW060 FEW180 BKN240 30/19 A2997 RMK CU1AC2CC1 SLP147

CYQB;2010-07-15 22:00;CYQB 152200Z 28004KT 30SM FEW060 BKN200 BKN240 29/19 A2994 RMK CU1AC4CI1 SLP140

CYQB;2010-07-15 23:00;CYQB 152300Z 31003KT 30SM FEW060 BKN180 BKN240 28/19 A2994 RMK CU0AC5CI1 SLP139

CYQB;2010-07-16 00:00;CYQB 160000Z 09004KT 30SM FEW060 BKN190 BKN240 27/20 A2994 RMK CU1AC5CI1 SLP138

CYQB;2010-07-16 01:00;CYQB 160100Z 07007KT 15SM BKN180 BKN240 24/17 A2993 RMK AC6CI1 SLP136

CYQB;2010-07-16 02:00;CYQB 160200Z 07004KT 15SM FEW170 BKN240 23/18 A2993 RMK AC2CI4 SLP136

CYQB;2010-07-16 03:00;CYQB 160300Z 06005KT 15SM SCT240 23/16 A2993 RMK CI3 SLP134

CYQB;2010-07-16 04:00;CYQB 160400Z 07003KT 15SM BKN180 22/17 A2992 RMK AC6 SLP130

CYQB;2010-07-16 05:00;CYQB 160500Z 06004KT 15SM FEW080 BKN180 22/17 A2989 RMK AC2AC5 SLP122

CYQB;2010-07-16 06:00;CYQB 160600Z 03005KT 15SM FEW070 BKN160 22/17 A2987 RMK AC2AC5 SLP113

CYQB;2010-07-16 07:00;CYQB 160700Z CCA 00000KT 4SM SHRA BR BKN033 OVC140 20/18 A2988 RMK SC6AC2 SLP116

CYQB;2010-07-16 08:00;CYQB 160800Z 02005KT 15SM BKN035 BKN100 OVC150 20/19 A2985 RERA RMK SC6AC1AC1 OCNL -SHRA SLP107

CYQB;2010-07-16 08:14;CYQB 160814Z 03006KT 15SM BKN036 OVC140 20/ RMK SC6AC2

CYQB;2010-07-16 09:00;CYQB 160900Z 06003KT 8SM BKN050 OVC130 20/19 A2985 RMK SC7AC1 SLP106

CYQB;2010-07-16 10:00;CYQB 161000Z 07003KT 6SM BR FEW002 BKN020 OVC060 21/20 A2984 RMK CF1CU6SC2 SLP104

CYQB;2010-07-16 11:00;CYQB 161100Z 01003KT 3SM BR FEW002 SCT020 OVC048 21/20 A2983 RMK CF1CU3SC4 SLP102

CYQB;2010-07-16 12:00;CYQB 161200Z 03002KT 3SM BR FEW002 BKN050 OVC100 21/20 A2983 RMK CF1CU5AC2 SLP100

CYQB;2010-07-16 13:00;CYQB 161300Z 06002KT 4SM BR FEW020 SCT050 OVC110 23/21 A2980 RMK CU2SC2AC4 SLP092

CYQB;2010-07-16 14:00;CYQB 161400Z 20003KT 5SM BR FEW020 FEW060 BKN140 OVC200 24/22 A2978 RMK CU1SC2AC3CI2 SLP084

CYQB;2010-07-16 15:00;CYQB 161500Z 21007KT 8SM FEW020 OVC076 25/22 A2977 RMK CU2AC6 SLP080

CYQB;2010-07-16 16:00;CYQB 161600Z 22007KT 8SM FEW020 BKN060 OVC140 26/22 A2975 RMK CU2SC2AC3 SLP072

CYQB;2010-07-16 17:00;CYQB 161700Z 23010KT 10SM FEW028 BKN058 OVC100 27/21 A2973 RMK CU2SC4AC2 SLP067

CYQB;2010-07-16 18:00;CYQB 161800Z 23011G16KT 8SM -SHRA FEW021 BKN044 OVC060 26/21 A2972 RMK CU2SC5SC2 SLP062

CYQB;2010-07-16 18:35;CYQB 161835Z 22013KT 8SM FEW030 BKN043 OVC060 26/ RMK CU2SC4SC2

CYQB;2010-07-16 19:00;CYQB 161900Z 22015G20KT 8SM FEW029 BKN040 OVC060 26/22 A2970 RMK CU2SC5SC2 SLP058

CYQB;2010-07-16 20:00;CYQB 162000Z 23012G17KT 8SM SCT028 BKN040 OVC060 26/21 A2968 RMK CU4SC3SC1 SLP051

CYQB;2010-07-16 21:00;CYQB 162100Z 23011G19KT 8SM FEW025 OVC047 26/21 A2967 RMK CU2SC6 SLP045

CYQB;2010-07-16 22:00;CYQB 162200Z 24009G18KT 8SM SCT023 BKN032 BKN090 23/21 A2966 RMK CU4SC2AC1 TCU EMBD SLP043

CYQB;2010-07-16 23:00;CYQB 162300Z 22008G16KT 10SM FEW021 BKN038 BKN220 25/21 A2965 RMK CU1SC4CI1 TCU EMBD E SW SLP040

CYQB;2010-07-17 00:00;CYQB 170000Z 22010KT 20SM FEW025 SCT040 BKN230 23/19 A2967 RMK CU1SC3CI2 CB ASCTD SW MOVG E SLP045

CYQB;2010-07-17 01:00;CYQB 170100Z 25006KT 15SM FEW025 FEW040 SCT100 BKN230 22/19 A2967 RMK CU1SC2AC2CI2 CB SE MOVG E SLP048

CYQB;2010-07-17 02:00;CYQB 170200Z 24005KT 15SM FEW020 FEW100 21/19 A2968 RMK SC1AC1 SLP050

CYQB;2010-07-17 03:00;CYQB 170300Z 24005KT 15SM FEW070 21/19 A2969 RMK AC1 SLP052

CYQB;2010-07-17 04:00;CYQB 170400Z 26006KT 15SM FEW070 21/20 A2969 RMK AC2 SLP052

CYQB;2010-07-17 05:00;CYQB 170500Z 26007KT 12SM FEW070 21/20 A2968 RMK AC1 SLP049

CYQB;2010-07-17 06:00;CYQB 170600Z 26008KT 8SM BKN012 BKN110 22/21 A2968 RMK SF7AC1 SLP050

CYQB;2010-07-17 07:00;CYQB 170700Z 24007KT 8SM BKN013 BKN100 22/21 A2968 RMK SF7AC1 SLP051

CYQB;2010-07-17 08:00;CYQB 170800Z 24010KT 8SM BKN010 BKN080 22/21 A2968 RMK SF6AC1 SLP051

CYQB;2010-07-17 09:00;CYQB 170900Z 25009KT 15SM BKN012 OVC060 22/20 A2969 RMK SF6SC2 SLP053

CYQB;2010-07-17 10:00;CYQB 171000Z 25011KT 6SM BR BKN010 BKN060 21/20 A2970 RMK CF6SC1 SLP056

CYQB;2010-07-17 11:00;CYQB 171100Z 24010G15KT 6SM BR BKN013 21/19 A2970 RMK CU7 SLP056

CYQB;2010-07-17 12:00;CYQB 171200Z 25013KT 8SM BKN013 22/19 A2970 RMK CU6 SLP056

CYQB;2010-07-17 13:00;CYQB 171300Z 24012KT 8SM BKN018 23/19 A2968 RMK CU5 SLP051

CYQB;2010-07-17 14:00;CYQB 171400Z 24013KT 8SM BKN020 24/19 A2967 RMK CU6 SLP048

CYQB;2010-07-17 15:00;CYQB 171500Z 22013G18KT 15SM BKN030 BKN220 25/19 A2967 RMK CU5CI1 SLP045

CYQB;2010-07-17 16:00;CYQB 171600Z 22013G20KT 15SM SCT025 SCT100 27/20 A2966 RMK CU3AC1 SLP042

CYQB;2010-07-17 17:00;CYQB 171700Z 24015G24KT 15SM SCT030TCU SCT100 28/19 A2964 RMK TCU3AC1 SLP036

CYQB;2010-07-17 18:00;CYQB 171800Z 24016G25KT 15SM FEW030TCU FEW100 29/19 A2961 RMK TCU2AC1 SLP028

CYQB;2010-07-17 19:00;CYQB 171900Z 21020G29KT 15SM FEW037TCU FEW120 SCT240 29/18 A2959 RMK TCU2AC1CI2 SLP021

CYQB;2010-07-17 20:00;CYQB 172000Z 23011G21KT 15SM FEW043TCU SCT120 BKN240 28/19 A2959 RMK TCU2AS2CI2 SLP019

CYQB;2010-07-17 21:00;CYQB 172100Z 23021G27KT 15SM FEW045TCU FEW110 SCT240 28/19 A2957 RMK TCU2AS1CI2 TCU N-NE SLP012

CYQB;2010-07-17 22:00;CYQB 172200Z 24010KT 15SM FEW035 SCT045TCU SCT110 BKN240 27/19 A2957 RMK CU1TCU2AS1CI3 TCU NE-E SLP013

CYQB;2010-07-17 22:53;CYQB 172253Z 26011KT 5SM -TSRA FEW030 SCT041CB OVC080 25/ RMK CU2CB2AC4 TS SW MOVG NE

CYQB;2010-07-17 23:00;CYQB 172300Z 26023G31KT 2 1/2SM -TSRA SCT014 BKN041CB OVC080 24/21 A2959 RMK RA3CU1CB2AS2 SLP018

CYQB;2010-07-17 23:24;CYQB 172324Z 23013G21KT 6SM -TSRA FEW020 BKN044CB OVC065 22/ RMK CU2CB2AS3 CB S MOVG E

CYQB;2010-07-17 23:39;CYQB 172339Z 22013KT 8SM -SHRA FEW020 BKN035TCU OVC110 21/ RETS RMK CU2TCU3AS3 VIS E LWR CB E MOVG E

CYQB;2010-07-18 00:00;CYQB 180000Z CCA 24009KT 12SM FEW040 BKN065 OVC110 21/20 A2959 RETS RMK CU2SC4AS2 SLP018

CYQB;2010-07-18 01:00;CYQB 180100Z 21009KT 15SM FEW008 FEW020 FEW040 BKN140 20/18 A2960 RMK SF1CU1SC1AS3 SLP023

CYQB;2010-07-18 02:00;CYQB 180200Z 25007KT 15SM -DZ FEW008 FEW020 FEW040 BKN140 20/18 A2962 RMK SF1CU1SC1AS5 SLP029

CYQB;2010-07-18 03:00;CYQB 180300Z 27007KT 15SM FEW008 FEW120 19/18 A2962 RMK SF1AC2 SLP029

CYQB;2010-07-18 04:00;CYQB 180400Z 25010KT 15SM FEW010 FEW040 19/18 A2963 RMK SF1SC1 SLP032

CYQB;2010-07-18 05:00;CYQB 180500Z 26011KT 15SM BKN008 19/17 A2962 RMK SF7 SLP030

CYQB;2010-07-18 06:00;CYQB 180600Z 27010KT 15SM BKN007 BKN090 19/18 A2963 RMK SF6AC1 SLP034

CYQB;2010-07-18 07:00;CYQB 180700Z 26012KT 15SM FEW008 BKN014 BKN070 19/18 A2964 RMK SF2SF4AC1 SLP035

CYQB;2010-07-18 08:00;CYQB 180800Z 25011KT 15SM FEW008 SCT080 BKN110 18/18 A2964 RMK SF2AC2AC2 SLP036

CYQB;2010-07-18 09:00;CYQB 180900Z 25010KT 15SM FEW010 BKN066 BKN110 18/18 A2966 RMK SF1SC6AC1 SLP042

CYQB;2010-07-18 10:00;CYQB 181000Z 25008KT 12SM FEW012 SCT040 SCT110 18/18 A2967 RMK SC1SC3AC1 VIS NE-SE 4 SLP046

CYQB;2010-07-18 11:00;CYQB 181100Z 25009KT 15SM FEW012 SCT040 19/17 A2968 RMK SC1SC2 SLP051

CYQB;2010-07-18 12:00;CYQB 181200Z 28008KT 15SM SCT025 SCT065 20/16 A2969 RMK CU3SC1 SLP054

CYQB;2010-07-18 13:00;CYQB 181300Z 25007KT 15SM BKN025 21/16 A2969 RMK SC5 SLP054

CYQB;2010-07-18 14:00;CYQB 181400Z 28014KT 25SM BKN030 22/16 A2969 RMK SC6 SLP053

CYQB;2010-07-18 15:00;CYQB 181500Z 25014G20KT 25SM SCT025 BKN045 22/16 A2970 RMK CU3SC3 SLP057

CYQB;2010-07-18 16:00;CYQB 181600Z 27017KT 25SM SCT030 BKN050 24/17 A2970 RMK CU3SC2 SLP059

CYQB;2010-07-18 17:00;CYQB 181700Z 25017G24KT 25SM SCT035 BKN100 23/17 A2972 RMK CU3AC3 SLP063

CYQB;2010-07-18 18:00;CYQB 181800Z 25016KT 25SM SCT030 SCT060 BKN080 24/17 A2971 RMK CU3SC1AC2 SLP062

CYQB;2010-07-18 19:00;CYQB 181900Z 25013G18KT 25SM FEW035 BKN060 BKN100 25/17 A2972 RMK CU2SC2AC1 SLP063

CYQB;2010-07-18 20:00;CYQB 182000Z 25016KT 25SM BKN045 BKN060 BKN100 25/16 A2972 RMK CU5SC1AC1 TCU ASOCTD SLP064

CYQB;2010-07-18 21:00;CYQB 182100Z 26018KT 25SM FEW045 FEW060 26/15 A2972 RMK CU2SC1 SLP064

CYQB;2010-07-18 22:00;CYQB 182200Z 26016KT 25SM FEW045 SCT100 SCT280 25/15 A2972 RMK CU2AC2CI0 DIST TCU S-W SLP065

CYQB;2010-07-18 23:00;CYQB 182300Z CCA 25011G20KT 20SM FEW045 FEW100 FEW280 24/16 A2973 RMK CU1AC2CI1 DIST TCU S-W SLP068

CYQB;2010-07-19 00:00;CYQB 190000Z 24007KT 20SM FEW045 FEW100 FEW280 22/17 A2975 RMK CU1AC1CI1 SLP074

CYQB;2010-07-19 01:00;CYQB 190100Z 23006KT 20SM FEW045 FEW100 FEW280 20/17 A2976 RMK CU1AC1CI1 SLP077

CYQB;2010-07-19 02:00;CYQB 190200Z 26005KT 15SM BKN080 19/16 A2978 RMK AC5 SLP083

CYQB;2010-07-19 03:00;CYQB 190300Z 28004KT 15SM BKN047 BKN080 19/16 A2978 RMK SC6AS1 SLP086

CYQB;2010-07-19 04:00;CYQB 190400Z 24003KT 15SM FEW047 18/15 A2978 RMK SC1 SLP084

CYQB;2010-07-19 05:00;CYQB 190500Z 26005KT 15SM SKC 17/15 A2978 RMK SLP084

CYQB;2010-07-19 06:00;CYQB 190600Z 27007KT 15SM BKN090 BKN230 17/15 A2978 RMK AC6CI1 SLP085

CYQB;2010-07-19 07:00;CYQB 190700Z 32002KT 15SM FEW090 SCT230 17/15 A2979 RMK AC2CI1 SLP089

CYQB;2010-07-19 08:00;CYQB 190800Z 00000KT 15SM BKN065 BKN170 16/14 A2979 RMK SC5AC2 SLP089

CYQB;2010-07-19 09:00;CYQB 190900Z 00000KT 30SM BKN170 16/15 A2980 RMK AC6 SLP090

CYQB;2010-07-19 10:00;CYQB 191000Z 28003KT 30SM BKN170 16/15 A2981 RMK AC6 SLP095

CYQB;2010-07-19 11:00;CYQB 191100Z 00000KT 30SM BKN150 17/15 A2981 RMK AC7 SLP095

CYQB;2010-07-19 12:00;CYQB 191200Z 00000KT 30SM BKN130 18/16 A2982 RMK AC7 SLP097

CYQB;2010-07-19 13:00;CYQB 191300Z 27005KT 30SM BKN130 19/17 A2982 RMK AC7 SLP098

CYQB;2010-07-19 13:22;CYQB 191322Z 23007KT 3SM -SHRA FEW010 OVC026 19/ RMK SF1SC7

CYQB;2010-07-19 14:00;CYQB 191400Z 22006KT 5SM -SHRA BKN010 OVC026 18/17 A2982 RMK SF6SC2 SLP098

CYQB;2010-07-19 14:15;CYQB 191415Z 22005KT 5SM -SHRA BKN008 OVC028 18/ RMK SF5SC3 CIG VRB 6-10

CYQB;2010-07-19 15:00;CYQB 191500Z 23003KT 8SM -SHRA BKN008 BKN030 19/18 A2981 RMK SF6SC2 CIG VRB 6-10 SLP095

CYQB;2010-07-19 15:27;CYQB 191527Z 20003KT 10SM -SHRA FEW008 BKN015 OVC025 20/ RMK SF1SC5SC2

CYQB;2010-07-19 16:00;CYQB 191600Z 21005KT 15SM -SHRA BKN015 OVC025 20/17 A2980 RMK SC6SC2 SLP091

CYQB;2010-07-19 17:00;CYQB 191700Z 22006KT 30SM -SHRA SCT015 BKN110 20/17 A2979 RMK SC3AC4 SLP089

CYQB;2010-07-19 18:00;CYQB 191800Z 24004KT 15SM -SHRA FEW012 OVC110 20/17 A2978 RMK SC2AC6 SLP085

CYQB;2010-07-19 19:00;CYQB 191900Z 22005KT 15SM -SHRA FEW012 BKN120 20/17 A2978 RMK SC2AC5 SLP085

CYQB;2010-07-19 19:50;CYQB 191950Z 22007KT 20SM FEW015 BKN110 20/ RMK CF2AC5

CYQB;2010-07-19 20:00;CYQB 192000Z 20008KT 20SM FEW015 BKN120 20/17 A2977 RMK CF2AC3 SLP082

CYQB;2010-07-19 21:00;CYQB 192100Z 23004KT 20SM FEW018 FEW140 21/15 A2976 RMK CU1AC1 SLP079

CYQB;2010-07-19 22:00;CYQB 192200Z 26005KT 20SM FEW020 FEW140 FEW250 22/16 A2976 RMK CU1AC1CI0 TCU N SLP077

CYQB;2010-07-19 23:00;CYQB 192300Z 24008KT 20SM VCSH FEW025 FEW100 BKN130 BKN250 20/16 A2979 RMK CU1AC2AC4CI1 SLP087

CYQB;2010-07-19 23:06;CYQB 192306Z 23006KT 20SM -SHRA FEW025 FEW100 BKN120 BKN250 20/ RMK CU1AC2AC4CI1

CYQB;2010-07-19 23:40;CYQB 192340Z 20002KT 20SM FEW050TCU BKN110 BKN250 20/ RMK TCU1AC6CI1

CYQB;2010-07-19 23:43;CYQB 192343Z 27008KT 20SM -SHRA FEW050TCU BKN070 BKN250 20/ RMK TCU1AC6CI1

CYQB;2010-07-20 00:00;CYQB 200000Z 23006KT 20SM -SHRA FEW038 FEW050TCU BKN110 BKN250 20/17 A2980 RMK SC1TCU1AC6CI0 SLP092

CYQB;2010-07-20 00:20;CYQB 200020Z 27005KT 30SM FEW050 BKN120 BKN250 20/ RMK SC1AC5CI0 TCU N

CYQB;2010-07-20 01:00;CYQB 200100Z 28004KT 20SM FEW050 FEW120 FEW250 18/17 A2981 RMK SC1AC1CI1 SLP094

CYQB;2010-07-20 02:00;CYQB 200200Z 25004KT 20SM SCT250 18/16 A2982 RMK CI1 SLP097

CYQB;2010-07-20 03:00;CYQB 200300Z 27007KT 20SM FEW250 17/16 A2983 RMK CI0 SLP100

CYQB;2010-07-20 04:00;CYQB 200400Z 27004KT 15SM SKC 17/16 A2984 RMK SLP106

CYQB;2010-07-20 05:00;CYQB 200500Z 00000KT 15SM SKC 16/15 A2985 RMK SLP108

CYQB;2010-07-20 06:00;CYQB 200600Z 00000KT 15SM FEW013 15/15 A2987 RMK SC2 SLP115

CYQB;2010-07-20 07:00;CYQB 200700Z 27005KT 15SM OVC006 17/17 A2987 RMK SF8 SLP115

CYQB;2010-07-20 08:00;CYQB 200800Z 01002KT 15SM OVC006 17/16 A2987 RMK SF8 SLP117

CYQB;2010-07-20 09:00;CYQB 200900Z 02004KT 15SM OVC004 17/16 A2988 RMK SF8 SLP119

CYQB;2010-07-20 09:44;CYQB 200944Z 30002KT 2 1/2SM BR OVC003 17/ RMK SF8

CYQB;2010-07-20 10:00;CYQB 201000Z 00000KT 2 1/2SM BR BKN003 OVC240 17/16 A2989 RMK SF7CI1 SLP123

CYQB;2010-07-20 10:28;CYQB 201028Z 33003KT 3SM BR SCT003 BKN240 16/ RMK SF3CI0 VIS N 15

CYQB;2010-07-20 11:00;CYQB 201100Z 00000KT 20SM FEW003 BKN240 17/15 A2991 RMK SF1CI2 VIS S-NW 3 BR SLP128

CYQB;2010-07-20 12:00;CYQB 201200Z 22003KT 10SM FEW003 BKN240 18/16 A2993 RMK SF2CI0 SLP135

CYQB;2010-07-20 13:00;CYQB 201300Z 30002KT 15SM FEW008 BKN240 19/16 A2993 RMK SF1CI1 SLP135

CYQB;2010-07-20 14:00;CYQB 201400Z 26002KT 20SM FEW012 BKN240 21/18 A2993 RMK CF1CI0 SLP137

CYQB;2010-07-20 15:00;CYQB 201500Z 19006KT 25SM FEW020 OVC240 21/17 A2994 RMK CF1CI0 SLP138

CYQB;2010-07-20 16:00;CYQB 201600Z 22009KT 25SM FEW025 BKN240 24/18 A2992 RMK CU1CI1 SLP133

CYQB;2010-07-20 17:00;CYQB 201700Z 23012KT 25SM FEW032 OVC240 25/17 A2992 RMK CU2CI1 SLP131

CYQB;2010-07-20 18:00;CYQB 201800Z 26015KT 25SM FEW040 OVC240 26/13 A2992 RMK CU1CI1 SLP131

CYQB;2010-07-20 19:00;CYQB 201900Z 28011G16KT 25SM FEW050 BKN240 26/12 A2992 RMK CU1CI2 SLP130

CYQB;2010-07-20 20:00;CYQB 202000Z 25012KT 25SM FEW050 FEW240 26/13 A2991 RMK CU1CI1 SLP128

CYQB;2010-07-20 21:00;CYQB 202100Z 27012G17KT 25SM FEW050 FEW240 26/13 A2991 RMK CU1CI1 SLP127

CYQB;2010-07-20 22:00;CYQB 202200Z 26011KT 25SM FEW050 FEW240 26/13 A2991 RMK CU1CI1 SLP127

CYQB;2010-07-20 23:00;CYQB 202300Z 28006KT 25SM FEW050 FEW240 25/14 A2991 RMK CU1CI1 SLP128

CYQB;2010-07-21 00:00;CYQB 210000Z 26005KT 25SM FEW050 FEW240 23/14 A2992 RMK CU1CI1 SLP131

CYQB;2010-07-21 01:00;CYQB 210100Z 26008KT 25SM FEW240 20/14 A2992 RMK CI1 SLP131

CYQB;2010-07-21 02:00;CYQB 210200Z 24006KT 15SM SKC 20/14 A2993 RMK SLP135

CYQB;2010-07-21 03:00;CYQB 210300Z 24008KT 15SM SKC 20/15 A2994 RMK SLP138

CYQB;2010-07-21 04:00;CYQB 210400Z 24007KT 15SM SKC 19/15 A2994 RMK SLP138

CYQB;2010-07-21 05:00;CYQB 210500Z 00000KT 15SM SKC 18/15 A2994 RMK SLP138

CYQB;2010-07-21 06:00;CYQB 210600Z 02004KT 15SM SKC 17/13 A2994 RMK SLP138

CYQB;2010-07-21 07:00;CYQB 210700Z 36002KT 15SM SKC 15/13 A2994 RMK SLP140

CYQB;2010-07-21 08:00;CYQB 210800Z 05002KT 15SM SKC 16/12 A2995 RMK SLP141

CYQB;2010-07-21 09:00;CYQB 210900Z 36002KT 25SM FEW150 16/12 A2994 RMK AC1 SLP139

CYQB;2010-07-21 10:00;CYQB 211000Z 35003KT 25SM FEW150 15/12 A2995 RMK AC1 SLP141

CYQB;2010-07-21 11:00;CYQB 211100Z 02002KT 25SM FEW150 SCT240 16/12 A2995 RMK AC1CI0 SLP141

CYQB;2010-07-21 12:00;CYQB 211200Z 00000KT 25SM BKN240 19/14 A2994 RMK CI2 SLP140

CYQB;2010-07-21 13:00;CYQB 211300Z 00000KT 25SM BKN240 20/15 A2993 RMK CI3 SLP135

CYQB;2010-07-21 14:00;CYQB 211400Z 21002KT 25SM BKN240 22/17 A2991 RMK CI4 SLP129

CYQB;2010-07-21 15:00;CYQB 211500Z 21003KT 25SM FEW025 SCT160 OVC240 23/18 A2990 RMK CU1AC3CI2 SLP126

CYQB;2010-07-21 16:00;CYQB 211600Z 21003KT 25SM FEW030 SCT160 BKN240 25/17 A2989 RMK CU1AC2CI1 SLP122

CYQB;2010-07-21 17:00;CYQB 211700Z 26003KT 25SM FEW035 SCT160 OVC240 26/15 A2988 RMK CU2AC2CI3 SLP117

CYQB;2010-07-21 18:00;CYQB 211800Z 24006KT 25SM FEW040 SCT100 OVC240 26/15 A2986 RMK CU2AC2CI3 SLP110

CYQB;2010-07-21 19:00;CYQB 211900Z 29006KT 30SM FEW050 BKN120 BKN240 26/15 A2984 RMK CU1AC5CI2 SLP104

CYQB;2010-07-21 20:00;CYQB 212000Z 31006KT 30SM FEW050 BKN110 BKN240 25/15 A2981 RMK CU1AC5CI2 SLP094

CYQB;2010-07-21 20:03;CYQB 212003Z 31005KT 30SM -SHRA FEW050 BKN110 BKN240 25/ RMK CU1AC5CI2

CYQB;2010-07-21 21:00;CYQB 212100Z 26009KT 20SM -SHRA FEW050TCU BKN110 BKN240 22/18 A2982 RMK TCU1AC6CI1 VIS W-S 10 SLP097

CYQB;2010-07-21 22:00;CYQB 212200Z 31002KT 20SM -SHRA FEW050 BKN110 OVC240 20/17 A2980 RMK SC1AC6CI1 SLP091

CYQB;2010-07-21 23:00;CYQB 212300Z 32004KT 30SM SCT060 BKN150 BKN240 20/18 A2977 RMK SC3AC3CI1 SLP080

CYQB;2010-07-22 00:00;CYQB 220000Z CCA 00000KT 30SM FEW030 BKN110 BKN240 20/18 A2977 RMK CF1AC5CI2 SLP082

CYQB;2010-07-22 02:00;CYQB 220200Z 32003KT 15SM FEW110 BKN150 BKN250 18/17 A2976 RMK AC2AC3CI1 SLP078

CYQB;2010-07-22 03:00;CYQB 220300Z 00000KT 15SM FEW040 SCT070 BKN100 BKN150 17/16 A2975 RMK SC2AC2AC2AC2 SLP076

CYQB;2010-07-22 04:00;CYQB 220400Z 00000KT 15SM FEW010 BKN039 16/16 A2976 RMK SF1SC6 SLP077

CYQB;2010-07-22 05:00;CYQB 220500Z 00000KT 15SM FEW008 FEW085 BKN150 16/16 A2975 RMK SF1AC2AC2 SLP073

CYQB;2010-07-22 06:00;CYQB 220600Z 00000KT 15SM FEW010 FEW085 FEW150 16/15 A2973 RMK SF1AC1AC1 SLP069

CYQB;2010-07-22 07:00;CYQB 220700Z 00000KT 15SM FEW045 FEW085 15/15 A2972 RMK SC1AC1 SLP065

CYQB;2010-07-22 08:00;CYQB 220800Z 26002KT 15SM FEW062 SCT085 BKN220 14/14 A2972 RMK SC2AC1CI2 SLP066

CYQB;2010-07-22 09:00;CYQB 220900Z 00000KT 15SM FEW005 SCT060 BKN100 15/14 A2973 RMK ST2SC2AC3 VIS E 6 BR SLP069

CYQB;2010-07-22 10:00;CYQB 221000Z 35005KT 15SM BKN043 OVC100 16/15 A2975 RMK SC5AC2 SLP073

CYQB;2010-07-22 11:00;CYQB 221100Z 35005KT 25SM FEW070 SCT100 BKN150 17/15 A2975 RMK AC2AC2AC3 SLP075

CYQB;2010-07-22 12:00;CYQB 221200Z 00000KT 25SM BKN065 18/16 A2976 RMK SC7 SLP077

CYQB;2010-07-22 13:00;CYQB 221300Z 25004KT 25SM BKN080 BKN110 21/17 A2977 RMK AC5AC2 SLP082

CYQB;2010-07-22 14:00;CYQB 221400Z 30003KT 25SM FEW025 BKN097 23/16 A2978 RMK SC1AC7 SLP086

CYQB;2010-07-22 15:00;CYQB 221500Z 29002KT 25SM FEW028 BKN120 23/15 A2979 RMK SC1AC6 SLP088

CYQB;2010-07-22 16:00;CYQB 221600Z 26007KT 25SM FEW030 SCT120 25/17 A2980 RMK SC1AC3 SLP090

CYQB;2010-07-22 17:00;CYQB 221700Z 32010G16KT 25SM SCT050 26/15 A2979 RMK SC3 SLP087

CYQB;2010-07-22 18:00;CYQB 221800Z 29015KT 25SM FEW050 27/13 A2978 RMK CU1 SLP085

CYQB;2010-07-22 19:00;CYQB 221900Z 32010G20KT 30SM FEW060 FEW120 28/11 A2979 RMK CU1AC1 SLP089

CYQB;2010-07-22 20:00;CYQB 222000Z 31013KT 30SM FEW060TCU SCT250 28/09 A2980 RMK TCU1CI0 SLP091

CYQB;2010-07-22 21:00;CYQB 222100Z 30010KT 30SM FEW060 FEW250 28/10 A2980 RMK CU1CI0 CB ANVIL S SLP090

CYQB;2010-07-22 22:00;CYQB 222200Z 29009KT 30SM FEW060 FEW250 28/10 A2981 RMK CF1CI0 CB ANVIL S SLP094

CYQB;2010-07-22 23:00;CYQB 222300Z 29009KT 30SM FEW070 FEW250 26/10 A2982 RMK CF1CI0 SLP098

CYQB;2010-07-23 00:00;CYQB 230000Z 28008KT 30SM FEW070 FEW250 23/11 A2983 RMK AC1CI0 SLP102

CYQB;2010-07-23 01:00;CYQB 230100Z 29008KT 30SM FEW070 FEW250 21/10 A2985 RMK AC1CI0 SLP109

CYQB;2010-07-23 02:00;CYQB 230200Z 32009KT 15SM SKC 22/10 A2989 RMK SLP120

CYQB;2010-07-23 03:00;CYQB 230300Z 32006KT 15SM SKC 20/10 A2990 RMK SLP126

CYQB;2010-07-23 04:00;CYQB 230400Z 04005KT 15SM SKC 19/10 A2992 RMK SLP133

CYQB;2010-07-23 05:00;CYQB 230500Z 05002KT 15SM SKC 19/10 A2994 RMK SLP137

CYQB;2010-07-23 06:00;CYQB 230600Z 04003KT 15SM SKC 18/10 A2994 RMK SLP140

CYQB;2010-07-23 07:00;CYQB 230700Z 26003KT 15SM SKC 14/10 A2994 RMK SLP140

CYQB;2010-07-23 08:00;CYQB 230800Z 25002KT 15SM SKC 12/09 A2995 RMK SLP143

CYQB;2010-07-23 09:00;CYQB 230900Z 00000KT 15SM SKC 14/09 A2997 RMK SLP147

CYQB;2010-07-23 10:00;CYQB 231000Z 31008KT 25SM SKC 14/09 A2997 RMK SLP148

CYQB;2010-07-23 11:00;CYQB 231100Z 28004KT 25SM SKC 16/11 A2998 RMK SLP151

CYQB;2010-07-23 12:00;CYQB 231200Z 13002KT 25SM FEW230 18/11 A2998 RMK CI1 SLP154

CYQB;2010-07-23 13:00;CYQB 231300Z 34005KT 25SM FEW230 20/11 A2998 RMK CI1 SLP153

CYQB;2010-07-23 14:00;CYQB 231400Z 21003KT 25SM FEW230 21/12 A2998 RMK CI1 SLP153

CYQB;2010-07-23 15:00;CYQB 231500Z 16004KT 25SM FEW170 SCT220 23/13 A2997 RMK AC1CI2 SLP148

CYQB;2010-07-23 16:00;CYQB 231600Z 00000KT 25SM FEW150 BKN220 23/12 A2995 RMK AC2CI2 SLP142

CYQB;2010-07-23 17:00;CYQB 231700Z 12004KT 25SM FEW150 BKN220 24/10 A2993 RMK AC2CI3 SLP135

CYQB;2010-07-23 18:00;CYQB 231800Z 06002KT 25SM FEW150 BKN220 25/11 A2992 RMK AC2CI2 SLP132

CYQB;2010-07-23 19:00;CYQB 231900Z 18006KT 30SM FEW050 SCT240 25/09 A2991 RMK CU1CI3 SLP128

CYQB;2010-07-23 20:00;CYQB 232000Z 17004KT 30SM FEW050 SCT180 BKN250 26/06 A2990 RMK CU1AC3CI0 SLP124

CYQB;2010-07-23 21:00;CYQB 232100Z 21002KT 30SM FEW050 SCT180 BKN240 25/09 A2990 RMK CU1AC4CI2 SLP125

CYQB;2010-07-23 22:00;CYQB 232200Z 33002KT 30SM FEW050 BKN160 BKN240 24/09 A2987 RMK CU1AC6CI2 SLP114

CYQB;2010-07-23 23:00;CYQB 232300Z 01004KT 30SM SCT160 BKN240 24/08 A2986 RMK AC4CI3 SLP111

CYQB;2010-07-24 00:00;CYQB 240000Z 08005KT 30SM FEW130 BKN150 BKN240 23/13 A2986 RMK AC2AC3CI2 SLP113

CYQB;2010-07-24 00:45;CYQB 240045Z 06005KT 30SM -SHRA BKN140 BKN240 22/ RMK AC5CI2

CYQB;2010-07-24 01:00;CYQB 240100Z 05005KT 15SM -SHRA SCT100 BKN140 BKN240 22/15 A2987 RMK AC3AC2CI2 SLP115

CYQB;2010-07-24 01:13;CYQB 240113Z 07007KT 15SM SCT100 BKN140 BKN240 22/ RMK AC3AC2CI2

CYQB;2010-07-24 01:25;CYQB 240125Z 08006KT 15SM -SHRA FEW100 BKN130 22/ RMK AC2AC5

CYQB;2010-07-24 02:00;CYQB 240200Z 09005KT 10SM -SHRA BKN042 OVC070 20/17 A2986 RMK SC6AC2 SLP112

CYQB;2010-07-24 02:30;CYQB 240230Z 11004KT 15SM SCT040 OVC130 19/ RMK SC3AC5

CYQB;2010-07-24 03:00;CYQB 240300Z 16003KT 15SM -SHRA FEW040 BKN070 OVC130 19/17 A2987 RMK SC2AC5AC2 SLP116

CYQB;2010-07-24 03:36;CYQB 240336Z 00000KT 15SM BKN052 OVC130 19/ RMK SC6AC2

CYQB;2010-07-24 04:00;CYQB 240400Z 00000KT 15SM BKN075 OVC130 19/17 A2987 RMK AC6AC2 SLP114

CYQB;2010-07-24 05:00;CYQB 240500Z 01004KT 15SM SCT075 BKN150 19/17 A2984 RMK AC3AC4 SLP106

CYQB;2010-07-24 06:00;CYQB 240600Z 03004KT 15SM FEW070 BKN080 BKN150 20/14 A2984 RMK AC2AC5AS1 SLP104

CYQB;2010-07-24 07:00;CYQB 240700Z 05004KT 15SM BKN063 BKN150 20/13 A2983 RMK SC5AC2 SLP101

CYQB;2010-07-24 08:00;CYQB 240800Z 08003KT 15SM BKN053 OVC080 19/15 A2982 RMK SC6AC2 SLP099

CYQB;2010-07-24 09:00;CYQB 240900Z 08006KT 15SM BKN060 OVC085 19/15 A2982 RMK SC5AC3 SLP098

CYQB;2010-07-24 10:00;CYQB 241000Z 07006KT 30SM OVC060 18/13 A2983 RMK SC8 SLP100

CYQB;2010-07-24 11:00;CYQB 241100Z 07006KT 30SM OVC063 18/13 A2982 RMK SC8 SLP098

CYQB;2010-07-24 12:00;CYQB 241200Z 09008KT 30SM OVC065 19/13 A2983 RMK SC8 SLP102

CYQB;2010-07-24 13:00;CYQB 241300Z 08008KT 30SM OVC055 20/14 A2983 RMK SC8 SLP100

CYQB;2010-07-24 14:00;CYQB 241400Z 08011KT 30SM BKN062 21/15 A2983 RMK SC7 SLP100

CYQB;2010-07-24 15:00;CYQB 241500Z 14006KT 30SM OVC049 22/16 A2983 RMK SC8 SLP101

CYQB;2010-07-24 16:00;CYQB 241600Z 13004KT 20SM FEW030 OVC039 22/17 A2981 RMK SC1SC7 SLP094

CYQB;2010-07-24 17:00;CYQB 241700Z 21002KT 15SM FEW020 OVC032 23/18 A2980 RMK SC2SC6 SLP091

CYQB;2010-07-24 18:00;CYQB 241800Z 20002KT 20SM OVC029 23/18 A2979 RMK SC8 SLP089

CYQB;2010-07-24 19:00;CYQB 241900Z 20003KT 20SM BKN023 OVC044 23/18 A2979 RMK SC5SC3 SLP087

CYQB;2010-07-24 20:00;CYQB 242000Z 26007KT 15SM BKN020 OVC050 24/19 A2978 RMK SC5SC3 SLP085

CYQB;2010-07-24 21:00;CYQB 242100Z 23004KT 15SM FEW022 SCT045 BKN072 BKN250 24/19 A2976 RMK SC2SC2AC2CI1 TCU ASOCTD SE SLP077

CYQB;2010-07-24 22:00;CYQB 242200Z 22004KT 20SM SCT022 BKN033 BKN250 24/19 A2975 RMK SC3SC2CI2 SLP075

CYQB;2010-07-24 23:00;CYQB 242300Z 24002KT 20SM FEW021 FEW035 BKN250 23/19 A2974 RMK CU1SC2CC5 SLP071

CYQB;2010-07-25 00:00;CYQB 250000Z 00000KT 20SM SCT026 OVC220 23/19 A2972 RMK SC3CC5 SLP064

CYQB;2010-07-25 01:00;CYQB 250100Z 00000KT 15SM SCT020 OVC210 22/19 A2973 RMK SC4CC4 SLP068

CYQB;2010-07-25 02:00;CYQB 250200Z 05002KT 15SM SCT020 OVC200 22/19 A2972 RMK SC3CC5 SLP065

CYQB;2010-07-25 03:00;CYQB 250300Z 06004KT 15SM FEW020 BKN130 OVC200 21/19 A2969 RMK SC2AC4CI2 SLP053

CYQB;2010-07-25 04:00;CYQB 250400Z 06004KT 15SM FEW020 BKN150 OVC200 21/18 A2966 RMK SC2AC4CI2 SLP043

CYQB;2010-07-25 05:00;CYQB 250500Z 01003KT 15SM -SHRA BKN030 OVC150 21/19 A2964 RMK SC5AC3 SLP035

CYQB;2010-07-25 05:34;CYQB 250534Z 32013G20KT 6SM -SHRA BKN007 BKN030 OVC150 21/ RMK SF5SC1AC2

CYQB;2010-07-25 06:00;CYQB 250600Z 34002KT 10SM FEW007 SCT030 BKN062 OVC150 20/19 A2962 RERA RMK SF2SC2SC2AC2 SLP031

CYQB;2010-07-25 07:00;CYQB 250700Z 19003KT 10SM FEW030 FEW062 BKN160 19/18 A2961 RMK SC1SC2AC2 SLP026

CYQB;2010-07-25 08:00;CYQB 250800Z 26005KT 15SM SCT025 BKN061 BKN140 20/19 A2962 RMK SC3SC2AC1 SLP029

CYQB;2010-07-25 09:00;CYQB 250900Z 25009KT 15SM FEW030 SCT060 SCT120 20/18 A2961 RMK SC2SC2AC1 SLP027

CYQB;2010-07-25 10:00;CYQB 251000Z 25011KT 15SM BKN100 BKN250 19/19 A2964 RMK AC5CI1 ACC EMBDD SLP037

CYQB;2010-07-25 11:00;CYQB 251100Z 25009KT 20SM FEW030 BKN100 BKN250 20/18 A2967 RMK CU1AC6CI0 SLP045

CYQB;2010-07-25 12:00;CYQB 251200Z 26011KT 20SM FEW030 FEW100 BKN250 21/19 A2967 RMK CU2AC1CI1 SLP048

CYQB;2010-07-25 13:00;CYQB 251300Z 29011G19KT 20SM SCT048 BKN250 22/15 A2968 RMK CU4CI0 SLP051

CYQB;2010-07-25 14:00;CYQB 251400Z 27012G19KT 20SM BKN045 BKN250 22/16 A2968 RMK SC5CI1 SLP049

CYQB;2010-07-25 15:00;CYQB 251500Z 33010G16KT 20SM SCT045 BKN250 22/15 A2968 RMK SC3CI1 SLP051

CYQB;2010-07-25 16:00;CYQB 251600Z 33011G16KT 20SM FEW035 BKN063 23/14 A2970 RMK SC2SC5 SLP055

CYQB;2010-07-25 17:00;CYQB 251700Z 29009KT 20SM FEW039 BKN065 23/15 A2970 RMK SC2SC5 CU ASOCTD SLP056

CYQB;2010-07-25 18:00;CYQB 251800Z 30007KT 20SM SCT035 BKN065 23/15 A2970 RMK CU3SC4 SLP056

CYQB;2010-07-25 18:25;CYQB 251825Z 31011KT 30SM -SHRA BKN035 BKN055 21/ RMK CU5SC2

CYQB;2010-07-25 19:00;CYQB 251900Z 25011G16KT 30SM FEW035 BKN078 24/15 A2968 RMK CU2AC2 SLP052

CYQB;2010-07-25 20:00;CYQB 252000Z 28013G21KT 30SM FEW045 SCT075 24/13 A2968 RMK CU2AC1 SLP050

CYQB;2010-07-25 21:00;CYQB 252100Z 28017G24KT 30SM FEW058 24/12 A2968 RMK CU2 SLP051

CYQB;2010-07-25 22:00;CYQB 252200Z 29017G24KT 30SM FEW060 23/11 A2970 RMK CU2 SLP057

CYQB;2010-07-25 23:00;CYQB 252300Z 29013G19KT 30SM FEW060 FEW180 21/11 A2972 RMK CU1AC1 SLP062

CYQB;2010-07-26 00:00;CYQB 260000Z 28008KT 30SM SCT070 SCT180 19/10 A2972 RMK AC3AC1 SLP065

CYQB;2010-07-26 01:00;CYQB 260100Z 24007KT 30SM SCT055 19/10 A2974 RMK SC4 CU ASOCTD SLP070

CYQB;2010-07-26 02:00;CYQB 260200Z 23008KT 15SM FEW090 17/11 A2974 RMK AC2 SLP072

CYQB;2010-07-26 03:00;CYQB 260300Z 23006KT 15SM BKN080 16/11 A2975 RMK AC6 SLP073

CYQB;2010-07-26 04:00;CYQB 260400Z 27012KT 15SM FEW055 FEW080 17/11 A2975 RMK SC1AC1 SLP074

CYQB;2010-07-26 05:00;CYQB 260500Z 24011KT 15SM FEW080 15/11 A2975 RMK AC1 SLP073

CYQB;2010-07-26 06:00;CYQB 260600Z 22008KT 15SM FEW055 SCT080 14/11 A2974 RMK SC2AC2 OBS TAKEN +10 SLP071

CYQB;2010-07-26 07:00;CYQB 260700Z 23011KT 15SM FEW046 15/11 A2974 RMK CU2 SLP071

CYQB;2010-07-26 08:00;CYQB 260800Z 24011KT 15SM FEW046 SCT080 15/11 A2973 RMK CU2AC2 SLP068

CYQB;2010-07-26 09:00;CYQB 260900Z 25011KT 15SM SCT047 SCT080 15/12 A2973 RMK SC3AC1 SLP069

CYQB;2010-07-26 10:00;CYQB 261000Z 24011KT 30SM FEW025 BKN050 BKN080 15/12 A2974 RMK SC1SC6AC1 SLP071

CYQB;2010-07-26 11:00;CYQB 261100Z 25010G16KT 35SM BKN055 15/12 A2974 RMK SC6 SLP072

CYQB;2010-07-26 12:00;CYQB 261200Z 26016G22KT 35SM FEW050 17/12 A2975 RMK SC2 SLP074

CYQB;2010-07-26 13:00;CYQB 261300Z 29016G24KT 35SM SCT055 19/12 A2976 RMK SC4 SLP077

CYQB;2010-07-26 14:00;CYQB 261400Z 30015G26KT 35SM BKN050 BKN250 21/11 A2975 RMK SC5CI0 SLP076

CYQB;2010-07-26 15:00;CYQB 261500Z 28015KT 35SM BKN062 BKN250 21/01 A2975 RMK CU6CI1 SLP075

CYQB;2010-07-26 16:00;CYQB 261600Z 29016G27KT 35SM BKN051 21/11 A2975 RMK CU7 SLP076

CYQB;2010-07-26 17:00;CYQB 261700Z 29012G22KT 35SM BKN060 BKN240 22/12 A2975 RMK CU7CI1 SLP074

CYQB;2010-07-26 18:00;CYQB 261800Z 30013G21KT 35SM BKN062 BKN110 22/11 A2976 RMK CU7AC1 SLP077

CYQB;2010-07-26 19:00;CYQB 261900Z 29012G19KT 30SM SCT060 BKN090 25/13 A2976 RMK CU4AC3 SLP078

CYQB;2010-07-26 20:00;CYQB 262000Z 31009G18KT 30SM SCT065 BKN090 25/13 A2976 RMK CU3AC3 SLP079

CYQB;2010-07-26 21:00;CYQB 262100Z 30010KT 30SM FEW060 BKN090 24/11 A2977 RMK CU2AC3 SLP080

CYQB;2010-07-26 22:00;CYQB 262200Z 32014KT 30SM FEW060 SCT090 BKN240 25/10 A2978 RMK CF2AC1CI1 SLP083

CYQB;2010-07-26 23:00;CYQB 262300Z 31008KT 30SM FEW060 FEW090 SCT240 25/10 A2978 RMK CF1AC1CI1 SLP085

CYQB;2010-07-27 00:00;CYQB 270000Z 30007KT 30SM FEW055 FEW090 FEW240 23/09 A2980 RMK CF1AC1CI1 SLP091

CYQB;2010-07-27 01:00;CYQB 270100Z 29006KT 15SM FEW050 FEW240 18/09 A2982 RMK CF1CI1 SLP098

CYQB;2010-07-27 02:00;CYQB 270200Z 27004KT 15SM SKC 17/09 A2984 RMK SLP105

CYQB;2010-07-27 03:00;CYQB 270300Z 25004KT 15SM SKC 16/09 A2986 RMK SLP111

CYQB;2010-07-27 04:00;CYQB 270400Z 27004KT 15SM SKC 14/10 A2987 RMK SLP114

CYQB;2010-07-27 05:00;CYQB 270500Z 29008KT 15SM SKC 16/10 A2988 RMK SLP117

CYQB;2010-07-27 06:00;CYQB 270600Z 29006KT 15SM SKC 16/10 A2988 RMK SLP118

CYQB;2010-07-27 07:00;CYQB 270700Z 03002KT 15SM SKC 14/10 A2989 RMK SLP121

CYQB;2010-07-27 08:00;CYQB 270800Z 20002KT 15SM SKC 12/10 A2989 RMK SLP123

CYQB;2010-07-27 09:00;CYQB 270900Z 23008KT 15SM SKC 13/10 A2991 RMK SLP128

CYQB;2010-07-27 10:00;CYQB 271000Z 23009KT 30SM FEW250 15/10 A2992 RMK CI1 SLP134

CYQB;2010-07-27 11:00;CYQB 271100Z 23007KT 30SM FEW250 16/11 A2994 RMK CI1 SLP141

CYQB;2010-07-27 12:00;CYQB 271200Z 22007KT 30SM FEW250 18/12 A2997 RMK CI1 SLP148

CYQB;2010-07-27 13:00;CYQB 271300Z 21006KT 30SM FEW250 20/12 A2997 RMK CI1 SLP147

CYQB;2010-07-27 14:00;CYQB 271400Z 20010G15KT 30SM SCT210 22/14 A2997 RMK CI2 SLP149

CYQB;2010-07-27 15:00;CYQB 271500Z 22011KT 30SM FEW250 22/13 A2997 RMK CI1 SLP149

CYQB;2010-07-27 16:00;CYQB 271600Z 23011G16KT 30SM FEW050 FEW210 24/15 A2995 RMK CU1CI0 SLP144

CYQB;2010-07-27 17:00;CYQB 271700Z 21012G17KT 30SM FEW050 SCT240 26/13 A2995 RMK CU1CI0 SLP142

CYQB;2010-07-27 18:00;CYQB 271800Z 23016KT 30SM FEW050 SCT240 27/14 A2992 RMK CU1CI0 SLP133

CYQB;2010-07-27 19:00;CYQB 271900Z 23013G19KT 30SM FEW050 SCT240 28/15 A2992 RMK CU1CI0 SLP130

CYQB;2010-07-27 20:00;CYQB 272000Z 21012G19KT 30SM FEW050 FEW190 FEW250 28/14 A2990 RMK CU1AC1CI0 SLP126

CYQB;2010-07-27 21:00;CYQB 272100Z 22018KT 30SM FEW250 28/15 A2989 RMK CI0 SLP120

CYQB;2010-07-27 22:00;CYQB 272200Z 23016KT 30SM FEW055 FEW250 28/16 A2988 RMK CU1CI0 SLP119

CYQB;2010-07-27 23:00;CYQB 272300Z 23010KT 30SM FEW050 FEW090 SCT250 27/16 A2989 RMK CU1AC1CI0 SLP122

CYQB;2010-07-28 00:00;CYQB 280000Z 25003KT 15SM FEW050 BKN070 BKN250 25/17 A2989 RMK CU2AC2CI1 VIS N 3 DUE -SHRA SLP122

CYQB;2010-07-28 01:00;CYQB 280100Z 21004KT 15SM SCT065 BKN110 BKN250 24/17 A2990 RMK SC4AC2CI1 SLP125

CYQB;2010-07-28 02:00;CYQB 280200Z 25004KT 15SM BKN120 OVC260 23/17 A2990 RMK AC5CS3 SLP125

CYQB;2010-07-28 03:00;CYQB 280300Z 25009KT 15SM BKN250 22/18 A2989 RMK CI4 SLP122

CYQB;2010-07-28 04:00;CYQB 280400Z 24008KT 15SM BKN250 22/18 A2988 RMK CI6 SLP117

CYQB;2010-07-28 05:00;CYQB 280500Z 24006KT 15SM BKN250 21/18 A2987 RMK CI3 SLP115

CYQB;2010-07-28 06:00;CYQB 280600Z 26009KT 15SM FEW250 20/18 A2987 RMK CI2 SLP114

CYQB;2010-07-28 07:00;CYQB 280700Z 23009KT 15SM FEW250 20/18 A2987 RMK CI1 SLP116

CYQB;2010-07-28 08:00;CYQB 280800Z 26012KT 15SM FEW090 FEW250 20/18 A2988 RMK AC1CI1 SLP119

CYQB;2010-07-28 09:00;CYQB 280900Z 25008KT 15SM FEW090 BKN250 19/17 A2988 RMK AC1CI1 SLP117

CYQB;2010-07-28 10:00;CYQB 281000Z 25008KT 15SM FEW090 BKN260 19/17 A2987 RMK ACC1CI1 SLP116

CYQB;2010-07-28 11:00;CYQB 281100Z 24008KT 8SM FEW008 FEW015 FEW090 BKN260 20/17 A2987 RMK CF1SC1ACC1CI1 SLP116

CYQB;2010-07-28 12:00;CYQB 281200Z 25008KT 8SM FEW015 FEW090 OVC260 21/17 A2986 RMK SC1ACC1CI2 SLP111

CYQB;2010-07-28 13:00;CYQB 281300Z 24014KT 15SM FEW015 FEW090 OVC260 22/15 A2984 RMK SC1AC1CI2 SLP106

CYQB;2010-07-28 14:00;CYQB 281400Z 23014G20KT 15SM FEW015 FEW090 BKN260 24/16 A2983 RMK SC1AC1CI1 SLP102

CYQB;2010-07-28 15:00;CYQB 281500Z 24016G24KT 15SM FEW090 BKN260 26/17 A2981 RMK AC1CI1 SLP092

CYQB;2010-07-28 16:00;CYQB 281600Z 24015KT 15SM FEW040 FEW100 BKN250 27/17 A2978 RMK CU1ACC1CI1 SLP083

CYQB;2010-07-28 17:00;CYQB 281700Z 23023G28KT 15SM FEW040 FEW090 BKN250 29/17 A2974 RMK CU1AC1CI1 SLP071

CYQB;2010-07-28 18:00;CYQB 281800Z 23018KT 15SM SCT050 BKN096 OVC250 27/17 A2973 RMK SC4AC2CI2 SLP067

CYQB;2010-07-28 18:22;CYQB 281822Z 22016G24KT 15SM -SHRA SCT025 BKN050 OVC090 27/ RMK SC3SC3AC2

CYQB;2010-07-28 19:00;CYQB 281900Z 22011G16KT 15SM -SHRA FEW030 BKN060 OVC085 25/17 A2972 RMK SC2SC3AC2 SLP063

CYQB;2010-07-28 20:00;CYQB 282000Z 24010KT 8SM -SHRA FEW040 SCT050 OVC085 24/19 A2971 RMK SC2SC2AC4 SLP061

CYQB;2010-07-28 21:00;CYQB 282100Z 25017G28KT 7SM -SHRA FEW040 OVC062 22/18 A2970 RMK SC1SC7 SLP059

CYQB;2010-07-28 22:00;CYQB 282200Z 23007KT 10SM OVC048 22/18 A2967 RMK SC8 SLP049

CYQB;2010-07-28 23:00;CYQB 282300Z 28003KT 10SM OVC040 22/18 A2965 RMK SC8 SLP042

CYQB;2010-07-29 00:00;CYQB 290000Z 22010KT 15SM BKN035 OVC050 23/18 A2964 RMK SC7SC1 SLP036

CYQB;2010-07-29 01:00;CYQB 290100Z 23008KT 15SM BKN035 OVC050 23/18 A2963 RMK SC7SC1 SLP034

CYQB;2010-07-29 02:00;CYQB 290200Z 27004KT 15SM OVC031 22/19 A2962 RMK SC8 SLP030

CYQB;2010-07-29 03:00;CYQB 290300Z 24006KT 15SM OVC036 23/19 A2961 RMK SC8 SLP025

CYQB;2010-07-29 04:00;CYQB 290400Z 23011KT 15SM OVC031 23/19 A2958 RMK SC8 SLP016

CYQB;2010-07-29 04:12;CYQB 290412Z 28010KT 15SM -SHRA OVC014 23/ RMK SC8

CYQB;2010-07-29 05:00;CYQB 290500Z 27004KT 15SM OVC067 21/19 A2961 RMK SC8 SLP027

CYQB;2010-07-29 06:00;CYQB 290600Z 23007KT 15SM SCT076 BKN090 OVC110 19/18 A2961 RMK AC3AC2AC2 SLP027

CYQB;2010-07-29 07:00;CYQB 290700Z 27005KT 15SM BKN090 18/17 A2963 RMK AC7 SLP033

CYQB;2010-07-29 08:00;CYQB 290800Z 23007KT 15SM SCT066 BKN090 18/17 A2964 RMK SC3AC3 SLP035

CYQB;2010-07-29 09:00;CYQB 290900Z 24009KT 15SM FEW060 BKN100 18/17 A2966 RMK SC2AC6 SLP043

CYQB;2010-07-29 10:00;CYQB 291000Z 26009KT 20SM FEW045 SCT100 18/16 A2968 RMK CU2AC2 SLP051

CYQB;2010-07-29 11:00;CYQB 291100Z 29008KT 30SM FEW045 FEW060 18/13 A2970 RMK SC1CU2 SLP059

CYQB;2010-07-29 12:00;CYQB 291200Z 31013KT 30SM FEW060 FEW100 18/12 A2973 RMK CU1AC1 SLP067

CYQB;2010-07-29 13:00;CYQB 291300Z 28014KT 30SM FEW030 FEW060 19/11 A2975 RMK CU1CU2 SLP074

CYQB;2010-07-29 14:00;CYQB 291400Z 27015KT 30SM SCT038 19/10 A2976 RMK CU3 SLP078

CYQB;2010-07-29 15:00;CYQB 291500Z 28014G21KT 30SM SCT043 19/10 A2978 RMK CU4 SLP083

CYQB;2010-07-29 16:00;CYQB 291600Z 27012G18KT 30SM BKN048 20/10 A2980 RMK CU5 SLP092

CYQB;2010-07-29 17:00;CYQB 291700Z 30012G18KT 30SM SCT043 BKN055 19/10 A2980 RMK CU4SC2 SLP092

CYQB;2010-07-29 18:00;CYQB 291800Z 28014KT 30SM SCT045 BKN055 19/10 A2981 RMK CU4SC3 SLP095

CYQB;2010-07-29 19:00;CYQB 291900Z 30013G19KT 30SM SCT045 BKN056 BKN070 19/10 A2982 RMK CU4SC2AC1 SLP099

CYQB;2010-07-29 20:00;CYQB 292000Z 29013G18KT 30SM SCT045 BKN055 BKN070 18/10 A2983 RMK CU3SC2AC1 SLP102

CYQB;2010-07-29 21:00;CYQB 292100Z 31010KT 30SM FEW040 SCT055 BKN079 20/11 A2983 RMK CU2SC2AC2 SLP102

CYQB;2010-07-29 22:00;CYQB 292200Z 29012G17KT 30SM FEW045 FEW060 SCT085 21/10 A2984 RMK CU2SC1AC2 SLP104

CYQB;2010-07-29 23:00;CYQB 292300Z 29008KT 30SM SCT045 BKN082 19/10 A2985 RMK SC4AC1 CU ASOCTD SLP108

CYQB;2010-07-30 00:00;CYQB 300000Z 31005KT 30SM FEW045 SCT060 SCT081 17/11 A2986 RMK CU2SC2AC1 SLP111

CYQB;2010-07-30 01:00;CYQB 300100Z 23003KT 15SM FEW040 FEW070 FEW085 15/10 A2987 RMK SC1AC1AC1 SLP116

CYQB;2010-07-30 02:00;CYQB 300200Z 23009KT 15SM FEW085 14/10 A2988 RMK AC1 SLP120

CYQB;2010-07-30 03:00;CYQB 300300Z 35005KT 15SM FEW085 15/09 A2988 RMK AC1 OBS TAKEN +15 SLP119

CYQB;2010-07-30 04:00;CYQB 300400Z 31005KT 15SM FEW085 14/09 A2988 RMK AC1 SLP119

CYQB;2010-07-30 05:00;CYQB 300500Z 34006KT 15SM SCT085 SCT240 14/09 A2988 RMK AC3CI1 SLP119

CYQB;2010-07-30 06:00;CYQB 300600Z 24006KT 15SM SCT090 12/09 A2988 RMK AC3 SLP118

CYQB;2010-07-30 07:00;CYQB 300700Z 26006KT 15SM BKN089 12/09 A2987 RMK AC5 SLP116

CYQB;2010-07-30 08:00;CYQB 300800Z 26008KT 15SM FEW060 SCT090 11/09 A2987 RMK SC1AC3 SLP115

CYQB;2010-07-30 09:00;CYQB 300900Z 28006KT 15SM FEW065 FEW090 10/08 A2986 RMK SC2AC1 SLP113

CYQB;2010-07-30 10:00;CYQB 301000Z 27005KT 30SM FEW030 FEW065 BKN085 11/09 A2987 RMK SC1CU2AC2 SLP116

CYQB;2010-07-30 11:00;CYQB 301100Z 24006KT 30SM FEW065 BKN085 OVC230 13/10 A2989 RMK CU2AC2CI1 SLP121

CYQB;2010-07-30 12:00;CYQB 301200Z 29004KT 25SM FEW068 BKN085 OVC230 15/11 A2990 RMK CU2AC4CI1 SLP126

CYQB;2010-07-30 13:00;CYQB 301300Z 32005KT 25SM FEW039 SCT068 BKN085 BKN230 16/10 A2991 RMK CU1CU3AC1CI1 SLP128

CYQB;2010-07-30 13:12;CYQB 301312Z 33006KT 25SM FEW039 SCT068 BKN085 BKN230 16/ RMK CU1CU3AC1CI1

CYQB;2010-07-30 14:00;CYQB 301400Z 01002KT 20SM FEW030 BKN060 OVC085 17/10 A2991 RMK CU2CU5AC2 -SHRA NE SLP130

CYQB;2010-07-30 15:00;CYQB 301500Z 29002KT 20SM FEW032 BKN058 OVC085 17/10 A2992 RMK CU2CU5AC1 SLP131

CYQB;2010-07-30 16:00;CYQB 301600Z 33003KT 20SM BKN034 BKN058 OVC085 17/10 A2992 RMK SC5CU2AC1 -SHRA NE-E SLP133

CYQB;2010-07-30 17:00;CYQB 301700Z 33005KT 20SM VCSH SCT034 BKN040 OVC090 17/11 A2992 RMK SC4SC2AC2 SLP134

CYQB;2010-07-30 18:00;CYQB 301800Z 00000KT 20SM VCSH FEW035 BKN040 OVC090 17/11 A2993 RMK SC2SC2AC3 SLP137

CYQB;2010-07-30 19:00;CYQB 301900Z 32002KT 30SM VCSH FEW035 SCT040 BKN060 18/11 A2993 RMK SC2SC2SC3 SLP137

CYQB;2010-07-30 20:00;CYQB 302000Z 32003KT 30SM VCSH FEW035 SCT060 BKN073 19/12 A2994 RMK SC2SC2AC3 SLP138

CYQB;2010-07-30 21:00;CYQB 302100Z 23008KT 30SM FEW035 BKN068 BKN090 19/13 A2993 RMK CU1AC4AC2 SLP136

CYQB;2010-07-30 22:00;CYQB 302200Z 23010KT 30SM FEW035 BKN089 19/12 A2992 RMK SC2AC5 SLP134

CYQB;2010-07-30 23:00;CYQB 302300Z 24007KT 30SM FEW035 SCT060 BKN082 18/12 A2993 RMK CU1SC4AC3 SLP135

CYQB;2010-07-31 00:00;CYQB 310000Z 25005KT 30SM SCT052 BKN085 18/13 A2994 RMK SC4AC3 SLP139

CYQB;2010-07-31 01:00;CYQB 310100Z 25005KT 15SM FEW052 BKN087 17/13 A2995 RMK SC2AC5 SLP143

CYQB;2010-07-31 02:00;CYQB 310200Z 30003KT 15SM FEW060 BKN089 16/12 A2996 RMK SC1AC6 SLP147

CYQB;2010-07-31 03:00;CYQB 310300Z 33005KT 15SM BKN087 16/12 A2997 RMK AC7 SLP148

CYQB;2010-07-31 04:00;CYQB 310400Z 34006KT 15SM BKN087 16/12 A2997 RMK AC7 SLP149

CYQB;2010-07-31 05:00;CYQB 310500Z 33008KT 15SM BKN084 15/11 A2996 RMK AC6 SLP147

CYQB;2010-07-31 06:00;CYQB 310600Z 34006KT 15SM SCT085 14/11 A2997 RMK AC3 SLP149

CYQB;2010-07-31 07:00;CYQB 310700Z 36002KT 15SM FEW085 13/10 A2997 RMK AC1 SLP148

CYQB;2010-07-31 08:00;CYQB 310800Z 32008KT 15SM FEW085 12/10 A2997 RMK AC1 SLP150

CYQB;2010-07-31 09:00;CYQB 310900Z 31004KT 15SM BKN078 11/09 A2997 RMK AC6 SLP151

CYQB;2010-07-31 10:00;CYQB 311000Z 35003KT 25SM BKN078 12/09 A2999 RMK AC5 SLP157

CYQB;2010-07-31 11:00;CYQB 311100Z 00000KT 25SM FEW075 14/10 A3000 RMK AC2 SLP160

CYQB;2010-07-31 12:00;CYQB 311200Z 00000KT 25SM FEW075 16/11 A3001 RMK AC1 SLP164

CYQB;2010-07-31 13:00;CYQB 311300Z 04002KT 25SM FEW030 FEW075 18/10 A3001 RMK CU1AC1 SLP163

CYQB;2010-07-31 14:00;CYQB 311400Z 11003KT 25SM FEW030 FEW240 20/11 A3001 RMK CU1CI1 SLP162

CYQB;2010-07-31 15:00;CYQB 311500Z 33004KT 25SM FEW045 FEW240 21/07 A2999 RMK CU1CI1 SLP157

CYQB;2010-07-31 16:00;CYQB 311600Z 29006KT 25SM BKN066 22/08 A2998 RMK SC6 SLP154

CYQB;2010-07-31 17:00;CYQB 311700Z 24005KT 30SM SCT065 SCT240 23/07 A2998 RMK SC3CI0 SLP152

CYQB;2010-07-31 18:00;CYQB 311800Z 20007KT 30SM SCT070 BKN240 22/08 A2998 RMK AC4CI0 SLP152

CYQB;2010-07-31 19:00;CYQB 311900Z 29003KT 30SM SCT070 BKN240 23/08 A2997 RMK AC3CI0 SLP151

CYQB;2010-07-31 20:00;CYQB 312000Z 31006KT 30SM SCT070 BKN240 22/08 A2997 RMK AC3CI0 SLP150

CYQB;2010-07-31 21:00;CYQB 312100Z 19008KT 30SM FEW070 BKN240 23/07 A2997 RMK AC2CI1 SLP150

CYQB;2010-07-31 22:00;CYQB 312200Z 25005KT 30SM FEW070 BKN240 22/08 A2997 RMK AC1CI3 SLP150

CYQB;2010-07-31 23:00;CYQB 312300Z 22005KT 30SM FEW070 BKN240 21/09 A2997 RMK AC1CI6 SLP150

CYQB;2010-08-01 01:00;CYQB 010100Z 29004KT 15SM FEW070 FEW240 17/10 A2999 RMK AC1CI1 SLP156

CYQB;2010-08-01 02:00;CYQB 010200Z 26003KT 15SM FEW240 16/10 A3000 RMK CI0 SLP158

CYQB;2010-08-01 03:00;CYQB 010300Z 03003KT 15SM SKC 16/10 A3000 RMK SLP159

CYQB;2010-08-01 04:00;CYQB 010400Z 01003KT 15SM SKC 15/10 A3001 RMK SLP163

CYQB;2010-08-01 05:00;CYQB 010500Z 03005KT 15SM SKC 15/10 A3002 RMK SLP166

CYQB;2010-08-01 06:00;CYQB 010600Z 02005KT 15SM SKC 14/10 A3002 RMK SLP167

CYQB;2010-08-01 07:00;CYQB 010700Z 02005KT 15SM SKC 13/10 A3003 RMK SLP170

CYQB;2010-08-01 08:00;CYQB 010800Z 02004KT 15SM FEW250 13/10 A3004 RMK CI1 SLP174

CYQB;2010-08-01 09:00;CYQB 010900Z 36005KT 15SM FEW065 FEW250 12/09 A3006 RMK AC1AC1 SLP179

CYQB;2010-08-01 10:00;CYQB 011000Z 36005KT 25SM FEW060 12/09 A3007 RMK SC2 SLP182

CYQB;2010-08-01 11:00;CYQB 011100Z 01003KT 25SM FEW060 13/10 A3008 RMK SC1 SLP186

CYQB;2010-08-01 12:00;CYQB 011200Z 05002KT 25SM FEW060 16/10 A3009 RMK SC1 SLP189

CYQB;2010-08-01 13:00;CYQB 011300Z 00000KT 25SM FEW040 19/12 A3009 RMK CU1 SLP191

CYQB;2010-08-01 14:00;CYQB 011400Z 05002KT 25SM FEW045 21/11 A3009 RMK CU1 SLP189

CYQB;2010-08-01 15:00;CYQB 011500Z 20003KT 25SM FEW045 23/12 A3008 RMK CU1 SLP186

CYQB;2010-08-01 16:00;CYQB 011600Z 23004KT 25SM FEW045 24/11 A3007 RMK CU1 SLP182

CYQB;2010-08-01 17:00;CYQB 011700Z 23006KT 25SM FEW045 24/10 A3006 RMK CU1 SLP181

CYQB;2010-08-01 18:00;CYQB 011800Z 24005KT 25SM FEW050 25/11 A3005 RMK CU1 SLP177

CYQB;2010-08-01 19:00;CYQB 011900Z 23004KT 30SM FEW060 25/11 A3003 RMK CU1 SLP171

CYQB;2010-08-01 20:00;CYQB 012000Z 13004KT 30SM FEW060 26/11 A3003 RMK CU1 SLP171

CYQB;2010-08-01 21:00;CYQB 012100Z 27004KT 30SM FEW062 FEW250 26/11 A3003 RMK CU1CI0 SLP171

CYQB;2010-08-01 22:00;CYQB 012200Z 27005KT 30SM FEW060 FEW250 26/10 A3003 RMK CU1CI0 SLP171

CYQB;2010-08-01 23:00;CYQB 012300Z 28003KT 30SM FEW055 FEW250 25/11 A3004 RMK CU1CI0 SLP172

CYQB;2010-08-02 00:00;CYQB 020000Z 29003KT 30SM FEW050 SCT250 23/12 A3004 RMK SC1CI0 SLP173

CYQB;2010-08-02 01:00;CYQB 020100Z 00000KT 15SM SCT250 20/12 A3006 RMK CI0 SLP178

CYQB;2010-08-02 02:00;CYQB 020200Z 36004KT 15SM FEW250 20/11 A3006 RMK CI0 SLP178

CYQB;2010-08-02 03:00;CYQB 020300Z 01005KT 15SM BKN250 18/11 A3006 RMK CI2 SLP180

CYQB;2010-08-02 04:00;CYQB 020400Z 02005KT 15SM SCT250 17/11 A3007 RMK CI2 SLP183

CYQB;2010-08-02 05:00;CYQB 020500Z 01005KT 15SM SCT250 16/11 A3007 RMK CI1 SLP184

CYQB;2010-08-02 06:00;CYQB 020600Z 02005KT 15SM SKC 15/10 A3007 RMK SLP183

CYQB;2010-08-02 07:00;CYQB 020700Z 36004KT 15SM SKC 15/10 A3008 RMK SLP185

CYQB;2010-08-02 08:00;CYQB 020800Z 01004KT 15SM SKC 14/10 A3008 RMK SLP185

CYQB;2010-08-02 09:00;CYQB 020900Z 02004KT 15SM FEW065 14/10 A3008 RMK SC1 SLP188

CYQB;2010-08-02 10:00;CYQB 021000Z 01004KT 25SM FEW065 14/10 A3009 RMK AC2 SLP191

CYQB;2010-08-02 11:00;CYQB 021100Z 01003KT 25SM SCT065 SCT180 15/11 A3011 RMK SC3CI1 SLP195

CYQB;2010-08-02 12:00;CYQB 021200Z 07005KT 25SM FEW060 FEW180 19/12 A3011 RMK SC2CI1 SLP196

CYQB;2010-08-02 13:00;CYQB 021300Z 05004KT 25SM FEW070 SCT180 22/12 A3010 RMK AC2CI1 SLP193

CYQB;2010-08-02 14:00;CYQB 021400Z 12004KT 25SM SCT030 BKN065 23/15 A3010 RMK SC4AC2 SLP192

CYQB;2010-08-02 15:00;CYQB 021500Z 14005KT 25SM FEW030 FEW065 SCT180 23/16 A3008 RMK CU2AC1CI1 SLP185

CYQB;2010-08-02 16:00;CYQB 021600Z 13004KT 25SM SCT032 BKN065 BKN200 25/17 A3006 RMK CU3AC2CI1 SLP180

CYQB;2010-08-02 17:00;CYQB 021700Z 20004KT 20SM SCT032 BKN065 BKN200 26/17 A3005 RMK CU3AC2CI1 SLP176

CYQB;2010-08-02 18:00;CYQB 021800Z 21005KT 25SM SCT038 BKN060 BKN200 26/17 A3004 RMK CU4SC2CI1 TCU EMBD SLP172

CYQB;2010-08-02 19:00;CYQB 021900Z 24008KT 25SM -SHRA SCT025 BKN090 BKN200 25/19 A3002 RMK CU3AC2CI1 TCU EMBDD SLP165

CYQB;2010-08-02 19:10;CYQB 021910Z 25005KT 30SM SCT030TCU BKN140 BKN200 26/ RMK TCU3AC2CI1

CYQB;2010-08-02 20:00;CYQB 022000Z 25002KT 30SM SCT035TCU BKN130 BKN200 27/18 A3001 RMK TCU3AC2CI1 CB SE SLP162

CYQB;2010-08-02 21:00;CYQB 022100Z 24009KT 30SM SCT040TCU BKN130 BKN200 27/17 A2999 RMK TCU4AC1CI1 CB E-SE SHWRS S SLP157

CYQB;2010-08-02 22:00;CYQB 022200Z 23008KT 30SM FEW035TCU BKN100 BKN200 25/17 A2999 RMK TCU2AC2CI0 CB SE SHWRS S SLP157

CYQB;2010-08-02 23:00;CYQB 022300Z 00000KT 30SM FEW035TCU BKN100 BKN220 24/17 A2999 RMK TCU2AC2CI2 CB TOPS S SLP157

CYQB;2010-08-03 00:00;CYQB 030000Z CCA 11006KT 30SM FEW030TCU BKN110 BKN220 23/18 A3000 RMK TCU2AC3CI2 SLP158

CYQB;2010-08-03 01:00;CYQB 030100Z 07007KT 15SM SCT050 BKN110 BKN220 22/18 A3000 RMK CU3AC2CI2 SLP160

CYQB;2010-08-03 01:23;CYQB 030123Z 06007KT 15SM TS SCT050TCU BKN110 OVC220 22/ RMK TCU3AC3CI2 CB ASOCTD LTGCC WSW

CYQB;2010-08-03 01:49;CYQB 030149Z 28008G16KT 3SM -TSRA BKN015CB OVC036 21/ RMK CB5SC3

CYQB;2010-08-03 01:53;CYQB 030153Z 01004G16KT 2SM TSRA BKN017CB OVC033 20/ RMK CB6SC2

CYQB;2010-08-03 02:00;CYQB 030200Z 00000KT 2SM TSRA BKN016CB OVC027 20/19 A3001 RMK CB6SC2 SLP162

CYQB;2010-08-03 02:35;CYQB 030235Z 13004KT 8SM BKN030TCU BKN070 OVC240 20/ RMK TCU5AC2CI1 CB EMBD

CYQB;2010-08-03 03:00;CYQB 030300Z 00000KT 15SM SCT026 SCT085 BKN110 OVC190 20/18 A3000 RMK CU3AC1AC1CI3 TCU ASOCTD SLP158

CYQB;2010-08-03 04:00;CYQB 030400Z 24005KT 10SM -TSRA BKN010CB BKN053 OVC100 19/18 A3000 RMK CB5SC2AC2 LTGCC SLP160

CYQB;2010-08-03 04:02;CYQB 030402Z 22005KT 3SM TSRA BKN005CB OVC023 19/ RMK CB6SC2

CYQB;2010-08-03 04:47;CYQB 030447Z 25004KT 10SM SCT025 BKN082 OVC130 19/ RMK CU3AC2AC2 TCU ASOCTD

CYQB;2010-08-03 05:00;CYQB 030500Z CCA 28004KT 10SM FEW025 SCT069 BKN085 OVC130 19/19 A2999 RETS RMK CU2AC2AC3AC1 TCU ASOCTD SLP155

CYQB;2010-08-03 06:00;CYQB 030600Z 23005KT 10SM FEW018 SCT043 OVC090 19/18 A3000 RMK SC2CU2AC4 SLP157

CYQB;2010-08-03 06:08;CYQB 030608Z 23006KT 10SM -SHRA FEW017 SCT045 OVC090 19/ RMK SC2CU2AC4

CYQB;2010-08-03 06:35;CYQB 030635Z 24012G17KT 3SM SHRA FEW011 SCT024 OVC040 19/ RMK SF2CU2SC4 TCU ASOCTD

CYQB;2010-08-03 07:00;CYQB 030700Z 28009G16KT 4SM -SHRA FEW011 BKN030 OVC050 19/18 A2998 RERA RMK SF1SC4SC3 TCU ASOCTD SLP152

CYQB;2010-08-03 08:00;CYQB 030800Z 22006KT 5SM -SHRA FEW004 FEW040 OVC100 19/18 A2998 RERA RMK SF1SC2AC6 SLP152

CYQB;2010-08-03 08:18;CYQB 030818Z 24003KT 5SM -SHRA BKN007 BKN041 OVC110 19/ RMK SF5SC2AC2

CYQB;2010-08-03 09:00;CYQB 030900Z 25005KT 5SM -SHRA BR SCT006 BKN060 BKN110 19/18 A2998 RMK SF3SC2AC2 SLP152

CYQB;2010-08-03 10:00;CYQB 031000Z 27004KT 5SM BR SCT006 SCT038 BKN120 19/18 A2999 RMK SF3SC1AC3 OBS TAKEN +15 SLP154

CYQB;2010-08-03 11:00;CYQB 031100Z 25004KT 4SM BR FEW006 BKN020 BKN100 19/19 A2998 RMK SF2SC2AC2 SLP152

CYQB;2010-08-03 12:00;CYQB 031200Z 24005KT 4SM BR FEW009 OVC016 20/19 A2999 RMK SF2SC6 SLP154

CYQB;2010-08-03 13:00;CYQB 031300Z 23005KT 6SM BR SCT008 OVC011 21/17 A2997 RMK SF3SC5 SLP150

CYQB;2010-08-03 14:00;CYQB 031400Z 26004KT 8SM SCT008 OVC011 20/18 A2998 RMK SF4SC4 BR SLP151

CYQB;2010-08-03 15:00;CYQB 031500Z 28002KT 8SM SCT008 BKN011 OVC020 21/19 A2997 RMK SF4SC3SC1 BR SLP150

CYQB;2010-08-03 16:00;CYQB 031600Z 25005KT 8SM SCT008 OVC013 21/19 A2996 RMK SF4SC4 HAZY SLP146

CYQB;2010-08-03 17:00;CYQB 031700Z 26004KT 15SM FEW008 BKN017 BKN080 23/19 A2994 RMK SF2SC5AC1 SLP140

CYQB;2010-08-03 18:00;CYQB 031800Z 21005KT 30SM FEW012 BKN030 BKN080 24/20 A2993 RMK CF2SC4AC2 SLP134

CYQB;2010-08-03 19:00;CYQB 031900Z 22007KT 30SM FEW015 SCT030 BKN085 25/19 A2991 RMK CF1CU3AC2 SLP127

CYQB;2010-08-03 20:00;CYQB 032000Z 26005KT 20SM FEW015 BKN045TCU BKN085 24/16 A2989 RMK CF1TCU4AC2 CB CELL WSW SHWRS W-SW SLP121

CYQB;2010-08-03 20:13;CYQB 032013Z 23007KT 10SM -SHRA FEW008 BKN023TCU OVC085 24/ RMK CF1TCU5AC2 VSBY 2 W-S

CYQB;2010-08-03 20:22;CYQB 032022Z 21008KT 10SM -TSRA FEW008 BKN033TCU OVC085 22/ RMK SF2TCU5AC2 CB ASOCTD VSBY LWR S

CYQB;2010-08-03 21:00;CYQB 032100Z 24002KT 8SM -SHRA FEW008 BKN030TCU OVC085 21/20 A2988 RETS RMK SF2TCU4AC2 VSBY LWR E SLP119

CYQB;2010-08-03 21:08;CYQB 032108Z 33003KT 10SM FEW025 BKN060 OVC085 21/ RMK CU2SC4AC2 SHWRS E

CYQB;2010-08-03 22:00;CYQB 032200Z 00000KT 10SM FEW010 BKN060 BKN085 22/20 A2986 RMK SF1SC5AC2 SLP113

CYQB;2010-08-03 22:14;CYQB 032214Z 01003KT 10SM -SHRA FEW008 BKN044TCU OVC090 22/ RMK SF1TCU4AC3

CYQB;2010-08-03 22:52;CYQB 032252Z 00000KT 8SM -SHRA BKN004 BKN014 OVC034TCU 21/ RMK SF3SC2TCU3

CYQB;2010-08-03 23:00;CYQB 032300Z 00000KT 8SM -SHRA SCT005 BKN018 OVC028TCU 21/20 A2986 RMK SF3SC2TCU2 CIG LWR S VSBY LWR S SLP110

CYQB;2010-08-03 23:06;CYQB 032306Z 00000KT 1 1/2SM R06/3000VP6000FT/D TSRA BR SCT005 OVC011TCU 21/ RMK SF3TCU5 CB ASOCTD

CYQB;2010-08-03 23:39;CYQB 032339Z 00000KT 2SM -SHRA BR SCT003 BKN007 OVC020TCU 21/ RETS RMK SF3SF3TCU2

CYQB;2010-08-04 00:00;CYQB 040000Z 01004KT 4SM BR SCT005 OVC026 21/20 A2985 RETS RMK SF3SC5 SLP107

CYQB;2010-08-04 01:00;CYQB 040100Z 00000KT 4SM BR SCT005 OVC020 21/20 A2984 RMK SF3SC5 SLP104

CYQB;2010-08-04 02:00;CYQB 040200Z 00000KT 5SM BR SCT009 OVC014 21/20 A2983 RMK SF3SC5 SLP100

CYQB;2010-08-04 03:00;CYQB 040300Z 16004KT 4SM BR FEW004 BKN006 OVC015 21/20 A2982 RMK SF2SF5SC1 SLP098

CYQB;2010-08-04 03:24;CYQB 040324Z 00000KT 4SM BR FEW006 OVC013 20/ RMK SF2SF6 VIS LWR N

CYQB;2010-08-04 04:00;CYQB 040400Z 13002KT 4SM BR FEW006 OVC018 20/19 A2981 RMK SF2SC6 SLP094

CYQB;2010-08-04 05:00;CYQB 040500Z 00000KT 5SM BR BKN010 BKN017 OVC030 20/19 A2979 RMK SF5SC2SC2 SLP087

CYQB;2010-08-04 05:27;CYQB 040527Z 00000KT 5SM BR OVC006 20/ RMK SF8

CYQB;2010-08-04 06:00;CYQB 040600Z 00000KT 5SM BR BKN008 OVC032 20/19 A2978 RMK SF7SC1 SLP084

CYQB;2010-08-04 07:00;CYQB 040700Z 01002KT 3SM BR BKN005 OVC046 20/19 A2976 RMK SF6SC2 SLP078

CYQB;2010-08-04 08:00;CYQB 040800Z 06002KT 3SM BR SCT005 BKN020 BKN040 OVC060 20/19 A2974 RMK SF4SC1SC2SC1 SLP071

CYQB;2010-08-04 08:27;CYQB 040827Z 08003KT 3SM -SHRA BR SCT005 OVC020TCU 20/ RMK SF4TCU4

CYQB;2010-08-04 09:00;CYQB 040900Z 12004KT 3SM -TSRA BR OVC009CB 20/19 A2973 RMK CB8 SLP067

CYQB;2010-08-04 10:00;CYQB 041000Z 36002KT 1 1/4SM -TSRA BR OVC008 21/20 A2973 RMK SF8 CB EMBD SLP068

CYQB;2010-08-04 10:12;CYQB 041012Z 01003KT 3/4SM R06/P6000FT/D -SHRA BR BKN003 OVC006 20/ RETS RMK SF5SF3 CB EMBD

CYQB;2010-08-04 11:00;CYQB 041100Z 20002KT 1 1/2SM BR BKN005 OVC010 21/20 A2973 RETS RMK SF7SF1 SLP069

CYQB;2010-08-04 12:00;CYQB 041200Z 23010KT 2 1/2SM -DZ BR BKN005 OVC010 21/20 A2972 RMK SF7SF1 SLP066

CYQB;2010-08-04 12:27;CYQB 041227Z 23010KT 4SM BR BKN008 OVC014 22/ RMK SF6SC2

CYQB;2010-08-04 13:00;CYQB 041300Z 23013KT 5SM BR BKN009 OVC014 21/20 A2974 RMK SF6SC2 SLP070

CYQB;2010-08-04 14:00;CYQB 041400Z 24009KT 5SM BR BKN009 OVC014 22/21 A2974 RMK SF6SC2 SLP070

CYQB;2010-08-04 15:00;CYQB 041500Z 23010KT 8SM SCT009 OVC014 23/20 A2973 RMK SF4SC4 SLP069

CYQB;2010-08-04 16:00;CYQB 041600Z 26007KT 15SM SCT014 BKN025 BKN040 23/20 A2972 RMK SF4SC1SC2 SLP066

CYQB;2010-08-04 17:00;CYQB 041700Z 25010KT 15SM SCT025 BKN045 26/21 A2970 RMK SC4SC2 SLP058

CYQB;2010-08-04 18:00;CYQB 041800Z 23011G18KT 20SM FEW028 BKN240 27/21 A2968 RMK SC2CI0 CU ASOCTD SLP049

CYQB;2010-08-04 19:00;CYQB 041900Z 24016KT 20SM SCT030 SCT110 BKN230 27/21 A2965 RMK SC3AC1CI0 SLP041

CYQB;2010-08-04 20:00;CYQB 042000Z 24015G21KT 15SM FEW040 SCT110 BKN230 28/21 A2965 RMK SC2AC1CI2 VIS LWR N SLP039

CYQB;2010-08-04 21:00;CYQB 042100Z 24016KT 15SM FEW035 SCT120 BKN200 28/21 A2963 RMK SC2AC1CI0 VIS LWR N SLP032

CYQB;2010-08-04 22:00;CYQB 042200Z 23010G15KT 15SM FEW040 SCT110 BKN220 27/20 A2961 RMK SC2AC1CI0 CB EMBD N MOVG E VIS LWR N SLP027

CYQB;2010-08-04 22:35;CYQB 042235Z 35007G17KT 15SM TS BKN034CB BKN040 24/19 RMK CB5SC2 CB N

CYQB;2010-08-04 23:00;CYQB 042300Z 02009G18KT 5SM -TSRA BR BKN032CB BKN100 24/19 A2963 RMK CB5AC2 TCU S VIS S 15 SLP034

CYQB;2010-08-04 23:06;CYQB 042306Z 30019G35KT 1/8SM R06/1400V1800FT/N +TSRA FG OVC004CB 20/ RMK CB8

CYQB;2010-08-04 23:17;CYQB 042317Z 00000KT 5SM R06/2600VP6000FT/N -TSRA BR BKN032CB BKN060 20/ RMK CB5SC2

CYQB;2010-08-04 23:23;CYQB 042323Z CCA 00000KT 5SM R06/2600VP6000FT/N -TSRA BR BKN032CB BKN060 20/ RMK CB5SC2 VIS LWR S

CYQB;2010-08-05 00:00;CYQB 050000Z CCA 27007KT 5SM -TSRA BR BKN035 BKN064 21/18 A2964 RMK SC5SC2 CB EMBD SLP035

CYQB;2010-08-05 00:23;CYQB 050023Z 12002KT 2SM -TSRA BR OVC040 21/ RMK SC8 CB EMBD

CYQB;2010-08-05 01:00;CYQB 050100Z CCA 18006KT 5SM -TSRA BR FEW008 BKN030 20/19 A2965 RMK SF1SC6 CB EMBD PRESSRR SLP041

CYQB;2010-08-05 01:23;CYQB 050123Z 15007KT 10SM -SHRA OVC025 20/ RMK SC8 RETS

CYQB;2010-08-05 02:00;CYQB 050200Z 35003KT 10SM OVC030 21/19 A2965 RMK SC8 RETS SLP039

CYQB;2010-08-05 03:00;CYQB 050300Z 00000KT 10SM FEW010 FEW180 20/19 A2964 RMK SC2CI1 SLP036

CYQB;2010-08-05 04:00;CYQB 050400Z 00000KT 10SM FEW010 BKN020 BKN130 20/19 A2962 RMK SC2SC4AC1 SLP029

CYQB;2010-08-05 05:00;CYQB 050500Z 28002KT 10SM BKN017 BKN130 20/19 A2961 RMK SC6AC1 SLP027

CYQB;2010-08-05 06:00;CYQB 050600Z 14002KT 8SM OVC012 20/19 A2961 RMK SC8 SLP027

CYQB;2010-08-05 07:00;CYQB 050700Z 23004KT 10SM BKN010 OVC020 20/19 A2961 RMK SC7SC1 SLP026

CYQB;2010-08-05 08:00;CYQB 050800Z 23004KT 10SM BKN007 BKN015 21/20 A2960 RMK SF5SC1 SLP022

CYQB;2010-08-05 09:00;CYQB 050900Z 00000KT 8SM BKN008 BKN014 21/20 A2960 RMK SF6SC1 SLP022

CYQB;2010-08-05 09:23;CYQB 050923Z 00000KT 4SM BR BKN005 OVC013 20/ RMK SF7SC1

CYQB;2010-08-05 10:00;CYQB 051000Z 00000KT 3SM BR BKN005 OVC013 20/20 A2960 RMK SF6SC2 SLP024

CYQB;2010-08-05 10:29;CYQB 051029Z 27002KT 3SM BR SCT005 OVC016 21/ RMK SF4SC4

CYQB;2010-08-05 11:00;CYQB 051100Z 00000KT 3SM BR FEW005 OVC015 21/20 A2960 RMK SF2SC6 SLP024

CYQB;2010-08-05 12:00;CYQB 051200Z 00000KT 3SM BR SCT006 OVC015 21/20 A2960 RMK SF4SC4 SLP024

CYQB;2010-08-05 13:00;CYQB 051300Z 26003KT 3SM BR SCT006 OVC011 22/21 A2959 RMK SF4SC4 SLP019

CYQB;2010-08-05 14:00;CYQB 051400Z 26003KT 6SM BR SCT008 OVC013 23/21 A2957 RMK SF4SC4 SLP013

CYQB;2010-08-05 14:40;CYQB 051440Z 23003KT 7SM SCT012 BKN150 24/ RMK SC4AC2 HAZY

CYQB;2010-08-05 15:00;CYQB 051500Z 22002KT 7SM SCT015 BKN150 25/21 A2955 RMK SC4AC2 HAZY SLP007

CYQB;2010-08-05 16:00;CYQB 051600Z 27003KT 8SM SCT017 BKN150 26/22 A2954 RMK SC4AC0 HAZY SLP003

CYQB;2010-08-05 17:00;CYQB 051700Z 23007KT 7SM BKN028 27/21 A2951 RMK SC6 SLP993

CYQB;2010-08-05 18:00;CYQB 051800Z 25012KT 10SM SCT028 28/21 A2949 RMK CU4 SLP986

CYQB;2010-08-05 19:00;CYQB 051900Z 23011KT 10SM FEW030 SCT150 29/20 A2946 RMK CU2AC1 HAZY SLP975

CYQB;2010-08-05 20:00;CYQB 052000Z 22011KT 10SM SCT048 SCT150 29/19 A2944 RMK CU3AC1 HAZY SLP968

CYQB;2010-08-05 21:00;CYQB 052100Z 24015G20KT 10SM SCT045TCU SCT150 29/19 A2942 RMK TCU3AC1 SLP963

CYQB;2010-08-05 22:00;CYQB 052200Z 32006KT 15SM BKN041TCU 23/16 A2944 RMK TCU6 -SHRA N-NE SLP968

CYQB;2010-08-05 23:00;CYQB 052300Z 35007KT 15SM SCT045TCU SCT150 24/18 A2943 RMK TCU3AC1 SLP964

CYQB;2010-08-06 00:00;CYQB 060000Z 01002KT 15SM FEW045TCU FEW150 22/18 A2942 RMK TCU2AC1 SLP961

CYQB;2010-08-06 01:00;CYQB 060100Z 33003KT 15SM FEW045TCU 21/18 A2941 RMK TCU2 LTNG DIST N SLP959

CYQB;2010-08-06 02:00;CYQB 060200Z CCA 31012G37KT 12SM -SHRA FEW030 BKN060 BKN140 20/18 A2945 RMK SC1SC6AC1 CB EMBD LTNG DIST N SLP974

CYQB;2010-08-06 03:00;CYQB 060300Z 19005KT 15SM FEW030 BKN120 19/17 A2945 RMK SC1AC7 SLP972

CYQB;2010-08-06 04:00;CYQB 060400Z 25005KT 15SM FEW120 18/16 A2945 RMK AC1 SLP974

CYQB;2010-08-06 05:00;CYQB 060500Z 25009KT 15SM FEW120 18/16 A2944 RMK AC2 SLP970

CYQB;2010-08-06 06:00;CYQB 060600Z 24011KT 15SM FEW010 17/16 A2945 RMK SC1 SLP974

CYQB;2010-08-06 07:00;CYQB 060700Z 25009KT 15SM FEW010 16/15 A2946 RMK SC1 SLP977

CYQB;2010-08-06 08:00;CYQB 060800Z 25010KT 15SM FEW010 16/15 A2948 RMK SC1 SLP983

CYQB;2010-08-06 09:00;CYQB 060900Z 23010KT 15SM FEW010 FEW110 16/15 A2949 RMK SC1AC1 SLP987

CYQB;2010-08-06 10:00;CYQB 061000Z 25012KT 15SM FEW008 FEW025 15/14 A2951 RMK CF1SC1 SLP992

CYQB;2010-08-06 11:00;CYQB 061100Z 24010KT 15SM FEW008 SCT030 BKN110 17/15 A2954 RMK CU2SC2AC0 SLP002

CYQB;2010-08-06 12:00;CYQB 061200Z 24009KT 15SM SCT012 BKN036 17/15 A2955 RMK CU3SC3 SLP006

CYQB;2010-08-06 13:00;CYQB 061300Z 26011KT 15SM BKN022 18/14 A2956 RMK CU6 SLP010

CYQB;2010-08-06 14:00;CYQB 061400Z 26010KT 15SM FEW020 FEW070 BKN097 18/13 A2957 RMK CU2AC1AC3 SLP014

CYQB;2010-08-06 15:00;CYQB 061500Z 28011G19KT 15SM FEW020 BKN110 19/10 A2959 RMK CU2AC2 SLP019

CYQB;2010-08-06 16:00;CYQB 061600Z 27013G19KT 15SM SCT030 BKN120 19/10 A2961 RMK SC3AC2 SLP026

CYQB;2010-08-06 17:00;CYQB 061700Z 27014G21KT 30SM SCT050 BKN120 19/09 A2961 RMK SC4AC1 SLP026

CYQB;2010-08-06 18:00;CYQB 061800Z 27016G26KT 30SM SCT050 BKN110 20/08 A2960 RMK SC4AC1 SLP025

CYQB;2010-08-06 19:00;CYQB 061900Z 29013G21KT 30SM SCT050 BKN210 20/08 A2960 RMK SC4CI1 SLP024

CYQB;2010-08-06 20:00;CYQB 062000Z 29014G21KT 30SM BKN064 BKN210 19/07 A2963 RMK SC6CI1 SLP033

CYQB;2010-08-06 21:00;CYQB 062100Z 28012G19KT 30SM BKN065 BKN210 19/05 A2964 RMK SC6CI1 SLP036

CYQB;2010-08-06 22:00;CYQB 062200Z 28015G21KT 15SM SCT065 19/05 A2966 RMK SC4 SLP043

CYQB;2010-08-06 23:00;CYQB 062300Z 28014G21KT 30SM SCT065 17/04 A2969 RMK SC4 SLP053

CYQB;2010-08-07 00:00;CYQB 070000Z 30007KT 30SM FEW065 15/05 A2971 RMK SC2 SLP062

CYQB;2010-08-07 01:00;CYQB 070100Z 27005KT 15SM FEW065 12/06 A2974 RMK SC2 SLP070

CYQB;2010-08-07 02:00;CYQB 070200Z 27005KT 15SM FEW065 11/06 A2976 RMK SC2 SLP078

CYQB;2010-08-07 03:00;CYQB 070300Z 22004KT 15SM SKC 11/06 A2977 RMK SLP081

CYQB;2010-08-07 04:00;CYQB 070400Z 23005KT 15SM SKC 11/05 A2977 RMK SLP081

CYQB;2010-08-07 05:00;CYQB 070500Z 24006KT 15SM SKC 10/05 A2977 RMK SLP082

CYQB;2010-08-07 06:00;CYQB 070600Z 24003KT 15SM SKC 09/05 A2978 RMK SLP084

CYQB;2010-08-07 07:00;CYQB 070700Z 27002KT 15SM FEW065 09/05 A2978 RMK SC1 SLP087

CYQB;2010-08-07 08:00;CYQB 070800Z 00000KT 15SM SKC 08/05 A2979 RMK SLP090

CYQB;2010-08-07 09:00;CYQB 070900Z 00000KT 30SM FEW065 07/06 A2981 RMK SC1 SLP096

CYQB;2010-08-07 10:00;CYQB 071000Z 15003KT 30SM FEW063 07/06 A2983 RMK SC1 SLP104

CYQB;2010-08-07 11:00;CYQB 071100Z 00000KT 30SM FEW042 FEW095 10/07 A2986 RMK SC1AC1 SLP111

CYQB;2010-08-07 12:00;CYQB 071200Z 24004KT 30SM FEW042 FEW095 12/08 A2987 RMK SC1AC1 SLP117

CYQB;2010-08-07 13:00;CYQB 071300Z 19006KT 40SM FEW038 FEW095 13/08 A2989 RMK SC2AC1 SLP123

CYQB;2010-08-07 14:00;CYQB 071400Z 25011KT 40SM FEW038 FEW095 16/07 A2989 RMK SC2AC1 OBS TAKEN +5 SLP123

CYQB;2010-08-07 15:00;CYQB 071500Z 26014KT 30SM SCT035 BKN055 17/08 A2990 RMK SC4CU1 SLP125

CYQB;2010-08-07 16:00;CYQB 071600Z 25011KT 30SM FEW035 BKN063 BKN095 17/06 A2989 RMK SC2CU4AC1 SLP124

CYQB;2010-08-07 17:00;CYQB 071700Z 23012G19KT 30SM SCT060 BKN083 17/06 A2989 RMK SC3AC4 SLP121

CYQB;2010-08-07 18:00;CYQB 071800Z 23014KT 30SM SCT065 BKN085 19/07 A2989 RMK SC4AC2 VIRGA NW-N SLP121

CYQB;2010-08-07 18:19;CYQB 071819Z 28011G20KT 30SM -SHRA FEW055 BKN065 BKN090 RMK SC2SC3AC2

CYQB;2010-08-07 18:31;CYQB 071831Z 28006KT 30SM FEW055 BKN060 BKN090 RMK SC2SC3AC2 DIST SH W-NW

CYQB;2010-08-07 19:00;CYQB 071900Z 26011G16KT 30SM FEW055 BKN063 BKN090 18/07 A2989 RMK SC2SC3AC2 VIRGA ALL QUADS SLP121

CYQB;2010-08-07 20:00;CYQB 072000Z 25013G19KT 30SM FEW068 BKN090 19/06 A2989 RMK SC2AC3 VIRGA E SLP122

CYQB;2010-08-07 21:00;CYQB 072100Z 23012G19KT 30SM FEW065 FEW090 FEW250 19/06 A2989 RMK SC1AC1CI0 SLP121

CYQB;2010-08-07 22:00;CYQB 072200Z 22013G18KT 30SM FEW065 FEW090 FEW250 19/06 A2988 RMK SC1AC1CI1 SLP118

CYQB;2010-08-07 23:00;CYQB 072300Z 24011G16KT 30SM FEW090 FEW250 18/06 A2989 RMK AC2CI0 SLP121

CYQB;2010-08-08 00:00;CYQB 080000Z 22011KT 30SM SCT085 BKN250 18/07 A2989 RMK AC4CI0 SLP122

CYQB;2010-08-08 01:00;CYQB 080100Z CCA 23012KT 30SM SCT090 SCT250 16/07 A2990 RMK AC3CI0 SLP126

CYQB;2010-08-08 02:00;CYQB 080200Z 27005KT 30SM SCT090 15/08 A2991 RMK AC3 SLP130

CYQB;2010-08-08 03:00;CYQB 080300Z 25007KT 15SM FEW090 13/09 A2992 RMK AC2 SLP131

CYQB;2010-08-08 04:00;CYQB 080400Z 25004KT 15SM FEW090 12/09 A2992 RMK AC1 SLP132

CYQB;2010-08-08 05:00;CYQB 080500Z 26004KT 15SM SCT099 11/09 A2991 RMK AC4 SLP130

CYQB;2010-08-08 06:00;CYQB 080600Z 25002KT 15SM BKN100 13/09 A2990 RMK AC7 SLP127

CYQB;2010-08-08 07:00;CYQB 080700Z 27002KT 15SM BKN100 13/09 A2991 RMK AC7 SLP129

CYQB;2010-08-08 08:00;CYQB 080800Z 00000KT 15SM BKN100 13/08 A2991 RMK AC7 SLP128

CYQB;2010-08-08 09:00;CYQB 080900Z 00000KT 15SM OVC100 13/09 A2991 RMK AC8 SLP128

CYQB;2010-08-08 10:00;CYQB 081000Z 00000KT 30SM SCT100 12/09 A2991 RMK AC3 SLP128

CYQB;2010-08-08 11:00;CYQB 081100Z 00000KT 30SM FEW100 14/09 A2990 RMK AC2 SLP127

CYQB;2010-08-08 12:00;CYQB 081200Z 26009KT 30SM FEW100 16/12 A2992 RMK AC2 SLP131

CYQB;2010-08-08 13:00;CYQB 081300Z 23013G19KT 30SM SCT100 17/12 A2990 RMK AC3 SLP125

CYQB;2010-08-08 14:00;CYQB 081400Z 22010KT 30SM FEW033 SCT100 18/13 A2991 RMK CU1AC3 SLP128

CYQB;2010-08-08 15:00;CYQB 081500Z 24012KT 30SM FEW021 SCT041 BKN100 20/15 A2990 RMK SC1CU3AC2 SLP126

CYQB;2010-08-08 16:00;CYQB 081600Z 24013G19KT 30SM SCT028 BKN041 BKN100 21/15 A2990 RMK SC4CU2AC2 SLP125

CYQB;2010-08-08 17:00;CYQB 081700Z 23009KT 30SM BKN031 OVC041 21/15 A2989 RMK SC6CU2 SLP123

CYQB;2010-08-08 18:00;CYQB 081800Z 24014KT 30SM SCT039 BKN068 22/16 A2989 RMK SC4AC2 SLP122

CYQB;2010-08-08 19:00;CYQB 081900Z 25010KT 25SM BKN042 OVC070 23/16 A2988 RMK SC6AC2 SLP118

CYQB;2010-08-08 20:00;CYQB 082000Z 25009KT 25SM BKN040 OVC080 23/16 A2987 RMK SC6AC2 SLP117

CYQB;2010-08-08 20:53;CYQB 082053Z 24013G19KT 25SM -SHRA BKN044 OVC080 22/ RMK SC6AC2

CYQB;2010-08-08 21:00;CYQB 082100Z 24013G19KT 25SM -SHRA BKN044 OVC080 22/15 A2988 RMK SC6AC2 SLP120

CYQB;2010-08-08 22:00;CYQB 082200Z 23006KT 25SM SCT045 OVC110 22/15 A2988 RMK SC3AC5 SLP119

CYQB;2010-08-08 23:00;CYQB 082300Z 24009KT 25SM FEW038 OVC110 22/15 A2988 RMK SC2AC6 SLP120

CYQB;2010-08-09 00:00;CYQB 090000Z 24003KT 25SM BKN038 OVC110 21/15 A2988 RMK SC6AC2 SLP117

CYQB;2010-08-09 01:00;CYQB 090100Z 22011KT 15SM -SHRA OVC037 21/15 A2988 RMK SC8 SLP117

CYQB;2010-08-09 02:00;CYQB 090200Z 25006KT 5SM -SHRA BR OVC022 19/17 A2988 RMK SC8 SLP119

CYQB;2010-08-09 03:00;CYQB 090300Z 22009KT 8SM FEW015 OVC022 19/18 A2988 RMK SF1SC7 OCNL -SHRA SLP117

CYQB;2010-08-09 04:00;CYQB 090400Z 22009KT 8SM BKN010 OVC022 19/18 A2988 RMK SF6SC2 SLP118

CYQB;2010-08-09 05:00;CYQB 090500Z 23007KT 8SM BKN012 OVC020 19/17 A2988 RMK SF6SC2 SLP118

CYQB;2010-08-09 06:00;CYQB 090600Z 22005KT 8SM OVC012 19/17 A2987 RMK SF8 SLP114

CYQB;2010-08-09 07:00;CYQB 090700Z 22006KT 2 1/2SM -DZ BR OVC008 18/18 A2986 RMK ST8 SLP112

CYQB;2010-08-09 08:00;CYQB 090800Z 24006KT 4SM -DZ BR OVC005 18/18 A2987 RMK ST8 CIG VRB 4-6 SLP114

CYQB;2010-08-09 09:00;CYQB 090900Z 24008KT 3SM -DZ BR OVC005 19/18 A2987 RMK ST8 CIG VRB 4-6 VIS VRB 2-4 SLP115

CYQB;2010-08-09 10:00;CYQB 091000Z 25007KT 4SM -DZ BR BKN005 OVC007 19/18 A2988 RMK SF6SF2 VIS NW-N 3 SLP118

CYQB;2010-08-09 10:40;CYQB 091040Z 24010KT 4SM BR BKN005 OVC007 19/ RMK SF5SF3 VIS NW-N 3

CYQB;2010-08-09 11:00;CYQB 091100Z 25010KT 4SM BR BKN005 OVC007 19/18 A2989 RMK SF5SF3 VIS NW-N 3 SLP123

CYQB;2010-08-09 12:00;CYQB 091200Z 24008KT 2 1/2SM -DZ BR OVC004 19/18 A2991 RMK ST8 SLP129

CYQB;2010-08-09 12:27;CYQB 091227Z 24009KT 4SM -DZ BR SCT004 OVC007 19/ RMK SF4SF4

CYQB;2010-08-09 13:00;CYQB 091300Z 24009KT 4SM -SHRA BR SCT006 OVC009 19/18 A2991 RMK SF4SF4 SLP129

CYQB;2010-08-09 13:34;CYQB 091334Z 25007KT 6SM BR OVC006 19/ RMK SF8 VIS NW-N 4 S 10

CYQB;2010-08-09 13:47;CYQB 091347Z 25007KT 6SM -SHRA BR OVC006 19/ RMK SF8 VIS HIER S

CYQB;2010-08-09 14:00;CYQB 091400Z 24008KT 4SM BR OVC006 19/18 A2992 RMK SF8 OCNL -SHRA SLP130

CYQB;2010-08-09 15:00;CYQB 091500Z 24009KT 6SM BR SCT007 BKN013 20/19 A2990 RMK SF4SC3 SLP126

CYQB;2010-08-09 16:00;CYQB 091600Z 24008KT 10SM BKN018 BKN033 21/19 A2990 RMK SC6SC1 CU ASOCTD SLP125

CYQB;2010-08-09 17:00;CYQB 091700Z 23009KT 20SM FEW020 SCT250 23/19 A2989 RMK CU2CI0 SLP120

CYQB;2010-08-09 18:00;CYQB 091800Z 23012KT 20SM FEW023 SCT250 24/19 A2986 RMK CU2CI0 SLP113

CYQB;2010-08-09 19:00;CYQB 091900Z 25012KT 15SM FEW023 SCT250 26/18 A2986 RMK CU2CI0 SLP111

CYQB;2010-08-09 20:00;CYQB 092000Z 23011KT 15SM FEW030 BKN250 26/18 A2985 RMK CU2CI1 TCU ASOCTD SLP107

CYQB;2010-08-09 21:00;CYQB 092100Z 24011KT 15SM FEW030 BKN250 26/18 A2984 RMK CU2CI1 TCU ASOCTD SLP104

CYQB;2010-08-09 22:00;CYQB 092200Z 24008KT 15SM FEW030 BKN240 25/18 A2983 RMK CU1CI2 SLP101

CYQB;2010-08-09 23:00;CYQB 092300Z 24011KT 15SM FEW030TCU FEW070 SCT240 25/18 A2983 RMK TCU1AC1CI1 SLP102

CYQB;2010-08-10 00:00;CYQB 100000Z 24005KT 15SM FEW030TCU FEW085 FEW240 22/18 A2983 RMK TCU1AC1CI1 TCU E SLP103

CYQB;2010-08-10 01:00;CYQB 100100Z 24005KT 15SM FEW030 FEW080 FEW240 21/18 A2984 RMK SC1AC1CI1 SLP105

CYQB;2010-08-10 02:00;CYQB 100200Z 25006KT 15SM FEW080 21/18 A2985 RMK AC1 SLP107

CYQB;2010-08-10 03:00;CYQB 100300Z 25008KT 15SM FEW080 20/18 A2985 RMK AC1 SLP108

CYQB;2010-08-10 04:00;CYQB 100400Z 25008KT 15SM FEW080 20/18 A2985 RMK AC1 SLP107

CYQB;2010-08-10 05:00;CYQB 100500Z 25005KT 15SM FEW080 20/18 A2985 RMK AC1 SLP107

CYQB;2010-08-10 06:00;CYQB 100600Z 00000KT 12SM SKC 17/17 A2985 RMK HAZY SLP108

CYQB;2010-08-10 07:00;CYQB 100700Z 00000KT 12SM R06/3000VP6000FT/D PRFG SKC 17/16 A2986 RMK HAZY SLP110

CYQB;2010-08-10 08:00;CYQB 100800Z 00000KT 8SM R06/3000FT/N PRFG FEW003 16/16 A2986 RMK SF1 HAZY SLP111

CYQB;2010-08-10 09:00;CYQB 100900Z 00000KT 12SM PRFG FEW005 FEW100 FEW250 15/14 A2986 RMK SF1AC1CI1 SLP113

CYQB;2010-08-10 10:00;CYQB 101000Z 26003KT 6SM BR FEW008 FEW090 14/13 A2988 RMK CF1AC1 SLP117

CYQB;2010-08-10 10:27;CYQB 101027Z 00000KT 1 1/2SM BR FEW010 FEW090 16/ RMK FG1CF1AC1

CYQB;2010-08-10 10:37;CYQB 101037Z 00000KT 2SM BR BKN010 BKN090 16/ RMK FG1SF2AC1

CYQB;2010-08-10 10:46;CYQB 101046Z 30002KT 2SM BR OVC002 16/ RMK FG2SF5

CYQB;2010-08-10 11:00;CYQB 101100Z 29002KT 2SM BR OVC003 16/15 A2988 RMK FG2SF5 SLP119

CYQB;2010-08-10 11:26;CYQB 101126Z 23005KT 6SM BR BKN003 17/ RMK SF6

CYQB;2010-08-10 11:47;CYQB 101147Z 23009KT 6SM BR SCT003 18/ RMK CF3

CYQB;2010-08-10 12:00;CYQB 101200Z 24007KT 6SM BR FEW003 18/17 A2989 RMK CF2 SLP120

CYQB;2010-08-10 13:00;CYQB 101300Z 22006KT 8SM FEW003 FEW090 20/17 A2988 RMK CF1AC1 SLP118

CYQB;2010-08-10 14:00;CYQB 101400Z 24008KT 8SM FEW025 FEW100 23/17 A2986 RMK CU1AC2 SLP113

CYQB;2010-08-10 15:00;CYQB 101500Z 21010KT 15SM FEW030 FEW140 24/18 A2986 RMK CU1AC2 SLP111

CYQB;2010-08-10 16:00;CYQB 101600Z 23012KT 15SM FEW035 BKN190 25/18 A2985 RMK CU2AC3 SLP107

CYQB;2010-08-10 17:00;CYQB 101700Z 24015KT 20SM FEW040 BKN120 BKN240 24/17 A2985 RMK CU2AC5CI1 SLP108

CYQB;2010-08-10 17:08;CYQB 101708Z 26016KT 20SM -SHRA FEW040 BKN100 BKN240 23/ RMK CU2AC5CI1

CYQB;2010-08-10 18:00;CYQB 101800Z 25013KT 8SM -SHRA FEW040 OVC100 21/18 A2986 RMK SC1AC8 SLP113

CYQB;2010-08-10 19:00;CYQB 101900Z 26014KT 20SM FEW030 BKN100 BKN240 22/19 A2986 RMK CF1AC6CI1 SLP113

CYQB;2010-08-10 20:00;CYQB 102000Z 23014KT 20SM FEW035 BKN120 BKN240 22/18 A2985 RMK CF2AC3CI2 SLP107

CYQB;2010-08-10 21:00;CYQB 102100Z 24011KT 20SM FEW035TCU BKN130 BKN240 22/18 A2984 RMK TCU1AC5CI2 SLP104

CYQB;2010-08-10 22:00;CYQB 102200Z 24011KT 30SM FEW035CB FEW120 23/18 A2984 RMK CB1AC1 CB DIST E SLP106

CYQB;2010-08-10 23:00;CYQB 102300Z 22011KT 30SM FEW035TCU FEW120 22/17 A2984 RMK TCU1AC1 SLP106

CYQB;2010-08-11 00:00;CYQB 110000Z 24008KT 30SM FEW035TCU FEW120 20/16 A2985 RMK TCU1AC1 SLP109

CYQB;2010-08-11 01:00;CYQB 110100Z 26007KT 15SM FEW035 19/16 A2986 RMK SC1 SLP112

CYQB;2010-08-11 02:00;CYQB 110200Z 24005KT 15SM FEW090 18/16 A2987 RMK AC1 SLP115

CYQB;2010-08-11 03:00;CYQB 110300Z 26002KT 15SM FEW070 16/15 A2988 RMK AC2 SLP118

CYQB;2010-08-11 04:00;CYQB 110400Z 11005KT 15SM BKN065 BKN100 17/16 A2989 RMK SC5AC1 SLP122

CYQB;2010-08-11 05:00;CYQB 110500Z 00000KT 15SM BKN090 16/15 A2990 RMK AC7 SLP124

CYQB;2010-08-11 06:00;CYQB 110600Z 34005KT 15SM SCT090 17/15 A2990 RMK AC4 SLP125

CYQB;2010-08-11 07:00;CYQB 110700Z 34004KT 15SM SCT060 16/13 A2990 RMK AC4 SLP127

CYQB;2010-08-11 08:00;CYQB 110800Z 00000KT 15SM SCT056 15/13 A2991 RMK SC4 SLP129

CYQB;2010-08-11 09:00;CYQB 110900Z 34007KT 15SM SCT065 16/13 A2991 RMK AC3 SLP129

CYQB;2010-08-11 10:00;CYQB 111000Z 35004KT 30SM FEW065 14/12 A2993 RMK SC2 SLP135

CYQB;2010-08-11 11:00;CYQB 111100Z 36007KT 30SM FEW020 FEW065 16/12 A2994 RMK SC1SC1 SLP138

CYQB;2010-08-11 12:00;CYQB 111200Z 03004KT 30SM FEW020 18/12 A2995 RMK SC1 SLP142

CYQB;2010-08-11 13:00;CYQB 111300Z 07005KT 30SM FEW020 19/14 A2996 RMK SC1 SLP145

CYQB;2010-08-11 14:00;CYQB 111400Z 07009KT 30SM FEW025 21/15 A2996 RMK SC2 SLP145

CYQB;2010-08-11 15:00;CYQB 111500Z 07008KT 30SM FEW030 21/13 A2996 RMK CU2 SLP146

CYQB;2010-08-11 16:00;CYQB 111600Z 09007KT 30SM FEW040 21/11 A2997 RMK CU1 SLP148

CYQB;2010-08-11 17:00;CYQB 111700Z 07009KT 30SM FEW040 23/13 A2997 RMK CU2 SLP148

CYQB;2010-08-11 18:00;CYQB 111800Z 07007KT 30SM FEW045 FEW070 22/12 A2996 RMK CU1AC1 SLP145

CYQB;2010-08-11 19:00;CYQB 111900Z 06007KT 30SM FEW045 FEW070 23/11 A2995 RMK CU1AC1 SLP142

CYQB;2010-08-11 20:00;CYQB 112000Z 10007KT 30SM FEW050 FEW070 23/11 A2994 RMK CU2AC1 SLP141

CYQB;2010-08-11 21:00;CYQB 112100Z 06009KT 30SM FEW050 SCT080 23/10 A2995 RMK CU2AC2 SLP142

CYQB;2010-08-11 22:00;CYQB 112200Z 09011KT 30SM FEW055 SCT085 22/09 A2996 RMK CU1AC2 SLP145

CYQB;2010-08-11 23:00;CYQB 112300Z 07010G15KT 30SM FEW055 SCT085 21/09 A2996 RMK CU1AC2 ACC ASOCTD SLP147

CYQB;2010-08-12 00:00;CYQB 120000Z 07007KT 30SM SCT067 BKN084 20/09 A2997 RMK AC4AC2 ACC ASOCTD SLP149

CYQB;2010-08-12 01:00;CYQB 120100Z 06005KT 15SM FEW060 SCT074 BKN082 20/09 A2998 RMK SC1AC3AC2 SLP153

CYQB;2010-08-12 02:00;CYQB 120200Z 06008KT 15SM FEW060 BKN070 19/09 A2998 RMK SC1AC5 SLP154

CYQB;2010-08-12 03:00;CYQB 120300Z 06006KT 15SM SCT070 18/09 A2998 RMK AC3 SLP154

CYQB;2010-08-12 04:00;CYQB 120400Z 36002KT 15SM SCT070 16/10 A3000 RMK AC3 SLP158

CYQB;2010-08-12 05:00;CYQB 120500Z 36004KT 15SM FEW070 15/10 A3000 RMK AC2 SLP159

CYQB;2010-08-12 06:00;CYQB 120600Z 36002KT 15SM BKN081 15/10 A3001 RMK AC6 SLP163

CYQB;2010-08-12 07:00;CYQB 120700Z 02003KT 15SM OVC084 14/10 A3002 RMK AC8 SLP165

CYQB;2010-08-12 08:00;CYQB 120800Z 01004KT 15SM OVC085 14/10 A3002 RMK AC8 SLP165

CYQB;2010-08-12 09:00;CYQB 120900Z 02004KT 15SM BKN084 13/10 A3003 RMK AC7 SLP168

CYQB;2010-08-12 10:00;CYQB 121000Z 03005KT 30SM FEW084 FEW250 13/10 A3003 RMK AC1CI1 CONTRAILS SLP171

CYQB;2010-08-12 11:00;CYQB 121100Z 04004KT 30SM FEW084 FEW250 14/10 A3004 RMK AC1CI1 SLP173

CYQB;2010-08-12 12:00;CYQB 121200Z 06009KT 30SM FEW084 FEW250 17/11 A3005 RMK AC1CI1 SLP176

CYQB;2010-08-12 13:00;CYQB 121300Z 06006KT 30SM FEW250 18/11 A3006 RMK CI0 SLP178

CYQB;2010-08-12 14:00;CYQB 121400Z 08008KT 30SM FEW032 FEW250 20/12 A3005 RMK CU1CI0 SLP177

CYQB;2010-08-12 15:00;CYQB 121500Z 07007KT 30SM FEW036 FEW250 21/12 A3005 RMK CU1CI0 SLP177

CYQB;2010-08-12 16:00;CYQB 121600Z 08008KT 30SM FEW040 FEW250 22/12 A3003 RMK CU1CI1 SLP171

CYQB;2010-08-12 17:00;CYQB 121700Z 08008G15KT 30SM FEW048 FEW250 23/10 A3003 RMK CU1CI1 SLP168

CYQB;2010-08-12 18:00;CYQB 121800Z 06011KT 30SM FEW056 FEW250 23/09 A3002 RMK SC1CI1 SLP166

CYQB;2010-08-12 19:00;CYQB 121900Z 09010KT 30SM FEW060 FEW250 24/09 A3002 RMK SC1CI1 SLP165

CYQB;2010-08-12 20:00;CYQB 122000Z 07009G15KT 30SM FEW060 FEW250 24/07 A3001 RMK SC1CI1 SLP164

CYQB;2010-08-12 21:00;CYQB 122100Z 06010KT 30SM FEW060 FEW250 23/08 A3001 RMK SC1CI1 SLP164

CYQB;2010-08-12 22:00;CYQB 122200Z 07009KT 30SM FEW060 FEW250 23/08 A3001 RMK SC1CI1 SLP164

CYQB;2010-08-12 23:00;CYQB 122300Z 07006KT 30SM FEW060 FEW250 22/08 A3001 RMK SC1CI0 SLP163

CYQB;2010-08-13 00:00;CYQB 130000Z 06008KT 30SM FEW060 FEW250 21/08 A3001 RMK SC1CI0 SLP163

CYQB;2010-08-13 01:00;CYQB 130100Z 01003KT 15SM FEW060 FEW250 19/08 A3003 RMK SC1CI0 SLP169

CYQB;2010-08-13 02:00;CYQB 130200Z 36003KT 15SM FEW060 FEW250 18/09 A3004 RMK SC1CI1 SLP172

CYQB;2010-08-13 03:00;CYQB 130300Z 00000KT 15SM FEW060 14/09 A3005 RMK SC1 SLP176

CYQB;2010-08-13 04:00;CYQB 130400Z 03004KT 15SM SKC 15/09 A3006 RMK SLP179

CYQB;2010-08-13 05:00;CYQB 130500Z 02005KT 15SM SKC 15/09 A3007 RMK SLP182

CYQB;2010-08-13 06:00;CYQB 130600Z 02005KT 15SM SKC 14/09 A3007 RMK SLP182

CYQB;2010-08-13 07:00;CYQB 130700Z 01005KT 15SM SKC 13/08 A3007 RMK SLP184

CYQB;2010-08-13 08:00;CYQB 130800Z 04003KT 15SM SKC 13/08 A3007 RMK SLP184

CYQB;2010-08-13 09:00;CYQB 130900Z 02005KT 15SM FEW200 12/08 A3008 RMK CI0 SLP187

CYQB;2010-08-13 10:00;CYQB 131000Z 02006KT 50SM FEW016 12/08 A3009 RMK CU1 SLP190

CYQB;2010-08-13 11:00;CYQB 131100Z 02004KT 50SM FEW016 13/09 A3010 RMK CU1 SLP192

CYQB;2010-08-13 12:00;CYQB 131200Z 10004KT 50SM FEW024 16/10 A3011 RMK SC1 SLP196

CYQB;2010-08-13 13:00;CYQB 131300Z 06006KT 50SM FEW024 19/12 A3011 RMK SC1 SLP195

CYQB;2010-08-13 14:00;CYQB 131400Z 06009KT 50SM FEW036 21/12 A3011 RMK SC1 SLP196

CYQB;2010-08-13 15:00;CYQB 131500Z 07008KT 50SM FEW044 23/12 A3011 RMK SC1 SLP195

CYQB;2010-08-13 16:00;CYQB 131600Z 06006KT 50SM FEW048 24/12 A3010 RMK CU1 SLP193

CYQB;2010-08-13 17:00;CYQB 131700Z 04006KT 50SM FEW056 FEW240 25/11 A3009 RMK CU1CI1 SLP189

CYQB;2010-08-13 18:00;CYQB 131800Z 05005KT 50SM FEW060 FEW240 25/10 A3008 RMK CU1CI1 SLP187

CYQB;2010-08-13 19:00;CYQB 131900Z 11005KT 30SM FEW050 FEW250 26/10 A3007 RMK CU1CI1 SLP183

CYQB;2010-08-13 20:00;CYQB 132000Z 06002KT 30SM FEW050 FEW250 26/11 A3006 RMK CU1CI1 SLP179

CYQB;2010-08-13 21:00;CYQB 132100Z 00000KT 30SM FEW050 FEW250 26/11 A3005 RMK CU1CI1 SLP176

CYQB;2010-08-13 22:00;CYQB 132200Z 00000KT 30SM FEW050 FEW250 26/12 A3004 RMK CU1CI1 SLP174

CYQB;2010-08-13 23:00;CYQB 132300Z 04003KT 30SM FEW050 FEW250 25/10 A3004 RMK CU1CI1 SLP173

CYQB;2010-08-14 00:00;CYQB 140000Z 08005KT 30SM FEW050 FEW250 23/12 A3004 RMK CU1CI1 SLP173

CYQB;2010-08-14 01:00;CYQB 140100Z 08006KT 15SM FEW050 FEW250 21/13 A3005 RMK SC1CI1 SLP177

CYQB;2010-08-14 02:00;CYQB 140200Z 02003KT 15SM FEW250 20/13 A3006 RMK CI0 SLP180

CYQB;2010-08-14 03:00;CYQB 140300Z 02003KT 15SM SKC 18/12 A3006 RMK SLP180

CYQB;2010-08-14 04:00;CYQB 140400Z 02004KT 15SM SKC 17/12 A3007 RMK SLP182

CYQB;2010-08-14 05:00;CYQB 140500Z 01005KT 15SM SKC 17/12 A3008 RMK SLP186

CYQB;2010-08-14 06:00;CYQB 140600Z 04004KT 15SM FEW070 16/12 A3008 RMK AC2 SLP186

CYQB;2010-08-14 07:00;CYQB 140700Z 03003KT 15SM BKN070 16/12 A3008 RMK AC5 SLP188

CYQB;2010-08-14 08:00;CYQB 140800Z 04005KT 15SM FEW075 15/11 A3009 RMK AC2 SLP189

CYQB;2010-08-14 09:00;CYQB 140900Z 04005KT 15SM SCT078 15/11 A3010 RMK AC3 SLP193

CYQB;2010-08-14 10:00;CYQB 141000Z CCA 01003KT 15SM SCT080 15/11 A3011 RMK AC3 ACC TOPS S AND E SLP196

CYQB;2010-08-14 11:00;CYQB 141100Z 03004KT 20SM SCT068 16/12 A3012 RMK AC3 ACC EMBDD SLP200

CYQB;2010-08-14 12:00;CYQB 141200Z 05003KT 20SM FEW075 19/12 A3012 RMK AC1 SLP200

CYQB;2010-08-14 13:00;CYQB 141300Z 07003KT 20SM FEW080 FEW260 20/14 A3011 RMK AC1CI1 SLP197

CYQB;2010-08-14 14:00;CYQB 141400Z 11002KT 20SM FEW080 BKN260 22/15 A3010 RMK AC1CI2 SLP192

CYQB;2010-08-14 15:00;CYQB 141500Z 25003KT 15SM FEW060 BKN260 24/17 A3008 RMK SC2CI2 SLP187

CYQB;2010-08-14 16:00;CYQB 141600Z 30003KT 15SM FEW060 BKN260 25/17 A3007 RMK SC1CI3 SLP183

CYQB;2010-08-14 17:00;CYQB 141700Z 17002KT 20SM SCT035 BKN250 26/18 A3006 RMK CU3CI2 TCU ASOCTD SLP179

CYQB;2010-08-14 18:00;CYQB 141800Z 25008KT 20SM FEW038 OVC250 27/19 A3005 RMK CU2CS2 SLP176

CYQB;2010-08-14 19:00;CYQB 141900Z 26009KT 20SM FEW040 FEW070 OVC220 26/19 A3005 RMK CU2AC1CS4 SLP175

CYQB;2010-08-14 20:00;CYQB 142000Z 25007KT 20SM FEW040 FEW070 OVC230 26/19 A3004 RMK CU1AC1CS5 SLP173

CYQB;2010-08-14 21:00;CYQB 142100Z 26008KT 20SM FEW037 FEW070 OVC220 26/19 A3003 RMK CU2AC1CS3 TCU ASOCTD DIST E SLP169

CYQB;2010-08-14 22:00;CYQB 142200Z 26008KT 20SM FEW037TCU OVC200 25/19 A3002 RMK TCU1CS5 SLP167

CYQB;2010-08-14 23:00;CYQB 142300Z 25004KT 20SM FEW070 SCT180 OVC250 24/19 A3001 RMK AC1AC2CI2 SLP163

CYQB;2010-08-15 00:00;CYQB 150000Z 00000KT 20SM FEW080 BKN220 24/19 A3001 RMK AC1CI5 SLP162

CYQB;2010-08-15 01:00;CYQB 150100Z 00000KT 15SM FEW080 BKN220 22/19 A3002 RMK AC1CI5 SLP165

CYQB;2010-08-15 02:00;CYQB 150200Z 36003KT 15SM BKN180 21/19 A3001 RMK CI5 SLP164

CYQB;2010-08-15 03:00;CYQB 150300Z 36002KT 15SM BKN180 21/18 A3001 RMK CI6 SLP163

CYQB;2010-08-15 04:00;CYQB 150400Z 00000KT 15SM OVC180 21/18 A3002 RMK CI8 SLP164

CYQB;2010-08-15 05:00;CYQB 150500Z 01002KT 15SM OVC200 20/18 A3002 RMK CI8 SLP164

CYQB;2010-08-15 06:00;CYQB 150600Z 00000KT 15SM OVC200 20/18 A3000 RMK CI8 SLP159

CYQB;2010-08-15 07:00;CYQB 150700Z 00000KT 15SM OVC210 20/16 A3000 RMK CI6 SLP159

CYQB;2010-08-15 08:00;CYQB 150800Z 36003KT 15SM BKN210 BKN250 20/17 A3000 RMK CI5CI0 SLP159

CYQB;2010-08-15 09:00;CYQB 150900Z 02002KT 15SM BKN210 19/17 A3000 RMK CI6 SLP160

CYQB;2010-08-15 10:00;CYQB 151000Z 35002KT 15SM BKN210 18/17 A3000 RMK CI4 CC ASOCTD SLP159

CYQB;2010-08-15 11:00;CYQB 151100Z 01002KT 15SM FEW100 FEW210 19/17 A3001 RMK AC1CI1 ACC TOPS NE SLP161

CYQB;2010-08-15 12:00;CYQB 151200Z 13002KT 20SM FEW100 FEW210 22/17 A3001 RMK AC1CI1 SLP163

CYQB;2010-08-15 13:00;CYQB 151300Z 17005KT 20SM FEW180 23/16 A3001 RMK AC1 SLP162

CYQB;2010-08-15 14:00;CYQB 151400Z 21005KT 20SM FEW180 23/14 A3000 RMK AC1 SLP160

CYQB;2010-08-15 15:00;CYQB 151500Z 12005KT 20SM FEW260 24/16 A2998 RMK CI1 SLP152

CYQB;2010-08-15 16:00;CYQB 151600Z 09003KT 20SM FEW120 SCT240 26/17 A2996 RMK AC1CI1 SLP145

CYQB;2010-08-15 17:00;CYQB 151700Z 13006KT 25SM FEW045 FEW120 BKN240 28/17 A2994 RMK CU1AC1CI2 SLP137

CYQB;2010-08-15 18:00;CYQB 151800Z 18005KT 25SM FEW055 FEW120 BKN240 29/16 A2993 RMK CU2AC1CI1 SLP134

CYQB;2010-08-15 19:00;CYQB 151900Z 21007KT 25SM FEW060 SCT080 BKN250 29/16 A2991 RMK CU2AC2CI1 SLP129

CYQB;2010-08-15 20:00;CYQB 152000Z 21007KT 30SM FEW057 SCT072 BKN250 29/17 A2990 RMK CU2AC2CI2 SLP126

CYQB;2010-08-15 21:00;CYQB 152100Z 23006KT 30SM FEW060 SCT078 BKN100 BKN250 28/18 A2990 RMK CU1AC2AC2CI1 SLP125

CYQB;2010-08-15 22:00;CYQB 152200Z 28003KT 30SM SCT058 BKN067 BKN250 27/18 A2989 RMK SC3AC3CI1 SLP122

CYQB;2010-08-15 23:00;CYQB 152300Z 27004KT 25SM SCT047 BKN062 BKN100 OVC250 26/19 A2989 RMK SC3SC2ACC2CI0 SLP121

CYQB;2010-08-15 23:48;CYQB 152348Z 21005KT 20SM -SHRA BKN041 OVC060 24/ RMK SC6SC2

CYQB;2010-08-16 00:00;CYQB 160000Z 20004KT 20SM -SHRA BKN042 OVC059 24/19 A2989 RMK SC6SC2 SLP123

CYQB;2010-08-16 00:16;CYQB 160016Z 21007KT 12SM BKN042 BKN063 OVC100 24/ RMK SC5SC2AC2

CYQB;2010-08-16 01:00;CYQB 160100Z 20008KT 12SM FEW040 SCT056 OVC065 24/18 A2990 RMK SC2SC2SC5 SLP126

CYQB;2010-08-16 02:00;CYQB 160200Z 25007KT 10SM BKN040 OVC050 24/17 A2990 RMK SC6SC2 SLP126

CYQB;2010-08-16 03:00;CYQB 160300Z 27005KT 10SM OVC038 23/18 A2990 RMK SC8 SLP124

CYQB;2010-08-16 03:07;CYQB 160307Z 27004KT 10SM -SHRA OVC038 22/ RMK SC8

CYQB;2010-08-16 04:00;CYQB 160400Z 25003KT 10SM -SHRA OVC037 22/18 A2989 RMK SC8 SLP121

CYQB;2010-08-16 04:30;CYQB 160430Z 26002KT 10SM OVC036 22/ RMK SC8

CYQB;2010-08-16 05:00;CYQB 160500Z 00000KT 10SM OVC035 21/18 A2988 RMK SC8 SLP117

CYQB;2010-08-16 06:00;CYQB 160600Z 29002KT 10SM -SHRA SCT020 OVC037 21/19 A2986 RMK SC4SC4 SLP112

CYQB;2010-08-16 07:00;CYQB 160700Z 28002KT 5SM -SHRA BR SCT020 OVC030 19/18 A2987 RMK SC4SC4 SLP113

CYQB;2010-08-16 08:00;CYQB 160800Z 36004KT 4SM SHRA BR SCT018 OVC038 19/18 A2986 RMK SC3SC5 SLP111

CYQB;2010-08-16 09:00;CYQB 160900Z 10005KT 5SM -SHRA BR SCT020 OVC039 18/18 A2986 RMK SC3SC5 RERA SLP110

CYQB;2010-08-16 10:00;CYQB 161000Z 09004KT 4SM -SHRA BR OVC023 18/17 A2985 RMK SC8 SLP109

CYQB;2010-08-16 10:29;CYQB 161029Z 06005KT 2SM -SHRA BR OVC016 18/ RMK SC8

CYQB;2010-08-16 11:00;CYQB 161100Z 11007KT 1SM R06/6000FT/N -SHRA BR OVC010 17/17 A2985 RMK SC8 SLP108

CYQB;2010-08-16 11:42;CYQB 161142Z 09005KT 1 1/2SM -DZ BR OVC018 17/ RMK SC8

CYQB;2010-08-16 12:00;CYQB 161200Z 05005KT 4SM BR BKN018 OVC090 18/17 A2985 RMK SC6AS2 SLP107

CYQB;2010-08-16 13:00;CYQB 161300Z 03006KT 4SM BR BKN017 OVC090 18/17 A2984 RMK SC7AS1 VIS S 15 SLP105

CYQB;2010-08-16 13:38;CYQB 161338Z 03005KT 4SM -SHRA BR BKN015 OVC090 18/ RMK SC7AS1

CYQB;2010-08-16 14:00;CYQB 161400Z 08005KT 3SM -SHRA BR OVC020 18/18 A2984 RMK SC8 SLP106

CYQB;2010-08-16 15:00;CYQB 161500Z 09003KT 4SM BR OVC014 19/18 A2983 RMK SC8 VIS S 10 SLP102

CYQB;2010-08-16 16:00;CYQB 161600Z 11004KT 5SM BR BKN012 BKN070 21/20 A2981 RMK SC6AS1 SLP093

CYQB;2010-08-16 16:22;CYQB 161622Z 20004KT 5SM -SHRA BR OVC013 21/ RMK SC8 VIS N 2

CYQB;2010-08-16 16:29;CYQB 161629Z 00000KT 2SM -TSRA BR OVC013 21/ RMK SC8 CB EMBD

CYQB;2010-08-16 17:00;CYQB 161700Z 14006KT 4SM -SHRA BR BKN023 OVC042 20/19 A2979 RMK SC5SC3 RETS RERA SLP088

CYQB;2010-08-16 17:32;CYQB 161732Z 12004KT 10SM BKN013 OVC040 21/ RMK SC6SC2 VIS N 4

CYQB;2010-08-16 18:00;CYQB 161800Z 12004KT 10SM OVC017 21/20 A2978 RMK SC8 SLP083

CYQB;2010-08-16 19:00;CYQB 161900Z 01006KT 10SM BKN016 BKN040 22/20 A2975 RMK SC6SC1 SLP076

CYQB;2010-08-16 20:00;CYQB 162000Z 02006KT 10SM FEW007 BKN023 BKN041 23/20 A2975 RMK SF1SC5SC1 SLP074

CYQB;2010-08-16 20:13;CYQB 162013Z 06006KT 10SM -SHRA FEW008 BKN023 BKN040 23/ RMK SF1SC6CU1 VIS LWR NW

CYQB;2010-08-16 20:27;CYQB 162027Z 02005KT 6SM -SHRA FEW008 BKN016 BKN040 22/ RMK SF2SC4CU2 VIS E-SW HIER TCU ASOCTD

CYQB;2010-08-16 21:00;CYQB 162100Z 02002KT 10SM FEW009 SCT025 BKN038 23/21 A2975 RMK SF1SC3CU2 TCU ASOCTD SLP074

CYQB;2010-08-16 22:00;CYQB 162200Z 20003KT 15SM FEW009 FEW025 BKN040TCU 24/21 A2976 RMK SF1SC2TCU2 VIS LWR NE-E SLP078

CYQB;2010-08-16 23:00;CYQB 162300Z 17006KT 15SM FEW025 FEW040TCU SCT120 23/20 A2977 RMK SC1TCU2AC1 TCU N-E SLP080

CYQB;2010-08-17 00:00;CYQB 170000Z 16004KT 15SM FEW040 SCT120 21/20 A2978 RMK SC2AC2 SHRS N SLP083

CYQB;2010-08-17 01:00;CYQB 170100Z CCA 00000KT 15SM FEW061 FEW110 20/19 A2980 RMK CU1AC2 SLP092

CYQB;2010-08-17 02:00;CYQB 170200Z CCA 00000KT 15SM SCT061 20/20 A2982 RMK AC3 SLP098

CYQB;2010-08-17 03:00;CYQB 170300Z 00000KT 15SM SCT070 20/19 A2983 RMK AC4 SLP102

CYQB;2010-08-17 04:00;CYQB 170400Z 00000KT 15SM FEW015 SCT070 20/18 A2984 RMK SC1AC2 SLP104

CYQB;2010-08-17 05:00;CYQB 170500Z 00000KT 15SM SCT060 19/18 A2984 RMK AC4 SLP106

CYQB;2010-08-17 06:00;CYQB 170600Z 25003KT 15SM BKN096 18/17 A2985 RMK AC6 SLP107

CYQB;2010-08-17 07:00;CYQB 170700Z 35005KT 15SM BKN087 19/17 A2985 RMK AC6 SLP109

CYQB;2010-08-17 08:00;CYQB 170800Z 25005KT 15SM BKN088 18/16 A2986 RMK AC5 SLP111

CYQB;2010-08-17 09:00;CYQB 170900Z 24005KT 15SM FEW075 17/15 A2987 RMK AC2 SLP116

CYQB;2010-08-17 10:00;CYQB 171000Z 26005KT 15SM FEW017 FEW075 16/15 A2989 RMK SC1AC1 SLP120

CYQB;2010-08-17 11:00;CYQB 171100Z 24006KT 30SM FEW020 FEW100 FEW220 17/16 A2990 RMK SC1AC1CI1 SLP125

CYQB;2010-08-17 12:00;CYQB 171200Z 25008KT 30SM FEW020 FEW100 19/16 A2991 RMK SC1AC1 SLP129

CYQB;2010-08-17 13:00;CYQB 171300Z 24009KT 30SM FEW025 FEW100 19/16 A2992 RMK SC1AC1 SLP131

CYQB;2010-08-17 14:00;CYQB 171400Z 26014KT 30SM FEW030 FEW100 19/16 A2992 RMK SC2AC1 SLP133

CYQB;2010-08-17 15:00;CYQB 171500Z 25011KT 30SM FEW030 SCT050 23/14 A2992 RMK SC2SC2 SLP131

CYQB;2010-08-17 16:00;CYQB 171600Z 22013KT 30SM SCT050 SCT100 23/12 A2991 RMK SC3AC1 SLP128

CYQB;2010-08-17 17:00;CYQB 171700Z 24010KT 30SM SCT050 BKN100 24/14 A2989 RMK CU4AC2 SLP120

CYQB;2010-08-17 18:00;CYQB 171800Z 23018KT 30SM BKN050 BKN100 25/14 A2986 RMK CU5AC2 TCU ASOCTD SLP111

CYQB;2010-08-17 19:00;CYQB 171900Z 23013KT 30SM VCSH SCT050 BKN085 23/15 A2986 RMK CU4AC2 TCU ASOCTD VIS W-N 6 SHRA SLP110

CYQB;2010-08-17 19:11;CYQB 171911Z 29025G32KT 15SM +SHRA BKN038 BKN085 20/ RMK CU5AC2 CB N ASOCTD VIS W-NE 3

CYQB;2010-08-17 19:22;CYQB 171922Z 29017G32KT 15SM R06/4000VP6000FT/U -TSRA BKN038 BKN085 18/ RMK CU5AC2 CB N ASOCTD VIS N-W 3

CYQB;2010-08-17 19:37;CYQB 171937Z 28010KT 30SM SCT038 SCT085 21/ RETSRA RMK CU3AC1 CB E TCU ASOCTD

CYQB;2010-08-17 20:00;CYQB 172000Z 26008G15KT 30SM FEW038 SCT085 22/17 A2986 RETSRA RMK CU2AC2 CB DIST E TCU ASOCTD SLP113

CYQB;2010-08-17 21:00;CYQB 172100Z CCA 27006KT 20SM FEW040 FEW085 BKN120 BKN300 21/16 A2988 RMK CU2AC1AC3CI1 DIST CB E AND W SLP118

CYQB;2010-08-17 21:07;CYQB 172107Z 27005KT 20SM -SHRA FEW040 FEW085 BKN120 BKN300 21/ RMK CU2AC1AC3CI1 DIST CB E AND W

CYQB;2010-08-17 21:27;CYQB 172127Z 30009KT 15SM -TSRA SCT040CB SCT085 BKN110 21/ RMK CB3AC1AC3

CYQB;2010-08-17 22:00;CYQB 172200Z CCA 30002KT 20SM FEW040CB BKN080 BKN300 20/16 A2989 RETS RMK CB2AC5CI1 CB SE MOVG E SLP122

CYQB;2010-08-17 23:00;CYQB 172300Z 04002KT 20SM FEW040 BKN090 21/14 A2989 RMK CU2AC4 CBSE AND W MOVG E VIS LWR W SHRA SLP121

CYQB;2010-08-17 23:12;CYQB 172312Z 19007KT 8SM -SHRA FEW040 BKN060 19/ RMK CU2SC6 TCU EMBD

CYQB;2010-08-17 23:35;CYQB 172335Z 22003KT 20SM BKN060 BKN280 18/ RMK SC5CI1 TCU ASOCTD VIS SE LWR PCPN

CYQB;2010-08-18 00:00;CYQB 180000Z 24004KT 20SM VCSH FEW008 SCT050 SCT090 SCT280 17/16 A2992 RMK SF1SC3AC1CI1 SLP132

CYQB;2010-08-18 00:14;CYQB 180014Z 32010G20KT 4SM -SHRA FEW008 BKN045 BKN280 18/ RMK SF1SC6CI1 VIS S 15 TCU EMBD

CYQB;2010-08-18 00:35;CYQB 180035Z 00000KT 15SM FEW015 FEW045 SCT100 SCT280 17/ RMK CU1SC2AC1CI0

CYQB;2010-08-18 01:00;CYQB 180100Z 26003KT 15SM FEW015 FEW045CB SCT100 16/14 A2994 RMK CU1CB2AC2 OCNL LTG SW-W SLP138

CYQB;2010-08-18 02:00;CYQB 180200Z 29003KT 15SM FEW015 SCT110 16/14 A2995 RMK CU1AC3 SLP144

CYQB;2010-08-18 03:00;CYQB 180300Z 33002KT 15SM SCT100 16/14 A2995 RMK AC3 SLP144

CYQB;2010-08-18 04:00;CYQB 180400Z 36002KT 15SM BKN100 15/14 A2996 RMK AC5 SLP146

CYQB;2010-08-18 05:00;CYQB 180500Z 36002KT 15SM SCT012 BKN100 14/14 A2997 RMK ST4AC2 SLP150

CYQB;2010-08-18 06:00;CYQB 180600Z 02002KT 15SM FEW012 SCT080 15/14 A2997 RMK ST1AC3 SLP150

CYQB;2010-08-18 07:00;CYQB 180700Z 03002KT 15SM BKN008 BKN080 15/14 A2998 RMK ST5AC2 SLP154

CYQB;2010-08-18 08:00;CYQB 180800Z 00000KT 15SM SCT007 BKN080 14/13 A2999 RMK ST4AC1 SLP157

CYQB;2010-08-18 09:00;CYQB 180900Z 35002KT 15SM BKN006 14/12 A3000 RMK ST7 SLP161

CYQB;2010-08-18 10:00;CYQB 181000Z 34004KT 15SM PRFG BKN006 BKN085 OVC250 13/13 A3002 RMK SF5AC1CS0 CIG VRB 4-8 PRFG AT THR 06 AND 12 SLP166

CYQB;2010-08-18 11:00;CYQB 181100Z 35002KT 15SM BKN004 BKN085 14/13 A3003 RMK SF7AC1 SLP171

CYQB;2010-08-18 12:00;CYQB 181200Z 03002KT 15SM BKN006 BKN085 15/14 A3004 RMK SF7AC1 SLP173

CYQB;2010-08-18 12:28;CYQB 181228Z 29003KT 15SM VCFG SCT004 BKN068 BKN250 16/ RMK SF4AC2CI0 VIS SW 2

CYQB;2010-08-18 12:37;CYQB 181237Z 26002KT 15SM VCFG BKN002 16/ RMK SF7 VIS SW 2

CYQB;2010-08-18 13:00;CYQB 181300Z 27004KT 10SM BKN004 BKN066 17/15 A3004 RMK SF6SC2 CIG VRB 3-5 SLP172

CYQB;2010-08-18 13:35;CYQB 181335Z 25003KT 15SM FEW004 BKN064 BKN120 17/ RMK SF1SC4AC2

CYQB;2010-08-18 14:00;CYQB 181400Z 24005KT 15SM FEW009 FEW020 BKN065 BKN250 18/16 A3003 RMK SF1CF1SC6CI0 SLP170

CYQB;2010-08-18 15:00;CYQB 181500Z 24003KT 15SM FEW020 FEW080 BKN230 20/15 A3003 RMK CU1AC1CI3 SLP168

CYQB;2010-08-18 16:00;CYQB 181600Z 19005KT 35SM FEW030 BKN250 22/14 A3002 RMK CU2CI0 SLP166

CYQB;2010-08-18 17:00;CYQB 181700Z 24009KT 30SM FEW030 SCT080 BKN250 22/13 A3002 RMK CU2AS2CI0 SLP165

CYQB;2010-08-18 18:00;CYQB 181800Z 23009G15KT 30SM FEW030 SCT062 BKN250 24/12 A3001 RMK CU1SC3CI0 SLP162

CYQB;2010-08-18 19:00;CYQB 181900Z 24012G17KT 30SM FEW030 FEW061 SCT250 24/14 A3000 RMK CU1SC2CI0 SLP158

CYQB;2010-08-18 20:00;CYQB 182000Z 25010G15KT 30SM FEW041 FEW062 SCT250 24/14 A2999 RMK CU1SC1CI0 SLP155

CYQB;2010-08-18 21:00;CYQB 182100Z 24011KT 30SM FEW041 BKN220 23/14 A2999 RMK CU2CI1 SLP156

CYQB;2010-08-18 22:00;CYQB 182200Z 24008KT 30SM FEW041 BKN220 23/14 A2998 RMK CU2CI2 SLP153

CYQB;2010-08-18 23:00;CYQB 182300Z 22005KT 30SM FEW041 FEW220 21/14 A2998 RMK CU1CI0 SLP152

CYQB;2010-08-19 00:00;CYQB 190000Z 25003KT 20SM SCT220 19/14 A2998 RMK CI2 SLP152

CYQB;2010-08-19 01:00;CYQB 190100Z 26003KT 15SM SKC 18/14 A2998 RMK SLP152

CYQB;2010-08-19 02:00;CYQB 190200Z 27002KT 15SM SKC 17/14 A2996 RMK SLP146

CYQB;2010-08-19 03:00;CYQB 190300Z 00000KT 15SM SKC 16/14 A2995 RMK SLP144

CYQB;2010-08-19 04:00;CYQB 190400Z 00000KT 15SM SKC 16/14 A2996 RMK SLP145

CYQB;2010-08-19 05:00;CYQB 190500Z 00000KT 15SM SKC 15/13 A2995 RMK SLP144

CYQB;2010-08-19 06:00;CYQB 190600Z 00000KT 15SM SKC 14/13 A2995 RMK SLP143

CYQB;2010-08-19 07:00;CYQB 190700Z 36002KT 15SM SKC 14/13 A2995 RMK SLP143

CYQB;2010-08-19 08:00;CYQB 190800Z 36002KT 10SM SKC 13/12 A2995 RMK SLP142

CYQB;2010-08-19 09:00;CYQB 190900Z 00000KT 10SM SKC 12/11 A2994 RMK SLP141

CYQB;2010-08-19 10:00;CYQB 191000Z 01003KT 20SM FEW150 FEW230 13/12 A2995 RMK AC1CI1 SLP143

CYQB;2010-08-19 11:00;CYQB 191100Z 02002KT 15SM FEW220 13/12 A2995 RMK CI1 SLP143

CYQB;2010-08-19 12:00;CYQB 191200Z 02002KT 20SM FEW220 16/14 A2994 RMK CI1 SLP140

CYQB;2010-08-19 13:00;CYQB 191300Z 00000KT 20SM FEW018 SCT220 18/15 A2993 RMK CU1CI2 SLP136

CYQB;2010-08-19 14:00;CYQB 191400Z 27004KT 20SM FEW018 BKN200 19/15 A2992 RMK CU1CI0 SLP131

CYQB;2010-08-19 15:00;CYQB 191500Z 24003KT 20SM FEW018 21/15 A2989 RMK CU1 SLP124

CYQB;2010-08-19 16:00;CYQB 191600Z 25007KT 30SM FEW020 SCT180 22/14 A2988 RMK CU1AS2 SLP120

CYQB;2010-08-19 18:00;CYQB 191800Z 21005KT 30SM FEW040 SCT200 24/14 A2983 RMK CU2CI0 SLP103

CYQB;2010-08-19 19:00;CYQB 191900Z 21009G17KT 30SM FEW038 SCT250 25/14 A2980 RMK CF2CI0 SLP092

CYQB;2010-08-19 20:00;CYQB 192000Z 21007KT 30SM FEW042 BKN250 25/13 A2978 RMK CF1CS2 SLP083

CYQB;2010-08-19 21:00;CYQB 192100Z 22007KT 30SM FEW040 BKN160 OVC260 24/13 A2976 RMK CF1AS3CS2 SLP078

CYQB;2010-08-19 22:00;CYQB 192200Z 22005KT 30SM BKN150 OVC250 23/14 A2975 RMK AS5CS3 SLP075

CYQB;2010-08-19 23:00;CYQB 192300Z 21004KT 30SM BKN140 BKN220 22/14 A2974 RMK AS3CS3 SLP071

CYQB;2010-08-20 00:00;CYQB 200000Z CCA 00000KT 30SM BKN120 OVC220 21/16 A2972 RMK AS5CS2 SLP065

CYQB;2010-08-20 01:00;CYQB 200100Z 32002KT 30SM FEW080 BKN120 BKN220 20/16 A2972 RMK AC2AC3CI2 SLP066

CYQB;2010-08-20 02:00;CYQB 200200Z 28003KT 15SM SCT055 BKN090 OVC140 19/16 A2972 RMK SC3AC3AC2 SLP065

CYQB;2010-08-20 03:00;CYQB 200300Z 26006KT 15SM SCT039 BKN070 BKN100 20/15 A2972 RMK SC3AC3AC1 SLP065

CYQB;2010-08-20 04:00;CYQB 200400Z 25009KT 15SM SCT060 BKN100 18/15 A2974 RMK SC4AC1 SLP070

CYQB;2010-08-20 05:00;CYQB 200500Z 25009KT 15SM FEW015 FEW120 16/15 A2976 RMK SC2AC1 SLP078

CYQB;2010-08-20 06:00;CYQB 200600Z 31010G17KT 15SM FEW015 SCT040 15/11 A2979 RMK SC2SC1 SLP089

CYQB;2010-08-20 07:00;CYQB 200700Z 30008KT 15SM FEW020 FEW040 13/09 A2982 RMK SC1SC1 SLP099

CYQB;2010-08-20 08:00;CYQB 200800Z 27007KT 15SM SKC 13/08 A2984 RMK SLP104

CYQB;2010-08-20 09:00;CYQB 200900Z 29007KT 15SM SKC 11/08 A2986 RMK SLP114

CYQB;2010-08-20 10:00;CYQB 201000Z 26006KT 30SM FEW010 10/08 A2989 RMK SC1 SLP123

CYQB;2010-08-20 11:00;CYQB 201100Z 25008KT 30SM FEW010 11/08 A2993 RMK SC1 SLP136

CYQB;2010-08-20 12:00;CYQB 201200Z 30005KT 30SM FEW020 13/08 A2995 RMK SC1 SLP143

CYQB;2010-08-20 13:00;CYQB 201300Z 29003KT 30SM FEW030 15/08 A2997 RMK CU1 SLP148

CYQB;2010-08-20 14:00;CYQB 201400Z 30009KT 30SM FEW040 17/09 A2997 RMK CU2 SLP150

CYQB;2010-08-20 15:00;CYQB 201500Z 33005G15KT 30SM FEW045 18/08 A2996 RMK CU1 SLP147

CYQB;2010-08-20 16:00;CYQB 201600Z 30009G16KT 30SM SCT050 19/09 A2997 RMK SC3 SLP148

CYQB;2010-08-20 17:00;CYQB 201700Z 33007KT 30SM SCT065 20/09 A2996 RMK SC4 SLP147

CYQB;2010-08-20 18:00;CYQB 201800Z 28011G18KT 30SM SCT065 22/09 A2996 RMK SC4 SLP145

CYQB;2010-08-20 19:00;CYQB 201900Z 31011KT 30SM SCT060 SCT075 21/08 A2996 RMK SC3AC1 SLP146

CYQB;2010-08-20 20:00;CYQB 202000Z CCA 31009G16KT 30SM SCT060 SCT080 22/M09 A2996 RMK SC3AC1 SLP146

CYQB;2010-08-20 21:00;CYQB 202100Z 28010G15KT 30SM FEW060 BKN088 21/10 A2997 RMK SC2AC3 SLP149

CYQB;2010-08-20 22:00;CYQB 202200Z 27005KT 30SM FEW050 BKN087 21/11 A2997 RMK SC2AC3 SLP149

CYQB;2010-08-20 23:00;CYQB 202300Z 25006KT 30SM FEW050 FEW080 20/11 A2996 RMK SC1AC2 SLP147

CYQB;2010-08-21 00:00;CYQB 210000Z 27005KT 30SM FEW085 17/12 A2997 RMK AC2 SLP149

CYQB;2010-08-21 01:00;CYQB 210100Z 24003KT 15SM SCT085 16/11 A2998 RMK AC3 SLP153

CYQB;2010-08-21 02:00;CYQB 210200Z 00000KT 15SM SKC 16/11 A2998 RMK SLP154

CYQB;2010-08-21 03:00;CYQB 210300Z 00000KT 15SM SKC 14/11 A2999 RMK SLP157

CYQB;2010-08-21 04:00;CYQB 210400Z 02003KT 15SM SKC 14/11 A2999 RMK SLP157

CYQB;2010-08-21 05:00;CYQB 210500Z 00000KT 15SM SKC 12/10 A3001 RMK SLP162

CYQB;2010-08-21 06:00;CYQB 210600Z 00000KT 15SM FEW020 12/10 A3001 RMK SC1 SLP162

CYQB;2010-08-21 07:00;CYQB 210700Z 00000KT 15SM FEW020 BKN080 12/10 A3000 RMK SC1AC4 SLP161

CYQB;2010-08-21 08:00;CYQB 210800Z 32003KT 15SM FEW020 SCT075 11/10 A3001 RMK SC1AC2 SLP162

CYQB;2010-08-21 09:00;CYQB 210900Z 34003KT 15SM FEW020 SCT075 11/09 A3002 RMK SC1AC2 SLP165

CYQB;2010-08-21 10:00;CYQB 211000Z 36004KT 30SM FEW002 FEW080 BKN250 10/09 A3003 RMK CF1AC1CI1 SLP169

CYQB;2010-08-21 10:43;CYQB 211043Z 00000KT 3SM BR BKN003 BKN250 11/ RMK SF4CI1

CYQB;2010-08-21 11:00;CYQB 211100Z 31002KT 2SM BR BKN002 11/10 A3005 RMK SF6 SLP175

CYQB;2010-08-21 11:34;CYQB 211134Z 27005KT 1 1/2SM BR OVC002 12/ RMK SF7

CYQB;2010-08-21 12:00;CYQB 211200Z 24007KT 4SM BR SCT002 BKN250 13/12 A3006 RMK SF2CI0 SLP179

CYQB;2010-08-21 13:00;CYQB 211300Z 22006KT 15SM FEW002 BKN250 16/13 A3006 RMK CF1CI1 SLP180

CYQB;2010-08-21 14:00;CYQB 211400Z 25007KT 15SM FEW002 FEW070 BKN250 17/13 A3006 RMK CF1AC1CI1 SLP179

CYQB;2010-08-21 15:00;CYQB 211500Z 22009KT 15SM FEW030 BKN240 19/14 A3005 RMK CU1CI2 SLP177

CYQB;2010-08-21 16:00;CYQB 211600Z 22014KT 15SM FEW025 BKN230 19/13 A3005 RMK CU1CI4 SLP175

CYQB;2010-08-21 17:00;CYQB 211700Z 25011KT 20SM FEW025 OVC230 21/14 A3003 RMK CU1CS6 SLP171

CYQB;2010-08-21 18:00;CYQB 211800Z 23011KT 20SM FEW030 OVC230 22/14 A3002 RMK CU1CS6 SLP165

CYQB;2010-08-21 19:00;CYQB 211900Z 25011KT 20SM FEW030 FEW100 OVC230 22/14 A3002 RMK CU1AC1CS6 SLP166

CYQB;2010-08-21 20:00;CYQB 212000Z 26012KT 20SM FEW030 FEW100 OVC230 21/13 A3002 RMK CU1AC1CS6 SLP165

CYQB;2010-08-21 21:00;CYQB 212100Z 25011KT 20SM FEW030 FEW100 OVC230 21/13 A3002 RMK CU1AC1CS6 SLP167

CYQB;2010-08-21 22:00;CYQB 212200Z 25016G21KT 20SM FEW030 FEW100 FEW180 OVC230 19/13 A3003 RMK CU1AC1AS2CS3 SLP171

CYQB;2010-08-21 23:00;CYQB 212300Z 25011KT 20SM FEW030 FEW100 SCT180 OVC230 18/13 A3004 RMK CU1AC1AS3CI2 SLP174

CYQB;2010-08-22 00:00;CYQB 220000Z 25010G15KT 20SM FEW030 FEW100 SCT180 OVC230 17/11 A3006 RMK CU1AC1AC3CI4 SLP180

CYQB;2010-08-22 01:00;CYQB 220100Z 25005KT 20SM FEW100 BKN230 16/11 A3007 RMK AC1CI4 SLP185

CYQB;2010-08-22 02:00;CYQB 220200Z 23002KT 15SM FEW100 BKN250 14/11 A3009 RMK AC2CI2 SLP190

CYQB;2010-08-22 03:00;CYQB 220300Z 00000KT 15SM FEW100 BKN230 14/11 A3009 RMK AC2CI2 SLP189

CYQB;2010-08-22 04:00;CYQB 220400Z 36003KT 15SM FEW100 BKN230 15/11 A3009 RMK AC2CI5 SLP189

CYQB;2010-08-22 05:00;CYQB 220500Z 00000KT 15SM OVC220 14/11 A3008 RMK CI8 SLP187

CYQB;2010-08-22 06:00;CYQB 220600Z 05003KT 15SM BKN230 15/12 A3008 RMK CI7 SLP185

CYQB;2010-08-22 07:00;CYQB 220700Z 03003KT 15SM SCT190 OVC230 14/12 A3008 RMK AC3CI5 SLP185

CYQB;2010-08-22 08:00;CYQB 220800Z 02004KT 15SM FEW050 BKN170 OVC200 14/12 A3008 RMK SC2AC5CI1 SLP185

CYQB;2010-08-22 09:00;CYQB 220900Z 00000KT 15SM BKN140 14/12 A3008 RMK AC7 SLP188

CYQB;2010-08-22 10:00;CYQB 221000Z 06007KT 30SM BKN120 15/13 A3009 RMK AC7 VIRGA SLP189

CYQB;2010-08-22 10:29;CYQB 221029Z 06007KT 25SM -SHRA BKN110 15/ RMK AC7

CYQB;2010-08-22 11:00;CYQB 221100Z 08005KT 20SM -SHRA FEW015 FEW065 OVC070 16/13 A3011 RMK SC1SC1AC6 SLP195

CYQB;2010-08-22 12:00;CYQB 221200Z 08009G18KT 20SM -SHRA FEW015 BKN069 OVC100 15/13 A3012 RMK SC1AC4AC3 SLP200

CYQB;2010-08-22 13:00;CYQB 221300Z 07014KT 10SM -SHRA FEW015 BKN060 OVC100 15/13 A3012 RMK SC1SC6AC1 SLP202

CYQB;2010-08-22 14:00;CYQB 221400Z 09008KT 10SM -SHRA FEW015 OVC060 16/14 A3013 RMK SC1SC7 SLP203

CYQB;2010-08-22 15:00;CYQB 221500Z 07011KT 10SM -SHRA FEW015 OVC058 17/14 A3013 RMK SC1SC7 SLP205

CYQB;2010-08-22 16:00;CYQB 221600Z 08011G17KT 6SM -SHRA BR FEW015 OVC048 17/14 A3014 RMK SC1SC7 SLP207

CYQB;2010-08-22 17:00;CYQB 221700Z 09009KT 6SM -SHRA BR FEW015 OVC035 17/15 A3014 RMK SC1SC7 SLP207

CYQB;2010-08-22 18:00;CYQB 221800Z 09006KT 15SM -SHRA FEW015 OVC043 17/15 A3014 RMK SC1SC7 SLP206

CYQB;2010-08-22 19:00;CYQB 221900Z 08010G15KT 8SM -SHRA FEW015 OVC040 17/15 A3014 RMK SC2SC6 SLP206

CYQB;2010-08-22 20:00;CYQB 222000Z 10009KT 15SM -SHRA FEW015 OVC036 17/14 A3014 RMK SC2SC6 SLP208

CYQB;2010-08-22 21:00;CYQB 222100Z 08006KT 7SM -SHRA FEW010 FEW025 OVC039 16/14 A3014 RMK SF1SC2SC6 SLP209

CYQB;2010-08-22 22:00;CYQB 222200Z 07008KT 7SM -SHRA FEW010 BKN027 OVC040 16/15 A3015 RMK SF1SC6SC1 SLP212

CYQB;2010-08-22 23:00;CYQB 222300Z 05007KT 15SM -SHRA FEW020 OVC035 16/14 A3016 RMK SC2SC6 SLP215

CYQB;2010-08-23 00:00;CYQB 230000Z 07010G16KT 15SM -SHRA FEW020 OVC044 17/13 A3016 RMK SC2SC6 SLP215

CYQB;2010-08-23 01:00;CYQB 230100Z 07009G16KT 15SM FEW020 OVC057 17/14 A3017 RMK SC2SC6 SLP218

CYQB;2010-08-23 02:00;CYQB 230200Z 09009G15KT 15SM FEW020 OVC057 16/14 A3017 RMK SC2SC6 SLP219

CYQB;2010-08-23 03:00;CYQB 230300Z 07011G17KT 15SM FEW020 OVC057 16/14 A3017 RMK SC2SC6 SLP216

CYQB;2010-08-23 04:00;CYQB 230400Z 07009KT 15SM FEW020 OVC062 15/13 A3017 RMK SC2SC6 SLP216

CYQB;2010-08-23 05:00;CYQB 230500Z 08008KT 15SM FEW020 OVC066 15/13 A3017 RMK SC2SC6 SLP216

CYQB;2010-08-23 06:00;CYQB 230600Z 07009KT 15SM FEW010 BKN070 OVC094 15/14 A3017 RMK SF2AC6AC1 SLP217

CYQB;2010-08-23 07:00;CYQB 230700Z 07009KT 15SM FEW010 BKN082 OVC094 15/13 A3017 RMK SF2AC6AC1 SLP217

CYQB;2010-08-23 08:00;CYQB 230800Z 07008G15KT 15SM FEW010 BKN083 OVC091 15/13 A3017 RMK SF2AC6AC1 SLP218

CYQB;2010-08-23 09:00;CYQB 230900Z 07013G19KT 15SM FEW012 OVC063 15/13 A3018 RMK SF1SC7 SLP220

CYQB;2010-08-23 10:00;CYQB 231000Z 06012KT 20SM OVC065 15/13 A3019 RMK SC8 SLP226

CYQB;2010-08-23 11:00;CYQB 231100Z 06011KT 25SM OVC063 16/14 A3021 RMK SC8 SLP231

CYQB;2010-08-23 12:00;CYQB 231200Z 07012G17KT 25SM BKN068 17/14 A3023 RMK SC7 SLP237

CYQB;2010-08-23 13:00;CYQB 231300Z 07016G27KT 25SM FEW070 FEW240 17/14 A3023 RMK AC2CI1 SLP238

CYQB;2010-08-23 14:00;CYQB 231400Z 07015G21KT 25SM FEW022 FEW240 18/14 A3023 RMK SC2CI1 SLP238

CYQB;2010-08-23 15:00;CYQB 231500Z 07015KT 25SM FEW020 FEW240 20/15 A3024 RMK SC1CI1 SLP240

CYQB;2010-08-23 16:00;CYQB 231600Z 06012G19KT 25SM FEW020 FEW240 21/15 A3023 RMK SC1CI1 SLP237

CYQB;2010-08-23 17:00;CYQB 231700Z 07012G18KT 25SM FEW020 FEW240 22/15 A3023 RMK CU1CI1 SLP237

CYQB;2010-08-23 18:00;CYQB 231800Z 07012G19KT 25SM FEW020 FEW066 23/15 A3022 RMK SC1SC2 SLP234

CYQB;2010-08-23 19:00;CYQB 231900Z 10013KT 25SM FEW030 SCT066 23/15 A3021 RMK SC1CU3 SLP229

CYQB;2010-08-23 20:00;CYQB 232000Z 08014KT 25SM FEW030 FEW070 22/15 A3020 RMK CU2AC1 SLP226

CYQB;2010-08-23 21:00;CYQB 232100Z 07010KT 25SM FEW030 FEW070 22/15 A3020 RMK CU1AC1 SLP227

CYQB;2010-08-23 22:00;CYQB 232200Z 07012KT 25SM FEW030 FEW070 SCT200 22/15 A3021 RMK CU1AC2CC1 SLP231

CYQB;2010-08-23 23:00;CYQB 232300Z 10011KT 25SM FEW070 20/15 A3021 RMK AC2 SLP232

CYQB;2010-08-24 00:00;CYQB 240000Z 08008KT 25SM FEW070 FEW200 18/14 A3022 RMK AC2CI0 SLP234

CYQB;2010-08-24 01:00;CYQB 240100Z 08004KT 25SM FEW056 17/13 A3021 RMK SC2 SLP232

CYQB;2010-08-24 02:00;CYQB 240200Z 35005KT 15SM FEW056 FEW070 17/13 A3022 RMK CF1AC1 SLP233

CYQB;2010-08-24 03:00;CYQB 240300Z 34004KT 15SM SKC 15/13 A3020 RMK SLP228

CYQB;2010-08-24 04:00;CYQB 240400Z 03006KT 15SM SKC 16/13 A3020 RMK SLP229

CYQB;2010-08-24 05:00;CYQB 240500Z 36003KT 15SM SKC 14/13 A3019 RMK SLP226

CYQB;2010-08-24 06:00;CYQB 240600Z 36002KT 15SM SKC 13/12 A3018 RMK SLP222

CYQB;2010-08-24 07:00;CYQB 240700Z 01003KT 15SM SKC 14/12 A3018 RMK SLP222

CYQB;2010-08-24 08:00;CYQB 240800Z 03004KT 15SM SKC 13/12 A3019 RMK SLP223

CYQB;2010-08-24 09:00;CYQB 240900Z 36003KT 15SM FEW070 13/12 A3019 RMK AC1 SLP226

CYQB;2010-08-24 10:00;CYQB 241000Z 01002KT 25SM FEW070 13/11 A3021 RMK AC1 SLP230

CYQB;2010-08-24 11:00;CYQB 241100Z 05002KT 25SM FEW070 14/12 A3022 RMK AC1 SLP235

CYQB;2010-08-24 12:00;CYQB 241200Z 02002KT 25SM FEW070 16/13 A3022 RMK AC1 SLP235

CYQB;2010-08-24 13:00;CYQB 241300Z 06010KT 25SM FEW030 18/13 A3022 RMK CU1 SLP233

CYQB;2010-08-24 14:00;CYQB 241400Z 08005KT 25SM FEW030 20/13 A3021 RMK SC1 SLP231

CYQB;2010-08-24 15:00;CYQB 241500Z 08006KT 25SM FEW030 21/14 A3020 RMK SC1 SLP228

CYQB;2010-08-24 16:00;CYQB 241600Z 14002KT 25SM FEW030 23/14 A3018 RMK SC1 SLP222

CYQB;2010-08-24 17:00;CYQB 241700Z 26002KT 25SM FEW040 25/14 A3017 RMK CU2 SLP216

CYQB;2010-08-24 18:00;CYQB 241800Z 08004KT 25SM FEW045 25/12 A3015 RMK CU2 SLP210

CYQB;2010-08-24 19:00;CYQB 241900Z 08005KT 25SM FEW045 25/11 A3013 RMK CU2 SLP202

CYQB;2010-08-24 20:00;CYQB 242000Z 04007KT 25SM FEW048 25/12 A3011 RMK CU2 SLP197

CYQB;2010-08-24 21:00;CYQB 242100Z 07007KT 25SM FEW050 25/11 A3010 RMK CU1 SLP194

CYQB;2010-08-24 22:00;CYQB 242200Z 06005KT 25SM FEW050 25/12 A3010 RMK CU1 SLP192

CYQB;2010-08-24 23:00;CYQB 242300Z 07007KT 25SM FEW050 FEW200 23/13 A3009 RMK CU1CI1 SLP190

CYQB;2010-08-25 00:00;CYQB 250000Z 09005KT 25SM FEW050 FEW200 21/13 A3009 RMK SC1CI1 SLP190

CYQB;2010-08-25 01:00;CYQB 250100Z 01002KT 15SM SKC 20/13 A3010 RMK SLP192

CYQB;2010-08-25 02:00;CYQB 250200Z 07005KT 15SM SKC 19/13 A3010 RMK SLP193

CYQB;2010-08-25 03:00;CYQB 250300Z 36004KT 15SM SKC 17/13 A3009 RMK SLP190

CYQB;2010-08-25 04:00;CYQB 250400Z 02004KT 15SM SKC 17/12 A3008 RMK SLP187

CYQB;2010-08-25 05:00;CYQB 250500Z 01004KT 15SM SKC 15/12 A3008 RMK OBS TAKEN +20 SLP188

CYQB;2010-08-25 06:00;CYQB 250600Z 01003KT 15SM SKC 15/12 A3008 RMK SLP188

CYQB;2010-08-25 07:00;CYQB 250700Z 02004KT 15SM SKC 14/11 A3008 RMK SLP188

CYQB;2010-08-25 08:00;CYQB 250800Z 01004KT 15SM SKC 14/11 A3008 RMK SLP186

CYQB;2010-08-25 09:00;CYQB 250900Z 03004KT 15SM SKC 13/11 A3008 RMK SLP185

CYQB;2010-08-25 10:00;CYQB 251000Z 01004KT 30SM FEW160 BKN250 13/11 A3008 RMK AC1CI2 SLP185

CYQB;2010-08-25 11:00;CYQB 251100Z 06003KT 30SM FEW090 FEW110 SCT160 BKN250 14/11 A3007 RMK AC1AC2AC2CI2 SLP184

CYQB;2010-08-25 12:00;CYQB 251200Z 04003KT 30SM FEW060 FEW090 SCT110 SCT160 BKN220 16/12 A3007 RMK SC1AC1AC2AC1CI2 SLP184

CYQB;2010-08-25 13:00;CYQB 251300Z 08006KT 30SM FEW060 FEW090 BKN190 OVC220 17/12 A3006 RMK SC1AC2AC4CI1 SLP181

CYQB;2010-08-25 14:00;CYQB 251400Z 07007KT 30SM FEW060 FEW090 SCT110 BKN180 OVC220 18/14 A3006 RMK SC1AC2AC2AC2CI2 SLP178

CYQB;2010-08-25 15:00;CYQB 251500Z 07005KT 30SM FEW060 SCT110 OVC170 19/15 A3004 RMK SC1AC2AC5 SLP174

CYQB;2010-08-25 16:00;CYQB 251600Z 09004KT 30SM FEW030 FEW060 SCT110 BKN160 OVC220 20/14 A3002 RMK SC1SC1AC2AC2CI2 SLP166

CYQB;2010-08-25 17:00;CYQB 251700Z 09004KT 30SM FEW030 BKN080 OVC160 21/15 A3002 RMK CF1AC5AC2 SLP165

CYQB;2010-08-25 18:00;CYQB 251800Z 14007KT 30SM SCT035 BKN080 OVC160 21/15 A3000 RMK SC4AC2AC2 SLP161

CYQB;2010-08-25 19:00;CYQB 251900Z 16009KT 30SM BKN035 OVC080 20/15 A2999 RMK SC5AC3 SLP155

CYQB;2010-08-25 20:00;CYQB 252000Z 16005KT 30SM FEW020 BKN045 OVC080 19/15 A2997 RMK CF2SC4AC2 SLP150

CYQB;2010-08-25 20:24;CYQB 252024Z 00000KT 10SM -SHRA FEW012 BKN032 OVC080 19/ RMK SF2SC4AC2

CYQB;2010-08-25 21:00;CYQB 252100Z 18002KT 15SM -SHRA FEW012 BKN036 OVC080 19/17 A2995 RMK SF2SC4AC2 SLP144

CYQB;2010-08-25 21:44;CYQB 252144Z 12003KT 20SM FEW020 BKN047 OVC080 19/ RMK CF2SC5AC2

CYQB;2010-08-25 22:00;CYQB 252200Z 10003KT 20SM FEW020 BKN040 OVC080 19/17 A2992 RMK CF2SC5AC2 SLP133

CYQB;2010-08-25 23:00;CYQB 252300Z 13003KT 20SM -SHRA FEW015 BKN032 OVC080 18/15 A2993 RMK CF2SC5AC2 SLP135

CYQB;2010-08-26 00:00;CYQB 260000Z 11004KT 15SM -SHRA FEW015 OVC044 17/16 A2992 RMK CF2SC6 SLP133

CYQB;2010-08-26 01:00;CYQB 260100Z 01003KT 15SM -SHRA FEW015 OVC039 17/16 A2991 RMK CF2SC6 SLP130

CYQB;2010-08-26 01:41;CYQB 260141Z 36004KT 15SM FEW015 OVC039 17/ RMK CF1SC7

CYQB;2010-08-26 02:00;CYQB 260200Z 01002KT 10SM OVC035 17/16 A2989 RMK SC8 SLP124

CYQB;2010-08-26 03:00;CYQB 260300Z 05004KT 10SM OVC028 17/16 A2988 RMK SC8 SLP119

CYQB;2010-08-26 04:00;CYQB 260400Z 07004KT 8SM -SHRA OVC023 17/16 A2986 RMK SC8 SLP113

CYQB;2010-08-26 05:00;CYQB 260500Z 05004KT 8SM -SHRA OVC021 17/16 A2985 RMK SC8 SLP110

CYQB;2010-08-26 05:17;CYQB 260517Z 05006KT 10SM -DZ SCT006 OVC021 17/ RMK SF3SC5

CYQB;2010-08-26 06:00;CYQB 260600Z 00000KT 8SM -RA SCT008 OVC020 17/16 A2984 RMK SF3SC5 SLP106

CYQB;2010-08-26 07:00;CYQB 260700Z 13002KT 8SM -RA FEW005 OVC021 17/16 A2984 RMK SF2SC6 SLP105

CYQB;2010-08-26 08:00;CYQB 260800Z 08002KT 8SM VCFG FEW005 BKN021 OVC040 16/16 A2982 RMK SF2SC5SC2 SLP098

CYQB;2010-08-26 09:00;CYQB 260900Z 06003KT 8SM VCFG FEW005 BKN017 OVC040 16/16 A2981 RMK SF1SC6SC1 SLP096

CYQB;2010-08-26 10:00;CYQB 261000Z 06004KT 1 1/4SM -DZ BR SCT003 OVC015 16/16 A2981 RMK FG1SF3SC4 SLP096

CYQB;2010-08-26 10:40;CYQB 261040Z 09004KT 1SM R06/P6000FT/N -DZ BR BKN003 OVC015 16/ RMK FG3SF4SC1

CYQB;2010-08-26 11:00;CYQB 261100Z 12003KT 1 1/2SM BR FEW002 BKN007 OVC015 16/16 A2983 RMK FG2SF1SF4SC2 CIG RAG SLP100

CYQB;2010-08-26 11:32;CYQB 261132Z 24002KT 1 3/4SM BR FEW002 OVC010 16/ RMK FG2SF1SC6

CYQB;2010-08-26 12:00;CYQB 261200Z 00000KT 1 1/2SM BR SCT004 OVC010 16/16 A2983 RMK FG2SF2SC4 SLP102

CYQB;2010-08-26 13:00;CYQB 261300Z 25004KT 5SM BR SCT004 OVC011 17/17 A2983 RMK SF4SC4 VIS E 2 CIG RAG SLP102

CYQB;2010-08-26 14:00;CYQB 261400Z 25006KT 12SM FEW004 BKN012 OVC031 18/17 A2983 RMK SF2SC4SC2 SLP104

CYQB;2010-08-26 15:00;CYQB 261500Z 24008KT 15SM FEW009 BKN014 OVC028 18/16 A2983 RMK SF2SC6SC1 CIG RAG SLP103

CYQB;2010-08-26 16:00;CYQB 261600Z 24009KT 20SM FEW009 OVC014 18/16 A2983 RMK SF2SC6 SLP102

CYQB;2010-08-26 17:00;CYQB 261700Z 25008KT 20SM FEW009 FEW014 OVC026 19/16 A2982 RMK SF1SC2SC6 SLP098

CYQB;2010-08-26 18:00;CYQB 261800Z 25009KT 20SM FEW009 BKN018 BKN040 21/17 A2981 RMK SF1SC5SC2 SLP095

CYQB;2010-08-26 19:00;CYQB 261900Z 25005KT 30SM FEW020 SCT038 22/17 A2980 RMK CU2CU2 SLP090

CYQB;2010-08-26 20:00;CYQB 262000Z 23006KT 15SM BKN031TCU 23/16 A2978 RMK TCU5 SLP086

CYQB;2010-08-26 20:20;CYQB 262020Z 22008KT 6SM -SHRA BKN040TCU 21/ RMK TCU7

CYQB;2010-08-26 21:00;CYQB 262100Z 24006KT 6SM -SHRA BKN040TCU BKN088 18/16 A2980 RMK TCU5AC2 SLP092

CYQB;2010-08-26 22:00;CYQB 262200Z 24007KT 15SM SCT040TCU BKN110 20/18 A2980 RMK TCU4AC2 SLP092

CYQB;2010-08-26 22:51;CYQB 262251Z 30014G26KT 8SM -SHRA BKN060TCU 17/ RMK TCU7

CYQB;2010-08-26 23:00;CYQB 262300Z 31011G19KT 8SM -SHRA OVC053TCU 17/15 A2982 RMK TCU8 SLP098

CYQB;2010-08-26 23:34;CYQB 262334Z 27004KT 15SM FEW050TCU OVC110 16/ RMK TCU2AC6

CYQB;2010-08-27 00:00;CYQB 270000Z 29004KT 15SM FEW050 OVC100 17/15 A2983 RMK CU2AC6 SLP101

CYQB;2010-08-27 01:00;CYQB 270100Z 28008KT 15SM BKN077 18/14 A2984 RMK AC7 SLP107

CYQB;2010-08-27 02:00;CYQB 270200Z 24008KT 10SM -SHRA OVC088 16/15 A2986 RMK AC8 SLP112

CYQB;2010-08-27 03:00;CYQB 270300Z 27007KT 10SM -SHRA FEW030 OVC084 16/15 A2987 RMK SC2AC6 SLP116

CYQB;2010-08-27 03:15;CYQB 270315Z 28007KT 10SM FEW030 OVC081 16/ RMK SC2AC6

CYQB;2010-08-27 03:50;CYQB 270350Z 30008KT 10SM -SHRA FEW030 SCT052 OVC080 16/ RMK SC2SC2AC5

CYQB;2010-08-27 04:00;CYQB 270400Z 33009G15KT 10SM -SHRA FEW030 SCT055 OVC079 16/13 A2989 RMK SC1SC2AC5 SLP123

CYQB;2010-08-27 05:00;CYQB 270500Z 29007KT 10SM -SHRA BKN040 OVC065 15/12 A2991 RMK SC5SC3 SLP130

CYQB;2010-08-27 05:39;CYQB 270539Z 29007KT 10SM SCT040 OVC070 15/ RMK SC3AC5

CYQB;2010-08-27 06:00;CYQB 270600Z 29004KT 15SM FEW040 BKN070 15/12 A2992 RMK SC2AC5 SLP133

CYQB;2010-08-27 07:00;CYQB 270700Z 27007KT 15SM FEW040 BKN082 14/11 A2994 RMK SC1AC4 SLP140

CYQB;2010-08-27 08:00;CYQB 270800Z 26008KT 15SM FEW040 SCT080 13/11 A2995 RMK SC2AC2 SLP144

CYQB;2010-08-27 09:00;CYQB 270900Z 27010KT 15SM SCT040 BKN080 12/10 A2997 RMK SC3AC1 SLP150

CYQB;2010-08-27 10:00;CYQB 271000Z 26011KT 25SM FEW040 FEW080 11/10 A2999 RMK SC1AC1 SLP155

CYQB;2010-08-27 11:00;CYQB 271100Z 27011KT 25SM FEW038 FEW080 11/09 A3001 RMK SC1AC1 SLP163

CYQB;2010-08-27 12:00;CYQB 271200Z 28011KT 25SM FEW038 FEW080 13/10 A3003 RMK SC1AC1 SLP172

CYQB;2010-08-27 13:00;CYQB 271300Z 24009KT 25SM FEW038 14/10 A3004 RMK SC2 SLP174

CYQB;2010-08-27 14:00;CYQB 271400Z 26009KT 25SM BKN038 15/10 A3005 RMK SC6 SLP178

CYQB;2010-08-27 15:00;CYQB 271500Z 26008G15KT 25SM SCT041 SCT240 17/10 A3005 RMK SC4CI1 SLP176

CYQB;2010-08-27 16:00;CYQB 271600Z 24012KT 25SM FEW038 FEW240 18/10 A3004 RMK SC1CI0 SLP174

CYQB;2010-08-27 17:00;CYQB 271700Z 25011G17KT 30SM FEW042 SCT240 20/10 A3002 RMK CU2CI0 SLP167

CYQB;2010-08-27 18:00;CYQB 271800Z 22015KT 30SM SCT057 BKN240 20/11 A3001 RMK CU4CI0 SLP164

CYQB;2010-08-27 19:00;CYQB 271900Z 22016G21KT 30SM SCT060 SCT240 20/11 A3001 RMK CU3CI0 SLP162

CYQB;2010-08-27 20:00;CYQB 272000Z 23016KT 30SM FEW060 BKN240 20/11 A3000 RMK CU2CI0 SLP161

CYQB;2010-08-27 21:00;CYQB 272100Z 23014G20KT 30SM FEW058 BKN240 20/10 A3001 RMK CU1CI0 SLP162

CYQB;2010-08-27 22:00;CYQB 272200Z 24010KT 30SM FEW061 SCT170 OVC240 19/11 A3000 RMK CU1AC3CI0 SLP160

CYQB;2010-08-27 23:00;CYQB 272300Z 25008KT 30SM FEW061 BKN140 OVC240 18/11 A3000 RMK CU1AC6CI2 SLP161

CYQB;2010-08-28 00:00;CYQB 280000Z 24005KT 20SM BKN140 BKN220 17/12 A3001 RMK AC6CI2 SLP165

CYQB;2010-08-28 01:00;CYQB 280100Z 24002KT 15SM BKN140 BKN220 16/12 A3002 RMK AC5CI1 SLP168

CYQB;2010-08-28 02:00;CYQB 280200Z 25003KT 15SM BKN070 BKN120 OVC230 16/12 A3002 RMK AC6AC1CS2 SLP167

CYQB;2010-08-28 03:00;CYQB 280300Z 25003KT 15SM BKN060 OVC120 16/12 A3002 RMK SC6AC2 SLP165

CYQB;2010-08-28 04:00;CYQB 280400Z 27002KT 15SM BKN060 BKN120 15/12 A3002 RMK SC6AC2 SLP167

CYQB;2010-08-28 04:35;CYQB 280435Z 00000KT 15SM -SHRA OVC060 16/ RMK SC8

CYQB;2010-08-28 05:00;CYQB 280500Z 29002KT 10SM -SHRA OVC055 15/13 A3003 RMK SC8 SLP169

CYQB;2010-08-28 06:00;CYQB 280600Z 19005KT 10SM -SHRA FEW025 OVC047 14/14 A3003 RMK SC1SC8 SLP170

CYQB;2010-08-28 06:14;CYQB 280614Z 22006KT 5SM SHRA FEW015 OVC048 15/ RMK CF1SC7

CYQB;2010-08-28 06:32;CYQB 280632Z 21007KT 10SM -SHRA FEW015 OVC054 14/ RERA RMK CF1SC7

CYQB;2010-08-28 07:00;CYQB 280700Z CCA 23005KT 20SM BKN045 BKN120 14/13 A3003 RERA RMK SC5AC2 SLP168

CYQB;2010-08-28 08:00;CYQB 280800Z 04002KT 20SM FEW045 SCT120 14/13 A3003 RMK SC2AC2 SLP170

CYQB;2010-08-28 09:00;CYQB 280900Z 00000KT 20SM FEW050 SCT120 14/13 A3005 RMK SC2AC1 SLP176

CYQB;2010-08-28 10:00;CYQB 281000Z 24007KT 6SM BR FEW008 FEW015 BKN048 BKN100 13/13 A3006 RMK CF1SC1SC4AC1 SLP181

CYQB;2010-08-28 10:35;CYQB 281035Z 26007KT 6SM BR BKN008 BKN040 14/ RMK SF6SC1

CYQB;2010-08-28 11:00;CYQB 281100Z 27005KT 5SM BR BKN008 BKN020 14/14 A3008 RMK SF6SC1 SLP186

CYQB;2010-08-28 12:00;CYQB 281200Z 26009KT 5SM BR BKN008 15/14 A3009 RMK SF7 SLP191

CYQB;2010-08-28 12:43;CYQB 281243Z 28008KT 6SM BR FEW006 BKN040 16/ RMK SF2SC1

CYQB;2010-08-28 13:00;CYQB 281300Z 27009KT 6SM BR FEW006 BKN100 16/15 A3009 RMK SF2AC1 SLP190

CYQB;2010-08-28 14:00;CYQB 281400Z 25008KT 6SM BR FEW006 SCT030 BKN100 17/15 A3009 RMK CF2CU2AC2 SLP192

CYQB;2010-08-28 15:00;CYQB 281500Z 26010KT 6SM BR FEW006 BKN034 BKN100 18/16 A3010 RMK CF2CU4AC2 SLP193

CYQB;2010-08-28 16:00;CYQB 281600Z 25010G16KT 30SM BKN020 OVC100 19/15 A3009 RMK SC6AC1 SLP191

CYQB;2010-08-28 17:00;CYQB 281700Z 24011KT 15SM -SHRA OVC017 18/15 A3009 RMK SC8 SLP189

CYQB;2010-08-28 18:00;CYQB 281800Z 26008KT 30SM BKN017 BKN080 19/16 A3008 RMK SC6AC1 SLP186

CYQB;2010-08-28 19:00;CYQB 281900Z 26006KT 30SM BKN020 BKN100 BKN200 20/16 A3006 RMK SC5AC2CI1 SLP178

CYQB;2010-08-28 20:00;CYQB 282000Z 27005KT 20SM SCT020 BKN100 BKN200 21/17 A3003 RMK SC4AC2CI2 SLP168

CYQB;2010-08-28 21:00;CYQB 282100Z 25002KT 20SM FEW020 FEW100 BKN200 23/18 A3000 RMK SC2AC1CI0 SLP161

CYQB;2010-08-28 22:00;CYQB 282200Z 18003KT 20SM FEW023 BKN220 22/17 A2999 RMK SC1CI0 SLP157

CYQB;2010-08-28 23:00;CYQB 282300Z 16003KT 20SM FEW180 BKN220 21/18 A2999 RMK AC2CI0 SLP156

CYQB;2010-08-29 00:00;CYQB 290000Z 11002KT 15SM BKN042 BKN180 21/18 A3001 RMK SC5AS2 SLP164

CYQB;2010-08-29 01:00;CYQB 290100Z 00000KT 15SM SCT040 SCT080 BKN180 20/17 A3001 RMK SC3AS1CI0 SLP163

CYQB;2010-08-29 02:00;CYQB 290200Z 00000KT 15SM BKN100 19/17 A3001 RMK AC7 SLP163

CYQB;2010-08-29 03:00;CYQB 290300Z 16003KT 15SM FEW050 BKN090 19/17 A3000 RMK SC2AC5 SLP160

CYQB;2010-08-29 04:00;CYQB 290400Z 20002KT 15SM SCT090 BKN210 18/17 A3001 RMK AC4CI2 SLP163

CYQB;2010-08-29 05:00;CYQB 290500Z 24004KT 15SM SCT100 BKN210 19/17 A3001 RMK AC3CI3 SLP164

CYQB;2010-08-29 06:00;CYQB 290600Z 24004KT 15SM FEW100 BKN200 19/17 A3001 RMK AC2CI4 SLP164

CYQB;2010-08-29 07:00;CYQB 290700Z 21004KT 15SM BKN200 19/16 A3002 RMK CI6 SLP167

CYQB;2010-08-29 08:00;CYQB 290800Z 25006KT 15SM FEW170 BKN200 18/16 A3003 RMK AC1CI2 SLP170

CYQB;2010-08-29 09:00;CYQB 290900Z 26011KT 15SM BKN240 17/16 A3003 RMK CI1 SLP168

CYQB;2010-08-29 10:00;CYQB 291000Z 26012KT 15SM SCT006 17/16 A3004 RMK ST2 SLP172

CYQB;2010-08-29 11:00;CYQB 291100Z 26011KT 15SM SCT008 18/17 A3006 RMK ST4 SLP181

CYQB;2010-08-29 11:30;CYQB 291130Z 26010KT 15SM BKN006 18/17 RMK ST6

CYQB;2010-08-29 12:00;CYQB 291200Z 26011KT 15SM BKN006 18/17 A3007 RMK ST5 SLP184

CYQB;2010-08-29 12:24;CYQB 291224Z 25013KT 15SM SCT006 19/18 RMK SF3

CYQB;2010-08-29 13:00;CYQB 291300Z 25011KT 25SM FEW007 21/18 A3007 RMK ST2 SLP183

CYQB;2010-08-29 14:00;CYQB 291400Z 25011KT 25SM SKC 23/18 A3006 RMK SLP179

CYQB;2010-08-29 15:00;CYQB 291500Z 26013KT 25SM SKC 25/18 A3006 RMK SLP179

CYQB;2010-08-29 16:00;CYQB 291600Z 26011G16KT 20SM SKC 25/19 A3004 RMK SLP174

CYQB;2010-08-29 17:00;CYQB 291700Z 23015G20KT 20SM SKC 28/20 A3003 RMK SLP171

CYQB;2010-08-29 18:00;CYQB 291800Z 24014G19KT 20SM SKC 29/20 A3002 RMK SLP164

CYQB;2010-08-29 19:00;CYQB 291900Z 24015KT 20SM SKC 30/20 A3001 RMK OBS TAKEN +5 SLP161

CYQB;2010-08-29 20:00;CYQB 292000Z 25015G24KT 20SM SKC 29/19 A3000 RMK SLP158

CYQB;2010-08-29 21:00;CYQB 292100Z 23017KT 20SM SKC 29/20 A3000 RMK SLP157

CYQB;2010-08-29 22:00;CYQB 292200Z 24012G20KT 20SM SKC 28/20 A2999 RMK SLP155

CYQB;2010-08-29 23:00;CYQB 292300Z 24009KT 20SM SKC 27/20 A3000 RMK SLP158

CYQB;2010-08-30 00:00;CYQB 300000Z 25012KT 15SM SKC 25/19 A3000 RMK SLP159

CYQB;2010-08-30 01:00;CYQB 300100Z 24008KT 15SM SKC 24/19 A3002 RMK SLP166

CYQB;2010-08-30 02:00;CYQB 300200Z 25011KT 15SM SKC 23/19 A3003 RMK SLP167

CYQB;2010-08-30 03:00;CYQB 300300Z 24009KT 15SM SKC 22/19 A3005 RMK SLP174

CYQB;2010-08-30 04:00;CYQB 300400Z 24009KT 15SM SKC 21/18 A3006 RMK SLP179

CYQB;2010-08-30 05:00;CYQB 300500Z 25009KT 15SM SKC 20/18 A3007 RMK SLP181

CYQB;2010-08-30 06:00;CYQB 300600Z 24010KT 15SM SKC 20/18 A3007 RMK SLP181

CYQB;2010-08-30 07:00;CYQB 300700Z 25008KT 15SM SKC 19/18 A3007 RMK SLP183

CYQB;2010-08-30 08:00;CYQB 300800Z 26011KT 15SM SKC 19/17 A3007 RMK SLP182

CYQB;2010-08-30 09:00;CYQB 300900Z 25011KT 15SM FEW005 18/17 A3007 RMK SF1 SLP183

CYQB;2010-08-30 10:00;CYQB 301000Z 24013KT 15SM FEW005 18/16 A3009 RMK SF1 SLP189

CYQB;2010-08-30 10:33;CYQB 301033Z 25011KT 15SM BKN003 18/ RMK SF5

CYQB;2010-08-30 11:00;CYQB 301100Z 25011KT 6SM BR BKN003 18/17 A3011 RMK SF7 SLP195

CYQB;2010-08-30 12:00;CYQB 301200Z 25012KT 6SM BR BKN004 18/17 A3012 RMK SF6 SLP200

CYQB;2010-08-30 12:42;CYQB 301242Z 25015KT 10SM SCT004 20/ RMK SF4

CYQB;2010-08-30 13:00;CYQB 301300Z 25013KT 8SM FEW004 20/18 A3011 RMK SF1 SLP198

CYQB;2010-08-30 14:00;CYQB 301400Z 23010KT 10SM SKC 23/19 A3011 RMK SLP198

CYQB;2010-08-30 15:00;CYQB 301500Z 24012KT 15SM SKC 24/19 A3010 RMK SLP192

CYQB;2010-08-30 16:00;CYQB 301600Z 22014KT 12SM FEW230 26/18 A3008 RMK CI1 SLP184

CYQB;2010-08-30 17:00;CYQB 301700Z 24015KT 25SM FEW032 FEW180 FEW260 27/18 A3006 RMK CU1AC1CI1 SLP177

CYQB;2010-08-30 18:00;CYQB 301800Z 25014KT 25SM FEW040 FEW260 28/18 A3003 RMK CU1CI1 SLP170

CYQB;2010-08-30 19:00;CYQB 301900Z 25011KT 25SM FEW040 FEW260 28/19 A3003 RMK CU1CI1 SLP167

CYQB;2010-08-30 20:00;CYQB 302000Z 25011G16KT 25SM FEW044 FEW260 29/19 A3001 RMK CU1CI1 SLP161

CYQB;2010-08-30 21:00;CYQB 302100Z 24013KT 25SM FEW180 29/18 A3000 RMK AC1 SLP157

CYQB;2010-08-30 22:00;CYQB 302200Z 25012KT 25SM FEW180 29/19 A2999 RMK AC1 SLP155

CYQB;2010-08-30 23:00;CYQB 302300Z 24009KT 25SM FEW180 FEW260 27/19 A3000 RMK AC1CI1 SLP157

CYQB;2010-08-31 00:00;CYQB 310000Z 24005KT 25SM FEW090 FEW260 25/19 A3000 RMK AC1CI0 SLP158

CYQB;2010-08-31 01:00;CYQB 310100Z 24006KT 15SM SKC 24/19 A3000 RMK SLP158

CYQB;2010-08-31 02:00;CYQB 310200Z 24008KT 15SM FEW090 23/20 A3000 RMK AC1 SLP157

CYQB;2010-08-31 03:00;CYQB 310300Z 24007KT 15SM SKC 23/19 A2999 RMK SLP156

CYQB;2010-08-31 04:00;CYQB 310400Z 23006KT 15SM FEW090 23/19 A3000 RMK AC1 SLP159

CYQB;2010-08-31 05:00;CYQB 310500Z 23007KT 15SM FEW080 22/19 A3000 RMK AC1 SLP159

CYQB;2010-08-31 06:00;CYQB 310600Z 23007KT 15SM SKC 21/18 A3000 RMK SLP157

CYQB;2010-08-31 07:00;CYQB 310700Z 25004KT 15SM SKC 21/18 A2998 RMK SLP153

CYQB;2010-08-31 08:00;CYQB 310800Z 24010KT 15SM SKC 21/18 A2997 RMK SLP150

CYQB;2010-08-31 09:00;CYQB 310900Z 25012KT 15SM SKC 20/19 A2998 RMK SLP152

CYQB;2010-08-31 10:00;CYQB 311000Z 24007KT 6SM BR FEW100 20/18 A3000 RMK AC1 SLP157

CYQB;2010-08-31 10:45;CYQB 311045Z 24013KT 6SM BR BKN003 20/ RMK SF6

CYQB;2010-08-31 11:00;CYQB 311100Z 24013KT 4SM BR BKN002 20/19 A3001 RMK SF6 VIS N 10 SLP162

CYQB;2010-08-31 11:13;CYQB 311113Z 25013KT 1 1/2SM BR BKN001 20/ RMK SF6 VIS HIER N

CYQB;2010-08-31 12:00;CYQB 311200Z 24013KT 1 1/2SM BR BKN001 21/20 A3001 RMK FG2SF3 SLP163

CYQB;2010-08-31 12:38;CYQB 311238Z 24013G18KT 4SM BR SCT002 BKN080 22/ RMK SF4AC1 VIS W 1

CYQB;2010-08-31 13:00;CYQB 311300Z 25014KT 6SM HZ FEW002 SCT070 23/21 A3000 RMK SF2AC2 VIS W 2 SLP160

CYQB;2010-08-31 14:00;CYQB 311400Z 27012KT 6SM HZ FEW070 SCT120 25/21 A3000 RMK AC1AC4 SLP159

CYQB;2010-08-31 15:00;CYQB 311500Z 24014KT 15SM SCT100 28/21 A3000 RMK AC3 HAZY SLP157

CYQB;2010-08-31 16:00;CYQB 311600Z 26012KT 20SM FEW028 FEW100 28/21 A2998 RMK SC1AC1 SLP152

CYQB;2010-08-31 17:00;CYQB 311700Z 25012G17KT 20SM FEW030 FEW100 30/22 A2997 RMK CU1AC1 SLP148

CYQB;2010-08-31 18:00;CYQB 311800Z 22013KT 25SM FEW030 FEW110 29/22 A2995 RMK CU1AC2 SLP142

CYQB;2010-08-31 19:00;CYQB 311900Z 24013G19KT 15SM FEW040 BKN140 30/22 A2994 RMK CU2AC3 SLP138

CYQB;2010-08-31 20:00;CYQB 312000Z 24019KT 15SM FEW045 SCT140 30/22 A2993 RMK CU1AC2 SLP136

CYQB;2010-08-31 21:00;CYQB 312100Z 24012G17KT 15SM SCT140 30/22 A2992 RMK AC4 SLP133

CYQB;2010-08-31 22:00;CYQB 312200Z 25011KT 15SM FEW045 SCT140 30/21 A2992 RMK CU1AC2 SLP132

CYQB;2010-08-31 23:00;CYQB 312300Z 25006KT 15SM FEW130 28/21 A2992 RMK AC1 SLP131

CYQB;2010-09-01 01:00;CYQB 010100Z 27007KT 15SM SKC 25/20 A2993 RMK SLP136

CYQB;2010-09-01 02:00;CYQB 010200Z 25008KT 15SM SKC 25/21 A2994 RMK SLP137

CYQB;2010-09-01 03:00;CYQB 010300Z 25008KT 15SM SKC 24/21 A2993 RMK SLP135

CYQB;2010-09-01 04:00;CYQB 010400Z 24010KT 15SM SKC 24/21 A2993 RMK SLP135

CYQB;2010-09-01 05:00;CYQB 010500Z 25008KT 15SM SKC 23/21 A2993 RMK SLP135

CYQB;2010-09-01 06:00;CYQB 010600Z 24006KT 15SM SKC 23/21 A2992 RMK SLP132

CYQB;2010-09-01 07:00;CYQB 010700Z 25007KT 15SM SKC 22/21 A2992 RMK SLP132

CYQB;2010-09-01 08:00;CYQB 010800Z 26006KT 15SM FEW075 22/21 A2992 RMK AC2 SLP133

CYQB;2010-09-01 09:00;CYQB 010900Z 26006KT 15SM SKC 22/20 A2992 RMK SLP132

CYQB;2010-09-01 10:00;CYQB 011000Z 24008KT 3SM BR SKC 21/20 A2993 RMK SLP135

CYQB;2010-09-01 11:00;CYQB 011100Z 25010KT 3SM BR SKC 22/20 A2994 RMK SLP139

CYQB;2010-09-01 12:00;CYQB 011200Z 24008KT 3SM BR FEW050 22/21 A2996 RMK SC1 SLP144

CYQB;2010-09-01 13:00;CYQB 011300Z 24008KT 6SM HZ SCT050 BKN090 23/21 A2995 RMK SC4AC2 SLP143

CYQB;2010-09-01 14:00;CYQB 011400Z 24013KT 5SM HZ BKN085 24/20 A2995 RMK AC7 SLP142

CYQB;2010-09-01 15:00;CYQB 011500Z 23010G15KT 7SM FEW085 26/21 A2994 RMK AC1 HAZY SLP138

CYQB;2010-09-01 16:00;CYQB 011600Z 23013KT 10SM FEW025 28/21 A2992 RMK CU1 HAZY SLP131

CYQB;2010-09-01 17:00;CYQB 011700Z 24014KT 15SM FEW030 30/22 A2989 RMK CU1 HAZY SLP121

CYQB;2010-09-01 18:00;CYQB 011800Z 24012G17KT 15SM FEW035 31/21 A2987 RMK CU1 HAZY SLP114

CYQB;2010-09-01 19:00;CYQB 011900Z 25013G19KT 15SM FEW038 32/21 A2985 RMK CU1 HAZY SLP106

CYQB;2010-09-01 20:00;CYQB 012000Z 24019KT 12SM FEW040 31/20 A2983 RMK CU1 SLP102

CYQB;2010-09-01 21:00;CYQB 012100Z CCA 24015KT 10SM FEW040 31/21 A2982 RMK CU1 HAZY SLP097

CYQB;2010-09-01 22:00;CYQB 012200Z 23015KT 10SM SKC 30/20 A2982 RMK HAZY SLP096

CYQB;2010-09-01 23:00;CYQB 012300Z CCA 23010KT 10SM SKC 28/19 A2981 RMK HAZY SLP094

CYQB;2010-09-02 00:00;CYQB 020000Z 24005KT 10SM SKC 27/19 A2982 RMK HAZY SLP096

CYQB;2010-09-02 01:00;CYQB 020100Z 26006KT 10SM SKC 24/20 A2983 RMK HAZY SLP099

CYQB;2010-09-02 02:00;CYQB 020200Z 24008KT 15SM SKC 25/20 A2982 RMK SLP097

CYQB;2010-09-02 03:00;CYQB 020300Z 26008KT 15SM SKC 24/19 A2982 RMK SLP098

CYQB;2010-09-02 04:00;CYQB 020400Z 26008KT 15SM SKC 23/19 A2982 RMK SLP096

CYQB;2010-09-02 05:00;CYQB 020500Z 25008KT 15SM SKC 23/19 A2981 RMK SLP095

CYQB;2010-09-02 06:00;CYQB 020600Z 26010KT 15SM SKC 22/19 A2981 RMK SLP093

CYQB;2010-09-02 07:00;CYQB 020700Z 26010KT 15SM SCT080 23/19 A2981 RMK AC2 SLP092

CYQB;2010-09-02 08:00;CYQB 020800Z 25010KT 15SM BKN090 23/19 A2981 RMK AC2 SLP095

CYQB;2010-09-02 09:00;CYQB 020900Z 25011KT 15SM FEW100 22/19 A2981 RMK AC2 SLP095

CYQB;2010-09-02 10:00;CYQB 021000Z 24010KT 10SM SCT082 22/18 A2982 RMK AC4 HAZY SLP097

CYQB;2010-09-02 11:00;CYQB 021100Z 25009KT 10SM BKN075 22/19 A2984 RMK AC7 HAZY SLP103

CYQB;2010-09-02 12:00;CYQB 021200Z 25009KT 15SM BKN092 22/19 A2984 RMK AC7 SLP105

CYQB;2010-09-02 13:00;CYQB 021300Z 25010G15KT 15SM BKN100 24/20 A2986 RMK AC5 SLP110

CYQB;2010-09-02 14:00;CYQB 021400Z 26008KT 20SM FEW031 BKN100 25/20 A2987 RMK SC2AC6 SLP115

CYQB;2010-09-02 15:00;CYQB 021500Z 29006KT 25SM FEW030 BKN150 26/19 A2988 RMK SC2AC5 SLP118

CYQB;2010-09-02 16:00;CYQB 021600Z 33006KT 25SM BKN040 BKN180 26/19 A2988 RMK SC5AC2 SLP118

CYQB;2010-09-02 17:00;CYQB 021700Z 30007KT 25SM FEW040 BKN098 26/19 A2989 RMK SC2AC5 SLP122

CYQB;2010-09-02 18:00;CYQB 021800Z 30006KT 25SM SCT075 BKN110 26/19 A2989 RMK AC4AC3 SLP122

CYQB;2010-09-02 19:00;CYQB 021900Z 31005KT 25SM FEW040 BKN083 BKN110 26/19 A2989 RMK SC1AC6AC2 SLP120

CYQB;2010-09-02 20:00;CYQB 022000Z 26005KT 30SM FEW065 SCT080 BKN120 BKN250 26/19 A2988 RMK SC1AC4AC3CI1 SLP117

CYQB;2010-09-02 21:00;CYQB 022100Z 24005KT 30SM VCSH FEW070 BKN093 BKN130 BKN250 25/19 A2987 RMK AC1AC4AC2CI1 SHWRS SW / TCU EMBD SLP116

CYQB;2010-09-02 22:00;CYQB 022200Z 25005KT 25SM VCSH BKN084 BKN100 BKN130 BKN250 25/19 A2987 RMK AC5AC2AC1CI1 SHWRS SW TCU EMBD SLP115

CYQB;2010-09-02 23:00;CYQB 022300Z 22006KT 30SM VCSH SCT063 SCT080 BKN130 BKN250 24/19 A2986 RMK SC3AC1AC3CI1 SHWRS W SLP111

CYQB;2010-09-03 00:00;CYQB 030000Z 26004KT 15SM FEW045 SCT100 BKN140 BKN250 23/19 A2986 RMK SC2AC2AC3CI1 SLP112

CYQB;2010-09-03 01:00;CYQB 030100Z 23005KT 15SM BKN120 BKN160 22/19 A2987 RMK AC6AC2 SLP114

CYQB;2010-09-03 02:00;CYQB 030200Z 20004KT 15SM -SHRA SCT060 OVC080 22/19 A2987 RMK SC3AC5 VIS LWR S SLP114

CYQB;2010-09-03 03:00;CYQB 030300Z 00000KT 7SM -SHRA FEW040 BKN059 OVC100 22/19 A2985 RMK SC2SC4ACC2 SLP107

CYQB;2010-09-03 04:00;CYQB 030400Z 00000KT 15SM -SHRA FEW010 BKN025 BKN053 OVC078 21/20 A2984 RERA RMK SF1SC5SC2AC1 SLP106

CYQB;2010-09-03 05:00;CYQB 030500Z 08002KT 6SM -SHRA BR FEW008 BKN020 BKN040 OVC080 21/20 A2982 RMK SF1SC6SC2AC1 SLP099

CYQB;2010-09-03 05:33;CYQB 030533Z 05005KT 5SM -SHRA BR BKN003 OVC013 21/ RMK SF6SC2

CYQB;2010-09-03 06:00;CYQB 030600Z 09010KT 8SM -SHRA SCT003 BKN006 OVC013 21/19 A2981 RMK SF3SF3SC2 RERA SLP095

CYQB;2010-09-03 07:00;CYQB 030700Z 09006KT 15SM FEW008 OVC017 19/17 A2980 RMK SF1SC7 SLP091

CYQB;2010-09-03 08:00;CYQB 030800Z 07004KT 15SM OVC019 19/16 A2979 RMK SC8 SLP088

CYQB;2010-09-03 09:00;CYQB 030900Z 09009KT 10SM -SHRA OVC016 19/15 A2979 RMK SC8 SLP089

CYQB;2010-09-03 09:23;CYQB 030923Z 09009KT 15SM OVC016 18/ RMK SC8

CYQB;2010-09-03 10:00;CYQB 031000Z 08006KT 10SM OVC016 18/16 A2980 RMK SC8 SLP091

CYQB;2010-09-03 11:00;CYQB 031100Z 08005KT 12SM OVC015 19/16 A2981 RMK SC8 SLP095

CYQB;2010-09-03 12:00;CYQB 031200Z 07007KT 12SM OVC017 18/16 A2981 RMK SC8 SLP094

CYQB;2010-09-03 13:00;CYQB 031300Z 08008KT 15SM OVC015 19/15 A2980 RMK SC8 SLP091

CYQB;2010-09-03 14:00;CYQB 031400Z 08009KT 15SM OVC017 19/16 A2978 RMK SC8 SLP085

CYQB;2010-09-03 15:00;CYQB 031500Z 06010KT 15SM OVC015 19/16 A2976 RMK SC8 SLP079

CYQB;2010-09-03 16:00;CYQB 031600Z 08007KT 15SM BKN014 20/16 A2975 RMK SC7 SLP074

CYQB;2010-09-03 17:00;CYQB 031700Z 08008KT 15SM SCT014 SCT200 22/17 A2971 RMK SC3CI1 SLP061

CYQB;2010-09-03 18:00;CYQB 031800Z 06013KT 15SM FEW015 FEW140 FEW200 22/17 A2968 RMK SC1AC1CI1 SLP050

CYQB;2010-09-03 19:00;CYQB 031900Z 08011G16KT 15SM SCT200 22/17 A2967 RMK CI2 SLP046

CYQB;2010-09-03 20:00;CYQB 032000Z 08009KT 20SM BKN200 22/17 A2965 RMK CI6 SLP039

CYQB;2010-09-03 21:00;CYQB 032100Z 09008KT 20SM BKN220 21/17 A2961 RMK CI5 SLP027

CYQB;2010-09-03 22:00;CYQB 032200Z 08009KT 20SM BKN200 21/17 A2960 RMK CI6 SLP024

CYQB;2010-09-03 23:00;CYQB 032300Z 09008KT 20SM FEW050 BKN180 20/17 A2959 RMK CU1AC4 SLP020

CYQB;2010-09-04 00:00;CYQB 040000Z 09008KT 15SM BKN200 20/17 A2959 RMK AC5 SLP022

CYQB;2010-09-04 01:00;CYQB 040100Z 07010KT 15SM BKN200 19/16 A2959 RMK CI6 SLP019

CYQB;2010-09-04 02:00;CYQB 040200Z 06009KT 15SM FEW030 SCT200 BKN240 18/16 A2957 RMK SC1CI2CI2 SLP014

CYQB;2010-09-04 03:00;CYQB 040300Z 07009G18KT 15SM FEW012 SCT200 BKN240 18/16 A2955 RMK SC1CI3CI3 SLP006

CYQB;2010-09-04 04:00;CYQB 040400Z 06011KT 15SM FEW012 SCT140 BKN220 18/16 A2952 RMK SC1AC2CI4 SLP997

CYQB;2010-09-04 04:45;CYQB 040445Z 07008KT 15SM -SHRA FEW012 BKN120 OVC220 18/ RMK SC1AC4CI3

CYQB;2010-09-04 05:00;CYQB 040500Z 07006G15KT 15SM FEW012 BKN120 OVC220 18/16 A2950 RMK SC1AC5CI2 OCNL -SHRA SLP989

CYQB;2010-09-04 06:00;CYQB 040600Z 07007KT 15SM FEW007 OVC120 17/16 A2949 RMK SF2AC6 SLP986

CYQB;2010-09-04 07:00;CYQB 040700Z 05004KT 10SM BKN005 OVC100 17/16 A2947 RMK SF5AC3 SLP978

CYQB;2010-09-04 08:00;CYQB 040800Z 06005KT 10SM -SHRA BKN006 OVC030 17/16 A2945 RMK SF6SC2 SLP974

CYQB;2010-09-04 09:00;CYQB 040900Z 06004KT 5SM -SHRA BR OVC004 17/16 A2944 RMK SF8 SLP969

CYQB;2010-09-04 10:00;CYQB 041000Z 06005KT 5SM BR OVC004 17/16 A2942 RMK SF8 SLP962

CYQB;2010-09-04 11:00;CYQB 041100Z 09003KT 5SM BR OVC004 17/16 A2942 RMK SF8 SLP961

CYQB;2010-09-04 11:18;CYQB 041118Z 03005KT 5SM -DZ BR OVC004 17/ RMK SF8

CYQB;2010-09-04 11:48;CYQB 041148Z 06003KT 1 1/4SM -DZ BR OVC004 17/ RMK FG2SF6

CYQB;2010-09-04 12:00;CYQB 041200Z 05004KT 1 3/4SM -DZ BR OVC004 17/16 A2941 RMK FG2SF6 SLP960

CYQB;2010-09-04 13:00;CYQB 041300Z 06005KT 4SM BR BKN004 OVC059 17/17 A2938 RMK SF6SC2 SLP950

CYQB;2010-09-04 14:00;CYQB 041400Z 00000KT 8SM BKN004 OVC070 17/16 A2937 RMK SF5AC3 SLP946

CYQB;2010-09-04 15:00;CYQB 041500Z 29002KT 10SM BKN007 BKN011 OVC070 18/17 A2937 RMK SF6SC1AC1 SLP945

CYQB;2010-09-04 16:00;CYQB 041600Z 26003KT 8SM BKN007 BKN070 19/17 A2936 RMK SF5AC2 SLP942

CYQB;2010-09-04 16:29;CYQB 041629Z 23006KT 12SM SCT008 BKN020 BKN070 20/ RMK SF3SC2AC1

CYQB;2010-09-04 17:00;CYQB 041700Z 23007KT 15SM FEW008 BKN020 BKN070 22/18 A2934 RMK SF1SC5AC1 SLP935

CYQB;2010-09-04 17:22;CYQB 041722Z 26017G22KT 1SM R06/P6000FT/D -SHRA BR SCT008 OVC022 21/ RMK SF4SC4

CYQB;2010-09-04 17:31;CYQB 041731Z 25011G21KT 10SM -SHRA FEW008 SCT022 BKN042 19/ RMK SF2SC2SC3 VIS E 3 BR CU EMBD

CYQB;2010-09-04 18:00;CYQB 041800Z 23011KT 20SM FEW022 SCT090 21/18 A2934 RMK SC2AC2 SLP937

CYQB;2010-09-04 19:00;CYQB 041900Z 24017G26KT 20SM FEW030 SCT090 23/13 A2932 RMK SC2AC1 TCU N SLP929

CYQB;2010-09-04 20:00;CYQB 042000Z 24020G30KT 20SM FEW030 SCT090 23/12 A2934 RMK SC2AC2 SLP934

CYQB;2010-09-04 21:00;CYQB 042100Z 23019G27KT 20SM SCT040 BKN060 OVC090 20/12 A2935 RMK SC3SC2AC2 SLP938

CYQB;2010-09-04 22:00;CYQB 042200Z 23023G31KT 20SM FEW040 BKN080 20/11 A2936 RMK SC2AC3 TCU NW SLP944

CYQB;2010-09-04 23:00;CYQB 042300Z 25020G28KT 15SM -SHRA FEW040 BKN062 18/11 A2939 RMK SC2SC5 SLP953

CYQB;2010-09-04 23:51;CYQB 042351Z 24021G31KT 15SM OVC088 18/ RMK AC8

CYQB;2010-09-05 00:00;CYQB 050000Z 24019G26KT 15SM OVC088 18/09 A2940 RMK AC8 SLP956

CYQB;2010-09-05 01:00;CYQB 050100Z 25013KT 15SM BKN084 17/10 A2942 RMK AC5 SLP964

CYQB;2010-09-05 02:00;CYQB 050200Z 23016G22KT 15SM FEW020 BKN044 BKN080 16/10 A2944 RMK SC2SC4AC1 SLP970

CYQB;2010-09-05 03:00;CYQB 050300Z 22017G25KT 15SM SCT022 BKN035 BKN080 16/10 A2945 RMK SC4SC2AC1 SLP973

CYQB;2010-09-05 04:00;CYQB 050400Z 23018KT 15SM SCT020 OVC055 16/10 A2946 RMK SC4SC4 SLP977

CYQB;2010-09-05 05:00;CYQB 050500Z 23022G27KT 15SM -SHRA BKN020 OVC040 15/11 A2947 RMK SC6SC2 SLP981

CYQB;2010-09-05 06:00;CYQB 050600Z 23012G22KT 8SM -SHRA OVC018 14/12 A2947 RMK SC8 SLP980

CYQB;2010-09-05 07:00;CYQB 050700Z 23016KT 5SM -SHRA BR SCT010 BKN014 OVC024 13/12 A2947 RMK SC4SC3SC1 SLP979

CYQB;2010-09-05 08:00;CYQB 050800Z 23018G25KT 5SM -SHRA BR SCT010 BKN016 OVC020 13/12 A2948 RMK SC4SC3SC1 SLP982

CYQB;2010-09-05 09:00;CYQB 050900Z 23020G29KT 10SM -SHRA OVC015 13/11 A2950 RMK SC8 SLP989

CYQB;2010-09-05 10:00;CYQB 051000Z 23018KT 10SM -SHRA OVC023 13/10 A2951 RMK SC8 SLP995

CYQB;2010-09-05 11:00;CYQB 051100Z 24019G29KT 10SM -SHRA FEW008 BKN020 OVC060 12/11 A2955 RMK SF2SC4SC2 CIG RAG SLP006

CYQB;2010-09-05 12:00;CYQB 051200Z 22018G26KT 10SM -SHRA BKN014 OVC035 12/11 A2958 RMK SC6SC2 SLP017

CYQB;2010-09-05 13:00;CYQB 051300Z 23016G28KT 25SM FEW015 BKN033 13/11 A2960 RMK SC2SC5 SLP023

CYQB;2010-09-05 14:00;CYQB 051400Z 25022G28KT 25SM SCT038 BKN062 14/09 A2962 RMK SC4SC3 SLP032

CYQB;2010-09-05 15:00;CYQB 051500Z 25023G29KT 25SM BKN046 13/10 A2966 RMK SC7 SLP045

CYQB;2010-09-05 16:00;CYQB 051600Z 25019G25KT 25SM FEW020 BKN057 15/09 A2967 RMK SC2SC5 SLP050

CYQB;2010-09-05 16:14;CYQB 051614Z 25022G28KT 25SM -SHRA BKN032 BKN057 14/ RMK SC6SC2 CU ASOCTD

CYQB;2010-09-05 17:00;CYQB 051700Z 24015G24KT 25SM -SHRA FEW045 BKN055 14/08 A2969 RMK SC2SC5 CU ASOCTD SLP056

CYQB;2010-09-05 18:00;CYQB 051800Z 23019G28KT 25SM SCT039 BKN063 16/08 A2970 RMK SC3SC4 CU ASOCTD SLP058

CYQB;2010-09-05 19:00;CYQB 051900Z 24022G27KT 25SM OVC056 15/08 A2972 RMK SC8 SLP064

CYQB;2010-09-05 20:00;CYQB 052000Z 24018G26KT 25SM FEW045 BKN070 15/07 A2972 RMK SC2AC6 SLP066

CYQB;2010-09-05 21:00;CYQB 052100Z 25019G27KT 15SM -SHRA BKN068 BKN130 16/07 A2975 RMK AC6AC2 SLP074

CYQB;2010-09-05 22:00;CYQB 052200Z 26011G17KT 25SM BKN070 15/08 A2977 RMK AC6 SLP082

CYQB;2010-09-05 23:00;CYQB 052300Z 24011G16KT 25SM BKN070 15/07 A2979 RMK AC6 SLP089

CYQB;2010-09-06 00:00;CYQB 060000Z 27006KT 15SM BKN070 14/08 A2982 RMK AC6 SLP100

CYQB;2010-09-06 01:00;CYQB 060100Z 25006KT 15SM BKN070 13/08 A2986 RMK AC7 SLP111

CYQB;2010-09-06 02:00;CYQB 060200Z 26007KT 15SM BKN074 12/08 A2987 RMK AC6 SLP116

CYQB;2010-09-06 03:00;CYQB 060300Z 24005KT 15SM FEW045 BKN070 13/09 A2989 RMK SC2AC6 SLP121

CYQB;2010-09-06 04:00;CYQB 060400Z 25007KT 15SM FEW045 SCT073 12/09 A2991 RMK SC1AC2 SLP129

CYQB;2010-09-06 05:00;CYQB 060500Z 25005KT 15SM OVC060 12/09 A2992 RMK SC8 SLP133

CYQB;2010-09-06 06:00;CYQB 060600Z 23009KT 15SM OVC060 12/10 A2993 RMK SC8 SLP136

CYQB;2010-09-06 07:00;CYQB 060700Z 26009KT 15SM FEW015 SCT075 11/10 A2994 RMK SC1AC2 SLP141

CYQB;2010-09-06 08:00;CYQB 060800Z 25006KT 15SM FEW015 FEW060 10/10 A2997 RMK SC1SC2 SLP149

CYQB;2010-09-06 09:00;CYQB 060900Z 28007KT 15SM FEW012 FEW060 FEW100 08/07 A2999 RMK SC1SC1AC1 SLP156

CYQB;2010-09-06 10:00;CYQB 061000Z 27006KT 20SM SCT004 SCT100 SCT250 09/09 A3001 RMK SF2AC2CI1 SLP163

CYQB;2010-09-06 10:11;CYQB 061011Z 27006KT 15SM BKN006 BKN100 BKN250 10/ RMK SF5AC2CI1

CYQB;2010-09-06 10:35;CYQB 061035Z 28006KT 15SM FEW006 FEW100 FEW250 09/ RMK SF1AC1CI1

CYQB;2010-09-06 11:00;CYQB 061100Z 27008KT 10SM VCFG BKN002 BKN100 BKN250 10/10 A3003 RMK SF2AC1CI1 VIS NW 13/4 FG SLP171

CYQB;2010-09-06 11:25;CYQB 061125Z 26008KT 10SM VCFG FEW002 FEW100 FEW250 11/ RMK SF1AC1CI1 VIS NW 2 FG

CYQB;2010-09-06 12:00;CYQB 061200Z 24008KT 10SM BKN015 BKN100 12/11 A3004 RMK SC5AC1 CIG TPG HILL N SLP175

CYQB;2010-09-06 13:00;CYQB 061300Z 23009KT 15SM BKN012 13/11 A3006 RMK SC7 CIG RAG SLP180

CYQB;2010-09-06 14:00;CYQB 061400Z 25009G15KT 20SM BKN015 14/11 A3006 RMK CU6 CIG RAG SLP181

CYQB;2010-09-06 15:00;CYQB 061500Z 23014G20KT 20SM SCT020 16/11 A3005 RMK CU4 SLP176

CYQB;2010-09-06 16:00;CYQB 061600Z 24016G24KT 20SM FEW030 18/08 A3003 RMK CU2 SLP171

CYQB;2010-09-06 17:00;CYQB 061700Z 27024G32KT 20SM SCT050 20/09 A3002 RMK CU4 SLP167

CYQB;2010-09-06 18:00;CYQB 061800Z 24022G31KT 30SM SCT040 21/09 A3000 RMK CU3 SLP161

CYQB;2010-09-06 19:00;CYQB 061900Z 23019G24KT 30SM SCT040 BKN083 21/10 A3000 RMK CU4AC2 SLP158

CYQB;2010-09-06 20:00;CYQB 062000Z 24020G26KT 30SM SCT050 BKN090 21/09 A2998 RMK CU3AC2 SLP153

CYQB;2010-09-06 21:00;CYQB 062100Z 23015G25KT 30SM FEW050 SCT090 BKN150 20/10 A2998 RMK CU2AC2AC2 SLP155

CYQB;2010-09-06 22:00;CYQB 062200Z 25010KT 15SM BKN055 19/11 A3000 RMK CU7 SLP159

CYQB;2010-09-06 22:12;CYQB 062212Z 23017KT 8SM -SHRA OVC050 19/ RMK CU8

CYQB;2010-09-06 23:00;CYQB 062300Z 24016G22KT 5SM -SHRA OVC065 15/13 A3002 RMK SC8 SLP167

CYQB;2010-09-07 00:00;CYQB 070000Z 22011KT 5SM -SHRA BR FEW008 OVC067 15/14 A3003 RMK SF1SC7 SLP170

CYQB;2010-09-07 01:00;CYQB 070100Z 23011KT 5SM -SHRA BR FEW008 OVC066 15/14 A3004 RMK SF1SC7 SLP173

CYQB;2010-09-07 02:00;CYQB 070200Z 18005KT 5SM -SHRA BR FEW008 OVC034 13/12 A3003 RMK SF2SC6 SLP171

CYQB;2010-09-07 02:22;CYQB 070222Z 24002KT 5SM -SHRA BR FEW008 BKN014 OVC030 13/ RMK SF2SC4SC2

CYQB;2010-09-07 02:30;CYQB 070230Z 27002KT 2 1/2SM -SHRA BR FEW008 BKN016 OVC030 13/ RMK SF2SC5SC2

CYQB;2010-09-07 03:00;CYQB 070300Z 00000KT 4SM -SHRA BR FEW008 OVC024 13/13 A3003 RMK SF2SC6 SLP171

CYQB;2010-09-07 03:46;CYQB 070346Z 14002KT 1SM R06/P6000FT/D -SHRA BR SCT008 OVC016 13/ RMK FG2SF2SC4

CYQB;2010-09-07 04:00;CYQB 070400Z 00000KT 1SM R06/P6000FT/U -SHRA BR OVC012 13/13 A3002 RMK FG2SC6 SLP167

CYQB;2010-09-07 04:18;CYQB 070418Z 34002KT 1SM R06/P6000FT/D -SHRA BR OVC004 13/ RMK FG2SF6

CYQB;2010-09-07 05:00;CYQB 070500Z 04002KT 1SM R06/P6000FT/N -SHRA BR OVC005 14/14 A3001 RMK FG2SF6 SLP164

CYQB;2010-09-07 05:30;CYQB 070530Z 00000KT 3SM -SHRA BR SCT003 OVC019 14/ RMK SF3SC5 VIS E-SE 1

CYQB;2010-09-07 05:43;CYQB 070543Z 00000KT 3SM BR FEW003 OVC023 14/ RMK SF2SC6

CYQB;2010-09-07 06:00;CYQB 070600Z 00000KT 5SM BR FEW003 FEW015 OVC027 14/14 A3000 RMK SF2SC1SC6 VIS NE-E LWR SLP159

CYQB;2010-09-07 07:00;CYQB 070700Z 25005KT 8SM VCFG FEW015 OVC027 15/14 A2999 RMK SC2SC6 VIS NE 4 SLP157

CYQB;2010-09-07 07:48;CYQB 070748Z 24006KT 5SM -SHRA BR OVC017 15/ RMK SC8

CYQB;2010-09-07 08:00;CYQB 070800Z 23007KT 8SM VCFG OVC017 15/14 A2998 RMK SC8 VIS E-SE 5 SLP153

CYQB;2010-09-07 09:00;CYQB 070900Z 23006KT 6SM BR OVC019 15/14 A2998 RMK SC8 SLP153

CYQB;2010-09-07 09:31;CYQB 070931Z 26006KT 10SM OVC012 15/ RMK SC8

CYQB;2010-09-07 10:00;CYQB 071000Z 24006KT 6SM BR OVC011 15/15 A2999 RMK SC8 SLP157

CYQB;2010-09-07 10:26;CYQB 071026Z 35005KT 6SM BR OVC009 15/ RMK SF8

CYQB;2010-09-07 11:00;CYQB 071100Z 26007KT 5SM BR OVC007 16/15 A3001 RMK SF8 SLP162

CYQB;2010-09-07 12:00;CYQB 071200Z 27005KT 5SM -RA BR OVC006 16/15 A3001 RMK SF8 SLP162

CYQB;2010-09-07 12:39;CYQB 071239Z 26005KT 4SM -RA BR OVC005 RMK SF8

CYQB;2010-09-07 13:00;CYQB 071300Z 26007KT 3SM -RA BR OVC005 16/16 A3001 RMK SF8 VIS S 5 SLP162

CYQB;2010-09-07 13:37;CYQB 071337Z 27004KT 2SM -RA BR OVC004 16/ RMK FG1SF7 VIS S 5

CYQB;2010-09-07 14:00;CYQB 071400Z 25005KT 4SM -RA BR OVC006 16/16 A3000 RMK SF8 SLP161

CYQB;2010-09-07 14:42;CYQB 071442Z 22006KT 2SM -RA BR BKN006 OVC012 16/ RMK FG1SF6SC2

CYQB;2010-09-07 14:48;CYQB 071448Z 23005KT 1 1/2SM -RA BR SCT004 BKN006 OVC012 16/ RMK FG1SF2SF4SC1

CYQB;2010-09-07 15:00;CYQB 071500Z 23007KT 4SM -RA BR FEW004 SCT007 BKN012 OVC016 16/16 A3000 RMK SF2SF2SC3SC2 SLP160

CYQB;2010-09-07 16:00;CYQB 071600Z 24006KT 6SM BR FEW007 SCT012 BKN016 OVC040 17/16 A2998 RMK SF2SC2SC3SC1 SLP155

CYQB;2010-09-07 17:00;CYQB 071700Z 23005KT 6SM -RA BR FEW007 FEW012 OVC018 18/16 A2998 RMK SF1SC2SC6 SLP153

CYQB;2010-09-07 18:00;CYQB 071800Z 23008KT 8SM -RA FEW008 BKN018 OVC045 18/16 A2997 RMK SF1SC6SC1 SLP151

CYQB;2010-09-07 19:00;CYQB 071900Z 26005KT 8SM -RA SCT008 BKN016 OVC025 18/16 A2997 RMK SF3SC4SC1 SLP149

CYQB;2010-09-07 19:36;CYQB 071936Z 25004KT 5SM -RA BKN009 OVC017 18/ RMK SF6SC2

CYQB;2010-09-07 20:00;CYQB 072000Z 22004KT 6SM -RA SCT008 BKN016 OVC045 18/17 A2997 RMK SF3SC3SC2 SLP148

CYQB;2010-09-07 21:00;CYQB 072100Z 17003KT 8SM FEW008 BKN020 OVC045 18/17 A2994 RMK SF2SC4SC2 SLP141

CYQB;2010-09-07 21:44;CYQB 072144Z 07007KT 3SM BR BKN004 BKN010 OVC020 17/ RMK SF5SF2SC1

CYQB;2010-09-07 22:00;CYQB 072200Z 07007KT 3SM BR BKN006 BKN011 OVC020 16/16 A2993 RMK SF5SF2SC1 SLP135

CYQB;2010-09-07 23:00;CYQB 072300Z 07006KT 6SM -SHRA BR BKN006 OVC021 15/15 A2993 RMK SF6SC2 SLP136

CYQB;2010-09-07 23:20;CYQB 072320Z 07012KT 6SM -SHRA BR SCT006 BKN020 OVC150 15/ RMK SF4SC2ACC2

CYQB;2010-09-08 00:00;CYQB 080000Z 08008KT 8SM FEW007 BKN020 OVC100 14/14 A2990 RMK SF2SC2AC3 SLP127

CYQB;2010-09-08 01:00;CYQB 080100Z 05010KT 10SM FEW006 SCT010 OVC080 14/13 A2991 RMK SF1SF2AC5 SLP129

CYQB;2010-09-08 01:36;CYQB 080136Z 06011KT 8SM -SHRA FEW006 SCT010 OVC070 14/ RMK SF1SF3AC4

CYQB;2010-09-08 02:00;CYQB 080200Z 06009KT 5SM -SHRA BR FEW010 OVC073 14/13 A2990 RMK SF2AC6 SLP127

CYQB;2010-09-08 02:46;CYQB 080246Z 07009KT 3SM -SHRA BR SCT005 OVC052 14/ RMK SF3SC5

CYQB;2010-09-08 03:00;CYQB 080300Z 05007KT 2 1/2SM -SHRA BR BKN004 OVC052 14/14 A2991 RMK SF5SC3 SLP128

CYQB;2010-09-08 04:00;CYQB 080400Z 08012KT 3SM -SHRA BR OVC004 14/14 A2986 RERA RMK SF8 SLP113

CYQB;2010-09-08 05:00;CYQB 080500Z 08007G17KT 6SM -SHRA BR OVC003 14/14 A2983 RMK SF8 SLP104

CYQB;2010-09-08 06:00;CYQB 080600Z 07009KT 5SM -SHRA BR BKN004 OVC010 14/14 A2980 RMK SF6SC2 SLP093

CYQB;2010-09-08 07:00;CYQB 080700Z 07010G15KT 6SM BR BKN003 BKN010 OVC030 14/14 A2976 RMK SF6SC1SC2 SLP079

CYQB;2010-09-08 07:11;CYQB 080711Z 06010KT 5SM -SHRA BR OVC003 14/ RMK SF8

CYQB;2010-09-08 08:00;CYQB 080800Z 07014KT 5SM -SHRA BR OVC003 14/14 A2971 RMK SF8 SLP063

CYQB;2010-09-08 08:43;CYQB 080843Z CCB 07013G20KT 5SM TSRA BR BKN003 OVC052 15/ RMK SF6SC2 CB EMBD

CYQB;2010-09-08 09:00;CYQB 080900Z 07016KT 5SM -TSRA BR BKN003 BKN019 OVC047 15/15 A2967 RERA RMK SF5SC1SC2 CB EMBD SLP048

CYQB;2010-09-08 09:14;CYQB 080914Z 14006G19KT 5SM -RA BR BKN003 BKN019 OVC045 15/ RETS RMK SF5SC1SC2

CYQB;2010-09-08 10:00;CYQB 081000Z 08008KT 6SM BR BKN003 OVC018 15/15 A2965 RMK SF6SC2 SLP041

CYQB;2010-09-08 10:34;CYQB 081034Z 08015KT 6SM -SHRA BR BKN003 OVC026TCU 15/ RMK SF6TCU2 WND ESTD

CYQB;2010-09-08 11:00;CYQB 081100Z 07012KT 6SM BR BKN003 OVC017 15/14 A2963 RMK SF6SC2 WND ESTD SLP033

CYQB;2010-09-08 12:00;CYQB 081200Z 08012KT 7SM SCT004 OVC017 15/14 A2962 RMK SF4SC4 WND ESTD SLP031

CYQB;2010-09-08 12:42;CYQB 081242Z CCA 09008KT 5SM -SHRA BR BKN003 OVC015 15/ RMK SF5SC3

CYQB;2010-09-08 12:54;CYQB 081254Z 08007KT 7SM SCT003 OVC014 15/ RMK SF3SC5

CYQB;2010-09-08 13:00;CYQB 081300Z 07007KT 7SM SCT003 OVC015 15/14 A2961 RMK SF3SC5 SLP028

CYQB;2010-09-08 13:11;CYQB 081311Z 06006KT 5SM BR BKN003 OVC014 15/ RMK SF6SC2

CYQB;2010-09-08 13:44;CYQB 081344Z 09007KT 4SM -SHRA BR BKN003 BKN008 OVC018 15/ RMK SF5SF2SC2

CYQB;2010-09-08 14:00;CYQB 081400Z 08009KT 5SM -SHRA BR BKN004 BKN009 BKN020 OVC032 15/14 A2960 RMK SF5SF1SC2SC1 SLP025

CYQB;2010-09-08 14:21;CYQB 081421Z 08004KT 7SM BKN003 OVC020 15/ RMK SF6SC2

CYQB;2010-09-08 15:00;CYQB 081500Z 07010KT 7SM OVC003 15/14 A2959 RMK SF8 SLP022

CYQB;2010-09-08 15:17;CYQB 081517Z 07007KT 6SM -SHRA BR OVC003 15/ RMK SF8

CYQB;2010-09-08 15:51;CYQB 081551Z 07008KT 4SM -SHRA BR OVC002 15/ RMK ST8

CYQB;2010-09-08 16:00;CYQB 081600Z 07006KT 4SM -SHRA BR OVC002 15/14 A2959 RMK ST8 VIS W 2 SLP020

CYQB;2010-09-08 16:06;CYQB 081606Z 32010G15KT 2SM +SHRA BR OVC003 15/ RMK SF8 TCU EMBDD

CYQB;2010-09-08 16:13;CYQB 081613Z 10002KT 8SM -SHRA FEW003 SCT020TCU OVC026 15/ RERA RMK SF2TCU2SC4 VIS SE 2

CYQB;2010-09-08 16:38;CYQB 081638Z 07004KT 15SM VCSH FEW004 FEW020 BKN068 15/ RERA RMK SF1SC2AC5 VIS E 5

CYQB;2010-09-08 17:00;CYQB 081700Z 06004KT 15SM FEW005 FEW040 SCT070 BKN110 15/14 A2961 RERA RMK SF1SC2AC2AC3 SLP028

CYQB;2010-09-08 18:00;CYQB 081800Z 11004KT 15SM -SHRA FEW006 FEW015 SCT060 OVC100 15/14 A2961 RMK SF1SC2SC2AC4 SLP028

CYQB;2010-09-08 18:32;CYQB 081832Z 14007KT 12SM -SHRA BKN005 BKN012 BKN040 OVC090 16/ RMK SF6SC1SC1AC1 VIS NW-N 5

CYQB;2010-09-08 19:00;CYQB 081900Z 12005KT 12SM -SHRA SCT005 BKN012 BKN035 OVC090 16/15 A2961 RMK SF3SC2SC2AC1 VIS NW-N 4 SLP026

CYQB;2010-09-08 19:48;CYQB 081948Z 09007KT 15SM -SHRA BKN007 OVC020 16/ RMK SF6SC2

CYQB;2010-09-08 20:00;CYQB 082000Z 10008KT 15SM -SHRA BKN007 OVC020 15/14 A2961 RMK SF7SC1 SLP026

CYQB;2010-09-08 21:00;CYQB 082100Z 08006KT 15SM -SHRA BKN007 OVC020 15/14 A2961 RMK SF7SC1 SLP028

CYQB;2010-09-08 21:38;CYQB 082138Z 07011KT 12SM -SHRA BKN005 OVC007 14/ RMK SF7SF1

CYQB;2010-09-08 22:00;CYQB 082200Z 08009G15KT 12SM -SHRA OVC005 14/13 A2962 RMK SF8 SLP031

CYQB;2010-09-08 23:00;CYQB 082300Z 03003KT 10SM -SHRA OVC004 13/13 A2963 RMK SF8 SLP034

CYQB;2010-09-08 23:28;CYQB 082328Z 07009KT 10SM OVC005 13/ RMK SF8

CYQB;2010-09-08 23:47;CYQB 082347Z 07008KT 10SM OVC006 13/ RMK SF8

CYQB;2010-09-09 00:00;CYQB 090000Z 06008KT 10SM OVC005 13/12 A2963 RMK SF8 SLP035

CYQB;2010-09-09 01:00;CYQB 090100Z 07009KT 10SM OVC004 12/12 A2964 RMK SF8 SLP038

CYQB;2010-09-09 02:00;CYQB 090200Z 06006KT 10SM OVC005 12/11 A2964 RMK SF8 CIG VRB 3-5 SLP037

CYQB;2010-09-09 03:00;CYQB 090300Z 07006KT 10SM OVC004 12/12 A2964 RMK ST8 CIG VRB 3-5 SLP037

CYQB;2010-09-09 04:00;CYQB 090400Z 07006KT 10SM OVC004 12/12 A2964 RMK ST8 CIG VRB 3-5 SLP038

CYQB;2010-09-09 05:00;CYQB 090500Z 07006KT 10SM OVC005 12/12 A2964 RMK ST8 SLP037

CYQB;2010-09-09 06:00;CYQB 090600Z 07007KT 10SM OVC007 12/11 A2963 RMK ST8 SLP035

CYQB;2010-09-09 07:00;CYQB 090700Z 09006KT 10SM OVC006 12/11 A2963 RMK ST8 SLP035

CYQB;2010-09-09 08:00;CYQB 090800Z 09008KT 10SM OVC006 11/11 A2963 RMK ST8 SLP035

CYQB;2010-09-09 09:00;CYQB 090900Z 09006KT 10SM -SHRA OVC006 11/11 A2964 RMK ST8 SLP038

CYQB;2010-09-09 10:00;CYQB 091000Z 09004KT 4SM -SHRA BR OVC004 11/11 A2965 RMK ST8 SLP043

CYQB;2010-09-09 11:00;CYQB 091100Z 09004KT 6SM -SHRA BR FEW005 BKN008 OVC015 11/11 A2966 RMK SF2SF4SC2 SLP044

CYQB;2010-09-09 11:25;CYQB 091125Z 10003KT 15SM FEW004 BKN006 BKN013 OVC035 12/ RMK SF1SF5SC2SC1

CYQB;2010-09-09 11:51;CYQB 091151Z 09003KT 12SM -RA FEW004 BKN007 BKN012 OVC038 12/ RMK SF2SF4SC1SC2

CYQB;2010-09-09 12:00;CYQB 091200Z 09004KT 12SM -RA FEW004 BKN007 BKN014 OVC038 12/11 A2966 RMK SF2SF3SC2SC2 SLP046

CYQB;2010-09-09 13:00;CYQB 091300Z CCA 11005KT 12SM -RA FEW005 BKN008 OVC045 12/11 A2967 RMK SF2SF6SC1 -RA INTMT SLP049

CYQB;2010-09-09 13:22;CYQB 091322Z 10007KT 20SM BKN009 BKN017 OVC043 12/ RMK SF6SC1SC2

CYQB;2010-09-09 14:00;CYQB 091400Z 11003KT 20SM BKN009 BKN018 OVC045 13/11 A2968 RMK SF6SC2SC1 SLP053

CYQB;2010-09-09 14:24;CYQB 091424Z 11002KT 20SM FEW010 BKN015 OVC032 13/ RMK SF2SC2SC3

CYQB;2010-09-09 15:00;CYQB 091500Z 06004KT 20SM FEW010 BKN024 OVC035 13/11 A2969 RMK SF2SC3SC3 SLP055

CYQB;2010-09-09 15:41;CYQB 091541Z 36002KT 20SM FEW008 BKN013 BKN040 OVC055 14/ RMK SF1SC4SC2SC1

CYQB;2010-09-09 16:00;CYQB 091600Z CCA 33002KT 20SM FEW008 BKN014 BKN020 OVC040 14/11 A2969 RMK SF1SC6SC1SC1 SLP056

CYQB;2010-09-09 16:43;CYQB 091643Z 08003KT 15SM -SHRA FEW010 SCT015 BKN020 OVC030 14/ RMK SF1SC3SC2SC2

CYQB;2010-09-09 17:00;CYQB 091700Z 08003KT 15SM -SHRA FEW010 SCT017 OVC027 14/11 A2970 RMK SF1SC2SC5 SLP058

CYQB;2010-09-09 17:24;CYQB 091724Z 08003KT 25SM FEW014 SCT022 OVC038 14/ RMK SC2SC2SC5

CYQB;2010-09-09 18:00;CYQB 091800Z CCA 09003KT 25SM VCSH FEW014 BKN019 OVC041 14/11 A2970 RMK SC2SC3SC2 SHWR NE SLP058

CYQB;2010-09-09 18:28;CYQB 091828Z 08004KT 20SM -SHRA FEW012 BKN018 OVC040 14/ RMK SC2SC4SC2 VIS NE 5

CYQB;2010-09-09 19:00;CYQB 091900Z 09005KT 8SM -SHRA FEW012 SCT018 BKN025 OVC043 13/12 A2970 RMK SC2SC2SC2SC2 VIS S 4 SLP060

CYQB;2010-09-09 19:18;CYQB 091918Z 10002KT 12SM FEW008 SCT021 BKN041 OVC056 13/ RMK SF2SC2SC3SC2 OCNL -SHRA

CYQB;2010-09-09 19:42;CYQB 091942Z 00000KT 15SM VCSH FEW008 FEW020 BKN040 OVC060 14/ RMK SF1SC2SC2SC3

CYQB;2010-09-09 20:00;CYQB 092000Z 00000KT 15SM VCSH FEW009 FEW019 BKN045 OVC068 14/11 A2971 RMK SF1SC2SC4AC2 SLP062

CYQB;2010-09-09 20:32;CYQB 092032Z 12002KT 15SM -SHRA FEW009 FEW020 BKN040 OVC070 14/ RMK SF1SC2SC4AC2

CYQB;2010-09-09 21:00;CYQB 092100Z 08005KT 7SM -SHRA FEW008 SCT013 OVC038 13/12 A2972 RMK SF2SC2SC5 SLP065

CYQB;2010-09-09 21:43;CYQB 092143Z 00000KT 7SM -SHRA FEW005 BKN009 BKN020 OVC065 13/ RMK SF1SF4SC2SC1

CYQB;2010-09-09 22:00;CYQB 092200Z 29003KT 12SM -SHRA FEW005 SCT009 BKN036 OVC054 13/12 A2973 RMK SF1SC2SC4SC1 SLP068

CYQB;2010-09-09 22:49;CYQB 092249Z 10002KT 1 1/2SM -SHRA BR SCT009 BKN014 OVC030 12/ RMK SF4SC3SC1

CYQB;2010-09-09 23:00;CYQB 092300Z 10003KT 4SM -SHRA BR FEW005 SCT009 BKN014 OVC030 12/11 A2975 RMK SF2SC2SC3SC1 VIS LWR S SLP074

CYQB;2010-09-09 23:35;CYQB 092335Z 22002KT 8SM -SHRA FEW006 SCT014 OVC071 12/ RMK SF2SC2AC4

CYQB;2010-09-09 23:36;CYQB 092336Z CCA 22002KT 8SM FEW006 SCT014 OVC071 12/ RMK SF2SC2AC4

CYQB;2010-09-10 00:00;CYQB 100000Z 22002KT 8SM BKN004 OVC042 12/11 A2976 RMK SF5SC3 SLP078

CYQB;2010-09-10 00:44;CYQB 100044Z 19003KT 6SM -DZ BR BKN008 BKN010 OVC060 12/ RMK SF6SC2SC1

CYQB;2010-09-10 01:00;CYQB 100100Z 21004KT 6SM -DZ BR FEW004 BKN008 OVC057 12/11 A2976 RMK SF1SF5SC2 SLP080

CYQB;2010-09-10 01:13;CYQB 100113Z 21002KT 6SM BR FEW004 SCT008 OVC045 11/ RMK SF1SF3SC4

CYQB;2010-09-10 02:00;CYQB 100200Z 23003KT 6SM BR BKN007 OVC040 11/11 A2977 RMK SF7SC1 SLP081

CYQB;2010-09-10 03:00;CYQB 100300Z 18005KT 6SM BR SCT007 OVC040 11/11 A2977 RMK SF4SC4 SLP083

CYQB;2010-09-10 04:00;CYQB 100400Z 18002KT 5SM BR FEW007 BKN014 OVC032 11/11 A2977 RMK SF2SC2SC3 SLP083

CYQB;2010-09-10 05:00;CYQB 100500Z 00000KT 5SM BR FEW006 OVC011 11/11 A2978 RMK SF2SC6 SLP085

CYQB;2010-09-10 06:00;CYQB 100600Z 00000KT 5SM BR FEW004 BKN011 OVC040 11/11 A2978 RMK SF2SC3SC2 SLP086

CYQB;2010-09-10 07:00;CYQB 100700Z 25002KT 5SM BR SCT005 BKN011 OVC035 11/11 A2978 RMK SF3SC2SC3 SLP086

CYQB;2010-09-10 08:00;CYQB 100800Z 27005KT 10SM FEW011 OVC038 11/11 A2978 RMK SC2SC6 SLP087

CYQB;2010-09-10 09:00;CYQB 100900Z 21002KT 10SM OVC036 11/11 A2980 RMK SC8 SLP092

CYQB;2010-09-10 10:00;CYQB 101000Z 25003KT 10SM FEW003 OVC035 11/11 A2981 RMK SF2SC6 SLP096

CYQB;2010-09-10 11:00;CYQB 101100Z 26003KT 12SM FEW003 BKN041 11/11 A2982 RMK SF1SC7 SLP100

CYQB;2010-09-10 12:00;CYQB 101200Z 00000KT 12SM FEW004 BKN046 BKN060 12/11 A2983 RMK SF1SC7SC1 SLP101

CYQB;2010-09-10 13:00;CYQB 101300Z 27003KT 20SM FEW004 BKN056 13/10 A2983 RMK SF1SC7 SLP101

CYQB;2010-09-10 14:00;CYQB 101400Z 33002KT 20SM FEW006 BKN062 14/10 A2983 RMK SF1SC7 SLP101

CYQB;2010-09-10 15:00;CYQB 101500Z 00000KT 20SM FEW008 BKN064 15/09 A2982 RMK SF1SC6 SLP100

CYQB;2010-09-10 16:00;CYQB 101600Z 27004KT 20SM FEW010 BKN047 BKN065 17/11 A2981 RMK SF1SC6SC1 SLP097

CYQB;2010-09-10 17:00;CYQB 101700Z 18008KT 25SM BKN043 17/11 A2981 RMK SC7 SLP097

CYQB;2010-09-10 18:00;CYQB 101800Z 18003KT 25SM FEW020 BKN058 17/12 A2982 RMK CF1SC7 SLP100

CYQB;2010-09-10 19:00;CYQB 101900Z 08006KT 25SM FEW020 BKN057 17/11 A2983 RMK CF1SC7 SLP102

CYQB;2010-09-10 20:00;CYQB 102000Z 07011KT 20SM FEW020 BKN054 15/12 A2985 RMK CF1SC7 SLP110

CYQB;2010-09-10 21:00;CYQB 102100Z 07010KT 20SM FEW020 BKN054 15/11 A2987 RMK CF1SC6 SLP115

CYQB;2010-09-10 22:00;CYQB 102200Z 08004KT 20SM FEW015 BKN057 14/11 A2989 RMK SC1SC6 SLP121

CYQB;2010-09-10 23:00;CYQB 102300Z 07006KT 20SM FEW015 BKN063 14/11 A2991 RMK SC1SC6 SLP128

CYQB;2010-09-11 00:00;CYQB 110000Z 06005KT 20SM BKN012 OVC063 13/11 A2992 RMK SC5SC3 SLP135

CYQB;2010-09-11 01:00;CYQB 110100Z 05003KT 20SM BKN012 OVC063 13/11 A2993 RMK SC6SC2 SLP138

CYQB;2010-09-11 01:37;CYQB 110137Z 33002KT 20SM FEW012 BKN063 OVC120 13/ RMK SC2SC3AC3

CYQB;2010-09-11 02:00;CYQB 110200Z 32002KT 10SM FEW012 SCT063 BKN120 12/11 A2993 RMK SC1SC2AC4 SLP136

CYQB;2010-09-11 03:00;CYQB 110300Z 30002KT 10SM FEW070 SCT120 11/10 A2992 RMK AC2AC2 OBS TAKEN +7 SLP135

CYQB;2010-09-11 04:00;CYQB 110400Z 00000KT 15SM SKC 11/10 A2993 RMK SLP136

CYQB;2010-09-11 05:00;CYQB 110500Z 25003KT 15SM SKC 10/09 A2994 RMK SLP140

CYQB;2010-09-11 06:00;CYQB 110600Z 00000KT 15SM SKC 10/10 A2994 RMK SLP142

CYQB;2010-09-11 07:00;CYQB 110700Z 35006KT 15SM SKC 11/09 A2994 RMK SLP142

CYQB;2010-09-11 08:00;CYQB 110800Z 03004KT 15SM SKC 10/08 A2997 RMK SLP150

CYQB;2010-09-11 09:00;CYQB 110900Z 36002KT 15SM SKC 10/07 A2999 RMK SLP156

CYQB;2010-09-11 10:00;CYQB 111000Z 00000KT 30SM FEW001 FEW010 FEW100 08/08 A3000 RMK CF1CU1AC1 SLP162

CYQB;2010-09-11 11:00;CYQB 111100Z 02004KT 30SM FEW001 FEW010 FEW100 09/07 A3002 RMK CF1CU1AC1 SLP168

CYQB;2010-09-11 12:00;CYQB 111200Z 04003KT 30SM FEW001 FEW010 FEW100 11/08 A3004 RMK CF1CU1AC1 FG OVR RVR SLP173

CYQB;2010-09-11 13:00;CYQB 111300Z 05004KT 30SM FEW001 FEW010 14/08 A3005 RMK CF1CU1 FG OVR RVR SLP178

CYQB;2010-09-11 14:00;CYQB 111400Z 10004KT 30SM FEW001 FEW010 16/09 A3006 RMK CF1CU1 FG OVR RVR SLP182

CYQB;2010-09-11 15:00;CYQB 111500Z 09002KT 30SM FEW016 16/10 A3008 RMK CU1 SLP188

CYQB;2010-09-11 16:00;CYQB 111600Z 09008KT 30SM FEW020 17/08 A3008 RMK CU1 SLP187

CYQB;2010-09-11 17:00;CYQB 111700Z 08007KT 30SM FEW020 18/08 A3007 RMK CU1 SLP183

CYQB;2010-09-11 18:00;CYQB 111800Z 06007KT 30SM FEW020 FEW090 19/08 A3006 RMK CU1AC1 SLP180

CYQB;2010-09-11 19:00;CYQB 111900Z 07007KT 30SM FEW030 FEW090 FEW210 19/09 A3005 RMK CU1AC1CI1 SLP177

CYQB;2010-09-11 20:00;CYQB 112000Z 06007KT 30SM FEW035 SCT220 19/08 A3004 RMK CU1CI2 SLP175

CYQB;2010-09-11 21:00;CYQB 112100Z 08009KT 30SM FEW035 FEW120 SCT240 18/08 A3003 RMK CU1AC1CI1 SLP172

CYQB;2010-09-11 22:00;CYQB 112200Z 10009KT 30SM FEW035 FEW100 FEW220 17/07 A3005 RMK CU1AC1CI1 SLP177

CYQB;2010-09-11 23:00;CYQB 112300Z 08005KT 30SM FEW035 FEW100 SCT220 15/08 A3006 RMK CU1AC1CI2 SLP182

CYQB;2010-09-12 00:00;CYQB 120000Z 02003KT 15SM FEW100 SCT220 15/08 A3009 RMK AC1CI1 SLP192

CYQB;2010-09-12 01:00;CYQB 120100Z 06008KT 15SM FEW100 SCT220 14/07 A3009 RMK AC1CI1 SLP192

CYQB;2010-09-12 02:00;CYQB 120200Z 06006KT 15SM FEW220 13/07 A3010 RMK CI2 SLP194

CYQB;2010-09-12 03:00;CYQB 120300Z 06006KT 15SM SKC 12/07 A3010 RMK SLP193

CYQB;2010-09-12 04:00;CYQB 120400Z 05007KT 15SM SKC 11/08 A3010 RMK SLP193

CYQB;2010-09-12 05:00;CYQB 120500Z 06006KT 15SM SKC 11/08 A3011 RMK SLP196

CYQB;2010-09-12 06:00;CYQB 120600Z 06007KT 15SM SKC 10/08 A3012 RMK SLP201

CYQB;2010-09-12 07:00;CYQB 120700Z 06007KT 15SM SKC 10/08 A3012 RMK SLP200

CYQB;2010-09-12 08:00;CYQB 120800Z 07007KT 15SM SKC 10/07 A3010 RMK SLP195

CYQB;2010-09-12 09:00;CYQB 120900Z 05010KT 15SM SKC 10/07 A3010 RMK SLP194

CYQB;2010-09-12 10:00;CYQB 121000Z 05009KT 15SM FEW020 FEW240 10/07 A3010 RMK SC1CI0 SLP193

CYQB;2010-09-12 11:00;CYQB 121100Z 05008KT 25SM FEW030 BKN240 10/07 A3010 RMK SC1CI4 SLP194

CYQB;2010-09-12 12:00;CYQB 121200Z 06008KT 25SM FEW030 BKN240 11/07 A3010 RMK SC1CI3 SLP194

CYQB;2010-09-12 13:00;CYQB 121300Z 07011G18KT 25SM FEW040 BKN240 13/09 A3010 RMK SC2CI4 SLP194

CYQB;2010-09-12 14:00;CYQB 121400Z 07013KT 25SM FEW040 BKN240 13/09 A3010 RMK SC1CI6 SLP194

CYQB;2010-09-12 15:00;CYQB 121500Z 07011KT 25SM FEW040 BKN240 14/09 A3009 RMK SC1CI5 SLP191

CYQB;2010-09-12 16:00;CYQB 121600Z 09010KT 25SM FEW040 BKN062 BKN240 15/10 A3009 RMK SC2SC3CI2 SLP191

CYQB;2010-09-12 17:00;CYQB 121700Z 06011KT 25SM SCT041 OVC058 15/11 A3008 RMK SC3SC5 SLP187

CYQB;2010-09-12 18:00;CYQB 121800Z 09011G16KT 25SM FEW040 SCT088 OVC240 17/12 A3006 RMK SC2AC2CI2 SLP180

CYQB;2010-09-12 19:00;CYQB 121900Z 06013KT 25SM BKN049 BKN056 BKN090 OVC240 16/11 A3004 RMK SC5SC1AC1CI0 SLP175

CYQB;2010-09-12 20:00;CYQB 122000Z 07012KT 25SM OVC062 16/12 A3003 RMK SC8 SLP170

CYQB;2010-09-12 21:00;CYQB 122100Z 07013KT 25SM BKN049 OVC060 16/12 A3002 RMK SC6SC2 SLP166

CYQB;2010-09-12 22:00;CYQB 122200Z 08010G15KT 25SM BKN040 BKN049 OVC080 16/12 A3001 RMK SC5SC1AS2 SLP165

CYQB;2010-09-12 23:00;CYQB 122300Z 07012G17KT 20SM BKN037 BKN045 OVC080 16/12 A3001 RMK SC6SC1AS1 SLP164

CYQB;2010-09-13 00:00;CYQB 130000Z 08008KT 15SM BKN039 OVC045 15/12 A3002 RMK SC6SC2 SLP166

CYQB;2010-09-13 01:00;CYQB 130100Z 08006KT 15SM BKN037 OVC045 15/12 A3002 RMK SC6SC2 SLP168

CYQB;2010-09-13 02:00;CYQB 130200Z 11007KT 15SM OVC053 15/11 A3002 RMK SC8 SLP166

CYQB;2010-09-13 03:00;CYQB 130300Z 11005KT 15SM OVC061 14/11 A3001 RMK SC8 SLP163

CYQB;2010-09-13 04:00;CYQB 130400Z 10005KT 15SM OVC088 14/10 A2999 RMK AC8 SLP157

CYQB;2010-09-13 05:00;CYQB 130500Z 09002KT 15SM BKN038 OVC088 14/11 A2998 RMK SC6AC2 SLP153

CYQB;2010-09-13 05:06;CYQB 130506Z 11002KT 15SM -SHRA BKN028 OVC090 14/ RMK SC6AC2

CYQB;2010-09-13 06:00;CYQB 130600Z 18002KT 10SM -SHRA OVC028 13/12 A2997 RMK SC8 SLP150

CYQB;2010-09-13 07:00;CYQB 130700Z 11008KT 8SM -SHRA SCT011 OVC024 12/12 A2995 RMK SF3SC5 SLP144

CYQB;2010-09-13 08:00;CYQB 130800Z 11006KT 8SM -SHRA SCT010 OVC023 12/11 A2993 RMK SF3SC5 SLP137

CYQB;2010-09-13 09:00;CYQB 130900Z 06004KT 5SM -SHRA BR SCT009 OVC016 12/12 A2992 RMK SF3SC5 SLP134

CYQB;2010-09-13 10:00;CYQB 131000Z 08005KT 1SM R06/P6000FT/N -SHRA BR OVC012 12/12 A2992 RMK SF8 SLP131

CYQB;2010-09-13 11:00;CYQB 131100Z 07005KT 1 1/2SM -SHRA BR OVC006 12/12 A2991 RMK SF8 SLP130

CYQB;2010-09-13 12:00;CYQB 131200Z 08006KT 2SM -SHRA BR SCT002 BKN006 OVC010 12/12 A2991 RMK SF3SF2SC2 SLP128

CYQB;2010-09-13 13:00;CYQB 131300Z 08004KT 2 1/2SM -SHRA BR FEW002 OVC011 12/12 A2990 RMK SF2SC6 SLP126

CYQB;2010-09-13 14:00;CYQB 131400Z 09006KT 1 1/2SM -SHRA BR FEW002 BKN010 OVC014 12/12 A2989 RMK SF2SF5SC2 SLP122

CYQB;2010-09-13 14:13;CYQB 131413Z 10004KT 1SM R06/P6000FT/U -SHRA BR FEW002 OVC007 12/ RMK SF2SC6

CYQB;2010-09-13 14:39;CYQB 131439Z 07004KT 2SM BR OVC009 12/ RMK SC8

CYQB;2010-09-13 15:00;CYQB 131500Z 06005KT 2SM BR FEW002 OVC009 12/12 A2988 RMK SF2SF6 SLP118

CYQB;2010-09-13 15:38;CYQB 131538Z 04005KT 2SM -SHRA BR SCT003 OVC009 13/ RMK SF3SF5

CYQB;2010-09-13 16:00;CYQB 131600Z 07005KT 3SM -SHRA BR FEW003 SCT010 OVC014 13/12 A2987 RMK SF1SF3SC4 SLP115

CYQB;2010-09-13 17:00;CYQB 131700Z 06005KT 1 1/2SM -SHRA BR FEW005 BKN018 OVC041 13/13 A2985 RMK SF2SC6SC1 SLP108

CYQB;2010-09-13 17:40;CYQB 131740Z 03004KT 2 1/2SM BR FEW003 SCT010 OVC026 14/ RMK SF2SF2SC5

CYQB;2010-09-13 18:00;CYQB 131800Z 06007KT 2 1/2SM -SHRA BR SCT003 SCT015 OVC022 13/13 A2983 RMK SF3SF1SC4 SLP103

CYQB;2010-09-13 19:00;CYQB 131900Z 05006KT 2 1/2SM -SHRA BR SCT003 BKN018 OVC022 14/13 A2982 RMK SF4SC3SC1 SLP099

CYQB;2010-09-13 19:08;CYQB 131908Z 07004KT 2 1/2SM -SHRA BR BKN003 BKN012 OVC016 14/13 RMK SF5SC2SC1

CYQB;2010-09-13 20:00;CYQB 132000Z 09003KT 4SM -SHRA BR SCT003 BKN015 BKN030 OVC070 14/14 A2982 RMK SF3SC2SC1AC2 VIS NE 2 SLP098

CYQB;2010-09-13 21:00;CYQB 132100Z 13006KT 8SM FEW003 BKN060 BKN090 15/14 A2981 RMK SF2SC2AC2 VIS NW-NE 4 SLP094

CYQB;2010-09-13 21:33;CYQB 132133Z 12004KT 12SM BKN010 BKN030 BKN080 15/ RMK SC5SC1AC2

CYQB;2010-09-13 22:00;CYQB 132200Z 12006KT 15SM FEW007 BKN014 BKN030 15/14 A2981 RMK SF2SC4SC1 VIS N 7 SLP095

CYQB;2010-09-13 23:00;CYQB 132300Z 16004KT 15SM -SHRA SCT010 BKN020 OVC030 14/13 A2981 RMK SC4SC3SC1 VIS N 5 SLP094

CYQB;2010-09-14 00:00;CYQB 140000Z 00000KT 15SM FEW010 BKN020 OVC040 14/14 A2981 RMK SC2SC5SC1 SLP096

CYQB;2010-09-14 01:00;CYQB 140100Z 00000KT 15SM FEW010 BKN016 OVC040 14/14 A2982 RMK SC2SC6SC1 SLP098

CYQB;2010-09-14 01:34;CYQB 140134Z 20004KT 15SM FEW009 BKN018 OVC040 14/ RMK SF1SC6SC2

CYQB;2010-09-14 02:00;CYQB 140200Z 21002KT 15SM FEW010 OVC018 14/13 A2982 RMK SF1SC7 SLP098

CYQB;2010-09-14 03:00;CYQB 140300Z 13002KT 15SM FEW008 OVC016 14/13 A2981 RMK SF1SC7 SLP094

CYQB;2010-09-14 04:00;CYQB 140400Z 14002KT 15SM FEW010 BKN025 13/12 A2979 RMK SF1SC4 SLP090

CYQB;2010-09-14 05:00;CYQB 140500Z 11003KT 15SM FEW015 BKN030 12/11 A2978 RMK SC1SC6 SLP087

CYQB;2010-09-14 06:00;CYQB 140600Z 36002KT 15SM FEW012 SCT030 BKN100 13/12 A2977 RMK SF2SC2AC3 SLP083

CYQB;2010-09-14 06:47;CYQB 140647Z 02002KT 10SM -SHRA FEW010 OVC023 13/ RMK SF2SC6

CYQB;2010-09-14 07:00;CYQB 140700Z 09002KT 8SM -SHRA FEW010 OVC019 13/13 A2977 RMK SF2SC6 SLP081

CYQB;2010-09-14 07:24;CYQB 140724Z 08004KT 15SM FEW010 OVC020 13/ RMK SF2SC6

CYQB;2010-09-14 08:00;CYQB 140800Z 11002KT 15SM FEW010 OVC018 13/13 A2976 RMK SF2SC6 SLP079

CYQB;2010-09-14 09:00;CYQB 140900Z 09005KT 15SM OVC015 13/12 A2975 RMK SC8 SLP076

CYQB;2010-09-14 10:00;CYQB 141000Z 13004KT 15SM OVC016 13/12 A2976 RMK SC8 SLP079

CYQB;2010-09-14 11:00;CYQB 141100Z 19004KT 20SM OVC011 13/12 A2977 RMK SC8 SLP082

CYQB;2010-09-14 12:00;CYQB 141200Z 20005KT 20SM BKN018 BKN028 OVC081 13/12 A2977 RMK SC5SC2AC2 SLP083

CYQB;2010-09-14 13:00;CYQB 141300Z 21007KT 20SM OVC014 13/12 A2978 RMK SC8 SLP084

CYQB;2010-09-14 13:30;CYQB 141330Z 22007KT 20SM FEW007 OVC015 14/ RMK SF2SC6

CYQB;2010-09-14 14:00;CYQB 141400Z 25008KT 20SM FEW007 BKN018 OVC063 14/13 A2978 RMK SF2SC3SC2 SLP084

CYQB;2010-09-14 15:00;CYQB 141500Z 24009KT 20SM BKN014 OVC065 15/12 A2978 RMK SC6SC2 SLP084

CYQB;2010-09-14 15:21;CYQB 141521Z 25009KT 20SM -SHRA BKN015 OVC043 14/ RMK SC6SC2

CYQB;2010-09-14 16:00;CYQB 141600Z 25008KT 20SM -SHRA BKN015 OVC068 14/13 A2977 RMK SC5SC3 CU EMBD SLP083

CYQB;2010-09-14 17:00;CYQB 141700Z 25008KT 20SM SCT011 BKN045 BKN080 15/13 A2977 RMK SC4SC2AC2 SLP081

CYQB;2010-09-14 18:00;CYQB 141800Z 24012G18KT 25SM SCT015 BKN020 BKN080 BKN220 17/12 A2975 RMK SC4SC2AC1CI0 SLP076

CYQB;2010-09-14 18:34;CYQB 141834Z 27009KT 20SM -SHRA BKN021 BKN058 BKN220 16/ RMK SC5SC1CI0

CYQB;2010-09-14 19:00;CYQB 141900Z 27009KT 20SM SCT022TCU SCT090 BKN220 17/13 A2975 RMK TCU4AC1CI0 SLP074

CYQB;2010-09-14 20:00;CYQB 142000Z 28011KT 20SM BKN026 BKN090 BKN220 16/10 A2975 RMK SC5AC1CI0 SLP076

CYQB;2010-09-14 21:00;CYQB 142100Z 25008KT 20SM SCT030 BKN060 BKN090 BKN220 16/11 A2977 RMK SC3SC2AC1CI0 SLP081

CYQB;2010-09-14 21:39;CYQB 142139Z 27014KT 20SM -SHRA SCT030 BKN060 BKN090 BKN220 15/ RMK SC3SC2AC1CI1

CYQB;2010-09-14 22:00;CYQB 142200Z 27008KT 20SM -SHRA SCT030 BKN060 BKN090 BKN220 15/12 A2977 RMK SC3SC2AC2CI0 SLP083

CYQB;2010-09-14 22:19;CYQB 142219Z 27008KT 20SM FEW030 SCT090 SCT220 15/ RMK SC2AC2CI0

CYQB;2010-09-14 23:00;CYQB 142300Z 24008KT 20SM FEW030 SCT090 SCT220 13/10 A2978 RMK SC1AC2CI0 SLP086

CYQB;2010-09-15 00:00;CYQB 150000Z 25007KT 20SM FEW030 SCT080 12/10 A2980 RMK SC1AC2 SLP093

CYQB;2010-09-15 01:00;CYQB 150100Z 26005KT 15SM FEW030 SCT080 11/10 A2981 RMK SC1AC2 SLP097

CYQB;2010-09-15 02:00;CYQB 150200Z 24004KT 15SM BKN081 11/10 A2982 RMK AC5 SLP098

CYQB;2010-09-15 03:00;CYQB 150300Z 25008KT 15SM OVC065 12/11 A2982 RMK SC8 SLP100

CYQB;2010-09-15 04:00;CYQB 150400Z 27006KT 15SM SCT100 11/10 A2982 RMK AC3 SLP099

CYQB;2010-09-15 05:00;CYQB 150500Z 26008KT 15SM FEW050 BKN110 11/10 A2982 RMK SC2AC5 SLP100

CYQB;2010-09-15 06:00;CYQB 150600Z 26009KT 15SM BKN060 BKN110 11/10 A2982 RMK SC5AC2 SLP099

CYQB;2010-09-15 06:33;CYQB 150633Z 26009KT 15SM -SHRA BKN043 OVC060 11/ RMK SC6SC2

CYQB;2010-09-15 07:00;CYQB 150700Z 26006KT 15SM -SHRA BKN042 OVC070 11/10 A2983 RMK SC6AC2 SLP101

CYQB;2010-09-15 08:00;CYQB 150800Z 27005KT 15SM BKN054 BKN070 11/09 A2983 RMK SC5AC2 SLP103

CYQB;2010-09-15 09:00;CYQB 150900Z 26003KT 15SM BKN070 10/09 A2985 RMK AC6 SLP109

CYQB;2010-09-15 10:00;CYQB 151000Z 28009KT 15SM BKN070 11/08 A2986 RMK AC7 SLP114

CYQB;2010-09-15 11:00;CYQB 151100Z 26004KT 25SM BKN067 11/08 A2989 RMK SC7 SLP123

CYQB;2010-09-15 12:00;CYQB 151200Z 25007KT 25SM BKN075 10/08 A2991 RMK AC6 SLP131

CYQB;2010-09-15 13:00;CYQB 151300Z 24008KT 25SM FEW020 BKN076 12/09 A2992 RMK SC1AC5 SLP134

CYQB;2010-09-15 14:00;CYQB 151400Z 29008KT 25SM FEW023 SCT075 13/06 A2992 RMK SC1AC2 SLP135

CYQB;2010-09-15 15:00;CYQB 151500Z 25011KT 25SM FEW025 SCT075 14/08 A2992 RMK SC2AC1 SLP134

CYQB;2010-09-15 16:00;CYQB 151600Z 27011G18KT 25SM FEW035 SCT075 BKN190 14/06 A2992 RMK SC2AC1AC2 SLP135

CYQB;2010-09-15 17:00;CYQB 151700Z 27014KT 30SM FEW035 SCT100 BKN170 14/07 A2993 RMK SC2AC2AC2 SLP137

CYQB;2010-09-15 18:00;CYQB 151800Z 27012KT 30SM BKN042 BKN100 BKN180 14/07 A2994 RMK SC5AC1AC2 SLP139

CYQB;2010-09-15 19:00;CYQB 151900Z 27011G17KT 30SM FEW039 BKN057 BKN085 BKN200 14/07 A2994 RMK SC2SC2AC1CI1 SLP141

CYQB;2010-09-15 20:00;CYQB 152000Z 28011G17KT 30SM FEW040 SCT060 BKN090 BKN210 14/07 A2994 RMK SC2SC2AC1CI1 FEW SHWRS ALQDS CU ASOCTD SLP141

CYQB;2010-09-15 20:20;CYQB 152020Z CCA 26012KT 30SM -SHRA FEW043 BKN061 BKN210 14/ RMK SC2SC2CI1 CU ASOCTD

CYQB;2010-09-15 20:41;CYQB 152041Z 27009G15KT 30SM FEW030 SCT055 SCT090 14/ RMK SC2SC2AC1 CU ASOCTD

CYQB;2010-09-15 21:00;CYQB 152100Z 29012G19KT 30SM FEW030 SCT055 SCT100 14/06 A2995 RMK SC2SC2AC1 CU ASOCTD SLP144

CYQB;2010-09-15 22:00;CYQB 152200Z CCA 28008KT 30SM FEW040 BKN058 BKN110 13/06 A2998 RMK CU2SC3AC1 ACSL E QUAD SLP155

CYQB;2010-09-15 23:00;CYQB 152300Z 26004KT 30SM FEW040 SCT055 BKN099 12/08 A2999 RMK CU2SC2AC2 SLP158

CYQB;2010-09-16 00:00;CYQB 160000Z 21004KT 15SM FEW045 BKN090 11/08 A3000 RMK SC2AC4 SLP160

CYQB;2010-09-16 01:00;CYQB 160100Z 22003KT 15SM FEW045 FEW090 09/07 A3001 RMK SC1AC1 SLP165

CYQB;2010-09-16 02:00;CYQB 160200Z 25007KT 15SM FEW065 FEW092 10/07 A3002 RMK SC1AC1 SLP167

CYQB;2010-09-16 03:00;CYQB 160300Z 19002KT 15SM FEW062 FEW090 08/07 A3003 RMK SC1AC1 SLP169

CYQB;2010-09-16 04:00;CYQB 160400Z 20002KT 15SM SCT045 SCT062 09/08 A3004 RMK SC3SC1 SLP173

CYQB;2010-09-16 05:00;CYQB 160500Z 21007KT 15SM FEW040 09/08 A3003 RMK SC2 SLP170

CYQB;2010-09-16 06:00;CYQB 160600Z 21005KT 15SM FEW040 09/07 A3003 RMK SC1 SLP170

CYQB;2010-09-16 07:00;CYQB 160700Z 21007KT 15SM FEW040 08/07 A3003 RMK SC1 SLP171

CYQB;2010-09-16 08:00;CYQB 160800Z 23007KT 15SM SKC 08/07 A3004 RMK SLP174

CYQB;2010-09-16 09:00;CYQB 160900Z 25005KT 15SM SKC 06/06 A3003 RMK SLP172

CYQB;2010-09-16 10:00;CYQB 161000Z 25006KT 15SM FEW040 FEW240 07/06 A3006 RMK SC1CI1 SLP179

CYQB;2010-09-16 11:00;CYQB 161100Z 26009KT 25SM SCT053 BKN220 07/07 A3007 RMK SC4CI1 SLP185

CYQB;2010-09-16 12:00;CYQB 161200Z 25007KT 25SM BKN048 BKN140 08/08 A3007 RMK SC6AC1 SLP185

CYQB;2010-09-16 13:00;CYQB 161300Z 24006KT 25SM FEW020 OVC045 09/08 A3008 RMK SC1SC7 SLP187

CYQB;2010-09-16 14:00;CYQB 161400Z 26007KT 25SM FEW025 BKN039 BKN120 11/08 A3006 RMK SC1SC5AC2 SLP182

CYQB;2010-09-16 15:00;CYQB 161500Z 24009KT 25SM FEW025 BKN037 11/08 A3005 RMK SC1SC7 SLP178

CYQB;2010-09-16 16:00;CYQB 161600Z 24007KT 25SM FEW037 OVC100 12/07 A3003 RMK SC2AC6 SLP172

CYQB;2010-09-16 17:00;CYQB 161700Z 23011KT 25SM FEW030 BKN041 OVC100 12/08 A3003 RMK SC2SC3AC3 SLP172

CYQB;2010-09-16 18:00;CYQB 161800Z 26008KT 25SM FEW030 SCT040 OVC090 12/07 A3001 RMK SC1SC2AC5 SLP164

CYQB;2010-09-16 19:00;CYQB 161900Z 23008KT 25SM FEW030 FEW042 BKN074 OVC100 13/07 A2999 RMK SC1SC2AC3AC2 SLP156

CYQB;2010-09-16 20:00;CYQB 162000Z 23006KT 25SM FEW030 FEW070 OVC090 12/07 A2998 RMK SC1AC2AC6 SLP154

CYQB;2010-09-16 21:00;CYQB 162100Z 24007KT 25SM FEW038 SCT065 OVC088 12/08 A2998 RMK SC2SC2AC5 SLP155

CYQB;2010-09-16 21:17;CYQB 162117Z 23006KT 20SM -SHRA FEW035 SCT060 OVC083 12/ RMK SC2SC2AC5

CYQB;2010-09-16 22:00;CYQB 162200Z 21006KT 20SM -RA FEW035 OVC069 11/09 A2998 RMK SC2AC6 SLP153

CYQB;2010-09-16 22:29;CYQB 162229Z 20005KT 25SM FEW030 FEW045 SCT070 OVC088 11/ RMK SC1SC2AC1AC5

CYQB;2010-09-16 23:00;CYQB 162300Z 19002KT 25SM FEW030 FEW045 FEW070 OVC092 11/09 A2996 RMK SC1SC2AC1AC6 SLP146

CYQB;2010-09-17 00:00;CYQB 170000Z 00000KT 15SM -RA FEW015 FEW045 OVC078 11/09 A2994 RMK SC1SC2AC6 SLP142

CYQB;2010-09-17 01:00;CYQB 170100Z 36002KT 10SM -RA FEW012 FEW035 OVC060 10/10 A2994 RMK SC1SC2SC6 SLP142

CYQB;2010-09-17 02:00;CYQB 170200Z 17002KT 10SM -RA FEW012 FEW030 OVC056 10/09 A2993 RMK SC1SC2SC6 SLP138

CYQB;2010-09-17 03:00;CYQB 170300Z 01004KT 10SM -RA FEW010 FEW030 BKN056 OVC082 10/09 A2991 RMK SC1SC2SC2AC3 SLP131

CYQB;2010-09-17 04:00;CYQB 170400Z 03004KT 6SM -RA BR FEW010 FEW030 OVC060 10/10 A2990 RMK SF1SC1SC6 SLP127

CYQB;2010-09-17 05:00;CYQB 170500Z 01003KT 6SM -RA BR FEW010 OVC061 10/09 A2990 RMK SF1SC8 SLP126

CYQB;2010-09-17 06:00;CYQB 170600Z 05007KT 6SM -RA BR FEW010 FEW030 OVC070 10/09 A2989 RMK SF1SC1AC7 SLP122

CYQB;2010-09-17 07:00;CYQB 170700Z 04005KT 8SM -RA FEW010 BKN028 OVC070 10/08 A2989 RMK SF1SC6AC2 SLP122

CYQB;2010-09-17 08:00;CYQB 170800Z 02002KT 8SM -RA BKN021 OVC070 10/08 A2990 RMK SC7AC1 SLP126

CYQB;2010-09-17 09:00;CYQB 170900Z 03005KT 10SM OVC025 10/08 A2991 RMK SC8 SLP131

CYQB;2010-09-17 10:00;CYQB 171000Z 36006KT 15SM FEW020 BKN035 09/07 A2993 RMK SC1SC6 SLP137

CYQB;2010-09-17 11:00;CYQB 171100Z 36006KT 25SM FEW030 FEW065 08/06 A2995 RMK SC1SC1 SLP143

CYQB;2010-09-17 12:00;CYQB 171200Z 01007KT 25SM FEW030 FEW070 09/06 A2997 RMK SC1AC1 SLP151

CYQB;2010-09-17 13:00;CYQB 171300Z 29008KT 25SM FEW030 FEW070 11/06 A3000 RMK SC1AC1 SLP162

CYQB;2010-09-17 14:00;CYQB 171400Z 00000KT 30SM FEW030 FEW080 13/06 A3002 RMK SC1AC1 SLP167

CYQB;2010-09-17 15:00;CYQB 171500Z 04004KT 30SM FEW030 14/05 A3002 RMK SC1 SLP167

CYQB;2010-09-17 16:00;CYQB 171600Z 28003KT 30SM FEW030 15/06 A3002 RMK CU1 SLP168

CYQB;2010-09-17 17:00;CYQB 171700Z 24006KT 30SM FEW030 16/08 A3002 RMK CU1 SLP168

CYQB;2010-09-17 18:00;CYQB 171800Z 21010KT 30SM FEW030 16/07 A3002 RMK CU1 SLP166

CYQB;2010-09-17 19:00;CYQB 171900Z 22010G16KT 30SM FEW035 FEW240 17/08 A3002 RMK CU1CI1 SLP166

CYQB;2010-09-17 20:00;CYQB 172000Z CCA 20013KT 30SM FEW040 FEW240 17/07 A3001 RMK CU1CI1 SLP164

CYQB;2010-09-17 21:00;CYQB 172100Z 22011KT 30SM FEW035 FEW240 17/07 A3002 RMK CU1CI1 SLP166

CYQB;2010-09-17 22:00;CYQB 172200Z 22009KT 30SM FEW250 16/07 A3004 RMK CI1 SLP173

CYQB;2010-09-17 23:00;CYQB 172300Z 24006KT 30SM FEW090 FEW250 13/07 A3006 RMK AC1CI1 SLP179

CYQB;2010-09-18 00:00;CYQB 180000Z 24006KT 15SM FEW090 FEW250 12/07 A3008 RMK AC1CI0 SLP189

CYQB;2010-09-18 01:00;CYQB 180100Z 24004KT 15SM SKC 10/07 A3010 RMK SLP196

CYQB;2010-09-18 02:00;CYQB 180200Z 36004KT 15SM SKC 10/07 A3012 RMK SLP202

CYQB;2010-09-18 03:00;CYQB 180300Z 01002KT 15SM SKC 09/06 A3014 RMK SLP207

CYQB;2010-09-18 04:00;CYQB 180400Z 00000KT 15SM SKC 08/06 A3015 RMK SLP211

CYQB;2010-09-18 05:00;CYQB 180500Z 00000KT 15SM SKC 06/05 A3015 RMK SLP212

CYQB;2010-09-18 06:00;CYQB 180600Z 02003KT 15SM SKC 07/06 A3016 RMK SLP216

CYQB;2010-09-18 07:00;CYQB 180700Z 01002KT 15SM SKC 06/05 A3017 RMK SLP220

CYQB;2010-09-18 08:00;CYQB 180800Z 36002KT 15SM SKC 05/04 A3018 RMK SLP222

CYQB;2010-09-18 09:00;CYQB 180900Z 36002KT 15SM SKC 06/05 A3019 RMK SLP226

CYQB;2010-09-18 10:00;CYQB 181000Z 36003KT 15SM SKC 05/04 A3020 RMK SLP230

CYQB;2010-09-18 11:00;CYQB 181100Z 02002KT 30SM PRFG FEW006 05/04 A3022 RMK SF1 SLP236

CYQB;2010-09-18 12:00;CYQB 181200Z 00000KT 30SM FEW006 07/05 A3023 RMK SF1 SLP238

CYQB;2010-09-18 13:00;CYQB 181300Z 23004KT 12SM SCT010 10/08 A3022 RMK SC3 SLP237

CYQB;2010-09-18 14:00;CYQB 181400Z 27009KT 15SM SCT011 SCT250 12/09 A3022 RMK CF3CI0 SLP236

CYQB;2010-09-18 15:00;CYQB 181500Z 26006KT 15SM FEW012 SCT250 13/10 A3020 RMK CF2CI0 SLP230

CYQB;2010-09-18 16:00;CYQB 181600Z 23006KT 15SM FEW020 SCT250 15/10 A3017 RMK CF2CI0 SLP217

CYQB;2010-09-18 17:00;CYQB 181700Z 21004KT 15SM FEW030 SCT250 17/09 A3014 RMK CF1CI0 SLP208

CYQB;2010-09-18 18:00;CYQB 181800Z 24010KT 15SM FEW035 FEW100 SCT250 18/08 A3011 RMK CF1AC1CI0 SLP197

CYQB;2010-09-18 19:00;CYQB 181900Z 23013G18KT 30SM FEW040 FEW100 SCT250 19/08 A3010 RMK CU1AC1CI1 SLP194

CYQB;2010-09-18 20:00;CYQB 182000Z 22010KT 30SM FEW045 FEW100 SCT250 19/08 A3007 RMK CU1AC1CI1 SLP183

CYQB;2010-09-18 21:00;CYQB 182100Z 23012KT 30SM FEW040 FEW090 FEW150 SCT250 18/08 A3007 RMK CU1AC1AC1CI1 SLP184

CYQB;2010-09-18 22:00;CYQB 182200Z 23004KT 30SM BKN100 BKN150 BKN250 17/09 A3006 RMK AC6AC1CI0 SLP180

CYQB;2010-09-18 23:00;CYQB 182300Z 24003KT 30SM FEW030 BKN100 BKN150 BKN250 16/09 A3004 RMK CF1AC6AC1CI0 SLP175

CYQB;2010-09-19 00:00;CYQB 190000Z 00000KT 15SM BKN100 BKN130 15/10 A3005 RMK AC6AC1 SLP176

CYQB;2010-09-19 01:00;CYQB 190100Z 00000KT 15SM -SHRA FEW060 SCT100 OVC120 15/11 A3004 RMK SC2AC2AC4 SLP175

CYQB;2010-09-19 02:00;CYQB 190200Z 31004KT 12SM -SHRA SCT050 OVC062 14/12 A3006 RMK SC4SC4 SLP182

CYQB;2010-09-19 03:00;CYQB 190300Z 25004KT 12SM -SHRA OVC055 14/12 A3007 RMK SC8 SLP184

CYQB;2010-09-19 04:00;CYQB 190400Z 00000KT 8SM -SHRA FEW025 OVC046 13/12 A3007 RMK SC1SC7 SLP183

CYQB;2010-09-19 05:00;CYQB 190500Z 18003KT 10SM -SHRA BKN020 OVC041 13/13 A3006 RMK SC5SC3 SLP181

CYQB;2010-09-19 06:00;CYQB 190600Z 22005KT 10SM OVC037 13/13 A3006 RMK SC8 SLP179

CYQB;2010-09-19 07:00;CYQB 190700Z 24005KT 15SM SCT011 OVC030 13/13 A3006 RMK SC4SC4 SLP179

CYQB;2010-09-19 07:41;CYQB 190741Z 27004KT 15SM SCT007 OVC020 13/ RMK SF4SC4

CYQB;2010-09-19 08:00;CYQB 190800Z 28004KT 15SM -SHRA BKN006 OVC020 13/13 A3006 RMK SF6SC2 SLP179

CYQB;2010-09-19 08:28;CYQB 190828Z 24006KT 15SM FEW006 OVC028 13/ RMK SF2SC6

CYQB;2010-09-19 09:00;CYQB 190900Z 24004KT 15SM SCT030 BKN053 13/13 A3006 RMK SC3SC3 SLP181

CYQB;2010-09-19 10:00;CYQB 191000Z 31004KT 15SM FEW030 BKN052 12/11 A3007 RMK SC2SC2 SLP184

CYQB;2010-09-19 11:00;CYQB 191100Z 33006KT 15SM FEW012 FEW050 SCT250 11/10 A3009 RMK SC1SC1CI0 SLP190

CYQB;2010-09-19 12:00;CYQB 191200Z 33007KT 30SM FEW050 FEW260 12/09 A3011 RMK SC1CI0 SLP196

CYQB;2010-09-19 13:00;CYQB 191300Z 35004KT 30SM FEW050 FEW260 13/09 A3011 RMK SC1CI0 SLP199

CYQB;2010-09-19 14:00;CYQB 191400Z 06002KT 30SM FEW020 FEW260 15/11 A3011 RMK CF1CI0 SLP197

CYQB;2010-09-19 15:00;CYQB 191500Z 12002KT 30SM SCT020 15/11 A3010 RMK CF3 SLP195

CYQB;2010-09-19 16:00;CYQB 191600Z 20006KT 30SM SCT024 17/10 A3009 RMK CF3 SLP192

CYQB;2010-09-19 17:00;CYQB 191700Z 20009KT 30SM FEW035 18/09 A3008 RMK CF2 SLP188

CYQB;2010-09-19 18:00;CYQB 191800Z 21009G16KT 30SM FEW036 18/08 A3006 RMK CF2 SLP182

CYQB;2010-09-19 19:00;CYQB 191900Z 21009G15KT 30SM FEW038 18/08 A3005 RMK CU1 SLP177

CYQB;2010-09-19 20:00;CYQB 192000Z 25009KT 30SM FEW045 18/07 A3004 RMK CU1 SLP173

CYQB;2010-09-19 21:00;CYQB 192100Z 27011KT 30SM FEW045 FEW230 18/06 A3003 RMK CF1CI1 SLP170

CYQB;2010-09-19 22:00;CYQB 192200Z 27005KT 30SM FEW045 FEW230 16/08 A3004 RMK SC1CI1 SLP174

CYQB;2010-09-19 23:00;CYQB 192300Z 29005KT 20SM FEW040 FEW200 13/06 A3005 RMK SC1CI1 SLP176

CYQB;2010-09-20 00:00;CYQB 200000Z 31003KT 15SM SKC 11/06 A3006 RMK SLP182

CYQB;2010-09-20 01:00;CYQB 200100Z 36005KT 15SM FEW100 11/06 A3007 RMK AC1 SLP183

CYQB;2010-09-20 02:00;CYQB 200200Z 02003KT 15SM BKN073 11/06 A3007 RMK AC6 SLP183

CYQB;2010-09-20 03:00;CYQB 200300Z 33003KT 15SM BKN079 11/06 A3006 RMK AC7 SLP182

CYQB;2010-09-20 04:00;CYQB 200400Z 36003KT 15SM BKN080 10/06 A3006 RMK AC7 SLP181

CYQB;2010-09-20 05:00;CYQB 200500Z 01004KT 15SM FEW080 09/05 A3005 RMK AC2 SLP178

CYQB;2010-09-20 06:00;CYQB 200600Z 00000KT 15SM FEW080 08/05 A3006 RMK AC1 SLP179

CYQB;2010-09-20 07:00;CYQB 200700Z 35006KT 15SM BKN083 08/05 A3004 RMK AC6 SLP174

CYQB;2010-09-20 08:00;CYQB 200800Z 01003KT 15SM BKN078 08/05 A3004 RMK AC7 SLP174

CYQB;2010-09-20 09:00;CYQB 200900Z 00000KT 15SM FEW078 06/04 A3005 RMK AC1 SLP176

CYQB;2010-09-20 10:00;CYQB 201000Z 32002KT 15SM FEW080 06/04 A3005 RMK AC1 SLP178

CYQB;2010-09-20 11:00;CYQB 201100Z 36004KT 30SM FEW009 FEW080 07/04 A3006 RMK SC1AC1 SLP182

CYQB;2010-09-20 12:00;CYQB 201200Z 00000KT 30SM FEW080 09/05 A3008 RMK AC1 SLP188

CYQB;2010-09-20 13:00;CYQB 201300Z 34005KT 30SM FEW080 12/06 A3008 RMK AC1 SLP188

CYQB;2010-09-20 14:00;CYQB 201400Z 00000KT 30SM FEW030 14/07 A3008 RMK SC1 SLP189

CYQB;2010-09-20 15:00;CYQB 201500Z 30011KT 30SM FEW030 FEW060 16/06 A3008 RMK SC1SC2 SLP186

CYQB;2010-09-20 16:00;CYQB 201600Z 33011G17KT 30SM FEW055 16/03 A3006 RMK SC2 CU ASOCTD SLP181

CYQB;2010-09-20 17:00;CYQB 201700Z 29008KT 30SM FEW060 16/04 A3004 RMK SC2 SLP173

CYQB;2010-09-20 18:00;CYQB 201800Z 31010G15KT 30SM SCT060 16/03 A3002 RMK SC3 SLP167

CYQB;2010-09-20 19:00;CYQB 201900Z 31011G16KT 30SM SCT065 16/03 A3000 RMK SC3 SLP162

CYQB;2010-09-20 20:00;CYQB 202000Z 30008G15KT 30SM FEW065 17/04 A3000 RMK SC2 SLP159

CYQB;2010-09-20 21:00;CYQB 202100Z 30008KT 30SM FEW065 16/04 A3000 RMK SC2 SLP162

CYQB;2010-09-20 22:00;CYQB 202200Z 32004KT 30SM FEW062 15/05 A3001 RMK SC2 SLP165

CYQB;2010-09-20 23:00;CYQB 202300Z 33003KT 30SM FEW060 13/04 A3003 RMK SC1 SLP169

CYQB;2010-09-21 00:00;CYQB 210000Z 29005KT 15SM FEW070 10/05 A3004 RMK AC1 SLP175

CYQB;2010-09-21 01:00;CYQB 210100Z 32005KT 15SM FEW070 09/05 A3006 RMK AC1 SLP181

CYQB;2010-09-21 02:00;CYQB 210200Z 32005KT 15SM FEW060 08/04 A3006 RMK SC1 SLP181

CYQB;2010-09-21 03:00;CYQB 210300Z 32005KT 15SM SKC 06/04 A3007 RMK SLP183

CYQB;2010-09-21 04:00;CYQB 210400Z 31006KT 15SM SKC 06/04 A3007 RMK SLP183

CYQB;2010-09-21 05:00;CYQB 210500Z 31008KT 15SM SKC 06/04 A3006 RMK SLP181

CYQB;2010-09-21 06:00;CYQB 210600Z 31008KT 15SM SKC 08/04 A3006 RMK SLP181

CYQB;2010-09-21 07:00;CYQB 210700Z 22003KT 15SM SKC 07/03 A3005 RMK SLP178

CYQB;2010-09-21 08:00;CYQB 210800Z 00000KT 15SM SKC 07/03 A3006 RMK SLP179

CYQB;2010-09-21 09:00;CYQB 210900Z 05003KT 15SM SKC 06/04 A3008 RMK SLP186

CYQB;2010-09-21 10:00;CYQB 211000Z 33002KT 15SM FEW240 06/03 A3010 RMK CI0 SLP194

CYQB;2010-09-21 11:00;CYQB 211100Z 21003KT 25SM FEW160 BKN240 05/04 A3010 RMK AC1CI5 SLP195

CYQB;2010-09-21 12:00;CYQB 211200Z 22009KT 25SM FEW020 FEW160 BKN240 07/05 A3010 RMK SC1AC2CI6 SLP194

CYQB;2010-09-21 13:00;CYQB 211300Z 25010KT 25SM FEW020 SCT100 BKN160 08/05 A3010 RMK SC1AC3AC4 SLP195

CYQB;2010-09-21 14:00;CYQB 211400Z 24012KT 25SM FEW020 BKN140 OVC240 09/06 A3009 RMK SC1AC6CI2 SLP192

CYQB;2010-09-21 15:00;CYQB 211500Z 24007KT 25SM FEW030 BKN097 OVC140 09/06 A3011 RMK SC1AC6AC2 SLP197

CYQB;2010-09-21 16:00;CYQB 211600Z 23008KT 25SM BKN096 OVC160 10/06 A3010 RMK AC6AC2 SLP196

CYQB;2010-09-21 16:20;CYQB 211620Z 21006KT 25SM -SHRA FEW030 BKN064 OVC160 10/ RMK SC1SC5AC3

CYQB;2010-09-21 17:00;CYQB 211700Z 22005KT 25SM -SHRA FEW065 BKN093 OVC160 10/07 A3008 RMK SC2AC4AC2 SLP190

CYQB;2010-09-21 18:00;CYQB 211800Z 21004KT 8SM -SHRA FEW010 OVC079 09/08 A3005 RMK SC1AC8 SLP179

CYQB;2010-09-21 19:00;CYQB 211900Z 27002KT 6SM -SHRA BR FEW002 FEW010 FEW035 OVC065 09/07 A3001 RMK SF1SC1SC1SC6 SLP166

CYQB;2010-09-21 20:00;CYQB 212000Z CCA 35005KT 8SM -SHRA FEW002 SCT010 SCT035 OVC060 09/08 A2998 RMK SF1SC2SC1SC4 SLP154

CYQB;2010-09-21 20:28;CYQB 212028Z 07004KT 10SM FEW002 SCT010 SCT035 OVC055 09/ RMK SF1SC2SC1SC4

CYQB;2010-09-21 21:00;CYQB 212100Z 10004KT 15SM FEW002 FEW010 OVC058 09/08 A2992 RMK SF1SC2SC6 SLP133

CYQB;2010-09-21 21:33;CYQB 212133Z 08003KT 10SM BKN005 OVC052 09/ RMK SF4SC4

CYQB;2010-09-21 22:00;CYQB 212200Z 04007KT 10SM FEW002 BKN007 OVC055 09/09 A2990 RMK SF1SF6SC2 SLP126

CYQB;2010-09-21 22:09;CYQB 212209Z 06006KT 10SM FEW002 SCT007 OVC056 09/ RMK SF1SF2SC5

CYQB;2010-09-21 23:00;CYQB 212300Z 05006KT 10SM FEW002 FEW007 OVC053 09/09 A2986 RMK SF1SF1SC6 SLP112

CYQB;2010-09-22 00:00;CYQB 220000Z 03005KT 15SM FEW005 OVC045 09/08 A2983 RMK SF1SC7 SLP102

CYQB;2010-09-22 01:00;CYQB 220100Z 01004KT 15SM OVC044 09/08 A2980 RMK SC8 SLP094

CYQB;2010-09-22 02:00;CYQB 220200Z 36004KT 15SM BKN047 OVC057 10/08 A2975 RMK SC7SC1 SLP078

CYQB;2010-09-22 02:17;CYQB 220217Z 35006KT 5SM -SHRA OVC046 09/ RMK SC8

CYQB;2010-09-22 03:00;CYQB 220300Z 02004KT 5SM -SHRA BKN039 BKN065 OVC095 09/09 A2973 RMK SC6SC1AC1 SLP070

CYQB;2010-09-22 04:00;CYQB 220400Z 03004KT 8SM FEW008 OVC039 09/09 A2972 RMK SF1SC8 OCNL -SHRA SLP067

CYQB;2010-09-22 04:16;CYQB 220416Z 04002KT 10SM FEW008 OVC034 09/ RMK SF1SC8

CYQB;2010-09-22 04:28;CYQB 220428Z 00000KT 6SM -SHRA OVC033 10/ RMK SC8

CYQB;2010-09-22 05:00;CYQB 220500Z 00000KT 10SM FEW010 OVC031 10/09 A2973 RMK SF1SC8 SLP069

CYQB;2010-09-22 06:00;CYQB 220600Z 26002KT 10SM FEW010 OVC028 11/10 A2972 RMK SF1SC7 SLP067

CYQB;2010-09-22 07:00;CYQB 220700Z 24005KT 10SM FEW010 OVC028 12/10 A2973 RMK SF1SC7 SLP069

CYQB;2010-09-22 08:00;CYQB 220800Z 25006KT 10SM SCT028 OVC043 12/11 A2973 RMK SC3SC5 SLP069

CYQB;2010-09-22 09:00;CYQB 220900Z 22007KT 10SM SCT028 OVC048 12/11 A2973 RMK SC3SC5 SLP070

CYQB;2010-09-22 10:00;CYQB 221000Z 23009KT 10SM OVC011 12/12 A2974 RMK SC8 SLP073

CYQB;2010-09-22 11:00;CYQB 221100Z 22007KT 5SM BR OVC009 13/12 A2976 RMK SF8 SLP079

CYQB;2010-09-22 12:00;CYQB 221200Z 22008KT 3SM BR OVC006 15/14 A2976 RMK FG2SF6 SLP079

CYQB;2010-09-22 13:00;CYQB 221300Z 24007KT 5SM BR OVC006 16/15 A2977 RMK SF8 SLP081

CYQB;2010-09-22 14:00;CYQB 221400Z 26012KT 5SM BR BKN007 BKN011 OVC022 17/16 A2978 RMK SF5SC2SC2 CIG RAG SLP086

CYQB;2010-09-22 14:15;CYQB 221415Z 25014KT 10SM FEW007 BKN022 BKN043 18/ RMK SF1SC5SC2

CYQB;2010-09-22 15:00;CYQB 221500Z 25012KT 15SM FEW013 SCT038 18/16 A2978 RMK SC2SC2 SLP086

CYQB;2010-09-22 16:00;CYQB 221600Z 26019KT 25SM SCT025 SCT052 BKN240 21/16 A2978 RMK SC3SC1CI0 SLP086

CYQB;2010-09-22 17:00;CYQB 221700Z 28014G25KT 25SM SCT035 BKN240 19/13 A2978 RMK SC3CI1 SLP084

CYQB;2010-09-22 18:00;CYQB 221800Z 29016G26KT 25SM FEW040 BKN240 21/14 A2977 RMK CF2CI5 SLP083

CYQB;2010-09-22 19:00;CYQB 221900Z 28013G19KT 25SM FEW040 FEW060 BKN240 21/13 A2977 RMK CF1SC1CI2 SLP081

CYQB;2010-09-22 20:00;CYQB 222000Z 27018KT 25SM FEW040 BKN240 21/12 A2977 RMK CF2CI2 SLP082

CYQB;2010-09-22 21:00;CYQB 222100Z 26012KT 25SM FEW050 BKN240 20/12 A2978 RMK CF2CI2 SLP087

CYQB;2010-09-22 22:00;CYQB 222200Z 29007KT 25SM SCT060 BKN240 18/11 A2981 RMK SC4CI1 SLP096

CYQB;2010-09-22 23:00;CYQB 222300Z 29008KT 25SM FEW060 FEW240 16/09 A2983 RMK SC1CI1 SLP104

CYQB;2010-09-23 00:00;CYQB 230000Z 28010KT 25SM FEW240 16/08 A2987 RMK CI1 SLP117

CYQB;2010-09-23 01:00;CYQB 230100Z 29007KT 25SM FEW240 14/07 A2990 RMK CI1 SLP127

CYQB;2010-09-23 02:00;CYQB 230200Z 31010KT 25SM FEW240 14/06 A2998 RMK CI1 SLP153

CYQB;2010-09-23 03:00;CYQB 230300Z 32007KT 25SM SKC 11/06 A2997 RMK SLP151

CYQB;2010-09-23 04:00;CYQB 230400Z 31007KT 25SM FEW040 11/05 A3005 RMK SC0 SLP176

CYQB;2010-09-23 05:00;CYQB 230500Z 29007KT 25SM FEW045 09/04 A3006 RMK SC0 SLP180

CYQB;2010-09-23 06:00;CYQB 230600Z 27006KT 15SM FEW045 FEW240 07/04 A3008 RMK SC1CI1 SLP187

CYQB;2010-09-23 07:00;CYQB 230700Z 31003KT 15SM FEW070 FEW240 08/04 A3009 RMK AC1CI1 SLP190

CYQB;2010-09-23 08:00;CYQB 230800Z 28006KT 15SM FEW070 FEW240 06/03 A3012 RMK AC1CI1 SLP201

CYQB;2010-09-23 09:00;CYQB 230900Z 28006KT 15SM FEW030 FEW070 FEW240 05/03 A3015 RMK SC1AC1CI1 SLP210

CYQB;2010-09-23 10:00;CYQB 231000Z 25004KT 15SM FEW030 FEW070 FEW240 05/03 A3018 RMK SC1AC1CI0 SLP220

CYQB;2010-09-23 11:00;CYQB 231100Z 26005KT 25SM FEW040 FEW100 FEW240 05/04 A3020 RMK SC1AC1CI0 SLP227

CYQB;2010-09-23 12:00;CYQB 231200Z 28007KT 25SM FEW040 FEW240 08/05 A3023 RMK SC1CI0 SLP238

CYQB;2010-09-23 13:00;CYQB 231300Z 27003KT 25SM FEW030 BKN240 10/05 A3022 RMK SC1CI2 SLP237

CYQB;2010-09-23 14:00;CYQB 231400Z 29004KT 25SM FEW030 BKN240 11/04 A3023 RMK SC1CI5 SLP240

CYQB;2010-09-23 15:00;CYQB 231500Z 22007KT 25SM FEW030 BKN240 12/05 A3024 RMK SC2CI4 SLP241

CYQB;2010-09-23 16:00;CYQB 231600Z 24008KT 25SM FEW030 SCT160 BKN240 13/05 A3022 RMK SC2AC2CI2 SLP237

CYQB;2010-09-23 17:00;CYQB 231700Z 22015KT 25SM FEW030 FEW100 BKN240 14/06 A3022 RMK SC2AC1CI0 SLP237

CYQB;2010-09-23 18:00;CYQB 231800Z 22013G20KT 25SM FEW035 FEW120 BKN240 14/05 A3021 RMK SC2AC1CI1 SLP231

CYQB;2010-09-23 19:00;CYQB 231900Z 22015G20KT 30SM FEW035 BKN180 BKN240 14/06 A3021 RMK CU1AC4CI1 SLP231

CYQB;2010-09-23 20:00;CYQB 232000Z 24015G20KT 30SM FEW035 FEW120 BKN180 13/05 A3021 RMK CU1AC2AC4 SLP232

CYQB;2010-09-23 21:00;CYQB 232100Z 25010G15KT 30SM FEW035 BKN150 BKN180 13/06 A3019 RMK CU1AC5AC2 SLP227

CYQB;2010-09-23 22:00;CYQB 232200Z 24008KT 30SM BKN140 BKN180 12/06 A3020 RMK AC6AC2 SLP228

CYQB;2010-09-23 23:00;CYQB 232300Z 23007KT 20SM BKN110 OVC180 11/07 A3021 RMK AC6AC2 SLP232

CYQB;2010-09-24 00:00;CYQB 240000Z 28007KT 15SM BKN100 OVC180 11/07 A3021 RMK AC6AC2 SLP233

CYQB;2010-09-24 01:00;CYQB 240100Z 24005KT 15SM BKN100 OVC180 10/07 A3021 RMK AC6AC2 SLP231

CYQB;2010-09-24 02:00;CYQB 240200Z 25005KT 15SM BKN100 BKN170 10/06 A3021 RMK AC6AC1 SLP232

CYQB;2010-09-24 03:00;CYQB 240300Z 29002KT 15SM OVC087 10/07 A3021 RMK AC8 SLP233

CYQB;2010-09-24 04:00;CYQB 240400Z 02002KT 15SM OVC075 10/07 A3022 RMK AC8 SLP234

CYQB;2010-09-24 05:00;CYQB 240500Z 00000KT 15SM OVC081 10/08 A3021 RMK AC8 SLP232

CYQB;2010-09-24 06:00;CYQB 240600Z 08002KT 15SM OVC079 10/07 A3018 RMK AC8 SLP223

CYQB;2010-09-24 07:00;CYQB 240700Z 05005KT 15SM OVC087 10/08 A3016 RMK AC8 SLP214

CYQB;2010-09-24 08:00;CYQB 240800Z 06007KT 8SM -RA OVC065 10/09 A3014 RMK AC8 SLP210

CYQB;2010-09-24 09:00;CYQB 240900Z 07008KT 4SM -RA BR FEW010 SCT014 OVC060 09/09 A3012 RMK SF2SC2SC4 SLP203

CYQB;2010-09-24 10:00;CYQB 241000Z 07009G15KT 5SM -RA BR BKN021 OVC055 09/08 A3012 RMK SC5SC3 SLP203

CYQB;2010-09-24 11:00;CYQB 241100Z 07012G17KT 5SM -RA BR BKN012 BKN022 OVC055 08/08 A3013 RMK SC5SC2SC2 CIG RAG SLP205

CYQB;2010-09-24 12:00;CYQB 241200Z 07011G16KT 6SM -RA BR SCT012 SCT020 OVC055 08/07 A3011 RMK SC3SC1SC4 CIG RAG SLP198

CYQB;2010-09-24 13:00;CYQB 241300Z 06012G18KT 7SM -RA FEW010 OVC035 08/07 A3009 RMK SF2SC6 CIG RAG SLP192

CYQB;2010-09-24 14:00;CYQB 241400Z 06013G21KT 8SM -RA FEW007 BKN014 OVC025 08/08 A3006 RMK SF1SC5SC2 SLP181

CYQB;2010-09-24 15:00;CYQB 241500Z 07015G21KT 5SM -RA BR FEW007 BKN011 OVC025 08/08 A3003 RMK SF2SC4SC2 SLP170

CYQB;2010-09-24 15:37;CYQB 241537Z 07008G19KT 5SM -RA BR BKN007 BKN011 OVC025 08/ RMK SF5SC2SC1

CYQB;2010-09-24 16:00;CYQB 241600Z 07012G20KT 5SM -RA BR BKN007 BKN012 OVC025 08/08 A2999 RMK SF5SC2SC1 SLP159

CYQB;2010-09-24 17:00;CYQB 241700Z 08015G20KT 5SM -RA BR SCT007 BKN011 OVC020 09/08 A2992 RMK SF4SC2SC2 SLP136

CYQB;2010-09-24 18:00;CYQB 241800Z 07017G22KT 10SM -RA FEW008 BKN013 OVC020 09/08 A2987 RMK SF2SC3SC2 SLP118

CYQB;2010-09-24 19:00;CYQB 241900Z 08012G17KT 6SM -RA SCT008 BKN013 OVC016 09/08 A2985 RMK SF3SC3SC2 SLP109

CYQB;2010-09-24 20:00;CYQB 242000Z 06010G18KT 10SM SCT008 BKN015 OVC017 09/08 A2981 RMK SF4SC3SC1 RAG CIG SLP095

CYQB;2010-09-24 21:00;CYQB 242100Z 07011G18KT 10SM SCT008 OVC011 10/08 A2979 RMK SF4SC4 SLP089

CYQB;2010-09-24 22:00;CYQB 242200Z 08011G16KT 10SM SCT008 OVC013 10/08 A2977 RMK SF4SC4 SLP083

CYQB;2010-09-24 23:00;CYQB 242300Z 07012G17KT 10SM BKN008 OVC012 09/08 A2973 RMK ST5SC3 SLP071

CYQB;2010-09-25 00:00;CYQB 250000Z 07008G15KT 10SM BKN008 OVC012 09/08 A2970 RMK ST5SC3 SLP060

CYQB;2010-09-25 00:38;CYQB 250038Z 07013KT 3SM -SHRA BR BKN007 OVC011 09/ RMK ST6SC2

CYQB;2010-09-25 01:00;CYQB 250100Z 08009G17KT 6SM -SHRA BR BKN008 OVC012 09/08 A2968 RMK ST6SC2 VIS VRB 4-8 SLP052

CYQB;2010-09-25 02:00;CYQB 250200Z 11008KT 4SM -SHRA BR SCT007 OVC011 09/09 A2970 RMK SF4SC4 SLP058

CYQB;2010-09-25 03:00;CYQB 250300Z 06007KT 2SM -SHRA BR BKN002 OVC011 09/09 A2969 RMK SF5SC3 SLP056

CYQB;2010-09-25 04:00;CYQB 250400Z 09003KT 3SM BR SCT002 BKN006 OVC011 09/09 A2969 RMK SF4SF3SC1 SLP057

CYQB;2010-09-25 05:00;CYQB 250500Z 07012KT 5SM BR BKN007 OVC010 09/09 A2968 RMK SF6SC2 SLP052

CYQB;2010-09-25 06:00;CYQB 250600Z 07013KT 7SM BKN009 OVC016 10/09 A2966 RMK SF7SC1 SLP046

CYQB;2010-09-25 07:00;CYQB 250700Z 09010G17KT 10SM OVC009 10/09 A2966 RMK SF8 SLP045

CYQB;2010-09-25 08:00;CYQB 250800Z 08011G16KT 15SM OVC006 10/09 A2966 RMK SF8 SLP045

CYQB;2010-09-25 09:00;CYQB 250900Z 07009KT 10SM OVC004 09/09 A2966 RMK SF8 SLP044

CYQB;2010-09-25 10:00;CYQB 251000Z 08011KT 8SM OVC004 09/09 A2967 RMK SF8 SLP047

CYQB;2010-09-25 11:00;CYQB 251100Z 08008KT 6SM -SHRA BR OVC005 09/09 A2969 RMK SF8 SLP054

CYQB;2010-09-25 12:00;CYQB 251200Z 08005KT 6SM -DZ BR OVC004 09/09 A2969 RMK SF8 SLP055

CYQB;2010-09-25 13:00;CYQB 251300Z 11012KT 6SM -DZ BR OVC005 09/09 A2970 RMK SF8 SLP061

CYQB;2010-09-25 14:00;CYQB 251400Z 11005KT 4SM -DZ BR OVC006 09/09 A2972 RMK SF8 SLP067

CYQB;2010-09-25 15:00;CYQB 251500Z 07009KT 3SM -DZ BR OVC003 09/09 A2973 RMK SF8 SLP069

CYQB;2010-09-25 15:28;CYQB 251528Z 07006KT 1 1/2SM -RA BR BKN003 OVC010 09/ RMK SF6SF2 VIS VRB 1-2

CYQB;2010-09-25 16:00;CYQB 251600Z 06008KT 3SM -RA BR BKN003 OVC011 09/09 A2973 RMK SF6SC2 SLP071

CYQB;2010-09-25 16:27;CYQB 251627Z 04006KT 1SM R06/P6000FT/D -RA BR BKN004 OVC011 10/ RMK SF7SC1

CYQB;2010-09-25 17:00;CYQB 251700Z 07007KT 2 1/2SM -RA BR OVC003 10/10 A2975 RMK SF8 SLP078

CYQB;2010-09-25 17:19;CYQB 251719Z 07008KT 4SM BR OVC003 11/ RMK SF8

CYQB;2010-09-25 18:00;CYQB 251800Z 06008KT 8SM OVC003 12/11 A2976 RMK SF8 SLP078

CYQB;2010-09-25 18:16;CYQB 251816Z 07007KT 10SM OVC006 12/ RMK SF8

CYQB;2010-09-25 18:33;CYQB 251833Z 07007KT 15SM OVC008 12/ RMK SF8

CYQB;2010-09-25 19:00;CYQB 251900Z 09008KT 10SM OVC006 12/11 A2978 RMK SF8 SLP084

CYQB;2010-09-25 20:00;CYQB 252000Z 09007KT 10SM OVC006 11/10 A2980 RMK ST8 SLP091

CYQB;2010-09-25 20:35;CYQB 252035Z 08009KT 8SM -DZ OVC006 11/ RMK ST8

CYQB;2010-09-25 21:00;CYQB 252100Z 07012KT 12SM -DZ BKN007 OVC014 11/10 A2981 RMK SF6SC2 SLP098

CYQB;2010-09-25 21:48;CYQB 252148Z 07010G16KT 12SM BKN007 OVC015 10/ RMK SF6SC2

CYQB;2010-09-25 22:00;CYQB 252200Z 07012G17KT 12SM BKN007 OVC018 10/09 A2985 RMK SF6SC2 SLP110

CYQB;2010-09-25 22:20;CYQB 252220Z 08011G18KT 8SM -DZ BKN008 OVC018 10/ RMK SF6SC2

CYQB;2010-09-25 23:00;CYQB 252300Z 08016G21KT 12SM BKN009 OVC019 10/09 A2987 RMK SF7SC1 SLP116

CYQB;2010-09-25 23:42;CYQB 252342Z 08015KT 6SM -DZ BKN006 OVC014 09/ RMK SF7SC1

CYQB;2010-09-26 00:00;CYQB 260000Z 09016KT 8SM -DZ BKN009 OVC018 09/08 A2992 RMK SF6SC2 WND ESTD SLP132

CYQB;2010-09-26 01:00;CYQB 260100Z 08014G25KT 6SM -DZ BKN008 OVC022 08/08 A2995 RMK SF6SC2 SLP143

CYQB;2010-09-26 01:27;CYQB 260127Z 09017G22KT 8SM -DZ BKN012 BKN020 OVC037 09/ RMK SF6SC2SC1

CYQB;2010-09-26 02:00;CYQB 260200Z 07014G24KT 5SM -DZ BR SCT007 OVC012 08/07 A2999 RMK SF3SF5 SLP157

CYQB;2010-09-26 03:00;CYQB 260300Z 08016G22KT 15SM FEW007 BKN015 OVC030 08/06 A3002 RMK SF2SC4SC2 SLP169

CYQB;2010-09-26 04:00;CYQB 260400Z 07015G24KT 15SM SCT013 OVC037 08/06 A3004 RMK SC4SC4 SLP174

CYQB;2010-09-26 05:00;CYQB 260500Z 05009G18KT 15SM BKN017 OVC032 08/06 A3006 RMK SC6SC2 SLP182

CYQB;2010-09-26 06:00;CYQB 260600Z 07011KT 15SM SCT023 BKN047 OVC055 08/05 A3008 RMK SC4SC2SC2 SLP187

CYQB;2010-09-26 07:00;CYQB 260700Z 07011G16KT 15SM FEW015 OVC025 08/05 A3010 RMK SC2SC6 SLP194

CYQB;2010-09-26 08:00;CYQB 260800Z 07014G19KT 15SM OVC023 08/05 A3010 RMK SC8 SLP194

CYQB;2010-09-26 09:00;CYQB 260900Z 07016G21KT 15SM OVC024 08/03 A3013 RMK SC8 SLP204

CYQB;2010-09-26 10:00;CYQB 261000Z 07016G21KT 15SM OVC024 08/04 A3015 RMK SC8 SLP213

CYQB;2010-09-26 11:00;CYQB 261100Z 08015G24KT 20SM BKN021 08/04 A3018 RMK SC7 SLP223

CYQB;2010-09-26 12:00;CYQB 261200Z 08015G21KT 30SM FEW020 BKN023 09/05 A3021 RMK SC1SC6 SLP233

CYQB;2010-09-26 13:00;CYQB 261300Z 07015G20KT 30SM FEW015 BKN025 BKN070 BKN090 09/05 A3023 RMK SC1SC5AC1AC1 SLP240

CYQB;2010-09-26 14:00;CYQB 261400Z 09016G26KT 30SM BKN022 BKN090 BKN110 09/M01 A3026 RMK SC5AC2AC1 SLP248

CYQB;2010-09-26 15:00;CYQB 261500Z 07017G27KT 30SM BKN022 OVC100 10/05 A3025 RMK SC7AC1 SLP247

CYQB;2010-09-26 16:00;CYQB 261600Z 06012G20KT 30SM BKN021 OVC100 10/06 A3026 RMK SC7AC1 SLP249

CYQB;2010-09-26 17:00;CYQB 261700Z 08011G17KT 30SM SCT021 BKN100 BKN200 11/06 A3025 RMK SC4AC3CI1 SLP247

CYQB;2010-09-26 18:00;CYQB 261800Z 07014G20KT 30SM BKN022 BKN100 11/06 A3025 RMK SC6AC2 SLP246

CYQB;2010-09-26 19:00;CYQB 261900Z 08009KT 25SM BKN028 OVC100 11/07 A3026 RMK SC6AC2 SLP248

CYQB;2010-09-26 20:00;CYQB 262000Z 07011G17KT 25SM BKN029 OVC110 11/07 A3025 RMK SC7AC1 SLP246

CYQB;2010-09-26 21:00;CYQB 262100Z 08009KT 25SM OVC030 11/07 A3025 RMK SC8 SLP246

CYQB;2010-09-26 22:00;CYQB 262200Z 08008G16KT 25SM OVC028 10/07 A3024 RMK SC8 SLP242

CYQB;2010-09-26 23:00;CYQB 262300Z 07011KT 25SM OVC028 10/06 A3025 RMK SC8 SLP245

CYQB;2010-09-27 00:00;CYQB 270000Z 09007G15KT 25SM OVC025 10/05 A3025 RMK SC8 SLP246

CYQB;2010-09-27 01:00;CYQB 270100Z 07006KT 15SM OVC025 10/06 A3025 RMK SC8 SLP246

CYQB;2010-09-27 02:00;CYQB 270200Z 08007KT 15SM OVC021 10/07 A3025 RMK SC8 SLP247

CYQB;2010-09-27 03:00;CYQB 270300Z 07008KT 15SM OVC019 10/07 A3026 RMK SC8 SLP248

CYQB;2010-09-27 04:00;CYQB 270400Z 07009KT 15SM OVC020 10/07 A3025 RMK SC8 SLP246

CYQB;2010-09-27 05:00;CYQB 270500Z 06010KT 15SM BKN019 OVC037 10/07 A3024 RMK SC7SC1 SLP243

CYQB;2010-09-27 06:00;CYQB 270600Z 07008KT 15SM SCT015 OVC035 10/07 A3024 RMK SC4SC4 SLP241

CYQB;2010-09-27 07:00;CYQB 270700Z 06007KT 15SM FEW028 BKN033 OVC070 10/07 A3022 RMK SC2SC4AC2 SLP237

CYQB;2010-09-27 08:00;CYQB 270800Z 05006KT 5SM -RA BR OVC025 10/08 A3022 RMK SC8 SLP234

CYQB;2010-09-27 09:00;CYQB 270900Z 05006KT 5SM BR FEW020 OVC029 10/09 A3021 RMK SC2SC6 SLP233

CYQB;2010-09-27 10:00;CYQB 271000Z 05007KT 8SM OVC028 10/09 A3022 RMK SC8 SLP234

CYQB;2010-09-27 11:00;CYQB 271100Z 06007KT 8SM OVC027 10/09 A3022 RMK SC8 SLP235

CYQB;2010-09-27 12:00;CYQB 271200Z 06007KT 10SM FEW005 OVC024 10/09 A3022 RMK SF1SC7 SLP234

CYQB;2010-09-27 13:00;CYQB 271300Z 06006KT 10SM FEW006 OVC025 11/09 A3021 RMK SF1SC7 SLP232

CYQB;2010-09-27 14:00;CYQB 271400Z 07007KT 10SM FEW008 BKN024 OVC031 11/09 A3020 RMK SF2SC6SC1 SLP229

CYQB;2010-09-27 15:00;CYQB 271500Z 05007KT 15SM FEW008 OVC030 12/10 A3018 RMK SF1SC7 SLP223

CYQB;2010-09-27 16:00;CYQB 271600Z 05005KT 15SM BKN036 OVC260 13/10 A3016 RMK SC6CI1 SLP214

CYQB;2010-09-27 17:00;CYQB 271700Z 05004KT 15SM FEW030 SCT100 BKN260 16/11 A3013 RMK SC2AC2CI0 SLP205

CYQB;2010-09-27 18:00;CYQB 271800Z 04004KT 15SM FEW040 FEW120 BKN260 17/12 A3010 RMK SC2AC1CI2 SLP193

CYQB;2010-09-27 19:00;CYQB 271900Z 08005KT 25SM FEW040 FEW100 BKN250 18/11 A3007 RMK SC1AC2CI2 SLP184

CYQB;2010-09-27 20:00;CYQB 272000Z 08005KT 25SM FEW040 FEW100 BKN240 18/12 A3005 RMK SC1AC2CI2 SLP178

CYQB;2010-09-27 21:00;CYQB 272100Z 07006KT 20SM FEW040 SCT110 OVC240 17/12 A3004 RMK SC2AC2CI2 SLP173

CYQB;2010-09-27 22:00;CYQB 272200Z 05005KT 20SM SCT040 BKN100 OVC220 16/12 A3004 RMK SC3AC2CI2 SLP175

CYQB;2010-09-27 23:00;CYQB 272300Z 07005KT 20SM SCT035 BKN110 OVC220 15/12 A3004 RMK SC4AC2CI1 SLP173

CYQB;2010-09-27 23:53;CYQB 272353Z 07004KT 10SM -RA BKN035 OVC110 14/ RMK SC5AC3

CYQB;2010-09-28 00:00;CYQB 280000Z 06005KT 10SM -RA BKN035 OVC110 14/13 A3003 RMK SC6AC2 SLP171

CYQB;2010-09-28 01:00;CYQB 280100Z 04004KT 10SM -RA BKN025 OVC120 13/13 A3001 RMK SC6AC2 SLP165

CYQB;2010-09-28 01:38;CYQB 280138Z 05005KT 6SM -RA BR BKN020 OVC040 13/ RMK SC6SC2

CYQB;2010-09-28 02:00;CYQB 280200Z 07005KT 4SM -RA BR FEW004 FEW010 OVC023 13/13 A2998 RMK SF1SF2SC6 SLP155

CYQB;2010-09-28 03:00;CYQB 280300Z 05006KT 4SM -RA BR FEW008 OVC023 14/13 A2995 RMK SF2SC6 SLP145

CYQB;2010-09-28 04:00;CYQB 280400Z 07006KT 2SM -RA BR FEW001 SCT008 OVC018 14/13 A2993 RMK SF2SC2SC4 SLP136

CYQB;2010-09-28 05:00;CYQB 280500Z 08004KT 1 1/2SM -RA BR OVC002 14/13 A2991 RMK FG2SF6 SLP129

CYQB;2010-09-28 06:00;CYQB 280600Z 07005KT 2SM -RA BR SCT002 OVC006 14/14 A2988 RMK SF4SF4 SLP120

CYQB;2010-09-28 07:00;CYQB 280700Z 07005KT 1 1/2SM BR BKN002 OVC006 14/14 A2985 RMK FG2SF3SF2 SLP109

CYQB;2010-09-28 08:00;CYQB 280800Z 07008KT 1 1/2SM RA BR BKN002 OVC009 14/14 A2982 RMK FG2SF3SF2 SLP100

CYQB;2010-09-28 09:00;CYQB 280900Z 07008KT 1 1/2SM -RA BR BKN002 OVC008 14/14 A2981 RMK FG2SF4SF2 SLP094

CYQB;2010-09-28 10:00;CYQB 281000Z 07007KT 1 1/2SM -RA BR OVC002 14/13 A2979 RMK FG2SF6 SLP089

CYQB;2010-09-28 10:50;CYQB 281050Z 07007KT 1SM R06/P6000FT/N -RA BR OVC002 14/ RMK FG3SF5

CYQB;2010-09-28 11:00;CYQB 281100Z 07007KT 1SM R06/P6000FT/D -RA BR BKN002 OVC010 14/13 A2978 RMK FG3SF4SC1 SLP084

CYQB;2010-09-28 11:52;CYQB 281152Z 06008KT 1 1/2SM -RA BR BKN002 OVC010 14/ RMK FG2SF6SC1 CIG RAG

CYQB;2010-09-28 12:00;CYQB 281200Z 07009KT 1 1/2SM -RA BR BKN002 BKN010 OVC015 14/13 A2976 RMK FG2SF5SC1SC1 CIG RAG SLP080

CYQB;2010-09-28 13:00;CYQB 281300Z 06007KT 1 3/4SM -RA BR BKN002 OVC008 14/14 A2975 RMK SF7SC1 CIG RAG SLP077

CYQB;2010-09-28 14:00;CYQB 281400Z 07007KT 1 1/2SM -RA BR OVC002 14/14 A2975 RMK FG1SF7 CIG RAG SLP075

CYQB;2010-09-28 15:00;CYQB 281500Z 07006KT 1 1/2SM -RA BR OVC003 14/14 A2974 RMK FG1SF7 CIG RAG SLP073

CYQB;2010-09-28 15:34;CYQB 281534Z 04005KT 1 1/2SM -RA BR OVC002 14/ RMK FG1SF7 CIG VRB 1-3

CYQB;2010-09-28 16:00;CYQB 281600Z 05004KT 1SM R06/P6000FT/N -RA BR BKN002 OVC008 14/14 A2973 RMK FG1SF6SC1 CIG RAG SLP069

CYQB;2010-09-28 17:00;CYQB 281700Z 06005KT 1SM R06/P6000FT/N -RA BR OVC002 15/15 A2972 RMK FG1SF7 CIG RAG SLP067

CYQB;2010-09-28 18:00;CYQB 281800Z 05004KT 1SM R06/P6000FT/N -RA BR OVC002 15/15 A2971 RMK FG1SF7 CIG RAG SLP062

CYQB;2010-09-28 18:54;CYQB 281854Z 06005KT 2SM -RA BR SCT002 OVC038 15/ RMK SF3SC5

CYQB;2010-09-28 19:00;CYQB 281900Z 06004KT 2SM -RA BR FEW002 OVC040 15/15 A2970 RMK SF2SC6 SLP057

CYQB;2010-09-28 19:23;CYQB 281923Z 06004KT 1SM R06/P6000FT/U -RA BR BKN002 OVC042 15/ RMK FG1SF4SC3

CYQB;2010-09-28 20:00;CYQB 282000Z 08007KT 1SM R06/P6000FT/N -RA BR BKN002 OVC040 15/15 A2967 RMK FG1SF6SC2 CIG VRB 1-3 SLP049

CYQB;2010-09-28 20:23;CYQB 282023Z 07007KT 1/2SM R06/P6000FT/U FG OVC002 15/ RMK FG2SF6 CIG VRB 1-3

CYQB;2010-09-28 20:40;CYQB 282040Z 06007KT 1SM R06/P6000FT/D BR OVC002 15/ RMK FG2SF6 CIG VRB 1-3

CYQB;2010-09-28 21:00;CYQB 282100Z 06010KT 1SM R06/P6000FT/U BR OVC002 15/15 A2965 RMK FG2SF6 CIG VRB 1-3 SLP043

CYQB;2010-09-28 22:00;CYQB 282200Z 08007KT 1SM R06/P6000FT/U BR OVC002 14/14 A2964 RMK FG2SF6 CIG VRB 1-3 SLP040

CYQB;2010-09-28 23:00;CYQB 282300Z 08009KT 1 1/2SM -RA BR OVC002 13/13 A2964 RMK SF8 CIG VRB 1-3 SLP039

CYQB;2010-09-29 00:00;CYQB 290000Z 07010G16KT 3SM -RA BR OVC002 13/13 A2963 RMK SF8 CIG VRB 1-3 SLP036

CYQB;2010-09-29 01:00;CYQB 290100Z 06009KT 3SM -RA BR OVC002 13/13 A2962 RMK SF8 CIG VRB 1-3 SLP032

CYQB;2010-09-29 01:34;CYQB 290134Z 06006G18KT 3SM R06/4500VP6000FT/D RA BR SCT002 BKN005 OVC015 13/ RMK SF3SF2SC3

CYQB;2010-09-29 01:38;CYQB 290138Z 01005G18KT 4SM R06/4500VP6000FT/N -RA BR SCT004 BKN018 OVC039 13/ RMK SF3SC3SC2 RERA

CYQB;2010-09-29 02:00;CYQB 290200Z 10007KT 4SM -RA BR SCT004 BKN018 OVC050 14/13 A2964 RERA RMK SF3SC2SC2 SLP038

CYQB;2010-09-29 02:49;CYQB 290249Z 05007KT 4SM BR BKN002 OVC011 13/ RMK SF5SC3

CYQB;2010-09-29 03:00;CYQB 290300Z 06004KT 1 1/2SM BR BKN002 OVC012 13/13 A2963 RMK FG2SF4SC2 SLP035

CYQB;2010-09-29 03:19;CYQB 290319Z CCA 07004KT 1/2SM R06/P6000FT/N -DZ FG VV002 14/ RMK FG8

CYQB;2010-09-29 03:43;CYQB 290343Z 05005KT 3SM -RA BR BKN002 OVC018 14/ RMK SF5SC3

CYQB;2010-09-29 04:00;CYQB 290400Z 07005KT 4SM -RA BR BKN002 OVC018 14/13 A2964 RMK SF5SC3 SLP037

CYQB;2010-09-29 04:33;CYQB 290433Z 08006KT 5SM BR BKN003 OVC020 13/ RMK SF5SC3

CYQB;2010-09-29 05:00;CYQB 290500Z 05007KT 6SM BR SCT003 OVC017 13/13 A2964 RMK SF3SC5 SLP040

CYQB;2010-09-29 05:32;CYQB 290532Z 04007KT 6SM BR BKN003 OVC015 13/ RMK SF5SC3

CYQB;2010-09-29 06:00;CYQB 290600Z 09004KT 6SM BR BKN003 BKN015 OVC042 13/12 A2963 RMK SF5SC2SC1 SLP036

CYQB;2010-09-29 07:00;CYQB 290700Z 06004KT 3/8SM R06/P6000FT/N FG VV003 13/13 A2964 RMK FG8 SLP038

CYQB;2010-09-29 07:20;CYQB 290720Z CCA 07005KT 1 1/2SM BR OVC003 13/ RMK FG2SF6

CYQB;2010-09-29 08:00;CYQB 290800Z 08004KT 3SM BR OVC003 13/13 A2967 RMK SF8 SLP048

CYQB;2010-09-29 09:00;CYQB 290900Z 08003KT 3SM BR BKN003 OVC006 12/12 A2970 RMK SF6SF2 SLP057

CYQB;2010-09-29 10:00;CYQB 291000Z 06005KT 1 1/2SM BR BKN001 BKN025 OVC048 12/12 A2971 RMK FG1SF4SC2SC2 SLP061

CYQB;2010-09-29 10:15;CYQB 291015Z 09003KT 1 1/2SM BR BKN002 OVC029 12/ RMK FG1SF6SC1

CYQB;2010-09-29 10:41;CYQB 291041Z 00000KT 3SM BR SCT002 BKN026 OVC050 12/ RMK SF4SC3SC1

CYQB;2010-09-29 11:00;CYQB 291100Z 02002KT 5SM BR FEW001 OVC026 12/12 A2972 RMK SF2SC6 SLP065

CYQB;2010-09-29 12:00;CYQB 291200Z 00000KT 15SM FEW001 OVC027 13/13 A2974 RMK SF1SC7 SLP071

CYQB;2010-09-29 13:00;CYQB 291300Z 23013G18KT 20SM FEW010 FEW020 BKN044 16/14 A2976 RMK SF1SC1SC6 SLP078

CYQB;2010-09-29 14:00;CYQB 291400Z 23013KT 30SM OVC023 16/14 A2977 RMK SC8 SLP082

CYQB;2010-09-29 15:00;CYQB 291500Z 24014KT 30SM OVC021 16/13 A2977 RMK SC8 CIG RAG SLP083

CYQB;2010-09-29 16:00;CYQB 291600Z 24013KT 30SM OVC025 16/13 A2978 RMK SC8 SLP086

CYQB;2010-09-29 17:00;CYQB 291700Z 24013G19KT 30SM BKN023 17/14 A2980 RMK SC7 SLP091

CYQB;2010-09-29 18:00;CYQB 291800Z 25012G17KT 30SM BKN034 OVC057 17/13 A2982 RMK SC6SC2 SLP098

CYQB;2010-09-29 19:00;CYQB 291900Z 24013G18KT 30SM OVC032 17/13 A2983 RMK SC8 SLP102

CYQB;2010-09-29 20:00;CYQB 292000Z 24016G21KT 30SM OVC031 17/12 A2984 RMK SC8 SLP105

CYQB;2010-09-29 21:00;CYQB 292100Z 24014KT 30SM OVC027 16/12 A2986 RMK SC8 SLP114

CYQB;2010-09-29 22:00;CYQB 292200Z 23010KT 30SM OVC028 16/12 A2989 RMK SC8 SLP121

CYQB;2010-09-29 23:00;CYQB 292300Z 24009KT 30SM SCT025 BKN042 15/12 A2990 RMK SC3SC4 SLP126

CYQB;2010-09-30 00:00;CYQB 300000Z 24009KT 30SM FEW025 OVC040 15/12 A2994 RMK SC2SC6 SLP138

CYQB;2010-09-30 01:00;CYQB 300100Z 22006KT 15SM FEW022 BKN031 OVC040 15/12 A2996 RMK SC1SC5SC2 SLP146

CYQB;2010-09-30 02:00;CYQB 300200Z 25009KT 15SM OVC038 15/12 A2995 RMK SC8 SLP144

CYQB;2010-09-30 03:00;CYQB 300300Z 26005KT 15SM OVC033 14/12 A2996 RMK SC8 SLP145

CYQB;2010-09-30 04:00;CYQB 300400Z 24003KT 15SM OVC031 14/12 A2997 RMK SC8 SLP148

CYQB;2010-09-30 05:00;CYQB 300500Z 19002KT 15SM OVC029 13/12 A2996 RMK SC8 SLP145

CYQB;2010-09-30 06:00;CYQB 300600Z 19003KT 15SM OVC029 13/12 A2996 RMK SC8 SLP146

CYQB;2010-09-30 07:00;CYQB 300700Z 00000KT 15SM OVC030 13/12 A2995 RMK SC8 SLP144

CYQB;2010-09-30 08:00;CYQB 300800Z 00000KT 15SM BKN029 12/11 A2998 RMK SC7 SLP152

CYQB;2010-09-30 09:00;CYQB 300900Z 00000KT 15SM BKN037 12/11 A2998 RMK SC7 SLP154

CYQB;2010-09-30 10:00;CYQB 301000Z 00000KT 15SM BKN035 OVC160 12/11 A2997 RMK SC5AC3 SLP152

CYQB;2010-09-30 11:00;CYQB 301100Z 00000KT 30SM BKN029 OVC150 12/11 A2997 RMK SC5AC3 SLP152

CYQB;2010-09-30 12:00;CYQB 301200Z 00000KT 30SM BKN040 OVC100 13/12 A2996 RMK SC6AC2 SLP148

CYQB;2010-09-30 12:05;CYQB 301205Z 04002KT 15SM -RA BKN040 OVC090 13/ RMK SC6AC2

CYQB;2010-09-30 13:00;CYQB 301300Z 04004KT 15SM -RA OVC040 14/12 A2995 RMK SC8 SLP145

CYQB;2010-09-30 14:00;CYQB 301400Z 04002KT 6SM -RA BR BKN040 OVC070 14/12 A2995 RMK SC6AC2 SLP144

CYQB;2010-09-30 15:00;CYQB 301500Z 04003KT 4SM -RA BR FEW005 FEW010 OVC040 14/13 A2995 RMK SF1SF1SC6 SLP143

CYQB;2010-09-30 16:00;CYQB 301600Z 06005KT 3SM -RA BR FEW005 FEW010 OVC033 14/13 A2992 RMK SF1SF1SC6 SLP131

CYQB;2010-09-30 16:53;CYQB 301653Z 05005KT 3SM -RA BR BKN007 OVC018 14/ RMK SF6SC2

CYQB;2010-09-30 17:00;CYQB 301700Z 06006KT 3SM -RA BR BKN008 OVC018 14/14 A2989 RMK SF6SC2 SLP123

CYQB;2010-09-30 18:00;CYQB 301800Z 07005KT 4SM -RA BR FEW003 BKN006 OVC015 14/14 A2985 RMK SF2SF5SC2 SLP110

CYQB;2010-09-30 19:00;CYQB 301900Z 07006KT 5SM -RA BR BKN007 OVC030 14/14 A2983 RMK SF5SC3 SLP102

CYQB;2010-09-30 20:00;CYQB 302000Z 07008KT 3SM -RA BR BKN005 OVC021 14/14 A2979 RMK SF5SC3 SLP088

CYQB;2010-09-30 20:11;CYQB 302011Z 07006KT 2 1/2SM -RA BR BKN003 OVC018 14/ RMK SF6SC2 CIG VRB 2-4

CYQB;2010-09-30 21:00;CYQB 302100Z 08006KT 1 1/2SM -RA BR BKN003 OVC015 15/14 A2977 RMK SF6SC2 CIG VRB 2-4 SLP081

CYQB;2010-09-30 22:00;CYQB 302200Z 07006KT 2SM -RA BR OVC003 15/15 A2975 RMK SF8 CIG VRB 2-4 SLP075

CYQB;2010-09-30 23:00;CYQB 302300Z 11006KT 2SM -RA BR OVC003 15/15 A2975 RMK SF8 CIG VRB 2-4 SLP074

CYQB;2010-10-01 01:00;CYQB 010100Z 08009KT 3SM -RA BR OVC003 14/14 A2961 RMK SF8 CIG VRB 2-4 SLP030

CYQB;2010-10-01 02:00;CYQB 010200Z 08011KT 3SM -RA BR OVC003 14/14 A2955 RMK SF8 CIG VRB 2-4 PRESFR SLP009

CYQB;2010-10-01 03:00;CYQB 010300Z 08010G17KT 3SM -RA BR OVC003 15/14 A2945 RMK SF8 CIG VRB 2-4 PRESFR SLP975

CYQB;2010-10-01 03:39;CYQB 010339Z 09005G51KT 1SM R06/P6000FT/D RA BR BKN003 OVC012 16/ RMK SF6SC2

CYQB;2010-10-01 04:00;CYQB 010400Z 35007KT 6SM -RA BR SCT003 OVC045 16/16 A2948 RMK SF3SC5 SLP983

CYQB;2010-10-01 05:00;CYQB 010500Z 31008KT 10SM -RA FEW010 BKN022 OVC030 17/16 A2950 RMK SF1SC6SC2 SLP992

CYQB;2010-10-01 06:00;CYQB 010600Z 29010G17KT 10SM FEW010 FEW018 OVC035 16/15 A2956 RMK SF1SC2SC6 SLP010

CYQB;2010-10-01 07:00;CYQB 010700Z 23010KT 15SM FEW010 FEW020 FEW042 BKN100 OVC150 16/14 A2958 RMK SF1SC1SC1AC6AC2 SLP018

CYQB;2010-10-01 08:00;CYQB 010800Z 25015KT 10SM -RA OVC057 15/14 A2963 RMK SC8 SLP034

CYQB;2010-10-01 09:00;CYQB 010900Z 26013G18KT 10SM -RA BKN060 OVC100 14/14 A2967 RMK SC5AC3 SLP048

CYQB;2010-10-01 10:00;CYQB 011000Z 26009KT 10SM -RA BKN060 OVC090 14/14 A2970 RMK SC5AC3 SLP059

CYQB;2010-10-01 11:00;CYQB 011100Z 23010KT 8SM -RA FEW030 BKN050 OVC100 14/13 A2972 RMK SC2SC3AC2 SLP064

CYQB;2010-10-01 11:48;CYQB 011148Z 23007KT 3SM -RA BR FEW030 BKN045 OVC100 14/ RMK SC2SC3AC2

CYQB;2010-10-01 12:00;CYQB 011200Z 22007KT 3SM -RA BR FEW010 FEW030 BKN045 OVC080 14/14 A2973 RMK SF1SC2SC3AC2 SLP068

CYQB;2010-10-01 12:37;CYQB 011237Z 24009KT 2SM -RA BR SCT010 BKN035 OVC070 14/ RMK SF3SC3AC2

CYQB;2010-10-01 13:00;CYQB 011300Z 25007KT 2SM -RA BR SCT007 BKN035 OVC065 14/14 A2974 RMK SF3SC3AC2 SLP073

CYQB;2010-10-01 14:00;CYQB 011400Z 24006KT 2 1/2SM -RA BR SCT007 BKN038 OVC065 14/14 A2974 RMK SF3SC3AC2 SLP071

CYQB;2010-10-01 15:00;CYQB 011500Z 26002KT 2SM -RA BR SCT007 BKN028 OVC045 14/14 A2970 RMK SF3SC3AC2 SLP059

CYQB;2010-10-01 16:00;CYQB 011600Z 20003KT 2 1/2SM -RA BR SCT007 BKN030 OVC045 14/14 A2971 RMK SF4SC3SC1 SLP062

CYQB;2010-10-01 16:45;CYQB 011645Z 26004KT 2SM -RA BR BKN004 BKN030 OVC045 15/ RMK SF5SC2SC1

CYQB;2010-10-01 17:00;CYQB 011700Z 24004KT 3SM -RA BR BKN006 BKN030 OVC067 15/14 A2970 RMK SF5SC2SC2 SLP057

CYQB;2010-10-01 17:32;CYQB 011732Z 21002KT 5SM -RA BR FEW005 SCT030 OVC094 15/ RMK SF2SC1AC5 PCPN VRY LGT

CYQB;2010-10-01 18:00;CYQB 011800Z 26004KT 3SM -RA BR SCT005 BKN030 OVC049 15/14 A2968 RMK SF3SC2SC2 SLP050

CYQB;2010-10-01 19:00;CYQB 011900Z 22006KT 2SM -RA BR SCT005 BKN028 OVC049 15/14 A2971 RMK SF4SC2SC2 SLP061

CYQB;2010-10-01 19:46;CYQB 011946Z 24003KT 5SM -RA BR FEW005 SCT028 OVC058 15/ RMK SF2SC1SC5

CYQB;2010-10-01 20:32;CYQB 012032Z 26003KT 8SM FEW005 BKN030 OVC046 15/ RMK SF2SC3SC3 BR SE-SW

CYQB;2010-10-01 21:00;CYQB 012100Z 26004KT 8SM FEW005 BKN032 OVC080 15/14 A2971 RMK SF2SC5AC2 SLP062

CYQB;2010-10-01 22:00;CYQB 012200Z 28006KT 10SM FEW007 FEW030 BKN051 BKN180 14/13 A2971 RMK ST1SC1SC5AC1 SLP063

CYQB;2010-10-01 23:00;CYQB 012300Z 29007KT 15SM FEW008 BKN045 BKN080 BKN200 14/12 A2972 RMK ST1SC5AC1CI1 SLP065

CYQB;2010-10-02 00:00;CYQB 020000Z 32009KT 15SM BKN057 BKN072 BKN200 14/11 A2972 RMK SC5AC1CI1 SLP064

CYQB;2010-10-02 01:00;CYQB 020100Z 22004KT 15SM BKN066 BKN080 13/10 A2975 RMK SC5AC2 SLP077

CYQB;2010-10-02 02:00;CYQB 020200Z 30006KT 15SM BKN070 OVC080 12/10 A2976 RMK AC6AC2 SLP080

CYQB;2010-10-02 03:00;CYQB 020300Z 31007KT 15SM BKN072 11/09 A2975 RMK AC6 SLP077

CYQB;2010-10-02 04:00;CYQB 020400Z 29007KT 15SM BKN080 10/08 A2975 RMK AC5 SLP074

CYQB;2010-10-02 05:00;CYQB 020500Z 31005KT 15SM FEW070 09/07 A2975 RMK AC2 SLP074

CYQB;2010-10-02 06:00;CYQB 020600Z 29005KT 15SM FEW070 08/06 A2973 RMK AC1 SLP070

CYQB;2010-10-02 07:00;CYQB 020700Z 28006KT 15SM FEW070 08/06 A2973 RMK AC1 SLP069

CYQB;2010-10-02 08:00;CYQB 020800Z 28004KT 15SM FEW070 08/05 A2974 RMK AC1 SLP071

CYQB;2010-10-02 09:00;CYQB 020900Z 27008KT 15SM FEW030 07/05 A2977 RMK SC1 SLP082

CYQB;2010-10-02 10:00;CYQB 021000Z 25009KT 15SM FEW030 06/04 A2979 RMK SC1 SLP090

CYQB;2010-10-02 11:00;CYQB 021100Z 26008KT 30SM FEW030 05/04 A2980 RMK SC1 SLP093

CYQB;2010-10-02 12:00;CYQB 021200Z 24013KT 30SM FEW030 07/05 A2983 RMK SC1 SLP102

CYQB;2010-10-02 13:00;CYQB 021300Z 26013KT 30SM SCT030 09/06 A2984 RMK SC3 SLP108

CYQB;2010-10-02 14:00;CYQB 021400Z 28012G17KT 30SM SCT030 10/05 A2986 RMK SC4 SLP114

CYQB;2010-10-02 15:00;CYQB 021500Z 29013KT 30SM BKN032 10/04 A2988 RMK SC7 SLP121

CYQB;2010-10-02 16:00;CYQB 021600Z 30010G16KT 30SM BKN037 11/04 A2989 RMK SC6 SLP125

CYQB;2010-10-02 17:00;CYQB 021700Z 30007G17KT 30SM BKN043 11/04 A2991 RMK SC6 SLP129

CYQB;2010-10-02 18:00;CYQB 021800Z 26016KT 30SM BKN044 13/05 A2990 RMK SC5 SLP127

CYQB;2010-10-02 19:00;CYQB 021900Z 26016KT 30SM BKN043 12/05 A2991 RMK SC5 SLP131

CYQB;2010-10-02 20:00;CYQB 022000Z 26010G18KT 30SM SCT051 12/05 A2993 RMK SC4 SLP136

CYQB;2010-10-02 21:00;CYQB 022100Z 25014KT 30SM BKN059 12/05 A2995 RMK SC5 DIST SH NW-N SLP144

CYQB;2010-10-02 22:00;CYQB 022200Z 24009KT 30SM BKN045 11/05 A2998 RMK SC6 SLP155

CYQB;2010-10-02 22:40;CYQB 022240Z 27007KT 30SM -SHRA BKN044 BKN060 10/ RMK SC6SC1

CYQB;2010-10-02 23:00;CYQB 022300Z 25004KT 15SM SCT045 BKN064 09/06 A3001 RMK SC4SC2 SLP163

CYQB;2010-10-03 00:00;CYQB 030000Z 27007KT 15SM BKN051 BKN065 09/06 A3004 RMK SC5SC2 SLP175

CYQB;2010-10-03 01:00;CYQB 030100Z 26006KT 15SM SCT050 BKN067 08/05 A3006 RMK SC4AC3 SLP180

CYQB;2010-10-03 02:00;CYQB 030200Z 26006KT 15SM BKN063 08/05 A3006 RMK SC6 SLP183

CYQB;2010-10-03 03:00;CYQB 030300Z 23006KT 15SM FEW060 06/04 A3008 RMK SC2 SLP187

CYQB;2010-10-03 04:00;CYQB 030400Z 25005KT 15SM SKC 05/03 A3008 RMK SLP190

CYQB;2010-10-03 05:00;CYQB 030500Z 24004KT 15SM SKC 05/03 A3010 RMK SLP195

CYQB;2010-10-03 06:00;CYQB 030600Z 28003KT 15SM SKC 06/02 A3012 RMK SLP203

CYQB;2010-10-03 07:00;CYQB 030700Z 27006KT 15SM SKC 04/01 A3014 RMK SLP207

CYQB;2010-10-03 08:00;CYQB 030800Z 26004KT 15SM SKC 04/02 A3015 RMK SLP213

CYQB;2010-10-03 09:00;CYQB 030900Z 27005KT 15SM SKC 02/01 A3018 RMK SLP222

CYQB;2010-10-03 10:00;CYQB 031000Z 24005KT 15SM FEW075 02/01 A3020 RMK AC1 SLP229

CYQB;2010-10-03 11:00;CYQB 031100Z 27005KT 25SM FEW080 FEW220 02/01 A3023 RMK AC1CI1 SLP238

CYQB;2010-10-03 12:00;CYQB 031200Z 28005KT 30SM FEW020 FEW120 05/03 A3025 RMK SC1AC1 SLP246

CYQB;2010-10-03 13:00;CYQB 031300Z 28004KT 30SM FEW020 FEW120 FEW240 08/04 A3028 RMK SC1AC1CI1 SLP256

CYQB;2010-10-03 14:00;CYQB 031400Z 30004KT 30SM FEW030 FEW100 09/03 A3030 RMK SC1AC2 SLP262

CYQB;2010-10-03 15:00;CYQB 031500Z 36004KT 30SM FEW030 FEW080 10/03 A3030 RMK SC1AC2 SLP264

CYQB;2010-10-03 16:00;CYQB 031600Z 30003KT 30SM FEW035 SCT080 12/02 A3030 RMK SC2AC2 SLP263

CYQB;2010-10-03 17:00;CYQB 031700Z 26007KT 30SM FEW035 SCT050 SCT075 12/03 A3030 RMK SC1SC2AC1 SLP262

CYQB;2010-10-03 18:00;CYQB 031800Z 25005KT 30SM SCT055 13/03 A3029 RMK SC4 SLP259

CYQB;2010-10-03 19:00;CYQB 031900Z 22008KT 30SM BKN058 12/04 A3029 RMK SC5 SLP260

CYQB;2010-10-03 20:00;CYQB 032000Z 21006KT 30SM SCT060 SCT230 12/03 A3029 RMK SC4CI1 SLP259

CYQB;2010-10-03 21:00;CYQB 032100Z 23006KT 30SM SCT060 13/03 A3029 RMK SC4 SLP261

CYQB;2010-10-03 22:00;CYQB 032200Z 18003KT 30SM SCT062 12/04 A3030 RMK SC4 SLP265

CYQB;2010-10-03 23:00;CYQB 032300Z 06002KT 30SM FEW060 09/04 A3031 RMK SC2 SLP267

CYQB;2010-10-04 00:00;CYQB 040000Z 01005KT 30SM FEW060 10/04 A3033 RMK SC2 SLP275

CYQB;2010-10-04 01:00;CYQB 040100Z 36003KT 15SM BKN054 10/04 A3036 RMK SC3 SLP284

CYQB;2010-10-04 02:00;CYQB 040200Z 04007KT 15SM FEW054 09/03 A3038 RMK SC1 SLP289

CYQB;2010-10-04 03:00;CYQB 040300Z 01003KT 15SM FEW054 07/03 A3038 RMK SC1 SLP291

CYQB;2010-10-04 04:00;CYQB 040400Z 36005KT 15SM SKC 06/02 A3039 RMK SLP294

CYQB;2010-10-04 05:00;CYQB 040500Z 01003KT 15SM SKC 05/02 A3041 RMK SLP299

CYQB;2010-10-04 06:00;CYQB 040600Z 01005KT 15SM SKC 05/02 A3040 RMK SLP298

CYQB;2010-10-04 07:00;CYQB 040700Z 01006KT 15SM SKC 04/02 A3040 RMK SLP296

CYQB;2010-10-04 08:00;CYQB 040800Z 02006KT 15SM SKC 04/01 A3039 RMK SLP293

CYQB;2010-10-04 09:00;CYQB 040900Z 01007KT 15SM SKC 03/01 A3040 RMK SLP298

CYQB;2010-10-04 10:00;CYQB 041000Z 01006KT 15SM FEW030 FEW070 03/01 A3041 RMK SC1AC1 SLP302

CYQB;2010-10-04 11:00;CYQB 041100Z 36004KT 25SM FEW070 03/01 A3042 RMK AC1 SLP303

CYQB;2010-10-04 12:00;CYQB 041200Z 36006KT 25SM FEW040 FEW240 04/02 A3042 RMK SC1CI1 SLP303

CYQB;2010-10-04 13:00;CYQB 041300Z 00000KT 25SM FEW040 FEW240 08/04 A3044 RMK SC1CI1 SLP310

CYQB;2010-10-04 14:00;CYQB 041400Z 07009KT 25SM FEW030 FEW240 10/05 A3042 RMK SC1CI1 SLP303

CYQB;2010-10-04 15:00;CYQB 041500Z 06008KT 25SM FEW025 FEW240 12/07 A3040 RMK SC2CI1 SLP298

CYQB;2010-10-04 16:00;CYQB 041600Z 07006KT 25SM FEW025 12/06 A3039 RMK SC1 SLP292

CYQB;2010-10-04 17:00;CYQB 041700Z 08006KT 25SM FEW025 13/05 A3036 RMK CU1 SLP284

CYQB;2010-10-04 18:00;CYQB 041800Z 05005KT 25SM FEW025 13/04 A3032 RMK CU1 SLP269

CYQB;2010-10-04 19:00;CYQB 041900Z 08003KT 30SM SKC 14/04 A3030 RMK SLP263

CYQB;2010-10-04 20:00;CYQB 042000Z 05003KT 30SM FEW100 15/05 A3028 RMK AC1 SLP255

CYQB;2010-10-04 21:00;CYQB 042100Z 09003KT 30SM FEW100 14/05 A3027 RMK AC1 SLP251

CYQB;2010-10-04 22:00;CYQB 042200Z 08003KT 25SM FEW100 14/04 A3025 RMK AC1 SLP246

CYQB;2010-10-04 23:00;CYQB 042300Z 08003KT 25SM FEW100 14/04 A3025 RMK AC1 SLP246

CYQB;2010-10-05 00:00;CYQB 050000Z 00000KT 15SM SKC 08/05 A3026 RMK SLP249

CYQB;2010-10-05 01:00;CYQB 050100Z 36004KT 15SM SKC 08/04 A3025 RMK SLP248

CYQB;2010-10-05 02:00;CYQB 050200Z 03006KT 15SM SKC 08/04 A3025 RMK SLP247

CYQB;2010-10-05 03:00;CYQB 050300Z 02005KT 15SM SKC 07/03 A3024 RMK SLP243

CYQB;2010-10-05 04:00;CYQB 050400Z 01003KT 15SM SKC 07/03 A3023 RMK SLP238

CYQB;2010-10-05 05:00;CYQB 050500Z 02003KT 15SM SKC 06/03 A3022 RMK SLP234

CYQB;2010-10-05 06:00;CYQB 050600Z 01005KT 15SM SKC 06/03 A3020 RMK SLP229

CYQB;2010-10-05 07:00;CYQB 050700Z 01006KT 15SM SKC 06/03 A3019 RMK SLP227

CYQB;2010-10-05 08:00;CYQB 050800Z 00000KT 15SM SKC 04/03 A3019 RMK SLP227

CYQB;2010-10-05 09:00;CYQB 050900Z 36002KT 15SM SKC 03/02 A3019 RMK SLP224

CYQB;2010-10-05 10:00;CYQB 051000Z CCA 08002KT 15SM FEW070 01/00 A3019 RMK AC1 SLP225

CYQB;2010-10-05 11:00;CYQB 051100Z 29003KT 25SM VCFG FEW070 02/00 A3020 RMK AC1 VIS W-NW 3 FG BNK SLP228

CYQB;2010-10-05 12:00;CYQB 051200Z 26003KT 25SM VCFG FEW070 03/02 A3021 RMK AC1 VIS W-NW 3 FG BKN SLP232

CYQB;2010-10-05 13:00;CYQB 051300Z 24003KT 25SM VCFG SKC 07/05 A3023 RMK VIS W-NW 3 FG BNK SLP239

CYQB;2010-10-05 14:00;CYQB 051400Z 00000KT 25SM FEW030 09/05 A3022 RMK SC1 VIS NW 3 FG BNK SLP235

CYQB;2010-10-05 15:00;CYQB 051500Z 00000KT 25SM SKC 13/06 A3021 RMK SLP232

CYQB;2010-10-05 16:00;CYQB 051600Z 00000KT 25SM FEW070 15/04 A3020 RMK AC1 SLP228

CYQB;2010-10-05 17:00;CYQB 051700Z 03002KT 25SM SKC 18/04 A3017 RMK SLP220

CYQB;2010-10-05 18:00;CYQB 051800Z 19007KT 25SM SKC 17/02 A3016 RMK SLP214

CYQB;2010-10-05 19:00;CYQB 051900Z 22005KT 30SM SKC 18/00 A3015 RMK SLP211

CYQB;2010-10-05 20:00;CYQB 052000Z 26003KT 30SM SKC 19/03 A3014 RMK SLP208

CYQB;2010-10-05 21:00;CYQB 052100Z 11002KT 30SM SKC 19/04 A3014 RMK SLP208

CYQB;2010-10-05 22:00;CYQB 052200Z 08005KT 30SM SKC 16/04 A3015 RMK SLP213

CYQB;2010-10-05 23:00;CYQB 052300Z 34003KT 15SM SKC 14/05 A3017 RMK SLP219

CYQB;2010-10-06 00:00;CYQB 060000Z 01004KT 15SM SKC 12/06 A3018 RMK SLP222

CYQB;2010-10-06 01:00;CYQB 060100Z 06003KT 15SM SKC 10/05 A3020 RMK SLP229

CYQB;2010-10-06 02:00;CYQB 060200Z CCA 04004KT 15SM SKC 10/05 A3021 RMK SLP233

CYQB;2010-10-06 03:00;CYQB 060300Z 03005KT 15SM SKC 10/05 A3022 RMK SLP236

CYQB;2010-10-06 04:00;CYQB 060400Z 01006KT 15SM SKC 10/05 A3022 RMK SLP237

CYQB;2010-10-06 05:00;CYQB 060500Z 02003KT 15SM SKC 09/04 A3023 RMK SLP239

CYQB;2010-10-06 06:00;CYQB 060600Z 36004KT 15SM SKC 07/04 A3024 RMK SLP242

CYQB;2010-10-06 07:00;CYQB 060700Z 02005KT 15SM SKC 07/04 A3023 RMK SLP240

CYQB;2010-10-06 08:00;CYQB 060800Z 05005KT 15SM SKC 08/05 A3025 RMK SLP245

CYQB;2010-10-06 09:00;CYQB 060900Z 05009KT 15SM SKC 09/06 A3024 RMK SLP241

CYQB;2010-10-06 10:00;CYQB 061000Z 07009G15KT 15SM FEW100 07/03 A3024 RMK AC1 SLP241

CYQB;2010-10-06 11:00;CYQB 061100Z 07012G17KT 25SM FEW100 FEW240 07/03 A3024 RMK AC1CI0 SLP240

CYQB;2010-10-06 12:00;CYQB 061200Z CCA 06013G19KT 25SM FEW100 BKN240 10/05 A3021 RMK AC1CI6 SLP233

CYQB;2010-10-06 13:00;CYQB 061300Z 07015G20KT 25SM FEW060 BKN240 11/05 A3022 RMK SC1CI6 SLP236

CYQB;2010-10-06 14:00;CYQB 061400Z 07014G21KT 25SM FEW060 SCT150 OVC220 11/05 A3021 RMK SC1AC3CI4 SLP231

CYQB;2010-10-06 15:00;CYQB 061500Z 06014G24KT 25SM FEW070 SCT150 OVC220 12/05 A3017 RMK AC1AC3CI5 SLP218

CYQB;2010-10-06 16:00;CYQB 061600Z 08010KT 25SM SCT070 SCT150 OVC220 13/06 A3015 RMK AC3AC1CI4 SLP211

CYQB;2010-10-06 17:00;CYQB 061700Z 07015G21KT 25SM BKN085 BKN150 OVC220 13/06 A3011 RMK AC5AC2CI2 SLP198

CYQB;2010-10-06 18:00;CYQB 061800Z 07010G17KT 25SM BKN076 BKN150 OVC220 14/07 A3005 RMK AC6AC2CI1 SLP178

CYQB;2010-10-06 19:00;CYQB 061900Z 05011KT 30SM BKN082 OVC220 14/07 A3000 RMK AC6CI2 SLP162

CYQB;2010-10-06 20:00;CYQB 062000Z 06007KT 30SM BKN072 OVC220 13/08 A2997 RMK AC7CI1 SLP152

CYQB;2010-10-06 21:00;CYQB 062100Z 07011KT 30SM BKN072 OVC180 12/08 A2994 RMK AC5AS3 PRESFR SLP140

CYQB;2010-10-06 22:00;CYQB 062200Z 06014KT 30SM FEW070 OVC120 12/08 A2990 RMK AC2AS6 SLP126

CYQB;2010-10-06 22:14;CYQB 062214Z 06010KT 30SM -RA BKN069 OVC120 11/ RMK AC5AS3

CYQB;2010-10-06 23:00;CYQB 062300Z 07008KT 15SM -SHRA BKN070 OVC120 11/08 A2987 RMK AC5AS3 SLP118

CYQB;2010-10-07 00:00;CYQB 070000Z 07009G15KT 15SM -SHRA BKN070 OVC110 11/08 A2984 RMK AC5AC3 SLP106

CYQB;2010-10-07 01:00;CYQB 070100Z 09007KT 8SM -SHRA BKN041 OVC070 10/08 A2987 RMK SC6AC2 SLP116

CYQB;2010-10-07 02:00;CYQB 070200Z 05010KT 6SM -RA BR SCT006 BKN025 OVC040 10/09 A2983 RMK SF3SC3SC2 SLP103

CYQB;2010-10-07 03:00;CYQB 070300Z 06009KT 6SM -RA BR SCT004 OVC023 09/09 A2978 RMK SF3SC5 SLP088

CYQB;2010-10-07 03:18;CYQB 070318Z 06008KT 4SM -RA BR BKN004 OVC030 09/ RMK SF6SC2

CYQB;2010-10-07 04:00;CYQB 070400Z 07009KT 6SM -RA BR FEW003 BKN005 OVC010 09/09 A2973 RMK SF2SF4SC2 SLP070

CYQB;2010-10-07 05:00;CYQB 070500Z 07013KT 8SM BKN004 OVC010 09/09 A2967 RMK SF5SF3 SLP051

CYQB;2010-10-07 05:42;CYQB 070542Z 06011KT 8SM BKN005 OVC012 10/ RMK SF6SC2 CIG RAG

CYQB;2010-10-07 06:00;CYQB 070600Z 07011KT 8SM BKN005 OVC012 10/09 A2963 RMK SF6SC2 CIG RAG SLP036

CYQB;2010-10-07 07:00;CYQB 070700Z 05007KT 8SM BKN007 OVC009 09/09 A2959 RMK SF6SF2 SLP020

CYQB;2010-10-07 08:00;CYQB 070800Z 06007KT 8SM BKN007 OVC014 10/09 A2955 RMK SF6SF2 CIG RAG SLP007

CYQB;2010-10-07 09:00;CYQB 070900Z 05007KT 8SM BKN008 OVC016 09/09 A2949 RMK SF5SF3 SLP989

CYQB;2010-10-07 10:00;CYQB 071000Z 02002KT 8SM FEW008 OVC016 10/08 A2947 RMK SF2SC6 SLP981

CYQB;2010-10-07 10:33;CYQB 071033Z 33004KT 3SM -DZ FEW008 OVC016 09/ RMK SF2SC6

CYQB;2010-10-07 10:42;CYQB 071042Z 33005KT 2SM -DZ BR FEW008 OVC016 09/ RMK FG2SF1SC6

CYQB;2010-10-07 11:00;CYQB 071100Z 34003KT 2SM -DZ BR FEW008 SCT016 OVC029 09/09 A2944 RMK FG2SF1SC2SC4 SLP972

CYQB;2010-10-07 11:13;CYQB 071113Z 32004KT 5SM -DZ BR FEW008 BKN013 OVC027 09/ RMK SF2SC4SC2 VIS E 2

CYQB;2010-10-07 12:00;CYQB 071200Z 33002KT 5SM -DZ BR FEW008 SCT012 OVC025 09/09 A2940 RMK SF1SC3SC4 SLP957

CYQB;2010-10-07 13:00;CYQB 071300Z 27005KT 2SM -DZ BR FEW012 BKN020 OVC050 09/09 A2936 RMK FG2SC1SC3SC2 CIG RAG SLP943

CYQB;2010-10-07 13:31;CYQB 071331Z 26010KT 3SM -DZ BR FEW012 BKN020 OVC056 10/ RMK FG2SC1SC3SC2

CYQB;2010-10-07 14:00;CYQB 071400Z 26007KT 8SM -RA FEW015 BKN035 OVC056 10/09 A2934 RMK SC2SC4SC2 VIS E 3 BR SLP935

CYQB;2010-10-07 15:00;CYQB 071500Z 26007KT 5SM -RA BR FEW015 SCT035 OVC046 10/10 A2931 RMK SC2SC2SC5 SLP928

CYQB;2010-10-07 16:00;CYQB 071600Z 27013G22KT 5SM -RA BR FEW015 FEW030 OVC047 10/08 A2931 RMK SC2SC1SC6 SLP927

CYQB;2010-10-07 17:00;CYQB 071700Z 26012KT 6SM -RA BR FEW015 SCT035 OVC047 10/10 A2931 RMK SC2SC2SC4 SLP928

CYQB;2010-10-07 17:44;CYQB 071744Z 30013KT 10SM -SHRA FEW035 SCT047 OVC100 11/ RMK SC2SC2AC4

CYQB;2010-10-07 18:00;CYQB 071800Z 30010G21KT 20SM -SHRA FEW015 FEW045 OVC100 11/08 A2933 RMK SC2SC1AC6 SLP934

CYQB;2010-10-07 18:20;CYQB 071820Z 28008KT 20SM FEW030 OVC100 11/ RMK SC2AC6

CYQB;2010-10-07 19:00;CYQB 071900Z 30020G27KT 30SM FEW030 SCT100 BKN220 13/08 A2934 RMK CF2AC2CI1 SLP935

CYQB;2010-10-07 20:00;CYQB 072000Z 30016G26KT 30SM FEW040 SCT100 BKN220 14/06 A2934 RMK CF2AC1CI1 SLP936

CYQB;2010-10-07 20:39;CYQB 072039Z 28020G26KT 20SM -SHRA BKN060 BKN100 13/ RMK SC6AC1

CYQB;2010-10-07 21:00;CYQB 072100Z 28016G25KT 30SM FEW060 SCT090 BKN220 11/07 A2936 RMK CF2AC2CI1 SLP944

CYQB;2010-10-07 22:00;CYQB 072200Z 27013G21KT 30SM SCT060 BKN220 10/07 A2939 RMK SC3CI1 SLP954

CYQB;2010-10-07 23:00;CYQB 072300Z 29012G18KT 15SM FEW060 SCT220 10/05 A2944 RMK SC2CI0 SLP969

CYQB;2010-10-08 00:00;CYQB 080000Z 29011G16KT 15SM FEW060 10/04 A2948 RMK SC2 SLP985

CYQB;2010-10-08 01:00;CYQB 080100Z 24011KT 15SM FEW060 08/05 A2951 RMK SC2 SLP994

CYQB;2010-10-08 02:00;CYQB 080200Z 22009KT 15SM FEW050 06/04 A2951 RMK SC1 SLP996

CYQB;2010-10-08 03:00;CYQB 080300Z 26014KT 15SM FEW050 07/04 A2954 RMK SC2 SLP006

CYQB;2010-10-08 04:00;CYQB 080400Z 25014KT 15SM FEW050 08/03 A2956 RMK SC2 SLP011

CYQB;2010-10-08 05:00;CYQB 080500Z 24010KT 15SM FEW055 07/02 A2958 RMK SC1 SLP018

CYQB;2010-10-08 06:00;CYQB 080600Z 26010KT 15SM FEW055 06/02 A2958 RMK SC1 SLP018

CYQB;2010-10-08 07:00;CYQB 080700Z 26007KT 15SM SKC 05/02 A2959 RMK SLP021

CYQB;2010-10-08 08:00;CYQB 080800Z 26011KT 15SM SCT140 05/03 A2959 RMK AC4 SLP020

CYQB;2010-10-08 09:00;CYQB 080900Z 25010KT 15SM FEW065 SCT210 05/03 A2957 RMK SC1CI1 SLP015

CYQB;2010-10-08 10:00;CYQB 081000Z 23010KT 15SM FEW130 SCT210 05/03 A2957 RMK AC1CI2 SLP015

CYQB;2010-10-08 11:00;CYQB 081100Z 26015KT 25SM FEW075 BKN130 06/03 A2957 RMK AC2AC4 SLP015

CYQB;2010-10-08 12:00;CYQB 081200Z 26011KT 25SM FEW075 SCT120 07/04 A2957 RMK AC1AC2 SLP016

CYQB;2010-10-08 13:00;CYQB 081300Z 25013KT 25SM BKN075 BKN110 08/06 A2957 RMK AC6AC2 SLP014

CYQB;2010-10-08 14:00;CYQB 081400Z 26015KT 25SM FEW040 BKN078 09/06 A2957 RMK SC1AC6 SLP016

CYQB;2010-10-08 15:00;CYQB 081500Z 26016KT 25SM BKN045 BKN110 12/06 A2957 RMK SC5AC2 SLP014

CYQB;2010-10-08 16:00;CYQB 081600Z 24013KT 25SM BKN060 13/07 A2955 RMK SC6 SLP007

CYQB;2010-10-08 17:00;CYQB 081700Z 28016G21KT 25SM BKN073 14/06 A2954 RMK AC6 SLP004

CYQB;2010-10-08 18:00;CYQB 081800Z 28019G26KT 25SM BKN049 15/05 A2953 RMK SC5 CU ASOCTD SLP000

CYQB;2010-10-08 18:47;CYQB 081847Z 31014KT 15SM -SHRA BKN040 13/ RMK SC5 CU ASOCTD

CYQB;2010-10-08 19:00;CYQB 081900Z 31016G26KT 30SM BKN045 12/05 A2953 RMK SC5 CU ASOCTD ISOL SHWRS ALQDS OCNL -SHRA SLP001

CYQB;2010-10-08 19:33;CYQB 081933Z 29017G24KT 30SM SCT040 14/04 RMK CU3

CYQB;2010-10-08 20:00;CYQB 082000Z 28020KT 30SM SCT040 14/04 A2953 RMK CU3 SLP002

CYQB;2010-10-08 21:00;CYQB 082100Z 30021G27KT 30SM FEW040 14/M01 A2955 RMK CU2 SLP008

CYQB;2010-10-08 22:00;CYQB 082200Z 29012G17KT 30SM FEW040 12/M00 A2958 RMK CU1 SLP019

CYQB;2010-10-08 23:00;CYQB 082300Z 29009KT 15SM FEW040 11/M01 A2961 RMK SC1 SLP030

CYQB;2010-10-09 00:00;CYQB 090000Z 28008KT 15SM SKC 10/M01 A2964 RMK SLP040

CYQB;2010-10-09 01:00;CYQB 090100Z 28009KT 15SM SKC 09/M01 A2965 RMK SLP044

CYQB;2010-10-09 02:00;CYQB 090200Z 27007KT 15SM SKC 07/M01 A2966 RMK SLP046

CYQB;2010-10-09 03:00;CYQB 090300Z 27006KT 15SM SKC 06/M01 A2967 RMK SLP048

CYQB;2010-10-09 04:00;CYQB 090400Z 27004KT 15SM SKC 06/M01 A2968 RMK SLP053

CYQB;2010-10-09 05:00;CYQB 090500Z 31011G16KT 15SM SKC 07/M02 A2969 RMK SLP055

CYQB;2010-10-09 06:00;CYQB 090600Z 31009G15KT 15SM SKC 06/M02 A2971 RMK SLP062

CYQB;2010-10-09 07:00;CYQB 090700Z 34009G16KT 15SM SCT045 06/M01 A2973 RMK SC4 SLP068

CYQB;2010-10-09 08:00;CYQB 090800Z 30006KT 15SM BKN050 05/M03 A2975 RMK SC6 SLP077

CYQB;2010-10-09 09:00;CYQB 090900Z 28007KT 15SM BKN060 05/M03 A2977 RMK SC7 SLP082

CYQB;2010-10-09 10:00;CYQB 091000Z 25009KT 15SM BKN050 05/03 A2979 RMK SC7 SLP089

CYQB;2010-10-09 11:00;CYQB 091100Z 30008G15KT 20SM BKN062 BKN150 05/M03 A2979 RMK SC6AC2 SLP090

CYQB;2010-10-09 11:33;CYQB 091133Z 30011G19KT 20SM -SHRA BKN053 BKN150 05/ RMK SC6AC2

CYQB;2010-10-09 12:00;CYQB 091200Z 27010G17KT 30SM BKN058 BKN120 05/M01 A2981 RMK SC6AC1 SHSN N SLP097

CYQB;2010-10-09 13:00;CYQB 091300Z 34010G20KT 30SM BKN045 06/M02 A2984 RMK SC6 VIRGA E SLP108

CYQB;2010-10-09 14:00;CYQB 091400Z 31014KT 30SM BKN045 07/M02 A2986 RMK SC7 VIRGA N SLP114

CYQB;2010-10-09 15:00;CYQB 091500Z 30012G22KT 30SM BKN049 08/M01 A2986 RMK SC7 VIRGA ALQDS SLP115

CYQB;2010-10-09 16:00;CYQB 091600Z 30020KT 30SM BKN048 BKN220 08/M01 A2987 RMK SC6CI1 SLP116

CYQB;2010-10-09 17:00;CYQB 091700Z 29014KT 30SM BKN043 BKN230 08/M00 A2987 RMK SC6CI1 SLP116

CYQB;2010-10-09 18:00;CYQB 091800Z 28015G20KT 30SM BKN048 08/M01 A2986 RMK SC7 SLP113

CYQB;2010-10-09 19:00;CYQB 091900Z 30017G22KT 30SM BKN049 08/M01 A2986 RMK SC7 SHWRS N-E SLP112

CYQB;2010-10-09 20:00;CYQB 092000Z 29010G18KT 30SM BKN050 09/M02 A2986 RMK SC6 SLP114

CYQB;2010-10-09 21:00;CYQB 092100Z 29012G18KT 30SM SCT050 09/M02 A2986 RMK SC4 SLP112

CYQB;2010-10-09 22:00;CYQB 092200Z 27009KT 30SM BKN058 08/M01 A2986 RMK SC6 SLP114

CYQB;2010-10-09 23:00;CYQB 092300Z 27012G20KT 15SM BKN057 08/M01 A2987 RMK SC6 SLP116

CYQB;2010-10-10 00:00;CYQB 100000Z 26011KT 15SM BKN048 07/00 A2987 RMK SC7 SLP118

CYQB;2010-10-10 01:00;CYQB 100100Z 28012G19KT 15SM BKN045 07/M01 A2988 RMK SC7 SLP120

CYQB;2010-10-10 01:12;CYQB 100112Z 27010G16KT 15SM -SHRA BKN045 07/ RMK SC7

CYQB;2010-10-10 01:35;CYQB 100135Z 24009KT 15SM BKN047 07/ RMK SC7

CYQB;2010-10-10 02:00;CYQB 100200Z 25009KT 15SM OVC045 07/M00 A2987 RMK SC8 SLP119

CYQB;2010-10-10 03:00;CYQB 100300Z 23013KT 15SM BKN044 06/M01 A2986 RMK SC6 SLP112

CYQB;2010-10-10 04:00;CYQB 100400Z 25011KT 15SM FEW045 03/M01 A2985 RMK SC2 SLP110

CYQB;2010-10-10 05:00;CYQB 100500Z 25013KT 15SM SKC 03/M01 A2983 RMK SLP102

CYQB;2010-10-10 05:02;CYQB 100502Z 25012KT 15SM SKC 02/

CYQB;2010-10-10 06:00;CYQB 100600Z 25010KT 15SM SKC 01/M01 A2982 RMK SLP102

CYQB;2010-10-10 07:00;CYQB 100700Z 23011KT 15SM SKC 03/M01 A2981 RMK SLP096

CYQB;2010-10-10 08:00;CYQB 100800Z 22013G18KT 15SM BKN140 04/M01 A2979 RMK AC5 SLP090

CYQB;2010-10-10 09:00;CYQB 100900Z 22012G17KT 15SM FEW120 BKN170 03/M01 A2978 RMK AC1AC5 SLP087

CYQB;2010-10-10 10:00;CYQB 101000Z 23014KT 15SM BKN120 BKN200 03/M01 A2976 RMK AC5CI2 SLP081

CYQB;2010-10-10 11:00;CYQB 101100Z 23011KT 30SM FEW080 BKN120 OVC200 04/M01 A2976 RMK AC2AC6CI1 SLP080

CYQB;2010-10-10 12:00;CYQB 101200Z 22008KT 30SM FEW035 FEW080 BKN120 BKN200 04/M00 A2975 RMK CF1AC1AC6CI2 SLP078

CYQB;2010-10-10 13:00;CYQB 101300Z 22007KT 30SM FEW030 BKN110 05/M00 A2974 RMK CF1AC7 SLP072

CYQB;2010-10-10 14:00;CYQB 101400Z 26008KT 30SM FEW040 BKN120 OVC200 06/00 A2972 RMK CF1AC6CI2 VIRGA W SLP065

CYQB;2010-10-10 15:00;CYQB 101500Z 25013KT 30SM FEW040 BKN120 BKN210 07/00 A2968 RMK CF1AC6CI1 SLP054

CYQB;2010-10-10 16:00;CYQB 101600Z 26016KT 30SM FEW040 SCT120 BKN210 09/01 A2965 RMK CF1AC2CI1 SLP042

CYQB;2010-10-10 17:00;CYQB 101700Z 26019KT 30SM FEW040 BKN120 BKN210 10/01 A2961 RMK CF1AC5CI1 SLP029

CYQB;2010-10-10 18:00;CYQB 101800Z 25017G25KT 30SM FEW045 BKN100 BKN210 11/03 A2958 RMK CF1AC3CI1 SLP019

CYQB;2010-10-10 19:00;CYQB 101900Z 26015G20KT 30SM FEW045 BKN100 BKN210 12/04 A2956 RMK CF1AC5CI1 SLP014

CYQB;2010-10-10 20:00;CYQB 102000Z 24015G22KT 30SM FEW080 BKN100 12/03 A2955 RMK AC2AC3 SLP010

CYQB;2010-10-10 21:00;CYQB 102100Z 24011KT 30SM BKN062 BKN100 12/03 A2954 RMK SC5AC2 SLP005

CYQB;2010-10-10 22:00;CYQB 102200Z 24011KT 30SM SCT062 BKN100 11/04 A2954 RMK SC3AC4 SLP005

CYQB;2010-10-10 23:00;CYQB 102300Z 29010G16KT 15SM BKN066 12/03 A2955 RMK AC7 SLP009

CYQB;2010-10-11 00:00;CYQB 110000Z 28013G20KT 15SM FEW062 BKN086 12/03 A2956 RMK SC1AC7 SLP013

CYQB;2010-10-11 01:00;CYQB 110100Z 27006KT 15SM FEW062 OVC090 11/04 A2957 RMK SC1AC8 SLP016

CYQB;2010-10-11 02:00;CYQB 110200Z 31007G17KT 15SM SCT090 10/02 A2960 RMK AC3 SLP024

CYQB;2010-10-11 03:00;CYQB 110300Z 28003KT 15SM FEW090 07/02 A2961 RMK AC2 SLP030

CYQB;2010-10-11 04:00;CYQB 110400Z 26005KT 15SM FEW080 06/02 A2961 RMK AC1 SLP030

CYQB;2010-10-11 05:00;CYQB 110500Z 30007KT 15SM FEW040 FEW080 05/02 A2963 RMK SC1AC2 SLP035

CYQB;2010-10-11 06:00;CYQB 110600Z 31007KT 15SM FEW040 05/01 A2964 RMK SC2 SLP038

CYQB;2010-10-11 07:00;CYQB 110700Z 30009KT 15SM FEW040 05/00 A2964 RMK SC2 SLP039

CYQB;2010-10-11 08:00;CYQB 110800Z 28007KT 15SM SKC 04/M00 A2965 RMK SLP043

CYQB;2010-10-11 09:00;CYQB 110900Z 27009KT 15SM SKC 02/M00 A2966 RMK SLP046

CYQB;2010-10-11 10:00;CYQB 111000Z 26011KT 15SM SKC 03/M01 A2967 RMK SLP051

CYQB;2010-10-11 11:00;CYQB 111100Z 23006KT 30SM FEW050 02/M01 A2969 RMK SC1 SLP055

CYQB;2010-10-11 12:00;CYQB 111200Z 23008KT 30SM FEW055 FEW200 03/M00 A2971 RMK SC2CI1 SLP063

CYQB;2010-10-11 13:00;CYQB 111300Z 24010KT 30SM FEW034 SCT200 06/00 A2972 RMK SC2CI0 SLP068

CYQB;2010-10-11 14:00;CYQB 111400Z 27011KT 30SM SCT035 BKN200 08/01 A2974 RMK SC3CI1 SLP073

CYQB;2010-10-11 15:00;CYQB 111500Z 28005KT 30SM SCT035 BKN200 08/M00 A2975 RMK SC3CS2 SLP076

CYQB;2010-10-11 16:00;CYQB 111600Z 31008G15KT 30SM SCT035 BKN090 BKN200 09/00 A2975 RMK SC4AS1CS1 SLP078

CYQB;2010-10-11 17:00;CYQB 111700Z 27010KT 30SM FEW035 SCT200 10/01 A2975 RMK SC2CI0 SLP075

CYQB;2010-10-11 18:00;CYQB 111800Z 26011KT 30SM FEW040 FEW200 11/01 A2974 RMK SC1CI1 SLP072

CYQB;2010-10-11 19:00;CYQB 111900Z 25015KT 30SM FEW040 FEW200 12/03 A2972 RMK SC1CI1 SLP068

CYQB;2010-10-11 20:00;CYQB 112000Z 25016KT 30SM FEW035 SCT210 11/02 A2974 RMK SC2CI0 SLP073

CYQB;2010-10-11 21:00;CYQB 112100Z 26013KT 30SM FEW035 SCT050 BKN210 11/02 A2975 RMK SC1SC3CI2 SLP078

CYQB;2010-10-11 22:00;CYQB 112200Z 28010KT 30SM SCT045 BKN210 09/02 A2978 RMK SC3CI0 SLP086

CYQB;2010-10-11 23:00;CYQB 112300Z 31006KT 30SM BKN041 BKN210 08/02 A2980 RMK SC5CI0 SLP092

CYQB;2010-10-12 00:00;CYQB 120000Z 28005KT 30SM BKN039 07/02 A2981 RMK SC5 SLP096

CYQB;2010-10-12 01:00;CYQB 120100Z 30006KT 30SM SCT035 07/01 A2981 RMK SC4 SLP097

CYQB;2010-10-12 02:00;CYQB 120200Z 27005KT 15SM FEW035 SCT090 05/01 A2981 RMK SC2AC1 SLP099

CYQB;2010-10-12 03:00;CYQB 120300Z 27005KT 15SM BKN092 04/01 A2981 RMK AC6 SLP098

CYQB;2010-10-12 04:00;CYQB 120400Z 17005KT 15SM BKN094 05/02 A2981 RMK AC6 SLP098

CYQB;2010-10-12 05:00;CYQB 120500Z 27005KT 15SM FEW090 03/01 A2981 RMK AC2 SLP095

CYQB;2010-10-12 05:04;CYQB 120504Z 27006KT 15SM FEW090 02/ RMK AC2

CYQB;2010-10-12 06:00;CYQB 120600Z 28006KT 15SM FEW090 02/00 A2980 RMK AC2 SLP092

CYQB;2010-10-12 07:00;CYQB 120700Z 25003KT 15SM SCT088 03/01 A2978 RMK AC4 SLP088

CYQB;2010-10-12 08:00;CYQB 120800Z 26005KT 15SM BKN090 05/02 A2979 RMK AC7 SLP090

CYQB;2010-10-12 09:00;CYQB 120900Z 23007KT 15SM FEW040 OVC090 05/02 A2981 RMK SC2AC6 SLP095

CYQB;2010-10-12 10:00;CYQB 121000Z 24004KT 15SM FEW040 OVC089 05/03 A2980 RMK SC1AC8 SLP093

CYQB;2010-10-12 11:00;CYQB 121100Z 23002KT 20SM OVC085 04/03 A2980 RMK AC8 SLP092

CYQB;2010-10-12 12:00;CYQB 121200Z 21004KT 25SM BKN086 05/03 A2981 RMK AC7 SLP097

CYQB;2010-10-12 13:00;CYQB 121300Z 21006KT 25SM BKN087 06/04 A2982 RMK AC7 SLP101

CYQB;2010-10-12 14:00;CYQB 121400Z 24009KT 25SM FEW030 BKN089 07/04 A2983 RMK SC1AC7 SLP103

CYQB;2010-10-12 15:00;CYQB 121500Z 24009KT 25SM FEW030 BKN096 08/04 A2983 RMK SC1AC7 SLP105

CYQB;2010-10-12 16:00;CYQB 121600Z 25009KT 25SM FEW030 BKN095 10/05 A2983 RMK SC2AC4 SLP103

CYQB;2010-10-12 17:00;CYQB 121700Z 24011KT 25SM FEW030 BKN093 10/04 A2981 RMK SC2AC4 SLP097

CYQB;2010-10-12 18:00;CYQB 121800Z 22013KT 25SM FEW032 BKN091 11/05 A2980 RMK SC2AC5 SLP092

CYQB;2010-10-12 19:00;CYQB 121900Z 22012KT 30SM FEW032 BKN094 12/06 A2980 RMK SC1AC6 SLP093

CYQB;2010-10-12 20:00;CYQB 122000Z 21005KT 30SM FEW030 BKN092 12/06 A2981 RMK SC1AC6 SLP096

CYQB;2010-10-12 21:00;CYQB 122100Z 31008KT 30SM FEW030 BKN094 12/04 A2982 RMK SC1AC6 SLP100

CYQB;2010-10-12 22:00;CYQB 122200Z 28009KT 30SM BKN043 BKN094 11/04 A2985 RMK SC5AC2 SLP109

CYQB;2010-10-12 23:00;CYQB 122300Z 31008KT 15SM BKN042 BKN090 09/03 A2987 RMK SC5AC2 SLP117

CYQB;2010-10-13 00:00;CYQB 130000Z 27006KT 15SM BKN042 10/03 A2988 RMK SC7 SLP121

CYQB;2010-10-13 01:00;CYQB 130100Z 26007KT 15SM BKN044 09/04 A2989 RMK SC7 SLP122

CYQB;2010-10-13 02:00;CYQB 130200Z 27008KT 15SM SCT033 08/03 A2990 RMK SC4 SLP126

CYQB;2010-10-13 03:00;CYQB 130300Z 27006KT 15SM SCT038 05/03 A2990 RMK SC3 SLP129

CYQB;2010-10-13 04:00;CYQB 130400Z 22005KT 15SM FEW035 06/03 A2990 RMK SC2 SLP128

CYQB;2010-10-13 05:00;CYQB 130500Z 22006KT 15SM FEW035 FEW100 06/03 A2991 RMK SC1AC2 SLP132

CYQB;2010-10-13 06:00;CYQB 130600Z 24005KT 15SM FEW035 FEW100 04/03 A2992 RMK SC1AC1 SLP135

CYQB;2010-10-13 07:00;CYQB 130700Z 27006KT 15SM FEW030 03/02 A2993 RMK SC1 SLP137

CYQB;2010-10-13 08:00;CYQB 130800Z 28006KT 15SM FEW030 02/01 A2993 RMK SC2 SLP138

CYQB;2010-10-13 09:00;CYQB 130900Z 29005KT 15SM FEW030 02/00 A2994 RMK SC1 SLP141

CYQB;2010-10-13 10:00;CYQB 131000Z 29005KT 15SM FEW030 02/01 A2995 RMK SC1 SLP146

CYQB;2010-10-13 11:00;CYQB 131100Z 26005KT 25SM FEW040 FEW120 02/01 A2997 RMK SC1AC1 SLP150

CYQB;2010-10-13 12:00;CYQB 131200Z 25002KT 25SM FEW040 03/02 A2998 RMK SC1 SLP156

CYQB;2010-10-13 13:00;CYQB 131300Z 31007KT 25SM FEW040 08/03 A3001 RMK SC2 SLP164

CYQB;2010-10-13 14:00;CYQB 131400Z 30007KT 25SM FEW040 09/03 A3002 RMK SC2 SLP167

CYQB;2010-10-13 15:00;CYQB 131500Z 28005KT 25SM FEW040 10/03 A3001 RMK SC2 SLP166

CYQB;2010-10-13 16:00;CYQB 131600Z 24007KT 25SM FEW035 11/03 A3001 RMK SC2 SLP166

CYQB;2010-10-13 17:00;CYQB 131700Z 25013KT 30SM FEW035 12/04 A3000 RMK SC2 SLP161

CYQB;2010-10-13 18:00;CYQB 131800Z 22015G20KT 30SM FEW035 12/04 A2999 RMK SC2 SLP157

CYQB;2010-10-13 19:00;CYQB 131900Z 21014G19KT 30SM FEW035 12/04 A2998 RMK SC1 SLP154

CYQB;2010-10-13 20:00;CYQB 132000Z 22016KT 30SM FEW035 FEW240 12/04 A2998 RMK SC1CI0 SLP154

CYQB;2010-10-13 21:00;CYQB 132100Z 22013KT 30SM FEW035 FEW240 11/04 A2998 RMK SC1CI1 SLP156

CYQB;2010-10-13 22:00;CYQB 132200Z 23007KT 30SM FEW240 09/04 A2999 RMK CI0 SLP159

CYQB;2010-10-13 23:00;CYQB 132300Z 23006KT 15SM FEW040 FEW240 07/04 A3000 RMK SC1CI1 SLP163

CYQB;2010-10-14 00:00;CYQB 140000Z 27004KT 15SM FEW040 06/03 A3001 RMK SC1 SLP165

CYQB;2010-10-14 01:00;CYQB 140100Z 25005KT 15SM FEW040 07/03 A3002 RMK SC1 SLP169

CYQB;2010-10-14 02:00;CYQB 140200Z 00000KT 15SM FEW040 04/02 A3003 RMK SC1 SLP171

CYQB;2010-10-14 03:00;CYQB 140300Z 06002KT 15SM SKC 06/03 A3003 RMK SLP173

CYQB;2010-10-14 04:00;CYQB 140400Z 00000KT 15SM FEW160 04/03 A3003 RMK AC2 SLP171

CYQB;2010-10-14 05:00;CYQB 140500Z 03002KT 15SM BKN150 04/02 A3003 RMK AC5 SLP171

CYQB;2010-10-14 06:00;CYQB 140600Z 04003KT 15SM OVC150 04/03 A3003 RMK AC8 SLP171

CYQB;2010-10-14 07:00;CYQB 140700Z 01002KT 15SM SCT150 BKN170 04/02 A3002 RMK AC4AC2 SLP167

CYQB;2010-10-14 08:00;CYQB 140800Z 00000KT 15SM FEW110 BKN170 03/02 A3001 RMK AC2AC6 SLP165

CYQB;2010-10-14 09:00;CYQB 140900Z 36003KT 15SM FEW100 BKN170 04/02 A3002 RMK AC2AC5 SLP168

CYQB;2010-10-14 10:00;CYQB 141000Z 02004KT 15SM FEW110 OVC150 04/03 A3001 RMK AC2AC6 SLP165

CYQB;2010-10-14 11:00;CYQB 141100Z 36002KT 15SM BKN092 BKN150 05/03 A3001 RMK AC5AC2 SLP165

CYQB;2010-10-14 12:00;CYQB 141200Z 02003KT 25SM BKN087 OVC110 05/04 A3002 RMK AC6AC2 SLP168

CYQB;2010-10-14 13:00;CYQB 141300Z 01002KT 25SM OVC085 06/04 A3002 RMK AC8 SLP169

CYQB;2010-10-14 14:00;CYQB 141400Z 05004KT 20SM OVC081 07/05 A3002 RMK AC8 SLP169

CYQB;2010-10-14 15:00;CYQB 141500Z 04005KT 20SM OVC078 07/06 A3000 RMK AC8 SLP163

CYQB;2010-10-14 16:00;CYQB 141600Z 04005KT 25SM FEW030 OVC078 09/05 A2999 RMK SC1AC7 SLP159

CYQB;2010-10-14 17:00;CYQB 141700Z 03005KT 25SM OVC080 09/05 A2996 RMK AC8 SLP148

CYQB;2010-10-14 18:00;CYQB 141800Z 06004KT 25SM OVC089 10/06 A2994 RMK AC8 SLP142

CYQB;2010-10-14 19:00;CYQB 141900Z 05004KT 15SM -SHRA BKN042 BKN050 OVC080 10/06 A2994 RMK SC5SC2AC2 SLP140

CYQB;2010-10-14 20:00;CYQB 142000Z 07007KT 20SM FEW040 BKN067 OVC080 10/07 A2991 RMK SC2AC5AC2 SLP132

CYQB;2010-10-14 21:00;CYQB 142100Z 07008KT 20SM FEW040 SCT080 OVC120 10/07 A2990 RMK SC1AC3AC3 SLP127

CYQB;2010-10-14 22:00;CYQB 142200Z 07010KT 15SM SCT080 OVC140 09/08 A2990 RMK AC3AC5 SLP129

CYQB;2010-10-14 23:00;CYQB 142300Z 07010KT 15SM SCT090 BKN140 OVC210 09/07 A2990 RMK AC3AC3CI2 SLP127

CYQB;2010-10-15 00:00;CYQB 150000Z 07010KT 15SM SCT090 BKN140 OVC220 09/07 A2989 RMK AC3AC2CI2 SLP123

CYQB;2010-10-15 01:00;CYQB 150100Z 07009G15KT 15SM SCT080 BKN120 OVC170 09/07 A2988 RMK AC3AC2AC2 SLP120

CYQB;2010-10-15 02:00;CYQB 150200Z 07010G16KT 15SM BKN058 09/06 A2987 RMK SC6 SLP118

CYQB;2010-10-15 03:00;CYQB 150300Z 07011G17KT 15SM OVC062 09/06 A2986 RMK SC8 SLP112

CYQB;2010-10-15 04:00;CYQB 150400Z 08009KT 15SM OVC065 09/06 A2985 RMK SC8 SLP109

CYQB;2010-10-15 05:00;CYQB 150500Z 07011KT 15SM OVC070 09/06 A2985 RMK AC8 SLP110

CYQB;2010-10-15 06:00;CYQB 150600Z 07011KT 15SM OVC085 09/06 A2982 RMK AC8 SLP101

CYQB;2010-10-15 07:00;CYQB 150700Z 07007KT 15SM OVC085 09/06 A2980 RMK AC8 SLP092

CYQB;2010-10-15 08:00;CYQB 150800Z 07010KT 15SM BKN080 09/06 A2979 RMK AC7 SLP089

CYQB;2010-10-15 09:00;CYQB 150900Z 07012G18KT 15SM OVC075 09/06 A2977 RMK AC8 SLP083

CYQB;2010-10-15 10:00;CYQB 151000Z 06013G18KT 15SM FEW020 BKN076 09/06 A2972 RMK SC1AC6 SLP068

CYQB;2010-10-15 11:00;CYQB 151100Z 07014G24KT 15SM BKN026 OVC075 09/06 A2972 RMK SC6AC2 SLP065

CYQB;2010-10-15 12:00;CYQB 151200Z 05021KT 25SM FEW025 SCT075 OVC130 09/06 A2970 RMK SC1AC3AC4 OBS TAKEN +11 SLP059

CYQB;2010-10-15 13:00;CYQB 151300Z 06019G26KT 25SM FEW025 SCT044 OVC110 09/05 A2968 RMK SC1SC3AC4 SLP054

CYQB;2010-10-15 13:18;CYQB 151318Z 06016G25KT 25SM -SHRA FEW025 OVC049 09/ RMK SC2SC6

CYQB;2010-10-15 14:00;CYQB 151400Z 05013G20KT 8SM -SHRA SCT025 OVC048 08/06 A2965 RMK SC3SC5 SLP044

CYQB;2010-10-15 15:00;CYQB 151500Z 06016G26KT 7SM -RA FEW025 OVC044 08/05 A2963 RMK SC2SC6 SLP037

CYQB;2010-10-15 16:00;CYQB 151600Z 04020G31KT 8SM -RA OVC028 08/06 A2957 RMK SC8 PRESFR VIS E 2 BR SLP017

CYQB;2010-10-15 17:00;CYQB 151700Z 04017G25KT 8SM -RA OVC033 08/05 A2954 RMK SC8 SLP005

CYQB;2010-10-15 18:00;CYQB 151800Z 04021G31KT 6SM RA BR OVC029 06/05 A2951 RMK SC8 VIS E 3 SLP996

CYQB;2010-10-15 19:00;CYQB 151900Z 04028G37KT 7SM -RA BKN027 OVC040 07/04 A2949 RMK SC7SC1 RERA SLP988

CYQB;2010-10-15 20:00;CYQB 152000Z 05028G41KT 7SM RA BKN023 OVC030 06/04 A2948 RMK SC6SC2 VIS E 3 SLP984

CYQB;2010-10-15 21:00;CYQB 152100Z 03024G38KT 7SM RA BKN027 OVC042 07/04 A2945 RMK SC6SC2 SLP975

CYQB;2010-10-15 22:00;CYQB 152200Z 03022G31KT 8SM -RA BKN032 BKN041 OVC050 07/04 A2944 RMK SC5SC2SC2 RERA SLP972

CYQB;2010-10-15 23:00;CYQB 152300Z 03018G30KT 12SM -RA BKN033 OVC040 08/04 A2945 RMK SC6SC2 SLP975

CYQB;2010-10-16 00:00;CYQB 160000Z 04022G35KT 15SM -RA BKN034 OVC054 08/04 A2945 RMK SC6SC2 SLP975

CYQB;2010-10-16 01:00;CYQB 160100Z 07012G28KT 8SM -RA FEW025 BKN032 OVC040 07/04 A2946 RMK SC2SC5SC2 SLP979

CYQB;2010-10-16 02:00;CYQB 160200Z 06016G25KT 12SM -RA FEW025 OVC045 07/04 A2947 RMK SC2SC6 SLP982

CYQB;2010-10-16 03:00;CYQB 160300Z 07012G17KT 15SM FEW025 OVC046 07/03 A2948 RMK SC1SC7 SLP984

CYQB;2010-10-16 04:00;CYQB 160400Z 06006KT 15SM OVC040 07/03 A2949 RMK SC8 SLP988

CYQB;2010-10-16 05:00;CYQB 160500Z 08004KT 15SM BKN042 OVC090 07/03 A2950 RMK SC6AC2 SLP993

CYQB;2010-10-16 06:00;CYQB 160600Z 03002KT 15SM OVC043 07/03 A2951 RMK SC8 SLP997

CYQB;2010-10-16 06:46;CYQB 160646Z 27005KT 15SM -SHRA OVC033 06/ RMK SC8

CYQB;2010-10-16 07:00;CYQB 160700Z 33003KT 10SM -SHRA OVC029 06/05 A2953 RMK SC8 SLP002

CYQB;2010-10-16 08:00;CYQB 160800Z 05003KT 10SM -SHRA OVC026 06/04 A2954 RMK SC8 SLP007

CYQB;2010-10-16 09:00;CYQB 160900Z 32003KT 10SM -SHRA BKN027 OVC043 05/05 A2956 RMK SC6SC2 SLP011

CYQB;2010-10-16 10:00;CYQB 161000Z 18002KT 10SM -SHRA OVC034 05/04 A2958 RMK SC8 SLP018

CYQB;2010-10-16 11:00;CYQB 161100Z 27003KT 7SM -RA BKN027 OVC045 05/05 A2960 RMK SC6SC2 SLP025

CYQB;2010-10-16 12:00;CYQB 161200Z 26002KT 20SM -RA BKN040 06/05 A2961 RMK SC7 SLP031

CYQB;2010-10-16 13:00;CYQB 161300Z 35004KT 25SM FEW025 BKN041 07/04 A2964 RMK SC2SC6 SLP038

CYQB;2010-10-16 14:00;CYQB 161400Z 36008KT 25SM BKN047 08/04 A2965 RMK SC7 SLP043

CYQB;2010-10-16 15:00;CYQB 161500Z 36011KT 25SM BKN046 09/03 A2965 RMK SC7 SLP044

CYQB;2010-10-16 16:00;CYQB 161600Z 36013G19KT 25SM BKN046 10/02 A2967 RMK SC7 SLP049

CYQB;2010-10-16 17:00;CYQB 161700Z CCA 36011G16KT 25SM BKN045 11/02 A2967 RMK SC7 SLP050

CYQB;2010-10-16 18:00;CYQB 161800Z 01010KT 25SM BKN047 12/03 A2967 RMK SC7 SLP049

CYQB;2010-10-16 19:00;CYQB 161900Z 09009G17KT 25SM BKN045 10/05 A2969 RMK SC7 SLP056

CYQB;2010-10-16 20:00;CYQB 162000Z 01003KT 25SM BKN045 10/05 A2971 RMK SC6 SLP062

CYQB;2010-10-16 21:00;CYQB 162100Z 33005KT 25SM BKN045 10/03 A2972 RMK SC7 SLP067

CYQB;2010-10-16 22:00;CYQB 162200Z 30003KT 15SM OVC042 09/05 A2974 RMK SC8 SLP073

CYQB;2010-10-16 23:00;CYQB 162300Z 32007KT 15SM OVC039 09/05 A2976 RMK SC8 SLP079

CYQB;2010-10-17 00:00;CYQB 170000Z 34004KT 15SM OVC041 09/04 A2976 RMK SC8 SLP081

CYQB;2010-10-17 01:00;CYQB 170100Z 30005KT 15SM OVC043 09/04 A2977 RMK SC8 SLP083

CYQB;2010-10-17 02:00;CYQB 170200Z 30004KT 15SM BKN043 BKN075 08/04 A2977 RMK SC5AC1 SLP084

CYQB;2010-10-17 03:00;CYQB 170300Z 31006KT 15SM SCT050 BKN076 08/04 A2976 RMK SC4AC2 SLP081

CYQB;2010-10-17 04:00;CYQB 170400Z 27009KT 15SM FEW050 06/04 A2975 RMK SC2 SLP076

CYQB;2010-10-17 05:00;CYQB 170500Z 24008KT 15SM BKN033 07/04 A2975 RMK SC5 SLP075

CYQB;2010-10-17 06:00;CYQB 170600Z 23004KT 15SM FEW030 FEW090 04/03 A2973 RMK SC1AC2 SLP071

CYQB;2010-10-17 07:00;CYQB 170700Z 23008KT 15SM FEW060 SCT210 05/04 A2971 RMK SC2CI2 SLP063

CYQB;2010-10-17 08:00;CYQB 170800Z 24010KT 15SM FEW056 SCT210 04/04 A2969 RMK SC2CI2 SLP057

CYQB;2010-10-17 09:00;CYQB 170900Z 23009KT 15SM FEW055 SCT200 04/03 A2968 RMK SC2CI2 SLP054

CYQB;2010-10-17 10:00;CYQB 171000Z 22011KT 15SM FEW055 03/02 A2969 RMK SC2 SLP055

CYQB;2010-10-17 11:00;CYQB 171100Z 24012KT 15SM FEW014 FEW055 SCT130 02/02 A2968 RMK SC1SC1AC1 SLP054

CYQB;2010-10-17 11:43;CYQB 171143Z 23008KT 10SM BKN004 BKN055 03/ RMK SF6SC2

CYQB;2010-10-17 12:00;CYQB 171200Z 23009KT 2SM BR BKN003 BKN055 03/03 A2968 RMK FG2SF5SC1 VIS E 7 SLP053

CYQB;2010-10-17 12:14;CYQB 171214Z 23009KT 1SM R06/P6000FT/N BR BKN002 BKN130 03/ RMK FG3SF3AC1 VIS N 5

CYQB;2010-10-17 12:31;CYQB 171231Z 22007KT 15SM SCT002 SCT050 BKN130 04/ RMK SF3SC1AC2

CYQB;2010-10-17 13:00;CYQB 171300Z 24012KT 20SM FEW020 SCT055 SCT130 05/04 A2967 RMK SC1SC2AC2 SLP049

CYQB;2010-10-17 14:00;CYQB 171400Z 26009KT 25SM BKN067 BKN130 07/04 A2964 RMK SC5AC2 SLP041

CYQB;2010-10-17 15:00;CYQB 171500Z 24010G15KT 25SM FEW030 FEW050 SCT080 08/04 A2961 RMK SC2SC1AC2 SLP029

CYQB;2010-10-17 16:00;CYQB 171600Z 25013KT 25SM BKN032 BKN058 07/04 A2960 RMK SC6SC2 SLP025

CYQB;2010-10-17 17:00;CYQB 171700Z 25014G19KT 30SM SCT023 BKN030 09/05 A2958 RMK SC4SC1 SLP020

CYQB;2010-10-17 18:00;CYQB 171800Z 24012G17KT 30SM SCT023 BKN045 08/05 A2958 RMK SC3SC4 SLP019

CYQB;2010-10-17 19:00;CYQB 171900Z 25011G17KT 30SM SCT025 BKN040 09/05 A2957 RMK SC3SC2 SLP017

CYQB;2010-10-17 20:00;CYQB 172000Z 23011KT 30SM SCT029 SCT090 10/07 A2957 RMK SC4AC1 SLP016

CYQB;2010-10-17 20:48;CYQB 172048Z 26009G20KT 15SM -SHRA SCT030 BKN090 10/ RMK SC4AC3 VIS N 2 DUE SHSN

CYQB;2010-10-17 21:00;CYQB 172100Z 29010G17KT 15SM -SHRA SCT030 BKN090 10/06 A2958 RMK SC4AC2 VIS E LWR DUE SHSN CU ASOCTD SLP018

CYQB;2010-10-17 22:00;CYQB 172200Z 27007KT 30SM FEW015 FEW030 SCT100 08/05 A2959 RMK CF1SC2AC1 VCSH E QUAD SLP023

CYQB;2010-10-17 23:00;CYQB 172300Z 27012KT 15SM SCT090 07/04 A2961 RMK AC3 SLP030

CYQB;2010-10-18 00:00;CYQB 180000Z 26008KT 15SM FEW030 FEW100 06/03 A2963 RMK SC1AC1 SLP035

CYQB;2010-10-18 01:00;CYQB 180100Z 27012G17KT 15SM FEW030 FEW100 06/03 A2963 RMK SC1AC1 SLP036

CYQB;2010-10-18 02:00;CYQB 180200Z 30015G21KT 15SM FEW035 FEW100 06/01 A2964 RMK SC2AC1 SLP041

CYQB;2010-10-18 03:00;CYQB 180300Z 29013G18KT 15SM BKN037 BKN100 06/01 A2966 RMK SC5AC1 SLP046

CYQB;2010-10-18 04:00;CYQB 180400Z 27011G18KT 15SM SCT035 SCT100 05/00 A2966 RMK SC3AC1 SLP047

CYQB;2010-10-18 05:00;CYQB 180500Z 25006KT 15SM FEW035 04/00 A2967 RMK SC2 SLP050

CYQB;2010-10-18 06:00;CYQB 180600Z 23009KT 15SM FEW035 03/00 A2968 RMK SC1 SLP053

CYQB;2010-10-18 07:00;CYQB 180700Z 21009KT 15SM SCT045 04/01 A2967 RMK SC2 SLP049

CYQB;2010-10-18 08:00;CYQB 180800Z 22009KT 15SM SCT033 03/00 A2968 RMK SC2 SLP052

CYQB;2010-10-18 09:00;CYQB 180900Z 19008KT 15SM FEW035 03/M00 A2969 RMK SC1 SLP056

CYQB;2010-10-18 09:13;CYQB 180913Z 20009KT 15SM FEW035 02/ RMK SC1

CYQB;2010-10-18 10:00;CYQB 181000Z 22008KT 15SM FEW035 02/M00 A2970 RMK SC1 SLP058

CYQB;2010-10-18 11:00;CYQB 181100Z 22010KT 30SM BKN037 03/M00 A2970 RMK SC6 SLP061

CYQB;2010-10-18 12:00;CYQB 181200Z 23014KT 30SM BKN040 03/M00 A2973 RMK SC7 SLP069

CYQB;2010-10-18 13:00;CYQB 181300Z 24015KT 30SM FEW026 BKN046 04/M00 A2974 RMK SC1SC6 SH N SLP072

CYQB;2010-10-18 14:00;CYQB 181400Z 27013G18KT 30SM BKN028 BKN045 05/01 A2974 RMK SC5SC2 SH N SLP072

CYQB;2010-10-18 15:00;CYQB 181500Z 27012G17KT 30SM BKN042 07/01 A2972 RMK SC7 SLP068

CYQB;2010-10-18 16:00;CYQB 181600Z 29014KT 30SM BKN053 08/M02 A2972 RMK SC7 SLP065

CYQB;2010-10-18 17:00;CYQB 181700Z 30013G24KT 30SM -SHRA BKN053 07/M02 A2971 RMK SC7 SLP062

CYQB;2010-10-18 18:00;CYQB 181800Z 28012G18KT 15SM -SHRA FEW015 FEW030 BKN050 BKN090 07/00 A2970 RMK CF1SC1SC4AC2 SLP060

CYQB;2010-10-18 18:20;CYQB 181820Z 28017G22KT 15SM FEW015 FEW030 BKN050 BKN080 08/ RMK CF1SC1SC4AC2 VCSH

CYQB;2010-10-18 19:00;CYQB 181900Z 31024G32KT 15SM -SHRA BKN030 BKN060 05/01 A2970 RMK SC5SC2 TCU EMBD VIS N 2 SHSN SLP059

CYQB;2010-10-18 19:40;CYQB 181940Z 27015G24KT 15SM SCT030TCU BKN070 06/ RMK TCU4SC1 VCSH

CYQB;2010-10-18 20:00;CYQB 182000Z 25015G20KT 15SM SCT040 07/00 A2968 RMK SC3 TCU ASOCTD VCSH SLP052

CYQB;2010-10-18 21:00;CYQB 182100Z 29011G17KT 15SM FEW030 SCT070 07/M03 A2970 RMK SC2AC1 MDT CU ASOCTD VCSH SLP059

CYQB;2010-10-18 22:00;CYQB 182200Z 29011G21KT 30SM SCT060 05/M04 A2972 RMK SC4 SLP067

CYQB;2010-10-18 23:00;CYQB 182300Z 31011G17KT 15SM FEW060 04/M05 A2975 RMK SC1 SLP077

CYQB;2010-10-19 00:00;CYQB 190000Z 28010KT 15SM FEW050 03/M05 A2976 RMK SC1 SLP082

CYQB;2010-10-19 01:00;CYQB 190100Z 28009G17KT 15SM SCT060 04/M05 A2978 RMK SC4 SLP087

CYQB;2010-10-19 02:00;CYQB 190200Z 27012KT 15SM FEW060 02/M05 A2979 RMK SC2 SLP090

CYQB;2010-10-19 03:00;CYQB 190300Z 24008KT 15SM SKC 01/M04 A2979 RMK SLP091

CYQB;2010-10-19 04:00;CYQB 190400Z 25009KT 15SM SKC 01/M04 A2979 RMK SLP092

CYQB;2010-10-19 05:00;CYQB 190500Z 26008KT 15SM FEW050 M01/M04 A2978 RMK SC1 SLP089

CYQB;2010-10-19 06:00;CYQB 190600Z 26008KT 15SM FEW050 M01/M04 A2978 RMK SC1 SLP087

CYQB;2010-10-19 07:00;CYQB 190700Z 25007KT 15SM FEW050 M00/M04 A2978 RMK SC1 SLP087

CYQB;2010-10-19 08:00;CYQB 190800Z 25009KT 15SM FEW050 M01/M04 A2978 RMK SC1 SLP087

CYQB;2010-10-19 09:00;CYQB 190900Z 26011KT 15SM FEW050 M01/M03 A2979 RMK SC1 SLP090

CYQB;2010-10-19 10:00;CYQB 191000Z 26013KT 15SM FEW070 M01/M03 A2980 RMK AC1 SLP094

CYQB;2010-10-19 11:00;CYQB 191100Z 27013KT 30SM FEW070 FEW180 M01/M04 A2981 RMK AC1AC2 SLP099

CYQB;2010-10-19 12:00;CYQB 191200Z 27012KT 30SM FEW070 BKN180 00/M03 A2983 RMK AC1AC4 SLP104

CYQB;2010-10-19 13:00;CYQB 191300Z 27006KT 30SM FEW070 SCT180 02/M02 A2983 RMK AC1AC1 SLP106

CYQB;2010-10-19 14:00;CYQB 191400Z 23009KT 30SM FEW050 FEW180 03/M02 A2983 RMK CU1AC1 SLP106

CYQB;2010-10-19 15:00;CYQB 191500Z 26007KT 30SM FEW050 SCT180 05/M02 A2982 RMK CU1AC2 SLP102

CYQB;2010-10-19 16:00;CYQB 191600Z 24007KT 30SM FEW050 BKN150 06/M02 A2981 RMK CU1AC2 SLP097

CYQB;2010-10-19 17:00;CYQB 191700Z 22013G18KT 30SM FEW050 BKN150 08/M02 A2979 RMK CU1AC2 SLP091

CYQB;2010-10-19 18:00;CYQB 191800Z 24012G17KT 30SM FEW050 FEW070 BKN120 09/M02 A2976 RMK CU1AC1AC2 SLP082

CYQB;2010-10-19 19:00;CYQB 191900Z 25014KT 30SM FEW040 FEW070 BKN120 09/00 A2976 RMK CU1AC1AC3 VIRGA ALQDS SLP080

CYQB;2010-10-19 20:00;CYQB 192000Z 26015KT 30SM FEW030 BKN055 BKN070 08/02 A2976 RMK CU1SC4AC2 SH ALQDS SLP080

CYQB;2010-10-19 21:00;CYQB 192100Z 24005KT 30SM FEW030 SCT050 BKN070 08/01 A2975 RMK CU1SC3AC1 FEW SH ALQDS SLP078

CYQB;2010-10-19 22:00;CYQB 192200Z 00000KT 30SM SCT055 BKN070 08/01 A2975 RMK SC3AC3 SLP077

CYQB;2010-10-19 23:00;CYQB 192300Z 17003KT 15SM SCT055 BKN070 07/01 A2975 RMK SC3AC3 SLP077

CYQB;2010-10-20 00:00;CYQB 200000Z 00000KT 15SM BKN060 BKN071 07/01 A2974 RMK SC5AC2 SLP075

CYQB;2010-10-20 01:00;CYQB 200100Z 28005KT 15SM SCT050 SCT070 05/01 A2974 RMK SC3AC1 SLP075

CYQB;2010-10-20 02:00;CYQB 200200Z 27005KT 15SM FEW050 FEW070 05/01 A2974 RMK SC2AC1 SLP074

CYQB;2010-10-20 03:00;CYQB 200300Z 26007KT 15SM FEW050 FEW240 03/01 A2973 RMK SC1CI0 SLP071

CYQB;2010-10-20 04:00;CYQB 200400Z 25005KT 15SM FEW060 FEW110 BKN240 05/02 A2972 RMK SC1AC2CI0 SLP068

CYQB;2010-10-20 05:00;CYQB 200500Z 27002KT 15SM FEW060 BKN075 BKN240 05/02 A2971 RMK SC2AC4CI0 DIST SH W SLP064

CYQB;2010-10-20 05:11;CYQB 200511Z CCA 30002KT 15SM -SHRA SCT050 BKN075 BKN240 06/ RMK SC3AC2CI0

CYQB;2010-10-20 05:40;CYQB 200540Z 26003KT 15SM BKN056 BKN075 OVC240 06/ RMK SC5AC2CI0

CYQB;2010-10-20 06:00;CYQB 200600Z 25006KT 15SM BKN056 OVC075 07/03 A2970 RMK SC6AC2 SLP059

CYQB;2010-10-20 07:00;CYQB 200700Z 24012G17KT 15SM SCT056 OVC080 07/03 A2969 RMK SC3AC5 SLP057

CYQB;2010-10-20 08:00;CYQB 200800Z 24009KT 15SM SCT056 BKN080 07/04 A2970 RMK SC3AC2 SLP059

CYQB;2010-10-20 09:00;CYQB 200900Z 24011KT 15SM FEW056 BKN110 06/04 A2971 RMK SC2AC4 SLP062

CYQB;2010-10-20 10:00;CYQB 201000Z 25011KT 15SM FEW015 BKN063 BKN160 06/04 A2972 RMK SF1SC6AC1 SLP068

CYQB;2010-10-20 11:00;CYQB 201100Z 24011KT 30SM FEW015 BKN062 BKN160 05/02 A2975 RMK SF1SC5AC1 SLP076

CYQB;2010-10-20 12:00;CYQB 201200Z 24010KT 30SM FEW062 BKN140 05/02 A2978 RMK SC1AC2 SLP086

CYQB;2010-10-20 13:00;CYQB 201300Z 25010KT 30SM FEW060 FEW140 FEW240 06/01 A2980 RMK SC1AC1CI0 SLP094

CYQB;2010-10-20 14:00;CYQB 201400Z 24013KT 35SM FEW060 FEW250 07/M01 A2980 RMK SC1CI0 SLP094

CYQB;2010-10-20 15:00;CYQB 201500Z 22014KT 35SM FEW030 FEW250 09/02 A2980 RMK CU1CI0 SLP092

CYQB;2010-10-20 16:00;CYQB 201600Z 23011G16KT 35SM FEW040 FEW240 09/M00 A2979 RMK CU1CI1 SLP090

CYQB;2010-10-20 17:00;CYQB 201700Z 26009KT 35SM FEW044 FEW080 BKN250 11/00 A2977 RMK CU1AC1CS0 ACSL ASOCTD SLP082

CYQB;2010-10-20 18:00;CYQB 201800Z 24009G16KT 35SM FEW054 FEW160 BKN240 11/M02 A2974 RMK CU1AC1CI0 SLP073

CYQB;2010-10-20 19:00;CYQB 201900Z 24008KT 30SM FEW055 FEW160 BKN240 12/M02 A2973 RMK CU1AC2CI1 SLP070

CYQB;2010-10-20 20:00;CYQB 202000Z 22009KT 30SM FEW055 SCT100 BKN240 12/M04 A2972 RMK CF1AC3CI1 SLP065

CYQB;2010-10-20 21:00;CYQB 202100Z 23004KT 30SM FEW050 SCT090 BKN240 12/00 A2970 RMK CF1AC3CI0 SLP060

CYQB;2010-10-20 22:00;CYQB 202200Z 14003KT 30SM FEW050 BKN075 OVC240 11/01 A2969 RMK CF1AC6CI1 SLP057

CYQB;2010-10-20 23:00;CYQB 202300Z 14004KT 15SM BKN060 OVC240 11/02 A2969 RMK SC7CI1 SLP055

CYQB;2010-10-21 00:00;CYQB 210000Z 14002KT 15SM BKN075 OVC100 10/02 A2968 RMK AC5AC2 SLP052

CYQB;2010-10-21 01:00;CYQB 210100Z 14005KT 15SM BKN090 OVC240 10/03 A2966 RMK AC6CI1 SLP046

CYQB;2010-10-21 02:00;CYQB 210200Z 20002KT 15SM OVC080 09/03 A2966 RMK AC8 SLP045

CYQB;2010-10-21 03:00;CYQB 210300Z 19002KT 15SM BKN088 10/02 A2964 RMK AC7 SLP039

CYQB;2010-10-21 04:00;CYQB 210400Z 04002KT 15SM BKN088 09/02 A2962 RMK AC7 SLP032

CYQB;2010-10-21 05:00;CYQB 210500Z 10003KT 15SM BKN073 OVC150 09/02 A2961 RMK AC5AC3 SLP027

CYQB;2010-10-21 06:00;CYQB 210600Z 12002KT 15SM FEW090 08/01 A2958 RMK AC2 SLP019

CYQB;2010-10-21 07:00;CYQB 210700Z 16006KT 15SM SCT080 09/01 A2956 RMK AC4 SLP010

CYQB;2010-10-21 08:00;CYQB 210800Z 06006KT 15SM SCT080 07/01 A2952 RMK AC4 SLP999

CYQB;2010-10-21 09:00;CYQB 210900Z 07007KT 15SM FEW180 06/01 A2950 RMK AC2 SLP992

CYQB;2010-10-21 10:00;CYQB 211000Z 05006KT 15SM BKN070 BKN100 06/01 A2948 RMK AC5AC2 SLP984

CYQB;2010-10-21 11:00;CYQB 211100Z 07006KT 15SM -SHRA OVC075 07/02 A2947 RMK AC8 SLP980

CYQB;2010-10-21 12:00;CYQB 211200Z 09007KT 15SM -SHRA BKN060 OVC075 07/02 A2946 RMK SC5AC3 SLP979

CYQB;2010-10-21 13:00;CYQB 211300Z 09006KT 15SM -SHRA OVC055 07/03 A2946 RMK SC8 SLP979

CYQB;2010-10-21 14:00;CYQB 211400Z 09006KT 15SM -SHRA FEW017 BKN060 OVC075 07/03 A2945 RMK SC1SC6AC2 SLP973

CYQB;2010-10-21 15:00;CYQB 211500Z 09006KT 6SM -SHRA OVC039 07/05 A2944 RMK SC8 SLP970

CYQB;2010-10-21 16:00;CYQB 211600Z 09004KT 4SM -SHRA BR OVC032 07/06 A2944 RMK SC8 SLP970

CYQB;2010-10-21 17:00;CYQB 211700Z 11003KT 4SM -SHRA BR FEW015 OVC036 07/06 A2941 RMK SF1SC7 SLP962

CYQB;2010-10-21 18:00;CYQB 211800Z 11005KT 4SM -RA BR FEW015 BKN028 OVC036 07/07 A2939 RMK SF1SC5SC2 SLP955

CYQB;2010-10-21 19:00;CYQB 211900Z 19006KT 4SM -RA BR SCT017 OVC032 08/07 A2938 RMK SC4SC4 SLP951

CYQB;2010-10-21 20:00;CYQB 212000Z 23009KT 8SM -RA BKN013 BKN031 OVC040 07/06 A2939 RMK SC6SC2SC1 SLP954

CYQB;2010-10-21 20:32;CYQB 212032Z 29004KT 10SM FEW015 SCT030 OVC057 07/ RMK SC1SC2SC5

CYQB;2010-10-21 21:00;CYQB 212100Z 25011G16KT 10SM FEW015 FEW030 OVC063 06/05 A2941 RMK SC1SC2SC6 SLP962

CYQB;2010-10-21 22:00;CYQB 212200Z 26010KT 15SM FEW020 FEW040 OVC120 06/04 A2944 RMK SC1SC2AC5 SLP972

CYQB;2010-10-21 23:00;CYQB 212300Z 25012KT 15SM FEW040 OVC090 05/04 A2946 RMK SC2AC6 SLP979

CYQB;2010-10-22 00:00;CYQB 220000Z 26010KT 15SM FEW028 BKN082 05/04 A2948 RMK SC1AC6 SLP985

CYQB;2010-10-22 01:00;CYQB 220100Z 25011KT 15SM FEW025 SCT080 04/03 A2950 RMK SC1AC3 SLP991

CYQB;2010-10-22 02:00;CYQB 220200Z 25009KT 15SM FEW025 FEW080 03/02 A2952 RMK SC1AC1 SLP997

CYQB;2010-10-22 03:00;CYQB 220300Z 25011KT 15SM FEW080 02/01 A2953 RMK AC1 SLP001

CYQB;2010-10-22 04:00;CYQB 220400Z 25013KT 15SM SCT093 02/01 A2952 RMK AC3 SLP000

CYQB;2010-10-22 05:00;CYQB 220500Z 25014KT 15SM BKN093 02/00 A2953 RMK AC5 SLP002

CYQB;2010-10-22 06:00;CYQB 220600Z 25015KT 15SM FEW093 02/00 A2953 RMK AC2 SLP004

CYQB;2010-10-22 07:00;CYQB 220700Z 23011KT 15SM FEW090 01/M00 A2954 RMK AC2 SLP007

CYQB;2010-10-22 08:00;CYQB 220800Z 24013KT 15SM FEW020 SCT090 01/M00 A2955 RMK SC1AC3 SLP009

CYQB;2010-10-22 09:00;CYQB 220900Z 25013KT 15SM FEW050 FEW090 01/M00 A2958 RMK SC1AC1 SLP018

CYQB;2010-10-22 10:00;CYQB 221000Z 24013KT 15SM FEW050 BKN066 BKN100 01/M01 A2960 RMK SC2SC4AC0 SLP025

CYQB;2010-10-22 11:00;CYQB 221100Z 24014KT 20SM FEW014 FEW050 BKN073 BKN100 01/M00 A2960 RMK SC1SC1AC5AC1 SLP026

CYQB;2010-10-22 12:00;CYQB 221200Z 26016KT 25SM FEW015 FEW069 SCT090 BKN200 02/M00 A2962 RMK SC1AC2AC2CI0 SLP034

CYQB;2010-10-22 13:00;CYQB 221300Z 26016G24KT 25SM FEW014 FEW050 BKN092 03/00 A2964 RMK SC1SC1AC4 SLP039

CYQB;2010-10-22 14:00;CYQB 221400Z 26017G22KT 25SM FEW014 SCT035 BKN095 BKN200 03/M00 A2966 RMK SC2SC2AC2CI1 SLP047

CYQB;2010-10-22 15:00;CYQB 221500Z 27021G26KT 25SM FEW015 SCT028 BKN099 04/M00 A2966 RMK SC1SC2AC3 SLP047

CYQB;2010-10-22 16:00;CYQB 221600Z 28015G29KT 25SM FEW015 SCT035 BKN100 05/M01 A2966 RMK SC1SC3AC3 SLP046

CYQB;2010-10-22 17:00;CYQB 221700Z 27022G30KT 25SM VCSH FEW015 BKN042 BKN100 07/M00 A2966 RMK SC1SC4AC2 SLP048

CYQB;2010-10-22 18:00;CYQB 221800Z 28022G29KT 25SM VCSH FEW015 BKN041 BKN100 06/M01 A2967 RMK SC1SC4AC1 SLP049

CYQB;2010-10-22 19:00;CYQB 221900Z 27021G29KT 25SM BKN042 BKN050 BKN100 06/M01 A2967 RMK SC5SC1AC1 DIST SH SLP051

CYQB;2010-10-22 20:00;CYQB 222000Z 27019G26KT 25SM BKN039 BKN050 BKN100 06/M02 A2970 RMK SC5SC1AC1 DIST SH SLP060

CYQB;2010-10-22 20:48;CYQB 222048Z 29017G31KT 15SM -SHRA BKN050 BKN100 05/ RMK SC5AC1

CYQB;2010-10-22 21:00;CYQB 222100Z 28014G19KT 25SM BKN045 BKN060 05/M01 A2972 RMK SC5SC2 DIST SH SLP069

CYQB;2010-10-22 22:00;CYQB 222200Z 27020G25KT 20SM SCT045 BKN055 05/M01 A2975 RMK SC3SC4 SLP076

CYQB;2010-10-22 23:00;CYQB 222300Z 26013G20KT 15SM BKN048 OVC060 04/M01 A2977 RMK SC6SC2 SLP083

CYQB;2010-10-23 00:00;CYQB 230000Z 26018G26KT 15SM FEW039 BKN068 OVC089 04/M02 A2978 RMK SC1SC6AC1 SLP087

CYQB;2010-10-23 01:00;CYQB 230100Z 26019G25KT 15SM SCT040 BKN091 03/M03 A2979 RMK SC4AC2 SLP091

CYQB;2010-10-23 02:00;CYQB 230200Z 27018KT 15SM BKN038 BKN120 03/M03 A2980 RMK SC5AC2 SLP095

CYQB;2010-10-23 03:00;CYQB 230300Z 27018KT 15SM BKN040 BKN100 02/M03 A2980 RMK SC5AC2 SLP095

CYQB;2010-10-23 04:00;CYQB 230400Z 26016KT 15SM BKN090 BKN120 02/M04 A2981 RMK AC5AC2 SLP096

CYQB;2010-10-23 05:00;CYQB 230500Z 26015G20KT 15SM BKN090 02/M04 A2982 RMK AC6 SLP100

CYQB;2010-10-23 06:00;CYQB 230600Z 26018KT 15SM BKN120 01/M04 A2982 RMK AC6 SLP100

CYQB;2010-10-23 07:00;CYQB 230700Z 26016KT 15SM BKN130 01/M04 A2983 RMK AC6 SLP105

CYQB;2010-10-23 08:00;CYQB 230800Z 25017KT 15SM BKN035 01/M04 A2984 RMK SC6 SLP109

CYQB;2010-10-23 09:00;CYQB 230900Z 24017KT 15SM FEW030 BKN130 01/M04 A2985 RMK SC2AC6 SLP111

CYQB;2010-10-23 10:00;CYQB 231000Z 24016KT 15SM FEW030 SCT130 00/M04 A2987 RMK SC1AC2 SLP118

CYQB;2010-10-23 11:00;CYQB 231100Z 25016KT 15SM BKN032 00/M03 A2989 RMK SC6 SLP124

CYQB;2010-10-23 12:00;CYQB 231200Z 26010G15KT 25SM BKN033 02/M03 A2992 RMK SC7 SLP134

CYQB;2010-10-23 13:00;CYQB 231300Z 26010KT 25SM BKN034 03/M03 A2994 RMK SC7 SLP141

CYQB;2010-10-23 14:00;CYQB 231400Z 29015G20KT 25SM BKN034 05/M02 A2995 RMK SC6 SLP145

CYQB;2010-10-23 15:00;CYQB 231500Z 28015G20KT 25SM BKN037 05/M03 A2996 RMK SC7 SLP149

CYQB;2010-10-23 16:00;CYQB 231600Z 29016G24KT 25SM BKN039 06/M03 A2997 RMK SC6 SLP153

CYQB;2010-10-23 17:00;CYQB 231700Z 27014G21KT 25SM BKN041 06/M02 A2998 RMK SC7 SLP154

CYQB;2010-10-23 18:00;CYQB 231800Z 29014KT 25SM BKN043 07/M02 A2998 RMK SC7 SLP156

CYQB;2010-10-23 19:00;CYQB 231900Z 28010G19KT 25SM BKN045 07/M02 A3000 RMK SC6 SLP161

CYQB;2010-10-23 20:00;CYQB 232000Z 31012KT 25SM BKN048 07/M03 A3002 RMK SC6 SLP168

CYQB;2010-10-23 21:00;CYQB 232100Z 31012KT 25SM BKN048 06/M03 A3004 RMK SC5 SLP175

CYQB;2010-10-23 22:00;CYQB 232200Z 31008KT 25SM BKN045 05/M03 A3006 RMK SC5 SLP183

CYQB;2010-10-23 23:00;CYQB 232300Z 30005KT 15SM SCT045 04/M03 A3009 RMK SC4 SLP192

CYQB;2010-10-24 00:00;CYQB 240000Z 29005KT 15SM SCT045 02/M03 A3011 RMK SC3 SLP201

CYQB;2010-10-24 01:00;CYQB 240100Z 26006KT 15SM SCT045 00/M04 A3012 RMK SC3 SLP203

CYQB;2010-10-24 02:00;CYQB 240200Z 23009KT 15SM SCT045 01/M04 A3013 RMK SC3 SLP205

CYQB;2010-10-24 03:00;CYQB 240300Z 25006KT 15SM FEW045 01/M04 A3014 RMK SC2 SLP208

CYQB;2010-10-24 04:00;CYQB 240400Z 27005KT 15SM FEW045 M01/M04 A3014 RMK SC1 SLP211

CYQB;2010-10-24 05:00;CYQB 240500Z 26006KT 15SM FEW045 M02/M04 A3016 RMK SC1 SLP215

CYQB;2010-10-24 06:00;CYQB 240600Z 28006KT 15SM FEW040 M03/M05 A3016 RMK SC1 SLP215

CYQB;2010-10-24 07:00;CYQB 240700Z 25004KT 15SM FEW040 M04/M06 A3016 RMK SC1 SLP215

CYQB;2010-10-24 08:00;CYQB 240800Z 25006KT 15SM FEW040 FEW100 M02/M04 A3017 RMK SC1AC1 SLP218

CYQB;2010-10-24 09:00;CYQB 240900Z 00000KT 15SM FEW040 FEW220 M02/M04 A3017 RMK SC1CI1 SLP221

CYQB;2010-10-24 10:00;CYQB 241000Z 17003KT 15SM FEW040 FEW100 FEW220 M02/M04 A3017 RMK SC1AC1CI1 SLP221

CYQB;2010-10-24 11:00;CYQB 241100Z 24002KT 30SM FEW040 FEW100 FEW220 M03/M05 A3018 RMK SC1AC1CI1 SLP223

CYQB;2010-10-24 12:00;CYQB 241200Z 18003KT 30SM FEW030 FEW100 BKN210 M01/M03 A3020 RMK SC1AC1CI3 SLP230

CYQB;2010-10-24 13:00;CYQB 241300Z 23006KT 30SM FEW030 FEW150 BKN210 01/M01 A3021 RMK SC1AC2CI3 SLP234

CYQB;2010-10-24 14:00;CYQB 241400Z 22003KT 30SM FEW012 FEW150 BKN210 03/00 A3020 RMK CU1AC1CI3 SLP231

CYQB;2010-10-24 15:00;CYQB 241500Z 00000KT 30SM FEW025 FEW150 SCT210 05/M01 A3018 RMK CU1AC1CI1 SLP224

CYQB;2010-10-24 16:00;CYQB 241600Z 24007KT 30SM FEW025 BKN200 06/01 A3016 RMK SC1CI1 SLP217

CYQB;2010-10-24 17:00;CYQB 241700Z 21008KT 30SM FEW025 BKN200 06/M01 A3015 RMK SC1CI1 SLP212

CYQB;2010-10-24 18:00;CYQB 241800Z 22006KT 30SM FEW025 SCT180 BKN210 07/M01 A3012 RMK SC1AC1CI2 SLP204

CYQB;2010-10-24 19:00;CYQB 241900Z 22006KT 30SM FEW025 SCT180 BKN200 08/M02 A3011 RMK SC1AC1CI2 SLP199

CYQB;2010-10-24 20:00;CYQB 242000Z 22005KT 30SM FEW025 BKN200 07/M02 A3010 RMK SC1CC4 SLP195

CYQB;2010-10-24 21:00;CYQB 242100Z 21004KT 30SM FEW025 SCT200 06/M02 A3009 RMK SC1CI2 CC ASOCTD SLP193

CYQB;2010-10-24 22:00;CYQB 242200Z 27002KT 30SM FEW100 FEW200 03/M03 A3008 RMK AC1CI1 SLP191

CYQB;2010-10-24 22:36;CYQB 242236Z 27003KT 15SM FEW090 FEW220 02/ RMK AC1CI1

CYQB;2010-10-24 23:00;CYQB 242300Z 27003KT 15SM FEW090 FEW200 01/M03 A3009 RMK AC1CI1 SLP192

CYQB;2010-10-25 00:00;CYQB 250000Z 33004KT 15SM FEW090 FEW200 00/M03 A3009 RMK AC1CI1 SLP194

CYQB;2010-10-25 01:00;CYQB 250100Z 36004KT 15SM FEW090 FEW200 01/M02 A3009 RMK AC1CI1 SLP193

CYQB;2010-10-25 02:00;CYQB 250200Z 02004KT 15SM FEW090 FEW200 01/M02 A3008 RMK AC1CI1 SLP190

CYQB;2010-10-25 03:00;CYQB 250300Z 02002KT 15SM BKN150 BKN220 01/M02 A3008 RMK AC6CI0 SLP188

CYQB;2010-10-25 04:00;CYQB 250400Z 03004KT 15SM BKN140 BKN220 01/M02 A3006 RMK AC6CI0 SLP184

CYQB;2010-10-25 05:00;CYQB 250500Z 02005KT 15SM BKN130 01/M02 A3006 RMK AC6 SLP181

CYQB;2010-10-25 06:00;CYQB 250600Z 05004KT 15SM BKN070 02/M01 A3004 RMK AC7 SLP175

CYQB;2010-10-25 07:00;CYQB 250700Z 05004KT 15SM BKN060 03/M01 A3003 RMK SC7 SLP171

CYQB;2010-10-25 07:33;CYQB 250733Z 06008KT 15SM -SHRA OVC062 03/ RMK SC8

CYQB;2010-10-25 08:00;CYQB 250800Z 07007KT 15SM -SHRA OVC050 03/01 A3001 RMK SC8 SLP164

CYQB;2010-10-25 09:00;CYQB 250900Z 06007KT 15SM -SHRA BKN031 OVC050 03/02 A2999 RMK SC6SC2 SLP159

CYQB;2010-10-25 10:00;CYQB 251000Z 06007KT 15SM OVC030 04/02 A2998 RMK SC8 SLP154

CYQB;2010-10-25 11:00;CYQB 251100Z 06010KT 15SM OVC031 04/02 A2997 RMK SC8 SLP151

CYQB;2010-10-25 11:30;CYQB 251130Z 06009G15KT 15SM -SHRA OVC023 04/ RMK SC8

CYQB;2010-10-25 12:00;CYQB 251200Z 07009KT 10SM -SHRA OVC022 04/03 A2997 RMK SC8 SLP151

CYQB;2010-10-25 13:00;CYQB 251300Z 06009KT 15SM -SHRA FEW014 OVC020 04/03 A2997 RMK SF1SC7 SLP151

CYQB;2010-10-25 14:00;CYQB 251400Z 07013KT 15SM -SHRA OVC020 04/03 A2994 RMK SC8 SLP143

CYQB;2010-10-25 15:00;CYQB 251500Z 07011KT 20SM OVC020 04/03 A2994 RMK SC8 SLP141

CYQB;2010-10-25 16:00;CYQB 251600Z 07012G18KT 25SM BKN019 OVC031 05/02 A2992 RMK SC6SC2 SLP136

CYQB;2010-10-25 16:36;CYQB 251636Z 05015KT 10SM -SHRA BKN019 OVC045 05/ RMK SC6SC2

CYQB;2010-10-25 17:00;CYQB 251700Z 07012G18KT 10SM -SHRA OVC023 04/03 A2992 RMK SC8 SLP134

CYQB;2010-10-25 17:44;CYQB 251744Z 06011KT 1 1/2SM -SHRA BR BKN016 OVC036 04/ RMK SC7SC1

CYQB;2010-10-25 18:00;CYQB 251800Z 07010G16KT 5SM -RA BR SCT012 OVC047 04/03 A2988 RMK SC3SC5 VIS E 2 SLP122

CYQB;2010-10-25 18:46;CYQB 251846Z 07011G16KT 2SM -RA BR BKN006 OVC012 04/ RMK FG2SF5SC2

CYQB;2010-10-25 19:00;CYQB 251900Z 08008KT 6SM -RA BR BKN007 OVC012 04/04 A2988 RMK SF6SC2 SLP121

CYQB;2010-10-25 19:32;CYQB 251932Z 07011G18KT 8SM -DZ BKN007 OVC012 04/ RMK SF7SC1

CYQB;2010-10-25 20:00;CYQB 252000Z 06014KT 8SM -DZ BKN007 OVC011 04/03 A2986 RMK SF6SC2 SLP113

CYQB;2010-10-25 21:00;CYQB 252100Z 06010G19KT 15SM SCT007 OVC011 04/03 A2984 RMK SF4SC4 SLP109

CYQB;2010-10-25 22:00;CYQB 252200Z 07011KT 15SM SCT007 OVC017 04/03 A2983 RMK SF4SC4 SLP106

CYQB;2010-10-25 23:00;CYQB 252300Z 07012KT 15SM FEW007 OVC017 04/03 A2983 RMK SF2SC6 SLP104

CYQB;2010-10-26 00:00;CYQB 260000Z 04011KT 8SM -RASN SCT009 OVC016 04/04 A2985 RMK SF3SC5 SLP111

CYQB;2010-10-26 01:00;CYQB 260100Z 08006KT 5SM -RA BR BKN005 OVC031 04/04 A2982 RMK SF6SC2 SLP101

CYQB;2010-10-26 02:00;CYQB 260200Z 08009G15KT 5SM -RA BR OVC004 04/04 A2983 RMK SF8 SLP103

CYQB;2010-10-26 03:00;CYQB 260300Z 07009KT 5SM -RA BR BKN005 OVC008 04/04 A2982 RMK SF7SF1 SLP100

CYQB;2010-10-26 04:00;CYQB 260400Z 07011KT 5SM -RA BR OVC004 04/04 A2981 RMK SF8 SLP098

CYQB;2010-10-26 05:00;CYQB 260500Z 07010KT 5SM -RA BR OVC003 04/04 A2981 RMK SF8 SLP097

CYQB;2010-10-26 06:00;CYQB 260600Z 07010G16KT 3SM -DZ BR OVC003 04/04 A2981 RMK SF8 SLP098

CYQB;2010-10-26 07:00;CYQB 260700Z 07010KT 3SM -DZ BR OVC003 04/04 A2982 RMK SF8 SLP101

CYQB;2010-10-26 08:00;CYQB 260800Z 07008KT 4SM -DZ BR OVC003 05/05 A2983 RMK SF8 SLP103

CYQB;2010-10-26 09:00;CYQB 260900Z 08009G16KT 4SM -DZ BR OVC004 05/05 A2983 RMK SF8 CIG VRB 3-5 SLP105

CYQB;2010-10-26 10:00;CYQB 261000Z 07009G16KT 4SM -RA BR BKN004 OVC007 05/05 A2985 RMK SF6SF2 SLP110

CYQB;2010-10-26 11:00;CYQB 261100Z 08012G18KT 5SM -RA BR OVC006 05/04 A2987 RMK SF8 SLP118

CYQB;2010-10-26 12:00;CYQB 261200Z 08009G19KT 6SM -RA BR OVC006 05/04 A2989 RMK SF8 SLP124

CYQB;2010-10-26 12:39;CYQB 261239Z 06012G19KT 4SM BR BKN006 BKN009 OVC012 05/ RMK SF5SF2SC1

CYQB;2010-10-26 13:00;CYQB 261300Z 07012G17KT 5SM BR BKN007 OVC011 05/04 A2991 RMK SF6SC2 SLP131

CYQB;2010-10-26 14:00;CYQB 261400Z 07009G19KT 6SM BR BKN007 OVC016 05/04 A2992 RMK SF7SC1 SLP135

CYQB;2010-10-26 15:00;CYQB 261500Z 07008G16KT 8SM BKN007 OVC016 06/05 A2994 RMK SF6SC2 SLP142

CYQB;2010-10-26 15:50;CYQB 261550Z 07010G20KT 5SM -DZ BR OVC007 06/ RMK SF8

CYQB;2010-10-26 16:00;CYQB 261600Z 08013G19KT 5SM -DZ BR OVC007 06/05 A2995 RMK SF8 SLP144

CYQB;2010-10-26 16:40;CYQB 261640Z 09010G18KT 8SM OVC008 06/ RMK SF8

CYQB;2010-10-26 17:00;CYQB 261700Z 08011KT 8SM OVC008 06/05 A2995 RMK SF8 SLP145

CYQB;2010-10-26 17:46;CYQB 261746Z 07008G16KT 10SM BKN010 OVC016 06/ RMK SF6SC2

CYQB;2010-10-26 18:00;CYQB 261800Z 07012G18KT 10SM BKN011 OVC016 06/05 A2995 RMK SC6SC2 SLP145

CYQB;2010-10-26 19:00;CYQB 261900Z 07010G17KT 10SM BKN010 OVC014 06/05 A2996 RMK SC6SC2 SLP147

CYQB;2010-10-26 20:00;CYQB 262000Z 08011G17KT 4SM -DZ BR BKN009 OVC013 06/05 A2995 RMK SF6SC2 SLP146

CYQB;2010-10-26 21:00;CYQB 262100Z 07013G19KT 10SM OVC007 06/05 A2994 RMK SC8 CIG VRB 5-9 SLP143

CYQB;2010-10-26 22:00;CYQB 262200Z 07010G19KT 8SM OVC007 06/05 A2994 RMK SC8 CIG VRB 5-9 SLP143

CYQB;2010-10-26 23:00;CYQB 262300Z 07015G20KT 10SM BKN007 OVC015 06/05 A2994 RMK SC6SC2 SLP143

CYQB;2010-10-27 00:00;CYQB 270000Z 07010G19KT 15SM BKN008 BKN020 OVC055 07/06 A2996 RMK SC6SC2SC1 SLP147

CYQB;2010-10-27 00:28;CYQB 270028Z 06014G21KT 15SM SCT008 OVC018 07/ RMK SF4SC4

CYQB;2010-10-27 01:00;CYQB 270100Z 07019G24KT 15SM FEW008 OVC018 07/06 A2994 RMK SF2SC6 SLP143

CYQB;2010-10-27 01:31;CYQB 270131Z 08015G25KT 15SM OVC012 07/ RMK SC8

CYQB;2010-10-27 02:00;CYQB 270200Z 07015G26KT 15SM OVC012 08/06 A2994 RMK SC8 SLP141

CYQB;2010-10-27 03:00;CYQB 270300Z 08016G21KT 15SM SCT007 OVC012 08/07 A2992 RMK SF4SC4 SLP136

CYQB;2010-10-27 03:16;CYQB 270316Z 09013G22KT 15SM BKN007 OVC011 08/ RMK SF6SC2

CYQB;2010-10-27 04:00;CYQB 270400Z 07015G22KT 15SM BKN007 OVC012 09/08 A2991 RMK SF6SC2 SLP132

CYQB;2010-10-27 05:00;CYQB 270500Z 07014G22KT 15SM BKN007 BKN012 OVC020 09/08 A2989 RMK SF5SC2SC2 SLP125

CYQB;2010-10-27 06:00;CYQB 270600Z 07017G22KT 15SM FEW007 BKN014 OVC020 09/09 A2988 RMK SF2SC3SC2 SLP119

CYQB;2010-10-27 06:34;CYQB 270634Z 06017G22KT 15SM -SHRA FEW007 OVC016 10/ RMK SF2SC6

CYQB;2010-10-27 07:00;CYQB 270700Z 08013G26KT 15SM FEW007 OVC014 10/09 A2986 RMK SF2SC6 SLP115

CYQB;2010-10-27 08:00;CYQB 270800Z 07018KT 15SM FEW007 SCT014 OVC018 10/09 A2984 RMK SF2SC2SC4 SLP107

CYQB;2010-10-27 08:21;CYQB 270821Z 07019G25KT 15SM -SHRA FEW007 SCT014 OVC018 10/ RMK SF2SC2SC4

CYQB;2010-10-27 09:00;CYQB 270900Z 07016G22KT 15SM -SHRA FEW012 BKN019 OVC030 10/09 A2983 RMK SC2SC6SC1 SLP105

CYQB;2010-10-27 10:00;CYQB 271000Z 10011G21KT 15SM -SHRA FEW006 OVC014 10/10 A2979 RMK SF2SC6 SLP089

CYQB;2010-10-27 11:00;CYQB 271100Z 08012KT 15SM BKN018 OVC025 10/10 A2979 RMK SC6SC2 SLP089

CYQB;2010-10-27 12:00;CYQB 271200Z 08011G17KT 25SM OVC017 11/10 A2977 RMK SC8 SLP084

CYQB;2010-10-27 12:43;CYQB 271243Z 07007KT 25SM -SHRA BKN014 OVC021 11/ RMK SC6SC2

CYQB;2010-10-27 13:00;CYQB 271300Z 06005KT 20SM -SHRA BKN013 OVC020 11/10 A2979 RMK SC6SC2 SLP091

CYQB;2010-10-27 14:00;CYQB 271400Z 06003KT 20SM -SHRA OVC015 11/10 A2980 RMK SC8 SLP093

CYQB;2010-10-27 14:22;CYQB 271422Z 07006KT 20SM OVC013 11/ RMK SC8

CYQB;2010-10-27 15:00;CYQB 271500Z 05005KT 20SM OVC010 11/10 A2979 RMK SC8 CIG RAG SLP091

CYQB;2010-10-27 15:20;CYQB 271520Z 06006KT 20SM BKN008 OVC011 11/ RMK SF6SC2

CYQB;2010-10-27 16:00;CYQB 271600Z 06005KT 15SM BKN009 OVC011 11/11 A2980 RMK SF6SC2 SLP093

CYQB;2010-10-27 16:23;CYQB 271623Z 09003KT 15SM SCT009 BKN058 12/ RMK SF4SC3

CYQB;2010-10-27 17:00;CYQB 271700Z 09004KT 25SM BKN013 BKN058 13/12 A2978 RMK SC6SC2 SLP085

CYQB;2010-10-27 18:00;CYQB 271800Z 00000KT 25SM FEW015 FEW060 15/13 A2976 RMK SC2SC1 SLP078

CYQB;2010-10-27 19:00;CYQB 271900Z 25008KT 15SM FEW014 FEW080 18/11 A2974 RMK SC2AC1 SLP072

CYQB;2010-10-27 20:00;CYQB 272000Z 24008KT 20SM FEW030 FEW080 17/10 A2972 RMK SC2AC1 SLP067

CYQB;2010-10-27 21:00;CYQB 272100Z 23008KT 25SM FEW030 FEW080 17/09 A2972 RMK SC2AC1 SLP065

CYQB;2010-10-27 22:00;CYQB 272200Z 22004KT 15SM FEW030 FEW100 14/07 A2972 RMK SC1AC1 SLP067

CYQB;2010-10-27 23:00;CYQB 272300Z 20003KT 15SM FEW100 12/07 A2973 RMK AC1 SLP068

CYQB;2010-10-28 00:00;CYQB 280000Z 15006KT 15SM FEW100 11/06 A2972 RMK AC1 SLP065

CYQB;2010-10-28 01:00;CYQB 280100Z 26004KT 15SM FEW100 11/09 A2972 RMK AC1 SLP067

CYQB;2010-10-28 02:00;CYQB 280200Z CCA 00000KT 15SM SKC 09/08 A2973 RMK SLP068

CYQB;2010-10-28 03:00;CYQB 280300Z 01004KT 15SM FEW160 09/08 A2971 RMK AC1 SLP063

CYQB;2010-10-28 04:00;CYQB 280400Z 02002KT 15SM FEW130 08/07 A2970 RMK AC1 SLP060

CYQB;2010-10-28 05:00;CYQB 280500Z 02005KT 15SM FEW110 08/07 A2969 RMK AC0 SLP055

CYQB;2010-10-28 06:00;CYQB 280600Z 01003KT 15SM FEW110 07/07 A2968 RMK AC0 SLP051

CYQB;2010-10-28 07:00;CYQB 280700Z 03002KT 15SM FEW110 06/05 A2967 RMK AC1 SLP050

CYQB;2010-10-28 08:00;CYQB 280800Z 02004KT 15SM R06/3000VP6000FT/U FEW110 07/06 A2965 RMK AC1 SLP043

CYQB;2010-10-28 09:00;CYQB 280900Z 00000KT 15SM SKC 04/04 A2964 RMK SLP038

CYQB;2010-10-28 10:00;CYQB 281000Z 02004KT 15SM FEW082 05/04 A2963 RMK AC1 SLP035

CYQB;2010-10-28 11:00;CYQB 281100Z 01003KT 15SM FEW080 FEW140 06/05 A2962 RMK AC2AC1 SLP033

CYQB;2010-10-28 12:00;CYQB 281200Z 00000KT 30SM FEW070 05/04 A2961 RMK AC2 SLP029

CYQB;2010-10-28 13:00;CYQB 281300Z 00000KT 30SM FEW090 FEW140 09/06 A2961 RMK AC1AC2 SLP028

CYQB;2010-10-28 14:00;CYQB 281400Z 21012G17KT 30SM FEW090 SCT140 16/06 A2958 RMK AC2AC1 SLP017

CYQB;2010-10-28 15:00;CYQB 281500Z 23020G29KT 15SM FEW045 FEW070 BKN100 16/04 A2957 RMK SF1AC1AC6 SLP014

CYQB;2010-10-28 16:00;CYQB 281600Z 24020G28KT 15SM FEW045 OVC065 15/04 A2956 RMK SF1SC8 SLP013

CYQB;2010-10-28 17:00;CYQB 281700Z 25022G33KT 15SM -SHRA FEW045 OVC058 14/06 A2956 RMK SC1SC7 SLP012

CYQB;2010-10-28 18:00;CYQB 281800Z 24026G33KT 15SM -SHRA FEW040 BKN050 OVC080 14/05 A2958 RMK CF1SC5AC2 SLP018

CYQB;2010-10-28 19:00;CYQB 281900Z 27014G22KT 15SM FEW011 BKN050 OVC070 11/06 A2961 RMK SF1SC6AC2 SH ALQDS SLP030

CYQB;2010-10-28 20:00;CYQB 282000Z 25006KT 30SM FEW015 BKN050 OVC085 11/07 A2964 RMK CF1SC6AC2 SLP039

CYQB;2010-10-28 20:30;CYQB 282030Z 27006KT 15SM -SHRA FEW015 BKN048 10/ RMK CF1SC6

CYQB;2010-10-28 21:00;CYQB 282100Z 24012KT 15SM FEW015 BKN035 BKN080 10/07 A2966 RMK CF1SC5AC1 VIS E 5 SH SLP046

CYQB;2010-10-28 22:00;CYQB 282200Z 26007KT 15SM FEW015 FEW035 SCT080 BKN110 09/07 A2968 RMK CF1SC1AC2AC2 SLP053

CYQB;2010-10-28 23:00;CYQB 282300Z 24008KT 15SM BKN060 BKN110 09/06 A2971 RMK SC5AC1 SLP062

CYQB;2010-10-29 00:00;CYQB 290000Z 25006KT 15SM FEW045 BKN055 BKN063 09/06 A2971 RMK SC1SC5SC1 SLP063

CYQB;2010-10-29 01:00;CYQB 290100Z 24006KT 15SM SCT050 OVC090 08/06 A2972 RMK SC4AC4 SLP067

CYQB;2010-10-29 01:47;CYQB 290147Z 24009KT 15SM -SHRA OVC052 08/ RMK SC8

CYQB;2010-10-29 02:00;CYQB 290200Z 23009KT 15SM -SHRA BKN054 OVC100 09/06 A2973 RMK SC6AC2 SLP071

CYQB;2010-10-29 02:14;CYQB 290214Z 25010KT 15SM SCT054 OVC100 08/ RMK SC4AC4

CYQB;2010-10-29 02:30;CYQB 290230Z 24011KT 15SM -SHRA BKN048 OVC100 08/ RMK SC6AC2

CYQB;2010-10-29 03:00;CYQB 290300Z 25008KT 15SM FEW048 BKN100 08/06 A2975 RMK SC2AC6 SLP074

CYQB;2010-10-29 04:00;CYQB 290400Z 25007KT 15SM BKN043 OVC100 08/05 A2975 RMK SC6AC2 SLP076

CYQB;2010-10-29 05:00;CYQB 290500Z 25010KT 15SM FEW046 BKN090 08/05 A2975 RMK SC2AC2 SLP077

CYQB;2010-10-29 06:00;CYQB 290600Z 26007KT 15SM BKN038 BKN090 08/05 A2976 RMK SC5AC2 SLP080

CYQB;2010-10-29 07:00;CYQB 290700Z 27008KT 15SM FEW090 06/04 A2977 RMK AC1 SLP083

CYQB;2010-10-29 08:00;CYQB 290800Z 24005KT 15SM FEW090 BKN240 05/04 A2978 RMK AC1CI1 SLP084

CYQB;2010-10-29 09:00;CYQB 290900Z 24006KT 15SM BKN036 06/05 A2978 RMK SC6 SLP088

CYQB;2010-10-29 10:00;CYQB 291000Z 22007KT 15SM BKN038 06/04 A2980 RMK SC7 SLP093

CYQB;2010-10-29 11:00;CYQB 291100Z 24010KT 15SM BKN038 BKN190 06/04 A2980 RMK SC5AC2 SLP094

CYQB;2010-10-29 12:00;CYQB 291200Z 29005KT 25SM FEW040 BKN150 05/04 A2981 RMK SC2AC5 SLP098

CYQB;2010-10-29 13:00;CYQB 291300Z 26007KT 25SM FEW040 OVC110 06/04 A2982 RMK SC2AC5 SLP101

CYQB;2010-10-29 14:00;CYQB 291400Z 26005KT 25SM FEW040 BKN120 OVC220 07/04 A2983 RMK SC2AC4CI2 SLP102

CYQB;2010-10-29 15:00;CYQB 291500Z 25007KT 25SM FEW040 BKN060 OVC120 07/04 A2983 RMK SC2SC3AC3 SLP103

CYQB;2010-10-29 16:00;CYQB 291600Z 27008KT 25SM -SHRA BKN030 BKN047 OVC120 07/04 A2983 RMK SC5SC2AC2 SLP103

CYQB;2010-10-29 17:00;CYQB 291700Z 25007KT 10SM -SHRA BKN029 OVC043 07/05 A2981 RMK SC5SC3 SLP098

CYQB;2010-10-29 17:28;CYQB 291728Z 25009KT 30SM BKN021 BKN050 OVC120 07/ RMK SC5SC2AC1

CYQB;2010-10-29 17:37;CYQB 291737Z 25010KT 15SM -SHRA BKN020 BKN060 OVC120 07/ RMK SC5SC2AC1

CYQB;2010-10-29 18:00;CYQB 291800Z 26010KT 15SM SCT030 OVC060 07/04 A2980 RMK SC4SC4 OCNL -SHRA SLP093

CYQB;2010-10-29 19:00;CYQB 291900Z 28008KT 15SM FEW030 OVC077 07/04 A2979 RMK CU2AC6 SLP089

CYQB;2010-10-29 20:00;CYQB 292000Z 28011G17KT 30SM FEW020 SCT040 BKN055 BKN080 07/03 A2979 RMK CU2SC2SC2AC2 SLP090

CYQB;2010-10-29 21:00;CYQB 292100Z 26013KT 30SM FEW025 BKN058 06/02 A2980 RMK CU2SC5 SLP092

CYQB;2010-10-29 22:00;CYQB 292200Z 26010G15KT 15SM FEW025 BKN051 05/01 A2980 RMK CU2SC6 SLP094

CYQB;2010-10-29 23:00;CYQB 292300Z 27010KT 15SM FEW025 OVC052 05/01 A2981 RMK CU1SC7 SLP097

CYQB;2010-10-30 00:00;CYQB 300000Z 27011KT 15SM FEW025 OVC050 04/00 A2983 RMK CU1SC7 SLP103

CYQB;2010-10-30 00:25;CYQB 300025Z 26010KT 15SM -SHRA FEW025 OVC050 04/ RMK SC1SC7

CYQB;2010-10-30 01:00;CYQB 300100Z 27009KT 15SM SCT070 OVC083 04/M00 A2983 RMK AC4AC4 SLP104

CYQB;2010-10-30 02:00;CYQB 300200Z 28012KT 15SM OVC070 03/M01 A2983 RMK AC8 SLP105

CYQB;2010-10-30 03:00;CYQB 300300Z 29010G15KT 15SM BKN070 03/M02 A2983 RMK AC6 SLP105

CYQB;2010-10-30 04:00;CYQB 300400Z 26009KT 15SM BKN070 01/M01 A2982 RMK AC6 SLP102

CYQB;2010-10-30 05:00;CYQB 300500Z 24012KT 15SM SCT070 00/M03 A2983 RMK AC3 SLP103

CYQB;2010-10-30 06:00;CYQB 300600Z 25009KT 15SM FEW070 FEW150 M00/M04 A2984 RMK AC1AC2 SLP107

CYQB;2010-10-30 07:00;CYQB 300700Z 26013KT 15SM FEW070 FEW150 M01/M04 A2983 RMK AC1AC1 SLP104

CYQB;2010-10-30 08:00;CYQB 300800Z 26010KT 15SM FEW010 M01/M04 A2983 RMK CF1 SLP106

CYQB;2010-10-30 09:00;CYQB 300900Z 22005KT 15SM FEW030 SCT100 M02/M04 A2983 RMK SC1AC2 SLP103

CYQB;2010-10-30 10:00;CYQB 301000Z 24008KT 15SM FEW040 SCT090 M02/M04 A2982 RMK SC1AC1 SLP100

CYQB;2010-10-30 11:00;CYQB 301100Z 24006KT 15SM FEW040 BKN100 M02/M04 A2981 RMK SC1AC2 SLP096

CYQB;2010-10-30 12:00;CYQB 301200Z 23005KT 25SM FEW040 BKN100 BKN200 M02/M04 A2981 RMK SC1AC2CI0 SLP096

CYQB;2010-10-30 13:00;CYQB 301300Z 24008KT 25SM FEW030 BKN092 M01/M03 A2981 RMK SC2AC3 SLP096

CYQB;2010-10-30 14:00;CYQB 301400Z 24010KT 25SM FEW027 BKN090 01/M03 A2979 RMK SC2AC2 SLP092

CYQB;2010-10-30 15:00;CYQB 301500Z 27011KT 25SM SCT032 BKN090 03/M04 A2979 RMK SC3AC1 SLP091

CYQB;2010-10-30 16:00;CYQB 301600Z 26014KT 25SM SCT046 SCT090 03/M06 A2977 RMK SC3AC1 SLP085

CYQB;2010-10-30 17:00;CYQB 301700Z 27014G25KT 15SM SCT053 BKN120 03/M07 A2976 RMK SC4AC1 SLP080

CYQB;2010-10-30 18:00;CYQB 301800Z 28014G20KT 25SM BKN056 BKN120 BKN200 04/M07 A2975 RMK SC5AC1CI0 SLP076

CYQB;2010-10-30 19:00;CYQB 301900Z 26017KT 30SM BKN052 BKN120 04/M06 A2973 RMK SC5AC2 SLP071

CYQB;2010-10-30 20:00;CYQB 302000Z 28013G18KT 30SM SCT060 BKN095 BKN260 04/M06 A2973 RMK SC3AC2CI0 SLP072

CYQB;2010-10-30 21:00;CYQB 302100Z 25006KT 30SM FEW060 SCT095 BKN260 02/M06 A2972 RMK SC2AC2CI1 SLP069

CYQB;2010-10-30 22:00;CYQB 302200Z 24005KT 15SM FEW060 BKN097 BKN260 01/M06 A2973 RMK SC2AC2CI0 SLP070

CYQB;2010-10-30 23:00;CYQB 302300Z 26005KT 15SM FEW060 SCT090 BKN120 M00/M05 A2972 RMK SC2AC2AC2 SLP069

CYQB;2010-10-31 00:00;CYQB 310000Z 27004KT 15SM SCT090 BKN120 M00/M05 A2971 RMK AC3AC2 SLP065

CYQB;2010-10-31 01:00;CYQB 310100Z 23005KT 15SM FEW060 SCT120 BKN240 M00/M05 A2970 RMK SC1AC3CI1 SLP062

CYQB;2010-10-31 02:00;CYQB 310200Z 24005KT 15SM BKN120 M00/M03 A2970 RMK AC7 SLP061

CYQB;2010-10-31 03:00;CYQB 310300Z 00000KT 15SM FEW060 BKN120 00/M04 A2970 RMK SC2AC6 SLP060

CYQB;2010-10-31 04:00;CYQB 310400Z 00000KT 15SM FEW010 BKN060 OVC100 M00/M03 A2970 RMK ST2SC5AC1 SLP060

CYQB;2010-10-31 05:00;CYQB 310500Z 35004KT 15SM FEW008 OVC045 M00/M04 A2970 RMK SF2SC6 SLP059

CYQB;2010-10-31 06:00;CYQB 310600Z 36006KT 15SM FEW008 FEW045 BKN100 M01/M05 A2969 RMK SF1SC1AC2 SLP058

CYQB;2010-10-31 07:00;CYQB 310700Z 36006KT 15SM FEW040 FEW080 BKN150 M02/M05 A2969 RMK SC1AC2AC2 SLP058

CYQB;2010-10-31 08:00;CYQB 310800Z 35007KT 15SM BKN040 BKN150 M02/M06 A2970 RMK SC4AC1 SLP060

CYQB;2010-10-31 09:00;CYQB 310900Z 36007KT 15SM BKN040 M02/M06 A2972 RMK SC4 SLP066

CYQB;2010-10-31 10:00;CYQB 311000Z 01005KT 15SM FEW042 BKN160 M02/M07 A2973 RMK SC1AC2 SLP070

CYQB;2010-10-31 11:00;CYQB 311100Z 35002KT 15SM BKN160 BKN200 M02/M08 A2974 RMK AC2CI0 SLP075

CYQB;2010-10-31 12:00;CYQB 311200Z 32005KT 25SM FEW040 FEW160 BKN200 M02/M08 A2975 RMK SC1AC2CI0 SLP080

CYQB;2010-10-31 13:00;CYQB 311300Z 31005KT 25SM FEW150 FEW200 M01/M08 A2977 RMK AC1CI0 SLP086

CYQB;2010-10-31 14:00;CYQB 311400Z 34008KT 25SM FEW015 FEW040 SCT150 BKN200 01/M07 A2978 RMK SC1SC2AC2CI0 SLP089

CYQB;2010-10-31 15:00;CYQB 311500Z 01006KT 25SM BKN043 BKN160 BKN200 02/M07 A2979 RMK SC6AC1CI1 SLP090

CYQB;2010-10-31 15:47;CYQB 311547Z 34009KT 25SM OVC040 02/ RMK SC8

CYQB;2010-10-31 16:00;CYQB 311600Z 32007KT 25SM OVC038 02/M06 A2980 RMK SC8 SLP094

CYQB;2010-10-31 17:00;CYQB 311700Z 32009KT 25SM OVC037 02/M06 A2981 RMK SC8 SLP097

CYQB;2010-10-31 18:00;CYQB 311800Z 32008KT 25SM OVC038 02/M05 A2982 RMK SC8 SLP102

CYQB;2010-10-31 19:00;CYQB 311900Z 29007KT 30SM OVC040 02/M05 A2983 RMK SC8 SLP106

CYQB;2010-10-31 20:00;CYQB 312000Z 31007KT 30SM OVC039 03/M05 A2985 RMK SC8 SLP112

CYQB;2010-10-31 21:00;CYQB 312100Z 29004KT 30SM OVC039 03/M04 A2988 RMK SC8 SLP122

CYQB;2010-10-31 22:00;CYQB 312200Z 28005KT 15SM OVC036 02/M04 A2990 RMK SC8 SLP130

CYQB;2010-10-31 23:00;CYQB 312300Z 29005KT 15SM BKN039 OVC063 02/M03 A2993 RMK SC6SC2 SLP138

CYQB;2010-11-01 01:00;CYQB 010100Z 27006KT 15SM FEW040 BKN060 OVC100 01/M03 A2995 RMK SC1SC5AC2 SLP147

CYQB;2010-11-01 02:00;CYQB 010200Z 26009KT 15SM FEW043 BKN100 OVC120 02/M02 A2997 RMK SC1AC6AC2 SLP154

CYQB;2010-11-01 03:00;CYQB 010300Z 24008KT 15SM OVC055 01/M02 A2999 RMK SC8 SLP159

CYQB;2010-11-01 04:00;CYQB 010400Z 26008KT 15SM OVC052 01/M02 A3000 RMK SC8 SLP164

CYQB;2010-11-01 05:00;CYQB 010500Z 25006KT 15SM BKN049 OVC140 01/M02 A3002 RMK SC6AC2 SLP169

CYQB;2010-11-01 06:00;CYQB 010600Z 25005KT 15SM BKN041 01/M02 A3004 RMK SC6 VIRGA SLP175

CYQB;2010-11-01 07:00;CYQB 010700Z 23005KT 15SM BKN050 00/M02 A3006 RMK SC5 VIRGA SLP182

CYQB;2010-11-01 08:00;CYQB 010800Z 18002KT 15SM BKN060 00/M02 A3007 RMK SC3 SLP186

CYQB;2010-11-01 09:00;CYQB 010900Z 24004KT 15SM BKN060 00/M02 A3010 RMK SC6 SLP196

CYQB;2010-11-01 10:00;CYQB 011000Z 23004KT 15SM BKN036 01/M01 A3012 RMK SC6 SLP203

CYQB;2010-11-01 11:00;CYQB 011100Z 24004KT 15SM BKN047 BKN073 01/M01 A3014 RMK SC5AC2 SLP209

CYQB;2010-11-01 12:00;CYQB 011200Z 24002KT 20SM SCT050 BKN092 01/M01 A3017 RMK SC3AC1 DIST SH W-N SLP220

CYQB;2010-11-01 13:00;CYQB 011300Z 32006KT 20SM BKN060 BKN090 04/M01 A3020 RMK SC4AC1 SLP229

CYQB;2010-11-01 14:00;CYQB 011400Z 35003KT 20SM FEW020 BKN060 BKN090 05/M02 A3022 RMK SC1SC5AC1 SLP235

CYQB;2010-11-01 15:00;CYQB 011500Z 04007KT 20SM FEW020 BKN058 BKN090 06/M02 A3022 RMK SC1SC5AC2 VIRGA SLP238

CYQB;2010-11-01 16:00;CYQB 011600Z 36007KT 20SM BKN045 BKN080 06/M03 A3023 RMK SC5AC2 SLP239

CYQB;2010-11-01 17:00;CYQB 011700Z 34009G15KT 20SM BKN057 07/M05 A3022 RMK SC6 VIRGA SLP235

CYQB;2010-11-01 18:00;CYQB 011800Z 33012G18KT 20SM BKN062 06/M05 A3023 RMK SC6 DIST SH SLP239

CYQB;2010-11-01 19:00;CYQB 011900Z 34010KT 30SM FEW028 BKN057 06/M05 A3024 RMK SC1SC7 SLP244

CYQB;2010-11-01 20:00;CYQB 012000Z 35012KT 30SM FEW030 OVC052 05/M05 A3027 RMK SC1SC8 SLP253

CYQB;2010-11-01 21:00;CYQB 012100Z 36011G16KT 30SM FEW030 OVC047 04/M06 A3029 RMK SC1SC7 SLP261

CYQB;2010-11-01 22:00;CYQB 012200Z 36011G16KT 15SM OVC045 03/M07 A3031 RMK SC7 SLP269

CYQB;2010-11-01 23:00;CYQB 012300Z 35008KT 15SM OVC044 03/M06 A3034 RMK SC8 SLP277

CYQB;2010-11-02 00:00;CYQB 020000Z 36005KT 15SM OVC045 03/M06 A3035 RMK SC8 SLP280

CYQB;2010-11-02 01:00;CYQB 020100Z 02008KT 15SM OVC045 03/M06 A3036 RMK SC8 SLP285

CYQB;2010-11-02 02:00;CYQB 020200Z 01011G16KT 15SM OVC045 03/M07 A3037 RMK SC8 SLP289

CYQB;2010-11-02 03:00;CYQB 020300Z 02005KT 15SM OVC054 02/M08 A3037 RMK SC8 SLP289

CYQB;2010-11-02 04:00;CYQB 020400Z 01005KT 15SM OVC048 02/M07 A3038 RMK SC8 SLP291

CYQB;2010-11-02 05:00;CYQB 020500Z 35002KT 15SM OVC047 02/M07 A3038 RMK SC8 SLP292

CYQB;2010-11-02 06:00;CYQB 020600Z 32004KT 15SM OVC043 01/M06 A3039 RMK SC8 SLP296

CYQB;2010-11-02 07:00;CYQB 020700Z 35005KT 15SM BKN041 01/M07 A3039 RMK SC7 SLP296

CYQB;2010-11-02 08:00;CYQB 020800Z 36004KT 15SM BKN038 01/M07 A3040 RMK SC5 SLP299

CYQB;2010-11-02 09:00;CYQB 020900Z 36006KT 15SM SCT038 M00/M07 A3041 RMK SC3 SLP302

CYQB;2010-11-02 10:00;CYQB 021000Z 01003KT 15SM FEW035 M01/M07 A3041 RMK SC1 SLP303

CYQB;2010-11-02 11:00;CYQB 021100Z 28003KT 15SM FEW040 M04/M07 A3042 RMK SC1 SLP305

CYQB;2010-11-02 12:00;CYQB 021200Z 26003KT 25SM FEW045 M04/M07 A3043 RMK SC1 SLP309

CYQB;2010-11-02 13:00;CYQB 021300Z 27004KT 25SM FEW045 M00/M04 A3044 RMK SC1 SLP313

CYQB;2010-11-02 14:00;CYQB 021400Z 00000KT 25SM FEW060 03/M05 A3043 RMK SC1 SLP310

CYQB;2010-11-02 15:00;CYQB 021500Z 36003KT 25SM FEW035 04/M04 A3044 RMK SC1 SLP310

CYQB;2010-11-02 16:00;CYQB 021600Z 24005KT 25SM FEW038 05/M03 A3042 RMK SC1 SLP306

CYQB;2010-11-02 17:00;CYQB 021700Z 19007KT 25SM FEW038 06/M02 A3040 RMK SC1 SLP298

CYQB;2010-11-02 18:00;CYQB 021800Z 21009KT 25SM FEW038 07/M01 A3037 RMK SC1 SLP289

CYQB;2010-11-02 19:00;CYQB 021900Z 29010KT 25SM FEW040 08/M02 A3035 RMK SC1 SLP282

CYQB;2010-11-02 20:00;CYQB 022000Z 29009KT 25SM FEW040 08/M02 A3034 RMK SC1 SLP279

CYQB;2010-11-02 21:00;CYQB 022100Z 29007KT 25SM FEW040 06/M02 A3034 RMK SC1 SLP277

CYQB;2010-11-02 22:00;CYQB 022200Z 29007KT 20SM FEW040 05/M03 A3034 RMK SC1 SLP279

CYQB;2010-11-02 23:00;CYQB 022300Z 27004KT 20SM SKC 03/M03 A3034 RMK SLP279

CYQB;2010-11-03 00:00;CYQB 030000Z 32003KT 20SM SKC 03/M03 A3035 RMK SLP281

CYQB;2010-11-03 01:00;CYQB 030100Z 27003KT 20SM SKC 01/M03 A3034 RMK SLP278

CYQB;2010-11-03 02:00;CYQB 030200Z 00000KT 20SM SKC M00/M03 A3033 RMK SLP276

CYQB;2010-11-03 03:00;CYQB 030300Z 00000KT 20SM SKC M02/M04 A3033 RMK SLP273

CYQB;2010-11-03 04:00;CYQB 030400Z 31002KT 20SM SKC M02/M04 A3031 RMK SLP269

CYQB;2010-11-03 05:00;CYQB 030500Z 26004KT 20SM SKC M03/M04 A3031 RMK SLP267

CYQB;2010-11-03 06:00;CYQB 030600Z 29007KT 20SM SKC M03/M04 A3030 RMK SLP265

CYQB;2010-11-03 07:00;CYQB 030700Z 23005KT 20SM SKC M02/M03 A3029 RMK SLP262

CYQB;2010-11-03 08:00;CYQB 030800Z 20002KT 20SM SKC M01/M02 A3028 RMK SLP258

CYQB;2010-11-03 09:00;CYQB 030900Z 00000KT 20SM FEW030 M02/M03 A3026 RMK SC1 SLP252

CYQB;2010-11-03 10:00;CYQB 031000Z 00000KT 15SM FEW006 M03/M04 A3025 RMK SF2 SLP249

CYQB;2010-11-03 10:12;CYQB 031012Z 27003KT 10SM OVC005 M03/ RMK SF8

CYQB;2010-11-03 10:35;CYQB 031035Z 27002KT 10SM OVC004 M02/ RMK SF8

CYQB;2010-11-03 10:37;CYQB 031037Z 26003KT 10SM BKN002 OVC005 M02/ RMK SF6SF2

CYQB;2010-11-03 10:52;CYQB 031052Z 25005KT 2SM BR BKN002 OVC005 M02/ RMK FG2SF4SF2

CYQB;2010-11-03 11:00;CYQB 031100Z 27005KT 2SM BR BKN002 OVC005 M02/M03 A3024 RMK FG2SF3SF2 SLP244

CYQB;2010-11-03 11:48;CYQB 031148Z 29005KT 3/4SM R06/P6000FT/D BR OVC002 M02/ RMK FG4SF4

CYQB;2010-11-03 11:52;CYQB 031152Z 30006KT 1/4SM R06/P6000FT/D FZFG VV002 M02/ RMK FG8

CYQB;2010-11-03 12:00;CYQB 031200Z 31005KT 1/4SM R06/P6000FT/D FZFG VV002 M02/M02 A3023 RMK FG8 SLP242

CYQB;2010-11-03 12:02;CYQB 031202Z 30004KT 1/2SM R06/P6000FT/D FZFG VV002 M02/ RMK FG8

CYQB;2010-11-03 12:18;CYQB 031218Z 34003KT 1/4SM R06/P6000FT/U FZFG VV002 M02/ RMK FG8

CYQB;2010-11-03 12:41;CYQB 031241Z 01002KT 1/2SM R06/5000FT/U FZFG VV002 M02/ RMK FG8

CYQB;2010-11-03 13:00;CYQB 031300Z 00000KT 1/2SM R06/P6000FT/D FZFG VV002 M02/M02 A3023 RMK FG8 SLP242

CYQB;2010-11-03 13:30;CYQB 031330Z 24004KT 2SM BR OVC004 M01/ RMK FG2SF6

CYQB;2010-11-03 14:00;CYQB 031400Z 24008KT 3SM BR OVC006 M01/M01 A3022 RMK FG1SF7 SLP237

CYQB;2010-11-03 15:00;CYQB 031500Z 27008KT 5SM BR OVC007 01/M00 A3021 RMK SC7 SLP233

CYQB;2010-11-03 15:32;CYQB 031532Z 26005KT 5SM BR BKN010 01/ RMK SC7

CYQB;2010-11-03 16:00;CYQB 031600Z 26005KT 8SM SCT013 02/M00 A3018 RMK SC3 SLP223

CYQB;2010-11-03 17:00;CYQB 031700Z 27005KT 15SM FEW013 04/00 A3014 RMK SF1 SLP210

CYQB;2010-11-03 18:00;CYQB 031800Z 24002KT 15SM FEW020 05/00 A3011 RMK SC1 SLP198

CYQB;2010-11-03 19:00;CYQB 031900Z 26004KT 15SM FEW025 06/M00 A3008 RMK SC1 SLP191

CYQB;2010-11-03 20:00;CYQB 032000Z 29004KT 30SM FEW028 06/M00 A3006 RMK SC1 SLP183

CYQB;2010-11-03 21:00;CYQB 032100Z 32002KT 30SM SKC 05/M01 A3003 RMK SLP174

CYQB;2010-11-03 22:00;CYQB 032200Z 02003KT 15SM FEW060 04/M01 A3002 RMK SC1 SLP170

CYQB;2010-11-03 23:00;CYQB 032300Z 33004KT 15SM SKC 02/M02 A3000 RMK SLP164

CYQB;2010-11-04 00:00;CYQB 040000Z 36004KT 15SM SKC 01/M02 A2999 RMK SLP160

CYQB;2010-11-04 01:00;CYQB 040100Z 36004KT 15SM SKC 00/M02 A2998 RMK SLP157

CYQB;2010-11-04 02:00;CYQB 040200Z 02004KT 15SM SKC 00/M03 A2998 RMK SLP156

CYQB;2010-11-04 03:00;CYQB 040300Z 01003KT 15SM SKC M00/M03 A2996 RMK SLP150

CYQB;2010-11-04 04:00;CYQB 040400Z 03003KT 15SM SKC M02/M04 A2995 RMK SLP147

CYQB;2010-11-04 05:00;CYQB 040500Z 01004KT 15SM SKC M02/M03 A2994 RMK SLP143

CYQB;2010-11-04 06:00;CYQB 040600Z 02004KT 15SM SCT240 M02/M03 A2993 RMK CI4 SLP138

CYQB;2010-11-04 07:00;CYQB 040700Z 02005KT 20SM SCT240 M02/M04 A2991 RMK CI4 SLP133

CYQB;2010-11-04 08:00;CYQB 040800Z 01003KT 20SM SCT200 M02/M04 A2990 RMK CI3 SLP130

CYQB;2010-11-04 09:00;CYQB 040900Z 02005KT 20SM SCT180 M02/M04 A2990 RMK CI3 SLP128

CYQB;2010-11-04 10:00;CYQB 041000Z 01004KT 15SM FEW180 M02/M04 A2989 RMK AC2 SLP124

CYQB;2010-11-04 11:00;CYQB 041100Z 36004KT 15SM FEW190 M02/M04 A2988 RMK AC2 SLP123

CYQB;2010-11-04 12:00;CYQB 041200Z 02004KT 25SM BKN065 BKN190 M00/M03 A2989 RMK SC5AC2 SLP125

CYQB;2010-11-04 13:00;CYQB 041300Z 03004KT 25SM SCT062 BKN130 00/M03 A2990 RMK SC4AC2 SLP130

CYQB;2010-11-04 14:00;CYQB 041400Z 04005KT 12SM SCT150 BKN240 02/M01 A2990 RMK AC4CI2 SLP129

CYQB;2010-11-04 15:00;CYQB 041500Z 06006KT 25SM BKN054 OVC110 04/M01 A2988 RMK SC6AC2 SLP122

CYQB;2010-11-04 16:00;CYQB 041600Z 06006KT 25SM OVC053 04/M01 A2987 RMK SC8 SLP119

CYQB;2010-11-04 17:00;CYQB 041700Z 09006KT 25SM BKN039 OVC047 05/M01 A2986 RMK SC5SC3 SLP117

CYQB;2010-11-04 18:00;CYQB 041800Z 07005KT 20SM OVC038 05/M01 A2986 RMK SC8 SLP116

CYQB;2010-11-04 18:45;CYQB 041845Z 07005KT 10SM -RA OVC030 04/ RMK SC8

CYQB;2010-11-04 19:00;CYQB 041900Z 07007KT 6SM -RA BR OVC029 04/01 A2987 RMK SC8 SLP119

CYQB;2010-11-04 20:00;CYQB 042000Z 06008KT 6SM -RA BR OVC027 04/03 A2986 RMK SC8 SLP116

CYQB;2010-11-04 21:00;CYQB 042100Z 07008KT 6SM -RA BR OVC025 04/03 A2985 RMK SC8 SLP112

CYQB;2010-11-04 22:00;CYQB 042200Z 07009KT 5SM -RA BR OVC026 04/03 A2983 RMK SC8 SLP107

CYQB;2010-11-04 23:00;CYQB 042300Z 07011KT 4SM -RA BR OVC019 04/03 A2984 RMK SC8 SLP109

CYQB;2010-11-05 00:00;CYQB 050000Z 05009KT 3SM -RA BR BKN014 OVC019 04/03 A2983 RMK SC5SC3 SLP104

CYQB;2010-11-05 01:00;CYQB 050100Z 05009KT 4SM -RA BR BKN015 OVC020 04/03 A2982 RMK SC5SC3 SLP100

CYQB;2010-11-05 02:00;CYQB 050200Z 05013G18KT 5SM -RA BR BKN014 OVC020 04/03 A2976 RMK SC6SC2 SLP081

CYQB;2010-11-05 03:00;CYQB 050300Z 06013KT 6SM -RA BR BKN012 BKN020 OVC040 03/03 A2972 RMK SC5SC2SC1 SLP069

CYQB;2010-11-05 04:00;CYQB 050400Z 07012G19KT 6SM -RA BR SCT010 BKN012 OVC020 03/02 A2968 RMK SF3SC3SC2 SLP054

CYQB;2010-11-05 05:00;CYQB 050500Z 07014G21KT 6SM -RA BR BKN012 BKN020 OVC050 03/02 A2966 RMK SC6SC2SC1 SLP047

CYQB;2010-11-05 06:00;CYQB 050600Z 06011KT 5SM -RA BR BKN011 OVC042 03/03 A2961 RMK SC6SC2 SLP029

CYQB;2010-11-05 07:00;CYQB 050700Z 07011G21KT 3SM -RA BR OVC008 03/03 A2959 RMK SC8 SLP022

CYQB;2010-11-05 08:00;CYQB 050800Z 07015G24KT 4SM -RA BR BKN008 OVC014 03/03 A2957 RMK SC6SC2 SLP015

CYQB;2010-11-05 09:00;CYQB 050900Z 07014G24KT 3SM -RA BR BKN008 OVC013 03/03 A2954 RMK SC7SC1 SLP007

CYQB;2010-11-05 10:00;CYQB 051000Z 08017G27KT 5SM -RA BR BKN008 OVC012 03/03 A2952 RMK SC7SC1 SLP998

CYQB;2010-11-05 11:00;CYQB 051100Z 07019G26KT 5SM -RA BR BKN009 OVC017 04/03 A2949 RMK SC7SC1 SLP989

CYQB;2010-11-05 12:00;CYQB 051200Z 07010G21KT 3SM -RA BR BKN010 BKN018 OVC028 03/03 A2948 RMK SC6SC1SC1 SLP987

CYQB;2010-11-05 12:13;CYQB 051213Z 07011G19KT 2SM -RA BR BKN009 OVC018 03/ RMK SC7SC1

CYQB;2010-11-05 13:00;CYQB 051300Z 08011G18KT 3SM -RA BR BKN009 OVC018 03/03 A2948 RMK SC7SC1 SLP987

CYQB;2010-11-05 14:00;CYQB 051400Z 08013G20KT 3SM -RA BR BKN010 OVC028 04/03 A2946 RMK SC6SC2 SLP979

CYQB;2010-11-05 15:00;CYQB 051500Z 07014G22KT 5SM -RA BR OVC010 04/03 A2943 RMK SC8 SLP970

CYQB;2010-11-05 16:00;CYQB 051600Z 07015G22KT 10SM -RA BKN010 OVC028 04/03 A2942 RMK SC6SC2 SLP965

CYQB;2010-11-05 17:00;CYQB 051700Z 07016G24KT 10SM -RA BKN011 OVC026 04/03 A2938 RMK SC6SC2 SLP952

CYQB;2010-11-05 18:00;CYQB 051800Z 07013G20KT 2SM -RA BR BKN010 OVC014 04/04 A2938 RMK SC7SC1 SLP951

CYQB;2010-11-05 18:29;CYQB 051829Z 07014G20KT 3SM -RA BR SCT006 BKN014 OVC023 04/ RMK ST3SC3SC2

CYQB;2010-11-05 18:47;CYQB 051847Z 07015G22KT 2SM -RA BR FEW006 BKN011 OVC021 04/ RMK ST2SC5SC2

CYQB;2010-11-05 19:00;CYQB 051900Z 06015G22KT 4SM -RA BR FEW006 BKN010 OVC021 04/03 A2934 RMK ST2SC5SC2 VIS VRB 2-6 SLP940

CYQB;2010-11-05 20:00;CYQB 052000Z 07010KT 1 1/2SM -RA BR BKN008 OVC011 04/04 A2936 RMK SC6SC2 VIS VRB 1-3 SLP947

CYQB;2010-11-05 21:00;CYQB 052100Z 11004KT 2SM -RA BR BKN007 OVC010 04/04 A2939 RMK ST6SC2 VIS VRB 1-3 CIG VRB 5-8 SLP957

CYQB;2010-11-05 21:33;CYQB 052133Z 11004KT 5SM -SHRA BR BKN007 OVC010 04/ RMK SF6SC2

CYQB;2010-11-05 22:00;CYQB 052200Z 17006KT 10SM BKN006 OVC010 04/04 A2943 RMK SF6SC2 SLP970

CYQB;2010-11-05 22:26;CYQB 052226Z 17005KT 3SM -SHRA BR BKN004 OVC008 04/ RMK SF6SC2 VIS VRB 2-4

CYQB;2010-11-05 23:00;CYQB 052300Z 18005KT 2SM -SHRA BR BKN004 OVC009 04/04 A2948 RMK SF6SC2 VIS VRB 1-3 SLP985

CYQB;2010-11-05 23:22;CYQB 052322Z 20008KT 5SM -SHRA BR BKN010 OVC013 04/ RMK SF6SC2

CYQB;2010-11-06 00:00;CYQB 060000Z 21012KT 8SM FEW004 BKN011 OVC020 05/04 A2950 RMK SF2SC5SC2 SLP994

CYQB;2010-11-06 00:16;CYQB 060016Z 22018KT 10SM FEW010 BKN019 OVC025 05/ RMK SF1SC6SC2

CYQB;2010-11-06 01:00;CYQB 060100Z 24013G21KT 10SM SCT010 BKN016 OVC024 04/03 A2956 RMK SF3SC3SC2 SLP013

CYQB;2010-11-06 02:00;CYQB 060200Z 23014G19KT 10SM SCT008 BKN012 OVC020 04/03 A2960 RMK SF4SC3SC1 SLP027

CYQB;2010-11-06 03:00;CYQB 060300Z 23017G22KT 10SM -SHRA SCT012 BKN024 OVC059 04/03 A2964 RMK SC4SC3SC1 SLP040

CYQB;2010-11-06 04:00;CYQB 060400Z 26012KT 15SM SCT010 BKN025 OVC043 03/02 A2969 RMK SC4SC3SC1 SLP057

CYQB;2010-11-06 05:00;CYQB 060500Z 25011G17KT 15SM SCT010 OVC015 04/03 A2974 RMK SC4SC4 SLP072

CYQB;2010-11-06 06:00;CYQB 060600Z 26010G15KT 15SM SCT010 BKN024 OVC058 04/03 A2978 RMK SC3SC4SC1 SLP087

CYQB;2010-11-06 07:00;CYQB 060700Z 26012KT 15SM SCT015 OVC063 03/02 A2982 RMK SC4SC4 SLP102

CYQB;2010-11-06 08:00;CYQB 060800Z 26010KT 15SM FEW011 BKN018 OVC060 03/02 A2988 RMK SC1SC6SC2 SLP121

CYQB;2010-11-06 09:00;CYQB 060900Z 24009KT 15SM FEW015 SCT040 OVC060 02/02 A2992 RMK SC2SC2SC5 SLP134

CYQB;2010-11-06 10:00;CYQB 061000Z 24010KT 15SM FEW030 OVC060 02/01 A2996 RMK SC2SC6 SLP149

CYQB;2010-11-06 11:00;CYQB 061100Z 24010KT 15SM OVC055 02/01 A3000 RMK SC8 SLP160

CYQB;2010-11-06 12:00;CYQB 061200Z 23008KT 30SM FEW010 FEW030 BKN060 BKN240 01/00 A3005 RMK SF1SC1SC3CI1 SLP180

CYQB;2010-11-06 13:00;CYQB 061300Z 25009KT 30SM FEW010 FEW060 SCT240 02/01 A3008 RMK SF1SC2CI2 SLP189

CYQB;2010-11-06 14:00;CYQB 061400Z 26008KT 30SM FEW010 SCT060 BKN240 03/01 A3012 RMK SF1SC2CI2 SLP202

CYQB;2010-11-06 15:00;CYQB 061500Z 27008KT 30SM FEW010 FEW030 FEW060 BKN240 04/01 A3014 RMK SF1SC1SC1CI1 SLP211

CYQB;2010-11-06 16:00;CYQB 061600Z 28006KT 30SM BKN030 BKN240 05/01 A3016 RMK SC5CI1 SLP216

CYQB;2010-11-06 17:00;CYQB 061700Z 34005KT 30SM BKN030 BKN240 06/01 A3014 RMK SC5CI1 SLP211

CYQB;2010-11-06 18:00;CYQB 061800Z 28003KT 30SM BKN035 06/M00 A3018 RMK SC7 SLP222

CYQB;2010-11-06 19:00;CYQB 061900Z 25006KT 30SM BKN033 BKN240 06/M00 A3018 RMK SC7CI1 SLP223

CYQB;2010-11-06 20:00;CYQB 062000Z 22009KT 30SM BKN034 BKN240 05/00 A3020 RMK SC6CI1 SLP229

CYQB;2010-11-06 21:00;CYQB 062100Z 24009KT 30SM BKN034 BKN080 05/00 A3022 RMK SC6AC2 SLP237

CYQB;2010-11-06 22:00;CYQB 062200Z 23010KT 15SM BKN034 04/00 A3023 RMK SC7 SLP241

CYQB;2010-11-06 23:00;CYQB 062300Z 23009KT 15SM OVC033 03/00 A3025 RMK SC8 SLP248

CYQB;2010-11-07 00:00;CYQB 070000Z 24010KT 15SM BKN033 OVC075 03/00 A3026 RMK SC6AC2 SLP252

CYQB;2010-11-07 01:00;CYQB 070100Z 25008KT 15SM BKN033 OVC070 02/00 A3026 RMK SC6AC2 SLP251

CYQB;2010-11-07 02:00;CYQB 070200Z 22013KT 15SM OVC031 02/00 A3029 RMK SC8 SLP260

CYQB;2010-11-07 03:00;CYQB 070300Z 23008KT 15SM OVC031 02/M00 A3030 RMK SC8 SLP264

CYQB;2010-11-07 04:00;CYQB 070400Z 25009KT 15SM OVC030 02/M00 A3030 RMK SC8 SLP265

CYQB;2010-11-07 05:00;CYQB 070500Z 25007KT 15SM OVC030 02/M00 A3031 RMK SC8 SLP269

CYQB;2010-11-07 06:00;CYQB 070600Z 22007KT 15SM FEW030 00/M01 A3031 RMK SC2 SLP269

CYQB;2010-11-07 07:00;CYQB 070700Z 27005KT 15SM FEW030 M01/M02 A3032 RMK SC1 SLP270

CYQB;2010-11-07 08:00;CYQB 070800Z 24005KT 15SM FEW030 M02/M03 A3031 RMK SC1 SLP268

CYQB;2010-11-07 09:00;CYQB 070900Z 23008KT 15SM FEW030 M01/M02 A3033 RMK SC1 FROIN SLP273

CYQB;2010-11-07 10:00;CYQB 071000Z 25006KT 15SM FEW030 M02/M03 A3033 RMK SC1 FROIN SLP276

CYQB;2010-11-07 11:00;CYQB 071100Z 23009KT 15SM FEW030 M02/M03 A3033 RMK SC1 SLP276

CYQB;2010-11-07 12:00;CYQB 071200Z 25006KT 25SM FEW030 M03/M04 A3034 RMK SC1 SLP277

CYQB;2010-11-07 13:00;CYQB 071300Z 24011KT 25SM FEW020 FEW030 M01/M02 A3037 RMK SF1SC2 SLP287

CYQB;2010-11-07 14:00;CYQB 071400Z 25007KT 25SM FEW020 FEW030 FEW180 M00/M02 A3035 RMK SF1SC1CI1 SLP280

CYQB;2010-11-07 15:00;CYQB 071500Z 25009KT 25SM FEW020 SCT030 SCT180 02/M01 A3034 RMK SF1SC2CI1 SLP279

CYQB;2010-11-07 16:00;CYQB 071600Z 24008KT 25SM FEW020 BKN025 BKN180 03/M01 A3032 RMK CF2SC3CI1 SLP271

CYQB;2010-11-07 17:00;CYQB 071700Z 22012KT 25SM BKN025 BKN180 02/M01 A3029 RMK SC6CI1 SLP260

CYQB;2010-11-07 18:00;CYQB 071800Z 22008KT 30SM BKN025 BKN180 02/M02 A3027 RMK SC6CI1 SLP255

CYQB;2010-11-07 19:00;CYQB 071900Z 22007KT 30SM SCT027 BKN180 02/M02 A3027 RMK SC4AC1 SLP254

CYQB;2010-11-07 20:00;CYQB 072000Z 21007KT 30SM FEW030 BKN170 02/M02 A3026 RMK SC2AC5 SLP251

CYQB;2010-11-07 21:00;CYQB 072100Z 22006KT 30SM FEW030 BKN170 02/M02 A3024 RMK SC1AC6 SLP244

CYQB;2010-11-07 22:00;CYQB 072200Z 22005KT 15SM FEW030 BKN160 01/M02 A3024 RMK SC1AC4 SLP244

CYQB;2010-11-07 23:00;CYQB 072300Z 00000KT 15SM FEW150 01/M02 A3023 RMK AC2 SLP242

CYQB;2010-11-08 00:00;CYQB 080000Z 00000KT 15SM FEW200 00/M02 A3022 RMK CI2 SLP236

CYQB;2010-11-08 01:00;CYQB 080100Z 00000KT 15SM SCT200 M00/M02 A3020 RMK CI4 SLP231

CYQB;2010-11-08 02:00;CYQB 080200Z 00000KT 15SM BKN190 M01/M02 A3019 RMK AC6 SLP228

CYQB;2010-11-08 03:00;CYQB 080300Z 36003KT 15SM FEW015 OVC180 00/M02 A3015 RMK SC2AC6 SLP214

CYQB;2010-11-08 04:00;CYQB 080400Z 01003KT 15SM SCT011 OVC110 00/M01 A3011 RMK SC4AC4 SLP201

CYQB;2010-11-08 05:00;CYQB 080500Z 36002KT 15SM FEW010 OVC110 00/M01 A3008 RMK SC2AC6 SLP190

CYQB;2010-11-08 06:00;CYQB 080600Z 30004KT 15SM FEW010 OVC110 00/M01 A3006 RMK SC1AC7 SLP183

CYQB;2010-11-08 07:00;CYQB 080700Z 02004KT 15SM FEW010 OVC100 01/M01 A3005 RMK SC1AC7 SLP178

CYQB;2010-11-08 08:00;CYQB 080800Z 36002KT 15SM FEW010 OVC078 01/M01 A3003 RMK SC1AC7 SLP171

CYQB;2010-11-08 08:28;CYQB 080828Z 36003KT 15SM -SHRA FEW010 SCT030 OVC065 02/ RMK SC1SC2SC5

CYQB;2010-11-08 12:00;CYQB 081200Z 00000KT 12SM -SN FEW005 BKN013 OVC040 00/00 A2992 RMK SF1SC7SC1 SLP137

CYQB;2010-11-08 12:22;CYQB 081222Z 00000KT 15SM FEW005 BKN015 OVC040 00/ RMK SF1SC7SC1

CYQB;2010-11-08 13:00;CYQB 081300Z 00000KT 12SM BKN012 BKN038 01/00 A2992 RMK SC7SC1 SLP134

CYQB;2010-11-08 13:44;CYQB 081344Z 03005KT 12SM -RA BKN012 OVC038 02/ RMK SC7SC1

CYQB;2010-11-08 14:00;CYQB 081400Z 05006KT 15SM -RA BKN015 OVC040 03/02 A2989 RMK SC7SC1 SLP126

CYQB;2010-11-08 14:47;CYQB 081447Z 07008KT 12SM BKN011 OVC040 04/ RMK SC7SC1

CYQB;2010-11-08 15:00;CYQB 081500Z 06009KT 12SM -DZ BKN010 OVC040 04/03 A2989 RMK SF7SC1 SLP124

CYQB;2010-11-08 16:00;CYQB 081600Z 05007KT 12SM -DZ BKN010 OVC035 05/04 A2986 RMK SF7SC1 -DZ INTMT SLP114

CYQB;2010-11-08 17:00;CYQB 081700Z 06011G18KT 20SM BKN013 OVC032 05/04 A2985 RMK SF7SC1 SLP111

CYQB;2010-11-08 18:00;CYQB 081800Z 06010G18KT 15SM BKN014 OVC033 06/04 A2985 RMK SC6SC2 SLP110

CYQB;2010-11-08 19:00;CYQB 081900Z 07017KT 10SM -RA BKN011 OVC040 05/04 A2983 RMK SC7SC1 CIG VRB 8-14 SLP105

CYQB;2010-11-08 20:00;CYQB 082000Z 05011G16KT 10SM -RA BKN010 OVC060 05/04 A2983 RMK SF7SC1 SLP105

CYQB;2010-11-08 21:00;CYQB 082100Z 08009KT 10SM -RA SCT010 OVC075 05/04 A2983 RMK SF4AC4 -RA INTMT SLP106

CYQB;2010-11-08 22:00;CYQB 082200Z 08010G18KT 10SM -RA SCT012 BKN034 OVC075 05/04 A2987 RMK SF3SC4AC1 SLP117

CYQB;2010-11-08 23:00;CYQB 082300Z 05015G21KT 10SM -RA FEW012 BKN037 OVC060 05/04 A2988 RMK SF2SC5SC1 SLP121

CYQB;2010-11-09 00:00;CYQB 090000Z 05012KT 15SM FEW012 BKN023 OVC060 06/04 A2988 RMK SF2SC3SC3 INTMT -RA SLP122

CYQB;2010-11-09 00:30;CYQB 090030Z 06011KT 15SM FEW011 BKN020 OVC060 06/ RMK SF1SC6SC2

CYQB;2010-11-09 01:00;CYQB 090100Z 07006KT 15SM FEW011 OVC019 06/04 A2990 RMK SF1SC7 SLP127

CYQB;2010-11-09 02:00;CYQB 090200Z 05011G16KT 15SM FEW011 OVC027 06/04 A2991 RMK SF1SC7 SLP132

CYQB;2010-11-09 03:00;CYQB 090300Z 07011G16KT 15SM FEW010 BKN035 OVC150 06/04 A2992 RMK SF1SC6AC1 SLP133

CYQB;2010-11-09 04:00;CYQB 090400Z 06008KT 6SM -DZ BR BKN005 BKN010 OVC030 05/05 A2992 RMK SF5SC1SC2 SLP136

CYQB;2010-11-09 05:00;CYQB 090500Z 05009G15KT 7SM -DZ OVC005 05/05 A2993 RMK SF8 SLP139

CYQB;2010-11-09 06:00;CYQB 090600Z 07010KT 15SM OVC007 05/05 A2994 RMK SF8 SLP140

CYQB;2010-11-09 07:00;CYQB 090700Z 07008KT 15SM OVC008 05/05 A2995 RMK SF8 SLP146

CYQB;2010-11-09 08:00;CYQB 090800Z 06006KT 15SM OVC005 05/05 A2997 RMK SF8 SLP150

CYQB;2010-11-09 09:00;CYQB 090900Z 07011G16KT 15SM OVC008 05/05 A2999 RMK SF8 SLP157

CYQB;2010-11-09 10:00;CYQB 091000Z 07011KT 15SM OVC008 05/04 A3000 RMK SF8 SLP161

CYQB;2010-11-09 11:00;CYQB 091100Z 07008KT 15SM OVC008 05/04 A3002 RMK SF8 SLP167

CYQB;2010-11-09 12:00;CYQB 091200Z 08010G15KT 20SM BKN007 OVC030 05/04 A3003 RMK SF7SC1 SLP173

CYQB;2010-11-09 13:00;CYQB 091300Z 07009KT 20SM FEW010 BKN015 BKN057 05/04 A3006 RMK SF1SC7SC1 SLP181

CYQB;2010-11-09 14:00;CYQB 091400Z 08008KT 20SM BKN016 BKN081 06/04 A3007 RMK SC5AC2 SLP184

CYQB;2010-11-09 15:00;CYQB 091500Z 07011G16KT 30SM SCT016 BKN081 BKN180 06/03 A3007 RMK SC4AC3CI1 SLP185

CYQB;2010-11-09 16:00;CYQB 091600Z 07008KT 30SM FEW016 FEW080 BKN180 07/03 A3009 RMK SC2AC1CI4 SLP191

CYQB;2010-11-09 17:00;CYQB 091700Z 08010G16KT 30SM FEW020 FEW080 BKN180 07/00 A3009 RMK SC1AC2AC2 SLP193

CYQB;2010-11-09 18:00;CYQB 091800Z 07013KT 30SM FEW020 FEW080 BKN180 BKN210 08/01 A3010 RMK SC1AC1AC5CI0 SLP194

CYQB;2010-11-09 19:00;CYQB 091900Z CCA 09012KT 30SM FEW080 FEW180 BKN210 06/00 A3011 RMK AC1AC2CI1 SLP199

CYQB;2010-11-09 20:00;CYQB 092000Z 08012G17KT 30SM FEW180 BKN250 06/00 A3012 RMK AC1CI4 SLP202

CYQB;2010-11-09 21:00;CYQB 092100Z 07011G16KT 30SM FEW180 BKN240 06/00 A3011 RMK AC2CI2 SLP199

CYQB;2010-11-09 22:00;CYQB 092200Z 09013G19KT 30SM BKN240 05/01 A3014 RMK CI6 SLP210

CYQB;2010-11-09 23:00;CYQB 092300Z 08008KT 15SM FEW240 04/01 A3017 RMK CI2 SLP219

CYQB;2010-11-10 00:00;CYQB 100000Z 07006KT 15SM FEW240 04/01 A3019 RMK CI2 SLP226

CYQB;2010-11-10 01:00;CYQB 100100Z CCA 05006KT 15SM FEW240 04/00 A3019 RMK CI2 SLP228

CYQB;2010-11-10 02:00;CYQB 100200Z 05007KT 15SM SCT240 03/M01 A3021 RMK CI2 SLP232

CYQB;2010-11-10 03:00;CYQB 100300Z 07008KT 15SM SCT240 03/00 A3022 RMK CI2 SLP236

CYQB;2010-11-10 04:00;CYQB 100400Z 08011G18KT 15SM SCT240 03/M01 A3025 RMK CI3 SLP245

CYQB;2010-11-10 05:00;CYQB 100500Z 06009G17KT 15SM SCT240 03/M01 A3027 RMK CI3 SLP252

CYQB;2010-11-10 06:00;CYQB 100600Z 05005KT 15SM SCT250 02/M02 A3028 RMK CI4 SLP255

CYQB;2010-11-10 07:00;CYQB 100700Z 05007KT 15SM SCT240 02/M02 A3028 RMK CI3 SLP258

CYQB;2010-11-10 08:00;CYQB 100800Z 36004KT 15SM SCT240 00/M03 A3029 RMK CI3 SLP259

CYQB;2010-11-10 09:00;CYQB 100900Z 03004KT 15SM FEW240 M00/M02 A3030 RMK CI2 SLP263

CYQB;2010-11-10 10:00;CYQB 101000Z 03006KT 15SM SKC 00/M03 A3031 RMK SLP267

CYQB;2010-11-10 11:00;CYQB 101100Z 07008KT 30SM FEW240 02/M02 A3033 RMK CI1 SLP273

CYQB;2010-11-10 12:00;CYQB 101200Z 01007KT 30SM FEW080 FEW240 02/M02 A3035 RMK AC1CI1 SLP281

CYQB;2010-11-10 13:00;CYQB 101300Z 06013KT 30SM FEW250 03/M02 A3037 RMK CI1 SLP288

CYQB;2010-11-10 14:00;CYQB 101400Z CCA 09017G22KT 30SM FEW080 FEW240 04/M02 A3038 RMK AC1CI1 SLP292

CYQB;2010-11-10 15:00;CYQB 101500Z 08015G21KT 30SM FEW080 FEW250 04/M02 A3039 RMK AC1CI1 SLP293

CYQB;2010-11-10 16:00;CYQB 101600Z 08008G19KT 30SM FEW050 FEW250 05/M01 A3039 RMK SC1CI1 SLP293

CYQB;2010-11-10 17:00;CYQB 101700Z 08011G16KT 35SM FEW050 FEW250 05/M01 A3038 RMK SC1CI1 SLP291

CYQB;2010-11-10 18:00;CYQB 101800Z 07013KT 35SM FEW050 FEW250 05/M01 A3038 RMK SC1CI1 SLP291

CYQB;2010-11-10 19:00;CYQB 101900Z 08011KT 35SM FEW250 05/00 A3038 RMK CI1 SLP292

CYQB;2010-11-10 20:00;CYQB 102000Z 07008KT 45SM FEW250 05/00 A3039 RMK CI1 SLP295

CYQB;2010-11-10 21:00;CYQB 102100Z 07008KT 45SM FEW250 04/M00 A3041 RMK CI1 SLP300

CYQB;2010-11-10 22:00;CYQB 102200Z 07006KT 15SM FEW250 03/M00 A3042 RMK CI1 SLP305

CYQB;2010-11-10 23:00;CYQB 102300Z 04003KT 15SM SKC 02/M00 A3044 RMK SLP312

CYQB;2010-11-11 00:00;CYQB 110000Z 06008KT 15SM FEW020 02/M00 A3045 RMK SC1 SLP316

CYQB;2010-11-11 01:00;CYQB 110100Z 06006KT 15SM FEW020 02/M01 A3047 RMK SC1 SLP322

CYQB;2010-11-11 02:00;CYQB 110200Z 04005KT 15SM FEW020 01/M01 A3048 RMK SC1 SLP326

CYQB;2010-11-11 03:00;CYQB 110300Z 05004KT 15SM FEW020 01/M01 A3049 RMK SC1 SLP329

CYQB;2010-11-11 04:00;CYQB 110400Z 04006KT 15SM FEW020 01/M01 A3050 RMK SC1 SLP333

CYQB;2010-11-11 05:00;CYQB 110500Z 06006KT 15SM FEW020 01/M01 A3051 RMK SC1 SLP335

CYQB;2010-11-11 06:00;CYQB 110600Z 04006KT 15SM SKC M00/M01 A3052 RMK SLP338

CYQB;2010-11-11 07:00;CYQB 110700Z 04005KT 15SM SKC 00/M02 A3054 RMK SLP344

CYQB;2010-11-11 08:00;CYQB 110800Z 03006KT 15SM SKC 00/M01 A3054 RMK SLP346

CYQB;2010-11-11 09:00;CYQB 110900Z 05007KT 15SM SKC M00/M02 A3055 RMK SLP350

CYQB;2010-11-11 10:00;CYQB 111000Z 33003KT 15SM SKC M02/M03 A3056 RMK SLP354

CYQB;2010-11-11 11:00;CYQB 111100Z 04005KT 15SM SKC M01/M03 A3058 RMK SLP359

CYQB;2010-11-11 12:00;CYQB 111200Z 02004KT 25SM FEW010 M01/M03 A3060 RMK SF1 SLP366

CYQB;2010-11-11 13:00;CYQB 111300Z 06005KT 25SM FEW012 01/M01 A3061 RMK SC1 SLP370

CYQB;2010-11-11 14:00;CYQB 111400Z 07008KT 25SM FEW012 03/M00 A3062 RMK SC1 SLP372

CYQB;2010-11-11 15:00;CYQB 111500Z 07009KT 25SM SKC 04/M00 A3062 RMK SLP372

CYQB;2010-11-11 16:00;CYQB 111600Z 08010G15KT 25SM SKC 05/M01 A3061 RMK SLP368

CYQB;2010-11-11 17:00;CYQB 111700Z 08007KT 25SM SKC 06/M01 A3058 RMK OBS TAKEN +27 SLP360

CYQB;2010-11-11 18:00;CYQB 111800Z 07007KT 45SM SKC 06/M01 A3057 RMK SLP356

CYQB;2010-11-11 19:00;CYQB 111900Z 09007KT 45SM SKC 07/M02 A3056 RMK SLP353

CYQB;2010-11-11 20:00;CYQB 112000Z 08006KT 45SM SKC 07/M02 A3057 RMK SLP354

CYQB;2010-11-11 21:00;CYQB 112100Z 08004KT 45SM SKC 05/M02 A3057 RMK SLP356

CYQB;2010-11-11 22:00;CYQB 112200Z 09003KT 15SM SKC 04/M02 A3057 RMK SLP357

CYQB;2010-11-11 23:00;CYQB 112300Z 04002KT 15SM SKC 02/M02 A3058 RMK SLP358

CYQB;2010-11-12 00:00;CYQB 120000Z 02002KT 15SM SKC 02/M02 A3058 RMK SLP358

CYQB;2010-11-12 01:00;CYQB 120100Z 32003KT 15SM SKC M01/M04 A3058 RMK SLP358

CYQB;2010-11-12 02:00;CYQB 120200Z 02003KT 15SM SKC 01/M04 A3057 RMK SLP355

CYQB;2010-11-12 03:00;CYQB 120300Z 02004KT 15SM SKC M00/M04 A3055 RMK SLP350

CYQB;2010-11-12 04:00;CYQB 120400Z 03004KT 15SM SKC M00/M04 A3053 RMK SLP342

CYQB;2010-11-12 05:00;CYQB 120500Z 01006KT 15SM SKC 00/M04 A3053 RMK SLP343

CYQB;2010-11-12 06:00;CYQB 120600Z 06003KT 15SM SKC M01/M04 A3052 RMK SLP338

CYQB;2010-11-12 07:00;CYQB 120700Z 04004KT 15SM SKC M01/M04 A3052 RMK SLP338

CYQB;2010-11-12 08:00;CYQB 120800Z 03006KT 15SM SKC M00/M04 A3051 RMK SLP336

CYQB;2010-11-12 09:00;CYQB 120900Z 01004KT 15SM SKC M00/M05 A3051 RMK SLP334

CYQB;2010-11-12 10:00;CYQB 121000Z 03004KT 15SM SKC M00/M05 A3050 RMK SLP331

CYQB;2010-11-12 11:00;CYQB 121100Z 03004KT 15SM SKC M02/M05 A3050 RMK SLP331

CYQB;2010-11-12 12:00;CYQB 121200Z 11002KT 30SM FEW200 M02/M06 A3050 RMK CI0 SLP332

CYQB;2010-11-12 13:00;CYQB 121300Z 00000KT 30SM FEW210 01/M04 A3050 RMK CI0 SLP333

CYQB;2010-11-12 14:00;CYQB 121400Z 00000KT 25SM FEW210 04/M04 A3049 RMK CI0 VIS LWR E SLP330

CYQB;2010-11-12 15:00;CYQB 121500Z 00000KT 25SM FEW220 06/M03 A3049 RMK CI0 VIS LWR NE SLP328

CYQB;2010-11-12 16:00;CYQB 121600Z CCA 25004KT 25SM FEW018 FEW230 08/M03 A3047 RMK SF0CI0 HAZY SLP321

CYQB;2010-11-12 17:00;CYQB 121700Z 24006KT 25SM FEW230 10/M03 A3044 RMK CI0 HAZY SLP311

CYQB;2010-11-12 18:00;CYQB 121800Z 23008KT 25SM FEW240 11/M03 A3041 RMK CI0 SLP302

CYQB;2010-11-12 19:00;CYQB 121900Z 23009KT 25SM FEW240 11/M02 A3039 RMK CI0 SLP295

CYQB;2010-11-12 20:00;CYQB 122000Z 22005KT 30SM FEW240 10/M02 A3039 RMK CI0 SLP294

CYQB;2010-11-12 21:00;CYQB 122100Z 20005KT 25SM FEW240 07/M02 A3038 RMK CI0 SLP292

CYQB;2010-11-12 22:00;CYQB 122200Z 23006KT 25SM SCT240 05/M04 A3039 RMK CI0 SLP294

CYQB;2010-11-12 23:00;CYQB 122300Z 27004KT 15SM FEW240 04/M03 A3039 RMK CI0 SLP294

CYQB;2010-11-12 23:30;CYQB 122330Z 27002KT 15SM SKC 02/

CYQB;2010-11-13 00:00;CYQB 130000Z 00000KT 15SM SKC 02/M04 A3038 RMK SLP292

CYQB;2010-11-13 01:00;CYQB 130100Z 22003KT 15SM FEW260 02/M04 A3036 RMK CI0 SLP286

CYQB;2010-11-13 02:00;CYQB 130200Z 31002KT 15SM SCT260 M01/M05 A3036 RMK CI0 SLP285

CYQB;2010-11-13 03:00;CYQB 130300Z 00000KT 15SM SCT250 M00/M05 A3036 RMK CI0 SLP283

CYQB;2010-11-13 04:00;CYQB 130400Z 00000KT 15SM SCT250 M02/M04 A3034 RMK CI0 SLP277

CYQB;2010-11-13 05:00;CYQB 130500Z 29002KT 15SM SKC M03/M05 A3033 RMK SLP273

CYQB;2010-11-13 06:00;CYQB 130600Z 28004KT 15SM SKC M01/M03 A3032 RMK SLP271

CYQB;2010-11-13 07:00;CYQB 130700Z 25004KT 15SM SKC M03/M05 A3031 RMK SLP268

CYQB;2010-11-13 08:00;CYQB 130800Z 26004KT 15SM SKC M04/M05 A3030 RMK SLP263

CYQB;2010-11-13 09:00;CYQB 130900Z 00000KT 15SM FEW100 M02/M04 A3028 RMK AC2 SLP259

CYQB;2010-11-13 10:00;CYQB 131000Z 00000KT 15SM SCT100 M02/M04 A3027 RMK AC3 SLP254

CYQB;2010-11-13 11:00;CYQB 131100Z 27002KT 15SM SCT110 M00/M04 A3027 RMK AC4 SLP255

CYQB;2010-11-13 12:00;CYQB 131200Z 14002KT 25SM FEW045 SCT120 BKN230 00/M03 A3027 RMK ST2AC2CI0 SLP255

CYQB;2010-11-13 13:00;CYQB 131300Z 00000KT 20SM FEW040 SCT095 BKN230 01/M02 A3028 RMK SC2AC2CI0 SLP257

CYQB;2010-11-13 14:00;CYQB 131400Z 25006KT 10SM FEW035 BKN055 OVC095 04/M00 A3028 RMK SC2SC3AC2 SLP256

CYQB;2010-11-13 15:00;CYQB 131500Z 21006KT 10SM BKN045 BKN095 OVC230 04/00 A3027 RMK SC5AC2CI0 SLP255

CYQB;2010-11-13 16:00;CYQB 131600Z 23009KT 8SM FEW045 SCT050 BKN110 05/00 A3024 RMK SC2SC1AC2 SLP245

CYQB;2010-11-13 17:00;CYQB 131700Z 23006KT 20SM FEW045 SCT110 SCT230 06/01 A3022 RMK SC2AC2CI0 HAZY SLP237

CYQB;2010-11-13 18:00;CYQB 131800Z 22010KT 15SM FEW045 FEW110 FEW230 08/01 A3020 RMK SC1AC1CI0 HAZY SLP231

CYQB;2010-11-13 19:00;CYQB 131900Z CCA 21005KT 20SM BKN085 BKN230 08/02 A3019 RMK AC5CI0 HAZY SLP228

CYQB;2010-11-13 20:00;CYQB 132000Z 22008KT 20SM BKN085 BKN230 08/02 A3019 RMK AC6CI0 HAZY SLP225

CYQB;2010-11-13 21:00;CYQB 132100Z 23008KT 20SM BKN090 BKN230 08/02 A3019 RMK AC5CI0 SLP226

CYQB;2010-11-13 22:00;CYQB 132200Z 06005KT 15SM SCT100 SCT230 07/02 A3021 RMK AC3CI0 SLP234

CYQB;2010-11-13 23:00;CYQB 132300Z 06008KT 15SM SCT100 SCT230 06/01 A3023 RMK AC3CI0 SLP240

CYQB;2010-11-14 00:00;CYQB 140000Z 06007KT 15SM FEW100 05/01 A3024 RMK AC2 SLP243

CYQB;2010-11-14 01:00;CYQB 140100Z 06006KT 15SM FEW100 04/01 A3024 RMK AC2 SLP244

CYQB;2010-11-14 02:00;CYQB 140200Z 06007KT 15SM FEW100 04/01 A3025 RMK AC2 SLP246

CYQB;2010-11-14 03:00;CYQB 140300Z 06006KT 15SM FEW070 04/00 A3025 RMK AC2 SLP248

CYQB;2010-11-14 04:00;CYQB 140400Z 07014G20KT 15SM SCT070 04/M00 A3025 RMK AC3 SLP248

CYQB;2010-11-14 05:00;CYQB 140500Z 07014G19KT 15SM SCT150 03/M02 A3026 RMK AC4 SLP250

CYQB;2010-11-14 06:00;CYQB 140600Z 08010G17KT 15SM BKN054 03/M02 A3025 RMK SC6 SLP247

CYQB;2010-11-14 07:00;CYQB 140700Z 07011G16KT 15SM BKN053 03/M02 A3026 RMK SC7 SLP250

CYQB;2010-11-14 08:00;CYQB 140800Z 08010G16KT 15SM BKN057 03/M02 A3025 RMK SC7 SLP247

CYQB;2010-11-14 09:00;CYQB 140900Z 07016KT 15SM BKN060 03/M02 A3025 RMK SC6 SLP246

CYQB;2010-11-14 10:00;CYQB 141000Z 07012G20KT 15SM BKN065 03/M03 A3025 RMK SC7 SLP248

CYQB;2010-11-14 11:00;CYQB 141100Z 07016KT 15SM OVC052 03/M03 A3024 RMK SC8 SLP243

CYQB;2010-11-14 12:00;CYQB 141200Z 07016KT 15SM FEW053 BKN066 BKN240 03/M03 A3024 RMK SC1SC6CI1 SLP244

CYQB;2010-11-14 13:00;CYQB 141300Z 07015G24KT 25SM FEW053 BKN068 BKN240 03/M03 A3024 RMK SC1AC5CI1 SLP243

CYQB;2010-11-14 14:00;CYQB 141400Z 07017G25KT 25SM BKN049 BKN240 03/M02 A3024 RMK SC5CI2 SLP242

CYQB;2010-11-14 15:00;CYQB 141500Z 07017KT 25SM FEW049 SCT060 BKN200 05/M02 A3021 RMK SC1SC3CI2 SLP234

CYQB;2010-11-14 16:00;CYQB 141600Z 06011G19KT 25SM FEW060 BKN200 05/M03 A3020 RMK SC1CI2 SLP230

CYQB;2010-11-14 17:00;CYQB 141700Z 06017KT 25SM FEW080 BKN220 05/M03 A3017 RMK AC1CI2 SLP218

CYQB;2010-11-14 18:00;CYQB 141800Z 06015G21KT 25SM FEW080 BKN220 05/M03 A3013 RMK AC1CI1 SLP205

CYQB;2010-11-14 19:00;CYQB 141900Z 06016KT 30SM BKN170 BKN260 06/M03 A3010 RMK AC3CI0 SLP195

CYQB;2010-11-14 20:00;CYQB 142000Z 07014G20KT 30SM FEW170 BKN210 05/M03 A3009 RMK AC1CI5 SLP192

CYQB;2010-11-14 21:00;CYQB 142100Z 07011G16KT 30SM BKN180 BKN210 05/M03 A3008 RMK AC3CI0 SLP188

CYQB;2010-11-14 22:00;CYQB 142200Z 07011KT 15SM FEW180 BKN210 05/M02 A3008 RMK AC2CI2 SLP189

CYQB;2010-11-14 23:00;CYQB 142300Z 07011G17KT 15SM FEW180 BKN200 04/M01 A3007 RMK AC2CI5 SLP187

CYQB;2010-11-15 00:00;CYQB 150000Z 10006KT 15SM FEW180 SCT200 03/M01 A3005 RMK AC1CI2 SLP179

CYQB;2010-11-15 01:00;CYQB 150100Z 07014KT 15SM BKN180 04/M01 A3004 RMK AC7 SLP175

CYQB;2010-11-15 02:00;CYQB 150200Z 11006G15KT 15SM OVC160 04/M01 A3004 RMK AC7 SLP176

CYQB;2010-11-15 03:00;CYQB 150300Z 06009KT 15SM OVC180 04/M01 A3003 RMK AC8 SLP170

CYQB;2010-11-15 04:00;CYQB 150400Z 09006KT 15SM OVC180 04/M01 A3002 RMK AC8 SLP168

CYQB;2010-11-15 05:00;CYQB 150500Z 06008KT 15SM BKN150 OVC180 04/M01 A3001 RMK AC5AC3 SLP164

CYQB;2010-11-15 06:00;CYQB 150600Z 09006KT 15SM BKN150 BKN180 BKN210 04/M01 A3000 RMK AC5AC2AC1 SLP162

CYQB;2010-11-15 07:00;CYQB 150700Z 08007KT 15SM OVC120 04/M01 A3000 RMK AC8 SLP161

CYQB;2010-11-15 08:00;CYQB 150800Z 05007KT 15SM OVC120 04/M01 A3000 RMK AC8 SLP160

CYQB;2010-11-15 09:00;CYQB 150900Z 05005KT 15SM -SHRA OVC055 04/M00 A3000 RMK SC8 SLP162

CYQB;2010-11-15 10:00;CYQB 151000Z 05005KT 15SM -SHRA OVC037 04/01 A3000 RMK SC8 SLP163

CYQB;2010-11-15 11:00;CYQB 151100Z 04005KT 10SM -SHRA SCT030 OVC055 03/02 A3000 RMK SC4SC4 SLP160

CYQB;2010-11-15 12:00;CYQB 151200Z 06004KT 15SM -SHRA FEW010 OVC035 03/02 A3001 RMK SF1SC7 SLP166

CYQB;2010-11-15 13:00;CYQB 151300Z 06003KT 8SM OVC022 04/03 A3002 RMK SC8 SLP170

CYQB;2010-11-15 13:22;CYQB 151322Z 00000KT 5SM -SHRA BR OVC017 04/ RMK SC8

CYQB;2010-11-15 14:00;CYQB 151400Z 00000KT 4SM BR OVC021 04/03 A3003 RMK SC8 INTMT -RA SLP171

CYQB;2010-11-15 14:19;CYQB 151419Z 00000KT 3SM -SHRA BR OVC015 04/ RMK SC8

CYQB;2010-11-15 14:46;CYQB 151446Z 00000KT 4SM BR BKN009 OVC012 04/ RMK ST6SC2

CYQB;2010-11-15 15:00;CYQB 151500Z 00000KT 5SM BR SCT009 OVC024 04/04 A3003 RMK ST3SC5 SLP172

CYQB;2010-11-15 15:30;CYQB 151530Z 00000KT 5SM -SHRA BR SCT010 OVC024 04/ RMK ST4SC4 -RA INTMT

CYQB;2010-11-15 16:00;CYQB 151600Z 00000KT 3SM -SHRA BR OVC015 05/04 A3003 RMK ST8 SLP170

CYQB;2010-11-15 17:00;CYQB 151700Z 00000KT 5SM BR SCT015 BKN120 07/06 A3002 RMK ST3AC4 SLP167

CYQB;2010-11-15 18:00;CYQB 151800Z 23010KT 8SM BKN028 BKN120 BKN240 08/05 A3000 RMK SC5AC1CI0 SLP163

CYQB;2010-11-15 19:00;CYQB 151900Z 22007KT 12SM SCT024 BKN240 08/04 A3001 RMK SC3CI0 SLP164

CYQB;2010-11-15 20:00;CYQB 152000Z 24007KT 15SM FEW025 BKN140 08/04 A3001 RMK SC2AC2 SLP166

CYQB;2010-11-15 21:00;CYQB 152100Z 19002KT 15SM FEW025 FEW140 07/04 A3002 RMK SC2AC1 SLP169

CYQB;2010-11-15 22:00;CYQB 152200Z 17003KT 15SM FEW025 FEW140 06/03 A3003 RMK SC1AC1 SLP173

CYQB;2010-11-15 23:00;CYQB 152300Z 02002KT 12SM FEW220 03/02 A3003 RMK CI1 SLP170

CYQB;2010-11-15 23:28;CYQB 152328Z 00000KT 12SM SKC 01/

CYQB;2010-11-16 00:00;CYQB 160000Z 00000KT 8SM SKC 02/01 A3003 RMK SLP171

CYQB;2010-11-16 01:00;CYQB 160100Z 00000KT 5SM BR SKC 01/01 A3004 RMK SLP177

CYQB;2010-11-16 02:00;CYQB 160200Z 00000KT 5SM BR SKC 00/M00 A3006 RMK SLP181

CYQB;2010-11-16 03:00;CYQB 160300Z 00000KT 5SM BR SKC 01/00 A3006 RMK SLP181

CYQB;2010-11-16 04:00;CYQB 160400Z 00000KT 10SM FEW080 00/00 A3005 RMK AC1 FROIN SLP179

CYQB;2010-11-16 05:00;CYQB 160500Z 00000KT 10SM BKN017 00/M01 A3004 RMK SC3 SLP176

CYQB;2010-11-16 06:00;CYQB 160600Z 00000KT 8SM OVC014 01/00 A3004 RMK SC8 SLP176

CYQB;2010-11-16 07:00;CYQB 160700Z 29002KT 8SM OVC011 01/01 A3005 RMK SC8 SLP179

CYQB;2010-11-16 08:00;CYQB 160800Z 00000KT 8SM OVC009 02/01 A3005 RMK SF8 SLP178

CYQB;2010-11-16 09:00;CYQB 160900Z 00000KT 5SM BR OVC008 01/00 A3005 RMK SF8 SLP180

CYQB;2010-11-16 10:00;CYQB 161000Z 00000KT 5SM BR OVC008 01/01 A3006 RMK SF8 SLP181

CYQB;2010-11-16 11:00;CYQB 161100Z 00000KT 8SM OVC008 02/02 A3007 RMK SF8 SLP185

CYQB;2010-11-16 12:00;CYQB 161200Z 00000KT 3SM BR OVC008 02/02 A3008 RMK SF8 SLP190

CYQB;2010-11-16 13:00;CYQB 161300Z 32003KT 5SM BR OVC007 03/03 A3009 RMK SF8 SLP194

CYQB;2010-11-16 14:00;CYQB 161400Z 00000KT 5SM BR SCT006 OVC210 05/03 A3010 RMK SF4CI0 SLP195

CYQB;2010-11-16 15:00;CYQB 161500Z 23005KT 8SM SCT007 SCT060 BKN210 05/03 A3009 RMK SF3SC1CI0 SLP193

CYQB;2010-11-16 16:00;CYQB 161600Z 18004KT 8SM FEW006 SCT060 BKN210 05/04 A3009 RMK SF2SC1CI0 SLP192

CYQB;2010-11-16 17:00;CYQB 161700Z 18004KT 10SM FEW006 SCT084 BKN210 06/04 A3007 RMK SF2AC2CI0 SLP185

CYQB;2010-11-16 18:00;CYQB 161800Z 17005KT 10SM FEW010 BKN084 BKN210 06/04 A3007 RMK SF1AC4CI0 SLP185

CYQB;2010-11-16 19:00;CYQB 161900Z 26004KT 15SM FEW012 BKN079 09/05 A3006 RMK SC1AC4 SLP181

CYQB;2010-11-16 20:00;CYQB 162000Z 00000KT 20SM FEW015 SCT240 09/04 A3006 RMK CF1CI1 SLP182

CYQB;2010-11-16 21:00;CYQB 162100Z 13002KT 10SM FEW015 BKN240 06/03 A3006 RMK CF1CI1 SLP183

CYQB;2010-11-16 22:00;CYQB 162200Z 00000KT 10SM BKN240 04/02 A3007 RMK CI1 SLP187

CYQB;2010-11-16 23:00;CYQB 162300Z 00000KT 10SM SCT240 04/02 A3008 RMK CI0 SLP191

CYQB;2010-11-17 00:00;CYQB 170000Z 36003KT 10SM FEW240 02/00 A3009 RMK CI0 SLP192

CYQB;2010-11-17 01:00;CYQB 170100Z 01004KT 10SM BKN230 03/01 A3008 RMK CS2 SLP188

CYQB;2010-11-17 02:00;CYQB 170200Z 02002KT 10SM BKN220 02/01 A3006 RMK CS5 SLP184

CYQB;2010-11-17 03:00;CYQB 170300Z 04003KT 10SM BKN200 02/00 A3004 RMK CS5 SLP175

CYQB;2010-11-17 04:00;CYQB 170400Z 04005KT 15SM BKN230 03/01 A3003 RMK CI5 SLP173

CYQB;2010-11-17 05:00;CYQB 170500Z CCA 04007KT 15SM FEW100 OVC230 03/00 A3001 RMK AC1CS6 SLP165

CYQB;2010-11-17 06:00;CYQB 170600Z 10008KT 15SM SCT100 OVC230 04/02 A3000 RMK AC4CS4 SLP161

CYQB;2010-11-17 07:00;CYQB 170700Z 07008KT 15SM SCT026 OVC072 05/03 A2998 RMK SC4AC4 SLP155

CYQB;2010-11-17 07:17;CYQB 170717Z 07011G16KT 15SM -RA FEW026 OVC067 05/ RMK SC2AC6

CYQB;2010-11-17 08:00;CYQB 170800Z 07015KT 10SM OVC042 05/03 A2994 RMK SC8 SLP141

CYQB;2010-11-17 09:00;CYQB 170900Z CCA 07018G25KT 10SM -RA OVC043 05/03 A2987 RMK SC8 PRESFR SLP119

CYQB;2010-11-17 10:00;CYQB 171000Z CCA 07012G21KT 10SM -RA OVC051 05/03 A2983 RMK SC8 PRESFR SLP105

CYQB;2010-11-17 11:00;CYQB 171100Z CCA 08021G29KT 8SM -RA OVC055 05/03 A2976 RMK SC8 PRESFR SLP081

CYQB;2010-11-17 12:00;CYQB 171200Z CCA 06022G33KT 3SM RA BR BKN020 OVC040 05/04 A2972 RMK SC6SC2 PRESFR SLP066

CYQB;2010-11-17 13:00;CYQB 171300Z CCA 07026G36KT 5SM -RA BR BKN020 OVC035 05/04 A2965 RMK SC5SC3 PRESFR SLP043

CYQB;2010-11-17 14:00;CYQB 171400Z 09023G32KT 4SM -RA BR BKN018 OVC026 05/04 A2958 RMK SC6SC2 SLP020

CYQB;2010-11-17 15:00;CYQB 171500Z 07021G35KT 3SM -RASN BR BKN015 OVC027 05/05 A2954 RMK SC6SC2 SLP005

CYQB;2010-11-17 15:12;CYQB 171512Z 08023G31KT 2SM -RA BR BKN011 OVC020 04/ RMK SC7SC1

CYQB;2010-11-17 16:00;CYQB 171600Z 08019G29KT 1 1/2SM -RA BR BKN011 OVC023 04/04 A2948 RMK SC7SC1 SLP985

CYQB;2010-11-17 17:00;CYQB 171700Z 09012G21KT 2SM -RA BR OVC010 05/04 A2944 RMK SC8 SLP972

CYQB;2010-11-17 18:00;CYQB 171800Z 07014G19KT 2 1/2SM -RA BR BKN007 OVC019 05/05 A2938 RMK SF5SC3 PRESFR SLP950

CYQB;2010-11-17 19:00;CYQB 171900Z 08010G19KT 6SM -RA BR FEW007 BKN025 OVC044 05/05 A2932 RMK SF2SC3SC2 SLP931

CYQB;2010-11-17 20:00;CYQB 172000Z 08012KT 5SM -RA BR FEW009 OVC020 05/05 A2931 RMK SF2SC6 SLP927

CYQB;2010-11-17 21:00;CYQB 172100Z 07010KT 3SM -RA BR FEW005 OVC023 05/05 A2930 RMK SF2SC6 SLP923

CYQB;2010-11-17 22:00;CYQB 172200Z 09005KT 4SM -RA BR BKN006 OVC020 05/05 A2929 RMK SF5SC3 SLP922

CYQB;2010-11-17 22:13;CYQB 172213Z 10006KT 3SM -RA BR OVC004 05/ RMK SF8 CIG VRB 2-6

CYQB;2010-11-17 23:00;CYQB 172300Z 07005KT 3SM -RA BR OVC004 05/05 A2928 RMK ST8 CIG VRB 2-6 SLP918

CYQB;2010-11-18 00:00;CYQB 180000Z 07009KT 3SM -RA BR BKN004 OVC015 05/05 A2927 RMK ST7SC1 CIG VRB 2-6 SLP915

CYQB;2010-11-18 01:00;CYQB 180100Z 08006KT 3SM -RA BR BKN004 OVC012 05/05 A2927 RMK SF7SC1 CIG VRB 2-6 VIS VRB 2-4 SLP915

CYQB;2010-11-18 02:00;CYQB 180200Z 31003KT 2SM -RA BR BKN003 OVC008 05/05 A2927 RMK SF7SC1 CIG VRB 1-5 VIS VRB 1-3 SLP914

CYQB;2010-11-18 02:36;CYQB 180236Z 12004KT 2SM -RA BR SCT003 BKN008 OVC015 05/ RMK SF4SF3SC1 VIS VRB 1-3

CYQB;2010-11-18 03:00;CYQB 180300Z 00000KT 1SM R06/P6000FT/D -RA BR SCT004 BKN007 OVC015 05/05 A2926 RMK SF4SF3SC1 SLP912

CYQB;2010-11-18 04:00;CYQB 180400Z 25005KT 4SM -RA BR SCT005 BKN008 OVC035 05/05 A2926 RMK SF4SF3SC1 SLP912

CYQB;2010-11-18 04:16;CYQB 180416Z 26015G20KT 8SM -RA FEW008 FEW015 OVC051 06/ RMK SF1SF1SC6

CYQB;2010-11-18 05:00;CYQB 180500Z 26014G21KT 8SM -RA FEW018 OVC041 05/04 A2934 RMK SC2SC6 PRESRR SLP936

CYQB;2010-11-18 06:00;CYQB 180600Z 25020G25KT 10SM -RA FEW020 BKN038 OVC072 04/03 A2939 RMK SC1SC6AC2 PRESRR SLP957

CYQB;2010-11-18 07:00;CYQB 180700Z 26022G28KT 8SM -RA SCT022 OVC075 03/02 A2945 RMK SC3AC5 SLP974

CYQB;2010-11-18 08:00;CYQB 180800Z 26021G26KT 10SM -RA FEW020 OVC083 03/02 A2949 RMK SC2AC6 SLP988

CYQB;2010-11-18 09:00;CYQB 180900Z 27022G28KT 10SM -RA SCT020 OVC095 03/01 A2953 RMK SC3AC5 SLP002

CYQB;2010-11-18 10:00;CYQB 181000Z 27019G27KT 10SM FEW020 BKN045 OVC220 03/00 A2957 RMK SC2SC5CI1 SLP015

CYQB;2010-11-18 11:00;CYQB 181100Z 27018G25KT 15SM FEW035 BKN240 03/M00 A2960 RMK SC2CI4 SLP025

CYQB;2010-11-18 12:00;CYQB 181200Z 26019G26KT 30SM BKN037 OVC240 03/M01 A2966 RMK SC7CI1 PRESRR SLP045

CYQB;2010-11-18 13:00;CYQB 181300Z 27017G27KT 30SM OVC038 03/M01 A2970 RMK SC8 SLP060

CYQB;2010-11-18 14:00;CYQB 181400Z 27016G25KT 30SM VCSH BKN040 03/M02 A2973 RMK SC7 SLP070

CYQB;2010-11-18 15:00;CYQB 181500Z 27018G24KT 30SM BKN040 04/M02 A2978 RMK SC6 OBS TAKEN +14 SLP086

CYQB;2010-11-18 16:00;CYQB 181600Z 28019G28KT 30SM BKN044 03/M03 A2980 RMK SC6 SLP095

CYQB;2010-11-18 17:00;CYQB 181700Z 28018G24KT 30SM BKN045 BKN240 04/M02 A2981 RMK SC6CI1 SLP098

CYQB;2010-11-18 18:00;CYQB 181800Z 31017G26KT 30SM BKN046 05/M03 A2982 RMK SC6 SLP100

CYQB;2010-11-18 19:00;CYQB 181900Z 30016G22KT 30SM BKN050 05/M02 A2983 RMK SC7 SLP105

CYQB;2010-11-18 20:00;CYQB 182000Z 29016G22KT 30SM BKN054 04/M02 A2984 RMK SC7 SLP109

CYQB;2010-11-18 21:00;CYQB 182100Z 30013G18KT 30SM BKN054 04/M03 A2986 RMK SC7 SLP115

CYQB;2010-11-18 22:00;CYQB 182200Z 30012G26KT 15SM BKN055 03/M03 A2988 RMK SC5 SLP122

CYQB;2010-11-18 23:00;CYQB 182300Z 30012KT 15SM BKN047 03/M03 A2989 RMK SC5 SLP126

CYQB;2010-11-18 23:12;CYQB 182312Z 30011G16KT 15SM BKN047 02/ RMK SC5

CYQB;2010-11-19 00:00;CYQB 190000Z 32005KT 15SM BKN052 01/M01 A2991 RMK SC5 SLP131

CYQB;2010-11-19 01:00;CYQB 190100Z 27007KT 15SM FEW055 00/M02 A2991 RMK SC2 SLP131

CYQB;2010-11-19 02:00;CYQB 190200Z 24009KT 15SM FEW050 00/M02 A2992 RMK SC2 SLP136

CYQB;2010-11-19 03:00;CYQB 190300Z 27007KT 15SM FEW100 M01/M03 A2994 RMK AC2 SLP142

CYQB;2010-11-19 04:00;CYQB 190400Z 23007KT 15SM BKN098 00/M04 A2994 RMK AC7 SLP144

CYQB;2010-11-19 05:00;CYQB 190500Z 23007KT 15SM BKN110 M01/M04 A2996 RMK AC7 SLP148

CYQB;2010-11-19 06:00;CYQB 190600Z 29006KT 15SM FEW050 SCT100 M01/M06 A2998 RMK SC1AS4 SLP155

CYQB;2010-11-19 07:00;CYQB 190700Z 26007KT 15SM FEW050 FEW100 M02/M07 A3000 RMK SC1AC1 SLP164

CYQB;2010-11-19 08:00;CYQB 190800Z 29008KT 15SM FEW040 M02/M07 A3003 RMK SC1 SLP173

CYQB;2010-11-19 09:00;CYQB 190900Z 30010KT 15SM FEW040 M02/M08 A3006 RMK SC1 SLP181

CYQB;2010-11-19 10:00;CYQB 191000Z 29005KT 15SM FEW040 FEW090 M04/M08 A3008 RMK SC1AC1 SLP190

CYQB;2010-11-19 11:00;CYQB 191100Z 29005KT 15SM FEW040 FEW090 M04/M08 A3011 RMK SC1AC1 SLP198

CYQB;2010-11-19 12:00;CYQB 191200Z 26004KT 30SM FEW040 FEW090 M03/M10 A3013 RMK SC1AC1 SLP208

CYQB;2010-11-19 13:00;CYQB 191300Z 23004KT 30SM FEW042 FEW250 M03/M08 A3015 RMK SC1CI0 SLP213

CYQB;2010-11-19 14:00;CYQB 191400Z 32013KT 30SM VCSH FEW040 FEW250 M02/M09 A3016 RMK SC2CI1 SHWRS NE SLP217

CYQB;2010-11-19 15:00;CYQB 191500Z 29010G17KT 30SM VCSH FEW040 FEW250 M02/M10 A3017 RMK CU2CI1 SHWRS N-NE SLP219

CYQB;2010-11-19 16:00;CYQB 191600Z 31014KT 30SM VCSH SCT045 SCT250 M01/M11 A3016 RMK CU4CI1 SHWRS NE SLP217

CYQB;2010-11-19 17:00;CYQB 191700Z 30015G20KT 30SM VCSH SCT045 M01/M08 A3016 RMK SC3 SHWRS NE SLP216

CYQB;2010-11-19 18:00;CYQB 191800Z 27014KT 30SM FEW045 FEW250 M00/M10 A3016 RMK SC2CI1 SLP218

CYQB;2010-11-19 19:00;CYQB 191900Z 30012KT 30SM FEW045 M01/M12 A3016 RMK SC1 SLP218

CYQB;2010-11-19 20:00;CYQB 192000Z 28010G15KT 30SM FEW045 FEW090 FEW250 M01/M11 A3016 RMK SC1AC1CI1 SLP217

CYQB;2010-11-19 21:00;CYQB 192100Z 30007KT 30SM FEW045 FEW090 FEW250 M03/M12 A3017 RMK SC1AC1CI1 SLP219

CYQB;2010-11-19 22:00;CYQB 192200Z 26004KT 15SM FEW045 FEW090 FEW250 M04/M11 A3017 RMK SC1AC1CI1 SLP219

CYQB;2010-11-19 23:00;CYQB 192300Z 32002KT 15SM SKC M05/M11 A3017 RMK SLP221

CYQB;2010-11-20 00:00;CYQB 200000Z 30002KT 15SM SKC M05/M11 A3016 RMK SLP217

CYQB;2010-11-20 01:00;CYQB 200100Z 04002KT 15SM FEW190 M04/M12 A3014 RMK CI1 SLP209

CYQB;2010-11-20 02:00;CYQB 200200Z 00000KT 15SM FEW180 M05/M11 A3012 RMK CI2 SLP205

CYQB;2010-11-20 03:00;CYQB 200300Z 36002KT 15SM FEW200 M06/M11 A3010 RMK CI2 SLP197

CYQB;2010-11-20 04:00;CYQB 200400Z 01003KT 15SM BKN130 M06/M10 A3009 RMK AC6 SLP194

CYQB;2010-11-20 05:00;CYQB 200500Z 02002KT 15SM BKN130 M06/M09 A3006 RMK AC7 SLP183

CYQB;2010-11-20 06:00;CYQB 200600Z 33002KT 15SM OVC071 M06/M09 A3004 RMK AC8 SLP176

CYQB;2010-11-20 06:44;CYQB 200644Z 02003KT 10SM -SN OVC070 M05/ RMK AC8

CYQB;2010-11-20 07:00;CYQB 200700Z 04003KT 6SM -SN FEW048 OVC068 M05/M08 A3001 RMK SC2AC6 SLP167

CYQB;2010-11-20 08:00;CYQB 200800Z CCA 05004KT 8SM BKN049 OVC065 M05/M08 A2994 RMK SC5SC3 PRESFR SLP144

CYQB;2010-11-20 08:34;CYQB 200834Z 06005KT 6SM -SN FEW015 OVC033 M04/ RMK SC2SC6 -SN INTMT

CYQB;2010-11-20 09:00;CYQB 200900Z 09004KT 1/2SM R06/P6000FT/D SN VV005 M04/M06 A2989 RMK SN8 SLP125

CYQB;2010-11-20 10:00;CYQB 201000Z 05005KT 1/2SM R06/P6000FT/D SN VV005 M05/M05 A2983 RMK SN8 /S02/ SLP108

CYQB;2010-11-20 10:25;CYQB 201025Z 07005KT 5/8SM R06/P6000FT/D -SN VV007 M04/ RESN RMK SN8

CYQB;2010-11-20 11:00;CYQB 201100Z 09004KT 5/8SM R06/P6000FT/U -SN VV006 M04/M05 A2978 RESN RMK SN8 SLP090

CYQB;2010-11-20 12:00;CYQB 201200Z 05006KT 1 1/4SM -SN OVC019 M04/M05 A2976 RMK SN6NS2 SLP081

CYQB;2010-11-20 12:11;CYQB 201211Z 05005KT 5/8SM R06/P6000FT/D -SN OVC018 M04/ RMK SN7NS1

CYQB;2010-11-20 12:13;CYQB 201213Z 05004KT 3/4SM R06/P6000FT/N -SN OVC018 M04/ RMK SN6NS2 VIS VRB 5/8-11/4

CYQB;2010-11-20 13:00;CYQB 201300Z 04003KT 2 1/2SM -SN BR OVC012 M04/M04 A2973 RMK NS8 SLP072

CYQB;2010-11-20 13:20;CYQB 201320Z 05005KT 1/2SM R06/P6000FT/D SN OVC011 M04/ RMK SN6NS2

CYQB;2010-11-20 14:00;CYQB 201400Z 34003KT 3/8SM R06/4500FT/U SN VV006 M03/M04 A2971 RMK SN8 /S02/ SLP065

CYQB;2010-11-20 14:28;CYQB 201428Z 01002KT 1 1/2SM -SN OVC012 M03/ RESN RMK SN5NS3 /S03/

CYQB;2010-11-20 15:00;CYQB 201500Z 36002KT 3SM -SN BR OVC009 M03/M04 A2969 RESN RMK SC8 SLP059

CYQB;2010-11-20 15:33;CYQB 201533Z 15003KT 8SM BKN011 BKN130 M02/ RMK SC5AC2

CYQB;2010-11-20 16:00;CYQB 201600Z 22010KT 8SM FEW015 BKN082 BKN130 M01/M02 A2970 RMK SC2AC4AC2 SLP063

CYQB;2010-11-20 16:52;CYQB 201652Z 24012KT 15SM -SHSN SCT013 SCT030 OVC043 M00/ RMK SC3SC1SC4

CYQB;2010-11-20 17:00;CYQB 201700Z 25010G15KT 15SM -SHSN FEW013 SCT030 OVC047 00/M02 A2972 RMK SC2SC1SC5 SLP068

CYQB;2010-11-20 18:00;CYQB 201800Z 27020KT 15SM FEW010 BKN040 01/M02 A2976 RMK CF1SC6 OCNL -SHSN SLP082

CYQB;2010-11-20 19:00;CYQB 201900Z 27016G21KT 15SM BKN035 01/M03 A2981 RMK SC7 SLP098

CYQB;2010-11-20 20:00;CYQB 202000Z 27020KT 15SM BKN045 BKN056 01/M04 A2987 RMK SC6SC2 SH ALQDS PRESRR WND ESTD SLP118

CYQB;2010-11-20 20:15;CYQB 202015Z 27025KT 8SM -SHSN OVC045 01/ RMK SC8 WND ESTD PRESRR

CYQB;2010-11-20 21:00;CYQB 202100Z 28019G26KT 10SM -SHSN FEW010 BKN030 BKN050 01/M04 A2992 RMK CF1SC5SC2 SLP136

CYQB;2010-11-20 22:00;CYQB 202200Z 28020KT 15SM FEW030 BKN058 M00/M06 A2998 RMK SC2SC2 SLP156

CYQB;2010-11-20 23:00;CYQB 202300Z CCA 27012G18KT 15SM BKN040 M02/M07 A3005 RMK SC5 PRESRR SLP178

CYQB;2010-11-21 00:00;CYQB 210000Z 28015G20KT 15SM BKN038 M02/M08 A3010 RMK SC7 SLP197

CYQB;2010-11-21 01:00;CYQB 210100Z 30010KT 15SM -SHSN BKN042 M03/M09 A3017 RMK SC6 PRESRR SLP220

CYQB;2010-11-21 02:00;CYQB 210200Z 32006KT 10SM -SHSN OVC039 M03/M09 A3022 RMK SC8 SLP238

CYQB;2010-11-21 03:00;CYQB 210300Z 30011KT 15SM BKN043 M04/M10 A3026 RMK SC6 SLP252

CYQB;2010-11-21 04:00;CYQB 210400Z 34011KT 10SM BKN043 M04/M11 A3031 RMK SC6 SLP269

CYQB;2010-11-21 05:00;CYQB 210500Z 32013KT 10SM SCT043 M05/M12 A3035 RMK SC4 SLP281

CYQB;2010-11-21 06:00;CYQB 210600Z 31013KT 10SM BKN030 M05/M12 A3038 RMK SC5 SLP292

CYQB;2010-11-21 07:00;CYQB 210700Z 30009KT 15SM BKN043 M06/M12 A3042 RMK SC5 SLP307

CYQB;2010-11-21 08:00;CYQB 210800Z 28009KT 15SM SCT045 M06/M12 A3047 RMK SC4 SLP321

CYQB;2010-11-21 09:00;CYQB 210900Z 31010KT 15SM SCT045 M07/M12 A3047 RMK SC3 SLP321

CYQB;2010-11-21 10:00;CYQB 211000Z 31003KT 15SM FEW045 M08/M13 A3048 RMK SC2 SLP327

CYQB;2010-11-21 11:00;CYQB 211100Z 28004KT 15SM SKC M10/M15 A3050 RMK SLP332

CYQB;2010-11-21 12:00;CYQB 211200Z 30006KT 15SM SKC M09/M14 A3053 RMK SLP345

CYQB;2010-11-21 13:00;CYQB 211300Z 32006KT 15SM SKC M08/M13 A3057 RMK SLP358

CYQB;2010-11-21 14:00;CYQB 211400Z 24005KT 25SM SKC M07/M12 A3059 RMK SLP364

CYQB;2010-11-21 15:00;CYQB 211500Z 26005KT 25SM SKC M06/M11 A3060 RMK SLP367

CYQB;2010-11-21 16:00;CYQB 211600Z 25006KT 25SM SKC M05/M11 A3059 RMK SLP363

CYQB;2010-11-21 17:00;CYQB 211700Z CCA 23007KT 25SM FEW200 M04/M11 A3057 RMK CI1 SLP358

CYQB;2010-11-21 18:00;CYQB 211800Z 24005KT 30SM FEW040 FEW200 M03/M11 A3056 RMK SC1CI1 SLP354

CYQB;2010-11-21 19:00;CYQB 211900Z 23005KT 30SM FEW040 FEW150 SCT200 M03/M11 A3055 RMK SC1AC1CI1 SLP350

CYQB;2010-11-21 20:00;CYQB 212000Z 23007KT 30SM FEW040 FEW150 BKN200 M03/M11 A3054 RMK SC1AC1CI2 SLP346

CYQB;2010-11-21 21:00;CYQB 212100Z 23006KT 30SM FEW060 FEW150 BKN200 M04/M11 A3054 RMK SC1AC1CI2 SLP346

CYQB;2010-11-21 22:00;CYQB 212200Z 24003KT 15SM BKN200 M06/M12 A3052 RMK CI2 SLP341

CYQB;2010-11-21 23:00;CYQB 212300Z 00000KT 15SM BKN200 M06/M11 A3053 RMK CI2 SLP343

CYQB;2010-11-22 00:00;CYQB 220000Z 35002KT 15SM SCT240 M09/M12 A3053 RMK CI2 SLP346

CYQB;2010-11-22 01:00;CYQB 220100Z 02003KT 15SM FEW120 FEW170 BKN240 M08/M11 A3052 RMK AC1AC1CI2 SLP343

CYQB;2010-11-22 02:00;CYQB 220200Z 05005KT 15SM FEW140 BKN240 M07/M11 A3052 RMK AC1CI1 SLP340

CYQB;2010-11-22 03:00;CYQB 220300Z 03004KT 15SM BKN100 M06/M10 A3050 RMK AC7 SLP333

CYQB;2010-11-22 04:00;CYQB 220400Z 06005KT 15SM BKN083 M06/M10 A3048 RMK AS5 SLP328

CYQB;2010-11-22 05:00;CYQB 220500Z 07009KT 15SM BKN100 M05/M08 A3044 RMK AS6 SLP314

CYQB;2010-11-22 06:00;CYQB 220600Z 07009KT 15SM BKN074 M05/M08 A3044 RMK AS7 SLP311

CYQB;2010-11-22 07:00;CYQB 220700Z 06007KT 15SM BKN080 OVC100 M04/M08 A3043 RMK AS6AS2 SLP308

CYQB;2010-11-22 08:00;CYQB 220800Z 09007KT 15SM OVC098 M03/M07 A3038 RMK AS8 SLP291

CYQB;2010-11-22 09:00;CYQB 220900Z 08010KT 15SM OVC074 M03/M07 A3035 RMK AS8 SLP283

CYQB;2010-11-22 10:00;CYQB 221000Z 09007KT 2SM -SN OVC025 M03/M07 A3035 RMK SC8 SLP281

CYQB;2010-11-22 10:40;CYQB 221040Z 10007KT 1SM R06/P6000FT/D -SN OVC016 M04/ RMK SN3SC5

CYQB;2010-11-22 11:00;CYQB 221100Z 09006KT 1/2SM R06/P6000FT/D SN OVC006 M04/M05 A3032 RMK SF8 OBS TAKEN +8 /S01/ SLP272

CYQB;2010-11-22 11:26;CYQB 221126Z 09006KT 1SM R06/P6000FT/U -SN OVC015 M04/ RMK SN3SF5

CYQB;2010-11-22 12:00;CYQB 221200Z 07009KT 1SM R06/P6000FT/D -SNPL OVC015 M04/M05 A3029 RMK SN2SF6 /S02/ SLP261

CYQB;2010-11-22 12:37;CYQB 221237Z 09007KT 3/4SM R06/5500FT/D -SN VV005 M04/ RMK SN8

CYQB;2010-11-22 13:00;CYQB 221300Z 09011KT 3/4SM R06/P6000FT/D -SNPL VV006 M04/M04 A3028 RMK SN8 /S01/ SLP258

CYQB;2010-11-22 13:22;CYQB 221322Z 09008KT 1SM R06/P6000FT/D -SNPL BR OVC006 M03/ RMK SF8

CYQB;2010-11-22 13:48;CYQB 221348Z 07008KT 1SM R06/P6000FT/D -PL -FZDZ BR OVC006 M03/ RMK SF8

CYQB;2010-11-22 14:00;CYQB 221400Z 07011KT 2SM -PL -FZDZ BR OVC007 M03/M04 A3025 RMK SF8 /S02/ SLP250

CYQB;2010-11-22 14:24;CYQB 221424Z CCA 07012G17KT 1/2SM R06/3500VP6000FT/D SN FZFG VV004 M04/ REFZDZ RMK SN8

CYQB;2010-11-22 14:50;CYQB 221450Z 07011G16KT 3/4SM R06/3500V5000FT/U -SN BR BKN005 OVC024 M03/ REFZDZ RMK SN6SF1SC1

CYQB;2010-11-22 15:00;CYQB 221500Z 07014KT 1SM R06/P6000FT/U -SN BR OVC006 M03/M04 A3022 RMK SF8 REFZDZ /S03/ SLP240

CYQB;2010-11-22 15:20;CYQB 221520Z 07011G17KT 2SM -SN -FZDZ OVC008 M03/ RMK SF8

CYQB;2010-11-22 15:26;CYQB 221526Z CCA 07011G17KT 2SM -SN -FZDZ BR OVC008 M03/ RMK SF8

CYQB;2010-11-22 15:37;CYQB 221537Z 07011G16KT 2SM -SN -FZDZ BR OVC005 M03/ RMK SF8

CYQB;2010-11-22 16:00;CYQB 221600Z 06010KT 2SM -SN BR OVC006 M03/M04 A3019 RMK SF8 REFZDZ SLP229

CYQB;2010-11-22 16:29;CYQB 221629Z 07010KT 2SM -SN -FZDZ BR OVC006 M03/ RMK SF8

CYQB;2010-11-22 17:00;CYQB 221700Z 07011KT 2SM -SN -FZDZ BR BKN006 OVC010 M03/M03 A3016 RMK SF7ST1 SLP218

CYQB;2010-11-22 17:37;CYQB 221737Z 07009G15KT 2SM -FZRA BR OVC006 M02/ RMK SF8

CYQB;2010-11-22 18:00;CYQB 221800Z 06011KT 2 1/2SM -FZRA BR OVC004 M02/M02 A3013 REFZDZ RMK ST8 SLP208

CYQB;2010-11-22 18:14;CYQB 221814Z 06011KT 4SM -FZRA BR OVC004 M02/ RMK ST8

CYQB;2010-11-22 18:35;CYQB 221835Z 06010KT 6SM -FZRA BR OVC006 M02/ RMK ST8 CIG VRB 4-8

CYQB;2010-11-22 19:00;CYQB 221900Z 06011KT 2 1/2SM -FZRA BR OVC006 M02/M02 A3012 RMK ST8 CIG VRB 4-6 SLP203

CYQB;2010-11-22 19:31;CYQB 221931Z 06010G15KT 2SM -FZRA BR OVC006 M01/ RMK FG1ST7 CIG VRB 4-8 VIS VRB 11/2-21/2

CYQB;2010-11-22 20:00;CYQB 222000Z 06010KT 2SM R06/4500VP6000FT/U -FZRA BR OVC004 M01/M02 A3011 RMK FG1ST7 VIS VRB 11/2-21/2 SLP201

CYQB;2010-11-22 21:00;CYQB 222100Z 06009KT 2SM -FZDZ BR BKN004 OVC010 M01/M02 A3011 REFZRA RMK FG1SF6SC2 VIS VRB 11/2-21/2 SLP202

CYQB;2010-11-22 22:00;CYQB 222200Z 06008KT 1 1/2SM -FZDZ BR OVC003 M01/M01 A3011 RMK FG1ST7 SLP202

CYQB;2010-11-22 22:25;CYQB 222225Z 06008KT 3SM -FZRA BR OVC003 M01/ REFZDZ RMK FG1ST7

CYQB;2010-11-22 23:00;CYQB 222300Z 07007KT 3SM -FZRA BR OVC004 M01/M01 A3011 REFZDZ RMK ST8 CIG VRB 3-5 SLP199

CYQB;2010-11-23 00:00;CYQB 230000Z CCA 07009KT 4SM -FZRA BR OVC004 M01/M01 A3010 RMK ST8 CIG VRB 3-5 SLP196

CYQB;2010-11-23 00:25;CYQB 230025Z 07008KT 4SM -FZDZ BR OVC004 M01/ REFZRA RMK ST8 CIG VRB 3-5

CYQB;2010-11-23 01:00;CYQB 230100Z 07010KT 5SM -FZDZ BR OVC004 M01/M01 A3010 REFZRA RMK ST8 CIG VRB 3-5 SLP196

CYQB;2010-11-23 01:32;CYQB 230132Z 07011KT 5SM -FZRA BR OVC004 M01/ REFZDZ RMK ST8 CIG VRB 3-5

CYQB;2010-11-23 02:00;CYQB 230200Z 07008KT 5SM -FZRA BR OVC004 M01/M01 A3010 REFZDZ RMK ST8 CIG VRB 3-5 SLP196

CYQB;2010-11-23 03:00;CYQB 230300Z 06011KT 6SM -FZRA BR OVC004 M00/M01 A3009 RMK ST8 SLP193

CYQB;2010-11-23 04:00;CYQB 230400Z 07008KT 8SM OVC004 M00/M01 A3008 REFZRA RMK ST8 SLP189

CYQB;2010-11-23 05:00;CYQB 230500Z 07007KT 8SM OVC004 M00/M01 A3007 RMK ST8 SLP186

CYQB;2010-11-23 06:00;CYQB 230600Z 07014KT 8SM OVC003 M00/M01 A3006 RMK ST8 SLP182

CYQB;2010-11-23 07:00;CYQB 230700Z 08011G17KT 6SM -FZDZ OVC004 M00/M01 A3003 RMK ST8 SLP174

CYQB;2010-11-23 08:00;CYQB 230800Z 07010KT 6SM -FZDZ BR OVC003 M00/M01 A3002 RMK ST8 SLP171

CYQB;2010-11-23 09:00;CYQB 230900Z 07008G15KT 8SM -FZDZ OVC004 M00/M01 A3000 RMK ST8 SLP163

CYQB;2010-11-23 10:00;CYQB 231000Z 07009KT 8SM -FZDZ OVC004 M00/M01 A2997 RMK ST8 SLP152

CYQB;2010-11-23 11:00;CYQB 231100Z 07014KT 8SM -FZDZ OVC004 00/M01 A2996 RMK ST8 SLP149

CYQB;2010-11-23 11:16;CYQB 231116Z 08012KT 4SM -FZDZ OVC005 00/ RMK SF8

CYQB;2010-11-23 11:32;CYQB 231132Z 08013G20KT 5SM -DZ BR OVC006 00/ RMK SF8

CYQB;2010-11-23 12:00;CYQB 231200Z 07011G16KT 4SM -DZ BR OVC007 00/M01 A2993 RMK SF8 SLP139

CYQB;2010-11-23 12:43;CYQB 231243Z 07011G18KT 2 1/2SM -DZ BR BKN004 OVC011 00/ RMK SF7SC1

CYQB;2010-11-23 13:00;CYQB 231300Z 08017G24KT 2 1/2SM -RADZ BR BKN004 OVC011 00/M00 A2987 RMK SF7SC1 SLP119

CYQB;2010-11-23 13:35;CYQB 231335Z 08014G22KT 4SM -DZ BR OVC004 RMK SF8

CYQB;2010-11-23 13:36;CYQB 231336Z CCA 08014G22KT 4SM -DZ BR OVC004 01/ RMK SF8

CYQB;2010-11-23 14:00;CYQB 231400Z 07016KT 5SM -DZ BR BKN006 OVC010 01/M00 A2984 RMK SF6SF2 SLP110

CYQB;2010-11-23 15:00;CYQB 231500Z 07015KT 3SM -RA BR BKN006 OVC011 01/00 A2981 RMK SF6SF2 SLP099

CYQB;2010-11-23 15:19;CYQB 231519Z 08017G25KT 2 1/2SM SHRA BR BKN005 OVC009 01/ RMK SF7SF1

CYQB;2010-11-23 15:45;CYQB 231545Z 06021G28KT 6SM -RA BR BKN007 OVC014 01/ RMK SF5SC3 RERA

CYQB;2010-11-23 16:00;CYQB 231600Z 12014G27KT 6SM -RA BR BKN006 OVC014 01/00 A2975 RMK SF6SC2 PRESFR RERA SLP079

CYQB;2010-11-23 16:14;CYQB 231614Z 06015G20KT 2SM -RA BR BKN006 OVC014 01/ RMK SF6SC2

CYQB;2010-11-23 17:00;CYQB 231700Z 07015G20KT 2SM -RA BR BKN006 BKN009 OVC014 02/01 A2971 RMK SF5SC2SC2 SLP065

CYQB;2010-11-23 17:47;CYQB 231747Z 07013G20KT 5SM -RA BR SCT005 OVC013 02/ RMK SF3SC5

CYQB;2010-11-23 18:00;CYQB 231800Z 08011G19KT 5SM -RA BR SCT005 OVC012 02/01 A2966 RMK SF4SC4 VIS LWR NW-NE SLP046

CYQB;2010-11-23 19:00;CYQB 231900Z 07010G16KT 2 1/2SM -RA BR SCT005 OVC014 02/02 A2963 RMK SF3SC5 SLP038

CYQB;2010-11-23 20:00;CYQB 232000Z 08009KT 2SM -RA BR SCT004 OVC012 02/02 A2961 RMK SF4SC4 RAG CIG SLP030

CYQB;2010-11-23 20:27;CYQB 232027Z 07008KT 3/4SM R06/P6000FT/D -RA BR BKN004 OVC010 02/ RMK SF6SC2

CYQB;2010-11-23 20:39;CYQB 232039Z 06007KT 1 1/4SM -RA BR BKN004 OVC010 02/ RMK SF6SC2

CYQB;2010-11-23 21:00;CYQB 232100Z 08010KT 1 1/4SM -RA BR BKN004 OVC010 02/02 A2960 RMK SF6SC2 VIS VRB 1-11/2 SLP027

CYQB;2010-11-23 21:21;CYQB 232121Z 09006KT 1 1/4SM -RA BR BKN003 OVC008 02/ RMK SF6SF2 VIS VRB 1-11/2

CYQB;2010-11-23 22:00;CYQB 232200Z 08007KT 5SM -RA BR FEW003 BKN020 BKN100 02/02 A2960 RMK SF2SC3AC2 SLP027

CYQB;2010-11-23 22:32;CYQB 232232Z 08004KT 8SM BKN004 BKN012 BKN110 02/ RMK SF5SC1AC1

CYQB;2010-11-23 22:50;CYQB 232250Z 07003KT 3/4SM R06/P6000FT/N BR OVC003 02/ RMK SF8

CYQB;2010-11-23 23:00;CYQB 232300Z 11003KT 1SM R06/P6000FT/N BR BKN002 OVC011 02/02 A2961 RMK SF7SC1 SLP030

CYQB;2010-11-23 23:17;CYQB 232317Z 10005KT 1/2SM R06/P6000FT/N FG OVC002 02/ RMK SF8

CYQB;2010-11-23 23:43;CYQB 232343Z 06005KT 1SM R06/P6000FT/U BR OVC002 02/ RMK SF8

CYQB;2010-11-24 00:00;CYQB 240000Z 06004KT 1SM R06/P6000FT/D BR OVC002 02/02 A2961 RMK SF8 SLP032

CYQB;2010-11-24 01:00;CYQB 240100Z 31002KT 3/8SM R06/3000FT/D FG OVC002 01/01 A2963 RMK SF8 SLP036

CYQB;2010-11-24 01:34;CYQB 240134Z 24004KT 3/8SM R06/2400FT/N FG SCT002 OVC005 01/ RMK SF3SF5

CYQB;2010-11-24 02:00;CYQB 240200Z 21006KT 3/8SM R06/2800FT/U FG OVC003 02/02 A2964 RMK SF8 CIG VRB 2-4 SLP040

CYQB;2010-11-24 02:31;CYQB 240231Z 24012KT 1/4SM R06/1800V2200FT/N FG OVC002 02/ RMK SF8

CYQB;2010-11-24 03:00;CYQB 240300Z 25013KT 1/4SM R06/2800FT/N FG VV002 02/02 A2964 RMK FG8 SLP040

CYQB;2010-11-24 03:41;CYQB 240341Z 23010KT 3/4SM R06/3500VP6000FT/U BR BKN002 BKN006 02/ RMK FG2SF4SF2 VIS S 2

CYQB;2010-11-24 03:49;CYQB 240349Z 22009KT 5SM BR SCT002 BKN005 BKN008 02/ RMK SF3SF2SC1

CYQB;2010-11-24 04:00;CYQB 240400Z 23010KT 6SM BR FEW002 SCT005 BKN068 01/01 A2966 RMK SF1SF2SC3 SLP048

CYQB;2010-11-24 05:00;CYQB 240500Z 24012KT 15SM FEW010 BKN040 BKN078 01/01 A2967 RMK SC2SC3AC2 SLP052

CYQB;2010-11-24 06:00;CYQB 240600Z 25015KT 15SM FEW010 FEW035 BKN100 02/01 A2968 RMK SC2SC1AC5 SLP055

CYQB;2010-11-24 07:00;CYQB 240700Z 27019KT 15SM FEW030 BKN100 02/M01 A2970 RMK SC2AC3 SLP061

CYQB;2010-11-24 08:00;CYQB 240800Z 24014KT 15SM FEW040 SCT100 01/M01 A2972 RMK SC2AC1 SLP067

CYQB;2010-11-24 09:00;CYQB 240900Z 28015G20KT 15SM BKN042 01/M03 A2975 RMK SC6 SLP079

CYQB;2010-11-24 10:00;CYQB 241000Z 28008G20KT 15SM SCT040 BKN090 00/M06 A2980 RMK SC3AC2 PRESRR SLP093

CYQB;2010-11-24 11:00;CYQB 241100Z 29016KT 15SM BKN038 BKN090 M00/M06 A2983 RMK SC6AC2 SLP103

CYQB;2010-11-24 12:00;CYQB 241200Z 28014KT 20SM BKN040 M01/M07 A2986 RMK SC6 SLP116

CYQB;2010-11-24 12:29;CYQB 241229Z 28012G19KT 15SM -SHSN BKN051 M01/ RMK SC7

CYQB;2010-11-24 13:00;CYQB 241300Z 28019G24KT 30SM VCSH FEW040 BKN050 BKN100 M02/M06 A2989 RMK SC1SC4AC1 SLP125

CYQB;2010-11-24 14:00;CYQB 241400Z 28017G28KT 10SM -SHSN OVC039 M02/M07 A2992 RMK SC8 VIS LWR N SLP135

CYQB;2010-11-24 15:00;CYQB 241500Z 28015G20KT 8SM -SHSN OVC045 M02/M07 A2994 RMK SC8 SLP144

CYQB;2010-11-24 16:00;CYQB 241600Z 28015G20KT 15SM -SHSN FEW036 BKN050 M01/M06 A2995 RMK SC1SC6 SLP145

CYQB;2010-11-24 17:00;CYQB 241700Z 28016G28KT 30SM VCSH BKN043 M01/M08 A2996 RMK SC7 SLP148

CYQB;2010-11-24 18:00;CYQB 241800Z 30017G24KT 30SM BKN046 BKN230 M01/M09 A2997 RMK SC5CI1 SLP154

CYQB;2010-11-24 19:00;CYQB 241900Z 31013G19KT 30SM BKN043 BKN120 BKN230 M01/M09 A2999 RMK SC5AC1CI1 SLP158

CYQB;2010-11-24 20:00;CYQB 242000Z 29013G19KT 30SM BKN042 BKN120 M01/M09 A3000 RMK SC6AC1 SLP163

CYQB;2010-11-24 21:00;CYQB 242100Z 31012G20KT 30SM FEW042 M02/M10 A3001 RMK SC2 SLP167

CYQB;2010-11-24 22:00;CYQB 242200Z 28010KT 15SM BKN043 M02/M09 A3004 RMK SC5 SLP177

CYQB;2010-11-24 23:00;CYQB 242300Z 30015G26KT 15SM FEW040 M03/M10 A3006 RMK SC2 SLP182

CYQB;2010-11-25 00:00;CYQB 250000Z 29013G22KT 15SM -SHSN BKN038 M03/M10 A3009 RMK SC6 SLP194

CYQB;2010-11-25 00:40;CYQB 250040Z 28010G16KT 15SM BKN036 M03/ RMK SC5

CYQB;2010-11-25 01:00;CYQB 250100Z 33009KT 15SM SCT040 M03/M10 A3011 RMK SC2 SLP201

CYQB;2010-11-25 02:00;CYQB 250200Z 28013KT 15SM BKN035 M03/M10 A3013 RMK SC6 SLP207

CYQB;2010-11-25 03:00;CYQB 250300Z 28009G16KT 15SM -SHSN BKN031 M05/M10 A3014 RMK SC6 SLP209

CYQB;2010-11-25 04:00;CYQB 250400Z 27010KT 15SM -SHSN BKN038 M06/M10 A3014 RMK SC7 SLP211

CYQB;2010-11-25 05:00;CYQB 250500Z 25012KT 15SM BKN027 M06/M11 A3014 RMK SC6 SLP212

CYQB;2010-11-25 06:00;CYQB 250600Z 25013KT 15SM -SHSN BKN034 M06/M11 A3015 RMK SC7 SLP215

CYQB;2010-11-25 07:00;CYQB 250700Z 24015KT 15SM BKN033 M07/M11 A3015 RMK SC6 SLP215

CYQB;2010-11-25 07:52;CYQB 250752Z 24016KT 15SM FEW035 M07/ RMK SC1

CYQB;2010-11-25 08:00;CYQB 250800Z 24017KT 15SM FEW035 M07/M11 A3015 RMK SC1 SLP213

CYQB;2010-11-25 09:00;CYQB 250900Z 25011G16KT 15SM FEW035 M08/M11 A3014 RMK SC1 SLP213

CYQB;2010-11-25 10:00;CYQB 251000Z 26014KT 15SM FEW035 M09/M12 A3014 RMK SC1 SLP210

CYQB;2010-11-25 11:00;CYQB 251100Z 24012KT 15SM SKC M09/M12 A3014 RMK SLP211

CYQB;2010-11-25 12:00;CYQB 251200Z 26010KT 20SM FEW035 M09/M12 A3014 RMK SC1 SLP211

CYQB;2010-11-25 13:00;CYQB 251300Z 26014KT 25SM FEW035 M09/M11 A3015 RMK SC1 SLP214

CYQB;2010-11-25 14:00;CYQB 251400Z 26012KT 25SM FEW035 M07/M11 A3016 RMK SC1 SLP217

CYQB;2010-11-25 15:00;CYQB 251500Z 25015KT 25SM FEW035 M06/M10 A3016 RMK SC1 SLP217

CYQB;2010-11-25 16:00;CYQB 251600Z 25015KT 25SM FEW035 FEW180 M04/M09 A3014 RMK SC1CI1 SLP212

CYQB;2010-11-25 17:00;CYQB 251700Z 23016KT 25SM FEW030 FEW180 M04/M09 A3012 RMK SC1CI1 SLP205

CYQB;2010-11-25 18:00;CYQB 251800Z 22016G24KT 25SM FEW030 FEW180 M04/M09 A3011 RMK SC1CI1 SLP200

CYQB;2010-11-25 19:00;CYQB 251900Z CCA 22016KT 25SM FEW030 SCT180 M03/M09 A3009 RMK SC1CI2 SLP195

CYQB;2010-11-25 20:00;CYQB 252000Z 23013G18KT 25SM FEW030 SCT200 M04/M08 A3009 RMK SC1CI2 SLP195

CYQB;2010-11-25 21:00;CYQB 252100Z 23012KT 25SM FEW030 BKN200 M04/M09 A3008 RMK SC1CI2 SLP193

CYQB;2010-11-25 22:00;CYQB 252200Z 24010KT 15SM BKN200 M05/M09 A3008 RMK CI2 SLP192

CYQB;2010-11-25 23:00;CYQB 252300Z 23009KT 15SM BKN200 M05/M09 A3006 RMK CI2 SLP183

CYQB;2010-11-26 00:00;CYQB 260000Z 23004KT 15SM BKN200 M06/M09 A3004 RMK CI2 SLP177

CYQB;2010-11-26 01:00;CYQB 260100Z 23006KT 15SM BKN200 M07/M09 A3003 RMK CI2 SLP173

CYQB;2010-11-26 02:00;CYQB 260200Z CCA 26004KT 15SM OVC200 M07/M09 A3002 RMK CI3 SLP170

CYQB;2010-11-26 03:00;CYQB 260300Z 00000KT 15SM OVC220 M07/M09 A2997 RMK CS6 SLP154

CYQB;2010-11-26 04:00;CYQB 260400Z 15003KT 15SM FEW110 OVC220 M08/M09 A2995 RMK AC2CS4 SLP146

CYQB;2010-11-26 05:00;CYQB 260500Z 02006KT 15SM FEW110 OVC220 M07/M09 A2990 RMK AC2CS5 SLP129

CYQB;2010-11-26 06:00;CYQB 260600Z 03005KT 15SM SCT100 OVC220 M07/M09 A2986 RMK AC3CS4 SLP115

CYQB;2010-11-26 07:00;CYQB 260700Z 05004KT 15SM OVC097 M06/M08 A2984 RMK AC8 SLP110

CYQB;2010-11-26 08:00;CYQB 260800Z 05008KT 15SM FEW012 SCT100 OVC190 M07/M08 A2976 RMK SF1AC3CI5 SLP082

CYQB;2010-11-26 09:00;CYQB 260900Z 07010KT 15SM FEW012 FEW100 OVC190 M05/M07 A2972 RMK SF1AC2CI6 SLP067

CYQB;2010-11-26 10:00;CYQB 261000Z 08012G17KT 15SM FEW012 BKN100 OVC190 M04/M06 A2964 RMK SF1AC6CI2 PRESFR SLP040

CYQB;2010-11-26 11:00;CYQB 261100Z 08012G17KT 15SM FEW012 BKN070 OVC140 M04/M06 A2956 RMK SF1AC6CI2 PRESFR SLP016

CYQB;2010-11-26 12:00;CYQB 261200Z 07013KT 5SM -SN OVC035 M03/M06 A2953 RMK ST8 SLP005

CYQB;2010-11-26 12:18;CYQB 261218Z 07018G26KT 1 1/2SM -SN OVC026 M03/ RMK ST8

CYQB;2010-11-26 12:42;CYQB 261242Z 08011KT 1 1/2SM -SN BKN011 OVC022 M03/ RMK SN5SF2SC2

CYQB;2010-11-26 13:00;CYQB 261300Z 09012G17KT 1 1/2SM -SHGS OVC019 M03/M04 A2945 RMK SN5SC3 PRESFR SLP979

CYQB;2010-11-26 13:32;CYQB 261332Z 07006KT 1 1/2SM -SHGS OVC011 M03/ RMK SN6SC2

CYQB;2010-11-26 13:44;CYQB 261344Z 08013KT 1SM R06/P6000FT/D -SHGS OVC008 M03/ RMK SN6SC2

CYQB;2010-11-26 14:00;CYQB 261400Z 09009KT 1/2SM R06/P6000FT/D SHGS VV006 M03/M04 A2942 RMK SN8 SLP966

CYQB;2010-11-26 15:00;CYQB 261500Z CCA 08007KT 1/2SM R06/3000V4500FT/N SHGS VV006 M03/M03 A2940 RMK SN8 /S02/ SLP959

CYQB;2010-11-26 15:10;CYQB 261510Z 06008KT 1/4SM R06/2800FT/D +SHGS VV003 M03/ RMK SN8

CYQB;2010-11-26 15:38;CYQB 261538Z 06011KT 3/8SM R06/2600FT/N SN FZFG VV003 M03/ RMK SN8 REGS

CYQB;2010-11-26 16:00;CYQB 261600Z 06010KT 1/2SM R06/4500FT/N SN FZFG VV005 M03/M04 A2937 RMK SN8 /S03/ REGS SLP949

CYQB;2010-11-26 16:15;CYQB 261615Z 06008KT 1SM R06/4000VP6000FT/U -SN BR OVC018 M03/ RMK SN3SC5 REGS

CYQB;2010-11-26 17:00;CYQB 261700Z 05005KT 1SM R06/P6000FT/U -SN BR OVC017 M03/M03 A2936 RMK SN5SC3 RESN /S04/ SLP947

CYQB;2010-11-26 17:12;CYQB 261712Z 01002KT 1 1/2SM -SN BR OVC012 M02/ RMK SN5SC3

CYQB;2010-11-26 17:46;CYQB 261746Z 27002KT 3SM -SN BR FEW004 OVC012 M02/ RMK SF2SC6

CYQB;2010-11-26 18:00;CYQB 261800Z 26004KT 2SM -SN BR OVC012 M02/M03 A2938 RMK SN3SC5 SLP952

CYQB;2010-11-26 18:26;CYQB 261826Z 20004KT 5SM BR FEW004 OVC008 M02/ RMK SF2SC6

CYQB;2010-11-26 19:00;CYQB 261900Z 24011KT 5SM BR OVC007 M01/M02 A2939 RMK SF8 SLP956

CYQB;2010-11-26 19:16;CYQB 261916Z 25016KT 5SM BR BKN013 BKN060 M01/ RMK SF7SC1

CYQB;2010-11-26 20:00;CYQB 262000Z 25018KT 15SM BKN015 BKN040 BKN060 M00/M02 A2942 RMK SF5SC1SC1 SLP968

CYQB;2010-11-26 21:00;CYQB 262100Z 26014G20KT 20SM SCT040 BKN060 M01/M06 A2944 RMK SC3SC2 SLP973

CYQB;2010-11-26 22:00;CYQB 262200Z 24009KT 15SM FEW040 BKN064 M02/M06 A2946 RMK SC2SC5 SLP980

CYQB;2010-11-26 23:00;CYQB 262300Z 24005KT 15SM FEW060 M04/M06 A2946 RMK SC2 SLP980

CYQB;2010-11-27 00:00;CYQB 270000Z 25008KT 15SM FEW064 M05/M07 A2948 RMK SC2 SLP987

CYQB;2010-11-27 01:00;CYQB 270100Z 25006KT 15SM BKN035 M05/M06 A2948 RMK SC6 SLP987

CYQB;2010-11-27 02:00;CYQB 270200Z 26007KT 15SM SCT040 BKN070 M04/M06 A2946 RMK SC3AC3 SLP981

CYQB;2010-11-27 03:00;CYQB 270300Z 19004KT 15SM FEW040 BKN070 M04/M07 A2947 RMK SC2AC3 SLP983

CYQB;2010-11-27 04:00;CYQB 270400Z 18006KT 15SM FEW045 SCT080 BKN120 M05/M07 A2945 RMK SC1AC1AC1 SLP977

CYQB;2010-11-27 05:00;CYQB 270500Z 00000KT 15SM BKN068 M05/M08 A2944 RMK AC5 SLP973

CYQB;2010-11-27 06:00;CYQB 270600Z 00000KT 15SM BKN065 M05/M07 A2943 RMK SC7 SLP971

CYQB;2010-11-27 07:00;CYQB 270700Z 23005KT 15SM -SHSN BKN056 OVC080 M03/M07 A2942 RMK SC6AC2 SLP967

CYQB;2010-11-27 08:00;CYQB 270800Z 00000KT 15SM BKN032 OVC055 M04/M07 A2941 RMK SC6SC2 SLP963

CYQB;2010-11-27 09:00;CYQB 270900Z 05002KT 15SM -SHSN SCT025 OVC035 M04/M06 A2940 RMK SC4SC4 SLP959

CYQB;2010-11-27 10:00;CYQB 271000Z 09003KT 15SM -SHSN BKN022 OVC035 M04/M06 A2939 RMK SC6SC2 SLP957

CYQB;2010-11-27 11:00;CYQB 271100Z 16003KT 4SM -SN OVC015 M02/M05 A2939 RMK SN4SC4 SLP958

CYQB;2010-11-27 12:00;CYQB 271200Z 20004KT 2SM -SN BR OVC020 M02/M03 A2939 RMK SN3SC5 SLP958

CYQB;2010-11-27 12:35;CYQB 271235Z 18003KT 1SM R06/P6000FT/N -SN BR OVC015 M02/ RMK SN5SC3

CYQB;2010-11-27 13:00;CYQB 271300Z 21004KT 3/4SM R06/4000VP6000FT/D -SN BR OVC008 M02/M02 A2939 RMK SN6SF2 SLP957

CYQB;2010-11-27 13:14;CYQB 271314Z 22003KT 1/2SM R06/P6000FT/U SN VV005 M02/ RMK SN8 /S01/

CYQB;2010-11-27 13:35;CYQB 271335Z 19005KT 3/4SM R06/P6000FT/U -SN BR VV006 M02/ RMK SN8

CYQB;2010-11-27 14:00;CYQB 271400Z CCB 21005KT 3/4SM R06/P6000FT/N -SN BR OVC008 M02/M02 A2939 RESN RMK SN6SF2 /S03/ SLP955

CYQB;2010-11-27 15:00;CYQB 271500Z 19007KT 2SM -SN BR OVC012 M01/M02 A2939 RMK SN4SF4 SLP957

CYQB;2010-11-27 16:00;CYQB 271600Z 23011G17KT 1SM R06/P6000FT/D -SN BR OVC012 M01/M02 A2939 RMK SN4SF4 /S04/ SLP956

CYQB;2010-11-27 16:43;CYQB 271643Z 25011G16KT 1/2SM R06/5500FT/N -SN FZFG OVC008 M01/M02 RMK SN7SF1

CYQB;2010-11-27 17:00;CYQB 271700Z 24010KT 3/4SM R06/3000VP6000FT/D -SN BR OVC008 M02/M02 A2939 RMK SN7SF1 VIS VRB 1/2 - 1 SLP958

CYQB;2010-11-27 18:00;CYQB 271800Z 23002KT 1 1/2SM -SN BR BKN007 OVC024 M01/M02 A2940 RMK SN2SF6SC1 SLP961

CYQB;2010-11-27 18:21;CYQB 271821Z 22002KT 1/2SM R06/2800V5000FT/D SN VV004 M01/ RMK SN8

CYQB;2010-11-27 18:28;CYQB 271828Z 20006KT 3/4SM R06/2600V6000FT/U -SN VV007 M01/ RMK SN8 RESN VIS VRB 1/2-1

CYQB;2010-11-27 18:45;CYQB 271845Z 23009KT 3SM -SN BKN015 OVC025 M01/ RMK SF6SC2 RESN

CYQB;2010-11-27 19:00;CYQB 271900Z 24008KT 3SM BR SCT008 SCT015 OVC025 M01/M02 A2943 RMK SF3SF1SC4 RESN SLP969

CYQB;2010-11-27 20:00;CYQB 272000Z 24009KT 8SM BKN015 BKN025 BKN150 M01/M02 A2946 RMK SC5SC2AC1 SH ALQDS SLP981

CYQB;2010-11-27 21:00;CYQB 272100Z 23006KT 10SM -SHSN SCT015 BKN045 BKN100 M01/M02 A2951 RMK SC4SC2AC1 SLP996

CYQB;2010-11-27 22:00;CYQB 272200Z 25008KT 10SM FEW015 BKN035 M02/M02 A2956 RMK SC2SC6 SLP012

CYQB;2010-11-27 23:00;CYQB 272300Z 29011KT 15SM SCT030 BKN070 M01/M04 A2962 RMK SC4AC3 PRESRR SLP035

CYQB;2010-11-28 00:00;CYQB 280000Z 28011G19KT 15SM BKN036 BKN070 M02/M06 A2969 RMK SC6AC1 PRESRR SLP058

CYQB;2010-11-28 01:00;CYQB 280100Z 27012G19KT 15SM SCT030 M03/M08 A2974 RMK SC3 SLP076

CYQB;2010-11-28 02:00;CYQB 280200Z 25016KT 15SM FEW030 M06/M08 A2978 RMK SC2 SLP090

CYQB;2010-11-28 03:00;CYQB 280300Z 26017KT 15SM BKN031 M06/M08 A2983 RMK SC6 PRESRR SLP104

CYQB;2010-11-28 04:00;CYQB 280400Z 27017KT 15SM SCT031 M07/M09 A2986 RMK SC4 SLP115

CYQB;2010-11-28 05:00;CYQB 280500Z 25009KT 15SM FEW027 M07/M10 A2989 RMK SC2 SLP127

CYQB;2010-11-28 06:00;CYQB 280600Z 25012KT 15SM SCT027 M08/M10 A2993 RMK SC3 SLP139

CYQB;2010-11-28 07:00;CYQB 280700Z 24011KT 15SM FEW027 M08/M10 A2996 RMK SC2 SLP149

CYQB;2010-11-28 08:00;CYQB 280800Z 25010KT 15SM FEW027 M09/M11 A2998 RMK SC1 SLP157

CYQB;2010-11-28 09:00;CYQB 280900Z 26010KT 15SM BKN024 M10/M11 A3001 RMK SC3 SLP166

CYQB;2010-11-28 10:00;CYQB 281000Z 25010KT 10SM -SHSN SCT018 BKN040 BKN090 M09/M11 A3003 RMK SC3SC2AC0 SLP175

CYQB;2010-11-28 11:00;CYQB 281100Z 24008KT 10SM -SHSN BKN012 BKN040 M08/M09 A3007 RMK SC5SC2 SLP186

CYQB;2010-11-28 12:00;CYQB 281200Z CCA 25007KT 8SM -SHSN BKN012 OVC040 M07/M08 A3008 RMK SC6SC2 VIS LWR N SLP192

CYQB;2010-11-28 13:00;CYQB 281300Z 26007KT 6SM -SHSN BR BKN012 OVC040 M06/M08 A3011 RMK SC7SC1 SLP201

CYQB;2010-11-28 13:30;CYQB 281330Z 26005KT 4SM -SHSN BR OVC012 M06/ RMK SC8

CYQB;2010-11-28 14:00;CYQB 281400Z 25007KT 3SM -SHSN BR OVC014 M05/M07 A3014 RMK SC8 SLP209

CYQB;2010-11-28 15:00;CYQB 281500Z CCA 25009KT 4SM -SHSN BR BKN012 OVC030 M04/M06 A3015 RMK SC6SC2 VIS LWR N SLP215

CYQB;2010-11-28 15:16;CYQB 281516Z 25009KT 2SM -SHSN BR OVC012 M04/ RMK SC8

CYQB;2010-11-28 16:00;CYQB 281600Z 25009KT 6SM -SHSN BR BKN011 OVC030 M04/M06 A3016 RMK SC6SC2 SLP217

CYQB;2010-11-28 16:30;CYQB 281630Z 27008KT 8SM BKN013 OVC030 M04/ RMK SC6SC2

CYQB;2010-11-28 17:00;CYQB 281700Z 25008KT 8SM BKN013 OVC030 04/M05 A3017 RMK SC6SC2 SLP221

CYQB;2010-11-28 18:00;CYQB 281800Z 24011KT 8SM BKN014 OVC018 M03/M05 A3017 RMK SC6SC2 SLP221

CYQB;2010-11-28 19:00;CYQB 281900Z 24012KT 8SM OVC020 M02/M05 A3018 RMK SC8 SLP226

CYQB;2010-11-28 20:00;CYQB 282000Z 25013KT 8SM OVC028 M02/M04 A3020 RMK SC8 SLP232

CYQB;2010-11-28 21:00;CYQB 282100Z 24009KT 15SM BKN029 BKN050 M02/M04 A3022 RMK SC6SC1 SLP237

CYQB;2010-11-28 22:00;CYQB 282200Z 25008KT 15SM BKN029 M02/M04 A3024 RMK SC7 SLP246

CYQB;2010-11-28 23:00;CYQB 282300Z 23008KT 15SM BKN030 M02/M04 A3026 RMK SC7 SLP253

CYQB;2010-11-29 00:00;CYQB 290000Z 23007KT 15SM OVC031 M02/M04 A3028 RMK SC8 SLP259

CYQB;2010-11-29 01:00;CYQB 290100Z 23007KT 15SM BKN033 M02/M04 A3030 RMK SC7 SLP264

CYQB;2010-11-29 02:00;CYQB 290200Z 21007KT 15SM BKN034 M02/M03 A3031 RMK SC7 SLP269

CYQB;2010-11-29 03:00;CYQB 290300Z 23006KT 15SM BKN033 M02/M03 A3032 RMK SC6 SLP273

CYQB;2010-11-29 04:00;CYQB 290400Z 22006KT 15SM FEW030 M02/M04 A3033 RMK SC1 SLP276

CYQB;2010-11-29 05:00;CYQB 290500Z 25003KT 15SM FEW030 M04/M05 A3035 RMK SC2 SLP281

CYQB;2010-11-29 06:00;CYQB 290600Z 26003KT 15SM BKN026 M03/M04 A3038 RMK SC6 SLP292

CYQB;2010-11-29 07:00;CYQB 290700Z 25007KT 15SM BKN026 M02/M05 A3039 RMK SC5 SLP297

CYQB;2010-11-29 08:00;CYQB 290800Z 25007KT 15SM BKN026 M03/M05 A3042 RMK SC6 SLP306

CYQB;2010-11-29 09:00;CYQB 290900Z 23007KT 15SM BKN025 M03/M05 A3044 RMK SC6 SLP314

CYQB;2010-11-29 10:00;CYQB 291000Z 23007KT 15SM BKN035 M04/M06 A3046 RMK SC6 SLP318

CYQB;2010-11-29 11:00;CYQB 291100Z 26008KT 15SM BKN027 M03/M06 A3048 RMK SC6 SLP327

CYQB;2010-11-29 12:00;CYQB 291200Z 25006KT 20SM SCT028 M04/M06 A3050 RMK SC4 SLP331

CYQB;2010-11-29 13:00;CYQB 291300Z 27006KT 20SM SCT037 M04/M07 A3051 RMK SC4 SLP337

CYQB;2010-11-29 14:00;CYQB 291400Z 21003KT 25SM BKN034 M02/M05 A3052 RMK SC7 SLP338

CYQB;2010-11-29 15:00;CYQB 291500Z 23005KT 25SM OVC033 M01/M04 A3052 RMK SC8 SLP341

CYQB;2010-11-29 16:00;CYQB 291600Z 23008KT 25SM OVC031 M01/M05 A3051 RMK SC8 SLP337

CYQB;2010-11-29 17:00;CYQB 291700Z 24005KT 25SM OVC031 M01/M04 A3051 RMK SC8 SLP336

CYQB;2010-11-29 18:00;CYQB 291800Z 24005KT 30SM OVC031 00/M04 A3050 RMK SC8 SLP334

CYQB;2010-11-29 19:00;CYQB 291900Z 24003KT 30SM BKN030 00/M04 A3051 RMK SC6 SLP335

CYQB;2010-11-29 20:00;CYQB 292000Z 36002KT 30SM FEW030 BKN220 00/M04 A3051 RMK SC1CI1 SLP337

CYQB;2010-11-29 21:00;CYQB 292100Z 00000KT 30SM FEW030 FEW220 M01/M04 A3052 RMK SC1CI1 SLP339

CYQB;2010-11-29 22:00;CYQB 292200Z 03003KT 15SM FEW220 M02/M05 A3052 RMK CI1 SLP341

CYQB;2010-11-29 23:00;CYQB 292300Z 05003KT 15SM FEW220 M03/M05 A3052 RMK CI1 SLP338

CYQB;2010-11-30 00:00;CYQB 300000Z 03004KT 15SM FEW220 M03/M05 A3051 RMK CI1 SLP337

CYQB;2010-11-30 01:00;CYQB 300100Z 04005KT 15SM FEW220 M03/M05 A3052 RMK CI1 SLP340

CYQB;2010-11-30 02:00;CYQB 300200Z 03005KT 15SM FEW220 M04/M05 A3051 RMK CI1 SLP337

CYQB;2010-11-30 03:00;CYQB 300300Z 02004KT 15SM FEW220 M04/M06 A3050 RMK CI1 SLP331

CYQB;2010-11-30 04:00;CYQB 300400Z 02006KT 15SM FEW220 M05/M06 A3049 RMK CI1 SLP328

CYQB;2010-11-30 05:00;CYQB 300500Z 02005KT 15SM FEW200 M05/M07 A3049 RMK CI2 SLP328

CYQB;2010-11-30 06:00;CYQB 300600Z 01005KT 15SM SCT200 M05/M07 A3049 RMK CI3 SLP329

CYQB;2010-11-30 07:00;CYQB 300700Z 02005KT 15SM SCT200 M05/M07 A3049 RMK CI3 SLP329

CYQB;2010-11-30 08:00;CYQB 300800Z 03006KT 15SM FEW200 M06/M07 A3047 RMK CI2 SLP321

CYQB;2010-11-30 09:00;CYQB 300900Z 03007KT 15SM FEW200 M05/M07 A3047 RMK CI2 SLP321

CYQB;2010-11-30 10:00;CYQB 301000Z 02005KT 15SM FEW200 M06/M07 A3047 RMK CI2 SLP322

CYQB;2010-11-30 11:00;CYQB 301100Z 03004KT 15SM FEW200 M06/M08 A3046 RMK CI2 SLP319

CYQB;2010-11-30 12:00;CYQB 301200Z 03004KT 30SM BKN005 BKN200 M07/M09 A3047 RMK SF3CI1 SLP322

CYQB;2010-11-30 12:42;CYQB 301242Z 03004KT 15SM BKN002 M05/ RMK SF7

CYQB;2010-11-30 13:00;CYQB 301300Z 05005KT 5SM BR OVC003 M04/M05 A3046 RMK SF8 SLP321

CYQB;2010-11-30 13:21;CYQB 301321Z 06006KT 1SM R06/P6000FT/N BR OVC002 M04/ RMK SF8

CYQB;2010-11-30 13:34;CYQB 301334Z 05006KT 2SM BR OVC003 M03/ RMK SF8

CYQB;2010-11-30 14:00;CYQB 301400Z 07006KT 5SM BR OVC004 M03/M03 A3045 RMK SF8 SLP316

CYQB;2010-11-30 15:00;CYQB 301500Z 07010KT 5SM BR OVC004 M01/M02 A3044 RMK SF8 SLP312

CYQB;2010-11-30 16:00;CYQB 301600Z 06010KT 8SM SCT004 M01/M02 A3041 RMK SF4 SLP301

CYQB;2010-11-30 17:00;CYQB 301700Z 06007KT 30SM FEW005 BKN210 00/M02 A3039 RMK SF1CS6 SLP296

CYQB;2010-11-30 18:00;CYQB 301800Z 06011KT 30SM OVC043 01/M02 A3037 RMK SC8 SLP288

CYQB;2010-11-30 19:00;CYQB 301900Z 08007KT 30SM OVC039 01/M02 A3035 RMK SC8 SLP281

CYQB;2010-11-30 20:00;CYQB 302000Z 07010G15KT 30SM OVC045 01/M02 A3033 RMK SC8 SLP275

CYQB;2010-11-30 21:00;CYQB 302100Z 07008KT 30SM OVC050 01/M01 A3033 RMK SC8 SLP275

CYQB;2010-11-30 22:00;CYQB 302200Z 08006KT 15SM OVC051 01/M01 A3033 RMK SC8 SLP275

CYQB;2010-11-30 23:00;CYQB 302300Z 09009KT 15SM -RA OVC043 01/M01 A3033 RMK SC8 SLP274

CYQB;2010-12-01 05:00;CYQB 010500Z 08010G15KT 2 1/2SM -RA BR BKN003 OVC030 02/01 A3023 RMK SF6SC2 VIS VRB 2-3 SLP240

CYQB;2010-12-01 05:27;CYQB 010527Z 08012G17KT 2 1/2SM -RA BR SCT003 BKN015 OVC030 02/ RMK SF4SC3SC1 VIS VRB 2-3

CYQB;2010-12-01 06:00;CYQB 010600Z 07011G16KT 3SM -RA BR BKN004 OVC020 02/02 A3022 RMK SF5SC3 SLP236

CYQB;2010-12-01 07:00;CYQB 010700Z 07011G17KT 3SM -RA BR BKN004 BKN015 OVC030 02/02 A3022 RMK SF5SC2SC2 VIS NE 11/2 SLP238

CYQB;2010-12-01 08:00;CYQB 010800Z 07012KT 1SM R06/P6000FT/U -RA BR BKN003 BKN015 OVC020 02/02 A3021 RMK FG2SF3SC2SC1 SLP234

CYQB;2010-12-01 08:39;CYQB 010839Z 06013G18KT 2SM -RA BR BKN003 BKN014 OVC030 02/ RMK SF5SC2SC1 VIS NE 1

CYQB;2010-12-01 09:00;CYQB 010900Z 07011KT 2SM -RA BR BKN003 OVC016 02/02 A3019 RMK SF6SC2 SLP226

CYQB;2010-12-01 10:00;CYQB 011000Z 08009KT 2SM -RA BR BKN003 OVC020 02/02 A3016 RMK SF6SC2 SLP216

CYQB;2010-12-01 10:09;CYQB 011009Z 08008KT 1 1/2SM -RA BR BKN004 OVC020 02/ RMK SF7SC1

CYQB;2010-12-01 11:00;CYQB 011100Z 07010KT 2SM -RA BR BKN003 OVC024 02/02 A3014 RMK SF7SC1 SLP210

CYQB;2010-12-01 12:00;CYQB 011200Z 07012KT 2SM -RA BR BKN004 BKN015 OVC025 03/02 A3011 RMK SF6SC2SC1 SLP200

CYQB;2010-12-01 13:00;CYQB 011300Z 07012G20KT 4SM -RA BR FEW004 BKN025 OVC078 03/02 A3009 RMK SF2SC4AC2 SLP194

CYQB;2010-12-01 14:00;CYQB 011400Z 07012G17KT 5SM -RA BR FEW005 BKN024 OVC080 03/02 A3007 RMK SF2SC5AC1 SLP186

CYQB;2010-12-01 15:00;CYQB 011500Z 08014G20KT 5SM -RA BR FEW005 OVC021 03/03 A3006 RMK SF2SC6 SLP181

CYQB;2010-12-01 16:00;CYQB 011600Z 08012G19KT 4SM -RA BR FEW005 OVC024 03/02 A3002 RMK SF1SC7 SLP170

CYQB;2010-12-01 17:00;CYQB 011700Z 07016G22KT 4SM -RA BR FEW005 BKN022 OVC031 03/03 A2998 RMK SF1SC6SC1 PRESFR SLP157

CYQB;2010-12-01 18:00;CYQB 011800Z 08020G26KT 6SM -RA BR BKN021 OVC029 03/02 A2993 RMK SC7SC1 VIS HIER SE-SW SLP139

CYQB;2010-12-01 19:00;CYQB 011900Z 07022KT 6SM -RA BR BKN024 OVC029 04/03 A2987 RMK SC7SC1 PRESFR SLP119

CYQB;2010-12-01 20:00;CYQB 012000Z 07020KT 10SM -RA FEW011 OVC023 04/03 A2989 RMK SF1SC7 SLP125

CYQB;2010-12-01 21:00;CYQB 012100Z 07016G24KT 10SM -RA FEW011 OVC027 04/03 A2986 RMK SF1SC7 SLP116

CYQB;2010-12-01 22:00;CYQB 012200Z 08017G30KT 10SM -RA FEW011 BKN030 OVC100 04/02 A2979 RMK SF1SC5AC3 PRESFR SLP092

CYQB;2010-12-01 23:00;CYQB 012300Z 08017G25KT 10SM -RA FEW011 SCT030 OVC090 04/02 A2978 RMK SF1SC2AC6 SLP088

CYQB;2010-12-02 00:00;CYQB 020000Z 07015G21KT 15SM FEW030 OVC086 04/01 A2977 RMK SC2AC6 SLP084

CYQB;2010-12-02 01:00;CYQB 020100Z 07013G19KT 15SM -SHRA FEW030 OVC084 04/00 A2978 RMK SC2AC6 SLP087

CYQB;2010-12-02 02:00;CYQB 020200Z 07016G22KT 10SM -SHRA SCT045 OVC082 03/01 A2976 RMK SC3AC5 SLP082

CYQB;2010-12-02 03:00;CYQB 020300Z 07014KT 10SM -SHRA OVC047 03/00 A2975 RMK SC8 SLP077

CYQB;2010-12-02 04:00;CYQB 020400Z 08015G22KT 8SM -RA OVC044 03/01 A2976 RMK SC8 SLP081

CYQB;2010-12-02 04:42;CYQB 020442Z 07015G24KT 8SM -RA BKN023 OVC039 02/ RMK SC5SC3

CYQB;2010-12-02 05:00;CYQB 020500Z 07015G20KT 6SM -RA BR OVC023 02/01 A2976 RMK SC8 SLP082

CYQB;2010-12-02 06:00;CYQB 020600Z 07013G24KT 6SM -RA BR OVC020 02/01 A2976 RMK SC8 SLP081

CYQB;2010-12-02 06:52;CYQB 020652Z 12006G18KT 5SM -RA BR FEW006 OVC020 02/ RMK SF2SC6

CYQB;2010-12-02 07:00;CYQB 020700Z 15008KT 4SM -RA BR SCT006 OVC018 02/01 A2978 RMK SF3SC5 SLP087

CYQB;2010-12-02 07:29;CYQB 020729Z 17004KT 6SM -RA BR BKN006 OVC018 02/ RMK SF6SC2

CYQB;2010-12-02 08:00;CYQB 020800Z 18005KT 4SM -RA BR OVC006 02/01 A2981 RMK SF8 SLP098

CYQB;2010-12-02 09:00;CYQB 020900Z 25002KT 5SM -RASN SCT006 OVC017 01/01 A2981 RMK SF4SC4 SLP099

CYQB;2010-12-02 10:00;CYQB 021000Z 24005KT 3SM -SN FEW006 SCT017 OVC030 01/00 A2982 RMK SF2SC2SC4 SLP100

CYQB;2010-12-02 10:17;CYQB 021017Z 23004KT 4SM -RASN FEW006 SCT018 OVC031 01/ RMK SF1SC2SC5 -RA INTMT

CYQB;2010-12-02 11:00;CYQB 021100Z 23005KT 3SM -RASN FEW006 SCT013 BKN020 OVC030 00/00 A2985 RMK SF1SC2SC2SC2 SLP110

CYQB;2010-12-02 11:23;CYQB 021123Z 24006KT 2SM -RA BR FEW001 BKN016 OVC035 00/ RMK SF2SC3SC3

CYQB;2010-12-02 12:00;CYQB 021200Z 24008KT 2SM -RA BR FEW001 BKN015 OVC035 00/00 A2985 RMK SF2SC5SC2 SLP110

CYQB;2010-12-02 12:34;CYQB 021234Z 24007KT 2SM -SN BR SCT002 BKN015 OVC035 00/ RMK SF4SC2SC2

CYQB;2010-12-02 13:00;CYQB 021300Z 23007KT 2SM -SN BR BKN002 OVC020 00/00 A2986 RMK SF5SC3 SLP116

CYQB;2010-12-02 14:00;CYQB 021400Z 24007KT 1SM R06/P6000FT/D -SN BKN003 OVC005 01/00 A2989 RMK SN2SF5SC2 SLP124

CYQB;2010-12-02 15:00;CYQB 021500Z 24009KT 1 1/2SM -SN OVC004 01/01 A2991 RMK SN1SF7 SLP132

CYQB;2010-12-02 16:00;CYQB 021600Z 24011KT 3SM -SN OVC006 01/01 A2992 RMK SF8 SLP135

CYQB;2010-12-02 17:00;CYQB 021700Z 24011KT 7SM OVC008 01/01 A2993 RMK SF8 SLP139

CYQB;2010-12-02 17:15;CYQB 021715Z 24010G16KT 8SM OVC010 01/01 RMK SF8

CYQB;2010-12-02 18:00;CYQB 021800Z 24011G17KT 8SM OVC010 02/01 A2994 RMK SF8 SLP143

CYQB;2010-12-02 19:00;CYQB 021900Z 26011KT 8SM OVC012 02/01 A2995 RMK SF8 SLP145

CYQB;2010-12-02 19:38;CYQB 021938Z 26008KT 10SM FEW009 OVC015 02/ RMK SF1SC7

CYQB;2010-12-02 20:00;CYQB 022000Z 25006KT 10SM FEW009 OVC021 02/01 A2998 RMK SF2SC6 SLP156

CYQB;2010-12-02 21:00;CYQB 022100Z 24007KT 10SM FEW015 BKN020 OVC039 02/01 A3000 RMK CF2SC4SC2 SLP164

CYQB;2010-12-02 22:00;CYQB 022200Z 25005KT 10SM FEW015 BKN026 OVC040 01/00 A3002 RMK CF1SC6SC2 SLP170

CYQB;2010-12-02 23:00;CYQB 022300Z 26007KT 15SM FEW020 SCT038 01/M01 A3003 RMK SC1SC2 SLP172

CYQB;2010-12-03 00:00;CYQB 030000Z 24007KT 15SM SCT035 BKN040 01/M01 A3004 RMK SC4SC3 SLP175

CYQB;2010-12-03 01:00;CYQB 030100Z 24004KT 15SM FEW035 OVC039 01/M02 A3003 RMK SC1SC7 SLP173

CYQB;2010-12-03 02:00;CYQB 030200Z 23004KT 15SM FEW035 BKN043 00/M02 A3002 RMK SC1SC6 SLP170

CYQB;2010-12-03 03:00;CYQB 030300Z 26005KT 15SM BKN046 M01/M02 A3003 RMK SC7 SLP171

CYQB;2010-12-03 04:00;CYQB 030400Z 25006KT 15SM BKN046 M00/M02 A3002 RMK SC7 SLP170

CYQB;2010-12-03 05:00;CYQB 030500Z 24009KT 15SM OVC054 M00/M02 A3001 RMK SC8 SLP165

CYQB;2010-12-03 06:00;CYQB 030600Z 24008KT 15SM OVC053 M00/M02 A2999 RMK SC8 SLP160

CYQB;2010-12-03 07:00;CYQB 030700Z 23006KT 15SM BKN055 M01/M02 A2999 RMK SC7 SLP159

CYQB;2010-12-03 08:00;CYQB 030800Z 24008KT 15SM BKN054 M01/M01 A2998 RMK SC6 SLP155

CYQB;2010-12-03 09:00;CYQB 030900Z 24006KT 15SM OVC053 M01/M01 A2997 RMK SC8 SLP153

CYQB;2010-12-03 10:00;CYQB 031000Z 24007KT 10SM FEW053 OVC067 M01/M01 A2997 RMK SC2AC6 SLP152

CYQB;2010-12-03 11:00;CYQB 031100Z 26004KT 10SM SCT060 OVC066 M01/M02 A2997 RMK SC4SC4 SLP151

CYQB;2010-12-03 12:00;CYQB 031200Z 00000KT 10SM BKN060 OVC067 M01/M02 A2997 RMK SC6AC2 SLP151

CYQB;2010-12-03 13:00;CYQB 031300Z 18002KT 15SM BKN050 M01/M02 A2997 RMK SC7 SLP151

CYQB;2010-12-03 14:00;CYQB 031400Z 24003KT 15SM FEW002 BKN050 BKN065 M00/M01 A2996 RMK ST1SC5SC2 SLP150

CYQB;2010-12-03 15:00;CYQB 031500Z 21002KT 15SM FEW002 FEW050 BKN060 00/M01 A2996 RMK ST1SC2SC5 SLP149

CYQB;2010-12-03 17:00;CYQB 031700Z 20004KT 15SM FEW012 BKN062 01/M01 A2993 RMK SC1SC7 SLP138

CYQB;2010-12-03 18:00;CYQB 031800Z 22003KT 15SM FEW012 OVC064 02/M00 A2992 RMK SC1SC8 SLP135

CYQB;2010-12-03 19:00;CYQB 031900Z 23005KT 15SM FEW012 BKN050 OVC060 02/01 A2992 RMK SC1SC5SC3 SLP134

CYQB;2010-12-03 20:00;CYQB 032000Z 26006KT 25SM FEW015 BKN065 02/00 A2992 RMK SC1SC6 SLP135

CYQB;2010-12-03 21:00;CYQB 032100Z 24005KT 25SM FEW015 BKN053 OVC069 02/M00 A2992 RMK SC1SC6AC1 SLP136

CYQB;2010-12-03 22:00;CYQB 032200Z CCA 25005KT 15SM FEW015 BKN054 BKN065 02/00 A2992 RMK SC1SC6SC2 SLP137

CYQB;2010-12-03 23:00;CYQB 032300Z 24004KT 15SM FEW020 OVC060 02/M00 A2993 RMK SC1SC7 SLP138

CYQB;2010-12-04 00:00;CYQB 040000Z 00000KT 15SM OVC054 01/M00 A2992 RMK SC8 SLP135

CYQB;2010-12-04 01:00;CYQB 040100Z 07003KT 15SM FEW020 OVC050 01/M00 A2992 RMK SC2SC6 SLP134

CYQB;2010-12-04 02:00;CYQB 040200Z 00000KT 15SM FEW015 OVC045 01/00 A2991 RMK SC2SC6 SLP132

CYQB;2010-12-04 03:00;CYQB 040300Z 05002KT 15SM OVC050 01/00 A2989 RMK SC8 SLP127

CYQB;2010-12-04 04:00;CYQB 040400Z 00000KT 15SM OVC050 01/00 A2988 RMK SC8 SLP123

CYQB;2010-12-04 04:45;CYQB 040445Z 02005KT 15SM -SN OVC030 02/ RMK SC8

CYQB;2010-12-04 05:00;CYQB 040500Z 03006KT 15SM -SN OVC030 02/M01 A2987 RMK SC8 SLP118

CYQB;2010-12-04 05:30;CYQB 040530Z 35005KT 2 1/2SM -SN OVC025 01/ RMK SN5SC3

CYQB;2010-12-04 06:00;CYQB 040600Z 33005KT 5SM -SN OVC020 01/M00 A2984 RMK SC8 SLP108

CYQB;2010-12-04 07:00;CYQB 040700Z 33006KT 4SM -SN BKN010 OVC025 01/M00 A2982 RMK SC7SC1 SLP101

CYQB;2010-12-04 07:31;CYQB 040731Z 33004KT 2SM -SN OVC007 00/ RMK ST8

CYQB;2010-12-04 08:00;CYQB 040800Z 31004KT 1SM R06/P6000FT/D -SN BKN006 OVC018 00/00 A2980 RMK SF7SC1 SLP094

CYQB;2010-12-04 09:00;CYQB 040900Z 32004KT 1SM R06/P6000FT/D -SN BKN007 OVC014 00/00 A2978 RMK SF7SC1 SLP086

CYQB;2010-12-04 10:00;CYQB 041000Z 33005KT 5SM -SN SCT014 OVC029 01/00 A2974 RMK SF3SC5 SLP073

CYQB;2010-12-04 11:00;CYQB 041100Z 33005KT 10SM -SN BKN016 OVC030 01/M01 A2971 RMK SF6SC2 SLP065

CYQB;2010-12-04 11:20;CYQB 041120Z 34006KT 2SM -SN BKN009 OVC022 01/ RMK SF7SC1

CYQB;2010-12-04 11:50;CYQB 041150Z 34004KT 1SM R06/P6000FT/D -SN BKN005 OVC015 00/ RMK SF7SC1

CYQB;2010-12-04 12:00;CYQB 041200Z 33003KT 1/2SM R06/P6000FT/D SN VV004 00/00 A2970 RMK SN8 SLP060

CYQB;2010-12-04 13:00;CYQB 041300Z 33004KT 3/4SM R06/P6000FT/U -SN VV007 00/00 A2968 RMK SN8 SLP053

CYQB;2010-12-04 14:00;CYQB 041400Z 27003KT 3/4SM R06/P6000FT/N -SN VV009 00/00 A2967 RMK SN8 SLP050

CYQB;2010-12-04 15:00;CYQB 041500Z 27002KT 3/4SM R06/4000VP6000FT/D -SN VV008 00/00 A2964 RMK SN8 SLP042

CYQB;2010-12-04 16:00;CYQB 041600Z 23002KT 3/4SM R06/P6000FT/U -SN BKN011 OVC020 00/00 A2962 RMK SF7SC1 SLP035

CYQB;2010-12-04 16:33;CYQB 041633Z 22002KT 1 1/2SM -SN BR SCT010 BKN014 OVC024 01/ RMK SF3SC4SC1

CYQB;2010-12-04 17:00;CYQB 041700Z 19003KT 1SM R06/P6000FT/N -SN BR BKN010 OVC019 01/00 A2960 RMK SF5SC3 SLP027

CYQB;2010-12-04 17:26;CYQB 041726Z 22004KT 1 1/2SM -SN BR SCT010 OVC020 01/ RMK SF3SC5

CYQB;2010-12-04 18:00;CYQB 041800Z 23006KT 1 1/2SM -SN BR SCT010 OVC015 01/00 A2959 RMK SF4SC4 SLP024

CYQB;2010-12-04 18:46;CYQB 041846Z 21005KT 1SM R06/P6000FT/D -SN BR OVC015 00/ RMK SN3SF5

CYQB;2010-12-04 19:00;CYQB 041900Z 22007KT 1SM R06/P6000FT/D -SN BR OVC020 00/00 A2960 RMK SN7SC1 SLP026

CYQB;2010-12-04 19:31;CYQB 041931Z 22006KT 1SM R06/P6000FT/N -SN BR BKN002 OVC018 00/ RMK SF7SC1

CYQB;2010-12-04 20:00;CYQB 042000Z 21007KT 1SM R06/P6000FT/D -SN BR BKN003 OVC016 00/M00 A2960 RMK SN5SF2SC1 SLP027

CYQB;2010-12-04 21:00;CYQB 042100Z 22011KT 1 1/2SM -SN BR BKN003 OVC018 M00/M00 A2960 RMK SN2SF3SC2 SLP027

CYQB;2010-12-04 21:38;CYQB 042138Z 23012KT 1 1/2SM -SN BR SCT004 OVC017 M01/ RMK SN2SF2SC5 VIS VRB 1-2

CYQB;2010-12-04 22:00;CYQB 042200Z 23013KT 1 1/2SM -SN SCT004 OVC022 M01/M01 A2961 RMK SN2SF2SC5 SLP030

CYQB;2010-12-04 23:00;CYQB 042300Z 23014KT 1 1/2SM -SN SCT004 OVC022 M01/M02 A2961 RMK SN2SF2SC5 SLP031

CYQB;2010-12-05 00:00;CYQB 050000Z 23013G18KT 1 1/2SM -SN VV023 M01/M02 A2961 RMK SN8 /S02/ SLP029

CYQB;2010-12-05 00:50;CYQB 050050Z 24011KT 1SM R06/P6000FT/D -SN VV024 M02/ RMK SN8

CYQB;2010-12-05 01:00;CYQB 050100Z 24012KT 1SM R06/P6000FT/U -SN VV024 M02/M02 A2959 RMK SN8 SLP024

CYQB;2010-12-05 01:13;CYQB 050113Z 24011KT 2SM -SN FEW009 OVC030 M02/ RMK SF2SC6

CYQB;2010-12-05 02:00;CYQB 050200Z 23014KT 2 1/2SM -SN FEW009 OVC032 M02/M03 A2959 RMK SF2SC6 SLP022

CYQB;2010-12-05 02:20;CYQB 050220Z 24013KT 1 1/2SM -SN BKN010 OVC025 M02/ RMK SF6SC2

CYQB;2010-12-05 03:00;CYQB 050300Z 24010G15KT 1 1/2SM -SN BKN007 BKN016 OVC026 M02/M03 A2958 RMK SF5SC2SC2 SLP019

CYQB;2010-12-05 04:00;CYQB 050400Z 23011KT 4SM -SN BKN006 BKN023 OVC032 M03/M03 A2955 RMK SF5SC2SC2 SLP011

CYQB;2010-12-05 04:39;CYQB 050439Z 23015KT 6SM -SN FEW010 BKN025 OVC034 M03/ RMK SF2SC5SC1

CYQB;2010-12-05 05:00;CYQB 050500Z 24014KT 6SM -SN FEW008 BKN026 OVC035 M03/M04 A2954 RMK SF2SC5SC1 SLP008

CYQB;2010-12-05 06:00;CYQB 050600Z 24014KT 6SM -SN FEW010 FEW020 OVC036 M03/M04 A2953 RMK SF2SC1SC6 SLP005

CYQB;2010-12-05 07:00;CYQB 050700Z 24015KT 6SM BR SCT010 OVC030 M03/M04 A2953 RMK SF4SC4 SLP004

CYQB;2010-12-05 08:00;CYQB 050800Z 24016KT 6SM BR BKN010 OVC030 M03/M05 A2953 RMK SF6SC2 SLP003

CYQB;2010-12-05 09:00;CYQB 050900Z 24016KT 1SM R06/P6000FT/N -SN BR BKN010 OVC030 M04/M05 A2953 RMK SF5SC3 SLP004

CYQB;2010-12-05 10:00;CYQB 051000Z 23011G16KT 6SM -SN BR BKN014 OVC030 M04/M05 A2953 RMK SF5SC3 SLP002

CYQB;2010-12-05 11:00;CYQB 051100Z 24009KT 6SM -SN BR BKN009 OVC015 M04/M05 A2953 RMK SF6SC2 SLP002

CYQB;2010-12-05 12:00;CYQB 051200Z 24013KT 5SM -SN BR OVC011 M04/M06 A2953 RMK SF8 SLP005

CYQB;2010-12-05 13:00;CYQB 051300Z 24012KT 6SM -SN BR BKN010 OVC030 M05/M06 A2953 RMK SF7SC1 SLP005

CYQB;2010-12-05 14:00;CYQB 051400Z 24011KT 5SM -SN BR OVC011 M05/M06 A2955 RMK SF8 SLP009

CYQB;2010-12-05 15:00;CYQB 051500Z 25011KT 5SM -SN BR OVC015 M05/M06 A2954 RMK SF8 SLP007

CYQB;2010-12-05 16:00;CYQB 051600Z 25011KT 5SM -SN BR OVC011 M04/M06 A2953 RMK SF8 SLP004

CYQB;2010-12-05 17:00;CYQB 051700Z 24011KT 1 1/2SM -SN BR OVC010 M04/M06 A2953 RMK SF8 SLP002

CYQB;2010-12-05 23:00;CYQB 052300Z 24010KT 1SM R06/P6000FT/U -SN BR BKN007 OVC015 M05/M06 A2953 RMK SN4SF2SF2 VIS VRB 3/4-11/4 /S01/ SLP004

CYQB;2010-12-06 00:00;CYQB 060000Z 24009KT 3SM -SN BR FEW008 BKN015 OVC055 M05/M06 A2954 RMK SF2SF4SC2 VIS VRB 2-4 SLP007

CYQB;2010-12-06 01:00;CYQB 060100Z 23005KT 5SM -SN BR BKN010 OVC016 M05/M06 A2954 RMK SF6SF2 SLP009

CYQB;2010-12-06 02:00;CYQB 060200Z 23007KT 6SM -SN OVC011 M05/M07 A2955 RMK SF8 SLP011

CYQB;2010-12-06 03:00;CYQB 060300Z 23006KT 6SM BR BKN010 OVC016 M05/M07 A2954 RMK SF6SF2 SLP009

CYQB;2010-12-06 04:00;CYQB 060400Z 24004KT 10SM OVC020 M05/M07 A2953 RMK SC8 SLP005

CYQB;2010-12-06 05:00;CYQB 060500Z 24005KT 10SM OVC020 M05/M07 A2953 RMK SC8 SLP004

CYQB;2010-12-06 06:00;CYQB 060600Z 27005KT 10SM OVC013 M05/M07 A2950 RMK SF8 SLP996

CYQB;2010-12-06 07:00;CYQB 060700Z 26004KT 10SM OVC013 M05/M07 A2950 RMK SF8 SLP996

CYQB;2010-12-06 08:00;CYQB 060800Z 26006KT 10SM OVC012 M05/M07 A2947 RMK SF8 SLP984

CYQB;2010-12-06 09:00;CYQB 060900Z 24005KT 15SM FEW011 BKN046 M05/M07 A2945 RMK SF2SC5 SLP979

CYQB;2010-12-06 10:00;CYQB 061000Z 25005KT 15SM FEW010 BKN022 BKN040 M06/M07 A2943 RMK SF1SC6SC1 SLP971

CYQB;2010-12-06 11:00;CYQB 061100Z 24006KT 15SM FEW010 BKN020 OVC060 M05/M07 A2941 RMK SF1SC7SC1 SLP963

CYQB;2010-12-06 12:00;CYQB 061200Z 25007KT 15SM -SN FEW010 FEW020 BKN040 OVC055 M05/M07 A2936 RMK SF1SC2SC3SC2 SLP948

CYQB;2010-12-06 12:29;CYQB 061229Z 26008KT 2SM -SN OVC047 M05/ RMK SC8

CYQB;2010-12-06 13:00;CYQB 061300Z 24008KT 1 1/2SM -SN OVC025 M05/M07 A2931 RMK SN4SC4 SLP930

CYQB;2010-12-06 13:16;CYQB 061316Z 25009KT 1SM R06/P6000FT/D -SN OVC020 M05/ RMK SN5SC3

CYQB;2010-12-06 13:38;CYQB 061338Z 26009KT 3/4SM R06/P6000FT/N -SN VV010 M05/ RMK SN8 VIS VRBL 1/2-1

CYQB;2010-12-06 14:00;CYQB 061400Z CCA 24014KT 1/2SM R06/3500V6000FT/D SN VV005 M05/M06 A2923 RMK SN8 PRESFR SLP904

CYQB;2010-12-06 14:39;CYQB 061439Z 24015KT 1SM R06/P6000FT/U -SN DRSN OVC009 M05/ RMK SN6SC2

CYQB;2010-12-06 15:00;CYQB 061500Z 25012KT 1SM R06/6000FT/N -SN DRSN OVC007 M04/M05 A2916 RMK SN6SC2 PRESFR SLP880

CYQB;2010-12-06 15:24;CYQB 061524Z 25010KT 3/4SM R06/5000FT/D -SN DRSN VV004 M04/ RMK SN8 VIS VRB 1/2-1

CYQB;2010-12-06 15:45;CYQB 061545Z 24010KT 1 3/4SM R06/3000VP6000FT/U -SN DRSN OVC017 M04/ RMK SN2SC6

CYQB;2010-12-06 16:00;CYQB 061600Z 25013G18KT 1 3/4SM -SN DRSN OVC013 M04/M04 A2909 RMK SN2SC6 PRESFR SLP857

CYQB;2010-12-06 16:33;CYQB 061633Z 24015KT 4SM -SN BKN018 OVC025 M03/ RMK SN2SF5SC1 VIS LWR S

CYQB;2010-12-06 17:00;CYQB 061700Z CCA 23013KT 3SM -SN OVC019 M03/M03 A2903 RMK SN3SC5 PRESFR SLP835

CYQB;2010-12-06 17:30;CYQB 061730Z 26013KT 2SM -SN OVC011 M02/ RMK SN5SC3

CYQB;2010-12-06 18:00;CYQB 061800Z CCA 26011KT 1 1/2SM -SN OVC012 M02/M02 A2897 RMK SN5SC3 PRESFR SLP813

CYQB;2010-12-06 19:00;CYQB 061900Z 24009KT 1 1/2SM -SN OVC013 M01/M02 A2892 RMK SN5SC3 SLP799

CYQB;2010-12-06 20:00;CYQB 062000Z 25015G20KT 2 1/2SM -SN SCT013 OVC042 M01/M01 A2890 RMK SC4SC4 SLP790

CYQB;2010-12-06 21:00;CYQB 062100Z 25016G21KT 4SM -SN FEW006 SCT015 OVC041 M01/M01 A2887 RMK SF2SC2SC5 /S01/ SLP781

CYQB;2010-12-06 22:00;CYQB 062200Z 24019G24KT 4SM -SN FEW006 BKN025 OVC040 M01/M02 A2886 RMK SF2SC5SC2 SLP776

CYQB;2010-12-06 23:00;CYQB 062300Z 24020G25KT 6SM -SN FEW008 FEW025 OVC055 M02/M02 A2885 RMK SF1SC2SC6 SLP772

CYQB;2010-12-07 00:00;CYQB 070000Z 24023G28KT 4SM -SN DRSN BKN012 OVC030 M02/M03 A2885 RMK SC5SC3 SLP773

CYQB;2010-12-07 00:51;CYQB 070051Z 24022G27KT 3/4SM R06/P6000FT/D -SN BLSN VV007 M03/ RMK SN8

CYQB;2010-12-07 01:00;CYQB 070100Z 24022G27KT 3/4SM R06/P6000FT/D -SN BLSN VV006 M03/M03 A2886 RMK SN8 /S02/ SLP775

CYQB;2010-12-07 02:00;CYQB 070200Z 24020G26KT 3/4SM R06/P6000FT/U -SN BLSN VV007 M03/M03 A2887 RMK SN8 SLP778

CYQB;2010-12-07 03:00;CYQB 070300Z 24022G30KT 1SM R06/P6000FT/D -SN BLSN BKN006 OVC019 M03/M03 A2887 RMK SN3SF4SC1 SLP781

CYQB;2010-12-07 04:00;CYQB 070400Z 24021G29KT 1 1/4SM -SN BLSN SCT008 OVC021 M03/M03 A2889 RMK SN2SF2SC4 SLP787

CYQB;2010-12-07 05:00;CYQB 070500Z 23017G25KT 1SM R06/P6000FT/D -SN BLSN BKN007 OVC019 M03/M03 A2891 RMK SN2SF3SC2 /S04/ SLP792

CYQB;2010-12-07 06:00;CYQB 070600Z 23023G29KT 1SM R06/P6000FT/U -SN BLSN BKN009 OVC020 M03/M04 A2892 RMK SN2SF5SC1 /S01/ SLP797

CYQB;2010-12-07 07:00;CYQB 070700Z 23018G24KT 1SM R06/P6000FT/D -SN BLSN OVC012 M04/M04 A2895 RMK SN5SF3 /S04 SLP805

CYQB;2010-12-07 08:00;CYQB 070800Z 23019G25KT 3SM -SN OVC014 M04/M05 A2896 RMK SN3SF5 /S06 SLP811

CYQB;2010-12-07 09:00;CYQB 070900Z 23020G26KT 1SM R06/P6000FT/U -SN BLSN OVC010 M04/M05 A2898 RMK SN5SF3 SLP817

CYQB;2010-12-07 10:00;CYQB 071000Z 23018KT 3/4SM R06/P6000FT/U -SN BLSN OVC010 M04/M05 A2899 RMK SN5SF3 /S09 SLP822

CYQB;2010-12-07 10:44;CYQB 071044Z 23016G21KT 1 1/2SM -SN BLSN VV014 M04/ RMK SN8

CYQB;2010-12-07 11:00;CYQB 071100Z 23017KT 1 3/4SM -SN BLSN VV014 M04/M05 A2902 RMK SN8 /S10/ SLP830

CYQB;2010-12-07 11:34;CYQB 071134Z 22014KT 3/4SM R06/4500VP6000FT/D -SN BLSN VV011 M04/ RMK SN8 VIS VRBL 5/8-1

CYQB;2010-12-07 12:00;CYQB 071200Z 22010G16KT 3/4SM R06/P6000FT/U -SN BLSN VV010 M05/M05 A2904 RMK SN8 VIS VRBL 5/8-1 SLP837

CYQB;2010-12-07 13:00;CYQB 071300Z 22018KT 1 1/4SM -SN DRSN VV013 M04/M05 A2906 RMK SN8 SLP843

CYQB;2010-12-07 13:44;CYQB 071344Z 23018G26KT 2 1/2SM -SN DRSN OVC012 M04/ RMK SC8

CYQB;2010-12-07 14:00;CYQB 071400Z 23019G25KT 3SM -SN DRSN OVC011 M04/M05 A2908 RMK SC8 VIS LWR N SLP851

CYQB;2010-12-07 14:14;CYQB 071414Z 23015G20KT 1 1/2SM -SN DRSN OVC013 M04/ RMK SC8

CYQB;2010-12-07 15:00;CYQB 071500Z 23019KT 1 3/4SM -SN DRSN OVC013 M04/M05 A2910 RMK SN3SC5 SLP857

CYQB;2010-12-07 15:38;CYQB 071538Z 23021KT 1 1/4SM -SN DRSN OVC012 M04/ RMK SN3SC5 VIS VRBL 1-11/2

CYQB;2010-12-07 16:00;CYQB 071600Z 24018G27KT 1 1/4SM -SN DRSN OVC010 M04/M04 A2910 RMK SN3SC5 VIS VRBL 1-11/2 SLP859

CYQB;2010-12-07 17:00;CYQB 071700Z 24022G31KT 1 1/2SM -SN DRSN OVC011 M03/M04 A2912 RMK SN3SC5 VIS VRBL 11/4-13/4 SLP863

CYQB;2010-12-07 17:37;CYQB 071737Z 23023G31KT 3SM -SN DRSN OVC012 M03/ RMK SC8

CYQB;2010-12-07 18:00;CYQB 071800Z 23025KT 5SM -SN DRSN OVC011 M04/M04 A2913 RMK SC8 SLP869

CYQB;2010-12-07 19:00;CYQB 071900Z 24021G28KT 5SM -SN DRSN OVC011 M04/M04 A2915 RMK SC8 SLP876

CYQB;2010-12-07 20:00;CYQB 072000Z 24022G28KT 5SM -SN DRSN OVC012 M04/M04 A2919 RMK SC8 SLP887

CYQB;2010-12-07 20:30;CYQB 072030Z 24019G26KT 1 1/2SM -SN OVC012 M04/ RMK SC8

CYQB;2010-12-07 21:00;CYQB 072100Z 24016G24KT 3SM -SN DRSN OVC010 M04/M04 A2922 RMK SC8 SLP899

CYQB;2010-12-07 22:00;CYQB 072200Z 25021G26KT 6SM -SN DRSN OVC010 M04/M04 A2925 RMK SC8 SLP908

CYQB;2010-12-07 23:00;CYQB 072300Z 26017G24KT 6SM -SN DRSN OVC009 M04/M04 A2927 RMK SC8 SLP916

CYQB;2010-12-08 00:00;CYQB 080000Z 23018KT 8SM -SN SCT011 BKN020 OVC029 M04/M04 A2929 RMK SC4SC2SC2 SLP924

CYQB;2010-12-08 01:00;CYQB 080100Z 24017G24KT 8SM -SN DRSN FEW011 BKN020 OVC028 M04/M05 A2932 RMK SF1SC6SC1 SLP933

CYQB;2010-12-08 01:40;CYQB 080140Z 23015G20KT 10SM FEW011 BKN020 OVC028 M04/ RMK SF1SC6SC1

CYQB;2010-12-08 02:00;CYQB 080200Z 23017KT 15SM FEW011 BKN020 OVC032 M04/M06 A2935 RMK SF2SC5SC2 SLP943

CYQB;2010-12-08 03:00;CYQB 080300Z 24019G24KT 15SM OVC025 M05/M07 A2938 RMK SC8 SLP952

CYQB;2010-12-08 04:00;CYQB 080400Z 26017G25KT 15SM BKN029 OVC044 M05/M08 A2939 RMK SC6SC2 SLP955

CYQB;2010-12-08 05:00;CYQB 080500Z 24016KT 6SM -SN FEW015 OVC039 M06/M08 A2941 RMK SC2SC6 SLP964

CYQB;2010-12-08 06:00;CYQB 080600Z 25016G21KT 6SM -SN SCT014 OVC048 M06/M08 A2943 RMK SC3SC5 SLP971

CYQB;2010-12-08 07:00;CYQB 080700Z 25016KT 15SM -SN FEW020 SCT040 OVC080 M07/M08 A2945 RMK SC1SC2AC5 SLP976

CYQB;2010-12-08 08:00;CYQB 080800Z 25015KT 15SM FEW020 OVC072 M07/M09 A2946 RMK SC2AC6 SLP981

CYQB;2010-12-08 09:00;CYQB 080900Z 24016KT 10SM -SN FEW020 BKN036 OVC060 M07/M09 A2948 RMK SC2SC3SC3 SLP989

CYQB;2010-12-08 10:00;CYQB 081000Z 25017KT 4SM -SN OVC029 M08/M09 A2949 RMK SN2SC6 SLP992

CYQB;2010-12-08 11:00;CYQB 081100Z 24015KT 4SM -SN BKN029 OVC075 M08/M09 A2951 RMK SC6SC2 SLP998

CYQB;2010-12-08 12:00;CYQB 081200Z 24016KT 2SM -SN OVC019 M08/M09 A2952 RMK SN3SC5 SLP001

CYQB;2010-12-08 12:26;CYQB 081226Z 25017KT 8SM SCT017 OVC089 M08/ RMK SC3AC5

CYQB;2010-12-08 13:00;CYQB 081300Z 27017KT 1 1/2SM -SN OVC010 M08/M10 A2954 RMK SN4SC4 SLP009

CYQB;2010-12-08 14:00;CYQB 081400Z 25018KT 1 1/2SM -SN OVC010 M08/M09 A2956 RMK SN4SC4 SLP016

CYQB;2010-12-08 15:00;CYQB 081500Z 25016G21KT 2 1/2SM -SN OVC015 M08/M09 A2958 RMK SC8 SLP022

CYQB;2010-12-08 15:25;CYQB 081525Z 25018KT 1 3/4SM -SN OVC015 M08/ RMK SC8

CYQB;2010-12-08 16:00;CYQB 081600Z 24016KT 1 1/4SM -SN OVC014 M08/M09 A2959 RMK SC8 SLP025

CYQB;2010-12-08 17:00;CYQB 081700Z 25016G21KT 1 1/4SM -SN BKN013 OVC200 M08/M09 A2960 RMK SC6CS2 SLP028

CYQB;2010-12-08 18:00;CYQB 081800Z 27015G22KT 2SM -SN OVC016 M08/M09 A2961 RMK SN3SF5 SLP033

CYQB;2010-12-08 19:00;CYQB 081900Z 26018KT 1 1/2SM -SN OVC020 M08/M09 A2964 RMK SN4SC4 /S02 SLP040

CYQB;2010-12-08 20:00;CYQB 082000Z 27014G20KT 1 1/2SM -SN OVC020 M08/M09 A2967 RMK SN4SC4 SLP050

CYQB;2010-12-08 20:40;CYQB 082040Z 25014KT 1SM R06/P6000FT/U -SN OVC010 M08/ RMK SN6SF2

CYQB;2010-12-08 21:00;CYQB 082100Z 25018KT 1SM R06/P6000FT/U -SN OVC012 M08/M09 A2969 RMK SN5SF3 SLP060

CYQB;2010-12-08 21:20;CYQB 082120Z CCA 26016KT 1 1/4SM -SN OVC012 M08/ RMK SN5SF3

CYQB;2010-12-08 22:00;CYQB 082200Z 25013KT 1 1/4SM -SN BKN010 OVC020 M08/M09 A2972 RMK SN5SF2SC2 SLP070

CYQB;2010-12-08 23:00;CYQB 082300Z 26012G18KT 1 1/2SM -SN BKN020 OVC110 M08/M09 A2975 RMK SN2SC5AC2 SLP079

CYQB;2010-12-08 23:28;CYQB 082328Z 24015KT 5SM -SN BKN027 OVC055 M08/ RMK SC6SC2

CYQB;2010-12-09 00:00;CYQB 090000Z 25014KT 5SM -SN FEW025 BKN042 OVC120 M08/M10 A2977 RMK SC2SC3AC2 SLP087

CYQB;2010-12-09 01:00;CYQB 090100Z 25015KT 3SM -SN SCT012 OVC036 M08/M10 A2979 RMK SF3SC5 SLP092

CYQB;2010-12-09 02:00;CYQB 090200Z 25012KT 3SM -SN BKN013 OVC032 M09/M10 A2980 RMK SF6SC2 /S01/ SLP097

CYQB;2010-12-09 03:00;CYQB 090300Z 24015KT 3SM -SN SCT012 OVC110 M09/M10 A2982 RMK SN1SC2AC5 SLP103

CYQB;2010-12-09 04:00;CYQB 090400Z 25013KT 5SM -SN FEW016 SCT030 OVC110 M09/M11 A2984 RMK SC1SC2AC5 SLP109

CYQB;2010-12-09 05:00;CYQB 090500Z 25013G18KT 10SM -SN BKN110 M09/M11 A2985 RMK AC6 SLP113

CYQB;2010-12-09 06:00;CYQB 090600Z 25014G19KT 15SM BKN110 M09/M11 A2987 RMK AC6 SLP121

CYQB;2010-12-09 07:00;CYQB 090700Z 24012KT 15SM BKN090 M10/M12 A2990 RMK AC5 SLP130

CYQB;2010-12-09 08:00;CYQB 090800Z 23011KT 15SM SCT033 OVC090 M10/M12 A2992 RMK SC4AC4 SLP136

CYQB;2010-12-09 09:00;CYQB 090900Z 23009KT 15SM BKN034 M10/M12 A2994 RMK SC7 SLP145

CYQB;2010-12-09 10:00;CYQB 091000Z 23010KT 15SM BKN032 M10/M13 A2996 RMK SC6 SLP150

CYQB;2010-12-09 11:00;CYQB 091100Z 25014KT 15SM BKN090 OVC200 M11/M13 A2998 RMK AC7CI1 SLP157

CYQB;2010-12-09 12:00;CYQB 091200Z 25012KT 30SM SCT090 OVC170 M11/M14 A3000 RMK AC4CS4 SLP163

CYQB;2010-12-09 13:00;CYQB 091300Z 26013KT 30SM SCT060 BKN150 M11/M14 A3002 RMK SC4CS2 SLP172

CYQB;2010-12-09 14:00;CYQB 091400Z 24012KT 30SM FEW012 BKN070 M11/M14 A3005 RMK SC1AS6 SLP181

CYQB;2010-12-09 15:00;CYQB 091500Z 25013KT 30SM FEW012 BKN090 M10/M14 A3007 RMK SC1AS5 SLP189

CYQB;2010-12-09 16:00;CYQB 091600Z 25012KT 30SM FEW016 SCT090 M10/M14 A3008 RMK SC1AS3 SLP190

CYQB;2010-12-09 17:00;CYQB 091700Z 24013KT 30SM FEW016 FEW080 M09/M13 A3008 RMK SC1AS2 SLP191

CYQB;2010-12-09 18:00;CYQB 091800Z 24011KT 30SM FEW016 SCT070 M09/M13 A3009 RMK SC2AS2 SLP196

CYQB;2010-12-09 19:00;CYQB 091900Z 25013KT 30SM FEW016 BKN090 M09/M13 A3011 RMK SC2AS4 SLP202

CYQB;2010-12-09 20:00;CYQB 092000Z 24013KT 30SM FEW028 BKN120 M09/M13 A3014 RMK SC2AS3 SLP211

CYQB;2010-12-09 21:00;CYQB 092100Z 25010KT 30SM FEW028 FEW120 M10/M14 A3017 RMK SC2AS1 SLP223

CYQB;2010-12-09 22:00;CYQB 092200Z 23008KT 15SM FEW028 SCT150 M11/M14 A3021 RMK SC2AC2 SLP237

CYQB;2010-12-09 23:00;CYQB 092300Z 25006KT 15SM SCT034 M11/M15 A3024 RMK SC4 SLP245

CYQB;2010-12-10 00:00;CYQB 100000Z 23009KT 15SM BKN032 M11/M14 A3025 RMK SC6 SLP251

CYQB;2010-12-10 01:00;CYQB 100100Z 26010KT 15SM SCT034 M12/M15 A3026 RMK SC4 SLP254

CYQB;2010-12-10 02:00;CYQB 100200Z 26009KT 15SM SCT032 M12/M15 A3028 RMK SC4 SLP260

CYQB;2010-12-10 03:00;CYQB 100300Z 26008KT 15SM FEW032 M13/M16 A3030 RMK SC2 SLP266

CYQB;2010-12-10 04:00;CYQB 100400Z 25007KT 15SM SKC M14/M16 A3031 RMK SLP271

CYQB;2010-12-10 05:00;CYQB 100500Z 22003KT 15SM SKC M14/M17 A3031 RMK SLP272

CYQB;2010-12-10 06:00;CYQB 100600Z 23005KT 15SM SKC M16/M18 A3033 RMK SLP277

CYQB;2010-12-10 07:00;CYQB 100700Z 24004KT 15SM FEW010 M17/M19 A3036 RMK SF1 SLP286

CYQB;2010-12-10 08:00;CYQB 100800Z 24005KT 15SM FEW010 FEW200 M16/M20 A3038 RMK SF1CI1 SLP293

CYQB;2010-12-10 09:00;CYQB 100900Z 00000KT 15SM FEW180 M19/M22 A3038 RMK AS1 SLP296

CYQB;2010-12-10 09:49;CYQB 100949Z CCA 30003KT 15SM -SN BKN003 M21/ RMK SF7

CYQB;2010-12-10 10:00;CYQB 101000Z 00000KT 15SM -SN BKN003 M20/M24 A3039 RMK SF7 SLP299

CYQB;2010-12-10 10:50;CYQB 101050Z 00000KT 3/4SM R06/P6000FT/N BR OVC004 M17/ RMK FG6SF2

CYQB;2010-12-10 11:00;CYQB 101100Z 28002KT 3/4SM R06/P6000FT/N BR OVC004 M17/M20 A3040 RMK FG4SF4 SLP303

CYQB;2010-12-10 11:26;CYQB 101126Z 00000KT 3/4SM R06/P6000FT/N -SN BR OVC005 M17/ RMK FG6SF2

CYQB;2010-12-10 12:00;CYQB 101200Z 00000KT 5/8SM R06/P6000FT/N -SN BR SKC M17/M20 A3041 RMK FG7 SLP306

CYQB;2010-12-10 12:21;CYQB 101221Z 29002KT 1/4SM R06/P6000FT/D IC FZFG SKC M18/ RMK FG7

CYQB;2010-12-10 12:34;CYQB 101234Z 00000KT 1 1/2SM IC BR BKN009 M18/ RMK FG6SF1

CYQB;2010-12-10 13:00;CYQB 101300Z 36002KT 1 1/2SM IC BR FEW002 OVC006 M17/M20 A3042 RMK SF2SF5 SLP308

CYQB;2010-12-10 13:20;CYQB 101320Z 34003KT 1 1/2SM IC BR FEW002 OVC004 M16/ RMK SF2SF5

CYQB;2010-12-10 13:36;CYQB 101336Z 35005KT 5/8SM R06/P6000FT/N -SN BR BKN004 M17/ RMK FG6SF1

CYQB;2010-12-10 14:00;CYQB 101400Z 33003KT 1 1/2SM -SN BR OVC002 M16/M18 A3041 RMK FG2SF5 SLP307

CYQB;2010-12-10 14:15;CYQB 101415Z 33003KT 3/4SM R06/4000VP6000FT/D -SN BR BKN002 M16/ RMK FG2SF4 VIS N 15 VIS E-S 11/4

CYQB;2010-12-10 14:37;CYQB 101437Z 35002KT 8SM SCT002 BKN008 M16/ RMK IC1SF2SF2 VIS SW 11/2

CYQB;2010-12-10 15:00;CYQB 101500Z 03002KT 8SM FEW012 BKN220 M15/M17 A3041 RMK SC2CI0 SLP307

CYQB;2010-12-10 15:39;CYQB 101539Z 00000KT 15SM FEW012 FEW170 BKN220 M14/ RMK SC1AC2CI1

CYQB;2010-12-10 16:00;CYQB 101600Z 00000KT 15SM FEW025 BKN170 BKN240 M14/M15 A3039 RMK SC1AC4CI0 SLP300

CYQB;2010-12-10 17:00;CYQB 101700Z 34003KT 15SM FEW030 BKN170 BKN240 M13/M15 A3037 RMK SC1AC5CI1 SLP293

CYQB;2010-12-10 18:00;CYQB 101800Z 06003KT 15SM FEW030 BKN160 OVC220 M12/M16 A3033 RMK SC1AC5CS1 SLP278

CYQB;2010-12-10 19:00;CYQB 101900Z 07004KT 15SM FEW030 BKN130 OVC220 M11/M16 A3032 RMK SC2AC5CS2 SLP273

CYQB;2010-12-10 20:00;CYQB 102000Z 08005KT 15SM FEW020 BKN120 OVC220 M11/M17 A3030 RMK SC1AC5CS3 SLP269

CYQB;2010-12-10 21:00;CYQB 102100Z 04005KT 10SM BKN090 OVC220 M11/M16 A3029 RMK AC6CS2 SH ALQDS SLP264

CYQB;2010-12-10 22:00;CYQB 102200Z 06007KT 10SM BKN086 OVC220 M10/M15 A3028 RMK AC6CS2 SLP259

CYQB;2010-12-10 23:00;CYQB 102300Z 05006KT 15SM BKN090 OVC220 M10/M14 A3026 RMK AC7CS1 SLP253

CYQB;2010-12-11 00:00;CYQB 110000Z 06004KT 15SM FEW060 BKN083 BKN220 M10/M13 A3024 RMK SC2AC3CS2 SLP246

CYQB;2010-12-11 01:00;CYQB 110100Z 36003KT 15SM FEW030 BKN060 OVC090 M10/M14 A3022 RMK SC2SC3AC2 SLP239

CYQB;2010-12-11 02:00;CYQB 110200Z 02003KT 10SM -SN OVC030 M09/M12 A3020 RMK SC8 SLP233

CYQB;2010-12-11 03:00;CYQB 110300Z 09005KT 10SM -SN OVC036 M09/M11 A3018 RMK SC8 SLP226

CYQB;2010-12-11 03:42;CYQB 110342Z 10004KT 2SM -SN VV009 M09/ RMK SN8

CYQB;2010-12-11 04:00;CYQB 110400Z 09004KT 2SM -SN VV010 M09/M10 A3018 RMK SN8 SLP225

CYQB;2010-12-11 04:21;CYQB 110421Z 09003KT 3SM -SN OVC035 M09/ RMK SN3SC5

CYQB;2010-12-11 05:00;CYQB 110500Z 08004KT 4SM -SN OVC032 M09/M10 A3016 RMK SC8 SLP219

CYQB;2010-12-11 06:00;CYQB 110600Z 07004KT 4SM -SN OVC029 M08/M10 A3015 RMK SC8 SLP215

CYQB;2010-12-11 07:00;CYQB 110700Z 07003KT 4SM -SN BKN016 OVC025 M08/M09 A3014 RMK SC5SC3 SLP213

CYQB;2010-12-11 08:00;CYQB 110800Z 06003KT 4SM -SN OVC022 M08/M09 A3013 RMK SC8 SLP208

CYQB;2010-12-11 09:00;CYQB 110900Z 04004KT 6SM -SN OVC022 M08/M09 A3011 RMK SC8 SLP202

CYQB;2010-12-11 10:00;CYQB 111000Z 04004KT 6SM -SN OVC019 M08/M08 A3010 RMK SC8 SLP199

CYQB;2010-12-11 11:00;CYQB 111100Z 02004KT 1 1/4SM -SN OVC016 M07/M08 A3011 RMK SN3SC5 SLP200

CYQB;2010-12-11 12:00;CYQB 111200Z 01003KT 2SM -SN OVC015 M07/M08 A3010 RMK SN3SC5 SLP198

CYQB;2010-12-11 13:00;CYQB 111300Z 36003KT 3SM -SN OVC016 M07/M08 A3011 RMK SC8 SLP201

CYQB;2010-12-11 13:20;CYQB 111320Z 36003KT 1SM R06/P6000FT/D -SN OVC018 M07/ RMK SN3SC5

CYQB;2010-12-11 14:00;CYQB 111400Z 35003KT 1 1/2SM -SN OVC015 M07/M08 A3011 RMK SC8 VIS VRBL 11/4-13/4 SLP202

CYQB;2010-12-11 15:00;CYQB 111500Z 01002KT 1 3/4SM -SN OVC016 M06/M07 A3011 RMK SC8 VIS VRBL 11/2-2 SLP202

CYQB;2010-12-11 16:00;CYQB 111600Z 00000KT 1 3/4SM -SN OVC015 M05/M07 A3011 RMK SN3SC5 SLP201

CYQB;2010-12-11 17:00;CYQB 111700Z 00000KT 1 1/2SM -SN OVC013 M05/M06 A3011 RMK SN3SC5 SLP203

CYQB;2010-12-11 18:00;CYQB 111800Z 23006KT 2 1/2SM -SN BKN012 OVC050 M04/M06 A3011 RMK SN2SC6SC1 SLP203

CYQB;2010-12-11 18:43;CYQB 111843Z 24009KT 7SM SCT012 BKN051 M04/ RMK SC3SC4

CYQB;2010-12-11 19:00;CYQB 111900Z 24009KT 7SM SCT012 BKN051 M04/M05 A3013 RMK SC4SC3 SLP207

CYQB;2010-12-11 20:00;CYQB 112000Z 25010KT 10SM FEW012 FEW050 M04/M05 A3014 RMK SC1SC1 SLP211

CYQB;2010-12-11 21:00;CYQB 112100Z 23009KT 8SM FEW012 FEW050 M05/M06 A3017 RMK SC1SC1 SLP220

CYQB;2010-12-11 22:00;CYQB 112200Z 24008KT 8SM BKN034 M06/M06 A3019 RMK SC5 SLP230

CYQB;2010-12-11 23:00;CYQB 112300Z 25008KT 10SM FEW030 M06/M07 A3022 RMK SC2 SLP238

CYQB;2010-12-12 00:00;CYQB 120000Z 26003KT 6SM BR SCT002 SCT030 M07/M08 A3024 RMK SF3SC1 SLP244

CYQB;2010-12-12 00:12;CYQB 120012Z 34002KT 1 1/2SM BR BKN002 M07/ RMK SF7

CYQB;2010-12-12 00:40;CYQB 120040Z 31004KT 1/2SM R06/1200V1800FT/N FZFG VV002 M07/ RMK FG8

CYQB;2010-12-12 01:00;CYQB 120100Z 33003KT 1/4SM R06/1200FT/N FZFG VV001 M08/M08 A3025 RMK FG8 SLP247

CYQB;2010-12-12 01:17;CYQB 120117Z 27002KT 3SM R06/1100V1600FT/N BR SCT002 M09/ RMK SF3 PRFG OVR RWYS

CYQB;2010-12-12 02:00;CYQB 120200Z 03003KT 4SM R06/0800V1200FT/N BR FEW002 M10/M11 A3024 RMK SF2 SLP246

CYQB;2010-12-12 03:00;CYQB 120300Z 36002KT 8SM VCFG FEW002 M11/M11 A3025 RMK SF1 FZFG S-W SLP249

CYQB;2010-12-12 04:00;CYQB 120400Z 00000KT 8SM VCFG FEW030 M12/M14 A3027 RMK SC1 FZFG S-W SLP255

CYQB;2010-12-12 05:00;CYQB 120500Z 00000KT 6SM BR BKN036 M13/M14 A3028 RMK SC6 VIS 1 W-NW FZFG SLP258

CYQB;2010-12-12 06:00;CYQB 120600Z 01006KT 10SM BKN034 M10/M11 A3027 RMK SC6 SLP255

CYQB;2010-12-12 06:41;CYQB 120641Z 05004KT 1/8SM R06/P6000FT/N FZFG VV001 M09/ RMK FG8

CYQB;2010-12-12 07:00;CYQB 120700Z 01004KT 15SM BCFG FEW001 SCT035 M09/M09 A3027 RMK SF2SC2 SLP255

CYQB;2010-12-12 08:00;CYQB 120800Z 02004KT 15SM BKN035 M09/M10 A3025 RMK SC6 SLP250

CYQB;2010-12-12 09:00;CYQB 120900Z 06003KT 15SM BKN036 M08/M09 A3026 RMK SC6 SLP251

CYQB;2010-12-12 09:41;CYQB 120941Z 06007KT 15SM FEW007 BKN036 M07/ RMK SF2SC6

CYQB;2010-12-12 10:00;CYQB 121000Z 06006KT 15SM FEW005 OVC036 M07/M07 A3022 RMK SF2SC6 SLP239

CYQB;2010-12-12 10:09;CYQB 121009Z 07008KT 10SM -SN FEW005 FEW013 OVC036 M06/ RMK SF1SC2SC6

CYQB;2010-12-12 11:00;CYQB 121100Z 07013KT 10SM FEW005 SCT010 OVC035 M06/M07 A3021 RMK SF2SF2SC4 SLP236

CYQB;2010-12-12 11:50;CYQB 121150Z 07016G22KT 10SM -SN FEW005 FEW010 OVC034 M06/ RMK SF1SF2SC6

CYQB;2010-12-12 12:00;CYQB 121200Z 07016G22KT 10SM -SN FEW005 FEW010 OVC035 M06/M07 A3019 RMK SF1SF2SC6 SLP228

CYQB;2010-12-12 13:00;CYQB 121300Z 07019G25KT 10SM -SN DRSN FEW010 OVC035 M06/M08 A3018 RMK SF2SC6 VRY LGT SN SLP225

CYQB;2010-12-12 14:00;CYQB 121400Z 07017G22KT 10SM -SN DRSN FEW010 FEW035 OVC140 M05/M07 A3016 RMK SF1SC2AS6 INTMT -SN VRY LGT SN SLP219

CYQB;2010-12-12 15:00;CYQB 121500Z 05019G27KT 10SM -SN DRSN FEW010 FEW035 SCT080 OVC100 M05/M07 A3013 RMK SF1SC2AC2AS4 INTMT -SN SLP208

CYQB;2010-12-12 16:00;CYQB 121600Z 07025G32KT 10SM -SN DRSN FEW010 SCT035 OVC090 M05/M07 A3008 RMK SF2SC2AS4 INTMT -SN SLP190

CYQB;2010-12-12 17:00;CYQB 121700Z 07024G30KT 1 1/2SM -SN DRSN FEW007 FEW010 BKN040 OVC080 M04/M07 A3002 RMK SF2SF1SC3AS2 PRESFR VIS E 6 SLP172

CYQB;2010-12-12 17:12;CYQB 121712Z 07021G27KT 1SM R06/5500FT/D -SN DRSN BKN022 OVC045 M04/ RMK SN5SC2SC2 PRESFR

CYQB;2010-12-12 17:22;CYQB 121722Z 07018G27KT 3/4SM R06/4500FT/N -SN DRSN VV003 M05/ RMK SN8 PRESFR

CYQB;2010-12-12 17:31;CYQB 121731Z 07021G27KT 3/4SM R06/4000FT/N -SN DRSN VV006 M05/ RMK SN8 PRESFR

CYQB;2010-12-12 18:00;CYQB 121800Z 07020G30KT 1/2SM R06/3500FT/D SN DRSN VV005 M05/M06 A2997 RMK SN8 PRESFR SLP154

CYQB;2010-12-12 18:14;CYQB 121814Z 07026KT 3/8SM R06/3000FT/N SN BLSN VV003 M05/ RMK SN8

CYQB;2010-12-12 18:43;CYQB 121843Z 07017G30KT 1/8SM R06/2400FT/N SN +BLSN VV003 M04/ RMK SN8

CYQB;2010-12-12 19:00;CYQB 121900Z 08015G25KT 1/8SM R06/2400FT/N SN +BLSN VV002 M04/M05 A2990 RMK SN8 PRESFR SLP132

CYQB;2010-12-12 20:00;CYQB 122000Z 07024G31KT 1/8SM R06/3000FT/N SN +BLSN VV002 M04/M05 A2985 RMK SN8 SLP113

CYQB;2010-12-12 20:39;CYQB 122039Z 07023G33KT 1/2SM R06/5000FT/U SN BLSN VV004 M04/ RMK SN8

CYQB;2010-12-12 21:00;CYQB 122100Z 07022G32KT 3/8SM R06/3500V6000FT/D SN BLSN VV004 M04/M04 A2979 RMK SN8 /S04/ SLP094

CYQB;2010-12-12 22:00;CYQB 122200Z 07021G31KT 1/4SM R06/3500FT/N SN +BLSN VV003 M03/M04 A2976 RMK SN8 PRESFR /S04/ SLP082

CYQB;2010-12-12 22:42;CYQB 122242Z 07023G33KT 1/2SM R06/P6000FT/U -SN BLSN BKN006 OVC021 M03/ RESN REBLSN RMK SN2SF5SC2

CYQB;2010-12-12 23:00;CYQB 122300Z CCA 07021G31KT 3/4SM R06/P6000FT/U -PLSN BLSN BKN006 OVC023 M03/M03 A2970 RESN RMK SN1SF6NS2 REBLSN PRESFR /S10/ SLP062

CYQB;2010-12-12 23:30;CYQB 122330Z 07020G33KT 2SM R06/4500VP6000FT/D -PLSN BKN008 OVC021 RMK SF6SC2

CYQB;2010-12-12 23:52;CYQB 122352Z 07023G33KT 2SM -PL -FZRA BKN008 OVC023 RMK SF6NS2

CYQB;2010-12-12 23:55;CYQB 122355Z 07023G33KT 2SM -PL -FZRA BKN008 OVC023 M02/ RMK SF6NS2

CYQB;2010-12-13 00:00;CYQB 130000Z 07021G29KT 2SM -PL -FZRA BKN008 OVC020 M02/M03 A2964 RMK SF6SC2 SLP043

CYQB;2010-12-13 00:29;CYQB 130029Z 07024G33KT 4SM -PL -FZRA BKN007 OVC021 M01/ RMK SF6NS2

CYQB;2010-12-13 01:00;CYQB 130100Z 07024G33KT 10SM BKN006 OVC019 M01/M02 A2960 REFZRA RMK SF6NS2 SLP027

CYQB;2010-12-13 02:00;CYQB 130200Z 07023G31KT 15SM BKN007 OVC022 M00/M02 A2954 RMK SF5NS3 SLP008

CYQB;2010-12-13 02:34;CYQB 130234Z 07020G29KT 6SM -RA BR FEW007 OVC023 00/ RMK SF2NS6

CYQB;2010-12-13 03:00;CYQB 130300Z 07018G28KT 5SM -RA BR FEW007 OVC023 01/M01 A2949 RMK SF2NS6 PRESFR SLP989

CYQB;2010-12-13 04:00;CYQB 130400Z 07019G26KT 6SM -RA BR FEW006 OVC021 01/00 A2944 RMK SF2NS6 SLP974

CYQB;2010-12-13 04:30;CYQB 130430Z 07017G26KT 15SM FEW006 OVC024 01/ RMK SF2NS6

CYQB;2010-12-13 05:00;CYQB 130500Z 07019G25KT 8SM -RA FEW006 OVC022 02/01 A2939 RMK SF2NS6 SLP957

CYQB;2010-12-13 06:00;CYQB 130600Z 07019G25KT 6SM -RA BR FEW006 OVC020 03/02 A2933 RMK SF2NS6 PRESFR SLP934

CYQB;2010-12-13 07:00;CYQB 130700Z 07017G27KT 6SM -RA BR OVC019 03/02 A2929 RMK SC8 SLP921

CYQB;2010-12-13 08:00;CYQB 130800Z CCA 08019G31KT 15SM -RA OVC020 03/02 A2923 RMK SC8 PRESFR SLP901

CYQB;2010-12-13 08:37;CYQB 130837Z 07018G30KT 15SM OVC021 04/ RMK SC8

CYQB;2010-12-13 09:00;CYQB 130900Z 07018G26KT 15SM OVC021 04/02 A2918 RMK SC8 SLP885

CYQB;2010-12-13 10:00;CYQB 131000Z 08014G19KT 15SM OVC020 04/03 A2915 RMK SC8 SLP875

CYQB;2010-12-13 11:00;CYQB 131100Z 08013KT 10SM -RA OVC017 04/03 A2915 RMK SC8 SLP874

CYQB;2010-12-13 12:00;CYQB 131200Z 06016G22KT 15SM -RA OVC019 05/03 A2909 RMK SC8 PRESFR SLP853

CYQB;2010-12-13 13:00;CYQB 131300Z 08016KT 15SM OVC018 05/04 A2909 RMK SC8 SLP855

CYQB;2010-12-13 14:00;CYQB 131400Z CCA 13006KT 10SM -RA OVC015 06/04 A2912 RMK SC8 VIS N-W 2 SLP865

CYQB;2010-12-13 14:10;CYQB 131410Z 17005KT 1 1/2SM -RA BR OVC015 05/ RMK SC8

CYQB;2010-12-13 14:45;CYQB 131445Z 00000KT 1 1/2SM R06/2800FT/N -RA BR BKN007 OVC020 05/ RMK SF6SC2

CYQB;2010-12-13 15:00;CYQB 131500Z 00000KT 3/4SM R06/1400V2000FT/N -RA BR OVC007 04/04 A2914 RMK FG4SF4 VIS VRBL 1/4 11/4 SLP871

CYQB;2010-12-13 15:05;CYQB 131505Z 00000KT 1/2SM R06/1600FT/N -RA FG OVC003 04/ RMK FG4SF4 VIS VRBL 1/4 3/4

CYQB;2010-12-13 15:35;CYQB 131535Z 25008KT 3SM R06/3000VP6000FT/N -RA BR OVC003 04/ RMK SF8 VIS 3/4 W

CYQB;2010-12-13 16:00;CYQB 131600Z 22008KT 1 1/2SM -RA BR OVC004 04/04 A2915 RMK SF8 SLP875

CYQB;2010-12-13 16:24;CYQB 131624Z 24006KT 3/4SM R06/3500V5000FT/N -RA BR OVC004 04/ RMK SF8 /R01/

CYQB;2010-12-13 17:00;CYQB 131700Z 23008KT 1 1/2SM -RA BR OVC003 04/04 A2915 RMK SF8 SLP875

CYQB;2010-12-13 17:30;CYQB 131730Z 23008KT 1 1/2SM -RA BR SCT003 BKN007 OVC025 03/ RMK SF4SF2SC2

CYQB;2010-12-13 18:00;CYQB 131800Z 22007KT 2SM -RA BR SCT003 OVC007 04/03 A2917 RMK SF4SF4 SLP880

CYQB;2010-12-13 18:05;CYQB 131805Z 22008KT 1SM R06/P6000FT/D -RA BR BKN003 OVC008 04/ RMK SF6SF2

CYQB;2010-12-13 18:45;CYQB 131845Z 25007KT 2SM -RA BR SCT003 BKN010 OVC035 03/ RMK SF4SF2SC2

CYQB;2010-12-13 19:00;CYQB 131900Z 25006KT 2SM -RA BR FEW003 OVC010 03/02 A2918 RMK SF2SF6 SLP884

CYQB;2010-12-13 19:14;CYQB 131914Z 25002KT 1 1/2SM -RA BR SCT003 OVC007 02/ RMK SF4SF4

CYQB;2010-12-13 20:00;CYQB 132000Z CCA 24006KT 1 1/2SM -RA BR FEW002 SCT003 BKN007 OVC022 02/02 A2915 RMK SF2SF2SF2SC2 SLP875

CYQB;2010-12-13 21:00;CYQB 132100Z 23006KT 1 1/4SM -RA BR FEW002 BKN007 OVC015 02/02 A2919 RMK SF1SF6SC1 SLP886

CYQB;2010-12-13 22:00;CYQB 132200Z 24009KT 3SM BR FEW002 SCT005 OVC013 02/02 A2917 RMK SF1ST2SC5 SLP879

CYQB;2010-12-13 22:38;CYQB 132238Z 22008KT 1 1/4SM -RA BR BKN002 OVC013 02/ RMK SF7SC1

CYQB;2010-12-13 23:00;CYQB 132300Z 22008KT 1 1/2SM -RA BR OVC002 01/01 A2920 RMK SF8 SLP890

CYQB;2010-12-14 00:00;CYQB 140000Z 24007KT 4SM -RA BR BKN002 OVC008 01/01 A2914 RMK SF7SF1 PRESFR SLP869

CYQB;2010-12-14 00:39;CYQB 140039Z 22008KT 4SM BR BKN003 OVC008 01/ RMK SF7SF1

CYQB;2010-12-14 01:00;CYQB 140100Z 21007KT 4SM BR OVC003 01/01 A2915 RMK SF8 SLP875

CYQB;2010-12-14 01:30;CYQB 140130Z 22005KT 4SM -RA BR SCT002 OVC003 01/ RMK SF4SF4

CYQB;2010-12-14 02:00;CYQB 140200Z 18003KT 4SM -RA BR FEW002 OVC003 01/00 A2913 RMK SF2SF6 SLP866

CYQB;2010-12-14 03:00;CYQB 140300Z 22010KT 5SM -FZRA BR OVC005 M00/M00 A2913 RMK SF8 SLP867

CYQB;2010-12-14 04:00;CYQB 140400Z 23005KT 5SM -FZRA BR BKN006 OVC009 M02/M02 A2904 RMK SF7SC1 PRESFR SLP837

CYQB;2010-12-14 04:23;CYQB 140423Z 21009KT 5SM BR OVC007 M02/ REFZRA RMK ST8

CYQB;2010-12-14 05:00;CYQB 140500Z 22017KT 5SM BR BKN007 OVC010 M02/M03 A2908 REFZRA RMK SF6SC2 SLP849

CYQB;2010-12-14 05:24;CYQB 140524Z 23020G26KT 2SM -PL -FZRA OVC006 M03/ RMK SF8

CYQB;2010-12-14 05:47;CYQB 140547Z 23017G22KT 1 1/2SM -PLSN SCT006 BKN016 OVC028 M04/ REFZRA RMK SF4SC3SC1

CYQB;2010-12-14 06:00;CYQB 140600Z 22013G25KT 1SM R06/P6000FT/D -PLSN SCT008 BKN018 OVC026 M05/M06 A2910 REFZRA RMK SN2SF2SC4SC1 SLP856

CYQB;2010-12-14 06:34;CYQB 140634Z 23018KT 1 1/2SM -SNPL BR BKN008 OVC031 M05/ RMK SF6SC2

CYQB;2010-12-14 07:00;CYQB 140700Z 22015G22KT 1 1/2SM -SNPL BR BKN008 OVC031 M06/M07 A2913 RMK SF6SC2 SLP868

CYQB;2010-12-14 07:44;CYQB 140744Z 23012KT 1/2SM R06/3500V6000FT/U SNPL VV003 M06/ RMK SN8

CYQB;2010-12-14 08:00;CYQB 140800Z 22009KT 1/2SM R06/5500FT/D SNPL VV003 M07/M07 A2918 RMK SN8 SLP884

CYQB;2010-12-14 08:32;CYQB 140832Z 22010KT 5SM -SN BKN011 OVC035 M07/ RESN RMK SC7SC1

CYQB;2010-12-14 09:00;CYQB 140900Z 21011KT 15SM BKN011 OVC035 M07/M09 A2920 RESN RMK SC6SC2 SLP891

CYQB;2010-12-14 10:00;CYQB 141000Z 22009KT 6SM -SN OVC012 M07/M09 A2921 RMK SC8 SLP894

CYQB;2010-12-14 11:00;CYQB 141100Z 22010KT 2SM -SN BKN014 OVC027 M08/M09 A2925 RMK SN2SC5SC2 SLP909

CYQB;2010-12-14 11:33;CYQB 141133Z 22008KT 1SM R06/P6000FT/D -SN VV008 M08/ RMK SN8

CYQB;2010-12-14 11:48;CYQB 141148Z 21009KT 3SM -SN OVC038 M08/ RMK SN1SC7

CYQB;2010-12-14 12:00;CYQB 141200Z 22010KT 4SM -SN FEW015 OVC038 M08/M10 A2928 RMK SC1SC7 SLP919

CYQB;2010-12-14 12:22;CYQB 141222Z 23010KT 8SM FEW012 OVC038 M08/ RMK SC2SC6

CYQB;2010-12-14 13:00;CYQB 141300Z 24007KT 10SM -SN SCT015 OVC030 M08/M10 A2931 RMK SC3SC5 SLP931

CYQB;2010-12-14 13:40;CYQB 141340Z 26008KT 4SM -SN OVC013 M08/ RMK SC8

CYQB;2010-12-14 14:00;CYQB 141400Z 25008KT 5SM -SN BKN013 OVC036 M08/M10 A2932 RMK SC6SC2 SLP934

CYQB;2010-12-14 15:00;CYQB 141500Z 24007KT 6SM -SN BKN019 OVC035 M08/M10 A2934 RMK SC5SC3 SLP941

CYQB;2010-12-14 16:00;CYQB 141600Z 26007KT 10SM -SN FEW018 OVC036 M08/M10 A2936 RMK SC2SC6 SLP948

CYQB;2010-12-14 17:00;CYQB 141700Z 22011KT 4SM -SN FEW014 OVC029 M08/M11 A2941 RMK SN1SC2SC6 SLP962

CYQB;2010-12-14 18:00;CYQB 141800Z 21008KT 4SM -SN FEW015 SCT025 OVC045 M08/M10 A2943 RMK SC2SC2SC5 VIS LWR NE-SE SLP971

CYQB;2010-12-14 18:34;CYQB 141834Z 21007KT 8SM FEW015 OVC043 M09/ RMK SC2SC6

CYQB;2010-12-14 19:00;CYQB 141900Z CCA 21010KT 10SM -SN FEW017 OVC040 M09/M11 A2945 RMK SC2SC6 VCSH SLP977

CYQB;2010-12-14 20:00;CYQB 142000Z 22008KT 10SM FEW018 OVC042 M09/M12 A2948 RMK SC2SC6 SLP989

CYQB;2010-12-14 20:23;CYQB 142023Z 22006KT 8SM -SN SCT018 OVC043 M09/ RMK SC3SC5

CYQB;2010-12-14 21:00;CYQB 142100Z 21008KT 6SM -SN FEW018 BKN024 OVC045 M09/M12 A2953 RMK SC2SC4SC2 VIS LWR NE QUAD SLP005

CYQB;2010-12-14 21:44;CYQB 142144Z 25012G17KT 15SM FEW020 BKN044 M09/ RMK SC2SC6

CYQB;2010-12-14 22:00;CYQB 142200Z 23010G15KT 15SM FEW020 BKN044 M09/M14 A2956 RMK SC2SC6 SLP015

CYQB;2010-12-14 23:00;CYQB 142300Z 26004KT 15SM BKN041 BKN049 M10/M13 A2960 RMK SC5SC2 SLP027

CYQB;2010-12-15 00:00;CYQB 150000Z 26008KT 15SM SCT041 BKN049 M10/M13 A2959 RMK SC3SC4 SLP027

CYQB;2010-12-15 01:00;CYQB 150100Z 25011KT 15SM FEW030 BKN045 M10/M13 A2962 RMK SC2SC6 SLP035

CYQB;2010-12-15 01:32;CYQB 150132Z 25009KT 10SM -SN FEW030 OVC044 M11/ RMK SC2SC6

CYQB;2010-12-15 02:00;CYQB 150200Z 25009KT 10SM -SN FEW030 OVC043 M11/M13 A2960 RMK SC2SC6 SLP028

CYQB;2010-12-15 03:00;CYQB 150300Z 25008KT 10SM FEW009 OVC042 M11/M13 A2959 RMK SF2SC6 SLP026

CYQB;2010-12-15 04:00;CYQB 150400Z 25012KT 10SM FEW009 OVC040 M11/M13 A2959 RMK SF1SC7 SLP026

CYQB;2010-12-15 05:00;CYQB 150500Z 26010G15KT 10SM FEW008 OVC037 M11/M13 A2955 RMK SF2SC6 SLP011

CYQB;2010-12-15 06:00;CYQB 150600Z 24010KT 10SM FEW010 BKN038 M12/M14 A2956 RMK SC1SC6 SLP017

CYQB;2010-12-15 07:00;CYQB 150700Z 22015KT 10SM BKN037 M13/M14 A2957 RMK SC7 SLP018

CYQB;2010-12-15 08:00;CYQB 150800Z 22016KT 10SM OVC035 M13/M14 A2953 RMK SC8 SLP004

CYQB;2010-12-15 09:00;CYQB 150900Z 25017G22KT 10SM OVC033 M12/M14 A2949 RMK SC8 SLP991

CYQB;2010-12-15 10:00;CYQB 151000Z 24018KT 10SM OVC035 M12/M14 A2947 RMK SC8 SLP985

CYQB;2010-12-15 10:42;CYQB 151042Z 25018KT 4SM -SN SCT013 OVC030 M12/ RMK SF3SC5

CYQB;2010-12-15 11:00;CYQB 151100Z 25016G22KT 1 1/2SM -SN BKN013 OVC030 M12/M13 A2945 RMK SF6SC2 SLP977

CYQB;2010-12-15 11:15;CYQB 151115Z 24017KT 1SM R06/P6000FT/D -SN VV008 M11/ RMK SN8

CYQB;2010-12-15 12:00;CYQB 151200Z 24017KT 3/4SM R06/P6000FT/D -SN VV008 M11/M13 A2944 RMK SN8 /S01/ SLP974

CYQB;2010-12-15 12:13;CYQB 151213Z 24017KT 1/2SM R06/P6000FT/D -SN BLSN VV006 M11/ RMK SN8

CYQB;2010-12-15 12:31;CYQB 151231Z 24020KT 3/4SM R06/P6000FT/N -SN BLSN VV007 M11/ RMK SN8

CYQB;2010-12-15 12:50;CYQB 151250Z 24020KT 1SM R06/P6000FT/U -SN BLSN VV011 RMK SN8

CYQB;2010-12-15 13:00;CYQB 151300Z 24018KT 3/4SM R06/P6000FT/U -SN BLSN VV006 M11/M13 A2943 RMK SN8 /S02/ SLP971

CYQB;2010-12-15 14:00;CYQB 151400Z 24018KT 1SM R06/5000FT/U -SN BLSN VV013 M11/M13 A2942 RMK SN8 /S03/ SLP967

CYQB;2010-12-15 14:18;CYQB 151418Z 24019KT 1 1/2SM -SN BLSN VV012 M11/ RMK SN8

CYQB;2010-12-15 14:49;CYQB 151449Z 24020KT 1SM R06/P6000FT/D -SN BLSN VV011 M11/ RMK SN8

CYQB;2010-12-15 15:00;CYQB 151500Z 25020KT 1SM R06/P6000FT/U -SN BLSN VV011 M11/M13 A2941 RMK SN8 SLP966

CYQB;2010-12-15 15:40;CYQB 151540Z 25017G24KT 5SM -SN BLSN OVC040 M11/ RMK SC8

CYQB;2010-12-15 16:00;CYQB 151600Z 24020G25KT 2 1/2SM -SN BLSN OVC039 M11/M13 A2942 RMK SC8 SLP968

CYQB;2010-12-15 16:27;CYQB 151627Z 24020KT 1 1/2SM -SN BLSN OVC029 M12/ RMK SN6SC2

CYQB;2010-12-15 17:00;CYQB 151700Z 25018G24KT 5SM -SN BLSN FEW029 OVC040 M12/M13 A2946 RMK SC2SC6 /S05/ SLP982

CYQB;2010-12-15 17:31;CYQB 151731Z 24019KT 1 1/2SM -SN VV009 M12/ RMK SN8

CYQB;2010-12-15 17:52;CYQB 151752Z 25019G24KT 1SM R06/5500FT/N -SN VV007 M12/ RMK SN8

CYQB;2010-12-15 18:00;CYQB 151800Z 24019KT 1SM R06/P6000FT/U -SN VV009 M12/M13 A2948 RMK SN8 SLP987

CYQB;2010-12-15 18:29;CYQB 151829Z 24017KT 2 1/2SM -SN OVC022 M12/ RMK SN1SC7

CYQB;2010-12-15 19:00;CYQB 151900Z 24016G22KT 2SM -SN OVC015 M12/M14 A2948 RMK SN1SC7 SLP990

CYQB;2010-12-15 19:17;CYQB 151917Z 24015KT 1SM R06/P6000FT/N -SN VV009 M12/ RMK SN8

CYQB;2010-12-15 19:37;CYQB 151937Z 24012KT 2SM -SN OVC020 M12/ RMK SC8

CYQB;2010-12-15 20:00;CYQB 152000Z 22012KT 1 3/4SM -SN OVC011 M12/M14 A2952 RMK SN1SC7 /S01/ SLP002

CYQB;2010-12-15 20:18;CYQB 152018Z 23013KT 3SM -SN FEW020 BKN049 OVC240 M12/ RMK SN1SC2SC4CS0

CYQB;2010-12-15 21:00;CYQB 152100Z 23010KT 10SM -SN FEW030 FEW050 M13/M14 A2955 RMK SC1SC2 SLP011

CYQB;2010-12-15 21:23;CYQB 152123Z 24010KT 15SM FEW030 M13/ RMK SC2

CYQB;2010-12-15 22:00;CYQB 152200Z CCA 25008KT 15SM FEW030 M14/M15 A2957 RMK SC1 SLP018

CYQB;2010-12-15 23:00;CYQB 152300Z 27006KT 10SM FEW010 BKN024 M12/M14 A2958 RMK SF1SC7 SLP021

CYQB;2010-12-16 00:00;CYQB 160000Z 23003KT 10SM -SN OVC024 M13/M14 A2959 RMK SC8 VIS SE-W 2 SLP025

CYQB;2010-12-16 00:42;CYQB 160042Z 25006KT 2SM -SN VV006 M13/ RMK SN8 VIS VRB 2-4

CYQB;2010-12-16 01:00;CYQB 160100Z 24004KT 3SM -SN VV008 M13/M14 A2960 RMK SN8 CIG VRB 6-10 VIS VRB 2-4 /S01/ SLP029

CYQB;2010-12-16 01:47;CYQB 160147Z 25004KT 4SM -SN OVC028 M13/ RMK SC8 VIS VRB 3-6

CYQB;2010-12-16 02:00;CYQB 160200Z 23004KT 4SM -SN OVC025 M13/M14 A2961 RMK SC8 VIS VRB 3-6 /S02/ SLP034

CYQB;2010-12-16 03:00;CYQB 160300Z 22002KT 4SM -SN OVC027 M13/M14 A2961 RMK SC8 SLP035

CYQB;2010-12-16 04:00;CYQB 160400Z 22004KT 6SM -SN BKN029 OVC057 M13/M14 A2961 RMK SC6SC2 SLP033

CYQB;2010-12-16 05:00;CYQB 160500Z 29002KT 6SM -SN BKN029 OVC061 M13/M14 A2961 RMK SC6SC2 SLP032

CYQB;2010-12-16 06:00;CYQB 160600Z 01002KT 4SM -SN SCT029 OVC065 M13/M15 A2961 RMK SC4SC4 SLP033

CYQB;2010-12-16 07:00;CYQB 160700Z 03002KT 4SM -SN SCT015 OVC064 M14/M15 A2962 RMK SC3SC5 SLP037

CYQB;2010-12-16 08:00;CYQB 160800Z 01003KT 3SM -SN BKN015 OVC064 M14/M16 A2963 RMK SC5SC3 VIUS VRBL 1-5 SLP040

CYQB;2010-12-16 09:00;CYQB 160900Z 00000KT 3SM -SN OVC020 M15/M16 A2964 RMK SC8 VIS VRBL 1-5 SLP043

CYQB;2010-12-16 10:00;CYQB 161000Z 04002KT 3SM -SN OVC019 M15/M17 A2966 RMK SC8 VIS VRBL 1-5 SLP050

CYQB;2010-12-16 11:00;CYQB 161100Z 02006KT 5SM -SN SCT020 OVC064 M16/M18 A2967 RMK SC4SC4 SLP055

CYQB;2010-12-16 12:00;CYQB 161200Z 04002KT 30SM FEW020 BKN073 M15/M17 A2967 RMK SC2AC5 SLP055

CYQB;2010-12-16 12:36;CYQB 161236Z 00000KT 30SM FEW010 SCT070 M17/ RMK SC1AC4

CYQB;2010-12-16 13:00;CYQB 161300Z 00000KT 30SM -SN FEW010 SCT070 M17/M18 A2967 RMK SC1AC3 SLP055

CYQB;2010-12-16 14:00;CYQB 161400Z CCA 04002KT 30SM -SN BKN012 M15/M17 A2970 RMK SC6 VIS W 5 SLP062

CYQB;2010-12-16 15:00;CYQB 161500Z 02003KT 8SM SCT011 M14/M16 A2970 RMK SC3 SLP065

CYQB;2010-12-16 16:00;CYQB 161600Z 00000KT 8SM FEW011 BKN075 M12/M14 A2972 RMK SC2AC3 SLP069

CYQB;2010-12-16 17:00;CYQB 161700Z 00000KT 8SM FEW014 BKN076 M11/M13 A2972 RMK SC2AC4 SLP072

CYQB;2010-12-16 19:00;CYQB 161900Z 00000KT 15SM FEW012 BKN081 M10/M13 A2973 RMK SC1AC6 SLP075

CYQB;2010-12-16 19:12;CYQB 161912Z 31002KT 8SM -SN FEW012 BKN050 BKN081 M10/ RMK SC1SC5AC2

CYQB;2010-12-16 20:00;CYQB 162000Z 30002KT 3SM -SN FEW012 SCT030 BKN050 M11/M13 A2975 RMK SN2SF1SC2SC2 SLP080

CYQB;2010-12-16 20:40;CYQB 162040Z 00000KT 7SM FEW015 FEW030 SCT050 BKN160 M11/ RMK SC1SC1SC2AC2

CYQB;2010-12-16 21:00;CYQB 162100Z 00000KT 8SM FEW015 FEW040 BKN200 M11/M13 A2977 RMK SC1SC2CI2 SLP086

CYQB;2010-12-16 22:00;CYQB 162200Z 00000KT 8SM FEW015 FEW040 SCT080 SCT230 M13/M13 A2978 RMK SC1SC1AC2CI1 SLP092

CYQB;2010-12-16 23:00;CYQB 162300Z CCA 35003KT 10SM FEW015 FEW030 BKN095 M14/M15 A2979 RMK SC1SC1AC6 SLP093

CYQB;2010-12-17 00:00;CYQB 170000Z 01004KT 10SM FEW015 FEW035 BKN100 M12/M14 A2980 RMK SC1SC1AC6 SLP098

CYQB;2010-12-17 00:34;CYQB 170034Z 35003KT 8SM -SN FEW015 FEW035 BKN100 BKN170 M12/ RMK SC1SC2AC2AC1

CYQB;2010-12-17 01:00;CYQB 170100Z 36004KT 8SM -SN FEW015 BKN110 BKN160 M13/M14 A2979 RMK SC1AC5AC1 SLP094

CYQB;2010-12-17 02:00;CYQB 170200Z 01004KT 8SM -SN FEW020 BKN110 M13/M15 A2978 RMK SC2AC6 VIS SW 4 SLP090

CYQB;2010-12-17 03:00;CYQB 170300Z 01004KT 10SM -SN FEW020 BKN120 M13/M15 A2977 RMK SC1AC6 SLP087

CYQB;2010-12-17 04:00;CYQB 170400Z 35004KT 10SM -SN FEW110 SCT120 BKN150 M13/M15 A2976 RMK AC1AC2AC4 SLP085

CYQB;2010-12-17 05:00;CYQB 170500Z 01005KT 10SM FEW110 BKN150 M13/M15 A2976 RMK AC1AC6 SLP083

CYQB;2010-12-17 06:00;CYQB 170600Z 02002KT 10SM SCT130 BKN150 M12/M15 A2976 RMK AC3AC4 SLP083

CYQB;2010-12-17 07:00;CYQB 170700Z 01004KT 10SM SCT130 BKN150 M13/M15 A2976 RMK AC3AC3 SLP085

CYQB;2010-12-17 08:00;CYQB 170800Z 34003KT 10SM SCT130 BKN150 M16/M17 A2976 RMK AC3AC2 SLP083

CYQB;2010-12-17 09:00;CYQB 170900Z 33002KT 10SM FEW100 SCT150 M16/M17 A2975 RMK AC2AC2 SLP082

CYQB;2010-12-17 10:00;CYQB 171000Z 00000KT 10SM FEW080 M16/M19 A2975 RMK AC2 SLP081

CYQB;2010-12-17 11:00;CYQB 171100Z 00000KT 15SM SCT080 BKN150 BKN200 M17/M18 A2975 RMK AC3AC2CI1 SLP082

CYQB;2010-12-17 12:00;CYQB 171200Z 00000KT 30SM FEW030 FEW075 BKN120 BKN150 M17/M19 A2976 RMK SC1AC1AC6AC1 SLP084

CYQB;2010-12-17 13:00;CYQB 171300Z 26003KT 25SM FEW008 FEW075 BKN110 M18/M24 A2978 RMK SF1AC2AC4 SLP090

CYQB;2010-12-17 14:00;CYQB 171400Z 23011KT 15SM FEW010 BKN110 M15/M18 A2979 RMK SF1AC3 SLP095

CYQB;2010-12-17 15:00;CYQB 171500Z 23011KT 25SM FEW110 M13/M17 A2981 RMK AC2 SLP101

CYQB;2010-12-17 16:00;CYQB 171600Z 23011KT 25SM FEW030 FEW110 M12/M16 A2982 RMK SC1AC1 SLP104

CYQB;2010-12-17 17:00;CYQB 171700Z 23012KT 15SM FEW030 FEW110 FEW250 M12/M14 A2982 RMK SC1AC1CI0 SLP105

CYQB;2010-12-17 18:00;CYQB 171800Z 25011KT 15SM FEW030 FEW110 FEW250 M11/M14 A2983 RMK SC1AC1CI0 SLP109

CYQB;2010-12-17 19:00;CYQB 171900Z 24011KT 6SM -SHSN SCT020 BKN070 BKN250 M10/M13 A2985 RMK SC3AC2CI0 SLP114

CYQB;2010-12-17 20:00;CYQB 172000Z 24009KT 6SM -SHSN FEW012 SCT021 BKN070 BKN250 M10/M13 A2988 RMK SF1SC2AC2CI0 SLP124

CYQB;2010-12-17 21:00;CYQB 172100Z 25008KT 5SM -SHSN FEW013 BKN022 BKN085 BKN250 M10/M13 A2990 RMK SF2SC3AC1CI1 SLP132

CYQB;2010-12-17 22:00;CYQB 172200Z 25006KT 6SM -SHSN FEW013 BKN021 BKN090 M11/M12 A2992 RMK SF2SC4AC2 SLP140

CYQB;2010-12-17 23:00;CYQB 172300Z 25004KT 8SM -SHSN FEW013 SCT021 BKN085 M12/M14 A2994 RMK SF1SC2AC2 SLP146

CYQB;2010-12-18 00:00;CYQB 180000Z 26002KT 10SM -SHSN FEW013 SCT020 BKN085 BKN210 M13/M14 A2997 RMK SF1SC2AC2CI1 SLP154

CYQB;2010-12-18 01:00;CYQB 180100Z 20002KT 10SM FEW013 FEW020 BKN042 BKN210 M13/M14 A2998 RMK SF1SC2SC2CI1 SLP158

CYQB;2010-12-18 02:00;CYQB 180200Z 27004KT 10SM FEW020 BKN052 BKN220 M14/M16 A2999 RMK SC2SC2CI1 SLP162

CYQB;2010-12-18 03:00;CYQB 180300Z 25003KT 10SM FEW020 SCT050 SCT220 M13/M15 A3000 RMK SC2SC1CI0 SLP166

CYQB;2010-12-18 04:00;CYQB 180400Z 00000KT 10SM FEW010 FEW050 FEW180 M14/M15 A3001 RMK SC1SC1AC1 SLP169

CYQB;2010-12-18 05:00;CYQB 180500Z 28003KT 10SM FEW012 FEW160 FEW180 M16/M18 A3001 RMK SC1AC1AC1 SLP169

CYQB;2010-12-18 06:00;CYQB 180600Z 26003KT 10SM FEW012 BKN150 M16/M19 A3002 RMK SC1AC5 SLP171

CYQB;2010-12-18 07:00;CYQB 180700Z 23002KT 10SM BKN150 M15/M18 A3003 RMK AC7 SLP174

CYQB;2010-12-18 08:00;CYQB 180800Z 00000KT 15SM BKN150 M15/M18 A3003 RMK AC6 SLP177

CYQB;2010-12-18 09:00;CYQB 180900Z 00000KT 10SM BKN130 M14/M17 A3004 RMK AC7 SLP180

CYQB;2010-12-18 10:00;CYQB 181000Z 01003KT 10SM BKN080 OVC130 M13/M15 A3004 RMK AC5AC3 SLP180

CYQB;2010-12-18 11:00;CYQB 181100Z 04004KT 10SM FEW036 BKN080 OVC130 M12/M14 A3005 RMK SC2AC4AC2 SLP182

CYQB;2010-12-18 12:00;CYQB 181200Z 36002KT 6SM -SN BKN030 OVC080 M12/M17 A3006 RMK SC5AC3 SLP184

CYQB;2010-12-18 13:00;CYQB 181300Z 01003KT 6SM -SN BKN023 OVC080 M11/M13 A3007 RMK SC6AC2 SLP188

CYQB;2010-12-18 13:37;CYQB 181337Z 04004KT 3SM -SN BR OVC021 M11/ RMK SC8

CYQB;2010-12-18 14:00;CYQB 181400Z 06002KT 2 1/2SM -SN BR OVC019 M10/M12 A3007 RMK SC8 SLP188

CYQB;2010-12-18 15:00;CYQB 181500Z 03002KT 3SM -SN BR OVC023 M10/M11 A3008 RMK SC8 SLP191

CYQB;2010-12-18 16:00;CYQB 181600Z 02002KT 4SM -SN BR OVC021 M09/M11 A3006 RMK SC8 SLP186

CYQB;2010-12-18 17:00;CYQB 181700Z 00000KT 6SM BR OVC016 M08/M10 A3005 RMK SC8 SLP182

CYQB;2010-12-18 17:43;CYQB 181743Z 00000KT 8SM OVC011 M07/ RMK SC8

CYQB;2010-12-18 18:00;CYQB 181800Z 00000KT 10SM OVC010 M07/M10 A3004 RMK SC8 SLP180

CYQB;2010-12-18 19:00;CYQB 181900Z 00000KT 10SM OVC011 M06/M09 A3004 RMK SC8 SLP179

CYQB;2010-12-18 20:00;CYQB 182000Z 00000KT 10SM OVC013 M06/M09 A3005 RMK SC8 SLP183

CYQB;2010-12-18 21:00;CYQB 182100Z 27002KT 10SM OVC014 M06/M09 A3006 RMK SC8 SLP186

CYQB;2010-12-18 22:00;CYQB 182200Z 15002KT 10SM OVC022 M06/M08 A3007 RMK SC8 SLP189

CYQB;2010-12-18 23:00;CYQB 182300Z 31002KT 10SM BKN019 M07/M08 A3008 RMK SC7 SLP194

CYQB;2010-12-19 00:00;CYQB 190000Z 35002KT 10SM FEW015 BKN031 M06/M08 A3008 RMK SF1SC6 SLP192

CYQB;2010-12-19 01:00;CYQB 190100Z 18002KT 10SM BKN014 OVC030 M06/M08 A3008 RMK SC7SC1 SLP192

CYQB;2010-12-19 02:00;CYQB 190200Z 00000KT 10SM BKN012 OVC023 M06/M08 A3008 RMK SC7SC1 SLP192

CYQB;2010-12-19 03:00;CYQB 190300Z 28003KT 10SM BKN012 OVC019 M08/M09 A3008 RMK SC5SC3 SLP193

CYQB;2010-12-19 04:00;CYQB 190400Z 00000KT 10SM SCT012 OVC017 M07/M08 A3009 RMK SC4SC4 SLP194

CYQB;2010-12-19 05:00;CYQB 190500Z 32002KT 10SM OVC016 M08/M08 A3009 RMK SC8 SLP195

CYQB;2010-12-19 06:00;CYQB 190600Z 00000KT 10SM OVC015 M07/M08 A3010 RMK SC8 SLP197

CYQB;2010-12-19 07:00;CYQB 190700Z 25004KT 10SM BKN015 M09/M10 A3011 RMK SC7 SLP202

CYQB;2010-12-19 08:00;CYQB 190800Z 32002KT 10SM BKN015 M10/M10 A3011 RMK SC5 SLP202

CYQB;2010-12-19 09:00;CYQB 190900Z 36002KT 10SM FEW015 M12/M13 A3011 RMK SC1 SLP201

CYQB;2010-12-19 10:00;CYQB 191000Z 00000KT 15SM SKC M12/M13 A3011 RMK SLP202

CYQB;2010-12-19 11:00;CYQB 191100Z 02002KT 15SM SKC M12/M14 A3012 RMK SLP204

CYQB;2010-12-19 12:00;CYQB 191200Z 00000KT 12SM FEW030 M13/M14 A3012 RMK SC1 SLP206

CYQB;2010-12-19 13:00;CYQB 191300Z 35004KT 8SM FEW023 M13/M14 A3012 RMK SC2 SLP206

CYQB;2010-12-19 14:00;CYQB 191400Z 00000KT 15SM FEW020 M11/M12 A3011 RMK SC2 SLP202

CYQB;2010-12-19 15:00;CYQB 191500Z 17002KT 10SM BKN009 BKN020 M09/M11 A3012 RMK SF4SC2 SLP204

CYQB;2010-12-19 16:00;CYQB 191600Z 25009KT 6SM BR BKN009 BKN020 M06/M07 A3010 RMK SF6SC1 SLP198

CYQB;2010-12-19 17:00;CYQB 191700Z 25009KT 10SM FEW009 FEW020 M06/M08 A3008 RMK SF1SC2 SLP191

CYQB;2010-12-19 18:00;CYQB 191800Z 24010KT 15SM FEW012 FEW025 M05/M07 A3007 RMK SF1SC1 SLP187

CYQB;2010-12-19 18:21;CYQB 191821Z 24012KT 8SM SCT008 SCT025 M06/ RMK SF3SC1

CYQB;2010-12-19 18:45;CYQB 191845Z 24012KT 8SM BKN008 BKN025 M06/ RMK SF5SC1

CYQB;2010-12-19 19:00;CYQB 191900Z 24011KT 8SM BKN008 BKN025 M06/M07 A3005 RMK SF5SC1 SLP181

CYQB;2010-12-19 19:23;CYQB 191923Z 24009KT 10SM SCT007 SCT025 M06/ RMK SF4SC1

CYQB;2010-12-19 20:00;CYQB 192000Z 23012KT 8SM BKN007 BKN025 M06/M07 A3004 RMK SF5SC1 SLP178

CYQB;2010-12-19 21:00;CYQB 192100Z 23010KT 8SM BKN006 BKN025 M07/M08 A3003 RMK SF5SC1 SLP175

CYQB;2010-12-19 22:00;CYQB 192200Z 24012KT 10SM BKN008 BKN035 M07/M08 A3003 RMK SF5SC2 SLP174

CYQB;2010-12-19 23:00;CYQB 192300Z 23006KT 10SM BKN008 BKN032 M07/M08 A3002 RMK SF5SC2 SLP172

CYQB;2010-12-19 23:23;CYQB 192323Z 24009KT 12SM SCT008 BKN032 M08/ RMK SF4SC2

CYQB;2010-12-20 00:00;CYQB 200000Z 23008KT 12SM SCT008 BKN031 M08/M09 A3002 RMK SF3SC4 SLP171

CYQB;2010-12-20 01:00;CYQB 200100Z 24006KT 12SM FEW008 BKN031 M09/M10 A3002 RMK SF1SC4 SLP171

CYQB;2010-12-20 02:00;CYQB 200200Z 27006KT 15SM BKN030 M09/M10 A3001 RMK SC6 SLP167

CYQB;2010-12-20 03:00;CYQB 200300Z 26004KT 15SM OVC029 M09/M10 A3000 RMK SC8 SLP164

CYQB;2010-12-20 04:00;CYQB 200400Z 33002KT 15SM OVC027 M09/M11 A2999 RMK SC8 SLP160

CYQB;2010-12-20 05:00;CYQB 200500Z 36003KT 15SM SCT025 M10/M11 A2997 RMK SC3 SLP154

CYQB;2010-12-20 06:00;CYQB 200600Z 00000KT 15SM FEW025 M12/M13 A2997 RMK SC1 SLP154

CYQB;2010-12-20 07:00;CYQB 200700Z 00000KT 10SM FEW007 BKN025 M13/M15 A2998 RMK SF2SC0 SLP159

CYQB;2010-12-20 07:19;CYQB 200719Z 01003KT 10SM BKN004 BKN025 M11/ RMK SF5SC0

CYQB;2010-12-20 08:00;CYQB 200800Z 01003KT 5SM BR OVC004 M11/M12 A2999 RMK ST8 SLP161

CYQB;2010-12-20 09:00;CYQB 200900Z 36003KT 3SM BR OVC004 M10/M12 A2998 RMK ST8 SLP158

CYQB;2010-12-20 10:00;CYQB 201000Z 35002KT 3SM BR OVC004 M10/M10 A2997 RMK ST8 SLP154

CYQB;2010-12-20 11:00;CYQB 201100Z 00000KT 5SM -SN BR BKN004 OVC012 M10/M11 A2997 RMK SF5SC3 SLP156

CYQB;2010-12-20 12:00;CYQB 201200Z 02004KT 5SM -SN OVC008 M10/M11 A2998 RMK SF8 SLP159

CYQB;2010-12-20 12:14;CYQB 201214Z CCA 36003KT 4SM -SN BR OVC006 M10/ RMK ST8

CYQB;2010-12-20 13:00;CYQB 201300Z 36004KT 4SM -SN BR OVC007 M10/M11 A3000 RMK ST8 SLP164

CYQB;2010-12-20 14:00;CYQB 201400Z 35005KT 4SM -SN BR BKN007 OVC011 M09/M10 A3001 RMK SF5SC3 SLP169

CYQB;2010-12-20 15:00;CYQB 201500Z 36006KT 8SM -SN SCT011 OVC019 M09/M11 A3002 RMK SC3SC5 SLP171

CYQB;2010-12-20 15:42;CYQB 201542Z 36005KT 15SM SCT020 BKN250 M09/ RMK SC3CI2

CYQB;2010-12-20 15:58;CYQB 201558Z 36005KT 15SM FEW020 SCT250 RMK SC2CI0

CYQB;2010-12-20 16:00;CYQB 201600Z 36005KT 15SM FEW020 SCT250 M09/M11 A2999 RMK SC2CI0 SLP160

CYQB;2010-12-20 17:00;CYQB 201700Z 00000KT 15SM FEW010 BKN240 M07/M10 A2997 RMK SF1CI1 SLP153

CYQB;2010-12-20 18:00;CYQB 201800Z 26005KT 15SM FEW015 BKN230 M08/M10 A2995 RMK SC1CI2 SLP148

CYQB;2010-12-20 19:00;CYQB 201900Z 23004KT 15SM FEW020 BKN120 BKN230 M07/M10 A2995 RMK SC1AC5CI0 SLP149

CYQB;2010-12-20 20:00;CYQB 202000Z 20004KT 10SM FEW020 BKN120 BKN230 M07/M09 A2997 RMK SC1AC6CI1 SLP154

CYQB;2010-12-20 21:00;CYQB 202100Z 23002KT 10SM FEW020 BKN120 BKN230 M08/M10 A2997 RMK SC1AC6CI1 SLP155

CYQB;2010-12-20 22:00;CYQB 202200Z 26002KT 10SM FEW020 BKN120 M08/M09 A2998 RMK SC1AC6 SLP159

CYQB;2010-12-20 23:00;CYQB 202300Z 28003KT 10SM FEW020 BKN120 M08/M09 A2998 RMK SC1AC5 SLP158

CYQB;2010-12-21 00:00;CYQB 210000Z 26002KT 10SM BKN033 BKN120 M08/M09 A2997 RMK SC5AC2 SLP154

CYQB;2010-12-21 01:00;CYQB 210100Z 24002KT 10SM BKN030 M08/M09 A2995 RMK SC6 SLP148

CYQB;2010-12-21 02:00;CYQB 210200Z 26006KT 10SM OVC027 M07/M09 A2994 RMK SC8 SLP143

CYQB;2010-12-21 03:00;CYQB 210300Z 23007KT 10SM OVC026 M07/M09 A2993 RMK SC8 SLP142

CYQB;2010-12-21 04:00;CYQB 210400Z 25004KT 10SM OVC021 M07/M09 A2991 RMK SC7 SLP135

CYQB;2010-12-21 05:00;CYQB 210500Z 18002KT 10SM OVC020 M06/M08 A2991 RMK SC8 SLP134

CYQB;2010-12-21 06:00;CYQB 210600Z 00000KT 10SM BKN022 OVC038 M06/M08 A2990 RMK SC6SC2 SLP130

CYQB;2010-12-21 07:00;CYQB 210700Z 00000KT 10SM BKN020 OVC045 M05/M07 A2991 RMK SC6SC2 SLP132

CYQB;2010-12-21 08:00;CYQB 210800Z 00000KT 6SM -SN OVC036 M05/M07 A2989 RMK SC8 SLP128

CYQB;2010-12-21 09:00;CYQB 210900Z 27003KT 3SM -SN OVC020 M05/M06 A2989 RMK SC8 SLP125

CYQB;2010-12-21 09:39;CYQB 210939Z 18002KT 1 1/2SM -SN OVC020 M04/ RMK SC8

CYQB;2010-12-21 10:00;CYQB 211000Z 19002KT 6SM -SN OVC024 M04/M05 A2989 RMK SC8 SLP128

CYQB;2010-12-21 11:00;CYQB 211100Z 00000KT 12SM OVC017 M04/M05 A2991 RMK SC8 SLP132

CYQB;2010-12-21 12:00;CYQB 211200Z 00000KT 12SM SCT015 OVC020 M04/M05 A2991 RMK SC3SC5 SLP134

CYQB;2010-12-21 13:00;CYQB 211300Z 24003KT 12SM OVC025 M03/M04 A2992 RMK SC8 SLP137

CYQB;2010-12-21 14:00;CYQB 211400Z 28003KT 15SM FEW020 OVC040 M03/M04 A2993 RMK SC1SC7 SLP139

CYQB;2010-12-21 15:00;CYQB 211500Z 25005KT 15SM OVC040 M03/M04 A2993 RMK SC8 SLP141

CYQB;2010-12-21 16:00;CYQB 211600Z 24006KT 15SM BKN040 BKN110 M01/M04 A2992 RMK SC6AC1 SLP136

CYQB;2010-12-21 17:00;CYQB 211700Z 26004KT 15SM SCT040 OVC170 M01/M03 A2989 RMK SC4AC4 SLP128

CYQB;2010-12-21 18:00;CYQB 211800Z 23004KT 15SM BKN040 BKN170 00/M03 A2989 RMK SC6AC1 SLP126

CYQB;2010-12-21 19:00;CYQB 211900Z 22004KT 15SM BKN040 BKN150 00/M03 A2989 RMK SC6AC1 SLP127

CYQB;2010-12-21 20:00;CYQB 212000Z 24004KT 15SM BKN040 BKN150 00/M02 A2990 RMK SC6AC1 SLP130

CYQB;2010-12-21 21:00;CYQB 212100Z 26005KT 15SM FEW030 BKN038 BKN150 00/M02 A2991 RMK SC1SC6AC1 SLP133

CYQB;2010-12-21 22:00;CYQB 212200Z 25003KT 15SM FEW030 BKN041 BKN160 M00/M02 A2992 RMK SC1SC5AC2 SLP134

CYQB;2010-12-21 23:00;CYQB 212300Z 26004KT 15SM OVC038 M01/M02 A2992 RMK SC8 SLP134

CYQB;2010-12-22 00:00;CYQB 220000Z 26004KT 15SM OVC035 00/M02 A2992 RMK SC8 SLP137

CYQB;2010-12-22 01:00;CYQB 220100Z 27004KT 15SM OVC033 M01/M02 A2992 RMK SC8 SLP136

CYQB;2010-12-22 02:00;CYQB 220200Z 28002KT 15SM OVC039 M01/M02 A2991 RMK SC8 SLP132

CYQB;2010-12-22 03:00;CYQB 220300Z 00000KT 15SM OVC043 M01/M02 A2990 RMK SC8 SLP130

CYQB;2010-12-22 04:00;CYQB 220400Z 00000KT 15SM BKN043 OVC150 M01/M03 A2989 RMK SC5AC3 SLP127

CYQB;2010-12-22 05:00;CYQB 220500Z 36005KT 15SM SCT043 OVC130 00/M03 A2987 RMK SC4AC4 SLP119

CYQB;2010-12-22 06:00;CYQB 220600Z 02005KT 15SM -SN OVC043 01/M04 A2986 RMK SC8 SLP116

CYQB;2010-12-22 07:00;CYQB 220700Z 03005KT 3SM -SN VV015 00/M02 A2987 RMK SN8 SLP120

CYQB;2010-12-22 08:00;CYQB 220800Z 34003KT 2 1/2SM -SN VV020 M01/M01 A2986 RMK SN8 SLP114

CYQB;2010-12-22 08:34;CYQB 220834Z 00000KT 4SM -SN VV028 M00/ RMK SN8

CYQB;2010-12-22 09:00;CYQB 220900Z 00000KT 4SM -SN VV035 M01/M02 A2984 RMK SN8 SLP109

CYQB;2010-12-22 10:00;CYQB 221000Z 00000KT 4SM -SN VV030 M01/M02 A2984 RMK SN8 SLP108

CYQB;2010-12-22 11:00;CYQB 221100Z CCA 00000KT 5SM -SN OVC055 M01/M02 A2983 RMK SN6SC2 SLP107

CYQB;2010-12-22 12:00;CYQB 221200Z 24004KT 4SM -SN OVC028 M01/M02 A2983 RMK SN7SC1 SLP105

CYQB;2010-12-22 13:00;CYQB 221300Z 25002KT 3SM -SN OVC035 M02/M02 A2983 RMK SN6SC2 SLP105

CYQB;2010-12-22 14:00;CYQB 221400Z 27004KT 5SM -SN OVC035 M01/M02 A2983 RMK SN4SC4 /S01/ SLP104

CYQB;2010-12-22 15:00;CYQB 221500Z 25004KT 10SM -SN FEW035 SCT060 OVC260 M01/M02 A2982 RMK SC2SC2CI4 SLP101

CYQB;2010-12-22 15:49;CYQB 221549Z 27002KT 3SM -SN VV014 M01/ RMK SN8

CYQB;2010-12-22 16:00;CYQB 221600Z 28002KT 2 1/2SM -SN VV014 M00/M02 A2980 RMK SN8 SLP096

CYQB;2010-12-22 17:00;CYQB 221700Z 00000KT 3SM -SN OVC028 00/M01 A2977 RMK SN5SC3 SLP086

CYQB;2010-12-22 18:00;CYQB 221800Z 00000KT 2SM -SN BR VV027 00/M04 A2976 RMK SN8 SLP082

CYQB;2010-12-22 18:46;CYQB 221846Z 00000KT 1 1/2SM -SN BR SCT005 OVC013 00/ RMK SN3SF1SC4

CYQB;2010-12-22 19:00;CYQB 221900Z 00000KT 1 1/2SM -SN BR BKN005 OVC014 00/M01 A2976 RMK SN4SF2SC2 SLP081

CYQB;2010-12-22 19:37;CYQB 221937Z 00000KT 1SM R06/P6000FT/U -SN BR OVC005 00/ RMK SN6SF2

CYQB;2010-12-22 20:00;CYQB 222000Z 00000KT 1SM R06/P6000FT/U -SN BR OVC002 M00/M01 A2977 RMK SN6SF2 SLP083

CYQB;2010-12-22 20:18;CYQB 222018Z 00000KT 1SM R06/P6000FT/U -SN BR OVC008 M00/ RMK SN6SF2

CYQB;2010-12-22 21:00;CYQB 222100Z 26003KT 1 1/4SM -SN BR SCT002 OVC008 M01/M01 A2977 RMK SN3SF1SF4 SLP086

CYQB;2010-12-22 21:19;CYQB 222119Z 27003KT 2SM -SN BR BKN012 OVC031 M01/ RMK SN2SF6SC1

CYQB;2010-12-22 22:00;CYQB 222200Z 27003KT 2SM -SN BR FEW002 OVC012 M01/M01 A2978 RMK SN2SF1SF6 SLP087

CYQB;2010-12-22 22:23;CYQB 222223Z 24003KT 3SM -SN FEW002 OVC020 M01/ RMK SN2SF1SC6

CYQB;2010-12-22 23:00;CYQB 222300Z 26002KT 3SM -SN BR FEW006 OVC020 M01/M01 A2978 RMK SN2SF1SC6 SLP087

CYQB;2010-12-23 00:00;CYQB 230000Z 35005KT 5SM -SN BR FEW006 OVC050 M00/M02 A2977 RMK SF2SC6 SLP085

CYQB;2010-12-23 01:00;CYQB 230100Z 01004KT 10SM -SN FEW006 OVC028 00/M04 A2977 RMK SF2SC6 VIS S 5 SLP084

CYQB;2010-12-23 02:00;CYQB 230200Z 36003KT 10SM -SN OVC029 M00/M04 A2977 RMK SC8 SLP084

CYQB;2010-12-23 03:00;CYQB 230300Z 36002KT 10SM OVC046 M01/M04 A2976 RMK SC8 SLP082

CYQB;2010-12-23 04:00;CYQB 230400Z 00000KT 10SM OVC039 M01/M03 A2976 RMK SC8 SLP083

CYQB;2010-12-23 05:00;CYQB 230500Z 14002KT 10SM -SN OVC031 M01/M03 A2977 RMK SC8 SLP084

CYQB;2010-12-23 06:00;CYQB 230600Z 00000KT 10SM -SN OVC022 M01/M03 A2977 RMK SC8 SLP084

CYQB;2010-12-23 07:00;CYQB 230700Z 36002KT 10SM -SN OVC021 M01/M03 A2978 RMK SC8 SLP088

CYQB;2010-12-23 07:36;CYQB 230736Z 35002KT 3SM -SN OVC013 M01/ RMK SC8

CYQB;2010-12-23 08:00;CYQB 230800Z 35004KT 3SM -SN OVC011 M01/M03 A2979 RMK SC8 SLP092

CYQB;2010-12-23 08:36;CYQB 230836Z 34004KT 3SM -SN OVC009 M02/ RMK SC8

CYQB;2010-12-23 09:00;CYQB 230900Z 34003KT 3SM -SN OVC009 M02/M02 A2979 RMK SC8 SLP093

CYQB;2010-12-23 09:51;CYQB 230951Z 00000KT 15SM -SN SCT020 BKN100 M02/ RMK SC3AC3

CYQB;2010-12-23 10:00;CYQB 231000Z 00000KT 15SM -SN SCT020 BKN100 M02/M03 A2980 RMK SC3AC3 SLP096

CYQB;2010-12-23 11:00;CYQB 231100Z 28003KT 15SM SCT020 BKN110 M03/M05 A2981 RMK SC3SC3 SLP099

CYQB;2010-12-23 12:00;CYQB 231200Z 26003KT 15SM SCT020 BKN080 M03/M04 A2982 RMK SC3SC3 SLP101

CYQB;2010-12-23 13:00;CYQB 231300Z 26004KT 15SM FEW020 SCT040 BKN083 M03/M04 A2983 RMK SC2SC2AC3 SLP107

CYQB;2010-12-23 14:00;CYQB 231400Z 13002KT 15SM FEW020 FEW040 BKN080 M03/M04 A2986 RMK SC2SC1AC4 SLP115

CYQB;2010-12-23 15:00;CYQB 231500Z 24002KT 15SM FEW020 SCT080 BKN160 M03/M04 A2988 RMK SC1AC2AC2 SLP122

CYQB;2010-12-23 16:00;CYQB 231600Z 25003KT 20SM FEW020 SCT080 BKN160 M03/M04 A2988 RMK SC1AC2AC2 SLP122

CYQB;2010-12-23 17:00;CYQB 231700Z 23005KT 20SM FEW030 SCT150 BKN200 00/M03 A2988 RMK SC2AC2CI3 SLP121

CYQB;2010-12-23 18:00;CYQB 231800Z 21006KT 30SM FEW030 BKN200 M01/M04 A2988 RMK SC2CI2 SLP122

CYQB;2010-12-23 19:00;CYQB 231900Z 18004KT 30SM FEW030 BKN200 M00/M04 A2988 RMK SC2CI2 SLP123

CYQB;2010-12-23 20:00;CYQB 232000Z 12006KT 30SM BKN020 BKN200 M01/M03 A2990 RMK SC6CI1 SLP130

CYQB;2010-12-23 21:00;CYQB 232100Z 08003KT 15SM BKN019 M01/M04 A2993 RMK SC7 SLP138

CYQB;2010-12-23 22:00;CYQB 232200Z 09003KT 15SM BKN019 M02/M04 A2995 RMK SC7 SLP145

CYQB;2010-12-23 23:00;CYQB 232300Z 00000KT 15SM BKN019 M02/M04 A2997 RMK SC6 SLP152

CYQB;2010-12-24 00:00;CYQB 240000Z 31006KT 15SM SCT025 M04/M08 A2998 RMK SC4 SLP157

CYQB;2010-12-24 01:00;CYQB 240100Z 32007KT 15SM SCT025 M06/M11 A2998 RMK SC3 SLP158

CYQB;2010-12-24 02:00;CYQB 240200Z 32008KT 15SM FEW025 M07/M12 A2999 RMK SC2 SLP159

CYQB;2010-12-24 03:00;CYQB 240300Z 32004KT 15SM FEW025 M07/M12 A2999 RMK SC1 SLP159

CYQB;2010-12-24 04:00;CYQB 240400Z 28003KT 15SM FEW025 M09/M13 A2999 RMK SC1 SLP159

CYQB;2010-12-24 05:00;CYQB 240500Z 00000KT 15SM SKC M11/M13 A2999 RMK SLP160

CYQB;2010-12-24 06:00;CYQB 240600Z 00000KT 15SM SKC M12/M14 A3000 RMK OBS TAKEN +15 SLP162

CYQB;2010-12-24 07:00;CYQB 240700Z 00000KT 15SM SKC M13/M13 A3000 RMK SLP165

CYQB;2010-12-24 08:00;CYQB 240800Z 00000KT 15SM SKC M13/M15 A3001 RMK SLP167

CYQB;2010-12-24 09:00;CYQB 240900Z 00000KT 15SM SKC M13/M14 A3001 RMK SLP169

CYQB;2010-12-24 10:00;CYQB 241000Z 00000KT 15SM FEW025 FEW210 M13/M14 A3002 RMK SF1CI1 SLP170

CYQB;2010-12-24 11:00;CYQB 241100Z 00000KT 15SM FEW210 M13/M14 A3003 RMK CI1 SLP176

CYQB;2010-12-24 12:00;CYQB 241200Z 00000KT 15SM FEW210 M13/M15 A3005 RMK CI1 SLP181

CYQB;2010-12-24 13:00;CYQB 241300Z 00000KT 30SM FEW020 FEW180 M13/M14 A3006 RMK SC1AC2 SLP186

CYQB;2010-12-24 13:05;CYQB 241305Z 00000KT 30SM FEW005 SCT180 M13/ RMK SF2AC1

CYQB;2010-12-24 13:45;CYQB 241345Z 00000KT 30SM SCT005 SCT200 M13/ RMK SF2CI0

CYQB;2010-12-24 14:00;CYQB 241400Z 00000KT 30SM FEW005 FEW200 M13/M14 A3007 RMK SF1CI0 SLP188

CYQB;2010-12-24 15:00;CYQB 241500Z 00000KT 30SM FEW200 M09/M10 A3007 RMK CI1 SLP189

CYQB;2010-12-24 16:00;CYQB 241600Z 00000KT 30SM FEW200 M08/M10 A3006 RMK CI1 SLP184

CYQB;2010-12-24 17:00;CYQB 241700Z 23010KT 30SM FEW200 M07/M10 A3004 RMK CI2 SLP177

CYQB;2010-12-24 18:00;CYQB 241800Z 23012G17KT 30SM FEW025 FEW220 M06/M10 A3003 RMK SC1CI0 CONTRAILS SLP173

CYQB;2010-12-24 19:00;CYQB 241900Z 23016KT 30SM FEW025 SCT200 BKN240 M06/M10 A3003 RMK SC1CI0CC0 SLP173

CYQB;2010-12-24 20:00;CYQB 242000Z 23012KT 30SM FEW025 BKN220 M05/M10 A3003 RMK SC1CI0 SLP175

CYQB;2010-12-24 21:00;CYQB 242100Z 22009KT 30SM FEW025 BKN220 M06/M10 A3004 RMK SC1CI0 SLP177

CYQB;2010-12-24 22:00;CYQB 242200Z 23008KT 15SM FEW220 M06/M10 A3004 RMK CI0 SLP178

CYQB;2010-12-24 23:00;CYQB 242300Z 00000KT 15SM FEW230 M08/M11 A3004 RMK CI0 SLP177

CYQB;2010-12-25 00:00;CYQB 250000Z 00000KT 15SM SKC M09/M12 A3003 RMK SLP176

CYQB;2010-12-25 01:00;CYQB 250100Z 00000KT 15SM SKC M10/M12 A3004 RMK SLP179

CYQB;2010-12-25 02:00;CYQB 250200Z 02003KT 15SM SKC M09/M11 A3005 RMK SLP182

CYQB;2010-12-25 03:00;CYQB 250300Z 33002KT 15SM FEW250 M10/M12 A3005 RMK CI1 SLP182

CYQB;2010-12-25 04:00;CYQB 250400Z 00000KT 15SM FEW210 M12/M16 A3005 RMK CI1 SLP182

CYQB;2010-12-25 05:00;CYQB 250500Z 00000KT 15SM FEW210 M10/M14 A3005 RMK CI1 MERRY CHRISTMAS SLP180

CYQB;2010-12-25 06:00;CYQB 250600Z 00000KT 15SM SKC M12/M14 A3005 RMK SLP181

CYQB;2010-12-25 07:00;CYQB 250700Z 00000KT 15SM SKC M14/M15 A3006 RMK SLP184

CYQB;2010-12-25 08:00;CYQB 250800Z 00000KT 15SM FEW030 M15/M17 A3006 RMK SC1 SLP184

CYQB;2010-12-25 09:00;CYQB 250900Z 00000KT 15SM FEW030 M14/M16 A3005 RMK SC1 SLP182

CYQB;2010-12-25 10:00;CYQB 251000Z 00000KT 15SM FEW030 M15/M16 A3005 RMK SC1 SLP180

CYQB;2010-12-25 11:00;CYQB 251100Z 00000KT 15SM SKC M16/M19 A3005 RMK SLP180

CYQB;2010-12-25 12:00;CYQB 251200Z 00000KT 25SM FEW200 M15/M18 A3006 RMK CI0 SLP187

CYQB;2010-12-25 13:00;CYQB 251300Z 00000KT 25SM SCT200 M15/M16 A3007 RMK CI0 SLP188

CYQB;2010-12-25 14:00;CYQB 251400Z 00000KT 25SM FEW020 BKN200 M13/M15 A3008 RMK SC1CI0 SLP191

CYQB;2010-12-25 15:00;CYQB 251500Z 00000KT 25SM FEW020 BKN200 M11/M14 A3008 RMK SC1CI0 SLP194

CYQB;2010-12-25 16:00;CYQB 251600Z 00000KT 15SM FEW020 BKN200 M10/M12 A3007 RMK SC1CI0 SLP189

CYQB;2010-12-25 17:00;CYQB 251700Z 00000KT 25SM BKN200 M09/M12 A3004 RMK CI1 SLP180

CYQB;2010-12-25 18:00;CYQB 251800Z 19006KT 25SM FEW080 BKN200 M08/M12 A3003 RMK AC1CI1 SLP175

CYQB;2010-12-25 19:00;CYQB 251900Z 24007KT 25SM FEW100 BKN220 M07/M12 A3003 RMK AC1CI2 SLP176

CYQB;2010-12-25 20:00;CYQB 252000Z 23005KT 25SM BKN220 M07/M12 A3004 RMK CI2 SLP177

CYQB;2010-12-25 21:00;CYQB 252100Z 00000KT 15SM BKN200 M08/M13 A3005 RMK CI3 SLP183

CYQB;2010-12-25 22:00;CYQB 252200Z 00000KT 15SM BKN200 M11/M13 A3006 RMK CI2 SLP185

CYQB;2010-12-25 23:00;CYQB 252300Z 00000KT 15SM FEW200 M12/M13 A3007 RMK CI0 SLP188

CYQB;2010-12-26 00:00;CYQB 260000Z 00000KT 15SM FEW200 M11/M13 A3008 RMK CI0 SLP194

CYQB;2010-12-26 01:00;CYQB 260100Z 00000KT 15SM BKN200 M12/M14 A3009 RMK CI1 SLP197

CYQB;2010-12-26 02:00;CYQB 260200Z 00000KT 15SM BKN210 M13/M15 A3009 RMK CI2 SLP196

CYQB;2010-12-26 03:00;CYQB 260300Z 00000KT 15SM FEW160 BKN210 M13/M14 A3009 RMK AC1CI2 SLP197

CYQB;2010-12-26 04:00;CYQB 260400Z 00000KT 15SM SCT018 BKN150 BKN210 M13/M15 A3010 RMK SC4AC1CI0 SLP199

CYQB;2010-12-26 05:00;CYQB 260500Z 00000KT 15SM BKN024 M14/M15 A3010 RMK SC7 SLP198

CYQB;2010-12-26 06:00;CYQB 260600Z 00000KT 15SM BKN022 M13/M14 A3010 RMK SC7 SLP199

CYQB;2010-12-26 06:09;CYQB 260609Z 00000KT 15SM -SN OVC022 M13/ RMK SC8

CYQB;2010-12-26 07:00;CYQB 260700Z 00000KT 15SM FEW022 FEW160 M15/M17 A3011 RMK SC2AS0 SLP204

CYQB;2010-12-26 08:00;CYQB 260800Z 00000KT 15SM FEW020 SCT180 M12/M16 A3011 RMK SC2AS0 SLP204

CYQB;2010-12-26 09:00;CYQB 260900Z 00000KT 15SM -SN BKN026 OVC160 M13/M16 A3012 RMK SC7AS1 SLP205

CYQB;2010-12-26 10:00;CYQB 261000Z 00000KT 15SM -SN OVC024 M12/M16 A3011 RMK SC8 SLP204

CYQB;2010-12-26 11:00;CYQB 261100Z 00000KT 15SM -SN OVC025 M12/M16 A3012 RMK SC8 SLP207

CYQB;2010-12-26 12:00;CYQB 261200Z 00000KT 15SM -SN OVC024 M12/M16 A3013 RMK SC8 SLP208

CYQB;2010-12-26 13:00;CYQB 261300Z 01005KT 15SM -SN OVC025 M12/M16 A3012 RMK SC8 SLP207

CYQB;2010-12-26 14:00;CYQB 261400Z 01003KT 15SM -SN OVC025 M12/M17 A3011 RMK SC8 SLP204

CYQB;2010-12-26 15:00;CYQB 261500Z 01003KT 15SM -SN OVC025 M11/M16 A3013 RMK SC8 SLP208

CYQB;2010-12-26 16:00;CYQB 261600Z 00000KT 30SM -SN OVC026 M09/M14 A3013 RMK SC8 SLP210

CYQB;2010-12-26 17:00;CYQB 261700Z 03002KT 30SM -SN OVC026 M08/M12 A3011 RMK SC8 SLP204

CYQB;2010-12-26 18:00;CYQB 261800Z 03005KT 30SM -SN OVC023 M07/M11 A3008 RMK SC8 SLP194

CYQB;2010-12-26 19:00;CYQB 261900Z 06002KT 30SM -SN OVC027 M07/M11 A3008 RMK SC8 SLP191

CYQB;2010-12-26 20:00;CYQB 262000Z 04004KT 30SM -SN BKN026 M07/M10 A3007 RMK SC6 SLP188

CYQB;2010-12-26 21:00;CYQB 262100Z 04002KT 30SM SCT027 BKN070 M07/M10 A3003 RMK SC3AC2 SLP176

CYQB;2010-12-26 22:00;CYQB 262200Z 00000KT 15SM FEW030 SCT070 M08/M10 A3004 RMK SC2AC2 SLP177

CYQB;2010-12-26 23:00;CYQB 262300Z 05004KT 15SM FEW030 SCT070 M09/M12 A3001 RMK SC2AC2 SLP169

CYQB;2010-12-27 00:00;CYQB 270000Z 04010G19KT 15SM BKN023 M07/M11 A3001 RMK SC7 SLP167

CYQB;2010-12-27 01:00;CYQB 270100Z 06006KT 15SM OVC021 M07/M11 A3000 RMK SC8 SLP164

CYQB;2010-12-27 02:00;CYQB 270200Z CCA 04008KT 15SM -SN OVC020 M07/M11 A2993 RMK SC8 PRESFR SLP141

CYQB;2010-12-27 03:00;CYQB 270300Z 01004KT 15SM OVC021 M08/M12 A2989 RMK SC8 SLP126

CYQB;2010-12-27 04:00;CYQB 270400Z 03005KT 15SM OVC020 M07/M10 A2986 RMK SC8 SLP116

CYQB;2010-12-27 05:00;CYQB 270500Z 36005KT 15SM OVC020 M08/M12 A2980 RMK SC8 SLP098

CYQB;2010-12-27 06:00;CYQB 270600Z 04009KT 15SM OVC020 M07/M11 A2975 RMK SC8 SLP081

CYQB;2010-12-27 07:00;CYQB 270700Z 36004KT 15SM OVC022 M08/M12 A2974 RMK SC8 SLP076

CYQB;2010-12-27 08:00;CYQB 270800Z 03008G19KT 15SM OVC025 M06/M10 A2970 RMK SC8 SLP064

CYQB;2010-12-27 09:00;CYQB 270900Z 36004KT 15SM BKN025 OVC170 M08/M12 A2966 RMK SC6AC2 SLP048

CYQB;2010-12-27 10:00;CYQB 271000Z 36003KT 15SM BKN025 OVC170 M08/M12 A2961 RMK SC7AC1 SLP033

CYQB;2010-12-27 11:00;CYQB 271100Z 35006KT 15SM OVC027 M07/M12 A2958 RMK SC8 SLP022

CYQB;2010-12-27 12:00;CYQB 271200Z 35007KT 15SM OVC033 M08/M13 A2955 RMK SC8 SLP012

CYQB;2010-12-27 13:00;CYQB 271300Z 36009G15KT 15SM BKN032 BKN080 M08/M14 A2952 RMK SC6AC2 SLP002

CYQB;2010-12-27 14:00;CYQB 271400Z 35010G15KT 15SM BKN037 BKN080 M08/M14 A2949 RMK SC6AC2 SLP991

CYQB;2010-12-27 15:00;CYQB 271500Z 36012G17KT 30SM BKN040 BKN080 M08/M14 A2946 RMK SC6AC2 SLP982

CYQB;2010-12-27 16:00;CYQB 271600Z 35009G16KT 30SM FEW030 BKN050 M07/M14 A2943 RMK SC2SC6 SLP972

CYQB;2010-12-27 17:00;CYQB 271700Z 36011KT 30SM FEW030 BKN050 BKN070 M06/M14 A2939 RMK SC2SC4AC2 SLP959

CYQB;2010-12-27 18:00;CYQB 271800Z 35013KT 30SM FEW030 SCT050 BKN085 M06/M14 A2937 RMK SC2SC2AC3 SHWRS E SLP950

CYQB;2010-12-27 19:00;CYQB 271900Z 36015G20KT 20SM SCT030 BKN041 BKN080 M06/M13 A2938 RMK SC3SC2AC2 SHWRS E SLP953

CYQB;2010-12-27 19:15;CYQB 271915Z 35014G20KT 15SM -SHSN BKN019 BKN030 M05/ RMK SC5SC2

CYQB;2010-12-27 20:00;CYQB 272000Z 36021G27KT 20SM -SHSN BKN027 BKN043 M06/M14 A2938 RMK SC6SC2 SLP955

CYQB;2010-12-27 20:13;CYQB 272013Z 35019G32KT 30SM FEW030 BKN049 M06/ RMK CF1SC6 SHWRS E

CYQB;2010-12-27 21:00;CYQB 272100Z 35016G25KT 30SM FEW030 BKN058 M07/M15 A2941 RMK CF1SC6 SLP965

CYQB;2010-12-27 22:00;CYQB 272200Z 33017KT 15SM FEW050 BKN080 M09/M15 A2943 RMK SC2AC6 SLP972

CYQB;2010-12-27 23:00;CYQB 272300Z 33011G18KT 15SM BKN055 M09/M16 A2945 RMK SC6 SLP978

CYQB;2010-12-28 00:00;CYQB 280000Z 33010G16KT 15SM SCT055 M08/M16 A2947 RMK SC3 SLP983

CYQB;2010-12-28 01:00;CYQB 280100Z 35012G20KT 15SM SCT080 M09/M16 A2945 RMK AC3 SLP978

CYQB;2010-12-28 02:00;CYQB 280200Z 34011G24KT 15SM FEW080 FEW200 M09/M16 A2945 RMK AC1CI1 SLP979

CYQB;2010-12-28 03:00;CYQB 280300Z 36008KT 15SM FEW080 M10/M17 A2947 RMK AC1 SLP984

CYQB;2010-12-28 04:00;CYQB 280400Z 33005KT 15SM SKC M10/M17 A2948 RMK SLP986

CYQB;2010-12-28 05:00;CYQB 280500Z 33007KT 15SM SKC M11/M18 A2946 RMK SLP982

CYQB;2010-12-28 06:00;CYQB 280600Z 30010KT 15SM SKC M11/M20 A2947 RMK SLP984

CYQB;2010-12-28 07:00;CYQB 280700Z 31004KT 15SM SKC M11/M20 A2948 RMK SLP988

CYQB;2010-12-28 08:00;CYQB 280800Z 32008KT 15SM SKC M11/M19 A2948 RMK SLP988

CYQB;2010-12-28 09:00;CYQB 280900Z 32012G17KT 15SM SKC M11/M18 A2947 RMK SLP984

CYQB;2010-12-28 10:00;CYQB 281000Z 31012G17KT 15SM SKC M11/M19 A2948 RMK SLP989

CYQB;2010-12-28 11:00;CYQB 281100Z 32008KT 15SM SKC M11/M19 A2950 RMK SLP993

CYQB;2010-12-28 12:00;CYQB 281200Z 32009KT 15SM FEW030 M11/M19 A2951 RMK SC1 SLP999

CYQB;2010-12-28 13:00;CYQB 281300Z 31007KT 20SM FEW030 M11/M19 A2953 RMK SC1 SLP004

CYQB;2010-12-28 14:00;CYQB 281400Z 31009KT 20SM FEW030 M10/M18 A2955 RMK SC1 SLP011

CYQB;2010-12-28 15:00;CYQB 281500Z 32012KT 20SM FEW030 M09/M18 A2954 RMK SC1 SLP010

CYQB;2010-12-28 16:00;CYQB 281600Z 30011KT 20SM FEW030 M08/M16 A2954 RMK SC1 SLP008

CYQB;2010-12-28 17:00;CYQB 281700Z 32015G20KT 20SM FEW030 M07/M16 A2953 RMK SC1 SLP004

CYQB;2010-12-28 18:00;CYQB 281800Z 30012G20KT 20SM FEW230 M06/M16 A2954 RMK CI1 SLP007

CYQB;2010-12-28 19:00;CYQB 281900Z 29014KT 20SM FEW230 M05/M14 A2955 RMK CI1 SLP010

CYQB;2010-12-28 20:00;CYQB 282000Z 29012G19KT 30SM FEW025 FEW230 M06/M15 A2958 RMK CF1CI1 SLP020

CYQB;2010-12-28 21:00;CYQB 282100Z 32007KT 30SM FEW025 FEW230 M06/M15 A2960 RMK CF1CI1 SLP029

CYQB;2010-12-28 22:00;CYQB 282200Z 30006KT 20SM SKC M08/M15 A2963 RMK SLP040

CYQB;2010-12-28 23:00;CYQB 282300Z 27006KT 20SM SKC M09/M15 A2966 RMK SLP048

CYQB;2010-12-29 00:00;CYQB 290000Z 30006KT 20SM SKC M09/M15 A2968 RMK SLP055

CYQB;2010-12-29 01:00;CYQB 290100Z 28006KT 20SM SKC M12/M16 A2969 RMK SLP059

CYQB;2010-12-29 02:00;CYQB 290200Z 28012KT 20SM SKC M10/M15 A2972 RMK SLP068

CYQB;2010-12-29 03:00;CYQB 290300Z 30014KT 15SM SKC M10/M15 A2972 RMK SLP070

CYQB;2010-12-29 04:00;CYQB 290400Z 33011G17KT 15SM SKC M09/M15 A2973 RMK SLP072

CYQB;2010-12-29 05:00;CYQB 290500Z 29006KT 15SM SKC M09/M15 A2975 RMK SLP079

CYQB;2010-12-29 06:00;CYQB 290600Z 27009KT 15SM FEW220 M12/M16 A2976 RMK CI1 SLP083

CYQB;2010-12-29 07:00;CYQB 290700Z 26009KT 15SM SKC M12/M15 A2978 RMK SLP090

CYQB;2010-12-29 08:00;CYQB 290800Z 25005KT 15SM SCT170 M13/M16 A2979 RMK AS2 SLP094

CYQB;2010-12-29 09:00;CYQB 290900Z 24009KT 15SM FEW170 M12/M16 A2981 RMK AS1 SLP099

CYQB;2010-12-29 10:00;CYQB 291000Z 26005KT 15SM FEW210 M12/M17 A2981 RMK CI1 SLP102

CYQB;2010-12-29 11:00;CYQB 291100Z 25009KT 15SM FEW200 M13/M16 A2983 RMK CI1 SLP109

CYQB;2010-12-29 12:00;CYQB 291200Z 26012KT 15SM FEW180 M12/M15 A2984 RMK CI2 SLP110

CYQB;2010-12-29 13:00;CYQB 291300Z 28010KT 20SM FEW140 BKN180 M12/M16 A2986 RMK AC2CI2 SLP116

CYQB;2010-12-29 14:00;CYQB 291400Z 22010KT 20SM FEW140 BKN180 M12/M15 A2989 RMK AC2CI2 SLP128

CYQB;2010-12-29 15:00;CYQB 291500Z 24009KT 20SM FEW140 SCT180 M09/M14 A2991 RMK AC2CI2 SLP133

CYQB;2010-12-29 16:00;CYQB 291600Z 23007KT 20SM FEW140 SCT180 M08/M14 A2990 RMK AC2CI2 SLP130

CYQB;2010-12-29 17:00;CYQB 291700Z 22008KT 20SM FEW140 FEW180 M07/M13 A2989 RMK AC2CI1 SLP126

CYQB;2010-12-29 18:00;CYQB 291800Z 22011KT 20SM FEW140 M06/M13 A2988 RMK AC2 SLP123

CYQB;2010-12-29 19:00;CYQB 291900Z 22011KT 20SM FEW035 FEW140 M05/M13 A2988 RMK CF1AC2 SLP123

CYQB;2010-12-29 20:00;CYQB 292000Z 23012KT 15SM FEW035 FEW140 M05/M13 A2990 RMK CF1AC1 SLP131

CYQB;2010-12-29 21:00;CYQB 292100Z 26016KT 30SM FEW035 FEW140 M06/M13 A2992 RMK CF1AC1 SLP136

CYQB;2010-12-29 22:00;CYQB 292200Z 25011KT 15SM FEW035 FEW140 M07/M13 A2995 RMK SC1AC1 SLP148

CYQB;2010-12-29 23:00;CYQB 292300Z 26013KT 15SM FEW035 FEW100 M08/M11 A2997 RMK SC1AC2 SLP156

CYQB;2010-12-30 00:00;CYQB 300000Z 23008KT 15SM BKN045 M06/M10 A3000 RMK SC7 SLP164

CYQB;2010-12-30 01:00;CYQB 300100Z 23008KT 15SM -SHSN OVC041 M06/M10 A3001 RMK SC8 SLP168

CYQB;2010-12-30 02:00;CYQB 300200Z 23008KT 15SM -SHSN OVC043 M05/M09 A3001 RMK SC8 SLP168

CYQB;2010-12-30 03:00;CYQB 300300Z 25010KT 15SM OVC040 M06/M08 A3002 RMK SC8 SLP171

CYQB;2010-12-30 04:00;CYQB 300400Z 24009KT 15SM OVC042 M05/M08 A3003 RMK SC8 SLP175

CYQB;2010-12-30 05:00;CYQB 300500Z 24009KT 15SM OVC040 M05/M07 A3003 RMK SC8 SLP174

CYQB;2010-12-30 06:00;CYQB 300600Z 25012KT 15SM BKN040 M06/M07 A3002 RMK SC7 SLP171

CYQB;2010-12-30 07:00;CYQB 300700Z 26011KT 15SM SCT035 M06/M08 A3004 RMK SC4 SLP177

CYQB;2010-12-30 07:34;CYQB 300734Z 25010KT 5SM BR SCT040 OVC240 M06/ RMK SC4CI2

CYQB;2010-12-30 07:49;CYQB 300749Z 25010KT 5SM BR OVC003 M06/ RMK SF6

CYQB;2010-12-30 08:00;CYQB 300800Z 25012KT 3SM BR OVC003 M06/M07 A3005 RMK SF7 SLP179

CYQB;2010-12-30 08:18;CYQB 300818Z 25011KT 1SM R06/P6000FT/U BR VV003 M06/ RMK FG8

CYQB;2010-12-30 08:45;CYQB 300845Z 23008KT 3/4SM R06/4000VP6000FT/U BR VV002 M06/ RMK FG8

CYQB;2010-12-30 09:00;CYQB 300900Z 23007KT 1/2SM R06/P6000FT/N FZFG VV001 M06/M07 A3006 RMK FG8 SLP183

CYQB;2010-12-30 09:23;CYQB 300923Z 23007KT 1/2SM R06/3000VP6000FT/N FZFG VV003 M06/ RMK FG8

CYQB;2010-12-30 10:00;CYQB 301000Z 26008KT 1/4SM R06/2400FT/N FZFG VV001 M06/M07 A3007 RMK FG8 SLP188

CYQB;2010-12-30 11:00;CYQB 301100Z 24006KT 1/4SM R06/2800V4500FT/U FZFG VV003 M06/M07 A3007 RMK FG8 SLP189

CYQB;2010-12-30 12:00;CYQB 301200Z 26008KT 1/4SM R06/3000V4500FT/U FZFG VV002 M06/M06 A3007 RMK FG8 SLP189

CYQB;2010-12-30 12:20;CYQB 301220Z 26011KT 3/4SM R06/P6000FT/U BR BKN002 BKN008 OVC018 RMK SF6SF1SC1

CYQB;2010-12-30 13:00;CYQB 301300Z 26012KT 3/4SM R06/P6000FT/D BR BKN002 BKN008 OVC018 M06/M06 A3008 RMK SF5SF2SC1 SLP190

CYQB;2010-12-30 14:00;CYQB 301400Z 26011KT 1SM R06/P6000FT/N BR FEW002 FEW008 OVC018 M05/M06 A3008 RMK SF2SF1SC6 SLP192

CYQB;2010-12-30 15:00;CYQB 301500Z 26011KT 1SM R06/P6000FT/N -SN BR FEW008 BKN011 OVC018 M05/M05 A3009 RMK SF2SC4SC2 SLP195

CYQB;2010-12-30 16:00;CYQB 301600Z 27012KT 1 1/4SM -SN BR FEW008 BKN013 OVC018 M04/M05 A3008 RMK SF2SC5SC1 SLP191

CYQB;2010-12-30 17:00;CYQB 301700Z 27018KT 3SM BR BKN013 BKN250 M03/M04 A3006 RMK SF7CI1 SLP183

CYQB;2010-12-30 17:40;CYQB 301740Z 27018G24KT 4SM BR SCT013 BKN250 M02/ RMK SF4CI1

CYQB;2010-12-30 18:00;CYQB 301800Z 27019KT 4SM BR SCT013 BKN220 M02/M04 A3004 RMK SF3CI2 SLP177

CYQB;2010-12-30 19:00;CYQB 301900Z 26018KT 6SM BR FEW013 BKN210 M01/M04 A3003 RMK SF2CI2 SLP173

CYQB;2010-12-30 20:00;CYQB 302000Z 25018KT 10SM FEW013 BKN250 M01/M04 A3004 RMK SF1CI2 SLP177

CYQB;2010-12-30 21:00;CYQB 302100Z 25015KT 10SM FEW015 BKN250 M01/M04 A3005 RMK SF2CI2 SLP179

CYQB;2010-12-30 22:00;CYQB 302200Z 25010KT 10SM BKN017 M01/M04 A3006 RMK SC7 SLP182

CYQB;2010-12-30 23:00;CYQB 302300Z 25006KT 6SM BR BKN017 M01/M04 A3005 RMK SC7 SLP180

CYQB;2010-12-31 00:00;CYQB 310000Z 24005KT 5SM BR OVC017 M01/M04 A3005 RMK SC8 SLP181

CYQB;2010-12-31 01:00;CYQB 310100Z 26006KT 5SM BR SCT017 M04/M06 A3005 RMK SC3 SLP180

CYQB;2010-12-31 02:00;CYQB 310200Z 26007KT 4SM BR SCT017 BKN160 M05/M06 A3005 RMK SC3AC2 SLP180

CYQB;2010-12-31 03:00;CYQB 310300Z 27005KT 4SM BR SCT017 OVC160 M05/M06 A3004 RMK SC4AC4 SLP178

CYQB;2010-12-31 04:00;CYQB 310400Z 21005KT 4SM BR SCT017 OVC160 M04/M05 A3004 RMK SC3AC5 SLP177

CYQB;2010-12-31 05:00;CYQB 310500Z 24006KT 4SM BR FEW005 BKN040 OVC160 M03/M05 A3003 RMK SF1SC5AC3 SLP172

CYQB;2010-12-31 06:00;CYQB 310600Z 24006KT 4SM BR FEW005 BKN030 OVC045 M03/M04 A3003 RMK SF1SC6SC2 SLP173

CYQB;2010-12-31 07:00;CYQB 310700Z 23007KT 4SM BR OVC023 M02/M04 A3002 RMK SC8 SLP171

CYQB;2010-12-31 08:00;CYQB 310800Z 24006KT 3SM BR OVC018 M02/M04 A3003 RMK SC8 SLP172

CYQB;2010-12-31 08:21;CYQB 310821Z 22006KT 3SM -FZDZ BR OVC017 M02/ RMK SC8

CYQB;2010-12-31 09:00;CYQB 310900Z 23006KT 3SM -FZDZ BR OVC009 M02/M04 A3003 RMK SC8 -FZDZ INTMT SLP173

CYQB;2010-12-31 09:29;CYQB 310929Z 22004KT 3SM BR BKN007 OVC015 M02/ REFZDZ RMK SF6SC2

CYQB;2010-12-31 10:00;CYQB 311000Z 23005KT 3SM BR BKN008 OVC020 M02/M03 A3002 REFZDZ RMK SF6SC2 SLP170

CYQB;2010-12-31 11:00;CYQB 311100Z 24005KT 3SM BR BKN008 OVC020 M02/M03 A3003 REFZDZ RMK SF6SC2 SLP175

CYQB;2010-12-31 11:28;CYQB 311128Z 24004KT 2 1/2SM R06/5000FT/N -FZDZ BR BKN009 OVC016 M02/ RMK SF6SC2

CYQB;2010-12-31 12:00;CYQB 311200Z 23005KT 2 1/2SM -FZDZ BR BKN009 OVC016 M02/M03 A3003 RMK SF6SC2 SLP173

CYQB;2010-12-31 13:00;CYQB 311300Z 18002KT 2SM -FZDZ BR SCT009 OVC019 M02/M03 A3003 RMK FG1SF2SC5 SLP173

CYQB;2010-12-31 14:00;CYQB 311400Z 00000KT 1 1/2SM -FZDZ BR FEW009 OVC019 M02/M03 A3003 RMK FG2SF1SC6 SLP172

CYQB;2010-12-31 15:00;CYQB 311500Z 00000KT 2SM -FZDZ BR FEW009 OVC017 M01/M02 A3003 RMK FG1SF2SC6 SLP173

CYQB;2010-12-31 16:00;CYQB 311600Z 00000KT 2SM -RA BR FEW012 OVC019 M00/M02 A3002 REFZDZ RMK FG2SF1SC6 SLP169

CYQB;2010-12-31 17:00;CYQB 311700Z 15002KT 1SM R06/6000FT/N -RA BR FEW010 OVC017 M00/M01 A2999 RMK FG2SF1SC5 SLP159

CYQB;2010-12-31 18:00;CYQB 311800Z 00000KT 3/4SM R06/5000FT/N BR OVC009 M00/M01 A2997 RMK FG5ST3 SLP154

CYQB;2010-12-31 18:18;CYQB 311818Z 00000KT 3/4SM R06/4000FT/D -RA BR OVC008 M00/ RMK FG5ST3

CYQB;2010-12-31 19:00;CYQB 311900Z 00000KT 3/4SM R06/3500FT/N -RA BR BKN008 OVC020 M00/M00 A2995 RMK FG3SF2SC3 SLP147

CYQB;2010-12-31 20:00;CYQB 312000Z 15002KT 3/4SM R06/P6000FT/U -DZ BR SCT008 OVC020 00/M00 A2996 RMK FG3SF1SC4 SLP150

CYQB;2010-12-31 20:33;CYQB 312033Z 00000KT 1 1/2SM -DZ BR SCT008 OVC020 00/M00 RMK FG2SF2SC5

CYQB;2010-12-31 21:00;CYQB 312100Z CCA 00000KT 2SM -DZ BR SCT008 OVC020 00/M00 A2997 RMK FG2SF2SC5 VIS 4 N-NE SLP153

CYQB;2010-12-31 22:00;CYQB 312200Z 21002KT 4SM -DZ BR OVC018 00/M00 A2998 RMK SC8 SLP155

CYQB;2010-12-31 22:45;CYQB 312245Z 23006KT 5SM -DZ BR FEW008 OVC020 00/ RMK SF2SC6

CYQB;2010-12-31 23:00;CYQB 312300Z 22007KT 5SM -DZ BR FEW008 OVC020 00/M00 A2999 RMK SF2SC6 SLP158

CYQB;2010-12-31 23:36;CYQB 312336Z 23007KT 5SM BR FEW008 OVC020 01/ RMK SF2SC6

