CYQR;2010-01-01 07:00;CYQR 010700Z 33004KT 12SM SKC M33/M38 A3048 RMK IC SLP395

CYQR;2010-01-01 07:34;CYQR 010734Z 36004KT 2SM IC SKC M33/ RMK IC2

CYQR;2010-01-01 08:00;CYQR 010800Z 32002KT 1 1/2SM IC SKC M33/M37 A3047 RMK IC4 SLP393

CYQR;2010-01-01 08:29;CYQR 010829Z 31003KT 2 1/2SM IC SKC M35/ RMK IC2

CYQR;2010-01-01 09:00;CYQR 010900Z 26008KT 3SM IC SKC M35/M40 A3049 RMK IC2 VIS W 5 SLP402

CYQR;2010-01-01 09:28;CYQR 010928Z 27007KT 12SM FEW002 M35/ RMK SF1 IC

CYQR;2010-01-01 09:52;CYQR 010952Z 28005KT 15SM SKC M36/

CYQR;2010-01-01 10:00;CYQR 011000Z 28005KT 15SM SKC M36/M41 A3050 RMK SLP407

CYQR;2010-01-01 11:00;CYQR 011100Z 28004KT 15SM SKC M35/M41 A3052 RMK SLP412

CYQR;2010-01-01 12:00;CYQR 011200Z 36002KT 15SM SKC M35/M39 A3051 RMK SLP411

CYQR;2010-01-01 13:00;CYQR 011300Z 09004KT 15SM SKC M32/M36 A3049 RMK SLP407

CYQR;2010-01-01 14:00;CYQR 011400Z CCA 13004KT 15SM FEW005 M36/M41 A3049 RMK ST1 LO CLD E OVR CITY SLP406

CYQR;2010-01-01 15:00;CYQR 011500Z 14005KT 15SM FEW100 FEW250 M36/M41 A3050 RMK AC1CI0 SLP413

CYQR;2010-01-01 16:00;CYQR 011600Z 17009KT 15SM FEW250 M35/M40 A3051 RMK CI2 SLP415

CYQR;2010-01-01 17:00;CYQR 011700Z 13008KT 15SM BKN250 M33/M38 A3050 RMK CI2 CONTRAILS SLP413

CYQR;2010-01-01 18:00;CYQR 011800Z 12009KT 15SM BKN250 M32/M36 A3048 RMK CI5 CONTRAILS SLP404

CYQR;2010-01-01 19:00;CYQR 011900Z 14011KT 3SM DRSN BR BKN250 M30/M34 A3046 RMK CI4 VIS E 11/2 SLP397

CYQR;2010-01-01 20:00;CYQR 012000Z 14013KT 5SM DRSN BR FEW100 BKN250 M28/M33 A3043 RMK AC1CI4 SLP389

CYQR;2010-01-01 21:00;CYQR 012100Z 13017KT 5SM DRSN BR FEW100 BKN250 M27/M31 A3040 RMK AC1CI4 SLP374

CYQR;2010-01-01 22:00;CYQR 012200Z 14017KT 6SM BLSN FEW100 BKN250 M26/M31 A3037 RMK AC2CI3 SLP364

CYQR;2010-01-01 23:00;CYQR 012300Z 13019KT 6SM BLSN SCT100 BKN250 M26/M30 A3031 RMK AC2CI4 PRESFR SLP346

CYQR;2010-01-01 23:24;CYQR 012324Z 14020KT 6SM -SN BLSN SCT100 BKN250 M26/ RMK AC2CI4

CYQR;2010-01-02 00:00;CYQR 020000Z 14019G24KT 6SM -SN BLSN SCT100 BKN250 M25/M30 A3029 RMK AC3CI3 SLP334

CYQR;2010-01-02 00:43;CYQR 020043Z 14024KT 2 1/2SM BLSN SCT100 BKN250 M25/ RMK AC3CI4 VIS VRB 2-3

CYQR;2010-01-02 01:00;CYQR 020100Z 14024KT 3SM BLSN SCT100 BKN250 M24/M29 A3027 RMK AC3CI4 VIS VRB 2-4 SLP328

CYQR;2010-01-02 02:00;CYQR 020200Z 14024G30KT 3SM BLSN BKN091 BKN250 M23/M27 A3024 RMK AC6CI2 VIS VRB 2-4 SLP319

CYQR;2010-01-02 03:00;CYQR 020300Z 15025KT 3SM BLSN BKN082 BKN250 M22/M27 A3020 RMK AC5CI1 VIS VRB 2-4 SLP302

CYQR;2010-01-02 04:00;CYQR 020400Z 15025KT 3SM BLSN BKN080 M21/M26 A3017 RMK AC7 VIS VRB 2-4 SLP291

CYQR;2010-01-02 05:00;CYQR 020500Z 15027G33KT 3SM BLSN OVC080 M21/M25 A3014 RMK AC7 VIS VRB 2-4 SLP284

CYQR;2010-01-02 05:48;CYQR 020548Z 15024G33KT 3SM -SN BLSN OVC063 M20/ RMK SC7 VIS VRB 2-4

CYQR;2010-01-02 06:00;CYQR 020600Z 14028G33KT 2SM -SN BLSN BKN045 OVC063 M20/M24 A3012 RMK SC5SC2 SLP269

CYQR;2010-01-02 07:00;CYQR 020700Z 14029G37KT 2SM -SN BLSN BKN038 OVC084 M19/M23 A3009 RMK SC6AC1 SLP259

CYQR;2010-01-02 08:00;CYQR 020800Z 14028G35KT 1 1/2SM -SN BLSN BKN025 OVC065 M19/M23 A3007 RMK SC6SC2 SLP252

CYQR;2010-01-02 08:42;CYQR 020842Z 15022G30KT 2SM -SN BLSN OVC029 M19/ RMK SC8

CYQR;2010-01-02 09:00;CYQR 020900Z 15028G35KT 2SM -SN BLSN OVC035 M19/M23 A3005 RMK SC8 SLP240

CYQR;2010-01-02 10:00;CYQR 021000Z 14027G32KT 2SM -SN BLSN VV013 M18/M22 A3003 RMK BLSN8 VIS VRB 1-3 SLP232

CYQR;2010-01-02 10:35;CYQR 021035Z 14029G34KT 2SM -SN BLSN VV007 M18/ RMK SN8 VIS VRB 1-3

CYQR;2010-01-02 11:00;CYQR 021100Z 15027G35KT 1 1/4SM -SN BLSN VV015 M18/M22 A2999 RMK SN8 SLP222

CYQR;2010-01-02 11:04;CYQR 021104Z 14029KT 3/4SM R13/5500FT/N -SN BLSN VV007 M18/ RMK SN8

CYQR;2010-01-02 11:34;CYQR 021134Z 15023G30KT 2SM -SN BLSN OVC018 M18/ RMK SC8 VIS VRB 1-3

CYQR;2010-01-02 12:00;CYQR 021200Z 15026G32KT 2SM -SN BLSN FEW008 OVC018 M18/M22 A2998 RMK SF1SC7 VIS VRB 1-3 SLP214

CYQR;2010-01-02 13:00;CYQR 021300Z 15023G30KT 2SM -SN BLSN FEW007 BKN024 OVC068 M18/M21 A2998 RMK SF2SC2AC2 VIS VRB 1-3 SLP214

CYQR;2010-01-02 14:00;CYQR 021400Z 15025G30KT 2SM -SN BLSN SCT006 BKN025 BKN090 M18/M22 A2998 RMK SF3SC2AC2 VIS VRB 1-3 SLP212

CYQR;2010-01-02 15:00;CYQR 021500Z 15025G32KT 2SM -SN BLSN SCT006 BKN078 M17/M21 A2997 RMK SF4AC3 VIS VRB 1-3 SLP207

CYQR;2010-01-02 15:46;CYQR 021546Z 14025G30KT 2SM -SN BLSN BKN005 OVC042 M17/ RMK SF5SC3 VIS VRB 1-3

CYQR;2010-01-02 16:00;CYQR 021600Z 15023G30KT 2SM -SN BLSN BKN006 OVC042 M16/M20 A2998 RMK SF5SC3 VIS VRB 1-3 SLP210

CYQR;2010-01-02 17:00;CYQR 021700Z 14021G28KT 2 1/2SM -SN BLSN BKN006 BKN042 M16/M20 A2999 RMK SF5SC2 SLP214

CYQR;2010-01-02 17:12;CYQR 021712Z 15022G28KT 2 1/2SM -SN BLSN SCT006 BKN040 M16/ RMK SF4SC2

CYQR;2010-01-02 18:00;CYQR 021800Z 15022G27KT 2 1/2SM -SN BLSN SCT005 BKN012 OVC090 M16/M19 A2998 RMK SF4SC2AC2 SLP206

CYQR;2010-01-02 19:00;CYQR 021900Z 15020G25KT 3SM BLSN FEW006 BKN093 M15/M18 A2997 RMK SF2AC4 SLP205

CYQR;2010-01-02 20:00;CYQR 022000Z 15023KT 5SM BLSN FEW120 BKN250 M14/M18 A2996 RMK AC1CI1 SLP202

CYQR;2010-01-02 21:00;CYQR 022100Z 14020KT 6SM BLSN FEW120 SCT230 M14/M17 A2997 RMK AC2CI0 SLP200

CYQR;2010-01-02 22:00;CYQR 022200Z 14019G25KT 8SM DRSN FEW120 BKN250 M14/M18 A2999 RMK AC2CI1 SLP208

CYQR;2010-01-02 23:00;CYQR 022300Z 14017KT 15SM DRSN FEW120 BKN250 M15/M18 A3001 RMK AC2CI2 SLP215

CYQR;2010-01-03 00:00;CYQR 030000Z 14014G19KT 15SM DRSN FEW120 BKN250 M15/M19 A3004 RMK AC2CI1 SLP225

CYQR;2010-01-03 01:00;CYQR 030100Z 14016KT 15SM DRSN FEW030 SCT120 BKN250 M15/M18 A3005 RMK SC2AC2CI1 SLP230

CYQR;2010-01-03 02:00;CYQR 030200Z 14012KT 15SM BKN018 OVC083 M14/M18 A3009 RMK SC6AC2 SLP242

CYQR;2010-01-03 02:46;CYQR 030246Z 13009KT 10SM -SN BKN021 OVC080 M14/ RMK SC5AC3

CYQR;2010-01-03 03:00;CYQR 030300Z 12008KT 12SM -SN BKN021 OVC080 M14/M17 A3011 RMK SC6AC2 SLP248

CYQR;2010-01-03 04:00;CYQR 030400Z 08004KT 15SM VCSH OVC025 M14/M17 A3014 RMK SC8 SLP259

CYQR;2010-01-03 04:17;CYQR 030417Z 06004KT 15SM -SHSN BKN019 OVC025 M14/ RMK SC6SC2

CYQR;2010-01-03 05:00;CYQR 030500Z 35006KT 12SM -SHSN OVC017 M14/M17 A3018 RMK SC8 SLP270

CYQR;2010-01-03 05:44;CYQR 030544Z 35010KT 6SM -SN OVC010 M14/ RMK SC8

CYQR;2010-01-03 06:00;CYQR 030600Z 35011KT 3SM -SN OVC012 M14/M17 A3021 RMK SC8 SLP282

CYQR;2010-01-03 07:00;CYQR 030700Z 34010KT 5SM -SN OVC012 M14/M17 A3023 RMK SC8 SLP290

CYQR;2010-01-03 07:49;CYQR 030749Z 34013KT 2SM -SN OVC008 M15/ RMK SC8

CYQR;2010-01-03 08:00;CYQR 030800Z 34012KT 2SM -SN OVC008 M15/M17 A3025 RMK SC8 SLP296

CYQR;2010-01-03 09:00;CYQR 030900Z 35012KT 1 1/2SM -SN OVC007 M15/M17 A3029 RMK SF8 /S01/ SLP308

CYQR;2010-01-03 10:00;CYQR 031000Z 34013KT 2SM -SN SCT008 OVC016 M15/M17 A3031 RMK SF3SC5 SLP316

CYQR;2010-01-03 10:46;CYQR 031046Z 34010KT 3SM -SN OVC008 M15/ RMK SC8

CYQR;2010-01-03 11:00;CYQR 031100Z 34011KT 3SM -SN OVC008 M15/M17 A3033 RMK SC8 SLP321

CYQR;2010-01-03 11:15;CYQR 031115Z 34010KT 2 1/2SM -SN OVC006 M14/ RMK SC8

CYQR;2010-01-03 11:40;CYQR 031140Z 34010KT 1 1/2SM -SN OVC006 M14/ RMK SC8

CYQR;2010-01-03 12:00;CYQR 031200Z 34010KT 1 1/2SM -SN OVC007 M14/M16 A3034 RMK SC8 SLP328

CYQR;2010-01-03 12:43;CYQR 031243Z 35009KT 3SM -SN OVC008 M14/ RMK SC8

CYQR;2010-01-03 13:00;CYQR 031300Z 36010KT 10SM -SN BKN009 OVC034 M14/M17 A3036 RMK SC7SC1 SLP332

CYQR;2010-01-03 14:00;CYQR 031400Z 36009KT 10SM -SN SCT009 OVC022 M14/M17 A3038 RMK SC4SC4 SLP338

CYQR;2010-01-03 15:00;CYQR 031500Z 35009KT 12SM -SN OVC018 M14/M18 A3039 RMK SC8 SLP344

CYQR;2010-01-03 16:00;CYQR 031600Z 36007KT 12SM -SN OVC020 M14/M18 A3041 RMK SC8 SLP350

CYQR;2010-01-03 17:00;CYQR 031700Z 35008KT 12SM -SN OVC023 M14/M18 A3043 RMK SC8 SLP357

CYQR;2010-01-03 18:00;CYQR 031800Z 35009KT 12SM -SN OVC026 M14/M18 A3043 RMK SC8 SLP357

CYQR;2010-01-03 19:00;CYQR 031900Z 35006KT 12SM -SN BKN030 OVC120 M13/M18 A3042 RMK SC7AC1 SLP353

CYQR;2010-01-03 20:00;CYQR 032000Z 34006KT 15SM -SN FEW030 BKN071 M13/M17 A3041 RMK SC1AC5 SLP350

CYQR;2010-01-03 21:00;CYQR 032100Z 32005KT 15SM BKN070 M14/M18 A3042 RMK AC3 SLP354

CYQR;2010-01-03 22:00;CYQR 032200Z 33005KT 15SM FEW140 FEW230 M15/M19 A3043 RMK AC1CI1 SLP358

CYQR;2010-01-03 23:00;CYQR 032300Z 34004KT 15SM FEW120 FEW230 M16/M20 A3044 RMK AC1CI1 SLP361

CYQR;2010-01-04 00:00;CYQR 040000Z 05003KT 15SM FEW120 FEW230 M17/M21 A3046 RMK AC1CI0 SLP369

CYQR;2010-01-04 01:00;CYQR 040100Z 10003KT 15SM SKC M17/M20 A3045 RMK SLP366

CYQR;2010-01-04 02:00;CYQR 040200Z 13004KT 15SM SKC M20/M24 A3045 RMK SLP367

CYQR;2010-01-04 03:00;CYQR 040300Z 13002KT 15SM FEW250 M21/M25 A3045 RMK CI1 SLP370

CYQR;2010-01-04 04:00;CYQR 040400Z 12004KT 15SM FEW250 M22/M26 A3045 RMK CI2 SLP369

CYQR;2010-01-04 04:25;CYQR 040425Z 15004KT 2SM BR FEW250 M21/ RMK CI2 VIS HIER NE-SE

CYQR;2010-01-04 04:28;CYQR 040428Z 14004KT 6SM BR FEW250 M21/ RMK CI2

CYQR;2010-01-04 05:00;CYQR 040500Z 13003KT 15SM FEW250 M22/M26 A3045 RMK CI2 SLP369

CYQR;2010-01-04 06:00;CYQR 040600Z 12005KT 15SM FEW250 M22/M25 A3044 RMK CI1 SLP367

CYQR;2010-01-04 07:00;CYQR 040700Z 11006KT 15SM FEW030 M21/M24 A3044 RMK SC2 SLP366

CYQR;2010-01-04 07:30;CYQR 040730Z 15002KT 15SM -SN BKN014 M20/ RMK SC6

CYQR;2010-01-04 08:00;CYQR 040800Z 12003KT 15SM -SN OVC012 M20/M24 A3044 RMK SC8 SLP365

CYQR;2010-01-04 08:54;CYQR 040854Z 12003KT 15SM -SN BKN009 M17/ RMK SC7

CYQR;2010-01-04 09:00;CYQR 040900Z 12003KT 15SM -SN BKN009 M17/M20 A3043 RMK SC7 SLP361

CYQR;2010-01-04 10:00;CYQR 041000Z 10004KT 8SM -SN OVC006 M16/M19 A3043 RMK SC8 SLP360

CYQR;2010-01-04 11:00;CYQR 041100Z 10004KT 8SM -SN OVC010 M16/M18 A3043 RMK SC8 SLP360

CYQR;2010-01-04 12:00;CYQR 041200Z 12004KT 10SM -SN OVC010 M15/M18 A3042 RMK SC8 SLP358

CYQR;2010-01-04 13:00;CYQR 041300Z 14005KT 12SM -SN OVC010 M14/M17 A3043 RMK SC8 SLP359

CYQR;2010-01-04 14:00;CYQR 041400Z 13006KT 12SM -SN OVC012 M14/M16 A3042 RMK SC8 SLP356

CYQR;2010-01-04 15:00;CYQR 041500Z 14005KT 12SM -SN OVC010 M14/M16 A3042 RMK SC8 SLP359

CYQR;2010-01-04 16:00;CYQR 041600Z 14007KT 2 1/2SM -SN OVC012 M13/M16 A3042 RMK SC8 SLP359

CYQR;2010-01-04 17:00;CYQR 041700Z 14009KT 4SM -SN OVC014 M13/M16 A3042 RMK SC8 SLP359

CYQR;2010-01-04 17:18;CYQR 041718Z 14007KT 4SM -SN OVC017 M13/ RMK SC7

CYQR;2010-01-04 18:00;CYQR 041800Z 13007KT 8SM -SN OVC020 M13/M15 A3042 RMK SC7 VIS S-SW 3 SLP357

CYQR;2010-01-04 19:00;CYQR 041900Z 14007KT 12SM -SN OVC019 M13/M15 A3040 RMK SC7 SLP353

CYQR;2010-01-04 20:00;CYQR 042000Z 14006KT 12SM -SN BKN019 OVC057 M12/M15 A3039 RMK SC6SC1 SLP349

CYQR;2010-01-04 21:00;CYQR 042100Z 13007KT 12SM -SN BKN017 OVC057 M12/M14 A3038 RMK SC6SC2 SLP341

CYQR;2010-01-04 22:00;CYQR 042200Z 13006KT 8SM -SN OVC017 M12/M15 A3038 RMK SC8 SLP341

CYQR;2010-01-04 23:00;CYQR 042300Z 13005KT 5SM -SN BR OVC017 M12/M15 A3039 RMK SC8 SLP343

CYQR;2010-01-05 00:00;CYQR 050000Z 12005KT 7SM -SN OVC015 M12/M15 A3038 RMK SC8 SLP340

CYQR;2010-01-05 01:00;CYQR 050100Z 12006KT 8SM -SN OVC015 M12/M15 A3037 RMK SC8 SLP336

CYQR;2010-01-05 01:25;CYQR 050125Z 13007KT 8SM -SN SCT003 OVC013 M13/ RMK SF3SC5

CYQR;2010-01-05 02:00;CYQR 050200Z 13006KT 10SM -SN FEW003 OVC011 M13/M15 A3037 RMK SF2SC6 SLP335

CYQR;2010-01-05 03:00;CYQR 050300Z 15005KT 10SM -SN OVC009 M13/M15 A3037 RMK SC8 SLP333

CYQR;2010-01-05 04:00;CYQR 050400Z 26002KT 10SM -SN OVC007 M13/M16 A3037 RMK SC8 SLP333

CYQR;2010-01-05 05:00;CYQR 050500Z 24002KT 10SM -SN OVC006 M13/M16 A3035 RMK SC8 SLP328

CYQR;2010-01-05 05:29;CYQR 050529Z 00000KT 10SM -SN OVC004 M13/ RMK SC8

CYQR;2010-01-05 05:47;CYQR 050547Z 00000KT 10SM -SN OVC003 M13/ RMK ST8

CYQR;2010-01-05 06:00;CYQR 050600Z 00000KT 10SM -SN OVC003 M13/M16 A3034 RMK ST8 SLP325

CYQR;2010-01-05 06:43;CYQR 050643Z 00000KT 2 1/2SM R13/4500VP6000FT/D -SN BR OVC002 M13/ RMK ST8

CYQR;2010-01-05 06:46;CYQR 050646Z 27002KT 1SM R13/4000VP6000FT/D -SN BR OVC001 M13/ RMK FG2ST6

CYQR;2010-01-05 06:52;CYQR 050652Z 26002KT 3/4SM R13/5000FT/U -SN BR OVC001 M13/ RMK FG4ST4

CYQR;2010-01-05 07:00;CYQR 050700Z 25002KT 1/2SM R13/P6000FT/U -SN FZFG VV001 M13/M15 A3033 RMK FG8 SLP322

CYQR;2010-01-05 07:37;CYQR 050737Z 27002KT 3/8SM R13/3500FT/N -SN FZFG VV001 M13/ RMK FG8

CYQR;2010-01-05 08:00;CYQR 050800Z 00000KT 3/8SM R13/3000FT/N -SN FZFG VV001 M13/M15 A3033 RMK FG8 SLP321

CYQR;2010-01-05 09:00;CYQR 050900Z 00000KT 3/8SM R13/4000FT/N -SN FZFG VV001 M13/M15 A3032 RMK FG8 SLP317

CYQR;2010-01-05 09:23;CYQR 050923Z 00000KT 1/4SM R13/3000V4000FT/D -SN FZFG VV001 M13/ RMK FG8

CYQR;2010-01-05 09:47;CYQR 050947Z 00000KT 1/2SM R13/3000FT/N -SN FZFG VV001 M13/ RMK FG8

CYQR;2010-01-05 09:50;CYQR 050950Z 00000KT 3/4SM R13/3500FT/U -SN BR OVC001 M13/ RMK FG4ST4

CYQR;2010-01-05 10:00;CYQR 051000Z 00000KT 3/4SM R13/4000FT/N -SN BR OVC001 M13/M14 A3032 RMK FG2ST6 VIS HIER E-SE SLP315

CYQR;2010-01-05 10:48;CYQR 051048Z 12004KT 3/8SM R13/P6000FT/D -SN FZFG VV001 M12/ RMK FG8 FG MOVING SE TO NW

CYQR;2010-01-05 10:53;CYQR 051053Z 13005KT 1/4SM R13/4000VP6000FT/D -SN FZFG VV001 M12/ RMK FG8

CYQR;2010-01-05 11:00;CYQR 051100Z 13005KT 3/8SM R13/3000VP6000FT/D -SN FZFG VV001 M12/M13 A3031 RMK FG8 SLP314

CYQR;2010-01-05 11:05;CYQR 051105Z 13006KT 1/2SM R13/3000FT/N -SN FZFG VV001 M12/ RMK FG8

CYQR;2010-01-05 11:11;CYQR 051111Z 12005KT 5/8SM R13/3500FT/U -SN BR VV001 M12/ RMK FG8

CYQR;2010-01-05 12:00;CYQR 051200Z 13005KT 5/8SM R13/6000FT/D -SN BR VV002 M12/M12 A3030 RMK FG8 SLP310

CYQR;2010-01-05 12:27;CYQR 051227Z 13007KT 1/2SM R13/P6000FT/N -SN FZFG VV001 M12/ RMK FG8

CYQR;2010-01-05 12:46;CYQR 051246Z 13005KT 3/8SM R13/5000FT/N -SN FZFG VV002 M12/ RMK FG8

CYQR;2010-01-05 13:00;CYQR 051300Z 13006KT 3/8SM R13/5000FT/D -SN FZFG VV001 M12/M13 A3029 RMK FG8 SLP306

CYQR;2010-01-05 13:58;CYQR 051358Z 12006KT 1SM R13/P6000FT/D -SN BR OVC004 M12/ RMK ST8

CYQR;2010-01-05 14:00;CYQR 051400Z 12006KT 1SM R13/P6000FT/D -SN BR OVC004 M12/M14 A3028 RMK SC8 SLP304

CYQR;2010-01-05 15:00;CYQR 051500Z 13006KT 1SM R13/P6000FT/N -SN BR OVC008 M13/M14 A3028 RMK SC8 SLP304

CYQR;2010-01-05 15:40;CYQR 051540Z 11004KT 3/4SM R13/P6000FT/D -SN BR OVC010 M13/ RMK SC8

CYQR;2010-01-05 16:00;CYQR 051600Z 10006KT 3/4SM R13/P6000FT/D -SN BR OVC010 M13/M14 A3028 RMK SC8 SLP303

CYQR;2010-01-05 17:00;CYQR 051700Z 11004KT 1 1/2SM -SN BR OVC016 M12/M13 A3027 RMK SC8 VIS VRB 1-2 SLP301

CYQR;2010-01-05 18:00;CYQR 051800Z 10006KT 1 1/2SM -SN BR OVC006 M12/M13 A3027 RMK SC8 SLP300

CYQR;2010-01-05 18:27;CYQR 051827Z 11007KT 3/4SM R13/P6000FT/D -SN BR VV006 M12/ RMK SN8 VIS VRB 1/2-1

CYQR;2010-01-05 19:00;CYQR 051900Z 09007KT 3/4SM R13/P6000FT/U -SN BR VV006 M12/M13 A3026 RMK SN8 VIS VRB 1/2 - 1 SLP296

CYQR;2010-01-05 20:00;CYQR 052000Z 10006KT 3/4SM R13/P6000FT/D -SN BR VV007 M12/M13 A3025 RMK SN8 VIS VRB 1/2-1 SLP292

CYQR;2010-01-05 21:00;CYQR 052100Z 09007KT 1SM R13/P6000FT/U -SN BR VV005 M12/M13 A3024 RMK SN8 VIS VRB 3/4-11/4 SLP289

CYQR;2010-01-05 22:00;CYQR 052200Z 05008KT 1SM R13/P6000FT/N -SN BR VV006 M12/M13 A3025 RMK SN8 VIS VRB 3/4-11/4 /S02/ SLP292

CYQR;2010-01-05 22:39;CYQR 052239Z 04006KT 3/4SM R13/P6000FT/U -SN BR VV007 M12/ RMK SN8 VIS VRB 1/2 - 1

CYQR;2010-01-05 23:00;CYQR 052300Z 05009KT 3/4SM R13/P6000FT/D -SN BR VV006 M12/M14 A3026 RMK SN8 SLP295

CYQR;2010-01-06 00:00;CYQR 060000Z 04008KT 1SM R13/P6000FT/U -SN BR VV005 M13/M15 A3026 RMK SN8 VIS VRB 3/4-11/4 /S05/ SLP295

CYQR;2010-01-06 01:00;CYQR 060100Z 06009KT 1SM R13/P6000FT/U -SN BR VV005 M13/M15 A3027 RMK SN8 VIS VRB 3/4 - 11/4 SLP297

CYQR;2010-01-06 01:48;CYQR 060148Z 06009KT 2SM -SN BR OVC007 M13/ RMK SC8

CYQR;2010-01-06 02:00;CYQR 060200Z 06008KT 2 1/2SM -SN BR OVC010 M13/M15 A3027 RMK SC8 SLP299

CYQR;2010-01-06 03:00;CYQR 060300Z 05011G16KT 2SM -SN DRSN BR OVC010 M13/M16 A3029 RMK SC8 /S01/ SLP306

CYQR;2010-01-06 04:00;CYQR 060400Z 05009KT 2 1/2SM -SN OVC012 M14/M16 A3030 RMK SC8 SLP311

CYQR;2010-01-06 04:36;CYQR 060436Z 04008KT 4SM -SN OVC012 M14/ RMK SC8

CYQR;2010-01-06 05:00;CYQR 060500Z 03010KT 4SM -SN OVC014 M14/M16 A3032 RMK SC8 SLP316

CYQR;2010-01-06 05:20;CYQR 060520Z 03011KT 3SM -SN OVC009 M14/ RMK SC8

CYQR;2010-01-06 06:00;CYQR 060600Z 02010KT 4SM -SN OVC011 M14/M17 A3034 RMK SC8 SLP326

CYQR;2010-01-06 06:36;CYQR 060636Z 03012KT 2SM -SN OVC015 M15/ RMK SC8

CYQR;2010-01-06 07:00;CYQR 060700Z 03011KT 2 1/2SM -SN OVC015 M15/M17 A3035 RMK SC8 SLP329

CYQR;2010-01-06 07:29;CYQR 060729Z 03012KT 3SM -SN OVC017 M15/ RMK SC8

CYQR;2010-01-06 08:00;CYQR 060800Z 03014KT 5SM -SN OVC019 M15/M18 A3037 RMK SC8 SLP334

CYQR;2010-01-06 09:00;CYQR 060900Z 03014KT 6SM -SN OVC022 M16/M19 A3039 RMK SC6 SLP343

CYQR;2010-01-06 10:00;CYQR 061000Z 03012G17KT 10SM -SN OVC019 M17/M20 A3042 RMK SC6 SLP353

CYQR;2010-01-06 11:00;CYQR 061100Z 02013KT 15SM -SN BKN023 OVC056 M17/M20 A3045 RMK SC6SC1 SLP361

CYQR;2010-01-06 12:00;CYQR 061200Z 36014KT 12SM -SN BKN021 M18/M21 A3047 RMK SC6 SLP373

CYQR;2010-01-06 13:00;CYQR 061300Z 36012KT 15SM -SN BKN023 M20/M23 A3051 RMK SC5 SLP384

CYQR;2010-01-06 14:00;CYQR 061400Z 36014KT 15SM -SN SCT018 BKN053 M22/M26 A3055 RMK SC3SC2 SLP398

CYQR;2010-01-06 15:00;CYQR 061500Z 36013KT 12SM -SN FEW018 OVC047 M24/M27 A3058 RMK SC2SC6 SLP417

CYQR;2010-01-06 16:00;CYQR 061600Z 36013KT 8SM -SN OVC049 M23/M26 A3061 RMK SC8 SLP425

CYQR;2010-01-06 17:00;CYQR 061700Z CCA 36012G17KT 8SM -SN DRSN SCT054 BKN110 M23/M27 A3063 RMK SC3AC2 SLP431

CYQR;2010-01-06 17:53;CYQR 061753Z 36016KT 10SM DRSN FEW140 FEW230 M24/ RMK AC1CI0 IC

CYQR;2010-01-06 18:00;CYQR 061800Z 36016KT 10SM DRSN FEW140 FEW230 M24/M28 A3064 RMK AC1CI0 IC SLP439

CYQR;2010-01-06 19:00;CYQR 061900Z 35015G20KT 10SM DRSN FEW230 M24/M28 A3064 RMK CI1 IC SLP439

CYQR;2010-01-06 20:00;CYQR 062000Z 33009KT 15SM DRSN FEW230 M24/M28 A3064 RMK CI0 SLP438

CYQR;2010-01-06 21:00;CYQR 062100Z 33011KT 3SM IC DRSN SKC M24/M28 A3064 RMK VIS W -NW 11/2 SLP438

CYQR;2010-01-06 22:00;CYQR 062200Z 32011KT 4SM IC DRSN SKC M24/M29 A3065 RMK SLP443

CYQR;2010-01-06 23:00;CYQR 062300Z 32007KT 4SM IC SKC M26/M30 A3068 RMK SLP450

CYQR;2010-01-07 00:00;CYQR 070000Z 32004KT 4SM IC SKC M26/M30 A3068 RMK SLP456

CYQR;2010-01-07 01:00;CYQR 070100Z 32007KT 8SM SKC M28/M32 A3068 RMK IC SLP457

CYQR;2010-01-07 02:00;CYQR 070200Z 34012KT 10SM FEW088 M28/M33 A3068 RMK AC2 IC SLP458

CYQR;2010-01-07 03:00;CYQR 070300Z 32009KT 8SM SKC M28/M33 A3069 RMK IC SLP467

CYQR;2010-01-07 04:00;CYQR 070400Z 35006KT 10SM SKC M30/M34 A3070 RMK IC SLP470

CYQR;2010-01-07 05:00;CYQR 070500Z 34007KT 10SM SKC M32/M36 A3070 RMK IC SLP470

CYQR;2010-01-07 06:00;CYQR 070600Z 32008KT 10SM SKC M31/M36 A3070 RMK IC SLP473

CYQR;2010-01-07 07:00;CYQR 070700Z 34006KT 10SM SKC M32/M36 A3069 RMK IC SLP470

CYQR;2010-01-07 08:00;CYQR 070800Z 30008KT 12SM SKC M35/M40 A3069 RMK IC SLP470

CYQR;2010-01-07 09:00;CYQR 070900Z 35004KT 12SM SKC M33/M38 A3069 RMK SLP470

CYQR;2010-01-07 10:00;CYQR 071000Z 29007KT 12SM SKC M35/M40 A3070 RMK IC SLP475

CYQR;2010-01-07 11:00;CYQR 071100Z 29005KT 12SM SKC M36/M41 A3070 RMK SLP475

CYQR;2010-01-07 12:00;CYQR 071200Z 31004KT 12SM SKC M35/M39 A3070 RMK IC SLP478

CYQR;2010-01-07 13:00;CYQR 071300Z 28006KT 12SM SKC M37/M42 A3071 RMK IC SLP480

CYQR;2010-01-07 14:00;CYQR 071400Z 29002KT 12SM SKC M37/M41 A3070 RMK IC SLP478

CYQR;2010-01-07 15:00;CYQR 071500Z 31002KT 10SM SKC M36/M41 A3070 RMK IC SLP481

CYQR;2010-01-07 16:00;CYQR 071600Z 00000KT 12SM FEW012 M34/M38 A3070 RMK ST0 IC SLP482

CYQR;2010-01-07 17:00;CYQR 071700Z 25004KT 12SM FEW012 M35/M39 A3070 RMK ST0 IC SLP480

CYQR;2010-01-07 18:00;CYQR 071800Z 27002KT 6SM IC FEW003 M32/M37 A3069 RMK ST1 SLP477

CYQR;2010-01-07 19:00;CYQR 071900Z 28003KT 6SM IC FEW002 M31/M36 A3068 RMK ST0 SLP473

CYQR;2010-01-07 20:00;CYQR 072000Z 00000KT 8SM FEW005 M28/M32 A3065 RMK ST0 IC SLP464

CYQR;2010-01-07 21:00;CYQR 072100Z 00000KT 6SM IC FEW003 M28/M32 A3063 RMK ST0 SLP454

CYQR;2010-01-07 22:00;CYQR 072200Z 18004KT 5SM IC SKC M29/M34 A3062 RMK SLP451

CYQR;2010-01-07 23:00;CYQR 072300Z 16005KT 12SM SKC M31/M35 A3060 RMK IC SLP446

CYQR;2010-01-08 00:00;CYQR 080000Z 14006KT 12SM FEW120 M32/M36 A3060 RMK AC1 IC SLP447

CYQR;2010-01-08 01:00;CYQR 080100Z 14008KT 12SM FEW012 FEW120 M32/M36 A3058 RMK ST1AC1 IC SLP442

CYQR;2010-01-08 01:44;CYQR 080144Z 12008KT 15SM FEW004 M32/ RMK ST1 IC

CYQR;2010-01-08 02:00;CYQR 080200Z 12007KT 15SM FEW004 M32/M36 A3058 RMK ST1 IC SLP441

CYQR;2010-01-08 03:00;CYQR 080300Z 13009KT 15SM FEW004 M32/M36 A3056 RMK ST1 IC SLP436

CYQR;2010-01-08 04:00;CYQR 080400Z 14011KT 15SM FEW004 M31/M35 A3052 RMK ST1 CLD OVR CITY IC SLP421

CYQR;2010-01-08 05:00;CYQR 080500Z 14012KT 15SM SKC M31/M35 A3048 RMK IC SLP409

CYQR;2010-01-08 06:00;CYQR 080600Z 13012KT 6SM IC BR SKC M30/M34 A3045 RMK IC VIS W 21/2 SLP394

CYQR;2010-01-08 07:00;CYQR 080700Z 13011KT 6SM IC SKC M31/M35 A3043 RMK IC SLP387

CYQR;2010-01-08 08:00;CYQR 080800Z 13012KT 10SM SKC M31/M35 A3040 RMK SLP378

CYQR;2010-01-08 09:00;CYQR 080900Z 14013KT 4SM IC SKC M30/M34 A3040 RMK IC SLP371

CYQR;2010-01-08 10:00;CYQR 081000Z 14013KT 4SM IC SKC M31/M34 A3038 RMK IC SLP366

CYQR;2010-01-08 11:00;CYQR 081100Z 14014KT 4SM IC SKC M31/M34 A3036 RMK SLP358

CYQR;2010-01-08 12:00;CYQR 081200Z 14014KT 4SM IC SKC M30/M34 A3032 RMK IC SLP345

CYQR;2010-01-08 13:00;CYQR 081300Z 14014KT 4SM IC SKC M29/M33 A3028 RMK SLP334

CYQR;2010-01-08 14:00;CYQR 081400Z CCA 14015KT 1 1/2SM IC DRSN SKC M30/M34 A3026 RMK SLP326

CYQR;2010-01-08 15:00;CYQR 081500Z 14015KT 2SM IC DRSN SKC M29/M33 A3024 RMK IC1 SLP320

CYQR;2010-01-08 16:00;CYQR 081600Z 14017KT 2SM IC DRSN SKC M28/M32 A3024 RMK IC1 SLP320

CYQR;2010-01-08 17:00;CYQR 081700Z 14017KT 2SM IC DRSN FEW230 M28/M32 A3025 RMK IC1CI0 SLP321

CYQR;2010-01-08 17:04;CYQR 081704Z 14017KT 3SM IC DRSN FEW230 M28/ RMK CI1 VIS SE-S 2

CYQR;2010-01-08 18:00;CYQR 081800Z 14015G20KT 2 1/2SM IC DRSN FEW230 M26/M30 A3024 RMK CI1 SLP314

CYQR;2010-01-08 18:14;CYQR 081814Z 14017KT 3SM IC DRSN FEW230 M25/ RMK CI1

CYQR;2010-01-08 19:00;CYQR 081900Z 14018KT 12SM DRSN FEW230 M24/M28 A3020 RMK CI1 BLSN S-W SLP302

CYQR;2010-01-08 20:00;CYQR 082000Z 14018KT 12SM DRSN FEW230 M23/M27 A3017 RMK CI2 BLSN S-W SLP292

CYQR;2010-01-08 21:00;CYQR 082100Z 14018KT 12SM DRSN SCT230 M23/M26 A3015 RMK CI2 SLP280

CYQR;2010-01-08 22:00;CYQR 082200Z 14018KT 12SM DRSN BKN230 M22/M26 A3014 RMK CI2 SLP277

CYQR;2010-01-08 23:00;CYQR 082300Z 14016KT 15SM DRSN BKN230 M22/M26 A3014 RMK CI2 SLP277

CYQR;2010-01-09 00:00;CYQR 090000Z 14018KT 15SM DRSN BKN230 M22/M26 A3014 RMK CI2 SLP274

CYQR;2010-01-09 01:00;CYQR 090100Z 14017KT 15SM DRSN SCT230 M22/M27 A3012 RMK CI1 SLP268

CYQR;2010-01-09 02:00;CYQR 090200Z 14016KT 15SM DRSN SKC M23/M27 A3010 RMK SLP262

CYQR;2010-01-09 03:00;CYQR 090300Z 14016KT 15SM DRSN SKC M22/M27 A3009 RMK SLP258

CYQR;2010-01-09 04:00;CYQR 090400Z 14017KT 15SM DRSN SKC M22/M27 A3008 RMK SLP256

CYQR;2010-01-09 05:00;CYQR 090500Z 14016KT 15SM SKC M22/M27 A3006 RMK SLP250

CYQR;2010-01-09 06:00;CYQR 090600Z 15013KT 15SM DRSN SKC M22/M27 A3007 RMK SLP247

CYQR;2010-01-09 07:00;CYQR 090700Z 15011KT 15SM DRSN SKC M22/M27 A3004 RMK SLP240

CYQR;2010-01-09 08:00;CYQR 090800Z 14011KT 15SM DRSN SKC M22/M27 A3004 RMK SLP237

CYQR;2010-01-09 09:00;CYQR 090900Z 15009KT 15SM DRSN SKC M22/M27 A3004 RMK SLP237

CYQR;2010-01-09 10:00;CYQR 091000Z 13010KT 15SM DRSN SKC M23/M28 A3003 RMK SLP231

CYQR;2010-01-09 11:00;CYQR 091100Z 13010KT 15SM DRSN SKC M23/M27 A3001 RMK SLP226

CYQR;2010-01-09 12:00;CYQR 091200Z 13007KT 15SM DRSN SKC M23/M27 A3000 RMK SLP221

CYQR;2010-01-09 13:00;CYQR 091300Z 13007KT 15SM DRSN SCT250 M22/M27 A2999 RMK CI0 SLP220

CYQR;2010-01-09 14:00;CYQR 091400Z 13008KT 15SM SCT250 M22/M27 A2997 RMK CI1 SLP213

CYQR;2010-01-09 15:00;CYQR 091500Z 11005KT 15SM BKN250 M21/M26 A2998 RMK CI2 SLP215

CYQR;2010-01-09 16:00;CYQR 091600Z 12007KT 15SM FEW210 BKN270 M20/M25 A2997 RMK CI2CI2 SLP211

CYQR;2010-01-09 17:00;CYQR 091700Z 12009KT 15SM FEW150 BKN250 M19/M23 A2997 RMK AC1CI3 SLP211

CYQR;2010-01-09 18:00;CYQR 091800Z 11006KT 15SM FEW150 SCT210 BKN260 M17/M22 A2997 RMK AC1CI2CI2 SLP208

CYQR;2010-01-09 19:00;CYQR 091900Z 13008KT 15SM FEW150 SCT210 OVC270 M16/M20 A2995 RMK AC1CI3CI2 SLP200

CYQR;2010-01-09 20:00;CYQR 092000Z 14009KT 15SM SCT150 BKN210 OVC270 M15/M19 A2992 RMK AC4CI2CI2 SLP191

CYQR;2010-01-09 21:00;CYQR 092100Z 13008KT 15SM FEW150 BKN210 OVC270 M14/M18 A2990 RMK AC2CI4CI2 SLP180

CYQR;2010-01-09 22:00;CYQR 092200Z 14008KT 15SM FEW150 BKN210 OVC270 M13/M17 A2989 RMK AC1CI6CI1 SLP178

CYQR;2010-01-09 23:00;CYQR 092300Z 13012KT 15SM FEW150 BKN210 OVC270 M12/M15 A2986 RMK AC1CI6CI1 SLP167

CYQR;2010-01-10 00:00;CYQR 100000Z 13008KT 15SM FEW150 BKN210 M11/M14 A2987 RMK AC2CI6 SLP169

CYQR;2010-01-10 01:00;CYQR 100100Z 13009KT 15SM FEW140 BKN210 M11/M13 A2984 RMK AC2CI6 SLP160

CYQR;2010-01-10 02:00;CYQR 100200Z 10006KT 15SM BKN140 OVC210 M10/M13 A2984 RMK AC5CI3 SLP159

CYQR;2010-01-10 03:00;CYQR 100300Z 12007KT 15SM FEW140 OVC210 M11/M14 A2984 RMK AC2CI6 SLP157

CYQR;2010-01-10 04:00;CYQR 100400Z 22003KT 15SM SCT210 M12/M14 A2986 RMK CI0 SLP162

CYQR;2010-01-10 05:00;CYQR 100500Z 29009KT 15SM FEW120 BKN210 M09/M11 A2986 RMK AC1CI2 SLP163

CYQR;2010-01-10 06:00;CYQR 100600Z 32014KT 15SM FEW120 SCT210 M08/M10 A2989 RMK AC1CI1 TR AC SLP166

CYQR;2010-01-10 07:00;CYQR 100700Z 31015KT 15SM SKC M09/M11 A2990 RMK SLP172

CYQR;2010-01-10 08:00;CYQR 100800Z 31013KT 15SM SKC M10/M12 A2992 RMK SLP178

CYQR;2010-01-10 09:00;CYQR 100900Z 31013KT 15SM SKC M11/M13 A2995 RMK SLP189

CYQR;2010-01-10 10:00;CYQR 101000Z 34011KT 15SM SKC M12/M15 A2999 RMK SLP201

CYQR;2010-01-10 11:00;CYQR 101100Z 32008KT 15SM OVC100 M12/M15 A3000 RMK AC8 SLP206

CYQR;2010-01-10 12:00;CYQR 101200Z 32008KT 12SM OVC100 M12/M14 A3002 RMK AC8 SLP212

CYQR;2010-01-10 13:00;CYQR 101300Z 32008KT 12SM OVC100 M12/M14 A3004 RMK AC8 SLP219

CYQR;2010-01-10 14:00;CYQR 101400Z 34007KT 12SM BKN110 OVC250 M11/M14 A3005 RMK AC6CI1 SLP220

CYQR;2010-01-10 15:00;CYQR 101500Z 24004KT 12SM BKN110 OVC250 M11/M13 A3006 RMK AC7CI1 SLP223

CYQR;2010-01-10 16:00;CYQR 101600Z 26003KT 12SM BKN110 OVC250 M10/M12 A3008 RMK AC6CI2 SLP229

CYQR;2010-01-10 17:00;CYQR 101700Z 21002KT 12SM BKN110 OVC250 M09/M12 A3008 RMK AC6CI2 SLP231

CYQR;2010-01-10 18:00;CYQR 101800Z 23005KT 12SM SCT110 OVC250 M09/M11 A3008 RMK AC4CI1 SLP227

CYQR;2010-01-10 19:00;CYQR 101900Z 00000KT 12SM FEW110 BKN250 M08/M11 A3006 RMK AC2CI2 SLP222

CYQR;2010-01-10 20:00;CYQR 102000Z 19004KT 12SM FEW110 BKN250 M07/M11 A3007 RMK AC1CI1 SLP223

CYQR;2010-01-10 21:00;CYQR 102100Z 16007KT 12SM FEW110 SCT250 M07/M11 A3006 RMK AC1CI1 SLP221

CYQR;2010-01-10 22:00;CYQR 102200Z 14005KT 12SM SCT250 M08/M11 A3008 RMK CI1 SLP227

CYQR;2010-01-10 23:00;CYQR 102300Z 14006KT 12SM BKN250 M09/M12 A3009 RMK CI2 SLP230

CYQR;2010-01-11 00:00;CYQR 110000Z 11005KT 12SM FEW120 BKN250 M11/M14 A3011 RMK AC1CI1 SLP243

CYQR;2010-01-11 01:00;CYQR 110100Z 13006KT 12SM BKN250 M11/M13 A3012 RMK CI2 SLP246

CYQR;2010-01-11 02:00;CYQR 110200Z 11005KT 12SM SCT250 M12/M14 A3014 RMK CI1 SLP253

CYQR;2010-01-11 03:00;CYQR 110300Z 13007KT 12SM FEW250 M13/M15 A3015 RMK CI1 SLP258

CYQR;2010-01-11 04:00;CYQR 110400Z 14005KT 12SM SKC M14/M16 A3016 RMK SLP261

CYQR;2010-01-11 05:00;CYQR 110500Z 14005KT 12SM FEW002 M15/M17 A3019 RMK ST1 CLD MSTLY OVR CITY SLP268

CYQR;2010-01-11 05:06;CYQR 110506Z 13005KT 6SM BR BKN001 M15/ RMK ST2

CYQR;2010-01-11 05:17;CYQR 110517Z 12004KT 6SM BR OVC001 M15/ RMK ST5

CYQR;2010-01-11 06:00;CYQR 110600Z 13003KT 6SM BR OVC001 M15/M17 A3021 RMK ST6 SLP277

CYQR;2010-01-11 06:09;CYQR 110609Z 16003KT 2SM BR BKN001 OVC006 M15/ RMK SF6ST2 VIS W 3/4

CYQR;2010-01-11 06:15;CYQR 110615Z 14004KT 1 1/2SM BR BKN001 OVC006 M15/ RMK SF6ST2 VIS VRB 1-2

CYQR;2010-01-11 07:00;CYQR 110700Z 14003KT 3/4SM R13/P6000FT/D BR OVC001 M15/M16 A3021 RMK SF8 SLP277

CYQR;2010-01-11 07:11;CYQR 110711Z 12005KT 1SM R13/3000VP6000FT/N BR SCT001 OVC006 M15/ RMK SF4ST4

CYQR;2010-01-11 08:00;CYQR 110800Z 13006KT 1 1/2SM BR SCT001 OVC006 M15/M16 A3020 RMK SF4ST4 VIS VRB 1-2 SLP275

CYQR;2010-01-11 08:35;CYQR 110835Z 11007KT 1SM R13/P6000FT/N BR BKN001 OVC006 M15/ RMK SF6ST2

CYQR;2010-01-11 08:52;CYQR 110852Z 13006KT 3/4SM R13/P6000FT/D BR VV001 M14/ RMK FG8 VIS VRB 1/2-1

CYQR;2010-01-11 09:00;CYQR 110900Z 12008KT 1/2SM R13/P6000FT/D FZFG VV001 M14/M16 A3019 RMK FG8 SLP267

CYQR;2010-01-11 10:00;CYQR 111000Z 14009KT 5/8SM R13/P6000FT/U BR VV001 M14/M15 A3017 RMK FG8 VIS VRB 1/2-3/4 SLP263

CYQR;2010-01-11 11:00;CYQR 111100Z 14010KT 1/2SM R13/5500FT/D FZFG VV001 M13/M14 A3019 RMK FG8 SLP268

CYQR;2010-01-11 11:18;CYQR 111118Z 14009KT 1/4SM R13/3000V4500FT/D FZFG VV001 M13/ RMK FG8

CYQR;2010-01-11 12:00;CYQR 111200Z 13010KT 5/8SM R13/3500VP6000FT/U BR VV002 M12/M14 A3020 RMK FG8 SLP273

CYQR;2010-01-11 12:03;CYQR 111203Z 12011KT 1 1/4SM BR OVC001 M12/ RMK ST8

CYQR;2010-01-11 12:18;CYQR 111218Z 13011KT 2SM BR OVC002 M12/ RMK ST8

CYQR;2010-01-11 13:00;CYQR 111300Z 12012KT 2 1/2SM BR OVC001 M12/M13 A3018 RMK ST8 SLP266

CYQR;2010-01-11 13:42;CYQR 111342Z 13013KT 3SM BR SCT002 M11/ RMK FG1SF3

CYQR;2010-01-11 13:53;CYQR 111353Z 13012KT 5SM -SN BR SCT002 OVC120 M11/ RMK FG1SF3AC4

CYQR;2010-01-11 14:00;CYQR 111400Z 13012KT 5SM -SN BR SCT002 OVC120 M11/M13 A3015 RMK SF3AC5 SLP257

CYQR;2010-01-11 15:00;CYQR 111500Z 14013KT 5SM -SN BR FEW002 BKN120 OVC250 M11/M12 A3012 RMK SF1AC6CI1 SLP247

CYQR;2010-01-11 16:00;CYQR 111600Z 14014G20KT 4SM -SN DRSN BR FEW001 BKN120 BKN250 M09/M11 A3010 RMK SF1AC5CI1 SLP240

CYQR;2010-01-11 17:00;CYQR 111700Z 14017KT 6SM -SN DRSN BR FEW001 BKN120 OVC250 M09/M11 A3006 RMK SF1AC5CI1 SLP228

CYQR;2010-01-11 17:12;CYQR 111712Z 15016G21KT 5SM DRSN BR FEW001 FEW120 OVC250 M08/ RMK SF1AC1CI2 TR SF

CYQR;2010-01-11 18:00;CYQR 111800Z 14018KT 8SM DRSN BKN250 M08/M09 A3004 RMK CI2 SLP220

CYQR;2010-01-11 19:00;CYQR 111900Z 14016KT 10SM DRSN FEW120 BKN250 M07/M08 A3003 RMK AC1CI2 SLP216

CYQR;2010-01-11 20:00;CYQR 112000Z 14018KT 10SM DRSN FEW120 OVC250 M06/M07 A2999 RMK AC2CI2 SLP202

CYQR;2010-01-11 21:00;CYQR 112100Z 14014KT 12SM DRSN SCT120 BKN250 M06/M08 A2996 RMK AC3CI2 SLP188

CYQR;2010-01-11 22:00;CYQR 112200Z 14018KT 15SM DRSN FEW086 BKN250 M05/M08 A2994 RMK AC2CI4 SLP181

CYQR;2010-01-11 23:00;CYQR 112300Z 14018KT 15SM DRSN FEW086 BKN250 M05/M07 A2993 RMK AC2CI2 SLP179

CYQR;2010-01-12 00:00;CYQR 120000Z 14012KT 15SM FEW082 BKN250 M05/M08 A2992 RMK AC2CI2 SLP173

CYQR;2010-01-12 01:00;CYQR 120100Z 15014KT 15SM DRSN FEW120 OVC250 M04/M07 A2990 RMK AC2CI6 SLP167

CYQR;2010-01-12 02:00;CYQR 120200Z 17013KT 15SM BKN120 OVC250 M04/M07 A2988 RMK AC7CI1 SLP159

CYQR;2010-01-12 03:00;CYQR 120300Z 16009KT 15SM FEW120 BKN250 M03/M06 A2985 RMK AC2CI4 SLP146

CYQR;2010-01-12 04:00;CYQR 120400Z 16005KT 15SM FEW095 BKN250 M03/M06 A2984 RMK AC1CI4 SLP144

CYQR;2010-01-12 05:00;CYQR 120500Z 22011KT 15SM BKN250 M01/M05 A2983 RMK CI2 SLP139

CYQR;2010-01-12 06:00;CYQR 120600Z 17005KT 15SM SCT250 M02/M05 A2983 RMK CI1 SLP137

CYQR;2010-01-12 07:00;CYQR 120700Z 14005KT 15SM BKN250 M01/M05 A2983 RMK CI4 SLP135

CYQR;2010-01-12 08:00;CYQR 120800Z 26002KT 15SM BKN250 02/M02 A2981 RMK CI6 SLP129

CYQR;2010-01-12 09:00;CYQR 120900Z 20008KT 15SM BKN250 M01/M04 A2981 RMK CI6 SLP128

CYQR;2010-01-12 10:00;CYQR 121000Z 23008KT 15SM FEW250 00/M03 A2981 RMK CI1 SLP127

CYQR;2010-01-12 11:00;CYQR 121100Z 24002KT 15SM FEW250 00/M03 A2980 RMK CI1 SLP124

CYQR;2010-01-12 12:00;CYQR 121200Z 23006KT 15SM FEW250 M00/M04 A2978 RMK CI0 SLP116

CYQR;2010-01-12 13:00;CYQR 121300Z 25005KT 15SM SCT250 M00/M04 A2977 RMK CI2 SLP113

CYQR;2010-01-12 14:00;CYQR 121400Z 23004KT 15SM SCT250 M01/M05 A2977 RMK CI2 SLP112

CYQR;2010-01-12 15:00;CYQR 121500Z 16003KT 15SM SCT250 M02/M05 A2976 RMK CI2 SLP110

CYQR;2010-01-12 16:00;CYQR 121600Z 23009KT 15SM FEW250 M02/M05 A2975 RMK CI1 SLP107

CYQR;2010-01-12 17:00;CYQR 121700Z 25009KT 15SM FEW110 FEW250 M02/M05 A2975 RMK AC1CI1 TR AC SLP105

CYQR;2010-01-12 18:00;CYQR 121800Z 14007KT 15SM FEW085 FEW250 01/M03 A2974 RMK AC1CI0 SLP098

CYQR;2010-01-12 19:00;CYQR 121900Z 18008KT 15SM FEW140 FEW250 01/M03 A2973 RMK AC1CI0 SLP095

CYQR;2010-01-12 20:00;CYQR 122000Z 19008KT 15SM FEW080 FEW140 SCT250 02/M02 A2969 RMK AC1AC1CI1 SLP085

CYQR;2010-01-12 21:00;CYQR 122100Z 18008KT 15SM FEW140 SCT250 03/M01 A2968 RMK AC1CI1 SLP075

CYQR;2010-01-12 22:00;CYQR 122200Z 15006KT 15SM FEW140 FEW250 04/M02 A2966 RMK AC1CI1 SLP070

CYQR;2010-01-12 23:00;CYQR 122300Z 16010KT 15SM FEW140 SCT250 02/M03 A2965 RMK AC1CI1 SLP067

CYQR;2010-01-13 00:00;CYQR 130000Z 14012KT 15SM FEW140 SCT250 M00/M03 A2964 RMK AC1CI1 SLP066

CYQR;2010-01-13 01:00;CYQR 130100Z 12009KT 15SM FEW140 SCT250 M02/M04 A2964 RMK AC1CI1 SLP063

CYQR;2010-01-13 02:00;CYQR 130200Z 13009KT 15SM FEW140 FEW250 M04/M07 A2962 RMK AC1CI1 SLP059

CYQR;2010-01-13 03:00;CYQR 130300Z 13005KT 15SM BKN140 BKN250 M04/M06 A2961 RMK AC2CI0 SLP057

CYQR;2010-01-13 04:00;CYQR 130400Z 12006KT 15SM BKN140 M05/M07 A2960 RMK AC6 SLP053

CYQR;2010-01-13 05:00;CYQR 130500Z 12007KT 15SM BKN250 M05/M08 A2959 RMK CI0 SLP051

CYQR;2010-01-13 06:00;CYQR 130600Z 11006KT 15SM FEW250 M06/M08 A2959 RMK CI0 SLP050

CYQR;2010-01-13 07:00;CYQR 130700Z 13002KT 15SM FEW250 M04/M08 A2959 RMK CI1 SLP048

CYQR;2010-01-13 08:00;CYQR 130800Z 22006KT 15SM SKC M02/M05 A2958 RMK SLP047

CYQR;2010-01-13 09:00;CYQR 130900Z 24016KT 15SM SKC 02/M02 A2956 RMK SLP035

CYQR;2010-01-13 10:00;CYQR 131000Z 24010KT 15SM FEW250 01/M03 A2957 RMK CI0 SLP038

CYQR;2010-01-13 11:00;CYQR 131100Z 25011KT 15SM SCT250 00/M03 A2958 RMK CI0 SLP041

CYQR;2010-01-13 12:00;CYQR 131200Z 25011KT 15SM FEW250 00/M03 A2959 RMK CI0 SLP048

CYQR;2010-01-13 13:00;CYQR 131300Z 27009KT 15SM FEW250 M01/M03 A2962 RMK CI0 SLP055

CYQR;2010-01-13 14:00;CYQR 131400Z 28012KT 15SM SCT250 M01/M04 A2963 RMK CI1 SLP058

CYQR;2010-01-13 15:00;CYQR 131500Z 30011KT 15SM FEW140 BKN250 M03/M05 A2965 RMK AC2CI1 SLP072

CYQR;2010-01-13 16:00;CYQR 131600Z 29009KT 15SM FEW140 BKN250 M04/M05 A2968 RMK AC2CI1 SLP080

CYQR;2010-01-13 17:00;CYQR 131700Z 32015KT 15SM FEW140 BKN250 M02/M04 A2972 RMK AC1CI2 SLP095

CYQR;2010-01-13 18:00;CYQR 131800Z 30014KT 15SM FEW120 BKN250 M02/M05 A2974 RMK AC1CI1 SLP105

CYQR;2010-01-13 19:00;CYQR 131900Z 29012KT 15SM FEW120 BKN250 M02/M04 A2974 RMK AC1CI1 SLP106

CYQR;2010-01-13 20:00;CYQR 132000Z 01026KT 15SM FEW120 SCT250 M01/M04 A2974 RMK AC1CI0 SLP106

CYQR;2010-01-13 21:00;CYQR 132100Z 31013KT 15SM FEW120 SCT250 00/M02 A2975 RMK AC1CI0 SLP099

CYQR;2010-01-13 22:00;CYQR 132200Z 29012KT 15SM FEW120 SCT250 M00/M03 A2978 RMK AC1CI1 TR AC SLP108

CYQR;2010-01-13 23:00;CYQR 132300Z 30009KT 15SM FEW120 FEW250 M01/M04 A2980 RMK AC1CI0 SLP116

CYQR;2010-01-14 00:00;CYQR 140000Z 28007KT 15SM FEW120 FEW250 M04/M06 A2983 RMK AC1CI0 SLP130

CYQR;2010-01-14 01:00;CYQR 140100Z 28011KT 15SM FEW250 M06/M08 A2985 RMK CI0 SLP138

CYQR;2010-01-14 02:00;CYQR 140200Z 29011KT 15SM SKC M07/M08 A2987 RMK SLP145

CYQR;2010-01-14 03:00;CYQR 140300Z 31008KT 15SM SKC M08/M10 A2989 RMK SLP157

CYQR;2010-01-14 04:00;CYQR 140400Z 32005KT 8SM R13/2800V4500FT/N FEW005 M09/M11 A2990 RMK SF0 VIS SW 4 FG DVLPG SLP161

CYQR;2010-01-14 04:15;CYQR 140415Z 31004KT 4SM R13/2000FT/N BR SCT001 M09/ RMK SF0 VIS S-NW 1

CYQR;2010-01-14 04:23;CYQR 140423Z 29005KT 1/2SM R13/3500VP6000FT/N FZFG SCT001 M10/ RMK FG2SF0 VIS N-W 3

CYQR;2010-01-14 05:00;CYQR 140500Z 29007KT 1/2SM R13/2000FT/N FZFG VV000 M11/M12 A2992 RMK FG8 SLP168

CYQR;2010-01-14 05:14;CYQR 140514Z 33009KT 1/4SM R13/1400V1800FT/N FZFG VV003 M09/ RMK FG8

CYQR;2010-01-14 06:00;CYQR 140600Z 35008KT 1/4SM R13/1200FT/N FZFG OVC004 M08/M09 A2994 RMK FG6SF2 SLP175

CYQR;2010-01-14 06:18;CYQR 140618Z 35006KT 3/8SM R13/1800FT/N FZFG OVC004 M07/ RMK FG6SF2 VIS VRB 1/4-1/2

CYQR;2010-01-14 06:34;CYQR 140634Z 01008KT 5/8SM R13/3000FT/N BR BKN004 M08/ RMK FG5SF2 VIS VRB 1/2-3/4

CYQR;2010-01-14 07:00;CYQR 140700Z 01007KT 3/4SM R13/4500FT/N BR BKN006 M08/M09 A2994 RMK FG3SF2 SLP176

CYQR;2010-01-14 08:00;CYQR 140800Z 03004KT 2 1/2SM BR BKN006 M08/M09 A2994 RMK SF4 SLP174

CYQR;2010-01-14 08:21;CYQR 140821Z 05004KT 5SM IC FEW009 RMK SF1

CYQR;2010-01-14 08:55;CYQR 140855Z 28005KT 5SM R13/2400V4000FT/D BR FEW009 M10/ RMK SF1 FG DVLPG RPDLY

CYQR;2010-01-14 09:00;CYQR 140900Z 28006KT 1/2SM R13/2600V4000FT/N FZFG SKC M10/M12 A2996 RMK FG6 SLP182

CYQR;2010-01-14 10:00;CYQR 141000Z 32004KT 1/4SM R13/1600FT/N FZFG BKN006 M10/M12 A2998 RMK FG6SF1 SLP188

CYQR;2010-01-14 11:00;CYQR 141100Z 25002KT 3/8SM R13/1600FT/N FZFG BKN006 M12/M13 A2999 RMK FG6SF1 SLP191

CYQR;2010-01-14 11:26;CYQR 141126Z 07002KT 5/8SM R13/2400V4000FT/U BR BKN007 M13/ RMK FG3SF0 VIS VRB 1/2-3/4

CYQR;2010-01-14 11:42;CYQR 141142Z 07004KT 6SM R13/3000FT/N BR FEW007 M13/ RMK FG1SF1 FG W SIDE OF ARPT

CYQR;2010-01-14 12:00;CYQR 141200Z 12002KT 8SM FEW009 M12/M13 A2999 RMK SF1 BR SLP194

CYQR;2010-01-14 13:00;CYQR 141300Z 13005KT 8SM BKN009 M13/M14 A2999 RMK SF4 BR SLP196

CYQR;2010-01-14 13:18;CYQR 141318Z 14004KT 8SM BKN001 M13/ RMK SF7

CYQR;2010-01-14 14:00;CYQR 141400Z 14005KT 4SM BR BKN001 M13/M14 A2999 RMK SF5 SLP197

CYQR;2010-01-14 14:30;CYQR 141430Z 14006KT 4SM BR FEW004 FEW028 M13/ RMK SF1SC1

CYQR;2010-01-14 15:00;CYQR 141500Z 13005KT 3SM BR SCT002 BKN028 M13/M15 A2999 RMK SF2SC1 SLP201

CYQR;2010-01-14 15:16;CYQR 141516Z 13005KT 4SM BR BKN002 BKN028 M13/ RMK SF5SC2

CYQR;2010-01-14 15:48;CYQR 141548Z 12007KT 1SM R13/P6000FT/N BR BKN001 OVC028 M12/ RMK SF6SC2 VIS NW 3

CYQR;2010-01-14 16:00;CYQR 141600Z 12006KT 3/4SM R13/3500VP6000FT/D BR BKN001 OVC028 M11/M12 A2999 RMK FG1SF5SC2 SLP200

CYQR;2010-01-14 16:06;CYQR 141606Z 12007KT 1/2SM R13/3500FT/N FZFG BKN001 OVC029 M11/ RMK FG2SF6SC1

CYQR;2010-01-14 16:41;CYQR 141641Z 13007KT 3SM R13/4000VP6000FT/U BR BKN001 BKN030 BKN086 M11/ RMK SF5SC1AC1 VIS S-SE 2

CYQR;2010-01-14 17:00;CYQR 141700Z 13009KT 4SM BR BKN002 BKN086 BKN250 M11/M12 A2999 RMK SF3AC2CI0 VIS S-SE 2 SLP198

CYQR;2010-01-14 18:00;CYQR 141800Z 14007KT 6SM BR FEW002 FEW080 BKN250 M09/M10 A2998 RMK SF1AC1CI1 SLP193

CYQR;2010-01-14 19:00;CYQR 141900Z 14008KT 10SM FEW002 BKN080 OVC250 M08/M09 A2996 RMK SF1AC6CI1 SLP187

CYQR;2010-01-14 20:00;CYQR 142000Z 14008KT 15SM FEW070 BKN090 OVC250 M07/M08 A2993 RMK AC2AC3CI2 SLP177

CYQR;2010-01-14 21:00;CYQR 142100Z 15008KT 15SM FEW070 BKN095 OVC250 M06/M07 A2992 RMK AC2AC4CI2 SLP172

CYQR;2010-01-14 22:00;CYQR 142200Z 14007KT 15SM BKN080 OVC250 M05/M06 A2992 RMK AC6CI1 SLP172

CYQR;2010-01-14 23:00;CYQR 142300Z 14007KT 15SM BKN090 BKN250 M05/M07 A2991 RMK AC5CI1 SLP170

CYQR;2010-01-15 00:00;CYQR 150000Z 14008KT 15SM BKN079 BKN250 M05/M07 A2991 RMK AC5CI1 SLP168

CYQR;2010-01-15 01:00;CYQR 150100Z 15006KT 15SM BKN080 BKN250 M05/M07 A2990 RMK AC6CI1 SLP166

CYQR;2010-01-15 02:00;CYQR 150200Z 18006KT 15SM FEW250 M05/M08 A2989 RMK CI0 SLP164

CYQR;2010-01-15 03:00;CYQR 150300Z 25005KT 15SM SCT250 M06/M09 A2990 RMK CI0 SLP167

CYQR;2010-01-15 04:00;CYQR 150400Z 25009KT 15SM FEW250 M05/M07 A2989 RMK CI0 SLP164

CYQR;2010-01-15 05:00;CYQR 150500Z 26012KT 15SM SKC M05/M07 A2989 RMK SLP164

CYQR;2010-01-15 06:00;CYQR 150600Z 25009KT 15SM SKC M06/M08 A2987 RMK SLP154

CYQR;2010-01-15 07:00;CYQR 150700Z 25009KT 15SM BKN250 M07/M09 A2986 RMK CI0 SLP152

CYQR;2010-01-15 08:00;CYQR 150800Z 21005KT 15SM FEW250 M07/M09 A2985 RMK CI0 SLP147

CYQR;2010-01-15 09:00;CYQR 150900Z 26012KT 15SM BKN250 M06/M08 A2987 RMK CI0 SLP151

CYQR;2010-01-15 10:00;CYQR 151000Z 25012KT 15SM BKN120 M03/M06 A2985 RMK AC7 SLP146

CYQR;2010-01-15 11:00;CYQR 151100Z 23008KT 15SM BKN120 M03/M06 A2985 RMK AC6 SLP146

CYQR;2010-01-15 12:00;CYQR 151200Z 21006KT 15SM FEW120 BKN250 M05/M07 A2983 RMK AC2CI0 SLP137

CYQR;2010-01-15 13:00;CYQR 151300Z 21008KT 15SM SCT250 M03/M06 A2981 RMK CI2 SLP131

CYQR;2010-01-15 14:00;CYQR 151400Z 23008KT 15SM FEW120 SCT250 M04/M07 A2980 RMK AC2CI0 SLP126

CYQR;2010-01-15 15:00;CYQR 151500Z 24014KT 15SM FEW120 BKN250 M01/M04 A2979 RMK AC2CI1 SLP121

CYQR;2010-01-15 16:00;CYQR 151600Z 20006KT 15SM FEW120 BKN250 M04/M07 A2978 RMK AC1CI4 SLP118

CYQR;2010-01-15 17:00;CYQR 151700Z 22005KT 15SM FEW120 BKN250 M01/M05 A2978 RMK AC1CI4 SLP118

CYQR;2010-01-15 18:00;CYQR 151800Z 24014KT 15SM FEW120 BKN250 01/M03 A2973 RMK AC1CI4 SLP099

CYQR;2010-01-15 19:00;CYQR 151900Z 25014KT 15SM BKN250 01/M02 A2970 RMK CI5 SLP089

CYQR;2010-01-15 20:00;CYQR 152000Z 24012KT 15SM BKN250 02/M02 A2968 RMK CI2 SLP083

CYQR;2010-01-15 21:00;CYQR 152100Z 25013KT 15SM FEW120 BKN250 02/M02 A2967 RMK AC2CI4 SLP077

CYQR;2010-01-15 22:00;CYQR 152200Z 25014KT 15SM SCT120 OVC250 02/M02 A2965 RMK AC3CI4 SLP070

CYQR;2010-01-15 23:00;CYQR 152300Z 21005KT 15SM SCT120 OVC250 M00/M03 A2964 RMK AC3CI4 SLP068

CYQR;2010-01-16 00:00;CYQR 160000Z 22007KT 15SM FEW120 BKN250 M01/M04 A2962 RMK AC2CI4 SLP060

CYQR;2010-01-16 01:00;CYQR 160100Z 23011KT 15SM FEW120 BKN250 M01/M04 A2959 RMK AC2CI4 SLP053

CYQR;2010-01-16 02:00;CYQR 160200Z 21008KT 15SM SCT120 OVC250 M01/M04 A2957 RMK AC3CI5 SLP046

CYQR;2010-01-16 03:00;CYQR 160300Z 20011KT 15SM OVC140 M01/M04 A2954 RMK AC8 SLP032

CYQR;2010-01-16 04:00;CYQR 160400Z 18007KT 15SM OVC140 M01/M04 A2951 RMK AC8 SLP021

CYQR;2010-01-16 05:00;CYQR 160500Z 20006KT 15SM BKN140 M01/M04 A2950 RMK AC6 SLP017

CYQR;2010-01-16 06:00;CYQR 160600Z 22013KT 15SM BKN140 01/M03 A2949 RMK AC7 SLP010

CYQR;2010-01-16 07:00;CYQR 160700Z 23017KT 15SM OVC140 02/M02 A2947 RMK AC8 SLP005

CYQR;2010-01-16 08:00;CYQR 160800Z 24019KT 15SM OVC140 03/M01 A2947 RMK AC8 SLP004

CYQR;2010-01-16 09:00;CYQR 160900Z 24015KT 15SM OVC140 04/M01 A2947 RMK AC8 SLP000

CYQR;2010-01-16 10:00;CYQR 161000Z 25022KT 15SM BKN140 03/M01 A2947 RMK AC6 SLP001

CYQR;2010-01-16 11:00;CYQR 161100Z 27016KT 15SM BKN140 02/M02 A2948 RMK AC5 SLP004

CYQR;2010-01-16 12:00;CYQR 161200Z 27021KT 15SM FEW140 02/M02 A2948 RMK AC2 SLP008

CYQR;2010-01-16 13:00;CYQR 161300Z 28020KT 15SM FEW140 SCT250 02/M02 A2951 RMK AC1CI1 SLP018

CYQR;2010-01-16 14:00;CYQR 161400Z 28016KT 15SM FEW140 SCT250 01/M02 A2955 RMK AC1CI2 SLP029

CYQR;2010-01-16 15:00;CYQR 161500Z 30015KT 15SM FEW140 BKN250 M00/M03 A2957 RMK AC1CI2 CONTRAILS SLP041

CYQR;2010-01-16 16:00;CYQR 161600Z 31009KT 15SM FEW080 FEW140 BKN250 M01/M03 A2962 RMK AC1AC2CI2 SLP056

CYQR;2010-01-16 17:00;CYQR 161700Z 31018KT 15SM FEW140 FEW250 00/M03 A2965 RMK AC1CI1 SLP066

CYQR;2010-01-16 18:00;CYQR 161800Z 31015KT 15SM FEW140 FEW250 01/M02 A2967 RMK AC1CI1 SLP074

CYQR;2010-01-16 19:00;CYQR 161900Z 30011KT 15SM FEW250 01/M03 A2968 RMK CI1 SLP076

CYQR;2010-01-16 20:00;CYQR 162000Z 28012KT 15SM FEW250 01/M03 A2968 RMK CI1 SLP075

CYQR;2010-01-16 21:00;CYQR 162100Z 29020G25KT 15SM FEW200 FEW250 01/M03 A2967 RMK CC1CI1 SLP072

CYQR;2010-01-16 22:00;CYQR 162200Z 29020KT 15SM FEW140 FEW200 SCT250 01/M03 A2970 RMK AC1CI1CI1 TR AC SLP081

CYQR;2010-01-16 23:00;CYQR 162300Z 30018KT 15SM FEW083 FEW140 SCT250 M00/M04 A2971 RMK AC1AC1CI2 SLP084

CYQR;2010-01-17 00:00;CYQR 170000Z 30011KT 15SM FEW081 FEW140 FEW250 M01/M05 A2974 RMK AC1AC1CI1 SLP098

CYQR;2010-01-17 01:00;CYQR 170100Z 31012KT 15SM FEW030 BKN140 M01/M05 A2977 RMK SC1AC6 SLP107

CYQR;2010-01-17 02:00;CYQR 170200Z 28012KT 15SM BKN023 OVC140 M01/M04 A2979 RMK SC6AC2 SLP112

CYQR;2010-01-17 03:00;CYQR 170300Z 29012KT 15SM OVC023 M02/M04 A2979 RMK SC8 SLP116

CYQR;2010-01-17 04:00;CYQR 170400Z 28011KT 15SM OVC023 M02/M05 A2981 RMK SC8 SLP122

CYQR;2010-01-17 05:00;CYQR 170500Z 28009KT 15SM OVC023 M03/M06 A2982 RMK SC8 SLP125

CYQR;2010-01-17 06:00;CYQR 170600Z 29013KT 15SM OVC023 M04/M06 A2984 RMK SC8 SLP133

CYQR;2010-01-17 07:00;CYQR 170700Z 29012KT 15SM SCT023 M05/M07 A2985 RMK SC3 SLP139

CYQR;2010-01-17 08:00;CYQR 170800Z 29014KT 15SM SKC M07/M09 A2985 RMK SLP139

CYQR;2010-01-17 09:00;CYQR 170900Z 28012KT 15SM SKC M08/M10 A2987 RMK SLP147

CYQR;2010-01-17 10:00;CYQR 171000Z 29014KT 15SM SKC M09/M11 A2987 RMK SLP149

CYQR;2010-01-17 11:00;CYQR 171100Z 31010KT 15SM SKC M11/M13 A2988 RMK SLP152

CYQR;2010-01-17 12:00;CYQR 171200Z 31006KT 15SM SKC M13/M15 A2989 RMK SLP161

CYQR;2010-01-17 13:00;CYQR 171300Z 32007KT 15SM SKC M13/M14 A2990 RMK SLP164

CYQR;2010-01-17 14:00;CYQR 171400Z 35002KT 15SM SKC M13/M14 A2989 RMK SLP161

CYQR;2010-01-17 15:00;CYQR 171500Z 26006KT 15SM FEW100 M15/M17 A2990 RMK AC1 SLP166

CYQR;2010-01-17 16:00;CYQR 171600Z 25005KT 12SM BCFG FEW010 FEW100 M14/M16 A2990 RMK ST1AC1 VIS SW-W 5 SLP167

CYQR;2010-01-17 17:00;CYQR 171700Z 17003KT 12SM FEW010 FEW100 M13/M14 A2991 RMK ST1AC1 SLP170

CYQR;2010-01-17 18:00;CYQR 171800Z 18003KT 15SM FEW100 FEW250 M10/M12 A2990 RMK AC1CI1 SLP164

CYQR;2010-01-17 19:00;CYQR 171900Z 17005KT 15SM FEW250 M10/M12 A2989 RMK CI1 SLP158

CYQR;2010-01-17 20:00;CYQR 172000Z 15004KT 15SM FEW100 SCT250 M09/M12 A2988 RMK AC1CI2 SLP156

CYQR;2010-01-17 21:00;CYQR 172100Z 14008KT 15SM FEW100 FEW250 M06/M10 A2987 RMK AC1CI1 TR AC SLP153

CYQR;2010-01-17 22:00;CYQR 172200Z 12008KT 15SM FEW010 FEW100 FEW250 M08/M10 A2987 RMK ST1AC1CI1 SLP152

CYQR;2010-01-17 23:00;CYQR 172300Z 13010KT 15SM FEW010 FEW100 FEW250 M10/M12 A2987 RMK ST1AC1CI1 SLP153

CYQR;2010-01-18 00:00;CYQR 180000Z 14011KT 15SM FEW100 FEW250 M11/M13 A2987 RMK AC1CI1 SLP160

CYQR;2010-01-18 01:00;CYQR 180100Z 13010KT 15SM SKC M12/M14 A2986 RMK SLP157

CYQR;2010-01-18 02:00;CYQR 180200Z 13013KT 15SM SKC M12/M14 A2984 RMK SLP151

CYQR;2010-01-18 03:00;CYQR 180300Z 13011KT 15SM FEW005 M12/M14 A2985 RMK SF1 TR SF SLP156

CYQR;2010-01-18 04:00;CYQR 180400Z 12012KT 15SM FEW005 M12/M14 A2983 RMK SF1 TR SF SLP148

CYQR;2010-01-18 05:00;CYQR 180500Z 13011KT 10SM FEW005 M12/M14 A2983 RMK SF1 TR SF SLP148

CYQR;2010-01-18 06:00;CYQR 180600Z 13012KT 15SM FEW005 M12/M14 A2982 RMK SF1 TR SF SLP142

CYQR;2010-01-18 07:00;CYQR 180700Z 12012KT 15SM FEW005 M12/M13 A2980 RMK SF1 SLP137

CYQR;2010-01-18 08:00;CYQR 180800Z 12012KT 15SM SKC M12/M14 A2979 RMK SLP133

CYQR;2010-01-18 09:00;CYQR 180900Z 12013KT 15SM SKC M11/M13 A2978 RMK SLP124

CYQR;2010-01-18 10:00;CYQR 181000Z 13016KT 15SM SKC M11/M13 A2976 RMK SLP120

CYQR;2010-01-18 11:00;CYQR 181100Z 13017KT 15SM SKC M10/M12 A2974 RMK SLP112

CYQR;2010-01-18 13:00;CYQR 181300Z 14019KT 15SM SCT320 M09/M12 A2974 RMK CI1 SLP111

CYQR;2010-01-18 14:00;CYQR 181400Z 13020KT 15SM FEW092 BKN320 M09/M12 A2972 RMK AC2CI2 SLP107

CYQR;2010-01-18 15:00;CYQR 181500Z 14019KT 15SM SCT095 BKN120 M08/M12 A2973 RMK AC4AC1 SLP109

CYQR;2010-01-18 16:00;CYQR 181600Z 14020G25KT 15SM DRSN FEW200 BKN310 M08/M12 A2973 RMK CI2CI3 SLP109

CYQR;2010-01-18 17:00;CYQR 181700Z 15019G24KT 15SM DRSN FEW200 BKN310 M09/M11 A2973 RMK CI2CI3 SLP109

CYQR;2010-01-18 18:00;CYQR 181800Z 14019G24KT 15SM DRSN FEW200 OVC300 M08/M11 A2972 RMK CI2CI5 SLP105

CYQR;2010-01-18 19:00;CYQR 181900Z 14020G25KT 15SM DRSN SCT200 OVC300 M07/M09 A2969 RMK CI3CI4 SLP097

CYQR;2010-01-18 20:00;CYQR 182000Z CCA 15019G28KT 15SM DRSN SCT200 OVC300 M05/M08 A2967 RMK CI3CI4 SLP088

CYQR;2010-01-18 21:00;CYQR 182100Z 15021G27KT 15SM DRSN FEW150 SCT200 OVC300 M04/M07 A2966 RMK AC1CI3CI3 SLP081

CYQR;2010-01-18 22:00;CYQR 182200Z 16014G19KT 15SM DRSN FEW150 SCT200 OVC300 M04/M07 A2968 RMK AC1CI3CI2 SLP089

CYQR;2010-01-18 23:00;CYQR 182300Z 14020G25KT 15SM DRSN FEW150 BKN300 M04/M07 A2965 RMK AC1CI2 SLP079

CYQR;2010-01-19 00:00;CYQR 190000Z 14020G26KT 15SM DRSN FEW150 SCT300 M05/M07 A2965 RMK AC1CI2 SLP079

CYQR;2010-01-19 01:00;CYQR 190100Z 14018KT 15SM DRSN FEW250 M05/M07 A2965 RMK CI1 SLP078

CYQR;2010-01-19 02:00;CYQR 190200Z 14019KT 15SM DRSN SKC M06/M08 A2965 RMK SLP078

CYQR;2010-01-19 03:00;CYQR 190300Z 14018G24KT 15SM DRSN SKC M07/M09 A2964 RMK SLP074

CYQR;2010-01-19 04:00;CYQR 190400Z 15015KT 15SM SKC M07/M10 A2963 RMK SLP071

CYQR;2010-01-19 05:00;CYQR 190500Z 14017KT 15SM SKC M08/M10 A2962 RMK SLP069

CYQR;2010-01-19 06:00;CYQR 190600Z 14016KT 12SM SKC M08/M11 A2961 RMK SLP066

CYQR;2010-01-19 07:00;CYQR 190700Z 14019KT 12SM SKC M08/M10 A2960 RMK SLP063

CYQR;2010-01-19 08:00;CYQR 190800Z 14014G19KT 12SM SKC M09/M11 A2960 RMK SLP061

CYQR;2010-01-19 09:00;CYQR 190900Z 14016KT 12SM OVC140 M09/M11 A2960 RMK AC8 SLP061

CYQR;2010-01-19 10:00;CYQR 191000Z 15015KT 12SM OVC110 M08/M11 A2960 RMK AC8 SLP059

CYQR;2010-01-19 11:00;CYQR 191100Z 14018KT 12SM OVC110 M08/M11 A2958 RMK AC8 SLP054

CYQR;2010-01-19 12:00;CYQR 191200Z 14017KT 12SM OVC110 M09/M12 A2956 RMK AC8 SLP045

CYQR;2010-01-19 12:46;CYQR 191246Z 15014G20KT 10SM -SN BKN077 OVC110 M10/ RMK AC5AC3

CYQR;2010-01-19 13:00;CYQR 191300Z 15019KT 8SM -SN BKN077 OVC110 M10/M12 A2956 RMK AC5AC3 SLP046

CYQR;2010-01-19 13:51;CYQR 191351Z 14020KT 10SM FEW077 BKN110 M10/ RMK AC2AC6 BLSN

CYQR;2010-01-19 14:00;CYQR 191400Z 14020KT 10SM DRSN FEW077 BKN110 M10/M12 A2955 RMK AC2AC6 LCL BLSN SLP043

CYQR;2010-01-19 15:00;CYQR 191500Z 14014G19KT 15SM DRSN FEW090 BKN250 M10/M12 A2956 RMK AC2CI1 SLP050

CYQR;2010-01-19 16:00;CYQR 191600Z 14018KT 12SM FEW090 FEW250 M10/M12 A2956 RMK AC1CI1 SLP049

CYQR;2010-01-19 17:00;CYQR 191700Z 14016KT 15SM FEW090 FEW250 M09/M11 A2957 RMK AC1CI1 SLP051

CYQR;2010-01-19 18:00;CYQR 191800Z 14021KT 15SM FEW300 M09/M11 A2955 RMK CI0 SLP045

CYQR;2010-01-19 19:00;CYQR 191900Z 15018KT 15SM FEW003 FEW300 M08/M10 A2954 RMK SF2CI0 SLP043

CYQR;2010-01-19 20:00;CYQR 192000Z 15015KT 15SM FEW006 BKN300 M07/M09 A2954 RMK SF1CI1 SLP041

CYQR;2010-01-19 21:00;CYQR 192100Z 15016KT 15SM BKN006 BKN300 M06/M09 A2953 RMK SF5CI0 SLP035

CYQR;2010-01-19 21:48;CYQR 192148Z 14014KT 15SM SCT007 BKN090 OVC300 M07/ RMK SF3AC2CI2

CYQR;2010-01-19 22:00;CYQR 192200Z 14012KT 15SM FEW007 BKN090 OVC300 M07/M09 A2953 RMK SF2AC2CI2 SLP037

CYQR;2010-01-19 22:48;CYQR 192248Z 15014KT 15SM BKN006 OVC090 M07/ RMK SF6AC2

CYQR;2010-01-19 23:00;CYQR 192300Z 15015KT 15SM BKN005 OVC071 M07/M08 A2953 RMK SF7AC1 SLP037

CYQR;2010-01-20 00:00;CYQR 200000Z 15014KT 8SM BKN007 BKN071 BKN300 M07/M09 A2954 RMK SF6AC1CI0 SLP040

CYQR;2010-01-20 00:40;CYQR 200040Z 14016KT 10SM SCT007 BKN028 BKN075 OVC300 M07/ RMK SF3SC2AC1CI1

CYQR;2010-01-20 01:00;CYQR 200100Z 15014G19KT 10SM SCT009 BKN030 BKN080 BKN300 M07/M09 A2953 RMK SF3SC2AC1CI0 SLP038

CYQR;2010-01-20 01:08;CYQR 200108Z 15014KT 10SM BKN006 OVC080 M07/ RMK SC6AC2

CYQR;2010-01-20 02:00;CYQR 200200Z 15014KT 10SM OVC006 M07/M09 A2954 RMK SC8 SLP042

CYQR;2010-01-20 03:00;CYQR 200300Z 15014KT 6SM -SN OVC003 M06/M08 A2954 RMK SC8 SLP041

CYQR;2010-01-20 04:00;CYQR 200400Z 15013KT 3SM -SN OVC004 M06/M07 A2952 RMK SC8 SLP035

CYQR;2010-01-20 05:00;CYQR 200500Z 16013KT 3SM -SN OVC004 M06/M08 A2952 RMK SC8 SLP034

CYQR;2010-01-20 06:00;CYQR 200600Z 15015KT 3SM -SN OVC004 M07/M08 A2951 RMK SC8 SLP029

CYQR;2010-01-20 07:00;CYQR 200700Z 14014KT 3SM -SN OVC006 M07/M09 A2951 RMK SC8 SLP030

CYQR;2010-01-20 07:52;CYQR 200752Z 15013G21KT 8SM OVC006 M07/ RMK SC8

CYQR;2010-01-20 08:00;CYQR 200800Z 15013G21KT 8SM OVC006 M07/M09 A2951 RMK SC8 SLP031

CYQR;2010-01-20 09:00;CYQR 200900Z 14014KT 8SM OVC005 M07/M09 A2951 RMK SC8 SLP029

CYQR;2010-01-20 10:00;CYQR 201000Z 14014KT 8SM BKN005 OVC027 M08/M10 A2952 RMK SC6SC2 SLP031

CYQR;2010-01-20 11:00;CYQR 201100Z 14015KT 8SM OVC004 M09/M10 A2952 RMK SC8 SLP032

CYQR;2010-01-20 12:00;CYQR 201200Z 14014KT 10SM FEW004 BKN027 BKN210 M09/M11 A2952 RMK SC2SC4CI0 SLP035

CYQR;2010-01-20 13:00;CYQR 201300Z 14013KT 8SM SCT027 BKN210 M09/M11 A2953 RMK SC3CI1 SLP036

CYQR;2010-01-20 13:48;CYQR 201348Z 14011KT 10SM BKN003 M09/ RMK SF6

CYQR;2010-01-20 14:00;CYQR 201400Z 14011KT 10SM BKN003 M09/M11 A2953 RMK SF5 SLP037

CYQR;2010-01-20 14:17;CYQR 201417Z 14011KT 2SM BR OVC004 M09/ RMK SF7

CYQR;2010-01-20 14:39;CYQR 201439Z 15013KT 1 1/2SM BR OVC003 M08/ RMK SF8

CYQR;2010-01-20 15:00;CYQR 201500Z 15013KT 2SM BR OVC005 M08/M10 A2954 RMK SF8 SLP039

CYQR;2010-01-20 16:00;CYQR 201600Z 15012G17KT 6SM BR BKN005 M09/M11 A2955 RMK SF6 SLP043

CYQR;2010-01-20 16:21;CYQR 201621Z CCA 15012KT 6SM -SN DRSN BR BKN005 M09/ RMK SF6

CYQR;2010-01-20 16:36;CYQR 201636Z 15013KT 10SM VCSH BKN005 BKN030 M09/ RMK SF6SC1 VIS E 3

CYQR;2010-01-20 16:51;CYQR 201651Z 15013KT 5SM BR OVC006 M09/ RMK SF8

CYQR;2010-01-20 17:00;CYQR 201700Z 15012KT 7SM BKN006 BKN040 M08/M10 A2956 RMK SF5SC1 SLP047

CYQR;2010-01-20 18:00;CYQR 201800Z 15014KT 10SM BKN008 OVC097 M08/M10 A2957 RMK SF6AC1 SLP050

CYQR;2010-01-20 19:00;CYQR 201900Z 15014KT 3SM BR OVC004 M07/M09 A2956 RMK ST8 SLP048

CYQR;2010-01-20 19:32;CYQR 201932Z 14013KT 2 1/2SM BR OVC003 M07/ RMK ST8

CYQR;2010-01-20 20:00;CYQR 202000Z 14013KT 2 1/2SM BR OVC004 M06/M08 A2955 RMK ST8 SLP043

CYQR;2010-01-20 20:34;CYQR 202034Z 14014G19KT 2 1/2SM BR OVC006 M06/ RMK ST8

CYQR;2010-01-20 21:00;CYQR 202100Z 13013KT 2 1/2SM BR OVC006 M06/M07 A2954 RMK ST8 SLP039

CYQR;2010-01-20 21:43;CYQR 202143Z 13015KT 3SM BR OVC006 M05/ RMK ST8 VIS VRB 2-4

CYQR;2010-01-20 22:00;CYQR 202200Z 14011KT 3SM BR OVC006 M05/M07 A2955 RMK ST8 VIS VRB 2-4 SLP041

CYQR;2010-01-20 23:00;CYQR 202300Z 14014KT 4SM BR OVC005 M05/M07 A2956 RMK ST8 SLP044

CYQR;2010-01-20 23:29;CYQR 202329Z 15011KT 2SM BR OVC005 M05/ RMK ST8

CYQR;2010-01-20 23:46;CYQR 202346Z 14011KT 1 1/2SM BR OVC004 M05/ RMK ST8

CYQR;2010-01-21 00:00;CYQR 210000Z 13011KT 1 1/2SM BR OVC004 M05/M06 A2957 RMK ST8 SLP049

CYQR;2010-01-21 01:00;CYQR 210100Z 14012KT 4SM BR OVC004 M04/M06 A2957 RMK ST8 SLP051

CYQR;2010-01-21 01:32;CYQR 210132Z 13012KT 2SM BR OVC003 M04/ RMK ST8

CYQR;2010-01-21 01:51;CYQR 210151Z 13012KT 1SM R13/P6000FT/U BR OVC002 M04/ RMK ST8

CYQR;2010-01-21 02:00;CYQR 210200Z 13012KT 1SM R13/P6000FT/U BR OVC002 M04/M05 A2957 RMK ST8 SLP049

CYQR;2010-01-21 02:34;CYQR 210234Z 13013KT 1/2SM R13/P6000FT/D FZFG OVC001 M04/ RMK ST8

CYQR;2010-01-21 03:00;CYQR 210300Z 13012KT 1/2SM R13/P6000FT/U FZFG VV001 M04/M05 A2957 RMK FG8 SLP047

CYQR;2010-01-21 03:29;CYQR 210329Z 13011KT 1SM R13/P6000FT/D BR OVC002 M04/ RMK ST8

CYQR;2010-01-21 04:00;CYQR 210400Z 13013G18KT 1SM R13/P6000FT/N BR OVC002 M03/M05 A2957 RMK ST8 SLP047

CYQR;2010-01-21 04:44;CYQR 210444Z 13013KT 1SM R13/P6000FT/D -FZDZ BR OVC002 M03/ RMK ST8

CYQR;2010-01-21 05:00;CYQR 210500Z 13012KT 1SM R13/P6000FT/U -FZDZ BR OVC002 M03/M04 A2957 RMK ST8 FROIN SLP048

CYQR;2010-01-21 05:21;CYQR 210521Z 13012KT 3/4SM R13/P6000FT/D -FZDZ BR OVC002 M03/ RMK ST8

CYQR;2010-01-21 06:00;CYQR 210600Z 13013KT 3/4SM R13/P6000FT/U -FZDZ BR OVC002 M03/M04 A2957 RMK ST8 SLP048

CYQR;2010-01-21 07:00;CYQR 210700Z CCA 13016KT 3/4SM R13/P6000FT/U -FZDZ BR OVC003 M03/M04 A2957 RMK ST8 FROIN SLP046

CYQR;2010-01-21 08:00;CYQR 210800Z 12014G20KT 1SM R13/P6000FT/N -FZDZ BR OVC004 M04/M05 A2956 RMK ST8 SLP044

CYQR;2010-01-21 08:22;CYQR 210822Z 13015KT 3SM -FZDZ BR OVC006 M04/ RMK ST8 FROIN

CYQR;2010-01-21 09:00;CYQR 210900Z 12016KT 3SM -FZDZ BR OVC006 M04/M06 A2956 RMK ST8 SLP044

CYQR;2010-01-21 09:51;CYQR 210951Z 13016G21KT 3SM -SN BR OVC010 M05/ RMK ST8

CYQR;2010-01-21 10:00;CYQR 211000Z 13017KT 3SM -SN BR OVC010 M05/M07 A2957 REFZDZ RMK SC8 SLP048

CYQR;2010-01-21 11:00;CYQR 211100Z 13014G19KT 3SM -SN BR SCT008 OVC014 M05/M07 A2958 RMK SC3SC5 SLP049

CYQR;2010-01-21 12:00;CYQR 211200Z 13016KT 3SM -SN BR SCT014 OVC021 M06/M08 A2955 RMK SC3SC5 SLP042

CYQR;2010-01-21 13:00;CYQR 211300Z 13014G20KT 3SM -SN BR OVC022 M06/M08 A2956 RMK SC8 SLP045

CYQR;2010-01-21 14:00;CYQR 211400Z 13014KT 3SM -SN BR OVC020 M06/M08 A2956 RMK SC8 SLP044

CYQR;2010-01-21 14:32;CYQR 211432Z 13015KT 4SM BR SCT012 OVC020 M06/ RMK SC3SC5

CYQR;2010-01-21 14:46;CYQR 211446Z CCA 14017KT 5SM DRSN BR BKN010 OVC018 M06/ RMK ST6SC2

CYQR;2010-01-21 15:00;CYQR 211500Z 14019KT 5SM BR BKN010 OVC018 M06/M08 A2959 RMK ST7SC1 SLP054

CYQR;2010-01-21 15:37;CYQR 211537Z 13016KT 3SM BR OVC007 M06/ RMK ST8

CYQR;2010-01-21 16:00;CYQR 211600Z 13015KT 5SM BR OVC007 M06/M08 A2960 RMK ST8 SLP056

CYQR;2010-01-21 17:00;CYQR 211700Z 14016KT 1 3/4SM BR OVC004 M06/M07 A2960 RMK ST8 VIS VRB 11/2-2 SLP057

CYQR;2010-01-21 17:23;CYQR 211723Z 14014KT 1SM R13/P6000FT/D BR OVC003 M06/ RMK ST8 VIS VRB 3/4-11/4

CYQR;2010-01-21 18:00;CYQR 211800Z 13014KT 1SM R13/6000FT/D BR OVC003 M05/M07 A2959 RMK ST8 VIS VRB 3/4-11/4 SLP053

CYQR;2010-01-21 19:00;CYQR 211900Z 14016KT 1SM R13/P6000FT/N BR OVC003 M05/M06 A2957 RMK ST8 VIS VRB 3/4-11/4 SLP045

CYQR;2010-01-21 19:09;CYQR 211909Z 13014KT 1 1/2SM BR OVC003 M04/ RMK ST8 VIS VRB 1-2

CYQR;2010-01-21 20:00;CYQR 212000Z 14015KT 2SM BR OVC004 M04/M05 A2956 RMK ST8 VIS VRB 11/2-21/2 SLP042

CYQR;2010-01-21 21:00;CYQR 212100Z 13015KT 2 1/2SM BR OVC004 M04/M05 A2956 RMK ST8 SLP042

CYQR;2010-01-21 21:27;CYQR 212127Z 14016KT 6SM BR OVC007 M04/ RMK ST8

CYQR;2010-01-21 22:00;CYQR 212200Z 14018KT 4SM BR OVC006 M04/M06 A2958 RMK ST8 SLP047

CYQR;2010-01-21 22:36;CYQR 212236Z 14016KT 4SM -SN BR OVC006 M04/ RMK ST8

CYQR;2010-01-21 23:00;CYQR 212300Z 13019G24KT 3SM DRSN BR OVC005 M04/M05 A2959 RMK ST8 SLP052

CYQR;2010-01-21 23:34;CYQR 212334Z 13018KT 3SM DRSN BR OVC004 M04/ RMK ST8

CYQR;2010-01-22 00:00;CYQR 220000Z 14016KT 4SM -SN BR OVC004 M04/M05 A2960 RMK ST8 SLP058

CYQR;2010-01-22 01:00;CYQR 220100Z 14016G21KT 3SM -SN BR OVC004 M03/M05 A2961 RMK ST8 SLP059

CYQR;2010-01-22 01:29;CYQR 220129Z 13017KT 2SM -SN BR OVC004 M04/ RMK ST8

CYQR;2010-01-22 02:00;CYQR 220200Z 13018G24KT 2SM -SN BR OVC003 M03/M05 A2959 RMK ST8 SLP055

CYQR;2010-01-22 03:00;CYQR 220300Z 14018G25KT 4SM -SN BR OVC005 M03/M05 A2960 RMK ST8 SLP056

CYQR;2010-01-22 04:00;CYQR 220400Z 15017G25KT 6SM -SN OVC006 M04/M05 A2960 RMK ST8 SLP058

CYQR;2010-01-22 05:00;CYQR 220500Z 14018KT 6SM -SN OVC005 M04/M05 A2959 RMK ST8 SLP055

CYQR;2010-01-22 06:00;CYQR 220600Z 14019KT 6SM -SN OVC005 M03/M05 A2959 RMK ST8 SLP053

CYQR;2010-01-22 07:00;CYQR 220700Z 14018KT 6SM -SN OVC005 M03/M05 A2958 RMK ST8 SLP049

CYQR;2010-01-22 07:39;CYQR 220739Z 14016G22KT 8SM OVC006 M04/ RMK ST8

CYQR;2010-01-22 08:00;CYQR 220800Z 14019G25KT 8SM OVC007 M04/M05 A2958 RMK ST8 SLP048

CYQR;2010-01-22 09:00;CYQR 220900Z 13019KT 8SM OVC006 M04/M05 A2957 RMK ST8 SLP045

CYQR;2010-01-22 10:00;CYQR 221000Z 12018KT 3SM BR OVC006 M04/M05 A2957 RMK ST8 SLP045

CYQR;2010-01-22 10:29;CYQR 221029Z 12017KT 3SM -FZDZ BR OVC004 M04/ RMK ST8 FROIN

CYQR;2010-01-22 11:00;CYQR 221100Z 12017KT 3SM -FZDZ BR OVC004 M04/M05 A2957 RMK ST8 SLP046

CYQR;2010-01-22 12:00;CYQR 221200Z 13017KT 3SM -FZDZ BR OVC004 M04/M05 A2957 RMK ST8 FROIN SLP045

CYQR;2010-01-22 13:00;CYQR 221300Z 12014KT 3SM -FZDZ BR OVC004 M04/M05 A2956 RMK ST8 FROIN SLP042

CYQR;2010-01-22 13:45;CYQR 221345Z 11014G19KT 4SM -FZDZ BR OVC003 M04/ RMK ST8

CYQR;2010-01-22 14:00;CYQR 221400Z 11016KT 4SM -FZDZ BR OVC003 M04/M06 A2956 RMK ST8 SLP042

CYQR;2010-01-22 14:37;CYQR 221437Z CCA 11015KT 8SM OVC006 M04/ REFZDZ RMK ST8

CYQR;2010-01-22 15:00;CYQR 221500Z 11016KT 10SM OVC007 M04/M06 A2956 REFZDZ RMK ST8 SLP042

CYQR;2010-01-22 16:00;CYQR 221600Z 13018G24KT 12SM BKN006 OVC026 M04/M06 A2958 RMK ST7SC1 SLP048

CYQR;2010-01-22 17:00;CYQR 221700Z 11013KT 15SM OVC008 M04/M06 A2956 RMK ST8 SLP043

CYQR;2010-01-22 18:00;CYQR 221800Z 11014G20KT 15SM OVC007 M04/M06 A2954 RMK ST8 SLP035

CYQR;2010-01-22 19:00;CYQR 221900Z 12014KT 12SM OVC006 M03/M05 A2954 RMK ST8 SLP033

CYQR;2010-01-22 19:39;CYQR 221939Z 12017KT 4SM BR OVC004 M03/ RMK ST8

CYQR;2010-01-22 20:00;CYQR 222000Z 12014G20KT 4SM BR OVC004 M03/M05 A2951 RMK SC8 SLP026

CYQR;2010-01-22 21:00;CYQR 222100Z 10013G18KT 3SM BR OVC004 M03/M05 A2952 RMK ST8 SLP027

CYQR;2010-01-22 21:39;CYQR 222139Z 10014KT 2SM -FZDZ BR OVC004 M03/ RMK ST8

CYQR;2010-01-22 22:00;CYQR 222200Z 10014KT 3SM -FZDZ BR OVC004 M03/M05 A2953 RMK ST8 SLP030

CYQR;2010-01-22 22:48;CYQR 222248Z 08014KT 4SM -FZDZ BR OVC005 M03/ RMK ST8

CYQR;2010-01-22 23:00;CYQR 222300Z 09014KT 4SM -FZDZ BR OVC005 M03/M05 A2952 RMK ST8 SLP027

CYQR;2010-01-22 23:13;CYQR 222313Z 10013KT 5SM -FZDZ BR OVC006 M03/ RMK ST8

CYQR;2010-01-23 00:00;CYQR 230000Z 10015KT 8SM -FZDZ OVC006 M03/M05 A2952 RMK ST8 SLP028

CYQR;2010-01-23 00:24;CYQR 230024Z 10018G25KT 10SM OVC007 M03/ REFZDZ RMK ST8

CYQR;2010-01-23 00:48;CYQR 230048Z 09015G21KT 12SM -SN OVC005 M04/ RMK ST8

CYQR;2010-01-23 01:00;CYQR 230100Z 09013KT 12SM -SN OVC006 M04/M05 A2953 RMK ST8 SLP030

CYQR;2010-01-23 02:00;CYQR 230200Z 11017KT 12SM -SN OVC008 M04/M06 A2953 RMK ST8 SLP032

CYQR;2010-01-23 03:00;CYQR 230300Z 09015G20KT 8SM -SN OVC007 M04/M06 A2951 RMK ST8 SLP026

CYQR;2010-01-23 03:46;CYQR 230346Z 09012G17KT 2SM -SN OVC008 M04/ RMK SC8

CYQR;2010-01-23 03:56;CYQR 230356Z 08013G19KT 1SM R13/P6000FT/D -SN OVC008 M04/ RMK SC8

CYQR;2010-01-23 04:00;CYQR 230400Z 08014G19KT 1SM R13/P6000FT/D -SN VV009 M04/M06 A2950 RMK SN8 SLP021

CYQR;2010-01-23 05:00;CYQR 230500Z 08014KT 1SM R13/P6000FT/U -SN VV007 M04/M06 A2949 RMK SN8 /S01/ SLP018

CYQR;2010-01-23 06:00;CYQR 230600Z 08015KT 1/2SM R13/P6000FT/U SN VV004 M04/M05 A2948 RMK SN8 /S01/ SLP014

CYQR;2010-01-23 07:00;CYQR 230700Z 07014G19KT 1/2SM R13/P6000FT/U SN DRSN VV005 M04/M05 A2945 RMK SN8 SLP005

CYQR;2010-01-23 08:00;CYQR 230800Z 07016KT 1/2SM R13/P6000FT/D SN DRSN VV005 M03/M05 A2944 RMK SN8 /S02/ SLP000

CYQR;2010-01-23 09:00;CYQR 230900Z 07016G21KT 1/2SM R13/P6000FT/U SN DRSN VV005 M03/M05 A2943 RMK SN8 SLP997

CYQR;2010-01-23 09:31;CYQR 230931Z 07016G21KT 1SM R13/P6000FT/U -SN OVC007 M03/ RMK SC8

CYQR;2010-01-23 10:00;CYQR 231000Z 07016G21KT 1SM R13/P6000FT/N -SN DRSN SCT007 OVC012 M03/M05 A2942 RMK SC3SC5 /S03/ SLP993

CYQR;2010-01-23 10:32;CYQR 231032Z 08013KT 1/2SM R13/P6000FT/D SN DRSN VV005 M03/ RMK SN8

CYQR;2010-01-23 11:00;CYQR 231100Z 07016KT 1/2SM R13/P6000FT/N SN DRSN VV005 M03/M05 A2940 RMK SN8 /S04/ SLP988

CYQR;2010-01-23 11:43;CYQR 231143Z 08015G20KT 1SM R13/P6000FT/N -SN DRSN VV008 M03/ RMK SN8 RESN

CYQR;2010-01-23 12:00;CYQR 231200Z 08014KT 2SM -SN DRSN OVC015 M03/M05 A2941 RESN RMK SN3SC5 SLP989

CYQR;2010-01-23 12:11;CYQR 231211Z 07015KT 8SM -SN DRSN SCT009 OVC015 M03/ RESN RMK SF3SC5

CYQR;2010-01-23 13:00;CYQR 231300Z 07014KT 10SM -SN DRSN FEW015 BKN031 OVC057 M03/M05 A2940 RMK SF2SC2SC3 SLP986

CYQR;2010-01-23 14:00;CYQR 231400Z 07012KT 5SM -SN DRSN OVC021 M03/M05 A2941 RMK SC8 SLP988

CYQR;2010-01-23 14:45;CYQR 231445Z 06010G16KT 6SM -SN DRSN FEW009 OVC021 M03/ RMK SC2SC6

CYQR;2010-01-23 15:00;CYQR 231500Z 05012KT 3SM -SN DRSN BKN009 OVC058 M03/M05 A2941 RMK SC5SC3 SLP988

CYQR;2010-01-23 15:21;CYQR 231521Z 05012KT 3SM -SN DRSN BKN010 OVC059 M03/ RMK SC5SC3

CYQR;2010-01-23 15:40;CYQR 231540Z 05013KT 6SM -SN DRSN OVC012 M03/ RMK SC8

CYQR;2010-01-23 16:00;CYQR 231600Z 05016KT 12SM -SN DRSN BKN017 OVC029 M03/M05 A2941 RMK SC6SC2 SLP988

CYQR;2010-01-23 17:00;CYQR 231700Z 06018KT 15SM -SN DRSN SCT012 OVC019 M03/M05 A2941 RMK SC3SC5 SLP989

CYQR;2010-01-23 18:00;CYQR 231800Z 06013G19KT 15SM -SN DRSN BKN012 OVC048 M03/M05 A2942 RMK SC5SC3 SLP991

CYQR;2010-01-23 19:00;CYQR 231900Z 04008KT 12SM -SN DRSN BKN012 OVC048 M03/M05 A2941 RMK SC6SC2 SLP989

CYQR;2010-01-23 20:00;CYQR 232000Z 02011KT 15SM -SN DRSN BKN012 OVC040 M03/M06 A2940 RMK SC6SC2 SLP986

CYQR;2010-01-23 20:35;CYQR 232035Z 02014KT 15SM DRSN BKN010 OVC040 M03/ RMK SC6SC2

CYQR;2010-01-23 21:00;CYQR 232100Z 02013KT 15SM DRSN OVC010 M03/M06 A2941 RMK SC8 SLP989

CYQR;2010-01-23 22:00;CYQR 232200Z 01014KT 15SM DRSN OVC010 M03/M06 A2943 RMK SC8 SLP995

CYQR;2010-01-23 23:00;CYQR 232300Z 03012KT 15SM -SN DRSN OVC012 M03/M06 A2945 RMK SC8 SLP002

CYQR;2010-01-24 00:00;CYQR 240000Z 03011G16KT 12SM -SN DRSN BKN016 OVC040 M04/M07 A2946 RMK SC5SC3 SLP008

CYQR;2010-01-24 00:45;CYQR 240045Z 35014KT 12SM -SN DRSN BKN008 OVC042 M04/ RMK SC6SC2

CYQR;2010-01-24 01:00;CYQR 240100Z 36013KT 12SM -SN DRSN SCT008 SCT015 OVC042 M04/M07 A2947 RMK SC3SC1SC4 SLP011

CYQR;2010-01-24 02:00;CYQR 240200Z 36014KT 12SM -SN DRSN FEW014 OVC044 M05/M08 A2949 RMK SC2SC6 SLP017

CYQR;2010-01-24 02:16;CYQR 240216Z 36013KT 12SM -SN DRSN FEW009 BKN014 OVC044 M05/ RMK SF2SC3SC3

CYQR;2010-01-24 02:34;CYQR 240234Z 36014G19KT 12SM -SN DRSN BKN008 OVC014 M05/ RMK ST5SC3

CYQR;2010-01-24 03:00;CYQR 240300Z 35015KT 12SM -SN DRSN OVC008 M06/M08 A2949 RMK ST8 SLP020

CYQR;2010-01-24 04:00;CYQR 240400Z 35016KT 12SM -SN DRSN OVC009 M06/M08 A2950 RMK ST8 SLP022

CYQR;2010-01-24 04:39;CYQR 240439Z 35018KT 12SM -SN DRSN FEW009 BKN013 OVC022 M06/ RMK ST2SC3SC2

CYQR;2010-01-24 05:00;CYQR 240500Z 35018KT 12SM -SN DRSN SCT010 OVC027 M06/M08 A2951 RMK SC3SC5 SLP026

CYQR;2010-01-24 06:00;CYQR 240600Z 35017KT 12SM -SN DRSN FEW010 OVC031 M06/M09 A2953 RMK SF2SC6 SLP031

CYQR;2010-01-24 07:00;CYQR 240700Z 35017G22KT 2 1/2SM -SN DRSN BKN014 OVC065 M06/M08 A2953 RMK SC6SC2 SLP033

CYQR;2010-01-24 08:00;CYQR 240800Z 35018KT 1 3/4SM -SN DRSN OVC048 M06/M08 A2954 RMK SC8 VIS VRB 11/2-2 SLP034

CYQR;2010-01-24 09:00;CYQR 240900Z 34018KT 1 1/2SM -SN DRSN OVC013 M06/M08 A2955 RMK SC8 SLP040

CYQR;2010-01-24 09:09;CYQR 240909Z 34018G24KT 1 1/2SM -SN DRSN OVC030 M06/ RMK SC8

CYQR;2010-01-24 09:34;CYQR 240934Z 35022G27KT 1SM R13/P6000FT/D -SN DRSN OVC030 M06/ RMK SN2SC6 /S01/

CYQR;2010-01-24 10:00;CYQR 241000Z 35021G26KT 1 1/4SM -SN DRSN OVC030 M06/M08 A2956 RMK SN2SC6 SLP044

CYQR;2010-01-24 11:00;CYQR 241100Z 35014G19KT 1SM R13/P6000FT/N -SN DRSN VV010 M06/M08 A2959 RMK SN8 SLP051

CYQR;2010-01-24 11:13;CYQR 241113Z 35020G26KT 3/4SM R13/P6000FT/D -SN DRSN VV005 M06/ RMK SN8

CYQR;2010-01-24 11:24;CYQR 241124Z 36019G27KT 1/2SM R13/5500FT/D -SN BLSN VV005 M06/ RMK SN8

CYQR;2010-01-24 12:00;CYQR 241200Z 35021G28KT 5/8SM R13/5500FT/U -SN BLSN VV003 M06/M08 A2959 RMK SN8 /S02/ SLP055

CYQR;2010-01-24 12:23;CYQR 241223Z 35021G28KT 3/4SM R13/P6000FT/U -SN BLSN VV003 M06/ RMK SN8

CYQR;2010-01-24 13:00;CYQR 241300Z 34023G28KT 1/2SM R13/5500FT/N -SN BLSN VV004 M05/M07 A2961 RMK SN8 SLP060

CYQR;2010-01-24 14:00;CYQR 241400Z 34026G34KT 5/8SM R13/6000FT/N -SN BLSN VV004 M06/M08 A2963 RMK SN8 SLP066

CYQR;2010-01-24 14:42;CYQR 241442Z 34026G36KT 3/8SM R13/5000FT/D -SN BLSN VV004 M06/ RMK SN8

CYQR;2010-01-24 15:00;CYQR 241500Z 34031G39KT 3/8SM R13/2600V4000FT/N -SN BLSN VV004 M07/M09 A2964 RMK SN8 /S01/ SLP073

CYQR;2010-01-24 16:00;CYQR 241600Z 34032G37KT 3/8SM R13/3500FT/N -SN BLSN VV005 M07/M10 A2966 RMK SN8 SLP080

CYQR;2010-01-24 16:25;CYQR 241625Z 34030G38KT 1/2SM R13/2800V4000FT/U -SN BLSN VV006 M08/ RMK SN8

CYQR;2010-01-24 17:00;CYQR 241700Z 34031G36KT 1/2SM R13/3000FT/N -SN BLSN VV006 M08/M10 A2969 RMK SN8 SLP087

CYQR;2010-01-24 18:00;CYQR 241800Z CCA 34030G37KT 3/8SM R13/3000FT/U -SN BLSN VV005 M09/M11 A2971 RMK SN8 /S02/ SLP098

CYQR;2010-01-24 18:21;CYQR 241821Z 34029G39KT 3/8SM R13/3000FT/U -SN BLSN VV004 M09/ RMK SN8

CYQR;2010-01-24 19:00;CYQR 241900Z 34029G34KT 3/8SM R13/2800FT/N -SN BLSN VV005 M09/M11 A2971 RMK SN8 SLP098

CYQR;2010-01-24 20:00;CYQR 242000Z 34029G37KT 3/8SM R13/2600FT/N -SN BLSN OVC041 M09/M12 A2971 RMK SN7SC1 SLP098

CYQR;2010-01-24 20:45;CYQR 242045Z 33030G36KT 3/8SM R13/2800FT/N -SN BLSN VV005 M10/ RMK SN8

CYQR;2010-01-24 21:00;CYQR 242100Z 33030KT 3/8SM R13/3000FT/N -SN BLSN VV005 M10/M12 A2972 RMK SN8 SLP104

CYQR;2010-01-24 22:00;CYQR 242200Z 34026G33KT 3/8SM R13/3000FT/N -SN BLSN VV006 M10/M12 A2975 RMK SN8 SLP113

CYQR;2010-01-24 23:00;CYQR 242300Z 34029KT 3/8SM R13/4000FT/N -SN BLSN VV006 M10/M12 A2977 RMK SN8 /S01/ SLP119

CYQR;2010-01-25 00:00;CYQR 250000Z 34027KT 1/2SM R13/6000FT/U -SN BLSN VV006 M10/M13 A2980 RMK SN8 SLP130

CYQR;2010-01-25 00:46;CYQR 250046Z 34027G33KT 3/4SM R13/P6000FT/U -SN BLSN VV006 M11/ RMK SN8

CYQR;2010-01-25 01:00;CYQR 250100Z 34026G31KT 1/2SM R13/P6000FT/U -SN BLSN VV006 M11/M13 A2982 RMK SN8 SLP136

CYQR;2010-01-25 02:00;CYQR 250200Z 34024G30KT 5/8SM R13/P6000FT/D -SN BLSN VV005 M11/M13 A2983 RMK SN8 SLP139

CYQR;2010-01-25 03:00;CYQR 250300Z 34026KT 3/4SM R13/P6000FT/N -SN BLSN VV005 M11/M13 A2984 RMK SN8 VIS VRB 1/2-1 SLP144

CYQR;2010-01-25 04:00;CYQR 250400Z 34022G29KT 3/4SM R13/P6000FT/U -SN BLSN VV006 M11/M13 A2985 RMK SN8 VIS VRB 1/2-1 /S02/ SLP148

CYQR;2010-01-25 05:00;CYQR 250500Z 34028KT 5/8SM R13/5500FT/N -SN BLSN VV007 M11/M14 A2986 RMK SN8 VIS VRB 1/2-3/4 SLP152

CYQR;2010-01-25 06:00;CYQR 250600Z 34025KT 5/8SM R13/6000FT/D -SN BLSN VV007 M11/M14 A2988 RMK SN8 VIS VRB 1/2-3/4 /S03/ SLP162

CYQR;2010-01-25 07:00;CYQR 250700Z 34025KT 3/4SM R13/P6000FT/N -SN BLSN VV006 M11/M14 A2989 RMK SN8 VIS VRB 1/2-1 SLP166

CYQR;2010-01-25 08:00;CYQR 250800Z 34025KT 3/4SM R13/P6000FT/D -SN BLSN VV007 M11/M14 A2990 RMK SN8 VIS VRB 1/2-1 SLP169

CYQR;2010-01-25 09:00;CYQR 250900Z 35019G29KT 1 1/2SM -SN BLSN VV009 M12/M14 A2993 RMK SN8 /S01/ SLP180

CYQR;2010-01-25 09:32;CYQR 250932Z 35025KT 1 1/4SM -SN BLSN OVC038 M12/ RMK SN3SC5 VIS VRB 1-11/2

CYQR;2010-01-25 10:00;CYQR 251000Z 36025G35KT 1 1/2SM -SN BLSN OVC030 M12/M15 A2996 RMK SC8 SLP189

CYQR;2010-01-25 11:00;CYQR 251100Z 35021KT 1 1/2SM -SN BLSN OVC030 M13/M15 A2998 RMK SC8 SLP194

CYQR;2010-01-25 12:00;CYQR 251200Z 35020G25KT 1 1/2SM -SN BLSN OVC030 M13/M15 A2999 RMK SC8 /S02/ SLP202

CYQR;2010-01-25 13:00;CYQR 251300Z 36025G32KT 1 3/4SM -SN BLSN OVC030 M13/M16 A3000 RMK SC8 SLP206

CYQR;2010-01-25 13:19;CYQR 251319Z 36024G29KT 2SM -SN BLSN FEW012 OVC030 M13/ RMK SC2SC6

CYQR;2010-01-25 13:51;CYQR 251351Z 36022G29KT 3SM BLSN FEW008 OVC030 M14/ RMK SC2SC6

CYQR;2010-01-25 14:00;CYQR 251400Z 36023G29KT 3SM BLSN SCT008 OVC015 M14/M17 A3003 RMK SC3SC5 SLP214

CYQR;2010-01-25 14:03;CYQR 251403Z 36023G29KT 6SM BLSN FEW008 SCT015 OVC090 M14/ RMK SF1SC2AC4 VIS SW-NW 3

CYQR;2010-01-25 15:00;CYQR 251500Z 35018G24KT 8SM DRSN FEW007 BKN026 OVC041 M14/M17 A3004 RMK SF2SC4SC2 VIS SW-NW 3 BLSN SLP221

CYQR;2010-01-25 16:00;CYQR 251600Z 35017KT 10SM DRSN BKN016 OVC024 M14/M17 A3007 RMK SC6SC2 LCL BLSN SLP229

CYQR;2010-01-25 16:50;CYQR 251650Z 35017KT 3SM -SN DRSN OVC014 M14/ RMK SC8

CYQR;2010-01-25 17:00;CYQR 251700Z 35017KT 5SM -SN DRSN OVC014 M14/M17 A3008 RMK SC8 SLP234

CYQR;2010-01-25 17:20;CYQR 251720Z 34020G26KT 2 1/2SM -SN BLSN SCT009 OVC014 M14/ RMK SC3SC5

CYQR;2010-01-25 17:36;CYQR 251736Z 35020G25KT 3SM -SN BLSN OVC009 M14/ RMK SC8

CYQR;2010-01-25 17:43;CYQR 251743Z 36018KT 10SM -SN DRSN FEW009 OVC014 M14/ RMK SC2SC6

CYQR;2010-01-25 18:00;CYQR 251800Z 35017KT 8SM -SN DRSN OVC014 M14/M17 A3009 RMK SC8 SLP238

CYQR;2010-01-25 18:36;CYQR 251836Z 35017KT 1SM R13/4500VP6000FT/D -SN DRSN VV009 M14/ RMK SN8

CYQR;2010-01-25 18:44;CYQR 251844Z 35016G21KT 1/2SM R13/5000FT/N SN DRSN OVC007 M14/ RMK SN3SC5 VIS S 2

CYQR;2010-01-25 19:00;CYQR 251900Z CCB 35017KT 10SM -SN DRSN BKN007 OVC016 M14/M17 A3009 RESN RMK SF5SC3 VIS SW-NW 3 SLP239

CYQR;2010-01-25 19:29;CYQR 251929Z 35017G22KT 12SM DRSN OVC016 M14/ RMK SC8 VIS SW-NW 3 BLSN

CYQR;2010-01-25 19:51;CYQR 251951Z 35020G25KT 2SM R13/4500VP6000FT/U -SHSN BLSN OVC016 M15/ RMK SC8

CYQR;2010-01-25 20:00;CYQR 252000Z 35019G27KT 1SM R13/P6000FT/D -SHSN BLSN OVC016 M15/M18 A3009 RMK SN2SC6 SLP238

CYQR;2010-01-25 20:08;CYQR 252008Z 36019G26KT 12SM -SN DRSN OVC016 M15/ RMK SC8

CYQR;2010-01-25 21:00;CYQR 252100Z 34018KT 5SM -SHSN DRSN OVC016 M15/M18 A3009 RMK SC8 SLP240

CYQR;2010-01-25 22:00;CYQR 252200Z 35015KT 10SM -SHSN DRSN OVC016 M16/M19 A3010 RMK SC8 SLP243

CYQR;2010-01-25 22:30;CYQR 252230Z 35012KT 15SM BKN016 OVC047 M16/ RMK SC6SC2

CYQR;2010-01-25 23:00;CYQR 252300Z 35014KT 15SM BKN016 OVC047 M16/M19 A3011 RMK SC7SC1 SLP246

CYQR;2010-01-26 00:00;CYQR 260000Z 36010KT 15SM OVC016 M16/M19 A3011 RMK SC8 SLP247

CYQR;2010-01-26 00:32;CYQR 260032Z 35008KT 15SM -SN OVC014 M16/ RMK SC8

CYQR;2010-01-26 01:00;CYQR 260100Z 35008KT 15SM -SN OVC014 M16/M19 A3011 RMK SC8 SLP247

CYQR;2010-01-26 02:00;CYQR 260200Z 36007KT 15SM -SN OVC014 M16/M19 A3010 RMK SC8 SLP245

CYQR;2010-01-26 03:00;CYQR 260300Z 32006KT 15SM -SN OVC014 M16/M19 A3009 RMK SC8 SLP243

CYQR;2010-01-26 04:00;CYQR 260400Z 31005KT 12SM -SN SCT014 OVC016 M16/M18 A3009 RMK SC4SC4 SLP242

CYQR;2010-01-26 05:00;CYQR 260500Z 30006KT 12SM -SN OVC016 M16/M18 A3009 RMK SC8 SLP240

CYQR;2010-01-26 06:00;CYQR 260600Z 30010KT 6SM -SN FEW012 BKN016 OVC022 M15/M17 A3008 RMK SF1SC6SC2 SLP235

CYQR;2010-01-26 07:00;CYQR 260700Z 31015KT 15SM -SN OVC023 M15/M18 A3006 RMK SC8 SLP229

CYQR;2010-01-26 08:00;CYQR 260800Z 32014KT 15SM -SN BKN014 OVC023 M15/M18 A3004 RMK SC5SC3 SLP224

CYQR;2010-01-26 09:00;CYQR 260900Z 33014KT 15SM -SN OVC012 M16/M18 A3004 RMK SC8 SLP224

CYQR;2010-01-26 10:00;CYQR 261000Z 33017KT 15SM -SN OVC012 M16/M19 A3003 RMK SC8 SLP221

CYQR;2010-01-26 10:36;CYQR 261036Z 32021G26KT 2SM -SN BLSN OVC014 M16/ RMK SC8

CYQR;2010-01-26 10:46;CYQR 261046Z 32023KT 1SM R13/4000VP6000FT/U -SN BLSN OVC014 M17/ RMK SC8

CYQR;2010-01-26 11:00;CYQR 261100Z 32026KT 1SM R13/4000VP6000FT/U -SN BLSN OVC014 M17/M19 A3002 RMK SC8 SLP219

CYQR;2010-01-26 11:06;CYQR 261106Z 32019G28KT 2SM -SN BLSN OVC014 M16/ RMK SC8

CYQR;2010-01-26 11:22;CYQR 261122Z 32016KT 4SM -SN BLSN OVC016 M17/ RMK SC8

CYQR;2010-01-26 12:00;CYQR 261200Z 32018KT 3SM -SN BLSN OVC016 M19/M21 A3002 RMK SC8 SLP221

CYQR;2010-01-26 12:25;CYQR 261225Z 32016KT 5SM -SN BLSN FEW004 BKN017 M19/ RMK SF2SC6

CYQR;2010-01-26 12:40;CYQR 261240Z 32014KT 12SM DRSN FEW004 OVC017 M19/ RMK SF2SC6

CYQR;2010-01-26 13:00;CYQR 261300Z 31013KT 12SM DRSN OVC014 M19/M21 A3002 RMK SC8 SLP221

CYQR;2010-01-26 14:00;CYQR 261400Z 30012KT 4SM IC DRSN FEW016 FEW250 M21/M22 A3002 RMK SC1CI1 SLP221

CYQR;2010-01-26 14:07;CYQR 261407Z 30012KT 2SM IC DRSN FEW016 SCT250 M21/ RMK SC1CI1

CYQR;2010-01-26 14:32;CYQR 261432Z 30012KT 1 1/2SM IC DRSN FEW016 FEW250 M20/ RMK SC1CI0

CYQR;2010-01-26 15:00;CYQR 261500Z 31014KT 1 1/2SM IC DRSN FEW250 M20/M22 A3002 RMK IC1CI0 SLP222

CYQR;2010-01-26 15:22;CYQR 261522Z 30012KT 2 1/2SM IC DRSN SKC M21/ RMK IC2

CYQR;2010-01-26 15:50;CYQR 261550Z CCA 29010KT 4SM IC DRSN SKC M21/

CYQR;2010-01-26 16:00;CYQR 261600Z 29010KT 6SM IC DRSN SKC M21/M23 A3002 RMK SLP223

CYQR;2010-01-26 17:00;CYQR 261700Z 31014KT 12SM SKC M19/M22 A3002 RMK IC SLP222

CYQR;2010-01-26 18:00;CYQR 261800Z 31016KT 12SM SKC M18/M21 A3001 RMK IC SLP216

CYQR;2010-01-26 19:00;CYQR 261900Z 30015KT 10SM DRSN SKC M17/M20 A2999 RMK IC SLP209

CYQR;2010-01-26 20:00;CYQR 262000Z 30017KT 10SM DRSN SKC M16/M20 A2997 RMK SLP204

CYQR;2010-01-26 21:00;CYQR 262100Z 30021KT 12SM DRSN FEW160 BKN300 M16/M19 A2996 RMK AC1CI1 VIS SW-NW 3 BLSN SLP199

CYQR;2010-01-26 22:00;CYQR 262200Z 30019G25KT 12SM DRSN FEW040 FEW160 BKN300 M16/M19 A2996 RMK SC1AC1CI0 VIS W 3 BLSN SLP197

CYQR;2010-01-26 23:00;CYQR 262300Z 29019KT 10SM DRSN FEW160 SCT300 M16/M20 A2994 RMK AC2CI0 SLP192

CYQR;2010-01-27 00:00;CYQR 270000Z 30021KT 10SM DRSN FEW035 FEW087 BKN300 M15/M19 A2994 RMK SC1AC1CI0 SLP193

CYQR;2010-01-27 01:00;CYQR 270100Z 30023G29KT 6SM BLSN FEW035 FEW090 SCT300 M16/M20 A2993 RMK SC1AC1CI0 SLP189

CYQR;2010-01-27 02:00;CYQR 270200Z 31023G28KT 6SM BLSN FEW040 FEW095 SCT300 M16/M20 A2994 RMK SC1AC1CI0 SLP193

CYQR;2010-01-27 03:00;CYQR 270300Z 32021KT 8SM DRSN FEW040 FEW100 M17/M21 A2994 REBLSN RMK SC1AC0 SLP196

CYQR;2010-01-27 04:00;CYQR 270400Z 31018KT 12SM DRSN FEW040 FEW100 M18/M22 A2995 RMK SC1AC1 SLP199

CYQR;2010-01-27 05:00;CYQR 270500Z 31015KT 15SM DRSN SKC M18/M23 A2997 RMK SLP203

CYQR;2010-01-27 06:00;CYQR 270600Z 31016KT 15SM DRSN BKN028 M19/M23 A2997 RMK SC2 SLP203

CYQR;2010-01-27 07:00;CYQR 270700Z 31020G25KT 15SM DRSN BKN016 BKN094 M19/M23 A2996 RMK SC2AC2 SLP202

CYQR;2010-01-27 08:00;CYQR 270800Z 30016KT 15SM DRSN FEW027 FEW094 M20/M24 A2997 RMK SC1AC1 SLP205

CYQR;2010-01-27 09:00;CYQR 270900Z 30017KT 15SM DRSN FEW024 BKN100 M21/M25 A2999 RMK SC1AC4 SLP212

CYQR;2010-01-27 10:00;CYQR 271000Z 30020KT 15SM DRSN OVC022 M20/M24 A3000 RMK SC8 SLP215

CYQR;2010-01-27 11:00;CYQR 271100Z 30019KT 15SM DRSN FEW022 M21/M26 A3001 RMK SC2 SLP217

CYQR;2010-01-27 12:00;CYQR 271200Z 31021KT 12SM -SN DRSN OVC020 M21/M25 A3002 RMK SC8 SLP223

CYQR;2010-01-27 13:00;CYQR 271300Z 30016KT 10SM -SN DRSN OVC018 M20/M24 A3006 RMK SC8 SLP235

CYQR;2010-01-27 14:00;CYQR 271400Z 31022KT 3SM -SN BLSN OVC018 M20/M24 A3007 RMK SC7 SLP239

CYQR;2010-01-27 15:00;CYQR 271500Z 31020KT 12SM DRSN BKN018 M21/M25 A3010 RMK SC6 VIS W 3 BLSN SLP252

CYQR;2010-01-27 16:00;CYQR 271600Z 31013KT 8SM DRSN BKN016 M21/M25 A3014 RMK SC5 IC SLP264

CYQR;2010-01-27 16:45;CYQR 271645Z 30010KT 12SM BKN016 M21/ RMK SC5

CYQR;2010-01-27 17:00;CYQR 271700Z 30011KT 12SM BKN016 M21/M25 A3018 RMK SC3 SLP275

CYQR;2010-01-27 18:00;CYQR 271800Z 30011KT 15SM DRSN FEW016 M21/M25 A3020 RMK SC1 SLP288

CYQR;2010-01-27 19:00;CYQR 271900Z 31015G20KT 12SM FEW016 M20/M24 A3021 RMK SC1 SLP290

CYQR;2010-01-27 20:00;CYQR 272000Z 29013KT 12SM FEW016 M20/M24 A3023 RMK SC1 SLP295

CYQR;2010-01-27 21:00;CYQR 272100Z 31018KT 12SM DRSN FEW020 M20/M24 A3023 RMK SC1 SLP297

CYQR;2010-01-27 22:00;CYQR 272200Z 30013KT 15SM DRSN FEW020 M20/M24 A3024 RMK SC1 SLP301

CYQR;2010-01-27 23:00;CYQR 272300Z 30012KT 15SM FEW020 M20/M24 A3026 RMK SC1 SLP308

CYQR;2010-01-28 00:00;CYQR 280000Z 32013KT 15SM FEW020 M21/M25 A3027 RMK SC1 SLP312

CYQR;2010-01-28 01:00;CYQR 280100Z 32012KT 15SM SKC M22/M27 A3028 RMK SLP316

CYQR;2010-01-28 02:00;CYQR 280200Z 31011KT 15SM SKC M23/M27 A3030 RMK SLP323

CYQR;2010-01-28 03:00;CYQR 280300Z 32009KT 15SM SKC M24/M28 A3030 RMK SLP327

CYQR;2010-01-28 04:00;CYQR 280400Z 29006KT 15SM SKC M25/M28 A3033 RMK SLP334

CYQR;2010-01-28 05:00;CYQR 280500Z 32010KT 15SM SKC M24/M28 A3033 RMK SLP334

CYQR;2010-01-28 06:00;CYQR 280600Z 32007KT 15SM SKC M25/M29 A3034 RMK SLP340

CYQR;2010-01-28 07:00;CYQR 280700Z 29007KT 15SM SKC M26/M31 A3036 RMK SLP346

CYQR;2010-01-28 08:00;CYQR 280800Z 30009KT 15SM SKC M27/M31 A3036 RMK SLP347

CYQR;2010-01-28 09:00;CYQR 280900Z 28008KT 15SM SKC M28/M33 A3038 RMK SLP356

CYQR;2010-01-28 10:00;CYQR 281000Z 28007KT 15SM SKC M28/M33 A3039 RMK SLP359

CYQR;2010-01-28 11:00;CYQR 281100Z 25003KT 15SM SKC M28/M33 A3038 RMK SLP357

CYQR;2010-01-28 12:00;CYQR 281200Z 21002KT 15SM SCT089 M29/M34 A3034 RMK AC3 SLP345

CYQR;2010-01-28 13:00;CYQR 281300Z 00000KT 15SM SKC M28/M32 A3035 RMK SLP348

CYQR;2010-01-28 14:00;CYQR 281400Z 00000KT 15SM FEW250 M28/M33 A3036 RMK CI0 SLP350

CYQR;2010-01-28 15:00;CYQR 281500Z 14006KT 15SM FEW250 M30/M35 A3036 RMK CI0 SLP353

CYQR;2010-01-28 16:00;CYQR 281600Z 13008KT 15SM FEW250 M28/M32 A3035 RMK CI0 SLP351

CYQR;2010-01-28 17:00;CYQR 281700Z 14009KT 15SM SCT250 M26/M30 A3035 RMK CI1 SLP351

CYQR;2010-01-28 18:00;CYQR 281800Z 13006KT 15SM BKN250 M23/M27 A3034 RMK CI2 SLP343

CYQR;2010-01-28 19:00;CYQR 281900Z 14007KT 15SM BKN250 M21/M26 A3032 RMK CI1 SLP335

CYQR;2010-01-28 20:00;CYQR 282000Z 12012KT 15SM BKN250 M21/M25 A3027 RMK CI2 SLP320

CYQR;2010-01-28 21:00;CYQR 282100Z 13013KT 15SM OVC250 M20/M24 A3027 RMK CI4 SLP317

CYQR;2010-01-28 22:00;CYQR 282200Z 14015KT 15SM BKN250 M20/M25 A3025 RMK CI3 SLP311

CYQR;2010-01-28 23:00;CYQR 282300Z 13015KT 15SM BKN250 M20/M25 A3024 RMK CI4 SLP307

CYQR;2010-01-29 00:00;CYQR 290000Z 13015KT 15SM FEW160 BKN250 M21/M26 A3022 RMK AC1CI2 SLP303

CYQR;2010-01-29 01:00;CYQR 290100Z 13015KT 15SM BKN250 M21/M25 A3020 RMK CI3 SLP298

CYQR;2010-01-29 02:00;CYQR 290200Z 14012KT 15SM BKN250 M21/M26 A3021 RMK CI2 SLP300

CYQR;2010-01-29 03:00;CYQR 290300Z 13013KT 15SM SCT094 BKN250 M21/M25 A3019 RMK AC3CI1 SLP292

CYQR;2010-01-29 04:00;CYQR 290400Z 14015KT 15SM SCT094 BKN250 M21/M25 A3018 RMK AC3CI1 SLP290

CYQR;2010-01-29 05:00;CYQR 290500Z 13014KT 15SM FEW094 SCT250 M21/M26 A3017 RMK AC2CI0 SLP287

CYQR;2010-01-29 06:00;CYQR 290600Z 13016KT 15SM FEW091 SCT250 M21/M26 A3016 RMK AC2CI0 SLP277

CYQR;2010-01-29 07:00;CYQR 290700Z 14017KT 15SM FEW250 M21/M25 A3014 RMK CI0 SLP271

CYQR;2010-01-29 08:00;CYQR 290800Z 13014KT 15SM SKC M22/M26 A3015 RMK SLP274

CYQR;2010-01-29 09:00;CYQR 290900Z 14012KT 15SM SKC M22/M26 A3014 RMK SLP268

CYQR;2010-01-29 10:00;CYQR 291000Z 12011KT 15SM SKC M22/M26 A3013 RMK SLP265

CYQR;2010-01-29 11:00;CYQR 291100Z 11009KT 15SM FEW094 SCT250 M21/M26 A3014 RMK AC2CI0 SLP267

CYQR;2010-01-29 12:00;CYQR 291200Z 13008KT 15SM FEW094 SCT250 M21/M26 A3012 RMK AC2CI0 SLP263

CYQR;2010-01-29 13:00;CYQR 291300Z 13009KT 15SM FEW095 BKN250 M21/M26 A3012 RMK AC1CI2 SLP261

CYQR;2010-01-29 14:00;CYQR 291400Z 14007KT 15SM BKN250 M21/M26 A3012 RMK CI3 SLP262

CYQR;2010-01-29 15:00;CYQR 291500Z 12006KT 15SM BKN120 BKN250 M21/M26 A3014 RMK AC1CI1 SLP266

CYQR;2010-01-29 16:00;CYQR 291600Z 00000KT 15SM FEW120 FEW250 M21/M27 A3017 RMK AC1CI0 SLP277

CYQR;2010-01-29 17:00;CYQR 291700Z 33004KT 15SM FEW120 FEW250 M20/M25 A3017 RMK AC1CI0 SLP278

CYQR;2010-01-29 18:00;CYQR 291800Z 23003KT 15SM FEW250 M19/M24 A3017 RMK CI1 SLP277

CYQR;2010-01-29 19:00;CYQR 291900Z 23002KT 15SM FEW250 M18/M23 A3017 RMK CI0 SLP276

CYQR;2010-01-29 20:00;CYQR 292000Z 23004KT 15SM SCT250 M17/M23 A3015 RMK CI1 SLP271

CYQR;2010-01-29 21:00;CYQR 292100Z 28006KT 15SM FEW220 FEW250 M18/M24 A3016 RMK CI1CI0 SLP274

CYQR;2010-01-29 22:00;CYQR 292200Z 32009KT 15SM FEW250 M18/M23 A3017 RMK CI1 SLP277

CYQR;2010-01-29 23:00;CYQR 292300Z 33007KT 15SM FEW250 M19/M24 A3018 RMK CI1 SLP280

CYQR;2010-01-30 00:00;CYQR 300000Z 34007KT 15SM FEW100 FEW250 M21/M25 A3019 RMK AC1CI0 SLP285

CYQR;2010-01-30 01:00;CYQR 300100Z 34007KT 15SM FEW100 FEW250 M22/M27 A3020 RMK AC2CI0 SLP288

CYQR;2010-01-30 02:00;CYQR 300200Z 34006KT 15SM FEW100 FEW250 M23/M27 A3021 RMK AC0CI0 SLP292

CYQR;2010-01-30 03:00;CYQR 300300Z 32006KT 15SM BKN100 M21/M26 A3020 RMK AC6 SLP291

CYQR;2010-01-30 04:00;CYQR 300400Z 32005KT 15SM FEW088 M21/M26 A3020 RMK AC2 SLP291

CYQR;2010-01-30 05:00;CYQR 300500Z 34005KT 15SM FEW120 M23/M27 A3020 RMK AC2 SLP291

CYQR;2010-01-30 06:00;CYQR 300600Z 35006KT 15SM OVC120 M22/M26 A3020 RMK AC6 SLP289

CYQR;2010-01-30 07:00;CYQR 300700Z 31006KT 15SM OVC110 M20/M24 A3021 RMK AC7 SLP292

CYQR;2010-01-30 08:00;CYQR 300800Z 34009KT 12SM OVC110 M19/M24 A3022 RMK AC7 SLP293

CYQR;2010-01-30 09:00;CYQR 300900Z 33010KT 12SM OVC100 M19/M24 A3022 RMK AC8 SLP292

CYQR;2010-01-30 10:00;CYQR 301000Z 34007KT 12SM OVC085 M19/M23 A3022 RMK AC8 SLP292

CYQR;2010-01-30 11:00;CYQR 301100Z 33010KT 12SM OVC090 M18/M23 A3022 RMK AC7 SLP293

CYQR;2010-01-30 12:00;CYQR 301200Z 34006KT 12SM OVC090 M18/M22 A3021 RMK AC7 SLP289

CYQR;2010-01-30 13:00;CYQR 301300Z 33006KT 12SM OVC100 M17/M22 A3021 RMK AC8 SLP289

CYQR;2010-01-30 14:00;CYQR 301400Z 31007KT 12SM OVC100 M17/M22 A3022 RMK AC8 SLP293

CYQR;2010-01-30 15:00;CYQR 301500Z 31007KT 12SM BKN100 M17/M21 A3024 RMK AC7 SLP298

CYQR;2010-01-30 16:00;CYQR 301600Z 32007KT 12SM OVC100 M17/M21 A3025 RMK AC8 SLP301

CYQR;2010-01-30 17:00;CYQR 301700Z 33008KT 12SM OVC100 M16/M20 A3025 RMK AC8 SLP303

CYQR;2010-01-30 18:00;CYQR 301800Z 34009KT 12SM BKN100 M15/M20 A3026 RMK AC7 SLP305

CYQR;2010-01-30 19:00;CYQR 301900Z 32008KT 12SM BKN100 M15/M20 A3025 RMK AC6 SLP302

CYQR;2010-01-30 20:00;CYQR 302000Z 32006KT 15SM SCT100 M14/M19 A3024 RMK AC3 SLP299

CYQR;2010-01-30 21:00;CYQR 302100Z 31006KT 12SM SCT120 M14/M19 A3023 RMK AC2 SLP293

CYQR;2010-01-30 22:00;CYQR 302200Z 30007KT 12SM BKN120 M14/M18 A3023 RMK AC4 SLP293

CYQR;2010-01-30 23:00;CYQR 302300Z 33008KT 12SM BKN120 BKN250 M15/M19 A3023 RMK AC4CI1 SLP293

CYQR;2010-01-31 00:00;CYQR 310000Z 34008KT 15SM FEW120 FEW250 M17/M21 A3025 RMK AC1CI0 SLP298

CYQR;2010-01-31 01:00;CYQR 310100Z 34008KT 15SM FEW250 M19/M23 A3025 RMK CI1 SLP301

CYQR;2010-01-31 02:00;CYQR 310200Z 35007KT 12SM BKN054 M20/M24 A3026 RMK SC3 SLP302

CYQR;2010-01-31 03:00;CYQR 310300Z 33006KT 15SM OVC058 M18/M21 A3025 RMK SC7 SLP302

CYQR;2010-01-31 04:00;CYQR 310400Z 35002KT 15SM OVC056 M16/M20 A3026 RMK SC8 SLP304

CYQR;2010-01-31 04:50;CYQR 310450Z 32007KT 12SM -SN OVC048 M16/ RMK SC8

CYQR;2010-01-31 05:00;CYQR 310500Z 33008KT 12SM -SN OVC048 M16/M20 A3026 RMK SC8 SLP305

CYQR;2010-01-31 06:00;CYQR 310600Z 36004KT 12SM -SN OVC048 M15/M19 A3027 RMK SC8 SLP305

CYQR;2010-01-31 07:00;CYQR 310700Z 06002KT 12SM -SN OVC046 M14/M18 A3028 RMK SC8 SLP307

CYQR;2010-01-31 08:00;CYQR 310800Z 10005KT 6SM -SN OVC042 M14/M18 A3027 RMK SC8 SLP305

CYQR;2010-01-31 08:11;CYQR 310811Z 09007KT 2SM -SN OVC042 M14/ RMK SC8

CYQR;2010-01-31 08:40;CYQR 310840Z 10005KT 7SM -SN OVC044 M14/ RMK SC8

CYQR;2010-01-31 09:00;CYQR 310900Z 09004KT 12SM -SN OVC044 M14/M17 A3028 RMK SC8 SLP305

CYQR;2010-01-31 10:00;CYQR 311000Z 09008KT 2 1/2SM -SN OVC029 M14/M18 A3028 RMK SC8 SLP304

CYQR;2010-01-31 11:00;CYQR 311100Z 09008KT 2 1/2SM -SN OVC024 M14/M18 A3028 RMK SC8 SLP305

CYQR;2010-01-31 11:10;CYQR 311110Z 10007KT 3SM -SN OVC024 M14/ RMK SC8

CYQR;2010-01-31 12:00;CYQR 311200Z 10008KT 4SM -SN OVC029 M15/M19 A3029 RMK SC8 SLP311

CYQR;2010-01-31 12:23;CYQR 311223Z 09006KT 2 1/2SM -SN OVC020 M15/ RMK SC8

CYQR;2010-01-31 13:00;CYQR 311300Z 10010KT 2 1/2SM -SN OVC022 M15/M19 A3029 RMK SC8 SLP310

CYQR;2010-01-31 14:00;CYQR 311400Z 10007KT 2 1/2SM -SN BKN022 OVC045 M16/M19 A3030 RMK SC6SC2 SLP313

CYQR;2010-01-31 14:39;CYQR 311439Z 10006KT 5SM -SN OVC044 M16/ RMK SC8

CYQR;2010-01-31 15:00;CYQR 311500Z 10011KT 5SM -SN OVC044 M16/M19 A3029 RMK SC8 SLP314

CYQR;2010-01-31 16:00;CYQR 311600Z 11010KT 10SM -SN OVC044 M16/M20 A3028 RMK SC8 SLP310

CYQR;2010-01-31 17:00;CYQR 311700Z 12013KT 15SM SCT027 SCT120 BKN250 M16/M20 A3028 RMK SC3AC1CI0 SLP309

CYQR;2010-01-31 18:00;CYQR 311800Z 12010KT 15SM FEW045 BKN120 BKN250 M17/M21 A3028 RMK SC1AC4CI1 SLP307

CYQR;2010-01-31 19:00;CYQR 311900Z 12009KT 15SM OVC077 M16/M21 A3027 RMK AC8 SLP304

CYQR;2010-01-31 19:48;CYQR 311948Z 13009KT 10SM -SN OVC044 M15/ RMK SC8

CYQR;2010-01-31 20:00;CYQR 312000Z 14008KT 10SM -SN BKN047 OVC120 M15/M18 A3025 RMK SC6AC2 SLP297

CYQR;2010-01-31 21:00;CYQR 312100Z 14007KT 10SM -SN SCT045 OVC120 M15/M20 A3023 RMK SC4AC4 SLP287

CYQR;2010-01-31 22:00;CYQR 312200Z 14009KT 10SM -SN BKN021 OVC047 M15/M19 A3022 RMK SC6SC2 SLP284

CYQR;2010-01-31 23:00;CYQR 312300Z 14009KT 8SM -SN BKN029 OVC044 M15/M19 A3021 RMK SC6SC2 SLP282

CYQR;2010-02-01 01:00;CYQR 010100Z 13011KT 12SM -SN OVC044 M16/M20 A3020 RMK SC8 SLP278

CYQR;2010-02-01 02:00;CYQR 010200Z 14012KT 12SM -SN OVC044 M17/M20 A3019 RMK SC8 SLP276

CYQR;2010-02-01 03:00;CYQR 010300Z 13011G16KT 12SM -SN OVC046 M17/M21 A3018 RMK SC8 SLP274

CYQR;2010-02-01 04:00;CYQR 010400Z 12012KT 15SM -SN OVC046 M17/M21 A3016 RMK SC8 SLP267

CYQR;2010-02-01 05:00;CYQR 010500Z 14012KT 15SM -SN OVC046 M18/M21 A3015 RMK SC8 SLP265

CYQR;2010-02-01 06:00;CYQR 010600Z 14013KT 15SM -SN OVC046 M17/M21 A3014 RMK SC8 SLP262

CYQR;2010-02-01 06:45;CYQR 010645Z 15014KT 15SM OVC043 M17/ RMK SC8

CYQR;2010-02-01 07:00;CYQR 010700Z 15011KT 15SM OVC043 M17/M21 A3013 RMK SC8 SLP260

CYQR;2010-02-01 08:00;CYQR 010800Z 15011KT 15SM OVC045 M17/M21 A3011 RMK SC8 SLP254

CYQR;2010-02-01 09:00;CYQR 010900Z 14011KT 15SM OVC045 M17/M21 A3011 RMK SC7 SLP249

CYQR;2010-02-01 10:00;CYQR 011000Z 14011KT 15SM OVC045 M17/M21 A3010 RMK SC8 SLP248

CYQR;2010-02-01 10:10;CYQR 011010Z 14011KT 15SM -SN OVC045 M18/ RMK SC7

CYQR;2010-02-01 11:00;CYQR 011100Z 14012KT 15SM -SN OVC043 M18/M22 A3009 RMK SC8 SLP244

CYQR;2010-02-01 12:00;CYQR 011200Z 14011KT 15SM -SN OVC043 M18/M22 A3010 RMK SC8 SLP246

CYQR;2010-02-01 13:00;CYQR 011300Z 13009KT 15SM -SN OVC041 M18/M22 A3009 RMK SC8 SLP245

CYQR;2010-02-01 14:00;CYQR 011400Z 13011KT 15SM -SN BKN039 BKN250 M18/M22 A3008 RMK SC7CI1 SLP242

CYQR;2010-02-01 14:52;CYQR 011452Z 14012KT 15SM BKN039 BKN250 M19/ RMK SC6CI1

CYQR;2010-02-01 15:00;CYQR 011500Z 14011KT 15SM BKN039 BKN250 M19/M24 A3008 RMK SC5CI1 SLP244

CYQR;2010-02-01 16:00;CYQR 011600Z 14013KT 15SM BKN039 BKN090 BKN250 M20/M24 A3009 RMK SC3AC2CI1 SLP246

CYQR;2010-02-01 17:00;CYQR 011700Z 15011KT 15SM FEW030 BKN250 M20/M24 A3008 RMK SC1CI4 SLP244

CYQR;2010-02-01 18:00;CYQR 011800Z 15010KT 15SM FEW032 SCT100 BKN250 M19/M24 A3009 RMK SC0AC2CI5 SLP245

CYQR;2010-02-01 19:00;CYQR 011900Z 15012KT 15SM FEW100 BKN250 M19/M23 A3007 RMK AC2CI5 SLP240

CYQR;2010-02-01 20:00;CYQR 012000Z 14009KT 15SM FEW100 BKN250 M18/M22 A3005 RMK AC1CI7 SLP232

CYQR;2010-02-01 21:00;CYQR 012100Z 16010KT 15SM FEW140 BKN250 M18/M22 A3004 RMK AC1CS6 SLP227

CYQR;2010-02-01 22:00;CYQR 012200Z 15012KT 15SM FEW140 OVC250 M18/M22 A3003 RMK AC1CI6 SLP224

CYQR;2010-02-01 23:00;CYQR 012300Z 15011KT 15SM SCT140 OVC250 M17/M21 A3002 RMK AC2CS6 SLP223

CYQR;2010-02-02 00:00;CYQR 020000Z 15010KT 15SM SCT140 OVC250 M17/M21 A3002 RMK AC2CS6 SLP222

CYQR;2010-02-02 00:51;CYQR 020051Z 16010KT 15SM -SN BKN044 BKN090 BKN250 RMK SC3AC1CI3

CYQR;2010-02-02 01:00;CYQR 020100Z 16009KT 15SM -SN BKN044 BKN090 BKN250 M17/M21 A3003 RMK SC3AC1CI3 SLP223

CYQR;2010-02-02 02:00;CYQR 020200Z 16010KT 12SM -SN OVC038 M17/M20 A3002 RMK SC8 SLP220

CYQR;2010-02-02 03:00;CYQR 020300Z 16011KT 12SM -SN SCT047 BKN077 M16/M20 A3000 RMK SC4AC2 SLP216

CYQR;2010-02-02 04:00;CYQR 020400Z 14009KT 12SM -SN FEW029 M17/M21 A3000 RMK SC2 SLP213

CYQR;2010-02-02 05:00;CYQR 020500Z 14010KT 12SM -SN FEW021 FEW080 M18/M22 A2999 RMK SC1AC0 SLP212

CYQR;2010-02-02 05:33;CYQR 020533Z 14010KT 15SM FEW080 M18/ RMK AC1

CYQR;2010-02-02 06:00;CYQR 020600Z 14011KT 15SM FEW088 M18/M22 A2997 RMK AC1 SLP207

CYQR;2010-02-02 07:00;CYQR 020700Z 15011KT 15SM -SN OVC070 M17/M21 A2996 RMK AC7 SLP204

CYQR;2010-02-02 08:00;CYQR 020800Z 13008KT 15SM OVC070 M17/M21 A2997 RMK AC8 SLP207

CYQR;2010-02-02 09:00;CYQR 020900Z 14010KT 15SM OVC078 M17/M20 A2995 RMK AC8 SLP197

CYQR;2010-02-02 10:00;CYQR 021000Z 13008KT 15SM OVC078 M16/M20 A2995 RMK AC8 SLP196

CYQR;2010-02-02 11:00;CYQR 021100Z 14006KT 15SM BKN054 OVC085 M16/M19 A2996 RMK SC6AC2 SLP199

CYQR;2010-02-02 11:09;CYQR 021109Z 13007KT 15SM -SN BKN054 OVC085 M16/ RMK SC7AC1

CYQR;2010-02-02 12:00;CYQR 021200Z 13008KT 15SM -SN OVC048 M15/M19 A2995 RMK SC8 SLP194

CYQR;2010-02-02 13:00;CYQR 021300Z 14007KT 15SM -SN OVC042 M15/M19 A2995 RMK SC8 SLP194

CYQR;2010-02-02 14:00;CYQR 021400Z 12009KT 15SM -SN BKN034 M15/M19 A2994 RMK SC5 SLP191

CYQR;2010-02-02 14:30;CYQR 021430Z 12009KT 15SM FEW034 SCT250 M17/ RMK SC2CI0

CYQR;2010-02-02 15:00;CYQR 021500Z 13011KT 15SM FEW021 BKN092 M16/M19 A2994 RMK SC2AC3 SLP190

CYQR;2010-02-02 16:00;CYQR 021600Z 15013KT 15SM SCT066 SCT250 M16/M20 A2993 RMK AC2CI1 SLP189

CYQR;2010-02-02 17:00;CYQR 021700Z 15011KT 15SM BKN058 BKN250 M15/M19 A2994 RMK SC6CI1 SLP190

CYQR;2010-02-02 18:00;CYQR 021800Z 14015KT 15SM BKN060 BKN140 M15/M19 A2992 RMK SC7AC1 SLP186

CYQR;2010-02-02 19:00;CYQR 021900Z 14014KT 15SM BKN060 M14/M18 A2992 RMK SC7 SLP186

CYQR;2010-02-02 20:00;CYQR 022000Z 14014KT 15SM BKN055 M13/M17 A2990 RMK SC6 SLP178

CYQR;2010-02-02 21:00;CYQR 022100Z 14015KT 15SM DRSN FEW030 BKN061 M13/M16 A2987 RMK SC2SC6 SLP166

CYQR;2010-02-02 22:00;CYQR 022200Z 15014KT 15SM DRSN SCT032 OVC064 M13/M17 A2988 RMK SC3SC4 SLP168

CYQR;2010-02-02 22:50;CYQR 022250Z 13013KT 15SM -SN DRSN SCT017 BKN068 M13/ RMK SC3AC3

CYQR;2010-02-02 23:00;CYQR 022300Z 12013KT 15SM -SN DRSN SCT017 BKN068 M13/M16 A2988 RMK SC3AC2 SLP168

CYQR;2010-02-02 23:38;CYQR 022338Z 12011KT 15SM DRSN SCT031 BKN060 M13/ RMK SC2SC2

CYQR;2010-02-03 00:00;CYQR 030000Z 12009KT 15SM FEW031 BKN094 M13/M17 A2989 RMK SC2AC2 SLP172

CYQR;2010-02-03 01:00;CYQR 030100Z 12012KT 15SM BKN030 M13/M16 A2989 RMK SC6 SLP172

CYQR;2010-02-03 02:00;CYQR 030200Z 13011KT 15SM BKN008 OVC030 M12/M15 A2989 RMK SC5SC3 SLP171

CYQR;2010-02-03 03:00;CYQR 030300Z 13008KT 15SM FEW008 BKN030 M14/M16 A2989 RMK SC1SC4 SLP173

CYQR;2010-02-03 04:00;CYQR 030400Z 14008KT 15SM FEW030 M14/M17 A2989 RMK SC2 SLP172

CYQR;2010-02-03 05:00;CYQR 030500Z 15004KT 15SM FEW030 BKN110 M14/M16 A2990 RMK SC2AC4 SLP174

CYQR;2010-02-03 06:00;CYQR 030600Z 16004KT 10SM FEW030 BKN093 M14/M16 A2989 RMK SC2AC5 SLP172

CYQR;2010-02-03 07:00;CYQR 030700Z 00000KT 10SM BKN093 M14/M17 A2990 RMK AC6 SLP175

CYQR;2010-02-03 08:00;CYQR 030800Z 33003KT 4SM IC OVC093 M14/M17 A2990 RMK AC8 SLP175

CYQR;2010-02-03 09:00;CYQR 030900Z 35002KT 8SM OVC097 M14/M16 A2990 RMK AC8 SLP174

CYQR;2010-02-03 10:00;CYQR 031000Z 33005KT 10SM SCT031 OVC098 M14/M17 A2992 RMK SC3AC5 SLP180

CYQR;2010-02-03 11:00;CYQR 031100Z 33009KT 10SM OVC012 M13/M16 A2993 RMK SC8 SLP183

CYQR;2010-02-03 12:00;CYQR 031200Z 35004KT 10SM SCT012 OVC081 M14/M16 A2994 RMK SC3AC5 SLP187

CYQR;2010-02-03 12:33;CYQR 031233Z 33003KT 10SM -SN SCT012 OVC081 M14/ RMK SC4AC4

CYQR;2010-02-03 13:00;CYQR 031300Z 32006KT 10SM -SN SCT033 OVC086 M14/M17 A2995 RMK SC3AC5 SLP190

CYQR;2010-02-03 14:00;CYQR 031400Z 33005KT 15SM FEW033 M15/M18 A2995 RMK SC2 SLP190

CYQR;2010-02-03 15:00;CYQR 031500Z 30004KT 15SM FEW033 FEW130 FEW260 M17/M20 A2997 RMK SC1AC1CI1 SLP200

CYQR;2010-02-03 16:00;CYQR 031600Z 00000KT 15SM FEW030 SCT090 BKN260 M16/M19 A2998 RMK SC1AC3CI1 SLP204

CYQR;2010-02-03 17:00;CYQR 031700Z 32005KT 15SM FEW090 BKN260 M16/M20 A3001 RMK AC1CI1 SLP212

CYQR;2010-02-03 18:00;CYQR 031800Z 30002KT 15SM BKN097 BKN260 M12/M15 A3001 RMK AC6CI1 SLP209

CYQR;2010-02-03 19:00;CYQR 031900Z 30004KT 15SM SCT100 SCT150 M10/M13 A3000 RMK AC3AC1 SLP205

CYQR;2010-02-03 20:00;CYQR 032000Z 27004KT 15SM FEW100 BKN250 M10/M13 A3000 RMK AC2CI1 SLP208

CYQR;2010-02-03 21:00;CYQR 032100Z 25003KT 15SM FEW090 SCT160 BKN250 M09/M13 A2999 RMK AC2AC2CI1 SLP202

CYQR;2010-02-03 22:00;CYQR 032200Z 00000KT 15SM FEW052 SCT090 BKN160 BKN270 M09/M13 A2999 RMK SC1AC2AC1CI1 SLP201

CYQR;2010-02-03 23:00;CYQR 032300Z 21003KT 15SM SCT090 SCT150 M11/M14 A3000 RMK AC1AC1 SLP204

CYQR;2010-02-04 00:00;CYQR 040000Z 18006KT 15SM BKN095 BKN150 M14/M16 A3001 RMK AC2AC1 SLP211

CYQR;2010-02-04 01:00;CYQR 040100Z 16004KT 15SM BKN074 M14/M16 A3001 RMK AC1 SLP211

CYQR;2010-02-04 02:00;CYQR 040200Z 11005KT 15SM SCT074 M14/M16 A3000 RMK AC1 SLP208

CYQR;2010-02-04 03:00;CYQR 040300Z 10004KT 15SM BKN080 M12/M15 A3000 RMK AC6 SLP210

CYQR;2010-02-04 04:00;CYQR 040400Z 14008KT 10SM OVC072 M11/M14 A3002 RMK AC8 SLP215

CYQR;2010-02-04 04:10;CYQR 040410Z 14009KT 10SM -SN OVC072 M11/ RMK AC8

CYQR;2010-02-04 05:00;CYQR 040500Z 12008KT 10SM -SN OVC076 M12/M15 A3003 RMK AC8 SLP220

CYQR;2010-02-04 06:00;CYQR 040600Z 12010KT 10SM -SN BKN064 M12/M15 A3003 RMK SC6 SLP216

CYQR;2010-02-04 06:37;CYQR 040637Z 12011KT 10SM BKN072 M12/ RMK AC6

CYQR;2010-02-04 07:00;CYQR 040700Z 12013KT 10SM OVC072 M11/M14 A3002 RMK AC8 SLP212

CYQR;2010-02-04 08:00;CYQR 040800Z 12010KT 10SM OVC074 M11/M13 A3000 RMK AC8 SLP207

CYQR;2010-02-04 09:00;CYQR 040900Z 12010KT 10SM OVC074 M11/M13 A3000 RMK AC8 SLP204

CYQR;2010-02-04 10:00;CYQR 041000Z 12013KT 10SM OVC076 M11/M14 A3000 RMK AC8 SLP203

CYQR;2010-02-04 11:00;CYQR 041100Z 13014KT 10SM SCT016 OVC074 M12/M14 A3000 RMK SC3AC5 SLP203

CYQR;2010-02-04 12:00;CYQR 041200Z 14013KT 10SM OVC074 M12/M14 A3000 RMK AC8 SLP207

CYQR;2010-02-04 13:00;CYQR 041300Z 13015KT 10SM OVC074 M12/M14 A3000 RMK AC7 SLP208

CYQR;2010-02-04 14:00;CYQR 041400Z 14013G18KT 15SM BKN074 M12/M14 A3002 RMK AC6 SLP214

CYQR;2010-02-04 15:00;CYQR 041500Z 14017KT 15SM DRSN SCT074 BKN120 M12/M15 A3003 RMK AC2AC2 SLP217

CYQR;2010-02-04 16:00;CYQR 041600Z 14015G20KT 15SM DRSN SCT006 OVC075 M13/M15 A3004 RMK SF4AC3 SLP218

CYQR;2010-02-04 16:43;CYQR 041643Z 13016KT 8SM DRSN BKN006 OVC074 M12/ RMK SC6AC2

CYQR;2010-02-04 17:00;CYQR 041700Z 13015KT 6SM DRSN BR BKN006 OVC074 M13/M13 A3004 RMK SC7AC1 SLP219

CYQR;2010-02-04 17:31;CYQR 041731Z 13015KT 5SM -SN DRSN BR OVC006 M12/ RMK SC8

CYQR;2010-02-04 18:00;CYQR 041800Z 13017KT 4SM -SN DRSN BR OVC006 M11/M14 A3005 RMK SC8 SLP223

CYQR;2010-02-04 18:34;CYQR 041834Z 14016KT 2SM -SN DRSN OVC006 M11/ RMK SC8

CYQR;2010-02-04 19:00;CYQR 041900Z CCA 14015KT 2SM -SN DRSN BR OVC006 M11/M13 A3005 RMK SC8 SLP221

CYQR;2010-02-04 19:47;CYQR 041947Z 14015KT 4SM -SN DRSN BR OVC006 M11/ RMK SC8

CYQR;2010-02-04 20:00;CYQR 042000Z 14015KT 4SM -SN DRSN BR OVC007 M11/M12 A3003 RMK SC8 SLP217

CYQR;2010-02-04 21:00;CYQR 042100Z 15012KT 6SM -SN DRSN BR BKN008 M11/M12 A3002 RMK SC7 SLP212

CYQR;2010-02-04 21:33;CYQR 042133Z 14014KT 6SM DRSN BR BKN007 M11/ RMK SC6

CYQR;2010-02-04 21:52;CYQR 042152Z 14012KT 10SM DRSN FEW007 BKN250 M11/ RMK SC2CI1

CYQR;2010-02-04 22:00;CYQR 042200Z 14012KT 10SM DRSN FEW007 BKN250 M11/M13 A3002 RMK SC2CI1 SLP211

CYQR;2010-02-04 22:38;CYQR 042238Z 13011KT 10SM DRSN BKN006 BKN250 M11/ RMK SF5CI1

CYQR;2010-02-04 23:00;CYQR 042300Z 14014KT 5SM DRSN BR BKN006 OVC250 M11/M13 A3003 RMK SF6CI2 SLP214

CYQR;2010-02-05 00:00;CYQR 050000Z 14012KT 4SM DRSN BR BKN006 OVC250 M11/M13 A3004 RMK SF6CI2 SLP219

CYQR;2010-02-05 00:43;CYQR 050043Z 14014KT 6SM -SN DRSN BR BKN006 OVC250 M10/ RMK SF6CI2

CYQR;2010-02-05 01:00;CYQR 050100Z 14014KT 6SM -SN DRSN BR BKN006 OVC010 M10/M12 A3006 RMK SF6SC2 SLP225

CYQR;2010-02-05 02:00;CYQR 050200Z 14014KT 6SM -SN DRSN BR SCT005 OVC007 M10/M12 A3007 RMK SF4SC4 SLP229

CYQR;2010-02-05 02:40;CYQR 050240Z 14016KT 2 1/2SM -SN DRSN BR OVC006 M10/ RMK SN2SC6

CYQR;2010-02-05 03:00;CYQR 050300Z 14015KT 3SM -SN DRSN BR OVC005 M11/M13 A3008 RMK SC8 SLP231

CYQR;2010-02-05 04:00;CYQR 050400Z 15017KT 2 1/2SM -SN DRSN BR OVC006 M11/M13 A3008 RMK SC8 SLP233

CYQR;2010-02-05 05:00;CYQR 050500Z 15014KT 2SM -SN DRSN BR OVC007 M11/M13 A3009 RMK SN2SC6 SLP234

CYQR;2010-02-05 06:00;CYQR 050600Z 15014KT 2 1/2SM -SN DRSN BR OVC007 M11/M13 A3009 RMK SC8 SLP236

CYQR;2010-02-05 07:00;CYQR 050700Z 14015KT 3SM -SN DRSN BR BKN008 OVC012 M11/M13 A3009 RMK SC6SC2 SLP235

CYQR;2010-02-05 08:00;CYQR 050800Z 15014KT 2 1/2SM -SN DRSN BR OVC005 M11/M12 A3009 RMK SN2SC6 SLP236

CYQR;2010-02-05 09:00;CYQR 050900Z 14013KT 2 1/2SM -SN DRSN BR OVC005 M10/M12 A3010 RMK SC8 SLP239

CYQR;2010-02-05 10:00;CYQR 051000Z 15012KT 2SM -SN DRSN BR OVC005 M10/M12 A3011 RMK SC8 SLP240

CYQR;2010-02-05 10:44;CYQR 051044Z 15012G17KT 2SM -SN DRSN BR OVC004 M10/ RMK SC8

CYQR;2010-02-05 11:00;CYQR 051100Z 15013KT 2SM -SN DRSN BR OVC004 M10/M12 A3011 RMK SC8 SLP240

CYQR;2010-02-05 11:10;CYQR 051110Z 14014KT 1 1/2SM -SN DRSN BR OVC003 M10/ RMK SC8

CYQR;2010-02-05 12:00;CYQR 051200Z 14016KT 1 1/2SM -SN DRSN BR OVC002 M10/M11 A3011 RMK SN1SF7 SLP241

CYQR;2010-02-05 12:29;CYQR 051229Z 15014KT 1 1/2SM -SN DRSN BR OVC003 M10/ RMK SN2SF6

CYQR;2010-02-05 13:00;CYQR 051300Z 15013KT 1 1/2SM -SN DRSN BR OVC004 M10/M11 A3012 RMK SC8 SLP243

CYQR;2010-02-05 14:00;CYQR 051400Z 14012KT 2SM -SN DRSN BR OVC006 M10/M11 A3013 RMK SC8 SLP246

CYQR;2010-02-05 14:24;CYQR 051424Z 15013KT 1SM R13/P6000FT/D -SN DRSN BR OVC006 M09/ RMK SC8

CYQR;2010-02-05 14:50;CYQR 051450Z 14014KT 1SM R13/P6000FT/D -SN DRSN BR OVC004 M09/ RMK SC8

CYQR;2010-02-05 15:00;CYQR 051500Z 15012G17KT 1SM R13/P6000FT/D -SN DRSN BR OVC004 M09/M11 A3014 RMK SC8 SLP250

CYQR;2010-02-05 16:00;CYQR 051600Z 15014KT 1SM R13/P6000FT/N -SN DRSN BR OVC005 M09/M11 A3015 RMK SC8 SLP252

CYQR;2010-02-05 16:45;CYQR 051645Z 16013KT 1SM R13/P6000FT/N -SN DRSN BR OVC003 M09/ RMK SC8

CYQR;2010-02-05 17:00;CYQR 051700Z 15013KT 1 1/4SM -SN DRSN BR OVC004 M09/M10 A3015 RMK SC8 VIS VRB 1-11/2 SLP252

CYQR;2010-02-05 17:31;CYQR 051731Z 15011KT 2SM -SN DRSN BR OVC006 M08/ RMK SC8 SUN DMLY VSBL

CYQR;2010-02-05 18:00;CYQR 051800Z 15010KT 2SM -SN DRSN BR OVC006 M08/M10 A3015 RMK SC8 SLP254

CYQR;2010-02-05 19:00;CYQR 051900Z 15013KT 3SM -SN DRSN BR OVC006 M08/M09 A3015 RMK SC8 SLP253

CYQR;2010-02-05 19:45;CYQR 051945Z 15010KT 8SM OVC008 M08/ RMK SC8 BR

CYQR;2010-02-05 20:00;CYQR 052000Z 16010KT 10SM OVC011 M08/M09 A3014 RMK SC8 BR SLP251

CYQR;2010-02-05 21:00;CYQR 052100Z 16011KT 10SM FEW011 BKN270 M07/M10 A3014 RMK SC1CI0 BR SLP250

CYQR;2010-02-05 22:00;CYQR 052200Z 16010KT 15SM FEW019 BKN270 M08/M10 A3014 RMK SC2CI1 SLP250

CYQR;2010-02-05 23:00;CYQR 052300Z 15010KT 15SM FEW017 BKN270 M08/M10 A3014 RMK SC1CI1 SLP249

CYQR;2010-02-06 00:00;CYQR 060000Z 14009KT 15SM FEW020 BKN270 M09/M11 A3014 RMK SC1CI1 SLP248

CYQR;2010-02-06 01:00;CYQR 060100Z 12009KT 15SM SCT270 M10/M12 A3014 RMK CI2 SLP250

CYQR;2010-02-06 02:00;CYQR 060200Z 13009KT 15SM SCT270 M11/M13 A3015 RMK CI2 SLP252

CYQR;2010-02-06 03:00;CYQR 060300Z 14010KT 15SM SKC M10/M12 A3015 RMK SLP253

CYQR;2010-02-06 04:00;CYQR 060400Z 14008KT 10SM SKC M11/M13 A3016 RMK BR SLP257

CYQR;2010-02-06 05:00;CYQR 060500Z 14010KT 10SM FEW100 M12/M13 A3017 RMK AC2 BR SLP260

CYQR;2010-02-06 06:00;CYQR 060600Z 14010KT 10SM FEW100 M12/M14 A3017 RMK AC2 BR SLP261

CYQR;2010-02-06 07:00;CYQR 060700Z 13009KT 10SM -SN BKN012 BKN027 M11/M13 A3017 RMK SC5SC2 SLP260

CYQR;2010-02-06 07:51;CYQR 060751Z 14010KT 10SM SCT012 BKN027 M12/ RMK SC3SC2 BR

CYQR;2010-02-06 08:00;CYQR 060800Z 14011KT 10SM FEW012 SCT027 M12/M14 A3016 RMK SC2SC2 BR SLP257

CYQR;2010-02-06 09:00;CYQR 060900Z 14008KT 8SM FEW020 M12/M14 A3016 RMK SC2 BR SLP256

CYQR;2010-02-06 10:00;CYQR 061000Z 13008KT 8SM SKC M13/M15 A3016 RMK BR SLP256

CYQR;2010-02-06 11:00;CYQR 061100Z 12007KT 8SM SKC M14/M16 A3016 RMK BR SLP256

CYQR;2010-02-06 12:00;CYQR 061200Z 12007KT 8SM SKC M15/M17 A3016 RMK BR SLP260

CYQR;2010-02-06 12:54;CYQR 061254Z 12007KT 5SM BR SCT003 M15/ RMK SF3

CYQR;2010-02-06 13:00;CYQR 061300Z 12007KT 3SM BR BKN003 M15/M17 A3016 RMK SF6 SLP260

CYQR;2010-02-06 13:43;CYQR 061343Z 11003KT 2SM -SN BR OVC002 M13/ RMK SC8

CYQR;2010-02-06 14:00;CYQR 061400Z 14004KT 2SM -SN BR OVC002 M13/M15 A3017 RMK SC8 SLP265

CYQR;2010-02-06 14:30;CYQR 061430Z 15004KT 1/2SM R13/P6000FT/D SN FZFG VV001 M12/ RMK SN8

CYQR;2010-02-06 15:00;CYQR 061500Z 17004KT 2SM R13/3000VP6000FT/U -SN BR OVC004 M13/M15 A3018 RMK SC8 SLP267

CYQR;2010-02-06 16:00;CYQR 061600Z 15003KT 2SM -SN BR OVC003 M13/M15 A3019 RMK SC8 SLP269

CYQR;2010-02-06 17:00;CYQR 061700Z 16002KT 3SM -SN BR OVC003 M11/M13 A3018 RMK SC8 SLP267

CYQR;2010-02-06 17:38;CYQR 061738Z 00000KT 2SM -SN BR OVC003 M10/ RMK SC8

CYQR;2010-02-06 18:00;CYQR 061800Z 00000KT 2SM -SN BR OVC003 M09/M11 A3018 RMK SC8 SLP266

CYQR;2010-02-06 18:50;CYQR 061850Z 00000KT 3SM -SN BR SCT003 OVC009 M09/ RMK SF4SC4

CYQR;2010-02-06 19:00;CYQR 061900Z 00000KT 3SM -SN BR SCT003 OVC008 M09/M11 A3017 RMK SF4SC4 SLP262

CYQR;2010-02-06 19:45;CYQR 061945Z 28002KT 3SM BR OVC011 M08/ RMK SC8

CYQR;2010-02-06 20:00;CYQR 062000Z 27002KT 3SM BR OVC011 M08/M10 A3015 RMK SC8 SLP257

CYQR;2010-02-06 21:00;CYQR 062100Z 33003KT 3SM BR OVC010 M08/M09 A3015 RMK SC8 SLP255

CYQR;2010-02-06 22:00;CYQR 062200Z 30004KT 3SM BR OVC010 M07/M09 A3015 RMK SC8 SLP255

CYQR;2010-02-06 23:00;CYQR 062300Z 34006KT 3SM BR OVC010 M07/M09 A3015 RMK SC8 SLP255

CYQR;2010-02-07 00:00;CYQR 070000Z 34005KT 3SM BR OVC010 M07/M09 A3016 RMK SC8 SLP258

CYQR;2010-02-07 00:36;CYQR 070036Z 34006KT 4SM -SN BR OVC012 M07/ RMK SC8

CYQR;2010-02-07 01:00;CYQR 070100Z 34007KT 4SM -SN BR OVC012 M07/M09 A3016 RMK SC8 SLP260

CYQR;2010-02-07 01:37;CYQR 070137Z 34006KT 3SM -SN BR OVC009 M08/ RMK SC8

CYQR;2010-02-07 02:00;CYQR 070200Z 34007KT 3SM -SN BR OVC007 M08/M10 A3017 RMK SC8 SLP261

CYQR;2010-02-07 03:00;CYQR 070300Z 34008KT 2 1/2SM -SN BR OVC004 M08/M10 A3016 RMK SC8 SLP260

CYQR;2010-02-07 03:39;CYQR 070339Z 34007KT 1 3/4SM -SN BR OVC003 M08/ RMK SF8

CYQR;2010-02-07 03:52;CYQR 070352Z 34007KT 1SM R13/P6000FT/N -SN BR OVC002 RMK SF8

CYQR;2010-02-07 04:00;CYQR 070400Z 34007KT 3/4SM R13/P6000FT/D -SN BR OVC002 M08/M10 A3016 RMK SF8 SLP258

CYQR;2010-02-07 05:00;CYQR 070500Z 34008KT 3/4SM R13/P6000FT/N -SN BR OVC002 M08/M10 A3015 RMK SC8 SLP255

CYQR;2010-02-07 05:24;CYQR 070524Z 33008KT 3/4SM R13/P6000FT/D -SN -FZDZ BR OVC001 M08/ RMK ST8

CYQR;2010-02-07 06:00;CYQR 070600Z 33007KT 5/8SM R13/4500FT/N -SN -FZDZ BR OVC001 M08/M10 A3015 RMK ST8 SLP253

CYQR;2010-02-07 07:00;CYQR 070700Z 34007KT 5/8SM R13/4000FT/U -SN -FZDZ BR OVC001 M08/M10 A3015 RMK ST8 SLP253

CYQR;2010-02-07 08:00;CYQR 070800Z 35007KT 1SM R13/P6000FT/U -SN -FZDZ BR OVC002 M07/M09 A3015 RMK ST8 SLP253

CYQR;2010-02-07 08:45;CYQR 070845Z 36007KT 2SM -SN BR OVC003 M07/ REFZDZ RMK SC8

CYQR;2010-02-07 09:00;CYQR 070900Z 01007KT 2SM -SN BR OVC003 M07/M08 A3015 REFZDZ RMK SC8 SLP251

CYQR;2010-02-07 09:30;CYQR 070930Z 03007KT 2SM -SN BR OVC005 M07/ RMK SC8

CYQR;2010-02-07 10:00;CYQR 071000Z 07009KT 2SM -SN BR OVC004 M07/M09 A3015 RMK SC8 SLP250

CYQR;2010-02-07 10:47;CYQR 071047Z 04006KT 3SM -SN BR OVC006 M09/ RMK SC8

CYQR;2010-02-07 11:00;CYQR 071100Z 06010KT 3SM -SN BR BKN007 OVC016 M09/M11 A3015 RMK SC6SC2 SLP252

CYQR;2010-02-07 11:54;CYQR 071154Z 05008KT 3SM -SN BR SCT007 OVC022 M10/ RMK SC4SC4

CYQR;2010-02-07 12:00;CYQR 071200Z 04006KT 3SM -SN SCT007 OVC022 M10/M13 A3017 RMK SC4SC4 SLP260

CYQR;2010-02-07 13:00;CYQR 071300Z 04006KT 3SM -SN FEW007 OVC022 M11/M14 A3018 RMK SC2SC6 SLP262

CYQR;2010-02-07 14:00;CYQR 071400Z 05011KT 5SM -SN OVC032 M12/M15 A3019 RMK SC8 SLP266

CYQR;2010-02-07 15:00;CYQR 071500Z 04009KT 7SM -SN OVC032 M13/M16 A3021 RMK SC8 SLP275

CYQR;2010-02-07 15:27;CYQR 071527Z 04009KT 10SM BKN030 BKN100 M14/ RMK SC5AC1

CYQR;2010-02-07 16:00;CYQR 071600Z 05011KT 12SM SCT025 SCT100 BKN250 M15/M18 A3022 RMK SC3AC1CI0 SLP279

CYQR;2010-02-07 17:00;CYQR 071700Z 05011KT 15SM FEW025 SCT100 BKN250 M16/M19 A3024 RMK SC1AC2CI1 SLP286

CYQR;2010-02-07 18:00;CYQR 071800Z 05008KT 15SM FEW025 M17/M20 A3025 RMK SC1 SLP293

CYQR;2010-02-07 19:00;CYQR 071900Z 04009KT 15SM SKC M17/M21 A3025 RMK SLP294

CYQR;2010-02-07 20:00;CYQR 072000Z 02010KT 15SM SKC M18/M22 A3025 RMK SLP293

CYQR;2010-02-07 21:00;CYQR 072100Z 33008KT 15SM SKC M18/M21 A3025 RMK SLP293

CYQR;2010-02-07 22:00;CYQR 072200Z 36010KT 15SM SKC M18/M21 A3026 RMK SLP295

CYQR;2010-02-07 23:00;CYQR 072300Z 35011KT 15SM SKC M19/M22 A3027 RMK SLP300

CYQR;2010-02-08 00:00;CYQR 080000Z 35011KT 15SM SKC M20/M24 A3029 RMK SLP310

CYQR;2010-02-08 01:00;CYQR 080100Z 35012KT 15SM SKC M22/M26 A3031 RMK SLP317

CYQR;2010-02-08 02:00;CYQR 080200Z 35011KT 15SM SKC M24/M28 A3032 RMK SLP321

CYQR;2010-02-08 03:00;CYQR 080300Z 36012KT 15SM SKC M24/M28 A3033 RMK SLP330

CYQR;2010-02-08 04:00;CYQR 080400Z 34008KT 12SM -SN SCT012 M26/M29 A3034 RMK SC3 SLP334

CYQR;2010-02-08 04:19;CYQR 080419Z 34009KT 8SM -SN BKN012 M25/ RMK SC6

CYQR;2010-02-08 04:36;CYQR 080436Z 35010KT 6SM IC FEW012 M25/ RMK SC2

CYQR;2010-02-08 04:53;CYQR 080453Z 34010KT 10SM FEW007 BKN025 M25/ RMK SC2SC4 IC

CYQR;2010-02-08 05:00;CYQR 080500Z 34009KT 10SM FEW007 BKN011 BKN025 M25/M29 A3035 RMK SC2SC2SC2 IC SLP335

CYQR;2010-02-08 05:05;CYQR 080505Z 35008KT 6SM IC FEW009 SCT025 M25/ RMK SC2SC2

CYQR;2010-02-08 06:00;CYQR 080600Z 34008KT 5SM IC FEW009 FEW025 M26/M30 A3035 RMK SC1SC1 SLP342

CYQR;2010-02-08 07:00;CYQR 080700Z 34007KT 10SM FEW013 M26/M30 A3037 RMK SC2 IC SLP348

CYQR;2010-02-08 08:00;CYQR 080800Z 32004KT 10SM FEW011 M27/M32 A3037 RMK SC2 IC SLP349

CYQR;2010-02-08 09:00;CYQR 080900Z 33006KT 10SM FEW010 M28/M32 A3039 RMK SC1 IC SLP358

CYQR;2010-02-08 10:00;CYQR 081000Z 01008KT 12SM SKC M28/M31 A3039 RMK IC SLP356

CYQR;2010-02-08 11:00;CYQR 081100Z 36004KT 12SM SKC M28/M32 A3040 RMK IC SLP360

CYQR;2010-02-08 12:00;CYQR 081200Z 28004KT 12SM FEW015 M29/M34 A3042 RMK SC1 SLP370

CYQR;2010-02-08 13:00;CYQR 081300Z 34005KT 12SM FEW015 M29/M34 A3042 RMK SC1 SLP370

CYQR;2010-02-08 14:00;CYQR 081400Z 34003KT 15SM FEW120 FEW240 M30/M35 A3043 RMK AC1CI1 SLP373

CYQR;2010-02-08 15:00;CYQR 081500Z 32005KT 15SM SCT018 BKN097 M30/M35 A3044 RMK SC3AC2 SLP381

CYQR;2010-02-08 15:46;CYQR 081546Z 28004KT 10SM -SN OVC016 M27/ RMK SC8

CYQR;2010-02-08 16:00;CYQR 081600Z 34002KT 10SM -SN BKN016 M26/M31 A3045 RMK SC7 SLP384

CYQR;2010-02-08 17:00;CYQR 081700Z 00000KT 14SM -SN BKN010 BKN120 M23/M27 A3045 RMK SC2AC1 SLP383

CYQR;2010-02-08 18:00;CYQR 081800Z 27003KT 10SM -SN BKN015 M22/M27 A3045 RMK SC7 SLP378

CYQR;2010-02-08 19:00;CYQR 081900Z 26003KT 10SM BKN011 M21/M26 A3044 RMK SC5 SLP377

CYQR;2010-02-08 20:00;CYQR 082000Z 26003KT 14SM SCT009 BKN250 M20/M24 A3043 RMK SC2CI2 SLP372

CYQR;2010-02-08 21:00;CYQR 082100Z 21004KT 15SM FEW009 FEW050 BKN250 M20/M25 A3041 RMK SC1SC1CI5 SLP365

CYQR;2010-02-08 22:00;CYQR 082200Z 22003KT 15SM FEW050 SCT090 BKN250 M20/M24 A3040 RMK SC2AC2CI1 SLP363

CYQR;2010-02-08 23:00;CYQR 082300Z 20007KT 15SM SCT050 BKN250 M21/M26 A3040 RMK SC2CI1 SLP361

CYQR;2010-02-09 00:00;CYQR 090000Z 23004KT 15SM FEW050 FEW250 M23/M27 A3040 RMK SC1CI1 SLP366

CYQR;2010-02-09 01:00;CYQR 090100Z 16004KT 15SM FEW050 FEW250 M24/M28 A3039 RMK SC1CI1 SLP364

CYQR;2010-02-09 02:00;CYQR 090200Z 16003KT 15SM SKC M24/M28 A3039 RMK IC SLP364

CYQR;2010-02-09 03:00;CYQR 090300Z 15007KT 15SM SKC M23/M27 A3037 RMK IC SLP357

CYQR;2010-02-09 04:00;CYQR 090400Z 13008KT 15SM SKC M25/M29 A3036 RMK IC SLP355

CYQR;2010-02-09 05:00;CYQR 090500Z 13008KT 15SM SKC M25/M29 A3036 RMK SLP354

CYQR;2010-02-09 06:00;CYQR 090600Z 13010KT 15SM SKC M24/M28 A3035 RMK SLP344

CYQR;2010-02-09 07:00;CYQR 090700Z 13010KT 15SM SKC M24/M28 A3035 RMK SLP343

CYQR;2010-02-09 08:00;CYQR 090800Z 14012KT 15SM FEW006 SCT014 M23/M27 A3034 RMK SF2SC2 SLP339

CYQR;2010-02-09 08:05;CYQR 090805Z 14012KT 12SM -SN SCT006 BKN014 RMK SF2SC2

CYQR;2010-02-09 08:16;CYQR 090816Z 14013KT 12SM -SN BKN005 OVC014 M23/ RMK ST5SC2

CYQR;2010-02-09 09:00;CYQR 090900Z 14014KT 12SM -SN BKN004 OVC013 M21/M25 A3033 RMK ST5SC3 SLP332

CYQR;2010-02-09 09:13;CYQR 090913Z 14013KT 6SM -SN OVC003 M21/ RMK ST8

CYQR;2010-02-09 09:45;CYQR 090945Z 15012KT 2SM -SN DRSN BR OVC003 M21/ RMK ST8

CYQR;2010-02-09 10:00;CYQR 091000Z 15012KT 2SM -SN DRSN BR OVC002 M20/M24 A3032 RMK ST8 SLP330

CYQR;2010-02-09 10:11;CYQR 091011Z 15011KT 1 1/2SM -SN DRSN BR OVC002 M20/ RMK ST8 VIS VRB 1-2

CYQR;2010-02-09 10:35;CYQR 091035Z 14012KT 3/4SM R13/6000FT/D BR OVC002 M20/ RMK ST8

CYQR;2010-02-09 11:00;CYQR 091100Z 14013KT 1/2SM R13/5000FT/N FZFG OVC002 M19/M22 A3030 RMK ST8 SLP324

CYQR;2010-02-09 11:35;CYQR 091135Z 15010KT 3/4SM R13/5500FT/U BR OVC002 M19/ RMK ST8

CYQR;2010-02-09 12:00;CYQR 091200Z 17011KT 1 1/2SM BR OVC002 M18/M21 A3030 RMK ST8 FROIN SLP321

CYQR;2010-02-09 12:11;CYQR 091211Z 16010KT 2 1/2SM BR OVC003 M18/ RMK ST8

CYQR;2010-02-09 12:32;CYQR 091232Z 17012KT 3SM BR OVC004 M18/ RMK ST8

CYQR;2010-02-09 13:00;CYQR 091300Z 15008KT 6SM BR OVC004 M19/M22 A3028 RMK ST6 SLP316

CYQR;2010-02-09 13:04;CYQR 091304Z 15008KT 6SM IC OVC005 M19/ RMK ST6 IC

CYQR;2010-02-09 13:22;CYQR 091322Z 14009KT 15SM BKN005 BKN120 M20/ RMK ST2AC1 RIME ON INDICATOR

CYQR;2010-02-09 14:00;CYQR 091400Z 14010KT 5SM BR FEW005 FEW260 M21/M24 A3026 RMK ST0CI1 RIME ON INDICATOR SLP310

CYQR;2010-02-09 15:00;CYQR 091500Z 14011KT 5SM R13/5500FT/D BR FEW260 M19/M23 A3025 RMK CI0 SLP307

CYQR;2010-02-09 15:18;CYQR 091518Z 15012KT 2SM R13/3500FT/N DRSN BR BKN260 M20/ RMK CI0 VIS N-SE 12

CYQR;2010-02-09 15:22;CYQR 091522Z 15012KT 3SM R13/3500FT/N DRSN BR BKN260 M20/ RMK CI0 VIS VRB 2-4 VIS N-SE 12

CYQR;2010-02-09 16:00;CYQR 091600Z 15010KT 10SM DRSN BKN260 BKN300 M20/M23 A3025 RMK CI0CC1 BR SLP306

CYQR;2010-02-09 17:00;CYQR 091700Z 15013KT 8SM DRSN BKN260 M19/M22 A3024 RMK CI0 BR CONTRAILS SLP304

CYQR;2010-02-09 18:00;CYQR 091800Z 15013KT 6SM IC DRSN BKN260 M18/M21 A3023 RMK CI0 SLP298

CYQR;2010-02-09 19:00;CYQR 091900Z 15013KT 6SM IC DRSN BKN260 M17/M20 A3020 RMK CI0 SLP288

CYQR;2010-02-09 20:00;CYQR 092000Z 15013KT 2SM IC DRSN BKN260 M16/M19 A3017 RMK CI0 VIS VRB 2-4 SLP280

CYQR;2010-02-09 21:00;CYQR 092100Z 15013KT 3SM IC DRSN FEW260 M16/M19 A3015 RMK CI0 VIS VRB 2-4 SLP266

CYQR;2010-02-09 22:00;CYQR 092200Z 15014KT 10SM DRSN FEW260 M16/M19 A3013 RMK CI0 SLP262

CYQR;2010-02-09 22:41;CYQR 092241Z 15015KT 6SM IC DRSN FEW260 M16/ RMK CI0

CYQR;2010-02-09 23:00;CYQR 092300Z 14017KT 6SM IC DRSN FEW260 M16/M20 A3010 RMK CI0 SLP252

CYQR;2010-02-10 00:00;CYQR 100000Z 14017KT 4SM IC DRSN FEW260 M17/M20 A3009 RMK CI0 VIS VRB 2-4 SLP245

CYQR;2010-02-10 01:00;CYQR 100100Z 14017KT 3SM IC DRSN FEW260 M17/M21 A3007 RMK CI0 VIS VRB 2-4 SLP239

CYQR;2010-02-10 02:00;CYQR 100200Z 14015KT 2 1/2SM IC DRSN SKC M18/M21 A3006 RMK VIS VRB 2-3 SLP235

CYQR;2010-02-10 03:00;CYQR 100300Z 14015KT 2 1/2SM IC DRSN SKC M19/M23 A3004 RMK SLP229

CYQR;2010-02-10 04:00;CYQR 100400Z 14016KT 4SM IC DRSN SKC M20/M24 A3002 RMK SLP223

CYQR;2010-02-10 05:00;CYQR 100500Z 14016KT 5SM IC DRSN SKC M20/M24 A3000 RMK SLP219

CYQR;2010-02-10 06:00;CYQR 100600Z 14015KT 4SM IC DRSN SKC M20/M24 A2999 RMK SLP212

CYQR;2010-02-10 07:00;CYQR 100700Z 15013KT 3SM IC DRSN SKC M20/M24 A2997 RMK SLP207

CYQR;2010-02-10 07:26;CYQR 100726Z 14013KT 2 1/2SM IC DRSN SKC M20/

CYQR;2010-02-10 08:00;CYQR 100800Z 14012KT 2SM IC DRSN SKC M21/M25 A2996 RMK VIS VRB 11/2-21/2 SLP204

CYQR;2010-02-10 09:00;CYQR 100900Z 14011KT 2SM IC DRSN SKC M20/M24 A2994 RMK VIS VRB 11/2-21/2 SLP195

CYQR;2010-02-10 09:42;CYQR 100942Z 15010KT 2SM IC DRSN SCT003 OVC030 M19/ RMK ST3SC4 VIS VRB 11/2-21/2

CYQR;2010-02-10 10:00;CYQR 101000Z 15011KT 2SM IC DRSN SCT003 OVC032 M19/M23 A2992 RMK ST3SC5 VIS VRB 11/2-21/2 SLP189

CYQR;2010-02-10 11:00;CYQR 101100Z 15010KT 5SM IC DRSN SCT003 OVC027 M18/M22 A2991 RMK ST4SC4 SLP185

CYQR;2010-02-10 12:00;CYQR 101200Z 14010KT 5SM IC DRSN SCT003 OVC031 M17/M21 A2990 RMK ST4SC4 SLP178

CYQR;2010-02-10 13:00;CYQR 101300Z 15010KT 10SM SCT003 OVC029 M17/M21 A2989 RMK ST4SC4 IC SLP175

CYQR;2010-02-10 13:18;CYQR 101318Z 15009KT 10SM BKN003 OVC029 M17/ RMK ST6SC2 IC

CYQR;2010-02-10 14:00;CYQR 101400Z 14010KT 12SM BKN003 OVC027 M17/M20 A2989 RMK ST5SC3 IC SLP175

CYQR;2010-02-10 14:12;CYQR 101412Z 15009KT 12SM SCT003 OVC025 M17/ RMK ST3SC5 IC

CYQR;2010-02-10 15:00;CYQR 101500Z 14009KT 12SM FEW003 OVC021 M16/M20 A2988 RMK ST1SC7 IC SLP174

CYQR;2010-02-10 15:19;CYQR 101519Z 14009KT 8SM OVC013 M16/ RMK SC8 IC

CYQR;2010-02-10 15:24;CYQR 101524Z 13009KT 8SM -SN OVC013 M16/ RMK SC8

CYQR;2010-02-10 16:00;CYQR 101600Z 14009KT 8SM -SN OVC013 M16/M19 A2988 RMK SC8 SLP172

CYQR;2010-02-10 17:00;CYQR 101700Z 15008KT 6SM -SN BR OVC013 M15/M18 A2988 RMK SC8 SLP172

CYQR;2010-02-10 18:00;CYQR 101800Z 15008KT 4SM -SN OVC017 M14/M17 A2987 RMK SC7 SLP168

CYQR;2010-02-10 18:34;CYQR 101834Z 15009KT 12SM FEW013 OVC300 M14/ RMK SC2CI2 IC

CYQR;2010-02-10 19:00;CYQR 101900Z 16008KT 12SM FEW013 BKN300 M14/M17 A2985 RMK SC1CI2 IC SLP163

CYQR;2010-02-10 19:30;CYQR 101930Z 15007KT 15SM FEW120 BKN300 M14/ RMK AC1CI2

CYQR;2010-02-10 20:00;CYQR 102000Z 16008KT 15SM FEW120 BKN300 M14/M17 A2984 RMK AC1CI1 SLP158

CYQR;2010-02-10 21:00;CYQR 102100Z 17007KT 15SM FEW180 BKN300 M14/M17 A2983 RMK AC1CI1 SLP155

CYQR;2010-02-10 22:00;CYQR 102200Z 16009KT 15SM BKN300 M14/M17 A2983 RMK CI2 SLP155

CYQR;2010-02-10 23:00;CYQR 102300Z 15008KT 15SM FEW300 M14/M18 A2982 RMK CI1 SLP152

CYQR;2010-02-11 00:00;CYQR 110000Z 14008KT 15SM FEW180 FEW300 M16/M19 A2982 RMK AC1CI2 SLP150

CYQR;2010-02-11 00:30;CYQR 110030Z 14008KT 15SM BKN012 M15/ RMK SC7

CYQR;2010-02-11 01:00;CYQR 110100Z 15008KT 15SM OVC012 M15/M18 A2982 RMK SC8 SLP151

CYQR;2010-02-11 01:03;CYQR 110103Z 15009KT 12SM -SN OVC012 M15/ RMK SC8

CYQR;2010-02-11 02:00;CYQR 110200Z 15007KT 12SM -SN OVC009 M15/M18 A2982 RMK SC8 SLP150

CYQR;2010-02-11 02:29;CYQR 110229Z 15006KT 12SM -SN OVC007 M15/ RMK SC8

CYQR;2010-02-11 03:00;CYQR 110300Z 13006KT 12SM -SN OVC008 M15/M18 A2982 RMK SC8 SLP150

CYQR;2010-02-11 03:19;CYQR 110319Z 13006KT 12SM -SN OVC005 M15/ RMK ST8

CYQR;2010-02-11 03:40;CYQR 110340Z 14006KT 12SM -SN OVC004 M15/ RMK ST8

CYQR;2010-02-11 04:00;CYQR 110400Z 14006KT 5SM -SN BR OVC003 M15/M18 A2982 RMK ST8 VIS S 3 SLP149

CYQR;2010-02-11 04:07;CYQR 110407Z 14005KT 2SM -SN BR OVC003 M15/ RMK ST8

CYQR;2010-02-11 05:00;CYQR 110500Z 13004KT 1 1/2SM -SN BR OVC003 M15/M18 A2981 RMK ST8 SLP148

CYQR;2010-02-11 05:49;CYQR 110549Z 13003KT 1 1/2SM -SN BR OVC002 M15/ RMK ST8

CYQR;2010-02-11 06:00;CYQR 110600Z 14003KT 1SM R13/P6000FT/U -SN BR VV002 M15/M18 A2982 RMK FG8 SLP147

CYQR;2010-02-11 07:00;CYQR 110700Z 14003KT 3/4SM R13/3000VP6000FT/D -SN BR VV001 M15/M18 A2982 RMK FG8 SLP147

CYQR;2010-02-11 07:26;CYQR 110726Z 16002KT 1/2SM R13/2400FT/N -SN FZFG VV001 M15/ RMK FG8

CYQR;2010-02-11 07:46;CYQR 110746Z 17002KT 3/8SM R13/1800V2200FT/N -SN FZFG VV001 M15/ RMK FG8

CYQR;2010-02-11 08:00;CYQR 110800Z 16002KT 3/8SM R13/2000FT/N FZFG VV001 M15/M18 A2982 RMK FG8 SLP148

CYQR;2010-02-11 08:09;CYQR 110809Z 14004KT 1/2SM R13/2200FT/N FZFG VV001 M15/ RMK FG8

CYQR;2010-02-11 09:00;CYQR 110900Z 14003KT 3/4SM R13/3000V5000FT/U BR VV001 M15/M17 A2982 RMK FG8 VIS VRB 1/2-1 SLP146

CYQR;2010-02-11 10:00;CYQR 111000Z 17003KT 1/2SM R13/2600FT/N FZFG VV001 M14/M17 A2982 RMK FG8 FROIN SLP147

CYQR;2010-02-11 10:05;CYQR 111005Z 16003KT 1/4SM R13/2200FT/N FZFG VV001 M14/ RMK FG8

CYQR;2010-02-11 11:00;CYQR 111100Z 17002KT 1/4SM R13/2400FT/N FZFG VV001 M14/M17 A2983 RMK FG8 SLP149

CYQR;2010-02-11 11:42;CYQR 111142Z 18003KT 1/4SM R13/3000FT/N FZFG OVC007 M13/ RMK ST8

CYQR;2010-02-11 12:00;CYQR 111200Z 22002KT 1/4SM R13/4000V5500FT/N FZFG OVC006 M13/M15 A2984 RMK ST8 FROIN SLP153

CYQR;2010-02-11 12:04;CYQR 111204Z 23002KT 1/2SM R13/5000FT/U FZFG OVC005 M13/ RMK ST8

CYQR;2010-02-11 12:17;CYQR 111217Z 25002KT 5/8SM R13/P6000FT/U BR BKN001 OVC005 M13/ RMK ST5ST3

CYQR;2010-02-11 12:21;CYQR 111221Z 25002KT 1SM R13/P6000FT/D BR SCT001 OVC006 M13/ RMK ST4ST4

CYQR;2010-02-11 12:35;CYQR 111235Z 26002KT 1 3/4SM BR BKN001 OVC005 M13/ RMK ST5ST3 VIS VRB 11/2-2

CYQR;2010-02-11 12:50;CYQR 111250Z 26002KT 1 3/4SM IC OVC004 M12/ RMK IC2ST6 VIS VRB 11/2-2

CYQR;2010-02-11 13:00;CYQR 111300Z 28003KT 1 3/4SM IC OVC003 M12/M14 A2985 RMK IC2ST6 VIS VRB 11/2-2 SLP157

CYQR;2010-02-11 13:22;CYQR 111322Z 30003KT 1 3/4SM IC OVC002 M12/ RMK IC2ST6

CYQR;2010-02-11 13:33;CYQR 111333Z 29003KT 1SM R13/P6000FT/D IC VV002 M12/ RMK IC8

CYQR;2010-02-11 13:40;CYQR 111340Z 29003KT 1SM R13/P6000FT/U BR VV001 M12/ RMK FG8

CYQR;2010-02-11 14:00;CYQR 111400Z 30003KT 3/4SM R13/4000VP6000FT/D BR VV001 M12/M14 A2986 RMK FG8 SLP159

CYQR;2010-02-11 14:07;CYQR 111407Z 30003KT 1/4SM R13/2800V4000FT/D FZFG VV001 M12/ RMK FG8

CYQR;2010-02-11 14:46;CYQR 111446Z 28002KT 1/8SM R13/1100FT/N FZFG VV001 M12/ RMK FG8

CYQR;2010-02-11 15:00;CYQR 111500Z CCA 31003KT 1/8SM R13/1000FT/N FZFG VV001 M11/M13 A2988 RMK FG8 FROIN SLP165

CYQR;2010-02-11 15:31;CYQR 111531Z 28002KT 1/8SM R13/1000FT/N -SN FZFG VV001 M11/ RMK FG8

CYQR;2010-02-11 15:44;CYQR 111544Z 28002KT 1/4SM R13/1400FT/N -SN FZFG VV001 M11/ RMK FG8

CYQR;2010-02-11 16:00;CYQR 111600Z 30003KT 1/4SM R13/1600FT/U -SN FZFG VV001 M11/M13 A2989 RMK FG8 SLP169

CYQR;2010-02-11 16:21;CYQR 111621Z 29005KT 5/8SM R13/3500FT/U -SN BR VV002 M10/ RMK SN8

CYQR;2010-02-11 17:00;CYQR 111700Z 30009KT 3/4SM R13/4500VP6000FT/U BR OVC002 M10/M11 A2990 RMK ST8 SLP173

CYQR;2010-02-11 17:24;CYQR 111724Z 29009KT 1SM R13/P6000FT/U -SN BR OVC003 M09/ RMK ST8

CYQR;2010-02-11 18:00;CYQR 111800Z 30007KT 1SM R13/P6000FT/N -SN BR OVC003 M09/M11 A2991 RMK ST8 SLP173

CYQR;2010-02-11 18:13;CYQR 111813Z 30008KT 2SM -SN BR OVC004 M10/ RMK SC8

CYQR;2010-02-11 19:00;CYQR 111900Z 31007KT 2SM -SN BR OVC003 M10/M12 A2990 RMK SC8 SLP171

CYQR;2010-02-11 19:23;CYQR 111923Z 31009KT 1SM R13/P6000FT/D -SN BR OVC002 M09/ RMK SC8

CYQR;2010-02-11 20:00;CYQR 112000Z 30006KT 15SM R13/6000FT/N OVC002 M09/M10 A2990 RMK SC8 SLP172

CYQR;2010-02-11 20:21;CYQR 112021Z 32005KT 1 1/2SM -SN BR OVC003 M08/ RMK SC8

CYQR;2010-02-11 21:00;CYQR 112100Z 31006KT 1SM R13/4000VP6000FT/D BR OVC001 M08/M10 A2991 RMK SC8 SLP172

CYQR;2010-02-11 21:10;CYQR 112110Z 31006KT 3/4SM R13/4000FT/N BR OVC002 M08/ RMK SC8

CYQR;2010-02-11 21:26;CYQR 112126Z 31007KT 1/2SM R13/3000FT/U FZFG OVC001 M08/ RMK SC8

CYQR;2010-02-11 22:00;CYQR 112200Z 30005KT 1/2SM R13/3000FT/N FZFG VV001 M08/M09 A2991 RMK FG8 SLP173

CYQR;2010-02-11 23:00;CYQR 112300Z 31006KT 5/8SM R13/5000FT/D BR VV001 M07/M09 A2992 RMK FG8 SLP177

CYQR;2010-02-12 00:00;CYQR 120000Z 29004KT 1 1/4SM BR OVC002 M07/M08 A2992 RMK ST8 SLP175

CYQR;2010-02-12 00:12;CYQR 120012Z 30004KT 1 3/4SM BR OVC002 M06/ RMK ST8

CYQR;2010-02-12 00:28;CYQR 120028Z 30004KT 2SM BR OVC002 M06/ RMK ST8

CYQR;2010-02-12 00:48;CYQR 120048Z 29006KT 2SM -SN BR OVC002 M06/ RMK ST8

CYQR;2010-02-12 01:00;CYQR 120100Z 27007KT 1 3/4SM -SN BR OVC002 M06/M08 A2992 RMK ST8 SLP176

CYQR;2010-02-12 01:39;CYQR 120139Z 28008KT 3/4SM R13/P6000FT/D -SN BR VV001 M07/ RMK FG8

CYQR;2010-02-12 01:53;CYQR 120153Z 27007KT 1/2SM R13/5000FT/D FZFG VV001 M07/ RMK FG8

CYQR;2010-02-12 02:00;CYQR 120200Z 28006KT 3/8SM R13/2800V4500FT/D FZFG VV001 M07/M09 A2993 RMK FG8 SLP177

CYQR;2010-02-12 03:00;CYQR 120300Z 28006KT 1/4SM R13/2400FT/N FZFG VV001 M08/M09 A2993 RMK FG8 SLP177

CYQR;2010-02-12 04:00;CYQR 120400Z 28005KT 1/4SM R13/2000FT/N FZFG VV001 M08/M09 A2993 RMK FG8 SLP177

CYQR;2010-02-12 05:00;CYQR 120500Z 27004KT 1/4SM R13/1800FT/N FZFG VV001 M08/M09 A2991 RMK FG8 SLP173

CYQR;2010-02-12 06:00;CYQR 120600Z 25004KT 1/4SM R13/1800FT/N FZFG VV001 M08/M09 A2991 RMK FG8 SLP171

CYQR;2010-02-12 07:00;CYQR 120700Z 26003KT 1/4SM R13/2200FT/N FZFG VV001 M08/M10 A2991 RMK FG8 SLP169

CYQR;2010-02-12 08:00;CYQR 120800Z 22002KT 1/4SM R13/2200FT/N FZFG VV001 M09/M10 A2990 RMK FG8 FROIN SLP166

CYQR;2010-02-12 09:00;CYQR 120900Z 18002KT 1/4SM R13/2400FT/N FZFG VV001 M09/M11 A2989 RMK FG8 SLP162

CYQR;2010-02-12 10:00;CYQR 121000Z 13004KT 3/8SM R13/3000FT/D FZFG VV001 M10/M11 A2988 RMK FG8 SLP158

CYQR;2010-02-12 11:00;CYQR 121100Z 13003KT 3/8SM R13/3000FT/D FZFG VV001 M10/M11 A2987 RMK FG8 SLP157

CYQR;2010-02-12 12:00;CYQR 121200Z 15004KT 3/8SM R13/3000FT/N FZFG VV001 M10/M12 A2987 RMK FG8 SLP155

CYQR;2010-02-12 13:00;CYQR 121300Z 14004KT 3/8SM R13/3000V4500FT/D FZFG VV001 M11/M13 A2986 RMK FG8 FROIN SLP153

CYQR;2010-02-12 13:22;CYQR 121322Z 12005KT 1/2SM R13/3500V5500FT/D FZFG VV001 M12/ RMK FG8

CYQR;2010-02-12 14:00;CYQR 121400Z CCA 10005KT 3/8SM R13/3500FT/N FZFG VV001 M12/M14 A2986 RMK FG8 FROIN SLP151

CYQR;2010-02-12 14:25;CYQR 121425Z 13004KT 1/2SM R13/3500FT/D FZFG VV001 M12/ RMK FG8

CYQR;2010-02-12 15:00;CYQR 121500Z 12004KT 3/8SM R13/3000FT/U -SN FZFG VV001 M13/M15 A2986 RMK FG8 FROIN SLP155

CYQR;2010-02-12 15:18;CYQR 121518Z 12003KT 1/2SM R13/4000FT/N -SN FZFG VV002 M13/ RMK FG8

CYQR;2010-02-12 16:00;CYQR 121600Z 11004KT 1/2SM R13/5500FT/U -SN FZFG VV002 M12/M14 A2986 RMK FG8 SLP155

CYQR;2010-02-12 16:29;CYQR 121629Z 10004KT 1SM R13/P6000FT/N -SN BR OVC003 M12/ RMK FG2ST6

CYQR;2010-02-12 16:45;CYQR 121645Z 11004KT 2SM -SN BR OVC002 M12/ RMK SF8

CYQR;2010-02-12 17:00;CYQR 121700Z 10005KT 2SM -SN BR OVC003 M12/M14 A2986 RMK SF8 SLP155

CYQR;2010-02-12 18:00;CYQR 121800Z 10004KT 2 1/2SM R13/4500VP6000FT/U -SN BR OVC003 M11/M13 A2986 RMK SF8 SLP153

CYQR;2010-02-12 18:34;CYQR 121834Z 13004KT 2 1/2SM -SN BR OVC002 M11/ RMK SF8

CYQR;2010-02-12 19:00;CYQR 121900Z 10003KT 2 1/2SM -SN BR OVC003 M10/M12 A2986 RMK SF8 SLP151

CYQR;2010-02-12 19:19;CYQR 121919Z 08002KT 3SM -SN BR OVC003 M10/ RMK SF8

CYQR;2010-02-12 20:00;CYQR 122000Z 09002KT 6SM -SN BR BKN003 OVC005 M09/M11 A2985 RMK SF6SC2 SLP150

CYQR;2010-02-12 20:31;CYQR 122031Z 08003KT 8SM -SN FEW003 OVC006 M09/ RMK SF2SC6 BR

CYQR;2010-02-12 21:00;CYQR 122100Z 08002KT 10SM -SN OVC005 M08/M10 A2985 RMK SF8 BR SLP150

CYQR;2010-02-12 22:00;CYQR 122200Z 00000KT 12SM OVC006 M08/M10 A2985 RMK SF8 SLP149

CYQR;2010-02-12 23:00;CYQR 122300Z CCA 02002KT 10SM -SN OVC008 M08/M10 A2986 RMK SC8 SLP152

CYQR;2010-02-13 00:00;CYQR 130000Z 02003KT 12SM -SN OVC008 M08/M10 A2988 RMK SC8 SLP161

CYQR;2010-02-13 00:12;CYQR 130012Z 03003KT 12SM OVC009 M08/ RMK SC8

CYQR;2010-02-13 00:36;CYQR 130036Z 01004KT 8SM -SN OVC007 M09/ RMK SC8

CYQR;2010-02-13 01:00;CYQR 130100Z 01004KT 7SM -SN OVC006 M08/M10 A2989 RMK SC8 SLP164

CYQR;2010-02-13 01:29;CYQR 130129Z 03004KT 12SM -SN SCT008 OVC012 M09/ RMK ST4SC4

CYQR;2010-02-13 02:00;CYQR 130200Z 04005KT 12SM -SN FEW008 OVC011 M09/M11 A2991 RMK SF2SC6 SLP168

CYQR;2010-02-13 02:36;CYQR 130236Z 04004KT 12SM -SN SCT017 OVC019 M10/ RMK SC3SC5

CYQR;2010-02-13 03:00;CYQR 130300Z 03007KT 12SM -SN OVC021 M11/M13 A2993 RMK SC8 SLP181

CYQR;2010-02-13 04:00;CYQR 130400Z 03007KT 15SM -SN BKN012 M13/M15 A2995 RMK SC7 SLP186

CYQR;2010-02-13 04:42;CYQR 130442Z 03006KT 15SM FEW019 OVC024 M14/ RMK SC2SC6

CYQR;2010-02-13 05:00;CYQR 130500Z 03007KT 15SM BKN021 M15/M17 A2996 RMK SC7 SLP191

CYQR;2010-02-13 06:00;CYQR 130600Z 03006KT 15SM FEW029 M16/M18 A2997 RMK SC2 SLP197

CYQR;2010-02-13 07:00;CYQR 130700Z 04005KT 15SM SKC M17/M19 A2999 RMK SLP202

CYQR;2010-02-13 08:00;CYQR 130800Z 01004KT 15SM SKC M20/M22 A3000 RMK SLP208

CYQR;2010-02-13 09:00;CYQR 130900Z 04005KT 15SM SKC M19/M21 A3002 RMK SLP215

CYQR;2010-02-13 10:00;CYQR 131000Z 36007KT 15SM SKC M21/M23 A3003 RMK SLP219

CYQR;2010-02-13 11:00;CYQR 131100Z 02008KT 15SM SCT047 M20/M22 A3005 RMK SC3 SLP225

CYQR;2010-02-13 12:00;CYQR 131200Z 36007KT 15SM BKN049 M22/M24 A3008 RMK SC5 SLP239

CYQR;2010-02-13 13:00;CYQR 131300Z 34009KT 15SM FEW050 M23/M26 A3012 RMK SC2 SLP252

CYQR;2010-02-13 14:00;CYQR 131400Z 34008KT 15SM FEW240 M25/M27 A3015 RMK CI1 SLP261

CYQR;2010-02-13 14:26;CYQR 131426Z 36003KT 12SM FEW240 M25/ RMK CI1 IC

CYQR;2010-02-13 15:00;CYQR 131500Z 34004KT 12SM SKC M25/M27 A3018 RMK IC SLP277

CYQR;2010-02-13 16:00;CYQR 131600Z 34006KT 12SM SKC M24/M26 A3021 RMK IC SLP286

CYQR;2010-02-13 17:00;CYQR 131700Z 33008KT 15SM SKC M21/M25 A3023 RMK SLP293

CYQR;2010-02-13 18:00;CYQR 131800Z 34008KT 15SM FEW300 M19/M23 A3027 RMK CI1 SLP306

CYQR;2010-02-13 19:00;CYQR 131900Z 34009KT 12SM FEW170 FEW300 M19/M22 A3029 RMK AC1CI1 SLP313

CYQR;2010-02-13 20:00;CYQR 132000Z 35009KT 15SM FEW270 M17/M20 A3030 RMK CI2 SLP318

CYQR;2010-02-13 21:00;CYQR 132100Z 34009KT 15SM FEW270 M16/M19 A3032 RMK CI1 SLP325

CYQR;2010-02-13 22:00;CYQR 132200Z 33010KT 15SM FEW270 M15/M18 A3035 RMK CI1 SLP335

CYQR;2010-02-13 23:00;CYQR 132300Z 34010KT 15SM FEW270 M16/M20 A3038 RMK CI1 SLP343

CYQR;2010-02-14 00:00;CYQR 140000Z 34009KT 15SM FEW270 M17/M21 A3041 RMK CI1 SLP358

CYQR;2010-02-14 01:00;CYQR 140100Z 33009KT 15SM FEW270 M19/M22 A3044 RMK CI1 SLP367

CYQR;2010-02-14 02:00;CYQR 140200Z 35009KT 15SM SKC M20/M23 A3045 RMK SLP373

CYQR;2010-02-14 03:00;CYQR 140300Z 34007KT 15SM SKC M21/M24 A3047 RMK SLP385

CYQR;2010-02-14 04:00;CYQR 140400Z 32008KT 15SM SKC M22/M26 A3049 RMK SLP392

CYQR;2010-02-14 05:00;CYQR 140500Z 32007KT 15SM SKC M22/M26 A3050 RMK SLP396

CYQR;2010-02-14 06:00;CYQR 140600Z 32006KT 15SM SKC M24/M28 A3053 RMK SLP402

CYQR;2010-02-14 07:00;CYQR 140700Z 30005KT 15SM FEW010 M25/M29 A3054 RMK SF1 SLP406

CYQR;2010-02-14 08:00;CYQR 140800Z 31007KT 15SM FEW003 M26/M31 A3055 RMK SF1 SLP410

CYQR;2010-02-14 09:00;CYQR 140900Z 32007KT 15SM FEW003 M26/M31 A3056 RMK SF1 SLP414

CYQR;2010-02-14 10:00;CYQR 141000Z 35006KT 15SM FEW003 M26/M30 A3056 RMK SF1 SLP413

CYQR;2010-02-14 11:00;CYQR 141100Z 31006KT 15SM SCT002 M27/M31 A3056 RMK SF2 SLP412

CYQR;2010-02-14 11:22;CYQR 141122Z CCA 29006KT 15SM BKN003 M27/ RMK SF3 IC

CYQR;2010-02-14 11:47;CYQR 141147Z 30006KT 2 1/2SM IC BKN001 M27/ RMK SF3

CYQR;2010-02-14 12:00;CYQR 141200Z 31006KT 2SM IC BKN005 M27/M31 A3057 RMK SF4 SLP418

CYQR;2010-02-14 12:08;CYQR 141208Z 31007KT 1 1/2SM R13/4000VP6000FT/D IC BKN003 M26/ RMK SF6

CYQR;2010-02-14 12:16;CYQR 141216Z 29005KT 1SM R13/4000V5000FT/N IC BKN003 M26/ RMK SF4

CYQR;2010-02-14 12:44;CYQR 141244Z 30005KT 1SM R13/P6000FT/D IC BR OVC003 M26/ RMK SF7

CYQR;2010-02-14 13:00;CYQR 141300Z 32004KT 1SM R13/P6000FT/D -SN BR OVC003 M26/M30 A3058 RMK SF8 SLP421

CYQR;2010-02-14 13:08;CYQR 141308Z 32003KT 2SM -SN BR OVC002 M26/ RMK SF8

CYQR;2010-02-14 13:18;CYQR 141318Z 32004KT 1 1/2SM -SN BR OVC001 M26/ RMK SF8

CYQR;2010-02-14 13:54;CYQR 141354Z 32004KT 5/8SM R13/2400FT/N -SN BR OVC002 M25/ RMK SF8

CYQR;2010-02-14 14:00;CYQR 141400Z 32004KT 3/8SM R13/2200FT/N -SN FZFG OVC002 M25/M29 A3057 RMK FG4SF4 SLP419

CYQR;2010-02-14 14:22;CYQR 141422Z 03002KT 1 1/2SM R13/3000V6000FT/N -SN BR OVC002 M25/ RMK SF8

CYQR;2010-02-14 14:41;CYQR 141441Z 04003KT 3SM BR SCT002 BKN270 M24/ RMK SF4CI0

CYQR;2010-02-14 15:00;CYQR 141500Z 05003KT 6SM BR FEW002 SCT005 BKN270 M24/M28 A3058 RMK SF2SF2CI1 SLP422

CYQR;2010-02-14 16:00;CYQR 141600Z 00000KT 10SM FEW005 BKN270 M22/M27 A3057 RMK SC2CI1 SLP420

CYQR;2010-02-14 17:00;CYQR 141700Z 27002KT 10SM FEW005 M21/M25 A3057 RMK SF2 IC SLP420

CYQR;2010-02-14 18:00;CYQR 141800Z 25003KT 10SM FEW005 M20/M24 A3058 RMK SF1 IC SLP420

CYQR;2010-02-14 19:00;CYQR 141900Z 26003KT 10SM FEW004 M19/M22 A3056 RMK SF1 IC SLP416

CYQR;2010-02-14 20:00;CYQR 142000Z 00000KT 12SM SKC M17/M20 A3055 RMK IC SLP412

CYQR;2010-02-14 21:00;CYQR 142100Z 24002KT 12SM SKC M17/M20 A3055 RMK IC SLP411

CYQR;2010-02-14 22:00;CYQR 142200Z 00000KT 12SM SKC M16/M19 A3055 RMK IC SLP410

CYQR;2010-02-14 23:00;CYQR 142300Z 00000KT 12SM SKC M17/M20 A3054 RMK SLP406

CYQR;2010-02-15 00:00;CYQR 150000Z 14008KT 15SM SKC M19/M24 A3052 RMK SLP402

CYQR;2010-02-15 01:00;CYQR 150100Z 14004KT 15SM SKC M20/M23 A3051 RMK SLP400

CYQR;2010-02-15 02:00;CYQR 150200Z 14006KT 15SM SKC M21/M25 A3049 RMK SLP394

CYQR;2010-02-15 03:00;CYQR 150300Z 12005KT 15SM SKC M23/M26 A3048 RMK SLP390

CYQR;2010-02-15 04:00;CYQR 150400Z 14007KT 15SM SKC M23/M27 A3048 RMK SLP388

CYQR;2010-02-15 05:00;CYQR 150500Z 14009KT 15SM SKC M23/M27 A3047 RMK SLP387

CYQR;2010-02-15 06:00;CYQR 150600Z 14009KT 15SM SKC M23/M27 A3047 RMK SLP382

CYQR;2010-02-15 07:00;CYQR 150700Z 14010KT 15SM SKC M22/M26 A3046 RMK SLP381

CYQR;2010-02-15 08:00;CYQR 150800Z 16007KT 15SM SKC M24/M28 A3046 RMK SLP379

CYQR;2010-02-15 09:00;CYQR 150900Z 15010KT 10SM -SN FEW004 SCT028 M24/M28 A3046 RMK SF2SC2 SLP376

CYQR;2010-02-15 09:07;CYQR 150907Z 14010KT 5SM -SN BR BKN006 BKN028 M23/ RMK SF5SC2

CYQR;2010-02-15 09:15;CYQR 150915Z 15009KT 2 1/2SM -SN BR FEW001 BKN006 BKN028 M23/ RMK SF2SF4SC2

CYQR;2010-02-15 09:24;CYQR 150924Z 14008KT 2SM IC BR BKN001 OVC004 M22/ RMK SF5SF2

CYQR;2010-02-15 09:39;CYQR 150939Z 13009KT 3SM BR SCT001 BKN006 M23/ RMK SF3SF2

CYQR;2010-02-15 09:48;CYQR 150948Z 13009KT 6SM BR FEW001 FEW006 M23/ RMK SF1SF2

CYQR;2010-02-15 10:00;CYQR 151000Z 13008KT 8SM FEW001 M23/M27 A3044 RMK SF2 SLP369

CYQR;2010-02-15 11:00;CYQR 151100Z 13009KT 12SM FEW002 M23/M27 A3043 RMK SF1 SLP366

CYQR;2010-02-15 12:00;CYQR 151200Z 13010KT 15SM FEW002 M23/M27 A3042 RMK SF1 SLP364

CYQR;2010-02-15 13:00;CYQR 151300Z 12008KT 15SM FEW002 M24/M28 A3041 RMK SF1 SLP363

CYQR;2010-02-15 14:00;CYQR 151400Z 13009KT 15SM FEW005 M24/M27 A3041 RMK SF1 SLP363

CYQR;2010-02-15 15:00;CYQR 151500Z 14009KT 15SM FEW270 M22/M26 A3042 RMK CI1 SLP368

CYQR;2010-02-15 16:00;CYQR 151600Z 14010KT 15SM SCT270 M21/M25 A3042 RMK CI1 SLP366

CYQR;2010-02-15 17:00;CYQR 151700Z 14010KT 15SM SCT270 M19/M23 A3042 RMK CI1 SLP367

CYQR;2010-02-15 18:00;CYQR 151800Z 14012KT 15SM FEW270 M17/M21 A3041 RMK CI1 SLP359

CYQR;2010-02-15 19:00;CYQR 151900Z 14010KT 15SM FEW260 M16/M19 A3039 RMK CI1 SLP354

CYQR;2010-02-15 20:00;CYQR 152000Z 14011KT 15SM FEW270 M14/M17 A3038 RMK CI1 SLP349

CYQR;2010-02-15 21:00;CYQR 152100Z 15012KT 15SM SCT270 M14/M17 A3036 RMK CI1 SLP340

CYQR;2010-02-15 22:00;CYQR 152200Z 14013KT 15SM SCT270 M14/M18 A3036 RMK CI1 SLP339

CYQR;2010-02-15 23:00;CYQR 152300Z 14013KT 15SM FEW270 M14/M18 A3036 RMK CI1 SLP339

CYQR;2010-02-16 00:00;CYQR 160000Z 14015KT 15SM FEW270 M15/M19 A3034 RMK CI1 SLP334

CYQR;2010-02-16 01:00;CYQR 160100Z 14012KT 15SM FEW270 M16/M20 A3034 RMK CI1 SLP332

CYQR;2010-02-16 02:00;CYQR 160200Z 14013KT 15SM SKC M17/M21 A3032 RMK SLP327

CYQR;2010-02-16 03:00;CYQR 160300Z 15014KT 15SM SKC M17/M21 A3030 RMK SLP319

CYQR;2010-02-16 04:00;CYQR 160400Z 14016KT 15SM SKC M19/M24 A3029 RMK SLP317

CYQR;2010-02-16 05:00;CYQR 160500Z 14012KT 15SM SKC M20/M24 A3028 RMK SLP315

CYQR;2010-02-16 06:00;CYQR 160600Z 14013KT 15SM SKC M20/M25 A3027 RMK SLP310

CYQR;2010-02-16 07:00;CYQR 160700Z 13010KT 15SM SKC M21/M26 A3026 RMK SLP307

CYQR;2010-02-16 08:00;CYQR 160800Z 12007KT 15SM SKC M22/M27 A3026 RMK SLP305

CYQR;2010-02-16 09:00;CYQR 160900Z 13006KT 15SM SKC M23/M27 A3024 RMK SLP299

CYQR;2010-02-16 10:00;CYQR 161000Z 13009KT 15SM SKC M23/M28 A3023 RMK SLP294

CYQR;2010-02-16 11:00;CYQR 161100Z 15008KT 15SM FEW040 M22/M26 A3021 RMK SC2 SLP289

CYQR;2010-02-16 12:00;CYQR 161200Z 12008KT 15SM SCT050 M22/M26 A3020 RMK SC3 SLP284

CYQR;2010-02-16 13:00;CYQR 161300Z 13006KT 15SM SCT040 BKN090 M20/M24 A3019 RMK SC3AC3 SLP280

CYQR;2010-02-16 14:00;CYQR 161400Z 13008KT 15SM SCT026 BKN038 M17/M22 A3017 RMK SC3SC3 SLP274

CYQR;2010-02-16 15:00;CYQR 161500Z 14006KT 15SM FEW025 BKN040 OVC270 M15/M19 A3016 RMK SF1SC6CI1 SLP268

CYQR;2010-02-16 16:00;CYQR 161600Z 14007KT 15SM FEW017 BKN024 OVC040 M13/M17 A3016 RMK SC1SC5SC2 SLP266

CYQR;2010-02-16 16:38;CYQR 161638Z 14006KT 10SM -SN BKN022 OVC034 M12/ RMK SC5SC3

CYQR;2010-02-16 17:00;CYQR 161700Z 16006KT 3SM -SN OVC022 M11/M14 A3015 RMK SC8 VIS VRB 2-4 SLP265

CYQR;2010-02-16 17:41;CYQR 161741Z 15006KT 10SM BKN020 OVC043 M10/ RMK SC6SC2

CYQR;2010-02-16 18:00;CYQR 161800Z 16006KT 10SM BKN018 BKN041 OVC120 M09/M12 A3014 RMK SC5SC2AC1 SLP258

CYQR;2010-02-16 18:19;CYQR 161819Z 15006KT 10SM FEW009 SCT018 OVC041 M09/ RMK SF1SC2SC5

CYQR;2010-02-16 19:00;CYQR 161900Z 16006KT 12SM SCT007 OVC040 M09/M11 A3013 RMK SC3SC5 SLP254

CYQR;2010-02-16 19:37;CYQR 161937Z 16007KT 12SM BKN006 OVC040 M08/ RMK SC5SC3

CYQR;2010-02-16 19:51;CYQR 161951Z 16006KT 10SM BKN005 OVC040 M07/ RMK SC6SC2

CYQR;2010-02-16 20:00;CYQR 162000Z 16006KT 12SM BKN005 OVC040 M07/M09 A3011 RMK SC7SC1 SLP248

CYQR;2010-02-16 20:40;CYQR 162040Z 18005KT 10SM OVC007 M07/ RMK SC8

CYQR;2010-02-16 21:00;CYQR 162100Z 17004KT 10SM OVC007 M06/M09 A3010 RMK SC8 SLP243

CYQR;2010-02-16 22:00;CYQR 162200Z 16002KT 12SM OVC007 M06/M09 A3009 RMK SC8 SLP240

CYQR;2010-02-16 22:33;CYQR 162233Z 22002KT 12SM OVC003 M07/ RMK SC8

CYQR;2010-02-16 22:46;CYQR 162246Z 30006KT 3SM R13/2400FT/N BR OVC002 M06/ RMK SF8

CYQR;2010-02-16 22:49;CYQR 162249Z 29007KT 1SM R13/2200FT/N BR OVC002 M07/ RMK SF8

CYQR;2010-02-16 22:51;CYQR 162251Z 29006KT 1/2SM R13/2000FT/N FZFG OVC001 M07/ RMK SF8

CYQR;2010-02-16 23:00;CYQR 162300Z 31006KT 3/8SM R13/2000FT/N FZFG VV001 M07/M08 A3009 RMK FG8 SLP240

CYQR;2010-02-17 00:00;CYQR 170000Z 30008KT 1/4SM R13/1800FT/N FZFG VV001 M07/M09 A3009 RMK FG8 SLP241

CYQR;2010-02-17 01:00;CYQR 170100Z 28006KT 1/4SM R13/2000FT/N FZFG VV001 M08/M10 A3010 RMK FG8 SLP242

CYQR;2010-02-17 02:00;CYQR 170200Z 30007KT 1/4SM R13/1600FT/N FZFG VV006 M08/M10 A3010 RMK FG8 SLP242

CYQR;2010-02-17 03:00;CYQR 170300Z 33005KT 1/4SM R13/2000FT/N FZFG VV006 M08/M10 A3009 RMK FG8 SLP235

CYQR;2010-02-17 04:00;CYQR 170400Z 36002KT 1/4SM R13/2000FT/N FZFG VV001 M08/M09 A3008 RMK FG8 SLP233

CYQR;2010-02-17 05:00;CYQR 170500Z 27004KT 1/4SM R13/1800FT/N FZFG VV001 M07/M08 A3008 RMK FG8 SLP232

CYQR;2010-02-17 05:41;CYQR 170541Z 31005KT 3/8SM R13/2200FT/N FZFG VV001 RMK FG8 VIS VRB 1/4-1/2

CYQR;2010-02-17 06:00;CYQR 170600Z 27005KT 3/8SM R13/2000FT/N FZFG VV001 M08/M09 A3009 RMK FG8 VIS VRB 1/4-1/2 FROST ON INDICATOR SLP230

CYQR;2010-02-17 07:00;CYQR 170700Z 31006KT 3/8SM R13/2600FT/N FZFG VV001 M08/M09 A3008 RMK FG8 SLP229

CYQR;2010-02-17 08:00;CYQR 170800Z 30005KT 3/8SM R13/2600FT/N FZFG VV001 M08/M09 A3008 RMK FG8 VIS VRB 1/4-1/2 SLP229

CYQR;2010-02-17 09:00;CYQR 170900Z 30007KT 3/8SM R13/3000FT/N FZFG VV001 M08/M10 A3009 RMK FG8 VIS VRB 1/4-1/2 SLP230

CYQR;2010-02-17 10:00;CYQR 171000Z 32004KT 3/8SM R13/2600FT/N FZFG VV001 M09/M11 A3009 RMK FG8 VIS VRB 1/4-1/2 SLP230

CYQR;2010-02-17 11:00;CYQR 171100Z 34003KT 3/8SM R13/2600FT/N FZFG VV001 M09/M11 A3009 RMK FG8 VIS VRB 1/4-1/2 SLP230

CYQR;2010-02-17 12:00;CYQR 171200Z 34004KT 3/8SM R13/2600V3500FT/N FZFG VV001 M09/M11 A3010 RMK FG8 VIS VRB 1/4-1/2 SLP234

CYQR;2010-02-17 12:27;CYQR 171227Z 36004KT 5/8SM R13/3000V4500FT/U BR VV001 M09/ RMK FG8 VIS VRB 1/2-3/4

CYQR;2010-02-17 13:00;CYQR 171300Z 35004KT 3/4SM R13/4500FT/N BR VV001 M09/M11 A3011 RMK FG8 SLP237

CYQR;2010-02-17 14:00;CYQR 171400Z 34004KT 5/8SM R13/4000FT/D BR VV001 M09/M10 A3011 RMK FG8 SLP238

CYQR;2010-02-17 14:38;CYQR 171438Z 35004KT 1/2SM R13/2200FT/N FZFG VV001 M09/ RMK FG8

CYQR;2010-02-17 14:48;CYQR 171448Z 35005KT 3/8SM R13/2000FT/N FZFG VV001 M09/ RMK FG8

CYQR;2010-02-17 15:00;CYQR 171500Z 36003KT 3/8SM R13/2000FT/N FZFG VV001 M09/M10 A3012 RMK FG8 SLP242

CYQR;2010-02-17 16:00;CYQR 171600Z 33003KT 3/8SM R13/2200FT/N FZFG VV001 M08/M10 A3014 RMK FG8 SLP247

CYQR;2010-02-17 16:22;CYQR 171622Z 30005KT 3/8SM R13/2000FT/N -SN FZFG VV001 M08/ RMK FG8

CYQR;2010-02-17 17:00;CYQR 171700Z 30005KT 3/8SM R13/2200FT/N -SN FZFG VV001 M08/M09 A3014 RMK FG8 SLP248

CYQR;2010-02-17 18:00;CYQR 171800Z 29005KT 3/8SM R13/2600FT/N -SN FZFG VV001 M07/M09 A3014 RMK FG8 SLP248

CYQR;2010-02-17 18:52;CYQR 171852Z 31006KT 1/2SM R13/3000VP6000FT/U -SN FZFG VV001 M07/ RMK FG8

CYQR;2010-02-17 19:00;CYQR 171900Z 31005KT 5/8SM R13/3500V5500FT/D BR OVC001 M07/M08 A3014 RMK FG6SF2 SLP246

CYQR;2010-02-17 20:00;CYQR 172000Z CCA 29006KT 1/2SM R13/2800V5000FT/U FZFG VV001 M08/M09 A3014 RMK FG8 SLP247

CYQR;2010-02-17 20:28;CYQR 172028Z 30007KT 3/4SM R13/P6000FT/D BR VV001 M08/ RMK FG8

CYQR;2010-02-17 21:00;CYQR 172100Z 31006KT 3/4SM R13/P6000FT/D BR OVC001 M08/M09 A3013 RMK FG4SF4 SLP245

CYQR;2010-02-17 21:19;CYQR 172119Z 30007KT 1 1/2SM BR OVC002 M08/ RMK FG3ST5

CYQR;2010-02-17 21:37;CYQR 172137Z 31006KT 4SM BR OVC003 M08/ RMK ST8

CYQR;2010-02-17 22:00;CYQR 172200Z 31005KT 4SM BR OVC004 M08/M10 A3014 RMK ST8 SLP246

CYQR;2010-02-17 23:00;CYQR 172300Z 33006KT 8SM OVC005 M08/M10 A3014 RMK SC8 BR SLP247

CYQR;2010-02-17 23:44;CYQR 172344Z 30005KT 12SM OVC006 M09/ RMK SC8

CYQR;2010-02-18 00:00;CYQR 180000Z 30004KT 12SM OVC006 M09/M11 A3014 RMK SC8 SLP249

CYQR;2010-02-18 00:26;CYQR 180026Z 30004KT 10SM BKN005 OVC270 M09/ RMK SC7CI1

CYQR;2010-02-18 00:44;CYQR 180044Z 29004KT 12SM SCT005 OVC270 M10/ RMK SC4CI2

CYQR;2010-02-18 01:00;CYQR 180100Z 29003KT 12SM BKN006 OVC270 M11/M13 A3015 RMK SC5CI3 SLP252

CYQR;2010-02-18 02:00;CYQR 180200Z 28003KT 15SM BKN007 M12/M14 A3015 RMK SC2 SLP252

CYQR;2010-02-18 03:00;CYQR 180300Z 28004KT 15SM BKN007 M14/M16 A3015 RMK SC2 SLP258

CYQR;2010-02-18 04:00;CYQR 180400Z 28005KT 15SM BKN100 M14/M16 A3015 RMK AC1 SLP258

CYQR;2010-02-18 05:00;CYQR 180500Z 29006KT 15SM FEW250 M16/M19 A3015 RMK CI0 SLP258

CYQR;2010-02-18 06:00;CYQR 180600Z 29003KT 15SM FEW250 M17/M20 A3016 RMK CI0 SLP260

CYQR;2010-02-18 07:00;CYQR 180700Z 29004KT 15SM SKC M18/M21 A3015 RMK VIS E 1 DUE FG PTCH SLP259

CYQR;2010-02-18 08:00;CYQR 180800Z 28005KT 15SM SKC M18/M21 A3015 RMK SLP258

CYQR;2010-02-18 09:00;CYQR 180900Z 27003KT 15SM SKC M19/M22 A3015 RMK SLP259

CYQR;2010-02-18 10:00;CYQR 181000Z 28002KT 15SM SKC M18/M21 A3014 RMK SLP257

CYQR;2010-02-18 10:55;CYQR 181055Z 00000KT 4SM BR BKN006 M18/ RMK SF3

CYQR;2010-02-18 11:00;CYQR 181100Z 00000KT 2SM BR BKN006 M18/M20 A3014 RMK SF5 SLP257

CYQR;2010-02-18 11:41;CYQR 181141Z 00000KT 3SM R13/3000VP6000FT/U BR OVC006 M21/ RMK ST8 VIS VRB 2-4

CYQR;2010-02-18 12:00;CYQR 181200Z 00000KT 6SM BR OVC006 M19/M21 A3015 RMK ST8 SLP258

CYQR;2010-02-18 12:27;CYQR 181227Z 00000KT 10SM OVC003 M16/ RMK ST8 IC

CYQR;2010-02-18 13:00;CYQR 181300Z 30002KT 10SM OVC002 M16/M18 A3014 RMK ST8 IC SLP256

CYQR;2010-02-18 13:12;CYQR 181312Z 00000KT 6SM BR OVC002 M15/ RMK ST8

CYQR;2010-02-18 13:26;CYQR 181326Z 00000KT 6SM BR OVC001 M15/ RMK ST8

CYQR;2010-02-18 13:48;CYQR 181348Z 00000KT 6SM BR OVC002 M15/ RMK ST8

CYQR;2010-02-18 14:00;CYQR 181400Z 25002KT 6SM BR OVC002 M14/M17 A3014 RMK ST8 SLP255

CYQR;2010-02-18 14:05;CYQR 181405Z 23002KT 3SM BR OVC001 M14/ RMK ST8 VIS VRB 2-4

CYQR;2010-02-18 14:20;CYQR 181420Z 22002KT 3SM BR OVC003 M14/ RMK ST8 VIS VRB 2-4

CYQR;2010-02-18 15:00;CYQR 181500Z 22002KT 5SM BR OVC004 M12/M13 A3013 RMK ST8 SLP250

CYQR;2010-02-18 16:00;CYQR 181600Z 19002KT 5SM BR OVC004 M11/M13 A3012 RMK ST8 SLP249

CYQR;2010-02-18 16:33;CYQR 181633Z 22003KT 5SM BR OVC003 M10/ RMK ST8

CYQR;2010-02-18 17:00;CYQR 181700Z 22004KT 4SM BR OVC003 M10/M12 A3012 RMK ST8 SLP247

CYQR;2010-02-18 18:00;CYQR 181800Z CCA 20003KT 3SM BR OVC004 M09/M11 A3011 RMK ST8 VIS VRB 2-4 SLP245

CYQR;2010-02-18 19:00;CYQR 181900Z 18003KT 5SM BR OVC005 M09/M11 A3010 RMK ST8 SLP240

CYQR;2010-02-18 19:24;CYQR 181924Z 19002KT 5SM BR OVC003 M08/ RMK ST8

CYQR;2010-02-18 20:00;CYQR 182000Z 22004KT 2 1/2SM BR OVC002 M07/M09 A3008 RMK ST8 SLP235

CYQR;2010-02-18 20:15;CYQR 182015Z 21005KT 2SM BR OVC002 M07/ RMK ST8 VIS VRB 11/2-21/2

CYQR;2010-02-18 20:43;CYQR 182043Z 19004KT 4SM BR OVC003 M07/ RMK ST8

CYQR;2010-02-18 21:00;CYQR 182100Z 19003KT 4SM BR BKN003 OVC006 M07/M08 A3007 RMK ST6ST2 SLP230

CYQR;2010-02-18 22:00;CYQR 182200Z 18003KT 4SM BR OVC003 M07/M09 A3006 RMK ST8 SLP227

CYQR;2010-02-18 23:00;CYQR 182300Z 15002KT 4SM BR FEW004 OVC011 M06/M08 A3005 RMK ST2SC6 SLP225

CYQR;2010-02-18 23:23;CYQR 182323Z 14004KT 5SM BR BKN003 OVC009 M07/ RMK ST5SC3

CYQR;2010-02-19 00:00;CYQR 190000Z 15004KT 6SM BR OVC004 M07/M09 A3005 RMK ST8 SLP225

CYQR;2010-02-19 01:00;CYQR 190100Z 15004KT 12SM OVC004 M08/M10 A3004 RMK ST8 SLP222

CYQR;2010-02-19 02:00;CYQR 190200Z 13004KT 12SM -SN BKN004 OVC024 M08/M10 A3004 RMK ST7SC1 SLP222

CYQR;2010-02-19 03:00;CYQR 190300Z 13005KT 12SM -SN BKN005 OVC024 M08/M10 A3004 RMK ST7SC1 SLP217

CYQR;2010-02-19 04:00;CYQR 190400Z 13005KT 10SM -SN BKN005 OVC024 M08/M10 A3004 RMK SF6SC2 SLP215

CYQR;2010-02-19 05:00;CYQR 190500Z 13004KT 12SM -SN BKN013 OVC022 M08/M10 A3003 RMK SC6SC2 SLP214

CYQR;2010-02-19 06:00;CYQR 190600Z 13004KT 10SM -SN BKN009 OVC014 M08/M10 A3003 RMK SC6SC2 SLP212

CYQR;2010-02-19 07:00;CYQR 190700Z 12004KT 10SM -SN BKN009 OVC015 M08/M10 A3003 RMK SC7SC1 SLP211

CYQR;2010-02-19 08:00;CYQR 190800Z 10003KT 10SM -SN BKN009 OVC017 M08/M10 A3003 RMK SC7SC1 SLP211

CYQR;2010-02-19 09:00;CYQR 190900Z 12004KT 10SM -SN BKN008 OVC019 M08/M10 A3003 RMK SC7SC1 SLP208

CYQR;2010-02-19 10:00;CYQR 191000Z 11002KT 6SM -SN BKN003 OVC019 M08/M10 A3002 RMK SC7SC1 SLP205

CYQR;2010-02-19 10:43;CYQR 191043Z 11004KT 3SM -SN BR OVC003 M08/ RMK SC8

CYQR;2010-02-19 10:54;CYQR 191054Z 11004KT 2SM -SN BR OVC003 M08/ RMK SC8

CYQR;2010-02-19 11:00;CYQR 191100Z 13004KT 1 1/2SM -SN BR OVC002 M08/M10 A3001 RMK ST8 SLP204

CYQR;2010-02-19 11:06;CYQR 191106Z 12003KT 1SM R13/P6000FT/D -SN BR OVC002 M08/ RMK ST8

CYQR;2010-02-19 12:00;CYQR 191200Z 14002KT 2 1/2SM -SN BR OVC002 M08/M10 A3002 RMK ST8 VIS VRB 2-3 SLP207

CYQR;2010-02-19 13:00;CYQR 191300Z 13004KT 2 1/2SM -SN OVC002 M08/M10 A3003 RMK ST8 VIS VRB 2-3 SLP209

CYQR;2010-02-19 13:16;CYQR 191316Z 13004KT 4SM -SN OVC004 M08/ RMK ST8

CYQR;2010-02-19 13:17;CYQR 191317Z CCA 13004KT 4SM -SN OVC003 M08/ RMK ST8

CYQR;2010-02-19 14:00;CYQR 191400Z 12003KT 4SM -SN OVC005 M08/M10 A3004 RMK ST8 SLP211

CYQR;2010-02-19 15:00;CYQR 191500Z 10003KT 3SM -SN OVC006 M09/M11 A3004 RMK ST8 VIS VRB 2-4 SLP214

CYQR;2010-02-19 15:24;CYQR 191524Z 11002KT 5SM -SN BKN009 OVC017 M09/ RMK ST5SC3

CYQR;2010-02-19 15:42;CYQR 191542Z 13003KT 5SM -SN SCT010 OVC017 M09/ RMK ST3SC5

CYQR;2010-02-19 16:00;CYQR 191600Z 12003KT 6SM -SN FEW010 OVC019 M08/M11 A3005 RMK ST2SC6 SLP216

CYQR;2010-02-19 17:00;CYQR 191700Z 00000KT 5SM -SN OVC019 M08/M10 A3005 RMK SC8 SLP217

CYQR;2010-02-19 18:00;CYQR 191800Z 00000KT 6SM -SN BKN017 OVC034 M08/M09 A3005 RMK SC7SC1 SLP215

CYQR;2010-02-19 18:13;CYQR 191813Z 29002KT 6SM -SN BKN014 OVC034 M07/ RMK SC6SC2

CYQR;2010-02-19 19:00;CYQR 191900Z 00000KT 6SM -SN OVC011 M07/M09 A3005 RMK SC8 SLP217

CYQR;2010-02-19 20:00;CYQR 192000Z 28003KT 10SM -SN OVC010 M07/M09 A3005 RMK SC8 SLP216

CYQR;2010-02-19 21:00;CYQR 192100Z 33004KT 10SM -SN OVC010 M07/M09 A3005 RMK SC8 SLP214

CYQR;2010-02-19 21:41;CYQR 192141Z 34005KT 8SM -SN BKN019 OVC031 M07/ RMK SC6SC2

CYQR;2010-02-19 22:00;CYQR 192200Z 34004KT 9SM -SN BKN019 OVC031 M07/M09 A3005 RMK SC6SC2 SLP216

CYQR;2010-02-19 22:24;CYQR 192224Z 32003KT 8SM -SN BKN014 OVC031 M07/ RMK SC5SC3

CYQR;2010-02-19 23:00;CYQR 192300Z 31004KT 4SM -SN OVC014 M07/M09 A3006 RMK SC8 SLP218

CYQR;2010-02-20 00:00;CYQR 200000Z 31004KT 5SM -SN SCT011 OVC014 M07/M09 A3006 RMK SC3SC5 SLP220

CYQR;2010-02-20 00:28;CYQR 200028Z 33004KT 6SM -SN SCT010 BKN024 OVC060 M07/ RMK SC3SC3SC2

CYQR;2010-02-20 01:00;CYQR 200100Z 35004KT 8SM -SN FEW020 BKN026 OVC060 M07/M09 A3007 RMK SC2SC5SC2 SLP222

CYQR;2010-02-20 02:00;CYQR 200200Z 03002KT 10SM -SN BKN026 OVC060 M07/M09 A3007 RMK SC6SC2 SLP222

CYQR;2010-02-20 03:00;CYQR 200300Z 34003KT 10SM -SN BKN012 OVC058 M08/M10 A3007 RMK SC6SC2 SLP224

CYQR;2010-02-20 03:23;CYQR 200323Z 34004KT 10SM -SN BKN009 OVC060 M08/ RMK SC7SC1

CYQR;2010-02-20 04:00;CYQR 200400Z 34004KT 10SM -SN BKN009 OVC060 M08/M10 A3007 RMK SC7SC1 SLP225

CYQR;2010-02-20 05:00;CYQR 200500Z 36004KT 10SM -SN BKN014 OVC060 M08/M10 A3008 RMK SC7SC1 SLP226

CYQR;2010-02-20 06:00;CYQR 200600Z 01002KT 10SM -SN BKN010 OVC060 M08/M10 A3008 RMK SC7SC1 SLP226

CYQR;2010-02-20 07:00;CYQR 200700Z 35005KT 12SM -SN BKN020 OVC060 M08/M10 A3008 RMK SC7SC1 SLP225

CYQR;2010-02-20 08:00;CYQR 200800Z 36004KT 12SM -SN BKN020 OVC060 M08/M10 A3008 RMK SC6SC2 SLP227

CYQR;2010-02-20 09:00;CYQR 200900Z 01002KT 12SM -SN OVC022 M08/M10 A3009 RMK SC8 SLP230

CYQR;2010-02-20 10:00;CYQR 201000Z 03002KT 12SM -SN BKN022 OVC077 M09/M11 A3009 RMK SC6AC2 SLP230

CYQR;2010-02-20 11:00;CYQR 201100Z 34004KT 12SM -SN BKN016 OVC071 M09/M11 A3009 RMK SC5AC3 SLP231

CYQR;2010-02-20 12:00;CYQR 201200Z 34004KT 12SM -SN BKN023 OVC071 M09/M11 A3010 RMK SC6AC2 SLP233

CYQR;2010-02-20 13:00;CYQR 201300Z 35003KT 12SM -SN BKN011 OVC022 M09/M11 A3011 RMK SC6SC2 SLP237

CYQR;2010-02-20 14:00;CYQR 201400Z 35003KT 12SM -SN OVC012 M09/M11 A3012 RMK SC8 SLP239

CYQR;2010-02-20 15:00;CYQR 201500Z 35003KT 12SM -SN OVC016 M08/M11 A3013 RMK SC8 SLP243

CYQR;2010-02-20 16:00;CYQR 201600Z 34003KT 12SM -SN SCT009 OVC020 M08/M10 A3013 RMK SF4SC4 SLP245

CYQR;2010-02-20 17:00;CYQR 201700Z 00000KT 15SM -SN BKN010 OVC019 M07/M09 A3014 RMK SF5SC3 SLP248

CYQR;2010-02-20 18:00;CYQR 201800Z 23002KT 12SM -SN BKN012 OVC020 M07/M09 A3015 RMK SC6SC2 SLP252

CYQR;2010-02-20 19:00;CYQR 201900Z 18003KT 12SM -SN BKN014 OVC020 M08/M10 A3016 RMK SC6SC2 SLP253

CYQR;2010-02-20 20:00;CYQR 202000Z 19002KT 15SM -SN BKN014 OVC028 M08/M10 A3016 RMK SC6SC2 SLP253

CYQR;2010-02-20 21:00;CYQR 202100Z 19002KT 15SM SCT014 OVC030 M08/M10 A3016 RMK SC3SC5 SLP255

CYQR;2010-02-20 21:21;CYQR 202121Z 19002KT 15SM BKN014 BKN030 OVC082 M08/ RMK SC5SC2AC1

CYQR;2010-02-20 22:00;CYQR 202200Z 20003KT 15SM BKN014 OVC025 M08/M10 A3017 RMK SC6SC2 SLP259

CYQR;2010-02-20 23:00;CYQR 202300Z 00000KT 15SM SCT016 OVC027 M08/M10 A3017 RMK SC4SC4 SLP259

CYQR;2010-02-21 00:00;CYQR 210000Z 18002KT 15SM BKN014 OVC027 M08/M10 A3018 RMK SC6SC2 SLP261

CYQR;2010-02-21 01:00;CYQR 210100Z 18002KT 12SM BKN014 OVC030 M08/M10 A3019 RMK SC7SC1 SLP264

CYQR;2010-02-21 01:10;CYQR 210110Z 00000KT 10SM -SN OVC014 M08/ RMK SC8

CYQR;2010-02-21 02:00;CYQR 210200Z 17002KT 10SM -SN OVC012 M09/M11 A3020 RMK SC8 SLP267

CYQR;2010-02-21 03:00;CYQR 210300Z 16003KT 10SM -SN OVC012 M09/M11 A3020 RMK SC8 SLP269

CYQR;2010-02-21 04:00;CYQR 210400Z 17003KT 7SM -SN OVC014 M09/M11 A3020 RMK SC8 SLP269

CYQR;2010-02-21 05:00;CYQR 210500Z 28003KT 8SM -SN OVC016 M08/M10 A3020 RMK SC8 SLP270

CYQR;2010-02-21 05:20;CYQR 210520Z 28004KT 6SM -SN OVC013 M09/ RMK SC8

CYQR;2010-02-21 05:44;CYQR 210544Z 27003KT 6SM -SN SCT013 OVC018 M10/ RMK SC4SC4

CYQR;2010-02-21 06:00;CYQR 210600Z 29005KT 6SM -SN FEW013 BKN018 M11/M13 A3020 RMK SC2SC2 SLP270

CYQR;2010-02-21 07:00;CYQR 210700Z 00000KT 12SM -SN BKN016 M12/M14 A3020 RMK SC6 SLP270

CYQR;2010-02-21 07:21;CYQR 210721Z 29003KT 15SM -SN BKN014 M11/ RMK SC7

CYQR;2010-02-21 08:00;CYQR 210800Z 27005KT 15SM -SN OVC014 M11/M14 A3020 RMK SC8 SLP271

CYQR;2010-02-21 08:19;CYQR 210819Z 27005KT 12SM -SN OVC016 M12/ RMK SC8

CYQR;2010-02-21 09:00;CYQR 210900Z 30005KT 12SM -SN BKN011 OVC015 M13/M15 A3021 RMK SC5SC3 SLP274

CYQR;2010-02-21 09:10;CYQR 210910Z 30004KT 12SM -SN BKN004 OVC009 M12/ RMK SF5SC3

CYQR;2010-02-21 09:45;CYQR 210945Z 29002KT 12SM -SN BKN003 OVC012 M13/ RMK SF7SC1

CYQR;2010-02-21 10:00;CYQR 211000Z 29003KT 12SM -SN OVC006 M14/M16 A3020 RMK SF7 SLP272

CYQR;2010-02-21 10:04;CYQR 211004Z 29004KT 6SM -SN BKN001 M15/ RMK SF7

CYQR;2010-02-21 10:11;CYQR 211011Z 29004KT 1 1/2SM BR SKC M16/ RMK FG7

CYQR;2010-02-21 10:14;CYQR 211014Z 29003KT 1/4SM R13/1600V2200FT/N FZFG SKC M16/ RMK FG7

CYQR;2010-02-21 10:30;CYQR 211030Z 30002KT 1/2SM R13/4000FT/N FZFG SKC M18/ RMK FG6

CYQR;2010-02-21 10:45;CYQR 211045Z 27002KT 1/4SM R13/3000FT/D FZFG SKC M19/ RMK FG7

CYQR;2010-02-21 11:00;CYQR 211100Z 28004KT 1/4SM R13/2800FT/N FZFG SKC M20/M22 A3020 RMK FG7 SLP271

CYQR;2010-02-21 11:06;CYQR 211106Z 28003KT 1/2SM R13/2800V4500FT/U FZFG SKC M20/ RMK FG7

CYQR;2010-02-21 11:16;CYQR 211116Z 29004KT 3/4SM R13/3500VP6000FT/U BR SKC M19/ RMK FG7

CYQR;2010-02-21 11:31;CYQR 211131Z 31002KT 1 1/4SM -SN BR OVC001 M18/ RMK SF8

CYQR;2010-02-21 11:40;CYQR 211140Z 00000KT 2SM -SN BR SCT001 OVC047 M18/ RMK SF3SC5

CYQR;2010-02-21 12:00;CYQR 211200Z 26002KT 1 1/2SM -SN BR SCT002 OVC047 M17/M20 A3020 RMK SF3SC4 SLP274

CYQR;2010-02-21 12:11;CYQR 211211Z 26002KT 3SM -SN BR OVC016 M17/ RMK SC8

CYQR;2010-02-21 13:00;CYQR 211300Z 23002KT 2 1/2SM -SN BR BKN049 M18/M20 A3018 RMK SC5 SLP270

CYQR;2010-02-21 14:00;CYQR 211400Z 26004KT 5SM -SN BR FEW050 M21/M23 A3018 RMK SC2 SLP269

CYQR;2010-02-21 14:14;CYQR 211414Z 26005KT 6SM BR FEW050 FEW250 M21/ RMK SC1CI1

CYQR;2010-02-21 15:00;CYQR 211500Z 30004KT 10SM FEW010 FEW036 SCT250 M20/M22 A3018 RMK SC1SC0CI2 SLP272

CYQR;2010-02-21 15:10;CYQR 211510Z 31002KT 8SM FEW005 SCT010 BKN250 M20/ RMK ST2SC1CI2

CYQR;2010-02-21 15:44;CYQR 211544Z 27002KT 5SM BR BKN002 OVC049 M20/ RMK ST5SC2

CYQR;2010-02-21 16:00;CYQR 211600Z 00000KT 5SM BR OVC001 M19/M21 A3018 RMK ST8 SLP271

CYQR;2010-02-21 16:31;CYQR 211631Z 00000KT 5SM BR SCT001 OVC008 M18/ RMK ST2SC6

CYQR;2010-02-21 17:00;CYQR 211700Z 25002KT 3SM R13/2800VP6000FT/D BR SCT007 BKN250 M17/M19 A3018 RMK ST2CI2 SLP270

CYQR;2010-02-21 18:00;CYQR 211800Z 24002KT 10SM FEW007 FEW250 M16/M18 A3016 RMK ST1CI1 SLP263

CYQR;2010-02-21 19:00;CYQR 211900Z 26006KT 15SM SCT250 M13/M15 A3014 RMK CI2 SLP255

CYQR;2010-02-21 20:00;CYQR 212000Z 22003KT 15SM FEW250 M13/M15 A3012 RMK CI1 SLP249

CYQR;2010-02-21 21:00;CYQR 212100Z CCA 18004KT 15SM FEW250 M13/M16 A3010 RMK CI1 SLP240

CYQR;2010-02-21 22:00;CYQR 212200Z 18004KT 15SM FEW250 M13/M15 A3008 RMK CI1 SLP236

CYQR;2010-02-21 23:00;CYQR 212300Z 16005KT 15SM FEW250 M14/M17 A3008 RMK CI1 SLP234

CYQR;2010-02-22 00:00;CYQR 220000Z 17004KT 15SM SCT250 M15/M18 A3007 RMK CI3 SLP236

CYQR;2010-02-22 01:00;CYQR 220100Z 18005KT 15SM BKN250 M16/M19 A3004 RMK CI3 CONTRAILS SLP226

CYQR;2010-02-22 02:00;CYQR 220200Z 21005KT 15SM BKN250 M16/M19 A3002 RMK CI2 SLP220

CYQR;2010-02-22 03:00;CYQR 220300Z 19005KT 15SM FEW250 M16/M18 A2999 RMK CI1 SLP212

CYQR;2010-02-22 04:00;CYQR 220400Z 21003KT 15SM SCT100 M16/M18 A2999 RMK AC2 SLP211

CYQR;2010-02-22 05:00;CYQR 220500Z 17004KT 15SM BKN078 M18/M20 A2999 RMK AC6 SLP210

CYQR;2010-02-22 06:00;CYQR 220600Z 20004KT 15SM BKN080 M16/M19 A2996 RMK AC6 SLP200

CYQR;2010-02-22 07:00;CYQR 220700Z 23005KT 15SM BKN082 M16/M18 A2993 RMK AC6 SLP189

CYQR;2010-02-22 08:00;CYQR 220800Z 21003KT 15SM FEW082 M17/M19 A2993 RMK AC2 SLP188

CYQR;2010-02-22 09:00;CYQR 220900Z 25002KT 15SM FEW082 M18/M21 A2992 RMK AC1 SLP185

CYQR;2010-02-22 10:00;CYQR 221000Z 25003KT 15SM BKN080 OVC100 M16/M19 A2991 RMK AC6AC2 SLP179

CYQR;2010-02-22 11:00;CYQR 221100Z 26003KT 15SM OVC096 M15/M18 A2989 RMK AC8 SLP174

CYQR;2010-02-22 12:00;CYQR 221200Z 32005KT 15SM SCT077 OVC091 M14/M17 A2989 RMK AC4AC4 SLP171

CYQR;2010-02-22 13:00;CYQR 221300Z 32005KT 15SM SCT079 OVC091 M14/M17 A2990 RMK AC4AC3 SLP175

CYQR;2010-02-22 14:00;CYQR 221400Z 32004KT 15SM FEW080 BKN250 M17/M20 A2990 RMK AC2CI0 SLP175

CYQR;2010-02-22 15:00;CYQR 221500Z 31005KT 15SM FEW090 BKN250 M19/M22 A2991 RMK AC1CI1 SLP183

CYQR;2010-02-22 15:48;CYQR 221548Z 31003KT 12SM BKN005 BKN250 M18/ RMK SF5CI0

CYQR;2010-02-22 16:00;CYQR 221600Z 32005KT 12SM BKN005 OVC250 M17/M19 A2994 RMK SC6CI0 SLP191

CYQR;2010-02-22 16:07;CYQR 221607Z 32007KT 12SM BKN026 OVC068 M16/ RMK SC6AC1

CYQR;2010-02-22 17:00;CYQR 221700Z 32007KT 12SM BKN020 OVC078 M15/M17 A2994 RMK SC7AC1 SLP192

CYQR;2010-02-22 17:33;CYQR 221733Z 31009KT 10SM -SN OVC016 M14/ RMK SC8

CYQR;2010-02-22 18:00;CYQR 221800Z CCA 32009KT 10SM -SN DRSN OVC012 M13/M16 A2995 RMK SC8 SLP193

CYQR;2010-02-22 19:00;CYQR 221900Z 33010KT 8SM -SN DRSN SCT012 OVC029 M12/M14 A2997 RMK SC4SC4 SLP198

CYQR;2010-02-22 20:00;CYQR 222000Z 33013KT 6SM -SN DRSN BR OVC035 M10/M12 A2998 RMK SC8 SLP201

CYQR;2010-02-22 21:00;CYQR 222100Z 33013KT 6SM -SN DRSN BR FEW018 OVC035 M08/M10 A2998 RMK SC1SC7 SLP200

CYQR;2010-02-22 22:00;CYQR 222200Z 32014KT 6SM -SN DRSN BR BKN012 OVC035 M07/M10 A2999 RMK SC5SC3 SLP203

CYQR;2010-02-22 23:00;CYQR 222300Z 34015KT 6SM -SN DRSN BR OVC012 M08/M10 A3001 RMK SC8 SLP209

CYQR;2010-02-23 00:00;CYQR 230000Z 36012G19KT 5SM -SN DRSN BR OVC016 M08/M11 A3003 RMK SC8 SLP214

CYQR;2010-02-23 01:00;CYQR 230100Z 34014KT 12SM -SN DRSN OVC028 M09/M11 A3005 RMK SC8 SLP221

CYQR;2010-02-23 02:00;CYQR 230200Z 34010KT 8SM -SN OVC028 M09/M11 A3007 RMK SC8 SLP227

CYQR;2010-02-23 03:00;CYQR 230300Z 34010KT 8SM -SN OVC022 M09/M11 A3008 RMK SC8 SLP236

CYQR;2010-02-23 04:00;CYQR 230400Z 01008KT 10SM -SN OVC020 M10/M12 A3010 RMK SC8 SLP242

CYQR;2010-02-23 05:00;CYQR 230500Z 01011KT 12SM -SN FEW015 BKN027 M11/M14 A3011 RMK SC2SC6 SLP247

CYQR;2010-02-23 06:00;CYQR 230600Z 02004KT 15SM -SN SCT020 M13/M16 A3013 RMK SC3 SLP251

CYQR;2010-02-23 06:06;CYQR 230606Z 02004KT 15SM SCT020 M16/ RMK SC3

CYQR;2010-02-23 07:00;CYQR 230700Z 36005KT 15SM FEW030 M18/M20 A3014 RMK SC1 BARO READ +30 SLP255

CYQR;2010-02-23 08:00;CYQR 230800Z 36005KT 15SM FEW030 M18/M20 A3014 RMK SC1 BARO READ +30 SLP255

CYQR;2010-02-23 09:00;CYQR 230900Z 04002KT 15SM SCT300 M18/M20 A3015 RMK CI0 SLP261

CYQR;2010-02-23 10:00;CYQR 231000Z 04003KT 15SM FEW300 M17/M20 A3015 RMK CI0 SLP258

CYQR;2010-02-23 11:00;CYQR 231100Z 14003KT 15SM SKC M19/M21 A3014 RMK SLP256

CYQR;2010-02-23 11:39;CYQR 231139Z 19008KT 5SM BR BKN001 M23/ RMK SF5

CYQR;2010-02-23 11:42;CYQR 231142Z 19008KT 1/2SM R13/P6000FT/D FZFG SKC M23/ RMK FG7

CYQR;2010-02-23 12:00;CYQR 231200Z 18006KT 1/4SM R13/2200FT/N FZFG VV001 M22/M24 A3015 RMK FG8 SLP262

CYQR;2010-02-23 12:35;CYQR 231235Z 17003KT 1/2SM R13/2200FT/N FZFG SKC M22/ RMK FG7

CYQR;2010-02-23 12:44;CYQR 231244Z 16003KT 3/4SM R13/3000FT/N BR SKC M22/ RMK FG5

CYQR;2010-02-23 13:00;CYQR 231300Z 16004KT 1 1/2SM R13/3000V4500FT/U BR BKN006 M21/M23 A3015 RMK FG2SC2 SLP263

CYQR;2010-02-23 13:14;CYQR 231314Z 14004KT 5SM BR FEW006 BKN250 M21/ RMK SF2CI1

CYQR;2010-02-23 14:00;CYQR 231400Z 11005KT 10SM FEW120 BKN250 M21/M24 A3015 RMK AC1CI1 SLP263

CYQR;2010-02-23 15:00;CYQR 231500Z 14007KT 15SM FEW120 BKN250 M22/M24 A3017 RMK AC1CI1 SLP268

CYQR;2010-02-23 16:00;CYQR 231600Z 14008KT 15SM FEW080 BKN250 M18/M21 A3016 RMK AC1CI1 SLP265

CYQR;2010-02-23 17:00;CYQR 231700Z 14009KT 15SM FEW050 BKN250 M18/M20 A3016 RMK SC1CI0 SLP266

CYQR;2010-02-23 18:00;CYQR 231800Z 15010KT 15SM FEW050 M17/M20 A3015 RMK SC2 SLP262

CYQR;2010-02-23 19:00;CYQR 231900Z 16010KT 15SM BKN018 BKN089 M16/M18 A3014 RMK SC4AC1 SLP259

CYQR;2010-02-23 20:00;CYQR 232000Z 16010KT 15SM FEW015 BKN090 BKN250 M14/M18 A3011 RMK SC2AC2CI0 SLP251

CYQR;2010-02-23 20:25;CYQR 232025Z 16010KT 12SM -SN OVC023 M14/ RMK SC7

CYQR;2010-02-23 21:00;CYQR 232100Z 16010KT 12SM -SN OVC021 M13/M16 A3010 RMK SC8 SLP244

CYQR;2010-02-23 22:00;CYQR 232200Z 15008KT 10SM -SN OVC021 M12/M15 A3008 RMK SC8 SLP240

CYQR;2010-02-23 23:00;CYQR 232300Z 16010KT 15SM -SN OVC021 M12/M15 A3006 RMK SC7 SLP234

CYQR;2010-02-24 00:00;CYQR 240000Z 15009KT 15SM -SN FEW018 BKN110 BKN250 M12/M15 A3005 RMK SC2AC2CI0 SLP230

CYQR;2010-02-24 01:00;CYQR 240100Z 15010KT 15SM FEW018 FEW250 M15/M18 A3004 RMK SC1CI0 SLP227

CYQR;2010-02-24 02:00;CYQR 240200Z 14011KT 15SM FEW250 M16/M19 A3003 RMK CI0 SLP223

CYQR;2010-02-24 03:00;CYQR 240300Z 15014KT 15SM FEW250 M17/M20 A3001 RMK CI0 SLP220

CYQR;2010-02-24 03:51;CYQR 240351Z 14012KT 15SM -SN OVC017 M17/ RMK SC6

CYQR;2010-02-24 04:00;CYQR 240400Z 14012KT 15SM -SN OVC017 M17/M20 A3000 RMK SC6 SLP216

CYQR;2010-02-24 05:00;CYQR 240500Z 14012KT 8SM -SN OVC015 M16/M19 A2998 RMK SC8 SLP210

CYQR;2010-02-24 05:24;CYQR 240524Z 15011KT 12SM -SN OVC013 M15/ RMK SC8

CYQR;2010-02-24 06:00;CYQR 240600Z 15012KT 15SM -SN OVC013 M15/M18 A2996 RMK SC8 SLP198

CYQR;2010-02-24 07:00;CYQR 240700Z 15015KT 12SM -SN DRSN OVC013 M14/M16 A2995 RMK SC8 SLP193

CYQR;2010-02-24 08:00;CYQR 240800Z 15013KT 12SM -SN DRSN OVC011 M13/M16 A2992 RMK SC8 SLP185

CYQR;2010-02-24 09:00;CYQR 240900Z 15014KT 12SM -SN DRSN OVC009 M13/M16 A2991 RMK SC8 SLP174

CYQR;2010-02-24 09:37;CYQR 240937Z 15016KT 15SM -SN DRSN OVC010 M13/ RMK SC8

CYQR;2010-02-24 10:00;CYQR 241000Z 15016KT 15SM DRSN OVC008 M13/M15 A2987 RMK SC8 SLP162

CYQR;2010-02-24 10:19;CYQR 241019Z 14019KT 15SM DRSN SCT008 M15/ RMK SC3

CYQR;2010-02-24 11:00;CYQR 241100Z 14015KT 15SM DRSN FEW008 M17/M20 A2985 RMK SC1 SLP156

CYQR;2010-02-24 11:08;CYQR 241108Z 14015KT 10SM DRSN SKC M17/ RMK IC

CYQR;2010-02-24 12:00;CYQR 241200Z 14017KT 5SM IC DRSN SKC M18/M21 A2983 RMK SLP152

CYQR;2010-02-24 13:00;CYQR 241300Z 14017KT 3SM IC DRSN SKC M19/M23 A2981 RMK SLP145

CYQR;2010-02-24 13:24;CYQR 241324Z 14019KT 2 1/2SM IC DRSN SKC M19/ RMK IC1

CYQR;2010-02-24 14:00;CYQR 241400Z 14019KT 1 1/2SM IC DRSN SKC M19/M22 A2978 RMK IC2 SLP136

CYQR;2010-02-24 14:21;CYQR 241421Z 14016KT 2SM IC DRSN SKC M19/ RMK IC1

CYQR;2010-02-24 15:00;CYQR 241500Z 14017KT 2SM IC DRSN BKN250 M18/M22 A2977 RMK IC1CI1 SLP134

CYQR;2010-02-24 16:00;CYQR 241600Z 14019KT 2 1/2SM IC DRSN BKN250 M17/M21 A2975 RMK IC1CI1 SLP128

CYQR;2010-02-24 17:00;CYQR 241700Z 14019KT 2SM IC DRSN BKN250 M16/M20 A2974 RMK IC1CI1 SLP125

CYQR;2010-02-24 18:00;CYQR 241800Z 15019G26KT 2SM BLSN OVC220 M14/M18 A2973 RMK BLSN1CI4 SLP115

CYQR;2010-02-24 19:00;CYQR 241900Z 15017G25KT 3SM BLSN BKN220 M13/M16 A2971 RMK CI3 SLP111

CYQR;2010-02-24 20:00;CYQR 242000Z 15018G24KT 6SM BLSN FEW110 BKN220 M12/M14 A2969 RMK AC1CI2 SLP102

CYQR;2010-02-24 21:00;CYQR 242100Z 15018G24KT 8SM DRSN FEW120 BKN220 M11/M13 A2968 RMK AC1CI3 SLP094

CYQR;2010-02-24 22:00;CYQR 242200Z 15018KT 8SM DRSN FEW120 BKN200 M10/M13 A2967 RMK AC1CI4 SLP091

CYQR;2010-02-24 23:00;CYQR 242300Z 15017KT 10SM DRSN FEW090 OVC220 M09/M11 A2966 RMK AC2CI5 SLP088

CYQR;2010-02-25 00:00;CYQR 250000Z 15016G22KT 10SM DRSN SCT085 OVC220 M09/M11 A2966 RMK AC3CI4 SLP089

CYQR;2010-02-25 01:00;CYQR 250100Z 15017KT 15SM DRSN SCT085 OVC220 M09/M12 A2966 RMK AC3CI4 SLP090

CYQR;2010-02-25 02:00;CYQR 250200Z 15016KT 10SM DRSN SCT085 OVC220 M10/M12 A2966 RMK AC4CI3 SLP091

CYQR;2010-02-25 03:00;CYQR 250300Z 15014KT 10SM DRSN FEW085 BKN220 M10/M12 A2966 RMK AC2CI2 SLP093

CYQR;2010-02-25 04:00;CYQR 250400Z 14013KT 10SM DRSN FEW085 BKN220 M10/M13 A2966 RMK AC2CI2 SLP093

CYQR;2010-02-25 05:00;CYQR 250500Z 14013KT 10SM BKN220 M11/M13 A2967 RMK CI2 SLP095

CYQR;2010-02-25 06:00;CYQR 250600Z 13013KT 10SM DRSN BKN220 M11/M13 A2967 RMK CI2 SLP092

CYQR;2010-02-25 07:00;CYQR 250700Z 14011KT 10SM DRSN BKN220 M11/M13 A2968 RMK CI2 SLP096

CYQR;2010-02-25 08:00;CYQR 250800Z 14010KT 10SM BKN220 M11/M13 A2969 RMK CI2 SLP099

CYQR;2010-02-25 09:00;CYQR 250900Z 13008KT 10SM SCT093 BKN220 M10/M13 A2969 RMK AC3CI1 SLP098

CYQR;2010-02-25 10:00;CYQR 251000Z 12006KT 10SM FEW093 BKN220 M10/M12 A2970 RMK AC2CI2 SLP099

CYQR;2010-02-25 11:00;CYQR 251100Z 15005KT 10SM BKN095 BKN220 M10/M12 A2972 RMK AC5CI2 SLP108

CYQR;2010-02-25 12:00;CYQR 251200Z 28004KT 10SM OVC095 M10/M12 A2975 RMK AC8 SLP115

CYQR;2010-02-25 13:00;CYQR 251300Z 30012KT 10SM BKN086 M11/M13 A2977 RMK AC7 SLP123

CYQR;2010-02-25 14:00;CYQR 251400Z 31009KT 10SM SCT090 BKN220 M12/M15 A2978 RMK AC3CI0 SLP126

CYQR;2010-02-25 15:00;CYQR 251500Z 30007KT 15SM FEW090 BKN250 M14/M16 A2981 RMK AC1CI1 SLP138

CYQR;2010-02-25 16:00;CYQR 251600Z 30006KT 15SM FEW090 BKN250 M13/M15 A2982 RMK AC1CI1 SLP142

CYQR;2010-02-25 16:31;CYQR 251631Z 34012KT 10SM BKN009 OVC090 M11/ RMK SC6AC2

CYQR;2010-02-25 16:53;CYQR 251653Z 32011KT 12SM SCT009 BKN090 OVC250 M11/ RMK SC4AC1CI1

CYQR;2010-02-25 17:00;CYQR 251700Z 32010KT 12SM SCT009 BKN090 BKN250 M11/M14 A2984 RMK SC2AC2CI0 SLP148

CYQR;2010-02-25 18:00;CYQR 251800Z 33011KT 15SM FEW100 BKN250 M10/M12 A2986 RMK AC2CI1 SLP154

CYQR;2010-02-25 19:00;CYQR 251900Z 33010KT 15SM FEW100 BKN250 M09/M11 A2987 RMK AC1CI1 SLP159

CYQR;2010-02-25 20:00;CYQR 252000Z 32013KT 15SM BKN120 BKN250 M09/M12 A2988 RMK AC3CI1 SLP161

CYQR;2010-02-25 21:00;CYQR 252100Z 33013KT 15SM FEW050 SCT120 BKN250 M08/M11 A2989 RMK SC1AC3CI1 SLP162

CYQR;2010-02-25 22:00;CYQR 252200Z 34012KT 15SM SCT095 BKN250 M08/M11 A2991 RMK AC3CI2 SLP168

CYQR;2010-02-25 23:00;CYQR 252300Z 34009KT 15SM FEW060 BKN090 BKN250 M09/M11 A2993 RMK SC2AC2CI1 SLP176

CYQR;2010-02-26 00:00;CYQR 260000Z 34009KT 15SM FEW063 SCT095 BKN250 M09/M12 A2995 RMK SC1AC3CI1 SLP185

CYQR;2010-02-26 01:00;CYQR 260100Z 33006KT 15SM SCT100 BKN250 M11/M13 A2997 RMK AC3CI1 SLP190

CYQR;2010-02-26 02:00;CYQR 260200Z 30004KT 15SM SCT064 BKN220 M12/M14 A2998 RMK SC3CI1 SLP195

CYQR;2010-02-26 03:00;CYQR 260300Z 33007KT 15SM FEW060 FEW090 SCT220 M13/M16 A3000 RMK SC1AC2CI0 SLP206

CYQR;2010-02-26 04:00;CYQR 260400Z 34006KT 15SM FEW220 M14/M17 A3000 RMK CI0 SLP207

CYQR;2010-02-26 05:00;CYQR 260500Z 32007KT 15SM FEW220 M15/M17 A3001 RMK CI0 SLP212

CYQR;2010-02-26 06:00;CYQR 260600Z 31006KT 10SM FEW220 M16/M18 A3002 RMK CI0 SLP213

CYQR;2010-02-26 07:00;CYQR 260700Z 00000KT 8SM FEW220 M15/M17 A3002 RMK CI0 SLP213

CYQR;2010-02-26 08:00;CYQR 260800Z 28002KT 8SM SCT220 M17/M19 A3002 RMK CI2 SLP214

CYQR;2010-02-26 08:47;CYQR 260847Z 29009KT 4SM BR OVC001 M17/ RMK ST8

CYQR;2010-02-26 09:00;CYQR 260900Z 29008KT 4SM BR OVC001 M17/M19 A3005 RMK ST8 SLP223

CYQR;2010-02-26 09:33;CYQR 260933Z 00000KT 1SM R13/P6000FT/D BR VV001 M17/ RMK FG8

CYQR;2010-02-26 10:00;CYQR 261000Z 00000KT 1SM R13/1400V1800FT/N BR VV001 M17/M20 A3005 RMK FG8 SLP222

CYQR;2010-02-26 10:04;CYQR 261004Z 06002KT 1/2SM R13/2600FT/N FZFG VV001 M17/ RMK FG8

CYQR;2010-02-26 10:52;CYQR 261052Z 00000KT 0SM R13/1200V1800FT/N FZFG VV000 M19/ RMK FG8

CYQR;2010-02-26 11:00;CYQR 261100Z 00000KT 1/4SM R13/1200V1800FT/D FZFG VV001 M18/M20 A3007 RMK FG8 SLP229

CYQR;2010-02-26 11:39;CYQR 261139Z 09002KT 3SM R13/3500VP6000FT/N BR BCFG FEW001 BKN220 M19/ RMK SF2CI1

CYQR;2010-02-26 12:00;CYQR 261200Z 00000KT 6SM R13/2400FT/N BR BCFG FEW001 BKN027 M19/M21 A3007 RMK SF1SC2 SLP232

CYQR;2010-02-26 12:23;CYQR 261223Z 23002KT 1SM R13/1600V2200FT/N BR BCFG SCT001 OVC027 M20/ RMK SF4SC2

CYQR;2010-02-26 12:35;CYQR 261235Z 23004KT 1/2SM R13/1600FT/N FZFG VV001 M20/ RMK FG8

CYQR;2010-02-26 13:00;CYQR 261300Z 21002KT 1/2SM R13/1400V2000FT/N FZFG FEW001 BKN027 BKN220 M21/M22 A3007 RMK SF2SC3CI1 SLP234

CYQR;2010-02-26 13:19;CYQR 261319Z 19002KT 3/4SM R13/2200FT/N BR FEW001 SCT027 BKN220 M20/ RMK SF2SC1CI2 VIS VRB 1/2-1

CYQR;2010-02-26 13:33;CYQR 261333Z 15003KT 2SM R13/3000VP6000FT/U BR FEW002 SCT031 BKN220 M20/ RMK SF1SC1CI2

CYQR;2010-02-26 13:41;CYQR 261341Z 14002KT 3SM BR FEW002 SCT031 BKN220 M20/ RMK SF2SC1CI1

CYQR;2010-02-26 14:00;CYQR 261400Z 15002KT 3SM BR BKN002 BKN220 M20/M21 A3007 RMK ST3CI1 SLP234

CYQR;2010-02-26 14:16;CYQR 261416Z 14003KT 5SM BR BKN001 BKN220 M19/ RMK SF3CI1

CYQR;2010-02-26 14:50;CYQR 261450Z 14003KT 8SM SCT002 BKN220 M18/ RMK SF2CI1

CYQR;2010-02-26 15:00;CYQR 261500Z 13004KT 10SM FEW002 BKN220 M18/M19 A3008 RMK SF1CI1 SLP239

CYQR;2010-02-26 16:00;CYQR 261600Z 14002KT 12SM FEW220 M15/M16 A3009 RMK CI1 SLP242

CYQR;2010-02-26 17:00;CYQR 261700Z 15004KT 15SM SKC M13/M14 A3010 RMK SLP244

CYQR;2010-02-26 18:00;CYQR 261800Z 18006KT 15SM SKC M12/M13 A3010 RMK SLP244

CYQR;2010-02-26 19:00;CYQR 261900Z 17004KT 12SM SKC M12/M13 A3010 RMK SLP245

CYQR;2010-02-26 20:00;CYQR 262000Z 16005KT 15SM SKC M09/M10 A3009 RMK SLP240

CYQR;2010-02-26 21:00;CYQR 262100Z 17006KT 15SM SKC M09/M12 A3009 RMK SLP239

CYQR;2010-02-26 22:00;CYQR 262200Z 16004KT 15SM SKC M08/M11 A3009 RMK SLP238

CYQR;2010-02-26 23:00;CYQR 262300Z 12008KT 15SM FEW040 M08/M12 A3009 RMK SC1 SLP237

CYQR;2010-02-27 00:00;CYQR 270000Z 14008KT 15SM FEW250 M10/M13 A3009 RMK CI1 SLP239

CYQR;2010-02-27 01:00;CYQR 270100Z 13007KT 15SM FEW250 M12/M14 A3008 RMK CI1 SLP238

CYQR;2010-02-27 02:00;CYQR 270200Z 14008KT 15SM SKC M12/M15 A3008 RMK SLP238

CYQR;2010-02-27 03:00;CYQR 270300Z 14009KT 15SM SKC M12/M15 A3008 RMK SLP237

CYQR;2010-02-27 04:00;CYQR 270400Z 14010KT 15SM SKC M12/M14 A3009 RMK SLP240

CYQR;2010-02-27 05:00;CYQR 270500Z 13007KT 15SM SKC M14/M16 A3009 RMK SLP241

CYQR;2010-02-27 06:00;CYQR 270600Z 12008KT 15SM SKC M15/M17 A3009 RMK SLP238

CYQR;2010-02-27 07:00;CYQR 270700Z 13010KT 10SM SCT068 M14/M16 A3006 RMK AC3 SLP230

CYQR;2010-02-27 08:00;CYQR 270800Z 13010KT 3SM BR OVC028 M14/M16 A3006 RMK SC6 SLP229

CYQR;2010-02-27 08:12;CYQR 270812Z 12009KT 1 1/2SM BR OVC028 M14/ RMK ST8

CYQR;2010-02-27 09:00;CYQR 270900Z 13007KT 1 1/2SM BR OVC001 M15/M17 A3006 RMK ST8 SLP226

CYQR;2010-02-27 10:00;CYQR 271000Z 12011KT 1 1/2SM BR SCT001 OVC006 M15/M18 A3005 RMK ST3ST5 SLP222

CYQR;2010-02-27 11:00;CYQR 271100Z 12011KT 1 1/2SM -SN BR OVC001 M15/M17 A3004 RMK ST8 SLP219

CYQR;2010-02-27 12:00;CYQR 271200Z 13011KT 1 1/2SM -SN BR OVC002 M15/M17 A3005 RMK ST8 SLP222

CYQR;2010-02-27 13:00;CYQR 271300Z 13010KT 1 1/2SM -SN BR OVC002 M16/M18 A3006 RMK ST8 SLP226

CYQR;2010-02-27 13:15;CYQR 271315Z 13009KT 1/2SM R13/P6000FT/D -SN FZFG VV001 M16/ RMK FG8

CYQR;2010-02-27 13:46;CYQR 271346Z 13009KT 1SM R13/P6000FT/U -SN BR OVC001 M15/ RMK ST8

CYQR;2010-02-27 14:00;CYQR 271400Z 12011KT 1SM R13/P6000FT/D -SN BR OVC002 M15/M17 A3006 RMK ST8 SLP226

CYQR;2010-02-27 14:15;CYQR 271415Z 13010KT 2SM -SN BR BKN002 OVC100 M15/ RMK ST6AC2

CYQR;2010-02-27 14:35;CYQR 271435Z 13012KT 3SM BR OVC003 M15/ RMK SF8

CYQR;2010-02-27 15:00;CYQR 271500Z 12012KT 2 1/2SM DRSN BR OVC003 M15/M18 A3006 RMK SF8 SLP228

CYQR;2010-02-27 16:00;CYQR 271600Z 13011KT 2 1/2SM DRSN BR OVC002 M14/M16 A3007 RMK SF8 SLP233

CYQR;2010-02-27 16:08;CYQR 271608Z 13011KT 2 1/2SM -SN DRSN BR OVC003 M14/ RMK SF8

CYQR;2010-02-27 16:48;CYQR 271648Z 13009KT 3SM DRSN BR OVC003 M13/ RMK SF8

CYQR;2010-02-27 17:00;CYQR 271700Z 14010KT 4SM DRSN BR OVC003 M13/M15 A3007 RMK SF8 SLP233

CYQR;2010-02-27 17:38;CYQR 271738Z 14010KT 5SM DRSN BR BKN004 BKN035 OVC100 M13/ RMK SF3SC2AC2

CYQR;2010-02-27 18:00;CYQR 271800Z 13011KT 6SM DRSN BR OVC003 M12/M14 A3008 RMK SF8 SLP234

CYQR;2010-02-27 18:03;CYQR 271803Z 13010KT 6SM DRSN BR BKN003 OVC250 M11/ RMK SF3CI3

CYQR;2010-02-27 18:08;CYQR 271808Z 13009KT 10SM DRSN SCT003 BKN250 M11/ RMK SF2CI5 VIS SW-W 6 CONTRAILS

CYQR;2010-02-27 19:00;CYQR 271900Z 12014KT 12SM DRSN FEW003 FEW120 BKN250 M10/M12 A3005 RMK ST1AC2CI5 SLP226

CYQR;2010-02-27 20:00;CYQR 272000Z 13013KT 12SM DRSN FEW003 FEW120 BKN250 M08/M10 A3005 RMK SF1AC2CI4 SLP225

CYQR;2010-02-27 21:00;CYQR 272100Z 13014KT 12SM DRSN FEW005 SCT120 OVC250 M08/M09 A3003 RMK SF1AC3CI2 SLP216

CYQR;2010-02-27 22:00;CYQR 272200Z 13015KT 12SM DRSN FEW054 FEW120 OVC250 M07/M09 A3003 RMK SC1AC2CS6 SLP215

CYQR;2010-02-27 23:00;CYQR 272300Z 13017KT 15SM FEW054 FEW120 BKN250 M06/M09 A3004 RMK SC1AC1CI2 SLP218

CYQR;2010-02-28 00:00;CYQR 280000Z 13016KT 15SM FEW050 FEW120 BKN250 M07/M10 A3004 RMK SC1AC1CI2 SLP218

CYQR;2010-02-28 01:00;CYQR 280100Z 13014KT 15SM FEW120 BKN250 M08/M11 A3005 RMK AC1CI3 SLP219

CYQR;2010-02-28 02:00;CYQR 280200Z 13014KT 15SM FEW120 BKN250 M09/M12 A3005 RMK AC1CI3 SLP221

CYQR;2010-02-28 03:00;CYQR 280300Z 13016KT 15SM FEW120 BKN250 M09/M12 A3005 RMK AC1CI3 SLP223

CYQR;2010-02-28 04:00;CYQR 280400Z 14015KT 15SM FEW120 BKN250 M10/M13 A3005 RMK AC1CI3 SLP225

CYQR;2010-02-28 05:00;CYQR 280500Z 14019KT 15SM FEW120 BKN250 M12/M14 A3006 RMK AC1CI3 SLP226

CYQR;2010-02-28 06:00;CYQR 280600Z 13018KT 10SM SCT120 BKN250 M12/M15 A3007 RMK AC4CI2 SLP229

CYQR;2010-02-28 07:00;CYQR 280700Z 14017G22KT 10SM SCT120 BKN250 M13/M15 A3008 RMK AC4CI2 SLP233

CYQR;2010-02-28 08:00;CYQR 280800Z 14017KT 10SM SCT120 BKN250 M13/M15 A3008 RMK AC4CI2 SLP233

CYQR;2010-02-28 09:00;CYQR 280900Z 13015KT 10SM SCT120 BKN250 M13/M16 A3009 RMK AC4CI2 SLP233

CYQR;2010-02-28 10:00;CYQR 281000Z 14014KT 8SM BKN120 OVC250 M13/M15 A3008 RMK AC6CI2 SLP230

CYQR;2010-02-28 11:00;CYQR 281100Z 13016KT 8SM BKN120 OVC250 M13/M15 A3007 RMK AC6CI2 SLP228

CYQR;2010-02-28 12:00;CYQR 281200Z 13013KT 8SM BKN120 OVC250 M12/M14 A3008 RMK AC5CI2 SLP228

CYQR;2010-02-28 13:00;CYQR 281300Z 14015KT 8SM SCT009 BKN120 OVC220 M12/M14 A3008 RMK ST3AC2CI2 SLP229

CYQR;2010-02-28 13:35;CYQR 281335Z 13019KT 6SM BR OVC007 M11/ RMK ST8

CYQR;2010-02-28 14:00;CYQR 281400Z 13016KT 6SM BR OVC007 M11/M14 A3009 RMK ST8 SLP231

CYQR;2010-02-28 15:00;CYQR 281500Z 13017G24KT 8SM OVC008 M10/M12 A3009 RMK ST8 SLP233

CYQR;2010-02-28 15:39;CYQR 281539Z 14022G27KT 8SM DRSN SCT008 SCT100 OVC250 M10/ RMK ST3AC1CI3

CYQR;2010-02-28 16:00;CYQR 281600Z 14022G28KT 8SM DRSN BKN008 OVC250 M09/M12 A3009 RMK ST4CI4 SLP233

CYQR;2010-02-28 16:32;CYQR 281632Z 15024G29KT 8SM DRSN SCT009 OVC250 M09/ RMK ST2CI3

CYQR;2010-02-28 17:00;CYQR 281700Z 14026G31KT 10SM DRSN FEW009 FEW025 OVC250 M09/M11 A3010 RMK ST1SC1CI2 SLP235

CYQR;2010-02-28 17:30;CYQR 281730Z 15024KT 8SM DRSN BKN009 OVC250 M08/ RMK SF5CI2

CYQR;2010-02-28 18:00;CYQR 281800Z 15019G25KT 10SM DRSN OVC009 M08/M11 A3011 RMK SF8 SLP240

CYQR;2010-02-28 19:00;CYQR 281900Z 15021KT 10SM DRSN OVC008 M07/M10 A3012 RMK ST8 SLP243

CYQR;2010-02-28 20:00;CYQR 282000Z 14022KT 8SM DRSN OVC007 M07/M09 A3012 RMK SF8 SLP243

CYQR;2010-02-28 21:00;CYQR 282100Z 15019G24KT 10SM DRSN OVC007 M07/M09 A3011 RMK SF8 SLP242

CYQR;2010-02-28 22:00;CYQR 282200Z 15018G26KT 6SM BLSN OVC007 M07/M09 A3012 RMK SF8 SLP244

CYQR;2010-02-28 23:00;CYQR 282300Z 15020G26KT 8SM OVC006 M07/M09 A3012 RMK SF8 BLSN SLP243

CYQR;2010-03-01 01:00;CYQR 010100Z 14015KT 8SM OVC007 M06/M09 A3012 RMK ST8 BR SLP244

CYQR;2010-03-01 02:00;CYQR 010200Z 16017KT 8SM OVC006 M06/M09 A3013 RMK ST8 BR SLP247

CYQR;2010-03-01 03:00;CYQR 010300Z 16015KT 15SM SCT009 M08/M10 A3014 RMK ST3 SLP248

CYQR;2010-03-01 04:00;CYQR 010400Z 16011KT 12SM BKN013 M09/M11 A3015 RMK SC3 SLP254

CYQR;2010-03-01 05:00;CYQR 010500Z 17013KT 12SM OVC010 M09/M11 A3015 RMK SC8 SLP252

CYQR;2010-03-01 05:05;CYQR 010505Z 16014KT 10SM OVC009 M08/ RMK ST8

CYQR;2010-03-01 06:00;CYQR 010600Z 16013KT 8SM OVC008 M08/M10 A3015 RMK ST8 SLP250

CYQR;2010-03-01 07:00;CYQR 010700Z 16013KT 7SM OVC007 M08/M10 A3015 RMK ST8 SLP250

CYQR;2010-03-01 07:23;CYQR 010723Z 16014KT 5SM -SN BR OVC007 M07/ RMK ST8

CYQR;2010-03-01 08:00;CYQR 010800Z 16013KT 5SM -SN BR OVC006 M07/M09 A3014 RMK ST8 SLP248

CYQR;2010-03-01 08:42;CYQR 010842Z 16013KT 5SM BR OVC005 M07/ RMK ST8

CYQR;2010-03-01 09:00;CYQR 010900Z 16013KT 6SM BR OVC006 M07/M09 A3013 RMK ST8 SLP242

CYQR;2010-03-01 10:00;CYQR 011000Z 17010KT 6SM BR OVC005 M06/M08 A3014 RMK ST8 SLP244

CYQR;2010-03-01 11:00;CYQR 011100Z 17011KT 7SM OVC005 M06/M08 A3011 RMK ST8 SLP237

CYQR;2010-03-01 12:00;CYQR 011200Z 19010KT 7SM OVC004 M06/M08 A3011 RMK ST8 SLP236

CYQR;2010-03-01 12:34;CYQR 011234Z 19011KT 10SM OVC003 M06/ RMK ST8

CYQR;2010-03-01 13:00;CYQR 011300Z 20013KT 7SM OVC003 M06/M08 A3012 RMK ST8 SLP239

CYQR;2010-03-01 14:00;CYQR 011400Z 21008KT 2SM BR OVC001 M07/M08 A3014 RMK ST8 SLP245

CYQR;2010-03-01 14:19;CYQR 011419Z 21008KT 5/8SM R13/5000FT/D BR VV001 M07/ RMK FG8

CYQR;2010-03-01 14:47;CYQR 011447Z 21009KT 3/8SM R13/1400FT/N FZFG VV001 M07/ RMK FG8

CYQR;2010-03-01 15:00;CYQR 011500Z 22007KT 3/8SM R13/1600FT/N FZFG VV001 M07/M09 A3015 RMK FG8 SLP252

CYQR;2010-03-01 15:14;CYQR 011514Z 22007KT 1/2SM R13/2600V5000FT/N FZFG VV001 M08/ RMK FG8

CYQR;2010-03-01 15:28;CYQR 011528Z 22005KT 2SM R13/2600VP6000FT/N BR BKN001 M08/ RMK ST3 VIS S-SE 3/4

CYQR;2010-03-01 15:51;CYQR 011551Z 21007KT 6SM BR SCT003 RMK ST1 VIS S-SE 4

CYQR;2010-03-01 16:00;CYQR 011600Z 24007KT 4SM BR OVC003 M09/M10 A3015 RMK ST6 SLP252

CYQR;2010-03-01 16:06;CYQR 011606Z 27007KT 4SM R13/2400FT/N BR OVC003 M09/ RMK ST7 VIS SW-NW 5/8

CYQR;2010-03-01 16:09;CYQR 011609Z 27006KT 1/2SM R13/1600FT/N FZFG VV001 M09/ RMK FG8 VIS VRB 3/8-5/8 VIS E 2

CYQR;2010-03-01 16:28;CYQR 011628Z 27007KT 1/4SM R13/1400FT/N FZFG VV001 M09/ RMK FG8 VIS VRB 1/8-3/8

CYQR;2010-03-01 16:43;CYQR 011643Z 27007KT 3/8SM R13/1800FT/N FZFG VV001 M09/ RMK FG8 VIS VRB 1/4-1/2

CYQR;2010-03-01 17:00;CYQR 011700Z 27007KT 1/4SM R13/1200FT/N FZFG VV001 M08/M10 A3015 RMK FG8 VIS VRB 1/8-3/8 SLP252

CYQR;2010-03-01 18:00;CYQR 011800Z 28005KT 3/8SM R13/2000FT/N FZFG VV001 M07/M09 A3016 RMK FG8 VIS VRB 1/4-1/2 SLP254

CYQR;2010-03-01 19:00;CYQR 011900Z 28006KT 3/8SM R13/2200FT/N FZFG VV001 M07/M08 A3015 RMK FG8 VIS VRB 1/4-1/2 SLP251

CYQR;2010-03-01 20:00;CYQR 012000Z 27004KT 3/8SM R13/1800FT/N FZFG VV000 M06/M07 A3015 RMK FG8 VIS VRB 1/4-1/2 SLP250

CYQR;2010-03-01 21:00;CYQR 012100Z 29005KT 3/8SM R13/2000FT/N FZFG VV000 M05/M06 A3014 RMK FG8 VIS VRB 1/4-1/2 SLP246

CYQR;2010-03-01 21:44;CYQR 012144Z 30007KT 5/8SM R13/2800FT/N BR VV001 M05/ RMK FG8

CYQR;2010-03-01 22:00;CYQR 012200Z 32005KT 1/2SM R13/2800V4000FT/U FZFG VV001 M05/M05 A3015 RMK FG8 VIS VRB 3/8-5/8 SLP249

CYQR;2010-03-01 22:28;CYQR 012228Z 31006KT 3/4SM R13/P6000FT/N BR OVC002 M05/ RMK ST8 VIS VRB 1/2-1

CYQR;2010-03-01 22:41;CYQR 012241Z 34006KT 1 1/2SM R13/3000VP6000FT/D BR OVC002 M05/ RMK ST8 VIS VRB 1-2

CYQR;2010-03-01 23:00;CYQR 012300Z 35006KT 2SM BR OVC002 M05/M05 A3015 RMK ST8 VIS VRB 11/2-21/2 SLP248

CYQR;2010-03-01 23:28;CYQR 012328Z 33003KT 4SM BR OVC003 M05/ RMK ST8

CYQR;2010-03-01 23:43;CYQR 012343Z 00000KT 4SM BR BKN004 M05/ RMK ST7

CYQR;2010-03-02 00:00;CYQR 020000Z 30002KT 6SM BR BKN005 M05/M06 A3015 RMK ST6 SLP246

CYQR;2010-03-02 00:26;CYQR 020026Z 28006KT 2SM BR OVC004 M06/ RMK ST8

CYQR;2010-03-02 00:33;CYQR 020033Z 28005KT 1 1/2SM R13/3500VP6000FT/D BR OVC003 M06/ RMK ST8

CYQR;2010-03-02 00:49;CYQR 020049Z 29005KT 5/8SM R13/3500FT/N BR VV001 M06/ RMK FG8

CYQR;2010-03-02 01:00;CYQR 020100Z 30003KT 5/8SM R13/3000FT/D BR VV001 M06/M07 A3015 RMK FG8 SLP248

CYQR;2010-03-02 01:43;CYQR 020143Z 32004KT 1/2SM R13/2600FT/N FZFG VV001 M06/ RMK FG8

CYQR;2010-03-02 02:00;CYQR 020200Z 28002KT 3/8SM R13/2000FT/N FZFG VV001 M07/M08 A3015 RMK FG8 SLP249

CYQR;2010-03-02 03:00;CYQR 020300Z 00000KT 1/4SM R13/1800FT/N FZFG VV001 M07/M08 A3016 RMK FG8 SLP252

CYQR;2010-03-02 04:00;CYQR 020400Z 00000KT 1/4SM R13/2400FT/N FZFG VV001 M07/M09 A3015 RMK FG8 SLP251

CYQR;2010-03-02 05:00;CYQR 020500Z 36003KT 1/4SM R13/2400FT/N FZFG VV001 M07/M09 A3016 RMK FG8 SLP254

CYQR;2010-03-02 06:00;CYQR 020600Z 00000KT 1/4SM R13/2600FT/N FZFG VV001 M08/M09 A3017 RMK FG8 SLP259

CYQR;2010-03-02 06:43;CYQR 020643Z 00000KT 1/8SM R13/2000FT/N FZFG VV001 M08/ RMK FG8

CYQR;2010-03-02 07:00;CYQR 020700Z 05002KT 1/8SM R13/1600V2200FT/N FZFG VV001 M08/M10 A3016 RMK FG8 SLP255

CYQR;2010-03-02 07:29;CYQR 020729Z 07003KT 3/8SM R13/2000FT/U FZFG VV001 M08/ RMK FG8

CYQR;2010-03-02 07:32;CYQR 020732Z 07002KT 1/2SM R13/2200FT/U FZFG VV001 M08/ RMK FG8

CYQR;2010-03-02 08:00;CYQR 020800Z 00000KT 1/2SM R13/2400FT/N FZFG VV002 M08/M09 A3015 RMK FG8 SLP251

CYQR;2010-03-02 08:17;CYQR 020817Z 10005KT 3/8SM R13/2400V4000FT/N FZFG VV001 M08/ RMK FG8

CYQR;2010-03-02 09:00;CYQR 020900Z 10003KT 1/2SM R13/3500FT/U FZFG VV001 M09/M11 A3015 RMK FG8 SLP248

CYQR;2010-03-02 10:00;CYQR 021000Z 17005KT 3/4SM R13/3500VP6000FT/U BR OVC001 M10/M12 A3014 RMK FG5SF3 SLP247

CYQR;2010-03-02 10:19;CYQR 021019Z 13005KT 1SM R13/3500VP6000FT/U BR OVC001 M11/ RMK SF6

CYQR;2010-03-02 10:31;CYQR 021031Z 14004KT 1SM R13/P6000FT/D -SN BR OVC001 M11/ RMK SF6

CYQR;2010-03-02 10:48;CYQR 021048Z 13005KT 3/4SM R13/4000VP6000FT/D BR OVC001 M11/ RMK SF7

CYQR;2010-03-02 11:00;CYQR 021100Z 14004KT 1/2SM R13/3500FT/D FZFG OVC001 M11/M13 A3013 RMK FG5SF2 SLP243

CYQR;2010-03-02 11:04;CYQR 021104Z 13004KT 1/4SM R13/2200FT/N FZFG VV001 M11/ RMK FG8

CYQR;2010-03-02 12:00;CYQR 021200Z 13008KT 1/4SM R13/1800V2200FT/N FZFG VV001 M10/M11 A3013 RMK FG8 SLP244

CYQR;2010-03-02 13:00;CYQR 021300Z 13008KT 3/8SM R13/3000FT/N FZFG VV001 M09/M10 A3013 RMK FG8 SLP245

CYQR;2010-03-02 14:00;CYQR 021400Z 14009KT 3/8SM R13/2400FT/N FZFG VV001 M09/M10 A3014 RMK FG8 VIS VRB 1/4-1/2 SLP246

CYQR;2010-03-02 15:00;CYQR 021500Z 16008KT 3/8SM R13/1800FT/N FZFG VV001 M09/M10 A3015 RMK FG8 VIS VRB 1/4-1/2 FROIN SLP249

CYQR;2010-03-02 16:00;CYQR 021600Z 15008KT 3/8SM R13/2000FT/N FZFG VV001 M08/M09 A3014 RMK FG8 VIS VRB 1/4-1/2 SLP246

CYQR;2010-03-02 17:00;CYQR 021700Z 15009KT 3/8SM R13/2400FT/N FZFG VV001 M08/M09 A3013 RMK FG8 VIS VRB 1/4-1/2 SLP244

CYQR;2010-03-02 17:52;CYQR 021752Z 13009KT 1/2SM R13/2600V6000FT/U FZFG VV001 M07/ RMK FG8

CYQR;2010-03-02 18:00;CYQR 021800Z 14011KT 1/2SM R13/2600V6000FT/D FZFG VV001 M07/M09 A3012 RMK FG8 VIS VRB 3/8-5/8 SLP241

CYQR;2010-03-02 18:33;CYQR 021833Z 13011KT 3/4SM R13/3000V6000FT/D BR VV001 M07/ RMK FG8 VIS VRB 1/2-1 RIME ON INDICATOR

CYQR;2010-03-02 19:00;CYQR 021900Z 13011KT 3/4SM R13/3000VP6000FT/D BR BKN002 OVC039 M07/M08 A3012 RMK FG3SF1SC4 SLP240

CYQR;2010-03-02 20:00;CYQR 022000Z 14012KT 1SM R13/P6000FT/D BR OVC001 M07/M08 A3011 RMK FG5SF3 SLP236

CYQR;2010-03-02 21:00;CYQR 022100Z 14012KT 1SM R13/5000FT/D BR OVC001 M06/M08 A3010 RMK FG5SF3 SLP235

CYQR;2010-03-02 22:00;CYQR 022200Z 14014KT 1SM R13/4000VP6000FT/D BR OVC001 M06/M08 A3009 RMK FG5SF3 SLP230

CYQR;2010-03-02 22:48;CYQR 022248Z 14013KT 1SM R13/3500VP6000FT/N BR OVC002 M06/ RMK FG4SF4

CYQR;2010-03-02 23:00;CYQR 022300Z 14015KT 1 1/2SM R13/6000FT/D BR OVC002 M06/M08 A3008 RMK SF8 SLP227

CYQR;2010-03-02 23:24;CYQR 022324Z 13013KT 3/4SM R13/P6000FT/U BR OVC001 M06/ RMK FG4SF4

CYQR;2010-03-02 23:26;CYQR 022326Z 13014KT 1/2SM R13/P6000FT/U FZFG VV002 M06/ RMK FG8

CYQR;2010-03-02 23:36;CYQR 022336Z 14016KT 3/4SM R13/2600V6000FT/U BR VV001 M06/ RMK FG8 VIS VRB 1/2-1

CYQR;2010-03-03 00:00;CYQR 030000Z 14015KT 3/4SM R13/P6000FT/N BR VV001 M06/M08 A3007 RMK FG8 SLP224

CYQR;2010-03-03 01:00;CYQR 030100Z 14017KT 3/4SM R13/3500VP6000FT/U BR VV001 M06/M08 A3006 RMK FG8 SLP221

CYQR;2010-03-03 02:00;CYQR 030200Z 14018KT 3/4SM R13/5500FT/N BR VV001 M07/M09 A3005 RMK FG8 SLP219

CYQR;2010-03-03 02:29;CYQR 030229Z 15014G20KT 1SM R13/4500VP6000FT/U BR VV001 M07/ RMK FG8

CYQR;2010-03-03 02:51;CYQR 030251Z 14015KT 3/4SM R13/P6000FT/D BR VV001 M07/ RMK FG8

CYQR;2010-03-03 03:00;CYQR 030300Z 14013G18KT 3/4SM R13/P6000FT/U BR VV001 M07/M09 A3006 RMK FG8 SLP219

CYQR;2010-03-03 03:17;CYQR 030317Z 14017KT 1/2SM R13/3500VP6000FT/D FZFG VV001 M08/ RMK FG8

CYQR;2010-03-03 04:00;CYQR 030400Z 15011G18KT 1/2SM R13/P6000FT/U FZFG VV001 M08/M10 A3005 RMK FG8 SLP217

CYQR;2010-03-03 05:00;CYQR 030500Z 16015KT 5/8SM R13/P6000FT/D BR VV001 M08/M10 A3005 RMK FG8 SLP216

CYQR;2010-03-03 05:11;CYQR 030511Z 15014KT 3/4SM R13/P6000FT/D BR OVC002 M08/ RMK SF8 VIS VRB 1/2-1

CYQR;2010-03-03 05:20;CYQR 030520Z 15014KT 2SM BR OVC002 M08/ RMK SF8

CYQR;2010-03-03 05:24;CYQR 030524Z 16014KT 6SM BR OVC003 M08/ RMK SF8

CYQR;2010-03-03 05:41;CYQR 030541Z 16015KT 10SM OVC004 M08/ RMK SF8

CYQR;2010-03-03 06:00;CYQR 030600Z 15014KT 10SM OVC006 M08/M10 A3003 RMK SF8 SLP210

CYQR;2010-03-03 06:36;CYQR 030636Z 15011G16KT 12SM OVC005 M08/ RMK SF8

CYQR;2010-03-03 06:41;CYQR 030641Z 15015KT 3SM -SN BR OVC003 M08/ RMK SF8

CYQR;2010-03-03 07:00;CYQR 030700Z 15013KT 5SM BR OVC004 M08/M10 A3002 RMK SF8 SLP207

CYQR;2010-03-03 07:34;CYQR 030734Z 15011G17KT 6SM BR OVC006 M08/ RMK SF6

CYQR;2010-03-03 08:00;CYQR 030800Z 15011KT 7SM OVC006 M09/M11 A3002 RMK SF7 SLP206

CYQR;2010-03-03 09:00;CYQR 030900Z 14014KT 10SM OVC006 M09/M11 A3000 RMK SF8 SLP201

CYQR;2010-03-03 10:00;CYQR 031000Z 14010KT 12SM OVC007 M10/M12 A3000 RMK SF7 SLP198

CYQR;2010-03-03 11:00;CYQR 031100Z 14010KT 15SM BKN007 M10/M13 A2998 RMK SF3 SLP194

CYQR;2010-03-03 11:06;CYQR 031106Z 14010KT 15SM FEW007 M11/ RMK SF1

CYQR;2010-03-03 11:47;CYQR 031147Z 14016KT 15SM BKN006 M11/ RMK SF5

CYQR;2010-03-03 12:00;CYQR 031200Z 14017KT 15SM SCT006 M11/M13 A2997 RMK SF2 SLP190

CYQR;2010-03-03 12:32;CYQR 031232Z 14016KT 4SM BR OVC006 M11/ RMK SF6

CYQR;2010-03-03 12:44;CYQR 031244Z 14016KT 2SM BR OVC004 M10/ RMK SF6

CYQR;2010-03-03 13:00;CYQR 031300Z 14015KT 1 1/2SM BR OVC003 M10/M13 A2997 RMK SF7 SLP189

CYQR;2010-03-03 13:08;CYQR 031308Z 14015KT 3/4SM R13/P6000FT/D BR OVC002 M10/ RMK FG2SF6 VIS VRB 1/2-1

CYQR;2010-03-03 14:00;CYQR 031400Z 14018KT 5/8SM R13/3000V6000FT/D BR OVC002 M10/M12 A2995 RMK FG3SF4 VIS VRB 1/2-3/4 RIME ON INDICATOR SLP184

CYQR;2010-03-03 14:48;CYQR 031448Z 14016KT 1 1/2SM R13/3000VP6000FT/U DRSN BR OVC003 M10/ RMK FG2SF3 VIS VRB 1-2 VIS SE-E 3/4 RIME ON INDICATOR

CYQR;2010-03-03 14:56;CYQR 031456Z 14017KT 5/8SM R13/3000VP6000FT/D BR OVC002 M10/ RMK FG5SF3 VIS VRB 1/2-3/4

CYQR;2010-03-03 15:00;CYQR 031500Z 14017KT 5/8SM R13/3000V5000FT/D DRSN BR OVC002 M10/M12 A2995 RMK FG5SF3 VIS VRB 1/2-3/4 SLP182

CYQR;2010-03-03 15:27;CYQR 031527Z 14015KT 1 1/2SM R13/4500VP6000FT/U DRSN BR BKN004 M09/ RMK SF4 VIS VRB 1-2

CYQR;2010-03-03 15:53;CYQR 031553Z 14016KT 2 1/2SM BR SCT004 M10/ RMK SF2 VIS VRB 2-3

CYQR;2010-03-03 16:00;CYQR 031600Z 14017KT 3SM DRSN BR SCT004 M09/M12 A2995 RMK SF2 VIS W 6 SLP181

CYQR;2010-03-03 17:00;CYQR 031700Z 15014KT 10SM DRSN FEW005 M09/M11 A2995 RMK SF1 BR SLP181

CYQR;2010-03-03 18:00;CYQR 031800Z 15015KT 10SM DRSN SCT005 BKN250 M08/M10 A2993 RMK SF2CI1 SLP177

CYQR;2010-03-03 19:00;CYQR 031900Z 16014KT 15SM DRSN SCT004 SCT040 BKN250 M08/M10 A2992 RMK SF2SC1CI1 SLP174

CYQR;2010-03-03 20:00;CYQR 032000Z 16015KT 10SM FEW004 M07/M09 A2991 RMK SF1 SLP168

CYQR;2010-03-03 21:00;CYQR 032100Z 16015KT 10SM FEW004 M07/M09 A2990 RMK SF0 SLP164

CYQR;2010-03-03 22:00;CYQR 032200Z 14019G24KT 10SM SCT006 BKN250 M07/M09 A2989 RMK SF2CI1 SLP161

CYQR;2010-03-03 23:00;CYQR 032300Z 14017KT 15SM SCT007 M06/M08 A2988 RMK SF3 SLP160

CYQR;2010-03-04 00:00;CYQR 040000Z 15020G25KT 8SM BKN006 M06/M08 A2988 RMK ST7 SLP159

CYQR;2010-03-04 01:00;CYQR 040100Z 15019G27KT 2 1/2SM BR OVC005 M05/M07 A2988 RMK ST8 SLP157

CYQR;2010-03-04 01:17;CYQR 040117Z 16021KT 2 1/2SM -SN BR OVC004 M05/ RMK ST8

CYQR;2010-03-04 01:46;CYQR 040146Z 16021G26KT 4SM -SN BR OVC004 M05/ RMK ST8

CYQR;2010-03-04 02:00;CYQR 040200Z 17024KT 5SM -SN BR OVC004 M05/M07 A2988 RMK ST8 SLP159

CYQR;2010-03-04 02:24;CYQR 040224Z 16020G25KT 7SM OVC004 M06/ RMK ST8

CYQR;2010-03-04 03:00;CYQR 040300Z 16024KT 8SM OVC005 M06/M08 A2987 RMK ST8 SLP154

CYQR;2010-03-04 03:22;CYQR 040322Z 16020G25KT 5SM -SN OVC004 M06/ RMK ST8

CYQR;2010-03-04 04:00;CYQR 040400Z 16016G24KT 8SM OVC004 M06/M07 A2986 RMK SF8 SLP152

CYQR;2010-03-04 04:22;CYQR 040422Z 16019KT 6SM -SHSN OVC004 M06/ RMK SF8

CYQR;2010-03-04 05:00;CYQR 040500Z 16016KT 2 1/2SM -SHSN OVC003 M06/M08 A2986 RMK SF8 SLP152

CYQR;2010-03-04 05:34;CYQR 040534Z 16013KT 4SM -SHSN DRSN BR OVC003 M07/ RMK SF8

CYQR;2010-03-04 06:00;CYQR 040600Z 16013KT 4SM -SHSN DRSN BR OVC003 M07/M08 A2986 RMK SF8 SLP150

CYQR;2010-03-04 06:13;CYQR 040613Z 15013KT 2 1/2SM -SHSN DRSN BR OVC002 M07/ RMK SF8

CYQR;2010-03-04 06:24;CYQR 040624Z 15014KT 1 1/4SM -SHSN DRSN BR OVC002 M07/ RMK SF8

CYQR;2010-03-04 06:38;CYQR 040638Z 16014KT 3/4SM R13/P6000FT/D BR OVC002 M07/ RMK FG3SF5

CYQR;2010-03-04 07:00;CYQR 040700Z 16012G17KT 1SM R13/P6000FT/U BR VV001 M07/M08 A2986 RMK FG8 SLP149

CYQR;2010-03-04 07:09;CYQR 040709Z 15010G15KT 1SM R13/P6000FT/U BR OVC002 M06/ RMK FG5SF3

CYQR;2010-03-04 08:00;CYQR 040800Z 16014KT 5/8SM R13/P6000FT/U BR VV001 M06/M08 A2985 RMK FG8 SLP148

CYQR;2010-03-04 08:40;CYQR 040840Z 16012G17KT 1/2SM R13/4000VP6000FT/D FZFG VV001 M06/ RMK FG8

CYQR;2010-03-04 09:00;CYQR 040900Z 15013KT 1/2SM R13/6000FT/U FZFG VV001 M07/M08 A2984 RMK FG8 SLP142

CYQR;2010-03-04 10:00;CYQR 041000Z 16013KT 1/2SM R13/3500V5000FT/U FZFG VV001 M07/M09 A2983 RMK FG8 SLP140

CYQR;2010-03-04 11:00;CYQR 041100Z 17011KT 1/2SM R13/3500V6000FT/U FZFG VV001 M07/M09 A2984 RMK FG8 SLP143

CYQR;2010-03-04 12:00;CYQR 041200Z 17009KT 1/2SM R13/4000V5500FT/N FZFG VV001 M07/M09 A2985 RMK FG8 SLP146

CYQR;2010-03-04 12:09;CYQR 041209Z 16008KT 1 1/2SM R13/4500VP6000FT/D BR OVC001 M08/ RMK FG4SF3

CYQR;2010-03-04 12:23;CYQR 041223Z 15007KT 3SM BR OVC001 M08/ RMK SF6

CYQR;2010-03-04 12:42;CYQR 041242Z 15007KT 5SM BR SCT001 M08/ RMK SF3

CYQR;2010-03-04 13:00;CYQR 041300Z 16007KT 5SM BR BKN001 M08/M10 A2985 RMK SF4 SLP145

CYQR;2010-03-04 13:09;CYQR 041309Z 15007KT 1SM R13/P6000FT/D BR BKN001 M09/ RMK SF5 VIS VRB 3/4-11/4

CYQR;2010-03-04 13:42;CYQR 041342Z 15007KT 3SM BR SCT001 M09/ RMK SF2

CYQR;2010-03-04 14:00;CYQR 041400Z 15007KT 6SM BR SCT001 M09/M11 A2985 RMK SF2 SLP146

CYQR;2010-03-04 15:00;CYQR 041500Z 15007KT 15SM SKC M09/M11 A2986 RMK VSBY E 2 FOG BANK OVR CITY SLP149

CYQR;2010-03-04 16:00;CYQR 041600Z 17004KT 15SM FEW001 M09/M11 A2987 RMK SF1 SLP154

CYQR;2010-03-04 16:57;CYQR 041657Z 19003KT 15SM BKN004 M08/ RMK SF6

CYQR;2010-03-04 17:00;CYQR 041700Z 18003KT 15SM BKN004 M08/M10 A2987 RMK SF7 SLP154

CYQR;2010-03-04 17:25;CYQR 041725Z 20003KT 15SM OVC003 M08/ RMK SF8

CYQR;2010-03-04 18:00;CYQR 041800Z 22002KT 3SM BR OVC002 M07/M09 A2988 RMK SF8 SLP155

CYQR;2010-03-04 18:02;CYQR 041802Z 22002KT 2SM BR OVC002 M07/ RMK FG2SF6

CYQR;2010-03-04 18:06;CYQR 041806Z 21002KT 3/4SM R13/P6000FT/N BR VV002 M07/ RMK FG8

CYQR;2010-03-04 18:14;CYQR 041814Z 00000KT 1/2SM R13/P6000FT/D FZFG VV002 M06/ RMK FG8

CYQR;2010-03-04 18:32;CYQR 041832Z 00000KT 1/2SM R13/1600FT/N FZFG VV001 M06/ RMK FG8 VIS VRB 3/8-5/8

CYQR;2010-03-04 19:00;CYQR 041900Z 00000KT 1/4SM R13/2400FT/N FZFG VV001 M05/M06 A2988 RMK FG8 SLP156

CYQR;2010-03-04 19:10;CYQR 041910Z 29002KT 1/2SM R13/2800V4000FT/U FZFG VV001 M04/ RMK FG8

CYQR;2010-03-04 20:00;CYQR 042000Z 27005KT 3/8SM R13/2200FT/N FZFG VV001 M04/M05 A2988 RMK FG8 SLP156

CYQR;2010-03-04 20:23;CYQR 042023Z 28004KT 1/2SM R13/4000VP6000FT/U FZFG VV001 M04/ RMK FG8

CYQR;2010-03-04 20:36;CYQR 042036Z 30002KT 1SM R13/P6000FT/D BR OVC002 M04/ RMK SF8

CYQR;2010-03-04 20:50;CYQR 042050Z 29004KT 2 1/2SM BR OVC003 M04/ RMK SC8

CYQR;2010-03-04 21:00;CYQR 042100Z 30004KT 3SM BR OVC003 M04/M05 A2988 RMK SC8 SLP154

CYQR;2010-03-04 22:00;CYQR 042200Z 30004KT 3SM BR OVC003 M03/M05 A2989 RMK SC8 SLP158

CYQR;2010-03-04 22:29;CYQR 042229Z 30003KT 2SM BR OVC002 M03/ RMK SC8

CYQR;2010-03-04 22:36;CYQR 042236Z 28004KT 1SM R13/6000FT/D BR OVC002 M03/ RMK SC8

CYQR;2010-03-04 22:44;CYQR 042244Z 29004KT 3/4SM R13/4500FT/D BR VV001 M03/ RMK FG8

CYQR;2010-03-04 22:51;CYQR 042251Z 28004KT 1/2SM R13/4000FT/D FZFG VV001 M03/ RMK FG8

CYQR;2010-03-04 23:00;CYQR 042300Z 27004KT 1/2SM R13/3500FT/N FZFG VV001 M03/M04 A2990 RMK FG8 SLP159

CYQR;2010-03-04 23:53;CYQR 042353Z 26005KT 3/8SM R13/2600FT/N FZFG VV001 M04/ RMK FG8

CYQR;2010-03-05 00:00;CYQR 050000Z 28006KT 3/8SM R13/2800FT/N FZFG VV001 M02/M04 A2990 RMK FG8 SLP161

CYQR;2010-03-05 00:26;CYQR 050026Z 28005KT 1/4SM R13/2400FT/N FZFG VV001 M03/ RMK FG8

CYQR;2010-03-05 01:00;CYQR 050100Z 28004KT 1/4SM R13/3000FT/U FZFG VV001 M03/M04 A2992 RMK FG8 SLP166

CYQR;2010-03-05 02:00;CYQR 050200Z 28003KT 1/4SM R13/1800FT/N FZFG VV001 M02/M04 A2993 RMK FG8 SLP169

CYQR;2010-03-05 03:00;CYQR 050300Z 31002KT 1/4SM R13/1600FT/N FZFG VV001 M03/M04 A2994 RMK FG8 SLP175

CYQR;2010-03-05 04:00;CYQR 050400Z 28002KT 1/4SM R13/2000FT/N FZFG VV001 M03/M05 A2995 RMK FG8 SLP178

CYQR;2010-03-05 05:00;CYQR 050500Z 24003KT 1/4SM R13/1800FT/N FZFG VV001 M03/M05 A2996 RMK FG8 SLP182

CYQR;2010-03-05 06:00;CYQR 050600Z 26002KT 1/4SM R13/2000FT/N FZFG VV001 M04/M06 A2997 RMK FG8 SLP185

CYQR;2010-03-05 07:00;CYQR 050700Z 31003KT 1/4SM R13/1600FT/N FZFG VV001 M05/M06 A2997 RMK FG8 SLP185

CYQR;2010-03-05 08:00;CYQR 050800Z 29002KT 1/4SM R13/1600FT/N FZFG VV001 M05/M07 A2998 RMK FG8 SLP189

CYQR;2010-03-05 09:00;CYQR 050900Z 00000KT 1/4SM R13/1200FT/N FZFG VV001 M06/M08 A3000 RMK FG8 SLP193

CYQR;2010-03-05 10:00;CYQR 051000Z 00000KT 1/4SM R13/1200FT/N FZFG VV001 M07/M09 A3000 RMK FG8 SLP193

CYQR;2010-03-05 11:00;CYQR 051100Z 00000KT 1/4SM R13/1400FT/N FZFG VV001 M08/M10 A3000 RMK FG8 SLP196

CYQR;2010-03-05 12:00;CYQR 051200Z 21003KT 1/8SM R13/1100FT/N FZFG VV001 M09/M11 A3003 RMK FG8 SLP205

CYQR;2010-03-05 13:00;CYQR 051300Z 00000KT 1/4SM R13/1400V2000FT/N FZFG VV001 M09/M11 A3004 RMK FG8 SLP208

CYQR;2010-03-05 13:46;CYQR 051346Z 20003KT 0SM R13/1600FT/N FZFG VV000 M09/ RMK FG8

CYQR;2010-03-05 14:00;CYQR 051400Z 21003KT 0SM R13/1000V1400FT/N FZFG VV000 M09/M11 A3007 RMK FG8 SLP219

CYQR;2010-03-05 14:47;CYQR 051447Z 34002KT 1/8SM R13/1200FT/N FZFG SKC M09/ RMK FG7

CYQR;2010-03-05 15:00;CYQR 051500Z 00000KT 1/8SM R13/1100V1600FT/N FZFG SKC M09/M11 A3007 RMK FG7 SLP221

CYQR;2010-03-05 15:10;CYQR 051510Z 00000KT 1/4SM R13/1600V2000FT/N FZFG SKC M09/ RMK FG7

CYQR;2010-03-05 15:19;CYQR 051519Z 00000KT 1/2SM R13/1800FT/N FZFG SKC M08/ RMK FG6

CYQR;2010-03-05 15:31;CYQR 051531Z 00000KT 3/4SM R13/1800FT/N BR SKC M08/ RMK FG6

CYQR;2010-03-05 15:46;CYQR 051546Z 00000KT 1/2SM R13/2600FT/N FZFG BKN250 M08/ RMK FG6CI0

CYQR;2010-03-05 16:00;CYQR 051600Z 00000KT 1/2SM R13/2600VP6000FT/N FZFG BKN250 M08/M10 A3009 RMK FG6CI0 SLP226

CYQR;2010-03-05 16:18;CYQR 051618Z 00000KT 1SM R13/P6000FT/N BR BKN250 M07/ RMK FG3CI2

CYQR;2010-03-05 16:41;CYQR 051641Z 22003KT 2SM BR BKN250 M07/ RMK FG1CI2

CYQR;2010-03-05 17:00;CYQR 051700Z 22002KT 2SM BR BKN250 M07/M09 A3010 RMK FG1CI2 SLP231

CYQR;2010-03-05 17:31;CYQR 051731Z 00000KT 3SM BR BKN250 M07/ RMK FG1CI2

CYQR;2010-03-05 18:00;CYQR 051800Z 00000KT 3SM BR BKN250 M06/M08 A3011 RMK FG1CI2 SLP232

CYQR;2010-03-05 19:00;CYQR 051900Z 20004KT 3SM BR BKN250 M05/M07 A3011 RMK FG1CI2 SLP234

CYQR;2010-03-05 20:00;CYQR 052000Z 18002KT 10SM FEW100 BKN250 M04/M05 A3010 RMK AC1CI1 SLP231

CYQR;2010-03-05 21:00;CYQR 052100Z 19005KT 10SM FEW100 BKN250 M03/M04 A3011 RMK AC1CI1 SLP232

CYQR;2010-03-05 22:00;CYQR 052200Z 20006KT 10SM FEW100 BKN250 M02/M03 A3012 RMK AC1CI2 SLP235

CYQR;2010-03-05 23:00;CYQR 052300Z 20003KT 10SM BKN250 M02/M04 A3012 RMK CI2 SLP235

CYQR;2010-03-06 00:00;CYQR 060000Z 21003KT 15SM BKN250 M04/M05 A3013 RMK CI2 SLP241

CYQR;2010-03-06 01:00;CYQR 060100Z 00000KT 15SM FEW250 M04/M06 A3013 RMK CI1 SLP242

CYQR;2010-03-06 02:00;CYQR 060200Z 00000KT 10SM R13/2800V4000FT/N FEW250 M05/M07 A3014 RMK CI1 SLP245

CYQR;2010-03-06 03:00;CYQR 060300Z 16002KT 6SM R13/1400FT/D BR SKC M07/M09 A3015 RMK SLP251

CYQR;2010-03-06 04:00;CYQR 060400Z 17002KT 6SM R13/2200FT/N BR SKC M07/M09 A3016 RMK SLP253

CYQR;2010-03-06 05:00;CYQR 060500Z 14004KT 6SM R13/3000VP6000FT/U BR SKC M08/M11 A3015 RMK SLP252

CYQR;2010-03-06 06:00;CYQR 060600Z 13006KT 6SM BR SKC M09/M11 A3015 RMK SLP251

CYQR;2010-03-06 07:00;CYQR 060700Z 13003KT 6SM BR SKC M09/M11 A3016 RMK SLP253

CYQR;2010-03-06 07:53;CYQR 060753Z 18002KT 8SM FEW005 M12/ RMK SF1 BR

CYQR;2010-03-06 08:00;CYQR 060800Z 19002KT 8SM BCFG FEW005 M13/M15 A3016 RMK SF2 SLP255

CYQR;2010-03-06 08:03;CYQR 060803Z 18003KT 8SM BCFG BKN005 M13/ RMK SF4

CYQR;2010-03-06 08:50;CYQR 060850Z 15004KT 2 1/2SM R13/3500FT/N BR BKN004 M12/ RMK SF5

CYQR;2010-03-06 09:00;CYQR 060900Z 15005KT 2SM R13/3000FT/N BR FEW001 BKN006 M12/M15 A3016 RMK SF2SF3 SLP255

CYQR;2010-03-06 09:17;CYQR 060917Z 15005KT 1SM R13/P6000FT/N BR SCT001 BKN006 M12/ RMK SF3SF3

CYQR;2010-03-06 09:28;CYQR 060928Z 14005KT 3/4SM R13/P6000FT/D BR BKN001 M12/ RMK SF6

CYQR;2010-03-06 09:51;CYQR 060951Z 15005KT 1/2SM R13/2600FT/D FZFG VV001 M12/ RMK FG8

CYQR;2010-03-06 10:00;CYQR 061000Z 15005KT 1/2SM R13/2600V4500FT/N FZFG VV001 M11/M14 A3017 RMK FG8 SLP257

CYQR;2010-03-06 10:21;CYQR 061021Z 13006KT 3/4SM R13/3000VP6000FT/D BR OVC004 M12/ RMK FG6SF1

CYQR;2010-03-06 10:52;CYQR 061052Z 13004KT 2SM BR BKN006 M12/ RMK FG6SF1

CYQR;2010-03-06 11:00;CYQR 061100Z 13006KT 3SM BR SCT001 OVC006 M12/M14 A3017 RMK SF4SC4 SLP256

CYQR;2010-03-06 12:00;CYQR 061200Z 13007KT 3SM BR BKN001 BKN006 M13/M15 A3017 RMK SF5SC2 SLP257

CYQR;2010-03-06 12:44;CYQR 061244Z 12007KT 4SM BR BKN002 M13/ RMK SF6

CYQR;2010-03-06 13:00;CYQR 061300Z 12007KT 4SM BR BKN002 M13/M15 A3017 RMK SF4 SLP258

CYQR;2010-03-06 14:00;CYQR 061400Z 12008KT 3SM BR BKN002 M13/M15 A3018 RMK SF4 SLP260

CYQR;2010-03-06 15:00;CYQR 061500Z 13008KT 6SM BR FEW002 M12/M14 A3017 RMK SF2 SLP259

CYQR;2010-03-06 16:00;CYQR 061600Z 13006KT 6SM BR FEW002 M10/M12 A3017 RMK SF1 SLP261

CYQR;2010-03-06 17:00;CYQR 061700Z 13006KT 12SM FEW002 M08/M10 A3017 RMK SF1 SLP260

CYQR;2010-03-06 18:00;CYQR 061800Z 13006KT 15SM FEW250 M07/M08 A3017 RMK CI0 SLP258

CYQR;2010-03-06 19:00;CYQR 061900Z 14007KT 15SM FEW250 M05/M07 A3016 RMK CI0 SLP254

CYQR;2010-03-06 20:00;CYQR 062000Z 14008KT 15SM SKC M04/M06 A3014 RMK SLP249

CYQR;2010-03-06 21:00;CYQR 062100Z 14009KT 15SM SKC M03/M05 A3013 RMK SLP245

CYQR;2010-03-06 22:00;CYQR 062200Z 14008KT 15SM SKC M03/M04 A3012 RMK SLP241

CYQR;2010-03-06 23:00;CYQR 062300Z 14007KT 15SM SKC M02/M04 A3011 RMK SLP238

CYQR;2010-03-07 00:00;CYQR 070000Z 13008KT 15SM SKC M03/M05 A3010 RMK SLP234

CYQR;2010-03-07 01:00;CYQR 070100Z 13010KT 15SM FEW250 M04/M06 A3009 RMK CI1 SLP229

CYQR;2010-03-07 02:00;CYQR 070200Z 14011KT 15SM SKC M06/M08 A3007 RMK SLP225

CYQR;2010-03-07 03:00;CYQR 070300Z 14010KT 15SM SKC M06/M09 A3007 RMK SLP225

CYQR;2010-03-07 04:00;CYQR 070400Z 13009KT 15SM SKC M08/M10 A3007 RMK SLP224

CYQR;2010-03-07 04:27;CYQR 070427Z 13010KT 15SM FEW003 M08/ RMK SF1

CYQR;2010-03-07 05:00;CYQR 070500Z 13009KT 8SM BCFG BKN002 M08/M10 A3006 RMK SF5 SLP222

CYQR;2010-03-07 05:23;CYQR 070523Z 13009KT 3/4SM R13/P6000FT/D BR VV001 M08/ RMK FG8

CYQR;2010-03-07 06:00;CYQR 070600Z 12007KT 5/8SM R13/P6000FT/D BR VV001 M09/M11 A3005 RMK FG8 SLP216

CYQR;2010-03-07 06:21;CYQR 070621Z 13007KT 1 1/2SM BR OVC029 M09/ RMK FG5SC3

CYQR;2010-03-07 07:00;CYQR 070700Z 13007KT 3SM BR OVC001 M10/M12 A3004 RMK ST8 SLP212

CYQR;2010-03-07 08:00;CYQR 070800Z 12008KT 3SM BR OVC001 M10/M13 A3003 RMK ST8 SLP210

CYQR;2010-03-07 08:39;CYQR 070839Z 12009KT 8SM SCT001 M10/ RMK SF3

CYQR;2010-03-07 09:00;CYQR 070900Z 12009KT 10SM FEW001 M10/M13 A3001 RMK SF2 SLP201

CYQR;2010-03-07 10:00;CYQR 071000Z 13008KT 10SM FEW001 M11/M13 A3000 RMK SF1 SLP196

CYQR;2010-03-07 11:00;CYQR 071100Z 13007KT 10SM FEW001 M11/M13 A2998 RMK SF1 SLP192

CYQR;2010-03-07 12:00;CYQR 071200Z 13012KT 12SM FEW001 M11/M13 A2997 RMK SF1 SLP189

CYQR;2010-03-07 13:00;CYQR 071300Z 14011KT 12SM SKC M10/M13 A2996 RMK SLP184

CYQR;2010-03-07 14:00;CYQR 071400Z 14012KT 12SM SKC M11/M13 A2994 RMK SLP179

CYQR;2010-03-07 15:00;CYQR 071500Z 13009KT 12SM SKC M10/M12 A2994 RMK SLP178

CYQR;2010-03-07 15:50;CYQR 071550Z 13010KT 3SM BR SCT003 BKN095 M09/ RMK SF4AC1 VIS S 1

CYQR;2010-03-07 15:56;CYQR 071556Z 14009KT 1 1/2SM R13/3500VP6000FT/D BR OVC001 M09/ RMK ST8 VIS S 1/2

CYQR;2010-03-07 16:00;CYQR 071600Z 13008KT 3/4SM R13/3500VP6000FT/D BR VV001 M08/M11 A2992 RMK FG8 VIS S 1/2 SLP174

CYQR;2010-03-07 16:02;CYQR 071602Z 13009KT 1/2SM R13/3000VP6000FT/D FZFG VV001 M08/ RMK FG8 SUN DIMLY VISBL

CYQR;2010-03-07 16:29;CYQR 071629Z 14009KT 1/4SM R13/2600VP6000FT/D FZFG VV001 M08/ RMK FG8 SUN DIMLY VISBL

CYQR;2010-03-07 17:00;CYQR 071700Z 14012KT 1/4SM R13/1400FT/N FZFG VV001 M07/M08 A2992 RMK FG8 SLP172

CYQR;2010-03-07 18:00;CYQR 071800Z 15013KT 1/4SM R13/1400FT/N FZFG VV001 M05/M06 A2991 RMK FG8 SLP165

CYQR;2010-03-07 19:00;CYQR 071900Z 15014KT 1/4SM R13/1400FT/N FZFG VV001 M03/M05 A2989 RMK FG8 SLP159

CYQR;2010-03-07 20:00;CYQR 072000Z 16014KT 1/4SM R13/2200FT/N FZFG VV001 M01/M02 A2987 RMK FG8 SLP154

CYQR;2010-03-07 21:00;CYQR 072100Z 16017KT 1/2SM R13/2600FT/N FZFG VV001 M01/M01 A2985 RMK FG8 SLP142

CYQR;2010-03-07 21:25;CYQR 072125Z 16017KT 3/4SM R13/P6000FT/D BR OVC001 M00/ RMK FG6SF2

CYQR;2010-03-07 22:00;CYQR 072200Z 16011G17KT 1/2SM R13/3500V6000FT/D FZFG VV001 M00/M01 A2983 RMK FG8 SLP137

CYQR;2010-03-07 22:11;CYQR 072211Z 17016KT 1SM R13/4500VP6000FT/U BR OVC001 M00/ RMK FG5SC3

CYQR;2010-03-07 23:00;CYQR 072300Z 17014KT 3/4SM R13/P6000FT/N BR OVC001 M00/M01 A2982 RMK FG6SF2 VIS VRB 1/2-1 SLP133

CYQR;2010-03-07 23:28;CYQR 072328Z 16014G19KT 1/2SM R13/4500FT/N FZFG VV001 00/ RMK FG8 VISVRB 1/4-3/4

CYQR;2010-03-07 23:46;CYQR 072346Z 16016KT 1/4SM R13/3500FT/D FZFG VV001 00/ RMK FG8

CYQR;2010-03-08 00:00;CYQR 080000Z 16015KT 1/4SM R13/2600FT/N FZFG VV001 00/M01 A2981 RMK FG8 SLP128

CYQR;2010-03-08 01:00;CYQR 080100Z 16018KT 1/4SM R13/2600FT/N FZFG VV001 00/M00 A2979 RMK FG8 SLP123

CYQR;2010-03-08 02:00;CYQR 080200Z 16017KT 3/8SM R13/2800FT/N FZFG VV001 00/M00 A2978 RMK FG8 SLP119

CYQR;2010-03-08 03:00;CYQR 080300Z 16015G22KT 3/8SM R13/3500FT/N FZFG VV001 M00/M01 A2977 RMK FG8 SLP116

CYQR;2010-03-08 03:33;CYQR 080333Z 16019KT 3/4SM R13/4500FT/N BR VV001 M00/ RMK FG8

CYQR;2010-03-08 04:00;CYQR 080400Z 17019KT 1SM R13/P6000FT/D BR OVC001 00/M01 A2976 RMK ST8 SLP114

CYQR;2010-03-08 05:00;CYQR 080500Z 16016KT 1 1/2SM BR OVC001 00/M01 A2976 RMK ST8 SLP111

CYQR;2010-03-08 06:00;CYQR 080600Z 17016KT 2SM BR OVC001 M00/M01 A2975 RMK ST8 SLP104

CYQR;2010-03-08 07:00;CYQR 080700Z 17018KT 3SM BR OVC002 M00/M01 A2973 RMK ST8 SLP099

CYQR;2010-03-08 08:00;CYQR 080800Z 17015KT 5SM BR OVC002 M00/M01 A2972 RMK ST8 SLP097

CYQR;2010-03-08 09:00;CYQR 080900Z 16011G16KT 2SM BR OVC001 M00/M01 A2971 RMK ST8 SLP087

CYQR;2010-03-08 09:16;CYQR 080916Z 17012KT 3/4SM R13/P6000FT/U BR VV001 M00/ RMK FG8

CYQR;2010-03-08 09:39;CYQR 080939Z 16012KT 3/8SM R13/6000FT/D FZFG VV001 M00/ RMK FG8

CYQR;2010-03-08 10:00;CYQR 081000Z 16015KT 1/4SM R13/4000FT/N FZFG VV001 M00/M01 A2969 RMK FG8 SLP081

CYQR;2010-03-08 11:00;CYQR 081100Z 16015KT 1/4SM R13/4000FT/N FZFG VV001 M00/M01 A2968 RMK FG8 SLP078

CYQR;2010-03-08 12:00;CYQR 081200Z 16016KT 3/8SM R13/4000FT/U FZFG VV001 M00/M01 A2967 RMK FG8 SLP076

CYQR;2010-03-08 13:00;CYQR 081300Z 16015KT 3/4SM R13/4000V5500FT/U BR VV001 M00/M01 A2967 RMK FG8 SLP075

CYQR;2010-03-08 13:20;CYQR 081320Z 16017KT 1/2SM R13/5500FT/N FZFG VV001 M00/ RMK FG8 VIS VRB 3/8-5/8

CYQR;2010-03-08 14:00;CYQR 081400Z 16015KT 1/2SM R13/3500FT/N FZFG VV001 M00/M01 A2967 RMK FG8 VIS VRB 3/8-5/8 SLP074

CYQR;2010-03-08 15:00;CYQR 081500Z CCA 17013KT 1/2SM R13/3500FT/D FZFG VV001 M01/M01 A2968 RMK FG8 VIS VRB 3/8-5/8 SLP079

CYQR;2010-03-08 15:48;CYQR 081548Z 16014KT 3/8SM R13/2000FT/N FZFG VV001 M01/ RMK FG8 VIS VRB 1/4-1/2

CYQR;2010-03-08 16:00;CYQR 081600Z 18013KT 3/8SM R13/2000FT/U FZFG VV001 M01/M01 A2968 RMK FG8 VIS VRB 1/4-1/2 SLP077

CYQR;2010-03-08 17:00;CYQR 081700Z 17014KT 1/2SM R13/3000VP6000FT/N FZFG VV001 M01/M01 A2968 RMK FG8 VIS VRB 3/8-5/8 SLP078

CYQR;2010-03-08 18:00;CYQR 081800Z 18014KT 1/2SM R13/3000FT/N FZFG VV001 M01/M01 A2968 RMK FG8 SLP079

CYQR;2010-03-08 18:17;CYQR 081817Z 18012KT 3/4SM R13/4000VP6000FT/U BR OVC001 M00/ RMK ST8

CYQR;2010-03-08 18:46;CYQR 081846Z 18011KT 1SM R13/P6000FT/U BR OVC001 M01/ RMK ST8 VIS VRB 3/4-11/2

CYQR;2010-03-08 19:00;CYQR 081900Z 18011KT 3/4SM R13/P6000FT/D BR OVC001 M01/M01 A2968 RMK ST8 SLP077

CYQR;2010-03-08 19:42;CYQR 081942Z 18009KT 1 1/4SM R13/4500VP6000FT/D BR OVC001 M00/ RMK ST8 VIS VRB 1-11/2

CYQR;2010-03-08 20:00;CYQR 082000Z 18010KT 1 1/2SM BR OVC001 M00/M01 A2967 RMK ST8 VIS VRB 1-2 SLP075

CYQR;2010-03-08 21:00;CYQR 082100Z 21008KT 1 1/2SM BR OVC001 M00/M01 A2966 RMK ST8 VIS VRB 1-2 SLP073

CYQR;2010-03-08 22:00;CYQR 082200Z 19007KT 2SM BR OVC001 M00/M01 A2967 RMK ST8 SLP076

CYQR;2010-03-08 22:27;CYQR 082227Z 16005KT 3SM BR OVC001 M00/ RMK ST8

CYQR;2010-03-08 23:00;CYQR 082300Z 14009KT 2 1/2SM BR OVC001 00/M01 A2967 RMK ST8 SLP074

CYQR;2010-03-08 23:27;CYQR 082327Z 15005KT 1 1/2SM BR OVC001 M00/ RMK ST8 VIS VRB 1-2

CYQR;2010-03-08 23:37;CYQR 082337Z 14007KT 3/4SM R13/3000V5500FT/U BR OVC001 M00/ RMK ST8

CYQR;2010-03-08 23:43;CYQR 082343Z 15008KT 1/2SM R13/5000FT/N FZFG VV001 M00/ RMK FG8

CYQR;2010-03-09 00:00;CYQR 090000Z 14008KT 3/8SM R13/3000FT/N FZFG VV001 M00/M01 A2968 RMK FG8 VIS VRB 1/4-1/2 SLP079

CYQR;2010-03-09 00:21;CYQR 090021Z 14004KT 1/2SM R13/2600FT/N FZFG VV001 M00/ RMK FG8 VIS VRB 3/8-5/8

CYQR;2010-03-09 00:27;CYQR 090027Z 14004KT 1SM R13/2600V4000FT/N BR VV001 M00/ RMK FG8 VIS VRB 3/4-11/4

CYQR;2010-03-09 00:31;CYQR 090031Z 14004KT 1 1/2SM R13/2600V5000FT/U BR OVC001 M00/ RMK ST8 VIS VRB 1-2

CYQR;2010-03-09 00:37;CYQR 090037Z 15004KT 2SM R13/3000VP6000FT/U BR OVC001 M00/ RMK ST8 VIS VRB 11/2-21/2 VIS SW 4

CYQR;2010-03-09 01:00;CYQR 090100Z 14008KT 1SM R13/P6000FT/N BR OVC001 M00/M01 A2969 RMK ST8 VIS VRB 1/2-11/2 SLP080

CYQR;2010-03-09 01:47;CYQR 090147Z 13006KT 1/2SM R13/2800V4000FT/N FZFG VV001 M00/ RMK FG8 VIS VRB 1/4-3/4

CYQR;2010-03-09 02:00;CYQR 090200Z 14007KT 1/2SM R13/2600V4000FT/D FZFG VV001 M00/M01 A2970 RMK FG8 VIS VRB 1/4-3/4 SLP085

CYQR;2010-03-09 03:00;CYQR 090300Z 14006KT 1/2SM R13/3000FT/N FZFG VV001 M00/M01 A2971 RMK FG8 VIS VRB 1/4-3/4 SLP088

CYQR;2010-03-09 04:00;CYQR 090400Z 14006KT 1/4SM R13/2800FT/N FZFG VV001 M00/M01 A2972 RMK FG8 SLP091

CYQR;2010-03-09 05:00;CYQR 090500Z 15005KT 1/4SM R13/2800V4500FT/U FZFG VV001 M01/M01 A2973 RMK FG8 SLP094

CYQR;2010-03-09 06:00;CYQR 090600Z 00000KT 1/4SM R13/2400FT/N FZFG VV001 M01/M02 A2974 RMK FG8 SLP100

CYQR;2010-03-09 07:00;CYQR 090700Z 34004KT 1/4SM R13/2800V4500FT/D FZFG VV001 M01/M02 A2975 RMK FG8 SLP103

CYQR;2010-03-09 08:00;CYQR 090800Z 35010KT 1/4SM R13/2800FT/N FZFG VV001 M01/M03 A2976 RMK FG8 SLP107

CYQR;2010-03-09 09:00;CYQR 090900Z 35012KT 1/2SM R13/3500VP6000FT/D FZFG VV001 M01/M03 A2978 RMK FG8 SLP113

CYQR;2010-03-09 09:26;CYQR 090926Z 33013KT 3/4SM R13/P6000FT/U BR OVC001 M02/ RMK ST8 VIS VRB 1/2-1

CYQR;2010-03-09 10:00;CYQR 091000Z 35010KT 3/4SM R13/P6000FT/D BR OVC001 M02/M03 A2979 RMK ST8 VIS VRB 1/2-1 SLP116

CYQR;2010-03-09 11:00;CYQR 091100Z 33013KT 3/4SM R13/P6000FT/U BR VV001 M02/M04 A2980 RMK FG8 VIS VRB 1/2-1 SLP119

CYQR;2010-03-09 12:00;CYQR 091200Z 36011KT 3/4SM R13/P6000FT/D BR VV001 M02/M04 A2981 RMK FG8 VIS VRB 1/2-1 SLP123

CYQR;2010-03-09 13:00;CYQR 091300Z 34011KT 3/4SM R13/P6000FT/D BR VV001 M03/M04 A2982 RMK FG8 VIS VRB 1/2-1 SLP128

CYQR;2010-03-09 13:09;CYQR 091309Z 35011KT 1 1/4SM -FZDZ BR VV001 M02/ RMK FG8 VIS VRB 1-11/2

CYQR;2010-03-09 13:22;CYQR 091322Z 34014KT 3/4SM R13/P6000FT/U -FZDZ BR VV001 M02/ RMK FG8 VIS VRB 5/8-1

CYQR;2010-03-09 14:00;CYQR 091400Z 35014KT 1SM R13/P6000FT/U -FZDZ BR OVC001 M03/M04 A2984 RMK ST8 VIS VRB 3/4-11/4 SLP133

CYQR;2010-03-09 14:10;CYQR 091410Z 36012KT 1 1/2SM -FZDZ BR OVC002 M03/ RMK ST8

CYQR;2010-03-09 14:24;CYQR 091424Z 01010KT 2SM -FZDZ BR OVC002 M02/ RMK ST8

CYQR;2010-03-09 15:00;CYQR 091500Z 35012KT 2 1/2SM -FZDZ BR OVC003 M02/M04 A2984 RMK ST8 SLP135

CYQR;2010-03-09 16:00;CYQR 091600Z 01012KT 3SM -FZDZ BR OVC003 M02/M03 A2985 RMK ST8 SLP137

CYQR;2010-03-09 17:00;CYQR 091700Z 36008KT 6SM BR OVC004 M02/M03 A2986 REFZDZ RMK ST8 SLP142

CYQR;2010-03-09 18:00;CYQR 091800Z 36008KT 6SM BR OVC004 M01/M03 A2986 RMK ST8 SLP139

CYQR;2010-03-09 19:00;CYQR 091900Z 01007KT 6SM BR OVC004 M01/M03 A2986 RMK ST8 SLP140

CYQR;2010-03-09 19:37;CYQR 091937Z 36011KT 10SM OVC006 M01/ RMK ST8

CYQR;2010-03-09 20:00;CYQR 092000Z 01010KT 10SM OVC005 M01/M03 A2985 RMK ST8 BR SLP138

CYQR;2010-03-09 21:00;CYQR 092100Z 01009KT 12SM OVC006 M01/M02 A2984 RMK ST8 SLP133

CYQR;2010-03-09 22:00;CYQR 092200Z 01010KT 10SM OVC006 M01/M02 A2982 RMK SC8 BR SLP129

CYQR;2010-03-09 23:00;CYQR 092300Z 01010KT 10SM OVC006 M01/M03 A2982 RMK SC8 BR SLP129

CYQR;2010-03-10 00:00;CYQR 100000Z 05008KT 12SM OVC006 M01/M02 A2983 RMK SC8 SLP131

CYQR;2010-03-10 01:00;CYQR 100100Z 05007KT 12SM OVC006 M01/M03 A2982 RMK SC8 SLP129

CYQR;2010-03-10 02:00;CYQR 100200Z 04005KT 15SM OVC008 M01/M03 A2982 RMK SC8 SLP129

CYQR;2010-03-10 03:00;CYQR 100300Z 08008KT 15SM OVC007 M01/M03 A2982 RMK SC8 SLP127

CYQR;2010-03-10 04:00;CYQR 100400Z 09005KT 15SM OVC007 M01/M03 A2981 RMK SC8 SLP124

CYQR;2010-03-10 05:00;CYQR 100500Z 11005KT 15SM OVC007 M01/M03 A2981 RMK SC8 SLP124

CYQR;2010-03-10 06:00;CYQR 100600Z 10007KT 15SM OVC007 M01/M03 A2981 RMK SC8 SLP125

CYQR;2010-03-10 07:00;CYQR 100700Z 10008KT 15SM OVC006 M02/M03 A2981 RMK SC8 SLP124

CYQR;2010-03-10 07:22;CYQR 100722Z 14004KT 15SM -SN OVC005 M02/ RMK SC8

CYQR;2010-03-10 08:00;CYQR 100800Z 13004KT 12SM -SN OVC005 M02/M03 A2981 RMK SC8 SLP123

CYQR;2010-03-10 09:00;CYQR 100900Z 17002KT 10SM -SN OVC009 M02/M03 A2980 RMK SC8 SLP119

CYQR;2010-03-10 10:00;CYQR 101000Z 00000KT 10SM -SN BKN008 OVC010 M02/M03 A2979 RMK SF7SC1 SLP118

CYQR;2010-03-10 11:00;CYQR 101100Z 00000KT 15SM -SN BKN005 OVC008 M02/M03 A2979 RMK SF7SC1 SLP118

CYQR;2010-03-10 11:22;CYQR 101122Z 00000KT 15SM -SN BKN008 OVC014 M02/ RMK SF6SC2

CYQR;2010-03-10 12:00;CYQR 101200Z CCA 35002KT 15SM -SN BKN016 OVC031 M02/M04 A2979 RMK SC6SC2 SLP117

CYQR;2010-03-10 13:00;CYQR 101300Z 34004KT 15SM -SN BKN014 OVC030 M02/M03 A2980 RMK SC6SC2 SLP120

CYQR;2010-03-10 14:00;CYQR 101400Z 36003KT 12SM -SN OVC011 M02/M03 A2981 RMK SC8 SLP122

CYQR;2010-03-10 14:21;CYQR 101421Z 04003KT 10SM -SG OVC009 M02/ RMK SC8

CYQR;2010-03-10 14:41;CYQR 101441Z 10006KT 12SM -SG BKN008 OVC016 M01/ RMK SC5SC3

CYQR;2010-03-10 15:00;CYQR 101500Z 09005KT 15SM BKN010 OVC016 M01/M03 A2981 RMK SC5SC3 SLP122

CYQR;2010-03-10 16:00;CYQR 101600Z 14004KT 15SM FEW010 OVC014 M01/M03 A2982 RMK SC2SC6 SLP126

CYQR;2010-03-10 17:00;CYQR 101700Z 13004KT 15SM BKN012 OVC030 M01/M03 A2982 RMK SC6SC2 SLP128

CYQR;2010-03-10 18:00;CYQR 101800Z 09005KT 15SM OVC012 M01/M04 A2982 RMK SC8 SLP129

CYQR;2010-03-10 19:00;CYQR 101900Z 25002KT 15SM OVC014 M01/M03 A2982 RMK SC8 SLP129

CYQR;2010-03-10 20:00;CYQR 102000Z 04003KT 15SM OVC014 M01/M04 A2981 RMK SC8 SLP126

CYQR;2010-03-10 20:50;CYQR 102050Z 01002KT 8SM -SN FEW006 OVC014 M01/ RMK SF2SC6

CYQR;2010-03-10 21:00;CYQR 102100Z 35002KT 5SM -SN BR SCT006 OVC014 M01/M03 A2982 RMK SF3SC5 SLP128

CYQR;2010-03-10 21:41;CYQR 102141Z 30003KT 2 1/2SM -SN BR SCT006 OVC015 M01/ RMK SF3SC5 VIS VRB 2-3 VIS E 5

CYQR;2010-03-10 22:00;CYQR 102200Z 30003KT 2 1/2SM -SN BR SCT006 OVC015 M01/M03 A2983 RMK SF4SC3 VIS VRB 2-3 VIS E 5 SLP130

CYQR;2010-03-10 22:08;CYQR 102208Z 30003KT 4SM -SN BR SCT007 OVC015 M01/ RMK SF3SC4

CYQR;2010-03-10 23:00;CYQR 102300Z 34007KT 12SM -SN FEW007 OVC017 M01/M03 A2984 RMK SF1SC7 SLP133

CYQR;2010-03-10 23:37;CYQR 102337Z 33005KT 15SM BKN017 OVC094 M01/ RMK SC7AC1

CYQR;2010-03-11 00:00;CYQR 110000Z 34004KT 15SM FEW010 OVC015 M01/M03 A2985 RMK SF1SC7 SLP137

CYQR;2010-03-11 01:00;CYQR 110100Z 32004KT 15SM OVC015 M01/M03 A2986 RMK SC8 SLP140

CYQR;2010-03-11 02:00;CYQR 110200Z 34006KT 15SM OVC020 M01/M03 A2986 RMK SC8 SLP143

CYQR;2010-03-11 03:00;CYQR 110300Z 34004KT 15SM OVC018 M01/M03 A2987 RMK SC8 SLP145

CYQR;2010-03-11 04:00;CYQR 110400Z 32005KT 15SM OVC018 M01/M03 A2988 RMK SC8 SLP147

CYQR;2010-03-11 05:00;CYQR 110500Z 32005KT 15SM FEW006 OVC016 M01/M03 A2988 RMK SF1SC8 SLP148

CYQR;2010-03-11 06:00;CYQR 110600Z 33004KT 15SM FEW006 OVC016 M01/M03 A2988 RMK SF1SC8 SLP149

CYQR;2010-03-11 07:00;CYQR 110700Z 32006KT 15SM FEW006 OVC018 M02/M03 A2989 RMK SF1SC8 SLP150

CYQR;2010-03-11 08:00;CYQR 110800Z 32006KT 15SM SCT007 OVC018 M02/M03 A2989 RMK SF3SC5 SLP152

CYQR;2010-03-11 09:00;CYQR 110900Z 32004KT 15SM FEW007 OVC018 M02/M03 A2989 RMK SF2SC6 SLP153

CYQR;2010-03-11 10:00;CYQR 111000Z 32003KT 15SM FEW007 OVC016 M02/M04 A2989 RMK SF1SC7 SLP151

CYQR;2010-03-11 11:00;CYQR 111100Z 34003KT 15SM SCT007 OVC018 M02/M04 A2989 RMK SF3SC5 SLP151

CYQR;2010-03-11 12:00;CYQR 111200Z 34002KT 15SM FEW007 OVC018 M02/M04 A2990 RMK SF2SC6 SLP154

CYQR;2010-03-11 13:00;CYQR 111300Z 33002KT 15SM BKN007 OVC016 M02/M04 A2990 RMK SF3SC5 SLP155

CYQR;2010-03-11 13:25;CYQR 111325Z 32003KT 15SM SCT005 OVC014 M02/ RMK SF2SC6

CYQR;2010-03-11 13:47;CYQR 111347Z 29002KT 15SM FEW005 OVC017 M02/ RMK SF2SC6

CYQR;2010-03-11 14:00;CYQR 111400Z 34002KT 15SM FEW005 OVC017 M02/M04 A2991 RMK SF1SC8 SLP158

CYQR;2010-03-11 15:00;CYQR 111500Z 28003KT 15SM OVC015 M02/M04 A2991 RMK SC8 SLP159

CYQR;2010-03-11 16:00;CYQR 111600Z 28004KT 15SM OVC015 M02/M04 A2992 RMK SC8 SLP162

CYQR;2010-03-11 17:00;CYQR 111700Z 28004KT 15SM OVC017 M01/M04 A2992 RMK SC8 SLP162

CYQR;2010-03-11 18:00;CYQR 111800Z 27004KT 15SM OVC017 M00/M04 A2992 RMK SC8 SLP160

CYQR;2010-03-11 19:00;CYQR 111900Z 00000KT 15SM OVC019 00/M04 A2991 RMK SC8 SLP159

CYQR;2010-03-11 20:00;CYQR 112000Z 00000KT 15SM OVC019 01/M04 A2991 RMK SC8 SLP156

CYQR;2010-03-11 21:00;CYQR 112100Z 25003KT 15SM OVC021 01/M03 A2989 RMK SC8 SLP152

CYQR;2010-03-11 22:00;CYQR 112200Z 19004KT 15SM BKN017 00/M03 A2989 RMK SC7 SLP151

CYQR;2010-03-11 23:00;CYQR 112300Z 00000KT 15SM SCT019 BKN250 01/M04 A2989 RMK SC2CI2 SLP150

CYQR;2010-03-12 00:00;CYQR 120000Z 16005KT 15SM FEW020 FEW095 SCT240 BKN300 M00/M04 A2989 RMK SC2AC1CI1CI0 SLP151

CYQR;2010-03-12 01:00;CYQR 120100Z 16006KT 15SM FEW020 FEW250 M02/M05 A2990 RMK SC1CI1 SLP153

CYQR;2010-03-12 02:00;CYQR 120200Z 17007KT 15SM FEW018 SCT250 M04/M06 A2990 RMK SC1CI1 SLP154

CYQR;2010-03-12 03:00;CYQR 120300Z 16009KT 15SM FEW018 M04/M07 A2990 RMK SC1 SLP156

CYQR;2010-03-12 04:00;CYQR 120400Z 17009KT 15SM SKC M05/M07 A2989 RMK SLP155

CYQR;2010-03-12 05:00;CYQR 120500Z 16010KT 15SM SKC M05/M07 A2989 RMK SLP153

CYQR;2010-03-12 06:00;CYQR 120600Z 16010KT 15SM SKC M06/M07 A2989 RMK SLP154

CYQR;2010-03-12 07:00;CYQR 120700Z 15010KT 15SM FEW250 M06/M08 A2989 RMK CI0 SLP153

CYQR;2010-03-12 08:00;CYQR 120800Z 15009KT 15SM SKC M07/M10 A2988 RMK SLP151

CYQR;2010-03-12 09:00;CYQR 120900Z 14011KT 15SM SKC M08/M11 A2987 RMK SLP150

CYQR;2010-03-12 10:00;CYQR 121000Z 13010KT 15SM SKC M08/M10 A2986 RMK SLP147

CYQR;2010-03-12 11:00;CYQR 121100Z 13011KT 15SM BKN250 M08/M11 A2986 RMK CI0 SLP145

CYQR;2010-03-12 12:00;CYQR 121200Z 14011KT 15SM BKN250 M08/M11 A2986 RMK CI2 SLP147

CYQR;2010-03-12 13:00;CYQR 121300Z 13011KT 15SM FEW090 BKN250 M08/M11 A2987 RMK AC2CI2 SLP148

CYQR;2010-03-12 14:00;CYQR 121400Z 14010KT 15SM SCT090 BKN250 M08/M11 A2987 RMK AC3CI3 SLP150

CYQR;2010-03-12 15:00;CYQR 121500Z 13010KT 15SM FEW090 OVC250 M07/M10 A2987 RMK AC2CI5 SLP152

CYQR;2010-03-12 16:00;CYQR 121600Z 13007KT 15SM FEW090 OVC250 M06/M09 A2989 RMK AC2CI4 SLP157

CYQR;2010-03-12 17:00;CYQR 121700Z 13006KT 15SM OVC250 M03/M07 A2991 RMK CI4 SLP164

CYQR;2010-03-12 18:00;CYQR 121800Z 16006KT 15SM BKN250 M02/M05 A2992 RMK CI2 SLP165

CYQR;2010-03-12 19:00;CYQR 121900Z 16006KT 15SM OVC250 00/M03 A2991 RMK CI2 SLP164

CYQR;2010-03-12 20:00;CYQR 122000Z 17005KT 15SM OVC250 01/M02 A2990 RMK CI2 SLP160

CYQR;2010-03-12 21:00;CYQR 122100Z 16005KT 15SM OVC250 01/M01 A2989 RMK CI2 SLP156

CYQR;2010-03-12 22:00;CYQR 122200Z 14006KT 15SM FEW100 OVC250 02/M02 A2988 RMK AC2CI2 SLP153

CYQR;2010-03-12 23:00;CYQR 122300Z 14008KT 15SM FEW100 OVC250 01/M02 A2988 RMK AC2CI5 SLP151

CYQR;2010-03-13 00:00;CYQR 130000Z 15010KT 15SM FEW100 OVC250 01/M02 A2987 RMK AC2CI5 SLP150

CYQR;2010-03-13 01:00;CYQR 130100Z 15009KT 15SM FEW100 BKN250 00/M03 A2987 RMK AC1CI2 SLP150

CYQR;2010-03-13 02:00;CYQR 130200Z 15009KT 15SM FEW095 BKN250 M00/M03 A2987 RMK AC1CI1 SLP150

CYQR;2010-03-13 03:00;CYQR 130300Z 14009KT 15SM FEW100 SCT250 M01/M03 A2986 RMK AC1CI1 SLP147

CYQR;2010-03-13 04:00;CYQR 130400Z 14010KT 15SM FEW100 SCT250 M02/M04 A2986 RMK AC1CI0 SLP144

CYQR;2010-03-13 05:00;CYQR 130500Z 13011KT 15SM SCT250 M02/M05 A2985 RMK CI1 SLP141

CYQR;2010-03-13 06:00;CYQR 130600Z 12011KT 15SM SCT250 M02/M05 A2983 RMK CI1 SLP133

CYQR;2010-03-13 07:00;CYQR 130700Z 14013KT 15SM SCT250 M03/M05 A2983 RMK CI0 SLP131

CYQR;2010-03-13 08:00;CYQR 130800Z 15013KT 15SM FEW250 M03/M06 A2982 RMK CI0 SLP130

CYQR;2010-03-13 09:00;CYQR 130900Z 13014KT 15SM SCT250 M04/M06 A2982 RMK CI1 SLP128

CYQR;2010-03-13 10:00;CYQR 131000Z 13013KT 15SM SCT250 M04/M07 A2980 RMK CI1 SLP122

CYQR;2010-03-13 11:00;CYQR 131100Z 13016KT 15SM SCT250 M04/M07 A2980 RMK CI1 SLP120

CYQR;2010-03-13 12:00;CYQR 131200Z 13016KT 15SM SCT250 M04/M07 A2980 RMK CI1 SLP121

CYQR;2010-03-13 13:00;CYQR 131300Z 14017KT 15SM FEW120 BKN250 M05/M08 A2981 RMK AC1CI5 SLP124

CYQR;2010-03-13 14:00;CYQR 131400Z 14019KT 15SM FEW120 BKN250 M04/M08 A2981 RMK AC1CI5 SLP125

CYQR;2010-03-13 15:00;CYQR 131500Z 14020KT 15SM SCT220 BKN260 M04/M07 A2981 RMK CI2CI2 SLP126

CYQR;2010-03-13 16:00;CYQR 131600Z 14020KT 15SM SCT220 BKN260 M03/M06 A2982 RMK CI2CI2 SLP128

CYQR;2010-03-13 17:00;CYQR 131700Z 14020KT 15SM FEW110 BKN260 M00/M04 A2983 RMK AC1CI1 SLP133

CYQR;2010-03-13 18:00;CYQR 131800Z 14018KT 15SM BKN260 00/M04 A2984 RMK CI2 SLP135

CYQR;2010-03-13 19:00;CYQR 131900Z 14018KT 15SM BKN260 02/M03 A2984 RMK CI2 SLP135

CYQR;2010-03-13 20:00;CYQR 132000Z 14020KT 15SM BKN260 02/M02 A2984 RMK CI2 SLP133

CYQR;2010-03-13 21:00;CYQR 132100Z 14022KT 15SM SCT230 BKN280 03/M02 A2984 RMK CI2CI2 SLP133

CYQR;2010-03-13 22:00;CYQR 132200Z 15017G25KT 15SM SCT230 BKN280 02/M02 A2985 RMK CI2CI2 SLP135

CYQR;2010-03-13 23:00;CYQR 132300Z 15016KT 15SM SCT230 BKN280 02/M02 A2986 RMK CI2CI2 SLP141

CYQR;2010-03-14 00:00;CYQR 140000Z 16015KT 15SM SCT230 BKN280 01/M02 A2990 RMK CI2CI2 SLP154

CYQR;2010-03-14 01:00;CYQR 140100Z 15011KT 15SM SCT230 BKN280 01/M02 A2992 RMK CI2CI2 SLP161

CYQR;2010-03-14 02:00;CYQR 140200Z 15012KT 15SM SCT230 BKN280 00/M02 A2994 RMK CI2CI2 SLP169

CYQR;2010-03-14 03:00;CYQR 140300Z 16012KT 10SM SCT230 BKN280 M00/M02 A2996 RMK CI2CI2 SLP175

CYQR;2010-03-14 04:00;CYQR 140400Z 16010KT 10SM SCT230 BKN280 00/M02 A2998 RMK CI2CI2 SLP182

CYQR;2010-03-14 05:00;CYQR 140500Z 16011KT 8SM OVC230 M00/M02 A2999 RMK CI6 SLP187

CYQR;2010-03-14 06:00;CYQR 140600Z 19007KT 8SM BKN230 M01/M03 A3001 RMK CI3 SLP193

CYQR;2010-03-14 07:00;CYQR 140700Z 27006KT 10SM BKN230 M02/M03 A3003 RMK CI3 SLP199

CYQR;2010-03-14 08:00;CYQR 140800Z 30006KT 4SM BR BKN230 M03/M04 A3006 RMK CI3 SLP209

CYQR;2010-03-14 09:00;CYQR 140900Z 00000KT 4SM BR BKN230 M03/M04 A3009 RMK CI3 SLP219

CYQR;2010-03-14 10:00;CYQR 141000Z 30006KT 4SM BR BKN230 M04/M05 A3011 RMK CI3 SLP227

CYQR;2010-03-14 11:00;CYQR 141100Z 32012KT 10SM SCT230 M04/M06 A3014 RMK CI2 SLP234

CYQR;2010-03-14 12:00;CYQR 141200Z 35011KT 10SM FEW082 SCT230 M03/M06 A3017 RMK AC1CI1 SLP247

CYQR;2010-03-14 13:00;CYQR 141300Z 34010KT 15SM FEW230 M04/M06 A3019 RMK CI0 SLP254

CYQR;2010-03-14 14:00;CYQR 141400Z 34009KT 15SM FEW230 M04/M07 A3022 RMK CI1 SLP265

CYQR;2010-03-14 15:00;CYQR 141500Z 35006KT 15SM FEW260 M04/M06 A3026 RMK CI1 SLP279

CYQR;2010-03-14 16:00;CYQR 141600Z 33011KT 15SM FEW020 SCT260 M02/M05 A3028 RMK CF1CI1 SLP287

CYQR;2010-03-14 17:00;CYQR 141700Z 34011KT 15SM SCT260 M01/M04 A3031 RMK CI1 SLP296

CYQR;2010-03-14 18:00;CYQR 141800Z 34014KT 15SM SCT260 00/M04 A3033 RMK CI1 SLP301

CYQR;2010-03-14 19:00;CYQR 141900Z 34014KT 15SM BKN260 01/M04 A3034 RMK CI1 SLP305

CYQR;2010-03-14 20:00;CYQR 142000Z 33012KT 15SM BKN260 01/M03 A3034 RMK CI2 SLP305

CYQR;2010-03-14 21:00;CYQR 142100Z 33015KT 15SM BKN260 01/M03 A3034 RMK CI2 SLP305

CYQR;2010-03-14 22:00;CYQR 142200Z 33015KT 15SM FEW140 SCT260 01/M03 A3034 RMK AC1CI1 SLP307

CYQR;2010-03-14 23:00;CYQR 142300Z 33014KT 15SM FEW140 SCT260 01/M03 A3035 RMK AC1CI1 SLP309

CYQR;2010-03-15 00:00;CYQR 150000Z 34010KT 15SM FEW140 FEW260 01/M03 A3037 RMK AC1CI1 SLP316

CYQR;2010-03-15 01:00;CYQR 150100Z 33010KT 15SM FEW260 M01/M04 A3039 RMK CI0 SLP322

CYQR;2010-03-15 02:00;CYQR 150200Z 35006KT 15SM FEW260 M03/M06 A3040 RMK CI0 SLP325

CYQR;2010-03-15 03:00;CYQR 150300Z 30008KT 15SM FEW260 M05/M07 A3041 RMK CI0 SLP335

CYQR;2010-03-15 04:00;CYQR 150400Z 32006KT 15SM FEW260 M06/M09 A3041 RMK CI0 SLP334

CYQR;2010-03-15 05:00;CYQR 150500Z 29002KT 15SM SKC M07/M10 A3041 RMK SLP334

CYQR;2010-03-15 06:00;CYQR 150600Z 29005KT 15SM SKC M08/M10 A3042 RMK SLP338

CYQR;2010-03-15 07:00;CYQR 150700Z 30003KT 15SM SKC M08/M11 A3042 RMK SLP337

CYQR;2010-03-15 08:00;CYQR 150800Z 30004KT 15SM SKC M08/M10 A3043 RMK SLP342

CYQR;2010-03-15 09:00;CYQR 150900Z 32003KT 15SM SKC M08/M10 A3043 RMK SLP340

CYQR;2010-03-15 10:00;CYQR 151000Z 00000KT 15SM SKC M10/M12 A3043 RMK SLP339

CYQR;2010-03-15 11:00;CYQR 151100Z 00000KT 15SM SKC M09/M11 A3043 RMK SLP339

CYQR;2010-03-15 11:15;CYQR 151115Z 28003KT 1 1/2SM R13/2000FT/N BR SKC M12/ RMK FG2 FG BNK W VIS 1/2

CYQR;2010-03-15 11:31;CYQR 151131Z 28005KT 3/4SM R13/3500FT/D BR SKC M12/ RMK FG3

CYQR;2010-03-15 11:47;CYQR 151147Z 30002KT 1/2SM R13/3500FT/U FZFG SKC M11/ RMK FG4

CYQR;2010-03-15 12:00;CYQR 151200Z 00000KT 3/4SM R13/2600VP6000FT/N BR SKC M11/M13 A3043 RMK FG3 SLP344

CYQR;2010-03-15 12:13;CYQR 151213Z 28004KT 1/8SM R13/1600V2600FT/D FZFG SKC M11/ RMK FG6

CYQR;2010-03-15 13:00;CYQR 151300Z 29003KT 1/2SM R13/2400FT/N FZFG BKN260 M12/M14 A3045 RMK FG6CI0 SLP348

CYQR;2010-03-15 13:05;CYQR 151305Z 32002KT 3/4SM R13/3000FT/N BR SCT260 M12/ RMK FG3CI0

CYQR;2010-03-15 13:42;CYQR 151342Z 06003KT 1 1/2SM R13/4500VP6000FT/D BR FEW260 M11/ RMK FG1CI0

CYQR;2010-03-15 13:55;CYQR 151355Z 03002KT 8SM R13/3000VP6000FT/U FEW001 FEW260 M10/ RMK SF1CI0

CYQR;2010-03-15 14:00;CYQR 151400Z 00000KT 8SM FEW001 FEW260 M10/M12 A3044 RMK SF1CI0 SLP345

CYQR;2010-03-15 15:00;CYQR 151500Z 00000KT 3SM BR SKC M09/M11 A3044 RMK FG1 SLP349

CYQR;2010-03-15 16:00;CYQR 151600Z 00000KT 8SM FEW001 FEW260 M08/M10 A3045 RMK SF1CI1 SLP352

CYQR;2010-03-15 17:00;CYQR 151700Z 19005KT 10SM FEW005 FEW260 M04/M05 A3044 RMK SF1CI0 SLP350

CYQR;2010-03-15 18:00;CYQR 151800Z 18006KT 15SM FEW260 M02/M06 A3045 RMK CI1 SLP348

CYQR;2010-03-15 19:00;CYQR 151900Z 17007KT 15SM BKN260 M01/M05 A3044 RMK CI2 SLP346

CYQR;2010-03-15 20:00;CYQR 152000Z 16005KT 15SM SCT260 01/M05 A3043 RMK CI1 SLP344

CYQR;2010-03-15 21:00;CYQR 152100Z 17007KT 15SM BKN260 01/M04 A3042 RMK CI2 SLP338

CYQR;2010-03-15 22:00;CYQR 152200Z 17008KT 15SM BKN260 01/M05 A3042 RMK CI2 SLP336

CYQR;2010-03-15 23:00;CYQR 152300Z 14010KT 15SM BKN240 00/M05 A3041 RMK CI2 SLP333

CYQR;2010-03-16 00:00;CYQR 160000Z 14009KT 15SM BKN240 M00/M05 A3041 RMK CI2 SLP336

CYQR;2010-03-16 01:00;CYQR 160100Z 13009KT 15SM SCT090 BKN250 M01/M04 A3041 RMK AC3CI2 SLP336

CYQR;2010-03-16 02:00;CYQR 160200Z 13010KT 15SM FEW100 BKN250 M01/M04 A3040 RMK AC2CI4 SLP332

CYQR;2010-03-16 03:00;CYQR 160300Z 14009KT 15SM BKN220 M01/M04 A3040 RMK CI5 SLP334

CYQR;2010-03-16 04:00;CYQR 160400Z 15010KT 15SM BKN220 M01/M04 A3040 RMK CI6 SLP332

CYQR;2010-03-16 05:00;CYQR 160500Z 16012KT 15SM BKN220 M01/M04 A3038 RMK CI6 SLP326

CYQR;2010-03-16 06:00;CYQR 160600Z 16010KT 15SM BKN250 M01/M04 A3037 RMK CI5 SLP317

CYQR;2010-03-16 07:00;CYQR 160700Z 14008KT 15SM BKN250 M02/M05 A3037 RMK CI3 SLP318

CYQR;2010-03-16 08:00;CYQR 160800Z 13007KT 15SM BKN220 M02/M04 A3038 RMK CI3 SLP319

CYQR;2010-03-16 09:00;CYQR 160900Z 14008KT 15SM SCT250 M03/M05 A3036 RMK CI2 SLP314

CYQR;2010-03-16 10:00;CYQR 161000Z 14009KT 15SM FEW250 M03/M06 A3034 RMK CI1 SLP307

CYQR;2010-03-16 11:00;CYQR 161100Z 13009KT 15SM FEW250 M04/M06 A3034 RMK CI0 SLP307

CYQR;2010-03-16 12:00;CYQR 161200Z 13010KT 15SM FEW250 M04/M06 A3035 RMK CI0 SLP311

CYQR;2010-03-16 13:00;CYQR 161300Z 14012KT 15SM FEW220 M04/M07 A3034 RMK CI0 SLP307

CYQR;2010-03-16 14:00;CYQR 161400Z 14011KT 15SM FEW220 M05/M08 A3034 RMK CI1 SLP307

CYQR;2010-03-16 15:00;CYQR 161500Z 15011KT 15SM FEW220 M04/M07 A3033 RMK CI0 SLP304

CYQR;2010-03-16 16:00;CYQR 161600Z 14010KT 15SM FEW220 M03/M06 A3031 RMK CI0 SLP298

CYQR;2010-03-16 17:00;CYQR 161700Z 13010KT 15SM FEW220 M01/M04 A3029 RMK CI1 SLP293

CYQR;2010-03-16 18:00;CYQR 161800Z 14011KT 15SM SCT220 01/M02 A3027 RMK CI1 SLP282

CYQR;2010-03-16 19:00;CYQR 161900Z 14012KT 15SM BKN220 02/M01 A3026 RMK CI2 SLP279

CYQR;2010-03-16 20:00;CYQR 162000Z 14012KT 15SM BKN250 03/M00 A3024 RMK CI1 SLP272

CYQR;2010-03-16 21:00;CYQR 162100Z 15010KT 15SM BKN250 03/00 A3023 RMK CI0 SLP265

CYQR;2010-03-16 22:00;CYQR 162200Z 16011KT 15SM BKN250 03/01 A3021 RMK CI1 SLP261

CYQR;2010-03-16 23:00;CYQR 162300Z 16010KT 15SM BKN250 03/00 A3021 RMK CI2 SLP259

CYQR;2010-03-17 00:00;CYQR 170000Z 15008KT 15SM BKN250 BKN280 03/00 A3019 RMK CI1CI1 SLP255

CYQR;2010-03-17 01:00;CYQR 170100Z 14011KT 15SM FEW100 BKN260 02/M00 A3017 RMK AC1CI2 SLP248

CYQR;2010-03-17 02:00;CYQR 170200Z 15010KT 15SM FEW100 BKN260 02/M01 A3015 RMK AC2CI2 SLP241

CYQR;2010-03-17 03:00;CYQR 170300Z 14012KT 15SM BKN260 01/M01 A3013 RMK CI3 SLP235

CYQR;2010-03-17 04:00;CYQR 170400Z 16011KT 15SM BKN260 01/M01 A3011 RMK CI3 SLP229

CYQR;2010-03-17 05:00;CYQR 170500Z 15012KT 15SM OVC260 01/M01 A3009 RMK CI6 SLP222

CYQR;2010-03-17 06:00;CYQR 170600Z 13011KT 15SM FEW260 00/M02 A3006 RMK CI1 SLP209

CYQR;2010-03-17 07:00;CYQR 170700Z 13011KT 15SM SKC M00/M02 A3004 RMK SLP202

CYQR;2010-03-17 08:00;CYQR 170800Z 13011KT 15SM SKC M01/M03 A3002 RMK SLP194

CYQR;2010-03-17 09:00;CYQR 170900Z 13013KT 15SM SCT260 M01/M03 A2999 RMK CI0 SLP182

CYQR;2010-03-17 10:00;CYQR 171000Z 13011KT 15SM BKN260 M01/M03 A2996 RMK CI2 SLP174

CYQR;2010-03-17 11:00;CYQR 171100Z 15008KT 15SM BKN260 M01/M03 A2995 RMK CI3 SLP169

CYQR;2010-03-17 12:00;CYQR 171200Z 15006KT 15SM BKN260 M01/M03 A2992 RMK CI2 SLP160

CYQR;2010-03-17 13:00;CYQR 171300Z 14009KT 15SM BKN260 M01/M03 A2991 RMK CI2 SLP155

CYQR;2010-03-17 14:00;CYQR 171400Z 17007KT 15SM SCT120 BKN260 01/M02 A2990 RMK AC4CI2 SLP152

CYQR;2010-03-17 15:00;CYQR 171500Z 25010KT 15SM FEW120 BKN250 03/M00 A2989 RMK AC1CI4 SLP146

CYQR;2010-03-17 16:00;CYQR 171600Z 25005KT 15SM FEW120 BKN250 03/00 A2989 RMK AC1CI4 SLP147

CYQR;2010-03-17 17:00;CYQR 171700Z 28009KT 15SM FEW120 OVC250 04/01 A2989 RMK AC2CI4 SLP146

CYQR;2010-03-17 18:00;CYQR 171800Z 24004KT 15SM FEW140 BKN250 05/01 A2989 RMK AC2CI3 SLP146

CYQR;2010-03-17 19:00;CYQR 171900Z 28006KT 15SM SCT160 BKN250 06/02 A2988 RMK AC3CI2 SLP143

CYQR;2010-03-17 20:00;CYQR 172000Z 26010KT 15SM FEW160 BKN250 06/02 A2986 RMK AC2CI1 SLP137

CYQR;2010-03-17 21:00;CYQR 172100Z 27007KT 15SM FEW250 09/03 A2985 RMK CI0 SLP130

CYQR;2010-03-17 22:00;CYQR 172200Z 27016KT 15SM FEW025 FEW250 07/02 A2984 RMK CF1CI0 SLP128

CYQR;2010-03-17 23:00;CYQR 172300Z 30020KT 15SM FEW250 06/01 A2986 RMK CI1 SLP132

CYQR;2010-03-18 00:00;CYQR 180000Z 30010G15KT 15SM FEW073 SCT093 BKN250 05/01 A2987 RMK AC2AC2CI2 SLP140

CYQR;2010-03-18 01:00;CYQR 180100Z 29005KT 15SM FEW093 BKN250 03/M00 A2987 RMK AC1CI5 SLP140

CYQR;2010-03-18 02:00;CYQR 180200Z 28008KT 15SM BKN250 03/M01 A2988 RMK CI2 SLP142

CYQR;2010-03-18 03:00;CYQR 180300Z 29016G24KT 15SM FEW250 03/M00 A2990 RMK CI0 SLP147

CYQR;2010-03-18 04:00;CYQR 180400Z 29015KT 15SM SKC 02/M01 A2990 RMK SLP149

CYQR;2010-03-18 05:00;CYQR 180500Z 26011KT 15SM SKC 01/M01 A2990 RMK SLP148

CYQR;2010-03-18 06:00;CYQR 180600Z 25012KT 15SM SKC 01/M02 A2988 RMK SLP141

CYQR;2010-03-18 07:00;CYQR 180700Z 27012KT 15SM SKC 01/M02 A2987 RMK SLP139

CYQR;2010-03-18 08:00;CYQR 180800Z 28015KT 15SM FEW030 01/M02 A2986 RMK SC1 SLP135

CYQR;2010-03-18 09:00;CYQR 180900Z 28019KT 15SM FEW030 02/M03 A2986 RMK SC1 SLP132

CYQR;2010-03-18 10:00;CYQR 181000Z 30024KT 15SM BKN026 OVC045 02/M02 A2985 RMK SC5SC3 SLP130

CYQR;2010-03-18 11:00;CYQR 181100Z 30025G31KT 15SM BKN024 OVC045 02/M02 A2985 RMK SC6SC2 SLP129

CYQR;2010-03-18 12:00;CYQR 181200Z 30031G36KT 15SM BKN021 01/M03 A2986 RMK SC7 SLP134

CYQR;2010-03-18 13:00;CYQR 181300Z 32030G36KT 15SM BKN023 OVC080 00/M05 A2987 RMK SC6AC2 SLP139

CYQR;2010-03-18 14:00;CYQR 181400Z 32025G31KT 15SM BKN020 BKN080 M01/M05 A2991 RMK SC6AC1 SLP151

CYQR;2010-03-18 15:00;CYQR 181500Z 32029KT 15SM BKN017 OVC080 M02/M06 A2993 RMK SC7AC1 SLP163

CYQR;2010-03-18 15:12;CYQR 181512Z 33027KT 10SM -SN DRSN BKN017 OVC080 M02/ RMK SC7AC1

CYQR;2010-03-18 16:00;CYQR 181600Z CCA 34023G28KT 10SM -SN DRSN OVC015 M02/M06 A2998 RMK SC8 SLP177

CYQR;2010-03-18 17:00;CYQR 181700Z 35022KT 12SM -SN DRSN BKN014 M03/M07 A3001 RMK SC7 SLP188

CYQR;2010-03-18 18:00;CYQR 181800Z 34020G27KT 10SM -SN DRSN OVC019 M03/M07 A3002 RMK SC8 SLP195

CYQR;2010-03-18 19:00;CYQR 181900Z 33025G32KT 10SM -SN OVC014 M02/M07 A3003 RMK SC8 SLP200

CYQR;2010-03-18 20:00;CYQR 182000Z 34029KT 8SM -SN DRSN BKN016 OVC033 M03/M07 A3005 RMK SC7SC1 SLP206

CYQR;2010-03-18 21:00;CYQR 182100Z 34022G29KT 12SM -SN DRSN BKN016 OVC065 M03/M07 A3006 RMK SC7SC1 SLP211

CYQR;2010-03-18 22:00;CYQR 182200Z 34023KT 12SM -SN OVC016 M03/M06 A3009 RMK SC8 SLP219

CYQR;2010-03-18 23:00;CYQR 182300Z 35019G27KT 10SM -SN DRSN OVC017 M03/M08 A3012 RMK SC8 SLP228

CYQR;2010-03-19 00:00;CYQR 190000Z 35019G26KT 15SM BKN019 OVC065 M04/M09 A3015 RMK SC7SC1 SLP242

CYQR;2010-03-19 01:00;CYQR 190100Z 36019G24KT 15SM BKN019 OVC065 M04/M10 A3017 RMK SC7SC1 SLP249

CYQR;2010-03-19 02:00;CYQR 190200Z 35016KT 15SM -SN OVC021 M04/M09 A3021 RMK SC8 SLP260

CYQR;2010-03-19 02:35;CYQR 190235Z 01015G24KT 15SM FEW018 M05/ RMK SC2

CYQR;2010-03-19 02:51;CYQR 190251Z 36016KT 15SM -SN SCT018 M05/ RMK SC3

CYQR;2010-03-19 03:00;CYQR 190300Z 36014KT 15SM -SN SCT018 M05/M10 A3023 RMK SC2 SLP273

CYQR;2010-03-19 03:19;CYQR 190319Z 36012KT 15SM BKN018 M05/ RMK SC6

CYQR;2010-03-19 04:00;CYQR 190400Z 36013KT 15SM -SN FEW016 OVC025 M05/M10 A3025 RMK SC1SC8 SLP279

CYQR;2010-03-19 05:00;CYQR 190500Z 01008KT 15SM -SN OVC019 M05/M09 A3026 RMK SC8 SLP283

CYQR;2010-03-19 06:00;CYQR 190600Z 02014KT 15SM -SN OVC015 M05/M11 A3028 RMK SC8 SLP290

CYQR;2010-03-19 07:00;CYQR 190700Z 34010KT 2 1/2SM -SN SCT013 OVC019 M05/M08 A3030 RMK SC3SC5 SLP296

CYQR;2010-03-19 07:12;CYQR 190712Z 34012KT 2SM -SN OVC013 M05/ RMK SC8

CYQR;2010-03-19 07:36;CYQR 190736Z 35012KT 4SM -SN OVC013 M05/ RMK SC8

CYQR;2010-03-19 08:00;CYQR 190800Z 33013KT 6SM -SN SCT010 OVC015 M06/M08 A3031 RMK SC3SC5 SLP299

CYQR;2010-03-19 09:00;CYQR 190900Z 01011KT 3SM -SN BKN012 OVC028 M06/M10 A3032 RMK SC5SC3 VIS VRB 2-4 SLP304

CYQR;2010-03-19 09:39;CYQR 190939Z 35008KT 6SM -SN SCT012 OVC020 M06/ RMK SC3SC5

CYQR;2010-03-19 10:00;CYQR 191000Z 02006KT 10SM -SN BKN022 M06/M10 A3031 RMK SC6 SLP300

CYQR;2010-03-19 11:00;CYQR 191100Z 36005KT 10SM -SN BKN017 OVC037 M07/M10 A3031 RMK SC6SC2 SLP301

CYQR;2010-03-19 11:26;CYQR 191126Z 34005KT 15SM FEW012 OVC037 M07/ RMK SC1SC8

CYQR;2010-03-19 12:00;CYQR 191200Z 32007KT 15SM -SN FEW012 OVC037 M07/M10 A3033 RMK SC1SC8 SLP310

CYQR;2010-03-19 13:00;CYQR 191300Z 32007KT 12SM -SN FEW016 BKN043 M06/M10 A3034 RMK SC2SC6 SLP313

CYQR;2010-03-19 14:00;CYQR 191400Z 31006KT 15SM FEW010 BKN045 BKN250 M06/M10 A3034 RMK SF1SC7CI1 SLP313

CYQR;2010-03-19 15:00;CYQR 191500Z 31007KT 10SM SCT008 BKN034 BKN250 M06/M09 A3035 RMK SF2SC2CI0 SLP315

CYQR;2010-03-19 16:00;CYQR 191600Z 30008KT 10SM SCT004 BKN016 BKN250 M05/M09 A3035 RMK SC3SC2CI0 SLP317

CYQR;2010-03-19 16:33;CYQR 191633Z 30008KT 8SM -SN BKN016 BKN080 BKN250 M05/ RMK SC6AC1CI1

CYQR;2010-03-19 17:00;CYQR 191700Z 28006KT 8SM -SN OVC019 M05/M09 A3035 RMK SC8 SLP318

CYQR;2010-03-19 18:00;CYQR 191800Z 31008KT 8SM -SN BKN015 OVC250 M04/M08 A3035 RMK SC7CI0 SLP315

CYQR;2010-03-19 19:00;CYQR 191900Z 32010KT 15SM FEW008 BKN013 M03/M08 A3035 RMK SF1SC7 SLP315

CYQR;2010-03-19 19:03;CYQR 191903Z 32010KT 8SM -SHSN FEW008 BKN013 M04/ RMK SF1SC7 CVCTV CLD EMBD

CYQR;2010-03-19 20:00;CYQR 192000Z 34011KT 8SM -SHSN FEW008 BKN021 M04/M09 A3034 RMK SF1SC7 SLP312

CYQR;2010-03-19 21:00;CYQR 192100Z 34013KT 14SM -SHSN FEW008 BKN024 M04/M10 A3034 RMK SF1SC7 SLP313

CYQR;2010-03-19 22:00;CYQR 192200Z 32013KT 15SM BKN026 BKN080 M04/M10 A3034 RMK SC6AC1 SLP311

CYQR;2010-03-19 22:17;CYQR 192217Z 30012KT 11SM -SHSN BKN022 M04/ RMK SC7

CYQR;2010-03-19 23:00;CYQR 192300Z 32011KT 13SM -SHSN BKN021 M04/M09 A3033 RMK SC7 SLP309

CYQR;2010-03-20 00:00;CYQR 200000Z 30014KT 15SM -SHSN BKN026 M04/M10 A3033 RMK SC7 SLP310

CYQR;2010-03-20 01:00;CYQR 200100Z 30011KT 15SM SCT027 BKN080 M05/M10 A3032 RMK SC3AC1 SLP307

CYQR;2010-03-20 02:00;CYQR 200200Z CCA 26004KT 15SM -SN BKN033 M05/M10 A3030 RMK SC7 SLP301

CYQR;2010-03-20 03:00;CYQR 200300Z 21006KT 15SM -SN SCT035 BKN250 M07/M10 A3029 RMK SC3CI1 SLP297

CYQR;2010-03-20 03:15;CYQR 200315Z 22007KT 15SM SCT035 BKN250 M07/ RMK SC4CI0

CYQR;2010-03-20 04:00;CYQR 200400Z 22008KT 15SM FEW039 M09/M12 A3027 RMK SC2 SLP290

CYQR;2010-03-20 05:00;CYQR 200500Z 21009KT 15SM SKC M09/M12 A3026 RMK SLP286

CYQR;2010-03-20 06:00;CYQR 200600Z 21010KT 15SM SKC M09/M12 A3024 RMK SLP278

CYQR;2010-03-20 07:00;CYQR 200700Z 21010KT 15SM SKC M10/M13 A3021 RMK SLP271

CYQR;2010-03-20 08:00;CYQR 200800Z 22008KT 15SM SKC M09/M12 A3020 RMK SLP265

CYQR;2010-03-20 09:00;CYQR 200900Z 23009KT 15SM SKC M09/M12 A3017 RMK SLP257

CYQR;2010-03-20 10:00;CYQR 201000Z 22009KT 15SM SKC M09/M12 A3014 RMK SLP247

CYQR;2010-03-20 11:00;CYQR 201100Z 23008KT 15SM SKC M10/M13 A3013 RMK FROIN SLP242

CYQR;2010-03-20 12:00;CYQR 201200Z 23007KT 15SM FEW250 M10/M13 A3010 RMK CI1 SLP234

CYQR;2010-03-20 13:00;CYQR 201300Z 25013KT 15SM SCT250 M08/M10 A3009 RMK CI2 SLP229

CYQR;2010-03-20 14:00;CYQR 201400Z 24009KT 15SM BKN250 M07/M10 A3007 RMK CI4 SLP224

CYQR;2010-03-20 15:00;CYQR 201500Z 24008KT 15SM SCT087 BKN250 M05/M08 A3006 RMK AC3CI2 SLP216

CYQR;2010-03-20 16:00;CYQR 201600Z 22010KT 15SM BKN150 BKN250 M03/M06 A3003 RMK AC2CI1 SLP208

CYQR;2010-03-20 17:00;CYQR 201700Z 22013KT 15SM FEW120 FEW150 BKN270 M00/M04 A3001 RMK AC2AC1CI0 CONTRAILS SLP200

CYQR;2010-03-20 18:00;CYQR 201800Z 23014KT 15SM FEW120 BKN270 02/M03 A2998 RMK AC2CI0 SLP186

CYQR;2010-03-20 19:00;CYQR 201900Z 23012KT 15SM BKN270 03/M02 A2995 RMK CI1 SLP176

CYQR;2010-03-20 20:00;CYQR 202000Z 22010KT 15SM BKN270 04/M01 A2992 RMK CI1 SLP168

CYQR;2010-03-20 21:00;CYQR 202100Z 24013KT 15SM BKN270 04/M00 A2991 RMK CI1 SLP159

CYQR;2010-03-20 22:00;CYQR 202200Z 25015KT 15SM BKN270 04/M01 A2989 RMK CI2 SLP155

CYQR;2010-03-20 23:00;CYQR 202300Z 25011KT 15SM BKN270 04/00 A2988 RMK CI2 SLP151

CYQR;2010-03-21 00:00;CYQR 210000Z 26010KT 15SM BKN270 BKN300 03/M00 A2988 RMK CI3CC1 SLP150

CYQR;2010-03-21 01:00;CYQR 210100Z 25010KT 15SM BKN270 BKN300 03/M01 A2987 RMK CI2CI0 SLP148

CYQR;2010-03-21 02:00;CYQR 210200Z 24005KT 15SM BKN270 02/M02 A2987 RMK CI1 SLP148

CYQR;2010-03-21 03:00;CYQR 210300Z 25006KT 15SM BKN270 01/M02 A2987 RMK CI1 SLP146

CYQR;2010-03-21 04:00;CYQR 210400Z 25008KT 15SM BKN270 01/M02 A2986 RMK CI1 SLP143

CYQR;2010-03-21 05:00;CYQR 210500Z 28005KT 15SM BKN270 00/M02 A2986 RMK CI1 SLP142

CYQR;2010-03-21 06:00;CYQR 210600Z 26003KT 15SM BKN270 01/M02 A2985 RMK CI1 SLP135

CYQR;2010-03-21 07:00;CYQR 210700Z 29004KT 15SM BKN260 M01/M03 A2985 RMK CI2 SLP135

CYQR;2010-03-21 08:00;CYQR 210800Z 24006KT 15SM BKN260 M02/M04 A2984 RMK CI2 SLP132

CYQR;2010-03-21 09:00;CYQR 210900Z 21006KT 15SM BKN260 M02/M05 A2984 RMK CI2 SLP132

CYQR;2010-03-21 10:00;CYQR 211000Z 13004KT 15SM BKN260 M02/M04 A2984 RMK CI2 SLP130

CYQR;2010-03-21 11:00;CYQR 211100Z 11006KT 15SM FEW094 BKN260 M03/M05 A2982 RMK AC2CI2 SLP126

CYQR;2010-03-21 12:00;CYQR 211200Z 11007KT 15SM FEW095 BKN260 M03/M06 A2981 RMK AC2CI2 SLP124

CYQR;2010-03-21 13:00;CYQR 211300Z 13007KT 15SM FEW095 OVC260 M02/M05 A2981 RMK AC1CI2 SLP124

CYQR;2010-03-21 14:00;CYQR 211400Z 13007KT 15SM SCT140 OVC260 M02/M05 A2981 RMK AC4CI2 SLP122

CYQR;2010-03-21 15:00;CYQR 211500Z 13011KT 15SM FEW140 OVC260 M01/M05 A2979 RMK AC2CI2 SLP115

CYQR;2010-03-21 16:00;CYQR 211600Z 14010KT 15SM FEW160 OVC260 00/M04 A2979 RMK AC2CI6 SLP114

CYQR;2010-03-21 17:00;CYQR 211700Z 13010KT 15SM FEW048 SCT097 BKN160 OVC260 02/M02 A2978 RMK SC1AC2AC2CI2 SLP112

CYQR;2010-03-21 18:00;CYQR 211800Z 12012KT 15SM FEW100 BKN160 OVC260 03/M01 A2976 RMK AC1AS6CI2 SLP101

CYQR;2010-03-21 19:00;CYQR 211900Z 13016KT 15SM FEW100 SCT160 OVC260 03/M01 A2973 RMK AC1AS3CI1 SLP094

CYQR;2010-03-21 20:00;CYQR 212000Z 13013KT 15SM FEW100 SCT160 BKN260 04/M01 A2973 RMK AC1AS3CI2 SLP093

CYQR;2010-03-21 21:00;CYQR 212100Z 12015KT 15SM FEW160 OVC260 05/00 A2971 RMK AC1CI2 SLP087

CYQR;2010-03-21 22:00;CYQR 212200Z 12014KT 15SM FEW160 BKN270 05/01 A2969 RMK AC1CI2 SLP081

CYQR;2010-03-21 23:00;CYQR 212300Z 12015KT 15SM FEW160 BKN270 05/01 A2968 RMK AS1CI1 SLP078

CYQR;2010-03-22 00:00;CYQR 220000Z 11014KT 15SM FEW160 BKN270 04/00 A2968 RMK AS1CI2 SLP076

CYQR;2010-03-22 01:00;CYQR 220100Z 09011KT 15SM BKN140 BKN270 03/M01 A2968 RMK AC2CI2 SLP076

CYQR;2010-03-22 02:00;CYQR 220200Z 09014KT 15SM FEW088 BKN140 BKN270 02/M01 A2968 RMK AC1AC2CI2 SLP076

CYQR;2010-03-22 03:00;CYQR 220300Z 10016KT 15SM FEW090 SCT140 BKN270 01/M01 A2969 RMK AC1AC2CI2 SLP082

CYQR;2010-03-22 04:00;CYQR 220400Z 10015KT 15SM SCT082 BKN280 01/M02 A2969 RMK AC3CI2 SLP080

CYQR;2010-03-22 05:00;CYQR 220500Z 09013KT 15SM FEW085 BKN280 01/M02 A2969 RMK AC2CI2 SLP080

CYQR;2010-03-22 06:00;CYQR 220600Z 09013KT 15SM FEW085 BKN280 00/M02 A2969 RMK AC2CI2 SLP078

CYQR;2010-03-22 07:00;CYQR 220700Z 09012KT 15SM SCT008 BKN085 OVC260 M00/M02 A2969 RMK SF3AC2CI1 SLP080

CYQR;2010-03-22 07:30;CYQR 220730Z 09010KT 15SM BKN007 OVC090 M00/ RMK SF5AC2

CYQR;2010-03-22 08:00;CYQR 220800Z 08012KT 15SM BKN007 OVC090 M00/M02 A2970 RMK SF6AC2 SLP083

CYQR;2010-03-22 09:00;CYQR 220900Z 09011KT 15SM BKN006 OVC090 M00/M02 A2971 RMK SF6AC2 SLP087

CYQR;2010-03-22 10:00;CYQR 221000Z 09010KT 15SM BKN006 OVC090 M01/M03 A2971 RMK SF5AC3 SLP084

CYQR;2010-03-22 11:00;CYQR 221100Z 08008KT 15SM BKN008 OVC090 M01/M04 A2972 RMK SF6AC2 SLP088

CYQR;2010-03-22 12:00;CYQR 221200Z 08006KT 15SM BKN008 OVC090 M01/M04 A2974 RMK SF6AC2 SLP096

CYQR;2010-03-22 13:00;CYQR 221300Z 08005KT 15SM OVC008 M01/M05 A2976 RMK SC8 SLP101

CYQR;2010-03-22 13:28;CYQR 221328Z 06003KT 15SM OVC010 M02/ RMK SC8

CYQR;2010-03-22 14:00;CYQR 221400Z 05006KT 15SM OVC010 M02/M05 A2977 RMK SC8 SLP105

CYQR;2010-03-22 15:00;CYQR 221500Z 05004KT 15SM OVC014 M01/M05 A2978 RMK SC8 SLP111

CYQR;2010-03-22 16:00;CYQR 221600Z 34007KT 15SM OVC012 M01/M04 A2979 RMK SC8 SLP116

CYQR;2010-03-22 17:00;CYQR 221700Z 34007KT 15SM OVC012 M01/M04 A2981 RMK SC8 SLP120

CYQR;2010-03-22 18:00;CYQR 221800Z 01011KT 15SM OVC012 M00/M04 A2981 RMK SC8 SLP124

CYQR;2010-03-22 19:00;CYQR 221900Z 34013KT 15SM OVC014 M00/M04 A2983 RMK SC8 SLP128

CYQR;2010-03-22 20:00;CYQR 222000Z 34014KT 15SM OVC014 00/M03 A2984 RMK SC8 SLP133

CYQR;2010-03-22 21:00;CYQR 222100Z 34009KT 15SM BKN014 01/M03 A2984 RMK SC7 SLP133

CYQR;2010-03-22 22:00;CYQR 222200Z 33013G18KT 15SM BKN016 01/M03 A2986 RMK SC7 SLP138

CYQR;2010-03-22 22:37;CYQR 222237Z 35014KT 15SM OVC014 01/ RMK SC8

CYQR;2010-03-22 23:00;CYQR 222300Z 34015KT 15SM OVC014 01/M03 A2989 RMK SC8 SLP147

CYQR;2010-03-23 00:00;CYQR 230000Z 35013KT 15SM OVC014 01/M03 A2991 RMK SC8 SLP156

CYQR;2010-03-23 00:12;CYQR 230012Z 35010KT 15SM OVC016 01/ RMK SC8

CYQR;2010-03-23 01:00;CYQR 230100Z 35007KT 12SM OVC020 01/M02 A2993 RMK SC8 SLP162

CYQR;2010-03-23 02:00;CYQR 230200Z 33005KT 15SM OVC024 01/M02 A2995 RMK SC8 SLP170

CYQR;2010-03-23 03:00;CYQR 230300Z 33008KT 15SM OVC024 01/M02 A2998 RMK SC8 SLP182

CYQR;2010-03-23 04:00;CYQR 230400Z 33007KT 15SM OVC024 01/M02 A3000 RMK SC8 SLP186

CYQR;2010-03-23 05:00;CYQR 230500Z 34005KT 15SM OVC024 00/M02 A3002 RMK SC8 SLP193

CYQR;2010-03-23 05:38;CYQR 230538Z 01012KT 15SM OVC013 00/ RMK SC8

CYQR;2010-03-23 05:54;CYQR 230554Z 36011KT 15SM SCT008 BKN019 BKN030 M00/ RMK SF3SC2SC1

CYQR;2010-03-23 06:00;CYQR 230600Z 01012KT 15SM SCT008 BKN019 BKN030 M00/M03 A3004 RMK SF3SC2SC1 SLP202

CYQR;2010-03-23 07:00;CYQR 230700Z 01009KT 15SM SCT018 M01/M05 A3006 RMK SC4 SLP210

CYQR;2010-03-23 08:00;CYQR 230800Z 36006KT 15SM FEW030 M03/M06 A3008 RMK SC2 SLP216

CYQR;2010-03-23 09:00;CYQR 230900Z 35007KT 15SM FEW040 M04/M06 A3010 RMK SC2 SLP224

CYQR;2010-03-23 10:00;CYQR 231000Z 36006KT 15SM FEW040 M04/M07 A3012 RMK SC2 SLP230

CYQR;2010-03-23 11:00;CYQR 231100Z 36006KT 15SM SCT250 M05/M08 A3013 RMK CI1 SLP235

CYQR;2010-03-23 12:00;CYQR 231200Z 36005KT 15SM SCT250 M06/M08 A3016 RMK CI1 SLP247

CYQR;2010-03-23 13:00;CYQR 231300Z 02004KT 15SM FEW250 M06/M08 A3018 RMK CI1 SLP252

CYQR;2010-03-23 14:00;CYQR 231400Z 04003KT 15SM FEW250 M05/M08 A3019 RMK CI1 SLP256

CYQR;2010-03-23 15:00;CYQR 231500Z CCA 13004KT 15SM SCT250 M04/M09 A3019 RMK CI1 CONTRAILS SLP255

CYQR;2010-03-23 16:00;CYQR 231600Z 16003KT 15SM BKN250 M03/M08 A3020 RMK CI1 SLP257

CYQR;2010-03-23 17:00;CYQR 231700Z 18007KT 15SM BKN250 M03/M08 A3020 RMK CI1 SLP259

CYQR;2010-03-23 18:00;CYQR 231800Z 18003KT 15SM FEW063 OVC230 M02/M07 A3020 RMK SC1CI6 SLP258

CYQR;2010-03-23 19:00;CYQR 231900Z 19007KT 15SM FEW020 BKN210 M01/M06 A3020 RMK CF1CI2 SLP258

CYQR;2010-03-23 20:00;CYQR 232000Z 17007KT 15SM FEW020 BKN220 M00/M05 A3018 RMK SC1CI1 SLP253

CYQR;2010-03-23 21:00;CYQR 232100Z 17009KT 15SM FEW020 BKN220 01/M04 A3016 RMK SC1CI1 SLP244

CYQR;2010-03-23 22:00;CYQR 232200Z 18011KT 15SM FEW020 FEW066 BKN220 02/M03 A3014 RMK CF1AC1CI4 SLP239

CYQR;2010-03-23 23:00;CYQR 232300Z 16007KT 15SM FEW020 FEW066 OVC220 02/M02 A3013 RMK CF1AC2CI4 SLP235

CYQR;2010-03-24 00:00;CYQR 240000Z 15007KT 15SM FEW020 SCT070 OVC220 03/M01 A3011 RMK SC1AC3CI3 SLP229

CYQR;2010-03-24 01:00;CYQR 240100Z 15007KT 15SM SCT066 BKN140 OVC220 03/M01 A3010 RMK AC3AS2CI1 SLP223

CYQR;2010-03-24 02:00;CYQR 240200Z 20006KT 15SM FEW046 FEW068 BKN230 02/M01 A3010 RMK SC1AC1CI3 SLP223

CYQR;2010-03-24 03:00;CYQR 240300Z 22008KT 15SM SCT046 BKN079 BKN240 02/M01 A3010 RMK SC3AC2CI1 SLP222

CYQR;2010-03-24 04:00;CYQR 240400Z 24007KT 15SM BKN053 BKN074 00/M02 A3010 RMK SC5AC2 SLP223

CYQR;2010-03-24 04:13;CYQR 240413Z 29006KT 10SM -SHGS BKN030 BKN071 RMK SC5AC2 CVCTV CLD ASOCTD

CYQR;2010-03-24 04:30;CYQR 240430Z 25006KT 15SM BKN030 BKN240 01/ RMK SC5CI1

CYQR;2010-03-24 05:00;CYQR 240500Z 24008KT 15SM SCT032 BKN240 M00/M02 A3009 RMK SC3CI2 SLP220

CYQR;2010-03-24 06:00;CYQR 240600Z 27010KT 15SM FEW035 BKN240 00/M02 A3009 RMK SC1CI2 SLP220

CYQR;2010-03-24 07:00;CYQR 240700Z 28011KT 15SM BKN240 M00/M02 A3009 RMK CI2 SLP221

CYQR;2010-03-24 08:00;CYQR 240800Z 31010KT 15SM BKN240 M01/M03 A3010 RMK CI2 SLP222

CYQR;2010-03-24 08:11;CYQR 240811Z 34016KT 15SM SCT003 BKN240 M01/ RMK SF0CI2

CYQR;2010-03-24 08:17;CYQR 240817Z 33018KT 3SM BR OVC002 M02/ RMK SF4

CYQR;2010-03-24 08:24;CYQR 240824Z 34015KT 1/2SM R13/4000VP6000FT/D FZFG VV001 M02/ RMK FG8

CYQR;2010-03-24 08:53;CYQR 240853Z 34014KT 3/4SM R13/P6000FT/D BR VV001 M03/ RMK FG8

CYQR;2010-03-24 09:00;CYQR 240900Z 34015KT 1/2SM R13/5000FT/D FZFG VV001 M03/M05 A3011 RMK FG8 SLP228

CYQR;2010-03-24 09:36;CYQR 240936Z 34015KT 3/4SM R13/P6000FT/U BR VV002 M03/ RMK FG8

CYQR;2010-03-24 09:44;CYQR 240944Z 34015KT 1SM R13/P6000FT/U BR VV003 M03/ RMK FG8

CYQR;2010-03-24 10:00;CYQR 241000Z 35013KT 1SM R13/P6000FT/D BR VV003 M03/M05 A3011 RMK FG8 SLP226

CYQR;2010-03-24 10:28;CYQR 241028Z 34012KT 2SM BR OVC004 M03/ RMK FG3SF5

CYQR;2010-03-24 10:42;CYQR 241042Z 33014KT 3SM BR OVC004 M03/ RMK FG2SF6

CYQR;2010-03-24 11:00;CYQR 241100Z 34012KT 6SM BR OVC005 M03/M05 A3014 RMK SF8 SLP235

CYQR;2010-03-24 11:35;CYQR 241135Z 35014KT 10SM OVC006 M04/ RMK SF8

CYQR;2010-03-24 12:00;CYQR 241200Z 35014KT 15SM OVC007 M04/M06 A3015 RMK SF8 SLP240

CYQR;2010-03-24 13:00;CYQR 241300Z 35012G17KT 15SM BKN009 OVC060 M04/M07 A3015 RMK SF7SC1 SLP242

CYQR;2010-03-24 13:19;CYQR 241319Z 35011KT 15SM BKN011 OVC060 M04/ RMK SF6SC2

CYQR;2010-03-24 13:45;CYQR 241345Z 35010KT 15SM FEW011 FEW060 OVC250 M04/ RMK SC2SC1CI1

CYQR;2010-03-24 14:00;CYQR 241400Z 34012KT 15SM FEW010 SCT068 BKN250 M04/M07 A3017 RMK SC2AC2CI1 SLP248

CYQR;2010-03-24 15:00;CYQR 241500Z 36014KT 15SM FEW014 SCT070 BKN250 M04/M08 A3018 RMK SF1AC3CI1 SLP252

CYQR;2010-03-24 16:00;CYQR 241600Z 02015KT 15SM -SN BKN015 OVC065 M04/M08 A3021 RMK SC7SC1 SLP260

CYQR;2010-03-24 17:00;CYQR 241700Z 03017G22KT 15SM -SN BKN015 OVC036 M04/M09 A3022 RMK SC6SC2 SLP264

CYQR;2010-03-24 17:50;CYQR 241750Z 02018G26KT 15SM -SN BKN010 OVC036 M05/ RMK SC6SC2

CYQR;2010-03-24 18:00;CYQR 241800Z 03019KT 15SM -SN BKN010 OVC036 M05/M11 A3024 RMK SC6SC2 SLP272

CYQR;2010-03-24 18:21;CYQR 241821Z 03016G21KT 15SM -SN SCT010 BKN018 OVC033 M05/ RMK SF3SC3SC2

CYQR;2010-03-24 19:00;CYQR 241900Z 02017KT 12SM -SN OVC016 M06/M11 A3026 RMK SC8 SLP279

CYQR;2010-03-24 20:00;CYQR 242000Z 04014KT 12SM -SN SCT014 OVC050 M06/M12 A3027 RMK SC4SC4 SLP284

CYQR;2010-03-24 21:00;CYQR 242100Z 03011G19KT 15SM SCT021 OVC053 M07/M13 A3027 RMK SC4SC4 SLP288

CYQR;2010-03-24 22:00;CYQR 242200Z 04013KT 15SM FEW020 OVC055 M07/M16 A3029 RMK SF1SC7 SLP293

CYQR;2010-03-24 23:00;CYQR 242300Z 05013KT 15SM FEW020 SCT048 BKN250 M08/M17 A3030 RMK SF1SC3CI1 SLP297

CYQR;2010-03-25 00:00;CYQR 250000Z 05012KT 15SM FEW020 FEW050 BKN250 M08/M17 A3030 RMK SC1SC1CI2 SLP300

CYQR;2010-03-25 01:00;CYQR 250100Z 04013KT 15SM FEW060 SCT086 BKN250 M09/M19 A3031 RMK SC2AC2CI0 SLP302

CYQR;2010-03-25 02:00;CYQR 250200Z 04010KT 15SM BKN060 BKN084 M09/M19 A3031 RMK SC5AC1 SLP303

CYQR;2010-03-25 03:00;CYQR 250300Z 07008KT 15SM SCT060 M10/M18 A3031 RMK SC3 SLP306

CYQR;2010-03-25 04:00;CYQR 250400Z 07008KT 15SM FEW060 M10/M17 A3032 RMK SC1 SLP307

CYQR;2010-03-25 05:00;CYQR 250500Z 07007KT 15SM SKC M11/M17 A3030 RMK SLP302

CYQR;2010-03-25 06:00;CYQR 250600Z 08009KT 15SM SKC M12/M17 A3030 RMK SLP303

CYQR;2010-03-25 07:00;CYQR 250700Z 09010KT 15SM SKC M12/M17 A3028 RMK SLP298

CYQR;2010-03-25 08:00;CYQR 250800Z 09009KT 15SM SKC M12/M17 A3026 RMK SLP291

CYQR;2010-03-25 09:00;CYQR 250900Z 11013KT 15SM FEW150 M13/M17 A3025 RMK AC1 SLP286

CYQR;2010-03-25 10:00;CYQR 251000Z 12010KT 15SM FEW150 FEW240 M12/M17 A3022 RMK AC1CI0 SLP279

CYQR;2010-03-25 11:00;CYQR 251100Z 12012KT 15SM FEW150 FEW240 M12/M17 A3021 RMK AC1CI0 SLP274

CYQR;2010-03-25 12:00;CYQR 251200Z 12013KT 15SM BKN089 M12/M16 A3018 RMK AC7 SLP264

CYQR;2010-03-25 13:00;CYQR 251300Z 13012KT 15SM FEW030 SCT070 BKN240 M11/M15 A3015 RMK SC1AC2CI0 SLP254

CYQR;2010-03-25 14:00;CYQR 251400Z 13011KT 15SM FEW020 FEW080 SCT250 M10/M14 A3012 RMK SC1AC1CI0 SLP246

CYQR;2010-03-25 15:00;CYQR 251500Z 14015KT 15SM BKN014 M08/M12 A3010 RMK SC6 SLP236

CYQR;2010-03-25 15:08;CYQR 251508Z 14014KT 10SM -SN DRSN OVC014 M08/ RMK SC8

CYQR;2010-03-25 16:00;CYQR 251600Z 16021KT 10SM -SN OVC012 M07/M11 A3008 RMK SC8 SLP228

CYQR;2010-03-25 17:00;CYQR 251700Z 16017G27KT 15SM -SN OVC016 M06/M11 A3006 RMK SC8 SLP223

CYQR;2010-03-25 18:00;CYQR 251800Z 15019G26KT 15SM OVC020 M06/M12 A3003 RMK SC8 SLP210

CYQR;2010-03-25 19:00;CYQR 251900Z 16021G28KT 15SM OVC020 M06/M12 A2999 RMK SC8 SLP198

CYQR;2010-03-25 20:00;CYQR 252000Z 16022G27KT 15SM OVC020 M05/M11 A2996 RMK SC8 SLP190

CYQR;2010-03-25 21:00;CYQR 252100Z 15020G25KT 15SM BKN018 OVC065 M04/M10 A2992 RMK SC7SC1 SLP172

CYQR;2010-03-25 22:00;CYQR 252200Z 16020G26KT 15SM OVC018 M03/M08 A2990 RMK SC8 SLP164

CYQR;2010-03-25 23:00;CYQR 252300Z 16017G24KT 15SM OVC020 M03/M07 A2986 RMK SC8 SLP153

CYQR;2010-03-26 00:00;CYQR 260000Z 15016G22KT 15SM OVC020 M02/M07 A2983 RMK SC8 SLP138

CYQR;2010-03-26 01:00;CYQR 260100Z 15016KT 15SM BKN020 OVC090 M02/M06 A2980 RMK SC7AC1 SLP128

CYQR;2010-03-26 02:00;CYQR 260200Z 15018KT 15SM FEW020 FEW090 FEW300 M03/M06 A2977 RMK SC1AC1CI0 SLP119

CYQR;2010-03-26 02:22;CYQR 260222Z 17020G26KT 15SM OVC014 M03/ RMK SC8

CYQR;2010-03-26 03:00;CYQR 260300Z 16019G24KT 12SM OVC012 M03/M06 A2976 RMK SC8 SLP115

CYQR;2010-03-26 04:00;CYQR 260400Z 16021KT 7SM OVC012 M03/M06 A2975 RMK SC8 SLP109

CYQR;2010-03-26 05:00;CYQR 260500Z 16019G25KT 7SM OVC010 M03/M06 A2972 RMK SC8 SLP102

CYQR;2010-03-26 05:30;CYQR 260530Z 16015G24KT 9SM OVC009 M03/ RMK SC8

CYQR;2010-03-26 06:00;CYQR 260600Z 17013G21KT 10SM OVC008 M03/M06 A2971 RMK SC8 SLP093

CYQR;2010-03-26 07:00;CYQR 260700Z 16020KT 12SM OVC008 M03/M06 A2968 RMK ST8 SLP086

CYQR;2010-03-26 08:00;CYQR 260800Z 17019G24KT 15SM OVC007 M04/M06 A2966 RMK ST8 SLP080

CYQR;2010-03-26 09:00;CYQR 260900Z 17016KT 15SM OVC007 M03/M06 A2965 RMK ST8 SLP071

CYQR;2010-03-26 09:38;CYQR 260938Z 17012G17KT 15SM -SN OVC007 M03/ RMK ST8

CYQR;2010-03-26 10:00;CYQR 261000Z 17012KT 15SM OVC007 M03/M05 A2962 RMK ST8 SLP063

CYQR;2010-03-26 11:00;CYQR 261100Z 15012KT 12SM OVC007 M04/M07 A2960 RMK ST8 SLP057

CYQR;2010-03-26 12:00;CYQR 261200Z 14011KT 12SM OVC006 M04/M06 A2960 RMK ST8 SLP054

CYQR;2010-03-26 12:19;CYQR 261219Z 15010KT 7SM OVC005 M04/ RMK ST8

CYQR;2010-03-26 13:00;CYQR 261300Z 15013KT 8SM OVC004 M05/M07 A2959 RMK ST8 BR SLP051

CYQR;2010-03-26 13:33;CYQR 261333Z 15010KT 8SM OVC005 M05/ RMK ST8 BR

CYQR;2010-03-26 14:00;CYQR 261400Z 14010KT 8SM OVC005 M05/M07 A2959 RMK SC8 BR SLP051

CYQR;2010-03-26 15:00;CYQR 261500Z 14010KT 8SM OVC004 M05/M06 A2958 RMK SC8 BR SLP050

CYQR;2010-03-26 16:00;CYQR 261600Z 14008KT 8SM OVC004 M04/M06 A2959 RMK SC8 BR SLP052

CYQR;2010-03-26 17:00;CYQR 261700Z 13006KT 6SM BR OVC004 M03/M05 A2960 RMK SC8 SLP054

CYQR;2010-03-26 18:00;CYQR 261800Z CCA 00000KT 6SM BR OVC003 M02/M04 A2961 RMK SC8 SLP056

CYQR;2010-03-26 19:00;CYQR 261900Z 02004KT 6SM BR OVC005 M02/M04 A2961 RMK SC8 SLP058

CYQR;2010-03-26 19:03;CYQR 261903Z 35002KT 6SM BR OVC006 M02/ RMK SC8

CYQR;2010-03-26 20:00;CYQR 262000Z 03007KT 12SM OVC008 M01/M04 A2962 RMK SC8 SLP062

CYQR;2010-03-26 20:36;CYQR 262036Z 03006KT 12SM OVC010 M01/ RMK SC8

CYQR;2010-03-26 21:00;CYQR 262100Z 04007KT 12SM OVC012 M00/M04 A2964 RMK SC8 SLP065

CYQR;2010-03-26 22:00;CYQR 262200Z 36010KT 12SM SCT014 BKN047 OVC250 00/M04 A2966 RMK SC3SC2CI1 SLP073

CYQR;2010-03-26 23:00;CYQR 262300Z 36012KT 12SM FEW020 OVC250 01/M04 A2970 RMK SC1CI2 SLP085

CYQR;2010-03-27 00:00;CYQR 270000Z 01013KT 15SM SCT017 BKN090 OVC250 M00/M04 A2973 RMK SC3AC2CI2 SLP099

CYQR;2010-03-27 01:00;CYQR 270100Z 36014KT 12SM BKN015 OVC086 M01/M04 A2977 RMK SC6AC2 SLP110

CYQR;2010-03-27 02:00;CYQR 270200Z 01014KT 12SM OVC015 M01/M05 A2981 RMK SC8 SLP123

CYQR;2010-03-27 02:41;CYQR 270241Z 02011KT 10SM OVC013 M01/ RMK SC8

CYQR;2010-03-27 03:00;CYQR 270300Z 02009KT 9SM OVC013 M02/M05 A2985 RMK SC8 SLP140

CYQR;2010-03-27 04:00;CYQR 270400Z 04013KT 10SM OVC011 M03/M06 A2988 RMK SC8 SLP151

CYQR;2010-03-27 05:00;CYQR 270500Z 02010KT 12SM OVC013 M03/M06 A2991 RMK SC8 SLP160

CYQR;2010-03-27 05:27;CYQR 270527Z 03013KT 12SM OVC015 M02/ RMK SC8

CYQR;2010-03-27 06:00;CYQR 270600Z 04009KT 15SM OVC015 M02/M06 A2993 RMK SC8 SLP168

CYQR;2010-03-27 07:00;CYQR 270700Z 01005KT 12SM OVC013 M02/M05 A2996 RMK SC8 SLP175

CYQR;2010-03-27 08:00;CYQR 270800Z 36008KT 15SM OVC013 M02/M05 A2998 RMK SC8 SLP182

CYQR;2010-03-27 09:00;CYQR 270900Z 36007KT 15SM OVC013 M02/M05 A2999 RMK SC8 SLP184

CYQR;2010-03-27 10:00;CYQR 271000Z 33006KT 12SM OVC011 M02/M05 A3001 RMK SC8 SLP191

CYQR;2010-03-27 11:00;CYQR 271100Z 34007KT 12SM OVC010 M02/M05 A3002 RMK SC8 SLP196

CYQR;2010-03-27 12:00;CYQR 271200Z 30006KT 12SM OVC009 M02/M04 A3005 RMK SC8 SLP205

CYQR;2010-03-27 13:00;CYQR 271300Z 30007KT 12SM OVC009 M02/M04 A3006 RMK SC8 SLP210

CYQR;2010-03-27 14:00;CYQR 271400Z 30007KT 12SM OVC007 M02/M04 A3007 RMK SC8 SLP214

CYQR;2010-03-27 15:00;CYQR 271500Z 28006KT 10SM OVC007 M01/M03 A3009 RMK SC8 SLP221

CYQR;2010-03-27 16:00;CYQR 271600Z 23008KT 12SM OVC008 M01/M03 A3009 RMK SC8 SLP220

CYQR;2010-03-27 17:00;CYQR 271700Z 24010KT 12SM OVC007 M01/M03 A3009 RMK SC8 SLP221

CYQR;2010-03-27 18:00;CYQR 271800Z 21015KT 12SM OVC008 M00/M02 A3007 RMK SC8 SLP214

CYQR;2010-03-27 19:00;CYQR 271900Z 23011KT 12SM OVC009 01/M01 A3007 RMK SC8 SLP213

CYQR;2010-03-27 19:49;CYQR 271949Z 21009KT 15SM BKN010 OVC100 03/ RMK SC6AC2

CYQR;2010-03-27 20:00;CYQR 272000Z 21007KT 15SM SCT012 BKN100 OVC250 03/M00 A3005 RMK SC3AC2CS2 SLP206

CYQR;2010-03-27 21:00;CYQR 272100Z 19006KT 15SM FEW012 BKN087 OVC250 04/00 A3003 RMK SC2AC3CS3 SLP197

CYQR;2010-03-27 22:00;CYQR 272200Z 18004KT 15SM BKN077 BKN150 BKN260 04/01 A3003 RMK AC5ACC1CI2 SLP196

CYQR;2010-03-27 23:00;CYQR 272300Z 14005KT 15SM FEW080 FEW150 BKN270 05/01 A3001 RMK AC2ACC1CI5 SLP192

CYQR;2010-03-28 00:00;CYQR 280000Z 13006KT 15SM FEW150 OVC270 04/01 A3000 RMK AC2CI5 CC ASOCTD SLP188

CYQR;2010-03-28 01:00;CYQR 280100Z 13006KT 15SM FEW150 OVC270 02/M00 A3000 RMK AC1CI3 SLP187

CYQR;2010-03-28 02:00;CYQR 280200Z 16006KT 15SM FEW270 01/M01 A3001 RMK CI1 SLP189

CYQR;2010-03-28 03:00;CYQR 280300Z 18006KT 15SM FEW270 00/M01 A3002 RMK CI0 SLP195

CYQR;2010-03-28 04:00;CYQR 280400Z 18004KT 15SM FEW270 M00/M02 A3001 RMK CI0 SLP193

CYQR;2010-03-28 05:00;CYQR 280500Z 18004KT 15SM SKC M01/M03 A3001 RMK SLP193

CYQR;2010-03-28 06:00;CYQR 280600Z 15003KT 15SM FEW080 M01/M03 A3001 RMK AC2 SLP193

CYQR;2010-03-28 07:00;CYQR 280700Z 11004KT 15SM SKC M02/M04 A3000 RMK SLP190

CYQR;2010-03-28 08:00;CYQR 280800Z 10006KT 12SM SKC M02/M04 A2999 RMK SLP185

CYQR;2010-03-28 09:00;CYQR 280900Z 12006KT 15SM SKC M02/M04 A2997 RMK SLP178

CYQR;2010-03-28 10:00;CYQR 281000Z 12004KT 12SM FEW350 M02/M04 A2997 RMK CI0 SLP176

CYQR;2010-03-28 11:00;CYQR 281100Z 14006KT 12SM FEW350 M03/M04 A2995 RMK CI0 SLP170

CYQR;2010-03-28 12:00;CYQR 281200Z 13006KT 12SM FEW350 M03/M05 A2994 RMK CI0 SLP166

CYQR;2010-03-28 13:00;CYQR 281300Z 12007KT 12SM BKN350 M03/M05 A2993 RMK CI1 SLP163

CYQR;2010-03-28 14:00;CYQR 281400Z 12007KT 15SM BKN300 M01/M03 A2991 RMK CI1 SLP158

CYQR;2010-03-28 15:00;CYQR 281500Z 14005KT 15SM BKN300 02/M01 A2991 RMK CI3 SLP154

CYQR;2010-03-28 16:00;CYQR 281600Z 15006KT 15SM BKN300 04/M00 A2989 RMK CI2 SLP148

CYQR;2010-03-28 17:00;CYQR 281700Z 15008KT 15SM BKN300 06/01 A2987 RMK CI6 SLP144

CYQR;2010-03-28 18:00;CYQR 281800Z 16009KT 15SM OVC300 07/02 A2986 RMK CI7 SLP134

CYQR;2010-03-28 19:00;CYQR 281900Z 17009KT 15SM BKN300 08/03 A2982 RMK CI6 SLP123

CYQR;2010-03-28 20:00;CYQR 282000Z 18010KT 15SM OVC300 10/05 A2979 RMK CI6 SLP114

CYQR;2010-03-28 21:00;CYQR 282100Z 18009KT 15SM BKN300 10/05 A2976 RMK CI6 SLP098

CYQR;2010-03-28 22:00;CYQR 282200Z 17010KT 15SM BKN300 12/05 A2972 RMK CI5 SLP086

CYQR;2010-03-28 23:00;CYQR 282300Z 17009KT 15SM BKN300 10/04 A2969 RMK CI6 SLP077

CYQR;2010-03-29 00:00;CYQR 290000Z 19010KT 15SM FEW200 BKN300 07/02 A2966 RMK CI2CI5 SLP066

CYQR;2010-03-29 01:00;CYQR 290100Z 18010KT 15SM FEW200 OVC300 06/01 A2963 RMK CI2CI3 SLP059

CYQR;2010-03-29 02:00;CYQR 290200Z 19011KT 15SM FEW085 BKN200 OVC300 04/M00 A2960 RMK AC2CI3CI2 SLP049

CYQR;2010-03-29 03:00;CYQR 290300Z 18010KT 15SM FEW085 BKN200 OVC300 04/M00 A2959 RMK AC2CI4CI2 SLP041

CYQR;2010-03-29 04:00;CYQR 290400Z 19012KT 15SM FEW085 BKN200 OVC300 05/M00 A2956 RMK AC1CI5CI2 SLP034

CYQR;2010-03-29 05:00;CYQR 290500Z 21014KT 15SM FEW150 SCT210 OVC300 04/M00 A2955 RMK AC2CI2CI2 SLP030

CYQR;2010-03-29 06:00;CYQR 290600Z 22012KT 15SM FEW150 FEW210 FEW300 03/M01 A2956 RMK AC1CI1CI0 SLP028

CYQR;2010-03-29 07:00;CYQR 290700Z 21013KT 15SM BKN150 03/M02 A2955 RMK AC6 SLP026

CYQR;2010-03-29 08:00;CYQR 290800Z 21014KT 15SM SCT150 BKN300 03/M02 A2952 RMK AC3CI2 SLP018

CYQR;2010-03-29 09:00;CYQR 290900Z 24014KT 15SM FEW150 SCT300 04/M01 A2950 RMK AC1CI1 SLP005

CYQR;2010-03-29 10:00;CYQR 291000Z 24015KT 15SM OVC300 03/M01 A2947 RMK CI6 SLP997

CYQR;2010-03-29 11:00;CYQR 291100Z 25015KT 15SM SCT090 BKN150 OVC300 03/M01 A2948 RMK AC3AC2CI2 SLP999

CYQR;2010-03-29 12:00;CYQR 291200Z 24012KT 15SM SCT120 02/M01 A2947 RMK AC4 SLP000

CYQR;2010-03-29 13:00;CYQR 291300Z 24011KT 15SM FEW092 FEW300 02/M02 A2947 RMK AC2CI0 SLP000

CYQR;2010-03-29 14:00;CYQR 291400Z 23012KT 15SM FEW092 FEW300 03/M01 A2947 RMK AC1CI0 SLP998

CYQR;2010-03-29 15:00;CYQR 291500Z 24009KT 15SM FEW300 05/01 A2946 RMK CI1 SLP996

CYQR;2010-03-29 16:00;CYQR 291600Z 23010KT 15SM BKN300 07/02 A2945 RMK CI1 SLP992

CYQR;2010-03-29 17:00;CYQR 291700Z 20009KT 15SM BKN300 08/03 A2942 RMK CI5 SLP984

CYQR;2010-03-29 18:00;CYQR 291800Z 21011KT 15SM FEW070 BKN300 09/04 A2940 RMK AC1CI6 SLP972

CYQR;2010-03-29 19:00;CYQR 291900Z 19009KT 15SM FEW072 SCT300 11/06 A2936 RMK AC1CI2 SLP962

CYQR;2010-03-29 20:00;CYQR 292000Z 17012KT 15SM BKN065 BKN150 BKN300 14/06 A2931 RMK AC5AC1CI1 SLP945

CYQR;2010-03-29 21:00;CYQR 292100Z 21007KT 15SM FEW028 FEW070 FEW150 BKN320 15/08 A2928 RMK CF1AC1AC1CI1 SLP929

CYQR;2010-03-29 22:00;CYQR 292200Z 20009KT 15SM FEW028 FEW150 BKN300 14/07 A2925 RMK CU1AC2CI3 SLP918

CYQR;2010-03-29 23:00;CYQR 292300Z 21011KT 15SM FEW028 BKN150 BKN300 12/06 A2923 RMK CU1AC5CI2 SLP912

CYQR;2010-03-30 00:00;CYQR 300000Z 19007KT 15SM FEW025 BKN110 BKN300 10/05 A2922 RMK CU1AC6CI1 VIRGA SLP910

CYQR;2010-03-30 01:00;CYQR 300100Z 21009KT 15SM FEW025 BKN100 BKN140 BKN300 09/05 A2921 RMK CU1AC2ACC1CI1 ACC AND VIRGA S SLP906

CYQR;2010-03-30 02:00;CYQR 300200Z 19010KT 15SM FEW025 SCT084 BKN140 BKN300 06/03 A2919 RMK CU1AC2AC2CI0 SLP900

CYQR;2010-03-30 03:00;CYQR 300300Z 17011KT 15SM FEW025 SCT085 BKN140 06/02 A2917 RMK SC1AC2AC2 SLP896

CYQR;2010-03-30 04:00;CYQR 300400Z 19012KT 15SM SCT085 BKN140 05/02 A2916 RMK AC3AC2 SLP892

CYQR;2010-03-30 05:00;CYQR 300500Z 20012KT 15SM SCT088 BKN097 06/02 A2916 RMK AC4AC3 SLP891

CYQR;2010-03-30 06:00;CYQR 300600Z 23010KT 15SM SCT081 BKN097 06/02 A2916 RMK AC4AC3 SLP890

CYQR;2010-03-30 07:00;CYQR 300700Z 23006KT 15SM SCT086 BKN095 06/01 A2914 RMK AC4AC3 SLP881

CYQR;2010-03-30 08:00;CYQR 300800Z 20011KT 15SM SCT088 BKN095 05/01 A2915 RMK AC4AC3 SLP884

CYQR;2010-03-30 09:00;CYQR 300900Z 23008KT 15SM BKN094 04/01 A2914 RMK AC7 SLP880

CYQR;2010-03-30 10:00;CYQR 301000Z 27008KT 15SM OVC088 05/01 A2914 RMK AC8 SLP879

CYQR;2010-03-30 10:29;CYQR 301029Z 25014KT 10SM -SHRA SCT034 OVC088 06/ RMK SC4AC4

CYQR;2010-03-30 11:00;CYQR 301100Z 29021KT 10SM -SHRA OVC029 09/02 A2919 RMK SC8 SLP895

CYQR;2010-03-30 12:00;CYQR 301200Z 20003G16KT 10SM -SHRA OVC029 07/01 A2916 RMK SC8 SLP889

CYQR;2010-03-30 12:12;CYQR 301212Z 15011KT 15SM OVC031 08/ RMK SC8

CYQR;2010-03-30 13:00;CYQR 301300Z 15008KT 15SM FEW049 BKN069 06/03 A2917 RMK SC2AC5 SLP891

CYQR;2010-03-30 14:00;CYQR 301400Z 30005KT 15SM FEW049 OVC083 05/02 A2919 RMK SC2AC6 ACC ASOCTD VIRGA SLP897

CYQR;2010-03-30 15:00;CYQR 301500Z 19005KT 15SM FEW047 BKN065 OVC300 05/03 A2919 RMK SC2SC6CI1 SLP900

CYQR;2010-03-30 16:00;CYQR 301600Z 19015KT 15SM FEW050 BKN093 BKN260 07/05 A2919 RMK SC2AC4CI1 SLP902

CYQR;2010-03-30 17:00;CYQR 301700Z 22009KT 15SM FEW016 FEW072 SCT093 BKN240 BKN300 10/06 A2918 RMK CU1AC1AC2CI2CI1 SLP897

CYQR;2010-03-30 18:00;CYQR 301800Z 27013KT 15SM FEW040 FEW100 BKN300 11/00 A2919 RMK CU1AC1CI3 SLP898

CYQR;2010-03-30 19:00;CYQR 301900Z 25014KT 15SM FEW044 FEW100 FEW240 BKN300 11/00 A2919 RMK CU1AC1CI2CI3 SLP897

CYQR;2010-03-30 20:00;CYQR 302000Z 25009G17KT 15SM FEW045 FEW091 BKN240 BKN300 12/01 A2917 RMK CU1AC1CI2CI1 SLP892

CYQR;2010-03-30 21:00;CYQR 302100Z 24016KT 15SM FEW040 BKN240 BKN300 12/02 A2917 RMK CU2CI2CI1 SLP892

CYQR;2010-03-30 22:00;CYQR 302200Z 25016G21KT 15SM FEW044 BKN240 BKN300 12/01 A2916 RMK CU1CI2CI2 SLP890

CYQR;2010-03-30 23:00;CYQR 302300Z 26012KT 15SM FEW040 SCT064 BKN300 13/02 A2917 RMK CU1SC2CI2 SLP892

CYQR;2010-03-31 00:00;CYQR 310000Z 27011KT 15SM FEW040 SCT068 BKN300 11/02 A2918 RMK CU1AC2CI2 TCU AND ACC ASOCTD SLP894

CYQR;2010-03-31 01:00;CYQR 310100Z 26006KT 15SM FEW078 BKN230 BKN300 09/02 A2919 RMK AC2CI2CI1 SLP896

CYQR;2010-03-31 02:00;CYQR 310200Z 25008KT 15SM FEW078 SCT230 04/M01 A2920 RMK AC2CI1 SLP905

CYQR;2010-03-31 03:00;CYQR 310300Z 24008KT 15SM FEW078 SCT230 03/M01 A2920 RMK AC2CI1 SLP906

CYQR;2010-03-31 04:00;CYQR 310400Z 22011KT 15SM FEW078 SCT230 02/M02 A2924 RMK AC2CI1 SLP918

CYQR;2010-03-31 05:00;CYQR 310500Z 24011KT 15SM FEW230 03/M03 A2924 RMK CI0 SLP920

CYQR;2010-03-31 06:00;CYQR 310600Z 24012KT 15SM FEW230 03/M03 A2927 RMK CI0 SLP928

CYQR;2010-03-31 07:00;CYQR 310700Z 24009KT 15SM FEW230 01/M04 A2927 RMK CI0 SLP928

CYQR;2010-03-31 08:00;CYQR 310800Z 26012KT 15SM FEW230 01/M04 A2928 RMK CI1 SLP932

CYQR;2010-03-31 09:00;CYQR 310900Z 25010KT 15SM FEW230 00/M04 A2929 RMK CI1 SLP936

CYQR;2010-03-31 10:00;CYQR 311000Z 25009KT 15SM FEW070 FEW230 M00/M05 A2931 RMK AC1CI1 SLP943

CYQR;2010-03-31 11:00;CYQR 311100Z 26008KT 15SM FEW070 FEW230 M00/M05 A2933 RMK AC1CI1 SLP948

CYQR;2010-03-31 12:00;CYQR 311200Z 26008KT 15SM FEW070 FEW230 M01/M05 A2936 RMK AC1CI1 SLP959

CYQR;2010-03-31 13:00;CYQR 311300Z 23013KT 15SM FEW230 M00/M05 A2939 RMK CI1 SLP971

CYQR;2010-03-31 14:00;CYQR 311400Z 27014KT 15SM FEW260 01/M04 A2941 RMK CI0 SLP978

CYQR;2010-03-31 15:00;CYQR 311500Z CCA 26015KT 15SM FEW280 03/M03 A2944 RMK CI1 SLP991

CYQR;2010-03-31 16:00;CYQR 311600Z 28017KT 15SM FEW280 05/M03 A2946 RMK CI0 SLP997

CYQR;2010-03-31 17:00;CYQR 311700Z 27018G25KT 15SM FEW270 08/M01 A2949 RMK CI0 SLP006

CYQR;2010-03-31 18:00;CYQR 311800Z 28022G27KT 15SM FEW040 FEW280 10/M01 A2949 RMK CF1CI1 SLP005

CYQR;2010-03-31 19:00;CYQR 311900Z 28024KT 15SM FEW052 FEW290 11/M02 A2950 RMK CF1CI1 SLP006

CYQR;2010-03-31 20:00;CYQR 312000Z 28023G28KT 15SM FEW060 SCT290 12/M03 A2951 RMK CU1CI0 SLP010

CYQR;2010-03-31 21:00;CYQR 312100Z 29023G33KT 15SM FEW060 SCT290 12/M04 A2952 RMK CU1CI0 SLP014

CYQR;2010-03-31 22:00;CYQR 312200Z 29022G28KT 15SM FEW060 FEW290 12/M04 A2953 RMK CU1CI1 SLP018

CYQR;2010-03-31 23:00;CYQR 312300Z 30018G27KT 15SM FEW066 FEW290 12/M05 A2954 RMK CU1CI1 SLP022

CYQR;2010-04-01 01:00;CYQR 010100Z 27007KT 15SM FEW044 FEW080 FEW290 09/M02 A2959 RMK CU1AC1CI0 SLP038

CYQR;2010-04-01 02:00;CYQR 010200Z 25010KT 15SM FEW030 FEW080 FEW290 03/M03 A2961 RMK CU1AC1CI0 SLP045

CYQR;2010-04-01 03:00;CYQR 010300Z 24007KT 15SM SKC 02/M03 A2964 RMK SLP059

CYQR;2010-04-01 04:00;CYQR 010400Z 25008KT 15SM SKC 01/M04 A2964 RMK SLP061

CYQR;2010-04-01 05:00;CYQR 010500Z 25007KT 15SM SKC 01/M05 A2965 RMK SLP062

CYQR;2010-04-01 06:00;CYQR 010600Z 25006KT 15SM SKC 00/M05 A2964 RMK SLP058

CYQR;2010-04-01 07:00;CYQR 010700Z 23005KT 15SM SKC M01/M05 A2966 RMK SLP065

CYQR;2010-04-01 08:00;CYQR 010800Z 24004KT 15SM FEW090 M01/M05 A2968 RMK AC1 SLP071

CYQR;2010-04-01 09:00;CYQR 010900Z 26004KT 15SM FEW090 M01/M06 A2968 RMK AC1 SLP071

CYQR;2010-04-01 10:00;CYQR 011000Z 34004KT 15SM FEW090 M02/M06 A2967 RMK AC1 SLP068

CYQR;2010-04-01 11:00;CYQR 011100Z 33007KT 15SM FEW090 M02/M06 A2966 RMK AC1 SLP064

CYQR;2010-04-01 12:00;CYQR 011200Z 13002KT 15SM FEW090 M02/M06 A2969 RMK AC1 SLP075

CYQR;2010-04-01 13:00;CYQR 011300Z 16008KT 15SM BKN080 M02/M05 A2972 RMK AC2 SLP084

CYQR;2010-04-01 14:00;CYQR 011400Z 00000KT 15SM SCT085 BKN250 M01/M04 A2971 RMK AC2CI0 SLP083

CYQR;2010-04-01 15:00;CYQR 011500Z 36002KT 15SM SCT087 BKN250 00/M03 A2971 RMK AC2CI0 SLP086

CYQR;2010-04-01 16:00;CYQR 011600Z 34005KT 15SM FEW090 BKN250 04/M04 A2971 RMK AC1CI0 SLP088

CYQR;2010-04-01 17:00;CYQR 011700Z 17002KT 15SM FEW080 OVC250 08/M04 A2973 RMK AC2CI1 SLP094

CYQR;2010-04-01 18:00;CYQR 011800Z 00000KT 15SM BKN230 OVC280 09/M03 A2973 RMK CI3CI1 SLP088

CYQR;2010-04-01 19:00;CYQR 011900Z 36003KT 15SM FEW060 BKN230 OVC280 11/M04 A2971 RMK CU1CI2CI1 SLP080

CYQR;2010-04-01 20:00;CYQR 012000Z 34002KT 15SM FEW069 BKN220 BKN280 12/M05 A2969 RMK CU1CI1CI1 SLP076

CYQR;2010-04-01 22:00;CYQR 012200Z 24003KT 15SM FEW083 BKN220 OVC280 12/M07 A2969 RMK CU2CI2CI0 SLP074

CYQR;2010-04-01 23:00;CYQR 012300Z 21002KT 15SM FEW083 BKN220 OVC280 12/M08 A2969 RMK CU2CI2CI1 SLP074

CYQR;2010-04-02 00:00;CYQR 020000Z 23002KT 15SM FEW080 BKN220 OVC280 11/M08 A2968 RMK CU2CI2CI1 SLP072

CYQR;2010-04-02 01:00;CYQR 020100Z 28002KT 15SM FEW079 BKN220 BKN280 10/M04 A2968 RMK CU1CI2CI1 SLP071

CYQR;2010-04-02 02:00;CYQR 020200Z 27002KT 15SM FEW080 BKN250 08/M01 A2970 RMK AC1CI4 ACC ASOCTD SLP078

CYQR;2010-04-02 03:00;CYQR 020300Z 07003KT 15SM SKC 06/M05 A2971 RMK SLP084

CYQR;2010-04-02 04:00;CYQR 020400Z 11003KT 15SM SKC 06/M04 A2971 RMK SLP084

CYQR;2010-04-02 05:00;CYQR 020500Z 10004KT 15SM OVC120 05/M06 A2972 RMK AC8 SLP088

CYQR;2010-04-02 06:00;CYQR 020600Z 12004KT 15SM BKN120 04/M04 A2972 RMK AC6 SLP083

CYQR;2010-04-02 07:00;CYQR 020700Z 11007KT 15SM SCT250 02/M06 A2971 RMK CI2 SLP080

CYQR;2010-04-02 08:00;CYQR 020800Z 13004KT 15SM SCT250 02/M06 A2971 RMK CI2 SLP079

CYQR;2010-04-02 09:00;CYQR 020900Z 26002KT 15SM SCT120 BKN250 M00/M03 A2970 RMK AC4CI2 SLP077

CYQR;2010-04-02 10:00;CYQR 021000Z 30006KT 10SM FEW120 BKN250 M01/M05 A2971 RMK AC2CI2 FU SLP079

CYQR;2010-04-02 11:00;CYQR 021100Z 34005KT 10SM SKC M02/M05 A2972 RMK FU SLP082

CYQR;2010-04-02 12:00;CYQR 021200Z 02004KT 10SM BKN250 M02/M06 A2972 RMK CI3 FU SLP085

CYQR;2010-04-02 13:00;CYQR 021300Z 03006KT 15SM FEW100 BKN250 M02/M06 A2972 RMK AC1CI1 SLP084

CYQR;2010-04-02 14:00;CYQR 021400Z 06005KT 15SM FEW100 BKN250 01/M04 A2972 RMK AC1CI0 SLP086

CYQR;2010-04-02 15:00;CYQR 021500Z 09006KT 15SM FEW100 BKN250 06/M04 A2971 RMK AC1CI0 SLP082

CYQR;2010-04-02 16:00;CYQR 021600Z 18003KT 15SM FEW250 08/M06 A2970 RMK CI1 SLP076

CYQR;2010-04-02 17:00;CYQR 021700Z 25003KT 15SM FEW095 FEW250 09/M04 A2969 RMK AC1CI0 SLP074

CYQR;2010-04-02 18:00;CYQR 021800Z 26004KT 15SM FEW060 FEW250 10/M04 A2968 RMK CU1CI1 SLP067

CYQR;2010-04-02 19:00;CYQR 021900Z 20004KT 15SM FEW060 BKN260 10/M04 A2965 RMK CU1CI2 SLP058

CYQR;2010-04-02 20:00;CYQR 022000Z 24005KT 15SM FEW067 BKN280 11/M04 A2962 RMK CU2CI1 SLP048

CYQR;2010-04-02 21:00;CYQR 022100Z 36003KT 15SM FEW067 BKN280 11/M04 A2959 RMK CU2CI1 SLP040

CYQR;2010-04-02 22:00;CYQR 022200Z 36007KT 15SM FEW065 BKN280 11/M08 A2958 RMK CU2CI1 SLP035

CYQR;2010-04-02 23:00;CYQR 022300Z 35004KT 15SM FEW065 BKN280 11/M08 A2956 RMK CU2CI1 VIRGA SLP031

CYQR;2010-04-03 00:00;CYQR 030000Z 35005KT 15SM FEW065 BKN280 10/M08 A2956 RMK CU2CI1 TCU ASOCTD VIRGA SLP029

CYQR;2010-04-03 01:00;CYQR 030100Z 04008KT 15SM FEW065 BKN280 09/M07 A2954 RMK CU1CI1 SLP024

CYQR;2010-04-03 02:00;CYQR 030200Z 09003KT 15SM FEW080 07/M05 A2953 RMK ACC1 VIRGA SLP021

CYQR;2010-04-03 03:00;CYQR 030300Z 15002KT 15SM SKC 05/M04 A2952 RMK SLP015

CYQR;2010-04-03 04:00;CYQR 030400Z 12003KT 15SM SKC 03/M00 A2951 RMK SLP012

CYQR;2010-04-03 05:00;CYQR 030500Z 13004KT 15SM SKC 02/M04 A2950 RMK SLP007

CYQR;2010-04-03 06:00;CYQR 030600Z 11006KT 15SM SKC 01/M05 A2948 RMK SLP003

CYQR;2010-04-03 07:00;CYQR 030700Z 12005KT 15SM SKC 00/M05 A2947 RMK SLP000

CYQR;2010-04-03 08:00;CYQR 030800Z 13006KT 15SM SKC M02/M06 A2947 RMK SLP998

CYQR;2010-04-03 09:00;CYQR 030900Z 12007KT 15SM SKC M02/M06 A2946 RMK SLP996

CYQR;2010-04-03 10:00;CYQR 031000Z 13007KT 15SM SKC M02/M06 A2946 RMK SLP995

CYQR;2010-04-03 11:00;CYQR 031100Z 08007KT 15SM SKC M03/M06 A2946 RMK SLP994

CYQR;2010-04-03 12:00;CYQR 031200Z 16006KT 15SM FEW250 M02/M06 A2946 RMK CI1 SLP995

CYQR;2010-04-03 13:00;CYQR 031300Z 10007KT 15SM SCT250 M02/M06 A2945 RMK CI1 SLP993

CYQR;2010-04-03 14:00;CYQR 031400Z 12005KT 15SM SCT280 01/M04 A2945 RMK CI1 SLP994

CYQR;2010-04-03 15:00;CYQR 031500Z 13006KT 15SM FEW090 BKN280 04/M04 A2945 RMK AC1CI1 SLP993

CYQR;2010-04-03 16:00;CYQR 031600Z 15006KT 15SM FEW100 BKN280 07/M03 A2945 RMK AC1CI1 SLP991

CYQR;2010-04-03 17:00;CYQR 031700Z 17008KT 15SM FEW100 BKN280 09/M01 A2945 RMK AC1CI1 SLP993

CYQR;2010-04-03 18:00;CYQR 031800Z 17009KT 15SM FEW050 BKN280 11/M01 A2945 RMK CU1CI2 SLP992

CYQR;2010-04-03 19:00;CYQR 031900Z 17007KT 15SM FEW060 OVC280 11/M04 A2945 RMK CU1CI3 SLP992

CYQR;2010-04-03 20:00;CYQR 032000Z 19009G17KT 15SM FEW070 OVC280 12/M05 A2945 RMK CU2CI2 SLP992

CYQR;2010-04-03 21:00;CYQR 032100Z 21010G17KT 15SM SCT070 OVC280 13/M04 A2945 RMK CU4CI2 SLP992

CYQR;2010-04-03 22:00;CYQR 032200Z 17009KT 15SM SCT070 OVC088 12/M04 A2946 RMK CU4AC4 SLP994

CYQR;2010-04-03 23:00;CYQR 032300Z 19010KT 15SM FEW070 BKN088 OVC280 12/M04 A2946 RMK CU2AC3CI2 SLP996

CYQR;2010-04-04 00:00;CYQR 040000Z 23008KT 15SM FEW088 OVC280 12/M05 A2947 RMK AC2CI6 SLP999

CYQR;2010-04-04 01:00;CYQR 040100Z 22005KT 15SM FEW088 OVC280 09/00 A2947 RMK AC2CI5 SLP000

CYQR;2010-04-04 02:00;CYQR 040200Z 19008KT 15SM FEW080 OVC280 06/M00 A2948 RMK AC2CI5 SLP003

CYQR;2010-04-04 03:00;CYQR 040300Z 17006KT 15SM OVC120 05/M01 A2950 RMK AC8 SLP010

CYQR;2010-04-04 04:00;CYQR 040400Z 14006KT 15SM BKN120 04/M00 A2950 RMK AC6 SLP010

CYQR;2010-04-04 05:00;CYQR 040500Z 18004KT 15SM BKN120 03/00 A2951 RMK AC7 SLP013

CYQR;2010-04-04 06:00;CYQR 040600Z 22007KT 15SM BKN086 OVC120 03/M01 A2951 RMK AC6AC2 SLP010

CYQR;2010-04-04 07:00;CYQR 040700Z 25013KT 15SM SCT080 BKN120 03/M04 A2952 RMK AC4AC3 SLP013

CYQR;2010-04-04 08:00;CYQR 040800Z 26006KT 15SM BKN120 01/M05 A2953 RMK AC7 SLP017

CYQR;2010-04-04 09:00;CYQR 040900Z 25007KT 15SM BKN120 01/M05 A2954 RMK AC7 SLP019

CYQR;2010-04-04 10:00;CYQR 041000Z 26009KT 15SM BKN120 01/M05 A2954 RMK AC6 SLP019

CYQR;2010-04-04 11:00;CYQR 041100Z 25008KT 15SM BKN120 00/M06 A2954 RMK AC6 SLP021

CYQR;2010-04-04 12:00;CYQR 041200Z 25012KT 15SM FEW120 SCT250 00/M06 A2954 RMK AC1CI1 SLP020

CYQR;2010-04-04 13:00;CYQR 041300Z 23005KT 15SM FEW100 SCT280 M01/M06 A2956 RMK AC2CI0 SLP026

CYQR;2010-04-04 14:00;CYQR 041400Z 22010KT 15SM FEW100 FEW280 01/M05 A2957 RMK AC1CI0 SLP030

CYQR;2010-04-04 15:00;CYQR 041500Z 25013G18KT 15SM FEW080 FEW280 04/M05 A2957 RMK AC1CI0 SLP035

CYQR;2010-04-04 16:00;CYQR 041600Z 25014KT 15SM SCT095 BKN280 05/M05 A2957 RMK AC4CI1 SLP035

CYQR;2010-04-04 17:00;CYQR 041700Z 23017KT 15SM VCSH FEW066 BKN095 BKN280 08/M03 A2958 RMK CU2AC2CI1 SLP037

CYQR;2010-04-04 17:37;CYQR 041737Z 25017KT 15SM -SHRASN BKN014 BKN095 BKN280 06/ RMK CU5AC2CI0

CYQR;2010-04-04 18:00;CYQR 041800Z 24015KT 15SM -SHRASN BKN020 BKN095 BKN280 06/M04 A2958 RMK CU5AC2CI0 SLP037

CYQR;2010-04-04 18:24;CYQR 041824Z 22017KT 15SM VCSH BKN040 BKN095 BKN280 07/ RMK CU5AC2CI0

CYQR;2010-04-04 19:00;CYQR 041900Z 23021KT 15SM VCSH SCT045 BKN095 BKN280 08/M04 A2957 RMK CU4AC2CI0 SLP035

CYQR;2010-04-04 20:00;CYQR 042000Z 26022G28KT 15SM SCT045 BKN095 BKN280 10/M03 A2956 RMK CU4AC2CI0 SLP029

CYQR;2010-04-04 21:00;CYQR 042100Z 30013KT 15SM SCT058TCU BKN074 BKN280 11/M03 A2956 RMK TCU4AC2CI1 SLP029

CYQR;2010-04-04 22:00;CYQR 042200Z 28016KT 15SM VCSH BKN069TCU BKN280 12/M04 A2956 RMK TCU6CI1 SLP029

CYQR;2010-04-04 23:00;CYQR 042300Z 25010KT 15SM VCSH SCT083TCU BKN280 10/M03 A2957 RMK TCU4CI2 SLP032

CYQR;2010-04-05 00:00;CYQR 050000Z 28006KT 15SM SCT063 BKN080 BKN280 09/M03 A2958 RMK SC3AC2CI0 VIRGA SLP036

CYQR;2010-04-05 00:42;CYQR 050042Z 28019G30KT 15SM BKN014 OVC063 07/ RMK CU5SC3 VIRGA

CYQR;2010-04-05 01:00;CYQR 050100Z 29018G25KT 15SM BKN014TCU OVC051 07/M01 A2961 RMK TCU5SC2 VIRGA SLP046

CYQR;2010-04-05 01:08;CYQR 050108Z 30014G20KT 15SM -SHRA BKN023TCU BKN075 07/ RMK TCU5AC1

CYQR;2010-04-05 02:00;CYQR 050200Z 28006KT 15SM BKN029TCU BKN070 05/M01 A2962 RMK TCU5AC2 VIRGA SLP050

CYQR;2010-04-05 03:00;CYQR 050300Z 29006KT 15SM BKN083 03/M01 A2964 RMK AC5 SLP060

CYQR;2010-04-05 04:00;CYQR 050400Z 25007KT 15SM FEW090 01/M02 A2966 RMK AC2 SLP064

CYQR;2010-04-05 05:00;CYQR 050500Z 26010KT 15SM FEW080 01/M03 A2966 RMK AC2 SLP066

CYQR;2010-04-05 06:00;CYQR 050600Z 25012KT 15SM SKC 01/M03 A2967 RMK SLP071

CYQR;2010-04-05 07:00;CYQR 050700Z 26008KT 15SM SKC M00/M03 A2969 RMK SLP075

CYQR;2010-04-05 08:00;CYQR 050800Z 26008KT 15SM SKC M01/M03 A2969 RMK SLP076

CYQR;2010-04-05 09:00;CYQR 050900Z 26008KT 15SM SKC M01/M03 A2970 RMK SLP076

CYQR;2010-04-05 10:00;CYQR 051000Z 26008KT 15SM SKC M02/M04 A2971 RMK SLP079

CYQR;2010-04-05 11:00;CYQR 051100Z 26007KT 15SM SKC M02/M04 A2971 RMK SLP082

CYQR;2010-04-05 12:00;CYQR 051200Z 26005KT 15SM SKC M02/M05 A2971 RMK SLP083

CYQR;2010-04-05 13:00;CYQR 051300Z 25004KT 15SM SKC M02/M05 A2973 RMK SLP088

CYQR;2010-04-05 14:00;CYQR 051400Z 23003KT 15SM SKC 00/M04 A2975 RMK SLP094

CYQR;2010-04-05 15:00;CYQR 051500Z 29002KT 15SM SKC 03/M03 A2976 RMK SLP100

CYQR;2010-04-05 16:00;CYQR 051600Z 25002KT 15SM SKC 06/M02 A2976 RMK SLP099

CYQR;2010-04-05 17:00;CYQR 051700Z 19004KT 15SM FEW036 FEW300 08/M01 A2976 RMK CF1CI1 SLP101

CYQR;2010-04-05 18:00;CYQR 051800Z 30005KT 15SM FEW032 11/M03 A2975 RMK CF1 SLP094

CYQR;2010-04-05 19:00;CYQR 051900Z 29009KT 15SM FEW030 12/M05 A2974 RMK CU2 SLP091

CYQR;2010-04-05 20:00;CYQR 052000Z 28009KT 15SM FEW030 BKN300 13/M07 A2973 RMK CU2CI0 SLP086

CYQR;2010-04-05 21:00;CYQR 052100Z 36007G17KT 15SM FEW030 SCT300 12/M09 A2972 RMK CU2CI1 SLP083

CYQR;2010-04-05 22:00;CYQR 052200Z 28003KT 15SM FEW050 SCT300 13/M10 A2971 RMK CU2CI0 SLP080

CYQR;2010-04-05 23:00;CYQR 052300Z 34006KT 15SM FEW060 13/M10 A2971 RMK CU2 SLP081

CYQR;2010-04-06 00:00;CYQR 060000Z 02006KT 15SM FEW060 FEW300 12/M10 A2971 RMK CU1CI1 SLP082

CYQR;2010-04-06 01:00;CYQR 060100Z 03008KT 15SM FEW060 SCT300 10/M08 A2972 RMK CU1CI0 SLP084

CYQR;2010-04-06 02:00;CYQR 060200Z 06008KT 15SM FEW080 SCT300 08/M04 A2974 RMK AC1CI0 SLP090

CYQR;2010-04-06 03:00;CYQR 060300Z 07008KT 15SM SKC 06/M04 A2976 RMK SLP099

CYQR;2010-04-06 04:00;CYQR 060400Z 08007KT 15SM SKC 04/M05 A2977 RMK SLP102

CYQR;2010-04-06 05:00;CYQR 060500Z 08006KT 15SM SKC 02/M05 A2978 RMK SLP104

CYQR;2010-04-06 06:00;CYQR 060600Z 07004KT 15SM SKC 02/M06 A2979 RMK SLP105

CYQR;2010-04-06 07:00;CYQR 060700Z 14004KT 15SM SKC 01/M05 A2980 RMK SLP108

CYQR;2010-04-06 08:00;CYQR 060800Z 26002KT 15SM SKC M01/M04 A2981 RMK SLP112

CYQR;2010-04-06 09:00;CYQR 060900Z 04005KT 15SM SKC M02/M07 A2981 RMK SLP116

CYQR;2010-04-06 10:00;CYQR 061000Z 04003KT 15SM SKC M01/M07 A2982 RMK SLP119

CYQR;2010-04-06 11:00;CYQR 061100Z 00000KT 15SM SKC M04/M07 A2983 RMK SLP123

CYQR;2010-04-06 12:00;CYQR 061200Z 34008KT 15SM FEW280 M04/M07 A2984 RMK CI1 SLP128

CYQR;2010-04-06 13:00;CYQR 061300Z 03007KT 15SM FEW280 M03/M07 A2986 RMK CI0 SLP134

CYQR;2010-04-06 14:00;CYQR 061400Z 02003KT 15SM FEW280 02/M04 A2988 RMK CI0 SLP139

CYQR;2010-04-06 15:00;CYQR 061500Z 02002KT 15SM FEW280 06/M04 A2990 RMK CI1 SLP143

CYQR;2010-04-06 16:00;CYQR 061600Z 05004KT 15SM FEW280 08/M04 A2990 RMK CI1 SLP145

CYQR;2010-04-06 17:00;CYQR 061700Z 32002KT 15SM FEW280 10/M03 A2992 RMK CI0 SLP150

CYQR;2010-04-06 18:00;CYQR 061800Z 36008KT 15SM FEW280 11/M06 A2992 RMK CI1 SLP151

CYQR;2010-04-06 19:00;CYQR 061900Z 31005KT 15SM FEW060 FEW280 12/M08 A2993 RMK CU1CI1 TR CU SLP153

CYQR;2010-04-06 20:00;CYQR 062000Z 05005KT 15SM SCT280 13/M09 A2993 RMK CI1 SLP154

CYQR;2010-04-06 21:00;CYQR 062100Z 09003KT 15SM SCT280 12/M08 A2993 RMK CI2 SLP158

CYQR;2010-04-06 22:00;CYQR 062200Z 34007KT 15SM FEW280 13/M10 A2994 RMK CI2 SLP161

CYQR;2010-04-06 23:00;CYQR 062300Z 33008KT 15SM FEW280 13/M10 A2996 RMK CI2 SLP165

CYQR;2010-04-07 00:00;CYQR 070000Z 33006KT 15SM BKN280 13/M08 A2996 RMK CI1 SLP169

CYQR;2010-04-07 01:00;CYQR 070100Z 01009KT 15SM FEW280 11/M06 A2998 RMK CI1 SLP173

CYQR;2010-04-07 02:00;CYQR 070200Z 03005KT 15SM FEW270 06/M07 A2999 RMK CI1 SLP177

CYQR;2010-04-07 03:00;CYQR 070300Z 05006KT 15SM SKC 05/M08 A3000 RMK SLP181

CYQR;2010-04-07 04:00;CYQR 070400Z 08005KT 15SM SKC 05/M07 A3001 RMK SLP183

CYQR;2010-04-07 05:00;CYQR 070500Z 11005KT 15SM SKC 04/M05 A3002 RMK SLP186

CYQR;2010-04-07 06:00;CYQR 070600Z 14007KT 15SM SKC 01/M06 A3002 RMK SLP187

CYQR;2010-04-07 07:00;CYQR 070700Z 14008KT 15SM SKC 00/M05 A3003 RMK SLP190

CYQR;2010-04-07 08:00;CYQR 070800Z 15007KT 15SM SKC M00/M05 A3004 RMK SLP193

CYQR;2010-04-07 09:00;CYQR 070900Z 15008KT 15SM SKC M00/M05 A3005 RMK SLP197

CYQR;2010-04-07 10:00;CYQR 071000Z 13009KT 15SM SKC M01/M06 A3005 RMK SLP197

CYQR;2010-04-07 11:00;CYQR 071100Z 14009KT 15SM FEW270 M00/M06 A3005 RMK CI0 SLP197

CYQR;2010-04-07 12:00;CYQR 071200Z 14011KT 15SM FEW270 01/M06 A3004 RMK CI1 SLP193

CYQR;2010-04-07 13:00;CYQR 071300Z 14011KT 15SM FEW089 BKN270 M00/M05 A3003 RMK AC2CI5 SLP190

CYQR;2010-04-07 14:00;CYQR 071400Z 16009KT 15SM FEW080 FEW100 BKN270 01/M04 A3003 RMK ACC1AC1CI4 SLP190

CYQR;2010-04-07 15:00;CYQR 071500Z 19008KT 15SM FEW020 SCT100 BKN270 05/M02 A3004 RMK SC1AC2CI2 SLP194

CYQR;2010-04-07 16:00;CYQR 071600Z 22005KT 15SM FEW053 FEW095 OVC270 07/M02 A3003 RMK SC1AC1CI1 SLP193

CYQR;2010-04-07 17:00;CYQR 071700Z 21007KT 15SM FEW050 SCT080 BKN270 09/M01 A3003 RMK SC1AC3CI2 SLP193

CYQR;2010-04-07 18:00;CYQR 071800Z 26008KT 15SM FEW080 BKN270 11/M02 A3002 RMK AC2CI2 SLP187

CYQR;2010-04-07 19:00;CYQR 071900Z 26008KT 15SM FEW060 FEW270 14/M04 A3000 RMK CU1CI1 TR CU SLP178

CYQR;2010-04-07 20:00;CYQR 072000Z 25013G18KT 15SM FEW080 FEW270 15/M05 A2998 RMK CU1CI1 SLP173

CYQR;2010-04-07 21:00;CYQR 072100Z 27010G18KT 15SM FEW080 FEW270 15/M07 A2996 RMK CU1CI0 SLP162

CYQR;2010-04-07 22:00;CYQR 072200Z 24007KT 15SM FEW080 SCT270 13/M08 A2995 RMK CU1CI1 SLP159

CYQR;2010-04-07 23:00;CYQR 072300Z 28004KT 15SM FEW079 FEW270 15/M09 A2993 RMK CU1CI1 SLP155

CYQR;2010-04-08 00:00;CYQR 080000Z 24004KT 15SM FEW080 BKN270 14/M10 A2992 RMK CU1CI1 SLP151

CYQR;2010-04-08 01:00;CYQR 080100Z 21005KT 15SM FEW080 BKN270 12/M05 A2991 RMK ACC1CI2 VIRGA SLP148

CYQR;2010-04-08 02:00;CYQR 080200Z 18005KT 15SM FEW080 FEW270 09/M03 A2991 RMK AC1CI0 SLP145

CYQR;2010-04-08 03:00;CYQR 080300Z 17006KT 15SM SKC 07/M05 A2991 RMK SLP147

CYQR;2010-04-08 04:00;CYQR 080400Z 16006KT 15SM SKC 05/M07 A2991 RMK SLP147

CYQR;2010-04-08 05:00;CYQR 080500Z 16007KT 15SM SKC 04/M05 A2989 RMK SLP143

CYQR;2010-04-08 06:00;CYQR 080600Z 18008KT 15SM SKC 02/M05 A2988 RMK SLP139

CYQR;2010-04-08 07:00;CYQR 080700Z 17004KT 15SM SKC 01/M05 A2987 RMK SLP136

CYQR;2010-04-08 08:00;CYQR 080800Z 12006KT 15SM SKC M02/M06 A2986 RMK SLP132

CYQR;2010-04-08 09:00;CYQR 080900Z 13009KT 15SM SKC M01/M05 A2984 RMK SLP124

CYQR;2010-04-08 10:00;CYQR 081000Z 15009KT 15SM SKC 00/M06 A2982 RMK SLP118

CYQR;2010-04-08 11:00;CYQR 081100Z 16008KT 15SM FEW270 01/M06 A2981 RMK CI1 SLP114

CYQR;2010-04-08 12:00;CYQR 081200Z 14007KT 15SM BKN270 M00/M05 A2979 RMK CI2 SLP105

CYQR;2010-04-08 13:00;CYQR 081300Z 16009KT 15SM OVC270 01/M05 A2977 RMK CI5 SLP100

CYQR;2010-04-08 14:00;CYQR 081400Z 17011KT 15SM FEW210 BKN270 03/M04 A2976 RMK CI2CI2 SLP096

CYQR;2010-04-08 15:00;CYQR 081500Z 19013KT 15SM OVC270 06/M03 A2974 RMK CI7 SLP089

CYQR;2010-04-08 16:00;CYQR 081600Z 20010KT 15SM FEW150 SCT210 BKN270 08/M02 A2971 RMK AS2CI2CI2 SLP081

CYQR;2010-04-08 17:00;CYQR 081700Z 19015KT 15SM FEW150 FEW210 BKN270 11/M01 A2969 RMK AC1CI2CI2 SLP073

CYQR;2010-04-08 18:00;CYQR 081800Z 19020G25KT 15SM FEW210 SCT270 15/M02 A2965 RMK CI1CI1 SLP056

CYQR;2010-04-08 19:00;CYQR 081900Z 20025KT 15SM FEW210 BKN270 17/M03 A2961 RMK CI1CI2 PRESFR CONTRAILS SLP041

CYQR;2010-04-08 20:00;CYQR 082000Z 20023G29KT 15SM FEW210 BKN270 18/M03 A2957 RMK CI1CI1 SLP029

CYQR;2010-04-08 21:00;CYQR 082100Z 19023G29KT 15SM FEW210 BKN270 18/M03 A2953 RMK CI1CI1 SLP016

CYQR;2010-04-08 22:00;CYQR 082200Z 17021G28KT 15SM FEW150 BKN270 18/M03 A2950 RMK AC2CI3 SLP006

CYQR;2010-04-08 23:00;CYQR 082300Z 18016G21KT 15SM SCT059 BKN150 OVC270 16/M02 A2948 RMK SC4AC2CI2 SLP000

CYQR;2010-04-09 00:00;CYQR 090000Z CCA 15016KT 15SM FEW060 SCT088 BKN150 OVC270 15/M01 A2945 RMK SC2AC2AC2CI2 SLP988

CYQR;2010-04-09 01:00;CYQR 090100Z 14010KT 15SM SCT081 OVC150 14/00 A2942 RMK AC4AC4 SLP979

CYQR;2010-04-09 02:00;CYQR 090200Z 15012KT 15SM OVC075 13/M00 A2941 RMK AC8 VIRGA SLP974

CYQR;2010-04-09 03:00;CYQR 090300Z 17018G27KT 15SM OVC034 14/M01 A2943 RMK SC8 SLP977

CYQR;2010-04-09 03:03;CYQR 090303Z 25021G34KT 15SM OVC034 14/ RMK SC8 WSHFT 0302Z

CYQR;2010-04-09 03:06;CYQR 090306Z 26024G34KT 15SM -SHRA SCT011 OVC034 13/ RMK SC3SC5 FROPA

CYQR;2010-04-09 04:00;CYQR 090400Z 27025G32KT 15SM SCT047 07/M00 A2950 RMK SC3 PRESRR SLP001

CYQR;2010-04-09 04:51;CYQR 090451Z 26029G38KT 10SM -SHRA FEW015 OVC046 05/ RMK SC1SC8 PK GST 40KT

CYQR;2010-04-09 05:00;CYQR 090500Z 27027G38KT 10SM -SHRA OVC046 04/01 A2955 RMK SC8 SLP017

CYQR;2010-04-09 05:41;CYQR 090541Z 24008KT 15SM OVC040 03/ RMK SC8

CYQR;2010-04-09 06:00;CYQR 090600Z 22007KT 15SM OVC040 03/01 A2953 RMK SC8 SLP015

CYQR;2010-04-09 07:00;CYQR 090700Z 21015KT 15SM BKN062 03/M01 A2954 RMK SC4 SLP017

CYQR;2010-04-09 08:00;CYQR 090800Z 23022KT 15SM OVC100 03/M05 A2954 RMK AC8 SLP016

CYQR;2010-04-09 09:00;CYQR 090900Z 25025G32KT 15SM BKN035 02/M05 A2955 RMK SC6 SLP019

CYQR;2010-04-09 09:08;CYQR 090908Z 26035G45KT 15SM FEW033 02/ RMK SC2

CYQR;2010-04-09 10:00;CYQR 091000Z 25025G33KT 15SM BKN033 01/M05 A2956 RMK SC6 PK GST 45KT SLP023

CYQR;2010-04-09 11:00;CYQR 091100Z 26030G40KT 15SM SCT032 01/M06 A2957 RMK SC4 PK GST 45KT SLP026

CYQR;2010-04-09 12:00;CYQR 091200Z 25034G43KT 15SM BKN030 00/M06 A2958 RMK SC7 PK GST 46KT SLP032

CYQR;2010-04-09 13:00;CYQR 091300Z 25033G42KT 15SM FEW030 FEW270 00/M07 A2957 RMK SC2CI1 PK GST 48KT SLP029

CYQR;2010-04-09 14:00;CYQR 091400Z 25037G44KT 15SM BKN035 02/M07 A2959 RMK SC6 SLP035

CYQR;2010-04-09 15:00;CYQR 091500Z 27039G52KT 15SM BKN032 02/M06 A2958 RMK SC7 SLP033

CYQR;2010-04-09 16:00;CYQR 091600Z 27036G50KT 15SM BKN035 04/M07 A2959 RMK SC6 SLP035

CYQR;2010-04-09 17:00;CYQR 091700Z 26039G46KT 15SM BKN041 OVC230 05/M08 A2959 RMK SC5CI2 SLP036

CYQR;2010-04-09 18:00;CYQR 091800Z 28040G54KT 12SM SCT025 BKN050 OVC230 05/M09 A2960 RMK CU3SC2CI1 BLDU SLP043

CYQR;2010-04-09 19:00;CYQR 091900Z 28040G49KT 12SM SCT065 BKN096 OVC230 06/M10 A2961 RMK SC3AC2CI1 BLDU SLP046

CYQR;2010-04-09 20:00;CYQR 092000Z 28035G48KT 6SM BLDU SCT061 OVC230 08/M10 A2961 RMK SC4CI1 SLP048

CYQR;2010-04-09 21:00;CYQR 092100Z CCA 28040G52KT 6SM BLDU SCT059 OVC230 07/M10 A2963 RMK SC3CI2 CU ASOCTD SLP054

CYQR;2010-04-09 22:00;CYQR 092200Z 28034G49KT 6SM BLDU BKN077 08/M11 A2965 RMK AC5 SLP060

CYQR;2010-04-09 23:00;CYQR 092300Z 28037G43KT 6SM BLDU SCT078 07/M11 A2967 RMK AC3 SLP066

CYQR;2010-04-10 00:00;CYQR 100000Z 28028G38KT 12SM FEW078 07/M12 A2969 RMK AC2 BLDU SLP077

CYQR;2010-04-10 01:00;CYQR 100100Z 29025G34KT 15SM FEW080 FEW300 06/M12 A2971 RMK AC1CI0 SLP083

CYQR;2010-04-10 02:00;CYQR 100200Z 28015KT 15SM FEW090 FEW300 04/M12 A2973 RMK AC1CI0 SLP088

CYQR;2010-04-10 02:35;CYQR 100235Z 27010KT 15SM FEW100 FEW300 02/ RMK AC1CI0

CYQR;2010-04-10 03:00;CYQR 100300Z 27010KT 15SM FEW100 00/M12 A2975 RMK AC1 SLP099

CYQR;2010-04-10 04:00;CYQR 100400Z 25014KT 15SM FEW100 00/M13 A2976 RMK AC1 SLP103

CYQR;2010-04-10 05:00;CYQR 100500Z 25014KT 15SM FEW100 M00/M12 A2976 RMK AC1 SLP105

CYQR;2010-04-10 06:00;CYQR 100600Z 25015KT 15SM FEW100 M00/M10 A2977 RMK AC1 SLP105

CYQR;2010-04-10 07:00;CYQR 100700Z 26018KT 15SM FEW100 00/M10 A2978 RMK AC1 SLP107

CYQR;2010-04-10 08:00;CYQR 100800Z 26015KT 15SM SKC M01/M10 A2979 RMK SLP110

CYQR;2010-04-10 09:00;CYQR 100900Z 26016KT 15SM SKC M01/M10 A2979 RMK SLP112

CYQR;2010-04-10 10:00;CYQR 101000Z 25016KT 15SM FEW300 M02/M10 A2981 RMK CI1 SLP116

CYQR;2010-04-10 11:00;CYQR 101100Z 26017G25KT 15SM FEW300 M02/M11 A2981 RMK CI0 SLP118

CYQR;2010-04-10 12:00;CYQR 101200Z 25019KT 15SM FEW300 M02/M11 A2983 RMK CI0 SLP126

CYQR;2010-04-10 13:00;CYQR 101300Z 25018KT 15SM FEW140 BKN300 M01/M11 A2984 RMK AC1CI0 SLP130

CYQR;2010-04-10 14:00;CYQR 101400Z 27027G32KT 15SM BKN280 01/M11 A2985 RMK CI1 SLP133

CYQR;2010-04-10 15:00;CYQR 101500Z 28032G37KT 15SM BKN280 03/M10 A2986 RMK CI1 SLP137

CYQR;2010-04-10 16:00;CYQR 101600Z 28030G37KT 15SM FEW056 BKN280 04/M10 A2987 RMK CU1CI1 SLP142

CYQR;2010-04-10 17:00;CYQR 101700Z 27024G32KT 15SM FEW060 SCT280 06/M09 A2988 RMK CU1CI1 SLP144

CYQR;2010-04-10 18:00;CYQR 101800Z 28028G37KT 15SM FEW060 FEW280 07/M09 A2988 RMK CU1CI1 SLP143

CYQR;2010-04-10 19:00;CYQR 101900Z 28032G39KT 15SM BKN065 07/M10 A2989 RMK CU6 SLP144

CYQR;2010-04-10 20:00;CYQR 102000Z 28032G42KT 15SM SCT055 BKN250 07/M09 A2989 RMK CU4CI2 SLP145

CYQR;2010-04-10 21:00;CYQR 102100Z 32022G34KT 15SM SCT058 BKN250 06/M07 A2992 RMK CU3CI2 VIRGA SLP156

CYQR;2010-04-10 22:00;CYQR 102200Z 29025G35KT 15SM SCT044 05/M06 A2994 RMK CU4 SLP164

CYQR;2010-04-10 23:00;CYQR 102300Z 31025G30KT 15SM SCT043 06/M07 A2997 RMK CU4 SLP173

CYQR;2010-04-11 00:00;CYQR 110000Z 30030KT 15SM FEW045 FEW300 05/M07 A2999 RMK CU1CI1 SLP183

CYQR;2010-04-11 01:00;CYQR 110100Z 31020G25KT 15SM FEW080 FEW300 03/M07 A3002 RMK AC1CI0 SLP192

CYQR;2010-04-11 02:00;CYQR 110200Z 31016KT 15SM FEW085 01/M08 A3004 RMK AC1 SLP198

CYQR;2010-04-11 03:00;CYQR 110300Z 29009KT 15SM FEW100 M01/M08 A3007 RMK AC1 SLP212

CYQR;2010-04-11 04:00;CYQR 110400Z 28006KT 15SM FEW100 M04/M08 A3010 RMK AC1 SLP220

CYQR;2010-04-11 05:00;CYQR 110500Z 29009KT 15SM FEW100 M04/M08 A3012 RMK AC1 SLP226

CYQR;2010-04-11 06:00;CYQR 110600Z 28006KT 15SM FEW100 M06/M10 A3014 RMK AC1 SLP234

CYQR;2010-04-11 07:00;CYQR 110700Z 28006KT 15SM FEW095 M06/M10 A3016 RMK AC2 SLP241

CYQR;2010-04-11 08:00;CYQR 110800Z 28007KT 15SM SCT095 M05/M09 A3018 RMK AC3 SLP247

CYQR;2010-04-11 09:00;CYQR 110900Z 27008KT 15SM FEW030 M06/M09 A3019 RMK SC2 SLP254

CYQR;2010-04-11 10:00;CYQR 111000Z 27007KT 15SM FEW030 M08/M11 A3021 RMK SC2 SLP260

CYQR;2010-04-11 11:00;CYQR 111100Z 27007KT 15SM FEW030 M08/M11 A3023 RMK SC1 SLP265

CYQR;2010-04-11 12:00;CYQR 111200Z 26006KT 15SM FEW030 FEW300 M09/M12 A3025 RMK SC1CI0 SLP277

CYQR;2010-04-11 13:00;CYQR 111300Z 29006KT 15SM FEW030 FEW300 M07/M10 A3026 RMK SC1CI0 SLP280

CYQR;2010-04-11 14:00;CYQR 111400Z 31007KT 15SM SCT280 M04/M08 A3028 RMK CI1 SLP287

CYQR;2010-04-11 15:00;CYQR 111500Z 34013KT 15SM FEW024 SCT280 M01/M07 A3029 RMK CF1CI1 SLP288

CYQR;2010-04-11 16:00;CYQR 111600Z 30011KT 15SM FEW070 SCT280 M00/M08 A3031 RMK AC1CI1 SLP296

CYQR;2010-04-11 17:00;CYQR 111700Z 32011KT 15SM BKN280 02/M07 A3032 RMK CI2 SLP298

CYQR;2010-04-11 18:00;CYQR 111800Z 30008KT 15SM BKN280 03/M07 A3033 RMK CI2 SLP302

CYQR;2010-04-11 19:00;CYQR 111900Z 31008KT 15SM BKN280 04/M07 A3031 RMK CI2 SLP297

CYQR;2010-04-11 20:00;CYQR 112000Z 01007KT 15SM BKN280 05/M06 A3031 RMK CI2 SLP296

CYQR;2010-04-11 21:00;CYQR 112100Z 05004KT 15SM BKN280 06/M06 A3031 RMK CI2 SLP294

CYQR;2010-04-11 22:00;CYQR 112200Z 02006KT 15SM FEW076 BKN280 06/M06 A3029 RMK AC1CI2 SLP289

CYQR;2010-04-11 23:00;CYQR 112300Z 03006KT 15SM FEW093 BKN280 06/M07 A3028 RMK AC1CI2 SLP286

CYQR;2010-04-12 00:00;CYQR 120000Z 02005KT 15SM FEW090 BKN280 06/M06 A3029 RMK AC2CI2 SLP289

CYQR;2010-04-12 01:00;CYQR 120100Z 09007KT 15SM BKN068 OVC300 06/M07 A3029 RMK AC5CI2 SLP289

CYQR;2010-04-12 02:00;CYQR 120200Z 07005KT 15SM SCT070 BKN120 OVC300 05/M06 A3030 RMK AC4AC3CI1 SLP292

CYQR;2010-04-12 03:00;CYQR 120300Z 04004KT 15SM SCT070 BKN095 OVC300 04/M06 A3030 RMK AC4AC3CI1 SLP291

CYQR;2010-04-12 04:00;CYQR 120400Z 03005KT 15SM BKN095 OVC300 03/M06 A3031 RMK AC7CI1 SLP292

CYQR;2010-04-12 05:00;CYQR 120500Z 08009KT 15SM OVC085 04/M06 A3030 RMK AC8 SLP288

CYQR;2010-04-12 06:00;CYQR 120600Z 09011G17KT 15SM OVC084 04/M06 A3029 RMK AC8 SLP282

CYQR;2010-04-12 07:00;CYQR 120700Z 09013KT 15SM OVC079 03/M05 A3028 RMK AC8 SLP281

CYQR;2010-04-12 08:00;CYQR 120800Z 09014KT 15SM OVC070 03/M05 A3029 RMK AC8 SLP282

CYQR;2010-04-12 09:00;CYQR 120900Z 10014KT 15SM OVC070 03/M06 A3027 RMK AC8 SLP276

CYQR;2010-04-12 10:00;CYQR 121000Z 10011G18KT 15SM OVC070 03/M06 A3026 RMK AC8 SLP273

CYQR;2010-04-12 11:00;CYQR 121100Z 11014KT 15SM BKN060 OVC095 03/M06 A3027 RMK SC6AC2 SLP274

CYQR;2010-04-12 12:00;CYQR 121200Z 12006KT 15SM BKN055 BKN075 02/M05 A3028 RMK SC5AC2 SLP277

CYQR;2010-04-12 13:00;CYQR 121300Z 12006KT 15SM -SN BKN014 OVC052 02/M03 A3027 RMK SC6SC2 SLP275

CYQR;2010-04-12 13:38;CYQR 121338Z 10006KT 8SM -SN BKN017 OVC048 02/ RMK SC6SC2

CYQR;2010-04-12 13:50;CYQR 121350Z 10007KT 2 1/2SM -SN BKN017 OVC048 02/ RMK SC6SC2

CYQR;2010-04-12 14:00;CYQR 121400Z 09007KT 2 1/2SM -SN BKN015 OVC048 01/M02 A3029 RMK SC6SC2 SLP282

CYQR;2010-04-12 14:33;CYQR 121433Z 09008KT 3SM -SN BKN015 OVC046 02/ RMK SC5SC3

CYQR;2010-04-12 14:51;CYQR 121451Z 09008KT 6SM BR FEW006 SCT019 OVC042 02/ RMK SF1SC3SC4

CYQR;2010-04-12 15:00;CYQR 121500Z 09009KT 6SM BR FEW006 SCT019 OVC042 02/00 A3028 RMK SF2SC2SC4 SLP280

CYQR;2010-04-12 16:00;CYQR 121600Z 11015G21KT 10SM BKN010 OVC038 02/M00 A3026 RMK SC6SC2 SLP274

CYQR;2010-04-12 17:00;CYQR 121700Z 11017KT 15SM BKN014 OVC037 02/M01 A3026 RMK SC6SC2 SLP273

CYQR;2010-04-12 17:40;CYQR 121740Z 10016KT 15SM SCT018 OVC035 03/ RMK SC3SC5

CYQR;2010-04-12 18:00;CYQR 121800Z 11017KT 15SM FEW018 OVC033 03/M02 A3024 RMK SC2SC6 SLP266

CYQR;2010-04-12 19:00;CYQR 121900Z 12018G27KT 15SM BKN029 OVC097 04/M03 A3021 RMK SC6AC2 SLP257

CYQR;2010-04-12 20:00;CYQR 122000Z 10018G24KT 15SM OVC027 05/M03 A3019 RMK SC8 SLP248

CYQR;2010-04-12 21:00;CYQR 122100Z 10018G26KT 15SM OVC027 06/M03 A3018 RMK SC8 SLP242

CYQR;2010-04-12 22:00;CYQR 122200Z 10018G24KT 15SM BKN029 OVC090 07/M03 A3013 RMK SC6AC2 PRESFR SLP228

CYQR;2010-04-12 23:00;CYQR 122300Z 09018G25KT 15SM BKN029 OVC090 07/M04 A3013 RMK SC6AC2 SLP228

CYQR;2010-04-13 00:00;CYQR 130000Z 10017G22KT 15SM OVC033 07/M05 A3011 RMK SC8 SLP221

CYQR;2010-04-13 01:00;CYQR 130100Z 09016G22KT 15SM BKN035 OVC045 07/M04 A3010 RMK SC6SC2 SLP218

CYQR;2010-04-13 02:00;CYQR 130200Z 09017KT 15SM OVC036 07/M04 A3009 RMK SC8 SLP213

CYQR;2010-04-13 03:00;CYQR 130300Z 09017KT 15SM OVC044 06/M04 A3006 RMK SC8 SLP204

CYQR;2010-04-13 04:00;CYQR 130400Z 10019G26KT 15SM OVC037 06/M04 A3006 RMK SC8 SLP203

CYQR;2010-04-13 05:00;CYQR 130500Z 10020G28KT 15SM OVC033 06/M04 A3004 RMK SC8 SLP196

CYQR;2010-04-13 06:00;CYQR 130600Z 10023G31KT 15SM OVC033 06/M04 A3001 RMK SC8 SLP184

CYQR;2010-04-13 06:51;CYQR 130651Z 10018G26KT 15SM -SHRA OVC035 04/ RMK SC8

CYQR;2010-04-13 07:00;CYQR 130700Z 10017G22KT 15SM -SHRA OVC035 04/M01 A2998 RMK SC8 SLP176

CYQR;2010-04-13 08:00;CYQR 130800Z 10016G22KT 15SM -SHRA OVC039 04/M01 A2996 RMK SC8 SLP168

CYQR;2010-04-13 09:00;CYQR 130900Z 10013G21KT 15SM -SHRA OVC035 04/00 A2993 RMK SC8 SLP158

CYQR;2010-04-13 10:00;CYQR 131000Z 10013KT 15SM -SHRA OVC029 04/01 A2990 RMK SC8 SLP147

CYQR;2010-04-13 11:00;CYQR 131100Z 10015G20KT 15SM -SHRA OVC029 04/01 A2987 RMK SC8 SLP137

CYQR;2010-04-13 11:13;CYQR 131113Z 09016KT 15SM OVC025 04/ RMK SC8

CYQR;2010-04-13 12:00;CYQR 131200Z 10014KT 15SM OVC025 04/01 A2985 RMK SC8 SLP129

CYQR;2010-04-13 13:00;CYQR 131300Z 09018KT 15SM OVC021 05/01 A2980 RMK SC8 SLP112

CYQR;2010-04-13 14:00;CYQR 131400Z 09022KT 15SM OVC017 05/02 A2976 RMK SC8 SLP099

CYQR;2010-04-13 15:00;CYQR 131500Z 10023G29KT 15SM OVC015 05/02 A2975 RMK SC8 SLP092

CYQR;2010-04-13 15:13;CYQR 131513Z 11020G25KT 1 1/2SM -SHRA BR OVC013 05/ RMK FG2SC6

CYQR;2010-04-13 15:22;CYQR 131522Z 11018KT 1 1/2SM -SHRA BR OVC009 05/ RMK FG2SC6

CYQR;2010-04-13 15:36;CYQR 131536Z 10020G25KT 2SM -SHRA BR BKN006 OVC039 04/ RMK SC6SC2

CYQR;2010-04-13 15:46;CYQR 131546Z 09022KT 2 1/2SM -TSRA BR SCT006 BKN015CB OVC060 04/ RMK SC3CB2SC2

CYQR;2010-04-13 16:00;CYQR 131600Z 10018G27KT 2 1/2SM -TSRA BR SCT008 BKN015CB OVC060 04/03 A2971 RMK SF3CB2SC2 LTGIC SLP082

CYQR;2010-04-13 16:24;CYQR 131624Z 10022G30KT 3SM -TSRA BR FEW008 BKN013CB OVC074 05/ RERA RMK SF2CB2AC3 LTGIC

CYQR;2010-04-13 16:50;CYQR 131650Z 08019G28KT 2 1/2SM -SHRA BR FEW009 SCT013CB OVC030 05/ RETSRA RMK SF2CB2SC4

CYQR;2010-04-13 17:00;CYQR 131700Z 09023G30KT 3SM -SHRA BR BKN008 OVC030 06/05 A2965 RETSRA RMK SF5SC3 CB EMBD PRESFR SLP061

CYQR;2010-04-13 17:29;CYQR 131729Z 09023G32KT 1 1/2SM -SHRA BR OVC005 06/ RMK FG2SC6 CVCTV CLD EMBDD

CYQR;2010-04-13 17:40;CYQR 131740Z 09021G28KT 1 1/2SM -SHRA BR OVC006 06/ RMK FG2SC6 CVCTV CLD EMBDD

CYQR;2010-04-13 17:46;CYQR 131746Z CCA 09021G28KT 1 1/2SM -SHRA BR OVC006 06/ RMK FG2SF6 CVCTV CLD EMBDD

CYQR;2010-04-13 17:49;CYQR 131749Z 10018G30KT 1 1/2SM -SHRA BR OVC005 06/ RMK FG2SF6 CVCTV CLD EMBDD

CYQR;2010-04-13 18:00;CYQR 131800Z 10018G25KT 1 1/2SM -SHRA BR OVC005 06/05 A2962 RMK FG2SF6 CVCTV CLD EMBDD SLP048

CYQR;2010-04-13 18:24;CYQR 131824Z 10013G22KT 3SM -SHRA BR OVC005 07/ RMK SF8 CVCTV CLD EMBDD

CYQR;2010-04-13 18:42;CYQR 131842Z 09010G16KT 2SM -SHRA BR OVC006 07/ RMK FG2SF6

CYQR;2010-04-13 19:00;CYQR 131900Z 10013KT 2SM -SHRA BR OVC005 08/07 A2958 RMK FG2SF6 CVCTV CLD EMBDD SLP036

CYQR;2010-04-13 19:10;CYQR 131910Z 10015KT 5SM -SHRA BR OVC005 08/ RMK SF8 CVCTV CLD EMBD

CYQR;2010-04-13 19:32;CYQR 131932Z 10015KT 12SM -SHRA OVC006 09/ RMK SF8 CVCTV CLD EMBD

CYQR;2010-04-13 19:44;CYQR 131944Z 11018KT 2 1/2SM -SHRA BR OVC008 09/ RMK SF8

CYQR;2010-04-13 19:52;CYQR 131952Z 11022G27KT 8SM -SHRA BKN008 OVC025 09/ RMK SF6SC2 CVCTV CLD EMBD

CYQR;2010-04-13 20:00;CYQR 132000Z 11020G27KT 12SM -SHRA BKN009 OVC025 09/08 A2955 RMK SF6SC2 CVCTV CLD EMBD SLP025

CYQR;2010-04-13 20:51;CYQR 132051Z 11021G26KT 12SM -SHRA OVC010 09/ RMK SC8 CVCTV CLD EMBD

CYQR;2010-04-13 21:00;CYQR 132100Z 11020G27KT 12SM -SHRA OVC010 09/08 A2952 RMK SC8 CVCTV CLD EMBD SLP015

CYQR;2010-04-13 21:35;CYQR 132135Z 11023G28KT 10SM -SHRA OVC008 09/ RMK SF8

CYQR;2010-04-13 21:37;CYQR 132137Z CCA 11023G28KT 10SM -SHRA OVC008 09/ RMK SF8 CVCTV CLD EMBDD

CYQR;2010-04-13 22:00;CYQR 132200Z 12021G32KT 3SM -SHRA BR OVC007 09/08 A2950 RMK SF8 CVCTV CLD EMBDD SLP008

CYQR;2010-04-13 22:25;CYQR 132225Z 12022G29KT 2 1/2SM -SHRA BR OVC006 09/ RMK SF8 CVCTV CLD EMBD

CYQR;2010-04-13 22:40;CYQR 132240Z 12023G34KT 1 1/2SM SHRA BR OVC006 09/ RMK SF8 CVCTV CLD EMBD

CYQR;2010-04-13 22:53;CYQR 132253Z 12025G35KT 1 1/2SM SHRA BR BKN005 OVC023 08/ RMK SF6SC2 CVCTV CLD ASOCTD

CYQR;2010-04-13 23:00;CYQR 132300Z 12026G35KT 1 1/2SM SHRA BR BKN006 OVC018 08/08 A2951 RMK SF6SC2 CVCTV CLD ASOCTD SLP012

CYQR;2010-04-13 23:33;CYQR 132333Z 12024G33KT 1SM R13/P6000FT/D SHRA BR OVC006 08/ RMK FG2SF6 CVCTV CLD EMBDD

CYQR;2010-04-13 23:40;CYQR 132340Z 12020G30KT 2 1/2SM -SHRA BR OVC006 08/ RERA RMK SF8 CVCTV CLD EMBD

CYQR;2010-04-14 00:00;CYQR 140000Z 12022G30KT 3SM -SHRA BR OVC005 08/07 A2949 RERA RMK SF8 CVCTV CLD EMBD /R12/ SLP005

CYQR;2010-04-14 00:37;CYQR 140037Z 11021G26KT 8SM -SHRA OVC007 08/ RMK SF8 CVCTV CLD EMBD

CYQR;2010-04-14 01:00;CYQR 140100Z 11021G28KT 8SM -SHRA OVC005 08/07 A2947 RMK SF8 CVCTV CLD EMBD SLP999

CYQR;2010-04-14 03:00;CYQR 140300Z 11012G17KT 15SM -SHRA OVC010 09/08 A2947 RMK ST8 SLP996

CYQR;2010-04-14 03:48;CYQR 140348Z 13013G20KT 10SM -SHRA OVC005 08/ RMK ST8

CYQR;2010-04-14 04:00;CYQR 140400Z 13014KT 8SM -SHRA OVC004 09/08 A2946 RMK ST8 SLP992

CYQR;2010-04-14 04:11;CYQR 140411Z 14018G24KT 5SM -SHRA OVC003 09/ RMK ST8

CYQR;2010-04-14 04:43;CYQR 140443Z 15018KT 6SM -DZ OVC003 10/ RMK ST8

CYQR;2010-04-14 05:00;CYQR 140500Z 16014KT 10SM -DZ BKN003 OVC025 10/09 A2947 RMK ST5SC3 SLP995

CYQR;2010-04-14 05:22;CYQR 140522Z 16013KT 12SM SCT003 BKN027 OVC076 09/ RMK ST2SC2AC4

CYQR;2010-04-14 06:00;CYQR 140600Z 18012KT 12SM OVC027 09/07 A2945 RMK SC8 SLP989

CYQR;2010-04-14 07:00;CYQR 140700Z 21018KT 15SM OVC016 07/05 A2948 RMK SC8 SLP999

CYQR;2010-04-14 07:44;CYQR 140744Z 23015KT 15SM OVC012 06/ RMK SC8

CYQR;2010-04-14 08:00;CYQR 140800Z 22009G15KT 15SM OVC012 06/04 A2945 RMK SC8 SLP989

CYQR;2010-04-14 09:00;CYQR 140900Z 22007KT 15SM OVC015 05/02 A2946 RMK SC8 SLP994

CYQR;2010-04-14 10:00;CYQR 141000Z 21010KT 15SM SCT013 OVC015 04/02 A2948 RMK CU3SC5 SLP998

CYQR;2010-04-14 11:00;CYQR 141100Z 21013KT 15SM OVC013 03/01 A2949 RMK SC8 SLP002

CYQR;2010-04-14 12:00;CYQR 141200Z 20012KT 15SM SCT013 OVC016 03/00 A2950 RMK CU3SC5 SLP008

CYQR;2010-04-14 13:00;CYQR 141300Z 18014KT 15SM FEW013 BKN023 02/M01 A2949 RMK CU1SC6 SLP006

CYQR;2010-04-14 14:00;CYQR 141400Z 17012KT 15SM FEW013 OVC026 03/M00 A2949 RMK SC1SC7 SLP006

CYQR;2010-04-14 14:39;CYQR 141439Z 18014KT 12SM -SHRA BKN011 OVC028 03/ RMK SC6SC2

CYQR;2010-04-14 15:00;CYQR 141500Z 18016KT 15SM -SHRA BKN012 OVC030 03/00 A2948 RMK SC6SC2 SLP002

CYQR;2010-04-14 15:52;CYQR 141552Z 19019G24KT 15SM BKN015 OVC044 04/ RMK SC6SC2

CYQR;2010-04-14 16:00;CYQR 141600Z 18020KT 15SM BKN015 OVC044 04/01 A2947 RMK SC7SC1 SLP999

CYQR;2010-04-14 17:00;CYQR 141700Z 19016KT 15SM BKN018 OVC044 05/01 A2947 RMK SC6SC2 SLP997

CYQR;2010-04-14 18:00;CYQR 141800Z 20016KT 15SM OVC018 05/01 A2947 RMK SC8 SLP998

CYQR;2010-04-14 19:00;CYQR 141900Z 20013G18KT 15SM OVC020 06/01 A2948 RMK SC8 SLP999

CYQR;2010-04-14 20:00;CYQR 142000Z 22013KT 15SM OVC022 06/02 A2948 RMK SC8 SLP000

CYQR;2010-04-14 21:00;CYQR 142100Z 24011KT 15SM OVC024 07/02 A2948 RMK SC8 SLP001

CYQR;2010-04-14 22:00;CYQR 142200Z 25012KT 15SM -SHRA BKN022 OVC048 08/04 A2949 RMK SC6SC1 SLP002

CYQR;2010-04-14 23:00;CYQR 142300Z 26013KT 15SM BKN022 OVC050 08/04 A2951 RMK SC6SC2 SLP009

CYQR;2010-04-15 00:00;CYQR 150000Z 27012KT 15SM -SHRA BKN019 OVC050 07/04 A2954 RMK SC7SC1 SLP024

CYQR;2010-04-15 00:25;CYQR 150025Z 27019G24KT 4SM -SHRA BKN004 OVC021 06/ RMK SF6SC2

CYQR;2010-04-15 00:45;CYQR 150045Z 28017G24KT 10SM -SHRA BKN006 OVC035 05/ RMK SF6SC2

CYQR;2010-04-15 01:00;CYQR 150100Z 27020KT 10SM -SHRA BKN006 OVC035 05/03 A2958 RMK SF6SC2 SLP037

CYQR;2010-04-15 02:00;CYQR 150200Z 27016KT 15SM BKN008 OVC036 04/02 A2961 RMK SF6SC2 SLP046

CYQR;2010-04-15 02:29;CYQR 150229Z 27015KT 12SM -SHRA OVC006 04/ RMK SF8

CYQR;2010-04-15 03:00;CYQR 150300Z 28014KT 12SM -SHRA OVC005 03/02 A2964 RMK SC8 SLP059

CYQR;2010-04-15 03:24;CYQR 150324Z 28014KT 15SM OVC004 03/ RMK ST8

CYQR;2010-04-15 04:00;CYQR 150400Z 28013KT 15SM OVC004 04/03 A2967 RMK ST8 SLP069

CYQR;2010-04-15 04:13;CYQR 150413Z 29015KT 5SM -DZ OVC004 04/ RMK ST8

CYQR;2010-04-15 04:31;CYQR 150431Z 29017KT 3SM -DZ OVC003 04/ RMK SF8 CIG RAG

CYQR;2010-04-15 05:00;CYQR 150500Z 32013KT 8SM -RA OVC003 05/03 A2971 RMK ST8 SLP080

CYQR;2010-04-15 05:19;CYQR 150519Z 31011KT 10SM -RA SCT004 OVC021 05/ RMK SC4SC4

CYQR;2010-04-15 05:36;CYQR 150536Z 32012KT 10SM -RA BKN009 OVC021 05/ RMK SF5SC3

CYQR;2010-04-15 05:48;CYQR 150548Z 31010KT 10SM -RA BKN006 BKN021 OVC076 05/ RMK SF5SC2AC2

CYQR;2010-04-15 06:00;CYQR 150600Z 31010KT 10SM -RA BKN006 BKN021 OVC072 05/04 A2973 RMK SF5SC2AC2 SLP087

CYQR;2010-04-15 06:09;CYQR 150609Z 31013KT 10SM -RA BKN005 OVC072 05/ RMK SF6AC2

CYQR;2010-04-15 07:00;CYQR 150700Z 31018KT 10SM -RA BKN006 OVC015 04/03 A2976 RMK SF5SC3 SLP097

CYQR;2010-04-15 07:29;CYQR 150729Z 31017KT 10SM -RA OVC004 04/ RMK SF8

CYQR;2010-04-15 08:00;CYQR 150800Z 31020G27KT 8SM -RA OVC005 04/02 A2979 RMK SF8 SLP106

CYQR;2010-04-15 09:00;CYQR 150900Z 32019G24KT 10SM -RA OVC009 03/01 A2982 RMK SF8 SLP118

CYQR;2010-04-15 10:00;CYQR 151000Z 33020G27KT 15SM -RA OVC009 03/01 A2984 RMK SC8 SLP125

CYQR;2010-04-15 10:42;CYQR 151042Z 33017G26KT 15SM OVC010 03/ RMK SC8

CYQR;2010-04-15 11:00;CYQR 151100Z 33020G26KT 15SM OVC009 03/01 A2988 RMK SC8 SLP139

CYQR;2010-04-15 11:08;CYQR 151108Z 33020G27KT 15SM OVC010 03/ RMK SC8

CYQR;2010-04-15 12:00;CYQR 151200Z 35024G30KT 15SM OVC013 04/00 A2992 RMK SC8 SLP154

CYQR;2010-04-15 12:19;CYQR 151219Z 34019G30KT 15SM OVC016 04/ RMK SC8

CYQR;2010-04-15 12:40;CYQR 151240Z 34025KT 15SM OVC012 04/ RMK SC8

CYQR;2010-04-15 13:00;CYQR 151300Z 34020G31KT 12SM OVC012 04/01 A2998 RMK SC8 SLP172

CYQR;2010-04-15 14:00;CYQR 151400Z 34020G27KT 15SM OVC012 04/01 A3002 RMK SC8 SLP184

CYQR;2010-04-15 15:00;CYQR 151500Z 34024G31KT 15SM OVC015 04/01 A3006 RMK SC8 SLP202

CYQR;2010-04-15 15:54;CYQR 151554Z 34020G27KT 15SM BKN014 OVC030 05/ RMK SC6SC2

CYQR;2010-04-15 16:00;CYQR 151600Z 34023G30KT 15SM BKN016 OVC030 05/01 A3010 RMK SC6SC2 SLP217

CYQR;2010-04-15 17:00;CYQR 151700Z 34018G25KT 15SM BKN014 OVC059 05/01 A3015 RMK SC7SC1 SLP233

CYQR;2010-04-15 18:00;CYQR 151800Z 36021G30KT 15SM BKN023 08/01 A3020 RMK SC5 CU ASOCTD SLP246

CYQR;2010-04-15 19:00;CYQR 151900Z 36020G26KT 15SM SCT029 09/00 A3023 RMK CU3 SLP258

CYQR;2010-04-15 20:00;CYQR 152000Z 35014G24KT 15SM SCT035 10/00 A3026 RMK CU3 SLP267

CYQR;2010-04-15 21:00;CYQR 152100Z 35014G19KT 15SM FEW044 11/00 A3028 RMK CU1 SLP275

CYQR;2010-04-15 22:00;CYQR 152200Z 34018G24KT 15SM FEW046 12/M00 A3030 RMK CU1 SLP280

CYQR;2010-04-15 23:00;CYQR 152300Z 33018G24KT 15SM SKC 12/M01 A3032 RMK SLP287

CYQR;2010-04-16 00:00;CYQR 160000Z 32016KT 15SM SKC 11/M02 A3034 RMK SLP294

CYQR;2010-04-16 01:00;CYQR 160100Z 36012KT 15SM SKC 10/M02 A3036 RMK SLP302

CYQR;2010-04-16 02:00;CYQR 160200Z 35008KT 15SM FEW250 06/M02 A3039 RMK CI0 SLP309

CYQR;2010-04-16 03:00;CYQR 160300Z 02007KT 15SM SKC 04/M03 A3041 RMK SLP322

CYQR;2010-04-16 04:00;CYQR 160400Z 34005KT 15SM SKC 02/M04 A3043 RMK SLP328

CYQR;2010-04-16 05:00;CYQR 160500Z 02004KT 15SM SKC 02/M03 A3044 RMK SLP331

CYQR;2010-04-16 06:00;CYQR 160600Z 05007KT 15SM SKC 01/M04 A3044 RMK SLP333

CYQR;2010-04-16 07:00;CYQR 160700Z 09003KT 15SM SKC 02/M04 A3045 RMK SLP337

CYQR;2010-04-16 08:00;CYQR 160800Z 13004KT 15SM SKC M01/M04 A3046 RMK SLP340

CYQR;2010-04-16 09:00;CYQR 160900Z 16004KT 15SM SKC M02/M05 A3046 RMK SLP340

CYQR;2010-04-16 10:00;CYQR 161000Z 15005KT 15SM SKC M02/M05 A3046 RMK SLP339

CYQR;2010-04-16 11:00;CYQR 161100Z 18006KT 15SM SKC M02/M05 A3048 RMK SLP345

CYQR;2010-04-16 12:00;CYQR 161200Z 19005KT 15SM FEW250 M03/M06 A3048 RMK CI0 FROIN SLP348

CYQR;2010-04-16 13:00;CYQR 161300Z 15004KT 15SM SKC M01/M04 A3049 RMK SLP351

CYQR;2010-04-16 14:00;CYQR 161400Z 14004KT 15SM SKC 02/M02 A3048 RMK SLP348

CYQR;2010-04-16 15:00;CYQR 161500Z 17006KT 15SM SKC 04/M00 A3048 RMK SLP345

CYQR;2010-04-16 16:00;CYQR 161600Z 15007KT 15SM FEW300 07/01 A3047 RMK CI0 SLP343

CYQR;2010-04-16 17:00;CYQR 161700Z 19013G18KT 15SM FEW320 10/M01 A3046 RMK CI1 SLP339

CYQR;2010-04-16 18:00;CYQR 161800Z 19014KT 15SM FEW320 12/01 A3044 RMK CI0 SLP330

CYQR;2010-04-16 19:00;CYQR 161900Z 18017KT 15SM FEW320 13/02 A3041 RMK CI1 SLP321

CYQR;2010-04-16 20:00;CYQR 162000Z 18014G21KT 15SM FEW320 15/02 A3039 RMK CI1 SLP315

CYQR;2010-04-16 21:00;CYQR 162100Z 17016G22KT 15SM FEW320 15/00 A3035 RMK CI0 SLP301

CYQR;2010-04-16 22:00;CYQR 162200Z 16014G21KT 15SM FEW320 15/01 A3032 RMK CI0 SLP290

CYQR;2010-04-16 23:00;CYQR 162300Z 17015G22KT 15SM FEW320 16/M00 A3030 RMK CI0 SLP283

CYQR;2010-04-17 00:00;CYQR 170000Z 16015G21KT 15SM SKC 15/M01 A3028 RMK SLP276

CYQR;2010-04-17 01:00;CYQR 170100Z 16013KT 15SM SKC 14/M00 A3025 RMK SLP268

CYQR;2010-04-17 02:00;CYQR 170200Z 15013KT 15SM SKC 12/M01 A3023 RMK SLP261

CYQR;2010-04-17 03:00;CYQR 170300Z 15014KT 15SM SKC 10/M01 A3022 RMK SLP255

CYQR;2010-04-17 04:00;CYQR 170400Z 15012G17KT 15SM SKC 08/M02 A3022 RMK SLP255

CYQR;2010-04-17 05:00;CYQR 170500Z 15012KT 15SM SKC 06/M02 A3022 RMK SLP254

CYQR;2010-04-17 06:00;CYQR 170600Z 15013KT 15SM SKC 06/M02 A3021 RMK SLP248

CYQR;2010-04-17 07:00;CYQR 170700Z 14010KT 15SM SKC 04/M03 A3021 RMK SLP248

CYQR;2010-04-17 08:00;CYQR 170800Z 15012KT 15SM SKC 04/M03 A3020 RMK SLP244

CYQR;2010-04-17 09:00;CYQR 170900Z 16013KT 15SM SKC 03/M03 A3019 RMK SLP240

CYQR;2010-04-17 10:00;CYQR 171000Z 13010KT 15SM SKC 02/M04 A3018 RMK SLP238

CYQR;2010-04-17 11:00;CYQR 171100Z 12011KT 15SM SKC 00/M04 A3017 RMK SLP234

CYQR;2010-04-17 12:00;CYQR 171200Z 13012KT 15SM FEW250 00/M04 A3015 RMK CI1 SLP229

CYQR;2010-04-17 13:00;CYQR 171300Z 13013KT 15SM FEW250 01/M04 A3014 RMK CI1 SLP226

CYQR;2010-04-17 14:00;CYQR 171400Z 14014KT 15SM FEW250 04/M03 A3014 RMK CI1 SLP226

CYQR;2010-04-17 15:00;CYQR 171500Z 16017KT 15SM FEW250 07/M02 A3014 RMK CI0 SLP223

CYQR;2010-04-17 16:00;CYQR 171600Z 16016KT 15SM FEW250 09/M01 A3012 RMK CI0 SLP218

CYQR;2010-04-17 17:00;CYQR 171700Z 17017KT 15SM FEW250 13/01 A3010 RMK CI0 SLP211

CYQR;2010-04-17 18:00;CYQR 171800Z 17012G24KT 15SM FEW250 15/02 A3008 RMK CI0 SLP202

CYQR;2010-04-17 19:00;CYQR 171900Z 18016KT 15SM FEW250 17/03 A3007 RMK CI0 SLP198

CYQR;2010-04-17 20:00;CYQR 172000Z 18017G22KT 15SM FEW250 20/04 A3005 RMK CI1 SLP192

CYQR;2010-04-17 21:00;CYQR 172100Z 19016G28KT 15SM FEW068 FEW340 20/03 A3003 RMK CF1CI0 SLP184

CYQR;2010-04-17 22:00;CYQR 172200Z 19016G22KT 15SM FEW068 FEW340 20/03 A3002 RMK CF1CI0 SLP181

CYQR;2010-04-17 23:00;CYQR 172300Z 17014G21KT 15SM FEW077 BKN340 20/03 A3002 RMK CF1CI0 SLP180

CYQR;2010-04-18 00:00;CYQR 180000Z 16016KT 15SM FEW080 SCT340 19/02 A3002 RMK CF1CI1 SLP181

CYQR;2010-04-18 01:00;CYQR 180100Z 16011KT 15SM FEW060 FEW150 SCT340 18/02 A3002 RMK CF1AC1CI0 SLP180

CYQR;2010-04-18 02:00;CYQR 180200Z 15010KT 15SM FEW089 SCT280 15/01 A3002 RMK AC1CI0 SLP181

CYQR;2010-04-18 03:00;CYQR 180300Z 14013KT 15SM FEW093 SCT280 13/M00 A3003 RMK AC1CI0 SLP186

CYQR;2010-04-18 04:00;CYQR 180400Z 14013KT 15SM SCT280 10/M01 A3004 RMK CI1 SLP187

CYQR;2010-04-18 05:00;CYQR 180500Z 14012KT 15SM SKC 09/M02 A3004 RMK SLP187

CYQR;2010-04-18 06:00;CYQR 180600Z 14012KT 15SM SKC 08/M02 A3004 RMK SLP184

CYQR;2010-04-18 07:00;CYQR 180700Z 14012KT 15SM SKC 07/M03 A3004 RMK SLP186

CYQR;2010-04-18 08:00;CYQR 180800Z 14012KT 15SM SKC 05/M03 A3004 RMK SLP184

CYQR;2010-04-18 09:00;CYQR 180900Z CCA 14012KT 15SM SKC 04/M03 A3004 RMK SLP184

CYQR;2010-04-18 10:00;CYQR 181000Z 14013KT 15SM SKC 03/M03 A3004 RMK SLP184

CYQR;2010-04-18 11:00;CYQR 181100Z 13012KT 15SM SKC 02/M04 A3004 RMK SLP185

CYQR;2010-04-18 12:00;CYQR 181200Z 13011KT 15SM FEW090 BKN280 03/M03 A3005 RMK AC2CI1 SLP188

CYQR;2010-04-18 13:00;CYQR 181300Z 12012KT 15SM FEW090 FEW280 04/M03 A3005 RMK AC1CI1 SLP191

CYQR;2010-04-18 14:00;CYQR 181400Z 13012KT 15SM FEW080 BKN280 07/M01 A3005 RMK AC1CI1 SLP190

CYQR;2010-04-18 15:00;CYQR 181500Z 14009KT 15SM FEW080 BKN280 10/00 A3005 RMK AC1CI1 SLP188

CYQR;2010-04-18 16:00;CYQR 181600Z 13010KT 15SM FEW080 BKN280 12/01 A3004 RMK AC1CI1 SLP187

CYQR;2010-04-18 17:00;CYQR 181700Z 13011KT 15SM FEW080 BKN280 14/01 A3003 RMK AC1CI1 SLP184

CYQR;2010-04-18 18:00;CYQR 181800Z 14013KT 15SM FEW080 BKN280 16/01 A3002 RMK AC1CI1 SLP177

CYQR;2010-04-18 19:00;CYQR 181900Z 12015KT 15SM FEW080 BKN280 19/02 A3000 RMK AC1CI1 SLP173

CYQR;2010-04-18 20:00;CYQR 182000Z 15014G22KT 15SM FEW080 BKN280 20/00 A3000 RMK AC1CI1 SLP170

CYQR;2010-04-18 21:00;CYQR 182100Z 17014G21KT 15SM FEW100 BKN280 21/03 A2999 RMK AC1CI1 SLP167

CYQR;2010-04-18 22:00;CYQR 182200Z 15012G17KT 15SM FEW068 FEW130 FEW170 BKN330 21/04 A2997 RMK CU1AC1ACC1CI1 SLP162

CYQR;2010-04-18 23:00;CYQR 182300Z 14015KT 15SM FEW064 FEW130 BKN330 21/05 A2997 RMK CU1AC1CI1 SLP160

CYQR;2010-04-19 00:00;CYQR 190000Z 14013KT 15SM BKN062 BKN130 BKN330 20/04 A2997 RMK CU6AC1CI1 SLP162

CYQR;2010-04-19 01:00;CYQR 190100Z 13012G20KT 15SM SCT074 BKN280 19/03 A2997 RMK AC4CI2 ACC ASOCTD SLP162

CYQR;2010-04-19 02:00;CYQR 190200Z 13011KT 15SM SCT077 BKN290 16/03 A2998 RMK AC3CI2 SLP165

CYQR;2010-04-19 03:00;CYQR 190300Z 12009KT 15SM FEW095 BKN290 14/03 A3000 RMK AC2CI2 SLP170

CYQR;2010-04-19 04:00;CYQR 190400Z 12013KT 15SM FEW095 BKN280 13/01 A3000 RMK AC2CI1 SLP170

CYQR;2010-04-19 05:00;CYQR 190500Z 12013KT 15SM BKN260 11/02 A3001 RMK CI2 SLP176

CYQR;2010-04-19 06:00;CYQR 190600Z 13013G18KT 15SM SCT260 10/01 A3002 RMK CI1 SLP177

CYQR;2010-04-19 07:00;CYQR 190700Z 13011KT 15SM SCT270 09/01 A3003 RMK CI1 SLP180

CYQR;2010-04-19 08:00;CYQR 190800Z 13013KT 15SM FEW100 SCT270 07/00 A3003 RMK AC2CI1 SLP180

CYQR;2010-04-19 09:00;CYQR 190900Z 12011KT 15SM FEW100 SCT270 07/M01 A3004 RMK AC2CI1 SLP181

CYQR;2010-04-19 10:00;CYQR 191000Z 12010G16KT 15SM BKN270 07/M01 A3004 RMK CI1 SLP182

CYQR;2010-04-19 11:00;CYQR 191100Z 12013KT 15SM FEW093 BKN270 07/M02 A3005 RMK AC1CI1 SLP185

CYQR;2010-04-19 12:00;CYQR 191200Z CCA 12010G15KT 15SM FEW093 SCT270 06/M01 A3006 RMK AC1CI1 TR AC SLP191

CYQR;2010-04-19 13:00;CYQR 191300Z 12012KT 15SM FEW270 06/M01 A3008 RMK CI1 SLP196

CYQR;2010-04-19 14:00;CYQR 191400Z 13009KT 15SM FEW270 09/01 A3009 RMK CI1 SLP199

CYQR;2010-04-19 15:00;CYQR 191500Z 14011KT 15SM FEW270 11/02 A3010 RMK CI1 SLP203

CYQR;2010-04-19 16:00;CYQR 191600Z 13011KT 15SM FEW290 16/04 A3010 RMK CI1 SLP203

CYQR;2010-04-19 17:00;CYQR 191700Z 15013G19KT 15SM FEW300 18/03 A3010 RMK CI1 SLP203

CYQR;2010-04-19 18:00;CYQR 191800Z 15010G21KT 15SM FEW300 18/02 A3009 RMK CI1 SLP198

CYQR;2010-04-19 19:00;CYQR 191900Z 15015KT 15SM FEW300 20/01 A3008 RMK CI1 SLP197

CYQR;2010-04-19 20:00;CYQR 192000Z 15014G22KT 15SM FEW300 21/00 A3008 RMK CI1 SLP197

CYQR;2010-04-19 21:00;CYQR 192100Z 13016KT 15SM FEW300 21/M00 A3008 RMK CI1 SLP195

CYQR;2010-04-19 22:00;CYQR 192200Z 15014KT 15SM SKC 21/M03 A3007 RMK SLP192

CYQR;2010-04-19 23:00;CYQR 192300Z 14014KT 15SM SKC 21/M02 A3006 RMK SLP190

CYQR;2010-04-20 00:00;CYQR 200000Z 13012KT 15SM SKC 20/M03 A3006 RMK SLP190

CYQR;2010-04-20 01:00;CYQR 200100Z 14013KT 15SM SKC 19/M02 A3006 RMK SLP192

CYQR;2010-04-20 02:00;CYQR 200200Z 15007KT 15SM SKC 16/M02 A3008 RMK SLP197

CYQR;2010-04-20 03:00;CYQR 200300Z 13008KT 15SM SKC 11/M03 A3009 RMK SLP203

CYQR;2010-04-20 04:00;CYQR 200400Z 11008KT 15SM SKC 11/M02 A3009 RMK SLP204

CYQR;2010-04-20 05:00;CYQR 200500Z 11008KT 15SM SKC 10/M03 A3009 RMK SLP203

CYQR;2010-04-20 06:00;CYQR 200600Z 12009KT 15SM SKC 09/M03 A3010 RMK SLP202

CYQR;2010-04-20 07:00;CYQR 200700Z 12009KT 15SM SKC 08/M03 A3010 RMK SLP203

CYQR;2010-04-20 08:00;CYQR 200800Z 14009KT 15SM SKC 06/M03 A3010 RMK SLP204

CYQR;2010-04-20 09:00;CYQR 200900Z 10009KT 15SM SKC 05/M03 A3010 RMK SLP205

CYQR;2010-04-20 10:00;CYQR 201000Z 10008KT 15SM SKC 06/M04 A3011 RMK SLP207

CYQR;2010-04-20 11:00;CYQR 201100Z 11008KT 15SM SKC 05/M04 A3011 RMK SLP208

CYQR;2010-04-20 12:00;CYQR 201200Z 11009KT 15SM SKC 05/M03 A3011 RMK SLP209

CYQR;2010-04-20 13:00;CYQR 201300Z 12010KT 15SM SKC 08/M02 A3013 RMK HZ SLP213

CYQR;2010-04-20 14:00;CYQR 201400Z 13009KT 15SM SKC 10/M01 A3013 RMK SLP213

CYQR;2010-04-20 15:00;CYQR 201500Z 13010KT 15SM SKC 13/01 A3012 RMK SLP213

CYQR;2010-04-20 16:00;CYQR 201600Z 14009KT 15SM SKC 15/01 A3012 RMK SLP212

CYQR;2010-04-20 17:00;CYQR 201700Z 13008KT 15SM SKC 18/01 A3011 RMK SLP210

CYQR;2010-04-20 18:00;CYQR 201800Z 17007KT 15SM SKC 19/M00 A3010 RMK SLP204

CYQR;2010-04-20 19:00;CYQR 201900Z 12011G16KT 15SM FEW080 20/M01 A3009 RMK CF1 SLP200

CYQR;2010-04-20 20:00;CYQR 202000Z 15010G21KT 15SM FEW080 20/M02 A3007 RMK CF1 SLP195

CYQR;2010-04-20 21:00;CYQR 202100Z 10005G16KT 15SM FEW080 FEW330 21/M02 A3005 RMK CU1CI0 CONTRA SLP189

CYQR;2010-04-20 22:00;CYQR 202200Z 13008G17KT 15SM FEW080 FEW300 21/M02 A3003 RMK CF1CI0 SLP182

CYQR;2010-04-20 23:00;CYQR 202300Z 14007KT 15SM FEW080 21/M02 A3002 RMK CF1 SLP178

CYQR;2010-04-21 00:00;CYQR 210000Z 16009KT 15SM FEW080 21/M02 A3001 RMK CF1 SLP173

CYQR;2010-04-21 01:00;CYQR 210100Z 11009KT 15SM SKC 19/M01 A2999 RMK SLP168

CYQR;2010-04-21 02:00;CYQR 210200Z 11009KT 15SM SKC 16/M01 A2999 RMK SLP168

CYQR;2010-04-21 03:00;CYQR 210300Z 10011KT 15SM SKC 15/M01 A2999 RMK SLP166

CYQR;2010-04-21 05:00;CYQR 210500Z 12017G24KT 15SM SKC 11/M02 A3000 RMK SLP168

CYQR;2010-04-21 06:00;CYQR 210600Z 12015KT 15SM SKC 10/M02 A3001 RMK SLP172

CYQR;2010-04-21 07:00;CYQR 210700Z 14014KT 15SM SKC 08/M02 A3001 RMK SLP172

CYQR;2010-04-21 08:00;CYQR 210800Z 14014KT 15SM SKC 07/M03 A3002 RMK SLP174

CYQR;2010-04-21 09:00;CYQR 210900Z 14015KT 15SM SKC 06/M04 A3000 RMK SLP171

CYQR;2010-04-21 10:00;CYQR 211000Z 13013KT 15SM SKC 04/M04 A3001 RMK SLP172

CYQR;2010-04-21 11:00;CYQR 211100Z 14011KT 15SM SKC 03/M05 A3000 RMK SLP171

CYQR;2010-04-21 12:00;CYQR 211200Z 13011KT 15SM SKC 02/M06 A3000 RMK SLP171

CYQR;2010-04-21 13:00;CYQR 211300Z 14013KT 15SM FEW300 04/M06 A3000 RMK CI1 SLP172

CYQR;2010-04-21 14:00;CYQR 211400Z 14012KT 15SM FEW300 06/M04 A2999 RMK CI1 CC ASOCTD SLP169

CYQR;2010-04-21 15:00;CYQR 211500Z 14011KT 15SM FEW300 10/M02 A2998 RMK CI0 SLP164

CYQR;2010-04-21 16:00;CYQR 211600Z 14010G15KT 15SM FEW300 13/M02 A2997 RMK CI0 SLP160

CYQR;2010-04-21 17:00;CYQR 211700Z 16010KT 15SM FEW300 16/M00 A2995 RMK CI0 SLP155

CYQR;2010-04-21 18:00;CYQR 211800Z 17011G17KT 15SM SCT300 18/00 A2993 RMK CI0 SLP146

CYQR;2010-04-21 19:00;CYQR 211900Z 16010G15KT 15SM BKN300 18/M01 A2991 RMK CI2 SLP138

CYQR;2010-04-21 20:00;CYQR 212000Z 16010KT 15SM BKN300 19/M00 A2989 RMK CI1 CONTRAILS SLP132

CYQR;2010-04-21 21:00;CYQR 212100Z 13010KT 15SM BKN300 19/M01 A2987 RMK CI1 SLP125

CYQR;2010-04-21 22:00;CYQR 212200Z 10005KT 15SM BKN300 19/M02 A2985 RMK CI1 SLP118

CYQR;2010-04-21 23:00;CYQR 212300Z 13007KT 15SM FEW250 19/M02 A2983 RMK CI0 SLP112

CYQR;2010-04-22 00:00;CYQR 220000Z 17005KT 15SM FEW250 19/M03 A2981 RMK CI0 SLP109

CYQR;2010-04-22 01:00;CYQR 220100Z 11006KT 15SM FEW300 18/M03 A2981 RMK CI0 SLP106

CYQR;2010-04-22 02:00;CYQR 220200Z 12010KT 15SM FEW300 14/M02 A2980 RMK CI0 SLP103

CYQR;2010-04-22 03:00;CYQR 220300Z 12012KT 15SM SKC 13/M03 A2981 RMK SLP105

CYQR;2010-04-22 04:00;CYQR 220400Z 12011KT 15SM SKC 10/M03 A2981 RMK SLP106

CYQR;2010-04-22 05:00;CYQR 220500Z 12012KT 15SM SKC 09/M04 A2980 RMK SLP103

CYQR;2010-04-22 06:00;CYQR 220600Z 12010KT 15SM SKC 08/M05 A2979 RMK SLP099

CYQR;2010-04-22 07:00;CYQR 220700Z 14008KT 15SM SKC 06/M05 A2979 RMK SLP098

CYQR;2010-04-22 08:00;CYQR 220800Z 13010KT 15SM SKC 05/M05 A2980 RMK SLP100

CYQR;2010-04-22 09:00;CYQR 220900Z 15009KT 15SM SKC 04/M05 A2979 RMK SLP098

CYQR;2010-04-22 10:00;CYQR 221000Z 16008KT 15SM SKC 03/M05 A2978 RMK SLP095

CYQR;2010-04-22 11:00;CYQR 221100Z 13009KT 15SM SKC 01/M06 A2977 RMK SLP093

CYQR;2010-04-22 12:00;CYQR 221200Z 12008KT 15SM SKC 01/M06 A2976 RMK SLP092

CYQR;2010-04-22 13:00;CYQR 221300Z 12009KT 15SM SKC 04/M05 A2976 RMK SLP090

CYQR;2010-04-22 14:00;CYQR 221400Z 13009KT 15SM SKC 07/M03 A2975 RMK SLP088

CYQR;2010-04-22 15:00;CYQR 221500Z 14007KT 15SM SKC 12/M01 A2974 RMK SLP083

CYQR;2010-04-22 16:00;CYQR 221600Z 14011KT 15SM SKC 16/M02 A2973 RMK SLP079

CYQR;2010-04-22 17:00;CYQR 221700Z 13010KT 15SM FEW260 17/M04 A2971 RMK CI1 SLP074

CYQR;2010-04-22 18:00;CYQR 221800Z 11006KT 15SM FEW260 19/M03 A2970 RMK CI1 SLP066

CYQR;2010-04-22 19:00;CYQR 221900Z 13009KT 15SM FEW260 20/M02 A2968 RMK CI1 SLP060

CYQR;2010-04-22 20:00;CYQR 222000Z 17010G18KT 15SM FEW280 20/M02 A2966 RMK CI0 SLP054

CYQR;2010-04-22 21:00;CYQR 222100Z 15006KT 15SM FEW280 21/M02 A2964 RMK CI0 SLP048

CYQR;2010-04-22 22:00;CYQR 222200Z 18009KT 15SM FEW280 21/M02 A2963 RMK CI0 SLP043

CYQR;2010-04-22 23:00;CYQR 222300Z 07003KT 15SM FEW280 22/M00 A2961 RMK CI1 SLP038

CYQR;2010-04-23 00:00;CYQR 230000Z 13006KT 15SM FEW280 21/M01 A2960 RMK CI1 SLP034

CYQR;2010-04-23 01:00;CYQR 230100Z 12006KT 15SM FEW300 21/M00 A2959 RMK CI1 SLP032

CYQR;2010-04-23 02:00;CYQR 230200Z 12007KT 15SM FEW300 15/M00 A2958 RMK CI1 SLP030

CYQR;2010-04-23 03:00;CYQR 230300Z 12009KT 15SM FEW300 13/M01 A2960 RMK CI1 SLP032

CYQR;2010-04-23 04:00;CYQR 230400Z 12010KT 15SM SKC 12/M00 A2959 RMK SLP031

CYQR;2010-04-23 05:00;CYQR 230500Z 12010KT 15SM SKC 11/M01 A2959 RMK SLP031

CYQR;2010-04-23 06:00;CYQR 230600Z 14015KT 15SM SKC 11/M00 A2958 RMK SLP024

CYQR;2010-04-23 07:00;CYQR 230700Z 14013KT 15SM SKC 10/00 A2958 RMK SLP022

CYQR;2010-04-23 08:00;CYQR 230800Z 13013KT 15SM SKC 09/00 A2957 RMK SLP019

CYQR;2010-04-23 09:00;CYQR 230900Z 14014KT 15SM SKC 08/01 A2956 RMK SLP015

CYQR;2010-04-23 10:00;CYQR 231000Z 14011KT 15SM SKC 07/01 A2956 RMK SLP015

CYQR;2010-04-23 11:00;CYQR 231100Z 13012KT 15SM SKC 06/01 A2955 RMK SLP014

CYQR;2010-04-23 12:00;CYQR 231200Z 13011KT 15SM FEW030 05/01 A2955 RMK CU1 SLP015

CYQR;2010-04-23 13:00;CYQR 231300Z 14013KT 15SM FEW030 FEW090 07/02 A2955 RMK CU1AC1 SLP016

CYQR;2010-04-23 14:00;CYQR 231400Z 14013KT 15SM -SHRA BKN020 BKN061 BKN330 09/05 A2955 RMK CU5SC1CI1 SLP014

CYQR;2010-04-23 14:30;CYQR 231430Z 17011KT 15SM BKN060 BKN080 BKN300 12/ RMK CU5AC2CI0

CYQR;2010-04-23 14:45;CYQR 231445Z 18017KT 15SM -SHRA BKN060 BKN080 OVC300 14/ RMK CU6AC2CI0

CYQR;2010-04-23 15:00;CYQR 231500Z 18016KT 10SM -SHRA BKN059 BKN077 OVC300 14/09 A2955 RMK CU6AC2CI0 SLP013

CYQR;2010-04-23 16:00;CYQR 231600Z 20013KT 15SM -SHRA BKN028 BKN045 OVC069 14/11 A2955 RMK CU6SC1AC1 SLP015

CYQR;2010-04-23 17:00;CYQR 231700Z 27014KT 15SM -SHRA FEW018 BKN024 OVC043 12/07 A2957 RMK SC1CU7SC1 -SHRA INTMT SLP021

CYQR;2010-04-23 18:00;CYQR 231800Z 28017KT 15SM -SHRA FEW012 OVC023 08/05 A2960 RMK CF1SC7 -SHRA INTMT SLP035

CYQR;2010-04-23 18:27;CYQR 231827Z 29020KT 15SM FEW012 OVC026 08/ RMK CU1SC7

CYQR;2010-04-23 18:42;CYQR 231842Z 28018KT 15SM -SHRA FEW012 OVC026 08/ RMK CU2SC6

CYQR;2010-04-23 19:00;CYQR 231900Z 28017KT 15SM -SHRA SCT015 OVC028 09/06 A2961 RMK CU2SC6 SLP038

CYQR;2010-04-23 19:29;CYQR 231929Z 28014KT 12SM -SHRA BKN013 OVC032 09/ RMK SC6CU2

CYQR;2010-04-23 20:00;CYQR 232000Z 28016G22KT 10SM -SHRA BKN011 OVC040 09/07 A2962 RMK SC7CU1 SLP042

CYQR;2010-04-23 20:22;CYQR 232022Z 28019G24KT 8SM -SHRA BKN009 OVC049 08/ RMK SC7CU1

CYQR;2010-04-23 20:35;CYQR 232035Z 28017G22KT 6SM -SHRA BKN012 OVC059 08/ RMK SC7CU1

CYQR;2010-04-23 21:00;CYQR 232100Z 28019G24KT 10SM -SHRA BKN013 OVC028 08/06 A2964 RMK SC6CU2 SLP052

CYQR;2010-04-23 22:00;CYQR 232200Z 28021KT 10SM -SHRA BKN013 OVC067 07/05 A2965 RMK SC6CU2 SLP057

CYQR;2010-04-23 22:32;CYQR 232232Z 28016G21KT 12SM -SHRA BKN015 OVC070 07/ RMK SC7CU1

CYQR;2010-04-23 23:00;CYQR 232300Z 29018KT 15SM -SHRA BKN019 OVC090 07/04 A2968 RMK SC6AC2 SLP066

CYQR;2010-04-23 23:46;CYQR 232346Z 30017G22KT 15SM SCT023 BKN080 BKN320 08/ RMK SC3AC4CI1

CYQR;2010-04-24 00:00;CYQR 240000Z 30014G21KT 15SM FEW023 BKN080 BKN320 08/04 A2970 RMK SC2AC6CI1 SLP074

CYQR;2010-04-24 01:00;CYQR 240100Z 31016G24KT 15SM BKN036 BKN095 OVC300 08/03 A2970 RMK SC5AC2CI1 SLP076

CYQR;2010-04-24 02:00;CYQR 240200Z 30010KT 15SM BKN039 BKN095 BKN300 07/03 A2974 RMK SC5AC1CI1 SLP087

CYQR;2010-04-24 03:00;CYQR 240300Z 28004KT 15SM FEW039 FEW089 BKN300 05/01 A2976 RMK SC2AC1CI1 SLP093

CYQR;2010-04-24 04:00;CYQR 240400Z 27007KT 15SM FEW040 FEW090 BKN300 03/M00 A2976 RMK SC2AC1CI1 SLP093

CYQR;2010-04-24 05:00;CYQR 240500Z 25007KT 15SM FEW040 FEW090 BKN300 01/M02 A2977 RMK SC2AC1CI1 SLP096

CYQR;2010-04-24 06:00;CYQR 240600Z 25007KT 15SM FEW040 FEW090 BKN300 M00/M03 A2977 RMK SC2AC1CI1 SLP104

CYQR;2010-04-24 07:00;CYQR 240700Z 21007KT 15SM FEW040 FEW090 SCT280 M00/M03 A2978 RMK SC1AC1CI1 SLP106

CYQR;2010-04-24 08:00;CYQR 240800Z 24006KT 15SM FEW040 FEW090 SCT280 M01/M04 A2978 RMK SC1AC1CI1 SLP107

CYQR;2010-04-24 09:00;CYQR 240900Z 24008KT 15SM FEW090 SCT280 M01/M03 A2978 RMK AC1CI1 SLP106

CYQR;2010-04-24 10:00;CYQR 241000Z 24009KT 15SM FEW090 SCT280 M01/M04 A2978 RMK AC1CI1 SLP106

CYQR;2010-04-24 11:00;CYQR 241100Z 23012KT 15SM SKC M00/M04 A2978 RMK SLP106

CYQR;2010-04-24 12:00;CYQR 241200Z 25011KT 15SM SKC 00/M03 A2978 RMK SLP106

CYQR;2010-04-24 13:00;CYQR 241300Z 26007KT 15SM SKC 02/M01 A2980 RMK SLP112

CYQR;2010-04-24 14:00;CYQR 241400Z 28008KT 15SM SKC 04/M00 A2980 RMK SLP113

CYQR;2010-04-24 15:00;CYQR 241500Z 27009KT 15SM FEW280 07/01 A2980 RMK CI1 SLP110

CYQR;2010-04-24 16:00;CYQR 241600Z 27009KT 15SM FEW300 10/02 A2980 RMK CI1 SLP111

CYQR;2010-04-24 17:00;CYQR 241700Z 27010KT 15SM FEW046 FEW160 FEW320 13/02 A2979 RMK CF1AC1CI0 SLP108

CYQR;2010-04-24 18:00;CYQR 241800Z 28010G18KT 15SM FEW056 FEW320 16/02 A2977 RMK CU1CI1 SLP097

CYQR;2010-04-24 19:00;CYQR 241900Z 25017KT 15SM BKN073 BKN320 17/01 A2974 RMK CU5CI1 SLP089

CYQR;2010-04-24 20:00;CYQR 242000Z 26013G20KT 15SM BKN073 BKN320 17/01 A2972 RMK CU6CI1 SLP082

CYQR;2010-04-24 21:00;CYQR 242100Z 26014KT 15SM SCT080 BKN320 18/00 A2971 RMK CU3CI3 SLP077

CYQR;2010-04-24 22:00;CYQR 242200Z 26013G18KT 15SM FEW080 FEW160 BKN320 18/M02 A2971 RMK CU2ACC1CI4 TR ACC SLP075

CYQR;2010-04-24 23:00;CYQR 242300Z 26006KT 15SM FEW080 BKN320 18/M02 A2971 RMK CU2CI2 SLP076

CYQR;2010-04-25 00:00;CYQR 250000Z 02010KT 15SM FEW064 SCT320 17/01 A2971 RMK CU2CI0 SLP078

CYQR;2010-04-25 01:00;CYQR 250100Z 01010KT 15SM FEW064 FEW320 16/00 A2972 RMK CU1CI1 SLP079

CYQR;2010-04-25 02:00;CYQR 250200Z 03010KT 15SM FEW087 FEW320 12/M01 A2973 RMK AC2CI0 SLP084

CYQR;2010-04-25 03:00;CYQR 250300Z 05013KT 15SM FEW089 FEW320 10/M01 A2974 RMK AC2CI0 SLP087

CYQR;2010-04-25 04:00;CYQR 250400Z 05014KT 15SM FEW089 FEW320 09/M00 A2975 RMK AC2CI0 SLP088

CYQR;2010-04-25 05:00;CYQR 250500Z 06015KT 15SM FEW090 FEW320 08/M00 A2974 RMK AC2CI0 SLP087

CYQR;2010-04-25 06:00;CYQR 250600Z 33009KT 15SM SCT089 BKN320 07/M00 A2979 RMK AC4CI1 SLP100

CYQR;2010-04-25 07:00;CYQR 250700Z 07007KT 15SM SCT089 BKN300 07/00 A2978 RMK AC4CI1 SLP096

CYQR;2010-04-25 08:00;CYQR 250800Z 34007KT 15SM SCT089 BKN300 06/00 A2979 RMK AC4CI1 SLP100

CYQR;2010-04-25 09:00;CYQR 250900Z 36013KT 15SM BKN078 05/M00 A2979 RMK AC5 SLP101

CYQR;2010-04-25 10:00;CYQR 251000Z 36011G16KT 15SM BKN075 03/M01 A2982 RMK AC5 SLP109

CYQR;2010-04-25 11:00;CYQR 251100Z 01012KT 15SM BKN075 03/M01 A2983 RMK AC5 SLP114

CYQR;2010-04-25 12:00;CYQR 251200Z 03010KT 15SM BKN047 BKN088 03/M01 A2984 RMK SC5AC2 SLP120

CYQR;2010-04-25 13:00;CYQR 251300Z 01009KT 15SM BKN047 BKN092 OVC300 03/M02 A2988 RMK SC5AC2CI2 SLP133

CYQR;2010-04-25 14:00;CYQR 251400Z 03011KT 15SM BKN049 BKN120 OVC320 03/M02 A2990 RMK SC7AC1CI1 SLP138

CYQR;2010-04-25 15:00;CYQR 251500Z 36012KT 15SM SCT019 BKN054 BKN120 OVC300 04/M02 A2992 RMK SC3SC2AC1CI2 SLP151

CYQR;2010-04-25 16:00;CYQR 251600Z 36013G18KT 15SM BKN019 OVC054 04/M02 A2994 RMK SC7SC1 SLP156

CYQR;2010-04-25 17:00;CYQR 251700Z 34015KT 15SM BKN017 OVC050 03/M02 A2996 RMK SC7SC1 SLP165

CYQR;2010-04-25 18:00;CYQR 251800Z 35016KT 15SM OVC017 02/M03 A2998 RMK SC8 SLP175

CYQR;2010-04-25 19:00;CYQR 251900Z 35020KT 15SM OVC017 02/M04 A3000 RMK SC8 SLP182

CYQR;2010-04-25 20:00;CYQR 252000Z 35016G22KT 15SM OVC015 02/M04 A3002 RMK SC8 SLP188

CYQR;2010-04-25 21:00;CYQR 252100Z 34018KT 15SM BKN020 OVC066 03/M04 A3005 RMK SC7AC1 SLP198

CYQR;2010-04-25 22:00;CYQR 252200Z 36017KT 15SM OVC022 03/M04 A3006 RMK SC8 SLP203

CYQR;2010-04-25 23:00;CYQR 252300Z 35020KT 15SM OVC028 03/M05 A3007 RMK SC8 SLP206

CYQR;2010-04-26 00:00;CYQR 260000Z 35018KT 15SM BKN030 OVC067 03/M05 A3008 RMK SC7AC1 SLP210

CYQR;2010-04-26 01:00;CYQR 260100Z 35015KT 15SM BKN028 02/M05 A3009 RMK SC7 SLP214

CYQR;2010-04-26 02:00;CYQR 260200Z 34014G19KT 15SM OVC028 02/M05 A3010 RMK SC8 SLP217

CYQR;2010-04-26 03:00;CYQR 260300Z 34014KT 15SM OVC026 01/M05 A3011 RMK SC8 SLP221

CYQR;2010-04-26 04:00;CYQR 260400Z 35012KT 15SM BKN024 01/M05 A3012 RMK SC7 SLP224

CYQR;2010-04-26 05:00;CYQR 260500Z 35014KT 15SM OVC024 01/M05 A3012 RMK SC8 SLP224

CYQR;2010-04-26 05:50;CYQR 260550Z 36012KT 15SM -SHSN BKN018 01/ RMK SC6

CYQR;2010-04-26 06:00;CYQR 260600Z 36010KT 15SM BKN018 01/M04 A3012 RMK SC6 SLP228

CYQR;2010-04-26 07:00;CYQR 260700Z 35009KT 15SM BKN018 OVC045 M00/M04 A3013 RMK SC5SC2 SLP230

CYQR;2010-04-26 08:00;CYQR 260800Z 35013KT 15SM BKN016 OVC035 00/M04 A3013 RMK SC7SC1 SLP231

CYQR;2010-04-26 09:00;CYQR 260900Z 35013KT 15SM FEW014 OVC030 00/M04 A3013 RMK SC1SC7 SLP229

CYQR;2010-04-26 10:00;CYQR 261000Z 35015KT 15SM FEW013 OVC030 00/M03 A3013 RMK SC2SC6 SLP230

CYQR;2010-04-26 10:06;CYQR 261006Z 35014KT 15SM -SN FEW013 OVC030 00/ RMK SC2SC6

CYQR;2010-04-26 11:00;CYQR 261100Z 35012G17KT 10SM -SN FEW013 OVC036 00/M03 A3014 RMK SC2SC6 SLP232

CYQR;2010-04-26 11:33;CYQR 261133Z 35013KT 2 1/2SM -SN SCT008 OVC018 M00/ RMK SF3SC5

CYQR;2010-04-26 12:00;CYQR 261200Z 34014KT 2 1/2SM -SN OVC009 M00/M03 A3015 RMK SN2SC6 SLP236

CYQR;2010-04-26 12:23;CYQR 261223Z 34015KT 3SM -SN OVC006 M00/ RMK SF8

CYQR;2010-04-26 12:41;CYQR 261241Z 34014KT 2SM -SN OVC006 M00/ RMK SF8

CYQR;2010-04-26 13:00;CYQR 261300Z 34015KT 2SM -SN OVC006 M00/M02 A3015 RMK SF8 SLP239

CYQR;2010-04-26 14:00;CYQR 261400Z 35016KT 3SM -SN OVC008 00/M02 A3016 RMK SF7 VIS VRB 2-4 SLP240

CYQR;2010-04-26 14:36;CYQR 261436Z 36015G22KT 10SM OVC009 01/ RMK SC8

CYQR;2010-04-26 14:42;CYQR 261442Z 36017G22KT 12SM OVC010 01/ RMK SC8

CYQR;2010-04-26 15:00;CYQR 261500Z 35017KT 12SM BKN012 01/M02 A3016 RMK SC7 SLP240

CYQR;2010-04-26 16:00;CYQR 261600Z 36017KT 15SM OVC014 02/M02 A3016 RMK SC8 SLP241

CYQR;2010-04-26 17:00;CYQR 261700Z 36015KT 15SM OVC016 03/M02 A3015 RMK SC8 SLP239

CYQR;2010-04-26 18:00;CYQR 261800Z 35014G19KT 15SM OVC020 03/M02 A3015 RMK SC8 SLP237

CYQR;2010-04-26 19:00;CYQR 261900Z 36012G19KT 15SM OVC020 04/M02 A3015 RMK SC8 SLP235

CYQR;2010-04-26 20:00;CYQR 262000Z 35014KT 15SM OVC022 04/M03 A3014 RMK SC8 SLP234

CYQR;2010-04-26 21:00;CYQR 262100Z 35013KT 15SM BKN022 OVC041 04/M02 A3014 RMK SC7SC1 SLP233

CYQR;2010-04-26 22:00;CYQR 262200Z 01011G17KT 15SM -RA OVC024 04/M02 A3014 RMK SC8 SLP233

CYQR;2010-04-26 23:00;CYQR 262300Z 36011KT 15SM -RA BKN019 OVC043 05/M01 A3012 RMK SC6SC2 SLP228

CYQR;2010-04-26 23:47;CYQR 262347Z 36013KT 15SM BKN019 BKN048 BKN270 04/ RMK SC5SC1CI2

CYQR;2010-04-27 00:00;CYQR 270000Z 01011G16KT 15SM BKN019 BKN046 BKN160 BKN270 04/M01 A3012 RMK SC5SC1AC1CI2 SLP225

CYQR;2010-04-27 01:00;CYQR 270100Z 01011KT 15SM FEW021 SCT046 BKN270 04/M02 A3011 RMK SC1SC2CI0 SLP224

CYQR;2010-04-27 02:00;CYQR 270200Z 02009KT 15SM FEW020 FEW044 BKN270 03/M02 A3010 RMK SC1SC1CI1 SLP221

CYQR;2010-04-27 03:00;CYQR 270300Z 36006KT 15SM FEW045 01/M03 A3011 RMK SC1 SLP224

CYQR;2010-04-27 04:00;CYQR 270400Z 35007KT 15SM FEW086 M02/M04 A3010 RMK AC1 SLP223

CYQR;2010-04-27 05:00;CYQR 270500Z 34005KT 15SM FEW086 SCT350 M02/M05 A3009 RMK AC1CI1 SLP217

CYQR;2010-04-27 06:00;CYQR 270600Z 36003KT 15SM FEW140 BKN350 M03/M05 A3008 RMK AC1CI1 SLP216

CYQR;2010-04-27 07:00;CYQR 270700Z 33003KT 15SM FEW140 SCT350 M04/M06 A3007 RMK AC1CI1 SLP212

CYQR;2010-04-27 08:00;CYQR 270800Z 35002KT 15SM MIFG FEW370 M05/M07 A3004 RMK CI1 SLP201

CYQR;2010-04-27 09:00;CYQR 270900Z 34003KT 15SM MIFG FEW370 M05/M08 A3002 RMK CI1 SLP196

CYQR;2010-04-27 10:00;CYQR 271000Z 29003KT 12SM R13/3000VP6000FT/D BCFG FEW001 M06/M08 A3000 RMK SF2 VIS W 1 SLP191

CYQR;2010-04-27 10:02;CYQR 271002Z 31003KT 1SM R13/3000V5500FT/U BR SKC M06/ RMK FG2

CYQR;2010-04-27 10:11;CYQR 271011Z 31003KT 2SM R13/3000V5500FT/D BR FEW001 M06/ RMK SF2

CYQR;2010-04-27 10:30;CYQR 271030Z 27007KT 1SM R13/2800V5000FT/N BR SKC M07/ RMK FG3

CYQR;2010-04-27 10:38;CYQR 271038Z 27006KT 3/4SM R13/3000V4500FT/N BR SKC M06/ RMK FG5

CYQR;2010-04-27 10:45;CYQR 271045Z 27005KT 3/8SM R13/2200FT/N FZFG SKC M06/ RMK FG6

CYQR;2010-04-27 11:00;CYQR 271100Z 27004KT 3/8SM R13/2000FT/N FZFG SKC M05/M08 A3000 RMK FG6 SLP191

CYQR;2010-04-27 12:00;CYQR 271200Z 00000KT 3/8SM R13/3500FT/N FZFG SKC M05/M08 A2998 RMK FG6 SLP180

CYQR;2010-04-27 12:07;CYQR 271207Z 00000KT 1/4SM R13/2600FT/N FZFG VV001 M05/ RMK FG8

CYQR;2010-04-27 12:38;CYQR 271238Z 00000KT 1/8SM R13/1600FT/N FZFG VV001 M04/ RMK FG8

CYQR;2010-04-27 13:00;CYQR 271300Z 00000KT 1/4SM R13/1200FT/N FZFG SKC M03/M05 A2997 RMK FG7 SLP177

CYQR;2010-04-27 13:04;CYQR 271304Z 00000KT 1/8SM R13/1200FT/N FZFG VV001 M03/ RMK FG8

CYQR;2010-04-27 13:36;CYQR 271336Z 00000KT 3/8SM R13/2600FT/N FZFG SKC RMK FG6 VIS VRB 1/4-1/2

CYQR;2010-04-27 14:00;CYQR 271400Z 18002KT 1SM R13/4000VP6000FT/U BR SKC M01/M02 A2995 RMK FG5 VIS NE-SE 1/2 SLP172

CYQR;2010-04-27 14:16;CYQR 271416Z 14003KT 2SM R13/4000VP6000FT/U BR BKN001 M00/ RMK SF5 VIS VRB 1-3

CYQR;2010-04-27 14:25;CYQR 271425Z 14002KT 8SM FEW002 00/ RMK SF1 BR

CYQR;2010-04-27 15:00;CYQR 271500Z 13005KT 15SM FEW002 FEW300 03/00 A2993 RMK SF1CI1 CONTRAILS SLP161

CYQR;2010-04-27 16:00;CYQR 271600Z 15005KT 15SM FEW010 SCT300 06/M01 A2992 RMK SC1CI1 SLP158

CYQR;2010-04-27 17:00;CYQR 271700Z 15008KT 15SM FEW310 07/M01 A2987 RMK CI1 SLP143

CYQR;2010-04-27 18:00;CYQR 271800Z 17006G15KT 15SM FEW040 SCT310 09/M01 A2984 RMK CU1CI2 SLP129

CYQR;2010-04-27 19:00;CYQR 271900Z 17007G17KT 15SM FEW048 BKN310 11/M01 A2981 RMK CU1CI1 SLP120

CYQR;2010-04-27 20:00;CYQR 272000Z 14012G19KT 15SM FEW052 FEW120 FEW320 13/M00 A2977 RMK CU1AC1CI1 SLP107

CYQR;2010-04-27 21:00;CYQR 272100Z 14017G24KT 15SM FEW056 SCT320 14/M00 A2974 RMK CU1CI2 SLP091

CYQR;2010-04-27 22:00;CYQR 272200Z 15017KT 15SM FEW060 BKN300 15/00 A2970 RMK CU1CI1 SLP080

CYQR;2010-04-27 23:00;CYQR 272300Z 14014G21KT 15SM FEW060 SCT120 BKN320 15/00 A2967 RMK CU1AS3CI2 SLP069

CYQR;2010-04-28 00:00;CYQR 280000Z 16017KT 15SM BKN068 BKN130 BKN320 14/M00 A2964 RMK AC6AC1CI1 SLP059

CYQR;2010-04-28 01:00;CYQR 280100Z 15017KT 15SM SCT065 BKN130 BKN320 14/01 A2962 RMK SC3AC2CI2 SLP052

CYQR;2010-04-28 02:00;CYQR 280200Z 14014KT 15SM FEW065 BKN130 OVC320 12/00 A2959 RMK SC2AC4CI1 SLP043

CYQR;2010-04-28 03:00;CYQR 280300Z 13014KT 15SM FEW065 BKN130 OVC320 11/01 A2958 RMK SC1AC6CI1 SLP032

CYQR;2010-04-28 04:00;CYQR 280400Z 13014KT 15SM BKN120 OVC320 11/01 A2957 RMK AC7CI1 SLP029

CYQR;2010-04-28 05:00;CYQR 280500Z 13017KT 15SM OVC120 10/02 A2954 RMK AC8 SLP019

CYQR;2010-04-28 06:00;CYQR 280600Z 13017G25KT 15SM OVC120 10/03 A2950 RMK AC8 SLP004

CYQR;2010-04-28 07:00;CYQR 280700Z 13018G24KT 15SM OVC120 10/03 A2946 RMK AC8 SLP990

CYQR;2010-04-28 08:00;CYQR 280800Z 14018G25KT 15SM OVC120 10/03 A2943 RMK AC8 SLP981

CYQR;2010-04-28 09:00;CYQR 280900Z 13022KT 15SM OVC089 10/03 A2940 RMK AC8 SLP964

CYQR;2010-04-28 10:00;CYQR 281000Z 13021G28KT 15SM BKN081 09/03 A2936 RMK AC6 SLP952

CYQR;2010-04-28 11:00;CYQR 281100Z 12019KT 15SM BKN095 08/03 A2933 RMK AC4 SLP942

CYQR;2010-04-28 12:00;CYQR 281200Z 13020G25KT 15SM FEW100 SCT150 BKN320 08/03 A2931 RMK AC1AC3CI2 SLP935

CYQR;2010-04-28 13:00;CYQR 281300Z 12017G25KT 15SM SCT055 BKN090 BKN150 OVC320 09/03 A2929 RMK SC3AC2AC2CI1 SLP929

CYQR;2010-04-28 14:00;CYQR 281400Z 13023KT 15SM FEW055 BKN120 OVC320 10/02 A2927 RMK SC1AC6CI1 ACC ASOCTD SLP924

CYQR;2010-04-28 15:00;CYQR 281500Z 13026KT 15SM FEW055 BKN092 OVC120 10/02 A2926 RMK SC2AC4AC2 SLP919

CYQR;2010-04-28 16:00;CYQR 281600Z 12026G33KT 15SM FEW055 BKN092 OVC120 12/03 A2921 RMK SC2AC4AC2 ACC ASOCTD PRESFR SLP903

CYQR;2010-04-28 17:00;CYQR 281700Z 13025G30KT 15SM FEW055 SCT087 BKN120 OVC280 15/03 A2920 RMK SC1AC3AC2CI1 ACC ASOCTD SLP900

CYQR;2010-04-28 18:00;CYQR 281800Z 13019G30KT 15SM SCT050 BKN091 OVC280 14/03 A2919 RMK SC3AC3CI2 SLP895

CYQR;2010-04-28 18:02;CYQR 281802Z 13026KT 15SM -SHRA SCT050 BKN091 OVC280 13/ RMK SC3AC3CI2 ACC ASOCTD

CYQR;2010-04-28 18:27;CYQR 281827Z 12021G28KT 15SM -SHRA SCT008 BKN029 OVC085 12/ RMK SF3SC3AC2

CYQR;2010-04-28 18:50;CYQR 281850Z 13024G31KT 15SM FEW019 BKN029 OVC085 13/ RMK SC2SC2AC3 ACC ASOCTD

CYQR;2010-04-28 19:00;CYQR 281900Z 13024G32KT 15SM FEW019 SCT033 OVC085 13/04 A2917 RMK SC2SC2AC4 ACC ASOCTD SLP889

CYQR;2010-04-28 19:21;CYQR 281921Z 13023G33KT 15SM -SHRA FEW019 SCT038 BKN085 OVC280 13/ RMK SC2SC2AC2CI2 ACC ASOCTD

CYQR;2010-04-28 20:00;CYQR 282000Z 13022G30KT 15SM -SHRA SCT040 OVC095 13/05 A2917 RMK SC3AC5 ACC ASOCTD SLP888

CYQR;2010-04-28 20:27;CYQR 282027Z 14024G30KT 15SM FEW040 BKN095 OVC260 16/ RMK SC2AC2CI2

CYQR;2010-04-28 21:00;CYQR 282100Z 14024G31KT 15SM FEW046 SCT098 BKN260 17/04 A2914 RMK SC2AC2CI2 SLP875

CYQR;2010-04-28 22:00;CYQR 282200Z 13020G26KT 15SM FEW059 SCT085 BKN260 18/05 A2911 RMK SC2AC2CI2 SLP865

CYQR;2010-04-28 23:00;CYQR 282300Z 15021G27KT 15SM BKN075 BKN260 19/05 A2911 RMK AC5CI2 SLP866

CYQR;2010-04-29 00:00;CYQR 290000Z 15022KT 15SM FEW064 FEW082 BKN260 19/05 A2909 RMK CU1AC2CI2 TR CU SLP856

CYQR;2010-04-29 01:00;CYQR 290100Z 13017G22KT 15SM FEW065 SCT082 BKN260 18/05 A2908 RMK SC2AC1CI2 SLP855

CYQR;2010-04-29 02:00;CYQR 290200Z 21008KT 15SM BKN061 BKN260 15/03 A2911 RMK SC5CI2 SLP862

CYQR;2010-04-29 03:00;CYQR 290300Z 21013KT 15SM BKN065 BKN097 OVC260 13/04 A2911 RMK SC5AC2CI1 SLP867

CYQR;2010-04-29 04:00;CYQR 290400Z 21015G21KT 15SM BKN046 OVC094 11/04 A2912 RMK SC6AC2 SLP871

CYQR;2010-04-29 04:33;CYQR 290433Z 21020G28KT 15SM -SHRA SCT030 OVC046 10/ RMK SC4SC4

CYQR;2010-04-29 05:00;CYQR 290500Z 17013G19KT 10SM -RA OVC030 08/07 A2914 RMK SC8 SLP876

CYQR;2010-04-29 05:09;CYQR 290509Z 17011G17KT 2 1/2SM RA BR OVC020 08/ RMK SC8

CYQR;2010-04-29 05:26;CYQR 290526Z 16006G15KT 2SM +RA BR OVC010 07/ RMK SC8

CYQR;2010-04-29 05:33;CYQR 290533Z 12002KT 8SM -RA OVC012 07/ RERA RMK SC8

CYQR;2010-04-29 06:00;CYQR 290600Z 13006KT 15SM FEW007 OVC070 08/06 A2909 RERA RMK SC2AC6 SLP860

CYQR;2010-04-29 07:00;CYQR 290700Z 07006KT 15SM BKN037 BKN078 OVC350 07/06 A2907 RMK SC5AC2CI1 SLP854

CYQR;2010-04-29 08:00;CYQR 290800Z 12014KT 15SM FEW080 BKN350 07/06 A2905 RMK AC1CI1 SLP846

CYQR;2010-04-29 09:00;CYQR 290900Z 14014KT 15SM FEW100 06/04 A2906 RMK AC2 SLP848

CYQR;2010-04-29 09:23;CYQR 290923Z 15015G20KT 15SM BKN012 BKN037 05/ RMK SC5SC0

CYQR;2010-04-29 10:00;CYQR 291000Z 15013KT 15SM BKN012 05/04 A2907 RMK SC4 SLP852

CYQR;2010-04-29 10:19;CYQR 291019Z 15011KT 15SM OVC012 05/ RMK SC7

CYQR;2010-04-29 10:45;CYQR 291045Z 18013KT 15SM -DZ OVC014 05/ RMK SC8

CYQR;2010-04-29 11:00;CYQR 291100Z 18011KT 15SM -DZ OVC014 06/04 A2908 RMK SC8 SLP857

CYQR;2010-04-29 11:07;CYQR 291107Z 19014KT 15SM BKN018 BKN045 06/ RMK SC6SC1

CYQR;2010-04-29 12:00;CYQR 291200Z 15011KT 15SM FEW010 BKN031 BKN050 05/04 A2910 RMK SC1SC5SC2 SLP862

CYQR;2010-04-29 13:00;CYQR 291300Z 18014KT 15SM FEW010 BKN036 BKN090 05/03 A2911 RMK SC1SC4AC1 SLP865

CYQR;2010-04-29 14:00;CYQR 291400Z 17017KT 15SM FEW015 FEW045 FEW100 BKN300 07/04 A2911 RMK SF1SC1AC1CI0 SLP865

CYQR;2010-04-29 15:00;CYQR 291500Z 18016KT 15SM FEW024 FEW078 BKN300 09/04 A2911 RMK CU1AC1CI1 SLP869

CYQR;2010-04-29 16:00;CYQR 291600Z 16017KT 15SM SCT027 BKN300 10/03 A2913 RMK CU3CI0 SLP875

CYQR;2010-04-29 17:00;CYQR 291700Z 17015G21KT 15SM BKN035 BKN300 11/03 A2915 RMK CU6CI0 SLP879

CYQR;2010-04-29 18:00;CYQR 291800Z 15017G26KT 15SM BKN044 14/02 A2913 RMK CU6 SLP875

CYQR;2010-04-29 19:00;CYQR 291900Z 14021G28KT 15SM BKN054 13/01 A2914 RMK CU7 SLP876

CYQR;2010-04-29 20:00;CYQR 292000Z 15017G24KT 15SM OVC059 14/01 A2916 RMK CU7 SLP882

CYQR;2010-04-29 21:00;CYQR 292100Z 14014G21KT 15SM OVC060 14/01 A2918 RMK SC8 CU ASOCTD SLP894

CYQR;2010-04-29 22:00;CYQR 292200Z 13013KT 15SM BKN067 OVC089 15/01 A2919 RMK CU6AC2 VIRGA SLP897

CYQR;2010-04-29 23:00;CYQR 292300Z 12016G25KT 15SM FEW041 SCT060 BKN099 OVC300 13/03 A2922 RMK SC2SC2AC3CI0 CU ASOCTD VIRGA SLP905

CYQR;2010-04-30 00:00;CYQR 300000Z CCA 12012KT 15SM FEW041 SCT060 BKN078 BKN300 14/02 A2923 RMK SC2CU2AC2CI1 TCU ASOCTD VIRGA SLP911

CYQR;2010-04-30 01:00;CYQR 300100Z 11008KT 15SM FEW068TCU BKN096 BKN300 14/02 A2925 RMK TCU2AC2CI1 VIRGA SLP917

CYQR;2010-04-30 02:00;CYQR 300200Z 10006KT 15SM FEW070TCU BKN100 12/01 A2928 RMK TCU2AC5 VIRGA SLP927

CYQR;2010-04-30 03:00;CYQR 300300Z 04008KT 15SM FEW068 BKN100 11/02 A2931 RMK AC2AC4 SLP938

CYQR;2010-04-30 04:00;CYQR 300400Z 04008KT 15SM FEW068 BKN110 10/02 A2933 RMK AC2AC5 SLP943

CYQR;2010-04-30 05:00;CYQR 300500Z 04006KT 15SM BKN085 OVC110 09/02 A2932 RMK AC5AC3 SLP942

CYQR;2010-04-30 06:00;CYQR 300600Z 03008KT 15SM SCT090 OVC120 09/02 A2933 RMK AC4AC4 SLP941

CYQR;2010-04-30 07:00;CYQR 300700Z 05010G16KT 15SM OVC110 10/03 A2933 RMK AC8 SLP942

CYQR;2010-04-30 08:00;CYQR 300800Z 05012KT 15SM -SHRA BKN034 OVC055 09/05 A2934 RMK SC5SC3 CVCTV CLD EMBD SLP945

CYQR;2010-04-30 09:00;CYQR 300900Z 01010G15KT 15SM -SHRA SCT022 OVC040 08/06 A2935 RMK SC4SC4 CVCTV CLD EMBD SLP948

CYQR;2010-04-30 09:49;CYQR 300949Z 35014KT 10SM -SHRA BKN012 OVC032 07/ RMK SC5SC3 CVCTV CLD EMBD

CYQR;2010-04-30 10:00;CYQR 301000Z 34015KT 10SM -RA BKN014 OVC032 07/05 A2934 RMK SC5SC3 SLP945

CYQR;2010-04-30 10:42;CYQR 301042Z 36020G25KT 10SM -RA OVC009 07/ RMK SC8

CYQR;2010-04-30 11:00;CYQR 301100Z 36014KT 8SM -RA BKN007 OVC040 06/05 A2932 RMK SC6SC2 SLP940

CYQR;2010-04-30 12:00;CYQR 301200Z 35017KT 4SM -RA BR BKN009 OVC040 06/05 A2930 RMK SC6SC2 SLP933

CYQR;2010-04-30 12:21;CYQR 301221Z 35018KT 4SM -RA BR SCT009 OVC017 06/ RMK SC4SC4

CYQR;2010-04-30 12:50;CYQR 301250Z 35016G21KT 4SM -RA BR OVC010 06/ RMK SC8

CYQR;2010-04-30 13:00;CYQR 301300Z 35018KT 4SM -RA BR OVC010 06/05 A2929 RMK SC8 SLP929

CYQR;2010-04-30 14:00;CYQR 301400Z 01017G27KT 5SM -RA BR OVC012 06/05 A2928 RMK SC8 SLP926

CYQR;2010-04-30 14:24;CYQR 301424Z 35017KT 6SM -RA BR SCT009 OVC018 06/ RMK SC4SC4

CYQR;2010-04-30 14:44;CYQR 301444Z 35015G20KT 6SM -RA BR OVC009 RMK SC8

CYQR;2010-04-30 15:00;CYQR 301500Z 35018G24KT 6SM -RA BR BKN007 OVC020 07/05 A2926 RMK SC6SC2 SLP921

CYQR;2010-04-30 16:00;CYQR 301600Z 02018G28KT 6SM -RA BR OVC010 06/04 A2925 RMK SC8 SLP918

CYQR;2010-04-30 16:46;CYQR 301646Z 01024G29KT 6SM -RA BR OVC012 06/ RMK SC8

CYQR;2010-04-30 17:00;CYQR 301700Z 01024G30KT 6SM -RA BR OVC012 06/04 A2924 RMK SC8 SLP914

CYQR;2010-04-30 18:00;CYQR 301800Z 36022G32KT 6SM -RA BR BKN012 OVC037 06/03 A2923 RMK SC6SC2 SLP913

CYQR;2010-04-30 19:00;CYQR 301900Z 01022G30KT 6SM -RA BR OVC008 05/03 A2923 RMK SC8 SLP913

CYQR;2010-04-30 20:00;CYQR 302000Z 36019G31KT 5SM -RA BR OVC009 05/03 A2922 RMK SC8 SLP910

CYQR;2010-04-30 21:00;CYQR 302100Z 35022KT 4SM -RA BR OVC009 04/03 A2921 RMK SC8 SLP908

CYQR;2010-04-30 22:00;CYQR 302200Z 36019G32KT 6SM -RA BR BKN009 OVC023 05/03 A2921 RMK SC6SC2 SLP907

CYQR;2010-04-30 23:00;CYQR 302300Z 01021G26KT 6SM -RA BR BKN008 OVC099 05/03 A2922 RMK SC7AC1 SLP911

CYQR;2010-05-01 01:00;CYQR 010100Z 01020G25KT 15SM -RA OVC007 05/04 A2924 RMK SC8 SLP917

CYQR;2010-05-01 02:00;CYQR 010200Z 01018KT 15SM OVC007 06/04 A2925 RMK SC8 SLP922

CYQR;2010-05-01 02:33;CYQR 010233Z 01017G24KT 12SM -RA OVC009 05/ RMK SC8

CYQR;2010-05-01 03:00;CYQR 010300Z 02017G25KT 12SM -RA BKN008 OVC010 05/03 A2927 RMK SC6SC2 SLP928

CYQR;2010-05-01 04:00;CYQR 010400Z 01017G27KT 15SM -RA OVC009 04/02 A2927 RMK SC8 SLP930

CYQR;2010-05-01 04:26;CYQR 010426Z CCA 36016G21KT 15SM -RA OVC010 04/ RMK SC8

CYQR;2010-05-01 05:00;CYQR 010500Z 36018KT 10SM -RA OVC009 03/01 A2927 RMK SC8 SLP929

CYQR;2010-05-01 05:18;CYQR 010518Z 36016G22KT 10SM -RASN BKN007 OVC010 02/ RMK SF6SC2

CYQR;2010-05-01 06:00;CYQR 010600Z 34017KT 3SM -SN OVC005 01/M01 A2926 RMK SN2SC6 SLP930

CYQR;2010-05-01 06:51;CYQR 010651Z 34019KT 2SM -SN VV004 00/ RMK SN8

CYQR;2010-05-01 07:00;CYQR 010700Z 35016G21KT 1 1/2SM -SN VV004 00/M01 A2924 RMK SN8 SLP923

CYQR;2010-05-01 07:29;CYQR 010729Z 34017KT 1 1/2SM -RASN OVC004 00/ RMK SF8

CYQR;2010-05-01 08:00;CYQR 010800Z 34018KT 1SM R13/P6000FT/N -RASN VV003 00/M01 A2922 RMK SN8 SLP918

CYQR;2010-05-01 08:24;CYQR 010824Z 34018KT 3/4SM R13/P6000FT/D -RASN VV003 00/ RMK SN8

CYQR;2010-05-01 09:00;CYQR 010900Z 34018KT 1SM R13/P6000FT/U -SN VV003 00/M01 A2921 RMK SN8 SLP913

CYQR;2010-05-01 09:18;CYQR 010918Z 34017KT 2SM -SN BKN004 OVC019 00/ RMK SC6SC2

CYQR;2010-05-01 10:00;CYQR 011000Z 34017KT 2SM -SN OVC004 00/M01 A2921 RMK SF8 SLP913

CYQR;2010-05-01 10:45;CYQR 011045Z 34016KT 2 1/2SM -SN OVC003 00/ RMK SF8

CYQR;2010-05-01 11:00;CYQR 011100Z 34018KT 3SM -SN OVC003 00/M01 A2920 RMK SF8 SLP909

CYQR;2010-05-01 11:49;CYQR 011149Z 34018KT 5SM -SN OVC005 01/ RMK SF8

CYQR;2010-05-01 12:00;CYQR 011200Z 34018G24KT 5SM -RA BR OVC005 01/ A2920 RMK SC8 SLP908

CYQR;2010-05-01 13:00;CYQR 011300Z CCA 34016KT 9SM -RA OVC007 01/ A2920 RMK SC8 SLP907

CYQR;2010-05-01 13:44;CYQR 011344Z 34016KT 12SM OVC008 01/ RMK SC8

CYQR;2010-05-01 14:00;CYQR 011400Z 34017KT 15SM OVC011 01/ A2920 RMK SC8 CIG RAG SLP907

CYQR;2010-05-01 14:46;CYQR 011446Z 35016KT 12SM -RA OVC011 RMK SC8 CIG RAG

CYQR;2010-05-01 15:00;CYQR 011500Z CCA 35017KT 5SM -RA BR OVC010 02/ A2921 RMK SC8 CIG RAG SLP910

CYQR;2010-05-01 15:29;CYQR 011529Z 35015G21KT 4SM -RA BR OVC007 01/ RMK SC8 CIG RAG

CYQR;2010-05-01 16:00;CYQR 011600Z 34015KT 3SM -RASN BR OVC005 01/ A2920 RMK SC8 CIG RAG SLP909

CYQR;2010-05-01 16:24;CYQR 011624Z 35015G25KT 3SM -RA BR OVC005 RMK SC8 CIG RAG

CYQR;2010-05-01 16:41;CYQR 011641Z 35017G24KT 5SM -RA BR OVC007 RMK SC8 PCPN VRY LGT

CYQR;2010-05-01 17:00;CYQR 011700Z 35017G22KT 4SM -RASN BR OVC006 02/ A2920 RMK SC8 CIG RAG SLP908

CYQR;2010-05-01 17:31;CYQR 011731Z 36018KT 8SM -RA OVC007 02/ RMK SC8 CIG RAG

CYQR;2010-05-01 17:50;CYQR 011750Z 36019G26KT 4SM -RASN BR OVC007 02/ RMK SC8 CIG RAG

CYQR;2010-05-01 18:00;CYQR 011800Z 36023KT 4SM -RASN BR OVC007 02/ A2920 RMK SC8 CIG RAG SLP912

CYQR;2010-05-01 19:00;CYQR 011900Z 01021G26KT 5SM -RASN BR OVC007 02/ A2921 RMK SC8 CIG RAG SLP916

CYQR;2010-05-01 20:00;CYQR 012000Z 01017G26KT 3SM R13/4000VP6000FT/U -RASN BR OVC006 02/ A2923 RMK SC8 CIG RAG SLP921

CYQR;2010-05-01 21:00;CYQR 012100Z 36018KT 5SM -RASN BR OVC009 01/ A2925 RMK SC8 CIG RAG SLP928

CYQR;2010-05-01 21:24;CYQR 012124Z 36020G28KT 1SM R13/4500VP6000FT/D -SN BR OVC005 01/ RMK SC8

CYQR;2010-05-01 21:44;CYQR 012144Z 36014G24KT 3SM -SN BR OVC008 02/ RMK SC8

CYQR;2010-05-01 22:00;CYQR 012200Z 36019KT 4SM -SN BR OVC009 02/ A2926 RMK SC8 SLP932

CYQR;2010-05-01 23:00;CYQR 012300Z 01018G26KT 4SM -SN BR OVC009 02/ A2928 RMK SC8 SLP937

CYQR;2010-05-02 00:00;CYQR 020000Z 36015G20KT 4SM -SN BR OVC009 02/ A2930 RMK SC8 SLP946

CYQR;2010-05-02 00:27;CYQR 020027Z 01017KT 8SM SCT006 OVC060 01/ RMK SF3SC5

CYQR;2010-05-02 01:00;CYQR 020100Z 36016G24KT 8SM SCT014 OVC030 01/ A2932 RMK SF3SC5 SLP953

CYQR;2010-05-02 01:54;CYQR 020154Z 36016G22KT 5SM -SN SCT019 OVC058 01/ RMK SC4SC4

CYQR;2010-05-02 02:00;CYQR 020200Z 36015G22KT 1SM R13/P6000FT/U -SN BKN014 OVC058 01/ A2936 RMK SC5SC3 SLP964

CYQR;2010-05-02 02:29;CYQR 020229Z 02014G20KT 1 1/2SM -SN BKN010 OVC060 00/ RMK SC6SC2

CYQR;2010-05-02 03:00;CYQR 020300Z 36013KT 3SM -SN BKN008 OVC065 00/ A2938 RMK SC6SC2 SLP973

CYQR;2010-05-02 04:00;CYQR 020400Z 36013KT 4SM -SN BKN006 OVC023 00/ A2940 RMK SF5SC3 SLP980

CYQR;2010-05-02 04:48;CYQR 020448Z 35011KT 10SM -SN SCT008 OVC010 00/ RMK SF3SC5

CYQR;2010-05-02 05:00;CYQR 020500Z 36012KT 10SM -SN FEW008 OVC010 01/ A2941 RMK SF2SC6 SLP984

CYQR;2010-05-02 06:00;CYQR 020600Z 36014G19KT 10SM -SN OVC008 00/ A2942 RMK SC8 SLP987

CYQR;2010-05-02 07:00;CYQR 020700Z 36016KT 10SM -SN BKN009 OVC056 00/00 A2944 RMK SC6SC2 SLP992

CYQR;2010-05-02 08:00;CYQR 020800Z 36013KT 10SM -SN OVC012 00/00 A2946 RMK SC8 SLP998

CYQR;2010-05-02 09:00;CYQR 020900Z 35014KT 12SM -SN FEW008 BKN012 OVC044 00/00 A2947 RMK SF2SC4SC2 SLP003

CYQR;2010-05-02 10:00;CYQR 021000Z 35012KT 4SM -SN BKN006 OVC042 00/00 A2949 RMK SC5SC3 SLP009

CYQR;2010-05-02 11:00;CYQR 021100Z 36013KT 10SM BKN007 OVC040 00/00 A2951 RMK SC6SC2 SLP016

CYQR;2010-05-02 11:55;CYQR 021155Z 36014KT 15SM OVC006 00/ RMK SC8

CYQR;2010-05-02 12:00;CYQR 021200Z 36013KT 15SM BKN007 OVC013 00/00 A2953 RMK SC6SC2 SLP024

CYQR;2010-05-02 12:02;CYQR 021202Z 36011G16KT 15SM -SN BKN007 OVC013 00/ RMK SC6SC2

CYQR;2010-05-02 12:21;CYQR 021221Z 36013KT 1 1/2SM -SN OVC007 00/ RMK SC8

CYQR;2010-05-02 12:30;CYQR 021230Z 36014KT 1SM R13/P6000FT/D -SN OVC007 00/ RMK SC8

CYQR;2010-05-02 12:56;CYQR 021256Z 36012KT 1SM R13/P6000FT/U -SN VV005 00/ RMK SN8

CYQR;2010-05-02 13:00;CYQR 021300Z 36013KT 1SM R13/P6000FT/U -SN VV005 00/00 A2956 RMK SN8 SLP034

CYQR;2010-05-02 13:40;CYQR 021340Z 35011KT 2 1/2SM -SN OVC006 00/ RMK SC8

CYQR;2010-05-02 14:00;CYQR 021400Z 36012G18KT 3SM -SN BR OVC007 01/ A2957 RMK SC8 SLP039

CYQR;2010-05-02 14:44;CYQR 021444Z 36014G19KT 4SM -SN BKN011 OVC043 01/ RMK SC6SC2

CYQR;2010-05-02 15:00;CYQR 021500Z 01013KT 4SM -SN BR BKN011 OVC039 01/ A2960 RMK SC6SC2 PCPN VRY LGT SLP049

CYQR;2010-05-02 15:47;CYQR 021547Z 01014KT 7SM -SN BKN009 OVC032 RMK SC6SC2

CYQR;2010-05-02 16:00;CYQR 021600Z 36015KT 7SM BKN009 OVC032 03/ A2961 RMK SC5SC2 SLP052

CYQR;2010-05-02 16:06;CYQR 021606Z 36011G16KT 8SM BKN012 BKN032 RMK SC5SC2 VIS SW 4SM

CYQR;2010-05-02 17:00;CYQR 021700Z 36012G17KT 10SM VCSH BKN012 BKN031 BKN086 03/ A2961 RMK SC2SC4AC1 SH SE SLP054

CYQR;2010-05-02 18:00;CYQR 021800Z 36013G19KT 15SM BKN023 OVC089 04/ A2962 RMK SC6AC2 SH DIST SE SLP053

CYQR;2010-05-02 19:00;CYQR 021900Z 01012KT 15SM OVC025 04/ A2962 RMK SC8 SH DIST SW SLP055

CYQR;2010-05-02 19:29;CYQR 021929Z 35016KT 8SM -SHRA OVC022 RMK SC8 CVCTV CLD EMBD

CYQR;2010-05-02 19:41;CYQR 021941Z 03011G16KT 12SM VCSH OVC022 RMK SC8

CYQR;2010-05-02 20:00;CYQR 022000Z 01013KT 15SM OVC022 05/ A2962 RMK SC8 SH DIST SE-SW SLP055

CYQR;2010-05-02 21:00;CYQR 022100Z 02010G16KT 15SM BKN029 06/ A2962 RMK SC6 SH DIST SW SLP054

CYQR;2010-05-02 22:00;CYQR 022200Z 36011KT 15SM VCSH OVC026 05/ A2963 RMK SC8 SLP057

CYQR;2010-05-02 22:37;CYQR 022237Z 35014KT 15SM -SHRA BKN017 OVC039 04/ RMK SC5SC3

CYQR;2010-05-02 23:00;CYQR 022300Z 36010G15KT 10SM -SHRA BKN015 OVC038 03/ A2965 RMK SC6SC2 CVCTV CLD EMBD SLP062

CYQR;2010-05-03 00:00;CYQR 030000Z 02007KT 8SM -RA BKN014 OVC055 04/ A2966 RMK SC6SC2 CVCTV CLD EMBD SLP067

CYQR;2010-05-03 01:00;CYQR 030100Z 01009KT 10SM -SHRA SCT014 OVC021 03/ A2967 RMK SC3SC4 CVCTV CLD EMBD SLP071

CYQR;2010-05-03 02:00;CYQR 030200Z 34007KT 15SM -SHRA SCT013 OVC042 03/ A2967 RMK SC4SC4 CVCTV CLD EMBD SLP072

CYQR;2010-05-03 03:00;CYQR 030300Z 01007KT 15SM FEW015 BKN040 03/ A2968 RMK SC2SC5 SLP076

CYQR;2010-05-03 04:00;CYQR 030400Z 03004KT 15SM FEW015 OVC060 02/ A2969 RMK SC1SC7 SLP078

CYQR;2010-05-03 05:00;CYQR 030500Z 30006KT 15SM FEW020 OVC064 01/ A2969 RMK SC1SC7 SLP077

CYQR;2010-05-03 06:00;CYQR 030600Z 30006KT 15SM BKN018 01/ A2967 RMK SC6 SLP071

CYQR;2010-05-03 07:00;CYQR 030700Z 28007KT 10SM BKN075 M00/ A2966 RMK AC6 SLP069

CYQR;2010-05-03 08:00;CYQR 030800Z 30006KT 12SM BKN091 M00/ A2967 RMK AC7 SLP070

CYQR;2010-05-03 09:00;CYQR 030900Z 30007KT 15SM BKN120 00/ A2966 RMK AC7 SLP068

CYQR;2010-05-03 10:00;CYQR 031000Z 29005KT 15SM OVC120 M00/ A2966 RMK AC8 SLP067

CYQR;2010-05-03 11:00;CYQR 031100Z 26005KT 15SM OVC120 M00/ A2966 RMK AC7 SLP065

CYQR;2010-05-03 12:00;CYQR 031200Z 26004KT 15SM FEW120 FEW250 M01/ A2965 RMK AC2CI0 SLP064

CYQR;2010-05-03 13:00;CYQR 031300Z 25004KT 15SM FEW030 FEW089 FEW250 00/ A2965 RMK SC1AC1CI0 SLP065

CYQR;2010-05-03 14:00;CYQR 031400Z 19004KT 15SM FEW071 FEW250 04/ A2964 RMK AC1CI0 SLP061

CYQR;2010-05-03 15:00;CYQR 031500Z 18006KT 15SM FEW060 FEW250 06/ A2963 RMK SC1CI0 SLP054

CYQR;2010-05-03 16:00;CYQR 031600Z 18004KT 15SM FEW250 09/ A2961 RMK CI1 SLP046

CYQR;2010-05-03 17:00;CYQR 031700Z 20007KT 15SM FEW010 FEW250 10/ A2959 RMK CU1CI0 SLP041

CYQR;2010-05-03 18:00;CYQR 031800Z 20009KT 15SM SCT042 12/ A2957 RMK CU3 SLP032

CYQR;2010-05-03 19:00;CYQR 031900Z 25010G17KT 15SM SCT051 13/09 A2955 RMK CU3 SLP025

CYQR;2010-05-03 20:00;CYQR 032000Z 21011G18KT 15SM BKN056 BKN260 14/ A2953 RMK CU5CI1 SLP019

CYQR;2010-05-03 20:33;CYQR 032033Z 26011KT 15SM BKN059 BKN260 RMK CU5CI1

CYQR;2010-05-03 21:00;CYQR 032100Z 23008G17KT 15SM BKN059 BKN260 16/ A2950 RMK CU5CI1 SLP006

CYQR;2010-05-03 22:00;CYQR 032200Z 19013KT 15SM BKN065 BKN260 16/ A2948 RMK CU5CI1 SLP999

CYQR;2010-05-03 23:00;CYQR 032300Z 20011G16KT 15SM BKN067 BKN078 BKN260 15/ A2946 RMK CU6AC2CI1 SLP994

CYQR;2010-05-04 00:00;CYQR 040000Z 16010G15KT 15SM SCT068 BKN260 15/ A2944 RMK CU3CI2 SC ASOCTD SLP985

CYQR;2010-05-04 01:00;CYQR 040100Z 16012KT 15SM SCT070 BKN260 14/07 A2939 RMK AC3CI1 PRESFR CU ASOCTD SLP970

CYQR;2010-05-04 02:00;CYQR 040200Z 15013KT 15SM FEW070 BKN120 BKN260 13/ A2940 RMK AC2AC4CI1 SLP972

CYQR;2010-05-04 03:00;CYQR 040300Z 15015KT 15SM BKN070 OVC120 12/ A2939 RMK AC7AC1 SLP965

CYQR;2010-05-04 03:41;CYQR 040341Z 17014KT 15SM -RA OVC040 11/ RMK SC8

CYQR;2010-05-04 04:00;CYQR 040400Z 22015KT 12SM -RA OVC034 10/ A2941 RMK SC8 SLP973

CYQR;2010-05-04 04:14;CYQR 040414Z 21014G20KT 10SM -RA BKN014 OVC030 10/ RMK SC5SC3

CYQR;2010-05-04 05:00;CYQR 040500Z 21009KT 10SM -RA BKN014 OVC028 08/ A2940 RMK SC5SC3 SLP969

CYQR;2010-05-04 06:00;CYQR 040600Z 13010KT 12SM -RA SCT014 OVC036 08/ A2936 RMK SC3SC5 SLP955

CYQR;2010-05-04 07:00;CYQR 040700Z 15009KT 15SM -RA OVC029 08/ A2934 RMK SC8 SLP949

CYQR;2010-05-04 08:00;CYQR 040800Z 16012KT 12SM -RA OVC037 08/ A2933 RMK SC8 SLP946

CYQR;2010-05-04 09:00;CYQR 040900Z 15014KT 12SM -RA OVC031 07/ A2931 RMK SC8 SLP936

CYQR;2010-05-04 10:00;CYQR 041000Z 20011G21KT 12SM -RA OVC019 06/ A2934 RMK SC8 SLP944

CYQR;2010-05-04 11:00;CYQR 041100Z 04007KT 12SM -RA BKN011 OVC020 05/ A2930 RMK SC5SC3 SLP932

CYQR;2010-05-04 11:26;CYQR 041126Z 06007KT 12SM -RA SCT011 OVC019 05/ RMK SC4SC4

CYQR;2010-05-04 12:00;CYQR 041200Z 09004KT 15SM -RA FEW011 BKN045 04/ A2928 RMK SC2SC6 SLP928

CYQR;2010-05-04 13:00;CYQR 041300Z 08011KT 15SM VCSH FEW010 FEW036 SCT072 BKN250 04/02 A2928 RMK CF1SC2AC2CI3 SLP927

CYQR;2010-05-04 14:00;CYQR 041400Z 08012KT 15SM FEW010 FEW053 SCT089 BKN250 05/02 A2927 RMK CF1SC1AC2CI2 SLP925

CYQR;2010-05-04 15:00;CYQR 041500Z 09008KT 15SM FEW011 SCT053 SCT076 BKN250 06/03 A2927 RMK CU2SC1AC1CI2 SLP924

CYQR;2010-05-04 15:47;CYQR 041547Z 12007KT 15SM BKN015 BKN080 BKN250 07/ RMK CU5AC1CI1

CYQR;2010-05-04 16:00;CYQR 041600Z 12009KT 15SM BKN015 BKN080 BKN250 08/03 A2926 RMK CU5AC1CI1 SLP920

CYQR;2010-05-04 17:00;CYQR 041700Z 10011KT 15SM BKN024 BKN250 09/02 A2927 RMK CU6CI1 SLP924

CYQR;2010-05-04 18:00;CYQR 041800Z 12013KT 15SM BKN033 09/01 A2929 RMK CU7 SLP932

CYQR;2010-05-04 19:00;CYQR 041900Z 13014G21KT 15SM BKN039 BKN250 10/02 A2931 RMK CU6CI1 TCU ASOCTD SLP938

CYQR;2010-05-04 20:00;CYQR 042000Z 06021G26KT 15SM VCSH BKN014 BKN250 07/03 A2935 RMK CU5CI2 SLP951

CYQR;2010-05-04 21:00;CYQR 042100Z 07021G27KT 15SM OVC012 06/03 A2940 RMK SC8 SLP971

CYQR;2010-05-04 22:00;CYQR 042200Z 05027KT 15SM OVC012 05/01 A2944 RMK SC8 SLP985

CYQR;2010-05-04 23:00;CYQR 042300Z 06025G34KT 15SM OVC014 05/01 A2949 RMK SC8 SLP000

CYQR;2010-05-05 00:00;CYQR 050000Z 05021G32KT 15SM BKN014 OVC075 05/01 A2954 RMK SC7AC1 PRESRR SLP023

CYQR;2010-05-05 01:00;CYQR 050100Z 04022G28KT 15SM OVC011 04/00 A2959 RMK SC8 SLP040

CYQR;2010-05-05 02:00;CYQR 050200Z 04019G26KT 15SM OVC013 03/M01 A2965 RMK SC8 CIG RAG SLP059

CYQR;2010-05-05 02:03;CYQR 050203Z 04019G29KT 15SM OVC013 02/ RMK SC8 CIG RAG

CYQR;2010-05-05 02:38;CYQR 050238Z 04016G26KT 15SM -SN OVC013 02/ RMK SC8 CIG RAG

CYQR;2010-05-05 03:00;CYQR 050300Z 03018G25KT 15SM -SN OVC013 02/M01 A2971 RMK SC8 SLP081

CYQR;2010-05-05 04:00;CYQR 050400Z 04019G25KT 7SM -SN BKN009 OVC013 01/M02 A2975 RMK SC6SC2 SLP094

CYQR;2010-05-05 05:00;CYQR 050500Z 03016G22KT 2 1/2SM -SN OVC009 01/M02 A2979 RMK SC8 SLP108

CYQR;2010-05-05 06:00;CYQR 050600Z 01015KT 2SM -SN OVC007 00/M02 A2982 RMK SC8 SLP118

CYQR;2010-05-05 07:00;CYQR 050700Z 01015G20KT 2SM -SN OVC007 M00/M02 A2985 RMK SC8 SLP129

CYQR;2010-05-05 08:00;CYQR 050800Z 36014G20KT 2 1/2SM -SN OVC008 M00/M03 A2988 RMK SC8 SLP138

CYQR;2010-05-05 09:00;CYQR 050900Z 36015KT 3SM -SN OVC008 M01/M03 A2990 RMK SC8 SLP150

CYQR;2010-05-05 10:00;CYQR 051000Z 36014KT 8SM -SN OVC006 M01/M03 A2992 RMK SC8 SLP156

CYQR;2010-05-05 10:27;CYQR 051027Z 36013KT 12SM -SN SCT009 OVC022 M01/ RMK SC4SC3

CYQR;2010-05-05 11:00;CYQR 051100Z 36012KT 8SM -SN BKN008 OVC028 M01/M03 A2994 RMK SC6SC2 SLP162

CYQR;2010-05-05 11:14;CYQR 051114Z 01011G16KT 15SM BKN009 OVC034 M01/ RMK SC7SC1

CYQR;2010-05-05 12:00;CYQR 051200Z 01012G18KT 12SM BKN009 OVC046 M01/M03 A2996 RMK SC7SC1 SLP171

CYQR;2010-05-05 12:38;CYQR 051238Z 01015G20KT 15SM SCT008 BKN012 OVC037 M01/ RMK SC3SC2SC2

CYQR;2010-05-05 13:00;CYQR 051300Z 36012G17KT 10SM BKN007 OVC025 M01/M03 A2997 RMK SC6SC2 SLP176

CYQR;2010-05-05 13:31;CYQR 051331Z 36013KT 3SM -SN BR BKN008 OVC018 M00/ RMK SF6SC2

CYQR;2010-05-05 14:00;CYQR 051400Z 36014KT 3SM -SN BR OVC008 M00/M03 A2999 RMK SF8 CIG RAG SLP181

CYQR;2010-05-05 15:00;CYQR 051500Z 01014KT 8SM -SHSN BKN008 OVC040 00/M02 A2999 RMK SC7SC1 SLP183

CYQR;2010-05-05 15:50;CYQR 051550Z 01017KT 12SM -SN BKN012 OVC044 01/ RMK SC7SC1

CYQR;2010-05-05 16:00;CYQR 051600Z 01014KT 12SM -SN BKN012 OVC044 01/M02 A3000 RMK SC7SC1 SLP188

CYQR;2010-05-05 16:26;CYQR 051626Z 01012G17KT 15SM OVC012 01/ RMK SC8

CYQR;2010-05-05 17:00;CYQR 051700Z 01014KT 15SM OVC014 01/M02 A3002 RMK SC8 SLP192

CYQR;2010-05-05 17:11;CYQR 051711Z 01014KT 15SM -SN OVC014 01/ RMK SC8

CYQR;2010-05-05 18:00;CYQR 051800Z 01012KT 15SM -SN OVC014 01/M01 A3004 RMK SC8 SLP199

CYQR;2010-05-05 18:18;CYQR 051818Z 01009KT 12SM -SN OVC016 02/ RMK SC8

CYQR;2010-05-05 19:00;CYQR 051900Z 02010KT 12SM -SN OVC016 02/M01 A3005 RMK SC8 SLP202

CYQR;2010-05-05 20:00;CYQR 052000Z 03008KT 12SM -SN OVC016 03/M01 A3005 RMK SC8 SLP205

CYQR;2010-05-05 20:37;CYQR 052037Z 06009KT 15SM OVC016 RMK SC8

CYQR;2010-05-05 21:00;CYQR 052100Z 05009KT 15SM OVC019 04/M01 A3006 RMK SC8 SHWRS DSNT S SLP205

CYQR;2010-05-05 22:00;CYQR 052200Z 05010KT 15SM OVC019 04/M00 A3006 RMK SC8 SLP205

CYQR;2010-05-05 23:00;CYQR 052300Z 04009KT 15SM BKN021 OVC059 04/M01 A3007 RMK SC7SC1 SLP208

CYQR;2010-05-06 00:00;CYQR 060000Z 03010KT 15SM BKN019 OVC060 04/M01 A3008 RMK SC7SC1 SLP212

CYQR;2010-05-06 01:00;CYQR 060100Z 04011KT 15SM OVC019 03/M01 A3009 RMK SC8 SLP215

CYQR;2010-05-06 01:43;CYQR 060143Z 05010KT 12SM -RA OVC019 03/ RMK SC8

CYQR;2010-05-06 02:00;CYQR 060200Z 05010KT 12SM -RA OVC017 02/M01 A3010 RMK SC8 SLP219

CYQR;2010-05-06 02:27;CYQR 060227Z 06007KT 8SM -SN BKN017 OVC023 02/ RMK SC7SC1

CYQR;2010-05-06 03:00;CYQR 060300Z 07008KT 8SM -SN SCT013 OVC023 02/M01 A3011 RMK SC4SC4 SLP224

CYQR;2010-05-06 03:12;CYQR 060312Z 06008KT 8SM -SN BKN013 OVC023 02/ RMK SC6SC2

CYQR;2010-05-06 04:00;CYQR 060400Z 07010KT 10SM -SN SCT013 OVC020 01/M01 A3012 RMK SC3SC5 SLP226

CYQR;2010-05-06 04:17;CYQR 060417Z 07008KT 8SM -SN BKN010 OVC020 01/ RMK SC5SC3

CYQR;2010-05-06 04:36;CYQR 060436Z 09007KT 5SM -SN OVC008 01/ RMK SC8

CYQR;2010-05-06 05:00;CYQR 060500Z 09008KT 5SM -SN SCT011 OVC017 01/M01 A3012 RMK SC3SC5 SLP226

CYQR;2010-05-06 05:43;CYQR 060543Z 08008KT 2SM -SN OVC017 01/ RMK SC8

CYQR;2010-05-06 06:00;CYQR 060600Z 08009KT 1SM R13/P6000FT/N -SN VV010 01/M01 A3011 RMK SN8 SLP226

CYQR;2010-05-06 06:11;CYQR 060611Z 07008KT 3/4SM R13/P6000FT/D -SN VV006 00/ RMK SN8

CYQR;2010-05-06 06:25;CYQR 060625Z 08007KT 1SM R13/P6000FT/D -SN VV005 00/ RMK SN8

CYQR;2010-05-06 07:00;CYQR 060700Z 07006KT 1 1/2SM -SN OVC005 00/M01 A3011 RMK SN3SC5 SLP226

CYQR;2010-05-06 07:46;CYQR 060746Z 08006KT 2SM -SN OVC006 00/ RMK SC8

CYQR;2010-05-06 08:00;CYQR 060800Z 07007KT 2SM -SN OVC005 00/M01 A3011 RMK SC8 SLP225

CYQR;2010-05-06 08:30;CYQR 060830Z 07006KT 1 1/2SM -SN OVC006 00/ RMK SC8

CYQR;2010-05-06 09:00;CYQR 060900Z 07006KT 2SM -SN OVC006 00/M01 A3011 RMK SC8 SLP223

CYQR;2010-05-06 09:31;CYQR 060931Z 07006KT 1 1/2SM -SN OVC007 00/ RMK SC8

CYQR;2010-05-06 10:00;CYQR 061000Z 06006KT 1SM R13/P6000FT/D -SN VV004 00/M01 A3011 RMK SN8 SLP223

CYQR;2010-05-06 10:25;CYQR 061025Z 06007KT 1 1/2SM -SN OVC005 00/ RMK SC8

CYQR;2010-05-06 11:00;CYQR 061100Z 07010KT 1 1/2SM -SN OVC005 00/M01 A3010 RMK SC8 SLP221

CYQR;2010-05-06 11:15;CYQR 061115Z 07009KT 1SM R13/P6000FT/N -SN OVC005 00/ RMK SC8

CYQR;2010-05-06 12:00;CYQR 061200Z 08006KT 1SM R13/P6000FT/N -SN OVC005 00/M01 A3011 RMK SC8 SLP222

CYQR;2010-05-06 12:19;CYQR 061219Z 08009KT 1 3/4SM -SN OVC004 00/ RMK SC8

CYQR;2010-05-06 12:36;CYQR 061236Z 08009KT 1SM R13/P6000FT/D -SN OVC006 00/ RMK SC8

CYQR;2010-05-06 13:00;CYQR 061300Z 09012KT 1 1/2SM -SN OVC004 00/M02 A3012 RMK ST8 SLP225

CYQR;2010-05-06 13:17;CYQR 061317Z 09010KT 4SM -SN BR OVC006 00/ RMK SC8

CYQR;2010-05-06 14:00;CYQR 061400Z 09012KT 5SM -RASN BR BKN008 OVC027 00/M02 A3014 RMK SC7SC1 SLP231

CYQR;2010-05-06 14:43;CYQR 061443Z 09009KT 2 1/2SM -RASN BR BKN007 OVC027 00/ RMK SC7SC1 VIS VRB 2-3

CYQR;2010-05-06 15:00;CYQR 061500Z 11009KT 1 1/4SM -SN BR OVC005 00/M02 A3015 RMK SC8 VIS VRB 1-11/2 SLP239

CYQR;2010-05-06 15:08;CYQR 061508Z 11008KT 3/4SM R13/P6000FT/D -SN BR OVC004 M00/ RMK SF8

CYQR;2010-05-06 15:25;CYQR 061525Z 11010KT 5/8SM R13/4000FT/D -SN VV003 M00/ RMK SN8 VIS VAR 1/2-3/4

CYQR;2010-05-06 15:36;CYQR 061536Z 11009KT 3/4SM R13/3500V5500FT/U -SN BR VV003 00/ RMK SN8 VIS VAR 1/2-1

CYQR;2010-05-06 16:00;CYQR 061600Z 11010KT 3/4SM R13/P6000FT/U -SN BR VV005 M00/M02 A3016 RMK SN8 VIS VRB 1/2-1 SLP240

CYQR;2010-05-06 16:23;CYQR 061623Z 10009KT 1 1/2SM -SN BR VV006 01/ RMK SN8 VIS VRB 1-2

CYQR;2010-05-06 16:47;CYQR 061647Z 09012KT 10SM -SN BKN004 BKN039 01/ RMK SF5SC1

CYQR;2010-05-06 17:00;CYQR 061700Z 07010KT 13SM -RASN BKN010 BKN039 BKN080 02/M00 A3015 RMK SC5SC2AC1 SLP238

CYQR;2010-05-06 18:00;CYQR 061800Z 07010KT 12SM -RASN BKN014 OVC080 02/M01 A3015 RMK SC7AC1 SLP238

CYQR;2010-05-06 18:29;CYQR 061829Z 09009KT 15SM OVC014 03/ RMK SC8

CYQR;2010-05-06 19:00;CYQR 061900Z 07005KT 15SM OVC018 03/M02 A3015 RMK SC8 SLP238

CYQR;2010-05-06 20:00;CYQR 062000Z 04009KT 15SM BKN020 OVC052 03/M01 A3015 RMK SC7SC1 SLP237

CYQR;2010-05-06 21:00;CYQR 062100Z 07008KT 15SM OVC022 03/M02 A3015 RMK SC8 SLP237

CYQR;2010-05-06 22:00;CYQR 062200Z 08008KT 15SM OVC022 03/M01 A3016 RMK SC8 SLP240

CYQR;2010-05-06 23:00;CYQR 062300Z 07008KT 15SM BKN022 OVC035 03/M02 A3016 RMK SC7SC1 SHWRS W SLP240

CYQR;2010-05-07 00:00;CYQR 070000Z CCA 07010KT 15SM VCSH FEW020 OVC024 03/M02 A3018 RMK CU2SC6 TCU EMBD SHWRS WSW SLP247

CYQR;2010-05-07 01:00;CYQR 070100Z 06007KT 15SM OVC026 03/M02 A3019 RMK SC8 SLP250

CYQR;2010-05-07 02:00;CYQR 070200Z 05006KT 15SM SCT026 BKN037 OVC250 03/M03 A3020 RMK SC3SC3CI1 SLP253

CYQR;2010-05-07 03:00;CYQR 070300Z 02005KT 15SM BKN037 BKN060 03/M02 A3021 RMK SC6SC1 SLP259

CYQR;2010-05-07 04:00;CYQR 070400Z 34004KT 15SM BKN043 BKN078 BKN350 01/M02 A3022 RMK SC6AC1CI0 SLP261

CYQR;2010-05-07 05:00;CYQR 070500Z 35007KT 15SM BKN047 BKN080 BKN350 M00/M03 A3022 RMK SC5AC2CI1 SLP260

CYQR;2010-05-07 06:00;CYQR 070600Z 36007KT 15SM FEW050 FEW350 M01/M04 A3021 RMK SC1CI0 SLP260

CYQR;2010-05-07 07:00;CYQR 070700Z 36005KT 15SM SCT051 M01/M04 A3022 RMK SC3 SLP261

CYQR;2010-05-07 08:00;CYQR 070800Z 01004KT 15SM BKN059 M01/M04 A3022 RMK SC6 SLP262

CYQR;2010-05-07 09:00;CYQR 070900Z 01005KT 15SM OVC062 00/M03 A3022 RMK SC8 SLP261

CYQR;2010-05-07 10:00;CYQR 071000Z 02006KT 15SM BKN027 OVC056 00/M04 A3023 RMK SC5SC3 SLP263

CYQR;2010-05-07 11:00;CYQR 071100Z 36006KT 15SM BKN044 OVC060 M00/M04 A3024 RMK SC6SC1 SLP267

CYQR;2010-05-07 12:00;CYQR 071200Z CCA 35004KT 15SM VCSH SCT038 BKN078 M00/M04 A3025 RMK SC3AC3 SLP270

CYQR;2010-05-07 13:00;CYQR 071300Z 03005KT 15SM FEW046 SCT081 BKN100 00/M05 A3025 RMK SC2AC2AC2 SLP273

CYQR;2010-05-07 14:00;CYQR 071400Z 04008KT 15SM FEW045 SCT085 BKN120 BKN250 01/M06 A3026 RMK SC1AC2AC2CI1 ACC SOUTH SLP276

CYQR;2010-05-07 15:00;CYQR 071500Z 03010KT 15SM FEW034 SCT100 SCT130 BKN280 02/M06 A3027 RMK CU1AC2AC1CI0 SLP277

CYQR;2010-05-07 16:00;CYQR 071600Z 05009KT 15SM FEW036 FEW092 SCT210 BKN250 BKN300 03/M06 A3027 RMK CU1AC2CC1CI1CI1 SLP276

CYQR;2010-05-07 17:00;CYQR 071700Z 04011G17KT 15SM FEW040 SCT100 BKN280 05/M05 A3027 RMK CU1AC2CI2 SLP276

CYQR;2010-05-07 18:00;CYQR 071800Z 05010G16KT 15SM FEW048 BKN280 06/M06 A3026 RMK CU1CI1 SLP274

CYQR;2010-05-07 19:00;CYQR 071900Z 03010KT 15SM FEW052 BKN280 07/M06 A3025 RMK CU1CI1 SLP272

CYQR;2010-05-07 20:00;CYQR 072000Z 05008G16KT 15SM FEW056 BKN280 07/M07 A3026 RMK CU1CI1 SLP274

CYQR;2010-05-07 21:00;CYQR 072100Z 05017G22KT 15SM FEW066 BKN280 08/M06 A3025 RMK CU2CI0 SLP269

CYQR;2010-05-07 22:00;CYQR 072200Z 05009KT 15SM BKN063 BKN280 09/M06 A3026 RMK CU6CI1 SLP270

CYQR;2010-05-07 23:00;CYQR 072300Z 01010G16KT 15SM BKN058 BKN280 08/M06 A3026 RMK CU7CI1 SLP270

CYQR;2010-05-08 00:00;CYQR 080000Z 05007KT 15SM BKN061 BKN092 OVC250 09/M04 A3027 RMK CU6AC1CI0 SLP275

CYQR;2010-05-08 01:00;CYQR 080100Z 08005KT 15SM FEW062 BKN078 BKN280 07/M06 A3028 RMK CU2AC1CI0 SLP277

CYQR;2010-05-08 02:00;CYQR 080200Z 05006KT 15SM FEW060 SCT280 06/M05 A3029 RMK SC1CI1 SLP280

CYQR;2010-05-08 03:00;CYQR 080300Z 06002KT 15SM FEW070 FEW280 04/M05 A3030 RMK AC1CI1 SLP286

CYQR;2010-05-08 04:00;CYQR 080400Z 00000KT 15SM FEW280 04/M05 A3031 RMK CI0 SLP290

CYQR;2010-05-08 05:00;CYQR 080500Z 25002KT 15SM FEW280 01/M04 A3031 RMK CI0 SLP291

CYQR;2010-05-08 06:00;CYQR 080600Z 27003KT 15SM SKC M01/M05 A3031 RMK SLP292

CYQR;2010-05-08 07:00;CYQR 080700Z 25004KT 15SM SKC M02/M06 A3032 RMK SLP293

CYQR;2010-05-08 08:00;CYQR 080800Z 33002KT 15SM SKC M02/M06 A3032 RMK SLP293

CYQR;2010-05-08 09:00;CYQR 080900Z 23003KT 15SM SKC M02/M06 A3031 RMK SLP290

CYQR;2010-05-08 10:00;CYQR 081000Z 25004KT 15SM SKC M03/M07 A3031 RMK SLP289

CYQR;2010-05-08 11:00;CYQR 081100Z 23002KT 15SM FEW070 M05/M08 A3031 RMK AC1 SLP290

CYQR;2010-05-08 12:00;CYQR 081200Z 13002KT 15SM FEW070 M04/M07 A3030 RMK AC1 SLP289

CYQR;2010-05-08 13:00;CYQR 081300Z 00000KT 15SM FEW070 M01/M05 A3031 RMK AC1 SLP291

CYQR;2010-05-08 14:00;CYQR 081400Z 21003KT 15SM FEW120 03/M03 A3031 RMK AC1 SLP291

CYQR;2010-05-08 15:00;CYQR 081500Z 20005KT 15SM FEW042 FEW120 07/M03 A3031 RMK CU1AC1 SLP286

CYQR;2010-05-08 16:00;CYQR 081600Z 20006KT 15SM FEW052 08/M05 A3029 RMK CU2 SLP281

CYQR;2010-05-08 17:00;CYQR 081700Z 19009KT 15SM SCT060 09/M06 A3028 RMK CU3 SLP277

CYQR;2010-05-08 18:00;CYQR 081800Z 18006G18KT 15SM BKN064 09/M07 A3026 RMK CU5 SLP271

CYQR;2010-05-08 19:00;CYQR 081900Z 24008KT 15SM BKN074 10/M07 A3024 RMK CU6 SLP264

CYQR;2010-05-08 20:00;CYQR 082000Z 20012G18KT 15SM BKN074 11/M06 A3022 RMK CU7 VIRGA SLP259

CYQR;2010-05-08 21:00;CYQR 082100Z 21004G16KT 15SM BKN076 10/M07 A3020 RMK CU7 TCU ASOCTD VIRGA SLP253

CYQR;2010-05-08 22:00;CYQR 082200Z 21011KT 15SM BKN073 11/M06 A3020 RMK CU7 VIRGA ALL QUADS SLP250

CYQR;2010-05-08 23:00;CYQR 082300Z 22012G17KT 15SM BKN076 BKN092 12/M05 A3018 RMK CU6AC1 VIRGA ALL QUADS SLP245

CYQR;2010-05-09 00:00;CYQR 090000Z 16013KT 15SM SCT076 BKN100 BKN280 11/M05 A3017 RMK CU4AC1CI1 VIRGA SLP241

CYQR;2010-05-09 01:00;CYQR 090100Z 17013KT 15SM SCT060 BKN100 10/M05 A3016 RMK CU4AC1 VIRGA SLP237

CYQR;2010-05-09 02:00;CYQR 090200Z 18005KT 14SM FEW050 SCT073 09/M04 A3015 RMK CU1AC2 VIRGA SLP236

CYQR;2010-05-09 03:00;CYQR 090300Z 15006KT 15SM FEW073 06/M05 A3016 RMK AC2 SLP233

CYQR;2010-05-09 04:00;CYQR 090400Z 16009KT 15SM FEW069 05/M04 A3016 RMK AC1 SLP235

CYQR;2010-05-09 05:00;CYQR 090500Z 13008KT 15SM SKC 02/M05 A3015 RMK SLP232

CYQR;2010-05-09 06:00;CYQR 090600Z 12008KT 15SM SKC 01/M05 A3015 RMK SLP232

CYQR;2010-05-09 07:00;CYQR 090700Z 13011KT 15SM SKC 02/M05 A3015 RMK SLP232

CYQR;2010-05-09 08:00;CYQR 090800Z 14011KT 15SM SKC 01/M05 A3014 RMK SLP229

CYQR;2010-05-09 09:00;CYQR 090900Z 14011KT 15SM SKC M00/M05 A3014 RMK SLP228

CYQR;2010-05-09 10:00;CYQR 091000Z 14010KT 15SM SKC M01/M05 A3013 RMK SLP225

CYQR;2010-05-09 11:00;CYQR 091100Z 13009KT 15SM SKC M02/M05 A3012 RMK SLP224

CYQR;2010-05-09 12:00;CYQR 091200Z 12010KT 15SM SCT300 M01/M05 A3011 RMK CI1 SLP218

CYQR;2010-05-09 13:00;CYQR 091300Z 12011KT 15SM BKN300 02/M03 A3010 RMK CI2 SLP216

CYQR;2010-05-09 14:00;CYQR 091400Z 13014KT 15SM BKN300 05/M02 A3010 RMK CI2 SLP216

CYQR;2010-05-09 15:00;CYQR 091500Z 15017KT 15SM FEW092 BKN300 07/M02 A3009 RMK AC2CI2 SLP210

CYQR;2010-05-09 16:00;CYQR 091600Z 16018G24KT 15SM FEW090 BKN300 09/M03 A3007 RMK AC2CI2 SLP204

CYQR;2010-05-09 17:00;CYQR 091700Z 14021G27KT 15SM FEW090 BKN300 11/M02 A3004 RMK AC2CI2 SLP195

CYQR;2010-05-09 18:00;CYQR 091800Z 15022G29KT 15SM SCT072 BKN120 BKN230 OVC300 11/M04 A3003 RMK AC3AC2CI2CI0 ACC ASOCTD SLP189

CYQR;2010-05-09 19:00;CYQR 091900Z 14019G28KT 15SM FEW058 SCT077 BKN120 BKN230 OVC300 12/M02 A2999 RMK SC2AC2AC2CI2CI0 ACC ASOCTD SLP178

CYQR;2010-05-09 20:00;CYQR 092000Z 14024G30KT 15SM BKN058 OVC120 11/M02 A2998 RMK SC6AC2 CU EMBD VIRGA SLP175

CYQR;2010-05-09 21:00;CYQR 092100Z 14020G28KT 15SM SCT027 BKN052 OVC120 11/M01 A2997 RMK SC3SC4AC1 CVCTV CLD EMBD VIRGA SLP169

CYQR;2010-05-09 21:25;CYQR 092125Z 18027G34KT 15SM -SHRA SCT029 BKN054 BKN080 OVC120 08/ RMK SC3SC3AC1AC1 ACC ASOCTD

CYQR;2010-05-09 22:00;CYQR 092200Z 17022G27KT 3SM -SHRA BR BKN026 OVC046 07/05 A2998 RMK SC6SC2 CVCTV CLD EMBDD SLP172

CYQR;2010-05-09 22:52;CYQR 092252Z 14025G30KT 3SM -SHRA BR OVC014 06/ RMK SC8 CVCTV CLD EMBD

CYQR;2010-05-09 23:00;CYQR 092300Z 15023G30KT 3SM -SHRA BR OVC014 05/03 A2998 RMK SC8 CVCTV CLD EMBD SLP172

CYQR;2010-05-10 00:00;CYQR 100000Z 14018KT 10SM -SHRA BKN014 OVC028 05/04 A2996 RMK SC6SC2 CVCTV CLD EMBD SLP169

CYQR;2010-05-10 00:17;CYQR 100017Z 14016G21KT 15SM BKN018 BKN035 OVC097 06/ RMK SC5SC2AC2

CYQR;2010-05-10 00:55;CYQR 100055Z 14015G21KT 8SM -SHRA BKN015 OVC035 06/ RMK SC6SC2

CYQR;2010-05-10 01:00;CYQR 100100Z 14018KT 6SM -SHRA BR BKN015 OVC035 06/04 A2995 RMK SC6SC2 SLP166

CYQR;2010-05-10 01:07;CYQR 100107Z 15016KT 5SM -SHRA BR BKN013 OVC035 06/ RMK SC6SC2

CYQR;2010-05-10 01:20;CYQR 100120Z 14019KT 5SM -SHRA BR FEW008 BKN013 OVC035 06/ RMK SF2SC5SC2

CYQR;2010-05-10 01:45;CYQR 100145Z 14018KT 4SM -SHRA BR BKN008 OVC021 06/ RMK SF6SC2

CYQR;2010-05-10 02:00;CYQR 100200Z 14016KT 3SM -SHRA BR OVC008 05/04 A2993 RMK SF8 SLP162

CYQR;2010-05-10 03:00;CYQR 100300Z 15018KT 6SM -SHRA BR OVC006 05/04 A2993 RMK SF8 SLP156

CYQR;2010-05-10 03:47;CYQR 100347Z 15015G20KT 12SM OVC006 05/ RMK SF8

CYQR;2010-05-10 04:00;CYQR 100400Z 15015G20KT 15SM OVC007 05/04 A2994 RMK SF8 SLP157

CYQR;2010-05-10 05:00;CYQR 100500Z 16013KT 15SM BKN006 OVC018 05/04 A2993 RMK SF6SC2 SLP154

CYQR;2010-05-10 06:00;CYQR 100600Z 15011KT 15SM BKN007 OVC015 05/04 A2992 RMK SF6SC2 SLP149

CYQR;2010-05-10 07:00;CYQR 100700Z 15010KT 15SM BKN006 OVC015 05/04 A2990 RMK SF6SC2 SLP143

CYQR;2010-05-10 08:00;CYQR 100800Z 14013KT 15SM BKN007 OVC026 05/03 A2989 RMK SF6SC2 SLP138

CYQR;2010-05-10 08:30;CYQR 100830Z 15013KT 15SM BKN004 04/ RMK SF6

CYQR;2010-05-10 09:00;CYQR 100900Z 15011KT 15SM BKN004 BKN020 04/03 A2987 RMK SF5SC2 SLP133

CYQR;2010-05-10 09:30;CYQR 100930Z 14013KT 15SM BKN005 BKN032 04/ RMK SF5SC2

CYQR;2010-05-10 10:00;CYQR 101000Z 15012KT 15SM BKN004 OVC048 04/02 A2986 RMK SF6SC2 SLP131

CYQR;2010-05-10 10:32;CYQR 101032Z 15010KT 15SM SCT004 BKN055 03/ RMK SF3SC2

CYQR;2010-05-10 11:00;CYQR 101100Z 15008KT 5SM BR FEW004 BKN055 03/02 A2986 RMK SF2SC3 SLP131

CYQR;2010-05-10 11:17;CYQR 101117Z 15008KT 3SM BR BKN007 BKN055 03/ RMK SF5SC2

CYQR;2010-05-10 11:48;CYQR 101148Z 15006KT 3SM BR OVC004 03/ RMK SF8

CYQR;2010-05-10 12:00;CYQR 101200Z 15008KT 3SM BR BKN005 OVC055 03/02 A2986 RMK SF6SC1 SLP135

CYQR;2010-05-10 12:13;CYQR 101213Z 15007KT 4SM BR BKN006 BKN057 03/ RMK SF6SC2

CYQR;2010-05-10 12:32;CYQR 101232Z 15008KT 5SM BR FEW003 BKN052 03/ RMK SF2SC4

CYQR;2010-05-10 13:00;CYQR 101300Z 17008KT 6SM BR SCT003 BKN050 03/02 A2987 RMK SF3SC4 SLP137

CYQR;2010-05-10 14:00;CYQR 101400Z 18007KT 6SM BR BKN006 OVC048 04/03 A2988 RMK SF6SC2 SLP141

CYQR;2010-05-10 15:00;CYQR 101500Z 26003KT 10SM OVC008 05/03 A2988 RMK SC8 SLP140

CYQR;2010-05-10 15:53;CYQR 101553Z 30005KT 10SM BKN010 OVC030 06/ RMK SC6SC2

CYQR;2010-05-10 16:00;CYQR 101600Z 29006KT 10SM BKN010 OVC030 06/04 A2989 RMK SC6SC2 SLP142

CYQR;2010-05-10 16:22;CYQR 101622Z 30005KT 10SM BKN016 OVC030 07/ RMK SC6SC2

CYQR;2010-05-10 17:00;CYQR 101700Z 27008KT 10SM BKN016 OVC030 07/04 A2991 RMK SC6SC2 SLP147

CYQR;2010-05-10 17:18;CYQR 101718Z 27006KT 15SM BKN014 OVC031 07/ RMK SC6SC2

CYQR;2010-05-10 17:51;CYQR 101751Z 25012KT 15SM OVC018 07/ RMK SC8

CYQR;2010-05-10 18:00;CYQR 101800Z 25009KT 15SM BKN018 OVC038 07/03 A2992 RMK SC6SC2 SLP151

CYQR;2010-05-10 19:00;CYQR 101900Z 25010G15KT 15SM BKN022 OVC038 08/03 A2992 RMK SC6SC2 CU ASOCTD SLP153

CYQR;2010-05-10 20:00;CYQR 102000Z 24005KT 15SM BKN028 BKN100 08/01 A2993 RMK SC6AC1 SLP154

CYQR;2010-05-10 21:00;CYQR 102100Z 26010KT 15SM BKN033 BKN100 11/03 A2992 RMK CU6AC1 SLP150

CYQR;2010-05-10 22:00;CYQR 102200Z 28011G17KT 15SM BKN035 BKN100 10/02 A2990 RMK CU6AC1 SLP144

CYQR;2010-05-10 23:00;CYQR 102300Z 31010G15KT 15SM BKN040 11/02 A2992 RMK CU6 SLP149

CYQR;2010-05-11 00:00;CYQR 110000Z 01007KT 15SM BKN042 10/02 A2993 RMK CU6 SLP155

CYQR;2010-05-11 01:00;CYQR 110100Z 34003KT 15SM SCT051 BKN090 BKN300 11/02 A2993 RMK CU3AC2CI0 ACC ASOCTD SLP156

CYQR;2010-05-11 02:00;CYQR 110200Z 01004KT 15SM FEW051 FEW090 FEW300 08/02 A2994 RMK CU1AC1CI1 SLP159

CYQR;2010-05-11 03:00;CYQR 110300Z 00000KT 15SM FEW050 FEW090 08/01 A2996 RMK SC1AC1 ACC ASOCTD SLP166

CYQR;2010-05-11 04:00;CYQR 110400Z 26003KT 15SM FEW090 03/M00 A2997 RMK AC1 SLP169

CYQR;2010-05-11 05:00;CYQR 110500Z 31004KT 15SM SKC 03/01 A2997 RMK SLP170

CYQR;2010-05-11 06:00;CYQR 110600Z 27003KT 15SM SKC 02/00 A2998 RMK SLP175

CYQR;2010-05-11 07:00;CYQR 110700Z 26006KT 15SM SKC M00/M02 A2999 RMK SLP177

CYQR;2010-05-11 08:00;CYQR 110800Z 30005KT 15SM SKC M01/M03 A2999 RMK SLP179

CYQR;2010-05-11 09:00;CYQR 110900Z 31004KT 15SM FEW038 M01/M03 A3000 RMK SC1 SLP181

CYQR;2010-05-11 10:00;CYQR 111000Z 32007KT 15SM SKC M01/M03 A3001 RMK SLP185

CYQR;2010-05-11 10:40;CYQR 111040Z 35007KT 12SM R13/3000VP6000FT/N BCFG SKC M01/ RMK FG W-NW VIS NW 11/2

CYQR;2010-05-11 11:00;CYQR 111100Z 34005KT 6SM R13/3000FT/N BR FEW030 M01/M03 A3002 RMK SC1 FG SW-W-NW VIS W-NW 1 SLP188

CYQR;2010-05-11 11:04;CYQR 111104Z 32007KT 1SM R13/2600FT/N BR FEW030 M01/ RMK FG2SC1

CYQR;2010-05-11 11:08;CYQR 111108Z 32005KT 1/2SM R13/1600FT/N FZFG SCT030 M01/ RMK FG3SC1

CYQR;2010-05-11 11:12;CYQR 111112Z 31006KT 1/4SM R13/1200FT/N FZFG SKC M01/ RMK FG6

CYQR;2010-05-11 11:16;CYQR 111116Z 30006KT 1/8SM R13/1100V1600FT/N FZFG SKC M01/ RMK FG7

CYQR;2010-05-11 11:25;CYQR 111125Z 31007KT 1/4SM R13/1100V2000FT/U FZFG SKC M01/ RMK FG7

CYQR;2010-05-11 11:41;CYQR 111141Z 34006KT 3/8SM R13/2200FT/N FZFG VV001 M01/ RMK FG8

CYQR;2010-05-11 12:00;CYQR 111200Z 35007KT 1/8SM R13/1100V1400FT/N FZFG VV001 M01/M02 A3004 RMK FG8 SLP193

CYQR;2010-05-11 12:25;CYQR 111225Z 35008KT 1/4SM R13/1200FT/N FZFG VV001 M00/ RMK FG8

CYQR;2010-05-11 13:00;CYQR 111300Z 36009KT 1/8SM R13/1000FT/N FG VV001 01/00 A3005 RMK FG8 SLP198

CYQR;2010-05-11 14:00;CYQR 111400Z 32005KT 1/8SM R13/1200FT/N FG VV001 03/02 A3007 RMK FG8 SLP203

CYQR;2010-05-11 14:17;CYQR 111417Z CCA 34007KT 3/8SM R13/3000V5000FT/N FG VV001 03/ RMK FG8

CYQR;2010-05-11 14:27;CYQR 111427Z CCA 33009KT 1/2SM R13/P6000FT/U FG SKC 04/ RMK FG7

CYQR;2010-05-11 14:41;CYQR 111441Z 35008KT 5SM BR OVC001 04/ RMK SF7

CYQR;2010-05-11 15:00;CYQR 111500Z 36009KT 8SM BKN003 06/05 A3008 RMK SC7 SLP207

CYQR;2010-05-11 15:14;CYQR 111514Z 01009KT 10SM BKN005 06/ RMK SC7

CYQR;2010-05-11 16:00;CYQR 111600Z 01011KT 12SM BKN007 06/04 A3009 RMK SC7 SLP210

CYQR;2010-05-11 16:16;CYQR 111616Z 34010KT 12SM SCT008 BKN012 08/ RMK SC3CU2

CYQR;2010-05-11 17:00;CYQR 111700Z 36011KT 15SM BKN018 09/04 A3010 RMK CU7 SLP212

CYQR;2010-05-11 18:00;CYQR 111800Z 01009KT 15SM OVC023 09/04 A3010 RMK SC8 SLP214

CYQR;2010-05-11 19:00;CYQR 111900Z 03006KT 15SM BKN029 OVC042 10/04 A3010 RMK CU6SC2 SLP214

CYQR;2010-05-11 20:00;CYQR 112000Z 02007KT 15SM BKN035 BKN050 11/03 A3010 RMK CU6SC2 SLP213

CYQR;2010-05-11 21:00;CYQR 112100Z 01007KT 15SM BKN039 12/03 A3010 RMK CU7 SLP213

CYQR;2010-05-11 22:00;CYQR 112200Z 03006KT 15SM BKN038 12/03 A3009 RMK CU7 SLP212

CYQR;2010-05-11 23:00;CYQR 112300Z 36012KT 15SM SCT040 BKN077 12/03 A3009 RMK CU4AC3 SLP212

CYQR;2010-05-12 00:00;CYQR 120000Z 01008KT 15SM SCT047 BKN075 12/02 A3010 RMK CU3AC4 SLP213

CYQR;2010-05-12 01:00;CYQR 120100Z 04003KT 15SM FEW040 BKN072 12/03 A3011 RMK CU2AC4 SLP216

CYQR;2010-05-12 02:00;CYQR 120200Z 04005KT 15SM FEW040 FEW076 09/02 A3012 RMK CU1AC2 SLP221

CYQR;2010-05-12 03:00;CYQR 120300Z 04003KT 15SM FEW040 FEW090 FEW250 08/01 A3014 RMK CU1AC1CI1 SLP226

CYQR;2010-05-12 04:00;CYQR 120400Z 04004KT 15SM FEW040 FEW090 07/01 A3015 RMK CU1AC1 SLP229

CYQR;2010-05-12 05:00;CYQR 120500Z 05005KT 15SM SKC 05/00 A3016 RMK SLP232

CYQR;2010-05-12 06:00;CYQR 120600Z 05005KT 15SM SKC 05/00 A3016 RMK SLP233

CYQR;2010-05-12 07:00;CYQR 120700Z 03006KT 15SM SKC 01/M01 A3016 RMK SLP233

CYQR;2010-05-12 08:00;CYQR 120800Z 05002KT 15SM SKC 02/M01 A3015 RMK SLP231

CYQR;2010-05-12 09:00;CYQR 120900Z 03004KT 15SM SKC M00/M03 A3015 RMK SLP232

CYQR;2010-05-12 10:00;CYQR 121000Z 11003KT 15SM SKC 01/M01 A3016 RMK SLP235

CYQR;2010-05-12 11:00;CYQR 121100Z 11003KT 15SM MIFG FEW040 00/M01 A3016 RMK SC1 SLP236

CYQR;2010-05-12 12:00;CYQR 121200Z 00000KT 15SM BCFG FEW040 FEW250 M01/M03 A3017 RMK SC1CI1 FG PTCHS SW-W-NW VIS W 6 SLP239

CYQR;2010-05-12 13:00;CYQR 121300Z 00000KT 15SM FEW010 FEW080 FEW250 03/02 A3020 RMK CF1AC1CI1 FG PTCHS SW-W ACC ASOCTD SLP246

CYQR;2010-05-12 14:00;CYQR 121400Z 19002KT 15SM FEW080 07/04 A3021 RMK AC2 ACC ASOCTD SLP250

CYQR;2010-05-12 15:00;CYQR 121500Z 11002KT 15SM FEW040 10/05 A3020 RMK CU2 SLP243

CYQR;2010-05-12 16:00;CYQR 121600Z 12004KT 15SM BKN035 10/03 A3020 RMK CU5 SLP242

CYQR;2010-05-12 17:00;CYQR 121700Z 08003KT 15SM SCT046 BKN300 12/02 A3019 RMK CU3CI1 SLP241

CYQR;2010-05-12 18:00;CYQR 121800Z 06007KT 15SM SCT046 BKN300 14/02 A3018 RMK CU3CI1 SLP237

CYQR;2010-05-12 19:00;CYQR 121900Z 34002KT 15SM FEW051 SCT300 14/01 A3017 RMK CU2CI0 SLP235

CYQR;2010-05-12 20:00;CYQR 122000Z 07007KT 15SM FEW061 SCT300 15/01 A3016 RMK CU2CI0 SLP230

CYQR;2010-05-12 21:00;CYQR 122100Z 00000KT 15SM FEW067 15/M02 A3014 RMK CU2 SLP226

CYQR;2010-05-12 22:00;CYQR 122200Z 10007KT 15SM FEW073 16/00 A3013 RMK CU2 SLP221

CYQR;2010-05-12 23:00;CYQR 122300Z 11004KT 15SM FEW073 16/M02 A3012 RMK CU2 SLP218

CYQR;2010-05-13 00:00;CYQR 130000Z 00000KT 15SM FEW065 15/M02 A3011 RMK SC2 CU ASOCTD SLP217

CYQR;2010-05-13 01:00;CYQR 130100Z 10002KT 15SM FEW080 15/M02 A3010 RMK AC1 AC ASOCTD SLP214

CYQR;2010-05-13 02:00;CYQR 130200Z 00000KT 15SM FEW080 15/M02 A3010 RMK AC1 SLP214

CYQR;2010-05-13 03:00;CYQR 130300Z 00000KT 15SM FEW080 12/M02 A3011 RMK AC1 SLP209

CYQR;2010-05-13 04:00;CYQR 130400Z 16002KT 15SM SKC 10/M01 A3011 RMK SLP211

CYQR;2010-05-13 05:00;CYQR 130500Z 00000KT 15SM SKC 06/01 A3011 RMK SLP211

CYQR;2010-05-13 06:00;CYQR 130600Z 00000KT 15SM SKC 04/00 A3010 RMK SLP211

CYQR;2010-05-13 07:00;CYQR 130700Z 12003KT 15SM SKC 06/01 A3010 RMK SLP208

CYQR;2010-05-13 08:00;CYQR 130800Z 17005KT 15SM SKC 01/M03 A3008 RMK SLP204

CYQR;2010-05-13 09:00;CYQR 130900Z 12003KT 15SM SKC 01/M02 A3007 RMK SLP200

CYQR;2010-05-13 10:00;CYQR 131000Z 14004KT 15SM SKC 02/M02 A3006 RMK SLP199

CYQR;2010-05-13 11:00;CYQR 131100Z 00000KT 10SM FEW250 02/M01 A3005 RMK CI0 FU SLP193

CYQR;2010-05-13 12:00;CYQR 131200Z 10002KT 6SM FU FEW080 02/M01 A3005 RMK AC1 SLP193

CYQR;2010-05-13 13:00;CYQR 131300Z 00000KT 4SM FU FEW080 FEW250 05/02 A3005 RMK AC1CI1 SLP192

CYQR;2010-05-13 14:00;CYQR 131400Z 28002KT 8SM SKC 10/02 A3005 RMK FU SLP194

CYQR;2010-05-13 15:00;CYQR 131500Z 28005KT 10SM SKC 12/02 A3004 RMK FU SLP186

CYQR;2010-05-13 16:00;CYQR 131600Z 29006KT 15SM FEW056 FEW290 16/01 A3003 RMK CU1CI0 SLP181

CYQR;2010-05-13 17:00;CYQR 131700Z 11003KT 15SM FEW055 BKN290 16/M02 A3002 RMK CU1CI0 SLP178

CYQR;2010-05-13 18:00;CYQR 131800Z 33005KT 15SM FEW070 SCT300 18/00 A3000 RMK CU2CI0 SLP172

CYQR;2010-05-13 19:00;CYQR 131900Z 24003KT 15SM SCT086 BKN300 18/M01 A2997 RMK CU4CI1 SLP164

CYQR;2010-05-13 20:00;CYQR 132000Z 16005KT 15SM SCT080 BKN300 18/M02 A2996 RMK CU4CI1 SLP160

CYQR;2010-05-13 21:00;CYQR 132100Z 33003KT 15SM SCT080 BKN300 19/M03 A2995 RMK CU4CI1 SLP157

CYQR;2010-05-13 22:00;CYQR 132200Z 33007KT 15SM SCT080 SCT120 BKN300 18/M02 A2994 RMK CU3AC1CI2 SLP154

CYQR;2010-05-13 23:00;CYQR 132300Z 28017KT 15SM SCT080 BKN120 BKN300 20/M02 A2993 RMK CU3AC2CI0 VIRGA SLP150

CYQR;2010-05-14 00:00;CYQR 140000Z 30013G19KT 15SM SCT080 BKN120 BKN300 20/M03 A2993 RMK CU3AC2CI0 SLP149

CYQR;2010-05-14 01:00;CYQR 140100Z 30011KT 15SM FEW080 SCT120 BKN300 19/M03 A2993 RMK CU2AC2CI2 SLP149

CYQR;2010-05-14 02:00;CYQR 140200Z 27007KT 15SM FEW080 FEW120 BKN300 14/M00 A2994 RMK AC1AC1CI2 CONTRAILS SLP151

CYQR;2010-05-14 03:00;CYQR 140300Z 24009KT 15SM FEW120 SCT300 09/M02 A2995 RMK AC1CI1 CONTRAILS SLP154

CYQR;2010-05-14 04:00;CYQR 140400Z 23009KT 15SM SCT300 07/M03 A2995 RMK CI2 SLP155

CYQR;2010-05-14 05:00;CYQR 140500Z 23009KT 15SM SKC 06/M02 A2994 RMK SLP152

CYQR;2010-05-14 06:00;CYQR 140600Z 23010KT 15SM FEW300 06/M03 A2994 RMK CI1 SLP151

CYQR;2010-05-14 07:00;CYQR 140700Z 24008KT 15SM SKC 05/M02 A2994 RMK SLP152

CYQR;2010-05-14 08:00;CYQR 140800Z 24007KT 15SM FEW120 FEW300 04/M02 A2994 RMK AC1CI1 SLP152

CYQR;2010-05-14 09:00;CYQR 140900Z 24009KT 15SM BKN100 07/M01 A2994 RMK AC6 SLP150

CYQR;2010-05-14 10:00;CYQR 141000Z 25009KT 15SM SCT100 06/M02 A2995 RMK AC3 SLP151

CYQR;2010-05-14 11:00;CYQR 141100Z 26013KT 15SM FEW080 SCT300 08/M01 A2995 RMK AC1CI1 SLP151

CYQR;2010-05-14 12:00;CYQR 141200Z 25009KT 15SM FEW080 BKN300 07/M01 A2995 RMK AC1CI2 CONTRAILS SLP153

CYQR;2010-05-14 13:00;CYQR 141300Z 26010KT 15SM FEW080 SCT300 09/01 A2996 RMK AC1CI1 CONTRAILS SLP156

CYQR;2010-05-14 14:00;CYQR 141400Z 27012KT 15SM FEW084 SCT260 BKN300 13/03 A2998 RMK AC2CC2CI0 SLP161

CYQR;2010-05-14 15:00;CYQR 141500Z 29013KT 15SM FEW070 OVC280 16/03 A2999 RMK AC1CI2 CS ASOCTD SLP166

CYQR;2010-05-14 16:00;CYQR 141600Z 30009KT 15SM FEW080 OVC280 18/03 A2999 RMK AC1CI3 SLP166

CYQR;2010-05-14 17:00;CYQR 141700Z 33013KT 15SM FEW080 BKN280 19/02 A2999 RMK CU1CI2 SLP168

CYQR;2010-05-14 18:00;CYQR 141800Z 32012G17KT 15SM FEW071 BKN300 21/03 A3000 RMK CU1CI0 SLP168

CYQR;2010-05-14 19:00;CYQR 141900Z 31010G24KT 15SM FEW062 SCT300 22/02 A2999 RMK CU2CI0 SLP167

CYQR;2010-05-14 20:00;CYQR 142000Z 31010G19KT 15SM FEW069 BKN300 21/02 A3000 RMK CU2CI0 SLP168

CYQR;2010-05-14 21:00;CYQR 142100Z 33018G24KT 15SM SCT069 BKN300 23/02 A2999 RMK CU4CI0 SLP165

CYQR;2010-05-14 22:00;CYQR 142200Z 28011G24KT 15SM FEW069 SCT300 21/01 A2999 RMK CU2CI0 SLP164

CYQR;2010-05-14 23:00;CYQR 142300Z 32015G24KT 15SM FEW075 FEW300 22/02 A2999 RMK CU2CI0 SLP164

CYQR;2010-05-15 00:00;CYQR 150000Z 32010G18KT 15SM FEW075 FEW300 22/01 A2999 RMK CU1CI0 SLP166

CYQR;2010-05-15 01:00;CYQR 150100Z 36012KT 15SM FEW075 FEW100 FEW300 20/02 A3000 RMK CU1AC1CI1 SLP167

CYQR;2010-05-15 02:00;CYQR 150200Z 01006KT 15SM FEW075 FEW100 FEW300 18/03 A3000 RMK ACC1AC1CI1 SLP169

CYQR;2010-05-15 03:00;CYQR 150300Z 04006KT 15SM FEW100 FEW300 15/02 A3002 RMK AC1CI1 SLP174

CYQR;2010-05-15 04:00;CYQR 150400Z 07006KT 15SM FEW300 13/02 A3003 RMK CI1 SLP178

CYQR;2010-05-15 05:00;CYQR 150500Z 09006KT 15SM BKN300 13/02 A3004 RMK CI2 SLP180

CYQR;2010-05-15 06:00;CYQR 150600Z 12006KT 15SM SKC 09/02 A3005 RMK SLP183

CYQR;2010-05-15 07:00;CYQR 150700Z 11007KT 15SM BKN300 08/01 A3005 RMK CI2 SLP184

CYQR;2010-05-15 08:00;CYQR 150800Z 13005KT 15SM SCT300 06/01 A3005 RMK CI2 SLP185

CYQR;2010-05-15 09:00;CYQR 150900Z 13006KT 15SM SKC 05/01 A3006 RMK SLP190

CYQR;2010-05-15 10:00;CYQR 151000Z 12007KT 15SM FEW300 06/01 A3006 RMK CI1 SLP190

CYQR;2010-05-15 11:00;CYQR 151100Z 12009KT 15SM FEW100 FEW300 07/02 A3005 RMK AC1CI0 ACC ASOCTD SLP187

CYQR;2010-05-15 12:00;CYQR 151200Z 12010KT 15SM FEW100 FEW300 08/02 A3005 RMK AC1CI1 ACC ASOCTD CONTRAILS SLP183

CYQR;2010-05-15 13:00;CYQR 151300Z 14010KT 15SM FEW090 FEW300 11/03 A3005 RMK AC1CI0 SLP185

CYQR;2010-05-15 14:00;CYQR 151400Z 15006KT 15SM SCT100 BKN300 13/04 A3006 RMK AC3CI0 SLP187

CYQR;2010-05-15 15:00;CYQR 151500Z 14006KT 15SM FEW100 FEW300 17/06 A3006 RMK AC1CI0 SLP187

CYQR;2010-05-15 16:00;CYQR 151600Z 17006KT 15SM FEW100 FEW300 20/04 A3005 RMK ACC1CI1 SLP185

CYQR;2010-05-15 17:00;CYQR 151700Z 22007KT 15SM FEW080 FEW300 22/03 A3004 RMK CU1CI1 SLP181

CYQR;2010-05-15 18:00;CYQR 151800Z 23012G17KT 15SM FEW088 FEW300 23/01 A3003 RMK CU2CI1 SLP178

CYQR;2010-05-15 19:00;CYQR 151900Z 19016G22KT 15SM FEW088 FEW300 23/00 A3002 RMK CU2CI1 SLP175

CYQR;2010-05-15 20:00;CYQR 152000Z 18012G20KT 15SM SCT090 BKN300 24/00 A3002 RMK CU3CI1 SLP173

CYQR;2010-05-15 21:00;CYQR 152100Z 19011G18KT 15SM FEW090 BKN300 24/02 A3001 RMK CU2CI2 SLP170

CYQR;2010-05-15 22:00;CYQR 152200Z 19012KT 15SM FEW090 BKN300 24/01 A2999 RMK CU2CI2 SLP164

CYQR;2010-05-15 23:00;CYQR 152300Z 19013KT 15SM FEW090 BKN300 25/M00 A2998 RMK CU2CI2 SLP160

CYQR;2010-05-16 00:00;CYQR 160000Z 16007KT 15SM FEW090 BKN300 24/M00 A2997 RMK CU1CI3 SLP156

CYQR;2010-05-16 01:00;CYQR 160100Z 17005KT 15SM FEW090 BKN300 23/M00 A2996 RMK AC2CI2 SLP154

CYQR;2010-05-16 02:00;CYQR 160200Z 18005KT 15SM FEW096 BKN300 20/02 A2996 RMK AC2CI1 SLP154

CYQR;2010-05-16 03:00;CYQR 160300Z 35006KT 15SM FEW094 BKN300 14/04 A2997 RMK AC2CI1 SLP157

CYQR;2010-05-16 04:00;CYQR 160400Z 05006KT 15SM FEW090 BKN300 15/04 A2998 RMK AC2CI1 SLP160

CYQR;2010-05-16 05:00;CYQR 160500Z 07008KT 15SM FEW090 SCT300 13/04 A2997 RMK AC1CI1 SLP158

CYQR;2010-05-16 06:00;CYQR 160600Z 07005KT 15SM FEW090 BKN300 13/04 A2997 RMK AC1CI1 SLP154

CYQR;2010-05-16 07:00;CYQR 160700Z 08004KT 15SM FEW090 BKN280 12/03 A2997 RMK AC2CI1 SLP154

CYQR;2010-05-16 08:00;CYQR 160800Z 12006KT 15SM FEW090 BKN280 09/02 A2997 RMK AC1CI1 SLP154

CYQR;2010-05-16 09:00;CYQR 160900Z 12007KT 15SM FEW090 BKN280 08/03 A2997 RMK AC1CI1 SLP156

CYQR;2010-05-16 10:00;CYQR 161000Z 10006KT 15SM FEW098 BKN280 08/04 A2998 RMK AC1CI1 SLP158

CYQR;2010-05-16 11:00;CYQR 161100Z 35003KT 15SM SCT100 BKN280 06/03 A2999 RMK AC3CI1 SLP161

CYQR;2010-05-16 12:00;CYQR 161200Z 08005KT 15SM SCT088 07/04 A2999 RMK AC3 ACC ASOCTD SLP162

CYQR;2010-05-16 13:00;CYQR 161300Z 10003KT 15SM SCT100 11/07 A2999 RMK AC4 ACC ASOCTD SLP164

CYQR;2010-05-16 14:00;CYQR 161400Z 10006KT 15SM SCT100 13/08 A2999 RMK AC4 ACC ASOCTD SLP164

CYQR;2010-05-16 15:00;CYQR 161500Z 10005KT 15SM FEW100 SCT300 17/08 A2999 RMK AC2CI0 ACC ASOCTD SLP164

CYQR;2010-05-16 16:00;CYQR 161600Z 11005KT 15SM FEW050 FEW100 FEW300 21/08 A2999 RMK CU1AC1CI0 SLP164

CYQR;2010-05-16 17:00;CYQR 161700Z 09004KT 15SM FEW060 FEW100 23/07 A2999 RMK CU1AC1 TR CU SLP162

CYQR;2010-05-16 18:00;CYQR 161800Z 00000KT 15SM FEW065 24/05 A2998 RMK CU1 SLP155

CYQR;2010-05-16 19:00;CYQR 161900Z 13003KT 15SM SCT080 24/04 A2997 RMK CU3 SLP152

CYQR;2010-05-16 20:00;CYQR 162000Z 16007KT 15SM SCT080TCU 24/03 A2996 RMK TCU4 VIRGA NE SLP148

CYQR;2010-05-16 21:00;CYQR 162100Z 02002KT 15SM SCT069TCU 24/03 A2995 RMK TCU4 VIRGA ALQDS SLP147

CYQR;2010-05-16 22:00;CYQR 162200Z 04005KT 15SM FEW070TCU 25/05 A2994 RMK TCU2 VIRGA ALQDS SLP144

CYQR;2010-05-16 23:00;CYQR 162300Z 09005KT 15SM FEW080TCU 25/04 A2993 RMK TCU2 VIRGA SLP141

CYQR;2010-05-17 00:00;CYQR 170000Z 06003KT 15SM FEW075 25/06 A2993 RMK CU2 TCU ASOCTD E SLP141

CYQR;2010-05-17 01:00;CYQR 170100Z 01002KT 15SM SCT080 SCT120 25/04 A2993 RMK CU3AC1 TCU ASOCTD TR AC SLP142

CYQR;2010-05-17 02:00;CYQR 170200Z 09006KT 15SM SCT080 SCT120 22/06 A2993 RMK CU3AC1 TCU ASOCTD TR AC SLP142

CYQR;2010-05-17 03:00;CYQR 170300Z 11005KT 15SM SCT095 19/06 A2994 RMK AC4 SLP143

CYQR;2010-05-17 04:00;CYQR 170400Z 21009KT 15SM SCT095 17/06 A2996 RMK AC4 SLP150

CYQR;2010-05-17 05:00;CYQR 170500Z 16011KT 15SM SCT095 15/07 A2999 RMK AC3 SLP158

CYQR;2010-05-17 06:00;CYQR 170600Z 15010KT 15SM FEW100 14/07 A2999 RMK AC2 SLP158

CYQR;2010-05-17 07:00;CYQR 170700Z 13010KT 15SM FEW100 12/07 A2999 RMK AC2 SLP158

CYQR;2010-05-17 08:00;CYQR 170800Z 13010KT 15SM FEW100 11/07 A2999 RMK AC2 SLP158

CYQR;2010-05-17 09:00;CYQR 170900Z 13011KT 15SM FEW100 10/07 A2999 RMK AC2 SLP161

CYQR;2010-05-17 10:00;CYQR 171000Z 13011KT 15SM SKC 09/06 A3000 RMK SLP164

CYQR;2010-05-17 11:00;CYQR 171100Z 13010KT 15SM FEW100 09/06 A3000 RMK AC1 SLP166

CYQR;2010-05-17 12:00;CYQR 171200Z 14011KT 15SM FEW100 FEW280 09/06 A3001 RMK AC1CI0 SLP167

CYQR;2010-05-17 13:00;CYQR 171300Z 13008KT 15SM FEW100 FEW300 11/07 A3001 RMK AC1CI0 SLP167

CYQR;2010-05-17 14:00;CYQR 171400Z 14009KT 15SM FEW300 14/09 A3000 RMK CI0 SLP164

CYQR;2010-05-17 15:00;CYQR 171500Z 15008KT 15SM FEW300 18/10 A2999 RMK CI1 SLP159

CYQR;2010-05-17 16:00;CYQR 171600Z 16010KT 15SM FEW300 22/10 A2998 RMK CI1 SLP155

CYQR;2010-05-17 17:00;CYQR 171700Z 16012G17KT 15SM SCT300 24/09 A2997 RMK CI1 SLP153

CYQR;2010-05-17 18:00;CYQR 171800Z 19012G19KT 15SM FEW075 BKN300 26/07 A2996 RMK CU1CI0 SLP147

CYQR;2010-05-17 19:00;CYQR 171900Z 17013KT 15SM FEW075 BKN300 26/07 A2994 RMK CU2CI0 SLP141

CYQR;2010-05-17 20:00;CYQR 172000Z 18011G21KT 15SM SCT087 BKN300 26/06 A2993 RMK CU4CI1 SLP138

CYQR;2010-05-17 21:00;CYQR 172100Z 22017G22KT 15SM SCT075 BKN300 26/06 A2992 RMK CU4CI1 SLP136

CYQR;2010-05-17 22:00;CYQR 172200Z 18016G22KT 15SM FEW085 BKN300 28/06 A2991 RMK CU2CI1 SLP133

CYQR;2010-05-17 23:00;CYQR 172300Z 20014G21KT 15SM FEW085 BKN300 27/05 A2991 RMK CU2CI1 SLP131

CYQR;2010-05-18 00:00;CYQR 180000Z 18014G19KT 15SM FEW095 BKN300 27/06 A2990 RMK CU2CI1 SLP128

CYQR;2010-05-18 01:00;CYQR 180100Z 19013KT 15SM FEW070 FEW097 BKN300 25/06 A2989 RMK CU1AC2CI1 SLP125

CYQR;2010-05-18 02:00;CYQR 180200Z 17010KT 15SM FEW095 BKN280 24/06 A2988 RMK AC2CI1 SLP123

CYQR;2010-05-18 03:00;CYQR 180300Z 16010KT 15SM FEW095 BKN280 20/06 A2988 RMK AC2CI1 SLP122

CYQR;2010-05-18 04:00;CYQR 180400Z 14011KT 15SM FEW095 BKN280 18/07 A2989 RMK AC1CI1 SLP125

CYQR;2010-05-18 05:00;CYQR 180500Z 16011KT 15SM FEW095 BKN280 16/07 A2989 RMK AC1CI1 SLP125

CYQR;2010-05-18 06:00;CYQR 180600Z 16012KT 15SM SCT280 15/07 A2990 RMK CI1 SLP125

CYQR;2010-05-18 07:00;CYQR 180700Z 15011KT 15SM SCT280 14/07 A2990 RMK CI1 SLP125

CYQR;2010-05-18 08:00;CYQR 180800Z 14011KT 15SM SKC 13/07 A2989 RMK SLP122

CYQR;2010-05-18 09:00;CYQR 180900Z 14013KT 15SM SKC 12/06 A2988 RMK SLP122

CYQR;2010-05-18 10:00;CYQR 181000Z 14012KT 15SM FEW095 11/06 A2988 RMK AC1 SLP121

CYQR;2010-05-18 11:00;CYQR 181100Z 14011KT 15SM FEW095 BKN280 11/06 A2988 RMK AC1CI1 SLP121

CYQR;2010-05-18 12:00;CYQR 181200Z 14012KT 15SM FEW075 SCT280 11/07 A2987 RMK AC1CI1 SLP119

CYQR;2010-05-18 13:00;CYQR 181300Z 14013KT 15SM FEW080 BKN300 13/08 A2987 RMK AC1CI0 SLP118

CYQR;2010-05-18 14:00;CYQR 181400Z 16013KT 15SM BKN300 16/09 A2986 RMK CI1 SLP116

CYQR;2010-05-18 15:00;CYQR 181500Z 14012KT 15SM BKN300 19/10 A2985 RMK CI1 SLP111

CYQR;2010-05-18 16:00;CYQR 181600Z 13011G17KT 15SM BKN300 22/10 A2984 RMK CI0 SLP106

CYQR;2010-05-18 17:00;CYQR 181700Z 13014G20KT 15SM SCT300 24/09 A2982 RMK CI0 SLP100

CYQR;2010-05-18 18:00;CYQR 181800Z 14014G20KT 15SM SCT300 25/08 A2980 RMK CI1 SLP092

CYQR;2010-05-18 19:00;CYQR 181900Z 14011G20KT 15SM SCT087 BKN300 26/09 A2978 RMK AC1AC1 SLP085

CYQR;2010-05-18 20:00;CYQR 182000Z 14013G20KT 15SM FEW090 BKN300 27/08 A2976 RMK AC1CI1 SLP078

CYQR;2010-05-18 21:00;CYQR 182100Z 15018KT 15SM FEW100 BKN300 29/09 A2974 RMK AC2CI0 SLP072

CYQR;2010-05-18 22:00;CYQR 182200Z 17016G21KT 15SM FEW100 BKN300 29/09 A2973 RMK AC2CI0 SLP069

CYQR;2010-05-18 23:00;CYQR 182300Z 14012KT 15SM FEW070 SCT100 BKN300 28/08 A2972 RMK AC2AC2CI1 SLP065

CYQR;2010-05-19 00:00;CYQR 190000Z 15014G22KT 15SM FEW095 BKN300 27/07 A2972 RMK AC2CI1 SLP065

CYQR;2010-05-19 01:00;CYQR 190100Z 14018KT 15SM FEW100 BKN300 27/06 A2971 RMK AC1CI0 SLP061

CYQR;2010-05-19 02:00;CYQR 190200Z 15017KT 15SM FEW100 BKN300 26/07 A2970 RMK AC1CI0 SLP060

CYQR;2010-05-19 03:00;CYQR 190300Z 15017KT 15SM FEW100 23/07 A2972 RMK AC2 SLP064

CYQR;2010-05-19 04:00;CYQR 190400Z 14016KT 15SM FEW100 21/08 A2974 RMK AC2 SLP069

CYQR;2010-05-19 05:00;CYQR 190500Z 16016KT 15SM FEW100 20/07 A2976 RMK AC2 SLP075

CYQR;2010-05-19 06:00;CYQR 190600Z 15016KT 15SM SCT260 19/06 A2977 RMK CI1 SLP079

CYQR;2010-05-19 07:00;CYQR 190700Z 14013KT 15SM SCT280 17/06 A2979 RMK CI1 SLP085

CYQR;2010-05-19 08:00;CYQR 190800Z 14015KT 15SM SCT280 14/06 A2979 RMK CI1 SLP087

CYQR;2010-05-19 09:00;CYQR 190900Z 14015KT 15SM SCT280 14/05 A2979 RMK CI1 SLP089

CYQR;2010-05-19 10:00;CYQR 191000Z 14013G18KT 15SM SCT280 12/05 A2980 RMK CI1 SLP091

CYQR;2010-05-19 11:00;CYQR 191100Z 13013KT 15SM BKN280 12/06 A2980 RMK CI1 SLP091

CYQR;2010-05-19 12:00;CYQR 191200Z 13013KT 15SM BKN280 12/06 A2981 RMK CI1 SLP097

CYQR;2010-05-19 13:00;CYQR 191300Z 13011G17KT 15SM BKN280 14/07 A2982 RMK CI2 SLP100

CYQR;2010-05-19 14:00;CYQR 191400Z 14012KT 15SM BKN300 17/08 A2982 RMK CI1 SLP101

CYQR;2010-05-19 15:00;CYQR 191500Z 13014KT 15SM BKN300 20/10 A2982 RMK CI2 SLP097

CYQR;2010-05-19 16:00;CYQR 191600Z 14015G20KT 15SM FEW045 OVC300 22/11 A2982 RMK CF1CI2 SLP098

CYQR;2010-05-19 17:00;CYQR 191700Z 17019KT 15SM FEW048 BKN300 24/12 A2982 RMK CF1CI1 SLP098

CYQR;2010-05-19 18:00;CYQR 191800Z 17022G27KT 15SM FEW055 BKN300 26/12 A2982 RMK CU1CI1 SLP096

CYQR;2010-05-19 19:00;CYQR 191900Z 17023G32KT 15SM SCT058 BKN300 27/12 A2981 RMK CU4CI0 SLP095

CYQR;2010-05-19 20:00;CYQR 192000Z 18015G28KT 15SM SCT067 BKN300 28/12 A2981 RMK CU3CI1 SLP092

CYQR;2010-05-19 21:00;CYQR 192100Z 17017G25KT 15SM SCT069 28/11 A2980 RMK CU3 SLP090

CYQR;2010-05-19 22:00;CYQR 192200Z 17017G22KT 15SM SCT075 BKN300 28/12 A2977 RMK CU4CI0 TCU ASOCTD SLP082

CYQR;2010-05-19 23:00;CYQR 192300Z 16016G21KT 15SM SCT075 BKN300 28/12 A2975 RMK CU3CI0 CB ASOCTD SLP076

CYQR;2010-05-20 00:00;CYQR 200000Z 17018G26KT 15SM FEW075CB SCT120 BKN300 28/11 A2975 RMK CB2AC1CI0 SLP076

CYQR;2010-05-20 01:00;CYQR 200100Z 18010KT 15SM SCT075 BKN120 BKN300 25/11 A2976 RMK CU4AC1CI0 CB EMBD SLP077

CYQR;2010-05-20 02:00;CYQR 200200Z 30005KT 15SM BKN063 BKN300 20/14 A2976 RMK CU5CI1 CB NE SLP078

CYQR;2010-05-20 03:00;CYQR 200300Z 13005KT 15SM BKN083 BKN300 20/13 A2977 RMK CU5CI0 LTGCG DIST SW SLP084

CYQR;2010-05-20 04:00;CYQR 200400Z 17014KT 15SM FEW012 BKN087 BKN300 21/08 A2979 RMK SF0CU5CI0 LTG DIST SW SLP088

CYQR;2010-05-20 05:00;CYQR 200500Z 17010KT 15SM FEW040 BKN270 17/08 A2979 RMK CU2CI0 SLP090

CYQR;2010-05-20 06:00;CYQR 200600Z 16013KT 15SM FEW035 SCT260 17/08 A2980 RMK SC0CI0 SLP089

CYQR;2010-05-20 07:00;CYQR 200700Z 16011KT 15SM SCT260 15/08 A2980 RMK CI2 SLP090

CYQR;2010-05-20 08:00;CYQR 200800Z 16015KT 15SM FEW260 15/08 A2980 RMK CI0 SLP090

CYQR;2010-05-20 09:00;CYQR 200900Z 16015KT 15SM SKC 14/08 A2980 RMK SLP090

CYQR;2010-05-20 10:00;CYQR 201000Z 16011KT 15SM FEW012 13/08 A2980 RMK SC1 SLP092

CYQR;2010-05-20 11:00;CYQR 201100Z 17012KT 15SM FEW025 FEW240 12/08 A2980 RMK SC1CI1 SLP091

CYQR;2010-05-20 12:00;CYQR 201200Z 16010KT 15SM FEW016 FEW240 12/08 A2980 RMK CU1CI0 SLP093

CYQR;2010-05-20 13:00;CYQR 201300Z 17013KT 15SM FEW016 FEW240 15/09 A2980 RMK CU1CI1 SLP092

CYQR;2010-05-20 14:00;CYQR 201400Z 18022KT 15SM FEW035 FEW240 18/09 A2979 RMK CU1CI1 SLP089

CYQR;2010-05-20 15:00;CYQR 201500Z 17019G26KT 15SM FEW040 FEW300 20/09 A2977 RMK CU1CI0 SLP082

CYQR;2010-05-20 16:00;CYQR 201600Z 18022G28KT 15SM FEW300 21/10 A2976 RMK CI1 SLP080

CYQR;2010-05-20 17:00;CYQR 201700Z 18024G32KT 15SM FEW050 SCT300 23/11 A2976 RMK CF1CI2 SLP077

CYQR;2010-05-20 18:00;CYQR 201800Z 18025G35KT 15SM FEW056 BKN300 25/11 A2974 RMK CU2CI1 SLP071

CYQR;2010-05-20 19:00;CYQR 201900Z 17022G30KT 15SM FEW060 BKN300 25/10 A2972 RMK CU1CI1 SLP064

CYQR;2010-05-20 20:00;CYQR 202000Z 17029G37KT 15SM FEW072 SCT300 25/07 A2970 RMK CU1CI1 SLP059

CYQR;2010-05-20 21:00;CYQR 202100Z 19028G37KT 15SM FEW080 FEW300 26/07 A2967 RMK CU1CI1 SLP049

CYQR;2010-05-20 22:00;CYQR 202200Z 18026G37KT 15SM FEW083 SCT300 25/08 A2965 RMK CU1CI1 SLP042

CYQR;2010-05-20 23:00;CYQR 202300Z 19027G34KT 15SM FEW083 BKN300 26/07 A2964 RMK CU1CI1 SLP037

CYQR;2010-05-21 00:00;CYQR 210000Z 18026G31KT 15SM FEW085 SCT300 25/06 A2963 RMK CU2CI1 SLP037

CYQR;2010-05-21 01:00;CYQR 210100Z 18019G26KT 15SM FEW080 BKN300 23/07 A2963 RMK ACC2CI1 SLP037

CYQR;2010-05-21 02:00;CYQR 210200Z 30022KT 15SM FEW012 BKN074 BKN088 BKN300 16/12 A2967 RMK SC1CU5AC2CI0 SLP048

CYQR;2010-05-21 02:35;CYQR 210235Z 29013KT 15SM BKN011 BKN074 15/ RMK SC6CU2

CYQR;2010-05-21 03:00;CYQR 210300Z 28021KT 15SM BKN010 OVC080 13/10 A2970 RMK SC6AC2 SLP062

CYQR;2010-05-21 04:00;CYQR 210400Z 30017KT 15SM BKN014 OVC047 11/08 A2972 RMK SC6SC2 OBS TAKEN -06 SLP068

CYQR;2010-05-21 04:24;CYQR 210424Z 29008KT 15SM -SHRA FEW011 BKN047 OVC090 11/ RMK SC2SC3AC2 CVCTV CLD EMBD

CYQR;2010-05-21 05:00;CYQR 210500Z 26010KT 10SM -SHRA FEW010 BKN029 OVC060 11/09 A2974 RMK SF1SC6SC1 CVCTV CLD EMBD SLP075

CYQR;2010-05-21 06:00;CYQR 210600Z 25005KT 10SM -SHRA OVC032 10/09 A2976 RMK SC8 CVCTV CLD EMBD /R02/ SLP080

CYQR;2010-05-21 06:25;CYQR 210625Z 24007KT 15SM BKN042 OVC065 10/ RMK SC6SC2

CYQR;2010-05-21 07:00;CYQR 210700Z 19005KT 15SM OVC065 10/09 A2975 RMK SC8 SLP079

CYQR;2010-05-21 08:00;CYQR 210800Z 20009KT 15SM OVC061 10/09 A2977 RMK SC8 SLP086

CYQR;2010-05-21 09:00;CYQR 210900Z 23010KT 15SM OVC075 10/07 A2978 RMK AC8 SLP088

CYQR;2010-05-21 10:00;CYQR 211000Z 24010KT 15SM FEW075 BKN270 07/04 A2980 RMK AC2CI0 SLP094

CYQR;2010-05-21 11:00;CYQR 211100Z 24009KT 15SM FEW075 BKN270 06/02 A2980 RMK AC1CI1 SLP095

CYQR;2010-05-21 12:00;CYQR 211200Z 23012KT 15SM FEW075 SCT270 05/01 A2981 RMK AC1CI0 SLP102

CYQR;2010-05-21 13:00;CYQR 211300Z 23012KT 15SM FEW075 BKN270 07/02 A2981 RMK AC1CI1 SLP102

CYQR;2010-05-21 14:00;CYQR 211400Z 24017KT 15SM FEW080 SCT300 09/01 A2981 RMK AC1CI0 SLP102

CYQR;2010-05-21 15:00;CYQR 211500Z 25020KT 15SM FEW300 11/02 A2981 RMK CI1 SLP107

CYQR;2010-05-21 16:00;CYQR 211600Z 24025G30KT 15SM BKN300 13/00 A2982 RMK CI1 SLP108

CYQR;2010-05-21 17:00;CYQR 211700Z 24020G27KT 15SM BKN300 15/M01 A2981 RMK CI2 SLP106

CYQR;2010-05-21 18:00;CYQR 211800Z 25021G27KT 15SM FEW300 15/M02 A2979 RMK CI0 SLP099

CYQR;2010-05-21 19:00;CYQR 211900Z 24025G31KT 15SM FEW075 FEW300 17/M02 A2979 RMK CU1CI0 SLP098

CYQR;2010-05-21 20:00;CYQR 212000Z 23023G36KT 15SM FEW075 FEW300 18/M01 A2976 RMK CU1CI0 SLP090

CYQR;2010-05-21 21:00;CYQR 212100Z 23016G21KT 15SM FEW080 SCT300 18/M01 A2974 RMK CU1CC2 SLP080

CYQR;2010-05-21 22:00;CYQR 212200Z 22022G28KT 15SM BKN070 BKN300 18/M01 A2974 RMK CU5CI0 SLP080

CYQR;2010-05-21 23:00;CYQR 212300Z 22016G21KT 15SM BKN085 BKN300 17/M01 A2973 RMK CU5CI0 SLP075

CYQR;2010-05-22 00:00;CYQR 220000Z 22017G22KT 15SM BKN076 17/M00 A2972 RMK CU5 SLP077

CYQR;2010-05-22 01:00;CYQR 220100Z 19015KT 15SM FEW080 BKN120 BKN300 18/01 A2971 RMK CU2AC2CI0 SLP072

CYQR;2010-05-22 02:00;CYQR 220200Z 19012G18KT 15SM BKN080 16/02 A2970 RMK CU6 SH DIST SE+SW SLP070

CYQR;2010-05-22 03:00;CYQR 220300Z 15009KT 15SM SCT073 BKN100 15/02 A2969 RMK AC3AC2 SLP065

CYQR;2010-05-22 04:00;CYQR 220400Z 12008KT 15SM FEW090 11/02 A2968 RMK AC1 OBS TAKEN -05 SLP061

CYQR;2010-05-22 05:00;CYQR 220500Z 12008KT 15SM FEW090 09/01 A2968 RMK AC2 SLP060

CYQR;2010-05-22 06:00;CYQR 220600Z 26003KT 15SM FEW088 09/01 A2968 RMK AC2 SLP060

CYQR;2010-05-22 07:00;CYQR 220700Z 09006KT 15SM FEW085 06/01 A2965 RMK AC2 SLP050

CYQR;2010-05-22 08:00;CYQR 220800Z 10007KT 15SM SKC 06/02 A2964 RMK SLP047

CYQR;2010-05-22 09:00;CYQR 220900Z 11009KT 15SM FEW220 07/01 A2962 RMK CI0 SLP040

CYQR;2010-05-22 10:00;CYQR 221000Z 11007KT 15SM BKN220 08/M00 A2961 RMK CI2 SLP038

CYQR;2010-05-22 11:00;CYQR 221100Z 11007KT 15SM FEW080 BKN250 07/M00 A2960 RMK AC1CI1 SLP032

CYQR;2010-05-22 12:00;CYQR 221200Z 10009KT 15SM OVC250 09/01 A2958 RMK CI2 SLP026

CYQR;2010-05-22 13:00;CYQR 221300Z 09007KT 15SM FEW024 FEW180 OVC250 11/05 A2956 RMK CU1AC1CI2 CU TR SLP021

CYQR;2010-05-22 14:00;CYQR 221400Z 10008KT 15SM SCT020 BKN110 OVC250 13/08 A2954 RMK SC4AC1CI3 SLP014

CYQR;2010-05-22 15:00;CYQR 221500Z 09011KT 15SM SCT013 BKN085 OVC250 14/09 A2951 RMK SC3AC2CI2 SLP001

CYQR;2010-05-22 16:00;CYQR 221600Z 09012G18KT 15SM BKN015 OVC036 14/09 A2947 RMK SC6SC2 SLP988

CYQR;2010-05-22 16:18;CYQR 221618Z 09012G18KT 15SM -SHRA BKN015 OVC036 13/ RMK SC6SC2

CYQR;2010-05-22 16:37;CYQR 221637Z 09015KT 2SM -SHRA BR OVC013 12/ RMK FG2SC6 CVCTV CLD EMBD

CYQR;2010-05-22 16:49;CYQR 221649Z 10011G16KT 1SM R13/P6000FT/N -SHRA BR OVC011 12/ RMK FG2SC6

CYQR;2010-05-22 16:52;CYQR 221652Z 10011G16KT 1SM R13/P6000FT/U SHRA BR OVC008 12/ RMK FG3SC5

CYQR;2010-05-22 17:00;CYQR 221700Z 08010KT 1SM R13/P6000FT/D SHRA BR OVC007 12/11 A2946 RMK FG3SC5 CVCTV CLD EMBD SLP986

CYQR;2010-05-22 17:02;CYQR 221702Z 08008KT 2SM -SHRA OVC007 12/ RMK FG3SC5 CVCTV CLD EMBD

CYQR;2010-05-22 17:33;CYQR 221733Z 09010KT 3SM -SHRA BR OVC006 12/ RMK FG2SC6

CYQR;2010-05-22 18:00;CYQR 221800Z 08013G19KT 2 1/2SM -SHRA BR OVC006 13/11 A2942 RMK FG2SC6 /R10/ CVCTV CLD EMBD SLP973

CYQR;2010-05-22 19:00;CYQR 221900Z 08015KT 6SM -SHRA BR BKN006 OVC049 13/12 A2936 RMK SF5SC3 CVTV CLD EMBD PRESFR SLP954

CYQR;2010-05-22 20:00;CYQR 222000Z 10020KT 15SM OVC012 14/12 A2931 RMK SC8 INTMT -SHRA CVCTV CLD EMBD SLP940

CYQR;2010-05-22 20:18;CYQR 222018Z 11017G27KT 2SM -SHRA BR OVC012 14/ RMK FG2SC6 CVCTV CLD EMBD

CYQR;2010-05-22 20:42;CYQR 222042Z 11018G24KT 2 1/2SM -SHRA BR OVC008 14/ RMK FG3SC5 CVCTV CLD EMBD

CYQR;2010-05-22 21:00;CYQR 222100Z 11015G22KT 3SM -SHRA BR BKN006 OVC041 13/12 A2929 RMK SC6SC2 SLP931

CYQR;2010-05-22 22:00;CYQR 222200Z 13013KT 5SM -SHRA BR OVC005 14/13 A2924 RMK SC8 CVCTV CLD EMBD PRESFR SLP915

CYQR;2010-05-22 22:12;CYQR 222212Z 11017KT 5SM -SHRA BR OVC004 14/ RMK SF8 CVCTV CLD EMBD

CYQR;2010-05-22 22:52;CYQR 222252Z 15018G24KT 8SM -SHRA OVC007 15/ RMK SF8 CVCTV CLD EMBD

CYQR;2010-05-22 23:00;CYQR 222300Z 14023G30KT 8SM -SHRA BKN008 OVC040 15/14 A2921 RMK SC7SC1 CVCTV CLD EMBD SLP904

CYQR;2010-05-22 23:16;CYQR 222316Z 15028G35KT 3SM TSRA BR OVC008 15/ RMK SC8 CB EMBD

CYQR;2010-05-22 23:28;CYQR 222328Z 25014G22KT 15SM -TSRA BKN005 BKN052 BKN081 BKN260 14/ RMK SC5SC1AC1CI0 CB TOPS S ACC ASOCTD

CYQR;2010-05-22 23:41;CYQR 222341Z 25013KT 15SM SCT004 BKN052 BKN081 BKN260 14/ RMK SF4SC2AC1CI0 TCU TOPS S CF/ACC ASOCTD

CYQR;2010-05-23 00:00;CYQR 230000Z CCA 23010KT 15SM FEW013 SCT048 BKN081 BKN230 BKN280 14/13 A2925 RMK CF2SC2AC2CI1CI0 TCU TOPS S FROPA 2330Z RETS RERA /R12/ SLP914

CYQR;2010-05-23 00:06;CYQR 230006Z 23016KT 15SM FEW007 FEW013 SCT048 BKN072 BKN230 BKN280 14/ RMK CF2CF1SC2AC2CI1CI0

CYQR;2010-05-23 00:10;CYQR 230010Z 23019KT 15SM BKN007 BKN048 14/ RMK CF5SC2

CYQR;2010-05-23 00:28;CYQR 230028Z 24017G22KT 15SM SCT009 BKN047 BKN075 14/ RMK CF3SC2AC2

CYQR;2010-05-23 01:00;CYQR 230100Z 22019KT 15SM SCT009 BKN047 13/11 A2928 RMK SC4SC2 CU EMBD SLP925

CYQR;2010-05-23 02:00;CYQR 230200Z 22015KT 15SM FEW009 FEW210 13/10 A2928 RMK SC1CI1 CI TR SLP924

CYQR;2010-05-23 03:00;CYQR 230300Z 21018KT 15SM FEW016 FEW120 11/08 A2930 RMK SC1AC2 SLP930

CYQR;2010-05-23 04:00;CYQR 230400Z 20014G21KT 15SM FEW009 FEW016 10/08 A2931 RMK SC1SC2 OBS TAKEN -07 SLP934

CYQR;2010-05-23 05:00;CYQR 230500Z 24019G24KT 15SM OVC011 09/07 A2931 RMK SC8 SLP933

CYQR;2010-05-23 05:33;CYQR 230533Z 24018KT 15SM OVC015 09/ RMK SC7

CYQR;2010-05-23 06:00;CYQR 230600Z 24016G22KT 15SM OVC019 09/06 A2934 RMK SC8 SLP945

CYQR;2010-05-23 07:00;CYQR 230700Z 23019G24KT 15SM OVC012 09/06 A2934 RMK SC8 SLP946

CYQR;2010-05-23 07:18;CYQR 230718Z 23022KT 8SM -SHRA OVC012 08/ RMK SC8 CVCTV CLD EMBD

CYQR;2010-05-23 08:00;CYQR 230800Z 24019KT 12SM BKN006 OVC012 08/06 A2936 RMK SF6SC2 OCNL -SHRA SLP954

CYQR;2010-05-23 08:42;CYQR 230842Z 23016G21KT 15SM BKN008 OVC014 07/ RMK SF6SC2

CYQR;2010-05-23 09:00;CYQR 230900Z 23015G20KT 15SM SCT008 OVC018 07/05 A2939 RMK SF2SC6 SLP965

CYQR;2010-05-23 09:22;CYQR 230922Z 23018G25KT 10SM -SHRA OVC014 07/ RMK SC8 CVCTV CLD EMBD

CYQR;2010-05-23 10:00;CYQR 231000Z 23019G26KT 10SM -SHRA BKN014 OVC045 07/05 A2939 RMK SC6SC2 CVCTV CLD EMBD SLP965

CYQR;2010-05-23 11:00;CYQR 231100Z 25024G31KT 12SM -SHRA FEW008 OVC018 06/03 A2940 RMK SF1SC7 CVCTV CLD EMBD SLP966

CYQR;2010-05-23 11:21;CYQR 231121Z 23024G31KT 15SM FEW008 BKN012 BKN033 06/ RMK SF1SC5SC2

CYQR;2010-05-23 12:00;CYQR 231200Z 23025G30KT 15SM BKN014 BKN042 05/02 A2942 RMK SC5SC2 /R01/ SLP974

CYQR;2010-05-23 13:00;CYQR 231300Z CCA 24023G32KT 10SM -SHRA BKN015 OVC033 05/02 A2944 RMK SC5SC3 SLP980

CYQR;2010-05-23 13:51;CYQR 231351Z 24032G38KT 15SM -SHRA BKN013 BKN090 OVC280 06/ RMK SC6AC2CI0 CVCTV CLD ASOCTD

CYQR;2010-05-23 14:00;CYQR 231400Z 24029G38KT 15SM BKN013 BKN090 BKN280 07/03 A2945 RMK SC6AC1CI0 SLP984

CYQR;2010-05-23 15:00;CYQR 231500Z 25030G38KT 15SM -SHRA SCT018 OVC037 07/03 A2946 RMK SC3SC5 CVCTV CLD EMBD SLP992

CYQR;2010-05-23 15:30;CYQR 231530Z 25031G41KT 15SM BKN018 OVC050 07/ RMK SC6SC2

CYQR;2010-05-23 16:00;CYQR 231600Z 25038G44KT 15SM BKN018 OVC037 07/03 A2949 RMK SC6SC2 SLP999

CYQR;2010-05-23 17:00;CYQR 231700Z 25034G44KT 15SM OVC018 07/03 A2952 RMK SC8 SLP009

CYQR;2010-05-23 18:00;CYQR 231800Z 26031G45KT 15SM OVC020 08/03 A2954 RMK SC8 SLP017

CYQR;2010-05-23 19:00;CYQR 231900Z 26029G43KT 15SM OVC024 09/04 A2957 RMK SC8 SLP027

CYQR;2010-05-23 20:00;CYQR 232000Z 25034G42KT 15SM BKN028 OVC075 10/03 A2961 RMK SC6AC2 SLP040

CYQR;2010-05-23 21:00;CYQR 232100Z 26037G44KT 15SM BKN033 11/04 A2963 RMK CU6 SLP049

CYQR;2010-05-23 22:00;CYQR 232200Z 27034G41KT 15SM BKN035 12/04 A2968 RMK SC7 CU EMBD SLP063

CYQR;2010-05-23 23:00;CYQR 232300Z 28029KT 15SM BKN040 BKN280 12/04 A2972 RMK SC6CI0 SLP078

CYQR;2010-05-24 00:00;CYQR 240000Z 27021G32KT 15SM SCT044 BKN280 13/04 A2975 RMK SC3CI1 SLP089

CYQR;2010-05-24 01:00;CYQR 240100Z 27022G29KT 15SM FEW045 FEW280 13/03 A2976 RMK SC1CI1 SLP092

CYQR;2010-05-24 02:00;CYQR 240200Z 28012G18KT 15SM FEW045 FEW280 12/03 A2980 RMK SC1CI1 SLP104

CYQR;2010-05-24 03:00;CYQR 240300Z 22006KT 15SM FEW280 08/03 A2983 RMK CI1 SLP118

CYQR;2010-05-24 04:00;CYQR 240400Z 23004KT 15SM FEW280 07/02 A2983 RMK CI1 SLP120

CYQR;2010-05-24 05:00;CYQR 240500Z 18007KT 15SM FEW280 05/01 A2987 RMK CI1 SLP133

CYQR;2010-05-24 06:00;CYQR 240600Z 31006KT 15SM FEW300 03/00 A2986 RMK CI0 SLP133

CYQR;2010-05-24 06:03;CYQR 240603Z 32006KT 15SM FEW300 02/ RMK CI0

CYQR;2010-05-24 07:00;CYQR 240700Z 36005KT 15SM FEW150 BKN300 05/02 A2988 RMK AC2CI2 SLP137

CYQR;2010-05-24 08:00;CYQR 240800Z 06002KT 15SM BKN150 BKN300 05/03 A2988 RMK AC5CI2 SLP137

CYQR;2010-05-24 09:00;CYQR 240900Z 17003KT 15SM BKN150 OVC300 05/03 A2990 RMK AC6CI2 SLP142

CYQR;2010-05-24 10:00;CYQR 241000Z 00000KT 15SM BKN150 OVC300 04/02 A2991 RMK AC7CI1 SLP147

CYQR;2010-05-24 11:00;CYQR 241100Z 00000KT 15SM SCT150 BKN300 04/02 A2992 RMK AC3CI3 SLP149

CYQR;2010-05-24 12:00;CYQR 241200Z 35005KT 15SM SCT150 BKN300 04/03 A2993 RMK AC3CI3 SLP152

CYQR;2010-05-24 13:00;CYQR 241300Z 03002KT 15SM SCT150 OVC300 07/04 A2996 RMK AC3CI4 SLP162

CYQR;2010-05-24 14:00;CYQR 241400Z 01005KT 15SM FEW086 SCT120 BKN230 OVC300 08/04 A2996 RMK AC2AC2CI2CI1 SLP163

CYQR;2010-05-24 15:00;CYQR 241500Z 07004KT 15SM SCT120 OVC300 09/05 A2998 RMK AC3CI3 SLP170

CYQR;2010-05-24 16:00;CYQR 241600Z 05007KT 15SM SCT120 BKN280 11/05 A2996 RMK AC3CI2 SLP161

CYQR;2010-05-24 17:00;CYQR 241700Z 04006KT 15SM FEW032 FEW120 BKN280 13/06 A2994 RMK CU1AC2CI1 SLP155

CYQR;2010-05-24 18:00;CYQR 241800Z 05002KT 15SM FEW035 BKN140 BKN280 14/05 A2994 RMK CU1AC6CI1 SLP156

CYQR;2010-05-24 19:00;CYQR 241900Z 07006KT 15SM FEW040 BKN140 OVC280 15/05 A2993 RMK CU1AC5CI1 SLP152

CYQR;2010-05-24 20:00;CYQR 242000Z 04008KT 15SM FEW052 SCT093 BKN280 17/05 A2991 RMK CU1AC3CI1 SLP144

CYQR;2010-05-24 21:00;CYQR 242100Z 04011KT 15SM FEW056 SCT089 BKN280 18/06 A2988 RMK CU1AC3CI2 SLP132

CYQR;2010-05-24 22:00;CYQR 242200Z 04013G22KT 15SM FEW056 BKN085 OVC280 17/05 A2986 RMK CU1AC6CI1 SLP125

CYQR;2010-05-24 23:00;CYQR 242300Z 04012G21KT 15SM FEW054 OVC085 16/05 A2984 RMK CU1AC7 SLP119

CYQR;2010-05-25 00:00;CYQR 250000Z 04017G25KT 15SM FEW055 BKN094 OVC260 15/04 A2983 RMK SC1AC6CI2 ACC ASOCTD VIRGA SLP117

CYQR;2010-05-25 01:00;CYQR 250100Z 04019G26KT 15SM -SHRA SCT047 OVC082 14/02 A2986 RMK SC3AC5 SLP124

CYQR;2010-05-25 01:32;CYQR 250132Z 04014G19KT 15SM VCSH FEW052 SCT073 OVC084 13/ RMK SC2AC2AC4

CYQR;2010-05-25 02:00;CYQR 250200Z 04014G20KT 15SM SCT053 OVC078 13/03 A2986 RMK SC4AC4 CVCTV CLD EMBD SLP124

CYQR;2010-05-25 02:21;CYQR 250221Z 04013G19KT 15SM -SHRA BKN050 OVC080 13/ RMK SC7AC1

CYQR;2010-05-25 03:00;CYQR 250300Z 05015KT 15SM -SHRA OVC050 12/04 A2981 RMK SC8 SLP108

CYQR;2010-05-25 04:00;CYQR 250400Z 07017KT 7SM -RA OVC042 10/06 A2981 RMK SC8 SLP108

CYQR;2010-05-25 05:00;CYQR 250500Z 04018KT 5SM RA BR OVC033 09/06 A2977 RMK SC8 SLP096

CYQR;2010-05-25 06:00;CYQR 250600Z 04019G24KT 4SM RA BR OVC015 09/07 A2971 RMK SC8 PRESFR SLP073

CYQR;2010-05-25 06:09;CYQR 250609Z 04018G27KT 7SM -RA OVC010 09/ RERA RMK SC8

CYQR;2010-05-25 06:47;CYQR 250647Z 03030G38KT 12SM -RA BKN019 OVC058 09/ RERA RMK SC7SC1

CYQR;2010-05-25 07:00;CYQR 250700Z 04030G39KT 12SM -RA BKN019 OVC058 09/05 A2961 RERA RMK SC7SC1 PRESFR SLP040

CYQR;2010-05-25 08:00;CYQR 250800Z 04022G32KT 7SM -RA BKN012 OVC037 08/06 A2957 RMK SC6SC2 SLP028

CYQR;2010-05-25 08:28;CYQR 250828Z 03025G33KT 5SM -DZ BR OVC012 07/ RMK SC8

CYQR;2010-05-25 09:00;CYQR 250900Z 04020G31KT 3SM -DZ BR OVC010 08/05 A2956 RMK SC8 SLP019

CYQR;2010-05-25 10:00;CYQR 251000Z 02021G28KT 8SM -DZ OVC010 07/05 A2951 RMK SC8 SLP005

CYQR;2010-05-25 10:36;CYQR 251036Z 04018G31KT 10SM -DZ OVC008 07/ RMK SC8

CYQR;2010-05-25 11:00;CYQR 251100Z 04021G26KT 3SM -DZ OVC009 08/05 A2946 RMK SC8 SLP988

CYQR;2010-05-25 11:27;CYQR 251127Z 05025G39KT 10SM OVC008 08/ RMK SF8

CYQR;2010-05-25 12:00;CYQR 251200Z 05022G29KT 12SM OVC009 08/06 A2944 RMK SF8 SLP980

CYQR;2010-05-25 13:00;CYQR 251300Z 03022G32KT 15SM OVC008 08/06 A2942 RMK SC8 SLP973

CYQR;2010-05-25 13:40;CYQR 251340Z 03020G27KT 8SM -RA OVC007 07/ RMK SC8

CYQR;2010-05-25 14:00;CYQR 251400Z CCA 03025G30KT 3SM -RA BR OVC007 07/06 A2942 RMK SC8 SLP972

CYQR;2010-05-25 14:48;CYQR 251448Z 35019KT 3SM RA BR OVC006 07/ RMK SC8

CYQR;2010-05-25 15:00;CYQR 251500Z 36020G25KT 3SM RA BR OVC006 07/06 A2943 RMK SC8 SLP979

CYQR;2010-05-25 15:39;CYQR 251539Z 34021G26KT 6SM -RA BR OVC006 07/ RERA RMK SC8

CYQR;2010-05-25 16:00;CYQR 251600Z 35022G30KT 6SM -RA BR OVC006 07/06 A2944 RERA RMK SC8 SLP981

CYQR;2010-05-25 17:00;CYQR 251700Z 34021G28KT 8SM -RA OVC006 08/06 A2946 RMK SC8 SLP989

CYQR;2010-05-25 17:46;CYQR 251746Z 33020G31KT 15SM OVC007 08/ RMK SC8

CYQR;2010-05-25 18:00;CYQR 251800Z CCA 33025G30KT 15SM OVC008 09/07 A2951 RMK SC8 /R10/ SLP006

CYQR;2010-05-25 18:37;CYQR 251837Z 31022G28KT 10SM -RA OVC007 08/ RMK SC8

CYQR;2010-05-25 19:00;CYQR 251900Z 31023G31KT 10SM -RA OVC006 08/06 A2955 RMK SC8 SLP021

CYQR;2010-05-25 19:30;CYQR 251930Z 29024G29KT 3SM -RA BR OVC005 07/ RMK SC8

CYQR;2010-05-25 20:00;CYQR 252000Z 29030G35KT 3SM -RA BR OVC005 06/05 A2961 RMK SC8 SLP040

CYQR;2010-05-25 21:00;CYQR 252100Z 30034G40KT 3SM -RA BR OVC006 06/04 A2966 RMK SC8 SLP062

CYQR;2010-05-25 22:00;CYQR 252200Z 31029G36KT 15SM OVC008 06/04 A2972 RMK SC8 INTMT -RA SLP080

CYQR;2010-05-25 22:34;CYQR 252234Z 31033G39KT 15SM OVC011 06/ RMK SC8

CYQR;2010-05-25 23:00;CYQR 252300Z 31026G36KT 15SM BKN013 OVC037 07/03 A2977 RMK SC7SC1 SLP096

CYQR;2010-05-26 00:00;CYQR 260000Z 31023G32KT 15SM BKN015 OVC040 07/03 A2981 RMK SC7SC1 SLP111

CYQR;2010-05-26 00:20;CYQR 260020Z 31019G24KT 10SM -RA BKN015 OVC035 07/ RMK SC7SC1

CYQR;2010-05-26 01:00;CYQR 260100Z 30017G25KT 15SM OVC020 07/03 A2984 RMK SC8 SLP121

CYQR;2010-05-26 02:00;CYQR 260200Z 30017G24KT 15SM BKN019 06/02 A2988 RMK SC7 SLP134

CYQR;2010-05-26 02:25;CYQR 260225Z 30015KT 15SM VCSH BKN013 06/ RMK SC7

CYQR;2010-05-26 02:40;CYQR 260240Z 31017KT 2SM -DZ BKN013 05/ RMK SC7

CYQR;2010-05-26 02:48;CYQR 260248Z 30016KT 5SM -DZ OVC013 05/ RMK SC8 VIS E 3

CYQR;2010-05-26 03:00;CYQR 260300Z 30012G18KT 15SM VCSH BKN013 OVC036 05/03 A2991 RMK SC7SC1 SLP148

CYQR;2010-05-26 03:30;CYQR 260330Z 29011G16KT 12SM -DZ BKN013 05/ RMK SC7 VIS E 2

CYQR;2010-05-26 03:39;CYQR 260339Z 29014KT 2 1/2SM -DZ OVC009 05/ RMK SC8

CYQR;2010-05-26 04:00;CYQR 260400Z 29013G19KT 12SM OVC009 05/03 A2994 RMK SC7 SLP159

CYQR;2010-05-26 04:06;CYQR 260406Z 29014KT 3SM -DZ BKN011 05/ RMK SC7

CYQR;2010-05-26 04:40;CYQR 260440Z 29012KT 12SM -DZ BKN008 OVC037 05/ RMK SC7SC1

CYQR;2010-05-26 05:00;CYQR 260500Z 28010G15KT 15SM BKN008 05/03 A2996 RMK SF6 SLP166

CYQR;2010-05-26 05:18;CYQR 260518Z 28013KT 15SM OVC014 05/ RMK SC7

CYQR;2010-05-26 05:43;CYQR 260543Z 28015KT 15SM OVC016 05/ RMK SC8

CYQR;2010-05-26 06:00;CYQR 260600Z 28013G18KT 15SM BKN019 OVC037 05/02 A2999 RMK SC7SC1 SLP174

CYQR;2010-05-26 07:00;CYQR 260700Z 28010KT 12SM OVC016 05/03 A2999 RMK SC7 SLP176

CYQR;2010-05-26 07:17;CYQR 260717Z 28014KT 15SM OVC014 05/ RMK SC8

CYQR;2010-05-26 07:39;CYQR 260739Z 28010KT 8SM -DZ OVC014 05/ RMK SC8

CYQR;2010-05-26 08:00;CYQR 260800Z 30009KT 15SM BKN006 OVC014 05/03 A3001 RMK SF5SC3 SLP183

CYQR;2010-05-26 08:12;CYQR 260812Z 29011KT 15SM SCT006 04/ RMK SF4

CYQR;2010-05-26 08:39;CYQR 260839Z 28011KT 15SM BKN014 05/ RMK SC6

CYQR;2010-05-26 09:00;CYQR 260900Z 28013KT 15SM SCT014 05/02 A3003 RMK SC4 SLP191

CYQR;2010-05-26 10:00;CYQR 261000Z 26013KT 15SM BKN018 04/02 A3005 RMK SC7 SLP199

CYQR;2010-05-26 11:00;CYQR 261100Z 27009KT 15SM FEW018 FEW030 03/01 A3007 RMK SC1SC1 SLP204

CYQR;2010-05-26 12:00;CYQR 261200Z 27007KT 15SM FEW030 05/02 A3010 RMK SC1 SLP213

CYQR;2010-05-26 13:00;CYQR 261300Z 28009KT 15SM FEW010 BKN020 06/03 A3011 RMK SC1SC6 SLP219

CYQR;2010-05-26 14:00;CYQR 261400Z 30011KT 15SM FEW013 FEW030 08/04 A3012 RMK CU1SC1 SLP220

CYQR;2010-05-26 15:00;CYQR 261500Z 31017G25KT 15SM BKN019 09/04 A3013 RMK SC6 SLP222

CYQR;2010-05-26 16:00;CYQR 261600Z 32016G21KT 15SM BKN021 10/04 A3014 RMK SC6 SLP227

CYQR;2010-05-26 17:00;CYQR 261700Z 32013KT 15SM BKN023 11/05 A3016 RMK SC7 SLP232

CYQR;2010-05-26 18:00;CYQR 261800Z 30009KT 15SM BKN021 12/06 A3016 RMK SC7 SLP232

CYQR;2010-05-26 19:00;CYQR 261900Z 29008G16KT 15SM SCT032 BKN079 BKN280 14/06 A3016 RMK CU3AC2CI0 SLP231

CYQR;2010-05-26 20:00;CYQR 262000Z 31014KT 15SM FEW036 BKN300 15/06 A3016 RMK CU2CI1 SLP231

CYQR;2010-05-26 21:00;CYQR 262100Z 36010G15KT 15SM FEW042 BKN300 15/06 A3015 RMK CF1CI2 SLP227

CYQR;2010-05-26 22:00;CYQR 262200Z 34009G15KT 15SM FEW044 SCT220 BKN300 16/06 A3015 RMK CF1CI1CI1 SLP226

CYQR;2010-05-26 23:00;CYQR 262300Z 36009G16KT 15SM FEW045 SCT300 16/06 A3014 RMK CU1CI1 SLP222

CYQR;2010-05-27 00:00;CYQR 270000Z 03010KT 15SM FEW045 FEW300 15/06 A3014 RMK CF1CI0 TR CF SLP222

CYQR;2010-05-27 01:00;CYQR 270100Z 05011KT 15SM FEW045 FEW130 SCT300 14/06 A3015 RMK CF1AC1CI1 SLP226

CYQR;2010-05-27 02:00;CYQR 270200Z 03009KT 15SM FEW130 SCT300 12/05 A3018 RMK AC1CI1 SLP234

CYQR;2010-05-27 03:00;CYQR 270300Z 05007KT 15SM FEW120 FEW300 09/05 A3020 RMK AC1CI1 SLP242

CYQR;2010-05-27 04:00;CYQR 270400Z 04008KT 15SM FEW120 FEW300 08/04 A3021 RMK AC1CI1 SLP248

CYQR;2010-05-27 05:00;CYQR 270500Z 05012KT 15SM FEW120 FEW300 08/04 A3021 RMK AC1CI1 SLP246

CYQR;2010-05-27 06:00;CYQR 270600Z 05015KT 15SM FEW120 FEW300 07/03 A3020 RMK AC1CI1 SLP242

CYQR;2010-05-27 07:00;CYQR 270700Z 07011G16KT 15SM FEW120 SCT300 07/03 A3020 RMK AC1CI1 SLP245

CYQR;2010-05-27 08:00;CYQR 270800Z 07010KT 15SM SCT110 BKN300 07/03 A3020 RMK AC4CI1 SLP242

CYQR;2010-05-27 09:00;CYQR 270900Z 10008KT 15SM BKN110 07/03 A3020 RMK AC7 SLP242

CYQR;2010-05-27 10:00;CYQR 271000Z 09008KT 15SM BKN068 OVC110 07/03 A3020 RMK AC6AC2 SLP241

CYQR;2010-05-27 11:00;CYQR 271100Z 09011G16KT 15SM BKN046 BKN072 BKN110 OVC300 07/03 A3018 RMK SC5AC1AC2CI0 SLP235

CYQR;2010-05-27 12:00;CYQR 271200Z 09013KT 15SM FEW042 BKN086 BKN110 BKN300 07/03 A3017 RMK SC2AC2AC1CI1 SLP232

CYQR;2010-05-27 13:00;CYQR 271300Z 10014KT 15SM BKN042 BKN090 08/03 A3017 RMK SC5AC2 SLP230

CYQR;2010-05-27 14:00;CYQR 271400Z 09016G24KT 15SM -SHRA BKN036 BKN058 07/04 A3015 RMK SC6SC2 SLP225

CYQR;2010-05-27 15:00;CYQR 271500Z 09014KT 12SM -SHRA SCT014 OVC030 07/05 A3015 RMK SC4SC4 SLP227

CYQR;2010-05-27 15:27;CYQR 271527Z 08013G18KT 1 1/2SM -SHRA BR BKN010 OVC023 07/ RMK FG2SC4SC2

CYQR;2010-05-27 15:38;CYQR 271538Z 08011G16KT 2SM -SHRA BR BKN009 OVC023 07/ RMK SC6SC2

CYQR;2010-05-27 16:00;CYQR 271600Z 10011G16KT 2SM -SHRA BR OVC007 07/05 A3015 RMK SF8 SLP226

CYQR;2010-05-27 17:00;CYQR 271700Z 09015KT 2 1/2SM -SHRA BR OVC006 07/06 A3012 RMK SF8 SLP219

CYQR;2010-05-27 17:13;CYQR 271713Z 09018G24KT 3SM -SHRA BR BKN007 OVC030 07/ RMK SF6SC2

CYQR;2010-05-27 17:45;CYQR 271745Z 09016G24KT 2SM -SHRA BR BKN009 OVC022 07/ RMK FG2SF5SC2

CYQR;2010-05-27 18:00;CYQR 271800Z 09015G20KT 1 1/2SM -SHRA BR OVC009 07/06 A3011 RMK FG2SF6 SLP217

CYQR;2010-05-27 19:00;CYQR 271900Z 08016G21KT 2 1/2SM -SHRA BR BKN006 OVC020 08/06 A3010 RMK SF6SC2 VIS VRB 2-3 SLP212

CYQR;2010-05-27 19:33;CYQR 271933Z 08016G26KT 4SM -SHRA BR BKN007 OVC020 08/ RMK SF6SC2

CYQR;2010-05-27 20:00;CYQR 272000Z 08017G22KT 10SM -SHRA BKN009 OVC069 08/06 A3008 RMK SF6AC2 SLP206

CYQR;2010-05-27 20:34;CYQR 272034Z 08018G26KT 15SM BKN010 OVC020 08/ RMK SC6SC2

CYQR;2010-05-27 20:54;CYQR 272054Z 08019G24KT 15SM OVC009 08/ RMK SC8

CYQR;2010-05-27 21:00;CYQR 272100Z 08021KT 15SM OVC009 08/06 A3008 RMK SC8 SLP205

CYQR;2010-05-27 21:17;CYQR 272117Z 08019G24KT 3SM -SHRA BR OVC009 08/ RMK SC8

CYQR;2010-05-27 21:52;CYQR 272152Z 08017G22KT 15SM OVC009 08/ RMK SC8

CYQR;2010-05-27 22:00;CYQR 272200Z 08017G22KT 15SM OVC009 08/06 A3006 RMK SC8 SLP200

CYQR;2010-05-27 23:00;CYQR 272300Z 08020G27KT 15SM OVC009 08/06 A3004 RMK SC8 SLP193

CYQR;2010-05-27 23:56;CYQR 272356Z 09022G27KT 15SM BKN012 OVC021 08/ RMK SC6SC2

CYQR;2010-05-28 00:00;CYQR 280000Z 09021G27KT 15SM BKN012 OVC021 08/06 A3003 RMK SC7SC1 SLP187

CYQR;2010-05-28 00:44;CYQR 280044Z 07021G26KT 6SM -SHRA BR BKN012 OVC022 08/ RMK SC7SC1

CYQR;2010-05-28 00:50;CYQR 280050Z 08021G28KT 2SM -SHRA BR OVC012 08/ RMK FG2SC6

CYQR;2010-05-28 00:52;CYQR 280052Z 08020G28KT 1SM R13/P6000FT/D -SHRA BR OVC010 08/ RMK FG4SC4

CYQR;2010-05-28 00:57;CYQR 280057Z 08021G26KT 1SM R13/P6000FT/D -SHRA BR OVC009 08/ RMK FG5SF3

CYQR;2010-05-28 01:00;CYQR 280100Z 08020G26KT 1SM R13/P6000FT/D -SHRA BR OVC009 08/06 A3002 RMK FG5SC3 SLP185

CYQR;2010-05-28 02:00;CYQR 280200Z 07018G27KT 1 1/4SM -SHRA BR OVC006 07/06 A3000 RMK FG3SF5 SLP179

CYQR;2010-05-28 02:25;CYQR 280225Z 08021G27KT 2 1/2SM SHRA BR BKN008 OVC022 07/ RMK SF7SC1 CVCTV CLD EMBD

CYQR;2010-05-28 02:45;CYQR 280245Z 07016G30KT 3SM -TSRA BR BKN008 OVC022 07/ RERA RMK SF6SC2 CB EMBD

CYQR;2010-05-28 03:00;CYQR 280300Z CCA 09016G24KT 4SM TSRA BR OVC009 07/05 A3003 RERA RMK SF8 CB EMBD SLP188

CYQR;2010-05-28 03:47;CYQR 280347Z 08021G30KT 5SM -SHRA BR BKN008 OVC020 07/ RETSRA RMK SF6SC2

CYQR;2010-05-28 04:00;CYQR 280400Z 09022G28KT 8SM -SHRA BKN008 OVC020 07/05 A3000 RETSRA RMK SF5SC3 SLP177

CYQR;2010-05-28 04:41;CYQR 280441Z 09017G29KT 10SM -SHRA SCT008 OVC020 07/ RMK SF3SC5

CYQR;2010-05-28 05:00;CYQR 280500Z 08021G27KT 10SM -SHRA FEW009 OVC030 07/05 A3000 RMK SF2SC6 SLP177

CYQR;2010-05-28 06:00;CYQR 280600Z 08017G22KT 10SM -SHRA FEW008 OVC028 07/05 A2999 RMK SF1SC7 SLP175

CYQR;2010-05-28 07:00;CYQR 280700Z 08016KT 10SM SCT009 OVC026 07/05 A2999 RMK SF3SC5 SLP173

CYQR;2010-05-28 08:00;CYQR 280800Z 08017KT 10SM -SHRA SCT009 OVC028 07/05 A2999 RMK SF3SC5 SLP175

CYQR;2010-05-28 09:00;CYQR 280900Z 09014G21KT 15SM SCT009 OVC024 07/06 A2999 RMK SF3SC5 SLP172

CYQR;2010-05-28 10:00;CYQR 281000Z 08018KT 15SM BKN008 OVC026 07/05 A2995 RMK SF5SC3 SLP160

CYQR;2010-05-28 11:00;CYQR 281100Z 09017KT 15SM BKN007 OVC030 07/05 A2993 RMK SC7SC1 SLP153

CYQR;2010-05-28 12:00;CYQR 281200Z 07015G25KT 15SM BKN006 OVC026 06/05 A2991 RMK SC7SC1 SLP145

CYQR;2010-05-28 13:00;CYQR 281300Z 06010G15KT 15SM OVC005 06/04 A2995 RMK SC8 PRESRR SLP160

CYQR;2010-05-28 14:00;CYQR 281400Z 08011KT 15SM OVC006 07/05 A2997 RMK SC8 SLP165

CYQR;2010-05-28 15:00;CYQR 281500Z 07013KT 12SM OVC006 07/05 A2998 RMK SC8 SLP172

CYQR;2010-05-28 16:00;CYQR 281600Z 06011G17KT 4SM -DZ BR OVC005 07/06 A2998 RMK SC8 SLP170

CYQR;2010-05-28 17:00;CYQR 281700Z 07016KT 10SM -DZ OVC007 08/06 A2999 RMK SC8 SLP175

CYQR;2010-05-28 17:48;CYQR 281748Z 08016G21KT 15SM OVC010 09/ RMK SC8

CYQR;2010-05-28 18:00;CYQR 281800Z 08014G21KT 15SM OVC010 10/07 A2998 RMK SC8 SLP170

CYQR;2010-05-28 19:00;CYQR 281900Z 07018KT 15SM OVC010 10/08 A2996 RMK SC8 SLP162

CYQR;2010-05-28 20:00;CYQR 282000Z 06017KT 15SM OVC010 11/08 A2993 RMK SC8 SLP154

CYQR;2010-05-28 21:00;CYQR 282100Z 06012G20KT 15SM OVC010 11/08 A2992 RMK SC8 SLP149

CYQR;2010-05-28 22:00;CYQR 282200Z 08015G21KT 15SM OVC010 10/07 A2995 RMK SC8 SLP156

CYQR;2010-05-28 23:00;CYQR 282300Z 07016G21KT 15SM OVC012 10/07 A2993 RMK SC8 SLP151

CYQR;2010-05-29 00:00;CYQR 290000Z 07016G22KT 15SM OVC012 10/07 A2991 RMK SC8 SLP146

CYQR;2010-05-29 00:51;CYQR 290051Z 08017KT 15SM -RA OVC012 10/ RMK SC8

CYQR;2010-05-29 01:00;CYQR 290100Z 08020G25KT 15SM -RA OVC012 10/07 A2991 RMK SC8 SLP147

CYQR;2010-05-29 01:47;CYQR 290147Z 06013KT 2 1/2SM -RA BR OVC010 09/ RMK FG2SC6

CYQR;2010-05-29 01:50;CYQR 290150Z 06012KT 1 1/4SM -RA BR OVC010 09/ RMK FG4SC4

CYQR;2010-05-29 02:00;CYQR 290200Z 06009KT 1 1/4SM -RA BR OVC009 08/07 A2995 RMK FG4SC4 SLP159

CYQR;2010-05-29 02:44;CYQR 290244Z 07015G20KT 1 1/2SM -RA BR OVC005 08/ RMK FG3SC5

CYQR;2010-05-29 03:00;CYQR 290300Z 07015G24KT 2SM -RA BR OVC006 08/06 A2992 RMK FG2SC6 SLP151

CYQR;2010-05-29 03:40;CYQR 290340Z 06012G24KT 5SM -RA BR BKN008 OVC020 07/ RMK SF5SC3

CYQR;2010-05-29 04:00;CYQR 290400Z 06012G21KT 10SM BKN009 OVC024 07/05 A2993 RMK SF5SC3 SLP153

CYQR;2010-05-29 05:00;CYQR 290500Z 07018G24KT 12SM BKN009 OVC024 07/05 A2990 RMK SF6SC2 SLP144

CYQR;2010-05-29 05:40;CYQR 290540Z 06017KT 8SM -RA BKN009 OVC022 07/ RMK SF6SC2

CYQR;2010-05-29 06:00;CYQR 290600Z 08014G21KT 5SM -RA BR BKN009 OVC022 06/04 A2990 RMK SF6SC2 SLP142

CYQR;2010-05-29 06:46;CYQR 290646Z 07012G18KT 3SM -RADZ BR OVC007 06/ RMK ST8

CYQR;2010-05-29 07:00;CYQR 290700Z 08009KT 3SM -DZ BR OVC007 06/05 A2993 RMK ST8 SLP152

CYQR;2010-05-29 07:17;CYQR 290717Z 05007KT 5SM -TSRA BR OVC007 06/ RMK SC8 CB EMBD

CYQR;2010-05-29 08:00;CYQR 290800Z 10013KT 10SM SHRA BKN007 OVC020 06/05 A2992 RETS RMK SC7SC1 CVCTV CLD EMBD SLP148

CYQR;2010-05-29 09:00;CYQR 290900Z 05023G29KT 10SM -SHRA OVC008 06/04 A2981 RERA RMK SC8 PRESFR CVCTV CLD EMBD SLP109

CYQR;2010-05-29 10:00;CYQR 291000Z 09013G18KT 12SM -SHRA OVC009 06/04 A2985 RMK SC8 SLP123

CYQR;2010-05-29 11:00;CYQR 291100Z 05012G17KT 12SM OVC006 06/05 A2979 RMK SC8 SLP105

CYQR;2010-05-29 12:00;CYQR 291200Z 12006KT 12SM OVC006 07/06 A2983 RMK SC8 PRESRR SLP119

CYQR;2010-05-29 12:47;CYQR 291247Z 03008KT 3SM -DZ BR OVC004 07/ RMK ST8

CYQR;2010-05-29 13:00;CYQR 291300Z 03007KT 3SM -DZ BR OVC004 07/06 A2981 RMK ST8 SLP112

CYQR;2010-05-29 14:00;CYQR 291400Z 05007KT 3SM -DZ BR OVC003 07/06 A2982 RMK ST8 SLP116

CYQR;2010-05-29 15:00;CYQR 291500Z 05011KT 3SM -DZ BR OVC003 08/07 A2981 RMK ST8 SLP111

CYQR;2010-05-29 15:37;CYQR 291537Z 08011KT 2 1/2SM -DZ BR OVC005 08/ RMK FG2ST6

CYQR;2010-05-29 15:54;CYQR 291554Z 07011KT 3SM -DZ BR OVC004 09/ RMK ST8

CYQR;2010-05-29 16:00;CYQR 291600Z 07012KT 3SM -DZ BR OVC004 09/07 A2982 RMK ST8 SLP114

CYQR;2010-05-29 16:16;CYQR 291616Z 09010KT 3SM -DZ BR OVC005 09/ RMK ST8

CYQR;2010-05-29 16:37;CYQR 291637Z 08011G20KT 10SM -DZ OVC007 09/ RMK ST8

CYQR;2010-05-29 17:00;CYQR 291700Z 08011G16KT 12SM OVC008 09/08 A2981 RMK SC8 SLP112

CYQR;2010-05-29 17:25;CYQR 291725Z 10014G19KT 15SM OVC010 10/ RMK SC8

CYQR;2010-05-29 18:00;CYQR 291800Z 11008KT 15SM OVC010 09/07 A2983 RMK SC8 SLP118

CYQR;2010-05-29 18:21;CYQR 291821Z 13010KT 8SM -DZ OVC009 09/ RMK ST8

CYQR;2010-05-29 18:36;CYQR 291836Z 17007KT 2 1/2SM -DZ BR OVC007 09/ RMK FG2ST6

CYQR;2010-05-29 18:48;CYQR 291848Z 17006KT 1SM R13/P6000FT/D -RA BR OVC006 09/ RMK FG2ST6

CYQR;2010-05-29 19:00;CYQR 291900Z 16005KT 1SM R13/P6000FT/N -RA BR OVC006 09/08 A2986 RMK FG3ST5 SLP127

CYQR;2010-05-29 19:45;CYQR 291945Z 14003KT 3SM -RA BR OVC005 10/ RMK SC8

CYQR;2010-05-29 20:00;CYQR 292000Z 00000KT 3SM -RA BR OVC006 10/08 A2984 RMK SC8 SLP122

CYQR;2010-05-29 20:23;CYQR 292023Z 23003KT 1SM R13/P6000FT/D -RA BR OVC004 09/ RMK SC8

CYQR;2010-05-29 20:30;CYQR 292030Z 29003KT 2SM R13/3500VP6000FT/D TSRA BR OVC002 09/ RMK SC8 CB EMBD

CYQR;2010-05-29 21:00;CYQR 292100Z CCA 29009KT 2SM TSRA OVC004 09/08 A2985 RMK SC8 CB EMBD SLP126

CYQR;2010-05-29 21:05;CYQR 292105Z 31007KT 1SM R13/P6000FT/D SHRA BR OVC004 09/ RMK FG2SC6 CB EMBD RETS

CYQR;2010-05-29 21:13;CYQR 292113Z 32008KT 1 1/2SM -SHRA OVC004 09/ RETSRA RMK FG2SF6 CVCTV CLD EMBD

CYQR;2010-05-29 21:31;CYQR 292131Z 34007KT 10SM -SHRA BKN004 OVC040 09/ RETSRA RMK SF5SC3 CVCTV CLD ASOCTD

CYQR;2010-05-29 21:56;CYQR 292156Z 32005KT 15SM -SHRA BKN006 OVC038 09/ RETSRA RMK SF6SC2 CVCTV CLD ASOCTD

CYQR;2010-05-29 22:00;CYQR 292200Z 32005KT 15SM -SHRA BKN006 OVC038 09/08 A2987 RETSRA RMK SF6SC2 CVCTV CLD ASOCTD SLP131

CYQR;2010-05-29 23:00;CYQR 292300Z 31007KT 15SM -SHRA BKN008 BKN019 OVC038 09/08 A2986 RMK SF5SC2SC2 CVCTV CLD ASOCTD SLP129

CYQR;2010-05-29 23:09;CYQR 292309Z 28006KT 15SM SCT007 BKN019 OVC034 10/ RMK SF4SC2SC2

CYQR;2010-05-30 00:00;CYQR 300000Z 29005KT 15SM SCT009 BKN025 OVC040 10/08 A2987 RMK SF4SC3SC1 SLP133

CYQR;2010-05-30 01:00;CYQR 300100Z 26005KT 15SM FEW010 BKN021 OVC088 10/08 A2989 RMK SF2SC4AC2 SLP138

CYQR;2010-05-30 01:20;CYQR 300120Z 27006KT 10SM -DZ BKN012 OVC022 10/ RMK SF5SC3

CYQR;2010-05-30 01:47;CYQR 300147Z 27006KT 12SM SCT010 OVC022 10/ RMK SF4SC4

CYQR;2010-05-30 02:00;CYQR 300200Z 29006KT 15SM SCT010 OVC017 10/08 A2990 RMK SF3SC5 SLP140

CYQR;2010-05-30 03:00;CYQR 300300Z 28009KT 15SM FEW010 OVC028 09/06 A2988 RMK SF1SC7 SLP134

CYQR;2010-05-30 04:00;CYQR 300400Z 28011KT 15SM OVC035 08/06 A2991 RMK SC8 SLP143

CYQR;2010-05-30 05:00;CYQR 300500Z 28011KT 15SM OVC040 07/05 A2990 RMK SC8 SLP140

CYQR;2010-05-30 06:00;CYQR 300600Z 26009KT 15SM SCT050 OVC120 06/04 A2990 RMK SC4AC4 SLP144

CYQR;2010-05-30 07:00;CYQR 300700Z 26011KT 15SM FEW025 SCT056 BKN120 05/03 A2989 RMK SC2SC2AC2 SLP140

CYQR;2010-05-30 08:00;CYQR 300800Z 27009G17KT 15SM BKN027 OVC044 06/03 A2990 RMK SC5SC3 SLP142

CYQR;2010-05-30 09:00;CYQR 300900Z 26009KT 15SM BKN020 BKN046 05/03 A2989 RMK SC5SC2 SLP140

CYQR;2010-05-30 10:00;CYQR 301000Z 27012KT 15SM FEW034 03/01 A2988 RMK SC2 SLP137

CYQR;2010-05-30 11:00;CYQR 301100Z 27012KT 15SM FEW030 03/00 A2988 RMK SC1 SLP137

CYQR;2010-05-30 12:00;CYQR 301200Z 26014KT 15SM FEW015 03/00 A2988 RMK SC1 SLP139

CYQR;2010-05-30 13:00;CYQR 301300Z 27017KT 15SM SCT017 04/00 A2988 RMK SC2 SLP138

CYQR;2010-05-30 14:00;CYQR 301400Z 28017G24KT 15SM BKN018 04/M00 A2989 RMK SC7 SLP141

CYQR;2010-05-30 15:00;CYQR 301500Z 28018G26KT 15SM BKN020 BKN100 BKN250 06/01 A2989 RMK SC7AC1CI1 SLP138

CYQR;2010-05-30 16:00;CYQR 301600Z 28020G25KT 15SM BKN020 BKN250 07/02 A2988 RMK SC6CI0 SLP136

CYQR;2010-05-30 17:00;CYQR 301700Z 27018G24KT 15SM SCT024 BKN250 09/03 A2987 RMK SC4CI0 SLP132

CYQR;2010-05-30 18:00;CYQR 301800Z 28017KT 15SM BKN028 BKN250 10/04 A2986 RMK SC6CI1 SLP130

CYQR;2010-05-30 19:00;CYQR 301900Z 27020G26KT 15SM BKN032 BKN250 11/04 A2986 RMK SC6CI1 SLP129

CYQR;2010-05-30 20:00;CYQR 302000Z 28015G20KT 15SM BKN035 BKN250 10/02 A2986 RMK SC6CI1 SLP127

CYQR;2010-05-30 21:00;CYQR 302100Z 27011G19KT 15SM BKN037 BKN055 11/03 A2986 RMK SC6SC1 SLP127

CYQR;2010-05-30 22:00;CYQR 302200Z 27013KT 15SM BKN039 10/03 A2985 RMK SC7 SLP126

CYQR;2010-05-30 23:00;CYQR 302300Z 25009KT 15SM OVC042 11/04 A2985 RMK SC8 CVCTV CLD EMB SLP124

CYQR;2010-05-31 00:00;CYQR 310000Z 27009KT 15SM BKN037 BKN082 11/04 A2983 RMK SC6AC2 SLP121

CYQR;2010-05-31 01:00;CYQR 310100Z 28010KT 15SM BKN040 BKN250 10/03 A2984 RMK SC6CI1 CU EMBD SLP123

CYQR;2010-05-31 02:00;CYQR 310200Z 27006KT 15SM BKN047 BKN080 10/04 A2984 RMK SC6AC1 CU EMBD SLP122

CYQR;2010-05-31 03:00;CYQR 310300Z 25005KT 15SM BKN051 BKN250 08/04 A2983 RMK SC5CI1 SLP119

CYQR;2010-05-31 04:00;CYQR 310400Z 21006KT 15SM FEW064 SCT250 07/03 A2983 RMK SC2CI1 SLP120

CYQR;2010-05-31 05:00;CYQR 310500Z 23007KT 15SM SCT077 06/03 A2983 RMK AC4 SLP119

CYQR;2010-05-31 06:00;CYQR 310600Z 24008KT 15SM OVC070 07/03 A2983 RMK AC8 SLP117

CYQR;2010-05-31 07:00;CYQR 310700Z 25006KT 15SM BKN068 07/03 A2982 RMK AC6 SLP115

CYQR;2010-05-31 08:00;CYQR 310800Z 25007KT 15SM OVC052 07/03 A2982 RMK SC8 SLP115

CYQR;2010-05-31 09:00;CYQR 310900Z 25007KT 15SM BKN065 05/03 A2982 RMK SC7 SLP114

CYQR;2010-05-31 10:00;CYQR 311000Z 26009KT 15SM BKN070 06/03 A2982 RMK AC6 SLP114

CYQR;2010-05-31 11:00;CYQR 311100Z 26008KT 15SM BKN068 BKN250 05/02 A2982 RMK AC3CI2 SLP115

CYQR;2010-05-31 12:00;CYQR 311200Z 26009KT 15SM FEW070 SCT140 BKN250 05/02 A2982 RMK AC1AC3CI1 SLP116

CYQR;2010-05-31 13:00;CYQR 311300Z 27009KT 15SM FEW070 FEW250 06/02 A2983 RMK AC1CI1 SLP117

CYQR;2010-05-31 14:00;CYQR 311400Z 28012G17KT 15SM FEW020 FEW150 BKN250 08/03 A2982 RMK CF1AC1CI2 CC ASOCTD SLP116

CYQR;2010-05-31 15:00;CYQR 311500Z 28014KT 15SM FEW025 BKN250 10/03 A2981 RMK CU2CI0 SLP112

CYQR;2010-05-31 16:00;CYQR 311600Z 28019KT 15SM BKN030 11/04 A2981 RMK CU6 SLP112

CYQR;2010-05-31 17:00;CYQR 311700Z 27018G24KT 15SM BKN034 BKN220 12/04 A2981 RMK CU6CI1 SLP112

CYQR;2010-05-31 18:00;CYQR 311800Z 30016KT 15SM BKN035 12/ A2984 RMK CU7 SLP119

CYQR;2010-05-31 19:00;CYQR 311900Z 28018KT 15SM BKN032 12/04 A2983 RMK CU7 SLP118

CYQR;2010-05-31 20:00;CYQR 312000Z 28017KT 15SM BKN036 12/03 A2984 RMK CU7 SLP121

CYQR;2010-05-31 21:00;CYQR 312100Z 29022G28KT 15SM BKN034 11/03 A2983 RMK CU7 SLP117

CYQR;2010-05-31 22:00;CYQR 312200Z 31017KT 15SM BKN040 BKN066 11/02 A2983 RMK CU5AC2 SLP119

CYQR;2010-05-31 23:00;CYQR 312300Z 29015G21KT 15SM SCT041 BKN062 11/03 A2984 RMK CU3SC4 TCU ASOCTD SLP121

CYQR;2010-06-01 01:00;CYQR 010100Z 27011G18KT 15SM FEW040 FEW048 SCT067 BKN250 10/03 A2984 RMK CU2SC1AC2CI2 TCU ASOCTD SLP120

CYQR;2010-06-01 02:00;CYQR 010200Z 30011KT 15SM FEW040 BKN078 BKN270 09/03 A2985 RMK CU2AC1CI1 TCU ASOCTD SLP125

CYQR;2010-06-01 03:00;CYQR 010300Z 29004KT 15SM FEW030 SCT040 BKN078 BKN270 08/05 A2987 RMK CU2CU2AC1CI1 SLP130

CYQR;2010-06-01 04:00;CYQR 010400Z 34005KT 15SM SCT044 BKN076 07/04 A2989 RMK CU3AC2 SLP136

CYQR;2010-06-01 05:00;CYQR 010500Z 30005KT 15SM FEW048 FEW075 05/03 A2989 RMK SC1AC0 SLP137

CYQR;2010-06-01 06:00;CYQR 010600Z 29004KT 15SM BKN043 03/01 A2990 RMK SC2 SLP142

CYQR;2010-06-01 07:00;CYQR 010700Z 27006KT 15SM BKN045 03/01 A2989 RMK SC1 SLP141

CYQR;2010-06-01 08:00;CYQR 010800Z 27006KT 15SM FEW043 02/M00 A2990 RMK SC1 SLP142

CYQR;2010-06-01 09:00;CYQR 010900Z 33005KT 15SM FEW045 02/M00 A2990 RMK SC1 SLP144

CYQR;2010-06-01 10:00;CYQR 011000Z 28003KT 15SM FEW045 01/M00 A2990 RMK SC1 SLP145

CYQR;2010-06-01 11:00;CYQR 011100Z 29005KT 15SM FEW040 FEW080 01/M01 A2991 RMK SC1AC1 SLP148

CYQR;2010-06-01 12:00;CYQR 011200Z 29007KT 15SM FEW080 FEW260 01/M00 A2993 RMK AC1CI1 SLP155

CYQR;2010-06-01 13:00;CYQR 011300Z 31005KT 15SM FEW080 FEW120 FEW270 05/03 A2994 RMK AC1AC1CI1 SLP157

CYQR;2010-06-01 14:00;CYQR 011400Z 32006KT 15SM FEW014 FEW270 08/04 A2995 RMK CF1CI1 TR CF SLP162

CYQR;2010-06-01 15:00;CYQR 011500Z 28007KT 15SM FEW020 SCT270 10/05 A2995 RMK CU1CI0 SLP158

CYQR;2010-06-01 16:00;CYQR 011600Z 32009KT 15SM FEW032 SCT270 11/04 A2994 RMK CU2CI0 SLP156

CYQR;2010-06-01 17:00;CYQR 011700Z 35008KT 15SM SCT037 SCT270 13/04 A2993 RMK CU3CI0 SLP153

CYQR;2010-06-01 18:00;CYQR 011800Z 31008KT 15SM BKN041 BKN270 13/04 A2994 RMK CU5CI1 SLP157

CYQR;2010-06-01 19:00;CYQR 011900Z 31009KT 15SM BKN041 13/04 A2994 RMK CU6 SLP156

CYQR;2010-06-01 20:00;CYQR 012000Z 32006KT 15SM BKN043 14/04 A2993 RMK CU6 SLP153

CYQR;2010-06-01 21:00;CYQR 012100Z 33009KT 15SM SCT049 16/05 A2992 RMK SC4 SLP147

CYQR;2010-06-01 22:00;CYQR 012200Z 32009KT 15SM SCT049 15/04 A2991 RMK SC4 SLP145

CYQR;2010-06-01 23:00;CYQR 012300Z 34006KT 15SM SCT054 SCT270 16/05 A2990 RMK SC3CI0 SLP141

CYQR;2010-06-02 00:00;CYQR 020000Z 31004KT 15SM FEW054 SCT270 15/04 A2989 RMK SC2CI1 SLP139

CYQR;2010-06-02 01:00;CYQR 020100Z 36005KT 15SM FEW058 FEW270 15/04 A2988 RMK SC2CI1 SLP136

CYQR;2010-06-02 02:00;CYQR 020200Z 36003KT 15SM FEW062 FEW270 15/05 A2988 RMK SC1CI1 SLP134

CYQR;2010-06-02 03:00;CYQR 020300Z 00000KT 15SM FEW060 FEW270 13/04 A2987 RMK SC1CI1 SLP127

CYQR;2010-06-02 04:00;CYQR 020400Z 13002KT 15SM FEW060 11/03 A2988 RMK SC1 SLP130

CYQR;2010-06-02 05:00;CYQR 020500Z 15002KT 15SM FEW060 10/03 A2988 RMK SC2 SLP131

CYQR;2010-06-02 06:00;CYQR 020600Z 13002KT 15SM SKC 07/04 A2988 RMK SLP133

CYQR;2010-06-02 07:00;CYQR 020700Z 16004KT 15SM SKC 07/03 A2988 RMK SLP132

CYQR;2010-06-02 08:00;CYQR 020800Z 13003KT 15SM SKC 05/02 A2987 RMK SLP131

CYQR;2010-06-02 09:00;CYQR 020900Z 14004KT 15SM FEW050 05/02 A2987 RMK SC1 SLP129

CYQR;2010-06-02 10:00;CYQR 021000Z 13006KT 15SM BKN066 03/01 A2986 RMK AC0 SLP127

CYQR;2010-06-02 11:00;CYQR 021100Z 11005KT 15SM FEW066 FEW270 03/01 A2987 RMK AC2CI1 SLP128

CYQR;2010-06-02 12:00;CYQR 021200Z 12004KT 15SM FEW066 FEW270 05/03 A2987 RMK AC1CI1 SLP128

CYQR;2010-06-02 13:00;CYQR 021300Z 12004KT 15SM FEW065 FEW270 09/05 A2987 RMK SC1CI1 SLP129

CYQR;2010-06-02 14:00;CYQR 021400Z 16006KT 15SM FEW087 13/07 A2986 RMK AC2 SLP127

CYQR;2010-06-02 15:00;CYQR 021500Z 19008KT 15SM BKN075 15/06 A2986 RMK AC6 ACC ASOCTD SLP122

CYQR;2010-06-02 16:00;CYQR 021600Z 18009KT 15SM FEW040 BKN075 16/06 A2986 RMK CF1AC5 SLP119

CYQR;2010-06-02 17:00;CYQR 021700Z 20008KT 15SM FEW050 SCT078 BKN320 17/05 A2984 RMK CU1AC4CI1 SLP115

CYQR;2010-06-02 18:00;CYQR 021800Z 18008KT 15SM SCT063 BKN082 BKN320 19/07 A2983 RMK CU3AC2CI0 SLP111

CYQR;2010-06-02 19:00;CYQR 021900Z 20007KT 15SM BKN061 18/06 A2981 RMK CU6 SLP105

CYQR;2010-06-02 20:00;CYQR 022000Z 18012KT 15SM BKN059 19/07 A2980 RMK CU7 SLP101

CYQR;2010-06-02 21:00;CYQR 022100Z 19005KT 15SM BKN056 19/07 A2978 RMK CU7 SLP095

CYQR;2010-06-02 22:00;CYQR 022200Z 23007KT 15SM BKN056 20/07 A2976 RMK CU5 SLP090

CYQR;2010-06-02 23:00;CYQR 022300Z 23008KT 15SM SCT061 SCT320 20/07 A2974 RMK CU3CI0 SLP084

CYQR;2010-06-03 00:00;CYQR 030000Z 20003KT 15SM SCT061 SCT320 20/08 A2972 RMK CU3CI0 SLP074

CYQR;2010-06-03 01:00;CYQR 030100Z 18011KT 15SM SCT061 BKN320 20/08 A2971 RMK CU3CI1 SLP070

CYQR;2010-06-03 02:00;CYQR 030200Z 16009KT 15SM FEW061 OVC300 18/09 A2970 RMK SC1CI2 CU ASOCTD SLP066

CYQR;2010-06-03 03:00;CYQR 030300Z 16008KT 15SM SCT060 BKN150 BKN300 16/09 A2969 RMK SC4AC0CI0 SLP061

CYQR;2010-06-03 04:00;CYQR 030400Z 15008KT 15SM SCT060 SCT150 BKN300 15/09 A2969 RMK SC3AC1CI0 SLP061

CYQR;2010-06-03 05:00;CYQR 030500Z 15007KT 15SM FEW055 SCT300 14/09 A2969 RMK SC2CI0 SLP060

CYQR;2010-06-03 06:00;CYQR 030600Z 14010KT 15SM FEW065 SCT085 BKN280 13/09 A2966 RMK SC2AC1CI0 SLP051

CYQR;2010-06-03 07:00;CYQR 030700Z 14011KT 15SM BKN085 13/09 A2965 RMK AC4 SLP046

CYQR;2010-06-03 08:00;CYQR 030800Z 13011KT 15SM FEW085 12/09 A2963 RMK AC1 SLP040

CYQR;2010-06-03 09:00;CYQR 030900Z 13010KT 15SM BKN085 12/09 A2961 RMK AC4 SLP035

CYQR;2010-06-03 10:00;CYQR 031000Z 13012KT 15SM FEW063 BKN140 12/09 A2960 RMK SC1AC2 SLP031

CYQR;2010-06-03 11:00;CYQR 031100Z 14011G17KT 15SM FEW040 FEW065 BKN120 BKN300 12/09 A2959 RMK SC1AC1AC6CI1 ACC ASOCTD SLP027

CYQR;2010-06-03 12:00;CYQR 031200Z 14012KT 15SM FEW040 BKN069 BKN120 OVC300 12/10 A2958 RMK SC1AC6AC2CI1 SLP022

CYQR;2010-06-03 13:00;CYQR 031300Z 14012KT 15SM FEW040 BKN069 OVC120 13/11 A2957 RMK SC2AC3AC3 SLP019

CYQR;2010-06-03 14:00;CYQR 031400Z 14012KT 15SM VCSH FEW040 BKN075 OVC100 15/12 A2956 RMK SC2AC4AC2 SLP017

CYQR;2010-06-03 15:00;CYQR 031500Z 17012KT 12SM -SHRA FEW040 BKN069 OVC095 15/12 A2956 RMK SC1AC6AC1 CVCTV CLD EMBD SLP016

CYQR;2010-06-03 15:44;CYQR 031544Z 18015KT 12SM -SHRA FEW009 OVC075 15/ RMK SC2AC6

CYQR;2010-06-03 16:00;CYQR 031600Z 17013KT 12SM -SHRA FEW012 OVC075 15/12 A2956 RMK SC2AC6 SLP014

CYQR;2010-06-03 16:33;CYQR 031633Z 17012KT 12SM -SHRA BKN008 BKN041 OVC075 15/ RMK SF5SC2AC2

CYQR;2010-06-03 17:00;CYQR 031700Z 16010KT 12SM -SHRA BKN007 BKN016 OVC075 15/14 A2954 RMK SF5SC2SC2 SLP008

CYQR;2010-06-03 17:11;CYQR 031711Z 15011KT 3SM -SHRA BR BKN005 OVC016 15/ RMK SF6SC2 CVCTV CLD EMBD

CYQR;2010-06-03 17:41;CYQR 031741Z 14011KT 3SM -SHRA BR BKN004 OVC015 14/ RMK SF7SC1 CVCTV CLD EMBD

CYQR;2010-06-03 17:46;CYQR 031746Z 15011KT 2SM SHRA BR OVC004 14/ RMK SF8 CVCTV CLD EMBD

CYQR;2010-06-03 18:00;CYQR 031800Z 16009KT 2 1/2SM -SHRA BR OVC005 14/13 A2953 RERA RMK SF8 CVCTV CLD EMBD /R05/ SLP007

CYQR;2010-06-03 18:10;CYQR 031810Z 18003KT 3SM -SHRA BR OVC003 14/ RMK SF8 CVCTV CLD EMBD

CYQR;2010-06-03 18:26;CYQR 031826Z 23010KT 4SM -SHRA BR OVC005 15/ RMK SF8 CVCTV CLD EMBD

CYQR;2010-06-03 18:41;CYQR 031841Z 23012KT 6SM -SHRA BR OVC006 15/ RMK SF8 CVCTV CLD EMBD

CYQR;2010-06-03 19:00;CYQR 031900Z 24010KT 10SM -SHRA BKN007 OVC030 15/14 A2951 RMK SF7SC1 CVCTV CLD EMBD SLP003

CYQR;2010-06-03 19:21;CYQR 031921Z 21007KT 10SM BKN008 BKN038 16/ RMK SF6SC2 CVCTV CLD EMBD

CYQR;2010-06-03 20:00;CYQR 032000Z 25005KT 10SM SCT008 BKN016 BKN068 18/15 A2950 RMK SF3SC2AC2 SLP998

CYQR;2010-06-03 20:15;CYQR 032015Z 23005KT 15SM BKN016 BKN080 17/ RMK SC6AC1 CU ASOCTD

CYQR;2010-06-03 20:36;CYQR 032036Z 17004KT 15SM FC BKN019 17/ RMK CU7 FUNNEL CLOUD DIST SW

CYQR;2010-06-03 21:00;CYQR 032100Z 32003KT 15SM BKN023TCU 17/13 A2949 REFC RMK TCU7 SH DIST S+SW SLP993

CYQR;2010-06-03 21:09;CYQR 032109Z 00000KT 12SM -SHRA SCT008 BKN023TCU BKN081 17/ RMK SF3TCU2AC2

CYQR;2010-06-03 22:00;CYQR 032200Z 19002KT 15SM VCSH SCT017TCU BKN100 BKN320 17/14 A2948 RMK TCU4AC2CI1 SLP991

CYQR;2010-06-03 22:22;CYQR 032222Z 27006KT 10SM -SHRA BKN006TCU OVC040 17/ RMK TCU5SC3

CYQR;2010-06-03 23:00;CYQR 032300Z 21003KT 10SM VCSH BKN009TCU BKN040 BKN079 16/12 A2948 RMK TCU5SC2AC1 SLP989

CYQR;2010-06-03 23:28;CYQR 032328Z 16005KT 15SM FEW040CB BKN300 17/ RMK CB2CI1 CB E

CYQR;2010-06-04 00:00;CYQR 040000Z 16006KT 15SM FEW040TCU BKN300 18/12 A2947 RMK TCU2CI1 SLP984

CYQR;2010-06-04 01:00;CYQR 040100Z 15006KT 15SM FEW040 SCT270 19/12 A2947 RMK SC2CI0 CU ASOCTD SLP985

CYQR;2010-06-04 02:00;CYQR 040200Z 16007KT 15SM FEW040TCU 17/12 A2948 RMK TCU1 SLP988

CYQR;2010-06-04 03:00;CYQR 040300Z 18006KT 15SM FEW012 FEW040TCU 15/12 A2950 RMK CU1TCU1 TCU + SHWRS S AND SSE SLP995

CYQR;2010-06-04 04:00;CYQR 040400Z 26012KT 15SM FEW040 14/10 A2951 RMK SC1 SLP000

CYQR;2010-06-04 05:00;CYQR 040500Z 27008KT 15SM FEW040 12/08 A2951 RMK SC1 SLP000

CYQR;2010-06-04 06:00;CYQR 040600Z 25009KT 15SM SKC 11/07 A2953 RMK SLP008

CYQR;2010-06-04 07:00;CYQR 040700Z 25019KT 15SM FEW040 11/07 A2953 RMK SC1 SLP008

CYQR;2010-06-04 08:00;CYQR 040800Z 25013KT 15SM OVC015 11/09 A2951 RMK SC8 SLP003

CYQR;2010-06-04 09:00;CYQR 040900Z 27019KT 15SM BKN015 OVC041 12/09 A2951 RMK SC7SC1 SLP002

CYQR;2010-06-04 09:19;CYQR 040919Z 28017G22KT 15SM -SHRA BKN015 OVC041 12/ RMK SC7SC1

CYQR;2010-06-04 09:50;CYQR 040950Z 27016KT 15SM BKN015 OVC032 11/ RMK SC7SC1

CYQR;2010-06-04 10:00;CYQR 041000Z 27015G25KT 15SM BKN015 11/09 A2952 RMK SC7 SLP005

CYQR;2010-06-04 11:00;CYQR 041100Z 27013G18KT 15SM BKN021 BKN031 11/08 A2953 RMK SC6SC1 SLP008

CYQR;2010-06-04 11:13;CYQR 041113Z 26016KT 15SM -SHRA BKN021 BKN061 11/ RMK SC6SC1

CYQR;2010-06-04 11:48;CYQR 041148Z 27017KT 15SM BKN019 11/ RMK SC7

CYQR;2010-06-04 12:00;CYQR 041200Z 28017G24KT 15SM BKN019 11/08 A2954 RMK SC7 SLP009

CYQR;2010-06-04 13:00;CYQR 041300Z 28017KT 15SM BKN017 11/08 A2955 RMK SC7 SLP013

CYQR;2010-06-04 14:00;CYQR 041400Z 28024G29KT 15SM BKN017 11/08 A2956 RMK SC7 SLP016

CYQR;2010-06-04 15:00;CYQR 041500Z 30020G28KT 15SM BKN019 12/08 A2958 RMK SC7 SLP024

CYQR;2010-06-04 16:00;CYQR 041600Z 30019G26KT 15SM BKN021 13/08 A2959 RMK SC6 SLP029

CYQR;2010-06-04 17:00;CYQR 041700Z 29025G30KT 15SM SCT029 SCT099 BKN280 16/09 A2960 RMK SC3AC1CI1 SLP031

CYQR;2010-06-04 18:00;CYQR 041800Z 30025G31KT 15SM FEW040 SCT110 SCT280 17/08 A2961 RMK SC2AC1CI1 SLP033

CYQR;2010-06-04 19:00;CYQR 041900Z 30019G31KT 15SM FEW050 SCT280 19/08 A2960 RMK CU2CI1 SLP031

CYQR;2010-06-04 20:00;CYQR 042000Z 30024G29KT 15SM FEW054 FEW120 BKN280 20/07 A2960 RMK CU2AC1CI1 SLP030

CYQR;2010-06-04 21:00;CYQR 042100Z 31023G28KT 15SM FEW063 SCT093 BKN280 20/06 A2960 RMK CU2AC2CI1 SLP029

CYQR;2010-06-04 22:00;CYQR 042200Z 30018G29KT 15SM FEW066 BKN280 19/06 A2960 RMK CU2CI1 SLP029

CYQR;2010-06-04 23:00;CYQR 042300Z 31011G27KT 15SM FEW068 BKN280 20/06 A2961 RMK CU2CI2 SLP031

CYQR;2010-06-05 00:00;CYQR 050000Z 31015KT 15SM FEW073 BKN280 20/05 A2961 RMK CU2CI2 SLP033

CYQR;2010-06-05 01:00;CYQR 050100Z 30011G17KT 15SM FEW080 BKN300 19/05 A2962 RMK CU2CI1 SLP035

CYQR;2010-06-05 02:00;CYQR 050200Z 04006KT 15SM FEW070 BKN120 BKN300 16/10 A2963 RMK CU1AC4CI1 SLP040

CYQR;2010-06-05 03:00;CYQR 050300Z 09005KT 15SM BKN120 BKN300 15/10 A2965 RMK AC6CI1 SLP048

CYQR;2010-06-05 04:00;CYQR 050400Z 09005KT 15SM BKN120 BKN300 14/10 A2966 RMK AC6CI1 SLP053

CYQR;2010-06-05 05:00;CYQR 050500Z 08005KT 15SM BKN120 BKN300 13/09 A2967 RMK AC6CI1 SLP054

CYQR;2010-06-05 06:00;CYQR 050600Z 10002KT 15SM BKN120 BKN300 13/10 A2968 RMK AC6CI1 SLP059

CYQR;2010-06-05 07:00;CYQR 050700Z 09002KT 15SM BKN078 BKN300 12/10 A2968 RMK AC5CI1 SLP058

CYQR;2010-06-05 08:00;CYQR 050800Z 07002KT 15SM BKN082 OVC300 12/09 A2969 RMK AC6CI1 SLP062

CYQR;2010-06-05 09:00;CYQR 050900Z 32004KT 15SM OVC064 11/10 A2971 RMK SC8 SLP067

CYQR;2010-06-05 10:00;CYQR 051000Z 14006KT 15SM BKN083 OVC300 12/09 A2970 RMK AC7CI1 SLP064

CYQR;2010-06-05 11:00;CYQR 051100Z 04004KT 15SM OVC093 12/09 A2971 RMK AC8 SLP067

CYQR;2010-06-05 12:00;CYQR 051200Z 19002KT 15SM BKN090 OVC300 12/10 A2974 RMK AC7CI1 SLP076

CYQR;2010-06-05 13:00;CYQR 051300Z 16004KT 15SM BKN095 OVC300 13/10 A2975 RMK AC6CI1 SLP079

CYQR;2010-06-05 14:00;CYQR 051400Z 11002KT 15SM SCT093 BKN210 BKN300 16/10 A2975 RMK AC4CC2CI0 SLP081

CYQR;2010-06-05 15:00;CYQR 051500Z 30003KT 15SM FEW093 FEW210 SCT300 17/10 A2977 RMK AC1CI1CI0 SLP087

CYQR;2010-06-05 16:00;CYQR 051600Z 29014KT 15SM FEW040 FEW090 SCT210 BKN300 19/09 A2978 RMK CU1AC2CC1CI0 SLP089

CYQR;2010-06-05 17:00;CYQR 051700Z CCA 31016KT 15SM FEW048 SCT090 BKN220 BKN300 20/07 A2978 RMK CU2AC2CI1CI0 MDT TCU SLP090

CYQR;2010-06-05 18:00;CYQR 051800Z 30015KT 15SM SCT048TCU SCT090 20/07 A2979 RMK TCU3AC1 SLP093

CYQR;2010-06-05 19:00;CYQR 051900Z 33009G19KT 15SM SCT070TCU BKN100 21/07 A2979 RMK TCU4AC1 SLP093

CYQR;2010-06-05 20:00;CYQR 052000Z 34010KT 15SM SCT074TCU BKN093 BKN280 19/06 A2980 RMK TCU3AC2CI0 SLP095

CYQR;2010-06-05 21:00;CYQR 052100Z 36011KT 15SM SCT069TCU BKN094 BKN280 20/07 A2980 RMK TCU4AC2CI0 SLP098

CYQR;2010-06-05 22:00;CYQR 052200Z 34008G15KT 15SM BKN072TCU 21/06 A2981 RMK TCU5 CB TOPS DIST NE-E SLP099

CYQR;2010-06-05 23:00;CYQR 052300Z 30011G16KT 15SM BKN080 22/06 A2981 RMK CU5 TCU EMBD SLP102

CYQR;2010-06-06 00:00;CYQR 060000Z 31013G20KT 15SM BKN080 20/05 A2983 RMK AC7 TCU EMBD SLP108

CYQR;2010-06-06 01:00;CYQR 060100Z 33014G24KT 15SM BKN078TCU BKN095 18/07 A2984 RMK TCU5AC2 SLP112

CYQR;2010-06-06 02:00;CYQR 060200Z 06008KT 15SM SCT084 BKN300 17/08 A2987 RMK AC4CI1 TCU EMBD SLP122

CYQR;2010-06-06 03:00;CYQR 060300Z 35007KT 15SM FEW100 BKN300 14/08 A2991 RMK AC2CI1 SLP134

CYQR;2010-06-06 04:00;CYQR 060400Z 01007KT 15SM FEW100 13/08 A2992 RMK AC2 SLP139

CYQR;2010-06-06 05:00;CYQR 060500Z 02004KT 15SM FEW100 11/07 A2993 RMK AC1 SLP143

CYQR;2010-06-06 06:00;CYQR 060600Z 29003KT 15SM FEW100 10/07 A2994 RMK AC1 SLP146

CYQR;2010-06-06 07:00;CYQR 060700Z 25006KT 15SM FEW100 08/06 A2995 RMK AC1 SLP150

CYQR;2010-06-06 08:00;CYQR 060800Z 28006KT 15SM FEW071 08/07 A2996 RMK AC2 SLP153

CYQR;2010-06-06 09:00;CYQR 060900Z 28006KT 15SM SCT062 10/08 A2997 RMK SC3 SLP157

CYQR;2010-06-06 10:00;CYQR 061000Z 32007KT 15SM FEW060 08/06 A2999 RMK SC1 SLP162

CYQR;2010-06-06 11:00;CYQR 061100Z 29005KT 15SM FEW062 06/04 A3000 RMK SC1 SLP165

CYQR;2010-06-06 12:00;CYQR 061200Z 29004KT 15SM FEW070 08/06 A3000 RMK AC1 SLP170

CYQR;2010-06-06 13:00;CYQR 061300Z 30006KT 15SM FEW080 11/08 A3001 RMK AC1 SLP172

CYQR;2010-06-06 14:00;CYQR 061400Z 29008KT 15SM FEW080 14/08 A3002 RMK AC1 SLP174

CYQR;2010-06-06 15:00;CYQR 061500Z 28007KT 15SM SKC 16/09 A3003 RMK SLP179

CYQR;2010-06-06 16:00;CYQR 061600Z 28005KT 15SM FEW036 18/09 A3003 RMK CF1 SLP177

CYQR;2010-06-06 17:00;CYQR 061700Z 34008KT 15SM FEW050 19/09 A3002 RMK CU1 SLP176

CYQR;2010-06-06 18:00;CYQR 061800Z 32011KT 15SM FEW058 20/08 A3002 RMK CU1 SLP175

CYQR;2010-06-06 19:00;CYQR 061900Z 30012KT 15SM FEW060 22/08 A3001 RMK CU2 SLP171

CYQR;2010-06-06 20:00;CYQR 062000Z 27006G15KT 15SM BKN069 20/06 A3000 RMK CU5 MDT TCU SLP168

CYQR;2010-06-06 21:00;CYQR 062100Z 26014KT 15SM BKN078 22/07 A2998 RMK CU5 MDT TCU SLP160

CYQR;2010-06-06 22:00;CYQR 062200Z 27013G20KT 15SM SCT078 22/06 A2997 RMK CU4 TCU ASOCTD SLP158

CYQR;2010-06-06 23:00;CYQR 062300Z 29007KT 15SM SCT085 22/07 A2996 RMK CU4 TCU ASOCTD VIRGA SLP154

CYQR;2010-06-07 00:00;CYQR 070000Z 30011KT 15SM FEW085 SCT120 BKN240 BKN300 20/06 A2996 RMK CU2AC1CI1CI1 CB TOPS EAST VIRGA SLP153

CYQR;2010-06-07 01:00;CYQR 070100Z 28002KT 15SM FEW060 SCT120 BKN300 20/05 A2994 RMK CU2AC1CI0 TCU EMBD SLP149

CYQR;2010-06-07 02:00;CYQR 070200Z 11002KT 15SM FEW060 SCT100 BKN300 21/07 A2994 RMK CU2AC1CI0 SLP149

CYQR;2010-06-07 03:00;CYQR 070300Z 31006KT 15SM FEW080 FEW120 BKN300 18/08 A2995 RMK CU2AC1CI0 SLP147

CYQR;2010-06-07 04:00;CYQR 070400Z 17002KT 15SM FEW080 FEW120 SCT300 15/06 A2996 RMK CU1AC1CI0 SLP149

CYQR;2010-06-07 05:00;CYQR 070500Z 10002KT 15SM FEW100 SCT300 14/07 A2995 RMK AC1CI0 SLP147

CYQR;2010-06-07 06:00;CYQR 070600Z 13003KT 15SM SCT090 BKN300 13/07 A2994 RMK AC3CI0 SLP144

CYQR;2010-06-07 07:00;CYQR 070700Z 15005KT 15SM FEW095 BKN300 12/07 A2993 RMK AC2CI0 SLP143

CYQR;2010-06-07 08:00;CYQR 070800Z 15007KT 15SM SCT090 BKN300 13/07 A2993 RMK AC3CI0 SLP142

CYQR;2010-06-07 09:00;CYQR 070900Z 12006KT 15SM FEW090 SCT300 11/06 A2991 RMK AC2CI0 SLP136

CYQR;2010-06-07 10:00;CYQR 071000Z 11006KT 15SM FEW100 SCT300 10/06 A2991 RMK AC1CI0 SLP134

CYQR;2010-06-07 11:00;CYQR 071100Z 12006KT 15SM FEW080 SCT300 09/06 A2991 RMK AC2CI0 SLP133

CYQR;2010-06-07 12:00;CYQR 071200Z 12005KT 15SM SCT080 BKN300 10/07 A2991 RMK AC4CI1 SLP136

CYQR;2010-06-07 13:00;CYQR 071300Z 12005KT 15SM SCT090 BKN120 BKN300 12/08 A2991 RMK ACC4AC2CI1 SLP136

CYQR;2010-06-07 14:00;CYQR 071400Z 12005KT 15SM FEW020 BKN094 BKN300 15/10 A2991 RMK CF1ACC5CI1 SLP136

CYQR;2010-06-07 15:00;CYQR 071500Z 00000KT 15SM FEW024 BKN082 OVC300 15/10 A2989 RMK CF1ACC6CI1 VIRGA SLP128

CYQR;2010-06-07 15:34;CYQR 071534Z 13008KT 15SM -SHRA FEW029 BKN091 OVC300 16/ RMK CF1ACC6CI1

CYQR;2010-06-07 16:00;CYQR 071600Z 13005KT 15SM -SHRA SCT029 OVC095 17/10 A2990 RMK SC3ACC5 SLP131

CYQR;2010-06-07 17:00;CYQR 071700Z 12005KT 15SM -SHRA FEW021 BKN075 OVC300 17/11 A2987 RMK CU1ACC6CI1 SLP122

CYQR;2010-06-07 18:00;CYQR 071800Z 06004KT 15SM -SHRA FEW013 BKN076 OVC300 17/12 A2988 RMK CU1AC6CI2 ACC EMBD SLP125

CYQR;2010-06-07 19:00;CYQR 071900Z 32005KT 15SM -SHRA SCT018 BKN054 OVC088 17/13 A2988 RMK CU3SC2AC2 SLP125

CYQR;2010-06-07 20:00;CYQR 072000Z 29002KT 15SM -SHRA FEW019 OVC080 17/12 A2987 RMK CU2ACC6 SLP123

CYQR;2010-06-07 20:53;CYQR 072053Z 19004KT 15SM -SHRA SCT009 OVC037 16/ RMK SF3SC5 CVCTV CLD ASOCTD

CYQR;2010-06-07 21:00;CYQR 072100Z 19005KT 10SM -SHRA SCT009 OVC037 16/11 A2986 RMK SF3SC5 CVCTV CLD ASOCTD SLP119

CYQR;2010-06-07 22:00;CYQR 072200Z 16006KT 15SM -SHRA FEW024 BKN073 OVC300 16/11 A2985 RMK SC2AC5CI2 CVCTV CLD EMBD SLP116

CYQR;2010-06-07 23:00;CYQR 072300Z 17005KT 15SM BKN060 OVC140 16/11 A2984 RMK SC6AC2 SLP114

CYQR;2010-06-07 23:17;CYQR 072317Z 17003KT 15SM -SHRA OVC053 16/ RMK SC8 CVCTV CLD EMBD

CYQR;2010-06-08 00:00;CYQR 080000Z 16003KT 10SM -SHRA SCT015 BKN034 OVC049 16/11 A2983 RMK SC3SC3SC2 CVCTV CLD ASOCTD SLP111

CYQR;2010-06-08 01:00;CYQR 080100Z 13010KT 10SM -SHRA BKN017 OVC047 14/12 A2981 RMK SC5SC3 CVCTV CLD EMBD SLP104

CYQR;2010-06-08 02:00;CYQR 080200Z 14010KT 15SM -SHRA FEW035 BKN070 14/11 A2980 RMK SC2ACC5 SLP102

CYQR;2010-06-08 02:30;CYQR 080230Z 12010KT 15SM FEW040 BKN080 13/ RMK SC2ACC4

CYQR;2010-06-08 03:00;CYQR 080300Z 13008KT 15SM FEW040 BKN080 13/11 A2980 RMK SC1ACC5 SLP098

CYQR;2010-06-08 04:00;CYQR 080400Z 14006KT 15SM BKN095 BKN300 12/11 A2981 RMK AC5CI0 SLP101

CYQR;2010-06-08 05:00;CYQR 080500Z 16006KT 15SM FEW020 SCT080 11/10 A2980 RMK SC1AC3 SLP099

CYQR;2010-06-08 06:00;CYQR 080600Z 14005KT 15SM SCT070 11/09 A2978 RMK AC3 SLP093

CYQR;2010-06-08 06:50;CYQR 080650Z 17004KT 10SM SCT013 BKN064 09/ RMK SC3SC2

CYQR;2010-06-08 07:00;CYQR 080700Z 17005KT 6SM BR BKN013 BKN061 09/08 A2977 RMK SF5SC2 SLP091

CYQR;2010-06-08 08:00;CYQR 080800Z 14005KT 10SM BKN008 OVC064 10/09 A2976 RMK SF5SC2 SLP086

CYQR;2010-06-08 09:00;CYQR 080900Z 12004KT 10SM BKN007 OVC064 10/09 A2976 RMK SF6SC2 SLP086

CYQR;2010-06-08 09:13;CYQR 080913Z 15006KT 10SM FEW007 FEW075 10/ RMK SF2AC1

CYQR;2010-06-08 10:00;CYQR 081000Z 13005KT 15SM FEW010 FEW075 08/07 A2974 RMK SF1AC1 SLP081

CYQR;2010-06-08 10:11;CYQR 081011Z 17007KT 3SM BR BKN005 BKN075 09/ RMK SF5AC1

CYQR;2010-06-08 10:25;CYQR 081025Z 17006KT 1 1/2SM BR BKN002 09/ RMK SF6

CYQR;2010-06-08 10:35;CYQR 081035Z 16006KT 1/2SM R13/3500VP6000FT/D FG OVC003 09/ RMK FG2SF6

CYQR;2010-06-08 11:00;CYQR 081100Z 17007KT 2SM R13/2400FT/N BR SCT006 08/07 A2973 RMK SF4 SLP078

CYQR;2010-06-08 11:02;CYQR 081102Z 17007KT 3SM R13/2600VP6000FT/N BR FEW006 FEW090 08/ RMK SF1AC1

CYQR;2010-06-08 12:00;CYQR 081200Z 22005KT 15SM FEW006 FEW090 SCT300 08/07 A2973 RMK SF1AC1CI0 SLP079

CYQR;2010-06-08 12:09;CYQR 081209Z 24009KT 15SM BKN011 10/ RMK SC7

CYQR;2010-06-08 12:39;CYQR 081239Z 25009KT 15SM OVC009 11/ RMK SC7

CYQR;2010-06-08 13:00;CYQR 081300Z 23010KT 15SM OVC009 11/10 A2973 RMK SC8 SLP080

CYQR;2010-06-08 14:00;CYQR 081400Z 27011KT 15SM OVC008 12/10 A2973 RMK SC8 SLP079

CYQR;2010-06-08 15:00;CYQR 081500Z 29012KT 15SM BKN008 OVC023 12/10 A2972 RMK SC7SC1 SLP075

CYQR;2010-06-08 16:00;CYQR 081600Z 30014KT 12SM OVC008 12/10 A2973 RMK SC8 SLP078

CYQR;2010-06-08 16:24;CYQR 081624Z 31012KT 12SM BKN004 OVC022 12/ RMK SC6SC2

CYQR;2010-06-08 16:39;CYQR 081639Z 31013KT 12SM BKN006 OVC022 RMK SC6SC2

CYQR;2010-06-08 17:00;CYQR 081700Z 32012KT 12SM BKN006 OVC022 12/10 A2973 RMK SC6SC2 SLP076

CYQR;2010-06-08 18:00;CYQR 081800Z 33013G18KT 12SM BKN010 OVC029 14/11 A2973 RMK SC7SC1 SLP078

CYQR;2010-06-08 18:26;CYQR 081826Z 36012G18KT 15SM BKN009 OVC034 13/ RMK SC6SC2

CYQR;2010-06-08 18:38;CYQR 081838Z 35014KT 15SM BKN012 OVC028 13/ RMK SC6SC2

CYQR;2010-06-08 18:52;CYQR 081852Z 34012KT 5SM -SHRA BR BKN012 OVC042 12/ RMK SC6SC2 VIS SW 2SM CVCTV CLD EMBD

CYQR;2010-06-08 19:00;CYQR 081900Z 34009G15KT 6SM -SHRA BR BKN012 OVC042 13/11 A2975 RMK SC6SC2 CVCTV CLD EMBD SLP083

CYQR;2010-06-08 19:25;CYQR 081925Z 35012KT 10SM BKN012 OVC027 14/ RMK SC5SC3 CVCTV CLD EMBD

CYQR;2010-06-08 19:40;CYQR 081940Z 33010KT 6SM -SHRA OVC012 13/ RMK SC8 CVCTV CLD EMBD

CYQR;2010-06-08 20:00;CYQR 082000Z 33015KT 8SM -SHRA OVC012 13/10 A2976 RMK SC8 SLP086

CYQR;2010-06-08 21:00;CYQR 082100Z 35016KT 15SM -SHRA BKN015 BKN057 14/11 A2977 RMK SC6SC2 CVCTV CLD EMBD SLP092

CYQR;2010-06-08 21:19;CYQR 082119Z 34013G19KT 15SM BKN019TCU BKN049 14/ RMK TCU5SC2

CYQR;2010-06-08 22:00;CYQR 082200Z 35018KT 15SM VCSH BKN024TCU OVC042 15/10 A2979 RMK TCU5SC3 SLP098

CYQR;2010-06-08 22:13;CYQR 082213Z 36020G28KT 15SM -SHRA BKN024 OVC042 13/ RMK SC5SC3

CYQR;2010-06-08 23:00;CYQR 082300Z 36019G24KT 12SM -SHRA BKN015TCU OVC042 13/10 A2983 RMK TCU5SC3 SLP111

CYQR;2010-06-09 00:00;CYQR 090000Z 36017G25KT 12SM -SHRA SCT013 OVC070 14/10 A2985 RMK CU4AC3 TCU ASOCTD SLP121

CYQR;2010-06-09 00:07;CYQR 090007Z 35018G25KT 15SM SCT013 BKN041 BKN270 RMK CU3SC2CI1

CYQR;2010-06-09 01:00;CYQR 090100Z 35016KT 10SM SCT017 BKN054 OVC090 14/10 A2987 RMK CU3SC3AC2 SLP129

CYQR;2010-06-09 02:00;CYQR 090200Z 36012G17KT 15SM FEW017TCU FEW059 FEW090 BKN250 13/09 A2990 RMK TCU1SC1AC1CI2 SLP136

CYQR;2010-06-09 03:00;CYQR 090300Z 35008KT 15SM FEW017TCU FEW042 BKN250 11/09 A2992 RMK TCU1SC1CI2 SLP144

CYQR;2010-06-09 04:00;CYQR 090400Z 33007KT 15SM VCSH SCT023 BKN072 BKN250 10/09 A2995 RMK SC3AC2CI1 SLP152

CYQR;2010-06-09 05:00;CYQR 090500Z 34011KT 15SM SCT036 BKN055 12/09 A2996 RMK SC4SC2 SLP158

CYQR;2010-06-09 06:00;CYQR 090600Z 33007KT 15SM BKN047 OVC071 12/09 A2998 RMK SC6AC2 SLP162

CYQR;2010-06-09 07:00;CYQR 090700Z 32003KT 15SM FEW008 SCT023 BKN038 OVC080 11/09 A2998 RMK CF1SC4SC2AC2 SLP164

CYQR;2010-06-09 07:29;CYQR 090729Z 30006KT 15SM BKN013 OVC042 10/ RMK SC5SC3

CYQR;2010-06-09 08:00;CYQR 090800Z 32004KT 15SM SCT013 10/08 A2998 RMK SC4 SLP163

CYQR;2010-06-09 08:14;CYQR 090814Z 34004KT 15SM BKN009 09/ RMK SC5

CYQR;2010-06-09 09:00;CYQR 090900Z 27003KT 3SM R13/2600V4000FT/D BR SCT008 07/06 A2998 RMK SC2 VIS W 1 SLP167

CYQR;2010-06-09 09:05;CYQR 090905Z 28008KT 2SM R13/2200FT/N BR SCT008 07/ RMK SC2 VIS W 1/2

CYQR;2010-06-09 09:08;CYQR 090908Z 28006KT 1/2SM R13/2200FT/N FG SCT010 07/ RMK FG2SC2 VIS E 1

CYQR;2010-06-09 10:00;CYQR 091000Z 34002KT 1/2SM R13/2200FT/N FG FEW010 FEW250 06/04 A2998 RMK FG2SC1CI1 SLP166

CYQR;2010-06-09 10:16;CYQR 091016Z 00000KT 3/8SM R13/2200FT/N FG FEW010 FEW030 FEW250 05/ RMK FG2SC1SC1CI1

CYQR;2010-06-09 10:37;CYQR 091037Z 28005KT 1/4SM R13/1800FT/N FG VV001 05/ RMK FG8

CYQR;2010-06-09 10:52;CYQR 091052Z 31006KT 1/2SM R13/2600V4500FT/U FG OVC006 07/ RMK FG5ST3

CYQR;2010-06-09 11:00;CYQR 091100Z 31006KT 1SM R13/4000V5500FT/U BR BKN006 BKN030 OVC080 07/06 A3000 RMK ST6SC1AC1 SLP172

CYQR;2010-06-09 11:06;CYQR 091106Z 33007KT 3SM R13/4500VP6000FT/U BR BKN007 BKN040 BKN080 08/ RMK SF6SC1AC1

CYQR;2010-06-09 11:19;CYQR 091119Z 01004KT 4SM BR SCT007 BKN040 BKN080 08/ RMK SF3SC3AC1 V W 10

CYQR;2010-06-09 11:23;CYQR 091123Z CCA 01004KT 4SM BR SCT007 BKN040 BKN080 08/ RMK SF3SC3AC1 VIS W 10

CYQR;2010-06-09 12:00;CYQR 091200Z 03002KT 15SM FEW007 BKN040 08/07 A2999 RMK SF1SC4 SLP169

CYQR;2010-06-09 13:00;CYQR 091300Z 34004KT 12SM FEW007 BKN040 10/09 A3000 RMK SF1SC6 SLP172

CYQR;2010-06-09 14:00;CYQR 091400Z 05004KT 15SM FEW008 SCT030 12/09 A3000 RMK SF1SC2 SLP171

CYQR;2010-06-09 14:45;CYQR 091445Z 36004KT 15SM BKN012 OVC027 12/ RMK SC5SC3

CYQR;2010-06-09 15:00;CYQR 091500Z 04002KT 15SM BKN012 BKN027 OVC100 12/08 A3000 RMK SC5SC2AC1 SLP172

CYQR;2010-06-09 15:14;CYQR 091514Z 02003KT 15SM SCT012 OVC027 12/ RMK SC3SC5

CYQR;2010-06-09 16:00;CYQR 091600Z 04003KT 15SM SCT012 OVC027 13/07 A2999 RMK SC3SC5 SLP169

CYQR;2010-06-09 17:00;CYQR 091700Z 02004KT 15SM FEW020 BKN027 14/08 A2998 RMK CU2SC6 SLP164

CYQR;2010-06-09 18:00;CYQR 091800Z 00000KT 15SM BKN045 OVC100 15/08 A2997 RMK SC7AC1 CU EMBD SLP160

CYQR;2010-06-09 19:00;CYQR 091900Z 07005KT 15SM BKN045 BKN100 15/08 A2995 RMK SC6AC2 SLP154

CYQR;2010-06-09 20:00;CYQR 092000Z 08004KT 15SM BKN032 BKN100 15/08 A2994 RMK SC7AC1 CU ASOCTD SLP150

CYQR;2010-06-09 21:00;CYQR 092100Z 08005KT 15SM SCT034 BKN100 BKN300 17/09 A2991 RMK SC4AC2CI0 CU ASOCTD SLP142

CYQR;2010-06-09 22:00;CYQR 092200Z 09003KT 15SM BKN038 OVC051 16/09 A2991 RMK SC6SC2 CU ASOCTD SLP140

CYQR;2010-06-09 23:00;CYQR 092300Z 10009KT 15SM BKN040 OVC066 16/08 A2989 RMK SC6AC2 SLP133

CYQR;2010-06-10 00:00;CYQR 100000Z 12009KT 15SM SCT042 OVC120 17/08 A2987 RMK SC4AC4 SLP127

CYQR;2010-06-10 01:00;CYQR 100100Z 13012KT 15SM SCT044 OVC087 16/08 A2987 RMK SC3AC5 SLP126

CYQR;2010-06-10 02:00;CYQR 100200Z 12010KT 15SM FEW047 SCT081 OVC100 16/08 A2986 RMK CU2AC2AC4 SLP122

CYQR;2010-06-10 03:00;CYQR 100300Z 12011KT 15SM VCSH FEW055TCU SCT081 OVC100 15/08 A2985 RMK TCU1AC2AC5 SHWRS SE SLP117

CYQR;2010-06-10 03:12;CYQR 100312Z 11012KT 15SM -SHRA BKN051TCU OVC100 14/ RMK TCU5AC3

CYQR;2010-06-10 04:00;CYQR 100400Z CCA 11013KT 15SM -SHRA OVC047 14/09 A2984 RMK SC8 CVCTV CLD EMBD SLP114

CYQR;2010-06-10 05:00;CYQR 100500Z 10015KT 15SM -SHRA SCT047 OVC075 14/09 A2985 RMK SC3AC5 SLP116

CYQR;2010-06-10 06:00;CYQR 100600Z 11013G18KT 15SM -SHRA BKN043 OVC081 12/10 A2982 RMK SC5AC3 CVCTV CLD EMBD SLP107

CYQR;2010-06-10 07:00;CYQR 100700Z 12014G19KT 15SM -SHRA OVC047 12/10 A2980 RMK SC8 SLP100

CYQR;2010-06-10 08:00;CYQR 100800Z 12016G21KT 15SM OVC049 12/09 A2977 RMK SC8 SLP092

CYQR;2010-06-10 09:00;CYQR 100900Z 12019G25KT 15SM -RA BKN044 OVC068 12/08 A2975 RMK SC5AC3 SLP083

CYQR;2010-06-10 09:05;CYQR 100905Z 12018G25KT 15SM SCT044 OVC063 12/ RMK SC3SC5

CYQR;2010-06-10 10:00;CYQR 101000Z 13016KT 15SM SCT045 OVC065 11/08 A2975 RMK SC3SC5 SLP082

CYQR;2010-06-10 10:35;CYQR 101035Z 13018G24KT 12SM -SHRA FEW045 OVC059 11/ RMK SC2SC6

CYQR;2010-06-10 11:00;CYQR 101100Z 13017KT 6SM -RA BR SCT038 OVC059 11/08 A2974 RMK SC3SC5 SLP080

CYQR;2010-06-10 12:00;CYQR 101200Z 13017KT 3SM RA SCT015 OVC068 10/09 A2975 RMK SC3AC5 SLP083

CYQR;2010-06-10 12:09;CYQR 101209Z 13016KT 2 1/2SM RA BR SCT015 OVC068 10/ RMK SC4AC4

CYQR;2010-06-10 12:18;CYQR 101218Z CCA 13017KT 5SM -RA BR SCT015 OVC068 10/ RERA RMK SC4AC4

CYQR;2010-06-10 12:26;CYQR 101226Z 13017KT 6SM -RA BR BKN010 OVC068 10/ RERA RMK SF5AC3

CYQR;2010-06-10 12:41;CYQR 101241Z 13014G19KT 8SM BKN008 OVC068 10/ RERA RMK SF5AC3

CYQR;2010-06-10 12:54;CYQR 101254Z 13014G22KT 8SM -RA BKN008 BKN025 OVC068 10/ RERA RMK SF5SC2AC2

CYQR;2010-06-10 13:00;CYQR 101300Z 13016G21KT 5SM -RA BR BKN007 OVC025 10/09 A2975 RERA RMK SF6SC2 SLP083

CYQR;2010-06-10 13:14;CYQR 101314Z CCA 14012G19KT 6SM -RA BR BKN005 OVC025 10/ RMK SF6SC2

CYQR;2010-06-10 13:42;CYQR 101342Z 13015G20KT 8SM OVC006 11/ RMK SF8 INTMT -RA

CYQR;2010-06-10 14:00;CYQR 101400Z 13015G20KT 10SM -RA OVC005 11/09 A2974 RMK SF8 -RA INTMT SLP081

CYQR;2010-06-10 15:00;CYQR 101500Z 14015G21KT 12SM -RA OVC005 11/10 A2975 RMK SF8 -RA INTMT SLP083

CYQR;2010-06-10 15:16;CYQR 101516Z 14017KT 12SM OVC006 11/ RMK SC8

CYQR;2010-06-10 16:00;CYQR 101600Z 15014G21KT 12SM OVC006 11/10 A2975 RMK SC8 SLP083

CYQR;2010-06-10 16:13;CYQR 101613Z 15015KT 12SM -RA OVC006 12/ RMK SC8 -RA INTMT

CYQR;2010-06-10 16:24;CYQR 101624Z 15016KT 4SM -RA BR OVC005 12/ RMK SC8

CYQR;2010-06-10 16:35;CYQR 101635Z 15013G19KT 3SM -DZ BR OVC005 12/ RMK SC8

CYQR;2010-06-10 17:00;CYQR 101700Z 15013G20KT 6SM -DZ BR OVC006 12/11 A2975 RMK SC8 SLP084

CYQR;2010-06-10 18:00;CYQR 101800Z 15014KT 8SM -DZ OVC006 13/11 A2976 RMK SF8 SLP088

CYQR;2010-06-10 19:00;CYQR 101900Z 14019KT 8SM -DZ OVC006 13/11 A2976 RMK SC8 SLP090

CYQR;2010-06-10 19:13;CYQR 101913Z 15013G21KT 10SM OVC006 13/ RMK SC8

CYQR;2010-06-10 20:00;CYQR 102000Z 15016KT 10SM OVC008 14/12 A2977 RMK SC8 SLP093

CYQR;2010-06-10 21:00;CYQR 102100Z 14017KT 10SM OVC010 15/12 A2977 RMK SC8 SLP091

CYQR;2010-06-10 22:00;CYQR 102200Z 14015KT 10SM OVC010 14/12 A2979 RMK SC8 SLP096

CYQR;2010-06-10 22:24;CYQR 102224Z 13017KT 10SM BKN007 BKN070 15/ RMK SC6AC1 CU ASOCTD

CYQR;2010-06-10 22:42;CYQR 102242Z 14016KT 12SM BKN011 15/ RMK CU7

CYQR;2010-06-10 23:00;CYQR 102300Z 12016KT 15SM BKN013 15/12 A2976 RMK CU6 SLP089

CYQR;2010-06-11 00:00;CYQR 110000Z 13015KT 15SM BKN015 15/12 A2978 RMK CU7 SLP096

CYQR;2010-06-11 01:00;CYQR 110100Z 12012KT 15SM BKN012 14/11 A2980 RMK CU7 SLP101

CYQR;2010-06-11 02:00;CYQR 110200Z 12011G17KT 15SM OVC012 13/10 A2982 RMK CU8 SLP109

CYQR;2010-06-11 03:00;CYQR 110300Z 13012KT 15SM VCSH SCT012 OVC014 13/10 A2984 RMK CU3SC5 SHWRS ESE SLP117

CYQR;2010-06-11 03:34;CYQR 110334Z 12009KT 15SM OVC016 13/ RMK SC8 CVCYV CLD EMBD

CYQR;2010-06-11 04:00;CYQR 110400Z 10007KT 15SM FEW012 OVC018 OVC080 12/10 A2986 RMK CU2SC5AC2 SLP122

CYQR;2010-06-11 04:03;CYQR 110403Z 11008KT 15SM SCT008 OVC018 OVC051 12/ RMK CF2SC5SC2

CYQR;2010-06-11 05:00;CYQR 110500Z 12008KT 15SM SCT012 OVC018 12/10 A2988 RMK CU4SC4 SLP130

CYQR;2010-06-11 05:19;CYQR 110519Z 12008KT 15SM BKN012 OVC018 12/ RMK CU5SC3

CYQR;2010-06-11 05:48;CYQR 110548Z 12010KT 15SM SCT009 BKN012 OVC022 12/ RMK CU3SC2SC2

CYQR;2010-06-11 06:00;CYQR 110600Z 12011KT 15SM SCT008 OVC024 12/10 A2988 RMK CU3SC5 SLP131

CYQR;2010-06-11 06:45;CYQR 110645Z 11009KT 15SM BKN007 OVC019 12/ RMK CU5SC3

CYQR;2010-06-11 07:00;CYQR 110700Z 11007KT 15SM OVC007 12/10 A2988 RMK SC8 SLP131

CYQR;2010-06-11 08:00;CYQR 110800Z 12010KT 15SM BKN006 OVC015 11/09 A2988 RMK SF5SC3 SLP129

CYQR;2010-06-11 09:00;CYQR 110900Z 13006KT 12SM BKN007 OVC023 11/09 A2988 RMK SF5SC3 SLP130

CYQR;2010-06-11 10:00;CYQR 111000Z 11008KT 12SM SCT006 OVC023 11/09 A2992 RMK SF4SC4 SLP143

CYQR;2010-06-11 10:31;CYQR 111031Z 11010KT 15SM BKN008 OVC025 11/ RMK SF6SC2

CYQR;2010-06-11 11:00;CYQR 111100Z 10009KT 15SM -RA OVC008 10/08 A2993 RMK SF8 CIG RAG SLP144

CYQR;2010-06-11 12:00;CYQR 111200Z 10005KT 12SM -RA OVC007 10/08 A2995 RMK SC8 SLP154

CYQR;2010-06-11 13:00;CYQR 111300Z 08006KT 8SM -RA OVC006 10/09 A2998 RMK SC8 SLP162

CYQR;2010-06-11 14:00;CYQR 111400Z 09007KT 13SM -RA BKN012 OVC027 10/08 A2999 RMK SF6SC2 CIG RAG SLP165

CYQR;2010-06-11 15:00;CYQR 111500Z 09009KT 11SM -RA BKN007 OVC027 10/08 A2999 RMK SF3SC5 SLP168

CYQR;2010-06-11 16:00;CYQR 111600Z 08010KT 10SM -RA BKN009 OVC030 10/09 A2999 RMK SF5SC3 SLP168

CYQR;2010-06-11 16:38;CYQR 111638Z 08008KT 12SM -DZ OVC012 10/ RMK SC8

CYQR;2010-06-11 17:00;CYQR 111700Z 08008KT 10SM -DZ BKN014 OVC030 11/08 A3000 RMK SC6SC2 SLP172

CYQR;2010-06-11 17:05;CYQR 111705Z 07008KT 9SM -RA BKN014 OVC036 11/ RMK SF6SC2

CYQR;2010-06-11 17:32;CYQR 111732Z 07006KT 12SM BKN010 OVC027 11/ RMK SC6SC2 INTMT -RA

CYQR;2010-06-11 18:00;CYQR 111800Z 08007KT 10SM -RA BKN014 OVC034 11/09 A3003 RMK SC6SC2 -RA INTMT SLP182

CYQR;2010-06-11 19:00;CYQR 111900Z 08007KT 12SM -RA BKN014 OVC034 11/09 A3004 RMK SC5SC3 SLP186

CYQR;2010-06-11 20:00;CYQR 112000Z 07008KT 12SM -RA SCT014 BKN022 OVC034 12/09 A3006 RMK SF3SC3SC2 SLP191

CYQR;2010-06-11 21:00;CYQR 112100Z 08006KT 14SM -RA BKN011 OVC027 12/09 A3007 RMK SF6SC2 SLP197

CYQR;2010-06-11 21:53;CYQR 112153Z 07007KT 14SM -RA FEW016 BKN023 OVC043 11/ RMK SF1SC6SC2

CYQR;2010-06-11 22:00;CYQR 112200Z 07008KT 12SM -RA FEW016 BKN023 OVC043 11/09 A3009 RMK SF1SC6SC2 SLP202

CYQR;2010-06-11 22:18;CYQR 112218Z 06007KT 12SM -RA BKN011 OVC027 11/ RMK SC6SC2

CYQR;2010-06-11 22:48;CYQR 112248Z 04004KT 5SM -RA BR FEW007 BKN011 OVC045 11/ RMK SF2SC4SC2

CYQR;2010-06-11 23:00;CYQR 112300Z 02007KT 6SM -RA BR BKN009 BKN045 OVC090 11/09 A3011 RMK SF5SC2AC2 SLP210

CYQR;2010-06-11 23:22;CYQR 112322Z 36007KT 10SM -RA SCT008 BKN047 OVC095 RMK SF3SC2AC2

CYQR;2010-06-11 23:45;CYQR 112345Z 01008KT 9SM -RA BKN009 BKN020 OVC095 11/ RMK SF5SC2AC2

CYQR;2010-06-12 00:00;CYQR 120000Z 02006KT 10SM -RA BKN010 BKN018 OVC090 11/09 A3013 RMK SF5SC1AC2 SLP218

CYQR;2010-06-12 00:19;CYQR 120019Z 02006KT 10SM -RA BKN009 OVC045 11/ RMK SC5SC3

CYQR;2010-06-12 00:27;CYQR 120027Z 01006KT 10SM -RA SCT010 BKN045 OVC090 11/ RMK SF2SC5AC2

CYQR;2010-06-12 01:00;CYQR 120100Z 01007KT 12SM -RA SCT012 OVC033 11/09 A3015 RMK CU3SC5 SLP223

CYQR;2010-06-12 02:00;CYQR 120200Z 36007KT 14SM -RA SCT015 BKN038 OVC086 11/08 A3017 RMK SC3SC2AC2 SLP230

CYQR;2010-06-12 03:00;CYQR 120300Z 36008KT 15SM -RA FEW012 BKN018 BKN086 10/09 A3017 RMK CU2SC3AC2 SLP233

CYQR;2010-06-12 03:30;CYQR 120330Z 36007KT 15SM FEW010 BKN016 OVC080 10/ RMK CU2SC5AC2

CYQR;2010-06-12 04:00;CYQR 120400Z 36005KT 15SM FEW010 BKN016 BKN080 10/08 A3020 RMK CF2SC3AC2 SLP240

CYQR;2010-06-12 05:00;CYQR 120500Z 35006KT 15SM FEW008 OVC029 10/08 A3020 RMK SF1SC7 SLP243

CYQR;2010-06-12 06:00;CYQR 120600Z 35005KT 15SM FEW008 BKN015 OVC046 10/08 A3021 RMK SF2SC3SC3 SLP247

CYQR;2010-06-12 06:33;CYQR 120633Z 33004KT 15SM FEW008 BKN012 OVC041 10/ RMK SF2SC4SC2

CYQR;2010-06-12 07:00;CYQR 120700Z 33004KT 15SM FEW008 BKN014 OVC039 10/08 A3023 RMK SF2SC4SC2 SLP251

CYQR;2010-06-12 07:36;CYQR 120736Z 32005KT 15SM BKN007 OVC024 10/ RMK SF5SC3

CYQR;2010-06-12 08:00;CYQR 120800Z 32006KT 15SM SCT009 OVC031 10/09 A3023 RMK SF3SC5 SLP253

CYQR;2010-06-12 09:00;CYQR 120900Z 32007KT 15SM FEW004 SCT024 OVC034 10/08 A3023 RMK SF2SC2SC4 SLP251

CYQR;2010-06-12 09:38;CYQR 120938Z 32012KT 15SM BKN004 OVC024 09/ RMK ST5SC3

CYQR;2010-06-12 10:00;CYQR 121000Z 32009KT 15SM SCT004 BKN013 BKN029 09/08 A3023 RMK ST4SC2SC2 SLP252

CYQR;2010-06-12 10:17;CYQR 121017Z 33006KT 15SM BKN004 OVC029 10/ RMK ST6SC2

CYQR;2010-06-12 11:00;CYQR 121100Z 33007KT 15SM BKN005 OVC029 10/08 A3027 RMK ST5SC3 SLP264

CYQR;2010-06-12 11:24;CYQR 121124Z 34003KT 15SM SCT009 BKN031 10/ RMK ST3SC4

CYQR;2010-06-12 12:00;CYQR 121200Z 33006KT 15SM FEW009 BKN031 10/08 A3026 RMK SF2SC6 CU ASOCTD SLP263

CYQR;2010-06-12 13:00;CYQR 121300Z 32009KT 15SM BKN006 OVC035 11/09 A3027 RMK SF5SC2 SLP265

CYQR;2010-06-12 14:00;CYQR 121400Z 34008KT 15SM BKN009 BKN029 11/09 A3029 RMK SC6SC2 CU ASOCTD SLP271

CYQR;2010-06-12 14:24;CYQR 121424Z 36005KT 15SM FEW007 BKN016 BKN031 12/ RMK SF1SC4SC2

CYQR;2010-06-12 15:00;CYQR 121500Z 35005KT 15SM FEW009 BKN018 OVC039 12/09 A3029 RMK SF1SC6SC2 SLP271

CYQR;2010-06-12 16:00;CYQR 121600Z 34008KT 10SM -RA BKN017 OVC040 12/09 A3029 RMK SC7SC1 SLP271

CYQR;2010-06-12 16:39;CYQR 121639Z 36007KT 15SM BKN017 OVC032 13/ RMK SC6SC1

CYQR;2010-06-12 17:00;CYQR 121700Z 35008KT 15SM BKN019 OVC035 13/09 A3029 RMK SC6SC2 SLP272

CYQR;2010-06-12 18:00;CYQR 121800Z 36009KT 15SM BKN024 OVC036 14/08 A3029 RMK CU6SC2 SH DIST E SLP272

CYQR;2010-06-12 19:00;CYQR 121900Z 01006KT 15SM BKN027 BKN040 14/08 A3029 RMK CU6SC2 SH DIST SW SLP271

CYQR;2010-06-12 20:00;CYQR 122000Z 35007KT 15SM BKN032 OVC054 14/08 A3028 RMK CU6SC2 SLP268

CYQR;2010-06-12 21:00;CYQR 122100Z 36005KT 15SM BKN045 BKN065 15/08 A3027 RMK CU5SC2 SLP264

CYQR;2010-06-12 22:00;CYQR 122200Z 35009KT 15SM SCT032 BKN052 15/09 A3026 RMK CU4SC2 SLP261

CYQR;2010-06-12 23:00;CYQR 122300Z 36005KT 15SM FEW032 BKN050 16/08 A3025 RMK CU2SC6 SLP258

CYQR;2010-06-13 00:00;CYQR 130000Z 36006KT 15SM FEW035 BKN051 16/09 A3024 RMK CU2SC3 SLP253

CYQR;2010-06-13 01:00;CYQR 130100Z 34003KT 15SM FEW040 BKN061 BKN080 16/09 A3024 RMK CU2SC2AC1 SLP252

CYQR;2010-06-13 02:00;CYQR 130200Z 00000KT 15SM SCT041 SCT063 17/09 A3024 RMK CU3SC1 SLP252

CYQR;2010-06-13 03:00;CYQR 130300Z 31003KT 15SM SCT041 BKN069 14/09 A3025 RMK CU3AC2 SLP254

CYQR;2010-06-13 04:00;CYQR 130400Z 00000KT 15SM FEW046 BKN065 14/09 A3025 RMK CU2SC2 SLP256

CYQR;2010-06-13 05:00;CYQR 130500Z 19004KT 15SM SCT065 12/08 A3025 RMK SC2 SLP255

CYQR;2010-06-13 06:00;CYQR 130600Z 21002KT 15SM FEW067 10/08 A3025 RMK AC1 SLP256

CYQR;2010-06-13 07:00;CYQR 130700Z 25002KT 15SM SKC 09/06 A3024 RMK SLP254

CYQR;2010-06-13 08:00;CYQR 130800Z 25005KT 15SM SKC 08/06 A3023 RMK SLP250

CYQR;2010-06-13 09:00;CYQR 130900Z 23003KT 15SM SKC 07/05 A3022 RMK SLP248

CYQR;2010-06-13 10:00;CYQR 131000Z 00000KT 15SM FEW250 05/04 A3023 RMK CI1 SLP250

CYQR;2010-06-13 11:00;CYQR 131100Z 00000KT 15SM MIFG FEW080 FEW250 06/05 A3022 RMK AC1CI1 TR AC SLP249

CYQR;2010-06-13 12:00;CYQR 131200Z 20003KT 15SM FEW020 FEW080 07/06 A3023 RMK SC1AC1 SLP251

CYQR;2010-06-13 13:00;CYQR 131300Z 18002KT 15SM FEW020 10/08 A3023 RMK SC1 SLP251

CYQR;2010-06-13 14:00;CYQR 131400Z 16002KT 15SM FEW020 13/09 A3023 RMK SC1 SLP250

CYQR;2010-06-13 15:00;CYQR 131500Z 16004KT 15SM FEW024 15/10 A3023 RMK CU1 SLP246

CYQR;2010-06-13 16:00;CYQR 131600Z 14006KT 15SM FEW032 17/09 A3022 RMK CU1 SLP244

CYQR;2010-06-13 17:00;CYQR 131700Z 12005KT 15SM SCT047 18/08 A3021 RMK CU4 SLP242

CYQR;2010-06-13 18:00;CYQR 131800Z 22006KT 15SM SCT053 19/09 A3020 RMK CU4 SLP237

CYQR;2010-06-13 19:00;CYQR 131900Z 15009KT 15SM BKN055 20/09 A3020 RMK SC5 SLP235

CYQR;2010-06-13 20:00;CYQR 132000Z 16005KT 15SM BKN059 20/08 A3018 RMK CU5 SLP231

CYQR;2010-06-13 21:00;CYQR 132100Z 17005KT 15SM BKN059 21/08 A3017 RMK CU6 SLP227

CYQR;2010-06-13 22:00;CYQR 132200Z 17005KT 15SM SCT059 20/07 A3016 RMK CU4 SLP223

CYQR;2010-06-13 23:00;CYQR 132300Z 00000KT 15SM FEW065 21/08 A3015 RMK CU2 SLP219

CYQR;2010-06-14 00:00;CYQR 140000Z 21007KT 15SM FEW065 21/07 A3013 RMK CU1 SLP213

CYQR;2010-06-14 01:00;CYQR 140100Z 14005KT 15SM FEW070 20/07 A3012 RMK CU1 SLP209

CYQR;2010-06-14 02:00;CYQR 140200Z 17006KT 15SM FEW050 20/07 A3011 RMK SC1 SLP208

CYQR;2010-06-14 03:00;CYQR 140300Z 17007KT 15SM FEW240 17/07 A3011 RMK CI1 SLP204

CYQR;2010-06-14 04:00;CYQR 140400Z 18007KT 15SM FEW240 14/07 A3011 RMK CI1 OBS TAKEN -05 SLP205

CYQR;2010-06-14 05:00;CYQR 140500Z 17008KT 15SM SKC 13/07 A3011 RMK SLP204

CYQR;2010-06-14 06:00;CYQR 140600Z 16009KT 15SM SKC 12/07 A3010 RMK SLP202

CYQR;2010-06-14 07:00;CYQR 140700Z 17009KT 15SM SKC 11/07 A3010 RMK SLP200

CYQR;2010-06-14 08:00;CYQR 140800Z 16009KT 15SM SKC 11/07 A3009 RMK SLP199

CYQR;2010-06-14 09:00;CYQR 140900Z 15007KT 15SM SKC 10/07 A3008 RMK SLP195

CYQR;2010-06-14 10:00;CYQR 141000Z 14007KT 15SM FEW140 09/06 A3008 RMK AC1 SLP195

CYQR;2010-06-14 11:00;CYQR 141100Z 14009KT 15SM FEW200 08/06 A3009 RMK CI1 SLP197

CYQR;2010-06-14 12:00;CYQR 141200Z 15009KT 15SM FEW200 10/07 A3009 RMK CI0 SLP198

CYQR;2010-06-14 13:00;CYQR 141300Z 17008KT 15SM FEW300 12/08 A3009 RMK CI0 SLP198

CYQR;2010-06-14 14:00;CYQR 141400Z 19011G16KT 15SM FEW370 17/10 A3008 RMK CI1 SLP194

CYQR;2010-06-14 15:00;CYQR 141500Z 19017KT 15SM FEW370 20/10 A3007 RMK CI1 SLP187

CYQR;2010-06-14 16:00;CYQR 141600Z 18018G26KT 15SM FEW050 FEW350 21/08 A3005 RMK CU1CI0 SLP183

CYQR;2010-06-14 17:00;CYQR 141700Z 20020G28KT 15SM FEW052 FEW350 22/08 A3004 RMK CU1CI0 SLP179

CYQR;2010-06-14 18:00;CYQR 141800Z 21018G28KT 15SM FEW055 FEW350 22/08 A3003 RMK CU1CI0 SLP174

CYQR;2010-06-14 19:00;CYQR 141900Z 18018G24KT 15SM FEW055 FEW350 23/08 A3001 RMK CU1CI0 SLP169

CYQR;2010-06-14 20:00;CYQR 142000Z 19015G24KT 15SM FEW075 SCT350 23/09 A3000 RMK CU1CI0 SLP164

CYQR;2010-06-14 21:00;CYQR 142100Z 21015G25KT 15SM FEW075 SCT350 24/09 A2998 RMK CU1CI0 SLP158

CYQR;2010-06-14 22:00;CYQR 142200Z 18014G25KT 15SM FEW087 SCT350 24/08 A2996 RMK CF1CI0 SLP153

CYQR;2010-06-14 23:00;CYQR 142300Z 18013G18KT 15SM FEW089 SCT350 24/08 A2995 RMK CF1CI0 SLP149

CYQR;2010-06-15 00:00;CYQR 150000Z 18015G20KT 15SM FEW090 SCT350 23/08 A2994 RMK CF1CI0 SLP145

CYQR;2010-06-15 01:00;CYQR 150100Z 19014KT 15SM FEW090 SCT350 22/08 A2992 RMK CF1CI0 SLP139

CYQR;2010-06-15 02:00;CYQR 150200Z 18012KT 15SM BKN350 21/08 A2991 RMK CI1 SLP135

CYQR;2010-06-15 03:00;CYQR 150300Z 17010KT 15SM SCT350 18/07 A2991 RMK CI1 SLP130

CYQR;2010-06-15 04:00;CYQR 150400Z 16010KT 15SM FEW350 16/07 A2991 RMK CI0 SLP131

CYQR;2010-06-15 05:00;CYQR 150500Z 17009KT 15SM SKC 14/07 A2990 RMK SLP129

CYQR;2010-06-15 06:00;CYQR 150600Z 17009KT 15SM SKC 14/07 A2990 RMK SLP130

CYQR;2010-06-15 07:00;CYQR 150700Z 17007KT 15SM SKC 12/07 A2990 RMK SLP129

CYQR;2010-06-15 08:00;CYQR 150800Z 17007KT 15SM SKC 10/06 A2990 RMK SLP128

CYQR;2010-06-15 09:00;CYQR 150900Z 15009KT 15SM SKC 11/06 A2989 RMK SLP128

CYQR;2010-06-15 10:00;CYQR 151000Z 17006KT 15SM FEW300 09/06 A2989 RMK CI1 SLP126

CYQR;2010-06-15 11:00;CYQR 151100Z 17009KT 15SM FEW100 FEW300 10/06 A2988 RMK AC1CI1 SLP123

CYQR;2010-06-15 12:00;CYQR 151200Z 16008KT 15SM FEW100 FEW300 10/06 A2989 RMK AC1CI0 SLP126

CYQR;2010-06-15 13:00;CYQR 151300Z 18008KT 15SM FEW100 SCT300 14/08 A2988 RMK AC1CI0 SLP125

CYQR;2010-06-15 14:00;CYQR 151400Z 20011KT 15SM FEW100 BKN300 17/10 A2988 RMK AC1CI2 SLP123

CYQR;2010-06-15 15:00;CYQR 151500Z 21013KT 15SM FEW100 SCT300 20/10 A2987 RMK AC1CI2 SLP118

CYQR;2010-06-15 16:00;CYQR 151600Z 23015KT 15SM FEW120 FEW300 22/08 A2986 RMK AC1CI0 SLP114

CYQR;2010-06-15 17:00;CYQR 151700Z 21017KT 15SM FEW120 FEW300 23/09 A2986 RMK AC1CI0 SLP114

CYQR;2010-06-15 18:00;CYQR 151800Z 23016KT 15SM FEW070 FEW120 SCT300 24/09 A2986 RMK CU1AC1CI1 SLP114

CYQR;2010-06-15 19:00;CYQR 151900Z 23011G18KT 15SM FEW070 SCT300 24/09 A2985 RMK CU2CI1 SLP111

CYQR;2010-06-15 20:00;CYQR 152000Z 21009G16KT 15SM FEW070 FEW160 BKN300 24/08 A2984 RMK CU2AC1CI0 SLP109

CYQR;2010-06-15 21:00;CYQR 152100Z 19011G17KT 15SM FEW078 FEW160 BKN300 25/07 A2984 RMK CU2AC1CI0 SLP108

CYQR;2010-06-15 22:00;CYQR 152200Z 19013G18KT 15SM FEW082 BKN300 25/07 A2984 RMK CU2CI1 SLP109

CYQR;2010-06-15 23:00;CYQR 152300Z 23012KT 15SM SCT084 SCT150 BKN300 24/06 A2983 RMK AC3AC1CI1 SLP107

CYQR;2010-06-16 00:00;CYQR 160000Z 35012KT 15SM BKN085 BKN300 20/13 A2984 RMK AC6CI1 SLP113

CYQR;2010-06-16 01:00;CYQR 160100Z 35012KT 15SM BKN097 BKN300 20/13 A2985 RMK AC6CI1 SLP114

CYQR;2010-06-16 02:00;CYQR 160200Z 02009G16KT 15SM SCT079 BKN150 BKN300 18/13 A2985 RMK AC3AC2CI0 SLP115

CYQR;2010-06-16 03:00;CYQR 160300Z 04008KT 15SM BKN098 BKN300 18/13 A2986 RMK AC6CI1 SLP113

CYQR;2010-06-16 04:00;CYQR 160400Z 05008KT 15SM BKN098 18/13 A2988 RMK AC7 SLP121

CYQR;2010-06-16 05:00;CYQR 160500Z 05003KT 15SM SCT098 15/12 A2988 RMK AC4 SLP121

CYQR;2010-06-16 06:00;CYQR 160600Z 11003KT 15SM BKN076 15/12 A2989 RMK AC7 SLP123

CYQR;2010-06-16 07:00;CYQR 160700Z 16002KT 15SM OVC087 14/11 A2989 RMK AC8 SLP122

CYQR;2010-06-16 08:00;CYQR 160800Z 28003KT 15SM BKN089 13/11 A2988 RMK AC6 SLP120

CYQR;2010-06-16 09:00;CYQR 160900Z 17002KT 15SM FEW090 13/10 A2989 RMK AC2 SLP124

CYQR;2010-06-16 10:00;CYQR 161000Z 13002KT 15SM BKN100 BKN300 12/09 A2987 RMK AC6CI0 SLP120

CYQR;2010-06-16 11:00;CYQR 161100Z 17002KT 15SM BKN096 12/09 A2989 RMK AC7 SLP124

CYQR;2010-06-16 12:00;CYQR 161200Z 13003KT 15SM BKN097 13/10 A2989 RMK AC7 SLP127

CYQR;2010-06-16 13:00;CYQR 161300Z CCA 14006KT 15SM -RA SCT049 OVC097 14/10 A2989 RMK SC4AC4 SLP129

CYQR;2010-06-16 13:34;CYQR 161334Z 12006KT 15SM SCT044 BKN082 OVC300 15/ RMK SC3AC2CI1

CYQR;2010-06-16 14:00;CYQR 161400Z 11006KT 15SM FEW044 BKN079 OVC300 15/11 A2989 RMK SC2AC4CI1 SLP128

CYQR;2010-06-16 15:00;CYQR 161500Z 12006KT 15SM FEW050 BKN120 BKN300 18/12 A2989 RMK SC2AC3CI1 SLP125

CYQR;2010-06-16 16:00;CYQR 161600Z 11007KT 15SM SCT120 OVC300 21/13 A2987 RMK AC4CI2 SLP121

CYQR;2010-06-16 17:00;CYQR 161700Z 15007KT 12SM FEW050 BKN140 OVC300 21/12 A2987 RMK CF1AC6CI1 SLP120

CYQR;2010-06-16 18:00;CYQR 161800Z 13013KT 12SM FEW050 OVC140 22/12 A2986 RMK CF1AC7 SLP113

CYQR;2010-06-16 18:13;CYQR 161813Z 14009KT 12SM -SHRA FEW050 SCT076 OVC120 22/ RMK CF1ACC2AC5

CYQR;2010-06-16 19:00;CYQR 161900Z 15014KT 12SM -SHRA BKN076 OVC120 22/10 A2985 RMK ACC5AC3 SLP111

CYQR;2010-06-16 20:00;CYQR 162000Z 11005KT 10SM -SHRA SCT019 OVC065 18/14 A2985 RMK SC2SC6 CVCTV CLD EMBD SLP111

CYQR;2010-06-16 21:00;CYQR 162100Z 12008KT 8SM -SHRA BKN016 OVC060 17/13 A2984 RMK SC5SC3 CVCTV CLD EMBD SLP113

CYQR;2010-06-16 22:00;CYQR 162200Z 10007KT 15SM OVC093 18/14 A2983 RMK AC8 SLP109

CYQR;2010-06-16 23:00;CYQR 162300Z 10010KT 15SM SCT097 BKN150 BKN300 20/15 A2982 RMK AC3AC2CI0 SLP105

CYQR;2010-06-17 00:00;CYQR 170000Z 10013G20KT 15SM SCT061 BKN150 BKN300 20/13 A2980 RMK SC3AC2CI0 SLP098

CYQR;2010-06-17 01:00;CYQR 170100Z 08014G21KT 15SM FEW080 SCT150 BKN300 20/14 A2977 RMK AC2AC2CI0 SLP088

CYQR;2010-06-17 02:00;CYQR 170200Z 08016KT 15SM FEW061 BKN150 BKN300 19/12 A2975 RMK SC2AC1CI1 SLP082

CYQR;2010-06-17 03:00;CYQR 170300Z 09017KT 15SM BKN059 BKN150 19/12 A2974 RMK SC5AC2 ACC ASOCTD SLP074

CYQR;2010-06-17 04:00;CYQR 170400Z 09018KT 15SM BKN059 BKN092 18/11 A2973 RMK SC5AC2 ACC ASOCTD SLP072

CYQR;2010-06-17 05:00;CYQR 170500Z 08019G26KT 15SM BKN054 OVC071 17/11 A2970 RMK SC6AC2 ACC ASOCTD SLP061

CYQR;2010-06-17 06:00;CYQR 170600Z 08020G28KT 15SM BKN050CB OVC077 17/12 A2966 RMK CB6AC2 LTG DIST S AND W SLP046

CYQR;2010-06-17 06:15;CYQR 170615Z 09022G30KT 15SM TS BKN045CB OVC077 17/ RMK CB6AC2

CYQR;2010-06-17 06:18;CYQR 170618Z 10023G30KT 10SM -TSRA BKN045CB OVC077 17/ RMK CB7AC1

CYQR;2010-06-17 06:48;CYQR 170648Z 10024G37KT 4SM TSRA OVC053CB 16/ RMK CB8

CYQR;2010-06-17 07:00;CYQR 170700Z 11022G28KT 5SM TSRA OVC053CB 15/13 A2968 RMK CB8 SLP050

CYQR;2010-06-17 08:00;CYQR 170800Z 09016KT 6SM TSRA OVC053CB 15/13 A2961 RMK CB8 PRESFR SLP030

CYQR;2010-06-17 08:08;CYQR 170808Z 10015G21KT 6SM RA FEW018 OVC050CB 15/ RETS RMK SF2CB6

CYQR;2010-06-17 08:53;CYQR 170853Z 09018G25KT 6SM -RA OVC020 16/ RETSRA RMK SC8

CYQR;2010-06-17 09:00;CYQR 170900Z 09016G24KT 6SM -RA OVC020 16/14 A2959 RETSRA RMK SC8 SLP025

CYQR;2010-06-17 10:00;CYQR 171000Z 09015G20KT 10SM -RA FEW020 BKN068 OVC081 16/14 A2956 RMK SF2SC5AC2 SLP017

CYQR;2010-06-17 10:26;CYQR 171026Z 09012G17KT 10SM FEW020 BKN068 OVC081 16/ RMK SF2SC5AC2

CYQR;2010-06-17 11:00;CYQR 171100Z 09012G18KT 10SM BKN009 OVC068 16/14 A2956 RMK SF6AC2 SLP015

CYQR;2010-06-17 12:00;CYQR 171200Z CCA 10015KT 15SM BKN010 BKN024 OVC067 16/14 A2955 RMK SC5SC2AC2 /R02/ SLP009

CYQR;2010-06-17 13:00;CYQR 171300Z 10013G20KT 15SM FEW010 BKN017 OVC034 17/14 A2955 RMK SF1SC6SC2 SLP009

CYQR;2010-06-17 13:33;CYQR 171333Z 11011G19KT 15SM BKN013 OVC028 17/ RMK SC6SC2

CYQR;2010-06-17 14:00;CYQR 171400Z 12017KT 15SM BKN011 OVC028 17/15 A2953 RMK SC6SC2 SLP003

CYQR;2010-06-17 15:00;CYQR 171500Z 14012KT 15SM BKN010 OVC045 17/15 A2951 RMK SC6SC2 SLP994

CYQR;2010-06-17 15:22;CYQR 171522Z 13011KT 12SM -SHRA BKN010 BKN040 OVC080 17/ RMK SC5SC2AC1 CVCTV CLD EMBD

CYQR;2010-06-17 15:37;CYQR 171537Z 12011KT 15SM SCT015 BKN040 18/ RMK SC4SC3

CYQR;2010-06-17 16:00;CYQR 171600Z 12012KT 15SM FEW012 BKN025 BKN270 18/15 A2947 RMK SF0SC6CI0 SLP984

CYQR;2010-06-17 17:00;CYQR 171700Z 14013KT 15SM SCT015 BKN032 BKN300 20/16 A2946 RMK SC3SC2CI0 SLP980

CYQR;2010-06-17 18:00;CYQR 171800Z 12012G17KT 15SM SCT021 BKN029 BKN095 BKN300 21/16 A2946 RMK SC3SC2AC2CI0 SLP979

CYQR;2010-06-17 19:00;CYQR 171900Z 14012KT 15SM SCT030 BKN096 BKN300 21/15 A2946 RMK SC4AC2CI1 SLP976

CYQR;2010-06-17 20:00;CYQR 172000Z 14010KT 15SM FEW028 BKN091 BKN160 OVC300 22/16 A2944 RMK CU2AC3AC2CI1 SLP970

CYQR;2010-06-17 21:00;CYQR 172100Z 13010KT 15SM SCT028 BKN092 22/17 A2943 RMK CU4AC3 SLP966

CYQR;2010-06-17 22:00;CYQR 172200Z 10010KT 15SM SCT027 BKN047 22/16 A2941 RMK CU3SC4 SLP959

CYQR;2010-06-17 23:00;CYQR 172300Z 12009KT 15SM VCSH SCT020TCU BKN080 21/16 A2939 RMK TCU4AC3 SLP953

CYQR;2010-06-18 00:00;CYQR 180000Z 15007KT 15SM SCT020TCU OVC065 19/16 A2940 RMK TCU4SC4 SLP957

CYQR;2010-06-18 00:25;CYQR 180025Z 13011KT 8SM -SHRA BKN019TCU OVC065 19/ RMK TCU5SC3

CYQR;2010-06-18 01:00;CYQR 180100Z 14009KT 12SM VCSH FEW012TCU OVC054 18/15 A2940 RMK TCU2SC6 OCNL -SHRA SLP958

CYQR;2010-06-18 02:00;CYQR 180200Z 12003KT 12SM VCSH FEW043TCU BKN068 OVC084 17/16 A2940 RMK TCU2AC3AC2 OCNL -SHRA SLP959

CYQR;2010-06-18 03:00;CYQR 180300Z 13002KT 15SM FEW015 BKN061TCU OVC090 17/15 A2940 RMK SF2TCU4AC2 SLP960

CYQR;2010-06-18 04:00;CYQR 180400Z CCA 07002KT 15SM -SHRA FEW015 BKN061TCU OVC090 17/15 A2941 RMK SF2TCU4AC2 SLP962

CYQR;2010-06-18 05:00;CYQR 180500Z 34003KT 15SM -SHRA FEW040TCU BKN051 OVC080 17/16 A2939 RMK TCU2SC4AC2 SLP957

CYQR;2010-06-18 05:26;CYQR 180526Z 33002KT 10SM FEW004 OVC012 17/ RMK SF2SC6

CYQR;2010-06-18 06:00;CYQR 180600Z 36004KT 10SM BKN005 OVC033 17/16 A2938 RMK SC5SC3 SLP951

CYQR;2010-06-18 06:10;CYQR 180610Z 04005KT 8SM -SHRA SCT004 OVC009 17/ RMK SF3SC5

CYQR;2010-06-18 07:00;CYQR 180700Z 05003KT 8SM -SHRA OVC011 16/15 A2937 RMK SC8 SLP947

CYQR;2010-06-18 08:00;CYQR 180800Z 02007KT 6SM -SHRA OVC006 16/15 A2937 RMK SC8 SLP946

CYQR;2010-06-18 09:00;CYQR 180900Z 02007KT 6SM -SHRA OVC010 16/14 A2937 RMK SC8 SLP947

CYQR;2010-06-18 10:00;CYQR 181000Z 03013KT 6SM -SHRA OVC009 15/13 A2939 RMK SC8 SLP951

CYQR;2010-06-18 11:00;CYQR 181100Z 03014G19KT 6SM -SHRA BKN007 OVC018 15/13 A2941 RMK SC5SC3 SLP959

CYQR;2010-06-18 11:04;CYQR 181104Z 03013G18KT 2SM -SHRA OVC007 15/ RMK SC8

CYQR;2010-06-18 11:27;CYQR 181127Z 03014KT 3SM BR OVC008 RMK SC8

CYQR;2010-06-18 12:00;CYQR 181200Z 02014G20KT 3SM BR OVC008 15/14 A2944 RMK SC8 SLP972

CYQR;2010-06-18 12:28;CYQR 181228Z 01014G21KT 3SM -SHRA BR OVC008 15/ RMK SC8

CYQR;2010-06-18 13:00;CYQR 181300Z 01013G20KT 5SM -SHRA BR BKN006 OVC012 15/14 A2947 RMK SC6SC2 SLP982

CYQR;2010-06-18 13:23;CYQR 181323Z 01015KT 8SM -SHRA BKN006 BKN025 OVC070 15/ RMK SF2SC3AC2 CVCTV CLD EMBD

CYQR;2010-06-18 13:42;CYQR 181342Z 01016KT 12SM -SHRA SCT006 BKN045 OVC080 15/ RMK SF2SC3AC3 CVCTV CLD EMBD

CYQR;2010-06-18 14:00;CYQR 181400Z 36017KT 15SM BKN008 OVC080 15/14 A2950 RMK SF6AC2 OCNL -SHRA SLP993

CYQR;2010-06-18 14:20;CYQR 181420Z 36015G20KT 15SM VCSH SCT008 OVC080 15/ RMK SF2AC6 ACC EMBD

CYQR;2010-06-18 15:00;CYQR 181500Z 36015G22KT 15SM FEW008 BKN060 BKN080 15/12 A2953 RMK SF1SC4AC2 SLP005

CYQR;2010-06-18 16:00;CYQR 181600Z 35019KT 15SM BKN044 OVC083 16/12 A2956 RMK SC6AC2 SLP016

CYQR;2010-06-18 17:00;CYQR 181700Z 36016G22KT 15SM BKN050 BKN091 16/11 A2960 RMK SC5AC2 SLP026

CYQR;2010-06-18 18:00;CYQR 181800Z 35019KT 15SM FEW020 SCT085 OVC100 16/11 A2963 RMK CU1AC3AC4 SLP038

CYQR;2010-06-18 19:00;CYQR 181900Z 35017KT 15SM BKN085 OVC110 17/11 A2967 RMK AC5AC3 SLP051

CYQR;2010-06-18 20:00;CYQR 182000Z 35013G19KT 15SM BKN085 OVC110 17/11 A2971 RMK AC3AC5 SLP062

CYQR;2010-06-18 21:00;CYQR 182100Z 34015G20KT 15SM FEW025 BKN110 19/12 A2973 RMK CU1AC6 SLP072

CYQR;2010-06-18 22:00;CYQR 182200Z 36013G22KT 15SM FEW045 BKN110 20/11 A2976 RMK CU2AC5 SLP080

CYQR;2010-06-18 23:00;CYQR 182300Z 36013KT 15SM FEW050 BKN110 20/12 A2978 RMK CU1AC6 SLP087

CYQR;2010-06-19 00:00;CYQR 190000Z 36015G20KT 15SM FEW052 BKN110 BKN280 21/11 A2980 RMK CU1AC4CI0 SLP093

CYQR;2010-06-19 01:00;CYQR 190100Z 35015KT 15SM FEW048 SCT110 BKN220 20/11 A2982 RMK CU1AC2CI0 SLP101

CYQR;2010-06-19 02:00;CYQR 190200Z 35007KT 15SM FEW048 SCT110 BKN220 17/11 A2986 RMK CU1AC3CI2 CC ASOCTD SLP114

CYQR;2010-06-19 03:00;CYQR 190300Z 35005KT 15SM FEW048 SCT100 BKN220 15/12 A2988 RMK CU1AC3CI2 SLP126

CYQR;2010-06-19 04:00;CYQR 190400Z 01004KT 15SM SCT100 BKN220 15/11 A2990 RMK AC4CI1 SLP132

CYQR;2010-06-19 05:00;CYQR 190500Z 30005KT 15SM SCT100 OVC220 13/11 A2992 RMK AC4CI4 SLP139

CYQR;2010-06-19 06:00;CYQR 190600Z 27005KT 15SM BKN110 OVC220 13/11 A2993 RMK AC6CI2 SLP143

CYQR;2010-06-19 07:00;CYQR 190700Z 26002KT 15SM BKN110 OVC220 13/11 A2994 RMK AC6CI2 SLP148

CYQR;2010-06-19 08:00;CYQR 190800Z 25005KT 15SM OVC110 13/11 A2995 RMK AC8 SLP151

CYQR;2010-06-19 09:00;CYQR 190900Z 25007KT 15SM OVC110 13/12 A2997 RMK AC8 SLP156

CYQR;2010-06-19 10:00;CYQR 191000Z 28006KT 15SM OVC110 12/11 A2997 RMK AC8 SLP156

CYQR;2010-06-19 11:00;CYQR 191100Z 26008KT 10SM OVC110 12/11 A2998 RMK AC8 SLP160

CYQR;2010-06-19 12:00;CYQR 191200Z 27008KT 10SM OVC110 12/11 A2998 RMK AC8 SLP159

CYQR;2010-06-19 13:00;CYQR 191300Z 27009KT 10SM SCT110 14/11 A2998 RMK AC2 SLP159

CYQR;2010-06-19 14:00;CYQR 191400Z 28009KT 15SM FEW110 15/11 A2999 RMK AC2 SLP161

CYQR;2010-06-19 15:00;CYQR 191500Z 30007KT 15SM FEW022 FEW110 17/11 A3000 RMK CU1AC1 SLP166

CYQR;2010-06-19 16:00;CYQR 191600Z 31006KT 12SM FEW100 FEW220 19/12 A3000 RMK ACC1CI1 SLP166

CYQR;2010-06-19 17:00;CYQR 191700Z 27006KT 12SM FEW070 FEW240 20/12 A3000 RMK AC1CI0 SLP168

CYQR;2010-06-19 18:00;CYQR 191800Z 27004G15KT 15SM FEW035 FEW070 FEW240 21/12 A3000 RMK CU1AC1CI1 SLP166

CYQR;2010-06-19 19:00;CYQR 191900Z 28008KT 15SM FEW044 SCT240 21/11 A3000 RMK CU2CI1 SLP164

CYQR;2010-06-19 20:00;CYQR 192000Z 30010KT 15SM BKN052 21/12 A3000 RMK CU6 SLP164

CYQR;2010-06-19 21:00;CYQR 192100Z 30013KT 15SM BKN056 21/11 A2999 RMK CU7 SLP161

CYQR;2010-06-19 22:00;CYQR 192200Z 29013KT 15SM SCT055 SCT110 BKN240 22/12 A2998 RMK CU3AC1CI0 SLP159

CYQR;2010-06-19 23:00;CYQR 192300Z 31007KT 15SM SCT055 SCT078 21/10 A2998 RMK CU3AC1 SLP159

CYQR;2010-06-20 00:00;CYQR 200000Z 33007KT 15SM FEW057 SCT240 21/10 A2998 RMK CU2CI1 SLP159

CYQR;2010-06-20 01:00;CYQR 200100Z 28004KT 15SM FEW066 FEW240 20/11 A2998 RMK CU1CI1 SLP158

CYQR;2010-06-20 02:00;CYQR 200200Z 29002KT 15SM FEW061 FEW240 21/12 A2997 RMK CU1CI1 SLP157

CYQR;2010-06-20 03:00;CYQR 200300Z 29002KT 15SM FEW061 FEW240 18/10 A2998 RMK CU1CI1 SLP159

CYQR;2010-06-20 04:00;CYQR 200400Z 00000KT 15SM FEW240 17/09 A3000 RMK CI1 SLP164

CYQR;2010-06-20 05:00;CYQR 200500Z 00000KT 15SM SKC 16/09 A3001 RMK SLP168

CYQR;2010-06-20 06:00;CYQR 200600Z 09003KT 10SM SKC 14/09 A3002 RMK FU SLP171

CYQR;2010-06-20 07:00;CYQR 200700Z 13003KT 10SM SKC 13/10 A3001 RMK FU SLP169

CYQR;2010-06-20 08:00;CYQR 200800Z 11006KT 10SM SKC 12/09 A3000 RMK FU SLP167

CYQR;2010-06-20 09:00;CYQR 200900Z 30012KT 10SM SKC 11/09 A3002 RMK FU SLP173

CYQR;2010-06-20 10:00;CYQR 201000Z 14002KT 15SM FEW080 10/08 A3000 RMK AC1 SLP167

CYQR;2010-06-20 11:00;CYQR 201100Z 12007KT 15SM FEW080 SCT220 10/08 A3000 RMK AC2CI1 SLP168

CYQR;2010-06-20 12:00;CYQR 201200Z 13005KT 15SM FEW100 SCT220 11/09 A3000 RMK AC2CI1 SLP168

CYQR;2010-06-20 13:00;CYQR 201300Z 00000KT 10SM FEW078 SCT240 14/11 A3001 RMK AC2CI1 SLP170

CYQR;2010-06-20 14:00;CYQR 201400Z 16003KT 15SM FEW078 FEW240 16/12 A3001 RMK AC2CI0 SLP170

CYQR;2010-06-20 15:00;CYQR 201500Z 16005KT 15SM FEW078 19/14 A3001 RMK AC2 ACC ASOCTD SLP167

CYQR;2010-06-20 16:00;CYQR 201600Z 11003KT 15SM FEW030 FEW075 FEW240 21/14 A3000 RMK CU1AC1CI1 CU+CI TR SLP165

CYQR;2010-06-20 17:00;CYQR 201700Z 10004KT 15SM FEW044 FEW074 22/13 A3000 RMK CU2AC1 SLP162

CYQR;2010-06-20 18:00;CYQR 201800Z 00000KT 15SM SCT050 23/12 A2999 RMK CU4 SLP161

CYQR;2010-06-20 19:00;CYQR 201900Z 30004KT 15SM BKN053 23/13 A2999 RMK CU6 TCU ASOCTD SLP159

CYQR;2010-06-20 20:00;CYQR 202000Z 23002KT 15SM BKN059 24/12 A2997 RMK CU6 TCU ASOCTD SLP155

CYQR;2010-06-20 21:00;CYQR 202100Z 05008G15KT 15SM SCT052TCU SCT270 24/14 A2996 RMK TCU3CI0 SLP150

CYQR;2010-06-20 22:00;CYQR 202200Z 34003KT 15SM SCT052TCU SCT270 23/13 A2996 RMK TCU3CI1 SLP149

CYQR;2010-06-20 23:00;CYQR 202300Z 08010KT 15SM SCT059TCU BKN270 22/13 A2995 RMK TCU4CI1 CB E SLP147

CYQR;2010-06-21 00:00;CYQR 210000Z 04010KT 15SM FEW062 SCT300 22/12 A2993 RMK CU2CI1 SLP140

CYQR;2010-06-21 01:00;CYQR 210100Z 06008KT 15SM FEW064TCU FEW120 BKN300 22/12 A2991 RMK TCU1AC1CI3 SLP134

CYQR;2010-06-21 02:00;CYQR 210200Z 05007KT 15SM FEW065 BKN300 21/12 A2991 RMK SC1CI2 SLP136

CYQR;2010-06-21 03:00;CYQR 210300Z 08006KT 15SM FEW065 BKN300 19/12 A2993 RMK SC1CI1 SLP138

CYQR;2010-06-21 04:00;CYQR 210400Z 12006KT 15SM BKN100 BKN300 18/13 A2996 RMK AC5CI0 SLP147

CYQR;2010-06-21 05:00;CYQR 210500Z 11006KT 15SM OVC092 18/13 A2995 RMK AC7 SLP146

CYQR;2010-06-21 06:00;CYQR 210600Z 11011KT 15SM SCT089 BKN350 17/12 A2993 RMK AC4CI0 LTNG DIST ESE SLP137

CYQR;2010-06-21 07:00;CYQR 210700Z 09006KT 15SM BKN089 BKN350 16/12 A2993 RMK AC6CI1 SLP138

CYQR;2010-06-21 08:00;CYQR 210800Z 11006KT 15SM SCT089 15/12 A2993 RMK AC3 LTNG DIST W SLP137

CYQR;2010-06-21 09:00;CYQR 210900Z 13003KT 15SM FEW090 SCT350 15/12 A2993 RMK AC2CI0 SLP138

CYQR;2010-06-21 10:00;CYQR 211000Z 05002KT 15SM SCT100 BKN350 15/12 A2993 RMK AC3CI1 SLP138

CYQR;2010-06-21 11:00;CYQR 211100Z 10005KT 15SM FEW100 BKN350 14/12 A2990 RMK AC1CI2 SLP129

CYQR;2010-06-21 12:00;CYQR 211200Z 11006KT 15SM FEW100 OVC350 14/12 A2989 RMK AC1CI5 SLP127

CYQR;2010-06-21 13:00;CYQR 211300Z 08004KT 15SM FEW120 OVC320 16/13 A2990 RMK AC1CI6 SLP130

CYQR;2010-06-21 14:00;CYQR 211400Z 08004KT 15SM FEW020 FEW084 SCT280 19/14 A2990 RMK CU1ACC1CI2 SLP130

CYQR;2010-06-21 15:00;CYQR 211500Z 07007KT 15SM FEW020 FEW120 SCT300 20/15 A2989 RMK CU1ACC1CI0 SLP125

CYQR;2010-06-21 16:00;CYQR 211600Z 10009KT 15SM FEW028 SCT068 BKN120 BKN320 22/15 A2990 RMK CU1AC2AC2CI1 ACC ASOCTD SLP127

CYQR;2010-06-21 17:00;CYQR 211700Z 11008G15KT 15SM FEW028 FEW070 BKN120 BKN320 22/15 A2990 RMK CU1AC2AC2CI0 SLP127

CYQR;2010-06-21 18:00;CYQR 211800Z 13010G16KT 15SM FEW032 SCT086 BKN120 BKN320 23/15 A2990 RMK CU1AC2AC1CI0 CU DVLPG RPDLY SLP127

CYQR;2010-06-21 19:00;CYQR 211900Z 13011G16KT 15SM FEW034 BKN040CB BKN120 BKN340 24/16 A2988 RMK CU2CB5AC1CI1 CB W-N LTGCG DIST W SLP121

CYQR;2010-06-21 20:00;CYQR 212000Z 17007KT 15SM -SHRA BKN040CB BKN080 BKN120 BKN340 23/14 A2989 RMK CB6AC2AC1CI1 CB NW-N SLP122

CYQR;2010-06-21 21:00;CYQR 212100Z 36011G18KT 15SM -TSRA FEW020 BKN046CB BKN120 19/14 A2987 RMK CU1CB6AC2 LTGCG NW-N HVY SHWRS NW SLP121

CYQR;2010-06-21 21:35;CYQR 212135Z 01019G29KT 15SM R13/4000VP6000FT/U -TSRA FEW015 BKN036CB BKN120 BKN340 16/ RMK CU1CB6AC1CI1 PRES UNSTDY VIS E 2 IN HVY SHWRS

CYQR;2010-06-21 21:58;CYQR 212158Z 07015KT 15SM -SHRA FEW022 BKN045CB BKN072 BKN340 17/ RETS RMK SC1CB6AC1CI1

CYQR;2010-06-21 22:00;CYQR 212200Z 07014KT 15SM -SHRA FEW025 SCT045CB BKN072 BKN340 17/13 A2987 RETS RMK CU1CB4AC2CI1 SLP121

CYQR;2010-06-21 22:32;CYQR 212232Z 08013KT 15SM FEW026 SCT040CB SCT072 BKN340 18/ RMK CU2CB2AC1CI4

CYQR;2010-06-21 23:00;CYQR 212300Z 08010KT 15SM FEW025TCU FEW070 FEW120 BKN340 18/13 A2985 RMK TCU1AC1AC1CI6 SLP115

CYQR;2010-06-22 00:00;CYQR 220000Z 09009KT 15SM FEW025TCU FEW070 FEW120 BKN340 19/13 A2981 RMK TCU1AC1AC2CI5 SLP101

CYQR;2010-06-22 01:00;CYQR 220100Z 09009KT 15SM TS FEW030 BKN080CB BKN340 20/11 A2980 RMK CU1CB6CI1 LTGCGCC W CB LN SW-NW SLP096

CYQR;2010-06-22 01:11;CYQR 220111Z 07008KT 15SM -TSRA FEW030 BKN080CB BKN340 20/ RMK CU1CB6CI1 LTGCGCC SW-W CB LN SW-NW

CYQR;2010-06-22 02:00;CYQR 220200Z 30006KT 10SM -TSRA BKN031CB BKN080 OVC240 17/13 A2986 RMK CB6ACC2CI1 LTGCGCC ALQDS SLP114

CYQR;2010-06-22 02:11;CYQR 220211Z CCA 28018G30KT 4SM TSRA BR FEW004 OVC027CB 16/ RMK SF1CB7 LTGCCCG ALQDS

CYQR;2010-06-22 02:35;CYQR 220235Z 18002KT 2SM TSRA BR OVC015CB 15/ RMK CB8 LTGCCCG ALQDS

CYQR;2010-06-22 03:00;CYQR 220300Z 03004KT 2 1/2SM -TSRA BR BKN017CB BKN100 15/13 A2991 RERA RMK CB6AC2 LTCCCG E VIS W 12 SLP131

CYQR;2010-06-22 03:12;CYQR 220312Z 04018KT 15SM -TSRA BKN017CB BKN084 15/ RMK CB5AC2 VIS E 3

CYQR;2010-06-22 03:20;CYQR 220320Z 03020KT 15SM BKN017CB BKN084 15/ RETS RMK CB5AC2 /R10/

CYQR;2010-06-22 04:00;CYQR 220400Z 05011G18KT 15SM FEW020CB SCT090 BKN350 15/13 A2985 RETS RMK CB2AC2CI0 LTNG DIST E SLP114

CYQR;2010-06-22 05:00;CYQR 220500Z 09009KT 15SM FEW020CB FEW350 15/12 A2985 RMK CB1CI0 LTNG DIST E SLP113

CYQR;2010-06-22 06:00;CYQR 220600Z 10009KT 15SM FEW080 FEW350 14/12 A2984 RMK AC1CI0 SLP107

CYQR;2010-06-22 07:00;CYQR 220700Z 12009KT 15SM FEW092 FEW350 14/12 A2981 RMK AC1CI0 SLP100

CYQR;2010-06-22 08:00;CYQR 220800Z 18006KT 15SM FEW095 FEW350 13/11 A2982 RMK AC1CI0 SLP102

CYQR;2010-06-22 09:00;CYQR 220900Z 24003KT 10SM FEW080 FEW350 12/11 A2983 RMK AC1CI0 SLP109

CYQR;2010-06-22 09:13;CYQR 220913Z 36009KT 10SM BKN004 12/ RMK SF3

CYQR;2010-06-22 09:50;CYQR 220950Z 03005KT 12SM FEW011 BKN350 12/ RMK SF2CI1

CYQR;2010-06-22 10:00;CYQR 221000Z 05004KT 12SM FEW011 SCT350 12/11 A2983 RMK SC2CI1 SLP108

CYQR;2010-06-22 11:00;CYQR 221100Z 34005KT 12SM BKN017 OVC074 13/11 A2983 RMK SC7AC1 SLP110

CYQR;2010-06-22 12:00;CYQR 221200Z 04003KT 15SM SCT019 BKN092 BKN350 14/12 A2984 RMK SC3AC3CI1 SLP109

CYQR;2010-06-22 13:00;CYQR 221300Z 25003KT 15SM FEW020 SCT089 BKN120 BKN350 14/12 A2985 RMK SC1AC2AC3CI1 SLP113

CYQR;2010-06-22 13:29;CYQR 221329Z 26006KT 15SM -SHRA FEW038 SCT089 BKN140 BKN330 14/ RMK SC1ACC3AC2CI1

CYQR;2010-06-22 14:00;CYQR 221400Z 31007KT 15SM FEW007 BKN036 BKN080 BKN330 14/13 A2988 RMK SF1SC5AC2CI1 CU ASOCTD SLP122

CYQR;2010-06-22 15:00;CYQR 221500Z 34007KT 15SM BKN009 BKN024 BKN080 16/14 A2988 RMK SF2SC3AC2 SLP127

CYQR;2010-06-22 15:33;CYQR 221533Z 31007KT 15SM BKN010 OVC088 17/ RMK CU6AC2

CYQR;2010-06-22 16:00;CYQR 221600Z 32007KT 15SM BKN014 BKN083 17/14 A2989 RMK CU5AC2 TCU/ACC ASOCTD SLP128

CYQR;2010-06-22 17:00;CYQR 221700Z 36010KT 15SM BKN012 BKN090 BKN300 17/14 A2991 RMK CU5ACC1CI0 TCU ASOCTD SLP136

CYQR;2010-06-22 17:26;CYQR 221726Z 34011KT 15SM SCT013 BKN090 BKN300 17/ RMK CU4ACC1CI1 TCU ASCOTD

CYQR;2010-06-22 17:46;CYQR 221746Z 35014KT 15SM -SHRA SCT014TCU SCT090 BKN300 17/ RMK TCU3ACC1CI1

CYQR;2010-06-22 18:00;CYQR 221800Z 34011G16KT 15SM FEW019TCU SCT090 BKN330 17/13 A2991 RMK TCU2ACC2CI1 SLP137

CYQR;2010-06-22 19:00;CYQR 221900Z 36011KT 15SM SCT021 BKN300 19/14 A2994 RMK CU4CI1 MOD CU SLP144

CYQR;2010-06-22 20:00;CYQR 222000Z 32010KT 15SM FEW027 FEW330 20/14 A2994 RMK CU2CI1 SLP145

CYQR;2010-06-22 21:00;CYQR 222100Z 33010G16KT 15SM FEW035 FEW330 21/14 A2995 RMK CU2CI1 TCU NW SLP148

CYQR;2010-06-22 22:00;CYQR 222200Z 34010G16KT 15SM FEW037 22/13 A2996 RMK CU2 SLP150

CYQR;2010-06-22 23:00;CYQR 222300Z 34016KT 15SM FEW042 BKN300 22/12 A2996 RMK CU2CI1 CB SOUTH SLP151

CYQR;2010-06-23 00:00;CYQR 230000Z 33010G15KT 15SM FEW045 BKN300 21/12 A2998 RMK CU2CI1 MOD CU CB SOUTH SLP156

CYQR;2010-06-23 01:00;CYQR 230100Z 33010KT 15SM FEW050CB SCT300 20/14 A2998 RMK CB1CI2 SLP158

CYQR;2010-06-23 02:00;CYQR 230200Z 32005KT 15SM FEW050 BKN300 19/14 A3000 RMK CU1CI2 SLP163

CYQR;2010-06-23 03:00;CYQR 230300Z 32005KT 15SM FEW050 BKN300 16/13 A3000 RMK SC1CI2 SLP166

CYQR;2010-06-23 04:00;CYQR 230400Z 30004KT 15SM SCT300 16/13 A3003 RMK CI2 SLP176

CYQR;2010-06-23 05:00;CYQR 230500Z 28005KT 15SM SCT300 14/12 A3004 RMK CI2 SLP178

CYQR;2010-06-23 06:00;CYQR 230600Z 33006KT 15SM FEW300 13/12 A3004 RMK CI1 SLP180

CYQR;2010-06-23 07:00;CYQR 230700Z 27004KT 15SM FEW300 13/11 A3004 RMK CI1 SLP179

CYQR;2010-06-23 08:00;CYQR 230800Z 21002KT 8SM SKC 12/10 A3004 RMK SLP179

CYQR;2010-06-23 09:00;CYQR 230900Z 26002KT 8SM FEW080 11/10 A3005 RMK AC1 SLP183

CYQR;2010-06-23 10:00;CYQR 231000Z 24004KT 8SM BKN090 12/11 A3006 RMK AC6 SLP188

CYQR;2010-06-23 11:00;CYQR 231100Z 26002KT 12SM BKN087 BKN300 13/12 A3007 RMK AC6CI0 SLP191

CYQR;2010-06-23 12:00;CYQR 231200Z 27004KT 12SM FEW090 FEW300 13/11 A3008 RMK AC2CI1 SLP192

CYQR;2010-06-23 13:00;CYQR 231300Z 30004KT 12SM FEW050 FEW120 BKN300 14/13 A3010 RMK SC1AC2CI1 SLP197

CYQR;2010-06-23 14:00;CYQR 231400Z 04005KT 15SM FEW020 BKN120 BKN320 17/14 A3010 RMK SC1AC4CI1 SLP198

CYQR;2010-06-23 15:00;CYQR 231500Z 17004KT 15SM FEW020 BKN092 20/15 A3010 RMK SC1AC5 SLP197

CYQR;2010-06-23 16:00;CYQR 231600Z 27002KT 15SM FEW020 BKN120 BKN320 20/14 A3010 RMK CU1AC6CI1 SLP197

CYQR;2010-06-23 17:00;CYQR 231700Z 30006KT 15SM FEW028 SCT100 SCT330 21/14 A3010 RMK CU1AC2CI1 SLP197

CYQR;2010-06-23 18:00;CYQR 231800Z 32006KT 15SM FEW028 FEW087 BKN120 BKN330 22/15 A3010 RMK CU1AC2AC2CI0 SLP198

CYQR;2010-06-23 19:00;CYQR 231900Z 33008KT 15SM BKN041TCU BKN090 BKN330 23/15 A3009 RMK TCU5AC1CI1 SLP195

CYQR;2010-06-23 20:00;CYQR 232000Z 31008KT 15SM BKN041TCU 24/15 A3008 RMK TCU6 SLP191

CYQR;2010-06-23 21:00;CYQR 232100Z 30013KT 15SM FEW047TCU BKN330 24/15 A3007 RMK TCU2CI0 CB DIST SE SLP188

CYQR;2010-06-23 22:00;CYQR 232200Z 32009KT 15SM SCT046TCU SCT120 24/15 A3007 RMK TCU3AC1 SLP187

CYQR;2010-06-23 23:00;CYQR 232300Z 34011KT 15SM -SHRA BKN026TCU BKN120 BKN330 23/14 A3007 RMK TCU6AC1CI0 SLP188

CYQR;2010-06-24 00:00;CYQR 240000Z 35008KT 15SM FEW035TCU FEW120 SCT330 23/14 A3006 RMK TCU1AC1CI0 SLP185

CYQR;2010-06-24 01:00;CYQR 240100Z 36005KT 15SM FEW040TCU BKN330 22/13 A3005 RMK TCU1CI2 SLP181

CYQR;2010-06-24 02:00;CYQR 240200Z 36005KT 15SM FEW040TCU OVC330 20/14 A3005 RMK TCU1CI3 SLP182

CYQR;2010-06-24 03:00;CYQR 240300Z 03004KT 15SM FEW040TCU SCT210 OVC330 19/13 A3005 RMK TCU1CI3CI2 SLP180

CYQR;2010-06-24 04:00;CYQR 240400Z 12004KT 15SM SCT210 OVC330 18/13 A3006 RMK CI3CI2 SLP181

CYQR;2010-06-24 05:00;CYQR 240500Z 13005KT 15SM FEW210 BKN330 17/13 A3006 RMK CI1CI2 SLP182

CYQR;2010-06-24 06:00;CYQR 240600Z 14006KT 15SM FEW210 BKN330 16/14 A3006 RMK CI1CI1 SLP182

CYQR;2010-06-24 07:00;CYQR 240700Z 13006KT 15SM BKN250 16/14 A3005 RMK CI3 SLP179

CYQR;2010-06-24 08:00;CYQR 240800Z 12006KT 15SM FEW050CB SCT079 OVC250 16/14 A3004 RMK CB1AC3CI2 LTNG DIST NW SLP176

CYQR;2010-06-24 08:26;CYQR 240826Z 13006KT 15SM TS FEW060CB BKN079 OVC250 16/ RMK CB2AC3CI2

CYQR;2010-06-24 08:40;CYQR 240840Z 15005KT 15SM -TSRA SCT036CB BKN079 OVC250 16/ RMK CB4AC3CI1 LTGCCCG N-NE

CYQR;2010-06-24 09:00;CYQR 240900Z 33013KT 15SM TS BKN024CB OVC080 16/14 A3005 RMK CB5AC3 LTGCCCG N-SE SLP179

CYQR;2010-06-24 09:41;CYQR 240941Z 07008KT 15SM FEW024CB OVC075 16/ RETS RMK CB2AC6 LTNG NE-E

CYQR;2010-06-24 10:00;CYQR 241000Z 08005KT 15SM FEW024CB SCT045 OVC077 15/13 A3002 RETS RMK CB2SC2AC5 LTNG NE-SE SLP168

CYQR;2010-06-24 11:00;CYQR 241100Z 12006KT 15SM FEW045 FEW066 OVC210 15/13 A3000 RMK SC1AC2CI4 SLP162

CYQR;2010-06-24 12:00;CYQR 241200Z 11006KT 15SM FEW075 BKN210 15/13 A3000 RMK ACC2CI3 SLP162

CYQR;2010-06-24 13:00;CYQR 241300Z 14008KT 15SM FEW075 BKN210 17/14 A2999 RMK ACC1CI3 SLP158

CYQR;2010-06-24 14:00;CYQR 241400Z 14010G15KT 15SM FEW080 FEW250 19/14 A2998 RMK ACC1CI0 SLP156

CYQR;2010-06-24 15:00;CYQR 241500Z 14014KT 15SM FEW024 FEW080 SCT200 BKN300 21/15 A2997 RMK CU1ACC2CI1CI0 SLP150

CYQR;2010-06-24 16:00;CYQR 241600Z 15009G17KT 15SM FEW030 FEW100 SCT300 22/15 A2996 RMK CU1ACC1CI0 SLP148

CYQR;2010-06-24 17:00;CYQR 241700Z 14010KT 15SM FEW031 FEW090 BKN300 23/16 A2995 RMK CU2AC1CI2 SLP145

CYQR;2010-06-24 18:00;CYQR 241800Z 14009KT 15SM FEW035 FEW090 FEW220 BKN300 24/16 A2993 RMK CU1AC1CI1CI2 SLP138

CYQR;2010-06-24 19:00;CYQR 241900Z 13011KT 15SM FEW036 FEW100 OVC220 25/17 A2991 RMK CU1AC1CI3 SLP130

CYQR;2010-06-24 20:00;CYQR 242000Z 15009KT 15SM FEW036 FEW100 BKN220 OVC300 26/17 A2990 RMK CU1AC1CI3CI0 SLP126

CYQR;2010-06-24 21:00;CYQR 242100Z 15009KT 15SM FEW071TCU BKN083CB BKN210 BKN300 25/16 A2985 RMK TCU2CB2CI1CI0 PRESFR SLP107

CYQR;2010-06-24 21:08;CYQR 242108Z 14007KT 15SM -TSRA SCT068CB BKN095 BKN210 BKN300 24/ RMK CB4AC1CI1CI0

CYQR;2010-06-24 21:22;CYQR 242122Z 09005KT 15SM TSRA SCT066CB BKN210 BKN300 22/ RMK CB4CI2CI1 LTGCG SOUTH

CYQR;2010-06-24 21:33;CYQR 242133Z 13009KT 15SM -TSRA SCT063CB BKN210 BKN300 22/ RERA RMK CB4CI2CI1

CYQR;2010-06-24 21:53;CYQR 242153Z 04017KT 15SM -TSRA BKN042CB BKN210 19/ RERA RMK CB5CI2 WND SHFT 2145Z

CYQR;2010-06-24 22:00;CYQR 242200Z 07018G27KT 6SM -TSRA BR BKN042CB OVC210 19/15 A2986 RERA RMK CB6CI2 SLP111

CYQR;2010-06-24 22:05;CYQR 242205Z 05019G24KT 3SM TSRA BR BKN042CB OVC210 18/ RMK CB6CI2

CYQR;2010-06-24 22:28;CYQR 242228Z 12009KT 6SM +TSRA BR SCT040CB BKN210 16/ RMK CB4CI1 LTGCG HAIL REPORTED EASTEND OF CITY

CYQR;2010-06-24 22:40;CYQR 242240Z 09011G16KT 10SM -TSRA SCT040CB BKN090 BKN210 BKN280 16/ RERA RMK CB4AC1CI1CI0

CYQR;2010-06-24 22:55;CYQR 242255Z 03009G20KT 6SM -TSRAGS BR SCT040CB BKN090 BKN210 BKN280 17/ RMK CB4AC1CI1CI0 RERA

CYQR;2010-06-24 23:00;CYQR 242300Z CCA 11018G24KT 6SM -TSRAGS BR SCT040CB BKN090 BKN210 BKN280 16/14 A2983 RMK CB4AC2CI1CI0 RERA /R15/ SLP103

CYQR;2010-06-24 23:07;CYQR 242307Z 11017G24KT 15SM -TSRA SCT040CB SCT090 BKN210 BKN280 18/ RMK CB3AC1CI1CI0

CYQR;2010-06-24 23:17;CYQR 242317Z 08012G18KT 15SM TS SCT040CB SCT090 BKN210 BKN280 18/ RMK CB3AC1CI1CI0

CYQR;2010-06-24 23:34;CYQR 242334Z 12015KT 15SM SCT040TCU SCT090 BKN210 BKN280 18/ RETS RMK TCU3AC1CI1CI0

CYQR;2010-06-25 00:00;CYQR 250000Z 13011G17KT 15SM SCT040TCU SCT090 BKN210 BKN280 19/15 A2981 RETS RMK TCU3AC1CI2CI0 TR AC SLP100

CYQR;2010-06-25 01:00;CYQR 250100Z 16011G21KT 15SM FEW040TCU SCT090 BKN280 21/15 A2982 RMK TCU2AC2CI0 SLP103

CYQR;2010-06-25 01:27;CYQR 250127Z 13015KT 15SM TS VCSH SCT030CB BKN280 19/ RMK CB4CI0

CYQR;2010-06-25 02:00;CYQR 250200Z 10011G17KT 15SM TS VCSH BKN030CB BKN120 BKN280 19/14 A2983 RMK CB5AC1CI0 SLP107

CYQR;2010-06-25 02:29;CYQR 250229Z 12013KT 15SM SCT030CB SCT120 BKN280 18/ RETS RMK CB4AC1CI0

CYQR;2010-06-25 03:00;CYQR 250300Z 13016KT 15SM VCSH SCT030CB SCT120 BKN250 18/13 A2982 RETS RMK CB3AC1CI0 SLP100

CYQR;2010-06-25 04:00;CYQR 250400Z 13014G19KT 15SM VCSH BKN030CB BKN120 BKN280 18/13 A2982 RMK CB5AC1CI1 LGTCG SW SLP101

CYQR;2010-06-25 04:22;CYQR 250422Z 15011G19KT 15SM -TSRA BKN069 18/ RMK AC6 CB EMBD LGTNG ALL QUADS

CYQR;2010-06-25 05:00;CYQR 250500Z 14019G25KT 15SM -SHRA BKN047CB 17/14 A2981 RETSRA RMK CB5 SLP096

CYQR;2010-06-25 05:55;CYQR 250555Z 13011KT 15SM SCT045 BKN089 16/ RMK SC3AC4

CYQR;2010-06-25 06:00;CYQR 250600Z 13011KT 15SM SCT045 BKN089 16/14 A2981 RMK SC3AC4 SLP095

CYQR;2010-06-25 07:00;CYQR 250700Z 06011KT 15SM BKN018 BKN094 16/14 A2982 RMK SC5AC2 SLP099

CYQR;2010-06-25 08:00;CYQR 250800Z 12009KT 15SM FEW040 16/13 A2979 RMK SC2 SLP089

CYQR;2010-06-25 09:00;CYQR 250900Z 13012KT 15SM FEW280 15/13 A2978 RMK CI0 SLP086

CYQR;2010-06-25 10:00;CYQR 251000Z 14010KT 15SM SCT009 15/13 A2977 RMK SC4 SLP082

CYQR;2010-06-25 10:36;CYQR 251036Z 16009G15KT 10SM BKN005 15/ RMK SC7

CYQR;2010-06-25 10:54;CYQR 251054Z 15011KT 3SM BR OVC003 15/ RMK ST8

CYQR;2010-06-25 11:00;CYQR 251100Z 16011KT 2SM BR OVC002 15/14 A2977 RMK ST8 SLP082

CYQR;2010-06-25 11:21;CYQR 251121Z 16009KT 3/4SM R13/4000VP6000FT/D BR OVC001 15/ RMK ST8

CYQR;2010-06-25 11:29;CYQR 251129Z 16010KT 1/2SM R13/4000FT/D FG VV001 15/ RMK FG8

CYQR;2010-06-25 11:56;CYQR 251156Z 16009KT 3/8SM R13/2200FT/N FG VV001 15/ RMK FG8

CYQR;2010-06-25 12:00;CYQR 251200Z 15010KT 1/4SM R13/2200FT/D FG VV001 15/14 A2976 RMK FG8 SLP084

CYQR;2010-06-25 13:00;CYQR 251300Z 15007KT 1/4SM R13/3000FT/N FG VV001 15/14 A2976 RMK FG8 SLP084

CYQR;2010-06-25 13:31;CYQR 251331Z 15006KT 1/2SM R13/2600V6000FT/D FG VV001 15/ RMK FG8

CYQR;2010-06-25 13:42;CYQR 251342Z 15006KT 3/4SM R13/2800V5000FT/N BR OVC001 15/ RMK FG6ST2

CYQR;2010-06-25 14:00;CYQR 251400Z 17006KT 1 1/2SM BR OVC001 15/15 A2976 RMK ST7 SLP084

CYQR;2010-06-25 14:07;CYQR 251407Z CCA 14004KT 3SM BR BKN001 BKN250 16/ RMK SF6CI1

CYQR;2010-06-25 14:08;CYQR 251408Z 14004KT 2SM BR BKN001 BKN250 16/ RMK SF6CI1

CYQR;2010-06-25 14:13;CYQR 251413Z 12004KT 4SM BR FEW001 BKN250 16/ RMK SF1CI1

CYQR;2010-06-25 14:43;CYQR 251443Z 15006KT 15SM FEW012 FEW095 BKN250 RMK CU1AC0CI1 CU TR

CYQR;2010-06-25 15:00;CYQR 251500Z 16007KT 15SM FEW012 FEW095 SCT250 20/16 A2976 RMK CU1AC1CI1 SLP081

CYQR;2010-06-25 16:00;CYQR 251600Z 19008KT 15SM FEW016 FEW100 SCT300 23/18 A2977 RMK CU1AC1CI1 SLP085

CYQR;2010-06-25 17:00;CYQR 251700Z 18004KT 15SM FEW028 FEW100 SCT300 25/18 A2976 RMK CU1AC1CI0 SLP081

CYQR;2010-06-25 18:00;CYQR 251800Z 19007KT 15SM FEW040 SCT099 BKN300 27/17 A2975 RMK CU1AC3CI1 SLP072

CYQR;2010-06-25 19:00;CYQR 251900Z 25013KT 15SM BKN065 BKN300 27/18 A2975 RMK CU5CI0 OBS TAKEN -05 SLP072

CYQR;2010-06-25 20:00;CYQR 252000Z 27014KT 15SM FEW040 SCT300 27/17 A2974 RMK CU2CI1 TCU ASOCTD SH DIST E-SE SLP070

CYQR;2010-06-25 21:00;CYQR 252100Z 29014KT 15SM FEW050 BKN300 27/15 A2974 RMK CU2CI1 CB E SLP071

CYQR;2010-06-25 22:00;CYQR 252200Z 28010KT 15SM FEW052 FEW090 BKN300 28/15 A2974 RMK CU2AC1CI0 CB E SLP069

CYQR;2010-06-25 23:00;CYQR 252300Z 27015KT 15SM FEW056 FEW100 SCT300 27/13 A2972 RMK CU1AC1CI0 TCU ASOCTD SLP064

CYQR;2010-06-26 00:00;CYQR 260000Z 29015KT 15SM FEW048CB FEW300 27/15 A2972 RMK CB1CI0 SLP065

CYQR;2010-06-26 01:00;CYQR 260100Z 31011KT 15SM FEW040CB FEW300 25/16 A2973 RMK CB1CI0 CB SE SLP066

CYQR;2010-06-26 02:00;CYQR 260200Z 33010KT 15SM FEW032TCU FEW300 24/16 A2974 RMK TCU1CI0 TCU NE+SE SLP070

CYQR;2010-06-26 03:00;CYQR 260300Z 35008KT 15SM FEW030CB FEW300 20/15 A2975 RMK CB1CI1 SLP076

CYQR;2010-06-26 04:00;CYQR 260400Z 36008KT 15SM FEW030 FEW300 19/14 A2977 RMK SC1CI0 SLP082

CYQR;2010-06-26 05:00;CYQR 260500Z 03005KT 15SM FEW030 18/14 A2977 RMK SC1 CB/LGTNG DIST SE SLP082

CYQR;2010-06-26 06:00;CYQR 260600Z 03004KT 15SM FEW300 17/14 A2977 RMK CI1 SLP081

CYQR;2010-06-26 07:00;CYQR 260700Z 11004KT 15SM FEW030 SCT300 15/13 A2976 RMK SC2CI0 SLP078

CYQR;2010-06-26 08:00;CYQR 260800Z 13004KT 15SM FEW030 BKN300 15/14 A2976 RMK SC1CI1 SLP077

CYQR;2010-06-26 09:00;CYQR 260900Z 13005KT 15SM FEW030 SCT300 15/13 A2975 RMK SC2CI0 SLP073

CYQR;2010-06-26 10:00;CYQR 261000Z 12005KT 15SM BKN120 15/13 A2973 RMK AC6 SLP068

CYQR;2010-06-26 11:00;CYQR 261100Z 12004KT 15SM SCT087 BKN120 BKN300 15/13 A2973 RMK AC3AC2CI1 ACC EMBD SLP067

CYQR;2010-06-26 12:00;CYQR 261200Z 23011KT 10SM -SHRA FEW005 BKN084 BKN120 OVC300 15/14 A2975 RMK SF2AC3AC2CI0 ACC EMBD SLP075

CYQR;2010-06-26 13:00;CYQR 261300Z 03005KT 10SM -SHRA OVC082 16/15 A2975 RMK AC8 SLP074

CYQR;2010-06-26 14:00;CYQR 261400Z 05003KT 10SM -SHRA SCT024 OVC082 17/15 A2976 RMK SC3AC5 SLP077

CYQR;2010-06-26 15:00;CYQR 261500Z 12003KT 10SM -SHRA BKN017 OVC054 17/16 A2976 RMK SC5SC3 SLP082

CYQR;2010-06-26 15:33;CYQR 261533Z 15011KT 10SM SCT012 OVC043 18/ RMK SC4SC4

CYQR;2010-06-26 16:00;CYQR 261600Z 15007KT 10SM FEW012 SCT043 OVC091 18/16 A2976 RMK SC1SC3AC4 SLP082

CYQR;2010-06-26 17:00;CYQR 261700Z 28004KT 10SM FEW012 SCT043 OVC091 20/16 A2976 RMK SC1SC3SC4 SLP081

CYQR;2010-06-26 18:00;CYQR 261800Z 21006KT 15SM FEW024 SCT090 BKN220 21/15 A2976 RMK CU1AC3CI2 SLP078

CYQR;2010-06-26 19:00;CYQR 261900Z 24012KT 15SM FEW028 FEW100 BKN250 23/15 A2974 RMK CU1AC2CI1 SLP073

CYQR;2010-06-26 20:00;CYQR 262000Z 28009G16KT 15SM FEW046 BKN061 BKN250 24/16 A2973 RMK CU2SC1CI1 SLP070

CYQR;2010-06-26 21:00;CYQR 262100Z 31015G22KT 15SM SCT042 BKN061 BKN250 25/15 A2972 RMK CU2SC1CI1 ACC ASOCTD SLP066

CYQR;2010-06-26 22:00;CYQR 262200Z 31018KT 15SM FEW045 25/13 A2972 RMK CU2 CB CELL SE SLP066

CYQR;2010-06-26 23:00;CYQR 262300Z 31018KT 15SM FEW058 24/12 A2973 RMK CU2 CB CELL SE SLP069

CYQR;2010-06-27 00:00;CYQR 270000Z 30017KT 15SM FEW060 FEW300 24/12 A2972 RMK CU1CI0 CB CELL SE SLP065

CYQR;2010-06-27 01:00;CYQR 270100Z 31015G20KT 15SM FEW055 SCT300 23/11 A2972 RMK CU1CI0 CB E SLP066

CYQR;2010-06-27 02:00;CYQR 270200Z 32023G30KT 15SM VCSH SCT050 BKN070CB 20/10 A2972 RMK CU3CB2 SLP067

CYQR;2010-06-27 03:00;CYQR 270300Z 33012KT 15SM VCSH FEW050CB BKN090 BKN300 18/10 A2975 RMK CB2AC4CI1 SLP079

CYQR;2010-06-27 04:00;CYQR 270400Z 21008KT 15SM FEW080 15/11 A2978 RMK AC2 CB ASOCTD E SLP089

CYQR;2010-06-27 05:00;CYQR 270500Z 27007KT 15SM FEW080 13/10 A2979 RMK AC1 SLP092

CYQR;2010-06-27 06:00;CYQR 270600Z 28009KT 15SM FEW080 13/10 A2979 RMK AC1 SLP093

CYQR;2010-06-27 07:00;CYQR 270700Z 27007KT 15SM SKC 12/10 A2977 RMK SLP087

CYQR;2010-06-27 08:00;CYQR 270800Z 30012KT 15SM SKC 13/10 A2977 RMK SLP085

CYQR;2010-06-27 09:00;CYQR 270900Z 29008KT 15SM SKC 12/09 A2976 RMK SLP082

CYQR;2010-06-27 10:00;CYQR 271000Z 27006KT 15SM FEW100 10/08 A2976 RMK ACC1 SLP082

CYQR;2010-06-27 11:00;CYQR 271100Z 26006KT 15SM FEW100 SCT300 10/08 A2977 RMK AC2CI0 ACC ASOCTD SLP084

CYQR;2010-06-27 12:00;CYQR 271200Z 28010KT 15SM FEW050 FEW100 SCT300 12/09 A2978 RMK SC1AC1CI0 SLP087

CYQR;2010-06-27 13:00;CYQR 271300Z 30007KT 15SM FEW035 FEW240 14/10 A2979 RMK SC1CI1 CI TR SLP091

CYQR;2010-06-27 14:00;CYQR 271400Z 31012KT 15SM FEW079 FEW240 16/11 A2979 RMK AC1CI0 SLP091

CYQR;2010-06-27 15:00;CYQR 271500Z 30013KT 15SM FEW020 BKN077 BKN250 16/11 A2980 RMK CU1AC5CI1 SLP097

CYQR;2010-06-27 16:00;CYQR 271600Z 31014KT 15SM FEW020TCU FEW043 BKN073 BKN250 18/12 A2980 RMK TCU1SC2AC3CI1 TCU DIST E SLP097

CYQR;2010-06-27 17:00;CYQR 271700Z 30011G18KT 15SM FEW024 SCT075 19/13 A2980 RMK CU1AC2 SLP097

CYQR;2010-06-27 18:00;CYQR 271800Z 34018KT 15SM SCT028 BKN073 21/13 A2981 RMK CU4AC1 SLP100

CYQR;2010-06-27 19:00;CYQR 271900Z 33018KT 15SM BKN032 21/14 A2981 RMK CU5 SLP100

CYQR;2010-06-27 20:00;CYQR 272000Z 33014G20KT 15SM BKN040 22/14 A2981 RMK CU6 SLP101

CYQR;2010-06-27 21:00;CYQR 272100Z 35018KT 15SM SCT045 22/13 A2982 RMK CU3 SLP104

CYQR;2010-06-27 22:00;CYQR 272200Z 36014KT 15SM FEW045 FEW260 23/14 A2983 RMK CU2CI1 SLP106

CYQR;2010-06-27 23:00;CYQR 272300Z 34015G20KT 15SM FEW047 FEW300 22/13 A2983 RMK CU2CI0 SLP108

CYQR;2010-06-28 00:00;CYQR 280000Z 33014KT 15SM FEW048 SCT300 23/14 A2985 RMK CU2CI0 SLP111

CYQR;2010-06-28 01:00;CYQR 280100Z 36010KT 15SM SCT048 SCT100 BKN300 21/14 A2986 RMK CU3AC1CI0 TCU ASOCTD SLP115

CYQR;2010-06-28 02:00;CYQR 280200Z 01009KT 15SM FEW040 FEW300 20/13 A2986 RMK CU1CI0 TCU ASOCTD SLP117

CYQR;2010-06-28 03:00;CYQR 280300Z 02006KT 15SM FEW040TCU FEW100 FEW300 18/13 A2988 RMK TCU1AC1CI1 SLP123

CYQR;2010-06-28 04:00;CYQR 280400Z 07010KT 15SM FEW080 17/13 A2990 RMK AC1 ACC ASOCTD SLP129

CYQR;2010-06-28 05:00;CYQR 280500Z 10009KT 15SM SKC 16/13 A2991 RMK SLP134

CYQR;2010-06-28 06:00;CYQR 280600Z 11007KT 15SM SKC 14/12 A2993 RMK SLP141

CYQR;2010-06-28 07:00;CYQR 280700Z 12007KT 15SM SKC 13/11 A2995 RMK SLP145

CYQR;2010-06-28 08:00;CYQR 280800Z 13008KT 15SM FEW300 12/11 A2995 RMK CI0 SLP147

CYQR;2010-06-28 09:00;CYQR 280900Z 12009KT 15SM FEW300 12/11 A2995 RMK CI0 SLP148

CYQR;2010-06-28 10:00;CYQR 281000Z 13009KT 15SM FEW030 FEW300 11/10 A2996 RMK SC1CI0 SLP151

CYQR;2010-06-28 11:00;CYQR 281100Z 13008KT 15SM SCT080 BKN300 12/10 A2998 RMK AC2CI0 ACC ASOCTD SLP156

CYQR;2010-06-28 12:00;CYQR 281200Z 14010KT 15SM FEW080 BKN300 12/10 A2998 RMK AC2CI0 ACC ASOCTD SLP158

CYQR;2010-06-28 12:21;CYQR 281221Z 15010KT 15SM FEW004 SCT080 BKN300 12/ RMK SF2AC1CI0 ACC ASOCTD

CYQR;2010-06-28 12:32;CYQR 281232Z 15010KT 10SM BKN004 13/ RMK SF7

CYQR;2010-06-28 13:00;CYQR 281300Z 14013KT 12SM BKN005 BKN075 13/12 A2999 RMK SF6AC1 SLP159

CYQR;2010-06-28 14:00;CYQR 281400Z 15013KT 10SM OVC003 14/12 A3000 RMK ST8 SLP162

CYQR;2010-06-28 14:19;CYQR 281419Z 17012KT 2SM BR OVC003 14/ RMK ST8

CYQR;2010-06-28 14:29;CYQR 281429Z 14013KT 2 1/2SM BR OVC002 14/ RMK ST8

CYQR;2010-06-28 14:36;CYQR 281436Z 15013KT 4SM BR OVC003 14/ RMK ST8

CYQR;2010-06-28 15:00;CYQR 281500Z 15009KT 6SM BR OVC003 14/12 A3000 RMK ST8 SLP168

CYQR;2010-06-28 15:19;CYQR 281519Z 15012KT 8SM OVC005 15/ RMK ST8 BR

CYQR;2010-06-28 15:35;CYQR 281535Z 16012KT 10SM BKN006 16/ RMK SF7

CYQR;2010-06-28 15:51;CYQR 281551Z 15010KT 15SM SCT007 BKN080 BKN300 16/ RMK SF4AC2CI1 ACC ASOCTD

CYQR;2010-06-28 16:00;CYQR 281600Z 14012KT 15SM FEW006 SCT080 BKN300 17/14 A3000 RMK SF2AC1CI0 ACC ASOCTD SLP165

CYQR;2010-06-28 16:24;CYQR 281624Z 14013KT 15SM FEW045 SCT300 18/ RMK CU1CI2

CYQR;2010-06-28 17:00;CYQR 281700Z 14014KT 15SM FEW050 BKN260 20/15 A2999 RMK CU1CI2 SLP162

CYQR;2010-06-28 18:00;CYQR 281800Z 14014KT 15SM FEW050 SCT240 BKN300 22/16 A2999 RMK CU1CI3CI0 SLP158

CYQR;2010-06-28 19:00;CYQR 281900Z 14014KT 15SM FEW030 FEW080 BKN300 23/15 A2998 RMK CU1ACC1CI4 SLP156

CYQR;2010-06-28 20:00;CYQR 282000Z 14013G19KT 15SM FEW032 BKN300 23/15 A2998 RMK CU1CI4 SLP156

CYQR;2010-06-28 21:00;CYQR 282100Z 14016G24KT 15SM FEW028 OVC280 24/16 A2997 RMK CU1CI5 SLP154

CYQR;2010-06-28 22:00;CYQR 282200Z 14017KT 15SM FEW035 OVC260 25/16 A2997 RMK CU1CI3 SLP153

CYQR;2010-06-28 23:00;CYQR 282300Z 14018KT 15SM FEW035 FEW100 BKN260 24/15 A2996 RMK CU1ACC1CI5 SLP150

CYQR;2010-06-29 00:00;CYQR 290000Z 13016G24KT 15SM FEW035 FEW100 BKN260 24/16 A2995 RMK CU1AC1CI4 SLP145

CYQR;2010-06-29 01:00;CYQR 290100Z 13019G27KT 15SM FEW035TCU BKN260 22/15 A2994 RMK TCU1CI2 SLP143

CYQR;2010-06-29 02:00;CYQR 290200Z 13016G28KT 15SM FEW035TCU FEW100 BKN280 22/15 A2994 RMK TCU1AC2CI1 SLP144

CYQR;2010-06-29 03:00;CYQR 290300Z 13017G24KT 15SM SCT070 BKN280 20/15 A2994 RMK ACC3CI0 SLP145

CYQR;2010-06-29 04:00;CYQR 290400Z 15016G21KT 15SM FEW080 19/14 A2996 RMK ACC2 SLP152

CYQR;2010-06-29 05:00;CYQR 290500Z 15013G19KT 15SM FEW080 18/14 A2997 RMK AC2 SLP153

CYQR;2010-06-29 06:00;CYQR 290600Z 14014G19KT 15SM SKC 17/13 A2997 RMK SLP153

CYQR;2010-06-29 07:00;CYQR 290700Z 14014KT 15SM SKC 16/13 A2999 RMK SLP158

CYQR;2010-06-29 08:00;CYQR 290800Z 12013KT 15SM SKC 15/12 A2999 RMK SLP159

CYQR;2010-06-29 09:00;CYQR 290900Z 13015G20KT 15SM SKC 15/12 A3000 RMK SLP160

CYQR;2010-06-29 10:00;CYQR 291000Z 14017KT 15SM FEW080 FEW300 14/11 A2999 RMK ACC1CI1 SLP158

CYQR;2010-06-29 11:00;CYQR 291100Z 14017G22KT 15SM FEW080 FEW300 14/11 A2998 RMK ACC1CI1 SLP156

CYQR;2010-06-29 12:00;CYQR 291200Z 14015KT 15SM FEW300 14/12 A2999 RMK CI1 SLP158

CYQR;2010-06-29 13:00;CYQR 291300Z 14018KT 15SM BKN300 16/12 A2998 RMK CI2 SLP154

CYQR;2010-06-29 14:00;CYQR 291400Z 14014G19KT 15SM BKN300 18/14 A2999 RMK CI2 SLP158

CYQR;2010-06-29 15:00;CYQR 291500Z 14017KT 15SM BKN300 19/15 A2997 RMK CI1 SLP151

CYQR;2010-06-29 16:00;CYQR 291600Z 14015G22KT 15SM SCT280 22/16 A2997 RMK CI1 SLP150

CYQR;2010-06-29 17:00;CYQR 291700Z 15019KT 15SM SCT280 23/17 A2996 RMK CI0 SLP147

CYQR;2010-06-29 18:00;CYQR 291800Z 14016KT 15SM FEW240 24/17 A2994 RMK CI1 SLP140

CYQR;2010-06-29 19:00;CYQR 291900Z 14020G26KT 15SM FEW150 FEW280 26/18 A2993 RMK AC1CI1 TR AC SLP136

CYQR;2010-06-29 20:00;CYQR 292000Z 14020KT 15SM FEW036 SCT250 27/18 A2992 RMK CU1CI2 SLP134

CYQR;2010-06-29 21:00;CYQR 292100Z 13018G24KT 15SM FEW030 FEW160 BKN240 26/19 A2991 RMK CU1AC1CI6 SLP129

CYQR;2010-06-29 22:00;CYQR 292200Z 12024G29KT 15SM FEW030 FEW160 FEW210 BKN240 26/19 A2988 RMK CU1ACC1CC1CI5 SLP119

CYQR;2010-06-29 23:00;CYQR 292300Z 13024KT 15SM FEW160 FEW210 SCT240 27/20 A2987 RMK ACC1CC1CI2 SLP117

CYQR;2010-06-30 00:00;CYQR 300000Z 12023G31KT 15SM FEW030 FEW110 SCT210 27/20 A2985 RMK CU1AC1CI1 SLP110

CYQR;2010-06-30 01:00;CYQR 300100Z 13025G32KT 15SM FEW040 FEW240 26/19 A2984 RMK CU1CI1 CU TR SLP106

CYQR;2010-06-30 02:00;CYQR 300200Z 13025G32KT 15SM FEW110 FEW340 24/19 A2984 RMK AC1CI1 SLP106

CYQR;2010-06-30 03:00;CYQR 300300Z 12017G25KT 15SM FEW110 FEW330 23/18 A2984 RMK AC1CI1 SLP106

CYQR;2010-06-30 04:00;CYQR 300400Z 12020G27KT 15SM FEW110 FEW330 22/17 A2983 RMK AC1CI0 SLP101

CYQR;2010-06-30 05:00;CYQR 300500Z 13021G27KT 15SM BKN330 21/17 A2981 RMK CI1 SLP095

CYQR;2010-06-30 06:00;CYQR 300600Z 13021G30KT 15SM SCT330 21/16 A2978 RMK CI1 LTG DIST W SLP083

CYQR;2010-06-30 07:00;CYQR 300700Z 13020G25KT 15SM BKN140 20/16 A2978 RMK AC2 SLP082

CYQR;2010-06-30 08:00;CYQR 300800Z 14021G28KT 15SM SCT120 20/16 A2975 RMK AC2 SLP072

CYQR;2010-06-30 09:00;CYQR 300900Z 14019G27KT 15SM FEW020CB BKN120 20/16 A2973 RMK CB1AC2 CB DIST E LTGIC SLP065

CYQR;2010-06-30 10:00;CYQR 301000Z 13015KT 15SM FEW020CB BKN120 19/16 A2973 RMK CB1AC2 CB ESE LTGIC SLP064

CYQR;2010-06-30 11:00;CYQR 301100Z 14016KT 15SM FEW120 SCT330 18/16 A2973 RMK AC1CI0 CB DIST SE SLP066

CYQR;2010-06-30 12:00;CYQR 301200Z 14010KT 15SM FEW120 BKN330 18/16 A2976 RMK AC1CI2 SLP074

CYQR;2010-06-30 13:00;CYQR 301300Z 16012KT 15SM FEW120 BKN330 19/16 A2977 RMK AC1CI4 SLP078

CYQR;2010-06-30 14:00;CYQR 301400Z 15011G17KT 15SM BKN049 BKN300 21/17 A2978 RMK SC5CI0 SLP081

CYQR;2010-06-30 15:00;CYQR 301500Z 14012KT 15SM FEW049 SCT090 BKN300 22/17 A2977 RMK CU1AC3CI4 SLP080

CYQR;2010-06-30 16:00;CYQR 301600Z 14013G19KT 15SM BKN050 BKN140 BKN300 21/18 A2977 RMK SC6AC1CI1 SLP080

CYQR;2010-06-30 17:00;CYQR 301700Z 14014KT 15SM SCT050 BKN140 BKN300 25/19 A2975 RMK SC2AC2CI1 SLP072

CYQR;2010-06-30 18:00;CYQR 301800Z 18014KT 15SM SCT140 BKN300 28/19 A2977 RMK AC2CI2 SLP079

CYQR;2010-06-30 19:00;CYQR 301900Z 23012KT 15SM FEW120 BKN300 29/18 A2978 RMK AC1CI1 SLP080

CYQR;2010-06-30 20:00;CYQR 302000Z 25008KT 15SM FEW048 FEW120 SCT300 30/18 A2977 RMK CU1AC1CI2 CB TOPS SE SLP078

CYQR;2010-06-30 21:00;CYQR 302100Z 26012KT 15SM FEW048 FEW120 FEW300 30/18 A2978 RMK CU1ACC1CI1 SLP081

CYQR;2010-06-30 22:00;CYQR 302200Z 23010KT 15SM FEW056 FEW120 BKN300 29/15 A2979 RMK CU1AC1CI3 CU TR SLP083

CYQR;2010-06-30 23:00;CYQR 302300Z 33005KT 15SM FEW040 SCT140 BKN260 27/18 A2977 RMK CU1AC3CI3 SLP078

CYQR;2010-07-01 01:00;CYQR 010100Z 32005KT 15SM FEW045TCU FEW140 BKN260 27/18 A2977 RMK TCU1AC2CI2 TCU E ACC ASOCTD SLP079

CYQR;2010-07-01 02:00;CYQR 010200Z 31002KT 15SM FEW040 BKN086 BKN240 26/18 A2979 RMK CU1AC2CI5 SLP083

CYQR;2010-07-01 03:00;CYQR 010300Z 18002KT 15SM FEW040 BKN100 OVC240 24/17 A2981 RMK CU1AC2CI5 SLP093

CYQR;2010-07-01 04:00;CYQR 010400Z 28008KT 15SM BKN120 22/16 A2983 RMK AC7 SLP100

CYQR;2010-07-01 05:00;CYQR 010500Z 36005KT 15SM BKN120 20/17 A2984 RMK AC7 SLP102

CYQR;2010-07-01 06:00;CYQR 010600Z 36005KT 15SM BKN120 20/16 A2983 RMK AC7 SLP098

CYQR;2010-07-01 07:00;CYQR 010700Z 00000KT 15SM BKN120 20/15 A2983 RMK AC7 SLP098

CYQR;2010-07-01 08:00;CYQR 010800Z 03004KT 15SM BKN140 19/15 A2982 RMK AC7 SLP094

CYQR;2010-07-01 09:00;CYQR 010900Z 00000KT 15SM FEW080 BKN140 19/16 A2983 RMK AC2AC6 SLP096

CYQR;2010-07-01 10:00;CYQR 011000Z 28003KT 15SM BKN140 18/16 A2984 RMK AC7 SLP101

CYQR;2010-07-01 11:00;CYQR 011100Z 34002KT 15SM BKN076 BKN140 BKN330 19/16 A2986 RMK AC6AC1CI1 SLP107

CYQR;2010-07-01 12:00;CYQR 011200Z 00000KT 15SM FEW074 BKN140 BKN330 18/15 A2986 RMK AC1AC2CI1 SLP110

CYQR;2010-07-01 13:00;CYQR 011300Z 27003KT 15SM FEW074 FEW140 BKN330 20/17 A2988 RMK AC1AC1CI2 SLP116

CYQR;2010-07-01 14:00;CYQR 011400Z 34005KT 15SM FEW140 SCT230 BKN300 21/16 A2988 RMK ACC1CI2CI1 SLP116

CYQR;2010-07-01 15:00;CYQR 011500Z 35006KT 15SM FEW140 BKN300 23/15 A2988 RMK ACC1CI5 SLP117

CYQR;2010-07-01 16:00;CYQR 011600Z 01004KT 15SM BKN300 25/16 A2987 RMK CI4 SLP113

CYQR;2010-07-01 17:00;CYQR 011700Z 09003KT 15SM FEW091 BKN230 BKN300 26/15 A2986 RMK ACC2CI2CI1 SLP110

CYQR;2010-07-01 18:00;CYQR 011800Z 06005KT 15SM FEW059 FEW089 BKN300 27/16 A2985 RMK SC1ACC1CI5 SLP106

CYQR;2010-07-01 19:00;CYQR 011900Z 09008KT 15SM FEW045 FEW080 BKN280 27/17 A2983 RMK CF1AC1CI5 SLP100

CYQR;2010-07-01 20:00;CYQR 012000Z 06005KT 15SM FEW065 SCT120 BKN230 BKN300 28/18 A2982 RMK CU2ACC2CI2CI1 CB N SLP095

CYQR;2010-07-01 21:00;CYQR 012100Z 18006KT 15SM FEW065TCU SCT120 BKN230 29/16 A2980 RMK TCU2ACC2CI3 SLP088

CYQR;2010-07-01 22:00;CYQR 012200Z 17007KT 15SM FEW078 BKN230 29/16 A2977 RMK AC2CI2 SLP079

CYQR;2010-07-01 23:00;CYQR 012300Z CCA 19010KT 15SM SCT066 BKN230 BKN300 29/18 A2976 RMK CU3CI1CI0 TCU EAST SLP075

CYQR;2010-07-01 23:47;CYQR 012347Z 17013KT 15SM -SHRA SCT064TCU BKN230 29/ RMK TCU3CI2 CB N

CYQR;2010-07-02 00:00;CYQR 020000Z 18010G15KT 15SM -SHRA SCT064TCU BKN230 27/18 A2974 RMK TCU3CI2 CB N+E SLP067

CYQR;2010-07-02 00:26;CYQR 020026Z 17014G22KT 15SM VCSH SCT056TCU SCT230 28/ RMK TCU3CI1 CB N + NE

CYQR;2010-07-02 01:00;CYQR 020100Z 19013KT 15SM VCSH FEW056TCU BKN230 27/18 A2971 RMK TCU2CI3 CB ASOCTD N+E SLP059

CYQR;2010-07-02 02:00;CYQR 020200Z 19005KT 15SM FEW070CB BKN150 BKN350 26/18 A2970 RMK CB1AC2CI1 CB NE-E SLP056

CYQR;2010-07-02 03:00;CYQR 020300Z 17003KT 15SM BKN150 BKN350 24/18 A2971 RMK AC2CI3 CB E SLP056

CYQR;2010-07-02 04:00;CYQR 020400Z 08008KT 15SM SCT140 BKN350 22/18 A2971 RMK AC3CI4 CB WITH LTGIC DIST W + E SLP055

CYQR;2010-07-02 05:00;CYQR 020500Z 10011KT 15SM FEW040CB BKN140 BKN350 21/17 A2971 RMK CB1AC6CI2 CB SW-W FQT LTGIC SLP056

CYQR;2010-07-02 05:34;CYQR 020534Z 11012G17KT 15SM TS SCT065CB BKN140 21/ RMK CB3AC4 CB S-NE FQT LTGICCG

CYQR;2010-07-02 05:39;CYQR 020539Z 27032G38KT 8SM -TSRA BKN030CB OVC140 17/ RMK CB6AC2 WSHFT FQT LTGICCG

CYQR;2010-07-02 05:42;CYQR 020542Z 29025G38KT 2SM +TSRA BKN019CB OVC140 16/ RMK RA5CB2AC1

CYQR;2010-07-02 05:44;CYQR 020544Z 29029G38KT 3/4SM R13/4500VP6000FT/D +TSRAGR VV003 15/ RMK RA8 HAIL DIAM 10 MM

CYQR;2010-07-02 05:49;CYQR 020549Z 30033G39KT 1SM R13/4500VP6000FT/U +TSRA OVC003CB 15/ REGR RMK RA6CB2 FQT LTGICCG

CYQR;2010-07-02 06:00;CYQR 020600Z 34022G39KT 10SM -TSRA FEW003 OVC053CB 15/14 A2976 REGRRA RMK SF1CB7 PRESRR SLP078

CYQR;2010-07-02 07:00;CYQR 020700Z 05013KT 12SM -TSRA OVC028CB 16/14 A2975 RMK CB8 LTGICCG E-S SLP073

CYQR;2010-07-02 07:39;CYQR 020739Z 03011KT 15SM BKN028 16/ RETS RMK CU7 LTGCC E

CYQR;2010-07-02 08:00;CYQR 020800Z 04010KT 15SM BKN030 17/15 A2964 RETS RMK CU7 PRESFR LTGIC DIST E SLP040

CYQR;2010-07-02 09:00;CYQR 020900Z 14007KT 15SM BKN120 16/15 A2966 RMK AC7 LTG DIST SE SLP039

CYQR;2010-07-02 10:00;CYQR 021000Z 16009KT 15SM FEW120 BKN350 16/15 A2966 RMK AC2CI1 SLP040

CYQR;2010-07-02 11:00;CYQR 021100Z 10004KT 15SM FEW160 BKN350 16/15 A2965 RMK AC2CI2 SLP037

CYQR;2010-07-02 12:00;CYQR 021200Z 12003KT 15SM FEW160 SCT350 16/15 A2964 RMK AC1CI1 SLP037

CYQR;2010-07-02 13:00;CYQR 021300Z 07006KT 15SM SCT140 BKN350 17/15 A2963 RMK AC2CI1 SLP032

CYQR;2010-07-02 14:00;CYQR 021400Z 36003KT 15SM FEW076 SCT140 BKN350 19/17 A2962 RMK AC1AC2CI2 SLP030

CYQR;2010-07-02 15:00;CYQR 021500Z 19003KT 15SM FEW094 SCT230 BKN300 20/17 A2962 RMK ACC2CI1CI1 SLP028

CYQR;2010-07-02 16:00;CYQR 021600Z 18005KT 15SM FEW100 FEW300 22/18 A2962 RMK AC2CI0 SLP027

CYQR;2010-07-02 17:00;CYQR 021700Z 14008KT 15SM FEW025TCU FEW100 25/18 A2958 RMK TCU1AC1 SLP016

CYQR;2010-07-02 18:00;CYQR 021800Z 15011KT 15SM FEW100 26/19 A2957 RMK ACC1 SLP012

CYQR;2010-07-02 19:00;CYQR 021900Z 15012G19KT 15SM FEW300 27/20 A2954 RMK CI1 SLP003

CYQR;2010-07-02 20:00;CYQR 022000Z 16014G19KT 15SM FEW150 FEW300 28/18 A2951 RMK AC1CI1 SLP993

CYQR;2010-07-02 21:00;CYQR 022100Z 14010G17KT 15SM FEW042CB FEW180 FEW300 30/19 A2951 RMK CB1AC1CI1 CB W-NW SLP991

CYQR;2010-07-02 22:00;CYQR 022200Z 17013G19KT 15SM FEW048CB SCT210 BKN300 30/18 A2951 RMK CB1CI2CI0 SLP991

CYQR;2010-07-02 23:00;CYQR 022300Z 20013G19KT 15SM FEW052CB FEW071 FEW300 30/18 A2951 RMK CB1AC1CI1 CB N SLP988

CYQR;2010-07-03 00:00;CYQR 030000Z 21011KT 15SM FEW040 FEW210 SCT300 28/18 A2950 RMK CU1CI1CI0 SLP986

CYQR;2010-07-03 01:00;CYQR 030100Z 30013G20KT 15SM FEW030 FEW210 25/18 A2952 RMK CU1CI1 CB TOP NE SLP994

CYQR;2010-07-03 02:00;CYQR 030200Z 28015G20KT 15SM FEW030CB SCT076 BKN210 23/19 A2955 RMK CB1AC2CI2 CB NE-SE SLP002

CYQR;2010-07-03 03:00;CYQR 030300Z 28017KT 15SM FEW030CB SCT073 BKN210 20/17 A2959 RMK CB2AC2CI1 PRESRR CB NE-SE SLP020

CYQR;2010-07-03 04:00;CYQR 030400Z 31018G30KT 15SM FEW019 SCT073 BKN210 18/15 A2961 RMK SC2AC1CI0 CVCTV CLD EMBD SLP026

CYQR;2010-07-03 05:00;CYQR 030500Z 33013KT 15SM FEW021 SCT210 17/14 A2960 RMK SC2CI1 SLP023

CYQR;2010-07-03 06:00;CYQR 030600Z 30007KT 15SM SCT070 16/14 A2964 RMK AC3 SLP036

CYQR;2010-07-03 07:00;CYQR 030700Z 31007KT 15SM FEW070 BKN210 16/13 A2964 RMK AC2CI4 SLP037

CYQR;2010-07-03 08:00;CYQR 030800Z 30011KT 15SM FEW030 BKN084 15/13 A2964 RMK SC2AC5 SLP036

CYQR;2010-07-03 09:00;CYQR 030900Z 29004KT 15SM FEW070 BKN210 15/13 A2964 RMK AC2CI1 SLP036

CYQR;2010-07-03 10:00;CYQR 031000Z 33002KT 15SM FEW070 SCT300 13/12 A2964 RMK AC2CI0 SLP035

CYQR;2010-07-03 11:00;CYQR 031100Z 28006KT 15SM FEW050 SCT100 BKN300 13/11 A2966 RMK SC2AC2CI0 SLP041

CYQR;2010-07-03 12:00;CYQR 031200Z 27004KT 15SM FEW050 SCT100 BKN300 14/12 A2966 RMK SC2AC2CI2 SLP045

CYQR;2010-07-03 13:00;CYQR 031300Z 28007KT 15SM SCT093 BKN300 14/13 A2967 RMK AC4CI2 SLP046

CYQR;2010-07-03 14:00;CYQR 031400Z 29009KT 15SM SCT098 BKN230 BKN300 15/12 A2968 RMK AC3CI1CI0 SLP050

CYQR;2010-07-03 15:00;CYQR 031500Z 30013KT 15SM BKN082 BKN300 16/13 A2969 RMK AC6CI1 SLP056

CYQR;2010-07-03 16:00;CYQR 031600Z 30014KT 15SM SCT082 BKN230 BKN300 17/11 A2969 RMK AC4CI1CI0 VIRGA SLP056

CYQR;2010-07-03 17:00;CYQR 031700Z 30013KT 15SM FEW024 SCT087 BKN230 BKN300 18/12 A2971 RMK CU1AC2CI1CI0 VIRGA SLP063

CYQR;2010-07-03 18:00;CYQR 031800Z CCA 32011KT 15SM FEW035CB FEW086 FEW300 20/11 A2972 RMK CB1AC1CI1 CB E SLP069

CYQR;2010-07-03 19:00;CYQR 031900Z 31006KT 15SM FEW035 FEW084 20/12 A2974 RMK CU1AC1 SLP073

CYQR;2010-07-03 20:00;CYQR 032000Z 33010KT 15SM FEW040 SCT091 21/12 A2974 RMK CU2AC2 SLP073

CYQR;2010-07-03 21:00;CYQR 032100Z 33007KT 15SM FEW040 SCT095 22/11 A2973 RMK CU2AC2 SLP072

CYQR;2010-07-03 22:00;CYQR 032200Z 34005KT 15SM FEW051 FEW095 FEW300 22/11 A2975 RMK CU1AC1CI1 SLP076

CYQR;2010-07-03 23:00;CYQR 032300Z 32003KT 15SM FEW054 FEW080 22/10 A2975 RMK CU1AC2 SLP076

CYQR;2010-07-04 00:00;CYQR 040000Z 33006KT 15SM FEW056 SCT088 BKN270 22/10 A2973 RMK CU2AC2CI0 SLP072

CYQR;2010-07-04 01:00;CYQR 040100Z 30009KT 15SM SCT035 BKN093 20/11 A2974 RMK CU3AC4 TCU ASOCTD HVY SH SW AND NW SLP075

CYQR;2010-07-04 01:16;CYQR 040116Z 27020KT 15SM -SHRA BKN038TCU BKN091 18/ RMK TCU6AC1

CYQR;2010-07-04 02:00;CYQR 040200Z 25010KT 12SM -SHRA BKN024TCU 15/11 A2978 RMK TCU7 VIS E 6 SLP088

CYQR;2010-07-04 02:37;CYQR 040237Z 00000KT 15SM VCSH SCT024TCU BKN090 15/ RMK TCU3AC3

CYQR;2010-07-04 03:00;CYQR 040300Z 01002KT 15SM FEW032TCU BKN067 15/12 A2976 RMK TCU2AC2 SLP085

CYQR;2010-07-04 04:00;CYQR 040400Z 26004KT 15SM FEW030 FEW250 13/11 A2979 RMK SC1CI1 SLP094

CYQR;2010-07-04 05:00;CYQR 040500Z 25003KT 15SM FEW058 12/10 A2978 RMK SC1 SLP091

CYQR;2010-07-04 06:00;CYQR 040600Z 22004KT 15SM SKC 11/09 A2978 RMK SLP091

CYQR;2010-07-04 07:00;CYQR 040700Z 26006KT 15SM SKC 11/09 A2977 RMK SLP089

CYQR;2010-07-04 08:00;CYQR 040800Z 23005KT 15SM SKC 10/08 A2979 RMK SLP093

CYQR;2010-07-04 09:00;CYQR 040900Z 25004KT 15SM SKC 09/07 A2981 RMK SLP101

CYQR;2010-07-04 10:00;CYQR 041000Z 23005KT 15SM FEW200 09/07 A2981 RMK CI0 SLP100

CYQR;2010-07-04 11:00;CYQR 041100Z 22006KT 15SM FEW100 08/06 A2979 RMK AC1 SLP096

CYQR;2010-07-04 12:00;CYQR 041200Z 25005KT 15SM FEW084 10/08 A2981 RMK AC1 SLP099

CYQR;2010-07-04 13:00;CYQR 041300Z 25006KT 15SM FEW080 12/09 A2981 RMK AC1 SLP101

CYQR;2010-07-04 14:00;CYQR 041400Z 27006KT 15SM FEW080 15/11 A2981 RMK AC1 SLP099

CYQR;2010-07-04 15:00;CYQR 041500Z 25005KT 15SM FEW080 17/12 A2980 RMK AC1 SLP098

CYQR;2010-07-04 16:00;CYQR 041600Z 23006KT 15SM FEW080 19/12 A2979 RMK AC1 SLP095

CYQR;2010-07-04 17:00;CYQR 041700Z 21008KT 15SM FEW035 21/12 A2978 RMK CF1 SLP092

CYQR;2010-07-04 18:00;CYQR 041800Z 27006KT 15SM FEW044 22/11 A2977 RMK CU1 SLP085

CYQR;2010-07-04 19:00;CYQR 041900Z 27005KT 15SM SCT057 22/11 A2976 RMK CU3 SLP084

CYQR;2010-07-04 20:00;CYQR 042000Z 24015KT 15SM SCT057 BKN300 24/10 A2976 RMK CU4CI0 SLP084

CYQR;2010-07-04 21:00;CYQR 042100Z 24011KT 15SM FEW055 SCT300 24/10 A2975 RMK CU2CI0 SLP079

CYQR;2010-07-04 22:00;CYQR 042200Z 27012KT 15SM FEW055 SCT300 24/10 A2973 RMK CU2CI0 SLP074

CYQR;2010-07-04 23:00;CYQR 042300Z 26011KT 15SM FEW055 SCT300 25/09 A2972 RMK CU1CI1 SLP070

CYQR;2010-07-05 00:00;CYQR 050000Z CCA 25010KT 15SM FEW060 FEW300 24/09 A2971 RMK CU1CI0 SLP067

CYQR;2010-07-05 01:00;CYQR 050100Z 28006KT 15SM FEW060 SCT300 24/11 A2970 RMK CU1CI1 SLP063

CYQR;2010-07-05 02:00;CYQR 050200Z 23004KT 15SM FEW040 FEW300 22/13 A2969 RMK CU1CI0 SLP059

CYQR;2010-07-05 03:00;CYQR 050300Z 19005KT 15SM FEW040 FEW300 18/13 A2969 RMK CU1CI1 CI TR SLP056

CYQR;2010-07-05 04:00;CYQR 050400Z 21007KT 15SM FEW040 17/12 A2969 RMK CU1 OBS TAKEN -05 SLP058

CYQR;2010-07-05 05:00;CYQR 050500Z 21007KT 15SM FEW040 15/11 A2968 RMK CU1 SLP055

CYQR;2010-07-05 06:00;CYQR 050600Z 19007KT 15SM FEW035 13/10 A2967 RMK SC1 SLP051

CYQR;2010-07-05 07:00;CYQR 050700Z 23009KT 15SM SKC 13/09 A2969 RMK SLP056

CYQR;2010-07-05 08:00;CYQR 050800Z 20006KT 15SM SCT075 11/09 A2968 RMK AC2 SLP055

CYQR;2010-07-05 09:00;CYQR 050900Z 26005KT 15SM SCT090 12/10 A2969 RMK AC1 SLP056

CYQR;2010-07-05 10:00;CYQR 051000Z 26002KT 15SM BKN090 12/10 A2967 RMK AC2 SLP052

CYQR;2010-07-05 11:00;CYQR 051100Z 18004KT 15SM VCSH BKN054 BKN078 BKN260 12/10 A2967 RMK SC3AC2CI0 SLP051

CYQR;2010-07-05 11:35;CYQR 051135Z 24005KT 15SM -SHRA BKN041 BKN078 13/ RMK SC5AC2 CVCTV CLD EMBD

CYQR;2010-07-05 12:00;CYQR 051200Z 23005KT 15SM VCSH BKN041 BKN078 13/11 A2968 RMK SC6AC2 OBS TAKEN +05 SLP054

CYQR;2010-07-05 13:00;CYQR 051300Z 20005KT 15SM FEW040 SCT080 SCT260 13/11 A2968 RMK SC2AC1CI1 SH DIST NE-SE SLP054

CYQR;2010-07-05 14:00;CYQR 051400Z 21009KT 15SM SCT090 BKN300 16/12 A2968 RMK AC2CI2 SLP054

CYQR;2010-07-05 15:00;CYQR 051500Z 22008KT 15SM FEW025 SCT095 BKN300 16/11 A2967 RMK CU2AC2CI1 SLP050

CYQR;2010-07-05 16:00;CYQR 051600Z 25012KT 15SM BKN027 BKN095 BKN300 17/11 A2966 RMK CU6AC1CI1 SLP046

CYQR;2010-07-05 17:00;CYQR 051700Z 23016KT 15SM BKN030 BKN074 BKN300 19/12 A2966 RMK CU6AC2CI1 SLP046

CYQR;2010-07-05 18:00;CYQR 051800Z 25016G21KT 15SM BKN033 BKN080 19/11 A2964 RMK CU6AC2 SLP043

CYQR;2010-07-05 18:30;CYQR 051830Z 27023G30KT 15SM FEW005 BKN035TCU BKN080 15/ RMK CF1TCU6AC2 TR CF SHWRS WEST

CYQR;2010-07-05 18:35;CYQR 051835Z 27018G28KT 15SM -SHRA FEW005 BKN035TCU BKN080 15/ RMK CF1TCU6AC2 TR CF

CYQR;2010-07-05 19:00;CYQR 051900Z 28016G22KT 15SM -SHRA FEW007 BKN032TCU BKN085 15/13 A2967 RMK CF1TCU6AC1 SLP051

CYQR;2010-07-05 19:53;CYQR 051953Z 28025KT 15SM -SHRA FEW007 OVC014TCU 15/ RMK CF1TCU7

CYQR;2010-07-05 20:00;CYQR 052000Z 28020G29KT 15SM -SHRA FEW007 BKN010TCU OVC070 14/12 A2968 RMK CF1TCU6AC1 SLP056

CYQR;2010-07-05 21:00;CYQR 052100Z 28021G26KT 15SM -SHRA BKN012TCU OVC070 14/11 A2969 RMK TCU6AC2 SLP064

CYQR;2010-07-05 21:45;CYQR 052145Z 27019G25KT 15SM FEW013 BKN041TCU OVC085 15/ RMK CF2TCU3AC2

CYQR;2010-07-05 22:00;CYQR 052200Z 28018KT 15SM -SHRA FEW011 BKN041TCU BKN085 BKN260 15/12 A2970 RMK CF2TCU3AC2CI0 SLP067

CYQR;2010-07-05 22:35;CYQR 052235Z 28018G25KT 15SM SCT022 BKN059 BKN091 BKN260 16/ RMK CU3SC2AC2CI0

CYQR;2010-07-05 22:37;CYQR 052237Z CCA 28018G25KT 15SM SCT022 BKN059 BKN091 BKN260 16/ RMK CU3SC2AC2CI0 TCU ASCOCTD

CYQR;2010-07-05 23:00;CYQR 052300Z 27019G25KT 15SM SCT027 BKN062 BKN091 BKN260 17/12 A2970 RMK CU3SC2AC1CI0 SLP067

CYQR;2010-07-06 00:00;CYQR 060000Z 28018G24KT 15SM BKN027TCU BKN085 BKN260 17/12 A2971 RMK TCU5AC2CI0 SLP068

CYQR;2010-07-06 01:00;CYQR 060100Z 28019G25KT 15SM FEW059TCU SCT099 BKN260 16/09 A2972 RMK TCU2AC2CI1 SLP072

CYQR;2010-07-06 02:00;CYQR 060200Z 29013G22KT 15SM FEW065TCU SCT099 BKN210 BKN260 16/10 A2973 RMK TCU2AC2CC1CI0 SLP075

CYQR;2010-07-06 03:00;CYQR 060300Z 31008KT 15SM VCSH SCT052 BKN079 BKN260 14/11 A2975 RMK CU3AC2CI0 TCU ASOCTD SLP080

CYQR;2010-07-06 04:00;CYQR 060400Z 30014G20KT 15SM VCSH BKN055 BKN080 14/10 A2976 RMK CU5AC2 OBS TAKEN -05 SLP086

CYQR;2010-07-06 04:38;CYQR 060438Z 28013KT 10SM -SHRA SCT031 OVC052 13/ RMK SC3SC5 CVCTV CLD EMBD

CYQR;2010-07-06 05:00;CYQR 060500Z 28013KT 15SM -SHRA BKN030 OVC051 13/11 A2977 RMK SC3SC5 CVCTV CLD EMBD SLP089

CYQR;2010-07-06 05:37;CYQR 060537Z 27009KT 15SM -RA FEW003 SCT030 OVC056 13/ RMK SF1SC2SC6 OCNL -SHRA

CYQR;2010-07-06 06:00;CYQR 060600Z 28012G17KT 15SM -SHRA SCT036 BKN055 BKN090 13/12 A2977 RMK SC2SC3AC1 -SHRA OCNL CVCTV CLD ASOCTD SLP088

CYQR;2010-07-06 07:00;CYQR 060700Z 29014KT 15SM FEW036 SCT064 13/11 A2977 RMK SC2SC2 SLP086

CYQR;2010-07-06 07:46;CYQR 060746Z 29013KT 15SM BKN011 OVC048 13/ RMK SF5SC3

CYQR;2010-07-06 08:00;CYQR 060800Z 29015G21KT 12SM BKN011 OVC029 13/12 A2977 RMK SF7SC1 SLP088

CYQR;2010-07-06 08:36;CYQR 060836Z 29018KT 15SM OVC009 RMK SF8

CYQR;2010-07-06 09:00;CYQR 060900Z 30016G21KT 15SM OVC008 13/12 A2979 RMK SF8 SLP097

CYQR;2010-07-06 09:41;CYQR 060941Z 31015G22KT 15SM OVC010 13/ RMK SF8

CYQR;2010-07-06 10:00;CYQR 061000Z 31013G19KT 15SM OVC010 13/11 A2981 RMK SF8 SLP104

CYQR;2010-07-06 10:16;CYQR 061016Z 30013G20KT 15SM BKN017 OVC040 13/ RMK SF6SC2

CYQR;2010-07-06 10:33;CYQR 061033Z 30011G17KT 12SM -SHRA BKN012 OVC038 13/ RMK SF5SC3 CVCTV CLD EMBD

CYQR;2010-07-06 11:00;CYQR 061100Z 30013KT 10SM -SHRA FEW012 BKN033 OVC054 13/11 A2984 RMK SF0SC6SC2 CVCTV VLD EMBD SLP112

CYQR;2010-07-06 12:00;CYQR 061200Z 29014KT 12SM -SHRA FEW012 SCT033 BKN052 BKN090 13/11 A2986 RMK SF1SC3SC3AC1 CVCTV CLD EMBD SLP120

CYQR;2010-07-06 12:21;CYQR 061221Z 28013KT 15SM FEW012 BKN055 BKN090 13/ RMK SF1SC4AC2

CYQR;2010-07-06 13:00;CYQR 061300Z 29010G16KT 15SM BKN010 BKN066 BKN250 13/12 A2988 RMK SF2AC5CI1 SLP126

CYQR;2010-07-06 14:00;CYQR 061400Z 29014KT 15SM FEW009 SCT091 BKN260 15/12 A2990 RMK SF1AC2CI1 SLP131

CYQR;2010-07-06 15:00;CYQR 061500Z 30013KT 15SM FEW018 FEW090 SCT280 16/12 A2991 RMK CF1AC1CI1 SLP137

CYQR;2010-07-06 16:00;CYQR 061600Z 31012KT 15SM FEW018 FEW090 SCT280 18/13 A2992 RMK CF1AC2CI0 SLP140

CYQR;2010-07-06 17:00;CYQR 061700Z 31012G17KT 15SM FEW024 FEW080 BKN280 19/13 A2993 RMK CU2AC1CI0 SLP144

CYQR;2010-07-06 18:00;CYQR 061800Z 30013KT 15SM BKN031 21/13 A2995 RMK CU7 TCU EMBD SLP147

CYQR;2010-07-06 18:36;CYQR 061836Z 30012KT 15SM -SHRA BKN031 18/ RMK CU7 TCU EMBD

CYQR;2010-07-06 19:00;CYQR 061900Z 31012KT 15SM -SHRA BKN031 19/13 A2996 RMK CU7 TCU EMBD SLP151

CYQR;2010-07-06 20:00;CYQR 062000Z 30015KT 15SM -SHRA BKN031TCU 19/12 A2996 RMK TCU7 SLP150

CYQR;2010-07-06 21:00;CYQR 062100Z 03010KT 15SM -SHRA SCT009 BKN042CB 18/12 A2998 RMK CF3CB4 SLP158

CYQR;2010-07-06 22:00;CYQR 062200Z 36009KT 15SM -SHRA FEW013 BKN035CB 16/12 A2999 RMK CF2CB5 SLP161

CYQR;2010-07-06 23:00;CYQR 062300Z 05003KT 15SM FEW043CB 19/12 A2998 RMK CB2 SLP158

CYQR;2010-07-07 00:00;CYQR 070000Z 32004KT 15SM SCT043CB 19/12 A2998 RMK CB3 SLP158

CYQR;2010-07-07 01:00;CYQR 070100Z 02004KT 15SM FEW046CB SCT300 20/11 A2998 RMK CB2CI1 SLP158

CYQR;2010-07-07 02:00;CYQR 070200Z 27005KT 15SM VCSH FEW040CB SCT090 BKN300 18/12 A2999 RMK CB2AC2CI0 SLP161

CYQR;2010-07-07 02:34;CYQR 070234Z 32008KT 15SM -SHRA FEW020CB SCT052 BKN300 17/ RMK CB1SC2CI1

CYQR;2010-07-07 02:45;CYQR 070245Z 31003KT 15SM VCSH FEW020CB BKN052 BKN300 17/ RMK CB1SC2CI1

CYQR;2010-07-07 03:00;CYQR 070300Z 29003KT 15SM VCSH FEW020CB BKN052 BKN300 16/12 A3000 RMK CB1SC4CI1 CB E SLP168

CYQR;2010-07-07 04:00;CYQR 070400Z 25006KT 15SM FEW052 FEW300 14/12 A3002 RMK SC1CI1 OBS TAKEN -05 SLP172

CYQR;2010-07-07 05:00;CYQR 070500Z 26007KT 15SM FEW300 12/10 A3002 RMK CI1 SLP172

CYQR;2010-07-07 06:00;CYQR 070600Z 27006KT 15SM SKC 11/10 A3001 RMK SLP171

CYQR;2010-07-07 07:00;CYQR 070700Z 25007KT 15SM SKC 12/10 A3000 RMK SLP168

CYQR;2010-07-07 08:00;CYQR 070800Z 27008KT 15SM SKC 11/10 A3001 RMK SLP171

CYQR;2010-07-07 09:00;CYQR 070900Z 23004KT 15SM SKC 10/08 A3002 RMK SLP177

CYQR;2010-07-07 10:00;CYQR 071000Z 21003KT 15SM SCT080 09/08 A3005 RMK AC2 SLP184

CYQR;2010-07-07 11:00;CYQR 071100Z 27005KT 15SM FEW080 10/08 A3005 RMK AC1 SLP184

CYQR;2010-07-07 12:00;CYQR 071200Z 25006KT 15SM FEW080 11/09 A3005 RMK AC2 OBS TAKEN -06 SLP183

CYQR;2010-07-07 13:00;CYQR 071300Z 27008KT 15SM FEW100 13/11 A3005 RMK AC1 SLP186

CYQR;2010-07-07 14:00;CYQR 071400Z 28010KT 15SM FEW020 FEW100 FEW300 15/12 A3005 RMK CF1AC1CI1 SLP185

CYQR;2010-07-07 15:00;CYQR 071500Z 29008KT 15SM FEW014 FEW100 FEW300 16/13 A3006 RMK CF1AC1CI0 SLP187

CYQR;2010-07-07 16:00;CYQR 071600Z CCA 31011KT 15SM FEW016 SCT100 SCT300 17/13 A3007 RMK CU2AC1CI0 SLP189

CYQR;2010-07-07 17:00;CYQR 071700Z 31012G17KT 15SM FEW028 SCT100 SCT300 19/13 A3007 RMK CU2AC1CI0 SLP190

CYQR;2010-07-07 18:00;CYQR 071800Z 31012G17KT 15SM FEW031 BKN300 21/14 A3007 RMK CU1CI1 SLP189

CYQR;2010-07-07 19:00;CYQR 071900Z 32015KT 15SM FEW039 BKN260 21/12 A3006 RMK CU2CI1 TCU ASOCTD SLP188

CYQR;2010-07-07 20:00;CYQR 072000Z 32011G17KT 15SM FEW043 BKN260 22/12 A3006 RMK CU2CI1 SLP186

CYQR;2010-07-07 21:00;CYQR 072100Z 31012G20KT 15SM BKN049 22/12 A3005 RMK CU6 SLP181

CYQR;2010-07-07 22:00;CYQR 072200Z 32015G20KT 15SM SCT049TCU 23/12 A3003 RMK TCU4 SLP177

CYQR;2010-07-07 23:00;CYQR 072300Z 30017KT 15SM BKN052TCU 24/13 A3002 RMK TCU6 SLP174

CYQR;2010-07-07 23:52;CYQR 072352Z 02006KT 15SM -SHRA BKN052CB 20/ RMK CB6

CYQR;2010-07-08 00:00;CYQR 080000Z 01006KT 15SM -SHRA BKN052CB 20/11 A3003 RMK CB6 SLP176

CYQR;2010-07-08 00:10;CYQR 080010Z 36014G20KT 15SM -TSRA BKN050CB 19/ RMK CB6

CYQR;2010-07-08 01:00;CYQR 080100Z 26014KT 15SM -TSRA BKN046CB 18/14 A3005 RMK CB7 SLP183

CYQR;2010-07-08 01:15;CYQR 080115Z 24008KT 15SM VCSH FEW044CB FEW080 BKN260 18/ RETS RMK CB2AC1CI1

CYQR;2010-07-08 02:00;CYQR 080200Z 26005KT 15SM VCSH FEW044CB BKN065 BKN096 BKN260 17/13 A3005 RETS RMK CB2SC2AC2CI1 SLP184

CYQR;2010-07-08 03:00;CYQR 080300Z 25006KT 15SM VCSH FEW044TCU SCT052 SCT087 BKN260 16/13 A3006 RMK TCU2SC1AC1CI1 SLP188

CYQR;2010-07-08 04:00;CYQR 080400Z 24007KT 15SM VCSH FEW044CB FEW062 SCT089 BKN260 15/13 A3008 RMK CB1SC1AC1CI0 SLP192

CYQR;2010-07-08 05:00;CYQR 080500Z 27005KT 15SM FEW049 FEW087 SCT260 13/12 A3008 RMK SC1AC1CI0 SLP193

CYQR;2010-07-08 06:00;CYQR 080600Z 32004KT 15SM SCT054 12/11 A3009 RMK SC3 SLP196

CYQR;2010-07-08 07:00;CYQR 080700Z 34003KT 15SM FEW054 12/11 A3008 RMK SC1 SLP194

CYQR;2010-07-08 08:00;CYQR 080800Z 34006KT 15SM SCT045 12/11 A3009 RMK SC2 SLP197

CYQR;2010-07-08 09:00;CYQR 080900Z 01006KT 15SM BKN250 12/10 A3010 RMK CI1 SLP198

CYQR;2010-07-08 10:00;CYQR 081000Z 01002KT 15SM FEW051 SCT250 11/09 A3010 RMK SC2CI1 SLP200

CYQR;2010-07-08 11:00;CYQR 081100Z 36005KT 15SM FEW054 SCT250 10/08 A3011 RMK SC2CI1 CU ASOCTD SLP203

CYQR;2010-07-08 12:00;CYQR 081200Z 32003KT 15SM FEW046 FEW250 10/08 A3013 RMK CU1CI1 SLP212

CYQR;2010-07-08 13:00;CYQR 081300Z 35003KT 15SM FEW074 FEW250 14/11 A3014 RMK AC2CI0 SLP214

CYQR;2010-07-08 14:00;CYQR 081400Z 32002KT 15SM FEW075 BKN250 16/11 A3015 RMK AC1CI2 SLP217

CYQR;2010-07-08 15:00;CYQR 081500Z 30002KT 15SM FEW075 BKN260 18/09 A3015 RMK ACC1CI2 SLP216

CYQR;2010-07-08 16:00;CYQR 081600Z 30003KT 15SM FEW075 BKN280 18/09 A3015 RMK ACC1CI3 SLP217

CYQR;2010-07-08 17:00;CYQR 081700Z 30006KT 15SM FEW084 BKN280 20/09 A3015 RMK ACC1CI3 SLP215

CYQR;2010-07-08 18:00;CYQR 081800Z 24005KT 15SM FEW045 BKN280 21/10 A3014 RMK CU1CI2 SLP213

CYQR;2010-07-08 19:00;CYQR 081900Z 25004KT 15SM FEW050 BKN280 22/08 A3013 RMK CU1CI2 SLP209

CYQR;2010-07-08 20:00;CYQR 082000Z 29006G18KT 15SM FEW050 SCT280 22/09 A3012 RMK CU1CI1 TR CU SLP206

CYQR;2010-07-08 21:00;CYQR 082100Z 28007KT 15SM FEW058 SCT280 23/09 A3011 RMK CU1CI1 SLP201

CYQR;2010-07-08 22:00;CYQR 082200Z 28011KT 15SM FEW055 FEW280 23/10 A3009 RMK CF1CI1 SLP194

CYQR;2010-07-08 23:00;CYQR 082300Z 26009G15KT 15SM FEW050 FEW100 FEW280 24/12 A3008 RMK CF1AC1CI1 SLP192

CYQR;2010-07-09 00:00;CYQR 090000Z 29008KT 15SM FEW050 FEW100 FEW280 24/12 A3006 RMK CF1AC1CI1 SLP185

CYQR;2010-07-09 01:00;CYQR 090100Z 28010KT 15SM FEW050 FEW100 FEW280 23/12 A3004 RMK CU1ACC1CI1 SLP180

CYQR;2010-07-09 02:00;CYQR 090200Z 25007KT 15SM FEW035TCU FEW100 22/13 A3003 RMK TCU1AC1 TR TCU SLP176

CYQR;2010-07-09 03:00;CYQR 090300Z 24006KT 15SM FEW035TCU FEW100 FEW280 18/13 A3003 RMK TCU1ACC1CI0 SLP174

CYQR;2010-07-09 04:00;CYQR 090400Z 24007KT 15SM VCSH FEW035TCU SCT078 BKN280 17/13 A3003 RMK TCU2AC2CI1 SLP174

CYQR;2010-07-09 05:00;CYQR 090500Z 25005KT 15SM SCT078 18/14 A3002 RMK AC4 SLP172

CYQR;2010-07-09 06:00;CYQR 090600Z 00000KT 15SM SKC 16/13 A3003 RMK SLP174

CYQR;2010-07-09 07:00;CYQR 090700Z 26004KT 15SM SKC 13/11 A3004 RMK SLP176

CYQR;2010-07-09 08:00;CYQR 090800Z 21005KT 15SM SKC 13/11 A3003 RMK SLP174

CYQR;2010-07-09 09:00;CYQR 090900Z 19005KT 15SM SKC 13/11 A3003 RMK SLP175

CYQR;2010-07-09 10:00;CYQR 091000Z 14002KT 15SM FEW100 12/11 A3001 RMK AC2 SLP169

CYQR;2010-07-09 11:00;CYQR 091100Z 19006KT 15SM FEW080 BKN100 BKN280 12/11 A3002 RMK ACC1AC4CI0 SLP172

CYQR;2010-07-09 12:00;CYQR 091200Z 20003KT 15SM VCSH FEW030TCU SCT071 BKN280 15/13 A3003 RMK TCU1ACC3CI1 SLP171

CYQR;2010-07-09 13:00;CYQR 091300Z 15002KT 15SM FEW030TCU SCT071 SCT280 17/15 A3001 RMK TCU1ACC2CI0 SLP167

CYQR;2010-07-09 14:00;CYQR 091400Z 19003KT 15SM FEW030TCU FEW085 FEW140 FEW310 20/15 A3000 RMK TCU1AC1AC1CI1 SLP164

CYQR;2010-07-09 15:00;CYQR 091500Z 35004KT 15SM FEW085 FEW150 22/14 A3001 RMK ACC1AC1 TCU DIST W SLP164

CYQR;2010-07-09 16:00;CYQR 091600Z 00000KT 15SM FEW036TCU FEW090 FEW150 23/14 A3000 RMK TCU1ACC1AC1 SLP161

CYQR;2010-07-09 17:00;CYQR 091700Z 32004KT 15SM FEW038TCU FEW090 24/14 A2999 RMK TCU1ACC1 SLP158

CYQR;2010-07-09 18:00;CYQR 091800Z 27007KT 15SM FEW044 FEW090 FEW150 26/15 A2998 RMK CU1ACC1AC1 SLP153

CYQR;2010-07-09 19:00;CYQR 091900Z 34004KT 15SM FEW044 FEW090 FEW150 27/15 A2996 RMK CU1ACC1AC1 TCU DIST E SLP146

CYQR;2010-07-09 20:00;CYQR 092000Z 25010G15KT 15SM FEW056TCU FEW090 28/14 A2994 RMK TCU2ACC1 SLP140

CYQR;2010-07-09 21:00;CYQR 092100Z 30011KT 15SM FEW066TCU FEW090 28/12 A2992 RMK TCU1ACC1 SLP133

CYQR;2010-07-09 22:00;CYQR 092200Z 27009KT 15SM FEW056TCU 28/14 A2990 RMK TCU2 CB DIST SE SLP127

CYQR;2010-07-09 23:00;CYQR 092300Z 30013KT 15SM FEW060 FEW350 28/13 A2989 RMK CU1CI1 CB DIST SE SLP124

CYQR;2010-07-10 00:00;CYQR 100000Z 29009KT 15SM FEW056 FEW090 FEW350 28/13 A2988 RMK CU1AC1CI1 SLP117

CYQR;2010-07-10 01:00;CYQR 100100Z 31005KT 15SM FEW056 FEW090 FEW350 27/15 A2986 RMK CU1AC1CI1 SLP113

CYQR;2010-07-10 02:00;CYQR 100200Z 34004KT 15SM FEW090 FEW350 25/17 A2986 RMK AC1CI1 TR AC SLP111

CYQR;2010-07-10 03:00;CYQR 100300Z 21002KT 15SM FEW090 FEW350 22/18 A2985 RMK ACC1CI1 TR ACC SLP105

CYQR;2010-07-10 04:00;CYQR 100400Z 15004KT 15SM FEW090 SCT350 20/15 A2983 RMK AC2CI0 SLP100

CYQR;2010-07-10 05:00;CYQR 100500Z 17007KT 15SM SCT350 19/15 A2982 RMK CI3 SLP096

CYQR;2010-07-10 06:00;CYQR 100600Z 18007KT 15SM OVC300 18/14 A2980 RMK CI8 SLP090

CYQR;2010-07-10 07:00;CYQR 100700Z 36020G28KT 15SM FEW100 SCT300 20/14 A2983 RMK AC1CI2 SLP099

CYQR;2010-07-10 08:00;CYQR 100800Z 04012G18KT 15SM SCT300 17/13 A2981 RMK CI2 SLP095

CYQR;2010-07-10 09:00;CYQR 100900Z 05010KT 15SM SKC 17/13 A2982 RMK SLP095

CYQR;2010-07-10 10:00;CYQR 101000Z 04008KT 15SM FEW300 17/12 A2981 RMK CI2 SLP092

CYQR;2010-07-10 11:00;CYQR 101100Z 10006KT 15SM VCSH BKN080 BKN100 BKN300 16/12 A2978 RMK AC5AC1CI0 ACC EMBD SLP083

CYQR;2010-07-10 12:00;CYQR 101200Z 20004KT 15SM SCT090 BKN300 15/12 A2977 RMK AC3CI1 ACC EMBD SLP082

CYQR;2010-07-10 13:00;CYQR 101300Z 13003KT 15SM SCT093 BKN160 BKN320 16/13 A2976 RMK AC4AC1CI2 ACC EMBD SLP079

CYQR;2010-07-10 14:00;CYQR 101400Z 31007KT 15SM FEW018 BKN060 BKN160 BKN320 17/14 A2980 RMK CF1SC5AC2CI1 ACC EMBD SLP090

CYQR;2010-07-10 15:00;CYQR 101500Z 32007KT 15SM SCT086 BKN320 19/15 A2980 RMK AC3CI0 ACC ASOCTD SLP092

CYQR;2010-07-10 16:00;CYQR 101600Z 33011KT 15SM SCT076 BKN320 22/16 A2980 RMK AC3CI2 SLP092

CYQR;2010-07-10 17:00;CYQR 101700Z 34009KT 15SM SCT076 BKN160 OVC320 22/16 A2980 RMK AC4AC1CI2 SLP091

CYQR;2010-07-10 18:00;CYQR 101800Z 35011KT 15SM FEW028 BKN063 OVC081 21/15 A2981 RMK CU1SC5AC2 SLP097

CYQR;2010-07-10 19:00;CYQR 101900Z 34012KT 15SM FEW028 BKN065 OVC080 21/15 A2983 RMK CU1SC5AC3 SLP104

CYQR;2010-07-10 20:00;CYQR 102000Z 34012KT 15SM FEW028 SCT097 OVC140 21/14 A2984 RMK CU2AC1AC5 SLP107

CYQR;2010-07-10 21:00;CYQR 102100Z 36013KT 15SM FEW028 BKN089 BKN140 BKN300 21/14 A2986 RMK CU1AC4AC2CI1 SLP114

CYQR;2010-07-10 22:00;CYQR 102200Z 35013KT 15SM FEW032TCU BKN140 OVC300 22/15 A2986 RMK TCU2AC3CI2 SLP115

CYQR;2010-07-10 23:00;CYQR 102300Z 33013KT 15SM FEW035 SCT140 OVC300 21/14 A2986 RMK CU2AC1CI1 SLP116

CYQR;2010-07-11 00:00;CYQR 110000Z 35012KT 15SM FEW037 FEW140 BKN300 22/13 A2986 RMK CU1AC1CI2 SLP117

CYQR;2010-07-11 01:00;CYQR 110100Z 34011KT 15SM FEW028 FEW140 BKN300 20/13 A2987 RMK CU1AC1CI2 CU TR SLP118

CYQR;2010-07-11 02:00;CYQR 110200Z 34008KT 15SM FEW024TCU SCT082 SCT140 BKN300 19/13 A2987 RMK TCU2AC2AC1CI1 TR AC ACC ASOCTD SLP118

CYQR;2010-07-11 03:00;CYQR 110300Z 36007KT 15SM FEW090 SCT230 BKN300 16/12 A2988 RMK AC1CI1CI1 SLP124

CYQR;2010-07-11 04:00;CYQR 110400Z 35006KT 15SM FEW090 SCT230 BKN300 14/11 A2990 RMK AC1CI1CI1 ACC ASOCTD SLP130

CYQR;2010-07-11 05:00;CYQR 110500Z 35007KT 15SM FEW090 SCT230 BKN300 12/10 A2991 RMK AC1CI1CI1 SLP132

CYQR;2010-07-11 06:00;CYQR 110600Z 30003KT 15SM FEW090 SCT230 BKN300 11/10 A2993 RMK AC1CI1CI1 SLP141

CYQR;2010-07-11 07:00;CYQR 110700Z 32006KT 15SM FEW044 FEW095 BKN280 10/10 A2994 RMK SC2AC1CI1 SLP144

CYQR;2010-07-11 08:00;CYQR 110800Z 33006KT 15SM FEW052 FEW085 BKN280 10/09 A2994 RMK SC2AC1CI1 SLP146

CYQR;2010-07-11 09:00;CYQR 110900Z 34005KT 15SM SCT043 BKN280 11/10 A2995 RMK SC3CI1 SLP148

CYQR;2010-07-11 10:00;CYQR 111000Z 34007KT 15SM SCT045 BKN280 11/09 A2995 RMK SC3CI1 SLP148

CYQR;2010-07-11 11:00;CYQR 111100Z 33006KT 15SM SCT041 BKN280 09/07 A2996 RMK SC3CI1 SLP151

CYQR;2010-07-11 12:00;CYQR 111200Z 32004KT 15SM FEW058 BKN280 09/08 A2998 RMK SC2CI1 SLP160

CYQR;2010-07-11 13:00;CYQR 111300Z 33004KT 15SM FEW060 FEW280 11/10 A2998 RMK SC1CI1 SLP161

CYQR;2010-07-11 14:00;CYQR 111400Z 36006KT 15SM FEW060 FEW150 14/10 A2999 RMK CU1AC1 SLP162

CYQR;2010-07-11 15:00;CYQR 111500Z 34006KT 15SM FEW150 16/10 A2999 RMK AC1 SLP161

CYQR;2010-07-11 16:00;CYQR 111600Z 01004KT 15SM FEW032 FEW150 18/09 A2998 RMK CU1AC1 SLP160

CYQR;2010-07-11 17:00;CYQR 111700Z 35008KT 15SM FEW050 FEW150 18/07 A2998 RMK CU1AC1 SLP159

CYQR;2010-07-11 18:00;CYQR 111800Z 29003KT 15SM FEW050 FEW150 19/07 A2997 RMK CU1AC1 SLP158

CYQR;2010-07-11 19:00;CYQR 111900Z 00000KT 15SM FEW054 19/07 A2996 RMK CU2 SLP155

CYQR;2010-07-11 20:00;CYQR 112000Z 34004KT 15SM FEW055 FEW150 20/08 A2995 RMK CF1AC1 SLP149

CYQR;2010-07-11 21:00;CYQR 112100Z 06004KT 15SM FEW055 FEW150 20/08 A2993 RMK CF1AC1 SLP141

CYQR;2010-07-11 22:00;CYQR 112200Z 01006KT 15SM FEW055 20/08 A2991 RMK SC1 SLP135

CYQR;2010-07-11 23:00;CYQR 112300Z 26004KT 15SM FEW055 21/08 A2989 RMK SC1 SLP130

CYQR;2010-07-12 00:00;CYQR 120000Z 20002KT 15SM FEW055 21/08 A2988 RMK SC1 SLP125

CYQR;2010-07-12 01:00;CYQR 120100Z 22003KT 15SM FEW055 FEW250 20/08 A2986 RMK SC1CI0 TR SC SLP118

CYQR;2010-07-12 02:00;CYQR 120200Z 19003KT 15SM FEW055 FEW250 19/09 A2984 RMK SC1CI1 SLP113

CYQR;2010-07-12 03:00;CYQR 120300Z 16002KT 15SM SCT260 18/09 A2983 RMK CI1 SLP108

CYQR;2010-07-12 04:00;CYQR 120400Z 14006KT 15SM SCT260 14/07 A2983 RMK CI1 SLP107

CYQR;2010-07-12 05:00;CYQR 120500Z 14007KT 15SM SCT260 13/08 A2982 RMK CI1 SLP105

CYQR;2010-07-12 06:00;CYQR 120600Z 14009KT 15SM SCT260 14/09 A2981 RMK CI1 SLP101

CYQR;2010-07-12 07:00;CYQR 120700Z 15008KT 15SM SCT260 13/08 A2979 RMK CI1 SLP095

CYQR;2010-07-12 08:00;CYQR 120800Z 15010KT 15SM SCT260 12/08 A2977 RMK CI1 SLP088

CYQR;2010-07-12 09:00;CYQR 120900Z 15009KT 15SM SCT260 11/08 A2975 RMK CI1 SLP081

CYQR;2010-07-12 10:00;CYQR 121000Z 14009KT 15SM SCT260 11/08 A2974 RMK CI1 SLP077

CYQR;2010-07-12 11:00;CYQR 121100Z 15009KT 15SM FEW080 BKN260 10/08 A2973 RMK AC2CI1 SLP075

CYQR;2010-07-12 12:00;CYQR 121200Z 14010KT 15SM FEW081 BKN260 10/08 A2971 RMK AC2CI1 SLP068

CYQR;2010-07-12 13:00;CYQR 121300Z 15010KT 15SM FEW080 BKN260 13/10 A2970 RMK AC1CI2 TR AC SLP063

CYQR;2010-07-12 14:00;CYQR 121400Z 15012KT 15SM FEW080 FEW160 BKN260 17/13 A2967 RMK AC1AC1CI2 SLP053

CYQR;2010-07-12 15:00;CYQR 121500Z 16015G20KT 15SM FEW020 FEW080 BKN320 20/15 A2965 RMK CU1ACC1CI1 SLP042

CYQR;2010-07-12 16:00;CYQR 121600Z 16022KT 15SM FEW025 BKN320 21/15 A2963 RMK CU2CI1 SLP036

CYQR;2010-07-12 17:00;CYQR 121700Z 18020G28KT 15SM FEW033 BKN320 22/14 A2961 RMK CU1CI2 SLP031

CYQR;2010-07-12 18:00;CYQR 121800Z 18023KT 15SM FEW036 FEW080 BKN320 23/14 A2960 RMK CU2AC1CI1 SLP025

CYQR;2010-07-12 19:00;CYQR 121900Z 18018G26KT 15SM FEW042 FEW080 BKN320 25/15 A2957 RMK CU2AC1CI2 CC EMBD SLP017

CYQR;2010-07-12 20:00;CYQR 122000Z 15018G26KT 15SM SCT046 BKN080 BKN320 25/15 A2955 RMK CU3AC2CI1 SLP008

CYQR;2010-07-12 21:00;CYQR 122100Z 17020G28KT 15SM BKN048 BKN320 26/15 A2953 RMK CU6CI1 SLP003

CYQR;2010-07-12 22:00;CYQR 122200Z 15021G27KT 15SM BKN056 BKN120 25/15 A2951 RMK CU6AC1 SLP996

CYQR;2010-07-12 23:00;CYQR 122300Z 15021G33KT 15SM FEW044 FEW120 BKN320 25/16 A2948 RMK CU2AC1CI3 CB W SLP986

CYQR;2010-07-13 00:00;CYQR 130000Z 14019G26KT 15SM SCT050CB SCT120 BKN320 23/16 A2946 RMK CB3AC1CI4 CB W-NW SLP979

CYQR;2010-07-13 00:40;CYQR 130040Z 14021KT 15SM -SHRA SCT020CB BKN050 BKN120 OVC320 23/ RMK CB3SC2AC2CI2 CB W-NW

CYQR;2010-07-13 01:00;CYQR 130100Z 14019KT 15SM -SHRA BKN018CB BKN050 BKN120 OVC320 21/16 A2945 RMK CB5SC1AC2CI1 CB SW-N SLP975

CYQR;2010-07-13 01:04;CYQR 130104Z CCA 14015G25KT 15SM -TSRA BKN018CB OVC071 21/ RMK CB5AC3 LTGCG

CYQR;2010-07-13 01:05;CYQR 130105Z 14015G25KT 15SM -TSRA BKN018CB OVC050 21/ RMK CB5SC3 LTGCG

CYQR;2010-07-13 02:00;CYQR 130200Z 12018G24KT 15SM -TSRA BKN018CB OVC085 20/16 A2942 RMK CB5AC3 LTGCG SLP966

CYQR;2010-07-13 03:00;CYQR 130300Z 14004KT 15SM -TSRA BKN023CB OVC090 19/17 A2949 RMK CB6AC2 LTGCG PRESRR SLP988

CYQR;2010-07-13 04:00;CYQR 130400Z 14019G27KT 15SM -TSRA BKN027CB BKN090 18/16 A2945 RMK CB6AC2 LTGCC LTGCG PRESFR SLP973

CYQR;2010-07-13 04:35;CYQR 130435Z 13017G24KT 15SM TS BKN027CB BKN090 17/ RMK CB6AC2 LTGCC

CYQR;2010-07-13 05:00;CYQR 130500Z 14020G27KT 15SM TS BKN030CB BKN085 17/16 A2943 RMK CB5AC2 LTGCCIC SLP967

CYQR;2010-07-13 05:11;CYQR 130511Z 16012G19KT 15SM -TSRA FEW030 BKN071CB 17/ RMK CF2CB5 LTGCCCG

CYQR;2010-07-13 05:18;CYQR 130518Z 11006KT 10SM TSRA FEW034 BKN071CB 16/ RMK CF2CB5 LTGCCIC

CYQR;2010-07-13 05:28;CYQR 130528Z 10012KT 15SM -TSRA FEW034 BKN071CB 16/ RMK CF2CB5 RERA LTGCCCG

CYQR;2010-07-13 06:00;CYQR 130600Z 14020G26KT 15SM -TSRA FEW034 BKN075CB 17/16 A2942 RERA RMK CF2CB5 LTGCCCG SLP962

CYQR;2010-07-13 06:20;CYQR 130620Z 14018KT 15SM TS SCT048 OVC080CB 17/ RMK SC4CB4 LTGCCCG

CYQR;2010-07-13 06:39;CYQR 130639Z 13015KT 15SM SCT048 BKN100 OVC230 17/ RETS RMK SC3AC2CI1

CYQR;2010-07-13 06:45;CYQR 130645Z 14015KT 15SM TS OVC091 17/ RMK AC8 CB S

CYQR;2010-07-13 06:47;CYQR 130647Z CCA 14015KT 15SM TS OVC091 17/ RMK AC8 CB S LTGCC

CYQR;2010-07-13 07:00;CYQR 130700Z 13012G18KT 15SM TS FEW080CB SCT120 BKN260 17/15 A2941 RMK CB2AC2CI1 LTGCCCG CB SOUTH SLP960

CYQR;2010-07-13 07:19;CYQR 130719Z 15008G15KT 15SM FEW090 BKN260 17/ RETS RMK AC2CI2

CYQR;2010-07-13 08:00;CYQR 130800Z 16007KT 15SM FEW090 BKN260 16/14 A2944 RMK AC2CI1 SLP967

CYQR;2010-07-13 09:00;CYQR 130900Z 23007G15KT 15SM BKN043 15/14 A2949 RMK SC6 SLP984

CYQR;2010-07-13 09:54;CYQR 130954Z 24011KT 15SM SCT008 BKN035 OVC068 16/ RMK SF4SC2AC2

CYQR;2010-07-13 10:00;CYQR 131000Z 27012KT 15SM SCT008 BKN035 OVC068 16/15 A2950 RMK SF4SC2AC2 SLP987

CYQR;2010-07-13 11:00;CYQR 131100Z 28013KT 15SM FEW049 SCT061TCU BKN260 13/12 A2951 RMK SC2TCU2CI1 SLP993

CYQR;2010-07-13 12:00;CYQR 131200Z 28012KT 15SM FEW040 12/09 A2956 RMK SC2 SLP011

CYQR;2010-07-13 13:00;CYQR 131300Z 28013KT 15SM FEW040 12/09 A2956 RMK SC1 SLP013

CYQR;2010-07-13 14:00;CYQR 131400Z 27015G24KT 15SM FEW019 13/09 A2958 RMK CU1 SLP018

CYQR;2010-07-13 15:00;CYQR 131500Z 27017KT 15SM FEW021 14/09 A2959 RMK CU1 SLP023

CYQR;2010-07-13 16:00;CYQR 131600Z 27015KT 15SM FEW025 FEW190 15/09 A2960 RMK CU2AC1 SLP027

CYQR;2010-07-13 17:00;CYQR 131700Z 27011G18KT 15SM FEW029 FEW190 17/10 A2960 RMK CU1AC1 SLP028

CYQR;2010-07-13 18:00;CYQR 131800Z 28009G15KT 15SM BKN035 BKN300 17/09 A2962 RMK CU6CI1 SLP033

CYQR;2010-07-13 19:00;CYQR 131900Z 25009KT 15SM BKN039 18/09 A2962 RMK CU6 SLP035

CYQR;2010-07-13 20:00;CYQR 132000Z CCA 22010G15KT 15SM BKN044 18/08 A2962 RMK CU5 TCU EMBD SH DIST SW SLP035

CYQR;2010-07-13 20:32;CYQR 132032Z 16007G15KT 15SM TS BKN046CB 18/ RMK CB6 LTGCG SW

CYQR;2010-07-13 20:38;CYQR 132038Z 18009KT 15SM -TSRA BKN046CB RMK CB6 VIS SW 4SM BR

CYQR;2010-07-13 20:46;CYQR 132046Z 16010G22KT 6SM -TSRAGR FEW010CB BKN046TCU 15/ RERA RMK CB2TCU4 HAIL DIAM 5MM

CYQR;2010-07-13 21:00;CYQR 132100Z 14012G32KT 12SM -TSRA BKN010CB BKN046TCU 12/08 A2962 RERAGR RMK CB5TCU2 CB ALQDS SLP040

CYQR;2010-07-13 21:23;CYQR 132123Z 19005KT 15SM SCT024CB BKN052TCU BKN330 16/ RETS RMK CB4TCU2CI0 CB E-SE TCU + SHWRS W-NW

CYQR;2010-07-13 22:00;CYQR 132200Z 16008KT 15SM SCT052CB BKN330 18/11 A2960 RETS RMK CB3CI1 SLP033

CYQR;2010-07-13 23:00;CYQR 132300Z 19016KT 15SM FEW042 FEW100 FEW330 20/09 A2959 RMK CU2AC1CI0 CB DIST SE SHWRS NW-N SLP028

CYQR;2010-07-14 00:00;CYQR 140000Z 20011G18KT 15SM SCT036 BKN093 BKN330 19/10 A2956 RMK CU3AC2CI1 SLP017

CYQR;2010-07-14 01:00;CYQR 140100Z 20007KT 15SM SCT030 BKN100 BKN330 18/11 A2957 RMK CU4AC3CI1 SLP018

CYQR;2010-07-14 02:00;CYQR 140200Z 19008KT 15SM BKN073 17/11 A2958 RMK ACC7 VIRGA SLP022

CYQR;2010-07-14 03:00;CYQR 140300Z 30012KT 15SM BKN077 15/09 A2962 RMK ACC7 VIRGA SLP038

CYQR;2010-07-14 03:38;CYQR 140338Z 24004G17KT 15SM -SHRA BKN028 OVC077 14/ RMK SC5ACC3

CYQR;2010-07-14 04:00;CYQR 140400Z 23004KT 15SM -SHRA BKN028 OVC080 13/09 A2962 RMK SC6ACC2 SLP038

CYQR;2010-07-14 04:16;CYQR 140416Z 30014KT 15SM BKN028 OVC094 13/ RMK SC6AC2

CYQR;2010-07-14 04:36;CYQR 140436Z 28007KT 15SM -SHRA OVC049 12/ RMK SC8

CYQR;2010-07-14 05:00;CYQR 140500Z 25009KT 10SM -SHRA OVC047 12/10 A2964 RMK SC8 SLP044

CYQR;2010-07-14 06:00;CYQR 140600Z 20012KT 8SM -SHRA OVC028 11/10 A2963 RMK SC8 BR SLP042

CYQR;2010-07-14 06:47;CYQR 140647Z 20014KT 15SM SCT028 OVC041 12/ RMK SC4SC4

CYQR;2010-07-14 07:00;CYQR 140700Z 20016KT 15SM SCT026 OVC041 12/10 A2961 RMK SC4SC4 SLP037

CYQR;2010-07-14 07:01;CYQR 140701Z 20016KT 15SM -SHRA SCT026 OVC041 12/ RMK SC4SC4

CYQR;2010-07-14 08:00;CYQR 140800Z 21017G24KT 15SM -SHRA BKN026 OVC058 12/10 A2960 RMK SC5SC3 SLP031

CYQR;2010-07-14 09:00;CYQR 140900Z 22015KT 15SM -SHRA OVC048 12/10 A2957 RMK SC8 SLP024

CYQR;2010-07-14 09:40;CYQR 140940Z 23017KT 15SM SCT021 BKN047 OVC082 12/ RMK SC3SC3AC2

CYQR;2010-07-14 10:00;CYQR 141000Z 23018G24KT 15SM SCT036 BKN072 12/09 A2957 RMK SC4ACC2 SLP024

CYQR;2010-07-14 11:00;CYQR 141100Z 24015G20KT 15SM BKN018 OVC058 11/09 A2957 RMK SC6SC2 SLP024

CYQR;2010-07-14 11:25;CYQR 141125Z 24016KT 15SM OVC014 11/ RMK SC8

CYQR;2010-07-14 11:33;CYQR 141133Z 24018KT 2SM -RA BR OVC014 10/ RMK FG2SC6

CYQR;2010-07-14 11:46;CYQR 141146Z 22014G20KT 2SM -RA BR OVC008 10/ RMK FG2SF6

CYQR;2010-07-14 11:52;CYQR 141152Z 22014G19KT 3SM -RA BR OVC007 10/ RMK FG1SF7

CYQR;2010-07-14 12:00;CYQR 141200Z 22015KT 6SM -RA BR BKN007 OVC040 10/09 A2956 RMK SF6SC2 SLP017

CYQR;2010-07-14 12:50;CYQR 141250Z 28021G31KT 15SM OVC010 11/ RMK SC8

CYQR;2010-07-14 13:00;CYQR 141300Z 28021G29KT 15SM OVC010 11/09 A2956 RMK SC8 SLP017

CYQR;2010-07-14 13:42;CYQR 141342Z 29017G22KT 15SM BKN009 BKN044 12/ RMK SC6SC1 CIG RAG

CYQR;2010-07-14 14:00;CYQR 141400Z 30017KT 15SM OVC009 12/11 A2959 RMK SC8 CIG RAG SLP025

CYQR;2010-07-14 14:07;CYQR 141407Z 30018KT 6SM -RA BR BKN007 OVC058 12/ RMK SC7SC1 CIG RAG

CYQR;2010-07-14 15:00;CYQR 141500Z 31021G28KT 15SM BKN007 BKN070 13/12 A2961 RMK SF6AC1 SHWRS E VIS E-SE 4 SLP036

CYQR;2010-07-14 15:22;CYQR 141522Z 31024G31KT 10SM -SHRA BKN011 13/ RMK CU7 CIG RAG

CYQR;2010-07-14 16:00;CYQR 141600Z 31023G31KT 15SM VCSH BKN011 OVC031 13/11 A2965 RMK SC5SC3 SH NW-E SLP047

CYQR;2010-07-14 16:42;CYQR 141642Z 31025G34KT 15SM -SHRA BKN013 OVC033 14/ RMK SC6SC2 CVCTV CLD EMBD VIS NE 5SM BR

CYQR;2010-07-14 17:00;CYQR 141700Z 31024G31KT 15SM BKN016 15/12 A2967 RMK CU7 SLP055

CYQR;2010-07-14 17:04;CYQR 141704Z 31025G31KT 10SM -SHRA BKN016 15/ RMK CU7

CYQR;2010-07-14 17:28;CYQR 141728Z 31022G32KT 15SM BKN008 14/ RMK CU6 OCNL -SHRA

CYQR;2010-07-14 18:00;CYQR 141800Z 32024G29KT 15SM FEW008 BKN021 14/12 A2970 RMK SF1CU6 OCNL -SHRA SLP068

CYQR;2010-07-14 19:00;CYQR 141900Z 31022G29KT 15SM FEW021 BKN034 15/11 A2974 RMK SC2CU6 SLP079

CYQR;2010-07-14 20:00;CYQR 142000Z 33023KT 15SM FEW020 BKN027 BKN066 BKN300 16/11 A2977 RMK SC1CU6AC1CI0 SLP090

CYQR;2010-07-14 21:00;CYQR 142100Z 33016KT 15SM SCT031 BKN054 16/11 A2979 RMK CU3SC4 SLP097

CYQR;2010-07-14 22:00;CYQR 142200Z 30020G30KT 15SM BKN034 18/12 A2981 RMK CU7 TCU N SLP101

CYQR;2010-07-14 23:00;CYQR 142300Z 31016G26KT 15SM BKN039 BKN170 18/12 A2982 RMK CU5AC1 SLP107

CYQR;2010-07-15 00:00;CYQR 150000Z 31018G25KT 15SM FEW036 FEW071 FEW170 19/11 A2983 RMK CU1AC1AC1 SLP109

CYQR;2010-07-15 01:00;CYQR 150100Z 30013KT 15SM FEW032 FEW073 FEW300 19/11 A2983 RMK CU1AC1CI1 SLP108

CYQR;2010-07-15 02:00;CYQR 150200Z 28006KT 15SM FEW032 SCT071 SCT300 16/11 A2983 RMK CU1AC3CI0 SLP110

CYQR;2010-07-15 03:00;CYQR 150300Z 27007KT 15SM FEW032 SCT071 SCT300 16/12 A2983 RMK CU1AC3CI0 SLP110

CYQR;2010-07-15 04:00;CYQR 150400Z 27006KT 15SM FEW071 SCT300 13/12 A2983 RMK AC2CI0 SLP110

CYQR;2010-07-15 05:00;CYQR 150500Z 25007KT 15SM FEW072 SCT300 13/12 A2983 RMK AC2CI0 SLP110

CYQR;2010-07-15 06:00;CYQR 150600Z 25008KT 15SM FEW300 13/12 A2983 RMK CI0 SLP110

CYQR;2010-07-15 07:00;CYQR 150700Z 25009KT 15SM FEW280 13/12 A2982 RMK CI0 SLP109

CYQR;2010-07-15 08:00;CYQR 150800Z 27010KT 15SM FEW080 FEW280 14/13 A2984 RMK AC2CI0 SLP113

CYQR;2010-07-15 08:59;CYQR 150859Z 29012KT 8SM -SHRA OVC022 14/ RMK SC8

CYQR;2010-07-15 09:00;CYQR 150900Z 29012KT 8SM -SHRA OVC022 14/14 A2984 RMK SC8 SLP111

CYQR;2010-07-15 09:28;CYQR 150928Z 27007KT 3SM BR BKN022 BKN068 14/ RMK SC5AC1

CYQR;2010-07-15 10:00;CYQR 151000Z 29009KT 6SM BR SCT050 SCT061 BKN070 14/13 A2982 RMK SC3SC1AC1 SLP105

CYQR;2010-07-15 11:00;CYQR 151100Z 28010KT 3SM BR FEW070 SCT110 BKN260 14/14 A2984 RMK AC2AC2CI2 SLP111

CYQR;2010-07-15 12:00;CYQR 151200Z 28009KT 6SM BR FEW110 SCT260 14/14 A2985 RMK AC2CI0 SLP112

CYQR;2010-07-15 13:00;CYQR 151300Z 28011KT 15SM FEW110 SCT260 15/14 A2986 RMK AC2CI0 SLP117

CYQR;2010-07-15 14:00;CYQR 151400Z 28009KT 10SM FEW008 BKN046 BKN260 16/15 A2987 RMK SF1SC6CI1 SF TR SLP120

CYQR;2010-07-15 15:00;CYQR 151500Z 27012KT 15SM FEW016 BKN046 18/16 A2989 RMK SC2SC2 SLP126

CYQR;2010-07-15 16:00;CYQR 151600Z 30011KT 12SM FEW012 BKN039 20/17 A2988 RMK CF1SC2 SLP125

CYQR;2010-07-15 17:00;CYQR 151700Z 30012G17KT 12SM SCT019 OVC300 21/17 A2988 RMK CU3CI1 SLP125

CYQR;2010-07-15 18:00;CYQR 151800Z 30012G17KT 12SM FEW023 OVC300 22/18 A2989 RMK CU2CI2 SLP127

CYQR;2010-07-15 19:00;CYQR 151900Z 31012G20KT 12SM BKN023 OVC300 22/17 A2990 RMK CU5CI2 SLP129

CYQR;2010-07-15 20:00;CYQR 152000Z 31015G21KT 12SM SCT029 OVC300 23/17 A2989 RMK CU3CI1 SLP127

CYQR;2010-07-15 21:00;CYQR 152100Z 31017KT 10SM SCT032 24/17 A2989 RMK CU3 TCU ASOCTD SLP124

CYQR;2010-07-15 22:00;CYQR 152200Z 32011G17KT 12SM VCSH SCT039TCU 24/17 A2989 RMK TCU3 SH SW SLP124

CYQR;2010-07-15 23:00;CYQR 152300Z 30008KT 15SM SCT041TCU SCT078 24/17 A2988 RMK TCU3AC1 SLP121

CYQR;2010-07-16 00:00;CYQR 160000Z 31010KT 15SM FEW041TCU FEW120 FEW320 25/17 A2987 RMK TCU1AC1CI0 SLP118

CYQR;2010-07-16 01:00;CYQR 160100Z 30009KT 15SM FEW040TCU FEW120 FEW320 25/17 A2987 RMK TCU1AC1CI1 CB E SLP117

CYQR;2010-07-16 02:00;CYQR 160200Z 36008KT 15SM FEW040TCU FEW120 FEW320 21/16 A2988 RMK TCU1AC1CI1 CB E SLP121

CYQR;2010-07-16 03:00;CYQR 160300Z 02002KT 15SM FEW120 20/16 A2988 RMK ACC1 SLP122

CYQR;2010-07-16 04:00;CYQR 160400Z 00000KT 15SM FEW092 17/16 A2990 RMK AC2 SLP126

CYQR;2010-07-16 05:00;CYQR 160500Z 28002KT 15SM SKC 16/15 A2990 RMK SLP128

CYQR;2010-07-16 06:00;CYQR 160600Z 22006KT 15SM SKC 14/13 A2990 RMK SLP129

CYQR;2010-07-16 07:00;CYQR 160700Z 00000KT 15SM SKC 13/12 A2991 RMK SLP133

CYQR;2010-07-16 08:00;CYQR 160800Z 00000KT 15SM SKC 14/13 A2991 RMK SLP134

CYQR;2010-07-16 09:00;CYQR 160900Z 19003KT 15SM SKC 13/12 A2991 RMK SLP132

CYQR;2010-07-16 10:00;CYQR 161000Z CCA 22003KT 15SM R13/3000VP6000FT/U BCFG FEW110 11/11 A2991 RMK AC1 SLP133

CYQR;2010-07-16 11:00;CYQR 161100Z 23002KT 6SM R13/2600FT/N BR MIFG FEW110 11/10 A2992 RMK AC1 VIS W 11/2 SLP135

CYQR;2010-07-16 12:00;CYQR 161200Z 00000KT 15SM FEW260 12/11 A2993 RMK CI1 SLP139

CYQR;2010-07-16 13:00;CYQR 161300Z 00000KT 15SM FEW020 17/16 A2993 RMK SC1 SLP140

CYQR;2010-07-16 14:00;CYQR 161400Z 19004KT 15SM FEW020 17/15 A2994 RMK CU1 SLP141

CYQR;2010-07-16 15:00;CYQR 161500Z 19003KT 12SM FEW020 20/17 A2994 RMK CU1 SLP141

CYQR;2010-07-16 16:00;CYQR 161600Z 19003KT 12SM FEW020 23/16 A2994 RMK SC1 SLP140

CYQR;2010-07-16 17:00;CYQR 161700Z 14005KT 12SM FEW020 25/15 A2993 RMK SC1 SLP137

CYQR;2010-07-16 18:00;CYQR 161800Z 11005KT 15SM FEW015 FEW075 26/15 A2992 RMK CU1AC1 SLP133

CYQR;2010-07-16 19:00;CYQR 161900Z 13004KT 12SM FEW040 27/15 A2990 RMK CU1 SLP128

CYQR;2010-07-16 20:00;CYQR 162000Z 14010KT 15SM FEW045 27/15 A2988 RMK CU1 SLP122

CYQR;2010-07-16 21:00;CYQR 162100Z 17009KT 15SM FEW045 28/15 A2987 RMK CU1 SLP115

CYQR;2010-07-16 22:00;CYQR 162200Z 11013KT 15SM FEW045 FEW300 28/16 A2985 RMK CU1CI1 SLP109

CYQR;2010-07-16 23:00;CYQR 162300Z 12014G19KT 15SM FEW045 SCT300 28/16 A2984 RMK CU1CI1 SLP105

CYQR;2010-07-17 00:00;CYQR 170000Z 12015G21KT 15SM FEW045 BKN300 27/16 A2981 RMK CU1CI0 SLP097

CYQR;2010-07-17 01:00;CYQR 170100Z 12016KT 15SM FEW045TCU BKN300 25/16 A2980 RMK TCU1CI4 SLP093

CYQR;2010-07-17 02:00;CYQR 170200Z 12013KT 15SM FEW045TCU BKN300 24/17 A2979 RMK TCU1CI4 SLP089

CYQR;2010-07-17 03:00;CYQR 170300Z 13013KT 15SM FEW040TCU FEW140 BKN300 22/17 A2977 RMK TCU1AC1CI2 SLP080

CYQR;2010-07-17 04:00;CYQR 170400Z 13018KT 15SM FEW140 FEW300 21/15 A2975 RMK AC1CI2 SLP073

CYQR;2010-07-17 05:00;CYQR 170500Z 14016G26KT 15SM FEW300 21/15 A2973 RMK CI2 SLP069

CYQR;2010-07-17 05:51;CYQR 170551Z 15015G20KT 15SM -SHRA SCT050 20/ RMK SC4

CYQR;2010-07-17 06:00;CYQR 170600Z 15016KT 15SM SCT050 20/15 A2974 RMK SC4 SLP068

CYQR;2010-07-17 07:00;CYQR 170700Z 30002KT 15SM FEW050CB 18/15 A2976 RMK CB1 LTNG DIST E SLP076

CYQR;2010-07-17 08:00;CYQR 170800Z 13007KT 12SM FEW050CB BKN100 18/16 A2975 RMK CB1AC4 CB LTNG NE-E SLP070

CYQR;2010-07-17 09:00;CYQR 170900Z 00000KT 12SM OVC100 17/16 A2976 RMK AC6 SLP077

CYQR;2010-07-17 10:00;CYQR 171000Z 00000KT 12SM SCT110 BKN230 17/15 A2977 RMK AC3CI2 SLP079

CYQR;2010-07-17 10:49;CYQR 171049Z 33020G27KT 12SM BKN007 BKN110 15/ RMK SF5AC1

CYQR;2010-07-17 11:00;CYQR 171100Z 33023G28KT 15SM OVC005 15/14 A2981 RMK ST8 SLP090

CYQR;2010-07-17 11:05;CYQR 171105Z 32021G27KT 15SM OVC004 15/ RMK ST8

CYQR;2010-07-17 12:00;CYQR 171200Z 33022G28KT 15SM OVC005 14/13 A2984 RMK ST8 SLP106

CYQR;2010-07-17 12:09;CYQR 171209Z 33019G26KT 15SM OVC007 14/ RMK ST8

CYQR;2010-07-17 13:00;CYQR 171300Z 33021G28KT 15SM OVC009 15/12 A2986 RMK SC8 SLP113

CYQR;2010-07-17 13:49;CYQR 171349Z 34023G28KT 15SM OVC010 15/ RMK SC8

CYQR;2010-07-17 14:00;CYQR 171400Z 34021G27KT 15SM OVC010 15/12 A2989 RMK SC8 SLP122

CYQR;2010-07-17 15:00;CYQR 171500Z 32017G25KT 15SM BKN012 16/13 A2991 RMK SC5 SLP133

CYQR;2010-07-17 16:00;CYQR 171600Z 33015G24KT 15SM SCT018 18/13 A2993 RMK SC4 CU EMBD SLP137

CYQR;2010-07-17 17:00;CYQR 171700Z 32019G24KT 15SM SCT024 19/12 A2995 RMK CU4 SLP143

CYQR;2010-07-17 18:00;CYQR 171800Z 32016G24KT 15SM FEW029 20/13 A2996 RMK SC2 SLP147

CYQR;2010-07-17 19:00;CYQR 171900Z 32020KT 15SM FEW034 20/12 A2996 RMK CU2 SLP149

CYQR;2010-07-17 20:00;CYQR 172000Z 32021G26KT 15SM FEW040 22/11 A2996 RMK CU2 SLP148

CYQR;2010-07-17 21:00;CYQR 172100Z 32018G27KT 15SM FEW045 21/11 A2996 RMK CU2 SLP150

CYQR;2010-07-17 22:00;CYQR 172200Z 32014G22KT 15SM FEW045 23/11 A2996 RMK CU2 SLP148

CYQR;2010-07-17 23:00;CYQR 172300Z 31013G19KT 15SM SCT058 23/12 A2996 RMK CU3 SLP147

CYQR;2010-07-18 00:00;CYQR 180000Z 31014G21KT 15SM FEW050 22/11 A2995 RMK CU1 SLP147

CYQR;2010-07-18 01:00;CYQR 180100Z 31012G19KT 15SM FEW050 22/11 A2996 RMK CU1 SLP148

CYQR;2010-07-18 02:00;CYQR 180200Z 31007KT 15SM FEW050 20/12 A2995 RMK CU1 SLP147

CYQR;2010-07-18 03:00;CYQR 180300Z 26004KT 15SM FEW050 17/12 A2996 RMK SC1 SLP150

CYQR;2010-07-18 04:00;CYQR 180400Z 23006KT 15SM FEW050 13/10 A2996 RMK SC1 SLP152

CYQR;2010-07-18 05:00;CYQR 180500Z 25007KT 15SM FEW050 11/09 A2996 RMK SC1 SLP152

CYQR;2010-07-18 06:00;CYQR 180600Z 27006KT 15SM SKC 12/09 A2996 RMK SLP152

CYQR;2010-07-18 07:00;CYQR 180700Z 25007KT 15SM SKC 10/09 A2996 RMK SLP152

CYQR;2010-07-18 08:00;CYQR 180800Z 26007KT 15SM SKC 10/09 A2996 RMK SLP152

CYQR;2010-07-18 09:00;CYQR 180900Z 28008KT 15SM SKC 10/09 A2996 RMK SLP153

CYQR;2010-07-18 10:00;CYQR 181000Z 25006KT 15SM SKC 09/08 A2997 RMK SLP155

CYQR;2010-07-18 11:00;CYQR 181100Z 25007KT 15SM FEW150 08/07 A2998 RMK AC1 SLP158

CYQR;2010-07-18 12:00;CYQR 181200Z 27007KT 15SM FEW150 10/08 A2998 RMK AC1 SLP160

CYQR;2010-07-18 13:00;CYQR 181300Z 28008KT 15SM FEW150 13/11 A2999 RMK AC1 SLP162

CYQR;2010-07-18 14:00;CYQR 181400Z 28010KT 15SM FEW150 15/12 A3000 RMK AC1 SLP164

CYQR;2010-07-18 15:00;CYQR 181500Z 30011G16KT 15SM FEW025 FEW150 17/12 A2999 RMK CF1AC1 SLP161

CYQR;2010-07-18 16:00;CYQR 181600Z 32016KT 15SM FEW029 FEW150 FEW280 19/12 A2998 RMK CF1AC1CI1 SLP158

CYQR;2010-07-18 17:00;CYQR 181700Z 31015G22KT 15SM FEW034 FEW280 20/12 A2997 RMK CU1CI1 SLP155

CYQR;2010-07-18 18:00;CYQR 181800Z 32021KT 15SM FEW041 FEW150 FEW280 21/11 A2997 RMK CU1AC1CI0 SLP155

CYQR;2010-07-18 19:00;CYQR 181900Z 33019G28KT 15SM FEW045 SCT280 22/11 A2996 RMK CU2CI1 SLP152

CYQR;2010-07-18 20:00;CYQR 182000Z 34018G24KT 15SM FEW049 SCT280 22/11 A2996 RMK CU2CI2 SLP152

CYQR;2010-07-18 21:00;CYQR 182100Z 33014G26KT 15SM FEW049 BKN280 22/11 A2996 RMK CU2CI2 SLP154

CYQR;2010-07-18 22:00;CYQR 182200Z 32013G19KT 15SM FEW049 BKN280 23/12 A2996 RMK CU2CI2 SLP151

CYQR;2010-07-18 23:00;CYQR 182300Z 31013KT 15SM FEW050 SCT150 BKN280 22/12 A2994 RMK CU2AC2CI2 SLP147

CYQR;2010-07-19 00:00;CYQR 190000Z 32013KT 15SM FEW050 SCT150 BKN280 22/12 A2994 RMK CU2AC2CI0 SLP146

CYQR;2010-07-19 01:00;CYQR 190100Z 33011KT 15SM FEW052TCU 22/11 A2994 RMK TCU2 SLP146

CYQR;2010-07-19 02:00;CYQR 190200Z 33007KT 15SM FEW040CB FEW250 20/12 A2994 RMK CB1CI1 CB SE SLP145

CYQR;2010-07-19 03:00;CYQR 190300Z 34006KT 15SM FEW040CB FEW250 16/12 A2994 RMK CB1CI1 SLP145

CYQR;2010-07-19 04:00;CYQR 190400Z 33006KT 15SM FEW250 15/12 A2994 RMK CI1 SLP146

CYQR;2010-07-19 05:00;CYQR 190500Z 32004KT 15SM FEW250 13/11 A2994 RMK CI1 SLP145

CYQR;2010-07-19 06:00;CYQR 190600Z 30004KT 15SM SKC 11/09 A2995 RMK SLP148

CYQR;2010-07-19 07:00;CYQR 190700Z 27004KT 15SM SKC 09/08 A2995 RMK SLP149

CYQR;2010-07-19 08:00;CYQR 190800Z 30003KT 15SM SKC 10/08 A2995 RMK SLP149

CYQR;2010-07-19 09:00;CYQR 190900Z 27005KT 15SM SKC 09/07 A2996 RMK SLP152

CYQR;2010-07-19 10:00;CYQR 191000Z 30005KT 15SM FEW320 09/07 A2996 RMK CI0 SLP154

CYQR;2010-07-19 11:00;CYQR 191100Z 29004KT 15SM FEW320 08/07 A2997 RMK CI1 SLP156

CYQR;2010-07-19 12:00;CYQR 191200Z 33003KT 15SM SCT320 08/07 A2997 RMK CI1 SLP156

CYQR;2010-07-19 13:00;CYQR 191300Z 33002KT 15SM BKN320 12/11 A2997 RMK CI1 SLP156

CYQR;2010-07-19 14:00;CYQR 191400Z 32005KT 15SM SCT320 15/13 A2998 RMK CI2 SLP159

CYQR;2010-07-19 15:00;CYQR 191500Z 34007KT 15SM FEW320 17/14 A2999 RMK CI1 SLP161

CYQR;2010-07-19 16:00;CYQR 191600Z 35011KT 15SM FEW022 FEW320 19/13 A2998 RMK CU1CI1 SLP158

CYQR;2010-07-19 17:00;CYQR 191700Z 33008KT 15SM FEW032 FEW320 20/13 A2997 RMK CU1CI1 SLP156

CYQR;2010-07-19 18:00;CYQR 191800Z 33010KT 15SM BKN032 BKN120 BKN320 21/13 A2997 RMK CU5AC1CI0 SLP156

CYQR;2010-07-19 19:00;CYQR 191900Z 32006KT 15SM FEW036 SCT120 BKN320 21/13 A2996 RMK CU2AC1CI1 SLP154

CYQR;2010-07-19 20:00;CYQR 192000Z 35006KT 15SM FEW040 FEW320 22/14 A2996 RMK CU2CI0 SLP151

CYQR;2010-07-19 21:00;CYQR 192100Z 33003KT 15SM FEW045 FEW320 22/12 A2995 RMK CU2CI1 SLP149

CYQR;2010-07-19 22:00;CYQR 192200Z 33007KT 15SM FEW045 SCT320 22/13 A2995 RMK CU2CI1 SLP148

CYQR;2010-07-19 23:00;CYQR 192300Z 04006KT 15SM FEW051 BKN320 23/12 A2995 RMK CU2CI2 SLP148

CYQR;2010-07-20 00:00;CYQR 200000Z 32006KT 15SM FEW051TCU SCT320 22/12 A2994 RMK TCU2CI1 SLP146

CYQR;2010-07-20 01:00;CYQR 200100Z 33004KT 15SM FEW050TCU BKN320 22/13 A2994 RMK TCU1CI1 SLP147

CYQR;2010-07-20 02:00;CYQR 200200Z 34005KT 15SM FEW050 BKN320 20/14 A2996 RMK SC1CI2 CVCTV CLD EMBD SLP151

CYQR;2010-07-20 03:00;CYQR 200300Z 33005KT 15SM FEW050 FEW090 BKN320 17/13 A2996 RMK SC1ACC1CI1 SLP151

CYQR;2010-07-20 04:00;CYQR 200400Z 02002KT 15SM FEW090 SCT320 17/13 A2997 RMK ACC1CI1 SLP153

CYQR;2010-07-20 05:00;CYQR 200500Z 29011KT 15SM SCT049 BKN083 BKN320 15/13 A2998 RMK SC3ACC2CI1 SLP156

CYQR;2010-07-20 06:00;CYQR 200600Z 31004KT 15SM FEW320 13/12 A2997 RMK CI0 SLP156

CYQR;2010-07-20 07:00;CYQR 200700Z 33003KT 15SM SKC 12/11 A2997 RMK SLP156

CYQR;2010-07-20 08:00;CYQR 200800Z 35003KT 15SM SCT100 12/11 A2996 RMK AC3 SLP152

CYQR;2010-07-20 09:00;CYQR 200900Z 26004KT 15SM SCT100 13/12 A2996 RMK AC4 SLP151

CYQR;2010-07-20 10:00;CYQR 201000Z 27005KT 15SM SCT071 BKN100 13/12 A2997 RMK AC3AC3 SLP155

CYQR;2010-07-20 11:00;CYQR 201100Z 29003KT 15SM BKN076 BKN320 13/12 A2998 RMK AC5CI1 ACC EMBD SLP156

CYQR;2010-07-20 12:00;CYQR 201200Z 32004KT 15SM FEW051CB BKN089 BKN320 14/13 A2998 RMK CB2AC3CI0 SLP157

CYQR;2010-07-20 12:35;CYQR 201235Z 32005KT 15SM SCT009 BKN051CB BKN085 BKN320 14/ RMK SF3CB2AC2CI0 CB N

CYQR;2010-07-20 12:53;CYQR 201253Z 31006KT 15SM BKN006 BKN059CB BKN080 15/ RMK SF5CB2AC1 CB N

CYQR;2010-07-20 13:00;CYQR 201300Z 31006KT 15SM BKN006 BKN059CB BKN080 15/14 A2999 RMK SF5CB2AC1 CB N SLP160

CYQR;2010-07-20 13:16;CYQR 201316Z 32004KT 15SM SCT005 BKN060CB BKN080 15/ RMK SF4CB2AC1 CB N

CYQR;2010-07-20 13:43;CYQR 201343Z 27002KT 15SM BKN006 BKN050CB BKN080 15/ RMK SF5CB2AC1 CB N

CYQR;2010-07-20 14:00;CYQR 201400Z 31002KT 15SM BKN006 BKN050CB BKN080 BKN320 15/14 A3000 RMK SF5CB1AC1CI1 CB N CC ASOCTD SLP163

CYQR;2010-07-20 15:00;CYQR 201500Z 28003KT 15SM BKN010 BKN080 17/14 A3000 RMK CU6AC1 SLP165

CYQR;2010-07-20 16:00;CYQR 201600Z 26006KT 15SM BKN014 BKN120 18/14 A3000 RMK CU6AC1 SLP166

CYQR;2010-07-20 17:00;CYQR 201700Z 29009KT 15SM BKN021 BKN300 19/14 A3000 RMK CU5CI0 TCU EMBD SLP166

CYQR;2010-07-20 18:00;CYQR 201800Z 25005KT 15SM BKN028TCU BKN120 20/14 A2999 RMK TCU6AC1 SLP163

CYQR;2010-07-20 19:00;CYQR 201900Z 28011KT 15SM SCT026TCU BKN120 BKN320 20/15 A2999 RMK TCU4AC2CI0 SLP161

CYQR;2010-07-20 20:00;CYQR 202000Z 24007KT 15SM BKN027TCU BKN120 BKN320 21/14 A2997 RMK TCU5AC1CI1 SLP157

CYQR;2010-07-20 21:00;CYQR 202100Z 27004KT 15SM BKN035TCU BKN320 21/14 A2997 RMK TCU5CI1 SLP156

CYQR;2010-07-20 22:00;CYQR 202200Z 36009KT 15SM VCSH BKN035TCU BKN120 BKN320 21/15 A2997 RMK TCU5AC1CI1 SLP155

CYQR;2010-07-20 23:00;CYQR 202300Z 34007KT 15SM VCSH SCT032CB BKN120 BKN320 21/14 A2997 RMK CB4AC1CI0 SLP155

CYQR;2010-07-21 00:00;CYQR 210000Z 33009KT 15SM FEW035CB SCT320 21/13 A2997 RMK CB2CI0 SLP154

CYQR;2010-07-21 01:00;CYQR 210100Z 34008KT 15SM FEW038TCU FEW080 SCT320 20/14 A2997 RMK TCU2AC1CI0 SLP155

CYQR;2010-07-21 02:00;CYQR 210200Z 01008KT 15SM FEW038TCU FEW080 FEW320 19/14 A2999 RMK TCU1AC1CI1 SLP161

CYQR;2010-07-21 03:00;CYQR 210300Z 36005KT 15SM FEW038TCU FEW080 FEW320 16/14 A3000 RMK TCU1AC1CI1 TR AC SLP166

CYQR;2010-07-21 04:00;CYQR 210400Z 36004KT 15SM FEW300 14/12 A3001 RMK CI0 SLP169

CYQR;2010-07-21 05:00;CYQR 210500Z 02003KT 15SM FEW300 15/12 A3001 RMK CI2 SLP170

CYQR;2010-07-21 06:00;CYQR 210600Z 31002KT 15SM FEW150 FEW280 13/11 A3001 RMK AC1CI1 SLP171

CYQR;2010-07-21 07:00;CYQR 210700Z 29003KT 15SM FEW150 FEW280 11/11 A3001 RMK AC1CI1 SLP171

CYQR;2010-07-21 08:00;CYQR 210800Z 26002KT 15SM R13/3000VP6000FT/D FEW280 10/09 A3001 RMK CI0 SLP171

CYQR;2010-07-21 09:00;CYQR 210900Z 00000KT 15SM R13/3000VP6000FT/D MIFG FEW280 11/10 A3001 RMK CI0 SLP171

CYQR;2010-07-21 10:00;CYQR 211000Z 27002KT 15SM FEW280 09/08 A3001 RMK CI1 SLP169

CYQR;2010-07-21 11:00;CYQR 211100Z CCA 29003KT 6SM BR MIFG FEW110 FEW280 09/08 A3001 RMK AC1CI0 VIS SSW 1 SLP170

CYQR;2010-07-21 12:00;CYQR 211200Z 00000KT 6SM BR MIFG SCT093 BKN280 11/10 A3001 RMK AC3CI1 VIS S-SW 1 SLP170

CYQR;2010-07-21 13:00;CYQR 211300Z 20003KT 12SM FEW095 BKN280 12/12 A3001 RMK AC2CI0 SLP169

CYQR;2010-07-21 14:00;CYQR 211400Z 27003KT 12SM FEW090 FEW280 16/14 A3001 RMK AC2CI0 SLP171

CYQR;2010-07-21 15:00;CYQR 211500Z 21003KT 15SM FEW016 FEW090 FEW160 19/15 A3001 RMK CU1AC1AC0 SLP168

CYQR;2010-07-21 16:00;CYQR 211600Z 00000KT 15SM FEW024TCU BKN090 BKN160 20/15 A3001 RMK TCU2AC1AC1 SLP167

CYQR;2010-07-21 17:00;CYQR 211700Z 24006KT 15SM BKN026 BKN090 20/14 A3000 RMK CU6AC2 TCU ASOCTD SLP166

CYQR;2010-07-21 18:00;CYQR 211800Z 21005KT 15SM BKN034TCU BKN090 BKN160 21/14 A3000 RMK TCU6AC1AC1 SLP163

CYQR;2010-07-21 19:00;CYQR 211900Z 23005KT 15SM BKN036TCU BKN160 BKN290 22/14 A2998 RMK TCU5AC2CI0 SLP159

CYQR;2010-07-21 20:00;CYQR 212000Z 22005KT 15SM SCT036 BKN150 21/14 A2997 RMK CU4AC1 TCU ASOCTD SLP156

CYQR;2010-07-21 21:00;CYQR 212100Z 00000KT 15SM BKN032 BKN150 22/14 A2996 RMK CU5AC1 TCU ASOCTD SLP153

CYQR;2010-07-21 22:00;CYQR 212200Z 22004KT 15SM FEW032 BKN091 BKN150 22/14 A2996 RMK CU2AC3AC1 TCU ASOCTD SLP151

CYQR;2010-07-21 23:00;CYQR 212300Z 20007KT 15SM FEW045 SCT090 BKN200 23/14 A2995 RMK CU2AC2CI0 SLP149

CYQR;2010-07-22 01:00;CYQR 220100Z 21006KT 15SM FEW045 FEW090 20/15 A2991 RMK CU1AC1 AC TR SLP136

CYQR;2010-07-22 02:00;CYQR 220200Z 23003KT 15SM FEW040 FEW090 FEW200 20/16 A2991 RMK CU1AC1AC1 SLP136

CYQR;2010-07-22 03:00;CYQR 220300Z 34002KT 15SM FEW040 FEW090 FEW200 18/14 A2991 RMK CU1AC1CI1 SLP133

CYQR;2010-07-22 04:00;CYQR 220400Z 23003KT 15SM SCT280 16/13 A2992 RMK CI0 SLP137

CYQR;2010-07-22 05:00;CYQR 220500Z 35005KT 15SM SKC 15/13 A2991 RMK SLP132

CYQR;2010-07-22 06:00;CYQR 220600Z 01005KT 15SM SCT280 15/13 A2989 RMK CI0 SLP127

CYQR;2010-07-22 07:00;CYQR 220700Z 11005KT 15SM FEW120 SCT280 14/12 A2990 RMK AC2CI0 SLP130

CYQR;2010-07-22 08:00;CYQR 220800Z 15006KT 15SM FEW120 SCT280 14/12 A2988 RMK AC2CI0 SLP124

CYQR;2010-07-22 09:00;CYQR 220900Z 10005KT 15SM FEW120 SCT280 13/11 A2986 RMK AC2CI0 SLP115

CYQR;2010-07-22 10:00;CYQR 221000Z 11005KT 15SM FEW120 BKN280 13/11 A2986 RMK AC2CI0 SLP116

CYQR;2010-07-22 11:00;CYQR 221100Z 10005KT 15SM SCT120 BKN280 13/11 A2986 RMK AC3CI1 SLP115

CYQR;2010-07-22 12:00;CYQR 221200Z 10003KT 15SM SCT120 BKN280 12/11 A2986 RMK AC3CI1 CB DIST W SLP116

CYQR;2010-07-22 13:00;CYQR 221300Z 14004KT 15SM FEW015 SCT084 BKN250 15/13 A2986 RMK CU2AC2CI1 TCU ASOCTD SLP116

CYQR;2010-07-22 14:00;CYQR 221400Z 24002KT 15SM FEW020 FEW080 BKN300 18/14 A2986 RMK CU1AC1CI1 TCU ASOCTD SLP114

CYQR;2010-07-22 15:00;CYQR 221500Z 17003KT 15SM FEW020 FEW080 BKN300 19/15 A2984 RMK CU2AC1CI1 TCU ASOCTD SLP109

CYQR;2010-07-22 16:00;CYQR 221600Z 23004KT 15SM FEW020 SCT080 BKN300 20/15 A2984 RMK CU2AC2CI1 SLP109

CYQR;2010-07-22 17:00;CYQR 221700Z 19006KT 15SM FEW030 SCT080 BKN300 22/15 A2983 RMK CU2AC2CI1 TCU ASOCTD SLP105

CYQR;2010-07-22 18:00;CYQR 221800Z 24004KT 15SM SCT040TCU BKN300 23/14 A2981 RMK TCU4CI1 SLP098

CYQR;2010-07-22 19:00;CYQR 221900Z 24005KT 15SM BKN040TCU BKN300 25/14 A2980 RMK TCU6CI1 SLP093

CYQR;2010-07-22 19:28;CYQR 221928Z 12004KT 15SM -SHRA BKN045TCU BKN320 24/ RMK TCU6CI1

CYQR;2010-07-22 20:00;CYQR 222000Z 11010KT 15SM VCSH BKN045TCU 21/15 A2979 RMK TCU7 CB E SLP090

CYQR;2010-07-22 20:10;CYQR 222010Z 10008KT 15SM TS BKN045CB 21/ RMK CB7 LTNG N

CYQR;2010-07-22 20:28;CYQR 222028Z 35020KT 15SM -TSRA SCT034 BKN045CB 18/ RMK SF2CB6

CYQR;2010-07-22 20:35;CYQR 222035Z 34021G27KT 2SM +TSRA BKN034CB 16/ RMK CB7

CYQR;2010-07-22 20:41;CYQR 222041Z CCA 34017G27KT 3/4SM TSRA BR BKN034 OVC045CB 13/ RERA RMK SF3CB5 RVR 13 5500FT

CYQR;2010-07-22 20:52;CYQR 222052Z 09007G18KT 10SM TSRA SCT030 BKN045CB 14/ RERA RMK SF0CB7 VIS E 1SM

CYQR;2010-07-22 21:00;CYQR 222100Z 13012KT 10SM -TSRA FEW030 BKN049CB 15/ A2982 RERA RMK SF0CB7 VIS SE 21/2SM SLP107

CYQR;2010-07-22 21:14;CYQR 222114Z 10005KT 15SM -SHRA BKN049CB BKN071 17/ RETS RMK CB5AC2

CYQR;2010-07-22 21:38;CYQR 222138Z 14003KT 15SM VCSH SCT050TCU BKN071 19/ RETS RMK TCU4AC2

CYQR;2010-07-22 22:00;CYQR 222200Z CCA 15005KT 15SM FEW055TCU SCT070 21/13 A2980 RETS RMK TCU2AC2 /R15/ SLP099

CYQR;2010-07-22 23:00;CYQR 222300Z 14014KT 15SM FEW055TCU SCT300 22/16 A2980 RMK TCU2CI1 SLP099

CYQR;2010-07-23 00:00;CYQR 230000Z 16007KT 15SM FEW040TCU FEW300 22/15 A2979 RMK TCU1CI1 SLP094

CYQR;2010-07-23 01:00;CYQR 230100Z 16009KT 15SM FEW040TCU BKN300 21/11 A2979 RMK TCU1CI2 SLP093

CYQR;2010-07-23 02:00;CYQR 230200Z 14007KT 15SM FEW040TCU BKN300 19/10 A2979 RMK TCU1CI3 SLP093

CYQR;2010-07-23 03:00;CYQR 230300Z 14005KT 15SM FEW040TCU FEW080 SCT300 16/09 A2979 RMK TCU1AC1CI1 SLP090

CYQR;2010-07-23 04:00;CYQR 230400Z 14006KT 15SM FEW300 16/09 A2979 RMK CI1 SLP091

CYQR;2010-07-23 05:00;CYQR 230500Z 13007KT 15SM FEW300 16/09 A2979 RMK CI1 SLP091

CYQR;2010-07-23 06:00;CYQR 230600Z 14009KT 15SM FEW300 15/08 A2979 RMK CI1 SLP089

CYQR;2010-07-23 07:00;CYQR 230700Z 14007KT 15SM FEW095 BKN300 15/13 A2978 RMK AC2CI4 SLP088

CYQR;2010-07-23 08:00;CYQR 230800Z 12009KT 15SM FEW300 14/11 A2978 RMK CI2 SLP086

CYQR;2010-07-23 09:00;CYQR 230900Z 12008KT 15SM SCT300 13/11 A2977 RMK CI2 SLP088

CYQR;2010-07-23 10:00;CYQR 231000Z 10006KT 15SM FEW080 FEW300 13/11 A2978 RMK AC1CI1 SLP091

CYQR;2010-07-23 11:00;CYQR 231100Z 13009KT 15SM BKN120 BKN300 14/11 A2979 RMK AC6CI1 SLP094

CYQR;2010-07-23 12:00;CYQR 231200Z 12008KT 15SM BKN120 BKN300 14/12 A2980 RMK AC6CI1 SLP095

CYQR;2010-07-23 13:00;CYQR 231300Z 09006KT 15SM SCT065 BKN120 OVC300 15/13 A2981 RMK SC3AC4CI1 CVCTV CLD ASOCTD W SLP099

CYQR;2010-07-23 13:14;CYQR 231314Z 29008KT 15SM -SHRA BKN005 BKN058 OVC120 14/ RMK SF5SC2AC1 CVCTV CLD EMBD

CYQR;2010-07-23 13:34;CYQR 231334Z 07007KT 15SM -TSRA BKN006 OVC056CB 15/ RMK SF5CB3

CYQR;2010-07-23 14:00;CYQR 231400Z 29003KT 15SM TS VCSH SCT008 BKN021 OVC040CB 15/13 A2983 RMK SF3SC3CB2 LTGCC NW SLP105

CYQR;2010-07-23 14:33;CYQR 231433Z 32005KT 15SM VCSH FEW010 SCT020CB OVC056 15/ RETS RMK SF2CB2SC5 LTGCC W-NW

CYQR;2010-07-23 15:00;CYQR 231500Z 36005KT 15SM FEW010 BKN022CB BKN065 15/13 A2984 RETS RMK SF2CB3SC2 SLP112

CYQR;2010-07-23 16:00;CYQR 231600Z 03006KT 15SM FEW010 SCT038 OVC065 16/13 A2986 RMK SF1SC3SC4 CVCTV CLD ACOSTD SLP116

CYQR;2010-07-23 16:25;CYQR 231625Z 05002KT 15SM -SHRA FEW010 BKN034 OVC080 16/ RMK SF1SC6AC2 VIS SE 3SM BR CVCTV CLD EMBD

CYQR;2010-07-23 16:35;CYQR 231635Z CCA 31002KT 10SM R13/4000VP6000FT/D -SHRA SCT007 BKN035 OVC080 16/ RMK SF2SC4AC2 VIS SW-NW 2SM BR CVCTV CLD EMBD

CYQR;2010-07-23 17:00;CYQR 231700Z 32006KT 15SM SCT007 BKN035 OVC075 16/14 A2987 RMK SF0SC5AC3 OCNL -SHRA VIS W-NW 5SM SLP121

CYQR;2010-07-23 17:35;CYQR 231735Z 35002KT 15SM BKN041 OVC064 16/ RMK SC6SC2

CYQR;2010-07-23 18:00;CYQR 231800Z 01006KT 15SM BKN041 OVC064 17/14 A2988 RMK SC6SC1 SLP124

CYQR;2010-07-23 19:00;CYQR 231900Z 01004KT 15SM SCT034 BKN094 OVC300 19/14 A2988 RMK SC4AC2CI1 TCU EMBD LTGCC SWK SLP125

CYQR;2010-07-23 19:34;CYQR 231934Z 26008KT 15SM -SHRA BKN030 BKN060 OVC300 17/ RMK SC5SC2CI1 CVCTV CLD EMBD LTGCG SW

CYQR;2010-07-23 19:41;CYQR 231941Z 27009KT 15SM -TSRA SCT012 BKN029CB BKN060 OVC300 17/ RMK SF0CB5SC2CI2

CYQR;2010-07-23 20:00;CYQR 232000Z 24008KT 15SM TS SCT011 BKN029CB OVC060 16/14 A2991 RMK SF2CB3SC3 OCNL -SHRA SLP135

CYQR;2010-07-23 20:31;CYQR 232031Z CCA 22011G16KT 10SM -SHRA SCT012 BKN025TCU OVC060 15/ RETS RMK SF2TCU4SC2 VIS SW-W 2SM -SHRA OCNL

CYQR;2010-07-23 21:00;CYQR 232100Z 00000KT 12SM -SHRA FEW012 FEW025TCU BKN054 BKN080 15/14 A2991 RETS RMK SF1TCU2SC3AC2 SLP139

CYQR;2010-07-23 21:48;CYQR 232148Z 01007KT 15SM VCSH FEW010 FEW025TCU BKN060 BKN080 16/ RMK SF1TCU2SC3AC2

CYQR;2010-07-23 22:00;CYQR 232200Z 03007KT 15SM VCSH FEW025TCU SCT060 BKN087 16/14 A2991 RMK TCU2SC2AC3 SLP137

CYQR;2010-07-23 23:00;CYQR 232300Z 04004KT 15SM FEW025 SCT060 BKN093 17/14 A2992 RMK CU1SC4AC3 SLP142

CYQR;2010-07-24 00:00;CYQR 240000Z 25004KT 15SM FEW025 SCT082 BKN120 BKN300 18/15 A2994 RMK CU1AC2AC2CI1 SLP145

CYQR;2010-07-24 01:00;CYQR 240100Z 28004KT 15SM FEW025 FEW084 BKN300 18/15 A2996 RMK CU1AC1CI2 SLP152

CYQR;2010-07-24 02:00;CYQR 240200Z 30003KT 15SM FEW040 BKN300 17/15 A2997 RMK SC1CI2 SLP154

CYQR;2010-07-24 03:00;CYQR 240300Z 31005KT 15SM FEW075 FEW300 16/14 A2997 RMK AC1CI1 ACC ASOCTD SLP158

CYQR;2010-07-24 04:00;CYQR 240400Z 25003KT 15SM FEW300 14/13 A2999 RMK CI1 SLP163

CYQR;2010-07-24 05:00;CYQR 240500Z 30005KT 15SM SKC 13/12 A3000 RMK SLP166

CYQR;2010-07-24 06:00;CYQR 240600Z 28004KT 15SM SKC 11/11 A3001 RMK SLP172

CYQR;2010-07-24 07:00;CYQR 240700Z 31005KT 15SM SKC 11/10 A3002 RMK SLP175

CYQR;2010-07-24 08:00;CYQR 240800Z 21003KT 10SM BCFG SKC 11/10 A3003 RMK SLP177

CYQR;2010-07-24 09:00;CYQR 240900Z 29003KT 10SM R13/2800V5000FT/D BCFG SKC 10/09 A3004 RMK SLP183

CYQR;2010-07-24 09:54;CYQR 240954Z 25004KT 1SM R13/2400V4000FT/N BR SKC 10/ RMK FG1 VSBY 1/2 S

CYQR;2010-07-24 10:00;CYQR 241000Z 25002KT 1SM R13/3000FT/N BR SKC 09/08 A3005 RMK FG1 VIS 1/2 S SLP186

CYQR;2010-07-24 10:33;CYQR 241033Z 26004KT 2SM BR SKC 09/

CYQR;2010-07-24 11:00;CYQR 241100Z 24002KT 5SM BR BCFG SKC 09/07 A3005 RMK SLP188

CYQR;2010-07-24 12:00;CYQR 241200Z 19002KT 15SM BCFG SKC 09/08 A3007 RMK SLP193

CYQR;2010-07-24 13:00;CYQR 241300Z 26004KT 15SM BCFG FEW300 12/11 A3008 RMK CI0 SLP196

CYQR;2010-07-24 14:00;CYQR 241400Z 26002KT 15SM FEW300 15/13 A3009 RMK CI0 SLP198

CYQR;2010-07-24 15:00;CYQR 241500Z 25004KT 15SM SKC 18/15 A3009 RMK SLP197

CYQR;2010-07-24 16:00;CYQR 241600Z 28004KT 15SM FEW300 20/16 A3009 RMK CI0 SLP195

CYQR;2010-07-24 17:00;CYQR 241700Z 20008KT 15SM FEW025 22/16 A3009 RMK CF1 SLP197

CYQR;2010-07-24 18:00;CYQR 241800Z 21009KT 15SM FEW028 23/16 A3009 RMK CU1 SLP196

CYQR;2010-07-24 19:00;CYQR 241900Z 21010KT 15SM FEW032 24/16 A3008 RMK CU1 SLP192

CYQR;2010-07-24 20:00;CYQR 242000Z 22008KT 15SM FEW036 24/16 A3007 RMK CU1 SLP189

CYQR;2010-07-24 21:00;CYQR 242100Z 24010G18KT 15SM FEW043 25/15 A3005 RMK CU1 SLP182

CYQR;2010-07-24 22:00;CYQR 242200Z 22007KT 15SM FEW043 25/15 A3004 RMK CU1 SLP179

CYQR;2010-07-24 23:00;CYQR 242300Z 24007KT 15SM FEW044 25/14 A3003 RMK CU1 SLP176

CYQR;2010-07-25 00:00;CYQR 250000Z 21006KT 15SM FEW040 25/15 A3002 RMK CU1 SLP171

CYQR;2010-07-25 01:00;CYQR 250100Z 19005KT 15SM FEW040 24/17 A3000 RMK CU1 SLP167

CYQR;2010-07-25 02:00;CYQR 250200Z 18008KT 15SM SKC 22/15 A3000 RMK SLP164

CYQR;2010-07-25 03:00;CYQR 250300Z 17008KT 15SM FEW040 19/15 A2999 RMK SC1 SLP158

CYQR;2010-07-25 04:00;CYQR 250400Z 17009KT 15SM FEW040 17/15 A2999 RMK SC1 SLP159

CYQR;2010-07-25 05:00;CYQR 250500Z 17008KT 15SM SKC 16/14 A3000 RMK SLP161

CYQR;2010-07-25 06:00;CYQR 250600Z 18008KT 15SM SKC 15/13 A3000 RMK SLP162

CYQR;2010-07-25 07:00;CYQR 250700Z 19008KT 15SM SKC 15/12 A3001 RMK SLP165

CYQR;2010-07-25 08:00;CYQR 250800Z 17007KT 15SM SKC 14/12 A3000 RMK SLP164

CYQR;2010-07-25 09:00;CYQR 250900Z 16008KT 15SM SKC 14/12 A3000 RMK SLP161

CYQR;2010-07-25 10:00;CYQR 251000Z 16008KT 15SM SKC 14/12 A2999 RMK SLP159

CYQR;2010-07-25 11:00;CYQR 251100Z 14008KT 15SM SKC 14/12 A2999 RMK SLP158

CYQR;2010-07-25 12:00;CYQR 251200Z 14008KT 15SM SKC 14/12 A2999 RMK SLP157

CYQR;2010-07-25 13:00;CYQR 251300Z 14007KT 15SM SKC 15/12 A2998 RMK SLP156

CYQR;2010-07-25 14:00;CYQR 251400Z 15009KT 15SM SKC 18/14 A2998 RMK SLP154

CYQR;2010-07-25 15:00;CYQR 251500Z 16009KT 15SM SKC 20/15 A2996 RMK SLP149

CYQR;2010-07-25 16:00;CYQR 251600Z 19007KT 15SM SKC 22/17 A2995 RMK SLP146

CYQR;2010-07-25 17:00;CYQR 251700Z 19008KT 15SM SKC 25/17 A2993 RMK SLP140

CYQR;2010-07-25 18:00;CYQR 251800Z 20011KT 15SM FEW035 26/17 A2992 RMK CF1 SLP134

CYQR;2010-07-25 19:00;CYQR 251900Z 18011KT 15SM FEW040 27/17 A2990 RMK CF1 SLP127

CYQR;2010-07-25 20:00;CYQR 252000Z 17010KT 15SM FEW040 28/17 A2988 RMK CF1 SLP120

CYQR;2010-07-25 21:00;CYQR 252100Z 20010KT 15SM FEW040 28/18 A2987 RMK CU1 SLP114

CYQR;2010-07-25 22:00;CYQR 252200Z 21010G15KT 15SM FEW040 29/18 A2986 RMK CU1 SLP110

CYQR;2010-07-25 23:00;CYQR 252300Z 19009KT 15SM FEW040TCU 29/20 A2983 RMK TCU1 SLP102

CYQR;2010-07-26 00:00;CYQR 260000Z 18008KT 15SM FEW040TCU FEW120 28/20 A2981 RMK TCU1AC1 SLP096

CYQR;2010-07-26 01:00;CYQR 260100Z 17012KT 15SM FEW040TCU FEW350 27/19 A2980 RMK TCU1CI1 SLP091

CYQR;2010-07-26 02:00;CYQR 260200Z 18008KT 15SM FEW040TCU FEW350 24/18 A2979 RMK TCU1CI1 SLP087

CYQR;2010-07-26 03:00;CYQR 260300Z 17011KT 15SM FEW040TCU FEW350 23/18 A2979 RMK TCU2CI1 SLP088

CYQR;2010-07-26 04:00;CYQR 260400Z 22009KT 15SM BKN069 23/17 A2982 RMK AC5 SLP097

CYQR;2010-07-26 05:00;CYQR 260500Z 00000KT 15SM FEW073 20/17 A2983 RMK AC2 SLP099

CYQR;2010-07-26 06:00;CYQR 260600Z 35007KT 15SM FEW080 19/17 A2983 RMK AC1 SLP101

CYQR;2010-07-26 07:00;CYQR 260700Z 35005KT 15SM FEW080 18/16 A2983 RMK AC2 SLP100

CYQR;2010-07-26 08:00;CYQR 260800Z 31007KT 15SM FEW080 16/15 A2983 RMK AC1 SLP099

CYQR;2010-07-26 09:00;CYQR 260900Z 30005KT 8SM R13/4500VP6000FT/D BCFG SKC 15/15 A2982 RMK SLP097

CYQR;2010-07-26 09:44;CYQR 260944Z 33005KT 2SM R13/1200FT/N BR SKC 15/ RMK FG6

CYQR;2010-07-26 09:56;CYQR 260956Z 34006KT 1/2SM R13/1200FT/N FG SKC 15/ RMK FG7

CYQR;2010-07-26 10:00;CYQR 261000Z 34005KT 3/8SM R13/1200FT/N FG SKC 15/14 A2982 RMK FG7 SLP097

CYQR;2010-07-26 11:00;CYQR 261100Z 33005KT 1/4SM R13/2600FT/N FG SKC 14/14 A2983 RMK FG7 SLP099

CYQR;2010-07-26 12:00;CYQR 261200Z 35009KT 1/2SM R13/2600VP6000FT/U FG SKC 15/14 A2983 RMK FG6 SLP100

CYQR;2010-07-26 13:00;CYQR 261300Z 36011G16KT 3/4SM R13/3500VP6000FT/U BR VV001 16/16 A2985 RMK FG8 SLP106

CYQR;2010-07-26 13:02;CYQR 261302Z 36009G16KT 2SM BR BKN002 16/ RMK SF6

CYQR;2010-07-26 13:06;CYQR 261306Z 01008KT 4SM BR SCT002 SCT250 16/ RMK SF1CI1

CYQR;2010-07-26 14:00;CYQR 261400Z 01010KT 12SM FEW002 FEW080 FEW250 18/15 A2985 RMK SF1ACC1CI1 SLP106

CYQR;2010-07-26 15:00;CYQR 261500Z 04011KT 15SM FEW080 FEW250 21/14 A2986 RMK ACC1CI1 SLP109

CYQR;2010-07-26 16:00;CYQR 261600Z 03012KT 15SM FEW080 FEW250 22/14 A2985 RMK AC1CI1 SLP108

CYQR;2010-07-26 17:00;CYQR 261700Z 03008KT 15SM FEW080 FEW250 24/15 A2984 RMK ACC1CI1 SLP104

CYQR;2010-07-26 18:00;CYQR 261800Z 04012KT 15SM FEW080 FEW250 25/14 A2984 RMK ACC1CI1 SLP104

CYQR;2010-07-26 19:00;CYQR 261900Z 06010G15KT 15SM FEW080TCU FEW250 26/14 A2982 RMK TCU1CI1 SLP098

CYQR;2010-07-26 20:00;CYQR 262000Z CCA 07009KT 15SM FEW080 FEW250 26/13 A2981 RMK ACC1CI1 CB DIST NE SLP096

CYQR;2010-07-26 21:00;CYQR 262100Z 09007KT 15SM FEW089 SCT250 27/14 A2981 RMK ACC2CI1 SLP096

CYQR;2010-07-26 22:00;CYQR 262200Z 06007KT 15SM SCT089 BKN250 27/15 A2981 RMK ACC3CI1 SLP093

CYQR;2010-07-26 23:00;CYQR 262300Z 08008KT 15SM SCT087 SCT250 27/14 A2981 RMK ACC4CI1 SLP093

CYQR;2010-07-27 00:00;CYQR 270000Z 04007KT 15SM FEW087 FEW250 27/14 A2979 RMK ACC2CI1 SLP089

CYQR;2010-07-27 01:00;CYQR 270100Z 03011KT 15SM FEW060 FEW250 25/15 A2981 RMK CU2CI1 SLP093

CYQR;2010-07-27 02:00;CYQR 270200Z 02008KT 15SM FEW060 SCT250 23/15 A2981 RMK CU2CI1 SLP093

CYQR;2010-07-27 03:00;CYQR 270300Z 03009KT 15SM FEW055 SCT250 21/15 A2982 RMK CF1CI1 SLP100

CYQR;2010-07-27 04:00;CYQR 270400Z 03009KT 15SM FEW055 FEW250 20/14 A2984 RMK SC1CI0 OBS TAKEN -08 SLP106

CYQR;2010-07-27 05:00;CYQR 270500Z 03006KT 15SM FEW050 FEW250 18/14 A2986 RMK SC1CI1 SLP111

CYQR;2010-07-27 06:00;CYQR 270600Z 34007KT 15SM FEW250 15/14 A2986 RMK CI0 SLP113

CYQR;2010-07-27 07:00;CYQR 270700Z 34005KT 15SM FEW140 15/13 A2986 RMK AC1 SLP114

CYQR;2010-07-27 08:00;CYQR 270800Z 35007KT 15SM FEW030 FEW140 14/13 A2987 RMK SC1AC0 SLP116

CYQR;2010-07-27 09:00;CYQR 270900Z 32005KT 15SM FEW140 FEW260 13/12 A2988 RMK AC1CI0 SLP121

CYQR;2010-07-27 10:00;CYQR 271000Z 28005KT 15SM SCT050 SCT260 12/11 A2991 RMK SC2CI0 SLP128

CYQR;2010-07-27 11:00;CYQR 271100Z 30005KT 15SM FEW035 BKN110 14/12 A2993 RMK SC1AC6 SLP135

CYQR;2010-07-27 12:00;CYQR 271200Z 30006KT 15SM BKN080 14/13 A2995 RMK AC5 SLP143

CYQR;2010-07-27 13:00;CYQR 271300Z 31008KT 15SM BKN094 15/13 A2996 RMK AC5 SLP147

CYQR;2010-07-27 14:00;CYQR 271400Z 33013KT 15SM FEW047 FEW087 16/12 A2996 RMK SC1AC1 ACC ASOCTD SLP148

CYQR;2010-07-27 15:00;CYQR 271500Z 31019KT 15SM FEW028 FEW047 FEW090 FEW250 17/10 A2997 RMK CF1SC1ACC1CI0 SLP153

CYQR;2010-07-27 16:00;CYQR 271600Z 32017G24KT 15SM FEW027 FEW090 FEW250 17/11 A2999 RMK CU1ACC1CI1 SLP157

CYQR;2010-07-27 17:00;CYQR 271700Z 33016G24KT 15SM SCT029 18/11 A3000 RMK CU4 SLP161

CYQR;2010-07-27 18:00;CYQR 271800Z 33019G24KT 15SM BKN031 19/11 A3000 RMK CU5 SLP164

CYQR;2010-07-27 19:00;CYQR 271900Z 33017G22KT 15SM BKN035 19/12 A3001 RMK CU6 SLP167

CYQR;2010-07-27 20:00;CYQR 272000Z 32021KT 15SM BKN037 20/12 A3002 RMK CU5 SLP171

CYQR;2010-07-27 21:00;CYQR 272100Z 32016KT 15SM BKN039 21/12 A3003 RMK CU5 SLP174

CYQR;2010-07-27 22:00;CYQR 272200Z 34014KT 15SM SCT041 20/12 A3003 RMK CU4 SLP176

CYQR;2010-07-27 23:00;CYQR 272300Z 33012G18KT 15SM SCT041 19/11 A3004 RMK CU3 SLP178

CYQR;2010-07-28 00:00;CYQR 280000Z 32011G18KT 15SM FEW045 FEW250 21/12 A3004 RMK CU1CI1 SLP178

CYQR;2010-07-28 01:00;CYQR 280100Z 33010KT 15SM FEW032 FEW250 20/12 A3005 RMK CU1CI1 SLP180

CYQR;2010-07-28 02:00;CYQR 280200Z 33006KT 15SM FEW030 FEW250 18/13 A3005 RMK CU1CI1 SLP181

CYQR;2010-07-28 03:00;CYQR 280300Z 32004KT 15SM FEW250 15/12 A3005 RMK CI1 SLP185

CYQR;2010-07-28 04:00;CYQR 280400Z 30004KT 15SM FEW250 14/11 A3007 RMK CI1 OBS TAKEN -08 SLP190

CYQR;2010-07-28 05:00;CYQR 280500Z 30005KT 15SM FEW250 12/10 A3008 RMK CI0 SLP192

CYQR;2010-07-28 06:00;CYQR 280600Z 30003KT 15SM FEW250 11/09 A3008 RMK CI1 SLP196

CYQR;2010-07-28 07:00;CYQR 280700Z 28004KT 15SM FEW250 10/08 A3010 RMK CI0 SLP201

CYQR;2010-07-28 08:00;CYQR 280800Z 28002KT 15SM FEW250 10/08 A3011 RMK CI0 SLP205

CYQR;2010-07-28 09:00;CYQR 280900Z 27002KT 15SM SKC 10/08 A3011 RMK SLP206

CYQR;2010-07-28 10:00;CYQR 281000Z 26004KT 15SM SKC 08/07 A3013 RMK SLP210

CYQR;2010-07-28 11:00;CYQR 281100Z 24004KT 15SM BCFG FEW090 08/07 A3013 RMK AC1 SLP211

CYQR;2010-07-28 12:00;CYQR 281200Z 35002KT 15SM FEW090 08/08 A3013 RMK AC1 SLP214

CYQR;2010-07-28 13:00;CYQR 281300Z 00000KT 15SM FEW090 12/11 A3014 RMK AC1 SLP215

CYQR;2010-07-28 14:00;CYQR 281400Z 00000KT 15SM FEW280 16/13 A3014 RMK CI1 SLP217

CYQR;2010-07-28 15:00;CYQR 281500Z 00000KT 15SM FEW280 18/14 A3015 RMK CI1 SLP218

CYQR;2010-07-28 16:00;CYQR 281600Z 20003KT 15SM FEW030 FEW280 21/14 A3015 RMK CF1CI1 SLP219

CYQR;2010-07-28 17:00;CYQR 281700Z 19003KT 15SM FEW045 SCT300 22/10 A3015 RMK CF1CI1 SLP219

CYQR;2010-07-28 18:00;CYQR 281800Z 21004KT 15SM FEW045 SCT300 22/13 A3015 RMK CU1CI1 CONTRAILS SLP219

CYQR;2010-07-28 19:00;CYQR 281900Z 20005KT 15SM FEW040 SCT300 22/12 A3015 RMK CU1CI1 SLP216

CYQR;2010-07-28 20:00;CYQR 282000Z 12005KT 15SM FEW051 BKN300 24/12 A3013 RMK CU1CI2 SLP212

CYQR;2010-07-28 21:00;CYQR 282100Z 14006KT 15SM FEW045 FEW100 SCT300 25/13 A3013 RMK CU1ACC1CI2 CC ASOCTD SLP209

CYQR;2010-07-28 22:00;CYQR 282200Z 13006KT 15SM FEW045 FEW300 24/12 A3011 RMK CU1CI1 CC ASOCTD SLP202

CYQR;2010-07-28 23:00;CYQR 282300Z 14009KT 15SM FEW045 FEW100 FEW300 25/13 A3010 RMK CU1ACC1CI1 SLP199

CYQR;2010-07-29 00:00;CYQR 290000Z 16011KT 15SM FEW045 FEW100 FEW300 24/11 A3010 RMK CU1AC1CI1 SLP200

CYQR;2010-07-29 01:00;CYQR 290100Z 14011KT 15SM FEW045 FEW100 FEW300 24/12 A3008 RMK CU1AC1CI1 SLP194

CYQR;2010-07-29 02:00;CYQR 290200Z 14009KT 15SM FEW045TCU FEW100 FEW300 22/13 A3007 RMK TCU1ACC1CI0 SLP191

CYQR;2010-07-29 03:00;CYQR 290300Z 15008KT 15SM FEW032 SCT092 BKN270 20/12 A3008 RMK CU1AC3CI0 SLP189

CYQR;2010-07-29 04:00;CYQR 290400Z 14009KT 15SM BKN092 20/13 A3008 RMK AC5 OBS TAKEN -09 SLP188

CYQR;2010-07-29 05:00;CYQR 290500Z 13008KT 15SM FEW090 18/13 A3007 RMK AC2 SLP187

CYQR;2010-07-29 06:00;CYQR 290600Z 12008KT 15SM BKN074 BKN090 17/13 A3007 RMK AC4AC1 SLP185

CYQR;2010-07-29 07:00;CYQR 290700Z 14012KT 15SM SCT070 BKN130 18/12 A3006 RMK AC4AC2 SLP184

CYQR;2010-07-29 08:00;CYQR 290800Z 13009KT 15SM BKN070 17/13 A3005 RMK AC5 SLP179

CYQR;2010-07-29 09:00;CYQR 290900Z 13010KT 15SM BKN074 17/13 A3004 RMK AC6 SLP174

CYQR;2010-07-29 10:00;CYQR 291000Z 13011KT 15SM FEW070 17/13 A3001 RMK AC2 LTGIC DIST SE SLP166

CYQR;2010-07-29 11:00;CYQR 291100Z 13011KT 15SM FEW030 SCT075 16/13 A3002 RMK CU1AC2 SLP167

CYQR;2010-07-29 12:00;CYQR 291200Z 14010KT 15SM FEW035 BKN073 16/13 A3002 RMK CU2AC2 TCU ASOCTD SLP167

CYQR;2010-07-29 13:00;CYQR 291300Z CCA 13011KT 15SM BKN073 BKN350 16/14 A3001 RMK AC5CI0 CVCTV CLD ASOCTD SLP165

CYQR;2010-07-29 14:00;CYQR 291400Z 13010KT 15SM SCT047 BKN077 18/15 A3001 RMK CU3ACC2 TCU ASOCTD SLP165

CYQR;2010-07-29 15:00;CYQR 291500Z 14011KT 15SM FEW049 FEW350 20/16 A3000 RMK CU1CI0 SLP159

CYQR;2010-07-29 16:00;CYQR 291600Z 14012KT 15SM FEW050 FEW085 FEW350 22/16 A2999 RMK CU1ACC1CI1 SLP156

CYQR;2010-07-29 17:00;CYQR 291700Z 14009G15KT 15SM FEW025 FEW088 23/16 A2998 RMK CU1ACC1 SLP155

CYQR;2010-07-29 18:00;CYQR 291800Z 14010G15KT 15SM FEW030 FEW090 24/17 A2998 RMK CU1ACC1 SLP152

CYQR;2010-07-29 19:00;CYQR 291900Z 15011G16KT 15SM FEW035TCU 25/17 A2996 RMK TCU1 SLP148

CYQR;2010-07-29 20:00;CYQR 292000Z 14007KT 15SM FEW035TCU 26/18 A2995 RMK TCU1 SLP144

CYQR;2010-07-29 21:00;CYQR 292100Z 16009KT 15SM FEW035 FEW300 27/18 A2995 RMK CU1CI1 SLP140

CYQR;2010-07-29 22:00;CYQR 292200Z 00000KT 15SM FEW035 FEW350 27/18 A2993 RMK CU1CI1 SLP135

CYQR;2010-07-29 23:00;CYQR 292300Z 15002KT 15SM FEW035 FEW350 27/18 A2991 RMK CU1CI1 TCU ASOCTD SLP128

CYQR;2010-07-30 00:00;CYQR 300000Z 14005KT 15SM FEW035 FEW160 OVC350 27/20 A2992 RMK CU1AC2CI3 SLP131

CYQR;2010-07-30 01:00;CYQR 300100Z 15004KT 15SM FEW043TCU FEW160 BKN350 25/20 A2991 RMK TCU1AC2CI5 CBTOPS SHWRS DSNT W SLP130

CYQR;2010-07-30 02:00;CYQR 300200Z 10004KT 15SM FEW043CB SCT160 BKN350 24/19 A2988 RMK CB2ACC2CI4 CB W + N SHWRS DSNT W SLP118

CYQR;2010-07-30 03:00;CYQR 300300Z 09004KT 15SM FEW080CB SCT160 BKN350 23/18 A2989 RMK CB2ACC2CI1 SLP121

CYQR;2010-07-30 04:00;CYQR 300400Z 21002KT 15SM FEW080CB SCT160 BKN350 21/18 A2991 RMK CB2ACC2CI1 SLP128

CYQR;2010-07-30 05:00;CYQR 300500Z 14005KT 15SM FEW080 BKN300 20/17 A2989 RMK AC2CI1 SLP122

CYQR;2010-07-30 06:00;CYQR 300600Z 15004KT 15SM SCT038 BKN300 21/19 A2990 RMK SC3CI1 SLP124

CYQR;2010-07-30 07:00;CYQR 300700Z 33003KT 15SM SCT056 BKN300 19/17 A2991 RMK SC3CI1 SLP127

CYQR;2010-07-30 08:00;CYQR 300800Z 00000KT 15SM BKN060 19/17 A2991 RMK SC5 SLP126

CYQR;2010-07-30 09:00;CYQR 300900Z 12002KT 15SM BKN075 19/17 A2991 RMK AC6 SLP129

CYQR;2010-07-30 10:00;CYQR 301000Z 14006KT 15SM FEW080 BKN280 17/16 A2991 RMK AC2CI2 SLP129

CYQR;2010-07-30 11:00;CYQR 301100Z 20002KT 15SM FEW080 BKN280 16/15 A2991 RMK AC1CI1 TCU TOPS EAST SLP127

CYQR;2010-07-30 12:00;CYQR 301200Z 32003KT 6SM BR FEW080 SCT280 15/14 A2991 RMK AC1CI0 VSBY W 1 SLP129

CYQR;2010-07-30 12:48;CYQR 301248Z 28002KT 1/2SM R13/1600FT/N FG BKN001 16/ RMK FG6SF2 VSBY E 2 MI

CYQR;2010-07-30 13:00;CYQR 301300Z 30003KT 1/2SM R13/3000FT/N FG BKN001 17/16 A2991 RMK FG4SF2 SLP127

CYQR;2010-07-30 13:05;CYQR 301305Z 28003KT 12SM SKC 17/ RMK VIS E-SE 1

CYQR;2010-07-30 14:00;CYQR 301400Z 28002KT 10SM FEW290 19/16 A2991 RMK CI1 SLP129

CYQR;2010-07-30 15:00;CYQR 301500Z 26004KT 15SM FEW290 22/17 A2993 RMK CI1 SLP134

CYQR;2010-07-30 16:00;CYQR 301600Z 32005KT 12SM FEW022 FEW090 FEW160 FEW290 24/18 A2993 RMK CF1ACC1AC1CI1 SLP134

CYQR;2010-07-30 17:00;CYQR 301700Z 30006KT 15SM FEW026 FEW160 SCT290 25/20 A2993 RMK CU2AC1CI1 SLP134

CYQR;2010-07-30 18:00;CYQR 301800Z 33006KT 15SM FEW028TCU BKN290 26/19 A2992 RMK TCU1CI1 SLP129

CYQR;2010-07-30 19:00;CYQR 301900Z 34004KT 15SM FEW028 SCT290 26/19 A2992 RMK CU1CI2 SLP129

CYQR;2010-07-30 20:00;CYQR 302000Z 28005KT 15SM FEW030 FEW290 27/19 A2991 RMK CU1CI1 SLP126

CYQR;2010-07-30 21:00;CYQR 302100Z 34006KT 15SM FEW037 FEW290 27/18 A2992 RMK CU2CI0 SLP129

CYQR;2010-07-30 22:00;CYQR 302200Z 33010G15KT 15SM FEW041CB 28/17 A2991 RMK CB1 CB E SLP126

CYQR;2010-07-30 23:00;CYQR 302300Z 33009KT 15SM FEW050CB FEW350 28/16 A2991 RMK CB1CI1 CB E-SE SLP126

CYQR;2010-07-31 00:00;CYQR 310000Z 34007KT 15SM FEW050TCU FEW350 27/16 A2991 RMK TCU1CI0 SLP127

CYQR;2010-07-31 01:00;CYQR 310100Z 33004KT 15SM FEW350 27/17 A2990 RMK CI1 CB TOP DIST NE SLP124

CYQR;2010-07-31 02:00;CYQR 310200Z 34003KT 15SM FEW050CB FEW350 26/17 A2989 RMK CB1CI1 CB E SLP122

CYQR;2010-07-31 03:00;CYQR 310300Z 03003KT 15SM FEW100 23/16 A2990 RMK AC2 SLP123

CYQR;2010-07-31 04:00;CYQR 310400Z 18003KT 15SM FEW100 20/16 A2991 RMK AC2 SLP126

CYQR;2010-07-31 05:00;CYQR 310500Z 15003KT 15SM SCT100 20/16 A2991 RMK AC3 SLP125

CYQR;2010-07-31 06:00;CYQR 310600Z 14006KT 15SM BKN100 19/16 A2990 RMK AC6 SLP124

CYQR;2010-07-31 07:00;CYQR 310700Z 13004KT 15SM BKN100 19/16 A2991 RMK AC6 SLP125

CYQR;2010-07-31 08:00;CYQR 310800Z 14005KT 15SM SCT100 17/15 A2991 RMK AC4 SLP126

CYQR;2010-07-31 09:00;CYQR 310900Z 14003KT 15SM FEW100 17/15 A2991 RMK AC2 SLP129

CYQR;2010-07-31 10:00;CYQR 311000Z 13004KT 15SM SCT100 16/15 A2991 RMK AC3 SLP128

CYQR;2010-07-31 11:00;CYQR 311100Z 05005KT 15SM FEW020 SCT100 BKN270 16/15 A2990 RMK SC1AC2CI1 SLP125

CYQR;2010-07-31 12:00;CYQR 311200Z CCA 09005KT 15SM FEW020 SCT100CB BKN270 16/15 A2990 RMK SC1CB3CI1 MAMMATUS CB NORTH SLP123

CYQR;2010-07-31 13:00;CYQR 311300Z 01007KT 15SM FEW020 SCT090CB BKN270 17/16 A2991 RMK SC1CB2CI1 SLP128

CYQR;2010-07-31 14:00;CYQR 311400Z 03007KT 15SM FEW040CB FEW120 SCT300 21/15 A2991 RMK CB2AC1CI0 SLP127

CYQR;2010-07-31 15:00;CYQR 311500Z 03007KT 15SM FEW040CB FEW090 FEW300 23/15 A2990 RMK CB1AC1CI1 CB TOPS E SLP122

CYQR;2010-07-31 16:00;CYQR 311600Z 03004KT 15SM FEW090 SCT300 26/17 A2989 RMK ACC1CI1 SLP120

CYQR;2010-07-31 17:00;CYQR 311700Z 35004KT 15SM FEW090 BKN300 26/16 A2989 RMK AC1CI2 SLP119

CYQR;2010-07-31 18:00;CYQR 311800Z 07005KT 15SM FEW170 BKN300 27/18 A2989 RMK AC1CI2 SLP119

CYQR;2010-07-31 19:00;CYQR 311900Z 03007KT 15SM FEW040 FEW300 28/18 A2988 RMK CF1CI2 SLP115

CYQR;2010-07-31 20:00;CYQR 312000Z 03009KT 15SM FEW040 FEW300 28/18 A2987 RMK CU1CI1 SLP113

CYQR;2010-07-31 21:00;CYQR 312100Z 06006G16KT 15SM FEW052TCU 29/18 A2986 RMK TCU1 SLP109

CYQR;2010-07-31 22:00;CYQR 312200Z 01004KT 15SM FEW049 FEW300 29/18 A2984 RMK CU1CI1 CB TOPS DIST SE SLP102

CYQR;2010-07-31 23:00;CYQR 312300Z 03004KT 15SM FEW051TCU FEW300 29/17 A2983 RMK TCU1CI1 SLP101

CYQR;2010-08-01 01:00;CYQR 010100Z 15012G19KT 15SM FEW050TCU FEW300 26/16 A2984 RMK TCU1CI1 SLP102

CYQR;2010-08-01 02:00;CYQR 010200Z 17006KT 15SM FEW059TCU SCT082 BKN260 21/17 A2984 RMK TCU2ACC2CI1 SLP104

CYQR;2010-08-01 03:00;CYQR 010300Z 10002KT 15SM SCT082TCU BKN260 20/17 A2985 RMK TCU3CI2 SLP107

CYQR;2010-08-01 04:00;CYQR 010400Z 34003KT 15SM SCT085TCU BKN260 20/17 A2986 RMK TCU3CI2 SLP112

CYQR;2010-08-01 05:00;CYQR 010500Z 35002KT 15SM SCT085 OVC260 20/17 A2986 RMK AC4CI2 SLP111

CYQR;2010-08-01 06:00;CYQR 010600Z 06002KT 15SM SCT085 OVC260 20/17 A2985 RMK AC4CI2 SLP105

CYQR;2010-08-01 07:00;CYQR 010700Z 07003KT 15SM SCT085 OVC260 20/16 A2982 RMK AC4CI2 SLP097

CYQR;2010-08-01 08:00;CYQR 010800Z 16006KT 15SM SCT090 BKN260 18/15 A2983 RMK AC4CI1 SLP100

CYQR;2010-08-01 09:00;CYQR 010900Z 20002KT 15SM SCT051 17/15 A2983 RMK SC4 SLP098

CYQR;2010-08-01 10:00;CYQR 011000Z 31004KT 15SM SCT060 15/14 A2983 RMK SC4 SLP099

CYQR;2010-08-01 11:00;CYQR 011100Z 31002KT 15SM BKN080 16/14 A2984 RMK AC6 TCU TOPS EAST SLP101

CYQR;2010-08-01 12:00;CYQR 011200Z 18004KT 15SM BKN078 15/14 A2984 RMK AC6 SLP105

CYQR;2010-08-01 13:00;CYQR 011300Z 31007KT 15SM FEW078 SCT095 BKN260 17/15 A2985 RMK AC2AC1CI1 SLP107

CYQR;2010-08-01 14:00;CYQR 011400Z 33005KT 15SM FEW090 BKN300 20/17 A2985 RMK ACC2CI2 SLP106

CYQR;2010-08-01 15:00;CYQR 011500Z 35007KT 15SM FEW030 FEW090 BKN300 22/16 A2983 RMK CF1ACC1CI5 SLP103

CYQR;2010-08-01 16:00;CYQR 011600Z 03007KT 15SM FEW030 FEW090 BKN300 23/17 A2981 RMK CF1ACC1CI3 SLP096

CYQR;2010-08-01 17:00;CYQR 011700Z 03008KT 15SM FEW030 FEW090TCU BKN300 24/17 A2981 RMK CF1TCU2CI2 SLP097

CYQR;2010-08-01 18:00;CYQR 011800Z 36006KT 15SM FEW035 BKN110 OVC300 25/17 A2983 RMK CF2AC5CI2 ACC EMBD SLP100

CYQR;2010-08-01 19:00;CYQR 011900Z 32009KT 15SM SCT035 OVC110 25/18 A2982 RMK SC3AC5 ACC EMBD SLP098

CYQR;2010-08-01 20:00;CYQR 012000Z 33006KT 15SM SCT035 SCT060 OVC110 24/17 A2981 RMK SC3AC1AC4 SLP095

CYQR;2010-08-01 20:16;CYQR 012016Z 32007KT 15SM -TSRA BKN050CB OVC110 24/ RMK CB5AC3

CYQR;2010-08-01 21:00;CYQR 012100Z 34007KT 15SM -TSRA BKN050CB OVC110 24/17 A2981 RMK CB5AC3 SLP095

CYQR;2010-08-01 22:00;CYQR 012200Z 14005KT 15SM SCT031TCU BKN069 OVC300 23/18 A2981 RETS RMK TCU4AC3CI1 SLP097

CYQR;2010-08-01 23:00;CYQR 012300Z 20004KT 15SM -SHRA BKN025TCU BKN070 OVC300 22/18 A2982 RMK TCU5AC2CI1 SLP099

CYQR;2010-08-02 00:00;CYQR 020000Z 12007KT 15SM BKN025TCU BKN070 OVC300 23/18 A2982 RMK TCU5AC2CI1 SLP102

CYQR;2010-08-02 01:00;CYQR 020100Z 13005KT 15SM FEW025TCU FEW070 BKN300 21/17 A2981 RMK TCU1AC2CI1 SLP098

CYQR;2010-08-02 02:00;CYQR 020200Z 16004KT 15SM FEW098 BKN300 20/16 A2981 RMK AC2CI1 ACC ASOCTD SLP097

CYQR;2010-08-02 03:00;CYQR 020300Z 19005KT 15SM FEW098 BKN300 18/16 A2983 RMK AC2CI1 SLP102

CYQR;2010-08-02 04:00;CYQR 020400Z 17003KT 15SM FEW098 BKN300 17/15 A2984 RMK AC2CI1 SLP105

CYQR;2010-08-02 05:00;CYQR 020500Z 16004KT 15SM FEW100 SCT300 16/15 A2984 RMK AC2CI0 SLP105

CYQR;2010-08-02 06:00;CYQR 020600Z 13003KT 15SM FEW100 SCT300 16/14 A2984 RMK AC2CI0 SLP106

CYQR;2010-08-02 07:00;CYQR 020700Z 15004KT 15SM FEW100 SCT260 16/15 A2984 RMK AC1CI1 SLP107

CYQR;2010-08-02 08:00;CYQR 020800Z 15004KT 15SM SKC 15/13 A2984 RMK SLP105

CYQR;2010-08-02 09:00;CYQR 020900Z 13004KT 15SM SKC 14/13 A2984 RMK SLP108

CYQR;2010-08-02 10:00;CYQR 021000Z 14003KT 15SM SCT034 15/14 A2985 RMK SC3 SLP109

CYQR;2010-08-02 11:00;CYQR 021100Z CCA 16005KT 15SM MIFG SCT035 13/13 A2985 RMK SC3 TCU TOPS EAST SLP109

CYQR;2010-08-02 12:00;CYQR 021200Z 19003KT 10SM MIFG FEW029 SCT092 13/12 A2985 RMK SC1AC2 TCU TOPS EAST ACC ASOCTD SLP112

CYQR;2010-08-02 13:00;CYQR 021300Z 23002KT 10SM MIFG FEW030 SCT092 BKN280 14/13 A2985 RMK SC1AC2CI1 TCU TOPS E ACC ASOCTD SLP113

CYQR;2010-08-02 14:00;CYQR 021400Z 31005KT 15SM FEW010 FEW090 FEW300 17/16 A2985 RMK SF1AC1CI1 SLP113

CYQR;2010-08-02 14:42;CYQR 021442Z 32010KT 15SM BKN009 OVC090 18/ RMK SC5AC3

CYQR;2010-08-02 15:00;CYQR 021500Z 31009KT 15SM BKN006 OVC090 18/16 A2987 RMK SC7AC1 SLP118

CYQR;2010-08-02 16:00;CYQR 021600Z 31009KT 15SM BKN008 OVC090 19/16 A2988 RMK SC6AC2 SLP122

CYQR;2010-08-02 16:36;CYQR 021636Z 30009KT 15SM BKN010 OVC090 20/ RMK SC6AC2

CYQR;2010-08-02 17:00;CYQR 021700Z 30006KT 15SM BKN010 OVC090 20/16 A2989 RMK SC6AC2 SLP124

CYQR;2010-08-02 18:00;CYQR 021800Z 28008KT 15SM BKN018 BKN085 22/17 A2988 RMK SC6AC1 SLP121

CYQR;2010-08-02 19:00;CYQR 021900Z CCA 28018G26KT 15SM -SHRA BKN030 BKN094 22/15 A2987 RMK CU6AC2 TCU EMBD SLP119

CYQR;2010-08-02 19:38;CYQR 021938Z 27014KT 15SM BKN030 BKN095 23/ RMK CU5AC2 TCU EMBD

CYQR;2010-08-02 20:00;CYQR 022000Z 29012G18KT 15SM BKN030 BKN095 23/15 A2987 RMK CU6AC1 TCU EMBD SLP119

CYQR;2010-08-02 21:00;CYQR 022100Z 28018KT 15SM SCT034 BKN095 25/16 A2986 RMK CU4AC1 TCU EMBD SLP116

CYQR;2010-08-02 22:00;CYQR 022200Z 31013G18KT 15SM -RA BKN034TCU BKN095 24/16 A2986 RMK TCU5AC2 SLP116

CYQR;2010-08-02 22:43;CYQR 022243Z 32014G19KT 15SM SCT035TCU SCT110 23/ RMK TCU3AC1

CYQR;2010-08-02 23:00;CYQR 022300Z 30015KT 15SM FEW035TCU SCT110 24/15 A2987 RMK TCU2AC2 SLP118

CYQR;2010-08-03 00:00;CYQR 030000Z CCA 30015KT 15SM SCT035TCU 24/16 A2987 RMK TCU4 SLP119

CYQR;2010-08-03 01:00;CYQR 030100Z 34007KT 15SM FEW035CB FEW300 22/16 A2989 RMK CB1CI1 SLP124

CYQR;2010-08-03 02:00;CYQR 030200Z CCA 31002KT 15SM FEW035CB FEW080 FEW300 21/16 A2990 RMK CB1ACC1CI0 SLP127

CYQR;2010-08-03 03:00;CYQR 030300Z 28006KT 15SM FEW035TCU FEW080 FEW300 19/16 A2992 RMK TCU1ACC1CI1 SLP135

CYQR;2010-08-03 04:00;CYQR 030400Z 30007KT 15SM FEW080 FEW300 17/15 A2992 RMK AC1CI0 SLP136

CYQR;2010-08-03 05:00;CYQR 030500Z 28007KT 15SM SKC 15/14 A2994 RMK SLP141

CYQR;2010-08-03 06:00;CYQR 030600Z 30007KT 15SM SKC 15/13 A2995 RMK SLP147

CYQR;2010-08-03 07:00;CYQR 030700Z 30007KT 15SM SKC 14/13 A2996 RMK SLP149

CYQR;2010-08-03 08:00;CYQR 030800Z 28003KT 15SM SKC 13/12 A2995 RMK SLP147

CYQR;2010-08-03 09:00;CYQR 030900Z 28003KT 15SM SKC 12/11 A2996 RMK SLP150

CYQR;2010-08-03 10:00;CYQR 031000Z 26004KT 15SM SKC 12/11 A2996 RMK SLP151

CYQR;2010-08-03 11:00;CYQR 031100Z 27006KT 10SM FEW300 12/11 A2997 RMK CI1 SLP153

CYQR;2010-08-03 12:00;CYQR 031200Z 27006KT 10SM FEW100 BKN300 13/12 A2999 RMK AC1CI2 SLP158

CYQR;2010-08-03 13:00;CYQR 031300Z 32006KT 10SM FEW100 BKN300 15/14 A3000 RMK AC2CI3 SLP162

CYQR;2010-08-03 14:00;CYQR 031400Z 29006KT 10SM FEW015 BKN040 OVC140 16/14 A3001 RMK SF2SC5AC2 SLP167

CYQR;2010-08-03 14:19;CYQR 031419Z 29008KT 10SM -SHRA SCT012 BKN047 OVC090 16/ RMK SC3SC3AC2 CVCTV CLD EMBD

CYQR;2010-08-03 15:00;CYQR 031500Z 29006KT 10SM -SHRA FEW012 BKN062 OVC090 16/14 A3003 RMK SC2SC4AC2 CVCTV CLD EMBD SLP175

CYQR;2010-08-03 16:00;CYQR 031600Z 28009KT 10SM -SHRA FEW020 BKN055 OVC090 16/14 A3004 RMK CF1SC6AC2 CVCTV CLD EMBD SLP178

CYQR;2010-08-03 17:00;CYQR 031700Z 28009KT 10SM -SHRA SCT011 BKN029 OVC096 17/15 A3005 RMK SC3SC3AC2 SLP180

CYQR;2010-08-03 17:43;CYQR 031743Z 28007KT 10SM BKN047 OVC120 19/ RMK SC6AC2

CYQR;2010-08-03 18:00;CYQR 031800Z 30009KT 10SM SCT047 OVC120 20/15 A3005 RMK SC3AC4 SLP181

CYQR;2010-08-03 19:00;CYQR 031900Z 28010KT 10SM FEW012 SCT047 OVC087 20/16 A3005 RMK CF1SC4AC3 SLP181

CYQR;2010-08-03 20:00;CYQR 032000Z 32013KT 12SM FEW028 BKN300 22/14 A3004 RMK CU2CI1 SLP178

CYQR;2010-08-03 21:00;CYQR 032100Z 30017G24KT 15SM BKN038 BKN300 24/12 A3003 RMK CU5CI0 SLP174

CYQR;2010-08-03 22:00;CYQR 032200Z 29017KT 15SM BKN048 BKN300 24/13 A3002 RMK CU5CI0 SLP172

CYQR;2010-08-03 23:00;CYQR 032300Z 28016KT 15SM SCT043 BKN069 23/12 A3003 RMK CU3AC3 SLP174

CYQR;2010-08-04 00:00;CYQR 040000Z 32014G20KT 15SM SCT043 BKN067 22/13 A3003 RMK CU3AC2 SLP174

CYQR;2010-08-04 01:00;CYQR 040100Z 29016KT 15SM FEW045 FEW070 FEW300 22/12 A3004 RMK CU1AC1CI0 SLP176

CYQR;2010-08-04 02:00;CYQR 040200Z 30010KT 15SM FEW045 FEW070 19/13 A3004 RMK CU1AC1 TCU ASOCTD SLP178

CYQR;2010-08-04 03:00;CYQR 040300Z 29009KT 15SM FEW057 FEW070 15/12 A3005 RMK SC1AC1 CU ASOCTD SLP183

CYQR;2010-08-04 04:00;CYQR 040400Z 31008KT 15SM FEW070 14/12 A3007 RMK AC1 SLP189

CYQR;2010-08-04 05:00;CYQR 040500Z 30007KT 15SM SKC 13/11 A3007 RMK SLP191

CYQR;2010-08-04 06:00;CYQR 040600Z 31010KT 15SM FEW033 SCT082 13/12 A3009 RMK SC1AC2 SLP195

CYQR;2010-08-04 07:00;CYQR 040700Z 30009KT 15SM SCT035 14/13 A3009 RMK SC4 SLP195

CYQR;2010-08-04 08:00;CYQR 040800Z 29008KT 15SM SCT049 13/12 A3009 RMK SC4 SLP196

CYQR;2010-08-04 09:00;CYQR 040900Z 29007KT 15SM SCT049 13/12 A3009 RMK SC2 SLP192

CYQR;2010-08-04 10:00;CYQR 041000Z 28009KT 15SM FEW049 FEW080 12/11 A3010 RMK SC0AC1 SLP195

CYQR;2010-08-04 11:00;CYQR 041100Z 30009KT 15SM FEW053 FEW080 FEW250 12/11 A3010 RMK SC1AC1CI0 SLP198

CYQR;2010-08-04 12:00;CYQR 041200Z 31009KT 15SM FEW052 FEW080 FEW250 12/10 A3012 RMK SC1AC1CI1 SLP205

CYQR;2010-08-04 13:00;CYQR 041300Z 31007KT 15SM FEW250 12/10 A3012 RMK CI0 SLP207

CYQR;2010-08-04 14:00;CYQR 041400Z 30008KT 15SM FEW280 14/11 A3012 RMK CI1 SLP206

CYQR;2010-08-04 15:00;CYQR 041500Z 32011KT 15SM SCT280 16/11 A3012 RMK CI1 SLP209

CYQR;2010-08-04 16:00;CYQR 041600Z 30007KT 15SM BKN300 19/11 A3012 RMK CI2 SLP209

CYQR;2010-08-04 17:00;CYQR 041700Z 31012KT 15SM BKN300 20/11 A3012 RMK CI2 SLP208

CYQR;2010-08-04 18:00;CYQR 041800Z 32015KT 15SM FEW046 OVC300 21/10 A3011 RMK CU2CI1 SLP202

CYQR;2010-08-04 19:00;CYQR 041900Z 31018G24KT 15SM FEW052 BKN300 22/08 A3010 RMK CU1CI2 SLP199

CYQR;2010-08-04 20:00;CYQR 042000Z 33018G26KT 15SM FEW056 BKN300 22/08 A3009 RMK CU2CI1 SLP196

CYQR;2010-08-04 21:00;CYQR 042100Z 31018G24KT 15SM FEW060 BKN300 23/07 A3008 RMK CU1CI2 SLP191

CYQR;2010-08-04 22:00;CYQR 042200Z 32020KT 15SM FEW060 BKN300 22/08 A3007 RMK CU1CI1 SLP188

CYQR;2010-08-04 23:00;CYQR 042300Z 32017G22KT 15SM FEW060 FEW300 22/08 A3007 RMK CU1CI1 TR CU SLP187

CYQR;2010-08-05 00:00;CYQR 050000Z 33014KT 15SM FEW060 BKN300 21/08 A3006 RMK SC1CI5 SLP188

CYQR;2010-08-05 01:00;CYQR 050100Z 33006KT 15SM FEW061 BKN160 OVC300 20/10 A3005 RMK SC1AC6CI1 SLP184

CYQR;2010-08-05 02:00;CYQR 050200Z 31007KT 15SM BKN160 OVC300 19/11 A3005 RMK AC5CI2 SLP184

CYQR;2010-08-05 03:00;CYQR 050300Z 30007KT 15SM FEW160 BKN300 15/10 A3006 RMK AC1CI2 SLP187

CYQR;2010-08-05 04:00;CYQR 050400Z 28007KT 15SM BKN300 13/10 A3006 RMK CI1 SLP189

CYQR;2010-08-05 05:00;CYQR 050500Z 28007KT 15SM SCT300 12/09 A3007 RMK CI1 SLP190

CYQR;2010-08-05 06:00;CYQR 050600Z 26007KT 15SM SCT300 10/08 A3007 RMK CI3 SLP190

CYQR;2010-08-05 07:00;CYQR 050700Z 27007KT 15SM SCT300 10/08 A3006 RMK CI1 SLP189

CYQR;2010-08-05 08:00;CYQR 050800Z 28006KT 15SM BKN300 10/08 A3006 RMK CI2 SLP189

CYQR;2010-08-05 09:00;CYQR 050900Z 29003KT 15SM FEW300 09/07 A3006 RMK CI1 SLP187

CYQR;2010-08-05 10:00;CYQR 051000Z 27005KT 15SM SCT300 08/07 A3005 RMK CI1 SLP184

CYQR;2010-08-05 11:00;CYQR 051100Z 28004KT 15SM SCT300 08/07 A3005 RMK CI1 SLP184

CYQR;2010-08-05 12:00;CYQR 051200Z 28006KT 15SM FEW300 08/07 A3005 RMK CI1 SLP186

CYQR;2010-08-05 13:00;CYQR 051300Z 31003KT 15SM SCT300 10/09 A3006 RMK CI1 SLP187

CYQR;2010-08-05 14:00;CYQR 051400Z 31007KT 15SM FEW300 13/11 A3006 RMK CI0 SLP188

CYQR;2010-08-05 15:00;CYQR 051500Z 29006KT 15SM FEW300 16/12 A3007 RMK CI1 SLP192

CYQR;2010-08-05 16:00;CYQR 051600Z 30010KT 15SM FEW140 19/12 A3006 RMK AC1 SLP189

CYQR;2010-08-05 17:00;CYQR 051700Z 32014KT 15SM FEW140 21/12 A3005 RMK AC1 SLP186

CYQR;2010-08-05 18:00;CYQR 051800Z 31014G21KT 15SM FEW040 23/13 A3005 RMK CF1 SLP181

CYQR;2010-08-05 19:00;CYQR 051900Z CCA 33011G17KT 15SM FEW040 23/13 A3004 RMK CU2 SLP178

CYQR;2010-08-05 20:00;CYQR 052000Z 35012G17KT 15SM SCT042 BKN100 23/13 A3002 RMK CU3AC3 TCU ASOCTD SLP174

CYQR;2010-08-05 21:00;CYQR 052100Z 33012KT 15SM SCT042 BKN100 23/13 A3002 RMK CU4AC2 TCU EMBD SLP172

CYQR;2010-08-05 22:00;CYQR 052200Z 36007G15KT 15SM FEW042 BKN100 BKN300 22/13 A3001 RMK CU2AC4CI2 SLP170

CYQR;2010-08-05 23:00;CYQR 052300Z 34011KT 15SM FEW042 BKN083 24/13 A3000 RMK CU2AC4 TCU ASOCTD SLP167

CYQR;2010-08-06 00:00;CYQR 060000Z 34010KT 15SM FEW040 SCT080 22/13 A3000 RMK CU1AC2 SLP165

CYQR;2010-08-06 01:00;CYQR 060100Z 36009KT 15SM FEW040TCU FEW080 FEW300 22/12 A2998 RMK TCU1AC1CI0 SLP160

CYQR;2010-08-06 02:00;CYQR 060200Z 02008KT 15SM FEW080 FEW300 20/12 A2998 RMK AC1CI0 SLP159

CYQR;2010-08-06 03:00;CYQR 060300Z 07005KT 15SM FEW300 17/12 A2998 RMK CI1 SLP158

CYQR;2010-08-06 04:00;CYQR 060400Z 12003KT 15SM FEW300 16/12 A2999 RMK CI1 SLP161

CYQR;2010-08-06 05:00;CYQR 060500Z 15003KT 15SM FEW300 13/11 A3000 RMK CI0 SLP165

CYQR;2010-08-06 06:00;CYQR 060600Z 18004KT 15SM FEW300 12/10 A2999 RMK CI1 SLP162

CYQR;2010-08-06 07:00;CYQR 060700Z 16004KT 15SM FEW071 FEW300 11/10 A2999 RMK AC1CI1 TR AC SLP162

CYQR;2010-08-06 08:00;CYQR 060800Z 13005KT 15SM SKC 11/09 A2999 RMK SLP160

CYQR;2010-08-06 09:00;CYQR 060900Z 14006KT 15SM SKC 11/10 A2999 RMK SLP160

CYQR;2010-08-06 10:00;CYQR 061000Z 12005KT 15SM SKC 10/09 A2997 RMK SLP156

CYQR;2010-08-06 11:00;CYQR 061100Z 14007KT 15SM FEW300 11/09 A2997 RMK CI1 SLP154

CYQR;2010-08-06 12:00;CYQR 061200Z 14007KT 15SM FEW300 11/10 A2996 RMK CI1 SLP153

CYQR;2010-08-06 13:00;CYQR 061300Z 15006KT 15SM FEW300 13/11 A2996 RMK CI1 SLP153

CYQR;2010-08-06 14:00;CYQR 061400Z 15006KT 15SM OVC300 16/13 A2996 RMK CI0 SLP151

CYQR;2010-08-06 15:00;CYQR 061500Z 16007KT 15SM FEW150 OVC300 19/14 A2995 RMK AC1CI4 SLP147

CYQR;2010-08-06 16:00;CYQR 061600Z 16008KT 15SM BKN300 21/15 A2995 RMK CI3 SLP145

CYQR;2010-08-06 17:00;CYQR 061700Z 16010G15KT 15SM FEW070 BKN300 23/15 A2992 RMK AC1CI2 SLP137

CYQR;2010-08-06 18:00;CYQR 061800Z 16010G15KT 15SM FEW070 BKN300 24/14 A2991 RMK AC1CI3 SLP131

CYQR;2010-08-06 19:00;CYQR 061900Z 16011KT 15SM FEW140 BKN300 25/14 A2988 RMK AC1CI2 SLP124

CYQR;2010-08-06 20:00;CYQR 062000Z 19009G15KT 15SM FEW140 SCT300 27/14 A2986 RMK AC1CI1 SLP116

CYQR;2010-08-06 21:00;CYQR 062100Z 18005KT 12SM BKN300 28/14 A2984 RMK CI2 SLP106

CYQR;2010-08-06 22:00;CYQR 062200Z 16013KT 12SM OVC300 28/14 A2981 RMK CI3 SLP098

CYQR;2010-08-06 23:00;CYQR 062300Z 17006KT 12SM FEW300 28/14 A2979 RMK CI1 SLP089

CYQR;2010-08-07 00:00;CYQR 070000Z 14011KT 12SM FEW300 28/15 A2976 RMK CI1 SLP080

CYQR;2010-08-07 01:00;CYQR 070100Z 13012KT 12SM FEW140 SCT300 26/15 A2973 RMK AC1CI1 SLP069

CYQR;2010-08-07 02:00;CYQR 070200Z 13012KT 15SM SCT300 24/15 A2973 RMK CI3 SLP070

CYQR;2010-08-07 03:00;CYQR 070300Z 13013KT 15SM SCT140 OVC300 22/15 A2974 RMK AC3CI5 SLP072

CYQR;2010-08-07 04:00;CYQR 070400Z 14013KT 15SM BKN300 21/14 A2972 RMK CI3 SLP066

CYQR;2010-08-07 05:00;CYQR 070500Z 14015KT 15SM SCT100 OVC300 20/14 A2971 RMK AC3CI2 SLP061

CYQR;2010-08-07 06:00;CYQR 070600Z 15010KT 15SM OVC300 18/14 A2969 RMK CI6 SLP053

CYQR;2010-08-07 07:00;CYQR 070700Z 15010KT 15SM OVC300 18/14 A2967 RMK CI3 SLP046

CYQR;2010-08-07 08:00;CYQR 070800Z 16011KT 15SM FEW100 SCT300 17/14 A2966 RMK AC1CI1 SLP043

CYQR;2010-08-07 09:00;CYQR 070900Z 16007KT 15SM BKN100 OVC300 16/14 A2967 RMK AC5CI2 SLP044

CYQR;2010-08-07 10:00;CYQR 071000Z 15010KT 15SM FEW100 FEW300 16/13 A2966 RMK AC1CI1 SLP041

CYQR;2010-08-07 11:00;CYQR 071100Z 15008KT 15SM FEW100 FEW300 15/13 A2965 RMK ACC1CI1 SLP038

CYQR;2010-08-07 12:00;CYQR 071200Z 16007KT 15SM BKN100 15/13 A2965 RMK AC6 ACC ASOCTD SLP039

CYQR;2010-08-07 13:00;CYQR 071300Z 17008KT 15SM BKN100 16/13 A2964 RMK AC6 SLP037

CYQR;2010-08-07 14:00;CYQR 071400Z 18009KT 12SM FEW035 FEW100 FEW260 19/15 A2965 RMK CU1AC2CI1 CU TR SLP038

CYQR;2010-08-07 15:00;CYQR 071500Z 20006KT 12SM SCT040 SCT100 SCT260 21/16 A2964 RMK SC3AC1CI1 TR CI SLP036

CYQR;2010-08-07 16:00;CYQR 071600Z 22005KT 15SM BKN100 BKN260 22/17 A2964 RMK AC6CI1 SLP037

CYQR;2010-08-07 17:00;CYQR 071700Z 21007KT 15SM SCT078 BKN100 BKN260 23/16 A2965 RMK AC4AC2CI0 SLP038

CYQR;2010-08-07 18:00;CYQR 071800Z 26007KT 15SM SCT071 BKN260 26/16 A2963 RMK AC2CI0 SLP033

CYQR;2010-08-07 19:00;CYQR 071900Z 26009KT 15SM SCT093 SCT260 28/16 A2963 RMK AC3CI0 ACC ASOCTD SLP032

CYQR;2010-08-07 20:00;CYQR 072000Z 25009KT 15SM FEW087 SCT260 30/16 A2962 RMK AC2CI1 SLP029

CYQR;2010-08-07 21:00;CYQR 072100Z 23010G15KT 15SM FEW060TCU FEW260 29/15 A2961 RMK TCU1CI0 HZ SLP025

CYQR;2010-08-07 22:00;CYQR 072200Z 28010KT 10SM FEW068 30/13 A2961 RMK CU1 HZ SLP023

CYQR;2010-08-07 23:00;CYQR 072300Z 30010G16KT 10SM FEW064TCU 29/13 A2960 RMK TCU1 HZ SLP021

CYQR;2010-08-08 00:00;CYQR 080000Z 29010KT 10SM FEW065CB 29/13 A2960 RMK CB1 CB E SLP022

CYQR;2010-08-08 01:00;CYQR 080100Z 30009KT 10SM FEW065 26/15 A2962 RMK CU1 HZ SLP027

CYQR;2010-08-08 02:00;CYQR 080200Z 29006KT 12SM FEW060 23/17 A2963 RMK SC1 SLP030

CYQR;2010-08-08 03:00;CYQR 080300Z 26006KT 15SM FEW300 18/16 A2965 RMK CI1 SLP041

CYQR;2010-08-08 04:00;CYQR 080400Z 31005KT 15SM SKC 17/15 A2967 RMK SLP048

CYQR;2010-08-08 05:00;CYQR 080500Z 32004KT 15SM SKC 17/15 A2968 RMK SLP050

CYQR;2010-08-08 06:00;CYQR 080600Z 33008KT 15SM SKC 16/14 A2968 RMK SLP051

CYQR;2010-08-08 07:00;CYQR 080700Z 00000KT 12SM SKC 15/14 A2969 RMK SLP053

CYQR;2010-08-08 08:00;CYQR 080800Z 00000KT 12SM SKC 14/13 A2969 RMK SLP053

CYQR;2010-08-08 09:00;CYQR 080900Z 26004KT 10SM SKC 13/12 A2969 RMK SLP054

CYQR;2010-08-08 10:00;CYQR 081000Z 00000KT 10SM SKC 11/10 A2971 RMK SLP058

CYQR;2010-08-08 11:00;CYQR 081100Z 25004KT 10SM SKC 11/10 A2972 RMK SLP063

CYQR;2010-08-08 12:00;CYQR 081200Z 23004KT 8SM SKC 11/10 A2973 RMK BR SLP070

CYQR;2010-08-08 13:00;CYQR 081300Z 00000KT 9SM SKC 14/13 A2974 RMK HZ SLP072

CYQR;2010-08-08 14:00;CYQR 081400Z 00000KT 9SM SKC 18/15 A2975 RMK HZ SLP076

CYQR;2010-08-08 15:00;CYQR 081500Z 19003KT 5SM HZ SKC 20/17 A2975 RMK SLP077

CYQR;2010-08-08 16:00;CYQR 081600Z 21003KT 10SM SKC 24/17 A2975 RMK HZ SLP076

CYQR;2010-08-08 17:00;CYQR 081700Z 21002KT 12SM SKC 27/16 A2974 RMK HZ SLP074

CYQR;2010-08-08 18:00;CYQR 081800Z 18005KT 12SM FEW350 28/16 A2974 RMK CI1 HZ SLP071

CYQR;2010-08-08 19:00;CYQR 081900Z 22005KT 12SM FEW050 29/15 A2974 RMK CU1 HZ SLP069

CYQR;2010-08-08 20:00;CYQR 082000Z 21008KT 12SM FEW060 30/15 A2973 RMK CU1 HZ SLP067

CYQR;2010-08-08 21:00;CYQR 082100Z 16003KT 12SM FEW060TCU FEW350 30/15 A2972 RMK TCU1CI0 HZ SLP062

CYQR;2010-08-08 22:00;CYQR 082200Z 13008KT 12SM FEW060CB FEW350 30/15 A2970 RMK CB1CI1 HZ CB SE-S SLP055

CYQR;2010-08-08 22:42;CYQR 082242Z 12009KT 12SM TS BKN060CB 28/ RMK CB6 SH DIST SW-W

CYQR;2010-08-08 23:00;CYQR 082300Z 10011KT 10SM TS VCSH BKN055CB BKN350 28/15 A2967 RMK CB6CI1 LTGCG SW PRESFR SLP046

CYQR;2010-08-08 23:15;CYQR 082315Z 18014KT 10SM -TSRA BKN055CB OVC350 27/ RMK CB6CI2 LTGCG

CYQR;2010-08-08 23:25;CYQR 082325Z 23026G34KT 8SM TSRA BKN050CB BKN350 20/ RMK CB6CI2 RVR R13 6000FT

CYQR;2010-08-08 23:43;CYQR 082343Z 10007KT 15SM -TSRA FEW035 BKN067CB BKN320 18/ RERA RMK CF1CB6CI2 LTGICCG N-NE

CYQR;2010-08-09 00:00;CYQR 090000Z 00000KT 15SM TS FEW035 BKN067CB BKN320 19/17 A2971 RERA RMK SC1CB6CI1 LTGCG N-NE SLP066

CYQR;2010-08-09 00:21;CYQR 090021Z 07003KT 15SM FEW035 SCT042CB BKN320 21/ RETS RMK CF1CB3CI3

CYQR;2010-08-09 01:00;CYQR 090100Z 04004KT 15SM SCT067CB BKN320 21/18 A2971 RETS RMK CB3CI2 SLP068

CYQR;2010-08-09 02:00;CYQR 090200Z 09006KT 15SM FEW060 FEW320 21/18 A2971 RMK CU1CI0 SLP069

CYQR;2010-08-09 03:00;CYQR 090300Z 09007KT 15SM FEW060 19/16 A2973 RMK SC1 SLP070

CYQR;2010-08-09 04:00;CYQR 090400Z 10007KT 15SM SKC 19/16 A2974 RMK SLP071

CYQR;2010-08-09 05:00;CYQR 090500Z 12007KT 15SM BKN050 18/15 A2974 RMK SC5 SLP073

CYQR;2010-08-09 06:00;CYQR 090600Z 13009KT 15SM SKC 17/15 A2974 RMK SLP070

CYQR;2010-08-09 07:00;CYQR 090700Z 13006KT 15SM SKC 16/14 A2975 RMK SLP073

CYQR;2010-08-09 08:00;CYQR 090800Z 13004KT 15SM SKC 17/15 A2974 RMK SLP070

CYQR;2010-08-09 09:00;CYQR 090900Z 25005KT 15SM SKC 14/13 A2976 RMK SLP074

CYQR;2010-08-09 10:00;CYQR 091000Z 21005KT 15SM SKC 13/12 A2978 RMK SLP081

CYQR;2010-08-09 11:00;CYQR 091100Z 28005KT 3/4SM R13/3000VP6000FT/D BR VV001 13/13 A2980 RMK FG8 SLP087

CYQR;2010-08-09 11:19;CYQR 091119Z 30006KT 1/4SM R13/2400FT/N FG VV001 13/ RMK FG8

CYQR;2010-08-09 11:34;CYQR 091134Z 30005KT 1/2SM R13/2800VP6000FT/U FG SKC 13/ RMK FG7

CYQR;2010-08-09 11:44;CYQR 091144Z 30006KT 3/4SM R13/P6000FT/U BR FEW050 13/ RMK FG1SC1

CYQR;2010-08-09 12:00;CYQR 091200Z 30007KT 3SM BR FEW050 13/13 A2981 RMK SC1 SLP101

CYQR;2010-08-09 13:00;CYQR 091300Z 30005KT 15SM FEW090 14/13 A2983 RMK AC1 SLP108

CYQR;2010-08-09 14:00;CYQR 091400Z 33009KT 15SM FEW090 17/15 A2985 RMK AC1 SLP112

CYQR;2010-08-09 15:00;CYQR 091500Z 33007KT 15SM FEW110 20/17 A2986 RMK AC1 SLP113

CYQR;2010-08-09 16:00;CYQR 091600Z 33005KT 15SM FEW110 21/17 A2986 RMK AC1 SLP115

CYQR;2010-08-09 17:00;CYQR 091700Z 32005KT 15SM FEW024 22/17 A2988 RMK CF1 SLP119

CYQR;2010-08-09 18:00;CYQR 091800Z 33005KT 15SM FEW030 24/16 A2988 RMK CF1 SLP120

CYQR;2010-08-09 19:00;CYQR 091900Z 27003KT 15SM FEW036 25/16 A2988 RMK CF1 SLP120

CYQR;2010-08-09 20:00;CYQR 092000Z 36006KT 15SM FEW036 FEW330 25/16 A2988 RMK CF1CI1 SLP119

CYQR;2010-08-09 21:00;CYQR 092100Z 32005KT 15SM FEW040 FEW330 26/16 A2988 RMK CF1CI1 SLP119

CYQR;2010-08-09 22:00;CYQR 092200Z 04004KT 15SM FEW330 26/17 A2987 RMK CI0 SLP117

CYQR;2010-08-09 23:00;CYQR 092300Z 32004KT 15SM FEW330 27/16 A2987 RMK CI0 SLP116

CYQR;2010-08-10 00:00;CYQR 100000Z 32007KT 15SM FEW330 26/16 A2986 RMK CI0 SLP114

CYQR;2010-08-10 01:00;CYQR 100100Z 03006KT 15SM FEW330 26/15 A2985 RMK CI1 SLP111

CYQR;2010-08-10 02:00;CYQR 100200Z 05006KT 15SM FEW330 23/15 A2986 RMK CI1 SLP112

CYQR;2010-08-10 03:00;CYQR 100300Z 08009KT 15SM FEW330 23/16 A2987 RMK CI1 SLP116

CYQR;2010-08-10 04:00;CYQR 100400Z 07009KT 15SM SKC 22/16 A2988 RMK SLP119

CYQR;2010-08-10 05:00;CYQR 100500Z 09010KT 15SM SKC 21/15 A2987 RMK SLP116

CYQR;2010-08-10 06:00;CYQR 100600Z 04007KT 15SM FEW050 19/14 A2986 RMK SC2 SLP111

CYQR;2010-08-10 07:00;CYQR 100700Z 07010KT 15SM SKC 21/15 A2985 RMK SLP107

CYQR;2010-08-10 08:00;CYQR 100800Z 08014KT 15SM OVC120 20/15 A2984 RMK AC8 SLP103

CYQR;2010-08-10 09:00;CYQR 100900Z 09012KT 15SM OVC120 20/15 A2983 RMK AC8 SLP098

CYQR;2010-08-10 10:00;CYQR 101000Z 11016G21KT 15SM SCT050 OVC120 20/15 A2983 RMK SC4AC4 CB EMBD OCNL LGTNG SE SLP098

CYQR;2010-08-10 10:41;CYQR 101041Z 14013G20KT 15SM -SHRA BKN049 OVC120 20/ RMK SC6AC2 CB EMBD LGTNG SE

CYQR;2010-08-10 11:00;CYQR 101100Z 15012KT 15SM -SHRA BKN050 OVC120 19/17 A2980 RMK SC6AC2 CB EMBD LGTNG SE-NW SLP090

CYQR;2010-08-10 12:00;CYQR 101200Z 18009KT 12SM -SHRA BKN018 OVC120 18/17 A2981 RMK SC6AC2 CB EMBD SLP091

CYQR;2010-08-10 13:00;CYQR 101300Z 00000KT 5SM -SHRA BR BKN007 OVC019 18/17 A2983 RMK SC5SC3 CVCTV CLD EMBD SLP099

CYQR;2010-08-10 13:03;CYQR 101303Z 16003KT 2SM -SHRA BR OVC007 18/ RMK SC8 CVCTV CLD EMBD

CYQR;2010-08-10 13:43;CYQR 101343Z 26003KT 2 1/2SM -TSRA BR FEW008 BKN010CB OVC090 18/ RMK SF1CB7AC1 VIS VRB 2-3 OCNL LTGCG

CYQR;2010-08-10 14:00;CYQR 101400Z 10005KT 2 1/2SM -TSRA BR BKN008CB OVC081 18/17 A2984 RMK CB6AC2 SLP101

CYQR;2010-08-10 14:22;CYQR 101422Z 09007KT 2 1/2SM -SHRA BR OVC018CB 18/ RETS RMK CB8

CYQR;2010-08-10 15:00;CYQR 101500Z 12005KT 2 1/2SM -SHRA BR FEW008 BKN011 OVC084 18/18 A2982 RETS RMK SF1ST7AC1 CVCTV CLD EMBD SLP100

CYQR;2010-08-10 16:00;CYQR 101600Z 12007KT 1SM R13/P6000FT/D -SHRA BR BKN005 OVC052 18/18 A2983 RMK SC7SC1 CVCTV CLD EMBD SLP103

CYQR;2010-08-10 16:16;CYQR 101616Z 07004KT 10SM -SHRA FEW007 BKN056 BKN100 18/ RMK SF1SC6AC1

CYQR;2010-08-10 16:41;CYQR 101641Z 06007KT 15SM FEW007 BKN066 BKN140 18/ RMK SF1AC6AC1

CYQR;2010-08-10 17:00;CYQR 101700Z 09010KT 15SM FEW007 BKN035 BKN066 BKN140 19/18 A2982 RMK SF1SC5AC2AC1 SLP100

CYQR;2010-08-10 18:00;CYQR 101800Z 08010G15KT 15SM FEW007 FEW040 BKN090 BKN140 20/18 A2982 RMK SF1SC2AC3AC2 SLP100

CYQR;2010-08-10 19:00;CYQR 101900Z 10012KT 15SM FEW015 SCT080 23/18 A2980 RMK CU2AC2 SLP092

CYQR;2010-08-10 20:00;CYQR 102000Z 16007KT 15SM SCT024 SCT090 23/19 A2980 RMK CU4AC1 SLP092

CYQR;2010-08-10 21:00;CYQR 102100Z 21006KT 15SM SCT024 SCT340 25/19 A2978 RMK CU3CI1 SLP083

CYQR;2010-08-10 22:00;CYQR 102200Z 00000KT 15SM FEW025 SCT100 BKN330 24/19 A2978 RMK CU2AC2CI1 CB ASOCTD W-NW SLP082

CYQR;2010-08-10 23:00;CYQR 102300Z 34003KT 15SM FEW025CB FEW100 BKN350 23/20 A2979 RMK CB2ACC1CI4 CB W + SE MAMMATUS SLP085

CYQR;2010-08-11 00:00;CYQR 110000Z 33006KT 15SM SCT025CB BKN350 24/19 A2978 RMK CB3CI2 CB NE-S SLP086

CYQR;2010-08-11 01:00;CYQR 110100Z 30004KT 15SM FEW025CB FEW120 25/18 A2979 RMK CB1AC1 SLP087

CYQR;2010-08-11 02:00;CYQR 110200Z 30004KT 15SM FEW025CB 22/19 A2979 RMK CB2 CB E-SE SLP089

CYQR;2010-08-11 03:00;CYQR 110300Z 31009KT 15SM BKN022TCU 21/19 A2981 RMK TCU5 SLP098

CYQR;2010-08-11 04:00;CYQR 110400Z 34007KT 15SM BKN026 19/17 A2982 RMK SC5 SLP101

CYQR;2010-08-11 05:00;CYQR 110500Z 24002KT 15SM SKC 17/16 A2984 RMK SLP106

CYQR;2010-08-11 06:00;CYQR 110600Z 28007KT 12SM SKC 15/15 A2984 RMK SLP108

CYQR;2010-08-11 07:00;CYQR 110700Z 27006KT 12SM SKC 15/14 A2984 RMK SLP109

CYQR;2010-08-11 08:00;CYQR 110800Z 29008KT 12SM SKC 15/14 A2985 RMK SLP111

CYQR;2010-08-11 09:00;CYQR 110900Z 28006KT 10SM SKC 14/13 A2985 RMK SLP111

CYQR;2010-08-11 10:00;CYQR 111000Z 34008KT 15SM OVC003 16/15 A2986 RMK ST8 SLP113

CYQR;2010-08-11 10:21;CYQR 111021Z 32009KT 15SM OVC004 16/ RMK ST8

CYQR;2010-08-11 10:55;CYQR 111055Z 32009KT 15SM OVC006 16/ RMK ST8

CYQR;2010-08-11 11:00;CYQR 111100Z 34010KT 15SM OVC007 16/15 A2988 RMK SC8 SLP120

CYQR;2010-08-11 12:00;CYQR 111200Z 34010KT 15SM OVC005 16/15 A2988 RMK SC8 SLP120

CYQR;2010-08-11 12:28;CYQR 111228Z 33008KT 15SM OVC004 16/ RMK SC8

CYQR;2010-08-11 13:00;CYQR 111300Z 32006KT 15SM OVC005 16/15 A2990 RMK SC8 SLP126

CYQR;2010-08-11 14:00;CYQR 111400Z 30007KT 15SM OVC005 16/15 A2991 RMK SC8 SLP130

CYQR;2010-08-11 14:43;CYQR 111443Z 35008KT 15SM OVC003 16/ RMK SF8

CYQR;2010-08-11 15:00;CYQR 111500Z 35009KT 15SM OVC004 16/15 A2991 RMK SF8 SLP133

CYQR;2010-08-11 15:43;CYQR 111543Z 33008KT 15SM OVC005 16/ RMK SF8

CYQR;2010-08-11 16:00;CYQR 111600Z 33009KT 15SM OVC007 17/15 A2991 RMK SC8 SLP134

CYQR;2010-08-11 16:34;CYQR 111634Z 36008KT 15SM BKN010 18/ RMK SC6

CYQR;2010-08-11 17:00;CYQR 111700Z 34005KT 15SM FEW012 BKN300 19/15 A2991 RMK CF2CI1 SLP131

CYQR;2010-08-11 18:00;CYQR 111800Z 02002KT 15SM FEW020 FEW095 BKN330 21/16 A2990 RMK CF1AC1CI1 SLP129

CYQR;2010-08-11 19:00;CYQR 111900Z 24003KT 15SM FEW025 FEW070 FEW140 SCT330 22/17 A2990 RMK CU1AC1AC1CI2 SLP130

CYQR;2010-08-11 20:00;CYQR 112000Z 04002KT 15SM FEW027TCU FEW120 BKN330 22/17 A2989 RMK TCU2AC1CI2 SLP125

CYQR;2010-08-11 21:00;CYQR 112100Z 01002KT 15SM FEW027TCU FEW120 SCT330 23/17 A2986 RMK TCU1AC1CI1 SLP114

CYQR;2010-08-11 22:00;CYQR 112200Z 35005KT 15SM FEW090 FEW330 25/16 A2985 RMK AC1CI1 SLP112

CYQR;2010-08-11 23:00;CYQR 112300Z 00000KT 15SM FEW090 FEW330 26/15 A2986 RMK AC1CI0 SLP114

CYQR;2010-08-12 00:00;CYQR 120000Z 13003KT 15SM FEW090 FEW330 25/16 A2983 RMK AC1CI1 SLP103

CYQR;2010-08-12 01:00;CYQR 120100Z 14002KT 15SM FEW075 BKN330 24/18 A2984 RMK ACC2CI2 SLP105

CYQR;2010-08-12 02:00;CYQR 120200Z CCA 23003KT 15SM FEW030CB FEW075 BKN330 21/19 A2984 RMK CB2AC1CI4 FREQ LTGCG SW SLP104

CYQR;2010-08-12 03:00;CYQR 120300Z CCA 16007KT 15SM FEW030 BKN093 21/18 A2984 RMK CU1AC7 LTGIC S SLP107

CYQR;2010-08-12 04:00;CYQR 120400Z 14007KT 15SM SCT095 BKN300 20/17 A2983 RMK AC3CI4 OCNL LTGIC DIST SE OBS TAKEN -09 SLP104

CYQR;2010-08-12 05:00;CYQR 120500Z 11006KT 15SM SCT095 BKN300 19/16 A2980 RMK AC3CI2 LTGIC DIST SE-S SLP094

CYQR;2010-08-12 06:00;CYQR 120600Z 09004KT 15SM FEW030CB SCT300 18/16 A2979 RMK CB2CI1 LTGICCG DIST SW SLP091

CYQR;2010-08-12 07:00;CYQR 120700Z 11006KT 15SM FEW030CB BKN091 17/15 A2979 RMK CB2AC2 LTGICCG SW-W SLP091

CYQR;2010-08-12 08:00;CYQR 120800Z 20007KT 15SM FEW030 SCT090 BKN290 16/15 A2981 RMK SC1AC2CI3 SLP096

CYQR;2010-08-12 09:00;CYQR 120900Z 17008KT 15SM FEW030 SCT120 OVC290 16/14 A2978 RMK SC1AC3CI3 SLP087

CYQR;2010-08-12 10:00;CYQR 121000Z 12004KT 15SM FEW030 BKN120 OVC300 16/14 A2976 RMK SC2AC3CI2 OBS TAKEN +07 SLP079

CYQR;2010-08-12 11:00;CYQR 121100Z 16006KT 15SM -SHRA BKN033 BKN085 16/14 A2976 RMK SC5AC2 CVCTV CLD EMBD SLP079

CYQR;2010-08-12 12:00;CYQR 121200Z 05003KT 15SM -SHRA FEW019 BKN036 BKN090 16/15 A2975 RMK SC1SC4AC2 -SHRA OCNL SLP074

CYQR;2010-08-12 12:20;CYQR 121220Z 14007KT 15SM FEW020 SCT051 BKN090 BKN280 16/ RMK SC1SC3AC2CI2

CYQR;2010-08-12 13:00;CYQR 121300Z 20006KT 15SM FEW020 BKN060 BKN280 16/14 A2976 RMK SC2SC3CI1 SLP077

CYQR;2010-08-12 14:00;CYQR 121400Z 27007KT 15SM FEW085 FEW120 BKN330 18/16 A2975 RMK AC1AC1CI4 SLP073

CYQR;2010-08-12 15:00;CYQR 121500Z 25007KT 15SM FEW085 BKN330 20/16 A2975 RMK AC2CI2 SLP074

CYQR;2010-08-12 16:00;CYQR 121600Z 23006KT 15SM FEW050 FEW330 22/16 A2973 RMK SC1CI2 SLP068

CYQR;2010-08-12 17:00;CYQR 121700Z 21008KT 15SM FEW030 FEW060 BKN330 23/16 A2971 RMK CF1SC2CI1 TR CF SLP062

CYQR;2010-08-12 18:00;CYQR 121800Z 20005KT 15SM FEW040 FEW100 BKN330 24/17 A2969 RMK SC1AC1CI1 SLP054

CYQR;2010-08-12 19:00;CYQR 121900Z 22012G17KT 15SM FEW040 FEW083 BKN300 24/17 A2967 RMK SC1AC1CI2 SLP049

CYQR;2010-08-12 20:00;CYQR 122000Z 23009G16KT 15SM SCT038 SCT100 BKN300 24/18 A2965 RMK CU3AC1CI1 TCU EMBD SLP041

CYQR;2010-08-12 20:39;CYQR 122039Z 27024G35KT 15SM -SHRA SCT030TCU BKN300 19/ RMK TCU4CI3 PRESRR CB N

CYQR;2010-08-12 21:00;CYQR 122100Z 27012G18KT 15SM SCT025TCU BKN300 19/15 A2966 RMK TCU3CI4 SLP049

CYQR;2010-08-12 22:00;CYQR 122200Z 29010KT 15SM FEW030 BKN120 BKN300 20/17 A2966 RMK CU2AC2CI2 TCU EMBD CB E SLP049

CYQR;2010-08-12 23:00;CYQR 122300Z 31009KT 15SM FEW030 BKN120 20/16 A2968 RMK SC2AC5 TCU EMBD SLP053

CYQR;2010-08-13 00:00;CYQR 130000Z 31009KT 15SM FEW016 BKN080 OVC300 20/17 A2968 RMK CU2AC4CI1 TCU EMBD SLP055

CYQR;2010-08-13 01:00;CYQR 130100Z 32004KT 15SM FEW020TCU SCT095CB BKN300 21/17 A2968 RMK TCU2CB2CI0 CB W SLP053

CYQR;2010-08-13 02:00;CYQR 130200Z 28004KT 15SM VCSH FEW030CB 18/16 A2967 RMK CB2 SLP050

CYQR;2010-08-13 03:00;CYQR 130300Z 27006KT 15SM FEW035TCU SCT065 BKN300 17/15 A2966 RMK TCU1SC1CI0 LTGIC DIST SE SLP048

CYQR;2010-08-13 04:00;CYQR 130400Z 25005KT 15SM FEW035 BKN300 15/14 A2967 RMK SC2CI0 OBS TAKEN -05 SLP051

CYQR;2010-08-13 05:00;CYQR 130500Z 28008KT 15SM FEW300 14/13 A2969 RMK CI0 SLP056

CYQR;2010-08-13 06:00;CYQR 130600Z 26005KT 15SM BKN082 14/13 A2969 RMK AC3 SLP057

CYQR;2010-08-13 07:00;CYQR 130700Z 30008KT 15SM SCT032 BKN064 14/13 A2969 RMK SC2SC2 SLP056

CYQR;2010-08-13 08:00;CYQR 130800Z 29007KT 15SM SCT078 14/13 A2969 RMK AC2 SLP057

CYQR;2010-08-13 09:00;CYQR 130900Z 28007KT 15SM FEW002 13/12 A2969 RMK SF1 SF OVR CITY SLP061

CYQR;2010-08-13 10:00;CYQR 131000Z 28007KT 12SM FEW002 SCT015 12/12 A2969 RMK SF1SC2 SLP059

CYQR;2010-08-13 11:00;CYQR 131100Z 28006KT 12SM FEW003 SCT025 BKN100 BKN240 12/12 A2970 RMK SF1SC1AC2CI0 SLP063

CYQR;2010-08-13 11:19;CYQR 131119Z 29006KT 10SM OVC006 13/ RMK SF6

CYQR;2010-08-13 11:45;CYQR 131145Z 29006KT 5SM BR OVC004 14/ RMK SF8

CYQR;2010-08-13 12:00;CYQR 131200Z 31006KT 5SM BR OVC003 14/13 A2970 RMK ST8 SLP062

CYQR;2010-08-13 13:00;CYQR 131300Z 32008KT 5SM BR OVC003 15/14 A2971 RMK ST8 SLP065

CYQR;2010-08-13 14:00;CYQR 131400Z 30007KT 6SM BR OVC005 15/14 A2971 RMK SF8 SLP066

CYQR;2010-08-13 14:47;CYQR 131447Z 30009KT 10SM OVC007 15/ RMK SF8

CYQR;2010-08-13 15:00;CYQR 131500Z 31009KT 15SM OVC007 15/14 A2972 RMK SF8 SLP069

CYQR;2010-08-13 16:00;CYQR 131600Z 30010KT 10SM OVC007 16/15 A2972 RMK SC8 SLP071

CYQR;2010-08-13 17:00;CYQR 131700Z 30012KT 15SM BKN007 OVC017 18/15 A2972 RMK SF5SC3 CU ASOCTD SLP070

CYQR;2010-08-13 17:40;CYQR 131740Z 31011KT 15SM OVC014 17/ RMK SC8

CYQR;2010-08-13 18:00;CYQR 131800Z 32010KT 15SM OVC014 18/15 A2972 RMK SC8 SLP071

CYQR;2010-08-13 18:44;CYQR 131844Z 33011KT 15SM SCT014 OVC021 19/ RMK SC4SC4 CU ASOCTD

CYQR;2010-08-13 19:00;CYQR 131900Z 33010KT 15SM BKN016 BKN100 BKN300 19/15 A2971 RMK CU6AC1CI1 TCU ASOCTD SLP068

CYQR;2010-08-13 19:42;CYQR 131942Z 30017KT 15SM TS BKN018 OVC044TCU 18/ RMK SC5TCU3 CB EMBD SHWRS SW

CYQR;2010-08-13 20:00;CYQR 132000Z 27014KT 15SM TS VCSH BKN018TCU OVC052CB 17/16 A2972 RMK TCU6CB2 CB SW SLP070

CYQR;2010-08-13 20:14;CYQR 132014Z 29015KT 12SM -TSRA SCT018TCU BKN037CB OVC300 18/ RMK TCU4CB2CI2

CYQR;2010-08-13 20:21;CYQR 132021Z 34016KT 12SM -SHRA FEW008 BKN021TCU OVC300 17/ RETS RMK SF2TCU5CI2 CB ASOCTD

CYQR;2010-08-13 21:00;CYQR 132100Z 30014KT 6SM -RA BKN004 OVC022TCU 16/16 A2975 RETSRA RMK SF5TCU3 SLP082

CYQR;2010-08-13 21:24;CYQR 132124Z 33012KT 6SM -RA SCT004 OVC020TCU 15/ RMK SF4TCU4

CYQR;2010-08-13 22:00;CYQR 132200Z 31007KT 8SM -SHRA FEW005 BKN017TCU OVC080 15/14 A2972 RMK CU2TCU5AC1 SLP074

CYQR;2010-08-13 22:39;CYQR 132239Z 26011KT 15SM -SHRA BKN006 BKN080 OVC300 15/ RMK CU5ACC2CI1 TCU ASOCTD

CYQR;2010-08-13 23:00;CYQR 132300Z 27010KT 15SM -SHRA BKN007 BKN080 BKN300 15/14 A2974 RMK CU5ACC2CI1 TCU ASOCTD SLP080

CYQR;2010-08-13 23:13;CYQR 132313Z 29008KT 15SM BKN014 BKN090 BKN300 15/ RMK CU5ACC2CI1 TCU ASOCTD

CYQR;2010-08-14 00:00;CYQR 140000Z 31009KT 15SM SCT020 BKN050TCU BKN090 BKN300 18/15 A2974 RMK CU3TCU2AC2CI0 SLP077

CYQR;2010-08-14 00:31;CYQR 140031Z 32011KT 15SM -SHRA BKN015 BKN045TCU OVC090 17/ RMK CU5TCU2AC1

CYQR;2010-08-14 01:00;CYQR 140100Z 32013KT 10SM -SHRA SCT013 OVC030TCU 15/14 A2975 RMK CU4TCU4 SLP080

CYQR;2010-08-14 01:33;CYQR 140133Z 32011KT 10SM -SHRA BKN007 BKN042TCU OVC075 15/ RMK SF5TCU2AC1

CYQR;2010-08-14 02:00;CYQR 140200Z 34012KT 15SM BKN009 BKN040TCU OVC075 15/14 A2976 RMK SF5TCU2AC1 SLP082

CYQR;2010-08-14 02:09;CYQR 140209Z 33010KT 15SM SCT009 BKN013 BKN040 OVC075 15/ RMK SF2SC4SC2AC1

CYQR;2010-08-14 02:40;CYQR 140240Z 32010KT 15SM FEW009 BKN016 BKN036 OVC060 15/ RMK SF1SC5SC2SC1

CYQR;2010-08-14 03:00;CYQR 140300Z 32010KT 15SM SCT009 BKN013 OVC065 15/14 A2978 RMK SF1SC5SC2 SLP092

CYQR;2010-08-14 03:15;CYQR 140315Z 32010KT 15SM -SHRA SCT009 BKN017 OVC040 15/ RMK SF1SC5SC2 CVCTV CLD EMBD

CYQR;2010-08-14 04:00;CYQR 140400Z 33011KT 12SM -SHRA FEW007 BKN015 OVC040 15/14 A2979 RMK SF0SC5SC3 CVCTV CLD EMBD OBS TAKEN -09 SLP094

CYQR;2010-08-14 04:23;CYQR 140423Z 32009KT 10SM -SHRA BKN005 BKN012 OVC043 15/ RMK SF5SC2SC2 CVCTV CLD EMBD

CYQR;2010-08-14 05:00;CYQR 140500Z 31010KT 10SM -SHRA BKN006 OVC013 15/14 A2979 RMK SF6SC2 CVCTV CLD EMBD SLP094

CYQR;2010-08-14 05:31;CYQR 140531Z 32009KT 8SM -SHRA BKN004 OVC020 15/ RMK SF6SC2 CVCTV CLD EMBD

CYQR;2010-08-14 05:48;CYQR 140548Z 30012KT 4SM SHRA BR BKN004 OVC020 15/ RMK SF6SC2 CVCTV CLD EMBD

CYQR;2010-08-14 06:00;CYQR 140600Z 30007KT 4SM SHRA BR BKN004 OVC010 15/14 A2979 RMK SF6SC2 CVCTV CLD EMBD OBS TAKEN +06 SLP092

CYQR;2010-08-14 06:31;CYQR 140631Z 30012G17KT 10SM BKN005 OVC012 RERA RMK SF7SC1

CYQR;2010-08-14 07:00;CYQR 140700Z 30014KT 15SM BKN006 OVC014 15/14 A2979 RERA RMK SF7SC1 SLP092

CYQR;2010-08-14 08:00;CYQR 140800Z 31013KT 15SM -SHRA BKN006 OVC038 15/14 A2979 RMK SF5SC3 CVCTV CLD EMBD SLP093

CYQR;2010-08-14 09:00;CYQR 140900Z 34012G19KT 15SM SCT006 OVC017 15/14 A2980 RMK SF3SC5 SLP098

CYQR;2010-08-14 10:00;CYQR 141000Z 32017KT 15SM FEW006 SCT017 OVC031 14/12 A2981 RMK SF1SC2SC5 SLP103

CYQR;2010-08-14 11:00;CYQR 141100Z 32014KT 15SM FEW006 BKN018 BKN072 14/12 A2982 RMK SF1SC5AC1 SLP106

CYQR;2010-08-14 12:00;CYQR 141200Z 32016KT 15SM FEW006 SCT018 BKN044 BKN085 14/12 A2982 RMK SF1SC2SC3AC2 OBS TAKEN -09 SLP106

CYQR;2010-08-14 13:00;CYQR 141300Z 32016G24KT 15SM BKN023 BKN073 BKN240 14/12 A2984 RMK SC5AC2CI0 TCU TOPS W SLP110

CYQR;2010-08-14 14:00;CYQR 141400Z 33019G25KT 15SM BKN018 OVC077 15/12 A2985 RMK SC6AC2 CU ASOCTD SLP113

CYQR;2010-08-14 14:47;CYQR 141447Z CCA 32019KT 12SM -SHRA BKN014 BKN044 OVC077 RMK SC6SC1AC1 VIS W 5

CYQR;2010-08-14 15:00;CYQR 141500Z 32020KT 10SM -RA OVC014 14/13 A2987 RMK CU8 SLP123

CYQR;2010-08-14 15:28;CYQR 141528Z 32020KT 12SM -SHRA SCT010 OVC022 14/ RMK CU4SC4

CYQR;2010-08-14 15:38;CYQR 141538Z 32021G26KT 2 1/2SM -SHRA BR BKN008 OVC020 14/ RMK SF6CU2 VIS VRB 2-3

CYQR;2010-08-14 15:54;CYQR 141554Z 35015G24KT 15SM BKN005 OVC018 14/ RMK SF6CU2

CYQR;2010-08-14 16:00;CYQR 141600Z 35016G24KT 15SM BKN005 OVC018 14/12 A2988 RMK SF6CU2 SLP127

CYQR;2010-08-14 16:08;CYQR 141608Z 35016G21KT 10SM -SHRA OVC007 13/ RMK SF8

CYQR;2010-08-14 16:29;CYQR 141629Z 33019G26KT 15SM VCSH SCT010 BKN039 14/ RMK CU4SC3

CYQR;2010-08-14 17:00;CYQR 141700Z 34024G31KT 15SM FEW017 BKN034 BKN062 15/12 A2989 RMK SC1CU6SC2 SLP131

CYQR;2010-08-14 18:00;CYQR 141800Z 33022G28KT 15SM -SHRA BKN022 16/12 A2991 RMK CU7 SLP135

CYQR;2010-08-14 18:20;CYQR 141820Z 35023G32KT 15SM SCT023 BKN053 BKN300 17/ RMK CU3SC2CI1

CYQR;2010-08-14 19:00;CYQR 141900Z 33020G26KT 15SM SCT028 BKN051 BKN300 18/12 A2991 RMK CU3SC3CI1 SLP135

CYQR;2010-08-14 20:00;CYQR 142000Z 34022KT 15SM BKN035 BKN065 18/12 A2993 RMK CU6SC2 SLP142

CYQR;2010-08-14 21:00;CYQR 142100Z 34024G31KT 15SM BKN037 BKN063 19/12 A2993 RMK CU5SC1 SLP142

CYQR;2010-08-14 22:00;CYQR 142200Z 33024G29KT 15SM SCT036 BKN053 19/12 A2995 RMK CU4SC3 SLP146

CYQR;2010-08-14 23:00;CYQR 142300Z 34016G26KT 15SM FEW044 SCT057 20/11 A2996 RMK CU2SC2 SLP149

CYQR;2010-08-15 00:00;CYQR 150000Z 33012KT 15SM FEW024 FEW049 FEW068 18/12 A2996 RMK SC1CU1AC1 SLP154

CYQR;2010-08-15 01:00;CYQR 150100Z 32014G20KT 15SM FEW028 FEW050 SCT080 18/11 A2997 RMK SC1CU2AC1 ACC ASOCTD SLP155

CYQR;2010-08-15 02:00;CYQR 150200Z 32012KT 15SM FEW025 FEW080 BKN260 16/11 A2998 RMK SC2AC1CI0 SLP158

CYQR;2010-08-15 03:00;CYQR 150300Z CCA 31009KT 15SM FEW030 14/11 A3000 RMK CU2 TCU SH DIST SW SLP171

CYQR;2010-08-15 04:00;CYQR 150400Z 30010KT 15SM BKN049 BKN072 14/11 A3002 RMK SC6AC2 OBS TAKEN -09 SLP176

CYQR;2010-08-15 05:00;CYQR 150500Z 31011KT 15SM BKN066 12/10 A3003 RMK AC6 SLP179

CYQR;2010-08-15 06:00;CYQR 150600Z 30010KT 15SM SCT048 12/10 A3003 RMK SC2 SLP178

CYQR;2010-08-15 07:00;CYQR 150700Z 31012KT 15SM BKN078 13/11 A3003 RMK AC6 SLP179

CYQR;2010-08-15 08:00;CYQR 150800Z 31012KT 15SM FEW072 12/11 A3003 RMK AC1 SLP179

CYQR;2010-08-15 09:00;CYQR 150900Z 32012KT 15SM FEW070 11/10 A3004 RMK AC1 SLP181

CYQR;2010-08-15 10:00;CYQR 151000Z 31008KT 15SM SKC 11/10 A3005 RMK SLP184

CYQR;2010-08-15 11:00;CYQR 151100Z 31011KT 15SM FEW050 10/09 A3005 RMK SC1 SLP186

CYQR;2010-08-15 12:00;CYQR 151200Z 31011KT 15SM FEW005 FEW036 FEW055 10/09 A3007 RMK SF1SC1SC1 SF TR SLP194

CYQR;2010-08-15 13:00;CYQR 151300Z 32011KT 15SM FEW005 BKN048 BKN095 11/10 A3009 RMK SF1SC6AC1 SLP199

CYQR;2010-08-15 14:00;CYQR 151400Z 32011KT 15SM FEW010 FEW042 FEW120 FEW310 12/10 A3010 RMK SF1SC2AC1CI1 SLP202

CYQR;2010-08-15 15:00;CYQR 151500Z 33012KT 15SM FEW013 FEW042 14/11 A3010 RMK CU1SC1 SLP204

CYQR;2010-08-15 16:00;CYQR 151600Z 32018KT 15SM BKN025 15/10 A3010 RMK CU5 SLP204

CYQR;2010-08-15 17:00;CYQR 151700Z 32017G22KT 15SM BKN030 16/09 A3010 RMK SC7 CU ASOCTD SLP205

CYQR;2010-08-15 18:00;CYQR 151800Z 31018KT 15SM BKN032 16/09 A3010 RMK SC6 CU ASOCTD SLP204

CYQR;2010-08-15 19:00;CYQR 151900Z 31021KT 15SM BKN037 BKN310 18/09 A3010 RMK SC5CI1 CU ASOCTD CONTRAILS SLP202

CYQR;2010-08-15 20:00;CYQR 152000Z 31019G24KT 15SM FEW041 FEW310 19/10 A3009 RMK SC2CI0 CONTRAILS SLP199

CYQR;2010-08-15 21:00;CYQR 152100Z 32020G26KT 15SM FEW042 19/09 A3008 RMK CU1 SLP194

CYQR;2010-08-15 22:00;CYQR 152200Z 32017G25KT 15SM FEW049 FEW310 19/09 A3008 RMK CU2CI1 SLP193

CYQR;2010-08-15 23:00;CYQR 152300Z 31015G20KT 15SM FEW053 SCT100 20/10 A3006 RMK CU2AC1 SLP189

CYQR;2010-08-16 00:00;CYQR 160000Z 32013KT 15SM BKN053 BKN084 19/10 A3006 RMK CU6AC2 SLP188

CYQR;2010-08-16 00:39;CYQR 160039Z 32007KT 15SM -SHRA BKN037 BKN087 17/ RMK CU6AC1 VIS W 8

CYQR;2010-08-16 01:00;CYQR 160100Z 32013KT 8SM -SHRA BKN026 BKN083 15/12 A3007 RMK CU6AC1 SLP192

CYQR;2010-08-16 01:29;CYQR 160129Z 29009KT 15SM SCT015 BKN084 14/ RMK SC4AC3 CVCTV CLD EMBD

CYQR;2010-08-16 01:40;CYQR 160140Z 28007KT 15SM -SHRA SCT015 BKN084 14/ RMK SC4AC3 CVCTV CLD EMBD

CYQR;2010-08-16 02:00;CYQR 160200Z 29009KT 15SM VCSH SCT018 BKN084 BKN300 14/13 A3006 RMK SC3AC2CI1 CVCTV CLD EMBD SLP188

CYQR;2010-08-16 03:00;CYQR 160300Z 34007KT 15SM FEW020 FEW085 12/12 A3008 RMK SC1AC1 SLP196

CYQR;2010-08-16 04:00;CYQR 160400Z 35006KT 15SM FEW038 11/11 A3008 RMK SC2 SLP198

CYQR;2010-08-16 05:00;CYQR 160500Z 32006KT 15SM FEW062 11/10 A3009 RMK SC1 SLP201

CYQR;2010-08-16 06:00;CYQR 160600Z 31005KT 15SM SKC 09/08 A3010 RMK SLP204

CYQR;2010-08-16 07:00;CYQR 160700Z 33007KT 15SM FEW060 FEW300 09/08 A3010 RMK SC1CI0 SLP205

CYQR;2010-08-16 08:00;CYQR 160800Z 31007KT 15SM FEW060 09/08 A3010 RMK SC1 SLP205

CYQR;2010-08-16 09:00;CYQR 160900Z 26005KT 15SM SCT045 SCT300 07/06 A3011 RMK SC3CI0 SLP209

CYQR;2010-08-16 10:00;CYQR 161000Z 28006KT 15SM SCT045 SCT300 07/06 A3011 RMK SC3CI0 SLP209

CYQR;2010-08-16 11:00;CYQR 161100Z 26006KT 15SM FEW043 06/05 A3011 RMK SC1 SLP209

CYQR;2010-08-16 12:00;CYQR 161200Z 27003KT 15SM BCFG FEW045 06/05 A3012 RMK SC1 BCFG S SLP211

CYQR;2010-08-16 13:00;CYQR 161300Z 30006KT 15SM FEW089 08/08 A3013 RMK AC1 SLP214

CYQR;2010-08-16 14:00;CYQR 161400Z 31006KT 15SM FEW010 FEW037 FEW083 FEW280 11/10 A3013 RMK CF1SC1AC1CI1 SLP215

CYQR;2010-08-16 15:00;CYQR 161500Z 34005KT 15SM FEW009 FEW037 FEW083 14/12 A3013 RMK CF1SC1AC1 SLP216

CYQR;2010-08-16 16:00;CYQR 161600Z 31008KT 15SM FEW010 FEW020 FEW300 15/12 A3014 RMK CF1CU1CI1 SLP217

CYQR;2010-08-16 17:00;CYQR 161700Z 33012KT 15SM FEW026 FEW320 16/09 A3013 RMK CU2CI1 SLP215

CYQR;2010-08-16 18:00;CYQR 161800Z 30011G18KT 15SM SCT032 BKN320 17/10 A3012 RMK CU4CI1 SLP212

CYQR;2010-08-16 19:00;CYQR 161900Z 35012KT 15SM SCT043 BKN320 18/09 A3012 RMK CU3CI1 SLP210

CYQR;2010-08-16 20:00;CYQR 162000Z 32010KT 15SM FEW047 BKN320 19/09 A3010 RMK CU1CI1 SLP205

CYQR;2010-08-16 21:00;CYQR 162100Z 33009KT 15SM FEW049 FEW068 BKN320 18/09 A3009 RMK CU1AC2CI1 SLP201

CYQR;2010-08-16 22:00;CYQR 162200Z 31005KT 15SM FEW049 FEW150 BKN320 19/09 A3008 RMK CU1AC1CI0 SLP199

CYQR;2010-08-16 23:00;CYQR 162300Z 31006KT 15SM FEW051 BKN150 BKN320 19/09 A3007 RMK SC1AC4CI2 SLP196

CYQR;2010-08-17 00:00;CYQR 170000Z 28009KT 15SM SCT051 BKN150 BKN310 18/10 A3006 RMK SC3AC2CI1 CVCTV CLD EMBD SHWRS DSNT W SLP191

CYQR;2010-08-17 01:00;CYQR 170100Z 28005KT 15SM BKN086 BKN320 17/11 A3005 RMK AC7CI1 MAMMATUS SHWRS W SLP189

CYQR;2010-08-17 02:00;CYQR 170200Z 29005KT 15SM FEW086 SCT320 16/11 A3004 RMK AC2CI0 CVCTV CLD EMBD SHWRS DSNT S SLP184

CYQR;2010-08-17 03:00;CYQR 170300Z 11003KT 15SM FEW091 14/10 A3002 RMK AC2 SLP175

CYQR;2010-08-17 04:00;CYQR 170400Z 11007KT 15SM SCT100 12/09 A3000 RMK AC4 SLP169

CYQR;2010-08-17 05:00;CYQR 170500Z 15009KT 15SM SCT100 13/09 A2997 RMK AC3 SLP159

CYQR;2010-08-17 05:19;CYQR 170519Z 35009KT 15SM -SHRA SCT050 OVC078 13/ RMK SC3AC5

CYQR;2010-08-17 06:00;CYQR 170600Z 13006KT 15SM -SHRA FEW026 SCT051 OVC082 12/11 A2999 RMK SC2SC2AC4 SLP165

CYQR;2010-08-17 07:00;CYQR 170700Z 12007KT 15SM -SHRA OVC048 12/10 A2997 RMK SC8 SLP157

CYQR;2010-08-17 08:00;CYQR 170800Z 14011KT 15SM -SHRA BKN062 12/09 A2994 RMK SC7 SLP148

CYQR;2010-08-17 09:00;CYQR 170900Z 15013G18KT 15SM BKN082 12/09 A2988 RMK AC6 SLP126

CYQR;2010-08-17 09:16;CYQR 170916Z 14013KT 15SM -SHRA FEW050 BKN082 12/ RMK SC2AC5

CYQR;2010-08-17 10:00;CYQR 171000Z 13013KT 15SM -SHRA SCT050 BKN091 12/10 A2986 RMK SC3AC4 SLP118

CYQR;2010-08-17 10:28;CYQR 171028Z 13008KT 15SM SCT085 11/ RMK AC4

CYQR;2010-08-17 11:00;CYQR 171100Z 12007KT 15SM FEW085 11/09 A2986 RMK AC2 SLP120

CYQR;2010-08-17 12:00;CYQR 171200Z 11008KT 15SM FEW085 FEW300 10/09 A2984 RMK AC1CI0 TR AC SLP113

CYQR;2010-08-17 13:00;CYQR 171300Z 08002KT 15SM FEW300 12/10 A2984 RMK CI1 SLP114

CYQR;2010-08-17 14:00;CYQR 171400Z 00000KT 15SM FEW300 13/10 A2986 RMK CI0 SLP118

CYQR;2010-08-17 15:00;CYQR 171500Z 33009KT 15SM SCT300 15/11 A2988 RMK CI1 SLP127

CYQR;2010-08-17 16:00;CYQR 171600Z 34014KT 15SM FEW016 SCT230 BKN300 16/12 A2990 RMK CU1CI2CI1 SLP134

CYQR;2010-08-17 17:00;CYQR 171700Z 35011G17KT 15SM SCT019 BKN230 BKN300 15/12 A2993 RMK SC3CI2CI1 CU ASOCTD SLP142

CYQR;2010-08-17 18:00;CYQR 171800Z 04013KT 15SM FEW019 BKN069 BKN230 BKN300 16/11 A2992 RMK SC2AC3CI1CI1 CU ASOCTD SLP142

CYQR;2010-08-17 19:00;CYQR 171900Z 03008KT 15SM BKN021 BKN067 16/12 A2994 RMK SC7AC1 CU ASOCTD SLP147

CYQR;2010-08-17 20:00;CYQR 172000Z 05006KT 15SM BKN023 OVC076 16/11 A2995 RMK SC7AC1 SLP150

CYQR;2010-08-17 21:00;CYQR 172100Z 01008KT 15SM OVC025 17/11 A2996 RMK SC8 SLP155

CYQR;2010-08-17 22:00;CYQR 172200Z 33005KT 15SM OVC032 16/11 A2997 RMK SC8 SLP158

CYQR;2010-08-17 23:00;CYQR 172300Z 31003KT 15SM BKN036 BKN076 BKN300 16/11 A2997 RMK SC5AC2CI1 SLP159

CYQR;2010-08-18 00:00;CYQR 180000Z 04006KT 15SM BKN026 BKN060 OVC300 16/12 A2998 RMK SC5SC1CI1 SLP162

CYQR;2010-08-18 01:00;CYQR 180100Z 05004KT 15SM FEW028 FEW086 BKN300 16/12 A2998 RMK SC2AC1CI1 SLP164

CYQR;2010-08-18 02:00;CYQR 180200Z 10004KT 12SM FEW031 FEW092 BKN300 14/11 A2998 RMK SC1AC1CI1 K SLP163

CYQR;2010-08-18 03:00;CYQR 180300Z 10003KT 15SM FEW030 SCT300 12/10 A2999 RMK SC1CI1 SLP167

CYQR;2010-08-18 04:00;CYQR 180400Z 13003KT 15SM SCT300 12/10 A3000 RMK CI2 SLP169

CYQR;2010-08-18 05:00;CYQR 180500Z 13004KT 15SM FEW300 11/10 A3000 RMK CI1 SLP169

CYQR;2010-08-18 06:00;CYQR 180600Z 12004KT 15SM FEW300 10/09 A2999 RMK CI1 SLP167

CYQR;2010-08-18 07:00;CYQR 180700Z 14002KT 15SM SKC 09/08 A2999 RMK SLP167

CYQR;2010-08-18 08:00;CYQR 180800Z 16005KT 15SM R13/4500VP6000FT/U SKC 08/07 A2999 RMK SLP167

CYQR;2010-08-18 09:00;CYQR 180900Z 14005KT 15SM OVC100 10/09 A2999 RMK AC8 SLP165

CYQR;2010-08-18 10:00;CYQR 181000Z 15002KT 15SM FEW010 BKN092 09/09 A2999 RMK SC1AC7 TR SC SLP165

CYQR;2010-08-18 11:00;CYQR 181100Z 17004KT 15SM BKN081 09/08 A2998 RMK AC7 SLP164

CYQR;2010-08-18 12:00;CYQR 181200Z 11003KT 15SM FEW010 FEW030 BKN090 OVC300 10/09 A2998 RMK SC1SC2AC4CI2 SLP164

CYQR;2010-08-18 13:00;CYQR 181300Z 12004KT 15SM FEW077 SCT120 BKN300 09/09 A2997 RMK AC2AC2CI0 SLP160

CYQR;2010-08-18 14:00;CYQR 181400Z 12004KT 15SM SCT048 BKN094 BKN300 10/10 A2996 RMK SC3AC2CI1 SLP157

CYQR;2010-08-18 15:00;CYQR 181500Z 15004KT 15SM BKN046 OVC090 12/11 A2996 RMK SC7AC1 SLP158

CYQR;2010-08-18 16:00;CYQR 181600Z 17002KT 15SM OVC071 13/12 A2995 RMK AC8 SLP155

CYQR;2010-08-18 17:00;CYQR 181700Z 14008KT 15SM FEW010 BKN077 15/12 A2994 RMK CF1AC7 SLP151

CYQR;2010-08-18 18:00;CYQR 181800Z 16007KT 15SM FEW012 BKN077 OVC230 15/12 A2992 RMK CF2AC5CI2 SLP143

CYQR;2010-08-18 19:00;CYQR 181900Z 13007KT 15SM FEW022 SCT075 BKN090 BKN270 17/12 A2991 RMK CF1AC3AS2CI2 SLP141

CYQR;2010-08-18 20:00;CYQR 182000Z 14007KT 15SM FEW027 FEW048 BKN090 BKN270 17/12 A2990 RMK CF1SC2AC3CI2 SLP136

CYQR;2010-08-18 21:00;CYQR 182100Z 10007KT 15SM FEW024 SCT096 OVC260 18/12 A2989 RMK CF2AC2CS3 TCU TOPS S SLP130

CYQR;2010-08-18 22:00;CYQR 182200Z 09008KT 14SM FEW026 SCT088 BKN290 19/12 A2987 RMK CF1AC2CS2 K SLP126

CYQR;2010-08-18 23:00;CYQR 182300Z 11007KT 15SM FEW086 BKN290 19/12 A2986 RMK AC2CS2 SLP121

CYQR;2010-08-19 00:00;CYQR 190000Z 12007KT 15SM SCT080 BKN290 19/13 A2984 RMK AC3CI2 SLP114

CYQR;2010-08-19 01:00;CYQR 190100Z 11010KT 15SM SCT080 BKN290 18/13 A2984 RMK AC3CI1 SLP112

CYQR;2010-08-19 02:00;CYQR 190200Z 11011KT 14SM SCT076 SCT140 BKN290 16/12 A2984 RMK AC2AC1CI1 HZ SLP112

CYQR;2010-08-19 03:00;CYQR 190300Z 12013KT 15SM FEW080 SCT290 14/11 A2983 RMK AC1CI1 SLP111

CYQR;2010-08-19 04:00;CYQR 190400Z 12010KT 15SM FEW260 14/11 A2982 RMK CI1 SLP109

CYQR;2010-08-19 05:00;CYQR 190500Z 13011KT 15SM FEW260 13/11 A2981 RMK CI1 SLP106

CYQR;2010-08-19 06:00;CYQR 190600Z 13011KT 15SM FEW260 13/10 A2981 RMK CI1 SLP103

CYQR;2010-08-19 07:00;CYQR 190700Z 14011G17KT 15SM SKC 12/10 A2981 RMK SLP103

CYQR;2010-08-19 08:00;CYQR 190800Z 14012KT 15SM FEW070 12/10 A2979 RMK AC1 SLP098

CYQR;2010-08-19 09:00;CYQR 190900Z 14013KT 15SM FEW070 11/10 A2977 RMK AC2 SLP089

CYQR;2010-08-19 10:00;CYQR 191000Z 13013KT 15SM FEW070 11/10 A2976 RMK AC2 SLP084

CYQR;2010-08-19 11:00;CYQR 191100Z 14013KT 15SM FEW070 11/10 A2975 RMK AC2 SLP082

CYQR;2010-08-19 12:00;CYQR 191200Z 13011KT 15SM FEW260 11/10 A2974 RMK CI0 SLP079

CYQR;2010-08-19 13:00;CYQR 191300Z 14010KT 15SM FEW300 11/10 A2973 RMK CI0 SLP074

CYQR;2010-08-19 14:00;CYQR 191400Z 14012G18KT 15SM FEW300 12/11 A2971 RMK CI0 SLP070

CYQR;2010-08-19 15:00;CYQR 191500Z 14014G19KT 15SM FEW078 SCT300 15/13 A2969 RMK AC1CI0 SLP062

CYQR;2010-08-19 16:00;CYQR 191600Z 16014G21KT 15SM FEW090 SCT300 18/15 A2969 RMK ACC1CI0 SLP062

CYQR;2010-08-19 18:00;CYQR 191800Z 17016KT 15SM FEW080 SCT300 24/18 A2966 RMK ACC1CI0 SLP045

CYQR;2010-08-19 19:00;CYQR 191900Z 19017G24KT 15SM FEW096 SCT300 26/16 A2964 RMK ACC1CI0 SLP040

CYQR;2010-08-19 20:00;CYQR 192000Z 21016G21KT 15SM FEW100 FEW300 27/16 A2962 RMK ACC1CI0 SLP035

CYQR;2010-08-19 21:00;CYQR 192100Z 18018G27KT 15SM FEW300 27/16 A2961 RMK CI0 SLP028

CYQR;2010-08-19 22:00;CYQR 192200Z 18015G21KT 15SM FEW300 28/18 A2959 RMK CI0 SLP021

CYQR;2010-08-19 23:00;CYQR 192300Z 19012G18KT 15SM FEW040 FEW090 FEW300 29/18 A2957 RMK CU1AC1CI0 SLP014

CYQR;2010-08-20 00:00;CYQR 200000Z 18014KT 15SM FEW040 FEW090 FEW300 28/17 A2955 RMK CU1AC1CI0 TCU TOPS NORTH SLP008

CYQR;2010-08-20 01:00;CYQR 200100Z 16012KT 15SM FEW040 FEW300 26/19 A2955 RMK SC1CI1 SLP006

CYQR;2010-08-20 02:00;CYQR 200200Z 17008KT 15SM FEW040 FEW300 24/19 A2955 RMK SC1CI1 SLP006

CYQR;2010-08-20 03:00;CYQR 200300Z 16012KT 15SM FEW100 FEW300 22/18 A2956 RMK AC1CI1 SLP012

CYQR;2010-08-20 04:00;CYQR 200400Z 15009KT 15SM FEW040 21/19 A2956 RMK SC1 SLP011

CYQR;2010-08-20 05:00;CYQR 200500Z 15008KT 10SM SKC 19/18 A2956 RMK SLP010

CYQR;2010-08-20 06:00;CYQR 200600Z 16006KT 10SM FEW040 18/17 A2956 RMK SC1 SLP008

CYQR;2010-08-20 07:00;CYQR 200700Z 14003KT 10SM FEW040 17/16 A2956 RMK SC1 SLP008

CYQR;2010-08-20 08:00;CYQR 200800Z 24004KT 5SM BR BCFG SKC 14/13 A2957 RMK SLP011

CYQR;2010-08-20 08:33;CYQR 200833Z 32009KT 3/4SM R13/2600VP6000FT/D BR SKC 16/ RMK FG6

CYQR;2010-08-20 08:55;CYQR 200855Z 36008KT 3SM BR SKC 16/ RMK FG2

CYQR;2010-08-20 09:00;CYQR 200900Z 36009KT 6SM BR FEW002 16/15 A2958 RMK SF1 SLP015

CYQR;2010-08-20 10:00;CYQR 201000Z 03008KT 10SM SKC 17/15 A2957 RMK SLP012

CYQR;2010-08-20 11:00;CYQR 201100Z 33007KT 10SM SKC 15/14 A2961 RMK SLP024

CYQR;2010-08-20 12:00;CYQR 201200Z 32007KT 10SM BCFG SCT300 14/13 A2963 RMK CI2 SLP032

CYQR;2010-08-20 12:33;CYQR 201233Z 32008KT 1SM R13/4000VP6000FT/D BR SKC RMK FG6

CYQR;2010-08-20 12:42;CYQR 201242Z 34012KT 5/8SM R13/3000V4500FT/U BR VV001 15/ RMK FG8

CYQR;2010-08-20 13:00;CYQR 201300Z 33009KT 5/8SM R13/4000VP6000FT/U BR VV001 15/15 A2965 RMK FG8 SLP039

CYQR;2010-08-20 13:10;CYQR 201310Z 34011G16KT 1SM R13/P6000FT/U BR OVC001 15/ RMK SF8

CYQR;2010-08-20 13:25;CYQR 201325Z 34012KT 2 1/2SM BR OVC002 15/ RMK SF8

CYQR;2010-08-20 13:46;CYQR 201346Z 32014KT 3SM BR OVC004 15/ RMK SF8

CYQR;2010-08-20 14:00;CYQR 201400Z 33013KT 3SM BR OVC004 15/14 A2968 RMK SF8 SLP050

CYQR;2010-08-20 14:13;CYQR 201413Z 32012G17KT 1 1/2SM BR FU BKN004 OVC260 15/ RMK FG3SF3CI1

CYQR;2010-08-20 15:00;CYQR 201500Z 34015KT 1SM R13/P6000FT/N FU SCT004 BKN190 BKN260 15/14 A2971 RMK FU2SF1AC2CI2 SLP063

CYQR;2010-08-20 16:00;CYQR 201600Z 36012G20KT 1SM R13/P6000FT/N FU SCT004 BKN150 BKN300 16/13 A2970 RMK FU2SF1AC2CI0 SLP060

CYQR;2010-08-20 17:00;CYQR 201700Z 35013KT 1SM R13/P6000FT/N FU BKN030 OVC300 19/14 A2972 RMK FU4SC1CI0 SLP067

CYQR;2010-08-20 18:00;CYQR 201800Z 35013KT 1SM R13/P6000FT/N FU OVC300 20/12 A2973 RMK FU3CI2 SLP069

CYQR;2010-08-20 19:00;CYQR 201900Z 02010G16KT 1 1/2SM FU OVC300 22/12 A2973 RMK FU3CI2 SLP070

CYQR;2010-08-20 19:38;CYQR 201938Z 35013KT 3SM FU OVC300 22/ RMK FU2CI0

CYQR;2010-08-20 20:00;CYQR 202000Z 01008KT 4SM FU OVC300 22/10 A2975 RMK FU2CI0 SLP074

CYQR;2010-08-20 21:00;CYQR 202100Z 02006KT 5SM FU OVC300 22/11 A2976 RMK FU2CI1 SLP078

CYQR;2010-08-20 22:00;CYQR 202200Z 02006KT 3SM FU OVC300 22/10 A2976 RMK FU2CI1 SLP080

CYQR;2010-08-20 23:00;CYQR 202300Z 36009KT 6SM FU SKC 23/10 A2977 RMK FU2 SLP084

CYQR;2010-08-21 00:00;CYQR 210000Z 35008KT 6SM FU SKC 22/10 A2979 RMK FU2 SLP090

CYQR;2010-08-21 01:00;CYQR 210100Z 36005KT 6SM FU SCT300 20/11 A2980 RMK FU2CI0 SLP095

CYQR;2010-08-21 02:00;CYQR 210200Z 01004KT 6SM FU SKC 16/12 A2982 RMK FU2 SLP100

CYQR;2010-08-21 03:00;CYQR 210300Z 08006KT 8SM SKC 15/10 A2984 RMK FU SLP111

CYQR;2010-08-21 04:00;CYQR 210400Z 08002KT 8SM SKC 15/10 A2985 RMK FU SLP115

CYQR;2010-08-21 05:00;CYQR 210500Z 09007KT 8SM SKC 13/10 A2985 RMK FU SLP116

CYQR;2010-08-21 06:00;CYQR 210600Z 09005KT 8SM SKC 13/09 A2986 RMK FU SLP117

CYQR;2010-08-21 07:00;CYQR 210700Z 09006KT 8SM SKC 12/09 A2986 RMK FU SLP118

CYQR;2010-08-21 08:00;CYQR 210800Z 10005KT 8SM SKC 13/09 A2987 RMK FU SLP121

CYQR;2010-08-21 09:00;CYQR 210900Z 10004KT 8SM SKC 12/08 A2988 RMK FU SLP124

CYQR;2010-08-21 10:00;CYQR 211000Z 13006KT 8SM SKC 11/08 A2989 RMK FU SLP127

CYQR;2010-08-21 11:00;CYQR 211100Z 13008KT 8SM SKC 09/07 A2990 RMK FU SLP130

CYQR;2010-08-21 12:00;CYQR 211200Z 12008KT 8SM SKC 10/07 A2990 RMK FU SLP132

CYQR;2010-08-21 13:00;CYQR 211300Z 12009KT 8SM SKC 11/08 A2991 RMK FU SLP133

CYQR;2010-08-21 14:00;CYQR 211400Z 12012KT 8SM FEW300 14/10 A2990 RMK CI0 FU SLP130

CYQR;2010-08-21 15:00;CYQR 211500Z 13014G19KT 6SM FU SCT010 BKN075 OVC300 18/15 A2989 RMK SF3AC2CI1 SLP128

CYQR;2010-08-21 15:02;CYQR 211502Z 13016KT 5SM FU BKN006 OVC077 17/ RMK SF7AC1

CYQR;2010-08-21 15:11;CYQR 211511Z 14015G20KT 1 1/2SM FU OVC004 17/ RMK FU3SF5

CYQR;2010-08-21 15:40;CYQR 211540Z 14015KT 4SM FU BKN005 OVC075 17/ RMK SF7AC1

CYQR;2010-08-21 16:00;CYQR 211600Z 13017KT 6SM FU SCT007 BKN095 BKN300 17/16 A2986 RMK SF3AC2CI1 SLP120

CYQR;2010-08-21 17:00;CYQR 211700Z 14019G25KT 8SM FEW075 FEW300 23/17 A2984 RMK AC1CI0 FU SLP112

CYQR;2010-08-21 18:00;CYQR 211800Z 13021G27KT 8SM FEW062 FEW078 SCT300 25/17 A2981 RMK SC1AC1CI1 FU SLP095

CYQR;2010-08-21 19:00;CYQR 211900Z 15019G24KT 8SM BKN070 BKN300 27/17 A2978 RMK AC5CI0 FU ACC ASOCTD SLP087

CYQR;2010-08-21 20:00;CYQR 212000Z 14021G30KT 10SM BKN075 BKN300 27/16 A2974 RMK AC5CI0 FU ACC ASOCTD SLP074

CYQR;2010-08-21 21:00;CYQR 212100Z 16026G31KT 15SM FEW080 FEW300 29/17 A2972 RMK AC1CI0 SLP064

CYQR;2010-08-21 22:00;CYQR 212200Z 15026KT 10SM FEW090 FEW300 30/16 A2971 RMK AC1CI0 ACC ASOCTD FU SLP062

CYQR;2010-08-21 23:00;CYQR 212300Z 16017G27KT 10SM FEW090 31/14 A2969 RMK AC1 FU SLP056

CYQR;2010-08-22 00:00;CYQR 220000Z 15017G24KT 10SM FEW090 SCT300 30/13 A2967 RMK AC1CI0 FU SLP049

CYQR;2010-08-22 01:00;CYQR 220100Z 15019G27KT 10SM FEW070CB 29/14 A2966 RMK CB2 FU SLP044

CYQR;2010-08-22 02:00;CYQR 220200Z 15016G22KT 10SM FEW070 27/13 A2967 RMK AC2 FU CB ASOCTD SLP047

CYQR;2010-08-22 03:00;CYQR 220300Z 15012G17KT 10SM SCT070 25/14 A2969 RMK AC2 FU SLP054

CYQR;2010-08-22 04:00;CYQR 220400Z 15010G16KT 10SM BKN110 23/14 A2969 RMK AC5 FU SLP053

CYQR;2010-08-22 05:00;CYQR 220500Z 27007KT 10SM BKN110 19/14 A2971 RMK AC7 FU SLP060

CYQR;2010-08-22 06:00;CYQR 220600Z 14007KT 10SM OVC110 20/15 A2973 RMK AC8 FU CB EMBD OCNL LGTNG N SLP065

CYQR;2010-08-22 07:00;CYQR 220700Z 12010KT 10SM SCT045 19/15 A2971 RMK SC4 FU SLP057

CYQR;2010-08-22 08:00;CYQR 220800Z 14007KT 10SM BKN110 19/14 A2972 RMK AC5 FU SLP063

CYQR;2010-08-22 09:00;CYQR 220900Z 31005KT 10SM BKN110 17/14 A2972 RMK AC5 FU SLP061

CYQR;2010-08-22 10:00;CYQR 221000Z 04005KT 10SM FEW110 16/14 A2970 RMK AC2 FU SLP054

CYQR;2010-08-22 11:00;CYQR 221100Z 08004KT 10SM BKN110 17/15 A2970 RMK AC7 FU CB EMBD OCNL LGTNG SE SLP054

CYQR;2010-08-22 12:00;CYQR 221200Z 14003KT 10SM BKN040 OVC110 18/15 A2972 RMK SC5AC3 FU SLP059

CYQR;2010-08-22 12:40;CYQR 221240Z 35009KT 10SM -SHRA BKN029 OVC110 17/ RMK SC6AC2 FU CVCTV CLD EMBD

CYQR;2010-08-22 13:00;CYQR 221300Z 34007KT 10SM -SHRA BKN029 OVC100 17/15 A2974 RMK SC6AC2 FU CVCTV CLD EMBD SLP066

CYQR;2010-08-22 13:29;CYQR 221329Z 06008KT 10SM BKN035 OVC085 17/ RMK SC6AC2 FU

CYQR;2010-08-22 14:00;CYQR 221400Z 12007KT 10SM FEW040 BKN071 OVC120 18/16 A2971 RMK SC2AC4AC2 FU SLP058

CYQR;2010-08-22 15:00;CYQR 221500Z 30005KT 8SM BKN070 OVC090 18/16 A2976 RMK AC6AC2 FU SLP076

CYQR;2010-08-22 15:05;CYQR 221505Z 29009KT 8SM -SHRA BKN070 OVC090 18/ RMK AC6AC2 FU CVCTV CLD EMBD

CYQR;2010-08-22 16:00;CYQR 221600Z 34004KT 10SM -SHRA BKN055 OVC080 20/18 A2973 RMK SC6AC2 FU CVCTV CLD EMBD SLP068

CYQR;2010-08-22 16:28;CYQR 221628Z 01003KT 5SM -SHRA FU SCT009 BKN047 OVC090 18/ RMK SC4SC3AC1 CVCTV CLD EMBD

CYQR;2010-08-22 17:00;CYQR 221700Z 07005KT 8SM -SHRA FEW015 BKN038 OVC095 20/19 A2971 RMK SC2SC3AC2 FU CVCTV CLD EMBD SLP062

CYQR;2010-08-22 17:09;CYQR 221709Z 09009KT 10SM BKN035 OVC095 20/ RMK SC5AC3 FU

CYQR;2010-08-22 18:00;CYQR 221800Z 04007KT 10SM FEW063 SCT094 BKN200 BKN280 24/20 A2967 RMK SC2AC2CC1CI1 FU SLP045

CYQR;2010-08-22 19:00;CYQR 221900Z 08006KT 10SM SCT019 BKN060 BKN100 OVC280 24/20 A2971 RMK SC3SC2AC2CI0 FU SLP058

CYQR;2010-08-22 20:00;CYQR 222000Z 06010KT 15SM FEW020 FEW060 SCT100 BKN300 24/19 A2971 RMK SC1SC1AC2CI2 SLP060

CYQR;2010-08-22 21:00;CYQR 222100Z 07004KT 15SM FEW025 FEW080 BKN300 25/18 A2972 RMK CU1AC1CI1 SLP065

CYQR;2010-08-22 22:00;CYQR 222200Z 10010KT 15SM FEW028 FEW080 BKN300 27/20 A2971 RMK CU1AC1CI1 SLP060

CYQR;2010-08-22 23:00;CYQR 222300Z 08008KT 15SM FEW028 FEW080 BKN300 26/20 A2971 RMK CU1AC1CI1 SLP060

CYQR;2010-08-23 00:00;CYQR 230000Z 07010KT 15SM FEW026 FEW080 SCT300 25/20 A2972 RMK CU1AC1CI0 SLP062

CYQR;2010-08-23 01:00;CYQR 230100Z 01008KT 15SM FEW026 FEW080 SCT300 24/19 A2973 RMK CU1AC1CI0 SLP067

CYQR;2010-08-23 02:00;CYQR 230200Z 03009KT 15SM FEW025 FEW080 FEW300 22/19 A2974 RMK SC1AC1CI1 SLP068

CYQR;2010-08-23 03:00;CYQR 230300Z 35017KT 12SM SCT021 BKN075 21/17 A2978 RMK SC4AC3 SLP085

CYQR;2010-08-23 04:00;CYQR 230400Z 35014G19KT 10SM FEW022 OVC110 18/16 A2978 RMK SC2AC6 FU SLP087

CYQR;2010-08-23 05:00;CYQR 230500Z 35011KT 10SM BKN012 OVC110 17/15 A2979 RMK SC5AC3 FU CB EMBD LGTNG S SLP088

CYQR;2010-08-23 05:47;CYQR 230547Z 34009KT 10SM -SHRA BKN012 OVC110 17/ RMK SC5AC3 FU CB EMBD LGTNG SE-S

CYQR;2010-08-23 06:00;CYQR 230600Z 35008KT 10SM -SHRA SCT012 BKN024 OVC110 17/15 A2978 RMK SC3SC2AC2 FU CB EMBD LGTNG SE-S SLP085

CYQR;2010-08-23 07:00;CYQR 230700Z 36011KT 10SM BKN014 OVC065 16/15 A2976 RMK SC5SC3 FU CB EMBD OCNL LGTNG E SLP080

CYQR;2010-08-23 07:39;CYQR 230739Z 35014KT 10SM -SHRA BKN012 OVC028 16/ RMK SC5SC3 CVCTV CLD EMBD

CYQR;2010-08-23 08:00;CYQR 230800Z 36009KT 10SM -SHRA SCT012 OVC019 16/15 A2979 RMK SC3SC5 CVCTV CLD EMBD SLP087

CYQR;2010-08-23 09:00;CYQR 230900Z 32008KT 6SM SHRA OVC021 16/15 A2978 RMK RA5SC3 CVCTV CLD EMBD SLP086

CYQR;2010-08-23 09:05;CYQR 230905Z 33006KT 2 1/2SM +SHRA VV004 16/ RMK RA8 CVCTV CLD EMBD

CYQR;2010-08-23 09:26;CYQR 230926Z CCA 34007KT 3SM SHRA BR OVC041 16/ RERA RMK RA6SC2 CVCTV CLD EMBD

CYQR;2010-08-23 10:00;CYQR 231000Z 34010KT 5SM SHRA FEW003 OVC017 16/15 A2978 RERA RMK SC2SC6 CVCTV CLD EMBD SLP086

CYQR;2010-08-23 10:25;CYQR 231025Z 32013KT 5SM SHRA BKN003 OVC022 15/ RMK SC5SC3 CVCTV CLD EMBD

CYQR;2010-08-23 11:00;CYQR 231100Z 33013KT 5SM -RA BKN003 OVC017 15/14 A2979 RERA RMK SC6SC2 SLP089

CYQR;2010-08-23 12:00;CYQR 231200Z 31011KT 5SM -RA BKN004 OVC017 15/14 A2984 RMK SC6SC2 /R26/ SLP106

CYQR;2010-08-23 13:00;CYQR 231300Z 32009KT 6SM -RA OVC004 15/14 A2984 RMK SC8 SLP107

CYQR;2010-08-23 14:00;CYQR 231400Z 33010G16KT 4SM BR SCT008 BKN014 OVC025 15/13 A2985 RMK SF1SC5SC2 INTMT -RA SLP108

CYQR;2010-08-23 14:37;CYQR 231437Z 31010KT 5SM BR BKN006 OVC020 15/ RMK SF5SC3

CYQR;2010-08-23 15:00;CYQR 231500Z 32011KT 5SM BR OVC006 15/14 A2984 RMK SF8 SLP110

CYQR;2010-08-23 15:47;CYQR 231547Z 30013KT 5SM -RA BR BKN007 OVC030 14/ RMK SF7SC1

CYQR;2010-08-23 16:00;CYQR 231600Z 31015KT 5SM -RA BR BKN009 OVC030 15/13 A2986 RMK SF7SC1 SLP117

CYQR;2010-08-23 17:00;CYQR 231700Z 31016KT 3SM -RA BR BKN006 BKN016 OVC048 14/13 A2988 RMK SF6SC1SC2 -RA INTMT SLP123

CYQR;2010-08-23 18:00;CYQR 231800Z 30011KT 4SM -RA BR BKN007 OVC050 15/14 A2989 RMK SF6SC2 SLP128

CYQR;2010-08-23 19:00;CYQR 231900Z 29016KT 6SM -RA BR BKN009 OVC029 15/14 A2989 RMK SF6SC2 SLP129

CYQR;2010-08-23 19:23;CYQR 231923Z 29017KT 8SM -SHRA BKN011 OVC029 15/ RMK SC5SC3 CVCTV CLD EMBD

CYQR;2010-08-23 20:00;CYQR 232000Z 30019KT 12SM VCSH BKN014 OVC045 16/13 A2990 RMK CU6SC2 SLP133

CYQR;2010-08-23 20:05;CYQR 232005Z 30016G22KT 12SM -SHRA BKN014 OVC045 15/ RMK CU6SC2

CYQR;2010-08-23 21:00;CYQR 232100Z 29021G27KT 10SM -SHRA FEW008 BKN014 OVC048 15/13 A2993 RMK SF0SC5SC3 CVCTV CLD EMBD -SHRA OCNL SLP142

CYQR;2010-08-23 21:27;CYQR 232127Z 29021G27KT 12SM BKN021 OVC035 15/ RMK SC5SC3

CYQR;2010-08-23 22:00;CYQR 232200Z 30015G28KT 12SM SCT019 BKN056 BKN069 15/12 A2995 RMK CU3SC2AC2 TCU ASOCTD SLP150

CYQR;2010-08-23 23:00;CYQR 232300Z 29019G25KT 12SM FEW019 SCT056 BKN071 15/11 A2996 RMK CU1SC3AC3 SLP153

CYQR;2010-08-24 00:00;CYQR 240000Z 30019G31KT 15SM FEW032 BKN051 OVC082 15/11 A2998 RMK CU2SC2AC3 SLP159

CYQR;2010-08-24 01:00;CYQR 240100Z 30019G26KT 15SM FEW035 SCT068 BKN098 BKN300 15/10 A2998 RMK CU2AC2AC2CI0 SLP161

CYQR;2010-08-24 02:00;CYQR 240200Z 29010G15KT 15SM FEW035 BKN095 BKN300 13/09 A3000 RMK SC2AC3CI1 SLP166

CYQR;2010-08-24 03:00;CYQR 240300Z 30011G17KT 15SM FEW035 SCT090 BKN300 12/09 A3001 RMK SC2AC2CI0 SLP173

CYQR;2010-08-24 04:00;CYQR 240400Z 29015KT 15SM BKN029 BKN080 12/09 A3001 RMK SC6AC2 SLP173

CYQR;2010-08-24 05:00;CYQR 240500Z 31019G28KT 15SM OVC021 13/09 A3001 RMK SC8 SLP174

CYQR;2010-08-24 05:09;CYQR 240509Z 31022G30KT 10SM -SHRA OVC019 12/ RMK SC8 CVCTV CLD EMBD

CYQR;2010-08-24 05:48;CYQR 240548Z 30019G26KT 15SM SCT015 OVC030 11/ RMK SC4SC4

CYQR;2010-08-24 06:00;CYQR 240600Z 30021KT 15SM SCT015 OVC030 11/10 A3002 RMK SC4SC4 SLP178

CYQR;2010-08-24 07:00;CYQR 240700Z 30019KT 15SM OVC012 11/10 A3004 RMK SC8 SLP183

CYQR;2010-08-24 08:00;CYQR 240800Z 30022G28KT 15SM OVC014 12/10 A3004 RMK SC8 SLP183

CYQR;2010-08-24 09:00;CYQR 240900Z 29018KT 15SM OVC012 11/10 A3005 RMK SC8 SLP188

CYQR;2010-08-24 10:00;CYQR 241000Z 29018KT 15SM OVC012 11/09 A3006 RMK SC8 SLP191

CYQR;2010-08-24 10:36;CYQR 241036Z 29016G21KT 15SM SCT012 10/ RMK SC3

CYQR;2010-08-24 11:00;CYQR 241100Z 29016KT 15SM FEW012 10/09 A3008 RMK SC2 SLP197

CYQR;2010-08-24 12:00;CYQR 241200Z 29016KT 15SM FEW015 10/08 A3010 RMK SC1 SLP203

CYQR;2010-08-24 13:00;CYQR 241300Z 29013KT 15SM FEW020 10/08 A3012 RMK CF1 SLP211

CYQR;2010-08-24 14:00;CYQR 241400Z 30020G25KT 15SM FEW012 12/09 A3014 RMK CF1 SLP216

CYQR;2010-08-24 15:00;CYQR 241500Z 31023KT 15SM FEW016 13/10 A3015 RMK CU1 SLP221

CYQR;2010-08-24 16:00;CYQR 241600Z 32019G26KT 15SM FEW020 15/11 A3015 RMK CU1 SLP222

CYQR;2010-08-24 17:00;CYQR 241700Z 32025G32KT 15SM FEW026 17/10 A3016 RMK CU2 SLP226

CYQR;2010-08-24 18:00;CYQR 241800Z 32027G32KT 15SM SCT035 18/10 A3016 RMK CU3 SLP224

CYQR;2010-08-24 19:00;CYQR 241900Z 34025G30KT 15SM BKN041 19/10 A3016 RMK CU6 SLP224

CYQR;2010-08-24 20:00;CYQR 242000Z 32021G27KT 15SM SCT045 19/09 A3017 RMK CU4 SLP227

CYQR;2010-08-24 21:00;CYQR 242100Z 32018G24KT 15SM SCT052 19/09 A3017 RMK CU4 SLP226

CYQR;2010-08-24 22:00;CYQR 242200Z 34018G24KT 15SM SCT054 20/09 A3018 RMK CU3 SLP227

CYQR;2010-08-24 23:00;CYQR 242300Z 33015KT 15SM FEW058 20/08 A3018 RMK CU2 SLP229

CYQR;2010-08-25 00:00;CYQR 250000Z 34010KT 15SM FEW064 19/09 A3019 RMK SC2 CU ASOCTD SLP233

CYQR;2010-08-25 01:00;CYQR 250100Z 35008KT 15SM FEW064 FEW300 17/10 A3020 RMK SC1CI1 SLP236

CYQR;2010-08-25 02:00;CYQR 250200Z 32005KT 15SM FEW065 FEW240 15/10 A3020 RMK SC1CI0 SLP237

CYQR;2010-08-25 03:00;CYQR 250300Z 36004KT 15SM FEW065 13/08 A3021 RMK SC1 SLP243

CYQR;2010-08-25 04:00;CYQR 250400Z 23003KT 15SM FEW290 10/08 A3022 RMK CI1 SLP245

CYQR;2010-08-25 05:00;CYQR 250500Z 28002KT 15SM SKC 09/07 A3023 RMK SLP248

CYQR;2010-08-25 06:00;CYQR 250600Z 00000KT 15SM SKC 09/07 A3023 RMK SLP248

CYQR;2010-08-25 07:00;CYQR 250700Z 12004KT 15SM FEW290 08/07 A3023 RMK CI1 SLP248

CYQR;2010-08-25 08:00;CYQR 250800Z 12005KT 15SM SKC 08/06 A3023 RMK SLP249

CYQR;2010-08-25 09:00;CYQR 250900Z 14006KT 15SM SKC 07/06 A3024 RMK SLP250

CYQR;2010-08-25 10:00;CYQR 251000Z 12006KT 15SM SKC 06/05 A3024 RMK SLP250

CYQR;2010-08-25 11:00;CYQR 251100Z 13006KT 15SM FEW100 06/05 A3023 RMK AC1 SLP249

CYQR;2010-08-25 12:00;CYQR 251200Z 14006KT 8SM FEW140 FEW280 07/06 A3023 RMK AC1CI0 BR SLP250

CYQR;2010-08-25 13:00;CYQR 251300Z 13005KT 15SM FEW280 08/07 A3023 RMK CI1 SLP250

CYQR;2010-08-25 14:00;CYQR 251400Z 15006KT 15SM FEW080 FEW280 11/08 A3023 RMK AC1CI1 SLP248

CYQR;2010-08-25 15:00;CYQR 251500Z 16006KT 15SM FEW080 FEW280 14/10 A3021 RMK AC1CI0 SLP242

CYQR;2010-08-25 16:00;CYQR 251600Z 16007KT 15SM FEW280 17/12 A3020 RMK CI0 SLP238

CYQR;2010-08-25 17:00;CYQR 251700Z 18010KT 15SM FEW280 20/10 A3019 RMK CI1 SLP234

CYQR;2010-08-25 18:00;CYQR 251800Z 18012KT 15SM FEW200 22/10 A3016 RMK CI1 SLP223

CYQR;2010-08-25 19:00;CYQR 251900Z 17013G20KT 15SM FEW200 23/11 A3013 RMK CI0 SLP214

CYQR;2010-08-25 20:00;CYQR 252000Z 16013KT 15SM FEW200 24/11 A3011 RMK CI1 SLP206

CYQR;2010-08-25 21:00;CYQR 252100Z 18015KT 15SM SKC 24/10 A3008 RMK SLP195

CYQR;2010-08-25 22:00;CYQR 252200Z 18011G16KT 15SM SKC 25/11 A3006 RMK SLP188

CYQR;2010-08-25 23:00;CYQR 252300Z 18012KT 15SM SKC 25/10 A3003 RMK SLP178

CYQR;2010-08-26 00:00;CYQR 260000Z 17007KT 15SM SKC 24/12 A3001 RMK SLP171

CYQR;2010-08-26 01:00;CYQR 260100Z 16008KT 15SM FEW350 22/12 A2999 RMK CI1 SLP165

CYQR;2010-08-26 02:00;CYQR 260200Z 15010KT 15SM FEW250 20/11 A2997 RMK CI1 SLP159

CYQR;2010-08-26 03:00;CYQR 260300Z 14011KT 15SM FEW250 18/11 A2996 RMK CI0 SLP153

CYQR;2010-08-26 04:00;CYQR 260400Z 15012KT 15SM SKC 17/11 A2995 RMK SLP149

CYQR;2010-08-26 05:00;CYQR 260500Z 15011KT 15SM FEW250 15/11 A2994 RMK CI1 SLP145

CYQR;2010-08-26 06:00;CYQR 260600Z 14011KT 15SM SKC 14/10 A2993 RMK SLP139

CYQR;2010-08-26 07:00;CYQR 260700Z 14011KT 15SM SKC 14/10 A2991 RMK SLP135

CYQR;2010-08-26 08:00;CYQR 260800Z 13009KT 15SM SKC 13/10 A2990 RMK SLP130

CYQR;2010-08-26 09:00;CYQR 260900Z 13009KT 15SM SKC 12/09 A2989 RMK SLP126

CYQR;2010-08-26 10:00;CYQR 261000Z 13007KT 15SM SKC 10/09 A2988 RMK SLP123

CYQR;2010-08-26 11:00;CYQR 261100Z 13007KT 15SM SKC 10/08 A2987 RMK SLP121

CYQR;2010-08-26 12:00;CYQR 261200Z 12006KT 15SM FEW120 09/08 A2987 RMK AC1 SLP121

CYQR;2010-08-26 13:00;CYQR 261300Z 12005KT 15SM FEW120 10/09 A2987 RMK AC1 SLP120

CYQR;2010-08-26 14:00;CYQR 261400Z 10005KT 15SM SKC 14/10 A2986 RMK SLP117

CYQR;2010-08-26 15:00;CYQR 261500Z 13005KT 15SM SKC 17/12 A2985 RMK SLP113

CYQR;2010-08-26 16:00;CYQR 261600Z 17006KT 15SM SKC 20/14 A2984 RMK SLP109

CYQR;2010-08-26 17:00;CYQR 261700Z 16009KT 15SM SKC 24/15 A2982 RMK SLP104

CYQR;2010-08-26 18:00;CYQR 261800Z 16010KT 15SM SKC 27/16 A2980 RMK SLP093

CYQR;2010-08-26 19:00;CYQR 261900Z 16012KT 15SM SKC 29/16 A2978 RMK SLP085

CYQR;2010-08-26 20:00;CYQR 262000Z 18011KT 15SM SKC 31/14 A2976 RMK SLP078

CYQR;2010-08-26 21:00;CYQR 262100Z 17013KT 15SM FEW300 33/14 A2972 RMK CI1 SLP064

CYQR;2010-08-26 22:00;CYQR 262200Z 20010KT 15SM FEW300 33/13 A2971 RMK CI1 SLP058

CYQR;2010-08-26 23:00;CYQR 262300Z 18010G16KT 15SM FEW300 32/14 A2967 RMK CI1 SLP047

CYQR;2010-08-27 00:00;CYQR 270000Z 17009KT 15SM BKN300 30/16 A2965 RMK CI2 CC ASOCTD SLP040

CYQR;2010-08-27 01:00;CYQR 270100Z 17008KT 15SM FEW230 BKN300 27/17 A2963 RMK CI2CI2 SLP034

CYQR;2010-08-27 02:00;CYQR 270200Z 16012KT 15SM SCT300 25/15 A2960 RMK CI2 SLP025

CYQR;2010-08-27 03:00;CYQR 270300Z 16010KT 15SM FEW300 22/15 A2960 RMK CI1 SLP023

CYQR;2010-08-27 04:00;CYQR 270400Z 16011KT 15SM FEW300 22/14 A2959 RMK CI1 SLP020

CYQR;2010-08-27 05:00;CYQR 270500Z 15015KT 15SM SKC 22/13 A2955 RMK SLP007

CYQR;2010-08-27 06:00;CYQR 270600Z 14015KT 15SM SKC 20/13 A2953 RMK SLP995

CYQR;2010-08-27 07:00;CYQR 270700Z 14013KT 15SM SKC 18/13 A2950 RMK SLP985

CYQR;2010-08-27 08:00;CYQR 270800Z 15014KT 15SM BKN100 17/12 A2946 RMK AC2 SLP974

CYQR;2010-08-27 09:00;CYQR 270900Z 28012G31KT 15SM BKN100 18/12 A2949 RMK AC7 WSHFT 0859 PRESRR SLP980

CYQR;2010-08-27 10:00;CYQR 271000Z 16010KT 15SM BKN100 21/11 A2944 RMK AC7 SLP965

CYQR;2010-08-27 11:00;CYQR 271100Z 18006KT 15SM FEW030 BKN100 18/11 A2948 RMK SC1AC4 SLP976

CYQR;2010-08-27 12:00;CYQR 271200Z 36011G16KT 15SM BKN100 BKN300 21/10 A2945 RMK AC4CI1 PRES UNSTDY SLP966

CYQR;2010-08-27 13:00;CYQR 271300Z 33008KT 15SM BKN074 BKN300 19/12 A2950 RMK ACC6CI1 VIRGA ALQDS PRES UNSTDY SLP982

CYQR;2010-08-27 13:45;CYQR 271345Z 36003KT 15SM -SHRA BKN076 BKN300 19/ RMK ACC6CI2

CYQR;2010-08-27 14:00;CYQR 271400Z 20003KT 15SM BKN076 BKN300 18/14 A2950 RMK ACC6CI2 SH NE-S SLP982

CYQR;2010-08-27 15:00;CYQR 271500Z 25006KT 15SM SCT086 BKN300 19/14 A2953 RMK AC4CI3 ACC EMBD SLP999

CYQR;2010-08-27 16:00;CYQR 271600Z 25009KT 15SM SCT090 BKN230 OVC300 21/14 A2956 RMK AC3CS2CI2 SLP008

CYQR;2010-08-27 17:00;CYQR 271700Z 29023G28KT 15SM FEW088 BKN230 BKN300 22/14 A2957 RMK AC2CI2CI1 SLP011

CYQR;2010-08-27 18:00;CYQR 271800Z 30024G31KT 15SM FEW090 SCT230 BKN300 21/11 A2960 RMK AC2CC1CI1 ACC ASOCTD SLP023

CYQR;2010-08-27 19:00;CYQR 271900Z 29024KT 15SM FEW090 FEW300 23/10 A2961 RMK ACC1CI1 SLP025

CYQR;2010-08-27 20:00;CYQR 272000Z 31023G29KT 15SM FEW067 FEW300 23/09 A2962 RMK AC1CI1 ACC ASOCTD SLP029

CYQR;2010-08-27 21:00;CYQR 272100Z 29020G27KT 15SM FEW060 SCT300 23/09 A2964 RMK SC2CI0 SLP036

CYQR;2010-08-27 22:00;CYQR 272200Z 31022KT 15SM FEW060 22/09 A2965 RMK SC2 CU ASOCTD SLP041

CYQR;2010-08-27 23:00;CYQR 272300Z 30019G24KT 15SM FEW060 21/07 A2966 RMK SC1 SLP045

CYQR;2010-08-28 00:00;CYQR 280000Z 31015G22KT 15SM FEW070 21/07 A2967 RMK AC1 SLP048

CYQR;2010-08-28 01:00;CYQR 280100Z 31009KT 15SM FEW070 19/07 A2968 RMK AC1 SLP051

CYQR;2010-08-28 02:00;CYQR 280200Z 27006KT 15SM FEW080 14/09 A2970 RMK AC1 SLP056

CYQR;2010-08-28 03:00;CYQR 280300Z 30009KT 15SM FEW090 12/07 A2971 RMK AC1 SLP067

CYQR;2010-08-28 04:00;CYQR 280400Z 30006KT 15SM FEW090 10/06 A2973 RMK AC1 SLP072

CYQR;2010-08-28 05:00;CYQR 280500Z 22003KT 15SM FEW090 10/06 A2974 RMK AC1 SLP075

CYQR;2010-08-28 06:00;CYQR 280600Z 18002KT 15SM FEW090 09/06 A2973 RMK AC1 SLP075

CYQR;2010-08-28 07:00;CYQR 280700Z 20004KT 15SM FEW100 07/04 A2974 RMK AC2 SLP077

CYQR;2010-08-28 08:00;CYQR 280800Z 17003KT 15SM SCT120 07/05 A2973 RMK AC2 SLP073

CYQR;2010-08-28 09:00;CYQR 280900Z 10002KT 15SM FEW120 08/05 A2973 RMK AC2 SLP075

CYQR;2010-08-28 10:00;CYQR 281000Z 15005KT 15SM BKN120 07/05 A2972 RMK AC5 SLP071

CYQR;2010-08-28 11:00;CYQR 281100Z 16006KT 15SM SCT120 09/06 A2974 RMK AC3 SLP076

CYQR;2010-08-28 12:00;CYQR 281200Z 17006KT 15SM BKN120 BKN250 10/07 A2973 RMK AC6CI1 SLP073

CYQR;2010-08-28 13:00;CYQR 281300Z 17005KT 15SM SCT120 BKN250 10/08 A2972 RMK AC3CI1 SLP070

CYQR;2010-08-28 14:00;CYQR 281400Z 19007KT 15SM FEW120 FEW210 SCT250 13/10 A2973 RMK AC1CC1CI1 SLP075

CYQR;2010-08-28 15:00;CYQR 281500Z 21011G16KT 15SM FEW120 FEW220 17/10 A2973 RMK AC1CI0 SLP075

CYQR;2010-08-28 16:00;CYQR 281600Z 21016KT 15SM FEW120 SCT260 19/10 A2973 RMK AC1CI0 SLP076

CYQR;2010-08-28 17:00;CYQR 281700Z 22012KT 15SM FEW087 SCT260 21/10 A2972 RMK AC1CI0 SLP072

CYQR;2010-08-28 18:00;CYQR 281800Z 24013KT 15SM FEW090 FEW260 23/09 A2971 RMK AC1CI0 SLP068

CYQR;2010-08-28 19:00;CYQR 281900Z 23012KT 15SM FEW060 FEW130 BKN260 23/08 A2971 RMK CF1AC1CI2 SLP065

CYQR;2010-08-28 20:00;CYQR 282000Z 24010G16KT 15SM FEW064 FEW130 BKN260 23/07 A2970 RMK SC1AC1CI2 SLP063

CYQR;2010-08-28 21:00;CYQR 282100Z 28008KT 15SM FEW077 FEW130 BKN260 22/07 A2968 RMK AC1AC1CI2 SLP059

CYQR;2010-08-28 22:00;CYQR 282200Z 28005KT 15SM FEW081 FEW140 FEW260 23/07 A2968 RMK AC1AC1CI1 SLP059

CYQR;2010-08-28 23:00;CYQR 282300Z 30007KT 15SM SCT086 BKN260 22/08 A2968 RMK AC4CI2 SLP059

CYQR;2010-08-29 00:00;CYQR 290000Z 35009KT 15SM SCT090 22/07 A2968 RMK AC3 ACC EMBD SLP058

CYQR;2010-08-29 01:00;CYQR 290100Z 35007KT 15SM BKN081 BKN250 20/07 A2970 RMK AC6CI1 ACC ASOCTD SLP062

CYQR;2010-08-29 02:00;CYQR 290200Z 02006KT 15SM BKN081 BKN250 18/06 A2970 RMK AC6CI1 ACC ASOCTD SLP064

CYQR;2010-08-29 03:00;CYQR 290300Z 04008KT 15SM BKN073 BKN250 16/06 A2972 RMK AC5CI0 SLP070

CYQR;2010-08-29 04:00;CYQR 290400Z 04008KT 15SM BKN080 BKN250 16/06 A2973 RMK AC5CI0 SLP071

CYQR;2010-08-29 05:00;CYQR 290500Z 05009KT 15SM BKN080 BKN250 16/06 A2975 RMK AC6CI1 SLP077

CYQR;2010-08-29 05:32;CYQR 290532Z 06009KT 15SM -SHRA SCT040 OVC075 16/ RMK SC4AC3 CVCTV CLD EMBD

CYQR;2010-08-29 06:00;CYQR 290600Z 06009KT 15SM -SHRA SCT038 OVC064 16/07 A2976 RMK SC4SC3 CVCTV CLD EMBD SLP080

CYQR;2010-08-29 07:00;CYQR 290700Z 03007KT 15SM SCT047 OVC064 14/08 A2976 RMK SC4SC3 SLP078

CYQR;2010-08-29 08:00;CYQR 290800Z 02009KT 15SM FEW040 SCT065 OVC090 15/08 A2973 RMK SC2SC2AC2 SLP070

CYQR;2010-08-29 09:00;CYQR 290900Z 03016KT 15SM FEW040 OVC088 14/08 A2973 RMK SC2AC5 SLP071

CYQR;2010-08-29 10:00;CYQR 291000Z 03011KT 15SM FEW040 OVC073 13/08 A2974 RMK SC2AC6 SLP074

CYQR;2010-08-29 11:00;CYQR 291100Z 04010KT 15SM -SHRA OVC052 12/08 A2976 RMK SC8 CVCTV CLD EMBD SLP079

CYQR;2010-08-29 12:00;CYQR 291200Z 04009KT 15SM -SHRA OVC037 12/07 A2976 RMK SC8 CVCTV CLD EMBD SLP081

CYQR;2010-08-29 13:00;CYQR 291300Z 05011KT 15SM -SHRA BKN032 OVC048 12/06 A2975 RMK SC6SC2 SLP079

CYQR;2010-08-29 14:00;CYQR 291400Z 04010KT 6SM -SHRA BR BKN030 OVC060 11/07 A2976 RMK SC6SC2 CVCTV CLD EMBD SLP083

CYQR;2010-08-29 15:00;CYQR 291500Z 01007KT 6SM -SHRA BR OVC040 11/08 A2979 RMK SC8 CVCTV CLD EMBDD SLP097

CYQR;2010-08-29 16:00;CYQR 291600Z 03007KT 4SM -SHRA BR OVC049 11/08 A2980 RMK SC8 CVCTV CLD EMBD SLP099

CYQR;2010-08-29 17:00;CYQR 291700Z 04012G17KT 4SM -RA BR BKN034 OVC042 10/08 A2979 RMK SC5SC3 SLP098

CYQR;2010-08-29 18:00;CYQR 291800Z 05017G22KT 15SM -RA FEW017 SCT048 OVC100 10/08 A2975 RMK SC2SC2AC4 SLP085

CYQR;2010-08-29 19:00;CYQR 291900Z 03010KT 15SM -SHRA FEW010 BKN048 OVC091 10/08 A2978 RMK CF1SC5AC2 ACC ASOCTD SLP093

CYQR;2010-08-29 19:13;CYQR 291913Z 03010KT 4SM -SHRA BR FEW005 OVC042 10/ RMK SF1SC8 CVCTV CLD EMBD

CYQR;2010-08-29 19:34;CYQR 291934Z 03011KT 2 1/2SM -SHRA BR FEW005 BKN020 OVC040 10/ RMK SF0SC2SC6 CVCTV CLD EMBD

CYQR;2010-08-29 20:00;CYQR 292000Z 03010KT 12SM -SHRA FEW007 SCT013 OVC053 11/10 A2978 RMK SF0SC2SC6 CVCTV CLD EMBD PCPN VRY LGT SLP093

CYQR;2010-08-29 20:24;CYQR 292024Z 03013KT 15SM BKN008 OVC053 11/ RMK SC6SC2

CYQR;2010-08-29 21:00;CYQR 292100Z 04008KT 15SM BKN010 OVC043 12/10 A2980 RMK SC7SC1 SLP100

CYQR;2010-08-29 22:00;CYQR 292200Z 36011KT 15SM BKN012 OVC045 12/10 A2981 RMK SC6SC2 SLP105

CYQR;2010-08-29 23:00;CYQR 292300Z 03010KT 15SM BKN010 OVC039 12/09 A2982 RMK SC6SC2 SLP108

CYQR;2010-08-30 00:00;CYQR 300000Z 02008KT 15SM BKN012 OVC053 12/09 A2984 RMK SC6SC2 SLP116

CYQR;2010-08-30 01:00;CYQR 300100Z 04008KT 15SM OVC014 11/09 A2985 RMK SC8 SLP120

CYQR;2010-08-30 02:00;CYQR 300200Z 03008KT 15SM OVC012 11/09 A2986 RMK SC8 SLP123

CYQR;2010-08-30 02:49;CYQR 300249Z 03005KT 15SM FEW014 BKN021 BKN055 11/ RMK SF2SC3SC2

CYQR;2010-08-30 03:00;CYQR 300300Z 04006KT 15SM FEW014 BKN021 BKN056 11/09 A2988 RMK SF2SC3SC2 SLP132

CYQR;2010-08-30 04:00;CYQR 300400Z 03005KT 15SM BKN016 OVC056 11/09 A2989 RMK SC6SC2 SLP135

CYQR;2010-08-30 04:34;CYQR 300434Z 05006KT 15SM OVC014 11/ RMK SC8

CYQR;2010-08-30 05:00;CYQR 300500Z 07005KT 15SM OVC012 11/09 A2991 RMK SC8 SLP142

CYQR;2010-08-30 06:00;CYQR 300600Z 08007KT 15SM OVC014 11/09 A2991 RMK SC8 SLP142

CYQR;2010-08-30 07:00;CYQR 300700Z 00000KT 15SM OVC012 11/09 A2992 RMK SC8 SLP145

CYQR;2010-08-30 08:00;CYQR 300800Z 35004KT 15SM FEW012 OVC037 11/09 A2992 RMK SF2SC6 SLP145

CYQR;2010-08-30 09:00;CYQR 300900Z 04006KT 15SM FEW015 OVC037 11/09 A2991 RMK SF2SC6 SLP140

CYQR;2010-08-30 10:00;CYQR 301000Z 05004KT 15SM BKN037 OVC120 10/08 A2991 RMK SC5AC1 SLP142

CYQR;2010-08-30 11:00;CYQR 301100Z 00000KT 15SM FEW020 BKN040 BKN120 OVC250 10/08 A2994 RMK SF1SC4AC1CI0 SLP151

CYQR;2010-08-30 12:00;CYQR 301200Z 07004KT 15SM FEW020 SCT040 BKN120 OVC250 09/08 A2993 RMK SF1SC3AC2CI1 SLP150

CYQR;2010-08-30 13:00;CYQR 301300Z 09006KT 15SM FEW040 SCT088 BKN120 10/09 A2995 RMK SC1AC2AC4 SLP155

CYQR;2010-08-30 14:00;CYQR 301400Z 08004KT 15SM FEW040 SCT088 BKN120 10/09 A2995 RMK SC2AC1AC4 SLP155

CYQR;2010-08-30 15:00;CYQR 301500Z 06007KT 15SM FEW007 SCT039 BKN120 OVC240 11/09 A2992 RMK SF0SC3AC2CI2 SLP144

CYQR;2010-08-30 16:00;CYQR 301600Z 04009KT 15SM FEW009 BKN036 OVC094 11/09 A2991 RMK SF1SC3AC4 SLP143

CYQR;2010-08-30 16:40;CYQR 301640Z 07011KT 15SM FEW010 BKN040 OVC089 12/ RMK SF0SC5AC3

CYQR;2010-08-30 17:00;CYQR 301700Z 08012KT 15SM FEW010 BKN066 OVC089 12/09 A2991 RMK SF1AC5AC2 SLP141

CYQR;2010-08-30 18:00;CYQR 301800Z 09011KT 15SM FEW013 SCT045 BKN084 OVC140 12/10 A2992 RMK SC2SC2AC2AC2 SLP144

CYQR;2010-08-30 18:20;CYQR 301820Z 07010KT 15SM -SHRA FEW013 SCT045 OVC084 12/ RMK SC2SC2AC4 ACC ASOCTD

CYQR;2010-08-30 19:00;CYQR 301900Z 09007KT 15SM -SHRA FEW007 SCT045 BKN067 OVC094 12/10 A2990 RMK SF2SC2AC2AC2 ACC ASOCTD SLP137

CYQR;2010-08-30 20:00;CYQR 302000Z 06010G16KT 15SM SCT013 BKN045 OVC095 13/10 A2986 RMK CF2SC3AC3 SLP125

CYQR;2010-08-30 21:00;CYQR 302100Z 05010KT 15SM BKN017 OVC095 14/10 A2985 RMK CU5AC3 SC ASOCTD SLP118

CYQR;2010-08-30 21:31;CYQR 302131Z 06009KT 15SM -SHRA BKN017 OVC090 14/ RMK SC6AC2 CU ASOCTD

CYQR;2010-08-30 22:00;CYQR 302200Z 07012KT 15SM -SHRA BKN017 BKN090 OVC250 13/10 A2984 RMK SC5AC2CI0 CU ASOCTD SLP115

CYQR;2010-08-30 22:14;CYQR 302214Z 06010KT 15SM BKN017 BKN090 OVC250 13/ RMK SC5AC2CI0

CYQR;2010-08-30 23:00;CYQR 302300Z 04010KT 15SM BKN016 BKN091 OVC250 13/10 A2981 RMK SC5AC2CI0 SLP108

CYQR;2010-08-31 00:00;CYQR 310000Z CCA 02011KT 15SM BKN018 OVC093 13/10 A2981 RMK SC7AC1 SLP107

CYQR;2010-08-31 00:19;CYQR 310019Z 02008KT 10SM -SHRA BKN018 OVC095 12/ RMK SC6AC2 CVCTV CLD EMBD

CYQR;2010-08-31 01:00;CYQR 310100Z 36012KT 3SM -SHRA BR BKN015 OVC095 12/10 A2979 RMK SC6AC2 ACC ASOCTD SLP100

CYQR;2010-08-31 02:00;CYQR 310200Z 01014KT 5SM -SHRA BR SCT025 OVC034 11/10 A2979 RMK SC4SC4 CVCTV CLD EMBD SLP101

CYQR;2010-08-31 02:45;CYQR 310245Z 02010KT 5SM -SHRA BR SCT007 OVC034 11/ RMK SF4SC4 CVCTV CLD EMBD

CYQR;2010-08-31 03:00;CYQR 310300Z 01012KT 5SM -SHRA BR SCT006 OVC034 11/10 A2979 RMK SF4SC4 CVCTV CLD EMBD SLP102

CYQR;2010-08-31 03:31;CYQR 310331Z 36011G16KT 5SM -SHRA BR BKN008 OVC032 11/ RMK SF6SC2 CVCTV CLD EMBD

CYQR;2010-08-31 04:00;CYQR 310400Z 36011KT 5SM -SHRA BR OVC006 11/10 A2977 RMK SC8 CVCTV CLD EMBD SLP096

CYQR;2010-08-31 05:00;CYQR 310500Z 36011G16KT 5SM -SHRA BR OVC005 10/09 A2976 RMK SC8 CVCTV CLD EMBD SLP092

CYQR;2010-08-31 06:00;CYQR 310600Z 36010G16KT 5SM -SHRA BR OVC005 10/10 A2975 RMK SC8 CVCTV CLD EMBD SLP087

CYQR;2010-08-31 06:34;CYQR 310634Z 34009KT 4SM -RA BR OVC004 10/ RMK SC8

CYQR;2010-08-31 07:00;CYQR 310700Z 33008KT 4SM -RA BR OVC004 10/10 A2977 RMK SC8 SLP092

CYQR;2010-08-31 07:22;CYQR 310722Z 33010KT 4SM -RA BR OVC005 10/ RMK SC8

CYQR;2010-08-31 08:00;CYQR 310800Z 32013KT 4SM -RA BR OVC005 11/10 A2976 RMK SC8 SLP091

CYQR;2010-08-31 09:00;CYQR 310900Z 33014G20KT 5SM -RA BR OVC005 10/09 A2977 RMK SC8 SLP092

CYQR;2010-08-31 10:00;CYQR 311000Z 32017KT 6SM -RA BR OVC005 10/09 A2976 RMK SC8 SLP091

CYQR;2010-08-31 10:16;CYQR 311016Z 32014G20KT 6SM -RA BR BKN007 OVC030 10/ RMK SC7SC1

CYQR;2010-08-31 11:00;CYQR 311100Z 32012KT 10SM -RA SCT010 OVC060 10/09 A2978 RMK SC4SC4 SLP096

CYQR;2010-08-31 12:00;CYQR 311200Z 31011KT 10SM -RA SCT010 OVC030 10/09 A2979 RMK SF3SC5 SLP100

CYQR;2010-08-31 12:04;CYQR 311204Z 31010KT 10SM -RA BKN006 OVC030 10/ RMK SF6SC2

CYQR;2010-08-31 12:33;CYQR 311233Z 30012KT 8SM -RA BKN004 OVC039 10/ RMK SF7SC1

CYQR;2010-08-31 13:00;CYQR 311300Z 30010KT 8SM -RA BKN004 OVC031 10/09 A2981 RMK SF6SC2 SLP105

CYQR;2010-08-31 14:00;CYQR 311400Z 29013KT 5SM -RA BR BKN006 OVC017 10/09 A2983 RMK SF1SC7 SLP112

CYQR;2010-08-31 15:00;CYQR 311500Z 29011KT 8SM -RA SCT007 BKN013 OVC058 11/10 A2984 RMK SF0SC5SC3 SLP117

CYQR;2010-08-31 15:48;CYQR 311548Z 30012KT 10SM FEW009 BKN018 BKN064 12/ RMK SF1SC5SC1

CYQR;2010-08-31 16:00;CYQR 311600Z 29011KT 10SM FEW009 BKN018 BKN064 12/11 A2984 RMK SF1SC5SC1 SLP119

CYQR;2010-08-31 17:00;CYQR 311700Z 28010KT 10SM SCT009 BKN034 BKN120 13/11 A2985 RMK SC3SC2AC1 SLP121

CYQR;2010-08-31 17:11;CYQR 311711Z 28010KT 15SM SCT011 BKN120 BKN250 14/ RMK CU3AC2CI0

CYQR;2010-08-31 18:00;CYQR 311800Z 30013KT 15SM BKN023 BKN042 BKN250 15/11 A2985 RMK CU6SC1CI0 SLP117

CYQR;2010-08-31 19:00;CYQR 311900Z 27012G17KT 15SM SCT030 BKN057 15/10 A2985 RMK CU3SC4 SLP117

CYQR;2010-08-31 20:00;CYQR 312000Z 30011KT 15SM SCT034 BKN062 15/10 A2985 RMK CU4SC3 SLP118

CYQR;2010-08-31 21:00;CYQR 312100Z 27012KT 15SM SCT035 BKN073 17/10 A2985 RMK CU3AC4 SLP116

CYQR;2010-08-31 22:00;CYQR 312200Z 31010KT 15SM SCT035 BKN070 16/09 A2985 RMK CU3AC1 SLP116

CYQR;2010-08-31 23:00;CYQR 312300Z 27010KT 15SM FEW036 FEW240 17/08 A2985 RMK CU2CI1 SLP116

CYQR;2010-09-01 01:00;CYQR 010100Z 22006KT 15SM FEW036 FEW240 15/09 A2983 RMK CU1CI1 CB DIST SW SLP111

CYQR;2010-09-01 02:00;CYQR 010200Z 21006KT 15SM VCSH FEW036CB FEW080 SCT240 11/09 A2983 RMK CB1ACC1CI1 CB+SHWRS S SLP111

CYQR;2010-09-01 03:00;CYQR 010300Z 19005KT 15SM FEW040 FEW100 BKN240 11/09 A2983 RMK SC1AC1CI1 SLP113

CYQR;2010-09-01 04:00;CYQR 010400Z 21009KT 15SM SCT081 BKN240 11/08 A2982 RMK AC3CI1 SLP112

CYQR;2010-09-01 05:00;CYQR 010500Z 19006KT 15SM BKN088 10/08 A2980 RMK AC5 SLP105

CYQR;2010-09-01 06:00;CYQR 010600Z 23007KT 15SM BKN068 11/08 A2980 RMK AC6 SLP100

CYQR;2010-09-01 07:00;CYQR 010700Z 18008KT 15SM BKN087 10/08 A2979 RMK AC6 SLP098

CYQR;2010-09-01 08:00;CYQR 010800Z 17008KT 15SM BKN100 10/08 A2977 RMK AC3 SLP093

CYQR;2010-09-01 09:00;CYQR 010900Z 16007KT 15SM FEW100 SCT250 09/07 A2976 RMK AC1CI1 SLP089

CYQR;2010-09-01 10:00;CYQR 011000Z 16007KT 15SM SCT084 09/07 A2976 RMK AC3 SLP088

CYQR;2010-09-01 11:00;CYQR 011100Z 16007KT 15SM FEW084 FEW250 08/07 A2975 RMK AC1CI0 SLP085

CYQR;2010-09-01 12:00;CYQR 011200Z 17006KT 15SM FEW093 FEW250 07/06 A2974 RMK AC1CI0 ACC ASOCTD SLP081

CYQR;2010-09-01 13:00;CYQR 011300Z 16005KT 15SM FEW100 FEW150 SCT250 08/06 A2975 RMK AC1AC1CI0 SLP083

CYQR;2010-09-01 14:00;CYQR 011400Z 19004KT 15SM FEW082 SCT150 BKN250 10/07 A2974 RMK AC2AC1CI0 SLP081

CYQR;2010-09-01 15:00;CYQR 011500Z 20003KT 15SM FEW080 FEW150 BKN280 13/09 A2973 RMK AC1AC1CI0 SLP080

CYQR;2010-09-01 16:00;CYQR 011600Z 19004KT 15SM FEW080 FEW150 BKN280 16/10 A2972 RMK AC2AC1CI0 SLP077

CYQR;2010-09-01 17:00;CYQR 011700Z 21006KT 15SM FEW090 SCT150 BKN280 18/09 A2971 RMK AC2AC1CI0 SLP074

CYQR;2010-09-01 18:00;CYQR 011800Z 21003KT 15SM SCT095 BKN150 BKN280 18/08 A2971 RMK AC4AC2CI1 SLP067

CYQR;2010-09-01 19:00;CYQR 011900Z 19006KT 15SM FEW040 BKN100 BKN160 OVC300 18/08 A2969 RMK CU1AC6AC2CI1 SLP063

CYQR;2010-09-01 20:00;CYQR 012000Z 19007KT 15SM FEW040 BKN080 OVC160 17/08 A2969 RMK CU1AC6AC2 SLP063

CYQR;2010-09-01 21:00;CYQR 012100Z 16005KT 15SM FEW040 BKN081 BKN100 BKN300 18/08 A2968 RMK CU2AC3AC2CI0 SLP059

CYQR;2010-09-01 22:00;CYQR 012200Z 20005KT 15SM FEW048 BKN082 BKN160 BKN300 18/08 A2968 RMK CU1ACC5AC1CI1 SHWRS SW SLP059

CYQR;2010-09-01 23:00;CYQR 012300Z 21006KT 15SM VCSH SCT034 BKN063 BKN150 OVC300 16/10 A2969 RMK CU3ACC3AC1CI1 SHWRS S-SW SLP061

CYQR;2010-09-02 00:00;CYQR 020000Z 35006KT 15SM FEW046 SCT065 BKN079 OVC300 16/11 A2970 RMK CU2ACC2AC2CI2 SLP067

CYQR;2010-09-02 00:25;CYQR 020025Z 04005KT 15SM -SHRA FEW050 SCT070 OVC100 15/ RMK SC2AC2AC4

CYQR;2010-09-02 01:00;CYQR 020100Z 16005KT 15SM -SHRA BKN055 OVC100 16/10 A2970 RMK SC6AC2 SLP069

CYQR;2010-09-02 02:00;CYQR 020200Z 21007KT 15SM -SHRA BKN057 OVC093 14/11 A2972 RMK SC6AC2 SLP075

CYQR;2010-09-02 03:00;CYQR 020300Z 23005KT 15SM -SHRA OVC063 13/11 A2974 RMK SC8 CVCTV CLD EMBD SLP082

CYQR;2010-09-02 04:00;CYQR 020400Z 26004KT 15SM -SHRA OVC053 12/11 A2976 RMK SC8 SLP086

CYQR;2010-09-02 05:00;CYQR 020500Z 28006KT 15SM -SHRA OVC053 12/11 A2977 RMK SC8 SLP090

CYQR;2010-09-02 06:00;CYQR 020600Z 21002KT 15SM -SHRA OVC053 12/10 A2979 RMK SC8 SLP094

CYQR;2010-09-02 07:00;CYQR 020700Z 22004KT 15SM BKN061 OVC100 12/10 A2980 RMK SC5AC3 SLP099

CYQR;2010-09-02 08:00;CYQR 020800Z 28005KT 15SM BKN071 BKN090 OVC250 10/09 A2982 RMK AC5AC2CI2 SLP106

CYQR;2010-09-02 09:00;CYQR 020900Z 33010KT 15SM OVC100 10/09 A2986 RMK AC6 SLP120

CYQR;2010-09-02 10:00;CYQR 021000Z 33014KT 15SM FEW100 FEW250 09/08 A2989 RMK AC1CI0 SLP129

CYQR;2010-09-02 11:00;CYQR 021100Z 33015KT 15SM FEW005 FEW250 09/08 A2992 RMK CF1CI0 SLP140

CYQR;2010-09-02 12:00;CYQR 021200Z 34012KT 15SM FEW005 FEW100 FEW250 09/08 A2997 RMK SF1AC1CI1 SLP160

CYQR;2010-09-02 12:17;CYQR 021217Z 33010KT 15SM BKN005 BKN030 BKN100 09/ RMK SF5SC1AC1

CYQR;2010-09-02 13:00;CYQR 021300Z 32013KT 15SM BKN005 BKN030 BKN100 09/09 A3000 RMK SF5SC1AC1 SLP171

CYQR;2010-09-02 13:27;CYQR 021327Z 33013KT 15SM SCT006 BKN030 10/ RMK SF2SC2

CYQR;2010-09-02 14:00;CYQR 021400Z 33013G19KT 15SM FEW009 SCT030 BKN100 10/09 A3003 RMK SF2SC2AC1 SLP180

CYQR;2010-09-02 15:00;CYQR 021500Z 34017KT 15SM FEW012 FEW100 FEW150 12/09 A3005 RMK SF1AC1AC1 SLP189

CYQR;2010-09-02 16:00;CYQR 021600Z 33018G25KT 15SM FEW020 14/10 A3007 RMK CU2 SLP196

CYQR;2010-09-02 17:00;CYQR 021700Z 33021G26KT 15SM BKN024 15/09 A3009 RMK CU5 SLP201

CYQR;2010-09-02 18:00;CYQR 021800Z 34023G28KT 15SM BKN034 16/08 A3010 RMK CU6 SLP204

CYQR;2010-09-02 19:00;CYQR 021900Z CCA 34021G28KT 15SM BKN047 17/07 A3012 RMK CU5 OBS TAKEN +37 DUE MIDS FAILURE SLP210

CYQR;2010-09-02 20:00;CYQR 022000Z 34019G27KT 15SM SCT047 17/07 A3012 RMK CU4 SLP211

CYQR;2010-09-02 21:00;CYQR 022100Z 34019G28KT 15SM SCT053 17/06 A3013 RMK CU4 SLP215

CYQR;2010-09-02 22:00;CYQR 022200Z 33020KT 15SM FEW056 18/06 A3014 RMK CU2 SLP216

CYQR;2010-09-02 23:00;CYQR 022300Z 34020G25KT 15SM FEW059 17/06 A3015 RMK CU2 SLP219

CYQR;2010-09-03 00:00;CYQR 030000Z 34014G20KT 15SM FEW044 17/06 A3015 RMK CU1 SLP222

CYQR;2010-09-03 01:00;CYQR 030100Z 34008KT 15SM FEW044 FEW080 FEW250 14/06 A3016 RMK CU1AC1CI1 SLP225

CYQR;2010-09-03 02:00;CYQR 030200Z 32005KT 15SM FEW080 FEW250 11/06 A3017 RMK AC1CI0 SLP227

CYQR;2010-09-03 03:00;CYQR 030300Z 28004KT 15SM FEW075 FEW250 09/06 A3019 RMK AC1CI0 SLP237

CYQR;2010-09-03 04:00;CYQR 030400Z 29004KT 15SM SKC 07/05 A3019 RMK SLP239

CYQR;2010-09-03 05:00;CYQR 030500Z 26003KT 15SM SKC 07/04 A3020 RMK SLP240

CYQR;2010-09-03 06:00;CYQR 030600Z 28003KT 15SM SKC 06/04 A3019 RMK SLP239

CYQR;2010-09-03 07:00;CYQR 030700Z 28005KT 15SM SKC 06/04 A3020 RMK SLP240

CYQR;2010-09-03 08:00;CYQR 030800Z CCA 02003KT 15SM SKC 06/04 A3020 RMK SLP242

CYQR;2010-09-03 09:00;CYQR 030900Z 32002KT 15SM SKC 05/04 A3022 RMK SLP247

CYQR;2010-09-03 10:00;CYQR 031000Z 00000KT 15SM SKC 05/04 A3023 RMK SLP250

CYQR;2010-09-03 11:00;CYQR 031100Z 00000KT 15SM SKC 03/02 A3023 RMK SLP250

CYQR;2010-09-03 12:00;CYQR 031200Z 00000KT 12SM MIFG FEW250 04/03 A3023 RMK CI1 SLP251

CYQR;2010-09-03 13:00;CYQR 031300Z 20003KT 15SM SKC 04/03 A3023 RMK SLP252

CYQR;2010-09-03 14:00;CYQR 031400Z 00000KT 15SM FEW020 FEW130 09/07 A3023 RMK SC1AC1 SLP252

CYQR;2010-09-03 15:00;CYQR 031500Z 16002KT 15SM FEW280 12/08 A3023 RMK CI1 SLP251

CYQR;2010-09-03 16:00;CYQR 031600Z 16004KT 15SM FEW280 15/08 A3022 RMK CI1 SLP249

CYQR;2010-09-03 17:00;CYQR 031700Z 15004KT 15SM SKC 17/08 A3022 RMK SLP249

CYQR;2010-09-03 18:00;CYQR 031800Z 11003KT 15SM FEW042 FEW300 19/08 A3020 RMK CU1CI1 SLP241

CYQR;2010-09-03 19:00;CYQR 031900Z 04003KT 15SM FEW042 FEW300 19/08 A3019 RMK CU1CI1 SLP235

CYQR;2010-09-03 20:00;CYQR 032000Z 33003KT 15SM FEW048 FEW300 20/08 A3017 RMK CU2CI1 SLP229

CYQR;2010-09-03 21:00;CYQR 032100Z 08004KT 15SM FEW059 SCT300 21/09 A3015 RMK CU2CI0 SLP220

CYQR;2010-09-03 22:00;CYQR 032200Z 00000KT 15SM FEW052 BKN300 21/08 A3013 RMK CU2CI0 SLP215

CYQR;2010-09-03 23:00;CYQR 032300Z 33002KT 15SM FEW044 BKN300 20/09 A3012 RMK CU2CI0 SLP211

CYQR;2010-09-04 00:00;CYQR 040000Z 10005KT 15SM R13/3000VP6000FT/U FEW040 BKN300 20/10 A3010 RMK CU1CI2 SLP205

CYQR;2010-09-04 01:00;CYQR 040100Z 11004KT 15SM FEW040 BKN300 17/09 A3008 RMK SC1CI3 SLP198

CYQR;2010-09-04 02:00;CYQR 040200Z 11007KT 15SM FEW040 BKN300 15/09 A3007 RMK SC1CI3 SLP196

CYQR;2010-09-04 03:00;CYQR 040300Z 11010KT 15SM SCT300 15/08 A3006 RMK CI0 SLP189

CYQR;2010-09-04 04:00;CYQR 040400Z 12010KT 15SM SKC 13/08 A3007 RMK SLP192

CYQR;2010-09-04 05:00;CYQR 040500Z 12013KT 15SM SKC 13/07 A3005 RMK SLP186

CYQR;2010-09-04 06:00;CYQR 040600Z 13011KT 15SM FEW300 12/07 A3004 RMK CI0 SLP181

CYQR;2010-09-04 07:00;CYQR 040700Z 14012KT 15SM BKN100 BKN300 12/07 A3002 RMK AC5CI1 SLP176

CYQR;2010-09-04 08:00;CYQR 040800Z 13011KT 15SM FEW100 BKN300 11/07 A3001 RMK AC1CI1 SLP173

CYQR;2010-09-04 09:00;CYQR 040900Z 14011KT 15SM SCT300 11/07 A2999 RMK CI1 SLP164

CYQR;2010-09-04 10:00;CYQR 041000Z 14012KT 15SM SKC 10/06 A2998 RMK SLP160

CYQR;2010-09-04 11:00;CYQR 041100Z 13013KT 15SM FEW100 10/06 A2996 RMK AC1 SLP154

CYQR;2010-09-04 12:00;CYQR 041200Z 13013KT 15SM FEW100 FEW250 10/06 A2994 RMK AC1CI1 SLP146

CYQR;2010-09-04 13:00;CYQR 041300Z 13013KT 15SM FEW270 10/06 A2992 RMK CI1 SLP141

CYQR;2010-09-04 14:00;CYQR 041400Z 14014KT 15SM FEW110 FEW270 11/08 A2991 RMK AC1CI0 SLP136

CYQR;2010-09-04 15:00;CYQR 041500Z 15016G21KT 15SM FEW110 BKN270 14/09 A2987 RMK AC1CI1 SLP125

CYQR;2010-09-04 16:00;CYQR 041600Z 15015KT 15SM FEW110 BKN270 17/10 A2987 RMK AC1CI4 SLP124

CYQR;2010-09-04 17:00;CYQR 041700Z 14014G19KT 15SM FEW034 FEW110 BKN300 19/11 A2985 RMK CF1AC1CI5 SLP118

CYQR;2010-09-04 18:00;CYQR 041800Z 15016G21KT 15SM FEW090 FEW160 BKN300 21/11 A2984 RMK AC1AC1CI5 SLP110

CYQR;2010-09-04 19:00;CYQR 041900Z 16018G24KT 15SM FEW100 SCT160 BKN300 23/11 A2981 RMK AC2AC1CI3 SLP101

CYQR;2010-09-04 20:00;CYQR 042000Z 16018KT 15SM FEW068 FEW100 FEW160 BKN300 23/11 A2978 RMK AC1AC1ACC1CI5 SLP092

CYQR;2010-09-04 21:00;CYQR 042100Z 16016G22KT 15SM BKN057 BKN100 BKN160 BKN300 23/09 A2976 RMK SC4AC2AC1CI1 SLP084

CYQR;2010-09-04 22:00;CYQR 042200Z 16013G18KT 15SM SCT068 SCT092 BKN160 BKN300 24/09 A2975 RMK AC3ACC1AC1CI2 VIRGA SLP078

CYQR;2010-09-04 23:00;CYQR 042300Z 17013G19KT 15SM FEW070 FEW100 FEW160 BKN300 24/09 A2973 RMK AC2ACC1AC1CI1 VIRGA SLP073

CYQR;2010-09-05 00:00;CYQR 050000Z 16009KT 15SM FEW070 FEW100 BKN300 22/10 A2972 RMK AC1ACC1CI2 VIRGA SLP069

CYQR;2010-09-05 01:00;CYQR 050100Z 14015G20KT 15SM FEW100 BKN300 21/10 A2969 RMK ACC1CI2 SLP061

CYQR;2010-09-05 02:00;CYQR 050200Z 14015G21KT 15SM FEW040 BKN100 BKN140 BKN300 19/09 A2968 RMK CU1AC2ACC1CI0 SLP058

CYQR;2010-09-05 03:00;CYQR 050300Z 14015KT 15SM FEW040 FEW100 BKN300 17/09 A2969 RMK SC1AC2CI1 SLP061

CYQR;2010-09-05 04:00;CYQR 050400Z 14015KT 15SM FEW100 BKN300 17/10 A2968 RMK AC2CI2 SLP056

CYQR;2010-09-05 05:00;CYQR 050500Z 14018G25KT 15SM FEW100 BKN300 16/10 A2967 RMK AC1CI2 SLP053

CYQR;2010-09-05 06:00;CYQR 050600Z 14014G19KT 15SM FEW100 BKN300 16/10 A2967 RMK AC2CI2 SLP049

CYQR;2010-09-05 07:00;CYQR 050700Z 14016G21KT 15SM SCT100 BKN300 16/10 A2965 RMK AC3CI2 SLP043

CYQR;2010-09-05 08:00;CYQR 050800Z 16014KT 15SM -SHRA BKN027 OVC100 15/11 A2965 RMK SC5ACC3 SLP042

CYQR;2010-09-05 08:52;CYQR 050852Z 16016G21KT 10SM -TSRA SCT035CB OVC100 14/ RMK CB4AC4 LTGCG

CYQR;2010-09-05 09:00;CYQR 050900Z 14012G18KT 10SM -TSRA SCT035CB OVC100 14/12 A2965 RMK CB4AC4 SLP042

CYQR;2010-09-05 09:26;CYQR 050926Z 14014KT 10SM SHRA OVC032 13/ RETS RMK SC8 CVCTV CLD EMBD

CYQR;2010-09-05 09:53;CYQR 050953Z 13010KT 15SM -SHRA OVC032 13/ RMK SC8 CVCTV CLD EMBDD RETS

CYQR;2010-09-05 10:00;CYQR 051000Z 11009KT 15SM -SHRA OVC032 13/12 A2963 RETS RMK SC8 CVCTV CLD EMBD SLP035

CYQR;2010-09-05 11:00;CYQR 051100Z CCA 11009KT 15SM -SHRA OVC032 13/12 A2963 RETSRA RMK SC8 CVCTV CLD EMBD SLP035

CYQR;2010-09-05 11:15;CYQR 051115Z 12007KT 15SM BKN042 13/ RMK SC5

CYQR;2010-09-05 12:00;CYQR 051200Z 12011KT 15SM SCT046 BKN076 BKN300 13/12 A2961 RMK SC3AC2CI0 SLP029

CYQR;2010-09-05 13:00;CYQR 051300Z 12010KT 15SM FEW080 BKN300 12/11 A2961 RMK AC2CI2 SLP032

CYQR;2010-09-05 14:00;CYQR 051400Z 12007KT 15SM FEW080 BKN320 13/11 A2963 RMK ACC1CI1 SLP036

CYQR;2010-09-05 15:00;CYQR 051500Z 13006KT 15SM FEW035 SCT130 BKN320 14/12 A2965 RMK CU1AC0CI2 SLP045

CYQR;2010-09-05 16:00;CYQR 051600Z 11013KT 15SM FEW010 FEW040 BKN300 16/13 A2963 RMK SF0CU1CI2 SLP040

CYQR;2010-09-05 17:00;CYQR 051700Z 12012KT 15SM FEW015 FEW040 FEW080 BKN300 17/14 A2962 RMK SC1SC1AC1CI2 SLP038

CYQR;2010-09-05 18:00;CYQR 051800Z 14007KT 15SM FEW015 FEW070 OVC300 18/14 A2962 RMK SC1AC1CI5 SLP035

CYQR;2010-09-05 19:00;CYQR 051900Z 14005KT 15SM SCT022 BKN061 OVC300 18/14 A2962 RMK SC3SC2CI2 SLP034

CYQR;2010-09-05 20:00;CYQR 052000Z 07003KT 15SM BKN026 OVC300 20/15 A2962 RMK CU5CI2 SLP034

CYQR;2010-09-05 21:00;CYQR 052100Z 34003KT 15SM BKN030 OVC300 20/15 A2961 RMK SC7CI1 SLP033

CYQR;2010-09-05 22:00;CYQR 052200Z 08006KT 15SM BKN026 OVC045 19/15 A2962 RMK CU6SC2 SLP034

CYQR;2010-09-05 23:00;CYQR 052300Z 07006KT 15SM SCT051 BKN150 OVC300 19/15 A2961 RMK SC4AS2CS2 TCU EMBD SLP033

CYQR;2010-09-06 00:00;CYQR 060000Z 01002KT 15SM OVC024 19/15 A2961 RMK CU8 SH DIST SE-S SLP034

CYQR;2010-09-06 00:16;CYQR 060016Z 33006KT 15SM -TSRA SCT010CB OVC022 18/ RMK CB3SC5 VIS E-SE 1/2SM

CYQR;2010-09-06 00:28;CYQR 060028Z 13015G20KT 8SM +TSRA BKN011CB OVC025 14/ RMK CB5SC3 VIS SE 1/2 SM

CYQR;2010-09-06 00:32;CYQR 060032Z 12014G20KT 1SM R13/P6000FT/N +TSRA BR BKN009CB OVC025 14/ RMK FG1CB6SC2

CYQR;2010-09-06 00:47;CYQR 060047Z 09007KT 3SM TSRA BR BKN009CB OVC025 16/ RERA RMK CB6SC2

CYQR;2010-09-06 01:00;CYQR 060100Z 07003KT 4SM -TSRA BR BKN009CB BKN025 OVC054 15/15 A2964 RERA RMK CB5SC2SC1 VIS N-NE 1SM SLP041

CYQR;2010-09-06 01:21;CYQR 060121Z 29007KT 6SM -TSRA BR BKN017CB OVC065 15/ RERA RMK CB5SC3

CYQR;2010-09-06 01:23;CYQR 060123Z CCA 29007KT 6SM -TSRA BR BKN017CB OVC065 15/ RMK CB5SC3

CYQR;2010-09-06 02:00;CYQR 060200Z 34006KT 6SM -TSRA BR BKN014CB 15/14 A2965 RMK CB7 VIS N-NE 2SM /R20/ SLP045

CYQR;2010-09-06 02:21;CYQR 060221Z 02011G18KT 6SM TSRA BR OVC014CB 14/ RMK CB8

CYQR;2010-09-06 03:00;CYQR 060300Z 01013KT 3SM TSRA BR OVC015CB 13/13 A2967 RMK CB8 /R40/ SLP057

CYQR;2010-09-06 03:29;CYQR 060329Z 09012KT 10SM -TSRA BKN004 OVC020CB 14/ RERA RMK SF5CB3

CYQR;2010-09-06 03:44;CYQR 060344Z 08009KT 15SM -SHRA OVC006 14/ RETSRA RMK SF8

CYQR;2010-09-06 04:00;CYQR 060400Z 10009KT 15SM -SHRA BKN010 OVC019 14/13 A2967 RETSRA RMK SF3SC5 SLP056

CYQR;2010-09-06 05:00;CYQR 060500Z 11013KT 15SM -SHRA BKN009 BKN038 OVC071 13/13 A2966 RMK SF2SC4AC2 CVCTV CLD ASOCTD SLP054

CYQR;2010-09-06 06:00;CYQR 060600Z 12013KT 15SM -SHRA BKN008 OVC040 13/12 A2967 RMK SF4SC4 CVCTV CLD ASOCTD /R49/ SLP054

CYQR;2010-09-06 06:20;CYQR 060620Z 12013G19KT 15SM -RA OVC010 13/ RMK SF8

CYQR;2010-09-06 06:47;CYQR 060647Z 14012KT 6SM SHRA BR OVC009 13/ RMK SF8 CVCTV CLD EMBD

CYQR;2010-09-06 07:00;CYQR 060700Z 13011KT 6SM SHRA BR OVC009 13/12 A2966 RMK SF8 CVCTV CLD EMBD SLP052

CYQR;2010-09-06 07:31;CYQR 060731Z 13016KT 3SM +SHRA BR BKN009 OVC018 12/ RMK SF6SC2 CVCTV CLD EMBD

CYQR;2010-09-06 07:52;CYQR 060752Z 13012G18KT 6SM SHRA BR BKN006 OVC018 12/ RERA RMK SF6SC2 CVCTV CLD ASOCTD

CYQR;2010-09-06 08:00;CYQR 060800Z 13011G18KT 6SM SHRA BR BKN006 OVC018 12/12 A2965 RERA RMK SF5SC3 SLP046

CYQR;2010-09-06 08:08;CYQR 060808Z 13012KT 6SM -SHRA BR BKN006 OVC027 12/ RERA RMK SF5SC3 CVCTV CLD ASOCTD

CYQR;2010-09-06 09:00;CYQR 060900Z 13011G16KT 15SM -SHRA BKN007 OVC030 12/11 A2964 RERA RMK SF5SC3 CVCTV CLD ASOCTD SLP041

CYQR;2010-09-06 09:38;CYQR 060938Z 13015G20KT 6SM -SHRA BR BKN010 OVC030 12/ RMK SF6SC2 CVCTV CLD ASOCTD

CYQR;2010-09-06 10:00;CYQR 061000Z 13013G18KT 6SM -SHRA BR OVC008 12/11 A2964 RMK SF8 CVCTV CLD EMBD SLP042

CYQR;2010-09-06 10:19;CYQR 061019Z CCA 12014G21KT 6SM -SHRA BR OVC012 12/ RMK ST8

CYQR;2010-09-06 11:00;CYQR 061100Z 13015KT 10SM -SHRA OVC010 12/11 A2964 RMK ST8 CVCTV CLD EMBDD SLP041

CYQR;2010-09-06 11:41;CYQR 061141Z 13010G16KT 10SM -SHRA OVC006 11/ RMK SF8 CVCTV CLD EMBD

CYQR;2010-09-06 12:00;CYQR 061200Z 13014KT 6SM -SHRA BR BKN004 OVC030 11/11 A2964 RMK SF6SC2 CVCTV CLD ASOCTD SLP045

CYQR;2010-09-06 12:13;CYQR 061213Z 12016KT 2SM -SHRA BR OVC004 11/ RMK FG2SF6 CVCTV CLD EMBD

CYQR;2010-09-06 12:34;CYQR 061234Z 13011KT 1SM R13/P6000FT/U -SHRA BR OVC003 11/ RMK FG3SF5 CVCTV CLD EMBD

CYQR;2010-09-06 13:00;CYQR 061300Z 13012KT 1 3/4SM -DZ BR OVC003 11/11 A2965 RMK ST8 SLP048

CYQR;2010-09-06 13:16;CYQR 061316Z 14012G17KT 3SM BR OVC003 12/ RMK ST8 VIS E 2

CYQR;2010-09-06 14:00;CYQR 061400Z 14011KT 2 1/2SM -DZ BR OVC003 12/12 A2966 RMK ST8 SLP049

CYQR;2010-09-06 14:12;CYQR 061412Z 14010KT 3SM BR OVC003 12/ RMK ST8

CYQR;2010-09-06 14:52;CYQR 061452Z 19008KT 5SM -RA BR OVC003 13/ RMK SF8

CYQR;2010-09-06 15:00;CYQR 061500Z 22007KT 8SM OVC004 13/12 A2966 RMK SF8 INTMT -RA SLP051

CYQR;2010-09-06 15:33;CYQR 061533Z 23009KT 10SM OVC005 13/ RMK SF8 INTMT -RA

CYQR;2010-09-06 16:00;CYQR 061600Z 26010KT 6SM -DZ BR OVC004 12/12 A2970 RMK SF8 SLP064

CYQR;2010-09-06 16:20;CYQR 061620Z 26011KT 12SM OVC006 12/ RMK SF8

CYQR;2010-09-06 17:00;CYQR 061700Z 25010KT 15SM OVC009 12/11 A2971 RMK SC8 SLP070

CYQR;2010-09-06 17:40;CYQR 061740Z 24008KT 12SM BKN010 OVC035 13/ RMK SC6SC2

CYQR;2010-09-06 18:00;CYQR 061800Z 24007KT 12SM BKN013 OVC042 13/11 A2974 RMK SC6SC2 SLP081

CYQR;2010-09-06 19:00;CYQR 061900Z 23005KT 15SM BKN013 OVC034 14/12 A2975 RMK SC6SC2 SLP084

CYQR;2010-09-06 20:00;CYQR 062000Z 28009KT 15SM BKN016 OVC051 14/12 A2978 RMK SC7SC1 SLP092

CYQR;2010-09-06 21:00;CYQR 062100Z 28009KT 15SM BKN019 OVC031 13/10 A2980 RMK SC6SC2 SLP100

CYQR;2010-09-06 21:17;CYQR 062117Z 29010KT 10SM -DZ BKN017 OVC034 12/ RMK SC6SC2

CYQR;2010-09-06 22:00;CYQR 062200Z 28010KT 15SM -DZ BKN022 OVC035 13/10 A2981 RMK SC6SC2 SLP103

CYQR;2010-09-06 22:30;CYQR 062230Z 27011KT 15SM SCT016 BKN028 OVC045 12/ RMK SC3SC4SC1

CYQR;2010-09-06 23:00;CYQR 062300Z 27009KT 15SM FEW015 BKN047 OVC070 12/10 A2983 RMK SC2SC5AC1 SLP111

CYQR;2010-09-07 00:00;CYQR 070000Z 31005KT 15SM BKN017 BKN047 OVC230 12/10 A2984 RMK SC6SC2CI1 SLP117

CYQR;2010-09-07 01:00;CYQR 070100Z 28003KT 15SM BKN019 BKN045 12/10 A2986 RMK SC6SC2 SLP124

CYQR;2010-09-07 02:00;CYQR 070200Z 22003KT 15SM BKN021 BKN044 12/10 A2989 RMK SC5SC1 SLP131

CYQR;2010-09-07 03:00;CYQR 070300Z 17002KT 15SM BKN023 OVC048 12/10 A2991 RMK SC6SC2 SLP139

CYQR;2010-09-07 03:50;CYQR 070350Z 13009KT 15SM SCT005 OVC015 11/ RMK SF4SC4

CYQR;2010-09-07 04:00;CYQR 070400Z 14009KT 15SM BKN005 BKN015 OVC031 10/10 A2993 RMK SF5SC2SC2 SLP146

CYQR;2010-09-07 04:33;CYQR 070433Z 15009KT 15SM SCT004 BKN017 OVC037 10/ RMK SF4SC2SC2

CYQR;2010-09-07 05:00;CYQR 070500Z 15008KT 15SM BKN004 BKN014 OVC038 10/09 A2994 RMK SF3SC2SC2 SLP150

CYQR;2010-09-07 05:05;CYQR 070505Z 15009KT 15SM -SHRA BKN005 OVC017 10/ RMK SF5SC3

CYQR;2010-09-07 05:46;CYQR 070546Z 16010KT 15SM BKN005 OVC026 10/ RMK SF5SC3

CYQR;2010-09-07 06:00;CYQR 070600Z 15010KT 15SM BKN004 OVC024 10/09 A2994 RMK SF5SC3 SLP152

CYQR;2010-09-07 06:52;CYQR 070652Z 15007KT 6SM -DZ BR OVC004 10/ RMK ST8

CYQR;2010-09-07 07:00;CYQR 070700Z 15008KT 6SM -DZ BR OVC004 10/09 A2995 RMK ST8 SLP154

CYQR;2010-09-07 07:12;CYQR 070712Z 16006KT 6SM -RADZ BR OVC004 10/ RMK SF8

CYQR;2010-09-07 07:29;CYQR 070729Z 16007KT 6SM -DZ BR OVC004 10/ RMK ST8

CYQR;2010-09-07 08:00;CYQR 070800Z 18005KT 6SM -DZ BR OVC003 10/09 A2996 RMK ST8 SLP156

CYQR;2010-09-07 08:13;CYQR 070813Z 18007KT 15SM BKN003 OVC031 10/ RMK ST6SC2

CYQR;2010-09-07 09:00;CYQR 070900Z 18006KT 15SM BKN003 OVC028 10/10 A2996 RMK ST6SC2 SLP159

CYQR;2010-09-07 10:00;CYQR 071000Z CCA 18004KT 15SM BKN003 BKN030 10/09 A2997 RMK SF6SC1 SLP162

CYQR;2010-09-07 10:13;CYQR 071013Z 17004KT 15SM SCT004 BKN030 BKN120 10/ RMK ST4SC1AC1

CYQR;2010-09-07 11:00;CYQR 071100Z 23005KT 15SM FEW004 FEW030 SCT120 BKN260 09/08 A2999 RMK ST2SC1AC1CI1 SLP168

CYQR;2010-09-07 12:00;CYQR 071200Z CCA 21003KT 15SM FEW004 FEW030 BKN120 BKN260 08/07 A3000 RMK ST0SC1AS5CI1 SLP174

CYQR;2010-09-07 13:00;CYQR 071300Z 20002KT 15SM FEW030 SCT120 BKN260 08/07 A3001 RMK SC1AS3CI2 SLP177

CYQR;2010-09-07 14:00;CYQR 071400Z 20002KT 15SM FEW015 BKN095 BKN260 08/08 A3003 RMK SC1AC5CI1 SLP183

CYQR;2010-09-07 15:00;CYQR 071500Z 24004KT 15SM FEW010 BKN240 09/08 A3005 RMK SC1CI4 SLP189

CYQR;2010-09-07 16:00;CYQR 071600Z 26003KT 15SM FEW015 SCT240 12/08 A3005 RMK CF1CI2 SLP190

CYQR;2010-09-07 17:00;CYQR 071700Z 32003KT 15SM FEW020 FEW240 14/09 A3005 RMK CF1CI1 SLP192

CYQR;2010-09-07 18:00;CYQR 071800Z 28005KT 15SM FEW024 FEW250 15/09 A3005 RMK CF1CI1 SLP187

CYQR;2010-09-07 19:00;CYQR 071900Z 31006KT 15SM FEW030 FEW240 16/09 A3005 RMK CU2CI1 SLP187

CYQR;2010-09-07 20:00;CYQR 072000Z 32005KT 15SM FEW045 SCT250 17/09 A3004 RMK CU2CI1 SLP185

CYQR;2010-09-07 21:00;CYQR 072100Z 27002KT 15SM SCT052 BKN250 17/09 A3003 RMK CU3CI0 SLP180

CYQR;2010-09-07 22:00;CYQR 072200Z 03003KT 15SM SCT040 SCT250 18/08 A3003 RMK CU3CI1 SLP179

CYQR;2010-09-07 23:00;CYQR 072300Z 06003KT 15SM FEW045 FEW250 18/07 A3003 RMK CU1CI0 SLP178

CYQR;2010-09-08 00:00;CYQR 080000Z 02005KT 15SM FEW050 SCT260 18/09 A3003 RMK CU1CI0 SLP179

CYQR;2010-09-08 01:00;CYQR 080100Z 05003KT 15SM FEW050 SCT260 15/08 A3003 RMK SC1CI0 SLP180

CYQR;2010-09-08 02:00;CYQR 080200Z 11006KT 15SM FEW079 SCT260 12/08 A3004 RMK AC2CI1 SLP183

CYQR;2010-09-08 03:00;CYQR 080300Z 10007KT 15SM FEW080 SCT260 11/08 A3005 RMK AC2CI1 SLP191

CYQR;2010-09-08 04:00;CYQR 080400Z 12009KT 15SM FEW088 SCT260 12/08 A3006 RMK AC2CI1 SLP195

CYQR;2010-09-08 05:00;CYQR 080500Z 13008KT 15SM FEW086 SCT260 11/08 A3006 RMK AC2CI1 SLP194

CYQR;2010-09-08 06:00;CYQR 080600Z 13009KT 15SM FEW084 SCT260 10/08 A3006 RMK AC2CI1 SLP193

CYQR;2010-09-08 07:00;CYQR 080700Z 14011KT 15SM FEW084 SCT260 10/07 A3006 RMK AC2CI1 SLP191

CYQR;2010-09-08 08:00;CYQR 080800Z 15010KT 15SM FEW085 SCT260 09/07 A3005 RMK AC2CI1 SLP188

CYQR;2010-09-08 09:00;CYQR 080900Z 15008KT 15SM FEW090 09/07 A3005 RMK AC2 SLP185

CYQR;2010-09-08 10:00;CYQR 081000Z 13008KT 15SM SKC 08/06 A3004 RMK SLP184

CYQR;2010-09-08 11:00;CYQR 081100Z 13008KT 15SM SKC 08/06 A3004 RMK SLP183

CYQR;2010-09-08 12:00;CYQR 081200Z 12009KT 15SM SCT260 08/06 A3004 RMK CI1 SLP184

CYQR;2010-09-08 13:00;CYQR 081300Z 12009KT 15SM FEW180 BKN260 09/07 A3005 RMK AC1CI2 SLP186

CYQR;2010-09-08 14:00;CYQR 081400Z 13012KT 15SM OVC260 10/08 A3004 RMK CI2 SLP185

CYQR;2010-09-08 15:00;CYQR 081500Z 14013KT 15SM OVC260 12/08 A3004 RMK CI2 SLP185

CYQR;2010-09-08 16:00;CYQR 081600Z 14016KT 15SM FEW220 BKN260 15/10 A3005 RMK CI1CI1 SLP188

CYQR;2010-09-08 17:00;CYQR 081700Z 14014G19KT 15SM FEW200 OVC260 17/09 A3003 RMK CI1CI2 SLP183

CYQR;2010-09-08 18:00;CYQR 081800Z 12017G22KT 15SM FEW150 OVC260 17/08 A3001 RMK AC2CI2 SLP173

CYQR;2010-09-08 19:00;CYQR 081900Z 11019KT 15SM SCT150 OVC260 18/07 A3000 RMK AC2CI5 CS ASOCTD SLP170

CYQR;2010-09-08 20:00;CYQR 082000Z 12015KT 15SM BKN150 OVC260 17/07 A3001 RMK AC6CI1 SLP173

CYQR;2010-09-08 21:00;CYQR 082100Z 13015KT 15SM BKN150 BKN260 17/07 A2998 RMK AC6CI1 SLP165

CYQR;2010-09-08 22:00;CYQR 082200Z 11010G17KT 15SM BKN062 BKN260 16/08 A2995 RMK SC6CI2 SLP154

CYQR;2010-09-08 23:00;CYQR 082300Z 11015KT 15SM SCT058 BKN150 BKN260 16/09 A2996 RMK SC3AC3CI1 SLP157

CYQR;2010-09-09 00:00;CYQR 090000Z 10012G18KT 15SM FEW060 SCT150 OVC240 16/09 A2996 RMK SC1AC1CI2 SLP158

CYQR;2010-09-09 01:00;CYQR 090100Z 10014G20KT 15SM FEW073 SCT150 OVC240 15/08 A2993 RMK AC2AC2CI1 SLP149

CYQR;2010-09-09 02:00;CYQR 090200Z 10020KT 15SM FEW075 SCT150 OVC240 14/08 A2990 RMK AC2AC2CI0 SLP139

CYQR;2010-09-09 03:00;CYQR 090300Z 11017G22KT 15SM SCT150 OVC240 14/09 A2990 RMK AC3CI2 SLP135

CYQR;2010-09-09 04:00;CYQR 090400Z 11015G24KT 15SM FEW050 SCT069 OVC250 14/08 A2992 RMK SC2AC2CI4 SLP142

CYQR;2010-09-09 05:00;CYQR 090500Z 11015G22KT 15SM BKN055 OVC070 14/08 A2992 RMK SC6AC2 SLP142

CYQR;2010-09-09 06:00;CYQR 090600Z 11016G22KT 15SM OVC055 14/08 A2990 RMK SC8 SLP133

CYQR;2010-09-09 07:00;CYQR 090700Z 11014G21KT 15SM OVC065 13/08 A2990 RMK SC8 SLP131

CYQR;2010-09-09 08:00;CYQR 090800Z 12014KT 15SM BKN050 OVC065 13/08 A2988 RMK SC5SC3 SLP127

CYQR;2010-09-09 09:00;CYQR 090900Z 12014KT 15SM OVC045 12/08 A2986 RMK SC8 SLP121

CYQR;2010-09-09 10:00;CYQR 091000Z 12018KT 15SM OVC041 12/08 A2985 RMK SC8 SLP116

CYQR;2010-09-09 11:00;CYQR 091100Z 12014G22KT 15SM OVC019 11/08 A2983 RMK SC8 SLP110

CYQR;2010-09-09 12:00;CYQR 091200Z 11016G24KT 10SM OVC011 11/09 A2981 RMK SC8 SLP106

CYQR;2010-09-09 12:08;CYQR 091208Z 11018G25KT 4SM -RA OVC008 10/ RMK SC8

CYQR;2010-09-09 12:48;CYQR 091248Z 11013G20KT 2SM -DZ OVC006 10/ RMK SC8

CYQR;2010-09-09 13:00;CYQR 091300Z 11016KT 4SM -DZ BR OVC008 10/09 A2980 RMK SC8 SLP100

CYQR;2010-09-09 13:29;CYQR 091329Z 11013G20KT 3SM -RA BR OVC009 10/ RMK SF8

CYQR;2010-09-09 14:00;CYQR 091400Z 11015KT 3SM -RA BR OVC007 10/09 A2978 RMK SF8 PCPN VRY LGT SLP096

CYQR;2010-09-09 14:32;CYQR 091432Z 12014G19KT 2 1/2SM -DZ BR OVC005 10/ RMK SF8

CYQR;2010-09-09 15:00;CYQR 091500Z 12011G20KT 2SM -DZ BR OVC005 10/09 A2976 RMK SF8 SLP091

CYQR;2010-09-09 15:45;CYQR 091545Z 12016KT 2 1/2SM -DZ BR OVC004 10/ RMK SF8

CYQR;2010-09-09 16:00;CYQR 091600Z 12014G27KT 2 1/2SM -DZ BR OVC005 10/09 A2975 RMK SF8 SLP085

CYQR;2010-09-09 17:00;CYQR 091700Z 13014G19KT 3SM -DZ BR OVC005 11/10 A2973 RMK SF8 SLP081

CYQR;2010-09-09 18:00;CYQR 091800Z 14012G18KT 10SM -DZ OVC006 11/11 A2971 RMK SF8 SLP071

CYQR;2010-09-09 19:00;CYQR 091900Z 15012G18KT 2 1/2SM -DZ BR OVC005 12/11 A2970 RMK SF8 -DZ INTMT SLP068

CYQR;2010-09-09 19:28;CYQR 091928Z 14013KT 1 1/2SM -DZ BR OVC005 12/ RMK SF8

CYQR;2010-09-09 20:00;CYQR 092000Z 14010G15KT 1 1/2SM -DZ BR OVC004 12/12 A2967 RMK SF8 SLP057

CYQR;2010-09-09 20:42;CYQR 092042Z 14010KT 2SM -RA BR OVC004 12/ RMK SF8

CYQR;2010-09-09 21:00;CYQR 092100Z 11010G15KT 1SM R13/P6000FT/D -RA BR OVC005 13/13 A2966 RMK SF8 SLP052

CYQR;2010-09-09 21:40;CYQR 092140Z 14010KT 1SM R13/P6000FT/U -RA BR BKN003 OVC017 13/ RMK SF7SC1

CYQR;2010-09-09 22:00;CYQR 092200Z 14014G19KT 1SM R13/P6000FT/U -RA BR OVC003 13/13 A2965 RMK SF8 SLP051

CYQR;2010-09-09 22:16;CYQR 092216Z 13014KT 2SM -RA BR OVC006 13/ RMK SF8

CYQR;2010-09-09 23:00;CYQR 092300Z 12009KT 2SM BR OVC005 13/12 A2964 RMK SF8 SLP046

CYQR;2010-09-09 23:18;CYQR 092318Z CCA 12008KT 2SM -RA BR OVC004 13/ RMK SC8 CIG RAG

CYQR;2010-09-10 00:00;CYQR 100000Z 12014KT 2SM -RA BR OVC004 13/13 A2960 RMK SC8 CIG RAG SLP033

CYQR;2010-09-10 00:07;CYQR 100007Z 11009G18KT 2 1/2SM -TSRA BR OVC004 13/ RMK SC8 CB EMBD

CYQR;2010-09-10 00:31;CYQR 100031Z 12008KT 2SM -RA BR OVC004 13/ RETS RMK SC8

CYQR;2010-09-10 01:00;CYQR 100100Z 09007KT 3SM -RA BR OVC004 13/13 A2960 RETS RMK SC8 SLP034

CYQR;2010-09-10 02:00;CYQR 100200Z 08011KT 3SM -RA OVC004 13/13 A2958 RMK SC8 SLP027

CYQR;2010-09-10 03:00;CYQR 100300Z 10011KT 2SM -RA OVC003 13/13 A2956 RMK SC8 SLP019

CYQR;2010-09-10 04:00;CYQR 100400Z 10014KT 2SM -RA BR OVC004 13/13 A2954 RMK SC8 SLP013

CYQR;2010-09-10 05:00;CYQR 100500Z 11010G15KT 2SM -RA BR OVC004 13/13 A2951 RMK SC8 SLP006

CYQR;2010-09-10 06:00;CYQR 100600Z 12012G17KT 8SM -RA OVC004 14/14 A2948 RMK SC8 SLP993

CYQR;2010-09-10 06:27;CYQR 100627Z 13011KT 10SM OVC005 14/ RMK SC8

CYQR;2010-09-10 07:00;CYQR 100700Z 14007KT 10SM OVC005 14/14 A2947 RMK SC8 SLP988

CYQR;2010-09-10 07:49;CYQR 100749Z 16007KT 1SM R13/P6000FT/U RA OVC004 14/ RMK SC8

CYQR;2010-09-10 08:00;CYQR 100800Z 16008KT 2SM RA BR OVC004 14/14 A2944 RMK SC8 SLP978

CYQR;2010-09-10 09:00;CYQR 100900Z 15005KT 3SM -RA OVC005 14/14 A2942 RMK SC8 SLP972

CYQR;2010-09-10 10:00;CYQR 101000Z 21009KT 10SM -RA OVC003 14/14 A2942 RMK SC8 SLP972

CYQR;2010-09-10 10:35;CYQR 101035Z 21011KT 10SM OVC003 13/ RMK SC8

CYQR;2010-09-10 11:00;CYQR 101100Z 21010KT 4SM BR OVC002 13/13 A2942 RMK SC8 SLP970

CYQR;2010-09-10 12:00;CYQR 101200Z 22011KT 4SM -DZ BR OVC003 13/13 A2941 RMK ST8 SLP968

CYQR;2010-09-10 13:00;CYQR 101300Z 23008KT 8SM -DZ OVC004 12/12 A2941 RMK ST8 SLP966

CYQR;2010-09-10 13:32;CYQR 101332Z 25010KT 2SM -DZ OVC004 12/ RMK ST8

CYQR;2010-09-10 13:41;CYQR 101341Z 24009KT 2SM -DZ OVC003 12/ RMK ST8

CYQR;2010-09-10 13:50;CYQR 101350Z 25011KT 2SM -RA BR OVC003 12/ RMK ST8

CYQR;2010-09-10 14:00;CYQR 101400Z 25011KT 2SM -RA BR OVC003 12/11 A2940 RMK ST8 SLP965

CYQR;2010-09-10 14:16;CYQR 101416Z 26013KT 3SM -RA BR OVC004 11/ RMK SF8

CYQR;2010-09-10 14:35;CYQR 101435Z 27015KT 4SM -RA BR OVC005 11/ RMK SF8

CYQR;2010-09-10 15:00;CYQR 101500Z 27016KT 5SM -RA BR OVC005 11/10 A2941 RMK SF8 SLP970

CYQR;2010-09-10 15:36;CYQR 101536Z 27017G25KT 6SM -RA BR OVC007 10/ RMK SF8

CYQR;2010-09-10 16:00;CYQR 101600Z 28019G25KT 2SM -RA BR OVC006 11/10 A2944 RMK SF8 SLP978

CYQR;2010-09-10 17:00;CYQR 101700Z 29022G29KT 7SM -RA OVC007 10/10 A2946 RMK SF8 SLP985

CYQR;2010-09-10 17:42;CYQR 101742Z 29020G27KT 10SM -RA OVC010 10/ RMK SC8

CYQR;2010-09-10 18:00;CYQR 101800Z 30021G30KT 10SM -RA OVC009 10/10 A2949 RMK SC8 SLP996

CYQR;2010-09-10 18:45;CYQR 101845Z 30023G31KT 12SM SCT009 OVC013 11/ RMK SF3SC5

CYQR;2010-09-10 19:00;CYQR 101900Z CCA 30025G31KT 15SM -RA FEW009 OVC013 11/09 A2952 RMK SF2SC6 SLP006

CYQR;2010-09-10 19:33;CYQR 101933Z 30024G34KT 15SM OVC015 11/ RMK SC8

CYQR;2010-09-10 20:00;CYQR 102000Z 30020G29KT 15SM OVC015 11/09 A2956 RMK SC8 SLP017

CYQR;2010-09-10 20:52;CYQR 102052Z 29026G31KT 15SM -RA OVC018 11/ RMK SC8

CYQR;2010-09-10 21:00;CYQR 102100Z 30023G31KT 15SM -RA BKN018 OVC049 11/09 A2958 RMK SC7SC1 SLP026

CYQR;2010-09-10 21:49;CYQR 102149Z 30022KT 15SM -SHRA BKN014 OVC049 11/ RMK SC5SC3

CYQR;2010-09-10 22:00;CYQR 102200Z 30019G24KT 15SM -SHRA SCT014 BKN049 BKN097 11/10 A2960 RMK SC4SC2AC2 SLP032

CYQR;2010-09-10 23:00;CYQR 102300Z 30021G28KT 15SM -SHRA BKN019 BKN047 11/09 A2962 RMK SC6SC2 SLP039

CYQR;2010-09-10 23:19;CYQR 102319Z 30023G28KT 15SM BKN014 BKN047 11/ RMK SC5SC2

CYQR;2010-09-10 23:30;CYQR 102330Z 30023KT 15SM -SHRA SCT014 BKN023 11/ RMK SC4SC3

CYQR;2010-09-11 00:00;CYQR 110000Z 30018G27KT 15SM VCSH FEW014 SCT022 BKN036 11/09 A2965 RMK SC1SC2SC4 SLP051

CYQR;2010-09-11 01:00;CYQR 110100Z 31020G26KT 15SM FEW014 SCT027 BKN061 11/08 A2966 RMK SC2SC2SC2 SLP056

CYQR;2010-09-11 02:00;CYQR 110200Z 30018G26KT 15SM BKN029 OVC054 10/08 A2969 RMK SC6SC1 SLP063

CYQR;2010-09-11 02:42;CYQR 110242Z 31014KT 10SM -RA OVC012 10/ RMK SC8

CYQR;2010-09-11 03:00;CYQR 110300Z 31016G22KT 8SM -RA OVC012 10/09 A2971 RMK SC8 SLP074

CYQR;2010-09-11 04:00;CYQR 110400Z 30014KT 10SM -RA BKN012 OVC028 10/08 A2973 RMK SC5SC3 SLP079

CYQR;2010-09-11 05:00;CYQR 110500Z 30017KT 10SM SCT012 OVC024 10/08 A2974 RMK SC3SC5 SLP082

CYQR;2010-09-11 05:18;CYQR 110518Z 30014G19KT 10SM OVC024 10/ RMK SC8

CYQR;2010-09-11 06:00;CYQR 110600Z 29012G17KT 10SM SCT029 OVC048 10/08 A2974 RMK SC3SC5 SLP083

CYQR;2010-09-11 07:00;CYQR 110700Z 30015KT 10SM OVC044 10/08 A2974 RMK SC8 SLP084

CYQR;2010-09-11 08:00;CYQR 110800Z 29014KT 10SM OVC044 09/07 A2975 RMK SC8 SLP086

CYQR;2010-09-11 09:00;CYQR 110900Z 29012G17KT 10SM BKN044 OVC054 08/06 A2976 RMK SC5SC3 SLP090

CYQR;2010-09-11 10:00;CYQR 111000Z 29011KT 15SM SCT060 07/06 A2976 RMK SC4 SLP092

CYQR;2010-09-11 11:00;CYQR 111100Z 27008KT 15SM FEW060 07/06 A2977 RMK SC2 SLP096

CYQR;2010-09-11 12:00;CYQR 111200Z 28011KT 15SM BKN060 09/07 A2978 RMK SC6 SLP098

CYQR;2010-09-11 13:00;CYQR 111300Z 28014KT 15SM FEW038 BKN060 09/07 A2978 RMK SC2SC4 SLP100

CYQR;2010-09-11 14:00;CYQR 111400Z 27011KT 15SM FEW034 BKN057 09/07 A2979 RMK SC2SC2 SLP102

CYQR;2010-09-11 15:00;CYQR 111500Z 29015KT 15SM FEW055 11/09 A2979 RMK SC1 SLP100

CYQR;2010-09-11 16:00;CYQR 111600Z 28016G24KT 15SM FEW022 FEW250 13/10 A2979 RMK CU1CI1 SLP101

CYQR;2010-09-11 17:00;CYQR 111700Z 30019G26KT 15SM SCT024 14/10 A2979 RMK CU3 SLP101

CYQR;2010-09-11 18:00;CYQR 111800Z 31019G30KT 15SM FEW031 15/09 A2979 RMK CU2 SLP099

CYQR;2010-09-11 19:00;CYQR 111900Z 30020G27KT 15SM FEW035 SCT280 16/10 A2979 RMK CU2CI0 SLP097

CYQR;2010-09-11 20:00;CYQR 112000Z 30023G30KT 15SM FEW039 BKN280 17/10 A2979 RMK CU2CI0 SLP098

CYQR;2010-09-11 21:00;CYQR 112100Z 30024G29KT 15SM FEW043 FEW280 18/09 A2979 RMK CU2CI1 SLP098

CYQR;2010-09-11 22:00;CYQR 112200Z 31021G30KT 15SM FEW047 FEW140 FEW280 18/08 A2980 RMK CU2AC1CI0 SLP100

CYQR;2010-09-11 23:00;CYQR 112300Z 32017G27KT 15SM FEW053 FEW280 17/08 A2981 RMK CU1CI0 SLP106

CYQR;2010-09-12 00:00;CYQR 120000Z 32015KT 15SM FEW053 FEW280 16/07 A2982 RMK CU1CI1 SLP110

CYQR;2010-09-12 01:00;CYQR 120100Z 34007KT 15SM FEW053 FEW100 FEW280 13/07 A2984 RMK CU1AC1CI1 ACC ASOCTD SLP114

CYQR;2010-09-12 02:00;CYQR 120200Z 36006KT 15SM FEW100 FEW280 09/06 A2985 RMK AC1CI1 SLP118

CYQR;2010-09-12 03:00;CYQR 120300Z 36006KT 15SM SKC 08/06 A2987 RMK SLP129

CYQR;2010-09-12 04:00;CYQR 120400Z 35004KT 15SM SKC 08/06 A2987 RMK SLP129

CYQR;2010-09-12 05:00;CYQR 120500Z 28005KT 15SM FEW030 FEW071 08/07 A2988 RMK SC1AC2 SLP133

CYQR;2010-09-12 06:00;CYQR 120600Z 26006KT 15SM BKN068 07/06 A2990 RMK AC6 SLP136

CYQR;2010-09-12 07:00;CYQR 120700Z 26006KT 15SM BKN066 08/06 A2990 RMK AC6 SLP137

CYQR;2010-09-12 08:00;CYQR 120800Z 25004KT 15SM BKN056 08/07 A2990 RMK SC6 SLP138

CYQR;2010-09-12 09:00;CYQR 120900Z 30007KT 15SM OVC062 08/06 A2992 RMK SC8 SLP143

CYQR;2010-09-12 10:00;CYQR 121000Z 28009KT 15SM SCT050 08/07 A2993 RMK SC3 SLP147

CYQR;2010-09-12 11:00;CYQR 121100Z 28009KT 15SM FEW050 07/07 A2994 RMK SC2 SLP150

CYQR;2010-09-12 12:00;CYQR 121200Z 28009KT 15SM SKC 07/06 A2996 RMK SLP157

CYQR;2010-09-12 13:00;CYQR 121300Z 29010KT 15SM SKC 07/06 A2997 RMK SLP162

CYQR;2010-09-12 14:00;CYQR 121400Z 29012KT 15SM SKC 09/07 A2998 RMK SLP165

CYQR;2010-09-12 15:00;CYQR 121500Z 30012KT 15SM SKC 11/08 A3000 RMK SLP175

CYQR;2010-09-12 16:00;CYQR 121600Z 30013KT 15SM FEW270 14/08 A3001 RMK CI1 SLP178

CYQR;2010-09-12 17:00;CYQR 121700Z 31014G20KT 15SM FEW028 FEW280 15/08 A3002 RMK CF1CI1 SLP180

CYQR;2010-09-12 18:00;CYQR 121800Z 30015G22KT 15SM FEW034 FEW280 16/08 A3002 RMK CU2CI1 SLP177

CYQR;2010-09-12 19:00;CYQR 121900Z 30021KT 15SM SCT046 17/08 A3001 RMK CU4 SLP176

CYQR;2010-09-12 20:00;CYQR 122000Z 30020KT 15SM SCT050 SCT280 17/06 A3002 RMK CU4CI1 SLP177

CYQR;2010-09-12 21:00;CYQR 122100Z 30015G22KT 15SM SCT057 SCT280 18/06 A3002 RMK CU3CI1 SLP177

CYQR;2010-09-12 22:00;CYQR 122200Z 31016KT 15SM FEW057 SCT260 18/06 A3002 RMK CU2CI1 SLP177

CYQR;2010-09-12 23:00;CYQR 122300Z 32013G18KT 15SM FEW062 FEW280 17/06 A3003 RMK CU1CI1 SLP179

CYQR;2010-09-13 00:00;CYQR 130000Z 33010KT 15SM FEW060 FEW280 17/06 A3003 RMK CU1CI0 SLP182

CYQR;2010-09-13 01:00;CYQR 130100Z 32007KT 15SM FEW060 FEW280 13/06 A3003 RMK CU1CI0 SLP183

CYQR;2010-09-13 02:00;CYQR 130200Z 34004KT 15SM FEW060 FEW280 12/06 A3004 RMK SC1CI1 SLP186

CYQR;2010-09-13 03:00;CYQR 130300Z 04003KT 15SM FEW280 11/06 A3006 RMK CI1 SLP195

CYQR;2010-09-13 04:00;CYQR 130400Z 05004KT 15SM FEW290 10/06 A3008 RMK CI1 SLP199

CYQR;2010-09-13 05:00;CYQR 130500Z 05007KT 15SM FEW290 09/06 A3007 RMK CI0 SLP198

CYQR;2010-09-13 06:00;CYQR 130600Z 08007KT 15SM BKN078 10/07 A3008 RMK AC6 SLP198

CYQR;2010-09-13 07:00;CYQR 130700Z 06007KT 15SM OVC074 10/07 A3009 RMK AC8 SLP199

CYQR;2010-09-13 08:00;CYQR 130800Z 07005KT 15SM OVC072 10/06 A3010 RMK AC8 SLP204

CYQR;2010-09-13 09:00;CYQR 130900Z 08006KT 15SM OVC068 10/06 A3012 RMK AC8 SLP209

CYQR;2010-09-13 10:00;CYQR 131000Z 08006KT 15SM OVC064 10/06 A3012 RMK SC8 SLP211

CYQR;2010-09-13 11:00;CYQR 131100Z 08007KT 15SM -SHRA OVC064 09/05 A3013 RMK SC8 SLP214

CYQR;2010-09-13 12:00;CYQR 131200Z 07005KT 15SM -SHRA OVC062 09/06 A3013 RMK SC8 SLP215

CYQR;2010-09-13 13:00;CYQR 131300Z 09004KT 10SM -SHRA BKN053 OVC100 08/06 A3015 RMK SC7AC1 SLP220

CYQR;2010-09-13 14:00;CYQR 131400Z 08002KT 12SM -SHRA FEW034 OVC058 08/07 A3015 RMK SC2SC6 SLP223

CYQR;2010-09-13 15:00;CYQR 131500Z 10004KT 15SM -RA FEW035 OVC056 09/07 A3016 RMK SC1SC7 SLP230

CYQR;2010-09-13 16:00;CYQR 131600Z 09005KT 12SM -RA SCT023 OVC056 09/06 A3017 RMK SC2SC6 SLP233

CYQR;2010-09-13 16:09;CYQR 131609Z 09005KT 14SM -RA FEW010 SCT023 OVC056 10/ RMK SF1SC3SC4

CYQR;2010-09-13 17:00;CYQR 131700Z 09008KT 12SM -RA FEW012 BKN058 OVC079 09/06 A3016 RMK SF1SC7AC1 SLP231

CYQR;2010-09-13 17:49;CYQR 131749Z 10006KT 12SM -RA FEW008 BKN026 OVC044 10/ RMK SF1SC5SC3

CYQR;2010-09-13 18:00;CYQR 131800Z 08005KT 12SM -RA FEW009 SCT026 BKN044 OVC067 10/08 A3016 RMK SF1SC2SC4AC1 SLP230

CYQR;2010-09-13 18:51;CYQR 131851Z 08006KT 15SM FEW010 FEW026 BKN056 OVC073 10/ RMK SF1SC2SC5AC2

CYQR;2010-09-13 19:00;CYQR 131900Z 10009KT 15SM -RA FEW010 FEW026 BKN046 OVC073 10/07 A3015 RMK SF1SC1SC6AC2 -RA INTMT SLP224

CYQR;2010-09-13 20:00;CYQR 132000Z 11005KT 15SM -RA FEW010 SCT059 OVC071 11/07 A3014 RMK SF1SC3AC5 -RA INTMT SLP223

CYQR;2010-09-13 21:00;CYQR 132100Z CCA 13003KT 15SM FEW010 BKN065 OVC100 11/07 A3014 RMK SF1SC7AC1 -RA SW-W SLP222

CYQR;2010-09-13 22:00;CYQR 132200Z 34002KT 15SM FEW010 BKN059 OVC100 12/08 A3015 RMK SF1SC7AC1 SLP223

CYQR;2010-09-13 23:00;CYQR 132300Z 04008KT 15SM FEW010 BKN057 OVC100 11/05 A3016 RMK SF1SC7AC1 SLP228

CYQR;2010-09-14 00:00;CYQR 140000Z 05010G16KT 15SM FEW010 SCT055 BKN071 11/05 A3016 RMK SF1SC3AC4 SLP231

CYQR;2010-09-14 00:44;CYQR 140044Z CCA 05008KT 15SM -RA FEW010 BKN058 10/ RMK SF1SC7

CYQR;2010-09-14 01:00;CYQR 140100Z 05007KT 15SM -RA FEW010 BKN058 BKN072 09/06 A3018 RMK SF1SC6AC1 SLP236

CYQR;2010-09-14 01:51;CYQR 140151Z 04004KT 15SM BKN058 09/ RMK SC7

CYQR;2010-09-14 02:00;CYQR 140200Z 04005KT 15SM BKN058 09/06 A3019 RMK SC7 SLP238

CYQR;2010-09-14 03:00;CYQR 140300Z 02003KT 15SM OVC064 09/07 A3020 RMK SC8 SLP246

CYQR;2010-09-14 04:00;CYQR 140400Z 03004KT 15SM BKN047 OVC062 09/07 A3021 RMK SC6SC2 SLP247

CYQR;2010-09-14 05:00;CYQR 140500Z 03004KT 15SM OVC047 09/07 A3021 RMK SC8 SLP249

CYQR;2010-09-14 06:00;CYQR 140600Z 03003KT 15SM OVC047 09/06 A3022 RMK SC8 SLP251

CYQR;2010-09-14 07:00;CYQR 140700Z 05007KT 15SM OVC051 09/06 A3022 RMK SC8 SLP252

CYQR;2010-09-14 08:00;CYQR 140800Z 08006KT 15SM OVC053 09/05 A3023 RMK SC8 SLP253

CYQR;2010-09-14 09:00;CYQR 140900Z 08005KT 15SM OVC053 08/05 A3023 RMK SC8 SLP253

CYQR;2010-09-14 10:00;CYQR 141000Z 08005KT 15SM OVC068 08/05 A3023 RMK AC8 SLP253

CYQR;2010-09-14 11:00;CYQR 141100Z 08005KT 15SM OVC066 08/05 A3024 RMK AC8 SLP257

CYQR;2010-09-14 12:00;CYQR 141200Z 09007KT 15SM OVC058 08/05 A3024 RMK SC8 SLP256

CYQR;2010-09-14 13:00;CYQR 141300Z 09009KT 15SM BKN062 08/04 A3023 RMK SC7 SLP253

CYQR;2010-09-14 14:00;CYQR 141400Z 09003KT 15SM BKN064 08/05 A3025 RMK SC7 SLP259

CYQR;2010-09-14 15:00;CYQR 141500Z 14005KT 15SM BKN052 09/05 A3024 RMK SC7 SLP259

CYQR;2010-09-14 16:00;CYQR 141600Z 11006KT 15SM BKN064 BKN120 10/05 A3024 RMK SC6AC1 SLP257

CYQR;2010-09-14 17:00;CYQR 141700Z 13008KT 15SM FEW020 BKN060 BKN120 10/05 A3022 RMK CF1SC6AC1 SLP252

CYQR;2010-09-14 18:00;CYQR 141800Z 12006KT 15SM FEW024 BKN049 BKN082 11/05 A3021 RMK CU1SC5AC2 SLP246

CYQR;2010-09-14 18:17;CYQR 141817Z 12006KT 15SM -RA FEW024 OVC049 10/ RMK CU1SC8

CYQR;2010-09-14 19:00;CYQR 141900Z 10004KT 10SM -RA SCT012 OVC048 10/07 A3021 RMK CU2SC6 SLP248

CYQR;2010-09-14 20:00;CYQR 142000Z CCA 10009KT 15SM -RA FEW010 BKN061 OVC120 10/06 A3019 RMK CU1SC6AC1 SLP239

CYQR;2010-09-14 20:43;CYQR 142043Z 10007KT 15SM FEW012 BKN054 OVC120 10/ RMK SF1SC6AC2

CYQR;2010-09-14 21:00;CYQR 142100Z 09006KT 15SM BKN052 OVC120 10/06 A3018 RMK SC6AC2 SLP237

CYQR;2010-09-14 21:37;CYQR 142137Z 07005KT 15SM -RA OVC050 10/ RMK SC8

CYQR;2010-09-14 22:00;CYQR 142200Z 08007KT 10SM -RA OVC048 09/06 A3016 RMK SC8 SLP232

CYQR;2010-09-14 23:00;CYQR 142300Z 09003KT 10SM -RA OVC043 09/06 A3016 RMK SC8 SLP231

CYQR;2010-09-15 00:00;CYQR 150000Z 07003KT 15SM -RA FEW015 BKN037 OVC120 09/06 A3015 RMK SC1SC7AC1 SLP228

CYQR;2010-09-15 01:00;CYQR 150100Z 03005KT 7SM -RA BKN035 OVC060 08/07 A3015 RMK SC6SC2 SLP226

CYQR;2010-09-15 02:00;CYQR 150200Z 05007KT 6SM -RA BR BKN035 OVC051 08/06 A3015 RMK SC6SC2 SLP226

CYQR;2010-09-15 03:00;CYQR 150300Z 07010KT 3SM -RA BR OVC033 07/06 A3015 RMK SC8 SLP228

CYQR;2010-09-15 04:00;CYQR 150400Z 08009KT 7SM -RA OVC033 07/06 A3015 RMK SC8 SLP227

CYQR;2010-09-15 05:00;CYQR 150500Z 09006KT 10SM -RA OVC031 07/06 A3015 RMK SC8 SLP228

CYQR;2010-09-15 06:00;CYQR 150600Z 10008KT 9SM -RA OVC031 07/06 A3014 RMK SC8 SLP223

CYQR;2010-09-15 06:51;CYQR 150651Z 03006KT 7SM -DZ BKN007 OVC015 07/ RMK SF5SC3

CYQR;2010-09-15 07:00;CYQR 150700Z 02006KT 7SM -DZ BKN006 OVC015 07/06 A3014 RMK SF6SC2 SLP222

CYQR;2010-09-15 08:00;CYQR 150800Z 06008KT 4SM -DZ BR BKN006 OVC018 07/06 A3013 RMK SF7SC1 SLP220

CYQR;2010-09-15 08:14;CYQR 150814Z 06009KT 6SM -DZ BR SCT008 OVC018 07/ RMK SF3SC5

CYQR;2010-09-15 08:22;CYQR 150822Z 07009KT 9SM -RA SCT008 OVC018 07/ RMK SF3SC5

CYQR;2010-09-15 09:00;CYQR 150900Z 07009KT 10SM -DZ SCT007 OVC020 07/06 A3012 RMK SF3SC5 SLP217

CYQR;2010-09-15 09:20;CYQR 150920Z 06008KT 12SM -RA SCT007 OVC019 07/ RMK SF3SC5

CYQR;2010-09-15 10:00;CYQR 151000Z 07008KT 15SM FEW008 OVC019 07/06 A3012 RMK SF2SC6 SLP216

CYQR;2010-09-15 11:00;CYQR 151100Z 10007KT 15SM OVC021 07/06 A3011 RMK SC8 SLP214

CYQR;2010-09-15 12:00;CYQR 151200Z 10006KT 15SM BKN021 07/06 A3010 RMK SC7 SLP213

CYQR;2010-09-15 13:00;CYQR 151300Z 12007KT 15SM BKN025 07/06 A3011 RMK SC6 SLP214

CYQR;2010-09-15 13:44;CYQR 151344Z 06005KT 15SM FEW007 BKN027 08/ RMK SF1SC7

CYQR;2010-09-15 14:00;CYQR 151400Z 09006KT 15SM FEW007 BKN027 08/06 A3012 RMK SF1SC7 SLP219

CYQR;2010-09-15 15:00;CYQR 151500Z 09003KT 15SM FEW007 BKN023 BKN076 BKN280 08/07 A3013 RMK SF1SC4AC2CI0 SLP221

CYQR;2010-09-15 16:00;CYQR 151600Z 09007KT 15SM FEW012 BKN023 BKN076 BKN280 10/08 A3013 RMK SC2SC2AC2CI0 SLP220

CYQR;2010-09-15 16:25;CYQR 151625Z 10007KT 15SM BKN012 OVC025 10/ RMK SC7SC1

CYQR;2010-09-15 17:00;CYQR 151700Z 10005KT 15SM BKN014 OVC034 10/08 A3012 RMK SC7SC1 CU ASOCTD SLP218

CYQR;2010-09-15 18:00;CYQR 151800Z 09005KT 15SM OVC014 11/08 A3011 RMK SC8 SLP213

CYQR;2010-09-15 19:00;CYQR 151900Z 11003KT 15SM OVC014 11/08 A3010 RMK SC8 SLP210

CYQR;2010-09-15 19:27;CYQR 151927Z 14003KT 15SM -SHRA OVC014 11/ RMK SC8 CVCTV CLD EMBD

CYQR;2010-09-15 20:00;CYQR 152000Z 11004KT 12SM OVC012 11/09 A3009 RMK SC8 SLP205

CYQR;2010-09-15 20:41;CYQR 152041Z 00000KT 8SM OVC009 11/ RMK SC8

CYQR;2010-09-15 21:00;CYQR 152100Z 00000KT 8SM OVC008 11/09 A3007 RMK SC8 SLP200

CYQR;2010-09-15 21:29;CYQR 152129Z 00000KT 15SM OVC012 11/ RMK SC8 CU EMBD

CYQR;2010-09-15 21:53;CYQR 152153Z 12003KT 15SM -SHRA OVC012 11/ RMK SC8

CYQR;2010-09-15 22:00;CYQR 152200Z 09003KT 15SM -SHRA BKN012 OVC021 11/09 A3007 RMK SC6SC2 CU ASOCTD SLP199

CYQR;2010-09-15 22:23;CYQR 152223Z 12003KT 15SM BKN012 OVC020 11/ RMK CU6SC2

CYQR;2010-09-15 22:36;CYQR 152236Z 15002KT 12SM -SHRA BKN010 OVC019 11/ RMK CU6SC2

CYQR;2010-09-15 23:00;CYQR 152300Z 17003KT 15SM SCT011 OVC023 11/09 A3005 RMK CU4SC4 SH DIST S SLP195

CYQR;2010-09-16 00:00;CYQR 160000Z 16003KT 15SM FEW012 SCT031 BKN090 BKN260 11/09 A3005 RMK CU1SC3AC2CI1 SLP191

CYQR;2010-09-16 01:00;CYQR 160100Z 15005KT 15SM SCT033 SCT097 BKN260 10/09 A3003 RMK SC2AC1CI2 SLP187

CYQR;2010-09-16 02:00;CYQR 160200Z 15005KT 15SM FEW035 BKN087 BKN260 09/08 A3003 RMK SC2AC1CI0 SLP185

CYQR;2010-09-16 03:00;CYQR 160300Z 13006KT 15SM BKN084 08/08 A3001 RMK AC4 SLP181

CYQR;2010-09-16 04:00;CYQR 160400Z 17006KT 15SM BKN043 OVC084 10/09 A3000 RMK SC7AC1 SLP178

CYQR;2010-09-16 05:00;CYQR 160500Z 17008KT 5SM BR OVC037 10/09 A2998 RMK SC8 SLP170

CYQR;2010-09-16 06:00;CYQR 160600Z 16008KT 5SM BR OVC039 10/09 A2997 RMK SC8 SLP162

CYQR;2010-09-16 07:00;CYQR 160700Z 16006KT 5SM BR OVC039 10/10 A2995 RMK SC8 SLP156

CYQR;2010-09-16 08:00;CYQR 160800Z 15005KT 6SM BR OVC044 10/10 A2993 RMK SC7 SLP151

CYQR;2010-09-16 09:00;CYQR 160900Z 15007KT 8SM SCT045 OVC073 10/10 A2991 RMK SC3AC4 SLP142

CYQR;2010-09-16 09:45;CYQR 160945Z 17006KT 10SM -RA OVC050 10/ RMK SC8

CYQR;2010-09-16 10:00;CYQR 161000Z 16007KT 4SM -RA BR BKN034 OVC050 10/10 A2988 RMK SC6SC2 SLP133

CYQR;2010-09-16 10:41;CYQR 161041Z 12004KT 5SM BR BKN030 OVC070 10/ RMK SC6AC2

CYQR;2010-09-16 11:00;CYQR 161100Z 13005KT 3SM RA BR BKN006 OVC030 10/10 A2986 RMK SF5SC3 SLP125

CYQR;2010-09-16 11:17;CYQR 161117Z 14007KT 6SM -RA BR FEW010 OVC035 10/ RERA RMK SC2SC6

CYQR;2010-09-16 12:00;CYQR 161200Z 09005KT 8SM FEW010 BKN025 OVC076 10/10 A2982 RERA RMK SC1SC6AC1 SLP110

CYQR;2010-09-16 12:25;CYQR 161225Z 13005KT 5SM BR OVC014 10/ RMK SC8

CYQR;2010-09-16 12:34;CYQR 161234Z 12005KT 2 1/2SM BR BKN003 OVC035 10/ RMK SF5SC3

CYQR;2010-09-16 13:00;CYQR 161300Z 12003KT 3SM -DZ BR OVC003 10/10 A2981 RMK SF8 SLP108

CYQR;2010-09-16 13:55;CYQR 161355Z 00000KT 3SM -DZ BR OVC003 OVC018 11/ RMK SF4SC4

CYQR;2010-09-16 14:00;CYQR 161400Z 00000KT 3SM -DZ BR OVC003 OVC018 11/10 A2980 RMK SF4SC4 SLP104

CYQR;2010-09-16 14:08;CYQR 161408Z 00000KT 3SM -DZ BR BKN003 OVC010 11/ RMK SF6SC2

CYQR;2010-09-16 15:00;CYQR 161500Z 01004KT 3SM -DZ BR OVC003 11/11 A2978 RMK SF8 SLP099

CYQR;2010-09-16 15:52;CYQR 161552Z 36010KT 4SM -RA BR BKN003 OVC010 11/ RMK SF6SC2

CYQR;2010-09-16 16:00;CYQR 161600Z 36012KT 5SM -RA BR BKN003 OVC010 11/10 A2979 RMK SF7SC1 SLP103

CYQR;2010-09-16 16:19;CYQR 161619Z 36011KT 2SM -RA BR OVC004 10/ RMK FG2SF6

CYQR;2010-09-16 16:37;CYQR 161637Z 01013G18KT 3SM -RA BR BKN006 OVC018 10/ RMK SF6SC2

CYQR;2010-09-16 17:00;CYQR 161700Z 36011G17KT 3SM -RA BR BKN006 OVC018 10/09 A2981 RMK SF6SC2 SLP108

CYQR;2010-09-16 18:00;CYQR 161800Z 36013KT 3SM -RA BR BKN008 OVC029 10/09 A2982 RMK SF5SC3 SLP111

CYQR;2010-09-16 18:27;CYQR 161827Z CCA 35012KT 5SM -RA BR BKN010 OVC033 10/ RMK SC7SC1

CYQR;2010-09-16 19:00;CYQR 161900Z 34012KT 10SM -RA BKN009 BKN037 OVC240 10/09 A2983 RMK SC3SC2CI2 SLP114

CYQR;2010-09-16 19:29;CYQR 161929Z 34015KT 10SM -RA SCT013 BKN041 OVC240 11/ RMK SC3SC2CI2

CYQR;2010-09-16 20:00;CYQR 162000Z 33013G18KT 15SM -RA SCT016 BKN046 OVC240 11/09 A2983 RMK SC3SC2CI2 -RA INTMT SLP116

CYQR;2010-09-16 20:09;CYQR 162009Z 34013G18KT 15SM SCT016 BKN055 OVC240 12/ RMK CU3SC3CI1

CYQR;2010-09-16 21:00;CYQR 162100Z 34015KT 15SM BKN018 BKN058 OVC240 11/08 A2984 RMK SC6SC2CI1 CU EMBD SLP119

CYQR;2010-09-16 22:00;CYQR 162200Z 34012G19KT 15SM FEW022 BKN032 BKN100 OVC240 11/08 A2987 RMK SC2SC3AC2CI1 CU EMBD SLP127

CYQR;2010-09-16 23:00;CYQR 162300Z 34016KT 15SM SCT024 BKN055 BKN100 BKN250 11/07 A2989 RMK CU3SC2AC2CI1 TCU ASOCTD SLP133

CYQR;2010-09-17 00:00;CYQR 170000Z 33010KT 15SM FEW024 BKN086 BKN100 BKN250 10/06 A2991 RMK CU1AC5AC1CI0 SLP142

CYQR;2010-09-17 01:00;CYQR 170100Z 33010KT 15SM BKN031 BKN250 09/06 A2993 RMK SC5CI1 SLP148

CYQR;2010-09-17 02:00;CYQR 170200Z 32010KT 15SM SCT030 BKN085 BKN250 08/05 A2995 RMK SC2AC1CI0 SLP156

CYQR;2010-09-17 03:00;CYQR 170300Z 31010KT 15SM BKN038 08/05 A2997 RMK SC7 SLP164

CYQR;2010-09-17 04:00;CYQR 170400Z 32014G19KT 15SM SCT036 07/03 A2998 RMK SC4 SLP169

CYQR;2010-09-17 05:00;CYQR 170500Z 32018KT 15SM FEW043 SCT100 06/01 A3002 RMK SC2AC2 SLP181

CYQR;2010-09-17 06:00;CYQR 170600Z 32010KT 15SM FEW045 04/M00 A3004 RMK SC2 SLP192

CYQR;2010-09-17 07:00;CYQR 170700Z 30009KT 15SM FEW045 BKN100 03/M01 A3005 RMK SC2AC3 SLP196

CYQR;2010-09-17 08:00;CYQR 170800Z 31018G24KT 15SM FEW045 BKN100 04/M00 A3007 RMK SC2AC3 SLP201

CYQR;2010-09-17 09:00;CYQR 170900Z 32019KT 15SM FEW100 02/M02 A3009 RMK AC2 SLP210

CYQR;2010-09-17 10:00;CYQR 171000Z 32015G20KT 15SM SCT045 BKN100 01/M03 A3011 RMK SC3AC3 SLP216

CYQR;2010-09-17 11:00;CYQR 171100Z 30014KT 15SM FEW100 FEW300 00/M03 A3014 RMK AC1CI0 SLP224

CYQR;2010-09-17 12:00;CYQR 171200Z 30011KT 15SM FEW100 SCT300 M01/M04 A3015 RMK AC1CI0 SLP231

CYQR;2010-09-17 13:00;CYQR 171300Z 30010KT 15SM FEW100 BKN300 M01/M04 A3016 RMK AC2CI1 SLP237

CYQR;2010-09-17 14:00;CYQR 171400Z 31014KT 15SM FEW093 BKN300 00/M04 A3019 RMK AC2CI2 SLP245

CYQR;2010-09-17 15:00;CYQR 171500Z 33016G21KT 15SM FEW016 BKN068 BKN260 01/M04 A3020 RMK CF1AC6CI0 SLP252

CYQR;2010-09-17 16:00;CYQR 171600Z 32018KT 15SM FEW021 BKN110 BKN260 01/M04 A3022 RMK SC2AC4CI1 SLP256

CYQR;2010-09-17 17:00;CYQR 171700Z 32015G20KT 15SM FEW025 BKN110 BKN280 04/M02 A3021 RMK SC2AC2CI1 SLP254

CYQR;2010-09-17 18:00;CYQR 171800Z 30014G20KT 15SM FEW033 BKN280 06/M03 A3020 RMK SC1CI5 SLP250

CYQR;2010-09-17 19:00;CYQR 171900Z 32015G21KT 15SM FEW042 BKN280 07/M03 A3019 RMK CF1CI3 SLP246

CYQR;2010-09-17 20:00;CYQR 172000Z 31019G24KT 15SM FEW046 FEW082 BKN280 07/M03 A3018 RMK CU1AC1CI2 SLP244

CYQR;2010-09-17 21:00;CYQR 172100Z 31022KT 15SM FEW045 SCT280 08/M04 A3018 RMK CF1CI2 SLP241

CYQR;2010-09-17 22:00;CYQR 172200Z 30021G28KT 15SM FEW055 BKN280 08/M04 A3017 RMK CF1CI2 SLP240

CYQR;2010-09-17 23:00;CYQR 172300Z 30021G27KT 15SM FEW060 FEW280 08/M05 A3017 RMK CF1CI0 SLP240

CYQR;2010-09-18 00:00;CYQR 180000Z 31018G25KT 15SM FEW020 FEW280 07/M06 A3017 RMK CF1CI0 SLP242

CYQR;2010-09-18 01:00;CYQR 180100Z 30011KT 15SM FEW080 FEW280 05/M04 A3018 RMK AC1CI0 SLP245

CYQR;2010-09-18 02:00;CYQR 180200Z 30006KT 15SM FEW240 01/M04 A3020 RMK CI1 SLP251

CYQR;2010-09-18 03:00;CYQR 180300Z 29008KT 15SM SKC 00/M04 A3022 RMK SLP261

CYQR;2010-09-18 04:00;CYQR 180400Z 27008KT 15SM SKC M01/M04 A3023 RMK SLP265

CYQR;2010-09-18 05:00;CYQR 180500Z 28010KT 15SM SKC M00/M03 A3023 RMK SLP264

CYQR;2010-09-18 06:00;CYQR 180600Z 28006KT 15SM SKC M01/M04 A3024 RMK SLP267

CYQR;2010-09-18 07:00;CYQR 180700Z 28004KT 15SM FEW250 M02/M05 A3025 RMK CI1 SLP271

CYQR;2010-09-18 08:00;CYQR 180800Z 29005KT 15SM SKC M03/M05 A3025 RMK SLP271

CYQR;2010-09-18 09:00;CYQR 180900Z 24003KT 15SM SKC M03/M06 A3025 RMK SLP272

CYQR;2010-09-18 10:00;CYQR 181000Z 25005KT 15SM SKC M04/M06 A3025 RMK SLP272

CYQR;2010-09-18 11:00;CYQR 181100Z 27002KT 15SM SKC M04/M06 A3025 RMK SLP272

CYQR;2010-09-18 12:00;CYQR 181200Z 26006KT 15SM FEW250 M04/M06 A3027 RMK CI1 SLP277

CYQR;2010-09-18 13:00;CYQR 181300Z 34003KT 15SM FEW250 M03/M06 A3026 RMK CI1 SLP274

CYQR;2010-09-18 14:00;CYQR 181400Z 29002KT 15SM FEW030 M01/M04 A3026 RMK SC1 SLP275

CYQR;2010-09-18 15:00;CYQR 181500Z 27003KT 15SM FEW030 02/M01 A3027 RMK SC1 SLP278

CYQR;2010-09-18 16:00;CYQR 181600Z 25004KT 15SM SCT260 05/M00 A3027 RMK CI0 SLP278

CYQR;2010-09-18 17:00;CYQR 181700Z 25004KT 15SM FEW210 SCT260 08/M02 A3026 RMK CI1CI0 SLP275

CYQR;2010-09-18 18:00;CYQR 181800Z 26006KT 15SM FEW250 10/M02 A3025 RMK CI1 SLP266

CYQR;2010-09-18 19:00;CYQR 181900Z 27006KT 15SM FEW100 FEW250 11/M03 A3023 RMK AC1CI1 TR AC SLP261

CYQR;2010-09-18 20:00;CYQR 182000Z 30005KT 15SM FEW140 FEW250 12/M03 A3021 RMK AC1CI0 SLP254

CYQR;2010-09-18 21:00;CYQR 182100Z 32004KT 15SM FEW140 SCT250 12/M03 A3020 RMK AC1CI1 SLP249

CYQR;2010-09-18 22:00;CYQR 182200Z 27004KT 15SM FEW088 BKN250 13/M03 A3018 RMK AC2CI1 SLP244

CYQR;2010-09-18 23:00;CYQR 182300Z 19002KT 15SM BKN100 BKN250 11/M03 A3017 RMK AC5CI1 SLP241

CYQR;2010-09-19 00:00;CYQR 190000Z 18003KT 15SM SCT100 BKN250 10/01 A3017 RMK AC3CI2 SLP241

CYQR;2010-09-19 01:00;CYQR 190100Z 17003KT 15SM SCT100 BKN250 09/01 A3016 RMK AC3CI2 SLP240

CYQR;2010-09-19 02:00;CYQR 190200Z 13005KT 15SM SCT100 BKN250 06/02 A3017 RMK AC3CI0 SLP243

CYQR;2010-09-19 03:00;CYQR 190300Z 12005KT 15SM FEW100 FEW250 05/01 A3019 RMK AC2CI0 SLP247

CYQR;2010-09-19 04:00;CYQR 190400Z 12005KT 15SM FEW100 BKN250 04/M00 A3020 RMK AC1CI1 SLP251

CYQR;2010-09-19 05:00;CYQR 190500Z 12005KT 15SM FEW080 SCT100 03/M01 A3020 RMK AC1AC1 SLP250

CYQR;2010-09-19 06:00;CYQR 190600Z 12004KT 15SM BKN100 02/M00 A3019 RMK AC3 SLP245

CYQR;2010-09-19 07:00;CYQR 190700Z 12005KT 15SM SCT100 01/M01 A3019 RMK AC1 SLP245

CYQR;2010-09-19 08:00;CYQR 190800Z 12007KT 15SM SCT100 BKN250 01/M00 A3020 RMK AC1CI0 SLP246

CYQR;2010-09-19 10:00;CYQR 191000Z 10005KT 15SM BKN100 A3019 RMK AC7 VIA YWG FIC

CYQR;2010-09-19 11:00;CYQR 191100Z CCA 10005KT 15SM BKN100 A3018 RMK AC7 VIA YXU FIC

CYQR;2010-09-19 12:00;CYQR 191200Z 11006KT 15SM BKN100 A3018 RMK AC6 VIA YWG FIC

CYQR;2010-09-19 13:00;CYQR 191300Z 12006KT 15SM BKN069 04/02 A3018 RMK AC6 SLP240

CYQR;2010-09-19 14:00;CYQR 191400Z 12008KT 15SM FEW040 BKN058 05/03 A3018 RMK SC1SC6 SLP242

CYQR;2010-09-19 15:00;CYQR 191500Z 14010KT 15SM SCT061 BKN083 BKN280 07/03 A3017 RMK SC3AC3CI0 SLP238

CYQR;2010-09-19 16:00;CYQR 191600Z 14012G17KT 15SM FEW020 SCT049 BKN083 09/03 A3017 RMK CF1SC3AC4 TR CF SLP237

CYQR;2010-09-19 17:00;CYQR 191700Z 15013G21KT 15SM FEW032 BKN046 OVC083 09/02 A3016 RMK CU2SC5AC2 SLP234

CYQR;2010-09-19 18:00;CYQR 191800Z 14018KT 15SM SCT035 OVC049 10/03 A3013 RMK SC4SC4 SLP225

CYQR;2010-09-19 19:00;CYQR 191900Z 14020KT 15SM BKN035 BKN220 OVC280 12/04 A3009 RMK SC5CI2CI0 SLP212

CYQR;2010-09-19 20:00;CYQR 192000Z 13019G25KT 15SM BKN037 BKN078 BKN220 11/04 A3005 RMK SC5AC2CI1 SLP199

CYQR;2010-09-19 21:00;CYQR 192100Z 14016G24KT 15SM FEW035 BKN066 BKN220 12/04 A3004 RMK SC2AC3CI2

CYQR;2010-09-19 22:00;CYQR 192200Z 13017G28KT 15SM FEW039 BKN063 BKN095 BKN230 OVC280 12/03 A3001 RMK SC2SC2AC2CI1CI0

CYQR;2010-09-19 23:00;CYQR 192300Z 13018G26KT 15SM BKN035 OVC084 11/03 A2998 RMK SC6AC2 SLP175

CYQR;2010-09-20 00:00;CYQR 200000Z 14016G22KT 15SM BKN033 BKN090 11/04 A2996 RMK SC6AC2 SLP169

CYQR;2010-09-20 01:00;CYQR 200100Z 12014G21KT 15SM FEW033 SCT090 BKN240 BKN280 10/04 A2993 RMK SC2AC2CI1CI0 SLP159

CYQR;2010-09-20 02:00;CYQR 200200Z 13018G25KT 15SM FEW090 SCT280 09/04 A2989 RMK AC2CI0 SLP147

CYQR;2010-09-20 03:00;CYQR 200300Z 12017G24KT 15SM FEW090 FEW280 09/04 A2988 RMK AC1CI0 SLP136

CYQR;2010-09-20 04:00;CYQR 200400Z 12015G21KT 15SM FEW090 SCT280 08/04 A2988 RMK AC1CI0 SLP137

CYQR;2010-09-20 05:00;CYQR 200500Z 13014G19KT 15SM BKN035 09/04 A2986 RMK SC7 SLP130

CYQR;2010-09-20 06:00;CYQR 200600Z 14013G22KT 15SM OVC031 09/04 A2985 RMK SC8 SLP121

CYQR;2010-09-20 07:00;CYQR 200700Z 13014G21KT 15SM OVC029 10/04 A2981 RMK SC8 SLP108

CYQR;2010-09-20 08:00;CYQR 200800Z 13014KT 15SM OVC029 10/04 A2978 RMK SC8 SLP100

CYQR;2010-09-20 09:00;CYQR 200900Z 15013KT 15SM OVC027 10/05 A2979 RMK SC8 SLP100

CYQR;2010-09-20 10:00;CYQR 201000Z 14013G18KT 15SM OVC025 10/05 A2972 RMK SC8 PRESFR SLP078

CYQR;2010-09-20 11:00;CYQR 201100Z 13018KT 15SM BKN023 09/06 A2966 RMK SC7 PRESFR SLP059

CYQR;2010-09-20 12:00;CYQR 201200Z 14017KT 15SM BKN027 09/06 A2963 RMK SC7 SLP048

CYQR;2010-09-20 13:00;CYQR 201300Z 16008KT 15SM OVC021 09/05 A2968 RMK SC8 SLP062

CYQR;2010-09-20 14:00;CYQR 201400Z 15007KT 15SM OVC024 09/06 A2967 RMK SC8 SLP060

CYQR;2010-09-20 15:00;CYQR 201500Z 14007KT 15SM OVC022 09/06 A2967 RMK SC8 SLP064

CYQR;2010-09-20 15:18;CYQR 201518Z 15007KT 3SM -DZ BR OVC020 09/ RMK SC8

CYQR;2010-09-20 16:00;CYQR 201600Z 15006KT 3SM -DZ BR OVC016 08/08 A2966 RMK SC8 SLP061

CYQR;2010-09-20 16:27;CYQR 201627Z 15008KT 3SM BR SCT006 OVC021 09/ RMK SF2SC6 INTMT -DZ

CYQR;2010-09-20 17:00;CYQR 201700Z 16007KT 10SM SCT007 BKN021 10/08 A2962 RMK SF2SC4 OBS TAKEN +08 SLP048

CYQR;2010-09-20 17:47;CYQR 201747Z 19008KT 12SM OVC018 10/ RMK SC8

CYQR;2010-09-20 18:00;CYQR 201800Z 20008KT 15SM OVC014 10/08 A2962 RMK SC8 SLP045

CYQR;2010-09-20 18:35;CYQR 201835Z 16006KT 12SM -RA OVC014 11/ RMK SC8

CYQR;2010-09-20 19:00;CYQR 201900Z 18007KT 8SM -RA OVC014 11/09 A2959 RMK SC8 SLP033

CYQR;2010-09-20 19:49;CYQR 201949Z 17003KT 8SM -RA BKN017 OVC037 10/ RMK SC6SC2

CYQR;2010-09-20 20:00;CYQR 202000Z 15003KT 8SM -RA BKN017 OVC037 10/09 A2956 RMK SC6SC2 SLP026

CYQR;2010-09-20 21:00;CYQR 202100Z 22007KT 12SM -RA BKN007 OVC026 10/10 A2957 RMK SF5SC3 SLP025

CYQR;2010-09-20 22:00;CYQR 202200Z 28019KT 6SM -RA BR BKN005 OVC025 10/10 A2957 RMK SF6SC2 SLP027

CYQR;2010-09-20 22:18;CYQR 202218Z 28018KT 3SM -RA BR OVC006 10/ RMK SC8

CYQR;2010-09-20 23:00;CYQR 202300Z 29019G26KT 4SM -RA BR OVC006 09/09 A2959 RMK SC8 CIG RAG SLP032

CYQR;2010-09-21 00:00;CYQR 210000Z 30020G26KT 6SM -RA BR OVC007 08/08 A2961 RMK SC8 CIG RAG SLP041

CYQR;2010-09-21 00:45;CYQR 210045Z 30023KT 15SM OVC008 08/ RMK SC8

CYQR;2010-09-21 01:00;CYQR 210100Z 30018G26KT 15SM OVC007 08/07 A2964 RMK SC8 SLP050

CYQR;2010-09-21 01:51;CYQR 210151Z 30024KT 10SM -DZ OVC008 07/ RMK SC8

CYQR;2010-09-21 02:00;CYQR 210200Z 30025G30KT 3SM -DZ BR OVC008 07/07 A2966 RMK SC8 CIG RAG SLP058

CYQR;2010-09-21 02:11;CYQR 210211Z CCA 30021G26KT 2SM -DZ BR OVC006 07/ RMK SF8

CYQR;2010-09-21 02:38;CYQR 210238Z 30022G28KT 3SM -DZ OVC005 07/ RMK SF8 CIG VRB 4-6 VIS VRB 2-4

CYQR;2010-09-21 03:00;CYQR 210300Z 31022G28KT 10SM -DZ OVC006 07/06 A2969 RMK SF8 BR SLP070

CYQR;2010-09-21 03:33;CYQR 210333Z 30020G25KT 4SM -DZ BR OVC005 07/ RMK SF8 CIG VRB 4-6

CYQR;2010-09-21 04:00;CYQR 210400Z 31018G24KT 10SM -DZ OVC005 07/07 A2972 RMK SF8 CIG VRB 4-6 SLP079

CYQR;2010-09-21 04:40;CYQR 210440Z 31016G27KT 15SM BKN009 07/ RMK SF7

CYQR;2010-09-21 05:00;CYQR 210500Z 31019G24KT 15SM BKN009 BKN029 07/06 A2974 RMK SF6SC1 SLP086

CYQR;2010-09-21 06:00;CYQR 210600Z 31016G21KT 15SM OVC007 06/06 A2976 RMK SF8 CIG VRB 5-9 SLP094

CYQR;2010-09-21 06:20;CYQR 210620Z 31018KT 10SM -DZ OVC006 06/ RMK SF8 CIG VRB 5-7

CYQR;2010-09-21 07:00;CYQR 210700Z 31017KT 12SM -DZ OVC005 06/05 A2978 RMK SF8 SLP099

CYQR;2010-09-21 07:53;CYQR 210753Z 31012G17KT 15SM OVC007 06/ RMK SF8

CYQR;2010-09-21 08:00;CYQR 210800Z 31013KT 15SM OVC007 06/05 A2980 RMK SF8 SLP106

CYQR;2010-09-21 09:00;CYQR 210900Z 32022KT 15SM OVC009 05/04 A2982 RMK SF8 SLP114

CYQR;2010-09-21 10:00;CYQR 211000Z 32014KT 15SM OVC007 05/04 A2983 RMK SF8 SLP118

CYQR;2010-09-21 10:51;CYQR 211051Z 31010KT 12SM -DZ BKN009 OVC025 05/ RMK SF7SC1

CYQR;2010-09-21 11:00;CYQR 211100Z 31008KT 12SM -DZ OVC008 05/04 A2986 RMK SF8 CIG VRB 7-9 SLP126

CYQR;2010-09-21 11:15;CYQR 211115Z 30011KT 15SM BKN007 OVC024 05/ RMK SF7SC1

CYQR;2010-09-21 11:29;CYQR 211129Z 30010KT 8SM -DZ BKN006 OVC032 05/ RMK SF7SC1

CYQR;2010-09-21 11:42;CYQR 211142Z 31014KT 5SM -DZ OVC004 05/ RMK SF8

CYQR;2010-09-21 12:00;CYQR 211200Z 32012KT 8SM -DZ BKN005 OVC028 05/04 A2987 RMK SF7SC1 CIG VRB 4-6 SLP135

CYQR;2010-09-21 13:00;CYQR 211300Z 30011KT 10SM -DZ OVC003 05/04 A2989 RMK SF8 CIG RAG SLP141

CYQR;2010-09-21 13:18;CYQR 211318Z 29011KT 7SM OVC005 05/ RMK SF8

CYQR;2010-09-21 14:00;CYQR 211400Z 29010KT 3SM BR BKN004 OVC024 05/04 A2991 RMK SF6SC2 SLP147

CYQR;2010-09-21 14:16;CYQR 211416Z 28009KT 2 1/2SM -DZ BR OVC004 05/ RMK SF8

CYQR;2010-09-21 14:27;CYQR 211427Z 28009KT 3SM -DZ BR OVC004 05/ RMK SF8

CYQR;2010-09-21 15:00;CYQR 211500Z 30008KT 3SM -DZ BR OVC004 05/05 A2993 RMK SF8 SLP154

CYQR;2010-09-21 15:22;CYQR 211522Z 30012KT 2 1/2SM -DZ BR OVC005 06/ RMK SF8

CYQR;2010-09-21 15:46;CYQR 211546Z 32012KT 3SM -DZ BR BKN005 OVC027 06/ RMK SF6SC2

CYQR;2010-09-21 16:00;CYQR 211600Z 32011KT 3SM -DZ BR OVC005 06/05 A2994 RMK SF8 SLP159

CYQR;2010-09-21 16:08;CYQR 211608Z 32011KT 6SM BR BKN006 06/ RMK SC7

CYQR;2010-09-21 16:30;CYQR 211630Z 34012KT 3SM -DZ BR BKN004 OVC029 06/ RMK SF6SC2

CYQR;2010-09-21 17:00;CYQR 211700Z 32010G15KT 10SM OVC006 07/06 A2994 RMK SC7 SLP159

CYQR;2010-09-21 17:16;CYQR 211716Z 34011KT 15SM OVC010 06/ RMK SC8

CYQR;2010-09-21 18:00;CYQR 211800Z 32011KT 15SM BKN014 OVC027 07/05 A2993 RMK SC6SC1 SLP155

CYQR;2010-09-21 18:27;CYQR 211827Z 34010KT 15SM BKN016 07/ RMK SC6

CYQR;2010-09-21 19:00;CYQR 211900Z 33008KT 15SM OVC016 08/04 A2993 RMK SC7 SLP155

CYQR;2010-09-21 20:00;CYQR 212000Z 34011KT 15SM OVC017 07/04 A2994 RMK SC8 SLP157

CYQR;2010-09-21 21:00;CYQR 212100Z 36006KT 15SM OVC019 07/04 A2994 RMK SC8 SLP157

CYQR;2010-09-21 22:00;CYQR 212200Z 32006KT 15SM OVC021 07/04 A2995 RMK SC8 SLP161

CYQR;2010-09-21 23:00;CYQR 212300Z 03005KT 15SM BKN027 OVC075 07/03 A2992 RMK SC7AC1 SLP153

CYQR;2010-09-22 00:00;CYQR 220000Z 35007KT 15SM BKN022 07/03 A2994 RMK SC7 SLP160

CYQR;2010-09-22 01:00;CYQR 220100Z 01004KT 15SM OVC028 06/03 A2995 RMK SC8 SLP162

CYQR;2010-09-22 02:00;CYQR 220200Z 36004KT 15SM OVC031 06/02 A2996 RMK SC8 SLP167

CYQR;2010-09-22 03:00;CYQR 220300Z 01003KT 15SM BKN033 06/03 A2998 RMK SC7 SLP173

CYQR;2010-09-22 04:00;CYQR 220400Z 04004KT 15SM BKN033 05/02 A2999 RMK SC7 SLP175

CYQR;2010-09-22 05:00;CYQR 220500Z 00000KT 15SM BKN033 05/03 A3000 RMK SC7 SLP178

CYQR;2010-09-22 06:00;CYQR 220600Z 05003KT 15SM BKN033 05/03 A2999 RMK SC7 SLP175

CYQR;2010-09-22 07:00;CYQR 220700Z 10004KT 15SM BKN073 05/03 A2998 RMK AC7 SLP172

CYQR;2010-09-22 08:00;CYQR 220800Z 09002KT 15SM FEW033 BKN073 05/02 A2999 RMK SC1AC7 SLP175

CYQR;2010-09-22 09:00;CYQR 220900Z 00000KT 15SM SCT033 BKN071 05/02 A3000 RMK SC4AC3 SLP179

CYQR;2010-09-22 10:00;CYQR 221000Z 05005KT 15SM BKN069 04/02 A2997 RMK AC7 SLP171

CYQR;2010-09-22 11:00;CYQR 221100Z 09003KT 15SM BKN069 04/02 A2997 RMK AC6 SLP170

CYQR;2010-09-22 12:00;CYQR 221200Z 09004KT 15SM BKN065 05/02 A2998 RMK SC7 SLP173

CYQR;2010-09-22 13:00;CYQR 221300Z 07004KT 15SM BKN065 BKN300 05/02 A2998 RMK SC6CI1 SLP172

CYQR;2010-09-22 14:00;CYQR 221400Z 07005KT 15SM FEW040 OVC050 05/01 A2999 RMK SC2SC6 SLP175

CYQR;2010-09-22 15:00;CYQR 221500Z 08004KT 15SM FEW016 BKN038 OVC064 06/02 A2999 RMK CF1SC5SC2 SLP177

CYQR;2010-09-22 16:00;CYQR 221600Z 13006KT 15SM FEW016 SCT045 BKN064 BKN300 06/03 A2999 RMK SC1SC2SC3CI1 SLP177

CYQR;2010-09-22 17:00;CYQR 221700Z 12012KT 15SM SCT016 OVC045 07/03 A3000 RMK SC4SC4 SLP181

CYQR;2010-09-22 18:00;CYQR 221800Z 12007KT 15SM BKN016 OVC085 07/04 A2999 RMK SC6AC1 SLP176

CYQR;2010-09-22 19:00;CYQR 221900Z 10005KT 15SM OVC016 08/04 A2998 RMK SC8 SLP172

CYQR;2010-09-22 20:00;CYQR 222000Z 09006KT 15SM OVC018 08/04 A2997 RMK SC8 SLP170

CYQR;2010-09-22 21:00;CYQR 222100Z 11004KT 15SM OVC020 08/05 A2997 RMK SC8 SLP167

CYQR;2010-09-22 22:00;CYQR 222200Z 11005KT 15SM OVC020 08/05 A2997 RMK SC8 SLP168

CYQR;2010-09-22 23:00;CYQR 222300Z 10005KT 15SM OVC022 08/05 A2997 RMK SC8 SLP169

CYQR;2010-09-23 00:00;CYQR 230000Z 10007KT 15SM OVC020 08/05 A2997 RMK SC8 SLP170

CYQR;2010-09-23 01:00;CYQR 230100Z 11008KT 15SM BKN015 OVC033 08/05 A2997 RMK SC5SC3 SLP170

CYQR;2010-09-23 02:00;CYQR 230200Z 12006KT 15SM SCT015 OVC025 07/05 A2998 RMK SC4SC4 SLP173

CYQR;2010-09-23 03:00;CYQR 230300Z 11006KT 15SM FEW015 BKN026 OVC031 07/05 A3000 RMK SC2SC3SC2 SLP178

CYQR;2010-09-23 03:45;CYQR 230345Z 12006KT 15SM FEW005 SCT024 OVC032 07/ RMK SF1SC3SC4

CYQR;2010-09-23 04:00;CYQR 230400Z 12006KT 15SM FEW005 SCT024 OVC032 07/06 A3000 RMK SF1SC3SC4 SLP177

CYQR;2010-09-23 05:00;CYQR 230500Z 13006KT 15SM FEW005 OVC040 07/05 A3000 RMK SF1SC7 SLP178

CYQR;2010-09-23 06:00;CYQR 230600Z 13004KT 15SM FEW005 OVC038 07/05 A2999 RMK SF1SC7 SLP173

CYQR;2010-09-23 07:00;CYQR 230700Z 13004KT 15SM FEW005 OVC037 07/05 A2999 RMK SF1SC7 SLP173

CYQR;2010-09-23 08:00;CYQR 230800Z 13007KT 15SM FEW005 OVC037 07/05 A2999 RMK SF1SC7 SLP173

CYQR;2010-09-23 09:00;CYQR 230900Z 12006KT 15SM FEW005 OVC037 06/05 A2997 RMK SF1SC7 SLP168

CYQR;2010-09-23 10:00;CYQR 231000Z 13006KT 15SM OVC035 06/05 A2998 RMK SC8 SLP170

CYQR;2010-09-23 11:00;CYQR 231100Z 13007KT 15SM OVC035 06/05 A2999 RMK SC8 SLP172

CYQR;2010-09-23 11:54;CYQR 231154Z 12003KT 15SM FEW005 OVC035 06/ RMK SF1SC7

CYQR;2010-09-23 12:00;CYQR 231200Z 13005KT 15SM FEW007 OVC037 06/05 A2997 RMK SF2SC6 SLP169

CYQR;2010-09-23 13:00;CYQR 231300Z 13007KT 15SM SCT008 OVC042 06/05 A2998 RMK SF3SC5 SLP170

CYQR;2010-09-23 13:37;CYQR 231337Z 12006KT 15SM SCT008 BKN012 OVC042 06/ RMK SF3SC2SC2

CYQR;2010-09-23 13:52;CYQR 231352Z 12006KT 15SM BKN009 OVC042 06/ RMK SC5SC3

CYQR;2010-09-23 14:00;CYQR 231400Z 12005KT 15SM SCT010 OVC042 06/05 A2996 RMK SC4SC4 SLP165

CYQR;2010-09-23 14:26;CYQR 231426Z 12007KT 15SM BKN008 OVC042 06/ RMK SC6SC2

CYQR;2010-09-23 15:00;CYQR 231500Z 12009KT 15SM BKN008 OVC042 06/05 A2997 RMK SC7SC1 SLP167

CYQR;2010-09-23 16:00;CYQR 231600Z 14007KT 15SM BKN009 OVC044 07/05 A2997 RMK SC7SC1 SLP167

CYQR;2010-09-23 16:47;CYQR 231647Z 13006KT 15SM BKN010 OVC044 07/ RMK SC5SC3

CYQR;2010-09-23 17:00;CYQR 231700Z 14007KT 15SM BKN010 OVC046 08/05 A2997 RMK SC6SC2 SLP169

CYQR;2010-09-23 18:00;CYQR 231800Z 14005KT 15SM BKN013 OVC046 08/06 A2997 RMK SC7SC1 SLP167

CYQR;2010-09-23 18:50;CYQR 231850Z 15007KT 15SM BKN015 OVC044 09/ RMK SC7SC1

CYQR;2010-09-23 19:00;CYQR 231900Z 13006KT 15SM BKN015 OVC041 09/06 A2997 RMK SC7SC1 SLP167

CYQR;2010-09-23 20:00;CYQR 232000Z 15005KT 15SM BKN017 OVC049 10/06 A2996 RMK SC7SC1 SLP164

CYQR;2010-09-23 21:00;CYQR 232100Z 18007KT 15SM OVC020 10/06 A2995 RMK SC8 SLP159

CYQR;2010-09-23 22:00;CYQR 232200Z 16008KT 15SM OVC018 10/06 A2995 RMK SC8 SLP158

CYQR;2010-09-23 23:00;CYQR 232300Z 15007KT 15SM OVC018 09/06 A2995 RMK SC8 SLP158

CYQR;2010-09-24 00:00;CYQR 240000Z 15008KT 15SM BKN019 OVC045 09/06 A2995 RMK SC6SC2 SLP160

CYQR;2010-09-24 01:00;CYQR 240100Z 18006KT 15SM BKN019 OVC037 09/06 A2995 RMK SC7SC1 SLP161

CYQR;2010-09-24 02:00;CYQR 240200Z 16005KT 15SM SCT019 OVC044 08/06 A2996 RMK SC4SC4 SLP165

CYQR;2010-09-24 03:00;CYQR 240300Z 15005KT 15SM SCT020 OVC042 08/06 A2997 RMK SC3SC5 SLP168

CYQR;2010-09-24 04:00;CYQR 240400Z 16006KT 15SM SCT020 BKN046 OVC069 07/06 A2998 RMK SC3SC3AC2 SLP171

CYQR;2010-09-24 05:00;CYQR 240500Z 16006KT 15SM SCT021 BKN041 OVC067 07/06 A2997 RMK SC3SC3AC2 SLP168

CYQR;2010-09-24 06:00;CYQR 240600Z 15009KT 15SM SCT041 OVC060 07/06 A2996 RMK SC4SC4 SLP163

CYQR;2010-09-24 07:00;CYQR 240700Z 16009KT 15SM SCT060 BKN260 06/05 A2995 RMK SC3CI1 SLP161

CYQR;2010-09-24 08:00;CYQR 240800Z 16007KT 15SM SCT019 BKN060 OVC260 05/04 A2996 RMK SC3SC2CI1 SLP164

CYQR;2010-09-24 09:00;CYQR 240900Z 16008KT 15SM SCT023 BKN060 BKN260 06/05 A2996 RMK SC3SC2CI0 SLP161

CYQR;2010-09-24 10:00;CYQR 241000Z 16010KT 15SM FEW025 FEW050 SCT076 BKN260 06/05 A2994 RMK SC1SC1AC2CI1 SLP156

CYQR;2010-09-24 11:00;CYQR 241100Z 16011KT 15SM SCT047 BKN076 BKN260 05/04 A2994 RMK SC3AC2CI0 SLP157

CYQR;2010-09-24 12:00;CYQR 241200Z 16010G16KT 15SM SCT034 BKN052 06/05 A2994 RMK SC3SC3 SLP155

CYQR;2010-09-24 13:00;CYQR 241300Z 16011KT 15SM FEW034 SCT066 BKN260 06/05 A2992 RMK SC2AC2CI1 SLP151

CYQR;2010-09-24 14:00;CYQR 241400Z 15012KT 15SM FEW035 BKN260 06/05 A2993 RMK SC1CI1 SLP153

CYQR;2010-09-24 15:00;CYQR 241500Z 17014KT 15SM FEW010 SCT260 08/06 A2994 RMK CF1CI1 SLP156

CYQR;2010-09-24 16:00;CYQR 241600Z 18008KT 15SM FEW012 FEW150 BKN280 10/07 A2994 RMK CF1AC1CI4 SLP157

CYQR;2010-09-24 17:00;CYQR 241700Z 17009KT 15SM FEW150 BKN280 11/07 A2994 RMK AC1CI3 SLP155

CYQR;2010-09-24 18:00;CYQR 241800Z 21008KT 15SM FEW150 BKN300 14/08 A2993 RMK AC1CI6 SLP148

CYQR;2010-09-24 19:00;CYQR 241900Z 27006G15KT 15SM FEW150 BKN300 17/08 A2992 RMK AC1CI4 SLP145

CYQR;2010-09-24 20:00;CYQR 242000Z 27010G15KT 15SM FEW150 BKN320 17/08 A2992 RMK AC1CI2 SLP145

CYQR;2010-09-24 21:00;CYQR 242100Z 31018KT 15SM FEW050 FEW150 SCT320 19/06 A2992 RMK CF1AC1CI1 SLP143

CYQR;2010-09-24 22:00;CYQR 242200Z 30016G21KT 15SM FEW050 FEW150 FEW320 19/06 A2994 RMK CU1AC1CI1 SLP148

CYQR;2010-09-24 23:00;CYQR 242300Z 31011G21KT 15SM FEW060 FEW150 FEW320 18/04 A2995 RMK CU1AC1CI1 SLP152

CYQR;2010-09-25 00:00;CYQR 250000Z 30011KT 15SM FEW060 SCT230 17/07 A2998 RMK CU1CI2 SLP164

CYQR;2010-09-25 01:00;CYQR 250100Z 31008KT 15SM FEW060 SCT230 12/07 A2999 RMK SC1CI2 SLP169

CYQR;2010-09-25 02:00;CYQR 250200Z 31006KT 15SM FEW060 SCT230 10/06 A3001 RMK SC1CI1 SLP176

CYQR;2010-09-25 03:00;CYQR 250300Z 28008KT 15SM FEW060 FEW230 08/05 A3004 RMK SC1CI1 SLP189

CYQR;2010-09-25 04:00;CYQR 250400Z 29005KT 15SM FEW060 FEW250 07/04 A3006 RMK SC1CI1 SLP197

CYQR;2010-09-25 05:00;CYQR 250500Z 30003KT 15SM SKC 06/04 A3009 RMK SLP206

CYQR;2010-09-25 06:00;CYQR 250600Z 31003KT 15SM SKC 05/03 A3010 RMK SLP211

CYQR;2010-09-25 07:00;CYQR 250700Z 00000KT 15SM SKC 04/03 A3012 RMK SLP215

CYQR;2010-09-25 08:00;CYQR 250800Z 31004KT 15SM SKC 04/03 A3013 RMK SLP219

CYQR;2010-09-25 09:00;CYQR 250900Z 00000KT 15SM SKC 03/02 A3013 RMK SLP217

CYQR;2010-09-25 10:00;CYQR 251000Z 23002KT 15SM SKC 02/01 A3013 RMK SLP217

CYQR;2010-09-25 11:00;CYQR 251100Z 21005KT 15SM SKC 02/01 A3014 RMK SLP221

CYQR;2010-09-25 12:00;CYQR 251200Z 11003KT 15SM SKC 01/00 A3015 RMK SLP227

CYQR;2010-09-25 13:00;CYQR 251300Z 13005KT 15SM FEW100 FEW250 01/00 A3016 RMK AC1CI1 SLP230

CYQR;2010-09-25 14:00;CYQR 251400Z 15004KT 15SM SCT250 05/03 A3016 RMK CI0 CONTRAILS SLP230

CYQR;2010-09-25 15:00;CYQR 251500Z 14006KT 15SM FEW250 08/05 A3015 RMK CI0 SLP227

CYQR;2010-09-25 16:00;CYQR 251600Z 17009KT 15SM FEW250 13/07 A3014 RMK CI1 SLP226

CYQR;2010-09-25 17:00;CYQR 251700Z 16010KT 15SM FEW250 16/07 A3014 RMK CI1 SLP224

CYQR;2010-09-25 18:00;CYQR 251800Z 17015KT 15SM FEW250 19/07 A3011 RMK CI1 SLP208

CYQR;2010-09-25 19:00;CYQR 251900Z 19014G19KT 15SM FEW250 21/06 A3008 RMK CI1 SLP199

CYQR;2010-09-25 20:00;CYQR 252000Z 21018G24KT 15SM SCT250 22/06 A3005 RMK CI2 SLP188

CYQR;2010-09-25 21:00;CYQR 252100Z 20015G21KT 15SM BKN250 22/06 A3002 RMK CI3 SLP178

CYQR;2010-09-25 22:00;CYQR 252200Z 19017G24KT 15SM BKN250 23/07 A2999 RMK CI2 SLP167

CYQR;2010-09-25 23:00;CYQR 252300Z 19015KT 15SM BKN250 23/08 A2996 RMK CI2 SLP157

CYQR;2010-09-26 00:00;CYQR 260000Z 20007KT 15SM BKN250 20/09 A2994 RMK CI4 SLP152

CYQR;2010-09-26 01:00;CYQR 260100Z 18008KT 15SM BKN250 15/08 A2992 RMK CI2 SLP145

CYQR;2010-09-26 02:00;CYQR 260200Z 18010KT 15SM BKN250 14/08 A2990 RMK CI1 SLP140

CYQR;2010-09-26 03:00;CYQR 260300Z 18010KT 15SM BKN250 14/08 A2989 RMK CI1 SLP135

CYQR;2010-09-26 04:00;CYQR 260400Z 18008KT 15SM SCT200 12/08 A2987 RMK CI0 OBS TAKEN -09 SLP129

CYQR;2010-09-26 05:00;CYQR 260500Z 20011KT 15SM BKN230 14/08 A2986 RMK CI0 CS ASOCTD SLP125

CYQR;2010-09-26 06:00;CYQR 260600Z 21011KT 15SM OVC230 13/08 A2985 RMK CS0 SLP113

CYQR;2010-09-26 07:00;CYQR 260700Z 21010KT 15SM BKN230 13/08 A2983 RMK CI2 SLP107

CYQR;2010-09-26 08:00;CYQR 260800Z 21009KT 15SM FEW200 12/08 A2981 RMK CI1 SLP101

CYQR;2010-09-26 09:00;CYQR 260900Z 20008KT 15SM SKC 11/08 A2979 RMK SLP093

CYQR;2010-09-26 10:00;CYQR 261000Z 20005KT 15SM SKC 10/07 A2978 RMK SLP091

CYQR;2010-09-26 11:00;CYQR 261100Z 22008KT 15SM SKC 10/08 A2976 RMK SLP085

CYQR;2010-09-26 12:00;CYQR 261200Z 23009KT 15SM SKC 11/08 A2977 RMK OBS TAKEN -10 SLP087

CYQR;2010-09-26 13:00;CYQR 261300Z 25008KT 15SM FEW110 10/07 A2976 RMK AC1 SLP086

CYQR;2010-09-26 14:00;CYQR 261400Z 23010KT 15SM FEW110 13/09 A2976 RMK AC1 SLP085

CYQR;2010-09-26 15:00;CYQR 261500Z 25013KT 15SM FEW110 18/09 A2976 RMK AC1 SLP085

CYQR;2010-09-26 16:00;CYQR 261600Z 26015KT 15SM FEW250 21/08 A2976 RMK CI1 SLP083

CYQR;2010-09-26 17:00;CYQR 261700Z 26014G19KT 15SM FEW250 24/08 A2974 RMK CI1 SLP079

CYQR;2010-09-26 18:00;CYQR 261800Z 26015KT 15SM FEW250 26/07 A2973 RMK CI1 SLP068

CYQR;2010-09-26 19:00;CYQR 261900Z 26013G18KT 15SM FEW250 27/07 A2971 RMK CI1 SLP064

CYQR;2010-09-26 20:00;CYQR 262000Z 27013G20KT 15SM FEW250 28/07 A2970 RMK CI2 SLP060

CYQR;2010-09-26 21:00;CYQR 262100Z 29011KT 15SM BKN250 29/08 A2969 RMK CI2 SLP056

CYQR;2010-09-26 22:00;CYQR 262200Z 34006KT 15SM FEW085 SCT250 28/08 A2968 RMK AC2CI1 SLP053

CYQR;2010-09-26 23:00;CYQR 262300Z 35006KT 15SM BKN110 BKN250 23/10 A2967 RMK AC6CI1 SLP049

CYQR;2010-09-27 00:00;CYQR 270000Z 34002KT 15SM BKN110 BKN250 23/09 A2968 RMK AC6CI1 SLP056

CYQR;2010-09-27 01:00;CYQR 270100Z 30009KT 15SM BKN110 20/09 A2971 RMK AC7 ACC EMBD VIRGA SLP065

CYQR;2010-09-27 02:00;CYQR 270200Z 27007KT 12SM BKN110 19/09 A2970 RMK AC7 SLP061

CYQR;2010-09-27 03:00;CYQR 270300Z 31015KT 15SM FEW090 19/07 A2970 RMK AC0 SLP061

CYQR;2010-09-27 04:00;CYQR 270400Z 29008KT 15SM FEW050 SCT090 15/08 A2973 RMK SC1AC2 OBS TAKEN -10 SLP071

CYQR;2010-09-27 05:00;CYQR 270500Z 30012KT 15SM FEW055 14/08 A2978 RMK SC2 SLP086

CYQR;2010-09-27 06:00;CYQR 270600Z 33013KT 15SM FEW085 14/10 A2983 RMK AC1 SLP103

CYQR;2010-09-27 07:00;CYQR 270700Z 32011KT 15SM FEW085 13/10 A2987 RMK AC1 SLP115

CYQR;2010-09-27 08:00;CYQR 270800Z 32008KT 15SM FEW025 FEW085 11/10 A2990 RMK SC1AC2 SLP125

CYQR;2010-09-27 09:00;CYQR 270900Z 32011KT 15SM FEW085 11/09 A2994 RMK AC1 SLP139

CYQR;2010-09-27 10:00;CYQR 271000Z 30010KT 15SM SKC 09/08 A2997 RMK SLP150

CYQR;2010-09-27 11:00;CYQR 271100Z 30007KT 15SM SKC 08/07 A2999 RMK SLP157

CYQR;2010-09-27 12:00;CYQR 271200Z 31008KT 15SM SKC 07/06 A3001 RMK OBS TAKEN -09 SLP171

CYQR;2010-09-27 13:00;CYQR 271300Z 32007KT 15SM FEW210 06/05 A3003 RMK CI1 SLP177

CYQR;2010-09-27 14:00;CYQR 271400Z 29005KT 15SM FEW030 FEW210 08/07 A3005 RMK SC1CI1 SLP183

CYQR;2010-09-27 15:00;CYQR 271500Z 29009KT 15SM FEW030 FEW270 10/08 A3007 RMK SC1CI1 SLP193

CYQR;2010-09-27 16:00;CYQR 271600Z 30008KT 15SM FEW270 13/09 A3009 RMK CI0 SLP197

CYQR;2010-09-27 17:00;CYQR 271700Z 28005KT 15SM BKN270 15/09 A3009 RMK CI2 SLP199

CYQR;2010-09-27 18:00;CYQR 271800Z 28006KT 15SM BKN270 18/09 A3009 RMK CI1 SLP196

CYQR;2010-09-27 19:00;CYQR 271900Z 29007KT 15SM BKN270 19/09 A3008 RMK CI2 SLP193

CYQR;2010-09-27 20:00;CYQR 272000Z 27008KT 15SM BKN270 21/07 A3007 RMK CI2 SLP190

CYQR;2010-09-27 21:00;CYQR 272100Z 27010KT 15SM FEW270 21/06 A3005 RMK CI1 SLP182

CYQR;2010-09-27 22:00;CYQR 272200Z 21009KT 15SM FEW270 22/06 A3002 RMK CI1 SLP173

CYQR;2010-09-27 23:00;CYQR 272300Z 22005KT 15SM FEW270 21/05 A3000 RMK CI1 SLP167

CYQR;2010-09-28 00:00;CYQR 280000Z 18005KT 15SM SCT270 20/04 A2999 RMK CI2 SLP165

CYQR;2010-09-28 01:00;CYQR 280100Z 14008KT 15SM SCT270 15/06 A2996 RMK CI1 SLP157

CYQR;2010-09-28 02:00;CYQR 280200Z 16010KT 15SM FEW270 15/06 A2996 RMK CI1 SLP154

CYQR;2010-09-28 03:00;CYQR 280300Z 16011KT 15SM SKC 14/06 A2995 RMK SLP155

CYQR;2010-09-28 04:00;CYQR 280400Z 16011KT 15SM SKC 12/06 A2993 RMK OBS TAKEN -10 SLP149

CYQR;2010-09-28 05:00;CYQR 280500Z 15011KT 15SM SKC 12/06 A2991 RMK SLP142

CYQR;2010-09-28 06:00;CYQR 280600Z 14011KT 15SM SKC 11/06 A2989 RMK SLP129

CYQR;2010-09-28 07:00;CYQR 280700Z 15011KT 15SM SKC 11/06 A2985 RMK SLP117

CYQR;2010-09-28 08:00;CYQR 280800Z 16011KT 15SM SKC 11/07 A2982 RMK SLP108

CYQR;2010-09-28 09:00;CYQR 280900Z 16011KT 15SM SKC 11/07 A2979 RMK SLP093

CYQR;2010-09-28 10:00;CYQR 281000Z 15011KT 15SM SKC 11/07 A2976 RMK SLP086

CYQR;2010-09-28 11:00;CYQR 281100Z 16012KT 15SM SKC 11/08 A2972 RMK SLP073

CYQR;2010-09-28 12:00;CYQR 281200Z 16008KT 15SM SKC 11/08 A2971 RMK OBS TAKEN -10 SLP069

CYQR;2010-09-28 13:00;CYQR 281300Z 17007KT 15SM FEW100 10/08 A2968 RMK AC1 SLP059

CYQR;2010-09-28 14:00;CYQR 281400Z 22006KT 15SM FEW240 13/10 A2967 RMK CI1 SLP054

CYQR;2010-09-28 15:00;CYQR 281500Z 24007KT 15SM SKC 18/11 A2965 RMK SLP047

CYQR;2010-09-28 16:00;CYQR 281600Z 28007KT 15SM FEW100 20/12 A2965 RMK AC1 SLP045

CYQR;2010-09-28 17:00;CYQR 281700Z 29013KT 15SM SKC 22/13 A2962 RMK SLP038

CYQR;2010-09-28 18:00;CYQR 281800Z 30012KT 15SM SKC 23/13 A2960 RMK SLP027

CYQR;2010-09-28 19:00;CYQR 281900Z 27012G18KT 15SM SKC 24/13 A2958 RMK SLP021

CYQR;2010-09-28 20:00;CYQR 282000Z 29016KT 15SM SKC 25/13 A2957 RMK SLP018

CYQR;2010-09-28 21:00;CYQR 282100Z 29017KT 15SM FEW050 26/13 A2955 RMK CF1 SLP008

CYQR;2010-09-28 22:00;CYQR 282200Z 32019G25KT 15SM FEW050 25/12 A2956 RMK CF1 SLP010

CYQR;2010-09-28 23:00;CYQR 282300Z 32019G24KT 15SM FEW040 24/12 A2957 RMK SC1 SLP014

CYQR;2010-09-29 00:00;CYQR 290000Z 34016G21KT 15SM FEW060 21/11 A2960 RMK SC1 SLP029

CYQR;2010-09-29 01:00;CYQR 290100Z 33010KT 15SM SCT090 18/10 A2963 RMK AC3 SLP039

CYQR;2010-09-29 02:00;CYQR 290200Z 33012KT 15SM BKN090 17/09 A2966 RMK AC6 SLP050

CYQR;2010-09-29 03:00;CYQR 290300Z 33014KT 15SM BKN038 OVC077 16/08 A2970 RMK SC6AC2 SLP060

CYQR;2010-09-29 04:00;CYQR 290400Z 32018KT 15SM SCT035 OVC087 15/08 A2973 RMK SC4AC4 OBS TAKEN -10 SLP072

CYQR;2010-09-29 04:31;CYQR 290431Z 32016KT 15SM -SHRA BKN054 OVC070 14/ RMK SC5AC3 CVCTV CLD EMBD

CYQR;2010-09-29 05:00;CYQR 290500Z 30013G18KT 15SM BKN037 OVC070 14/09 A2976 RMK SC5AC3 SLP081

CYQR;2010-09-29 06:00;CYQR 290600Z 30014KT 15SM FEW035 SCT075 12/09 A2978 RMK SC1AC2 SLP088

CYQR;2010-09-29 07:00;CYQR 290700Z 31016G21KT 15SM SKC 11/08 A2980 RMK SLP095

CYQR;2010-09-29 08:00;CYQR 290800Z 28010G16KT 15SM SKC 10/08 A2982 RMK SLP101

CYQR;2010-09-29 09:00;CYQR 290900Z 30010KT 15SM FEW090 10/08 A2984 RMK AC0 SLP108

CYQR;2010-09-29 10:00;CYQR 291000Z 31013G18KT 15SM SKC 10/08 A2986 RMK SLP116

CYQR;2010-09-29 11:00;CYQR 291100Z 30012KT 15SM SKC 10/08 A2989 RMK SLP124

CYQR;2010-09-29 12:00;CYQR 291200Z 30010KT 15SM SKC 09/08 A2992 RMK SLP140

CYQR;2010-09-29 13:00;CYQR 291300Z 29012KT 15SM SKC 09/07 A2995 RMK SLP148

CYQR;2010-09-29 14:00;CYQR 291400Z 29013KT 15SM FEW270 09/08 A2997 RMK CI1 SLP155

CYQR;2010-09-29 15:00;CYQR 291500Z 30016KT 15SM SKC 11/08 A2999 RMK SLP164

CYQR;2010-09-29 16:00;CYQR 291600Z 31017KT 15SM SKC 14/08 A3000 RMK SLP168

CYQR;2010-09-29 17:00;CYQR 291700Z 31015G20KT 15SM SKC 16/09 A3001 RMK SLP172

CYQR;2010-09-29 18:00;CYQR 291800Z 31015KT 15SM SKC 18/08 A3001 RMK SLP173

CYQR;2010-09-29 19:00;CYQR 291900Z 30022G27KT 15SM FEW042 19/08 A3001 RMK CU1 SLP171

CYQR;2010-09-29 20:00;CYQR 292000Z 30021G33KT 15SM FEW060 20/07 A3001 RMK CU1 SLP171

CYQR;2010-09-29 21:00;CYQR 292100Z 31021G30KT 15SM FEW060 19/06 A3001 RMK CU1 SLP170

CYQR;2010-09-29 22:00;CYQR 292200Z 30023G30KT 15SM FEW060 19/05 A3001 RMK CU1 SLP171

CYQR;2010-09-29 23:00;CYQR 292300Z 32019G25KT 15SM SKC 19/03 A3001 RMK SLP172

CYQR;2010-09-30 00:00;CYQR 300000Z 32020G26KT 15SM FEW300 18/03 A3003 RMK CI0 SLP180

CYQR;2010-09-30 01:00;CYQR 300100Z 30008KT 15SM FEW300 11/04 A3004 RMK CI1 SLP184

CYQR;2010-09-30 02:00;CYQR 300200Z 29010KT 15SM FEW090 09/04 A3005 RMK AC1 SLP187

CYQR;2010-09-30 03:00;CYQR 300300Z 28008KT 15SM SKC 08/03 A3007 RMK SLP198

CYQR;2010-09-30 04:00;CYQR 300400Z 28007KT 15SM SKC 06/02 A3007 RMK OBS TAKEN -10 SLP200

CYQR;2010-09-30 05:00;CYQR 300500Z 30004KT 15SM FEW250 06/02 A3009 RMK CI0 SLP206

CYQR;2010-09-30 06:00;CYQR 300600Z 29007KT 15SM SKC 04/01 A3010 RMK SLP208

CYQR;2010-09-30 07:00;CYQR 300700Z 27006KT 15SM SKC 03/01 A3010 RMK SLP209

CYQR;2010-09-30 08:00;CYQR 300800Z 26003KT 15SM SKC 03/01 A3011 RMK SLP210

CYQR;2010-09-30 09:00;CYQR 300900Z 24004KT 15SM SKC 02/M00 A3011 RMK SLP212

CYQR;2010-09-30 10:00;CYQR 301000Z 31002KT 15SM SKC 03/01 A3012 RMK SLP213

CYQR;2010-09-30 11:00;CYQR 301100Z 00000KT 15SM SKC 03/00 A3013 RMK SLP216

CYQR;2010-09-30 12:00;CYQR 301200Z 15002KT 15SM SKC 02/01 A3012 RMK OBS TAKEN -10 SLP215

CYQR;2010-09-30 13:00;CYQR 301300Z 19005KT 15SM FEW120 01/M00 A3012 RMK AC1 SLP214

CYQR;2010-09-30 14:00;CYQR 301400Z 15004KT 15SM FEW120 FEW280 05/03 A3012 RMK AC1CI1 SLP216

CYQR;2010-09-30 15:00;CYQR 301500Z 14003KT 15SM FEW120 FEW280 09/05 A3012 RMK AC1CC1 SLP219

CYQR;2010-09-30 16:00;CYQR 301600Z 21004KT 15SM FEW120 SCT280 13/05 A3012 RMK AC2CC2 SLP219

CYQR;2010-09-30 17:00;CYQR 301700Z 19006KT 15SM FEW120 FEW280 17/06 A3011 RMK AC1CI1 SLP215

CYQR;2010-09-30 18:00;CYQR 301800Z 25008KT 15SM FEW120 FEW280 20/06 A3009 RMK AC1CI1 SLP201

CYQR;2010-09-30 19:00;CYQR 301900Z 25006KT 15SM FEW060 FEW140 FEW320 21/06 A3007 RMK CF1AC2CC1 SLP195

CYQR;2010-09-30 20:00;CYQR 302000Z 29009KT 15SM FEW085 FEW140 FEW330 22/08 A3004 RMK AC2AC1CC1 ACSL SLP187

CYQR;2010-09-30 21:00;CYQR 302100Z 28008KT 15SM FEW070 FEW140 FEW330 23/08 A3002 RMK AC1AC1CI1 ACSL SLP178

CYQR;2010-09-30 22:00;CYQR 302200Z 27014KT 15SM FEW074 22/08 A3001 RMK CU1 SLP175

CYQR;2010-09-30 23:00;CYQR 302300Z 28009KT 15SM FEW072 21/09 A3000 RMK CU1 SLP173

CYQR;2010-10-01 01:00;CYQR 010100Z 34004KT 8SM FEW055 15/08 A3001 RMK SC1 HZ SLP176

CYQR;2010-10-01 02:00;CYQR 010200Z CCA 35007KT 8SM FEW055 FEW080 12/07 A3003 RMK SC1AC1 HZ SLP182

CYQR;2010-10-01 03:00;CYQR 010300Z 05009KT 15SM FEW072 14/06 A3005 RMK AC2 SLP190

CYQR;2010-10-01 04:00;CYQR 010400Z 07014G19KT 15SM SKC 14/05 A3008 RMK SLP199

CYQR;2010-10-01 05:00;CYQR 010500Z 07011G17KT 15SM FEW086 13/04 A3012 RMK AC1 SLP212

CYQR;2010-10-01 06:00;CYQR 010600Z 06005KT 15SM FEW082 10/03 A3015 RMK AC1 SLP220

CYQR;2010-10-01 07:00;CYQR 010700Z 34007KT 15SM SKC 06/03 A3020 RMK SLP234

CYQR;2010-10-01 08:00;CYQR 010800Z 03006KT 15SM SKC 06/03 A3022 RMK SLP242

CYQR;2010-10-01 09:00;CYQR 010900Z 05007KT 15SM SKC 07/05 A3025 RMK SLP253

CYQR;2010-10-01 10:00;CYQR 011000Z 34008KT 15SM SKC 03/02 A3028 RMK SLP263

CYQR;2010-10-01 11:00;CYQR 011100Z 01008KT 15SM SKC 03/02 A3031 RMK SLP273

CYQR;2010-10-01 12:00;CYQR 011200Z 03005KT 15SM SKC 03/01 A3034 RMK SLP288

CYQR;2010-10-01 13:00;CYQR 011300Z 05008KT 15SM SKC 05/03 A3036 RMK SLP295

CYQR;2010-10-01 14:00;CYQR 011400Z 09009KT 15SM SKC 07/04 A3038 RMK SLP302

CYQR;2010-10-01 15:00;CYQR 011500Z 09010KT 15SM SKC 10/05 A3041 RMK SLP313

CYQR;2010-10-01 16:00;CYQR 011600Z 11010G15KT 15SM FEW290 11/04 A3043 RMK CI1 SLP319

CYQR;2010-10-01 17:00;CYQR 011700Z 14008KT 15SM FEW290 13/05 A3045 RMK CI1 SLP324

CYQR;2010-10-01 18:00;CYQR 011800Z 11007KT 15SM FEW038 FEW300 15/05 A3045 RMK CF1CI1 SLP326

CYQR;2010-10-01 19:00;CYQR 011900Z 12006KT 15SM FEW042 FEW300 14/04 A3045 RMK CU1CC0 SLP325

CYQR;2010-10-01 21:00;CYQR 012100Z 08004KT 15SM FEW053 FEW300 16/04 A3043 RMK CU1CI0 SLP321

CYQR;2010-10-01 22:00;CYQR 012200Z 11005KT 15SM FEW053 SCT300 16/03 A3043 RMK CU1CI0 SLP319

CYQR;2010-10-01 23:00;CYQR 012300Z 10006KT 15SM FEW300 15/03 A3042 RMK CI0 SLP317

CYQR;2010-10-02 00:00;CYQR 020000Z 11008KT 15SM FEW300 14/03 A3041 RMK CI0 SLP319

CYQR;2010-10-02 01:00;CYQR 020100Z 12007KT 15SM FEW300 10/03 A3041 RMK CI0 SLP318

CYQR;2010-10-02 02:00;CYQR 020200Z 12009KT 15SM SKC 09/03 A3040 RMK SLP316

CYQR;2010-10-02 03:00;CYQR 020300Z 12010KT 15SM SKC 08/02 A3040 RMK SLP314

CYQR;2010-10-02 04:00;CYQR 020400Z 12012KT 15SM SKC 08/02 A3040 RMK SLP314

CYQR;2010-10-02 05:00;CYQR 020500Z 13011KT 15SM SKC 07/01 A3040 RMK SLP313

CYQR;2010-10-02 06:00;CYQR 020600Z 13011G16KT 15SM SKC 06/00 A3040 RMK SLP309

CYQR;2010-10-02 07:00;CYQR 020700Z 15011KT 15SM SKC 05/00 A3040 RMK SLP309

CYQR;2010-10-02 08:00;CYQR 020800Z 15010KT 15SM SKC 04/00 A3038 RMK SLP304

CYQR;2010-10-02 09:00;CYQR 020900Z 15011KT 15SM SKC 03/M00 A3037 RMK SLP302

CYQR;2010-10-02 10:00;CYQR 021000Z 15013KT 15SM SKC 03/00 A3035 RMK SLP296

CYQR;2010-10-02 11:00;CYQR 021100Z 14014KT 15SM SKC 03/00 A3034 RMK SLP292

CYQR;2010-10-02 12:00;CYQR 021200Z 15014KT 15SM SKC 03/00 A3033 RMK SLP291

CYQR;2010-10-02 13:00;CYQR 021300Z 15010KT 15SM FEW300 03/00 A3032 RMK CI1 SLP287

CYQR;2010-10-02 14:00;CYQR 021400Z 15012KT 15SM FEW300 04/01 A3031 RMK CI1 SLP284

CYQR;2010-10-02 15:00;CYQR 021500Z 17014G19KT 15SM FEW300 07/02 A3030 RMK CI1 SLP280

CYQR;2010-10-02 16:00;CYQR 021600Z 16018G24KT 15SM FEW300 10/03 A3028 RMK CI1 SLP274

CYQR;2010-10-02 17:00;CYQR 021700Z 17019G29KT 15SM SKC 12/04 A3024 RMK SLP260

CYQR;2010-10-02 18:00;CYQR 021800Z 16023G30KT 15SM SKC 14/04 A3022 RMK SLP248

CYQR;2010-10-02 19:00;CYQR 021900Z 16023G30KT 15SM SKC 16/04 A3018 RMK SLP237

CYQR;2010-10-02 20:00;CYQR 022000Z 16023G30KT 15SM SKC 17/05 A3015 RMK SLP228

CYQR;2010-10-02 21:00;CYQR 022100Z 17021G30KT 15SM SKC 17/05 A3012 RMK SLP216

CYQR;2010-10-02 22:00;CYQR 022200Z 16022G28KT 15SM SKC 17/05 A3009 RMK SLP206

CYQR;2010-10-02 23:00;CYQR 022300Z 17017G25KT 15SM SKC 17/04 A3007 RMK SLP199

CYQR;2010-10-03 00:00;CYQR 030000Z 16015G20KT 15SM SKC 16/04 A3005 RMK SLP194

CYQR;2010-10-03 01:00;CYQR 030100Z 15015KT 15SM SKC 14/03 A3004 RMK SLP188

CYQR;2010-10-03 02:00;CYQR 030200Z 15016KT 15SM SKC 12/03 A3002 RMK SLP183

CYQR;2010-10-03 03:00;CYQR 030300Z 15014KT 15SM SKC 11/02 A3002 RMK SLP183

CYQR;2010-10-03 04:00;CYQR 030400Z 15015KT 15SM SKC 10/01 A3000 RMK SLP177

CYQR;2010-10-03 05:00;CYQR 030500Z 15012KT 15SM SKC 10/01 A2999 RMK SLP173

CYQR;2010-10-03 06:00;CYQR 030600Z 15012KT 15SM SKC 09/01 A2998 RMK SLP166

CYQR;2010-10-03 07:00;CYQR 030700Z 14013KT 15SM SKC 08/01 A2997 RMK SLP162

CYQR;2010-10-03 08:00;CYQR 030800Z 14012KT 15SM SKC 07/01 A2996 RMK SLP159

CYQR;2010-10-03 09:00;CYQR 030900Z 15011KT 15SM SKC 07/01 A2995 RMK SLP154

CYQR;2010-10-03 10:00;CYQR 031000Z 14013KT 15SM SKC 06/01 A2994 RMK SLP150

CYQR;2010-10-03 11:00;CYQR 031100Z 14010KT 15SM SKC 05/01 A2993 RMK SLP149

CYQR;2010-10-03 12:00;CYQR 031200Z 13011KT 15SM SKC 05/01 A2993 RMK SLP151

CYQR;2010-10-03 13:00;CYQR 031300Z 13012KT 15SM FEW280 05/01 A2993 RMK CI0 SLP151

CYQR;2010-10-03 14:00;CYQR 031400Z 14011KT 15SM FEW280 05/01 A2992 RMK CI1 SLP146

CYQR;2010-10-03 15:00;CYQR 031500Z 14010KT 15SM FEW280 08/02 A2993 RMK CI1 SLP150

CYQR;2010-10-03 16:00;CYQR 031600Z 14009KT 15SM FEW280 11/04 A2993 RMK CI0 SLP149

CYQR;2010-10-03 17:00;CYQR 031700Z 14007KT 15SM FEW280 15/06 A2991 RMK CI0 SLP145

CYQR;2010-10-03 18:00;CYQR 031800Z 18006KT 15SM FEW280 17/07 A2991 RMK CI0 SLP140

CYQR;2010-10-03 19:00;CYQR 031900Z 16006KT 15SM SKC 20/09 A2990 RMK SLP135

CYQR;2010-10-03 20:00;CYQR 032000Z 15007KT 15SM SKC 22/09 A2988 RMK SLP129

CYQR;2010-10-03 21:00;CYQR 032100Z 17007KT 15SM SKC 24/10 A2987 RMK SLP122

CYQR;2010-10-03 22:00;CYQR 032200Z 22004KT 15SM SKC 25/10 A2986 RMK SLP121

CYQR;2010-10-03 23:00;CYQR 032300Z 00000KT 15SM SKC 25/12 A2986 RMK SLP120

CYQR;2010-10-04 00:00;CYQR 040000Z 10003KT 15SM SKC 22/11 A2986 RMK SLP123

CYQR;2010-10-04 01:00;CYQR 040100Z 12008KT 15SM FEW300 17/09 A2986 RMK CI0 SLP123

CYQR;2010-10-04 02:00;CYQR 040200Z 12009KT 15SM FEW300 16/09 A2986 RMK CI0 SLP122

CYQR;2010-10-04 03:00;CYQR 040300Z 13011KT 15SM FEW300 15/08 A2987 RMK CI0 SLP126

CYQR;2010-10-04 04:00;CYQR 040400Z 13011KT 15SM FEW300 15/08 A2987 RMK CI0 SLP126

CYQR;2010-10-04 05:00;CYQR 040500Z 12009KT 15SM FEW300 12/08 A2987 RMK CI0 SLP127

CYQR;2010-10-04 06:00;CYQR 040600Z 12009KT 15SM FEW300 11/08 A2988 RMK CI0 SLP126

CYQR;2010-10-04 07:00;CYQR 040700Z 12009KT 15SM FEW300 10/07 A2987 RMK CI0 SLP125

CYQR;2010-10-04 09:00;CYQR 040900Z 12009KT 15SM FEW300 09/07 A2988 RMK CI0 SLP123

CYQR;2010-10-04 10:00;CYQR 041000Z 12009KT 15SM FEW300 09/07 A2987 RMK CI0 SLP120

CYQR;2010-10-04 11:00;CYQR 041100Z 12009KT 15SM FEW300 09/06 A2987 RMK CI0 SLP120

CYQR;2010-10-04 12:00;CYQR 041200Z 12011KT 15SM FEW300 08/06 A2987 RMK CI0 SLP124

CYQR;2010-10-04 13:00;CYQR 041300Z 13009KT 15SM FEW300 08/06 A2987 RMK CI0 SLP123

CYQR;2010-10-04 14:00;CYQR 041400Z 13011KT 15SM FEW100 FEW300 09/06 A2986 RMK AC1CI1 SLP121

CYQR;2010-10-04 15:00;CYQR 041500Z 14014KT 15SM FEW100 FEW300 10/07 A2986 RMK AC1CI1 SLP120

CYQR;2010-10-04 16:00;CYQR 041600Z 13012KT 15SM FEW100 SCT300 14/09 A2986 RMK AC2CI1 SLP120

CYQR;2010-10-04 17:00;CYQR 041700Z 15018KT 15SM FEW100 SCT300 18/10 A2983 RMK AC1CI1 SLP113

CYQR;2010-10-04 18:00;CYQR 041800Z 14017KT 15SM FEW100 SCT300 20/11 A2982 RMK AC1CI1 SLP106

CYQR;2010-10-04 19:00;CYQR 041900Z 16017KT 15SM SKC 23/10 A2982 RMK SLP104

CYQR;2010-10-04 20:00;CYQR 042000Z 15014G20KT 15SM SKC 25/10 A2981 RMK SLP100

CYQR;2010-10-04 21:00;CYQR 042100Z 16014KT 15SM SKC 25/11 A2980 RMK SLP096

CYQR;2010-10-04 22:00;CYQR 042200Z 14011KT 15SM SKC 26/11 A2979 RMK SLP093

CYQR;2010-10-04 23:00;CYQR 042300Z 13013KT 15SM SKC 25/11 A2978 RMK SLP090

CYQR;2010-10-05 00:00;CYQR 050000Z 13011KT 15SM SKC 23/11 A2978 RMK SLP091

CYQR;2010-10-05 01:00;CYQR 050100Z 13013G18KT 15SM FEW120 20/11 A2979 RMK AC1 SLP093

CYQR;2010-10-05 02:00;CYQR 050200Z 13011KT 15SM SKC 18/10 A2980 RMK SLP097

CYQR;2010-10-05 03:00;CYQR 050300Z 13015KT 15SM FEW120 16/10 A2981 RMK AC0 SLP104

CYQR;2010-10-05 04:00;CYQR 050400Z 12014KT 15SM SKC 15/10 A2980 RMK SLP101

CYQR;2010-10-05 05:00;CYQR 050500Z 14014KT 15SM SKC 13/09 A2980 RMK SLP102

CYQR;2010-10-05 06:00;CYQR 050600Z 14010KT 15SM SKC 12/09 A2981 RMK SLP100

CYQR;2010-10-05 07:00;CYQR 050700Z 13008KT 15SM SKC 11/08 A2981 RMK SLP099

CYQR;2010-10-05 08:00;CYQR 050800Z 14010KT 15SM SKC 10/08 A2981 RMK SLP099

CYQR;2010-10-05 09:00;CYQR 050900Z 14010KT 15SM SKC 09/08 A2980 RMK SLP095

CYQR;2010-10-05 10:00;CYQR 051000Z 15008KT 15SM SKC 09/07 A2981 RMK SLP097

CYQR;2010-10-05 11:00;CYQR 051100Z 16003KT 15SM SKC 07/06 A2981 RMK SLP100

CYQR;2010-10-05 12:00;CYQR 051200Z 14004KT 15SM FEW160 07/06 A2983 RMK AC1 SLP109

CYQR;2010-10-05 13:00;CYQR 051300Z 25005KT 15SM BKN160 BKN300 06/05 A2986 RMK AC5CI0 SLP119

CYQR;2010-10-05 14:00;CYQR 051400Z 33004KT 15SM BKN140 08/07 A2987 RMK AC5 HZ SLP122

CYQR;2010-10-05 15:00;CYQR 051500Z 31011KT 6SM BR SCT140 BKN260 11/10 A2991 RMK AC3CI1 SLP140

CYQR;2010-10-05 16:00;CYQR 051600Z 33019G25KT 15SM FEW140 FEW260 15/11 A2994 RMK AC1CI0 SLP148

CYQR;2010-10-05 17:00;CYQR 051700Z 33018G25KT 15SM FEW140 SCT260 16/11 A2997 RMK AC2CI0 SLP157

CYQR;2010-10-05 18:00;CYQR 051800Z 31024KT 15SM FEW050 SCT120 BKN260 16/11 A3000 RMK SC2AC2CI2 SLP170

CYQR;2010-10-05 19:00;CYQR 051900Z 32022G32KT 15SM BKN021 BKN120 BKN260 14/09 A3004 RMK SC5AC2CI1 SLP182

CYQR;2010-10-05 20:00;CYQR 052000Z 32021KT 15SM BKN017 BKN089 14/09 A3007 RMK SC6AC2 SLP191

CYQR;2010-10-05 21:00;CYQR 052100Z 31022KT 15SM FEW017 FEW027 SCT071 BKN091 BKN230 OVC280 15/09 A3009 RMK SC1SC2AC2AC2CI1CI0 SLP202

CYQR;2010-10-05 22:00;CYQR 052200Z 31020G28KT 15SM FEW034 BKN100 BKN280 14/08 A3012 RMK SC2AC3CI2 CC ASOCTD SLP213

CYQR;2010-10-05 23:00;CYQR 052300Z 31012KT 15SM SCT098 BKN280 15/06 A3015 RMK AC4CI1 SLP220

CYQR;2010-10-06 00:00;CYQR 060000Z 32016G22KT 15SM SCT280 14/02 A3017 RMK CI1 SLP233

CYQR;2010-10-06 01:00;CYQR 060100Z 30013KT 15SM FEW280 11/02 A3020 RMK CI1 SLP241

CYQR;2010-10-06 02:00;CYQR 060200Z 30012KT 15SM FEW280 09/01 A3022 RMK CI0 SLP247

CYQR;2010-10-06 03:00;CYQR 060300Z 28008KT 15SM FEW280 05/00 A3024 RMK CI0 SLP259

CYQR;2010-10-06 04:00;CYQR 060400Z 27009KT 15SM FEW280 05/M00 A3025 RMK CI0 SLP263

CYQR;2010-10-06 05:00;CYQR 060500Z 27007KT 15SM FEW280 03/M01 A3028 RMK CI0 SLP271

CYQR;2010-10-06 06:00;CYQR 060600Z 26006KT 15SM FEW280 02/M01 A3029 RMK CI0 SLP275

CYQR;2010-10-06 07:00;CYQR 060700Z 26009KT 15SM FEW280 01/M02 A3030 RMK CI1 SLP277

CYQR;2010-10-06 08:00;CYQR 060800Z 25009KT 15SM FEW280 01/M02 A3029 RMK CI1 SLP276

CYQR;2010-10-06 09:00;CYQR 060900Z 26006KT 15SM FEW280 02/00 A3028 RMK CI1 SLP273

CYQR;2010-10-06 10:00;CYQR 061000Z 25005KT 15SM FEW280 02/M00 A3028 RMK CI1 SLP271

CYQR;2010-10-06 11:00;CYQR 061100Z 25007KT 15SM FEW280 02/00 A3029 RMK CI1 SLP275

CYQR;2010-10-06 12:00;CYQR 061200Z 20006KT 15SM FEW280 02/01 A3027 RMK CI1 SLP271

CYQR;2010-10-06 13:00;CYQR 061300Z 21006KT 15SM SCT280 02/M00 A3026 RMK CI1 SLP268

CYQR;2010-10-06 14:00;CYQR 061400Z 20004KT 15SM FEW280 03/02 A3026 RMK CI1 SLP267

CYQR;2010-10-06 15:00;CYQR 061500Z 25009KT 15SM FEW280 09/06 A3026 RMK CI0 SLP267

CYQR;2010-10-06 16:00;CYQR 061600Z 26012G17KT 15SM FEW280 12/08 A3026 RMK CI0 SLP267

CYQR;2010-10-06 17:00;CYQR 061700Z 25014G21KT 15SM FEW280 16/09 A3025 RMK CI1 SLP265

CYQR;2010-10-06 18:00;CYQR 061800Z 27018KT 15SM SCT280 17/09 A3023 RMK CI1 SLP254

CYQR;2010-10-06 19:00;CYQR 061900Z 27016KT 15SM SCT280 19/09 A3021 RMK CI1 CONTRAILS SLP247

CYQR;2010-10-06 20:00;CYQR 062000Z 27010G16KT 15SM SCT280 20/09 A3019 RMK CI1 SLP240

CYQR;2010-10-06 21:00;CYQR 062100Z 26006KT 15SM SCT280 21/08 A3017 RMK CI1 SLP230

CYQR;2010-10-06 22:00;CYQR 062200Z 28005KT 15SM BKN280 21/08 A3015 RMK CI2 CONTRAILS SLP224

CYQR;2010-10-06 23:00;CYQR 062300Z 27008KT 15SM SCT280 21/07 A3012 RMK CI0 SLP215

CYQR;2010-10-07 00:00;CYQR 070000Z 24005KT 15SM FEW280 18/08 A3010 RMK CI1 CONTRAILS SLP210

CYQR;2010-10-07 01:00;CYQR 070100Z 22007KT 15SM FEW280 13/07 A3010 RMK CI0 SLP208

CYQR;2010-10-07 02:00;CYQR 070200Z 19006KT 15SM SKC 12/07 A3010 RMK SLP208

CYQR;2010-10-07 03:00;CYQR 070300Z 17006KT 15SM SKC 11/06 A3009 RMK SLP204

CYQR;2010-10-07 04:00;CYQR 070400Z 16006KT 15SM SKC 11/07 A3008 RMK SLP203

CYQR;2010-10-07 05:00;CYQR 070500Z 18007KT 15SM SKC 09/06 A3007 RMK SLP200

CYQR;2010-10-07 06:00;CYQR 070600Z 18008KT 15SM SKC 08/05 A3005 RMK SLP190

CYQR;2010-10-07 07:00;CYQR 070700Z 17006KT 15SM SKC 07/05 A3005 RMK SLP187

CYQR;2010-10-07 08:00;CYQR 070800Z 16006KT 15SM SKC 08/05 A3004 RMK SLP184

CYQR;2010-10-07 09:00;CYQR 070900Z 13006KT 15SM SKC 06/04 A3002 RMK SLP176

CYQR;2010-10-07 10:00;CYQR 071000Z 13008KT 15SM SKC 06/04 A3000 RMK SLP169

CYQR;2010-10-07 11:00;CYQR 071100Z 13008KT 15SM SKC 06/04 A2999 RMK SLP165

CYQR;2010-10-07 12:00;CYQR 071200Z 13009KT 15SM SKC 06/04 A2997 RMK SLP160

CYQR;2010-10-07 13:00;CYQR 071300Z 13008KT 15SM FEW140 06/03 A2996 RMK AC1 SLP156

CYQR;2010-10-07 14:00;CYQR 071400Z 13008KT 15SM FEW080 FEW250 07/04 A2993 RMK AC1CI1 SLP149

CYQR;2010-10-07 15:00;CYQR 071500Z 14008KT 15SM FEW140 FEW250 10/06 A2993 RMK AC1CI1 SLP148

CYQR;2010-10-07 16:00;CYQR 071600Z 15010KT 15SM FEW250 13/08 A2992 RMK CI1 SLP145

CYQR;2010-10-07 17:00;CYQR 071700Z 17006KT 15SM FEW140 FEW230 17/10 A2990 RMK AC1CI1 SLP140

CYQR;2010-10-07 18:00;CYQR 071800Z 14011KT 15SM FEW120 20/11 A2987 RMK AC1 SLP123

CYQR;2010-10-07 19:00;CYQR 071900Z 16008KT 15SM FEW250 22/11 A2985 RMK CI0 SLP117

CYQR;2010-10-07 20:00;CYQR 072000Z 15008KT 15SM FEW050 FEW230 24/11 A2982 RMK CU1CI0 SLP109

CYQR;2010-10-07 21:00;CYQR 072100Z 20007KT 15SM FEW250 25/12 A2981 RMK CI1 SLP103

CYQR;2010-10-07 22:00;CYQR 072200Z 17006KT 15SM FEW140 FEW250 26/12 A2980 RMK AC1CI1 SLP099

CYQR;2010-10-07 23:00;CYQR 072300Z 17004KT 15SM FEW140 BKN200 24/11 A2979 RMK AC1CI2 SLP095

CYQR;2010-10-08 00:00;CYQR 080000Z 11004KT 15SM BKN200 20/12 A2978 RMK CI2 SLP094

CYQR;2010-10-08 01:00;CYQR 080100Z 11005KT 15SM FEW200 18/11 A2978 RMK CI1 SLP095

CYQR;2010-10-08 02:00;CYQR 080200Z 11006KT 15SM FEW200 14/10 A2979 RMK CI0 SLP096

CYQR;2010-10-08 03:00;CYQR 080300Z 12005KT 15SM FEW200 13/10 A2980 RMK CI0 SLP102

CYQR;2010-10-08 04:00;CYQR 080400Z 12005KT 15SM SKC 12/09 A2980 RMK SLP103

CYQR;2010-10-08 05:00;CYQR 080500Z 10006KT 15SM SKC 10/09 A2981 RMK SLP107

CYQR;2010-10-08 06:00;CYQR 080600Z 14005KT 15SM SKC 10/08 A2981 RMK SLP102

CYQR;2010-10-08 07:00;CYQR 080700Z 14004KT 15SM SKC 09/08 A2981 RMK SLP102

CYQR;2010-10-08 08:00;CYQR 080800Z 09005KT 15SM SKC 08/07 A2981 RMK SLP102

CYQR;2010-10-08 09:00;CYQR 080900Z 13006KT 15SM SKC 09/08 A2982 RMK SLP102

CYQR;2010-10-08 10:00;CYQR 081000Z 10008KT 15SM SKC 09/08 A2981 RMK SLP098

CYQR;2010-10-08 11:00;CYQR 081100Z 15005KT 15SM SKC 09/08 A2982 RMK SLP102

CYQR;2010-10-08 12:00;CYQR 081200Z 15006KT 15SM FEW250 08/07 A2983 RMK CI1 SLP111

CYQR;2010-10-08 13:00;CYQR 081300Z 14005KT 15SM FEW220 FEW250 07/06 A2984 RMK CI1CI1 SLP112

CYQR;2010-10-08 14:00;CYQR 081400Z 11006KT 15SM FEW150 FEW220 09/07 A2984 RMK AC1CI1 SLP112

CYQR;2010-10-08 15:00;CYQR 081500Z 14003KT 15SM BKN220 12/10 A2985 RMK CI1 SLP120

CYQR;2010-10-08 16:00;CYQR 081600Z 23003KT 15SM FEW090 BKN220 15/11 A2986 RMK AC1CI2 CC ASOCTD SLP122

CYQR;2010-10-08 17:00;CYQR 081700Z 16005KT 15SM BKN220 19/13 A2987 RMK CI2 CONTRAILS SLP125

CYQR;2010-10-08 18:00;CYQR 081800Z 16005KT 15SM FEW075 BKN220 20/13 A2986 RMK AC1CI2 SLP120

CYQR;2010-10-08 19:00;CYQR 081900Z 19003KT 15SM FEW120 SCT200 23/13 A2986 RMK AC1CI2 SLP120

CYQR;2010-10-08 20:00;CYQR 082000Z 24005KT 12SM FEW140 BKN200 24/12 A2986 RMK AC1CI2 SLP119

CYQR;2010-10-08 21:00;CYQR 082100Z 23003KT 15SM FEW140 BKN200 25/11 A2986 RMK AC1CI2 SLP115

CYQR;2010-10-08 22:00;CYQR 082200Z 32004KT 15SM FEW140 BKN200 24/11 A2986 RMK AC1CI1 SLP118

CYQR;2010-10-08 23:00;CYQR 082300Z 22003KT 15SM BKN120 OVC200 24/11 A2987 RMK AC5CI1 SLP121

CYQR;2010-10-09 00:00;CYQR 090000Z 27002KT 15SM SCT095 OVC200 20/11 A2988 RMK AC2CI2 SLP127

CYQR;2010-10-09 01:00;CYQR 090100Z 14003KT 15SM FEW095 BKN250 18/10 A2988 RMK AC1CI2 SLP128

CYQR;2010-10-09 02:00;CYQR 090200Z 18004KT 15SM BKN250 16/11 A2990 RMK CI2 SLP133

CYQR;2010-10-09 03:00;CYQR 090300Z 25002KT 15SM BKN120 15/11 A2991 RMK AC7 SLP139

CYQR;2010-10-09 04:00;CYQR 090400Z 27002KT 15SM FEW120 BKN250 15/10 A2992 RMK AC2CI2 SLP142

CYQR;2010-10-09 05:00;CYQR 090500Z 27003KT 15SM FEW250 13/09 A2992 RMK CI0 SLP143

CYQR;2010-10-09 06:00;CYQR 090600Z 27006KT 15SM SKC 12/09 A2992 RMK SLP140

CYQR;2010-10-09 07:00;CYQR 090700Z 31008KT 15SM SKC 08/07 A2992 RMK SLP139

CYQR;2010-10-09 08:00;CYQR 090800Z 34005KT 15SM SKC 09/07 A2992 RMK SLP140

CYQR;2010-10-09 09:00;CYQR 090900Z 31006KT 15SM FEW120 08/06 A2994 RMK AC2 SLP146

CYQR;2010-10-09 10:00;CYQR 091000Z 32002KT 15SM SKC 07/05 A2995 RMK SLP149

CYQR;2010-10-09 11:00;CYQR 091100Z 33005KT 15SM SKC 06/05 A2996 RMK SLP152

CYQR;2010-10-09 12:00;CYQR 091200Z 34005KT 15SM FEW250 06/04 A2997 RMK CI1 SLP160

CYQR;2010-10-09 13:00;CYQR 091300Z 28002KT 15SM BKN250 05/04 A2999 RMK CI2 SLP166

CYQR;2010-10-09 14:00;CYQR 091400Z 28004KT 15SM BKN230 06/05 A3000 RMK CI2 SLP170

CYQR;2010-10-09 15:00;CYQR 091500Z 32006KT 15SM OVC230 09/08 A3000 RMK CI2 SLP173

CYQR;2010-10-09 16:00;CYQR 091600Z 31007KT 15SM FEW100 OVC230 12/10 A3002 RMK AC1CI1 SLP179

CYQR;2010-10-09 17:00;CYQR 091700Z 28005KT 15SM FEW120 OVC230 15/11 A3004 RMK AC1CI2 SLP185

CYQR;2010-10-09 18:00;CYQR 091800Z 32008KT 15SM FEW120 BKN250 18/12 A3002 RMK AC1CI1 SLP176

CYQR;2010-10-09 19:00;CYQR 091900Z 32008KT 15SM FEW075 BKN230 21/13 A3003 RMK AC1CI1 SLP178

CYQR;2010-10-09 20:00;CYQR 092000Z 33008KT 15SM FEW075 OVC230 21/13 A3002 RMK AC1CI1 ACC ASOCTD SLP175

CYQR;2010-10-09 21:00;CYQR 092100Z 35010KT 15SM FEW075 BKN230 20/13 A3000 RMK ACC1CI1 SLP170

CYQR;2010-10-09 22:00;CYQR 092200Z 36008KT 15SM FEW075 SCT230 21/13 A3000 RMK AC1CI1 SLP169

CYQR;2010-10-09 23:00;CYQR 092300Z 01009KT 15SM FEW080 FEW230 20/13 A3001 RMK AC1CI0 SLP173

CYQR;2010-10-10 00:00;CYQR 100000Z 36006KT 15SM FEW080 FEW230 17/12 A3002 RMK AC1CI0 SLP180

CYQR;2010-10-10 01:00;CYQR 100100Z 36006KT 15SM FEW080 SCT230 13/10 A3004 RMK AC2CI1 SLP184

CYQR;2010-10-10 02:00;CYQR 100200Z 34008KT 15SM FEW080 12/10 A3005 RMK AC2 SLP189

CYQR;2010-10-10 03:00;CYQR 100300Z 35006KT 15SM SCT230 10/09 A3007 RMK CI2 SLP199

CYQR;2010-10-10 04:00;CYQR 100400Z 03003KT 15SM FEW100 SCT230 11/09 A3007 RMK AC1CI1 SLP198

CYQR;2010-10-10 05:00;CYQR 100500Z 00000KT 15SM FEW100 10/08 A3007 RMK AC2 SLP199

CYQR;2010-10-10 06:00;CYQR 100600Z 35003KT 15SM BKN100 11/09 A3007 RMK AC5 SLP192

CYQR;2010-10-10 07:00;CYQR 100700Z 28005KT 15SM FEW100 09/08 A3006 RMK AC1 SLP190

CYQR;2010-10-10 08:00;CYQR 100800Z 26004KT 15SM SKC 08/07 A3005 RMK SLP187

CYQR;2010-10-10 09:00;CYQR 100900Z 30002KT 15SM SKC 07/06 A3006 RMK SLP190

CYQR;2010-10-10 10:00;CYQR 101000Z 00000KT 15SM R13/3000VP6000FT/U BCFG SKC 06/05 A3005 RMK SLP188

CYQR;2010-10-10 11:00;CYQR 101100Z 07002KT 6SM BR FEW001 06/05 A3004 RMK ST0 SLP184

CYQR;2010-10-10 12:00;CYQR 101200Z 21004KT 2SM R13/1400V2000FT/N BR SCT001 05/04 A3005 RMK ST2 VIS NW 3/4 SLP189

CYQR;2010-10-10 12:06;CYQR 101206Z 21003KT 1SM R13/3000FT/N BR SKC 05/ RMK FG5

CYQR;2010-10-10 12:10;CYQR 101210Z 19004KT 1/2SM R13/2600FT/N FG SKC 05/ RMK FG6 VIS E 1

CYQR;2010-10-10 12:18;CYQR 101218Z 19003KT 3/8SM R13/2200FT/N FG SKC 05/ RMK FG7

CYQR;2010-10-10 12:21;CYQR 101221Z 18002KT 3/4SM R13/3000FT/N BR SKC 05/ RMK FG6

CYQR;2010-10-10 12:43;CYQR 101243Z 18002KT 1SM R13/2400FT/N BR SKC 06/ RMK FG3 VIS SE-S 3

CYQR;2010-10-10 12:50;CYQR 101250Z 19002KT 2SM R13/2400FT/N BR BKN001 06/ RMK ST2 VIS E-SE-S 5

CYQR;2010-10-10 13:00;CYQR 101300Z 15002KT 1SM R13/1800FT/N BR SCT001 06/05 A3004 RMK ST2 VIS NE-S 5 SLP186

CYQR;2010-10-10 13:39;CYQR 101339Z 18002KT 5/8SM R13/1100V1600FT/U BR BKN001 OVC300 06/ RMK ST2CI1 VIS NE-SE 4

CYQR;2010-10-10 13:43;CYQR 101343Z 17002KT 3/8SM R13/1100V1600FT/N FG BKN001 BKN300 06/ RMK FG3ST1CI0 VIS E 5

CYQR;2010-10-10 13:46;CYQR 101346Z 17002KT 1/8SM R13/1100V1600FT/N FG OVC300 06/ RMK FG4CI1

CYQR;2010-10-10 14:00;CYQR 101400Z 14002KT 1/8SM R13/2000FT/N FG BKN300 06/06 A3003 RMK FG3CI1 SLP184

CYQR;2010-10-10 14:20;CYQR 101420Z 14003KT 1/2SM R13/3000FT/N FG SCT300 08/ RMK FG1CI0

CYQR;2010-10-10 14:22;CYQR 101422Z 14004KT 3SM R13/2600V4500FT/U BR SCT300 08/ RMK CI0

CYQR;2010-10-10 15:00;CYQR 101500Z 16005KT 15SM SCT300 09/09 A3003 RMK CI0 SLP184

CYQR;2010-10-10 16:00;CYQR 101600Z 16005KT 15SM FEW300 13/11 A3002 RMK CI1 SLP181

CYQR;2010-10-10 17:00;CYQR 101700Z 14005KT 15SM BKN300 16/13 A3001 RMK CI0 SLP179

CYQR;2010-10-10 18:00;CYQR 101800Z 16007KT 15SM FEW300 20/13 A3000 RMK CI0 CONTRAILS SLP165

CYQR;2010-10-10 19:00;CYQR 101900Z 15009KT 15SM FEW300 22/12 A2997 RMK CI0 CONTRAILS SLP157

CYQR;2010-10-10 20:00;CYQR 102000Z 23009KT 15SM FEW300 24/10 A2994 RMK CI1 SLP147

CYQR;2010-10-10 21:00;CYQR 102100Z 23008KT 15SM FEW300 24/09 A2991 RMK CI1 SLP138

CYQR;2010-10-10 22:00;CYQR 102200Z 23011KT 15SM FEW230 24/08 A2989 RMK CI1 SLP131

CYQR;2010-10-10 23:00;CYQR 102300Z 21010KT 15SM FEW230 23/08 A2988 RMK CI1 SLP127

CYQR;2010-10-11 00:00;CYQR 110000Z 18006KT 15SM FEW230 18/08 A2986 RMK CI1 SLP123

CYQR;2010-10-11 01:00;CYQR 110100Z 20005KT 15SM FEW230 14/08 A2986 RMK CI1 SLP123

CYQR;2010-10-11 02:00;CYQR 110200Z 18008KT 15SM FEW230 13/07 A2985 RMK CI0 SLP121

CYQR;2010-10-11 03:00;CYQR 110300Z 18009KT 15SM FEW230 13/07 A2985 RMK CI0 SLP120

CYQR;2010-10-11 04:00;CYQR 110400Z 18009KT 15SM FEW230 12/07 A2983 RMK CI0 SLP116

CYQR;2010-10-11 05:00;CYQR 110500Z 17010KT 15SM SCT230 11/06 A2982 RMK CI0 SLP111

CYQR;2010-10-11 06:00;CYQR 110600Z 18008KT 15SM SKC 10/06 A2981 RMK SLP103

CYQR;2010-10-11 07:00;CYQR 110700Z 18009KT 15SM SKC 10/07 A2980 RMK SLP099

CYQR;2010-10-11 08:00;CYQR 110800Z 18008KT 15SM BKN074 13/08 A2979 RMK AC6 SLP096

CYQR;2010-10-11 09:00;CYQR 110900Z 16006KT 15SM SCT076 12/08 A2977 RMK AC3 SLP085

CYQR;2010-10-11 10:00;CYQR 111000Z 17008KT 15SM SCT078 12/08 A2976 RMK AC3 SLP083

CYQR;2010-10-11 11:00;CYQR 111100Z 21007KT 15SM FEW087 FEW230 11/07 A2977 RMK AC1CI0 SLP085

CYQR;2010-10-11 12:00;CYQR 111200Z 27007KT 15SM FEW090 FEW230 10/08 A2979 RMK AC1CI1 SLP095

CYQR;2010-10-11 13:00;CYQR 111300Z 29010KT 15SM BKN100 BKN230 10/08 A2979 RMK AC3CI0 SLP097

CYQR;2010-10-11 14:00;CYQR 111400Z 34018G24KT 15SM BKN084 BKN230 12/09 A2982 RMK AC6CI0 SLP105

CYQR;2010-10-11 15:00;CYQR 111500Z 35021G30KT 15SM FEW080 BKN091 13/07 A2985 RMK AC1AC6 SLP117

CYQR;2010-10-11 16:00;CYQR 111600Z 35019KT 15SM FEW060 BKN098 13/07 A2987 RMK SC2AC3 SLP126

CYQR;2010-10-11 17:00;CYQR 111700Z 34016KT 15SM BKN063 OVC100 15/08 A2990 RMK SC7AC1 SLP133

CYQR;2010-10-11 18:00;CYQR 111800Z 32020KT 15SM OVC066 14/08 A2992 RMK AC8 ACC EMBD SLP145

CYQR;2010-10-11 19:00;CYQR 111900Z 33020G26KT 15SM FEW045 OVC067 13/08 A2995 RMK SC1AC7 ACC EMBD SLP153

CYQR;2010-10-11 19:42;CYQR 111942Z 33019G24KT 15SM -SHRA FEW055 OVC078 12/ RMK SC2ACC6

CYQR;2010-10-11 20:00;CYQR 112000Z 34018KT 12SM -SHRA BKN055 OVC080 12/08 A2997 RMK SC6AC2 SLP159

CYQR;2010-10-11 21:00;CYQR 112100Z 34014KT 15SM -SHRA OVC029 10/08 A2997 RMK SC8 SLP162

CYQR;2010-10-11 22:00;CYQR 112200Z 34013KT 15SM -SHRA FEW045 SCT072 OVC093 11/07 A2999 RMK SC2AC2ACC4 SLP168

CYQR;2010-10-11 22:34;CYQR 112234Z 34010G15KT 15SM FEW045 BKN072 OVC096 11/ RMK SC1AC4ACC3

CYQR;2010-10-11 23:00;CYQR 112300Z 32010KT 15SM BKN063 OVC077 11/06 A3000 RMK SC5ACC3 SLP173

CYQR;2010-10-12 00:00;CYQR 120000Z 30009KT 15SM BKN069 BKN100 11/06 A3002 RMK AC6AC2 SLP179

CYQR;2010-10-12 01:00;CYQR 120100Z 30008KT 15SM BKN073 BKN095 09/05 A3002 RMK AC5AC2 SLP181

CYQR;2010-10-12 02:00;CYQR 120200Z 30009KT 15SM BKN078 OVC100 08/03 A3004 RMK AC6AC2 SLP186

CYQR;2010-10-12 03:00;CYQR 120300Z 29007KT 15SM OVC078 08/03 A3005 RMK AC8 SLP192

CYQR;2010-10-12 04:00;CYQR 120400Z 29007KT 15SM OVC082 08/02 A3006 RMK AC8 SLP195

CYQR;2010-10-12 05:00;CYQR 120500Z 27008KT 15SM OVC082 08/02 A3008 RMK AC8 SLP201

CYQR;2010-10-12 06:00;CYQR 120600Z 29012KT 15SM SCT080 OVC120 08/02 A3009 RMK AC4AC4 SLP203

CYQR;2010-10-12 07:00;CYQR 120700Z 28012KT 15SM BKN085 07/02 A3010 RMK AC5 SLP208

CYQR;2010-10-12 08:00;CYQR 120800Z 28012KT 15SM FEW085 SCT250 06/02 A3012 RMK AC1CI0 SLP213

CYQR;2010-10-12 09:00;CYQR 120900Z 28011KT 15SM BKN085 06/02 A3013 RMK AC3 SLP222

CYQR;2010-10-12 10:00;CYQR 121000Z 27008KT 15SM SCT250 02/00 A3014 RMK CI1 SLP223

CYQR;2010-10-12 11:00;CYQR 121100Z 28008KT 15SM SKC 01/M01 A3015 RMK SLP228

CYQR;2010-10-12 12:00;CYQR 121200Z 28008KT 15SM FEW080 FEW250 02/M00 A3016 RMK AC1CI1 SLP234

CYQR;2010-10-12 13:00;CYQR 121300Z 26006KT 15SM FEW250 01/M01 A3016 RMK CI0 SLP234

CYQR;2010-10-12 14:00;CYQR 121400Z 23003KT 15SM FEW090 01/M02 A3016 RMK AC1 SLP233

CYQR;2010-10-12 15:00;CYQR 121500Z 25009KT 15SM FEW095 07/02 A3015 RMK AC2 SLP231

CYQR;2010-10-12 16:00;CYQR 121600Z 25013KT 15SM FEW095 FEW230 09/03 A3016 RMK AC2CI1 SLP232

CYQR;2010-10-12 17:00;CYQR 121700Z 25012KT 15SM FEW100 FEW280 10/03 A3015 RMK AC1CI0 SLP231

CYQR;2010-10-12 18:00;CYQR 121800Z 26012KT 15SM FEW100 FEW280 11/02 A3015 RMK AC1CI0 SLP226

CYQR;2010-10-12 19:00;CYQR 121900Z 28013KT 15SM FEW100 FEW280 13/03 A3015 RMK AC1CI1 SLP226

CYQR;2010-10-12 20:00;CYQR 122000Z 28013KT 15SM FEW080 BKN280 12/03 A3014 RMK AC2CI1 SLP224

CYQR;2010-10-12 21:00;CYQR 122100Z 29015KT 15SM FEW080 SCT280 13/02 A3015 RMK AC1CI1 SLP228

CYQR;2010-10-12 22:00;CYQR 122200Z 32015G20KT 15SM FEW050 FEW080 FEW280 14/01 A3017 RMK CU1AC1CI1 SLP232

CYQR;2010-10-12 23:00;CYQR 122300Z 33015G21KT 15SM FEW060 FEW100 FEW280 14/M01 A3018 RMK CU1AC1CI0 SLP235

CYQR;2010-10-13 00:00;CYQR 130000Z 32007KT 15SM FEW060 FEW100 FEW280 10/00 A3018 RMK SC1AC1CI1 SLP242

CYQR;2010-10-13 01:00;CYQR 130100Z 28009KT 15SM FEW060 FEW100 06/M01 A3019 RMK SC1AC1 SLP245

CYQR;2010-10-13 02:00;CYQR 130200Z 28008KT 15SM FEW100 04/M02 A3020 RMK AC1 SLP248

CYQR;2010-10-13 03:00;CYQR 130300Z 27009KT 15SM SKC 04/M01 A3022 RMK SLP255

CYQR;2010-10-13 04:00;CYQR 130400Z 27010KT 15SM SKC 03/M02 A3022 RMK SLP257

CYQR;2010-10-13 05:00;CYQR 130500Z 28007KT 15SM SKC 01/M03 A3022 RMK SLP257

CYQR;2010-10-13 06:00;CYQR 130600Z 27008KT 15SM SKC 01/M03 A3022 RMK SLP255

CYQR;2010-10-13 07:00;CYQR 130700Z 26005KT 15SM SKC M01/M04 A3023 RMK SLP259

CYQR;2010-10-13 08:00;CYQR 130800Z 25005KT 15SM SKC M00/M04 A3023 RMK SLP258

CYQR;2010-10-13 09:00;CYQR 130900Z 26005KT 15SM SKC 00/M03 A3023 RMK SLP256

CYQR;2010-10-13 10:00;CYQR 131000Z 21005KT 15SM SKC M00/M03 A3021 RMK SLP252

CYQR;2010-10-13 11:00;CYQR 131100Z 23003KT 15SM SKC M00/M04 A3020 RMK SLP249

CYQR;2010-10-13 12:00;CYQR 131200Z 16005KT 15SM FEW100 M00/M04 A3021 RMK AC1 SLP253

CYQR;2010-10-13 13:00;CYQR 131300Z 14006KT 15SM FEW260 M02/M05 A3020 RMK CI1 SLP250

CYQR;2010-10-13 14:00;CYQR 131400Z 12007KT 15SM SCT260 M01/M04 A3019 RMK CI1 SLP246

CYQR;2010-10-13 15:00;CYQR 131500Z 12005KT 15SM BKN250 03/M02 A3019 RMK CI2 SLP248

CYQR;2010-10-13 16:00;CYQR 131600Z 14005KT 15SM BKN250 07/M00 A3017 RMK CI3 SLP242

CYQR;2010-10-13 17:00;CYQR 131700Z 17004KT 15SM BKN250 10/02 A3015 RMK CI3 SLP236

CYQR;2010-10-13 18:00;CYQR 131800Z 24012KT 15SM BKN250 14/01 A3013 RMK CI2 SLP223

CYQR;2010-10-13 19:00;CYQR 131900Z 25010G15KT 15SM BKN250 15/02 A3011 RMK CI2 SLP217

CYQR;2010-10-13 20:00;CYQR 132000Z 26010KT 15SM SCT210 BKN280 16/02 A3009 RMK CI2CI2 SLP209

CYQR;2010-10-13 21:00;CYQR 132100Z 27014KT 15SM FEW075 BKN280 17/03 A3007 RMK AC1CI1 SLP201

CYQR;2010-10-13 22:00;CYQR 132200Z 28014KT 15SM FEW100 OVC280 16/01 A3006 RMK AC1CI2 SLP196

CYQR;2010-10-13 23:00;CYQR 132300Z 28009KT 15SM FEW100 OVC280 14/01 A3005 RMK AC1CI2 SLP193

CYQR;2010-10-14 00:00;CYQR 140000Z 27006KT 15SM FEW092 OVC280 11/01 A3004 RMK AC2CI2 SLP194

CYQR;2010-10-14 01:00;CYQR 140100Z 27008KT 15SM FEW210 06/00 A3005 RMK CI0 SLP195

CYQR;2010-10-14 02:00;CYQR 140200Z 26008KT 15SM FEW210 06/M00 A3005 RMK CI0 SLP195

CYQR;2010-10-14 03:00;CYQR 140300Z 26008KT 15SM FEW210 04/M01 A3004 RMK CI0 SLP197

CYQR;2010-10-14 04:00;CYQR 140400Z 27010KT 15SM FEW210 03/M00 A3004 RMK CI1 OBS TAKEN -10 SLP198

CYQR;2010-10-14 05:00;CYQR 140500Z 27009KT 15SM SKC 03/M00 A3005 RMK SLP200

CYQR;2010-10-14 05:41;CYQR 140541Z 27008KT 15SM SKC 02/

CYQR;2010-10-14 06:00;CYQR 140600Z 27008KT 15SM SKC 02/M00 A3005 RMK SLP193

CYQR;2010-10-14 07:00;CYQR 140700Z 28006KT 15SM SKC 02/M01 A3005 RMK SLP194

CYQR;2010-10-14 08:00;CYQR 140800Z 29005KT 15SM SKC 03/M01 A3007 RMK SLP199

CYQR;2010-10-14 09:00;CYQR 140900Z 28003KT 15SM SKC 00/M02 A3006 RMK SLP198

CYQR;2010-10-14 10:00;CYQR 141000Z 26005KT 15SM SKC M00/M02 A3007 RMK SLP201

CYQR;2010-10-14 11:00;CYQR 141100Z 28007KT 15SM SKC M00/M02 A3009 RMK SLP207

CYQR;2010-10-14 12:00;CYQR 141200Z 31004KT 15SM SKC M01/M03 A3010 RMK OBS TAKEN -08 SLP213

CYQR;2010-10-14 13:00;CYQR 141300Z 00000KT 15SM FEW100 M01/M03 A3010 RMK AC1 SLP214

CYQR;2010-10-14 14:00;CYQR 141400Z 00000KT 15SM FEW280 00/M02 A3011 RMK CI0 SLP217

CYQR;2010-10-14 15:00;CYQR 141500Z 18004KT 15SM FEW280 04/01 A3011 RMK CI0 SLP220

CYQR;2010-10-14 16:00;CYQR 141600Z 14005KT 15SM SCT280 10/02 A3011 RMK CI1 SLP221

CYQR;2010-10-14 17:00;CYQR 141700Z 14009KT 15SM BKN280 13/03 A3011 RMK CI1 SLP220

CYQR;2010-10-14 18:00;CYQR 141800Z CCA 15008KT 15SM BKN280 14/03 A3009 RMK CI2 SLP208

CYQR;2010-10-14 19:00;CYQR 141900Z 14010KT 15SM BKN280 16/04 A3007 RMK CI2 SLP200

CYQR;2010-10-14 20:00;CYQR 142000Z 16011KT 15SM BKN280 17/03 A3004 RMK CI2 SLP192

CYQR;2010-10-14 21:00;CYQR 142100Z 16012KT 15SM FEW280 18/05 A3002 RMK CI2 SLP181

CYQR;2010-10-14 22:00;CYQR 142200Z 16014KT 15SM FEW280 18/04 A3000 RMK CI1 SLP175

CYQR;2010-10-14 23:00;CYQR 142300Z 15010KT 15SM FEW090 BKN280 16/04 A2997 RMK AC2CI1 SLP167

CYQR;2010-10-15 00:00;CYQR 150000Z 14013KT 15SM SCT140 BKN240 15/04 A2995 RMK AC3CI2 SLP159

CYQR;2010-10-15 01:00;CYQR 150100Z 14014KT 15SM SCT140 BKN240 12/03 A2993 RMK AC2CI2 SLP154

CYQR;2010-10-15 02:00;CYQR 150200Z 15013KT 15SM OVC140 12/03 A2992 RMK AC8 SLP152

CYQR;2010-10-15 03:00;CYQR 150300Z 16014KT 15SM BKN220 11/03 A2991 RMK CI4 SLP147

CYQR;2010-10-15 04:00;CYQR 150400Z 16012KT 15SM BKN220 10/03 A2990 RMK CI2 OBS TAKEN -10 SLP142

CYQR;2010-10-15 05:00;CYQR 150500Z 16013KT 15SM FEW150 OVC210 10/02 A2987 RMK AC1CI3 SLP134

CYQR;2010-10-15 06:00;CYQR 150600Z 15013KT 15SM OVC210 09/02 A2985 RMK CI5 SLP119

CYQR;2010-10-15 07:00;CYQR 150700Z 14012KT 15SM BKN210 07/02 A2982 RMK CI3 SLP110

CYQR;2010-10-15 08:00;CYQR 150800Z 14011KT 15SM BKN210 06/01 A2980 RMK CI3 SLP104

CYQR;2010-10-15 09:00;CYQR 150900Z 14012KT 15SM BKN210 06/01 A2978 RMK CI4 SLP095

CYQR;2010-10-15 10:00;CYQR 151000Z 14011KT 15SM SCT120 BKN210 06/01 A2975 RMK AC4CI2 SLP087

CYQR;2010-10-15 11:00;CYQR 151100Z 14008KT 15SM BKN140 05/01 A2974 RMK AC3 SLP084

CYQR;2010-10-15 12:00;CYQR 151200Z 14009KT 15SM SCT140 04/01 A2973 RMK AC2 OBS TAKEN -07 SLP082

CYQR;2010-10-15 13:00;CYQR 151300Z 14008KT 15SM FEW140 SCT280 03/00 A2971 RMK AC2CI0 SLP077

CYQR;2010-10-15 14:00;CYQR 151400Z 15008KT 15SM FEW140 BKN280 04/01 A2971 RMK AC1CI2 SLP075

CYQR;2010-10-15 15:00;CYQR 151500Z 17007KT 15SM FEW120 BKN280 07/02 A2970 RMK AC2CI2 SLP072

CYQR;2010-10-15 16:00;CYQR 151600Z 20007KT 15SM FEW120 BKN280 13/05 A2969 RMK AC1CI1 SLP069

CYQR;2010-10-15 17:00;CYQR 151700Z 27019G26KT 15SM FEW120 BKN280 18/02 A2968 RMK AC1CI1 SLP065

CYQR;2010-10-15 18:00;CYQR 151800Z 28025G35KT 15SM FEW120 BKN280 20/00 A2966 RMK AC1CI2 SLP053

CYQR;2010-10-15 19:00;CYQR 151900Z 27020G32KT 15SM FEW120 SCT210 BKN280 20/00 A2967 RMK AC1CI2CI1 SLP054

CYQR;2010-10-15 20:00;CYQR 152000Z 29025G34KT 15SM FEW100 BKN280 19/M00 A2966 RMK AC2CI2 SLP053

CYQR;2010-10-15 21:00;CYQR 152100Z 29025G35KT 15SM FEW100 SCT280 18/00 A2970 RMK AC1CI1 SLP069

CYQR;2010-10-15 22:00;CYQR 152200Z 30023G30KT 15SM FEW096 SCT280 16/02 A2974 RMK AC1CI0 SLP080

CYQR;2010-10-15 23:00;CYQR 152300Z 31027G35KT 15SM FEW100 14/01 A2977 RMK AC2 SLP092

CYQR;2010-10-16 00:00;CYQR 160000Z 32016G22KT 15SM FEW120 11/M01 A2981 RMK AC1 SLP110

CYQR;2010-10-16 01:00;CYQR 160100Z 32020G27KT 15SM SCT078 09/M01 A2989 RMK AC3 PRESRR SLP136

CYQR;2010-10-16 02:00;CYQR 160200Z 31018G24KT 15SM FEW064 06/01 A2992 RMK SC2 SLP147

CYQR;2010-10-16 03:00;CYQR 160300Z 30018G25KT 15SM FEW064 05/01 A2996 RMK SC2 SLP167

CYQR;2010-10-16 04:00;CYQR 160400Z 28013KT 15SM SKC 04/01 A2998 RMK SLP173

CYQR;2010-10-16 05:00;CYQR 160500Z 29016G28KT 15SM SKC 04/00 A3001 RMK SLP182

CYQR;2010-10-16 06:00;CYQR 160600Z 28016G21KT 15SM SKC 04/00 A3003 RMK SLP182

CYQR;2010-10-16 07:00;CYQR 160700Z 28015KT 15SM SKC 04/00 A3005 RMK SLP190

CYQR;2010-10-16 08:00;CYQR 160800Z 29016KT 15SM SKC 03/M00 A3006 RMK SLP193

CYQR;2010-10-16 09:00;CYQR 160900Z 29016KT 15SM SKC 02/M01 A3008 RMK SLP201

CYQR;2010-10-16 10:00;CYQR 161000Z 29015KT 15SM SKC 02/M02 A3010 RMK SLP206

CYQR;2010-10-16 11:00;CYQR 161100Z 28017KT 15SM SKC 02/M02 A3011 RMK SLP211

CYQR;2010-10-16 12:00;CYQR 161200Z 29014KT 15SM SKC 01/M03 A3012 RMK SLP220

CYQR;2010-10-16 13:00;CYQR 161300Z 28013KT 15SM SKC 00/M03 A3014 RMK SLP226

CYQR;2010-10-16 14:00;CYQR 161400Z 29014KT 15SM SKC 00/M03 A3015 RMK SLP229

CYQR;2010-10-16 15:00;CYQR 161500Z 29015KT 15SM FEW280 02/M02 A3017 RMK CI0 SLP240

CYQR;2010-10-16 16:00;CYQR 161600Z 30019G24KT 15SM FEW280 05/M02 A3018 RMK CI0 SLP243

CYQR;2010-10-16 17:00;CYQR 161700Z 30019G26KT 15SM FEW280 07/M01 A3018 RMK CI0 SLP244

CYQR;2010-10-16 18:00;CYQR 161800Z 30018G24KT 15SM SCT280 08/M02 A3018 RMK CI1 SLP241

CYQR;2010-10-16 19:00;CYQR 161900Z 31019G25KT 15SM SCT280 09/M03 A3017 RMK CI1 SLP238

CYQR;2010-10-16 20:00;CYQR 162000Z 31014G24KT 15SM BKN280 10/M04 A3017 RMK CI2 SLP237

CYQR;2010-10-16 21:00;CYQR 162100Z 32015G20KT 15SM FEW160 BKN280 10/M05 A3016 RMK AC1CI1 SLP234

CYQR;2010-10-16 22:00;CYQR 162200Z 32017KT 15SM FEW160 BKN280 10/M05 A3016 RMK AC1CI1 SLP233

CYQR;2010-10-16 23:00;CYQR 162300Z 32012KT 15SM FEW160 BKN280 10/M05 A3016 RMK AC1CI2 SLP235

CYQR;2010-10-17 00:00;CYQR 170000Z 30008KT 15SM FEW160 BKN280 07/M05 A3016 RMK AC1CI2 SLP239

CYQR;2010-10-17 01:00;CYQR 170100Z 30008KT 15SM FEW160 BKN280 03/M05 A3016 RMK AC1CI2 SLP239

CYQR;2010-10-17 02:00;CYQR 170200Z 26006KT 15SM FEW160 01/M05 A3016 RMK AC2 SLP238

CYQR;2010-10-17 03:00;CYQR 170300Z 24005KT 15SM SCT280 M00/M06 A3016 RMK CI1 SLP242

CYQR;2010-10-17 04:00;CYQR 170400Z 26003KT 15SM FEW280 M01/M07 A3016 RMK CI0 SLP243

CYQR;2010-10-17 05:00;CYQR 170500Z 00000KT 15SM FEW280 M02/M06 A3016 RMK CI0 SLP241

CYQR;2010-10-17 06:00;CYQR 170600Z 15003KT 15SM FEW280 M02/M07 A3016 RMK CI0 SLP239

CYQR;2010-10-17 07:00;CYQR 170700Z 17004KT 15SM FEW280 M03/M07 A3016 RMK CI0 SLP238

CYQR;2010-10-17 08:00;CYQR 170800Z 13004KT 15SM SKC M04/M07 A3016 RMK SLP239

CYQR;2010-10-17 09:00;CYQR 170900Z 13004KT 15SM SKC M04/M07 A3016 RMK SLP238

CYQR;2010-10-17 10:00;CYQR 171000Z 15005KT 15SM SKC M05/M08 A3016 RMK SLP238

CYQR;2010-10-17 11:00;CYQR 171100Z 12005KT 15SM SKC M05/M08 A3016 RMK SLP238

CYQR;2010-10-17 12:00;CYQR 171200Z 13006KT 15SM SKC M05/M08 A3015 RMK SLP239

CYQR;2010-10-17 13:00;CYQR 171300Z 12005KT 15SM FEW280 M06/M09 A3016 RMK CI1 SLP241

CYQR;2010-10-17 14:00;CYQR 171400Z 12004KT 15SM FEW180 BKN280 M05/M08 A3015 RMK AC1CI0 SLP240

CYQR;2010-10-17 15:00;CYQR 171500Z 10004KT 15SM FEW160 BKN280 M02/M06 A3016 RMK AC1CI1 SLP243

CYQR;2010-10-17 16:00;CYQR 171600Z 14003KT 15SM FEW160 BKN280 03/M04 A3016 RMK AC1CI1 SLP245

CYQR;2010-10-17 17:00;CYQR 171700Z 18002KT 15SM FEW120 BKN280 07/M05 A3016 RMK AC2CI1 SLP243

CYQR;2010-10-17 18:00;CYQR 171800Z 20004KT 15SM FEW120 BKN280 08/M05 A3015 RMK AC2CI0 SLP237

CYQR;2010-10-17 19:00;CYQR 171900Z 18006KT 15SM SCT090 BKN280 09/M04 A3014 RMK AC4CI1 SLP233

CYQR;2010-10-17 20:00;CYQR 172000Z 17004KT 15SM SCT090 BKN280 10/M05 A3012 RMK AC2CI2 SLP227

CYQR;2010-10-17 21:00;CYQR 172100Z 00000KT 15SM FEW090 BKN280 10/M05 A3011 RMK AC1CI2 SLP220

CYQR;2010-10-17 22:00;CYQR 172200Z 19002KT 15SM FEW090 BKN280 11/M05 A3010 RMK AC1CI1 SLP219

CYQR;2010-10-17 23:00;CYQR 172300Z 25004KT 15SM FEW100 FEW280 10/M05 A3010 RMK AC1CI0 SLP218

CYQR;2010-10-18 00:00;CYQR 180000Z 21004KT 15SM FEW100 FEW280 06/M05 A3010 RMK AC1CI0 SLP223

CYQR;2010-10-18 01:00;CYQR 180100Z 20005KT 15SM FEW100 03/M06 A3010 RMK AC0 SLP223

CYQR;2010-10-18 01:24;CYQR 180124Z 20006KT 15SM FEW100 02/ RMK AC1

CYQR;2010-10-18 02:00;CYQR 180200Z 21008KT 15SM FEW100 M00/M06 A3011 RMK AC0 SLP224

CYQR;2010-10-18 03:00;CYQR 180300Z 21007KT 15SM SKC M01/M07 A3011 RMK SLP227

CYQR;2010-10-18 04:00;CYQR 180400Z 21008KT 15SM SKC M01/M06 A3010 RMK SLP225

CYQR;2010-10-18 05:00;CYQR 180500Z 21007KT 15SM SKC M02/M06 A3010 RMK SLP224

CYQR;2010-10-18 06:00;CYQR 180600Z 22008KT 15SM SKC M01/M05 A3010 RMK SLP215

CYQR;2010-10-18 07:00;CYQR 180700Z 23007KT 15SM SKC M02/M05 A3009 RMK SLP212

CYQR;2010-10-18 08:00;CYQR 180800Z 25008KT 15SM SKC M02/M05 A3009 RMK SLP212

CYQR;2010-10-18 09:00;CYQR 180900Z 26008KT 15SM SKC M02/M05 A3009 RMK SLP212

CYQR;2010-10-18 10:00;CYQR 181000Z 27007KT 15SM SKC M02/M05 A3009 RMK SLP212

CYQR;2010-10-18 11:00;CYQR 181100Z 27007KT 15SM SKC M04/M06 A3008 RMK SLP211

CYQR;2010-10-18 12:00;CYQR 181200Z 27006KT 15SM SKC M04/M07 A3009 RMK SLP218

CYQR;2010-10-18 13:00;CYQR 181300Z 26005KT 15SM FEW200 M05/M07 A3009 RMK CI1 SLP218

CYQR;2010-10-18 14:00;CYQR 181400Z 29004KT 15SM FEW200 M04/M07 A3010 RMK CI1 SLP220

CYQR;2010-10-18 15:00;CYQR 181500Z 28005KT 15SM FEW270 M00/M05 A3010 RMK CI0 SLP221

CYQR;2010-10-18 16:00;CYQR 181600Z 28007KT 15SM BKN270 05/M03 A3009 RMK CI2 SLP219

CYQR;2010-10-18 17:00;CYQR 181700Z 27008KT 15SM BKN270 07/M02 A3009 RMK CI3 SLP218

CYQR;2010-10-18 18:00;CYQR 181800Z 25008KT 15SM BKN280 11/M02 A3006 RMK CI2 CONTRAILS SLP203

CYQR;2010-10-18 19:00;CYQR 181900Z 27008KT 15SM SCT240 BKN280 13/M04 A3003 RMK CS2CI2 CONTRAILS SLP193

CYQR;2010-10-18 20:00;CYQR 182000Z 27011KT 15SM BKN120 OVC260 12/M04 A3002 RMK AC6CI2 SLP189

CYQR;2010-10-18 21:00;CYQR 182100Z 26010KT 15SM BKN120 OVC260 12/M04 A3001 RMK AC6CI2 SLP183

CYQR;2010-10-18 22:00;CYQR 182200Z 27008KT 15SM BKN120 BKN280 11/M04 A2998 RMK AC6CI1 SLP175

CYQR;2010-10-18 23:00;CYQR 182300Z 25003KT 15SM BKN120 BKN280 10/M05 A2997 RMK AC6CI1 SLP170

CYQR;2010-10-19 00:00;CYQR 190000Z 20002KT 15SM BKN100 BKN140 BKN260 09/M05 A2996 RMK AC5AC2CI0 SLP172

CYQR;2010-10-19 01:00;CYQR 190100Z 17004KT 15SM BKN120 07/M04 A2995 RMK AC7 SLP166

CYQR;2010-10-19 02:00;CYQR 190200Z 16005KT 15SM SCT120 BKN280 06/M04 A2994 RMK AC3CI2 SLP163

CYQR;2010-10-19 03:00;CYQR 190300Z 17008KT 15SM FEW120 BKN280 03/M04 A2992 RMK AC2CI2 SLP157

CYQR;2010-10-19 04:00;CYQR 190400Z 17008KT 15SM FEW120 BKN280 03/M04 A2991 RMK AC2CI2 SLP155

CYQR;2010-10-19 05:00;CYQR 190500Z 18007KT 15SM FEW120 BKN280 01/M04 A2989 RMK AC2CI1 SLP148

CYQR;2010-10-19 06:00;CYQR 190600Z 18005KT 15SM SCT090 OVC280 01/M04 A2988 RMK AC4CI1 SLP139

CYQR;2010-10-19 07:00;CYQR 190700Z 22006KT 15SM FEW090 BKN280 01/M04 A2986 RMK AC2CI2 SLP133

CYQR;2010-10-19 08:00;CYQR 190800Z 26007KT 15SM FEW100 BKN280 01/M03 A2986 RMK AC2CI1 SLP133

CYQR;2010-10-19 09:00;CYQR 190900Z 28006KT 15SM FEW100 BKN280 00/M03 A2986 RMK AC2CI1 SLP130

CYQR;2010-10-19 10:00;CYQR 191000Z 28004KT 15SM FEW100 BKN280 M01/M04 A2986 RMK AC1CI1 SLP132

CYQR;2010-10-19 11:00;CYQR 191100Z 26003KT 15SM SCT090 OVC280 M01/M04 A2985 RMK AC3CI2 SLP128

CYQR;2010-10-19 12:00;CYQR 191200Z 27005KT 15SM SCT100 OVC280 M01/M04 A2986 RMK AC3CI2 SLP132

CYQR;2010-10-19 13:00;CYQR 191300Z 27006KT 15SM SCT100 OVC280 01/M04 A2986 RMK AC3CI2 SLP132

CYQR;2010-10-19 14:00;CYQR 191400Z 26008KT 15SM FEW093 BKN280 01/M04 A2985 RMK AC2CI2 SLP129

CYQR;2010-10-19 15:00;CYQR 191500Z 28010KT 15SM FEW100 SCT280 05/M02 A2986 RMK AC1CI0 SLP132

CYQR;2010-10-19 16:00;CYQR 191600Z 30012KT 15SM FEW093 SCT280 09/M01 A2986 RMK AC1CI1 SLP134

CYQR;2010-10-19 17:00;CYQR 191700Z 31017KT 15SM BKN280 11/00 A2987 RMK CI1 SLP136

CYQR;2010-10-19 18:00;CYQR 191800Z 30013KT 15SM BKN280 14/02 A2986 RMK CI2 SLP129

CYQR;2010-10-19 19:00;CYQR 191900Z 30016G22KT 15SM FEW140 BKN280 15/03 A2986 RMK AC1CI2 SLP128

CYQR;2010-10-19 20:00;CYQR 192000Z 30017KT 15SM SCT210 BKN280 16/02 A2985 RMK CI2CI1 SLP125

CYQR;2010-10-19 21:00;CYQR 192100Z 30019KT 15SM FEW210 BKN280 16/02 A2983 RMK CI1CI1 SLP119

CYQR;2010-10-19 22:00;CYQR 192200Z 31016G24KT 15SM BKN280 16/01 A2983 RMK CI1 SLP118

CYQR;2010-10-19 23:00;CYQR 192300Z 30013G21KT 15SM BKN280 15/01 A2983 RMK CI1 SLP119

CYQR;2010-10-20 00:00;CYQR 200000Z 28010KT 15SM FEW100 BKN280 11/01 A2983 RMK AC1CI1 SLP121

CYQR;2010-10-20 01:00;CYQR 200100Z 25010KT 15SM FEW100 BKN280 08/00 A2982 RMK AC1CI1 SLP119

CYQR;2010-10-20 02:00;CYQR 200200Z 26009KT 15SM FEW280 05/M01 A2981 RMK CI0 SLP117

CYQR;2010-10-20 03:00;CYQR 200300Z 27006KT 15SM SKC 05/M00 A2980 RMK SLP111

CYQR;2010-10-20 04:00;CYQR 200400Z 27009KT 15SM SKC 05/M00 A2979 RMK SLP109

CYQR;2010-10-20 05:00;CYQR 200500Z 30008KT 15SM SKC 04/M01 A2981 RMK SLP114

CYQR;2010-10-20 06:00;CYQR 200600Z 28005KT 15SM SKC 01/M02 A2981 RMK SLP112

CYQR;2010-10-20 07:00;CYQR 200700Z 30005KT 15SM FEW100 00/M02 A2982 RMK AC2 SLP115

CYQR;2010-10-20 08:00;CYQR 200800Z 30009KT 15SM BKN080 07/02 A2985 RMK AC6 SLP119

CYQR;2010-10-20 09:00;CYQR 200900Z 30011KT 15SM BKN080 07/02 A2985 RMK AC7 SLP121

CYQR;2010-10-20 10:00;CYQR 201000Z 31009KT 15SM BKN082 06/01 A2987 RMK AC7 SLP127

CYQR;2010-10-20 11:00;CYQR 201100Z 31012KT 15SM FEW084 06/M01 A2989 RMK AC2 SLP134

CYQR;2010-10-20 12:00;CYQR 201200Z 32012KT 15SM SKC 04/M02 A2991 RMK SLP147

CYQR;2010-10-20 13:00;CYQR 201300Z 32012KT 15SM FEW280 02/M03 A2993 RMK CI0 SLP153

CYQR;2010-10-20 14:00;CYQR 201400Z 31010KT 15SM SCT280 00/M04 A2995 RMK CI0 SLP160

CYQR;2010-10-20 15:00;CYQR 201500Z 32011KT 15SM BKN280 03/M03 A2998 RMK CI2 SLP174

CYQR;2010-10-20 16:00;CYQR 201600Z 34012KT 15SM BKN280 06/M04 A3000 RMK CI2 SLP180

CYQR;2010-10-20 17:00;CYQR 201700Z 32014KT 15SM BKN280 08/M04 A3000 RMK CI2 SLP182

CYQR;2010-10-20 18:00;CYQR 201800Z 34015G22KT 15SM FEW100 BKN280 10/M05 A3001 RMK AC1CI2 SLP183

CYQR;2010-10-20 19:00;CYQR 201900Z 34017G25KT 15SM FEW100 BKN200 OVC280 09/M06 A3002 RMK AC2CI2CI2 SLP186

CYQR;2010-10-20 20:00;CYQR 202000Z 32015G22KT 15SM FEW080 BKN200 BKN280 10/M05 A3000 RMK AC2CI2CI2 SLP181

CYQR;2010-10-20 21:00;CYQR 202100Z 32016KT 15SM FEW092 BKN200 BKN280 10/M06 A3000 RMK AC2CI2CI1 SLP176

CYQR;2010-10-20 22:00;CYQR 202200Z 32016G24KT 15SM FEW090 BKN200 BKN280 11/M07 A3000 RMK AC1CI2CI2 SLP177

CYQR;2010-10-20 23:00;CYQR 202300Z 31011KT 15SM FEW080 BKN260 08/M07 A3001 RMK AC1CI2 SLP178

CYQR;2010-10-21 00:00;CYQR 210000Z 30008KT 15SM FEW080 BKN260 06/M06 A3001 RMK AC1CI2 SLP184

CYQR;2010-10-21 01:00;CYQR 210100Z 29008KT 15SM FEW260 02/M07 A3001 RMK CI0 SLP185

CYQR;2010-10-21 02:00;CYQR 210200Z 31008KT 15SM BKN260 01/M07 A3002 RMK CI2 SLP187

CYQR;2010-10-21 03:00;CYQR 210300Z 01004KT 15SM BKN280 01/M07 A3002 RMK CI2 SLP191

CYQR;2010-10-21 04:00;CYQR 210400Z 06003KT 15SM BKN068 BKN280 03/M07 A3001 RMK AC5CI0 SLP190

CYQR;2010-10-21 05:00;CYQR 210500Z 18003KT 15SM BKN066 BKN280 02/M05 A3001 RMK AC5CI0 SLP189

CYQR;2010-10-21 06:00;CYQR 210600Z 20003KT 15SM SCT070 BKN280 01/M05 A3002 RMK AC3CI2 SLP186

CYQR;2010-10-21 07:00;CYQR 210700Z 19005KT 15SM FEW070 BKN280 M01/M06 A3001 RMK AC2CI1 SLP185

CYQR;2010-10-21 08:00;CYQR 210800Z 18004KT 15SM FEW070 OVC280 01/M05 A3000 RMK AC2CI2 SLP180

CYQR;2010-10-21 09:00;CYQR 210900Z 18005KT 15SM FEW070 OVC120 01/M05 A2998 RMK AC2AC5 SLP173

CYQR;2010-10-21 10:00;CYQR 211000Z 14004KT 15SM BKN120 01/M05 A2997 RMK AC5 SLP171

CYQR;2010-10-21 11:00;CYQR 211100Z 12006KT 15SM SCT120 BKN280 M01/M06 A2997 RMK AC3CI1 SLP169

CYQR;2010-10-21 12:00;CYQR 211200Z 13008KT 15SM FEW120 BKN280 M02/M05 A2996 RMK AC2CI1 SLP169

CYQR;2010-10-21 13:00;CYQR 211300Z 14011KT 15SM FEW120 SCT280 00/M06 A2994 RMK AC1CI1 SLP164

CYQR;2010-10-21 14:00;CYQR 211400Z 13009KT 15SM FEW120 BKN280 01/M07 A2992 RMK AC1CI2 SLP159

CYQR;2010-10-21 15:00;CYQR 211500Z 13011KT 15SM FEW087 BKN280 02/M06 A2991 RMK AC1CI2 SLP155

CYQR;2010-10-21 16:00;CYQR 211600Z 14012KT 15SM BKN300 05/M05 A2990 RMK CI1 SLP150

CYQR;2010-10-21 17:00;CYQR 211700Z 14013KT 15SM SCT320 09/M04 A2987 RMK CI1 SLP141

CYQR;2010-10-21 18:00;CYQR 211800Z 16015KT 15SM BKN300 12/M02 A2984 RMK CI1 SLP123

CYQR;2010-10-21 19:00;CYQR 211900Z 17014G20KT 15SM FEW300 15/M01 A2981 RMK CI0 SLP113

CYQR;2010-10-21 20:00;CYQR 212000Z 16013KT 15SM SKC 17/01 A2977 RMK SLP101

CYQR;2010-10-21 21:00;CYQR 212100Z 19014KT 15SM SKC 19/03 A2974 RMK SLP084

CYQR;2010-10-21 22:00;CYQR 212200Z 22011KT 15SM SKC 19/02 A2973 RMK SLP080

CYQR;2010-10-21 23:00;CYQR 212300Z 23005KT 15SM SKC 17/02 A2972 RMK SLP079

CYQR;2010-10-22 00:00;CYQR 220000Z 23003KT 12SM FEW350 14/01 A2972 RMK CI1 HZ SLP083

CYQR;2010-10-22 01:00;CYQR 220100Z 00000KT 15SM SKC 10/01 A2972 RMK SLP084

CYQR;2010-10-22 02:00;CYQR 220200Z 20002KT 15SM SKC 09/01 A2972 RMK SLP084

CYQR;2010-10-22 03:00;CYQR 220300Z 00000KT 15SM SKC 06/01 A2972 RMK SLP087

CYQR;2010-10-22 04:00;CYQR 220400Z 00000KT 15SM SKC 04/00 A2973 RMK SLP089

CYQR;2010-10-22 05:00;CYQR 220500Z 22005KT 15SM SKC 02/M01 A2974 RMK SLP093

CYQR;2010-10-22 06:00;CYQR 220600Z 31002KT 15SM SKC 02/M01 A2975 RMK SLP090

CYQR;2010-10-22 07:00;CYQR 220700Z 31006KT 15SM SKC 00/M03 A2975 RMK SLP092

CYQR;2010-10-22 08:00;CYQR 220800Z 27005KT 15SM SKC M02/M04 A2978 RMK SLP100

CYQR;2010-10-22 09:00;CYQR 220900Z 32007KT 15SM SKC M02/M04 A2979 RMK SLP104

CYQR;2010-10-22 10:00;CYQR 221000Z 01005KT 15SM SKC M01/M03 A2979 RMK SLP105

CYQR;2010-10-22 11:00;CYQR 221100Z 35004KT 15SM SKC M00/M02 A2981 RMK SLP110

CYQR;2010-10-22 12:00;CYQR 221200Z 01007KT 15SM SKC M01/M02 A2981 RMK SLP112

CYQR;2010-10-22 13:00;CYQR 221300Z 31005KT 15SM SKC M02/M04 A2983 RMK SLP118

CYQR;2010-10-22 14:00;CYQR 221400Z 36007KT 12SM FEW370 M00/M02 A2985 RMK CI0 HZ SLP126

CYQR;2010-10-22 15:00;CYQR 221500Z 01004KT 12SM FEW370 05/01 A2987 RMK CI0 HZ SLP137

CYQR;2010-10-22 16:00;CYQR 221600Z 04008KT 12SM BKN370 08/02 A2989 RMK CI1 HZ SLP143

CYQR;2010-10-22 17:00;CYQR 221700Z 08004KT 15SM BKN370 11/02 A2990 RMK CI2 SLP146

CYQR;2010-10-22 18:00;CYQR 221800Z 08005KT 15SM OVC370 12/02 A2990 RMK CI2 SLP143

CYQR;2010-10-22 19:00;CYQR 221900Z 04007KT 15SM BKN320 13/02 A2989 RMK CI2 SLP139

CYQR;2010-10-22 20:00;CYQR 222000Z 02007KT 15SM OVC320 14/02 A2987 RMK CI2 SLP135

CYQR;2010-10-22 21:00;CYQR 222100Z 05008G15KT 15SM BKN320 14/02 A2986 RMK CI2 SLP132

CYQR;2010-10-22 22:00;CYQR 222200Z 08011KT 15SM BKN320 13/02 A2985 RMK CI2 SLP129

CYQR;2010-10-22 23:00;CYQR 222300Z 07007KT 15SM BKN320 12/01 A2986 RMK CI2 SLP130

CYQR;2010-10-23 00:00;CYQR 230000Z 08006KT 15SM BKN320 09/01 A2987 RMK CI2 SLP138

CYQR;2010-10-23 01:00;CYQR 230100Z 08007KT 15SM SCT320 07/M01 A2988 RMK CI1 SLP141

CYQR;2010-10-23 02:00;CYQR 230200Z 10010KT 15SM SCT320 07/M00 A2989 RMK CI1 SLP144

CYQR;2010-10-23 03:00;CYQR 230300Z 11013KT 15SM BKN320 06/M01 A2989 RMK CI2 SLP143

CYQR;2010-10-23 04:00;CYQR 230400Z 11014G20KT 15SM FEW120 SCT320 06/M01 A2988 RMK AC1CI1 SLP140

CYQR;2010-10-23 05:00;CYQR 230500Z 11012G17KT 15SM FEW120 SCT320 05/M01 A2989 RMK AC1CI0 SLP142

CYQR;2010-10-23 06:00;CYQR 230600Z 11011KT 15SM FEW300 04/M01 A2987 RMK CI0 SLP133

CYQR;2010-10-23 07:00;CYQR 230700Z 12012KT 15SM FEW120 BKN300 04/M01 A2987 RMK AC1CI0 SLP132

CYQR;2010-10-23 08:00;CYQR 230800Z 14014KT 15SM FEW120 BKN300 03/M01 A2988 RMK AC1CI2 SLP134

CYQR;2010-10-23 09:00;CYQR 230900Z 12011KT 15SM BKN300 03/M01 A2988 RMK CI2 SLP134

CYQR;2010-10-23 10:00;CYQR 231000Z 13014KT 15SM BKN300 03/M01 A2988 RMK CI2 SLP135

CYQR;2010-10-23 11:00;CYQR 231100Z 14014KT 15SM FEW110 SCT300 02/M01 A2987 RMK AC1CI1 SLP132

CYQR;2010-10-23 12:00;CYQR 231200Z 14015KT 15SM BKN300 02/M01 A2987 RMK CI2 SLP137

CYQR;2010-10-23 13:00;CYQR 231300Z 14016KT 15SM BKN300 02/M01 A2987 RMK CI2 SLP137

CYQR;2010-10-23 14:00;CYQR 231400Z 15015G20KT 15SM FEW110 BKN300 02/M01 A2988 RMK AC1CI2 SLP138

CYQR;2010-10-23 15:00;CYQR 231500Z 15017KT 15SM FEW110 BKN300 02/M01 A2988 RMK AC1CI3 SLP141

CYQR;2010-10-23 16:00;CYQR 231600Z 15015G20KT 15SM FEW100 BKN300 05/01 A2988 RMK AC1CI3 SLP141

CYQR;2010-10-23 17:00;CYQR 231700Z 16022G27KT 15SM SCT090 BKN300 06/01 A2986 RMK AC4CI2 SLP133

CYQR;2010-10-23 18:00;CYQR 231800Z 16016G24KT 15SM BKN090 BKN300 08/01 A2986 RMK AC6CI1 SLP130

CYQR;2010-10-23 19:00;CYQR 231900Z 15020G26KT 15SM BKN092 BKN300 09/02 A2983 RMK AC6CI1 SLP122

CYQR;2010-10-23 20:00;CYQR 232000Z 16013KT 15SM SCT092 BKN300 10/02 A2982 RMK AC4CI1 SLP120

CYQR;2010-10-23 21:00;CYQR 232100Z 16013G19KT 15SM BKN090 BKN300 11/02 A2981 RMK AC5CI1 SLP111

CYQR;2010-10-23 22:00;CYQR 232200Z 16012KT 15SM FEW090 BKN300 11/02 A2981 RMK AC2CI1 SLP111

CYQR;2010-10-23 23:00;CYQR 232300Z 15010KT 15SM FEW090 BKN300 10/02 A2980 RMK AC1CI1 SLP110

CYQR;2010-10-24 00:00;CYQR 240000Z 15010KT 15SM FEW100 BKN300 09/01 A2980 RMK AC1CI2 SLP112

CYQR;2010-10-24 01:00;CYQR 240100Z 14012KT 15SM FEW100 BKN300 08/00 A2980 RMK AC1CI2 SLP111

CYQR;2010-10-24 02:00;CYQR 240200Z 15014KT 15SM SKC 07/00 A2980 RMK SLP110

CYQR;2010-10-24 03:00;CYQR 240300Z 15010KT 15SM SKC 06/M00 A2980 RMK SLP112

CYQR;2010-10-24 04:00;CYQR 240400Z 15009KT 15SM SKC 05/M00 A2980 RMK SLP113

CYQR;2010-10-24 05:00;CYQR 240500Z 16011KT 15SM SKC 04/M01 A2980 RMK SLP113

CYQR;2010-10-24 06:00;CYQR 240600Z 15009KT 15SM SKC 05/M00 A2980 RMK SLP109

CYQR;2010-10-24 07:00;CYQR 240700Z 15009KT 15SM SKC 05/M01 A2978 RMK SLP103

CYQR;2010-10-24 08:00;CYQR 240800Z 14009KT 15SM BKN085 BKN260 04/M00 A2976 RMK AC5CI0 SLP099

CYQR;2010-10-24 09:00;CYQR 240900Z 14010KT 15SM FEW080 BKN260 04/00 A2975 RMK AC2CI0 SLP091

CYQR;2010-10-24 10:00;CYQR 241000Z 14009KT 15SM BKN090 04/00 A2972 RMK AC7 SLP083

CYQR;2010-10-24 11:00;CYQR 241100Z 14010KT 15SM BKN094 03/M00 A2970 RMK AC7 SLP075

CYQR;2010-10-24 12:00;CYQR 241200Z 14010KT 15SM OVC097 03/M01 A2969 RMK AC8 SLP072

CYQR;2010-10-24 13:00;CYQR 241300Z 13009KT 15SM OVC095 03/M00 A2966 RMK AC7 SLP063

CYQR;2010-10-24 14:00;CYQR 241400Z 14009KT 15SM SCT092 BKN300 03/M00 A2964 RMK AC3CI2 SLP058

CYQR;2010-10-24 15:00;CYQR 241500Z 15012G18KT 15SM FEW050 SCT094 BKN300 04/00 A2963 RMK SC1AC2CI1 SLP053

CYQR;2010-10-24 16:00;CYQR 241600Z 14015KT 15SM FEW050 SCT094 BKN300 06/02 A2960 RMK SC1AC3CI1 SLP043

CYQR;2010-10-24 17:00;CYQR 241700Z 16010G15KT 15SM SCT028 BKN075 OVC300 09/04 A2956 RMK SC4AC3CI0 SLP032

CYQR;2010-10-24 18:00;CYQR 241800Z 15015KT 15SM BKN028 BKN091 10/05 A2953 RMK SC5AC2 SLP015

CYQR;2010-10-24 19:00;CYQR 241900Z 15014G19KT 15SM FEW030 BKN091 OVC300 11/06 A2948 RMK SC2AC4CI1 SLP999

CYQR;2010-10-24 20:00;CYQR 242000Z 15017KT 15SM SCT027 BKN081 OVC091 11/06 A2944 RMK SC3ACC3AC2 SLP987

CYQR;2010-10-24 20:02;CYQR 242002Z 15016G21KT 15SM -SHRA SCT027 BKN081 OVC093 11/ RMK SC3ACC3AC2

CYQR;2010-10-24 21:00;CYQR 242100Z 15019G24KT 15SM SCT034 BKN085 OVC095 11/07 A2940 RMK SC3ACC3AC2 SLP972

CYQR;2010-10-24 22:00;CYQR 242200Z 14014KT 15SM -SHRA FEW021 BKN076 OVC120 11/07 A2938 RMK SC2ACC4AC2 SLP966

CYQR;2010-10-24 23:00;CYQR 242300Z 15010KT 15SM -SHRA BKN017 OVC068 10/08 A2936 RMK SC6AC2 SLP959

CYQR;2010-10-25 00:00;CYQR 250000Z 15010KT 15SM -SHRA BKN022 OVC088 09/08 A2933 RMK SC6ACC2 SLP949

CYQR;2010-10-25 01:00;CYQR 250100Z 13014KT 15SM -SHRA SCT022 OVC041 09/08 A2929 RMK SC3SC5 SLP937

CYQR;2010-10-25 02:00;CYQR 250200Z 14015G20KT 8SM -SHRA OVC039 09/09 A2927 RMK SC8 SLP931

CYQR;2010-10-25 03:00;CYQR 250300Z 15011KT 10SM -RA FEW004 OVC016 09/09 A2925 RMK SF2SC6 SLP920

CYQR;2010-10-25 03:32;CYQR 250332Z 14010KT 10SM -RA BKN004 OVC021 09/ RMK SF5SC3

CYQR;2010-10-25 04:00;CYQR 250400Z 16013KT 10SM -RA BKN004 OVC040 08/08 A2921 RMK SF6SC2 SLP910

CYQR;2010-10-25 05:00;CYQR 250500Z 15015KT 10SM BKN004 OVC048 08/08 A2920 RMK SC7SC1 SLP904

CYQR;2010-10-25 05:40;CYQR 250540Z 15013KT 6SM BR OVC003 08/ RMK SC8

CYQR;2010-10-25 06:00;CYQR 250600Z 15014KT 6SM BR OVC003 08/08 A2917 RMK SC8 SLP891

CYQR;2010-10-25 07:00;CYQR 250700Z 15012G17KT 5SM BR OVC002 08/08 A2916 RMK SC8 SLP887

CYQR;2010-10-25 07:08;CYQR 250708Z 14017KT 1 1/2SM BR OVC002 08/ RMK ST8

CYQR;2010-10-25 07:32;CYQR 250732Z 13009KT 3/4SM R13/P6000FT/N -RA BR VV001 08/ RMK FG8

CYQR;2010-10-25 08:00;CYQR 250800Z 15006KT 5/8SM R13/4500FT/U -RA BR VV001 08/08 A2916 RMK FG8 SLP886

CYQR;2010-10-25 09:00;CYQR 250900Z 15009KT 1/2SM R13/3500FT/N FG VV001 07/07 A2914 RMK FG8 SLP880

CYQR;2010-10-25 10:00;CYQR 251000Z 16007KT 3/8SM R13/3000FT/D FG VV001 07/07 A2913 RMK FG8 SLP876

CYQR;2010-10-25 11:00;CYQR 251100Z 16007KT 3/8SM R13/2600FT/N FG VV001 07/07 A2912 RMK FG8 SLP874

CYQR;2010-10-25 12:00;CYQR 251200Z 14005KT 3/8SM R13/2600FT/N FG VV001 08/08 A2911 RMK FG8 SLP872

CYQR;2010-10-25 13:00;CYQR 251300Z 15004KT 1/4SM R13/1600FT/N FG VV001 07/07 A2912 RMK FG8 SLP875

CYQR;2010-10-25 14:00;CYQR 251400Z 27006KT 1/2SM R13/2600VP6000FT/N FG OVC001 07/07 A2913 RMK SF8 VIS SE-NE 11/2 SLP877

CYQR;2010-10-25 14:05;CYQR 251405Z 29007KT 1 1/2SM BR OVC003 07/ RMK SF8

CYQR;2010-10-25 14:41;CYQR 251441Z 30009KT 3/4SM R13/P6000FT/D BR VV001 06/ RMK FG8

CYQR;2010-10-25 14:53;CYQR 251453Z 29008KT 1/2SM R13/4000V6000FT/D FG VV001 06/ RMK FG8

CYQR;2010-10-25 15:00;CYQR 251500Z 29008KT 1/2SM R13/4000V5500FT/D FG VV001 06/06 A2915 RMK FG8 SLP884

CYQR;2010-10-25 15:14;CYQR 251514Z 30006KT 1/4SM R13/3000V4000FT/U FG VV001 06/ RMK FG8

CYQR;2010-10-25 16:00;CYQR 251600Z 29006KT 1/4SM R13/2200FT/N FG VV001 07/07 A2915 RMK FG8 SLP885

CYQR;2010-10-25 16:45;CYQR 251645Z 32015KT 1 1/4SM BR OVC001 08/ RMK SF8

CYQR;2010-10-25 16:56;CYQR 251656Z 33014KT 2SM BR BKN002 OVC040 08/ RMK SF6SC2

CYQR;2010-10-25 17:00;CYQR 251700Z 32016KT 2 1/2SM BR BKN002 OVC040 08/08 A2915 RMK SF6SC2 SLP884

CYQR;2010-10-25 17:14;CYQR 251714Z 32014G20KT 4SM BR OVC003 08/ RMK SF8

CYQR;2010-10-25 17:43;CYQR 251743Z 32015KT 10SM SCT004 OVC007 07/ RMK SF4SC4

CYQR;2010-10-25 18:00;CYQR 251800Z 32014KT 12SM FEW004 OVC008 08/08 A2916 RMK SF2SC6 SLP886

CYQR;2010-10-25 18:12;CYQR 251812Z 31019G24KT 2 1/2SM BR BKN003 OVC008 07/ RMK SF6SC2

CYQR;2010-10-25 18:34;CYQR 251834Z 31016KT 5SM BR OVC004 07/ RMK SF8

CYQR;2010-10-25 19:00;CYQR 251900Z 32017G22KT 7SM OVC006 07/06 A2918 RMK SF8 SLP894

CYQR;2010-10-25 19:48;CYQR 251948Z 30022KT 7SM OVC005 RMK SF8 BR

CYQR;2010-10-25 20:00;CYQR 252000Z 30018G26KT 7SM OVC006 06/05 A2920 RMK SF8 BR SLP900

CYQR;2010-10-25 20:39;CYQR 252039Z 31019G26KT 10SM OVC013 06/ RMK SC8

CYQR;2010-10-25 21:00;CYQR 252100Z 30019G26KT 15SM OVC013 06/03 A2921 RMK SC8 SLP907

CYQR;2010-10-25 21:22;CYQR 252122Z 30023KT 15SM OVC015 05/ RMK SC8

CYQR;2010-10-25 22:00;CYQR 252200Z 31020G27KT 15SM OVC015 05/03 A2922 RMK SC7 SLP910

CYQR;2010-10-25 23:00;CYQR 252300Z 30018G25KT 15SM OVC013 05/02 A2923 RMK SC8 SLP914

CYQR;2010-10-26 00:00;CYQR 260000Z 30015G21KT 15SM OVC013 04/02 A2924 RMK SC8 SLP919

CYQR;2010-10-26 00:44;CYQR 260044Z 30019G24KT 6SM -DZ OVC008 03/ RMK SC8

CYQR;2010-10-26 01:00;CYQR 260100Z 30016G21KT 2 1/2SM -DZ OVC006 03/02 A2926 RMK SC8 SLP923

CYQR;2010-10-26 01:46;CYQR 260146Z 29015G20KT 2SM -DZ BR OVC004 03/ RMK ST8

CYQR;2010-10-26 02:00;CYQR 260200Z 30017KT 2SM -DZ BR OVC003 03/03 A2926 RMK ST8 SLP923

CYQR;2010-10-26 03:00;CYQR 260300Z 32019G24KT 2 1/2SM -DZ BR OVC003 04/03 A2925 RMK ST8 SLP922

CYQR;2010-10-26 03:44;CYQR 260344Z 33021G28KT 6SM -DZ OVC004 03/ RMK ST8

CYQR;2010-10-26 04:00;CYQR 260400Z 32022G28KT 6SM -DZ OVC004 03/02 A2925 RMK ST8 SLP923

CYQR;2010-10-26 05:00;CYQR 260500Z 32018G24KT 8SM -DZ OVC005 02/01 A2926 RMK ST8 SLP928

CYQR;2010-10-26 06:00;CYQR 260600Z 32020KT 3SM -DZ OVC004 01/00 A2926 RMK ST8 SLP926

CYQR;2010-10-26 07:00;CYQR 260700Z 34021G28KT 5SM -DZ OVC006 01/M00 A2926 RMK ST8 SLP927

CYQR;2010-10-26 08:00;CYQR 260800Z 34021G29KT 8SM -DZ OVC006 01/M01 A2927 RMK SC8 SLP930

CYQR;2010-10-26 09:00;CYQR 260900Z 33022G27KT 8SM -DZ OVC009 01/M01 A2927 RMK SC8 SLP934

CYQR;2010-10-26 09:55;CYQR 260955Z 33023G29KT 3SM -SN OVC008 00/ RMK SC8

CYQR;2010-10-26 10:00;CYQR 261000Z 33022G30KT 2 1/2SM -SN OVC007 00/M01 A2927 RMK SC8 SLP934

CYQR;2010-10-26 11:00;CYQR 261100Z 33022G28KT 2 1/2SM -SN OVC007 M00/M02 A2928 RMK SC8 SLP936

CYQR;2010-10-26 12:00;CYQR 261200Z 32023KT 5SM -SN OVC010 M00/M02 A2929 RMK SC8 SLP940

CYQR;2010-10-26 12:31;CYQR 261231Z 33021G28KT 2 1/2SM -SN OVC009 M00/ RMK SC8

CYQR;2010-10-26 13:00;CYQR 261300Z 33021G27KT 2 1/2SM -SN OVC009 M01/M02 A2928 RMK SC8 SLP939

CYQR;2010-10-26 13:27;CYQR 261327Z 33024G31KT 1 1/2SM -SN OVC007 M01/ RMK SN2SF6

CYQR;2010-10-26 14:00;CYQR 261400Z 33027G32KT 1SM R13/P6000FT/D -SN OVC008 M01/M03 A2928 RMK SN2SF6 SLP938

CYQR;2010-10-26 14:28;CYQR 261428Z 34028KT 3/4SM R13/P6000FT/D -SN VV007 M01/ RMK SN8

CYQR;2010-10-26 15:00;CYQR 261500Z 33025G32KT 3/4SM R13/P6000FT/N -SN VV008 M01/M03 A2929 RMK SN8 SLP940

CYQR;2010-10-26 16:00;CYQR 261600Z 33024G33KT 3/4SM R13/6000FT/D -SN VV008 M01/M03 A2928 RMK SN8 SLP939

CYQR;2010-10-26 17:00;CYQR 261700Z 33026G35KT 3/4SM R13/6000FT/D -SN BLSN BKN008 OVC086 M01/M02 A2928 RMK SN2SF4AC2 SLP937

CYQR;2010-10-26 18:00;CYQR 261800Z 34028G38KT 3/4SM R13/5500FT/D -SN BLSN VV006 M01/M03 A2928 RMK SN8 SLP940

CYQR;2010-10-26 18:44;CYQR 261844Z 34030G37KT 5/8SM R13/3500V5000FT/D -SN BLSN VV005 M01/ RMK SN8

CYQR;2010-10-26 19:00;CYQR 261900Z 34028G37KT 1/2SM R13/3500FT/N -SN BLSN VV004 M01/M03 A2928 RMK SN8 SLP939

CYQR;2010-10-26 20:00;CYQR 262000Z 34029G39KT 1/2SM R13/5000FT/D -SN BLSN VV006 M01/M03 A2928 RMK SN8 /S01/ SLP939

CYQR;2010-10-26 20:25;CYQR 262025Z 33032G38KT 1/2SM R13/4000FT/N -SN BLSN VV004 M01/ RMK SN8

CYQR;2010-10-26 20:55;CYQR 262055Z 33032G38KT 1/2SM R13/3500FT/N -SN BLSN VV006 M01/ RMK SN8

CYQR;2010-10-26 21:00;CYQR 262100Z 33031G38KT 1/2SM R13/4000FT/N -SN BLSN VV007 M01/M03 A2929 RMK SN8 SLP943

CYQR;2010-10-26 21:44;CYQR 262144Z 33033G41KT 1/2SM R13/3000FT/D -SN BLSN VV005 M01/ RMK SN8

CYQR;2010-10-26 22:00;CYQR 262200Z 33031G38KT 1/2SM R13/3000FT/N -SN BLSN VV005 M01/M03 A2931 RMK SN8 /S02/ SLP949

CYQR;2010-10-26 22:23;CYQR 262223Z 33032G43KT 1/2SM R13/3000FT/D -SN BLSN VV004 M01/ RMK SN8

CYQR;2010-10-26 23:00;CYQR 262300Z 33032G39KT 1/2SM R13/3000FT/N -SN BLSN VV004 M01/M03 A2932 RMK SN8 SLP954

CYQR;2010-10-26 23:17;CYQR 262317Z 33033G38KT 3/8SM R13/3000FT/N -SN BLSN VV003 M01/ RMK SN8

CYQR;2010-10-27 00:00;CYQR 270000Z 33031G38KT 1/2SM R13/3500FT/N -SN BLSN VV004 M01/M02 A2933 RMK SN8 /S04/ SLP957

CYQR;2010-10-27 00:15;CYQR 270015Z 34032G37KT 3/4SM R13/4000FT/N -SN BLSN VV004 M01/ RMK SN8

CYQR;2010-10-27 00:34;CYQR 270034Z 33032G39KT 5/8SM R13/4500FT/N -SN BLSN VV004 M01/ RMK SN8

CYQR;2010-10-27 01:00;CYQR 270100Z 33030G39KT 5/8SM R13/4000FT/N -SN BLSN VV003 M01/M01 A2935 RMK SN8 SLP963

CYQR;2010-10-27 02:00;CYQR 270200Z 33034G40KT 5/8SM R13/4500FT/N -SN BLSN VV004 M01/M02 A2936 RMK SN8 SLP966

CYQR;2010-10-27 03:00;CYQR 270300Z 34033G42KT 5/8SM R13/3500FT/N -SN BLSN VV004 M01/M01 A2937 RMK SN8 SLP974

CYQR;2010-10-27 04:00;CYQR 270400Z 34036G43KT 1/2SM R13/3500FT/N -SN BLSN VV003 M01/M01 A2939 RMK SN8 SLP980

CYQR;2010-10-27 05:00;CYQR 270500Z 34034G42KT 5/8SM R13/3500V5000FT/N -SN BLSN VV005 M02/M02 A2942 RMK SN8 SLP988

CYQR;2010-10-27 06:00;CYQR 270600Z 34034G44KT 5/8SM R13/4500FT/D -SN BLSN VV005 M02/M02 A2943 RMK SN8 SLP994

CYQR;2010-10-27 07:00;CYQR 270700Z 34034G45KT 3/4SM R13/3500VP6000FT/N -SN BLSN VV008 M02/M02 A2946 RMK SN8 SLP004

CYQR;2010-10-27 07:28;CYQR 270728Z 34039G46KT 2SM -SN BLSN OVC009 M02/ RMK SC8

CYQR;2010-10-27 08:00;CYQR 270800Z 34038G43KT 1 1/2SM R13/5000FT/D -SN BLSN OVC009 M02/M03 A2950 RMK SC8 SLP015

CYQR;2010-10-27 09:00;CYQR 270900Z 34037G43KT 2SM R13/4000VP6000FT/U -SN BLSN OVC009 M02/M03 A2953 RMK SC8 SLP030

CYQR;2010-10-27 10:00;CYQR 271000Z 34035G46KT 2SM R13/4000VP6000FT/U -SN BLSN OVC011 M02/M04 A2956 RMK SC8 SLP039

CYQR;2010-10-27 11:00;CYQR 271100Z 34036G41KT 2SM R13/4500VP6000FT/U -SN BLSN OVC013 M02/M05 A2960 RMK SC8 SLP051

CYQR;2010-10-27 12:00;CYQR 271200Z 34036G41KT 2 1/2SM -SN BLSN OVC013 M02/M05 A2965 RMK SC8 SLP069

CYQR;2010-10-27 13:00;CYQR 271300Z 34035G42KT 2 1/2SM -SN BLSN OVC015 M02/M05 A2970 RMK SC8 SLP085

CYQR;2010-10-27 14:00;CYQR 271400Z 34035G43KT 2 1/2SM -SN BLSN OVC015 M03/M06 A2975 RMK SC8 SLP100

CYQR;2010-10-27 15:00;CYQR 271500Z 34035G41KT 5SM BLSN OVC013 M03/M06 A2979 RMK SC8 VIS S-NW 21/2 SLP119

CYQR;2010-10-27 16:00;CYQR 271600Z 33028G37KT 5SM BLSN OVC013 M03/M06 A2984 RMK SC8 SLP134

CYQR;2010-10-27 17:00;CYQR 271700Z 33031G37KT 5SM BLSN OVC013 M03/M06 A2989 RMK SC8 SLP149

CYQR;2010-10-27 18:00;CYQR 271800Z CCA 32025G35KT 12SM DRSN OVC013 M04/M07 A2993 RMK SC8 VIS W 6 BLSN SLP167

CYQR;2010-10-27 18:28;CYQR 271828Z 33024G32KT 12SM DRSN OVC015 M04/ RMK SC8

CYQR;2010-10-27 19:00;CYQR 271900Z 33028G33KT 15SM DRSN OVC015 M04/M08 A2997 RMK SC8 SLP180

CYQR;2010-10-27 20:00;CYQR 272000Z 33024G29KT 15SM DRSN OVC017 M04/M07 A3000 RMK SC8 SLP190

CYQR;2010-10-27 21:00;CYQR 272100Z 32023G30KT 15SM DRSN OVC019 M04/M07 A3003 RMK SC8 SLP203

CYQR;2010-10-27 22:00;CYQR 272200Z 32025KT 15SM DRSN BKN019 M04/M08 A3006 RMK SC7 SLP213

CYQR;2010-10-27 23:00;CYQR 272300Z 31021G30KT 15SM DRSN BKN021 OVC300 M04/M08 A3010 RMK SC7CI0 SLP225

CYQR;2010-10-28 00:00;CYQR 280000Z 31019KT 15SM DRSN SCT020 BKN300 M06/M09 A3013 RMK SC3CI2 SLP239

CYQR;2010-10-28 01:00;CYQR 280100Z 32014KT 15SM DRSN FEW020 BKN300 M06/M10 A3015 RMK SC1CI1 SLP246

CYQR;2010-10-28 02:00;CYQR 280200Z 31015KT 15SM FEW020 M08/M11 A3017 RMK SC2 SLP251

CYQR;2010-10-28 03:00;CYQR 280300Z 30010KT 15SM FEW020 M09/M12 A3020 RMK SC1 SLP264

CYQR;2010-10-28 04:00;CYQR 280400Z 31015KT 15SM FEW020 BKN260 M08/M11 A3021 RMK SC2CI1 SLP270

CYQR;2010-10-28 05:00;CYQR 280500Z 30015KT 15SM FEW020 FEW250 M08/M11 A3024 RMK SC1CI1 SLP277

CYQR;2010-10-28 06:00;CYQR 280600Z 31013KT 15SM SKC M09/M12 A3025 RMK SLP283

CYQR;2010-10-28 07:00;CYQR 280700Z 31011KT 15SM SKC M10/M13 A3026 RMK SLP286

CYQR;2010-10-28 08:00;CYQR 280800Z 27006KT 15SM SKC M12/M14 A3027 RMK SLP289

CYQR;2010-10-28 09:00;CYQR 280900Z 29007KT 15SM SKC M13/M15 A3028 RMK SLP297

CYQR;2010-10-28 10:00;CYQR 281000Z 31008KT 15SM SKC M13/M15 A3029 RMK SLP299

CYQR;2010-10-28 11:00;CYQR 281100Z 31003KT 15SM SKC M13/M15 A3029 RMK SLP299

CYQR;2010-10-28 12:00;CYQR 281200Z 00000KT 15SM SCT012 M14/M16 A3030 RMK SC2 SLP305

CYQR;2010-10-28 12:27;CYQR 281227Z 00000KT 10SM BCFG BKN013 M14/ RMK SC5

CYQR;2010-10-28 13:00;CYQR 281300Z CCA 26003KT 10SM OVC010 M11/M14 A3030 RMK ST8 SLP305

CYQR;2010-10-28 13:44;CYQR 281344Z 26003KT 12SM OVC009 M10/ RMK SC8

CYQR;2010-10-28 14:00;CYQR 281400Z 27005KT 12SM OVC009 M08/M11 A3030 RMK SC8 SLP305

CYQR;2010-10-28 15:00;CYQR 281500Z 24006KT 12SM OVC008 M08/M10 A3030 RMK SC8 SLP305

CYQR;2010-10-28 16:00;CYQR 281600Z 22007KT 12SM OVC006 M08/M10 A3030 RMK SC7 SLP304

CYQR;2010-10-28 17:00;CYQR 281700Z 22006KT 12SM OVC006 M07/M09 A3029 RMK SC7 SLP301

CYQR;2010-10-28 18:00;CYQR 281800Z 19009KT 15SM BKN008 M06/M09 A3027 RMK SF6 SLP293

CYQR;2010-10-28 18:41;CYQR 281841Z 18011KT 15SM SCT006 M07/ RMK SF2

CYQR;2010-10-28 19:00;CYQR 281900Z 18011KT 15SM FEW006 BKN350 M06/M09 A3025 RMK SF1CI0 SLP285

CYQR;2010-10-28 20:00;CYQR 282000Z 15009KT 15SM FEW006 FEW350 M05/M09 A3022 RMK SF1CI0 TR SF SLP277

CYQR;2010-10-28 20:10;CYQR 282010Z 17011KT 15SM FEW350 M05/ RMK CI0

CYQR;2010-10-28 21:00;CYQR 282100Z 15009KT 15SM SCT350 M04/M08 A3022 RMK CI1 SLP275

CYQR;2010-10-28 22:00;CYQR 282200Z 14007KT 15SM BKN350 M04/M08 A3020 RMK CI2 SLP269

CYQR;2010-10-28 23:00;CYQR 282300Z 14009KT 15SM BKN350 M04/M08 A3018 RMK CI2 SLP264

CYQR;2010-10-29 00:00;CYQR 290000Z 13008KT 15SM FEW350 M05/M08 A3016 RMK CI1 SLP257

CYQR;2010-10-29 01:00;CYQR 290100Z 12008KT 15SM FEW350 M06/M09 A3015 RMK CI1 SLP253

CYQR;2010-10-29 02:00;CYQR 290200Z 13009KT 15SM SKC M06/M09 A3013 RMK SLP248

CYQR;2010-10-29 03:00;CYQR 290300Z 12008KT 15SM SCT250 M07/M10 A3012 RMK CI2 SLP240

CYQR;2010-10-29 04:00;CYQR 290400Z 14009KT 15SM OVC250 M07/M09 A3010 RMK CI3 SLP233

CYQR;2010-10-29 05:00;CYQR 290500Z 12007KT 15SM SCT100 OVC250 M07/M09 A3009 RMK AC3CI3 SLP229

CYQR;2010-10-29 06:00;CYQR 290600Z 11007KT 15SM OVC250 M07/M09 A3006 RMK CI6 SLP218

CYQR;2010-10-29 07:00;CYQR 290700Z 12009KT 15SM BKN100 OVC250 M06/M09 A3004 RMK AC5CI3 SLP211

CYQR;2010-10-29 08:00;CYQR 290800Z 12009KT 15SM BKN100 BKN260 M06/M08 A3000 RMK AC5CI2 SLP199

CYQR;2010-10-29 09:00;CYQR 290900Z 12010KT 15SM BKN092 BKN250 M06/M09 A3000 RMK AC5CI1 SLP194

CYQR;2010-10-29 10:00;CYQR 291000Z 13011KT 15SM OVC088 M06/M08 A2997 RMK AC8 SLP187

CYQR;2010-10-29 11:00;CYQR 291100Z 13011KT 15SM OVC088 M05/M07 A2996 RMK AC8 SLP182

CYQR;2010-10-29 12:00;CYQR 291200Z 14009KT 15SM OVC082 M04/M07 A2994 RMK AC8 SLP174

CYQR;2010-10-29 13:00;CYQR 291300Z 14009KT 15SM OVC078 M04/M06 A2992 RMK AC8 SLP167

CYQR;2010-10-29 14:00;CYQR 291400Z 13010KT 15SM OVC078 M03/M06 A2990 RMK AC8 SLP161

CYQR;2010-10-29 15:00;CYQR 291500Z 14012KT 12SM BKN080 OVC330 M02/M05 A2988 RMK AC7CI1 SLP153

CYQR;2010-10-29 16:00;CYQR 291600Z 14011KT 15SM OVC080 M01/M04 A2987 RMK AC8 SLP151

CYQR;2010-10-29 17:00;CYQR 291700Z 14011KT 15SM SCT078 OVC120 M00/M03 A2986 RMK AC4AC4 SLP147

CYQR;2010-10-29 18:00;CYQR 291800Z 15008KT 15SM SCT051 BKN082 OVC120 00/M03 A2986 RMK SC3AC2AC2 SLP143

CYQR;2010-10-29 19:00;CYQR 291900Z 13008KT 12SM FEW080 BKN120 OVC250 01/M02 A2982 RMK AC2AS5CI1 SLP132

CYQR;2010-10-29 19:49;CYQR 291949Z 07004KT 15SM -SHRA SCT034 OVC100 01/ RMK SC3AC5

CYQR;2010-10-29 20:00;CYQR 292000Z 10005KT 15SM -SHRA SCT034 OVC100 01/M02 A2984 RMK SC4AC4 SLP137

CYQR;2010-10-29 21:00;CYQR 292100Z 12008KT 15SM -SHRA FEW035 SCT075 OVC100 01/M02 A2981 RMK SC2AC2AC4 SLP125

CYQR;2010-10-29 22:00;CYQR 292200Z 11004KT 12SM -SHRA SCT033 BKN060 OVC100 01/M01 A2982 RMK SC3SC4AC1 SLP130

CYQR;2010-10-29 23:00;CYQR 292300Z 13005KT 7SM -SHRA OVC022 01/M01 A2985 RMK SC8 SLP137

CYQR;2010-10-29 23:48;CYQR 292348Z 08003KT 5SM BR BKN023 OVC082 00/ RMK SC5AC3

CYQR;2010-10-30 00:00;CYQR 300000Z 04003KT 5SM -SHRA BR BKN023 OVC082 01/M01 A2986 RMK SC5AC3 SLP143

CYQR;2010-10-30 01:00;CYQR 300100Z 08002KT 10SM FEW007 BKN036 OVC079 00/M01 A2987 RMK ST1SC3AC2 SLP146

CYQR;2010-10-30 02:00;CYQR 300200Z 02004KT 10SM FEW007 SCT056 OVC100 M00/M01 A2988 RMK ST1SC2AC2 SLP149

CYQR;2010-10-30 03:00;CYQR 300300Z 00000KT 15SM SKC M02/M02 A2989 RMK SLP151

CYQR;2010-10-30 03:20;CYQR 300320Z 35005KT 3SM BR BCFG SKC M03/ RMK VIS W-NW 1

CYQR;2010-10-30 04:00;CYQR 300400Z 36004KT 3SM BR BCFG SKC M03/M04 A2991 RMK VIS SW-W-NW 1-2 SLP158

CYQR;2010-10-30 04:43;CYQR 300443Z 03002KT 2SM R13/3000VP6000FT/N BR BCFG SKC M04/ RMK FG1 VIS VRB 1-3

CYQR;2010-10-30 05:00;CYQR 300500Z 00000KT 1SM R13/1200FT/N BR BCFG SKC M04/M06 A2992 RMK FG2 VIS VRB 3/4-11/2 SLP162

CYQR;2010-10-30 05:07;CYQR 300507Z 00000KT 3/4SM R13/1800FT/N BR BCFG SKC M05/ RMK FG2 VIS VRB 1/2-1

CYQR;2010-10-30 06:00;CYQR 300600Z 33002KT 1/2SM R13/3000FT/N FZFG SKC M06/M08 A2993 RMK FG2 SLP169

CYQR;2010-10-30 06:13;CYQR 300613Z 00000KT 1/4SM R13/2200FT/N FZFG SKC M06/ RMK FG3

CYQR;2010-10-30 07:00;CYQR 300700Z 26007KT 1/4SM R13/2200FT/N FZFG SKC M08/M10 A2995 RMK FG6 SLP173

CYQR;2010-10-30 08:00;CYQR 300800Z 29003KT 1/4SM R13/1800FT/N FZFG SKC M08/M10 A2996 RMK FG7 SLP179

CYQR;2010-10-30 09:00;CYQR 300900Z 00000KT 1/4SM R13/1200V1600FT/N FZFG SKC M07/M08 A2998 RMK FG7 SLP184

CYQR;2010-10-30 10:00;CYQR 301000Z 00000KT 1/4SM R13/1400FT/N FZFG SKC M08/M09 A2999 RMK FG7 SLP188

CYQR;2010-10-30 11:00;CYQR 301100Z 23002KT 1/4SM R13/1200FT/N FZFG VV001 M08/M09 A3000 RMK FG8 SLP192

CYQR;2010-10-30 12:00;CYQR 301200Z 12002KT 1/4SM R13/1600FT/N FZFG VV001 M08/M09 A3000 RMK FG8 FROIN SLP194

CYQR;2010-10-30 13:00;CYQR 301300Z 15002KT 3/8SM R13/3500FT/U FZFG VV001 M08/M09 A3001 RMK FG8 SLP198

CYQR;2010-10-30 13:32;CYQR 301332Z 15004KT 1/2SM R13/3000FT/U FZFG SKC M08/ RMK FG6

CYQR;2010-10-30 13:50;CYQR 301350Z 16004KT 1/4SM R13/2200FT/N FZFG SKC M08/ RMK FG7

CYQR;2010-10-30 14:00;CYQR 301400Z 15003KT 1/4SM R13/1400V2000FT/N FZFG SKC M08/M09 A3001 RMK FG7 SLP197

CYQR;2010-10-30 14:30;CYQR 301430Z 16003KT 1/2SM R13/2400FT/N FZFG SKC M07/ RMK FG6

CYQR;2010-10-30 14:45;CYQR 301445Z 17003KT 3/4SM R13/2800FT/N BR SCT006 M07/ RMK FG2SF1

CYQR;2010-10-30 14:52;CYQR 301452Z 17004KT 1SM R13/2800V4000FT/U BR SCT006 SCT300 M07/ RMK SF1CI1

CYQR;2010-10-30 15:00;CYQR 301500Z 17004KT 1SM R13/3000VP6000FT/U BR FEW006 FEW300 M07/M08 A3002 RMK SF1CI0 SLP201

CYQR;2010-10-30 15:24;CYQR 301524Z 15004KT 3/4SM R13/4500VP6000FT/D BR BKN004 M07/ RMK FG5SF0

CYQR;2010-10-30 15:54;CYQR 301554Z 15005KT 1SM R13/4000VP6000FT/U BR BKN001 M06/ RMK SF3

CYQR;2010-10-30 16:00;CYQR 301600Z 15005KT 1SM R13/P6000FT/U BR BKN001 M06/M06 A3002 RMK SF6 SLP201

CYQR;2010-10-30 16:22;CYQR 301622Z 15005KT 1 1/2SM BR BKN002 M05/ RMK SF2

CYQR;2010-10-30 16:29;CYQR 301629Z 14004KT 2 1/2SM BR BKN002 M04/ RMK SF2

CYQR;2010-10-30 16:49;CYQR 301649Z 15005KT 4SM BR FEW003 M03/ RMK SF1

CYQR;2010-10-30 17:00;CYQR 301700Z 15006KT 4SM BR FEW003 M03/M04 A3002 RMK SF1 SLP200

CYQR;2010-10-30 17:35;CYQR 301735Z 15008KT 2SM BR FEW003 M02/ RMK SF2 VIS W 5

CYQR;2010-10-30 17:43;CYQR 301743Z 16007KT 3/4SM R13/P6000FT/N BR OVC002 M02/ RMK SF7

CYQR;2010-10-30 18:00;CYQR 301800Z 16007KT 3/4SM R13/P6000FT/D BR OVC001 M02/M03 A3001 RMK FG2SF5 SLP198

CYQR;2010-10-30 18:34;CYQR 301834Z 14008KT 1SM R13/P6000FT/D BR BKN001 M01/ RMK SF7

CYQR;2010-10-30 19:00;CYQR 301900Z 14008KT 3/4SM R13/P6000FT/D BR OVC001 M01/M02 A3000 RMK FG2SF6 SLP195

CYQR;2010-10-30 19:02;CYQR 301902Z 14009KT 1 1/4SM BR BKN001 M01/ RMK SF6

CYQR;2010-10-30 19:08;CYQR 301908Z 14009KT 2SM BR SCT001 M01/ RMK SF3 VIS E 11/4

CYQR;2010-10-30 19:19;CYQR 301919Z 14009KT 3SM BR FEW001 M00/ RMK SF1 VIS E 2

CYQR;2010-10-30 20:00;CYQR 302000Z 14007KT 7SM FEW001 FEW110 01/01 A2999 RMK SF1AC1 SLP190

CYQR;2010-10-30 21:00;CYQR 302100Z 15008KT 12SM FEW001 FEW300 02/01 A2997 RMK SF1CI1 SLP181

CYQR;2010-10-30 22:00;CYQR 302200Z 14011KT 6SM BR FEW002 FEW300 02/00 A2996 RMK SF1CI0 SLP178

CYQR;2010-10-30 22:05;CYQR 302205Z 13011KT 3/4SM R13/P6000FT/N BR SCT002 01/ RMK SF2 VIS W-N 6

CYQR;2010-10-30 22:09;CYQR 302209Z CCA 13013KT 3/4SM R13/P6000FT/N BR BKN002 01/ RMK SF6

CYQR;2010-10-30 22:13;CYQR 302213Z 13013KT 3/8SM R13/P6000FT/D FG VV001 01/ RMK FG8

CYQR;2010-10-30 22:24;CYQR 302224Z 14014KT 1/4SM R13/1600FT/N FG VV001 00/ RMK FG8

CYQR;2010-10-30 23:00;CYQR 302300Z 14015KT 1/4SM R13/1800FT/N FZFG VV001 M00/M01 A2997 RMK FG8 SLP180

CYQR;2010-10-30 23:15;CYQR 302315Z 13012KT 1/8SM R13/2000FT/U FZFG VV001 M00/ RMK FG8

CYQR;2010-10-30 23:23;CYQR 302323Z 14012KT 1/4SM R13/2000FT/N FZFG VV001 M00/ RMK FG8

CYQR;2010-10-31 00:00;CYQR 310000Z 14015KT 1/4SM R13/2400FT/N FZFG VV001 M00/M01 A2996 RMK FG8 SLP179

CYQR;2010-10-31 01:00;CYQR 310100Z 13014KT 3/8SM R13/3000FT/N FZFG VV002 M00/M01 A2995 RMK FG8 SLP175

CYQR;2010-10-31 02:00;CYQR 310200Z 14012G17KT 3/8SM R13/2800FT/N FZFG VV002 M01/M01 A2996 RMK FG8 SLP178

CYQR;2010-10-31 03:00;CYQR 310300Z 14013KT 3/8SM R13/2800FT/N FZFG VV002 M01/M01 A2996 RMK FG8 SLP179

CYQR;2010-10-31 04:00;CYQR 310400Z 15014KT 3/8SM R13/3500FT/N FZFG VV002 M00/M01 A2996 RMK FG8 RIME SLP179

CYQR;2010-10-31 05:00;CYQR 310500Z 14014G19KT 3/8SM R13/4000FT/U FZFG VV002 M01/M01 A2996 RMK FG8 SLP179

CYQR;2010-10-31 06:00;CYQR 310600Z 14015KT 3/8SM R13/3500FT/N FZFG VV002 M01/M02 A2996 RMK FG8 RIME SLP174

CYQR;2010-10-31 07:00;CYQR 310700Z 14016KT 1/2SM R13/3000V5000FT/D FZFG SKC M01/M02 A2995 RMK FG7 SLP172

CYQR;2010-10-31 07:36;CYQR 310736Z 14014KT 1/2SM R13/4000V6000FT/D FZFG VV003 M01/ RMK FG8

CYQR;2010-10-31 08:00;CYQR 310800Z 14014KT 1/2SM R13/4000VP6000FT/D FZFG VV003 M01/M02 A2994 RMK FG8 SLP170

CYQR;2010-10-31 09:00;CYQR 310900Z 14015KT 1/2SM R13/4500VP6000FT/D FZFG VV004 M01/M03 A2993 RMK FG8 SLP163

CYQR;2010-10-31 10:00;CYQR 311000Z 14016KT 1/2SM R13/6000FT/N FZFG VV004 M02/M03 A2992 RMK FG8 SLP159

CYQR;2010-10-31 10:50;CYQR 311050Z 13015KT 1SM R13/6000FT/U BR OVC006 M02/ RMK FG3SF5

CYQR;2010-10-31 10:55;CYQR 311055Z 13016KT 1 1/2SM BR BKN006 M02/ RMK FG2SF5

CYQR;2010-10-31 11:00;CYQR 311100Z 13015KT 1 1/2SM BR BKN006 M02/M03 A2990 RMK FG2SF5 SLP154

CYQR;2010-10-31 11:29;CYQR 311129Z 14017KT 2 1/2SM BR BKN006 M02/ RMK FG1SF6

CYQR;2010-10-31 11:46;CYQR 311146Z 14015KT 3SM BR BKN005 M02/ RMK SF5

CYQR;2010-10-31 11:51;CYQR 311151Z 14015KT 6SM BR SCT005 M02/ RMK SF3

CYQR;2010-10-31 12:00;CYQR 311200Z 14015KT 6SM BR SCT005 M02/M04 A2990 RMK SF3 SLP156

CYQR;2010-10-31 13:00;CYQR 311300Z 14014KT 8SM FEW010 M02/M04 A2990 RMK SF2 SLP155

CYQR;2010-10-31 14:00;CYQR 311400Z 15015KT 10SM FEW015 FEW100 FEW280 M02/M03 A2990 RMK SC1AC1CI0 SLP155

CYQR;2010-10-31 15:00;CYQR 311500Z 14013G19KT 10SM FEW025 FEW100 FEW280 M02/M03 A2991 RMK SF1AC1CI0 SLP157

CYQR;2010-10-31 15:27;CYQR 311527Z 15015KT 10SM BKN005 M01/ RMK SF5 VIS S 3 BR

CYQR;2010-10-31 15:35;CYQR 311535Z 15015KT 3SM BR BKN003 M01/ RMK SF7

CYQR;2010-10-31 15:53;CYQR 311553Z 15015G20KT 1 1/2SM BR OVC002 M01/ RMK SF7

CYQR;2010-10-31 16:00;CYQR 311600Z 15015KT 1 1/2SM BR OVC002 M01/M02 A2991 RMK SF8 SLP160

CYQR;2010-10-31 16:13;CYQR 311613Z 15016KT 1SM R13/P6000FT/N BR OVC001 M01/ RMK SF8

CYQR;2010-10-31 16:51;CYQR 311651Z 15017KT 2SM BR OVC002 M00/ RMK SF8

CYQR;2010-10-31 17:00;CYQR 311700Z 15016KT 2 1/2SM BR OVC002 M00/M01 A2991 RMK SF7 VIS VRB 2-3 SLP160

CYQR;2010-10-31 17:19;CYQR 311719Z 15015G21KT 2 1/2SM BR OVC003 M00/ RMK SF7 VIS VRB 2-3

CYQR;2010-10-31 17:27;CYQR 311727Z 15013KT 3SM BR OVC003 M00/ RMK SF6

CYQR;2010-10-31 18:00;CYQR 311800Z 15015KT 4SM BR OVC003 00/M00 A2991 RMK SF6 SLP159

CYQR;2010-10-31 18:17;CYQR 311817Z 14014KT 6SM BR BKN004 01/ RMK SF6

CYQR;2010-10-31 18:39;CYQR 311839Z 15014KT 10SM SCT005 BKN280 02/ RMK SF2CI1

CYQR;2010-10-31 19:00;CYQR 311900Z 15013G18KT 10SM FEW007 BKN280 02/01 A2991 RMK SF2CI1 SLP156

CYQR;2010-10-31 20:00;CYQR 312000Z 14015KT 6SM BR BKN004 BKN280 02/01 A2990 RMK SF2CI2 SLP155

CYQR;2010-10-31 20:05;CYQR 312005Z 14016KT 6SM BR BKN004 BKN280 02/ RMK SF5CI0

CYQR;2010-10-31 20:35;CYQR 312035Z 15011G17KT 10SM SCT004 BKN100 BKN280 02/ RMK SF2AC2CI2

CYQR;2010-10-31 21:00;CYQR 312100Z 14012KT 15SM FEW005 SCT100 BKN280 03/02 A2991 RMK SF2AC2CI2 CC ASOCTD SLP154

CYQR;2010-10-31 22:00;CYQR 312200Z 14011G16KT 15SM SCT004 SCT085 BKN280 03/02 A2992 RMK SF2AC2CI2 SLP158

CYQR;2010-10-31 23:00;CYQR 312300Z 13011KT 15SM FEW005 BKN090 BKN280 03/02 A2993 RMK SF1AC4CI1 SLP161

CYQR;2010-11-01 01:00;CYQR 010100Z 14011KT 15SM FEW090 BKN280 03/02 A2996 RMK AC2CI3 SLP174

CYQR;2010-11-01 02:00;CYQR 010200Z 14012KT 15SM FEW090 BKN280 02/01 A2998 RMK AC2CI3 SLP180

CYQR;2010-11-01 03:00;CYQR 010300Z 14010G15KT 15SM SCT090 BKN280 02/01 A2999 RMK AC3CI2 SLP183

CYQR;2010-11-01 04:00;CYQR 010400Z 14010KT 15SM FEW090 BKN280 02/01 A3000 RMK AC2CI2 SLP187

CYQR;2010-11-01 05:00;CYQR 010500Z 13011KT 15SM FEW090 BKN280 01/01 A3001 RMK AC1CI2 SLP191

CYQR;2010-11-01 06:00;CYQR 010600Z 13010KT 15SM FEW090 BKN280 01/M00 A3003 RMK AC1CI2 SLP196

CYQR;2010-11-01 07:00;CYQR 010700Z 14008KT 15SM FEW094 BKN280 01/M00 A3004 RMK AC2CI1 SLP200

CYQR;2010-11-01 08:00;CYQR 010800Z 13006KT 15SM FEW090 M00/M02 A3006 RMK AC2 SLP207

CYQR;2010-11-01 09:00;CYQR 010900Z 13007KT 15SM SKC M01/M02 A3007 RMK SLP212

CYQR;2010-11-01 10:00;CYQR 011000Z 15005KT 15SM SKC M01/M03 A3009 RMK SLP216

CYQR;2010-11-01 11:00;CYQR 011100Z 16005KT 15SM SKC M02/M03 A3011 RMK SLP223

CYQR;2010-11-01 12:00;CYQR 011200Z 15004KT 15SM SKC M02/M04 A3012 RMK SLP228

CYQR;2010-11-01 13:00;CYQR 011300Z 15005KT 15SM SKC M02/M04 A3012 RMK SLP229

CYQR;2010-11-01 14:00;CYQR 011400Z 14006KT 12SM SKC M03/M05 A3013 RMK SLP233

CYQR;2010-11-01 15:00;CYQR 011500Z 16005KT 15SM SKC M01/M03 A3015 RMK SLP237

CYQR;2010-11-01 16:00;CYQR 011600Z 19003KT 15SM FEW260 03/00 A3016 RMK CI1 SLP242

CYQR;2010-11-01 17:00;CYQR 011700Z 18005KT 15SM FEW260 05/02 A3016 RMK CI1 SLP242

CYQR;2010-11-01 18:00;CYQR 011800Z 20005KT 15SM BKN280 07/03 A3016 RMK CI2 SLP238

CYQR;2010-11-01 19:00;CYQR 011900Z 19005KT 15SM BKN280 09/04 A3014 RMK CI2 SLP232

CYQR;2010-11-01 20:00;CYQR 012000Z 17010KT 15SM BKN280 11/05 A3012 RMK CI2 SLP224

CYQR;2010-11-01 21:00;CYQR 012100Z 18009KT 15SM BKN280 11/05 A3010 RMK CI6 SLP216

CYQR;2010-11-01 22:00;CYQR 012200Z 19010KT 15SM BKN230 09/03 A3009 RMK CI5 SLP212

CYQR;2010-11-01 23:00;CYQR 012300Z 18011KT 15SM BKN230 08/03 A3007 RMK CI3 SLP207

CYQR;2010-11-02 00:00;CYQR 020000Z 18009KT 15SM BKN230 06/02 A3007 RMK CI3 SLP208

CYQR;2010-11-02 01:00;CYQR 020100Z 18011KT 15SM BKN230 05/01 A3006 RMK CI2 SLP205

CYQR;2010-11-02 02:00;CYQR 020200Z 18012KT 15SM SCT230 05/M00 A3004 RMK CI1 SLP200

CYQR;2010-11-02 03:00;CYQR 020300Z 19013KT 15SM SKC 05/M00 A3001 RMK SLP189

CYQR;2010-11-02 04:00;CYQR 020400Z 19013KT 15SM FEW082 04/M00 A3000 RMK AC2 SLP187

CYQR;2010-11-02 05:00;CYQR 020500Z 21013KT 15SM FEW080 05/00 A2999 RMK AC2 SLP183

CYQR;2010-11-02 06:00;CYQR 020600Z 21012KT 15SM FEW080 05/00 A2997 RMK AC2 SLP169

CYQR;2010-11-02 07:00;CYQR 020700Z 22013KT 15SM SCT076 06/01 A2997 RMK AC3 SLP169

CYQR;2010-11-02 08:00;CYQR 020800Z 22011KT 15SM FEW076 BKN240 06/02 A2995 RMK AC2CI1 SLP161

CYQR;2010-11-02 09:00;CYQR 020900Z 22008KT 15SM FEW075 BKN240 05/02 A2994 RMK AC2CI1 SLP155

CYQR;2010-11-02 10:00;CYQR 021000Z 24014KT 15SM SCT089 BKN240 07/02 A2993 RMK AC3CI1 SLP153

CYQR;2010-11-02 11:00;CYQR 021100Z 26014KT 15SM SCT090 BKN260 07/03 A2993 RMK AC3CI1 SLP152

CYQR;2010-11-02 12:00;CYQR 021200Z 26012KT 15SM SCT090 BKN260 07/03 A2993 RMK AC3CI1 SLP156

CYQR;2010-11-02 13:00;CYQR 021300Z 27012KT 15SM FEW090 06/02 A2994 RMK AC2 SLP159

CYQR;2010-11-02 14:00;CYQR 021400Z 28015KT 15SM FEW100 06/03 A2996 RMK AC1 SLP166

CYQR;2010-11-02 15:00;CYQR 021500Z 30008KT 15SM SKC 06/03 A3001 RMK SLP185

CYQR;2010-11-02 16:00;CYQR 021600Z 30014KT 15SM SKC 08/03 A3004 RMK SLP192

CYQR;2010-11-02 17:00;CYQR 021700Z 32012KT 15SM SKC 09/04 A3007 RMK SLP202

CYQR;2010-11-02 18:00;CYQR 021800Z 31013G20KT 15SM SKC 11/04 A3010 RMK SLP209

CYQR;2010-11-02 19:00;CYQR 021900Z 33014KT 15SM FEW280 12/04 A3011 RMK CI0 SLP213

CYQR;2010-11-02 20:00;CYQR 022000Z 32013KT 15SM SCT071 12/03 A3013 RMK AC3 SLP219

CYQR;2010-11-02 21:00;CYQR 022100Z 32014KT 15SM FEW081 12/02 A3013 RMK AC2 SLP221

CYQR;2010-11-02 22:00;CYQR 022200Z 31012KT 15SM FEW090 11/02 A3014 RMK AC2 SLP224

CYQR;2010-11-02 23:00;CYQR 022300Z 30009KT 15SM FEW090 09/02 A3017 RMK AC2 SLP232

CYQR;2010-11-03 00:00;CYQR 030000Z 30011KT 15SM FEW090 06/00 A3019 RMK AC1 SLP245

CYQR;2010-11-03 01:00;CYQR 030100Z 28010KT 15SM FEW090 05/M00 A3022 RMK AC1 SLP253

CYQR;2010-11-03 02:00;CYQR 030200Z 27010KT 15SM SKC 03/M01 A3023 RMK SLP256

CYQR;2010-11-03 03:00;CYQR 030300Z 26010KT 15SM SKC 02/M01 A3022 RMK SLP259

CYQR;2010-11-03 04:00;CYQR 030400Z 27011KT 15SM SKC 02/M01 A3023 RMK SLP262

CYQR;2010-11-03 05:00;CYQR 030500Z 28012KT 15SM SKC 02/M01 A3025 RMK SLP266

CYQR;2010-11-03 06:00;CYQR 030600Z 28011KT 15SM SKC 02/M01 A3025 RMK SLP265

CYQR;2010-11-03 07:00;CYQR 030700Z 28012KT 15SM SKC 02/M01 A3025 RMK SLP265

CYQR;2010-11-03 08:00;CYQR 030800Z 29013KT 15SM SKC 03/M02 A3025 RMK SLP266

CYQR;2010-11-03 09:00;CYQR 030900Z 28012KT 15SM SKC 02/M02 A3028 RMK SLP274

CYQR;2010-11-03 10:00;CYQR 031000Z 29013KT 15SM SKC 02/M03 A3030 RMK SLP280

CYQR;2010-11-03 11:00;CYQR 031100Z 30014KT 15SM SKC 02/M03 A3031 RMK SLP284

CYQR;2010-11-03 12:00;CYQR 031200Z 29012KT 15SM SKC 02/M03 A3032 RMK SLP291

CYQR;2010-11-03 13:00;CYQR 031300Z 28010KT 15SM SKC 00/M04 A3035 RMK SLP300

CYQR;2010-11-03 14:00;CYQR 031400Z 30007KT 15SM SKC M00/M04 A3037 RMK SLP308

CYQR;2010-11-03 15:00;CYQR 031500Z 29014KT 15SM SKC 02/M03 A3038 RMK SLP316

CYQR;2010-11-03 16:00;CYQR 031600Z 31012KT 15SM SKC 04/M02 A3040 RMK SLP323

CYQR;2010-11-03 17:00;CYQR 031700Z 32022KT 15SM SKC 07/M01 A3041 RMK SLP325

CYQR;2010-11-03 18:00;CYQR 031800Z 33020KT 15SM SKC 09/M00 A3042 RMK SLP325

CYQR;2010-11-03 19:00;CYQR 031900Z 31015G21KT 15SM SKC 09/M00 A3042 RMK SLP325

CYQR;2010-11-03 20:00;CYQR 032000Z 31018KT 15SM SKC 10/M01 A3042 RMK SLP325

CYQR;2010-11-03 21:00;CYQR 032100Z 30019G26KT 15SM SKC 10/M00 A3041 RMK SLP322

CYQR;2010-11-03 22:00;CYQR 032200Z 32017G24KT 15SM SKC 10/M01 A3041 RMK SLP320

CYQR;2010-11-03 23:00;CYQR 032300Z 31014KT 15SM SKC 08/M01 A3042 RMK SLP323

CYQR;2010-11-04 00:00;CYQR 040000Z 31011KT 15SM SKC 05/M02 A3044 RMK SLP333

CYQR;2010-11-04 00:34;CYQR 040034Z 30009KT 15SM SKC 02/

CYQR;2010-11-04 01:00;CYQR 040100Z 30010KT 15SM SKC 02/M03 A3044 RMK SLP334

CYQR;2010-11-04 02:00;CYQR 040200Z 30010KT 15SM SKC 01/M03 A3044 RMK SLP335

CYQR;2010-11-04 03:00;CYQR 040300Z 29008KT 15SM SKC M01/M04 A3045 RMK SLP341

CYQR;2010-11-04 04:00;CYQR 040400Z 25006KT 15SM SKC M03/M05 A3046 RMK SLP346

CYQR;2010-11-04 05:00;CYQR 040500Z 27005KT 15SM SKC M04/M06 A3046 RMK SLP345

CYQR;2010-11-04 06:00;CYQR 040600Z 30005KT 15SM SKC M04/M06 A3046 RMK SLP343

CYQR;2010-11-04 07:00;CYQR 040700Z CCA 28005KT 15SM SKC M04/M07 A3045 RMK SLP341

CYQR;2010-11-04 08:00;CYQR 040800Z 28005KT 15SM SKC M04/M06 A3044 RMK SLP337

CYQR;2010-11-04 09:00;CYQR 040900Z 29007KT 15SM SKC M05/M08 A3044 RMK SLP335

CYQR;2010-11-04 10:00;CYQR 041000Z 28005KT 15SM SKC M06/M08 A3043 RMK SLP334

CYQR;2010-11-04 11:00;CYQR 041100Z 29005KT 15SM SKC M06/M08 A3042 RMK FROIN SLP331

CYQR;2010-11-04 12:00;CYQR 041200Z 29003KT 15SM SKC M06/M09 A3042 RMK SLP333

CYQR;2010-11-04 13:00;CYQR 041300Z 00000KT 15SM SKC M07/M08 A3041 RMK SLP329

CYQR;2010-11-04 14:00;CYQR 041400Z 00000KT 15SM FEW220 M07/M09 A3040 RMK CI1 CONTRAILS SLP327

CYQR;2010-11-04 15:00;CYQR 041500Z 22003KT 15SM FEW240 M04/M07 A3040 RMK CI0 CONTRAILS SLP327

CYQR;2010-11-04 16:00;CYQR 041600Z 20002KT 15SM FEW240 01/M03 A3037 RMK CI1 OBS TAKEN +28 SLP320

CYQR;2010-11-04 17:00;CYQR 041700Z 19003KT 15SM FEW240 03/M02 A3037 RMK CI0 CONTRAILS SLP318

CYQR;2010-11-04 18:00;CYQR 041800Z 18004KT 15SM FEW240 06/M01 A3034 RMK CI0 SLP303

CYQR;2010-11-04 19:00;CYQR 041900Z 18007KT 15SM FEW260 07/M01 A3031 RMK CI0 CONTRAILS SLP294

CYQR;2010-11-04 20:00;CYQR 042000Z 19008KT 15SM FEW260 09/M02 A3027 RMK CI0 CONTRAILS SLP282

CYQR;2010-11-04 21:00;CYQR 042100Z 18008KT 15SM FEW260 10/M03 A3024 RMK CI0 CONTRAILS SLP267

CYQR;2010-11-04 22:00;CYQR 042200Z 17008KT 15SM FEW230 10/M03 A3022 RMK CI1 SLP260

CYQR;2010-11-04 23:00;CYQR 042300Z 14008KT 15SM FEW090 FEW260 07/M03 A3020 RMK AC1CI1 SLP253

CYQR;2010-11-05 00:00;CYQR 050000Z 14010KT 15SM FEW250 05/M03 A3017 RMK CI1 SLP248

CYQR;2010-11-05 01:00;CYQR 050100Z 15012KT 15SM SKC 05/M04 A3015 RMK SLP241

CYQR;2010-11-05 02:00;CYQR 050200Z 15013KT 15SM SKC 03/M04 A3012 RMK SLP232

CYQR;2010-11-05 02:12;CYQR 050212Z 16012KT 15SM SKC 02/

CYQR;2010-11-05 03:00;CYQR 050300Z 16011KT 15SM SKC 01/M05 A3010 RMK SLP226

CYQR;2010-11-05 04:00;CYQR 050400Z 15010KT 15SM SKC 01/M05 A3010 RMK SLP223

CYQR;2010-11-05 05:00;CYQR 050500Z 15013KT 15SM SKC M00/M05 A3008 RMK SLP218

CYQR;2010-11-05 06:00;CYQR 050600Z 15014KT 15SM SKC M00/M05 A3005 RMK SLP203

CYQR;2010-11-05 07:00;CYQR 050700Z 15013KT 15SM SKC M01/M05 A3003 RMK SLP194

CYQR;2010-11-05 08:00;CYQR 050800Z 14013KT 15SM SKC M01/M05 A3000 RMK SLP185

CYQR;2010-11-05 09:00;CYQR 050900Z 14014KT 15SM SKC M01/M05 A2995 RMK SLP164

CYQR;2010-11-05 10:00;CYQR 051000Z 14012KT 15SM SKC M01/M06 A2993 RMK SLP157

CYQR;2010-11-05 11:00;CYQR 051100Z 15011G16KT 15SM SKC M01/M06 A2990 RMK SLP149

CYQR;2010-11-05 12:00;CYQR 051200Z 14011KT 15SM SKC M02/M06 A2988 RMK SLP144

CYQR;2010-11-05 13:00;CYQR 051300Z 14012KT 15SM FEW250 M02/M06 A2986 RMK CI1 SLP136

CYQR;2010-11-05 14:00;CYQR 051400Z 15009KT 15SM SCT250 M02/M06 A2984 RMK CI1 SLP131

CYQR;2010-11-05 15:00;CYQR 051500Z 15009KT 15SM BKN250 M01/M05 A2984 RMK CI0 SLP131

CYQR;2010-11-05 16:00;CYQR 051600Z 14008KT 15SM SCT250 02/M04 A2982 RMK CI1 SLP126

CYQR;2010-11-05 17:00;CYQR 051700Z 15008KT 15SM SCT250 06/M02 A2981 RMK CI1 SLP123

CYQR;2010-11-05 18:00;CYQR 051800Z 17010KT 15SM BKN230 10/M00 A2978 RMK CI2 SLP106

CYQR;2010-11-05 19:00;CYQR 051900Z 18011KT 15SM BKN210 11/01 A2976 RMK CI6 SLP099

CYQR;2010-11-05 20:00;CYQR 052000Z 18008KT 15SM BKN200 13/02 A2973 RMK CI6 SLP090

CYQR;2010-11-05 21:00;CYQR 052100Z 19007KT 15SM BKN200 14/03 A2972 RMK CI7 SLP082

CYQR;2010-11-05 22:00;CYQR 052200Z 17006KT 15SM BKN092 BKN200 12/04 A2970 RMK AC5CI2 SLP076

CYQR;2010-11-05 23:00;CYQR 052300Z 16008KT 15SM SCT092 BKN200 11/04 A2969 RMK AC3CI4 SLP074

CYQR;2010-11-06 00:00;CYQR 060000Z 16012KT 15SM FEW090 BKN200 10/03 A2967 RMK AC1CI5 SLP070

CYQR;2010-11-06 01:00;CYQR 060100Z 16009KT 15SM FEW090 FEW200 08/02 A2966 RMK AC2CI0 SLP065

CYQR;2010-11-06 02:00;CYQR 060200Z 17009KT 15SM FEW085 FEW200 06/01 A2966 RMK AC1CI0 SLP064

CYQR;2010-11-06 03:00;CYQR 060300Z 19009KT 15SM BKN100 06/01 A2964 RMK AC6 SLP061

CYQR;2010-11-06 04:00;CYQR 060400Z 21007KT 15SM BKN100 07/02 A2965 RMK AC6 SLP062

CYQR;2010-11-06 05:00;CYQR 060500Z 22003KT 15SM OVC100 07/02 A2965 RMK AC8 SLP063

CYQR;2010-11-06 06:00;CYQR 060600Z 22007KT 15SM SCT100 BKN250 06/01 A2964 RMK AC4CI0 SLP054

CYQR;2010-11-06 07:00;CYQR 060700Z 26010KT 15SM OVC100 10/03 A2965 RMK AC8 SLP057

CYQR;2010-11-06 08:00;CYQR 060800Z 27010KT 15SM BKN100 OVC250 10/03 A2966 RMK AC6CI2 SLP058

CYQR;2010-11-06 09:00;CYQR 060900Z 27007KT 15SM SCT100 BKN250 07/03 A2969 RMK AC4CI0 SLP066

CYQR;2010-11-06 10:00;CYQR 061000Z 31010KT 15SM SCT100 BKN250 06/02 A2970 RMK AC4CI0 SLP071

CYQR;2010-11-06 11:00;CYQR 061100Z 33011KT 15SM FEW100 BKN250 06/02 A2974 RMK AC2CI0 SLP084

CYQR;2010-11-06 12:00;CYQR 061200Z 33008KT 15SM SKC 03/00 A2978 RMK SLP104

CYQR;2010-11-06 13:00;CYQR 061300Z 30007KT 15SM FEW250 01/M02 A2982 RMK CI0 SLP116

CYQR;2010-11-06 14:00;CYQR 061400Z 35004KT 15SM FEW140 SCT250 M00/M03 A2982 RMK AC1CI2 SLP118

CYQR;2010-11-06 15:00;CYQR 061500Z 31005KT 15SM FEW200 BKN250 M01/M03 A2986 RMK CC1CI2 SLP134

CYQR;2010-11-06 16:00;CYQR 061600Z 34004KT 15SM BKN250 04/M00 A2986 RMK CI2 SLP137

CYQR;2010-11-06 17:00;CYQR 061700Z 36004KT 15SM BKN250 06/00 A2989 RMK CI2 SLP145

CYQR;2010-11-06 18:00;CYQR 061800Z 06002KT 15SM BKN250 08/00 A2990 RMK CI2 SLP142

CYQR;2010-11-06 19:00;CYQR 061900Z 16002KT 15SM SCT250 10/00 A2989 RMK CI1 SLP139

CYQR;2010-11-06 20:00;CYQR 062000Z 12003KT 15SM SCT250 11/00 A2988 RMK CI1 SLP137

CYQR;2010-11-06 21:00;CYQR 062100Z 15006KT 15SM SCT250 11/M00 A2987 RMK CI0 SLP129

CYQR;2010-11-06 22:00;CYQR 062200Z 15006KT 15SM SCT250 11/M00 A2986 RMK CI0 SLP128

CYQR;2010-11-06 23:00;CYQR 062300Z 13006KT 15SM SCT250 08/M00 A2985 RMK CI0 SLP123

CYQR;2010-11-07 00:00;CYQR 070000Z 11009KT 15SM SCT250 07/M01 A2982 RMK CI1 SLP119

CYQR;2010-11-07 01:00;CYQR 070100Z 14010KT 15SM SCT250 07/M01 A2983 RMK CI1 SLP122

CYQR;2010-11-07 02:00;CYQR 070200Z 14011KT 15SM FEW250 06/M01 A2983 RMK CI1 SLP121

CYQR;2010-11-07 03:00;CYQR 070300Z 13012KT 15SM FEW250 05/M01 A2980 RMK CI1 SLP114

CYQR;2010-11-07 04:00;CYQR 070400Z 14012KT 15SM BKN077 05/M00 A2981 RMK AC4 SLP117

CYQR;2010-11-07 05:00;CYQR 070500Z 16014KT 15SM BKN052 07/01 A2978 RMK SC7 SLP110

CYQR;2010-11-07 06:00;CYQR 070600Z 15017KT 15SM FEW052 BKN099 07/02 A2976 RMK SC2AC4 SLP095

CYQR;2010-11-07 07:00;CYQR 070700Z 15014KT 15SM SCT050 BKN099 07/02 A2976 RMK SC4AC3 SLP094

CYQR;2010-11-07 08:00;CYQR 070800Z 15010KT 15SM FEW100 07/02 A2976 RMK AC2 SLP093

CYQR;2010-11-07 09:00;CYQR 070900Z 15012KT 15SM SKC 06/02 A2974 RMK SLP087

CYQR;2010-11-07 10:00;CYQR 071000Z 16008KT 15SM FEW100 04/02 A2974 RMK AC2 SLP087

CYQR;2010-11-07 11:00;CYQR 071100Z 12009KT 15SM FEW100 03/01 A2974 RMK AC1 SLP086

CYQR;2010-11-07 12:00;CYQR 071200Z 14008KT 15SM FEW100 01/M00 A2975 RMK AC1 SLP095

CYQR;2010-11-07 13:00;CYQR 071300Z 12005KT 15SM SKC 01/M00 A2974 RMK SLP093

CYQR;2010-11-07 14:00;CYQR 071400Z 13006KT 15SM BKN250 M00/M02 A2975 RMK CI2 SLP095

CYQR;2010-11-07 15:00;CYQR 071500Z 13007KT 15SM FEW250 01/M00 A2975 RMK CI1 CONTRAILS SLP097

CYQR;2010-11-07 16:00;CYQR 071600Z 13006KT 15SM FEW250 06/02 A2973 RMK CI1 SLP092

CYQR;2010-11-07 17:00;CYQR 071700Z 13006KT 15SM FEW250 09/04 A2974 RMK CI1 SLP093

CYQR;2010-11-07 18:00;CYQR 071800Z 14007KT 15SM FEW250 12/06 A2973 RMK CI1 SLP081

CYQR;2010-11-07 19:00;CYQR 071900Z 16004KT 15SM FEW250 15/06 A2971 RMK CI1 CONTRAILS SLP076

CYQR;2010-11-07 20:00;CYQR 072000Z 15008KT 15SM FEW250 17/07 A2969 RMK CI1 SLP069

CYQR;2010-11-07 21:00;CYQR 072100Z 16008KT 15SM FEW250 18/07 A2968 RMK CI1 SLP060

CYQR;2010-11-07 22:00;CYQR 072200Z 15007KT 15SM FEW250 18/07 A2967 RMK CI1 SLP057

CYQR;2010-11-07 23:00;CYQR 072300Z 14009KT 15SM FEW250 15/06 A2966 RMK CI1 SLP055

CYQR;2010-11-08 00:00;CYQR 080000Z 15011KT 15SM FEW250 13/06 A2966 RMK CI1 SLP060

CYQR;2010-11-08 01:00;CYQR 080100Z 15008KT 15SM SKC 11/05 A2966 RMK SLP062

CYQR;2010-11-08 02:00;CYQR 080200Z 14011KT 15SM SKC 09/04 A2965 RMK SLP058

CYQR;2010-11-08 03:00;CYQR 080300Z 15011KT 15SM SKC 09/04 A2965 RMK SLP059

CYQR;2010-11-08 04:00;CYQR 080400Z 13009KT 15SM SKC 06/03 A2965 RMK SLP060

CYQR;2010-11-08 05:00;CYQR 080500Z 13011KT 15SM SKC 06/03 A2964 RMK SLP058

CYQR;2010-11-08 06:00;CYQR 080600Z 13011KT 15SM SKC 06/03 A2964 RMK SLP050

CYQR;2010-11-08 07:00;CYQR 080700Z 13011KT 15SM SKC 06/03 A2963 RMK SLP048

CYQR;2010-11-08 08:00;CYQR 080800Z 14013KT 15SM SKC 06/03 A2962 RMK SLP044

CYQR;2010-11-08 12:00;CYQR 081200Z 12005KT 15SM FEW240 04/02 A2961 RMK CI0 SLP043

CYQR;2010-11-08 13:00;CYQR 081300Z 15010KT 15SM FEW240 05/02 A2961 RMK CI1 SLP040

CYQR;2010-11-08 14:00;CYQR 081400Z 14006KT 15SM FEW100 BKN240 03/01 A2961 RMK AC2CI2 CC ASOCTD SLP042

CYQR;2010-11-08 15:00;CYQR 081500Z 14008KT 15SM BKN100 BKN140 BKN260 04/02 A2962 RMK AC2ACC1CI2 SLP047

CYQR;2010-11-08 16:00;CYQR 081600Z 19006KT 15SM SCT100 BKN140 BKN260 05/03 A2963 RMK AC2AC1CI4 CC ASOCTD SLP051

CYQR;2010-11-08 17:00;CYQR 081700Z 10004KT 15SM SCT100 BKN140 BKN260 06/04 A2963 RMK AC3AC2CI2 SLP050

CYQR;2010-11-08 18:00;CYQR 081800Z 00000KT 15SM SCT100 BKN140 BKN260 08/05 A2963 RMK AC3AC3CI1 SLP051

CYQR;2010-11-08 19:00;CYQR 081900Z 05005KT 15SM FEW062 FEW100 BKN120 BKN280 10/05 A2963 RMK SC1AC2AS5CI1 SLP050

CYQR;2010-11-08 20:00;CYQR 082000Z 36003KT 15SM FEW062 FEW100 BKN120 BKN280 11/05 A2962 RMK SC1AC1AC5CI1 SLP048

CYQR;2010-11-08 21:00;CYQR 082100Z 35006KT 15SM BKN100 BKN280 12/06 A2961 RMK AC5CI2 SLP041

CYQR;2010-11-08 22:00;CYQR 082200Z 34011KT 15SM FEW069 BKN100 BKN280 11/06 A2961 RMK AC1AC6CI2 SLP044

CYQR;2010-11-08 23:00;CYQR 082300Z 33012KT 15SM FEW066 BKN100 BKN280 09/05 A2962 RMK AC2AC2CI1 SLP047

CYQR;2010-11-09 00:00;CYQR 090000Z 33012KT 15SM BKN100 BKN280 07/05 A2964 RMK AC5CI1 SLP056

CYQR;2010-11-09 01:00;CYQR 090100Z 33007KT 15SM OVC100 07/05 A2966 RMK AC8 SLP061

CYQR;2010-11-09 01:13;CYQR 090113Z 31012KT 12SM BKN014 OVC083 06/ RMK SC6AC2

CYQR;2010-11-09 01:48;CYQR 090148Z 30011KT 10SM OVC009 06/ RMK SC8

CYQR;2010-11-09 02:00;CYQR 090200Z 31013KT 12SM OVC009 06/04 A2966 RMK SC8 SLP063

CYQR;2010-11-09 02:13;CYQR 090213Z 32013KT 10SM -SHRA OVC009 06/ RMK SC8

CYQR;2010-11-09 02:25;CYQR 090225Z 32011KT 12SM OVC007 06/ RMK SC8

CYQR;2010-11-09 03:00;CYQR 090300Z 32010KT 15SM OVC007 06/04 A2966 RMK SC8 SLP063

CYQR;2010-11-09 03:51;CYQR 090351Z 01016KT 12SM -SHRA OVC005 05/ RMK SC8

CYQR;2010-11-09 04:00;CYQR 090400Z 01018KT 12SM -SHRA OVC005 05/03 A2961 RMK SC8 SLP049

CYQR;2010-11-09 04:44;CYQR 090444Z 28006KT 12SM -SHRA OVC004 04/ RMK ST8

CYQR;2010-11-09 05:00;CYQR 090500Z 30009KT 12SM OVC004 04/03 A2967 RMK ST8 SLP067

CYQR;2010-11-09 05:43;CYQR 090543Z 31011KT 12SM OVC003 04/ RMK ST8

CYQR;2010-11-09 06:00;CYQR 090600Z 32010G15KT 12SM OVC003 04/03 A2967 RMK ST8 SLP067

CYQR;2010-11-09 06:33;CYQR 090633Z 32013KT 10SM -DZ OVC003 03/ RMK ST8

CYQR;2010-11-09 07:00;CYQR 090700Z 33013KT 3SM -DZ BR OVC002 03/03 A2968 RMK ST8 SLP068

CYQR;2010-11-09 07:10;CYQR 090710Z 33015KT 2SM -DZ BR OVC002 03/ RMK ST8

CYQR;2010-11-09 07:26;CYQR 090726Z 34011G18KT 1 1/2SM -DZ BR OVC002 03/ RMK ST8

CYQR;2010-11-09 07:49;CYQR 090749Z 34013KT 3/4SM R13/P6000FT/D -DZ BR VV001 03/ RMK FG8

CYQR;2010-11-09 08:00;CYQR 090800Z 35010G17KT 3/4SM R13/P6000FT/N -DZ BR VV001 03/02 A2965 RMK FG8 SLP059

CYQR;2010-11-09 08:45;CYQR 090845Z 35010G15KT 1SM R13/P6000FT/U BR OVC001 03/ RMK SF8

CYQR;2010-11-09 09:00;CYQR 090900Z 01010KT 1 1/4SM BR OVC001 03/03 A2964 RMK SF8 SLP052

CYQR;2010-11-09 09:09;CYQR 090909Z 34004KT 1 1/2SM BR OVC001 03/ RMK SF8

CYQR;2010-11-09 09:25;CYQR 090925Z 32006KT 4SM BR OVC002 03/ RMK SF8

CYQR;2010-11-09 10:00;CYQR 091000Z 29009KT 2SM -SHRA BR OVC002 03/03 A2968 RMK SF8 SLP065

CYQR;2010-11-09 10:28;CYQR 091028Z 31015KT 3SM BR OVC002 03/ RMK ST8

CYQR;2010-11-09 11:00;CYQR 091100Z 31014KT 12SM OVC003 03/02 A2967 RMK SF8 SLP062

CYQR;2010-11-09 11:27;CYQR 091127Z 33016KT 9SM OVC002 03/ RMK SF8

CYQR;2010-11-09 11:37;CYQR 091137Z 33016KT 1 3/4SM -DZ BR OVC002 03/ RMK SF8

CYQR;2010-11-09 12:00;CYQR 091200Z 34012G17KT 1 1/2SM -DZ BR OVC003 03/02 A2968 RMK SF8 SLP071

CYQR;2010-11-09 12:12;CYQR 091212Z 34012KT 2 1/2SM -DZ BR OVC003 03/ RMK SF8

CYQR;2010-11-09 12:31;CYQR 091231Z 33013KT 4SM -DZ BR OVC002 02/ RMK SF8

CYQR;2010-11-09 12:49;CYQR 091249Z 33013KT 6SM BR OVC003 03/ RMK SF8

CYQR;2010-11-09 13:00;CYQR 091300Z 32013KT 6SM BR OVC003 02/02 A2970 RMK SF8 SLP077

CYQR;2010-11-09 14:00;CYQR 091400Z 34012KT 15SM OVC003 02/01 A2972 RMK SF8 SLP083

CYQR;2010-11-09 14:41;CYQR 091441Z 32014KT 2SM -RA BR OVC002 02/ RMK SF8

CYQR;2010-11-09 15:00;CYQR 091500Z 32014G21KT 1 3/4SM -RA BR OVC002 02/01 A2973 RMK SF8 VIS VRB 11/2-2 SLP089

CYQR;2010-11-09 15:25;CYQR 091525Z 31016G22KT 2 1/2SM -RA BR OVC003 01/ RMK SF8 VIS VRB 2-3

CYQR;2010-11-09 15:50;CYQR 091550Z 32017KT 3SM -RA BR OVC004 01/ RMK SF8

CYQR;2010-11-09 16:00;CYQR 091600Z 32016KT 3SM -RA BR OVC004 01/00 A2974 RMK SF8 SLP093

CYQR;2010-11-09 17:00;CYQR 091700Z 34012KT 5SM -RA BR OVC004 01/00 A2975 RMK SF8 SLP097

CYQR;2010-11-09 18:00;CYQR 091800Z 33012KT 6SM -RA BR OVC004 01/00 A2976 RMK SF8 SLP101

CYQR;2010-11-09 18:29;CYQR 091829Z 33012KT 2 1/2SM -RASN BR OVC004 01/ RMK SF8

CYQR;2010-11-09 18:47;CYQR 091847Z 32011KT 3SM -RASN BR OVC004 01/ RMK SF8

CYQR;2010-11-09 19:00;CYQR 091900Z 32010KT 3SM -RASN BR OVC004 01/M00 A2977 RMK SF8 SLP104

CYQR;2010-11-09 19:18;CYQR 091918Z 32012KT 5SM -SN BR OVC003 01/ RMK SF8

CYQR;2010-11-09 19:33;CYQR 091933Z 33014KT 8SM -SN OVC004 01/ RMK SF8

CYQR;2010-11-09 20:00;CYQR 092000Z 34015KT 15SM BKN006 OVC056 01/M00 A2975 RMK SF7SC1 SLP098

CYQR;2010-11-09 21:00;CYQR 092100Z 33015KT 15SM BKN008 OVC058 01/M00 A2976 RMK SC7SC1 SLP102

CYQR;2010-11-09 22:00;CYQR 092200Z 34016KT 15SM OVC006 01/M01 A2978 RMK SC8 SLP107

CYQR;2010-11-09 22:11;CYQR 092211Z 34016KT 15SM OVC005 01/ RMK SC8

CYQR;2010-11-09 23:00;CYQR 092300Z 36016KT 15SM OVC005 01/M01 A2978 RMK SC8 SLP109

CYQR;2010-11-10 00:00;CYQR 100000Z 35015G21KT 12SM -SN OVC006 01/M01 A2979 RMK SC8 SLP113

CYQR;2010-11-10 01:00;CYQR 100100Z 35016KT 8SM -SHSN OVC008 01/M01 A2979 RMK SC8 CVCTV CLD EMBD SLP114

CYQR;2010-11-10 01:27;CYQR 100127Z 35013KT 2SM -SHSN OVC007 00/ RMK SN2SC6

CYQR;2010-11-10 02:00;CYQR 100200Z 35013KT 2SM -SHSN OVC007 M00/M01 A2980 RMK SN2SC6 SLP115

CYQR;2010-11-10 02:49;CYQR 100249Z 35011KT 1 1/2SM -SHSN OVC005 M00/ RMK SN3SC5 CVCTV CLD EMBD /S02/

CYQR;2010-11-10 03:00;CYQR 100300Z 35011KT 1SM R13/P6000FT/D -SHSN OVC005 M00/M01 A2980 RMK SN3SC5 CVCTV CLD EMBD SLP116

CYQR;2010-11-10 04:00;CYQR 100400Z 35010KT 1 1/2SM -SHSN OVC004 M00/M01 A2980 RMK SN2SC6 CVCTV CLD EMBD /S03/ SLP116

CYQR;2010-11-10 04:34;CYQR 100434Z 35014KT 2SM -SHSN OVC006 M00/ RMK SC8 CVCTV CLD EMBD

CYQR;2010-11-10 05:00;CYQR 100500Z 36014KT 2SM -SHSN OVC007 M00/M02 A2980 RMK SC8 CVCTV CLD EMBD SLP116

CYQR;2010-11-10 05:41;CYQR 100541Z 36014KT 1 1/2SM -SHSN OVC007 M00/ RMK SN2SC6 CVCTV CLD EMBD

CYQR;2010-11-10 05:46;CYQR 100546Z 36014KT 1SM R13/P6000FT/D -SHSN OVC008 M00/ RMK SN2SC6 CVCTV CLD EMBD

CYQR;2010-11-10 06:00;CYQR 100600Z 35016KT 1SM R13/P6000FT/U -SHSN OVC008 M00/M02 A2979 RMK SN2SC6 CVCTV CLD EMBD /S04/ SLP116

CYQR;2010-11-10 06:27;CYQR 100627Z 35015KT 1 1/2SM -SHSN OVC008 M00/ RMK SC8 CVCTV CLD EMBD

CYQR;2010-11-10 07:00;CYQR 100700Z 34015KT 1SM R13/P6000FT/D -SHSN OVC008 M01/M02 A2979 RMK SN2SC6 CVCTV CLD EMBD SLP114

CYQR;2010-11-10 08:00;CYQR 100800Z 35015KT 1 1/2SM -SHSN OVC006 M01/M02 A2978 RMK SN2SC6 CVCTV CLD EMBD /S01/ SLP113

CYQR;2010-11-10 08:32;CYQR 100832Z 36014G20KT 1SM R13/P6000FT/D -SHSN OVC008 M01/ RMK SN2SC6 CVCTV CLD EMBD

CYQR;2010-11-10 09:00;CYQR 100900Z 36013KT 1SM R13/P6000FT/U -SHSN OVC005 M01/M02 A2979 RMK SN2SC6 CVCTV CLD EMBD SLP115

CYQR;2010-11-10 09:40;CYQR 100940Z 34011KT 3/4SM R13/P6000FT/D -SHSN OVC003 M01/ RMK SN5SC3 CVCTV CLD EMBD

CYQR;2010-11-10 10:00;CYQR 101000Z 34014KT 3/4SM R13/P6000FT/U -SHSN OVC004 M01/M02 A2978 RMK SN5SC3 CVCTV CLD EMBD /S03/ SLP112

CYQR;2010-11-10 10:46;CYQR 101046Z 34016KT 1SM R13/P6000FT/D -SHSN OVC005 M01/ RMK SN3SC5 CVCTV CLD EMBD

CYQR;2010-11-10 11:00;CYQR 101100Z CCA 35016KT 3/4SM R13/P6000FT/D -SHSN OVC004 M01/M03 A2978 RMK SN4SC4 CVCTV CLD EMBD /S04/ SLP113

CYQR;2010-11-10 11:45;CYQR 101145Z 34016KT 1SM R13/P6000FT/U -SHSN OVC005 M01/ RMK SN2SC6 CVCTV CLD EMBD

CYQR;2010-11-10 12:00;CYQR 101200Z 34017KT 1 1/2SM -SHSN OVC006 M01/M03 A2979 RMK SC8 CVCTV CLD EMBD /S05/ SLP117

CYQR;2010-11-10 12:30;CYQR 101230Z 33019KT 1SM R13/P6000FT/U -SHSN OVC006 M01/ RMK SN2SC6 CVCTV CLD EMBD

CYQR;2010-11-10 13:00;CYQR 101300Z 33018KT 3/4SM R13/P6000FT/D -SHSN OVC006 M01/M03 A2980 RMK SN3SC5 CVCTV CLD EMBD SLP119

CYQR;2010-11-10 14:00;CYQR 101400Z 34018KT 5/8SM R13/P6000FT/D -SHSN VV005 M02/M03 A2981 RMK SN8 VIS VRB 1/2-3/4 /S01/ SLP122

CYQR;2010-11-10 15:00;CYQR 101500Z 35018KT 5/8SM R13/P6000FT/N -SHSN VV005 M02/M03 A2983 RMK SN8 CVCTV CLD EMBDD VIS VRBL 1/2-3/4 SLP130

CYQR;2010-11-10 15:26;CYQR 101526Z 34022KT 1/2SM R13/5500FT/U SHSN VV005 M02/ RMK SN8

CYQR;2010-11-10 16:00;CYQR 101600Z 34021KT 1/2SM R13/5500FT/N SHSN VV006 M02/M04 A2983 RMK SN8 SLP132

CYQR;2010-11-10 17:00;CYQR 101700Z 34017G25KT 1/2SM R13/5500FT/D SHSN VV006 M02/M04 A2984 RMK SN8 SLP133

CYQR;2010-11-10 17:40;CYQR 101740Z 34021G27KT 5/8SM R13/5500FT/U -SHSN VV007 M02/ RMK SN8

CYQR;2010-11-10 17:45;CYQR 101745Z 34023KT 3/4SM R13/6000FT/U -SHSN VV007 M02/ RMK SN8

CYQR;2010-11-10 18:00;CYQR 101800Z 34021G26KT 3/4SM R13/P6000FT/N -SHSN VV006 M02/M04 A2983 RMK SN8 /S03/ SLP132

CYQR;2010-11-10 18:03;CYQR 101803Z 34021G26KT 5/8SM R13/P6000FT/N -SHSN VV007 M02/ RMK SN8

CYQR;2010-11-10 18:26;CYQR 101826Z 35018G24KT 1/2SM R13/3500FT/N SHSN VV005 M02/ RMK SN8

CYQR;2010-11-10 19:00;CYQR 101900Z 34019G24KT 1/2SM R13/4500FT/N SHSN VV004 M02/M04 A2984 RMK SN8 SLP134

CYQR;2010-11-10 19:31;CYQR 101931Z 34022KT 3/4SM R13/5500FT/N -SHSN VV004 M02/ RMK SN8

CYQR;2010-11-10 19:45;CYQR 101945Z 34018G27KT 1SM R13/P6000FT/U -SHSN OVC008 M02/ RMK SN3SF5

CYQR;2010-11-10 20:00;CYQR 102000Z 33021G27KT 1SM R13/P6000FT/U -SHSN OVC007 M02/M04 A2985 RMK SN3SC5 SLP136

CYQR;2010-11-10 20:33;CYQR 102033Z 33019KT 1/2SM R13/3000V5500FT/D SHSN VV006 M02/ RMK SN8

CYQR;2010-11-10 21:00;CYQR 102100Z 34016KT 1/2SM R13/5000FT/U SHSN VV006 M02/M04 A2987 RMK SN8 SLP144

CYQR;2010-11-10 21:09;CYQR 102109Z 34016G22KT 1SM R13/P6000FT/U -SHSN OVC006 M02/ RMK SN3SC5

CYQR;2010-11-10 21:34;CYQR 102134Z 34019KT 1 1/2SM -SN OVC027 M02/ RMK SN2SC6

CYQR;2010-11-10 22:00;CYQR 102200Z 33020KT 1 1/2SM -SN OVC029 M02/M04 A2989 RMK SN2SC6 /S02/ SLP151

CYQR;2010-11-10 22:18;CYQR 102218Z 34018KT 1SM R13/P6000FT/N -SN OVC034 M02/ RMK SN2SC6

CYQR;2010-11-10 22:28;CYQR 102228Z 33015G21KT 3/4SM R13/P6000FT/D -SN VV007 M02/ RMK SN8

CYQR;2010-11-10 22:38;CYQR 102238Z 33015KT 1/2SM R13/P6000FT/D SN VV006 M02/ RMK SN8

CYQR;2010-11-10 23:00;CYQR 102300Z 34014KT 5/8SM R13/P6000FT/U -SN VV007 M02/M04 A2990 RMK SN8 VIS VRB 1/2-3/4 /S02/ SLP155

CYQR;2010-11-11 00:00;CYQR 110000Z 33018KT 3SM -SN BKN008 M02/M04 A2991 RMK SC7 /S03/ SLP160

CYQR;2010-11-11 00:42;CYQR 110042Z 33014KT 2 1/2SM -SN OVC006 M02/ RMK SC8

CYQR;2010-11-11 01:00;CYQR 110100Z 33019KT 2 1/2SM -SN OVC007 M02/M04 A2991 RMK SC8 SLP161

CYQR;2010-11-11 01:34;CYQR 110134Z 32018KT 1 1/2SM -SN OVC009 M02/ RMK SC8

CYQR;2010-11-11 01:39;CYQR 110139Z 32019KT 2SM -SN OVC008 M02/ RMK SC8

CYQR;2010-11-11 02:00;CYQR 110200Z 32020G25KT 2SM -SN BLSN OVC008 M03/M04 A2992 RMK SC8 OBS TAKEN +05 SLP163

CYQR;2010-11-11 02:29;CYQR 110229Z 32022KT 1 1/2SM -SN BLSN OVC007 M03/ RMK SN2SC6

CYQR;2010-11-11 03:00;CYQR 110300Z 32023G28KT 2 1/2SM -SN BLSN OVC007 M02/M04 A2992 RMK SC8 SLP163

CYQR;2010-11-11 03:30;CYQR 110330Z 32023KT 6SM -SN BLSN BKN007 OVC026 M02/ RMK SC6SC2

CYQR;2010-11-11 03:50;CYQR 110350Z 32021KT 10SM -SN BKN007 OVC027 M02/ RMK SC7SC1

CYQR;2010-11-11 04:00;CYQR 110400Z 32021KT 12SM -SN BKN007 OVC027 M02/M04 A2994 RMK SC7SC1 SLP169

CYQR;2010-11-11 04:23;CYQR 110423Z 32021KT 15SM BKN008 OVC037 M02/ RMK SC7SC1

CYQR;2010-11-11 04:43;CYQR 110443Z 32020G26KT 15SM -SN BKN008 OVC037 M02/ RMK SC7SC1

CYQR;2010-11-11 05:00;CYQR 110500Z 32021KT 12SM -SN OVC008 M02/M04 A2995 RMK SC8 /S01/ OBS TAKEN -08 SLP172

CYQR;2010-11-11 05:49;CYQR 110549Z 33019G24KT 15SM OVC010 M02/ RMK SC8

CYQR;2010-11-11 06:00;CYQR 110600Z 33019G24KT 15SM BKN010 OVC023 M02/M04 A2996 RMK SC7SC1 SLP178

CYQR;2010-11-11 06:35;CYQR 110635Z 33018KT 15SM SCT010 OVC037 M02/ RMK SC3SC5

CYQR;2010-11-11 07:00;CYQR 110700Z 32016KT 15SM SCT010 OVC037 M02/M05 A2998 RMK SC4SC4 SLP182

CYQR;2010-11-11 08:00;CYQR 110800Z 32016KT 15SM FEW012 SCT037 OVC058 M02/M05 A2999 RMK SC2SC2SC4 SLP185

CYQR;2010-11-11 09:00;CYQR 110900Z 31012KT 15SM SCT037 OVC064 M03/M06 A3000 RMK SC3SC5 SLP192

CYQR;2010-11-11 10:00;CYQR 111000Z 30013KT 15SM FEW035 BKN075 OVC090 M03/M06 A3001 RMK SC1AC4AC3 SLP196

CYQR;2010-11-11 11:00;CYQR 111100Z 30015KT 15SM SCT068 BKN095 M04/M06 A3002 RMK AC3AC4 SLP199

CYQR;2010-11-11 12:00;CYQR 111200Z 31014KT 15SM FEW035 BKN068 OVC090 M04/M07 A3004 RMK SC2AC3AC3 SLP206

CYQR;2010-11-11 12:33;CYQR 111233Z 31012KT 12SM -SN BKN046 OVC070 M04/ RMK SC5AC3

CYQR;2010-11-11 13:00;CYQR 111300Z 31010KT 15SM -SN BKN046 OVC070 M04/M06 A3006 RMK SC6AC2 SLP212

CYQR;2010-11-11 14:00;CYQR 111400Z 31011KT 12SM -SN BKN024 BKN065 OVC280 M04/M06 A3008 RMK SC5SC2CI2 SLP218

CYQR;2010-11-11 14:38;CYQR 111438Z 31012KT 15SM SCT070 BKN094 BKN260 M05/ RMK AC3AC1CI1

CYQR;2010-11-11 15:00;CYQR 111500Z 31011KT 15SM FEW070 SCT092 BKN260 M05/M08 A3010 RMK AC2AC2CI1 SLP227

CYQR;2010-11-11 16:00;CYQR 111600Z 30009KT 15SM FEW025 FEW300 M05/M08 A3012 RMK SC1CI0 SLP233

CYQR;2010-11-11 17:00;CYQR 111700Z 29008KT 15SM FEW080 FEW280 M04/M07 A3014 RMK AC1CI0 SLP239

CYQR;2010-11-11 18:00;CYQR 111800Z 28010KT 15SM BKN080 BKN280 M02/M05 A3015 RMK AC6CI1 SLP242

CYQR;2010-11-11 19:00;CYQR 111900Z 27011KT 15SM BKN077 BKN280 M00/M04 A3015 RMK AC6CI1 SLP243

CYQR;2010-11-11 20:00;CYQR 112000Z 27012KT 15SM BKN080 OVC280 00/M03 A3016 RMK AC6CI1 SLP246

CYQR;2010-11-11 21:00;CYQR 112100Z 27008KT 15SM BKN084 OVC280 01/M03 A3017 RMK AC7CI1 SLP247

CYQR;2010-11-11 22:00;CYQR 112200Z 29010KT 15SM BKN079 OVC280 01/M03 A3019 RMK AC6CI1 SLP253

CYQR;2010-11-11 23:00;CYQR 112300Z 26006KT 15SM BKN083 BKN280 M01/M04 A3020 RMK AC6CI0 SLP256

CYQR;2010-11-12 00:00;CYQR 120000Z 23007KT 15SM BKN080 M03/M06 A3020 RMK AC6 SLP260

CYQR;2010-11-12 01:00;CYQR 120100Z 22007KT 15SM BKN085 M05/M08 A3019 RMK AC7 SLP258

CYQR;2010-11-12 02:00;CYQR 120200Z 22007KT 15SM BKN083 M02/M05 A3018 RMK AC7 SLP256

CYQR;2010-11-12 03:00;CYQR 120300Z 23010KT 15SM BKN079 OVC150 M01/M05 A3018 RMK AC7AC1 SLP253

CYQR;2010-11-12 04:00;CYQR 120400Z 22008KT 15SM BKN079 BKN150 M01/M05 A3018 RMK AC6AC0 SLP253

CYQR;2010-11-12 05:00;CYQR 120500Z 22007KT 15SM BKN079 M05/M08 A3017 RMK AC3 SLP252

CYQR;2010-11-12 06:00;CYQR 120600Z 19005KT 15SM SCT080 M07/M10 A3018 RMK AC2 SLP257

CYQR;2010-11-12 07:00;CYQR 120700Z 21006KT 15SM BKN077 M08/M10 A3018 RMK AC3 SLP257

CYQR;2010-11-12 08:00;CYQR 120800Z 18003KT 15SM SCT084 M08/M11 A3018 RMK AC2 SLP257

CYQR;2010-11-12 09:00;CYQR 120900Z 17003KT 15SM SCT080 M08/M10 A3019 RMK AC1 SLP257

CYQR;2010-11-12 10:00;CYQR 121000Z CCA 14002KT 15SM BCFG SCT082 M09/M11 A3019 RMK AC2 SLP257

CYQR;2010-11-12 11:00;CYQR 121100Z 12005KT 15SM MIFG FEW092 M11/M13 A3019 RMK AC1 SLP258

CYQR;2010-11-12 12:00;CYQR 121200Z 13003KT 15SM SCT090 M10/M12 A3020 RMK AC1 FROIN SLP266

CYQR;2010-11-12 12:37;CYQR 121237Z 13004KT 15SM FEW002 SCT090 M11/ RMK ST1AC1 TR ST SE

CYQR;2010-11-12 13:00;CYQR 121300Z 13006KT 15SM FEW002 SCT090 M12/M14 A3021 RMK SF1AC1 TR SF E SLP270

CYQR;2010-11-12 14:00;CYQR 121400Z 13005KT 15SM FEW100 FEW280 M12/M14 A3022 RMK AC1CI0 SLP273

CYQR;2010-11-12 15:00;CYQR 121500Z 11005KT 15SM FEW089 FEW280 M12/M14 A3023 RMK AC1CI0 SLP277

CYQR;2010-11-12 16:00;CYQR 121600Z 13004KT 15SM FEW085 BKN280 M10/M12 A3025 RMK AC1CI1 SLP281

CYQR;2010-11-12 17:00;CYQR 121700Z 14004KT 15SM FEW100 BKN280 M08/M10 A3025 RMK AC1CI1 SLP284

CYQR;2010-11-12 18:00;CYQR 121800Z 13004KT 15SM BKN280 M07/M10 A3025 RMK CI2 SLP285

CYQR;2010-11-12 19:00;CYQR 121900Z 17006KT 15SM SCT200 BKN260 M05/M09 A3025 RMK CI2CI2 SLP284

CYQR;2010-11-12 20:00;CYQR 122000Z 14002KT 15SM FEW080 SCT200 BKN260 M04/M08 A3025 RMK AC2CI1CI0 SLP286

CYQR;2010-11-12 21:00;CYQR 122100Z 14004KT 15SM FEW085 OVC280 M04/M07 A3026 RMK AC2CI2 SLP287

CYQR;2010-11-12 22:00;CYQR 122200Z 09006KT 15SM FEW085 BKN280 M05/M08 A3026 RMK AC2CI2 SLP287

CYQR;2010-11-12 23:00;CYQR 122300Z 10005KT 15SM SCT110 OVC260 M04/M08 A3027 RMK AC3CI2 SLP288

CYQR;2010-11-13 00:00;CYQR 130000Z 07007KT 15SM SCT110 OVC250 M03/M06 A3028 RMK AC4CI2 SLP295

CYQR;2010-11-13 01:00;CYQR 130100Z 09004KT 15SM BKN110 OVC250 M04/M07 A3029 RMK AC5CI2 SLP297

CYQR;2010-11-13 02:00;CYQR 130200Z 09004KT 15SM SCT095 OVC250 M03/M06 A3029 RMK AC3CI3 SLP298

CYQR;2010-11-13 03:00;CYQR 130300Z 08003KT 15SM BKN095 OVC250 M04/M07 A3030 RMK AC5CI3 SLP301

CYQR;2010-11-13 04:00;CYQR 130400Z 04003KT 15SM FEW095 BKN250 M05/M07 A3030 RMK AC1CI3 SLP304

CYQR;2010-11-13 05:00;CYQR 130500Z 05004KT 15SM FEW090 BKN250 M07/M09 A3030 RMK AC2CI2 SLP304

CYQR;2010-11-13 06:00;CYQR 130600Z 09004KT 10SM FEW090 BKN250 M07/M09 A3030 RMK AC2CI1 SLP303

CYQR;2010-11-13 07:00;CYQR 130700Z 00000KT 15SM SCT230 M09/M11 A3032 RMK CI2 SLP307

CYQR;2010-11-13 08:00;CYQR 130800Z 36005KT 15SM SCT230 M10/M13 A3032 RMK CI1 SLP309

CYQR;2010-11-13 09:00;CYQR 130900Z 04004KT 15SM FEW230 M10/M12 A3030 RMK CI1 SLP302

CYQR;2010-11-13 10:00;CYQR 131000Z 36005KT 15SM SCT230 M11/M14 A3031 RMK CI2 SLP303

CYQR;2010-11-13 10:27;CYQR 131027Z 31003KT 10SM FEW001 SCT230 M14/ RMK ST0CI2

CYQR;2010-11-13 11:00;CYQR 131100Z 33007KT 8SM R13/2600V5500FT/D SCT001 BKN230 M13/M15 A3030 RMK ST2CI0 VIS N 3SM SLP301

CYQR;2010-11-13 11:05;CYQR 131105Z 33007KT 4SM R13/2200FT/N PRFG BKN001 M13/ RMK FG2ST3 VIS N 1/2SM

CYQR;2010-11-13 11:17;CYQR 131117Z 34006KT 2 1/2SM R13/2800FT/N BR OVC002 M12/ RMK ST8 VIS N 1/2SM

CYQR;2010-11-13 11:26;CYQR 131126Z 33004KT 4SM R13/3000VP6000FT/U BR OVC002 M12/ RMK ST8 VIS N 1SM

CYQR;2010-11-13 11:35;CYQR 131135Z 32005KT 3SM R13/1100V1800FT/N BR OVC001 M11/ RMK FG1ST7 VIS W-NE 1/2 SM R13/800

CYQR;2010-11-13 11:47;CYQR 131147Z 32004KT 1/4SM R13/1100FT/N FZFG VV001 M10/ RMK FG8

CYQR;2010-11-13 11:51;CYQR 131151Z 31003KT 1/8SM R13/1200FT/N FZFG VV001 M10/ RMK FG8

CYQR;2010-11-13 12:00;CYQR 131200Z 30002KT 1/4SM R13/1200V2000FT/U FZFG VV001 M10/M12 A3030 RMK FG8 SLP300

CYQR;2010-11-13 12:19;CYQR 131219Z 30006KT 1/8SM R13/3000V4500FT/N FZFG VV001 M10/ RMK FG8

CYQR;2010-11-13 12:21;CYQR 131221Z 30006KT 1/4SM R13/3000V4500FT/N FZFG VV001 M10/ RMK FG8

CYQR;2010-11-13 12:43;CYQR 131243Z 30004KT 1/8SM R13/0900V1400FT/N FZFG VV001 M10/ RMK FG8

CYQR;2010-11-13 13:00;CYQR 131300Z 30004KT 1/8SM R13/1000FT/N FZFG VV000 M09/M11 A3029 RMK FG8 SLP296

CYQR;2010-11-13 13:20;CYQR 131320Z 30005KT 1/4SM R13/2000FT/N FZFG VV001 M09/ RMK FG8

CYQR;2010-11-13 14:00;CYQR 131400Z 00000KT 1/8SM R13/1400FT/N FZFG VV000 M09/M12 A3027 RMK FG8 SLP290

CYQR;2010-11-13 15:00;CYQR 131500Z 29004KT 1/8SM R13/1200V1800FT/N FZFG VV001 M10/M12 A3027 RMK FG8 SLP290

CYQR;2010-11-13 16:00;CYQR 131600Z 26004KT 1/8SM R13/1200FT/N FZFG VV001 M09/M11 A3025 RMK FG8 SLP283

CYQR;2010-11-13 17:00;CYQR 131700Z 22003KT 1/8SM R13/1000FT/N FZFG VV001 M08/M10 A3022 RMK FG8 SLP274

CYQR;2010-11-13 18:00;CYQR 131800Z 19003KT 1/8SM R13/1400FT/N FZFG VV001 M07/M09 A3019 RMK FG8 SLP263

CYQR;2010-11-13 18:54;CYQR 131854Z 23006KT 1/4SM R13/2600FT/N FZFG VV001 M06/ RMK FG8

CYQR;2010-11-13 19:00;CYQR 131900Z 23005KT 1/4SM R13/2000FT/N FZFG VV001 M06/M08 A3016 RMK FG8 SLP254

CYQR;2010-11-13 20:00;CYQR 132000Z 20004KT 1/4SM R13/1600FT/N FZFG VV001 M05/M07 A3014 RMK FG8 SLP247

CYQR;2010-11-13 21:00;CYQR 132100Z 18005KT 3/8SM R13/1800FT/N FZFG VV001 M05/M06 A3012 RMK FG8 SLP239

CYQR;2010-11-13 21:37;CYQR 132137Z 18005KT 1/8SM R13/1400FT/N FZFG VV001 M04/ RMK FG8

CYQR;2010-11-13 22:00;CYQR 132200Z 18005KT 1/8SM R13/1200FT/N FZFG VV001 M04/M06 A3010 RMK FG8 SLP233

CYQR;2010-11-13 22:47;CYQR 132247Z 21004KT 1/4SM R13/3000FT/D FZFG VV001 M03/ RMK FG8

CYQR;2010-11-13 23:00;CYQR 132300Z 19004KT 1/4SM R13/3000V4500FT/U FZFG VV001 M03/M04 A3007 RMK FG8 SLP225

CYQR;2010-11-14 00:00;CYQR 140000Z 15005KT 1/4SM R13/3500FT/N FZFG VV001 M04/M05 A3004 RMK FG8 SLP211

CYQR;2010-11-14 01:00;CYQR 140100Z 18006KT 1/4SM R13/3500FT/N FZFG VV001 M03/M04 A3002 RMK FG8 SLP206

CYQR;2010-11-14 02:00;CYQR 140200Z 18007KT 1/4SM R13/2000FT/U FZFG VV001 M04/M05 A3000 RMK FG8 SLP198

CYQR;2010-11-14 03:00;CYQR 140300Z 15007KT 1/4SM R13/1600FT/N FZFG VV001 M04/M05 A2998 RMK FG8 SLP191

CYQR;2010-11-14 04:00;CYQR 140400Z 17008KT 1/4SM R13/1800FT/N FZFG VV001 M04/M05 A2996 RMK FG8 SLP182

CYQR;2010-11-14 05:00;CYQR 140500Z 15009KT 3/8SM R13/2400FT/U FZFG VV001 M05/M06 A2991 RMK FG8 FROIN SLP169

CYQR;2010-11-14 06:00;CYQR 140600Z 14007KT 3/8SM R13/2400FT/N FZFG VV001 M05/M06 A2989 RMK FG8 SLP158

CYQR;2010-11-14 06:43;CYQR 140643Z 14009KT 1/2SM R13/3000V5000FT/U FZFG VV002 M06/ RMK FG8

CYQR;2010-11-14 07:00;CYQR 140700Z 14010KT 1/2SM R13/3500VP6000FT/U FZFG OVC001 M06/M07 A2985 RMK SF8 SLP145

CYQR;2010-11-14 07:12;CYQR 140712Z 13007KT 3/4SM R13/P6000FT/U BR OVC001 M06/ RMK SF8

CYQR;2010-11-14 07:36;CYQR 140736Z 13009KT 1 1/2SM BR OVC001 M07/ RMK SF8

CYQR;2010-11-14 08:00;CYQR 140800Z 14009KT 2SM BR OVC002 M07/M08 A2981 RMK SF8 SLP133

CYQR;2010-11-14 08:28;CYQR 140828Z 13007KT 3SM BR OVC002 M08/ RMK SF8

CYQR;2010-11-14 08:53;CYQR 140853Z 13007KT 6SM BR SCT003 M08/ RMK SF4

CYQR;2010-11-14 09:00;CYQR 140900Z 13009KT 6SM BR SCT003 M08/M10 A2979 RMK SF4 SLP125

CYQR;2010-11-14 10:00;CYQR 141000Z 14006KT 12SM SCT250 M09/M11 A2979 RMK CI2 SLP124

CYQR;2010-11-14 11:00;CYQR 141100Z 12004KT 15SM BKN055 M09/M11 A2977 RMK SC6 SLP119

CYQR;2010-11-14 12:00;CYQR 141200Z 13004KT 15SM OVC053 M09/M11 A2976 RMK SC8 SLP114

CYQR;2010-11-14 13:00;CYQR 141300Z 11004KT 15SM OVC062 M08/M09 A2974 RMK SC8 SLP108

CYQR;2010-11-14 14:00;CYQR 141400Z 10003KT 15SM BKN032 BKN064 M08/M11 A2974 RMK SC6SC2 SLP107

CYQR;2010-11-14 15:00;CYQR 141500Z CCA 11002KT 12SM BKN071 OVC090 M07/M10 A2973 RMK AC7AC1 SLP103

CYQR;2010-11-14 16:00;CYQR 141600Z 09002KT 10SM BKN063 OVC093 M06/M09 A2971 RMK SC7AC1 SLP098

CYQR;2010-11-14 17:00;CYQR 141700Z 00000KT 10SM BKN020 OVC060 M05/M07 A2970 RMK SC7SC1 SLP093

CYQR;2010-11-14 18:00;CYQR 141800Z 17002KT 10SM FEW016 BKN068 OVC090 M03/M05 A2968 RMK SC1AC6AC1 SLP085

CYQR;2010-11-14 19:00;CYQR 141900Z 00000KT 8SM FEW020 FEW042 OVC064 M02/M03 A2967 RMK SC1SC1SC7 SLP081

CYQR;2010-11-14 20:00;CYQR 142000Z 19002KT 8SM SCT008 BKN035 OVC062 M02/M03 A2966 RMK SF4SC2SC2 SLP076

CYQR;2010-11-14 21:00;CYQR 142100Z 00000KT 8SM SCT015 OVC060 M02/M03 A2965 RMK SF4SC4 SLP073

CYQR;2010-11-14 22:00;CYQR 142200Z 31002KT 8SM SCT010 OVC026 M01/M02 A2964 RMK SF4SC4 SLP072

CYQR;2010-11-14 22:37;CYQR 142237Z 33004KT 8SM BKN012 OVC062 M00/ RMK SF6SC2

CYQR;2010-11-14 23:00;CYQR 142300Z 33005KT 8SM BKN012 OVC090 M00/M01 A2964 RMK SC7AC1 SLP071

CYQR;2010-11-14 23:18;CYQR 142318Z 32004KT 8SM OVC008 M00/ RMK SC8

CYQR;2010-11-15 00:00;CYQR 150000Z 33003KT 8SM OVC006 M00/M01 A2964 RMK SC8 SLP069

CYQR;2010-11-15 00:29;CYQR 150029Z 32004KT 10SM OVC005 M00/ RMK SC8

CYQR;2010-11-15 01:00;CYQR 150100Z 32006KT 10SM OVC005 00/M01 A2963 RMK SC8 SLP068

CYQR;2010-11-15 02:00;CYQR 150200Z 33010KT 15SM OVC005 M01/M03 A2964 RMK SC8 SLP070

CYQR;2010-11-15 03:00;CYQR 150300Z 35007KT 12SM OVC004 M02/M03 A2965 RMK SC8 SLP072

CYQR;2010-11-15 03:12;CYQR 150312Z 36009KT 12SM OVC003 M02/ RMK SC8

CYQR;2010-11-15 04:00;CYQR 150400Z 36009KT 12SM OVC003 M02/M04 A2964 RMK SC8 SLP071

CYQR;2010-11-15 05:00;CYQR 150500Z 36009KT 5SM BR OVC003 M03/M05 A2965 RMK SC8 SLP074

CYQR;2010-11-15 06:00;CYQR 150600Z 35008KT 4SM BR OVC003 M03/M05 A2966 RMK SC8 SLP074

CYQR;2010-11-15 06:11;CYQR 150611Z 36008KT 4SM BR OVC002 M04/ RMK SF8

CYQR;2010-11-15 06:33;CYQR 150633Z 36008KT 2SM BR OVC002 M04/ RMK SF8

CYQR;2010-11-15 07:00;CYQR 150700Z 36007KT 2SM BR OVC002 M04/M05 A2966 RMK SF8 SLP077

CYQR;2010-11-15 08:00;CYQR 150800Z 01006KT 1 1/2SM BR OVC001 M04/M06 A2966 RMK SF8 SLP077

CYQR;2010-11-15 08:15;CYQR 150815Z 36006KT 1SM R13/P6000FT/U BR VV001 M04/ RMK FG8

CYQR;2010-11-15 08:43;CYQR 150843Z 01006KT 1/2SM R13/P6000FT/N FZFG VV001 M04/ RMK FG8

CYQR;2010-11-15 09:00;CYQR 150900Z 01006KT 3/4SM R13/P6000FT/U BR VV001 M04/M05 A2967 RMK FG8 SLP078

CYQR;2010-11-15 09:27;CYQR 150927Z 03003KT 1/2SM R13/P6000FT/D FZFG VV001 M04/ RMK FG8

CYQR;2010-11-15 10:00;CYQR 151000Z 03002KT 1/2SM R13/P6000FT/U FZFG VV001 M04/M05 A2968 RMK FG8 SLP081

CYQR;2010-11-15 10:31;CYQR 151031Z 00000KT 1/4SM R13/3000FT/N FZFG VV001 M03/ RMK FG8

CYQR;2010-11-15 11:00;CYQR 151100Z 29002KT 1/4SM R13/2600FT/N FZFG VV001 M03/M05 A2968 RMK FG8 SLP081

CYQR;2010-11-15 12:00;CYQR 151200Z 00000KT 3/8SM R13/4500VP6000FT/U FZFG VV001 M03/M05 A2969 RMK FG8 FROIN SLP082

CYQR;2010-11-15 12:08;CYQR 151208Z 00000KT 3/4SM R13/P6000FT/U BR OVC002 M03/ RMK ST8

CYQR;2010-11-15 12:21;CYQR 151221Z 19002KT 1 1/2SM BR OVC002 M03/ RMK ST8

CYQR;2010-11-15 13:00;CYQR 151300Z 23002KT 1 1/2SM BR OVC002 M02/M04 A2969 RMK SF8 SLP084

CYQR;2010-11-15 13:36;CYQR 151336Z 00000KT 2 1/4SM BR OVC003 M02/ RMK SF8

CYQR;2010-11-15 14:00;CYQR 151400Z 33003KT 3SM BR OVC003 M02/M03 A2970 RMK SF8 SLP086

CYQR;2010-11-15 15:00;CYQR 151500Z 33003KT 3SM BR OVC003 M01/M03 A2971 RMK SF8 SLP090

CYQR;2010-11-15 15:22;CYQR 151522Z 30002KT 3SM BR OVC002 M01/ RMK SF8

CYQR;2010-11-15 16:00;CYQR 151600Z 30002KT 5SM BR OVC003 M01/M02 A2971 RMK SF8 SLP091

CYQR;2010-11-15 17:00;CYQR 151700Z 26002KT 8SM OVC004 M00/M01 A2972 RMK SC8 SLP092

CYQR;2010-11-15 17:25;CYQR 151725Z 26006KT 8SM OVC005 M00/ RMK SF8

CYQR;2010-11-15 18:00;CYQR 151800Z 25006KT 10SM OVC005 M00/M01 A2972 RMK SF8 SLP093

CYQR;2010-11-15 18:22;CYQR 151822Z 26006KT 10SM OVC007 M00/ RMK SF8

CYQR;2010-11-15 18:42;CYQR 151842Z 27007KT 5SM -SN OVC005 M00/ RMK SF8 CIG RAG

CYQR;2010-11-15 18:49;CYQR 151849Z 27007KT 2 1/2SM -SN OVC004 M00/ RMK SC8 CIG RAG

CYQR;2010-11-15 19:00;CYQR 151900Z 28007KT 1 1/2SM -SN BR OVC003 M00/M01 A2971 RMK SC8 CIG RAG SLP092

CYQR;2010-11-15 19:37;CYQR 151937Z 29005KT 1SM R13/P6000FT/U -SN BR OVC002 00/ RMK SC8 CIG RAG

CYQR;2010-11-15 20:00;CYQR 152000Z 28006KT 1 1/2SM -SN BR BKN003 OVC011 00/00 A2971 RMK SC7SC1 CIG RAG SLP089

CYQR;2010-11-15 20:20;CYQR 152020Z 28007KT 3SM -SN BR OVC003 00/ RMK SC8 CIG RAG

CYQR;2010-11-15 21:00;CYQR 152100Z 28007KT 6SM -SN BR OVC003 01/00 A2971 RMK SC8 CIG RAG SLP090

CYQR;2010-11-15 22:00;CYQR 152200Z 30010KT 3SM -SN BR OVC003 01/00 A2971 RMK SC8 SLP092

CYQR;2010-11-15 22:31;CYQR 152231Z 30015KT 15SM BKN003 BKN014 01/ RMK SF5SC2 CIG RAG

CYQR;2010-11-15 23:00;CYQR 152300Z 31013KT 15SM SCT003 OVC014 01/M00 A2972 RMK SF3SC5 SLP093

CYQR;2010-11-16 00:00;CYQR 160000Z 32013G18KT 15SM OVC014 01/M01 A2971 RMK SC8 SLP089

CYQR;2010-11-16 00:39;CYQR 160039Z 30010KT 15SM OVC018 01/ RMK SC8

CYQR;2010-11-16 01:00;CYQR 160100Z 29008KT 15SM OVC016 01/M01 A2971 RMK SC8 SLP088

CYQR;2010-11-16 02:00;CYQR 160200Z 29007KT 15SM BKN023 OVC056 00/M01 A2969 RMK SC7SC1 SLP083

CYQR;2010-11-16 02:49;CYQR 160249Z 30010KT 15SM BKN012 OVC056 00/ RMK SC6SC2

CYQR;2010-11-16 03:00;CYQR 160300Z 30010KT 15SM OVC012 00/M01 A2968 RMK SC8 SLP079

CYQR;2010-11-16 04:00;CYQR 160400Z 30008KT 15SM OVC012 00/M01 A2967 RMK SC8 SLP076

CYQR;2010-11-16 05:00;CYQR 160500Z 29006KT 15SM OVC014 M00/M01 A2966 RMK SC8 SLP072

CYQR;2010-11-16 06:00;CYQR 160600Z 28007KT 15SM OVC014 M00/M01 A2965 RMK SC8 SLP066

CYQR;2010-11-16 07:00;CYQR 160700Z 33004KT 15SM FEW010 OVC016 M00/M02 A2962 RMK SF2SC6 SLP059

CYQR;2010-11-16 08:00;CYQR 160800Z 00000KT 15SM OVC015 M00/M02 A2960 RMK SC8 SLP052

CYQR;2010-11-16 08:12;CYQR 160812Z 00000KT 15SM -SN OVC013 M00/ RMK SC8

CYQR;2010-11-16 09:00;CYQR 160900Z 28002KT 15SM -SN BKN013 OVC016 M01/M02 A2961 RMK SC5SC3 SLP053

CYQR;2010-11-16 09:19;CYQR 160919Z 27004KT 15SM -SN OVC016 M01/ RMK SC8

CYQR;2010-11-16 09:40;CYQR 160940Z 27003KT 12SM -SN BKN010 OVC016 M01/ RMK SC5SC3

CYQR;2010-11-16 10:00;CYQR 161000Z 27005KT 12SM -SN BKN010 OVC015 M01/M02 A2962 RMK SC5SC3 SLP056

CYQR;2010-11-16 10:37;CYQR 161037Z 31004KT 12SM -SN BKN009 OVC022 M01/ RMK SC5SC3

CYQR;2010-11-16 11:00;CYQR 161100Z 00000KT 12SM -SN OVC007 M01/M02 A2960 RMK SC8 SLP049

CYQR;2010-11-16 12:00;CYQR 161200Z 31003KT 15SM OVC006 M01/M02 A2960 RMK SC8 SLP051

CYQR;2010-11-16 12:44;CYQR 161244Z 34004KT 15SM BKN004 OVC018 M01/ RMK SF5SC3

CYQR;2010-11-16 13:00;CYQR 161300Z 34004KT 15SM BKN004 OVC017 M01/M02 A2961 RMK SF6SC2 SLP052

CYQR;2010-11-16 13:40;CYQR 161340Z 36006KT 15SM SCT006 OVC014 M00/ RMK SF4SC4

CYQR;2010-11-16 14:00;CYQR 161400Z 01009KT 15SM SCT006 OVC016 M00/M02 A2963 RMK SF3SC5 SLP059

CYQR;2010-11-16 15:00;CYQR 161500Z 01009KT 15SM FEW011 OVC018 M00/M02 A2964 RMK SF2SC6 SLP064

CYQR;2010-11-16 15:43;CYQR 161543Z 35007KT 15SM FEW007 OVC018 M00/ RMK SF2SC6

CYQR;2010-11-16 15:50;CYQR 161550Z 35008KT 15SM -SHSN SCT007 OVC018 M00/ RMK SF4SC4

CYQR;2010-11-16 16:00;CYQR 161600Z 35008KT 15SM -SHSN SCT007 OVC018 M00/M02 A2967 RMK SF4SC4 SLP075

CYQR;2010-11-16 16:27;CYQR 161627Z 36009KT 15SM BKN006 OVC020 M00/ RMK SF6SC2

CYQR;2010-11-16 17:00;CYQR 161700Z 02010KT 15SM BKN008 OVC027 00/M02 A2970 RMK SF6SC2 SLP084

CYQR;2010-11-16 18:00;CYQR 161800Z 36012KT 15SM BKN008 OVC025 00/M02 A2973 RMK SF6SC2 SLP096

CYQR;2010-11-16 18:18;CYQR 161818Z 01011KT 12SM -SHSN OVC008 00/ RMK SC8

CYQR;2010-11-16 19:00;CYQR 161900Z 02012KT 3SM -SHSN BR BKN008 OVC034 00/M01 A2976 RMK SF7SC1 SLP103

CYQR;2010-11-16 20:00;CYQR 162000Z 02018KT 6SM -SHSN OVC010 M01/M04 A2979 RMK SC8 SLP115

CYQR;2010-11-16 21:00;CYQR 162100Z 02023KT 15SM -SHSN OVC012 M02/M05 A2984 RMK SC8 SLP134

CYQR;2010-11-16 21:38;CYQR 162138Z 01019G24KT 15SM OVC012 M03/ RMK SC8

CYQR;2010-11-16 22:00;CYQR 162200Z 01021KT 15SM OVC012 M03/M07 A2990 RMK SC8 PRESRR SLP153

CYQR;2010-11-16 23:00;CYQR 162300Z 03018KT 15SM BKN014 OVC028 M04/M08 A2995 RMK SC7SC1 SLP170

CYQR;2010-11-17 00:00;CYQR 170000Z 02020KT 15SM BKN011 OVC030 M05/M08 A3001 RMK SC6SC2 PRESRR SLP195

CYQR;2010-11-17 01:00;CYQR 170100Z 36018KT 15SM SCT014 BKN086 M06/M10 A3005 RMK SC3AC1 SLP207

CYQR;2010-11-17 02:00;CYQR 170200Z 01019G25KT 15SM SCT013 BKN092 M07/M11 A3010 RMK SC4AC1 SLP223

CYQR;2010-11-17 02:43;CYQR 170243Z 36018KT 12SM -SN OVC015 M07/ RMK SC8

CYQR;2010-11-17 03:00;CYQR 170300Z 02016G21KT 12SM -SN OVC013 M07/M11 A3013 RMK SC8 SLP239

CYQR;2010-11-17 04:00;CYQR 170400Z 35019KT 12SM -SN OVC018 M08/M13 A3016 RMK SC8 SLP249

CYQR;2010-11-17 05:00;CYQR 170500Z 36012KT 12SM -SN OVC020 M08/M12 A3019 RMK SC8 SLP257

CYQR;2010-11-17 06:00;CYQR 170600Z 36011KT 10SM -SN BKN017 OVC022 M08/M12 A3022 RMK SC5SC3 SLP268

CYQR;2010-11-17 07:00;CYQR 170700Z 36013KT 12SM -SN OVC021 M08/M13 A3024 RMK SC8 SLP274

CYQR;2010-11-17 08:00;CYQR 170800Z 35012G17KT 12SM -SN OVC023 M08/M13 A3026 RMK SC8 SLP283

CYQR;2010-11-17 09:00;CYQR 170900Z 36009KT 15SM -SN OVC025 M08/M13 A3029 RMK SC8 SLP296

CYQR;2010-11-17 10:00;CYQR 171000Z 35008KT 15SM -SN OVC025 M08/M12 A3029 RMK SC8 SLP296

CYQR;2010-11-17 11:00;CYQR 171100Z 34006KT 12SM -SN OVC027 M08/M13 A3030 RMK SC8 SLP299

CYQR;2010-11-17 12:00;CYQR 171200Z 30006KT 12SM -SN OVC027 M08/M13 A3031 RMK SC8 SLP304

CYQR;2010-11-17 13:00;CYQR 171300Z 31011KT 10SM -SN OVC021 M08/M12 A3031 RMK SC8 SLP304

CYQR;2010-11-17 13:08;CYQR 171308Z 32012KT 4SM -SN OVC014 M08/ RMK SC8

CYQR;2010-11-17 13:36;CYQR 171336Z 35008KT 12SM -SN BKN019 OVC029 M08/ RMK SC6SC2

CYQR;2010-11-17 14:00;CYQR 171400Z 36007KT 10SM -SHSN SCT009 OVC027 M08/M11 A3033 RMK SC4SC4 SLP311

CYQR;2010-11-17 15:00;CYQR 171500Z 33007KT 10SM -SHSN FEW010 OVC018 M08/M11 A3036 RMK SF1SC7 VIS E-SE 2SM CVCTV CLD EMBD SLP322

CYQR;2010-11-17 15:24;CYQR 171524Z 32008KT 1 1/2SM -SHSN OVC024 M08/ RMK SC8 VIS SE 3

CYQR;2010-11-17 15:27;CYQR 171527Z 34008KT 5SM -SHSN OVC024 M08/ RMK SC8 VIS SE-SW 2

CYQR;2010-11-17 15:48;CYQR 171548Z 04005KT 12SM -SHSN SCT008 OVC024 M08/ RMK SF4SC4

CYQR;2010-11-17 16:00;CYQR 171600Z 03005KT 15SM -SHSN SCT008 OVC028 M08/M12 A3036 RMK SF4SC4 SLP322

CYQR;2010-11-17 17:00;CYQR 171700Z 05010KT 15SM -SHSN BKN026 OVC068 M08/M12 A3036 RMK SC5AC2 SLP323

CYQR;2010-11-17 17:47;CYQR 171747Z 05010KT 15SM FEW025 OVC033 M09/ RMK SC2SC5

CYQR;2010-11-17 18:00;CYQR 171800Z 05008KT 15SM FEW025 OVC033 M09/M14 A3038 RMK SC1SC6 SLP330

CYQR;2010-11-17 19:00;CYQR 171900Z 04009KT 15SM VCSH FEW020 BKN031 M09/M14 A3036 RMK SC1SC6 SLP326

CYQR;2010-11-17 20:00;CYQR 172000Z 04009KT 15SM BKN019 OVC031 M09/M14 A3035 RMK SC6SC1 SLP323

CYQR;2010-11-17 21:00;CYQR 172100Z 04007KT 8SM -SHSN OVC012 M09/M14 A3035 RMK SC8 VIS W 1 SLP323

CYQR;2010-11-17 21:09;CYQR 172109Z 05009KT 2 1/2SM -SHSN BKN012 M09/ RMK SC7 CVCTV CLD EMBD

CYQR;2010-11-17 21:38;CYQR 172138Z 05009KT 2 1/2SM -SHSN OVC020 M10/ RMK SC8 CVCTV CLD EMBD

CYQR;2010-11-17 21:49;CYQR 172149Z 06007KT 3SM -SHSN OVC018 M10/ RMK SC8 CVCTV CLD EMBD

CYQR;2010-11-17 22:00;CYQR 172200Z 07008KT 5SM -SHSN OVC018 M10/M15 A3036 RMK SC8 CVCTV CLD EMBD SLP324

CYQR;2010-11-17 22:19;CYQR 172219Z 05008KT 8SM VCSH OVC018 M10/ RMK SC8 VIS E-S 3SM

CYQR;2010-11-17 22:45;CYQR 172245Z 09008KT 5SM -SN OVC020 M11/ RMK SC8

CYQR;2010-11-17 23:00;CYQR 172300Z 09008KT 5SM -SN OVC020 M11/M14 A3035 RMK SC8 SLP321

CYQR;2010-11-17 23:06;CYQR 172306Z 10008KT 2 1/2SM -SN OVC020 M11/ RMK SC8

CYQR;2010-11-17 23:51;CYQR 172351Z 09009KT 3SM -SN OVC030 M11/ RMK SC7

CYQR;2010-11-18 00:00;CYQR 180000Z 09008KT 7SM -SN OVC030 M11/M15 A3034 RMK SC7 SLP319

CYQR;2010-11-18 01:00;CYQR 180100Z 09009KT 15SM -SN OVC032 M12/M16 A3033 RMK SC7 SLP316

CYQR;2010-11-18 02:00;CYQR 180200Z 09009KT 15SM OVC030 M12/M16 A3031 RMK SC8 INTMT -SN SLP309

CYQR;2010-11-18 02:20;CYQR 180220Z 10011KT 15SM OVC028 M12/ RMK SC8

CYQR;2010-11-18 03:00;CYQR 180300Z 10009KT 15SM OVC028 M12/M16 A3029 RMK SC8 SLP302

CYQR;2010-11-18 04:00;CYQR 180400Z 10011KT 15SM OVC026 M11/M15 A3028 RMK SC8 SLP300

CYQR;2010-11-18 05:00;CYQR 180500Z 11009G15KT 15SM OVC028 M11/M15 A3027 RMK SC8 SLP295

CYQR;2010-11-18 06:00;CYQR 180600Z 12013KT 15SM OVC028 M11/M15 A3023 RMK SC8 SLP281

CYQR;2010-11-18 07:00;CYQR 180700Z 12014KT 15SM OVC028 M10/M14 A3020 RMK SC8 SLP270

CYQR;2010-11-18 07:15;CYQR 180715Z 12015KT 15SM -SN BKN028 OVC045 M10/ RMK SC6SC2

CYQR;2010-11-18 07:57;CYQR 180757Z 11012KT 15SM BKN023 OVC073 M10/ RMK SC6AC2

CYQR;2010-11-18 08:00;CYQR 180800Z 12012KT 15SM BKN023 OVC073 M10/M14 A3017 RMK SC6AC2 SLP263

CYQR;2010-11-18 09:00;CYQR 180900Z 12018KT 10SM -SN OVC042 M10/M14 A3013 RMK SC8 SLP248

CYQR;2010-11-18 10:00;CYQR 181000Z 12017G26KT 10SM -SN BKN020 OVC087 M10/M13 A3010 RMK SC5AC3 SLP236

CYQR;2010-11-18 11:00;CYQR 181100Z 12020KT 3SM -SN DRSN SCT020 OVC058 M11/M14 A3004 RMK SC3SC5 PRESFR SLP219

CYQR;2010-11-18 11:42;CYQR 181142Z 12020G27KT 2SM -SN DRSN BKN017 OVC058 M10/ RMK SN2SC4SC2

CYQR;2010-11-18 12:00;CYQR 181200Z 12019KT 2SM -SN DRSN BKN017 OVC062 M10/M13 A3001 RMK SN2SC4SC2 /S01/ SLP207

CYQR;2010-11-18 12:35;CYQR 181235Z 12021G27KT 3/4SM R13/P6000FT/D -SN DRSN VV005 M11/ RMK SN8

CYQR;2010-11-18 13:00;CYQR 181300Z 12021G26KT 3/4SM R13/P6000FT/D -SN BLSN VV005 M10/M13 A2994 RMK SN8 SLP185

CYQR;2010-11-18 13:27;CYQR 181327Z 12021G26KT 3/4SM R13/P6000FT/D -SN BLSN VV006 M10/ RMK SN8

CYQR;2010-11-18 14:00;CYQR 181400Z 12023G33KT 1SM R13/P6000FT/U -SN BLSN VV007 M10/M13 A2990 RMK SN8 VIS E 2SM SLP172

CYQR;2010-11-18 14:24;CYQR 181424Z 12026G35KT 5/8SM R13/P6000FT/D -SN BLSN OVC014 M10/ RMK BLSN3SC5

CYQR;2010-11-18 14:47;CYQR 181447Z CCA 12024G32KT 1/2SM R13/P6000FT/U -SN BLSN VV009 M10/ RMK BLSN8

CYQR;2010-11-18 15:00;CYQR 181500Z 12022G31KT 1/2SM R13/P6000FT/D -SN BLSN VV009 M10/M12 A2986 RMK BLSN8 SLP154

CYQR;2010-11-18 15:15;CYQR 181515Z 12026G31KT 1SM R13/P6000FT/U -SN BLSN OVC020 M10/ RMK BLSN4SC4

CYQR;2010-11-18 15:43;CYQR 181543Z 12023G32KT 1/2SM R13/3500VP6000FT/D -SN BLSN OVC018 M09/ RMK BLSN6SC2

CYQR;2010-11-18 15:49;CYQR 181549Z 12026G31KT 3/8SM R13/3500V5500FT/D -SN BLSN VV008 M10/ RMK BLSN8

CYQR;2010-11-18 16:00;CYQR 181600Z 11026G32KT 3/8SM R13/3000V5000FT/N -SN BLSN VV008 M09/M12 A2981 RMK BLSN8 SLP137

CYQR;2010-11-18 16:08;CYQR 181608Z 12025G34KT 3/8SM R13/3000FT/N -SN BLSN VV004 M09/ RMK BLSN8

CYQR;2010-11-18 16:21;CYQR 181621Z 12026G33KT 1/4SM R13/2600FT/N -SN +BLSN VV003 M09/ RMK BLSN8

CYQR;2010-11-18 17:00;CYQR 181700Z 12027G33KT 3/8SM R13/2600V4000FT/N -SN BLSN VV004 M09/M11 A2976 REBLSN RMK SN8 SLP124

CYQR;2010-11-18 17:18;CYQR 181718Z 12027KT 3/8SM R13/3000FT/N -SN BLSN VV003 M09/ RMK SN8

CYQR;2010-11-18 17:50;CYQR 181750Z 12028G34KT 1/4SM R13/2400V3500FT/D -SN +BLSN VV002 M09/ RMK BLSN8

CYQR;2010-11-18 18:00;CYQR 181800Z CCA 12027G34KT 3/8SM R13/2800FT/N -SN BLSN VV002 M08/M11 A2970 RMK BLSN8 VIS VRB 1/4 - 1/2 PRESFR /S02/ SLP098

CYQR;2010-11-18 18:24;CYQR 181824Z 12027G32KT 3/8SM R13/3000FT/U -SN BLSN VV003 M08/ RMK BLSN8 VIS VRB 1/4 - 1/2

CYQR;2010-11-18 19:00;CYQR 181900Z 12027G35KT 3/8SM R13/3000FT/N -SN BLSN VV003 M08/M10 A2965 RMK BLSN8 VIS VRB 1/4 - 1/2 SLP083

CYQR;2010-11-18 20:00;CYQR 182000Z 12028G34KT 1/2SM R13/3500V5000FT/U -SN BLSN OVC028 M07/M09 A2959 RMK BLSN3SC5 PRESFR SLP064

CYQR;2010-11-18 20:10;CYQR 182010Z 12027G37KT 1SM R13/3000V6000FT/U -SN BLSN OVC023 M07/ RMK BLSN1SC7

CYQR;2010-11-18 20:25;CYQR 182025Z 13024G32KT 3/4SM R13/P6000FT/D -SN BLSN OVC021 M07/ RMK BLSN3SC5

CYQR;2010-11-18 20:43;CYQR 182043Z 12019G27KT 1 1/4SM R13/4500VP6000FT/U -SN BLSN OVC019 M07/ RMK BLSN2SC6

CYQR;2010-11-18 20:49;CYQR 182049Z 12016G25KT 3SM -SN BLSN OVC019 M07/ RMK SC8

CYQR;2010-11-18 21:00;CYQR 182100Z 12014G20KT 5SM -SN DRSN OVC017 M07/M09 A2964 RMK SC8 SLP076

CYQR;2010-11-18 21:03;CYQR 182103Z 12016KT 1SM R13/P6000FT/D -SN DRSN OVC017 M07/ RMK SC8

CYQR;2010-11-18 21:39;CYQR 182139Z 11018KT 3/4SM R13/P6000FT/D -SN DRSN OVC015 M06/ RMK SC8

CYQR;2010-11-18 21:53;CYQR 182153Z 11016KT 1 1/4SM -SN DRSN OVC015 M06/ RMK SC8

CYQR;2010-11-18 22:00;CYQR 182200Z 11016KT 1 1/4SM -SN DRSN OVC015 M06/M09 A2959 RMK SC8 SLP061

CYQR;2010-11-18 22:08;CYQR 182208Z 12018KT 2SM -SN DRSN OVC017 M06/ RMK SC8 /S01/

CYQR;2010-11-18 22:42;CYQR 182242Z 12018KT 1SM R13/P6000FT/U -SN DRSN OVC015 M06/ RMK SC8

CYQR;2010-11-18 22:52;CYQR 182252Z 12018KT 5/8SM R13/P6000FT/D -SN DRSN VV006 M06/ RMK SN8

CYQR;2010-11-18 23:00;CYQR 182300Z 12018KT 1/2SM R13/P6000FT/D SN DRSN VV005 M06/M08 A2957 RMK SN8 SLP054

CYQR;2010-11-18 23:09;CYQR 182309Z 12014KT 3/4SM R13/P6000FT/U -SN DRSN VV005 M06/ RESN RMK SN8

CYQR;2010-11-18 23:16;CYQR 182316Z 12014KT 3/4SM R13/P6000FT/U -SN DRSN OVC025 M06/ RESN RMK SN3SC5

CYQR;2010-11-18 23:24;CYQR 182324Z 11019KT 2SM -SN DRSN OVC025 M06/ RESN RMK SN3SC5

CYQR;2010-11-18 23:32;CYQR 182332Z 11018G25KT 3SM -SN DRSN BKN005 OVC025 M06/ RESN RMK ST5SC3

CYQR;2010-11-18 23:41;CYQR 182341Z 09008G20KT 8SM -SN DRSN BKN008 OVC077 M06/ RESN RMK SC6AC2

CYQR;2010-11-19 00:00;CYQR 190000Z 13002KT 8SM -SN OVC008 M06/M09 A2960 RESN RMK SC8 SLP061

CYQR;2010-11-19 00:20;CYQR 190020Z 08004KT 12SM -SN OVC010 M06/ RMK SC8

CYQR;2010-11-19 01:00;CYQR 190100Z 05004KT 15SM -SN OVC010 M07/M09 A2960 RMK SC8 SLP062

CYQR;2010-11-19 02:00;CYQR 190200Z 31012KT 15SM -SN OVC010 M08/M10 A2962 RMK SC8 SLP070

CYQR;2010-11-19 02:48;CYQR 190248Z 30018KT 10SM -SN BKN015 M10/ RMK SC7

CYQR;2010-11-19 03:00;CYQR 190300Z 30018KT 10SM -SN BKN015 M09/M12 A2966 RMK SC7 /S01/ SLP084

CYQR;2010-11-19 03:11;CYQR 190311Z 30017KT 10SM -SN BKN011 M10/ RMK SC7

CYQR;2010-11-19 04:00;CYQR 190400Z 30016KT 3SM -SN BLSN OVC010 M11/M13 A2970 RMK SN1SC7 SLP097

CYQR;2010-11-19 04:11;CYQR 190411Z 30026KT 2SM -SN BLSN OVC013 M11/ RMK SN2SC6

CYQR;2010-11-19 04:28;CYQR 190428Z 30022G27KT 1SM R13/P6000FT/D -SN BLSN OVC015 M12/ RMK SN3SC5

CYQR;2010-11-19 05:00;CYQR 190500Z 30021KT 2SM -SN DRSN BKN013 M13/M16 A2974 RMK SN1SC6 SLP109

CYQR;2010-11-19 05:12;CYQR 190512Z 30021KT 6SM -SN DRSN BKN021 RMK SC5

CYQR;2010-11-19 05:13;CYQR 190513Z CCA 30021KT 6SM -SN DRSN BKN021 M13/ RMK SC5

CYQR;2010-11-19 06:00;CYQR 190600Z 30022G27KT 3SM -SN DRSN BKN020 M14/M17 A2977 RMK SC6 SLP126

CYQR;2010-11-19 06:52;CYQR 190652Z 31023G28KT 3SM BLSN SCT025 M14/ RMK SC3

CYQR;2010-11-19 07:00;CYQR 190700Z 31022G28KT 3SM BLSN SCT025 M14/M17 A2982 RMK SC3 SLP141

CYQR;2010-11-19 08:00;CYQR 190800Z 31023KT 10SM DRSN SCT030 M17/M19 A2986 REBLSN RMK SC3 SLP154

CYQR;2010-11-19 09:00;CYQR 190900Z 31025KT 10SM DRSN SCT030 M17/M19 A2990 RMK SC3 SLP171

CYQR;2010-11-19 10:00;CYQR 191000Z 32020KT 15SM DRSN FEW035 M18/M21 A2994 RMK SC2 SLP183

CYQR;2010-11-19 11:00;CYQR 191100Z 32018KT 15SM FEW035 M19/M22 A2996 RMK SC2 SLP191

CYQR;2010-11-19 12:00;CYQR 191200Z 31017KT 15SM FEW060 M20/M23 A2999 RMK SC2 IC SLP205

CYQR;2010-11-19 13:00;CYQR 191300Z 31012KT 8SM FEW060 M21/M24 A3003 RMK SC1 IC SLP216

CYQR;2010-11-19 14:00;CYQR 191400Z 29012KT 10SM FEW060 M21/M25 A3007 RMK SC1 IC VIS E 3 SLP230

CYQR;2010-11-19 15:00;CYQR 191500Z CCA 30011KT 15SM FEW070 M23/M26 A3010 RMK AC0 IC SLP247

CYQR;2010-11-19 16:00;CYQR 191600Z 31009KT 15SM FEW070 M22/M26 A3013 RMK AC1 IC SLP255

CYQR;2010-11-19 17:00;CYQR 191700Z CCA 30010KT 15SM SKC M21/M25 A3014 RMK IC SLP260

CYQR;2010-11-19 18:00;CYQR 191800Z 30008KT 15SM SKC M20/M23 A3017 RMK IC SLP272

CYQR;2010-11-19 18:53;CYQR 191853Z 32011KT 15SM FEW210 M18/ RMK CI1

CYQR;2010-11-19 19:00;CYQR 191900Z 31010KT 15SM FEW210 M18/M22 A3018 RMK CI1 SLP275

CYQR;2010-11-19 20:00;CYQR 192000Z 32009KT 15SM FEW210 M18/M22 A3020 RMK CI1 SLP280

CYQR;2010-11-19 21:00;CYQR 192100Z 32007KT 15SM FEW210 M17/M22 A3020 RMK CI1 SLP282

CYQR;2010-11-19 22:00;CYQR 192200Z 34006KT 15SM FEW210 M18/M22 A3020 RMK CI1 SLP282

CYQR;2010-11-19 23:00;CYQR 192300Z 30005KT 15SM FEW015 FEW210 M19/M24 A3022 RMK SC0CI1 SLP288

CYQR;2010-11-19 23:32;CYQR 192332Z 30007KT 15SM SCT006 BKN210 M21/ RMK SF2CI0

CYQR;2010-11-20 00:00;CYQR 200000Z 32007KT 15SM FEW210 M21/M25 A3023 RMK CI0 SLP298

CYQR;2010-11-20 01:00;CYQR 200100Z 32004KT 15SM FEW007 M21/M25 A3025 RMK ST1 TR ST E OVR CITY SLP304

CYQR;2010-11-20 02:00;CYQR 200200Z 35004KT 15SM FEW008 M23/M27 A3026 RMK ST2 SLP308

CYQR;2010-11-20 03:00;CYQR 200300Z 34002KT 15SM FEW008 M24/M26 A3028 RMK ST2 SLP319

CYQR;2010-11-20 03:14;CYQR 200314Z 36005KT 3SM IC FEW007 M24/ RMK ST2 IC

CYQR;2010-11-20 04:00;CYQR 200400Z 36002KT 10SM FEW007 M21/M24 A3029 RMK ST2 SLP322

CYQR;2010-11-20 04:19;CYQR 200419Z 33004KT 15SM FEW007 M22/ RMK ST2

CYQR;2010-11-20 05:00;CYQR 200500Z 02004KT 15SM FEW007 M22/M26 A3030 RMK ST2 SLP326

CYQR;2010-11-20 06:00;CYQR 200600Z 02006KT 15SM FEW007 M23/M26 A3030 RMK ST2 SLP322

CYQR;2010-11-20 07:00;CYQR 200700Z 00000KT 15SM FEW100 M25/M29 A3032 RMK AC1 SLP330

CYQR;2010-11-20 08:00;CYQR 200800Z 22003KT 15SM SKC M25/M29 A3032 RMK SLP329

CYQR;2010-11-20 08:32;CYQR 200832Z 22005KT 15SM FEW001 M26/ RMK SF2

CYQR;2010-11-20 08:55;CYQR 200855Z 24003KT 1SM R13/4000FT/U BR SKC M26/ RMK FG3

CYQR;2010-11-20 09:00;CYQR 200900Z 23003KT 1SM R13/3500V5000FT/U BR SKC M26/M30 A3033 RMK FG3 SLP334

CYQR;2010-11-20 09:25;CYQR 200925Z 00000KT 3SM BR SKC M27/ RMK FG2

CYQR;2010-11-20 10:00;CYQR 201000Z CCA 00000KT 3SM IC SKC M25/M29 A3033 RMK IC2 SLP335

CYQR;2010-11-20 11:00;CYQR 201100Z 13004KT 10SM FEW100 M26/M29 A3033 RMK AC2 IC SLP333

CYQR;2010-11-20 12:00;CYQR 201200Z 10003KT 10SM FEW100 M25/M29 A3033 RMK AC2 IC SLP336

CYQR;2010-11-20 13:00;CYQR 201300Z 08003KT 15SM FEW084 M25/M28 A3031 RMK AC2 SLP332

CYQR;2010-11-20 14:00;CYQR 201400Z 00000KT 12SM FEW084 FEW280 M26/M30 A3033 RMK AC1CI0 SLP336

CYQR;2010-11-20 15:00;CYQR 201500Z 05004KT 12SM FEW074 BKN280 M25/M29 A3033 RMK AC1CI1 SLP340

CYQR;2010-11-20 16:00;CYQR 201600Z 12005KT 10SM FEW076 BKN280 M23/M26 A3033 RMK AC1CI1 SLP340

CYQR;2010-11-20 17:00;CYQR 201700Z 14006KT 12SM FEW096 BKN280 M21/M24 A3033 RMK AC2CI1 SLP340

CYQR;2010-11-20 18:00;CYQR 201800Z 13008KT 15SM FEW068 BKN280 M19/M21 A3030 RMK AC2CI2 SLP321

CYQR;2010-11-20 19:00;CYQR 201900Z 14007KT 15SM FEW078 BKN280 M18/M21 A3028 RMK AC1CI2 SLP317

CYQR;2010-11-20 20:00;CYQR 202000Z 12006KT 15SM FEW073 BKN280 M18/M21 A3025 RMK AC2CI2 SLP307

CYQR;2010-11-20 21:00;CYQR 202100Z 10006KT 15SM FEW090 BKN280 M17/M21 A3022 RMK AC1CI2 SLP297

CYQR;2010-11-20 22:00;CYQR 202200Z 12008KT 15SM FEW092 BKN280 M17/M21 A3021 RMK AC2CI4 SLP294

CYQR;2010-11-20 23:00;CYQR 202300Z 10006KT 15SM FEW094 OVC280 M17/M21 A3019 RMK AC2CI3 SLP287

CYQR;2010-11-21 00:00;CYQR 210000Z 10008KT 15SM SCT079 OVC280 M16/M20 A3016 RMK AC4CI4 SLP274

CYQR;2010-11-21 01:00;CYQR 210100Z 11010KT 15SM FEW049 OVC067 M15/M20 A3013 RMK SC2AC6 SLP266

CYQR;2010-11-21 02:00;CYQR 210200Z 11007KT 15SM OVC040 M15/M20 A3012 RMK SC8 SLP263

CYQR;2010-11-21 02:24;CYQR 210224Z 10010KT 6SM -SN OVC025 M15/ RMK SC8

CYQR;2010-11-21 03:00;CYQR 210300Z 10009KT 2SM -SN OVC017 M15/M19 A3010 RMK SN2SC6 SLP252

CYQR;2010-11-21 03:09;CYQR 210309Z 10012KT 1SM R13/P6000FT/N -SN OVC017 M15/ RMK SN3SC5

CYQR;2010-11-21 03:46;CYQR 210346Z 12008KT 3SM -SN OVC020 M15/ RMK SN1SC7

CYQR;2010-11-21 04:00;CYQR 210400Z 11008KT 3SM -SN OVC020 M15/M19 A3008 RMK SN1SC7 SLP247

CYQR;2010-11-21 05:00;CYQR 210500Z 10006KT 3SM -SN OVC020 M15/M19 A3008 RMK SN2SC6 SLP246

CYQR;2010-11-21 05:09;CYQR 210509Z 09007KT 1SM R13/P6000FT/D -SN OVC020 M15/ RMK SN3SC5

CYQR;2010-11-21 05:31;CYQR 210531Z 09007KT 3/4SM R13/P6000FT/U -SN VV006 M15/ RMK SN8

CYQR;2010-11-21 06:00;CYQR 210600Z 10007KT 3/4SM R13/P6000FT/N -SN VV008 M15/M18 A3006 RMK SN8 /S01/ SLP233

CYQR;2010-11-21 06:41;CYQR 210641Z 09005KT 1 1/2SM -SN OVC025 M15/ RMK SN2SC6

CYQR;2010-11-21 07:00;CYQR 210700Z 07007KT 1 1/2SM -SN OVC025 M15/M18 A3004 RMK SN2SC6 SLP226

CYQR;2010-11-21 07:29;CYQR 210729Z 07007KT 1SM R13/P6000FT/N -SN OVC025 M15/ RMK SN2SC6

CYQR;2010-11-21 08:00;CYQR 210800Z 06006KT 1SM R13/P6000FT/U -SN OVC025 M15/M19 A3001 RMK SN2SC6 SLP218

CYQR;2010-11-21 08:11;CYQR 210811Z 06006KT 3SM -SN OVC025 M15/ RMK SC8

CYQR;2010-11-21 08:48;CYQR 210848Z 07009KT 1SM R13/P6000FT/U -SN OVC025 M15/ RMK SN2SC6

CYQR;2010-11-21 09:00;CYQR 210900Z 08008KT 1SM R13/P6000FT/D -SN OVC025 M15/M19 A2998 RMK SN2SC6 /S01/ SLP204

CYQR;2010-11-21 10:00;CYQR 211000Z 10006KT 1SM R13/P6000FT/D -SN OVC025 M15/M19 A2998 RMK SN3SC5 SLP204

CYQR;2010-11-21 10:38;CYQR 211038Z 10010KT 3/4SM R13/P6000FT/D -SN VV007 M16/ RMK SN8

CYQR;2010-11-21 11:00;CYQR 211100Z CCA 10009KT 3/4SM R13/P6000FT/N -SN VV007 M16/M19 A2993 RMK SN8 /S02/ SLP189

CYQR;2010-11-21 11:51;CYQR 211151Z 09006KT 1SM R13/P6000FT/U -SN OVC025 M16/ RMK SN3SC5

CYQR;2010-11-21 12:00;CYQR 211200Z 09004KT 1SM R13/P6000FT/D -SN OVC025 M16/M19 A2992 RMK SN3SC5 /S03/ SLP183

CYQR;2010-11-21 13:00;CYQR 211300Z 00000KT 1SM R13/P6000FT/U -SN OVC025 M16/M19 A2992 RMK SN3SC5 SLP183

CYQR;2010-11-21 14:00;CYQR 211400Z 08002KT 1SM R13/P6000FT/D -SN OVC015 M16/M19 A2991 RMK SN2SC6 SLP179

CYQR;2010-11-21 14:06;CYQR 211406Z 07002KT 3/4SM R13/P6000FT/D -SN OVC015 M16/ RMK SN4SC4

CYQR;2010-11-21 14:32;CYQR 211432Z 36003KT 1SM R13/P6000FT/U -SN OVC015 M16/ RMK SN2SC6 VIS VRB 3/4-11/4

CYQR;2010-11-21 14:48;CYQR 211448Z 02004KT 1 1/2SM -SN OVC015 M16/ RMK SC8

CYQR;2010-11-21 15:00;CYQR 211500Z 03004KT 2SM -SN OVC020 M16/M20 A2989 RMK SC8 VIS VRB 11/2-21/2 SLP173

CYQR;2010-11-21 15:43;CYQR 211543Z 03004KT 3SM -SN OVC039 M16/ RMK SC8

CYQR;2010-11-21 16:00;CYQR 211600Z 01003KT 5SM -SN BKN049 OVC100 M16/M20 A2989 RMK SC6AC2 SLP172

CYQR;2010-11-21 17:00;CYQR 211700Z 33008KT 3SM -SN BKN049 BKN100 OVC280 M17/M20 A2989 RMK SC5AC2CI1 SLP173

CYQR;2010-11-21 18:00;CYQR 211800Z 34007KT 6SM R13/2800VP6000FT/U -SN FEW012 SCT034 OVC280 M16/M20 A2989 RMK SC2SC2CI1 SLP174

CYQR;2010-11-21 18:25;CYQR 211825Z 33008KT 8SM FEW012 SCT042 BKN280 M16/ RMK SC2SC1CI0

CYQR;2010-11-21 19:00;CYQR 211900Z 33008KT 15SM FEW012 FEW042 BKN280 M16/M20 A2989 RMK SC1SC1CI0 SLP174

CYQR;2010-11-21 20:00;CYQR 212000Z 33007KT 15SM FEW014 FEW280 M17/M21 A2990 RMK SC1CI0 SLP176

CYQR;2010-11-21 21:00;CYQR 212100Z 30008KT 15SM FEW017 M17/M21 A2991 RMK SC2 SLP182

CYQR;2010-11-21 22:00;CYQR 212200Z 32011KT 15SM FEW015 M18/M22 A2992 RMK SC1 SLP184

CYQR;2010-11-21 23:00;CYQR 212300Z 34011KT 15SM FEW015 FEW280 M20/M24 A2993 RMK SC1CI1 SLP187

CYQR;2010-11-22 00:00;CYQR 220000Z 35008KT 15SM FEW015 FEW280 M22/M26 A2994 RMK SC1CI1 SLP195

CYQR;2010-11-22 01:00;CYQR 220100Z 33005KT 15SM FEW280 M24/M29 A2998 RMK CI1 SLP208

CYQR;2010-11-22 02:00;CYQR 220200Z 29003KT 15SM SKC M26/M31 A2997 RMK SLP205

CYQR;2010-11-22 03:00;CYQR 220300Z 32009KT 15SM SCT006 M27/M32 A2997 RMK SF3 SLP210

CYQR;2010-11-22 04:00;CYQR 220400Z 01005KT 15SM SKC M26/M30 A2997 RMK SLP211

CYQR;2010-11-22 05:00;CYQR 220500Z 34008KT 10SM SKC M25/M30 A2998 RMK SLP213

CYQR;2010-11-22 06:00;CYQR 220600Z 33004KT 10SM SKC M26/M31 A3002 RMK SLP227

CYQR;2010-11-22 06:30;CYQR 220630Z 29004KT 6SM IC FEW004 M27/ RMK ST1

CYQR;2010-11-22 06:43;CYQR 220643Z 27006KT 1SM R13/1600V2600FT/N IC SKC M27/ RMK IC3

CYQR;2010-11-22 06:50;CYQR 220650Z 28004KT 3/4SM R13/3000FT/N IC SKC M27/ RMK IC5

CYQR;2010-11-22 07:00;CYQR 220700Z 27004KT 3/4SM R13/3000V5500FT/U IC SKC M27/M32 A3005 RMK IC5 SLP237

CYQR;2010-11-22 07:36;CYQR 220736Z 35006KT 3SM IC SKC M27/

CYQR;2010-11-22 08:00;CYQR 220800Z 35002KT 6SM IC SKC M27/M31 A3004 RMK SLP234

CYQR;2010-11-22 09:00;CYQR 220900Z 34005KT 15SM SKC M25/M29 A3004 RMK SLP232

CYQR;2010-11-22 10:00;CYQR 221000Z 35005KT 6SM IC SKC M24/M28 A3005 RMK SLP237

CYQR;2010-11-22 11:00;CYQR 221100Z 04003KT 10SM FEW005 M23/M27 A3004 RMK ST1 SLP232

CYQR;2010-11-22 12:00;CYQR 221200Z 28003KT 10SM FEW005 M26/M30 A3005 RMK ST1 IC SLP241

CYQR;2010-11-22 13:00;CYQR 221300Z 01002KT 10SM FEW005 M26/M30 A3004 RMK ST1 IC SLP237

CYQR;2010-11-22 14:00;CYQR 221400Z 00000KT 10SM FEW005 FEW100 SCT240 M26/M31 A3004 RMK SF1AC1CI0 TR SF DIST W SLP238

CYQR;2010-11-22 14:10;CYQR 221410Z 05002KT 6SM BR BKN002 BKN100 BKN240 M26/ RMK SF5AC1CI1

CYQR;2010-11-22 14:39;CYQR 221439Z 11003KT 6SM BR BKN004 BKN031 OVC240 M23/ RMK SF5SC2CI2

CYQR;2010-11-22 15:00;CYQR 221500Z 11002KT 6SM BR SCT006 BKN120 OVC240 M23/M27 A3006 RMK SF3AC3CI2 SLP249

CYQR;2010-11-22 15:51;CYQR 221551Z 25002KT 5SM -SN BKN017 OVC055 M23/ RMK SC6SC2

CYQR;2010-11-22 16:00;CYQR 221600Z 00000KT 4SM -SN BKN017 OVC055 M23/M27 A3007 RMK SC6SC2 SLP252

CYQR;2010-11-22 16:42;CYQR 221642Z 12006KT 6SM IC FEW090 OVC240 RMK AC2CI2

CYQR;2010-11-22 17:00;CYQR 221700Z 12005KT 10SM FEW015 FEW100 OVC240 M22/M26 A3008 RMK SC1AC1CI2 SLP253

CYQR;2010-11-22 18:00;CYQR 221800Z 19005KT 10SM FEW015 SCT100 BKN240 M22/M26 A3009 RMK SC1AC2CI4 SLP255

CYQR;2010-11-22 18:20;CYQR 221820Z 20004KT 4SM -SN FEW015 SCT100 OVC240 M21/ RMK SC1AC3CI4

CYQR;2010-11-22 19:00;CYQR 221900Z 23002KT 4SM -SN BKN100 OVC240 M21/M25 A3009 RMK AC5CI3 SLP255

CYQR;2010-11-22 20:00;CYQR 222000Z 32004KT 4SM -SN BKN100 OVC240 M21/M25 A3009 RMK SN1AC4CI3 SLP255

CYQR;2010-11-22 20:37;CYQR 222037Z 31004KT 2 1/2SM -SN OVC100 M21/ RMK SN1AC7

CYQR;2010-11-22 21:00;CYQR 222100Z 30003KT 1 1/2SM -SN OVC100 M21/M24 A3009 RMK SN1AC7 SLP253

CYQR;2010-11-22 21:18;CYQR 222118Z 33004KT 4SM -SN OVC100 M20/ RMK SN1AC7

CYQR;2010-11-22 22:00;CYQR 222200Z 32004KT 4SM -SN SCT015 OVC094 M20/M24 A3009 RMK SC2AC6 SLP254

CYQR;2010-11-22 23:00;CYQR 222300Z 34006KT 3SM -SN OVC042 M19/M23 A3010 RMK SN2SC6 SLP258

CYQR;2010-11-23 00:00;CYQR 230000Z 02003KT 3SM -SN OVC017 M19/M22 A3011 RMK SN2SC6 SLP259

CYQR;2010-11-23 01:00;CYQR 230100Z 03002KT 5SM -SN OVC014 M18/M22 A3011 RMK SC8 SLP260

CYQR;2010-11-23 01:16;CYQR 230116Z 35002KT 3SM -SN OVC019 M18/ RMK SC8

CYQR;2010-11-23 01:50;CYQR 230150Z 00000KT 2SM -SN OVC019 M18/ RMK SC8

CYQR;2010-11-23 02:00;CYQR 230200Z 32003KT 2 1/2SM -SN OVC019 M18/M22 A3011 RMK SC8 SLP261

CYQR;2010-11-23 02:34;CYQR 230234Z 09003KT 1 1/2SM -SN OVC016 M18/ RMK SC8

CYQR;2010-11-23 03:00;CYQR 230300Z 09003KT 1 1/2SM -SN OVC016 M18/M22 A3012 RMK SC8 SLP262

CYQR;2010-11-23 03:33;CYQR 230333Z 10002KT 1SM R13/P6000FT/D -SN VV012 M18/ RMK SN8

CYQR;2010-11-23 04:00;CYQR 230400Z 10002KT 1SM R13/P6000FT/U -SN VV008 M18/M22 A3012 RMK SN8 SLP262

CYQR;2010-11-23 04:25;CYQR 230425Z 12003KT 1 1/2SM -SN OVC015 M18/ RMK SN6SC1

CYQR;2010-11-23 05:00;CYQR 230500Z 13004KT 1 1/2SM -SN OVC015 M18/M22 A3012 RMK SN6SC1 SLP261

CYQR;2010-11-23 06:00;CYQR 230600Z 13002KT 2SM -SN BKN015 M18/M22 A3013 RMK SN3SC4 SLP262

CYQR;2010-11-23 07:00;CYQR 230700Z 23003KT 4SM -SN OVC014 M18/M21 A3015 RMK SC7 SLP268

CYQR;2010-11-23 07:29;CYQR 230729Z 00000KT 2SM -SN OVC014 M18/ RMK SN4SC3

CYQR;2010-11-23 07:47;CYQR 230747Z 00000KT 5SM -SN SCT014 M19/ RMK SC3

CYQR;2010-11-23 08:00;CYQR 230800Z 00000KT 7SM -SN SCT014 M19/M22 A3012 RMK SC3 SLP261

CYQR;2010-11-23 08:23;CYQR 230823Z 00000KT 8SM -SN BKN013 M19/ RMK SC6

CYQR;2010-11-23 09:00;CYQR 230900Z 00000KT 2SM -SN BKN011 M19/M22 A3012 RMK SN3SC3 SLP259

CYQR;2010-11-23 09:26;CYQR 230926Z 09003KT 3SM -SN OVC013 M19/ RMK SC7

CYQR;2010-11-23 10:00;CYQR 231000Z 13003KT 3SM -SN OVC021 M18/M21 A3011 RMK SC7 SLP257

CYQR;2010-11-23 11:00;CYQR 231100Z 13002KT 5SM IC FEW020 M20/M23 A3010 RMK SC1 SLP254

CYQR;2010-11-23 12:00;CYQR 231200Z 12003KT 15SM SKC M22/M26 A3009 RMK IC SLP249

CYQR;2010-11-23 12:31;CYQR 231231Z 00000KT 15SM SKC M21/

CYQR;2010-11-23 13:00;CYQR 231300Z 00000KT 12SM SKC M22/M25 A3010 RMK IC SLP251

CYQR;2010-11-23 14:00;CYQR 231400Z 00000KT 6SM R13/3500VP6000FT/U BR PRFG FEW100 FEW250 M26/M30 A3010 RMK AC1CI0 VIS SW-W-NW 3/4 SLP252

CYQR;2010-11-23 15:00;CYQR 231500Z 14002KT 10SM BCFG FEW100 BKN250 M23/M25 A3010 RMK AC1CI2 SLP252

CYQR;2010-11-23 16:00;CYQR 231600Z 00000KT 12SM SCT100 OVC250 M24/M27 A3010 RMK AC3CI2 SLP253

CYQR;2010-11-23 17:00;CYQR 231700Z 00000KT 12SM FEW008 SCT100 OVC250 M21/M24 A3009 RMK SF1AC3CI4 TR SF DIST SW SLP249

CYQR;2010-11-23 18:00;CYQR 231800Z 23004KT 12SM FEW008 SCT100 OVC250 M20/M23 A3008 RMK SF1AC3CI3 SLP244

CYQR;2010-11-23 19:00;CYQR 231900Z 10004KT 12SM SCT100 OVC250 M18/M21 A3004 RMK AC3CI2 SLP232

CYQR;2010-11-23 20:00;CYQR 232000Z 13003KT 12SM FEW008 SCT120 OVC250 M18/M21 A3004 RMK SF1AC3CI3 SLP230

CYQR;2010-11-23 21:00;CYQR 232100Z 12005KT 10SM -SN FEW003 BKN048 OVC090 M18/M23 A3002 RMK SF1SC5AC3 SLP223

CYQR;2010-11-23 22:00;CYQR 232200Z 07004KT 5SM -SN FEW004 BKN048 OVC090 M18/M22 A3001 RMK SF2SC5AC1 SLP220

CYQR;2010-11-23 22:41;CYQR 232241Z 10004KT 2SM -SN OVC048 M17/ RMK SC8

CYQR;2010-11-23 22:44;CYQR 232244Z 09004KT 1 1/2SM -SN OVC048 M17/ RMK SC8

CYQR;2010-11-23 22:47;CYQR 232247Z 09004KT 3SM -SN SCT006 OVC048 M17/ RMK SF4SC4

CYQR;2010-11-23 23:00;CYQR 232300Z 08005KT 4SM -SN BKN006 OVC048 M17/M21 A3000 RMK SF5SC3 SLP215

CYQR;2010-11-23 23:02;CYQR 232302Z 07007KT 2SM -SN BKN006 OVC048 M17/ RMK SF5SC3 VIS VRB 1-3

CYQR;2010-11-24 00:00;CYQR 240000Z 09007KT 2 1/2SM -SN SCT006 OVC074 M17/M21 A2999 RMK SF2AC6 SLP212

CYQR;2010-11-24 01:00;CYQR 240100Z 04006KT 1SM R13/P6000FT/D -SN VV007 M16/M20 A2998 RMK SN8 SLP211

CYQR;2010-11-24 01:16;CYQR 240116Z 04005KT 3/4SM R13/P6000FT/D -SN VV004 M16/ RMK SN8

CYQR;2010-11-24 02:00;CYQR 240200Z 05007KT 3/4SM R13/P6000FT/N -SN VV004 M17/M20 A2996 RMK SN8 /S01/ SLP205

CYQR;2010-11-24 02:08;CYQR 240208Z 06009KT 1 1/4SM -SN OVC066 M16/ RMK SN5AC3

CYQR;2010-11-24 02:21;CYQR 240221Z 06009KT 3SM -SN FEW004 OVC063 M16/ RMK SF2SC6

CYQR;2010-11-24 02:45;CYQR 240245Z 04007KT 1 1/2SM -SN VV008 M16/ RMK SN8

CYQR;2010-11-24 02:53;CYQR 240253Z 03007KT 3/4SM R13/P6000FT/D -SN VV005 M16/ RMK SN8

CYQR;2010-11-24 03:00;CYQR 240300Z 03006KT 3/4SM R13/P6000FT/D -SN VV005 M16/M20 A2996 RMK SN8 SLP204

CYQR;2010-11-24 03:15;CYQR 240315Z 06008KT 1/2SM R13/P6000FT/D SN VV004 M16/ RMK SN8

CYQR;2010-11-24 03:33;CYQR 240333Z 06009KT 3/4SM R13/P6000FT/U -SN VV004 M16/ RESN RMK SN8

CYQR;2010-11-24 04:00;CYQR 240400Z 07009KT 1SM R13/P6000FT/D -SN VV004 M16/M20 A2993 RESN RMK SN8 /S02/ SLP195

CYQR;2010-11-24 04:36;CYQR 240436Z 06009KT 1SM R13/P6000FT/U -SN VV008 M16/ RMK SN8

CYQR;2010-11-24 04:49;CYQR 240449Z 06009KT 1 1/4SM -SN VV010 M16/ RMK SN8

CYQR;2010-11-24 05:00;CYQR 240500Z 06008KT 1 1/4SM -SN VV010 M16/M20 A2992 RMK SN8 SLP191

CYQR;2010-11-24 05:12;CYQR 240512Z 07011KT 2 1/2SM -SN OVC012 M16/ RMK SC8

CYQR;2010-11-24 05:17;CYQR 240517Z 07010KT 2 1/2SM -SN OVC068 M16/ RMK SN4AC4

CYQR;2010-11-24 05:40;CYQR 240540Z 07010KT 1 1/2SM -SN OVC068 M16/ RMK SN6AC2

CYQR;2010-11-24 06:00;CYQR 240600Z CCA 07011KT 1 1/2SM -SN OVC068 M16/M20 A2990 RMK SN6AC2 /S03/ SLP181

CYQR;2010-11-24 06:15;CYQR 240615Z 07009KT 3SM -SN OVC063 M16/ RMK SC8

CYQR;2010-11-24 06:39;CYQR 240639Z 08009KT 2SM -SN BKN019 OVC063 M16/ RMK SC5SC3

CYQR;2010-11-24 07:00;CYQR 240700Z 08011KT 1 3/4SM -SN OVC019 M16/M20 A2988 RMK SC8 SLP175

CYQR;2010-11-24 07:40;CYQR 240740Z 07011KT 1 1/4SM -SN VV014 M16/ RMK SN8

CYQR;2010-11-24 08:00;CYQR 240800Z 07011KT 1 1/4SM -SN VV014 M16/M20 A2986 RMK SN8 SLP168

CYQR;2010-11-24 08:27;CYQR 240827Z 07010KT 1 1/2SM -SN VV011 M16/ RMK SN8

CYQR;2010-11-24 09:00;CYQR 240900Z CCA 08008KT 1 1/2SM -SN OVC016 M16/M20 A2985 RMK SN5SC2 /S01/ SLP163

CYQR;2010-11-24 09:11;CYQR 240911Z 08011KT 1 1/4SM -SN VV012 M16/ RMK SN8

CYQR;2010-11-24 09:28;CYQR 240928Z 08011KT 3/4SM R13/P6000FT/D -SN VV010 M16/ RMK SN8

CYQR;2010-11-24 09:34;CYQR 240934Z 09011KT 1 1/4SM -SN VV010 M16/ RMK SN8

CYQR;2010-11-24 10:00;CYQR 241000Z 09009KT 1 1/2SM -SN VV008 M16/M20 A2985 RMK SN8 SLP161

CYQR;2010-11-24 10:27;CYQR 241027Z 09009KT 3/4SM R13/P6000FT/D -SN VV011 M16/ RMK SN8

CYQR;2010-11-24 10:46;CYQR 241046Z 09008KT 1SM R13/P6000FT/N -SN VV011 M16/ RMK SN8

CYQR;2010-11-24 11:00;CYQR 241100Z 09008KT 1SM R13/P6000FT/D -SN VV011 M16/M20 A2984 RMK SN8 /S02/ VIS VRB 3/4-11/4 SLP159

CYQR;2010-11-24 11:25;CYQR 241125Z 07007KT 1SM R13/P6000FT/D -SN VV007 M16/ RMK SN8 VIS VRB 3/4-11/4

CYQR;2010-11-24 12:00;CYQR 241200Z 03005KT 1 1/2SM -SN VV006 M16/M20 A2984 RMK SN8 /S03/ SLP158

CYQR;2010-11-24 12:23;CYQR 241223Z 03005KT 3/4SM R13/P6000FT/D -SN VV007 M16/ RMK SN8

CYQR;2010-11-24 12:35;CYQR 241235Z 04004KT 1SM R13/P6000FT/U -SN VV006 M16/ RMK SN8 VIS VRB 3/4-11/4

CYQR;2010-11-24 13:00;CYQR 241300Z 03005KT 1 3/4SM -SN OVC015 M16/M21 A2983 RMK SN5SC2 SLP153

CYQR;2010-11-24 14:00;CYQR 241400Z 02007KT 3SM -SN OVC015 M16/M21 A2981 RMK SN2SC6 VIS VRB 2-4 /S01/ SLP147

CYQR;2010-11-24 15:00;CYQR 241500Z 36006KT 3SM -SN OVC025 M16/M20 A2981 RMK SN1SC7 SLP146

CYQR;2010-11-24 15:40;CYQR 241540Z 36005KT 2 1/2SM -SN OVC013 M16/ RMK SN2SC6

CYQR;2010-11-24 16:00;CYQR 241600Z 01008KT 3SM -SN OVC013 M16/M20 A2981 RMK SN2SC6 SLP146

CYQR;2010-11-24 17:00;CYQR 241700Z CCA 01009KT 2 1/2SM -SN OVC013 M16/M20 A2981 RMK SN2SC6 SLP145

CYQR;2010-11-24 17:04;CYQR 241704Z 36008KT 2SM -SN OVC009 M16/ RMK SN2SC6

CYQR;2010-11-24 17:26;CYQR 241726Z 35009KT 1 1/2SM -SN OVC008 M16/ RMK SN2SC6 VIS VRB 1-2

CYQR;2010-11-24 17:35;CYQR 241735Z 35010KT 3/4SM R13/4500VP6000FT/D -SN VV004 M16/ RMK SN8

CYQR;2010-11-24 17:40;CYQR 241740Z 35010KT 1/2SM R13/3500V6000FT/D SN VV004 M16/ RMK SN8

CYQR;2010-11-24 18:00;CYQR 241800Z 34010KT 1/2SM R13/5000FT/U SN VV004 M16/M20 A2980 RMK SN8 SLP142

CYQR;2010-11-24 18:13;CYQR 241813Z 34011KT 5/8SM R13/5000FT/N -SN VV005 M17/ RESN RMK SN8

CYQR;2010-11-24 19:00;CYQR 241900Z 33012KT 5/8SM R13/P6000FT/N -SN VV006 M17/M21 A2978 RMK SN8 SLP138

CYQR;2010-11-24 19:33;CYQR 241933Z 34013KT 3/4SM R13/4000V5500FT/U -SN VV005 M17/ RMK SN8

CYQR;2010-11-24 19:39;CYQR 241939Z 34010KT 1SM R13/P6000FT/U -SN VV005 M17/ RMK SN8

CYQR;2010-11-24 20:00;CYQR 242000Z 34013KT 1SM R13/P6000FT/D -SN VV007 M17/M21 A2976 RMK SN8 SLP132

CYQR;2010-11-24 21:00;CYQR 242100Z 35014KT 1SM R13/P6000FT/U -SN VV009 M17/M21 A2975 RMK SN8 SLP126

CYQR;2010-11-24 21:26;CYQR 242126Z 35014KT 3/4SM R13/P6000FT/N -SN VV008 M17/ RMK SN8

CYQR;2010-11-24 22:00;CYQR 242200Z 35015KT 3/4SM R13/P6000FT/N -SN VV008 M17/M21 A2974 RMK SN8 SLP123

CYQR;2010-11-24 22:48;CYQR 242248Z 34017KT 3SM -SN VV014 M17/ RMK SN8

CYQR;2010-11-24 23:00;CYQR 242300Z 34016G21KT 3SM -SN VV014 M17/M22 A2976 RMK SN8 VIS VRB 2-4 SLP130

CYQR;2010-11-25 00:00;CYQR 250000Z 34014KT 3SM -SN BKN018 M19/M23 A2979 RMK SN5SC2 VIS VRB 2-4 SLP140

CYQR;2010-11-25 00:32;CYQR 250032Z 34015KT 4SM -SN BKN011 OVC070 M19/ RMK SC6AC2

CYQR;2010-11-25 01:00;CYQR 250100Z 34014KT 4SM -SN SCT011 OVC068 M19/M23 A2977 RMK SC4AC4 SLP135

CYQR;2010-11-25 02:00;CYQR 250200Z 34017KT 5SM -SN OVC016 M19/M23 A2976 RMK SC8 SLP133

CYQR;2010-11-25 03:00;CYQR 250300Z 33016KT 5SM -SN OVC018 M19/M24 A2976 RMK SC8 SLP132

CYQR;2010-11-25 04:00;CYQR 250400Z 33015KT 4SM -SN SCT018 OVC071 M19/M23 A2976 RMK SC4AC4 SLP130

CYQR;2010-11-25 04:18;CYQR 250418Z 33018KT 5SM -SN BKN013 OVC071 M19/ RMK SC6AC2

CYQR;2010-11-25 04:36;CYQR 250436Z 32015KT 5SM -SN BKN030 OVC071 M19/ RMK SC6AC2

CYQR;2010-11-25 04:43;CYQR 250443Z 32017KT 2SM -SN BKN030 OVC071 M19/ RMK SN2SC6AC1

CYQR;2010-11-25 05:00;CYQR 250500Z 32016KT 2SM -SN OVC030 M19/M23 A2975 RMK SN2SC6 SLP127

CYQR;2010-11-25 05:35;CYQR 250535Z 32020KT 3SM -SN DRSN SCT018 OVC050 M19/ RMK SC3SC5

CYQR;2010-11-25 06:00;CYQR 250600Z CCA 31017KT 6SM -SN DRSN SCT049 OVC065 M19/M23 A2975 RMK SC3SC4 /S01/ SLP127

CYQR;2010-11-25 07:00;CYQR 250700Z 32015KT 5SM -SN DRSN OVC054 M19/M24 A2974 RMK SC8 SLP125

CYQR;2010-11-25 08:00;CYQR 250800Z 32017KT 8SM -SN DRSN OVC054 M19/M24 A2974 RMK SC8 SLP125

CYQR;2010-11-25 09:00;CYQR 250900Z 31016KT 15SM -SN DRSN OVC054 M19/M24 A2975 RMK SC8 SLP128

CYQR;2010-11-25 09:38;CYQR 250938Z 32014KT 15SM DRSN OVC056 M19/ RMK SC8

CYQR;2010-11-25 10:00;CYQR 251000Z 31012KT 15SM DRSN OVC059 M19/M24 A2975 RMK SC8 SLP128

CYQR;2010-11-25 11:00;CYQR 251100Z 29010KT 15SM BKN062 M19/M23 A2976 RMK SC7 SLP130

CYQR;2010-11-25 12:00;CYQR 251200Z CCA 30009KT 15SM BKN058 M20/M25 A2976 RMK SC5 SLP133

CYQR;2010-11-25 13:00;CYQR 251300Z 27006KT 15SM SKC M24/M28 A2975 RMK SLP132

CYQR;2010-11-25 14:00;CYQR 251400Z 26008KT 15SM SKC M25/M30 A2974 RMK SLP127

CYQR;2010-11-25 15:00;CYQR 251500Z 27010KT 15SM FEW030 FEW250 M27/M31 A2975 RMK SC1CI1 TR SC SLP135

CYQR;2010-11-25 16:00;CYQR 251600Z 27009KT 15SM SCT250 M25/M30 A2974 RMK CI1 CONTRAILS SLP133

CYQR;2010-11-25 17:00;CYQR 251700Z 23005KT 15SM BKN250 M23/M29 A2972 RMK CI1 SLP126

CYQR;2010-11-25 18:00;CYQR 251800Z 21003KT 15SM BKN250 M22/M28 A2971 RMK CI2 SLP117

CYQR;2010-11-25 19:00;CYQR 251900Z 19004KT 15SM FEW170 BKN250 M21/M27 A2969 RMK AC1CI2 CONTRAILS SLP113

CYQR;2010-11-25 20:00;CYQR 252000Z 22004KT 15SM FEW170 BKN250 M19/M24 A2966 RMK AC1CI2 SLP102

CYQR;2010-11-25 21:00;CYQR 252100Z 17007KT 15SM FEW170 BKN250 M18/M23 A2963 RMK AC1CI2 SLP089

CYQR;2010-11-25 22:00;CYQR 252200Z 17008KT 15SM SCT060 BKN086 BKN250 M17/M21 A2962 RMK SC3AC2CI2 SLP084

CYQR;2010-11-25 23:00;CYQR 252300Z 16006KT 15SM OVC086 M15/M20 A2961 RMK AS8 SLP080

CYQR;2010-11-25 23:07;CYQR 252307Z 16005KT 6SM -SN SCT024 OVC070 M15/ RMK SC2AC6

CYQR;2010-11-25 23:12;CYQR 252312Z 16006KT 1SM R13/P6000FT/D -SN SCT024 OVC060 M15/ RMK SN2SC2SC4

CYQR;2010-11-25 23:23;CYQR 252323Z 17005KT 4SM -SN BKN020 OVC060 M15/ RMK SC3SC5

CYQR;2010-11-26 00:00;CYQR 260000Z 18005KT 4SM -SN OVC019 M13/M17 A2959 RMK SC8 SLP070

CYQR;2010-11-26 00:22;CYQR 260022Z 23003KT 7SM -SN BKN010 OVC019 M11/ RMK ST6SC2

CYQR;2010-11-26 01:00;CYQR 260100Z 22002KT 12SM -SN OVC010 M10/M12 A2959 RMK ST8 SLP070

CYQR;2010-11-26 02:00;CYQR 260200Z 14003KT 15SM -SHSN OVC014 M09/M11 A2958 RMK ST8 SLP067

CYQR;2010-11-26 02:31;CYQR 260231Z 18003KT 10SM -SHSN OVC019 M08/ RMK SC8

CYQR;2010-11-26 03:00;CYQR 260300Z 16003KT 10SM -SN OVC015 M08/M10 A2958 RMK SC8 SLP068

CYQR;2010-11-26 03:16;CYQR 260316Z 27006KT 2 1/2SM -SHSN OVC015 M06/ RMK SC8

CYQR;2010-11-26 03:41;CYQR 260341Z 30013KT 7SM -SHSN OVC015 M04/ RMK SC8

CYQR;2010-11-26 04:00;CYQR 260400Z 30014KT 2SM -SHSN OVC013 M04/M05 A2958 RMK SC8 SLP070

CYQR;2010-11-26 04:20;CYQR 260420Z 30018KT 4SM -SHSN BKN013 OVC051 M03/ RMK SC6SC2

CYQR;2010-11-26 05:00;CYQR 260500Z 32018KT 15SM BKN010 OVC045 M02/M04 A2961 RMK SC6SC2 SLP077

CYQR;2010-11-26 06:00;CYQR 260600Z 33024G31KT 12SM -SN DRSN OVC010 M03/M05 A2964 RMK SC8 SLP081

CYQR;2010-11-26 06:28;CYQR 260628Z 35018KT 12SM DRSN OVC009 M04/ RMK SC7

CYQR;2010-11-26 07:00;CYQR 260700Z 34019KT 15SM DRSN BKN012 OVC024 M04/M07 A2968 RMK SC6SC2 SLP095

CYQR;2010-11-26 07:20;CYQR 260720Z 34016KT 15SM DRSN SCT012 OVC024 M05/ RMK SC4SC4

CYQR;2010-11-26 08:00;CYQR 260800Z 34016KT 15SM DRSN OVC022 M05/M08 A2972 RMK SC8 SLP106

CYQR;2010-11-26 08:37;CYQR 260837Z 32011KT 15SM -SN OVC024 M05/ RMK SC8

CYQR;2010-11-26 09:00;CYQR 260900Z 32011KT 15SM OVC019 M05/M07 A2974 RMK SC8 SLP114

CYQR;2010-11-26 10:00;CYQR 261000Z 33007KT 15SM BKN009 OVC026 M04/M07 A2976 RMK SC5SC3 SLP120

CYQR;2010-11-26 10:18;CYQR 261018Z 34005KT 15SM FEW009 BKN028 M05/ RMK SC2SC4

CYQR;2010-11-26 11:00;CYQR 261100Z 28014KT 15SM FEW028 M06/M08 A2976 RMK SC1 SLP122

CYQR;2010-11-26 12:00;CYQR 261200Z 31013KT 15SM SKC M09/M11 A2978 RMK SLP128

CYQR;2010-11-26 13:00;CYQR 261300Z 33007KT 15SM SKC M10/M13 A2981 RMK SLP136

CYQR;2010-11-26 14:00;CYQR 261400Z 25005KT 15SM BKN280 M13/M16 A2983 RMK CI2 SLP144

CYQR;2010-11-26 15:00;CYQR 261500Z 27004KT 15SM FEW085 BKN280 M11/M14 A2984 RMK AC2CI3 SLP146

CYQR;2010-11-26 16:00;CYQR 261600Z 23005KT 15SM SCT088 BKN250 M12/M15 A2985 RMK AC3CI4 SLP151

CYQR;2010-11-26 17:00;CYQR 261700Z 31002KT 15SM BKN130 BKN160 BKN250 M09/M12 A2985 RMK AC6AC1CI2 SLP150

CYQR;2010-11-26 18:00;CYQR 261800Z 22003KT 15SM FEW093 BKN130 OVC250 M09/M12 A2985 RMK AC1AC5CI2 SLP143

CYQR;2010-11-26 19:00;CYQR 261900Z 19004KT 15SM BKN150 BKN260 M08/M11 A2982 RMK AC5CI2 SLP135

CYQR;2010-11-26 20:00;CYQR 262000Z 22004KT 15SM FEW074 BKN150 BKN250 M07/M11 A2984 RMK AC2AC2CI2 SLP142

CYQR;2010-11-26 21:00;CYQR 262100Z 18004KT 15SM FEW095 BKN150 BKN250 M07/M11 A2984 RMK AC1AC4CI1 SLP142

CYQR;2010-11-26 22:00;CYQR 262200Z 17006KT 15SM FEW077 BKN250 M08/M11 A2984 RMK AC1CI2 SLP141

CYQR;2010-11-26 23:00;CYQR 262300Z 12009KT 15SM FEW077 BKN250 M09/M12 A2982 RMK AC1CI2 SLP135

CYQR;2010-11-27 00:00;CYQR 270000Z 13012KT 15SM FEW077 SCT250 M10/M13 A2981 RMK AC1CI1 SLP137

CYQR;2010-11-27 01:00;CYQR 270100Z 14007KT 15SM SCT250 M12/M15 A2981 RMK CI0 SLP138

CYQR;2010-11-27 02:00;CYQR 270200Z 15010KT 15SM FEW250 M11/M13 A2980 RMK CI0 SLP133

CYQR;2010-11-27 03:00;CYQR 270300Z 14011KT 15SM SKC M10/M13 A2978 RMK SLP128

CYQR;2010-11-27 04:00;CYQR 270400Z 14010KT 15SM SKC M12/M15 A2976 RMK SLP122

CYQR;2010-11-27 05:00;CYQR 270500Z 14011KT 15SM SKC M11/M13 A2976 RMK SLP120

CYQR;2010-11-27 06:00;CYQR 270600Z 13011KT 15SM SKC M12/M14 A2974 RMK SLP114

CYQR;2010-11-27 07:00;CYQR 270700Z 14010KT 15SM SKC M13/M15 A2974 RMK SLP113

CYQR;2010-11-27 08:00;CYQR 270800Z 13009KT 15SM SKC M13/M16 A2973 RMK SLP111

CYQR;2010-11-27 09:00;CYQR 270900Z 12009KT 15SM FEW350 M13/M15 A2973 RMK CI0 SLP109

CYQR;2010-11-27 10:00;CYQR 271000Z 15006KT 15SM FEW350 M13/M15 A2972 RMK CI0 FROIN SLP105

CYQR;2010-11-27 11:00;CYQR 271100Z 16006KT 15SM FEW350 M12/M14 A2971 RMK CI0 FROIN SLP101

CYQR;2010-11-27 12:00;CYQR 271200Z 09005KT 15SM BKN350 M13/M15 A2970 RMK CI1 SLP100

CYQR;2010-11-27 13:00;CYQR 271300Z 21003KT 15SM BKN270 M11/M14 A2969 RMK CI3 SLP097

CYQR;2010-11-27 14:00;CYQR 271400Z 21008KT 15SM FEW130 BKN270 M11/M13 A2967 RMK AC2CI3 SLP093

CYQR;2010-11-27 15:00;CYQR 271500Z 23013KT 15SM FEW130 BKN270 M06/M09 A2969 RMK AC1CI2 SLP093

CYQR;2010-11-27 16:00;CYQR 271600Z 28002KT 15SM SCT130 BKN270 M07/M10 A2971 RMK AC2CI1 SLP098

CYQR;2010-11-27 17:00;CYQR 271700Z 27006KT 15SM FEW130 BKN270 M04/M08 A2971 RMK AC1CI2 SLP100

CYQR;2010-11-27 18:00;CYQR 271800Z 29006KT 15SM FEW130 BKN270 M06/M09 A2970 RMK AC1CI2 SLP098

CYQR;2010-11-27 19:00;CYQR 271900Z 26006KT 15SM FEW090 BKN270 M05/M09 A2970 RMK AC1CI2 SLP097

CYQR;2010-11-27 20:00;CYQR 272000Z 20005KT 15SM FEW090 BKN270 M06/M09 A2971 RMK AC1CI1 SLP099

CYQR;2010-11-27 21:00;CYQR 272100Z 25004KT 15SM FEW020 FEW090 BKN270 M05/M09 A2970 RMK SC1AC1CI1 SLP098

CYQR;2010-11-27 22:00;CYQR 272200Z 35003KT 15SM FEW020 FEW080 BKN270 M08/M11 A2971 RMK SC1AC1CI1 SLP099

CYQR;2010-11-27 23:00;CYQR 272300Z 36002KT 15SM FEW080 FEW130 BKN250 M09/M11 A2970 RMK AC1AC1CI1 SLP098

CYQR;2010-11-28 00:00;CYQR 280000Z 00000KT 15SM BCFG FEW080 BKN250 M11/M14 A2970 RMK AC1CI2 SLP102

CYQR;2010-11-28 01:00;CYQR 280100Z 00000KT 12SM R13/2000V2800FT/N BCFG BKN250 M13/M14 A2969 RMK CI1 FG VCNTY RWYS SLP098

CYQR;2010-11-28 02:00;CYQR 280200Z 03004KT 10SM BCFG OVC110 M12/M14 A2968 RMK AC8 FG VC RWYS SLP097

CYQR;2010-11-28 02:38;CYQR 280238Z 19007KT 12SM BKN011 OVC026 M13/ RMK SC5SC3

CYQR;2010-11-28 03:00;CYQR 280300Z 16006KT 12SM BKN011 OVC031 M11/M13 A2971 RMK SC6SC2 SLP100

CYQR;2010-11-28 03:45;CYQR 280345Z 16004KT 12SM BCFG SCT011 OVC089 M09/ RMK SC4AC4

CYQR;2010-11-28 04:00;CYQR 280400Z 18007KT 12SM BCFG FEW011 OVC110 M11/M13 A2970 RMK SC2AC6 SLP097

CYQR;2010-11-28 05:00;CYQR 280500Z 06002KT 12SM BCFG FEW010 OVC082 M10/M11 A2969 RMK SC2AC6 SLP094

CYQR;2010-11-28 05:52;CYQR 280552Z 15003KT 12SM SCT006 OVC075 M09/ RMK SF3AC5

CYQR;2010-11-28 06:00;CYQR 280600Z 14002KT 12SM BKN005 OVC075 M09/M11 A2969 RMK SF6AC2 SLP091

CYQR;2010-11-28 06:45;CYQR 280645Z 13002KT 12SM OVC007 M08/ RMK SC8

CYQR;2010-11-28 07:00;CYQR 280700Z 17005KT 12SM BKN003 OVC007 M07/M09 A2970 RMK SF5SC3 SLP094

CYQR;2010-11-28 07:46;CYQR 280746Z 00000KT 12SM OVC004 M08/ RMK SC8

CYQR;2010-11-28 08:00;CYQR 280800Z 00000KT 12SM OVC003 M08/M09 A2969 RMK SC8 SLP092

CYQR;2010-11-28 09:00;CYQR 280900Z 34006KT 15SM OVC003 M07/M08 A2970 RMK SF8 SLP093

CYQR;2010-11-28 09:32;CYQR 280932Z 34007KT 3SM BR OVC002 M07/ RMK ST8

CYQR;2010-11-28 09:40;CYQR 280940Z 34007KT 1SM R13/P6000FT/D BR OVC001 M07/ RMK ST8

CYQR;2010-11-28 09:51;CYQR 280951Z 34007KT 3/8SM R13/P6000FT/D FZFG VV001 M07/ RMK FG8

CYQR;2010-11-28 10:00;CYQR 281000Z 34006KT 3/8SM R13/5500FT/U FZFG VV001 M07/M08 A2971 RMK FG8 SLP097

CYQR;2010-11-28 11:00;CYQR 281100Z 34006KT 3/8SM R13/2200FT/N FZFG VV001 M06/M07 A2971 RMK FG8 SLP097

CYQR;2010-11-28 11:09;CYQR 281109Z 35007KT 3/4SM R13/2400FT/N BR BKN001 OVC006 M06/ RMK SF5SC3

CYQR;2010-11-28 11:17;CYQR 281117Z 35006KT 1SM R13/2800FT/N -SN BR BKN001 OVC006 M06/ RMK SF5SC3

CYQR;2010-11-28 11:28;CYQR 281128Z 36007KT 2SM R13/3000VP6000FT/U -SN BR BKN001 M06/ RMK SF7

CYQR;2010-11-28 11:41;CYQR 281141Z 01008KT 3SM -SN SCT001 OVC007 M06/ RMK SF3SC5

CYQR;2010-11-28 12:00;CYQR 281200Z 01009KT 3SM -SN BKN004 OVC008 M05/M06 A2971 RMK SF5SC3 SLP098

CYQR;2010-11-28 12:14;CYQR 281214Z 01010KT 8SM -SN OVC003 M05/ RMK SF8

CYQR;2010-11-28 12:50;CYQR 281250Z 03013KT 10SM OVC005 M05/ RMK SF8

CYQR;2010-11-28 13:00;CYQR 281300Z 03012KT 10SM OVC005 M05/M07 A2971 RMK SC8 SLP098

CYQR;2010-11-28 13:29;CYQR 281329Z 04007KT 15SM OVC006 M05/ RMK SF8

CYQR;2010-11-28 14:00;CYQR 281400Z 05008KT 15SM OVC007 M05/M07 A2972 RMK SF8 SLP102

CYQR;2010-11-28 15:00;CYQR 281500Z 04013KT 15SM OVC007 M05/M07 A2971 RMK SF8 SLP101

CYQR;2010-11-28 16:00;CYQR 281600Z 03005KT 15SM OVC008 M04/M06 A2975 RMK SF8 SLP111

CYQR;2010-11-28 17:00;CYQR 281700Z 01005KT 15SM OVC009 M04/M06 A2975 RMK SF8 SLP113

CYQR;2010-11-28 18:00;CYQR 281800Z 34008KT 15SM OVC008 M04/M06 A2975 RMK SF8 SLP110

CYQR;2010-11-28 19:00;CYQR 281900Z 36013KT 10SM OVC006 M03/M05 A2974 RMK SF8 SLP107

CYQR;2010-11-28 20:00;CYQR 282000Z 01013KT 10SM VCSH OVC007 M03/M06 A2974 RMK SF8 SLP107

CYQR;2010-11-28 21:00;CYQR 282100Z 02019G24KT 10SM VCSH OVC009 M05/M07 A2975 RMK SF8 SLP109

CYQR;2010-11-28 22:00;CYQR 282200Z 01016G24KT 10SM VCSH OVC006 M06/M08 A2976 RMK SF8 SLP114

CYQR;2010-11-28 22:03;CYQR 282203Z 02017G24KT 6SM -SN DRSN OVC006 M06/ RMK SF8

CYQR;2010-11-28 23:00;CYQR 282300Z 02018KT 6SM -SN DRSN OVC008 M06/M09 A2981 RMK SF8 PRESRR SLP130

CYQR;2010-11-29 00:00;CYQR 290000Z 01015G21KT 6SM -SN DRSN OVC007 M06/M08 A2984 RMK SF8 SLP140

CYQR;2010-11-29 01:00;CYQR 290100Z 36014KT 12SM OVC006 M06/M09 A2986 RMK SF8 SLP145

CYQR;2010-11-29 02:00;CYQR 290200Z 36016G21KT 12SM SCT007 OVC013 M06/M08 A2986 RMK SC4SC4 SLP147

CYQR;2010-11-29 03:00;CYQR 290300Z 01014KT 12SM OVC013 M05/M08 A2988 RMK SC8 SLP153

CYQR;2010-11-29 04:00;CYQR 290400Z 01015KT 15SM OVC015 M05/M08 A2991 RMK SC8 SLP162

CYQR;2010-11-29 05:00;CYQR 290500Z 36011KT 15SM BKN016 OVC021 M05/M08 A2993 RMK SC6SC2 SLP168

CYQR;2010-11-29 06:00;CYQR 290600Z 35012KT 15SM OVC019 M05/M07 A2995 RMK SC8 SLP175

CYQR;2010-11-29 06:34;CYQR 290634Z 36016G22KT 12SM -SN OVC013 M04/ RMK SC8

CYQR;2010-11-29 07:00;CYQR 290700Z 36021G26KT 10SM -SN DRSN OVC013 M04/M08 A2996 RMK SC8 SLP179

CYQR;2010-11-29 08:00;CYQR 290800Z 36014G21KT 12SM -SN DRSN OVC013 M04/M07 A2996 RMK SC8 SLP180

CYQR;2010-11-29 08:44;CYQR 290844Z 35014KT 15SM OVC018 M04/ RMK SC8

CYQR;2010-11-29 09:00;CYQR 290900Z 36016KT 15SM -SN OVC018 M04/M08 A2998 RMK SC8 SLP188

CYQR;2010-11-29 10:00;CYQR 291000Z 34018KT 15SM -SN OVC016 M04/M08 A3000 RMK SC8 SLP192

CYQR;2010-11-29 10:40;CYQR 291040Z 34020KT 15SM -SN OVC014 M05/ RMK SC8

CYQR;2010-11-29 11:00;CYQR 291100Z 34019G24KT 15SM -SN OVC014 M05/M08 A3000 RMK SC8 SLP195

CYQR;2010-11-29 12:00;CYQR 291200Z 34021KT 10SM -SN OVC010 M06/M08 A3003 RMK SC8 SLP205

CYQR;2010-11-29 12:22;CYQR 291222Z 34021G26KT 10SM -SN OVC009 M06/ RMK SC8

CYQR;2010-11-29 13:00;CYQR 291300Z 35023KT 10SM -SN DRSN OVC009 M06/M09 A3005 RMK SC8 SLP214

CYQR;2010-11-29 14:00;CYQR 291400Z 35019G24KT 10SM -SN DRSN OVC007 M07/M09 A3007 RMK SC8 SLP220

CYQR;2010-11-29 15:00;CYQR 291500Z 34021G27KT 10SM -SN DRSN OVC007 M07/M09 A3010 RMK SC8 SLP230

CYQR;2010-11-29 16:00;CYQR 291600Z 34020KT 8SM -SN DRSN OVC007 M08/M10 A3012 RMK SC8 SLP237

CYQR;2010-11-29 17:00;CYQR 291700Z 34019KT 6SM -SN DRSN OVC008 M08/M10 A3013 RMK SC8 SLP241

CYQR;2010-11-29 17:16;CYQR 291716Z 34022KT 6SM -SN DRSN OVC010 M08/ RMK SC8

CYQR;2010-11-29 18:00;CYQR 291800Z 33018KT 6SM -SN DRSN OVC012 M08/M10 A3015 RMK SC8 SLP247

CYQR;2010-11-29 19:00;CYQR 291900Z 32016KT 6SM -SN DRSN BKN010 OVC083 M08/M11 A3014 RMK SC6AC2 SLP246

CYQR;2010-11-29 20:00;CYQR 292000Z 33018KT 3SM -SN BLSN OVC012 M08/M11 A3015 RMK SC8 SLP249

CYQR;2010-11-29 21:00;CYQR 292100Z 32019KT 5SM -SN BLSN OVC017 M08/M12 A3015 RMK SC8 SLP250

CYQR;2010-11-29 22:00;CYQR 292200Z 31013KT 10SM -SN OVC025 M08/M12 A3017 RMK SC8 SLP255

CYQR;2010-11-29 23:00;CYQR 292300Z 30010KT 10SM -SN FEW017 OVC027 M08/M11 A3018 RMK SC2SC6 SLP259

CYQR;2010-11-30 00:00;CYQR 300000Z 30010KT 12SM -SN OVC021 M08/M11 A3019 RMK SC8 SLP263

CYQR;2010-11-30 01:00;CYQR 300100Z 32013KT 12SM -SN OVC019 M07/M10 A3019 RMK SC8 SLP262

CYQR;2010-11-30 02:00;CYQR 300200Z 32010KT 12SM -SN OVC020 M07/M10 A3019 RMK SC8 SLP262

CYQR;2010-11-30 02:46;CYQR 300246Z 33010KT 12SM -SN BKN014 OVC022 M07/ RMK SC5SC3

CYQR;2010-11-30 03:00;CYQR 300300Z 33009KT 12SM -SN BKN014 OVC022 M07/M10 A3019 RMK SC6SC2 SLP263

CYQR;2010-11-30 04:00;CYQR 300400Z 34009KT 12SM -SN SCT014 OVC023 M07/M10 A3019 RMK SC3SC5 SLP263

CYQR;2010-11-30 05:00;CYQR 300500Z 33007KT 12SM -SN OVC023 M07/M10 A3019 RMK SC8 SLP262

CYQR;2010-11-30 06:00;CYQR 300600Z 35009KT 12SM -SN OVC025 M07/M11 A3018 RMK SC8 SLP260

CYQR;2010-11-30 07:00;CYQR 300700Z 31008KT 12SM -SN OVC025 M08/M10 A3018 RMK SC8 SLP261

CYQR;2010-11-30 08:00;CYQR 300800Z 32009KT 8SM -SN OVC025 M08/M10 A3017 RMK SC8 SLP258

CYQR;2010-11-30 09:00;CYQR 300900Z 33010KT 8SM -SN OVC025 M08/M11 A3017 RMK SC8 SLP259

CYQR;2010-11-30 10:00;CYQR 301000Z 01011KT 10SM -SN BKN010 OVC032 M09/M11 A3018 RMK SC5SC3 SLP260

CYQR;2010-11-30 11:00;CYQR 301100Z 34011KT 10SM -SN OVC022 M09/M13 A3018 RMK SC8 SLP262

CYQR;2010-11-30 12:00;CYQR 301200Z 35018KT 10SM -SN OVC016 M10/M14 A3019 RMK SC8 SLP265

CYQR;2010-11-30 12:47;CYQR 301247Z 35012G17KT 12SM -SN OVC014 M11/ RMK SC8

CYQR;2010-11-30 13:00;CYQR 301300Z 36012KT 12SM -SN OVC014 M11/M14 A3018 RMK SC8 SLP264

CYQR;2010-11-30 14:00;CYQR 301400Z 36015KT 12SM -SN BKN012 M11/M15 A3018 RMK SC7 SLP264

CYQR;2010-11-30 15:00;CYQR 301500Z 01011G16KT 12SM -SN OVC009 M12/M15 A3019 RMK SC8 SLP266

CYQR;2010-11-30 15:46;CYQR 301546Z 35009KT 12SM -SN OVC010 M12/ RMK SC8

CYQR;2010-11-30 16:00;CYQR 301600Z 35008KT 10SM -SN OVC010 M12/M15 A3019 RMK SC8 SLP266

CYQR;2010-11-30 17:00;CYQR 301700Z 33009KT 3SM -SN OVC012 M12/M15 A3018 RMK SC8 /SO1/ SLP265

CYQR;2010-11-30 18:00;CYQR 301800Z 34012KT 8SM -SN OVC010 M12/M14 A3017 RMK SC8 SLP260

CYQR;2010-11-30 19:00;CYQR 301900Z 33010KT 8SM -SN OVC010 M11/M14 A3016 RMK SC8 SLP257

CYQR;2010-11-30 20:00;CYQR 302000Z 33007KT 10SM -SN BKN010 M12/M15 A3015 RMK SC7 SLP254

CYQR;2010-11-30 21:00;CYQR 302100Z 34005KT 15SM -SN OVC010 M11/M15 A3015 RMK SC8 SLP253

CYQR;2010-11-30 22:00;CYQR 302200Z 32004KT 15SM -SN BKN010 M12/M15 A3014 RMK SC7 SLP250

CYQR;2010-11-30 22:43;CYQR 302243Z 03002KT 15SM -SN FEW006 BKN010 BKN080 BKN250 M12/ RMK SF2SC3AC1CI1

CYQR;2010-11-30 23:00;CYQR 302300Z 04003KT 15SM -SN BKN010 BKN090 M12/M16 A3013 RMK SC5AC2 SLP246

CYQR;2010-11-30 23:21;CYQR 302321Z 00000KT 15SM FEW010 SCT030 BKN090 BKN250 M12/ RMK SC2SC2AC2CI1 INTMT -SN

CYQR;2010-11-30 23:35;CYQR 302335Z 05002KT 15SM FEW010 SCT030 BKN090 BKN250 M13/ RMK SC2SC2AC2CI0

CYQR;2010-12-01 06:00;CYQR 010600Z 14010KT 10SM -SN BKN004 M15/M17 A3003 RMK SC5 SLP217

CYQR;2010-12-01 06:43;CYQR 010643Z 14012KT 15SM SCT004 M15/ RMK SC4

CYQR;2010-12-01 07:00;CYQR 010700Z 14012KT 15SM SCT004 M15/M17 A3000 RMK SC4 SLP209

CYQR;2010-12-01 08:00;CYQR 010800Z 13013KT 15SM FEW004 BKN100 M15/M17 A2997 RMK SC2AC2 SLP199

CYQR;2010-12-01 09:00;CYQR 010900Z 13014KT 10SM FEW005 BKN100 M15/M17 A2996 RMK SC2AC2 SLP192

CYQR;2010-12-01 10:00;CYQR 011000Z 14014KT 10SM -SN SCT007 OVC095 M14/M17 A2994 RMK SC3AC5 SLP187

CYQR;2010-12-01 10:46;CYQR 011046Z 13014KT 6SM -SN BR BKN003 OVC088 M14/ RMK SF5AC3

CYQR;2010-12-01 11:00;CYQR 011100Z 14015KT 6SM -SN BKN003 OVC088 M14/M17 A2991 RMK SF6AC2 SLP176

CYQR;2010-12-01 12:00;CYQR 011200Z 13015KT 8SM -SN DRSN SCT003 OVC080 M13/M16 A2989 RMK SF3AC5 SLP168

CYQR;2010-12-01 13:00;CYQR 011300Z 14018KT 6SM -SN DRSN BKN017 OVC070 M12/M14 A2988 RMK SC6AC2 SLP165

CYQR;2010-12-01 13:49;CYQR 011349Z 13015KT 2 1/2SM -SN DRSN BKN019 OVC047 M12/ RMK SN2SC5SC2

CYQR;2010-12-01 14:00;CYQR 011400Z 12015KT 2SM -SN DRSN OVC019 M12/M14 A2988 RMK SN2SC6 SLP165

CYQR;2010-12-01 15:00;CYQR 011500Z 13016KT 4SM -SN DRSN OVC019 M11/M13 A2987 RMK SN1SC7 VIS E 2 SLP163

CYQR;2010-12-01 16:00;CYQR 011600Z 13018KT 5SM -SN DRSN BKN017 M11/M13 A2988 RMK SC7 SLP164

CYQR;2010-12-01 17:00;CYQR 011700Z 12019KT 8SM -SN DRSN BKN045 M11/M14 A2989 RMK SC7 SLP169

CYQR;2010-12-01 17:42;CYQR 011742Z 14020KT 10SM DRSN FEW027 BKN045 BKN090 M11/ RMK SC1SC5AC2

CYQR;2010-12-01 18:00;CYQR 011800Z 13018G24KT 15SM DRSN FEW027 BKN045 BKN090 M11/M13 A2989 RMK SC1SC5AC2 SLP168

CYQR;2010-12-01 19:00;CYQR 011900Z 13017KT 10SM DRSN BKN059 BKN090 M10/M13 A2989 RMK SC5AC2 SLP167

CYQR;2010-12-01 20:00;CYQR 012000Z 14014KT 12SM DRSN FEW060 BKN090 M10/M13 A2990 RMK SC2AC4 SLP170

CYQR;2010-12-01 21:00;CYQR 012100Z 13013KT 15SM FEW025 BKN086 M10/M12 A2991 RMK SC1AC6 SLP173

CYQR;2010-12-01 22:00;CYQR 012200Z 13011KT 15SM FEW025 SCT049 BKN086 M09/M12 A2993 RMK SC1SC2AC6 SLP181

CYQR;2010-12-01 23:00;CYQR 012300Z 12009KT 15SM FEW010 SCT049 BKN090 M09/M12 A2995 RMK SF1SC3AC3 SLP186

CYQR;2010-12-02 00:00;CYQR 020000Z 09007KT 15SM FEW010 SCT047 BKN085 M10/M13 A2997 RMK SF1SC3AC2 SLP194

CYQR;2010-12-02 01:00;CYQR 020100Z 11007KT 15SM BKN010 OVC047 M10/M13 A2998 RMK SC6SC2 SLP199

CYQR;2010-12-02 01:39;CYQR 020139Z 11005KT 15SM OVC012 M11/ RMK SC8

CYQR;2010-12-02 02:00;CYQR 020200Z 13003KT 15SM OVC012 M11/M15 A3002 RMK SC8 SLP210

CYQR;2010-12-02 03:00;CYQR 020300Z 11007KT 15SM BKN010 OVC030 M11/M15 A3003 RMK SC5SC3 SLP215

CYQR;2010-12-02 04:00;CYQR 020400Z 11005KT 15SM BKN011 OVC028 M12/M16 A3004 RMK SC6SC2 SLP219

CYQR;2010-12-02 04:47;CYQR 020447Z 11007KT 15SM OVC008 M13/ RMK SC8

CYQR;2010-12-02 05:00;CYQR 020500Z 13006KT 15SM OVC008 M13/M16 A3005 RMK SC8 SLP221

CYQR;2010-12-02 05:46;CYQR 020546Z 13007KT 15SM OVC005 M13/ RMK SC8

CYQR;2010-12-02 06:00;CYQR 020600Z 13008KT 15SM OVC005 M13/M16 A3006 RMK SC8 SLP225

CYQR;2010-12-02 07:00;CYQR 020700Z 13004KT 15SM OVC004 M13/M16 A3006 RMK SC8 SLP226

CYQR;2010-12-02 08:00;CYQR 020800Z 17005KT 15SM OVC004 M12/M15 A3008 RMK SC8 SLP233

CYQR;2010-12-02 09:00;CYQR 020900Z 14004KT 15SM OVC004 M12/M14 A3009 RMK SC8 SLP234

CYQR;2010-12-02 09:13;CYQR 020913Z 16003KT 10SM -SN OVC004 M12/ RMK SC8

CYQR;2010-12-02 10:00;CYQR 021000Z 12005KT 10SM -SN OVC004 M12/M14 A3009 RMK SC8 SLP234

CYQR;2010-12-02 11:00;CYQR 021100Z 14007KT 8SM -SN OVC004 M11/M13 A3009 RMK SC8 SLP233

CYQR;2010-12-02 12:00;CYQR 021200Z 13007KT 8SM -SN OVC004 M11/M13 A3009 RMK SC8 SLP233

CYQR;2010-12-02 13:00;CYQR 021300Z 18009KT 4SM -SN BR OVC003 M11/M13 A3010 RMK SC8 SLP238

CYQR;2010-12-02 13:35;CYQR 021335Z 15008KT 2SM -SN BR OVC002 RMK ST8 VIS S 21/2

CYQR;2010-12-02 14:00;CYQR 021400Z 15009KT 1 1/2SM -SN BR OVC002 M11/M12 A3008 RMK ST8 SLP231

CYQR;2010-12-02 14:07;CYQR 021407Z 16007KT 3/4SM R13/P6000FT/D BR OVC002 M11/ RMK FG3ST5 VIS SE 1

CYQR;2010-12-02 14:17;CYQR 021417Z 16009KT 5/8SM R13/5500FT/D BR OVC002 M11/ RMK FG5ST3 VIS VRB 1/2-3/4

CYQR;2010-12-02 15:00;CYQR 021500Z 16009KT 1/2SM R13/3000V4500FT/D FZFG VV002 M11/M12 A3008 RMK FG8 FROIN SLP230

CYQR;2010-12-02 15:24;CYQR 021524Z 17008KT 1/2SM R13/3000V4000FT/N FZFG VV001 M11/ RMK FG8 FROIN

CYQR;2010-12-02 16:00;CYQR 021600Z 17008KT 1SM R13/P6000FT/U BR OVC003 M10/M10 A3010 RMK FG6ST2 SLP236

CYQR;2010-12-02 16:15;CYQR 021615Z 21010KT 1 1/2SM -SN BR OVC003 M11/ RMK FG2SF6 VIS VRB 1-2

CYQR;2010-12-02 16:18;CYQR 021618Z CCA 21010KT 1 1/2SM -SN DRSN BR OVC003 M11/ RMK FG2SF6 VIS VRB 1-2

CYQR;2010-12-02 16:31;CYQR 021631Z 20010KT 2SM -SN DRSN BR OVC004 M11/ RMK FG2SF6

CYQR;2010-12-02 16:43;CYQR 021643Z 19010KT 3SM -SN DRSN BR OVC009 M11/ RMK FG1ST7

CYQR;2010-12-02 17:00;CYQR 021700Z 18009KT 12SM -SN OVC008 M11/M12 A3010 RMK ST8 SLP238

CYQR;2010-12-02 17:47;CYQR 021747Z 18007KT 12SM SCT008 OVC039 M11/ RMK ST3SC5

CYQR;2010-12-02 18:00;CYQR 021800Z CCA 18006KT 15SM SCT008 BKN039 OVC080 M11/M13 A3007 RMK ST2SC6AC1 SLP230

CYQR;2010-12-02 19:00;CYQR 021900Z 18007KT 12SM FEW008 OVC039 M11/M13 A3005 RMK SF1SC8 SLP225

CYQR;2010-12-02 20:00;CYQR 022000Z 16009KT 15SM SCT010 OVC039 M10/M13 A3004 RMK SF2SC6 SLP221

CYQR;2010-12-02 21:00;CYQR 022100Z 16008KT 15SM SCT011 OVC039 M10/M13 A3003 RMK SF2SC6 SLP215

CYQR;2010-12-02 22:00;CYQR 022200Z 17007KT 15SM SCT013 SCT039 BKN080 OVC240 M11/M13 A3003 RMK SC1SC2AC2CI1 SLP216

CYQR;2010-12-02 22:50;CYQR 022250Z 16007KT 15SM BKN013 OVC039 M11/ RMK SC4SC4

CYQR;2010-12-02 23:00;CYQR 022300Z 17008KT 15SM BKN013 OVC041 M11/M14 A3004 RMK SC4SC4 SLP218

CYQR;2010-12-03 00:00;CYQR 030000Z 14009KT 15SM SCT013 OVC046 M11/M14 A3003 RMK SC2SC5 SLP214

CYQR;2010-12-03 01:00;CYQR 030100Z 16008KT 15SM FEW015 BKN044 M12/M14 A3003 RMK SC2SC4 SLP214

CYQR;2010-12-03 02:00;CYQR 030200Z 14006KT 15SM FEW015 BKN040 M12/M15 A3001 RMK SF1SC4 SLP207

CYQR;2010-12-03 03:00;CYQR 030300Z 13007KT 15SM OVC040 M12/M15 A3000 RMK SC7 SLP206

CYQR;2010-12-03 04:00;CYQR 030400Z 13006KT 15SM BKN040 M12/M15 A3001 RMK SC7 SLP207

CYQR;2010-12-03 05:00;CYQR 030500Z 13007KT 15SM BKN040 M13/M15 A3000 RMK SC7 SLP204

CYQR;2010-12-03 05:08;CYQR 030508Z 14008KT 15SM FEW004 BKN040 M13/ RMK SF2SC6

CYQR;2010-12-03 05:37;CYQR 030537Z 14008KT 15SM BKN004 OVC040 M12/ RMK SC6SC2

CYQR;2010-12-03 06:00;CYQR 030600Z 12007KT 15SM BKN003 OVC040 M12/M14 A3000 RMK SC6SC2 SLP206

CYQR;2010-12-03 06:50;CYQR 030650Z 10005KT 15SM SCT004 OVC040 M12/ RMK SC3SC5

CYQR;2010-12-03 07:00;CYQR 030700Z 11006KT 15SM FEW004 BKN040 M12/M15 A3000 RMK SF2SC6 SLP207

CYQR;2010-12-03 08:00;CYQR 030800Z 12007KT 15SM SCT004 OVC040 M12/M14 A3000 RMK SC4SC4 SLP205

CYQR;2010-12-03 08:04;CYQR 030804Z 11006KT 15SM BKN004 OVC038 M11/ RMK SC5SC3

CYQR;2010-12-03 09:00;CYQR 030900Z 09006KT 15SM BKN004 OVC038 M11/M13 A3000 RMK SC5SC3 SLP203

CYQR;2010-12-03 10:00;CYQR 031000Z 09004KT 15SM SCT004 BKN038 OVC090 M11/M13 A3000 RMK SF3SC4AC1 SLP205

CYQR;2010-12-03 11:00;CYQR 031100Z 04002KT 15SM FEW004 BKN038 OVC090 M12/M14 A3000 RMK SC2SC6AC1 SLP204

CYQR;2010-12-03 13:00;CYQR 031300Z 01005KT 15SM SCT040 BKN094 M13/M16 A3003 RMK SC3AC3 SLP216

CYQR;2010-12-03 14:00;CYQR 031400Z 03005KT 15SM BKN039 BKN140 M12/M14 A3004 RMK SC6AC1 SLP219

CYQR;2010-12-03 15:00;CYQR 031500Z 36005KT 15SM FEW037 FEW140 BKN250 M16/M18 A3007 RMK SC2AC1CI0 SLP232

CYQR;2010-12-03 17:00;CYQR 031700Z 35005KT 10SM FEW250 M15/M18 A3011 RMK CI1 SLP245

CYQR;2010-12-03 18:00;CYQR 031800Z 32007KT 12SM FEW120 BKN250 M15/M17 A3012 RMK AC1CI1 SLP250

CYQR;2010-12-03 19:00;CYQR 031900Z 33005KT 12SM SCT009 BKN250 M14/M16 A3014 RMK SC3CI1 SLP254

CYQR;2010-12-03 19:20;CYQR 031920Z 32010KT 8SM -SN BKN004 BKN250 M13/ RMK SF6CI2

CYQR;2010-12-03 19:35;CYQR 031935Z 34007KT 8SM -SN SCT004 OVC011 M12/ RMK SF4SC4

CYQR;2010-12-03 20:00;CYQR 032000Z 35007KT 10SM -SN FEW004 BKN011 OVC033 M11/M13 A3014 RMK SF2SC4SC2 SLP255

CYQR;2010-12-03 21:00;CYQR 032100Z 33008KT 10SM -SN BKN010 OVC035 M10/M12 A3015 RMK SC6SC2 SLP257

CYQR;2010-12-03 22:00;CYQR 032200Z 33009KT 10SM -SN BKN009 OVC078 M09/M12 A3018 RMK SC6AC2 SLP266

CYQR;2010-12-03 23:00;CYQR 032300Z 31007KT 8SM -SN BKN008 OVC042 M09/M11 A3020 RMK SC7SC1 SLP273

CYQR;2010-12-04 00:00;CYQR 040000Z 30007KT 8SM -SN OVC006 M08/M10 A3023 RMK SC8 SLP283

CYQR;2010-12-04 01:00;CYQR 040100Z 34009KT 12SM -SN BKN006 OVC019 M08/M10 A3025 RMK SF6SC2 SLP290

CYQR;2010-12-04 02:00;CYQR 040200Z 33007KT 12SM -SN SCT006 OVC019 M08/M11 A3027 RMK SF4SC4 SLP295

CYQR;2010-12-04 03:00;CYQR 040300Z 32007KT 12SM -SN OVC017 M08/M11 A3029 RMK SC8 SLP305

CYQR;2010-12-04 03:43;CYQR 040343Z 32008KT 10SM -SN OVC013 M08/ RMK SC8

CYQR;2010-12-04 04:00;CYQR 040400Z 31007KT 4SM -SN OVC011 M08/M11 A3030 RMK SC8 SLP308

CYQR;2010-12-04 04:31;CYQR 040431Z 30007KT 8SM -SN OVC018 M09/ RMK SC8

CYQR;2010-12-04 05:00;CYQR 040500Z 30007KT 10SM -SN OVC018 M09/M12 A3032 RMK SC8 SLP314

CYQR;2010-12-04 06:00;CYQR 040600Z 30006KT 8SM -SN BKN010 OVC050 M09/M11 A3033 RMK SC6SC2 SLP319

CYQR;2010-12-04 06:35;CYQR 040635Z 30005KT 6SM -SN OVC009 M09/ RMK SC8

CYQR;2010-12-04 07:00;CYQR 040700Z 30006KT 5SM -SN OVC009 M09/M11 A3034 RMK SC8 SLP323

CYQR;2010-12-04 08:00;CYQR 040800Z 30008KT 8SM -SN BKN009 OVC048 M10/M12 A3035 RMK SC5SC3 SLP325

CYQR;2010-12-04 09:00;CYQR 040900Z 31009KT 10SM -SN SCT009 OVC053 M10/M12 A3035 RMK SC4SC4 SLP325

CYQR;2010-12-04 10:00;CYQR 041000Z 30006KT 10SM -SN BKN013 OVC050 M10/M12 A3036 RMK SC6SC2 SLP327

CYQR;2010-12-04 11:00;CYQR 041100Z 27005KT 10SM -SN SCT012 OVC047 M10/M12 A3037 RMK SC4SC4 SLP329

CYQR;2010-12-04 12:00;CYQR 041200Z 28006KT 10SM -SN SCT010 OVC047 M09/M11 A3037 RMK SC4SC4 SLP328

CYQR;2010-12-04 13:00;CYQR 041300Z 31004KT 10SM -SN FEW010 OVC049 M09/M11 A3037 RMK SC2SC6 SLP328

CYQR;2010-12-04 13:42;CYQR 041342Z 26004KT 6SM -SN BKN013 OVC047 M09/ RMK SC5SC3

CYQR;2010-12-04 14:00;CYQR 041400Z 25005KT 6SM -SN BKN013 OVC047 M09/M11 A3039 RMK SC5SC3 SLP333

CYQR;2010-12-04 15:00;CYQR 041500Z 27007KT 10SM -SN BKN010 OVC028 M09/M11 A3040 RMK SC5SC3 SLP337

CYQR;2010-12-04 15:45;CYQR 041545Z 28007KT 3SM -SN OVC009 M08/ RMK SC8

CYQR;2010-12-04 16:00;CYQR 041600Z 30008KT 6SM -SN OVC009 M08/M11 A3041 RMK SC8 SLP341

CYQR;2010-12-04 17:00;CYQR 041700Z 29007KT 10SM -SN OVC007 M08/M10 A3041 RMK SC8 SLP343

CYQR;2010-12-04 17:48;CYQR 041748Z 30007KT 15SM OVC008 M08/ RMK SC8

CYQR;2010-12-04 18:00;CYQR 041800Z 30008KT 15SM OVC008 M08/M11 A3042 RMK SC8 SLP344

CYQR;2010-12-04 18:43;CYQR 041843Z 31008KT 10SM -SN OVC008 M08/ RMK SC8

CYQR;2010-12-04 19:00;CYQR 041900Z 30007KT 15SM -SN OVC008 M08/M10 A3041 RMK SC8 SLP341

CYQR;2010-12-04 19:41;CYQR 041941Z 28006KT 15SM BKN009 OVC076 M08/ RMK SC6AC2

CYQR;2010-12-04 21:00;CYQR 042100Z CCA 27008KT 15SM BKN012 OVC080 M07/M10 A3039 RMK SC6AC2 SLP336

CYQR;2010-12-04 22:00;CYQR 042200Z 26013KT 15SM BKN012 OVC080 M08/M11 A3040 RMK SC7AC1 SLP338

CYQR;2010-12-04 23:00;CYQR 042300Z 27011G16KT 15SM BKN014 OVC080 M08/M11 A3040 RMK SC6AC2 SLP340

CYQR;2010-12-05 00:00;CYQR 050000Z 26010KT 15SM OVC014 M08/M11 A3040 RMK SC8 SLP338

CYQR;2010-12-05 01:00;CYQR 050100Z 26012KT 15SM OVC014 M08/M11 A3040 RMK SC8 SLP337

CYQR;2010-12-05 02:00;CYQR 050200Z 25007KT 15SM BKN014 M09/M12 A3040 RMK SC6 SLP336

CYQR;2010-12-05 02:41;CYQR 050241Z 22010KT 15SM FEW015 BKN080 M14/ RMK SC2AC2

CYQR;2010-12-05 03:00;CYQR 050300Z 23008KT 15SM FEW015 SCT080 M15/M18 A3040 RMK SC1AC2 SLP342

CYQR;2010-12-05 04:00;CYQR 050400Z 22007KT 15SM FEW080 M17/M20 A3039 RMK AC2 SLP341

CYQR;2010-12-05 05:00;CYQR 050500Z 20009KT 15SM FEW080 M17/M20 A3038 RMK AC2 SLP338

CYQR;2010-12-05 06:00;CYQR 050600Z 20008KT 15SM FEW100 M19/M22 A3039 RMK AC1 SLP342

CYQR;2010-12-05 07:00;CYQR 050700Z 20005KT 15SM SKC M19/M22 A3040 RMK SLP345

CYQR;2010-12-05 08:00;CYQR 050800Z 21006KT 15SM SKC M19/M21 A3038 RMK SLP340

CYQR;2010-12-05 09:00;CYQR 050900Z 23005KT 15SM SKC M20/M23 A3039 RMK SLP342

CYQR;2010-12-05 10:00;CYQR 051000Z 24003KT 15SM SKC M19/M21 A3038 RMK SLP340

CYQR;2010-12-05 11:00;CYQR 051100Z 29002KT 15SM SKC M18/M20 A3039 RMK SLP341

CYQR;2010-12-05 12:00;CYQR 051200Z 23007KT 15SM SKC M20/M22 A3038 RMK SLP338

CYQR;2010-12-05 13:00;CYQR 051300Z 00000KT 15SM SKC M19/M20 A3039 RMK SLP341

CYQR;2010-12-05 14:00;CYQR 051400Z 00000KT 15SM FEW090 M18/M20 A3039 RMK AC1 SLP341

CYQR;2010-12-05 15:00;CYQR 051500Z 19003KT 15SM FEW090 FEW250 M20/M22 A3039 RMK AC1CI1 SLP348

CYQR;2010-12-05 21:00;CYQR 052100Z 16004KT 15SM BKN280 M16/M20 A3039 RMK CI2 SLP348

CYQR;2010-12-05 23:00;CYQR 052300Z 16005KT 15SM BKN280 M17/M21 A3039 RMK CI5 SLP348

CYQR;2010-12-06 00:00;CYQR 060000Z 13006KT 15SM BKN280 M17/M21 A3039 RMK CI4 SLP349

CYQR;2010-12-06 01:00;CYQR 060100Z 13007KT 15SM BKN280 M19/M23 A3037 RMK CI2 SLP345

CYQR;2010-12-06 02:00;CYQR 060200Z 12006KT 15SM SCT280 M19/M23 A3037 RMK CI2 SLP344

CYQR;2010-12-06 03:00;CYQR 060300Z 13006KT 15SM SCT280 M19/M23 A3035 RMK CI1 SLP339

CYQR;2010-12-06 04:00;CYQR 060400Z 11005KT 15SM SKC M19/M23 A3036 RMK SLP340

CYQR;2010-12-06 05:00;CYQR 060500Z 11005KT 15SM SKC M19/M24 A3035 RMK SLP338

CYQR;2010-12-06 06:00;CYQR 060600Z 13007KT 15SM FEW015 M20/M25 A3034 RMK SC1 FROIN SLP333

CYQR;2010-12-06 06:40;CYQR 060640Z 11007KT 15SM FEW001 M20/ RMK ST1

CYQR;2010-12-06 07:00;CYQR 060700Z 11008KT 15SM SCT002 M19/M24 A3035 RMK ST2 SLP334

CYQR;2010-12-06 07:42;CYQR 060742Z 13008KT 8SM BKN001 M20/ RMK ST2

CYQR;2010-12-06 08:00;CYQR 060800Z 14007KT 10SM BKN001 M20/M24 A3032 RMK ST2 VIS E 3 FROIN SLP327

CYQR;2010-12-06 09:00;CYQR 060900Z 12006KT 10SM SCT002 M21/M26 A3031 RMK ST2 FROIN SLP324

CYQR;2010-12-06 10:00;CYQR 061000Z 12006KT 10SM SCT002 M21/M26 A3031 RMK ST1 FROIN SLP324

CYQR;2010-12-06 11:00;CYQR 061100Z 12007KT 10SM SCT002 M21/M25 A3031 RMK ST1 SLP322

CYQR;2010-12-06 12:00;CYQR 061200Z 13006KT 10SM SCT002 M21/M26 A3030 RMK ST2 FROIN SLP319

CYQR;2010-12-06 13:00;CYQR 061300Z 12007KT 10SM SCT002 M21/M26 A3029 RMK ST2 FROIN SLP316

CYQR;2010-12-06 14:00;CYQR 061400Z 12006KT 10SM SCT002 M20/M24 A3028 RMK ST2 SLP313

CYQR;2010-12-06 14:24;CYQR 061424Z 12007KT 8SM BKN002 M20/ RMK ST5

CYQR;2010-12-06 14:43;CYQR 061443Z 12006KT 10SM SCT002 M20/ RMK ST2

CYQR;2010-12-06 15:00;CYQR 061500Z 12006KT 10SM SCT002 M20/M24 A3027 RMK ST2 SLP312

CYQR;2010-12-06 16:00;CYQR 061600Z 12006KT 10SM SCT002 M19/M23 A3027 RMK ST2 SLP312

CYQR;2010-12-06 17:00;CYQR 061700Z 12006KT 10SM FEW002 M18/M22 A3026 RMK ST2 SLP309

CYQR;2010-12-06 18:00;CYQR 061800Z 12006KT 10SM SKC M17/M21 A3025 RMK SLP303

CYQR;2010-12-06 19:00;CYQR 061900Z 12007KT 15SM SKC M16/M20 A3023 RMK SLP297

CYQR;2010-12-06 20:00;CYQR 062000Z 13007KT 15SM FEW250 M15/M19 A3021 RMK CI1 SLP290

CYQR;2010-12-06 21:00;CYQR 062100Z 13006KT 15SM FEW250 M15/M19 A3021 RMK CI0 SLP288

CYQR;2010-12-06 22:00;CYQR 062200Z 13007KT 15SM FEW093 M16/M19 A3021 RMK AC2 SLP288

CYQR;2010-12-06 23:00;CYQR 062300Z 13008KT 15SM SCT081 BKN250 M16/M19 A3021 RMK AC4CI2 SLP288

CYQR;2010-12-07 00:00;CYQR 070000Z 13007KT 15SM SCT080 BKN250 M15/M18 A3020 RMK AC4CI2 SLP285

CYQR;2010-12-07 01:00;CYQR 070100Z 14006KT 15SM FEW080 SCT250 M16/M20 A3019 RMK AC1CI1 FROIN SLP281

CYQR;2010-12-07 01:23;CYQR 070123Z 15008KT 15SM FEW002 BKN028 M15/ RMK ST1SC5

CYQR;2010-12-07 02:00;CYQR 070200Z 15007KT 15SM FEW002 BKN030 M15/M19 A3019 RMK ST1SC4 SLP281

CYQR;2010-12-07 03:00;CYQR 070300Z 13009KT 15SM FEW002 BKN028 M16/M20 A3017 RMK ST1SC2 SLP275

CYQR;2010-12-07 04:00;CYQR 070400Z 34003KT 15SM SCT004 BKN028 M16/M20 A3023 RMK ST2SC4 SLP292

CYQR;2010-12-07 04:16;CYQR 070416Z 00000KT 15SM OVC004 M17/ RMK ST6 FROIN

CYQR;2010-12-07 04:46;CYQR 070446Z 11002KT 15SM -SN SCT004 OVC028 M16/ RMK ST2SC4

CYQR;2010-12-07 05:00;CYQR 070500Z 11005KT 15SM SCT004 OVC028 M16/M20 A3020 RMK ST2SC5 SLP285

CYQR;2010-12-07 06:00;CYQR 070600Z 14005KT 15SM SCT003 BKN028 M16/M19 A3020 RMK ST2SC3 SLP279

CYQR;2010-12-07 07:00;CYQR 070700Z 12003KT 15SM SCT003 OVC030 M15/M18 A3021 RMK ST2SC5 SLP284

CYQR;2010-12-07 08:00;CYQR 070800Z 07003KT 15SM FEW003 BKN030 BKN082 M15/M18 A3022 RMK ST2SC4AC1 SLP287

CYQR;2010-12-07 09:00;CYQR 070900Z 11004KT 15SM SCT001 M17/M21 A3021 RMK ST1 FROIN SLP285

CYQR;2010-12-07 10:00;CYQR 071000Z 07003KT 15SM FEW001 M18/M22 A3022 RMK ST1 SLP286

CYQR;2010-12-07 11:00;CYQR 071100Z 00000KT 15SM FEW002 M18/M22 A3022 RMK ST1 FROIN SLP288

CYQR;2010-12-07 12:00;CYQR 071200Z 00000KT 8SM FEW002 M21/M26 A3023 RMK ST1 SLP295

CYQR;2010-12-07 12:45;CYQR 071245Z 00000KT 2SM BR BKN001 M21/ RMK SF2

CYQR;2010-12-07 12:53;CYQR 071253Z 26005KT 3/4SM R13/2800VP6000FT/D BR BKN001 M23/ RMK FG2SF3

CYQR;2010-12-07 13:00;CYQR 071300Z 26005KT 1/2SM R13/2800VP6000FT/N FZFG SKC M23/M28 A3025 RMK FG6 SLP299

CYQR;2010-12-07 13:37;CYQR 071337Z 00000KT 1/4SM R13/2200FT/N FZFG VV006 M22/ RMK FG8

CYQR;2010-12-07 13:50;CYQR 071350Z 00000KT 1/8SM R13/1600FT/N FZFG VV004 M21/ RMK FG8

CYQR;2010-12-07 13:57;CYQR 071357Z 34002KT 1/4SM R13/2800V6000FT/N FZFG VV006 M21/ RMK FG8

CYQR;2010-12-07 14:00;CYQR 071400Z 35002KT 1/8SM R13/1600FT/N FZFG VV004 M21/M25 A3025 RMK FG8 SLP300

CYQR;2010-12-07 15:00;CYQR 071500Z 32003KT 1/8SM R13/1600FT/N FZFG VV003 M20/M24 A3027 RMK FG8 SLP309

CYQR;2010-12-07 15:23;CYQR 071523Z 00000KT 1/8SM R13/1400V1800FT/N FZFG SKC M19/ RMK FG7

CYQR;2010-12-07 15:40;CYQR 071540Z 00000KT 1/2SM R13/2800VP6000FT/N FZFG SKC M19/ RMK FG7

CYQR;2010-12-07 15:56;CYQR 071556Z 34002KT 1 1/2SM BR BKN090 BKN260 M19/ RMK FG2AC2CI0

CYQR;2010-12-07 16:00;CYQR 071600Z 35002KT 2SM BR BKN090 BKN260 M19/M23 A3027 RMK FG2AC3CI0 SLP307

CYQR;2010-12-07 16:09;CYQR 071609Z 34002KT 6SM BR FEW020 SCT090 BKN250 M19/ RMK SC2AC2CI2

CYQR;2010-12-07 16:20;CYQR 071620Z 29002KT 6SM IC FEW020 SCT090 BKN250 M19/ RMK SC2AC2CI2

CYQR;2010-12-07 17:00;CYQR 071700Z 31002KT 6SM IC FEW020 FEW090 BKN250 M19/M23 A3028 RMK SC1AC1CI2 SLP310

CYQR;2010-12-07 18:00;CYQR 071800Z 30002KT 10SM FEW020 FEW090 BKN250 M18/M22 A3028 RMK SC1AC1CI3 IC SLP309

CYQR;2010-12-07 19:00;CYQR 071900Z 34003KT 15SM FEW100 BKN250 M18/M21 A3028 RMK AC1CI2 SLP309

CYQR;2010-12-07 20:00;CYQR 072000Z 31004KT 15SM SCT250 M17/M21 A3027 RMK CI1 SLP307

CYQR;2010-12-07 21:00;CYQR 072100Z 34004KT 15SM BKN250 M17/M21 A3027 RMK CI1 SLP307

CYQR;2010-12-07 22:00;CYQR 072200Z 00000KT 15SM FEW015 FEW210 SCT240 BKN280 M17/M20 A3026 RMK SC1CC1CI1CI0 SLP303

CYQR;2010-12-07 23:00;CYQR 072300Z 27007KT 15SM FEW210 SCT240 BKN280 M20/M24 A3027 RMK CC1CI1CI0 SLP307

CYQR;2010-12-08 00:00;CYQR 080000Z 30006KT 15SM SCT260 M21/M26 A3028 RMK CI1 SLP315

CYQR;2010-12-08 01:00;CYQR 080100Z 34005KT 15SM SCT260 M21/M25 A3029 RMK CI1 SLP320

CYQR;2010-12-08 02:00;CYQR 080200Z 01002KT 15SM FEW002 FEW260 M19/M24 A3027 RMK ST1CI0 FROIN SLP312

CYQR;2010-12-08 03:00;CYQR 080300Z 00000KT 12SM FEW002 M21/M25 A3027 RMK ST1 FROIN SLP312

CYQR;2010-12-08 03:39;CYQR 080339Z 23003KT 10SM BKN003 M23/ RMK ST2

CYQR;2010-12-08 03:51;CYQR 080351Z 23002KT 10SM OVC004 M23/ RMK ST6

CYQR;2010-12-08 04:00;CYQR 080400Z 00000KT 8SM BKN003 M23/M27 A3027 RMK ST6 SLP313

CYQR;2010-12-08 04:18;CYQR 080418Z 21003KT 8SM OVC002 M22/ RMK ST7

CYQR;2010-12-08 04:33;CYQR 080433Z CCA 19003KT 4SM IC OVC001 M22/ RMK ST7 VIS N-E 2 FROIN

CYQR;2010-12-08 04:47;CYQR 080447Z 16004KT 2SM BR OVC003 M21/ RMK FG2ST6 CIG VRB 2-4 VIS N-E 1

CYQR;2010-12-08 04:54;CYQR 080454Z 15005KT 1SM R13/2400FT/N BR OVC002 M21/ RMK FG4ST4

CYQR;2010-12-08 05:00;CYQR 080500Z 14005KT 2SM R13/2800FT/N BR OVC002 M20/M24 A3024 RMK FG4ST2 CIG VRB 1-4 VIS VRB 1-3 SLP302

CYQR;2010-12-08 05:12;CYQR 080512Z 12007KT 2SM BR SCT002 M21/ RMK FG2ST2

CYQR;2010-12-08 05:22;CYQR 080522Z 15006KT 4SM BR BKN002 M19/ RMK ST2 FROIN

CYQR;2010-12-08 05:44;CYQR 080544Z 15008KT 2SM BR OVC002 M18/ RMK FG3ST4 VIS VRB 1-3

CYQR;2010-12-08 05:51;CYQR 080551Z 15008KT 1/2SM R13/P6000FT/D FZFG OVC001 M18/ RMK FG6ST2 VIS E 1

CYQR;2010-12-08 05:56;CYQR 080556Z 14008KT 1/4SM R13/2400FT/N FZFG VV001 M18/ RMK FG8

CYQR;2010-12-08 06:00;CYQR 080600Z 14009KT 1/2SM R13/2400FT/N FZFG VV001 M18/M22 A3025 RMK FG8 VIS VRB 1/4-3/4 SLP299

CYQR;2010-12-08 06:39;CYQR 080639Z 15009KT 1SM R13/2600VP6000FT/N BR OVC001 M17/ RMK FG6ST2 VIS SE 2

CYQR;2010-12-08 06:50;CYQR 080650Z 15008KT 1 1/2SM IC BR OVC002 M17/ RMK FG6ST2 VIS VRB 1-2 FROIN

CYQR;2010-12-08 07:00;CYQR 080700Z 15007KT 2SM IC BR OVC003 M17/M21 A3024 RMK FG6ST2 VIS VRB 1-3 SLP296

CYQR;2010-12-08 07:19;CYQR 080719Z 16005KT 3SM IC BR OVC004 M18/ RMK ST8

CYQR;2010-12-08 07:52;CYQR 080752Z 14006KT 4SM IC BR BKN006 M18/ RMK ST5

CYQR;2010-12-08 08:00;CYQR 080800Z 14006KT 4SM IC BR BKN006 M19/M23 A3022 RMK ST5 SLP291

CYQR;2010-12-08 08:37;CYQR 080837Z 14008KT 6SM BR SCT006 M19/ RMK ST3

CYQR;2010-12-08 09:00;CYQR 080900Z 14007KT 5SM BR SCT004 M20/M25 A3021 RMK ST3 FROIN SLP289

CYQR;2010-12-08 09:23;CYQR 080923Z 13009KT 5SM BR OVC003 M20/ RMK ST8

CYQR;2010-12-08 09:42;CYQR 080942Z 14009KT 4SM BR OVC002 M20/ RMK ST8

CYQR;2010-12-08 10:00;CYQR 081000Z 14009KT 3SM BR OVC002 M20/M24 A3019 RMK ST8 VIS VRB 2-4 CIG VRB 1-3 SLP282

CYQR;2010-12-08 10:30;CYQR 081030Z 14011KT 1SM R13/P6000FT/D BR VV001 M19/ RMK FG8 VIS VRB 1/2-11/2

CYQR;2010-12-08 10:46;CYQR 081046Z 14012KT 2SM BR OVC002 M18/ RMK FG4ST4 VIS VRB 1-3 CIG VRB 1-3

CYQR;2010-12-08 11:00;CYQR 081100Z 15010KT 2SM BR OVC003 M18/M23 A3015 RMK FG4ST4 VIS VRB 1-3 CIG VRB 1-5 SLP270

CYQR;2010-12-08 12:00;CYQR 081200Z 14015KT 2SM BR OVC003 M18/M23 A3011 RMK FG4ST4 VIS VRB 1-3 CIG VRB 1-5 FROIN SLP256

CYQR;2010-12-08 12:15;CYQR 081215Z 14016G21KT 1SM R13/P6000FT/U IC BR OVC004 M18/ RMK FG4ST4 VIS VRB 1/2-11/2 CIG VRB 2-5

CYQR;2010-12-08 13:00;CYQR 081300Z 15018KT 1SM R13/P6000FT/D IC BR OVC005 M17/M21 A3007 RMK FG4ST4 VIS VRB 1/2-11/2 CIG VRB 3-7 SLP242

CYQR;2010-12-08 13:33;CYQR 081333Z 15016KT 1SM R13/P6000FT/N IC BR OVC006 M17/ RMK FG4ST4 VIS VRB 1/2-11/2 CIG VRB 3-8

CYQR;2010-12-08 14:00;CYQR 081400Z 14019KT 1 1/2SM -SN DRSN BKN005 OVC009 M17/M21 A3002 RMK ST5SC3 CIG VRB 3-7 SLP227

CYQR;2010-12-08 14:18;CYQR 081418Z 14017KT 2SM -SN DRSN OVC005 M17/ RMK ST8 CIG VRB 3-7

CYQR;2010-12-08 14:33;CYQR 081433Z 16015KT 2SM -SN DRSN SCT005 BKN100 BKN200 M16/ RMK ST3AC2CI0

CYQR;2010-12-08 15:00;CYQR 081500Z 16013KT 2 1/2SM -SN DRSN BKN006 OVC011 M16/M20 A3005 RMK ST5SC3 SLP231

CYQR;2010-12-08 15:27;CYQR 081527Z 14017KT 3SM -SN SCT006 SCT011 OVC100 M15/ RMK ST3SC1AC4

CYQR;2010-12-08 16:00;CYQR 081600Z 15017KT 3SM -SN DRSN SCT005 OVC100 M15/M18 A3000 RMK ST4AC4 SLP216

CYQR;2010-12-08 16:08;CYQR 081608Z 15017G24KT 2 1/2SM -SN BLSN SCT005 OVC100 M15/ RMK ST4AC4

CYQR;2010-12-08 16:32;CYQR 081632Z 15019G25KT 1 3/4SM -SN BLSN SCT005 OVC100 M15/ RMK ST2AC6

CYQR;2010-12-08 17:00;CYQR 081700Z 14019G26KT 1SM R13/5500FT/D -SN BLSN BKN006 OVC100 M14/M18 A2995 RMK ST5AC3 SLP201

CYQR;2010-12-08 17:05;CYQR 081705Z 14021G27KT 3/4SM R13/5000FT/U -SN BLSN BKN006 OVC096 M14/ RMK SN2ST3AC3

CYQR;2010-12-08 17:29;CYQR 081729Z 15021G26KT 5/8SM R13/4000FT/U -SN BLSN BKN006 OVC096 M14/ RMK SN2ST3AC3

CYQR;2010-12-08 18:00;CYQR 081800Z 15020G27KT 5/8SM R13/4500FT/N -SN BLSN BKN007 OVC096 M13/M16 A2991 RMK SN2ST4AC2 SLP181

CYQR;2010-12-08 19:00;CYQR 081900Z 14024G30KT 5/8SM R13/3500FT/N -SN BLSN BKN005 OVC042 M13/M16 A2983 RMK SN2ST4SC2 SLP155

CYQR;2010-12-08 20:00;CYQR 082000Z 15023G29KT 5/8SM R13/3500FT/N -SN BLSN BKN006 OVC077 M13/M16 A2978 RMK SN2ST4AC2 SLP139

CYQR;2010-12-08 21:00;CYQR 082100Z 15023G30KT 3/4SM R13/3500V5000FT/U -SN BLSN BKN006 OVC060 M12/M14 A2973 RMK SN2ST3SC3 SLP119

CYQR;2010-12-08 21:34;CYQR 082134Z 15022G27KT 1SM R13/5500FT/N -SN BLSN SCT005 OVC088 M12/ RMK ST4AC4

CYQR;2010-12-08 22:00;CYQR 082200Z 15020G27KT 1 1/2SM -SN BLSN SCT006 OVC086 M11/M13 A2969 RMK ST4AC4 SLP106

CYQR;2010-12-08 22:33;CYQR 082233Z 15022KT 1 1/2SM -SN BLSN BKN004 OVC086 M11/ RMK ST5AC3

CYQR;2010-12-08 22:54;CYQR 082254Z 15021G27KT 1 1/2SM -SN BLSN SCT007 OVC084 M10/ RMK SN1SF3AC4

CYQR;2010-12-09 00:00;CYQR 090000Z 16020G27KT 2 1/2SM -SN BLSN SCT006 OVC080 M10/M12 A2962 RMK SN1SF3AC3 SLP077

CYQR;2010-12-09 01:00;CYQR 090100Z 16016G21KT 3SM -SN BLSN FEW004 OVC070 M09/M12 A2958 RMK SF2AC6 SLP066

CYQR;2010-12-09 01:32;CYQR 090132Z 15014G19KT 2SM -SN DRSN BKN020 OVC070 M09/ RMK SC6AC2

CYQR;2010-12-09 01:40;CYQR 090140Z 15014KT 2SM -SNPL OVC020 M09/ RMK SC8

CYQR;2010-12-09 02:00;CYQR 090200Z 15016KT 3SM -SN DRSN -FZRA OVC020 M09/M11 A2954 RMK SC8 SLP052

CYQR;2010-12-09 02:20;CYQR 090220Z 15015KT 10SM -FZRA BKN024 OVC066 M08/ RMK SC5AC3

CYQR;2010-12-09 02:43;CYQR 090243Z 15014KT 15SM OVC031 M08/ REFZRA RMK SC8

CYQR;2010-12-09 03:00;CYQR 090300Z 15014KT 15SM -SN BKN036 OVC070 M08/M10 A2950 REFZRA RMK SC6AC2 SLP034

CYQR;2010-12-09 03:31;CYQR 090331Z 14011KT 15SM -FZRA BKN029 OVC070 M08/ RMK SC5AC3

CYQR;2010-12-09 04:00;CYQR 090400Z 14013KT 15SM BKN041 OVC070 M08/M10 A2947 REFZRA RMK SC6AC2 SLP023

CYQR;2010-12-09 05:00;CYQR 090500Z 14009KT 15SM BKN055 OVC070 M08/M10 A2946 RMK SC6AC2 OBS TAKEN -06 SLP021

CYQR;2010-12-09 06:00;CYQR 090600Z 14006KT 15SM SCT055 BKN120 M08/M10 A2946 RMK SC4AC3 SLP017

CYQR;2010-12-09 07:00;CYQR 090700Z 16003KT 15SM BKN087 M08/M10 A2947 RMK AC7 SLP020

CYQR;2010-12-09 08:00;CYQR 090800Z 30006KT 15SM FEW025 BKN080 M07/M09 A2948 RMK SC1AC5 SLP022

CYQR;2010-12-09 09:00;CYQR 090900Z 31015KT 15SM BKN056 M04/M05 A2951 RMK SC3 SLP031

CYQR;2010-12-09 10:00;CYQR 091000Z 33014G21KT 15SM FEW011 BKN058 M06/M08 A2952 RMK SC2SC4 SLP035

CYQR;2010-12-09 10:16;CYQR 091016Z 33011KT 15SM OVC010 M06/ RMK SC8

CYQR;2010-12-09 10:45;CYQR 091045Z 33014KT 15SM -SN OVC009 M06/ RMK SC8

CYQR;2010-12-09 11:00;CYQR 091100Z 33014KT 15SM -SN OVC008 M06/M08 A2954 RMK ST8 SLP040

CYQR;2010-12-09 12:00;CYQR 091200Z 31019G25KT 15SM OVC009 M07/M09 A2957 RMK SC8 SLP052

CYQR;2010-12-09 12:15;CYQR 091215Z 32022KT 15SM BKN010 M07/ RMK SC3

CYQR;2010-12-09 12:38;CYQR 091238Z 32017G25KT 15SM OVC010 M08/ RMK ST8

CYQR;2010-12-09 13:00;CYQR 091300Z 32024KT 15SM OVC010 M08/M11 A2961 RMK SC8 SLP063

CYQR;2010-12-09 13:37;CYQR 091337Z 32020G27KT 15SM SCT012 BKN024 M10/ RMK SC3SC2

CYQR;2010-12-09 14:00;CYQR 091400Z 32024KT 15SM FEW012 SCT030 M10/M13 A2963 RMK SF2SC2 SLP070

CYQR;2010-12-09 15:00;CYQR 091500Z 31021KT 15SM BKN027 OVC076 M10/M13 A2966 RMK SC6AC2 SLP085

CYQR;2010-12-09 16:00;CYQR 091600Z 31022G30KT 15SM DRSN BKN027 BKN076 M10/M14 A2969 RMK SC6AC2 SLP093

CYQR;2010-12-09 16:27;CYQR 091627Z 31020G25KT 15SM DRSN BKN013 BKN027 BKN076 M10/ RMK SC5SC1AC1

CYQR;2010-12-09 17:00;CYQR 091700Z 31017G22KT 15SM -SN DRSN BKN016 M10/M14 A2973 RMK SC7 SLP106

CYQR;2010-12-09 17:35;CYQR 091735Z 36026KT 15SM DRSN BKN016 M10/ RMK SC6

CYQR;2010-12-09 18:00;CYQR 091800Z 32019KT 15SM -SN DRSN BKN016 M10/M14 A2974 RMK SC7 SLP111

CYQR;2010-12-09 19:00;CYQR 091900Z 31022KT 15SM DRSN FEW016 FEW084 SCT250 M11/M14 A2975 RMK SC1AC1CI2 SLP115

CYQR;2010-12-09 20:00;CYQR 092000Z 32022KT 15SM DRSN FEW016 BKN031 BKN084 BKN250 M10/M14 A2975 RMK SC1SC4AC1CI1 SLP114

CYQR;2010-12-09 21:00;CYQR 092100Z 31020KT 15SM DRSN SCT016 OVC029 M10/M13 A2976 RMK SC4SC3 SLP116

CYQR;2010-12-09 22:00;CYQR 092200Z 32022KT 15SM DRSN FEW016 BKN024 OVC074 M10/M14 A2978 RMK SF2SC3AC3 SLP121

CYQR;2010-12-09 23:00;CYQR 092300Z 33016KT 15SM DRSN OVC022 M10/M13 A2978 RMK SC8 SLP122

CYQR;2010-12-10 00:00;CYQR 100000Z 33012KT 15SM DRSN BKN022 BKN080 M10/M13 A2979 RMK SC6AC1 SLP128

CYQR;2010-12-10 01:00;CYQR 100100Z 34012KT 15SM DRSN BKN026 BKN080 M11/M14 A2980 RMK SC5AC2 SLP130

CYQR;2010-12-10 02:00;CYQR 100200Z 32010KT 15SM BKN028 BKN080 M12/M16 A2982 RMK SC3AC3 SLP139

CYQR;2010-12-10 03:00;CYQR 100300Z 36009KT 15SM -SN BKN017 OVC095 M13/M16 A2982 RMK SC5AC2 SLP143

CYQR;2010-12-10 03:28;CYQR 100328Z 36005KT 15SM SCT017 BKN091 M13/ RMK SC3AC4

CYQR;2010-12-10 04:00;CYQR 100400Z 01005KT 15SM FEW013 SCT028 OVC091 M13/M16 A2981 RMK SC1SC3AC5 SLP139

CYQR;2010-12-10 05:00;CYQR 100500Z 36003KT 15SM SCT030 OVC075 M13/M16 A2981 RMK SC2AC6 OBS TAKEN -08 SLP141

CYQR;2010-12-10 06:00;CYQR 100600Z 03004KT 15SM BKN065 M13/M17 A2983 RMK SC4 SLP146

CYQR;2010-12-10 07:00;CYQR 100700Z 04003KT 15SM BKN066 BKN140 M14/M18 A2982 RMK AC2AC4 SLP142

CYQR;2010-12-10 08:00;CYQR 100800Z 36002KT 15SM SCT071 OVC140 M15/M18 A2981 RMK AC3AC5 SLP139

CYQR;2010-12-10 09:00;CYQR 100900Z 32003KT 15SM BKN016 OVC066 M14/M17 A2985 RMK SC6AC2 SLP153

CYQR;2010-12-10 09:42;CYQR 100942Z 36004KT 15SM -SN BKN018 OVC070 M14/ RMK SC6AC2

CYQR;2010-12-10 10:00;CYQR 101000Z 02004KT 15SM -SN BKN018 OVC070 M13/M17 A2984 RMK SC6AC2 SLP149

CYQR;2010-12-10 11:00;CYQR 101100Z 09007KT 6SM -SN BKN020 OVC064 M13/M17 A2983 RMK SC6SC2 SLP146

CYQR;2010-12-10 12:00;CYQR 101200Z 06010KT 12SM -SN FEW015 BKN035 OVC064 M13/M17 A2982 RMK SC1SC5SC2 SLP142

CYQR;2010-12-10 13:00;CYQR 101300Z 08010KT 15SM -SN FEW010 BKN030 BKN065 M15/M19 A2984 RMK SF2SC3SC1 SLP148

CYQR;2010-12-10 14:00;CYQR 101400Z 09007KT 15SM -SN BKN022 OVC077 M16/M20 A2987 RMK SC6AC2 SLP158

CYQR;2010-12-10 14:17;CYQR 101417Z 09007KT 15SM BKN036 OVC071 M15/ RMK SC6AC2

CYQR;2010-12-10 15:00;CYQR 101500Z 07007KT 15SM BKN038 OVC080 M15/M20 A2988 RMK SC7AC1 SLP167

CYQR;2010-12-10 16:00;CYQR 101600Z 04007KT 15SM FEW017 OVC036 M15/M20 A2990 RMK SF2SC6 SLP173

CYQR;2010-12-10 16:47;CYQR 101647Z 06006KT 15SM -SN OVC034 M15/ RMK SC8

CYQR;2010-12-10 17:00;CYQR 101700Z 05006KT 15SM -SN OVC034 M15/M20 A2990 RMK SC8 SLP174

CYQR;2010-12-10 17:25;CYQR 101725Z 03008KT 2 1/2SM -SN BKN011 OVC070 M16/ RMK SC7AC1

CYQR;2010-12-10 17:32;CYQR 101732Z 05008KT 1SM R13/P6000FT/D -SN OVC010 M16/ RMK SN3SC5 VIS VRB 3/4-11/4

CYQR;2010-12-10 18:00;CYQR 101800Z 03012KT 3SM -SN OVC035 M16/M20 A2992 RMK SC8 SLP183

CYQR;2010-12-10 19:00;CYQR 101900Z 03013KT 12SM -SN DRSN BKN035 M17/M22 A2993 RMK SC7 SLP185

CYQR;2010-12-10 20:00;CYQR 102000Z 02011KT 10SM -SN DRSN SCT014 OVC035 M17/M22 A2995 RMK SF3SC5 SLP190

CYQR;2010-12-10 20:22;CYQR 102022Z 03014KT 10SM -SN DRSN BKN011 OVC035 M17/ RMK SF5SC3

CYQR;2010-12-10 21:00;CYQR 102100Z 04012KT 10SM -SN DRSN BKN010 OVC035 M17/M22 A2997 RMK SF5SC3 SLP202

CYQR;2010-12-10 22:00;CYQR 102200Z 04011KT 5SM -SN DRSN BKN009 OVC069 M18/M22 A3002 RMK SF6AC2 SLP216

CYQR;2010-12-10 23:00;CYQR 102300Z 03009KT 3SM -SN DRSN BKN009 OVC045 M18/M23 A3006 RMK SF6SC2 SLP230

CYQR;2010-12-11 00:00;CYQR 110000Z 36010G15KT 3SM -SN DRSN BKN009 OVC040 M19/M24 A3010 RMK SF7SC1 SLP248

CYQR;2010-12-11 00:46;CYQR 110046Z 36010KT 4SM -SN DRSN OVC018 M19/ RMK SC8

CYQR;2010-12-11 01:29;CYQR 110129Z 35011KT 1 1/2SM -SN DRSN BKN016 OVC070 M19/ RMK SC7AC1

CYQR;2010-12-11 01:50;CYQR 110150Z 35012KT 3SM -SN DRSN OVC013 M19/ RMK SC8

CYQR;2010-12-11 02:00;CYQR 110200Z 35012KT 3SM -SN DRSN BKN012 OVC070 M19/M24 A3016 RMK SC6AC2 SLP267

CYQR;2010-12-11 02:27;CYQR 110227Z 35012KT 2SM -SN DRSN OVC013 M19/ RMK SC8

CYQR;2010-12-11 03:00;CYQR 110300Z 35013KT 1 1/2SM -SHSN DRSN OVC012 M20/M24 A3019 RMK SC8 CVCTV CLD EMBD SLP279

CYQR;2010-12-11 03:04;CYQR 110304Z 35013KT 2SM -SHSN DRSN OVC012 M20/ RMK SC8 VIS VRB 1-3 CVCTV CLD EMBD

CYQR;2010-12-11 03:46;CYQR 110346Z 34013KT 2SM -SHSN DRSN OVC017 M20/ RMK SC8 VIS VRB 1-3 CVCTV CLD EMBD

CYQR;2010-12-11 04:00;CYQR 110400Z 35011KT 2SM -SHSN DRSN OVC014 M20/M25 A3021 RMK SC8 VIS VRB 1-3 CVCTV CLD EMBD SLP286

CYQR;2010-12-11 05:00;CYQR 110500Z 35011KT 3SM -SHSN DRSN OVC012 M20/M25 A3024 RMK SC8 CVCTV CLD EMBD /S02/ OBS TAKEN -07 SLP294

CYQR;2010-12-11 07:00;CYQR 110700Z 34010KT 8SM -SN DRSN BKN016 OVC078 M21/M26 A3028 RMK SC7AC1 SLP312

CYQR;2010-12-11 07:41;CYQR 110741Z 34009KT 15SM FEW016 SCT030 BKN088 M21/ RMK SC1SC2AC3

CYQR;2010-12-11 08:00;CYQR 110800Z 34008KT 15SM FEW030 BKN090 M22/M27 A3029 RMK SC1AC2 SLP316

CYQR;2010-12-11 09:00;CYQR 110900Z 33009KT 15SM BKN035 M23/M28 A3031 RMK SC2 SLP326

CYQR;2010-12-11 10:00;CYQR 111000Z 33006KT 15SM BKN035 M23/M28 A3034 RMK SC6 SLP334

CYQR;2010-12-11 11:00;CYQR 111100Z 34005KT 15SM -SN BKN048 M23/M28 A3035 RMK SC5 SLP337

CYQR;2010-12-11 12:00;CYQR 111200Z 33006KT 15SM -SN BKN064 OVC090 M22/M28 A3035 RMK SC6AC2 SLP340

CYQR;2010-12-11 12:16;CYQR 111216Z 33006KT 15SM BKN065 OVC090 M22/ RMK SC3AC5

CYQR;2010-12-11 13:00;CYQR 111300Z 34007KT 15SM OVC080 M22/M27 A3036 RMK AC7 SLP343

CYQR;2010-12-11 14:00;CYQR 111400Z 33006KT 15SM OVC075 M22/M27 A3037 RMK AC8 SLP347

CYQR;2010-12-11 15:00;CYQR 111500Z 31006KT 15SM BKN096 M22/M27 A3039 RMK AC7 SLP352

CYQR;2010-12-11 16:00;CYQR 111600Z 34002KT 15SM FEW040 BKN095 M22/M27 A3040 RMK SC2AC6 SLP356

CYQR;2010-12-11 17:00;CYQR 111700Z 00000KT 15SM FEW045 OVC110 M21/M27 A3041 RMK SC2AC6 SLP359

CYQR;2010-12-11 18:00;CYQR 111800Z 24004KT 15SM FEW045 OVC110 M21/M27 A3041 RMK SC2AC6 SLP361

CYQR;2010-12-11 18:32;CYQR 111832Z 24003KT 15SM -SN SCT024 OVC060 M21/ RMK SC3SC5

CYQR;2010-12-11 19:00;CYQR 111900Z 26002KT 12SM -SN SCT022 OVC047 M20/M26 A3040 RMK SC4SC4 SLP359

CYQR;2010-12-11 19:27;CYQR 111927Z 24002KT 1 1/4SM -SN BKN005 BKN050 M20/ RMK SN2SF4SC2 VIS VRB 1-11/2

CYQR;2010-12-11 19:41;CYQR 111941Z 23002KT 10SM -SN FEW004 BKN050 M20/ RMK SF2SC6

CYQR;2010-12-11 20:00;CYQR 112000Z 20002KT 12SM -SN FEW012 BKN048 M20/M25 A3040 RMK SF1SC6 SLP356

CYQR;2010-12-11 21:00;CYQR 112100Z 00000KT 15SM BKN044 M19/M25 A3040 RMK SC6 SLP357

CYQR;2010-12-11 22:00;CYQR 112200Z 20002KT 15SM BKN055 BKN130 M19/M25 A3040 RMK SC6AC1 SLP357

CYQR;2010-12-11 23:00;CYQR 112300Z 19004KT 15SM BKN062 BKN130 M19/M24 A3042 RMK SC7AC1 SLP363

CYQR;2010-12-12 00:00;CYQR 120000Z 15006KT 15SM -SN BKN073 M19/M24 A3040 RMK AC7 SLP358

CYQR;2010-12-12 01:00;CYQR 120100Z 13006KT 15SM -SN BKN073 OVC130 M19/M24 A3040 RMK AC7AC1 SLP358

CYQR;2010-12-12 02:00;CYQR 120200Z 13007KT 15SM -SN BKN066 OVC130 M19/M24 A3038 RMK AC6AC2 SLP351

CYQR;2010-12-12 03:00;CYQR 120300Z 13005KT 15SM -SN BKN072 OVC130 M19/M24 A3041 RMK AC6AC2 SLP359

CYQR;2010-12-12 05:00;CYQR 120500Z 12007KT 15SM -SN BKN063 OVC130 M19/M24 A3040 RMK SC5AC3 SLP355

CYQR;2010-12-12 06:00;CYQR 120600Z 12008KT 15SM -SN SCT059 OVC130 M19/M24 A3042 RMK SC4AC4 SLP362

CYQR;2010-12-12 07:00;CYQR 120700Z 13010KT 15SM -SN BKN053 OVC120 M19/M24 A3041 RMK SC5AC3 SLP359

CYQR;2010-12-12 08:00;CYQR 120800Z 12008KT 15SM -SN BKN053 OVC120 M19/M23 A3040 RMK SC6AC2 SLP357

CYQR;2010-12-12 09:00;CYQR 120900Z 12010KT 15SM -SN OVC051 M19/M24 A3041 RMK SC8 SLP357

CYQR;2010-12-12 10:00;CYQR 121000Z 12012KT 15SM -SN OVC047 M19/M24 A3040 RMK SC8 SLP356

CYQR;2010-12-12 10:40;CYQR 121040Z 12012KT 15SM OVC047 M19/ RMK SC8

CYQR;2010-12-12 11:00;CYQR 121100Z 13012KT 15SM OVC047 M19/M24 A3040 RMK SC8 SLP354

CYQR;2010-12-12 12:00;CYQR 121200Z 13013KT 15SM BKN047 OVC079 M19/M24 A3039 RMK SC6AC2 SLP351

CYQR;2010-12-12 13:00;CYQR 121300Z 14016KT 15SM SCT045 BKN070 BKN250 M20/M25 A3038 RMK SC3AC2CI0 SLP348

CYQR;2010-12-12 13:19;CYQR 121319Z 14017KT 12SM FEW070 M20/ RMK AC2

CYQR;2010-12-12 14:00;CYQR 121400Z 14015KT 12SM FEW043 FEW070 M21/M26 A3037 RMK SC1AC1 SLP345

CYQR;2010-12-12 15:00;CYQR 121500Z 14018KT 6SM IC DRSN FEW070 BKN230 M22/M26 A3035 RMK AC1CI0 SLP339

CYQR;2010-12-12 16:00;CYQR 121600Z 14019KT 6SM IC DRSN FEW070 BKN230 M22/M26 A3035 RMK AC1CI0 SLP339

CYQR;2010-12-12 17:00;CYQR 121700Z 14018G24KT 2SM BLSN BKN230 M21/M26 A3033 RMK BLSN3CI0 SLP334

CYQR;2010-12-12 18:00;CYQR 121800Z 15020G25KT 3SM BLSN BKN230 M20/M25 A3031 RMK BLSN2CI0 SLP325

CYQR;2010-12-12 19:00;CYQR 121900Z 15022KT 3SM BLSN BKN230 M20/M24 A3027 RMK BLSN2CI3 SLP312

CYQR;2010-12-12 19:19;CYQR 121919Z 14023G30KT 2SM BLSN BKN230 M20/ RMK BLSN4CI3

CYQR;2010-12-12 20:00;CYQR 122000Z 14022KT 2SM BLSN OVC230 M19/M24 A3025 RMK BLSN4CI3 SLP304

CYQR;2010-12-12 21:00;CYQR 122100Z 14022G27KT 2SM BLSN BKN080 OVC230 M19/M23 A3022 RMK BLSN3AC2CI2 SLP292

CYQR;2010-12-12 22:00;CYQR 122200Z 14022G29KT 2SM BLSN BKN080 OVC230 M18/M22 A3020 RMK BLSN3AC3CI2 SLP286

CYQR;2010-12-12 23:00;CYQR 122300Z 14022KT 2SM BLSN OVC080 M18/M22 A3018 RMK BLSN3AC5 SLP278

CYQR;2010-12-12 23:38;CYQR 122338Z 14022G28KT 2 1/2SM -SN BLSN SCT015 OVC080 M18/ RMK BLSN2SC2AC4

CYQR;2010-12-13 00:00;CYQR 130000Z 14024KT 2 1/2SM -SN BLSN SCT015 OVC062 M18/M22 A3015 RMK BLSN2SC2SC4 SLP267

CYQR;2010-12-13 01:00;CYQR 130100Z 14025G30KT 2 1/2SM -SN BLSN SCT015 OVC062 M18/M22 A3011 RMK BLSN2SC1SC5 SLP254

CYQR;2010-12-13 02:00;CYQR 130200Z 14025G31KT 2 1/2SM -SN BLSN SCT015 OVC043 M17/M22 A3008 RMK BLSN2SC2SC5 SLP245

CYQR;2010-12-13 02:46;CYQR 130246Z 14025G30KT 2SM -SN BLSN FEW006 SCT015 OVC049 M17/ RMK BLSN2SC1SC2SC4

CYQR;2010-12-13 03:00;CYQR 130300Z 14025KT 1 1/2SM -SN BLSN BKN007 OVC049 M17/M21 A3005 RMK BLSN2SC3SC2 SLP236

CYQR;2010-12-13 03:11;CYQR 130311Z 14024KT 2SM -SN BLSN SCT006 OVC038 M17/ RMK BLSN2SC2SC4

CYQR;2010-12-13 04:00;CYQR 130400Z 14026KT 2SM -SN BLSN SCT006 OVC023 M17/M21 A3003 RMK BLSN2SC2SC4 SLP228

CYQR;2010-12-13 04:09;CYQR 130409Z 14024G30KT 1SM R13/4500VP6000FT/D -SN BLSN BKN006 OVC023 M17/ RMK BLSN2SC2SC3

CYQR;2010-12-13 04:40;CYQR 130440Z 14025G31KT 3/4SM R13/4000VP6000FT/U -SN BLSN BKN005 OVC023 M17/ RMK BLSN3SC2SC2

CYQR;2010-12-13 04:51;CYQR 130451Z 14023G30KT 1 1/2SM R13/6000FT/U -SN BLSN BKN004 OVC025 M17/ RMK BLSN2SC2SC3

CYQR;2010-12-13 05:00;CYQR 130500Z 14028KT 1 1/2SM -SN BLSN BKN004 OVC025 M17/M21 A3000 RMK BLSN2SC2SC3 SLP217

CYQR;2010-12-13 05:50;CYQR 130550Z 14027G32KT 5/8SM R13/3000V5000FT/D -SN BLSN BKN005 OVC025 M17/ RMK BLSN3SC2SC3

CYQR;2010-12-13 06:00;CYQR 130600Z 14028KT 1/2SM R13/3000V4500FT/D -SN BLSN BKN005 OVC025 M17/M21 A3000 RMK BLSN3SC2SC3 SLP214

CYQR;2010-12-13 07:00;CYQR 130700Z 14026G32KT 1/2SM R13/3000V4500FT/N -SN BLSN BKN006 OVC043 M17/M20 A2997 RMK BLSN3SC2SC3 /S01/ SLP206

CYQR;2010-12-13 08:00;CYQR 130800Z 14026G32KT 1/2SM R13/3500V5500FT/U -SN BLSN BKN004 OVC030 M16/M20 A2996 RMK BLSN3SC2SC3 SLP202

CYQR;2010-12-13 09:00;CYQR 130900Z 14024G29KT 3/4SM R13/6000FT/D -SN BLSN BKN008 OVC019 M16/M19 A2996 RMK BLSN2SC2SC3 SLP199

CYQR;2010-12-13 09:04;CYQR 130904Z 14025KT 1 1/2SM R13/6000FT/U -SN BLSN SCT008 OVC019 M16/ RMK BLSN2SC2SC4

CYQR;2010-12-13 10:00;CYQR 131000Z 14022G27KT 1SM R13/5000FT/N -SN BLSN SCT006 OVC034 M16/M19 A2994 RMK BLSN2SC2SC4 SLP193

CYQR;2010-12-13 10:46;CYQR 131046Z 15022G29KT 1/2SM R13/3500V5000FT/D -SN BLSN BKN007 OVC032 M15/ RMK BLSN3SC2SC2

CYQR;2010-12-13 11:00;CYQR 131100Z 15021G26KT 1/2SM R13/4500FT/N -SN BLSN BKN007 OVC032 M15/M19 A2991 RMK BLSN4SC2SC2 /S03/ SLP185

CYQR;2010-12-13 11:16;CYQR 131116Z 16021G28KT 3/4SM R13/4500VP6000FT/D -SN BLSN BKN007 OVC013 M15/ RMK BLSN3SC3SC2

CYQR;2010-12-13 12:00;CYQR 131200Z 15023KT 5/8SM R13/P6000FT/U -SN BLSN OVC006 M15/M19 A2991 RMK BLSN4SC4 /S05/ SLP183

CYQR;2010-12-13 12:32;CYQR 131232Z 14021G26KT 3/4SM R13/P6000FT/N -SN BLSN OVC006 M15/ RMK BLSN2SC6

CYQR;2010-12-13 12:47;CYQR 131247Z 15020G25KT 1SM R13/P6000FT/U -SN BLSN OVC006 M15/ RMK BLSN2SC6

CYQR;2010-12-13 13:00;CYQR 131300Z 14020G25KT 1SM R13/P6000FT/D -SN BLSN OVC006 M15/M18 A2990 RMK BLSN2SC6 SLP177

CYQR;2010-12-13 14:00;CYQR 131400Z 14019KT 1SM R13/P6000FT/N -SN BLSN OVC005 M14/M17 A2988 RMK BLSN2SC6 SLP171

CYQR;2010-12-13 15:00;CYQR 131500Z 15017KT 1 1/4SM -SN BLSN OVC005 M13/M16 A2987 RMK BLSN2SC6 SLP167

CYQR;2010-12-13 15:23;CYQR 131523Z 15018G25KT 1SM R13/P6000FT/D -SN BLSN OVC004 M13/ RMK BLSN3SC5 VIS VRB 3/4-11/4 CIG VRB 4-6

CYQR;2010-12-13 15:25;CYQR 131525Z CCA 15018G25KT 1SM R13/P6000FT/D -SN BLSN OVC004 M13/ RMK BLSN3SC5 VIS VRB 3/4-11/4 CIG VRB 4-6

CYQR;2010-12-13 16:00;CYQR 131600Z 15015G22KT 1SM R13/P6000FT/N -SN BLSN OVC004 M13/M16 A2989 RMK BLSN3SC5 VIS VRB 3/4-11/4 SLP171

CYQR;2010-12-13 16:17;CYQR 131617Z 15019KT 3/4SM R13/P6000FT/D -SN BLSN OVC004 M13/ RMK BLSN4SC4

CYQR;2010-12-13 16:49;CYQR 131649Z 15018G24KT 3/4SM R13/P6000FT/N -SN BLSN OVC005 M13/ RMK BLSN2SC6

CYQR;2010-12-13 17:00;CYQR 131700Z 15019KT 3/4SM R13/6000FT/D -SN BLSN OVC004 M13/M16 A2987 RMK BLSN4SC4 SLP167

CYQR;2010-12-13 17:46;CYQR 131746Z 15019KT 1SM R13/P6000FT/U -SN BLSN OVC006 M13/ RMK BLSN2SC6 VIS VRB 3/4-11/4

CYQR;2010-12-13 18:00;CYQR 131800Z 15019KT 1 1/4SM -SN BLSN OVC008 M12/M15 A2987 RMK BLSN2SC6 VIS VRB 3/4-13/4 SLP166

CYQR;2010-12-13 18:11;CYQR 131811Z 15016G21KT 2SM -SN BLSN OVC009 M12/ RMK BLSN2SC6 VIS VRB 1-3

CYQR;2010-12-13 19:00;CYQR 131900Z 15017G22KT 2 1/2SM -SN BLSN OVC006 M12/M15 A2986 RMK BLSN1SC7 SLP162

CYQR;2010-12-13 19:14;CYQR 131914Z 16016KT 3SM -SN DRSN OVC007 M12/ REBLSN RMK SC8

CYQR;2010-12-13 19:16;CYQR 131916Z 16016KT 3SM -SN DRSN OVC007 M12/ REBLSN RMK SC8

CYQR;2010-12-13 19:33;CYQR 131933Z 16015G20KT 7SM DRSN OVC007 M12/ REBLSN RMK SC7 OCNL BLSN

CYQR;2010-12-13 20:00;CYQR 132000Z 15016KT 8SM DRSN SCT006 BKN014 M12/M14 A2986 RMK SC4SC2 OCNL BLSN SLP161

CYQR;2010-12-13 20:28;CYQR 132028Z 15017KT 7SM DRSN BKN006 OVC014 M11/ RMK SC6SC2 OCNL BLSN

CYQR;2010-12-13 20:51;CYQR 132051Z 15019KT 2SM -SN DRSN VCBLSN OVC006 M12/ RMK SC8

CYQR;2010-12-13 21:00;CYQR 132100Z 16017KT 2SM -SN BLSN OVC004 M12/M14 A2986 RMK BLSN2SC6 SLP159

CYQR;2010-12-13 21:44;CYQR 132144Z 15017KT 8SM DRSN BKN006 BKN015 M12/ REBLSN RMK SF1SC5 OCNL BLSN

CYQR;2010-12-13 22:00;CYQR 132200Z CCA 14017G22KT 7SM DRSN VCBLSN SCT005 BKN011 M12/M14 A2983 REBLSN RMK SF2SC6 SLP151

CYQR;2010-12-13 23:00;CYQR 132300Z 14015KT 7SM DRSN SCT009 BKN050 M12/M14 A2985 RMK SC4SC2 SLP156

CYQR;2010-12-13 23:41;CYQR 132341Z 15016KT 10SM DRSN SCT009 BKN050 BKN100 M11/ RMK SC2SC1AC1

CYQR;2010-12-14 00:00;CYQR 140000Z 15015KT 12SM DRSN BKN007 BKN050 M11/M14 A2986 RMK SC2SC1 SLP157

CYQR;2010-12-14 01:00;CYQR 140100Z 16013KT 12SM DRSN BKN009 M12/M14 A2986 RMK SC2 SLP160

CYQR;2010-12-14 02:00;CYQR 140200Z 14017KT 12SM DRSN OVC006 M11/M14 A2986 RMK SC4 SLP158

CYQR;2010-12-14 02:43;CYQR 140243Z 14016KT 12SM -SN OVC006 M11/ RMK SC6

CYQR;2010-12-14 03:00;CYQR 140300Z 14016KT 12SM -SN OVC006 M11/M14 A2984 RMK SC6 SLP152

CYQR;2010-12-14 04:00;CYQR 140400Z 15015KT 8SM -SN OVC006 M11/M13 A2985 RMK SC8 SLP153

CYQR;2010-12-14 05:00;CYQR 140500Z 14016KT 12SM -SN OVC007 M11/M13 A2984 RMK SC8 SLP152

CYQR;2010-12-14 06:00;CYQR 140600Z 15016KT 15SM -SN OVC006 M11/M13 A2984 RMK SC8 SLP151

CYQR;2010-12-14 07:00;CYQR 140700Z 14014KT 15SM -SN OVC006 M11/M13 A2983 RMK SC8 SLP146

CYQR;2010-12-14 08:00;CYQR 140800Z 14013KT 15SM -SN OVC006 M10/M13 A2983 RMK SC8 SLP146

CYQR;2010-12-14 09:00;CYQR 140900Z 14014KT 15SM -SN OVC006 M10/M13 A2981 RMK SC8 SLP140

CYQR;2010-12-14 10:00;CYQR 141000Z 14016G21KT 5SM -SN BR OVC005 M10/M13 A2981 RMK SC8 SLP137

CYQR;2010-12-14 11:00;CYQR 141100Z 14016KT 12SM -SN OVC006 M10/M13 A2978 RMK SC8 SLP130

CYQR;2010-12-14 11:45;CYQR 141145Z 15017KT 3SM -SN BR OVC004 M10/ RMK SC8

CYQR;2010-12-14 11:49;CYQR 141149Z 14018KT 2 1/2SM -SN BR OVC004 M10/ RMK SC8

CYQR;2010-12-14 12:00;CYQR 141200Z 14019KT 3SM -SN BR OVC004 M10/M12 A2976 RMK SC8 SLP119

CYQR;2010-12-14 12:17;CYQR 141217Z 14017KT 5SM -SN BR OVC005 M10/ RMK SC8

CYQR;2010-12-14 12:28;CYQR 141228Z 15019KT 2 1/2SM -SN BR OVC005 M10/ RMK SC8

CYQR;2010-12-14 13:00;CYQR 141300Z 15019G26KT 1 1/2SM -SN BR OVC003 M10/M12 A2974 RMK SC8 SLP114

CYQR;2010-12-14 13:38;CYQR 141338Z 15019KT 1 3/4SM -SN BR OVC007 M10/ RMK SC8 VIS VRB 11/4-21/4

CYQR;2010-12-14 14:00;CYQR 141400Z 15018G26KT 2 1/2SM -SN DRSN BR OVC006 M10/M12 A2973 RMK SC8 SLP111

CYQR;2010-12-14 14:17;CYQR 141417Z 14020G25KT 4SM -SN DRSN BR OVC008 M10/ RMK SC8

CYQR;2010-12-14 14:39;CYQR 141439Z 14021KT 3SM DRSN BR OVC007 M10/ RMK SC8

CYQR;2010-12-14 14:54;CYQR 141454Z 14022KT 2SM BLSN OVC007 M10/ RMK SC8

CYQR;2010-12-14 15:00;CYQR 141500Z 14021G27KT 1SM R13/P6000FT/D BLSN OVC007 M10/M12 A2970 RMK SC8 SLP098

CYQR;2010-12-14 16:00;CYQR 141600Z 14023KT 2SM BLSN OVC007 M10/M12 A2969 RMK SC8 SLP095

CYQR;2010-12-14 16:14;CYQR 141614Z 14021G26KT 4SM BLSN OVC007 M10/ RMK SC8

CYQR;2010-12-14 16:49;CYQR 141649Z 14020G26KT 2 1/2SM BLSN OVC007 M10/ RMK SC7

CYQR;2010-12-14 17:00;CYQR 141700Z 14023G28KT 2 1/2SM BLSN OVC007 M10/M12 A2968 RMK SC8 VIS SE 1SM SLP092

CYQR;2010-12-14 17:11;CYQR 141711Z 15021G29KT 1 1/2SM BLSN OVC007 M09/ RMK SC8 VIS VRB 1-2

CYQR;2010-12-14 18:00;CYQR 141800Z 14022G33KT 1 1/2SM BLSN OVC006 M09/M11 A2964 RMK SC8 VIS VRB 1-2 PRESFR SLP078

CYQR;2010-12-14 19:00;CYQR 141900Z 14022G29KT 1SM R13/5000FT/D BLSN OVC007 M09/M11 A2960 RMK SC8 VIS VRB 3/4-11/4 PRESFR SLP065

CYQR;2010-12-14 19:09;CYQR 141909Z 14023G31KT 5/8SM R13/3500V5500FT/D -SN BLSN OVC005 M09/ RMK SC8

CYQR;2010-12-14 19:34;CYQR 141934Z 14025G33KT 1SM R13/4000V5500FT/U -SN BLSN SCT005 OVC009 M09/ RMK SC4SC4

CYQR;2010-12-14 20:00;CYQR 142000Z 15027G34KT 3/4SM R13/3500FT/D -SN BLSN SCT005 OVC007 M09/M11 A2957 RMK SC3SC5 VIS VRB 1/2-1 SLP057

CYQR;2010-12-14 21:00;CYQR 142100Z 14023G31KT 3/4SM R13/5500FT/N -SN BLSN OVC008 M09/M11 A2954 RMK SC8 VIS VRB 1/2-1 SLP042

CYQR;2010-12-14 22:00;CYQR 142200Z 14028G36KT 1SM R13/5500FT/D -SN BLSN OVC009 M09/M11 A2951 RMK SC8 VIS E 2SM SLP032

CYQR;2010-12-14 22:44;CYQR 142244Z 14026G32KT 1SM R13/P6000FT/U -SHPL BLSN OVC009 M08/ RMK SC8 CVCTV CLD EMBD

CYQR;2010-12-14 23:00;CYQR 142300Z 14026KT 1 1/2SM BLSN OVC009 M09/M11 A2949 RMK SC8 SLP026

CYQR;2010-12-14 23:38;CYQR 142338Z 14023G31KT 1 1/2SM -SHPL BLSN OVC009 M08/ RMK SC8 CVCTV CLD EMBD

CYQR;2010-12-15 00:00;CYQR 150000Z 13024G35KT 1 1/2SM -PL BLSN -FZRA OVC009 M08/M10 A2947 RMK SC8 SLP019

CYQR;2010-12-15 00:47;CYQR 150047Z 14024G32KT 1SM R13/P6000FT/N -PL BLSN -FZRA OVC004 M08/ RMK SC8

CYQR;2010-12-15 01:00;CYQR 150100Z 13030G35KT 1SM R13/P6000FT/D -PL BLSN OVC004 M08/M10 A2945 REFZRA RMK SC8 VIS VRB 3/4-1 1/4 SLP012

CYQR;2010-12-15 01:14;CYQR 150114Z 13026G35KT 1SM R13/P6000FT/U -PL BLSN OVC007 M08/ RMK SC8

CYQR;2010-12-15 01:38;CYQR 150138Z 14024G35KT 3/4SM R13/P6000FT/D -PL BLSN OVC005 M08/ RMK BLSN2SC6

CYQR;2010-12-15 01:40;CYQR 150140Z 15021G29KT 1SM R13/P6000FT/D -PL BLSN -FZRA OVC005 M09/ RMK BLSN2SC6

CYQR;2010-12-15 02:00;CYQR 150200Z 15022G27KT 1SM R13/P6000FT/U -PL BLSN OVC006 M09/M11 A2946 REFZRA RMK BLSN2SC6 SLP015

CYQR;2010-12-15 02:11;CYQR 150211Z 14023KT 3/4SM R13/6000FT/N -PL BLSN OVC006 M08/ RMK BLSN2SC6

CYQR;2010-12-15 02:18;CYQR 150218Z 14023KT 1SM R13/6000FT/N -SN BLSN OVC006 M08/ RMK BLSN2SC6

CYQR;2010-12-15 02:25;CYQR 150225Z 14023G30KT 1 1/2SM -SN BLSN SCT006 OVC037 M08/ RMK SC4SC4

CYQR;2010-12-15 02:35;CYQR 150235Z 15018G26KT 1 1/2SM -PL BLSN SCT006 OVC037 M08/ RMK SC4SC4

CYQR;2010-12-15 03:00;CYQR 150300Z 15018G25KT 1 1/2SM -PL BLSN BKN011 OVC035 M08/M10 A2943 RMK SC5SC3 SLP005

CYQR;2010-12-15 03:12;CYQR 150312Z 16019G24KT 2SM -PL BLSN BKN011 OVC035 M08/ RMK SC5SC3

CYQR;2010-12-15 03:45;CYQR 150345Z 15023G28KT 1 1/2SM -PL BLSN BKN011 OVC031 M08/ RMK SC5SC3

CYQR;2010-12-15 03:52;CYQR 150352Z 14023G28KT 2SM -PL BLSN BKN011 OVC029 M08/ RMK SC5SC3

CYQR;2010-12-15 04:00;CYQR 150400Z 15022G30KT 2SM -PL BLSN BKN011 OVC029 M07/M10 A2941 RMK SC5SC3 VIS VRB 11/2-21/2 SLP998

CYQR;2010-12-15 04:06;CYQR 150406Z 14024KT 1 1/2SM BLSN -FZRA BKN011 OVC029 M07/ RMK SC6SC2

CYQR;2010-12-15 04:26;CYQR 150426Z 16020G26KT 2SM -PL BLSN BKN010 OVC030 M07/ RMK SC6SC2

CYQR;2010-12-15 04:27;CYQR 150427Z CCA 16020G26KT 2SM -PL BLSN BKN010 OVC030 M07/ RMK SC6SC2 VIS VRB 11/2-21/2

CYQR;2010-12-15 04:33;CYQR 150433Z 16021G26KT 2SM -PLSN BLSN BKN010 OVC030 M07/ RMK SC6SC2 VIS VRB 11/2-21/2

CYQR;2010-12-15 04:43;CYQR 150443Z 16022KT 1SM R13/P6000FT/D -SN BLSN BKN007 OVC030 M07/ RMK BLSN2SC5SC2

CYQR;2010-12-15 05:00;CYQR 150500Z 16017G24KT 1SM R13/P6000FT/U -SN BLSN BKN007 OVC030 M07/M09 A2944 RMK BLSN2SC5SC2 SLP006

CYQR;2010-12-15 05:34;CYQR 150534Z 16020G27KT 2SM -SN DRSN BKN007 OVC030 M07/ RMK SC6SC2

CYQR;2010-12-15 05:51;CYQR 150551Z 15020G25KT 2 1/2SM -SN DRSN BKN010 OVC030 M06/ RMK SC6SC2

CYQR;2010-12-15 06:00;CYQR 150600Z 15022KT 3SM -SN DRSN BKN010 OVC030 M06/M08 A2943 RMK SC6SC2 /S02/ SLP003

CYQR;2010-12-15 06:22;CYQR 150622Z 15018G25KT 4SM -SN DRSN SCT015 BKN032 OVC056 M06/ RMK SC4SC2SC2

CYQR;2010-12-15 07:00;CYQR 150700Z 15019G25KT 5SM -SN DRSN OVC009 M06/M08 A2942 RMK SC8 SLP001

CYQR;2010-12-15 07:36;CYQR 150736Z 15017KT 12SM -SN DRSN SCT009 OVC024 M06/ RMK SC3SC5

CYQR;2010-12-15 08:00;CYQR 150800Z 16012G21KT 12SM -SN DRSN FEW009 SCT016 OVC068 M06/M08 A2944 RMK SC2SC2AC4 SLP005

CYQR;2010-12-15 09:00;CYQR 150900Z 16012G18KT 12SM -SN FEW009 OVC059 M05/M07 A2946 RMK SC2SC6 SLP010

CYQR;2010-12-15 10:00;CYQR 151000Z 14009KT 15SM -SN FEW059 OVC093 M05/M07 A2946 RMK SC2AC6 SLP012

CYQR;2010-12-15 10:33;CYQR 151033Z 14007KT 15SM FEW059 BKN100 M05/ RMK SC2AC3

CYQR;2010-12-15 11:00;CYQR 151100Z 12008KT 15SM FEW088 M06/M08 A2947 RMK AC2 SLP014

CYQR;2010-12-15 12:00;CYQR 151200Z 14003KT 15SM SKC M07/M09 A2950 RMK SLP026

CYQR;2010-12-15 13:00;CYQR 151300Z 10012KT 15SM SKC M09/M11 A2952 RMK SLP033

CYQR;2010-12-15 14:00;CYQR 151400Z 12005KT 15SM FEW013 M11/M13 A2954 RMK SC1 SLP040

CYQR;2010-12-15 15:00;CYQR 151500Z 13010KT 15SM FEW013 M12/M14 A2957 RMK SC1 SLP053

CYQR;2010-12-15 16:00;CYQR 151600Z 12008KT 15SM FEW025 M12/M14 A2960 RMK SC1 SLP062

CYQR;2010-12-15 17:00;CYQR 151700Z 13009KT 15SM FEW025 M10/M13 A2962 RMK SC1 SLP069

CYQR;2010-12-15 18:00;CYQR 151800Z 14008KT 15SM FEW025 FEW200 M09/M11 A2963 RMK SC1CI1 SLP072

CYQR;2010-12-15 19:00;CYQR 151900Z 14005KT 15SM FEW025 FEW200 M08/M11 A2964 RMK SC1CI1 SLP074

CYQR;2010-12-15 20:00;CYQR 152000Z 12008KT 15SM FEW025 FEW200 M09/M12 A2966 RMK SC1CI1 SLP079

CYQR;2010-12-15 21:00;CYQR 152100Z 11010KT 15SM FEW025 FEW200 M08/M12 A2967 RMK SC1CI1 SLP084

CYQR;2010-12-15 22:00;CYQR 152200Z 12008KT 15SM FEW025 FEW200 M09/M12 A2970 RMK SC1CI1 SLP094

CYQR;2010-12-15 23:00;CYQR 152300Z 13007KT 15SM FEW025 FEW200 M10/M13 A2972 RMK SC1CI1 SLP099

CYQR;2010-12-16 00:00;CYQR 160000Z 11007KT 15SM FEW025 M12/M14 A2975 RMK SC1 SLP114

CYQR;2010-12-16 01:00;CYQR 160100Z 12012KT 15SM FEW025 M12/M14 A2976 RMK SC1 SLP120

CYQR;2010-12-16 02:00;CYQR 160200Z 12013KT 15SM FEW025 M12/M14 A2978 RMK SC1 SLP126

CYQR;2010-12-16 03:00;CYQR 160300Z 14009KT 15SM FEW085 M12/M15 A2980 RMK AC1 SLP135

CYQR;2010-12-16 04:00;CYQR 160400Z 11011KT 6SM -SN BKN006 BKN080 M13/M16 A2983 RMK SF3AC2 SLP146

CYQR;2010-12-16 04:05;CYQR 160405Z 11012KT 1 1/2SM -SN DRSN OVC004 M14/ RMK SC6

CYQR;2010-12-16 04:29;CYQR 160429Z 12007KT 3/4SM R13/P6000FT/D -SN BR OVC002 M13/ RMK FG2SF6

CYQR;2010-12-16 04:37;CYQR 160437Z 13008KT 1/4SM R13/2800FT -SN FZFG VV001 M13/ RMK FG8

CYQR;2010-12-16 05:00;CYQR 160500Z 15005KT 1/4SM R13/2600FT/N -SN FZFG VV001 M13/M15 A2984 RMK FG8 SLP148

CYQR;2010-12-16 06:00;CYQR 160600Z 10006KT 1/4SM R13/2400FT/N FZFG VV001 M13/M14 A2985 RMK FG8 SLP152

CYQR;2010-12-16 07:00;CYQR 160700Z 14003KT 1/4SM R13/2200FT/N FZFG VV001 M11/M12 A2989 RMK FG8 SLP164

CYQR;2010-12-16 08:00;CYQR 160800Z 00000KT 1/8SM R13/2600VP6000FT/U FZFG VV001 M11/M12 A2992 RMK FG8 SLP173

CYQR;2010-12-16 09:00;CYQR 160900Z 30004KT 1/8SM R13/3500FT/U FZFG VV001 M11/M12 A2995 RMK FG8 SLP185

CYQR;2010-12-16 09:34;CYQR 160934Z 30003KT 1/2SM R13/P6000FT/U FZFG VV002 M11/ RMK FG8

CYQR;2010-12-16 10:00;CYQR 161000Z 29006KT 1/2SM R13/P6000FT/N FZFG VV002 M11/M12 A2997 RMK FG8 SLP191

CYQR;2010-12-16 10:48;CYQR 161048Z 31006KT 1SM R13/P6000FT/D BR OVC003 M11/ RMK FG4SC4

CYQR;2010-12-16 11:00;CYQR 161100Z 34006KT 1SM R13/P6000FT/U BR OVC003 M10/M11 A2999 RMK FG4SC4 SLP196

CYQR;2010-12-16 11:04;CYQR 161104Z 33007KT 3SM -SN BR OVC003 M10/ RMK SC8

CYQR;2010-12-16 12:00;CYQR 161200Z 03004KT 4SM -SN BR OVC004 M08/M09 A3000 RMK SC8 SLP203

CYQR;2010-12-16 12:41;CYQR 161241Z 02006KT 5SM -SN BR OVC005 M08/ RMK SC8

CYQR;2010-12-16 13:00;CYQR 161300Z 03004KT 2 1/2SM -SN BR OVC003 M08/M09 A3001 RMK SC8 RIME ON INDICATOR SLP207

CYQR;2010-12-16 13:37;CYQR 161337Z 04005KT 3SM -SN BR OVC005 M08/ RMK SC8

CYQR;2010-12-16 14:00;CYQR 161400Z 03005KT 4SM -SN BR OVC004 M08/M09 A3004 RMK SC8 SLP215

CYQR;2010-12-16 14:22;CYQR 161422Z 04005KT 4SM -SN BR OVC005 M09/ RMK SC8

CYQR;2010-12-16 14:41;CYQR 161441Z 04006KT 3SM -SN BR OVC004 M09/ RMK SC8

CYQR;2010-12-16 15:00;CYQR 161500Z 05006KT 4SM -SN BR OVC005 M09/M10 A3007 RMK SC8 FROIN SLP228

CYQR;2010-12-16 15:31;CYQR 161531Z 05005KT 10SM OVC007 M09/ RMK ST8

CYQR;2010-12-16 16:00;CYQR 161600Z 04004KT 12SM OVC011 M09/M10 A3010 RMK SC8 SLP237

CYQR;2010-12-16 16:50;CYQR 161650Z 03006KT 10SM OVC008 M09/ RMK SC8

CYQR;2010-12-16 17:00;CYQR 161700Z 04004KT 10SM OVC008 M09/M11 A3012 RMK SC8 FROIN SLP243

CYQR;2010-12-16 17:42;CYQR 161742Z 04005KT 10SM SCT009 OVC016 M09/ RMK SC3SC5

CYQR;2010-12-16 18:00;CYQR 161800Z 03005KT 10SM FEW009 SCT012 OVC016 M09/M11 A3012 RMK SF2SC2SC4 SLP246

CYQR;2010-12-16 18:50;CYQR 161850Z 36005KT 6SM -SN BR BKN012 OVC021 M09/ RMK SC5SC3 FROIN

CYQR;2010-12-16 19:00;CYQR 161900Z 01006KT 6SM -SN BR BKN012 OVC023 M09/M12 A3013 RMK SC6SC2 FROIN SLP248

CYQR;2010-12-16 20:26;CYQR 162026Z 36007KT 6SM -SN BR SCT014 BKN019 OVC057 M09/ RMK SC3SC3SC2

CYQR;2010-12-16 21:00;CYQR 162100Z 01008KT 6SM -SN BR SCT010 OVC051 M10/M13 A3015 RMK SC2SC6 SLP255

CYQR;2010-12-16 22:00;CYQR 162200Z 36008KT 15SM SCT023 BKN055 OVC090 M10/M13 A3017 RMK SC3SC3AC2 SLP260

CYQR;2010-12-16 23:00;CYQR 162300Z 36010KT 15SM SCT047 OVC210 M11/M14 A3018 RMK SC3CI2 SLP265

CYQR;2010-12-17 00:00;CYQR 170000Z 34009KT 15SM FEW015 BKN210 M12/M15 A3019 RMK SC2CI1 SLP268

CYQR;2010-12-17 01:00;CYQR 170100Z 36012KT 15SM FEW020 BKN250 M12/M16 A3020 RMK SC2CI1 SLP272

CYQR;2010-12-17 02:00;CYQR 170200Z 36012KT 15SM FEW020 BKN250 M14/M18 A3020 RMK SC1CI2 SLP273

CYQR;2010-12-17 03:00;CYQR 170300Z 36014KT 10SM -SN DRSN FEW010 BKN250 M14/M18 A3022 RMK SF2CI1 SLP280

CYQR;2010-12-17 04:47;CYQR 170447Z 34010KT 10SM DRSN FEW020 BKN250 M16/ RMK SF1CI1

CYQR;2010-12-17 05:00;CYQR 170500Z 34011KT 10SM DRSN FEW020 BKN250 M16/M19 A3022 RMK SF1CI1 SLP282

CYQR;2010-12-17 05:45;CYQR 170545Z 33015KT 2SM -SN DRSN BKN004 BKN250 M15/ RMK SF5CI0

CYQR;2010-12-17 06:00;CYQR 170600Z 33012KT 5SM -SN DRSN SCT005 BKN030 BKN250 M15/M18 A3022 RMK SF3SC2CI0 SLP283

CYQR;2010-12-17 06:12;CYQR 170612Z 33011KT 8SM DRSN FEW005 FEW030 BKN250 M15/ RMK SF1SC2CI0

CYQR;2010-12-17 07:00;CYQR 170700Z 32013KT 6SM IC DRSN FEW005 FEW030 BKN250 M15/M18 A3021 RMK SF2SC1CI0 SLP279

CYQR;2010-12-17 08:00;CYQR 170800Z 32012KT 8SM DRSN FEW005 FEW020 BKN250 M16/M19 A3021 RMK SF2SC1CI0 SLP278

CYQR;2010-12-17 09:00;CYQR 170900Z 31013KT 6SM IC DRSN FEW004 BKN030 BKN250 M16/M18 A3021 RMK SF2SC2CI0 SLP279

CYQR;2010-12-17 10:00;CYQR 171000Z 32016KT 10SM DRSN FEW003 SCT030 BKN090 M14/M17 A3021 RMK SF2SC2AC1 SLP278

CYQR;2010-12-17 11:00;CYQR 171100Z 32017KT 8SM -SN DRSN FEW003 SCT030 BKN085 M14/M17 A3020 RMK SF2SC2AC3 SLP275

CYQR;2010-12-17 11:31;CYQR 171131Z 32018G24KT 10SM DRSN FEW030 BKN076 M14/ RMK SC2AC5

CYQR;2010-12-17 12:00;CYQR 171200Z 32016KT 10SM DRSN FEW030 OVC076 M14/M17 A3020 RMK SC2AC6 SLP275

CYQR;2010-12-17 12:16;CYQR 171216Z 32019KT 10SM -SN DRSN SCT029 OVC076 M14/ RMK SC4AC4

CYQR;2010-12-17 12:41;CYQR 171241Z 32019KT 8SM -SN DRSN BKN013 OVC025 M14/ RMK SC5SC3

CYQR;2010-12-17 13:00;CYQR 171300Z 32018KT 8SM -SN DRSN BKN013 OVC025 M14/M17 A3020 RMK SC6SC2 SLP275

CYQR;2010-12-17 13:33;CYQR 171333Z 32015KT 10SM -SN DRSN BKN016 OVC078 M13/ RMK SC5AC3

CYQR;2010-12-17 14:00;CYQR 171400Z 31016KT 3SM -SN DRSN BKN024 OVC066 M13/M17 A3019 RMK SN2SC3AC3 SLP273

CYQR;2010-12-17 14:18;CYQR 171418Z 31016KT 2SM -SN DRSN BKN016 OVC024 M14/ RMK SC6SC2

CYQR;2010-12-17 14:54;CYQR 171454Z 32016KT 1 1/2SM -SN DRSN OVC013 M14/ RMK SC8

CYQR;2010-12-17 15:00;CYQR 171500Z 32017KT 1 1/2SM -SN DRSN OVC010 M14/M17 A3018 RMK SC8 SLP272

CYQR;2010-12-17 15:10;CYQR 171510Z 32016KT 6SM -SN DRSN SCT010 BKN078 OVC220 M14/ RMK SC2AC1CI0

CYQR;2010-12-17 16:00;CYQR 171600Z 31013KT 15SM DRSN SCT067 OVC240 M14/M17 A3018 RMK AC3CI1 INTMT -SN SLP270

CYQR;2010-12-17 16:15;CYQR 171615Z 30012KT 15SM DRSN FEW070 OVC260 M14/ RMK AC2CI2

CYQR;2010-12-17 17:00;CYQR 171700Z 31016KT 15SM DRSN FEW070 BKN260 M13/M16 A3017 RMK AC2CI2 SLP268

CYQR;2010-12-17 18:00;CYQR 171800Z 31015KT 15SM DRSN FEW095 BKN240 M13/M16 A3016 RMK AC1CI3 SLP264

CYQR;2010-12-17 19:00;CYQR 171900Z 33020KT 15SM DRSN FEW090 BKN240 M13/M17 A3015 RMK AC1CI4 SLP261

CYQR;2010-12-17 20:00;CYQR 172000Z 33016KT 15SM DRSN FEW095 SCT210 BKN240 M13/M17 A3014 RMK AC1CC2CI2 SLP257

CYQR;2010-12-17 21:00;CYQR 172100Z CCA 33018KT 15SM DRSN BKN060 OVC240 M13/M17 A3013 RMK SC6CI1 VIRGA SLP255

CYQR;2010-12-17 21:26;CYQR 172126Z 33017KT 15SM -SN DRSN SCT012 BKN055 OVC240 M13/ RMK SC2SC3CI2

CYQR;2010-12-17 22:00;CYQR 172200Z 33018KT 15SM -SN DRSN BKN012 OVC055 M13/M16 A3013 RMK SC5SC2 SLP254

CYQR;2010-12-17 22:29;CYQR 172229Z 32018KT 15SM DRSN OVC012 M13/ RMK SC8

CYQR;2010-12-17 22:45;CYQR 172245Z 32015KT 15SM -SN DRSN OVC009 M13/ RMK SC8

CYQR;2010-12-17 23:00;CYQR 172300Z 33017KT 15SM -SN DRSN OVC009 M13/M16 A3012 RMK SC8 PCPN VRY LGT SLP251

CYQR;2010-12-17 23:57;CYQR 172357Z 33017KT 1SM R13/P6000FT/D -SN BLSN OVC009 M13/ RMK SN2SC6

CYQR;2010-12-18 00:00;CYQR 180000Z 33015KT 3/4SM R13/P6000FT/D -SN DRSN VV004 M13/M16 A3012 RMK SN8 SLP248

CYQR;2010-12-18 00:13;CYQR 180013Z 33016KT 1 1/2SM -SN DRSN OVC009 M13/ RMK SN2SC6

CYQR;2010-12-18 00:23;CYQR 180023Z 33017KT 3SM -SN DRSN OVC020 M13/ RMK SC8

CYQR;2010-12-18 00:54;CYQR 180054Z 33013KT 4SM -SN DRSN BKN005 OVC020 M13/ RMK SC6SC2

CYQR;2010-12-18 01:00;CYQR 180100Z 33014KT 3SM -SHSN DRSN BKN004 OVC020 M13/M15 A3011 RMK SC6SC2 CVCTV CLD EMBD SLP245

CYQR;2010-12-18 01:29;CYQR 180129Z 34014G19KT 2SM -SN DRSN OVC004 M13/ RMK SN3SC5

CYQR;2010-12-18 01:36;CYQR 180136Z 33012KT 1SM R13/P6000FT/N -SN DRSN OVC003 M13/ RMK SN4SC4

CYQR;2010-12-18 01:44;CYQR 180144Z 33014KT 3/4SM R13/P6000FT/D -SN DRSN VV004 M13/ RMK SN8

CYQR;2010-12-18 02:37;CYQR 180237Z 34011KT 3SM -SN DRSN OVC004 M13/ RMK SC8

CYQR;2010-12-18 03:00;CYQR 180300Z 34013KT 3SM -SN DRSN OVC005 M13/M15 A3010 RMK SC8 SLP241

CYQR;2010-12-18 03:26;CYQR 180326Z 34009KT 4SM -SN DRSN OVC010 M13/ RMK SC8

CYQR;2010-12-18 04:00;CYQR 180400Z 33015KT 4SM -SN DRSN OVC009 M13/M15 A3009 RMK SC8 SLP239

CYQR;2010-12-18 04:19;CYQR 180419Z 34012KT 1 1/2SM -SN DRSN OVC005 M13/ RMK SN3SC5

CYQR;2010-12-18 04:45;CYQR 180445Z 34010KT 3SM -SN DRSN OVC005 M13/ RMK SN2SC6

CYQR;2010-12-18 05:00;CYQR 180500Z 34009KT 3SM -SN DRSN OVC005 M13/M16 A3009 RMK SN2SC6 SLP238

CYQR;2010-12-18 06:00;CYQR 180600Z 33011KT 5SM -SN DRSN OVC010 M13/M16 A3007 RMK SC8 SLP232

CYQR;2010-12-18 06:29;CYQR 180629Z 31010KT 8SM -SN DRSN BKN014 OVC055 M13/ RMK SF5SC3

CYQR;2010-12-18 07:00;CYQR 180700Z 32010KT 8SM -SN DRSN BKN015 OVC055 M13/M15 A3007 RMK SF5SC3 SLP230

CYQR;2010-12-18 07:45;CYQR 180745Z 32011KT 6SM -SN DRSN BKN012 OVC039 M13/ RMK SC6SC2

CYQR;2010-12-18 08:00;CYQR 180800Z 32012KT 6SM -SN DRSN OVC010 M13/M15 A3005 RMK SC8 SLP225

CYQR;2010-12-18 08:14;CYQR 180814Z 31008KT 5SM -SN DRSN OVC008 M13/ RMK SC8

CYQR;2010-12-18 09:00;CYQR 180900Z 31015KT 5SM -SN DRSN OVC008 M13/M16 A3005 RMK SC8 SLP223

CYQR;2010-12-18 11:00;CYQR 181100Z 32013KT 10SM -SN DRSN OVC010 M13/M16 A3002 RMK SC8 SLP216

CYQR;2010-12-18 11:37;CYQR 181137Z 31013KT 10SM -SN DRSN SCT010 OVC034 M13/ RMK SF4SC4

CYQR;2010-12-18 12:00;CYQR 181200Z 31013KT 10SM -SN DRSN SCT010 OVC034 M13/M16 A3001 RMK SF3SC5 SLP211

CYQR;2010-12-18 13:00;CYQR 181300Z 30012KT 10SM -SN DRSN SCT022 OVC044 M13/M16 A3000 RMK SC3SC5 SLP207

CYQR;2010-12-18 14:00;CYQR 181400Z 31010KT 10SM -SN DRSN FEW011 BKN020 OVC045 M13/M16 A2998 RMK SC2SC3SC2 SLP202

CYQR;2010-12-18 15:00;CYQR 181500Z 32012KT 10SM -SN DRSN SCT010 OVC022 M13/M16 A2997 RMK SC4SC4 SLP197

CYQR;2010-12-18 15:26;CYQR 181526Z 31012KT 10SM -SN BKN009 OVC021 M14/ RMK SC6SC2 -SN INTMT

CYQR;2010-12-18 15:53;CYQR 181553Z 31014KT 15SM BKN010 OVC021 M14/ RMK SC6SC2

CYQR;2010-12-18 16:00;CYQR 181600Z 31014KT 15SM BKN010 OVC020 M14/M17 A2996 RMK SC7SC1 SLP195

CYQR;2010-12-18 16:20;CYQR 181620Z 32014KT 6SM -SN OVC009 M02/ RMK SC8

CYQR;2010-12-18 16:21;CYQR 181621Z CCA 32014KT 6SM -SN OVC009 M14/ RMK SC8

CYQR;2010-12-18 16:48;CYQR 181648Z 31013KT 3/4SM R13/P6000FT/D -SN VV005 M14/ RMK SN8

CYQR;2010-12-18 16:57;CYQR 181657Z 31013KT 1SM R13/P6000FT/U -SN OVC010 M13/ RMK SN2SC6

CYQR;2010-12-18 17:00;CYQR 181700Z 32013KT 1SM R13/P6000FT/N -SN OVC010 M13/M16 A2997 RMK SN2SC6 SLP196

CYQR;2010-12-18 17:13;CYQR 181713Z 31013KT 3SM -SN OVC010 M13/ RMK SC8

CYQR;2010-12-18 17:44;CYQR 181744Z 31014KT 3SM -SN OVC008 M13/ RMK SC8

CYQR;2010-12-18 18:00;CYQR 181800Z 31012KT 3SM -SN OVC009 M13/M16 A2996 RMK SC8 SLP193

CYQR;2010-12-18 19:00;CYQR 181900Z 31015KT 6SM -SN OVC009 M13/M16 A2994 RMK SC8 SLP187

CYQR;2010-12-18 20:00;CYQR 182000Z 30014KT 3SM -SN OVC008 M13/M16 A2993 RMK SC8 SLP184

CYQR;2010-12-18 21:00;CYQR 182100Z 29013KT 3SM -SN OVC009 M14/M16 A2991 RMK SC8 SLP177

CYQR;2010-12-18 22:00;CYQR 182200Z 31015KT 3SM -SN OVC007 M14/M16 A2990 RMK ST8 SLP172

CYQR;2010-12-18 22:35;CYQR 182235Z 33013KT 1SM R13/P6000FT/U -SN OVC007 M14/ RMK SN2ST6

CYQR;2010-12-18 22:55;CYQR 182255Z 34013KT 3SM -SN OVC007 M14/ RMK ST8

CYQR;2010-12-18 23:15;CYQR 182315Z 33013KT 2SM -SN OVC005 M14/ RMK ST8

CYQR;2010-12-18 23:34;CYQR 182334Z 34013KT 3SM -SN OVC006 M14/ RMK ST8

CYQR;2010-12-19 00:00;CYQR 190000Z 32012KT 3SM -SN OVC007 M14/M16 A2986 RMK ST8 SLP159

CYQR;2010-12-19 01:00;CYQR 190100Z 29015KT 3SM -SN OVC006 M15/M17 A2986 RMK ST8 SLP160

CYQR;2010-12-19 02:00;CYQR 190200Z 29014KT 12SM -SN DRSN OVC007 M15/M17 A2986 RMK SC8 SLP158

CYQR;2010-12-19 03:00;CYQR 190300Z 29013KT 10SM -SN DRSN OVC007 M15/M18 A2986 RMK SC8 SLP159

CYQR;2010-12-19 04:00;CYQR 190400Z 30014KT 10SM -SN DRSN OVC007 M15/M18 A2984 RMK SC8 SLP153

CYQR;2010-12-19 05:00;CYQR 190500Z 32012KT 10SM -SN DRSN OVC006 M15/M18 A2982 RMK SC8 SLP148

CYQR;2010-12-19 06:00;CYQR 190600Z 31011KT 10SM -SN DRSN OVC006 M15/M17 A2981 RMK SC8 SLP143

CYQR;2010-12-19 07:00;CYQR 190700Z 28012KT 15SM -SN DRSN OVC014 M15/M18 A2979 RMK SC8 SLP137

CYQR;2010-12-19 07:34;CYQR 190734Z 29014KT 15SM -SN DRSN SCT012 OVC026 M16/ RMK SC4SC4

CYQR;2010-12-19 08:00;CYQR 190800Z 29014KT 15SM -SN DRSN FEW012 OVC023 M16/M19 A2977 RMK SC2SC6 SLP130

CYQR;2010-12-19 08:51;CYQR 190851Z 29015KT 15SM -SN DRSN OVC009 M16/ RMK SC8

CYQR;2010-12-19 09:00;CYQR 190900Z 29015KT 15SM -SN DRSN OVC009 M16/M19 A2977 RMK SC8 SLP131

CYQR;2010-12-19 10:00;CYQR 191000Z 30015KT 12SM -SN DRSN OVC005 M16/M19 A2976 RMK SC8 SLP126

CYQR;2010-12-19 11:00;CYQR 191100Z 30012KT 15SM -SN OVC007 M16/M19 A2974 RMK SC8 SLP122

CYQR;2010-12-19 12:00;CYQR 191200Z 28011KT 15SM -SN DRSN OVC006 M16/M19 A2973 RMK SC8 SLP116

CYQR;2010-12-19 13:00;CYQR 191300Z 28016KT 12SM -SN DRSN OVC009 M15/M18 A2972 RMK SC8 SLP115

CYQR;2010-12-19 14:00;CYQR 191400Z 29016KT 12SM -SN DRSN OVC011 M15/M18 A2972 RMK SC8 SLP114

CYQR;2010-12-19 15:00;CYQR 191500Z 28014KT 15SM -SN DRSN OVC015 M15/M17 A2973 RMK SC8 SLP118

CYQR;2010-12-19 15:17;CYQR 191517Z 29014KT 2SM -SN DRSN OVC015 M14/ RMK SC8

CYQR;2010-12-19 15:25;CYQR 191525Z 29013KT 1 1/2SM -SN DRSN OVC012 M14/ RMK SC8

CYQR;2010-12-19 15:47;CYQR 191547Z 28013KT 2SM -SN DRSN OVC009 M14/ RMK SC8

CYQR;2010-12-19 16:42;CYQR 191642Z 28014KT 3SM -SN DRSN OVC016 M14/ RMK SC8

CYQR;2010-12-19 17:00;CYQR 191700Z 27015KT 2 1/2SM -SN DRSN BKN013 OVC030 M13/M16 A2972 RMK SC7SC1 SLP115

CYQR;2010-12-19 17:16;CYQR 191716Z 27013KT 4SM -SN DRSN BKN013 OVC030 M13/ RMK SC6SC2

CYQR;2010-12-19 17:39;CYQR 191739Z 28016KT 6SM -SN DRSN SCT013 BKN024 OVC036 M13/ RMK SC2SC3SC2

CYQR;2010-12-19 18:00;CYQR 191800Z 28015KT 15SM -SN DRSN FEW013 BKN024 OVC036 M13/M16 A2971 RMK SC1SC6SC1 SLP107

CYQR;2010-12-19 18:30;CYQR 191830Z 28013KT 15SM DRSN BKN022 OVC034 M12/ RMK SC6SC2

CYQR;2010-12-19 19:00;CYQR 191900Z 28015KT 15SM DRSN FEW012 BKN024 OVC035 M12/M15 A2971 RMK SC1SC6SC2 SLP108

CYQR;2010-12-19 20:00;CYQR 192000Z 29015KT 15SM DRSN FEW012 SCT028 BKN092 OVC200 M12/M15 A2969 RMK SC1SC2AC4CI0 SLP102

CYQR;2010-12-19 21:00;CYQR 192100Z 29015KT 15SM DRSN BKN020 OVC085 M11/M14 A2970 RMK SC6AC2 SLP103

CYQR;2010-12-19 21:11;CYQR 192111Z 28014KT 15SM -SN DRSN BKN020 OVC085 M11/ RMK SC6AC2

CYQR;2010-12-19 22:00;CYQR 192200Z 28012KT 15SM -SN DRSN OVC017 M11/M14 A2971 RMK SC8 SLP109

CYQR;2010-12-19 23:00;CYQR 192300Z 27007KT 15SM BKN015 BKN042 M12/M15 A2973 RMK SC5SC2 SLP114

CYQR;2010-12-20 00:00;CYQR 200000Z 26008KT 15SM SCT011 BKN040 M16/M19 A2972 RMK SC1SC2 SLP116

CYQR;2010-12-20 01:00;CYQR 200100Z 25007KT 15SM FEW010 BKN030 M16/M19 A2973 RMK SF1SC2 SLP119

CYQR;2010-12-20 02:00;CYQR 200200Z 25009KT 15SM FEW007 FEW030 BKN090 M15/M17 A2973 RMK SF1SC2AC1 SLP117

CYQR;2010-12-20 02:29;CYQR 200229Z 28005KT 15SM -SN BKN005 BKN090 M16/ RMK SC6AC2

CYQR;2010-12-20 02:50;CYQR 200250Z 30005KT 15SM FEW010 BKN090 M15/ RMK SF2AC1

CYQR;2010-12-20 03:00;CYQR 200300Z 29007KT 15SM FEW015 BKN090 M15/M18 A2971 RMK SF2AC1 SLP109

CYQR;2010-12-20 04:00;CYQR 200400Z 25008KT 15SM SCT019 BKN090 M18/M21 A2973 RMK SC3AC1 SLP115

CYQR;2010-12-20 05:00;CYQR 200500Z 27004KT 15SM BKN017 BKN080 M16/M19 A2973 RMK SC5AC1 SLP116

CYQR;2010-12-20 06:00;CYQR 200600Z 00000KT 15SM FEW020 SCT080 M18/M21 A2972 RMK SC1AC1 SLP114

CYQR;2010-12-20 07:00;CYQR 200700Z 21008KT 15SM FEW017 BKN250 M21/M25 A2976 RMK SC2CI0 SLP129

CYQR;2010-12-20 08:00;CYQR 200800Z 25003KT 15SM SCT017 BKN026 M20/M23 A2976 RMK SC3SC2 SLP128

CYQR;2010-12-20 09:00;CYQR 200900Z 06002KT 15SM FEW015 SCT026 BKN250 M20/M21 A2974 RMK SC1SC2CI0 SLP122

CYQR;2010-12-20 10:00;CYQR 201000Z 00000KT 15SM FEW020 FEW080 BKN250 M19/M21 A2974 RMK SC2AC1CI0 SLP122

CYQR;2010-12-20 11:00;CYQR 201100Z 11003KT 15SM FEW020 SCT090 OVC250 M22/M25 A2974 RMK SC2AC2CI1 SLP121

CYQR;2010-12-20 11:47;CYQR 201147Z 17002KT 15SM FEW005 OVC090 M22/ RMK SF2AC6

CYQR;2010-12-20 12:00;CYQR 201200Z 00000KT 15SM -SN BKN004 OVC090 M22/M25 A2976 RMK SC5AC3 SLP134

CYQR;2010-12-20 12:23;CYQR 201223Z 06003KT 15SM -SN OVC015 M21/ RMK SC8

CYQR;2010-12-20 12:36;CYQR 201236Z 08003KT 15SM -SN OVC013 M20/ RMK SC8

CYQR;2010-12-20 13:00;CYQR 201300Z 09003KT 15SM -SN OVC013 M18/M21 A2975 RMK SC8 SLP130

CYQR;2010-12-20 14:00;CYQR 201400Z 10002KT 15SM -SN BKN010 OVC030 M16/M19 A2976 RMK SC5SC3 SLP135

CYQR;2010-12-20 15:00;CYQR 201500Z 17002KT 8SM -SN OVC012 M15/M18 A2980 RMK SC8 SLP140

CYQR;2010-12-20 16:00;CYQR 201600Z 14003KT 8SM -SN OVC014 M16/M18 A2982 RMK SC8 SLP148

CYQR;2010-12-20 17:00;CYQR 201700Z 08003KT 10SM -SN FEW003 BKN012 OVC050 M15/M17 A2982 RMK SC2SC3SC3 SLP147

CYQR;2010-12-20 17:35;CYQR 201735Z 07004KT 10SM -SN SCT012 BKN050 OVC080 M14/ RMK SC3SC2AC2

CYQR;2010-12-20 18:00;CYQR 201800Z 04006KT 10SM -SN FEW012 SCT050 OVC080 M14/M16 A2981 RMK SC2SC2AC4 SLP147

CYQR;2010-12-20 18:21;CYQR 201821Z 05005KT 10SM FEW012 BKN050 OVC080 M13/ RMK SC2SC2AC4

CYQR;2010-12-20 19:00;CYQR 201900Z 08003KT 10SM FEW012 BKN050 OVC080 M13/M15 A2982 RMK SC2SC2AC4 SLP149

CYQR;2010-12-20 20:00;CYQR 202000Z 00000KT 12SM FEW012 BKN030 OVC076 M12/M15 A2983 RMK SC2SC2AC4 SLP154

CYQR;2010-12-20 20:18;CYQR 202018Z 34004KT 12SM -SN FEW012 BKN030 OVC066 M13/ RMK SC2SC4AC2

CYQR;2010-12-20 20:40;CYQR 202040Z 34005KT 12SM -SN BKN012 OVC030 M13/ RMK SC5SC3

CYQR;2010-12-20 21:00;CYQR 202100Z 05005KT 12SM -SN BKN012 OVC030 M13/M16 A2985 RMK SC5SC3 SLP159

CYQR;2010-12-20 22:00;CYQR 202200Z 04005KT 12SM -SN SCT012 BKN054 OVC087 M13/M16 A2987 RMK SC3SC3AC2 SLP167

CYQR;2010-12-20 23:00;CYQR 202300Z 01005KT 10SM -SN BKN024 OVC076 M13/M16 A2990 RMK SC6AC2 SLP176

CYQR;2010-12-21 00:00;CYQR 210000Z 34010KT 12SM -SN OVC022 M14/M18 A2992 RMK SC8 SLP189

CYQR;2010-12-21 00:35;CYQR 210035Z 36006KT 15SM BKN031 OVC096 M14/ RMK SC6AC2

CYQR;2010-12-21 01:00;CYQR 210100Z 36004KT 15SM SCT038 OVC094 M15/M18 A2993 RMK SC4AC2 SLP191

CYQR;2010-12-21 02:46;CYQR 210246Z 36006KT 15SM -SN OVC056 M14/ RMK SC8

CYQR;2010-12-21 03:00;CYQR 210300Z 01004KT 15SM -SN OVC050 M14/M18 A2996 RMK SC8 SLP197

CYQR;2010-12-21 04:00;CYQR 210400Z 36003KT 15SM -SN OVC068 M15/M18 A2997 RMK AC6 SLP201

CYQR;2010-12-21 05:00;CYQR 210500Z 34006KT 15SM -SN OVC071 M16/M19 A2998 RMK AC6 SLP203

CYQR;2010-12-21 05:48;CYQR 210548Z 34005KT 15SM FEW058 BKN066 OVC250 M15/ RMK SC2AC2CI2

CYQR;2010-12-21 06:00;CYQR 210600Z 35003KT 15SM FEW058 BKN066 OVC250 M15/M19 A3000 RMK SC2AC2CI2 SLP209

CYQR;2010-12-21 08:13;CYQR 210813Z 34006KT 12SM -SN BKN014 OVC072 M15/ RMK SC6AC2

CYQR;2010-12-21 09:00;CYQR 210900Z 01005KT 15SM -SN BKN016 M16/M19 A3007 RMK SC5 SLP233

CYQR;2010-12-21 10:00;CYQR 211000Z 06005KT 15SM -SN FEW010 SCT016 BKN076 M17/M20 A3008 RMK SC2SC2AC2 SLP237

CYQR;2010-12-21 11:00;CYQR 211100Z 04002KT 15SM FEW016 OVC083 M18/M22 A3010 RMK SC1AC5 SLP242

CYQR;2010-12-21 13:00;CYQR 211300Z 26003KT 15SM FEW040 OVC080 M16/M20 A3011 RMK SC2AC6 SLP250

CYQR;2010-12-21 14:00;CYQR 211400Z 00000KT 15SM OVC096 M16/M19 A3014 RMK AC7 SLP258

CYQR;2010-12-21 15:00;CYQR 211500Z 20002KT 15SM FEW075 BKN230 BKN280 M16/M20 A3016 RMK AC2CI2CI2 SLP265

CYQR;2010-12-21 16:00;CYQR 211600Z 21003KT 12SM FEW230 SCT280 M17/M21 A3018 RMK CI1CI0 SLP271

CYQR;2010-12-21 17:00;CYQR 211700Z 22005KT 12SM FEW300 M17/M21 A3019 RMK CI1 SLP276

CYQR;2010-12-21 18:00;CYQR 211800Z 20003KT 15SM FEW300 M17/M22 A3020 RMK CI0 SLP282

CYQR;2010-12-21 19:00;CYQR 211900Z 18004KT 15SM FEW300 M15/M19 A3021 RMK CI0 SLP284

CYQR;2010-12-21 20:00;CYQR 212000Z 20004KT 15SM FEW300 M15/M19 A3022 RMK CI1 SLP286

CYQR;2010-12-21 21:00;CYQR 212100Z 21003KT 15SM FEW300 M14/M19 A3023 RMK CI1 SLP291

CYQR;2010-12-21 22:00;CYQR 212200Z 17004KT 15SM FEW260 M16/M20 A3025 RMK CI1 SLP297

CYQR;2010-12-21 23:00;CYQR 212300Z 12010KT 15SM FEW260 M16/M20 A3026 RMK CI1 SLP300

CYQR;2010-12-22 00:00;CYQR 220000Z 13010KT 15SM FEW260 M16/M20 A3027 RMK CI1 SLP306

CYQR;2010-12-22 01:00;CYQR 220100Z 13011KT 15SM SKC M16/M20 A3027 RMK SLP306

CYQR;2010-12-22 02:00;CYQR 220200Z 14011KT 15SM SKC M16/M19 A3028 RMK SLP308

CYQR;2010-12-22 03:00;CYQR 220300Z 14013KT 15SM SKC M17/M20 A3029 RMK SLP312

CYQR;2010-12-22 04:00;CYQR 220400Z 14012KT 15SM SKC M18/M22 A3030 RMK SLP314

CYQR;2010-12-22 05:00;CYQR 220500Z 14011KT 15SM SKC M19/M22 A3030 RMK SLP315

CYQR;2010-12-22 06:00;CYQR 220600Z 14012KT 15SM FEW001 M19/M23 A3031 RMK ST1 CLD LYR OVR CITY SLP323

CYQR;2010-12-22 06:50;CYQR 220650Z 14012KT 15SM BKN004 M19/ RMK ST3

CYQR;2010-12-22 07:00;CYQR 220700Z 14012KT 15SM BKN004 M18/M22 A3032 RMK ST4 SLP324

CYQR;2010-12-22 08:00;CYQR 220800Z 14010KT 15SM SCT004 M18/M21 A3032 RMK ST1 SLP324

CYQR;2010-12-22 08:20;CYQR 220820Z CCA 14012KT 15SM FEW004 M17/ RMK ST1

CYQR;2010-12-22 09:00;CYQR 220900Z 14015KT 12SM -SN SCT002 M16/M20 A3032 RMK ST2 SLP320

CYQR;2010-12-22 09:21;CYQR 220921Z 15013KT 2SM -SN BR BKN002 M16/ RMK ST5

CYQR;2010-12-22 10:00;CYQR 221000Z 16013KT 2SM -SN BR OVC002 M15/M18 A3032 RMK ST6 SLP321

CYQR;2010-12-22 11:00;CYQR 221100Z 15017KT 1 1/2SM -SN BR OVC002 M14/M17 A3031 RMK ST6 SLP318

CYQR;2010-12-22 12:00;CYQR 221200Z 14016KT 1 1/2SM -SN DRSN BR OVC002 M15/M18 A3032 RMK ST5 SLP320

CYQR;2010-12-22 12:21;CYQR 221221Z 14017KT 1 1/2SM -SN DRSN BR SCT003 M14/ RMK SN1ST2

CYQR;2010-12-22 12:35;CYQR 221235Z 14017KT 3SM -SN DRSN FEW003 M14/ RMK ST2

CYQR;2010-12-22 12:49;CYQR 221249Z 14016KT 6SM IC DRSN FEW003 M15/ RMK ST1 IC

CYQR;2010-12-22 13:00;CYQR 221300Z CCA 13018KT 8SM DRSN FEW002 M15/M18 A3030 RMK ST1 IC SLP316

CYQR;2010-12-22 13:47;CYQR 221347Z 14014KT 2 1/2SM IC DRSN FEW002 M15/ RMK SF1

CYQR;2010-12-22 14:00;CYQR 221400Z 13013KT 2SM IC DRSN FEW002 M15/M19 A3030 RMK SF1 SLP314

CYQR;2010-12-22 14:10;CYQR 221410Z CCA 14014KT 5SM IC DRSN FEW003 FEW075 M15/ RMK SF1AC1 VIS W 2SM

CYQR;2010-12-22 15:00;CYQR 221500Z 14016KT 8SM DRSN FEW006 FEW075 M16/M19 A3029 RMK SF1AC1 IC SLP313

CYQR;2010-12-22 16:00;CYQR 221600Z 14019KT 8SM DRSN FEW075 M15/M19 A3029 RMK IC1AC1 VIS S-W 2 SLP313

CYQR;2010-12-22 16:26;CYQR 221626Z 15017KT 1 1/2SM IC DRSN SKC M16/ RMK IC2 VIS E 4

CYQR;2010-12-22 16:43;CYQR 221643Z 14014G19KT 2SM IC DRSN SKC M16/ RMK IC2

CYQR;2010-12-22 17:00;CYQR 221700Z 14016KT 3SM IC DRSN SKC M15/M19 A3031 RMK IC2 VIS SW-NW 2 SLP318

CYQR;2010-12-22 18:00;CYQR 221800Z 13015G21KT 5SM IC DRSN FEW300 M15/M19 A3029 RMK CI1 SLP313

CYQR;2010-12-22 19:00;CYQR 221900Z 14016KT 12SM DRSN FEW260 M15/M18 A3028 RMK CI1 IC SLP310

CYQR;2010-12-22 20:00;CYQR 222000Z 14018KT 15SM DRSN FEW260 M15/M18 A3026 RMK CI0 SLP305

CYQR;2010-12-22 21:00;CYQR 222100Z 13017KT 15SM DRSN FEW260 M15/M18 A3026 RMK CI1 SLP300

CYQR;2010-12-22 22:00;CYQR 222200Z 13014KT 15SM DRSN FEW260 M15/M19 A3026 RMK CI1 SLP302

CYQR;2010-12-22 23:00;CYQR 222300Z 12017KT 15SM DRSN FEW260 M16/M19 A3025 RMK CI1 SLP299

CYQR;2010-12-23 00:00;CYQR 230000Z 13019KT 15SM DRSN FEW260 M15/M19 A3025 RMK CI2 SLP296

CYQR;2010-12-23 01:00;CYQR 230100Z 13014KT 15SM DRSN FEW260 M16/M20 A3025 RMK CI1 SLP297

CYQR;2010-12-23 02:00;CYQR 230200Z 14015KT 15SM SKC M17/M21 A3025 RMK SLP296

CYQR;2010-12-23 03:00;CYQR 230300Z 13013KT 15SM DRSN SKC M17/M21 A3025 RMK SLP298

CYQR;2010-12-23 04:00;CYQR 230400Z 13015KT 15SM SKC M17/M21 A3024 RMK SLP296

CYQR;2010-12-23 05:00;CYQR 230500Z 13017KT 15SM DRSN SKC M17/M21 A3024 RMK SLP296

CYQR;2010-12-23 06:00;CYQR 230600Z 14017KT 15SM DRSN SCT011 OVC022 M16/M20 A3025 RMK SC3SC5 SLP296

CYQR;2010-12-23 06:49;CYQR 230649Z 13019G26KT 12SM -SN DRSN BKN010 OVC028 M15/ RMK SC5SC3

CYQR;2010-12-23 07:00;CYQR 230700Z 13019KT 12SM -SN DRSN BKN011 OVC030 M15/M18 A3023 RMK SC6SC2 SLP291

CYQR;2010-12-23 07:26;CYQR 230726Z 14020KT 12SM -SN DRSN OVC009 M14/ RMK SC8

CYQR;2010-12-23 08:00;CYQR 230800Z 13020KT 12SM -SN DRSN OVC008 M14/M17 A3021 RMK SC8 SLP286

CYQR;2010-12-23 09:00;CYQR 230900Z 13017G24KT 15SM -SN DRSN SCT009 SCT013 BKN035 M13/M17 A3023 RMK SC3SC1SC3 SLP287

CYQR;2010-12-23 10:00;CYQR 231000Z 13019KT 10SM -SN DRSN SCT011 OVC033 M13/M16 A3022 RMK SC4SC4 SLP285

CYQR;2010-12-23 10:15;CYQR 231015Z 14017G22KT 10SM -SN DRSN BKN010 OVC033 M13/ RMK SC6SC2

CYQR;2010-12-23 10:35;CYQR 231035Z 14018KT 10SM -SN DRSN BKN008 OVC033 M13/ RMK SC6SC2

CYQR;2010-12-23 11:00;CYQR 231100Z 13016KT 10SM -SN DRSN OVC008 M13/M16 A3020 RMK SC8 SLP280

CYQR;2010-12-23 12:00;CYQR 231200Z 13016KT 15SM -SN DRSN OVC009 M11/M14 A3020 RMK SC8 SLP278

CYQR;2010-12-23 12:07;CYQR 231207Z 13017KT 15SM DRSN OVC009 M11/ RMK SC8

CYQR;2010-12-23 12:35;CYQR 231235Z 13017KT 15SM DRSN OVC010 M11/ RMK SC8

CYQR;2010-12-23 13:00;CYQR 231300Z 13016G22KT 15SM DRSN OVC010 M11/M14 A3021 RMK SC8 SLP280

CYQR;2010-12-23 14:00;CYQR 231400Z 13015KT 15SM DRSN OVC010 M11/M13 A3023 RMK SC8 SLP285

CYQR;2010-12-23 14:07;CYQR 231407Z 13012G17KT 15SM DRSN OVC008 M11/ RMK SC8

CYQR;2010-12-23 14:50;CYQR 231450Z 12013KT 15SM DRSN OVC010 M11/ RMK SC8

CYQR;2010-12-23 15:00;CYQR 231500Z 13014KT 15SM DRSN OVC010 M11/M13 A3023 RMK SC8 SLP286

CYQR;2010-12-23 16:00;CYQR 231600Z 13017KT 15SM DRSN BKN011 OVC054 M10/M13 A3024 RMK SC6SC2 SLP290

CYQR;2010-12-23 17:00;CYQR 231700Z 13017KT 15SM DRSN BKN011 OVC047 M09/M12 A3024 RMK SC6SC2 SLP291

CYQR;2010-12-23 17:52;CYQR 231752Z 13017KT 15SM DRSN FEW012 OVC047 M09/ RMK SC2SC6

CYQR;2010-12-23 18:00;CYQR 231800Z 13018KT 15SM DRSN FEW012 OVC047 M09/M11 A3023 RMK SC2SC6 SLP286

CYQR;2010-12-23 18:41;CYQR 231841Z 14018G24KT 10SM -SN DRSN FEW012 OVC049 M09/ RMK SC2SC6

CYQR;2010-12-23 19:00;CYQR 231900Z 14020KT 10SM -SN SCT009 OVC049 M09/M11 A3023 RMK SC4SC4 SLP284

CYQR;2010-12-23 19:32;CYQR 231932Z 14017KT 15SM DRSN BKN009 OVC055 M09/ RMK SC6SC2

CYQR;2010-12-23 21:00;CYQR 232100Z 13015KT 15SM DRSN OVC008 M09/M11 A3023 RMK SC8 SLP284

CYQR;2010-12-23 22:00;CYQR 232200Z 13015G20KT 15SM DRSN OVC008 M08/M11 A3024 RMK SC8 SLP285

CYQR;2010-12-23 22:27;CYQR 232227Z 14016KT 15SM DRSN OVC010 M09/ RMK SC8

CYQR;2010-12-23 23:00;CYQR 232300Z 13015G20KT 15SM DRSN BKN010 OVC079 M09/M11 A3025 RMK SC7AC1 SLP290

CYQR;2010-12-24 00:00;CYQR 240000Z 14013KT 15SM DRSN BKN013 OVC060 M09/M11 A3026 RMK SC5SC3 SLP294

CYQR;2010-12-24 00:39;CYQR 240039Z 14015KT 15SM -SN DRSN OVC021 M09/ RMK SC8

CYQR;2010-12-24 01:00;CYQR 240100Z 13015KT 15SM -SN DRSN OVC021 M09/M11 A3027 RMK SC8 SLP295

CYQR;2010-12-24 02:00;CYQR 240200Z 14015KT 15SM -SN DRSN OVC018 M09/M11 A3028 RMK SC8 SLP298

CYQR;2010-12-24 02:27;CYQR 240227Z 14014KT 15SM DRSN OVC018 M09/ RMK SC8

CYQR;2010-12-24 03:00;CYQR 240300Z 14013KT 15SM -SN DRSN OVC018 M08/M11 A3028 RMK SC8 SLP299

CYQR;2010-12-24 04:00;CYQR 240400Z 13013KT 15SM -SN DRSN FEW010 OVC018 M08/M11 A3030 RMK SC2SC6 SLP303

CYQR;2010-12-24 05:00;CYQR 240500Z 13014KT 15SM -SN DRSN BKN009 OVC018 M08/M11 A3030 RMK SC5SC3 SLP304

CYQR;2010-12-24 05:26;CYQR 240526Z 14012KT 15SM -SN DRSN BKN010 OVC018 M08/ RMK SC5SC3

CYQR;2010-12-24 06:00;CYQR 240600Z 14016KT 15SM -SN DRSN SCT010 BKN021 OVC071 M08/M11 A3031 RMK SC3SC3AC2 SLP306

CYQR;2010-12-24 07:00;CYQR 240700Z 14013KT 15SM -SN DRSN BKN033 OVC069 M08/M11 A3031 RMK SC6AC2 SLP308

CYQR;2010-12-24 09:00;CYQR 240900Z 15012KT 15SM -SN DRSN SCT038 OVC069 M08/M11 A3033 RMK SC3AC5 SLP312

CYQR;2010-12-24 10:00;CYQR 241000Z 15011G16KT 15SM -SN DRSN BKN049 BKN067 M08/M11 A3034 RMK SC5AC2 SLP316

CYQR;2010-12-24 11:00;CYQR 241100Z 15011KT 15SM -SN DRSN SCT051 BKN067 M08/M11 A3035 RMK SC3AC4 SLP318

CYQR;2010-12-24 12:00;CYQR 241200Z 16012KT 15SM -SN DRSN FEW020 BKN065 M08/M11 A3035 RMK SC2SC6 SLP320

CYQR;2010-12-24 13:00;CYQR 241300Z 15009KT 15SM DRSN BKN065 M08/M11 A3035 RMK SC7 SLP322

CYQR;2010-12-24 14:00;CYQR 241400Z 14010KT 15SM DRSN OVC063 M08/M11 A3037 RMK SC8 SLP327

CYQR;2010-12-24 15:00;CYQR 241500Z 14012KT 15SM DRSN FEW010 BKN065 BKN250 M08/M11 A3037 RMK SC2SC4CI1 SLP329

CYQR;2010-12-24 16:00;CYQR 241600Z 14013KT 15SM DRSN SCT065 BKN250 M09/M11 A3038 RMK SC3CI1 SLP332

CYQR;2010-12-24 17:00;CYQR 241700Z 14016KT 15SM DRSN SCT063 BKN250 M08/M11 A3040 RMK SC3CI0 SLP336

CYQR;2010-12-24 18:00;CYQR 241800Z 14015KT 15SM SCT087 BKN250 M09/M11 A3040 RMK AC3CI1 SLP336

CYQR;2010-12-24 19:00;CYQR 241900Z 14014KT 15SM OVC017 M09/M11 A3039 RMK SC8 SLP333

CYQR;2010-12-24 20:00;CYQR 242000Z 15013KT 15SM OVC015 M09/M11 A3039 RMK SC8 SLP335

CYQR;2010-12-24 20:35;CYQR 242035Z 14015KT 15SM BKN005 BKN017 M09/ RMK SF3SC2

CYQR;2010-12-24 21:00;CYQR 242100Z 15014G19KT 10SM -SN DRSN BKN005 OVC017 M09/M11 A3038 RMK SF5SC2 SLP331

CYQR;2010-12-24 21:15;CYQR 242115Z 15014KT 15SM DRSN SCT005 SCT015 M09/ RMK SF2SC1

CYQR;2010-12-24 21:46;CYQR 242146Z 15014KT 10SM DRSN BKN005 BKN017 M09/ RMK SF5SC1

CYQR;2010-12-24 22:00;CYQR 242200Z 15015KT 10SM -SN DRSN BKN005 BKN017 M09/M12 A3038 RMK SF5SC1 SLP330

CYQR;2010-12-24 22:40;CYQR 242240Z 15017KT 6SM -SN DRSN FEW005 OVC013 M09/ RMK SF2SC6

CYQR;2010-12-24 23:00;CYQR 242300Z 14016KT 8SM -SN DRSN FEW005 OVC013 M09/M12 A3038 RMK SF2SC6 SLP332

CYQR;2010-12-25 00:00;CYQR 250000Z 15017KT 8SM -SN DRSN OVC011 M09/M11 A3038 RMK SC8 SLP331

CYQR;2010-12-25 01:00;CYQR 250100Z 16016KT 10SM -SN DRSN OVC013 M09/M11 A3037 RMK SC8 SLP329

CYQR;2010-12-25 02:00;CYQR 250200Z 15016KT 15SM -SN DRSN OVC010 M09/M12 A3038 RMK SC8 SLP332

CYQR;2010-12-25 02:48;CYQR 250248Z 15014KT 8SM -SN DRSN OVC008 M09/ RMK SC8

CYQR;2010-12-25 03:00;CYQR 250300Z 15015G20KT 8SM -SN DRSN OVC007 M09/M12 A3037 RMK SC8 SLP329

CYQR;2010-12-25 04:00;CYQR 250400Z 15019KT 8SM -SN DRSN OVC006 M09/M12 A3036 RMK SC8 SLP326

CYQR;2010-12-25 04:37;CYQR 250437Z 16018KT 3SM -SN DRSN OVC003 M09/ RMK ST8

CYQR;2010-12-25 05:00;CYQR 250500Z 16017G22KT 3SM -SN DRSN SCT003 OVC007 M09/M12 A3036 RMK ST4SC4 SLP324

CYQR;2010-12-25 05:29;CYQR 250529Z 15016KT 5SM -SN DRSN OVC005 M09/ RMK ST8

CYQR;2010-12-25 06:00;CYQR 250600Z 15016G21KT 8SM -SN DRSN OVC006 M09/M12 A3035 RMK ST8 SLP323

CYQR;2010-12-25 07:00;CYQR 250700Z 14019KT 10SM -SN DRSN OVC006 M09/M12 A3034 RMK ST8 SLP318

CYQR;2010-12-25 08:00;CYQR 250800Z 15020G27KT 10SM -SN DRSN OVC006 M09/M12 A3032 RMK ST8 SLP313

CYQR;2010-12-25 08:46;CYQR 250846Z 14020G25KT 10SM -SN DRSN FEW003 SCT006 OVC028 M10/ RMK SF2ST2SC2

CYQR;2010-12-25 09:00;CYQR 250900Z 15019G24KT 10SM -SN DRSN FEW003 SCT011 BKN028 M10/M13 A3033 RMK SF2SC2SC2 SLP314

CYQR;2010-12-25 10:00;CYQR 251000Z 15021KT 8SM -SN DRSN FEW003 BKN015 M10/M13 A3032 RMK SF2SC4 SLP313

CYQR;2010-12-25 12:43;CYQR 251243Z CCA 15016G22KT 5SM BLSN FEW003 SCT015 M12/ RMK SF1SC2

CYQR;2010-12-25 13:00;CYQR 251300Z 15022KT 5SM BLSN FEW003 SCT015 M12/M15 A3028 RMK SF1SC2 SLP299

CYQR;2010-12-25 14:00;CYQR 251400Z 15022G28KT 6SM BLSN FEW020 SCT250 M12/M15 A3025 RMK SC2CI0 SLP288

CYQR;2010-12-25 14:30;CYQR 251430Z 15021G26KT 1SM R13/P6000FT/N -SN BLSN SCT004 BKN250 M12/ RMK SF3CI0

CYQR;2010-12-25 15:00;CYQR 251500Z 15024G29KT 3/4SM R13/P6000FT/D -SN BLSN SCT004 BKN250 M12/M15 A3023 RMK SF3CI2 SLP283

CYQR;2010-12-25 16:00;CYQR 251600Z 14029G35KT 3/4SM R13/6000FT/D -SN BLSN FEW004 BKN220 M12/M15 A3020 RMK SF2CI2 SLP275

CYQR;2010-12-25 17:00;CYQR 251700Z 15022G27KT 3/4SM R13/5500FT/U -SN BLSN SCT004 BKN220 M12/M14 A3022 RMK SF3CI2 SLP281

CYQR;2010-12-25 17:41;CYQR 251741Z 14023G31KT 1SM R13/6000FT/U BLSN FEW004 BKN220 M11/ RMK SF2CI1

CYQR;2010-12-25 18:00;CYQR 251800Z 14025G31KT 1SM R13/P6000FT/D BLSN FEW004 BKN220 M11/M14 A3019 RMK SF2CI2 SLP269

CYQR;2010-12-25 19:00;CYQR 251900Z 14024G31KT 3/4SM R13/P6000FT/N -SN BLSN FEW003 SCT090 BKN220 M11/M14 A3017 RMK SF2AC2CI0 SLP261

CYQR;2010-12-25 20:00;CYQR 252000Z 15024G29KT 1SM R13/P6000FT/U -SN BLSN FEW003 SCT090 BKN220 M10/M13 A3014 RMK SF2AC2CI2 SLP252

CYQR;2010-12-25 21:00;CYQR 252100Z 15024KT 1SM R13/P6000FT/N -SN BLSN FEW004 SCT100 BKN250 M09/M12 A3011 RMK SF2AC2CI1 SLP241

CYQR;2010-12-25 21:50;CYQR 252150Z 15022G30KT 2SM BLSN FEW003 SCT100 OVC250 M09/ RMK SF1AC2CI1

CYQR;2010-12-25 22:00;CYQR 252200Z 15023G30KT 2SM BLSN FEW003 SCT100 OVC250 M09/M12 A3010 RMK SF1AC3CI1 SLP235

CYQR;2010-12-25 22:37;CYQR 252237Z 15024KT 4SM BLSN FEW003 SCT100 OVC250 M09/ RMK SF1AC2CI2

CYQR;2010-12-25 23:00;CYQR 252300Z 15027G33KT 3SM BLSN FEW003 BKN083 OVC250 M09/M11 A3006 RMK SF1AC4CI1 SLP225

CYQR;2010-12-26 01:00;CYQR 260100Z 14028KT 3SM BLSN OVC080 M09/M11 A3002 RMK SN2AC6 SLP211

CYQR;2010-12-26 02:00;CYQR 260200Z 14026KT 6SM BLSN SCT080 BKN280 M09/M12 A3000 RMK AC3CI1 SLP203

CYQR;2010-12-26 03:00;CYQR 260300Z 15022G28KT 6SM BLSN SCT080 BKN280 M09/M12 A2998 RMK AC3CI1 SLP197

CYQR;2010-12-26 04:00;CYQR 260400Z 15020G27KT 10SM DRSN SCT080 BKN280 M09/M12 A2997 RMK AC3CI1 SLP193

CYQR;2010-12-26 05:00;CYQR 260500Z 15023G29KT 10SM DRSN SCT080 BKN280 M09/M12 A2994 RMK AC3CI2 SLP184

CYQR;2010-12-26 06:00;CYQR 260600Z 15020KT 15SM DRSN SCT080 BKN280 M09/M11 A2992 RMK AC3CI1 SLP175

CYQR;2010-12-26 07:00;CYQR 260700Z 15021G29KT 15SM DRSN SCT080 BKN260 M08/M11 A2990 RMK AC3CI1 SLP168

CYQR;2010-12-26 08:00;CYQR 260800Z 15021G27KT 15SM DRSN SCT080 BKN280 M09/M11 A2987 RMK AC3CI1 SLP160

CYQR;2010-12-26 09:00;CYQR 260900Z 14020KT 15SM DRSN FEW080 BKN260 M09/M11 A2986 RMK AC2CI1 SLP151

CYQR;2010-12-26 10:00;CYQR 261000Z 14023KT 15SM DRSN SKC M09/M11 A2983 RMK SLP142

CYQR;2010-12-26 11:00;CYQR 261100Z 14019KT 15SM SKC M09/M11 A2981 RMK SLP136

CYQR;2010-12-26 12:00;CYQR 261200Z 14020KT 15SM SCT240 M09/M12 A2979 RMK CI1 SLP129

CYQR;2010-12-26 13:00;CYQR 261300Z CCA 14022KT 15SM DRSN SCT240 M09/M11 A2978 RMK CI1 SLP124

CYQR;2010-12-26 14:00;CYQR 261400Z 14021G26KT 15SM DRSN FEW025 SCT250 M09/M12 A2976 RMK SC1CI1 SLP120

CYQR;2010-12-26 15:00;CYQR 261500Z 14021G26KT 15SM DRSN FEW100 SCT250 M10/M12 A2975 RMK AC1CI1 SLP115

CYQR;2010-12-26 16:00;CYQR 261600Z 14023KT 15SM DRSN FEW090 SCT250 M09/M12 A2975 RMK AC1CI1 SLP115

CYQR;2010-12-26 17:00;CYQR 261700Z 14023KT 15SM DRSN FEW100 BKN250 M09/M12 A2974 RMK AC1CI1 SLP111

CYQR;2010-12-26 18:00;CYQR 261800Z 14023KT 15SM DRSN FEW100 BKN250 M09/M12 A2972 RMK AC2CI1 SLP103

CYQR;2010-12-26 19:00;CYQR 261900Z 15020G25KT 15SM DRSN FEW100 BKN250 M08/M11 A2971 RMK AC2CI2 SLP099

CYQR;2010-12-26 20:00;CYQR 262000Z 15021KT 15SM DRSN FEW100 BKN250 M08/M11 A2968 RMK AC1CI0 SLP090

CYQR;2010-12-26 21:00;CYQR 262100Z 14024KT 15SM DRSN FEW100 SCT250 M08/M11 A2965 RMK AC1CI0 SLP079

CYQR;2010-12-26 22:00;CYQR 262200Z 15024G30KT 15SM DRSN FEW100 SCT250 M08/M11 A2963 RMK AC1CI0 SLP072

CYQR;2010-12-26 23:00;CYQR 262300Z 15021G26KT 15SM DRSN FEW090 BKN250 M08/M11 A2962 RMK AC2CI1 SLP069

CYQR;2010-12-27 00:00;CYQR 270000Z 15017KT 15SM DRSN FEW100 SCT250 M08/M11 A2961 RMK AC1CI1 SLP068

CYQR;2010-12-27 01:00;CYQR 270100Z 15016KT 15SM DRSN FEW100 SCT250 M09/M12 A2960 RMK AC1CI0 SLP064

CYQR;2010-12-27 02:00;CYQR 270200Z 15013KT 15SM FEW100 SCT250 M10/M13 A2960 RMK AC1CI0 SLP063

CYQR;2010-12-27 03:00;CYQR 270300Z 14011KT 15SM SKC M10/M13 A2959 RMK SLP060

CYQR;2010-12-27 04:00;CYQR 270400Z 14010KT 15SM SKC M11/M14 A2957 RMK SLP054

CYQR;2010-12-27 05:00;CYQR 270500Z 14009KT 15SM SKC M12/M15 A2957 RMK SLP056

CYQR;2010-12-27 07:00;CYQR 270700Z 14007KT 15SM SKC M13/M16 A2958 RMK SLP058

CYQR;2010-12-27 08:00;CYQR 270800Z 14006KT 15SM SKC M13/M16 A2956 RMK SLP053

CYQR;2010-12-27 09:00;CYQR 270900Z 19005KT 15SM SKC M11/M14 A2956 RMK SLP049

CYQR;2010-12-27 10:00;CYQR 271000Z 24007KT 15SM SKC M10/M13 A2955 RMK SLP046

CYQR;2010-12-27 11:00;CYQR 271100Z 25011KT 15SM SKC M08/M11 A2954 RMK SLP044

CYQR;2010-12-27 12:00;CYQR 271200Z 25016KT 15SM SKC M07/M10 A2954 RMK SLP040

CYQR;2010-12-27 13:00;CYQR 271300Z 26011G17KT 15SM FEW100 OVC300 M04/M08 A2954 RMK AC2CI4 SLP041

CYQR;2010-12-27 15:00;CYQR 271500Z 27013KT 15SM FEW100 BKN300 M02/M05 A2955 RMK AC2CI5 SLP040

CYQR;2010-12-27 16:00;CYQR 271600Z 27013KT 15SM FEW100 BKN300 M03/M05 A2956 RMK AC1CI2 SLP044

CYQR;2010-12-27 17:00;CYQR 271700Z 27010KT 15SM FEW200 BKN300 M04/M07 A2957 RMK CI1CI3 SLP047

CYQR;2010-12-27 18:00;CYQR 271800Z 27011KT 15SM FEW100 SCT300 M03/M06 A2955 RMK AC1CI2 SLP044

CYQR;2010-12-27 19:00;CYQR 271900Z 31012KT 15SM FEW010 FEW100 BKN300 M04/M06 A2954 RMK SF1AC2CI4 SLP040

CYQR;2010-12-27 20:00;CYQR 272000Z 31013KT 15SM BKN057 BKN100 BKN300 M05/M07 A2954 RMK SC3AC1CI2 SLP040

CYQR;2010-12-27 20:31;CYQR 272031Z 32013KT 8SM -SN SCT021 OVC062 M05/ RMK SC4SC3

CYQR;2010-12-27 21:00;CYQR 272100Z 30016KT 12SM VCSH FEW007 OVC023 M05/M08 A2956 RMK SF1SC7 SLP047

CYQR;2010-12-27 21:14;CYQR 272114Z 30018KT 10SM BKN007 OVC026 M06/ RMK ST6SC2

CYQR;2010-12-27 21:45;CYQR 272145Z 31022KT 10SM FEW013 BKN026 BKN073 BKN300 M07/ RMK SF1SC5AC2CI1

CYQR;2010-12-27 22:00;CYQR 272200Z 30022KT 12SM FEW013 SCT026 BKN300 M08/M11 A2959 RMK SC1SC2CI2 SLP058

CYQR;2010-12-27 23:00;CYQR 272300Z 30020KT 12SM FEW030 FEW100 FEW300 M09/M13 A2962 RMK SC1AC1CI0 SLP066

CYQR;2010-12-28 00:00;CYQR 280000Z 30019KT 15SM FEW100 FEW300 M10/M14 A2964 RMK AC1CI1 SLP076

CYQR;2010-12-28 01:00;CYQR 280100Z 30013KT 12SM BKN066 M10/M13 A2966 RMK AC5 SLP081

CYQR;2010-12-28 02:00;CYQR 280200Z 28020KT 15SM BKN056 OVC071 M08/M11 A2965 RMK SC6AC2 SLP080

CYQR;2010-12-28 03:00;CYQR 280300Z 28012KT 15SM BKN071 M08/M11 A2964 RMK AC6 SLP071

CYQR;2010-12-28 04:00;CYQR 280400Z 30009KT 15SM FEW042 BKN095 M09/M12 A2964 RMK SC2AC2 SLP070

CYQR;2010-12-28 05:00;CYQR 280500Z 25006KT 15SM SCT045 M12/M15 A2965 RMK SC3 SLP072

CYQR;2010-12-28 07:00;CYQR 280700Z 25006KT 15SM SCT089 M08/M11 A2964 RMK AC3 SLP073

CYQR;2010-12-28 08:00;CYQR 280800Z 26011KT 15SM SCT094 M10/M13 A2964 RMK AC3 SLP073

CYQR;2010-12-28 09:00;CYQR 280900Z 25015KT 15SM SCT094 M09/M12 A2963 RMK AC3 SLP071

CYQR;2010-12-28 10:00;CYQR 281000Z 27011KT 15SM SCT086 M10/M13 A2963 RMK AC3 SLP071

CYQR;2010-12-28 11:00;CYQR 281100Z 25013KT 15SM SCT086 BKN260 M10/M13 A2962 RMK AC3CI1 SLP069

CYQR;2010-12-28 12:00;CYQR 281200Z 25009KT 15SM FEW090 BKN260 M12/M15 A2961 RMK AC2CI1 SLP070

CYQR;2010-12-28 13:00;CYQR 281300Z 27014KT 15SM FEW090 SCT260 M11/M14 A2959 RMK AC1CI1 SLP062

CYQR;2010-12-28 14:00;CYQR 281400Z 24009KT 15SM FEW260 M13/M16 A2957 RMK CI0 SLP058

CYQR;2010-12-28 15:00;CYQR 281500Z 24005KT 15SM FEW100 BKN270 M12/M15 A2956 RMK AC1CI0 SLP050

CYQR;2010-12-28 16:00;CYQR 281600Z 24005KT 15SM FEW100 SCT270 M12/M16 A2955 RMK AC1CI1 SLP047

CYQR;2010-12-28 17:00;CYQR 281700Z 16005KT 15SM FEW092 BKN270 M11/M15 A2954 RMK AC2CI4 SLP043

CYQR;2010-12-28 18:00;CYQR 281800Z 21006KT 15SM BKN055 BKN100 BKN270 M10/M14 A2951 RMK SC6AC1CI1 SLP034

CYQR;2010-12-28 19:00;CYQR 281900Z 18005KT 15SM FEW060 BKN100 BKN280 M09/M13 A2947 RMK SC2AC2CI1 SLP021

CYQR;2010-12-28 20:00;CYQR 282000Z 16005KT 15SM BKN048 BKN100 OVC280 M06/M11 A2942 RMK SC6AC2CI0 SLP006

CYQR;2010-12-28 21:00;CYQR 282100Z 11005KT 15SM SCT036 OVC084 M07/M11 A2939 RMK SC3AC5 SLP990

CYQR;2010-12-28 22:00;CYQR 282200Z 09009KT 15SM BKN024 BKN100 M06/M10 A2936 RMK SC7AC1 SLP980

CYQR;2010-12-28 22:02;CYQR 282202Z 10008KT 15SM -SN BKN024 BKN100 M07/ RMK SC7AC1

CYQR;2010-12-28 23:00;CYQR 282300Z 14009KT 15SM BKN024 BKN090 M07/M10 A2934 RMK SC2AC2 SLP974

CYQR;2010-12-29 00:00;CYQR 290000Z 15010KT 15SM BKN058 M06/M09 A2933 RMK SC6 SLP969

CYQR;2010-12-29 01:00;CYQR 290100Z 16010KT 15SM BKN072 M07/M09 A2931 RMK AC6 SLP963

CYQR;2010-12-29 02:00;CYQR 290200Z 18007KT 15SM BKN070 M08/M11 A2929 RMK AC5 SLP957

CYQR;2010-12-29 03:00;CYQR 290300Z 27004KT 15SM SCT070 M11/M13 A2929 RMK AC4 SLP959

CYQR;2010-12-29 04:00;CYQR 290400Z 28009KT 15SM SCT056 M11/M14 A2929 RMK SC3 SLP960

CYQR;2010-12-29 05:00;CYQR 290500Z 27009KT 15SM SCT051 M12/M15 A2930 RMK SC3 SLP963

CYQR;2010-12-29 06:00;CYQR 290600Z 28011KT 15SM SCT050 M14/M16 A2931 RMK SC3 SLP966

CYQR;2010-12-29 07:00;CYQR 290700Z 32008KT 15SM SCT050 M14/M17 A2930 RMK SC3 SLP965

CYQR;2010-12-29 08:00;CYQR 290800Z 29014KT 15SM SCT080 M14/M17 A2935 RMK AC3 SLP981

CYQR;2010-12-29 10:00;CYQR 291000Z 33009KT 15SM SCT080 BKN260 M16/M19 A2937 RMK AC3CI1 SLP986

CYQR;2010-12-29 11:00;CYQR 291100Z 33006KT 15SM SCT098 BKN260 M17/M20 A2936 RMK AC3CI1 SLP984

CYQR;2010-12-29 11:34;CYQR 291134Z CCA 35011KT 6SM -SN OVC004 M16/ RMK ST4

CYQR;2010-12-29 11:38;CYQR 291138Z 35011KT 6SM -SN OVC005 M16/ RMK ST5

CYQR;2010-12-29 11:54;CYQR 291154Z 35008KT 3SM -SN OVC004 M15/ RMK ST6

CYQR;2010-12-29 12:41;CYQR 291241Z 35013KT 2 1/2SM -SN BR OVC002 M14/ RMK FG2ST6

CYQR;2010-12-29 13:00;CYQR 291300Z 36013KT 1 1/2SM -SN BR OVC002 M14/M16 A2939 RMK FG2ST6 SLP994

CYQR;2010-12-29 13:27;CYQR 291327Z 01014KT 1 1/2SM -SN OVC003 M13/ RMK SN2ST6

CYQR;2010-12-29 14:00;CYQR 291400Z 36016KT 1 1/2SM -SN DRSN OVC004 M13/M16 A2939 RMK SN2ST6 SLP993

CYQR;2010-12-29 14:18;CYQR 291418Z 35013KT 2SM -SN DRSN OVC004 M13/ RMK ST7

CYQR;2010-12-29 15:09;CYQR 291509Z 36015KT 2SM -SN DRSN OVC004 M13/ RMK SN2ST6

CYQR;2010-12-29 15:22;CYQR 291522Z 35015KT 4SM -SN DRSN BKN006 OVC009 M13/ RMK SF5SC3

CYQR;2010-12-29 15:33;CYQR 291533Z 36012G18KT 5SM -SN FEW006 OVC010 M13/ RMK SF2SC6

CYQR;2010-12-29 16:00;CYQR 291600Z 36015G20KT 8SM -SN DRSN FEW006 OVC010 M13/M15 A2940 RMK SF2SC6 SLP997

CYQR;2010-12-29 17:00;CYQR 291700Z 36010KT 6SM -SN OVC012 M13/M16 A2945 RMK SC8 SLP013

CYQR;2010-12-29 18:00;CYQR 291800Z 36013KT 10SM -SN FEW006 OVC012 M13/M16 A2945 RMK SF1SC7 SLP017

CYQR;2010-12-29 19:00;CYQR 291900Z 36014KT 12SM -SN OVC014 M13/M17 A2947 RMK SC8 SLP024

CYQR;2010-12-29 19:27;CYQR 291927Z 36011KT 15SM OVC014 M13/ RMK SC8

CYQR;2010-12-29 19:38;CYQR 291938Z 36011KT 15SM -SHSN OVC014 M13/ RMK SC8

CYQR;2010-12-29 20:00;CYQR 292000Z 01012KT 15SM -SHSN OVC014 M14/M17 A2949 RMK SC8 OCNL -SHSN SLP029

CYQR;2010-12-29 21:00;CYQR 292100Z 36011KT 15SM BKN014 OVC100 M14/M18 A2950 RMK SC6AC1 SLP038

CYQR;2010-12-29 21:15;CYQR 292115Z 36013KT 15SM SCT014 OVC087 M14/ RMK SC3AS4

CYQR;2010-12-29 22:00;CYQR 292200Z 01012KT 15SM FEW014 FEW087 OVC300 M15/M18 A2951 RMK SC1AC2CI3 SLP041

CYQR;2010-12-29 23:00;CYQR 292300Z 35014KT 15SM SCT082 OVC300 M16/M20 A2954 RMK AC3CI2 SLP051

CYQR;2010-12-30 00:00;CYQR 300000Z 35014KT 15SM FEW086 BKN300 M17/M21 A2957 RMK AC2CI2 SLP063

CYQR;2010-12-30 01:00;CYQR 300100Z 35014KT 15SM FEW010 FEW079 SCT300 M18/M22 A2960 RMK SC1AC1CI1 SLP072

CYQR;2010-12-30 02:00;CYQR 300200Z 35015KT 15SM BKN085 BKN210 M18/M22 A2962 RMK AC6CI2 SLP080

CYQR;2010-12-30 03:00;CYQR 300300Z 35018KT 15SM -SN DRSN BKN081 OVC210 M19/M23 A2966 RMK AC6CI2 SLP094

CYQR;2010-12-30 04:00;CYQR 300400Z 35013KT 15SM DRSN SCT088 OVC210 M19/M23 A2970 RMK AC4CI4 SLP107

CYQR;2010-12-30 05:00;CYQR 300500Z 35011KT 15SM DRSN BKN085 OVC210 M20/M24 A2973 RMK AC3CI3 SLP116

CYQR;2010-12-30 06:00;CYQR 300600Z 35011KT 15SM DRSN FEW085 BKN210 M20/M24 A2976 RMK AC1CI3 SLP128

CYQR;2010-12-30 07:00;CYQR 300700Z 34008KT 15SM FEW081 BKN210 M21/M24 A2979 RMK AC1CI2 SLP138

CYQR;2010-12-30 08:00;CYQR 300800Z 32008KT 15SM FEW010 FEW094 SCT210 M22/M25 A2981 RMK SC1AC1CI2 SC TR SLP147

CYQR;2010-12-30 09:00;CYQR 300900Z 32011KT 15SM SKC M22/M26 A2984 RMK SLP160

CYQR;2010-12-30 10:00;CYQR 301000Z 32011KT 15SM SKC M23/M28 A2987 RMK SLP169

CYQR;2010-12-30 11:00;CYQR 301100Z 35006KT 15SM SKC M24/M29 A2988 RMK SLP173

CYQR;2010-12-30 11:33;CYQR 301133Z 34011KT 15SM FEW004 M24/ RMK SF1 SF TR E OVR CITY

CYQR;2010-12-30 12:00;CYQR 301200Z 34012KT 15SM FEW003 M24/M29 A2989 RMK SF1 SF TR E OVR CITY SLP181

CYQR;2010-12-30 13:00;CYQR 301300Z 36010KT 15SM FEW003 M24/M29 A2990 RMK SF1 SF OVR CITY SLP185

CYQR;2010-12-30 14:00;CYQR 301400Z 34009KT 15SM FEW004 M25/M30 A2993 RMK SF1 SLP194

CYQR;2010-12-30 15:00;CYQR 301500Z 31008KT 15SM FEW001 FEW150 FEW220 M26/M31 A2996 RMK SF1AC1CI1 SF TR SLP210

CYQR;2010-12-30 16:00;CYQR 301600Z 30006KT 15SM FEW150 FEW220 M27/M32 A3000 RMK AC1CI1 SLP223

CYQR;2010-12-30 17:00;CYQR 301700Z 30008KT 15SM FEW150 BKN220 M25/M30 A3003 RMK AC1CI1 SLP232

CYQR;2010-12-30 18:00;CYQR 301800Z 34008KT 15SM SCT150 BKN220 M23/M28 A3002 RMK AC2CI1 SLP227

CYQR;2010-12-30 19:00;CYQR 301900Z 34012KT 15SM SCT150 BKN220 M22/M27 A3000 RMK AC2CI2 SLP223

CYQR;2010-12-30 20:00;CYQR 302000Z 33010KT 15SM FEW010 FEW150 BKN220 M21/M26 A3002 RMK SC1AC1CI4 SLP229

CYQR;2010-12-30 21:00;CYQR 302100Z 32009KT 15SM FEW150 BKN220 BKN250 M21/M26 A3004 RMK AC1CI2CS3 HALO SLP235

CYQR;2010-12-30 22:00;CYQR 302200Z 34014KT 15SM FEW150 BKN220 BKN250 M20/M26 A3003 RMK AC1CI2CI3 CS ASOCTD SLP232

CYQR;2010-12-30 23:00;CYQR 302300Z 34016KT 15SM FEW150 SCT220 BKN250 M21/M26 A3002 RMK AC1CI2CI4 SLP229

CYQR;2010-12-31 00:00;CYQR 310000Z 34015KT 15SM FEW150 SCT220 BKN250 M20/M25 A3005 RMK AC1CI2CI3 SLP241

CYQR;2010-12-31 01:00;CYQR 310100Z 34014KT 15SM BKN250 M20/M25 A3007 RMK CI6 SLP247

CYQR;2010-12-31 02:00;CYQR 310200Z 34014KT 15SM SCT089 OVC250 M20/M25 A3008 RMK AC3CI5 SLP249

CYQR;2010-12-31 03:00;CYQR 310300Z 34014KT 15SM BKN087 OVC250 M20/M25 A3010 RMK AC5CI3 SLP256

CYQR;2010-12-31 04:00;CYQR 310400Z 34012KT 15SM OVC085 M20/M25 A3012 RMK AC8 SLP263

CYQR;2010-12-31 05:00;CYQR 310500Z 35008KT 15SM OVC080 M20/M25 A3014 RMK AC8 OBS TAKEN -08 SLP269

CYQR;2010-12-31 06:00;CYQR 310600Z 34009KT 15SM OVC080 M20/M25 A3015 RMK AC8 SLP271

CYQR;2010-12-31 07:00;CYQR 310700Z 34011KT 15SM BKN068 OVC080 M20/M25 A3015 RMK AC6AC2 SLP271

CYQR;2010-12-31 08:00;CYQR 310800Z 35011KT 15SM BKN068 M21/M26 A3014 RMK AC4 SLP269

CYQR;2010-12-31 09:00;CYQR 310900Z 35011KT 15SM OVC064 M21/M26 A3015 RMK SC6 SLP271

CYQR;2010-12-31 10:00;CYQR 311000Z 36008KT 15SM BKN085 M21/M26 A3014 RMK AC6 SLP268

CYQR;2010-12-31 11:00;CYQR 311100Z 35008KT 15SM SCT075 M22/M27 A3013 RMK AC2 SLP266

CYQR;2010-12-31 12:00;CYQR 311200Z 33009KT 15SM FEW002 FEW210 M23/M28 A3014 RMK SF1CI0 SF TR NE SLP270

CYQR;2010-12-31 13:00;CYQR 311300Z 32007KT 15SM SKC M24/M29 A3016 RMK SLP276

CYQR;2010-12-31 14:00;CYQR 311400Z 30008KT 15SM FEW080 M26/M30 A3018 RMK AC1 SLP281

CYQR;2010-12-31 15:00;CYQR 311500Z 32008KT 15SM FEW080 FEW300 M26/M31 A3016 RMK AC1CI1 CC ASOCTD SLP280

CYQR;2010-12-31 16:00;CYQR 311600Z CCA 32006KT 15SM FEW080 SCT300 M26/M31 A3016 RMK AC1CI2 CC ASOCTD SLP280

CYQR;2010-12-31 17:00;CYQR 311700Z 32007KT 15SM FEW300 M26/M31 A3016 RMK CI2 CC ASOCTD SLP280

CYQR;2010-12-31 18:00;CYQR 311800Z 32004KT 15SM BKN300 M26/M31 A3015 RMK CI3 CC ASOCTD SLP276

CYQR;2010-12-31 19:00;CYQR 311900Z 32006KT 15SM SCT300 M24/M29 A3012 RMK CI0 SLP266

CYQR;2010-12-31 20:00;CYQR 312000Z 27003KT 15SM SCT300 M22/M28 A3012 RMK CI2 SLP265

CYQR;2010-12-31 21:00;CYQR 312100Z 31004KT 15SM BKN300 M22/M28 A3011 RMK CI5 SLP258

CYQR;2010-12-31 22:00;CYQR 312200Z 30004KT 15SM BKN300 M22/M28 A3010 RMK CI2 SLP254

CYQR;2010-12-31 23:00;CYQR 312300Z 30004KT 15SM FEW300 M23/M28 A3009 RMK CI0 SLP252

