CYWG;2011-01-01 00:00;CYWG 010000Z 01021KT 15SM SCT100 BKN250 M20/M25 A2998 RMK AC3CI3 SLP178

CYWG;2011-01-01 01:00;CYWG 010100Z 02021KT 15SM FEW100 OVC250 M19/M24 A2996 RMK AC2CI4 SLP174

CYWG;2011-01-01 02:00;CYWG 010200Z 02022G28KT 15SM SCT100 OVC250 M19/M24 A2993 RMK AC3CI4 SLP164

CYWG;2011-01-01 03:00;CYWG 010300Z 02020KT 15SM SCT087 OVC250 M18/M23 A2996 RMK AC4CI4 SLP172

CYWG;2011-01-01 04:00;CYWG 010400Z 02017KT 15SM OVC120 M18/M23 A2996 RMK AC8 SLP172

CYWG;2011-01-01 05:00;CYWG 010500Z 02024KT 15SM OVC120 M18/M23 A2990 RMK AC8 PRESFR SLP152

CYWG;2011-01-01 05:07;CYWG 010507Z 02023KT 15SM -SN OVC120 M18/ RMK AC8

CYWG;2011-01-01 07:00;CYWG 010700Z 02020G26KT 15SM OVC070 M18/M22 A2982 RMK AC8 SLP124

CYWG;2011-01-01 08:00;CYWG 010800Z 01022KT 10SM -SN DRSN OVC060 M18/M22 A2979 RMK SC8 SLP114

CYWG;2011-01-01 09:00;CYWG 010900Z 01023G28KT 10SM -SN DRSN BKN039 OVC082 M17/M22 A2977 RMK SC6AC2 SLP106

CYWG;2011-01-01 10:00;CYWG 011000Z 36021KT 4SM -SN BLSN OVC024 M17/M22 A2975 RMK SC8 SLP099

CYWG;2011-01-01 11:00;CYWG 011100Z CCA 36022KT 15SM DRSN BKN049 OVC097 M16/M21 A2974 RMK SC6AC2 OBS TKN +14 SLP095

CYWG;2011-01-01 12:00;CYWG 011200Z 35018KT 8SM -SN DRSN BKN032 OVC097 M16/M20 A2974 RMK SC6AC2 SLP095

CYWG;2011-01-01 12:17;CYWG 011217Z 35018KT 2 1/2SM -SN BLSN BKN030 OVC097 M16/ RMK SC6AC2

CYWG;2011-01-01 13:00;CYWG 011300Z 35015G21KT 1 1/2SM -SN BLSN OVC020 M16/M19 A2974 RMK SN4SC4 SLP094

CYWG;2011-01-01 13:25;CYWG 011325Z 34020KT 1SM R31/P6000FT/U R36/P6000FT/U -SN BLSN OVC018 M16/ RMK SN4SC4

CYWG;2011-01-01 14:00;CYWG 011400Z 34020KT 1SM R31/P6000FT/U R36/P6000FT/U -SN BLSN OVC018 M16/M20 A2973 RMK SN4SC4 SLP091

CYWG;2011-01-01 14:45;CYWG 011445Z 34020KT 2SM -SN BLSN OVC022 M16/ RMK SN2SC6

CYWG;2011-01-01 15:00;CYWG 011500Z 33018KT 2 1/2SM -SN BLSN OVC022 M16/M21 A2973 RMK SN2SC6 SLP090

CYWG;2011-01-01 15:05;CYWG 011505Z 33018KT 4SM -SN BLSN OVC022 M16/ RMK SC8

CYWG;2011-01-01 16:00;CYWG 011600Z 33021KT 6SM BLSN SCT031 OVC087 M17/M21 A2973 RMK SC4AC2 SLP091

CYWG;2011-01-01 17:00;CYWG 011700Z 33020KT 6SM BLSN SCT026 M17/M21 A2972 RMK SC2 SLP088

CYWG;2011-01-01 18:00;CYWG 011800Z 32023G28KT 10SM DRSN FEW043 FEW240 M16/M20 A2971 RMK SC1CI0 SLP084

CYWG;2011-01-01 19:00;CYWG 011900Z 31017KT 15SM DRSN BKN240 M15/M18 A2970 RMK CI1 SLP081

CYWG;2011-01-01 20:00;CYWG 012000Z 31022KT 15SM DRSN FEW120 BKN250 M16/M19 A2970 RMK AC2CI2 SLP081

CYWG;2011-01-01 21:00;CYWG 012100Z 31020G25KT 15SM DRSN FEW120 BKN250 M16/M19 A2971 RMK AC2CI2 SLP083

CYWG;2011-01-01 22:00;CYWG 012200Z 31016KT 15SM DRSN SCT055 BKN250 M16/M19 A2973 RMK SC3CI2 SLP091

CYWG;2011-01-01 23:00;CYWG 012300Z 30020KT 15SM DRSN FEW044 BKN250 M16/M19 A2975 RMK SC2CI2 SLP097

CYWG;2011-01-02 00:00;CYWG 020000Z 30018KT 15SM DRSN BKN039 M16/M19 A2977 RMK SC7 SLP104

CYWG;2011-01-02 01:00;CYWG 020100Z 31013KT 15SM BKN037 BKN093 M16/M20 A2978 RMK SC6AC2 SLP108

CYWG;2011-01-02 02:00;CYWG 020200Z 30014KT 15SM FEW039 M17/M21 A2979 RMK SC1 SLP110

CYWG;2011-01-02 03:00;CYWG 020300Z 30011KT 15SM FEW040 M18/M22 A2980 RMK SC1 SLP114

CYWG;2011-01-02 04:00;CYWG 020400Z 28009KT 15SM SKC M20/M23 A2980 RMK SLP116

CYWG;2011-01-02 05:00;CYWG 020500Z 28006KT 15SM SKC M21/M24 A2981 RMK SLP119

CYWG;2011-01-02 06:00;CYWG 020600Z 27009KT 15SM SKC M21/M24 A2981 RMK SLP121

CYWG;2011-01-02 07:00;CYWG 020700Z 25008KT 15SM SKC M21/M24 A2982 RMK SLP124

CYWG;2011-01-02 08:00;CYWG 020800Z 25006KT 15SM SKC M21/M25 A2983 RMK SLP125

CYWG;2011-01-02 09:00;CYWG 020900Z 26007KT 15SM SKC M22/M26 A2983 RMK SLP126

CYWG;2011-01-02 10:00;CYWG 021000Z 26007KT 15SM SKC M22/M26 A2983 RMK SLP128

CYWG;2011-01-02 11:00;CYWG 021100Z 27004KT 15SM SKC M23/M27 A2983 RMK SLP128

CYWG;2011-01-02 12:00;CYWG 021200Z 27003KT 15SM SKC M23/M26 A2983 RMK SLP129

CYWG;2011-01-02 13:00;CYWG 021300Z 25003KT 15SM SKC M24/M28 A2985 RMK SLP134

CYWG;2011-01-02 14:00;CYWG 021400Z 26003KT 15SM FEW220 M24/M27 A2986 RMK CI1 SLP136

CYWG;2011-01-02 15:00;CYWG 021500Z 25003KT 15SM FEW220 M23/M27 A2988 RMK CI1 SLP144

CYWG;2011-01-02 16:00;CYWG 021600Z 27005KT 15SM FEW220 M24/M29 A2990 RMK CI0 SLP150

CYWG;2011-01-02 17:00;CYWG 021700Z 27005KT 15SM SKC M22/M27 A2992 RMK SLP157

CYWG;2011-01-02 18:00;CYWG 021800Z 29004KT 15SM SKC M21/M25 A2992 RMK SLP158

CYWG;2011-01-02 19:00;CYWG 021900Z 30004KT 15SM SKC M20/M24 A2992 RMK SLP159

CYWG;2011-01-02 20:00;CYWG 022000Z 28004KT 15SM SKC M19/M23 A2993 RMK SLP161

CYWG;2011-01-02 21:00;CYWG 022100Z 27005KT 15SM FEW220 M18/M23 A2993 RMK CI1 SLP162

CYWG;2011-01-02 22:00;CYWG 022200Z 26005KT 15SM FEW220 M18/M23 A2995 RMK CI1 SLP169

CYWG;2011-01-02 23:00;CYWG 022300Z 27007KT 15SM FEW220 M20/M24 A2997 RMK CI1 SLP175

CYWG;2011-01-03 00:00;CYWG 030000Z 31007KT 15SM FEW220 M23/M26 A2999 RMK CI1 SLP183

CYWG;2011-01-03 01:00;CYWG 030100Z 30007KT 15SM SKC M23/M26 A3000 RMK SLP187

CYWG;2011-01-03 02:00;CYWG 030200Z 32006KT 15SM SKC M24/M27 A3001 RMK SLP190

CYWG;2011-01-03 03:00;CYWG 030300Z 32003KT 15SM SKC M24/M27 A3002 RMK SLP194

CYWG;2011-01-03 04:00;CYWG 030400Z 33004KT 15SM SKC M24/M28 A3003 RMK SLP198

CYWG;2011-01-03 05:00;CYWG 030500Z 29006KT 15SM SKC M24/M27 A3004 RMK SLP201

CYWG;2011-01-03 06:00;CYWG 030600Z 29006KT 15SM SKC M25/M28 A3004 RMK SLP201

CYWG;2011-01-03 07:00;CYWG 030700Z 31003KT 15SM SKC M25/M29 A3003 RMK SLP200

CYWG;2011-01-03 08:00;CYWG 030800Z 30006KT 15SM SKC M25/M29 A3003 RMK SLP199

CYWG;2011-01-03 09:00;CYWG 030900Z 32003KT 15SM SKC M26/M30 A3003 RMK SLP198

CYWG;2011-01-03 10:00;CYWG 031000Z 26004KT 15SM R36/4000VP6000FT/U SKC M25/M28 A3004 RMK SLP201

CYWG;2011-01-03 11:00;CYWG 031100Z 27003KT 12SM BCFG SKC M27/M30 A3003 RMK SLP198

CYWG;2011-01-03 12:00;CYWG 031200Z 28007KT 15SM SKC M26/M29 A3003 RMK BR OVR CITY SLP201

CYWG;2011-01-03 13:00;CYWG 031300Z 28006KT 15SM SKC M26/M30 A3004 RMK FROIN BR OVER CITY SLP202

CYWG;2011-01-03 14:00;CYWG 031400Z 27005KT 15SM FEW120 FEW280 M26/M30 A3003 RMK AC1CI1 FROIN SLP201

CYWG;2011-01-03 14:31;CYWG 031431Z 28003KT 15SM FEW120 FEW280 M27/ RMK AC1CI1

CYWG;2011-01-03 15:00;CYWG 031500Z 27002KT 15SM FEW120 FEW280 M26/M30 A3003 RMK AC1CI0 FROIN SLP198

CYWG;2011-01-03 16:00;CYWG 031600Z 26003KT 15SM FEW280 M25/M28 A3003 RMK CI1 SLP198

CYWG;2011-01-03 17:00;CYWG 031700Z 22003KT 15SM FEW280 M21/M24 A3003 RMK CI1 SLP198

CYWG;2011-01-03 18:00;CYWG 031800Z 25007KT 15SM FEW280 M19/M22 A3000 RMK CI1 SLP189

CYWG;2011-01-03 19:00;CYWG 031900Z 26008KT 15SM FEW280 M19/M23 A2998 RMK CI1 SLP181

CYWG;2011-01-03 20:00;CYWG 032000Z 22007KT 15SM SKC M17/M22 A2996 RMK SLP176

CYWG;2011-01-03 21:00;CYWG 032100Z 22008KT 15SM SKC M16/M21 A2995 RMK SLP169

CYWG;2011-01-03 22:00;CYWG 032200Z 20008KT 15SM FEW230 M17/M21 A2994 RMK CI1 SLP167

CYWG;2011-01-03 23:00;CYWG 032300Z 21008KT 15SM FEW230 M18/M22 A2993 RMK CI1 SLP163

CYWG;2011-01-04 00:00;CYWG 040000Z 25010KT 15SM FEW230 M18/M23 A2993 RMK CI1 SLP164

CYWG;2011-01-04 01:00;CYWG 040100Z 24008KT 15SM FEW230 M19/M24 A2991 RMK CI2 SLP158

CYWG;2011-01-04 02:00;CYWG 040200Z 24007KT 15SM FEW120 SCT230 M20/M24 A2990 RMK AC2CI1 SLP152

CYWG;2011-01-04 03:00;CYWG 040300Z 26007KT 15SM BKN095 M19/M24 A2988 RMK AC5 SLP147

CYWG;2011-01-04 04:00;CYWG 040400Z 26009KT 15SM BKN110 M19/M23 A2988 RMK AC6 SLP147

CYWG;2011-01-04 05:00;CYWG 040500Z 22005KT 15SM OVC040 M19/M23 A2986 RMK SC8 SLP140

CYWG;2011-01-04 05:54;CYWG 040554Z 22004KT 10SM -SN OVC033 M18/ RMK SC8

CYWG;2011-01-04 06:00;CYWG 040600Z 23004KT 10SM -SN OVC033 M18/M22 A2986 RMK SC8 SLP135

CYWG;2011-01-04 07:00;CYWG 040700Z 23003KT 5SM -SN BKN029 OVC061 M17/M21 A2985 RMK SC6SC2 SLP134

CYWG;2011-01-04 08:00;CYWG 040800Z 22004KT 12SM -SN OVC022 M17/M21 A2984 RMK SC8 SLP130

CYWG;2011-01-04 09:00;CYWG 040900Z 22004KT 15SM -SN BKN044 OVC089 M17/M21 A2984 RMK SC6AC2 SLP128

CYWG;2011-01-04 10:00;CYWG 041000Z 23005KT 15SM -SN BKN044 OVC078 M17/M20 A2983 RMK SC6AC2 SLP127

CYWG;2011-01-04 10:51;CYWG 041051Z 24004KT 15SM SCT066 BKN078 M16/ RMK AC3AC2

CYWG;2011-01-04 11:00;CYWG 041100Z 24004KT 15SM FEW066 SCT078 M16/M19 A2982 RMK AC2AC2 SLP122

CYWG;2011-01-04 12:00;CYWG 041200Z 21003KT 15SM BKN070 M16/M19 A2982 RMK AC7 SLP122

CYWG;2011-01-04 13:00;CYWG 041300Z 21005KT 15SM OVC097 M16/M19 A2982 RMK AC8 SLP123

CYWG;2011-01-04 14:00;CYWG 041400Z 23006KT 15SM OVC093 M16/M19 A2982 RMK AC8 SLP123

CYWG;2011-01-04 15:00;CYWG 041500Z 23004KT 15SM BKN087 M16/M20 A2983 RMK AC7 SLP124

CYWG;2011-01-04 16:00;CYWG 041600Z 21004KT 15SM BKN079 M15/M20 A2983 RMK AC6 SLP125

CYWG;2011-01-04 17:00;CYWG 041700Z 21008KT 15SM FEW094 M15/M20 A2981 RMK AC2 SLP119

CYWG;2011-01-04 18:00;CYWG 041800Z 23008KT 15SM FEW090 M14/M21 A2980 RMK AC1 SLP113

CYWG;2011-01-04 19:00;CYWG 041900Z 18010KT 15SM FEW090 M13/M19 A2976 RMK AC1 SLP101

CYWG;2011-01-04 20:00;CYWG 042000Z 18009KT 15SM BKN078 M13/M19 A2975 RMK AC5 SLP098

CYWG;2011-01-04 21:00;CYWG 042100Z 20008KT 15SM SCT035 BKN076 M13/M18 A2975 RMK SC3AC4 SLP097

CYWG;2011-01-04 22:00;CYWG 042200Z 19010KT 15SM BKN033 BKN076 M12/M17 A2975 RMK SC6AC2 SLP098

CYWG;2011-01-04 22:49;CYWG 042249Z 20009KT 15SM -SN BKN031 OVC068 M12/ RMK SC6AC2

CYWG;2011-01-04 23:00;CYWG 042300Z 20009KT 15SM -SN BKN031 OVC068 M12/M16 A2975 RMK SC6AC2 SLP098

CYWG;2011-01-05 00:00;CYWG 050000Z 20009KT 10SM -SN BKN027 OVC065 M13/M15 A2976 RMK SC6SC2 SLP099

CYWG;2011-01-05 01:00;CYWG 050100Z 18008KT 7SM -SN BKN025 OVC057 M13/M15 A2975 RMK SC5SC3 SLP097

CYWG;2011-01-05 02:00;CYWG 050200Z 18005KT 15SM -SN BKN021 OVC057 M13/M15 A2974 RMK SC5SC3 SLP093

CYWG;2011-01-05 02:44;CYWG 050244Z 16006KT 15SM BKN021 OVC057 M13/ RMK SC5SC3

CYWG;2011-01-05 03:00;CYWG 050300Z 17007KT 15SM SCT021 OVC057 M13/M15 A2974 RMK SC3SC5 SLP092

CYWG;2011-01-05 04:00;CYWG 050400Z 18005KT 15SM SCT050 OVC071 M14/M15 A2973 RMK SC4AC4 SLP089

CYWG;2011-01-05 04:55;CYWG 050455Z 17002KT 10SM -SN BKN025 OVC070 M13/ RMK SC5AC3

CYWG;2011-01-05 05:00;CYWG 050500Z 16002KT 10SM -SN BKN025 OVC070 M13/M15 A2974 RMK SC5AC3 SLP092

CYWG;2011-01-05 06:00;CYWG 050600Z 00000KT 5SM -SN OVC017 M13/M14 A2974 RMK SC8 SLP092

CYWG;2011-01-05 07:00;CYWG 050700Z 04003KT 8SM -SN BKN023 OVC078 M13/M14 A2973 RMK SC6AC2 SLP089

CYWG;2011-01-05 07:19;CYWG 050719Z 06003KT 15SM OVC025 M14/ RMK SC8

CYWG;2011-01-05 08:00;CYWG 050800Z 05003KT 15SM BKN039 OVC085 M14/M16 A2974 RMK SC5AC3 SLP091

CYWG;2011-01-05 09:00;CYWG 050900Z 01004KT 15SM SCT034 OVC093 M16/M18 A2976 RMK SC4AC4 SLP098

CYWG;2011-01-05 10:00;CYWG 051000Z 01003KT 15SM SCT034 BKN090 M19/M21 A2976 RMK SC4AC2 SLP099

CYWG;2011-01-05 11:00;CYWG 051100Z 36005KT 15SM FEW035 SCT090 M19/M22 A2976 RMK SC2AC2 SLP100

CYWG;2011-01-05 12:00;CYWG 051200Z 34006KT 15SM SKC M21/M24 A2979 RMK SLP110

CYWG;2011-01-05 13:00;CYWG 051300Z 34006KT 15SM FEW120 M21/M24 A2980 RMK AC2 SLP116

CYWG;2011-01-05 14:00;CYWG 051400Z 34003KT 15SM FEW120 M22/M25 A2983 RMK AC1 AC TR SLP123

CYWG;2011-01-05 15:00;CYWG 051500Z 34003KT 15SM SKC M22/M25 A2984 RMK SLP129

CYWG;2011-01-05 16:00;CYWG 051600Z 30003KT 15SM SKC M20/M24 A2986 RMK SLP137

CYWG;2011-01-05 17:00;CYWG 051700Z 30004KT 15SM R36/1000V1400FT/N SKC M20/M24 A2988 RMK SLP143

CYWG;2011-01-05 18:00;CYWG 051800Z 28006KT 15SM FEW230 M19/M23 A2988 RMK CI0 SLP142

CYWG;2011-01-05 19:00;CYWG 051900Z 31004KT 15SM FEW230 M18/M21 A2988 RMK CI1 SLP143

CYWG;2011-01-05 20:00;CYWG 052000Z 29004KT 15SM FEW230 M17/M21 A2988 RMK CI0 SLP143

CYWG;2011-01-05 21:00;CYWG 052100Z 29002KT 15SM BKN230 M16/M20 A2988 RMK CI1 SLP143

CYWG;2011-01-05 22:00;CYWG 052200Z 28004KT 15SM SCT230 M17/M21 A2990 RMK CI1 SLP149

CYWG;2011-01-05 23:00;CYWG 052300Z 35002KT 15SM SCT230 M19/M22 A2991 RMK CI2 SLP151

CYWG;2011-01-06 00:00;CYWG 060000Z 05003KT 15SM SCT230 M20/M23 A2991 RMK CI1 SLP156

CYWG;2011-01-06 01:00;CYWG 060100Z 04003KT 15SM BKN230 M20/M24 A2991 RMK CI2 SLP156

CYWG;2011-01-06 02:00;CYWG 060200Z 00000KT 15SM OVC230 M19/M22 A2989 RMK CI2 SLP149

CYWG;2011-01-06 03:00;CYWG 060300Z 07002KT 15SM BKN065 OVC230 M19/M22 A2988 RMK SC6CI2 SLP146

CYWG;2011-01-06 04:00;CYWG 060400Z 00000KT 15SM SCT057 M17/M20 A2988 RMK SC4 SLP145

CYWG;2011-01-06 05:00;CYWG 060500Z 07005KT 15SM BKN049 M19/M22 A2988 RMK SC6 SLP144

CYWG;2011-01-06 06:00;CYWG 060600Z 09004KT 15SM FEW049 BKN095 M19/M22 A2988 RMK SC2AC2 SLP145

CYWG;2011-01-06 07:00;CYWG 060700Z 10002KT 15SM FEW045 M19/M22 A2988 RMK SC1 SLP143

CYWG;2011-01-06 08:00;CYWG 060800Z 00000KT 15SM FEW045 FEW100 M20/M23 A2989 RMK SC1AC1 SLP146

CYWG;2011-01-06 09:00;CYWG 060900Z 00000KT 15SM FEW047 M21/M24 A2989 RMK SC2 SLP147

CYWG;2011-01-06 10:00;CYWG 061000Z 07005KT 15SM SCT044 M23/M26 A2989 RMK SC3 SLP147

CYWG;2011-01-06 11:00;CYWG 061100Z 05005KT 15SM FEW045 M22/M25 A2989 RMK SC1 SLP148

CYWG;2011-01-06 12:00;CYWG 061200Z 07003KT 15SM FEW039 M24/M27 A2988 RMK SC1 SLP147

CYWG;2011-01-06 13:00;CYWG 061300Z 36005KT 15SM FEW093 M25/M28 A2991 RMK AC2 SLP157

CYWG;2011-01-06 14:00;CYWG 061400Z 00000KT 15SM FEW095 M23/M26 A2988 RMK AC2 SLP146

CYWG;2011-01-06 15:00;CYWG 061500Z 12004KT 15SM R36/4000VP6000FT/U FEW096 M22/M25 A2987 RMK AC2 VIS NW 2 BR SLP143

CYWG;2011-01-06 16:00;CYWG 061600Z 28002KT 15SM SCT095 M22/M25 A2990 RMK AC2 VIS NW 3 BR SLP151

CYWG;2011-01-06 17:00;CYWG 061700Z 28003KT 10SM BKN042 OVC095 M20/M23 A2990 RMK SC5AC3 BR SLP152

CYWG;2011-01-06 17:50;CYWG 061750Z 04002KT 10SM -SN BKN040 OVC095 M19/ RMK SC6AC2

CYWG;2011-01-06 18:00;CYWG 061800Z 03002KT 10SM -SN BKN040 OVC095 M18/M21 A2987 RMK SC6AC2 SLP141

CYWG;2011-01-06 19:00;CYWG 061900Z 00000KT 6SM -SN BKN038 OVC067 M17/M19 A2983 RMK SC7AC1 SLP128

CYWG;2011-01-06 20:00;CYWG 062000Z 09005KT 10SM -SN OVC040 M16/M19 A2982 RMK SC8 SLP123

CYWG;2011-01-06 21:00;CYWG 062100Z 10005KT 10SM -SN SCT027 OVC040 M16/M18 A2980 RMK SC3SC5 SLP115

CYWG;2011-01-06 22:00;CYWG 062200Z 18003KT 5SM -SN OVC019 M16/M18 A2980 RMK SN2SC6 SLP117

CYWG;2011-01-06 23:00;CYWG 062300Z 00000KT 8SM -SN BKN015 BKN030 M16/M19 A2979 RMK SC4SC1 SLP114

CYWG;2011-01-07 00:00;CYWG 070000Z 33003KT 5SM -SN BKN015 M17/M20 A2980 RMK SC6 SLP116

CYWG;2011-01-07 00:27;CYWG 070027Z 04007KT 6SM -SN BKN013 M18/ RMK SC6

CYWG;2011-01-07 01:00;CYWG 070100Z 08002KT 12SM -SN SCT008 M19/M21 A2978 RMK SC2 SLP110

CYWG;2011-01-07 02:00;CYWG 070200Z 07003KT 15SM FEW003 FEW094 M19/M22 A2974 RMK SF1AC2 SF TR SLP099

CYWG;2011-01-07 03:00;CYWG 070300Z 07008KT 15SM FEW084 M20/M22 A2974 RMK AC2 SLP099

CYWG;2011-01-07 04:00;CYWG 070400Z 03005KT 10SM FEW006 SCT081 M20/M23 A2975 RMK ST1AC2 BR SLP101

CYWG;2011-01-07 05:00;CYWG 070500Z 04006KT 10SM FEW059 BKN079 M21/M24 A2975 RMK SC2AC4 BR SLP102

CYWG;2011-01-07 06:00;CYWG 070600Z 03007KT 15SM OVC057 M18/M21 A2976 RMK SC8 SLP103

CYWG;2011-01-07 06:42;CYWG 070642Z 36005KT 10SM -SN OVC047 M18/ RMK SC8

CYWG;2011-01-07 07:00;CYWG 070700Z 35006KT 15SM -SN OVC047 M17/M20 A2977 RMK SC8 SLP104

CYWG;2011-01-07 08:00;CYWG 070800Z 35009KT 15SM -SN OVC051 M18/M20 A2978 RMK SC8 SLP110

CYWG;2011-01-07 08:51;CYWG 070851Z 34008KT 15SM SCT056 BKN063 M20/ RMK SC3SC2

CYWG;2011-01-07 09:00;CYWG 070900Z 33009KT 15SM BKN056 M20/M23 A2980 RMK SC6 SLP116

CYWG;2011-01-07 10:00;CYWG 071000Z 32010KT 15SM BKN120 M20/M23 A2980 RMK AC7 SLP117

CYWG;2011-01-07 11:00;CYWG 071100Z 33016KT 15SM OVC077 M18/M21 A2982 RMK AC8 SLP123

CYWG;2011-01-07 12:00;CYWG 071200Z 33017KT 15SM DRSN BKN080 M18/M22 A2983 RMK AC3 SLP125

CYWG;2011-01-07 13:00;CYWG 071300Z 32018KT 8SM -SN DRSN OVC030 M18/M21 A2982 RMK SC8 SLP122

CYWG;2011-01-07 13:18;CYWG 071318Z 32021KT 2SM -SN DRSN OVC024 M18/ RMK SC8

CYWG;2011-01-07 14:00;CYWG 071400Z 31020KT 4SM -SN DRSN OVC024 M18/M21 A2981 RMK SC8 SLP119

CYWG;2011-01-07 15:00;CYWG 071500Z 33018G25KT 10SM DRSN FEW034 BKN077 OVC250 M17/M20 A2983 RMK SC2AC3CI0 SLP128

CYWG;2011-01-07 16:00;CYWG 071600Z 34021KT 10SM DRSN BKN018 OVC053 M16/M19 A2985 RMK SC6SC2 SLP132

CYWG;2011-01-07 17:00;CYWG 071700Z 34018KT 10SM DRSN SCT016 OVC080 M16/M19 A2986 RMK SC4AS2 SLP136

CYWG;2011-01-07 18:00;CYWG 071800Z 34016KT 4SM R36/3500VP6000FT/D BLSN FEW016 BKN080 M15/M17 A2985 RMK SC2AS2 SLP133

CYWG;2011-01-07 19:00;CYWG 071900Z 34018KT 6SM BLSN FEW016 BKN080 BKN250 M13/M16 A2984 RMK SC2AS2CI0 SLP129

CYWG;2011-01-07 20:00;CYWG 072000Z 33020KT 6SM -SN BLSN FEW009 SCT040 OVC090 M13/M15 A2984 RMK SC2SC2AS2 SLP129

CYWG;2011-01-07 20:36;CYWG 072036Z 34016G22KT 6SM -SN BLSN OVC017 M13/ RMK SC8

CYWG;2011-01-07 21:00;CYWG 072100Z 34016G21KT 5SM -SN BLSN OVC017 M13/M15 A2987 RMK SC8 SLP138

CYWG;2011-01-07 21:27;CYWG 072127Z 34017KT 3SM -SN BLSN OVC011 M12/ RMK SC8

CYWG;2011-01-07 22:00;CYWG 072200Z 34016KT 4SM -SN BLSN BKN013 OVC051 M12/M14 A2989 RMK SC6SC2 SLP146

CYWG;2011-01-07 22:37;CYWG 072237Z 34012KT 8SM -SN DRSN BKN020 OVC049 M12/ RMK SC6SC2

CYWG;2011-01-07 23:00;CYWG 072300Z 34014KT 10SM -SN DRSN FEW020 OVC047 M12/M14 A2990 RMK SC2SC6 SLP148

CYWG;2011-01-08 00:00;CYWG 080000Z 35010KT 10SM -SN SCT019 OVC047 M13/M14 A2991 RMK SC3SC5 SLP151

CYWG;2011-01-08 01:00;CYWG 080100Z 01013KT 10SM -SN DRSN SCT021 OVC032 M13/M14 A2993 RMK SC3SC5 SLP158

CYWG;2011-01-08 02:00;CYWG 080200Z 01014KT 6SM -SN DRSN OVC017 M13/M15 A2994 RMK SC8 SLP163

CYWG;2011-01-08 03:00;CYWG 080300Z 36010KT 10SM -SN OVC021 M13/M15 A2996 RMK SC8 SLP168

CYWG;2011-01-08 04:00;CYWG 080400Z 35010KT 6SM -SN OVC021 M13/M15 A2997 RMK SC8 SLP173

CYWG;2011-01-08 05:00;CYWG 080500Z 34008KT 10SM -SN OVC016 M13/M14 A2999 RMK SC8 SLP177

CYWG;2011-01-08 05:39;CYWG 080539Z 34007KT 3SM -SN OVC014 M13/ RMK SC8

CYWG;2011-01-08 06:00;CYWG 080600Z 35008KT 4SM -SN OVC020 M13/M14 A3000 RMK SC8 SLP180

CYWG;2011-01-08 07:00;CYWG 080700Z 34009KT 4SM -SN OVC022 M13/M14 A3001 RMK SC8 SLP184

CYWG;2011-01-08 08:00;CYWG 080800Z 36006KT 10SM -SN OVC022 M13/M14 A3002 RMK SC8 SLP187

CYWG;2011-01-08 09:00;CYWG 080900Z 35003KT 12SM -SN OVC022 M13/M14 A3005 RMK SC8 SLP196

CYWG;2011-01-08 10:00;CYWG 081000Z 27003KT 9SM -SN OVC022 M13/M13 A3006 RMK SC8 SLP200

CYWG;2011-01-08 11:00;CYWG 081100Z 29004KT 10SM -SN BKN017 M14/M16 A3007 RMK SC7 SLP203

CYWG;2011-01-08 12:00;CYWG 081200Z 01004KT 10SM -SN BKN021 M15/M16 A3007 RMK SC5 SLP206

CYWG;2011-01-08 12:42;CYWG 081242Z 00000KT 8SM -SN OVC013 M16/ RMK SC8

CYWG;2011-01-08 13:00;CYWG 081300Z 01004KT 6SM -SN FEW013 BKN020 M15/M15 A3009 RMK SC2SC4 SLP211

CYWG;2011-01-08 14:00;CYWG 081400Z 00000KT 10SM -SN FEW008 BKN015 M14/M15 A3010 RMK SC2SC3 SLP216

CYWG;2011-01-08 15:00;CYWG 081500Z 16006KT 2SM -SN SCT008 BKN020 M15/M16 A3012 RMK SC4SC2 SLP221

CYWG;2011-01-08 15:24;CYWG 081524Z 16006KT 6SM -SN FEW011 BKN018 M15/ RMK SC2SC4

CYWG;2011-01-08 16:00;CYWG 081600Z 16003KT 10SM -SN FEW011 BKN018 M15/M16 A3014 RMK SC2SC2 SLP228

CYWG;2011-01-08 17:00;CYWG 081700Z 16004KT 15SM -SN BKN016 M14/M15 A3015 RMK SC6 SLP231

CYWG;2011-01-08 18:00;CYWG 081800Z 16002KT 15SM -SN BKN016 M12/M15 A3014 RMK SC6 SLP228

CYWG;2011-01-08 18:48;CYWG 081848Z 04002KT 15SM SCT016 M13/ RMK SC2

CYWG;2011-01-08 19:00;CYWG 081900Z 06003KT 15SM FEW016 M13/M16 A3012 RMK SC2 SLP223

CYWG;2011-01-08 20:00;CYWG 082000Z 02005KT 15SM SCT012 M15/M17 A3013 RMK SC3 SLP224

CYWG;2011-01-08 21:00;CYWG 082100Z 02005KT 15SM BKN018 M15/M17 A3014 RMK SC2 SLP230

CYWG;2011-01-08 22:00;CYWG 082200Z 33003KT 15SM BKN018 M16/M18 A3016 RMK SC2 SLP234

CYWG;2011-01-08 23:00;CYWG 082300Z 28002KT 15SM FEW016 M17/M17 A3017 RMK SC1 SLP238

CYWG;2011-01-09 00:00;CYWG 090000Z 31002KT 15SM FEW016 M19/M20 A3017 RMK SC1 SLP242

CYWG;2011-01-09 01:00;CYWG 090100Z 01002KT 15SM SKC M18/M19 A3017 RMK SLP241

CYWG;2011-01-09 02:00;CYWG 090200Z 05002KT 15SM SKC M22/M22 A3017 RMK SLP240

CYWG;2011-01-09 03:00;CYWG 090300Z 02003KT 15SM SKC M23/M23 A3018 RMK VIS 11/2 SW-W SLP245

CYWG;2011-01-09 04:00;CYWG 090400Z 33003KT 15SM MIFG SKC M23/M24 A3020 RMK FG N QUAD SLP253

CYWG;2011-01-09 05:00;CYWG 090500Z 35002KT 15SM SKC M24/M25 A3020 RMK NMRS PTCHS FURNACE FG SLP254

CYWG;2011-01-09 05:20;CYWG 090520Z 36002KT 1/2SM R31/2600FT/N R36/2000FT/N FZFG SKC M24/ RMK FG6

CYWG;2011-01-09 06:00;CYWG 090600Z 32002KT 1/2SM R13/P6000FT/N R36/3000VP6000FT/U FZFG SKC M25/M25 A3021 RMK FG6 SLP255

CYWG;2011-01-09 07:00;CYWG 090700Z 34003KT 1/2SM R13/3500VP6000FT/D R36/4500VP6000FT/D FZFG SKC M25/M26 A3021 RMK FG7 SLP257

CYWG;2011-01-09 08:00;CYWG 090800Z 00000KT 1/2SM R13/4500FT/U R36/3500VP6000FT/U FZFG OVC008 M23/M24 A3023 RMK FG6ST2 SLP262

CYWG;2011-01-09 08:14;CYWG 090814Z 00000KT 3/4SM R13/4500VP6000FT/U R36/P6000FT/U BR OVC008 M22/ RMK ST8

CYWG;2011-01-09 08:29;CYWG 090829Z 00000KT 2SM BR OVC006 M21/ RMK ST8

CYWG;2011-01-09 08:48;CYWG 090848Z 00000KT 5SM BR OVC006 M20/ RMK ST8

CYWG;2011-01-09 09:00;CYWG 090900Z 00000KT 8SM OVC006 M20/M21 A3025 RMK ST8 BR SLP270

CYWG;2011-01-09 09:40;CYWG 090940Z 00000KT 6SM -SN OVC004 M19/ RMK ST8

CYWG;2011-01-09 10:00;CYWG 091000Z 03002KT 5SM -SN BR OVC004 M19/M19 A3025 RMK ST8 SLP270

CYWG;2011-01-09 10:23;CYWG 091023Z 00000KT 4SM -SN BR OVC003 M18/ RMK ST8

CYWG;2011-01-09 11:00;CYWG 091100Z 28002KT 4SM -SN BR OVC003 M17/M18 A3026 RMK ST8 OBS TKN +8 SLP274

CYWG;2011-01-09 12:00;CYWG 091200Z 00000KT 3SM -SN BR OVC004 M16/M17 A3027 RMK ST8 SLP275

CYWG;2011-01-09 12:49;CYWG 091249Z 29002KT 2 1/2SM -SN BR OVC003 M16/ RMK ST8

CYWG;2011-01-09 13:00;CYWG 091300Z 27003KT 6SM -SN BR OVC004 M16/M17 A3028 RMK ST8 SLP278

CYWG;2011-01-09 14:00;CYWG 091400Z 26004KT 10SM -SN OVC004 M16/M17 A3030 RMK ST8 BR SLP285

CYWG;2011-01-09 14:30;CYWG 091430Z 26006KT 10SM -SN OVC005 M16/ RMK ST8 BR

CYWG;2011-01-09 15:00;CYWG 091500Z 26002KT 12SM -SN OVC004 M16/M19 A3032 RMK ST8 SLP296

CYWG;2011-01-09 16:00;CYWG 091600Z 02005KT 12SM -SN OVC005 M16/M18 A3032 RMK ST8 SLP294

CYWG;2011-01-09 16:13;CYWG 091613Z 02005KT 12SM -SN BKN006 OVC030 M16/ RMK ST6SC2

CYWG;2011-01-09 17:00;CYWG 091700Z 05005KT 12SM -SN BKN007 OVC056 M16/M17 A3032 RMK ST5SC2 SLP294

CYWG;2011-01-09 18:00;CYWG 091800Z 00000KT 10SM -SN BKN007 OVC056 M15/M16 A3034 RMK ST5SC2 SLP301

CYWG;2011-01-09 19:00;CYWG 091900Z 30004KT 6SM -SN BKN010 OVC050 M15/M17 A3034 RMK ST6SC2 SLP302

CYWG;2011-01-09 20:00;CYWG 092000Z 27003KT 12SM SCT009 BKN240 M16/M17 A3034 RMK SF2CI1 SLP302

CYWG;2011-01-09 21:00;CYWG 092100Z 32003KT 15SM FEW009 SCT120 M16/M17 A3035 RMK SF1AC1 SLP305

CYWG;2011-01-09 22:00;CYWG 092200Z 30003KT 15SM FEW009 FEW120 SCT240 M17/M19 A3037 RMK SF1AC1CI0 SF TR SLP311

CYWG;2011-01-09 23:00;CYWG 092300Z 24002KT 15SM FEW120 BKN240 M17/M20 A3039 RMK AC2CI0 SLP318

CYWG;2011-01-10 06:00;CYWG 100600Z 00000KT 15SM SCT120 OVC240 M20/M23 A3043 RMK AC2CI2 SLP331

CYWG;2011-01-10 07:00;CYWG 100700Z 31003KT 15SM SCT120 OVC240 M20/M23 A3044 RMK AC2CI3 SLP335

CYWG;2011-01-10 08:00;CYWG 100800Z 00000KT 15SM FEW120 BKN240 M21/M24 A3045 RMK AC2CI2 SLP337

CYWG;2011-01-10 09:00;CYWG 100900Z 02003KT 15SM FEW120 BKN240 M21/M25 A3046 RMK AC1CI2 SLP343

CYWG;2011-01-10 10:00;CYWG 101000Z 01003KT 15SM BKN095 BKN240 M21/M24 A3047 RMK AC3CI2 SLP346

CYWG;2011-01-10 11:00;CYWG 101100Z 02002KT 15SM FEW043 BKN100 OVC240 M18/M21 A3046 RMK SC2AC2CI2 SLP343

CYWG;2011-01-10 12:00;CYWG 101200Z 36002KT 15SM BKN037 M18/M21 A3047 RMK SC7 SLP345

CYWG;2011-01-10 13:00;CYWG 101300Z 00000KT 15SM OVC037 M17/M20 A3048 RMK SC8 SLP347

CYWG;2011-01-10 14:00;CYWG 101400Z 03003KT 15SM OVC038 M17/M19 A3048 RMK SC8 SLP346

CYWG;2011-01-10 15:00;CYWG 101500Z 04002KT 15SM OVC032 M16/M17 A3049 RMK SC8 SLP350

CYWG;2011-01-10 16:00;CYWG 101600Z 35002KT 15SM OVC030 M15/M17 A3049 RMK SC8 SLP352

CYWG;2011-01-10 17:00;CYWG 101700Z 03005KT 15SM OVC024 M14/M15 A3049 RMK SC8 SLP351

CYWG;2011-01-10 18:00;CYWG 101800Z 02004KT 15SM OVC022 M13/M14 A3048 RMK SC8 SLP345

CYWG;2011-01-10 18:49;CYWG 101849Z 03006KT 15SM -SN OVC024 M13/ RMK SC8

CYWG;2011-01-10 19:00;CYWG 101900Z 02006KT 5SM -SN OVC022 M13/M14 A3046 RMK SC8 SLP339

CYWG;2011-01-10 20:23;CYWG 102023Z 03007KT 6SM -SN BKN013 M13/ RMK SC7

CYWG;2011-01-10 20:44;CYWG 102044Z 03007KT 15SM BKN018 M12/ RMK SC7

CYWG;2011-01-10 21:00;CYWG 102100Z 02007KT 15SM BKN018 BKN051 M12/M13 A3046 RMK SC5SC2 SLP339

CYWG;2011-01-10 21:05;CYWG 102105Z 02007KT 10SM -SN BKN020 BKN051 M12/ RMK SC5SC2

CYWG;2011-01-10 22:00;CYWG 102200Z 03007KT 15SM -SN FEW027 SCT051 BKN200 M13/M14 A3046 RMK SC2SC1CI1 SLP341

CYWG;2011-01-10 22:22;CYWG 102222Z 03006KT 15SM FEW027 FEW050 BKN200 M15/ RMK SC2SC1CI1

CYWG;2011-01-10 23:00;CYWG 102300Z 01005KT 15SM FEW030 FEW050 BKN200 M15/M16 A3048 RMK SC2SC1CI1 SLP345

CYWG;2011-01-11 00:00;CYWG 110000Z 03005KT 15SM FEW015 SCT050 BKN200 M15/M16 A3048 RMK ST2SC2CI2 SLP345

CYWG;2011-01-11 00:00;CYWG 110000Z 03005KT 15SM FEW015 SCT050 BKN200 M15/M16 A3048 RMK ST2SC2CI2 SLP345

CYWG;2011-01-11 00:37;CYWG 110037Z 03005KT 5SM -SN BKN017 BKN059 BKN097 M14/ RMK SC5SC2AC1

CYWG;2011-01-11 00:37;CYWG 110037Z 03005KT 5SM -SN BKN017 BKN059 BKN097 M14/ RMK SC5SC2AC1

CYWG;2011-01-11 01:00;CYWG 110100Z 03006KT 4SM -SN SCT011 BKN065 M14/M15 A3048 RMK SC4SC3 SLP345

CYWG;2011-01-11 01:00;CYWG 110100Z 03006KT 4SM -SN SCT011 BKN065 M14/M15 A3048 RMK SC4SC3 SLP345

CYWG;2011-01-11 02:00;CYWG 110200Z 36003KT 4SM -SN SCT013 BKN049 M14/M15 A3048 RMK SC3SC4 SLP345

CYWG;2011-01-11 02:00;CYWG 110200Z 36003KT 4SM -SN SCT013 BKN049 M14/M15 A3048 RMK SC3SC4 SLP345

CYWG;2011-01-11 03:00;CYWG 110300Z 01005KT 3SM -SN BKN009 OVC068 M14/M15 A3047 RMK ST5AC3 SLP342

CYWG;2011-01-11 03:00;CYWG 110300Z 01005KT 3SM -SN BKN009 OVC068 M14/M15 A3047 RMK ST5AC3 SLP342

CYWG;2011-01-11 03:50;CYWG 110350Z 36003KT 3SM -SN OVC016 M14/ RMK SN2SC6

CYWG;2011-01-11 03:50;CYWG 110350Z 36003KT 3SM -SN OVC016 M14/ RMK SN2SC6

CYWG;2011-01-11 04:00;CYWG 110400Z 01004KT 3SM -SN BKN018 OVC070 M14/M15 A3047 RMK SN2SC5AC1 SLP343

CYWG;2011-01-11 04:00;CYWG 110400Z 01004KT 3SM -SN BKN018 OVC070 M14/M15 A3047 RMK SN2SC5AC1 SLP343

CYWG;2011-01-11 05:00;CYWG 110500Z 01005KT 3SM -SN BKN020 BKN070 M14/M15 A3047 RMK SN2SC3AC1 SLP342

CYWG;2011-01-11 05:00;CYWG 110500Z 01005KT 3SM -SN BKN020 BKN070 M14/M15 A3047 RMK SN2SC3AC1 SLP342

CYWG;2011-01-11 05:34;CYWG 110534Z 36004KT 12SM -SN SCT022 BKN070 OVC220 M16/ RMK SC3AC2CI1

CYWG;2011-01-11 05:34;CYWG 110534Z 36004KT 12SM -SN SCT022 BKN070 OVC220 M16/ RMK SC3AC2CI1

CYWG;2011-01-11 06:00;CYWG 110600Z 36003KT 12SM -SN BKN022 BKN080 OVC220 M16/M17 A3048 RMK SC5AC2CI1 SLP344

CYWG;2011-01-11 07:00;CYWG 110700Z 01007KT 1 1/2SM -SN VV009 M14/M15 A3046 RMK SN8 SLP340

CYWG;2011-01-11 07:08;CYWG 110708Z 01006KT 3SM -SN OVC067 M15/ RMK SN3AC5

CYWG;2011-01-11 08:00;CYWG 110800Z 01005KT 10SM -SN BKN024 OVC070 M15/M16 A3047 RMK SC5AC2 SLP343

CYWG;2011-01-11 09:00;CYWG 110900Z 01005KT 10SM -SN OVC020 M15/M16 A3048 RMK SC8 SLP345

CYWG;2011-01-11 10:00;CYWG 111000Z 02004KT 6SM -SN BKN020 OVC070 M15/M16 A3048 RMK SC6AC2 SLP345

CYWG;2011-01-11 10:11;CYWG 111011Z 01004KT 7SM -SN BKN011 OVC070 M15/ RMK SC6AC2

CYWG;2011-01-11 10:31;CYWG 111031Z 01005KT 10SM -SN BKN019 OVC070 M15/ RMK SC6AC2

CYWG;2011-01-11 11:00;CYWG 111100Z 02004KT 12SM -SN BKN019 OVC087 M16/M16 A3048 RMK SC6AC2 SLP343

CYWG;2011-01-11 12:00;CYWG 111200Z 35003KT 15SM -SN OVC045 M16/M17 A3048 RMK SC8 SLP347

CYWG;2011-01-11 13:00;CYWG 111300Z 01004KT 10SM -SN OVC021 M16/M16 A3049 RMK SC8 SLP350

CYWG;2011-01-11 14:00;CYWG 111400Z 36005KT 10SM -SN BKN025 M15/M16 A3050 RMK SC6 SLP352

CYWG;2011-01-11 15:00;CYWG 111500Z 33004KT 15SM FEW017 SCT220 M18/M19 A3051 RMK SC2CI0 SLP355

CYWG;2011-01-11 16:00;CYWG 111600Z 31005KT 15SM FEW020 SCT220 M19/M20 A3052 RMK SC1CI1 SLP360

CYWG;2011-01-11 17:00;CYWG 111700Z 32005KT 15SM FEW020 SCT220 M18/M19 A3053 RMK SC1CI1 SLP363

CYWG;2011-01-11 18:00;CYWG 111800Z 32006KT 15SM FEW070 BKN230 M17/M18 A3052 RMK AC1CI1 SLP362

CYWG;2011-01-11 19:00;CYWG 111900Z 32006KT 15SM FEW070 BKN230 M15/M16 A3051 RMK AC1CI2 SLP359

CYWG;2011-01-11 20:00;CYWG 112000Z 31005KT 15SM FEW070 BKN230 M15/M16 A3051 RMK AC1CI2 SLP359

CYWG;2011-01-11 21:00;CYWG 112100Z 32005KT 15SM FEW070 BKN230 M15/M16 A3053 RMK AC1CI2 SLP363

CYWG;2011-01-11 22:00;CYWG 112200Z 32007KT 15SM FEW070 BKN230 M16/M18 A3055 RMK AC1CI2 SLP369

CYWG;2011-01-11 23:00;CYWG 112300Z 30007KT 15SM FEW060 FEW120 SCT230 M18/M24 A3057 RMK SC1AC1CI0 SLP375

CYWG;2011-01-12 00:00;CYWG 120000Z 31007KT 15SM FEW120 FEW230 M19/M22 A3058 RMK AC1CI0 SLP380

CYWG;2011-01-12 00:22;CYWG 120022Z 30007KT 15SM -SN FEW014 FEW120 FEW230 M19/ RMK SC1AC1CI0

CYWG;2011-01-12 01:00;CYWG 120100Z 31006KT 15SM FEW120 FEW230 M20/M23 A3058 RMK AC1CI0 SLP382

CYWG;2011-01-12 02:00;CYWG 120200Z 31006KT 15SM FEW019 FEW120 SCT230 M20/M23 A3058 RMK SC1AC1CI0 SLP383

CYWG;2011-01-12 03:00;CYWG 120300Z 31007KT 15SM FEW024 SCT085 M20/M23 A3059 RMK SC2AC2 SLP388

CYWG;2011-01-12 04:00;CYWG 120400Z 30007KT 15SM SCT018 BKN084 M20/M22 A3061 RMK SC3AC2 SLP392

CYWG;2011-01-12 05:00;CYWG 120500Z 32007KT 15SM BKN024 M16/M18 A3063 RMK SC6 SLP399

CYWG;2011-01-12 06:00;CYWG 120600Z 32007KT 15SM OVC024 M15/M17 A3063 RMK SC8 SLP397

CYWG;2011-01-12 07:00;CYWG 120700Z 34005KT 15SM -SN OVC022 M15/M17 A3064 RMK SC8 SLP400

CYWG;2011-01-12 08:00;CYWG 120800Z 35005KT 15SM -SN OVC020 M14/M16 A3065 RMK SC8 SLP405

CYWG;2011-01-12 09:00;CYWG 120900Z 34006KT 15SM -SN BKN025 OVC042 M15/M18 A3067 RMK SC6SC2 SLP410

CYWG;2011-01-12 10:00;CYWG 121000Z 33007KT 15SM -SN SCT025 BKN042 M19/M21 A3068 RMK SC3SC3 SLP414

CYWG;2011-01-12 11:00;CYWG 121100Z 34005KT 15SM -SN BKN030 M17/M19 A3068 RMK SC7 SLP415

CYWG;2011-01-12 12:00;CYWG 121200Z 01010KT 15SM -SN BKN028 M17/M19 A3068 RMK SC7 OBS TAKEN +02 SLP417

CYWG;2011-01-12 13:00;CYWG 121300Z 34005KT 15SM FEW004 BKN023 M19/M22 A3069 RMK SF1SC6 VIS E 4 SLP420

CYWG;2011-01-12 13:37;CYWG 121337Z 34002KT 5SM -SN BR BKN003 M19/ RMK ST7

CYWG;2011-01-12 14:00;CYWG 121400Z 36002KT 2SM -SN BR OVC003 M18/M20 A3069 RMK ST8 SLP418

CYWG;2011-01-12 14:22;CYWG 121422Z 02007KT 1/2SM R13/P6000FT/D R36/P6000FT/D -SN FZFG OVC002 M16/ RMK SN5ST3

CYWG;2011-01-12 14:39;CYWG 121439Z 02007KT 3/4SM R13/P6000FT/D R36/P6000FT/U -SN BR OVC004 M16/ RMK SN2ST6 VIS W-N 2 N-NE 4

CYWG;2011-01-12 14:46;CYWG 121446Z 03006KT 1 1/2SM -SN BR OVC005 M16/ RMK ST8 VIS W-NE 5

CYWG;2011-01-12 15:00;CYWG 121500Z 03005KT 5SM R36/3000VP6000FT/D -SN OVC007 M17/M19 A3069 RMK ST8 SLP420

CYWG;2011-01-12 16:00;CYWG 121600Z 36003KT 4SM -SN OVC007 M17/M19 A3070 RMK ST8 SLP423

CYWG;2011-01-12 17:00;CYWG 121700Z 36005KT 4SM -SN BKN006 M15/M17 A3069 RMK SF7 SLP421

CYWG;2011-01-12 18:00;CYWG 121800Z 36003KT 10SM -SN BKN005 M15/M16 A3067 RMK SF7 SLP410

CYWG;2011-01-12 19:00;CYWG 121900Z 01003KT 10SM -SN OVC005 M14/M16 A3064 RMK SF8 SLP401

CYWG;2011-01-12 19:37;CYWG 121937Z 35002KT 15SM FEW005 OVC010 M14/ RMK SF2SC6

CYWG;2011-01-12 20:00;CYWG 122000Z 03004KT 15SM FEW005 OVC010 M14/M16 A3061 RMK SF1SC6 SLP392

CYWG;2011-01-12 21:00;CYWG 122100Z 35003KT 15SM BKN010 M15/M18 A3061 RMK SC6 SLP391

CYWG;2011-01-12 22:00;CYWG 122200Z 03004KT 15SM FEW005 OVC013 M15/M17 A3061 RMK SF2SC6 SLP389

CYWG;2011-01-12 22:31;CYWG 122231Z 05005KT 10SM -SN FEW006 OVC014 M15/ RMK SF2SC6 VIS LWR NE

CYWG;2011-01-12 23:00;CYWG 122300Z 08004KT 2 1/2SM -SN OVC014 M15/M16 A3058 RMK SC7 SLP379

CYWG;2011-01-12 23:42;CYWG 122342Z 15006KT 3SM -SN BKN012 M15/ RMK SC6

CYWG;2011-01-13 00:00;CYWG 130000Z 14006KT 6SM -SN BKN016 M15/M18 A3055 RMK SC5 SLP370

CYWG;2011-01-13 00:43;CYWG 130043Z 14003KT 10SM BKN016 M16/ RMK SC5

CYWG;2011-01-13 01:00;CYWG 130100Z 12003KT 10SM FEW008 OVC016 M16/M18 A3053 RMK SF2SC6 SLP363

CYWG;2011-01-13 02:00;CYWG 130200Z 13005KT 10SM OVC016 M15/M16 A3050 RMK SC7 SLP354

CYWG;2011-01-13 03:00;CYWG 130300Z CCA 11006KT 12SM FEW008 OVC013 M14/M16 A3048 RMK SF2SC5 IC SLP345

CYWG;2011-01-13 04:00;CYWG 130400Z 13007KT 12SM OVC016 M14/M16 A3045 RMK SC8 SLP338

CYWG;2011-01-13 05:00;CYWG 130500Z 10008KT 15SM OVC014 M14/M16 A3042 RMK SC8 SLP328

CYWG;2011-01-13 06:00;CYWG 130600Z 10007KT 15SM OVC014 M14/M16 A3039 RMK SC8 SLP316

CYWG;2011-01-13 06:46;CYWG 130646Z 11005KT 12SM -SN OVC016 M14/ RMK SC8

CYWG;2011-01-13 07:00;CYWG 130700Z 11007KT 12SM -SN OVC016 M14/M16 A3037 RMK SC8 SLP308

CYWG;2011-01-13 08:00;CYWG 130800Z 12009KT 3SM -SN BKN009 OVC057 M14/M15 A3035 RMK SF5SC3 SLP301

CYWG;2011-01-13 08:23;CYWG 130823Z 12008KT 2SM -SN OVC012 M13/ RMK SC8

CYWG;2011-01-13 09:00;CYWG 130900Z 12009KT 1 1/2SM -SN VV008 M13/M15 A3032 RMK SN8 SLP290

CYWG;2011-01-13 10:00;CYWG 131000Z 12011KT 1 1/2SM -SN VV010 M13/M15 A3029 RMK SN8 SLP279

CYWG;2011-01-13 11:00;CYWG 131100Z 11008KT 1 1/2SM -SN VV007 M13/M14 A3027 RMK SN8 /S01/ SLP273

CYWG;2011-01-13 12:00;CYWG 131200Z 12008KT 1 1/2SM -SN VV010 M12/M13 A3024 RMK SN8 SLP263

CYWG;2011-01-13 13:00;CYWG 131300Z 12009KT 2SM -SN VV010 M12/M13 A3022 RMK SN8 SLP258

CYWG;2011-01-13 13:39;CYWG 131339Z 12008KT 1SM R13/P6000FT/D R36/P6000FT/D -SN VV009 RMK SN8

CYWG;2011-01-13 14:00;CYWG 131400Z 12009KT 1SM R13/P6000FT/N R36/P6000FT/N -SN VV009 M12/M13 A3021 RMK SN8 SLP253

CYWG;2011-01-13 14:18;CYWG 131418Z 11009KT 2SM -SN VV012 M11/ RMK SN8

CYWG;2011-01-13 15:00;CYWG 131500Z 12008KT 2SM -SN OVC060 M11/M12 A3020 RMK SN5SC3 SLP250

CYWG;2011-01-13 15:43;CYWG 131543Z 13010KT 4SM -SN OVC020 M10/ RMK SN4SC4

CYWG;2011-01-13 16:00;CYWG 131600Z 13008KT 3SM -SN OVC025 M10/M12 A3020 RMK SN4SC4 SLP248

CYWG;2011-01-13 17:00;CYWG 131700Z 13010KT 3SM -SN OVC017 M10/M11 A3018 RMK SN6SC2 SLP241

CYWG;2011-01-13 18:00;CYWG 131800Z 13009KT 3SM -SN OVC021 M09/M11 A3016 RMK SN6SC2 SLP235

CYWG;2011-01-13 19:00;CYWG 131900Z 11006KT 3SM -SN OVC018 M09/M11 A3014 RMK SN5SC3 SLP228

CYWG;2011-01-13 19:20;CYWG 131920Z 12006KT 2SM -SN VV009 M09/ RMK SN8

CYWG;2011-01-13 19:47;CYWG 131947Z 11005KT 2SM -SN VV013 M09/ RMK SN8

CYWG;2011-01-13 20:00;CYWG 132000Z 11005KT 2SM -SN VV013 M09/M10 A3014 RMK SN8 SLP229

CYWG;2011-01-13 20:52;CYWG 132052Z 09006KT 2 1/2SM -SN OVC040 M08/ RMK SN6SC2

CYWG;2011-01-13 21:00;CYWG 132100Z 09005KT 2 1/2SM -SN OVC044 M08/M10 A3015 RMK SN6SC2 SLP230

CYWG;2011-01-13 21:28;CYWG 132128Z 08005KT 4SM -SN OVC013 M08/ RMK SN7SC1

CYWG;2011-01-13 22:00;CYWG 132200Z 06006KT 3SM -SN OVC013 M08/M10 A3016 RMK SN6SC2 SLP232

CYWG;2011-01-13 22:48;CYWG 132248Z 04006KT 4SM -SN OVC009 M09/ RMK SN7SC1

CYWG;2011-01-13 23:00;CYWG 132300Z 04006KT 4SM -SN OVC009 M09/M10 A3017 RMK SN7SC1 SLP236

CYWG;2011-01-13 23:16;CYWG 132316Z 04004KT 4SM -SN BKN018 BKN059 OVC077 M09/ RMK SC5SC2AC2

CYWG;2011-01-14 00:00;CYWG 140000Z 04005KT 4SM -SN BKN020 OVC075 M09/M10 A3018 RMK SC6AC2 SLP241

CYWG;2011-01-14 01:00;CYWG 140100Z 01005KT 3SM -SN BKN018 OVC063 M10/M11 A3018 RMK SN3SC3SC2 SLP241

CYWG;2011-01-14 01:50;CYWG 140150Z 01007KT 10SM FEW012 SCT061 M14/ RMK SC2SC2 IC

CYWG;2011-01-14 02:00;CYWG 140200Z 01007KT 10SM FEW012 SCT061 M14/M14 A3019 RMK SC2SC2 IC SLP242

CYWG;2011-01-14 03:00;CYWG 140300Z 02009KT 5SM IC FEW015 FEW060 M17/M17 A3019 RMK SC1SC1 SLP244

CYWG;2011-01-14 04:00;CYWG 140400Z 01007KT 5SM IC FEW015 M16/M17 A3020 RMK SC2 SLP248

CYWG;2011-01-14 05:00;CYWG 140500Z 01006KT 5SM IC FEW010 M17/M18 A3020 RMK ST2 SLP250

CYWG;2011-01-14 06:00;CYWG 140600Z 35003KT 5SM IC FEW011 M20/M21 A3020 RMK ST2 SLP251

CYWG;2011-01-14 07:00;CYWG 140700Z 33004KT 5SM R36/3500VP6000FT/U IC FEW010 M22/M22 A3022 RMK SF1 SLP255

CYWG;2011-01-14 08:00;CYWG 140800Z 30002KT 5SM IC FEW010 M20/M21 A3022 RMK SF1 SLP257

CYWG;2011-01-14 09:00;CYWG 140900Z 30002KT 5SM IC SCT005 M20/M21 A3023 RMK ST3 SLP259

CYWG;2011-01-14 09:11;CYWG 140911Z 29002KT 6SM IC BKN003 M19/ RMK ST6

CYWG;2011-01-14 10:00;CYWG 141000Z 32004KT 5SM IC SCT004 M20/M21 A3023 RMK ST4 SLP260

CYWG;2011-01-14 11:00;CYWG 141100Z 30003KT 3SM IC BR FEW005 BKN040 M19/M19 A3024 RMK ST2SC4 SLP262

CYWG;2011-01-14 12:00;CYWG 141200Z CCA 01003KT 10SM SCT004 BKN017 BKN096 M17/M18 A3022 RMK ST3SC2AC2 IC SLP256

CYWG;2011-01-14 12:30;CYWG 141230Z 02004KT 10SM -SN BKN013 OVC080 M15/ RMK SC6AC2

CYWG;2011-01-14 13:00;CYWG 141300Z 04003KT 10SM -SN FEW006 OVC013 M15/M16 A3021 RMK SF2SC6 SLP251

CYWG;2011-01-14 14:00;CYWG 141400Z 36003KT 12SM -SN FEW006 OVC013 M15/M16 A3021 RMK SF2SC6 SLP251

CYWG;2011-01-14 15:00;CYWG 141500Z 02003KT 8SM -SN SCT006 OVC013 M14/M15 A3022 RMK SF3SC5 SLP256

CYWG;2011-01-14 15:22;CYWG 141522Z 04004KT 1 1/2SM -SN OVC015 M14/ RMK SN2SC6

CYWG;2011-01-14 16:00;CYWG 141600Z 02004KT 1SM R31/P6000FT/D R36/P6000FT/D -SN VV008 M14/M15 A3022 RMK SN8 SLP258

CYWG;2011-01-14 17:00;CYWG 141700Z 02005KT 1SM R31/P6000FT/D R36/P6000FT/D -SN VV006 M14/M15 A3023 RMK SN8 /S01/ SLP260

CYWG;2011-01-14 17:46;CYWG 141746Z 36004KT 3/4SM R31/5500FT/N R36/5000FT/N -SN VV007 M14/ RMK SN8

CYWG;2011-01-14 18:00;CYWG 141800Z 01004KT 3/4SM R31/P6000FT/N R36/P6000FT/U -SN VV007 M14/M14 A3022 RMK SN8 /S02/ SLP258

CYWG;2011-01-14 18:30;CYWG 141830Z 01005KT 1 1/2SM -SN OVC015 M14/ RMK SN3SC5

CYWG;2011-01-14 19:00;CYWG 141900Z 02007KT 1SM R31/P6000FT/D R36/P6000FT/N -SN VV009 M13/M14 A3021 RMK SN8 SLP256

CYWG;2011-01-14 19:51;CYWG 141951Z 01009KT 2SM -SN VV007 M13/ RMK SN8

CYWG;2011-01-14 20:00;CYWG 142000Z 02009KT 2SM -SN OVC046 M13/M14 A3020 RMK SN3SC5 SLP253

CYWG;2011-01-14 20:34;CYWG 142034Z 02007KT 5SM -SN OVC017 M13/ RMK SC8

CYWG;2011-01-14 21:00;CYWG 142100Z 02011KT 1SM R31/P6000FT/D R36/P6000FT/D -SN VV007 M13/M14 A3020 RMK SN8 SLP253

CYWG;2011-01-14 21:48;CYWG 142148Z 02013KT 2SM -SN VV008 M14/ RMK SN8

CYWG;2011-01-14 22:00;CYWG 142200Z 02010KT 1SM R31/P6000FT/D R36/P6000FT/D -SN DRSN VV010 M13/M15 A3022 RMK SN8 SLP258

CYWG;2011-01-14 23:00;CYWG 142300Z 01012KT 1 1/4SM -SN DRSN VV007 M14/M15 A3024 RMK SN8 SLP265

CYWG;2011-01-14 23:28;CYWG 142328Z 01014KT 1 1/4SM -SN VV010 M14/ RMK SN8

CYWG;2011-01-14 23:52;CYWG 142352Z 36010KT 2SM -SN DRSN SKC M14/ RMK SN6

CYWG;2011-01-15 00:00;CYWG 150000Z 36012KT 4SM -SN DRSN SKC M14/M15 A3025 RMK SN6 SLP268

CYWG;2011-01-15 01:00;CYWG 150100Z 36009KT 12SM -SN DRSN SCT020 M15/M16 A3026 RMK SC3 SLP272

CYWG;2011-01-15 01:37;CYWG 150137Z 35009KT 15SM DRSN SKC M17/ RMK IC

CYWG;2011-01-15 02:00;CYWG 150200Z 33010KT 15SM DRSN FEW250 M19/M20 A3028 RMK CI1 IC SLP277

CYWG;2011-01-15 03:00;CYWG 150300Z 35008KT 15SM FEW250 M21/M22 A3030 RMK CI1 IC SLP287

CYWG;2011-01-15 04:00;CYWG 150400Z 01014KT 15SM SKC M17/M18 A3031 RMK SLP290

CYWG;2011-01-15 05:00;CYWG 150500Z 01012KT 15SM SKC M19/M19 A3034 RMK SLP298

CYWG;2011-01-15 06:00;CYWG 150600Z 01015KT 10SM SKC M19/M20 A3035 RMK SLP302

CYWG;2011-01-15 07:00;CYWG 150700Z 01015KT 6SM IC SKC M20/M21 A3036 RMK SLP305

CYWG;2011-01-15 08:00;CYWG 150800Z 36011KT 6SM IC FEW058 M21/M22 A3039 RMK SC2 SLP315

CYWG;2011-01-15 09:00;CYWG 150900Z 01011KT 6SM IC FEW090 M22/M23 A3040 RMK AC1 SLP321

CYWG;2011-01-15 10:00;CYWG 151000Z 01011KT 6SM IC FEW092 M22/M23 A3043 RMK AC1 SLP329

CYWG;2011-01-15 11:00;CYWG 151100Z 01010KT 6SM IC FEW098 M23/M24 A3043 RMK AC1 SLP331

CYWG;2011-01-15 12:00;CYWG 151200Z 36010KT 10SM SCT100 M24/M24 A3045 RMK AC1 SLP337

CYWG;2011-01-15 13:00;CYWG 151300Z 01010KT 15SM SCT100 M25/M25 A3044 RMK AC1 SLP336

CYWG;2011-01-15 14:00;CYWG 151400Z 01004KT 15SM FEW240 M26/M34 A3046 RMK CI0 SLP341

CYWG;2011-01-15 15:00;CYWG 151500Z 34004KT 15SM FEW240 M30/M35 A3048 RMK CI0 SLP356

CYWG;2011-01-15 16:00;CYWG 151600Z 34003KT 10SM SCT240 M28/M32 A3049 RMK CI1 SLP359

CYWG;2011-01-15 17:00;CYWG 151700Z 30004KT 12SM R36/3000VP6000FT/U SCT240 M28/M32 A3051 RMK CI1 SLP364

CYWG;2011-01-15 18:00;CYWG 151800Z 30004KT 12SM SCT240 M27/M31 A3050 RMK CI1 SLP359

CYWG;2011-01-15 19:00;CYWG 151900Z 31003KT 12SM BKN240 M25/M29 A3047 RMK CI1 SLP350

CYWG;2011-01-15 20:00;CYWG 152000Z 30004KT 12SM BKN240 M24/M28 A3046 RMK CI3 IC SLP347

CYWG;2011-01-15 21:00;CYWG 152100Z 30004KT 15SM BKN240 M24/M28 A3047 RMK CI4 IC SLP347

CYWG;2011-01-15 22:00;CYWG 152200Z 26003KT 15SM BKN240 M24/M28 A3047 RMK CI4 IC SLP347

CYWG;2011-01-15 23:00;CYWG 152300Z 28006KT 15SM BKN240 M24/M28 A3047 RMK CI5 SLP347

CYWG;2011-01-16 00:00;CYWG 160000Z 27003KT 15SM BKN240 M23/M26 A3045 RMK CI6 SLP342

CYWG;2011-01-16 01:00;CYWG 160100Z 29005KT 15SM SCT066 OVC240 M22/M26 A3044 RMK AC3CI4 SLP337

CYWG;2011-01-16 02:00;CYWG 160200Z 28004KT 6SM -SN OVC023 M22/M25 A3043 RMK SC8 SLP334

CYWG;2011-01-16 03:00;CYWG 160300Z 25002KT 6SM -SN BKN021 OVC088 M22/M25 A3042 RMK SC6AC2 SLP334

CYWG;2011-01-16 04:00;CYWG 160400Z 23002KT 6SM -SN OVC015 M22/M25 A3041 RMK SC6 SLP332

CYWG;2011-01-16 05:00;CYWG 160500Z 24002KT 6SM -SN BKN021 OVC084 M21/M25 A3040 RMK SC5AS1 SLP326

CYWG;2011-01-16 06:00;CYWG 160600Z 23002KT 6SM -SN BKN021 OVC090 M21/M24 A3038 RMK SC5AS1 SLP317

CYWG;2011-01-16 07:00;CYWG 160700Z 22005KT 6SM -SN OVC020 M21/M24 A3035 RMK SC6 SLP308

CYWG;2011-01-16 08:00;CYWG 160800Z 18003KT 10SM -SN BKN028 OVC079 M22/M25 A3032 RMK SC5AS1 SLP300

CYWG;2011-01-16 09:00;CYWG 160900Z 17005KT 12SM -SN SCT028 SCT240 M23/M27 A3031 RMK SC3CI0 SLP295

CYWG;2011-01-16 10:00;CYWG 161000Z 16007KT 12SM FEW090 M24/M27 A3029 RMK AC1 SLP289

CYWG;2011-01-16 11:00;CYWG 161100Z 18008KT 12SM SCT094 M23/M27 A3027 RMK AC1 SLP280

CYWG;2011-01-16 12:00;CYWG 161200Z 17008KT 12SM SCT094 BKN240 M23/M27 A3024 RMK AC4CI2 SLP270

CYWG;2011-01-16 13:00;CYWG 161300Z 17009KT 12SM FEW100 SCT240 M23/M27 A3020 RMK AC2CI1 SLP258

CYWG;2011-01-16 14:00;CYWG 161400Z 17010KT 12SM FEW120 SCT240 M23/M27 A3018 RMK AC2CI1 SLP250

CYWG;2011-01-16 15:00;CYWG 161500Z 17012KT 15SM FEW120 BKN240 M23/M26 A3016 RMK AC2CI2 SLP240

CYWG;2011-01-16 16:00;CYWG 161600Z 17013KT 15SM SCT052 BKN120 M21/M25 A3012 RMK SC4AC3 SLP230

CYWG;2011-01-16 16:24;CYWG 161624Z 17014KT 4SM -SN OVC048 M21/ RMK SN2SC6

CYWG;2011-01-16 16:43;CYWG 161643Z 17014KT 2 1/2SM -SN BR OVC048 M21/ RMK SN2SC6

CYWG;2011-01-16 17:00;CYWG 161700Z 17013KT 2SM -SN BR OVC059 M20/M24 A3007 RMK SN2SC6 SLP213

CYWG;2011-01-16 18:00;CYWG 161800Z 17015KT 3SM -SN DRSN SCT014 OVC048 M19/M22 A3002 RMK SN2SC2SC5 SLP193

CYWG;2011-01-16 19:00;CYWG 161900Z 17014KT 2 1/2SM -SN DRSN OVC018 M17/M21 A2997 RMK SN2SC6 OCNL BLSN SLP177

CYWG;2011-01-16 20:00;CYWG 162000Z 17015G20KT 2SM -SN DRSN OVC016 M17/M19 A2993 RMK SN2SC6 SLP162

CYWG;2011-01-16 21:00;CYWG 162100Z 17019G27KT 1 1/2SM -SN DRSN OVC021 M16/M19 A2990 RMK SN2SC6 OCNL BLSN SLP150

CYWG;2011-01-16 21:45;CYWG 162145Z 16015KT 1SM R13/P6000FT/D R36/P6000FT/N -SN DRSN OVC016 M16/ RMK SN3SC5 OCNL BLSN

CYWG;2011-01-16 22:00;CYWG 162200Z 17017KT 2SM -SN DRSN OVC016 M15/M18 A2986 RMK SN2SC6 OCNL BLSN SLP138

CYWG;2011-01-16 23:00;CYWG 162300Z 16017KT 2SM -SN DRSN OVC023 M15/M17 A2983 RMK SN2SC6 SLP130

CYWG;2011-01-16 23:41;CYWG 162341Z 17017KT 1 1/2SM -SN DRSN OVC021 M15/ RMK SN2SC6

CYWG;2011-01-17 00:00;CYWG 170000Z 17015G20KT 1 1/2SM -SN DRSN OVC021 M15/M17 A2980 RMK SN2SC6 SLP116

CYWG;2011-01-17 01:00;CYWG 170100Z 17015KT 1 1/2SM -SN DRSN OVC020 M14/M16 A2975 RMK SN3SC5 SLP100

CYWG;2011-01-17 02:00;CYWG 170200Z 17012KT 1 1/2SM -SN DRSN OVC020 M14/M16 A2974 RMK SN4SC4 SLP096

CYWG;2011-01-17 02:18;CYWG 170218Z 17012KT 1SM R13/P6000FT/N R36/P6000FT/D -SN DRSN VV007 M14/ RMK SN8

CYWG;2011-01-17 03:00;CYWG 170300Z 14007KT 1 1/2SM -SN OVC048 M14/M16 A2971 RMK SN2SC6 /S02/ SLP087

CYWG;2011-01-17 04:00;CYWG 170400Z 14005KT 1 1/2SM -SN OVC030 M14/M16 A2970 RMK SN2SC6 SLP081

CYWG;2011-01-17 05:00;CYWG 170500Z 14005KT 1 1/2SM -SN OVC030 M14/M15 A2968 RMK SN2SC5 SLP075

CYWG;2011-01-17 06:00;CYWG 170600Z 14004KT 1 1/2SM -SN OVC030 M14/M15 A2966 RMK SN2SC5 SLP067

CYWG;2011-01-17 07:00;CYWG 170700Z 13002KT 2SM -SN OVC030 M14/M15 A2964 RMK SN2SC5 SLP062

CYWG;2011-01-17 07:42;CYWG 170742Z 04003KT 5SM -SN OVC019 M14/ RMK SC7

CYWG;2011-01-17 08:00;CYWG 170800Z 03004KT 6SM -SN OVC026 M14/M15 A2964 RMK SC7 SLP060

CYWG;2011-01-17 09:00;CYWG 170900Z 03006KT 6SM -SN OVC018 M14/M16 A2965 RMK SC7 SLP062

CYWG;2011-01-17 10:00;CYWG 171000Z 01008KT 8SM -SN BKN015 BKN050 M16/M18 A2965 RMK SC6SC1 SLP064

CYWG;2011-01-17 11:00;CYWG 171100Z 35007KT 10SM FEW015 SCT050 BKN090 M16/M18 A2967 RMK SC2SC2AC3 SLP069

CYWG;2011-01-17 12:00;CYWG 171200Z 01013KT 12SM FEW015 SCT051 BKN090 M16/M18 A2968 RMK SC2SC2AC3 SLP072

CYWG;2011-01-17 13:00;CYWG 171300Z 36013G20KT 12SM FEW015 SCT046 BKN072 M16/M18 A2971 RMK SC2SC2AC4 SLP082

CYWG;2011-01-17 14:00;CYWG 171400Z 36013G18KT 15SM DRSN FEW046 BKN081 M16/M19 A2974 RMK SC2AC3 DRSN OCNL BS SLP091

CYWG;2011-01-17 14:27;CYWG 171427Z 36017KT 10SM -SN DRSN FEW018 SCT032 BKN081 OVC230 M17/ RMK SC2SC2AC2CI1

CYWG;2011-01-17 15:00;CYWG 171500Z 36014KT 6SM -SN DRSN FEW016 OVC084 M17/M20 A2978 RMK SC2AC6 DRSN OCNL BLSN SLP106

CYWG;2011-01-17 16:00;CYWG 171600Z 01016KT 6SM -SN DRSN FEW025 OVC074 M17/M20 A2980 RMK SC2AC6 DRSN OCNL BLSN SLP114

CYWG;2011-01-17 17:00;CYWG 171700Z 36022KT 10SM -SN DRSN FEW048 BKN067 OVC230 M17/M21 A2983 RMK SC2AC3CI2 DRSN OCNL BLSN SLP122

CYWG;2011-01-17 18:00;CYWG 171800Z 35014G20KT 12SM -SN DRSN SCT062 BKN086 M17/M21 A2985 RMK SC4AC3 DRSN OCNL BLSN SLP130

CYWG;2011-01-17 19:00;CYWG 171900Z 35015G21KT 15SM -SN DRSN FEW027 SCT085 M19/M23 A2986 RMK SC2AC1 SLP135

CYWG;2011-01-17 19:11;CYWG 171911Z 35017KT 15SM DRSN FEW027 FEW085 M19/ RMK SC1AC2

CYWG;2011-01-17 20:00;CYWG 172000Z 35016KT 15SM DRSN FEW025 FEW250 M19/M23 A2987 RMK CF1CI0 SLP139

CYWG;2011-01-17 21:00;CYWG 172100Z 36015KT 15SM DRSN FEW020 M19/M24 A2990 RMK CF2 SLP149

CYWG;2011-01-17 22:00;CYWG 172200Z 35010KT 15SM DRSN FEW250 M20/M25 A2995 RMK CI0 SLP165

CYWG;2011-01-17 23:00;CYWG 172300Z 35011KT 15SM DRSN FEW250 M22/M27 A2999 RMK CI0 SLP178

CYWG;2011-01-18 00:00;CYWG 180000Z 32012KT 15SM DRSN SKC M24/M29 A3002 RMK SLP192

CYWG;2011-01-18 01:00;CYWG 180100Z 33009KT 15SM DRSN SKC M26/M31 A3005 RMK SLP201

CYWG;2011-01-18 02:00;CYWG 180200Z 34013KT 15SM SKC M26/M31 A3006 RMK SLP207

CYWG;2011-01-18 03:00;CYWG 180300Z 33009KT 15SM DRSN SKC M28/M32 A3008 RMK SLP215

CYWG;2011-01-18 04:00;CYWG 180400Z 32008KT 15SM SKC M29/M33 A3011 RMK SLP225

CYWG;2011-01-18 05:00;CYWG 180500Z 32008KT 15SM SKC M30/M34 A3013 RMK SLP231

CYWG;2011-01-18 06:00;CYWG 180600Z 32006KT 15SM SKC M30/M35 A3015 RMK SLP240

CYWG;2011-01-18 07:00;CYWG 180700Z 32009KT 15SM SKC M30/M34 A3017 RMK SLP247

CYWG;2011-01-18 08:00;CYWG 180800Z 33007KT 15SM SKC M31/M35 A3019 RMK SLP252

CYWG;2011-01-18 09:00;CYWG 180900Z 31007KT 15SM SKC M30/M34 A3021 RMK SLP262

CYWG;2011-01-18 10:00;CYWG 181000Z 32007KT 15SM SKC M31/M35 A3022 RMK SLP266

CYWG;2011-01-18 11:00;CYWG 181100Z 33003KT 15SM SKC M33/M37 A3023 RMK SLP269

CYWG;2011-01-18 12:00;CYWG 181200Z 32008KT 15SM SKC M33/M37 A3025 RMK SLP277

CYWG;2011-01-18 13:00;CYWG 181300Z 32003KT 15SM SKC M33/M37 A3026 RMK SLP282

CYWG;2011-01-18 14:00;CYWG 181400Z 33004KT 15SM FEW100 M33/M38 A3028 RMK AC2 SLP289

CYWG;2011-01-18 15:00;CYWG 181500Z 30003KT 15SM FEW100 BKN250 M32/M36 A3030 RMK AC1CI0 SLP295

CYWG;2011-01-18 16:00;CYWG 181600Z 00000KT 3SM IC OVC250 M30/M34 A3029 RMK CI2 SLP293

CYWG;2011-01-18 17:00;CYWG 181700Z 35002KT 10SM FEW100 OVC250 M28/M32 A3030 RMK AC1CS2 IC SLP297

CYWG;2011-01-18 18:00;CYWG 181800Z 35002KT 15SM FEW120 BKN250 M27/M31 A3029 RMK AC2CS1 SLP291

CYWG;2011-01-18 19:00;CYWG 181900Z 00000KT 15SM FEW120 BKN250 M25/M30 A3026 RMK AC1CI2 SLP282

CYWG;2011-01-18 20:00;CYWG 182000Z 00000KT 15SM SCT087 BKN250 M25/M29 A3025 RMK AC2CI0 SLP278

CYWG;2011-01-18 21:00;CYWG 182100Z 30004KT 15SM SCT082 BKN250 M25/M29 A3025 RMK AC2CI2 SLP279

CYWG;2011-01-18 22:00;CYWG 182200Z 28003KT 15SM OVC078 M24/M28 A3025 RMK AC6 SLP279

CYWG;2011-01-18 23:00;CYWG 182300Z 22003KT 15SM SCT074 BKN250 M24/M28 A3024 RMK AC3CI0 SLP274

CYWG;2011-01-19 00:00;CYWG 190000Z 17010KT 15SM BKN076 M24/M28 A3021 RMK AC7 SLP263

CYWG;2011-01-19 01:00;CYWG 190100Z 17009KT 15SM OVC070 M24/M28 A3019 RMK AC8 SLP258

CYWG;2011-01-19 02:00;CYWG 190200Z 18009KT 15SM -SN OVC070 M23/M27 A3018 RMK AC8 SLP254

CYWG;2011-01-20 06:00;CYWG 200600Z 34011KT 15SM -SN SCT046 OVC073 M19/M24 A3010 RMK SC3AC4 SLP218

CYWG;2011-01-20 07:00;CYWG 200700Z 34016KT 15SM -SN BKN035 OVC088 M20/M25 A3014 RMK SC6AC2 SLP230

CYWG;2011-01-20 08:00;CYWG 200800Z 34015G21KT 12SM -SN OVC023 M21/M26 A3016 RMK SC8 SLP237

CYWG;2011-01-20 09:00;CYWG 200900Z 32008KT 15SM SCT099 M24/M29 A3019 RMK AC3 SLP249

CYWG;2011-01-20 10:00;CYWG 201000Z 30008KT 15SM FEW035 SCT100 M25/M29 A3019 RMK SC2AC2 SLP251

CYWG;2011-01-20 11:00;CYWG 201100Z 32011KT 15SM FEW100 M26/M30 A3021 RMK AC1 SLP256

CYWG;2011-01-20 12:00;CYWG 201200Z 32012KT 15SM FEW023 M26/M31 A3023 RMK SC2 SLP266

CYWG;2011-01-20 13:00;CYWG 201300Z 32013KT 15SM FEW026 M26/M31 A3024 RMK SC2 SLP270

CYWG;2011-01-20 14:00;CYWG 201400Z 31011KT 15SM FEW026 M27/M32 A3027 RMK SC1 SLP279

CYWG;2011-01-20 15:00;CYWG 201500Z 31010KT 15SM SKC M28/M33 A3028 RMK SLP284

CYWG;2011-01-20 16:00;CYWG 201600Z 30008KT 15SM FEW030 M29/M33 A3029 RMK SC1 SLP288

CYWG;2011-01-20 17:00;CYWG 201700Z 31007KT 15SM FEW030 M27/M32 A3030 RMK SC1 SLP289

CYWG;2011-01-20 18:00;CYWG 201800Z 33008KT 15SM SKC M26/M31 A3029 RMK SLP288

CYWG;2011-01-20 19:00;CYWG 201900Z 34008KT 15SM SKC M25/M30 A3027 RMK SLP279

CYWG;2011-01-20 20:00;CYWG 202000Z 32006KT 15SM SKC M25/M30 A3024 RMK SLP271

CYWG;2011-01-20 21:00;CYWG 202100Z 27007KT 15SM SKC M25/M30 A3023 RMK SLP268

CYWG;2011-01-20 22:00;CYWG 202200Z 28006KT 15SM FEW200 M26/M31 A3023 RMK CI0 SLP267

CYWG;2011-01-20 23:00;CYWG 202300Z 28003KT 15SM SKC M26/M31 A3021 RMK SLP261

CYWG;2011-01-21 00:00;CYWG 210000Z 25004KT 15SM FEW140 M27/M32 A3019 RMK AC1 AC TR SLP258

CYWG;2011-01-21 01:00;CYWG 210100Z 23005KT 15SM FEW140 M27/M31 A3018 RMK AC1 AC TR SLP253

CYWG;2011-01-21 02:00;CYWG 210200Z 23004KT 15SM SKC M27/M31 A3016 RMK SLP247

CYWG;2011-01-21 03:00;CYWG 210300Z 19005KT 15SM SKC M28/M32 A3014 RMK SLP240

CYWG;2011-01-21 04:00;CYWG 210400Z 15005KT 15SM SKC M30/M33 A3011 RMK SLP230

CYWG;2011-01-21 05:00;CYWG 210500Z 17005KT 15SM BKN250 M28/M32 A3010 RMK CI1 SLP228

CYWG;2011-01-21 06:00;CYWG 210600Z 17005KT 15SM BKN250 M28/M32 A3010 RMK CI2 SLP225

CYWG;2011-01-21 07:00;CYWG 210700Z 17009KT 15SM BKN250 M28/M32 A3008 RMK CI2 SLP220

CYWG;2011-01-21 08:00;CYWG 210800Z 16009KT 15SM FEW067 BKN250 M27/M31 A3006 RMK AC2CI2 SLP212

CYWG;2011-01-21 09:00;CYWG 210900Z 16012KT 15SM BKN058 OVC250 M26/M30 A3003 RMK SC2CI2 SLP199

CYWG;2011-01-21 10:00;CYWG 211000Z 16012KT 15SM OVC058 M26/M31 A2999 RMK SC6 SLP189

CYWG;2011-01-21 11:00;CYWG 211100Z 17012G17KT 15SM OVC056 M26/M30 A2998 RMK SC8 SLP184

CYWG;2011-01-21 12:00;CYWG 211200Z 17016KT 15SM OVC051 M26/M30 A2996 RMK SC8 SLP178

CYWG;2011-01-21 12:38;CYWG 211238Z 16015KT 6SM -SN OVC033 M25/ RMK SC8

CYWG;2011-01-21 13:00;CYWG 211300Z 16014KT 2 1/2SM -SN OVC026 M25/M29 A2993 RMK SC8 SLP166

CYWG;2011-01-21 13:45;CYWG 211345Z 15015KT 1 1/2SM -SN BKN014 OVC076 M25/ RMK SC6AC2

CYWG;2011-01-21 14:00;CYWG 211400Z 15016KT 2SM -SN BKN014 OVC093 M25/M29 A2990 RMK SC6AC2 SLP159

CYWG;2011-01-21 15:00;CYWG 211500Z 15018KT 2SM -SN DRSN BKN014 OVC063 M25/M29 A2990 RMK SC6SC2 SLP158

CYWG;2011-01-21 16:00;CYWG 211600Z 15015KT 2 1/2SM -SN DRSN BKN014 OVC036 M24/M28 A2989 RMK SC5SC3 SLP152

CYWG;2011-01-21 16:20;CYWG 211620Z 16015KT 3SM -SN DRSN SCT014 OVC038 M24/ RMK SC3SC5

CYWG;2011-01-21 17:00;CYWG 211700Z 17016KT 3SM -SN DRSN FEW014 OVC041 M23/M27 A2987 RMK SC2SC6 SLP145

CYWG;2011-01-21 18:00;CYWG 211800Z 18014G19KT 3SM -SN DRSN OVC037 M23/M27 A2985 RMK SC8 SLP138

CYWG;2011-01-21 19:00;CYWG 211900Z 17014KT 3SM -SN DRSN OVC039 M22/M26 A2985 RMK SC8 VIS N 1-SN SLP139

CYWG;2011-01-21 20:00;CYWG 212000Z 18014KT 4SM -SN DRSN OVC039 M22/M27 A2984 RMK SC8 SLP136

CYWG;2011-01-21 21:00;CYWG 212100Z 18008KT 10SM -SN SCT039 BKN049 M22/M26 A2986 RMK SC4SC3 SLP140

CYWG;2011-01-21 21:27;CYWG 212127Z 19005KT 15SM FEW039 BKN049 M22/ RMK SC2SC5

CYWG;2011-01-21 22:00;CYWG 212200Z 23003KT 15SM OVC045 M22/M26 A2986 RMK SC8 SLP142

CYWG;2011-01-21 23:00;CYWG 212300Z 27003KT 15SM OVC045 M22/M26 A2988 RMK SC8 SLP148

CYWG;2011-01-22 00:00;CYWG 220000Z 33004KT 15SM BKN047 M24/M28 A2988 RMK SC5 SLP150

CYWG;2011-01-22 01:00;CYWG 220100Z 35005KT 15SM FEW045 M26/M30 A2989 RMK SC2 SLP152

CYWG;2011-01-22 02:00;CYWG 220200Z 36005KT 15SM FEW045 M28/M32 A2988 RMK SC1 SLP150

CYWG;2011-01-22 03:00;CYWG 220300Z 33006KT 15SM SKC M29/M33 A2990 RMK SLP156

CYWG;2011-01-22 04:00;CYWG 220400Z 34005KT 15SM SKC M30/M34 A2990 RMK SLP157

CYWG;2011-01-22 05:00;CYWG 220500Z 32006KT 15SM SKC M30/M34 A2991 RMK SLP162

CYWG;2011-01-22 06:00;CYWG 220600Z 34005KT 15SM SKC M32/M35 A2992 RMK SLP165

CYWG;2011-01-22 07:00;CYWG 220700Z 35006KT 15SM SKC M33/M37 A2993 RMK SLP167

CYWG;2011-01-22 08:00;CYWG 220800Z 35006KT 15SM SKC M33/M37 A2994 RMK SLP172

CYWG;2011-01-22 09:00;CYWG 220900Z 29004KT 15SM SKC M32/M36 A2998 RMK SLP184

CYWG;2011-01-22 10:00;CYWG 221000Z 31003KT 15SM SKC M33/M37 A2998 RMK SLP184

CYWG;2011-01-22 10:45;CYWG 221045Z 30003KT 10SM SKC M33/ RMK IC

CYWG;2011-01-22 11:00;CYWG 221100Z 30002KT 3SM IC SKC M33/M37 A3000 RMK SLP192

CYWG;2011-01-22 12:00;CYWG 221200Z 30003KT 10SM SKC M35/M40 A3003 RMK IC FROIN SLP204

CYWG;2011-01-22 13:00;CYWG 221300Z 34002KT 8SM SKC M34/M39 A3005 RMK IC SLP209

CYWG;2011-01-22 14:00;CYWG 221400Z 03004KT 8SM FEW080 M35/M38 A3007 RMK AC1 IC FROIN SLP218

CYWG;2011-01-22 15:00;CYWG 221500Z 03004KT 8SM FEW280 M32/M35 A3010 RMK CI0 IC FROIN VIS E 2 SLP230

CYWG;2011-01-22 16:00;CYWG 221600Z 01004KT 12SM FEW280 M32/M35 A3014 RMK CI1 IC FROIN VIS E 4 SLP241

CYWG;2011-01-22 17:00;CYWG 221700Z 33003KT 12SM FEW280 M30/M34 A3017 RMK CI1 IC VIS E 4 SLP252

CYWG;2011-01-22 18:00;CYWG 221800Z 29004KT 10SM FEW280 M28/M32 A3020 RMK CI0 IC VIS E-S 3 SLP261

CYWG;2011-01-22 19:00;CYWG 221900Z 28002KT 15SM SKC M26/M30 A3022 RMK SLP267

CYWG;2011-01-22 20:00;CYWG 222000Z 30003KT 15SM SKC M26/M30 A3022 RMK SLP269

CYWG;2011-01-22 21:00;CYWG 222100Z 32002KT 15SM SKC M26/M29 A3024 RMK SLP275

CYWG;2011-01-22 22:00;CYWG 222200Z 31002KT 15SM SKC M26/M30 A3025 RMK SLP277

CYWG;2011-01-22 23:00;CYWG 222300Z 00000KT 15SM FEW120 FEW210 M25/M29 A3024 RMK AC1CI0 SLP276

CYWG;2011-01-23 00:00;CYWG 230000Z 23003KT 15SM FEW120 SCT210 M27/M31 A3024 RMK AC1CI1 SLP278

CYWG;2011-01-23 01:00;CYWG 230100Z 18005KT 15SM FEW120 BKN210 M27/M31 A3023 RMK AC2CI1 SLP275

CYWG;2011-01-23 02:00;CYWG 230200Z 23005KT 15SM FEW120 BKN210 M26/M30 A3025 RMK AC2CI2 SLP280

CYWG;2011-01-23 03:00;CYWG 230300Z 21007KT 15SM BKN110 OVC210 M24/M28 A3023 RMK AC6CI1 SLP271

CYWG;2011-01-23 04:00;CYWG 230400Z 20010KT 15SM BKN110 BKN210 M23/M27 A3022 RMK AC6CI1 SLP267

CYWG;2011-01-23 05:00;CYWG 230500Z 19009KT 15SM BKN110 BKN210 M24/M27 A3019 RMK AC5CI2 SLP259

CYWG;2011-01-23 06:00;CYWG 230600Z 18014G19KT 15SM BKN110 BKN210 M23/M27 A3015 RMK AC6CI1 SLP242

CYWG;2011-01-23 07:00;CYWG 230700Z 16017KT 15SM SCT057 BKN110 M23/M27 A3011 RMK SC4AC2 SLP227

CYWG;2011-01-23 08:00;CYWG 230800Z 17017KT 15SM SCT051 BKN110 M22/M27 A3007 RMK SC4AC2 SLP215

CYWG;2011-01-23 08:46;CYWG 230846Z 17021KT 10SM -SN SCT051 BKN087 M22/ RMK SC4AC3

CYWG;2011-01-23 09:00;CYWG 230900Z 17022G27KT 6SM -SN DRSN SCT024 BKN074 M22/M26 A3001 RMK SC3AC3 PRESFR SLP192

CYWG;2011-01-23 10:00;CYWG 231000Z 17021G27KT 3SM -SN DRSN OVC034 M21/M24 A2995 RMK SC8 PRESFR SLP171

CYWG;2011-01-23 11:00;CYWG 231100Z 17019G27KT 10SM -SN DRSN OVC027 M20/M23 A2991 RMK SC8 SLP158

CYWG;2011-01-23 11:41;CYWG 231141Z 18027G32KT 4SM BLSN OVC021 M20/ RMK SC8

CYWG;2011-01-23 11:55;CYWG 231155Z 18022G28KT 3SM -SN BLSN OVC018 M20/ RMK SC8

CYWG;2011-01-23 12:00;CYWG 231200Z 18026G32KT 3SM -SN BLSN OVC018 M20/M23 A2987 RMK SC8 SLP145

CYWG;2011-01-23 13:00;CYWG 231300Z 18021G28KT 3SM -SN BLSN OVC018 M20/M23 A2983 RMK SC8 SLP131

CYWG;2011-01-23 13:46;CYWG 231346Z 18025G31KT 1 1/2SM -SN BLSN OVC016 M20/ RMK BLSN1SC7

CYWG;2011-01-23 14:00;CYWG 231400Z 18025G31KT 1 1/2SM -SN BLSN OVC016 M20/M23 A2978 RMK BLSN1SC7 SLP115

CYWG;2011-01-23 15:00;CYWG 231500Z 18023G29KT 1SM R13/P6000FT/U R36/6000FT/N -SN BLSN OVC018 M20/M22 A2975 RMK BLSN2SC6 SLP103

CYWG;2011-01-23 15:48;CYWG 231548Z 18020G28KT 3/4SM R13/P6000FT/N R36/2800V4500FT/U -SN BLSN OVC018 M19/ RMK BLSN2SC6

CYWG;2011-01-23 16:00;CYWG 231600Z 18021G31KT 3/4SM R13/6000FT/U R36/3500FT/N -SN BLSN OVC018 M19/M22 A2971 RMK BLSN2SC6 SLP090

CYWG;2011-01-23 17:00;CYWG 231700Z 18021G28KT 1 1/2SM R13/4500VP6000FT/U R36/5500FT/N -SN BLSN OVC018 M18/M20 A2967 RMK BLSN1SC7 SLP075

CYWG;2011-01-23 17:33;CYWG 231733Z 18024G29KT 1SM R13/P6000FT/U R36/5500FT/U -SN BLSN OVC018 M17/ RMK BLSN2SC6

CYWG;2011-01-23 17:50;CYWG 231750Z 18021G31KT 3/4SM R13/6000FT/D R36/5000FT/N -SN BLSN OVC018 M17/ RMK BLSN2SC6

CYWG;2011-01-23 18:00;CYWG 231800Z 18021G31KT 3/4SM R13/6000FT/U R36/5000FT/N -SN BLSN OVC018 M17/M19 A2963 RMK BLSN2SC6 SLP059

CYWG;2011-01-23 19:00;CYWG 231900Z 18023G32KT 3/4SM R13/6000FT/N R36/3500V6000FT/D -SN BLSN SCT007 OVC020 M16/M19 A2959 RMK BLSN2SF2SC5 SLP047

CYWG;2011-01-23 20:00;CYWG 232000Z 17020G25KT 3/4SM R13/5500FT/N R36/5000FT/D -SN BLSN SCT006 OVC024 M16/M18 A2957 RMK BLSN2SF2SC4 SLP038

CYWG;2011-01-23 21:00;CYWG 232100Z 17024G29KT 3SM -SN BLSN SCT005 OVC054 M15/M17 A2954 RMK SF4SC4 SLP027

CYWG;2011-01-23 21:29;CYWG 232129Z 17020G27KT 1SM R13/P6000FT/U R36/P6000FT/U -SN BLSN BKN005 OVC059 M15/ RMK BLSN2SF4SC2

CYWG;2011-01-23 22:00;CYWG 232200Z 17024KT 1SM R13/P6000FT/U R36/P6000FT/U -SN BLSN OVC005 M15/M16 A2951 RMK BLSN2SF6 SLP019

CYWG;2011-01-23 23:00;CYWG 232300Z 17021G27KT 1SM R13/P6000FT/D R36/P6000FT/D -SN BLSN OVC005 M14/M15 A2949 RMK BLSN2SF6 SLP011

CYWG;2011-01-24 00:00;CYWG 240000Z 16022KT 1SM R13/P6000FT/D R36/P6000FT/D -SN BLSN OVC005 M13/M14 A2946 RMK SN3SF5 SLP998

CYWG;2011-01-24 01:00;CYWG 240100Z 18021G26KT 3/4SM R13/P6000FT/U R36/P6000FT/U -SN BLSN OVC004 M12/M13 A2946 RMK SN3SF5 SLP998

CYWG;2011-01-24 02:00;CYWG 240200Z 17018G25KT 3/4SM R13/P6000FT/U R36/P6000FT/U -SN BLSN VV005 M12/M13 A2944 RMK SN8 SLP993

CYWG;2011-01-24 03:00;CYWG 240300Z 17017KT 3SM -SN BLSN OVC021 M12/M12 A2944 RMK SC8 SLP990

CYWG;2011-01-24 03:24;CYWG 240324Z 17015KT 1 1/2SM -SN BLSN VV007 M11/ RMK SN8

CYWG;2011-01-24 04:00;CYWG 240400Z 17014KT 1SM R13/P6000FT/D R36/P6000FT/D -SN BLSN VV008 M11/M12 A2944 RMK SN8 SLP993

CYWG;2011-01-24 05:00;CYWG 240500Z 16008KT 1 1/2SM -SN DRSN VV009 M10/M11 A2946 RMK SN8 SLP999

CYWG;2011-01-24 06:00;CYWG 240600Z 13003KT 1SM R13/P6000FT/U R36/P6000FT/U -SN VV009 M10/M11 A2950 RMK SN8 SLP010

CYWG;2011-01-24 07:00;CYWG 240700Z 02006KT 1SM R13/P6000FT/D R36/P6000FT/D -SN VV006 M10/M11 A2954 RMK SN8 SLP023

CYWG;2011-01-24 07:49;CYWG 240749Z 01010KT 2SM -SN BKN009 OVC055 M11/ RMK SN3SC3SC2

CYWG;2011-01-24 08:00;CYWG 240800Z 01010KT 5SM -SN SCT009 OVC051 M11/M11 A2959 RMK SC3SC5 SLP041

CYWG;2011-01-24 09:00;CYWG 240900Z 36014KT 6SM -SN DRSN SCT018 OVC029 M11/M12 A2966 RMK SC3SC5 PRESRR SLP063

CYWG;2011-01-24 10:00;CYWG 241000Z 35014KT 8SM -SN DRSN FEW013 OVC028 M11/M12 A2970 RMK SC2SC6 SLP079

CYWG;2011-01-24 11:00;CYWG 241100Z 35014KT 10SM -SN DRSN FEW014 OVC028 M12/M13 A2975 RMK SC2SC6 SLP094

CYWG;2011-01-24 12:00;CYWG 241200Z 36013G19KT 12SM -SN DRSN FEW015 OVC030 M12/M13 A2978 RMK SC2SC6 SLP106

CYWG;2011-01-24 13:00;CYWG 241300Z 36015KT 15SM DRSN FEW017 OVC030 M12/M13 A2984 RMK SC2SC6 SLP124

CYWG;2011-01-24 14:00;CYWG 241400Z 35020KT 12SM DRSN FEW019 OVC030 M13/M14 A2990 RMK SC2SC6 SLP143

CYWG;2011-01-24 15:00;CYWG 241500Z 35015G20KT 12SM DRSN FEW020 OVC034 M13/M14 A2993 RMK SC2SC6 SLP156

CYWG;2011-01-24 16:00;CYWG 241600Z 34015KT 15SM DRSN BKN035 BKN064 M13/M15 A2997 RMK SC5SC2 SLP168

CYWG;2011-01-24 17:00;CYWG 241700Z 34016KT 15SM DRSN FEW019 BKN037 OVC062 M13/M15 A3001 RMK SC2SC4SC2 SLP181

CYWG;2011-01-24 18:00;CYWG 241800Z 36012KT 15SM DRSN FEW019 BKN035 M13/M15 A3001 RMK SC2SC5 SLP184

CYWG;2011-01-24 19:00;CYWG 241900Z 36010KT 15SM FEW020 BKN035 M13/M15 A3001 RMK SC1SC6 SLP184

CYWG;2011-01-24 20:00;CYWG 242000Z 32014KT 15SM DRSN FEW021 BKN030 M14/M15 A3004 RMK SC2SC5 SLP192

CYWG;2011-01-24 21:00;CYWG 242100Z 33014KT 15SM DRSN BKN024 OVC090 M14/M16 A3006 RMK SC6AC2 SLP200

CYWG;2011-01-24 22:00;CYWG 242200Z 32013KT 15SM DRSN BKN022 OVC090 M14/M16 A3006 RMK SC6AC2 SLP200

CYWG;2011-01-24 23:00;CYWG 242300Z 31011KT 10SM -SN DRSN BKN018 OVC065 M15/M16 A3006 RMK SC6SC2 SLP202

CYWG;2011-01-25 00:00;CYWG 250000Z 30008KT 12SM -SN BKN016 OVC065 M15/M17 A3005 RMK SC6SC2 SLP199

CYWG;2011-01-25 01:00;CYWG 250100Z 25005KT 15SM OVC014 M16/M18 A3004 RMK SC8 SLP196

CYWG;2011-01-25 02:00;CYWG 250200Z 22006KT 15SM BKN014 M17/M18 A3002 RMK SC6 SLP189

CYWG;2011-01-25 02:32;CYWG 250232Z 21006KT 15SM BKN016 BKN088 M17/ RMK SC5AC1

CYWG;2011-01-25 03:00;CYWG 250300Z 22004KT 15SM FEW019 BKN088 M17/M18 A3003 RMK SC2AC2 SLP190

CYWG;2011-01-25 04:00;CYWG 250400Z 21005KT 15SM BKN110 M17/M18 A3002 RMK AC6 SLP189

CYWG;2011-01-25 05:00;CYWG 250500Z 17006KT 15SM BKN110 M17/M18 A3000 RMK AC6 SLP182

CYWG;2011-01-25 06:00;CYWG 250600Z 18009KT 15SM SCT027 BKN110 M16/M18 A2998 RMK SC3AC4 SLP176

CYWG;2011-01-25 07:00;CYWG 250700Z 18015KT 15SM OVC013 M15/M16 A2992 RMK SC8 PRESFR SLP156

CYWG;2011-01-25 08:00;CYWG 250800Z 19014KT 15SM OVC013 M14/M15 A2990 RMK SC8 SLP148

CYWG;2011-01-25 09:00;CYWG 250900Z 19013KT 15SM OVC013 M13/M14 A2987 RMK SC8 SLP137

CYWG;2011-01-25 09:39;CYWG 250939Z 18015G20KT 15SM OVC009 M12/ RMK SC8

CYWG;2011-01-25 10:00;CYWG 251000Z 20014KT 15SM OVC010 M12/M13 A2986 RMK SC8 SLP133

CYWG;2011-01-25 11:00;CYWG 251100Z 19015KT 15SM SCT007 BKN012 M11/M12 A2982 RMK SC3SC3 SLP121

CYWG;2011-01-25 11:44;CYWG 251144Z 19014KT 15SM SCT012 M11/ RMK SC3

CYWG;2011-01-25 12:00;CYWG 251200Z 19015KT 15SM SKC M11/M12 A2981 RMK SLP116

CYWG;2011-01-25 13:00;CYWG 251300Z 19017KT 15SM FEW250 M11/M12 A2979 RMK CI1 SLP109

CYWG;2011-01-25 14:00;CYWG 251400Z 20014KT 15SM FEW025 SCT250 M11/M12 A2980 RMK SC1CI2 TR SC SLP112

CYWG;2011-01-25 15:00;CYWG 251500Z 19007KT 15SM FEW250 M12/M12 A2981 RMK CS1 SLP116

CYWG;2011-01-25 16:00;CYWG 251600Z 21008KT 15SM FEW250 M10/M11 A2981 RMK CS1 SLP116

CYWG;2011-01-25 17:00;CYWG 251700Z 20008KT 15SM FEW250 M08/M10 A2983 RMK CS1 SLP123

CYWG;2011-01-25 18:00;CYWG 251800Z 26004KT 15SM SCT250 M07/M09 A2984 RMK CS2 SLP126

CYWG;2011-01-25 19:00;CYWG 251900Z 27008KT 15SM BKN030 M07/M09 A2985 RMK SC7 SLP127

CYWG;2011-01-25 20:00;CYWG 252000Z 30010KT 15SM BKN030 OVC079 M04/M06 A2986 RMK SC6AC2 SLP132

CYWG;2011-01-25 21:00;CYWG 252100Z 29011KT 15SM BKN026 OVC080 M04/M06 A2989 RMK SC6AC2 SLP138

CYWG;2011-01-25 22:00;CYWG 252200Z 30009KT 15SM BKN028 OVC080 M03/M05 A2991 RMK SC6AC2 SLP147

CYWG;2011-01-25 23:00;CYWG 252300Z 34014G20KT 15SM BKN026 OVC080 M03/M06 A2995 RMK SC7AC1 SLP158

CYWG;2011-01-26 00:00;CYWG 260000Z 34014KT 15SM BKN020 BKN080 M04/M06 A2998 RMK SC6AC1 SLP170

CYWG;2011-01-26 01:00;CYWG 260100Z 02017KT 15SM BKN027 BKN080 M07/M09 A3003 RMK SC6AC1 SLP186

CYWG;2011-01-26 02:00;CYWG 260200Z 35015KT 15SM BKN025 BKN096 M09/M12 A3007 RMK SC5AC1 SLP199

CYWG;2011-01-26 03:00;CYWG 260300Z 02009KT 15SM FEW076 M12/M14 A3009 RMK AC2 SLP211

CYWG;2011-01-26 04:00;CYWG 260400Z 36006KT 15SM SKC M15/M17 A3011 RMK SLP216

CYWG;2011-01-26 05:00;CYWG 260500Z 33007KT 15SM SKC M17/M18 A3012 RMK SLP221

CYWG;2011-01-26 06:00;CYWG 260600Z 31003KT 15SM SKC M18/M19 A3013 RMK SLP226

CYWG;2011-01-26 07:00;CYWG 260700Z 30005KT 15SM SKC M19/M20 A3013 RMK SLP226

CYWG;2011-01-26 08:00;CYWG 260800Z 00000KT 15SM SKC M20/M21 A3011 RMK SLP217

CYWG;2011-01-26 09:00;CYWG 260900Z 34005KT 15SM SCT240 M21/M22 A3011 RMK CI2 SLP216

CYWG;2011-01-26 10:00;CYWG 261000Z 04004KT 15SM FEW020 BKN240 M21/M21 A3009 RMK SC2CI2 SLP212

CYWG;2011-01-26 10:20;CYWG 261020Z 09003KT 15SM OVC015 M19/ RMK SC8

CYWG;2011-01-26 11:00;CYWG 261100Z 18002KT 15SM OVC015 M17/M18 A3007 RMK SC8 SLP204

CYWG;2011-01-26 12:00;CYWG 261200Z 18007KT 15SM OVC013 M16/M17 A3005 RMK SC8 SLP194

CYWG;2011-01-26 13:00;CYWG 261300Z 17009KT 15SM OVC017 M15/M17 A3003 RMK SC8 SLP187

CYWG;2011-01-26 14:00;CYWG 261400Z 17012KT 15SM -SN OVC013 M15/M16 A2999 RMK SC8 SLP176

CYWG;2011-01-26 15:00;CYWG 261500Z 17013KT 15SM -SN BKN010 OVC068 M13/M15 A2996 RMK SC6AC2 SLP166

CYWG;2011-01-26 15:23;CYWG 261523Z 17015KT 15SM BKN008 BKN039 M13/ RMK SC3SC2

CYWG;2011-01-26 16:00;CYWG 261600Z 18016KT 15SM SCT008 BKN048 M11/M13 A2991 RMK SC2SC5 SLP150

CYWG;2011-01-26 16:16;CYWG 261616Z 18018KT 10SM -SN DRSN FEW008 BKN028 BKN085 M11/ RMK SC1SC4AC1

CYWG;2011-01-26 16:30;CYWG 261630Z 18020G27KT 15SM DRSN FEW030 SCT085 BKN230 M11/ RMK SC2AC1CI1

CYWG;2011-01-26 17:00;CYWG 261700Z 18018KT 15SM DRSN FEW030 FEW085 BKN230 M10/M12 A2987 RMK SC1AC1CI2 SLP137

CYWG;2011-01-26 18:00;CYWG 261800Z 18017G24KT 25SM DRSN BKN120 BKN250 M08/M10 A2984 RMK AC5CI1 PRESFR SLP125

CYWG;2011-01-26 19:00;CYWG 261900Z 19017KT 15SM SCT120 BKN250 M07/M09 A2980 RMK AC3CI1 SLP113

CYWG;2011-01-26 20:00;CYWG 262000Z 19011KT 15SM FEW120 FEW250 M07/M09 A2978 RMK AC2CI0 SLP105

CYWG;2011-01-26 21:00;CYWG 262100Z 21009KT 15SM FEW120 FEW250 M06/M09 A2977 RMK AC2CI0 SLP101

CYWG;2011-01-26 22:00;CYWG 262200Z 18006KT 15SM FEW120 FEW250 M08/M10 A2976 RMK AC2CI0 SLP099

CYWG;2011-01-26 23:00;CYWG 262300Z 19006KT 15SM FEW120 FEW250 M09/M10 A2977 RMK AC2CI1 SLP104

CYWG;2011-01-27 00:00;CYWG 270000Z 18006KT 15SM FEW120 SCT250 M11/M12 A2976 RMK AC1CI2 SLP099

CYWG;2011-01-27 01:00;CYWG 270100Z 18006KT 15SM FEW250 M12/M13 A2975 RMK CI2 SLP096

CYWG;2011-01-27 02:00;CYWG 270200Z 19005KT 15SM SKC M12/M13 A2974 RMK SLP092

CYWG;2011-01-27 03:00;CYWG 270300Z 17005KT 15SM SKC M14/M15 A2974 RMK SLP091

CYWG;2011-01-27 04:00;CYWG 270400Z 17008KT 12SM SKC M13/M14 A2972 RMK SLP086

CYWG;2011-01-27 05:00;CYWG 270500Z 16005KT 12SM SKC M14/M15 A2973 RMK SLP088

CYWG;2011-01-27 06:00;CYWG 270600Z 16005KT 10SM SKC M15/M15 A2974 RMK BR SLP091

CYWG;2011-01-27 07:00;CYWG 270700Z 14004KT 10SM FEW004 M15/M16 A2974 RMK ST2 BR SLP090

CYWG;2011-01-27 07:44;CYWG 270744Z 16004KT 4SM BR SCT001 M14/ RMK ST3

CYWG;2011-01-27 08:00;CYWG 270800Z 17005KT 1SM R13/P6000FT/U R36/1800FT/N BR SKC M14/M14 A2975 RMK FG7 SLP094

CYWG;2011-01-27 08:16;CYWG 270816Z 17002KT 1/4SM R13/1400V1800FT/N R36/1800FT/N FZFG VV000 M15/ RMK FG8

CYWG;2011-01-27 08:42;CYWG 270842Z 25002KT 1/2SM R13/P6000FT/N R36/1800FT/N FZFG VV001 M15/ RMK FG8

CYWG;2011-01-27 09:00;CYWG 270900Z 00000KT 1/2SM R13/1600FT/N R36/1200V2000FT/U FZFG VV001 M15/M16 A2977 RMK FG8 SLP101

CYWG;2011-01-27 09:19;CYWG 270919Z 28002KT 1/4SM R13/1200FT/N R36/P6000FT/U FZFG VV000 M15/ RMK FG8

CYWG;2011-01-27 10:00;CYWG 271000Z 00000KT 1/8SM R13/0800FT/N R36/0900FT/N FZFG VV000 M16/M16 A2978 RMK FG8 SLP105

CYWG;2011-01-27 10:34;CYWG 271034Z 00000KT 1/4SM R13/0800FT/N R36/0900FT/N FZFG VV000 M16/ RMK FG8

CYWG;2011-01-27 11:00;CYWG 271100Z 00000KT 1/8SM R13/0800FT/N R36/0800FT/N FZFG VV000 M16/M16 A2980 RMK FG8 SLP109

CYWG;2011-01-27 12:00;CYWG 271200Z 31003KT 1/4SM R13/1100V1800FT/D R36/1400V2000FT/N FZFG VV001 M15/M16 A2982 RMK FG8 SLP120

CYWG;2011-01-27 13:43;CYWG 271343Z 02004KT 1/2SM R13/2800VP6000FT/N R36/2600VP6000FT/N FZFG VV005 M13/ RMK FG8

CYWG;2011-01-27 14:00;CYWG 271400Z 02003KT 1SM R13/P6000FT/N R36/P6000FT/D BR VV004 M13/M13 A2984 RMK FG8 SLP125

CYWG;2011-01-27 14:24;CYWG 271424Z 03003KT 2SM BR OVC005 RMK ST8 VIS E 1

CYWG;2011-01-27 15:00;CYWG 271500Z 34003KT 2SM BR OVC006 M12/M12 A2986 RMK ST8 SLP132

CYWG;2011-01-27 16:00;CYWG 271600Z 30004KT 2SM BR OVC003 M11/M12 A2989 RMK ST8 SLP141

CYWG;2011-01-27 17:00;CYWG 271700Z 35002KT 2SM R36/4500VP6000FT/U BR OVC003 M09/M10 A2989 RMK ST8 VIS S-W 1 SLP143

CYWG;2011-01-27 17:38;CYWG 271738Z 34004KT 4SM BR OVC006 M08/ RMK ST8

CYWG;2011-01-27 18:00;CYWG 271800Z 03009KT 10SM OVC007 M08/M08 A2990 RMK ST8 SLP143

CYWG;2011-01-27 18:50;CYWG 271850Z 36008KT 10SM -SN OVC011 M08/ RMK SC8

CYWG;2011-01-27 19:00;CYWG 271900Z 36007KT 10SM -SN OVC011 M08/M08 A2989 RMK SC8 SLP142

CYWG;2011-01-27 19:48;CYWG 271948Z 35007KT 12SM -SN OVC009 M08/ RMK SC8

CYWG;2011-01-27 20:00;CYWG 272000Z 03008KT 15SM -SN OVC011 M08/M09 A2988 RMK SC8 SLP139

CYWG;2011-01-27 21:00;CYWG 272100Z 05007KT 15SM -SN OVC013 M08/M09 A2988 RMK SC8 SLP139

CYWG;2011-01-27 22:00;CYWG 272200Z 05005KT 15SM -SN OVC013 M08/M10 A2988 RMK SC8 SLP138

CYWG;2011-01-27 23:00;CYWG 272300Z 04007KT 15SM BKN013 BKN100 M09/M10 A2990 RMK SC6AC1 SLP146

CYWG;2011-01-28 00:00;CYWG 280000Z 05005KT 15SM SCT015 BKN046 M09/M10 A2990 RMK SC4SC2 SLP147

CYWG;2011-01-28 01:00;CYWG 280100Z 07005KT 15SM FEW015 BKN044 BKN092 M09/M10 A2988 RMK SC2SC3AC2 SLP140

CYWG;2011-01-28 02:00;CYWG 280200Z 06005KT 15SM BKN013 OVC042 M09/M10 A2988 RMK SC7SC1 SLP138

CYWG;2011-01-28 03:00;CYWG 280300Z 04002KT 15SM OVC012 M09/M10 A2986 RMK SC8 SLP131

CYWG;2011-01-28 04:00;CYWG 280400Z 07003KT 15SM OVC010 M09/M10 A2984 RMK SC8 SLP124

CYWG;2011-01-28 04:47;CYWG 280447Z 11003KT 15SM OVC008 M09/ RMK ST8

CYWG;2011-01-28 05:00;CYWG 280500Z 13006KT 15SM OVC007 M08/M09 A2983 RMK ST8 SLP120

CYWG;2011-01-28 06:00;CYWG 280600Z 12008KT 12SM OVC005 M08/M09 A2981 RMK ST8 SLP112

CYWG;2011-01-28 06:09;CYWG 280609Z 12008KT 12SM -SN OVC006 M08/ RMK ST8

CYWG;2011-01-28 07:00;CYWG 280700Z 14009KT 4SM -SN OVC007 M08/M08 A2979 RMK ST8 SLP105

CYWG;2011-01-28 08:00;CYWG 280800Z 15010KT 3SM -SN OVC009 M07/M08 A2977 RMK SC8 SLP098

CYWG;2011-01-28 08:33;CYWG 280833Z 15010KT 2SM -SN OVC009 M07/ RMK SC8

CYWG;2011-01-28 09:00;CYWG 280900Z 15010KT 2SM -SN OVC010 M07/M08 A2975 RMK SC8 SLP090

CYWG;2011-01-28 09:36;CYWG 280936Z 14013KT 4SM -SN OVC015 M07/ RMK SC8

CYWG;2011-01-28 10:00;CYWG 281000Z 14012KT 4SM -SN OVC029 M07/M08 A2971 RMK SC8 SLP078

CYWG;2011-01-28 11:00;CYWG 281100Z 14016KT 3SM -SN OVC023 M06/M07 A2967 RMK SC8 /S01/ SLP063

CYWG;2011-01-28 11:19;CYWG 281119Z 14013G18KT 2SM -SN OVC012 M06/ RMK SN2SC6

CYWG;2011-01-28 12:00;CYWG 281200Z 14012KT 2SM -SN OVC036 M06/M07 A2968 RMK SN3SC5 SLP066

CYWG;2011-01-28 13:00;CYWG 281300Z 15013KT 2SM -SN OVC035 M06/M06 A2964 RMK SN5SC3 SLP055

CYWG;2011-01-28 14:00;CYWG 281400Z 14016G21KT 1SM R13/P6000FT/U R36/P6000FT/U -SN OVC030 M05/M06 A2960 RMK SN6SC2 SLP040

CYWG;2011-01-28 14:24;CYWG 281424Z 14017KT 2SM -SN OVC013 M05/ RMK SN2SC6

CYWG;2011-01-28 14:51;CYWG 281451Z 15016KT 3/4SM R13/P6000FT/D R36/P6000FT/D -SN OVC013 M05/ RMK SN7SC1

CYWG;2011-01-28 15:00;CYWG 281500Z 14018KT 1/2SM R13/5500FT/D R36/5500FT/D SN VV003 M05/M06 A2955 RMK SN8 SLP024

CYWG;2011-01-28 15:37;CYWG 281537Z 15020G25KT 1/4SM R13/2400FT/N R36/2200FT/N +SN VV002 M05/ RMK SN8

CYWG;2011-01-28 16:00;CYWG 281600Z 16013KT 1/4SM R13/3000FT/U R36/2400V4000FT/U +SN VV001 M05/M06 A2957 RMK SN8 /S02/ SLP028

CYWG;2011-01-28 16:43;CYWG 281643Z 17013G18KT 1/4SM R13/2800FT/N R36/2600FT/N +SN VV002 M05/ RMK SN8

CYWG;2011-01-28 17:00;CYWG 281700Z 15016KT 1/4SM R13/2400FT/N R36/2200FT/N +SN VV002 M05/M05 A2951 RMK SN8 PRESFR SLP011

CYWG;2011-01-28 17:18;CYWG 281718Z 15015KT 1/2SM R13/5000FT/N R36/3500V6000FT/U SN VV002 M05/ RMK SN8

CYWG;2011-01-28 17:34;CYWG 281734Z 16013G19KT 1/4SM R13/2600FT/N R36/2400FT/N +SN VV002 M05/ RMK SN8

CYWG;2011-01-28 18:00;CYWG 281800Z 16017KT 1/4SM R13/3000FT/N R36/2200FT/N +SN VV001 M05/M05 A2948 RMK SN8 SLP999

CYWG;2011-01-28 18:16;CYWG 281816Z 15010G18KT 2SM R36/4000VP6000FT/U -SN OVC025 M05/ RESN RMK SC8

CYWG;2011-01-28 19:00;CYWG 281900Z 17011KT 2SM -SN OVC036 M04/M05 A2950 RMK SC8 SLP006

CYWG;2011-01-28 19:45;CYWG 281945Z 16011KT 10SM OVC015 M04/ RMK SC8 BR

CYWG;2011-01-28 20:00;CYWG 282000Z 16009KT 10SM OVC015 M04/M04 A2949 RMK SC8 BR SLP003

CYWG;2011-01-28 20:08;CYWG 282008Z 16008KT 5SM -SN BR OVC015 M04/ RMK SC8

CYWG;2011-01-28 20:14;CYWG 282014Z 17007KT 6SM -SN BR OVC013 M04/ RMK SC8

CYWG;2011-01-28 20:28;CYWG 282028Z 15007KT 5SM -SN BR OVC009 M04/ RMK SC8

CYWG;2011-01-28 21:00;CYWG 282100Z 14006KT 7SM -SN OVC008 M04/M04 A2950 RMK ST8 BR SLP005

CYWG;2011-01-28 21:09;CYWG 282109Z 15006KT 10SM OVC008 M04/ RMK ST8 BR

CYWG;2011-01-28 21:53;CYWG 282153Z 15004KT 6SM -SN BR OVC010 M04/ RMK ST8

CYWG;2011-01-28 22:00;CYWG 282200Z 15005KT 5SM -SN BR OVC010 M04/M04 A2953 RMK ST8 SLP013

CYWG;2011-01-28 22:28;CYWG 282228Z 09004KT 10SM -SN OVC008 M04/ RMK ST8

CYWG;2011-01-28 22:54;CYWG 282254Z 35002KT 2SM -SN BR OVC009 M04/ RMK ST8

CYWG;2011-01-28 23:00;CYWG 282300Z 35003KT 2SM -SN BR OVC011 M04/M05 A2958 RMK ST8 SLP030

CYWG;2011-01-28 23:12;CYWG 282312Z 01003KT 6SM -SN BR OVC007 M04/ RMK ST8

CYWG;2011-01-28 23:43;CYWG 282343Z 33007KT 6SM -SN BKN011 OVC040 M05/ RMK ST6SC2

CYWG;2011-01-29 00:00;CYWG 290000Z 01011KT 10SM -SN FEW011 OVC040 M06/M06 A2962 RMK SF2SC6 SLP045

CYWG;2011-01-29 00:23;CYWG 290023Z 34014KT 12SM -SN FEW007 BKN014 OVC034 M07/ RMK SF2SC4SC2

CYWG;2011-01-29 00:38;CYWG 290038Z 34012KT 12SM -SN DRSN BKN007 OVC012 M07/ RMK SF5SC3

CYWG;2011-01-29 00:50;CYWG 290050Z 35012KT 12SM -SN DRSN SCT008 OVC016 M07/ RMK SF3SC5

CYWG;2011-01-29 01:00;CYWG 290100Z 34012KT 12SM -SN DRSN FEW008 OVC016 M07/M08 A2968 RMK SF2SC6 PRESRR SLP067

CYWG;2011-01-29 01:38;CYWG 290138Z 32020KT 6SM -SN DRSN OVC008 M09/ RMK ST8

CYWG;2011-01-29 02:00;CYWG 290200Z 31018KT 4SM -SN DRSN OVC010 M09/M10 A2973 RMK ST8 SLP082

CYWG;2011-01-29 02:25;CYWG 290225Z 36012G19KT 6SM -SN DRSN OVC009 M09/ RMK ST8

CYWG;2011-01-29 02:45;CYWG 290245Z 36013KT 8SM -SN DRSN OVC012 M09/ RMK ST8

CYWG;2011-01-29 02:54;CYWG 290254Z 01017KT 1 1/2SM -SN DRSN OVC012 M09/ RMK ST8

CYWG;2011-01-29 03:00;CYWG 290300Z 36014KT 1SM R31/P6000FT/D R36/4000VP6000FT/D -SN DRSN OVC012 M09/M10 A2977 RMK SN2ST6 SLP098

CYWG;2011-01-29 03:13;CYWG 290313Z 36014KT 4SM -SN DRSN OVC012 M10/ RMK ST8

CYWG;2011-01-29 04:00;CYWG 290400Z 36014KT 6SM -SN DRSN BKN013 OVC025 M10/M12 A2981 RMK SF6SC2 SLP111

CYWG;2011-01-29 05:00;CYWG 290500Z 36014KT 3SM -SN DRSN SCT025 OVC040 M11/M13 A2985 RMK SC3SC5 SLP125

CYWG;2011-01-29 06:00;CYWG 290600Z 34018KT 6SM -SN DRSN BKN016 OVC025 M13/M15 A2988 RMK SC6SC2 SLP138

CYWG;2011-01-29 07:00;CYWG 290700Z 35014KT 10SM -SN DRSN BKN026 M16/M17 A2992 RMK SC6 SLP149

CYWG;2011-01-29 07:35;CYWG 290735Z 35011KT 15SM DRSN FEW020 SCT046 M16/ RMK SC2SC2

CYWG;2011-01-29 08:00;CYWG 290800Z 34008KT 15SM FEW045 M18/M19 A2993 RMK SC2 SLP154

CYWG;2011-01-29 09:00;CYWG 290900Z 33011KT 15SM FEW025 M20/M21 A2997 RMK SC1 SLP169

CYWG;2011-01-29 10:00;CYWG 291000Z 34009KT 15SM FEW025 M20/M21 A3000 RMK SC1 SLP179

CYWG;2011-01-29 11:00;CYWG 291100Z 33009KT 15SM FEW025 M20/M24 A3002 RMK SC1 SLP185

CYWG;2011-01-29 12:00;CYWG 291200Z 33011KT 15SM FEW021 M20/M23 A3004 RMK SC2 SLP195

CYWG;2011-01-29 13:00;CYWG 291300Z 32012KT 15SM FEW010 FEW099 M18/M21 A3009 RMK SC1AC2 OBS TAKEN +05 SLP209

CYWG;2011-01-29 14:00;CYWG 291400Z 33010KT 15SM FEW023 FEW099 SCT250 M21/M25 A3011 RMK SC1AC2CI1 SLP217

CYWG;2011-01-29 15:00;CYWG 291500Z 33010KT 15SM SCT016 SCT100 SCT250 M21/M24 A3013 RMK SC2AC1CI1 SLP228

CYWG;2011-01-29 16:00;CYWG 291600Z 33015KT 8SM OVC014 M17/M20 A3016 RMK SC7 SLP236

CYWG;2011-01-29 17:00;CYWG 291700Z CCA 33012KT 15SM FEW016 SCT100 BKN250 M18/M21 A3020 RMK SC2AC2CI0 OBS TAKEN +11 SLP250

CYWG;2011-01-29 18:00;CYWG 291800Z 34014KT 15SM SCT016 BKN040 BKN077 M18/M21 A3022 RMK SC3SC2AC1 SLP257

CYWG;2011-01-29 19:00;CYWG 291900Z 33014KT 15SM FEW016 FEW070 BKN250 M18/M22 A3023 RMK SC1AC2CI0 SLP260

CYWG;2011-01-29 20:00;CYWG 292000Z 34014KT 15SM FEW070 BKN250 M18/M22 A3024 RMK AC2CI1 SLP263

CYWG;2011-01-29 21:00;CYWG 292100Z 34014KT 15SM FEW070 BKN250 M18/M22 A3026 RMK AC2CI2 SLP273

CYWG;2011-01-29 22:00;CYWG 292200Z 36007KT 15SM FEW020 FEW083 SCT250 M19/M24 A3029 RMK SC2AC1CI1 SLP282

CYWG;2011-01-29 23:00;CYWG 292300Z 01013KT 15SM DRSN BKN020 BKN085 M19/M23 A3032 RMK SC5AC1 SLP292

CYWG;2011-01-30 00:00;CYWG 300000Z 36012KT 15SM DRSN OVC018 M19/M23 A3035 RMK SC8 SLP304

CYWG;2011-01-30 01:00;CYWG 300100Z 35013KT 15SM DRSN BKN020 OVC082 M19/M24 A3036 RMK SC7AC1 SLP307

CYWG;2011-01-30 02:00;CYWG 300200Z 35015KT 15SM DRSN BKN020 OVC080 M20/M24 A3039 RMK SC7AC1 DRSN OCNL BLSN SLP319

CYWG;2011-01-30 03:00;CYWG 300300Z 36014KT 15SM DRSN SCT026 OVC076 M21/M25 A3042 RMK SC4AC3 DRSN OCNL BLSN SLP329

CYWG;2011-01-30 04:00;CYWG 300400Z 35012KT 15SM DRSN BKN076 M21/M26 A3044 RMK AC6 SLP337

CYWG;2011-01-30 05:00;CYWG 300500Z 36015KT 15SM DRSN BKN074 M23/M27 A3046 RMK AC6 SLP344

CYWG;2011-01-30 06:00;CYWG 300600Z 36012KT 15SM DRSN SCT075 M25/M29 A3048 RMK AC3 SLP349

CYWG;2011-01-30 07:00;CYWG 300700Z 35010KT 15SM DRSN SKC M26/M30 A3050 RMK SLP356

CYWG;2011-01-30 08:00;CYWG 300800Z 34009KT 15SM SKC M29/M32 A3052 RMK SLP364

CYWG;2011-01-30 09:00;CYWG 300900Z 30005KT 15SM SKC M30/M34 A3054 RMK SLP373

CYWG;2011-01-30 10:00;CYWG 301000Z 35007KT 15SM SKC M32/M35 A3055 RMK SLP377

CYWG;2011-01-30 11:00;CYWG 301100Z 01011KT 15SM SKC M29/M33 A3057 RMK SLP382

CYWG;2011-01-30 12:00;CYWG 301200Z 01010KT 15SM SKC M30/M34 A3058 RMK SLP387

CYWG;2011-01-30 13:00;CYWG 301300Z 35007KT 15SM FEW230 M31/M35 A3061 RMK CI0 SLP397

CYWG;2011-01-30 14:00;CYWG 301400Z 34007KT 15SM BKN230 M34/M38 A3061 RMK CI1 SLP398

CYWG;2011-01-30 15:00;CYWG 301500Z 35005KT 15SM SCT230 M34/M38 A3062 RMK CI0 SLP405

CYWG;2011-01-30 16:00;CYWG 301600Z 32003KT 15SM SCT230 M32/M37 A3064 RMK CI0 SLP412

CYWG;2011-01-30 17:00;CYWG 301700Z 02009KT 15SM SCT230 M30/M34 A3065 RMK CI0 SLP414

CYWG;2011-01-30 18:00;CYWG 301800Z 01007KT 15SM BKN230 M29/M34 A3066 RMK CI2 SLP416

CYWG;2011-01-30 19:00;CYWG 301900Z 01007KT 15SM BKN230 M28/M33 A3066 RMK CI4 SLP417

CYWG;2011-01-30 20:00;CYWG 302000Z 35006KT 15SM BKN250 M26/M31 A3066 RMK CI4 SLP417

CYWG;2011-01-30 21:00;CYWG 302100Z 02008KT 15SM BKN230 M25/M32 A3065 RMK CI4 SLP414

CYWG;2011-01-30 22:00;CYWG 302200Z 36004KT 15SM BKN250 M26/M32 A3065 RMK CI4 SLP415

CYWG;2011-01-30 23:00;CYWG 302300Z 36005KT 15SM BKN250 M26/M31 A3066 RMK CI4 SLP416

CYWG;2011-01-31 00:00;CYWG 310000Z 29005KT 15SM BKN250 M27/M32 A3067 RMK CI3 SLP420

CYWG;2011-01-31 01:00;CYWG 310100Z 31006KT 15SM BKN230 M27/M32 A3067 RMK CI5 SLP423

CYWG;2011-01-31 02:00;CYWG 310200Z 30006KT 15SM BKN230 M26/M31 A3067 RMK CI3 SLP422

CYWG;2011-01-31 03:00;CYWG 310300Z 32005KT 15SM OVC230 M26/M31 A3067 RMK CI5 SLP422

CYWG;2011-01-31 04:00;CYWG 310400Z 32006KT 15SM BKN230 M26/M31 A3067 RMK CI4 SLP422

CYWG;2011-01-31 05:00;CYWG 310500Z 34003KT 15SM BKN230 M26/M31 A3067 RMK CI4 SLP422

CYWG;2011-01-31 06:00;CYWG 310600Z 36004KT 15SM OVC096 M26/M31 A3067 RMK AC8 SLP422

CYWG;2011-01-31 07:00;CYWG 310700Z 01005KT 15SM BKN090 M25/M30 A3068 RMK AC6 SLP423

CYWG;2011-01-31 08:00;CYWG 310800Z 01006KT 15SM BKN081 M24/M30 A3068 RMK AC7 SLP424

CYWG;2011-01-31 09:00;CYWG 310900Z 03006KT 15SM OVC072 M25/M30 A3067 RMK AC8 SLP419

CYWG;2011-01-31 10:00;CYWG 311000Z 02006KT 15SM OVC072 M25/M30 A3068 RMK AC8 SLP422

CYWG;2011-01-31 11:00;CYWG 311100Z 01005KT 15SM OVC072 M25/M30 A3067 RMK AC8 SLP419

CYWG;2011-01-31 12:00;CYWG 311200Z 34003KT 15SM OVC078 M25/M30 A3068 RMK AC8 SLP424

CYWG;2011-01-31 13:00;CYWG 311300Z 30004KT 15SM OVC078 M25/M29 A3070 RMK AC8 SLP429

CYWG;2011-01-31 14:00;CYWG 311400Z 33007KT 15SM FEW020 OVC080 M25/M29 A3069 RMK SC2AC6 SLP427

CYWG;2011-01-31 15:00;CYWG 311500Z 35008KT 15SM FEW020 BKN084 OVC200 M25/M30 A3070 RMK SC2AC4CI2 SLP429

CYWG;2011-01-31 16:00;CYWG 311600Z 34007KT 15SM OVC095 M24/M30 A3071 RMK AS8 SLP434

CYWG;2011-01-31 17:00;CYWG 311700Z 34007KT 15SM OVC110 M24/M29 A3071 RMK AS8 SLP434

CYWG;2011-01-31 18:00;CYWG 311800Z 33007KT 15SM FEW020 BKN071 OVC200 M23/M28 A3071 RMK SC2AS5CI2 SLP431

CYWG;2011-01-31 19:00;CYWG 311900Z 33007KT 15SM FEW016 BKN095 OVC200 M22/M27 A3069 RMK SC2AC2CI2 SLP426

CYWG;2011-01-31 20:00;CYWG 312000Z 34009KT 15SM SCT100 OVC220 M21/M26 A3068 RMK AS2CI2 SLP423

CYWG;2011-01-31 21:00;CYWG 312100Z 34009KT 15SM SCT100 OVC220 M21/M26 A3068 RMK AS2CI2 SLP420

CYWG;2011-01-31 22:00;CYWG 312200Z 33007KT 15SM FEW100 OVC220 M21/M26 A3069 RMK AS2CI2 SLP423

CYWG;2011-01-31 23:00;CYWG 312300Z 30007KT 15SM BKN220 M23/M27 A3070 RMK CI3 SLP428

CYWG;2011-02-01 00:00;CYWG 010000Z 30008KT 15SM BKN220 M25/M29 A3072 RMK CI2 SLP435

CYWG;2011-02-01 01:00;CYWG 010100Z 31008KT 15SM SCT220 M26/M30 A3073 RMK CI1 SLP438

CYWG;2011-02-01 01:00;CYWG 010100Z 31008KT 15SM SCT220 M26/M30 A3073 RMK CI1 SLP438

CYWG;2011-02-01 02:00;CYWG 010200Z 30008KT 15SM SCT220 M27/M31 A3073 RMK CI1 SLP440

CYWG;2011-02-01 02:00;CYWG 010200Z 30008KT 15SM SCT220 M27/M31 A3073 RMK CI1 SLP440

CYWG;2011-02-01 03:00;CYWG 010300Z 32011KT 15SM SCT220 M25/M30 A3074 RMK CI1 SLP442

CYWG;2011-02-01 03:00;CYWG 010300Z 32011KT 15SM SCT220 M25/M30 A3074 RMK CI1 SLP442

CYWG;2011-02-01 04:00;CYWG 010400Z 32009KT 15SM SCT220 M26/M31 A3075 RMK CI2 SLP446

CYWG;2011-02-01 04:00;CYWG 010400Z 32009KT 15SM SCT220 M26/M31 A3075 RMK CI2 SLP446

CYWG;2011-02-01 05:00;CYWG 010500Z 32008KT 15SM SCT200 M28/M32 A3075 RMK CI2 SLP447

CYWG;2011-02-01 05:00;CYWG 010500Z 32008KT 15SM SCT200 M28/M32 A3075 RMK CI2 SLP447

CYWG;2011-02-01 06:00;CYWG 010600Z 32009KT 15SM FEW200 M27/M32 A3077 RMK CI1 SLP452

CYWG;2011-02-01 07:00;CYWG 010700Z 32004KT 15SM FEW200 M30/M34 A3078 RMK CI0 SLP455

CYWG;2011-02-01 08:00;CYWG 010800Z 30006KT 15SM SKC M30/M34 A3078 RMK SLP457

CYWG;2011-02-01 09:00;CYWG 010900Z 30009KT 15SM SKC M31/M35 A3080 RMK SLP462

CYWG;2011-02-01 10:00;CYWG 011000Z 30010KT 15SM SKC M31/M35 A3080 RMK SLP462

CYWG;2011-02-01 11:00;CYWG 011100Z 30009KT 15SM SKC M31/M35 A3080 RMK SLP462

CYWG;2011-02-01 12:00;CYWG 011200Z 28008KT 15SM SKC M29/M34 A3081 RMK SLP467

CYWG;2011-02-01 13:00;CYWG 011300Z 28010KT 15SM SKC M30/M34 A3081 RMK SLP467

CYWG;2011-02-01 14:00;CYWG 011400Z 29008KT 15SM SKC M31/M35 A3080 RMK SLP464

CYWG;2011-02-01 15:00;CYWG 011500Z 28007KT 15SM SKC M31/M35 A3080 RMK SLP466

CYWG;2011-02-01 16:00;CYWG 011600Z 29009KT 15SM SKC M27/M32 A3081 RMK SLP470

CYWG;2011-02-01 17:00;CYWG 011700Z 29005KT 15SM SKC M26/M31 A3082 RMK OBS TAKEN +7 SLP471

CYWG;2011-02-01 18:00;CYWG 011800Z 27006KT 15SM SKC M23/M30 A3081 RMK SLP466

CYWG;2011-02-01 19:00;CYWG 011900Z 27005KT 15SM SKC M23/M29 A3078 RMK SLP456

CYWG;2011-02-01 20:00;CYWG 012000Z 27005KT 15SM SKC M21/M28 A3077 RMK SLP452

CYWG;2011-02-01 21:00;CYWG 012100Z 24009KT 15SM SKC M21/M28 A3075 RMK SLP446

CYWG;2011-02-01 22:00;CYWG 012200Z 24007KT 15SM SKC M20/M27 A3073 RMK SLP441

CYWG;2011-02-01 23:00;CYWG 012300Z 23005KT 15SM SKC M21/M28 A3071 RMK SLP435

CYWG;2011-02-02 00:00;CYWG 020000Z 26007KT 15SM SKC M21/M27 A3068 RMK SLP424

CYWG;2011-02-02 01:00;CYWG 020100Z 27008KT 15SM SKC M22/M28 A3066 RMK SLP415

CYWG;2011-02-02 02:00;CYWG 020200Z 27010KT 15SM SKC M22/M28 A3062 RMK SLP403

CYWG;2011-02-02 03:00;CYWG 020300Z 26007KT 15SM SKC M23/M28 A3061 RMK SLP398

CYWG;2011-02-02 04:00;CYWG 020400Z 25007KT 15SM SKC M23/M28 A3058 RMK SLP391

CYWG;2011-02-02 05:00;CYWG 020500Z 27011KT 15SM SKC M25/M30 A3056 RMK SLP383

CYWG;2011-02-02 06:00;CYWG 020600Z 26011KT 15SM SKC M23/M28 A3054 RMK SLP371

CYWG;2011-02-02 07:00;CYWG 020700Z 26012KT 15SM SKC M22/M28 A3051 RMK SLP364

CYWG;2011-02-02 08:00;CYWG 020800Z 23010KT 15SM SKC M24/M29 A3049 RMK SLP357

CYWG;2011-02-02 09:00;CYWG 020900Z 23012KT 15SM SKC M24/M29 A3047 RMK SLP348

CYWG;2011-02-02 10:00;CYWG 021000Z 22010KT 15SM SKC M24/M29 A3044 RMK SLP339

CYWG;2011-02-02 11:00;CYWG 021100Z 23010KT 15SM SKC M23/M29 A3041 RMK SLP329

CYWG;2011-02-02 12:00;CYWG 021200Z 23011KT 15SM SKC M23/M28 A3038 RMK SLP319

CYWG;2011-02-02 13:00;CYWG 021300Z 22011KT 15SM FEW250 M23/M28 A3036 RMK CI1 SLP311

CYWG;2011-02-02 14:00;CYWG 021400Z 21012KT 15SM FEW250 M23/M28 A3032 RMK CI1 SLP298

CYWG;2011-02-02 15:00;CYWG 021500Z 21014KT 15SM FEW250 M21/M27 A3029 RMK CI1 SLP286

CYWG;2011-02-02 16:00;CYWG 021600Z 20017KT 15SM FEW100 SCT250 M20/M27 A3025 RMK AC1CI1 SLP273

CYWG;2011-02-02 17:00;CYWG 021700Z 21015G20KT 15SM SCT250 M19/M26 A3022 RMK CI1 SLP263

CYWG;2011-02-02 18:00;CYWG 021800Z 20020G25KT 15SM FEW120 SCT250 M18/M25 A3019 RMK AC1CI1 SLP250

CYWG;2011-02-02 19:00;CYWG 021900Z 20018KT 15SM DRSN FEW120 SCT250 M16/M23 A3014 RMK AC2CI1 SLP235

CYWG;2011-02-02 20:00;CYWG 022000Z 20018G25KT 15SM DRSN FEW120 FEW250 M15/M21 A3009 RMK AC2CI0 SLP218

CYWG;2011-02-02 21:00;CYWG 022100Z 19021KT 15SM DRSN FEW120 BKN250 M15/M20 A3006 RMK AC1CI1 SLP204

CYWG;2011-02-02 22:00;CYWG 022200Z 19019G25KT 15SM DRSN BKN120 M15/M19 A3003 RMK AC7 SLP194

CYWG;2011-02-02 23:00;CYWG 022300Z 20019G24KT 15SM DRSN BKN120 M14/M18 A2999 RMK AC7 SLP182

CYWG;2011-02-03 00:00;CYWG 030000Z 20020G25KT 15SM DRSN SCT094 BKN120 M13/M17 A2995 RMK AC3AC4 SLP168

CYWG;2011-02-03 01:00;CYWG 030100Z 20021KT 15SM DRSN SCT033 OVC064 M12/M16 A2992 RMK SC3SC5 SLP156

CYWG;2011-02-03 02:00;CYWG 030200Z 21019KT 15SM DRSN FEW048 OVC075 M12/M14 A2987 RMK SC2AC6 SLP140

CYWG;2011-02-03 03:00;CYWG 030300Z 21019KT 15SM DRSN SCT086 M11/M14 A2982 RMK AC3 SLP122

CYWG;2011-02-03 04:00;CYWG 030400Z 21014G20KT 15SM DRSN FEW085 M11/M14 A2981 RMK AC1 SLP117

CYWG;2011-02-03 05:00;CYWG 030500Z 22011KT 15SM FEW088 M11/M14 A2981 RMK AC1 SLP117

CYWG;2011-02-03 06:00;CYWG 030600Z 22010KT 15SM FEW075 M10/M13 A2979 RMK AC1 SLP110

CYWG;2011-02-03 07:00;CYWG 030700Z 22006KT 15SM SKC M11/M14 A2979 RMK SLP108

CYWG;2011-02-03 08:00;CYWG 030800Z 21008KT 15SM SKC M12/M13 A2978 RMK SLP106

CYWG;2011-02-03 09:00;CYWG 030900Z 22009KT 15SM SKC M11/M13 A2978 RMK SLP106

CYWG;2011-02-03 10:00;CYWG 031000Z 22009KT 15SM SKC M11/M13 A2977 RMK SLP102

CYWG;2011-02-03 11:00;CYWG 031100Z 24010KT 15SM BKN030 M11/M12 A2976 RMK SC6 SLP098

CYWG;2011-02-03 12:00;CYWG 031200Z 26010KT 15SM BKN028 OVC089 M09/M11 A2975 RMK SC6AC2 SLP095

CYWG;2011-02-03 13:00;CYWG 031300Z 28015KT 15SM BKN031 BKN095 M06/M08 A2977 RMK SC5AC2 SLP100

CYWG;2011-02-03 14:00;CYWG 031400Z 27012KT 10SM -SN BKN020 OVC095 M06/M08 A2979 RMK SC6AC2 SLP107

CYWG;2011-02-03 14:40;CYWG 031440Z 27011KT 15SM BKN025 OVC095 M06/ RMK SC5AC2

CYWG;2011-02-03 15:00;CYWG 031500Z 27009KT 15SM SCT023 OVC095 M05/M07 A2980 RMK SC4AC3 SLP108

CYWG;2011-02-03 16:00;CYWG 031600Z 28010KT 15SM BKN039 OVC095 M04/M06 A2982 RMK SC6AC2 SLP114

CYWG;2011-02-03 17:00;CYWG 031700Z 29012KT 15SM BKN037 BKN095 M02/M04 A2982 RMK SC5AC2 SLP116

CYWG;2011-02-03 18:00;CYWG 031800Z 29014KT 15SM BKN035 OVC095 M01/M03 A2984 RMK SC6AC2 SLP121

CYWG;2011-02-03 19:00;CYWG 031900Z 29014KT 15SM BKN031 BKN095 M00/M02 A2984 RMK SC6AC1 SLP122

CYWG;2011-02-03 20:00;CYWG 032000Z 29012KT 15SM BKN029 BKN048 M00/M02 A2983 RMK SC5SC2 SLP118

CYWG;2011-02-03 21:00;CYWG 032100Z 29010KT 15SM BKN027 BKN240 M00/M03 A2982 RMK SC6CI0 SLP115

CYWG;2011-02-03 22:00;CYWG 032200Z 26008KT 15SM SCT029 SCT240 M01/M04 A2983 RMK SC2CI0 SLP116

CYWG;2011-02-03 23:00;CYWG 032300Z 22006KT 15SM BKN240 M02/M05 A2982 RMK CI6 SLP113

CYWG;2011-02-04 00:00;CYWG 040000Z 22007KT 15SM BKN240 M04/M06 A2980 RMK CI5 SLP109

CYWG;2011-02-04 01:00;CYWG 040100Z 23008KT 15SM BKN240 M04/M06 A2979 RMK CI4 SLP105

CYWG;2011-02-04 02:00;CYWG 040200Z 21008KT 15SM BKN240 M04/M06 A2976 RMK CI4 SLP094

CYWG;2011-02-04 03:00;CYWG 040300Z 19008KT 15SM FEW120 SCT240 M05/M07 A2973 RMK AC2CI1 SLP084

CYWG;2011-02-04 04:00;CYWG 040400Z 20010KT 15SM BKN120 M04/M06 A2970 RMK AC7 SLP073

CYWG;2011-02-04 05:00;CYWG 040500Z 20011KT 15SM -FZRA OVC093 M04/M05 A2966 RMK AC8 SLP061

CYWG;2011-02-04 05:21;CYWG 040521Z 20007KT 15SM OVC093 M03/ RMK AC8

CYWG;2011-02-04 06:00;CYWG 040600Z 23011KT 15SM OVC066 M03/M05 A2967 RMK AC8 SLP059

CYWG;2011-02-04 06:28;CYWG 040628Z 22009KT 15SM -PL OVC040 M03/ RMK SC8

CYWG;2011-02-04 06:42;CYWG 040642Z 23009KT 10SM -FZRA OVC038 M02/ RMK SC8

CYWG;2011-02-04 07:00;CYWG 040700Z 23010KT 8SM -FZRA OVC034 M01/M03 A2964 RMK SC8 SLP049

CYWG;2011-02-04 08:00;CYWG 040800Z 23012KT 10SM -FZRA OVC035 01/M00 A2959 RMK SC8 SLP034

CYWG;2011-02-04 08:35;CYWG 040835Z 25014KT 12SM -RA FEW004 OVC026 01/ RMK SF1SC7

CYWG;2011-02-04 09:00;CYWG 040900Z 26014G19KT 15SM -RA FEW004 OVC028 01/01 A2959 RMK SF1SC8 SLP030

CYWG;2011-02-04 10:00;CYWG 041000Z 27016KT 15SM SCT038 BKN094 01/01 A2957 RMK SC4AC2 SLP025

CYWG;2011-02-04 11:00;CYWG 041100Z 27016KT 15SM FEW038 SCT100 01/00 A2957 RMK SC1AC3 SLP024

CYWG;2011-02-04 12:00;CYWG 041200Z 28016KT 15SM BKN036 02/01 A2956 RMK SC6 SLP023

CYWG;2011-02-04 13:00;CYWG 041300Z 28017KT 15SM OVC026 02/01 A2958 RMK SC8 SLP028

CYWG;2011-02-04 14:00;CYWG 041400Z 28014KT 15SM FEW024 02/01 A2957 RMK SC2 SLP026

CYWG;2011-02-04 15:00;CYWG 041500Z 28011KT 15SM BKN024 02/01 A2958 RMK SC7 SLP031

CYWG;2011-02-04 16:00;CYWG 041600Z 27012KT 15SM BKN022 02/01 A2960 RMK SC7 SLP036

CYWG;2011-02-04 17:00;CYWG 041700Z 28015KT 15SM BKN024 02/M00 A2961 RMK SC7 SLP041

CYWG;2011-02-04 18:00;CYWG 041800Z 29014KT 15SM BKN024 01/M00 A2960 RMK SC7 SLP036

CYWG;2011-02-04 19:00;CYWG 041900Z 29015KT 15SM BKN024 02/M00 A2959 RMK SC6 SLP032

CYWG;2011-02-04 20:00;CYWG 042000Z 30011KT 15SM FEW025 SCT090 BKN220 02/M00 A2957 RMK SC1AC2CI0 SLP025

CYWG;2011-02-04 21:00;CYWG 042100Z 28010KT 15SM FEW025 SCT095 BKN220 02/M00 A2956 RMK SC1AC2CI1 SLP022

CYWG;2011-02-04 22:00;CYWG 042200Z 28009KT 15SM FEW025 FEW095 BKN220 02/M00 A2955 RMK SC1AC1CI2 SLP019

CYWG;2011-02-04 23:00;CYWG 042300Z 26008KT 15SM BKN024 BKN220 01/M01 A2957 RMK SC5CI1 SLP024

CYWG;2011-02-05 00:00;CYWG 050000Z 27006KT 15SM BKN024 01/M01 A2957 RMK SC7 SLP025

CYWG;2011-02-05 01:00;CYWG 050100Z 28010KT 15SM BKN024 OVC090 01/M01 A2957 RMK SC6AC2 SLP026

CYWG;2011-02-05 02:00;CYWG 050200Z 30006KT 15SM BKN025 OVC053 01/M00 A2956 RMK SC6SC2 SLP021

CYWG;2011-02-05 03:00;CYWG 050300Z 32007KT 15SM BKN022 OVC053 01/M00 A2956 RMK SC5SC3 SLP020

CYWG;2011-02-05 04:00;CYWG 050400Z 36004KT 15SM BKN022 BKN049 00/M01 A2957 RMK SC6SC2 SLP023

CYWG;2011-02-05 05:00;CYWG 050500Z 03003KT 15SM BKN012 OVC035 00/M00 A2957 RMK ST6SC2 SLP023

CYWG;2011-02-05 05:36;CYWG 050536Z 04004KT 15SM BKN006 OVC037 00/ RMK ST6SC2

CYWG;2011-02-05 06:00;CYWG 050600Z 01005KT 15SM BKN004 OVC016 00/00 A2957 RMK ST6SC2 SLP026

CYWG;2011-02-05 07:00;CYWG 050700Z 04006KT 15SM BKN005 BKN036 00/00 A2959 RMK ST5SC2 SLP030

CYWG;2011-02-05 07:51;CYWG 050751Z 04008KT 15SM BKN010 M00/ RMK ST7

CYWG;2011-02-05 08:00;CYWG 050800Z 05009KT 15SM BKN010 BKN035 M00/M01 A2959 RMK ST6SC2 SLP032

CYWG;2011-02-05 09:00;CYWG 050900Z 06007KT 15SM BKN009 BKN035 M00/M01 A2961 RMK ST6SC2 SLP036

CYWG;2011-02-05 09:54;CYWG 050954Z 03006KT 15SM BKN005 OVC011 M01/ RMK ST6ST2

CYWG;2011-02-05 10:00;CYWG 051000Z 04007KT 15SM BKN004 OVC011 M01/M01 A2961 RMK ST6ST2 SLP039

CYWG;2011-02-05 11:00;CYWG 051100Z 04008KT 15SM BKN005 OVC017 M01/M01 A2962 RMK ST6SC2 SLP041

CYWG;2011-02-05 12:00;CYWG 051200Z 05008KT 15SM BKN006 BKN054 M01/M01 A2963 RMK ST5SC2 SLP046

CYWG;2011-02-05 12:22;CYWG 051222Z 06009KT 15SM SCT008 BKN052 M01/ RMK SF3SC3

CYWG;2011-02-05 13:00;CYWG 051300Z 05009KT 15SM BKN005 BKN052 M02/M03 A2965 RMK SF5SC2 SLP052

CYWG;2011-02-05 13:25;CYWG 051325Z 05007KT 15SM SCT004 BKN055 M02/ RMK SF3SC4

CYWG;2011-02-05 14:00;CYWG 051400Z 06008KT 15SM SCT004 BKN057 M03/M03 A2967 RMK SF2SC4 SLP060

CYWG;2011-02-05 14:26;CYWG 051426Z 05007KT 15SM BKN004 OVC057 M03/ RMK SF5SC2

CYWG;2011-02-05 15:00;CYWG 051500Z 03008KT 15SM BKN003 OVC025 M04/M04 A2970 RMK ST6SC2 SLP072

CYWG;2011-02-05 15:17;CYWG 051517Z 03008KT 2SM BR OVC003 M04/ RMK ST8 VIS NE - E 1 W 6

CYWG;2011-02-05 15:32;CYWG 051532Z 04009KT 2SM BR OVC002 M04/ RMK ST8 VIS NE - E 11/4 W 6

CYWG;2011-02-05 16:00;CYWG 051600Z 04007KT 3SM BR OVC002 M04/M04 A2972 RMK ST8 VIS E - SE 11/4 W - NW 6 SLP077

CYWG;2011-02-05 16:14;CYWG 051614Z 04006KT 6SM BR OVC003 M03/ RMK ST8

CYWG;2011-02-05 17:00;CYWG 051700Z 04009KT 15SM OVC005 M03/M04 A2974 RMK ST8 SLP085

CYWG;2011-02-05 18:00;CYWG 051800Z 06008KT 15SM BKN006 OVC018 M03/M04 A2976 RMK ST6SC2 SLP089

CYWG;2011-02-05 19:00;CYWG 051900Z 03007KT 15SM BKN008 OVC014 M02/M03 A2977 RMK SF5SC3 SLP092

CYWG;2011-02-05 20:00;CYWG 052000Z 02007KT 15SM BKN008 OVC014 M02/M03 A2977 RMK ST6SC2 SLP093

CYWG;2011-02-05 20:37;CYWG 052037Z 01011KT 15SM OVC010 M02/ RMK ST8

CYWG;2011-02-05 21:00;CYWG 052100Z 36008KT 15SM OVC009 M02/M03 A2979 RMK SC8 SLP099

CYWG;2011-02-05 21:28;CYWG 052128Z 03009KT 15SM OVC010 M02/ RMK SC8

CYWG;2011-02-05 22:00;CYWG 052200Z 02010KT 15SM OVC012 M02/M03 A2981 RMK SC8 SLP106

CYWG;2011-02-05 23:00;CYWG 052300Z 03010KT 15SM OVC012 M02/M04 A2983 RMK SC8 SLP114

CYWG;2011-02-06 00:00;CYWG 060000Z 03010KT 15SM BKN012 M02/M04 A2985 RMK SC6 SLP122

CYWG;2011-02-06 01:00;CYWG 060100Z 02007KT 15SM OVC012 M02/M04 A2988 RMK SC8 SLP131

CYWG;2011-02-06 02:00;CYWG 060200Z 02008KT 15SM OVC014 M02/M04 A2990 RMK SC8 SLP136

CYWG;2011-02-06 03:00;CYWG 060300Z 03013KT 15SM OVC014 M03/M05 A2991 RMK SC7 SLP144

CYWG;2011-02-06 04:00;CYWG 060400Z 02015KT 15SM OVC019 M04/M06 A2993 RMK SC8 SLP151

CYWG;2011-02-06 05:00;CYWG 060500Z 01015KT 15SM BKN013 BKN073 M05/M07 A2996 RMK ST5AC2 SLP158

CYWG;2011-02-06 06:00;CYWG 060600Z 36010KT 15SM BKN073 M06/M08 A2998 RMK AC6 SLP167

CYWG;2011-02-06 07:00;CYWG 060700Z 36009KT 15SM FEW014 BKN047 BKN091 M07/M09 A3000 RMK ST2SC3AC2 SLP174

CYWG;2011-02-06 08:00;CYWG 060800Z 36010KT 15SM FEW014 BKN091 M08/M10 A3002 RMK ST1AC6 SLP181

CYWG;2011-02-06 09:00;CYWG 060900Z 35014KT 15SM OVC012 M08/M10 A3004 RMK ST8 SLP190

CYWG;2011-02-06 10:00;CYWG 061000Z 36012G18KT 12SM -SN BKN012 OVC020 M09/M10 A3007 RMK ST6SC2 SLP198

CYWG;2011-02-06 11:00;CYWG 061100Z 01017KT 12SM -SN BKN014 OVC037 M09/M11 A3009 RMK ST5SC3 SLP207

CYWG;2011-02-06 11:37;CYWG 061137Z 01017KT 15SM SCT016 OVC024 M10/ RMK SF3SC5

CYWG;2011-02-06 12:00;CYWG 061200Z 01017KT 2 1/2SM -SN OVC015 M10/M12 A3012 RMK SC8 SLP217

CYWG;2011-02-06 12:21;CYWG 061221Z 01019KT 3SM -SN BKN013 OVC050 M11/ RMK SC6SC2

CYWG;2011-02-06 13:00;CYWG 061300Z 36018KT 3SM -SN BKN013 OVC050 M12/M14 A3015 RMK SC6SC2 SLP226

CYWG;2011-02-06 13:19;CYWG 061319Z 01020G25KT 4SM -SN BKN013 OVC050 M12/ RMK SC6SC2

CYWG;2011-02-06 13:47;CYWG 061347Z 02021KT 12SM FEW013 OVC047 M13/ RMK SF2SC6

CYWG;2011-02-06 14:00;CYWG 061400Z 01020KT 15SM FEW013 OVC044 M13/M15 A3019 RMK SF1SC7 SLP241

CYWG;2011-02-06 15:00;CYWG 061500Z 01019G24KT 15SM SCT042 OVC077 M13/M16 A3023 RMK SC3AC5 PRESRR SLP256

CYWG;2011-02-06 16:00;CYWG 061600Z 01016G21KT 15SM FEW051 BKN085 M14/M17 A3028 RMK SC2AC5 SLP271

CYWG;2011-02-06 17:00;CYWG 061700Z 01019KT 15SM SCT051 BKN090 M14/M16 A3030 RMK SC3AC2 SLP279

CYWG;2011-02-06 18:00;CYWG 061800Z 01018KT 15SM FEW010 FEW035 BKN090 M14/M17 A3032 RMK SF1SC2AC3 SLP287

CYWG;2011-02-06 19:00;CYWG 061900Z 01016KT 15SM FEW018 SCT100 M14/M17 A3032 RMK SC2AC2 SLP288

CYWG;2011-02-06 20:00;CYWG 062000Z 01016KT 15SM OVC021 M14/M16 A3032 RMK SC8 SLP288

CYWG;2011-02-06 21:00;CYWG 062100Z 36013KT 15SM BKN023 BKN280 M14/M17 A3033 RMK SC6CI1 SLP293

CYWG;2011-02-06 22:00;CYWG 062200Z 36011G16KT 15SM FEW023 SCT280 M15/M18 A3035 RMK SC1CI1 SLP297

CYWG;2011-02-06 23:00;CYWG 062300Z 01015KT 15SM FEW025 FEW260 SCT280 M16/M20 A3036 RMK SC1CI0CI1 SLP302

CYWG;2011-02-07 00:00;CYWG 070000Z 36008KT 15SM FEW025 FEW140 FEW280 M17/M25 A3038 RMK SC1AC1CI0 SLP312

CYWG;2011-02-07 01:00;CYWG 070100Z 35008KT 15SM SKC M19/M24 A3040 RMK SLP318

CYWG;2011-02-07 02:00;CYWG 070200Z 36008KT 15SM SKC M19/M25 A3041 RMK SLP320

CYWG;2011-02-07 03:00;CYWG 070300Z 35007KT 15SM SKC M21/M25 A3041 RMK SLP323

CYWG;2011-02-07 04:00;CYWG 070400Z 32008KT 15SM SKC M24/M28 A3041 RMK SLP322

CYWG;2011-02-07 05:00;CYWG 070500Z 32008KT 15SM SCT029 M23/M27 A3041 RMK SC3 SLP322

CYWG;2011-02-07 06:00;CYWG 070600Z 32008KT 15SM BKN029 M21/M25 A3039 RMK SC6 SLP318

CYWG;2011-02-07 07:00;CYWG 070700Z 33008KT 15SM BKN031 M21/M25 A3038 RMK SC7 SLP315

CYWG;2011-02-07 08:00;CYWG 070800Z 31009KT 15SM BKN039 M23/M26 A3038 RMK SC7 SLP315

CYWG;2011-02-07 09:00;CYWG 070900Z 32008KT 15SM BKN042 M23/M27 A3038 RMK SC6 SLP314

CYWG;2011-02-07 10:00;CYWG 071000Z 32007KT 15SM BKN042 M24/M28 A3038 RMK SC6 SLP313

CYWG;2011-02-07 11:00;CYWG 071100Z 33007KT 15SM OVC032 M22/M26 A3037 RMK SC8 SLP310

CYWG;2011-02-07 12:00;CYWG 071200Z 31005KT 15SM OVC032 M21/M25 A3036 RMK SC8 SLP309

CYWG;2011-02-07 13:00;CYWG 071300Z 32008KT 15SM OVC032 M21/M24 A3036 RMK SC8 SLP307

CYWG;2011-02-07 14:00;CYWG 071400Z 31006KT 15SM OVC030 M20/M24 A3035 RMK SC8 SLP306

CYWG;2011-02-07 15:00;CYWG 071500Z 30009KT 15SM -SN OVC032 M20/M24 A3036 RMK SC8 SLP308

CYWG;2011-02-07 16:00;CYWG 071600Z 31008KT 12SM -SN OVC034 M20/M23 A3036 RMK SC8 SLP309

CYWG;2011-02-07 17:00;CYWG 071700Z 32010KT 10SM -SN OVC034 M19/M23 A3037 RMK SC8 SLP313

CYWG;2011-02-07 18:00;CYWG 071800Z 32015KT 12SM -SN OVC029 M19/M22 A3038 RMK SC7 SLP315

CYWG;2011-02-07 18:31;CYWG 071831Z 32014KT 15SM OVC036 M18/ RMK SC6

CYWG;2011-02-07 19:00;CYWG 071900Z 34015KT 15SM BKN036 M18/M23 A3037 RMK SC6 SLP311

CYWG;2011-02-07 20:00;CYWG 072000Z 34011KT 15SM FEW032 M18/M23 A3036 RMK SC2 CU EMBDD SLP309

CYWG;2011-02-07 21:00;CYWG 072100Z 33015KT 15SM FEW020 SCT070 M18/M24 A3037 RMK SC2AC1 SLP311

CYWG;2011-02-07 22:00;CYWG 072200Z 33010KT 15SM FEW020 M18/M24 A3038 RMK SC1 SLP316

CYWG;2011-02-07 23:00;CYWG 072300Z 30006KT 15SM FEW020 M20/M25 A3038 RMK SC1 SLP317

CYWG;2011-02-08 00:00;CYWG 080000Z 32010KT 15SM SKC M21/M25 A3039 RMK SLP319

CYWG;2011-02-08 01:00;CYWG 080100Z 29009KT 15SM SKC M23/M27 A3040 RMK SLP323

CYWG;2011-02-08 02:00;CYWG 080200Z 28010KT 15SM SKC M24/M27 A3040 RMK SLP322

CYWG;2011-02-08 03:00;CYWG 080300Z 29009KT 15SM SKC M24/M28 A3039 RMK SLP322

CYWG;2011-02-08 04:00;CYWG 080400Z 26008KT 15SM SKC M22/M27 A3039 RMK SLP320

CYWG;2011-02-08 05:00;CYWG 080500Z 26008KT 15SM SKC M23/M27 A3037 RMK SLP315

CYWG;2011-02-08 06:00;CYWG 080600Z 26011KT 15SM SKC M22/M26 A3036 RMK SLP309

CYWG;2011-02-08 07:00;CYWG 080700Z 25010KT 15SM SKC M22/M27 A3033 RMK SLP300

CYWG;2011-02-08 08:00;CYWG 080800Z 25011KT 15SM SKC M22/M27 A3032 RMK SLP294

CYWG;2011-02-08 09:00;CYWG 080900Z 26010KT 15SM SKC M23/M28 A3030 RMK SLP289

CYWG;2011-02-08 10:00;CYWG 081000Z 26011KT 15SM SKC M22/M28 A3028 RMK SLP282

CYWG;2011-02-08 11:00;CYWG 081100Z 26013KT 15SM SKC M22/M28 A3025 RMK SLP273

CYWG;2011-02-08 12:00;CYWG 081200Z 26010KT 15SM SKC M22/M28 A3024 RMK SLP268

CYWG;2011-02-08 13:00;CYWG 081300Z 26012KT 15SM FEW250 M22/M27 A3021 RMK CI1 SLP259

CYWG;2011-02-08 14:00;CYWG 081400Z 27017KT 15SM BKN250 M20/M26 A3020 RMK CI2 SLP255

CYWG;2011-02-08 15:00;CYWG 081500Z 27016KT 15SM BKN250 M20/M26 A3020 RMK CI2 SLP254

CYWG;2011-02-08 16:00;CYWG 081600Z 27019KT 15SM BKN250 M18/M25 A3020 RMK CI2 SLP254

CYWG;2011-02-08 17:00;CYWG 081700Z 28015KT 15SM BKN250 M17/M23 A3020 RMK CI3 SLP254

CYWG;2011-02-08 18:00;CYWG 081800Z 28017KT 15SM BKN250 M15/M20 A3018 RMK CI6 SLP245

CYWG;2011-02-08 19:00;CYWG 081900Z 28018KT 15SM BKN250 M14/M20 A3016 RMK CI5 SLP238

CYWG;2011-02-08 20:00;CYWG 082000Z 28018KT 15SM BKN240 M14/M19 A3013 RMK CI2 SLP230

CYWG;2011-02-08 21:00;CYWG 082100Z 28017KT 15SM BKN240 M13/M19 A3011 RMK CI2 SLP223

CYWG;2011-02-08 22:00;CYWG 082200Z 28016KT 15SM BKN240 M13/M19 A3011 RMK CI2 SLP223

CYWG;2011-02-08 23:00;CYWG 082300Z 27015KT 15SM FEW220 M15/M20 A3010 RMK CI1 SLP220

CYWG;2011-02-09 00:00;CYWG 090000Z 28014KT 15SM FEW220 M16/M22 A3011 RMK CI0 SLP223

CYWG;2011-02-09 01:00;CYWG 090100Z 29015KT 15SM SKC M17/M23 A3011 RMK SLP223

CYWG;2011-02-09 02:00;CYWG 090200Z 29012KT 15SM SKC M19/M23 A3012 RMK SLP227

CYWG;2011-02-09 03:00;CYWG 090300Z 29014KT 15SM SKC M19/M24 A3013 RMK SLP230

CYWG;2011-02-09 04:00;CYWG 090400Z 28013KT 15SM SKC M19/M24 A3014 RMK SLP234

CYWG;2011-02-09 05:00;CYWG 090500Z 28013KT 15SM FEW047 SCT082 M20/M25 A3014 RMK SC2AC1 SLP234

CYWG;2011-02-09 06:00;CYWG 090600Z 30014KT 15SM FEW047 FEW089 M19/M25 A3016 RMK SC1AC1 SLP238

CYWG;2011-02-09 07:00;CYWG 090700Z 29017KT 15SM FEW081 M20/M26 A3017 RMK AC2 SLP242

CYWG;2011-02-09 08:00;CYWG 090800Z 28011KT 15SM SKC M22/M27 A3018 RMK SLP244

CYWG;2011-02-09 09:00;CYWG 090900Z 28011KT 15SM SKC M21/M27 A3019 RMK SLP248

CYWG;2011-02-09 10:00;CYWG 091000Z 28013KT 15SM SKC M21/M27 A3018 RMK SLP246

CYWG;2011-02-09 11:00;CYWG 091100Z 29012KT 15SM SKC M23/M28 A3019 RMK SLP247

CYWG;2011-02-09 12:00;CYWG 091200Z 27010KT 15SM SKC M23/M28 A3019 RMK SLP251

CYWG;2011-02-09 13:00;CYWG 091300Z 29012KT 15SM SKC M24/M29 A3019 RMK SLP252

CYWG;2011-02-09 14:00;CYWG 091400Z 28011KT 15SM SKC M25/M30 A3021 RMK SLP256

CYWG;2011-02-09 15:00;CYWG 091500Z 27008KT 15SM SKC M24/M30 A3021 RMK SLP260

CYWG;2011-02-09 16:00;CYWG 091600Z 29011KT 15SM SKC M23/M28 A3021 RMK SLP260

CYWG;2011-02-09 17:00;CYWG 091700Z 29011KT 15SM SKC M22/M27 A3020 RMK SLP257

CYWG;2011-02-09 18:00;CYWG 091800Z 27009KT 15SM SKC M21/M26 A3019 RMK SLP251

CYWG;2011-02-09 19:00;CYWG 091900Z 26008KT 15SM FEW250 M20/M26 A3017 RMK CI1 SLP245

CYWG;2011-02-09 20:00;CYWG 092000Z 26010KT 15SM FEW250 M19/M25 A3015 RMK CI1 SLP238

CYWG;2011-02-09 21:00;CYWG 092100Z 26009KT 15SM FEW250 M19/M25 A3012 RMK CI1 SLP228

CYWG;2011-02-09 22:00;CYWG 092200Z 25006KT 15SM FEW250 M19/M26 A3011 RMK CI1 SLP222

CYWG;2011-02-09 23:00;CYWG 092300Z 24005KT 15SM SCT250 M19/M26 A3009 RMK CI1 SLP215

CYWG;2011-02-10 00:00;CYWG 100000Z 21004KT 15SM FEW250 M20/M26 A3007 RMK CI1 SLP212

CYWG;2011-02-10 01:00;CYWG 100100Z 20005KT 15SM FEW250 M20/M26 A3006 RMK CI1 SLP206

CYWG;2011-02-10 02:00;CYWG 100200Z 22006KT 15SM FEW250 M22/M27 A3004 RMK CI1 SLP200

CYWG;2011-02-10 03:00;CYWG 100300Z 24006KT 15SM SKC M22/M27 A3002 RMK SLP196

CYWG;2011-02-10 04:00;CYWG 100400Z 23005KT 15SM SKC M24/M28 A2999 RMK SLP186

CYWG;2011-02-10 05:00;CYWG 100500Z 23005KT 15SM SKC M24/M28 A2997 RMK SLP179

CYWG;2011-02-10 06:00;CYWG 100600Z 25003KT 15SM SKC M24/M29 A2995 RMK SLP172

CYWG;2011-02-10 07:00;CYWG 100700Z 25004KT 15SM SKC M25/M29 A2994 RMK SLP169

CYWG;2011-02-10 08:00;CYWG 100800Z 25002KT 15SM SKC M25/M29 A2993 RMK SLP163

CYWG;2011-02-10 09:00;CYWG 100900Z 21004KT 15SM SKC M25/M29 A2989 RMK SLP151

CYWG;2011-02-10 10:00;CYWG 101000Z 22007KT 15SM SKC M27/M30 A2988 RMK SLP148

CYWG;2011-02-10 11:00;CYWG 101100Z 18005KT 5SM BR SKC M28/M32 A2986 RMK SLP141

CYWG;2011-02-10 12:00;CYWG 101200Z 19004KT 15SM SKC M27/M31 A2985 RMK SLP138

CYWG;2011-02-10 13:00;CYWG 101300Z 20005KT 15SM SKC M27/M30 A2984 RMK SLP134

CYWG;2011-02-10 14:00;CYWG 101400Z 19006KT 12SM SKC M28/M32 A2982 RMK SLP127

CYWG;2011-02-10 15:00;CYWG 101500Z 18006KT 12SM SKC M25/M29 A2982 RMK SLP127

CYWG;2011-02-10 16:00;CYWG 101600Z 19006KT 12SM SKC M23/M26 A2983 RMK SLP129

CYWG;2011-02-10 17:00;CYWG 101700Z 21006KT 15SM SKC M20/M24 A2982 RMK SLP127

CYWG;2011-02-10 18:00;CYWG 101800Z 21005KT 15SM SKC M18/M23 A2981 RMK SLP123

CYWG;2011-02-10 19:00;CYWG 101900Z 21007KT 15SM SKC M17/M22 A2980 RMK SLP118

CYWG;2011-02-10 20:00;CYWG 102000Z 19007KT 15SM SKC M17/M22 A2980 RMK SLP118

CYWG;2011-02-10 21:00;CYWG 102100Z 18006KT 15SM SKC M17/M22 A2979 RMK SLP114

CYWG;2011-02-10 22:00;CYWG 102200Z 18006KT 15SM FEW220 M17/M22 A2980 RMK CI1 SLP120

CYWG;2011-02-10 23:00;CYWG 102300Z 21005KT 15SM FEW220 M18/M22 A2979 RMK CI1 SLP115

CYWG;2011-02-11 00:00;CYWG 110000Z 18007KT 15SM FEW220 M19/M23 A2979 RMK CI1 SLP116

CYWG;2011-02-11 01:00;CYWG 110100Z 18007KT 15SM FEW220 M21/M24 A2979 RMK CI1 SLP116

CYWG;2011-02-11 02:00;CYWG 110200Z 18008KT 15SM SKC M21/M24 A2978 RMK SLP112

CYWG;2011-02-11 03:00;CYWG 110300Z 18009KT 15SM FEW120 SCT220 M21/M24 A2976 RMK AC2CI1 SLP106

CYWG;2011-02-11 04:00;CYWG 110400Z 18009KT 15SM BKN120 M20/M24 A2973 RMK AC6 SLP097

CYWG;2011-02-11 05:00;CYWG 110500Z 20011KT 15SM BKN120 M20/M23 A2972 RMK AC6 SLP094

CYWG;2011-02-11 06:00;CYWG 110600Z 19010KT 15SM BKN120 M20/M24 A2970 RMK AC6 SLP081

CYWG;2011-02-11 07:00;CYWG 110700Z 19011KT 15SM SCT120 BKN200 M19/M23 A2967 RMK AC4CI2 SLP073

CYWG;2011-02-11 08:00;CYWG 110800Z 18010KT 15SM BKN042 M19/M22 A2965 RMK SC6 SLP065

CYWG;2011-02-11 09:00;CYWG 110900Z 19012KT 15SM OVC035 M18/M22 A2963 RMK SC8 SLP058

CYWG;2011-02-11 09:12;CYWG 110912Z 19012KT 15SM -SN OVC038 M18/ RMK SC8

CYWG;2011-02-11 09:37;CYWG 110937Z 20011KT 15SM OVC036 M18/ RMK SC8

CYWG;2011-02-11 10:00;CYWG 111000Z 19011KT 15SM BKN033 OVC052 M17/M21 A2961 RMK SC6SC2 SLP051

CYWG;2011-02-11 10:21;CYWG 111021Z 18011KT 15SM -SN OVC042 M17/ RMK SC8

CYWG;2011-02-11 11:00;CYWG 111100Z 20009KT 15SM OVC038 M16/M19 A2961 RMK SC8 SLP050

CYWG;2011-02-11 12:00;CYWG 111200Z 18009KT 15SM FEW038 BKN140 M16/M19 A2959 RMK SC2AC2 SLP043

CYWG;2011-02-11 13:00;CYWG 111300Z 21009KT 15SM BKN049 M14/M16 A2958 RMK SC7 SLP040

CYWG;2011-02-11 14:00;CYWG 111400Z 29009KT 15SM SCT039 BKN140 M12/M13 A2957 RMK SC3AC2 SLP038

CYWG;2011-02-11 15:00;CYWG 111500Z 24010KT 15SM SCT066 BKN140 M10/M12 A2958 RMK AC3AC2 SLP039

CYWG;2011-02-11 15:49;CYWG 111549Z 27012KT 15SM -SN OVC060 M08/ RMK SC8

CYWG;2011-02-11 16:00;CYWG 111600Z 27012KT 15SM -SN OVC060 M08/M10 A2958 RMK SC8 SLP039

CYWG;2011-02-11 16:42;CYWG 111642Z 27012KT 15SM OVC056 M06/ RMK SC8

CYWG;2011-02-11 17:00;CYWG 111700Z 28014KT 15SM FEW035 OVC056 M05/M08 A2959 RMK SC2SC6 SLP043

CYWG;2011-02-11 18:00;CYWG 111800Z 29016KT 15SM SCT028 OVC060 M04/M06 A2962 RMK SC3SC5 SLP049

CYWG;2011-02-11 19:00;CYWG 111900Z 33017KT 15SM SCT026 BKN050 M03/M06 A2962 RMK SC3SC2 SLP050

CYWG;2011-02-11 20:00;CYWG 112000Z 33025G30KT 15SM FEW028 BKN038 M04/M09 A2964 RMK SC2SC5 SLP058

CYWG;2011-02-11 21:00;CYWG 112100Z 33019G25KT 15SM BKN040 M05/M11 A2967 RMK SC6 SLP068

CYWG;2011-02-11 22:00;CYWG 112200Z 33019G24KT 15SM FEW048 M05/M11 A2969 RMK SC1 SLP073

CYWG;2011-02-11 23:00;CYWG 112300Z 28008KT 15SM FEW050 FEW250 M07/M11 A2972 RMK SC1CI1 SLP084

CYWG;2011-02-12 00:00;CYWG 120000Z 28011KT 15SM FEW060 M08/M12 A2975 RMK SC1 SLP096

CYWG;2011-02-12 01:00;CYWG 120100Z 27009KT 15SM FEW060 M09/M12 A2977 RMK SC1 SLP101

CYWG;2011-02-12 02:00;CYWG 120200Z 29010KT 15SM SKC M12/M14 A2977 RMK SLP100

CYWG;2011-02-12 03:00;CYWG 120300Z 27008KT 15SM SKC M11/M13 A2977 RMK SLP099

CYWG;2011-02-12 04:00;CYWG 120400Z 36007KT 15SM SCT100 M10/M13 A2979 RMK AC2 SLP105

CYWG;2011-02-12 05:00;CYWG 120500Z 05006KT 15SM SKC M15/M16 A2980 RMK SLP109

CYWG;2011-02-12 06:00;CYWG 120600Z 10005KT 15SM BKN100 M14/M16 A2980 RMK AC3 SLP109

CYWG;2011-02-12 07:00;CYWG 120700Z 14005KT 15SM BKN100 M13/M16 A2980 RMK AC3 SLP108

CYWG;2011-02-12 08:00;CYWG 120800Z 14005KT 15SM BKN110 M13/M15 A2978 RMK AC6 SLP102

CYWG;2011-02-12 09:00;CYWG 120900Z 13006KT 15SM FEW160 M13/M15 A2977 RMK AC1 SLP098

CYWG;2011-02-12 10:00;CYWG 121000Z 15006KT 15SM OVC070 M12/M14 A2976 RMK AC8 SLP094

CYWG;2011-02-12 11:00;CYWG 121100Z 15006KT 15SM OVC061 M11/M13 A2975 RMK SC8 SLP093

CYWG;2011-02-12 12:00;CYWG 121200Z 16007KT 15SM BKN036 OVC081 M11/M12 A2975 RMK SC6AC2 SLP092

CYWG;2011-02-12 12:50;CYWG 121250Z 17007KT 15SM -SN BKN056 OVC081 RMK SC6AC2

CYWG;2011-02-12 13:00;CYWG 121300Z 17007KT 6SM -SN BKN054 OVC081 M10/M11 A2974 RMK SC6AC2 SLP089

CYWG;2011-02-12 13:12;CYWG 121312Z 17007KT 15SM OVC054 M10/ RMK SC8

CYWG;2011-02-12 14:00;CYWG 121400Z 16005KT 12SM BKN046 OVC081 M10/M11 A2972 RMK SC7AC1 SLP083

CYWG;2011-02-12 15:00;CYWG 121500Z 15005KT 15SM BKN036 OVC057 M09/M10 A2972 RMK SC7SC1 SLP081

CYWG;2011-02-12 15:26;CYWG 121526Z 15007KT 6SM -SN OVC030 M08/ RMK SC8

CYWG;2011-02-12 16:00;CYWG 121600Z 16006KT 6SM -SN OVC028 M07/M08 A2971 RMK SC8 SLP079

CYWG;2011-02-12 16:32;CYWG 121632Z 16006KT 3SM -SN OVC028 M07/ RMK SC8

CYWG;2011-02-12 16:38;CYWG 121638Z 15007KT 2SM -SN OVC026 M07/ RMK SC8 VIS N 1

CYWG;2011-02-12 16:42;CYWG 121642Z 16007KT 1SM R13/P6000FT/N R36/P6000FT/N -SN OVC026 M07/ RMK SC8

CYWG;2011-02-12 17:00;CYWG 121700Z 17007KT 2SM -SN OVC021 M06/M07 A2970 RMK SC8 SLP075

CYWG;2011-02-12 17:18;CYWG 121718Z 17008KT 6SM -SN OVC021 M05/ RMK SC8

CYWG;2011-02-12 18:00;CYWG 121800Z 17010KT 6SM -SN FEW006 OVC019 M04/M05 A2968 RMK SC1SC7 SLP068

CYWG;2011-02-12 18:31;CYWG 121831Z 17015KT 12SM BKN026 OVC080 M03/ RMK SC6AC2

CYWG;2011-02-12 19:00;CYWG 121900Z 18016KT 12SM SCT006 BKN077 M03/M04 A2961 RMK SC3AC2 SLP047

CYWG;2011-02-12 19:31;CYWG 121931Z 19014G20KT 12SM BKN007 BKN077 M03/ RMK ST5AC2

CYWG;2011-02-12 20:00;CYWG 122000Z 19016KT 12SM SCT006 BKN077 BKN090 M02/M03 A2958 RMK ST4AC2AC1 SLP036

CYWG;2011-02-12 21:00;CYWG 122100Z 19017KT 15SM FEW006 FEW075 SCT090 BKN250 M02/M03 A2954 RMK SF1AC2AC1CI1 SLP021

CYWG;2011-02-12 22:00;CYWG 122200Z 18015KT 15SM FEW074 BKN250 M02/M04 A2953 RMK AC2CI2 SLP017

CYWG;2011-02-12 23:00;CYWG 122300Z 19014KT 15SM FEW076 BKN250 M03/M04 A2951 RMK AC2CI2 SLP011

CYWG;2011-02-13 00:00;CYWG 130000Z 20014KT 15SM SCT085 BKN250 M03/M04 A2950 RMK AC4CI2 SLP005

CYWG;2011-02-13 01:00;CYWG 130100Z 19011KT 15SM FEW090 SCT250 M03/M05 A2948 RMK AC2CI1 SLP998

CYWG;2011-02-13 02:00;CYWG 130200Z 20010KT 15SM FEW090 SCT250 M04/M05 A2946 RMK AC1CI1 SLP991

CYWG;2011-02-13 03:00;CYWG 130300Z 22008KT 15SM FEW090 FEW250 M03/M05 A2944 RMK AC1CI1 SLP984

CYWG;2011-02-13 04:00;CYWG 130400Z 22007KT 15SM FEW090 BKN250 M04/M05 A2941 RMK AC1CI2 SLP973

CYWG;2011-02-13 05:00;CYWG 130500Z 22006KT 15SM BKN200 M03/M05 A2938 RMK CI3 SLP964

CYWG;2011-02-13 06:00;CYWG 130600Z 24010KT 15SM OVC200 M01/M03 A2937 RMK CI8 SLP958

CYWG;2011-02-13 07:00;CYWG 130700Z 21007KT 15SM OVC200 M02/M04 A2935 RMK CI8 SLP951

CYWG;2011-02-13 08:00;CYWG 130800Z 17008KT 15SM BKN089 OVC200 M05/M06 A2932 RMK AC6CI2 SLP941

CYWG;2011-02-13 09:00;CYWG 130900Z 19009KT 15SM OVC069 M03/M04 A2930 RMK AC8 SLP933

CYWG;2011-02-13 10:00;CYWG 131000Z 20010KT 15SM OVC077 M02/M03 A2927 RMK AC8 SLP924

CYWG;2011-02-13 11:00;CYWG 131100Z 18006KT 15SM OVC100 M03/M04 A2923 RMK AC8 SLP910

CYWG;2011-02-13 12:00;CYWG 131200Z 18007KT 15SM FEW100 BKN240 M03/M04 A2922 RMK AC1CI5 SLP906

CYWG;2011-02-13 13:00;CYWG 131300Z 15007KT 15SM FEW100 BKN240 M05/M06 A2918 RMK AC2CI4 SLP895

CYWG;2011-02-13 14:00;CYWG 131400Z 19007KT 15SM FEW100 SCT240 M05/M06 A2916 RMK AC1CI1 SLP887

CYWG;2011-02-13 15:00;CYWG 131500Z 17005KT 15SM BKN130 BKN240 M03/M04 A2915 RMK AC6CI2 SLP882

CYWG;2011-02-13 16:00;CYWG 131600Z 15004KT 15SM FEW130 FEW240 M01/M03 A2911 RMK AC2CI1 SLP871

CYWG;2011-02-13 17:00;CYWG 131700Z 15004KT 15SM FEW130 FEW240 01/M02 A2909 RMK AC1CI0 TR CI SLP865

CYWG;2011-02-13 18:00;CYWG 131800Z 22009KT 15SM SCT110 BKN240 04/M01 A2908 RMK AS3CI2 CC ASOCTD SLP858

CYWG;2011-02-13 19:00;CYWG 131900Z 26007KT 15SM SCT070 BKN090 04/M01 A2908 RMK AC4AS3 SLP857

CYWG;2011-02-13 20:00;CYWG 132000Z 30009KT 15SM SCT044 BKN090 02/M00 A2911 RMK SC3AC2 SLP866

CYWG;2011-02-13 21:00;CYWG 132100Z 36013G18KT 15SM OVC049 00/M02 A2916 RMK SC7 SLP886

CYWG;2011-02-13 21:31;CYWG 132131Z 36016KT 5SM -SN BR BKN007 OVC040 M00/ RMK SF5SC3

CYWG;2011-02-13 21:40;CYWG 132140Z 01018KT 1SM R13/P6000FT/D R36/P6000FT/D -SN BR OVC005 M00/ RMK SN2SF6

CYWG;2011-02-13 22:00;CYWG 132200Z 01020KT 3SM -SN BR BKN006 OVC027 M01/M01 A2923 RMK SF6SC2 SLP909

CYWG;2011-02-13 22:21;CYWG 132221Z 01021G27KT 2SM -SN BR BKN005 OVC027 M01/ RMK SF6SC2

CYWG;2011-02-13 23:00;CYWG 132300Z 01019KT 4SM -SN BR BKN006 OVC022 M01/M01 A2932 RMK SF6SC2 SLP940

CYWG;2011-02-13 23:28;CYWG 132328Z 01024G29KT 9SM OVC007 M01/ RMK SF8

CYWG;2011-02-14 00:00;CYWG 140000Z 01020G26KT 9SM OVC009 M01/M02 A2943 RMK SF8 PRESRR SLP979

CYWG;2011-02-14 00:19;CYWG 140019Z 36020G25KT 10SM OVC011 M01/ RMK SC8

CYWG;2011-02-14 01:00;CYWG 140100Z 36013G18KT 15SM OVC011 M01/M02 A2953 RMK SF8 SLP013

CYWG;2011-02-14 02:00;CYWG 140200Z 34014KT 15SM OVC009 M02/M03 A2962 RMK SF8 SLP041

CYWG;2011-02-14 03:00;CYWG 140300Z 35016KT 15SM OVC010 M03/M04 A2967 RMK SF8 SLP061

CYWG;2011-02-14 04:00;CYWG 140400Z 34013KT 15SM OVC012 M03/M05 A2973 RMK SC8 SLP080

CYWG;2011-02-14 04:48;CYWG 140448Z 33016KT 4SM -SN OVC012 M05/ RMK SC8

CYWG;2011-02-14 05:00;CYWG 140500Z 34014KT 3SM -SN OVC012 M05/M06 A2978 RMK SC8 SLP098

CYWG;2011-02-14 06:00;CYWG 140600Z 33011KT 3SM -SN OVC016 M05/M07 A2983 RMK SC8 SLP115

CYWG;2011-02-14 06:06;CYWG 140606Z 33010KT 1 3/4SM -SN VV009 M06/ RMK SN8

CYWG;2011-02-14 06:53;CYWG 140653Z 31010KT 2SM -SN OVC046 M06/ RMK SN2SC6

CYWG;2011-02-14 07:00;CYWG 140700Z 31010KT 2 1/2SM -SN OVC046 M06/M07 A2987 RMK SN2SC6 SLP127

CYWG;2011-02-14 07:25;CYWG 140725Z 31010KT 5SM -SN SCT024 OVC042 M06/ RMK SC2SC6

CYWG;2011-02-14 08:00;CYWG 140800Z 30010KT 4SM -SN OVC036 M07/M08 A2990 RMK SC8 SLP136

CYWG;2011-02-14 09:00;CYWG 140900Z 33008KT 10SM -SN BKN033 OVC082 M07/M08 A2992 RMK SC6AC2 SLP145

CYWG;2011-02-14 10:00;CYWG 141000Z 29005KT 12SM -SN BKN025 OVC078 M07/M08 A2993 RMK SC5AC3 SLP151

CYWG;2011-02-14 10:25;CYWG 141025Z 32005KT 15SM BKN022 OVC078 M07/ RMK SC6AC2

CYWG;2011-02-14 11:00;CYWG 141100Z 31005KT 15SM BKN022 OVC055 M07/M08 A2997 RMK SC7SC1 SLP164

CYWG;2011-02-14 12:00;CYWG 141200Z 33004KT 15SM OVC018 M07/M08 A2999 RMK SC8 SLP171

CYWG;2011-02-14 13:00;CYWG 141300Z 33002KT 15SM OVC016 M07/M08 A2999 RMK SC8 SLP171

CYWG;2011-02-14 14:00;CYWG 141400Z 00000KT 15SM OVC016 M07/M08 A3000 RMK SC8 SLP174

CYWG;2011-02-14 15:00;CYWG 141500Z 29002KT 15SM OVC016 M06/M08 A3002 RMK SC8 SLP180

CYWG;2011-02-14 15:16;CYWG 141516Z 27002KT 15SM OVC014 M06/ RMK SC8

CYWG;2011-02-14 16:00;CYWG 141600Z 21008KT 15SM OVC014 M06/M08 A3005 RMK SC8 SLP190

CYWG;2011-02-14 17:00;CYWG 141700Z 19008KT 15SM OVC012 M05/M07 A3006 RMK SC8 SLP194

CYWG;2011-02-14 18:00;CYWG 141800Z 17007KT 15SM OVC012 M03/M06 A3006 RMK SC8 SLP193

CYWG;2011-02-14 19:00;CYWG 141900Z 17010KT 15SM FEW012 OVC250 M02/M05 A3004 RMK SC2CI1 SLP188

CYWG;2011-02-14 20:00;CYWG 142000Z 18011KT 15SM OVC250 M01/M04 A3003 RMK CI6 SLP184

CYWG;2011-02-14 21:00;CYWG 142100Z 17012KT 15SM OVC250 M01/M03 A3001 RMK CI3 SLP176

CYWG;2011-02-14 22:00;CYWG 142200Z 17016KT 15SM OVC250 M01/M02 A2999 RMK CI6 SLP169

CYWG;2011-02-14 23:00;CYWG 142300Z 17016KT 15SM SCT120 OVC250 M00/M02 A2996 RMK AS3CI3 SLP162

CYWG;2011-02-15 00:00;CYWG 150000Z 17013KT 15SM SCT120 OVC250 M00/M02 A2994 RMK AS3CI2 SLP153

CYWG;2011-02-15 01:00;CYWG 150100Z 17018G24KT 15SM SCT120 OVC250 M00/M02 A2991 RMK AS3CI3 SLP145

CYWG;2011-02-15 02:00;CYWG 150200Z 17017KT 15SM OVC250 00/M02 A2988 RMK CI6 SLP134

CYWG;2011-02-15 03:00;CYWG 150300Z 17017G22KT 15SM SCT120 OVC250 M00/M02 A2986 RMK AC3CI3 SLP125

CYWG;2011-02-15 04:00;CYWG 150400Z 18020G26KT 15SM BKN120 BKN250 00/M03 A2984 RMK AC5CI2 SLP118

CYWG;2011-02-15 05:00;CYWG 150500Z 17021G27KT 15SM BKN120 00/M03 A2980 RMK AC6 SLP106

CYWG;2011-02-15 06:00;CYWG 150600Z 16022G28KT 15SM SCT120 BKN250 01/M03 A2976 RMK AC3CI2 SLP090

CYWG;2011-02-15 07:00;CYWG 150700Z 17023G30KT 15SM BKN250 02/M04 A2971 RMK CI2 SLP074

CYWG;2011-02-15 08:00;CYWG 150800Z 17021G26KT 15SM BKN250 01/M04 A2967 RMK CI3 SLP062

CYWG;2011-02-15 09:00;CYWG 150900Z 18023G29KT 15SM BKN250 01/M04 A2966 RMK CI5 SLP056

CYWG;2011-02-15 10:00;CYWG 151000Z 18022G27KT 15SM BKN250 01/M03 A2963 RMK CI7 SLP044

CYWG;2011-02-15 11:00;CYWG 151100Z 18022G29KT 15SM BKN250 00/M03 A2958 RMK CI7 SLP030

CYWG;2011-02-15 12:00;CYWG 151200Z 18020G27KT 15SM BKN250 00/M03 A2956 RMK CI6 SLP023

CYWG;2011-02-15 13:00;CYWG 151300Z 18017KT 15SM SCT160 M01/M03 A2956 RMK AC2 SLP022

CYWG;2011-02-15 14:00;CYWG 151400Z 18014G20KT 15SM SCT160 BKN250 M01/M03 A2955 RMK AC2CI2 SLP018

CYWG;2011-02-15 15:00;CYWG 151500Z 19017KT 15SM FEW160 SCT220 BKN260 M01/M03 A2955 RMK AC1CI2CI1 SLP019

CYWG;2011-02-15 16:00;CYWG 151600Z 19018KT 15SM FEW180 SCT220 M00/M02 A2952 RMK AC2CI1 SLP009

CYWG;2011-02-15 17:00;CYWG 151700Z 19018KT 15SM SCT180 BKN220 01/M01 A2951 RMK AC2CI1 SLP007

CYWG;2011-02-15 18:00;CYWG 151800Z 20015KT 15SM FEW180 BKN250 02/M01 A2952 RMK AC1CI2 SLP008

CYWG;2011-02-15 19:00;CYWG 151900Z 19017KT 15SM FEW250 02/M00 A2948 RMK CI1 SLP993

CYWG;2011-02-15 20:00;CYWG 152000Z 19015G20KT 15SM FEW250 02/M00 A2948 RMK CI0 SLP995

CYWG;2011-02-15 21:00;CYWG 152100Z 20016KT 15SM FEW250 03/M00 A2948 RMK CI0 SLP995

CYWG;2011-02-15 22:00;CYWG 152200Z 19014G20KT 15SM SCT250 03/00 A2948 RMK CI1 SLP993

CYWG;2011-02-15 23:00;CYWG 152300Z 20013KT 15SM FEW120 SCT250 03/M00 A2948 RMK AC1CI1 SLP993

CYWG;2011-02-16 00:00;CYWG 160000Z 19012KT 15SM FEW120 BKN250 03/M00 A2948 RMK AC2CI1 SLP993

CYWG;2011-02-16 01:00;CYWG 160100Z 19010KT 15SM FEW120 BKN250 02/M00 A2950 RMK AC2CI2 SLP000

CYWG;2011-02-16 02:00;CYWG 160200Z 19007KT 15SM FEW120 BKN250 01/M00 A2948 RMK AC2CI2 SLP995

CYWG;2011-02-16 03:00;CYWG 160300Z 21010KT 15SM SCT120 OVC250 03/00 A2948 RMK AC4CI1 SLP993

CYWG;2011-02-16 04:00;CYWG 160400Z 25010KT 15SM FEW120 SCT250 04/M00 A2948 RMK AC2CI2 SLP994

CYWG;2011-02-16 05:00;CYWG 160500Z 22013KT 15SM FEW250 02/M01 A2950 RMK CI1 SLP999

CYWG;2011-02-16 06:00;CYWG 160600Z 23014G19KT 15SM SKC 03/M01 A2949 RMK SLP996

CYWG;2011-02-16 07:00;CYWG 160700Z 25015KT 15SM SKC 04/M01 A2951 RMK SLP001

CYWG;2011-02-16 08:00;CYWG 160800Z 25014KT 15SM SKC 04/M01 A2953 RMK SLP008

CYWG;2011-02-16 09:00;CYWG 160900Z 25012KT 15SM FEW250 03/M01 A2955 RMK CI1 SLP016

CYWG;2011-02-16 10:00;CYWG 161000Z 22008KT 15SM FEW250 00/M02 A2956 RMK CI1 SLP021

CYWG;2011-02-16 11:00;CYWG 161100Z 20008KT 15SM FEW120 SCT250 M01/M03 A2959 RMK AC1CI1 SLP030

CYWG;2011-02-16 12:00;CYWG 161200Z 00000KT 15SM FEW120 SCT250 M02/M04 A2961 RMK AC2CI0 SLP040

CYWG;2011-02-16 13:00;CYWG 161300Z 29006KT 15SM SCT100 BKN250 M04/M05 A2962 RMK AC3CI1 SLP043

CYWG;2011-02-16 14:00;CYWG 161400Z 27006KT 15SM FEW100 SCT250 M04/M05 A2966 RMK AC2CI0 SLP054

CYWG;2011-02-16 15:00;CYWG 161500Z 01005KT 15SM FEW100 SCT250 M05/M06 A2966 RMK AC2CI0 SLP056

CYWG;2011-02-16 16:00;CYWG 161600Z 04007KT 15SM FEW100 SCT250 M01/M03 A2967 RMK AC1CI1 SLP060

CYWG;2011-02-16 17:00;CYWG 161700Z 05014KT 15SM FEW100 BKN250 M02/M04 A2969 RMK AC2CI2 SLP066

CYWG;2011-02-16 18:00;CYWG 161800Z 04019G24KT 15SM FEW100 BKN250 M03/M06 A2970 RMK AC1CI2 SLP071

CYWG;2011-02-16 19:00;CYWG 161900Z 04016G21KT 15SM FEW100 FEW250 M03/M05 A2969 RMK AC1CI1 SLP065

CYWG;2011-02-16 20:00;CYWG 162000Z 04020KT 15SM FEW100 FEW250 M03/M06 A2967 RMK AC1CI1 SLP058

CYWG;2011-02-16 21:00;CYWG 162100Z 04020KT 15SM FEW100 FEW250 M04/M08 A2965 RMK AC1CI1 SLP052

CYWG;2011-02-16 22:00;CYWG 162200Z 04019KT 15SM FEW100 SCT250 M05/M08 A2963 RMK AC1CI1 SLP047

CYWG;2011-02-16 23:00;CYWG 162300Z 04016KT 15SM FEW100 BKN250 M05/M09 A2961 RMK AC2CI2 SLP038

CYWG;2011-02-17 00:00;CYWG 170000Z 04018G24KT 15SM FEW100 SCT250 M06/M09 A2959 RMK AC1CI1 SLP033

CYWG;2011-02-17 01:00;CYWG 170100Z 04015KT 15SM FEW100 FEW250 M07/M09 A2958 RMK AC1CI1 SLP031

CYWG;2011-02-17 02:00;CYWG 170200Z 03016KT 15SM SKC M07/M09 A2953 RMK SLP014

CYWG;2011-02-17 03:00;CYWG 170300Z 05014KT 15SM FEW250 M07/M09 A2949 RMK CI1 SLP002

CYWG;2011-02-17 04:00;CYWG 170400Z 04015KT 15SM SKC M07/M08 A2944 RMK SLP987

CYWG;2011-02-17 05:00;CYWG 170500Z 04014KT 15SM SKC M07/M08 A2941 RMK SLP976

CYWG;2011-02-17 06:00;CYWG 170600Z 04012KT 15SM SKC M07/M08 A2939 RMK SLP966

CYWG;2011-02-17 07:00;CYWG 170700Z 04007KT 15SM FEW120 M07/M09 A2937 RMK AC1 SLP961

CYWG;2011-02-17 08:00;CYWG 170800Z 03014KT 15SM FEW120 M07/M08 A2936 RMK AC2 SLP956

CYWG;2011-02-17 09:00;CYWG 170900Z 04016KT 15SM FEW120 M07/M08 A2934 RMK AC1 SLP951

CYWG;2011-02-17 10:00;CYWG 171000Z 04014G19KT 15SM FEW120 M07/M08 A2930 RMK AC1 SLP936

CYWG;2011-02-17 11:00;CYWG 171100Z 01012KT 15SM SKC M07/M08 A2933 RMK SLP946

CYWG;2011-02-17 12:00;CYWG 171200Z 04016KT 15SM SKC M08/M09 A2929 RMK SLP934

CYWG;2011-02-17 13:00;CYWG 171300Z 03013KT 15SM SKC M08/M09 A2928 RMK SLP931

CYWG;2011-02-17 13:52;CYWG 171352Z 01011KT 15SM SCT010 M09/ RMK SF2

CYWG;2011-02-17 14:00;CYWG 171400Z 36007KT 15SM SCT007 BKN210 M09/M10 A2928 RMK SF2CI1 SLP931

CYWG;2011-02-17 14:18;CYWG 171418Z 01006KT 15SM BKN006 M09/ RMK ST5

CYWG;2011-02-17 15:00;CYWG 171500Z 35010KT 15SM OVC006 M08/M09 A2929 RMK ST8 SLP935

CYWG;2011-02-17 16:00;CYWG 171600Z 34008KT 15SM OVC006 M06/M07 A2927 RMK ST8 SLP928

CYWG;2011-02-17 17:00;CYWG 171700Z 36013KT 15SM OVC006 M05/M06 A2927 RMK SF8 SLP929

CYWG;2011-02-17 18:00;CYWG 171800Z 34009KT 15SM OVC007 M06/M07 A2928 RMK ST8 SLP930

CYWG;2011-02-17 19:00;CYWG 171900Z 01015KT 15SM OVC005 M06/M07 A2926 RMK ST8 SLP924

CYWG;2011-02-17 19:16;CYWG 171916Z 01011G16KT 5SM BR OVC004 M06/ RMK ST8

CYWG;2011-02-17 20:00;CYWG 172000Z 34014KT 4SM BR OVC004 M06/M07 A2927 RMK ST8 VIS LWR E SLP926

CYWG;2011-02-17 20:08;CYWG 172008Z 34013KT 3SM R36/3000VP6000FT/D -SN BR OVC003 M06/ RMK ST8 VIS LWR E

CYWG;2011-02-17 21:00;CYWG 172100Z 32012KT 3SM -SN BR OVC003 M06/M07 A2928 RMK ST8 SLP930

CYWG;2011-02-17 22:00;CYWG 172200Z 31019G24KT 1 1/2SM -SN BR OVC007 M08/M09 A2928 RMK ST8 SLP931

CYWG;2011-02-17 23:00;CYWG 172300Z 31016KT 1 1/2SM -SN BR OVC008 M09/M10 A2931 RMK ST8 SLP939

CYWG;2011-02-17 23:31;CYWG 172331Z 31020KT 3/4SM R31/P6000FT/D R36/P6000FT/D -SHGS BR VV010 M09/ RMK SN8

CYWG;2011-02-17 23:37;CYWG 172337Z 31020KT 1/2SM R31/4000VP6000FT/D R36/4500VP6000FT/D SHGS BLSN VV010 M09/ RMK SN8

CYWG;2011-02-17 23:47;CYWG 172347Z 30027KT 1/4SM R36/4000FT/N SHGS +BLSN VV002 M11/ RMK SN8

CYWG;2011-02-18 00:00;CYWG 180000Z 30026KT 1/4SM R36/5000FT/N -SHSN +BLSN VV001 M12/M13 A2934 REGS RMK SN8 SLP954

CYWG;2011-02-18 00:32;CYWG 180032Z 31024KT 1/2SM R36/P6000FT/N -SN BLSN VV004 M13/ REBLSN RMK SN8

CYWG;2011-02-18 00:45;CYWG 180045Z 30024KT 3/4SM R36/P6000FT/U -SHSN BLSN VV004 M13/ REBLSN RMK SN8

CYWG;2011-02-18 01:00;CYWG 180100Z 31024G30KT 1/2SM R31/2800V6000FT/D R36/P6000FT/D SN BLSN VV010 M14/M15 A2941 RMK SN8 REBLSN SLP978

CYWG;2011-02-18 01:18;CYWG 180118Z 31027KT 1/2SM R31/2600V5000FT/D R36/3500VP6000FT/D -SN BLSN VV004 M14/ RESN RMK SN8

CYWG;2011-02-18 01:24;CYWG 180124Z 31025G31KT 1/2SM R31/2600FT/N R36/3500V5000FT/N -SN BLSN VV002 M14/ RESN RMK SN8

CYWG;2011-02-18 02:00;CYWG 180200Z 31022G32KT 1/2SM R31/3000V5500FT/U R36/4000VP6000FT/U -SN BLSN VV002 M15/M16 A2945 RESN RMK SN8 SLP990

CYWG;2011-02-18 02:36;CYWG 180236Z 31026G36KT 1/4SM R31/2000FT/N R36/3500V4500FT/N -SN +BLSN VV001 M15/ RMK SN8

CYWG;2011-02-18 03:00;CYWG 180300Z 31031KT 1/4SM R31/2600FT/N R36/3000V5500FT/D -SN +BLSN VV001 M15/M16 A2949 RMK SN8 SLP006

CYWG;2011-02-18 04:00;CYWG 180400Z 31033KT 1/4SM R31/1200FT/N R36/2400FT/N -SN +BLSN VV001 M16/M17 A2953 RMK SN8 SLP019

CYWG;2011-02-18 04:29;CYWG 180429Z 31025G30KT 1/2SM R31/2800FT/N R36/5000FT/N -SN BLSN VV001 RMK SN8

CYWG;2011-02-18 05:00;CYWG 180500Z 31032G37KT 1/2SM R31/1600FT/N R36/P6000FT/N -SN BLSN VV001 M16/M17 A2958 RMK SN8 SLP035

CYWG;2011-02-18 05:19;CYWG 180519Z 30027G33KT 3/4SM R31/3000FT/N R36/P6000FT/U -SN BLSN SKC M16/ REBLSN RMK SN6

CYWG;2011-02-18 06:00;CYWG 180600Z 30023G29KT 3/4SM R31/2600V4500FT/N R36/P6000FT/D -SN BLSN SKC M17/M17 A2964 REBLSN RMK SN6 SLP055

CYWG;2011-02-18 07:00;CYWG 180700Z 32020G32KT 3/4SM R31/3500VP6000FT/N R36/P6000FT/D -SN BLSN SKC M17/M18 A2968 RMK SN6 SLP069

CYWG;2011-02-18 08:00;CYWG 180800Z 31020G25KT 1SM R31/P6000FT/U R36/P6000FT/U BLSN SKC M17/M18 A2972 RMK SN6 SLP084

CYWG;2011-02-18 09:00;CYWG 180900Z 31026G33KT 1SM R31/3000V5500FT/U R36/P6000FT/U -SN BLSN OVC054 M17/M18 A2977 RMK SN6SC2 SLP100

CYWG;2011-02-18 10:00;CYWG 181000Z 31025KT 1SM R31/3500VP6000FT/U R36/P6000FT/U -SN BLSN OVC050 M17/M18 A2982 RMK SN6SC2 SLP117

CYWG;2011-02-18 11:00;CYWG 181100Z 31024G29KT 1SM R31/P6000FT/N R36/P6000FT/D -SN BLSN OVC043 M17/M18 A2987 RMK SN6SC2 SLP133

CYWG;2011-02-18 12:00;CYWG 181200Z 31021G26KT 1SM -SN BLSN BKN031 M17/M18 A2990 RMK SN2SC2 SLP149

CYWG;2011-02-18 13:00;CYWG 181300Z 31017G25KT 1SM R31/P6000FT/N R36/P6000FT/N -SN BLSN BKN025 M17/M18 A2995 RMK BLSN2SC2 SLP165

CYWG;2011-02-18 13:21;CYWG 181321Z 31019G25KT 5SM BLSN FEW009 FEW030 SCT250 M18/ RMK SF2SC1CI0

CYWG;2011-02-18 14:00;CYWG 181400Z 31020KT 6SM BLSN FEW012 SCT070 BKN250 M18/M19 A2999 RMK SF2AC2CI0 SLP178

CYWG;2011-02-18 14:49;CYWG 181449Z 31019KT 6SM BLSN FEW009 SCT072 BKN250 M18/ RMK SF2AC2CI0

CYWG;2011-02-18 15:00;CYWG 181500Z 31019KT 10SM DRSN FEW009 SCT072 M18/M19 A3006 RMK SF1AC2 PRESRR SLP202

CYWG;2011-02-18 16:00;CYWG 181600Z 31018G24KT 5SM BLSN FEW009 M18/M19 A3009 RMK SF1 SLP215

CYWG;2011-02-18 17:00;CYWG 181700Z 31020G25KT 5SM BLSN FEW009 M17/M23 A3015 RMK SF1 SLP232

CYWG;2011-02-18 18:00;CYWG 181800Z 31020KT 10SM DRSN FEW009 M17/M21 A3019 RMK SF2 SLP249

CYWG;2011-02-18 19:00;CYWG 181900Z 31021KT 10SM DRSN FEW010 M17/M20 A3023 RMK SF2 SLP261

CYWG;2011-02-18 20:00;CYWG 182000Z 31021KT 15SM DRSN FEW010 M17/M20 A3027 RMK SF1 SLP274

CYWG;2011-02-18 21:00;CYWG 182100Z 31017KT 15SM DRSN FEW010 M17/M20 A3030 RMK SF1 SLP287

CYWG;2011-02-18 22:00;CYWG 182200Z 31015KT 15SM SKC M17/M20 A3033 RMK SLP295

CYWG;2011-02-18 23:00;CYWG 182300Z 31011KT 15SM SKC M17/M21 A3037 RMK SLP308

CYWG;2011-02-19 00:00;CYWG 190000Z 30009KT 15SM SKC M19/M22 A3039 RMK SLP317

CYWG;2011-02-19 01:00;CYWG 190100Z 29009KT 15SM SKC M20/M24 A3042 RMK SLP328

CYWG;2011-02-19 02:00;CYWG 190200Z 29010KT 15SM SKC M21/M24 A3045 RMK SLP338

CYWG;2011-02-19 03:00;CYWG 190300Z 30008KT 15SM SKC M22/M26 A3048 RMK SLP348

CYWG;2011-02-19 04:00;CYWG 190400Z 32005KT 15SM SKC M23/M27 A3049 RMK SLP354

CYWG;2011-02-19 05:00;CYWG 190500Z 34007KT 15SM SKC M23/M27 A3051 RMK SLP359

CYWG;2011-02-19 06:00;CYWG 190600Z 36006KT 15SM FEW250 M23/M27 A3052 RMK CI0 SLP362

CYWG;2011-02-19 07:00;CYWG 190700Z 04003KT 15SM FEW250 M22/M26 A3053 RMK CI0 SLP365

CYWG;2011-02-19 08:00;CYWG 190800Z 32002KT 15SM BKN250 M22/M26 A3054 RMK CI0 SLP371

CYWG;2011-02-19 09:00;CYWG 190900Z 31004KT 15SM BKN250 M24/M27 A3055 RMK CI1 SLP373

CYWG;2011-02-19 10:00;CYWG 191000Z 30004KT 15SM BKN250 M24/M28 A3055 RMK CI1 SLP373

CYWG;2011-02-19 11:00;CYWG 191100Z 29004KT 15SM BKN250 M23/M27 A3055 RMK CI1 SLP373

CYWG;2011-02-19 12:00;CYWG 191200Z 00000KT 15SM FEW087 BKN250 M24/M27 A3055 RMK AC2CI3 SLP376

CYWG;2011-02-19 13:00;CYWG 191300Z 36003KT 15SM BKN067 OVC250 M22/M26 A3055 RMK AC6CI2 SLP376

CYWG;2011-02-19 14:00;CYWG 191400Z 35003KT 15SM BKN057 OVC250 M21/M25 A3058 RMK SC6CI1 SLP384

CYWG;2011-02-19 15:00;CYWG 191500Z 04004KT 15SM BKN051 OVC250 M20/M24 A3056 RMK SC5CI2 SLP379

CYWG;2011-02-19 15:30;CYWG 191530Z 04003KT 15SM -SN SCT051 BKN089 BKN250 M20/ RMK SC3AC2CI1

CYWG;2011-02-19 16:00;CYWG 191600Z 12003KT 15SM -SN SCT053 BKN089 OVC250 M19/M24 A3055 RMK SC3AC3CI1 SLP376

CYWG;2011-02-19 17:00;CYWG 191700Z 34002KT 15SM -SN BKN033 OVC077 M18/M22 A3055 RMK SC6AC2 SLP376

CYWG;2011-02-19 18:00;CYWG 191800Z 34006KT 6SM -SN BKN025 OVC072 M19/M22 A3055 RMK SC6AC2 SLP375

CYWG;2011-02-19 18:31;CYWG 191831Z 01005KT 2SM -SN BKN010 OVC072 M18/ RMK SC6AC2

CYWG;2011-02-19 19:00;CYWG 191900Z 02007KT 2SM -SN BKN012 OVC072 M18/M21 A3053 RMK SC6AC2 SLP368

CYWG;2011-02-19 20:00;CYWG 192000Z 03008KT 1 1/2SM -SN VV012 M17/M21 A3051 RMK SN8 SLP362

CYWG;2011-02-19 20:16;CYWG 192016Z 02008KT 3SM -SN SCT012 OVC045 M17/ RMK SC3SC5

CYWG;2011-02-19 21:00;CYWG 192100Z 03009KT 6SM -SN SCT012 OVC055 M17/M20 A3048 RMK SC3SC5 SLP351

CYWG;2011-02-19 22:00;CYWG 192200Z 03007KT 3SM -SN OVC017 M17/M20 A3049 RMK SC8 SLP353

CYWG;2011-02-19 23:00;CYWG 192300Z 04008KT 4SM -SN OVC017 M17/M20 A3048 RMK SC8 SLP349

CYWG;2011-02-20 00:00;CYWG 200000Z 03012KT 8SM -SN FEW017 OVC070 M17/M20 A3047 RMK SC2AC6 SLP345

CYWG;2011-02-20 00:47;CYWG 200047Z 03012KT 15SM FEW015 OVC075 M17/ RMK SC2AC6

CYWG;2011-02-20 01:00;CYWG 200100Z 03010KT 15SM FEW015 BKN075 M17/M21 A3047 RMK SC1AC6 SLP346

CYWG;2011-02-20 02:00;CYWG 200200Z 02009KT 15SM FEW030 BKN070 M18/M22 A3050 RMK SC1AC4 SLP355

CYWG;2011-02-20 03:00;CYWG 200300Z 02008KT 15SM FEW035 SCT066 M20/M24 A3050 RMK SC1AC3 SLP356

CYWG;2011-02-20 04:00;CYWG 200400Z 02009KT 15SM FEW035 FEW066 M22/M25 A3049 RMK SC1AC2 SLP353

CYWG;2011-02-20 05:00;CYWG 200500Z 01010KT 15SM SCT120 M21/M24 A3050 RMK AC2 SLP356

CYWG;2011-02-20 06:00;CYWG 200600Z 02011KT 15SM BKN120 M22/M25 A3050 RMK AC2 SLP355

CYWG;2011-02-20 07:00;CYWG 200700Z 04010KT 15SM BKN150 M23/M26 A3050 RMK AC2 SLP355

CYWG;2011-02-20 08:00;CYWG 200800Z 03005KT 15SM FEW150 M24/M28 A3050 RMK AC2 SLP357

CYWG;2011-02-20 09:00;CYWG 200900Z 03006KT 15SM FEW150 M25/M29 A3049 RMK AC1 SLP355

CYWG;2011-02-20 10:00;CYWG 201000Z 02003KT 15SM SKC M27/M31 A3049 RMK SLP353

CYWG;2011-02-20 11:00;CYWG 201100Z 03005KT 15SM SKC M27/M31 A3047 RMK SLP348

CYWG;2011-02-20 12:00;CYWG 201200Z 03011KT 15SM SKC M27/M31 A3044 RMK SLP338

CYWG;2011-02-20 13:00;CYWG 201300Z 04007KT 10SM SKC M28/M32 A3045 RMK BR SLP340

CYWG;2011-02-20 14:00;CYWG 201400Z 03005KT 15SM FEW240 M29/M33 A3047 RMK CI1 SLP347

CYWG;2011-02-20 14:09;CYWG 201409Z CCA 03006KT 10SM FEW240 M29/ RMK CI1 IC

CYWG;2011-02-20 15:00;CYWG 201500Z 02013KT 10SM FEW240 M27/M31 A3043 RMK CI1 IC SLP337

CYWG;2011-02-20 16:00;CYWG 201600Z 05008KT 10SM FEW240 M25/M29 A3041 RMK CI1 IC SLP330

CYWG;2011-02-20 17:00;CYWG 201700Z 02011KT 15SM SCT240 M23/M26 A3040 RMK CI1 SLP326

CYWG;2011-02-20 18:00;CYWG 201800Z 04010KT 15SM FEW120 SCT240 M21/M24 A3038 RMK AC1CI1 SLP315

CYWG;2011-02-20 19:00;CYWG 201900Z 03015KT 15SM FEW120 SCT240 M19/M23 A3036 RMK AC1CI1 SLP309

CYWG;2011-02-20 20:00;CYWG 202000Z 02016KT 15SM SCT240 M19/M23 A3034 RMK CI1 SLP304

CYWG;2011-02-20 21:00;CYWG 202100Z 03015G20KT 15SM SCT240 M17/M22 A3032 RMK CI1 SLP296

CYWG;2011-02-20 22:00;CYWG 202200Z 02018KT 15SM FEW240 M17/M21 A3030 RMK CI1 SLP288

CYWG;2011-02-20 23:00;CYWG 202300Z 02015KT 15SM DRSN FEW240 M17/M22 A3028 RMK CI1 SLP282

CYWG;2011-02-21 00:00;CYWG 210000Z 02016KT 15SM FEW100 FEW240 M18/M22 A3028 RMK AC1CI1 SLP282

CYWG;2011-02-21 01:00;CYWG 210100Z 02016KT 15SM SCT240 M18/M23 A3028 RMK CI1 SLP283

CYWG;2011-02-21 02:00;CYWG 210200Z 03015KT 15SM FEW240 M19/M23 A3027 RMK CI0 SLP279

CYWG;2011-02-21 03:00;CYWG 210300Z 04009KT 15SM SKC M20/M24 A3028 RMK SLP285

CYWG;2011-02-21 04:00;CYWG 210400Z 04006KT 15SM SKC M22/M25 A3028 RMK SLP284

CYWG;2011-02-21 05:00;CYWG 210500Z 04006KT 15SM SKC M23/M26 A3027 RMK SLP281

CYWG;2011-02-21 06:00;CYWG 210600Z 05007KT 15SM SKC M23/M27 A3026 RMK SLP276

CYWG;2011-02-21 07:00;CYWG 210700Z 04005KT 15SM SKC M24/M28 A3026 RMK SLP276

CYWG;2011-02-21 08:00;CYWG 210800Z 05006KT 15SM SKC M25/M28 A3024 RMK SLP270

CYWG;2011-02-21 09:00;CYWG 210900Z 06006KT 15SM SKC M24/M27 A3021 RMK SLP259

CYWG;2011-02-21 10:00;CYWG 211000Z 08007KT 15SM SKC M21/M24 A3019 RMK SLP252

CYWG;2011-02-21 11:00;CYWG 211100Z 09006KT 15SM SKC M20/M24 A3019 RMK SLP250

CYWG;2011-02-21 12:00;CYWG 211200Z 00000KT 15SM SKC M21/M25 A3019 RMK SLP250

CYWG;2011-02-21 13:00;CYWG 211300Z 33004KT 15SM FEW092 M26/M29 A3021 RMK AC1 SLP256

CYWG;2011-02-21 14:00;CYWG 211400Z 03005KT 15SM FEW092 M26/M30 A3022 RMK AC1 SLP259

CYWG;2011-02-21 15:00;CYWG 211500Z 04006KT 15SM FEW200 M24/M27 A3022 RMK CI2 SLP261

CYWG;2011-02-21 16:00;CYWG 211600Z 03003KT 15SM FEW008 SCT120 M22/M25 A3021 RMK SF1AC3 SLP260

CYWG;2011-02-21 17:00;CYWG 211700Z 12004KT 15SM FEW010 FEW120 SCT200 M17/M21 A3020 RMK SF1AC2CI2 SLP256

CYWG;2011-02-21 18:00;CYWG 211800Z 17003KT 15SM FEW010 BKN090 BKN200 M16/M19 A3018 RMK SF1AC2CI1 SLP247

CYWG;2011-02-21 19:00;CYWG 211900Z 15003KT 15SM SCT008 OVC090 M15/M17 A3015 RMK SF2AC4 SLP237

CYWG;2011-02-21 19:50;CYWG 211950Z 12004KT 15SM -SN BKN010 M14/ RMK SC6

CYWG;2011-02-21 20:00;CYWG 212000Z 14004KT 15SM -SN BKN010 M14/M17 A3013 RMK SC7 SLP231

CYWG;2011-02-21 20:42;CYWG 212042Z 15004KT 15SM BKN010 M14/ RMK SC7

CYWG;2011-02-21 21:00;CYWG 212100Z 16004KT 15SM -SN BKN010 M14/M16 A3012 RMK SC6 SLP225

CYWG;2011-02-21 21:20;CYWG 212120Z 20003KT 15SM FEW013 SCT280 M13/ RMK SC1CI1

CYWG;2011-02-21 22:00;CYWG 212200Z 34005KT 15SM FEW007 FEW013 SCT280 M15/M18 A3010 RMK SF1SC1CI0 SF TR SLP221

CYWG;2011-02-21 23:00;CYWG 212300Z 33004KT 15SM FEW013 FEW280 M16/M18 A3010 RMK SC1CI0 SLP219

CYWG;2011-02-22 00:00;CYWG 220000Z 35002KT 15SM FEW020 FEW250 FEW280 M16/M19 A3010 RMK SC1CI1CI0 SLP218

CYWG;2011-02-22 00:48;CYWG 220048Z 03004KT 12SM -SN BKN018 M18/ RMK SC7

CYWG;2011-02-22 01:00;CYWG 220100Z 02003KT 12SM -SN OVC018 M18/M20 A3010 RMK SC8 SLP218

CYWG;2011-02-22 02:00;CYWG 220200Z 12003KT 15SM -SN BKN018 M17/M19 A3008 RMK SC3 SLP213

CYWG;2011-02-22 02:23;CYWG 220223Z 17004KT 15SM FEW015 M18/ RMK SC2

CYWG;2011-02-22 03:00;CYWG 220300Z 16007KT 15SM FEW015 M17/M19 A3007 RMK SC1 SLP211

CYWG;2011-02-22 04:00;CYWG 220400Z 22005KT 15SM FEW020 M18/M21 A3008 RMK SC1 SLP212

CYWG;2011-02-22 05:00;CYWG 220500Z 23005KT 15SM FEW250 M19/M21 A3008 RMK CI0 SLP212

CYWG;2011-02-22 06:00;CYWG 220600Z 22004KT 15SM FEW250 M19/M21 A3008 RMK CI0 SLP210

CYWG;2011-02-22 07:00;CYWG 220700Z 19005KT 15SM FEW052 M19/M22 A3007 RMK SC1 SLP207

CYWG;2011-02-22 08:00;CYWG 220800Z 17009KT 15SM FEW050 M19/M22 A3005 RMK SC1 SLP201

CYWG;2011-02-22 09:00;CYWG 220900Z 18007KT 15SM SKC M18/M20 A3003 RMK SLP193

CYWG;2011-02-22 10:00;CYWG 221000Z 18007KT 15SM SKC M18/M20 A3002 RMK SLP189

CYWG;2011-02-22 11:00;CYWG 221100Z 16010KT 15SM SKC M18/M21 A3001 RMK SLP185

CYWG;2011-02-22 12:00;CYWG 221200Z 18010KT 15SM SKC M17/M20 A3000 RMK SLP185

CYWG;2011-02-22 13:00;CYWG 221300Z 18012KT 15SM FEW220 M17/M20 A2999 RMK CI2 SLP182

CYWG;2011-02-22 14:00;CYWG 221400Z 17012KT 15SM BKN220 M17/M19 A2999 RMK CI3 SLP179

CYWG;2011-02-22 15:00;CYWG 221500Z CCA 20013KT 15SM FEW014 BKN036 OVC220 M15/M17 A2998 RMK SF1SC4CI2 OBS TAKEN +05 SLP177

CYWG;2011-02-22 16:00;CYWG 221600Z 18016KT 15SM FEW030 SCT120 BKN220 M14/M16 A2997 RMK SF1AC1CI1 SLP173

CYWG;2011-02-22 16:44;CYWG 221644Z 18017G26KT 6SM BLSN FEW033 SCT120 BKN220 M12/ RMK SF1AC1CI1

CYWG;2011-02-22 17:00;CYWG 221700Z 18017G22KT 6SM BLSN FEW030 FEW120 BKN220 M12/M13 A2995 RMK SF1AC1CI0 SLP166

CYWG;2011-02-22 17:16;CYWG 221716Z CCA 17022KT 10SM FEW030 FEW120 BKN220 M12/ REBLSN RMK SF1AC1CI0

CYWG;2011-02-22 18:00;CYWG 221800Z 17021G29KT 15SM FEW030 FEW220 M10/M12 A2993 REBLSN RMK SF1CI1 OBS TAKEN +03 SLP156

CYWG;2011-02-22 19:00;CYWG 221900Z 18027KT 15SM FEW015 FEW220 M09/M11 A2990 RMK CF1CI2 SLP147

CYWG;2011-02-22 20:00;CYWG 222000Z 17025G30KT 8SM DRSN FEW015 SCT260 M10/M11 A2989 RMK CF1CI0 SLP143

CYWG;2011-02-22 21:00;CYWG 222100Z 18025G30KT 10SM DRSN FEW015 SCT260 M09/M11 A2987 RMK SC2CI0 SLP137

CYWG;2011-02-22 22:00;CYWG 222200Z 18024G31KT 12SM DRSN SCT025 SCT260 M09/M11 A2986 RMK SC2CI1 SLP133

CYWG;2011-02-22 23:00;CYWG 222300Z 18018G25KT 15SM DRSN FEW009 BKN076 BKN260 M10/M11 A2986 RMK SF2AC2CI1 SLP133

CYWG;2011-02-23 00:00;CYWG 230000Z 18020G26KT 15SM DRSN FEW012 FEW072 SCT260 M10/M11 A2985 RMK SF1AC1CI0 SF TR SLP131

CYWG;2011-02-23 01:00;CYWG 230100Z 18018G25KT 15SM DRSN FEW012 BKN260 M10/M11 A2986 RMK SF1CI6 SF TR SLP134

CYWG;2011-02-23 02:00;CYWG 230200Z 18017G22KT 12SM DRSN FEW012 BKN160 OVC260 M10/M11 A2985 RMK SF1AC6CI2 SF TR SLP129

CYWG;2011-02-23 03:00;CYWG 230300Z 19019G25KT 15SM DRSN FEW010 OVC160 M10/M12 A2985 RMK SF1AC8 SF TR SLP130

CYWG;2011-02-23 04:00;CYWG 230400Z 19014G19KT 15SM BKN160 M10/M12 A2986 RMK AC3 SLP131

CYWG;2011-02-23 05:00;CYWG 230500Z 18012KT 15SM BKN160 M11/M12 A2986 RMK AC2 SLP132

CYWG;2011-02-23 06:00;CYWG 230600Z 19013KT 15SM BKN160 M11/M13 A2986 RMK AC3 SLP129

CYWG;2011-02-23 07:00;CYWG 230700Z 20012G17KT 15SM BKN160 M12/M13 A2987 RMK AC2 SLP132

CYWG;2011-02-23 08:00;CYWG 230800Z 19012KT 15SM BKN140 M12/M13 A2987 RMK AC4 SLP134

CYWG;2011-02-23 09:00;CYWG 230900Z 19010KT 15SM BKN160 M12/M13 A2988 RMK AC2 SLP137

CYWG;2011-02-23 10:00;CYWG 231000Z 20008KT 15SM BKN140 M13/M14 A2987 RMK AC4 SLP135

CYWG;2011-02-23 11:00;CYWG 231100Z 22006KT 15SM BKN140 M13/M15 A2989 RMK AC4 SLP142

CYWG;2011-02-23 12:00;CYWG 231200Z 26002KT 15SM FEW120 M17/M18 A2990 RMK AC1 SLP147

CYWG;2011-02-23 13:00;CYWG 231300Z 27004KT 15SM FEW120 M17/M18 A2991 RMK AC1 SLP151

CYWG;2011-02-23 14:00;CYWG 231400Z 32005KT 15SM FEW110 FEW230 M19/M20 A2993 RMK AC1CI0 SLP156

CYWG;2011-02-23 15:00;CYWG 231500Z 34007KT 15SM FEW090 BKN230 M17/M18 A2995 RMK AC2CI1 SLP164

CYWG;2011-02-23 16:00;CYWG 231600Z 32007KT 15SM FEW069 BKN230 M15/M16 A2998 RMK AC2CI1 SLP175

CYWG;2011-02-23 17:00;CYWG 231700Z 34012KT 15SM -SN SCT069 BKN230 M13/M14 A2999 RMK AC4CI1 SLP179

CYWG;2011-02-23 17:27;CYWG 231727Z 34009KT 2SM -SN BKN025 OVC069 M12/ RMK SN2SC6AC1

CYWG;2011-02-23 18:00;CYWG 231800Z 32006KT 4SM -SN SCT025 BKN054 OVC078 M12/M14 A3000 RMK SC4SC3AC1 SLP181

CYWG;2011-02-23 18:36;CYWG 231836Z 32010KT 1 1/2SM -SN OVC025 M12/ RMK SN2SC6

CYWG;2011-02-23 18:48;CYWG 231848Z 32011KT 1SM R31/P6000FT/U R36/P6000FT/U -SN DRSN VV008 M12/ RMK SN8

CYWG;2011-02-23 19:00;CYWG 231900Z 33011KT 3/4SM R31/6000FT/D R36/4000VP6000FT/D -SN DRSN OVC020 M12/M13 A3002 RMK SN7SC1 SLP185

CYWG;2011-02-23 19:21;CYWG 231921Z 33008KT 3SM -SN DRSN FEW004 OVC020 RMK ST2SC6

CYWG;2011-02-23 20:00;CYWG 232000Z CCA 32009KT 3SM -SN DRSN OVC009 M11/M12 A3002 RMK ST8 SLP186

CYWG;2011-02-23 20:31;CYWG 232031Z 36011KT 12SM DRSN BKN012 M11/ RMK ST6

CYWG;2011-02-23 21:00;CYWG 232100Z 01011KT 15SM DRSN BKN014 M11/M13 A3003 RMK SC6 SLP189

CYWG;2011-02-23 21:32;CYWG 232132Z 34008KT 12SM -SN OVC014 M11/ RMK SC8

CYWG;2011-02-23 22:00;CYWG 232200Z 33010KT 15SM -SN SCT014 BKN250 M11/M13 A3005 RMK ST3CI2 SLP196

CYWG;2011-02-23 22:16;CYWG 232216Z 31015KT 15SM FEW014 BKN250 M12/ RMK ST2CI2

CYWG;2011-02-23 23:00;CYWG 232300Z 31012KT 15SM FEW016 BKN065 BKN250 M13/M15 A3007 RMK ST2SC3CI1 SLP204

CYWG;2011-02-24 00:00;CYWG 240000Z 31010KT 15SM FEW100 SCT250 M15/M17 A3009 RMK AC2CI2 SLP215

CYWG;2011-02-24 01:00;CYWG 240100Z 32014KT 15SM FEW100 SCT250 M15/M18 A3012 RMK AC2CI2 SLP223

CYWG;2011-02-24 02:00;CYWG 240200Z 32011KT 15SM FEW250 M17/M20 A3013 RMK CI1 SLP228

CYWG;2011-02-24 03:00;CYWG 240300Z 31010KT 15SM FEW250 M16/M20 A3016 RMK CI1 SLP239

CYWG;2011-02-24 04:00;CYWG 240400Z 30009KT 15SM FEW250 M20/M22 A3019 RMK CI1 SLP248

CYWG;2011-02-24 05:00;CYWG 240500Z 30009KT 15SM SKC M20/M23 A3020 RMK SLP252

CYWG;2011-02-24 06:00;CYWG 240600Z 28008KT 15SM SKC M21/M22 A3022 RMK SLP258

CYWG;2011-02-24 07:00;CYWG 240700Z 28010KT 15SM SKC M22/M23 A3023 RMK SLP261

CYWG;2011-02-24 08:00;CYWG 240800Z 30012KT 15SM SKC M21/M23 A3024 RMK SLP265

CYWG;2011-02-24 09:00;CYWG 240900Z 31012KT 15SM SKC M21/M23 A3025 RMK SLP270

CYWG;2011-02-24 10:00;CYWG 241000Z 31008KT 15SM SKC M23/M24 A3027 RMK SLP275

CYWG;2011-02-24 11:00;CYWG 241100Z 31010KT 15SM SKC M24/M25 A3029 RMK SLP281

CYWG;2011-02-24 12:00;CYWG 241200Z 31010KT 15SM SKC M24/M25 A3031 RMK SLP290

CYWG;2011-02-24 13:00;CYWG 241300Z 29010KT 15SM FEW100 M25/M31 A3032 RMK AC1 SLP295

CYWG;2011-02-24 14:00;CYWG 241400Z 28008KT 15SM SKC M26/M31 A3034 RMK SLP300

CYWG;2011-02-24 15:00;CYWG 241500Z 27008KT 15SM SKC M24/M29 A3036 RMK SLP308

CYWG;2011-02-24 16:00;CYWG 241600Z 28010KT 15SM SKC M22/M27 A3038 RMK SLP316

CYWG;2011-02-24 17:00;CYWG 241700Z 29010KT 15SM SKC M22/M27 A3038 RMK SLP316

CYWG;2011-02-24 18:00;CYWG 241800Z 30010KT 15SM SKC M20/M26 A3038 RMK SLP317

CYWG;2011-02-24 19:00;CYWG 241900Z 29012KT 15SM SKC M20/M25 A3037 RMK SLP314

CYWG;2011-02-24 20:00;CYWG 242000Z 29013KT 15SM SKC M20/M26 A3036 RMK SLP310

CYWG;2011-02-24 21:00;CYWG 242100Z 29012KT 15SM SKC M19/M26 A3035 RMK SLP305

CYWG;2011-02-24 22:00;CYWG 242200Z 29011KT 15SM SKC M19/M26 A3036 RMK SLP308

CYWG;2011-02-24 23:00;CYWG 242300Z 29011KT 15SM SKC M20/M26 A3035 RMK SLP307

CYWG;2011-02-25 00:00;CYWG 250000Z 31008KT 15SM SKC M22/M27 A3036 RMK SLP312

CYWG;2011-02-25 01:00;CYWG 250100Z 31007KT 15SM SKC M24/M29 A3038 RMK SLP318

CYWG;2011-02-25 02:00;CYWG 250200Z 32009KT 15SM SKC M25/M30 A3038 RMK SLP318

CYWG;2011-02-25 03:00;CYWG 250300Z 31006KT 15SM SKC M26/M31 A3038 RMK SLP319

CYWG;2011-02-25 04:00;CYWG 250400Z 30007KT 15SM SKC M29/M33 A3038 RMK SLP322

CYWG;2011-02-25 05:00;CYWG 250500Z 28007KT 15SM SKC M27/M31 A3040 RMK SLP326

CYWG;2011-02-25 06:00;CYWG 250600Z 28007KT 15SM SKC M27/M32 A3039 RMK SLP323

CYWG;2011-02-25 07:00;CYWG 250700Z 28007KT 15SM FEW120 M28/M33 A3038 RMK AC2 SLP320

CYWG;2011-02-25 08:00;CYWG 250800Z 28007KT 15SM FEW120 M30/M34 A3038 RMK AC2 SLP319

CYWG;2011-02-25 09:00;CYWG 250900Z 30008KT 15SM FEW120 M30/M34 A3037 RMK AC2 SLP317

CYWG;2011-02-25 10:00;CYWG 251000Z 28007KT 15SM FEW120 M30/M34 A3037 RMK AC2 SLP316

CYWG;2011-02-25 11:00;CYWG 251100Z 27006KT 15SM SKC M30/M34 A3038 RMK SLP318

CYWG;2011-02-25 12:00;CYWG 251200Z 28007KT 15SM SKC M30/M34 A3038 RMK SLP319

CYWG;2011-02-25 13:00;CYWG 251300Z 27004KT 15SM FEW230 M30/M34 A3037 RMK CI1 SLP318

CYWG;2011-02-25 14:00;CYWG 251400Z 26004KT 15SM FEW230 M30/M34 A3038 RMK CI1 SLP319

CYWG;2011-02-25 15:00;CYWG 251500Z 26004KT 15SM FEW230 M28/M33 A3038 RMK CI1 SLP320

CYWG;2011-02-25 16:00;CYWG 251600Z 28004KT 15SM SCT230 M27/M32 A3037 RMK CI1 SLP318

CYWG;2011-02-25 17:00;CYWG 251700Z 28005KT 15SM SCT230 M26/M31 A3037 RMK CI1 SLP317

CYWG;2011-02-25 18:00;CYWG 251800Z 30004KT 15SM SCT230 M24/M29 A3035 RMK CI1 SLP310

CYWG;2011-02-25 19:00;CYWG 251900Z 32004KT 15SM SCT230 M23/M29 A3033 RMK CI1 SLP303

CYWG;2011-02-25 20:00;CYWG 252000Z 32004KT 15SM BKN230 M21/M27 A3030 RMK CI2 SLP294

CYWG;2011-02-25 21:00;CYWG 252100Z 22007KT 15SM FEW010 SCT230 M20/M27 A3029 RMK ST1CI1 SLP289

CYWG;2011-02-25 22:00;CYWG 252200Z 21005KT 15SM SCT230 M20/M27 A3027 RMK CI2 SLP281

CYWG;2011-02-25 23:00;CYWG 252300Z 21008KT 15SM FEW230 M21/M27 A3025 RMK CI1 SLP274

CYWG;2011-02-26 00:00;CYWG 260000Z 20007KT 15SM FEW230 M22/M27 A3022 RMK CI1 SLP267

CYWG;2011-02-26 01:00;CYWG 260100Z 19006KT 15SM FEW230 M23/M28 A3022 RMK CI1 SLP265

CYWG;2011-02-26 02:00;CYWG 260200Z 19007KT 15SM SKC M23/M28 A3019 RMK SLP256

CYWG;2011-02-26 03:00;CYWG 260300Z 23008KT 15SM SKC M24/M29 A3017 RMK SLP250

CYWG;2011-02-26 04:00;CYWG 260400Z 22009KT 15SM SKC M24/M30 A3015 RMK SLP243

CYWG;2011-02-26 05:00;CYWG 260500Z 22008KT 15SM SKC M25/M30 A3013 RMK SLP237

CYWG;2011-02-26 06:00;CYWG 260600Z 22009KT 15SM SKC M25/M30 A3010 RMK SLP224

CYWG;2011-02-26 07:00;CYWG 260700Z 21009KT 15SM SKC M25/M30 A3008 RMK SLP216

CYWG;2011-02-26 08:00;CYWG 260800Z 22009KT 15SM SKC M25/M30 A3006 RMK SLP209

CYWG;2011-02-26 09:00;CYWG 260900Z 22009KT 15SM SKC M25/M30 A3003 RMK SLP199

CYWG;2011-02-26 10:00;CYWG 261000Z 22008KT 15SM SKC M26/M30 A3000 RMK SLP190

CYWG;2011-02-26 11:00;CYWG 261100Z 21008KT 15SM SKC M26/M31 A2999 RMK SLP185

CYWG;2011-02-26 12:00;CYWG 261200Z 20008KT 15SM SKC M27/M32 A2996 RMK SLP176

CYWG;2011-02-26 13:00;CYWG 261300Z 20012KT 15SM SKC M27/M32 A2994 RMK SLP168

CYWG;2011-02-26 14:00;CYWG 261400Z 20012KT 15SM SKC M27/M31 A2992 RMK SLP163

CYWG;2011-02-26 15:00;CYWG 261500Z 19011KT 15SM SKC M25/M30 A2990 RMK SLP155

CYWG;2011-02-26 16:00;CYWG 261600Z 19010KT 15SM FEW200 M23/M29 A2989 RMK CI1 SLP152

CYWG;2011-02-26 17:00;CYWG 261700Z 19013KT 15SM SKC M22/M28 A2986 RMK SLP143

CYWG;2011-02-26 18:00;CYWG 261800Z 19017KT 15SM SKC M21/M26 A2984 RMK SLP133

CYWG;2011-02-26 19:00;CYWG 261900Z 19015KT 15SM FEW200 M20/M26 A2981 RMK CI1 SLP124

CYWG;2011-02-26 20:00;CYWG 262000Z 18022KT 15SM FEW210 M19/M24 A2977 RMK CI1 SLP111

CYWG;2011-02-26 21:00;CYWG 262100Z 18022KT 15SM SCT210 M18/M22 A2973 RMK CI2 SLP096

CYWG;2011-02-26 22:00;CYWG 262200Z 19018KT 15SM SCT210 M17/M22 A2970 RMK CI2 SLP086

CYWG;2011-02-26 23:00;CYWG 262300Z 18021KT 15SM BKN210 M17/M22 A2967 RMK CI2 SLP077

CYWG;2011-02-27 00:00;CYWG 270000Z 17017KT 10SM BKN210 M18/M22 A2964 RMK CI3 SLP066

CYWG;2011-02-27 01:00;CYWG 270100Z 18022KT 15SM FEW120 OVC210 M18/M22 A2963 RMK AC2CI5 SLP060

CYWG;2011-02-27 02:00;CYWG 270200Z 18022G29KT 10SM SCT120 OVC210 M18/M21 A2959 RMK AC4CI4 SLP048

CYWG;2011-02-27 03:00;CYWG 270300Z 18020G26KT 15SM BKN120 OVC210 M18/M21 A2960 RMK AC6CI2 SLP049

CYWG;2011-02-27 04:00;CYWG 270400Z 18022KT 15SM FEW020 OVC120 M18/M21 A2957 RMK ST2AC6 SLP039

CYWG;2011-02-27 05:00;CYWG 270500Z 18022G28KT 12SM FEW007 OVC084 M18/M21 A2953 RMK ST2AC6 SLP027

CYWG;2011-02-27 05:34;CYWG 270534Z 18020KT 6SM -SN DRSN OVC006 M18/ RMK ST8

CYWG;2011-02-27 06:00;CYWG 270600Z 18021G29KT 6SM IC DRSN OVC005 M18/M21 A2950 RMK ST8 SLP013

CYWG;2011-02-27 06:14;CYWG 270614Z 18018G24KT 3SM IC DRSN OVC006 M18/ RMK IC3ST5

CYWG;2011-02-27 07:00;CYWG 270700Z 18018G25KT 3SM IC DRSN OVC006 M18/M21 A2948 RMK IC3ST5 SLP006

CYWG;2011-02-27 07:57;CYWG 270757Z 18022G27KT 2SM -SN DRSN OVC007 M18/ RMK SN4ST4

CYWG;2011-02-27 08:00;CYWG 270800Z 18023KT 2SM -SN DRSN OVC007 M17/M21 A2944 RMK SN4ST4 SLP995

CYWG;2011-02-27 08:16;CYWG 270816Z 18021G26KT 1SM R13/P6000FT/D R36/P6000FT/D -SN DRSN OVC006 M17/ RMK SN6ST2

CYWG;2011-02-27 09:00;CYWG 270900Z 17018G25KT 3SM -SN DRSN OVC006 M17/M20 A2942 RMK SN2ST6 SLP986

CYWG;2011-02-27 09:47;CYWG 270947Z 18017G22KT 1SM R13/P6000FT/D R36/P6000FT/D -SN DRSN OVC006 M18/ RMK SN6ST2

CYWG;2011-02-27 10:00;CYWG 271000Z 18016G22KT 1SM R13/P6000FT/U R36/P6000FT/U -SN DRSN OVC006 M17/M20 A2941 RMK SN6ST2 SLP982

CYWG;2011-02-27 10:36;CYWG 271036Z 17018KT 3/4SM R13/P6000FT/U R36/P6000FT/D -SN DRSN VV005 M17/ RMK SN8

CYWG;2011-02-27 11:00;CYWG 271100Z 17013KT 1SM R13/P6000FT/N R36/P6000FT/N -SN DRSN OVC007 M17/M20 A2940 RMK SN3ST5 SLP979

CYWG;2011-02-27 11:12;CYWG 271112Z 17012KT 2SM -SN DRSN OVC007 M17/ RMK SN3ST5

CYWG;2011-02-27 12:00;CYWG 271200Z 18012KT 1 3/4SM -SN DRSN OVC006 M17/M20 A2939 RMK SN3ST5 SLP976

CYWG;2011-02-27 12:14;CYWG 271214Z 18013KT 3SM -SN DRSN BKN009 OVC068 M17/ RMK SN2ST6AC1

CYWG;2011-02-27 13:00;CYWG 271300Z 18011KT 6SM -SN DRSN SCT009 BKN065 M17/M20 A2939 RMK ST3AC2 SLP977

CYWG;2011-02-27 13:40;CYWG 271340Z 19008KT 6SM IC DRSN FEW009 FEW065 M18/ RMK ST1AC1

CYWG;2011-02-27 14:00;CYWG 271400Z CCA 19006KT 10SM FEW007 M17/M20 A2941 RMK SF2 IC SLP984

CYWG;2011-02-27 15:00;CYWG 271500Z 22007KT 15SM FEW012 FEW041 M16/M19 A2944 RMK SF1SC1 IC SLP994

CYWG;2011-02-27 16:00;CYWG 271600Z 28011KT 15SM FEW024 M16/M18 A2947 RMK SC1 IC SLP003

CYWG;2011-02-27 17:00;CYWG 271700Z 29013KT 15SM FEW025 M15/M18 A2952 RMK SC1 IC SLP019

CYWG;2011-02-27 18:00;CYWG 271800Z 31013G18KT 15SM DRSN FEW025 M14/M17 A2957 RMK SC1 IC SLP035

CYWG;2011-02-27 19:00;CYWG 271900Z 30016KT 15SM DRSN FEW025 M14/M17 A2960 RMK SC1 IC SLP045

CYWG;2011-02-27 20:00;CYWG 272000Z 30014KT 15SM DRSN FEW025 M13/M17 A2962 RMK SC1 TR SC SLP054

CYWG;2011-02-27 21:00;CYWG 272100Z 30013KT 15SM SKC M12/M16 A2965 RMK SLP062

CYWG;2011-02-27 22:00;CYWG 272200Z 29010KT 15SM SKC M12/M16 A2969 RMK SLP076

CYWG;2011-02-27 23:00;CYWG 272300Z 25008KT 15SM SKC M12/M17 A2972 RMK SLP087

CYWG;2011-02-28 00:00;CYWG 280000Z 27006KT 15SM FEW150 M14/M18 A2974 RMK AC1 TR AC SLP094

CYWG;2011-02-28 01:00;CYWG 280100Z 25007KT 15SM FEW150 M14/M18 A2977 RMK AC1 SLP105

CYWG;2011-02-28 02:00;CYWG 280200Z 24006KT 15SM FEW200 M14/M18 A2980 RMK CI1 SLP112

CYWG;2011-02-28 03:00;CYWG 280300Z 24007KT 15SM OVC032 M12/M16 A2981 RMK SC8 SLP117

CYWG;2011-02-28 04:00;CYWG 280400Z 21007KT 15SM SCT032 SCT095 M12/M16 A2983 RMK SC3AC0 SLP123

CYWG;2011-02-28 05:00;CYWG 280500Z 22009KT 15SM SKC M13/M16 A2983 RMK SLP125

CYWG;2011-02-28 06:00;CYWG 280600Z 23006KT 15SM SKC M14/M16 A2985 RMK SLP131

CYWG;2011-02-28 07:00;CYWG 280700Z 26009KT 15SM SKC M14/M16 A2986 RMK SLP133

CYWG;2011-02-28 08:00;CYWG 280800Z 27010KT 15SM SKC M16/M19 A2988 RMK SLP141

CYWG;2011-02-28 09:00;CYWG 280900Z 27010KT 15SM SKC M18/M21 A2990 RMK SLP146

CYWG;2011-02-28 10:00;CYWG 281000Z 27010KT 15SM SKC M16/M20 A2991 RMK SLP152

CYWG;2011-02-28 11:00;CYWG 281100Z 31003KT 15SM SCT030 M19/M22 A2994 RMK SC2 SLP161

CYWG;2011-02-28 12:00;CYWG 281200Z 27004KT 15SM FEW030 SCT120 M19/M22 A2996 RMK SC2AC1 SLP171

CYWG;2011-02-28 13:00;CYWG 281300Z 29004KT 15SM FEW076 BKN230 M19/M22 A2997 RMK AC2CI1 SLP174

CYWG;2011-02-28 14:00;CYWG 281400Z 23003KT 15SM FEW080 SCT230 M18/M21 A2999 RMK AC1CI1 SLP180

CYWG;2011-02-28 15:00;CYWG 281500Z 00000KT 15SM FEW070 BKN230 M17/M21 A3000 RMK AC2CI1 SLP181

CYWG;2011-02-28 16:00;CYWG 281600Z 17004KT 15SM FEW080 SCT230 M14/M18 A2999 RMK AC1CI1 SLP178

CYWG;2011-02-28 17:00;CYWG 281700Z 17006KT 15SM SCT082 BKN230 M11/M15 A2998 RMK AC2CI1 SLP176

CYWG;2011-02-28 18:00;CYWG 281800Z 14009KT 15SM SCT079 BKN230 M09/M15 A2996 RMK AC2CI2 SLP167

CYWG;2011-02-28 19:00;CYWG 281900Z 15011KT 15SM SCT082 OVC230 M08/M12 A2993 RMK AC2CI3 SLP154

CYWG;2011-02-28 20:00;CYWG 282000Z 14012KT 15SM SCT072 OVC230 M06/M11 A2988 RMK AS4CS3 SLP139

CYWG;2011-02-28 21:00;CYWG 282100Z 17013KT 15SM BKN058 OVC230 M05/M10 A2986 RMK SC7CS1 SLP131

CYWG;2011-02-28 22:00;CYWG 282200Z 17020KT 15SM BKN041 OVC230 M05/M09 A2983 RMK SC7CS1 SLP123

CYWG;2011-02-28 23:00;CYWG 282300Z 17022KT 15SM DRSN FEW079 BKN230 M06/M09 A2981 RMK AC2CS2 SLP115

CYWG;2011-03-01 01:00;CYWG 010100Z 17022G28KT 15SM DRSN BKN083 M07/M09 A2977 RMK AC7 SLP101

CYWG;2011-03-01 02:00;CYWG 010200Z 17021G26KT 15SM DRSN OVC066 M08/M09 A2974 RMK AC8 SLP093

CYWG;2011-03-01 03:00;CYWG 010300Z 18019G25KT 15SM DRSN BKN046 M08/M09 A2973 RMK SC6 SLP089

CYWG;2011-03-01 04:00;CYWG 010400Z 19013G20KT 15SM DRSN SCT079 M08/M10 A2974 RMK AC3 SLP093

CYWG;2011-03-01 05:00;CYWG 010500Z 18012KT 15SM DRSN SCT220 M09/M10 A2975 RMK CI2 SLP096

CYWG;2011-03-01 06:00;CYWG 010600Z 20010KT 15SM DRSN BKN220 M09/M11 A2974 RMK CI2 SLP089

CYWG;2011-03-01 07:00;CYWG 010700Z 26007KT 15SM DRSN SCT007 BKN220 M11/M12 A2977 RMK ST3CI3 SLP099

CYWG;2011-03-01 07:45;CYWG 010745Z 29011KT 15SM DRSN OVC005 M14/ RMK ST8

CYWG;2011-03-01 08:00;CYWG 010800Z 29010KT 15SM DRSN OVC005 M14/M15 A2977 RMK ST8 SLP100

CYWG;2011-03-01 09:00;CYWG 010900Z 33017KT 4SM -SN DRSN OVC009 M14/M16 A2981 RMK ST8 SLP112

CYWG;2011-03-01 09:07;CYWG 010907Z 32019KT 3/4SM R13/P6000FT/D R36/P6000FT/D -SN DRSN VV009 M14/ RMK SN8

CYWG;2011-03-01 09:21;CYWG 010921Z 32017KT 3/4SM R13/P6000FT/U R36/P6000FT/D -SN DRSN VV006 M15/ RMK SN8

CYWG;2011-03-01 09:30;CYWG 010930Z 32018KT 1/2SM R13/P6000FT/D R36/P6000FT/D SN DRSN VV003 M15/ RMK SN8

CYWG;2011-03-01 10:00;CYWG 011000Z 32021G28KT 1/2SM R13/P6000FT/U R36/P6000FT/N SN DRSN VV003 M16/M17 A2986 RMK SN8 SLP129

CYWG;2011-03-01 10:40;CYWG 011040Z 33027G33KT 1/2SM R13/3500VP6000FT/D R36/P6000FT/D SN BLSN OVC008 M17/ RMK SN6ST2

CYWG;2011-03-01 11:00;CYWG 011100Z 34025KT 1SM R13/P6000FT/U R36/P6000FT/U -SN BLSN OVC049 M17/M19 A2990 RMK SN3SC5 SLP144

CYWG;2011-03-01 11:27;CYWG 011127Z 33025KT 1/2SM R13/P6000FT/D R36/P6000FT/D -SN BLSN VV005 M18/ RMK SN8

CYWG;2011-03-01 12:00;CYWG 011200Z 33024G30KT 3/4SM R13/P6000FT/D R36/P6000FT/U -SN BLSN OVC012 M18/M20 A2998 RMK SN6SC2 VIS NW 1/2 PRESRR SLP174

CYWG;2011-03-01 12:37;CYWG 011237Z 34026G31KT 5/8SM R13/P6000FT/D R36/P6000FT/D -SN BLSN OVC056 M19/ RMK BLSN6SC2 VIS NW 1/4 TO 1/2 PRESRR

CYWG;2011-03-01 12:47;CYWG 011247Z 34024G31KT 3/4SM R13/P6000FT/U R36/P6000FT/U BLSN BKN061 M19/ RMK BLSN2SC5 VIS NW 1/4 TO 1/2 PRESRR

CYWG;2011-03-01 13:00;CYWG 011300Z 33023G31KT 3/4SM R13/P6000FT/U R36/P6000FT/U BLSN SCT065 M20/M21 A3004 RMK BLSN2SC2 VIS NW 1/4 TO 1/2 PRESRR SLP194

CYWG;2011-03-01 13:13;CYWG 011313Z 34027KT 1 1/2SM BLSN FEW065 M21/ RMK BLSN2SC1 VIS NW OVR AIRFIELD 1/4 TO 1/2 VIS S 5 PRESRR

CYWG;2011-03-01 13:52;CYWG 011352Z 34028G33KT 5/8SM R13/3000V5000FT/D R36/3000VP6000FT/D BLSN FEW073 M21/ RMK BLSN2AC1 VIS NW 1/4 VIS S 1 PRESRR

CYWG;2011-03-01 14:00;CYWG 011400Z 34024G32KT 3/4SM R13/3000VP6000FT/U R36/3000V5500FT/U BLSN FEW073 M21/M23 A3009 RMK BLSN2AC1 VIS NW OVR AIRFIELD 1/2 VIS S 5 SLP211

CYWG;2011-03-01 14:07;CYWG 011407Z 33024G29KT 1 1/2SM BLSN FEW073 M21/ RMK BLSN1AC1 VIS NW 1 VIS S 10

CYWG;2011-03-01 14:20;CYWG 011420Z 33027G32KT 3/4SM R13/3000V5000FT/D R36/3000VP6000FT/D BLSN FEW073 M22/ RMK BLSN1AC1 VIS VRB 5/8 TO 11/2 VIS NW 1/4 TO 1/2 VIS S 2 TO 10

CYWG;2011-03-01 15:00;CYWG 011500Z 33023G30KT 2SM R31/3500FT/N BLSN FEW073 M22/M23 A3018 RMK BLSN1AC1 VIS NW 3/4-1 VIS NE 11/2 VIS S 10 PRESRR SLP244

CYWG;2011-03-01 15:38;CYWG 011538Z 33024KT 6SM BLSN FEW015 M22/ RMK SF1 VIS NW 11/2

CYWG;2011-03-01 16:00;CYWG 011600Z 33022G28KT 3SM R31/4000VP6000FT/U BLSN FEW015 M22/M25 A3023 RMK SC1 VIS NW 3/4-1 VIS S 15 SLP260

CYWG;2011-03-01 17:00;CYWG 011700Z 33020KT 10SM DRSN FEW015 M21/M28 A3026 RMK SC1 OCNL BLSN SLP269

CYWG;2011-03-01 18:00;CYWG 011800Z CCA 31019KT 10SM DRSN FEW015 M21/M27 A3032 RMK SF1 PRESRR ONCL BLSN SLP291

CYWG;2011-03-01 19:00;CYWG 011900Z 31021KT 2SM R31/4000VP6000FT/U BLSN BKN011 M21/M25 A3034 RMK BLSN1SF2 VIS NW 3/4 VIS S 5 SLP298

CYWG;2011-03-01 19:29;CYWG 011929Z 31024KT 3SM R31/2800VP6000FT/U BLSN FEW011 M21/ RMK BLSN1SF2 VIS N 1 R31 2800VP6000

CYWG;2011-03-01 20:00;CYWG 012000Z 31024KT 3SM R31/2600VP6000FT/N BLSN FEW013 M21/M26 A3036 RMK BLSN1SF1 VIS N 11/2 VIS S 6 R31 2600VP6000 SLP305

CYWG;2011-03-01 21:00;CYWG 012100Z 31023G28KT 8SM DRSN FEW013 M21/M26 A3038 RMK CF1 VIS N 4 CF TR SLP312

CYWG;2011-03-01 22:00;CYWG 012200Z 32022KT 15SM DRSN SKC M21/M26 A3040 RMK SLP320

CYWG;2011-03-01 23:00;CYWG 012300Z 31014KT 15SM DRSN SKC M21/M26 A3042 RMK SLP328

CYWG;2011-03-02 00:00;CYWG 020000Z 31010KT 15SM SKC M22/M27 A3044 RMK SLP337

CYWG;2011-03-02 01:00;CYWG 020100Z 31010KT 15SM SKC M23/M28 A3046 RMK SLP344

CYWG;2011-03-02 02:00;CYWG 020200Z 29006KT 15SM SKC M25/M30 A3048 RMK SLP349

CYWG;2011-03-02 03:00;CYWG 020300Z 30007KT 15SM SKC M26/M31 A3050 RMK SLP360

CYWG;2011-03-02 04:00;CYWG 020400Z 29006KT 15SM SKC M27/M32 A3052 RMK SLP366

CYWG;2011-03-02 05:00;CYWG 020500Z 28008KT 15SM SKC M27/M31 A3053 RMK SLP370

CYWG;2011-03-02 06:00;CYWG 020600Z 27007KT 15SM SKC M28/M33 A3054 RMK SLP376

CYWG;2011-03-02 07:00;CYWG 020700Z 26006KT 15SM SKC M27/M31 A3056 RMK SLP382

CYWG;2011-03-02 08:00;CYWG 020800Z 28008KT 15SM SKC M28/M33 A3058 RMK SLP388

CYWG;2011-03-02 09:00;CYWG 020900Z 27007KT 15SM SKC M28/M33 A3058 RMK SLP389

CYWG;2011-03-02 10:00;CYWG 021000Z 26008KT 15SM SKC M27/M32 A3059 RMK SLP392

CYWG;2011-03-02 11:00;CYWG 021100Z 27007KT 15SM SCT230 M28/M33 A3060 RMK CI1 SLP393

CYWG;2011-03-02 12:00;CYWG 021200Z 27007KT 15SM FEW230 M28/M33 A3061 RMK CI0 SLP396

CYWG;2011-03-02 13:00;CYWG 021300Z 27006KT 15SM FEW160 SCT230 M28/M33 A3060 RMK AC1CI2 SLP395

CYWG;2011-03-02 14:00;CYWG 021400Z 27007KT 15SM FEW160 FEW230 M27/M32 A3061 RMK AC1CI1 SLP397

CYWG;2011-03-02 15:00;CYWG 021500Z 26002KT 15SM FEW160 FEW230 M25/M31 A3061 RMK AC1CI1 SLP400

CYWG;2011-03-02 16:00;CYWG 021600Z 29003KT 15SM FEW160 FEW230 M24/M30 A3061 RMK AC1CI1 SLP399

CYWG;2011-03-02 17:00;CYWG 021700Z 36002KT 15SM BKN250 M23/M29 A3060 RMK CI1 SLP396

CYWG;2011-03-02 18:00;CYWG 021800Z 31003KT 15SM FEW160 SCT250 M21/M28 A3060 RMK AC1CI1 SLP393

CYWG;2011-03-02 19:00;CYWG 021900Z 19009KT 15SM FEW160 BKN250 M19/M27 A3058 RMK AC1CI1 SLP389

CYWG;2011-03-02 20:00;CYWG 022000Z 20010KT 15SM BKN250 M19/M26 A3057 RMK CI2 SLP385

CYWG;2011-03-02 21:00;CYWG 022100Z 18009KT 15SM BKN250 M18/M26 A3054 RMK CI2 SLP373

CYWG;2011-03-02 22:00;CYWG 022200Z 17011KT 15SM BKN250 M18/M25 A3052 RMK CI2 SLP367

CYWG;2011-03-02 23:00;CYWG 022300Z 18011KT 15SM BKN250 M18/M24 A3049 RMK CI2 SLP357

CYWG;2011-03-03 00:00;CYWG 030000Z 16007KT 15SM BKN250 M19/M24 A3045 RMK CI2 SLP341

CYWG;2011-03-03 01:00;CYWG 030100Z 16008KT 15SM FEW150 BKN250 M18/M23 A3043 RMK AC2CI2 SLP336

CYWG;2011-03-03 02:00;CYWG 030200Z 17008KT 15SM BKN150 OVC250 M18/M24 A3041 RMK AC5CI1 SLP330

CYWG;2011-03-03 03:00;CYWG 030300Z 17007KT 15SM OVC150 M18/M23 A3039 RMK AC8 SLP322

CYWG;2011-03-03 04:00;CYWG 030400Z 15009KT 15SM OVC086 M17/M23 A3037 RMK AC8 SLP314

CYWG;2011-03-03 05:00;CYWG 030500Z 14009KT 15SM OVC040 M17/M23 A3036 RMK SC8 SLP312

CYWG;2011-03-03 05:20;CYWG 030520Z 14009KT 15SM -SN OVC032 M17/ RMK SC8

CYWG;2011-03-03 06:00;CYWG 030600Z 15008KT 4SM -SN BKN021 OVC074 M17/M22 A3035 RMK SC6AC2 SLP306

CYWG;2011-03-03 06:13;CYWG 030613Z 14008KT 2SM -SN OVC014 M17/ RMK SC8

CYWG;2011-03-03 07:00;CYWG 030700Z 13008KT 1 1/2SM -SN OVC011 M17/M21 A3033 RMK SC8 SLP298

CYWG;2011-03-03 07:13;CYWG 030713Z 13009KT 1SM R13/P6000FT/D -SN VV005 M17/ RMK SN8

CYWG;2011-03-03 07:46;CYWG 030746Z 14010KT 2SM -SN OVC012 M17/ RMK SC8

CYWG;2011-03-03 08:00;CYWG 030800Z 13010KT 2 1/2SM -SN OVC019 M17/M20 A3029 RMK SC8 SLP286

CYWG;2011-03-03 08:40;CYWG 030840Z 13011KT 10SM -SN OVC022 M16/ RMK SC8

CYWG;2011-03-03 09:00;CYWG 030900Z 12007KT 12SM -SN OVC029 M16/M20 A3028 RMK SC8 SLP280

CYWG;2011-03-03 09:15;CYWG 030915Z 12008KT 15SM OVC039 M16/ RMK SC8

CYWG;2011-03-03 10:00;CYWG 031000Z 12009KT 15SM OVC041 M16/M19 A3024 RMK SC8 SLP266

CYWG;2011-03-03 11:00;CYWG 031100Z 13010KT 15SM OVC044 M16/M19 A3022 RMK SC8 SLP258

CYWG;2011-03-03 12:00;CYWG 031200Z 12009KT 15SM OVC042 M15/M18 A3019 RMK SC8 SLP250

CYWG;2011-03-03 13:00;CYWG 031300Z 13009KT 15SM OVC049 M15/M19 A3017 RMK SC8 SLP242

CYWG;2011-03-03 14:00;CYWG 031400Z 12007KT 15SM OVC052 M15/M19 A3016 RMK SC8 SLP240

CYWG;2011-03-03 15:00;CYWG 031500Z 14007KT 15SM OVC046 M14/M18 A3015 RMK SC8 SLP234

CYWG;2011-03-03 16:00;CYWG 031600Z 14008KT 15SM OVC044 M13/M19 A3013 RMK SC8 SLP226

CYWG;2011-03-03 17:00;CYWG 031700Z 16007KT 15SM OVC042 M12/M18 A3013 RMK SC8 SLP226

CYWG;2011-03-03 18:00;CYWG 031800Z 16004KT 15SM OVC040 M11/M17 A3012 RMK SC8 SLP222

CYWG;2011-03-03 18:30;CYWG 031830Z 14005KT 15SM -SN OVC040 M11/ RMK SC8

CYWG;2011-03-03 19:00;CYWG 031900Z 18002KT 15SM -SN OVC034 M11/M17 A3010 RMK SC8 SLP215

CYWG;2011-03-03 20:00;CYWG 032000Z 15002KT 15SM -SN BKN034 OVC069 M11/M16 A3008 RMK SC6AC2 SLP210

CYWG;2011-03-03 21:00;CYWG 032100Z 17004KT 15SM -SN BKN032 OVC070 M11/M15 A3007 RMK SC6AC2 SLP205

CYWG;2011-03-03 22:00;CYWG 032200Z 19003KT 15SM -SN OVC030 M10/M15 A3007 RMK SC8 SLP206

CYWG;2011-03-03 23:00;CYWG 032300Z 00000KT 12SM -SN OVC028 M10/M15 A3008 RMK SC8 SLP209

CYWG;2011-03-04 00:00;CYWG 040000Z 34006KT 5SM -SN OVC028 M11/M11 A3009 RMK SC8 SLP213

CYWG;2011-03-04 01:00;CYWG 040100Z 35005KT 5SM -SN OVC034 M12/M13 A3010 RMK SC8 SLP216

CYWG;2011-03-04 02:00;CYWG 040200Z 35004KT 6SM -SN OVC032 M12/M13 A3012 RMK SC8 SLP221

CYWG;2011-03-04 03:00;CYWG 040300Z 01005KT 10SM -SN OVC030 M12/M14 A3012 RMK SC8 /S01/ SLP223

CYWG;2011-03-04 04:00;CYWG 040400Z 35006KT 10SM -SN OVC030 M12/M14 A3014 RMK SC8 SLP229

CYWG;2011-03-04 04:40;CYWG 040440Z 33004KT 3SM -SN OVC024 M13/ RMK SC8

CYWG;2011-03-04 05:00;CYWG 040500Z 33004KT 6SM -SN OVC024 M13/M14 A3015 RMK SC8 SLP230

CYWG;2011-03-04 06:00;CYWG 040600Z 31008KT 4SM -SN SCT020 OVC030 M13/M14 A3016 RMK ST3SC5 SLP234

CYWG;2011-03-04 07:00;CYWG 040700Z 31009KT 3SM -SN OVC018 M13/M14 A3017 RMK ST8 SLP237

CYWG;2011-03-04 08:00;CYWG 040800Z 31010KT 6SM -SN OVC021 M13/M14 A3018 RMK SC8 SLP242

CYWG;2011-03-04 09:00;CYWG 040900Z 32009KT 12SM -SN OVC023 M13/M15 A3020 RMK SC8 SLP248

CYWG;2011-03-04 10:00;CYWG 041000Z 32011KT 12SM -SN OVC026 M13/M15 A3021 RMK SC8 SLP250

CYWG;2011-03-04 11:00;CYWG 041100Z 32012KT 12SM -SN OVC032 M13/M15 A3024 RMK SC8 SLP262

CYWG;2011-03-04 12:00;CYWG 041200Z 32015KT 12SM -SN OVC042 M13/M15 A3026 RMK SC8 SLP270

CYWG;2011-03-04 13:00;CYWG 041300Z 32015KT 15SM -SN OVC046 M13/M15 A3029 RMK SC8 SLP280

CYWG;2011-03-04 13:18;CYWG 041318Z 33015KT 15SM FEW015 OVC046 M13/ RMK SF1SC8 TR SF

CYWG;2011-03-04 14:00;CYWG 041400Z 32014KT 15SM FEW015 BKN044 M14/M16 A3033 RMK SF1SC7 TR SF SLP291

CYWG;2011-03-04 15:00;CYWG 041500Z 33013KT 15SM FEW015 BKN046 M14/M16 A3035 RMK SF1SC6 SLP301

CYWG;2011-03-04 16:00;CYWG 041600Z 33016KT 15SM FEW015 BKN034 M14/M16 A3038 RMK SF1SC2 SLP308

CYWG;2011-03-04 17:00;CYWG 041700Z 33013KT 15SM FEW041 SCT280 M14/M16 A3039 RMK SF1CI1 SLP314

CYWG;2011-03-04 18:00;CYWG 041800Z 33011KT 15SM SCT280 M13/M16 A3041 RMK CI1 SLP320

CYWG;2011-03-04 19:00;CYWG 041900Z 32010KT 15SM FEW020 BKN280 M13/M16 A3042 RMK SC1CI1 TR SC SLP324

CYWG;2011-03-04 20:00;CYWG 042000Z 31010KT 15SM FEW020 FEW280 M12/M16 A3042 RMK SC1CI1 TR SC SLP324

CYWG;2011-03-04 21:00;CYWG 042100Z 30013KT 15SM FEW020 FEW280 M13/M15 A3043 RMK SC1CI1 TR SC SLP326

CYWG;2011-03-04 22:00;CYWG 042200Z 30011KT 15SM FEW020 FEW280 M13/M15 A3045 RMK SC1CI1 TR SC SLP333

CYWG;2011-03-04 23:00;CYWG 042300Z 31008KT 15SM FEW280 M13/M16 A3046 RMK CI0 SLP338

CYWG;2011-03-05 00:00;CYWG 050000Z 30009KT 15SM FEW260 M15/M17 A3048 RMK CI1 SLP347

CYWG;2011-03-05 01:00;CYWG 050100Z 31009KT 15SM FEW250 M17/M19 A3050 RMK CI1 SLP353

CYWG;2011-03-05 02:00;CYWG 050200Z 33009KT 15SM BKN095 BKN250 M15/M17 A3051 RMK AC5CI0 SLP354

CYWG;2011-03-05 03:00;CYWG 050300Z 34009KT 15SM SCT061 BKN250 M14/M17 A3051 RMK SC3CI1 SLP357

CYWG;2011-03-05 04:00;CYWG 050400Z 34007KT 15SM BKN052 M14/M16 A3053 RMK SC7 SLP363

CYWG;2011-03-05 05:00;CYWG 050500Z 34007KT 15SM SCT089 M16/M18 A3055 RMK AC3 SLP368

CYWG;2011-03-05 06:00;CYWG 050600Z 34006KT 15SM BKN073 M18/M20 A3055 RMK AC6 SLP371

CYWG;2011-03-05 07:00;CYWG 050700Z 36005KT 15SM BKN067 M17/M19 A3055 RMK AC6 SLP370

CYWG;2011-03-05 08:00;CYWG 050800Z 33003KT 15SM BKN055 M16/M19 A3055 RMK SC6 OBS TAKEN +4 SLP371

CYWG;2011-03-05 09:00;CYWG 050900Z 32006KT 15SM BKN060 M16/M18 A3054 RMK SC7 SLP365

CYWG;2011-03-05 10:00;CYWG 051000Z 34005KT 15SM BKN070 M18/M20 A3054 RMK AC7 SLP366

CYWG;2011-03-05 11:00;CYWG 051100Z 33004KT 15SM BKN079 M18/M20 A3054 RMK AC7 SLP365

CYWG;2011-03-05 12:00;CYWG 051200Z 33004KT 15SM BKN067 M17/M19 A3055 RMK AC7 SLP371

CYWG;2011-03-05 13:00;CYWG 051300Z 33004KT 15SM OVC062 M17/M19 A3056 RMK SC7 SLP374

CYWG;2011-03-05 14:00;CYWG 051400Z 36005KT 15SM OVC060 M17/M20 A3056 RMK SC8 SLP375

CYWG;2011-03-05 15:00;CYWG 051500Z 01005KT 15SM OVC060 M16/M19 A3057 RMK SC8 SLP375

CYWG;2011-03-05 16:00;CYWG 051600Z 02003KT 15SM OVC060 M15/M19 A3057 RMK SC8 SLP375

CYWG;2011-03-05 17:00;CYWG 051700Z 04005KT 15SM OVC060 M15/M19 A3056 RMK SC8 SLP373

CYWG;2011-03-05 18:00;CYWG 051800Z 02007KT 15SM OVC060 M14/M22 A3056 RMK SC8 SLP373

CYWG;2011-03-05 19:00;CYWG 051900Z 03006KT 15SM OVC060 M14/M20 A3054 RMK SC8 SLP367

CYWG;2011-03-05 20:00;CYWG 052000Z 02006KT 15SM OVC058 M14/M19 A3052 RMK SC8 SLP361

CYWG;2011-03-05 21:00;CYWG 052100Z 01006KT 15SM OVC058 M13/M18 A3051 RMK SC8 SLP355

CYWG;2011-03-05 22:00;CYWG 052200Z 02005KT 15SM OVC056 M13/M19 A3050 RMK SC8 SLP352

CYWG;2011-03-05 23:00;CYWG 052300Z 04004KT 15SM OVC056 M13/M19 A3048 RMK SC8 SLP346

CYWG;2011-03-06 00:00;CYWG 060000Z 04004KT 15SM OVC056 M13/M19 A3047 RMK SC8 SLP342

CYWG;2011-03-06 01:00;CYWG 060100Z 04004KT 15SM OVC054 M14/M19 A3047 RMK SC8 SLP343

CYWG;2011-03-06 02:00;CYWG 060200Z 04005KT 15SM OVC052 M14/M18 A3046 RMK SC8 SLP340

CYWG;2011-03-06 03:00;CYWG 060300Z 04005KT 15SM OVC052 M14/M20 A3046 RMK SC8 SLP338

CYWG;2011-03-06 04:00;CYWG 060400Z 03003KT 15SM OVC052 M14/M19 A3046 RMK SC8 SLP338

CYWG;2011-03-06 05:00;CYWG 060500Z 05007KT 15SM OVC052 M14/M20 A3045 RMK SC8 SLP337

CYWG;2011-03-06 06:00;CYWG 060600Z 06007KT 15SM OVC052 M14/M21 A3045 RMK SC8 SLP335

CYWG;2011-03-06 07:00;CYWG 060700Z 05005KT 15SM OVC042 M15/M19 A3044 RMK SC8 SLP332

CYWG;2011-03-06 07:37;CYWG 060737Z 04007KT 12SM -SN OVC046 M15/ RMK SC8

CYWG;2011-03-06 08:00;CYWG 060800Z 04007KT 6SM -SN OVC026 M15/M19 A3044 RMK SC8 SLP332

CYWG;2011-03-06 09:00;CYWG 060900Z 03005KT 12SM -SN OVC022 M17/M20 A3043 RMK SC8 SLP330

CYWG;2011-03-06 10:00;CYWG 061000Z 03006KT 15SM -SN OVC041 M18/M21 A3042 RMK SC8 SLP326

CYWG;2011-03-06 11:00;CYWG 061100Z 04009KT 15SM -SN OVC031 M17/M21 A3042 RMK SC8 SLP325

CYWG;2011-03-06 12:00;CYWG 061200Z 04007KT 15SM OVC027 M18/M22 A3042 RMK SC8 SLP326

CYWG;2011-03-06 13:00;CYWG 061300Z 03007KT 10SM -SN BKN021 OVC089 M18/M22 A3043 RMK SC5AC2 SLP328

CYWG;2011-03-06 14:00;CYWG 061400Z 03007KT 15SM -SN SCT018 BKN090 OVC230 M19/M23 A3043 RMK SC4AC2CI1 SLP330

CYWG;2011-03-06 15:00;CYWG 061500Z 03008KT 15SM SCT028 BKN090 OVC230 M19/M24 A3044 RMK SC3AC2CI2 SLP332

CYWG;2011-03-06 15:13;CYWG 061513Z 03008KT 10SM -SN BKN028 BKN090 OVC230 M19/ RMK SC5AC1CI1

CYWG;2011-03-06 16:00;CYWG 061600Z 03009KT 6SM -SN BKN016 OVC090 M18/M22 A3043 RMK SC5AC2 SLP330

CYWG;2011-03-06 17:00;CYWG 061700Z 03010KT 8SM -SN SCT017 BKN100 OVC230 M17/M21 A3043 RMK SC3AC2CI2 SLP330

CYWG;2011-03-06 18:00;CYWG 061800Z 03011KT 10SM -SN SCT030 OVC100 M16/M19 A3043 RMK SC3AC5 SLP328

CYWG;2011-03-06 19:00;CYWG 061900Z 03012KT 10SM -SN FEW025 SCT046 OVC100 M15/M18 A3042 RMK SC2SC2AC5 SLP327

CYWG;2011-03-06 20:00;CYWG 062000Z 03014KT 12SM -SN FEW046 OVC100 M14/M18 A3041 RMK SC2AC4 SLP323

CYWG;2011-03-06 20:48;CYWG 062048Z 03017KT 15SM FEW049 BKN100 M15/ RMK SC2AC3

CYWG;2011-03-06 21:00;CYWG 062100Z 03016KT 15SM FEW049 SCT100 BKN250 M14/M19 A3041 RMK SC2AC2CI1 SLP321

CYWG;2011-03-06 22:00;CYWG 062200Z 01016KT 15SM FEW100 FEW250 M15/M19 A3041 RMK AC2CI0 SLP321

CYWG;2011-03-06 23:00;CYWG 062300Z 02014KT 15SM DRSN FEW100 M15/M20 A3041 RMK AC2 SLP321

CYWG;2011-03-07 00:00;CYWG 070000Z 02012KT 15SM DRSN FEW065 FEW100 M15/M21 A3041 RMK SC2AC1 SLP325

CYWG;2011-03-07 01:00;CYWG 070100Z 01008KT 15SM DRSN SKC M18/M23 A3042 RMK SLP328

CYWG;2011-03-07 02:00;CYWG 070200Z 36009KT 15SM SKC M18/M24 A3042 RMK SLP328

CYWG;2011-03-07 03:00;CYWG 070300Z 36008KT 15SM SKC M19/M25 A3043 RMK SLP332

CYWG;2011-03-07 04:00;CYWG 070400Z 01008KT 15SM SKC M19/M26 A3045 RMK SLP337

CYWG;2011-03-07 05:00;CYWG 070500Z 02009KT 15SM SKC M21/M27 A3045 RMK SLP338

CYWG;2011-03-07 06:00;CYWG 070600Z 02009KT 15SM SKC M22/M28 A3045 RMK SLP340

CYWG;2011-03-07 07:00;CYWG 070700Z 02009KT 15SM SKC M23/M29 A3046 RMK SLP341

CYWG;2011-03-07 08:00;CYWG 070800Z 02006KT 15SM SKC M24/M29 A3046 RMK SLP342

CYWG;2011-03-07 09:00;CYWG 070900Z 04002KT 15SM SKC M25/M30 A3046 RMK SLP343

CYWG;2011-03-07 10:00;CYWG 071000Z 04004KT 15SM SKC M25/M30 A3046 RMK SLP343

CYWG;2011-03-07 11:00;CYWG 071100Z 06002KT 15SM SKC M26/M31 A3046 RMK SLP342

CYWG;2011-03-07 12:00;CYWG 071200Z 03003KT 15SM SKC M26/M31 A3046 RMK SLP343

CYWG;2011-03-07 13:00;CYWG 071300Z 03004KT 15SM SKC M27/M31 A3045 RMK SLP342

CYWG;2011-03-07 14:00;CYWG 071400Z 04005KT 15SM SKC M26/M31 A3046 RMK SLP344

CYWG;2011-03-07 15:00;CYWG 071500Z 03006KT 15SM SKC M25/M30 A3045 RMK SLP342

CYWG;2011-03-07 16:00;CYWG 071600Z 01004KT 15SM SKC M23/M27 A3045 RMK SLP342

CYWG;2011-03-07 17:00;CYWG 071700Z 36004KT 15SM SKC M21/M26 A3045 RMK SLP340

CYWG;2011-03-07 18:00;CYWG 071800Z 36005KT 15SM SKC M18/M24 A3044 RMK SLP336

CYWG;2011-03-07 19:00;CYWG 071900Z 01007KT 15SM SKC M16/M23 A3042 RMK SLP331

CYWG;2011-03-07 20:00;CYWG 072000Z 01006KT 15SM SKC M15/M23 A3040 RMK SLP323

CYWG;2011-03-07 21:00;CYWG 072100Z 02008KT 15SM SKC M15/M24 A3038 RMK SLP316

CYWG;2011-03-07 22:00;CYWG 072200Z 35006KT 15SM FEW250 M15/M23 A3038 RMK CI0 SLP314

CYWG;2011-03-07 23:00;CYWG 072300Z 35004KT 15SM FEW250 M16/M23 A3037 RMK CI0 SLP311

CYWG;2011-03-08 00:00;CYWG 080000Z 32006KT 15SM FEW250 M18/M24 A3037 RMK CI0 SLP313

CYWG;2011-03-08 01:00;CYWG 080100Z 33006KT 15SM FEW250 M21/M26 A3036 RMK CI0 SLP311

CYWG;2011-03-08 02:00;CYWG 080200Z 35004KT 15SM SKC M22/M27 A3035 RMK SLP308

CYWG;2011-03-08 03:00;CYWG 080300Z 03005KT 15SM SKC M23/M28 A3035 RMK SLP309

CYWG;2011-03-08 04:00;CYWG 080400Z 04005KT 15SM SKC M23/M28 A3036 RMK SLP311

CYWG;2011-03-08 05:00;CYWG 080500Z 03003KT 15SM SKC M23/M28 A3035 RMK SLP310

CYWG;2011-03-08 06:00;CYWG 080600Z 00000KT 15SM SKC M22/M27 A3036 RMK SLP310

CYWG;2011-03-08 07:00;CYWG 080700Z 32003KT 15SM SKC M24/M29 A3037 RMK SLP311

CYWG;2011-03-08 08:00;CYWG 080800Z 00000KT 15SM SKC M25/M29 A3036 RMK SLP308

CYWG;2011-03-08 09:00;CYWG 080900Z 32003KT 15SM SKC M24/M28 A3034 RMK SLP302

CYWG;2011-03-08 10:00;CYWG 081000Z 03003KT 15SM SKC M25/M30 A3034 RMK SLP300

CYWG;2011-03-08 11:00;CYWG 081100Z 03003KT 15SM SKC M25/M29 A3033 RMK SLP298

CYWG;2011-03-08 12:00;CYWG 081200Z 05004KT 15SM FEW230 M25/M29 A3033 RMK CI1 SLP301

CYWG;2011-03-08 13:00;CYWG 081300Z 05003KT 15SM SCT230 M25/M29 A3034 RMK CI1 SLP302

CYWG;2011-03-08 14:00;CYWG 081400Z 00000KT 15SM SCT230 M23/M26 A3035 RMK CI1 SLP306

CYWG;2011-03-08 15:00;CYWG 081500Z 00000KT 15SM FEW093 BKN230 M23/M27 A3035 RMK AC2CI1 SLP309

CYWG;2011-03-08 16:00;CYWG 081600Z 07002KT 15SM FEW095 BKN230 M19/M23 A3035 RMK AC1CI1 SLP307

CYWG;2011-03-08 17:00;CYWG 081700Z 31002KT 15SM FEW230 M16/M20 A3034 RMK CI1 SLP304

CYWG;2011-03-08 18:00;CYWG 081800Z 31004KT 15SM BKN230 M14/M20 A3033 RMK CI2 SLP297

CYWG;2011-03-08 19:00;CYWG 081900Z 31004KT 15SM FEW100 OVC230 M13/M19 A3032 RMK AC1CI2 SLP294

CYWG;2011-03-08 20:00;CYWG 082000Z 33005KT 15SM FEW068 BKN093 OVC230 M12/M17 A3032 RMK AC2AC2CI0 SLP292

CYWG;2011-03-08 21:00;CYWG 082100Z 34004KT 15SM SCT065 OVC230 M11/M17 A3030 RMK SC3CI1 SLP287

CYWG;2011-03-08 22:00;CYWG 082200Z 33004KT 15SM BKN060 OVC230 M11/M17 A3029 RMK SC3CI1 SLP284

CYWG;2011-03-08 23:00;CYWG 082300Z 33003KT 15SM BKN055 OVC230 M10/M16 A3029 RMK SC3CI1 SLP282

CYWG;2011-03-09 00:00;CYWG 090000Z 34002KT 15SM BKN044 OVC090 M11/M14 A3027 RMK SC6AC2 SLP277

CYWG;2011-03-09 01:00;CYWG 090100Z 34002KT 15SM BKN033 OVC095 M11/M15 A3027 RMK SC6AC2 SLP275

CYWG;2011-03-09 01:48;CYWG 090148Z 36003KT 15SM -SN OVC024 M11/ RMK SC8

CYWG;2011-03-09 02:00;CYWG 090200Z 01003KT 15SM -SN OVC024 M11/M15 A3026 RMK SC8 SLP274

CYWG;2011-03-09 03:00;CYWG 090300Z 04003KT 10SM -SN OVC020 M11/M13 A3026 RMK SC8 SLP272

CYWG;2011-03-09 04:00;CYWG 090400Z 07003KT 10SM -SN OVC020 M11/M13 A3026 RMK SC8 SLP273

CYWG;2011-03-09 05:00;CYWG 090500Z 07004KT 10SM -SN OVC024 M11/M12 A3025 RMK SC8 SLP270

CYWG;2011-03-09 06:00;CYWG 090600Z 09005KT 8SM -SN OVC018 M10/M11 A3025 RMK SC8 SLP263

CYWG;2011-03-09 07:00;CYWG 090700Z 10003KT 8SM -SN OVC020 M10/M11 A3024 RMK SC8 SLP260

CYWG;2011-03-09 08:00;CYWG 090800Z 07004KT 8SM -SN OVC020 M10/M11 A3024 RMK SC8 SLP261

CYWG;2011-03-09 09:00;CYWG 090900Z 07003KT 8SM -SN OVC017 M10/M11 A3023 RMK SC8 SLP256

CYWG;2011-03-09 10:00;CYWG 091000Z 03004KT 10SM -SN OVC022 M12/M13 A3021 RMK SC8 SLP251

CYWG;2011-03-09 11:00;CYWG 091100Z 02006KT 12SM -SN OVC022 M14/M15 A3022 RMK SC8 SLP252

CYWG;2011-03-09 11:47;CYWG 091147Z 03006KT 15SM FEW022 BKN045 M15/ RMK SC2SC2

CYWG;2011-03-09 12:00;CYWG 091200Z 03004KT 15SM FEW022 BKN040 BKN100 M16/M16 A3022 RMK SC1SC4AC1 SLP255

CYWG;2011-03-09 13:00;CYWG 091300Z 04005KT 15SM FEW026 SCT068 BKN110 M15/M15 A3022 RMK SC2AC2AC2 SLP254

CYWG;2011-03-09 13:21;CYWG 091321Z 04005KT 12SM -SN FEW026 BKN042 BKN120 RMK SC1SC3AC2

CYWG;2011-03-09 14:00;CYWG 091400Z 03005KT 4SM -SN BKN016 OVC091 M14/M14 A3022 RMK SC5AC2 SLP255

CYWG;2011-03-09 15:00;CYWG 091500Z 02004KT 6SM -SN BKN019 M13/M13 A3023 RMK SC3 SLP257

CYWG;2011-03-09 16:00;CYWG 091600Z 03006KT 12SM -SN SCT021 BKN074 M12/M13 A3023 RMK SC2AC3 SLP257

CYWG;2011-03-09 17:00;CYWG 091700Z 36004KT 15SM FEW020 FEW035 SCT100 M10/M12 A3023 RMK SC1SC2AC1 SLP257

CYWG;2011-03-09 18:00;CYWG 091800Z 34003KT 15SM FEW010 BKN056 M09/M11 A3022 RMK SC1SC6 SLP252

CYWG;2011-03-09 19:00;CYWG 091900Z 32004KT 15SM -SN FEW010 OVC055 M08/M09 A3022 RMK SC1SC7 SLP252

CYWG;2011-03-09 20:00;CYWG 092000Z 32005KT 15SM -SN FEW010 OVC055 M07/M09 A3021 RMK SC1SC6 SLP248

CYWG;2011-03-09 21:00;CYWG 092100Z 31005KT 15SM -SN OVC053 M06/M08 A3020 RMK SC7 SLP246

CYWG;2011-03-09 22:00;CYWG 092200Z 30006KT 15SM -SN OVC053 M06/M08 A3020 RMK SC7 OBS TAKEN +01 SLP246

CYWG;2011-03-09 23:00;CYWG 092300Z 28005KT 15SM OVC051 M06/M08 A3021 RMK SC7 SLP248

CYWG;2011-03-10 00:00;CYWG 100000Z 29005KT 15SM -SN OVC049 M07/M08 A3021 RMK SC7 SLP250

CYWG;2011-03-10 01:00;CYWG 100100Z 00000KT 15SM -SN OVC047 M07/M08 A3021 RMK SC7 SLP250

CYWG;2011-03-10 02:00;CYWG 100200Z 26003KT 15SM -SN OVC045 M07/M09 A3020 RMK SC8 SLP249

CYWG;2011-03-10 03:00;CYWG 100300Z 00000KT 15SM OVC043 M07/M09 A3020 RMK SC8 SLP246

CYWG;2011-03-10 04:00;CYWG 100400Z 22003KT 15SM OVC041 M10/M11 A3020 RMK SC8 SLP245

CYWG;2011-03-10 05:00;CYWG 100500Z 23004KT 15SM SCT040 M10/M11 A3020 RMK SC4 SLP247

CYWG;2011-03-10 06:00;CYWG 100600Z 20003KT 15SM FEW040 M11/M11 A3020 RMK SC1 SLP245

CYWG;2011-03-10 07:00;CYWG 100700Z 21004KT 15SM SKC M11/M12 A3020 RMK SLP245

CYWG;2011-03-10 08:00;CYWG 100800Z 22003KT 15SM SKC M12/M13 A3021 RMK SLP248

CYWG;2011-03-10 09:00;CYWG 100900Z 18003KT 15SM SKC M14/M15 A3021 RMK SLP249

CYWG;2011-03-10 10:00;CYWG 101000Z 22004KT 15SM SKC M17/M18 A3020 RMK SLP248

CYWG;2011-03-10 11:00;CYWG 101100Z 18003KT 15SM SKC M17/M17 A3020 RMK SLP247

CYWG;2011-03-10 12:00;CYWG 101200Z 15005KT 15SM FEW250 M19/M19 A3018 RMK CI0 SLP242

CYWG;2011-03-10 13:00;CYWG 101300Z 17007KT 10SM FEW100 BKN250 M17/M18 A3019 RMK AC2CI2 BR SLP243

CYWG;2011-03-10 14:00;CYWG 101400Z 16007KT 12SM FEW100 BKN250 M16/M17 A3018 RMK AC2CI1 BR SLP240

CYWG;2011-03-10 15:00;CYWG 101500Z 17008KT 10SM FEW100 BKN250 M14/M15 A3017 RMK AC2CI2 BR SLP237

CYWG;2011-03-10 16:00;CYWG 101600Z 18012KT 15SM SCT120 BKN250 M11/M12 A3016 RMK AC3CI2 SLP233

CYWG;2011-03-10 17:00;CYWG 101700Z 17016KT 15SM SCT094 BKN250 M10/M11 A3015 RMK AC2CI0 SLP229

CYWG;2011-03-10 18:00;CYWG 101800Z 17016KT 15SM SCT088 M08/M10 A3012 RMK AC2 SLP220

CYWG;2011-03-10 19:00;CYWG 101900Z 17022KT 15SM SCT077 M08/M10 A3010 RMK AC3 SLP211

CYWG;2011-03-10 20:00;CYWG 102000Z 17021G26KT 15SM DRSN FEW073 FEW250 M06/M09 A3006 RMK AC2CI0 SLP197

CYWG;2011-03-10 21:00;CYWG 102100Z 17021G26KT 15SM DRSN FEW250 M05/M09 A3003 RMK CI1 SLP190

CYWG;2011-03-10 22:00;CYWG 102200Z 17017G22KT 15SM FEW250 M04/M08 A3001 RMK CI0 SLP183

CYWG;2011-03-10 23:00;CYWG 102300Z 18013KT 15SM FEW250 M04/M08 A3000 RMK CI0 SLP179

CYWG;2011-03-11 00:00;CYWG 110000Z 15015KT 15SM FEW120 SCT250 M04/M08 A2997 RMK AC2CI0 SLP169

CYWG;2011-03-11 01:00;CYWG 110100Z 17010KT 15SM FEW120 SCT250 M05/M08 A2997 RMK AC1CI1 SLP168

CYWG;2011-03-11 02:00;CYWG 110200Z 17016KT 15SM FEW120 M06/M09 A2993 RMK AC2 SLP156

CYWG;2011-03-11 03:00;CYWG 110300Z 16018KT 15SM FEW120 M06/M09 A2990 RMK AC2 SLP144

CYWG;2011-03-11 04:00;CYWG 110400Z 17021KT 15SM SCT120 M05/M08 A2987 RMK AC3 SLP134

CYWG;2011-03-11 05:00;CYWG 110500Z 18021G27KT 15SM BKN100 M05/M07 A2985 RMK AC6 SLP128

CYWG;2011-03-11 06:00;CYWG 110600Z 18025G32KT 15SM OVC100 M05/M07 A2983 RMK AC8 SLP116

CYWG;2011-03-11 07:00;CYWG 110700Z 18025G31KT 15SM OVC100 M05/M07 A2979 RMK AC8 SLP104

CYWG;2011-03-11 08:00;CYWG 110800Z 18028KT 15SM DRSN OVC065 M04/M06 A2977 RMK SC8 SLP097

CYWG;2011-03-11 09:00;CYWG 110900Z 18024G30KT 15SM DRSN BKN040 OVC080 M03/M05 A2972 RMK SC6AC2 SLP079

CYWG;2011-03-11 10:00;CYWG 111000Z 17020G28KT 15SM BKN043 OVC080 M03/M05 A2968 RMK SC5AC3 SLP066

CYWG;2011-03-11 11:00;CYWG 111100Z 16020KT 15SM BKN042 OVC080 M01/M04 A2964 RMK SC6AC2 SLP050

CYWG;2011-03-11 12:00;CYWG 111200Z 17015G20KT 15SM OVC068 M01/M04 A2964 RMK AC8 SLP050

CYWG;2011-03-11 13:00;CYWG 111300Z 15014KT 15SM OVC059 M02/M04 A2960 RMK SC8 SLP038

CYWG;2011-03-11 14:00;CYWG 111400Z 14015KT 15SM SCT059 OVC079 M01/M04 A2958 RMK SC3AC5 SLP030

CYWG;2011-03-11 15:00;CYWG 111500Z 15012KT 15SM FEW060 BKN087 OVC220 00/M03 A2956 RMK SC2AC4CI1 SLP023

CYWG;2011-03-11 16:00;CYWG 111600Z 14011KT 15SM FEW060 BKN097 OVC220 02/M02 A2954 RMK SC2AC6CI1 SLP015

CYWG;2011-03-11 17:00;CYWG 111700Z 15012KT 15SM BKN100 OVC220 02/M01 A2952 RMK AC6CI2 SLP009

CYWG;2011-03-11 18:00;CYWG 111800Z 14011KT 15SM SCT070 OVC120 03/M01 A2950 RMK AC3AC5 SLP002

CYWG;2011-03-11 19:00;CYWG 111900Z 14007KT 15SM OVC120 03/M01 A2949 RMK AC8 SLP997

CYWG;2011-03-11 20:00;CYWG 112000Z 05009KT 15SM SCT035 OVC120 03/M01 A2946 RMK SC3AC5 SLP988

CYWG;2011-03-11 21:00;CYWG 112100Z 03010KT 15SM OVC037 02/M01 A2947 RMK ST8 SLP990

CYWG;2011-03-11 22:00;CYWG 112200Z 01011KT 15SM OVC041 02/M01 A2947 RMK ST8 SLP991

CYWG;2011-03-11 23:00;CYWG 112300Z 01019KT 15SM OVC043 02/M01 A2948 RMK ST8 SLP994

CYWG;2011-03-11 23:49;CYWG 112349Z 36017KT 15SM BKN009 OVC047 01/ RMK ST6ST2

CYWG;2011-03-12 00:00;CYWG 120000Z 36016G21KT 15SM BKN008 OVC047 01/00 A2951 RMK ST6ST2 SLP006

CYWG;2011-03-12 00:29;CYWG 120029Z 36018KT 5SM -RASN BKN007 OVC047 01/ RMK ST7ST1

CYWG;2011-03-12 00:38;CYWG 120038Z 33032KT 1SM R31/P6000FT/D R36/P6000FT/D -SN DRSN OVC006 M03/ RMK ST8

CYWG;2011-03-12 00:46;CYWG 120046Z 33032G38KT 1/2SM R31/3500VP6000FT/D R36/3000VP6000FT/D SN DRSN OVC007 M04/ RMK ST8

CYWG;2011-03-12 00:52;CYWG 120052Z 33034G39KT 1/4SM R31/2200V2800FT/N R36/3000VP6000FT/D SN +BLSN SCT006 OVC009 M05/ RMK SF3ST5 FROPA

CYWG;2011-03-12 00:55;CYWG 120055Z 33032G39KT 1/8SM R31/2400FT/N R36/3500FT/N SN +BLSN VV001 M05/ RMK SN8

CYWG;2011-03-12 01:00;CYWG 120100Z 33034KT 1/8SM R31/1800V2600FT/N SN +BLSN VV001 M05/M06 A2957 RMK SN8 RVR36 MISSING SLP023

CYWG;2011-03-12 01:40;CYWG 120140Z 34026G34KT 1/2SM R31/3500FT/N R36/2800FT/N SN BLSN VV002 M08/ RMK SN8 VIS VRB 1/4 3/4

CYWG;2011-03-12 02:00;CYWG 120200Z 34025G39KT 1/2SM R31/2000FT/N SN BLSN VV001 M08/M09 A2964 RMK SN8 VIS VBL 1/4-3/4 RVR36 MISSING SLP046

CYWG;2011-03-12 02:50;CYWG 120250Z 34024G32KT 1/2SM R31/3000FT/N R36/5000FT/D SN BLSN VV003 M10/ RMK SN8 VIS VBL 1/4-3/4

CYWG;2011-03-12 03:00;CYWG 120300Z 35020G28KT 1/2SM R31/2800VP6000FT/U R36/6000FT/U SN BLSN VV003 M10/M11 A2970 RMK SN8 VIS VBL 1/4-3/4 SLP072

CYWG;2011-03-12 03:15;CYWG 120315Z 35025KT 1/2SM R31/3500VP6000FT/D R36/P6000FT/N SN BLSN VV004 M11/ RMK SN8 VIS VBL 1/4-3/4

CYWG;2011-03-12 04:00;CYWG 120400Z 34025KT 3/4SM R31/P6000FT/U R36/3500VP6000FT/U -SN BLSN VV007 M12/M12 A2974 RMK SN8 SLP086

CYWG;2011-03-12 05:00;CYWG 120500Z 35025G30KT 3/4SM R31/3500VP6000FT/U R36/3000VP6000FT/U -SN BLSN VV008 M12/M13 A2977 RMK SN8 SLP096

CYWG;2011-03-12 06:00;CYWG 120600Z 34024G32KT 3/4SM R31/P6000FT/D R36/P6000FT/D -SN BLSN VV011 M13/M14 A2981 RMK SN8 SLP111

CYWG;2011-03-12 07:00;CYWG 120700Z 34027G32KT 1 1/2SM R31/3500FT/N -SN BLSN OVC013 M14/M15 A2985 RMK SC8 SLP123

CYWG;2011-03-12 07:45;CYWG 120745Z 34025G34KT 2SM R31/3000V5000FT/N -SN BLSN OVC031 M14/ RMK SC8

CYWG;2011-03-12 08:00;CYWG 120800Z 34028KT 2SM R31/4000VP6000FT/D -SN BLSN OVC031 M14/M16 A2990 RMK SC8 SLP138

CYWG;2011-03-12 09:00;CYWG 120900Z 34025G31KT 4SM R31/6000FT/D -SN BLSN BKN016 OVC066 M15/M17 A2993 RMK SC5AC3 SLP151

CYWG;2011-03-12 10:00;CYWG 121000Z 34022G29KT 5SM -SN BLSN FEW010 OVC045 M16/M17 A2996 RMK SF2SC6 SLP163

CYWG;2011-03-12 11:00;CYWG 121100Z 34023KT 8SM -SN DRSN FEW010 OVC063 M16/M18 A2999 RMK SC2SC6 SLP172

CYWG;2011-03-12 12:00;CYWG 121200Z 33020KT 6SM -SN BLSN FEW022 BKN083 M17/M18 A3003 RMK SC2AC2 SLP187

CYWG;2011-03-12 12:37;CYWG 121237Z CCA 33018G26KT 10SM DRSN FEW022 SCT055 BKN230 M17/ RMK SC2SC2CI1

CYWG;2011-03-12 13:00;CYWG 121300Z 34019G24KT 12SM DRSN FEW022 SCT230 M18/M20 A3006 RMK SC1CI2 SLP196

CYWG;2011-03-12 14:00;CYWG 121400Z 34015G21KT 10SM DRSN FEW026 BKN250 M17/M19 A3009 RMK SC1CI2 SLP207

CYWG;2011-03-12 15:00;CYWG 121500Z 33022KT 5SM BLSN FEW026 BKN250 M18/M19 A3013 RMK SC2CI3 SLP227

CYWG;2011-03-12 16:00;CYWG 121600Z 33021KT 5SM BLSN BKN024 OVC250 M18/M20 A3016 RMK SC5CI1 SLP236

CYWG;2011-03-12 17:00;CYWG 121700Z 34019KT 6SM BLSN OVC022 M18/M21 A3018 RMK SC8 SLP243

CYWG;2011-03-12 18:00;CYWG 121800Z 33016KT 10SM DRSN OVC022 M17/M22 A3020 RMK SC7 SLP250

CYWG;2011-03-12 19:00;CYWG 121900Z 33017KT 12SM DRSN BKN022 OVC056 M17/M21 A3021 RMK SC6SC2 SLP254

CYWG;2011-03-12 20:00;CYWG 122000Z 32016KT 12SM DRSN OVC022 M16/M21 A3022 RMK SC8 SLP257

CYWG;2011-03-12 21:00;CYWG 122100Z 32016KT 15SM DRSN OVC022 M16/M20 A3024 RMK SC8 SLP265

CYWG;2011-03-12 22:00;CYWG 122200Z 34011KT 15SM DRSN OVC022 M15/M19 A3026 RMK SC8 SLP271

CYWG;2011-03-12 23:00;CYWG 122300Z 01011KT 15SM OVC024 M15/M20 A3028 RMK SC8 SLP276

CYWG;2011-03-13 00:00;CYWG 130000Z 36011KT 15SM OVC024 M15/M20 A3029 RMK SC8 SLP282

CYWG;2011-03-13 01:00;CYWG 130100Z 36008KT 15SM OVC018 M16/M20 A3032 RMK SC6 SLP291

CYWG;2011-03-13 02:00;CYWG 130200Z 35008KT 15SM OVC027 M15/M20 A3033 RMK SC8 SLP295

CYWG;2011-03-13 03:00;CYWG 130300Z 35009KT 15SM OVC027 M16/M20 A3035 RMK SC8 SLP303

CYWG;2011-03-13 04:00;CYWG 130400Z 35007KT 15SM OVC025 M15/M20 A3038 RMK SC8 SLP311

CYWG;2011-03-13 05:00;CYWG 130500Z 35007KT 15SM OVC025 M16/M20 A3038 RMK SC8 SLP311

CYWG;2011-03-13 06:00;CYWG 130600Z 33007KT 15SM OVC023 M16/M20 A3038 RMK SC8 SLP313

CYWG;2011-03-13 07:00;CYWG 130700Z 32006KT 15SM OVC023 M16/M19 A3038 RMK SC8 SLP314

CYWG;2011-03-13 08:00;CYWG 130800Z 33004KT 15SM OVC021 M16/M19 A3040 RMK SC8 SLP318

CYWG;2011-03-13 09:00;CYWG 130900Z 34004KT 15SM -SN OVC021 M16/M19 A3040 RMK SC8 SLP318

CYWG;2011-03-13 10:00;CYWG 131000Z 34003KT 15SM OVC021 M16/M19 A3040 RMK SC8 SLP318

CYWG;2011-03-13 11:00;CYWG 131100Z 01002KT 15SM -SN OVC018 M16/M19 A3041 RMK SC8 SLP324

CYWG;2011-03-13 12:00;CYWG 131200Z 00000KT 15SM -SN OVC018 M16/M18 A3041 RMK SC8 SLP323

CYWG;2011-03-13 13:00;CYWG 131300Z 25002KT 15SM -SN OVC016 M15/M18 A3043 RMK SC8 SLP329

CYWG;2011-03-13 14:00;CYWG 131400Z 21006KT 10SM -SN OVC016 M15/M17 A3043 RMK SC8 SLP328

CYWG;2011-03-13 15:00;CYWG 131500Z 17006KT 12SM -SN OVC014 M14/M17 A3042 RMK SC8 SLP327

CYWG;2011-03-13 16:00;CYWG 131600Z 18006KT 12SM -SN OVC016 M13/M16 A3043 RMK SC8 SLP328

CYWG;2011-03-13 17:00;CYWG 131700Z 20009KT 12SM -SN OVC016 M13/M15 A3043 RMK SC8 SLP330

CYWG;2011-03-13 18:00;CYWG 131800Z 18009KT 15SM -SN BKN016 OVC072 M12/M14 A3041 RMK SC6AC2 SLP320

CYWG;2011-03-13 19:00;CYWG 131900Z 18017KT 15SM -SN BKN016 M11/M13 A3037 RMK SC7 SLP309

CYWG;2011-03-13 20:00;CYWG 132000Z 17017KT 15SM -SN BKN015 BKN036 M10/M12 A3035 RMK SC6SC2 SLP303

CYWG;2011-03-13 20:48;CYWG 132048Z 17020G26KT 15SM SCT013 SCT025 BKN250 M09/ RMK SC3SC1CI1

CYWG;2011-03-13 21:00;CYWG 132100Z 18017KT 15SM FEW013 BKN250 M09/M11 A3033 RMK SC2CI2 SLP293

CYWG;2011-03-13 22:00;CYWG 132200Z 17019KT 15SM FEW011 BKN250 M10/M11 A3031 RMK SC2CI1 SLP287

CYWG;2011-03-13 22:49;CYWG 132249Z 18018G24KT 15SM FEW009 BKN250 M10/ RMK SC2CI2

CYWG;2011-03-13 23:00;CYWG 132300Z 18021KT 15SM FEW008 BKN250 M10/M12 A3029 RMK SC2CI2 SLP279

CYWG;2011-03-14 00:00;CYWG 140000Z 18023G29KT 15SM FEW008 BKN250 M10/M12 A3026 RMK SC1CI3 SLP268

CYWG;2011-03-14 01:00;CYWG 140100Z 17023G29KT 15SM FEW006 BKN250 M11/M12 A3023 RMK SC1CI2 SLP258

CYWG;2011-03-14 02:00;CYWG 140200Z CCA 17023KT 15SM DRSN FEW006 BKN250 M11/M12 A3019 RMK SC1CI2 SLP247

CYWG;2011-03-14 03:00;CYWG 140300Z 18020G27KT 15SM DRSN SCT006 BKN250 M11/M12 A3018 RMK SF3CI2 SLP240

CYWG;2011-03-14 04:00;CYWG 140400Z 18019KT 15SM DRSN BKN250 M11/M13 A3018 RMK CI2 SLP241

CYWG;2011-03-14 05:00;CYWG 140500Z 18017G22KT 15SM DRSN SCT094 M11/M13 A3013 RMK AC3 SLP226

CYWG;2011-03-14 06:00;CYWG 140600Z 18019KT 15SM DRSN SKC M11/M13 A3012 RMK SLP221

CYWG;2011-03-14 07:00;CYWG 140700Z 18015G21KT 15SM DRSN SKC M11/M12 A3011 RMK SLP217

CYWG;2011-03-14 08:00;CYWG 140800Z 18017KT 15SM DRSN FEW094 M11/M12 A3009 RMK AC1 SLP212

CYWG;2011-03-14 09:00;CYWG 140900Z 18016KT 15SM DRSN FEW075 M11/M12 A3008 RMK AC2 SLP205

CYWG;2011-03-14 10:00;CYWG 141000Z 18018G24KT 4SM DRSN BR SKC M11/M11 A3007 RMK SLP201

CYWG;2011-03-14 10:11;CYWG 141011Z 18019G24KT 3SM DRSN BR FEW003 M10/ RMK ST2

CYWG;2011-03-14 10:28;CYWG 141028Z 18020KT 3SM BR BKN003 M10/ RMK ST6

CYWG;2011-03-14 10:54;CYWG 141054Z 18019G24KT 4SM BR BKN004 M10/ RMK ST7

CYWG;2011-03-14 11:00;CYWG 141100Z 18017KT 4SM BR BKN004 M10/M11 A3006 RMK ST7 SLP200

CYWG;2011-03-14 11:13;CYWG 141113Z 18018KT 4SM BR BKN009 M10/ RMK ST7

CYWG;2011-03-14 12:00;CYWG 141200Z 18017KT 5SM BR BKN005 M09/M10 A3006 RMK ST7 SLP197

CYWG;2011-03-14 12:15;CYWG 141215Z 18018KT 6SM BR BKN006 M08/ RMK ST7

CYWG;2011-03-14 13:00;CYWG 141300Z 18017KT 6SM BR BKN005 M08/M09 A3005 RMK ST7 SLP196

CYWG;2011-03-14 14:00;CYWG 141400Z 18014KT 6SM BR OVC005 M07/M08 A3005 RMK ST8 SLP195

CYWG;2011-03-14 15:00;CYWG 141500Z 18015KT 6SM BR OVC005 M06/M07 A3003 RMK ST8 SLP187

CYWG;2011-03-14 16:00;CYWG 141600Z 18011G17KT 6SM BR OVC007 M05/M06 A3002 RMK ST8 SLP183

CYWG;2011-03-14 17:00;CYWG 141700Z 18014KT 6SM BR OVC006 M04/M05 A3000 RMK ST8 SLP179

CYWG;2011-03-14 18:00;CYWG 141800Z 17015KT 6SM BR OVC005 M03/M03 A2999 RMK ST8 SLP172

CYWG;2011-03-14 18:27;CYWG 141827Z 17019G24KT 6SM BR OVC004 M03/ RMK ST8

CYWG;2011-03-14 19:00;CYWG 141900Z 18020G25KT 5SM -SN BR OVC005 M03/M03 A2996 RMK ST8 SLP163

CYWG;2011-03-14 20:00;CYWG 142000Z 17023KT 8SM -SN OVC008 M02/M03 A2994 RMK ST8 SLP156

CYWG;2011-03-14 20:08;CYWG 142008Z 17021G27KT 10SM OVC008 M02/ RMK ST8

CYWG;2011-03-14 21:00;CYWG 142100Z 16020KT 10SM OVC008 M02/M03 A2992 RMK ST8 SLP147

CYWG;2011-03-14 22:00;CYWG 142200Z 16022G29KT 10SM OVC007 M02/M03 A2988 RMK ST8 SLP134

CYWG;2011-03-14 23:00;CYWG 142300Z 17023G30KT 10SM OVC007 M01/M02 A2986 RMK ST8 SLP128

CYWG;2011-03-15 00:00;CYWG 150000Z 18022G29KT 5SM BR OVC004 M01/M01 A2986 RMK ST8 SLP128

CYWG;2011-03-15 00:53;CYWG 150053Z 18021KT 3SM BR OVC003 M01/ RMK ST8

CYWG;2011-03-15 01:00;CYWG 150100Z 18023KT 3SM BR OVC003 M00/M00 A2985 RMK ST8 SLP125

CYWG;2011-03-15 02:00;CYWG 150200Z 18017G24KT 4SM BR OVC004 00/00 A2984 RMK ST8 SLP121

CYWG;2011-03-15 02:33;CYWG 150233Z 18021KT 5SM BR OVC005 00/ RMK ST8

CYWG;2011-03-15 03:00;CYWG 150300Z 19017G25KT 10SM OVC005 01/00 A2982 RMK ST8 SLP112

CYWG;2011-03-15 04:00;CYWG 150400Z 19019G25KT 12SM BKN006 01/00 A2981 RMK ST6 SLP110

CYWG;2011-03-15 05:00;CYWG 150500Z 19019KT 15SM FEW007 OVC200 01/00 A2980 RMK ST2CI4 SLP104

CYWG;2011-03-15 06:00;CYWG 150600Z 19014G19KT 15SM SCT120 OVC200 01/00 A2979 RMK AC3CI2 SLP101

CYWG;2011-03-15 07:00;CYWG 150700Z 19015KT 15SM SCT130 OVC210 01/M00 A2978 RMK AC4CI2 SLP097

CYWG;2011-03-15 08:00;CYWG 150800Z 19013KT 15SM FEW130 OVC210 01/M00 A2978 RMK AC2CI2 SLP097

CYWG;2011-03-15 09:00;CYWG 150900Z 19011KT 15SM SCT130 BKN210 M00/M01 A2975 RMK AC3CI2 SLP087

CYWG;2011-03-15 10:00;CYWG 151000Z 19013KT 15SM FEW130 FEW210 M00/M01 A2973 RMK AC1CI0 SLP081

CYWG;2011-03-15 11:00;CYWG 151100Z 20014KT 15SM SCT120 BKN210 M00/M02 A2974 RMK AC3CI0 SLP083

CYWG;2011-03-15 12:00;CYWG 151200Z 21012KT 15SM FEW120 BKN230 01/M01 A2973 RMK AC2CI1 SLP078

CYWG;2011-03-15 13:00;CYWG 151300Z 23010KT 15SM FEW120 SCT230 01/M02 A2973 RMK AC2CI1 SLP078

CYWG;2011-03-15 14:00;CYWG 151400Z 24012KT 15SM FEW120 FEW230 02/M01 A2974 RMK AC1CI1 SLP081

CYWG;2011-03-15 15:00;CYWG 151500Z 24014KT 15SM FEW120 FEW230 03/M01 A2974 RMK AC1CI0 SLP080

CYWG;2011-03-15 16:00;CYWG 151600Z 26013KT 15SM FEW035 FEW120 03/M00 A2975 RMK SC1AC1 SLP085

CYWG;2011-03-15 17:00;CYWG 151700Z 27014KT 15SM BKN030 BKN100 03/M00 A2975 RMK SC5AC2 SLP086

CYWG;2011-03-15 18:00;CYWG 151800Z 27015KT 15SM SCT032 BKN100 03/00 A2976 RMK SC4AC1 SLP089

CYWG;2011-03-15 19:00;CYWG 151900Z 27013KT 15SM BKN032 BKN050 03/M00 A2977 RMK SC5SC2 SLP091

CYWG;2011-03-15 20:00;CYWG 152000Z 27013KT 15SM BKN032 03/M00 A2977 RMK SC6 SLP092

CYWG;2011-03-15 21:00;CYWG 152100Z 27013KT 15SM FEW034 FEW050 03/00 A2978 RMK CU1SC1 SLP097

CYWG;2011-03-15 22:00;CYWG 152200Z 27010KT 15SM FEW029 03/00 A2980 RMK SC2 SLP103

CYWG;2011-03-15 23:00;CYWG 152300Z 26009KT 15SM BKN029 BKN053 03/00 A2981 RMK SC5SC1 SLP107

CYWG;2011-03-16 00:00;CYWG 160000Z 29007KT 15SM FEW023 SCT092 02/00 A2982 RMK SC2AC1 SLP109

CYWG;2011-03-16 01:00;CYWG 160100Z 27006KT 15SM SCT027 BKN090 M00/M01 A2984 RMK SC3AC1 SLP116

CYWG;2011-03-16 02:00;CYWG 160200Z 29006KT 15SM FEW027 FEW094 M01/M02 A2986 RMK SC1AC1 SLP121

CYWG;2011-03-16 03:00;CYWG 160300Z 27005KT 15SM SKC M02/M03 A2987 RMK SLP126

CYWG;2011-03-16 04:00;CYWG 160400Z 27005KT 15SM FEW220 M02/M04 A2987 RMK CI0 SLP125

CYWG;2011-03-16 05:00;CYWG 160500Z 27005KT 15SM SKC M03/M04 A2988 RMK SLP131

CYWG;2011-03-16 06:00;CYWG 160600Z 25002KT 15SM SKC M04/M05 A2988 RMK SLP131

CYWG;2011-03-16 07:00;CYWG 160700Z 00000KT 15SM SCT220 M05/M06 A2988 RMK CI2 MIFG SLP130

CYWG;2011-03-16 08:00;CYWG 160800Z 14002KT 15SM SCT220 M05/M05 A2987 RMK CI2 FROIN SLP126

CYWG;2011-03-16 09:00;CYWG 160900Z 18004KT 15SM SCT220 M05/M06 A2987 RMK CI2 SLP126

CYWG;2011-03-16 10:00;CYWG 161000Z 15004KT 6SM BR BKN220 M05/M05 A2985 RMK CI2 FROIN SLP121

CYWG;2011-03-16 11:00;CYWG 161100Z 13006KT 6SM BR BKN220 M04/M05 A2983 RMK CI2 FROIN SLP115

CYWG;2011-03-16 12:00;CYWG 161200Z 12007KT 6SM BR OVC220 M02/M03 A2981 RMK CS8 FROIN SLP107

CYWG;2011-03-16 13:00;CYWG 161300Z 14006KT 6SM BR SCT140 OVC220 M02/M03 A2980 RMK AC4CI1 FROIN SLP103

CYWG;2011-03-16 14:00;CYWG 161400Z 13009KT 10SM BKN140 BKN220 M01/M03 A2977 RMK AC5CI1 SLP095

CYWG;2011-03-16 15:00;CYWG 161500Z 14011KT 12SM FEW080 BKN120 OVC220 M00/M02 A2976 RMK AC2AC4CI1 SLP089

CYWG;2011-03-16 16:00;CYWG 161600Z 14014KT 15SM BKN078 BKN120 OVC220 01/M01 A2973 RMK AC5AC2CI0 SLP081

CYWG;2011-03-16 17:00;CYWG 161700Z 12013KT 15SM BKN080 OVC120 01/M01 A2970 RMK AC6AC2 SLP072

CYWG;2011-03-16 18:00;CYWG 161800Z 12013KT 15SM OVC097 02/M00 A2968 RMK AC8 SLP062

CYWG;2011-03-16 19:00;CYWG 161900Z 12014KT 15SM FEW069 BKN120 OVC220 04/M00 A2963 RMK AC2AC4CI1 SLP047

CYWG;2011-03-16 20:00;CYWG 162000Z 13011KT 15SM -SHRA BKN071 OVC120 04/M00 A2960 RMK AC6AC2 SLP036

CYWG;2011-03-16 21:00;CYWG 162100Z 11008KT 15SM -SHRA SCT036 OVC063 04/00 A2957 RMK SC4SC4 SLP027

CYWG;2011-03-16 22:00;CYWG 162200Z 12007KT 10SM -SHRA OVC021 03/01 A2957 RMK SC8 SLP024

CYWG;2011-03-16 23:00;CYWG 162300Z 12010KT 10SM -SHRA OVC023 03/02 A2953 RMK SC8 SLP012

CYWG;2011-03-17 00:00;CYWG 170000Z 13010KT 15SM SCT046 OVC070 03/01 A2951 RMK SC4AC4 SLP006

CYWG;2011-03-17 01:00;CYWG 170100Z 14008KT 15SM OVC049 03/01 A2951 RMK SC8 SLP003

CYWG;2011-03-17 02:00;CYWG 170200Z 15006KT 15SM BKN051 03/01 A2950 RMK SC6 SLP001

CYWG;2011-03-17 03:00;CYWG 170300Z 21009KT 15SM BKN045 03/01 A2949 RMK SC7 SLP998

CYWG;2011-03-17 04:00;CYWG 170400Z 23007KT 15SM FEW045 01/01 A2949 RMK SC2 SLP996

CYWG;2011-03-17 05:00;CYWG 170500Z 23008KT 15SM OVC013 01/01 A2950 RMK SC8 SLP000

CYWG;2011-03-17 06:00;CYWG 170600Z 26007KT 15SM BKN013 02/01 A2951 RMK SC6 SLP003

CYWG;2011-03-17 07:00;CYWG 170700Z 26008KT 15SM FEW007 SCT045 01/01 A2952 RMK ST2SC1 SLP006

CYWG;2011-03-17 07:51;CYWG 170751Z 29011KT 10SM OVC003 01/ RMK ST8

CYWG;2011-03-17 08:00;CYWG 170800Z 28009KT 10SM OVC003 01/01 A2954 RMK ST8 SLP012

CYWG;2011-03-17 08:39;CYWG 170839Z 27009KT 3SM BR OVC002 00/ RMK ST8

CYWG;2011-03-17 08:48;CYWG 170848Z 27009KT 3/4SM R31/P6000FT/D R36/P6000FT/D BR VV001 00/ RMK FG8

CYWG;2011-03-17 09:00;CYWG 170900Z 29007KT 3/4SM R31/P6000FT/N R36/P6000FT/U BR VV001 00/00 A2954 RMK FG8 SLP012

CYWG;2011-03-17 10:00;CYWG 171000Z 28012KT 1/2SM R31/4500VP6000FT/U R36/4500VP6000FT/D FZFG VV001 00/00 A2955 RMK FG8 SLP016

CYWG;2011-03-17 10:43;CYWG 171043Z 29009KT 3/4SM R31/5000FT/U R36/5500FT/N BR VV001 RMK FG8

CYWG;2011-03-17 11:00;CYWG 171100Z 30010KT 3/4SM R31/P6000FT/D R36/5000FT/D BR VV001 M00/M00 A2957 RMK FG8 SLP023

CYWG;2011-03-17 11:09;CYWG 171109Z 28010KT 1/2SM R31/4000VP6000FT/D R36/3500V5500FT/U FZFG VV001 M00/ RMK FG8

CYWG;2011-03-17 12:00;CYWG 171200Z 28008KT 3/4SM R31/4000V5500FT/N R36/P6000FT/U BR VV001 M01/M01 A2958 RMK FG8 SLP027

CYWG;2011-03-17 12:17;CYWG 171217Z 29006KT 1/2SM R31/P6000FT/U R36/P6000FT/D FZFG VV001 M00/ RMK FG8

CYWG;2011-03-17 12:44;CYWG 171244Z 33005KT 3/8SM R31/3500V5500FT/D R36/3000V4500FT/D -FZDZ FZFG VV001 M00/ RMK FG8

CYWG;2011-03-17 13:00;CYWG 171300Z 31005KT 3/8SM R31/2800FT/N R36/3000FT/N -FZDZ FZFG VV001 M01/M01 A2957 RMK FG8 SLP026

CYWG;2011-03-17 13:23;CYWG 171323Z 26003KT 1/4SM R31/3000FT/N R36/3000FT/U -FZDZ FZFG VV001 M00/ RMK FG8

CYWG;2011-03-17 13:38;CYWG 171338Z 25003KT 1/4SM R31/2400FT/N R36/2400FT/D -FZDZ FZFG VV003 M00/ RMK FG8

CYWG;2011-03-17 14:00;CYWG 171400Z 27002KT 1/4SM R31/2200FT/N R36/2000FT/N -FZDZ FZFG VV005 M00/M00 A2958 RMK FG8 SLP028

CYWG;2011-03-17 14:23;CYWG 171423Z 29004KT 3/8SM R31/2600V4000FT/N R36/2200FT/N -FZDZ FZFG VV005 M00/ RMK FG8

CYWG;2011-03-17 15:00;CYWG 171500Z 29003KT 1/2SM R31/3500V5000FT/U R36/3500FT/N -FZDZ FZFG VV003 M00/M00 A2959 RMK FG8 OBS TAKEN +03 SLP030

CYWG;2011-03-17 15:28;CYWG 171528Z 25003KT 3/4SM R31/3000VP6000FT/U R36/4500VP6000FT/D -FZDZ BR OVC001 M00/ RMK FG2ST6 BLN DSAPRD 500 FT

CYWG;2011-03-17 16:00;CYWG 171600Z 27005KT 1SM R31/P6000FT/D R36/4000VP6000FT/D -FZDZ BR OVC001 M00/M00 A2960 RMK FG1ST7 OBS TAKEN +04 BLN DSAPRD 500 FT VIS LWR NE-E SLP035

CYWG;2011-03-17 16:32;CYWG 171632Z 26004KT 2SM BR OVC001 00/ REFZDZ RMK ST8

CYWG;2011-03-17 16:54;CYWG 171654Z 27006KT 3/4SM R31/4500VP6000FT/D R36/3500V6000FT/U BR OVC001 00/ REFZDZ RMK ST8

CYWG;2011-03-17 17:00;CYWG 171700Z 27007KT 3/4SM R31/4500VP6000FT/U R36/5000FT/N -DZ BR OVC001 00/00 A2960 REFZDZ RMK FG2ST6 SLP035

CYWG;2011-03-17 17:16;CYWG 171716Z 30016KT 1/2SM R31/5500FT/D R36/3000VP6000FT/U -SHSN -FZDZ FZFG OVC001 M01/ RMK FG3ST5 CVCTV CLD ASOCTD

CYWG;2011-03-17 17:36;CYWG 171736Z 31018KT 2SM -SHSN BR OVC007 M04/ REFZDZ RMK SN3SF5 CVCTV CLD ASOCTD

CYWG;2011-03-17 18:00;CYWG 171800Z CCA 30016KT 2SM -SHSN BKN006 OVC044 M04/M05 A2963 REFZDZ RMK SN2SF4SC2 CVCTV CLD ASOCTD SLP047

CYWG;2011-03-17 18:45;CYWG 171845Z CCA 30017KT 2 1/2SM -SHSN BKN005 OVC017 M05/ RMK SN2SF4SC2 CVCTV CLD ASCOTD

CYWG;2011-03-17 19:00;CYWG 171900Z 30016KT 8SM -SHSN BKN005 OVC017 M05/M05 A2967 RMK SF6SC2 CVCTV CLD ASOCTD OBS TAKEN +06 SLP058

CYWG;2011-03-17 20:00;CYWG 172000Z 30022KT 4SM -SHSN SCT005 OVC021 M06/M07 A2970 RMK SF3SC5 CVCTV CLD ASOCTD SLP068

CYWG;2011-03-17 21:00;CYWG 172100Z 31021G26KT 10SM -SHSN FEW005 OVC031 M07/M07 A2973 RMK SF2SC6 CVCTV CLD ASOCTD SLP081

CYWG;2011-03-17 22:00;CYWG 172200Z 31023KT 10SM -SHSN DRSN FEW005 OVC035 M07/M08 A2978 RMK SF2SC6 CVCTV CLD ASOCTD SLP097

CYWG;2011-03-17 23:00;CYWG 172300Z 32023KT 12SM -SHSN DRSN FEW020 OVC038 M07/M08 A2981 RMK SC2SC6 CVCTV CLD ASOCTD SLP109

CYWG;2011-03-18 00:00;CYWG 180000Z 31019KT 15SM DRSN SCT019 OVC040 M08/M09 A2987 RMK SC3SC5 SLP128

CYWG;2011-03-18 01:00;CYWG 180100Z 32021G27KT 15SM DRSN OVC022 M08/M10 A2991 RMK SC8 SLP144

CYWG;2011-03-18 02:00;CYWG 180200Z 31020G25KT 6SM -SN DRSN OVC020 M08/M10 A2997 RMK SC8 SLP162

CYWG;2011-03-18 03:00;CYWG 180300Z CCA 31019G25KT 6SM -SN DRSN BKN024 OVC049 M09/M10 A3001 RMK SC6SC2 SLP179

CYWG;2011-03-18 04:00;CYWG 180400Z 32018G24KT 12SM -SN DRSN OVC026 M09/M11 A3005 RMK SC8 PRESRR SLP190

CYWG;2011-03-18 04:47;CYWG 180447Z 32023KT 15SM DRSN FEW028 OVC047 M09/ RMK ST2SC6

CYWG;2011-03-18 05:00;CYWG 180500Z 32019G24KT 15SM DRSN OVC045 M09/M11 A3008 RMK SC8 SLP201

CYWG;2011-03-18 06:00;CYWG 180600Z 32018KT 15SM DRSN SCT043 OVC085 M09/M11 A3011 RMK SC3AC5 SLP212

CYWG;2011-03-18 07:00;CYWG 180700Z 33016KT 15SM FEW020 SCT043 M11/M12 A3014 RMK ST2SC2 SLP222

CYWG;2011-03-18 08:00;CYWG 180800Z 32012KT 15SM SKC M12/M13 A3017 RMK SLP232

CYWG;2011-03-18 09:00;CYWG 180900Z 32010KT 15SM SKC M13/M14 A3018 RMK SLP239

CYWG;2011-03-18 10:00;CYWG 181000Z 31009KT 15SM SKC M13/M15 A3021 RMK SLP248

CYWG;2011-03-18 11:00;CYWG 181100Z 31008KT 15SM SKC M14/M15 A3023 RMK SLP255

CYWG;2011-03-18 12:00;CYWG 181200Z 29007KT 15SM FEW030 M15/M16 A3026 RMK SC1 SLP267

CYWG;2011-03-18 13:00;CYWG 181300Z 28008KT 15SM FEW040 M16/M17 A3029 RMK SC1 SLP278

CYWG;2011-03-18 14:00;CYWG 181400Z 29010KT 15SM FEW040 M15/M16 A3031 RMK SC1 SLP284

CYWG;2011-03-18 15:00;CYWG 181500Z 30008KT 15SM FEW040 M14/M15 A3032 RMK SC1 SLP290

CYWG;2011-03-18 16:00;CYWG 181600Z 32007KT 15SM FEW220 M13/M15 A3033 RMK CI1 SLP292

CYWG;2011-03-18 17:00;CYWG 181700Z 30006KT 15SM FEW220 M12/M14 A3033 RMK CI1 SLP293

CYWG;2011-03-18 18:00;CYWG 181800Z 30005KT 15SM FEW025 BKN220 M11/M13 A3034 RMK CF1CI1 CUFRA TR SLP294

CYWG;2011-03-18 19:00;CYWG 181900Z 31003KT 15SM BKN220 M10/M13 A3032 RMK CI1 SLP289

CYWG;2011-03-18 20:00;CYWG 182000Z 30003KT 15SM BKN220 M09/M12 A3032 RMK CI1 SLP288

CYWG;2011-03-18 21:00;CYWG 182100Z 29006KT 15SM BKN220 M08/M12 A3032 RMK CI1 SLP288

CYWG;2011-03-18 22:00;CYWG 182200Z 25005KT 15SM SCT220 M07/M12 A3033 RMK CI2 SLP290

CYWG;2011-03-18 23:00;CYWG 182300Z 20004KT 15SM FEW120 SCT220 M08/M12 A3032 RMK AC2CI1 SLP289

CYWG;2011-03-19 00:00;CYWG 190000Z 28002KT 15SM FEW120 FEW220 M07/M12 A3031 RMK AC1CI0 SLP286

CYWG;2011-03-19 01:00;CYWG 190100Z 18006KT 15SM FEW120 FEW220 M08/M11 A3032 RMK AC1CI0 SLP287

CYWG;2011-03-19 02:00;CYWG 190200Z 18006KT 15SM FEW120 M09/M11 A3032 RMK AC1 SLP287

CYWG;2011-03-19 03:00;CYWG 190300Z 14005KT 15SM FEW021 M09/M12 A3031 RMK SC1 SLP286

CYWG;2011-03-19 04:00;CYWG 190400Z 13005KT 15SM BKN019 M08/M11 A3032 RMK ST7 SLP287

CYWG;2011-03-19 05:00;CYWG 190500Z 14007KT 15SM OVC024 M08/M11 A3032 RMK ST8 SLP287

CYWG;2011-03-19 06:00;CYWG 190600Z 14008KT 15SM OVC026 M07/M10 A3031 RMK ST8 SLP284

CYWG;2011-03-19 07:00;CYWG 190700Z 16006KT 15SM OVC024 M07/M09 A3031 RMK ST8 SLP282

CYWG;2011-03-19 08:00;CYWG 190800Z 14008KT 15SM OVC018 M06/M08 A3030 RMK ST8 SLP279

CYWG;2011-03-19 09:00;CYWG 190900Z 14007KT 15SM OVC022 M06/M08 A3029 RMK ST8 SLP273

CYWG;2011-03-19 10:00;CYWG 191000Z 15008KT 15SM OVC022 M05/M07 A3028 RMK ST8 SLP270

CYWG;2011-03-19 10:29;CYWG 191029Z 15008KT 8SM -SN OVC020 M05/ RMK ST8

CYWG;2011-03-19 11:00;CYWG 191100Z 14008KT 7SM -SN OVC007 M05/M06 A3027 RMK ST8 SLP267

CYWG;2011-03-19 11:13;CYWG 191113Z 15008KT 5SM -SN SCT006 OVC018 M05/ RMK SF4ST4 -SN VRY LGT

CYWG;2011-03-19 11:33;CYWG 191133Z 15008KT 5SM -SN BKN006 BKN014 OVC018 M05/ RMK SF5ST2ST1

CYWG;2011-03-19 11:55;CYWG 191155Z 15010KT 5SM -SN BKN005 OVC018 M05/ RMK SF6ST2

CYWG;2011-03-19 12:00;CYWG 191200Z 15008KT 5SM -SN BKN005 OVC018 M05/M05 A3026 RMK SF6ST2 SLP265

CYWG;2011-03-19 12:48;CYWG 191248Z 15010KT 2 1/2SM BR OVC004 M05/ RMK ST8

CYWG;2011-03-19 13:00;CYWG 191300Z 15009KT 2 1/2SM BR OVC004 M05/M05 A3027 RMK ST8 SLP266

CYWG;2011-03-19 13:23;CYWG 191323Z 15011KT 1 3/4SM BR OVC003 M05/ RMK ST8

CYWG;2011-03-19 13:54;CYWG 191354Z 15009KT 3SM BR OVC004 M04/ RMK ST8

CYWG;2011-03-19 14:00;CYWG 191400Z 14010KT 6SM BR OVC004 M04/M04 A3026 RMK ST8 SLP263

CYWG;2011-03-19 14:47;CYWG 191447Z 13009KT 8SM OVC005 M03/ RMK ST8 BR

CYWG;2011-03-19 14:49;CYWG 191449Z 13009KT 5SM -SN OVC006 M03/ RMK ST8

CYWG;2011-03-19 15:00;CYWG 191500Z 13009KT 5SM -SG OVC006 M03/M04 A3024 RMK ST8 SLP258

CYWG;2011-03-19 16:00;CYWG 191600Z 11009KT 9SM OVC007 M03/M04 A3022 RMK ST8 SLP251

CYWG;2011-03-19 17:00;CYWG 191700Z 12010G15KT 12SM BKN009 OVC020 M01/M03 A3019 RMK SF5SC3 SLP242

CYWG;2011-03-19 17:26;CYWG 191726Z 11013KT 15SM BKN011 BKN059 M01/ RMK SF5SC2

CYWG;2011-03-19 18:00;CYWG 191800Z 10011KT 12SM BKN013 BKN059 M01/M03 A3017 RMK SF5SC1 SLP232

CYWG;2011-03-19 18:38;CYWG 191838Z 11013KT 15SM SCT013 BKN060 M00/ RMK SF2SC1

CYWG;2011-03-19 19:00;CYWG 191900Z 10010KT 15SM SCT013 SCT060 M00/M03 A3015 RMK SF2SC1 SLP226

CYWG;2011-03-19 20:00;CYWG 192000Z 10012KT 15SM FEW280 01/M02 A3013 RMK CI1 SLP220

CYWG;2011-03-19 21:00;CYWG 192100Z 10008KT 15SM FEW039 BKN150 02/M02 A3013 RMK SC1AC2 SLP216

CYWG;2011-03-19 22:00;CYWG 192200Z 09010KT 15SM BKN027 OVC150 02/M02 A3012 RMK SC7AC1 SLP214

CYWG;2011-03-19 23:00;CYWG 192300Z 07010KT 15SM BKN025 OVC150 01/M02 A3011 RMK SC6AC2 SLP210

CYWG;2011-03-20 00:00;CYWG 200000Z 07010KT 15SM FEW035 SCT120 OVC150 01/M02 A3010 RMK SC2AC2AS5 SLP207

CYWG;2011-03-20 00:16;CYWG 200016Z 08009KT 15SM -SHRA BKN027 OVC086 01/ RMK SC6AC2

CYWG;2011-03-20 01:00;CYWG 200100Z 08009KT 15SM -SHRAPL BKN023 OVC089 01/M01 A3009 RMK SC7AC1 SLP205

CYWG;2011-03-20 01:13;CYWG 200113Z 08008KT 15SM -SHRA BKN023 OVC055 01/ REPL RMK SC5SC3

CYWG;2011-03-20 01:19;CYWG 200119Z 08008KT 15SM BKN023 OVC110 01/ REPL RMK SC5AC3

CYWG;2011-03-20 02:00;CYWG 200200Z 09010KT 15SM SCT048 OVC110 01/M01 A3009 REPL RMK SC3AC5 SLP205

CYWG;2011-03-20 03:00;CYWG 200300Z 10013KT 15SM BKN083 OVC110 01/M01 A3008 RMK AC6AC2 SLP199

CYWG;2011-03-20 03:48;CYWG 200348Z 09012KT 15SM -RA OVC074 01/ RMK AC8

CYWG;2011-03-20 04:00;CYWG 200400Z 09011KT 15SM -RA SCT057 OVC091 01/M00 A3008 RMK SC3AC5 SLP198

CYWG;2011-03-20 04:41;CYWG 200441Z 11010KT 15SM OVC027 01/ RMK SC8

CYWG;2011-03-20 04:55;CYWG 200455Z 11009KT 15SM -RA OVC023 02/ RMK SC8

CYWG;2011-03-20 05:00;CYWG 200500Z 12010KT 15SM -RA OVC023 02/01 A3008 RMK SC8 SLP199

CYWG;2011-03-20 06:00;CYWG 200600Z 13008KT 4SM -RA BR OVC022 02/02 A3006 RMK SC8 SLP193

CYWG;2011-03-20 07:00;CYWG 200700Z 11008KT 6SM -RA OVC024 02/02 A3004 RMK SC8 SLP186

CYWG;2011-03-20 08:00;CYWG 200800Z 10013KT 6SM -RA OVC030 03/01 A3002 RMK SC8 SLP177

CYWG;2011-03-20 09:00;CYWG 200900Z 11013G18KT 15SM -RA OVC028 02/01 A2998 RMK SC8 SLP162

CYWG;2011-03-20 10:00;CYWG 201000Z 11017KT 15SM BKN027 OVC095 02/01 A2995 RMK SC6AC2 SLP153

CYWG;2011-03-20 10:28;CYWG 201028Z 11017KT 15SM -SHRA BKN033 OVC082 02/ RMK SC6ACC2

CYWG;2011-03-20 11:00;CYWG 201100Z 11014G19KT 15SM -SHRA BKN026 OVC089 02/01 A2994 RMK SC6ACC2 SLP149

CYWG;2011-03-20 11:34;CYWG 201134Z 11014KT 15SM BKN026 OVC080 02/ RMK SC6AC2

CYWG;2011-03-20 12:00;CYWG 201200Z 11014KT 15SM BKN026 OVC080 02/01 A2993 RMK SC6AC2 SLP147

CYWG;2011-03-20 12:41;CYWG 201241Z 11014KT 15SM -SHRA OVC022 02/ RMK SC8

CYWG;2011-03-20 13:00;CYWG 201300Z 11013KT 15SM -SHRA OVC022 02/01 A2992 RMK SC8 SLP144

CYWG;2011-03-20 14:00;CYWG 201400Z 10012KT 8SM -RA OVC018 02/01 A2990 RMK SC8 BR SLP137

CYWG;2011-03-20 14:30;CYWG 201430Z 10012KT 9SM -RA SCT009 OVC018 02/ RMK SF2SC6 BR

CYWG;2011-03-20 15:00;CYWG 201500Z 10012KT 10SM -RA SCT009 OVC018 02/01 A2988 RMK SF2SC6 BR SLP131

CYWG;2011-03-20 16:00;CYWG 201600Z 10013KT 9SM -RA BKN007 OVC021 02/02 A2987 RMK SF5SC3 BR SLP126

CYWG;2011-03-20 16:44;CYWG 201644Z 10011KT 5SM -RASN BR OVC006 01/ RMK SF8

CYWG;2011-03-20 17:00;CYWG 201700Z 10012KT 4SM -RASN BR OVC006 01/01 A2985 RMK SF8 SLP121

CYWG;2011-03-20 17:21;CYWG 201721Z 10011KT 3SM -RA BR OVC005 02/ RMK SF8

CYWG;2011-03-20 18:00;CYWG 201800Z 10010KT 3SM -RASN BR OVC004 02/02 A2983 RMK SF8 SLP112

CYWG;2011-03-20 18:15;CYWG 201815Z 10010KT 5SM -RA BR OVC004 02/ RMK SF8 VIS LWR NE-E

CYWG;2011-03-20 19:00;CYWG 201900Z 09009KT 3SM -RA BR OVC005 02/02 A2982 RMK SF8 SLP109

CYWG;2011-03-20 20:00;CYWG 202000Z 07008KT 2SM -RA BR OVC004 02/02 A2980 RMK SF8 SLP101

CYWG;2011-03-20 21:00;CYWG 202100Z 07006KT 2SM -RA BR OVC004 02/02 A2980 RMK SF8 SLP101

CYWG;2011-03-20 22:00;CYWG 202200Z 04006KT 2SM -RA BR OVC003 01/01 A2980 RMK SF8 SLP102

CYWG;2011-03-20 22:24;CYWG 202224Z 05008KT 3SM -RA BR OVC003 01/ RMK SF8

CYWG;2011-03-20 23:00;CYWG 202300Z 05008KT 5SM -RASN BR OVC003 01/01 A2980 RMK SF8 SLP102

CYWG;2011-03-21 00:00;CYWG 210000Z 03005KT 6SM -RASN BR OVC003 01/01 A2981 RMK SF8 SLP106

CYWG;2011-03-21 00:40;CYWG 210040Z 03008KT 5SM -RASN BR OVC002 01/ RMK SF8

CYWG;2011-03-21 01:00;CYWG 210100Z 02007KT 5SM -DZSN BR OVC002 01/01 A2982 RMK SF8 SLP108

CYWG;2011-03-21 02:00;CYWG 210200Z 36008KT 5SM -DZSN BR OVC003 00/00 A2985 RMK SF8 SLP118

CYWG;2011-03-21 02:09;CYWG 210209Z 01009KT 3SM -SN BR OVC003 00/ RMK SF8

CYWG;2011-03-21 03:00;CYWG 210300Z 36010KT 5SM -SN BR OVC003 00/00 A2987 RMK SF8 SLP126

CYWG;2011-03-21 04:00;CYWG 210400Z 36010KT 6SM -SN BR OVC003 00/00 A2988 RMK SF8 SLP131

CYWG;2011-03-21 04:18;CYWG 210418Z 36010KT 6SM -SN BR OVC004 01/ RMK SF8

CYWG;2011-03-21 05:00;CYWG 210500Z 36011KT 6SM -DZ BR OVC003 01/01 A2990 RMK SF8 SLP137

CYWG;2011-03-21 05:44;CYWG 210544Z 36010KT 10SM OVC003 01/ RMK SF8 BR

CYWG;2011-03-21 06:00;CYWG 210600Z 36009KT 10SM BKN004 OVC012 01/01 A2994 RMK SF7ST1 BR SLP150

CYWG;2011-03-21 06:28;CYWG 210628Z 36009KT 10SM OVC003 01/ RMK SF8 BR

CYWG;2011-03-21 06:34;CYWG 210634Z 35009KT 6SM -SG BR OVC003 01/ RMK SF8

CYWG;2011-03-21 07:00;CYWG 210700Z 35010KT 6SM -SG BR OVC004 01/01 A2999 RMK SF8 SLP167

CYWG;2011-03-21 08:00;CYWG 210800Z 36010KT 5SM -SN BR OVC004 01/01 A3002 RMK SF8 OBS TAKEN +01 SLP176

CYWG;2011-03-21 09:00;CYWG 210900Z 35008KT 10SM OVC004 01/01 A3004 RMK SF8 BR SLP186

CYWG;2011-03-21 09:14;CYWG 210914Z 01010KT 10SM OVC005 01/ RMK SF8 BR

CYWG;2011-03-21 10:00;CYWG 211000Z 02015KT 15SM OVC005 01/01 A3004 RMK SF8 SLP185

CYWG;2011-03-21 11:00;CYWG 211100Z 02011KT 15SM OVC006 01/00 A3008 RMK SF8 SLP198

CYWG;2011-03-21 12:00;CYWG 211200Z 02015KT 15SM OVC005 00/00 A3010 RMK SF8 SLP207

CYWG;2011-03-21 12:35;CYWG 211235Z 02014KT 15SM OVC004 00/ RMK SF8

CYWG;2011-03-21 13:00;CYWG 211300Z 02012KT 15SM OVC004 M00/M00 A3013 RMK SF8 SLP217

CYWG;2011-03-21 14:00;CYWG 211400Z 02012KT 15SM OVC004 M00/M00 A3017 RMK SF8 CIG RAG SLP228

CYWG;2011-03-21 15:00;CYWG 211500Z 04011G16KT 15SM -SG OVC004 M00/M00 A3018 RMK SF8 CIG RAG SLP233

CYWG;2011-03-21 16:00;CYWG 211600Z 03012KT 15SM BKN005 OVC017 00/00 A3019 RMK SF7SC1 CIG RAG SLP238

CYWG;2011-03-21 17:00;CYWG 211700Z 04012KT 15SM BKN007 OVC015 01/00 A3020 RMK SF7SC1 CIG RAG SLP240

CYWG;2011-03-21 18:00;CYWG 211800Z 08008KT 15SM OVC009 02/M00 A3022 RMK SF8 OBS TAKEN +03 SLP244

CYWG;2011-03-21 18:33;CYWG 211833Z CCA 09009KT 15SM FEW009 OVC014 02/ RMK SF2SC6

CYWG;2011-03-21 19:00;CYWG 211900Z 09009KT 15SM FEW009 OVC017 02/M01 A3021 RMK SF1SC7 SLP243

CYWG;2011-03-21 20:00;CYWG 212000Z 04011KT 15SM BKN017 OVC025 02/00 A3020 RMK SC6SC2 SLP238

CYWG;2011-03-21 21:00;CYWG 212100Z 05014KT 15SM SCT017 OVC070 02/M00 A3018 RMK SC4AS4 SLP232

CYWG;2011-03-21 22:00;CYWG 212200Z 06014KT 15SM FEW017 SCT096 OVC250 02/00 A3018 RMK SC2AC2CS2 SLP232

CYWG;2011-03-21 23:00;CYWG 212300Z 06009KT 15SM OVC024 02/00 A3019 RMK SC8 SLP234

CYWG;2011-03-22 00:00;CYWG 220000Z 05011KT 15SM OVC024 02/01 A3020 RMK SC8 SLP238

CYWG;2011-03-22 01:00;CYWG 220100Z 06011KT 15SM OVC026 02/00 A3021 RMK SC8 SLP243

CYWG;2011-03-22 02:00;CYWG 220200Z 07009KT 15SM OVC028 02/00 A3022 RMK SC8 SLP247

CYWG;2011-03-22 03:00;CYWG 220300Z 08014KT 15SM OVC028 02/M01 A3022 RMK SC8 SLP246

CYWG;2011-03-22 04:00;CYWG 220400Z 08015KT 15SM BKN028 OVC077 02/M01 A3022 RMK SC5AC3 SLP245

CYWG;2011-03-22 05:00;CYWG 220500Z 09012KT 15SM SCT030 OVC075 01/M01 A3022 RMK SC3AC5 SLP247

CYWG;2011-03-22 06:00;CYWG 220600Z 09013G18KT 15SM FEW030 OVC086 01/M01 A3020 RMK SC2AC6 SLP239

CYWG;2011-03-22 07:00;CYWG 220700Z 09011G16KT 15SM OVC060 01/M01 A3020 RMK SC8 SLP240

CYWG;2011-03-22 08:00;CYWG 220800Z 09015KT 15SM OVC058 01/M02 A3017 RMK SC8 SLP228

CYWG;2011-03-22 09:00;CYWG 220900Z 09014G19KT 15SM OVC076 01/M02 A3015 RMK AC8 SLP222

CYWG;2011-03-22 10:00;CYWG 221000Z 09014G19KT 15SM OVC100 00/M03 A3014 RMK AC8 SLP218

CYWG;2011-03-22 11:00;CYWG 221100Z 08013KT 15SM OVC089 M00/M03 A3013 RMK AC8 SLP216

CYWG;2011-03-22 12:00;CYWG 221200Z 09013G18KT 15SM BKN083 OVC230 M01/M03 A3015 RMK AC6CI1 SLP222

CYWG;2011-03-22 13:00;CYWG 221300Z 09016KT 15SM SCT025 OVC092 M01/M04 A3014 RMK SC2AC6 SLP220

CYWG;2011-03-22 14:00;CYWG 221400Z CCA 08016KT 15SM BKN019 OVC091 M01/M04 A3014 RMK SC6AC2 SLP219

CYWG;2011-03-22 15:00;CYWG 221500Z 08020KT 15SM BKN019 BKN071 M01/M04 A3011 RMK SC5AC2 SLP208

CYWG;2011-03-22 16:00;CYWG 221600Z 09015G22KT 15SM BKN019 BKN080 M00/M04 A3010 RMK SC5AC1 SLP207

CYWG;2011-03-22 17:00;CYWG 221700Z 08017G26KT 15SM SCT022 SCT080 BKN230 00/M04 A3010 RMK SC3AC1CI1 SLP206

CYWG;2011-03-22 18:00;CYWG 221800Z 09019KT 15SM FEW022 SCT100 BKN230 01/M04 A3008 RMK SC1AC3CI1 SLP199

CYWG;2011-03-22 19:00;CYWG 221900Z 07015G21KT 15SM SCT120 BKN240 01/M04 A3008 RMK AC3CI2 SLP197

CYWG;2011-03-22 20:00;CYWG 222000Z 08017G25KT 15SM FEW120 BKN240 02/M04 A3006 RMK AC2CI2 SLP190

CYWG;2011-03-22 21:00;CYWG 222100Z 07019G26KT 15SM SCT120 BKN240 01/M04 A3003 RMK AC2CI2 SLP180

CYWG;2011-03-22 22:00;CYWG 222200Z 07019G29KT 15SM SCT120 BKN240 01/M05 A3003 RMK AC2CI2 SLP179

CYWG;2011-03-22 23:00;CYWG 222300Z 07015G29KT 15SM SCT120 BKN240 01/M05 A3003 RMK AC3CI2 SLP180

CYWG;2011-03-23 00:00;CYWG 230000Z 07014G25KT 15SM SCT100 BKN240 01/M05 A3003 RMK AC2CI2 SLP180

CYWG;2011-03-23 01:00;CYWG 230100Z 07020G28KT 15SM SCT100 BKN240 M00/M06 A3003 RMK AC2CI1 SLP180

CYWG;2011-03-23 02:00;CYWG 230200Z 07019G27KT 15SM SCT100 BKN240 M01/M07 A3004 RMK AC2CI1 SLP184

CYWG;2011-03-23 03:00;CYWG 230300Z 07022KT 15SM SCT100 BKN240 M02/M08 A3005 RMK AC2CI1 SLP190

CYWG;2011-03-23 04:00;CYWG 230400Z 08019G24KT 15SM SCT100 BKN240 M03/M08 A3006 RMK AC2CI2 SLP192

CYWG;2011-03-23 05:00;CYWG 230500Z 08017G25KT 15SM SCT120 BKN240 M04/M10 A3006 RMK AC2CI2 SLP193

CYWG;2011-03-23 06:00;CYWG 230600Z 07017G24KT 15SM SCT120 BKN240 M05/M10 A3007 RMK AC2CI2 SLP196

CYWG;2011-03-23 07:00;CYWG 230700Z 06015G22KT 15SM SCT120 BKN240 M06/M11 A3008 RMK AC2CI2 SLP200

CYWG;2011-03-23 08:00;CYWG 230800Z 07015KT 15SM SCT120 BKN240 M07/M12 A3010 RMK AC2CI1 SLP208

CYWG;2011-03-23 09:00;CYWG 230900Z 06013KT 15SM FEW120 SCT240 M08/M13 A3011 RMK AC1CI1 SLP210

CYWG;2011-03-23 10:00;CYWG 231000Z 05011KT 15SM FEW240 M09/M13 A3012 RMK CI1 SLP215

CYWG;2011-03-23 11:00;CYWG 231100Z 05013KT 15SM FEW240 M10/M13 A3014 RMK CI1 SLP221

CYWG;2011-03-23 12:00;CYWG 231200Z 06015KT 15SM FEW240 M11/M14 A3015 RMK CI1 SLP227

CYWG;2011-03-23 13:00;CYWG 231300Z 06013KT 15SM FEW240 M11/M15 A3018 RMK CI1 SLP236

CYWG;2011-03-23 14:00;CYWG 231400Z 07014KT 15SM FEW240 M11/M14 A3019 RMK CI1 SLP240

CYWG;2011-03-23 15:00;CYWG 231500Z 08013KT 15SM FEW230 M10/M14 A3021 RMK CI1 SLP247

CYWG;2011-03-23 16:00;CYWG 231600Z 05014KT 15SM SKC M09/M13 A3024 RMK SLP256

CYWG;2011-03-23 17:00;CYWG 231700Z 06014KT 15SM SKC M08/M13 A3025 RMK SLP261

CYWG;2011-03-23 18:00;CYWG 231800Z 06012G18KT 15SM SKC M07/M13 A3026 RMK SLP265

CYWG;2011-03-23 19:00;CYWG 231900Z 05014KT 15SM SKC M05/M12 A3027 RMK SLP266

CYWG;2011-03-23 20:00;CYWG 232000Z 05011G16KT 15SM SKC M04/M13 A3026 RMK SLP265

CYWG;2011-03-23 21:00;CYWG 232100Z 04014KT 15SM SKC M04/M11 A3027 RMK SLP266

CYWG;2011-03-23 22:00;CYWG 232200Z 05013KT 15SM SKC M03/M12 A3026 RMK SLP265

CYWG;2011-03-23 23:00;CYWG 232300Z 03016KT 15SM SKC M03/M10 A3027 RMK SLP266

CYWG;2011-03-24 00:00;CYWG 240000Z 04010G16KT 15SM SKC M04/M10 A3027 RMK SLP270

CYWG;2011-03-24 01:00;CYWG 240100Z 02008KT 15SM SKC M06/M11 A3028 RMK SLP273

CYWG;2011-03-24 02:00;CYWG 240200Z 02006KT 15SM SKC M07/M11 A3029 RMK SLP276

CYWG;2011-03-24 03:00;CYWG 240300Z 01006KT 15SM SKC M08/M11 A3031 RMK SLP284

CYWG;2011-03-24 04:00;CYWG 240400Z 36005KT 15SM SKC M08/M12 A3032 RMK SLP286

CYWG;2011-03-24 05:00;CYWG 240500Z 32004KT 15SM SKC M11/M13 A3032 RMK SLP286

CYWG;2011-03-24 06:00;CYWG 240600Z 03003KT 15SM SKC M10/M14 A3032 RMK SLP287

CYWG;2011-03-24 07:00;CYWG 240700Z 05005KT 15SM SKC M11/M15 A3032 RMK SLP286

CYWG;2011-03-24 08:00;CYWG 240800Z 07003KT 15SM SKC M12/M15 A3032 RMK SLP287

CYWG;2011-03-24 09:00;CYWG 240900Z 04005KT 15SM SKC M12/M15 A3032 RMK FROIN SLP284

CYWG;2011-03-24 10:00;CYWG 241000Z 06004KT 15SM SKC M13/M15 A3031 RMK FROIN SLP282

CYWG;2011-03-24 11:00;CYWG 241100Z 05005KT 15SM SKC M14/M16 A3031 RMK SLP281

CYWG;2011-03-24 12:00;CYWG 241200Z 06003KT 15SM SKC M14/M15 A3031 RMK SLP283

CYWG;2011-03-24 13:00;CYWG 241300Z 00000KT 15SM SKC M13/M14 A3031 RMK SLP283

CYWG;2011-03-24 14:00;CYWG 241400Z 00000KT 15SM SKC M10/M13 A3031 RMK SLP284

CYWG;2011-03-24 15:00;CYWG 241500Z 31002KT 15SM SKC M08/M11 A3032 RMK SLP284

CYWG;2011-03-24 16:00;CYWG 241600Z 31004KT 15SM SKC M06/M10 A3032 RMK SLP285

CYWG;2011-03-24 17:00;CYWG 241700Z 31005KT 15SM SKC M05/M10 A3030 RMK SLP280

CYWG;2011-03-24 18:00;CYWG 241800Z 33006KT 15SM SKC M04/M11 A3029 RMK SLP276

CYWG;2011-03-24 19:00;CYWG 241900Z 32005KT 15SM SKC M03/M11 A3027 RMK SLP269

CYWG;2011-03-24 20:00;CYWG 242000Z 34006KT 15SM SKC M03/M12 A3025 RMK SLP264

CYWG;2011-03-24 21:00;CYWG 242100Z 34006KT 15SM SKC M03/M12 A3024 RMK SLP258

CYWG;2011-03-24 22:00;CYWG 242200Z 36006KT 15SM SKC M02/M11 A3022 RMK SLP252

CYWG;2011-03-24 23:00;CYWG 242300Z 01008KT 15SM SKC M03/M11 A3021 RMK SLP249

CYWG;2011-03-25 00:00;CYWG 250000Z 03008KT 15SM SKC M04/M10 A3022 RMK SLP253

CYWG;2011-03-25 01:00;CYWG 250100Z 03005KT 15SM SKC M06/M11 A3022 RMK SLP253

CYWG;2011-03-25 02:00;CYWG 250200Z 36006KT 15SM SKC M07/M10 A3022 RMK SLP254

CYWG;2011-03-25 03:00;CYWG 250300Z 35002KT 15SM SKC M08/M11 A3023 RMK SLP255

CYWG;2011-03-25 04:00;CYWG 250400Z 31003KT 15SM SKC M09/M11 A3023 RMK SLP254

CYWG;2011-03-25 05:00;CYWG 250500Z 33004KT 15SM SKC M10/M12 A3022 RMK SLP252

CYWG;2011-03-25 06:00;CYWG 250600Z 34004KT 15SM SKC M10/M13 A3022 RMK SLP251

CYWG;2011-03-25 07:00;CYWG 250700Z 33003KT 15SM SKC M10/M13 A3022 RMK FROIN SLP251

CYWG;2011-03-25 08:00;CYWG 250800Z 05007KT 15SM SKC M10/M15 A3022 RMK FROIN SLP251

CYWG;2011-03-25 09:00;CYWG 250900Z 04006KT 15SM SKC M11/M15 A3022 RMK SLP251

CYWG;2011-03-25 10:00;CYWG 251000Z 05006KT 15SM SKC M12/M15 A3022 RMK SLP252

CYWG;2011-03-25 11:00;CYWG 251100Z 04004KT 15SM SKC M13/M15 A3023 RMK SLP254

CYWG;2011-03-25 12:00;CYWG 251200Z 03005KT 15SM SKC M14/M16 A3023 RMK SLP257

CYWG;2011-03-25 13:00;CYWG 251300Z 04005KT 15SM SKC M13/M16 A3025 RMK SLP261

CYWG;2011-03-25 14:00;CYWG 251400Z 02003KT 15SM SKC M12/M14 A3026 RMK SLP265

CYWG;2011-03-25 15:00;CYWG 251500Z 02004KT 15SM SKC M09/M12 A3026 RMK SLP265

CYWG;2011-03-25 16:00;CYWG 251600Z 01005KT 15SM SKC M06/M10 A3026 RMK SLP265

CYWG;2011-03-25 17:00;CYWG 251700Z 01006KT 15SM SKC M05/M10 A3025 RMK SLP264

CYWG;2011-03-25 18:00;CYWG 251800Z 03009KT 15SM SKC M04/M09 A3025 RMK SLP263

CYWG;2011-03-25 19:00;CYWG 251900Z 05007KT 15SM SKC M02/M10 A3026 RMK SLP264

CYWG;2011-03-25 20:00;CYWG 252000Z 10006KT 15SM SKC M01/M12 A3025 RMK SLP263

CYWG;2011-03-25 21:00;CYWG 252100Z 09005KT 15SM SKC M01/M13 A3024 RMK SLP258

CYWG;2011-03-25 22:00;CYWG 252200Z 07008KT 15SM SKC M00/M11 A3024 RMK SLP258

CYWG;2011-03-25 23:00;CYWG 252300Z 06010KT 15SM SKC M01/M11 A3025 RMK SLP260

CYWG;2011-03-26 00:00;CYWG 260000Z 03013KT 15SM FEW230 M02/M09 A3026 RMK CI1 SLP265

CYWG;2011-03-26 01:00;CYWG 260100Z 03009KT 15SM FEW230 M04/M08 A3026 RMK CI1 SLP267

CYWG;2011-03-26 02:00;CYWG 260200Z 04007KT 15SM SKC M06/M09 A3028 RMK SLP271

CYWG;2011-03-26 03:00;CYWG 260300Z 05007KT 15SM SKC M07/M10 A3029 RMK SLP274

CYWG;2011-03-26 04:00;CYWG 260400Z 05005KT 15SM SKC M08/M10 A3030 RMK SLP278

CYWG;2011-03-26 05:00;CYWG 260500Z 09006KT 15SM SKC M07/M12 A3030 RMK SLP279

CYWG;2011-03-26 06:00;CYWG 260600Z 11011KT 15SM SKC M06/M13 A3030 RMK SLP278

CYWG;2011-03-26 07:00;CYWG 260700Z 12010G15KT 15SM SKC M06/M14 A3031 RMK SLP279

CYWG;2011-03-26 08:00;CYWG 260800Z 12008KT 15SM SKC M07/M15 A3030 RMK SLP278

CYWG;2011-03-26 09:00;CYWG 260900Z 10007KT 15SM SKC M08/M15 A3030 RMK SLP278

CYWG;2011-03-26 10:00;CYWG 261000Z 11006KT 15SM SKC M09/M15 A3032 RMK SLP282

CYWG;2011-03-26 11:00;CYWG 261100Z 07003KT 15SM SKC M10/M15 A3032 RMK SLP285

CYWG;2011-03-26 12:00;CYWG 261200Z 07004KT 15SM SKC M12/M15 A3033 RMK SLP289

CYWG;2011-03-26 13:00;CYWG 261300Z 08005KT 15SM SKC M11/M16 A3034 RMK SLP292

CYWG;2011-03-26 14:00;CYWG 261400Z 08005KT 15SM SKC M09/M17 A3034 RMK SLP293

CYWG;2011-03-26 15:00;CYWG 261500Z 10006KT 15SM SKC M07/M15 A3034 RMK SLP293

CYWG;2011-03-26 16:00;CYWG 261600Z 06004KT 15SM SKC M05/M14 A3034 RMK SLP293

CYWG;2011-03-26 17:00;CYWG 261700Z 04008KT 15SM FEW250 M04/M12 A3034 RMK CI1 SLP291

CYWG;2011-03-26 18:00;CYWG 261800Z 05008KT 15SM FEW250 M03/M13 A3033 RMK CI0 SLP286

CYWG;2011-03-26 19:00;CYWG 261900Z 04006KT 15SM FEW250 M03/M14 A3032 RMK CI0 SLP284

CYWG;2011-03-26 20:00;CYWG 262000Z 08005KT 15SM SKC M02/M15 A3031 RMK SLP280

CYWG;2011-03-26 21:00;CYWG 262100Z 07004KT 15SM SKC M02/M14 A3030 RMK SLP277

CYWG;2011-03-26 22:00;CYWG 262200Z 01010KT 15SM SKC M02/M11 A3030 RMK SLP276

CYWG;2011-03-26 23:00;CYWG 262300Z 01010KT 15SM SKC M02/M11 A3030 RMK SLP276

CYWG;2011-03-27 00:00;CYWG 270000Z 03011KT 15SM SKC M03/M10 A3030 RMK SLP279

CYWG;2011-03-27 01:00;CYWG 270100Z 04008KT 15SM SKC M05/M11 A3030 RMK SLP280

CYWG;2011-03-27 02:00;CYWG 270200Z 04006KT 15SM SKC M07/M11 A3031 RMK SLP282

CYWG;2011-03-27 03:00;CYWG 270300Z 02003KT 15SM SKC M07/M10 A3031 RMK SLP283

CYWG;2011-03-27 04:00;CYWG 270400Z 36003KT 15SM SKC M08/M11 A3031 RMK SLP281

CYWG;2011-03-27 05:00;CYWG 270500Z 03004KT 15SM SKC M09/M12 A3030 RMK SLP278

CYWG;2011-03-27 06:00;CYWG 270600Z 04004KT 15SM SKC M10/M13 A3029 RMK SLP276

CYWG;2011-03-27 07:00;CYWG 270700Z 05004KT 15SM SKC M09/M13 A3029 RMK SLP273

CYWG;2011-03-27 08:00;CYWG 270800Z 04005KT 15SM SKC M11/M13 A3029 RMK SLP273

CYWG;2011-03-27 09:00;CYWG 270900Z 06002KT 15SM SKC M11/M13 A3029 RMK SLP275

CYWG;2011-03-27 10:00;CYWG 271000Z 14002KT 15SM SKC M11/M12 A3029 RMK SLP276

CYWG;2011-03-27 11:00;CYWG 271100Z 13003KT 15SM SKC M09/M12 A3031 RMK SLP280

CYWG;2011-03-27 12:00;CYWG 271200Z 16004KT 15SM SKC M10/M12 A3032 RMK SLP283

CYWG;2011-03-27 13:00;CYWG 271300Z 17003KT 15SM SKC M09/M11 A3032 RMK SLP285

CYWG;2011-03-27 14:00;CYWG 271400Z 00000KT 15SM SKC M07/M10 A3033 RMK SLP287

CYWG;2011-03-27 15:00;CYWG 271500Z 33002KT 15SM SKC M05/M09 A3033 RMK SLP287

CYWG;2011-03-27 16:00;CYWG 271600Z 03002KT 15SM SKC M03/M10 A3033 RMK SLP288

CYWG;2011-03-27 17:00;CYWG 271700Z 35002KT 15SM SKC M02/M09 A3033 RMK SLP287

CYWG;2011-03-27 18:00;CYWG 271800Z 24004KT 15SM SKC M01/M10 A3032 RMK SLP285

CYWG;2011-03-27 19:00;CYWG 271900Z 31006KT 15SM SCT048 M01/M07 A3032 RMK CU4 SLP284

CYWG;2011-03-27 20:00;CYWG 272000Z 33007KT 15SM SCT043 M01/M07 A3031 RMK SC3 SLP281

CYWG;2011-03-27 21:00;CYWG 272100Z 34005KT 15SM SCT041 M01/M07 A3031 RMK SC3 SLP280

CYWG;2011-03-27 22:00;CYWG 272200Z 33005KT 15SM FEW043 M01/M08 A3030 RMK SC2 SLP278

CYWG;2011-03-27 23:00;CYWG 272300Z 32006KT 15SM FEW043 FEW250 M01/M07 A3030 RMK SC1CI1 SLP277

CYWG;2011-03-28 00:00;CYWG 280000Z 31005KT 15SM FEW040 FEW250 M01/M06 A3029 RMK CF1CI1 SLP275

CYWG;2011-03-28 01:00;CYWG 280100Z 34006KT 15SM FEW250 M04/M06 A3029 RMK CI1 SLP274

CYWG;2011-03-28 02:00;CYWG 280200Z 02005KT 15SM FEW250 M05/M08 A3029 RMK CI1 SLP273

CYWG;2011-03-28 03:00;CYWG 280300Z 36003KT 15SM SKC M06/M08 A3029 RMK SLP274

CYWG;2011-03-28 04:00;CYWG 280400Z 01003KT 15SM SKC M06/M08 A3030 RMK SLP276

CYWG;2011-03-28 05:00;CYWG 280500Z 00000KT 15SM SKC M07/M08 A3030 RMK SLP278

CYWG;2011-03-28 06:00;CYWG 280600Z 05003KT 15SM SKC M07/M08 A3031 RMK SLP279

CYWG;2011-03-28 07:00;CYWG 280700Z 06004KT 15SM SKC M07/M09 A3031 RMK SLP280

CYWG;2011-03-28 08:00;CYWG 280800Z 36002KT 15SM SKC M09/M10 A3031 RMK SLP278

CYWG;2011-03-28 09:00;CYWG 280900Z 03004KT 15SM SKC M08/M09 A3031 RMK SLP279

CYWG;2011-03-28 10:00;CYWG 281000Z 04005KT 15SM SKC M09/M11 A3031 RMK SLP279

CYWG;2011-03-28 11:00;CYWG 281100Z 05004KT 15SM SKC M10/M12 A3031 RMK SLP281

CYWG;2011-03-28 12:00;CYWG 281200Z 06003KT 15SM FEW150 FEW280 M10/M13 A3032 RMK AC1CI1 AC CI TR SLP284

CYWG;2011-03-28 13:00;CYWG 281300Z 06003KT 15SM FEW280 M09/M12 A3033 RMK CI1 SLP287

CYWG;2011-03-28 14:00;CYWG 281400Z 07003KT 15SM FEW280 M06/M12 A3033 RMK CI1 SLP288

CYWG;2011-03-28 15:00;CYWG 281500Z 09005KT 15SM FEW280 M02/M12 A3033 RMK CI1 SLP288

CYWG;2011-03-28 16:00;CYWG 281600Z 12005KT 15SM FEW280 M01/M11 A3034 RMK CI1 SLP290

CYWG;2011-03-28 17:00;CYWG 281700Z 14004KT 15SM FEW280 00/M14 A3035 RMK CI1 SLP292

CYWG;2011-03-28 18:00;CYWG 281800Z 15005KT 15SM FEW280 01/M12 A3034 RMK CI1 SLP289

CYWG;2011-03-28 19:00;CYWG 281900Z 16003KT 15SM FEW280 01/M13 A3033 RMK CI0 SLP285

CYWG;2011-03-28 20:00;CYWG 282000Z 33008KT 15SM FEW280 01/M09 A3032 RMK CI0 SLP284

CYWG;2011-03-28 21:00;CYWG 282100Z 34007KT 15SM FEW280 01/M08 A3032 RMK CI0 SLP281

CYWG;2011-03-28 22:00;CYWG 282200Z 34006KT 15SM SKC 00/M10 A3031 RMK SLP278

CYWG;2011-03-28 23:00;CYWG 282300Z 35007KT 15SM SKC 00/M09 A3030 RMK SLP277

CYWG;2011-03-29 00:00;CYWG 290000Z 35005KT 15SM SKC M01/M07 A3031 RMK SLP279

CYWG;2011-03-29 01:00;CYWG 290100Z 01005KT 15SM SKC M02/M08 A3031 RMK SLP279

CYWG;2011-03-29 02:00;CYWG 290200Z 32002KT 15SM SKC M04/M06 A3032 RMK SLP282

CYWG;2011-03-29 03:00;CYWG 290300Z 32003KT 15SM SKC M05/M07 A3033 RMK SLP285

CYWG;2011-03-29 04:00;CYWG 290400Z 36002KT 15SM SKC M05/M06 A3033 RMK SLP287

CYWG;2011-03-29 05:00;CYWG 290500Z 00000KT 15SM SKC M05/M06 A3034 RMK SLP288

CYWG;2011-03-29 06:00;CYWG 290600Z 00000KT 15SM SKC M06/M07 A3034 RMK SLP289

CYWG;2011-03-29 07:00;CYWG 290700Z 04002KT 15SM SKC M06/M08 A3035 RMK SLP291

CYWG;2011-03-29 08:00;CYWG 290800Z 05002KT 15SM SKC M07/M08 A3034 RMK SLP289

CYWG;2011-03-29 09:00;CYWG 290900Z 00000KT 15SM SKC M08/M09 A3034 RMK SLP291

CYWG;2011-03-29 10:00;CYWG 291000Z 36002KT 15SM SKC M08/M09 A3035 RMK SLP292

CYWG;2011-03-29 11:00;CYWG 291100Z 32002KT 15SM SKC M09/M09 A3035 RMK SLP295

CYWG;2011-03-29 12:00;CYWG 291200Z 34002KT 15SM FEW250 M09/M09 A3037 RMK CI0 SLP301

CYWG;2011-03-29 13:00;CYWG 291300Z 00000KT 15SM FEW250 M08/M09 A3038 RMK CI1 SLP304

CYWG;2011-03-29 14:00;CYWG 291400Z 00000KT 15SM FEW250 M05/M07 A3038 RMK CI0 SLP304

CYWG;2011-03-29 15:00;CYWG 291500Z 00000KT 15SM SKC M03/M06 A3037 RMK SLP301

CYWG;2011-03-29 16:00;CYWG 291600Z CCA 00000KT 15SM SKC M01/M08 A3037 RMK SLP299

CYWG;2011-03-29 17:00;CYWG 291700Z 20004KT 15SM SKC 01/M12 A3036 RMK SLP296

CYWG;2011-03-29 18:00;CYWG 291800Z 18006KT 15SM SKC 02/M09 A3034 RMK SLP290

CYWG;2011-03-29 19:00;CYWG 291900Z 18007KT 15SM FEW035 FEW250 03/M10 A3033 RMK CF1CI1 SLP287

CYWG;2011-03-29 20:00;CYWG 292000Z 17009KT 15SM FEW250 03/M10 A3031 RMK CI1 SLP280

CYWG;2011-03-29 21:00;CYWG 292100Z 23007KT 15SM FEW250 03/M10 A3029 RMK CI1 SLP273

CYWG;2011-03-29 22:00;CYWG 292200Z 18009KT 15SM FEW250 03/M09 A3028 RMK CI1 SLP268

CYWG;2011-03-29 23:00;CYWG 292300Z 18006KT 15SM FEW250 02/M08 A3026 RMK CI1 SLP263

CYWG;2011-03-30 00:00;CYWG 300000Z 18006KT 15SM FEW040 FEW250 02/M07 A3025 RMK SC1CI1 SLP260

CYWG;2011-03-30 01:00;CYWG 300100Z 17005KT 15SM FEW040 FEW080 FEW250 M00/M06 A3024 RMK SC1AC1CI1 SLP257

CYWG;2011-03-30 02:00;CYWG 300200Z 15006KT 15SM FEW040 FEW080 FEW250 M01/M06 A3023 RMK SC1AC1CI1 SLP254

CYWG;2011-03-30 03:00;CYWG 300300Z 16005KT 15SM SKC M03/M06 A3023 RMK SLP251

CYWG;2011-03-30 04:00;CYWG 300400Z 18006KT 15SM BKN055 M01/M05 A3022 RMK SC4 SLP249

CYWG;2011-03-30 05:00;CYWG 300500Z 19006KT 15SM SCT055 M01/M05 A3020 RMK SC3 SLP242

CYWG;2011-03-30 06:00;CYWG 300600Z 19004KT 15SM FEW051 M03/M05 A3019 RMK SC2 SLP236

CYWG;2011-03-30 07:00;CYWG 300700Z 17006KT 15SM SCT050 M03/M05 A3017 RMK SC2 SLP231

CYWG;2011-03-30 08:00;CYWG 300800Z 16004KT 15SM BKN052 M03/M05 A3016 RMK SC5 SLP228

CYWG;2011-03-30 09:00;CYWG 300900Z 17006KT 15SM FEW052 M03/M04 A3015 RMK SC2 SLP224

CYWG;2011-03-30 10:00;CYWG 301000Z 18006KT 15SM FEW052 M04/M05 A3013 RMK SC1 SLP218

CYWG;2011-03-30 11:00;CYWG 301100Z 17006KT 15SM FEW052 BKN100 M03/M04 A3013 RMK SC2AC4 SLP216

CYWG;2011-03-30 12:00;CYWG 301200Z 16007KT 15SM BKN085 OVC250 M03/M03 A3011 RMK AC6CI1 SLP210

CYWG;2011-03-30 13:00;CYWG 301300Z 16007KT 15SM FEW080 BKN250 M02/M03 A3011 RMK AC2CI1 SLP208

CYWG;2011-03-30 14:00;CYWG 301400Z 17010KT 15SM SCT077 BKN250 M01/M03 A3009 RMK AC2CI1 SLP204

CYWG;2011-03-30 15:00;CYWG 301500Z 18012KT 15SM FEW047 BKN078 OVC250 M00/M03 A3007 RMK SC1AC2CI1 SLP196

CYWG;2011-03-30 16:00;CYWG 301600Z 17014KT 15SM FEW047 BKN089 OVC250 02/M02 A3006 RMK SC2AC2CI2 SLP191

CYWG;2011-03-30 17:00;CYWG 301700Z 17013KT 15SM FEW035 SCT082 OVC250 02/M02 A3004 RMK SC2AC2CI2 SLP185

CYWG;2011-03-30 18:00;CYWG 301800Z 17015KT 15SM FEW035 SCT073 BKN250 03/M02 A3002 RMK SC1AC2CI2 SLP177

CYWG;2011-03-30 19:00;CYWG 301900Z 18015KT 15SM FEW089 BKN250 03/M01 A2999 RMK AC1CI1 AC TR SLP167

CYWG;2011-03-30 20:00;CYWG 302000Z 18016KT 15SM FEW030 FEW100 BKN250 03/M01 A2997 RMK CU1AC1CI1 CU TR SLP161

CYWG;2011-03-30 21:00;CYWG 302100Z 17016G22KT 15SM FEW025 SCT047 BKN250 04/M01 A2994 RMK CU1SC2CI1 CU TR SLP152

CYWG;2011-03-30 22:00;CYWG 302200Z 17016G21KT 15SM FEW027 BKN044 03/M02 A2991 RMK CU1SC4 SLP142

CYWG;2011-03-30 23:00;CYWG 302300Z 17017KT 15SM OVC047 03/M02 A2990 RMK SC8 SLP137

CYWG;2011-03-31 00:00;CYWG 310000Z 17015KT 15SM OVC045 02/M01 A2988 RMK SC8 SLP132

CYWG;2011-03-31 01:00;CYWG 310100Z 17013G18KT 15SM OVC041 01/M02 A2987 RMK SC8 SLP129

CYWG;2011-03-31 02:00;CYWG 310200Z 17012KT 15SM OVC041 01/M02 A2987 RMK SC8 SLP126

CYWG;2011-03-31 03:00;CYWG 310300Z 18012KT 15SM BKN041 OVC079 01/M02 A2985 RMK SC6AC2 SLP120

CYWG;2011-03-31 04:00;CYWG 310400Z 17013KT 15SM OVC039 01/M03 A2984 RMK SC8 SLP116

CYWG;2011-03-31 05:00;CYWG 310500Z 17012KT 15SM OVC037 00/M02 A2982 RMK SC8 SLP109

CYWG;2011-03-31 06:00;CYWG 310600Z 18011KT 15SM OVC037 00/M02 A2980 RMK SC8 SLP101

CYWG;2011-03-31 07:00;CYWG 310700Z 18010KT 15SM BKN037 OVC071 00/M02 A2978 RMK SC6AC2 SLP095

CYWG;2011-03-31 08:00;CYWG 310800Z 18009KT 15SM BKN020 OVC071 00/M02 A2977 RMK SC6AC2 SLP091

CYWG;2011-03-31 09:00;CYWG 310900Z 18010KT 15SM SCT017 OVC035 00/M01 A2974 RMK SC3SC5 SLP083

CYWG;2011-03-31 10:00;CYWG 311000Z 17009KT 15SM BKN021 OVC035 00/M01 A2973 RMK SC5SC3 SLP079

CYWG;2011-03-31 11:00;CYWG 311100Z 18009KT 15SM OVC033 00/M01 A2972 RMK SC8 SLP075

CYWG;2011-03-31 12:00;CYWG 311200Z 18010KT 10SM OVC031 00/M01 A2971 RMK SC8 BR SLP071

CYWG;2011-03-31 13:00;CYWG 311300Z 18010KT 12SM OVC028 01/M01 A2970 RMK SC8 BR SLP070

CYWG;2011-03-31 13:49;CYWG 311349Z 18012KT 10SM BKN010 OVC020 01/ RMK ST5SC3 BR

CYWG;2011-03-31 14:00;CYWG 311400Z 18011KT 10SM OVC010 01/M00 A2969 RMK ST8 BR SLP066

CYWG;2011-03-31 14:46;CYWG 311446Z 18012KT 10SM OVC009 01/ RMK ST8 BR

CYWG;2011-03-31 15:00;CYWG 311500Z 18012KT 6SM BR OVC008 01/00 A2967 RMK ST8 SLP060

CYWG;2011-03-31 16:00;CYWG 311600Z 18011KT 6SM BR OVC008 01/00 A2967 RMK ST8 SLP060

CYWG;2011-03-31 17:00;CYWG 311700Z 18012KT 6SM BR OVC007 01/00 A2967 RMK ST8 SLP057

CYWG;2011-03-31 18:00;CYWG 311800Z 17013KT 5SM BR OVC007 02/01 A2963 RMK ST8 SLP044

CYWG;2011-03-31 19:00;CYWG 311900Z 18012KT 6SM BR OVC009 03/01 A2961 RMK ST8 SLP039

CYWG;2011-03-31 20:00;CYWG 312000Z 18011KT 6SM BR BKN008 OVC016 03/02 A2959 RMK ST7SC1 SLP031

CYWG;2011-03-31 21:00;CYWG 312100Z 17014KT 5SM BR OVC007 02/02 A2957 RMK ST8 SLP026

CYWG;2011-03-31 21:52;CYWG 312152Z 17010G15KT 5SM -SHRA BR OVC007 03/ RMK ST8

CYWG;2011-03-31 22:00;CYWG 312200Z 18011KT 5SM -SHRA BR OVC007 02/02 A2957 RMK ST8 SLP024

CYWG;2011-03-31 22:34;CYWG 312234Z 17011KT 2 1/2SM -SHRA BR OVC007 02/ RMK ST8

CYWG;2011-03-31 22:53;CYWG 312253Z 17011KT 2 1/4SM -SHRASN BR OVC005 02/ RMK ST8

CYWG;2011-03-31 23:00;CYWG 312300Z 18010G15KT 1 3/4SM -SHRASN BR OVC005 02/02 A2956 RMK ST8 SLP021

CYWG;2011-03-31 23:12;CYWG 312312Z 18010KT 1 1/2SM -SHRASN BR OVC004 01/ RMK ST8

CYWG;2011-03-31 23:47;CYWG 312347Z 18010KT 1 3/4SM -SHSN BR OVC004 01/ RMK ST8

CYWG;2011-04-01 01:00;CYWG 010100Z 17008KT 1SM R13/P6000FT/D R36/P6000FT/U BR OVC003 01/01 A2954 RMK FG2ST6 SLP016

CYWG;2011-04-01 01:32;CYWG 010132Z 18007KT 1 1/4SM BR OVC004 01/ RMK FG2ST6

CYWG;2011-04-01 02:00;CYWG 010200Z 18006KT 1 1/2SM BR OVC004 01/01 A2955 RMK FG2ST6 SLP018

CYWG;2011-04-01 02:45;CYWG 010245Z 18006KT 1 3/4SM BR OVC003 01/ RMK ST8

CYWG;2011-04-01 03:00;CYWG 010300Z 18006KT 1 3/4SM BR OVC004 01/01 A2955 RMK FG2ST6 SLP017

CYWG;2011-04-01 03:26;CYWG 010326Z 18006KT 1 1/2SM BR BKN003 OVC016 01/ RMK FG3ST3SC2

CYWG;2011-04-01 03:50;CYWG 010350Z 18006KT 1 1/2SM BR BKN002 OVC029 01/ RMK FG2ST2SC3

CYWG;2011-04-01 04:00;CYWG 010400Z 19005KT 1 1/4SM BR BKN001 OVC025 01/01 A2954 RMK FG3ST2SC3 SLP014

CYWG;2011-04-01 04:21;CYWG 010421Z 17004KT 1 1/4SM BR BKN002 OVC023 01/ RMK FG3ST2SC2

CYWG;2011-04-01 05:00;CYWG 010500Z 18004KT 1SM R13/P6000FT/N R36/P6000FT/D BR BKN002 OVC021 01/01 A2953 RMK FG3ST3SC2 SLP011

CYWG;2011-04-01 05:30;CYWG 010530Z 16004KT 1 1/4SM BR SCT002 OVC019 01/ RMK FG2ST1SC5

CYWG;2011-04-01 05:49;CYWG 010549Z 18004KT 1 1/2SM BR OVC021 01/ RMK FG2SC6

CYWG;2011-04-01 06:00;CYWG 010600Z 18004KT 1 1/4SM BR OVC021 01/01 A2952 RMK FG2SC4 SLP007

CYWG;2011-04-01 06:24;CYWG 010624Z 17003KT 1 1/4SM BR BKN023 00/ RMK FG2SC3

CYWG;2011-04-01 07:00;CYWG 010700Z 17003KT 1 1/4SM BR BKN021 00/00 A2952 RMK FG2SC3 SLP007

CYWG;2011-04-01 08:00;CYWG 010800Z 17004KT 15SM SCT038 M01/M01 A2951 RMK SC2 SLP004

CYWG;2011-04-01 08:40;CYWG 010840Z 21003KT 2 1/2SM BR FEW036 SCT210 M01/ RMK SC1CI0

CYWG;2011-04-01 09:00;CYWG 010900Z 25003KT 4SM BR FEW042 SCT210 M01/M01 A2951 RMK SC2CI0 SLP003

CYWG;2011-04-01 10:00;CYWG 011000Z 27006KT 6SM BR BKN045 M00/M00 A2951 RMK SC5 SLP005

CYWG;2011-04-01 11:00;CYWG 011100Z 28005KT 15SM BKN047 M00/M00 A2952 RMK SC6 SLP008

CYWG;2011-04-01 12:00;CYWG 011200Z 30008KT 6SM BR BKN044 OVC092 00/M00 A2954 RMK SC6AC2 SLP013

CYWG;2011-04-01 13:00;CYWG 011300Z 31007KT 10SM BKN016 OVC094 00/M00 A2955 RMK SC6AC2 BR SLP017

CYWG;2011-04-01 14:00;CYWG 011400Z 30008KT 10SM BKN018 OVC096 01/00 A2956 RMK SC7AC1 SLP021

CYWG;2011-04-01 15:00;CYWG 011500Z 30008KT 10SM BKN013 OVC039 01/01 A2957 RMK SC6SC2 BR SLP024

CYWG;2011-04-01 15:40;CYWG 011540Z 29007KT 10SM BKN016 OVC042 01/ RMK SC6SC2 BR

CYWG;2011-04-01 16:00;CYWG 011600Z 30007KT 10SM BKN014 OVC042 01/01 A2958 RMK SC7SC1 BR SLP027

CYWG;2011-04-01 17:00;CYWG 011700Z 28007KT 10SM -DZ BKN017 OVC042 02/02 A2959 RMK SC7SC1 BR SLP031

CYWG;2011-04-01 17:32;CYWG 011732Z 29008KT 10SM FEW010 BKN013 OVC053 03/ RMK SF2SC6SC1 BR

CYWG;2011-04-01 17:45;CYWG 011745Z 29009KT 12SM SCT009 BKN021 OVC053 02/ RMK SF3SC3SC2 BR

CYWG;2011-04-01 18:00;CYWG 011800Z 30011KT 15SM SCT009 BKN019 OVC053 03/02 A2960 RMK SF3SC3SC2 SLP033

CYWG;2011-04-01 19:00;CYWG 011900Z 30013KT 15SM FEW011 BKN050 03/02 A2960 RMK SF1SC6 SLP035

CYWG;2011-04-01 20:00;CYWG 012000Z 31015KT 15SM FEW013 BKN043 03/02 A2961 RMK SF1SC6 SLP037

CYWG;2011-04-01 21:00;CYWG 012100Z 32012KT 15SM OVC041 03/01 A2961 RMK SC8 SLP039

CYWG;2011-04-01 22:00;CYWG 012200Z 30010KT 15SM BKN020 OVC039 03/01 A2964 RMK SC6SC2 SLP046

CYWG;2011-04-01 23:00;CYWG 012300Z 30009KT 15SM OVC030 03/01 A2965 RMK SC8 SLP050

CYWG;2011-04-02 00:00;CYWG 020000Z 30007KT 15SM BKN037 03/01 A2966 RMK SC5 SLP055

CYWG;2011-04-02 01:00;CYWG 020100Z 28006KT 15SM FEW037 SCT210 01/M00 A2967 RMK SC2CI1 SLP057

CYWG;2011-04-02 02:00;CYWG 020200Z 29006KT 15SM FEW037 M01/M01 A2968 RMK SC1 TCU DIST W SLP063

CYWG;2011-04-02 03:00;CYWG 020300Z 27006KT 15SM SKC M00/M01 A2970 RMK SLP069

CYWG;2011-04-02 04:00;CYWG 020400Z 26006KT 15SM SKC M00/M01 A2970 RMK SLP071

CYWG;2011-04-02 05:00;CYWG 020500Z 25005KT 15SM FEW030 M01/M02 A2970 RMK SC1 SLP071

CYWG;2011-04-02 06:00;CYWG 020600Z 27005KT 15SM SKC M02/M02 A2972 RMK SLP075

CYWG;2011-04-02 07:00;CYWG 020700Z 27005KT 15SM BKN068 M00/M01 A2972 RMK AC2 SLP077

CYWG;2011-04-02 08:00;CYWG 020800Z 26006KT 15SM SKC M01/M01 A2972 RMK SLP075

CYWG;2011-04-02 09:00;CYWG 020900Z 25005KT 9SM SKC M01/M02 A2973 RMK BR SLP077

CYWG;2011-04-02 10:00;CYWG 021000Z 27005KT 9SM SKC M02/M02 A2973 RMK BR SLP079

CYWG;2011-04-02 11:00;CYWG 021100Z 27006KT 10SM FEW050 M02/M03 A2975 RMK SC1 SLP085

CYWG;2011-04-02 12:00;CYWG 021200Z 27006KT 10SM FEW080 M02/M03 A2976 RMK AC1 SLP088

CYWG;2011-04-02 13:00;CYWG 021300Z 26005KT 15SM SKC M01/M02 A2976 RMK SLP090

CYWG;2011-04-02 14:00;CYWG 021400Z 27003KT 15SM SKC 01/M01 A2976 RMK SLP089

CYWG;2011-04-02 15:00;CYWG 021500Z 27006KT 15SM SKC 02/M00 A2978 RMK SLP095

CYWG;2011-04-02 16:00;CYWG 021600Z 27005KT 15SM SKC 03/00 A2979 RMK SLP100

CYWG;2011-04-02 17:00;CYWG 021700Z 00000KT 15SM SCT250 05/02 A2978 RMK CI0 SLP097

CYWG;2011-04-02 18:00;CYWG 021800Z 22007KT 15SM SCT250 06/01 A2978 RMK CI0 SLP095

CYWG;2011-04-02 19:00;CYWG 021900Z 21009KT 15SM SCT250 07/02 A2978 RMK CS1 PARHELION SLP096

CYWG;2011-04-02 20:00;CYWG 022000Z 21005KT 15SM FEW250 08/02 A2977 RMK CS1 SLP090

CYWG;2011-04-02 21:00;CYWG 022100Z 21005KT 15SM FEW250 SCT280 09/03 A2975 RMK CS1CI1 SLP085

CYWG;2011-04-02 22:00;CYWG 022200Z 22003KT 15SM BKN250 09/04 A2975 RMK CS6 SLP085

CYWG;2011-04-02 23:00;CYWG 022300Z 18003KT 15SM BKN200 08/03 A2973 RMK CS7 SLP078

CYWG;2011-04-03 00:00;CYWG 030000Z 18005KT 15SM BKN150 BKN200 OVC250 07/04 A2974 RMK AS5CS2CI2 SLP081

CYWG;2011-04-03 01:00;CYWG 030100Z 14003KT 15SM OVC120 06/03 A2973 RMK AS8 SLP079

CYWG;2011-04-03 02:00;CYWG 030200Z 06002KT 15SM OVC120 04/03 A2974 RMK AS8 SLP080

CYWG;2011-04-03 03:00;CYWG 030300Z 06004KT 15SM OVC120 04/03 A2973 RMK AS8 SLP078

CYWG;2011-04-03 04:00;CYWG 030400Z 08003KT 15SM SCT087 OVC120 04/03 A2972 RMK AC4AS4 SLP075

CYWG;2011-04-03 05:00;CYWG 030500Z 11004KT 15SM FEW020 OVC062 04/03 A2973 RMK SC2SC6 SLP077

CYWG;2011-04-03 05:47;CYWG 030547Z 18007KT 15SM -RA OVC022 04/ RMK SC8

CYWG;2011-04-03 06:00;CYWG 030600Z 15004KT 15SM -RA OVC022 04/03 A2974 RMK SC8 SLP078

CYWG;2011-04-03 07:00;CYWG 030700Z 21006KT 10SM -RA OVC021 03/03 A2974 RMK SC8 SLP080

CYWG;2011-04-03 08:00;CYWG 030800Z 23003KT 10SM -RA FEW006 OVC018 03/02 A2974 RMK SF1SC7 SLP079

CYWG;2011-04-03 08:30;CYWG 030830Z 00000KT 10SM -RA FEW006 OVC013 02/ RMK SF2SC6

CYWG;2011-04-03 08:55;CYWG 030855Z 00000KT 10SM -RA BKN006 OVC015 02/ RMK SF6SC2

CYWG;2011-04-03 09:00;CYWG 030900Z 05003KT 10SM -RA BKN006 OVC015 02/02 A2971 RMK SF6SC2 SLP070

CYWG;2011-04-03 10:00;CYWG 031000Z 04006KT 10SM -RA SCT006 OVC013 02/02 A2969 RMK SF3SC5 SLP062

CYWG;2011-04-03 11:00;CYWG 031100Z 04009KT 10SM -RA FEW006 OVC023 02/02 A2968 RMK SF1SC7 SLP059

CYWG;2011-04-03 12:00;CYWG 031200Z 05010KT 8SM -RA OVC020 02/02 A2964 RMK SC8 SLP047

CYWG;2011-04-03 13:00;CYWG 031300Z 04010KT 8SM -RA OVC022 02/02 A2966 RMK SC8 BR SLP052

CYWG;2011-04-03 13:22;CYWG 031322Z 03012KT 6SM -RASN SCT003 OVC016 01/ RMK SF3SC5

CYWG;2011-04-03 14:00;CYWG 031400Z 03014KT 2SM -RASN SCT003 OVC012 01/01 A2967 RMK SF4SC4 SLP056

CYWG;2011-04-03 14:12;CYWG 031412Z 03013KT 1SM R13/P6000FT/U R36/P6000FT/U -RASN BKN003 OVC010 01/ RMK SN1SF5SC2

CYWG;2011-04-03 15:00;CYWG 031500Z 04010KT 1SM R13/P6000FT/U R36/P6000FT/U -SN BKN003 OVC010 01/01 A2966 RMK SN1SF6SC2 SLP054

CYWG;2011-04-03 15:29;CYWG 031529Z 04012KT 2SM -SN BKN003 OVC017 01/ RMK SF5SC3

CYWG;2011-04-03 16:00;CYWG 031600Z 03013KT 2SM -SN BKN003 OVC012 01/01 A2966 RMK SF6SC2 SLP055

CYWG;2011-04-03 16:11;CYWG 031611Z 04012KT 1 1/2SM -SN BKN003 OVC014 01/ RMK SF6SC2

CYWG;2011-04-03 17:00;CYWG 031700Z 03013KT 1 1/2SM -SN BKN003 OVC012 01/01 A2965 RMK SF6SC2 SLP050

CYWG;2011-04-03 18:00;CYWG 031800Z 03014KT 3SM -SN BR BKN003 OVC012 01/01 A2964 RMK SF6SC2 SLP046

CYWG;2011-04-03 18:27;CYWG 031827Z 03014G19KT 5SM -RASN BR BKN003 OVC012 01/ RMK SF7SC1

CYWG;2011-04-03 18:45;CYWG 031845Z 03014KT 6SM -RA BR OVC002 01/ RMK SF8

CYWG;2011-04-03 19:00;CYWG 031900Z 02015KT 5SM -RA BR OVC002 01/01 A2965 RMK SF8 SLP052

CYWG;2011-04-03 19:07;CYWG 031907Z 03016G21KT 5SM -RA BR OVC003 01/ RMK SF8

CYWG;2011-04-03 19:30;CYWG 031930Z 02018KT 6SM -RA BR OVC004 02/ RMK SF8

CYWG;2011-04-03 19:55;CYWG 031955Z 02019KT 6SM -RA BR OVC003 02/ RMK SF8

CYWG;2011-04-03 20:00;CYWG 032000Z 02020KT 6SM -RA BR OVC003 01/01 A2966 RMK SF8 SLP053

CYWG;2011-04-03 20:10;CYWG 032010Z 02018KT 2 1/2SM -RASN BR OVC003 01/ RMK SF8

CYWG;2011-04-03 20:31;CYWG 032031Z 02019KT 1 1/4SM -RASN BR OVC003 01/ RMK SF8

CYWG;2011-04-03 21:00;CYWG 032100Z 02017KT 1 1/4SM -RASN BR OVC003 01/01 A2967 RMK SF8 SLP058

CYWG;2011-04-03 21:31;CYWG 032131Z 02017G24KT 1 1/2SM -RASN BR OVC003 01/ RMK SF8

CYWG;2011-04-03 21:40;CYWG 032140Z CCA 02018KT 5SM -RASN BR OVC003 01/ RMK SF8 VIS NE-SE 11/2

CYWG;2011-04-03 22:00;CYWG 032200Z 01020G25KT 5SM -RASN BR OVC003 02/02 A2968 RMK SF8 VIS NE-SE 2 SLP062

CYWG;2011-04-03 22:07;CYWG 032207Z 01020KT 6SM -RA BR OVC004 02/ RMK SF8

CYWG;2011-04-03 22:17;CYWG 032217Z 01019G25KT 6SM -RA BR OVC005 02/ RMK SF8

CYWG;2011-04-03 22:52;CYWG 032252Z 01016G24KT 10SM -RA BKN010 OVC046 02/ RMK SF5SC3

CYWG;2011-04-03 23:00;CYWG 032300Z 01017G22KT 12SM -RA BKN013 OVC046 03/01 A2970 RMK SF5SC3 SLP067

CYWG;2011-04-03 23:08;CYWG 032308Z 01019KT 15SM -RA FEW013 BKN040 OVC055 03/ RMK SF2SC4SC2

CYWG;2011-04-03 23:29;CYWG 032329Z 01015G21KT 15SM FEW023 BKN040 BKN055 03/ RMK SC1SC4SC2

CYWG;2011-04-04 00:00;CYWG 040000Z 36015G20KT 15SM FEW026 BKN049 BKN082 03/M01 A2973 RMK SC1SC4AS2 SLP079

CYWG;2011-04-04 01:00;CYWG 040100Z 35014KT 15SM BKN048 BKN085 02/M02 A2975 RMK SC5AS2 SLP086

CYWG;2011-04-04 02:00;CYWG 040200Z 35015KT 15SM BKN035 BKN083 02/M03 A2978 RMK SC6AS1 SLP094

CYWG;2011-04-04 03:00;CYWG 040300Z 34014KT 15SM FEW080 01/M04 A2980 RMK AC1 SLP102

CYWG;2011-04-04 04:00;CYWG 040400Z 35015KT 15SM SKC 00/M04 A2980 RMK SLP103

CYWG;2011-04-04 05:00;CYWG 040500Z 35013KT 15SM SKC M00/M05 A2981 RMK SLP106

CYWG;2011-04-04 06:00;CYWG 040600Z 35012KT 15SM SKC M01/M05 A2982 RMK SLP111

CYWG;2011-04-04 07:00;CYWG 040700Z 34010KT 15SM SKC M01/M05 A2983 RMK SLP113

CYWG;2011-04-04 08:00;CYWG 040800Z 33013KT 15SM FEW060 M02/M05 A2983 RMK SC1 SLP113

CYWG;2011-04-04 09:00;CYWG 040900Z 33012KT 15SM FEW056 FEW089 M01/M05 A2983 RMK SC1AC2 SLP112

CYWG;2011-04-04 10:00;CYWG 041000Z 34010KT 15SM FEW060 M02/M05 A2983 RMK SC1 SLP115

CYWG;2011-04-04 11:00;CYWG 041100Z 32009KT 15SM FEW220 M02/M05 A2985 RMK CI0 SLP121

CYWG;2011-04-04 12:00;CYWG 041200Z 33009KT 15SM FEW220 M02/M05 A2986 RMK CI0 SLP123

CYWG;2011-04-04 13:00;CYWG 041300Z 31008KT 15SM FEW120 FEW220 M02/M04 A2987 RMK AC1CI1 SLP128

CYWG;2011-04-04 14:00;CYWG 041400Z 34010KT 15SM SCT110 SCT220 M01/M04 A2988 RMK AC3CI1 SLP129

CYWG;2011-04-04 15:00;CYWG 041500Z 30008KT 15SM FEW099 SCT220 M01/M03 A2986 RMK AC2CI0 SLP124

CYWG;2011-04-04 16:00;CYWG 041600Z 30006KT 15SM FEW099 FEW220 01/M03 A2984 RMK AC1CI1 CI TR SLP118

CYWG;2011-04-04 17:00;CYWG 041700Z 30007KT 15SM FEW030 FEW100 01/M03 A2983 RMK CU1AC1 SLP114

CYWG;2011-04-04 18:00;CYWG 041800Z 29008KT 15SM FEW057 FEW100 02/M02 A2981 RMK SC1AC1 SLP107

CYWG;2011-04-04 19:00;CYWG 041900Z 27009KT 15SM FEW057 SCT100 04/M01 A2979 RMK SC2AC2 SLP100

CYWG;2011-04-04 20:00;CYWG 042000Z 27009KT 15SM FEW073 04/M00 A2977 RMK AC2 SLP093

CYWG;2011-04-04 21:00;CYWG 042100Z 28012KT 15SM FEW099 04/M02 A2975 RMK AC2 SLP086

CYWG;2011-04-04 22:00;CYWG 042200Z 29011KT 15SM FEW100 05/M02 A2974 RMK AC1 SLP081

CYWG;2011-04-04 23:00;CYWG 042300Z 27012KT 15SM FEW100 05/M01 A2974 RMK AC1 SLP081

CYWG;2011-04-05 00:00;CYWG 050000Z 27012KT 15SM FEW100 04/M02 A2973 RMK AC1 SLP078

CYWG;2011-04-05 01:00;CYWG 050100Z 26007KT 15SM FEW100 02/M01 A2971 RMK AC1 SLP073

CYWG;2011-04-05 02:00;CYWG 050200Z 26006KT 15SM SKC 01/M02 A2970 RMK SLP068

CYWG;2011-04-05 03:00;CYWG 050300Z 24007KT 15SM SKC 01/M02 A2968 RMK SLP064

CYWG;2011-04-05 04:00;CYWG 050400Z 24009KT 15SM SKC 00/M02 A2967 RMK SLP058

CYWG;2011-04-05 05:00;CYWG 050500Z 23007KT 15SM SKC M01/M03 A2964 RMK SLP051

CYWG;2011-04-05 06:00;CYWG 050600Z 22005KT 15SM SKC M02/M03 A2962 RMK SLP043

CYWG;2011-04-05 07:00;CYWG 050700Z 20005KT 15SM SKC M01/M03 A2961 RMK SLP037

CYWG;2011-04-05 08:00;CYWG 050800Z 20005KT 15SM SKC M02/M03 A2959 RMK SLP032

CYWG;2011-04-05 09:00;CYWG 050900Z 19005KT 15SM SKC M02/M03 A2958 RMK SLP027

CYWG;2011-04-05 10:00;CYWG 051000Z 21004KT 15SM SKC M02/M03 A2957 RMK SLP023

CYWG;2011-04-05 11:00;CYWG 051100Z 13004KT 10SM SKC M03/M03 A2956 RMK BR SLP020

CYWG;2011-04-05 12:00;CYWG 051200Z 17004KT 8SM FEW240 M03/M03 A2956 RMK CI0 BR SLP020

CYWG;2011-04-05 13:00;CYWG 051300Z 17003KT 8SM FEW100 SCT240 M02/M02 A2955 RMK AC1CI0 BR AC TR SLP018

CYWG;2011-04-05 14:00;CYWG 051400Z 17003KT 10SM FEW100 FEW240 00/M00 A2955 RMK AC1CI0 BR SLP018

CYWG;2011-04-05 15:00;CYWG 051500Z 21002KT 12SM FEW100 SCT240 02/00 A2956 RMK AC1CI0 BR AC TR SLP020

CYWG;2011-04-05 16:00;CYWG 051600Z 34004KT 15SM BKN240 03/01 A2956 RMK CI1 SLP021

CYWG;2011-04-05 17:00;CYWG 051700Z 00000KT 15SM BKN240 05/02 A2956 RMK CI1 SLP020

CYWG;2011-04-05 18:00;CYWG 051800Z 01005KT 15SM BKN240 05/03 A2955 RMK CI2 SLP018

CYWG;2011-04-05 19:00;CYWG 051900Z 36005KT 15SM FEW014 BKN250 06/02 A2956 RMK CF1CI2 SLP019

CYWG;2011-04-05 20:00;CYWG 052000Z 36004KT 15SM FEW014 BKN240 06/02 A2956 RMK CF1CI2 SLP020

CYWG;2011-04-05 21:00;CYWG 052100Z 33004KT 15SM FEW017 BKN240 07/02 A2956 RMK CU1CI2 SLP021

CYWG;2011-04-05 22:00;CYWG 052200Z 34004KT 15SM FEW017 SCT240 07/01 A2957 RMK CU1CI1 SLP022

CYWG;2011-04-05 23:00;CYWG 052300Z 33005KT 15SM FEW017 FEW240 06/M01 A2958 RMK CU1CI1 SLP026

CYWG;2011-04-06 00:00;CYWG 060000Z 33006KT 15SM FEW100 SCT240 06/01 A2959 RMK AC1CI1 SLP032

CYWG;2011-04-06 01:00;CYWG 060100Z 35004KT 15SM FEW100 FEW240 04/01 A2961 RMK AC2CI0 SLP036

CYWG;2011-04-06 01:38;CYWG 060138Z 36003KT 15SM FEW100 02/ RMK AC2

CYWG;2011-04-06 02:00;CYWG 060200Z 01004KT 15SM FEW100 02/01 A2962 RMK AC2 SLP040

CYWG;2011-04-06 03:00;CYWG 060300Z 00000KT 15SM SKC 01/M02 A2963 RMK SLP043

CYWG;2011-04-06 04:00;CYWG 060400Z 00000KT 15SM SKC 00/M02 A2964 RMK SLP046

CYWG;2011-04-06 05:00;CYWG 060500Z 18002KT 15SM SKC M00/M02 A2965 RMK SLP051

CYWG;2011-04-06 06:00;CYWG 060600Z 17002KT 15SM SKC M01/M03 A2966 RMK SLP055

CYWG;2011-04-06 07:00;CYWG 060700Z 23003KT 15SM SKC M02/M03 A2968 RMK SLP061

CYWG;2011-04-06 08:00;CYWG 060800Z 26005KT 15SM SKC M03/M04 A2968 RMK SLP061

CYWG;2011-04-06 09:00;CYWG 060900Z 00000KT 15SM SKC M02/M03 A2968 RMK SLP061

CYWG;2011-04-06 10:00;CYWG 061000Z 18003KT 15SM FEW100 M03/M04 A2969 RMK AC2 SLP063

CYWG;2011-04-06 11:00;CYWG 061100Z 23005KT 6SM BR FEW100 FEW220 M02/M03 A2970 RMK AC1CI1 FROIN OBS TAKEN +06 SLP068

CYWG;2011-04-06 12:00;CYWG 061200Z 21002KT 8SM FEW120 FEW230 M02/M03 A2971 RMK AC1CI1 BR FROIN SLP073

CYWG;2011-04-06 13:00;CYWG 061300Z 19004KT 10SM FEW120 BKN240 M01/M01 A2972 RMK AC1CI1 BR SLP076

CYWG;2011-04-06 14:00;CYWG 061400Z 20006KT 12SM FEW120 BKN240 02/01 A2973 RMK AC1CI1 BR SLP079

CYWG;2011-04-06 15:00;CYWG 061500Z 20009KT 12SM FEW120 FEW240 04/00 A2974 RMK AC1CI1 BR SLP080

CYWG;2011-04-06 16:00;CYWG 061600Z 19006KT 15SM FEW120 FEW240 06/01 A2973 RMK AC1CI0 SLP079

CYWG;2011-04-06 17:00;CYWG 061700Z 20011KT 15SM FEW020 FEW120 FEW240 06/02 A2973 RMK CU1AC1CI0 OBS TAKEN +02 SLP078

CYWG;2011-04-06 18:00;CYWG 061800Z 20013KT 15SM FEW016 FEW240 07/04 A2974 RMK CF1CI0 SLP079

CYWG;2011-04-06 19:00;CYWG 061900Z 21011G16KT 15SM FEW022 10/06 A2973 RMK CU2 SLP078

CYWG;2011-04-06 20:00;CYWG 062000Z 23009KT 15SM BKN020 09/05 A2973 RMK CU5 SLP078

CYWG;2011-04-06 21:00;CYWG 062100Z 24013G20KT 15SM SCT027 BKN240 11/04 A2972 RMK CU3CI1 TCU ASOCTD SH E SLP074

CYWG;2011-04-06 22:00;CYWG 062200Z 23012KT 15SM FEW031 BKN240 10/03 A2973 RMK CU2CI1 TCU ASOCTD E SLP076

CYWG;2011-04-06 23:00;CYWG 062300Z 23011KT 15SM FEW030 BKN240 08/03 A2973 RMK SC1CI2 SLP076

CYWG;2011-04-07 00:00;CYWG 070000Z 22009KT 15SM FEW030 BKN240 08/02 A2973 RMK SC1CI2 SLP077

CYWG;2011-04-07 01:00;CYWG 070100Z 21009KT 15SM FEW030 FEW090 BKN240 07/03 A2974 RMK SC1AC1CI1 SLP079

CYWG;2011-04-07 02:00;CYWG 070200Z 25011KT 15SM SCT068 BKN240 06/03 A2975 RMK AC3CI1 SLP085

CYWG;2011-04-07 03:00;CYWG 070300Z 24007KT 15SM FEW066 SCT100 04/02 A2976 RMK AC2AC1 SLP088

CYWG;2011-04-07 04:00;CYWG 070400Z 24007KT 15SM FEW066 FEW100 03/02 A2976 RMK AC1AC1 SLP088

CYWG;2011-04-07 05:00;CYWG 070500Z 24007KT 15SM OVC019 04/02 A2977 RMK SC8 SLP090

CYWG;2011-04-07 06:00;CYWG 070600Z 23003KT 15SM BKN021 OVC082 03/02 A2977 RMK SC6AC2 SLP090

CYWG;2011-04-07 06:32;CYWG 070632Z 20005KT 15SM BKN021 OVC082 02/ RMK SC6AC2

CYWG;2011-04-07 07:00;CYWG 070700Z 21006KT 15SM FEW021 02/01 A2977 RMK SC2 SLP091

CYWG;2011-04-07 08:00;CYWG 070800Z 22006KT 15SM FEW025 01/00 A2979 RMK SC2 SLP095

CYWG;2011-04-07 09:00;CYWG 070900Z 23006KT 15SM FEW025 00/00 A2980 RMK SC2 SLP099

CYWG;2011-04-07 10:00;CYWG 071000Z 23005KT 6SM BR FEW025 M00/M00 A2981 RMK SC1 SLP103

CYWG;2011-04-07 11:00;CYWG 071100Z 22004KT 10SM SKC M02/M02 A2983 RMK BR SLP108

CYWG;2011-04-07 12:00;CYWG 071200Z 18004KT 10SM FEW240 M02/M02 A2984 RMK CI1 BR SLP114

CYWG;2011-04-07 13:00;CYWG 071300Z 18005KT 10SM FEW120 BKN240 00/00 A2984 RMK AC1CI1 BR SLP115

CYWG;2011-04-07 14:00;CYWG 071400Z 21005KT 15SM FEW120 BKN240 02/01 A2986 RMK AC2CI2 SLP122

CYWG;2011-04-07 15:00;CYWG 071500Z 20002KT 15SM SCT093 BKN240 04/01 A2985 RMK AC3CI1 SLP117

CYWG;2011-04-07 16:00;CYWG 071600Z 12004KT 15SM FEW093 BKN240 06/02 A2985 RMK AC1CI1 SLP117

CYWG;2011-04-07 17:00;CYWG 071700Z 16004KT 15SM FEW100 BKN240 09/02 A2985 RMK AC1CI1 SLP117

CYWG;2011-04-07 18:00;CYWG 071800Z 18009KT 15SM FEW100 BKN240 09/03 A2986 RMK AC1CI1 SLP119

CYWG;2011-04-07 19:00;CYWG 071900Z 14004KT 15SM FEW015 FEW100 BKN240 10/03 A2986 RMK SC1AC1CI2 SLP119

CYWG;2011-04-07 20:00;CYWG 072000Z 18006KT 15SM FEW100 BKN250 11/03 A2986 RMK ACC1CI1 SLP120

CYWG;2011-04-07 21:00;CYWG 072100Z 18007KT 15SM FEW025 FEW100 BKN250 11/03 A2986 RMK CU1ACC1CI1 CU TR SLP121

CYWG;2011-04-07 22:00;CYWG 072200Z 19008KT 15SM FEW028 FEW100 SCT250 11/03 A2987 RMK CU1AC1CI0 SLP125

CYWG;2011-04-07 23:00;CYWG 072300Z 18010KT 15SM FEW028 SCT100 BKN250 10/05 A2988 RMK CU2AC1CI0 SLP126

CYWG;2011-04-08 00:00;CYWG 080000Z 17008KT 15SM FEW025 FEW100 SCT250 09/05 A2990 RMK CU2AC1CI0 SLP133

CYWG;2011-04-08 01:00;CYWG 080100Z 17007KT 15SM FEW025 FEW120 BKN250 07/04 A2991 RMK CU1AC1CI1 CU TR SLP138

CYWG;2011-04-08 02:00;CYWG 080200Z 16004KT 15SM FEW120 FEW250 05/03 A2992 RMK AC1CI0 AC TR SLP140

CYWG;2011-04-08 03:00;CYWG 080300Z 13004KT 15SM FEW120 SCT250 04/03 A2992 RMK AC1CI1 SLP143

CYWG;2011-04-08 04:00;CYWG 080400Z 08002KT 15SM FEW120 SCT250 04/03 A2994 RMK AC1CI1 SLP150

CYWG;2011-04-08 05:00;CYWG 080500Z 09005KT 15SM FEW120 SCT250 03/01 A2995 RMK AC1CI1 SLP152

CYWG;2011-04-08 06:00;CYWG 080600Z 13005KT 15SM FEW250 03/02 A2995 RMK CI1 SLP152

CYWG;2011-04-08 06:06;CYWG 080606Z 13006KT 15SM FEW250 02/ RMK CI1

CYWG;2011-04-08 07:00;CYWG 080700Z 12005KT 15SM FEW250 02/01 A2996 RMK CI1 SLP154

CYWG;2011-04-08 08:00;CYWG 080800Z 09003KT 15SM FEW250 01/01 A2996 RMK CI1 SLP154

CYWG;2011-04-08 09:00;CYWG 080900Z 03007KT 15SM FEW250 M01/M01 A2995 RMK CI1 SLP151

CYWG;2011-04-08 10:00;CYWG 081000Z 05004KT 15SM FEW250 M01/M01 A2996 RMK CI1 SLP153

CYWG;2011-04-08 11:00;CYWG 081100Z 05004KT 15SM FEW100 BKN250 M00/M00 A2996 RMK AC2CI2 SLP153

CYWG;2011-04-08 12:00;CYWG 081200Z 04004KT 15SM FEW100 BKN250 M00/M00 A2996 RMK AC2CI2 SLP157

CYWG;2011-04-08 13:00;CYWG 081300Z 04003KT 15SM SCT120 BKN220 00/00 A2997 RMK AC3CI3 SLP159

CYWG;2011-04-08 14:00;CYWG 081400Z 06004KT 15SM FEW020 SCT120 OVC220 02/02 A2998 RMK SC1AC3CI3 SLP161

CYWG;2011-04-08 15:00;CYWG 081500Z 05008KT 15SM FEW020 BKN110 OVC220 03/03 A2996 RMK SC1AC5CI2 SLP155

CYWG;2011-04-08 16:00;CYWG 081600Z 06006KT 15SM BKN110 OVC220 04/03 A2996 RMK AC6CI2 SLP154

CYWG;2011-04-08 16:53;CYWG 081653Z 09008KT 15SM -SHRA FEW060 OVC099 05/ RMK SC2AC6

CYWG;2011-04-08 17:00;CYWG 081700Z 09008KT 15SM -SHRA FEW060 OVC099 05/04 A2994 RMK SC2AC6 SLP148

CYWG;2011-04-08 18:00;CYWG 081800Z 09006KT 15SM -SHRA FEW038 OVC068 06/04 A2994 RMK SC2AC6 SLP150

CYWG;2011-04-08 18:20;CYWG 081820Z 10006KT 10SM -SHRA SCT005 BKN026 OVC068 05/ RMK SF3SC4AC1 SF MOVG IN FM S

CYWG;2011-04-08 19:00;CYWG 081900Z 11008KT 5SM -SHRA BR BKN007 OVC025 05/05 A2993 RMK SF5SC3 SLP147

CYWG;2011-04-08 20:00;CYWG 082000Z 11005KT 5SM -SHRA BR BKN005 OVC023 05/05 A2994 RMK SF5SC3 SLP148

CYWG;2011-04-08 20:41;CYWG 082041Z 08007KT 6SM -SHRA BR OVC023 06/ RMK SC8

CYWG;2011-04-08 21:00;CYWG 082100Z 07005KT 8SM -SHRA FEW005 OVC021 05/05 A2992 RMK SF2SC6 SLP143

CYWG;2011-04-08 21:22;CYWG 082122Z 08007KT 10SM FEW005 OVC018 06/ RMK SF2SC6

CYWG;2011-04-08 21:54;CYWG 082154Z 09008KT 10SM -SHRA OVC024 06/ RMK SC8

CYWG;2011-04-08 22:00;CYWG 082200Z 10009KT 12SM -SHRA OVC030 07/07 A2990 RMK SC8 SLP135

CYWG;2011-04-08 22:25;CYWG 082225Z 10009KT 12SM -SHRA SCT006 BKN018 OVC040 06/ RMK SF3SC3SC2

CYWG;2011-04-08 23:00;CYWG 082300Z 11008KT 10SM -SHRA SCT008 SCT020 OVC043 06/06 A2989 RMK SF3SC1SC4 SLP132

CYWG;2011-04-09 00:00;CYWG 090000Z 11008KT 10SM -SHRA FEW008 OVC031 06/06 A2987 RMK SF2SC6 SLP127

CYWG;2011-04-09 01:00;CYWG 090100Z 09008KT 8SM -SHRA FEW005 OVC029 06/06 A2984 RMK SF2SC6 SLP115

CYWG;2011-04-09 02:00;CYWG 090200Z 10007KT 4SM -SHRA BR SCT004 OVC031 06/06 A2984 RMK SF3SC5 SLP117

CYWG;2011-04-09 03:00;CYWG 090300Z 10008KT 6SM -SHRA BR FEW005 OVC022 06/06 A2984 RMK SF2SC6 SLP116

CYWG;2011-04-09 04:00;CYWG 090400Z 20004KT 6SM -SHRA BR SCT006 OVC019 06/06 A2983 RERA RMK SF3SC5 SLP112

CYWG;2011-04-09 04:43;CYWG 090443Z 13008KT 6SM -SHRA BR OVC019 07/ RMK SC8

CYWG;2011-04-09 05:00;CYWG 090500Z 13008KT 6SM -SHRA BR OVC019 07/06 A2982 RMK SC8 SLP109

CYWG;2011-04-09 06:00;CYWG 090600Z 15010KT 4SM -SHRA BR OVC016 07/07 A2981 RMK SC8 SLP102

CYWG;2011-04-09 06:04;CYWG 090604Z 15009KT 4SM -SHRA BR OVC013 07/ RMK SC8

CYWG;2011-04-09 06:42;CYWG 090642Z 15011KT 4SM -DZ OVC011 07/ RMK ST8

CYWG;2011-04-09 06:52;CYWG 090652Z 16010KT 4SM -DZ OVC007 07/ RMK ST8

CYWG;2011-04-09 07:00;CYWG 090700Z 16009KT 4SM -SHRA BR BKN006 OVC023 06/06 A2980 RMK SF6SC2 SLP099

CYWG;2011-04-09 07:48;CYWG 090748Z 16009KT 4SM -SHRA BR OVC004 06/ RMK SF8

CYWG;2011-04-09 08:00;CYWG 090800Z 16008KT 6SM -SHRA BR OVC004 06/06 A2978 RMK SF8 SLP092

CYWG;2011-04-09 08:21;CYWG 090821Z 16007KT 4SM -SHRA BR OVC003 06/ RMK SF8

CYWG;2011-04-09 09:00;CYWG 090900Z 17005KT 4SM -SHRA BR OVC002 06/06 A2976 RMK SF8 SLP087

CYWG;2011-04-09 09:31;CYWG 090931Z 18007KT 1 3/4SM -DZ BR OVC001 06/ RMK FG3ST5

CYWG;2011-04-09 10:00;CYWG 091000Z 20005KT 1SM R13/P6000FT/D R36/4500VP6000FT/D BR OVC001 06/06 A2975 RMK FG6ST2 SLP084

CYWG;2011-04-09 11:00;CYWG 091100Z 19006KT 3/4SM R13/P6000FT/U R36/3000FT/N BR OVC001 06/06 A2975 RMK FG6ST2 SLP084

CYWG;2011-04-09 11:37;CYWG 091137Z 21004KT 1/2SM R31/3500VP6000FT/D R36/2600V4000FT/D FG OVC002 06/ RMK FG6ST2

CYWG;2011-04-09 12:00;CYWG 091200Z 22004KT 1/2SM R31/3000FT/U R36/3000FT/N FG OVC001 06/06 A2976 RMK FG6ST2 SLP086

CYWG;2011-04-09 12:26;CYWG 091226Z 24004KT 1/2SM R31/3500FT/D R36/5000FT/U FG OVC002 06/ RMK FG6ST2

CYWG;2011-04-09 12:44;CYWG 091244Z 23005KT 1/2SM R31/P6000FT/D R36/P6000FT/D FG VV001 06/ RMK FG8

CYWG;2011-04-09 13:00;CYWG 091300Z 22006KT 3/4SM R31/P6000FT/U R36/P6000FT/U BR OVC001 05/05 A2977 RMK FG6ST2 SLP089

CYWG;2011-04-09 13:08;CYWG 091308Z 25005KT 1SM R31/P6000FT/U R36/P6000FT/N BR OVC001 06/ RMK FG6ST2

CYWG;2011-04-09 13:28;CYWG 091328Z 27005KT 1SM R31/P6000FT/U R36/P6000FT/U BR OVC002 05/ RMK FG5ST3

CYWG;2011-04-09 13:52;CYWG 091352Z 27006KT 1 1/2SM BR OVC002 05/ RMK FG5ST3

CYWG;2011-04-09 14:00;CYWG 091400Z 27006KT 1 1/2SM BR BKN002 OVC014 05/05 A2976 RMK FG4ST2SC2 SLP085

CYWG;2011-04-09 14:31;CYWG 091431Z 25005KT 2SM BR OVC004 06/ RMK FG2ST6

CYWG;2011-04-09 15:00;CYWG 091500Z 27006KT 3SM BR OVC003 05/05 A2976 RMK ST8 SLP087

CYWG;2011-04-09 16:00;CYWG 091600Z 27004KT 3SM BR OVC004 05/05 A2977 RMK ST8 SLP088

CYWG;2011-04-09 16:39;CYWG 091639Z 28003KT 4SM BR SCT004 BKN034 06/ RMK SF3SC4

CYWG;2011-04-09 17:00;CYWG 091700Z 00000KT 5SM BR FEW004 BKN034 07/06 A2975 RMK SF2SC5 SLP082

CYWG;2011-04-09 17:16;CYWG 091716Z 19003KT 5SM BR BKN005 BKN210 08/ RMK SF6CI1

CYWG;2011-04-09 17:38;CYWG 091738Z 19002KT 6SM BR BKN008 BKN090 09/ RMK SF5AC2

CYWG;2011-04-09 18:00;CYWG 091800Z 22003KT 6SM BR SCT009 BKN090 08/07 A2973 RMK SF4AC2 SLP076

CYWG;2011-04-09 18:10;CYWG 091810Z 20007KT 6SM BR BKN010 BKN090 09/ RMK SF5AC2

CYWG;2011-04-09 18:25;CYWG 091825Z 20004KT 6SM BR SCT009 BKN090 08/ RMK SF4AC2

CYWG;2011-04-09 19:00;CYWG 091900Z 20006KT 15SM SCT010 BKN034 OVC090 09/07 A2973 RMK SC3SC3AC1 SLP076

CYWG;2011-04-09 19:41;CYWG 091941Z 23007KT 15SM OVC010 09/ RMK SC8

CYWG;2011-04-09 20:00;CYWG 092000Z 21008KT 15SM OVC010 09/07 A2973 RMK SC8 SLP074

CYWG;2011-04-09 20:27;CYWG 092027Z 23007KT 15SM OVC009 09/ RMK SC8

CYWG;2011-04-09 21:00;CYWG 092100Z 25007KT 15SM OVC009 08/07 A2973 RMK SC8 SLP074

CYWG;2011-04-09 22:00;CYWG 092200Z 26004KT 6SM BR OVC008 08/07 A2972 RMK SC8 SLP071

CYWG;2011-04-09 23:00;CYWG 092300Z 25003KT 6SM BR OVC008 08/07 A2971 RMK SC8 SLP068

CYWG;2011-04-10 00:00;CYWG 100000Z 31005KT 6SM BR OVC006 07/07 A2971 RMK ST8 SLP069

CYWG;2011-04-10 00:55;CYWG 100055Z 34005KT 1 1/2SM BR VV001 06/ RMK FG8

CYWG;2011-04-10 01:00;CYWG 100100Z 34005KT 1 1/2SM BR VV001 06/06 A2969 RMK FG8 SLP061

CYWG;2011-04-10 02:00;CYWG 100200Z 00000KT 2SM BR OVC003 06/06 A2971 RMK ST8 SLP069

CYWG;2011-04-10 02:15;CYWG 100215Z 18002KT 4SM BR BKN003 OVC014 06/ RMK SF6SC2

CYWG;2011-04-10 03:00;CYWG 100300Z 28003KT 5SM BR FEW003 OVC017 06/06 A2971 RMK SF2SC6 SLP070

CYWG;2011-04-10 04:00;CYWG 100400Z 27003KT 5SM BR FEW003 OVC032 05/05 A2970 RMK SF2SC6 SLP065

CYWG;2011-04-10 05:00;CYWG 100500Z 32005KT 4SM BR SCT003 OVC032 05/05 A2967 RMK SF3SC5 SLP056

CYWG;2011-04-10 06:00;CYWG 100600Z 32004KT 1SM R13/5000FT/D R36/P6000FT/D BR OVC003 05/05 A2966 RMK FG5SF3 SLP051

CYWG;2011-04-10 07:00;CYWG 100700Z 00000KT 1SM R13/P6000FT/U R36/P6000FT/U BR VV001 04/04 A2965 RMK FG8 SLP049

CYWG;2011-04-10 08:00;CYWG 100800Z 34004KT 1SM R13/P6000FT/U R36/P6000FT/U BR VV001 04/04 A2962 RMK FG8 SLP038

CYWG;2011-04-10 08:45;CYWG 100845Z 32004KT 1SM BR OVC003 04/ RMK FG3SF5

CYWG;2011-04-10 09:00;CYWG 100900Z 33004KT 3/8SM R13/2600FT/N R36/2800V4000FT/D FG OVC003 04/04 A2961 RMK FG5SF3 SLP033

CYWG;2011-04-10 09:45;CYWG 100945Z 32004KT 3/8SM R13/3000FT/U R36/3500FT/N FG VV001 04/ RMK FG8

CYWG;2011-04-10 10:00;CYWG 101000Z 33003KT 1/2SM R13/4000FT/N R36/3500V5500FT/D FG VV001 04/04 A2959 RMK FG8 SLP029

CYWG;2011-04-10 11:00;CYWG 101100Z 31005KT 1SM R13/P6000FT/U R36/P6000FT/D BR VV001 03/03 A2960 RMK FG8 SLP031

CYWG;2011-04-10 11:39;CYWG 101139Z 34006KT 3/8SM R13/3000FT/N R36/3000V4500FT/D FG VV001 03/ RMK FG8

CYWG;2011-04-10 12:00;CYWG 101200Z 35005KT 1/4SM R13/3000FT/N R36/2600FT/N FG VV001 03/03 A2959 RMK FG8 SLP029

CYWG;2011-04-10 13:00;CYWG 101300Z 01004KT 1/4SM R13/2200FT/N R36/2200FT/N FG VV003 03/03 A2959 RMK FG8 SLP029

CYWG;2011-04-10 14:00;CYWG 101400Z 03004KT 3/8SM R13/2200FT/N R36/2400FT/N FG VV003 04/04 A2958 RMK FG8 SLP027

CYWG;2011-04-10 15:00;CYWG 101500Z 36008KT 1/2SM R13/2800V6000FT/U R36/2600V4500FT/U FG VV003 04/04 A2955 RMK FG8 SLP016

CYWG;2011-04-10 15:11;CYWG 101511Z 36007KT 3SM BR OVC002 04/ RMK SF8

CYWG;2011-04-10 15:40;CYWG 101540Z 36008KT 2 1/2SM BR OVC002 05/ RMK SF8 BLN DSAPRD 300 FT

CYWG;2011-04-10 16:00;CYWG 101600Z 36010KT 2 1/2SM BR OVC002 05/05 A2955 RMK SF8 OBS TAKEN +06 SLP015

CYWG;2011-04-10 16:32;CYWG 101632Z 01008KT 1 1/2SM -DZ OVC002 05/ RMK SF8

CYWG;2011-04-10 17:00;CYWG 101700Z 36008KT 2SM -RA BR OVC002 05/05 A2953 RMK SF8 SLP009

CYWG;2011-04-10 17:26;CYWG 101726Z 35010KT 6SM -RA BR OVC002 05/ RMK SF8

CYWG;2011-04-10 18:00;CYWG 101800Z 01011KT 10SM -RA OVC003 06/06 A2951 RMK SF8 BR SLP003

CYWG;2011-04-10 18:36;CYWG 101836Z 01013KT 15SM OVC004 06/ RMK SF8

CYWG;2011-04-10 19:00;CYWG 101900Z 36014KT 15SM OVC006 07/07 A2950 RMK SF8 SLP998

CYWG;2011-04-10 20:00;CYWG 102000Z 36014KT 15SM BKN008 08/07 A2950 RMK SC7 SLP997

CYWG;2011-04-10 21:00;CYWG 102100Z 01013KT 15SM SCT015 BKN140 10/08 A2950 RMK SC3AC4 SLP998

CYWG;2011-04-10 22:00;CYWG 102200Z 36012KT 15SM FEW020 BKN240 10/07 A2951 RMK SC2CI2 SLP000

CYWG;2011-04-10 23:00;CYWG 102300Z 32015KT 15SM FEW020 BKN240 10/07 A2951 RMK SC2CI2 SLP000

CYWG;2011-04-11 00:00;CYWG 110000Z 32015KT 15SM FEW020 BKN240 10/05 A2952 RMK SC1CI2 SLP003

CYWG;2011-04-11 01:00;CYWG 110100Z 32013KT 15SM FEW020 BKN240 08/04 A2953 RMK SC1CI1 SC TR SLP007

CYWG;2011-04-11 02:00;CYWG 110200Z 31011KT 15SM SCT240 06/02 A2955 RMK CI1 SLP015

CYWG;2011-04-11 03:00;CYWG 110300Z 32011KT 15SM FEW240 05/02 A2958 RMK CI1 SLP025

CYWG;2011-04-11 04:00;CYWG 110400Z 31011KT 15SM SKC 04/01 A2960 RMK SLP031

CYWG;2011-04-11 05:00;CYWG 110500Z 32010KT 15SM SKC 03/01 A2962 RMK SLP038

CYWG;2011-04-11 06:00;CYWG 110600Z 31010KT 15SM SKC 03/01 A2964 RMK SLP046

CYWG;2011-04-11 07:00;CYWG 110700Z 29009KT 15SM SKC 01/00 A2966 RMK SLP053

CYWG;2011-04-11 08:00;CYWG 110800Z 30011KT 15SM SKC 02/00 A2967 RMK SLP057

CYWG;2011-04-11 09:00;CYWG 110900Z 29010KT 15SM SKC 01/M00 A2968 RMK SLP059

CYWG;2011-04-11 10:00;CYWG 111000Z 30010KT 15SM SKC 02/M00 A2970 RMK SLP066

CYWG;2011-04-11 11:00;CYWG 111100Z 29009KT 15SM SKC 01/M01 A2973 RMK SLP074

CYWG;2011-04-11 12:00;CYWG 111200Z 27008KT 15SM FEW100 01/M01 A2975 RMK AC1 SLP082

CYWG;2011-04-11 13:00;CYWG 111300Z 28010KT 15SM SKC 02/00 A2977 RMK SLP090

CYWG;2011-04-11 14:00;CYWG 111400Z 29010KT 15SM SKC 04/01 A2978 RMK SLP094

CYWG;2011-04-11 15:00;CYWG 111500Z 28012KT 15SM FEW210 07/02 A2980 RMK CI0 SLP101

CYWG;2011-04-11 16:00;CYWG 111600Z 28012KT 15SM BKN210 09/03 A2982 RMK CI2 SLP107

CYWG;2011-04-11 17:00;CYWG 111700Z 29011KT 15SM FEW210 10/03 A2983 RMK CI1 SLP110

CYWG;2011-04-11 18:00;CYWG 111800Z 30011KT 15SM FEW210 12/04 A2983 RMK CI1 SLP111

CYWG;2011-04-11 19:00;CYWG 111900Z 30009KT 15SM FEW210 14/04 A2984 RMK CI1 SLP113

CYWG;2011-04-11 20:00;CYWG 112000Z 28008KT 15SM FEW210 14/03 A2984 RMK CI1 OBS TAKEN +09 SLP113

CYWG;2011-04-11 21:00;CYWG 112100Z 28006KT 15SM FEW210 15/02 A2983 RMK CI1 SLP109

CYWG;2011-04-11 22:00;CYWG 112200Z 25008KT 15SM FEW210 15/02 A2983 RMK CI1 SLP110

CYWG;2011-04-11 23:00;CYWG 112300Z 25009KT 15SM FEW210 15/01 A2983 RMK CI1 SLP109

CYWG;2011-04-12 00:00;CYWG 120000Z 23008KT 15SM FEW210 14/02 A2983 RMK CI1 SLP108

CYWG;2011-04-12 01:00;CYWG 120100Z 21007KT 15SM FEW210 12/04 A2981 RMK CI1 SLP104

CYWG;2011-04-12 02:00;CYWG 120200Z 19007KT 15SM FEW210 10/05 A2981 RMK CI1 SLP104

CYWG;2011-04-12 03:00;CYWG 120300Z 19009KT 15SM SKC 10/05 A2980 RMK SLP100

CYWG;2011-04-12 04:00;CYWG 120400Z 20009KT 15SM SKC 09/05 A2980 RMK SLP098

CYWG;2011-04-12 05:00;CYWG 120500Z 19008KT 15SM SKC 08/05 A2980 RMK SLP097

CYWG;2011-04-12 06:00;CYWG 120600Z 21008KT 15SM SKC 08/05 A2979 RMK SLP093

CYWG;2011-04-12 07:00;CYWG 120700Z 19009KT 15SM FEW240 07/05 A2977 RMK CI0 SLP086

CYWG;2011-04-12 08:00;CYWG 120800Z 18008KT 15SM SKC 06/04 A2975 RMK SLP080

CYWG;2011-04-12 09:00;CYWG 120900Z 18009KT 15SM SKC 06/04 A2975 RMK SLP080

CYWG;2011-04-12 10:00;CYWG 121000Z 18010KT 15SM SKC 05/04 A2974 RMK SLP075

CYWG;2011-04-12 11:00;CYWG 121100Z 20008KT 15SM FEW100 SCT250 05/03 A2975 RMK AC2CI1 SLP080

CYWG;2011-04-12 12:00;CYWG 121200Z 19008KT 15SM SCT100 BKN250 06/03 A2973 RMK AC3CI2 SLP073

CYWG;2011-04-12 13:00;CYWG 121300Z 21012KT 15SM -SHRA FEW060 BKN090 BKN250 07/04 A2975 RMK SC2ACC3CI2 SLP079

CYWG;2011-04-12 13:43;CYWG 121343Z 22009KT 15SM FEW044 BKN090 BKN250 08/ RMK SC2ACC3CI1 VIRGA NE-E-SE

CYWG;2011-04-12 14:00;CYWG 121400Z 22009KT 15SM SCT044 SCT090 BKN250 08/04 A2975 RMK SC3ACC1CI1 VIRGA NE-E-SE SLP081

CYWG;2011-04-12 15:00;CYWG 121500Z 27015G20KT 15SM SCT090 BKN250 11/06 A2977 RMK AC3CI2 SLP088

CYWG;2011-04-12 16:00;CYWG 121600Z 27017KT 15SM FEW090 SCT250 11/06 A2979 RMK AC2CI2 SLP094

CYWG;2011-04-12 17:00;CYWG 121700Z 27016G25KT 15SM FEW090 BKN250 11/05 A2980 RMK AC2CI2 SLP098

CYWG;2011-04-12 18:00;CYWG 121800Z 28021G28KT 15SM FEW090 FEW250 13/06 A2982 RMK AC1CI1 SLP104

CYWG;2011-04-12 19:00;CYWG 121900Z 27022G27KT 15SM FEW090 13/05 A2983 RMK AC1 SLP109

CYWG;2011-04-12 20:00;CYWG 122000Z 29024KT 15SM FEW090 13/02 A2985 RMK AC1 SLP115

CYWG;2011-04-12 21:00;CYWG 122100Z 28023G30KT 15SM FEW090 12/02 A2986 RMK AC1 SLP118

CYWG;2011-04-12 22:00;CYWG 122200Z 28022G31KT 15SM SKC 12/02 A2987 RMK SLP122

CYWG;2011-04-12 23:00;CYWG 122300Z 28021G28KT 15SM SKC 11/01 A2990 RMK OBS TAKEN +2 SLP130

CYWG;2011-04-13 00:00;CYWG 130000Z 28020G27KT 15SM FEW230 10/M00 A2992 RMK CI0 SLP138

CYWG;2011-04-13 01:00;CYWG 130100Z 28018KT 15SM SKC 08/00 A2994 RMK SLP147

CYWG;2011-04-13 02:00;CYWG 130200Z 29009KT 15SM FEW230 05/01 A2998 RMK CI0 SLP159

CYWG;2011-04-13 03:00;CYWG 130300Z 29007KT 15SM SKC 02/00 A2999 RMK SLP166

CYWG;2011-04-13 04:00;CYWG 130400Z 28007KT 15SM SKC 02/M00 A3001 RMK SLP171

CYWG;2011-04-13 05:00;CYWG 130500Z 29006KT 15SM SKC 01/M01 A3003 RMK SLP178

CYWG;2011-04-13 06:00;CYWG 130600Z 29011KT 15SM FEW057 02/M00 A3005 RMK SC2 SLP184

CYWG;2011-04-13 07:00;CYWG 130700Z 31014KT 15SM SKC 02/M01 A3008 RMK SLP195

CYWG;2011-04-13 07:42;CYWG 130742Z 35014G21KT 15SM BKN016 OVC079 02/ RMK SC6AC2

CYWG;2011-04-13 08:00;CYWG 130800Z 35014G21KT 15SM BKN014 OVC027 01/M01 A3013 RMK SC6SC2 SLP211

CYWG;2011-04-13 08:46;CYWG 130846Z 33024KT 15SM FEW012 SCT019 BKN037 M01/ RMK SC2SC2SC2

CYWG;2011-04-13 09:00;CYWG 130900Z 32023G30KT 15SM FEW019 BKN037 M02/M06 A3018 RMK SC1SC5 SLP230

CYWG;2011-04-13 10:00;CYWG 131000Z 33021G26KT 15SM BKN023 M04/M07 A3022 RMK SC5 SLP244

CYWG;2011-04-13 11:00;CYWG 131100Z 01020KT 15SM BKN017 M07/M10 A3029 RMK SC7 PRESRR SLP264

CYWG;2011-04-13 12:00;CYWG 131200Z 01017KT 15SM BKN017 M08/M11 A3034 RMK SC5 SLP286

CYWG;2011-04-13 13:00;CYWG 131300Z 01019KT 15SM VCSH BKN016 M09/M13 A3038 RMK SC5 SH NE SLP299

CYWG;2011-04-13 14:00;CYWG 131400Z 02017KT 15SM BKN018 M08/M13 A3040 RMK SC4 SLP308

CYWG;2011-04-13 15:00;CYWG 131500Z 36011G17KT 15SM BKN019 M08/M13 A3043 RMK SC5 SLP320

CYWG;2011-04-13 16:00;CYWG 131600Z 01011G19KT 15SM SCT022 M07/M13 A3045 RMK SC3 SLP326

CYWG;2011-04-13 17:00;CYWG 131700Z 01013G19KT 15SM FEW022 M05/M12 A3046 RMK SC1 SLP331

CYWG;2011-04-13 18:00;CYWG 131800Z 01015KT 15SM FEW022 M05/M11 A3047 RMK SC1 SLP332

CYWG;2011-04-13 19:00;CYWG 131900Z 03018KT 15SM FEW022 M03/M09 A3046 RMK CU1 SLP330

CYWG;2011-04-13 20:00;CYWG 132000Z 02016KT 15SM FEW024 M02/M09 A3047 RMK CU1 CU TR SLP333

CYWG;2011-04-13 21:00;CYWG 132100Z 03015KT 15SM FEW024 FEW110 M02/M08 A3046 RMK CU1AC1 CU TR SLP330

CYWG;2011-04-13 22:00;CYWG 132200Z 03015KT 15SM SKC M02/M09 A3046 RMK SLP331

CYWG;2011-04-13 23:00;CYWG 132300Z 03011G17KT 15SM SKC M02/M09 A3045 RMK SLP327

CYWG;2011-04-14 00:00;CYWG 140000Z 06010KT 15SM SKC M02/M10 A3045 RMK SLP326

CYWG;2011-04-14 01:00;CYWG 140100Z 03008KT 15SM SKC M03/M09 A3045 RMK SLP326

CYWG;2011-04-14 02:00;CYWG 140200Z 04007KT 15SM SKC M04/M09 A3045 RMK SLP329

CYWG;2011-04-14 03:00;CYWG 140300Z 03006KT 15SM SKC M05/M09 A3047 RMK SLP336

CYWG;2011-04-14 04:00;CYWG 140400Z 04007KT 15SM SKC M05/M09 A3047 RMK SLP337

CYWG;2011-04-14 05:00;CYWG 140500Z 04007KT 15SM SKC M05/M08 A3048 RMK SLP340

CYWG;2011-04-14 06:00;CYWG 140600Z 04008KT 15SM SKC M05/M09 A3048 RMK SLP338

CYWG;2011-04-14 07:00;CYWG 140700Z 04007KT 15SM SKC M06/M08 A3048 RMK SLP337

CYWG;2011-04-14 08:00;CYWG 140800Z 05007KT 15SM SKC M06/M08 A3047 RMK SLP336

CYWG;2011-04-14 09:00;CYWG 140900Z 05008KT 15SM FEW250 M06/M08 A3047 RMK CI0 SLP333

CYWG;2011-04-14 10:00;CYWG 141000Z 05006KT 15SM SKC M07/M08 A3047 RMK SLP335

CYWG;2011-04-14 11:00;CYWG 141100Z 05004KT 15SM FEW250 M07/M09 A3048 RMK CI1 SLP336

CYWG;2011-04-14 12:00;CYWG 141200Z 06003KT 15SM FEW250 M08/M09 A3049 RMK CI1 SLP341

CYWG;2011-04-14 13:00;CYWG 141300Z 07007KT 15SM FEW250 M04/M08 A3048 RMK CI1 SLP338

CYWG;2011-04-14 14:00;CYWG 141400Z 11010KT 15SM SCT250 M02/M09 A3047 RMK CI1 SLP336

CYWG;2011-04-14 15:00;CYWG 141500Z 10013KT 15SM SCT250 M00/M10 A3047 RMK CI1 SLP334

CYWG;2011-04-14 16:00;CYWG 141600Z 08011KT 15SM FEW250 01/M09 A3048 RMK CI1 SLP336

CYWG;2011-04-14 17:00;CYWG 141700Z 10009KT 15SM FEW250 02/M10 A3048 RMK CI1 SLP335

CYWG;2011-04-14 18:00;CYWG 141800Z 10007KT 15SM FEW250 03/M10 A3047 RMK CI1 SLP332

CYWG;2011-04-14 19:00;CYWG 141900Z 06011KT 15SM SCT250 05/M08 A3046 RMK CI2 SLP328

CYWG;2011-04-14 20:00;CYWG 142000Z 09009KT 15SM BKN250 06/M09 A3044 RMK CI2 SLP322

CYWG;2011-04-14 21:00;CYWG 142100Z 08013KT 15SM FEW200 BKN250 06/M08 A3042 RMK CS2CI1 HALO SLP315

CYWG;2011-04-14 22:00;CYWG 142200Z 07015KT 15SM FEW200 BKN250 06/M09 A3040 RMK CS2CI1 SLP309

CYWG;2011-04-14 23:00;CYWG 142300Z 04015KT 15SM FEW200 BKN250 06/M05 A3039 RMK CS2CI1 SLP304

CYWG;2011-04-15 00:00;CYWG 150000Z 05012KT 15SM FEW200 BKN250 04/M05 A3039 RMK CS2CI1 SLP305

CYWG;2011-04-15 01:00;CYWG 150100Z 04012KT 15SM FEW200 BKN250 02/M05 A3038 RMK CS2CI1 SLP304

CYWG;2011-04-15 02:00;CYWG 150200Z 04009KT 15SM FEW200 BKN250 00/M05 A3040 RMK CS2CI1 SLP308

CYWG;2011-04-15 03:00;CYWG 150300Z 05006KT 15SM BKN250 M01/M05 A3040 RMK CI3 SLP309

CYWG;2011-04-15 04:00;CYWG 150400Z 06008KT 15SM BKN250 00/M05 A3038 RMK CI3 SLP303

CYWG;2011-04-15 05:00;CYWG 150500Z 09014KT 15SM BKN250 02/M08 A3038 RMK CI4 SLP300

CYWG;2011-04-15 06:00;CYWG 150600Z 09011KT 15SM BKN250 02/M09 A3038 RMK CI4 SLP299

CYWG;2011-04-15 07:00;CYWG 150700Z 09008KT 15SM BKN250 00/M09 A3038 RMK CI4 SLP300

CYWG;2011-04-15 08:00;CYWG 150800Z 09008KT 15SM BKN250 M00/M09 A3036 RMK CI4 SLP293

CYWG;2011-04-15 09:00;CYWG 150900Z 09009KT 15SM BKN250 M01/M09 A3034 RMK CI4 SLP286

CYWG;2011-04-15 10:00;CYWG 151000Z 10011KT 15SM BKN120 OVC250 M00/M10 A3034 RMK AC5CI2 SLP286

CYWG;2011-04-15 11:00;CYWG 151100Z 08008KT 15SM BKN120 OVC250 M01/M09 A3032 RMK AC6CI1 SLP279

CYWG;2011-04-15 12:00;CYWG 151200Z 09009KT 15SM BKN110 OVC250 M01/M09 A3033 RMK AC7CI0 SLP282

CYWG;2011-04-15 13:00;CYWG 151300Z 09010KT 15SM OVC110 00/M10 A3031 RMK AC8 SLP277

CYWG;2011-04-15 14:00;CYWG 151400Z 09013KT 15SM OVC110 01/M10 A3029 RMK AC8 SLP269

CYWG;2011-04-15 15:00;CYWG 151500Z 10016KT 15SM OVC110 02/M10 A3027 RMK AC8 SLP263

CYWG;2011-04-15 16:00;CYWG 151600Z 10017KT 15SM OVC100 03/M11 A3025 RMK AC8 SLP257

CYWG;2011-04-15 17:00;CYWG 151700Z 11014G20KT 15SM BKN097 OVC140 04/M11 A3024 RMK AC6AC2 SLP253

CYWG;2011-04-15 18:00;CYWG 151800Z 10013KT 15SM OVC100 04/M11 A3022 RMK AC8 SLP245

CYWG;2011-04-15 19:00;CYWG 151900Z 10015KT 15SM BKN073 OVC099 05/M11 A3018 RMK AC6AC2 SLP232

CYWG;2011-04-15 20:00;CYWG 152000Z 10012KT 15SM BKN070 OVC096 05/M11 A3015 RMK AC6AC2 SLP222

CYWG;2011-04-15 21:00;CYWG 152100Z 12009G20KT 15SM BKN057 OVC069 05/M10 A3013 RMK SC7AC1 SLP216

CYWG;2011-04-15 22:00;CYWG 152200Z 18010G15KT 15SM BKN020 OVC050 04/M07 A3012 RMK SC7SC1 SLP212

CYWG;2011-04-15 22:53;CYWG 152253Z 14013KT 3SM -RA BR OVC018 03/ RMK SC8

CYWG;2011-04-15 23:00;CYWG 152300Z 10006G15KT 6SM -RA BR OVC015 03/M05 A3012 RMK SC8 SLP210

CYWG;2011-04-15 23:21;CYWG 152321Z 15014KT 5SM -SG BR OVC015 02/ RMK ST8

CYWG;2011-04-15 23:34;CYWG 152334Z 14013KT 2SM -SN BR OVC009 02/ RMK ST8

CYWG;2011-04-15 23:49;CYWG 152349Z 18009KT 1 1/2SM -SN BR OVC007 01/ RMK ST8

CYWG;2011-04-16 00:00;CYWG 160000Z 17005KT 1SM R13/P6000FT/D R36/P6000FT/D -SN BR VV005 00/M00 A3012 RMK SN8 SLP213

CYWG;2011-04-16 00:29;CYWG 160029Z 00000KT 1SM R13/P6000FT/N R36/P6000FT/U -SN BR VV004 00/ RMK SN8 /S01/

CYWG;2011-04-16 01:00;CYWG 160100Z 34003KT 3/4SM R13/P6000FT/N R36/P6000FT/U -SN BR VV004 M00/M00 A3009 RMK SN8 SLP203

CYWG;2011-04-16 02:00;CYWG 160200Z 01004KT 3/4SM R13/P6000FT/U R36/P6000FT/D -SN BR VV005 M00/M00 A3008 RMK SN8 SLP198

CYWG;2011-04-16 02:27;CYWG 160227Z 02005KT 3/4SM R13/P6000FT/D R36/P6000FT/D -SN BR VV003 M00/ RMK SN8 /S02/

CYWG;2011-04-16 03:00;CYWG 160300Z CCA 05005KT 3/4SM R13/P6000FT/D R36/P6000FT/D -SN BR VV003 M00/M00 A3006 RMK SN8 /S03/ SLP191

CYWG;2011-04-16 04:00;CYWG 160400Z 03007KT 1SM R13/P6000FT/U R36/P6000FT/U -SN BR VV003 M00/M00 A3003 RMK SN8 /S04/ SLP181

CYWG;2011-04-16 05:00;CYWG 160500Z 03008KT 1SM R13/P6000FT/U R36/P6000FT/U -SN BR VV003 M00/M00 A3000 RMK SN8 /S05/ SLP172

CYWG;2011-04-16 06:00;CYWG 160600Z 04008KT 1 1/2SM -SN BR VV003 M00/M00 A2997 RMK SN8 SLP160

CYWG;2011-04-16 07:00;CYWG 160700Z 03009KT 1 1/2SM -SN BR VV004 M00/M00 A2993 RMK SN8 OBS TAKEN +05 SLP148

CYWG;2011-04-16 07:29;CYWG 160729Z 04008KT 2 1/2SM -SN BR SCT005 OVC011 M00/ RMK SF3SC5

CYWG;2011-04-16 08:00;CYWG 160800Z 04007KT 3SM -SN BR BKN004 OVC011 M00/M00 A2992 RMK SF6SC2 SLP142

CYWG;2011-04-16 09:00;CYWG 160900Z 04007KT 10SM -SN SCT003 OVC011 M00/M00 A2990 RMK SF3SC5 SLP135

CYWG;2011-04-16 09:29;CYWG 160929Z 03009KT 6SM -SN BKN003 OVC013 M00/ RMK SF6SC2

CYWG;2011-04-16 10:00;CYWG 161000Z 03007KT 8SM -SN BKN003 OVC015 M01/M01 A2988 RMK SF6SC2 SLP130

CYWG;2011-04-16 10:47;CYWG 161047Z 03006KT 8SM -SN BKN004 OVC019 M01/ RMK SF6SC2

CYWG;2011-04-16 11:00;CYWG 161100Z 02005KT 8SM -SN BKN003 OVC026 M01/M01 A2987 RMK SF6SC2 SLP126

CYWG;2011-04-16 12:00;CYWG 161200Z 01005KT 8SM -SN OVC003 M01/M01 A2986 RMK ST8 BR SLP125

CYWG;2011-04-16 13:00;CYWG 161300Z 36006KT 2 1/2SM -SN BR OVC003 M01/M01 A2986 RMK ST8 SLP124

CYWG;2011-04-16 13:07;CYWG 161307Z 36007KT 3SM -SN BR OVC003 M01/ RMK ST8

CYWG;2011-04-16 14:00;CYWG 161400Z 36009KT 8SM OVC005 M00/M01 A2986 RMK ST8 BR SLP124

CYWG;2011-04-16 14:23;CYWG 161423Z 34008KT 10SM SCT005 OVC014 M00/ RMK SF3SC5 BR

CYWG;2011-04-16 14:46;CYWG 161446Z 34009KT 15SM BKN007 OVC023 M00/ RMK ST6SC2

CYWG;2011-04-16 15:00;CYWG 161500Z 35009KT 15SM BKN007 OVC025 M00/M01 A2984 RMK ST6SC2 SLP118

CYWG;2011-04-16 16:00;CYWG 161600Z 36011KT 12SM BKN007 OVC031 00/M01 A2983 RMK ST7SC1 SLP115

CYWG;2011-04-16 16:06;CYWG 161606Z 36010KT 15SM -SN BKN007 OVC031 00/ RMK ST7SC1

CYWG;2011-04-16 16:51;CYWG 161651Z 36009KT 15SM BKN009 OVC038 01/ RMK SF6SC2

CYWG;2011-04-16 17:00;CYWG 161700Z 01010KT 15SM BKN008 OVC037 01/M00 A2982 RMK SF5SC3 SLP110

CYWG;2011-04-16 17:23;CYWG 161723Z 01011KT 15SM BKN009 OVC037 01/ RMK SF4SC3

CYWG;2011-04-16 17:40;CYWG 161740Z 36013KT 15SM BKN010 OVC037 01/ RMK SC6SC2

CYWG;2011-04-16 18:00;CYWG 161800Z 36011KT 15SM SCT010 SCT027 OVC037 01/M01 A2981 RMK SC2SC2SC4 SLP108

CYWG;2011-04-16 18:25;CYWG 161825Z 36013G18KT 15SM -SN SCT011 OVC021 01/ RMK SC2SC6

CYWG;2011-04-16 18:43;CYWG 161843Z 36010KT 15SM SCT021 OVC059 01/ RMK SC3SC5

CYWG;2011-04-16 19:00;CYWG 161900Z 33010KT 15SM BKN015 OVC059 01/M01 A2982 RMK SC6SC2 SLP110

CYWG;2011-04-16 20:00;CYWG 162000Z 35012G17KT 15SM BKN024 OVC059 02/M02 A2981 RMK SC6SC2 SLP108

CYWG;2011-04-16 21:00;CYWG 162100Z 35013G18KT 15SM BKN026 OVC060 02/M03 A2981 RMK SC6SC2 SLP106

CYWG;2011-04-16 22:00;CYWG 162200Z 34014KT 15SM SCT033 BKN080 BKN250 03/M03 A2980 RMK CU4AC2CI1 SLP104

CYWG;2011-04-16 23:00;CYWG 162300Z 03014KT 15SM BKN027 BKN093 04/M00 A2981 RMK CU5AC1 -SHRA DIST SW SLP106

CYWG;2011-04-16 23:28;CYWG 162328Z 03017G24KT 6SM -SHRAGS FEW014 BKN024 01/ RMK SF2CU5

CYWG;2011-04-16 23:33;CYWG 162333Z 04014G22KT 2SM -SHRAGS SCT006 BKN014 OVC098 00/ RMK SF4CU3AC1

CYWG;2011-04-16 23:50;CYWG 162350Z 03012G18KT 15SM SCT006 BKN014 OVC072 01/ RMK SF3CU3AC2 VIS S 3 -SHRA

CYWG;2011-04-17 00:00;CYWG 170000Z 02013KT 15SM FEW006 SCT015TCU BKN072 BKN250 01/M01 A2982 RMK SF1TCU3AC2CI1 -SHRA DIST S AND W SLP111

CYWG;2011-04-17 01:00;CYWG 170100Z 01010KT 15SM FEW006 SCT039TCU BKN250 01/M02 A2983 RMK SF2TCU2CI1 SLP114

CYWG;2011-04-17 02:00;CYWG 170200Z 01007KT 15SM SCT057 BKN086 BKN250 M00/M02 A2984 RMK SC4AC1CI0 SLP118

CYWG;2011-04-17 03:00;CYWG 170300Z 01009KT 15SM FEW050 SCT086 M01/M02 A2986 RMK SC2AC2 SLP123

CYWG;2011-04-17 04:00;CYWG 170400Z 36007KT 15SM FEW030 SCT060 M02/M03 A2987 RMK SC2SC2 SLP126

CYWG;2011-04-17 05:00;CYWG 170500Z 01010KT 15SM BKN024 M01/M03 A2987 RMK SC4 SLP126

CYWG;2011-04-17 06:00;CYWG 170600Z 01010KT 15SM BKN022 M01/M03 A2987 RMK SC5 SLP128

CYWG;2011-04-17 07:00;CYWG 170700Z 36007KT 15SM FEW030 M02/M03 A2987 RMK SC2 SLP129

CYWG;2011-04-17 08:00;CYWG 170800Z 36007KT 15SM BKN013 M02/M03 A2988 RMK SF6 SLP131

CYWG;2011-04-17 09:00;CYWG 170900Z 03012KT 15SM BKN015 M02/M04 A2990 RMK SF6 SLP139

CYWG;2011-04-17 10:00;CYWG 171000Z 02010KT 15SM BKN013 OVC050 M02/M04 A2992 RMK SF6SC2 SLP143

CYWG;2011-04-17 10:42;CYWG 171042Z 01010KT 15SM -SN FEW013 BKN023 OVC044 M02/ RMK SF2SC5SC2

CYWG;2011-04-17 11:00;CYWG 171100Z 01010KT 15SM -SN FEW013 BKN023 OVC044 M02/M05 A2993 RMK SF1SC6SC1 SLP148

CYWG;2011-04-17 11:32;CYWG 171132Z 04011KT 15SM FEW013 OVC019 M02/ RMK SF2SC6

CYWG;2011-04-17 12:00;CYWG 171200Z 04008KT 15SM FEW010 OVC015 M02/M04 A2993 RMK SF2SC6 SLP149

CYWG;2011-04-17 13:00;CYWG 171300Z 03010KT 15SM BKN018 OVC058 M02/M04 A2995 RMK SC5SC2 SLP154

CYWG;2011-04-17 14:00;CYWG 171400Z 03011KT 15SM BKN019 OVC053 M01/M05 A2996 RMK SC7SC1 SLP158

CYWG;2011-04-17 15:00;CYWG 171500Z 03012KT 15SM OVC019 M01/M05 A2996 RMK SC8 SLP160

CYWG;2011-04-17 16:00;CYWG 171600Z 02009KT 15SM OVC017 M01/M04 A2997 RMK SC8 SLP161

CYWG;2011-04-17 17:00;CYWG 171700Z 02011KT 15SM OVC017 M01/M04 A2997 RMK SC7 SLP161

CYWG;2011-04-17 18:00;CYWG 171800Z 05007KT 15SM BKN019 M00/M05 A2996 RMK SC7 SLP158

CYWG;2011-04-17 19:00;CYWG 171900Z 01007KT 15SM BKN019 01/M05 A2995 RMK SC7 SLP155

CYWG;2011-04-17 20:00;CYWG 172000Z 36009KT 15SM BKN023 01/M04 A2995 RMK SC7 SLP154

CYWG;2011-04-17 21:00;CYWG 172100Z 03006KT 15SM OVC027 02/M04 A2994 RMK SC8 SLP151

CYWG;2011-04-17 22:00;CYWG 172200Z 01009KT 15SM OVC029 02/M05 A2993 RMK SC8 SLP149

CYWG;2011-04-17 23:00;CYWG 172300Z 34010KT 15SM BKN031 01/M04 A2995 RMK SC7 SLP153

CYWG;2011-04-18 00:00;CYWG 180000Z 34010KT 15SM BKN036 BKN072 BKN250 01/M04 A2995 RMK SC5AC2CI1 SLP156

CYWG;2011-04-18 01:00;CYWG 180100Z 33009KT 15SM BKN040 BKN250 00/M04 A2997 RMK SC6CI2 SLP161

CYWG;2011-04-18 02:00;CYWG 180200Z 35007KT 15SM SCT046 BKN250 M01/M04 A2998 RMK SC3CI1 SLP164

CYWG;2011-04-18 03:00;CYWG 180300Z 35006KT 15SM FEW045 BKN250 M02/M04 A2998 RMK SC2CI2 SLP165

CYWG;2011-04-18 04:00;CYWG 180400Z 34005KT 15SM FEW050 BKN100 M03/M04 A2998 RMK SC2AC2 SLP166

CYWG;2011-04-18 05:00;CYWG 180500Z 32006KT 15SM BKN048 OVC090 M01/M03 A2998 RMK SC6AC2 SLP165

CYWG;2011-04-18 06:00;CYWG 180600Z 32005KT 15SM OVC048 M01/M02 A2997 RMK SC7 SLP163

CYWG;2011-04-18 07:00;CYWG 180700Z 02006KT 15SM OVC048 M01/M05 A2998 RMK SC8 SLP165

CYWG;2011-04-18 08:00;CYWG 180800Z 36004KT 15SM OVC045 M02/M05 A2998 RMK SC8 SLP165

CYWG;2011-04-18 09:00;CYWG 180900Z 05003KT 15SM OVC047 M02/M06 A2998 RMK SC8 SLP164

CYWG;2011-04-18 10:00;CYWG 181000Z 35003KT 15SM BKN047 M02/M05 A2998 RMK SC7 SLP165

CYWG;2011-04-18 11:00;CYWG 181100Z 36004KT 15SM SCT047 M04/M06 A2999 RMK SC4 SLP167

CYWG;2011-04-18 12:00;CYWG 181200Z 34003KT 15SM SCT039 M04/M06 A2999 RMK SC3 SLP171

CYWG;2011-04-18 13:00;CYWG 181300Z 01004KT 15SM FEW042 M02/M06 A3000 RMK SC2 SLP174

CYWG;2011-04-18 14:00;CYWG 181400Z 01003KT 15SM FEW040 M01/M06 A3002 RMK SC1 SLP178

CYWG;2011-04-18 15:00;CYWG 181500Z 33006KT 15SM FEW040 00/M07 A3003 RMK SC1 SLP181

CYWG;2011-04-18 16:00;CYWG 181600Z 35003KT 15SM FEW040 01/M08 A3003 RMK SC1 SLP183

CYWG;2011-04-18 17:00;CYWG 181700Z 30006KT 15SM FEW040 02/M08 A3003 RMK CF1 SLP181

CYWG;2011-04-18 18:00;CYWG 181800Z 36005KT 15SM FEW040 03/M07 A3002 RMK CF2 SLP177

CYWG;2011-04-18 19:00;CYWG 181900Z 32006KT 15SM SCT049 04/M08 A3001 RMK CU4 SLP174

CYWG;2011-04-18 20:00;CYWG 182000Z 33007KT 15SM BKN047 04/M06 A3001 RMK SC6 CU ASOCTD SLP173

CYWG;2011-04-18 21:00;CYWG 182100Z CCA 32006KT 15SM VCSH BKN047 04/M06 A3001 RMK SC6 CU ASOCTD SLP173

CYWG;2011-04-18 22:00;CYWG 182200Z 34005KT 15SM VCSH BKN047 04/M07 A3001 RMK SC7 CU ASOCTD SLP173

CYWG;2011-04-18 23:00;CYWG 182300Z 28008KT 15SM VCSH BKN049 BKN071 04/M06 A3002 RMK SC6AC1 CU ASOCTD SLP176

CYWG;2011-04-19 00:00;CYWG 190000Z 29009KT 15SM VCSH SCT045 BKN062 03/M05 A3002 RMK SC4SC2 CU ASOCTD SLP179

CYWG;2011-04-19 01:00;CYWG 190100Z 26004KT 15SM VCSH FEW062 SCT093 03/M06 A3003 RMK SC2AC2 CU ASOCTD SCT VIRGA ALQDS SLP181

CYWG;2011-04-19 02:00;CYWG 190200Z 25004KT 15SM FEW060 FEW090 01/M06 A3004 RMK SC1AC1 SLP186

CYWG;2011-04-19 03:00;CYWG 190300Z 23007KT 15SM FEW090 M01/M06 A3006 RMK AC1 SLP192

CYWG;2011-04-19 04:00;CYWG 190400Z 23006KT 15SM SKC M02/M03 A3006 RMK SLP193

CYWG;2011-04-19 05:00;CYWG 190500Z 24006KT 15SM SKC M02/M04 A3006 RMK SLP193

CYWG;2011-04-19 06:00;CYWG 190600Z 25005KT 15SM SKC M02/M04 A3007 RMK SLP195

CYWG;2011-04-19 07:00;CYWG 190700Z 26005KT 15SM SKC M02/M04 A3007 RMK SLP196

CYWG;2011-04-19 08:00;CYWG 190800Z 24004KT 15SM SKC M02/M05 A3008 RMK SLP197

CYWG;2011-04-19 09:00;CYWG 190900Z 25006KT 15SM SKC M03/M05 A3008 RMK SLP199

CYWG;2011-04-19 10:00;CYWG 191000Z 15003KT 15SM SKC M04/M05 A3007 RMK SLP195

CYWG;2011-04-19 11:00;CYWG 191100Z 16005KT 15SM FEW050 M04/M05 A3007 RMK SC1 FROIN SLP196

CYWG;2011-04-19 12:00;CYWG 191200Z 18006KT 15SM FEW050 M04/M05 A3008 RMK SC1 SLP198

CYWG;2011-04-19 13:00;CYWG 191300Z 17003KT 15SM FEW050 BKN200 BKN250 M01/M03 A3008 RMK SC1CI2CI1 SLP200

CYWG;2011-04-19 14:00;CYWG 191400Z 18004KT 15SM FEW050 BKN200 BKN250 01/M02 A3009 RMK SC1CI2CI0 SLP204

CYWG;2011-04-19 15:00;CYWG 191500Z 16005KT 15SM FEW035 BKN200 BKN250 04/M02 A3010 RMK CU1CI2CI0 SLP204

CYWG;2011-04-19 16:00;CYWG 191600Z 20006KT 15SM FEW045 BKN270 05/M05 A3010 RMK CU2CI1 SLP206

CYWG;2011-04-19 17:00;CYWG 191700Z 18007KT 15SM SCT042 BKN270 05/M08 A3011 RMK CU4CI2 SLP209

CYWG;2011-04-19 18:00;CYWG 191800Z 21007KT 15SM SCT051 BKN270 05/M06 A3011 RMK CU4CI2 SLP208

CYWG;2011-04-19 19:00;CYWG 191900Z 18006KT 15SM BKN047 OVC270 06/M06 A3010 RMK SC6CI2 SLP204

CYWG;2011-04-19 20:00;CYWG 192000Z 18002KT 15SM BKN050 OVC240 06/M07 A3009 RMK SC6CI1 SLP200

CYWG;2011-04-19 21:00;CYWG 192100Z 22002KT 15SM BKN050 OVC240 06/M06 A3007 RMK SC6CI0 OBS TAKEN +07 SLP195

CYWG;2011-04-19 22:00;CYWG 192200Z 25005KT 15SM BKN050 OVC240 06/M07 A3006 RMK SC5CI2 SLP192

CYWG;2011-04-19 23:00;CYWG 192300Z 24006KT 15SM SCT052 OVC240 06/M06 A3005 RMK SC4CI2 SLP188

CYWG;2011-04-20 00:00;CYWG 200000Z 28005KT 15SM FEW054 OVC200 06/M06 A3005 RMK SC2CI5 SLP189

CYWG;2011-04-20 01:00;CYWG 200100Z 28005KT 15SM FEW050 OVC200 04/M03 A3006 RMK SC2CI6 SLP191

CYWG;2011-04-20 02:00;CYWG 200200Z 26002KT 15SM FEW050 OVC200 03/M05 A3006 RMK SC2CI6 SLP192

CYWG;2011-04-20 03:00;CYWG 200300Z 24003KT 15SM FEW050 OVC200 03/M04 A3007 RMK SC2CI4 SLP192

CYWG;2011-04-20 04:00;CYWG 200400Z 27002KT 15SM OVC200 02/M03 A3006 RMK CI6 SLP191

CYWG;2011-04-20 05:00;CYWG 200500Z 26004KT 15SM OVC200 02/M03 A3006 RMK CI6 SLP190

CYWG;2011-04-20 06:00;CYWG 200600Z 24005KT 15SM FEW100 OVC200 01/M04 A3006 RMK AC2CI4 SLP189

CYWG;2011-04-20 07:00;CYWG 200700Z 25006KT 15SM FEW080 BKN200 01/M04 A3006 RMK AC2CI2 SLP188

CYWG;2011-04-20 08:00;CYWG 200800Z 25005KT 15SM SCT060 BKN200 01/M03 A3005 RMK SC3CI0 SLP186

CYWG;2011-04-20 09:00;CYWG 200900Z 24004KT 15SM SCT060 BKN200 M00/M04 A3004 RMK SC3CI1 SLP184

CYWG;2011-04-20 10:00;CYWG 201000Z 25005KT 15SM FEW060 BKN200 M01/M04 A3005 RMK SC2CI1 SLP187

CYWG;2011-04-20 11:00;CYWG 201100Z 23004KT 15SM FEW060 BKN250 M02/M04 A3006 RMK SC2CI2 SLP188

CYWG;2011-04-20 12:00;CYWG 201200Z 21004KT 15SM FEW060 BKN250 M02/M04 A3006 RMK SC1CI2 SLP190

CYWG;2011-04-20 13:00;CYWG 201300Z 22005KT 15SM FEW060 BKN250 01/M02 A3006 RMK SC1CI2 SLP192

CYWG;2011-04-20 14:00;CYWG 201400Z 27006KT 15SM FEW060 SCT250 03/M02 A3006 RMK SC1CI1 SLP191

CYWG;2011-04-20 15:00;CYWG 201500Z 27005KT 15SM FEW250 05/M01 A3005 RMK CI1 SLP187

CYWG;2011-04-20 16:00;CYWG 201600Z 25006KT 15SM FEW035 FEW250 07/M02 A3005 RMK CF1CI1 SLP186

CYWG;2011-04-20 17:00;CYWG 201700Z 27006KT 15SM BKN060 07/M06 A3005 RMK CU5 SLP187

CYWG;2011-04-20 18:00;CYWG 201800Z 28012G17KT 15SM BKN053 08/M05 A3004 RMK CU5 TCU ASOCTD VIRGA ALL QUADS SLP183

CYWG;2011-04-20 19:00;CYWG 201900Z 28011KT 15SM BKN055 09/M05 A3003 RMK CU6 VIRGA ALQDS SLP180

CYWG;2011-04-20 20:00;CYWG 202000Z 21008KT 15SM BKN036 09/M05 A3002 RMK CU5 VIRGA ALQDS SLP175

CYWG;2011-04-20 21:00;CYWG 202100Z 24014G20KT 15SM SCT051 08/M02 A3002 RMK CU3 VIRGA ALQDS OBS TAKEN +01 SLP175

CYWG;2011-04-20 22:00;CYWG 202200Z 23006G15KT 15SM SCT049 08/01 A3002 RMK CU4 VIRGA ALQDS SLP174

CYWG;2011-04-20 22:40;CYWG 202240Z 23009G16KT 15SM -SHRA BKN040 08/ RMK CU5

CYWG;2011-04-20 23:00;CYWG 202300Z 24012G17KT 15SM -SHRA BKN038 07/M00 A3002 RMK CU5 TCU SE SLP175

CYWG;2011-04-21 00:00;CYWG 210000Z 27009KT 15SM -SHRA FEW013 BKN043 05/02 A3003 RMK SF2CU3 SLP182

CYWG;2011-04-21 01:00;CYWG 210100Z 18006KT 15SM FEW013 SCT053 05/03 A3003 RMK SF1CU3 TCU S SLP179

CYWG;2011-04-21 02:00;CYWG 210200Z 21010KT 15SM FEW045 SCT077 04/02 A3003 RMK CU1AC2 SLP181

CYWG;2011-04-21 03:00;CYWG 210300Z 20009KT 15SM SKC 03/01 A3005 RMK SLP185

CYWG;2011-04-21 04:00;CYWG 210400Z 19011KT 15SM SKC 02/00 A3005 RMK SLP187

CYWG;2011-04-21 05:00;CYWG 210500Z 19010KT 15SM SKC 02/00 A3004 RMK SLP184

CYWG;2011-04-21 06:00;CYWG 210600Z 21011KT 15SM SKC 02/00 A3005 RMK SLP185

CYWG;2011-04-21 07:00;CYWG 210700Z 21009KT 15SM SKC 01/M00 A3005 RMK SLP185

CYWG;2011-04-21 08:00;CYWG 210800Z 22008KT 15SM SKC 01/M01 A3004 RMK SLP181

CYWG;2011-04-21 09:00;CYWG 210900Z 21010KT 15SM SKC 01/M01 A3004 RMK SLP182

CYWG;2011-04-21 10:00;CYWG 211000Z 21009KT 15SM SKC 00/M01 A3005 RMK SLP185

CYWG;2011-04-21 11:00;CYWG 211100Z 19011KT 15SM SCT250 00/M01 A3005 RMK CI2 SLP186

CYWG;2011-04-21 12:00;CYWG 211200Z 19010KT 15SM FEW160 SCT250 00/M01 A3005 RMK AC1CI2 SLP188

CYWG;2011-04-21 13:00;CYWG 211300Z 19012KT 15SM FEW160 BKN250 02/M01 A3007 RMK AC1CI2 SLP193

CYWG;2011-04-21 14:00;CYWG 211400Z 18011KT 15SM BKN250 03/M00 A3007 RMK CI2 SLP194

CYWG;2011-04-21 15:00;CYWG 211500Z 19013KT 15SM BKN250 05/M01 A3006 RMK CI2 SLP191

CYWG;2011-04-21 16:00;CYWG 211600Z 18016KT 15SM SCT250 08/M02 A3006 RMK CI2 SLP189

CYWG;2011-04-21 17:00;CYWG 211700Z 18017G25KT 15SM FEW120 SCT250 10/M02 A3004 RMK AC1CI1 SLP184

CYWG;2011-04-21 18:00;CYWG 211800Z 18024G29KT 15SM FEW120 BKN250 11/M02 A3003 RMK AC1CI2 SLP177

CYWG;2011-04-21 19:00;CYWG 211900Z 17020G26KT 15SM SCT090 BKN250 10/M01 A3000 RMK AC4CI2 VIRGA S SLP169

CYWG;2011-04-21 20:00;CYWG 212000Z 18019G27KT 15SM BKN094 OVC250 11/01 A2999 RMK AC6CI0 VIRGA NE-E SLP165

CYWG;2011-04-21 21:00;CYWG 212100Z 19020G25KT 15SM FEW040 SCT094 OVC250 11/01 A2998 RMK CU1AC3CI2 SLP161

CYWG;2011-04-21 22:00;CYWG 212200Z 19018G26KT 15SM FEW031 OVC085 09/03 A2997 RMK CU2AC6 VIRGA S-W SLP158

CYWG;2011-04-21 22:20;CYWG 212220Z 19014G30KT 15SM -SHRA FEW021 SCT044 OVC075 07/ RMK CU1SC2AC5

CYWG;2011-04-21 23:00;CYWG 212300Z 19014G21KT 10SM -SHRA BKN016 OVC087 07/04 A2998 RMK SC5AC3 SLP161

CYWG;2011-04-22 00:00;CYWG 220000Z 18016KT 10SM -SHRA OVC012 06/05 A2999 RMK SC8 SLP167

CYWG;2011-04-22 00:34;CYWG 220034Z 18015KT 10SM -SHRA BKN015 OVC037 06/ RMK SC5SC3

CYWG;2011-04-22 01:00;CYWG 220100Z 17015KT 10SM -SHRA FEW014 OVC027 06/05 A2998 RMK SF2SC6 SLP164

CYWG;2011-04-22 02:00;CYWG 220200Z 17014G20KT 8SM -SHRA OVC013 05/04 A2998 RMK SC8 SLP163

CYWG;2011-04-22 03:00;CYWG 220300Z 17017KT 15SM SCT013 OVC028 05/04 A2998 RMK SC4SC4 SLP163

CYWG;2011-04-22 04:00;CYWG 220400Z 16017KT 15SM BKN013 OVC032 05/04 A2998 RMK SC5SC3 SLP161

CYWG;2011-04-22 05:00;CYWG 220500Z 16014KT 15SM BKN013 OVC033 05/03 A2996 RMK SC6SC2 SLP156

CYWG;2011-04-22 06:00;CYWG 220600Z 17011KT 15SM BKN013 OVC035 04/03 A2996 RMK SC6SC2 SLP155

CYWG;2011-04-22 07:00;CYWG 220700Z 17012KT 12SM -RA OVC015 04/03 A2996 RMK SC8 SLP154

CYWG;2011-04-22 07:18;CYWG 220718Z 17012KT 6SM -DZ BR OVC011 04/ RMK SC8

CYWG;2011-04-22 07:36;CYWG 220736Z 17012KT 5SM -DZ BR OVC009 04/ RMK SF8

CYWG;2011-04-22 08:00;CYWG 220800Z 17013KT 5SM -DZ BR OVC009 04/04 A2995 RMK SF8 SLP151

CYWG;2011-04-22 09:00;CYWG 220900Z 17010KT 5SM -DZ BR OVC006 04/04 A2994 RMK SF8 SLP148

CYWG;2011-04-22 09:24;CYWG 220924Z 17011KT 15SM OVC008 04/ RMK SF8

CYWG;2011-04-22 10:00;CYWG 221000Z 16012G17KT 15SM OVC009 04/03 A2993 RMK SF8 SLP143

CYWG;2011-04-22 11:00;CYWG 221100Z 17012KT 10SM OVC010 04/03 A2993 RMK ST8 SLP143

CYWG;2011-04-22 11:14;CYWG 221114Z 17013KT 6SM -DZ OVC009 04/ RMK ST8

CYWG;2011-04-22 12:00;CYWG 221200Z 17009KT 5SM -DZ OVC006 04/03 A2992 RMK ST8 SLP140

CYWG;2011-04-22 12:47;CYWG 221247Z 15005KT 10SM OVC009 04/ RMK ST8

CYWG;2011-04-22 13:00;CYWG 221300Z 14006KT 10SM OVC010 04/04 A2991 RMK ST8 OBS TAKEN +08 SLP139

CYWG;2011-04-22 14:00;CYWG 221400Z 15008KT 10SM -DZ OVC009 04/03 A2991 RMK ST8 SLP139

CYWG;2011-04-22 14:32;CYWG 221432Z 15008KT 10SM -DZ OVC011 OVC073 04/ RMK ST7AC1

CYWG;2011-04-22 15:00;CYWG 221500Z 15007KT 10SM -DZ OVC011 OVC070 05/03 A2990 RMK ST7AC1 SLP134

CYWG;2011-04-22 16:00;CYWG 221600Z 14007KT 10SM -DZ OVC013 OVC070 05/04 A2989 RMK ST7AC1 SLP131

CYWG;2011-04-22 16:18;CYWG 221618Z 14007KT 10SM OVC013 OVC070 06/ RMK SF7AC1

CYWG;2011-04-22 17:00;CYWG 221700Z 14009KT 10SM OVC013 05/03 A2989 RMK SC8 SLP131

CYWG;2011-04-22 18:00;CYWG 221800Z 14008KT 15SM OVC013 06/04 A2988 RMK SC8 SLP127

CYWG;2011-04-22 19:00;CYWG 221900Z 14002KT 15SM OVC015 06/03 A2987 RMK SC8 SLP122

CYWG;2011-04-22 20:00;CYWG 222000Z 11003KT 15SM OVC017 07/03 A2986 RMK SC8 SLP120

CYWG;2011-04-22 21:00;CYWG 222100Z 11007KT 15SM OVC019 08/04 A2984 RMK SC8 SLP113

CYWG;2011-04-22 22:00;CYWG 222200Z 08003KT 15SM BKN022 OVC034 08/03 A2983 RMK SC6SC2 SLP110

CYWG;2011-04-22 23:00;CYWG 222300Z 05003KT 15SM OVC024 08/04 A2983 RMK SC8 SLP109

CYWG;2011-04-23 00:00;CYWG 230000Z 01009KT 15SM BKN024 OVC047 07/05 A2982 RMK SC6SC2 SLP107

CYWG;2011-04-23 01:00;CYWG 230100Z 03009KT 12SM -RA BKN024 OVC050 06/05 A2982 RMK SC6SC2 SLP107

CYWG;2011-04-23 02:00;CYWG 230200Z 04010KT 12SM -RA FEW025 OVC040 05/04 A2981 RMK SC1SC7 SLP104

CYWG;2011-04-23 02:48;CYWG 230248Z 03006KT 15SM BKN060 05/ RMK SC7

CYWG;2011-04-23 03:00;CYWG 230300Z 02006KT 15SM BKN058 05/03 A2981 RMK SC7 SLP103

CYWG;2011-04-23 04:00;CYWG 230400Z 02008KT 15SM OVC035 04/03 A2980 RMK SC8 SLP102

CYWG;2011-04-23 05:00;CYWG 230500Z 01008KT 15SM OVC030 04/03 A2980 RMK SC8 SLP100

CYWG;2011-04-23 06:00;CYWG 230600Z 36005KT 15SM OVC030 04/03 A2980 RMK SC8 SLP100

CYWG;2011-04-23 07:00;CYWG 230700Z 34006KT 15SM BKN040 04/03 A2980 RMK SC7 SLP099

CYWG;2011-04-23 08:00;CYWG 230800Z 33007KT 15SM BKN042 01/01 A2980 RMK SC2 SLP099

CYWG;2011-04-23 09:00;CYWG 230900Z 33007KT 10SM FEW040 BKN120 01/01 A2980 RMK SC1AC1 BR SLP102

CYWG;2011-04-23 09:49;CYWG 230949Z CCA 32006KT 2SM BR FEW120 M01/ RMK AC0 VIS W-NW 7

CYWG;2011-04-23 10:00;CYWG 231000Z 31004KT 1 1/2SM BR FEW120 M01/M01 A2982 RMK AC0 SLP106

CYWG;2011-04-23 10:16;CYWG 231016Z 31005KT 1SM R13/3500VP6000FT/D R36/P6000FT/N BR FEW250 M02/ RMK CI1

CYWG;2011-04-23 11:00;CYWG 231100Z 29006KT 1SM R13/P6000FT/U R36/P6000FT/N BR FEW250 M02/M02 A2982 RMK CI1 SLP106

CYWG;2011-04-23 11:31;CYWG 231131Z 29005KT 3SM BR FEW250 M02/ RMK CI1

CYWG;2011-04-23 14:00;CYWG 231400Z 29008KT 15SM FEW015 BKN250 04/03 A2983 RMK ST1CI1 SLP113

CYWG;2011-04-23 15:00;CYWG 231500Z 28006KT 15SM FEW030 BKN250 07/04 A2983 RMK SC1CI1 SLP109

CYWG;2011-04-23 16:00;CYWG 231600Z 25004KT 15SM FEW050 BKN250 09/02 A2982 RMK SC2CI0 SLP108

CYWG;2011-04-23 17:00;CYWG 231700Z 25007KT 15SM FEW050 BKN250 11/01 A2982 RMK SC2CI1 SLP107

CYWG;2011-04-23 18:00;CYWG 231800Z 26006KT 15SM SCT081 BKN250 13/02 A2981 RMK CF3CI0 SLP103

CYWG;2011-04-23 19:00;CYWG 231900Z 28008KT 15SM BKN046 13/01 A2981 RMK CU5 SLP102

CYWG;2011-04-23 20:00;CYWG 232000Z 30012KT 15SM SCT050 12/M03 A2980 RMK CU4 SLP099

CYWG;2011-04-23 20:39;CYWG 232039Z 26014G21KT 15SM -SHRA BKN046 11/ RMK CU5

CYWG;2011-04-23 21:00;CYWG 232100Z 32011KT 15SM BKN040 12/02 A2981 RMK CU6 TCU ASOCTD SHWRS E SLP104

CYWG;2011-04-23 22:00;CYWG 232200Z 26003KT 15SM SCT076 SCT250 13/M02 A2979 RMK CU4CI1 SLP095

CYWG;2011-04-23 23:00;CYWG 232300Z 25007KT 15SM SCT049 BKN250 13/M00 A2978 RMK CU3CI1 TCU + SHWRS E SLP093

CYWG;2011-04-24 00:00;CYWG 240000Z 22008KT 15SM SCT042 11/M01 A2979 RMK CU4 SLP095

CYWG;2011-04-24 01:00;CYWG 240100Z 23010KT 15SM FEW071 11/M01 A2978 RMK CU2 SLP093

CYWG;2011-04-24 02:00;CYWG 240200Z 21007KT 15SM SCT085 09/01 A2979 RMK AC3 SLP095

CYWG;2011-04-24 03:00;CYWG 240300Z 21010KT 15SM BKN046 11/00 A2979 RMK SC5 SLP096

CYWG;2011-04-24 04:00;CYWG 240400Z 18009KT 15SM FEW043 FEW093 07/01 A2978 RMK SC1AC1 SLP092

CYWG;2011-04-24 05:00;CYWG 240500Z 30004KT 15SM SCT072 06/02 A2979 RMK AC3 SLP096

CYWG;2011-04-24 06:00;CYWG 240600Z 23005KT 15SM SCT080 04/02 A2979 RMK AC3 SLP095

CYWG;2011-04-24 07:00;CYWG 240700Z 24005KT 15SM FEW088 02/00 A2980 RMK AC1 SLP097

CYWG;2011-04-24 08:00;CYWG 240800Z 24006KT 15SM SKC 02/00 A2980 RMK SLP097

CYWG;2011-04-24 09:00;CYWG 240900Z 25007KT 15SM FEW100 01/M01 A2980 RMK AC1 SLP100

CYWG;2011-04-24 10:00;CYWG 241000Z 32006KT 15SM SKC M01/M02 A2981 RMK SLP102

CYWG;2011-04-24 11:00;CYWG 241100Z 36005KT 15SM FEW090 SCT250 M01/M02 A2980 RMK AC1CI2 SLP101

CYWG;2011-04-24 12:00;CYWG 241200Z 08003KT 15SM FEW090 BKN250 M00/M01 A2979 RMK AC2CI3 SLP097

CYWG;2011-04-24 13:00;CYWG 241300Z 16006KT 15SM FEW090 BKN250 03/01 A2979 RMK AC1CI2 SLP096

CYWG;2011-04-24 14:00;CYWG 241400Z 13007KT 15SM BKN250 06/01 A2977 RMK CI2 SLP090

CYWG;2011-04-24 15:00;CYWG 241500Z 18010KT 15SM FEW030 BKN250 09/02 A2976 RMK CF1CI2 SLP084

CYWG;2011-04-24 16:00;CYWG 241600Z 21009KT 15SM BKN250 11/04 A2974 RMK CI5 SLP077

CYWG;2011-04-24 17:00;CYWG 241700Z 22010G16KT 15SM BKN250 13/04 A2974 RMK CI4 SLP077

CYWG;2011-04-24 18:00;CYWG 241800Z 26009G16KT 15SM FEW090 BKN250 14/03 A2972 RMK AC1CI3 SLP072

CYWG;2011-04-24 19:00;CYWG 241900Z 26013G20KT 15SM FEW045 FEW094 SCT270 15/03 A2972 RMK CU1AC2CI0 CU TR SLP070

CYWG;2011-04-24 20:00;CYWG 242000Z 28013KT 15SM FEW045 BKN057 14/02 A2972 RMK CU1SC5 SLP070

CYWG;2011-04-24 21:00;CYWG 242100Z 32013KT 15SM FEW050 15/03 A2971 RMK CU2 SLP067

CYWG;2011-04-24 22:00;CYWG 242200Z 29010KT 15SM FEW050 SCT085 15/02 A2970 RMK CU2AC2 SLP064

CYWG;2011-04-24 23:00;CYWG 242300Z 29016KT 15SM FEW050 FEW083 16/00 A2970 RMK CU1AC2 SLP064

CYWG;2011-04-25 00:00;CYWG 250000Z 32012KT 15SM FEW040 FEW085 14/03 A2970 RMK CF1AC1 CF TR SLP067

CYWG;2011-04-25 01:00;CYWG 250100Z 29006KT 15SM SKC 11/03 A2971 RMK OBS TAKEN +01 SLP069

CYWG;2011-04-25 02:00;CYWG 250200Z 30005KT 15SM SKC 09/04 A2974 RMK SLP077

CYWG;2011-04-25 03:00;CYWG 250300Z 28007KT 15SM SKC 07/03 A2976 RMK SLP086

CYWG;2011-04-25 04:00;CYWG 250400Z 28007KT 15SM SKC 07/02 A2978 RMK SLP091

CYWG;2011-04-25 05:00;CYWG 250500Z 27004KT 15SM SKC 05/01 A2979 RMK SLP095

CYWG;2011-04-25 06:00;CYWG 250600Z 03007KT 15SM FEW120 03/01 A2981 RMK AC1 SLP103

CYWG;2011-04-25 06:44;CYWG 250644Z 05006KT 15SM FEW120 02/ RMK AC1

CYWG;2011-04-25 07:00;CYWG 250700Z 04006KT 15SM FEW120 02/01 A2983 RMK AC1 SLP108

CYWG;2011-04-25 08:00;CYWG 250800Z 05004KT 15SM FEW120 01/00 A2984 RMK AC1 SLP112

CYWG;2011-04-25 09:00;CYWG 250900Z 05003KT 15SM SCT120 01/00 A2986 RMK AC3 SLP120

CYWG;2011-04-25 10:00;CYWG 251000Z 07004KT 15SM FEW100 01/M00 A2987 RMK AC2 SLP123

CYWG;2011-04-25 11:00;CYWG 251100Z 07005KT 15SM FEW100 00/M02 A2988 RMK AC1 VIRGA NNW SLP125

CYWG;2011-04-25 12:00;CYWG 251200Z 03004KT 15SM FEW100 00/M02 A2988 RMK ACC2 SLP127

CYWG;2011-04-25 13:00;CYWG 251300Z 08007KT 15SM FEW100 BKN250 05/M00 A2989 RMK ACC1CI1 SLP129

CYWG;2011-04-25 14:00;CYWG 251400Z 09010KT 15SM FEW096 SCT250 08/M02 A2990 RMK AC1CI1 SLP133

CYWG;2011-04-25 15:00;CYWG 251500Z 08014KT 15SM FEW090 FEW250 09/M02 A2989 RMK AC1CI1 SLP130

CYWG;2011-04-25 16:00;CYWG 251600Z 08013KT 15SM FEW090 FEW250 11/00 A2990 RMK AC1CI1 SLP131

CYWG;2011-04-25 17:00;CYWG 251700Z 07014KT 15SM FEW090 SCT250 12/01 A2989 RMK AC1CI1 SLP128

CYWG;2011-04-25 18:00;CYWG 251800Z 09013KT 15SM FEW090 BKN250 13/01 A2987 RMK AC2CI0 SLP122

CYWG;2011-04-25 19:00;CYWG 251900Z 08011G18KT 15SM FEW090 BKN250 15/02 A2985 RMK AC1CI0 SLP115

CYWG;2011-04-25 20:00;CYWG 252000Z 07013G24KT 15SM FEW090 BKN250 15/02 A2983 RMK AC1CI1 SLP111

CYWG;2011-04-25 21:00;CYWG 252100Z 08014G19KT 15SM FEW090 SCT250 16/01 A2982 RMK AC1CI0 SLP104

CYWG;2011-04-25 22:00;CYWG 252200Z 07015KT 15SM FEW070 FEW250 16/02 A2980 RMK AC1CI0 SLP098

CYWG;2011-04-25 23:00;CYWG 252300Z 07017KT 15SM FEW050 FEW070 FEW250 15/02 A2979 RMK CU1AC1CI0 SLP094

CYWG;2011-04-26 00:00;CYWG 260000Z 08017KT 15SM FEW050 FEW070 FEW250 13/02 A2978 RMK CU1AC1CI0 SLP094

CYWG;2011-04-26 01:00;CYWG 260100Z 07015G21KT 15SM FEW050 SCT250 12/01 A2978 RMK CU1CI0 SLP092

CYWG;2011-04-26 02:00;CYWG 260200Z 07014KT 15SM FEW050 BKN250 10/01 A2979 RMK CU1CI1 SLP096

CYWG;2011-04-26 03:00;CYWG 260300Z 08011G17KT 15SM FEW100 09/01 A2982 RMK AC2 SLP103

CYWG;2011-04-26 04:00;CYWG 260400Z 10007KT 15SM FEW100 08/01 A2983 RMK AC2 SLP108

CYWG;2011-04-26 05:00;CYWG 260500Z 12008KT 15SM SCT064 07/01 A2984 RMK SC4 SLP110

CYWG;2011-04-26 06:00;CYWG 260600Z 10012KT 15SM BKN078 08/01 A2980 RMK AC6 SLP096

CYWG;2011-04-26 07:00;CYWG 260700Z 35009KT 15SM SCT074 06/01 A2980 RMK AC4 SLP097

CYWG;2011-04-26 08:00;CYWG 260800Z 09013KT 15SM SCT100 04/00 A2978 RMK AC4 SLP089

CYWG;2011-04-26 09:00;CYWG 260900Z 07005KT 15SM FEW100 03/M00 A2978 RMK AC2 SLP090

CYWG;2011-04-26 10:00;CYWG 261000Z 09007KT 15SM FEW100 03/M01 A2977 RMK AC1 SLP086

CYWG;2011-04-26 11:00;CYWG 261100Z 05005KT 15SM FEW100 BKN250 M00/M02 A2977 RMK AC2CI2 SLP086

CYWG;2011-04-26 12:00;CYWG 261200Z 07004KT 15SM FEW100 BKN250 01/M01 A2977 RMK AC1CI4 SLP088

CYWG;2011-04-26 13:00;CYWG 261300Z 09008KT 15SM FEW100 OVC250 05/01 A2977 RMK AC1CI5 SLP089

CYWG;2011-04-26 14:00;CYWG 261400Z 12008KT 15SM FEW080 OVC250 08/01 A2977 RMK AC2CI4 SLP088

CYWG;2011-04-26 15:00;CYWG 261500Z 09006KT 15SM FEW080 OVC250 10/02 A2976 RMK AC1CI4 SLP084

CYWG;2011-04-26 16:00;CYWG 261600Z 10005KT 15SM FEW090 OVC250 12/03 A2976 RMK AC1CI4 SLP084

CYWG;2011-04-26 17:00;CYWG 261700Z 06003KT 15SM FEW090 OVC250 14/03 A2976 RMK AC1CI4 SLP083

CYWG;2011-04-26 18:00;CYWG 261800Z 08004KT 15SM FEW060 OVC250 16/02 A2975 RMK CU1CI4 SLP079

CYWG;2011-04-26 19:00;CYWG 261900Z 09003KT 15SM FEW086 OVC250 17/03 A2974 RMK AC2CI3 SLP077

CYWG;2011-04-26 20:00;CYWG 262000Z 02007KT 15SM FEW086 OVC250 18/03 A2974 RMK AC2CI3 SLP076

CYWG;2011-04-26 21:00;CYWG 262100Z 06008KT 15SM FEW060 OVC250 19/03 A2974 RMK CU1CI5 CU TR SLP077

CYWG;2011-04-26 22:00;CYWG 262200Z 14004KT 15SM FEW060 OVC250 18/02 A2975 RMK CU2CI3 SLP079

CYWG;2011-04-26 23:00;CYWG 262300Z 14003KT 15SM FEW071 SCT090 OVC250 18/02 A2976 RMK CU2AC2CI2 SLP083

CYWG;2011-04-27 00:00;CYWG 270000Z 18005KT 15SM FEW073 FEW089 OVC250 17/03 A2977 RMK CU2AC1CI2 SLP087

CYWG;2011-04-27 01:00;CYWG 270100Z 21003KT 15SM FEW083 OVC250 15/02 A2978 RMK AC1CI2 SLP090

CYWG;2011-04-27 02:00;CYWG 270200Z 03006KT 15SM OVC250 11/06 A2978 RMK CI2 SLP092

CYWG;2011-04-27 03:00;CYWG 270300Z 04006KT 15SM BKN250 09/05 A2980 RMK CI3 SLP097

CYWG;2011-04-27 04:00;CYWG 270400Z 33002KT 15SM BKN096 BKN250 07/05 A2980 RMK AC6CI0 SLP097

CYWG;2011-04-27 05:00;CYWG 270500Z 06004KT 15SM SCT090 BKN250 07/04 A2980 RMK AC4CI0 SLP098

CYWG;2011-04-27 06:00;CYWG 270600Z 07003KT 15SM BKN250 06/04 A2980 RMK CI2 SLP097

CYWG;2011-04-27 07:00;CYWG 270700Z 06002KT 15SM BKN250 05/03 A2980 RMK CI3 SLP098

CYWG;2011-04-27 08:00;CYWG 270800Z 14004KT 15SM BKN250 07/02 A2981 RMK CI3 SLP099

CYWG;2011-04-27 09:00;CYWG 270900Z 14006KT 15SM BKN250 06/01 A2981 RMK CI3 SLP100

CYWG;2011-04-27 10:00;CYWG 271000Z 14005KT 15SM BKN250 05/01 A2981 RMK CI3 SLP101

CYWG;2011-04-27 11:00;CYWG 271100Z 14002KT 15SM FEW090 BKN250 05/01 A2983 RMK AC2CI1 SLP107

CYWG;2011-04-27 12:00;CYWG 271200Z 15005KT 15SM BKN090 06/03 A2985 RMK AC6 SLP115

CYWG;2011-04-27 13:00;CYWG 271300Z 16002KT 15SM SCT093 BKN250 08/04 A2986 RMK AC3CI2 SLP118

CYWG;2011-04-27 14:00;CYWG 271400Z 00000KT 15SM SCT050 BKN210 10/01 A2987 RMK SC3CI3 SLP119

CYWG;2011-04-27 15:00;CYWG 271500Z 15003KT 15SM SCT056 BKN072 BKN210 11/01 A2985 RMK SC3AC2CI1 SLP113

CYWG;2011-04-27 16:00;CYWG 271600Z 05004KT 15SM FEW033 SCT059 BKN071 13/02 A2984 RMK SC2SC2CI2 SLP110

CYWG;2011-04-27 16:12;CYWG 271612Z 08002KT 15SM -SHRA FEW021 BKN043 BKN073 12/ RMK SC2SC2AC2 CVCTV CLD EMBD

CYWG;2011-04-27 16:30;CYWG 271630Z 10006KT 15SM FEW025 SCT043 OVC073 14/ RMK SC2SC2AC2

CYWG;2011-04-27 17:00;CYWG 271700Z 10006KT 15SM FEW043 BKN200 14/01 A2982 RMK SC2CI2 SLP105

CYWG;2011-04-27 18:00;CYWG 271800Z 02005KT 15SM FEW066 BKN200 15/01 A2982 RMK SC2CI2 SLP104

CYWG;2011-04-27 19:00;CYWG 271900Z 06005KT 15SM FEW070 BKN210 16/01 A2981 RMK AC1CI3 SLP100

CYWG;2011-04-27 20:00;CYWG 272000Z 05008KT 15SM FEW064 FEW100 BKN210 17/01 A2979 RMK CU1AC1CI3 TR CU AC SLP095

CYWG;2011-04-27 21:00;CYWG 272100Z 01005KT 15SM FEW064 FEW110 BKN210 17/01 A2978 RMK CU1AC1CI2 TR AC SLP091

CYWG;2011-04-27 22:00;CYWG 272200Z 04007KT 15SM FEW056 FEW110 BKN210 17/03 A2977 RMK CU1AC1CI2 SLP088

CYWG;2011-04-27 23:00;CYWG 272300Z 05011G16KT 15SM FEW065 FEW110 OVC210 17/01 A2978 RMK CU1AC1CI4 SLP090

CYWG;2011-04-28 00:00;CYWG 280000Z 02011KT 15SM FEW060 BKN210 15/01 A2978 RMK CU1CI5 SLP091

CYWG;2011-04-28 01:00;CYWG 280100Z 03008KT 15SM FEW055 OVC210 13/03 A2978 RMK SC1CI5 SLP091

CYWG;2011-04-28 02:00;CYWG 280200Z 04006KT 15SM OVC210 10/02 A2979 RMK CI6 SLP093

CYWG;2011-04-28 03:00;CYWG 280300Z 03006KT 15SM BKN210 07/02 A2980 RMK CI2 SLP099

CYWG;2011-04-28 04:00;CYWG 280400Z 05007KT 15SM BKN210 06/01 A2980 RMK CI2 SLP099

CYWG;2011-04-28 05:00;CYWG 280500Z 35002KT 15SM BKN210 06/01 A2981 RMK CI2 SLP102

CYWG;2011-04-28 06:00;CYWG 280600Z 03002KT 15SM BKN210 03/00 A2982 RMK CI3 SLP105

CYWG;2011-04-28 07:00;CYWG 280700Z 00000KT 15SM BKN210 04/02 A2982 RMK CI2 SLP106

CYWG;2011-04-28 08:00;CYWG 280800Z 34002KT 15SM BKN210 02/00 A2982 RMK CI2 SLP105

CYWG;2011-04-28 09:00;CYWG 280900Z 06002KT 15SM SKC 02/01 A2982 RMK SLP104

CYWG;2011-04-28 10:00;CYWG 281000Z 02003KT 15SM SCT210 M01/M02 A2982 RMK CI1 SLP104

CYWG;2011-04-28 11:00;CYWG 281100Z 00000KT 15SM SCT220 M02/M03 A2983 RMK CI1 SLP106

CYWG;2011-04-28 12:00;CYWG 281200Z 08002KT 15SM SCT220 BKN300 M01/M02 A2983 RMK CI1CI1 SLP109

CYWG;2011-04-28 13:00;CYWG 281300Z 12003KT 15SM FEW100 SCT220 BKN300 07/03 A2983 RMK AC1CI1CI0 HZ SLP110

CYWG;2011-04-28 14:00;CYWG 281400Z 16005KT 15SM SCT220 BKN300 10/M06 A2984 RMK CI1CI1 SLP112

CYWG;2011-04-28 15:00;CYWG 281500Z 14006KT 15SM SCT220 BKN300 12/M09 A2983 RMK CI1CI1 SLP107

CYWG;2011-04-28 16:00;CYWG 281600Z 13005KT 15SM FEW220 BKN300 13/M09 A2983 RMK CI1CI1 SLP107

CYWG;2011-04-28 17:00;CYWG 281700Z 15007KT 15SM SCT220 BKN300 15/M07 A2982 RMK CI1CI1 SLP105

CYWG;2011-04-28 18:00;CYWG 281800Z 15006KT 15SM SCT220 BKN300 15/M08 A2982 RMK CI2CS1 HALO SLP105

CYWG;2011-04-28 19:00;CYWG 281900Z 17006KT 15SM BKN230 17/M06 A2981 RMK CI2 SLP101

CYWG;2011-04-28 20:00;CYWG 282000Z 13004KT 15SM FEW050TCU BKN230 16/M06 A2980 RMK TCU1CI2 SLP098

CYWG;2011-04-28 21:00;CYWG 282100Z 14007KT 15SM FEW050TCU SCT230 18/M05 A2977 RMK TCU1CI1 TCU W QUAD SLP088

CYWG;2011-04-28 22:00;CYWG 282200Z 17009G15KT 15SM FEW050 FEW230 18/M05 A2976 RMK CU1CI2 TR CU SLP084

CYWG;2011-04-28 23:00;CYWG 282300Z 22011KT 15SM FEW050 FEW230 18/M07 A2976 RMK SC1CI1 TR SC SLP083

CYWG;2011-04-29 00:00;CYWG 290000Z 20009KT 15SM FEW050 FEW230 17/M04 A2974 RMK SC1CI1 OBS TAKEN +08 SLP079

CYWG;2011-04-29 01:00;CYWG 290100Z 18010KT 15SM FEW230 15/M01 A2974 RMK CI1 SLP078

CYWG;2011-04-29 02:00;CYWG 290200Z 19008KT 15SM FEW230 12/M00 A2974 RMK CI1 SLP078

CYWG;2011-04-29 03:00;CYWG 290300Z 18009KT 15SM FEW230 10/M01 A2974 RMK CI1 SLP076

CYWG;2011-04-29 04:00;CYWG 290400Z 18011KT 15SM SKC 10/M01 A2974 RMK SLP075

CYWG;2011-04-29 05:00;CYWG 290500Z 18011KT 15SM SKC 10/M00 A2973 RMK SLP072

CYWG;2011-04-29 06:00;CYWG 290600Z 17013G18KT 15SM SKC 10/M01 A2971 RMK SLP065

CYWG;2011-04-29 07:00;CYWG 290700Z 18013KT 15SM SKC 10/M00 A2970 RMK SLP061

CYWG;2011-04-29 08:00;CYWG 290800Z 18015KT 15SM SCT210 10/01 A2969 RMK CI2 SLP057

CYWG;2011-04-29 09:00;CYWG 290900Z 18015KT 15SM BKN210 09/00 A2968 RMK CI2 SLP055

CYWG;2011-04-29 10:00;CYWG 291000Z 18016KT 15SM BKN210 09/01 A2967 RMK CI2 SLP052

CYWG;2011-04-29 11:00;CYWG 291100Z 18016KT 15SM SCT250 09/M00 A2966 RMK CI2 SLP048

CYWG;2011-04-29 12:00;CYWG 291200Z 17016KT 15SM SCT250 09/01 A2966 RMK CI2 SLP048

CYWG;2011-04-29 13:00;CYWG 291300Z 18018G24KT 15SM FEW100 SCT250 11/02 A2966 RMK AC1CI1 SLP047

CYWG;2011-04-29 14:00;CYWG 291400Z 18015G25KT 15SM FEW250 14/03 A2964 RMK CI1 SLP043

CYWG;2011-04-29 15:00;CYWG 291500Z 18018G26KT 15SM FEW250 16/04 A2963 RMK CI1 SLP038

CYWG;2011-04-29 16:00;CYWG 291600Z 18017G25KT 15SM FEW250 19/05 A2962 RMK CI1 SLP034

CYWG;2011-04-29 17:00;CYWG 291700Z 17019KT 15SM SCT250 20/05 A2961 RMK CI2 SLP032

CYWG;2011-04-29 18:00;CYWG 291800Z 17021G27KT 15SM FEW120 BKN250 21/05 A2960 RMK AC2CI2 SLP025

CYWG;2011-04-29 19:00;CYWG 291900Z 18021G26KT 15SM FEW060 OVC250 21/04 A2959 RMK CU1CS6 SLP022

CYWG;2011-04-29 20:00;CYWG 292000Z 16022G27KT 15SM FEW070 BKN250 22/04 A2957 RMK CU1CS6 SLP016

CYWG;2011-04-29 21:00;CYWG 292100Z 17018KT 15SM FEW070 BKN250 22/03 A2955 RMK CU1CS5 SLP010

CYWG;2011-04-29 22:00;CYWG 292200Z 16020KT 15SM FEW075 BKN250 22/03 A2954 RMK AC1CI4 SLP005

CYWG;2011-04-29 23:00;CYWG 292300Z 15019KT 15SM FEW075 OVC250 22/03 A2954 RMK AC1CS6 SLP004

CYWG;2011-04-30 00:00;CYWG 300000Z 14016G22KT 15SM OVC250 21/03 A2954 RMK CS6 SLP006

CYWG;2011-04-30 01:00;CYWG 300100Z 13018KT 15SM SCT120 OVC250 20/04 A2954 RMK AS3CS5 SLP005

CYWG;2011-04-30 02:00;CYWG 300200Z 13015KT 15SM FEW120 OVC250 18/04 A2954 RMK AC2CI6 SLP008

CYWG;2011-04-30 03:00;CYWG 300300Z 13017G22KT 15SM FEW120 BKN250 17/04 A2954 RMK AC2CI2 SLP005

CYWG;2011-04-30 04:00;CYWG 300400Z 14018KT 15SM FEW120 BKN250 16/03 A2954 RMK AC2CI4 SLP006

CYWG;2011-04-30 05:00;CYWG 300500Z 14014G21KT 15SM SCT120 OVC250 15/03 A2954 RMK AC4CI4 SLP005

CYWG;2011-04-30 06:00;CYWG 300600Z 16016KT 15SM BKN075 OVC250 14/04 A2955 RMK AC6CI2 SLP007

CYWG;2011-04-30 06:03;CYWG 300603Z 16018KT 15SM -SHRA BKN075 OVC250 15/ RMK AC6CI2

CYWG;2011-04-30 07:00;CYWG 300700Z 15013G18KT 12SM -SHRA OVC058 12/08 A2953 RMK SC8 SLP000

CYWG;2011-04-30 08:00;CYWG 300800Z 12017G25KT 15SM -SHRA BKN052 OVC088 12/06 A2949 RMK SC7AC1 SLP989

CYWG;2011-04-30 08:26;CYWG 300826Z 12015G24KT 15SM OVC047 12/ RMK SC8

CYWG;2011-04-30 09:00;CYWG 300900Z 12018G26KT 15SM BKN047 OVC073 11/08 A2945 RMK SC7AC1 SLP976

CYWG;2011-04-30 09:29;CYWG 300929Z 13019G25KT 15SM -SHRA BKN047 OVC073 11/ RMK SC7AC1

CYWG;2011-04-30 10:00;CYWG 301000Z 13019G26KT 10SM -SHRA FEW022 OVC045 11/09 A2943 RMK SC2SC6 SLP968

CYWG;2011-04-30 10:52;CYWG 301052Z 12018G24KT 15SM OVC025 10/ RMK SC8

CYWG;2011-04-30 11:00;CYWG 301100Z 12017G24KT 15SM OVC025 10/09 A2940 RMK SC8 SLP958

CYWG;2011-04-30 11:18;CYWG 301118Z 11018G25KT 15SM -SHRA OVC023 10/ RMK SC8

CYWG;2011-04-30 12:00;CYWG 301200Z 12017KT 6SM -SHRA BR OVC023 10/09 A2940 RMK SC8 SLP957

CYWG;2011-04-30 12:47;CYWG 301247Z 11016KT 6SM -SHRA BR OVC012 09/ RMK SC8

CYWG;2011-04-30 13:00;CYWG 301300Z 12018G25KT 5SM -SHRA BR OVC010 09/08 A2939 RMK SC8 SLP955

CYWG;2011-04-30 14:00;CYWG 301400Z 12017KT 6SM -SHRA BR OVC010 08/08 A2938 RMK SC8 SLP952

CYWG;2011-04-30 14:10;CYWG 301410Z 12016KT 6SM -SHRA BR OVC008 08/ RMK SC8

CYWG;2011-04-30 15:00;CYWG 301500Z 12010G16KT 3SM -SHRA BR OVC006 08/08 A2936 RMK SF8 SLP947

CYWG;2011-04-30 16:00;CYWG 301600Z 12012KT 6SM -SHRA BR OVC007 08/08 A2935 RMK SF8 SLP943

CYWG;2011-04-30 17:00;CYWG 301700Z 11013KT 5SM -SHRA BR OVC006 09/09 A2934 RMK SF8 SLP940

CYWG;2011-04-30 18:00;CYWG 301800Z 12015KT 4SM -SHRA BR BKN007 OVC025 09/08 A2935 RMK SF6SC2 SLP943

CYWG;2011-04-30 19:00;CYWG 301900Z 13009KT 6SM -SHRA BR BKN007 OVC038 09/08 A2934 RMK SF6SC2 SLP940

CYWG;2011-04-30 20:00;CYWG 302000Z 22007KT 10SM -SHRA BKN009 OVC031 09/08 A2933 RMK SF5SC3 SLP937

CYWG;2011-04-30 20:19;CYWG 302019Z 23006KT 10SM -SHRA SCT009 OVC035 08/ RMK SF3SC5

CYWG;2011-04-30 21:00;CYWG 302100Z 25003KT 6SM -SHRA BR SCT010 OVC031 08/08 A2932 RMK SF3SC5 SLP935

CYWG;2011-04-30 21:34;CYWG 302134Z 34010KT 10SM -SHRA BKN006 OVC033 08/ RMK SF5SC3

CYWG;2011-04-30 22:00;CYWG 302200Z 34016KT 6SM -SHRA BR BKN005 OVC037 06/06 A2931 RMK SF6SC2 SLP930

CYWG;2011-04-30 23:00;CYWG 302300Z 33018KT 6SM -SHRA BR BKN006 OVC025 04/04 A2933 RMK SF6SC2 SLP937

CYWG;2011-05-01 01:00;CYWG 010100Z 32021G27KT 12SM -SHRA BKN007 OVC029 01/00 A2936 RMK SF5SC3 SLP949

CYWG;2011-05-01 01:19;CYWG 010119Z 32019G26KT 15SM SCT008 BKN029 OVC040 01/ RMK SF3SC2SC2

CYWG;2011-05-01 02:00;CYWG 010200Z 32017KT 15SM BKN007 BKN032 OVC062 M00/M01 A2938 RMK SF5SC2SC2 SLP957

CYWG;2011-05-01 03:00;CYWG 010300Z 32016KT 15SM OVC008 M01/M02 A2938 RMK SF8 SLP960

CYWG;2011-05-01 03:44;CYWG 010344Z 32017G27KT 15SM OVC010 M02/ RMK SF8

CYWG;2011-05-01 04:00;CYWG 010400Z 32017KT 15SM OVC009 M02/M03 A2938 RMK SF8 SLP958

CYWG;2011-05-01 05:00;CYWG 010500Z 32018G25KT 15SM OVC010 M02/M03 A2938 RMK SF8 SLP957

CYWG;2011-05-01 06:00;CYWG 010600Z 32020G30KT 9SM VCSH OVC008 M02/M04 A2939 RMK SF8 SLP961

CYWG;2011-05-01 07:00;CYWG 010700Z 33021G26KT 6SM -SHPLSN OVC008 M03/M04 A2940 RMK SF8 SLP966

CYWG;2011-05-01 07:36;CYWG 010736Z 33019G26KT 2 1/2SM -SHSN OVC007 M03/ RMK SF8

CYWG;2011-05-01 08:00;CYWG 010800Z 34025KT 2 1/2SM -SHSN OVC008 M03/M05 A2940 RMK SF8 SLP966

CYWG;2011-05-01 08:12;CYWG 010812Z 33023G28KT 4SM -SHSN OVC006 M03/ RMK SF8

CYWG;2011-05-01 09:00;CYWG 010900Z 34023G29KT 4SM -SHSN OVC008 M04/M05 A2943 RMK SF8 SLP975

CYWG;2011-05-01 09:21;CYWG 010921Z 33020G28KT 1 1/4SM -SHSN OVC007 M04/ RMK SF8

CYWG;2011-05-01 09:41;CYWG 010941Z 34024G29KT 3/4SM R31/5000FT/D R36/4000VP6000FT/U -SHSN OVC005 M04/ RMK SF8

CYWG;2011-05-01 10:00;CYWG 011000Z 33025G32KT 1SM R31/P6000FT/N R36/P6000FT/D -SHSN OVC006 M04/M05 A2945 RMK SF8 SLP982

CYWG;2011-05-01 11:00;CYWG 011100Z 32021G29KT 1SM R31/P6000FT/D R36/P6000FT/D -SN BLSN OVC007 M05/M06 A2948 RMK ST8 SLP992

CYWG;2011-05-01 11:33;CYWG 011133Z 32021G27KT 3/4SM R31/P6000FT/N R36/P6000FT/D -SN BLSN VV005 M05/ RMK SN8

CYWG;2011-05-01 12:00;CYWG 011200Z 34018G25KT 3/4SM R31/P6000FT/D R36/P6000FT/D -SN BLSN VV007 M05/M06 A2951 RMK SN8 SLP007

CYWG;2011-05-01 12:24;CYWG 011224Z 34022G27KT 1/2SM R31/5000FT/N R36/4000FT/N -SN BLSN VV004 M05/ RMK SN8

CYWG;2011-05-01 13:00;CYWG 011300Z 32020G30KT 1/2SM R31/4500FT/U R36/5500FT/N -SN BLSN VV004 M05/M07 A2955 RMK SN8 SLP018

CYWG;2011-05-01 13:13;CYWG 011313Z 32021G28KT 1SM R31/P6000FT/U R36/P6000FT/U -SN VV005 M06/ RMK SN8

CYWG;2011-05-01 13:35;CYWG 011335Z 33025G31KT 1 1/2SM -SN BLSN OVC010 M05/ RMK SC8

CYWG;2011-05-01 14:00;CYWG 011400Z 33024G30KT 2 1/2SM -SN BLSN OVC014 M05/M08 A2958 RMK SC8 SLP029

CYWG;2011-05-01 15:00;CYWG 011500Z 32027KT 4SM -SN BLSN OVC015 M05/M08 A2961 RMK SC8 SLP042

CYWG;2011-05-01 15:48;CYWG 011548Z 32027G33KT 12SM -SN DRSN OVC019 M05/ RMK SC8

CYWG;2011-05-01 16:00;CYWG 011600Z 33028KT 15SM -SN DRSN OVC019 M04/M08 A2965 RMK SC8 SLP055

CYWG;2011-05-01 16:08;CYWG 011608Z 33025G34KT 15SM DRSN OVC019 M04/ RMK SC8

CYWG;2011-05-01 17:00;CYWG 011700Z 33025G32KT 15SM R31/4000VP6000FT/N OVC019 M04/M08 A2970 RMK SC8 SLP070

CYWG;2011-05-01 17:41;CYWG 011741Z 33024G29KT 15SM -SN OVC021 M04/ RMK SC8

CYWG;2011-05-01 18:00;CYWG 011800Z 33025G32KT 15SM -SN OVC021 M04/M08 A2973 RMK SC8 SLP082

CYWG;2011-05-01 19:00;CYWG 011900Z 33021G28KT 2 1/2SM -SN BKN015 OVC043 M04/M07 A2978 RMK SC6SC2 SLP097

CYWG;2011-05-01 19:18;CYWG 011918Z 33019G24KT 4SM -SN BKN009 OVC043 M03/ RMK SC6SC2

CYWG;2011-05-01 19:37;CYWG 011937Z 32023KT 8SM -SN BKN016 OVC043 M03/ RMK SC6SC2

CYWG;2011-05-01 20:00;CYWG 012000Z 33022KT 5SM -SN OVC019 M03/M07 A2981 RMK SC8 SLP107

CYWG;2011-05-01 21:00;CYWG 012100Z 33020G28KT 5SM -SN OVC019 M03/M06 A2985 RMK SC8 SLP121

CYWG;2011-05-01 22:00;CYWG 012200Z 34018G25KT 6SM -SN BKN015 OVC050 M02/M06 A2988 RMK SC6SC2 SLP132

CYWG;2011-05-01 23:00;CYWG 012300Z 33019KT 8SM -SN BKN017 OVC050 M02/M05 A2991 RMK SC6SC2 SLP141

CYWG;2011-05-02 00:00;CYWG 020000Z 34018KT 6SM -SN BKN023 OVC047 M02/M04 A2993 RMK SC6SC2 SLP151

CYWG;2011-05-02 01:00;CYWG 020100Z 34015KT 4SM -SN OVC023 M01/M03 A2996 RMK SC8 SLP159

CYWG;2011-05-02 02:00;CYWG 020200Z 36015G21KT 15SM BKN020 OVC050 00/M03 A3001 RMK SC6SC2 SLP176

CYWG;2011-05-02 03:00;CYWG 020300Z 35011KT 15SM FEW030 SCT049 M01/M04 A3004 RMK SC2SC1 SLP188

CYWG;2011-05-02 04:00;CYWG 020400Z 34012KT 15SM BKN039 00/M05 A3007 RMK SC3 SLP197

CYWG;2011-05-02 05:00;CYWG 020500Z 34014KT 15SM BKN051 00/M06 A3010 RMK SC5 SLP206

CYWG;2011-05-02 06:00;CYWG 020600Z 34010KT 15SM FEW045 M01/M06 A3013 RMK SC2 SLP217

CYWG;2011-05-02 07:00;CYWG 020700Z 33010KT 15SM SCT045 M02/M06 A3016 RMK SC2 SLP226

CYWG;2011-05-02 08:00;CYWG 020800Z 32008KT 15SM FEW090 M04/M07 A3017 RMK AC1 SLP231

CYWG;2011-05-02 09:00;CYWG 020900Z 29008KT 15SM FEW090 M05/M07 A3020 RMK AC1 SLP242

CYWG;2011-05-02 10:00;CYWG 021000Z 28005KT 15SM FEW090 M05/M07 A3023 RMK AC1 SLP251

CYWG;2011-05-02 11:00;CYWG 021100Z 28007KT 15SM FEW090 M06/M07 A3024 RMK AC1 AC TR SLP255

CYWG;2011-05-02 12:00;CYWG 021200Z 28007KT 15SM FEW240 M03/M06 A3027 RMK CI0 OBS TAKEN +06 SLP264

CYWG;2011-05-02 13:00;CYWG 021300Z 29006KT 15SM FEW240 M00/M05 A3029 RMK CI0 SLP271

CYWG;2011-05-02 14:00;CYWG 021400Z 28007KT 15SM FEW240 01/M04 A3031 RMK CI0 OBS TAKEN +01 SLP277

CYWG;2011-05-02 15:00;CYWG 021500Z 25004KT 15SM FEW240 04/M03 A3032 RMK CI0 SLP280

CYWG;2011-05-02 16:00;CYWG 021600Z 25008KT 15SM FEW240 07/M03 A3032 RMK CI0 SLP281

CYWG;2011-05-02 17:00;CYWG 021700Z 24010KT 15SM SKC 08/M01 A3032 RMK SLP281

CYWG;2011-05-02 18:00;CYWG 021800Z 27013KT 15SM SKC 09/M01 A3032 RMK SLP278

CYWG;2011-05-02 19:00;CYWG 021900Z 26010KT 15SM SKC 10/M00 A3032 RMK SLP277

CYWG;2011-05-02 20:00;CYWG 022000Z 28013KT 15SM FEW050 11/M00 A3031 RMK CF1 SLP275

CYWG;2011-05-02 21:00;CYWG 022100Z 26007G17KT 15SM FEW055 11/M03 A3030 RMK CF1 SLP273

CYWG;2011-05-02 22:00;CYWG 022200Z 24010G16KT 15SM FEW060 12/M04 A3029 RMK SC1 SLP269

CYWG;2011-05-02 23:00;CYWG 022300Z 27011KT 15SM FEW060 11/M04 A3028 RMK SC1 SLP265

CYWG;2011-05-03 00:00;CYWG 030000Z 21009KT 15SM FEW060 11/M01 A3026 RMK SC1 SLP258

CYWG;2011-05-03 01:00;CYWG 030100Z 21008KT 15SM FEW090 10/M02 A3024 RMK AC1 SLP252

CYWG;2011-05-03 02:00;CYWG 030200Z 21008KT 15SM FEW250 08/M01 A3024 RMK CI1 SLP251

CYWG;2011-05-03 03:00;CYWG 030300Z 21011KT 15SM SKC 07/M01 A3024 RMK SLP250

CYWG;2011-05-03 04:00;CYWG 030400Z 21010G16KT 15SM SKC 07/M02 A3023 RMK SLP248

CYWG;2011-05-03 05:00;CYWG 030500Z 20014KT 15SM SKC 07/M04 A3022 RMK SLP244

CYWG;2011-05-03 06:00;CYWG 030600Z 21013KT 15SM SKC 06/M03 A3022 RMK SLP243

CYWG;2011-05-03 07:00;CYWG 030700Z 20012KT 15SM SKC 05/M03 A3022 RMK SLP241

CYWG;2011-05-03 08:00;CYWG 030800Z 20013KT 15SM SKC 05/M03 A3021 RMK SLP239

CYWG;2011-05-03 09:00;CYWG 030900Z 20011KT 15SM SKC 03/M02 A3021 RMK SLP240

CYWG;2011-05-03 10:00;CYWG 031000Z 19011KT 15SM SKC 03/M02 A3022 RMK SLP241

CYWG;2011-05-03 11:00;CYWG 031100Z 19012KT 15SM FEW140 FEW230 02/M02 A3021 RMK AC1CI1 SLP239

CYWG;2011-05-03 12:00;CYWG 031200Z 19013KT 15SM FEW140 FEW230 03/M02 A3021 RMK AC1CI0 SLP237

CYWG;2011-05-03 13:00;CYWG 031300Z 19015KT 15SM FEW230 05/M02 A3020 RMK CI0 SLP236

CYWG;2011-05-03 14:00;CYWG 031400Z 20013KT 15SM FEW230 07/M01 A3021 RMK CI0 SLP238

CYWG;2011-05-03 15:00;CYWG 031500Z 21013G22KT 15SM SCT230 10/M00 A3020 RMK CI0 SLP235

CYWG;2011-05-03 16:00;CYWG 031600Z 20018G24KT 15SM FEW140 SCT230 11/00 A3020 RMK AC1CI0 SLP234

CYWG;2011-05-03 17:00;CYWG 031700Z 21016G22KT 15SM FEW230 13/01 A3019 RMK CI0 SLP231

CYWG;2011-05-03 18:00;CYWG 031800Z 20019KT 15SM FEW230 14/00 A3018 RMK CI0 SLP225

CYWG;2011-05-03 19:00;CYWG 031900Z 19018G24KT 15SM SKC 15/01 A3016 RMK SLP221

CYWG;2011-05-03 20:00;CYWG 032000Z 18020KT 15SM SKC 16/02 A3015 RMK SLP217

CYWG;2011-05-03 21:00;CYWG 032100Z 18019KT 15SM SKC 16/02 A3014 RMK SLP214

CYWG;2011-05-03 22:00;CYWG 032200Z 18017G22KT 15SM FEW250 16/01 A3014 RMK CI1 SLP213

CYWG;2011-05-03 23:00;CYWG 032300Z 18018KT 15SM FEW250 16/02 A3014 RMK CI1 SLP212

CYWG;2011-05-04 00:00;CYWG 040000Z 18017KT 15SM BKN250 14/00 A3013 RMK CI2 SLP211

CYWG;2011-05-04 01:00;CYWG 040100Z 18012KT 15SM BKN230 13/01 A3013 RMK CI2 SLP210

CYWG;2011-05-04 02:00;CYWG 040200Z 17011KT 15SM FEW120 BKN230 11/01 A3013 RMK AC1CI2 SLP211

CYWG;2011-05-04 03:00;CYWG 040300Z 18013KT 15SM FEW120 SCT230 10/01 A3014 RMK AC1CI1 SLP212

CYWG;2011-05-04 04:00;CYWG 040400Z 18013KT 15SM FEW230 09/01 A3014 RMK CI0 SLP212

CYWG;2011-05-04 05:00;CYWG 040500Z 18012G17KT 15SM SKC 08/01 A3013 RMK SLP211

CYWG;2011-05-04 06:00;CYWG 040600Z 18013KT 15SM FEW230 08/01 A3013 RMK CI0 SLP210

CYWG;2011-05-04 07:00;CYWG 040700Z 18013KT 15SM FEW230 07/00 A3012 RMK CI0 SLP208

CYWG;2011-05-04 08:00;CYWG 040800Z 18013KT 15SM SCT250 07/01 A3011 RMK CI1 SLP204

CYWG;2011-05-04 09:00;CYWG 040900Z 18015KT 15SM SKC 07/01 A3010 RMK SLP200

CYWG;2011-05-04 10:00;CYWG 041000Z 18014KT 15SM FEW090 SCT250 06/01 A3009 RMK AC1CI1 SLP194

CYWG;2011-05-04 12:00;CYWG 041200Z 18016KT 15SM SCT099 BKN250 06/00 A3007 RMK AC4CI1 SLP188

CYWG;2011-05-04 13:00;CYWG 041300Z 18018G25KT 15SM SCT096 BKN250 07/01 A3006 RMK AC4CI1 SLP187

CYWG;2011-05-04 14:00;CYWG 041400Z 18022G28KT 15SM FEW094 BKN250 11/01 A3005 RMK AC2CI2 SLP181

CYWG;2011-05-04 15:00;CYWG 041500Z 18021G28KT 15SM FEW090 BKN250 11/01 A3004 RMK AC1CI4 SLP178

CYWG;2011-05-04 16:00;CYWG 041600Z 19027G32KT 15SM BKN250 13/01 A3003 RMK CI5 SLP174

CYWG;2011-05-04 17:00;CYWG 041700Z 19025G33KT 15SM BKN250 14/03 A3002 RMK CI4 SLP173

CYWG;2011-05-04 18:00;CYWG 041800Z 19028G33KT 15SM SCT096 OVC250 13/03 A3002 RMK AC4CI2 SLP173

CYWG;2011-05-04 18:48;CYWG 041848Z CCA 19021G28KT 15SM -SHRA FEW054 FEW078 BKN110 OVC250 11/ RMK SC1AC2AC4CI2 ACC ASOCTD

CYWG;2011-05-04 19:00;CYWG 041900Z 19024G29KT 15SM -SHRA FEW052 SCT078 BKN110 OVC250 11/03 A3003 RMK SC1AC3AC3CI1 ACC ASOCTD SLP174

CYWG;2011-05-04 19:25;CYWG 041925Z 19023G32KT 15SM SCT052 BKN080 OVC110 10/ RMK SC3AC2AC2 ACC ASOCTD

CYWG;2011-05-04 19:47;CYWG 041947Z 19024G30KT 8SM -SHRA FEW015 BKN046 OVC080 09/ RMK SF1SC5AC2 ACC ASOCTD

CYWG;2011-05-04 20:00;CYWG 042000Z 19016G27KT 6SM -SHRA BR FEW018 BKN030 OVC080 08/07 A3004 RMK SF1SC6AC1 ACC ASOCTD SLP179

CYWG;2011-05-04 21:00;CYWG 042100Z 19015KT 10SM -SHRA FEW015 BKN033 OVC080 09/07 A3003 RMK SF1SC5AC2 ACC ASOCTD SLP179

CYWG;2011-05-04 22:00;CYWG 042200Z 19017G25KT 15SM FEW017 BKN043 BKN080 08/06 A3003 RMK SF1SC4AC2 CVCTV CLD ASOCTD SLP177

CYWG;2011-05-04 23:00;CYWG 042300Z 18018G26KT 15SM FEW048 SCT130 BKN270 10/07 A3000 RMK SC1AC2CI1 SLP169

CYWG;2011-05-05 00:00;CYWG 050000Z 18020G25KT 15SM FEW045 FEW130 FEW270 10/06 A2998 RMK SC1AC1CI0 OBS TAKEN +02 SLP160

CYWG;2011-05-05 01:00;CYWG 050100Z 18017KT 15SM FEW045 FEW140 FEW270 10/07 A2997 RMK SC1AC1CI0 SLP156

CYWG;2011-05-05 02:00;CYWG 050200Z 18012G17KT 15SM FEW045 FEW140 FEW270 09/07 A2996 RMK SC1AC1CI0 OBS TAKEN +02 SLP153

CYWG;2011-05-05 03:00;CYWG 050300Z 18011G16KT 15SM FEW045 FEW270 08/07 A2996 RMK SC1CI0 SLP151

CYWG;2011-05-05 04:00;CYWG 050400Z 20014KT 15SM FEW270 09/07 A2995 RMK CI0 SLP148

CYWG;2011-05-05 05:00;CYWG 050500Z 21014G19KT 15SM FEW270 09/07 A2994 RMK CI0 SLP144

CYWG;2011-05-05 06:00;CYWG 050600Z 21012G17KT 15SM SKC 08/06 A2993 RMK SLP143

CYWG;2011-05-05 07:00;CYWG 050700Z 25009KT 15SM SKC 07/04 A2993 RMK SLP140

CYWG;2011-05-05 08:00;CYWG 050800Z 26010KT 15SM SKC 07/03 A2992 RMK SLP138

CYWG;2011-05-05 09:00;CYWG 050900Z 26008KT 15SM FEW030 06/03 A2991 RMK SC1 SLP138

CYWG;2011-05-05 10:00;CYWG 051000Z 27011KT 15SM BKN034 BKN071 07/04 A2992 RMK SC6AC1 SLP139

CYWG;2011-05-05 11:00;CYWG 051100Z 29012KT 15SM BKN032 BKN045 OVC280 07/05 A2992 RMK SC5SC2CI0 SLP141

CYWG;2011-05-05 12:00;CYWG 051200Z 28011KT 15SM FEW032 FEW280 07/05 A2993 RMK SC1CI0 SLP144

CYWG;2011-05-05 13:00;CYWG 051300Z 29011KT 15SM FEW032 FEW280 08/05 A2994 RMK SC1CI1 SLP145

CYWG;2011-05-05 14:00;CYWG 051400Z 30016KT 15SM FEW030 FEW280 10/05 A2994 RMK SC1CI0 SLP146

CYWG;2011-05-05 15:00;CYWG 051500Z 32016KT 15SM FEW030 FEW280 12/05 A2995 RMK SC1CI1 SLP148

CYWG;2011-05-05 16:00;CYWG 051600Z 34012KT 15SM FEW032 FEW280 13/04 A2995 RMK CU1CI1 SLP147

CYWG;2011-05-05 17:00;CYWG 051700Z 34010G16KT 15SM FEW032 FEW280 15/05 A2995 RMK CU1CI1 SLP147

CYWG;2011-05-05 18:00;CYWG 051800Z 31006KT 15SM FEW035 FEW280 15/03 A2993 RMK CU1CI1 CI TR SLP140

CYWG;2011-05-05 19:00;CYWG 051900Z 29014KT 15SM FEW045 SCT280 16/03 A2991 RMK CU2CI0 SLP134

CYWG;2011-05-05 20:00;CYWG 052000Z 30011KT 15SM FEW056TCU BKN260 17/03 A2989 RMK TCU2CI2 SLP128

CYWG;2011-05-05 21:00;CYWG 052100Z CCA 29006KT 15SM FEW058 BKN260 16/03 A2988 RMK CU2CI2 TCU ASOCTD SHWRS W SLP123

CYWG;2011-05-05 22:00;CYWG 052200Z 27009G16KT 15SM FEW060 BKN260 17/03 A2987 RMK CU2CI1 SLP119

CYWG;2011-05-05 23:00;CYWG 052300Z 30013KT 15SM FEW060 FEW100 FEW260 17/02 A2986 RMK CU2AC1CI0 AC TR SLP116

CYWG;2011-05-06 00:00;CYWG 060000Z 31008KT 15SM FEW055 FEW100 FEW250 17/02 A2985 RMK CU2AC1CI0 TCU ASOCTD AC TR SLP112

CYWG;2011-05-06 01:00;CYWG 060100Z 01007KT 15SM FEW050TCU FEW100 13/03 A2985 RMK TCU1AC1 VIRGA SLP113

CYWG;2011-05-06 02:00;CYWG 060200Z 08002KT 15SM FEW040 FEW120 10/04 A2985 RMK CU1AC2 ACC ASOCTD CU TR SLP113

CYWG;2011-05-06 03:00;CYWG 060300Z 13002KT 15SM FEW120 09/04 A2985 RMK AC1 SLP114

CYWG;2011-05-06 04:00;CYWG 060400Z 16006KT 15SM FEW120 09/03 A2985 RMK AC1 SLP114

CYWG;2011-05-06 05:00;CYWG 060500Z 16007KT 15SM FEW093 07/03 A2985 RMK AC1 SLP113

CYWG;2011-05-06 06:00;CYWG 060600Z 16005KT 15SM FEW091 07/04 A2983 RMK AC2 SLP109

CYWG;2011-05-06 07:00;CYWG 060700Z 15004KT 15SM FEW096 07/04 A2982 RMK AC2 SLP104

CYWG;2011-05-06 08:00;CYWG 060800Z 18004KT 15SM SKC 06/03 A2980 RMK SLP099

CYWG;2011-05-06 09:00;CYWG 060900Z 16003KT 15SM SKC 06/03 A2980 RMK SLP097

CYWG;2011-05-06 10:00;CYWG 061000Z 15004KT 15SM FEW250 05/03 A2980 RMK CI0 SLP097

CYWG;2011-05-06 11:00;CYWG 061100Z 15004KT 15SM FEW100 BKN250 04/03 A2980 RMK AC1CI2 SLP096

CYWG;2011-05-06 12:00;CYWG 061200Z 16006KT 15SM FEW100 BKN250 05/04 A2979 RMK AC1CI1 SLP094

CYWG;2011-05-06 13:00;CYWG 061300Z 14006KT 15SM FEW100 BKN250 10/06 A2979 RMK AC1CI2 SLP092

CYWG;2011-05-06 14:00;CYWG 061400Z 16008KT 15SM FEW100 BKN250 13/05 A2977 RMK AC1CI2 SLP088

CYWG;2011-05-06 15:00;CYWG 061500Z 15007KT 15SM FEW100 OVC250 15/06 A2977 RMK AC1CI5 SLP084

CYWG;2011-05-06 16:00;CYWG 061600Z 16009KT 15SM FEW050 FEW095 OVC250 17/05 A2977 RMK CU1AC2CI4 SLP084

CYWG;2011-05-06 17:00;CYWG 061700Z 13011KT 15SM FEW050 FEW090 OVC250 17/04 A2976 RMK CU1AC1CI6 SLP082

CYWG;2011-05-06 18:00;CYWG 061800Z 13009KT 15SM FEW050 OVC250 18/03 A2975 RMK CU1CI6 SLP078

CYWG;2011-05-06 19:00;CYWG 061900Z 14011KT 15SM FEW060 BKN250 19/02 A2974 RMK CU1CI2 CU TR SLP074

CYWG;2011-05-06 20:00;CYWG 062000Z 15005KT 15SM FEW060 BKN250 20/02 A2972 RMK CU1CI2 SLP070

CYWG;2011-05-06 21:00;CYWG 062100Z 16007KT 15SM FEW060 FEW097 OVC250 19/01 A2972 RMK CU1AC1CI2 SLP069

CYWG;2011-05-06 22:00;CYWG 062200Z 12005KT 15SM FEW060 FEW096 OVC250 19/00 A2972 RMK CU1AC2CI2 VIRGA W CU TR SLP069

CYWG;2011-05-06 23:00;CYWG 062300Z 16006KT 15SM BKN086 OVC250 18/01 A2972 RMK AC6CI1 SLP068

CYWG;2011-05-07 00:00;CYWG 070000Z 11009KT 15SM BKN079 BKN094 BKN250 18/02 A2971 RMK AC5AC1CI0 SLP067

CYWG;2011-05-07 01:00;CYWG 070100Z 11008KT 15SM SCT079 BKN094 BKN250 17/02 A2972 RMK AC3AC3CI0 SLP068

CYWG;2011-05-07 02:00;CYWG 070200Z 11007KT 15SM OVC090 15/03 A2972 RMK AC7 SLP068

CYWG;2011-05-07 03:00;CYWG 070300Z 15009KT 15SM BKN082 15/03 A2973 RMK AC5 SLP072

CYWG;2011-05-07 04:00;CYWG 070400Z 18007KT 15SM SCT080 13/02 A2974 RMK AC4 SLP074

CYWG;2011-05-07 05:00;CYWG 070500Z 15009KT 15SM BKN082 13/01 A2973 RMK AC6 SLP072

CYWG;2011-05-07 06:00;CYWG 070600Z 14012KT 15SM BKN082 13/M01 A2973 RMK AC7 SLP070

CYWG;2011-05-07 07:00;CYWG 070700Z 14009KT 15SM OVC081 13/M02 A2973 RMK AC8 SLP069

CYWG;2011-05-07 08:00;CYWG 070800Z 19005KT 15SM OVC076 12/M01 A2974 RMK AC8 SLP072

CYWG;2011-05-07 09:00;CYWG 070900Z 14007KT 15SM OVC078 11/01 A2974 RMK AC8 SLP073

CYWG;2011-05-07 10:00;CYWG 071000Z 13009KT 15SM OVC076 11/02 A2974 RMK AC8 SLP074

CYWG;2011-05-07 11:00;CYWG 071100Z 13009KT 15SM BKN078 BKN150 10/03 A2974 RMK AC6AC1 SLP074

CYWG;2011-05-07 12:00;CYWG 071200Z 16008KT 15SM BKN060 BKN097 10/04 A2975 RMK SC6AC2 SLP079

CYWG;2011-05-07 13:00;CYWG 071300Z 17006KT 15SM -SHRA BKN052 BKN080 10/04 A2976 RMK SC6AC2 TCU ASOCTD SLP082

CYWG;2011-05-07 14:00;CYWG 071400Z 13006KT 15SM BKN034 OVC070 10/06 A2977 RMK SC6AC2 TUC ASOCTD -SHRA DIST N SLP084

CYWG;2011-05-07 15:00;CYWG 071500Z 14009KT 15SM BKN059 BKN094 11/06 A2977 RMK SC5AC2 SLP085

CYWG;2011-05-07 16:00;CYWG 071600Z 13010KT 15SM SCT059 BKN081 12/07 A2977 RMK SC4AC2 SLP085

CYWG;2011-05-07 17:00;CYWG 071700Z 16012G18KT 15SM FEW079 BKN250 16/07 A2976 RMK AC2CI2 SLP083

CYWG;2011-05-07 18:00;CYWG 071800Z 15013G18KT 15SM FEW037 BKN075 BKN250 17/08 A2976 RMK CU2AC2CI1 SLP081

CYWG;2011-05-07 19:00;CYWG 071900Z 16016G21KT 15SM SCT046 SCT080 19/08 A2975 RMK SC3AC1 TCU ASOCTD SLP078

CYWG;2011-05-07 20:00;CYWG 072000Z 13015G21KT 15SM SCT041 BKN085 17/08 A2974 RMK CU4AC1 TCU ASOCTD SLP073

CYWG;2011-05-07 20:43;CYWG 072043Z CCA 15014G19KT 15SM -SHRA BKN040TCU BKN085 17/ RMK TCU5AC1 CB NW-S MOVG ENE

CYWG;2011-05-07 21:00;CYWG 072100Z 21008G19KT 12SM -SHRA BKN046TCU BKN270 14/10 A2974 RMK TCU6CI0 CB NW-SE MOVG ENE VIS E 6 SLP077

CYWG;2011-05-07 21:23;CYWG 072123Z 15007KT 15SM SCT053TCU BKN089 BKN270 15/ RMK TCU3AC2CI1 CB ASOCTD NE + SE MOVG ENE

CYWG;2011-05-07 22:00;CYWG 072200Z 15007KT 15SM SCT050TCU SCT091 BKN270 16/10 A2974 RMK TCU3AC1CI1 CB ASOCTD N+SE+SW SLP077

CYWG;2011-05-07 23:00;CYWG 072300Z 13007KT 15SM -SHRA BKN058 BKN095 BKN270 16/09 A2976 RMK CU6AC1CI0 TCU EMBD SLP082

CYWG;2011-05-08 00:00;CYWG 080000Z 12010KT 15SM -SHRA SCT052 SCT095 BKN250 14/10 A2977 RMK CU3AC1CI2 TCU EMBD OBS TAKEN +04 SLP084

CYWG;2011-05-08 01:00;CYWG 080100Z 12012KT 15SM VCSH FEW025 BKN046TCU OVC250 13/10 A2977 RMK CF2TCU3CI2 CB TOP NW NE SLP085

CYWG;2011-05-08 02:00;CYWG 080200Z 12008KT 15SM FEW035 SCT054TCU OVC250 12/09 A2977 RMK CU2TCU2CI2 CB TOP AND LTNG DIST NE SLP087

CYWG;2011-05-08 03:00;CYWG 080300Z 14011G17KT 15SM SCT075 OVC250 12/09 A2979 RMK AC3CI2 SLP092

CYWG;2011-05-08 04:00;CYWG 080400Z 14011G16KT 15SM FEW075 BKN250 12/08 A2979 RMK AC2CI1 SLP092

CYWG;2011-05-08 05:00;CYWG 080500Z 15008KT 15SM FEW075 BKN250 11/08 A2979 RMK AC2CI1 SLP092

CYWG;2011-05-08 06:00;CYWG 080600Z 15006KT 15SM SCT075 BKN250 11/08 A2978 RMK AC3CI1 SLP090

CYWG;2011-05-08 07:00;CYWG 080700Z 16006KT 15SM SCT075 BKN250 10/07 A2979 RMK AC3CI1 SLP092

CYWG;2011-05-08 08:00;CYWG 080800Z 17006KT 15SM SCT075 BKN250 08/07 A2979 RMK AC3CI1 SLP092

CYWG;2011-05-08 09:00;CYWG 080900Z 23003KT 15SM BKN090 BKN250 09/07 A2980 RMK AC6CI0 SLP097

CYWG;2011-05-08 10:00;CYWG 081000Z 18005KT 15SM BKN090 BKN250 08/08 A2981 RMK AC6CI0 SLP101

CYWG;2011-05-08 11:00;CYWG 081100Z 19005KT 15SM BKN096 BKN250 09/08 A2982 RMK AC6CI1 SLP103

CYWG;2011-05-08 11:50;CYWG 081150Z 27003KT 15SM -SHRA BKN046TCU BKN084 BKN250 10/ RMK TCU5AC1CI1

CYWG;2011-05-08 12:00;CYWG 081200Z 26002KT 15SM -SHRA BKN025TCU BKN093 09/08 A2982 RMK TCU6AC1 SLP102

CYWG;2011-05-08 12:50;CYWG 081250Z 13003KT 15SM BKN031 BKN080 10/ RMK SC5AC2

CYWG;2011-05-08 13:00;CYWG 081300Z 02005KT 15SM BKN031 BKN080 10/09 A2981 RMK SC6AC2 SLP101

CYWG;2011-05-08 14:00;CYWG 081400Z 04002KT 15SM -SHRA BKN030TCU BKN067 10/09 A2982 RMK TCU6AC2 SLP104

CYWG;2011-05-08 14:40;CYWG 081440Z 02004KT 15SM BKN039TCU BKN065 OVC096 11/ RMK TCU5SC2AC2

CYWG;2011-05-08 15:00;CYWG 081500Z 01006KT 15SM SCT039TCU BKN065 OVC086 12/10 A2982 RMK TCU4SC2AC2 SLP103

CYWG;2011-05-08 16:00;CYWG 081600Z 07006KT 15SM FEW040TCU BKN073 BKN098 14/11 A2981 RMK TCU2AC2AC2 SLP101

CYWG;2011-05-08 16:18;CYWG 081618Z 09008KT 15SM -SHRA FEW040TCU BKN070 BKN091 14/ RMK TCU2AC2AC2

CYWG;2011-05-08 16:46;CYWG 081646Z 07009KT 15SM FEW040TCU BKN070 BKN096 16/ RMK TCU2AC2AC2

CYWG;2011-05-08 17:00;CYWG 081700Z 08009KT 15SM FEW040TCU SCT070 SCT096 BKN250 16/09 A2980 RMK TCU2AC1AC1CI1 SLP095

CYWG;2011-05-08 18:00;CYWG 081800Z 11011KT 15SM FEW070 BKN098 BKN250 19/09 A2978 RMK AC2AC3CI1 SLP088

CYWG;2011-05-08 19:00;CYWG 081900Z 11010G15KT 15SM SCT085 BKN097 19/10 A2978 RMK AC3AC3 SLP088

CYWG;2011-05-08 20:00;CYWG 082000Z 12016KT 15SM SCT081 BKN099 19/09 A2977 RMK AC3AC3 SLP085

CYWG;2011-05-08 21:00;CYWG 082100Z 12014KT 15SM BKN073 BKN097 19/10 A2977 RMK AC5AC2 SLP083

CYWG;2011-05-08 22:00;CYWG 082200Z 11013KT 15SM BKN075 OVC250 20/10 A2975 RMK AC5CI2 CB DIST SE SLP079

CYWG;2011-05-08 22:48;CYWG 082248Z 17018KT 15SM -SHRA BKN032 BKN051TCU OVC250 18/ RMK SC5TCU1CI1

CYWG;2011-05-08 23:00;CYWG 082300Z 17014G25KT 15SM -SHRA BKN032 OVC086 16/13 A2977 RMK SC6CI2 CVCTV CLD EMBD SLP083

CYWG;2011-05-08 23:41;CYWG 082341Z 12008KT 15SM BKN019 OVC073 14/ RMK SC6AC2 CIG RGD

CYWG;2011-05-09 00:00;CYWG 090000Z 13011KT 15SM BKN019 OVC073 15/13 A2978 RMK SC5AC3 SLP088

CYWG;2011-05-09 00:52;CYWG 090052Z 14006KT 15SM BKN055 OVC099 15/ RMK SC6AC2

CYWG;2011-05-09 01:00;CYWG 090100Z 15006KT 15SM BKN079 OVC099 15/14 A2979 RMK AC6AC2 SLP092

CYWG;2011-05-09 02:00;CYWG 090200Z 12005KT 15SM BKN083 OVC250 14/13 A2980 RMK AC6CI2 SLP097

CYWG;2011-05-09 03:00;CYWG 090300Z 18006KT 15SM SCT033 OVC089 14/13 A2982 RMK SC3AC5 SLP102

CYWG;2011-05-09 04:00;CYWG 090400Z 18010KT 15SM OVC033 14/11 A2983 RMK SC8 SLP105

CYWG;2011-05-09 05:00;CYWG 090500Z 16012KT 15SM -RA OVC051 13/11 A2983 RMK SC8 SLP104

CYWG;2011-05-09 06:00;CYWG 090600Z 14013KT 12SM -RA OVC024 12/12 A2982 RMK SC8 SLP101

CYWG;2011-05-09 06:43;CYWG 090643Z 13010KT 12SM -RA BKN008 OVC041 11/ RMK SF6SC2

CYWG;2011-05-09 07:00;CYWG 090700Z 13009KT 10SM -RA BKN008 OVC019 12/11 A2983 RMK SF6SC2 SLP103

CYWG;2011-05-09 07:26;CYWG 090726Z 13009KT 10SM -RA BKN010 OVC021 11/ RMK SF6SC2

CYWG;2011-05-09 08:00;CYWG 090800Z 12009KT 12SM -RA FEW010 OVC054 11/11 A2981 RMK SF2SC6 SLP098

CYWG;2011-05-09 08:51;CYWG 090851Z 13008KT 6SM -RA BR SCT009 OVC025 11/ RMK SF3SC5

CYWG;2011-05-09 09:00;CYWG 090900Z 12006KT 8SM -RA BKN009 OVC022 11/11 A2981 RMK SF5SC3 SLP098

CYWG;2011-05-09 10:00;CYWG 091000Z 11007KT 8SM -RA BKN009 OVC024 11/11 A2980 RMK SF6SC2 SLP094

CYWG;2011-05-09 10:38;CYWG 091038Z 10008KT 12SM -RA SCT007 BKN022 OVC050 11/ RMK SF4SC2SC2

CYWG;2011-05-09 11:00;CYWG 091100Z 09009KT 12SM BKN008 OVC025 11/11 A2980 RMK SF5SC3 BR SLP093

CYWG;2011-05-09 11:21;CYWG 091121Z 09010KT 15SM SCT012 OVC019 11/ RMK SF3SC5

CYWG;2011-05-09 11:37;CYWG 091137Z 09010KT 12SM OVC009 11/ RMK SF8 BR

CYWG;2011-05-09 12:00;CYWG 091200Z 10010KT 15SM OVC009 11/11 A2978 RMK SF8 SLP090

CYWG;2011-05-09 12:30;CYWG 091230Z 10010KT 15SM SCT010 OVC026 11/ RMK SF3SC5

CYWG;2011-05-09 13:00;CYWG 091300Z 09012KT 15SM SCT010 OVC028 11/11 A2978 RMK SF3SC5 SLP090

CYWG;2011-05-09 14:00;CYWG 091400Z 10011KT 15SM FEW012 OVC032 12/11 A2978 RMK SF2SC6 SLP088

CYWG;2011-05-09 15:00;CYWG 091500Z 10007KT 15SM SCT012 OVC034 12/11 A2977 RMK SF4SC4 SLP087

CYWG;2011-05-09 15:45;CYWG 091545Z 08007KT 12SM -RA SCT014 OVC032 12/ RMK SF4SC4

CYWG;2011-05-09 16:00;CYWG 091600Z 07007KT 12SM -RA FEW014 OVC032 12/10 A2977 RMK SF2SC6 SLP084

CYWG;2011-05-09 16:47;CYWG 091647Z 04009KT 15SM SCT011 OVC032 12/ RMK CF4SC4

CYWG;2011-05-09 17:00;CYWG 091700Z 04009KT 15SM BKN011 OVC032 12/11 A2977 RMK CF6SC2 SLP086

CYWG;2011-05-09 18:00;CYWG 091800Z 05009KT 15SM BKN011 OVC032 13/11 A2976 RMK SC6SC2 SLP083

CYWG;2011-05-09 19:00;CYWG 091900Z 05010KT 15SM OVC013 14/12 A2975 RMK SC8 SLP079

CYWG;2011-05-09 20:00;CYWG 092000Z 04013KT 15SM OVC017 15/11 A2974 RMK SC8 SLP077

CYWG;2011-05-09 21:00;CYWG 092100Z 04012KT 15SM OVC019 14/11 A2975 RMK SC8 SLP078

CYWG;2011-05-09 22:00;CYWG 092200Z 02013KT 12SM OVC017 14/12 A2975 RMK SC8 SLP080

CYWG;2011-05-09 22:19;CYWG 092219Z 02013KT 12SM SCT009 OVC017 13/ RMK SF3SC5

CYWG;2011-05-09 23:00;CYWG 092300Z 02012KT 12SM SCT008 OVC020 13/12 A2976 RMK SF3SC5 SLP081

CYWG;2011-05-09 23:27;CYWG 092327Z 02011KT 12SM BKN007 OVC020 13/ RMK SF5SC3

CYWG;2011-05-10 00:00;CYWG 100000Z 02013KT 12SM BKN007 OVC025 12/11 A2975 RMK SF6SC2 SLP080

CYWG;2011-05-10 01:00;CYWG 100100Z 03011KT 15SM BKN006 OVC030 12/11 A2976 RMK SF5SC3 SLP082

CYWG;2011-05-10 02:00;CYWG 100200Z 03015G20KT 15SM BKN007 OVC039 12/11 A2976 RMK SF5SC3 SLP082

CYWG;2011-05-10 03:00;CYWG 100300Z 04014KT 15SM SCT007 OVC041 11/11 A2977 RMK SF3SC5 SLP086

CYWG;2011-05-10 04:00;CYWG 100400Z 03013KT 15SM BKN006 OVC042 11/11 A2978 RMK SF5SC3 SLP090

CYWG;2011-05-10 04:40;CYWG 100440Z 03012KT 15SM BKN004 OVC042 11/ RMK SF6SC2

CYWG;2011-05-10 05:00;CYWG 100500Z 03015KT 15SM BKN004 OVC044 10/10 A2978 RMK SF6SC2 SLP091

CYWG;2011-05-10 06:00;CYWG 100600Z 04012KT 15SM BKN004 OVC049 10/10 A2977 RMK SF6SC2 SLP087

CYWG;2011-05-10 06:24;CYWG 100624Z 04011KT 12SM BKN003 OVC049 10/ RMK SF6SC2

CYWG;2011-05-10 07:00;CYWG 100700Z 04012KT 12SM BKN002 OVC041 10/10 A2976 RMK SF6SC2 SLP082

CYWG;2011-05-10 08:00;CYWG 100800Z 04010KT 6SM BR BKN002 OVC049 09/09 A2974 RMK SF6SC2 SLP077

CYWG;2011-05-10 09:00;CYWG 100900Z 04010KT 2SM R13/4000VP6000FT/D BR OVC001 09/09 A2974 RMK FG3ST5 VIS NW - N 3/4 SLP075

CYWG;2011-05-10 09:08;CYWG 100908Z 04010KT 1/2SM R13/3000FT/D R36/4000VP6000FT/D FG VV001 09/ RMK FG8

CYWG;2011-05-10 09:18;CYWG 100918Z 04009KT 1/4SM R13/2800FT/N R36/3500FT/N FG VV001 09/ RMK FG8

CYWG;2011-05-10 10:00;CYWG 101000Z 03007KT 1/4SM R13/3500FT/N R36/2400FT/N FG VV001 09/09 A2976 RMK FG8 SLP081

CYWG;2011-05-10 11:00;CYWG 101100Z 03010KT 1/2SM R13/3500V5000FT/U R36/4500VP6000FT/D FG OVC007 08/08 A2974 RMK ST8 SLP075

CYWG;2011-05-10 11:11;CYWG 101111Z 03010KT 3/4SM R13/4000FT/U R36/P6000FT/N BR OVC008 08/ RMK ST8

CYWG;2011-05-10 11:27;CYWG 101127Z 04010KT 1SM R13/6000FT/U R36/P6000FT/U BR OVC009 08/ RMK ST8

CYWG;2011-05-10 11:43;CYWG 101143Z 04010KT 2SM BR OVC009 09/ RMK ST8 VIS N 1BR

CYWG;2011-05-10 12:00;CYWG 101200Z 04009KT 2 1/2SM BR FEW002 OVC010 09/09 A2972 RMK ST2SC6 VIS NW 1BR SLP070

CYWG;2011-05-10 12:14;CYWG 101214Z 03010KT 3SM BR SCT002 OVC010 09/ RMK ST4SC4 VIS NW 11/2BR

CYWG;2011-05-10 12:29;CYWG 101229Z 03014KT 3SM BR BKN002 OVC010 09/ RMK ST6SC2 VIS NW 11/2BR

CYWG;2011-05-10 12:46;CYWG 101246Z 03009KT 4SM BR BKN003 OVC010 10/ RMK ST6SC2

CYWG;2011-05-10 13:00;CYWG 101300Z 05006KT 6SM BR BKN004 OVC010 10/10 A2974 RMK SF6SC2 SLP077

CYWG;2011-05-10 13:23;CYWG 101323Z 05003KT 8SM BKN006 BKN010 OVC042 10/ RMK SF5SC2SC2 BR

CYWG;2011-05-10 14:00;CYWG 101400Z 36003KT 8SM BKN008 OVC010 10/10 A2977 RMK SF6SC2 BR SLP088

CYWG;2011-05-10 15:00;CYWG 101500Z 03012KT 6SM BR OVC008 11/11 A2970 RMK SF8 SLP062

CYWG;2011-05-10 16:00;CYWG 101600Z 07015KT 6SM BR OVC008 12/11 A2968 RMK SF8 SLP056

CYWG;2011-05-10 16:34;CYWG 101634Z 06014G19KT 10SM BKN011 OVC040 13/ RMK SC6SC2 BR

CYWG;2011-05-10 17:00;CYWG 101700Z 07017KT 15SM BKN013 BKN040 BKN120 15/11 A2965 RMK SC5SC1AC1 SLP047

CYWG;2011-05-10 17:15;CYWG 101715Z 05016KT 15SM SCT013 BKN040 BKN120 15/ RMK SC2SC2AC1

CYWG;2011-05-10 18:00;CYWG 101800Z 06016KT 15SM FEW019 SCT032 BKN120 BKN250 16/12 A2963 RMK CU2SC2AC2CI0 SLP037

CYWG;2011-05-10 19:00;CYWG 101900Z 06016KT 15SM BKN024 OVC035 17/12 A2960 RMK SC6SC2 SLP026

CYWG;2011-05-10 20:00;CYWG 102000Z 06012G17KT 15SM -SHRA BKN026 OVC042 16/12 A2958 RMK SC6SC2 SLP021

CYWG;2011-05-10 21:00;CYWG 102100Z 07013KT 15SM -SHRA OVC034 16/11 A2957 RMK SC8 SLP018

CYWG;2011-05-10 22:00;CYWG 102200Z 08014G20KT 15SM OVC027 16/11 A2957 RMK SC8 SLP016

CYWG;2011-05-10 22:28;CYWG 102228Z 09011G16KT 6SM -DZ BR OVC024 16/ RMK SC8

CYWG;2011-05-10 23:00;CYWG 102300Z 08010KT 6SM -DZ BR OVC018 14/13 A2956 RMK SC8 SLP015

CYWG;2011-05-10 23:36;CYWG 102336Z 10012G18KT 10SM OVC023 15/ RMK SC8

CYWG;2011-05-11 00:00;CYWG 110000Z 10012G18KT 10SM OVC024 15/11 A2955 RMK SC8 SLP011

CYWG;2011-05-11 00:41;CYWG 110041Z 05012KT 8SM -DZ FEW006 OVC024 14/ RMK SF2SC6 BR

CYWG;2011-05-11 01:00;CYWG 110100Z 07009KT 6SM -DZ BR SCT006 OVC024 14/13 A2955 RMK SF3SC5 SLP010

CYWG;2011-05-11 02:00;CYWG 110200Z 05007KT 10SM FEW007 OVC031 13/13 A2955 RMK SF1SC7 SLP010

CYWG;2011-05-11 03:00;CYWG 110300Z 09003KT 12SM OVC023 13/12 A2955 RMK SC8 SLP010

CYWG;2011-05-11 04:00;CYWG 110400Z 14003KT 15SM SCT018 OVC028 13/12 A2954 RMK SC3SC5 SLP009

CYWG;2011-05-11 05:00;CYWG 110500Z 20008KT 15SM BKN028 14/13 A2955 RMK SC7 SLP010

CYWG;2011-05-11 06:00;CYWG 110600Z 21010KT 15SM SCT007 BKN032 13/12 A2955 RMK SC3SC4 SLP011

CYWG;2011-05-11 06:33;CYWG 110633Z 21010KT 8SM OVC005 12/ RMK ST8 BR

CYWG;2011-05-11 07:00;CYWG 110700Z 21011KT 6SM BR OVC004 12/12 A2956 RMK ST8 SLP013

CYWG;2011-05-11 07:13;CYWG 110713Z 21008KT 3SM BR OVC002 12/ RMK ST8

CYWG;2011-05-11 07:24;CYWG 110724Z 21008KT 1 3/4SM BR OVC001 12/ RMK SF8

CYWG;2011-05-11 07:39;CYWG 110739Z 23008KT 3/4SM R13/3500VP6000FT/D R36/P6000FT/U BR VV001 12/ RMK FG8

CYWG;2011-05-11 08:00;CYWG 110800Z 25006KT 1/2SM R13/P6000FT/D R36/P6000FT/D FG VV001 11/11 A2957 RMK FG8 SLP015

CYWG;2011-05-11 08:30;CYWG 110830Z 26006KT 1SM R13/P6000FT/D R36/P6000FT/U BR OVC001 10/ RMK FG5SF3

CYWG;2011-05-11 09:00;CYWG 110900Z 26005KT 6SM BR BKN002 OVC011 10/10 A2958 RMK SF6SC2 SLP020

CYWG;2011-05-11 10:00;CYWG 111000Z 28013KT 5SM BR OVC001 09/09 A2960 RMK SF8 SLP028

CYWG;2011-05-11 10:07;CYWG 111007Z 28010KT 10SM OVC003 08/ RMK SF8 BR

CYWG;2011-05-11 10:31;CYWG 111031Z 28009KT 3SM BR OVC002 08/ RMK SF8

CYWG;2011-05-11 11:00;CYWG 111100Z 27012KT 3SM BR OVC002 08/08 A2962 RMK ST8 VIS S 10 NW 2 SLP035

CYWG;2011-05-11 11:21;CYWG 111121Z 28012KT 3SM BR OVC003 08/ RMK ST8 VIS S 10 NW 2

CYWG;2011-05-11 12:00;CYWG 111200Z 28017KT 3SM -DZ BR OVC003 07/07 A2964 RMK ST8 VIS S 6 NW 2 SLP043

CYWG;2011-05-11 12:28;CYWG 111228Z 28019G24KT 5SM -DZ BR OVC004 06/ RMK ST8 CIG RAG VIS S 10 NW 3

CYWG;2011-05-11 13:00;CYWG 111300Z 27016G22KT 6SM BR OVC005 06/06 A2969 RMK ST8 CIG RAG CIG LWR NW VIS S 10 NW 5 SLP060

CYWG;2011-05-11 14:00;CYWG 111400Z 29023KT 6SM BR OVC004 06/06 A2973 RMK ST8 CIG RAG CIG LWR NW VIS S 10 NW 5 SLP071

CYWG;2011-05-11 14:43;CYWG 111443Z 31022G29KT 10SM OVC006 06/ RMK ST8 CIG RAG

CYWG;2011-05-11 15:00;CYWG 111500Z 31022G28KT 15SM OVC006 07/05 A2976 RMK ST8 CIG RAG SLP083

CYWG;2011-05-11 16:00;CYWG 111600Z 32020KT 15SM OVC007 07/05 A2980 RMK ST8 CIG RAG SLP095

CYWG;2011-05-11 17:00;CYWG 111700Z 31016G22KT 15SM OVC010 07/05 A2984 RMK SC8 CIG RAG SLP110

CYWG;2011-05-11 17:36;CYWG 111736Z 30019KT 6SM -DZ BR OVC010 07/ RMK ST8 CIG RAG

CYWG;2011-05-11 18:00;CYWG 111800Z 30017KT 3SM -DZ BR OVC008 07/06 A2986 RMK ST8 CIG RAG SLP116

CYWG;2011-05-11 18:44;CYWG 111844Z 31015KT 10SM OVC010 08/ RMK ST8 BR

CYWG;2011-05-11 19:00;CYWG 111900Z 32014G20KT 10SM OVC010 08/05 A2989 RMK ST8 BR SLP126

CYWG;2011-05-11 20:00;CYWG 112000Z 31015KT 15SM OVC012 08/06 A2993 RMK ST8 SLP139

CYWG;2011-05-11 21:00;CYWG 112100Z 31015KT 15SM OVC014 09/05 A2995 RMK SC8 SLP148

CYWG;2011-05-11 21:38;CYWG 112138Z 32016KT 15SM BKN018 OVC029 09/ RMK SC6SC2

CYWG;2011-05-11 22:00;CYWG 112200Z 31016KT 15SM OVC016 09/06 A2996 RMK SC8 SLP152

CYWG;2011-05-11 23:00;CYWG 112300Z 31018KT 15SM OVC022 08/05 A2997 RMK SC8 SLP157

CYWG;2011-05-12 00:00;CYWG 120000Z 32022G27KT 15SM OVC015 07/05 A2999 RMK SC8 SLP166

CYWG;2011-05-12 00:41;CYWG 120041Z 32015G20KT 15SM OVC012 07/ RMK ST8 CIG RGD

CYWG;2011-05-12 01:00;CYWG 120100Z 34016G21KT 15SM BKN016 07/04 A3001 RMK SC7 SLP170

CYWG;2011-05-12 02:00;CYWG 120200Z 34015KT 15SM OVC018 07/04 A3004 RMK SC8 SLP180

CYWG;2011-05-12 03:00;CYWG 120300Z 35013KT 15SM OVC018 06/04 A3005 RMK SC8 SLP183

CYWG;2011-05-12 04:00;CYWG 120400Z 35010KT 15SM OVC020 06/03 A3008 RMK SC8 PRESRR SLP194

CYWG;2011-05-12 05:00;CYWG 120500Z 34011G17KT 15SM OVC020 06/03 A3007 RMK SC8 SLP192

CYWG;2011-05-12 06:00;CYWG 120600Z 34010KT 15SM OVC018 06/03 A3007 RMK SC8 SLP191

CYWG;2011-05-12 07:00;CYWG 120700Z 33009KT 15SM OVC018 06/04 A3007 RMK SC8 SLP192

CYWG;2011-05-12 08:00;CYWG 120800Z 35014KT 15SM OVC018 06/02 A3005 RMK SC8 SLP185

CYWG;2011-05-12 09:00;CYWG 120900Z 36014G21KT 15SM OVC021 05/01 A3006 RMK SC8 SLP187

CYWG;2011-05-12 10:00;CYWG 121000Z 34012G18KT 15SM OVC019 05/02 A3007 RMK SC8 SLP192

CYWG;2011-05-12 11:00;CYWG 121100Z 01013KT 15SM OVC017 04/02 A3010 RMK SC8 SLP202

CYWG;2011-05-12 12:00;CYWG 121200Z 35012G17KT 15SM OVC017 04/01 A3011 RMK SC8 SLP204

CYWG;2011-05-12 13:00;CYWG 121300Z 35016KT 15SM OVC017 04/01 A3012 RMK SC8 SLP210

CYWG;2011-05-12 14:00;CYWG 121400Z 35013G20KT 15SM OVC015 04/01 A3013 RMK SC8 SLP211

CYWG;2011-05-12 15:00;CYWG 121500Z 36013G19KT 15SM OVC015 05/02 A3013 RMK SC8 SLP213

CYWG;2011-05-12 16:00;CYWG 121600Z 01018KT 15SM OVC017 06/01 A3012 RMK SC8 SLP210

CYWG;2011-05-12 17:00;CYWG 121700Z 36020KT 15SM BKN017 OVC092 05/01 A3013 RMK SC6AC2 SLP213

CYWG;2011-05-12 18:00;CYWG 121800Z 01018G24KT 15SM BKN019 OVC051 07/02 A3013 RMK SC6SC2 SLP213

CYWG;2011-05-12 19:00;CYWG 121900Z 01020KT 15SM OVC021 06/02 A3014 RMK SC8 SLP214

CYWG;2011-05-12 20:00;CYWG 122000Z 01015G22KT 15SM OVC023 07/02 A3015 RMK SC8 SLP217

CYWG;2011-05-12 21:00;CYWG 122100Z 01020G25KT 15SM OVC025 07/02 A3014 RMK SC8 SLP216

CYWG;2011-05-12 22:00;CYWG 122200Z 01017KT 15SM OVC025 07/02 A3015 RMK SC8 SLP218

CYWG;2011-05-12 23:00;CYWG 122300Z 36016KT 15SM OVC023 06/02 A3016 RMK SC8 SLP221

CYWG;2011-05-13 00:00;CYWG 130000Z 36017KT 15SM BKN021 OVC097 06/02 A3016 RMK SC7AC1 SLP223

CYWG;2011-05-13 01:00;CYWG 130100Z 01016G21KT 15SM BKN021 OVC047 06/02 A3017 RMK SC7SC1 SLP226

CYWG;2011-05-13 02:00;CYWG 130200Z 36015G20KT 15SM OVC017 05/02 A3019 RMK SC8 SLP233

CYWG;2011-05-13 02:17;CYWG 130217Z 01018KT 15SM -RA BKN017 OVC040 05/ RMK SC6SC2

CYWG;2011-05-13 03:00;CYWG 130300Z 01015KT 12SM -RA BKN014 OVC046 04/03 A3021 RMK SC6SC2 SLP239

CYWG;2011-05-13 04:00;CYWG 130400Z 01018KT 15SM -RA OVC012 04/02 A3021 RMK SC8 SLP241

CYWG;2011-05-13 05:00;CYWG 130500Z 01016G21KT 15SM -RA BKN010 OVC040 03/02 A3021 RMK SC5SC2 SLP239

CYWG;2011-05-13 06:00;CYWG 130600Z 01014G21KT 12SM -DZ BKN008 OVC063 03/03 A3020 RMK ST5SC3 SLP236

CYWG;2011-05-13 07:00;CYWG 130700Z 02016KT 6SM -DZ BR OVC007 03/03 A3019 RMK ST8 SLP234

CYWG;2011-05-13 08:00;CYWG 130800Z 01015KT 6SM -DZ BR OVC008 03/03 A3019 RMK ST8 SLP235

CYWG;2011-05-13 09:00;CYWG 130900Z 01019G24KT 5SM -DZ BR OVC008 03/02 A3020 RMK ST8 SLP237

CYWG;2011-05-13 10:00;CYWG 131000Z 01018KT 6SM -DZ BR SCT008 OVC014 03/02 A3021 RMK ST4ST4 SLP239

CYWG;2011-05-13 10:53;CYWG 131053Z 02020KT 8SM -RA OVC012 03/ RMK SC8

CYWG;2011-05-13 11:00;CYWG 131100Z 02019G25KT 8SM -RA OVC014 03/02 A3022 RMK SC8 SLP242

CYWG;2011-05-13 12:00;CYWG 131200Z 02011KT 12SM -RA OVC014 03/02 A3023 RMK SC8 SLP246

CYWG;2011-05-13 13:00;CYWG 131300Z 01014G19KT 12SM -RA OVC019 03/01 A3024 RMK SC8 SLP250

CYWG;2011-05-13 14:00;CYWG 131400Z 02015KT 12SM -RA OVC019 04/02 A3025 RMK SC8 SLP254

CYWG;2011-05-13 15:00;CYWG 131500Z 01018KT 15SM OVC020 04/01 A3025 RMK SC8 SLP255

CYWG;2011-05-13 15:09;CYWG 131509Z 01021KT 15SM -SHRA OVC020 04/ RMK SC8

CYWG;2011-05-13 16:00;CYWG 131600Z 01018G26KT 15SM OVC021 03/01 A3025 RMK SC8 SLP256

CYWG;2011-05-13 16:28;CYWG 131628Z 02018G24KT 15SM -RA OVC018 04/ RMK SC8

CYWG;2011-05-13 17:00;CYWG 131700Z 03020G25KT 8SM -RA OVC013 03/02 A3027 RMK SC8 SLP260

CYWG;2011-05-13 17:06;CYWG 131706Z 03019KT 8SM -RA BKN009 OVC033 03/ RMK SF5SC3

CYWG;2011-05-13 17:44;CYWG 131744Z 02015G20KT 2SM -RA BR BKN004 OVC020 02/ RMK SF6SC2

CYWG;2011-05-13 18:00;CYWG 131800Z 01014KT 8SM -RA BKN005 OVC020 03/02 A3029 RMK SF6SC2 SLP267

CYWG;2011-05-13 19:00;CYWG 131900Z 04014G19KT 4SM -RA BR OVC007 02/02 A3029 RMK SF8 SLP270

CYWG;2011-05-13 19:53;CYWG 131953Z CCA 02017KT 3SM -RASG BR BKN006 OVC034 02/ RMK ST6SC2

CYWG;2011-05-13 20:00;CYWG 132000Z 02014G19KT 3SM -RASGSN BKN006 OVC034 02/01 A3029 RMK ST6SC2 SLP270

CYWG;2011-05-13 20:41;CYWG 132041Z 03015KT 5SM -RA BR BKN009 OVC016 03/ RMK SF5SC3 CIG RGD

CYWG;2011-05-13 21:00;CYWG 132100Z 02011KT 8SM -RA SCT009 SCT016 OVC026 04/03 A3029 RMK SF3SC1SC4 BR SLP268

CYWG;2011-05-13 22:00;CYWG 132200Z 32004KT 15SM -RA SCT032 OVC035 04/03 A3027 RMK SC3SC5 SLP261

CYWG;2011-05-13 23:00;CYWG 132300Z 30005KT 15SM -RA SCT034 OVC044 06/04 A3026 RMK SC3SC5 SLP260

CYWG;2011-05-14 00:00;CYWG 140000Z 30005KT 15SM BKN048 OVC062 07/03 A3026 RMK SC6SC2 SLP257

CYWG;2011-05-14 01:00;CYWG 140100Z 02008KT 15SM SCT048 BKN056 BKN074 09/03 A3027 RMK SC3SC3AC1 SLP261

CYWG;2011-05-14 02:00;CYWG 140200Z 02009KT 15SM SCT055 BKN070 09/02 A3029 RMK SC3AC4 SLP265

CYWG;2011-05-14 03:00;CYWG 140300Z 02012KT 15SM BKN058 08/02 A3031 RMK SC7 SLP272

CYWG;2011-05-14 04:00;CYWG 140400Z 02010KT 15SM OVC055 08/02 A3033 RMK SC8 SLP279

CYWG;2011-05-14 05:00;CYWG 140500Z 02014KT 15SM OVC049 08/02 A3033 RMK SC8 SLP281

CYWG;2011-05-14 06:00;CYWG 140600Z 02012KT 15SM OVC074 06/01 A3035 RMK AC8 SLP287

CYWG;2011-05-14 07:00;CYWG 140700Z 01010KT 15SM BKN070 04/01 A3035 RMK AC3 SLP289

CYWG;2011-05-14 08:00;CYWG 140800Z 02012KT 15SM BKN120 04/00 A3036 RMK AC3 SLP291

CYWG;2011-05-14 09:00;CYWG 140900Z 02010KT 15SM SCT120 03/M00 A3036 RMK AC2 SLP293

CYWG;2011-05-14 10:00;CYWG 141000Z 02012KT 15SM FEW120 BKN250 03/M00 A3038 RMK AC2CI0 SLP297

CYWG;2011-05-14 11:00;CYWG 141100Z 03010KT 15SM FEW120 BKN250 02/M01 A3039 RMK AC1CI1 SLP301

CYWG;2011-05-14 12:00;CYWG 141200Z 03007KT 15SM FEW120 SCT250 03/M00 A3040 RMK AC1CI1 SLP304

CYWG;2011-05-14 13:00;CYWG 141300Z 04014KT 15SM FEW120 FEW250 06/M01 A3041 RMK AC1CI1 SLP309

CYWG;2011-05-14 14:00;CYWG 141400Z 04018KT 15SM FEW250 08/M02 A3042 RMK CI1 SLP311

CYWG;2011-05-14 15:00;CYWG 141500Z 05017KT 15SM FEW250 10/M03 A3042 RMK CI1 SLP310

CYWG;2011-05-14 16:00;CYWG 141600Z 06017G24KT 15SM FEW250 13/M00 A3043 RMK CI1 SLP312

CYWG;2011-05-14 17:00;CYWG 141700Z 04017G24KT 15SM SCT270 14/00 A3042 RMK CI1 SLP309

CYWG;2011-05-14 18:00;CYWG 141800Z 03018G24KT 15SM SCT270 15/M01 A3040 RMK CI2 SLP302

CYWG;2011-05-14 19:00;CYWG 141900Z 02017KT 15SM FEW290 16/M02 A3039 RMK CI1 SLP297

CYWG;2011-05-14 20:00;CYWG 142000Z 03016G24KT 15SM FEW170 FEW300 17/M04 A3037 RMK AC1CI1 TR AC SLP291

CYWG;2011-05-14 21:00;CYWG 142100Z 02018G24KT 15SM FEW170 FEW300 17/M05 A3035 RMK AC1CI1 TR AC SLP285

CYWG;2011-05-14 22:00;CYWG 142200Z 02020G26KT 15SM FEW300 17/M04 A3033 RMK CI1 SLP278

CYWG;2011-05-14 23:00;CYWG 142300Z 02020G25KT 15SM FEW300 17/M04 A3032 RMK CI1 SLP275

CYWG;2011-05-15 00:00;CYWG 150000Z 03018KT 15SM FEW300 17/M02 A3031 RMK CI1 SLP272

CYWG;2011-05-15 01:00;CYWG 150100Z 03011KT 15SM FEW300 15/01 A3031 RMK CI1 SLP271

CYWG;2011-05-15 02:00;CYWG 150200Z 03009KT 15SM FEW300 11/03 A3032 RMK CI1 SLP274

CYWG;2011-05-15 03:00;CYWG 150300Z 03008KT 15SM FEW300 09/02 A3033 RMK CI1 SLP278

CYWG;2011-05-15 04:00;CYWG 150400Z 02007KT 15SM SKC 06/02 A3034 RMK SLP280

CYWG;2011-05-15 05:00;CYWG 150500Z 03008KT 15SM SKC 05/01 A3033 RMK SLP278

CYWG;2011-05-15 06:00;CYWG 150600Z 03007KT 15SM SKC 04/01 A3033 RMK SLP279

CYWG;2011-05-15 07:00;CYWG 150700Z 02008KT 15SM SKC 05/01 A3034 RMK SLP280

CYWG;2011-05-15 08:00;CYWG 150800Z 04006KT 15SM SKC 03/01 A3033 RMK SLP279

CYWG;2011-05-15 09:00;CYWG 150900Z 04004KT 15SM SKC 03/01 A3034 RMK SLP281

CYWG;2011-05-15 10:00;CYWG 151000Z 04005KT 15SM SKC 02/01 A3035 RMK SLP283

CYWG;2011-05-15 11:00;CYWG 151100Z 04005KT 15SM SKC 02/01 A3035 RMK SLP286

CYWG;2011-05-15 12:00;CYWG 151200Z 05003KT 15SM SKC 04/02 A3037 RMK SLP291

CYWG;2011-05-15 13:00;CYWG 151300Z 07003KT 15SM SKC 09/02 A3038 RMK SLP293

CYWG;2011-05-15 14:00;CYWG 151400Z 09006KT 15SM SKC 12/00 A3038 RMK SLP294

CYWG;2011-05-15 15:00;CYWG 151500Z 08003KT 15SM SKC 14/00 A3038 RMK SLP295

CYWG;2011-05-15 16:00;CYWG 151600Z 03005KT 15SM SKC 15/00 A3037 RMK SLP291

CYWG;2011-05-15 17:00;CYWG 151700Z 05010KT 15SM SKC 16/00 A3035 RMK SLP285

CYWG;2011-05-15 18:00;CYWG 151800Z 03011KT 15SM SKC 17/M01 A3033 RMK SLP279

CYWG;2011-05-15 19:00;CYWG 151900Z 05006KT 15SM SKC 18/M01 A3032 RMK SLP274

CYWG;2011-05-15 20:00;CYWG 152000Z 05007KT 15SM SKC 18/01 A3030 RMK SLP269

CYWG;2011-05-15 21:00;CYWG 152100Z 05012KT 15SM SKC 18/M00 A3029 RMK SLP262

CYWG;2011-05-15 22:00;CYWG 152200Z 07009KT 15SM SKC 19/00 A3027 RMK SLP256

CYWG;2011-05-15 23:00;CYWG 152300Z 04010KT 15SM SKC 18/00 A3026 RMK OBS TAKEN +4 SLP253

CYWG;2011-05-16 00:00;CYWG 160000Z 06006KT 15SM SKC 18/M01 A3025 RMK SLP249

CYWG;2011-05-16 01:00;CYWG 160100Z 03008KT 15SM SKC 16/02 A3024 RMK SLP248

CYWG;2011-05-16 02:00;CYWG 160200Z 05004KT 15SM SKC 12/03 A3024 RMK SLP247

CYWG;2011-05-16 03:00;CYWG 160300Z 06004KT 15SM SKC 11/01 A3024 RMK SLP246

CYWG;2011-05-16 04:00;CYWG 160400Z 08003KT 15SM SKC 09/01 A3023 RMK SLP244

CYWG;2011-05-16 05:00;CYWG 160500Z 08004KT 15SM SKC 08/01 A3023 RMK SLP244

CYWG;2011-05-16 06:00;CYWG 160600Z 09003KT 15SM SKC 07/02 A3023 RMK SLP243

CYWG;2011-05-16 07:00;CYWG 160700Z 16002KT 15SM SKC 08/01 A3022 RMK SLP240

CYWG;2011-05-16 08:00;CYWG 160800Z 16004KT 15SM SKC 06/00 A3022 RMK SLP240

CYWG;2011-05-16 09:00;CYWG 160900Z 15003KT 15SM SKC 07/01 A3022 RMK SLP241

CYWG;2011-05-16 10:00;CYWG 161000Z 14002KT 15SM SKC 07/01 A3022 RMK SLP241

CYWG;2011-05-16 11:00;CYWG 161100Z 14002KT 15SM SKC 04/01 A3023 RMK SLP243

CYWG;2011-05-16 12:00;CYWG 161200Z 14002KT 15SM SKC 06/04 A3024 RMK SLP245

CYWG;2011-05-16 13:00;CYWG 161300Z 16004KT 15SM SKC 12/02 A3024 RMK SLP245

CYWG;2011-05-16 14:00;CYWG 161400Z 18009KT 15SM SKC 15/00 A3023 RMK SLP243

CYWG;2011-05-16 15:00;CYWG 161500Z 17008KT 15SM SKC 17/M00 A3023 RMK SLP242

CYWG;2011-05-16 16:00;CYWG 161600Z 14012KT 15SM SKC 18/M03 A3022 RMK SLP237

CYWG;2011-05-16 17:00;CYWG 161700Z 15012KT 15SM SKC 19/M00 A3021 RMK SLP234

CYWG;2011-05-16 18:00;CYWG 161800Z 16013G20KT 15SM SKC 20/01 A3019 RMK SLP227

CYWG;2011-05-16 19:00;CYWG 161900Z 16016G22KT 15SM FEW250 21/01 A3016 RMK CI0 SLP220

CYWG;2011-05-16 20:00;CYWG 162000Z 14017KT 15SM FEW250 22/01 A3014 RMK CI0 SLP211

CYWG;2011-05-16 21:00;CYWG 162100Z 16012G24KT 15SM SKC 22/01 A3012 RMK SLP203

CYWG;2011-05-16 22:00;CYWG 162200Z 14012G19KT 15SM SKC 22/02 A3009 RMK SLP195

CYWG;2011-05-16 23:00;CYWG 162300Z 14017KT 15SM SKC 22/01 A3007 RMK SLP188

CYWG;2011-05-17 00:00;CYWG 170000Z 17011KT 15SM FEW140 21/02 A3006 RMK AC1 SLP184

CYWG;2011-05-17 01:00;CYWG 170100Z 18010G15KT 15SM FEW140 20/01 A3005 RMK AC1 AC TR SLP180

CYWG;2011-05-17 02:00;CYWG 170200Z 19007KT 15SM FEW140 17/02 A3005 RMK AC1 SLP180

CYWG;2011-05-17 03:00;CYWG 170300Z 17007KT 15SM FEW210 14/03 A3006 RMK CI0 SLP183

CYWG;2011-05-17 04:00;CYWG 170400Z 18005KT 15SM SKC 14/03 A3007 RMK SLP185

CYWG;2011-05-17 05:00;CYWG 170500Z 19006KT 15SM SKC 12/03 A3007 RMK SLP186

CYWG;2011-05-17 06:00;CYWG 170600Z 15005KT 15SM SKC 11/03 A3007 RMK SLP187

CYWG;2011-05-17 07:00;CYWG 170700Z 16006KT 15SM SKC 09/03 A3007 RMK SLP187

CYWG;2011-05-17 08:00;CYWG 170800Z 16006KT 15SM SKC 08/02 A3006 RMK SLP185

CYWG;2011-05-17 09:00;CYWG 170900Z 16006KT 15SM SKC 08/02 A3006 RMK SLP183

CYWG;2011-05-17 10:00;CYWG 171000Z 18006KT 15SM FEW210 10/02 A3006 RMK CI0 SLP184

CYWG;2011-05-17 11:00;CYWG 171100Z 17006KT 15SM FEW220 08/01 A3006 RMK CI0 SLP183

CYWG;2011-05-17 12:00;CYWG 171200Z 17005KT 15SM FEW220 10/04 A3006 RMK CI0 SLP183

CYWG;2011-05-17 13:00;CYWG 171300Z 18007KT 15SM FEW220 14/04 A3007 RMK CI0 SLP185

CYWG;2011-05-17 14:00;CYWG 171400Z 16009KT 15SM FEW220 17/03 A3006 RMK CI0 SLP181

CYWG;2011-05-17 15:00;CYWG 171500Z 18012KT 15SM FEW220 19/03 A3005 RMK CI0 SLP178

CYWG;2011-05-17 16:00;CYWG 171600Z 18012G20KT 15SM FEW220 20/03 A3004 RMK CI0 SLP176

CYWG;2011-05-17 17:00;CYWG 171700Z 18013G19KT 15SM FEW220 21/02 A3003 RMK CI0 SLP172

CYWG;2011-05-17 18:00;CYWG 171800Z 14016G21KT 15SM FEW220 22/03 A3001 RMK CI0 SLP166

CYWG;2011-05-17 19:00;CYWG 171900Z 15014KT 15SM FEW240 23/03 A3000 RMK CI0 SLP162

CYWG;2011-05-17 20:00;CYWG 172000Z 16012G20KT 15SM FEW240 24/03 A2998 RMK CI0 SLP156

CYWG;2011-05-17 21:00;CYWG 172100Z 17013G20KT 15SM FEW240 24/03 A2996 RMK CI0 SLP148

CYWG;2011-05-17 22:00;CYWG 172200Z 18015G20KT 15SM FEW240 24/04 A2994 RMK CI0 SLP143

CYWG;2011-05-17 23:00;CYWG 172300Z 16015KT 15SM FEW240 24/04 A2993 RMK CI0 SLP140

CYWG;2011-05-18 00:00;CYWG 180000Z 18010KT 15SM FEW240 23/05 A2992 RMK CI0 SLP135

CYWG;2011-05-18 01:00;CYWG 180100Z 16007KT 15SM FEW240 22/04 A2992 RMK CI0 SLP135

CYWG;2011-05-18 02:00;CYWG 180200Z 14010KT 15SM FEW240 20/04 A2993 RMK CI0 SLP137

CYWG;2011-05-18 03:00;CYWG 180300Z 14008KT 15SM FEW240 18/04 A2994 RMK CI0 SLP142

CYWG;2011-05-18 04:00;CYWG 180400Z 14010KT 15SM FEW240 17/01 A2996 RMK CI0 SLP147

CYWG;2011-05-18 05:00;CYWG 180500Z 14009KT 15SM SKC 17/01 A2996 RMK SLP148

CYWG;2011-05-18 06:00;CYWG 180600Z 14008KT 15SM SKC 13/01 A2996 RMK SLP149

CYWG;2011-05-18 07:00;CYWG 180700Z 16007KT 15SM SKC 12/01 A2997 RMK SLP151

CYWG;2011-05-18 08:00;CYWG 180800Z 16007KT 15SM SKC 10/01 A2998 RMK SLP153

CYWG;2011-05-18 09:00;CYWG 180900Z 16006KT 15SM SKC 10/01 A2998 RMK SLP156

CYWG;2011-05-18 10:00;CYWG 181000Z 17006KT 15SM SKC 09/01 A2999 RMK SLP157

CYWG;2011-05-18 11:00;CYWG 181100Z 17008KT 15SM SKC 08/02 A2999 RMK SLP160

CYWG;2011-05-18 12:00;CYWG 181200Z 16005KT 15SM SKC 11/04 A3001 RMK SLP164

CYWG;2011-05-18 13:00;CYWG 181300Z 16009KT 15SM SKC 14/02 A3001 RMK SLP165

CYWG;2011-05-18 14:00;CYWG 181400Z 15006KT 15SM SKC 16/02 A3000 RMK SLP163

CYWG;2011-05-18 15:00;CYWG 181500Z 15002KT 15SM SKC 18/02 A3000 RMK SLP163

CYWG;2011-05-18 16:00;CYWG 181600Z 12005KT 15SM SKC 20/03 A3000 RMK SLP161

CYWG;2011-05-18 17:00;CYWG 181700Z 10009KT 15SM FEW240 21/00 A2999 RMK CI0 SLP159

CYWG;2011-05-18 18:00;CYWG 181800Z 12012G17KT 15SM FEW240 23/02 A2997 RMK CI1 SLP152

CYWG;2011-05-18 19:00;CYWG 181900Z 10015G22KT 15SM FEW240 23/01 A2997 RMK CI0 SLP152

CYWG;2011-05-18 20:00;CYWG 182000Z 13011G19KT 15SM FEW220 23/04 A2997 RMK CI0 SLP150

CYWG;2011-05-18 21:00;CYWG 182100Z 13013G19KT 15SM BKN220 23/04 A2996 RMK CI2 SLP149

CYWG;2011-05-18 22:00;CYWG 182200Z 13014KT 15SM BKN220 23/03 A2996 RMK CI2 SLP148

CYWG;2011-05-18 23:00;CYWG 182300Z 13014G21KT 15SM BKN220 22/M03 A2997 RMK CI2 SLP151

CYWG;2011-05-19 00:00;CYWG 190000Z 14013G18KT 15SM BKN220 21/M02 A2997 RMK CI3 SLP151

CYWG;2011-05-19 03:00;CYWG 190300Z 13006KT 15SM SCT200 16/01 A3001 RMK CI2 SLP165

CYWG;2011-05-19 04:00;CYWG 190400Z 09003KT 15SM FEW200 15/01 A3002 RMK CI0 SLP167

CYWG;2011-05-19 05:00;CYWG 190500Z 05004KT 15SM FEW200 11/04 A3002 RMK CI1 SLP169

CYWG;2011-05-19 06:00;CYWG 190600Z 00000KT 15SM BKN200 12/04 A3003 RMK CI2 SLP171

CYWG;2011-05-19 07:00;CYWG 190700Z 05003KT 15SM BKN200 11/05 A3003 RMK CI3 SLP172

CYWG;2011-05-19 08:00;CYWG 190800Z 04002KT 15SM BKN140 10/05 A3004 RMK AC3 SLP175

CYWG;2011-05-19 09:00;CYWG 190900Z 05006KT 15SM FEW140 SCT200 10/05 A3005 RMK AC1CI0 SLP180

CYWG;2011-05-19 10:00;CYWG 191000Z 36002KT 15SM BKN140 07/04 A3006 RMK AC3 SLP182

CYWG;2011-05-19 11:00;CYWG 191100Z 33004KT 15SM BKN120 BKN250 08/05 A3006 RMK AC5CI0 SLP184

CYWG;2011-05-19 12:00;CYWG 191200Z 35004KT 15SM FEW120 BKN250 08/07 A3007 RMK AC2CI0 SLP186

CYWG;2011-05-19 13:00;CYWG 191300Z 03003KT 15SM FEW120 SCT250 14/09 A3007 RMK AC2CI0 SLP187

CYWG;2011-05-19 14:00;CYWG 191400Z 04007KT 15SM SCT120 BKN250 17/08 A3008 RMK AC4CI2 SLP191

CYWG;2011-05-19 15:00;CYWG 191500Z 03006KT 15SM BKN120 18/10 A3008 RMK AC7 ACC EMBD VIRGA SE SLP189

CYWG;2011-05-19 16:00;CYWG 191600Z 06004KT 15SM -SHRA FEW060 BKN083 OVC120 19/09 A3009 RMK SC2AC5AC2 ACC EMBD SLP193

CYWG;2011-05-19 17:00;CYWG 191700Z 00000KT 15SM -SHRA FEW055 BKN083 OVC095 20/10 A3010 RMK SC2AC4AC2 ACC EMBD SLP195

CYWG;2011-05-19 17:21;CYWG 191721Z 25006KT 15SM FEW055 BKN085 BKN100 20/ RMK SC2AC4AC2 ACC EMBD SHWRS SW-W

CYWG;2011-05-19 18:00;CYWG 191800Z 24004KT 15SM BKN085 BKN100 21/09 A3009 RMK AC5AC2 SLP193

CYWG;2011-05-19 19:00;CYWG 191900Z 10002KT 15SM SCT085 BKN097 23/08 A3008 RMK AC3AC4 SLP189

CYWG;2011-05-19 20:00;CYWG 192000Z 19003KT 15SM -SHRA SCT077 BKN094 22/09 A3007 RMK AC3AC4 SLP186

CYWG;2011-05-19 20:38;CYWG 192038Z 19002KT 15SM SCT065 BKN094 23/ RMK SC3AC2

CYWG;2011-05-19 21:00;CYWG 192100Z 02006KT 15SM FEW065 BKN094 24/08 A3005 RMK SC2AC2 OBS TAKEN +10 SLP178

CYWG;2011-05-19 22:00;CYWG 192200Z 11006G15KT 15SM SCT092 25/08 A3004 RMK AC4 SLP176

CYWG;2011-05-19 23:00;CYWG 192300Z 10015KT 15SM SCT088 25/06 A3004 RMK AC3 SLP175

CYWG;2011-05-20 00:00;CYWG 200000Z 11010KT 15SM SCT085 24/08 A3004 RMK AC4 SLP175

CYWG;2011-05-20 01:00;CYWG 200100Z 12010KT 15SM FEW083 FEW270 23/08 A3003 RMK AC1CI0 SLP173

CYWG;2011-05-20 02:00;CYWG 200200Z 11008KT 15SM FEW083 FEW270 21/09 A3003 RMK AC1CI0 SLP174

CYWG;2011-05-20 03:00;CYWG 200300Z 06006KT 15SM FEW080 FEW260 17/08 A3005 RMK AC2CI1 SLP178

CYWG;2011-05-20 04:00;CYWG 200400Z 05007KT 15SM FEW080 14/07 A3006 RMK AC1 SLP180

CYWG;2011-05-20 05:00;CYWG 200500Z 06004KT 15SM FEW080 13/07 A3006 RMK AC1 SLP182

CYWG;2011-05-20 06:00;CYWG 200600Z 05005KT 15SM FEW080 12/07 A3007 RMK AC2 SLP185

CYWG;2011-05-20 07:00;CYWG 200700Z 06004KT 15SM SCT080 13/08 A3006 RMK AC4 SLP183

CYWG;2011-05-20 08:00;CYWG 200800Z 08004KT 15SM BKN080 13/08 A3006 RMK AC6 SLP184

CYWG;2011-05-20 09:00;CYWG 200900Z 12005KT 15SM BKN080 16/11 A3006 RMK AC6 SLP182

CYWG;2011-05-20 10:00;CYWG 201000Z 12006KT 15SM BKN081 15/12 A3005 RMK AC6 SLP177

CYWG;2011-05-20 11:00;CYWG 201100Z 11005KT 15SM BKN074 BKN240 15/12 A3006 RMK AC5CI1 SLP181

CYWG;2011-05-20 12:00;CYWG 201200Z 12008KT 15SM SCT072 BKN240 16/12 A3006 RMK AC3CI1 SLP182

CYWG;2011-05-20 13:00;CYWG 201300Z 14005KT 15SM SCT072 OVC240 18/12 A3006 RMK AC3CI2 SLP181

CYWG;2011-05-20 14:00;CYWG 201400Z 07004KT 15SM FEW028 FEW070 OVC240 20/13 A3005 RMK CU1AC2CI2 SLP177

CYWG;2011-05-20 15:00;CYWG 201500Z 09008KT 15SM FEW081 OVC240 21/13 A3003 RMK AC2CI1 SLP170

CYWG;2011-05-20 16:00;CYWG 201600Z 11012KT 15SM FEW040 FEW073 OVC240 24/13 A3002 RMK CU1AC2CI2 SLP166

CYWG;2011-05-20 17:00;CYWG 201700Z 10011G16KT 15SM SCT050 BKN075 OVC240 24/12 A3000 RMK CU3AC2CI2 SLP162

CYWG;2011-05-20 18:00;CYWG 201800Z 12015KT 15SM BKN052 BKN073 OVC240 24/13 A3000 RMK CU5AC2CI1 SLP160

CYWG;2011-05-20 19:00;CYWG 201900Z 10013KT 15SM SCT050 OVC240 25/13 A2997 RMK CU4CI4 SLP151

CYWG;2011-05-20 20:00;CYWG 202000Z 11015KT 15SM SCT050 BKN075 OVC240 25/12 A2996 RMK CU4AC2CI2 SLP148

CYWG;2011-05-20 21:00;CYWG 202100Z 13013KT 15SM BKN050 OVC080 25/12 A2996 RMK CU5AC3 SLP146

CYWG;2011-05-20 22:00;CYWG 202200Z 12014G19KT 15SM FEW050 BKN095 OVC240 25/12 A2995 RMK CU2AC2CI3 SLP144

CYWG;2011-05-20 23:00;CYWG 202300Z 14008KT 15SM FEW050 FEW095 OVC240 24/13 A2994 RMK CU1AC2CI5 SLP139

CYWG;2011-05-21 00:00;CYWG 210000Z 12007KT 15SM FEW050 FEW095 OVC240 24/13 A2993 RMK CU1AC1CI6 SLP137

CYWG;2011-05-21 01:00;CYWG 210100Z 11010KT 15SM FEW050 FEW095 OVC240 23/12 A2993 RMK CU1AC1CI6 SLP137

CYWG;2011-05-21 02:00;CYWG 210200Z 10006KT 15SM VCSH FEW045 SCT100 OVC240 20/12 A2993 RMK CU2AC2CI2 SHWR AND VIS LWR SE SLP137

CYWG;2011-05-21 02:37;CYWG 210237Z 18015KT 15SM -SHRA SCT049 BKN090 OVC260 20/ RMK SC3AC2CI2

CYWG;2011-05-21 03:00;CYWG 210300Z 22009G15KT 15SM -SHRA BKN049 OVC090 19/14 A2993 RMK SC5AC3 SLP138

CYWG;2011-05-21 03:16;CYWG 210316Z 21007KT 15SM BKN049 OVC090 18/ RMK SC6AC2

CYWG;2011-05-21 04:00;CYWG 210400Z 21007KT 15SM BKN055 OVC090 18/13 A2993 RMK SC5AC3 SLP138

CYWG;2011-05-21 11:00;CYWG 211100Z 06008KT 15SM BKN050 OVC090 16/14 A2983 RMK SC5AC3 SLP101

CYWG;2011-05-21 11:12;CYWG 211112Z 07007KT 15SM -SHRA BKN050 OVC090 16/ RMK SC5AC3

CYWG;2011-05-21 12:00;CYWG 211200Z 12013KT 10SM -SHRA OVC050 16/15 A2983 RMK SC8 SLP102

CYWG;2011-05-21 13:00;CYWG 211300Z 10010KT 8SM -RA SCT023 OVC040 16/15 A2982 RMK SC2SC6 BR SLP098

CYWG;2011-05-21 14:00;CYWG 211400Z 10012KT 10SM -RA SCT020 BKN041 OVC065 16/15 A2981 RMK SC3SC4SC1 BR SLP095

CYWG;2011-05-21 14:52;CYWG 211452Z 09013KT 8SM -RA BKN010 OVC046 16/ RMK SC5SC3 BR

CYWG;2011-05-21 15:00;CYWG 211500Z 09011KT 10SM -RA BKN008 OVC046 16/15 A2979 RMK SC6SC2 BR SLP091

CYWG;2011-05-21 15:32;CYWG 211532Z 09014G20KT 7SM -RA SCT010 OVC026 16/ RMK SC3SC5 BR

CYWG;2011-05-21 15:45;CYWG 211545Z 08013G21KT 8SM -RA FEW008 SCT012 OVC035 16/ RMK SF2SC2SC5 BR

CYWG;2011-05-21 16:00;CYWG 211600Z 08014KT 10SM -RA FEW008 BKN033 OVC090 16/15 A2977 RMK SF2SC3AC3 BR SLP083

CYWG;2011-05-21 16:43;CYWG 211643Z 08013G21KT 12SM -RA BKN009 OVC037 16/ RMK SC6SC2 BR

CYWG;2011-05-21 17:00;CYWG 211700Z 08013KT 12SM -RA BKN008 OVC037 16/15 A2975 RMK SC6SC2 BR SLP077

CYWG;2011-05-21 18:00;CYWG 211800Z 08016G22KT 8SM -RA BKN008 OVC017 16/15 A2974 RMK SC7SC1 BR SLP074

CYWG;2011-05-21 19:00;CYWG 211900Z 08012G19KT 10SM -RA BKN009 OVC018 17/16 A2972 RMK SF6SC2 OBS TAKEN +07 SLP068

CYWG;2011-05-21 20:00;CYWG 212000Z 07013G19KT 10SM -RA BKN009 OVC025 16/15 A2970 RMK SF6SC2 OBS TAKEN +04 SLP062

CYWG;2011-05-21 21:00;CYWG 212100Z 07013G19KT 8SM -RA BKN009 OVC043 16/15 A2970 RMK SF7SC1 SLP059

CYWG;2011-05-21 22:00;CYWG 212200Z 11012KT 5SM -RA BKN007 OVC024 16/15 A2968 RMK SC6SC2 SLP055

CYWG;2011-05-21 23:00;CYWG 212300Z 08012G17KT 5SM -RA BKN009 OVC042 15/15 A2967 RMK SC7SC1 SLP050

CYWG;2011-05-22 00:00;CYWG 220000Z 07012KT 4SM -RA BKN009 OVC037 15/14 A2964 RMK SF7SC1 SLP041

CYWG;2011-05-22 01:00;CYWG 220100Z 07012KT 4SM -RA OVC006 15/14 A2963 RMK ST8 RERA SLP036

CYWG;2011-05-22 02:00;CYWG 220200Z 07012G18KT 5SM -RA BKN006 OVC020 14/14 A2961 RMK SF7SC1 SLP030

CYWG;2011-05-22 03:00;CYWG 220300Z 08011KT 4SM -RA BR OVC007 14/14 A2960 RMK ST8 SLP026

CYWG;2011-05-22 05:00;CYWG 220500Z 13008KT 10SM OVC005 14/14 A2958 RMK SF8 BR SLP021

CYWG;2011-05-22 06:00;CYWG 220600Z 14008KT 10SM OVC005 15/14 A2959 RMK SF8 BR SLP022

CYWG;2011-05-22 06:53;CYWG 220653Z 15006KT 15SM FEW007 BKN019 BKN071 14/ RMK SF2SC4AC1

CYWG;2011-05-22 07:00;CYWG 220700Z 14006KT 15SM FEW007 BKN019 BKN071 14/14 A2959 RMK SF2SC3AC1 SLP023

CYWG;2011-05-22 08:00;CYWG 220800Z 13007KT 10SM FEW010 BKN088 13/13 A2959 RMK SC2AC4 BR SLP024

CYWG;2011-05-22 08:14;CYWG 220814Z 13009KT 10SM BKN004 BKN011 OVC088 14/ RMK SF5SC2AC2 BR

CYWG;2011-05-22 09:00;CYWG 220900Z 14009KT 10SM BKN003 OVC088 14/14 A2960 RMK SF6AC2 BR SLP025

CYWG;2011-05-22 10:00;CYWG 221000Z 13007KT 15SM OVC006 13/13 A2960 RMK ST8 SLP027

CYWG;2011-05-22 11:00;CYWG 221100Z 12008KT 10SM OVC005 14/13 A2959 RMK ST8 BR SLP022

CYWG;2011-05-22 11:10;CYWG 221110Z 12009KT 6SM BR OVC004 14/ RMK ST8

CYWG;2011-05-22 11:26;CYWG 221126Z 11008KT 4SM BR OVC003 14/ RMK ST8

CYWG;2011-05-22 12:00;CYWG 221200Z 10006KT 6SM BR OVC003 14/14 A2959 RMK ST8 SLP022

CYWG;2011-05-22 12:25;CYWG 221225Z 08006KT 10SM OVC006 14/ RMK ST8 BR

CYWG;2011-05-22 13:00;CYWG 221300Z 08006KT 12SM OVC006 15/14 A2959 RMK SC8 SLP022

CYWG;2011-05-22 14:00;CYWG 221400Z 09007KT 12SM OVC009 15/14 A2959 RMK SC8 SLP024

CYWG;2011-05-22 15:00;CYWG 221500Z 09009KT 15SM OVC010 15/14 A2959 RMK SC8 SLP023

CYWG;2011-05-22 16:00;CYWG 221600Z 09008KT 15SM OVC010 16/14 A2958 RMK SC8 SLP019

CYWG;2011-05-22 17:00;CYWG 221700Z 07006KT 15SM OVC014 16/14 A2958 RMK SC8 SLP020

CYWG;2011-05-22 18:00;CYWG 221800Z 04007KT 15SM OVC014 17/14 A2958 RMK SC8 SLP019

CYWG;2011-05-22 19:00;CYWG 221900Z 05009KT 15SM BKN014 BKN030 17/14 A2958 RMK SC6SC1 SLP019

CYWG;2011-05-22 20:00;CYWG 222000Z 06008KT 15SM BKN019 BKN035 19/15 A2957 RMK CU5SC2 SLP015

CYWG;2011-05-22 21:00;CYWG 222100Z 05012KT 15SM SCT024 BKN090 BKN240 19/14 A2956 RMK CU4AC1CI0 SLP013

CYWG;2011-05-22 22:00;CYWG 222200Z 03012KT 15SM BKN030 19/14 A2956 RMK CU6 SLP013

CYWG;2011-05-22 23:00;CYWG 222300Z 03011KT 15SM SCT026 BKN100 19/15 A2956 RMK CU4AC0 SLP012

CYWG;2011-05-23 00:00;CYWG 230000Z 03009KT 15SM FEW026 SCT100 BKN240 20/15 A2956 RMK CU2AC1CI1 SLP012

CYWG;2011-05-23 01:00;CYWG 230100Z 01010KT 15SM FEW025 FEW100 BKN240 18/14 A2956 RMK CU1AC2CI0 SLP012

CYWG;2011-05-23 02:00;CYWG 230200Z 03011KT 15SM FEW100 SCT240 17/14 A2957 RMK AC1CI0 SLP014

CYWG;2011-05-23 03:00;CYWG 230300Z 02013KT 15SM FEW100 SCT240 15/14 A2958 RMK AC1CI0 SLP020

CYWG;2011-05-23 04:00;CYWG 230400Z 36012KT 15SM BKN034 15/14 A2959 RMK SC5 SLP023

CYWG;2011-05-23 05:00;CYWG 230500Z 01010G15KT 15SM BKN034 15/13 A2960 RMK SC7 SLP027

CYWG;2011-05-23 06:00;CYWG 230600Z 02012KT 15SM BKN042 14/13 A2961 RMK SC6 SLP029

CYWG;2011-05-23 07:00;CYWG 230700Z 36009KT 15SM BKN042 13/12 A2961 RMK SC6 SLP031

CYWG;2011-05-23 08:00;CYWG 230800Z 01012KT 15SM BKN024 13/12 A2962 RMK SC7 SLP034

CYWG;2011-05-23 09:00;CYWG 230900Z 01010G15KT 15SM FEW021 BKN034 12/11 A2964 RMK SC2SC3 OB TAKEN +01 SLP038

CYWG;2011-05-23 10:00;CYWG 231000Z 01011KT 15SM OVC021 13/12 A2965 RMK SC8 SLP043

CYWG;2011-05-23 11:00;CYWG 231100Z 01013KT 15SM BKN017 13/12 A2967 RMK SC7 SLP049

CYWG;2011-05-23 12:00;CYWG 231200Z 01016KT 15SM BKN022 13/11 A2970 RMK SC7 SLP058

CYWG;2011-05-23 13:00;CYWG 231300Z 02019G24KT 15SM FEW011 BKN028 BKN100 12/10 A2973 RMK SC1SC6AC1 SLP070

CYWG;2011-05-23 14:00;CYWG 231400Z 02018G25KT 15SM BKN012 13/10 A2975 RMK SC6 SLP077

CYWG;2011-05-23 15:00;CYWG 231500Z 36013G18KT 15SM BKN014 12/09 A2977 RMK SC7 SLP085

CYWG;2011-05-23 16:00;CYWG 231600Z 36012G17KT 15SM OVC016 13/09 A2979 RMK SC8 SLP092

CYWG;2011-05-23 17:00;CYWG 231700Z 35015KT 15SM OVC016 12/09 A2982 RMK SC8 SLP100

CYWG;2011-05-23 18:00;CYWG 231800Z 01019G24KT 15SM OVC014 10/07 A2984 RMK SC8 SLP110

CYWG;2011-05-23 19:00;CYWG 231900Z 01017KT 15SM OVC014 08/06 A2987 RMK SC8 SLP121

CYWG;2011-05-23 20:00;CYWG 232000Z 01015G22KT 15SM OVC012 08/05 A2990 RMK SC8 SLP129

CYWG;2011-05-23 21:00;CYWG 232100Z 01015G20KT 15SM OVC016 08/05 A2991 RMK SC8 SLP134

CYWG;2011-05-23 22:00;CYWG 232200Z 02018KT 15SM OVC016 08/04 A2992 RMK SC8 SLP137

CYWG;2011-05-23 23:00;CYWG 232300Z 03020KT 15SM OVC018 08/03 A2993 RMK SC8 SLP140

CYWG;2011-05-24 00:00;CYWG 240000Z 03019G24KT 15SM OVC022 07/03 A2994 RMK SC8 SLP146

CYWG;2011-05-24 01:00;CYWG 240100Z 02016KT 15SM OVC026 07/03 A2996 RMK SC8 SLP150

CYWG;2011-05-24 02:00;CYWG 240200Z 01014G20KT 15SM OVC026 07/03 A2997 RMK SC8 SLP154

CYWG;2011-05-24 03:00;CYWG 240300Z 01014G19KT 15SM OVC028 07/02 A2999 RMK SC8 SLP164

CYWG;2011-05-24 04:00;CYWG 240400Z 01011G16KT 15SM OVC026 07/02 A3001 RMK SC8 SLP169

CYWG;2011-05-24 05:00;CYWG 240500Z 02013KT 15SM OVC024 06/02 A3003 RMK SC8 SLP175

CYWG;2011-05-24 06:00;CYWG 240600Z 02008KT 15SM OVC024 06/02 A3003 RMK SC8 SLP176

CYWG;2011-05-24 07:00;CYWG 240700Z 04010KT 15SM OVC022 06/01 A3004 RMK SC8 SLP181

CYWG;2011-05-24 08:00;CYWG 240800Z 03011G17KT 15SM OVC022 04/02 A3006 RMK SC8 SLP185

CYWG;2011-05-24 09:00;CYWG 240900Z 03011KT 15SM OVC022 04/01 A3007 RMK SC8 SLP191

CYWG;2011-05-24 10:00;CYWG 241000Z 07011KT 15SM SCT024 BKN083 04/M01 A3008 RMK SC3AC2 SLP195

CYWG;2011-05-24 11:00;CYWG 241100Z 07007KT 15SM BKN026 04/M00 A3008 RMK SC7 VIRGA NW-N SLP195

CYWG;2011-05-24 12:00;CYWG 241200Z 04010KT 15SM BKN023 04/M00 A3010 RMK SC7 VIRGA NW-NE SLP201

CYWG;2011-05-24 13:00;CYWG 241300Z 04005KT 15SM BKN021 04/M00 A3011 RMK SC7 VIRGA N SLP205

CYWG;2011-05-24 14:00;CYWG 241400Z 03005KT 15SM BKN021 05/02 A3012 RMK SC7 VIRGA N SLP207

CYWG;2011-05-24 15:00;CYWG 241500Z 01006KT 15SM BKN021 05/02 A3010 RMK SC7 CU EMBD SLP203

CYWG;2011-05-24 16:00;CYWG 241600Z 02012KT 15SM BKN017 06/03 A3010 RMK SC7 SLP201

CYWG;2011-05-24 17:00;CYWG 241700Z 03009G15KT 15SM BKN021 07/02 A3010 RMK SC7 SLP203

CYWG;2011-05-24 18:00;CYWG 241800Z 02009G16KT 15SM BKN027 08/02 A3010 RMK SC6 SLP202

CYWG;2011-05-24 19:00;CYWG 241900Z 05008KT 15SM FEW029 09/02 A3009 RMK SC2 SLP199

CYWG;2011-05-24 20:00;CYWG 242000Z 01006KT 15SM FEW032 FEW250 10/02 A3010 RMK SC1CI0 SLP201

CYWG;2011-05-24 21:00;CYWG 242100Z 03012KT 15SM FEW040 11/M02 A3009 RMK CF1 SLP198

CYWG;2011-05-24 22:00;CYWG 242200Z 02013KT 15SM FEW040 11/M04 A3008 RMK CF1 SLP193

CYWG;2011-05-24 23:00;CYWG 242300Z 03009KT 15SM SKC 12/00 A3008 RMK SLP193

CYWG;2011-05-25 00:00;CYWG 250000Z 05008KT 15SM SKC 12/01 A3006 RMK SLP188

CYWG;2011-05-25 01:00;CYWG 250100Z 04008KT 15SM FEW250 11/02 A3007 RMK CI0 SLP191

CYWG;2011-05-25 02:00;CYWG 250200Z 03006KT 15SM FEW040 FEW250 09/03 A3008 RMK SC1CI0 SLP195

CYWG;2011-05-25 03:00;CYWG 250300Z 36003KT 15SM SKC 05/02 A3010 RMK SLP203

CYWG;2011-05-25 04:00;CYWG 250400Z 34003KT 15SM SKC 03/01 A3011 RMK SLP206

CYWG;2011-05-25 05:00;CYWG 250500Z 34004KT 15SM SKC 02/00 A3009 RMK SLP199

CYWG;2011-05-25 06:00;CYWG 250600Z 34005KT 15SM SKC 01/M01 A3009 RMK SLP201

CYWG;2011-05-25 07:00;CYWG 250700Z 27005KT 15SM SKC 02/M01 A3011 RMK SLP206

CYWG;2011-05-25 08:00;CYWG 250800Z 27007KT 15SM SKC 00/M02 A3011 RMK SLP205

CYWG;2011-05-25 09:00;CYWG 250900Z 27007KT 15SM SKC 02/00 A3010 RMK SLP203

CYWG;2011-05-25 10:00;CYWG 251000Z 29005KT 15SM SKC M00/M01 A3009 RMK SLP199

CYWG;2011-05-25 11:00;CYWG 251100Z 29007KT 15SM SKC 00/M00 A3010 RMK SLP201

CYWG;2011-05-25 12:00;CYWG 251200Z 30005KT 15SM SKC 04/03 A3012 RMK SLP206

CYWG;2011-05-25 13:00;CYWG 251300Z 32011KT 15SM SKC 09/05 A3011 RMK SLP204

CYWG;2011-05-25 14:00;CYWG 251400Z 34012G17KT 15SM SKC 12/04 A3012 RMK SLP206

CYWG;2011-05-25 15:00;CYWG 251500Z 02015KT 15SM SKC 11/04 A3014 RMK SLP213

CYWG;2011-05-25 16:00;CYWG 251600Z 03018KT 15SM SKC 11/03 A3015 RMK SLP218

CYWG;2011-05-25 17:00;CYWG 251700Z 03017KT 15SM FEW050 FEW110 11/04 A3016 RMK CU1AC2 SLP219

CYWG;2011-05-25 18:00;CYWG 251800Z 01014G20KT 15SM FEW036 FEW110 12/04 A3015 RMK CU2AC1 SLP219

CYWG;2011-05-25 19:00;CYWG 251900Z 02015G20KT 15SM FEW040 FEW250 12/02 A3015 RMK CU1CI1 SLP217

CYWG;2011-05-25 20:00;CYWG 252000Z 03012G20KT 15SM FEW050 FEW250 12/01 A3015 RMK CU1CI1 SLP217

CYWG;2011-05-25 21:00;CYWG 252100Z 03012G19KT 15SM FEW050 12/M02 A3015 RMK CU1 SLP217

CYWG;2011-05-25 22:00;CYWG 252200Z 03012G17KT 15SM FEW050 12/M01 A3014 RMK CU1 SLP216

CYWG;2011-05-25 23:00;CYWG 252300Z 02012G17KT 15SM FEW250 12/M02 A3015 RMK CI1 SLP218

CYWG;2011-05-26 00:00;CYWG 260000Z 02013KT 15SM FEW250 11/M03 A3015 RMK CI1 SLP217

CYWG;2011-05-26 01:00;CYWG 260100Z 03012KT 15SM FEW250 10/M03 A3015 RMK CI1 SLP219

CYWG;2011-05-26 02:00;CYWG 260200Z 02009KT 15SM FEW250 08/M02 A3016 RMK CI1 SLP220

CYWG;2011-05-26 03:00;CYWG 260300Z 03007KT 15SM FEW250 04/M03 A3016 RMK CI1 SLP221

CYWG;2011-05-26 04:00;CYWG 260400Z 01006KT 15SM FEW250 03/M02 A3016 RMK CI1 SLP220

CYWG;2011-05-26 04:22;CYWG 260422Z 03006KT 15SM FEW250 02/ RMK CI1

CYWG;2011-05-26 05:00;CYWG 260500Z 36003KT 15SM SKC 01/M03 A3015 RMK SLP217

CYWG;2011-05-26 06:00;CYWG 260600Z 36004KT 15SM SKC M00/M03 A3014 RMK SLP214

CYWG;2011-05-26 07:00;CYWG 260700Z 05002KT 15SM SKC 01/M03 A3014 RMK SLP215

CYWG;2011-05-26 08:00;CYWG 260800Z 00000KT 15SM SKC 00/M02 A3014 RMK SLP214

CYWG;2011-05-26 09:00;CYWG 260900Z 35002KT 15SM FEW250 M02/M04 A3013 RMK CI1 SLP213

CYWG;2011-05-26 10:00;CYWG 261000Z 33006KT 15SM FEW250 M03/M05 A3014 RMK CI1 SLP215

CYWG;2011-05-26 11:00;CYWG 261100Z 01003KT 15SM FEW250 M03/M05 A3015 RMK CI1 SLP218

CYWG;2011-05-26 12:00;CYWG 261200Z 04002KT 15SM FEW250 01/M01 A3016 RMK CI1 SLP223

CYWG;2011-05-26 13:00;CYWG 261300Z 15005KT 15SM FEW250 07/00 A3016 RMK CI0 SLP222

CYWG;2011-05-26 14:00;CYWG 261400Z 15009KT 15SM FEW250 10/M01 A3015 RMK CI0 SLP218

CYWG;2011-05-26 15:00;CYWG 261500Z 16009KT 15SM FEW250 11/M00 A3013 RMK CI1 SLP211

CYWG;2011-05-26 16:00;CYWG 261600Z 19006KT 15SM FEW250 12/M04 A3011 RMK CI1 SLP204

CYWG;2011-05-26 17:00;CYWG 261700Z 12004KT 15SM FEW250 13/M03 A3009 RMK CI1 SLP196

CYWG;2011-05-26 18:00;CYWG 261800Z 20007KT 15SM FEW250 14/M01 A3006 RMK CI0 SLP186

CYWG;2011-05-26 19:00;CYWG 261900Z 14006KT 15SM FEW250 15/M01 A3003 RMK CI1 SLP178

CYWG;2011-05-26 20:00;CYWG 262000Z 14006KT 15SM FEW250 16/M01 A3001 RMK CI1 SLP171

CYWG;2011-05-26 21:00;CYWG 262100Z 17006KT 15SM FEW250 16/M02 A2999 RMK CI1 SLP164

CYWG;2011-05-26 22:00;CYWG 262200Z 14005KT 15SM BKN250 16/M03 A2997 RMK CI2 SLP157

CYWG;2011-05-26 23:00;CYWG 262300Z 14005KT 15SM BKN250 16/M04 A2995 RMK CI2 SLP151

CYWG;2011-05-27 00:00;CYWG 270000Z 17006KT 15SM BKN250 16/M03 A2993 RMK CI1 SLP143

CYWG;2011-05-27 01:00;CYWG 270100Z 16006KT 15SM BKN250 14/M00 A2992 RMK CI2 SLP139

CYWG;2011-05-27 02:00;CYWG 270200Z 16006KT 15SM FEW200 BKN250 12/M00 A2992 RMK CI2CI1 CONTRAILS SLP138

CYWG;2011-05-27 03:00;CYWG 270300Z 16005KT 15SM SCT200 11/M01 A2993 RMK CI1 SLP141

CYWG;2011-05-27 04:00;CYWG 270400Z 14006KT 15SM FEW140 BKN200 11/M01 A2993 RMK AC1CI6 SLP140

CYWG;2011-05-27 05:00;CYWG 270500Z 15010KT 15SM BKN200 12/M01 A2992 RMK CI5 SLP138

CYWG;2011-05-27 06:00;CYWG 270600Z 14012KT 15SM BKN200 11/M02 A2990 RMK CI4 SLP131

CYWG;2011-05-27 07:00;CYWG 270700Z 13010KT 15SM OVC160 11/M02 A2988 RMK AC7 SLP124

CYWG;2011-05-27 08:00;CYWG 270800Z 12008KT 15SM BKN150 10/M00 A2986 RMK AC6 SLP116

CYWG;2011-05-27 09:00;CYWG 270900Z 14010KT 15SM OVC140 10/00 A2984 RMK AC8 SLP110

CYWG;2011-05-27 10:00;CYWG 271000Z 14009KT 15SM FEW080 BKN140 10/01 A2982 RMK AC1AC7 SLP103

CYWG;2011-05-27 11:00;CYWG 271100Z 14012KT 15SM SCT077 BKN093 OVC140 11/02 A2981 RMK AC3AC3AC2 SLP099

CYWG;2011-05-27 12:00;CYWG 271200Z 15011G16KT 15SM -SHRA FEW031 BKN059 OVC091 11/04 A2980 RMK SC2SC3AC3 SLP097

CYWG;2011-05-27 12:43;CYWG 271243Z 15017KT 15SM FEW031 BKN057 OVC089 12/ RMK SC2SC4AC2

CYWG;2011-05-27 13:00;CYWG 271300Z 14014G20KT 15SM FEW042 BKN057 OVC082 12/04 A2978 RMK SC2SC3AC3 SLP088

CYWG;2011-05-27 14:00;CYWG 271400Z 15017G26KT 15SM -SHRA SCT040 BKN087 OVC120 12/03 A2976 RMK SC3AC3AC2 SLP082

CYWG;2011-05-27 15:00;CYWG 271500Z 14016KT 12SM -SHRA BKN022 OVC078 11/05 A2974 RMK SC5AC3 SLP076

CYWG;2011-05-27 16:00;CYWG 271600Z 14013G20KT 12SM -SHRA SCT027 OVC088 12/06 A2971 RMK SC4AC4 SLP067

CYWG;2011-05-27 17:00;CYWG 271700Z 15014G21KT 15SM -SHRA SCT033 OVC078 13/05 A2968 RMK SC3AC5 SLP058

CYWG;2011-05-27 18:00;CYWG 271800Z 14018G25KT 10SM -SHRA BKN028 OVC078 11/08 A2967 RMK SC6AC2 BR SLP052

CYWG;2011-05-27 19:00;CYWG 271900Z 13018G26KT 6SM -RA BR BKN021 OVC078 10/09 A2965 RMK SC6AC2 SLP046

CYWG;2011-05-27 19:53;CYWG 271953Z 14022G29KT 6SM -RA BR BKN014 OVC077 10/ RMK SC6AC2

CYWG;2011-05-27 20:00;CYWG 272000Z 15021G27KT 6SM -RA BR BKN014 OVC077 10/09 A2964 RMK SC6AC2 SLP042

CYWG;2011-05-27 20:43;CYWG 272043Z 14015G20KT 3SM -RA BR BKN008 OVC027 10/ RMK SF6SC2

CYWG;2011-05-27 21:00;CYWG 272100Z 14019KT 3SM -RA BR BKN008 OVC027 10/09 A2964 RMK SF7SC1 SLP042

CYWG;2011-05-27 21:48;CYWG 272148Z 14016KT 6SM BR BKN007 OVC027 11/ RMK SF7SC1

CYWG;2011-05-27 22:00;CYWG 272200Z 14016KT 6SM BR OVC007 11/10 A2962 RMK SF8 SLP036

CYWG;2011-05-27 23:00;CYWG 272300Z 15018KT 10SM OVC009 11/10 A2961 RMK SF8 SLP031

CYWG;2011-05-27 23:17;CYWG 272317Z 15015KT 12SM OVC010 11/ RMK SF8 BR

CYWG;2011-05-28 00:00;CYWG 280000Z 16017KT 15SM OVC012 12/10 A2960 RMK SF8 SLP028

CYWG;2011-05-28 01:00;CYWG 280100Z 16013G22KT 15SM OVC012 12/10 A2960 RMK SC8 SLP027

CYWG;2011-05-28 02:00;CYWG 280200Z 15015G20KT 15SM BKN012 OVC094 12/10 A2958 RMK SC7AC1 SLP021

CYWG;2011-05-28 03:00;CYWG 280300Z 15014KT 15SM SCT017 BKN096 11/10 A2957 RMK SC1AC5 SLP018

CYWG;2011-05-28 04:00;CYWG 280400Z 15011KT 15SM SCT100 11/10 A2955 RMK AC2 SLP013

CYWG;2011-05-28 05:00;CYWG 280500Z 15010KT 15SM FEW100 10/09 A2954 RMK AC1 SLP010

CYWG;2011-05-28 06:00;CYWG 280600Z 16009KT 15SM FEW012 BKN100 10/09 A2953 RMK SF1AC2 SLP006

CYWG;2011-05-28 07:00;CYWG 280700Z 14009KT 15SM FEW010 09/09 A2951 RMK SF1 SLP997

CYWG;2011-05-28 08:00;CYWG 280800Z 15009KT 15SM FEW010 BKN100 09/09 A2949 RMK SF1AC2 SLP992

CYWG;2011-05-28 08:30;CYWG 280830Z 15009KT 15SM BKN005 09/ RMK SF6

CYWG;2011-05-28 08:45;CYWG 280845Z 15008KT 15SM BKN004 09/ RMK SF7

CYWG;2011-05-28 09:00;CYWG 280900Z 15009KT 15SM BKN004 09/09 A2948 RMK SF6 SLP988

CYWG;2011-05-28 09:49;CYWG 280949Z 15008KT 6SM BR SCT005 SCT094 08/ RMK SF1AC1

CYWG;2011-05-28 10:00;CYWG 281000Z 14007KT 15SM SCT005 SCT094 09/09 A2946 RMK SF2AC1 SLP983

CYWG;2011-05-28 10:16;CYWG 281016Z 14007KT 6SM BR BKN004 RMK SF3

CYWG;2011-05-28 11:00;CYWG 281100Z 13007KT 10SM BKN005 OVC090 10/09 A2946 RMK SF7AC1 SLP982

CYWG;2011-05-28 12:00;CYWG 281200Z 12008KT 12SM -RA SCT006 BKN092 10/09 A2945 RMK SF3AC4 SLP978

CYWG;2011-05-28 12:40;CYWG 281240Z 14011KT 15SM BKN006 BKN050 11/ RMK SF5SC2

CYWG;2011-05-28 13:00;CYWG 281300Z 15010KT 15SM BKN007 BKN055 10/10 A2945 RMK SF5SC2 SLP977

CYWG;2011-05-28 14:00;CYWG 281400Z 16009KT 15SM OVC009 11/10 A2945 RMK SC7 SLP977

CYWG;2011-05-28 15:00;CYWG 281500Z 15011KT 15SM FEW009 SCT012 BKN050 12/10 A2944 RMK SF2SC2SC2 OBS TAKEN +05 SLP975

CYWG;2011-05-28 16:00;CYWG 281600Z 14008KT 15SM FEW009 FEW015 FEW086 15/11 A2943 RMK SF1SC1AC2 SLP971

CYWG;2011-05-28 17:00;CYWG 281700Z 15008KT 15SM BKN022 BKN250 16/11 A2943 RMK CU6CI0 SLP970

CYWG;2011-05-28 18:00;CYWG 281800Z 14006KT 15SM BKN032TCU BKN049 17/10 A2941 RMK TCU6SC1 SLP964

CYWG;2011-05-28 18:51;CYWG 281851Z 10009KT 15SM -SHRA SCT034 18/ RMK CU4 TCU EMBD

CYWG;2011-05-28 19:00;CYWG 281900Z 10008KT 15SM -SHRA SCT034 BKN083 17/09 A2941 RMK CU4AC2 TCU EMBD SLP961

CYWG;2011-05-28 19:45;CYWG 281945Z 14008KT 15SM FEW041 SCT090 18/ RMK CU2AC2

CYWG;2011-05-28 20:00;CYWG 282000Z 10010KT 15SM FEW041 SCT090 17/08 A2941 RMK CU2AC2 DSTNT SHWRS ALQDS SLP962

CYWG;2011-05-28 21:00;CYWG 282100Z 09014KT 15SM BKN045 BKN084 17/06 A2942 RMK SC5AC1 DSTNT SHWRS ALQDS SLP965

CYWG;2011-05-28 22:00;CYWG 282200Z 09011G16KT 15SM SCT042 BKN086 16/07 A2945 RMK SC4AC2 CB EMBD TS NW AND SW QUADS LTGCG ASOCTD SLP975

CYWG;2011-05-28 23:00;CYWG 282300Z 35014KT 15SM VCSH BKN037 OVC045 11/08 A2950 RMK SC5SC3 SHWRS W AND S QUADS SLP992

CYWG;2011-05-28 23:33;CYWG 282333Z 24004KT 15SM -SHRA SCT033 OVC044 11/ RMK SF3SC5

CYWG;2011-05-29 00:00;CYWG 290000Z 30005KT 15SM -SHRA SCT023 OVC044 11/08 A2951 RMK SC3SC5 SLP000

CYWG;2011-05-29 01:00;CYWG 290100Z 05004KT 15SM SCT055 BKN074 12/09 A2952 RMK SC3AC2 SLP003

CYWG;2011-05-29 02:00;CYWG 290200Z 05009KT 15SM FEW027 BKN046 BKN074 12/09 A2956 RMK SF1SC4AC2 SLP015

CYWG;2011-05-29 03:00;CYWG 290300Z 33010KT 15SM BKN046 BKN072 11/10 A2960 RMK SC5AC2 VIRGA/SH DIST N SLP027

CYWG;2011-05-29 04:00;CYWG 290400Z 34009KT 15SM BKN053 10/09 A2961 RMK SC5 SLP033

CYWG;2011-05-29 05:00;CYWG 290500Z 35004KT 15SM BKN077 09/08 A2963 RMK AC5 SLP037

CYWG;2011-05-29 06:00;CYWG 290600Z 31007KT 15SM BKN077 09/09 A2965 RMK AC5 SLP046

CYWG;2011-05-29 07:00;CYWG 290700Z 30007KT 15SM BKN072 08/08 A2967 RMK AC5 SLP050

CYWG;2011-05-29 07:45;CYWG 290745Z 32005KT 15SM OVC004 09/ RMK SF8

CYWG;2011-05-29 08:00;CYWG 290800Z 33007KT 15SM OVC004 09/09 A2968 RMK SF8 SLP055

CYWG;2011-05-29 08:49;CYWG 290849Z 35011KT 15SM OVC005 09/ RMK SF8

CYWG;2011-05-29 09:00;CYWG 290900Z 36009KT 15SM OVC005 09/08 A2969 RMK SF8 SLP059

CYWG;2011-05-29 09:43;CYWG 290943Z 33009KT 15SM OVC004 09/ RMK SF8

CYWG;2011-05-29 10:00;CYWG 291000Z 33008KT 15SM OVC004 09/08 A2973 RMK SF8 SLP070

CYWG;2011-05-29 11:00;CYWG 291100Z 33006KT 15SM OVC005 08/08 A2979 RMK ST8 SLP090

CYWG;2011-05-29 11:54;CYWG 291154Z 32005KT 15SM OVC004 08/ RMK ST8

CYWG;2011-05-29 12:00;CYWG 291200Z 32006KT 15SM OVC004 08/08 A2981 RMK ST8 SLP102

CYWG;2011-05-29 12:36;CYWG 291236Z 34006KT 15SM OVC005 08/ RMK ST8

CYWG;2011-05-29 13:00;CYWG 291300Z 35007KT 15SM OVC004 08/08 A2982 RMK ST8 SLP104

CYWG;2011-05-29 13:12;CYWG 291312Z 32008KT 10SM OVC003 08/ RMK ST8 BR

CYWG;2011-05-29 14:00;CYWG 291400Z 35008KT 12SM OVC004 08/08 A2985 RMK ST8 BR SLP113

CYWG;2011-05-29 14:39;CYWG 291439Z 01008KT 15SM OVC006 08/ RMK ST8

CYWG;2011-05-29 15:00;CYWG 291500Z 36005KT 15SM OVC006 09/08 A2986 RMK ST8 SLP118

CYWG;2011-05-29 16:00;CYWG 291600Z 36004KT 15SM OVC009 10/08 A2988 RMK SC8 SLP124

CYWG;2011-05-29 16:27;CYWG 291627Z 03003KT 15SM OVC010 10/ RMK SC8

CYWG;2011-05-29 17:00;CYWG 291700Z 01002KT 15SM OVC010 10/07 A2990 RMK SC8 SLP133

CYWG;2011-05-29 18:00;CYWG 291800Z 32005KT 15SM OVC012 10/08 A2992 RMK SC8 SLP137

CYWG;2011-05-29 19:00;CYWG 291900Z 01006KT 15SM OVC014 12/08 A2992 RMK SC8 SLP138

CYWG;2011-05-29 20:00;CYWG 292000Z 05006KT 15SM OVC018 12/08 A2994 RMK SC8 SLP145

CYWG;2011-05-29 21:00;CYWG 292100Z 03005KT 15SM OVC020 12/08 A2994 RMK SC8 SLP146

CYWG;2011-05-29 22:00;CYWG 292200Z 03005KT 15SM BKN025 13/08 A2994 RMK SC7 SLP146

CYWG;2011-05-29 23:00;CYWG 292300Z 35005KT 15SM BKN032 14/07 A2996 RMK SC6 SLP150

CYWG;2011-05-30 00:00;CYWG 300000Z 05006KT 15SM BKN028 BKN130 14/08 A2996 RMK SC5AC2 SLP151

CYWG;2011-05-30 01:00;CYWG 300100Z 04008KT 15SM FEW033 SCT130 BKN280 12/09 A2997 RMK SC2AC2CI2 SLP156

CYWG;2011-05-30 02:00;CYWG 300200Z 03007KT 15SM FEW033 FEW130 BKN220 BKN280 11/08 A2999 RMK SC1AC2CI2CI1 SLP163

CYWG;2011-05-30 03:00;CYWG 300300Z 04008KT 15SM FEW130 BKN220 09/07 A3001 RMK AC1CI1 SLP168

CYWG;2011-05-30 04:00;CYWG 300400Z 06010KT 15SM BKN130 BKN220 09/07 A3001 RMK AC5CI0 SLP168

CYWG;2011-05-30 05:00;CYWG 300500Z 05006KT 15SM BKN220 08/07 A3000 RMK CI2 SLP166

CYWG;2011-05-30 06:00;CYWG 300600Z 02006KT 15SM OVC130 07/06 A3000 RMK AC7 SLP167

CYWG;2011-05-30 07:00;CYWG 300700Z 05008KT 15SM FEW130 07/06 A2999 RMK AC1 SLP165

CYWG;2011-05-30 08:00;CYWG 300800Z 04009KT 15SM BKN058 07/06 A2998 RMK SC6 SLP159

CYWG;2011-05-30 09:00;CYWG 300900Z 05007KT 15SM BKN062 BKN083 08/07 A2998 RMK SC5AC2 SLP157

CYWG;2011-05-30 10:00;CYWG 301000Z 04010KT 15SM BKN060 BKN080 08/08 A2996 RMK SC5AC2 SLP152

CYWG;2011-05-30 11:00;CYWG 301100Z 04014KT 15SM BKN063 BKN080 08/08 A2990 RMK SC5AC2 PRESFR SLP131

CYWG;2011-05-30 12:00;CYWG 301200Z 04013KT 15SM FEW063 BKN078 BKN110 09/08 A2990 RMK SC2AC4AC2 SLP129

CYWG;2011-05-30 12:52;CYWG 301252Z 02010KT 15SM -SHRA FEW025 OVC067 09/ RMK SF1AC7 CVCTV CLD EMBD

CYWG;2011-05-30 13:00;CYWG 301300Z 01012KT 15SM -SHRA FEW025 OVC067 09/09 A2994 RMK SF2AC6 SLP144

CYWG;2011-05-30 14:00;CYWG 301400Z 03011KT 10SM SHRA OVC020 09/09 A2994 RMK SC8 CVCTV CLD EMBD SLP144

CYWG;2011-05-30 14:40;CYWG 301440Z 04011G16KT 15SM -SHRA FEW005 OVC022 10/ RERA RMK SF2SC6 CVCTV CLD EMBD

CYWG;2011-05-30 15:00;CYWG 301500Z 05012KT 15SM -SHRA FEW005 OVC025 10/10 A2990 RERA RMK SF1SC7 CVCTV CLD EMBD SLP132

CYWG;2011-05-30 16:00;CYWG 301600Z 05013KT 15SM FEW005 BKN058 BKN080 13/11 A2986 RMK SF1SC6AC2 SLP117

CYWG;2011-05-30 17:00;CYWG 301700Z 05016KT 15SM SCT058 BKN080 15/12 A2981 RMK SC3AC2 SLP102

CYWG;2011-05-30 18:00;CYWG 301800Z 05019G25KT 15SM BKN027 BKN088 BKN250 17/12 A2977 RMK SC5AC2CI1 SLP084

CYWG;2011-05-30 19:00;CYWG 301900Z 07020G25KT 15SM FEW028 BKN067 OVC088 17/10 A2974 RMK CF1AC6AC2 CF TR SLP075

CYWG;2011-05-30 19:44;CYWG 301944Z 07015KT 10SM -SHRA SCT039 OVC061 17/ RMK SC4AC4

CYWG;2011-05-30 20:00;CYWG 302000Z 07014G24KT 10SM -SHRA BKN033 OVC057 15/12 A2972 RMK SC6SC2 SLP070

CYWG;2011-05-30 20:31;CYWG 302031Z 07017G22KT 15SM BKN033 OVC057 16/ RMK SC6SC2

CYWG;2011-05-30 21:00;CYWG 302100Z 08015G21KT 15SM OVC031 16/12 A2970 RMK SC8 SLP063

CYWG;2011-05-30 22:00;CYWG 302200Z 09018KT 15SM OVC023 15/11 A2968 RMK SC8 SLP057

CYWG;2011-05-30 22:44;CYWG 302244Z 08017G26KT 10SM -DZ OVC019 14/ RMK SC8 BR

CYWG;2011-05-30 23:00;CYWG 302300Z 09016G25KT 6SM -DZ BR OVC016 14/12 A2968 RMK SC8 SLP057

CYWG;2011-05-30 23:22;CYWG 302322Z 07009G16KT 3SM -SHRA BR OVC010 13/ RMK SC8

CYWG;2011-05-30 23:29;CYWG 302329Z 05012KT 2SM -RA BR OVC008 13/ RMK SC8

CYWG;2011-05-31 00:00;CYWG 310000Z 06012KT 2SM -RA BR SCT006 OVC010 13/12 A2967 RMK SF4SC4 SLP052

CYWG;2011-05-31 01:00;CYWG 310100Z 05013KT 3SM -DZ BR BKN005 OVC018 13/12 A2963 RMK SF5SC3 SLP039

CYWG;2011-05-31 01:29;CYWG 310129Z 02010G16KT 2 1/2SM -SHRA BR OVC004 13/ RMK ST8

CYWG;2011-05-31 02:00;CYWG 310200Z 03017KT 2SM -SHRA BR OVC004 12/12 A2963 RMK ST8 SLP040

CYWG;2011-05-31 02:43;CYWG 310243Z 04016G21KT 2SM -TSRA BR OVC005 12/ RMK SF8 CB EMBD LTGIC

CYWG;2011-05-31 03:00;CYWG 310300Z 04019G28KT 2SM +TSRA BR OVC003 12/12 A2957 RMK SF8 CB EMBD LTGIC PRESFR SLP017

CYWG;2011-05-31 03:16;CYWG 310316Z 05016G22KT 6SM BR OVC005 12/ RETSRA RMK SF8

CYWG;2011-05-31 04:00;CYWG 310400Z 05016G22KT 15SM OVC005 12/12 A2955 RMK SF8 SLP011

CYWG;2011-05-31 05:00;CYWG 310500Z 05017KT 10SM -SHRA OVC005 13/12 A2949 RMK SF8 LTGIC OVRHD SLP993

CYWG;2011-05-31 05:12;CYWG 310512Z 05015G24KT 10SM -TSRA OVC005 13/ RMK SF8 CB EMBD LTGIC OVRHD

CYWG;2011-05-31 05:40;CYWG 310540Z 05014G20KT 4SM +TSRA BR OVC005 13/ RMK SF8 CB EMBD LTGIC OVRHD

CYWG;2011-05-31 06:00;CYWG 310600Z 05021G26KT 4SM +TSRA BR OVC005 13/12 A2939 RMK SF8 CB EMBD LTGIC OVRHD PRESFR SLP954

CYWG;2011-05-31 06:15;CYWG 310615Z CCA 06010G29KT 12SM -TSRA BKN005 OVC027 13/ RERA RMK SF7SC1 CB EMBD LTGIC OVRHD PRESRR

CYWG;2011-05-31 06:33;CYWG 310633Z 02007KT 15SM OVC006 13/ RETSRA RMK SF8

CYWG;2011-05-31 07:00;CYWG 310700Z 02009KT 15SM OVC005 13/12 A2941 RMK SF8 SLP962

CYWG;2011-05-31 08:00;CYWG 310800Z 05011KT 15SM OVC004 13/13 A2942 RMK SF8 SLP965

CYWG;2011-05-31 09:00;CYWG 310900Z 06012KT 15SM OVC004 13/13 A2936 RMK SF8 SLP946

CYWG;2011-05-31 09:48;CYWG 310948Z 08007KT 2SM BR OVC002 13/ RMK SF8

CYWG;2011-05-31 10:00;CYWG 311000Z 07010KT 2SM -DZ BR OVC002 14/14 A2933 RMK SF8 SLP934

CYWG;2011-05-31 10:52;CYWG 311052Z 11007KT 2SM -DZ BR OVC005 15/ RMK SF8

CYWG;2011-05-31 11:00;CYWG 311100Z 11010KT 1SM R31/P6000FT/D R36/P6000FT/D -SHRA BR OVC004 15/15 A2930 RMK SF8 SLP924

CYWG;2011-05-31 11:44;CYWG 311144Z 18015G25KT 1 1/2SM -SHRA BR OVC004 16/ RMK SF8

CYWG;2011-05-31 11:54;CYWG 311154Z 17020G25KT 3SM -SHRA BR OVC004 15/ RMK SF8

CYWG;2011-05-31 12:00;CYWG 311200Z 17018G25KT 10SM OVC005 14/14 A2929 RMK SF8 BR SLP922

CYWG;2011-05-31 13:00;CYWG 311300Z 19019G27KT 15SM OVC005 13/13 A2930 RMK SF8 SLP925

CYWG;2011-05-31 14:00;CYWG 311400Z 20015G21KT 15SM OVC010 14/13 A2930 RMK SC8 SLP924

CYWG;2011-05-31 15:00;CYWG 311500Z 21017KT 15SM OVC012 14/12 A2931 RMK SC7 SLP929

CYWG;2011-05-31 16:00;CYWG 311600Z 20021G27KT 15SM OVC016 15/12 A2930 RMK SC8 SLP927

CYWG;2011-05-31 16:55;CYWG 311655Z 20018G27KT 15SM -SHRA BKN021 15/ RMK SC6 TCU ASOCTD

CYWG;2011-05-31 17:00;CYWG 311700Z 20020G26KT 15SM -SHRA BKN021 15/12 A2930 RMK SC6 TCU ASOCTD SLP927

CYWG;2011-05-31 17:15;CYWG 311715Z 20015G26KT 15SM BKN023 17/ RMK SC6 TCU ASOCTD

CYWG;2011-05-31 18:00;CYWG 311800Z 23015G25KT 15SM BKN021TCU 16/12 A2930 RMK TCU6 SLP926

CYWG;2011-05-31 19:00;CYWG 311900Z 24016G22KT 15SM BKN019TCU 16/12 A2930 RMK TCU7 SLP924

CYWG;2011-05-31 19:44;CYWG 311944Z 22015KT 15SM -SHRA BKN017TCU 14/ RMK TCU7

CYWG;2011-05-31 20:00;CYWG 312000Z 24019G24KT 15SM -SHRA BKN015TCU 15/12 A2930 RMK TCU7 SLP926

CYWG;2011-05-31 20:31;CYWG 312031Z 23014G20KT 15SM -SHRA BKN013TCU 15/ RMK TCU7

CYWG;2011-05-31 21:00;CYWG 312100Z 23015G20KT 15SM -SHRA BKN008 13/11 A2929 RMK SC7 SLP923

CYWG;2011-05-31 21:28;CYWG 312128Z 25014G21KT 1 1/2SM R36/5500FT/D -RA BR OVC005 12/ RMK SF8

CYWG;2011-05-31 21:48;CYWG 312148Z 30026G31KT 4SM -RA BR OVC005 13/ RMK SF8

CYWG;2011-05-31 22:00;CYWG 312200Z 30022G31KT 10SM -RA BKN005 OVC030 14/14 A2929 RMK SF7SC1 SLP921

CYWG;2011-05-31 22:43;CYWG 312243Z 32037G42KT 12SM -RA OVC010 11/ RMK SF8

CYWG;2011-05-31 23:00;CYWG 312300Z 32032G43KT 12SM -RA OVC010 10/09 A2942 RMK SC8 PRESRR SLP965

CYWG;2011-05-31 23:49;CYWG 312349Z 32034G41KT 8SM -RA OVC009 10/ RMK SC8

CYWG;2011-06-01 01:00;CYWG 010100Z 32034G41KT 6SM -RA BR OVC012 08/08 A2959 RMK SC8 PRESRR SLP023

CYWG;2011-06-01 01:47;CYWG 010147Z 32030G38KT 8SM -RA OVC015 08/ RMK SC8 PRESRR

CYWG;2011-06-01 02:00;CYWG 010200Z 31026G35KT 10SM -RA OVC015 08/08 A2968 RMK SC8 PRESRR SLP053

CYWG;2011-06-01 03:00;CYWG 010300Z 32029G36KT 12SM -DZ OVC021 08/08 A2975 RMK SC8 PRESSR SLP081

CYWG;2011-06-01 04:00;CYWG 010400Z 32023G31KT 12SM -DZ BKN026 OVC045 08/08 A2980 RMK SC5SC3 SLP098

CYWG;2011-06-01 05:00;CYWG 010500Z 32027G33KT 15SM OVC043 08/08 A2983 RMK SC8 SLP108

CYWG;2011-06-01 06:00;CYWG 010600Z 32019G25KT 15SM FEW015 OVC086 08/08 A2988 RMK SF2AC6 SLP123

CYWG;2011-06-01 07:00;CYWG 010700Z 31016G21KT 15SM SCT026 OVC060 08/08 A2990 RMK SC4SC4 SLP132

CYWG;2011-06-01 08:00;CYWG 010800Z 31017G22KT 15SM OVC022 08/08 A2994 RMK SC8 SLP144

CYWG;2011-06-01 09:00;CYWG 010900Z 32018G25KT 15SM BKN018 OVC065 08/08 A2998 RMK SC6SC2 SLP158

CYWG;2011-06-01 10:00;CYWG 011000Z 32015G21KT 15SM OVC023 08/08 A3000 RMK SC8 SLP165

CYWG;2011-06-01 11:00;CYWG 011100Z 31016KT 15SM BKN026 BKN250 09/09 A3004 RMK SC6CI1 SLP177

CYWG;2011-06-01 12:00;CYWG 011200Z 32016KT 15SM FEW025 SCT250 09/09 A3007 RMK SC2CI2 SLP189

CYWG;2011-06-01 13:00;CYWG 011300Z 32019G24KT 15SM FEW005 FEW025 SCT250 10/10 A3010 RMK CF1SC1CI2 SLP199

CYWG;2011-06-01 14:00;CYWG 011400Z 33017G22KT 15SM FEW012 SCT250 11/08 A3012 RMK CF1CI1 SLP205

CYWG;2011-06-01 15:00;CYWG 011500Z 33015KT 15SM FEW020 FEW090 13/07 A3014 RMK CF2AC1 SLP213

CYWG;2011-06-01 16:00;CYWG 011600Z 32012KT 15SM FEW026 FEW090 SCT250 14/08 A3016 RMK CU2AC1CI1 SLP220

CYWG;2011-06-01 17:00;CYWG 011700Z 02009KT 15SM FEW025 FEW090 SCT250 15/08 A3017 RMK CU2AC1CI1 SLP223

CYWG;2011-06-01 18:00;CYWG 011800Z 29005KT 15SM SCT034 SCT250 15/08 A3018 RMK CU3CI1 SLP226

CYWG;2011-06-01 19:00;CYWG 011900Z 26004KT 15SM BKN036 16/08 A3018 RMK CU5 SLP226

CYWG;2011-06-01 20:00;CYWG 012000Z 00000KT 15SM SCT040 BKN250 17/07 A3018 RMK CU4CI1 SLP225

CYWG;2011-06-01 21:00;CYWG 012100Z 23003KT 15SM SCT040 SCT250 18/07 A3018 RMK CU3CI0 SLP224

CYWG;2011-06-01 22:00;CYWG 012200Z 05007KT 15SM FEW040 SCT250 17/08 A3018 RMK CU2CI1 SLP224

CYWG;2011-06-01 23:00;CYWG 012300Z 08002KT 15SM SCT040 BKN250 18/07 A3017 RMK CU4CI0 SLP223

CYWG;2011-06-02 00:00;CYWG 020000Z 14005KT 15SM FEW049 SCT250 17/08 A3017 RMK CU2CI0 SLP221

CYWG;2011-06-02 01:00;CYWG 020100Z 10005KT 15SM FEW053 FEW250 15/08 A3015 RMK SC2CI0 SLP216

CYWG;2011-06-02 02:00;CYWG 020200Z 12009KT 15SM FEW040 FEW250 14/08 A3015 RMK CU1CI1 SLP214

CYWG;2011-06-02 03:00;CYWG 020300Z 11006KT 15SM FEW040 FEW250 11/07 A3016 RMK CU1CI1 SLP217

CYWG;2011-06-02 04:00;CYWG 020400Z 11007KT 15SM FEW250 10/06 A3017 RMK CI0 SLP221

CYWG;2011-06-02 05:00;CYWG 020500Z 10007KT 15SM SKC 09/05 A3015 RMK SLP215

CYWG;2011-06-02 06:00;CYWG 020600Z 13009KT 15SM SKC 12/06 A3014 RMK SLP212

CYWG;2011-06-02 07:00;CYWG 020700Z 14009KT 15SM SKC 10/07 A3013 RMK SLP207

CYWG;2011-06-02 08:00;CYWG 020800Z 14011KT 15SM SKC 10/06 A3012 RMK SLP204

CYWG;2011-06-02 09:00;CYWG 020900Z 12011KT 15SM FEW250 10/06 A3009 RMK CI0 SLP194

CYWG;2011-06-02 10:00;CYWG 021000Z 13011KT 15SM FEW250 09/06 A3009 RMK CI0 SLP193

CYWG;2011-06-02 11:00;CYWG 021100Z 13010KT 15SM FEW120 BKN250 09/06 A3008 RMK AC1CI2 SLP192

CYWG;2011-06-02 12:00;CYWG 021200Z 14012KT 15SM FEW120 BKN250 10/06 A3006 RMK AC1CI2 SLP184

CYWG;2011-06-02 13:00;CYWG 021300Z 14016KT 15SM FEW120 SCT250 12/06 A3004 RMK AC1CI2 SLP178

CYWG;2011-06-02 14:00;CYWG 021400Z 13014G20KT 15SM FEW120 SCT200 BKN250 14/07 A3001 RMK AC1CS2CI1 HALO OBS TAKEN +01 SLP167

CYWG;2011-06-02 15:00;CYWG 021500Z 13016G27KT 15SM FEW120 SCT200 BKN250 16/08 A2997 RMK AC1CS2CI1 SLP153

CYWG;2011-06-02 16:00;CYWG 021600Z 12023KT 15SM FEW072 SCT092 BKN200 17/07 A2990 RMK AC2AC2CS3 SLP130

CYWG;2011-06-02 17:00;CYWG 021700Z 13016G22KT 15SM BKN094 BKN200 17/08 A2988 RMK AC5CS2 CB NW OBS TAKEN +01 SLP124

CYWG;2011-06-02 18:00;CYWG 021800Z 10012KT 15SM SCT061 BKN080 OVC200 17/08 A2989 RMK SC3AC4CS1 SHRA S SLP125

CYWG;2011-06-02 18:11;CYWG 021811Z 12009KT 15SM -TSRA BKN045CB BKN061 OVC080 17/ RMK CB5SC2AC2 LTGCG S

CYWG;2011-06-02 19:00;CYWG 021900Z 10025G31KT 15SM -TSRA BKN017CB OVC081 15/09 A2977 RMK CB6AC2 PRESFR SLP084

CYWG;2011-06-02 19:48;CYWG 021948Z 11022G30KT 15SM BKN036 BKN069 OVC084 16/ RMK SC5AC2AC2 RETS

CYWG;2011-06-02 20:00;CYWG 022000Z 10021G27KT 15SM BKN036 BKN069 OVC084 16/10 A2977 RETS RMK SC5AC2AC2 SLP084

CYWG;2011-06-02 20:33;CYWG 022033Z 11018KT 15SM -SHRA BKN034 OVC052 16/ RMK SC5SC3

CYWG;2011-06-02 21:00;CYWG 022100Z 10012KT 15SM BKN038 OVC047 16/11 A2976 RMK SC5SC3 SLP083

CYWG;2011-06-02 22:00;CYWG 022200Z 12022G29KT 15SM FEW040 FEW054 18/12 A2970 RMK SC2CU1 PRESFR SLP064

CYWG;2011-06-02 23:00;CYWG 022300Z 14018G24KT 15SM FEW040 FEW250 20/12 A2966 RMK SC1CI1 SLP050

CYWG;2011-06-03 00:00;CYWG 030000Z 14021KT 15SM BKN047 20/12 A2967 RMK SC7 SLP049

CYWG;2011-06-03 01:00;CYWG 030100Z 13018G26KT 15SM OVC047 20/12 A2964 RMK SC8 SLP039

CYWG;2011-06-03 02:00;CYWG 030200Z 13016G24KT 15SM BKN047 19/12 A2962 RMK SC7 SLP033

CYWG;2011-06-03 03:00;CYWG 030300Z 14018G25KT 15SM SCT043 BKN120 19/12 A2960 RMK SC3AC2 SLP025

CYWG;2011-06-03 04:00;CYWG 030400Z 14018G28KT 15SM FEW043 BKN120 19/13 A2959 RMK SC2AC6 SLP021

CYWG;2011-06-03 05:00;CYWG 030500Z 15013KT 15SM FEW043 BKN120 OVC250 18/13 A2959 RMK SC1AC6CI1 LTGIC DSTNT W SLP021

CYWG;2011-06-03 06:00;CYWG 030600Z 15010G16KT 15SM BKN120 OVC250 18/14 A2959 RMK AC6CI2 SLP023

CYWG;2011-06-03 07:00;CYWG 030700Z 14013KT 15SM SCT044 BKN120 BKN250 18/14 A2957 RMK SC4AC2CI0 SLP017

CYWG;2011-06-03 08:00;CYWG 030800Z 15013KT 15SM FEW047 BKN120 BKN250 17/14 A2956 RMK SC2AC2CI0 SLP011

CYWG;2011-06-03 09:00;CYWG 030900Z 18011G17KT 15SM SCT031 BKN055 OVC120 18/15 A2955 RMK SC3SC2AC2 SLP009

CYWG;2011-06-03 10:00;CYWG 031000Z 18012G18KT 15SM BKN025 OVC120 19/16 A2951 RMK SC6AC2 SLP996

CYWG;2011-06-03 10:24;CYWG 031024Z 17019G24KT 15SM -TSRA BKN021 OVC120 19/ RMK SC6AC2 LTGIC S-E

CYWG;2011-06-03 11:00;CYWG 031100Z 17012G29KT 10SM -TSRA BKN021CB BKN120 19/17 A2944 RMK CB5AC2 PRESFR SLP971

CYWG;2011-06-03 11:20;CYWG 031120Z 22010G17KT 15SM BKN021CB BKN120 BKN250 19/ RETS RMK CB5AC1CI1 PRES UNSTDY

CYWG;2011-06-03 12:00;CYWG 031200Z 22010KT 15SM FEW021 SCT048 BKN120 BKN250 18/17 A2951 RETS RMK SC1SC2AC2CI1 SLP992

CYWG;2011-06-03 13:00;CYWG 031300Z 21015KT 10SM FEW120 BKN250 20/18 A2953 RMK AC2CI1 BR SLP001

CYWG;2011-06-03 14:00;CYWG 031400Z 24010KT 12SM FEW250 22/18 A2955 RMK CI1 BR SLP007

CYWG;2011-06-03 15:00;CYWG 031500Z 26013G18KT 15SM FEW250 22/14 A2958 RMK CI1 SLP016

CYWG;2011-06-03 16:00;CYWG 031600Z 26017G22KT 15SM FEW250 23/12 A2959 RMK CI1 TR CI SLP021

CYWG;2011-06-03 17:00;CYWG 031700Z 24017KT 15SM FEW095 23/12 A2961 RMK AC1 TR AC SLP025

CYWG;2011-06-03 18:00;CYWG 031800Z 25016KT 15SM FEW095 23/10 A2960 RMK AC1 TR AC SLP022

CYWG;2011-06-03 19:00;CYWG 031900Z 24019G24KT 15SM FEW095 FEW270 24/08 A2959 RMK AC1CI0 SLP021

CYWG;2011-06-03 20:00;CYWG 032000Z 25013G20KT 15SM FEW065 FEW270 25/09 A2959 RMK CU1CI1 SLP019

CYWG;2011-06-03 21:00;CYWG 032100Z 23016G22KT 15SM FEW070 25/07 A2959 RMK CU1 SLP020

CYWG;2011-06-03 22:00;CYWG 032200Z 25017G27KT 15SM FEW070 FEW270 25/07 A2960 RMK CU1CI1 SLP023

CYWG;2011-06-03 23:00;CYWG 032300Z 25016G26KT 15SM FEW070 FEW270 24/06 A2961 RMK CU1CI1 TR CI SLP027

CYWG;2011-06-04 00:00;CYWG 040000Z 24016G24KT 15SM FEW070 24/06 A2962 RMK CU2 SLP029

CYWG;2011-06-04 01:00;CYWG 040100Z 25015G24KT 15SM SCT090 22/08 A2964 RMK AC3 SLP035

CYWG;2011-06-04 02:00;CYWG 040200Z 26013G20KT 15SM BKN083 21/09 A2966 RMK AC5 SLP043

CYWG;2011-06-04 03:00;CYWG 040300Z 24015KT 15SM FEW080 19/09 A2969 RMK AC1 SLP053

CYWG;2011-06-04 04:00;CYWG 040400Z 24014KT 15SM FEW090 17/10 A2970 RMK AC2 SLP059

CYWG;2011-06-04 05:00;CYWG 040500Z 27015G28KT 15SM BKN070 16/10 A2973 RMK AC5 SLP066

CYWG;2011-06-04 06:00;CYWG 040600Z 28015G21KT 15SM BKN074 16/11 A2975 RMK AC7 SLP076

CYWG;2011-06-04 07:00;CYWG 040700Z 30017KT 15SM FEW043 BKN070 14/11 A2978 RMK SC1AC6 SLP085

CYWG;2011-06-04 08:00;CYWG 040800Z 30010G16KT 15SM FEW061 14/11 A2982 RMK SC2 SLP097

CYWG;2011-06-04 10:00;CYWG 041000Z 31009KT 15SM FEW010 BKN035 13/11 A2991 RMK SC1SC6 SLP130

CYWG;2011-06-04 11:00;CYWG 041100Z 32010KT 15SM BKN027 12/09 A2995 RMK SC6 SLP142

CYWG;2011-06-04 12:00;CYWG 041200Z 34012G17KT 15SM OVC024 11/08 A2999 RMK SC8 SLP160

CYWG;2011-06-04 13:00;CYWG 041300Z 33015KT 15SM OVC029 10/06 A3004 RMK SC8 SLP175

CYWG;2011-06-04 14:00;CYWG 041400Z 32010KT 15SM FEW020 OVC027 11/06 A3008 RMK CU2SC6 SLP187

CYWG;2011-06-04 15:00;CYWG 041500Z 30010KT 15SM OVC026 12/07 A3010 RMK SC8 SLP196

CYWG;2011-06-04 16:00;CYWG 041600Z 33013G20KT 15SM VCSH BKN021 BKN035 11/08 A3012 RMK CU6SC2 SLP205

CYWG;2011-06-04 17:00;CYWG 041700Z 32016G22KT 15SM BKN021 BKN070 11/07 A3016 RMK CU6AC1 SLP216

CYWG;2011-06-04 18:00;CYWG 041800Z 32013G19KT 15SM BKN023 12/05 A3018 RMK CU7 SLP224

CYWG;2011-06-04 19:00;CYWG 041900Z 31012G17KT 15SM BKN033 BKN250 12/04 A3019 RMK SC6CI0 SLP229

CYWG;2011-06-04 20:00;CYWG 042000Z 30015KT 15SM SCT037 SCT250 13/04 A3020 RMK SC3CI1 SLP231

CYWG;2011-06-04 21:00;CYWG 042100Z 33012G17KT 15SM FEW037 SCT250 14/05 A3021 RMK SC1CI2 SLP234

CYWG;2011-06-04 22:00;CYWG 042200Z 32009KT 15SM FEW037 SCT120 SCT250 14/05 A3020 RMK SC1AC2CI1 SLP231

CYWG;2011-06-04 23:00;CYWG 042300Z 33010KT 15SM FEW035 FEW120 SCT250 14/04 A3019 RMK SC1AC2CI2 SLP229

CYWG;2011-06-05 00:00;CYWG 050000Z 34008KT 15SM FEW035 FEW120 BKN250 13/05 A3019 RMK SC1AC2CI1 SLP230

CYWG;2011-06-05 01:00;CYWG 050100Z 35007KT 15SM FEW120 BKN250 12/04 A3019 RMK AC2CI2 SLP230

CYWG;2011-06-05 02:00;CYWG 050200Z 36004KT 15SM FEW120 BKN250 10/05 A3019 RMK AC2CI2 SLP229

CYWG;2011-06-05 03:00;CYWG 050300Z 00000KT 15SM SCT120 BKN250 09/05 A3019 RMK AC3CI2 SLP232

CYWG;2011-06-05 04:00;CYWG 050400Z 20002KT 15SM BKN075 BKN250 10/07 A3019 RMK AC6CI1 SLP231

CYWG;2011-06-05 05:00;CYWG 050500Z 18004KT 15SM BKN075 BKN100 10/05 A3019 RMK AC5AC2 SLP230

CYWG;2011-06-05 06:00;CYWG 050600Z 19004KT 15SM OVC078 10/07 A3019 RMK AC8 SLP228

CYWG;2011-06-05 07:00;CYWG 050700Z 16006KT 15SM FEW061 SCT084 09/06 A3016 RMK SC1AC2 SLP220

CYWG;2011-06-05 08:00;CYWG 050800Z 17002KT 15SM FEW052 BKN097 BKN130 09/05 A3017 RMK SC1AC4AC2 SLP223

CYWG;2011-06-05 09:00;CYWG 050900Z 16004KT 15SM BKN052 BKN100 09/06 A3016 RMK SC5AC2 SLP220

CYWG;2011-06-05 10:43;CYWG 051043Z 18006KT 15SM -RA BKN035 OVC100 09/ RMK SC6AC2

CYWG;2011-06-05 11:00;CYWG 051100Z 13002KT 15SM -SHRA BKN035 OVC080 09/07 A3015 RMK SC6AC2 SLP216

CYWG;2011-06-05 12:00;CYWG 051200Z 11004KT 15SM BKN049 BKN097 09/07 A3013 RMK SC5AC2 ACC ASOCTD SLP210

CYWG;2011-06-05 13:00;CYWG 051300Z 12004KT 15SM BKN056 OVC072 10/08 A3012 RMK SC5AC3 ACC ASOCTD SLP206

CYWG;2011-06-05 14:00;CYWG 051400Z 12004KT 15SM BKN056 OVC083 12/09 A3011 RMK SC5AC2 ACC ASOCTD SLP202

CYWG;2011-06-05 15:00;CYWG 051500Z 07007KT 15SM BKN054 OVC080 13/08 A3009 RMK SC6AC2 ACC ASOCTD SLP194

CYWG;2011-06-05 15:25;CYWG 051525Z 05005KT 15SM -SHRA BKN046 OVC080 12/ RMK SC7AC1 ACC ASOCTD

CYWG;2011-06-05 16:00;CYWG 051600Z 05008KT 15SM BKN046 OVC080 12/08 A3008 RMK SC6AC2 ACC ASOCTD SLP193

CYWG;2011-06-05 17:00;CYWG 051700Z 09007KT 15SM BKN053 OVC080 13/09 A3006 RMK SC6AC2 ACC ASOCTD SLP187

CYWG;2011-06-05 18:00;CYWG 051800Z 13006KT 15SM FEW050 FEW072 BKN280 16/10 A3003 RMK SC1AC1CI1 SLP172

CYWG;2011-06-05 19:00;CYWG 051900Z 00000KT 15SM FEW050 18/11 A2999 RMK CU1 SLP162

CYWG;2011-06-05 20:00;CYWG 052000Z 13008KT 15SM FEW097 20/13 A2997 RMK AC1 SLP154

CYWG;2011-06-05 21:00;CYWG 052100Z 13004KT 15SM FEW035 21/13 A2994 RMK CU1 CU TR SLP142

CYWG;2011-06-05 22:00;CYWG 052200Z 09002KT 15SM FEW040 FEW100 22/13 A2991 RMK CU1AC1 CU AC TR SLP132

CYWG;2011-06-05 23:00;CYWG 052300Z 11003KT 15SM FEW040 FEW100 FEW270 23/15 A2988 RMK CU1AC1CI1 CU AC TR SLP123

CYWG;2011-06-06 00:00;CYWG 060000Z 07003KT 15SM FEW045 SCT270 23/14 A2987 RMK CU2CI0 SLP117

CYWG;2011-06-06 01:00;CYWG 060100Z 08003KT 15SM FEW085 SCT270 22/15 A2985 RMK AC2CI0 SLP111

CYWG;2011-06-06 02:00;CYWG 060200Z 04009KT 15SM FEW030 FEW085 SCT270 17/14 A2983 RMK CU1AC2CI0 CU TR SLP106

CYWG;2011-06-06 03:00;CYWG 060300Z 05006KT 15SM FEW030CB FEW100 14/13 A2983 RMK CB1AC1 CB SE LTGIC SLP106

CYWG;2011-06-06 04:00;CYWG 060400Z 02007KT 15SM FEW100 13/12 A2982 RMK AC1 SLP102

CYWG;2011-06-06 05:00;CYWG 060500Z 04004KT 15SM SKC 12/11 A2980 RMK SLP096

CYWG;2011-06-06 06:00;CYWG 060600Z 06007KT 15SM SKC 13/12 A2979 RMK SLP092

CYWG;2011-06-06 07:00;CYWG 060700Z 03015G20KT 15SM FEW026 BKN096 14/12 A2984 RMK SC1AC6 PRESRR SLP107

CYWG;2011-06-06 09:00;CYWG 060900Z 04007KT 15SM BKN078 14/12 A2982 RMK AC6 SLP100

CYWG;2011-06-06 10:00;CYWG 061000Z 08004KT 15SM BKN059 14/12 A2981 RMK SC4 VIRGA/SH DIST N-NE SLP096

CYWG;2011-06-06 11:00;CYWG 061100Z 07004KT 15SM FEW097 13/12 A2981 RMK AC2 SLP097

CYWG;2011-06-06 12:00;CYWG 061200Z 01004KT 15SM BKN092 14/13 A2983 RMK AC6 SLP103

CYWG;2011-06-06 13:00;CYWG 061300Z 01005KT 15SM SCT064 BKN089 15/13 A2984 RMK SC3AC3 SLP106

CYWG;2011-06-06 15:00;CYWG 061500Z 01009KT 15SM FEW098 18/13 A2985 RMK AC1 AC TR SLP112

CYWG;2011-06-06 16:00;CYWG 061600Z 02009KT 15SM FEW025 FEW270 19/12 A2986 RMK CU1CI0 CU TR SLP113

CYWG;2011-06-06 17:00;CYWG 061700Z 02005KT 15SM FEW035 FEW270 20/11 A2986 RMK CU1CI0 SLP114

CYWG;2011-06-06 18:00;CYWG 061800Z 35007KT 15SM FEW043 SCT270 21/11 A2986 RMK CU2CI0 SLP113

CYWG;2011-06-06 19:00;CYWG 061900Z 36010G16KT 15SM FEW047 BKN270 21/12 A2986 RMK CU2CI1 SLP113

CYWG;2011-06-06 20:00;CYWG 062000Z 33015KT 15SM FEW044 BKN270 22/11 A2986 RMK CU2CI1 SLP113

CYWG;2011-06-06 21:00;CYWG 062100Z 32014KT 15SM FEW050 BKN100 BKN270 21/09 A2986 RMK CU2AC3CI0 SLP114

CYWG;2011-06-06 22:00;CYWG 062200Z 36007KT 15SM FEW050 BKN093 BKN270 21/08 A2986 RMK CU1AC4CI1 SLP113

CYWG;2011-06-06 23:00;CYWG 062300Z 34008KT 15SM FEW050 BKN100 BKN270 21/11 A2986 RMK CU1AC5CI0 SLP113

CYWG;2011-06-07 00:00;CYWG 070000Z 02009KT 15SM FEW050 FEW100 21/09 A2985 RMK CU1AC1 TR CU SLP109

CYWG;2011-06-07 01:00;CYWG 070100Z 34006KT 15SM FEW100 20/09 A2985 RMK AC1 SLP110

CYWG;2011-06-07 02:00;CYWG 070200Z 35006KT 15SM FEW100 FEW270 17/11 A2985 RMK AC1CI1 SLP109

CYWG;2011-06-07 03:00;CYWG 070300Z 02008KT 15SM FEW100 14/10 A2985 RMK AC1 SLP112

CYWG;2011-06-07 04:00;CYWG 070400Z 05007KT 15SM SKC 13/09 A2986 RMK SLP114

CYWG;2011-06-07 05:00;CYWG 070500Z 06008KT 15SM SKC 13/09 A2986 RMK SLP113

CYWG;2011-06-07 06:00;CYWG 070600Z 05008KT 15SM SKC 12/05 A2985 RMK SLP112

CYWG;2011-06-07 07:00;CYWG 070700Z 06007KT 15SM SKC 11/03 A2985 RMK SLP111

CYWG;2011-06-07 09:00;CYWG 070900Z 09010KT 15SM BKN200 13/00 A2979 RMK CI0 SLP089

CYWG;2011-06-07 10:00;CYWG 071000Z 13008KT 15SM BKN100 BKN140 12/02 A2986 RMK AC2AC6 SLP113

CYWG;2011-06-07 11:00;CYWG 071100Z 12009KT 15SM SCT100 BKN140 OVC200 13/01 A2987 RMK AC3AC4CI1 SLP118

CYWG;2011-06-07 12:00;CYWG 071200Z 07012G17KT 15SM BKN100 OVC140 13/02 A2977 RMK AC6AC2 SLP085

CYWG;2011-06-07 13:00;CYWG 071300Z 10008KT 15SM BKN100 OVC140 14/01 A2977 RMK AC6AC2 SLP083

CYWG;2011-06-07 13:23;CYWG 071323Z 09015KT 15SM -SHRA BKN087 OVC140 14/ RMK AC6AC2

CYWG;2011-06-07 14:00;CYWG 071400Z 15009KT 6SM SHRA BR BKN026 OVC064 12/05 A2984 RMK SC6SC2 ACC/CB EMBDD SLP108

CYWG;2011-06-07 14:25;CYWG 071425Z 03005KT 6SM -SHRA BR BKN012 BKN026 OVC065 11/ RMK SF5SC2AC1 ACC/CB EMBDD RERA

CYWG;2011-06-07 15:00;CYWG 071500Z 02005KT 10SM FEW012 BKN024 BKN070 OVC250 12/07 A2976 RMK SF1SC4AC2CI1 ACC EMBD RERA SLP083

CYWG;2011-06-07 15:31;CYWG 071531Z 22003KT 15SM -SHRA SCT031 BKN066 OVC250 12/ RMK SC2AC5CI1 ACC EMBD

CYWG;2011-06-07 16:00;CYWG 071600Z 27011G19KT 8SM -SHRA FEW017 OVC059 11/08 A2988 RMK SF1SC7 ACC/CB EMBD BR PRESRR SLP121

CYWG;2011-06-07 17:00;CYWG 071700Z 07015KT 15SM SCT023 BKN070 OVC250 12/07 A2972 RMK SC4AC2CI1 ACC ASOCTD SLP070

CYWG;2011-06-07 18:00;CYWG 071800Z 05021G26KT 15SM FEW025 BKN098 OVC250 14/08 A2967 RMK SC1AC4CI1 ACC ASOCTD PRESFR SLP050

CYWG;2011-06-07 19:00;CYWG 071900Z 05021KT 15SM OVC098 14/06 A2968 RMK AC7 SLP055

CYWG;2011-06-07 20:00;CYWG 072000Z 06019G27KT 15SM OVC094 15/05 A2965 RMK AC8 SLP044

CYWG;2011-06-07 21:00;CYWG 072100Z 04014KT 15SM OVC078 14/07 A2966 RMK AC8 SLP047

CYWG;2011-06-07 22:00;CYWG 072200Z 04015G21KT 15SM OVC073 13/08 A2966 RMK AC8 SLP047

CYWG;2011-06-07 23:00;CYWG 072300Z 04022G29KT 15SM SCT050 OVC062 14/09 A2961 RMK CU3SC5 SLP033

CYWG;2011-06-08 00:00;CYWG 080000Z 05021G31KT 15SM OVC065 14/06 A2961 RMK SC8 SLP031

CYWG;2011-06-08 01:00;CYWG 080100Z 02013G22KT 15SM BKN067 OVC092 13/09 A2961 RMK AC5AC3 SLP032

CYWG;2011-06-08 01:49;CYWG 080149Z 03011KT 15SM -SHRA OVC067 13/ RMK AC8

CYWG;2011-06-08 02:00;CYWG 080200Z 02014KT 15SM -SHRA OVC067 13/10 A2963 RMK AC8 SLP037

CYWG;2011-06-08 02:50;CYWG 080250Z CCA 01012G18KT 9SM TSRA OVC069CB 12/ RMK CB8 LTGCGIC NW AND E

CYWG;2011-06-08 02:51;CYWG 080251Z 01012G18KT 9SM TSRA OVC069CB 12/ RMK CB8 LTGCGIC NW AND E

CYWG;2011-06-08 03:00;CYWG 080300Z 36012KT 9SM -TSRA SCT028 SCT062CB OVC069 11/09 A2971 RERA RMK SF2CB2AC4 CB AND LTGICCG NE-SE AND W PRESRR SLP067

CYWG;2011-06-08 03:56;CYWG 080356Z 36016KT 9SM -SHRA BKN032 OVC043CB 10/ RETS RMK SC6CB2 CB AND LTGCGIC N-E BR

CYWG;2011-06-08 04:00;CYWG 080400Z 36014G19KT 9SM -SHRA BKN032 OVC043CB 10/09 A2975 RETS RMK SC6CB2 CB AND LTGCGIC N-E BR SLP080

CYWG;2011-06-08 05:00;CYWG 080500Z 36019G25KT 9SM -SHRA OVC042 10/09 A2973 RMK SC8 SLP071

CYWG;2011-06-08 05:32;CYWG 080532Z 36017G22KT 15SM FEW016 OVC042 10/ RMK SF1SC8

CYWG;2011-06-08 06:00;CYWG 080600Z 36018G24KT 15SM -SHRA OVC046 10/09 A2973 RMK SC8 SLP072

CYWG;2011-06-08 07:00;CYWG 080700Z 36019G24KT 15SM -SHRA FEW016 OVC062 10/09 A2974 RMK SF1SC7 SLP076

CYWG;2011-06-08 08:00;CYWG 080800Z 36013G18KT 15SM -SHRA OVC060 10/09 A2976 RMK SC8 SLP082

CYWG;2011-06-08 09:00;CYWG 080900Z 34016KT 9SM -SHRA OVC029 10/09 A2980 RMK SC8 BR SLP095

CYWG;2011-06-08 10:00;CYWG 081000Z 34013KT 9SM -SHRA OVC029 09/09 A2982 RMK SC8 SLP104

CYWG;2011-06-08 11:00;CYWG 081100Z 36010G15KT 15SM -SHRA BKN038 OVC100 09/08 A2985 RMK SC7AC1 SLP112

CYWG;2011-06-08 11:34;CYWG 081134Z 34010KT 15SM FEW038 BKN058 BKN100 09/ RMK SC2SC3AC2

CYWG;2011-06-08 12:00;CYWG 081200Z 34009KT 15SM SCT038 BKN058 09/08 A2988 RMK SC3SC2 SLP123

CYWG;2011-06-08 13:00;CYWG 081300Z 36012G17KT 15SM FEW058 BKN270 10/06 A2990 RMK SC2CI1 SLP130

CYWG;2011-06-08 14:00;CYWG 081400Z 01017KT 15SM FEW058 BKN270 11/06 A2992 RMK SC1CI2 SC TR OBS TAKEN +01 SLP138

CYWG;2011-06-08 15:00;CYWG 081500Z 36015KT 15SM FEW120 BKN270 11/06 A2994 RMK AC2CI2 SLP145

CYWG;2011-06-08 16:00;CYWG 081600Z 02017KT 15SM FEW027 FEW120 SCT270 13/06 A2996 RMK CU1AC1CI1 AC TR SLP152

CYWG;2011-06-08 17:00;CYWG 081700Z 03017G22KT 15SM FEW034 SCT270 14/07 A2999 RMK CU2CI0 OBS TAKEN +04 SLP161

CYWG;2011-06-08 18:00;CYWG 081800Z 03019KT 15SM FEW036 FEW270 15/06 A3001 RMK CU2CI0 SLP169

CYWG;2011-06-08 19:00;CYWG 081900Z 02016G22KT 15SM FEW046 15/05 A3003 RMK CU2 SLP174

CYWG;2011-06-08 20:00;CYWG 082000Z 01012G19KT 15SM FEW050 15/05 A3004 RMK CF2 SLP177

CYWG;2011-06-08 21:00;CYWG 082100Z 02013G18KT 15SM FEW054 SCT270 16/05 A3005 RMK CF2CI0 SLP182

CYWG;2011-06-08 22:00;CYWG 082200Z 03016G22KT 15SM FEW054 SCT270 16/03 A3006 RMK CF2CI0 SLP186

CYWG;2011-06-08 23:00;CYWG 082300Z 03009G15KT 15SM FEW050 SCT270 16/04 A3007 RMK SC2CI0 SLP189

CYWG;2011-06-09 00:00;CYWG 090000Z 01010G15KT 15SM FEW050 SCT270 15/04 A3009 RMK SC1CI1 SLP195

CYWG;2011-06-09 01:00;CYWG 090100Z 01012KT 15SM FEW050 SCT250 14/03 A3011 RMK SC1CI1 SLP200

CYWG;2011-06-09 02:00;CYWG 090200Z 36006KT 15SM FEW050 SCT250 13/05 A3012 RMK SC1CI1 SC TR SLP205

CYWG;2011-06-09 03:00;CYWG 090300Z 02006KT 15SM SCT250 09/06 A3015 RMK CI2 SLP215

CYWG;2011-06-09 04:00;CYWG 090400Z 02006KT 15SM FEW250 08/05 A3016 RMK CI1 SLP219

CYWG;2011-06-09 05:00;CYWG 090500Z 01006KT 15SM FEW250 08/04 A3017 RMK CI1 SLP224

CYWG;2011-06-09 06:00;CYWG 090600Z 02007KT 15SM FEW250 06/03 A3018 RMK CI1 SLP226

CYWG;2011-06-09 07:00;CYWG 090700Z 01004KT 15SM SKC 06/03 A3018 RMK SLP227

CYWG;2011-06-09 08:00;CYWG 090800Z 33006KT 15SM SKC 04/03 A3019 RMK SLP231

CYWG;2011-06-09 09:00;CYWG 090900Z 31003KT 15SM FEW250 04/02 A3021 RMK CI1 SLP236

CYWG;2011-06-09 10:00;CYWG 091000Z 34004KT 15SM FEW250 03/02 A3021 RMK CI1 SLP237

CYWG;2011-06-09 11:00;CYWG 091100Z 02003KT 15SM SCT250 04/03 A3021 RMK CI1 SLP238

CYWG;2011-06-09 12:00;CYWG 091200Z 03003KT 15SM SCT250 07/06 A3023 RMK CI1 SLP242

CYWG;2011-06-09 13:00;CYWG 091300Z 03003KT 15SM FEW250 11/06 A3024 RMK CI1 SLP245

CYWG;2011-06-09 14:00;CYWG 091400Z 05004KT 15SM SCT250 13/04 A3024 RMK CI2 SLP246

CYWG;2011-06-09 15:00;CYWG 091500Z 07003KT 15SM FEW250 14/03 A3024 RMK CI1 SLP245

CYWG;2011-06-09 16:00;CYWG 091600Z 07005KT 15SM FEW045 SCT250 16/04 A3022 RMK CF1CI2 SLP241

CYWG;2011-06-09 17:00;CYWG 091700Z 06005KT 15SM FEW045 SCT250 16/04 A3021 RMK CU1CI1 SLP237

CYWG;2011-06-09 18:00;CYWG 091800Z 36009KT 15SM FEW052 BKN250 17/05 A3019 RMK CU1CI2 SLP231

CYWG;2011-06-09 19:00;CYWG 091900Z 06002KT 15SM FEW050 BKN250 17/03 A3018 RMK CU2CI1 SLP225

CYWG;2011-06-09 20:00;CYWG 092000Z 06005KT 15SM FEW050 BKN250 17/04 A3017 RMK CU2CI2 SLP224

CYWG;2011-06-09 21:00;CYWG 092100Z 07005KT 15SM FEW064 BKN250 18/04 A3016 RMK CU2CI2 SLP221

CYWG;2011-06-09 22:00;CYWG 092200Z 03007KT 15SM FEW060 BKN250 18/06 A3014 RMK CU1CI5 SLP213

CYWG;2011-06-09 23:00;CYWG 092300Z 03005KT 15SM FEW099 BKN250 18/05 A3012 RMK AC1CI5 SLP208

CYWG;2011-06-10 00:00;CYWG 100000Z 02006KT 15SM FEW099 BKN250 16/07 A3013 RMK AC1CI5 SLP208

CYWG;2011-06-10 01:00;CYWG 100100Z 01007KT 15SM FEW080 BKN250 16/07 A3013 RMK AC1CI5 SLP209

CYWG;2011-06-10 02:00;CYWG 100200Z 03005KT 15SM BKN250 13/08 A3013 RMK CI3 SLP208

CYWG;2011-06-10 03:00;CYWG 100300Z 04005KT 15SM FEW120 BKN250 12/07 A3013 RMK AC2CI2 SLP209

CYWG;2011-06-10 04:00;CYWG 100400Z 06005KT 15SM FEW120 BKN250 11/07 A3013 RMK AC2CI2 SLP209

CYWG;2011-06-10 05:00;CYWG 100500Z 04002KT 15SM FEW120 FEW250 10/06 A3013 RMK AC2CI1 SLP207

CYWG;2011-06-10 06:00;CYWG 100600Z 04002KT 15SM BKN250 08/07 A3012 RMK CI2 SLP204

CYWG;2011-06-10 07:00;CYWG 100700Z 36003KT 15SM SKC 07/06 A3011 RMK SLP201

CYWG;2011-06-10 08:00;CYWG 100800Z 02003KT 15SM FEW250 07/06 A3010 RMK CI2 SLP200

CYWG;2011-06-10 09:00;CYWG 100900Z 07004KT 15SM FEW120 BKN250 07/06 A3011 RMK AC2CI2 SLP202

CYWG;2011-06-10 10:00;CYWG 101000Z 33003KT 15SM FEW080 SCT120 BKN250 05/04 A3012 RMK AC1AC2CI1 SLP205

CYWG;2011-06-10 11:00;CYWG 101100Z 03002KT 15SM SCT070 SCT250 06/05 A3012 RMK AC3CI1 SLP206

CYWG;2011-06-10 12:00;CYWG 101200Z 00000KT 15SM SCT070 BKN250 09/08 A3012 RMK AC3CI2 SLP206

CYWG;2011-06-10 13:00;CYWG 101300Z 00000KT 15SM FEW070 BKN250 13/09 A3012 RMK AC2CI2 SLP205

CYWG;2011-06-10 14:00;CYWG 101400Z 15003KT 15SM FEW070 SCT250 16/07 A3011 RMK AC1CI2 SLP203

CYWG;2011-06-10 15:00;CYWG 101500Z 17002KT 15SM FEW070 SCT250 17/05 A3011 RMK AC1CI1 SLP199

CYWG;2011-06-10 16:00;CYWG 101600Z 14003KT 15SM FEW045 SCT250 18/04 A3009 RMK CU1CI1 SLP195

CYWG;2011-06-10 17:00;CYWG 101700Z 07007KT 15SM SCT065 BKN250 19/06 A3008 RMK CU4CI1 SLP191

CYWG;2011-06-10 18:00;CYWG 101800Z 02005KT 15SM SCT065 BKN250 19/05 A3007 RMK CU4CI1 SLP187

CYWG;2011-06-10 19:00;CYWG 101900Z 15003KT 15SM BKN070 BKN250 20/04 A3006 RMK CU5CI0 SLP182

CYWG;2011-06-10 20:00;CYWG 102000Z 26002KT 15SM BKN072 BKN250 20/04 A3004 RMK CU5CI0 SLP177

CYWG;2011-06-10 21:00;CYWG 102100Z 11004KT 15SM SCT079 BKN250 20/05 A3003 RMK CU4CI0 SLP174

CYWG;2011-06-10 22:00;CYWG 102200Z 14003KT 15SM SCT075 SCT250 20/05 A3003 RMK CU3CI0 SLP172

CYWG;2011-06-10 23:00;CYWG 102300Z 13005KT 15SM SCT075 SCT250 21/05 A3002 RMK CU3CI0 SLP170

CYWG;2011-06-11 00:00;CYWG 110000Z 09004KT 15SM SCT074 SCT250 19/09 A3002 RMK CU3CI0 SLP169

CYWG;2011-06-11 01:00;CYWG 110100Z 10007KT 15SM FEW072 SCT250 20/06 A3002 RMK AC2CI0 SLP169

CYWG;2011-06-11 02:00;CYWG 110200Z 12002KT 15SM FEW072 18/07 A3002 RMK AC2 SLP170

CYWG;2011-06-11 03:00;CYWG 110300Z 17009KT 15SM FEW073 16/08 A3003 RMK AC2 SLP173

CYWG;2011-06-11 04:00;CYWG 110400Z 19007KT 15SM FEW084 15/08 A3004 RMK AC2 SLP175

CYWG;2011-06-11 05:00;CYWG 110500Z 19007KT 15SM FEW071 13/08 A3004 RMK AC2 SLP176

CYWG;2011-06-11 06:00;CYWG 110600Z 20007KT 15SM SKC 13/07 A3004 RMK SLP175

CYWG;2011-06-11 07:00;CYWG 110700Z 20005KT 15SM SKC 12/07 A3003 RMK SLP174

CYWG;2011-06-11 08:00;CYWG 110800Z 19005KT 15SM SKC 09/07 A3003 RMK SLP174

CYWG;2011-06-11 09:00;CYWG 110900Z 22007KT 15SM SKC 10/07 A3003 RMK SLP171

CYWG;2011-06-11 10:00;CYWG 111000Z 25006KT 15SM SKC 09/07 A3002 RMK SLP170

CYWG;2011-06-11 11:00;CYWG 111100Z 16005KT 15SM FEW075 08/07 A3004 RMK AC1 SLP176

CYWG;2011-06-11 12:00;CYWG 111200Z 15002KT 15SM FEW075 11/08 A3005 RMK AC1 SLP180

CYWG;2011-06-11 13:00;CYWG 111300Z 19005KT 15SM FEW075 14/09 A3006 RMK AC1 SLP183

CYWG;2011-06-11 14:00;CYWG 111400Z 17005KT 15SM FEW075 16/10 A3006 RMK AC1 SLP182

CYWG;2011-06-11 15:00;CYWG 111500Z 18006KT 15SM FEW075 19/10 A3005 RMK AC1 SLP179

CYWG;2011-06-11 16:00;CYWG 111600Z 16005KT 15SM FEW052 20/08 A3005 RMK CU1 SLP177

CYWG;2011-06-11 17:00;CYWG 111700Z 19008KT 15SM SCT070 22/06 A3004 RMK AC3 SLP176

CYWG;2011-06-11 18:00;CYWG 111800Z 17005KT 15SM SCT083 22/04 A3003 RMK CU4 SLP171

CYWG;2011-06-11 19:00;CYWG 111900Z 18002KT 15SM SCT088 22/05 A3002 RMK CU4 SLP168

CYWG;2011-06-11 20:00;CYWG 112000Z 20004KT 15SM SCT086 22/05 A3001 RMK AC3 SLP164

CYWG;2011-06-11 21:00;CYWG 112100Z 16009KT 15SM SCT086 23/06 A3000 RMK AC4 SLP162

CYWG;2011-06-11 22:00;CYWG 112200Z 08003KT 15SM FEW086 23/06 A2999 RMK AC2 SLP157

CYWG;2011-06-11 23:00;CYWG 112300Z 18005KT 15SM SCT086 SCT250 23/05 A2998 RMK AC3CI0 SLP156

CYWG;2011-06-12 00:00;CYWG 120000Z 15006KT 15SM FEW085 FEW250 21/07 A2997 RMK AC2CI0 SLP152

CYWG;2011-06-12 01:00;CYWG 120100Z 17006KT 15SM FEW085 FEW250 19/08 A2997 RMK AC1CI0 SLP151

CYWG;2011-06-12 02:00;CYWG 120200Z 18007KT 15SM FEW085 FEW250 18/07 A2997 RMK AC1CI0 SLP153

CYWG;2011-06-12 03:00;CYWG 120300Z 17007KT 15SM FEW250 16/07 A2999 RMK CI0 SLP158

CYWG;2011-06-12 04:00;CYWG 120400Z 18007KT 15SM FEW250 16/07 A3000 RMK CI0 SLP162

CYWG;2011-06-12 05:00;CYWG 120500Z 18005KT 15SM FEW250 15/07 A3000 RMK CI0 SLP163

CYWG;2011-06-12 06:00;CYWG 120600Z 18005KT 15SM SKC 14/07 A3000 RMK SLP163

CYWG;2011-06-12 07:00;CYWG 120700Z 16005KT 15SM SKC 13/07 A3000 RMK SLP162

CYWG;2011-06-12 08:00;CYWG 120800Z 16004KT 15SM SKC 12/07 A3002 RMK SLP169

CYWG;2011-06-12 09:00;CYWG 120900Z 11006KT 15SM SKC 10/07 A3001 RMK SLP165

CYWG;2011-06-12 10:00;CYWG 121000Z 14006KT 15SM FEW250 09/06 A3002 RMK CI1 SLP169

CYWG;2011-06-12 11:00;CYWG 121100Z 16005KT 15SM FEW090 FEW250 10/07 A3003 RMK AC1CI0 SLP173

CYWG;2011-06-12 12:00;CYWG 121200Z 14005KT 15SM FEW090 SCT250 13/09 A3003 RMK AC1CI0 SLP173

CYWG;2011-06-12 13:00;CYWG 121300Z 15008KT 15SM FEW090 FEW250 16/08 A3003 RMK AC1CI0 SLP173

CYWG;2011-06-12 14:00;CYWG 121400Z 16009KT 15SM FEW095 FEW250 18/10 A3003 RMK AC1CI0 SLP173

CYWG;2011-06-12 15:00;CYWG 121500Z 17010KT 15SM FEW095 FEW250 20/09 A3002 RMK AC1CI1 AC TR SLP169

CYWG;2011-06-12 16:00;CYWG 121600Z 16015G20KT 15SM FEW061 SCT250 22/08 A3002 RMK CU2CI0 SLP168

CYWG;2011-06-12 17:00;CYWG 121700Z 16020G25KT 15SM SCT063 SCT250 23/08 A3001 RMK CU3CI0 SLP166

CYWG;2011-06-12 18:00;CYWG 121800Z 16018G24KT 15SM SCT066 SCT250 23/09 A3000 RMK CU3CI0 SLP162

CYWG;2011-06-12 19:00;CYWG 121900Z 16018KT 15SM FEW066 BKN250 22/08 A2999 RMK CU2CI1 SLP159

CYWG;2011-06-12 20:00;CYWG 122000Z 16015G20KT 15SM SCT066 BKN250 23/10 A2999 RMK AC4CI2 SLP156

CYWG;2011-06-12 21:00;CYWG 122100Z 19020KT 15SM SCT062 BKN088 BKN250 22/09 A2999 RMK SC3AC2CI1 SLP158

CYWG;2011-06-12 22:00;CYWG 122200Z 16015KT 15SM FEW062 BKN088 BKN250 22/09 A2999 RMK SC1AC6CI0 SLP157

CYWG;2011-06-12 23:00;CYWG 122300Z 18020G26KT 15SM FEW062 BKN100 BKN250 20/07 A2999 RMK SC1AC6CI1 SLP157

CYWG;2011-06-13 00:00;CYWG 130000Z 16014G19KT 15SM BKN076 BKN250 19/08 A2999 RMK AC6CI1 SLP157

CYWG;2011-06-13 01:00;CYWG 130100Z 16011KT 15SM BKN071 OVC250 19/09 A2998 RMK AC7CI1 VIRGA E SLP155

CYWG;2011-06-13 02:00;CYWG 130200Z 16013KT 15SM BKN066 OVC250 19/07 A2996 RMK AC7CI1 SLP150

CYWG;2011-06-13 03:00;CYWG 130300Z 15014G19KT 15SM BKN062 BKN093 OVC250 18/07 A2996 RMK SC6AC2CI1 SLP145

CYWG;2011-06-13 04:00;CYWG 130400Z 16015G20KT 15SM OVC072 18/08 A2996 RMK AC8 SLP147

CYWG;2011-06-13 05:00;CYWG 130500Z 15013G20KT 15SM SCT065 OVC077 17/08 A2996 RMK SC3AC5 SLP145

CYWG;2011-06-13 06:00;CYWG 130600Z 15014KT 15SM FEW065 OVC079 16/09 A2994 RMK SC2AC6 SLP141

CYWG;2011-06-13 07:00;CYWG 130700Z 14013KT 15SM OVC077 16/09 A2993 RMK AC8 SLP137

CYWG;2011-06-13 08:00;CYWG 130800Z 15016G21KT 15SM BKN072 OVC091 16/09 A2991 RMK AC6AC2 SLP131

CYWG;2011-06-13 09:00;CYWG 130900Z 14017KT 15SM OVC092 16/08 A2989 RMK AC8 SLP122

CYWG;2011-06-13 10:00;CYWG 131000Z 14015G24KT 15SM BKN090 OVC120 16/08 A2984 RMK AC5AC3 SLP107

CYWG;2011-06-13 10:49;CYWG 131049Z 15016G21KT 15SM -RA BKN095 OVC280 16/ RMK AC6CI2

CYWG;2011-06-13 11:00;CYWG 131100Z 16014G19KT 15SM -RA BKN095 OVC280 16/09 A2986 RMK AC6CI2 SLP114

CYWG;2011-06-13 12:00;CYWG 131200Z 15011KT 15SM -RA BKN034 OVC090 14/11 A2987 RMK SC6AC2 SLP117

CYWG;2011-06-13 13:00;CYWG 131300Z 16017G22KT 12SM -RA BKN016 OVC063 14/12 A2985 RMK SC6SC2 SLP112

CYWG;2011-06-13 14:00;CYWG 131400Z 16020G25KT 5SM -RA BR BKN020 OVC078 14/12 A2986 RERA RMK SC6AC2 SLP113

CYWG;2011-06-13 15:00;CYWG 131500Z 16015KT 6SM RA BR BKN017 OVC071 14/13 A2985 RMK SC7AC1 SLP112

CYWG;2011-06-13 15:52;CYWG 131552Z 16015KT 15SM BKN017 OVC074 15/ RERA RMK SC6AC2

CYWG;2011-06-13 16:00;CYWG 131600Z 15013KT 15SM BKN017 OVC074 15/14 A2984 RERA RMK SC6AC2 SLP109

CYWG;2011-06-13 17:00;CYWG 131700Z 16015KT 15SM OVC019 16/14 A2984 RMK SC8 SLP109

CYWG;2011-06-13 18:00;CYWG 131800Z 17016G21KT 15SM OVC019 17/15 A2983 RMK SC8 SLP103

CYWG;2011-06-13 19:00;CYWG 131900Z 18024KT 15SM OVC021 19/15 A2982 RMK SC8 SLP099

CYWG;2011-06-13 20:00;CYWG 132000Z 18015G22KT 15SM BKN024 OVC080 20/16 A2981 RMK SC7AC1 SLP097

CYWG;2011-06-13 21:00;CYWG 132100Z 17018G26KT 15SM FEW020 BKN046 21/16 A2980 RMK CF1SC6 SLP093

CYWG;2011-06-13 22:00;CYWG 132200Z 18025G31KT 15SM FEW030 BKN044 BKN080 23/16 A2978 RMK CF1SC5AC1 SLP087

CYWG;2011-06-13 23:00;CYWG 132300Z 17020G26KT 15SM BKN033 23/16 A2977 RMK CU6 TCU ASOCTD W SLP084

CYWG;2011-06-14 00:00;CYWG 140000Z 17017G26KT 15SM SCT047 SCT091 BKN250 23/16 A2977 RMK CU3ACC1CI2 CB TOP NW MOVG E SLP081

CYWG;2011-06-14 01:00;CYWG 140100Z 17018KT 15SM SCT048 BKN250 23/16 A2977 RMK CU3CI2 TCU ASOCTD W CB N MOVG ENE SLP084

CYWG;2011-06-14 02:00;CYWG 140200Z 17013G18KT 15SM BKN056TCU BKN250 22/16 A2979 RMK TCU5CI1 CB N MOVG E CB TOP SE MOVG NE SLP089

CYWG;2011-06-14 03:00;CYWG 140300Z 18010G19KT 15SM BKN056TCU BKN090 BKN250 21/16 A2981 RMK TCU5AC1CI0 CB EMBDD NE SLP098

CYWG;2011-06-14 04:00;CYWG 140400Z 18012G17KT 15SM FEW050TCU 20/16 A2983 RMK TCU2 CB NE DIST LGTIC NE SLP104

CYWG;2011-06-14 05:00;CYWG 140500Z 18009KT 15SM FEW050TCU 18/16 A2984 RMK TCU2 LGTIC DIST NE SLP106

CYWG;2011-06-14 06:00;CYWG 140600Z 18012KT 15SM SKC 17/16 A2983 RMK SLP105

CYWG;2011-06-14 07:00;CYWG 140700Z 18013G18KT 15SM SKC 17/16 A2983 RMK SLP103

CYWG;2011-06-14 08:00;CYWG 140800Z 18013G19KT 15SM SKC 17/15 A2983 RMK SLP103

CYWG;2011-06-14 09:00;CYWG 140900Z 18014KT 15SM SKC 16/14 A2983 RMK SLP105

CYWG;2011-06-14 10:00;CYWG 141000Z 18012G17KT 15SM FEW250 16/14 A2983 RMK CI1 SLP105

CYWG;2011-06-14 11:00;CYWG 141100Z 18010KT 15SM SKC 15/13 A2983 RMK SLP105

CYWG;2011-06-14 12:00;CYWG 141200Z 18013KT 15SM SKC 16/13 A2984 RMK SLP107

CYWG;2011-06-14 13:00;CYWG 141300Z 17010KT 15SM SKC 18/14 A2984 RMK SLP107

CYWG;2011-06-14 14:00;CYWG 141400Z 17012KT 15SM FEW250 19/15 A2985 RMK CI1 SLP109

CYWG;2011-06-14 15:00;CYWG 141500Z 17011KT 15SM FEW250 22/16 A2984 RMK CI1 SLP105

CYWG;2011-06-14 16:00;CYWG 141600Z 18011KT 15SM FEW250 24/17 A2983 RMK CI2 SLP103

CYWG;2011-06-14 17:00;CYWG 141700Z 15010G15KT 15SM FEW035 SCT250 24/18 A2982 RMK CU1CI2 SLP099

CYWG;2011-06-14 18:00;CYWG 141800Z 15009KT 15SM SCT033 BKN250 25/19 A2980 RMK CU4CI1 SLP093

CYWG;2011-06-14 19:00;CYWG 141900Z 16014KT 15SM SCT034 SCT072 BKN250 26/18 A2979 RMK CU3AC1CI0 SLP089

CYWG;2011-06-14 20:00;CYWG 142000Z 14013KT 15SM VCSH BKN036 BKN073 BKN250 25/17 A2977 RMK CU6AC1CI0 SLP083

CYWG;2011-06-14 21:00;CYWG 142100Z CCA 17016KT 15SM VCSH SCT038 BKN058 OVC250 25/17 A2976 RMK CU3SC4CI1 SLP079

CYWG;2011-06-14 22:00;CYWG 142200Z 18012KT 15SM FEW042 OVC077 25/17 A2975 RMK CU2AS5 SLP075

CYWG;2011-06-14 23:00;CYWG 142300Z 17010KT 15SM FEW040 FEW080 OVC120 24/17 A2975 RMK SC2AC1AS5 SLP076

CYWG;2011-06-15 00:00;CYWG 150000Z 17011KT 15SM SCT043 SCT073 OVC120 24/16 A2974 RMK SC3AC1AS3 SLP072

CYWG;2011-06-15 01:00;CYWG 150100Z 16005KT 15SM FEW044 SCT070 OVC120 24/17 A2974 RMK SC2AC2AS3 SLP071

CYWG;2011-06-15 02:00;CYWG 150200Z 13008KT 15SM FEW044CB BKN093 OVC120 24/17 A2972 RMK CB2AC3AS2 LGTIC DIST S SLP064

CYWG;2011-06-15 02:08;CYWG 150208Z 13009KT 15SM TS SCT048CB BKN079 OVC120 23/ RMK CB4AC2AS1 LGTIC S-W

CYWG;2011-06-15 02:15;CYWG 150215Z 24030G39KT 15SM -TSRA BKN018CB OVC120 21/ RMK CB6AC1 LGT ALQDS

CYWG;2011-06-15 03:00;CYWG 150300Z 28005KT 15SM BKN068CB OVC088 18/17 A2975 RETSRA RMK CB6AC2 LTG NW-NE SLP074

CYWG;2011-06-15 03:41;CYWG 150341Z 24005KT 15SM -SHRA SCT028 BKN044 OVC090 17/ RMK SC3SC2AC2 LTG N

CYWG;2011-06-15 04:00;CYWG 150400Z 23005KT 15SM -SHRA BKN029 OVC058 17/17 A2976 RMK SC6SC2 SLP077

CYWG;2011-06-15 04:38;CYWG 150438Z 00000KT 15SM BKN026 BKN120 BKN250 17/ RMK SC5AC1CI0

CYWG;2011-06-15 05:00;CYWG 150500Z 04004KT 15SM BKN026 BKN120 16/16 A2973 RMK SC5AC2 SLP069

CYWG;2011-06-15 06:00;CYWG 150600Z 14006KT 15SM BKN054 BKN120 18/16 A2972 RMK SC5AC2 SLP063

CYWG;2011-06-15 07:00;CYWG 150700Z 15008KT 15SM FEW060 BKN095 17/16 A2971 RMK SC2AC5 SLP060

CYWG;2011-06-15 08:00;CYWG 150800Z 16006KT 15SM BKN110 17/16 A2969 RMK AC7 SLP054

CYWG;2011-06-15 09:00;CYWG 150900Z 16008KT 15SM FEW012 SCT110 16/16 A2967 RMK SF1AC4 SLP049

CYWG;2011-06-15 10:00;CYWG 151000Z 16004KT 15SM BKN110 16/15 A2967 RMK AC5 SLP047

CYWG;2011-06-15 10:55;CYWG 151055Z 16006KT 15SM -RA FEW006 BKN037 BKN099 OVC210 16/ RMK SF1SC5AC2CI1 VIS LWR SE

CYWG;2011-06-15 11:00;CYWG 151100Z 16007KT 10SM -RA FEW006 BKN034 BKN099 OVC210 16/16 A2968 RMK SF1SC5AC2CI1 VIS LWR SE SLP052

CYWG;2011-06-15 12:00;CYWG 151200Z 17008KT 10SM -RA FEW006 FEW033 BKN053 OVC093 16/16 A2969 RMK SF1SC2SC5AC1 SLP054

CYWG;2011-06-15 13:00;CYWG 151300Z 21007KT 10SM -RA BKN015 OVC062 16/16 A2968 RMK SC5SC3 SLP051

CYWG;2011-06-15 14:00;CYWG 151400Z 19004KT 10SM -RA FEW015 SCT026 BKN048 OVC095 17/16 A2968 RMK CF1SC2SC2AS3 SUN DIMLY VISBL SLP051

CYWG;2011-06-15 14:29;CYWG 151429Z 16004KT 15SM FEW015 BKN048 OVC097 17/ RMK CF2SC3AS3 SUN DIMLY VISBL

CYWG;2011-06-15 14:57;CYWG 151457Z 17003KT 15SM -RA SCT015 BKN050 OVC093 17/ RMK CF4SC2AS2

CYWG;2011-06-15 15:00;CYWG 151500Z 16003KT 15SM -RA SCT015 BKN050 OVC093 18/15 A2968 RMK CF4SC2AS2 SLP052

CYWG;2011-06-15 16:00;CYWG 151600Z 17006KT 15SM -RA BKN013TCU BKN068 OVC097 18/16 A2967 RMK TCU5AC2AS1 SLP050

CYWG;2011-06-15 16:37;CYWG 151637Z 00000KT 15SM -RA SCT019 BKN068 OVC210 18/ RMK CF4AC2CI2

CYWG;2011-06-15 17:00;CYWG 151700Z 12002KT 15SM BKN012 BKN040 BKN068 19/15 A2966 RMK CF5SC2AC1 SLP045

CYWG;2011-06-15 18:00;CYWG 151800Z 02006KT 15SM FEW017 BKN022 BKN044TCU OVC063 19/16 A2965 RMK CF2SC2TCU2SC1 SH W SLP041

CYWG;2011-06-15 18:21;CYWG 151821Z 03004KT 10SM -SHRA BKN017TCU BKN044 OVC056 18/ RMK TCU5SC2SC2

CYWG;2011-06-15 18:49;CYWG 151849Z CCA 17004KT 8SM -SHRA FEW005 FEW015 BKN056 OVC088 17/ RMK SF1SC2SC3AC2 TCU EMBD

CYWG;2011-06-15 19:00;CYWG 151900Z 13007KT 10SM FEW006 FEW015 BKN056 OVC085 18/16 A2966 RMK SF2SC1SC4AC2 TCU EMBD SLP044

CYWG;2011-06-15 20:00;CYWG 152000Z 12011KT 15SM FEW007 SCT017 BKN039 OVC070 17/15 A2966 RMK SF1SC3SC2AC2 SLP045

CYWG;2011-06-15 20:32;CYWG 152032Z 12010KT 15SM -SHRA SCT010 BKN036 OVC070 17/ RMK SC3SC3AC2 VIS N 4 TCU EMBD

CYWG;2011-06-15 21:00;CYWG 152100Z 10009KT 15SM SCT015 OVC053 17/15 A2967 RMK SC4SC4 SLP048

CYWG;2011-06-15 22:00;CYWG 152200Z 11009KT 12SM FEW015 BKN053 OVC080 17/15 A2967 RMK SC2SC4AC2 BR SLP050

CYWG;2011-06-15 22:25;CYWG 152225Z 12008KT 10SM -SHRA FEW015 SCT024 BKN053 OVC080 17/ RMK SC2SC2SC3AC1 BR

CYWG;2011-06-15 23:00;CYWG 152300Z 12005KT 12SM FEW015 BKN024 BKN055 OVC092 17/15 A2967 RMK SC2SC3SC2AC1 BR SLP051

CYWG;2011-06-16 00:00;CYWG 160000Z 14007KT 12SM FEW015 BKN025 OVC055 17/15 A2968 RMK SC2SC4SC2 BR SLP053

CYWG;2011-06-16 01:00;CYWG 160100Z 12008KT 15SM SCT016 BKN025 OVC090 17/15 A2969 RMK SC3SC3AC2 SLP055

CYWG;2011-06-16 02:00;CYWG 160200Z 14006KT 15SM FEW015 BKN026 OVC090 17/15 A2970 RMK SC1SC6AC2 SLP058

CYWG;2011-06-16 03:00;CYWG 160300Z 13005KT 15SM BKN028 OVC090 16/15 A2970 RMK SC6AC2 SLP061

CYWG;2011-06-16 04:00;CYWG 160400Z 12005KT 15SM BKN046 OVC100 16/15 A2970 RMK SC5AC3 SLP061

CYWG;2011-06-16 05:00;CYWG 160500Z 13004KT 15SM BKN042 OVC100 16/14 A2971 RMK SC5AC3 SLP063

CYWG;2011-06-16 06:00;CYWG 160600Z 12007KT 15SM BKN042 OVC100 16/14 A2971 RMK SC5AC3 SLP062

CYWG;2011-06-16 07:00;CYWG 160700Z 16005KT 15SM SCT044 BKN100 15/14 A2971 RMK SC3AC4 SLP063

CYWG;2011-06-16 08:00;CYWG 160800Z 14004KT 15SM SCT030 BKN100 14/14 A2972 RMK SC4AC3 SLP066

CYWG;2011-06-16 09:00;CYWG 160900Z 12005KT 15SM BKN025 BKN100 15/14 A2974 RMK SC5AC2 SLP072

CYWG;2011-06-16 10:00;CYWG 161000Z CCA 14004KT 12SM SCT029 BKN100 14/14 A2975 RMK SC3AC3 SLP076

CYWG;2011-06-16 11:00;CYWG 161100Z 16004KT 12SM BKN021 BKN100 14/14 A2978 RMK SC6AC1 BR SLP086

CYWG;2011-06-16 12:00;CYWG 161200Z 18003KT 12SM SCT029 BKN079 15/14 A2979 RMK SC4AC2 BR SLP089

CYWG;2011-06-16 13:00;CYWG 161300Z 14006KT 15SM FEW030 FEW090 BKN260 17/15 A2977 RMK SC1AC2CI2 OBS TAKEN +12 SLP084

CYWG;2011-06-16 14:00;CYWG 161400Z 12004KT 15SM FEW030 FEW100 18/14 A2977 RMK SC1AC1 SLP082

CYWG;2011-06-16 15:00;CYWG 161500Z 14003KT 15SM FEW026 FEW250 19/14 A2977 RMK CU1CI1 SLP082

CYWG;2011-06-16 16:00;CYWG 161600Z 18004KT 15SM BKN026 BKN250 20/14 A2978 RMK CU5CI1 SLP086

CYWG;2011-06-16 17:00;CYWG 161700Z 11004KT 15SM BKN028 BKN250 22/15 A2978 RMK CU5CI1 SLP085

CYWG;2011-06-16 18:00;CYWG 161800Z 00000KT 15SM BKN034 BKN250 22/15 A2978 RMK CU6CI1 SLP087

CYWG;2011-06-16 19:00;CYWG 161900Z 10005KT 15SM BKN036 22/14 A2979 RMK CU6 SLP088

CYWG;2011-06-16 20:00;CYWG 162000Z 10005KT 15SM SCT045 SCT120 24/13 A2978 RMK CU3AC1 OBS TAKEN +01 SLP086

CYWG;2011-06-16 21:00;CYWG 162100Z 18002KT 15SM BKN049 24/14 A2979 RMK CU6 OBS TAKEN +01 SLP090

CYWG;2011-06-16 22:00;CYWG 162200Z 14004KT 15SM SCT049 BKN075 24/15 A2979 RMK CU4AC3 SLP090

CYWG;2011-06-16 23:00;CYWG 162300Z 10006KT 15SM FEW051 BKN076 24/15 A2980 RMK CU2AC2 OBS TAKEN +04 SLP091

CYWG;2011-06-17 00:00;CYWG 170000Z 14005KT 15SM FEW065 SCT092 25/15 A2980 RMK CU2AC2 SLP093

CYWG;2011-06-17 01:00;CYWG 170100Z 00000KT 15SM FEW065 FEW100 SCT270 24/15 A2980 RMK CU1AC2CI0 SLP094

CYWG;2011-06-17 02:00;CYWG 170200Z 05008KT 15SM FEW065 FEW100 FEW270 21/15 A2979 RMK CF1AC1CI0 CF TR SLP090

CYWG;2011-06-17 03:00;CYWG 170300Z 07006KT 15SM FEW050 SCT270 20/15 A2982 RMK SC2CI1 SLP098

CYWG;2011-06-17 04:00;CYWG 170400Z 08007KT 15SM FEW050 SCT270 16/14 A2982 RMK SC1CI1 SLP099

CYWG;2011-06-17 05:00;CYWG 170500Z 08005KT 15SM FEW270 17/14 A2983 RMK CI1 SLP102

CYWG;2011-06-17 06:00;CYWG 170600Z 08005KT 15SM FEW270 17/14 A2982 RMK CI1 SLP098

CYWG;2011-06-17 07:00;CYWG 170700Z 03003KT 15SM SCT270 15/14 A2983 RMK CI1 SLP102

CYWG;2011-06-17 08:00;CYWG 170800Z 05004KT 15SM SCT270 15/14 A2983 RMK CI1 SLP104

CYWG;2011-06-17 09:00;CYWG 170900Z 08003KT 15SM BKN270 14/14 A2983 RMK CI1 SLP103

CYWG;2011-06-17 10:00;CYWG 171000Z 13003KT 15SM BKN270 15/14 A2984 RMK CI2 SLP105

CYWG;2011-06-17 11:00;CYWG 171100Z 12004KT 15SM OVC270 15/14 A2983 RMK CI1 SLP104

CYWG;2011-06-17 12:00;CYWG 171200Z 14006KT 15SM OVC270 17/15 A2984 RMK CI3 SLP105

CYWG;2011-06-17 13:00;CYWG 171300Z 16005KT 15SM OVC270 18/15 A2985 RMK CI3 SLP108

CYWG;2011-06-17 14:00;CYWG 171400Z 15006KT 15SM OVC270 20/16 A2984 RMK CS5 SLP107

CYWG;2011-06-17 15:00;CYWG 171500Z 13010KT 15SM OVC270 22/16 A2982 RMK CS3 SLP098

CYWG;2011-06-17 16:00;CYWG 171600Z 12010G16KT 15SM FEW030 OVC270 23/15 A2980 RMK CF1CS3 SLP092

CYWG;2011-06-17 17:00;CYWG 171700Z 10014G19KT 15SM FEW043 BKN270 25/16 A2978 RMK CU1CS2 SLP085

CYWG;2011-06-17 18:00;CYWG 171800Z 11016KT 15SM FEW046 BKN270 24/15 A2977 RMK CU1CS2 SLP083

CYWG;2011-06-17 19:00;CYWG 171900Z 12015G21KT 15SM BKN046 BKN270 24/15 A2977 RMK SC6CI1 SLP082

CYWG;2011-06-17 20:00;CYWG 172000Z 14014G19KT 15SM BKN046 BKN270 24/15 A2978 RMK SC6CI1 SLP084

CYWG;2011-06-17 21:00;CYWG 172100Z 14019KT 15SM BKN046 OVC270 24/14 A2978 RMK SC6CI1 SLP085

CYWG;2011-06-17 22:00;CYWG 172200Z 12015G21KT 15SM BKN048 OVC110 24/15 A2977 RMK SC6AC2 SLP083

CYWG;2011-06-17 23:00;CYWG 172300Z 12012G18KT 15SM BKN054 OVC110 23/15 A2977 RMK SC6AC2 OBS TAKEN +7 SLP082

CYWG;2011-06-18 00:00;CYWG 180000Z 12012G19KT 15SM BKN110 OVC270 23/15 A2976 RMK AC5CI2 SLP078

CYWG;2011-06-18 01:00;CYWG 180100Z 12009KT 15SM SCT044 BKN093 OVC270 23/15 A2976 RMK SC3AC3CI2 SLP078

CYWG;2011-06-18 02:00;CYWG 180200Z 16012KT 15SM SCT046 BKN058 OVC100 21/15 A2977 RMK SC3SC2AC3 SLP083

CYWG;2011-06-18 03:00;CYWG 180300Z 17017G24KT 15SM -SHRA SCT055 OVC090 19/16 A2980 RMK SC4AC4 SLP090

CYWG;2011-06-18 04:00;CYWG 180400Z 14012G18KT 12SM -SHRA OVC042 18/16 A2979 RMK SC8 SLP088

CYWG;2011-06-18 04:26;CYWG 180426Z 13012KT 15SM OVC040 18/ RMK SC8

CYWG;2011-06-18 05:00;CYWG 180500Z 14012KT 15SM OVC040 19/16 A2978 RMK SC8 SLP085

CYWG;2011-06-18 06:00;CYWG 180600Z 14010G17KT 15SM OVC045 18/16 A2977 RMK SC8 SLP082

CYWG;2011-06-18 06:03;CYWG 180603Z 14010KT 15SM -SHRA OVC045 19/ RMK SC8

CYWG;2011-06-18 07:00;CYWG 180700Z 15008KT 15SM -SHRA OVC020 18/16 A2977 RMK SC8 SLP081

CYWG;2011-06-18 08:00;CYWG 180800Z 18002KT 15SM -SHRA OVC012 17/17 A2978 RMK SC8 SLP084

CYWG;2011-06-18 08:50;CYWG 180850Z 27012KT 10SM -SHRA SCT004 OVC010 16/ RMK SF3SC5

CYWG;2011-06-18 09:00;CYWG 180900Z 29008KT 4SM -RA BR OVC004 15/15 A2978 RMK SF8 SLP087

CYWG;2011-06-18 10:00;CYWG 181000Z 30005KT 10SM -RA OVC006 15/14 A2979 RMK SF8 SLP088

CYWG;2011-06-18 11:00;CYWG 181100Z 31004KT 15SM BKN017 15/14 A2980 RMK SC7 SLP092

CYWG;2011-06-18 12:00;CYWG 181200Z 27004KT 15SM BKN018 15/14 A2981 RMK SC6 SLP096

CYWG;2011-06-18 13:00;CYWG 181300Z 30004KT 15SM FEW018 16/14 A2982 RMK SC2 SLP098

CYWG;2011-06-18 14:00;CYWG 181400Z 00000KT 15SM FEW018 FEW260 18/13 A2982 RMK SC1CI1 SLP100

CYWG;2011-06-18 15:00;CYWG 181500Z 00000KT 15SM FEW030 20/11 A2981 RMK SC1 SLP096

CYWG;2011-06-18 16:00;CYWG 181600Z 00000KT 15SM FEW030 FEW260 21/13 A2980 RMK SC1CI2 SLP094

CYWG;2011-06-18 17:00;CYWG 181700Z 20002KT 15SM FEW030 FEW260 22/13 A2981 RMK SC1CI1 SLP096

CYWG;2011-06-18 18:00;CYWG 181800Z 10002KT 15SM FEW030 FEW260 23/10 A2981 RMK CU2CI1 SLP094

CYWG;2011-06-18 19:00;CYWG 181900Z 00000KT 15SM FEW050 FEW260 24/11 A2980 RMK CU1CI1 SLP091

CYWG;2011-06-18 20:00;CYWG 182000Z 18004KT 15SM FEW050 FEW260 25/12 A2980 RMK CU1CI0 SLP090

CYWG;2011-06-18 21:00;CYWG 182100Z 19004KT 15SM FEW045 SCT260 25/12 A2980 RMK CU1CI1 SLP091

CYWG;2011-06-18 22:00;CYWG 182200Z 30003KT 15SM FEW060 SCT260 25/10 A2980 RMK CU1CI1 SLP090

CYWG;2011-06-18 23:00;CYWG 182300Z 24003KT 15SM FEW060 FEW260 26/12 A2978 RMK CU1CI1 SLP086

CYWG;2011-06-19 00:00;CYWG 190000Z 30002KT 15SM FEW055 FEW260 26/12 A2977 RMK CU1CI1 SLP083

CYWG;2011-06-19 01:00;CYWG 190100Z 02004KT 15SM FEW055 SCT260 26/12 A2977 RMK CU1CI1 SLP081

CYWG;2011-06-19 02:00;CYWG 190200Z 11013KT 15SM FEW050 BKN260 23/17 A2978 RMK SC2CI2 SLP084

CYWG;2011-06-19 03:00;CYWG 190300Z 11011KT 15SM FEW050 FEW097 BKN260 21/17 A2979 RMK SC1AC1CI2 SLP087

CYWG;2011-06-19 04:00;CYWG 190400Z 13013KT 15SM FEW100 SCT260 20/16 A2980 RMK AC1CI1 SLP093

CYWG;2011-06-19 05:00;CYWG 190500Z 14011KT 15SM FEW260 19/16 A2981 RMK CI1 SLP094

CYWG;2011-06-19 06:00;CYWG 190600Z 13010KT 15SM FEW100 FEW260 18/16 A2980 RMK AC1CI1 SLP092

CYWG;2011-06-19 07:00;CYWG 190700Z 14008KT 15SM FEW110 SCT260 17/16 A2980 RMK AC2CI1 SLP093

CYWG;2011-06-19 08:00;CYWG 190800Z 14009KT 15SM SCT110 SCT260 17/16 A2980 RMK AC2CI1 SLP091

CYWG;2011-06-19 09:00;CYWG 190900Z 14008KT 15SM BKN006 17/16 A2980 RMK SF6 SLP090

CYWG;2011-06-19 09:29;CYWG 190929Z 14009KT 15SM BKN004 17/ RMK SF6

CYWG;2011-06-19 10:00;CYWG 191000Z 14009KT 15SM OVC004 17/16 A2979 RMK SF8 SLP089

CYWG;2011-06-19 10:31;CYWG 191031Z 14008KT 10SM OVC005 17/ RMK ST8

CYWG;2011-06-19 11:00;CYWG 191100Z 14007KT 8SM OVC006 17/17 A2980 RMK ST8 SLP092

CYWG;2011-06-19 12:00;CYWG 191200Z 14010KT 8SM OVC009 18/16 A2981 RMK SF8 SLP094

CYWG;2011-06-19 13:00;CYWG 191300Z 13007KT 10SM OVC009 18/16 A2980 RMK SF8 SLP091

CYWG;2011-06-19 13:38;CYWG 191338Z 11007KT 10SM OVC010 18/ RMK SF8

CYWG;2011-06-19 14:00;CYWG 191400Z 15009KT 10SM OVC010 18/16 A2981 RMK SF8 SLP096

CYWG;2011-06-19 15:00;CYWG 191500Z 15004KT 10SM OVC012 19/16 A2982 RMK SF8 SLP098

CYWG;2011-06-19 16:00;CYWG 191600Z 11006KT 15SM OVC014 19/16 A2982 RMK SC8 SLP100

CYWG;2011-06-19 17:00;CYWG 191700Z 14007KT 15SM SCT018 BKN250 21/16 A2983 RMK SC3CI1 SLP101

CYWG;2011-06-19 18:00;CYWG 191800Z 07005KT 15SM FEW026 BKN250 22/16 A2981 RMK SC2CI1 SLP096

CYWG;2011-06-19 19:00;CYWG 191900Z 12009KT 15SM FEW032 SCT270 24/16 A2981 RMK CU2CI0 SLP095

CYWG;2011-06-19 20:00;CYWG 192000Z 08003KT 15SM FEW037 BKN270 24/16 A2980 RMK CU2CI1 SLP094

CYWG;2011-06-19 21:00;CYWG 192100Z 07008KT 15SM FEW042 BKN270 24/15 A2980 RMK CU2CI1 SLP091

CYWG;2011-06-19 22:00;CYWG 192200Z 07007KT 15SM FEW042 BKN270 25/16 A2980 RMK CU2CI1 SLP093

CYWG;2011-06-19 23:00;CYWG 192300Z 10011KT 15SM FEW044 BKN270 24/16 A2980 RMK CU1CI2 SLP090

CYWG;2011-06-20 00:00;CYWG 200000Z 10012KT 15SM FEW039 SCT270 23/16 A2979 RMK CF1CI1 CF TR SLP089

CYWG;2011-06-20 01:00;CYWG 200100Z 10013KT 15SM FEW034 FEW120 BKN270 21/15 A2980 RMK CF1AC1CI0 CF TR SLP091

CYWG;2011-06-20 02:00;CYWG 200200Z 11013KT 15SM FEW030 FEW100 BKN270 20/15 A2981 RMK CF1AC1CI0 SLP096

CYWG;2011-06-20 03:00;CYWG 200300Z 11011KT 15SM BKN026 BKN270 18/15 A2984 RMK SC6CI0 SLP106

CYWG;2011-06-20 04:00;CYWG 200400Z 12011KT 15SM SCT022 BKN270 19/15 A2984 RMK SC3CI1 SLP108

CYWG;2011-06-20 05:00;CYWG 200500Z 11008KT 15SM FEW018 FEW033 17/15 A2985 RMK SF1SC2 SLP111

CYWG;2011-06-20 06:00;CYWG 200600Z 11010KT 15SM SKC 17/15 A2985 RMK SLP108

CYWG;2011-06-20 07:00;CYWG 200700Z 12011G16KT 15SM SKC 17/14 A2985 RMK SLP108

CYWG;2011-06-20 08:00;CYWG 200800Z 11006KT 15SM BKN020 16/14 A2985 RMK SC7 SLP108

CYWG;2011-06-20 09:00;CYWG 200900Z 12009KT 15SM BKN035 16/13 A2985 RMK SC7 SLP110

CYWG;2011-06-20 10:00;CYWG 201000Z 10009KT 15SM SCT035 15/13 A2984 RMK SC4 SLP106

CYWG;2011-06-20 11:00;CYWG 201100Z 10011KT 15SM BKN015 BKN250 14/13 A2983 RMK ST3CI2 SLP103

CYWG;2011-06-20 12:00;CYWG 201200Z 12011KT 15SM BKN015 BKN250 15/13 A2985 RMK ST6CI1 SLP109

CYWG;2011-06-20 13:00;CYWG 201300Z 12010G15KT 15SM BKN012 BKN030 16/13 A2987 RMK ST6SC2 SLP114

CYWG;2011-06-20 14:00;CYWG 201400Z 11010KT 15SM BKN012 OVC030 16/13 A2987 RMK SC6SC2 SLP116

CYWG;2011-06-20 15:00;CYWG 201500Z 11012KT 15SM OVC012 16/12 A2989 RMK SC8 SLP123

CYWG;2011-06-20 16:00;CYWG 201600Z 10012KT 15SM OVC014 17/12 A2987 RMK SC8 SLP119

CYWG;2011-06-20 16:33;CYWG 201633Z 09011G16KT 15SM OVC022 16/ RMK SC8

CYWG;2011-06-20 17:00;CYWG 201700Z 10010G16KT 15SM OVC022 16/12 A2990 RMK SC8 SLP126

CYWG;2011-06-20 18:00;CYWG 201800Z 08010G15KT 15SM BKN024 OVC035 16/11 A2990 RMK SC6SC2 SLP128

CYWG;2011-06-20 19:00;CYWG 201900Z 08011KT 15SM OVC024 17/12 A2990 RMK SC8 SLP127

CYWG;2011-06-20 20:00;CYWG 202000Z 08012KT 15SM BKN026 17/12 A2991 RMK SC7 SLP130

CYWG;2011-06-20 21:00;CYWG 202100Z 09010KT 15SM OVC030 18/12 A2992 RMK SC8 SLP133

CYWG;2011-06-20 22:00;CYWG 202200Z 08012KT 15SM BKN032 19/12 A2991 RMK SC7 SLP130

CYWG;2011-06-20 23:00;CYWG 202300Z 10011KT 15SM BKN034 BKN100 BKN200 19/13 A2990 RMK SC6AC1CI1 SLP129

CYWG;2011-06-21 00:00;CYWG 210000Z 10011KT 15SM FEW036 BKN050 BKN200 19/12 A2990 RMK SC2SC5CI1 SLP128

CYWG;2011-06-21 01:00;CYWG 210100Z 12007KT 15SM FEW036 BKN120 BKN200 19/13 A2991 RMK SC2AS4CI2 SLP131

CYWG;2011-06-21 02:00;CYWG 210200Z 13005KT 15SM FEW039 BKN120 BKN200 18/13 A2992 RMK SC2AS2CI2 SLP134

CYWG;2011-06-21 03:00;CYWG 210300Z 10005KT 15SM SCT120 BKN220 17/13 A2993 RMK AC2CI3 SLP139

CYWG;2011-06-21 04:00;CYWG 210400Z 10006KT 15SM FEW120 BKN220 16/13 A2994 RMK AC2CI3 SLP142

CYWG;2011-06-21 05:00;CYWG 210500Z 08006KT 15SM FEW040 BKN220 15/12 A2993 RMK SC2CI2 SLP140

CYWG;2011-06-21 06:00;CYWG 210600Z 08005KT 15SM BKN220 14/12 A2992 RMK CI2 SLP136

CYWG;2011-06-21 07:00;CYWG 210700Z 06006KT 15SM SCT220 12/11 A2990 RMK CI2 SLP129

CYWG;2011-06-21 08:00;CYWG 210800Z 05005KT 15SM SCT220 12/11 A2991 RMK CI2 SLP133

CYWG;2011-06-21 09:00;CYWG 210900Z 06005KT 15SM FEW220 11/11 A2992 RMK CI1 SLP134

CYWG;2011-06-21 10:00;CYWG 211000Z 06004KT 15SM FEW120 BKN220 11/11 A2992 RMK AC1CI0 SLP134

CYWG;2011-06-21 11:00;CYWG 211100Z 07005KT 15SM SCT055 BKN110 BKN220 14/12 A2992 RMK SC1AC5CI1 SLP136

CYWG;2011-06-21 12:00;CYWG 211200Z 07005KT 15SM SCT055 BKN070 BKN110 OVC220 15/13 A2993 RMK SC1AC6AC1CI1 SLP136

CYWG;2011-06-21 13:00;CYWG 211300Z 08010KT 15SM FEW050 SCT070 BKN110 OVC220 17/13 A2992 RMK SC1AC2AC3CI1 SLP133

CYWG;2011-06-21 14:00;CYWG 211400Z 08007KT 15SM SCT080 BKN110 OVC220 18/13 A2992 RMK AC2AC2CI3 SLP134

CYWG;2011-06-21 15:00;CYWG 211500Z 06011KT 15SM FEW060 BKN090 OVC220 20/13 A2991 RMK SC2AC3CI2 SLP130

CYWG;2011-06-21 16:00;CYWG 211600Z 08014KT 15SM FEW090 OVC220 22/12 A2989 RMK AC2CI6 SLP124

CYWG;2011-06-21 17:00;CYWG 211700Z 08015G22KT 15SM FEW020 FEW090 OVC170 22/12 A2988 RMK CU1AC1AS6 SLP120

CYWG;2011-06-21 18:00;CYWG 211800Z 09015G21KT 15SM FEW025 OVC170 23/13 A2987 RMK CU2AS5 SLP118

CYWG;2011-06-21 19:00;CYWG 211900Z 09017KT 15SM FEW040 OVC170 23/13 A2987 RMK CU2AS5 SLP115

CYWG;2011-06-21 20:00;CYWG 212000Z 09016G26KT 15SM FEW048 OVC150 23/11 A2986 RMK CU2AS6 SLP114

CYWG;2011-06-21 21:00;CYWG 212100Z 08019KT 15SM FEW050 OVC140 23/10 A2986 RMK SC2AS6 SLP113

CYWG;2011-06-21 22:00;CYWG 212200Z 08010G17KT 15SM FEW060 OVC140 23/12 A2985 RMK SC2AS6 SLP112

CYWG;2011-06-21 23:00;CYWG 212300Z 07013G22KT 15SM BKN073 OVC140 22/08 A2985 RMK AC6AS2 SLP111

CYWG;2011-06-22 00:00;CYWG 220000Z CCA 09010G17KT 15SM -RA BKN077 OVC120 22/08 A2986 RMK AC6AS2 SLP112

CYWG;2011-06-22 01:00;CYWG 220100Z 09010G18KT 15SM -RA BKN060 OVC120 20/09 A2987 RMK SC6AS2 SLP117

CYWG;2011-06-22 02:00;CYWG 220200Z 08008KT 15SM -RA BKN030 OVC090 17/11 A2988 RMK SC5AS3 SLP119

CYWG;2011-06-22 03:00;CYWG 220300Z 35005KT 15SM -RA OVC037 15/13 A2988 RMK SC8 SLP119

CYWG;2011-06-22 04:00;CYWG 220400Z 01003KT 15SM -RA OVC030 15/13 A2988 RMK SC8 SLP119

CYWG;2011-06-22 05:00;CYWG 220500Z 03007KT 15SM -RA BKN027 OVC097 15/13 A2988 RMK SC6AC2 SLP119

CYWG;2011-06-22 06:00;CYWG 220600Z 04005KT 15SM -RA BKN037 OVC095 15/13 A2987 RMK SC6AC2 SLP117

CYWG;2011-06-22 07:00;CYWG 220700Z 03008KT 15SM -RA BKN054 OVC082 15/13 A2986 RMK SC6AC2 SLP114

CYWG;2011-06-22 08:00;CYWG 220800Z 03010KT 15SM -RA BKN049 OVC081 14/13 A2987 RMK SC6AC2 SLP116

CYWG;2011-06-22 09:00;CYWG 220900Z 04009KT 15SM -RA OVC047 14/13 A2987 RMK SC8 SLP115

CYWG;2011-06-22 10:00;CYWG 221000Z 03011KT 15SM -RA OVC047 14/12 A2986 RMK SC8 SLP113

CYWG;2011-06-22 11:00;CYWG 221100Z CCA 01011KT 15SM -RA BKN045 OVC065 14/12 A2985 RMK SC6SC2 SLP110

CYWG;2011-06-22 12:00;CYWG 221200Z 36010KT 15SM -RA OVC031 14/13 A2985 RMK SC8 SLP109

CYWG;2011-06-22 13:00;CYWG 221300Z 36011KT 10SM -RA BKN028 OVC082 14/12 A2987 RMK SC6AC2 SLP115

CYWG;2011-06-22 14:00;CYWG 221400Z 04008KT 10SM -RA OVC032 15/12 A2987 RMK SC8 VIS E 5 SLP115

CYWG;2011-06-22 15:00;CYWG 221500Z 35005KT 15SM SCT039 OVC057 16/14 A2985 RMK SC4SC4 SLP110

CYWG;2011-06-22 15:29;CYWG 221529Z 01006KT 15SM -SHRA SCT035 OVC070 16/ RMK SC3AC5 VIS E 5

CYWG;2011-06-22 16:00;CYWG 221600Z 07009KT 2 1/2SM -SHRA BR FEW007 OVC026 15/13 A2985 RMK SF2SC6 VIS N 6 SLP112

CYWG;2011-06-22 16:35;CYWG 221635Z 08005KT 8SM -SHRA FEW015 OVC024 14/ RMK SC2SC6

CYWG;2011-06-22 17:00;CYWG 221700Z 04007KT 15SM -SHRA FEW015 SCT024 OVC070 15/13 A2985 RMK SC2SC2AC4 SLP112

CYWG;2011-06-22 17:25;CYWG 221725Z 01008KT 15SM VCSH BKN034 OVC055 15/ RMK SC5SC3

CYWG;2011-06-22 18:00;CYWG 221800Z 36008KT 15SM VCSH BKN034 OVC055 16/13 A2985 RMK SC5SC3 SLP111

CYWG;2011-06-22 19:00;CYWG 221900Z 35011KT 15SM -SHRA BKN036 OVC049 15/14 A2986 RMK SC6SC2 SLP113

CYWG;2011-06-22 19:45;CYWG 221945Z 33009KT 15SM OVC036 17/ RMK SC8

CYWG;2011-06-22 20:00;CYWG 222000Z 32010KT 15SM OVC038 16/14 A2985 RMK SC8 SLP111

CYWG;2011-06-22 21:00;CYWG 222100Z 01009KT 15SM OVC042 19/13 A2985 RMK SC8 SLP111

CYWG;2011-06-22 22:00;CYWG 222200Z 35008KT 15SM BKN044 OVC063 19/14 A2986 RMK SC6SC2 SLP113

CYWG;2011-06-22 23:00;CYWG 222300Z 36010KT 15SM OVC054 20/13 A2986 RMK SC8 SLP114

CYWG;2011-06-23 00:00;CYWG 230000Z 02010KT 15SM BKN060 OVC120 19/12 A2986 RMK SC5AC3 SLP114

CYWG;2011-06-23 01:00;CYWG 230100Z 36006KT 15SM FEW060 SCT096 OVC120 17/13 A2986 RMK SC1AC3AC4 SLP114

CYWG;2011-06-23 02:00;CYWG 230200Z 34003KT 15SM BKN029 OVC099 16/14 A2987 RMK SC6AC2 SLP116

CYWG;2011-06-23 03:00;CYWG 230300Z 32004KT 15SM BKN056 OVC089 16/14 A2988 RMK SC6AC2 SLP122

CYWG;2011-06-23 05:00;CYWG 230500Z CCA 27006KT 15SM -SHRA OVC088 15/13 A2988 RMK AC8 SLP121

CYWG;2011-06-23 06:00;CYWG 230600Z 29009KT 15SM -SHRA OVC080 15/13 A2986 RMK AC8 SLP116

CYWG;2011-06-23 06:40;CYWG 230640Z 28007KT 15SM OVC091 15/ RMK AC8

CYWG;2011-06-23 07:00;CYWG 230700Z 30006KT 15SM OVC091 14/13 A2986 RMK AC8 SLP114

CYWG;2011-06-23 08:00;CYWG 230800Z 29008KT 15SM BKN099 13/13 A2986 RMK AC6 SLP115

CYWG;2011-06-23 09:00;CYWG 230900Z 30007KT 15SM SCT099 SCT250 12/12 A2986 RMK AC3CI0 SLP114

CYWG;2011-06-23 10:00;CYWG 231000Z 31007KT 15SM FEW100 SCT140 SCT250 11/11 A2986 RMK AC2AC2CI0 SLP115

CYWG;2011-06-23 11:00;CYWG 231100Z 03003KT 15SM FEW100 FEW140 FEW250 11/10 A2987 RMK AC1AC2CI0 SLP119

CYWG;2011-06-23 12:00;CYWG 231200Z 33004KT 15SM FEW140 14/12 A2987 RMK AC2 SLP119

CYWG;2011-06-23 13:00;CYWG 231300Z 35006KT 15SM FEW140 16/12 A2988 RMK AC1 SLP120

CYWG;2011-06-23 14:00;CYWG 231400Z 36006KT 15SM FEW150 18/13 A2988 RMK AC1 SLP121

CYWG;2011-06-23 15:00;CYWG 231500Z 31005KT 15SM FEW150 19/13 A2987 RMK AC1 SLP119

CYWG;2011-06-23 16:00;CYWG 231600Z 35006KT 15SM FEW150 21/13 A2987 RMK AC1 SLP118

CYWG;2011-06-23 17:00;CYWG 231700Z 33009KT 15SM FEW150 23/13 A2987 RMK AC1 SLP116

CYWG;2011-06-23 18:00;CYWG 231800Z 36008KT 15SM FEW150 24/12 A2986 RMK AC1 SLP112

CYWG;2011-06-23 19:00;CYWG 231900Z 32007KT 15SM FEW093 24/14 A2984 RMK AC1 SLP108

CYWG;2011-06-23 20:00;CYWG 232000Z 32008KT 15SM FEW067 25/12 A2984 RMK CU2 SLP107

CYWG;2011-06-23 21:00;CYWG 232100Z 33008KT 15SM FEW067 25/11 A2983 RMK CU2 SLP105

CYWG;2011-06-23 22:00;CYWG 232200Z 34005KT 15SM FEW067 25/10 A2983 RMK CU2 SLP104

CYWG;2011-06-23 23:00;CYWG 232300Z 30005KT 15SM FEW065 25/11 A2982 RMK CU1 SLP100

CYWG;2011-06-24 00:00;CYWG 240000Z 30008KT 15SM FEW059 FEW250 24/13 A2982 RMK CU1CI1 SLP098

CYWG;2011-06-24 01:00;CYWG 240100Z 30007KT 15SM FEW055 FEW250 23/13 A2981 RMK CU1CI0 SLP097

CYWG;2011-06-24 02:00;CYWG 240200Z 29005KT 15SM FEW250 20/14 A2981 RMK CI0 SLP095

CYWG;2011-06-24 03:00;CYWG 240300Z 30003KT 15SM SKC 17/14 A2981 RMK SLP096

CYWG;2011-06-24 04:00;CYWG 240400Z 28002KT 15SM SKC 15/13 A2980 RMK SLP095

CYWG;2011-06-24 05:00;CYWG 240500Z 27003KT 15SM SKC 15/12 A2982 RMK SLP099

CYWG;2011-06-24 06:00;CYWG 240600Z 28005KT 15SM SKC 15/11 A2982 RMK SLP099

CYWG;2011-06-24 07:00;CYWG 240700Z 00000KT 15SM SKC 13/11 A2983 RMK SLP101

CYWG;2011-06-24 08:00;CYWG 240800Z 00000KT 15SM SKC 14/12 A2982 RMK SLP100

CYWG;2011-06-24 09:00;CYWG 240900Z 17005KT 15SM FEW120 12/11 A2982 RMK AC0 SLP100

CYWG;2011-06-24 10:00;CYWG 241000Z 17005KT 15SM FEW120 12/11 A2981 RMK AC0 SLP096

CYWG;2011-06-24 11:00;CYWG 241100Z 18005KT 15SM FEW120 BKN270 13/12 A2981 RMK AC1CI0 SLP097

CYWG;2011-06-24 12:00;CYWG 241200Z 19004KT 15SM FEW120 SCT270 16/13 A2982 RMK AC1CI0 SLP100

CYWG;2011-06-24 13:00;CYWG 241300Z 22003KT 15SM FEW120 SCT270 19/13 A2982 RMK AC1CI0 SLP100

CYWG;2011-06-24 14:00;CYWG 241400Z 23005KT 15SM FEW120 FEW270 21/14 A2982 RMK AC1CI1 SLP100

CYWG;2011-06-24 15:00;CYWG 241500Z 21006KT 15SM FEW120 SCT270 23/15 A2982 RMK AC1CI1 SLP099

CYWG;2011-06-24 16:00;CYWG 241600Z 18007KT 15SM FEW035 FEW120 BKN270 24/15 A2981 RMK CU1AC1CI1 CU TR SLP096

CYWG;2011-06-24 17:00;CYWG 241700Z 19009KT 15SM FEW045 SCT120 BKN270 24/14 A2981 RMK CU2AC1CI0 SLP096

CYWG;2011-06-24 18:00;CYWG 241800Z 21010KT 15SM SCT047 SCT120 BKN270 24/14 A2981 RMK CU3AC1CI1 AC TR SLP095

CYWG;2011-06-24 19:00;CYWG 241900Z 23008KT 15SM SCT051 BKN098 24/14 A2980 RMK CU3AS3 SLP094

CYWG;2011-06-24 20:00;CYWG 242000Z 20009KT 15SM FEW046 SCT079 BKN250 24/15 A2980 RMK CU2AC1CS3 SLP092

CYWG;2011-06-24 21:00;CYWG 242100Z 22009KT 15SM FEW046 SCT080 BKN250 25/14 A2979 RMK CU2AC1CS3 SLP090

CYWG;2011-06-24 22:00;CYWG 242200Z 21008KT 15SM FEW049 OVC250 24/15 A2979 RMK CU2CS6 SLP089

CYWG;2011-06-24 23:00;CYWG 242300Z 21009KT 15SM SCT048 OVC250 24/14 A2979 RMK CU3CS3 SLP088

CYWG;2011-06-25 00:00;CYWG 250000Z 23008KT 15SM FEW048 BKN250 23/15 A2978 RMK CU2CS4 SLP086

CYWG;2011-06-25 01:00;CYWG 250100Z 23009KT 15SM FEW045 SCT090 BKN250 22/15 A2978 RMK CU2AC2CS2 SLP085

CYWG;2011-06-25 02:00;CYWG 250200Z 22004KT 15SM FEW044 BKN110 BKN250 21/16 A2978 RMK SC1AC5CS2 SLP087

CYWG;2011-06-25 03:00;CYWG 250300Z 23003KT 15SM FEW045 BKN110 BKN250 20/16 A2981 RMK SC1AC5CS2 SLP094

CYWG;2011-06-25 04:00;CYWG 250400Z 22003KT 15SM BKN110 BKN250 19/15 A2980 RMK AC6CS2 SLP090

CYWG;2011-06-25 05:00;CYWG 250500Z 18005KT 15SM BKN110 19/15 A2980 RMK AC6 SLP091

CYWG;2011-06-25 06:00;CYWG 250600Z 18005KT 15SM OVC120 19/15 A2981 RMK AC8 SLP094

CYWG;2011-06-25 07:00;CYWG 250700Z 18006KT 15SM OVC120 18/15 A2980 RMK AC8 SLP090

CYWG;2011-06-25 08:00;CYWG 250800Z 20006KT 15SM SCT120 BKN250 18/15 A2981 RMK AC3CI0 SLP094

CYWG;2011-06-25 09:00;CYWG 250900Z 22005KT 15SM FEW120 16/15 A2981 RMK AC2 SLP095

CYWG;2011-06-25 10:00;CYWG 251000Z 16003KT 15SM FEW120 14/14 A2980 RMK AC2 SLP093

CYWG;2011-06-25 11:00;CYWG 251100Z 17006KT 15SM FEW120 13/13 A2980 RMK AC1 SLP093

CYWG;2011-06-25 12:00;CYWG 251200Z 17003KT 15SM FEW120 16/15 A2980 RMK AC1 SLP093

CYWG;2011-06-25 13:00;CYWG 251300Z 19007KT 10SM SKC 19/15 A2980 RMK HZ SLP094

CYWG;2011-06-25 14:00;CYWG 251400Z 17009KT 10SM FEW140 20/16 A2981 RMK AC1 HZ SLP095

CYWG;2011-06-25 15:00;CYWG 251500Z 18010KT 10SM FEW140 21/16 A2980 RMK AC1 HZ SLP093

CYWG;2011-06-25 16:00;CYWG 251600Z 18011KT 12SM FEW025 FEW140 FEW270 23/17 A2980 RMK CU1AC1CI0 HZ AC TR SLP092

CYWG;2011-06-25 17:00;CYWG 251700Z 19013KT 12SM FEW032 BKN270 23/16 A2980 RMK CU1CI1 HZ SLP093

CYWG;2011-06-25 18:00;CYWG 251800Z 18015KT 15SM FEW041 FEW140 BKN270 24/14 A2980 RMK CU1AC1CI0 SLP092

CYWG;2011-06-25 19:00;CYWG 251900Z 19013G19KT 15SM FEW044 SCT078 BKN280 25/14 A2978 RMK CU1AS2CI2 TR CU SLP085

CYWG;2011-06-25 20:00;CYWG 252000Z 19012G18KT 15SM FEW043 FEW078 BKN280 25/16 A2978 RMK CU2AC1CI1 TR AC SLP086

CYWG;2011-06-25 21:00;CYWG 252100Z 19012G19KT 15SM SCT041 BKN280 25/17 A2977 RMK CU2CS2 SLP083

CYWG;2011-06-25 22:00;CYWG 252200Z 18011G16KT 15SM SCT038 BKN280 25/17 A2976 RMK CU3CS4 SLP077

CYWG;2011-06-25 23:00;CYWG 252300Z 19007KT 15SM FEW038 BKN280 25/17 A2974 RMK CU2CS4 SLP072

CYWG;2011-06-26 00:00;CYWG 260000Z 17008KT 15SM BKN038 BKN280 24/18 A2974 RMK CU5CS2 TCU EMBD SLP073

CYWG;2011-06-26 01:00;CYWG 260100Z 16010KT 15SM FEW038 SCT084 BKN280 24/18 A2972 RMK CU1AC2CS3 SLP065

CYWG;2011-06-26 02:00;CYWG 260200Z 16007KT 15SM SCT084 OVC240 23/18 A2973 RMK AC3CS5 SLP068

CYWG;2011-06-26 03:00;CYWG 260300Z 16008KT 15SM SCT064 OVC240 23/18 A2971 RMK SC4CS4 SLP062

CYWG;2011-06-26 03:30;CYWG 260330Z 16012KT 15SM TS SCT064CB OVC240 23/ RMK CB4CS4 LTGCC DIST W

CYWG;2011-06-26 04:00;CYWG 260400Z 16014G21KT 15SM TS FEW064CB BKN077 OVC240 23/18 A2970 RMK CB2AC2CS3 LTGCC DIST NW SLP058

CYWG;2011-06-26 04:17;CYWG 260417Z 18013G20KT 15SM TSRA SCT029CB BKN077 OVC240 22/ RMK CB3AC2CS2 LTGCC DIST NW

CYWG;2011-06-26 05:00;CYWG 260500Z 20022G34KT 15SM -TSRA BKN015CB OVC081 19/17 A2969 RMK CB6AC2 SLP053

CYWG;2011-06-26 05:42;CYWG 260542Z 16020G26KT 15SM -TSRA BKN011CB OVC075 18/ RMK CB5AC3 LTGCC SE

CYWG;2011-06-26 06:00;CYWG 260600Z 17014G20KT 15SM BKN011 OVC096 19/15 A2965 RMK SC5AC3 RETS SLP040

CYWG;2011-06-26 06:16;CYWG 260616Z 26008KT 15SM BKN015 OVC088 18/ RMK SC5AC3

CYWG;2011-06-26 07:00;CYWG 260700Z 24008KT 15SM SCT015 OVC088 18/15 A2972 RMK SC4AC4 PRESRR SLP064

CYWG;2011-06-26 08:00;CYWG 260800Z 20009KT 15SM FEW020 SCT088 OVC120 17/15 A2971 RMK SC2AC2AC4 SLP059

CYWG;2011-06-26 09:00;CYWG 260900Z 20013KT 15SM FEW088 BKN120 17/15 A2970 RMK AC2AC2 SLP059

CYWG;2011-06-26 10:00;CYWG 261000Z 22008KT 15SM FEW120 FEW250 16/15 A2971 RMK AC1CI0 SLP061

CYWG;2011-06-26 11:00;CYWG 261100Z 23005KT 15SM BKN015 16/15 A2972 RMK SC6 SLP065

CYWG;2011-06-26 11:41;CYWG 261141Z 20005KT 15SM BKN010 16/ RMK SC6

CYWG;2011-06-26 12:00;CYWG 261200Z 21006KT 15SM SCT010 BKN081 16/15 A2972 RMK SC3AC1 SLP066

CYWG;2011-06-26 13:00;CYWG 261300Z 21007KT 15SM SCT008 18/16 A2973 RMK SC2 SLP068

CYWG;2011-06-26 14:00;CYWG 261400Z 22006KT 15SM FEW010 BKN250 19/16 A2974 RMK SF1CI2 SLP071

CYWG;2011-06-26 15:00;CYWG 261500Z 19005KT 15SM FEW020 FEW140 BKN250 20/17 A2973 RMK CF1AC1CI2 CF AC TR SLP067

CYWG;2011-06-26 16:00;CYWG 261600Z 22005KT 15SM FEW020 FEW140 BKN250 21/17 A2974 RMK CF1AC1CI4 CF AC TR SLP069

CYWG;2011-06-26 17:00;CYWG 261700Z 20007KT 15SM FEW025 FEW140 BKN250 22/17 A2974 RMK CU1AC1CI3 OBS TAKEN +06 SLP069

CYWG;2011-06-26 18:00;CYWG 261800Z 17007KT 15SM FEW030 SCT088 BKN140 22/15 A2973 RMK CU1AC2AC3 SLP069

CYWG;2011-06-26 19:00;CYWG 261900Z 21009KT 15SM FEW030 OVC140 22/15 A2974 RMK CU1AC7 SLP072

CYWG;2011-06-26 20:00;CYWG 262000Z 23007KT 15SM FEW025 OVC140 21/15 A2973 RMK CU1AC7 SLP067

CYWG;2011-06-26 20:40;CYWG 262040Z 23006KT 15SM -SHRA FEW025 FEW081 OVC140 21/ RMK SC1AC2AC6

CYWG;2011-06-26 21:00;CYWG 262100Z 22006KT 15SM -SHRA FEW025 FEW057 SCT081 OVC140 21/17 A2974 RMK CU1SC1AC2AC5 SLP073

CYWG;2011-06-26 22:00;CYWG 262200Z 18007KT 15SM FEW028 FEW074 BKN140 21/14 A2970 RMK CU1AC1AC6 SLP061

CYWG;2011-06-26 23:00;CYWG 262300Z 17006KT 15SM FEW070 BKN140 BKN250 21/15 A2969 RMK AC1AC6CI1 SLP056

CYWG;2011-06-27 00:00;CYWG 270000Z 17011KT 15SM FEW019 SCT140 BKN250 22/18 A2969 RMK CF1AC3CI1 SLP054

CYWG;2011-06-27 01:00;CYWG 270100Z 17010KT 15SM FEW140 SCT250 20/14 A2969 RMK AC1CI1 SLP055

CYWG;2011-06-27 02:00;CYWG 270200Z 18009KT 15SM FEW140 SCT250 18/12 A2970 RMK AC2CI1 SLP060

CYWG;2011-06-27 03:00;CYWG 270300Z 18008KT 15SM FEW140 17/13 A2971 RMK AC1 SLP062

CYWG;2011-06-27 04:00;CYWG 270400Z 19008KT 15SM FEW140 16/13 A2971 RMK AC1 SLP062

CYWG;2011-06-27 05:00;CYWG 270500Z 20010KT 15SM SKC 16/13 A2971 RMK SLP063

CYWG;2011-06-27 06:00;CYWG 270600Z 19011KT 15SM SKC 15/13 A2972 RMK SLP065

CYWG;2011-06-27 07:00;CYWG 270700Z 19006KT 15SM FEW120 14/13 A2970 RMK AC1 SLP059

CYWG;2011-06-27 08:00;CYWG 270800Z 24003KT 15SM BKN110 14/13 A2971 RMK AC5 SLP061

CYWG;2011-06-27 09:00;CYWG 270900Z 18005KT 15SM BKN110 BKN210 13/13 A2970 RMK AC4CI1 SLP058

CYWG;2011-06-27 10:00;CYWG 271000Z 17004KT 15SM BKN080 BKN120 14/13 A2969 RMK AC4AC1 SLP056

CYWG;2011-06-27 11:00;CYWG 271100Z 25004KT 15SM BKN080 BKN120 14/14 A2969 RMK AC5AC2 SLP057

CYWG;2011-06-27 12:00;CYWG 271200Z 26004KT 15SM FEW080 BKN120 15/13 A2968 RMK AC2AC5 SLP053

CYWG;2011-06-27 13:00;CYWG 271300Z 33005KT 15SM SCT093 BKN120 16/15 A2971 RMK AC4AC3 SLP061

CYWG;2011-06-27 14:00;CYWG 271400Z 01011G20KT 15SM SCT072 BKN090 17/13 A2973 RMK AC3AC4 SLP068

CYWG;2011-06-27 15:00;CYWG 271500Z 36016KT 15SM OVC015 17/13 A2978 RMK SC8 SLP088

CYWG;2011-06-27 16:00;CYWG 271600Z 01015KT 15SM BKN017 BKN085 18/14 A2982 RMK SC6AC2 SLP101

CYWG;2011-06-27 17:00;CYWG 271700Z 35015KT 15SM BKN018 17/13 A2985 RMK SC7 SLP111

CYWG;2011-06-27 18:00;CYWG 271800Z 35015G20KT 15SM BKN020 BKN240 16/12 A2988 RMK SC6CI0 SLP120

CYWG;2011-06-27 19:00;CYWG 271900Z 35015KT 15SM BKN020 OVC240 16/12 A2990 RMK SC7CI1 SLP126

CYWG;2011-06-27 20:00;CYWG 272000Z 35014KT 15SM BKN022 18/11 A2990 RMK SC7 SLP129

CYWG;2011-06-27 21:00;CYWG 272100Z 34015KT 15SM BKN029 18/11 A2992 RMK SC6 SLP134

CYWG;2011-06-27 22:00;CYWG 272200Z 35015G22KT 15SM BKN033 19/11 A2993 RMK SC5 SLP139

CYWG;2011-06-27 23:00;CYWG 272300Z 35013KT 15SM FEW037 FEW250 18/10 A2995 RMK SC2CI1 SLP144

CYWG;2011-06-28 00:00;CYWG 280000Z 32014G19KT 15SM FEW039 FEW250 18/10 A2996 RMK SC2CI1 SLP148

CYWG;2011-06-28 01:00;CYWG 280100Z 33013KT 15SM FEW039 FEW250 17/09 A2998 RMK SC1CI1 SLP155

CYWG;2011-06-28 02:00;CYWG 280200Z 34009KT 15SM FEW040 FEW250 15/08 A2999 RMK SC1CI1 SLP160

CYWG;2011-06-28 03:00;CYWG 280300Z 36005KT 15SM SKC 11/08 A3002 RMK SLP169

CYWG;2011-06-28 04:00;CYWG 280400Z 34004KT 15SM SKC 10/07 A3003 RMK SLP175

CYWG;2011-06-28 05:00;CYWG 280500Z 34005KT 15SM SKC 09/06 A3004 RMK SLP178

CYWG;2011-06-28 06:00;CYWG 280600Z 35003KT 15SM SKC 08/05 A3004 RMK SLP179

CYWG;2011-06-28 07:00;CYWG 280700Z 30002KT 15SM SKC 07/05 A3004 RMK SLP179

CYWG;2011-06-28 08:00;CYWG 280800Z 28003KT 15SM SKC 06/05 A3004 RMK SLP179

CYWG;2011-06-28 09:00;CYWG 280900Z 28002KT 15SM FEW250 04/04 A3005 RMK CI0 SLP183

CYWG;2011-06-28 10:00;CYWG 281000Z 28002KT 15SM FEW250 05/05 A3006 RMK CI1 SLP185

CYWG;2011-06-28 11:00;CYWG 281100Z 00000KT 15SM FEW250 05/04 A3007 RMK CI1 SLP190

CYWG;2011-06-28 12:00;CYWG 281200Z 00000KT 15SM SCT250 09/08 A3007 RMK CI1 SLP189

CYWG;2011-06-28 13:00;CYWG 281300Z 16004KT 15SM SCT250 12/10 A3007 RMK CI1 SLP188

CYWG;2011-06-28 14:00;CYWG 281400Z 16006KT 15SM SCT250 15/11 A3007 RMK CI1 SLP188

CYWG;2011-06-28 15:00;CYWG 281500Z 16008KT 15SM FEW024 SCT250 16/11 A3006 RMK CF1CI1 SLP184

CYWG;2011-06-28 16:00;CYWG 281600Z 17008KT 15SM SCT250 17/08 A3005 RMK CI1 SLP180

CYWG;2011-06-28 17:00;CYWG 281700Z 19008G15KT 15SM SCT250 18/08 A3004 RMK CI1 SLP176

CYWG;2011-06-28 18:00;CYWG 281800Z 15008KT 15SM BKN250 19/08 A3002 RMK CI2 SLP171

CYWG;2011-06-28 19:00;CYWG 281900Z 15013KT 15SM FEW030 BKN250 20/07 A3000 RMK CU1CI2 SLP165

CYWG;2011-06-28 20:00;CYWG 282000Z 15012KT 15SM FEW040 BKN250 21/10 A2999 RMK CU1CI2 SLP159

CYWG;2011-06-28 21:00;CYWG 282100Z 16010KT 15SM FEW040 SCT250 22/11 A2997 RMK CU1CI2 CU TR SLP154

CYWG;2011-06-28 22:00;CYWG 282200Z 17014KT 15SM FEW040 BKN250 22/12 A2995 RMK CU1CI2 CU TR SLP146

CYWG;2011-06-28 23:00;CYWG 282300Z 18015KT 15SM FEW040 FEW150 BKN250 22/11 A2994 RMK CU1AC1CI2 CU AC TR SLP143

CYWG;2011-06-29 00:00;CYWG 290000Z 16011KT 15SM FEW040 FEW130 BKN250 21/13 A2992 RMK CU1AC2CI2 CU TR SLP136

CYWG;2011-06-29 01:00;CYWG 290100Z 16014KT 15SM FEW130 BKN250 20/13 A2991 RMK AC2CI2 SLP132

CYWG;2011-06-29 02:00;CYWG 290200Z 17009G17KT 15SM FEW130 BKN250 20/13 A2990 RMK AC2CI2 SLP129

CYWG;2011-06-29 03:00;CYWG 290300Z 16012KT 15SM SCT090 BKN120 BKN220 19/13 A2990 RMK AC2AC5CI0 SLP126

CYWG;2011-06-29 04:00;CYWG 290400Z 17016KT 15SM BKN120 19/13 A2989 RMK AC2 SLP124

CYWG;2011-06-29 05:00;CYWG 290500Z 17012G17KT 15SM BKN110 18/13 A2988 RMK AC6 SLP122

CYWG;2011-06-29 06:00;CYWG 290600Z 16013KT 15SM FEW110 18/13 A2987 RMK AC1 SLP116

CYWG;2011-06-29 07:00;CYWG 290700Z 16010KT 15SM FEW110 17/13 A2986 RMK AC1 SLP114

CYWG;2011-06-29 08:00;CYWG 290800Z 16010KT 15SM SKC 16/13 A2986 RMK SLP113

CYWG;2011-06-29 09:00;CYWG 290900Z 14010KT 15SM SKC 15/13 A2983 RMK SLP104

CYWG;2011-06-29 10:00;CYWG 291000Z 15011KT 15SM FEW210 15/13 A2982 RMK CI1 SLP100

CYWG;2011-06-29 11:00;CYWG 291100Z 16009KT 15SM SCT120 BKN210 16/13 A2981 RMK AC3CI1 SLP095

CYWG;2011-06-29 12:00;CYWG 291200Z 16012G19KT 15SM SCT120 BKN210 18/13 A2980 RMK AC4CI2 SLP092

CYWG;2011-06-29 13:00;CYWG 291300Z 16011G16KT 15SM FEW120 BKN210 18/14 A2982 RMK AC2CI2 SLP098

CYWG;2011-06-29 14:00;CYWG 291400Z 18014KT 15SM SCT092 BKN210 21/15 A2980 RMK AC3CI1 OBS TAKEN +4 SLP094

CYWG;2011-06-29 15:00;CYWG 291500Z 16015G20KT 15SM FEW082 OVC210 22/15 A2977 RMK AC2CI4 SLP081

CYWG;2011-06-29 16:00;CYWG 291600Z 16014G19KT 15SM FEW100 BKN210 23/16 A2974 RMK AC2CI3 SLP073

CYWG;2011-06-29 17:00;CYWG 291700Z 15016KT 15SM FEW084 BKN210 BKN250 24/17 A2972 RMK AC2CI3CI0 SLP064

CYWG;2011-06-29 18:00;CYWG 291800Z 15019G25KT 15SM SCT084 BKN210 BKN250 26/17 A2969 RMK AC3CI2CI0 ACC ASOCTD SLP053

CYWG;2011-06-29 19:00;CYWG 291900Z 15014KT 15SM SCT084 BKN220 27/18 A2970 RMK AC4CI3 SLP058

CYWG;2011-06-29 20:00;CYWG 292000Z 15018G25KT 15SM FEW084 BKN220 29/19 A2968 RMK AC2CI2 SLP051

CYWG;2011-06-29 21:00;CYWG 292100Z 16018G24KT 15SM FEW084 BKN220 30/19 A2967 RMK AC2CI2 SLP046

CYWG;2011-06-29 22:00;CYWG 292200Z 16015G22KT 15SM SCT042 BKN220 29/20 A2964 RMK SC3CI2 SLP038

CYWG;2011-06-29 23:00;CYWG 292300Z 16018KT 15SM FEW085 SCT220 30/20 A2963 RMK AC1CI2 SLP034

CYWG;2011-06-30 00:00;CYWG 300000Z 18024G30KT 15SM FEW220 29/19 A2961 RMK CI2 SLP026

CYWG;2011-06-30 01:00;CYWG 300100Z 17017G22KT 15SM FEW046 28/20 A2963 RMK SC1 SLP031

CYWG;2011-06-30 02:00;CYWG 300200Z 16012G20KT 15SM FEW250 27/19 A2961 RMK CI1 SLP024

CYWG;2011-06-30 03:00;CYWG 300300Z 15014KT 15SM BKN051 OVC220 26/19 A2961 RMK SC6CI0 SLP025

CYWG;2011-06-30 04:00;CYWG 300400Z 15016G24KT 15SM SCT045 25/19 A2959 RMK SC3 SLP020

CYWG;2011-06-30 05:00;CYWG 300500Z 15015G20KT 15SM FEW045 25/18 A2960 RMK SC2 SLP021

CYWG;2011-06-30 06:00;CYWG 300600Z 15014KT 15SM SKC 24/18 A2959 RMK SLP017

CYWG;2011-06-30 07:00;CYWG 300700Z 16014G20KT 15SM SCT250 24/18 A2957 RMK CI2 SLP011

CYWG;2011-06-30 08:00;CYWG 300800Z 15013G21KT 15SM SCT250 23/18 A2955 RMK CI2 SLP005

CYWG;2011-06-30 09:00;CYWG 300900Z 14013KT 15SM BKN250 22/18 A2954 RMK CI3 SLP002

CYWG;2011-06-30 10:00;CYWG 301000Z 29007KT 15SM SCT043 OVC250 21/19 A2963 RMK SC3CI4 PRESRR SLP030

CYWG;2011-06-30 11:00;CYWG 301100Z 10004KT 15SM FEW047 SCT054 OVC280 22/19 A2960 RMK SC2CU2CI3 SLP019

CYWG;2011-06-30 12:00;CYWG 301200Z 09008KT 15SM SCT050 OVC270 22/20 A2956 RMK SC3CI4 SLP008

CYWG;2011-06-30 13:00;CYWG 301300Z 14014G19KT 15SM FEW050 FEW100 BKN260 23/20 A2954 RMK SC1AC1CI2 SLP000

CYWG;2011-06-30 14:00;CYWG 301400Z 15018G24KT 15SM FEW050 BKN250 24/21 A2951 RMK SC1CI2 SLP993

CYWG;2011-06-30 15:00;CYWG 301500Z 14022KT 15SM FEW050 FEW100 BKN260 27/23 A2946 RMK SC1AC2CI1 SLP974

CYWG;2011-06-30 16:00;CYWG 301600Z 17013G19KT 15SM SCT018 BKN050 BKN260 27/23 A2950 RMK SC2SC1CI2 SLP987

CYWG;2011-06-30 17:00;CYWG 301700Z 17021G27KT 15SM BKN020 BKN260 29/24 A2946 RMK SC3CI2 SLP974

CYWG;2011-06-30 18:00;CYWG 301800Z 18018G26KT 15SM BKN024 BKN270 30/24 A2948 RMK CU5CI1 SLP980

CYWG;2011-06-30 19:00;CYWG 301900Z 17017KT 15SM BKN026 BKN270 30/24 A2949 RMK CU5CI2 SLP982

CYWG;2011-06-30 20:00;CYWG 302000Z 19015G22KT 15SM SCT032 BKN140 BKN270 32/24 A2948 RMK CU4AC2CI0 SLP981

CYWG;2011-06-30 21:00;CYWG 302100Z 19019KT 15SM FEW041 SCT140 BKN270 34/22 A2947 RMK CU2AC1CI0 SLP977

CYWG;2011-06-30 22:00;CYWG 302200Z 20010KT 15SM SCT047 OVC120 32/23 A2949 RMK CU4AC3 SLP982

CYWG;2011-06-30 23:00;CYWG 302300Z 28008KT 15SM FEW047 OVC120 30/24 A2951 RMK CU2AC6 SLP988

CYWG;2011-07-01 01:00;CYWG 010100Z 28005KT 15SM FEW100 SCT140 BKN270 28/24 A2954 RMK AC2AC2CI2 SLP000

CYWG;2011-07-01 02:00;CYWG 010200Z 25004KT 15SM FEW096 BKN270 28/25 A2955 RMK AC2CI2 SLP005

CYWG;2011-07-01 03:00;CYWG 010300Z 25007KT 15SM FEW100 BKN270 26/21 A2958 RMK AC1CI2 SLP015

CYWG;2011-07-01 04:00;CYWG 010400Z 26007KT 15SM FEW100 BKN270 24/20 A2960 RMK AC1CI2 SLP021

CYWG;2011-07-01 05:00;CYWG 010500Z 27008KT 15SM FEW100 BKN270 23/18 A2961 RMK AC1CI2 SLP025

CYWG;2011-07-01 06:00;CYWG 010600Z 26008KT 15SM BKN270 22/16 A2964 RMK CI1 SLP034

CYWG;2011-07-01 07:00;CYWG 010700Z 26008KT 15SM SCT120 BKN270 21/16 A2964 RMK AC3CI2 SLP036

CYWG;2011-07-01 08:00;CYWG 010800Z 27008KT 15SM FEW120 BKN270 21/15 A2965 RMK AC2CI2 SLP039

CYWG;2011-07-01 09:00;CYWG 010900Z 27008KT 15SM FEW120 BKN270 20/15 A2965 RMK AC2CI4 SLP039

CYWG;2011-07-01 10:00;CYWG 011000Z 27007KT 15SM SCT140 BKN270 20/16 A2967 RMK AC3CI2 SLP043

CYWG;2011-07-01 11:00;CYWG 011100Z 27007KT 15SM FEW100 SCT140 OVC250 19/17 A2968 RMK AC2AS2CI2 SLP048

CYWG;2011-07-01 12:00;CYWG 011200Z 27005KT 15SM SCT080 BKN120 OVC250 20/17 A2970 RMK AC3AS2CI1 SLP056

CYWG;2011-07-01 13:00;CYWG 011300Z 26005KT 15SM -SHRA FEW080 BKN120 OVC250 21/17 A2974 RMK AC2AC6CI1 SLP069

CYWG;2011-07-01 14:00;CYWG 011400Z 26004KT 15SM -SHRA SCT034 OVC120 21/18 A2975 RMK SC3AC5 ACC EMBD SLP073

CYWG;2011-07-01 15:00;CYWG 011500Z 25006KT 10SM -SHRA SCT015 BKN086 OVC120 20/18 A2976 RMK SC3AC2AC2 ACC EMBD SLP076

CYWG;2011-07-01 16:00;CYWG 011600Z 22008KT 15SM -SHRA SCT018 BKN080 BKN120 21/19 A2977 RMK SC3AC2AC2 ACC EMBD SLP081

CYWG;2011-07-01 16:18;CYWG 011618Z 23007KT 15SM VCSH SCT060 BKN080 BKN120 21/ RMK SC3AC2AC2 ACC EMBD SH NE

CYWG;2011-07-01 17:00;CYWG 011700Z 26007KT 15SM FEW080 BKN120 23/19 A2977 RMK AC2AC5 SH DIST NE ACC EMBD SLP081

CYWG;2011-07-01 18:00;CYWG 011800Z 28007KT 15SM FEW028 FEW080 BKN120 BKN250 27/19 A2977 RMK CU1AC1AC3CI1 SLP081

CYWG;2011-07-01 19:00;CYWG 011900Z 29011G16KT 15SM FEW060 FEW120 SCT250 29/16 A2977 RMK CU2AC1CI1 AC TR SLP079

CYWG;2011-07-01 20:00;CYWG 012000Z 29013G18KT 15SM SCT067 SCT120 BKN250 29/14 A2977 RMK CU3AC1CI1 SLP079

CYWG;2011-07-01 21:00;CYWG 012100Z 27012KT 15SM FEW072 SCT120 BKN250 29/13 A2978 RMK CU2AC1CI1 SLP082

CYWG;2011-07-01 22:00;CYWG 012200Z 28011KT 15SM FEW076 BKN250 28/12 A2978 RMK CU2CI3 SLP084

CYWG;2011-07-01 23:00;CYWG 012300Z 27008KT 15SM FEW075 BKN250 28/13 A2976 RMK CU2CI5 SLP076

CYWG;2011-07-02 00:00;CYWG 020000Z 25007KT 15SM FEW075 BKN250 27/13 A2977 RMK CU2CI3 SLP082

CYWG;2011-07-02 01:00;CYWG 020100Z 28011G16KT 15SM FEW078 BKN250 26/12 A2977 RMK CU2CI2 SLP081

CYWG;2011-07-02 02:00;CYWG 020200Z 27011KT 15SM FEW076 BKN250 24/11 A2978 RMK SC2CI1 SLP083

CYWG;2011-07-02 03:00;CYWG 020300Z 26008KT 15SM FEW080 SCT250 21/10 A2980 RMK AC1CI0 SLP090

CYWG;2011-07-02 04:00;CYWG 020400Z 26007KT 15SM FEW090 FEW250 20/11 A2981 RMK AC1CI0 SLP096

CYWG;2011-07-02 05:00;CYWG 020500Z 26010KT 15SM SKC 19/11 A2984 RMK SLP104

CYWG;2011-07-02 06:00;CYWG 020600Z 27009KT 15SM SKC 18/12 A2987 RMK SLP113

CYWG;2011-07-02 07:00;CYWG 020700Z 30009KT 15SM SKC 17/12 A2989 RMK SLP122

CYWG;2011-07-02 08:00;CYWG 020800Z 28006KT 15SM SKC 14/11 A2991 RMK SLP128

CYWG;2011-07-02 09:00;CYWG 020900Z 27006KT 15SM SKC 14/10 A2993 RMK SLP135

CYWG;2011-07-02 10:00;CYWG 021000Z 26007KT 15SM FEW150 14/11 A2994 RMK AC0 SLP139

CYWG;2011-07-02 11:00;CYWG 021100Z 27008KT 15SM FEW250 14/11 A2996 RMK CI1 SLP144

CYWG;2011-07-02 12:00;CYWG 021200Z 26008KT 15SM FEW250 15/11 A2998 RMK CI0 SLP152

CYWG;2011-07-02 13:00;CYWG 021300Z 27010KT 15SM SKC 17/12 A3000 RMK SLP161

CYWG;2011-07-02 14:00;CYWG 021400Z 28011KT 15SM SKC 19/13 A3001 RMK SLP163

CYWG;2011-07-02 15:00;CYWG 021500Z 28011KT 15SM SKC 21/12 A3002 RMK SLP165

CYWG;2011-07-02 16:00;CYWG 021600Z 29011KT 15SM FEW045 22/11 A3003 RMK CU1 CU TR SLP169

CYWG;2011-07-02 17:00;CYWG 021700Z 27015KT 15SM FEW060 23/08 A3003 RMK CU1 CU TR SLP170

CYWG;2011-07-02 18:00;CYWG 021800Z 27014KT 15SM FEW060 24/09 A3004 RMK CU1 SLP173

CYWG;2011-07-02 19:00;CYWG 021900Z 28013G19KT 15SM FEW071 FEW250 24/09 A3004 RMK CU1CI0 SLP173

CYWG;2011-07-02 20:00;CYWG 022000Z 30014KT 15SM FEW070 25/09 A3004 RMK CU1 SLP174

CYWG;2011-07-02 21:00;CYWG 022100Z 27015G20KT 15SM FEW072 25/09 A3004 RMK CU1 SLP173

CYWG;2011-07-02 22:00;CYWG 022200Z 28012G17KT 15SM FEW072 25/09 A3003 RMK CU1 SLP171

CYWG;2011-07-02 23:00;CYWG 022300Z 30008KT 15SM FEW074 25/09 A3003 RMK CU1 SLP169

CYWG;2011-07-03 00:00;CYWG 030000Z 31008KT 15SM FEW074 24/09 A3002 RMK CU1 SLP166

CYWG;2011-07-03 01:00;CYWG 030100Z 29008KT 15SM SKC 23/10 A3001 RMK SLP164

CYWG;2011-07-03 02:00;CYWG 030200Z 29004KT 15SM SKC 20/12 A3001 RMK SLP163

CYWG;2011-07-03 03:00;CYWG 030300Z 28002KT 15SM SKC 17/10 A3002 RMK SLP166

CYWG;2011-07-03 04:00;CYWG 030400Z 21004KT 15SM SKC 17/09 A3002 RMK SLP167

CYWG;2011-07-03 05:00;CYWG 030500Z 21004KT 15SM SKC 16/09 A3003 RMK SLP170

CYWG;2011-07-03 06:00;CYWG 030600Z 00000KT 15SM SKC 14/10 A3003 RMK SLP169

CYWG;2011-07-03 08:00;CYWG 030800Z 18004KT 15SM SKC 13/10 A3002 RMK SLP167

CYWG;2011-07-03 09:00;CYWG 030900Z 15002KT 15SM SKC 12/09 A3001 RMK SLP164

CYWG;2011-07-03 10:00;CYWG 031000Z 14004KT 15SM SKC 12/09 A3001 RMK SLP165

CYWG;2011-07-03 11:00;CYWG 031100Z 18004KT 15SM FEW090 13/10 A3003 RMK AC2 SLP169

CYWG;2011-07-03 12:00;CYWG 031200Z 17002KT 15SM FEW100 16/12 A3003 RMK AC2 SLP169

CYWG;2011-07-03 13:00;CYWG 031300Z 21007KT 15SM FEW100 SCT250 19/12 A3004 RMK AC2CI0 SLP175

CYWG;2011-07-03 14:00;CYWG 031400Z 21007KT 15SM SCT100 BKN250 20/13 A3003 RMK AC4CI0 SH DIST S SLP170

CYWG;2011-07-03 15:00;CYWG 031500Z 18008KT 15SM SCT100 BKN250 20/13 A3002 RMK AC3CI1 SLP167

CYWG;2011-07-03 16:00;CYWG 031600Z 18009KT 15SM SCT090 BKN250 22/14 A3001 RMK AC4CI1 SLP164

CYWG;2011-07-03 17:00;CYWG 031700Z 18009KT 15SM SCT090 BKN250 24/13 A3000 RMK AC3CI1 SLP161

CYWG;2011-07-03 18:00;CYWG 031800Z CCA 18008KT 15SM FEW050CB SCT090 BKN250 24/15 A2999 RMK CB1AC2CI1 CB W SLP159

CYWG;2011-07-03 18:45;CYWG 031845Z 21005KT 15SM -SHRA SCT038TCU BKN080 BKN250 22/ RMK TCU4AC2CI0

CYWG;2011-07-03 19:00;CYWG 031900Z 19006KT 15SM -SHRA FEW016 BKN034TCU BKN080 22/15 A2999 RMK CF1TCU4AC2 CB EMBDD SW-W SLP156

CYWG;2011-07-03 19:31;CYWG 031931Z 15003KT 15SM FEW021 SCT049 BKN080 BKN250 24/ RMK CF0CU3AC2CI0

CYWG;2011-07-03 20:00;CYWG 032000Z 14006KT 15SM FEW064 SCT120 BKN250 25/16 A2994 RMK CU2AC1CI0 SLP142

CYWG;2011-07-03 21:00;CYWG 032100Z 14010KT 15SM FEW099 FEW250 27/15 A2993 RMK AC2CI0 SLP136

CYWG;2011-07-03 22:00;CYWG 032200Z 14008KT 15SM FEW120 SCT250 28/16 A2990 RMK AC2CI0 SLP128

CYWG;2011-07-03 23:00;CYWG 032300Z 18009KT 15SM FEW086 FEW250 28/17 A2988 RMK AC1CI0 SLP121

CYWG;2011-07-04 00:00;CYWG 040000Z 16009KT 15SM FEW090 FEW250 28/17 A2987 RMK AC2CI0 SLP114

CYWG;2011-07-04 01:00;CYWG 040100Z 16008KT 15SM SCT060 27/17 A2985 RMK CU3 SLP109

CYWG;2011-07-04 02:00;CYWG 040200Z 13010KT 15SM FEW052 SCT084 26/17 A2984 RMK CU1AC2 SLP104

CYWG;2011-07-04 03:00;CYWG 040300Z 13009KT 15SM BKN052 BKN270 26/17 A2984 RMK CU5CI1 TCU ASOCTD SLP103

CYWG;2011-07-04 04:00;CYWG 040400Z 12009KT 15SM SCT052 BKN270 25/17 A2983 RMK SC4CI1 TCU ASOCTD SLP099

CYWG;2011-07-04 05:00;CYWG 040500Z 12009KT 15SM SCT052 SCT270 23/18 A2982 RMK SC3CI0 TCU ASOCTD CB TOP DIST E LTGIC SLP098

CYWG;2011-07-04 06:00;CYWG 040600Z 13010KT 15SM FEW052 FEW270 22/17 A2981 RMK SC2CI0 CB TOPS DIST E+SE LTGIC SLP095

CYWG;2011-07-04 07:00;CYWG 040700Z 13009KT 15SM FEW054 FEW120 FEW270 21/18 A2981 RMK SC1AC1CI0 CB TOP SE FRQ LTGIC SLP095

CYWG;2011-07-04 08:00;CYWG 040800Z 13006KT 15SM FEW050 FEW120 FEW270 20/18 A2980 RMK SC1AC1CI0 CB TOP SE FRQ LGTIC SLP092

CYWG;2011-07-04 09:00;CYWG 040900Z 14006KT 15SM FEW120 FEW270 20/18 A2980 RMK AC1CI1 CB TOPS E FRQ LTGIC SLP092

CYWG;2011-07-04 10:00;CYWG 041000Z 18006KT 15SM BKN052 BKN120 BKN270 21/19 A2980 RMK CU5AC1CI0 TCU ASOCTD SLP089

CYWG;2011-07-04 10:37;CYWG 041037Z 20008KT 8SM -SHRA BKN052TCU BKN120 BKN270 RMK TCU5AC1CI0 VIS E-S 4 W-NE 15

CYWG;2011-07-04 10:51;CYWG 041051Z 22006KT 15SM BKN052TCU BKN120 BKN270 RMK TCU5AC1CI0

CYWG;2011-07-04 11:00;CYWG 041100Z 22006KT 15SM BKN055TCU BKN120 BKN270 21/19 A2981 RMK TCU5AC1CI0 SLP094

CYWG;2011-07-04 11:11;CYWG 041111Z 21007KT 15SM -SHRA FEW011 BKN052TCU BKN080 BKN270 21/ RMK SF1TCU4AC1CI0

CYWG;2011-07-04 11:26;CYWG 041126Z 25006KT 15SM VCSH FEW011 BKN055TCU BKN080 BKN270 RMK SF1TCU4AC1CI0

CYWG;2011-07-04 12:00;CYWG 041200Z 21005KT 15SM FEW015 BKN064TCU BKN100 OVC270 21/19 A2980 RMK CU1TCU4AC2CI1 CB NE-E SLP090

CYWG;2011-07-04 13:00;CYWG 041300Z 16004KT 15SM FEW010 BKN050 BKN100 22/20 A2976 RMK CF1SC4AC2 TCU ASOCTD CB ENE-ESE PRESFR SLP077

CYWG;2011-07-04 14:00;CYWG 041400Z 09003KT 15SM SCT050 BKN120 23/20 A2976 RMK SC3AC2 SLP075

CYWG;2011-07-04 15:00;CYWG 041500Z 18006KT 15SM FEW025 SCT120 25/22 A2978 RMK CU2AC2 SLP082

CYWG;2011-07-04 16:00;CYWG 041600Z 19010KT 15SM FEW018 FEW057 SCT087 27/22 A2978 RMK CU1SC2AC1 SLP083

CYWG;2011-07-04 17:00;CYWG 041700Z 21008KT 15SM SCT086 SCT270 28/22 A2978 RMK AC2CI0 SLP082

CYWG;2011-07-04 18:00;CYWG 041800Z 19008KT 15SM SCT030 SCT086 BKN270 29/23 A2977 RMK CU3AC1CC0 TCU ASOCTD SLP081

CYWG;2011-07-04 19:00;CYWG 041900Z 20008KT 15SM FEW033 SCT048TCU BKN270 29/22 A2977 RMK CU2TCU2CI2 SLP080

CYWG;2011-07-04 19:27;CYWG 041927Z 16006KT 15SM TS FEW020 BKN038TCU BKN120 BKN270 27/ RMK CF1TCU4AC1CI1 CB EMBDD SW LTGCG SW

CYWG;2011-07-04 19:42;CYWG 041942Z 17007KT 15SM -TSRA FEW023 BKN076CB BKN097 27/ RMK CF2CB4AC2 LGTCG SW-W

CYWG;2011-07-04 20:00;CYWG 042000Z 16005KT 15SM -TSRA FEW020 BKN050CB BKN097 26/23 A2973 RMK CU2CB4AC2 LTGCG W-NW SLP065

CYWG;2011-07-04 20:17;CYWG 042017Z 01005KT 15SM TSRA SCT010 BKN050CB BKN097 26/ RMK CU2CB4AC1 CB LGTCG NW-N

CYWG;2011-07-04 20:21;CYWG 042021Z 35006KT 10SM TSRAGR SCT009 BKN050CB 26/ RMK CU2CB5 CB OVRHD + NW HAIL DIAM 3MM

CYWG;2011-07-04 20:36;CYWG 042036Z 06006G17KT 15SM -TSRA SCT009 BKN050CB BKN097 24/ RERA RMK CF2CB4AC2 CB E

CYWG;2011-07-04 21:00;CYWG 042100Z 06002KT 15SM -SHRA SCT010 SCT050TCU BKN100 BKN270 26/21 A2974 RMK CF2TCU2AC1CI0 CB EMBDD E RETS RERA SLP069

CYWG;2011-07-04 21:15;CYWG 042115Z 26007KT 15SM FEW022 SCT038 SCT056TCU BKN270 28/ RMK CF2CU2TCU1CI1 CB EMBDD E

CYWG;2011-07-04 22:00;CYWG 042200Z 28007KT 15SM BKN028 BKN070 BKN270 28/24 A2976 RMK CU5AC1CI0 TCU ASOCTD SLP076

CYWG;2011-07-04 23:00;CYWG 042300Z 30008KT 15SM SCT033 BKN071 BKN270 28/21 A2978 RMK CU4AC2CI0 SLP085

CYWG;2011-07-05 00:00;CYWG 050000Z 32017KT 15SM FEW033 SCT085 SCT270 27/20 A2978 RMK CU2AC1CI0 TCU ASOCTD SLP084

CYWG;2011-07-05 01:00;CYWG 050100Z 33011KT 15SM FEW040 FEW080 26/19 A2980 RMK CU1AC1 SLP089

CYWG;2011-07-05 02:00;CYWG 050200Z 32009KT 15SM FEW080 23/17 A2982 RMK AC2 SLP095

CYWG;2011-07-05 03:00;CYWG 050300Z 31009KT 15SM FEW080 BKN270 21/16 A2985 RMK ACC1CI1 SLP108

CYWG;2011-07-05 04:00;CYWG 050400Z 31007KT 15SM FEW080 FEW250 17/15 A2986 RMK AC1CI0 SLP112

CYWG;2011-07-05 05:00;CYWG 050500Z 27005KT 15SM SKC 17/15 A2989 RMK SLP122

CYWG;2011-07-05 06:00;CYWG 050600Z 29009KT 15SM SKC 16/14 A2991 RMK SLP127

CYWG;2011-07-05 07:00;CYWG 050700Z 31010KT 15SM SKC 17/14 A2991 RMK SLP129

CYWG;2011-07-05 08:00;CYWG 050800Z 00000KT 15SM SKC 15/13 A2993 RMK SLP134

CYWG;2011-07-05 09:00;CYWG 050900Z 29004KT 15SM SKC 14/13 A2994 RMK SLP141

CYWG;2011-07-05 10:00;CYWG 051000Z 27006KT 15SM FEW100 15/13 A2997 RMK AC1 SLP150

CYWG;2011-07-05 11:00;CYWG 051100Z 27007KT 15SM FEW060 14/13 A2998 RMK SC1 SC TR SLP154

CYWG;2011-07-05 12:00;CYWG 051200Z 29006KT 15SM FEW030 16/14 A2999 RMK SC1 SC TR SLP158

CYWG;2011-07-05 13:00;CYWG 051300Z 30008KT 15SM FEW250 19/16 A3000 RMK CI0 SLP160

CYWG;2011-07-05 14:00;CYWG 051400Z 31008KT 15SM FEW250 21/16 A3000 RMK CI0 SLP161

CYWG;2011-07-05 15:00;CYWG 051500Z 32009KT 15SM FEW035 BKN250 23/15 A3001 RMK CU1CI2 CU TR SLP163

CYWG;2011-07-05 16:00;CYWG 051600Z 31006KT 15SM FEW036 BKN250 24/14 A3001 RMK CU1CI2 SLP164

CYWG;2011-07-05 17:00;CYWG 051700Z 30010KT 15SM FEW040 SCT250 25/15 A3002 RMK CU1CI2 CU TR SLP166

CYWG;2011-07-05 18:00;CYWG 051800Z 32013KT 15SM FEW045 FEW250 26/12 A3002 RMK CU1CI1 SLP166

CYWG;2011-07-05 19:00;CYWG 051900Z 32012G20KT 15SM FEW055 FEW250 26/11 A3002 RMK CU1CI1 SLP167

CYWG;2011-07-05 20:00;CYWG 052000Z 32016KT 15SM FEW055 FEW250 26/09 A3003 RMK CU1CI1 SLP169

CYWG;2011-07-05 21:00;CYWG 052100Z 30014KT 15SM FEW055 FEW250 26/10 A3003 RMK CU1CI1 SLP172

CYWG;2011-07-05 22:00;CYWG 052200Z 32013G18KT 15SM FEW050 FEW250 26/09 A3004 RMK CU2CI1 SLP174

CYWG;2011-07-05 23:00;CYWG 052300Z 34012KT 15SM FEW050 26/06 A3003 RMK CU1 SLP172

CYWG;2011-07-06 00:00;CYWG 060000Z 35010KT 15SM FEW050 25/06 A3003 RMK CU1 SLP171

CYWG;2011-07-06 01:00;CYWG 060100Z 36006KT 15SM FEW260 24/10 A3003 RMK CI1 SLP171

CYWG;2011-07-06 02:00;CYWG 060200Z 34003KT 15SM FEW260 21/14 A3003 RMK CI1 SLP171

CYWG;2011-07-06 03:00;CYWG 060300Z 29005KT 15SM FEW260 18/11 A3005 RMK CI1 SLP176

CYWG;2011-07-06 04:00;CYWG 060400Z 26006KT 15SM FEW260 17/11 A3005 RMK CI1 SLP178

CYWG;2011-07-06 05:00;CYWG 060500Z 27006KT 15SM FEW260 15/11 A3005 RMK CI1 SLP177

CYWG;2011-07-06 06:00;CYWG 060600Z 26006KT 15SM SKC 14/10 A3005 RMK SLP178

CYWG;2011-07-06 07:00;CYWG 060700Z 27005KT 15SM SKC 12/11 A3005 RMK SLP177

CYWG;2011-07-06 08:00;CYWG 060800Z 27005KT 15SM SKC 12/11 A3006 RMK SLP179

CYWG;2011-07-06 09:00;CYWG 060900Z 27003KT 15SM SKC 12/10 A3006 RMK SLP181

CYWG;2011-07-06 10:00;CYWG 061000Z 27002KT 15SM FEW090 FEW270 11/10 A3006 RMK AC1CI0 AC TR SLP181

CYWG;2011-07-06 11:00;CYWG 061100Z 25002KT 15SM FEW090 FEW270 12/10 A3006 RMK AC1CI0 SLP182

CYWG;2011-07-06 12:00;CYWG 061200Z 00000KT 15SM FEW090 FEW270 16/13 A3006 RMK AC1CI0 SLP181

CYWG;2011-07-06 13:00;CYWG 061300Z 23004KT 15SM FEW100 21/13 A3006 RMK AC2 SLP181

CYWG;2011-07-06 14:00;CYWG 061400Z 22004KT 15SM FEW120 23/13 A3006 RMK AC2 SLP180

CYWG;2011-07-06 15:00;CYWG 061500Z 25004KT 15SM FEW120 24/14 A3006 RMK AC2 SLP181

CYWG;2011-07-06 16:00;CYWG 061600Z 00000KT 15SM FEW120 26/14 A3004 RMK AC2 SLP175

CYWG;2011-07-06 17:00;CYWG 061700Z 27004KT 15SM FEW052 FEW120 27/13 A3004 RMK CU1AC2 CU TR SLP174

CYWG;2011-07-06 18:00;CYWG 061800Z 28005KT 15SM FEW060 FEW120 28/13 A3003 RMK CU1AC2 SLP170

CYWG;2011-07-06 19:00;CYWG 061900Z 26002KT 15SM FEW060 BKN098 BKN240 27/12 A3002 RMK CU1AC4CI1 SLP166

CYWG;2011-07-06 20:00;CYWG 062000Z 26007KT 15SM FEW060 BKN095 BKN250 28/13 A3001 RMK CU2AC2CI0 SLP163

CYWG;2011-07-06 21:00;CYWG 062100Z 26004KT 15SM BKN067 BKN090 BKN250 26/15 A2999 RMK CU5AC2CI1 TCU ASOCTD SHWRS SW-NW SLP159

CYWG;2011-07-06 22:00;CYWG 062200Z 00000KT 15SM VCSH BKN067 BKN090 26/16 A2998 RMK CU5AC2 TCU ASOCTD SHWRS S + N-NE SLP154

CYWG;2011-07-06 23:00;CYWG 062300Z 17006KT 15SM VCSH FEW065 BKN087 24/15 A2997 RMK CU2AC2 TCU ASOCTD SHWRS SE SLP150

CYWG;2011-07-06 23:22;CYWG 062322Z 16005KT 15SM -SHRA SCT065 BKN087 24/ RMK CU3AC2 TCU ASOCTD

CYWG;2011-07-06 23:41;CYWG 062341Z 00000KT 15SM FEW060 BKN090 24/ RMK CU2AC2 TCU ASOCTD SHWRS SE

CYWG;2011-07-07 00:00;CYWG 070000Z 18002KT 15SM FEW075 SCT100 25/17 A2995 RMK AC2AC2 TCU DSNT E SLP142

CYWG;2011-07-07 01:00;CYWG 070100Z 23003KT 15SM FEW100 FEW250 26/16 A2994 RMK AC2CI1 SLP139

CYWG;2011-07-07 02:00;CYWG 070200Z 23006KT 15SM FEW100 FEW250 24/16 A2994 RMK AC1CI1 SLP139

CYWG;2011-07-07 03:00;CYWG 070300Z 22008KT 15SM FEW100 SCT250 22/15 A2994 RMK AC2CI1 SLP139

CYWG;2011-07-07 04:00;CYWG 070400Z 23006KT 15SM FEW030 BKN084 BKN250 22/17 A2995 RMK CF1AC4CI1 SLP141

CYWG;2011-07-07 04:45;CYWG 070445Z 34013KT 15SM -SHRA OVC035TCU 18/ RMK TCU8

CYWG;2011-07-07 05:00;CYWG 070500Z 36009KT 12SM -SHRA OVC027TCU 18/17 A2996 RMK TCU8 SLP147

CYWG;2011-07-07 06:00;CYWG 070600Z 36004KT 15SM -SHRA SCT012 BKN042 18/16 A2996 RMK CF2CU3 CB EMBDD N LTGCC N SLP144

CYWG;2011-07-07 07:00;CYWG 070700Z 19007KT 15SM OVC084 19/17 A2993 RMK AC8 SLP134

CYWG;2011-07-07 08:00;CYWG 070800Z 25003KT 15SM OVC083 17/16 A2993 RMK AC8 SLP136

CYWG;2011-07-07 09:00;CYWG 070900Z 22006KT 15SM BKN083 18/16 A2991 RMK AC6 SLP130

CYWG;2011-07-07 10:00;CYWG 071000Z 21008KT 15SM FEW080 BKN250 18/16 A2991 RMK AC2CI1 SLP128

CYWG;2011-07-07 11:00;CYWG 071100Z 22007KT 15SM FEW080 SCT250 18/16 A2991 RMK AC1CI1 SLP128

CYWG;2011-07-07 12:00;CYWG 071200Z 25007KT 15SM FEW080 FEW250 19/16 A2991 RMK AC1CI0 AC TR SLP127

CYWG;2011-07-07 13:00;CYWG 071300Z 28008KT 15SM FEW080 FEW250 21/18 A2990 RMK AC1CI0 AC TR SLP125

CYWG;2011-07-07 14:00;CYWG 071400Z 29008KT 15SM FEW080 FEW250 22/18 A2990 RMK AC1CI0 AC TR SLP125

CYWG;2011-07-07 15:00;CYWG 071500Z 32007KT 15SM FEW100 FEW250 24/19 A2990 RMK AC1CI0 AC TR SLP126

CYWG;2011-07-07 16:00;CYWG 071600Z 34008KT 15SM FEW030 FEW250 26/18 A2990 RMK CF1CI0 CF TR SLP126

CYWG;2011-07-07 17:00;CYWG 071700Z 34012KT 15SM FEW035 FEW250 27/16 A2991 RMK CF1CI1 SLP128

CYWG;2011-07-07 18:00;CYWG 071800Z 34013KT 15SM FEW055 SCT250 28/13 A2992 RMK CU2CI1 SLP130

CYWG;2011-07-07 19:00;CYWG 071900Z 36014KT 15SM SCT067 BKN250 28/12 A2991 RMK CF4CI1 SLP128

CYWG;2011-07-07 20:00;CYWG 072000Z 35015KT 15SM SCT067 BKN250 28/10 A2990 RMK CF3CI1 SLP125

CYWG;2011-07-07 21:00;CYWG 072100Z 34015KT 15SM FEW067 BKN250 28/11 A2990 RMK CF2CI1 SLP126

CYWG;2011-07-07 22:00;CYWG 072200Z 35014KT 15SM FEW067 BKN250 28/12 A2990 RMK CF2CI1 SLP126

CYWG;2011-07-07 23:00;CYWG 072300Z 36014KT 15SM FEW067 SCT250 28/12 A2990 RMK CF2CI1 FU SLP125

CYWG;2011-07-08 00:00;CYWG 080000Z 05011KT 15SM SCT059 26/13 A2990 RMK CF3 FU SLP125

CYWG;2011-07-08 01:00;CYWG 080100Z 04007KT 15SM FEW061 24/14 A2991 RMK CU1 FU SLP127

CYWG;2011-07-08 02:00;CYWG 080200Z 04009KT 15SM FEW061 22/13 A2990 RMK CU1 FU SLP125

CYWG;2011-07-08 03:00;CYWG 080300Z 03007KT 15SM SKC 19/13 A2992 RMK SLP132

CYWG;2011-07-08 04:00;CYWG 080400Z 00000KT 15SM SKC 16/13 A2993 RMK SLP135

CYWG;2011-07-08 05:00;CYWG 080500Z 10002KT 15SM SKC 15/13 A2993 RMK SLP135

CYWG;2011-07-08 06:00;CYWG 080600Z 08002KT 15SM SKC 14/12 A2993 RMK SLP134

CYWG;2011-07-08 07:00;CYWG 080700Z 32003KT 15SM SKC 13/12 A2993 RMK SLP134

CYWG;2011-07-08 08:00;CYWG 080800Z 32004KT 15SM SKC 13/12 A2993 RMK SLP136

CYWG;2011-07-08 09:00;CYWG 080900Z 35005KT 15SM SKC 12/11 A2993 RMK SLP136

CYWG;2011-07-08 10:00;CYWG 081000Z 30003KT 15SM FEW250 12/12 A2993 RMK CI0 SLP138

CYWG;2011-07-08 11:00;CYWG 081100Z 34002KT 15SM FEW250 12/11 A2992 RMK CI0 SLP134

CYWG;2011-07-08 12:00;CYWG 081200Z 04002KT 15SM FEW250 15/14 A2992 RMK CI0 SLP133

CYWG;2011-07-08 13:00;CYWG 081300Z 09002KT 15SM FEW250 19/14 A2992 RMK CI0 SLP132

CYWG;2011-07-08 14:00;CYWG 081400Z 11002KT 15SM FEW250 22/14 A2992 RMK CI0 SLP132

CYWG;2011-07-08 15:00;CYWG 081500Z 12002KT 15SM BKN250 23/13 A2991 RMK CI0 SLP128

CYWG;2011-07-08 16:00;CYWG 081600Z 19003KT 15SM BKN250 24/13 A2990 RMK CI2 SLP127

CYWG;2011-07-08 17:00;CYWG 081700Z 18004KT 15SM OVC250 26/14 A2989 RMK CI4 SLP123

CYWG;2011-07-08 18:00;CYWG 081800Z 15007KT 15SM BKN250 26/14 A2987 RMK CI4 SLP117

CYWG;2011-07-08 19:00;CYWG 081900Z 18008KT 15SM BKN250 27/14 A2985 RMK CI5 SLP109

CYWG;2011-07-08 20:00;CYWG 082000Z 13007KT 15SM OVC250 27/14 A2984 RMK CI5 SLP105

CYWG;2011-07-08 21:00;CYWG 082100Z 16008KT 15SM SCT140 OVC250 26/14 A2982 RMK AC3CI3 SLP100

CYWG;2011-07-08 22:00;CYWG 082200Z 14010KT 15SM FEW140 OVC250 27/14 A2981 RMK AC2CI3 SLP096

CYWG;2011-07-08 23:00;CYWG 082300Z 17006KT 15SM SCT120 OVC250 26/15 A2980 RMK AC3CI3 SLP092

CYWG;2011-07-09 00:00;CYWG 090000Z 14006KT 15SM BKN120 OVC250 26/15 A2977 RMK AC5CI2 SLP080

CYWG;2011-07-09 01:00;CYWG 090100Z 12007KT 15SM BKN120 OVC250 25/15 A2974 RMK AC5CI2 SLP073

CYWG;2011-07-09 02:00;CYWG 090200Z 12009KT 15SM BKN100 OVC250 25/13 A2974 RMK AC6CI1 SLP070

CYWG;2011-07-09 03:00;CYWG 090300Z 15007KT 15SM BKN100 OVC250 23/14 A2974 RMK AC6CI2 SLP068

CYWG;2011-07-09 04:00;CYWG 090400Z 16005KT 15SM OVC100 22/15 A2974 RMK AC8 SLP071

CYWG;2011-07-09 04:34;CYWG 090434Z 19012KT 10SM -SHRA SCT018 OVC097 21/ RMK SC3AC5

CYWG;2011-07-09 05:00;CYWG 090500Z 21010KT 10SM -SHRA OVC018 20/16 A2974 RMK ST8 CVCTV CLD EMBD SLP068

CYWG;2011-07-09 06:00;CYWG 090600Z 15010KT 10SM RA OVC024 18/17 A2969 RMK SC8 CVCTV CLD EMBD SLP053

CYWG;2011-07-09 06:39;CYWG 090639Z 15013KT 12SM -SHRA OVC019 18/ RMK SC8 CVCTV CLD EMBD

CYWG;2011-07-09 07:00;CYWG 090700Z 15012KT 15SM -SHRA OVC019 18/16 A2964 RMK SC8 CVCTV CLD EMBD SLP036

CYWG;2011-07-09 07:40;CYWG 090740Z 16011KT 15SM SCT058 OVC084 19/ RMK SC4AC4

CYWG;2011-07-09 08:00;CYWG 090800Z 15013KT 15SM OVC084 19/15 A2962 RMK AC8 SLP029

CYWG;2011-07-09 09:00;CYWG 090900Z 18005KT 15SM OVC093 19/16 A2963 RMK AC8 SLP034

CYWG;2011-07-09 09:28;CYWG 090928Z 13003KT 12SM -DZ BKN011 BKN093 20/ RMK ST5AC2

CYWG;2011-07-09 10:00;CYWG 091000Z 14008KT 15SM SCT011 BKN090 19/17 A2961 RMK ST3AC3 SLP026

CYWG;2011-07-09 11:00;CYWG 091100Z 14010KT 15SM -DZ FEW011 BKN020 BKN085 19/18 A2958 RMK ST2SC3AC2 SLP017

CYWG;2011-07-09 11:24;CYWG 091124Z 13009KT 15SM SCT009 OVC016 19/ RMK SF3SC5

CYWG;2011-07-09 11:47;CYWG 091147Z 13010KT 15SM SCT008 OVC014 19/ RMK SF3SC5

CYWG;2011-07-09 12:00;CYWG 091200Z 14007KT 15SM BKN007 OVC016 19/18 A2958 RMK SF6SC2 SLP016

CYWG;2011-07-09 12:48;CYWG 091248Z 15004KT 15SM SCT008 OVC018 19/ RMK SF4SC4

CYWG;2011-07-09 13:00;CYWG 091300Z 14005KT 15SM BKN008 OVC018 19/18 A2958 RMK SF6SC2 SLP015

CYWG;2011-07-09 14:00;CYWG 091400Z 16006KT 10SM OVC008 20/19 A2958 RMK SF8 BR SLP015

CYWG;2011-07-09 15:00;CYWG 091500Z 19006KT 10SM OVC008 21/19 A2958 RMK SF8 BR SLP017

CYWG;2011-07-09 15:31;CYWG 091531Z 23006KT 6SM -DZ OVC008 21/ RMK ST8

CYWG;2011-07-09 16:00;CYWG 091600Z 24005KT 8SM -DZ OVC007 21/20 A2958 RMK ST8 SLP016

CYWG;2011-07-09 16:44;CYWG 091644Z 21004KT 15SM BKN009 BKN034 23/ RMK CF6SC1

CYWG;2011-07-09 17:00;CYWG 091700Z 24004KT 15SM FEW009 BKN016 24/20 A2957 RMK CF2SC6 SLP014

CYWG;2011-07-09 18:00;CYWG 091800Z 22007KT 15SM BKN018 25/20 A2957 RMK SC7 SLP014

CYWG;2011-07-09 19:00;CYWG 091900Z 22011G16KT 15SM BKN022 26/20 A2957 RMK SC6 SLP014

CYWG;2011-07-09 20:00;CYWG 092000Z 26016KT 15SM SCT027 27/19 A2959 RMK CU2 SLP018

CYWG;2011-07-09 21:00;CYWG 092100Z 25012G18KT 15SM FEW051 28/17 A2960 RMK CU1 TCU DSTNT NE SLP021

CYWG;2011-07-09 22:00;CYWG 092200Z 27014G19KT 15SM FEW055 28/10 A2961 RMK CU1 SLP024

CYWG;2011-07-09 23:00;CYWG 092300Z 27011G16KT 15SM FEW055 27/11 A2961 RMK CU1 TR CU CB TOPS DSTNT N SLP026

CYWG;2011-07-10 00:00;CYWG 100000Z 25013KT 15SM FEW055 26/11 A2962 RMK CU1 TR CU CB TOPS DSTNT NE SLP029

CYWG;2011-07-10 01:00;CYWG 100100Z 25012KT 15SM SKC 25/11 A2964 RMK CB TOP DSTNT NE SLP035

CYWG;2011-07-10 02:00;CYWG 100200Z 25009KT 15SM SKC 23/11 A2965 RMK CB TOP DSTNT NE SLP040

CYWG;2011-07-10 03:00;CYWG 100300Z 24008KT 15SM SKC 21/10 A2967 RMK SLP048

CYWG;2011-07-10 04:00;CYWG 100400Z 24008KT 15SM SKC 20/10 A2968 RMK SLP051

CYWG;2011-07-10 05:00;CYWG 100500Z 23008KT 15SM SKC 19/11 A2968 RMK SLP052

CYWG;2011-07-10 10:00;CYWG 101000Z 23009KT 15SM SKC 16/12 A2968 RMK SLP049

CYWG;2011-07-10 11:00;CYWG 101100Z 23009KT 15SM SKC 15/12 A2969 RMK SLP052

CYWG;2011-07-10 12:00;CYWG 101200Z 23009KT 15SM SKC 17/12 A2970 RMK SLP056

CYWG;2011-07-10 13:00;CYWG 101300Z 25008KT 15SM FEW250 19/12 A2971 RMK CI0 SLP060

CYWG;2011-07-10 14:00;CYWG 101400Z 26006KT 15SM FEW250 21/13 A2972 RMK CI0 SLP063

CYWG;2011-07-10 15:00;CYWG 101500Z 21005KT 15SM FEW250 24/14 A2971 RMK CI0 SLP062

CYWG;2011-07-10 16:00;CYWG 101600Z 25002KT 15SM SKC 25/13 A2970 RMK SLP058

CYWG;2011-07-10 17:00;CYWG 101700Z 18005KT 15SM FEW080 FEW250 27/13 A2970 RMK AC1CI0 AC TR SLP057

CYWG;2011-07-10 18:00;CYWG 101800Z 19008KT 15SM FEW065 FEW250 28/12 A2968 RMK CU1CI1 CI TR SLP051

CYWG;2011-07-10 19:00;CYWG 101900Z 19014KT 15SM FEW060 FEW090 FEW250 29/14 A2968 RMK CU1ACC2CI1 SLP050

CYWG;2011-07-10 20:00;CYWG 102000Z 21017KT 15SM FEW070 FEW095 FEW250 30/11 A2968 RMK CU2ACC1CI1 SLP050

CYWG;2011-07-10 21:00;CYWG 102100Z 23009G18KT 15SM FEW060 SCT095 30/15 A2967 RMK CU1ACC2 SLP046

CYWG;2011-07-10 22:00;CYWG 102200Z 23017G22KT 15SM FEW070 FEW100 30/11 A2965 RMK CU1AC1 SLP041

CYWG;2011-07-10 23:00;CYWG 102300Z 25014G20KT 15SM FEW070 FEW100 30/10 A2965 RMK CU1AC1 TR AC SLP040

CYWG;2011-07-11 00:00;CYWG 110000Z 27011KT 15SM FEW070TCU 29/11 A2964 RMK TCU1 TCU SE SLP037

CYWG;2011-07-11 01:00;CYWG 110100Z 27012KT 15SM FEW060CB 27/11 A2965 RMK CB1 CB DIST SE SLP040

CYWG;2011-07-11 02:00;CYWG 110200Z 29009KT 15SM FEW060TCU FEW100 24/13 A2967 RMK TCU1AC1 TR AC TCU SE SLP045

CYWG;2011-07-11 03:00;CYWG 110300Z 29008KT 15SM FEW060 19/13 A2968 RMK CU1 SLP051

CYWG;2011-07-11 04:00;CYWG 110400Z 26006KT 15SM FEW060 20/12 A2969 RMK CU1 SLP055

CYWG;2011-07-11 05:00;CYWG 110500Z 29008KT 15SM FEW090 18/13 A2970 RMK AC2 SLP059

CYWG;2011-07-11 06:00;CYWG 110600Z 32004KT 15SM FEW087 15/13 A2973 RMK AC2 SLP066

CYWG;2011-07-11 07:00;CYWG 110700Z 31005KT 15SM FEW090 15/13 A2974 RMK AC2 SLP070

CYWG;2011-07-11 08:00;CYWG 110800Z 32004KT 15SM SKC 14/12 A2975 RMK SLP073

CYWG;2011-07-11 09:00;CYWG 110900Z 29007KT 15SM FEW027 15/13 A2977 RMK SC2 SLP079

CYWG;2011-07-11 10:00;CYWG 111000Z 29008KT 15SM SCT041 15/14 A2979 RMK SC2 SLP088

CYWG;2011-07-11 11:00;CYWG 111100Z 30006KT 15SM FEW028 14/14 A2982 RMK SC2 SLP096

CYWG;2011-07-11 12:00;CYWG 111200Z 35008KT 15SM SCT035 17/15 A2985 RMK SC3 SLP109

CYWG;2011-07-11 13:00;CYWG 111300Z 01011KT 15SM FEW014 FEW035 17/14 A2987 RMK CF2SC1 SLP115

CYWG;2011-07-11 14:00;CYWG 111400Z 36009G17KT 15SM OVC018 18/14 A2989 RMK SC8 SLP121

CYWG;2011-07-11 15:00;CYWG 111500Z 35012G18KT 15SM BKN024 BKN058 19/13 A2991 RMK SC6SC2 SLP131

CYWG;2011-07-11 16:00;CYWG 111600Z 32017KT 15SM SCT029 BKN040 20/13 A2993 RMK SC4SC2 SLP137

CYWG;2011-07-11 17:00;CYWG 111700Z 33015G22KT 15SM BKN033 BKN055 19/12 A2995 RMK SC6SC2 SLP144

CYWG;2011-07-11 18:00;CYWG 111800Z 34015G20KT 15SM BKN036 20/12 A2995 RMK SC7 SLP145

CYWG;2011-07-11 19:00;CYWG 111900Z 32014KT 15SM BKN036 21/13 A2996 RMK SC7 SLP148

CYWG;2011-07-11 20:00;CYWG 112000Z 33018G25KT 15SM BKN040 21/11 A2999 RMK SC6 SLP156

CYWG;2011-07-11 21:00;CYWG 112100Z 33015KT 15SM BKN050 21/12 A3000 RMK SC6 SLP160

CYWG;2011-07-11 22:00;CYWG 112200Z 34016KT 15SM BKN042 20/11 A3001 RMK SC6 SLP164

CYWG;2011-07-11 23:00;CYWG 112300Z 35013G21KT 15SM BKN045 20/11 A3002 RMK SC6 SLP166

CYWG;2011-07-12 00:00;CYWG 120000Z 36016KT 15SM BKN047 20/11 A3003 RMK SC5 SLP171

CYWG;2011-07-12 01:00;CYWG 120100Z 01015KT 15SM FEW049 FEW250 19/11 A3005 RMK SC2CI1 SLP178

CYWG;2011-07-12 02:00;CYWG 120200Z 01009KT 15SM FEW050 FEW250 17/10 A3006 RMK SC1CI1 SLP181

CYWG;2011-07-12 03:00;CYWG 120300Z 34005KT 15SM FEW050 FEW250 13/10 A3009 RMK SC1CI1 SLP191

CYWG;2011-07-12 04:00;CYWG 120400Z 29006KT 15SM FEW050 FEW120 12/10 A3010 RMK SC1AC1 SLP195

CYWG;2011-07-12 05:00;CYWG 120500Z 32006KT 15SM FEW050 10/08 A3010 RMK SC1 SLP196

CYWG;2011-07-12 06:00;CYWG 120600Z 31005KT 15SM SKC 09/08 A3012 RMK SLP202

CYWG;2011-07-12 07:00;CYWG 120700Z 32007KT 15SM FEW120 09/08 A3011 RMK AC2 SLP199

CYWG;2011-07-12 08:00;CYWG 120800Z 32007KT 15SM FEW120 08/07 A3012 RMK AC1 SLP203

CYWG;2011-07-12 09:00;CYWG 120900Z 00000KT 15SM FEW120 07/07 A3013 RMK AC1 SLP208

CYWG;2011-07-12 10:00;CYWG 121000Z 00000KT 15SM FEW030 08/08 A3014 RMK SC1 SLP212

CYWG;2011-07-12 11:00;CYWG 121100Z 33002KT 15SM FEW030 FEW120 06/06 A3016 RMK CU1AC1 SLP216

CYWG;2011-07-12 12:00;CYWG 121200Z 00000KT 15SM FEW030 11/10 A3016 RMK CU1 SLP217

CYWG;2011-07-12 13:00;CYWG 121300Z 03004KT 15SM FEW030 FEW120 14/10 A3018 RMK CU1AC1 SLP224

CYWG;2011-07-12 14:00;CYWG 121400Z 04004KT 15SM FEW030 16/11 A3019 RMK CU1 SLP228

CYWG;2011-07-12 15:00;CYWG 121500Z 07003KT 15SM FEW030 18/11 A3019 RMK CF1 SLP228

CYWG;2011-07-12 16:00;CYWG 121600Z 36008KT 15SM FEW032 20/10 A3020 RMK CF2 SLP230

CYWG;2011-07-12 17:00;CYWG 121700Z 05010KT 15SM FEW044 22/09 A3019 RMK CU2 SLP226

CYWG;2011-07-12 18:00;CYWG 121800Z 03005KT 15SM FEW054 22/09 A3018 RMK CU1 SLP222

CYWG;2011-07-12 19:00;CYWG 121900Z 07005KT 15SM FEW054 FEW270 22/08 A3017 RMK CU1CI0 SLP220

CYWG;2011-07-12 20:00;CYWG 122000Z 02006G15KT 15SM FEW055 FEW270 22/05 A3017 RMK CU1CI0 SLP220

CYWG;2011-07-12 21:00;CYWG 122100Z 05008KT 15SM FEW055 FEW270 23/04 A3017 RMK CU1CI0 SLP222

CYWG;2011-07-12 22:00;CYWG 122200Z 03008KT 15SM FEW055 SCT270 23/05 A3017 RMK CU1CI0 SLP221

CYWG;2011-07-12 23:00;CYWG 122300Z 03008KT 15SM FEW055 SCT270 23/05 A3016 RMK CU1CI0 SLP219

CYWG;2011-07-13 00:00;CYWG 130000Z 06008KT 15SM FEW055 FEW270 22/06 A3016 RMK SC1CI0 SLP216

CYWG;2011-07-13 01:00;CYWG 130100Z 04002KT 15SM SKC 22/08 A3015 RMK SLP214

CYWG;2011-07-13 02:00;CYWG 130200Z 08003KT 15SM FEW270 20/10 A3014 RMK CI0 SLP211

CYWG;2011-07-13 03:00;CYWG 130300Z 07003KT 15SM FEW270 17/09 A3015 RMK CI1 SLP212

CYWG;2011-07-13 04:00;CYWG 130400Z 00000KT 15SM FEW270 15/09 A3016 RMK CI1 OBS TAKEN +5 SLP214

CYWG;2011-07-13 05:00;CYWG 130500Z 07003KT 15SM SKC 13/09 A3016 RMK SLP214

CYWG;2011-07-13 06:00;CYWG 130600Z 00000KT 15SM SKC 11/08 A3016 RMK SLP217

CYWG;2011-07-13 07:00;CYWG 130700Z 00000KT 15SM FEW250 10/08 A3016 RMK CI1 SLP215

CYWG;2011-07-13 08:00;CYWG 130800Z 15006KT 15SM SCT250 11/08 A3016 RMK CI1 SLP218

CYWG;2011-07-13 09:00;CYWG 130900Z 13003KT 15SM SCT250 13/08 A3016 RMK CI2 SLP214

CYWG;2011-07-13 10:00;CYWG 131000Z 18007KT 15SM BKN250 13/09 A3015 RMK CI2 SLP212

CYWG;2011-07-13 11:00;CYWG 131100Z 17007KT 15SM BKN250 13/10 A3016 RMK CI2 SLP216

CYWG;2011-07-13 12:00;CYWG 131200Z 18008KT 15SM BKN250 15/10 A3016 RMK CI1 SLP217

CYWG;2011-07-13 13:00;CYWG 131300Z 18010G15KT 15SM BKN250 17/11 A3016 RMK CI0 SLP216

CYWG;2011-07-13 14:00;CYWG 131400Z 18010KT 15SM SCT250 19/12 A3016 RMK CI0 SLP215

CYWG;2011-07-13 15:00;CYWG 131500Z 18012G20KT 15SM FEW250 21/12 A3015 RMK CI0 SLP211

CYWG;2011-07-13 16:00;CYWG 131600Z 18018KT 15SM FEW047 FEW250 22/11 A3013 RMK CU1CI1 SLP204

CYWG;2011-07-13 17:00;CYWG 131700Z 17018KT 15SM FEW047 FEW250 23/09 A3011 RMK CU1CI1 SLP199

CYWG;2011-07-13 18:00;CYWG 131800Z 18015G24KT 15SM FEW250 24/09 A3009 RMK CI1 SLP192

CYWG;2011-07-13 19:00;CYWG 131900Z 18016G24KT 15SM FEW100 BKN250 24/09 A3007 RMK AC2CI2 SLP186

CYWG;2011-07-13 20:00;CYWG 132000Z 17016G24KT 15SM FEW100 BKN250 24/09 A3006 RMK AC1CI2 SLP181

CYWG;2011-07-13 21:00;CYWG 132100Z 18019G25KT 15SM FEW100 BKN250 25/09 A3003 RMK AC1CI2 SLP171

CYWG;2011-07-13 22:00;CYWG 132200Z 18010G18KT 15SM FEW100 BKN250 24/10 A3004 RMK AC1CI3 SLP173

CYWG;2011-07-13 23:00;CYWG 132300Z 18015G20KT 15SM SCT250 24/10 A3002 RMK CI2 SLP166

CYWG;2011-07-14 00:00;CYWG 140000Z 17017KT 15SM FEW100 SCT250 24/10 A3000 RMK AC1CI2 SLP160

CYWG;2011-07-14 01:00;CYWG 140100Z 18013KT 15SM FEW100 FEW250 23/09 A2998 RMK AC1CI0 SLP154

CYWG;2011-07-14 02:00;CYWG 140200Z 17009KT 15SM FEW250 21/10 A2996 RMK CI0 SLP149

CYWG;2011-07-14 03:00;CYWG 140300Z 15008KT 15SM FEW250 19/11 A2996 RMK CI1 SLP148

CYWG;2011-07-14 04:00;CYWG 140400Z 16009KT 15SM FEW250 19/12 A2996 RMK CI1 SLP148

CYWG;2011-07-14 05:00;CYWG 140500Z 16009KT 15SM FEW250 18/11 A2996 RMK CI1 SLP145

CYWG;2011-07-14 06:00;CYWG 140600Z 17008KT 15SM SCT250 18/12 A2995 RMK CI2 SLP143

CYWG;2011-07-14 07:00;CYWG 140700Z 17009KT 15SM SCT250 17/13 A2993 RMK CI2 SLP138

CYWG;2011-07-14 08:00;CYWG 140800Z 18011KT 15SM FEW250 16/13 A2993 RMK CI0 SLP137

CYWG;2011-07-14 09:00;CYWG 140900Z 17007KT 15SM FEW250 16/13 A2993 RMK CI0 SLP135

CYWG;2011-07-14 10:00;CYWG 141000Z 17010KT 15SM SCT250 16/13 A2993 RMK CI2 SLP136

CYWG;2011-07-14 11:00;CYWG 141100Z 17010G15KT 15SM FEW120 SCT250 16/13 A2993 RMK AC2CI1 SLP135

CYWG;2011-07-14 12:00;CYWG 141200Z 17010KT 15SM FEW120 FEW250 16/13 A2991 RMK AC2CI0 SLP130

CYWG;2011-07-14 13:00;CYWG 141300Z 18013KT 15SM FEW120 FEW250 18/14 A2990 RMK AC2CI0 SLP128

CYWG;2011-07-14 14:00;CYWG 141400Z 19011KT 15SM FEW120 SCT250 20/15 A2990 RMK AC2CI1 SLP127

CYWG;2011-07-14 15:00;CYWG 141500Z 17015KT 15SM FEW025 FEW120 SCT250 21/15 A2989 RMK CF1AC1CI1 SLP123

CYWG;2011-07-14 16:00;CYWG 141600Z 18013KT 15SM FEW025 FEW120 SCT250 23/15 A2988 RMK CF1AC1CI1 SLP118

CYWG;2011-07-14 17:00;CYWG 141700Z 17012G17KT 15SM FEW025 FEW120 SCT250 24/16 A2987 RMK CF1AC1CI1 SLP114

CYWG;2011-07-14 18:00;CYWG 141800Z 16012G17KT 15SM SCT041 25/16 A2985 RMK CU3 SLP109

CYWG;2011-07-14 19:00;CYWG 141900Z 17013G19KT 15SM SCT036 26/17 A2984 RMK CU3 SLP106

CYWG;2011-07-14 20:00;CYWG 142000Z 19012G17KT 15SM FEW036 SCT095 25/16 A2983 RMK CU2AC1 SLP102

CYWG;2011-07-14 21:00;CYWG 142100Z 16010G16KT 15SM BKN038 BKN095 26/17 A2982 RMK CU5AC2 SLP099

CYWG;2011-07-14 22:00;CYWG 142200Z 18012G17KT 15SM BKN038 BKN095 25/17 A2981 RMK CU5AC2 SLP096

CYWG;2011-07-14 23:00;CYWG 142300Z 19015KT 15SM FEW040 SCT100 26/17 A2979 RMK SC2AC1 SLP089

CYWG;2011-07-15 00:00;CYWG 150000Z 19011KT 15SM BKN039 25/17 A2979 RMK SC7 SLP089

CYWG;2011-07-15 01:00;CYWG 150100Z 17011KT 15SM BKN044 BKN100 24/17 A2980 RMK SC5AC2 SLP091

CYWG;2011-07-15 02:00;CYWG 150200Z 18013KT 15SM BKN050 23/16 A2980 RMK SC7 SLP093

CYWG;2011-07-15 03:00;CYWG 150300Z 17013G18KT 15SM BKN050 BKN100 22/16 A2980 RMK SC6AC1 SLP093

CYWG;2011-07-15 04:00;CYWG 150400Z 17012KT 15SM BKN046 OVC080 21/16 A2980 RMK SC7AC1 SLP093

CYWG;2011-07-15 05:00;CYWG 150500Z 16012KT 15SM FEW027 BKN044 BKN080 21/16 A2980 RMK SC1SC4AC1 SLP090

CYWG;2011-07-15 06:00;CYWG 150600Z 17010G15KT 15SM SCT026 BKN044 BKN073 20/16 A2979 RMK SC3SC2AC2 SLP087

CYWG;2011-07-15 07:00;CYWG 150700Z 15010KT 15SM BKN024 BKN040 20/16 A2977 RMK SC6SC1 SLP079

CYWG;2011-07-15 07:36;CYWG 150736Z 15011KT 15SM BKN014 OVC024 19/ RMK SC6SC2

CYWG;2011-07-15 08:00;CYWG 150800Z 16008KT 15SM BKN014 OVC026 19/17 A2977 RMK SC6SC2 SLP080

CYWG;2011-07-15 09:00;CYWG 150900Z 16007KT 15SM BKN014 OVC026 19/17 A2976 RMK SC7SC1 SLP078

CYWG;2011-07-15 10:00;CYWG 151000Z 15008KT 10SM -DZ FEW008 OVC012 19/17 A2977 RMK ST1SC7 SLP080

CYWG;2011-07-15 10:15;CYWG 151015Z 17007KT 8SM -DZ OVC010 19/ RMK ST8

CYWG;2011-07-15 10:19;CYWG 151019Z 16008KT 8SM -DZ OVC009 19/ RMK ST8

CYWG;2011-07-15 11:00;CYWG 151100Z 14008KT 10SM -DZ OVC007 19/18 A2974 RMK ST8 SLP072

CYWG;2011-07-15 11:11;CYWG 151111Z 14009KT 10SM OVC006 19/ RMK ST8

CYWG;2011-07-15 11:39;CYWG 151139Z 16008KT 10SM OVC005 19/ RMK ST8

CYWG;2011-07-15 12:00;CYWG 151200Z 15007KT 8SM OVC005 19/18 A2975 RMK ST8 BR SLP073

CYWG;2011-07-15 13:00;CYWG 151300Z 17006KT 6SM -RA BR OVC005 19/18 A2975 RMK ST8 SLP074

CYWG;2011-07-15 13:40;CYWG 151340Z 10006KT 6SM BR BKN006 BKN055 19/ RMK ST6SC1

CYWG;2011-07-15 14:00;CYWG 151400Z 10009KT 6SM BR BKN005 BKN055 19/19 A2967 RMK ST6SC1 PRESFR SLP047

CYWG;2011-07-15 15:00;CYWG 151500Z 15015KT 8SM OVC008 21/19 A2967 RMK SC8 BR SLP046

CYWG;2011-07-15 16:00;CYWG 151600Z 19010KT 12SM OVC009 22/20 A2968 RMK SC8 SLP051

CYWG;2011-07-15 16:16;CYWG 151616Z 20011KT 12SM OVC011 22/ RMK SC8

CYWG;2011-07-15 17:00;CYWG 151700Z 18010KT 15SM BKN015 24/20 A2970 RMK SC6 SLP056

CYWG;2011-07-15 18:00;CYWG 151800Z 20011KT 15SM SCT020 27/20 A2969 RMK SC4 SLP053

CYWG;2011-07-15 19:00;CYWG 151900Z 19014G21KT 15SM FEW030 FEW250 28/21 A2968 RMK CU2CI1 SLP051

CYWG;2011-07-15 20:00;CYWG 152000Z 21012G18KT 15SM SCT040 29/20 A2968 RMK CU4 SLP049

CYWG;2011-07-15 21:00;CYWG 152100Z 24011G16KT 15SM BKN040 29/19 A2968 RMK CU5 SLP049

CYWG;2011-07-15 22:00;CYWG 152200Z 26011KT 15SM FEW042 30/20 A2967 RMK CU2 SLP047

CYWG;2011-07-15 23:00;CYWG 152300Z 25010KT 15SM FEW040 30/20 A2968 RMK CU2 SLP048

CYWG;2011-07-16 00:00;CYWG 160000Z 28008KT 15SM FEW040 29/20 A2968 RMK CU1 SLP050

CYWG;2011-07-16 01:00;CYWG 160100Z 28006KT 15SM FEW040 28/20 A2970 RMK CU1 SLP055

CYWG;2011-07-16 02:00;CYWG 160200Z 23004KT 15SM SKC 25/19 A2970 RMK SLP057

CYWG;2011-07-16 03:00;CYWG 160300Z 21005KT 15SM SKC 24/19 A2972 RMK SLP063

CYWG;2011-07-16 04:00;CYWG 160400Z 21006KT 15SM FEW040TCU 23/19 A2972 RMK TCU1 SLP065

CYWG;2011-07-16 05:00;CYWG 160500Z 21006KT 15SM SKC 22/19 A2974 RMK SLP069

CYWG;2011-07-16 06:00;CYWG 160600Z 21007KT 15SM SKC 22/19 A2975 RMK SLP072

CYWG;2011-07-16 07:00;CYWG 160700Z 21007KT 15SM SKC 22/20 A2975 RMK SLP073

CYWG;2011-07-16 08:00;CYWG 160800Z 22007KT 15SM SKC 20/19 A2976 RMK SLP077

CYWG;2011-07-16 09:00;CYWG 160900Z 21004KT 15SM SKC 21/19 A2977 RMK SLP081

CYWG;2011-07-16 10:00;CYWG 161000Z 20002KT 15SM FEW110 19/18 A2979 RMK AC2 CB DIST W SLP085

CYWG;2011-07-16 11:00;CYWG 161100Z 24009KT 15SM SCT110 BKN250 21/18 A2982 RMK AC3CI1 SLP095

CYWG;2011-07-16 11:10;CYWG 161110Z 22008KT 15SM -SHRA FEW029 SCT110 BKN250 20/ RMK SF1AC3CI1 TR SF ACC EMBD

CYWG;2011-07-16 11:35;CYWG 161135Z 20010KT 15SM VCSH FEW110 FEW250 21/ RMK AC1CI1 CB TOP DIST W

CYWG;2011-07-16 12:00;CYWG 161200Z 18003KT 15SM FEW120 FEW250 21/18 A2979 RMK AC1CI1 TR AC SLP086

CYWG;2011-07-16 13:00;CYWG 161300Z 17007KT 15SM FEW140 SCT270 24/19 A2978 RMK AC1CI1 SLP082

CYWG;2011-07-16 14:00;CYWG 161400Z 24006KT 15SM FEW160 SCT290 26/20 A2981 RMK AC1CI1 SLP092

CYWG;2011-07-16 15:00;CYWG 161500Z 21005KT 15SM BKN110 BKN290 26/20 A2980 RMK AC5CI1 SLP089

CYWG;2011-07-16 16:00;CYWG 161600Z 21012KT 15SM BKN130 27/20 A2980 RMK AC6 CB TOP DIST S SLP088

CYWG;2011-07-16 17:00;CYWG 161700Z 18010G15KT 15SM SCT170 30/21 A2979 RMK AC2 SLP085

CYWG;2011-07-16 18:00;CYWG 161800Z 19011KT 15SM FEW170 31/18 A2977 RMK AC1 CB TOP DIST S SLP080

CYWG;2011-07-16 19:00;CYWG 161900Z 19015KT 15SM FEW060 FEW170 32/18 A2977 RMK CU1AC1 SLP080

CYWG;2011-07-16 20:00;CYWG 162000Z 20009KT 15SM FEW060 FEW170 32/20 A2977 RMK CU1AC1 SLP080

CYWG;2011-07-16 21:00;CYWG 162100Z 26010G15KT 15SM FEW065 FEW170 33/18 A2978 RMK CU1AC1 SLP082

CYWG;2011-07-16 22:00;CYWG 162200Z 25010G17KT 15SM FEW070 FEW170 34/17 A2978 RMK CU2AC1 SLP082

CYWG;2011-07-16 23:00;CYWG 162300Z 25007KT 15SM FEW070 FEW170 33/18 A2979 RMK CU2AC1 TCU S SLP084

CYWG;2011-07-17 00:00;CYWG 170000Z 22008KT 15SM FEW070 FEW130 33/18 A2979 RMK CU1AC2 TCU E SLP085

CYWG;2011-07-17 01:00;CYWG 170100Z 23007KT 15SM FEW070 31/18 A2979 RMK CU1 CB TPS DSTNT S+E SLP086

CYWG;2011-07-17 02:00;CYWG 170200Z 23003KT 15SM FEW070 29/19 A2979 RMK CU1 CB TOPS S-SW SLP086

CYWG;2011-07-17 03:00;CYWG 170300Z 18003KT 15SM FEW070 26/19 A2980 RMK CU1 SLP088

CYWG;2011-07-17 04:00;CYWG 170400Z 31002KT 15SM FEW070 23/19 A2980 RMK CU1 LTNG S SLP091

CYWG;2011-07-17 05:00;CYWG 170500Z 17005KT 15SM FEW070 23/19 A2983 RMK CU1 SLP098

CYWG;2011-07-17 06:00;CYWG 170600Z 19011G17KT 15SM FEW070 25/22 A2984 RMK CU1 SLP103

CYWG;2011-07-17 07:00;CYWG 170700Z 22004KT 15SM SKC 24/21 A2984 RMK SLP102

CYWG;2011-07-17 08:00;CYWG 170800Z 00000KT 15SM SKC 21/20 A2985 RMK SLP106

CYWG;2011-07-17 09:00;CYWG 170900Z 17003KT 15SM SKC 21/20 A2985 RMK SLP107

CYWG;2011-07-17 10:00;CYWG 171000Z 18003KT 15SM SKC 19/18 A2987 RMK SLP111

CYWG;2011-07-17 11:00;CYWG 171100Z 18004KT 15SM SKC 19/18 A2988 RMK SLP117

CYWG;2011-07-17 12:00;CYWG 171200Z 22002KT 15SM SKC 21/19 A2990 RMK SLP124

CYWG;2011-07-17 13:00;CYWG 171300Z 22002KT 15SM SKC 23/21 A2991 RMK SLP127

CYWG;2011-07-17 14:00;CYWG 171400Z 32003KT 15SM FEW140 FEW300 25/21 A2992 RMK AC1CI1 OBS TAKEN +07 SLP129

CYWG;2011-07-17 15:00;CYWG 171500Z 02007KT 15SM FEW140 FEW300 29/18 A2992 RMK AC2CI0 SLP128

CYWG;2011-07-17 16:00;CYWG 171600Z 01007KT 15SM BKN140 BKN300 30/15 A2994 RMK AC5CI1 VIRGA S SLP136

CYWG;2011-07-17 17:00;CYWG 171700Z 04004KT 15SM BKN099 BKN140 28/16 A2994 RMK AC5AC2 VIRGA SE-SW SLP137

CYWG;2011-07-17 18:00;CYWG 171800Z 10002KT 15SM FEW099 BKN140 30/15 A2994 RMK AC2AC3 SLP135

CYWG;2011-07-17 19:00;CYWG 171900Z 05006KT 15SM FEW100 FEW280 32/14 A2991 RMK AC1CI1 SLP127

CYWG;2011-07-17 20:00;CYWG 172000Z 35007KT 15SM SCT100 SCT280 32/14 A2992 RMK AC3CI1 SLP128

CYWG;2011-07-17 21:00;CYWG 172100Z 04005KT 15SM BKN100 BKN280 32/14 A2992 RMK AC5CI1 SLP129

CYWG;2011-07-17 22:00;CYWG 172200Z 32006KT 15SM FEW100 31/18 A2992 RMK AC2 SLP130

CYWG;2011-07-17 23:00;CYWG 172300Z 33008KT 15SM SCT100 31/17 A2993 RMK AC3 SLP132

CYWG;2011-07-18 00:00;CYWG 180000Z 03004KT 15SM BKN100 32/14 A2993 RMK AC6 SLP134

CYWG;2011-07-18 01:00;CYWG 180100Z 01005KT 15SM BKN093 29/19 A2993 RMK AC5 SLP134

CYWG;2011-07-18 02:00;CYWG 180200Z 01004KT 15SM FEW090 27/19 A2992 RMK AC2 SLP131

CYWG;2011-07-18 03:00;CYWG 180300Z 01006KT 15SM FEW090 24/18 A2993 RMK AC2 SLP134

CYWG;2011-07-18 04:00;CYWG 180400Z 03004KT 15SM FEW090 22/17 A2994 RMK AC1 SLP136

CYWG;2011-07-18 05:00;CYWG 180500Z 01004KT 15SM FEW090 19/17 A2994 RMK AC1 SLP138

CYWG;2011-07-18 06:00;CYWG 180600Z 02004KT 15SM SKC 20/17 A2995 RMK SLP141

CYWG;2011-07-18 07:00;CYWG 180700Z 02002KT 15SM SKC 19/17 A2995 RMK SLP142

CYWG;2011-07-18 08:00;CYWG 180800Z 00000KT 15SM FEW250 17/16 A2996 RMK CI0 SLP145

CYWG;2011-07-18 09:00;CYWG 180900Z 00000KT 15SM FEW250 16/15 A2996 RMK CI1 SLP145

CYWG;2011-07-18 10:00;CYWG 181000Z 00000KT 15SM FEW250 15/15 A2997 RMK CI0 SLP148

CYWG;2011-07-18 11:00;CYWG 181100Z 00000KT 15SM R36/3000VP6000FT/U MIFG FEW250 15/15 A2998 RMK CI0 SLP151

CYWG;2011-07-18 12:00;CYWG 181200Z 27002KT 12SM FEW250 17/16 A2999 RMK CI0 BR SLP156

CYWG;2011-07-18 13:00;CYWG 181300Z 32002KT 10SM FEW270 21/19 A3000 RMK CI1 HZ SLP159

CYWG;2011-07-18 14:00;CYWG 181400Z 32002KT 12SM FEW280 24/18 A3001 RMK CI1 HZ SLP161

CYWG;2011-07-18 15:00;CYWG 181500Z 22002KT 15SM FEW290 27/17 A3001 RMK CI2 SLP160

CYWG;2011-07-18 16:00;CYWG 181600Z 31002KT 15SM BKN290 29/18 A3001 RMK CI4 SLP160

CYWG;2011-07-18 17:00;CYWG 181700Z 25003KT 15SM SCT300 30/18 A2999 RMK CI2 SLP155

CYWG;2011-07-18 18:00;CYWG 181800Z 24004KT 15SM SCT300 32/16 A2998 RMK CI2 SLP152

CYWG;2011-07-18 19:00;CYWG 181900Z 21008KT 15SM FEW140 SCT300 33/14 A2998 RMK AC1CI2 SLP151

CYWG;2011-07-18 20:00;CYWG 182000Z 20006KT 15SM FEW140 BKN300 32/15 A2998 RMK AC1CI2 SLP151

CYWG;2011-07-18 21:00;CYWG 182100Z 19004KT 15SM FEW120 BKN300 32/15 A2996 RMK AC2CI3 SLP143

CYWG;2011-07-18 22:00;CYWG 182200Z 18005KT 15SM FEW120 BKN280 32/16 A2995 RMK AC1CI3 SLP140

CYWG;2011-07-18 23:00;CYWG 182300Z 18004KT 15SM BKN260 32/15 A2993 RMK CI2 SLP135

CYWG;2011-07-19 00:00;CYWG 190000Z 20005KT 15SM FEW260 32/14 A2992 RMK CI2 SLP131

CYWG;2011-07-19 01:00;CYWG 190100Z 19004KT 15SM FEW260 31/16 A2991 RMK CI1 SLP129

CYWG;2011-07-19 02:00;CYWG 190200Z 15004KT 15SM FEW260 28/17 A2990 RMK CI1 SLP126

CYWG;2011-07-19 03:00;CYWG 190300Z 14003KT 15SM FEW260 26/17 A2990 RMK CI1 SLP125

CYWG;2011-07-19 04:00;CYWG 190400Z 16005KT 15SM FEW100 25/17 A2990 RMK AC1 SLP125

CYWG;2011-07-19 05:00;CYWG 190500Z 15007KT 15SM FEW100 23/17 A2989 RMK AC1 SLP121

CYWG;2011-07-19 06:00;CYWG 190600Z 15008KT 15SM BKN250 24/18 A2986 RMK CI2 SLP110

CYWG;2011-07-19 07:00;CYWG 190700Z 14006KT 15SM BKN250 22/17 A2985 RMK CI2 SLP106

CYWG;2011-07-19 08:00;CYWG 190800Z 16006KT 15SM FEW250 21/17 A2986 RMK CI0 LTNG DIST N SLP108

CYWG;2011-07-19 09:00;CYWG 190900Z 14006KT 15SM BKN250 23/17 A2983 RMK CI3 SLP099

CYWG;2011-07-19 10:00;CYWG 191000Z 12004KT 15SM BKN110 23/17 A2983 RMK AC6 LTNG DIST NW-N SLP099

CYWG;2011-07-19 11:00;CYWG 191100Z 12005KT 15SM BKN110 23/17 A2982 RMK AC5 LTGCG DIST NW SLP096

CYWG;2011-07-19 12:00;CYWG 191200Z 14005KT 15SM SCT110 23/17 A2979 RMK AC3 SLP086

CYWG;2011-07-19 13:00;CYWG 191300Z 12010KT 15SM FEW110 25/18 A2977 RMK AC1 SLP079

CYWG;2011-07-19 14:00;CYWG 191400Z 13007KT 15SM FEW110 27/19 A2975 RMK AC1 AC TR SLP072

CYWG;2011-07-19 15:00;CYWG 191500Z 14007KT 15SM FEW030TCU FEW096 28/20 A2974 RMK TCU1AC1 TCU AC TR TCU DIST S SLP070

CYWG;2011-07-19 16:00;CYWG 191600Z 17008KT 12SM FEW035TCU FEW100 30/22 A2971 RMK TCU1AC1 TCU AC TR TCU DIST S HZ SLP059

CYWG;2011-07-19 17:00;CYWG 191700Z 12007KT 12SM FEW120 32/23 A2970 RMK AC1 AC TR HZ SLP057

CYWG;2011-07-19 18:00;CYWG 191800Z 15010KT 12SM SCT040 33/23 A2969 RMK CU3 HZ SLP050

CYWG;2011-07-19 19:00;CYWG 191900Z 18011KT 12SM FEW032 34/26 A2966 RMK CU1 HZ SLP040

CYWG;2011-07-19 20:00;CYWG 192000Z 18014G20KT 12SM FEW040 34/24 A2964 RMK CU1 HZ SLP034

CYWG;2011-07-19 21:00;CYWG 192100Z 19018G26KT 12SM FEW036 FEW140 34/24 A2962 RMK CU1AC1 HZ SLP026

CYWG;2011-07-19 22:00;CYWG 192200Z 18018G24KT 12SM FEW034 FEW140 33/24 A2960 RMK CU1AC1 HZ SLP020

CYWG;2011-07-19 23:00;CYWG 192300Z 19017G22KT 15SM FEW032 SCT088 33/25 A2960 RMK CU2AC1 SLP020

CYWG;2011-07-20 00:00;CYWG 200000Z 20013G19KT 15SM FEW030 SCT090 32/24 A2960 RMK CU2AC1 SLP019

CYWG;2011-07-20 01:00;CYWG 200100Z 20011G16KT 15SM BKN028 30/24 A2957 RMK SC7 SLP012

CYWG;2011-07-20 02:00;CYWG 200200Z 18009KT 15SM BKN032 BKN078 29/24 A2957 RMK SC5AC1 SLP011

CYWG;2011-07-20 03:00;CYWG 200300Z 18010KT 15SM FEW110 SCT250 28/24 A2956 RMK AC2CI2 SLP007

CYWG;2011-07-20 04:00;CYWG 200400Z 17008KT 15SM BKN120 27/23 A2956 RMK AC5 OBS TKN +9 SLP006

CYWG;2011-07-20 05:00;CYWG 200500Z 17008KT 15SM BKN120 26/22 A2955 RMK AC6 SLP004

CYWG;2011-07-20 06:00;CYWG 200600Z 14007KT 15SM BKN120 26/22 A2953 RMK AC6 SLP997

CYWG;2011-07-20 07:00;CYWG 200700Z 17007KT 15SM BKN120 25/22 A2952 RMK AC6 SLP994

CYWG;2011-07-20 08:00;CYWG 200800Z 15005KT 15SM BKN120 24/22 A2949 RMK AC5 SLP984

CYWG;2011-07-20 09:00;CYWG 200900Z 15009KT 15SM SCT017 BKN120 24/22 A2946 RMK ST3AC2 SLP973

CYWG;2011-07-20 10:00;CYWG 201000Z 10004KT 15SM FEW017 SCT120 BKN170 24/22 A2941 RMK ST2AC2AC1 SLP957

CYWG;2011-07-20 11:00;CYWG 201100Z 15006KT 15SM FEW020 BKN120 24/22 A2941 RMK SC2AC6 SLP955

CYWG;2011-07-20 12:00;CYWG 201200Z 06006KT 15SM BKN018 BKN120 OVC280 24/22 A2941 RMK SC5AC2CI1 SLP954

CYWG;2011-07-20 12:22;CYWG 201222Z 08006KT 10SM BKN011 OVC120 24/ RMK SC7AC1

CYWG;2011-07-20 13:00;CYWG 201300Z 09004KT 10SM OVC010 25/22 A2940 RMK SC8 SLP953

CYWG;2011-07-20 13:25;CYWG 201325Z 12003KT 10SM OVC009 25/ RMK SC8

CYWG;2011-07-20 13:33;CYWG 201333Z 11005KT 10SM -RA OVC010 25/ RMK SC8

CYWG;2011-07-20 14:00;CYWG 201400Z 11006KT 10SM -RA OVC010 25/23 A2941 RMK SC8 SLP957

CYWG;2011-07-20 14:10;CYWG 201410Z 11005KT 10SM OVC008 25/ RMK SC8

CYWG;2011-07-20 15:00;CYWG 201500Z 13010KT 10SM OVC008 25/23 A2938 RMK SC8 SLP945

CYWG;2011-07-20 15:31;CYWG 201531Z 08012KT 10SM -SHRA SCT007 BKN100 OVC280 25/ RMK SC4AC2CI2 TCU EMBD

CYWG;2011-07-20 16:00;CYWG 201600Z 08008KT 10SM SCT007 BKN100 OVC280 26/23 A2932 RMK SC4AC3CI1 SLP927

CYWG;2011-07-20 17:00;CYWG 201700Z 14004KT 10SM SCT017 BKN100 BKN280 28/24 A2938 RMK CU3AC2CI1 SLP946

CYWG;2011-07-20 18:00;CYWG 201800Z 03003KT 10SM BKN024 BKN280 29/22 A2937 RMK SC5CI1 SLP942

CYWG;2011-07-20 19:00;CYWG 201900Z 18013KT 10SM BKN026 BKN280 30/23 A2935 RMK CU5CI1 HZ SLP937

CYWG;2011-07-20 20:00;CYWG 202000Z 20010G15KT 12SM BKN026 30/23 A2936 RMK CU6 HZ SLP940

CYWG;2011-07-20 21:00;CYWG 202100Z 25011KT 15SM BKN030 31/24 A2935 RMK CU5 SLP937

CYWG;2011-07-20 22:00;CYWG 202200Z 28022G27KT 15SM BKN032 31/23 A2938 RMK CU5 SLP945

CYWG;2011-07-20 23:00;CYWG 202300Z 27019G25KT 15SM BKN048 31/20 A2939 RMK CU5 SLP950

CYWG;2011-07-21 00:00;CYWG 210000Z 27019G25KT 15SM FEW056 29/16 A2942 RMK CU2 SLP959

CYWG;2011-07-21 01:00;CYWG 210100Z 27019G28KT 15SM FEW064 27/15 A2945 RMK CU1 SLP970

CYWG;2011-07-21 02:00;CYWG 210200Z 28019G26KT 15SM FEW060 26/15 A2947 RMK CU1 SLP976

CYWG;2011-07-21 03:00;CYWG 210300Z 28015G24KT 15SM FEW060 24/14 A2950 RMK CU1 SLP989

CYWG;2011-07-21 04:00;CYWG 210400Z 27015G24KT 15SM FEW050 23/14 A2953 RMK SC1 SLP997

CYWG;2011-07-21 05:00;CYWG 210500Z 28017G22KT 15SM SKC 21/14 A2955 RMK SLP006

CYWG;2011-07-21 06:00;CYWG 210600Z 29015G21KT 15SM SKC 20/13 A2958 RMK SLP015

CYWG;2011-07-21 07:00;CYWG 210700Z 27010G15KT 15SM SKC 19/13 A2961 RMK SLP024

CYWG;2011-07-21 08:00;CYWG 210800Z 25009KT 15SM SKC 18/12 A2962 RMK SLP028

CYWG;2011-07-21 09:00;CYWG 210900Z 24010KT 15SM SKC 17/12 A2961 RMK SLP027

CYWG;2011-07-21 10:00;CYWG 211000Z 25011KT 15SM SKC 17/12 A2963 RMK SLP031

CYWG;2011-07-21 11:00;CYWG 211100Z 24011KT 15SM SKC 16/11 A2962 RMK SLP030

CYWG;2011-07-21 12:00;CYWG 211200Z 24011KT 15SM SKC 17/12 A2963 RMK SLP033

CYWG;2011-07-21 13:00;CYWG 211300Z 24013G18KT 15SM SKC 19/12 A2964 RMK SLP036

CYWG;2011-07-21 14:00;CYWG 211400Z 23016KT 15SM SKC 21/12 A2964 RMK SLP037

CYWG;2011-07-21 15:00;CYWG 211500Z 23016G24KT 15SM SKC 22/12 A2964 RMK SLP035

CYWG;2011-07-21 16:00;CYWG 211600Z 24015G21KT 15SM SKC 24/12 A2964 RMK SLP034

CYWG;2011-07-21 17:00;CYWG 211700Z 25020G26KT 15SM SKC 25/10 A2963 RMK SLP031

CYWG;2011-07-21 18:00;CYWG 211800Z 25020G29KT 15SM FEW064 27/10 A2962 RMK CU1 SLP030

CYWG;2011-07-21 19:00;CYWG 211900Z 26019G30KT 15SM FEW070 28/09 A2962 RMK CU1 CU TR SLP028

CYWG;2011-07-21 20:00;CYWG 212000Z 25020G35KT 15SM FEW070 29/08 A2961 RMK CF1 CF TR SLP027

CYWG;2011-07-21 21:00;CYWG 212100Z 26023G39KT 15SM FEW070 28/06 A2962 RMK CF1 CF TR SLP029

CYWG;2011-07-21 22:00;CYWG 212200Z 27023G33KT 15SM FEW070 28/06 A2963 RMK CF1 CF TR SLP032

CYWG;2011-07-21 23:00;CYWG 212300Z 27020G29KT 15SM FEW070 FEW270 28/07 A2964 RMK CF1CI0 CF TR SLP037

CYWG;2011-07-22 00:00;CYWG 220000Z 27018G25KT 15SM FEW070 FEW270 27/08 A2965 RMK CU1CI1 CU CI TR SLP040

CYWG;2011-07-22 01:00;CYWG 220100Z 27014G21KT 15SM FEW060 FEW270 25/08 A2966 RMK CU1CI1 CU CI TR SLP044

CYWG;2011-07-22 02:00;CYWG 220200Z 27010KT 15SM FEW060 FEW120 23/08 A2967 RMK SC1AC1 SC AC TR SLP046

CYWG;2011-07-22 03:00;CYWG 220300Z 27007KT 15SM FEW060 FEW120 19/09 A2970 RMK SC1AC1 SLP056

CYWG;2011-07-22 04:00;CYWG 220400Z 28008KT 15SM FEW050 FEW120 18/09 A2971 RMK SC1AC1 SLP060

CYWG;2011-07-22 05:00;CYWG 220500Z 30009KT 15SM FEW120 18/09 A2972 RMK AC1 SLP063

CYWG;2011-07-22 06:00;CYWG 220600Z 28007KT 15SM SKC 14/10 A2974 RMK SLP071

CYWG;2011-07-22 07:00;CYWG 220700Z 34004KT 15SM SKC 12/10 A2977 RMK SLP080

CYWG;2011-07-22 08:00;CYWG 220800Z CCB 27003KT 15SM SKC 12/11 A2980 RMK SLP092

CYWG;2011-07-22 09:00;CYWG 220900Z 26003KT 15SM FEW100 11/10 A2981 RMK AC1 SLP095

CYWG;2011-07-22 10:00;CYWG 221000Z 31004KT 15SM FEW030 10/09 A2982 RMK SC1 SLP099

CYWG;2011-07-22 11:00;CYWG 221100Z 32004KT 15SM FEW030 10/09 A2983 RMK SC1 SLP101

CYWG;2011-07-22 12:00;CYWG 221200Z 30004KT 15SM BKN025 13/12 A2985 RMK SC6 SLP109

CYWG;2011-07-22 13:00;CYWG 221300Z 34006KT 15SM FEW016 BKN024 15/13 A2987 RMK SF1SC6 SLP117

CYWG;2011-07-22 14:00;CYWG 221400Z 36009KT 15SM FEW013 BKN025 16/12 A2990 RMK SC2SC6 SLP124

CYWG;2011-07-22 15:00;CYWG 221500Z 34012KT 15SM BKN023 17/11 A2991 RMK SC6 SLP130

CYWG;2011-07-22 16:00;CYWG 221600Z 36010G15KT 15SM BKN023 19/11 A2993 RMK SC6 SLP136

CYWG;2011-07-22 17:00;CYWG 221700Z 01010G16KT 15SM BKN025 18/11 A2994 RMK SC6 SLP142

CYWG;2011-07-22 18:00;CYWG 221800Z 02012KT 15SM BKN028 19/11 A2995 RMK SC7 SLP146

CYWG;2011-07-22 19:00;CYWG 221900Z 01008KT 15SM BKN027 18/11 A2996 RMK SC6 SLP148

CYWG;2011-07-22 20:00;CYWG 222000Z 02011G16KT 15SM BKN033 20/11 A2996 RMK SC6 SLP148

CYWG;2011-07-22 21:00;CYWG 222100Z 03013G20KT 15SM BKN033 18/10 A2998 RMK SC6 SLP155

CYWG;2011-07-22 22:00;CYWG 222200Z 03014G21KT 15SM BKN029 18/11 A2998 RMK SC6 SLP157

CYWG;2011-07-22 23:00;CYWG 222300Z 03017KT 15SM BKN029 18/10 A2997 RMK SC5 SLP154

CYWG;2011-07-23 00:00;CYWG 230000Z 04011G16KT 15SM FEW029 SCT250 18/10 A2997 RMK SC2CI1 SLP152

CYWG;2011-07-23 01:00;CYWG 230100Z 03013KT 15SM FEW029 SCT250 17/10 A3000 RMK SC1CI2 SLP161

CYWG;2011-07-23 02:00;CYWG 230200Z 04009KT 15SM BKN250 16/10 A3000 RMK CI3 SLP161

CYWG;2011-07-23 03:00;CYWG 230300Z 04008KT 15SM FEW030 FEW250 14/10 A3002 RMK SC1CI1 SLP170

CYWG;2011-07-23 04:00;CYWG 230400Z 05011KT 15SM SCT250 14/09 A3003 RMK CI1 SLP171

CYWG;2011-07-23 05:00;CYWG 230500Z 05009KT 15SM BKN250 14/09 A3004 RMK CI2 SLP176

CYWG;2011-07-23 06:00;CYWG 230600Z 06015KT 15SM BKN120 13/08 A3002 RMK AC6 SLP168

CYWG;2011-07-23 07:00;CYWG 230700Z 06009KT 15SM OVC120 12/08 A3003 RMK AC7 SLP172

CYWG;2011-07-23 08:00;CYWG 230800Z 07009KT 15SM OVC110 12/08 A3003 RMK AC8 SLP174

CYWG;2011-07-23 09:00;CYWG 230900Z 08009KT 15SM OVC110 13/08 A3003 RMK AC8 SLP173

CYWG;2011-07-23 10:00;CYWG 231000Z 10012KT 15SM OVC110 12/08 A3001 RMK AC7 SLP165

CYWG;2011-07-23 11:00;CYWG 231100Z 09011KT 15SM BKN110 BKN240 12/08 A3000 RMK AC6CI1 SLP162

CYWG;2011-07-23 12:00;CYWG 231200Z 08009KT 15SM FEW027 SCT110 BKN150 OVC240 12/08 A3000 RMK SC1AC2AC2CI3 SLP162

CYWG;2011-07-23 13:00;CYWG 231300Z 06011KT 15SM FEW027 FEW110 BKN150 OVC230 13/08 A3000 RMK SC1AC2AC3CI3 TR SC SLP164

CYWG;2011-07-23 14:00;CYWG 231400Z 06010KT 15SM FEW026 FEW110 BKN150 BKN230 14/09 A3003 RMK SC1AC2AC3CI2 TR SC SLP173

CYWG;2011-07-23 15:00;CYWG 231500Z 08010G15KT 15SM FEW024 FEW110 BKN150 BKN230 15/09 A3002 RMK CF1AC2AC2CI2 TR CF SLP170

CYWG;2011-07-23 16:00;CYWG 231600Z 10014G20KT 15SM FEW025 FEW110 FEW150 BKN230 16/10 A2999 RMK CF1AC1AC1CI1 SLP160

CYWG;2011-07-23 17:00;CYWG 231700Z 09013KT 15SM FEW032 FEW120 SCT230 18/10 A3001 RMK CF1AC1CI1 SLP166

CYWG;2011-07-23 18:00;CYWG 231800Z 07010KT 15SM FEW035 FEW120 SCT230 19/10 A3002 RMK CF1AC1CI1 SLP168

CYWG;2011-07-23 19:00;CYWG 231900Z 07005KT 15SM FEW035 FEW120 FEW230 19/10 A3000 RMK CF1AC1CI1 SLP162

CYWG;2011-07-23 20:00;CYWG 232000Z 09006G18KT 15SM FEW035 BKN100 BKN230 20/09 A2998 RMK CF1AC4CI1 SLP157

CYWG;2011-07-23 21:00;CYWG 232100Z 14007KT 15SM BKN080 BKN230 20/10 A2998 RMK AC6CI2 SLP156

CYWG;2011-07-23 21:21;CYWG 232121Z 17005KT 15SM -RA SCT041 BKN080 19/ RMK SC3AC4

CYWG;2011-07-23 21:47;CYWG 232147Z 09012G19KT 15SM RA FEW009 BKN017 17/ RMK SF1SC6

CYWG;2011-07-23 22:00;CYWG 232200Z 07012G19KT 15SM -RA FEW009 BKN015 BKN250 17/13 A2992 RMK SF1SC6CI1 PRESFR SLP136

CYWG;2011-07-23 22:17;CYWG 232217Z 08005KT 15SM BKN015 BKN097 18/ RMK SC5AC2

CYWG;2011-07-23 23:00;CYWG 232300Z 00000KT 15SM BKN038 BKN088 19/12 A3003 RMK SC5AC2 PRESRR SLP170

CYWG;2011-07-23 23:41;CYWG 232341Z 29002KT 15SM -RA BKN032 OVC088 18/ RMK SC5AC2

CYWG;2011-07-24 00:00;CYWG 240000Z 31004KT 12SM -RA OVC032 17/15 A3004 RMK SC8 SLP178

CYWG;2011-07-24 01:00;CYWG 240100Z 12008KT 15SM SCT018 BKN250 16/14 A2999 RMK SC3CI2 SLP162

CYWG;2011-07-24 02:00;CYWG 240200Z 16007KT 15SM FEW020 FEW080 15/14 A3000 RMK SC1AC1 SLP164

CYWG;2011-07-24 03:00;CYWG 240300Z 19005KT 15SM BKN036 16/14 A3003 RMK SC6 SLP173

CYWG;2011-07-24 03:32;CYWG 240332Z 21009KT 15SM -DZ BKN007 OVC030 15/ RMK SF5SC3

CYWG;2011-07-24 04:00;CYWG 240400Z 21007KT 10SM -DZ BKN007 OVC027 15/14 A3004 RMK SF6SC2 SLP176

CYWG;2011-07-24 04:42;CYWG 240442Z 20006KT 6SM -RA BKN007 OVC019 15/ RMK SF5SC3

CYWG;2011-07-24 05:00;CYWG 240500Z 19006KT 6SM -RA BR BKN006 OVC021 15/14 A3004 RMK SF6SC2 SLP177

CYWG;2011-07-24 06:00;CYWG 240600Z 19005KT 15SM -RA FEW005 OVC011 15/15 A3005 RMK SF2SC6 SLP177

CYWG;2011-07-24 06:18;CYWG 240618Z 19006KT 15SM FEW006 OVC016 15/ RMK SF2SC6

CYWG;2011-07-24 07:00;CYWG 240700Z 20004KT 15SM FEW006 BKN018 15/14 A3004 RMK SF1SC6 SLP175

CYWG;2011-07-24 08:00;CYWG 240800Z 21005KT 15SM BKN013 BKN037 15/14 A3003 RMK SC6SC2 SLP173

CYWG;2011-07-24 09:00;CYWG 240900Z 22003KT 15SM BKN006 BKN032 15/14 A3003 RMK SF5SC2 SLP172

CYWG;2011-07-24 09:34;CYWG 240934Z 23005KT 15SM OVC004 15/ RMK ST8

CYWG;2011-07-24 10:00;CYWG 241000Z 23005KT 12SM OVC005 15/14 A3004 RMK ST8 SLP174

CYWG;2011-07-24 10:31;CYWG 241031Z 24007KT 15SM BKN002 OVC010 14/ RMK ST6SC2

CYWG;2011-07-24 11:00;CYWG 241100Z 20002KT 12SM BKN003 OVC010 14/14 A3005 RMK SF7SC1 SLP178

CYWG;2011-07-24 11:15;CYWG 241115Z 22004KT 12SM BKN006 OVC010 14/ RMK SF7SC1

CYWG;2011-07-24 12:00;CYWG 241200Z 22003KT 15SM BKN006 14/14 A3004 RMK SF7 SLP177

CYWG;2011-07-24 12:24;CYWG 241224Z 23003KT 15SM BKN004 14/ RMK SF6

CYWG;2011-07-24 13:00;CYWG 241300Z 21004KT 15SM BKN004 15/14 A3004 RMK SF6 SLP177

CYWG;2011-07-24 13:10;CYWG 241310Z 23003KT 15SM SCT005 15/ RMK SF4

CYWG;2011-07-24 13:27;CYWG 241327Z 22005KT 15SM BKN006 16/ RMK SF6

CYWG;2011-07-24 13:49;CYWG 241349Z 20007KT 15SM SCT005 16/ RMK SF4

CYWG;2011-07-24 14:00;CYWG 241400Z 21007KT 15SM SCT005 16/15 A3004 RMK SF4 SLP175

CYWG;2011-07-24 14:11;CYWG 241411Z 23006KT 15SM BKN005 17/ RMK SF6

CYWG;2011-07-24 15:00;CYWG 241500Z 22005KT 15SM BKN009 18/16 A3003 RMK SC6 SLP174

CYWG;2011-07-24 15:37;CYWG 241537Z 22007KT 15SM SCT010 19/ RMK SC3

CYWG;2011-07-24 16:00;CYWG 241600Z 22009KT 15SM BKN013 19/15 A3004 RMK SC5 SLP175

CYWG;2011-07-24 16:32;CYWG 241632Z 21008KT 15SM SCT015 20/ RMK SC4

CYWG;2011-07-24 17:00;CYWG 241700Z 25011KT 15SM FEW021 21/15 A3002 RMK SC2 SLP170

CYWG;2011-07-24 18:00;CYWG 241800Z 23007KT 15SM FEW032 FEW300 23/15 A3001 RMK CU2CI1 SLP163

CYWG;2011-07-24 19:00;CYWG 241900Z 28007KT 15SM BKN037 BKN085 23/14 A3000 RMK CU5AC1 SLP161

CYWG;2011-07-24 20:00;CYWG 242000Z 25009KT 15SM SCT042 26/13 A2999 RMK CU4 SLP158

CYWG;2011-07-24 21:00;CYWG 242100Z 27006KT 15SM SCT054 26/12 A2998 RMK CU4 SLP152

CYWG;2011-07-24 22:00;CYWG 242200Z 29006KT 15SM SCT059 26/12 A2996 RMK CU4 SLP148

CYWG;2011-07-24 23:00;CYWG 242300Z 26009KT 15SM SCT066 26/11 A2995 RMK CU3 SLP143

CYWG;2011-07-25 00:00;CYWG 250000Z 27009KT 15SM FEW064 26/11 A2994 RMK CU1 SLP139

CYWG;2011-07-25 01:00;CYWG 250100Z 26007KT 15SM FEW100 24/12 A2993 RMK AC1 SLP137

CYWG;2011-07-25 02:00;CYWG 250200Z 23005KT 15SM FEW100 21/12 A2992 RMK AC1 SLP133

CYWG;2011-07-25 03:00;CYWG 250300Z 21007KT 15SM FEW100 21/12 A2991 RMK AC1 SLP131

CYWG;2011-07-25 04:00;CYWG 250400Z 21010KT 15SM FEW100 21/12 A2989 RMK AC1 SLP124

CYWG;2011-07-25 05:00;CYWG 250500Z 23011KT 15SM FEW100 20/13 A2988 RMK AC1 SLP121

CYWG;2011-07-25 06:00;CYWG 250600Z 26009KT 15SM FEW088 19/13 A2990 RMK AC2 SLP124

CYWG;2011-07-25 07:00;CYWG 250700Z 27007KT 15SM FEW090 16/13 A2990 RMK AC2 SLP126

CYWG;2011-07-25 08:00;CYWG 250800Z 26006KT 15SM FEW090 16/13 A2990 RMK AC1 SLP125

CYWG;2011-07-25 09:00;CYWG 250900Z 26005KT 15SM FEW090 14/13 A2990 RMK AC1 SLP125

CYWG;2011-07-25 10:00;CYWG 251000Z 26006KT 15SM FEW090 14/13 A2990 RMK AC1 SLP127

CYWG;2011-07-25 11:00;CYWG 251100Z 27007KT 15SM FEW090 13/12 A2992 RMK AC1 AC TR SLP133

CYWG;2011-07-25 12:00;CYWG 251200Z 30005KT 15SM FEW023 14/13 A2993 RMK CU1 SLP138

CYWG;2011-07-25 13:00;CYWG 251300Z 30006KT 15SM FEW022 17/15 A2995 RMK CU1 SLP142

CYWG;2011-07-25 14:00;CYWG 251400Z 36008KT 15SM FEW025 19/15 A2995 RMK CU2 SLP143

CYWG;2011-07-25 15:00;CYWG 251500Z 32011KT 15SM BKN020 20/15 A2995 RMK CU5 SLP143

CYWG;2011-07-25 16:00;CYWG 251600Z 30009KT 15SM FEW028 22/15 A2995 RMK CU2 SLP142

CYWG;2011-07-25 17:00;CYWG 251700Z 34009KT 15SM SCT034 22/14 A2995 RMK CU4 SLP143

CYWG;2011-07-25 18:00;CYWG 251800Z 32007KT 15SM BKN038 24/14 A2995 RMK CU5 SLP142

CYWG;2011-07-25 19:00;CYWG 251900Z 33010G15KT 15SM FEW042 24/14 A2995 RMK CU2 SLP141

CYWG;2011-07-25 20:00;CYWG 252000Z 33009G16KT 15SM FEW048 25/13 A2994 RMK CU2 SLP140

CYWG;2011-07-25 21:00;CYWG 252100Z 33010G17KT 15SM FEW048 25/12 A2994 RMK CU2 SLP140

CYWG;2011-07-25 22:00;CYWG 252200Z 31010G15KT 15SM FEW050 24/11 A2993 RMK CU1 SLP138

CYWG;2011-07-25 23:00;CYWG 252300Z 32011KT 15SM FEW050 24/11 A2993 RMK CU1 SLP137

CYWG;2011-07-26 00:00;CYWG 260000Z 31010KT 15SM FEW050 24/10 A2992 RMK CU1 CU TR SLP132

CYWG;2011-07-26 01:00;CYWG 260100Z 01005KT 15SM FEW050 FEW250 23/13 A2990 RMK CU1CI1 TR CU CI SLP128

CYWG;2011-07-26 02:00;CYWG 260200Z 01004KT 15SM FEW230 20/13 A2989 RMK CI0 SLP123

CYWG;2011-07-26 03:00;CYWG 260300Z 00000KT 15SM FEW230 18/12 A2989 RMK CI1 SLP124

CYWG;2011-07-26 04:00;CYWG 260400Z 00000KT 15SM FEW230 16/12 A2989 RMK CI1 SLP124

CYWG;2011-07-26 05:00;CYWG 260500Z 15002KT 15SM FEW230 14/12 A2989 RMK CI0 SLP124

CYWG;2011-07-26 06:00;CYWG 260600Z 19003KT 15SM SKC 13/11 A2991 RMK SLP131

CYWG;2011-07-26 07:00;CYWG 260700Z 23002KT 15SM SKC 12/11 A2992 RMK SLP134

CYWG;2011-07-26 08:00;CYWG 260800Z 19004KT 15SM SKC 14/11 A2991 RMK SLP129

CYWG;2011-07-26 09:00;CYWG 260900Z 18004KT 15SM FEW250 13/11 A2990 RMK CI0 SLP128

CYWG;2011-07-26 10:00;CYWG 261000Z 14003KT 15SM FEW140 FEW250 13/11 A2989 RMK AC1CI1 SLP123

CYWG;2011-07-26 11:00;CYWG 261100Z 15004KT 15SM FEW140 SCT250 12/11 A2990 RMK AC1CI1 SLP126

CYWG;2011-07-26 12:00;CYWG 261200Z 18005KT 15SM FEW140 SCT250 16/13 A2989 RMK AC1CI1 SLP124

CYWG;2011-07-26 13:00;CYWG 261300Z 17008KT 15SM FEW140 SCT250 18/13 A2989 RMK AC1CI1 SLP124

CYWG;2011-07-26 14:00;CYWG 261400Z 15007KT 15SM FEW095 BKN250 21/14 A2988 RMK AC2CI2 SLP120

CYWG;2011-07-26 15:00;CYWG 261500Z 15007KT 15SM FEW095 BKN250 23/13 A2987 RMK AC2CI2 SLP117

CYWG;2011-07-26 16:00;CYWG 261600Z 19010KT 15SM FEW095 BKN250 24/14 A2987 RMK AC2CI2 SLP116

CYWG;2011-07-26 17:00;CYWG 261700Z 19012KT 15SM SCT100 BKN250 25/14 A2985 RMK AC4CI2 SLP110

CYWG;2011-07-26 18:00;CYWG 261800Z 16009KT 15SM BKN100 OVC250 24/14 A2983 RMK AC5CI3 SLP101

CYWG;2011-07-26 19:00;CYWG 261900Z 17010KT 15SM BKN120 BKN250 25/15 A2980 RMK AC6CI2 SLP093

CYWG;2011-07-26 20:00;CYWG 262000Z 17008G18KT 15SM FEW070 BKN120 OVC250 27/15 A2979 RMK AC2AC3CI3 SLP089

CYWG;2011-07-26 21:00;CYWG 262100Z 19014KT 15SM FEW050 FEW070 OVC120 25/14 A2980 RMK CF1AC2AC6 SLP091

CYWG;2011-07-26 22:00;CYWG 262200Z 18013KT 15SM FEW070 OVC100 24/16 A2980 RMK AC2AC6 SLP092

CYWG;2011-07-26 22:28;CYWG 262228Z 17012KT 15SM -SHRA SCT070 OVC100 24/ RMK AC3AC5

CYWG;2011-07-26 23:00;CYWG 262300Z 20011G18KT 15SM SCT070 OVC120 23/16 A2979 RMK AC3AC5 SLP089

CYWG;2011-07-27 00:00;CYWG 270000Z 17016G21KT 15SM SCT070 BKN120 22/15 A2970 RMK AC3AC3 ACSL PRESFR SLP060

CYWG;2011-07-27 01:00;CYWG 270100Z 18009KT 15SM FEW070 BKN120 23/15 A2970 RMK AC2AC3 SLP059

CYWG;2011-07-27 02:00;CYWG 270200Z 15007KT 15SM BKN095 22/15 A2968 RMK AC6 SLP052

CYWG;2011-07-27 03:00;CYWG 270300Z 13005KT 15SM BKN100 21/15 A2967 RMK AC6 SLP048

CYWG;2011-07-27 04:00;CYWG 270400Z 00000KT 15SM BKN100 20/15 A2969 RMK AC6 SLP054

CYWG;2011-07-27 05:00;CYWG 270500Z 16005KT 15SM BKN100 21/16 A2970 RMK AC6 SLP058

CYWG;2011-07-27 06:00;CYWG 270600Z 15008KT 15SM SCT071 BKN100 21/16 A2968 RMK AC3AC4 SLP051

CYWG;2011-07-27 07:00;CYWG 270700Z 14007KT 15SM BKN068 BKN120 20/16 A2967 RMK AC5AC2 SLP046

CYWG;2011-07-27 08:00;CYWG 270800Z 16005KT 15SM BKN040 OVC081 20/16 A2966 RMK SC5AC3 SLP042

CYWG;2011-07-27 09:00;CYWG 270900Z 16008KT 15SM BKN040 BKN092 20/17 A2964 RMK SC5AC2 SLP037

CYWG;2011-07-27 09:45;CYWG 270945Z 15006KT 15SM -SHRA BKN034 OVC090 19/ RMK SC5AC3 CVCTV CLD EMB

CYWG;2011-07-27 10:00;CYWG 271000Z 15007KT 15SM -SHRA OVC032 19/17 A2964 RMK SC8 CVCTV CLD EMB SLP035

CYWG;2011-07-27 10:15;CYWG 271015Z 15007KT 15SM OVC032 19/ RMK SC8

CYWG;2011-07-27 10:52;CYWG 271052Z 17008KT 15SM FEW008 OVC026 19/ RMK SF1SC8 SF TR

CYWG;2011-07-27 11:00;CYWG 271100Z 18008KT 15SM FEW008 OVC026 19/17 A2963 RMK SF1SC8 SF TR SLP034

CYWG;2011-07-27 12:00;CYWG 271200Z 19009KT 15SM FEW008 OVC022 19/18 A2962 RMK SF1SC8 SF TR SLP031

CYWG;2011-07-27 13:00;CYWG 271300Z 19006KT 15SM SCT009 OVC018 20/18 A2963 RMK SF3SC5 SLP033

CYWG;2011-07-27 13:19;CYWG 271319Z 19007KT 15SM BKN009 OVC018 20/ RMK SF4SC4

CYWG;2011-07-27 13:24;CYWG 271324Z 20006KT 15SM BKN008 OVC016 20/ RMK SF6SC2

CYWG;2011-07-27 14:00;CYWG 271400Z 21006KT 15SM BKN009 OVC016 20/18 A2964 RMK SF6SC2 SLP035

CYWG;2011-07-27 14:49;CYWG 271449Z 20008KT 15SM BKN010 OVC016 21/ RMK SC6SC2

CYWG;2011-07-27 15:00;CYWG 271500Z 20009KT 15SM BKN010 OVC016 22/19 A2963 RMK SC6SC2 SLP033

CYWG;2011-07-27 16:00;CYWG 271600Z 21005KT 15SM SCT017 SCT140 SCT280 23/18 A2962 RMK SC4AC1CI1 AC CI TR SLP029

CYWG;2011-07-27 17:00;CYWG 271700Z 20013KT 15SM FEW019 FEW140 SCT280 25/19 A2961 RMK SC2AC1CI0 AC TR SLP028

CYWG;2011-07-27 18:00;CYWG 271800Z 21016KT 15SM FEW028 SCT280 27/19 A2961 RMK SC2CI1 SLP024

CYWG;2011-07-27 19:00;CYWG 271900Z 25013G19KT 15SM SCT034 28/18 A2961 RMK CU4 SLP024

CYWG;2011-07-27 20:00;CYWG 272000Z 27013G22KT 15SM SCT046 28/16 A2960 RMK CU3 SLP023

CYWG;2011-07-27 21:00;CYWG 272100Z 28015G22KT 15SM FEW048 29/17 A2961 RMK CU2 SLP027

CYWG;2011-07-27 22:00;CYWG 272200Z 27015G24KT 15SM SCT050 27/15 A2964 RMK CU3 SLP035

CYWG;2011-07-27 23:00;CYWG 272300Z 27017KT 15SM SCT053 26/15 A2966 RMK SC4 SLP041

CYWG;2011-07-28 00:00;CYWG 280000Z 29014G21KT 15SM FEW053 26/14 A2966 RMK SC1 SLP044

CYWG;2011-07-28 01:00;CYWG 280100Z 27010G15KT 15SM SKC 25/15 A2967 RMK SLP047

CYWG;2011-07-28 02:00;CYWG 280200Z 25006KT 15SM SKC 23/15 A2968 RMK SLP050

CYWG;2011-07-28 03:00;CYWG 280300Z 22006KT 15SM FEW050 22/15 A2970 RMK SC1 SLP056

CYWG;2011-07-28 04:00;CYWG 280400Z 23008KT 15SM SKC 21/15 A2970 RMK SLP058

CYWG;2011-07-28 05:00;CYWG 280500Z 22010KT 15SM SKC 20/15 A2972 RMK SLP064

CYWG;2011-07-28 06:00;CYWG 280600Z 24009KT 15SM SKC 20/15 A2974 RMK SLP070

CYWG;2011-07-28 07:00;CYWG 280700Z 26008KT 15SM SKC 19/14 A2974 RMK SLP071

CYWG;2011-07-28 08:00;CYWG 280800Z 26008KT 15SM SKC 17/14 A2975 RMK SLP073

CYWG;2011-07-28 09:00;CYWG 280900Z 26008KT 15SM SKC 16/14 A2977 RMK SLP081

CYWG;2011-07-28 10:00;CYWG 281000Z 25007KT 15SM FEW250 16/13 A2978 RMK CI1 SLP084

CYWG;2011-07-28 11:00;CYWG 281100Z 25008KT 15SM FEW250 16/13 A2979 RMK CI0 SLP086

CYWG;2011-07-28 12:00;CYWG 281200Z 25009KT 15SM FEW250 17/14 A2980 RMK CI0 SLP090

CYWG;2011-07-28 13:00;CYWG 281300Z 27010KT 15SM SCT250 19/14 A2981 RMK CI1 SLP096

CYWG;2011-07-28 14:00;CYWG 281400Z 25009KT 15SM SCT250 21/15 A2983 RMK CI1 SLP100

CYWG;2011-07-28 15:00;CYWG 281500Z 27012KT 15SM SCT250 23/16 A2983 RMK CI2 SLP103

CYWG;2011-07-28 16:00;CYWG 281600Z 29017KT 15SM SCT250 25/14 A2983 RMK CI1 SLP103

CYWG;2011-07-28 17:00;CYWG 281700Z 28017KT 15SM FEW040 SCT250 26/12 A2983 RMK CF1CI0 SLP103

CYWG;2011-07-28 18:00;CYWG 281800Z 27016G22KT 15SM FEW050 BKN250 27/13 A2983 RMK CF1CI1 SLP102

CYWG;2011-07-28 19:00;CYWG 281900Z 28018G24KT 15SM FEW060 FEW100 BKN250 27/12 A2985 RMK CU1AC1CI3 SLP106

CYWG;2011-07-28 20:00;CYWG 282000Z 28014G22KT 15SM FEW065 FEW120 BKN240 27/12 A2985 RMK CU1AC1CI2 SLP106

CYWG;2011-07-28 21:00;CYWG 282100Z 27014KT 15SM FEW062 SCT220 28/13 A2985 RMK CU1CI2 SLP109

CYWG;2011-07-28 22:00;CYWG 282200Z 28015G22KT 15SM FEW062 FEW130 FEW220 27/13 A2985 RMK CU1AC1CI0 SLP107

CYWG;2011-07-28 23:00;CYWG 282300Z 27014G21KT 15SM FEW061 FEW220 27/13 A2986 RMK CU2CI0 TCU ASOCTD SLP111

CYWG;2011-07-29 00:00;CYWG 290000Z 29014KT 15SM FEW060 FEW220 26/12 A2985 RMK CU1CI0 CB DSTNT NE SLP107

CYWG;2011-07-29 01:00;CYWG 290100Z 27006KT 15SM FEW060 FEW240 24/13 A2985 RMK CU1CI0 CU TR SLP108

CYWG;2011-07-29 02:00;CYWG 290200Z 25005KT 15SM FEW120 22/13 A2986 RMK AC1 SLP110

CYWG;2011-07-29 03:00;CYWG 290300Z 25005KT 15SM FEW120 20/12 A2987 RMK AC1 SLP116

CYWG;2011-07-29 04:00;CYWG 290400Z 24008KT 15SM FEW120 21/13 A2988 RMK AC1 SLP119

CYWG;2011-07-29 05:00;CYWG 290500Z 26008KT 15SM SKC 19/13 A2990 RMK SLP123

CYWG;2011-07-29 06:00;CYWG 290600Z 26009KT 15SM SKC 18/13 A2990 RMK SLP123

CYWG;2011-07-29 07:00;CYWG 290700Z 26007KT 15SM SKC 17/13 A2990 RMK SLP123

CYWG;2011-07-29 08:00;CYWG 290800Z 27008KT 15SM SKC 16/13 A2990 RMK SLP124

CYWG;2011-07-29 09:00;CYWG 290900Z 25007KT 15SM SKC 16/13 A2991 RMK SLP130

CYWG;2011-07-29 10:00;CYWG 291000Z 27007KT 15SM SKC 15/13 A2992 RMK SLP133

CYWG;2011-07-29 11:00;CYWG 291100Z 25007KT 15SM FEW140 15/13 A2994 RMK AC1 SLP138

CYWG;2011-07-29 12:00;CYWG 291200Z 27007KT 15SM SKC 16/13 A2994 RMK SLP140

CYWG;2011-07-29 13:00;CYWG 291300Z 27008KT 15SM SKC 18/14 A2995 RMK SLP143

CYWG;2011-07-29 14:00;CYWG 291400Z 28010KT 15SM SKC 21/15 A2996 RMK SLP146

CYWG;2011-07-29 15:00;CYWG 291500Z 27010KT 15SM FEW030 23/16 A2996 RMK CU1 SLP145

CYWG;2011-07-29 16:00;CYWG 291600Z 27012G17KT 15SM FEW035 24/16 A2997 RMK CU1 SLP148

CYWG;2011-07-29 17:00;CYWG 291700Z 29009KT 15SM FEW045 26/15 A2997 RMK CU1 SLP148

CYWG;2011-07-29 18:00;CYWG 291800Z 29009G16KT 15SM FEW045 27/14 A2996 RMK CU2 OBS TAKEN +23 MINS SLP147

CYWG;2011-07-29 19:00;CYWG 291900Z 30010KT 15SM FEW057 27/13 A2996 RMK CU2 SLP146

CYWG;2011-07-29 20:00;CYWG 292000Z 32006KT 15SM FEW058 27/13 A2996 RMK CU2 SLP145

CYWG;2011-07-29 21:00;CYWG 292100Z 29009KT 15SM FEW062 28/13 A2995 RMK CU1 SLP143

CYWG;2011-07-29 22:00;CYWG 292200Z 24006KT 15SM FEW064 28/12 A2994 RMK CU1 SLP140

CYWG;2011-07-29 23:00;CYWG 292300Z 28005KT 15SM FEW060 28/12 A2993 RMK CU1 TR CU SLP136

CYWG;2011-07-30 00:00;CYWG 300000Z 24005KT 15SM FEW060 27/12 A2993 RMK CU1 TR CU SLP135

CYWG;2011-07-30 01:00;CYWG 300100Z 25005KT 15SM FEW060 26/12 A2992 RMK SC1 TR SC SLP132

CYWG;2011-07-30 02:00;CYWG 300200Z 21004KT 15SM FEW240 23/13 A2991 RMK CI0 SLP129

CYWG;2011-07-30 03:00;CYWG 300300Z 19005KT 15SM FEW240 20/14 A2991 RMK CI0 SLP130

CYWG;2011-07-30 04:00;CYWG 300400Z 19007KT 15SM SKC 21/14 A2990 RMK SLP127

CYWG;2011-07-30 05:00;CYWG 300500Z 19007KT 15SM SKC 20/14 A2990 RMK SLP125

CYWG;2011-07-30 06:00;CYWG 300600Z 19010KT 15SM SKC 20/13 A2990 RMK SLP125

CYWG;2011-07-30 07:00;CYWG 300700Z 18008KT 15SM OVC090 19/13 A2987 RMK AC8 SLP116

CYWG;2011-07-30 08:00;CYWG 300800Z 18010KT 15SM BKN090 19/14 A2987 RMK AC6 SLP114

CYWG;2011-07-30 08:54;CYWG 300854Z 19013KT 15SM -SHRA OVC090 20/ RMK AC8

CYWG;2011-07-30 09:00;CYWG 300900Z 18013KT 15SM -SHRA OVC100 20/14 A2986 RMK AC8 SLP111

CYWG;2011-07-30 10:00;CYWG 301000Z 20012G18KT 15SM -SHRA FEW030 BKN100 20/15 A2980 RMK SC2AC5 PRESFR SLP090

CYWG;2011-07-30 10:08;CYWG 301008Z 21010G16KT 15SM FEW038 BKN100 20/ RMK SC2AC5

CYWG;2011-07-30 11:00;CYWG 301100Z 20002KT 15SM SCT100 OVC280 19/15 A2978 RMK AC3CI5 SLP083

CYWG;2011-07-30 12:00;CYWG 301200Z 19005KT 15SM FEW100 BKN280 19/15 A2977 RMK AC2CI2 ACC EMBD SLP082

CYWG;2011-07-30 13:00;CYWG 301300Z 22008KT 15SM FEW100 BKN280 21/15 A2981 RMK AC2CI2 ACC EMBD SLP095

CYWG;2011-07-30 14:00;CYWG 301400Z 21009KT 15SM FEW097 FEW280 23/15 A2983 RMK ACC1CI1 SLP102

CYWG;2011-07-30 15:00;CYWG 301500Z 25005KT 15SM SCT073 SCT280 24/16 A2986 RMK ACC4CI1 SLP111

CYWG;2011-07-30 16:00;CYWG 301600Z 27016G22KT 15SM FEW075 27/17 A2985 RMK ACC1 SLP109

CYWG;2011-07-30 17:00;CYWG 301700Z 31015G20KT 15SM FEW045 27/15 A2987 RMK CF1 SLP115

CYWG;2011-07-30 18:00;CYWG 301800Z 32017G24KT 15SM FEW060 28/12 A2989 RMK CF1 SLP120

CYWG;2011-07-30 19:00;CYWG 301900Z 32018G24KT 15SM FEW060 28/12 A2989 RMK CF1 SLP122

CYWG;2011-07-30 20:00;CYWG 302000Z 30021G26KT 15SM FEW065 28/10 A2990 RMK CF1 SLP123

CYWG;2011-07-30 21:00;CYWG 302100Z 31014G20KT 15SM FEW065 28/11 A2990 RMK CF1 SLP126

CYWG;2011-07-30 22:00;CYWG 302200Z 29020KT 15SM FEW065 28/11 A2991 RMK CF1 SLP127

CYWG;2011-07-30 23:00;CYWG 302300Z 30015G20KT 15SM SKC 27/10 A2992 RMK SLP131

CYWG;2011-07-31 00:00;CYWG 310000Z 30015KT 15SM SKC 26/10 A2993 RMK SLP136

CYWG;2011-07-31 01:00;CYWG 310100Z 32009KT 15SM SKC 24/13 A2993 RMK SLP137

CYWG;2011-07-31 02:00;CYWG 310200Z 31006KT 15SM SKC 19/12 A2994 RMK SLP140

CYWG;2011-07-31 03:00;CYWG 310300Z 27005KT 15SM SKC 16/11 A2996 RMK SLP146

CYWG;2011-07-31 04:00;CYWG 310400Z 29003KT 15SM SKC 15/11 A2997 RMK SLP149

CYWG;2011-07-31 05:00;CYWG 310500Z 27004KT 15SM SKC 14/11 A2999 RMK SLP155

CYWG;2011-07-31 06:00;CYWG 310600Z 26005KT 15SM SKC 15/12 A2999 RMK SLP158

CYWG;2011-07-31 07:00;CYWG 310700Z 25006KT 15SM SKC 14/11 A3001 RMK SLP164

CYWG;2011-07-31 08:00;CYWG 310800Z 24007KT 15SM SKC 14/11 A3002 RMK SLP166

CYWG;2011-07-31 09:00;CYWG 310900Z 24006KT 15SM SKC 13/10 A3003 RMK SLP168

CYWG;2011-07-31 10:00;CYWG 311000Z 26008KT 15SM SKC 14/11 A3003 RMK SLP169

CYWG;2011-07-31 11:00;CYWG 311100Z 27007KT 15SM FEW250 13/11 A3003 RMK CI1 SLP171

CYWG;2011-07-31 12:00;CYWG 311200Z 27004KT 15SM FEW250 14/11 A3004 RMK CI1 SLP173

CYWG;2011-07-31 13:00;CYWG 311300Z 27006KT 15SM FEW250 16/12 A3004 RMK CI1 SLP175

CYWG;2011-07-31 14:00;CYWG 311400Z 28006KT 15SM FEW250 20/13 A3005 RMK CI1 SLP176

CYWG;2011-07-31 15:00;CYWG 311500Z 29005KT 15SM FEW250 23/13 A3005 RMK CI1 SLP176

CYWG;2011-07-31 16:00;CYWG 311600Z 25005KT 15SM FEW250 25/11 A3005 RMK CI1 SLP176

CYWG;2011-07-31 17:00;CYWG 311700Z 26006KT 15SM FEW250 26/11 A3004 RMK CI1 SLP175

CYWG;2011-07-31 18:00;CYWG 311800Z 27008KT 15SM FEW250 27/11 A3003 RMK CI1 SLP169

CYWG;2011-07-31 19:00;CYWG 311900Z 27007KT 15SM FEW250 28/10 A3001 RMK CI1 CI TR SLP164

CYWG;2011-07-31 20:00;CYWG 312000Z 27010KT 15SM FEW250 28/10 A3001 RMK CI1 SLP163

CYWG;2011-07-31 21:00;CYWG 312100Z 28005KT 15SM FEW130 BKN250 29/11 A2998 RMK AC1CI2 SLP152

CYWG;2011-07-31 22:00;CYWG 312200Z 23007KT 15SM FEW140 FEW250 29/12 A2998 RMK AC1CI0 SLP152

CYWG;2011-07-31 23:00;CYWG 312300Z 19007KT 15SM FEW120 29/12 A2996 RMK AC1 CB DSTNT N SLP146

CYWG;2011-08-01 01:00;CYWG 010100Z 21009KT 15SM FEW110 26/15 A2995 RMK AC2 ACC ASOCTD CB DSTNT NE SLP143

CYWG;2011-08-01 02:00;CYWG 010200Z 19006KT 15SM FEW110 24/15 A2995 RMK ACC2 CB DSTNT NE SLP142

CYWG;2011-08-01 03:00;CYWG 010300Z 16005KT 15SM FEW110 21/15 A2995 RMK ACC2 SLP142

CYWG;2011-08-01 04:00;CYWG 010400Z 15007KT 15SM FEW110 20/15 A2994 RMK AC2 SLP139

CYWG;2011-08-01 05:00;CYWG 010500Z 14008KT 15SM SKC 20/15 A2993 RMK SLP134

CYWG;2011-08-01 06:00;CYWG 010600Z 16007KT 15SM SKC 19/14 A2993 RMK SLP134

CYWG;2011-08-01 07:00;CYWG 010700Z 14008KT 15SM SKC 20/14 A2990 RMK SLP125

CYWG;2011-08-01 08:00;CYWG 010800Z 14008KT 15SM SKC 20/14 A2987 RMK SLP116

CYWG;2011-08-01 09:00;CYWG 010900Z 15010KT 15SM BKN040 22/14 A2988 RMK SC5 SLP117

CYWG;2011-08-01 10:00;CYWG 011000Z 16008KT 15SM FEW049CB SCT095 BKN250 22/14 A2985 RMK CB2AC2CI0 CB + LIGTIC N SLP107

CYWG;2011-08-01 11:00;CYWG 011100Z 14010KT 15SM FEW045TCU FEW140 BKN280 20/14 A2986 RMK TCU1AC2CI1 SLP109

CYWG;2011-08-01 12:00;CYWG 011200Z 14009KT 15SM FEW070 FEW140 BKN180 BKN280 20/16 A2985 RMK ACC1AC1AC3CI0 SLP108

CYWG;2011-08-01 13:00;CYWG 011300Z 18008KT 15SM FEW180 FEW280 21/18 A2983 RMK AC1CI0 SLP102

CYWG;2011-08-01 14:00;CYWG 011400Z 19010KT 15SM SCT280 24/19 A2981 RMK CI2 SLP094

CYWG;2011-08-01 15:00;CYWG 011500Z 18011KT 15SM BKN280 26/18 A2980 RMK CI2 SLP090

CYWG;2011-08-01 16:00;CYWG 011600Z 18015KT 15SM FEW180 BKN280 28/18 A2980 RMK AC2CI2 SLP089

CYWG;2011-08-01 17:00;CYWG 011700Z 18018G24KT 15SM FEW180 BKN280 29/19 A2977 RMK AC1CI1 SLP081

CYWG;2011-08-01 18:00;CYWG 011800Z 17017G22KT 15SM SCT280 31/19 A2976 RMK CI2 SLP076

CYWG;2011-08-01 19:00;CYWG 011900Z 19014G20KT 15SM FEW085 SCT280 31/20 A2974 RMK AC2CI2 SLP071

CYWG;2011-08-01 20:00;CYWG 012000Z 20013KT 15SM FEW085 BKN250 30/20 A2974 RMK AC2CI4 SLP071

CYWG;2011-08-01 21:00;CYWG 012100Z 20013KT 15SM SCT085 BKN250 30/20 A2974 RMK AC3CI4 SLP070

CYWG;2011-08-01 22:00;CYWG 012200Z 22006KT 15SM SCT085 OVC250 30/21 A2974 RMK AC3CI5 SLP069

CYWG;2011-08-01 23:00;CYWG 012300Z 20008KT 15SM SCT079 OVC250 29/21 A2973 RMK AC3CI5 SLP064

CYWG;2011-08-02 00:00;CYWG 020000Z 20008KT 15SM SCT075 OVC250 28/22 A2972 RMK AC3CI5 SLP064

CYWG;2011-08-02 00:48;CYWG 020048Z 20009KT 15SM -SHRA BKN075 OVC250 28/ RMK AC5CI3

CYWG;2011-08-02 01:00;CYWG 020100Z 20009KT 8SM -SHRA SCT037 BKN075 OVC250 27/23 A2974 RMK SC4AC2CI2 SLP070

CYWG;2011-08-02 02:00;CYWG 020200Z 21007KT 12SM -SHRA BKN016 BKN065 OVC250 24/24 A2974 RMK SC5AC2CI2 SLP068

CYWG;2011-08-02 03:00;CYWG 020300Z 20006KT 12SM -SHRA SCT016 OVC065 24/24 A2975 RMK SC4AC4 CVCTV CLD ASOCTD SLP072

CYWG;2011-08-02 04:00;CYWG 020400Z 17006KT 12SM -SHRA OVC050 24/23 A2969 RMK SC8 CVCTV CLD ASOCTD PRESFR SLP052

CYWG;2011-08-02 04:45;CYWG 020445Z 22007KT 15SM OVC056 24/ RMK SC8 LTGIC W

CYWG;2011-08-02 05:00;CYWG 020500Z 23007KT 15SM SCT050 BKN070 24/23 A2968 RMK SC3AC2 LTGIC W SLP049

CYWG;2011-08-02 06:00;CYWG 020600Z 29009KT 15SM SCT008 OVC066 23/23 A2972 RMK ST3AC5 SLP061

CYWG;2011-08-02 06:19;CYWG 020619Z 31008G17KT 10SM -SHRA SCT006 OVC066 23/ RMK SF4AC4

CYWG;2011-08-02 07:00;CYWG 020700Z 27004KT 6SM SHRA OVC018 22/21 A2970 RMK SC8 TCU EMBD SLP054

CYWG;2011-08-02 07:17;CYWG 020717Z 32007KT 10SM -SHRA OVC018 22/ RMK SC8 RERA

CYWG;2011-08-02 07:48;CYWG 020748Z 30004KT 15SM BKN018 OVC091 21/ RERA RMK SC5AC3

CYWG;2011-08-02 08:00;CYWG 020800Z 30006KT 15SM OVC034 21/20 A2972 RMK SC8 SLP062

CYWG;2011-08-02 09:00;CYWG 020900Z 32007KT 15SM BKN061 21/20 A2974 RMK SC6 SLP069

CYWG;2011-08-02 10:00;CYWG 021000Z 33007KT 15SM BKN059 BKN076 21/19 A2976 RMK SC5AC2 SLP075

CYWG;2011-08-02 11:00;CYWG 021100Z 32012KT 15SM FEW098 20/18 A2977 RMK AC1 SLP079

CYWG;2011-08-02 12:00;CYWG 021200Z 31007KT 15SM FEW098 19/17 A2980 RMK AC1 OBS TAKEN +04 SLP091

CYWG;2011-08-02 13:00;CYWG 021300Z 33013KT 15SM FEW100 21/17 A2982 RMK AC1 SLP097

CYWG;2011-08-02 14:00;CYWG 021400Z 33015KT 15SM FEW270 22/17 A2984 RMK CI1 OBS TAKEN +02 SLP105

CYWG;2011-08-02 15:00;CYWG 021500Z 32012KT 15SM FEW270 23/17 A2986 RMK CI1 SLP109

CYWG;2011-08-02 16:00;CYWG 021600Z 32012G17KT 15SM FEW120 24/17 A2986 RMK AC1 SLP111

CYWG;2011-08-02 17:00;CYWG 021700Z 32014G19KT 15SM FEW040 FEW120 26/16 A2987 RMK CF1AC1 SLP114

CYWG;2011-08-02 18:00;CYWG 021800Z 33018KT 15SM FEW050 26/13 A2989 RMK CU2 OBS TAKEN +02 SLP119

CYWG;2011-08-02 19:00;CYWG 021900Z 32016KT 15SM FEW050 26/13 A2989 RMK CU1 SLP120

CYWG;2011-08-02 20:00;CYWG 022000Z 32013G20KT 15SM FEW050 26/12 A2989 RMK CU1 SLP120

CYWG;2011-08-02 21:00;CYWG 022100Z 32014G19KT 15SM SKC 26/12 A2989 RMK SLP122

CYWG;2011-08-02 22:00;CYWG 022200Z 33012G20KT 15SM FEW250 26/11 A2990 RMK CI1 SLP125

CYWG;2011-08-02 23:00;CYWG 022300Z 32012G19KT 15SM FEW250 26/11 A2990 RMK CI1 SLP124

CYWG;2011-08-03 00:00;CYWG 030000Z 32013KT 15SM FEW250 25/11 A2990 RMK CI2 SLP124

CYWG;2011-08-03 01:00;CYWG 030100Z 33004KT 15SM FEW250 23/14 A2989 RMK CI2 SLP121

CYWG;2011-08-03 02:00;CYWG 030200Z 34002KT 15SM FEW100 FEW250 20/14 A2989 RMK AC1CI1 SLP121

CYWG;2011-08-03 03:00;CYWG 030300Z 24004KT 15SM FEW086 FEW250 18/13 A2990 RMK AC1CI1 SLP127

CYWG;2011-08-03 04:00;CYWG 030400Z 28004KT 15SM FEW086 FEW250 16/13 A2990 RMK AC1CI1 SLP126

CYWG;2011-08-03 05:00;CYWG 030500Z 00000KT 15SM FEW091 16/12 A2991 RMK AC1 SLP128

CYWG;2011-08-03 06:00;CYWG 030600Z 00000KT 15SM SKC 15/12 A2990 RMK SLP127

CYWG;2011-08-03 07:00;CYWG 030700Z 00000KT 15SM SKC 14/13 A2990 RMK SLP126

CYWG;2011-08-03 08:00;CYWG 030800Z 17002KT 15SM SKC 15/12 A2990 RMK SLP127

CYWG;2011-08-03 09:00;CYWG 030900Z 19002KT 15SM FEW100 15/12 A2990 RMK AC2 SLP127

CYWG;2011-08-03 10:00;CYWG 031000Z 16005KT 15SM FEW097 14/13 A2989 RMK AC2 SLP123

CYWG;2011-08-03 11:00;CYWG 031100Z 17007KT 15SM FEW092 FEW240 15/13 A2990 RMK AC2CI1 SLP125

CYWG;2011-08-03 12:00;CYWG 031200Z 18006KT 15SM FEW092 FEW240 15/13 A2990 RMK AC1CI1 SLP126

CYWG;2011-08-03 13:00;CYWG 031300Z 17006KT 15SM FEW095 FEW240 17/14 A2990 RMK AC1CI1 SLP124

CYWG;2011-08-03 14:00;CYWG 031400Z 17010KT 15SM FEW095 FEW240 21/13 A2987 RMK AC1CI1 SLP115

CYWG;2011-08-03 15:00;CYWG 031500Z 18012KT 15SM BKN120 BKN240 23/14 A2987 RMK AC5CI0 SLP115

CYWG;2011-08-03 16:00;CYWG 031600Z 19016KT 15SM FEW097 OVC120 24/13 A2987 RMK AC1AC7 SLP117

CYWG;2011-08-03 16:49;CYWG 031649Z 19016KT 15SM -SHRA FEW089 OVC120 23/ RMK AC2AC6

CYWG;2011-08-03 17:00;CYWG 031700Z 18014G19KT 15SM -SHRA FEW043 BKN089 OVC120 23/14 A2984 RMK SC1AC4AC3 SLP107

CYWG;2011-08-03 18:00;CYWG 031800Z 18017G22KT 15SM -SHRA FEW028 BKN062 BKN120 22/16 A2980 RMK SC1SC4AC2 SLP091

CYWG;2011-08-03 18:39;CYWG 031839Z 19023KT 15SM FEW062 SCT120 SCT250 26/ RMK SC2ACC2CI0

CYWG;2011-08-03 19:00;CYWG 031900Z 20019G30KT 15SM FEW035 FEW082 FEW140 BKN250 26/16 A2980 RMK CU1ACC1AC2CI1 CU TR SLP092

CYWG;2011-08-03 20:00;CYWG 032000Z 20019G25KT 15SM FEW098 FEW140 FEW250 28/15 A2980 RMK AC1AC1CI0 SLP091

CYWG;2011-08-03 21:00;CYWG 032100Z 21014G21KT 15SM SCT100 SCT140 BKN250 28/17 A2979 RMK AC3AC1CI0 SLP088

CYWG;2011-08-03 22:00;CYWG 032200Z 22016KT 15SM SCT100 28/17 A2977 RMK AC4 ACC ASOCTD SLP082

CYWG;2011-08-03 23:00;CYWG 032300Z 22017G22KT 15SM SCT100 28/18 A2976 RMK AC3 ACC ASOCTD SLP078

CYWG;2011-08-04 00:00;CYWG 040000Z 21015KT 15SM FEW100 28/18 A2976 RMK AC2 ACC ASOCTD SLP076

CYWG;2011-08-04 01:00;CYWG 040100Z 19008KT 15SM FEW100 27/19 A2975 RMK ACC1 SLP073

CYWG;2011-08-04 02:00;CYWG 040200Z 19008KT 15SM FEW100 SCT280 26/20 A2975 RMK AC1CI2 CB DSTNT WSW SLP074

CYWG;2011-08-04 03:00;CYWG 040300Z 18007KT 15SM FEW100 BKN280 24/19 A2976 RMK AC2CI1 SLP078

CYWG;2011-08-04 04:00;CYWG 040400Z 19007KT 15SM FEW100 BKN280 23/20 A2977 RMK AC2CI1 SLP080

CYWG;2011-08-04 05:00;CYWG 040500Z 23005KT 15SM SCT250 22/20 A2978 RMK CI2 SLP083

CYWG;2011-08-04 06:00;CYWG 040600Z 00000KT 15SM FEW250 19/19 A2978 RMK CI2 SLP086

CYWG;2011-08-04 07:00;CYWG 040700Z 15002KT 15SM SKC 19/18 A2978 RMK SLP086

CYWG;2011-08-04 08:00;CYWG 040800Z 22002KT 15SM SKC 19/18 A2980 RMK SLP090

CYWG;2011-08-04 09:00;CYWG 040900Z 00000KT 6SM BR SKC 15/15 A2979 RMK SLP089

CYWG;2011-08-04 10:00;CYWG 041000Z 19003KT 15SM MIFG SKC 16/16 A2979 RMK SLP089

CYWG;2011-08-04 11:00;CYWG 041100Z 29006KT 15SM FEW040 SCT090 14/14 A2981 RMK SC1AC2 SLP095

CYWG;2011-08-04 11:29;CYWG 041129Z 32005KT 10SM R31/3000VP6000FT/D PRFG FEW010 SCT070 15/ RMK SF1AC3 FG BNK W-NE VIS 1

CYWG;2011-08-04 12:00;CYWG 041200Z 29004KT 20SM SCT070 BKN250 16/16 A2983 RMK AC3CI2 BR SLP100

CYWG;2011-08-04 13:00;CYWG 041300Z 27005KT 10SM -SHRA SCT080 BKN110 17/16 A2984 RMK AC3AC4 CB EMBD LTGCG DIST E-SE SLP105

CYWG;2011-08-04 13:31;CYWG 041331Z 07002KT 15SM VCSH FEW020 SCT080 BKN110 17/ RMK CF1AC3AC2 ACC EMBD SH E-SE

CYWG;2011-08-04 14:00;CYWG 041400Z 00000KT 15SM SCT080 BKN110 18/17 A2982 RMK ACC3AC2 SH DIST E-SE SLP098

CYWG;2011-08-04 15:00;CYWG 041500Z 31002KT 15SM FEW080 SCT110 23/18 A2983 RMK AC1AC3 SLP102

CYWG;2011-08-04 16:00;CYWG 041600Z 33006KT 15SM FEW110 26/16 A2985 RMK AC2 SLP106

CYWG;2011-08-04 17:00;CYWG 041700Z 30008KT 15SM FEW045 FEW110 28/16 A2986 RMK CU1AC1 SLP110

CYWG;2011-08-04 18:00;CYWG 041800Z 28012KT 15SM FEW045 29/13 A2986 RMK CU1 SLP110

CYWG;2011-08-04 19:00;CYWG 041900Z 32010G15KT 15SM FEW045 29/09 A2987 RMK CU1 SLP113

CYWG;2011-08-04 20:00;CYWG 042000Z 32010G15KT 15SM FEW045 29/10 A2987 RMK CU1 SLP113

CYWG;2011-08-04 21:00;CYWG 042100Z 30010G15KT 15SM FEW045 29/10 A2987 RMK CU1 SLP114

CYWG;2011-08-04 22:00;CYWG 042200Z 28007KT 15SM FEW045 30/10 A2986 RMK CU1 SLP111

CYWG;2011-08-04 23:00;CYWG 042300Z 25009KT 15SM FEW050 30/12 A2986 RMK CU1 SLP112

CYWG;2011-08-05 00:00;CYWG 050000Z 27010KT 15SM FEW050 28/13 A2985 RMK CU1 SLP109

CYWG;2011-08-05 01:00;CYWG 050100Z 28009KT 15SM FEW050 27/13 A2986 RMK SC1 SLP110

CYWG;2011-08-05 02:00;CYWG 050200Z 28007KT 15SM FEW100 21/14 A2987 RMK AC1 SLP114

CYWG;2011-08-05 03:00;CYWG 050300Z 33006KT 15SM FEW100 18/14 A2989 RMK AC1 SLP122

CYWG;2011-08-05 04:00;CYWG 050400Z 33005KT 15SM FEW040 17/13 A2991 RMK SC1 SLP128

CYWG;2011-08-05 05:00;CYWG 050500Z 32006KT 15SM FEW038 15/13 A2992 RMK SC1 SLP131

CYWG;2011-08-05 06:00;CYWG 050600Z 31005KT 15SM FEW083 15/12 A2993 RMK AC1 SLP135

CYWG;2011-08-05 07:00;CYWG 050700Z 30006KT 15SM SKC 15/12 A2994 RMK SLP138

CYWG;2011-08-05 08:00;CYWG 050800Z 33004KT 15SM FEW040 12/11 A2995 RMK SC1 SLP141

CYWG;2011-08-05 09:00;CYWG 050900Z 35002KT 15SM SKC 12/11 A2996 RMK SLP145

CYWG;2011-08-05 10:00;CYWG 051000Z 30003KT 15SM FEW080 11/11 A2996 RMK AC1 SLP148

CYWG;2011-08-05 11:00;CYWG 051100Z 35006KT 15SM FEW100 11/10 A2998 RMK AC1 SLP152

CYWG;2011-08-05 12:00;CYWG 051200Z 36002KT 15SM FEW270 13/12 A2999 RMK CI0 SLP157

CYWG;2011-08-05 13:00;CYWG 051300Z 00000KT 15SM FEW270 17/13 A2999 RMK CI0 SLP156

CYWG;2011-08-05 14:00;CYWG 051400Z 03003KT 15SM FEW270 20/13 A2999 RMK CI0 OBS TAKEN +03 SLP158

CYWG;2011-08-05 15:00;CYWG 051500Z 02003KT 15SM FEW270 22/14 A2999 RMK CI0 SLP158

CYWG;2011-08-05 16:00;CYWG 051600Z 32004KT 15SM SCT270 24/12 A2999 RMK CI0 SLP158

CYWG;2011-08-05 17:00;CYWG 051700Z 35007KT 15SM FEW050 BKN270 25/11 A2999 RMK CU1CI1 SLP155

CYWG;2011-08-05 18:00;CYWG 051800Z 35008KT 15SM FEW060 BKN270 25/11 A2999 RMK CU1CI2 SLP157

CYWG;2011-08-05 19:00;CYWG 051900Z 07004KT 15SM FEW060 BKN260 26/12 A2998 RMK CU1CI2 SLP153

CYWG;2011-08-05 20:00;CYWG 052000Z 34004KT 15SM FEW060 FEW130 BKN260 26/11 A2997 RMK CU1AC2CI2 SLP150

CYWG;2011-08-05 21:00;CYWG 052100Z 34006KT 15SM FEW055 SCT130 BKN260 25/11 A2996 RMK CU1AC3CI2 CU TR SLP146

CYWG;2011-08-05 22:00;CYWG 052200Z 34005KT 15SM FEW055 FEW130 BKN260 25/12 A2995 RMK CU1AC2CI2 CU TR SLP143

CYWG;2011-08-05 23:00;CYWG 052300Z 34006KT 15SM FEW055 FEW130 BKN260 26/12 A2993 RMK CU1AC1CI2 CU TR SLP139

CYWG;2011-08-06 00:00;CYWG 060000Z 34006KT 15SM FEW055 FEW130 BKN260 25/10 A2994 RMK CU1AC1CI2 CU TR SLP139

CYWG;2011-08-06 01:00;CYWG 060100Z 36004KT 15SM FEW045 FEW130 BKN260 23/13 A2994 RMK CU1AC1CI2 CU TR SLP141

CYWG;2011-08-06 02:00;CYWG 060200Z 36006KT 15SM FEW130 BKN260 19/13 A2994 RMK AC1CI2 SLP139

CYWG;2011-08-06 03:00;CYWG 060300Z 33005KT 15SM FEW260 16/12 A2995 RMK CI1 SLP143

CYWG;2011-08-06 04:00;CYWG 060400Z 34005KT 15SM OVC130 15/13 A2995 RMK AC8 SLP144

CYWG;2011-08-06 05:00;CYWG 060500Z 34005KT 15SM OVC091 15/12 A2995 RMK AC8 SLP144

CYWG;2011-08-06 06:00;CYWG 060600Z 05005KT 15SM OVC100 15/11 A2995 RMK AC8 SLP144

CYWG;2011-08-06 07:00;CYWG 060700Z 04002KT 15SM BKN100 14/11 A2995 RMK AC5 SLP144

CYWG;2011-08-06 08:00;CYWG 060800Z 02004KT 15SM OVC100 15/11 A2994 RMK AC8 SLP141

CYWG;2011-08-06 09:00;CYWG 060900Z 04007KT 15SM OVC100 15/12 A2994 RMK AC8 SLP140

CYWG;2011-08-06 10:00;CYWG 061000Z 07003KT 15SM BKN100 14/11 A2994 RMK AC7 SLP141

CYWG;2011-08-06 11:00;CYWG 061100Z 04004KT 15SM BKN100 15/11 A2995 RMK AC4 SLP144

CYWG;2011-08-06 12:00;CYWG 061200Z 00000KT 15SM BKN120 15/12 A2996 RMK AC6 SLP147

CYWG;2011-08-06 13:00;CYWG 061300Z 07004KT 15SM BKN120 17/11 A2996 RMK AC7 SLP147

CYWG;2011-08-06 14:00;CYWG 061400Z 09006KT 15SM BKN120 19/10 A2996 RMK AC7 SLP146

CYWG;2011-08-06 15:00;CYWG 061500Z 08009KT 15SM BKN120 21/10 A2996 RMK AC7 SLP147

CYWG;2011-08-06 16:00;CYWG 061600Z 09007KT 15SM FEW090 BKN120 22/10 A2996 RMK AC1AC6 SLP146

CYWG;2011-08-06 17:00;CYWG 061700Z 06010KT 15SM FEW090 BKN120 23/08 A2996 RMK AC2AC6 SLP146

CYWG;2011-08-06 18:00;CYWG 061800Z 08009KT 15SM FEW090 BKN120 24/09 A2995 RMK AC1AC6 SLP143

CYWG;2011-08-06 19:00;CYWG 061900Z 04006KT 15SM SCT088 BKN120 BKN220 24/09 A2995 RMK AC3AC2CI2 SLP142

CYWG;2011-08-06 20:00;CYWG 062000Z 03008KT 15SM FEW120 BKN220 24/08 A2995 RMK AC2CS5 SLP142

CYWG;2011-08-06 21:00;CYWG 062100Z 05008KT 15SM FEW100 BKN250 24/08 A2994 RMK AC1CI4 SLP140

CYWG;2011-08-06 22:00;CYWG 062200Z 01010KT 15SM FEW100 BKN250 26/07 A2993 RMK AC1CI2 SLP135

CYWG;2011-08-06 23:00;CYWG 062300Z 04008KT 15SM FEW070 FEW100 BKN250 25/08 A2991 RMK CU1AC1CI2 SLP131

CYWG;2011-08-07 00:00;CYWG 070000Z 04009KT 15SM FEW065 FEW100 FEW250 24/09 A2991 RMK CU1AC1CI1 TR CU/AC SLP130

CYWG;2011-08-07 01:00;CYWG 070100Z 05005KT 15SM FEW100 FEW250 23/10 A2991 RMK AC1CI1 SLP129

CYWG;2011-08-07 02:00;CYWG 070200Z 01004KT 15SM FEW100 FEW250 18/11 A2992 RMK AC1CI0 SLP132

CYWG;2011-08-07 03:00;CYWG 070300Z 00000KT 15SM FEW100 SCT250 16/11 A2992 RMK AC1CI1 SLP132

CYWG;2011-08-07 04:00;CYWG 070400Z 31004KT 15SM FEW250 13/10 A2993 RMK CI0 SLP135

CYWG;2011-08-07 05:00;CYWG 070500Z 32003KT 15SM FEW100 14/10 A2993 RMK AC1 SLP135

CYWG;2011-08-07 06:00;CYWG 070600Z 00000KT 15SM FEW100 13/10 A2991 RMK AC1 SLP130

CYWG;2011-08-07 07:00;CYWG 070700Z 28002KT 15SM FEW100 11/10 A2990 RMK AC1 SLP127

CYWG;2011-08-07 08:00;CYWG 070800Z 00000KT 15SM SKC 11/09 A2990 RMK SLP127

CYWG;2011-08-07 09:00;CYWG 070900Z 29004KT 15SM SKC 10/09 A2990 RMK SLP126

CYWG;2011-08-07 10:00;CYWG 071000Z 00000KT 15SM SKC 09/08 A2990 RMK SLP127

CYWG;2011-08-07 11:00;CYWG 071100Z 27008KT 15SM FEW250 10/09 A2989 RMK CI1 SLP125

CYWG;2011-08-07 12:00;CYWG 071200Z 09002KT 15SM FEW250 11/10 A2991 RMK CI1 SLP131

CYWG;2011-08-07 13:00;CYWG 071300Z 00000KT 15SM FEW250 15/13 A2991 RMK CI1 SLP131

CYWG;2011-08-07 14:00;CYWG 071400Z 00000KT 15SM FEW250 19/13 A2990 RMK CI1 SLP127

CYWG;2011-08-07 15:00;CYWG 071500Z 19003KT 15SM FEW250 22/12 A2988 RMK CI1 SLP121

CYWG;2011-08-07 16:00;CYWG 071600Z 18002KT 15SM FEW100 FEW250 24/12 A2988 RMK AC1CI1 SLP119

CYWG;2011-08-07 17:00;CYWG 071700Z 18005KT 15SM FEW050 FEW250 25/12 A2986 RMK CF1CI1 SLP112

CYWG;2011-08-07 18:00;CYWG 071800Z 18009KT 15SM FEW060 FEW250 26/10 A2985 RMK CF2CI1 SLP108

CYWG;2011-08-07 19:00;CYWG 071900Z 19007KT 15SM FEW060 FEW120 FEW250 27/11 A2982 RMK CF1AC1CI1 SLP099

CYWG;2011-08-07 20:00;CYWG 072000Z 19010G20KT 15SM FEW093 SCT250 28/11 A2980 RMK AC2CI0 SLP091

CYWG;2011-08-07 21:00;CYWG 072100Z 23008KT 15SM SCT095 BKN250 26/11 A2980 RMK AC4CI1 SLP093

CYWG;2011-08-07 22:00;CYWG 072200Z 20010G15KT 10SM BKN100 BKN250 27/12 A2977 RMK AC5CI1 FU SLP083

CYWG;2011-08-07 23:00;CYWG 072300Z 20010G15KT 12SM BKN100 BKN250 25/12 A2975 RMK AC5CI1 FU SLP076

CYWG;2011-08-08 00:00;CYWG 080000Z 18013KT 10SM BKN089 BKN250 24/12 A2972 RMK AC5CI1 FU SLP067

CYWG;2011-08-08 01:00;CYWG 080100Z 18009KT 12SM FEW046 BKN070 OVC250 23/13 A2971 RMK SC2AC3CI1 FU SH S SLP064

CYWG;2011-08-08 01:22;CYWG 080122Z 18008KT 12SM -SHRA BKN050 BKN080 BKN250 22/ RMK SC5AC1CI1 FU CVCTV CLD EMB

CYWG;2011-08-08 02:00;CYWG 080200Z 19009KT 15SM FEW043 SCT080 BKN250 22/13 A2971 RMK SC2AC2CI1 SLP064

CYWG;2011-08-08 03:00;CYWG 080300Z 17006KT 9SM FEW040 SCT080 BKN250 18/13 A2972 RMK SC2AC2CI1 BR/FU SLP066

CYWG;2011-08-08 04:00;CYWG 080400Z 16007KT 15SM FEW030 FEW080 BKN250 19/14 A2969 RMK SC1AC2CI2 SLP056

CYWG;2011-08-08 05:00;CYWG 080500Z 17009G15KT 15SM SCT070 BKN230 20/14 A2968 RMK AC2CI0 SLP052

CYWG;2011-08-08 06:00;CYWG 080600Z 17014KT 15SM BKN090 20/14 A2964 RMK AC2 PRESFR SLP035

CYWG;2011-08-08 06:09;CYWG 080609Z 17014KT 15SM -SHRA BKN089 20/ RMK AC5 PRESFR CB/LTGCC DIST S

CYWG;2011-08-08 06:40;CYWG 080640Z 17017KT 15SM FEW040 BKN082 OVC210 RMK SC2AC4CI2 CB/LTGCCCG DIST S

CYWG;2011-08-08 07:00;CYWG 080700Z CCA 19009G25KT 15SM FEW040 BKN082 OVC210 20/15 A2961 RMK SC1AC6CI2 CB/LTNG DIST SE-S SLP025

CYWG;2011-08-08 08:00;CYWG 080800Z 25009KT 15SM FEW020 BKN080 BKN130 OVC210 20/15 A2962 RMK SF1AC5AC2CI1 CB/LTNG DIST N SLP028

CYWG;2011-08-08 09:00;CYWG 080900Z 22009KT 15SM FEW020 BKN240 19/16 A2961 RMK SF1CI1 SLP025

CYWG;2011-08-08 10:00;CYWG 081000Z 21013KT 15SM SCT054 19/16 A2962 RMK SC3 CB TOPS DIST NE SLP028

CYWG;2011-08-08 11:00;CYWG 081100Z 22010KT 15SM FEW022 SCT054 18/15 A2960 RMK SC2SC2 SLP022

CYWG;2011-08-08 12:00;CYWG 081200Z 25009KT 15SM FEW035 FEW056 FEW071 17/15 A2960 RMK SC1SC1AC1 SLP023

CYWG;2011-08-08 13:00;CYWG 081300Z 26010KT 15SM FEW043 FEW075 18/14 A2961 RMK SC1AC1 OBS TAKEN +03 SLP027

CYWG;2011-08-08 14:00;CYWG 081400Z 26013KT 15SM FEW040 FEW080 20/13 A2961 RMK SC1AC1 SLP027

CYWG;2011-08-08 15:00;CYWG 081500Z 28013KT 15SM FEW045 FEW100 21/12 A2961 RMK SC1AC1 SLP029

CYWG;2011-08-08 16:00;CYWG 081600Z 28013G22KT 15SM FEW047 FEW100 22/10 A2961 RMK CU1AC1 SLP027

CYWG;2011-08-08 17:00;CYWG 081700Z 27015KT 15SM BKN045 BKN092 22/11 A2960 RMK CU6AC1 SLP025

CYWG;2011-08-08 18:00;CYWG 081800Z 26017G22KT 15SM BKN045 BKN095 23/11 A2959 RMK CU5AC1 SLP021

CYWG;2011-08-08 19:00;CYWG 081900Z 27015G22KT 15SM BKN045 BKN095 22/10 A2958 RMK CU5AC1 SLP017

CYWG;2011-08-08 19:20;CYWG 081920Z 27014KT 15SM -SHRA BKN045TCU BKN095 20/ RMK TCU5AC1

CYWG;2011-08-08 20:00;CYWG 082000Z 26023G29KT 15SM -SHRA BKN032TCU BKN079 16/13 A2960 RMK TCU6AC1 SLP022

CYWG;2011-08-08 21:00;CYWG 082100Z 28014KT 15SM FEW015 BKN035TCU BKN075 19/15 A2959 RMK CU2TCU2AC1 RERA SLP020

CYWG;2011-08-08 22:00;CYWG 082200Z 29019G24KT 15SM VCSH FEW028 BKN039 19/13 A2959 RMK CU2SC4 SH NW SLP021

CYWG;2011-08-08 22:08;CYWG 082208Z 29015G21KT 15SM -SHRA FEW020 BKN039 19/ RMK CU2SC5 TCU EMBD

CYWG;2011-08-08 23:00;CYWG 082300Z 27007KT 15SM -SHRA BKN039 17/15 A2959 RMK SC6 TCU EMBD SLP020

CYWG;2011-08-08 23:33;CYWG 082333Z 29005KT 15SM BKN036 BKN075 BKN260 20/ RMK SC5AC1CI1 TCU EMBD

CYWG;2011-08-09 00:00;CYWG 090000Z 35007KT 15SM BKN027 BKN080 19/14 A2958 RMK SC6AC1 SLP017

CYWG;2011-08-09 00:29;CYWG 090029Z 30020G26KT 15SM -SHRA BKN026 BKN088 17/ RMK SC6AC1 TCU EMBD

CYWG;2011-08-09 01:00;CYWG 090100Z 28010G17KT 12SM -SHRA BKN018 BKN088 17/15 A2957 RMK SC6AC1 TCU EMBD SLP016

CYWG;2011-08-09 02:00;CYWG 090200Z 27008KT 15SM BKN018 BKN088 16/16 A2957 RMK SC6AC1 SLP016

CYWG;2011-08-09 03:00;CYWG 090300Z 32011KT 15SM SCT015 BKN031 17/16 A2960 RMK SC4SC2 SLP024

CYWG;2011-08-09 04:00;CYWG 090400Z 32011KT 15SM BKN018 OVC088 17/16 A2962 RMK SC6AC2 SLP030

CYWG;2011-08-09 04:18;CYWG 090418Z 32015KT 15SM -SHRA OVC015 17/ RMK SC8

CYWG;2011-08-09 05:00;CYWG 090500Z 34011G17KT 4SM -SHRA BR OVC023 17/16 A2964 RMK SC8 SLP037

CYWG;2011-08-09 05:11;CYWG 090511Z 35012KT 3SM -SHRA BR OVC014 16/ RMK SC8

CYWG;2011-08-09 05:33;CYWG 090533Z 34014G20KT 15SM BKN014 BKN076 16/ RMK SC5AC2

CYWG;2011-08-09 06:00;CYWG 090600Z 34014G21KT 15SM FEW014 BKN026 BKN051 16/14 A2966 RMK SC1SC4SC2 SLP044

CYWG;2011-08-09 07:00;CYWG 090700Z 35017KT 15SM BKN018 16/13 A2969 RMK SC7 SLP053

CYWG;2011-08-09 08:00;CYWG 090800Z 34015G21KT 15SM BKN028 15/12 A2970 RMK SC7 SLP058

CYWG;2011-08-09 09:00;CYWG 090900Z 33013G18KT 15SM FEW030 14/12 A2972 RMK SC1 SLP066

CYWG;2011-08-09 10:00;CYWG 091000Z 33010G15KT 15SM FEW030 13/12 A2974 RMK SC1 SLP075

CYWG;2011-08-09 11:00;CYWG 091100Z 33010KT 15SM FEW018 FEW030 13/12 A2976 RMK SC1SC1 SLP081

CYWG;2011-08-09 12:00;CYWG 091200Z 30007KT 15SM FEW015 FEW030 13/12 A2978 RMK SC1SC2 SLP088

CYWG;2011-08-09 13:00;CYWG 091300Z 32007KT 15SM FEW005 FEW040TCU SCT080 15/14 A2980 RMK CF1TCU2SC2 SLP093

CYWG;2011-08-09 14:00;CYWG 091400Z 33013G19KT 15SM FEW045TCU FEW080 18/14 A2981 RMK TCU2AC1 SLP098

CYWG;2011-08-09 15:00;CYWG 091500Z 34015KT 15SM SCT023 BKN045TCU 19/14 A2981 RMK CU4TCU1 SH DIST W SLP098

CYWG;2011-08-09 16:00;CYWG 091600Z 33012G17KT 15SM SCT029 BKN082 20/14 A2981 RMK CU4AC1 SLP098

CYWG;2011-08-09 17:00;CYWG 091700Z 33012G18KT 15SM SCT032 21/14 A2982 RMK CU4 TCU ASOCTD SH DIST S-W SLP099

CYWG;2011-08-09 18:00;CYWG 091800Z 02014G19KT 15SM SCT038 23/10 A2982 RMK CU3 TCU ASOCTD SLP098

CYWG;2011-08-09 19:00;CYWG 091900Z 36008KT 15SM SCT040 SCT080 23/11 A2981 RMK CU3AC1 TCU ASOCTD SH SW SLP096

CYWG;2011-08-09 20:00;CYWG 092000Z 31007KT 15SM SCT041 SCT080 23/13 A2981 RMK CU3AC1 TCU ASOCTD SH W SLP096

CYWG;2011-08-09 21:00;CYWG 092100Z 31012KT 15SM SCT040 SCT080 22/12 A2981 RMK CU3AC1 TCU ASOCTD SH SW-W SLP097

CYWG;2011-08-09 22:00;CYWG 092200Z 32011KT 15SM FEW040 SCT080 22/12 A2981 RMK CU1AC2 SLP096

CYWG;2011-08-09 23:00;CYWG 092300Z 31007KT 15SM FEW040 FEW080 23/13 A2980 RMK CU1AC2 SLP094

CYWG;2011-08-10 00:00;CYWG 100000Z 33005KT 15SM FEW040 FEW085 23/13 A2980 RMK CU1AC1 SLP092

CYWG;2011-08-10 01:00;CYWG 100100Z 35004KT 15SM FEW085 FEW250 21/13 A2979 RMK AC1CI1 SLP091

CYWG;2011-08-10 02:00;CYWG 100200Z 27004KT 15SM FEW085 FEW250 17/13 A2980 RMK AC1CI0 SLP094

CYWG;2011-08-10 03:00;CYWG 100300Z 00000KT 15SM SKC 17/12 A2981 RMK SLP097

CYWG;2011-08-10 04:00;CYWG 100400Z 24003KT 15SM SKC 14/12 A2981 RMK SLP098

CYWG;2011-08-10 05:00;CYWG 100500Z 24003KT 15SM SKC 13/11 A2982 RMK SLP099

CYWG;2011-08-10 06:00;CYWG 100600Z 24003KT 15SM FEW060 13/12 A2982 RMK SC1 SLP100

CYWG;2011-08-10 07:00;CYWG 100700Z 00000KT 15SM SKC 11/11 A2982 RMK SLP099

CYWG;2011-08-10 08:00;CYWG 100800Z 20002KT 15SM SKC 11/11 A2981 RMK SLP096

CYWG;2011-08-10 09:00;CYWG 100900Z 27003KT 15SM SKC 11/11 A2981 RMK SLP097

CYWG;2011-08-10 10:00;CYWG 101000Z 26003KT 15SM SKC 11/11 A2981 RMK SLP097

CYWG;2011-08-10 11:00;CYWG 101100Z 27005KT 15SM MIFG FEW220 09/09 A2980 RMK CI1 SLP094

CYWG;2011-08-10 12:00;CYWG 101200Z 00000KT 15SM MIFG FEW220 11/11 A2981 RMK CI1 SLP098

CYWG;2011-08-10 13:00;CYWG 101300Z 28003KT 15SM FEW220 15/14 A2982 RMK CI1 SLP099

CYWG;2011-08-10 14:00;CYWG 101400Z 28002KT 15SM FEW250 18/15 A2982 RMK CI1 SLP101

CYWG;2011-08-10 15:00;CYWG 101500Z 00000KT 15SM SKC 22/13 A2982 RMK SLP099

CYWG;2011-08-10 16:00;CYWG 101600Z 20002KT 15SM SKC 24/14 A2982 RMK SLP098

CYWG;2011-08-10 17:00;CYWG 101700Z 17003KT 15SM FEW050 26/13 A2981 RMK CU1 SLP097

CYWG;2011-08-10 18:00;CYWG 101800Z 25005KT 15SM FEW050 26/13 A2981 RMK CU1 SLP095

CYWG;2011-08-10 19:00;CYWG 101900Z 27010KT 15SM FEW050 28/13 A2979 RMK CU1 SLP090

CYWG;2011-08-10 20:00;CYWG 102000Z 24006KT 15SM FEW063 27/12 A2978 RMK CU2 SLP086

CYWG;2011-08-10 21:00;CYWG 102100Z 28012KT 15SM FEW063 29/11 A2977 RMK CU2 SLP082

CYWG;2011-08-10 22:00;CYWG 102200Z 29015KT 15SM -SHRA BKN070 25/14 A2977 RMK CU6 TCU ASOCTD SLP080

CYWG;2011-08-10 22:08;CYWG 102208Z 28007G16KT 15SM BKN070 26/ RMK CU6 TCU ASOCTD

CYWG;2011-08-10 23:00;CYWG 102300Z 25006KT 15SM SCT064 28/12 A2975 RMK CU3 SH NE E TCU ASOCTD SLP075

CYWG;2011-08-11 00:00;CYWG 110000Z 25005KT 15SM FEW060TCU FEW100 28/12 A2973 RMK TCU1AC1 SLP069

CYWG;2011-08-11 01:00;CYWG 110100Z 27004KT 15SM FEW060 FEW100 26/14 A2974 RMK CU1AC1 TCU ASOCTD NE QUAD SLP070

CYWG;2011-08-11 02:00;CYWG 110200Z 21004KT 15SM FEW060 FEW100 FEW250 23/12 A2974 RMK SC1AC1CI0 TCU DIST W NE AC TR SLP072

CYWG;2011-08-11 03:00;CYWG 110300Z 21006KT 15SM FEW100 21/13 A2975 RMK AC1 SLP073

CYWG;2011-08-11 04:00;CYWG 110400Z 21008KT 15SM FEW095 21/12 A2975 RMK AC2 SLP073

CYWG;2011-08-11 05:00;CYWG 110500Z 22007KT 15SM FEW095 20/13 A2974 RMK AC1 SLP072

CYWG;2011-08-11 06:00;CYWG 110600Z 22006KT 15SM FEW086 20/14 A2974 RMK AC1 SLP071

CYWG;2011-08-11 07:00;CYWG 110700Z 22007KT 15SM FEW086 18/14 A2974 RMK AC1 SLP070

CYWG;2011-08-11 08:00;CYWG 110800Z 18005KT 15SM FEW086 16/13 A2974 RMK AC1 SLP069

CYWG;2011-08-11 09:00;CYWG 110900Z 21006KT 15SM SKC 16/13 A2973 RMK SLP067

CYWG;2011-08-11 10:00;CYWG 111000Z 20006KT 15SM SCT080 16/13 A2973 RMK AC4 SLP067

CYWG;2011-08-11 11:00;CYWG 111100Z 21005KT 15SM SCT080 SCT250 16/13 A2973 RMK AC3CI1 ACC ASOCTD TCU S SLP066

CYWG;2011-08-11 12:00;CYWG 111200Z 23005KT 15SM FEW088 SCT250 16/13 A2973 RMK AC2CI0 ACC ASOCTD TCU S SLP068

CYWG;2011-08-11 13:00;CYWG 111300Z 22005KT 15SM FEW088 BKN250 18/14 A2974 RMK AC2CI0 SLP071

CYWG;2011-08-11 14:00;CYWG 111400Z 25006KT 15SM FEW120 BKN250 19/14 A2974 RMK AC2CI0 SLP072

CYWG;2011-08-11 15:00;CYWG 111500Z 24005KT 15SM BKN120 BKN250 21/15 A2975 RMK AC6CI0 SLP075

CYWG;2011-08-11 16:00;CYWG 111600Z 22004KT 15SM SCT120 BKN250 23/16 A2975 RMK AC4CI1 SLP076

CYWG;2011-08-11 17:00;CYWG 111700Z 21005KT 15SM FEW120 SCT250 25/17 A2976 RMK AC2CI1 SLP077

CYWG;2011-08-11 18:00;CYWG 111800Z 29004KT 15SM FEW084 FEW120 BKN250 27/16 A2975 RMK CU1AC1CI1 SLP075

CYWG;2011-08-11 19:00;CYWG 111900Z 28006KT 15SM FEW056 BKN250 29/14 A2974 RMK CU2CI1 SLP071

CYWG;2011-08-11 20:00;CYWG 112000Z 33008KT 15SM FEW062 SCT250 30/13 A2974 RMK CU2CI1 SLP069

CYWG;2011-08-11 21:00;CYWG 112100Z 28002KT 15SM FEW073 SCT250 29/11 A2973 RMK CU2CI1 SLP065

CYWG;2011-08-11 22:00;CYWG 112200Z 30007KT 15SM FEW070 SCT250 30/13 A2973 RMK CU1CI2 SLP065

CYWG;2011-08-11 23:00;CYWG 112300Z 32010KT 15SM FEW070TCU SCT120 BKN250 27/13 A2974 RMK TCU2AC2CI0 SLP071

CYWG;2011-08-12 00:00;CYWG 120000Z 32009KT 15SM FEW072TCU FEW120 BKN250 27/14 A2975 RMK TCU1AC2CI2 SLP073

CYWG;2011-08-12 01:00;CYWG 120100Z 32004KT 15SM FEW120 SCT250 25/16 A2973 RMK AC2CI0 SLP068

CYWG;2011-08-12 02:00;CYWG 120200Z 32003KT 15SM FEW120 SCT250 20/15 A2975 RMK AC1CI1 SLP075

CYWG;2011-08-12 03:00;CYWG 120300Z 28004KT 15SM FEW120 FEW250 18/14 A2978 RMK AC1CI0 SLP086

CYWG;2011-08-12 04:00;CYWG 120400Z 28007KT 15SM FEW120 FEW250 16/14 A2980 RMK AC1CI0 SLP091

CYWG;2011-08-12 05:00;CYWG 120500Z 33005KT 15SM FEW100 SCT250 15/14 A2980 RMK AC2CI0 SLP091

CYWG;2011-08-12 06:00;CYWG 120600Z 36005KT 15SM FEW100 FEW250 16/14 A2980 RMK AC1CI0 SLP090

CYWG;2011-08-12 07:00;CYWG 120700Z 02004KT 15SM FEW100 FEW250 15/14 A2980 RMK AC1CI0 SLP093

CYWG;2011-08-12 08:00;CYWG 120800Z 36003KT 15SM FEW250 15/13 A2982 RMK CI0 SLP098

CYWG;2011-08-12 09:00;CYWG 120900Z 01006KT 15SM FEW250 15/13 A2981 RMK CI0 SLP095

CYWG;2011-08-12 10:00;CYWG 121000Z 02007KT 15SM SKC 15/13 A2981 RMK SLP094

CYWG;2011-08-12 11:00;CYWG 121100Z 06003KT 15SM BKN250 14/13 A2982 RMK CI2 SLP098

CYWG;2011-08-12 12:00;CYWG 121200Z 34002KT 15SM BKN250 14/13 A2983 RMK CI2 SLP101

CYWG;2011-08-12 13:00;CYWG 121300Z 34003KT 15SM FEW110 OVC250 17/16 A2985 RMK AC1CI2 SLP109

CYWG;2011-08-12 14:00;CYWG 121400Z 02009KT 15SM FEW100 OVC250 20/17 A2987 RMK AC2CI2 SLP113

CYWG;2011-08-12 15:00;CYWG 121500Z 04011KT 15SM FEW100 OVC250 23/17 A2987 RMK AC2CI2 SLP117

CYWG;2011-08-12 16:00;CYWG 121600Z 04013KT 12SM SCT100 OVC250 24/15 A2989 RMK AC3CI2 FU SLP121

CYWG;2011-08-12 17:00;CYWG 121700Z 06010G15KT 12SM SCT091 OVC250 24/14 A2989 RMK AC4CI2 FU SLP123

CYWG;2011-08-12 18:00;CYWG 121800Z 02013KT 12SM SCT089 OVC250 25/15 A2990 RMK AC3CI2 FU SLP124

CYWG;2011-08-12 19:00;CYWG 121900Z 02009G16KT 12SM FEW089 OVC250 26/14 A2989 RMK AC2CI3 FU SLP121

CYWG;2011-08-12 20:00;CYWG 122000Z 36012KT 15SM FEW047 BKN090 OVC250 25/14 A2989 RMK CU1AC4CI2 SLP122

CYWG;2011-08-12 21:00;CYWG 122100Z 03012G17KT 15SM SCT090 BKN250 25/14 A2989 RMK AC3CI2 SLP122

CYWG;2011-08-12 22:00;CYWG 122200Z 02016KT 15SM FEW049 FEW090 BKN250 25/13 A2989 RMK CU1AC1CI1 SLP123

CYWG;2011-08-12 23:00;CYWG 122300Z 01015G20KT 15SM FEW049 FEW090 BKN250 24/13 A2991 RMK CU1AC2CI0 SLP129

CYWG;2011-08-13 00:00;CYWG 130000Z 01013KT 15SM FEW087 BKN250 24/12 A2992 RMK AC2CI2 SLP132

CYWG;2011-08-13 01:00;CYWG 130100Z 02010KT 15SM FEW090 BKN250 22/12 A2992 RMK AC2CI1 SLP133

CYWG;2011-08-13 02:00;CYWG 130200Z 01008KT 15SM SCT250 19/11 A2994 RMK CI2 SLP139

CYWG;2011-08-13 03:00;CYWG 130300Z 35007KT 15SM FEW090 FEW250 16/11 A2996 RMK AC1CI0 SLP148

CYWG;2011-08-13 04:00;CYWG 130400Z 35009KT 15SM FEW060 16/10 A2997 RMK SC1 SLP151

CYWG;2011-08-13 05:00;CYWG 130500Z 01011KT 15SM SCT060 17/11 A2998 RMK SC3 SLP154

CYWG;2011-08-13 06:00;CYWG 130600Z 02010KT 15SM FEW060 16/12 A2998 RMK SC2 SLP153

CYWG;2011-08-13 07:00;CYWG 130700Z 01008KT 15SM FEW050 15/12 A2999 RMK SC2 SLP156

CYWG;2011-08-13 08:00;CYWG 130800Z 02006KT 15SM SCT036 15/13 A3000 RMK SC3 SLP160

CYWG;2011-08-13 09:00;CYWG 130900Z 01007KT 15SM BKN034 15/13 A3002 RMK SC5 SLP166

CYWG;2011-08-13 10:00;CYWG 131000Z 01004KT 15SM SCT040 14/12 A3003 RMK SC3 SLP171

CYWG;2011-08-13 11:00;CYWG 131100Z 36004KT 15SM SCT040 12/11 A3005 RMK SC3 SLP176

CYWG;2011-08-13 12:00;CYWG 131200Z 01003KT 15SM FEW040 13/11 A3006 RMK SC2 SLP180

CYWG;2011-08-13 13:00;CYWG 131300Z 05003KT 15SM FEW045 16/12 A3007 RMK SC2 SLP184

CYWG;2011-08-13 14:00;CYWG 131400Z 05006KT 15SM FEW045 19/12 A3008 RMK SC1 SLP189

CYWG;2011-08-13 15:00;CYWG 131500Z 03007KT 15SM FEW045 21/12 A3009 RMK SC1 SLP191

CYWG;2011-08-13 16:00;CYWG 131600Z 03008KT 15SM SKC 24/10 A3009 RMK SLP193

CYWG;2011-08-13 17:00;CYWG 131700Z 05007KT 15SM FEW059 25/10 A3009 RMK CU1 SLP192

CYWG;2011-08-13 18:00;CYWG 131800Z 05010KT 15SM FEW060 25/10 A3009 RMK CU1 SLP189

CYWG;2011-08-13 19:00;CYWG 131900Z 02009KT 15SM FEW060 26/09 A3008 RMK CU1 SLP187

CYWG;2011-08-13 20:00;CYWG 132000Z 11002KT 15SM FEW060 26/08 A3007 RMK CU1 SLP185

CYWG;2011-08-13 21:00;CYWG 132100Z 06005KT 15SM FEW060 26/07 A3007 RMK CU1 SLP183

CYWG;2011-08-13 22:00;CYWG 132200Z 01007KT 15SM FEW060 26/07 A3006 RMK CU1 SLP179

CYWG;2011-08-13 23:00;CYWG 132300Z 34008KT 15SM FEW060 26/08 A3005 RMK CU1 SLP176

CYWG;2011-08-14 00:00;CYWG 140000Z 00000KT 15SM SKC 26/07 A3003 RMK SLP172

CYWG;2011-08-14 01:00;CYWG 140100Z 04002KT 15SM SKC 25/08 A3003 RMK SLP169

CYWG;2011-08-14 02:00;CYWG 140200Z 28007KT 15SM SKC 19/11 A3002 RMK SLP167

CYWG;2011-08-14 03:00;CYWG 140300Z 33005KT 15SM SKC 15/12 A3003 RMK SLP171

CYWG;2011-08-14 04:00;CYWG 140400Z 25002KT 15SM SKC 15/11 A3003 RMK SLP172

CYWG;2011-08-14 05:00;CYWG 140500Z 26003KT 15SM SKC 15/12 A3003 RMK SLP172

CYWG;2011-08-14 06:00;CYWG 140600Z 16002KT 15SM SKC 14/11 A3003 RMK SLP170

CYWG;2011-08-14 07:00;CYWG 140700Z 00000KT 15SM SKC 13/11 A3002 RMK SLP167

CYWG;2011-08-14 08:00;CYWG 140800Z 20003KT 15SM SKC 13/11 A3002 RMK SLP166

CYWG;2011-08-14 09:00;CYWG 140900Z 17003KT 15SM SKC 13/11 A3001 RMK SLP165

CYWG;2011-08-14 10:00;CYWG 141000Z 18003KT 15SM SKC 12/10 A3001 RMK SLP163

CYWG;2011-08-14 11:00;CYWG 141100Z 18004KT 15SM SKC 13/11 A3000 RMK SLP161

CYWG;2011-08-14 12:00;CYWG 141200Z 18005KT 15SM FEW050 14/12 A3000 RMK SC1 SLP160

CYWG;2011-08-14 13:00;CYWG 141300Z 20007KT 15SM FEW050 16/13 A2999 RMK SC1 SLP158

CYWG;2011-08-14 14:00;CYWG 141400Z 20006KT 15SM FEW025 FEW250 19/13 A2999 RMK CU1CI0 SLP158

CYWG;2011-08-14 15:00;CYWG 141500Z 20006KT 15SM FEW030 FEW250 22/14 A2998 RMK CU1CI1 SLP154

CYWG;2011-08-14 16:00;CYWG 141600Z 19008KT 15SM FEW040 FEW100 SCT250 25/14 A2996 RMK CU1AC1CI1 SLP149

CYWG;2011-08-14 17:00;CYWG 141700Z 24005KT 15SM FEW050 SCT250 26/13 A2995 RMK CU2CI1 SLP144

CYWG;2011-08-14 18:00;CYWG 141800Z 16006KT 15SM FEW050 BKN250 28/13 A2993 RMK CU2CI1 SLP134

CYWG;2011-08-14 19:00;CYWG 141900Z 18009KT 15SM BKN061 28/13 A2991 RMK CU6 SLP129

CYWG;2011-08-14 20:00;CYWG 142000Z 00000KT 15SM SCT065 BKN250 28/12 A2990 RMK CU4CI2 SLP124

CYWG;2011-08-14 21:00;CYWG 142100Z 22006KT 15SM SCT070 BKN250 29/12 A2989 RMK CU4CI1 SLP121

CYWG;2011-08-14 22:00;CYWG 142200Z 21005KT 15SM SCT080 BKN250 28/13 A2988 RMK CU3CI1 SLP118

CYWG;2011-08-14 23:00;CYWG 142300Z 18004KT 15SM SCT074 BKN250 29/13 A2987 RMK CU3CI1 SLP117

CYWG;2011-08-15 00:00;CYWG 150000Z 17006KT 15SM FEW069 SCT250 28/13 A2987 RMK CU2CI1 SLP115

CYWG;2011-08-15 01:00;CYWG 150100Z 13004KT 15SM FEW067 SCT250 27/14 A2986 RMK CU2CI1 SLP112

CYWG;2011-08-15 02:00;CYWG 150200Z 16005KT 15SM FEW067 FEW250 24/14 A2986 RMK CU1CI0 SLP111

CYWG;2011-08-15 03:00;CYWG 150300Z 18006KT 15SM FEW120 FEW250 22/16 A2986 RMK AC1CI0 SLP110

CYWG;2011-08-15 04:00;CYWG 150400Z 17006KT 15SM FEW250 21/16 A2985 RMK CI1 SLP109

CYWG;2011-08-15 05:00;CYWG 150500Z 19006KT 15SM FEW250 21/16 A2987 RMK CI1 SLP114

CYWG;2011-08-15 06:00;CYWG 150600Z 17007KT 15SM BKN280 19/16 A2986 RMK CI2 SLP109

CYWG;2011-08-15 07:00;CYWG 150700Z 18007KT 15SM SCT280 20/17 A2985 RMK CI0 SLP107

CYWG;2011-08-15 08:00;CYWG 150800Z 19007KT 15SM BKN280 19/16 A2984 RMK CI0 SLP105

CYWG;2011-08-15 09:00;CYWG 150900Z 18006KT 15SM FEW120 BKN280 18/16 A2984 RMK AC1CI0 SLP103

CYWG;2011-08-15 10:00;CYWG 151000Z 16005KT 15SM FEW120 BKN280 18/16 A2984 RMK AC1CI2 SLP104

CYWG;2011-08-15 11:00;CYWG 151100Z 17005KT 15SM FEW120 OVC260 17/16 A2984 RMK AC2CI2 SLP104

CYWG;2011-08-15 12:00;CYWG 151200Z 13004KT 15SM FEW120 OVC260 18/16 A2984 RMK AC1CI2 SLP106

CYWG;2011-08-15 13:00;CYWG 151300Z 14004KT 15SM FEW120 OVC260 20/17 A2983 RMK AC2CI1 SLP103

CYWG;2011-08-15 14:00;CYWG 151400Z 15005KT 15SM BKN120 OVC260 21/17 A2985 RMK AC5CI1 SLP108

CYWG;2011-08-15 15:00;CYWG 151500Z 13007KT 15SM SCT120 BKN260 23/18 A2984 RMK AC4CI1 SLP104

CYWG;2011-08-15 16:00;CYWG 151600Z 12009KT 15SM FEW120 SCT260 26/18 A2982 RMK AC2CI0 SLP099

CYWG;2011-08-15 17:00;CYWG 151700Z 12012KT 15SM FEW036 FEW120 FEW260 28/15 A2981 RMK CU1AC1CI0 SLP095

CYWG;2011-08-15 18:00;CYWG 151800Z 14011G17KT 15SM FEW052 FEW260 29/16 A2981 RMK CU1CI0 SLP093

CYWG;2011-08-15 19:00;CYWG 151900Z 15010G15KT 15SM FEW060 FEW120 SCT260 30/14 A2980 RMK CU2AC1CI1 SLP091

CYWG;2011-08-15 20:00;CYWG 152000Z 17013G19KT 15SM BKN055 BKN260 30/17 A2979 RMK CU5CI1 SLP086

CYWG;2011-08-15 21:00;CYWG 152100Z 13011KT 15SM SCT053 BKN260 30/17 A2978 RMK CU3CI1 SLP082

CYWG;2011-08-15 22:00;CYWG 152200Z 19009KT 15SM SCT049 BKN260 30/18 A2978 RMK CU3CI2 SLP083

CYWG;2011-08-15 23:00;CYWG 152300Z 16008KT 15SM FEW051 BKN260 30/18 A2978 RMK CU2CI1 SLP082

CYWG;2011-08-16 00:00;CYWG 160000Z 18008KT 15SM FEW051 BKN260 29/17 A2978 RMK CU2CI2 SLP083

CYWG;2011-08-16 01:00;CYWG 160100Z 18006KT 15SM FEW050 FEW058TCU BKN260 27/18 A2978 RMK CU1TCU1CI1 TCU SE SLP084

CYWG;2011-08-16 02:00;CYWG 160200Z 18007KT 15SM FEW050 FEW210 BKN260 25/19 A2979 RMK SC1CI2CI1 SLP087

CYWG;2011-08-16 03:00;CYWG 160300Z 17010KT 15SM FEW048 BKN210 24/20 A2978 RMK SC2CI2 SLP083

CYWG;2011-08-16 04:00;CYWG 160400Z 17007KT 15SM FEW048 BKN210 23/19 A2977 RMK SC2CI0 SLP082

CYWG;2011-08-16 05:00;CYWG 160500Z 15008KT 15SM FEW048 22/19 A2977 RMK SC1 SLP082

CYWG;2011-08-16 06:00;CYWG 160600Z 14011KT 15SM FEW150 BKN210 22/19 A2975 RMK AC1CI1 SLP073

CYWG;2011-08-16 07:00;CYWG 160700Z 16010KT 15SM SKC 21/19 A2975 RMK SLP072

CYWG;2011-08-16 08:00;CYWG 160800Z 16009KT 15SM OVC230 22/19 A2973 RMK CI2 SLP066

CYWG;2011-08-16 09:00;CYWG 160900Z 14007KT 15SM SCT058 OVC120 21/19 A2971 RMK SC3AC2 SLP060

CYWG;2011-08-16 10:00;CYWG 161000Z 14008KT 15SM SCT058 OVC210 21/19 A2967 RMK SC4CI2 SLP046

CYWG;2011-08-16 11:00;CYWG 161100Z 14010KT 15SM FEW055 SCT100 OVC250 21/19 A2965 RMK SC2AC2CI2 SLP038

CYWG;2011-08-16 11:25;CYWG 161125Z 17011KT 15SM BKN015 BKN038 OVC100 21/ RMK SC5SC2AC2

CYWG;2011-08-16 12:00;CYWG 161200Z 16010G15KT 15SM FEW012 BKN027 OVC070 21/19 A2963 RMK SC2SC4AC2 SLP033

CYWG;2011-08-16 13:00;CYWG 161300Z 18012G17KT 15SM FEW009 SCT043 BKN074 OVC100 22/20 A2963 RMK SF1SC2AC2AC2 SLP033

CYWG;2011-08-16 14:00;CYWG 161400Z 21013G18KT 15SM FEW040 BKN100 OVC140 22/19 A2962 RMK SC2AC5AC2 SLP030

CYWG;2011-08-16 14:38;CYWG 161438Z 20017G22KT 15SM -SHRA FEW035 OVC095 23/ RMK SC2AC6 CVCTV CLD EMBD

CYWG;2011-08-16 15:00;CYWG 161500Z 19017G22KT 15SM -SHRA FEW035 OVC092 23/17 A2961 RMK SC2AC6 CVCTV CLD EMBD SLP026

CYWG;2011-08-16 16:00;CYWG 161600Z 21015KT 15SM FEW013 OVC091 22/18 A2962 RMK SF1AC7 SLP028

CYWG;2011-08-16 16:26;CYWG 161626Z 21013KT 15SM -SHRA FEW024 OVC096 22/ RMK SC2AC6 CVCTV CLD EMBD

CYWG;2011-08-16 16:52;CYWG 161652Z 21015G21KT 15SM FEW020 OVC096 22/ RMK SC2AC6

CYWG;2011-08-16 17:00;CYWG 161700Z 22014G21KT 15SM SCT020 OVC082 23/19 A2964 RMK SC3AC5 SLP035

CYWG;2011-08-16 18:00;CYWG 161800Z 23016KT 15SM BKN020 BKN095 24/18 A2964 RMK CU5AC1 SLP034

CYWG;2011-08-16 19:00;CYWG 161900Z 27021G33KT 15SM BKN039 BKN090 27/14 A2965 RMK CU6AC1 SLP039

CYWG;2011-08-16 20:00;CYWG 162000Z 27020G28KT 15SM SCT047 BKN074 27/13 A2966 RMK CU4AC2 SLP042

CYWG;2011-08-16 21:00;CYWG 162100Z 27019G28KT 15SM SCT056 BKN071 27/12 A2968 RMK CU4AC1 SLP048

CYWG;2011-08-16 22:00;CYWG 162200Z 28025KT 15SM BKN057 25/13 A2970 RMK CU5 SLP054

CYWG;2011-08-16 23:00;CYWG 162300Z 28021G32KT 15SM SCT057 24/11 A2972 RMK CU4 SLP062

CYWG;2011-08-17 00:00;CYWG 170000Z 29024G32KT 15SM SCT059 23/08 A2974 RMK CU4 SLP072

CYWG;2011-08-17 01:00;CYWG 170100Z 28017G24KT 15SM FEW050 FEW230 21/07 A2977 RMK CU2CI1 SLP079

CYWG;2011-08-17 02:00;CYWG 170200Z 25009KT 15SM FEW050 FEW250 19/08 A2977 RMK CU1CI1 SLP082

CYWG;2011-08-17 02:25;CYWG 170225Z 25009KT 15SM TS FEW045CB 18/ RMK CB2 LTNGCC NW

CYWG;2011-08-17 03:00;CYWG 170300Z CCA 28009G18KT 9SM TS VCSH BKN044CB 18/10 A2980 RMK CB5 LTGICCG N-NE SLP093

CYWG;2011-08-17 03:01;CYWG 170301Z 27009G17KT 9SM -TSRA BKN044CB 17/ RMK CB5 LTGCGIC N-NE

CYWG;2011-08-17 03:23;CYWG 170323Z 27010KT 15SM FEW044CB FEW090 17/ RETS RMK CB1AC2 CB/LTNG DIST NE

CYWG;2011-08-17 04:00;CYWG 170400Z CCA 29017G22KT 15SM -SHRA BKN046 BKN090 17/10 A2982 RETS RMK SC5AC1 SLP100

CYWG;2011-08-17 04:28;CYWG 170428Z 28009KT 15SM FEW046 SCT100 16/ RMK SC2AC1

CYWG;2011-08-17 05:00;CYWG 170500Z 24009KT 15SM FEW073 16/09 A2982 RMK AC1 SLP099

CYWG;2011-08-17 06:00;CYWG 170600Z 23009KT 15SM SKC 16/09 A2982 RMK SLP100

CYWG;2011-08-17 07:00;CYWG 170700Z 25012KT 15SM SKC 16/08 A2983 RMK SLP102

CYWG;2011-08-17 08:00;CYWG 170800Z 25013G18KT 15SM SKC 15/08 A2983 RMK SLP103

CYWG;2011-08-17 09:00;CYWG 170900Z 25014KT 15SM SKC 16/08 A2984 RMK SLP105

CYWG;2011-08-17 10:00;CYWG 171000Z 26012G17KT 15SM FEW120 15/08 A2985 RMK AC1 SLP108

CYWG;2011-08-17 11:00;CYWG 171100Z 25013KT 15SM FEW120 FEW250 15/08 A2986 RMK AC1CI0 SLP112

CYWG;2011-08-17 12:00;CYWG 171200Z 25010G17KT 15SM FEW120 15/08 A2987 RMK AC1 SLP118

CYWG;2011-08-17 13:00;CYWG 171300Z 26014KT 15SM FEW120 16/08 A2988 RMK AC1 SLP120

CYWG;2011-08-17 14:00;CYWG 171400Z 26013G20KT 15SM FEW120 19/09 A2988 RMK AC1 SLP121

CYWG;2011-08-17 15:00;CYWG 171500Z 28012G20KT 15SM SKC 22/09 A2988 RMK SLP118

CYWG;2011-08-17 16:00;CYWG 171600Z 28020G25KT 15SM SKC 23/08 A2988 RMK SLP120

CYWG;2011-08-17 17:00;CYWG 171700Z 29016G27KT 15SM SKC 24/08 A2989 RMK SLP121

CYWG;2011-08-17 18:00;CYWG 171800Z 30017G25KT 15SM FEW060 25/07 A2988 RMK CU1 SLP118

CYWG;2011-08-17 19:00;CYWG 171900Z 27016G24KT 15SM FEW072 26/08 A2987 RMK CU1 SLP117

CYWG;2011-08-17 20:00;CYWG 172000Z 30020G27KT 15SM FEW070 26/08 A2987 RMK CU1 SLP116

CYWG;2011-08-17 21:00;CYWG 172100Z 31017KT 15SM SKC 27/08 A2987 RMK SLP115

CYWG;2011-08-17 22:00;CYWG 172200Z 28013KT 15SM SKC 27/09 A2986 RMK SLP112

CYWG;2011-08-17 23:00;CYWG 172300Z 28016G21KT 15SM SKC 26/08 A2985 RMK SLP109

CYWG;2011-08-18 00:00;CYWG 180000Z 27014G20KT 15SM SKC 26/09 A2984 RMK SLP106

CYWG;2011-08-18 01:00;CYWG 180100Z 28008KT 15SM SKC 24/09 A2984 RMK SLP106

CYWG;2011-08-18 02:00;CYWG 180200Z 25005KT 15SM SKC 20/09 A2985 RMK SLP108

CYWG;2011-08-18 03:00;CYWG 180300Z 30006KT 15SM SKC 17/10 A2986 RMK SLP113

CYWG;2011-08-18 04:00;CYWG 180400Z 27003KT 15SM SKC 16/10 A2986 RMK SLP112

CYWG;2011-08-18 05:00;CYWG 180500Z 21002KT 15SM SKC 17/10 A2987 RMK SLP115

CYWG;2011-08-18 06:00;CYWG 180600Z 22003KT 15SM SKC 16/10 A2987 RMK SLP115

CYWG;2011-08-18 07:00;CYWG 180700Z 19002KT 15SM SKC 14/10 A2987 RMK SLP115

CYWG;2011-08-18 08:00;CYWG 180800Z 18002KT 15SM SKC 13/10 A2986 RMK SLP112

CYWG;2011-08-18 09:00;CYWG 180900Z 19007KT 15SM FEW140 14/10 A2985 RMK AC1 SLP109

CYWG;2011-08-18 10:00;CYWG 181000Z 18006KT 15SM FEW140 12/10 A2985 RMK AC1 SLP108

CYWG;2011-08-18 11:00;CYWG 181100Z 17005KT 15SM FEW090 FEW140 11/09 A2984 RMK AC1AC1 SLP106

CYWG;2011-08-18 12:00;CYWG 181200Z 17005KT 15SM FEW090 FEW140 13/10 A2984 RMK AC1AC2 SLP106

CYWG;2011-08-18 13:00;CYWG 181300Z 16004KT 15SM FEW090 FEW140 16/12 A2983 RMK AC1AC1 SLP103

CYWG;2011-08-18 14:00;CYWG 181400Z 17008KT 15SM FEW090 20/12 A2983 RMK AC1 SLP101

CYWG;2011-08-18 15:00;CYWG 181500Z 16006KT 15SM FEW100 24/11 A2981 RMK AC2 SLP094

CYWG;2011-08-18 16:00;CYWG 181600Z 14006KT 15SM FEW100 27/10 A2979 RMK AC2 SLP089

CYWG;2011-08-18 17:00;CYWG 181700Z 18010KT 15SM FEW100 27/13 A2978 RMK AC1 SLP085

CYWG;2011-08-18 18:00;CYWG 181800Z 13004KT 15SM FEW045 28/16 A2976 RMK CF1 SLP078

CYWG;2011-08-18 19:00;CYWG 181900Z 20007G16KT 15SM FEW050 29/15 A2974 RMK CU1 SLP071

CYWG;2011-08-18 20:00;CYWG 182000Z 19007KT 15SM FEW050 30/15 A2972 RMK CU1 SLP063

CYWG;2011-08-18 21:00;CYWG 182100Z 20004KT 15SM FEW060 30/13 A2970 RMK CU2 SLP059

CYWG;2011-08-18 22:00;CYWG 182200Z 19013KT 15SM FEW070 FEW280 30/13 A2970 RMK CF2CI1 SLP056

CYWG;2011-08-18 23:00;CYWG 182300Z 23011KT 15SM FEW070 FEW260 30/14 A2968 RMK CF1CI2 CB TOP WNW SLP050

CYWG;2011-08-19 00:00;CYWG 190000Z 19012KT 15SM FEW260 28/15 A2966 RMK CI2 CB TOP NNW MOVG E SLP044

CYWG;2011-08-19 01:00;CYWG 190100Z 17010G15KT 15SM FEW040TCU SCT260 26/15 A2963 RMK TCU1CI2 CB TOPS NW-NNW MOVG E SLP034

CYWG;2011-08-19 01:26;CYWG 190126Z 16013KT 15SM TS FEW040CB SCT120 BKN260 26/ RMK CB2AC2CI1 CB NNW-N MOVG E LGTICCG

CYWG;2011-08-19 01:52;CYWG 190152Z 36025G31KT 15SM -TSRA FEW016 BKN048CB BKN260 18/ RMK SF2CB3CI1 CB OVRHD MOVG E LGTICCCCG WSHFT 0147

CYWG;2011-08-19 01:59;CYWG 190159Z 31020G31KT 3/4SM R31/2200V3000FT/N R36/3500FT/N +TSRA SCT015 OVC039CB 17/ RMK SF3CB5 CB OVHD MOVG E LGTICCCCG

CYWG;2011-08-19 02:00;CYWG 190200Z 33023G38KT 3/4SM R31/1100V1600FT/N R36/1200V1800FT/N +TSRA SCT015 OVC039CB 17/17 A2970 RMK SF3CB5 CB OVRHD MOVG E LGTICCCCG SLP056

CYWG;2011-08-19 02:16;CYWG 190216Z 23007G16KT 15SM R31/2600VP6000FT/U R36/3000VP6000FT/U -TSRA FEW015 BKN040CB BKN067TCU BKN260 18/ RMK SF2CB3TCU1CI1 VIS N-E 2 CB NE MOVG E LGTICCCCG

CYWG;2011-08-19 02:26;CYWG 190226Z CCA 32006KT 15SM TS FEW015 SCT040CB BKN067 BKN260 18/ RERA RMK SF1CB3CU1CI1 VIS NE-E 6 CB NE MOVG E LGTICCG

CYWG;2011-08-19 03:00;CYWG 190300Z 33014KT 15SM TS FEW063 SCT260 17/16 A2972 RERA RMK SC1CI3 LTGICCC E CB E MOVG E SLP066

CYWG;2011-08-19 03:28;CYWG 190328Z 32017G24KT 15SM FEW060 FEW260 17/ RETS RMK SC1CI2 LTGIC DIST E

CYWG;2011-08-19 04:00;CYWG 190400Z 33013G18KT 15SM FEW260 16/15 A2976 RETS RMK CI1 SLP077

CYWG;2011-08-19 05:00;CYWG 190500Z 31007KT 15SM BKN040 16/14 A2977 RMK SC5 SLP083

CYWG;2011-08-19 06:00;CYWG 190600Z 30006KT 15SM SCT250 14/13 A2980 RMK CI1 SLP090

CYWG;2011-08-19 07:00;CYWG 190700Z 32007KT 15SM SKC 14/12 A2980 RMK SLP093

CYWG;2011-08-19 08:00;CYWG 190800Z 28006KT 15SM FEW250 12/11 A2981 RMK CI0 SLP094

CYWG;2011-08-19 09:00;CYWG 190900Z 26005KT 15SM SCT250 12/11 A2981 RMK CI0 SLP096

CYWG;2011-08-19 10:00;CYWG 191000Z 27007KT 15SM FEW250 11/10 A2982 RMK CI0 SLP099

CYWG;2011-08-19 11:00;CYWG 191100Z 27007KT 15SM FEW250 11/10 A2986 RMK CI1 SLP110

CYWG;2011-08-19 12:00;CYWG 191200Z 27007KT 15SM FEW090 SCT250 11/10 A2987 RMK AC0CI1 SLP115

CYWG;2011-08-19 13:00;CYWG 191300Z 27007KT 15SM FEW026 SCT250 13/12 A2988 RMK SC2CI0 SLP120

CYWG;2011-08-19 14:00;CYWG 191400Z 30008KT 15SM FEW026 SCT250 16/13 A2990 RMK CU2CI0 SLP126

CYWG;2011-08-19 15:00;CYWG 191500Z 31011G16KT 15SM SCT022 17/13 A2991 RMK CU3 SLP130

CYWG;2011-08-19 16:00;CYWG 191600Z 31013G19KT 15SM SCT031 19/11 A2991 RMK CU3 SLP132

CYWG;2011-08-19 17:00;CYWG 191700Z 30016KT 15SM SCT039 20/10 A2992 RMK CU4 SLP135

CYWG;2011-08-19 18:00;CYWG 191800Z 31013G21KT 15SM SCT041 21/10 A2993 RMK CU3 SLP136

CYWG;2011-08-19 19:00;CYWG 191900Z 31015G24KT 15SM SCT044 20/09 A2994 RMK CU3 SLP140

CYWG;2011-08-19 20:00;CYWG 192000Z 32015G21KT 15SM FEW046 21/09 A2994 RMK CU2 SLP140

CYWG;2011-08-19 21:00;CYWG 192100Z 32017G24KT 15SM FEW052 21/08 A2993 RMK CU2 SLP140

CYWG;2011-08-19 22:00;CYWG 192200Z 33017KT 15SM FEW054 FEW250 21/09 A2993 RMK CU1CI1 SLP140

CYWG;2011-08-19 23:00;CYWG 192300Z 31014G19KT 15SM FEW055 21/08 A2993 RMK CU1 SLP138

CYWG;2011-08-20 00:00;CYWG 200000Z 33011G16KT 15SM FEW055 20/07 A2993 RMK CU1 TR CU SLP138

CYWG;2011-08-20 01:00;CYWG 200100Z 33007KT 15SM FEW055 18/07 A2993 RMK CU1 TR CU SLP140

CYWG;2011-08-20 02:00;CYWG 200200Z 29002KT 15SM FEW210 14/08 A2994 RMK CI1 TR CI SLP142

CYWG;2011-08-20 03:00;CYWG 200300Z 26004KT 15SM FEW230 13/08 A2996 RMK CI0 SLP148

CYWG;2011-08-20 04:00;CYWG 200400Z 23006KT 15SM FEW230 12/08 A2996 RMK CI0 SLP151

CYWG;2011-08-20 05:00;CYWG 200500Z 24005KT 15SM FEW230 12/08 A2996 RMK CI0 SLP151

CYWG;2011-08-20 06:00;CYWG 200600Z 24006KT 15SM FEW100 11/08 A2996 RMK AC1 SLP149

CYWG;2011-08-20 07:00;CYWG 200700Z 24005KT 15SM FEW070 10/07 A2996 RMK AC2 SLP147

CYWG;2011-08-20 08:00;CYWG 200800Z 24007KT 15SM FEW070 11/08 A2995 RMK AC2 SLP146

CYWG;2011-08-20 09:00;CYWG 200900Z 24006KT 15SM SCT070 11/08 A2995 RMK AC3 SLP145

CYWG;2011-08-20 10:00;CYWG 201000Z 25007KT 15SM FEW070 11/07 A2994 RMK AC1 SLP142

CYWG;2011-08-20 11:00;CYWG 201100Z 25008KT 15SM FEW081 FEW250 10/07 A2995 RMK AC1CI0 SLP144

CYWG;2011-08-20 12:00;CYWG 201200Z 25007KT 15SM FEW094 FEW250 10/07 A2995 RMK AC1CI0 SLP145

CYWG;2011-08-20 13:00;CYWG 201300Z 25008KT 15SM FEW094 FEW250 12/08 A2995 RMK AC2CI0 SLP147

CYWG;2011-08-20 14:00;CYWG 201400Z 27007KT 15SM BKN070 14/09 A2996 RMK AC6 ACC ASOCTD -SHRA DIST N SLP150

CYWG;2011-08-20 15:00;CYWG 201500Z 23005KT 15SM -SHRA FEW025 BKN068 15/11 A2996 RMK SC2ACC3 SLP149

CYWG;2011-08-20 15:19;CYWG 201519Z 25004KT 15SM FEW025 SCT068 16/ RMK SC1ACC3 -SHRA DIST E

CYWG;2011-08-20 16:00;CYWG 201600Z 27010KT 15SM FEW070 20/08 A2995 RMK AC1 SLP146

CYWG;2011-08-20 17:00;CYWG 201700Z 27009KT 15SM FEW070 FEW250 22/09 A2994 RMK AC1CI1 SLP143

CYWG;2011-08-20 18:00;CYWG 201800Z 29014KT 15SM FEW059 BKN250 23/09 A2993 RMK CU2CI4 SLP138

CYWG;2011-08-20 19:00;CYWG 201900Z 30015G25KT 15SM FEW057 BKN250 23/06 A2992 RMK CU2CI3 SLP135

CYWG;2011-08-20 20:00;CYWG 202000Z 31010G20KT 15SM FEW064 SCT250 23/07 A2991 RMK CU2CI1 CB TOPS DIST NE QUAD SLP131

CYWG;2011-08-20 21:00;CYWG 202100Z 32017G24KT 15SM FEW064 BKN250 22/06 A2992 RMK CU2CI1 TCU ASOCD CB TOPS NE SLP133

CYWG;2011-08-20 22:00;CYWG 202200Z 33018KT 15SM FEW064 FEW085 23/07 A2991 RMK CU1AC1 CB TOPS NE SLP131

CYWG;2011-08-20 23:00;CYWG 202300Z 03016G21KT 15SM FEW065 SCT084 21/10 A2991 RMK CU2AC1 OBS TKN +7 SLP132

CYWG;2011-08-21 00:00;CYWG 210000Z 04008KT 15SM -SHRA BKN076 17/11 A2993 RMK AC5 SLP141

CYWG;2011-08-21 01:00;CYWG 210100Z 08004KT 15SM SCT094 17/11 A2992 RMK AC2 SLP135

CYWG;2011-08-21 02:00;CYWG 210200Z 08002KT 15SM FEW100 FEW250 14/11 A2993 RMK AC1CI0 SLP139

CYWG;2011-08-21 03:00;CYWG 210300Z 00000KT 15SM FEW100 FEW250 12/10 A2994 RMK AC1CI1 SLP144

CYWG;2011-08-21 04:00;CYWG 210400Z 00000KT 15SM FEW250 10/10 A2995 RMK CI1 SLP146

CYWG;2011-08-21 05:00;CYWG 210500Z 23004KT 15SM FEW100 11/11 A2995 RMK AC1 SLP147

CYWG;2011-08-21 06:00;CYWG 210600Z 24005KT 15SM FEW094 11/10 A2996 RMK AC1 SLP147

CYWG;2011-08-21 07:00;CYWG 210700Z 00000KT 15SM FEW084 11/10 A2995 RMK AC2 SLP146

CYWG;2011-08-21 08:00;CYWG 210800Z 00000KT 15SM BKN089 11/10 A2996 RMK AC5 SLP148

CYWG;2011-08-21 09:00;CYWG 210900Z 23004KT 15SM FEW083 10/09 A2995 RMK AC1 SLP146

CYWG;2011-08-21 10:00;CYWG 211000Z 22003KT 15SM FEW083 11/09 A2995 RMK AC1 SLP146

CYWG;2011-08-21 11:00;CYWG 211100Z 24002KT 15SM FEW080 09/08 A2996 RMK AC1 SLP150

CYWG;2011-08-21 12:00;CYWG 211200Z 22003KT 15SM SCT092 09/08 A2996 RMK AC3 SLP152

CYWG;2011-08-21 13:00;CYWG 211300Z 25002KT 15SM SCT090 14/11 A2997 RMK AC3 SLP155

CYWG;2011-08-21 14:00;CYWG 211400Z 29003KT 15SM BKN090 17/11 A2997 RMK AC5 SLP155

CYWG;2011-08-21 15:00;CYWG 211500Z 25006KT 15SM FEW028 BKN090 18/11 A2998 RMK CU1AC5 SLP156

CYWG;2011-08-21 16:00;CYWG 211600Z 26009KT 15SM FEW025 BKN090 17/11 A2999 RMK CU1AC5 SLP158

CYWG;2011-08-21 17:00;CYWG 211700Z 30008KT 15SM FEW025 BKN090 20/12 A2999 RMK CU2AC5 TCU ACC ASOCTD SLP159

CYWG;2011-08-21 18:00;CYWG 211800Z 28010KT 15SM FEW035 BKN082 21/11 A2998 RMK CU2AC6 ACC EMBD SH DIST NE SLP154

CYWG;2011-08-21 19:00;CYWG 211900Z 30006KT 15SM FEW040 BKN086 22/09 A2997 RMK CU2AC4 SLP153

CYWG;2011-08-21 20:00;CYWG 212000Z 28009KT 15SM FEW045 BKN086 22/10 A2996 RMK CU1AC4 SLP150

CYWG;2011-08-21 21:00;CYWG 212100Z 26009KT 15SM FEW048 BKN087 22/10 A2995 RMK CU1AC5 SLP146

CYWG;2011-08-21 22:00;CYWG 212200Z 30006KT 15SM FEW044 BKN085 22/10 A2994 RMK CU1AC5 SLP142

CYWG;2011-08-21 23:00;CYWG 212300Z 26003KT 15SM BKN072 23/10 A2994 RMK AC5 SLP141

CYWG;2011-08-22 00:00;CYWG 220000Z 17002KT 15SM FEW075 23/09 A2993 RMK AC2 SLP137

CYWG;2011-08-22 01:00;CYWG 220100Z 08003KT 15SM FEW075 FEW240 21/10 A2991 RMK AC1CI0 SLP131

CYWG;2011-08-22 02:00;CYWG 220200Z 12006KT 15SM FEW080 FEW240 17/10 A2990 RMK AC1CI0 SLP129

CYWG;2011-08-22 03:00;CYWG 220300Z 14009KT 15SM FEW092 19/10 A2991 RMK AC2 SLP129

CYWG;2011-08-22 04:00;CYWG 220400Z 14008KT 15SM FEW240 17/10 A2990 RMK CI0 SLP127

CYWG;2011-08-22 05:00;CYWG 220500Z 15008KT 15SM FEW240 16/10 A2990 RMK CI0 SLP126

CYWG;2011-08-22 06:00;CYWG 220600Z 15010KT 15SM FEW240 17/10 A2988 RMK CI0 SLP119

CYWG;2011-08-22 07:00;CYWG 220700Z 15010KT 15SM SKC 16/10 A2986 RMK SLP113

CYWG;2011-08-22 08:00;CYWG 220800Z 16008KT 15SM SKC 15/11 A2984 RMK SLP108

CYWG;2011-08-22 09:00;CYWG 220900Z 17009KT 15SM SKC 15/11 A2983 RMK SLP102

CYWG;2011-08-22 10:00;CYWG 221000Z 18007KT 15SM SKC 14/11 A2982 RMK SLP098

CYWG;2011-08-22 11:00;CYWG 221100Z 16006KT 15SM FEW250 13/11 A2980 RMK CI2 SLP094

CYWG;2011-08-22 12:00;CYWG 221200Z 17006KT 15SM FEW250 13/12 A2981 RMK CI2 SLP096

CYWG;2011-08-22 13:00;CYWG 221300Z 17007KT 15SM FEW080 SCT250 16/13 A2980 RMK AC1CI2 SLP093

CYWG;2011-08-22 14:00;CYWG 221400Z 18008KT 15SM FEW050 SCT250 19/14 A2979 RMK SC1CI2 SLP090

CYWG;2011-08-22 15:00;CYWG 221500Z 19009KT 15SM FEW050 SCT250 23/15 A2976 RMK SC1CI2 SLP078

CYWG;2011-08-22 16:00;CYWG 221600Z 21013KT 15SM FEW050 SCT250 26/17 A2973 RMK SC1CI2 SLP069

CYWG;2011-08-22 17:00;CYWG 221700Z 17013KT 15SM FEW100 SCT250 29/18 A2970 RMK AC1CI1 SLP060

CYWG;2011-08-22 18:00;CYWG 221800Z 19014G24KT 15SM FEW250 32/17 A2968 RMK CI1 SLP049

CYWG;2011-08-22 19:00;CYWG 221900Z 19016G24KT 15SM FEW250 33/17 A2966 RMK CI0 SLP042

CYWG;2011-08-22 20:00;CYWG 222000Z 19016G25KT 15SM FEW250 34/16 A2964 RMK CI0 SLP036

CYWG;2011-08-22 21:00;CYWG 222100Z 20016G29KT 15SM FEW250 33/16 A2963 RMK CI0 SLP033

CYWG;2011-08-22 22:00;CYWG 222200Z 20019G26KT 15SM FEW250 33/16 A2961 RMK CI0 SLP026

CYWG;2011-08-22 23:00;CYWG 222300Z 19018G24KT 15SM FEW050 FEW250 32/17 A2960 RMK CU1CI0 SLP023

CYWG;2011-08-23 00:00;CYWG 230000Z 21014G19KT 15SM FEW050 FEW250 31/19 A2959 RMK SC1CI0 SLP019

CYWG;2011-08-23 01:00;CYWG 230100Z 20012G17KT 15SM FEW250 30/20 A2957 RMK CI0 SLP013

CYWG;2011-08-23 02:00;CYWG 230200Z 19012G17KT 15SM FEW250 28/20 A2957 RMK CI0 SLP012

CYWG;2011-08-23 03:00;CYWG 230300Z 19010KT 15SM SKC 26/20 A2957 RMK SLP010

CYWG;2011-08-23 04:00;CYWG 230400Z 19013G19KT 15SM SKC 25/21 A2956 RMK SLP007

CYWG;2011-08-23 05:00;CYWG 230500Z 19012KT 15SM SKC 25/21 A2954 RMK SLP003

CYWG;2011-08-23 06:00;CYWG 230600Z 19013KT 15SM SKC 24/22 A2953 RMK SLP996

CYWG;2011-08-23 07:00;CYWG 230700Z 19009KT 15SM SKC 23/21 A2952 RMK SLP992

CYWG;2011-08-23 08:00;CYWG 230800Z 19009KT 15SM SKC 22/21 A2950 RMK SLP986

CYWG;2011-08-23 09:00;CYWG 230900Z 20011KT 15SM SKC 22/21 A2949 RMK SLP983

CYWG;2011-08-23 10:00;CYWG 231000Z 19007KT 15SM SKC 21/20 A2948 RMK SLP980

CYWG;2011-08-23 11:00;CYWG 231100Z 21008KT 15SM FEW150 20/18 A2947 RMK AC1 SLP977

CYWG;2011-08-23 12:00;CYWG 231200Z 21006KT 15SM FEW150 FEW250 19/17 A2947 RMK AC1CI0 SLP977

CYWG;2011-08-23 13:00;CYWG 231300Z 21006KT 15SM FEW150 FEW250 19/16 A2947 RMK AC1CI0 SLP976

CYWG;2011-08-23 14:00;CYWG 231400Z 23009KT 15SM FEW150 FEW250 22/16 A2947 RMK AC1CI0 SLP976

CYWG;2011-08-23 15:00;CYWG 231500Z 24008KT 15SM FEW250 25/16 A2946 RMK CI1 SLP975

CYWG;2011-08-23 16:00;CYWG 231600Z 25008KT 15SM FEW250 29/15 A2946 RMK CI1 SLP973

CYWG;2011-08-23 17:00;CYWG 231700Z 25007KT 15SM FEW250 32/14 A2945 RMK CI1 SLP970

CYWG;2011-08-23 18:00;CYWG 231800Z 26007KT 15SM FEW250 34/14 A2943 RMK CI1 SLP962

CYWG;2011-08-23 19:00;CYWG 231900Z 24009KT 15SM FEW150 FEW250 36/10 A2941 RMK AC1CI0 AC TR SLP955

CYWG;2011-08-23 20:00;CYWG 232000Z 23013G18KT 15SM FEW150 SCT250 37/11 A2939 RMK AC1CI1 SLP949

CYWG;2011-08-23 21:00;CYWG 232100Z 24013G18KT 15SM FEW150 BKN250 37/11 A2937 RMK AC2CI2 SLP941

CYWG;2011-08-23 22:00;CYWG 232200Z 23016KT 15SM FEW074 BKN150 BKN250 35/11 A2935 RMK AC2AC3CI1 SLP935

CYWG;2011-08-23 23:00;CYWG 232300Z 25022G28KT 15SM FEW080 BKN150 BKN250 35/10 A2934 RMK AC2AC2CI0 SLP930

CYWG;2011-08-24 00:00;CYWG 240000Z 27017G24KT 15SM FEW090 FEW150 SCT250 34/10 A2934 RMK AC1AC2CI0 SLP932

CYWG;2011-08-24 01:00;CYWG 240100Z 32022G33KT 15SM FEW090 29/14 A2938 RMK AC2 CB TOP DIST N SLP944

CYWG;2011-08-24 02:00;CYWG 240200Z 32022G27KT 15SM FEW090 FEW250 26/15 A2943 RMK AC1CI0 CB TOP DIST NE SLP961

CYWG;2011-08-24 03:00;CYWG 240300Z CCA 33021G29KT 15SM SKC 23/15 A2950 RMK PRESRR SLP989

CYWG;2011-08-24 04:00;CYWG 240400Z 32013KT 15SM SKC 22/15 A2954 RMK OBS TAKEN +5 SLP003

CYWG;2011-08-24 05:00;CYWG 240500Z 31012KT 15SM SKC 21/15 A2957 RMK SLP012

CYWG;2011-08-24 06:00;CYWG 240600Z 31010G16KT 15SM SKC 20/15 A2958 RMK SLP013

CYWG;2011-08-24 07:00;CYWG 240700Z 30009G16KT 15SM SKC 20/13 A2958 RMK SLP014

CYWG;2011-08-24 08:00;CYWG 240800Z 28007KT 15SM SKC 17/13 A2959 RMK SLP017

CYWG;2011-08-24 09:00;CYWG 240900Z 27011KT 15SM SKC 18/11 A2960 RMK SLP019

CYWG;2011-08-24 10:00;CYWG 241000Z 27011KT 15SM SKC 16/10 A2961 RMK SLP024

CYWG;2011-08-24 11:00;CYWG 241100Z 28015KT 15SM FEW090 16/10 A2963 RMK AC1 SLP030

CYWG;2011-08-24 12:00;CYWG 241200Z 28016KT 15SM FEW088 16/10 A2965 RMK AC1 SLP039

CYWG;2011-08-24 13:00;CYWG 241300Z 30013KT 15SM FEW087 19/11 A2967 RMK AC1 SLP047

CYWG;2011-08-24 14:00;CYWG 241400Z 31024G30KT 15SM FEW087 21/11 A2969 RMK AC1 SLP053

CYWG;2011-08-24 15:00;CYWG 241500Z 32026G35KT 15SM FEW087 21/12 A2972 RMK AC1 TR AC SLP064

CYWG;2011-08-24 16:00;CYWG 241600Z 31023G30KT 15SM FEW036 22/13 A2974 RMK CU1 TR CU SLP072

CYWG;2011-08-24 17:00;CYWG 241700Z 32018G29KT 15SM FEW036 23/13 A2978 RMK CU1 SLP083

CYWG;2011-08-24 18:00;CYWG 241800Z 32023G30KT 15SM FEW036 24/13 A2980 RMK CU1 SLP090

CYWG;2011-08-24 19:00;CYWG 241900Z 33016G29KT 15SM FEW040 25/13 A2981 RMK CU1 SLP094

CYWG;2011-08-24 20:00;CYWG 242000Z 33017G26KT 15SM FEW040 25/13 A2982 RMK CU1 SLP097

CYWG;2011-08-24 21:00;CYWG 242100Z 33018G25KT 15SM FEW046 FEW120 25/14 A2983 RMK CU2AC1 SLP102

CYWG;2011-08-24 22:00;CYWG 242200Z 32014G24KT 15SM FEW046 FEW260 25/13 A2984 RMK CU1CI1 CI TR SLP106

CYWG;2011-08-24 23:00;CYWG 242300Z 33013G18KT 15SM FEW046 FEW260 25/14 A2986 RMK CU1CI1 CI TR SLP110

CYWG;2011-08-25 00:00;CYWG 250000Z 33015KT 15SM FEW045 SCT260 24/13 A2987 RMK SC1CI1 SC TR SLP115

CYWG;2011-08-25 01:00;CYWG 250100Z 31008KT 15SM FEW035 FEW260 23/13 A2987 RMK SC1CI0 SLP117

CYWG;2011-08-25 02:00;CYWG 250200Z 28006KT 15SM FEW030 FEW260 17/12 A2989 RMK SC1CI1 SLP121

CYWG;2011-08-25 03:00;CYWG 250300Z 30006KT 15SM SKC 15/12 A2990 RMK SLP125

CYWG;2011-08-25 04:00;CYWG 250400Z 30008KT 15SM SKC 15/12 A2990 RMK SLP128

CYWG;2011-08-25 05:00;CYWG 250500Z 05003KT 15SM SKC 13/11 A2990 RMK SLP128

CYWG;2011-08-25 06:00;CYWG 250600Z 26007KT 15SM SKC 13/11 A2991 RMK SLP131

CYWG;2011-08-25 07:00;CYWG 250700Z 26005KT 15SM SKC 14/12 A2993 RMK SLP135

CYWG;2011-08-25 08:00;CYWG 250800Z 00000KT 15SM SKC 13/11 A2993 RMK SLP137

CYWG;2011-08-25 09:00;CYWG 250900Z 26005KT 15SM SKC 12/11 A2994 RMK SLP139

CYWG;2011-08-25 10:00;CYWG 251000Z 23003KT 15SM SKC 14/12 A2993 RMK SLP137

CYWG;2011-08-25 11:00;CYWG 251100Z 17003KT 15SM FEW110 12/11 A2993 RMK AC1 SLP138

CYWG;2011-08-25 12:00;CYWG 251200Z 17005KT 15SM FEW110 12/11 A2993 RMK AC1 SLP137

CYWG;2011-08-25 13:00;CYWG 251300Z 19006KT 15SM FEW110 15/12 A2993 RMK AC1 SLP137

CYWG;2011-08-25 14:00;CYWG 251400Z 20006KT 15SM SKC 18/12 A2993 RMK SLP137

CYWG;2011-08-25 15:00;CYWG 251500Z 20007KT 15SM SKC 21/12 A2993 RMK SLP136

CYWG;2011-08-25 16:00;CYWG 251600Z 18007KT 15SM SKC 24/11 A2991 RMK SLP132

CYWG;2011-08-25 17:00;CYWG 251700Z 20012KT 15SM SKC 27/10 A2989 RMK SLP125

CYWG;2011-08-25 18:00;CYWG 251800Z 22010G16KT 15SM SKC 28/10 A2988 RMK SLP118

CYWG;2011-08-25 19:00;CYWG 251900Z 18014KT 15SM SKC 29/10 A2985 RMK SLP109

CYWG;2011-08-25 20:00;CYWG 252000Z 19013KT 15SM FEW280 31/10 A2982 RMK CI1 CI TR SLP098

CYWG;2011-08-25 21:00;CYWG 252100Z 17015G20KT 15SM FEW280 31/11 A2979 RMK CI1 CI TR SLP087

CYWG;2011-08-25 22:00;CYWG 252200Z 19017G24KT 15SM FEW280 31/10 A2976 RMK CI1 SLP078

CYWG;2011-08-25 23:00;CYWG 252300Z 18013G20KT 15SM FEW140 FEW280 30/12 A2974 RMK AC1CI1 SLP073

CYWG;2011-08-26 00:00;CYWG 260000Z 18016G21KT 15SM FEW140 SCT280 28/12 A2973 RMK AC2CI0 SLP068

CYWG;2011-08-26 01:00;CYWG 260100Z 19015G21KT 15SM FEW140 SCT280 27/12 A2973 RMK AC2CI0 SLP069

CYWG;2011-08-26 02:00;CYWG 260200Z 19012G17KT 15SM SCT140 BKN280 26/13 A2973 RMK AC3CI0 SLP068

CYWG;2011-08-26 03:00;CYWG 260300Z 18012KT 15SM SCT140 BKN280 25/14 A2972 RMK AC3CI0 SLP062

CYWG;2011-08-26 04:00;CYWG 260400Z 19016KT 15SM BKN088 OVC140 24/15 A2969 RMK AC5AC3 SLP054

CYWG;2011-08-26 05:00;CYWG 260500Z 21012G18KT 15SM FEW088 SCT140 24/15 A2970 RMK AC2AC2 SLP055

CYWG;2011-08-26 06:00;CYWG 260600Z 23011KT 15SM FEW088 SCT140 24/16 A2971 RMK AC1AC3 SLP058

CYWG;2011-08-26 07:00;CYWG 260700Z 29010KT 15SM FEW140 22/16 A2974 RMK AC1 SLP068

CYWG;2011-08-26 08:00;CYWG 260800Z 32010G15KT 15SM SKC 21/14 A2977 RMK SLP080

CYWG;2011-08-26 09:00;CYWG 260900Z 32007KT 15SM FEW120 19/14 A2980 RMK AC2 SLP091

CYWG;2011-08-26 10:00;CYWG 261000Z 30007KT 15SM SKC 16/13 A2983 RMK SLP099

CYWG;2011-08-26 11:00;CYWG 261100Z 30008KT 15SM FEW150 16/14 A2985 RMK AC1 SLP106

CYWG;2011-08-26 12:00;CYWG 261200Z 29008KT 15SM FEW150 16/13 A2987 RMK AC1 SLP116

CYWG;2011-08-26 13:00;CYWG 261300Z 32011KT 15SM FEW150 17/12 A2990 RMK AC1 SLP125

CYWG;2011-08-26 14:00;CYWG 261400Z 32014KT 15SM SKC 21/11 A2992 RMK SLP132

CYWG;2011-08-26 15:00;CYWG 261500Z 34015KT 15SM SKC 22/09 A2995 RMK OBS TAKEN +02 SLP140

CYWG;2011-08-26 16:00;CYWG 261600Z 33013KT 15SM SKC 23/09 A2996 RMK SLP146

CYWG;2011-08-26 17:00;CYWG 261700Z 32019KT 15SM FEW060 23/09 A2998 RMK CF1 SLP151

CYWG;2011-08-26 18:00;CYWG 261800Z 32018G25KT 15SM FEW061 24/08 A2999 RMK CF1 SLP155

CYWG;2011-08-26 19:00;CYWG 261900Z 31016G29KT 15SM FEW055 23/08 A3000 RMK CU1 SLP160

CYWG;2011-08-26 20:00;CYWG 262000Z 32017G24KT 15SM FEW055 23/09 A3001 RMK CU1 SLP163

CYWG;2011-08-26 21:00;CYWG 262100Z 31014G22KT 15SM FEW060 FEW250 24/08 A3002 RMK CU1CI0 CU TR SLP165

CYWG;2011-08-26 22:00;CYWG 262200Z 32017G22KT 15SM FEW060 FEW250 23/08 A3003 RMK CU1CI0 CU TR SLP169

CYWG;2011-08-26 23:00;CYWG 262300Z 32017G24KT 15SM FEW060 FEW250 23/07 A3003 RMK CU1CI0 SLP169

CYWG;2011-08-27 00:00;CYWG 270000Z 34010G19KT 15SM FEW050 FEW250 22/09 A3003 RMK SC1CI0 SC TR SLP170

CYWG;2011-08-27 01:00;CYWG 270100Z 34008KT 15SM FEW045 FEW250 20/09 A3003 RMK SC1CI0 SC TR SLP171

CYWG;2011-08-27 02:00;CYWG 270200Z CCA 34006KT 15SM FEW040 FEW250 17/10 A3004 RMK SC1CI0 SC TR SLP175

CYWG;2011-08-27 03:00;CYWG 270300Z 35008KT 15SM SKC 14/09 A3006 RMK SLP182

CYWG;2011-08-27 04:00;CYWG 270400Z 01006KT 15SM SKC 15/10 A3006 RMK SLP183

CYWG;2011-08-27 05:00;CYWG 270500Z 03008KT 15SM SKC 15/10 A3007 RMK SLP184

CYWG;2011-08-27 06:00;CYWG 270600Z 27005KT 15SM SKC 12/09 A3009 RMK SLP190

CYWG;2011-08-27 07:00;CYWG 270700Z 27004KT 15SM SKC 11/08 A3009 RMK SLP193

CYWG;2011-08-27 08:00;CYWG 270800Z 30003KT 15SM SKC 09/08 A3009 RMK SLP193

CYWG;2011-08-27 09:00;CYWG 270900Z 28003KT 15SM SKC 09/07 A3009 RMK SLP194

CYWG;2011-08-27 10:00;CYWG 271000Z 00000KT 15SM SKC 09/08 A3010 RMK SLP196

CYWG;2011-08-27 11:00;CYWG 271100Z 26003KT 15SM FEW080 08/07 A3010 RMK AC1 SLP195

CYWG;2011-08-27 12:00;CYWG 271200Z 26003KT 15SM FEW080 SCT250 08/07 A3012 RMK AC1CI2 SLP202

CYWG;2011-08-27 13:00;CYWG 271300Z 27002KT 15SM FEW080 BKN250 14/11 A3012 RMK AC2CI2 SLP204

CYWG;2011-08-27 14:00;CYWG 271400Z 25003KT 15SM FEW080 SCT250 BKN280 16/12 A3012 RMK AC1CI2CI1 SLP205

CYWG;2011-08-27 15:00;CYWG 271500Z 21007KT 15SM FEW100 SCT250 BKN300 20/11 A3011 RMK AC2CI2CI1 SLP200

CYWG;2011-08-27 16:00;CYWG 271600Z 22005KT 15SM FEW120 SCT250 22/11 A3011 RMK AC2CI1 SLP198

CYWG;2011-08-27 17:00;CYWG 271700Z 23007KT 15SM FEW120 FEW250 23/10 A3010 RMK AC2CI1 SLP196

CYWG;2011-08-27 18:00;CYWG 271800Z 20007KT 15SM FEW120 FEW250 23/09 A3008 RMK AC1CI1 SLP188

CYWG;2011-08-27 19:00;CYWG 271900Z 22009KT 15SM FEW055 FEW120 FEW250 24/10 A3007 RMK CU1AC1CI0 SLP185

CYWG;2011-08-27 20:00;CYWG 272000Z 21006KT 15SM FEW060 FEW140 FEW250 25/09 A3005 RMK CU1AC1CI0 SLP178

CYWG;2011-08-27 21:00;CYWG 272100Z 30002KT 15SM FEW065 FEW140 SCT250 25/09 A3004 RMK CU1AC1CI1 CU TR SLP174

CYWG;2011-08-27 22:00;CYWG 272200Z 17006KT 15SM FEW060 FEW100 SCT250 24/09 A3002 RMK CU1AC2CI1 CU TR SLP168

CYWG;2011-08-27 23:00;CYWG 272300Z 22005KT 15SM FEW080 BKN250 24/09 A3002 RMK AC2CI1 SLP167

CYWG;2011-08-28 00:00;CYWG 280000Z 20006KT 15SM FEW100 SCT250 24/09 A3001 RMK AC2CI0 SLP165

CYWG;2011-08-28 01:00;CYWG 280100Z 16003KT 15SM FEW100 SCT250 21/10 A3000 RMK AC2CI0 SLP162

CYWG;2011-08-28 02:00;CYWG 280200Z 18002KT 15SM FEW100 BKN250 19/10 A3000 RMK AC2CI1 SLP164

CYWG;2011-08-28 03:00;CYWG 280300Z 20007KT 15SM FEW100 FEW250 19/11 A3001 RMK AC2CI1 SLP164

CYWG;2011-08-28 04:00;CYWG 280400Z 19008KT 15SM SCT100 18/12 A3001 RMK AC4 SLP163

CYWG;2011-08-28 05:00;CYWG 280500Z 21006KT 15SM OVC094 19/12 A3001 RMK AC8 SLP164

CYWG;2011-08-28 06:00;CYWG 280600Z 19006KT 15SM OVC082 18/12 A3001 RMK AC8 SLP163

CYWG;2011-08-28 06:11;CYWG 280611Z 22007KT 15SM -SHRA FEW044 BKN067 OVC098 18/ RMK SC2AC4ACC2 ACC NW

CYWG;2011-08-28 07:00;CYWG 280700Z 21008KT 15SM -SHRA OVC041 18/12 A3000 RMK SC8 ACC EMBD SLP159

CYWG;2011-08-28 07:55;CYWG 280755Z 17004KT 15SM BKN035 BKN079 17/ RMK SC5AC1

CYWG;2011-08-28 08:00;CYWG 280800Z 17004KT 15SM SCT035 BKN079 16/12 A2998 RMK SC3AC2 SLP154

CYWG;2011-08-28 09:00;CYWG 280900Z 19002KT 15SM BKN095 14/12 A2998 RMK AC5 SLP154

CYWG;2011-08-28 10:00;CYWG 281000Z 00000KT 15SM FEW095 13/11 A2999 RMK AC2 SLP155

CYWG;2011-08-28 11:00;CYWG 281100Z 18003KT 15SM FEW080 SCT120 14/12 A2998 RMK AC2AC2 SLP154

CYWG;2011-08-28 12:00;CYWG 281200Z 16007KT 15SM FEW120 14/12 A2998 RMK AC2 SLP155

CYWG;2011-08-28 13:00;CYWG 281300Z 18008KT 15SM FEW120 SCT270 17/13 A2998 RMK AC1CI0 SLP154

CYWG;2011-08-28 14:00;CYWG 281400Z 20009KT 15SM FEW098 FEW270 18/13 A2998 RMK AC1CI1 SLP155

CYWG;2011-08-28 15:00;CYWG 281500Z 18006KT 15SM SCT120 BKN270 21/13 A2998 RMK AC3CI1 SLP154

CYWG;2011-08-28 16:00;CYWG 281600Z 23006KT 15SM FEW080 BKN120 BKN270 22/13 A2998 RMK AC2AC4CI1 SH DIST NW SLP154

CYWG;2011-08-28 17:00;CYWG 281700Z 20005KT 15SM -SHRA FEW080 BKN120 BKN270 23/13 A2998 RMK AC2AC5CI1 SLP154

CYWG;2011-08-28 17:54;CYWG 281754Z 19007KT 15SM FEW080 BKN120 BKN270 24/ RMK AC1AC4CI2

CYWG;2011-08-28 18:00;CYWG 281800Z 17008KT 15SM FEW080 BKN120 BKN270 24/13 A2995 RMK AC1AC4CI2 SLP142

CYWG;2011-08-28 19:00;CYWG 281900Z 19006KT 15SM FEW058 BKN120 BKN270 25/12 A2996 RMK CU2AC3CI2 SLP147

CYWG;2011-08-28 19:34;CYWG 281934Z 21008KT 15SM -SHRA FEW058 BKN120 BKN270 25/ RMK CU2AC2CI2 ACC EMBD

CYWG;2011-08-28 20:00;CYWG 282000Z 21005KT 15SM FEW058 BKN100 BKN270 25/12 A2993 RMK CU1AC5CI1 ACC EMBD SLP138

CYWG;2011-08-28 21:00;CYWG 282100Z 24005KT 15SM FEW065 SCT100 SCT270 28/11 A2991 RMK CU1AC2CI1 SLP130

CYWG;2011-08-28 22:00;CYWG 282200Z 23010KT 15SM FEW065 SCT100 28/11 A2990 RMK CU1AC2 ACC EMBD SLP125

CYWG;2011-08-28 23:00;CYWG 282300Z 23007KT 15SM BKN081 BKN280 28/12 A2989 RMK AC6CI1 ACC EMBD SLP122

CYWG;2011-08-29 00:00;CYWG 290000Z 21007KT 15SM BKN073 BKN280 27/12 A2987 RMK AC6CI1 ACC EMBD SLP117

CYWG;2011-08-29 01:00;CYWG 290100Z 20010KT 15SM FEW073 BKN110 BKN280 26/12 A2986 RMK AC2AC2CI1 ACC EMBD SLP112

CYWG;2011-08-29 02:00;CYWG 290200Z 22008KT 15SM FEW069 SCT280 22/14 A2987 RMK AC2CI1 ACC EMBD SLP114

CYWG;2011-08-29 03:00;CYWG 290300Z 21010KT 15SM SKC 22/15 A2987 RMK SLP115

CYWG;2011-08-29 04:00;CYWG 290400Z 23004KT 15SM SKC 19/14 A2987 RMK SLP117

CYWG;2011-08-29 05:00;CYWG 290500Z 00000KT 15SM SKC 15/13 A2987 RMK SLP116

CYWG;2011-08-29 06:00;CYWG 290600Z 23003KT 15SM SKC 14/13 A2987 RMK SLP118

CYWG;2011-08-29 07:00;CYWG 290700Z 26007KT 15SM SKC 17/16 A2987 RMK SLP117

CYWG;2011-08-29 08:00;CYWG 290800Z 26007KT 15SM SKC 17/15 A2987 RMK SLP115

CYWG;2011-08-29 09:00;CYWG 290900Z 27008KT 15SM SKC 16/14 A2987 RMK SLP116

CYWG;2011-08-29 10:00;CYWG 291000Z 29007KT 15SM SKC 15/13 A2988 RMK SLP119

CYWG;2011-08-29 11:00;CYWG 291100Z 28005KT 15SM FEW080 14/13 A2990 RMK AC1 TR AC SLP123

CYWG;2011-08-29 12:00;CYWG 291200Z 28007KT 15SM FEW080 13/13 A2991 RMK AC1 SLP130

CYWG;2011-08-29 13:00;CYWG 291300Z 32003KT 15SM SKC 16/14 A2993 RMK SLP135

CYWG;2011-08-29 14:00;CYWG 291400Z 30003KT 15SM SCT095 19/14 A2993 RMK AC2 SLP138

CYWG;2011-08-29 15:00;CYWG 291500Z 33005KT 15SM FEW120 22/14 A2994 RMK AC2 SLP138

CYWG;2011-08-29 16:00;CYWG 291600Z 32007KT 15SM FEW120 24/11 A2994 RMK AC1 SLP139

CYWG;2011-08-29 17:00;CYWG 291700Z 01007KT 15SM FEW096 26/11 A2993 RMK AC1 SLP136

CYWG;2011-08-29 18:00;CYWG 291800Z 01009KT 15SM FEW076 FEW096 26/09 A2992 RMK AC1AC1 TR AC LWR LYR SLP134

CYWG;2011-08-29 19:00;CYWG 291900Z 29006KT 15SM FEW099 27/09 A2991 RMK AC1 SLP130

CYWG;2011-08-29 20:00;CYWG 292000Z 35004KT 15SM FEW100 27/09 A2990 RMK AC1 SLP127

CYWG;2011-08-29 21:00;CYWG 292100Z 32002KT 15SM FEW090 27/09 A2988 RMK AC2 SLP120

CYWG;2011-08-29 22:00;CYWG 292200Z 09007KT 15SM FEW100 27/10 A2987 RMK AC1 SLP117

CYWG;2011-08-29 23:00;CYWG 292300Z 07006KT 15SM FEW100 27/10 A2987 RMK AC1 SLP115

CYWG;2011-08-30 00:00;CYWG 300000Z 04010KT 15SM SCT094 25/09 A2987 RMK AC3 SLP116

CYWG;2011-08-30 01:00;CYWG 300100Z 06009KT 15SM FEW100 BKN250 22/08 A2986 RMK AC2CI2 SLP114

CYWG;2011-08-30 02:00;CYWG 300200Z 06007KT 15SM FEW088 BKN250 19/08 A2987 RMK AC2CI2 SLP116

CYWG;2011-08-30 03:00;CYWG 300300Z 08006KT 15SM SCT088 19/09 A2987 RMK AC2 SLP116

CYWG;2011-08-30 04:00;CYWG 300400Z 08005KT 15SM BKN100 19/09 A2987 RMK AC3 SLP116

CYWG;2011-08-30 05:00;CYWG 300500Z 10007KT 15SM BKN100 20/08 A2986 RMK AC4 SLP113

CYWG;2011-08-30 06:00;CYWG 300600Z 11006KT 15SM SCT030 BKN066 BKN092 20/08 A2987 RMK SC2AC2AC2 CVCTV CLD ASOCTD SLP115

CYWG;2011-08-30 07:00;CYWG 300700Z 12008KT 15SM BKN074 19/08 A2985 RMK AC3 SLP109

CYWG;2011-08-30 08:00;CYWG 300800Z 11007KT 15SM BKN100 19/09 A2984 RMK AC3 SLP106

CYWG;2011-08-30 09:00;CYWG 300900Z 14009KT 15SM SCT100 BKN200 19/09 A2983 RMK AC2CI5 SLP102

CYWG;2011-08-30 10:00;CYWG 301000Z 15008KT 15SM SCT110 BKN200 17/10 A2983 RMK AC2CI2 SLP100

CYWG;2011-08-30 11:00;CYWG 301100Z 18007KT 15SM BKN110 18/12 A2983 RMK AC7 SLP100

CYWG;2011-08-30 12:00;CYWG 301200Z 18006KT 15SM FEW110 OVC270 18/14 A2983 RMK AC2CI3 SLP100

CYWG;2011-08-30 13:00;CYWG 301300Z 18004KT 15SM FEW099 BKN270 19/15 A2983 RMK AC2CI2 SLP100

CYWG;2011-08-30 14:00;CYWG 301400Z 19006KT 15SM FEW090 OVC270 21/17 A2983 RMK AC2CI2 SLP103

CYWG;2011-08-30 15:00;CYWG 301500Z 18008KT 15SM FEW076 BKN090 OVC270 22/17 A2984 RMK AC2AC3CI2 SLP105

CYWG;2011-08-30 16:00;CYWG 301600Z 18008KT 15SM FEW090 SCT120 OVC270 24/17 A2984 RMK AC2AC2CI3 SLP105

CYWG;2011-08-30 17:00;CYWG 301700Z 17011G17KT 15SM BKN120 OVC270 25/17 A2983 RMK AC5CI2 OBS TAKEN +03 SLP104

CYWG;2011-08-30 18:00;CYWG 301800Z 19013KT 15SM SCT120 BKN270 27/17 A2982 RMK AC3CI1 SLP096

CYWG;2011-08-30 19:00;CYWG 301900Z 20010G19KT 15SM FEW043 SCT120 BKN270 27/17 A2982 RMK CU1AC2CS2 SLP097

CYWG;2011-08-30 20:00;CYWG 302000Z 20015KT 15SM FEW048 BKN120 BKN270 27/14 A2981 RMK CU1AC4CS2 SLP093

CYWG;2011-08-30 21:00;CYWG 302100Z 18009G16KT 15SM FEW048 BKN120 BKN270 27/16 A2980 RMK CU2AC5CS1 SLP089

CYWG;2011-08-30 22:00;CYWG 302200Z 18014KT 15SM FEW046 BKN086 OVC270 26/16 A2979 RMK CU1AC5CS2 SLP086

CYWG;2011-08-30 22:41;CYWG 302241Z 18012KT 8SM -SHRA BKN037 BKN085 OVC270 26/ RMK CU5AC2CS1

CYWG;2011-08-30 22:47;CYWG 302247Z CCA 18012KT 8SM -SHRA BKN037 BKN085 OVC270 26/ RMK CU5AC2CS1 TCU EMBD

CYWG;2011-08-30 22:48;CYWG 302248Z 15012G29KT 8SM -TSRA FEW037 BKN058TCU OVC270 21/ RMK CU2TCU6CI1 CB EMBD N

CYWG;2011-08-30 23:00;CYWG 302300Z 20009G19KT 15SM TS BKN058TCU BKN120 BKN270 22/19 A2979 RMK TCU5AC2CI1 CB EMBD N SLP088

CYWG;2011-08-30 23:22;CYWG 302322Z 20011G16KT 15SM SCT058TCU BKN120 BKN270 23/ RETS RMK TCU3AC2CI1

CYWG;2011-08-31 00:00;CYWG 310000Z 19008KT 15SM FEW058TCU BKN120 BKN270 22/16 A2980 RETS RMK TCU2AC3CI2 SLP094

CYWG;2011-08-31 01:00;CYWG 310100Z 19009KT 15SM FEW050TCU BKN089 BKN270 22/15 A2981 RMK TCU1AC4CI1 SLP097

CYWG;2011-08-31 02:00;CYWG 310200Z 18011KT 15SM BKN090 BKN270 20/16 A2984 RMK AC5CI2 SLP105

CYWG;2011-08-31 03:00;CYWG 310300Z 17012KT 15SM FEW020 BKN100 20/16 A2984 RMK CU2AC5 SLP106

CYWG;2011-08-31 03:38;CYWG 310338Z 16011G16KT 15SM -SHRA SCT020 OVC100 19/ RMK CF3AC5 CVCTV CLD EMBD

CYWG;2011-08-31 04:00;CYWG 310400Z 16013KT 15SM -SHRA SCT018 OVC100 19/16 A2985 RMK CF4AC4 CVCTV CLD EMBD SLP107

CYWG;2011-08-31 04:25;CYWG 310425Z 17012G17KT 15SM BKN016 OVC089 19/ RMK CF6AC2

CYWG;2011-08-31 05:00;CYWG 310500Z 17012KT 15SM SCT016 BKN089 18/15 A2984 RMK CF3AC2 SLP106

CYWG;2011-08-31 05:28;CYWG 310528Z 16009G16KT 15SM BKN014 BKN083 18/ RMK CF5AC2

CYWG;2011-08-31 06:00;CYWG 310600Z 15012KT 15SM SCT014 OVC024 18/15 A2984 RMK CF4SC4 SLP106

CYWG;2011-08-31 06:47;CYWG 310647Z 15012KT 10SM -RA OVC014 18/ RMK ST8

CYWG;2011-08-31 07:00;CYWG 310700Z 15013KT 10SM -RA OVC012 17/16 A2983 RMK ST8 SLP101

CYWG;2011-08-31 07:33;CYWG 310733Z 14013KT 4SM -DZ BR OVC007 17/ RMK ST8

CYWG;2011-08-31 08:00;CYWG 310800Z 14013KT 4SM -DZ BR OVC006 17/16 A2981 RMK ST8 SLP096

CYWG;2011-08-31 09:00;CYWG 310900Z 15012KT 3SM -DZ BR OVC006 17/16 A2982 RMK ST8 SLP098

CYWG;2011-08-31 10:00;CYWG 311000Z 15008KT 6SM BR OVC006 17/17 A2982 RMK ST8 SLP097

CYWG;2011-08-31 11:00;CYWG 311100Z 17009KT 6SM BR OVC005 17/17 A2982 RMK ST8 SLP098

CYWG;2011-08-31 11:29;CYWG 311129Z 16008KT 3SM -DZ BR OVC005 17/ RMK ST8

CYWG;2011-08-31 11:42;CYWG 311142Z 17009KT 1 1/2SM -DZ BR OVC004 17/ RMK ST8

CYWG;2011-08-31 12:00;CYWG 311200Z 17009KT 1 1/2SM -DZ BR OVC004 17/17 A2982 RMK ST8 SLP100

CYWG;2011-08-31 12:26;CYWG 311226Z 17008KT 1 1/2SM BR OVC003 17/ RMK ST8

CYWG;2011-08-31 13:00;CYWG 311300Z 18008KT 2SM BR OVC003 17/17 A2982 RMK ST8 SLP100

CYWG;2011-08-31 13:16;CYWG 311316Z 17009KT 4SM BR OVC003 17/ RMK ST8

CYWG;2011-08-31 14:00;CYWG 311400Z 19006KT 4SM BR OVC005 18/17 A2983 RMK ST8 SLP101

CYWG;2011-08-31 15:00;CYWG 311500Z 17007KT 6SM BR BKN006 OVC015 18/17 A2983 RMK ST7ST1 SLP102

CYWG;2011-08-31 16:00;CYWG 311600Z 18006KT 12SM BKN011 BKN039 20/18 A2982 RMK ST6SC2 SLP100

CYWG;2011-08-31 17:00;CYWG 311700Z 18003KT 15SM BKN016 BKN037 21/17 A2981 RMK SC5SC2 SLP097

CYWG;2011-08-31 18:00;CYWG 311800Z 18004KT 15SM BKN018 OVC025 21/17 A2983 RMK SC6SC2 SLP101

CYWG;2011-08-31 19:00;CYWG 311900Z 17006KT 15SM FEW025 OVC033 22/16 A2982 RMK CU2SC6 SLP098

CYWG;2011-08-31 20:00;CYWG 312000Z 16008KT 15SM SCT027 BKN068 23/16 A2981 RMK SC3AC4 SLP096

CYWG;2011-08-31 21:00;CYWG 312100Z 17008KT 15SM BKN030 BKN068 23/16 A2980 RMK SC6AC1 SLP091

CYWG;2011-08-31 22:00;CYWG 312200Z 15008KT 15SM BKN028 23/16 A2979 RMK SC6 SLP088

CYWG;2011-08-31 23:00;CYWG 312300Z 16009KT 15SM BKN028 23/17 A2979 RMK SC6 SLP089

CYWG;2011-09-01 01:00;CYWG 010100Z 14007KT 15SM BKN031 BKN073 22/16 A2980 RMK SC6AC1 SLP092

CYWG;2011-09-01 02:00;CYWG 010200Z 14010KT 15SM BKN031 BKN073 21/17 A2980 RMK SC5AC1 SLP093

CYWG;2011-09-01 03:00;CYWG 010300Z 14012KT 15SM BKN033 21/18 A2980 RMK SC7 SLP092

CYWG;2011-09-01 04:00;CYWG 010400Z 14011KT 15SM BKN031 20/18 A2976 RMK SC6 SLP079

CYWG;2011-09-01 05:00;CYWG 010500Z 14012KT 15SM FEW012 FEW029 SCT210 20/18 A2972 RMK SF1SC1CI0 SLP067

CYWG;2011-09-01 06:00;CYWG 010600Z 14010KT 15SM SCT012 BKN076 20/18 A2973 RMK SF1AC4 SLP067

CYWG;2011-09-01 07:00;CYWG 010700Z 13013KT 15SM FEW012 BKN025 19/18 A2967 RMK SF1SC7 LTNG DIST SW-W PRESFR SLP047

CYWG;2011-09-01 07:40;CYWG 010740Z CCA 12013G18KT 15SM TS SCT011 OVC025CB 19/ RMK SF2CB6 LTGCCCG S-N

CYWG;2011-09-01 08:00;CYWG 010800Z 13007KT 15SM TS SCT010 BKN033CB OVC070 19/18 A2965 RMK SF2CB4AC2 LTGICCCCG FREQ LTNG S SLP043

CYWG;2011-09-01 08:02;CYWG 010802Z 13008KT 15SM -TSRA SCT010 BKN033CB OVC070 19/ RMK SF2CB4AC2 LTGICCCCG FREQ LTNG S

CYWG;2011-09-01 08:42;CYWG 010842Z 19006KT 3/4SM R13/2200VP6000FT/D R36/3000FT/N +TSRA BR OVC009 19/ RMK SF8 CB EMBD LTGICCG

CYWG;2011-09-01 08:47;CYWG 010847Z 28003KT 4SM R13/2600VP6000FT/N R36/2800VP6000FT/N TSRA BR OVC005 18/ RERA RMK SF8 CB EMBD LTGICCG

CYWG;2011-09-01 09:00;CYWG 010900Z 02009KT 4SM TSRA BR BKN003 OVC033CB 18/18 A2964 RERA RMK SF6CB2 LTGICCG PRES UNSTDY SLP039

CYWG;2011-09-01 09:19;CYWG 010919Z 03008KT 4SM TSRA BR BKN004 OVC039CB 18/ RMK SF6CB2 LTGICCG PRESFR

CYWG;2011-09-01 09:37;CYWG 010937Z 05012G17KT 6SM -TSRA BR SCT003 OVC013 18/ RERA RMK SF2SC6 LTGICCG N-SE CB ASOCTD PRESFR

CYWG;2011-09-01 10:00;CYWG 011000Z 05010KT 6SM -SHRA BR FEW003 BKN013 OVC061 19/18 A2960 RETSRA RMK SF1SC6SC2 SLP025

CYWG;2011-09-01 10:26;CYWG 011026Z 07013KT 9SM BKN010 OVC027 18/ RMK SF3SC5 BR

CYWG;2011-09-01 10:43;CYWG 011043Z 06012KT 10SM BKN004 BKN015 RMK SF5SC1 BR

CYWG;2011-09-01 11:00;CYWG 011100Z 07011G16KT 8SM BKN004 BKN022 18/18 A2952 RMK SF6SC1 BR PRESFR SLP999

CYWG;2011-09-01 11:26;CYWG 011126Z 08005KT 12SM BKN006 OVC028 18/ RMK ST6SC0 BR

CYWG;2011-09-01 11:51;CYWG 011151Z 12004KT 12SM FEW006 BKN023 BKN120 BKN280 18/ RMK SF2SC2AC2CI0 BR

CYWG;2011-09-01 12:00;CYWG 011200Z 12004KT 12SM SCT006 BKN021 BKN120 BKN280 18/18 A2958 RMK SF2SC3AC1CI0 BR SLP016

CYWG;2011-09-01 12:21;CYWG 011221Z 21005KT 12SM BKN005 BKN013 BKN280 19/ RMK ST5SC2CI0 BR

CYWG;2011-09-01 13:00;CYWG 011300Z 20007KT 13SM BKN006 BKN013 19/18 A2961 RMK ST5SC2 BR SLP025

CYWG;2011-09-01 13:44;CYWG 011344Z 21011KT 7SM SCT003 SCT011 BKN120 19/ RMK SF2SC2AC1 BR

CYWG;2011-09-01 14:00;CYWG 011400Z 23007KT 12SM SCT004 SCT016 SCT120 20/19 A2961 RMK SF2SC2AC1 BR SLP028

CYWG;2011-09-01 14:11;CYWG 011411Z 23007KT 13SM BKN005 20/ RMK SF5 BR

CYWG;2011-09-01 15:00;CYWG 011500Z 21010KT 15SM OVC009 21/19 A2963 RMK SC8 SLP033

CYWG;2011-09-01 16:00;CYWG 011600Z 26009KT 15SM OVC007 20/19 A2966 RMK ST8 SLP044

CYWG;2011-09-01 17:00;CYWG 011700Z 27010KT 15SM OVC009 21/19 A2968 RMK SC7 SLP052

CYWG;2011-09-01 17:13;CYWG 011713Z 27012KT 15SM BKN010 BKN120 22/ RMK SC7AC1

CYWG;2011-09-01 18:00;CYWG 011800Z 30011KT 15SM OVC012 21/18 A2970 RMK SC8 SLP057

CYWG;2011-09-01 18:39;CYWG 011839Z 32016KT 15SM BKN016 22/ RMK SC7

CYWG;2011-09-01 19:00;CYWG 011900Z 32017KT 15SM BKN017 21/17 A2971 RMK SC7 SLP061

CYWG;2011-09-01 20:00;CYWG 012000Z 32016KT 15SM BKN020 22/16 A2973 RMK SC7 SLP067

CYWG;2011-09-01 21:00;CYWG 012100Z 32015G20KT 15SM BKN025 BKN063 23/16 A2974 RMK SC6SC1 SLP071

CYWG;2011-09-01 22:00;CYWG 012200Z 31018KT 15SM BKN024 BKN063 22/16 A2976 RMK SC6SC1 SLP077

CYWG;2011-09-01 23:00;CYWG 012300Z 32017KT 15SM SCT043 BKN063 BKN270 20/16 A2978 RMK SC3SC3CI1 SLP084

CYWG;2011-09-02 00:00;CYWG 020000Z 32014KT 15SM FEW040 BKN091 BKN270 19/15 A2979 RMK SC1AC4CI1 SLP088

CYWG;2011-09-02 01:00;CYWG 020100Z 31010KT 15SM FEW030 SCT063 BKN090 18/15 A2981 RMK SC1SC2AC2 SLP097

CYWG;2011-09-02 02:00;CYWG 020200Z 34008KT 15SM FEW061 BKN090 17/14 A2981 RMK SC2AC4 SLP095

CYWG;2011-09-02 03:00;CYWG 020300Z 33005KT 15SM FEW061 16/14 A2982 RMK SC2 SLP101

CYWG;2011-09-02 04:00;CYWG 020400Z 34007KT 15SM OVC039 16/14 A2984 RMK SC6 SLP108

CYWG;2011-09-02 05:00;CYWG 020500Z 33005KT 15SM BKN041 15/13 A2984 RMK SC5 SLP108

CYWG;2011-09-02 06:00;CYWG 020600Z 29005KT 15SM SCT057 BKN087 15/13 A2987 RMK SC4AC2 SLP117

CYWG;2011-09-02 07:00;CYWG 020700Z 28004KT 15SM OVC045 14/13 A2987 RMK SC8 SLP116

CYWG;2011-09-02 07:05;CYWG 020705Z 30004KT 15SM -RA OVC045 14/ RMK SC8

CYWG;2011-09-02 07:25;CYWG 020725Z 30005KT 15SM OVC045 14/ RMK SC8

CYWG;2011-09-02 08:00;CYWG 020800Z 30004KT 15SM SCT059 BKN098 14/12 A2987 RMK SC4AC2 SLP115

CYWG;2011-09-02 09:00;CYWG 020900Z 29004KT 15SM SCT061 BKN080 14/12 A2987 RMK SC3AC3 SLP118

CYWG;2011-09-02 10:00;CYWG 021000Z 28003KT 15SM FEW089 12/11 A2987 RMK AC1 SLP117

CYWG;2011-09-02 11:00;CYWG 021100Z 27006KT 15SM FEW090 11/11 A2988 RMK AC1 SLP119

CYWG;2011-09-02 12:00;CYWG 021200Z 27006KT 15SM SKC 11/10 A2989 RMK SLP124

CYWG;2011-09-02 13:00;CYWG 021300Z 27008KT 15SM SKC 13/12 A2990 RMK SLP129

CYWG;2011-09-02 14:00;CYWG 021400Z 28008KT 15SM SKC 15/12 A2991 RMK SLP131

CYWG;2011-09-02 15:00;CYWG 021500Z 29005KT 15SM FEW250 17/12 A2991 RMK CI1 SLP130

CYWG;2011-09-02 16:00;CYWG 021600Z 28006KT 15SM FEW035 SCT250 19/11 A2992 RMK CF1CI2 SLP135

CYWG;2011-09-02 17:00;CYWG 021700Z 25006KT 15SM FEW040 SCT250 20/08 A2993 RMK CU1CI2 SLP137

CYWG;2011-09-02 18:00;CYWG 021800Z 26007KT 15SM FEW040 BKN250 21/06 A2991 RMK CU2CI2 SLP132

CYWG;2011-09-02 19:00;CYWG 021900Z 24006KT 15SM FEW040 SCT090 BKN250 21/06 A2990 RMK CU2AC2CI2 SLP127

CYWG;2011-09-02 20:00;CYWG 022000Z 26008KT 15SM BKN040 23/07 A2989 RMK CU5 SLP125

CYWG;2011-09-02 21:00;CYWG 022100Z 24005KT 15SM BKN045 23/07 A2987 RMK CU5 SLP118

CYWG;2011-09-02 22:00;CYWG 022200Z 20006KT 15SM SCT045 BKN067 22/08 A2986 RMK SC3AC2 SLP113

CYWG;2011-09-02 23:00;CYWG 022300Z 21006KT 15SM FEW040 BKN075 22/08 A2985 RMK CU2AC4 SLP110

CYWG;2011-09-03 00:00;CYWG 030000Z 18007KT 15SM BKN067 22/09 A2983 RMK AC6 SLP106

CYWG;2011-09-03 01:00;CYWG 030100Z 18008KT 15SM BKN065 20/10 A2983 RMK AC6 SHWRS N SLP103

CYWG;2011-09-03 02:00;CYWG 030200Z 17009KT 15SM BKN067 18/10 A2982 RMK AC7 SLP102

CYWG;2011-09-03 03:00;CYWG 030300Z 16010KT 15SM BKN078 18/10 A2983 RMK AC5 SLP102

CYWG;2011-09-03 04:00;CYWG 030400Z 17013KT 15SM BKN087 18/10 A2981 RMK AC6 SLP098

CYWG;2011-09-03 05:00;CYWG 030500Z 19011G16KT 15SM BKN056 18/11 A2981 RMK SC6 SLP096

CYWG;2011-09-03 05:25;CYWG 030525Z 23006KT 15SM -SHRA BKN048 18/ RMK SC7 CVCTV CLD ASOCTD

CYWG;2011-09-03 05:37;CYWG 030537Z 26007KT 15SM -TSRA BKN044CB OVC120 17/ RMK CB6AC2

CYWG;2011-09-03 05:45;CYWG 030545Z 29023G28KT 2SM R13/4500VP6000FT/D TSRA FEW004 OVC036CB 12/ RMK SF2CB6 LTNG OVRHD

CYWG;2011-09-03 06:00;CYWG 030600Z 26009G16KT 4SM -TSRA BR SCT004 BKN036CB OVC092 13/13 A2984 RMK SF3CB3AC2 LTNG OVRHD SLP107

CYWG;2011-09-03 06:25;CYWG 030625Z 00000KT 6SM -TSRA BR BKN011CB OVC092 13/ RMK CB6AC2 LTNG NE

CYWG;2011-09-03 06:43;CYWG 030643Z 15008KT 15SM -TSRA BKN021CB OVC089 14/ RMK CB6AC2 LTNG NE

CYWG;2011-09-03 07:00;CYWG 030700Z 16008KT 15SM TS BKN024CB OVC089 13/13 A2976 RMK CB5AC3 LTNG DIST NE SLP081

CYWG;2011-09-03 07:35;CYWG 030735Z 18009KT 15SM -TSRA SCT024CB OVC064 13/ RMK CB4SC4

CYWG;2011-09-03 08:00;CYWG 030800Z 17013KT 15SM -TSRA OVC016CB 13/13 A2975 RMK CB8 LTGCC OVRHD SLP077

CYWG;2011-09-03 08:45;CYWG 030845Z 16007KT 15SM TSRAGR OVC025CB 13/ RMK CB8 HAIL DIAM 10 MM LTGCC OVHD

CYWG;2011-09-03 09:00;CYWG 030900Z 16008KT 15SM -TSRA BKN028CB BKN090 13/12 A2974 RERA RMK CB6AC1 LTGCC NE SLP071

CYWG;2011-09-03 09:38;CYWG 030938Z 17003KT 15SM BKN032 BKN085 13/ RETSRA RMK SC5AC2

CYWG;2011-09-03 10:00;CYWG 031000Z 03003KT 15SM BKN032 BKN089 13/13 A2975 RETSRA RMK SC6AC2 SLP076

CYWG;2011-09-03 11:00;CYWG 031100Z 31003KT 15SM FEW020 BKN032 13/12 A2975 RMK SC1SC6 SLP076

CYWG;2011-09-03 12:00;CYWG 031200Z 28003KT 15SM MIFG FEW015 FEW030 SCT140 12/12 A2974 RMK SC1SC2AC0 TCU ASOCTD CB TOPS N SLP074

CYWG;2011-09-03 12:39;CYWG 031239Z 23004KT 15SM BKN013 BKN030 12/ RMK SC6SC2

CYWG;2011-09-03 13:00;CYWG 031300Z 26006KT 15SM BKN010 OVC030 13/12 A2975 RMK ST7SC1 SLP076

CYWG;2011-09-03 13:22;CYWG 031322Z 29010KT 15SM OVC009 13/ RMK SC8

CYWG;2011-09-03 14:00;CYWG 031400Z 27008KT 15SM BKN007 13/12 A2975 RMK SC7 SLP078

CYWG;2011-09-03 15:00;CYWG 031500Z 27011KT 15SM BKN008 15/13 A2976 RMK SC6 SLP081

CYWG;2011-09-03 15:20;CYWG 031520Z 27014KT 15SM BKN012 BKN061 16/ RMK SC5SC1

CYWG;2011-09-03 15:52;CYWG 031552Z 28017KT 15SM SCT015 BKN024 BKN061 BKN140 16/ RMK SC2SC3SC1AC1

CYWG;2011-09-03 16:00;CYWG 031600Z 29015KT 15SM FEW015 BKN030 BKN140 16/12 A2977 RMK SC2SC3AC2 SLP082

CYWG;2011-09-03 16:26;CYWG 031626Z 32009KT 15SM -SHRA SCT017 BKN041 BKN140 15/ RMK SC3SC2AC1

CYWG;2011-09-03 16:38;CYWG 031638Z 33007KT 15SM FEW017 BKN041 BKN140 BKN280 16/ RMK SC2SC4AC1CI1

CYWG;2011-09-03 16:52;CYWG 031652Z 31006KT 15SM -SHRA BKN022 BKN059 BKN140 15/ RMK SC5SC2AC1

CYWG;2011-09-03 17:00;CYWG 031700Z 30014KT 13SM -SHRA BKN017 BKN059 BKN140 14/12 A2977 RMK SC6SC1AC1 SLP085

CYWG;2011-09-03 17:22;CYWG 031722Z 29012KT 10SM FEW009 BKN017 BKN047 BKN140 15/ RMK SF2SC4SC1AC1

CYWG;2011-09-03 17:30;CYWG 031730Z 34012KT 10SM -SHRA BKN009 OVC033 14/ RMK SF5SC3

CYWG;2011-09-03 17:49;CYWG 031749Z 34011KT 15SM -SHRA SCT007 BKN037 BKN140 15/ RMK SF2SC3AC2

CYWG;2011-09-03 18:00;CYWG 031800Z 35012KT 15SM FEW007 SCT013 BKN037 BKN140 15/12 A2981 RMK SF1SC2SC4AC1 SLP098

CYWG;2011-09-03 18:20;CYWG 031820Z 34015G20KT 10SM -SHRA FEW007 BKN014 BKN032 BKN140 15/ RMK SF1SC5SC1AC1

CYWG;2011-09-03 18:54;CYWG 031854Z 35018G25KT 12SM FEW007 FEW014 BKN029 BKN073 15/ RMK SF1SC2SC3AC2

CYWG;2011-09-03 19:00;CYWG 031900Z 35017G24KT 12SM FEW007 SCT014 BKN029 BKN073 15/12 A2985 RMK SF1SC3SC2AC2 SLP113

CYWG;2011-09-03 20:00;CYWG 032000Z 33020G28KT 15SM SCT025 BKN038 BKN048 16/11 A2987 RMK SC3SC2SC2 SLP119

CYWG;2011-09-03 20:52;CYWG 032052Z 34017G25KT 15SM -SHRA SCT027 BKN058 17/ RMK SC4SC2

CYWG;2011-09-03 21:00;CYWG 032100Z 35017KT 15SM SCT027 BKN058 18/12 A2989 RMK SC3SC2 OCNL -SHRA SLP124

CYWG;2011-09-03 21:39;CYWG 032139Z 36016G21KT 10SM -SHRA BKN035 BKN061 16/ RMK SC5SC2

CYWG;2011-09-03 22:00;CYWG 032200Z 35012G17KT 10SM -SHRA FEW012 BKN035 BKN061 15/13 A2992 RMK SC2SC4SC1 SLP134

CYWG;2011-09-03 22:30;CYWG 032230Z 36016KT 15SM VCSH FEW016 SCT059 16/ RMK SC2SC2 SH N AND SE

CYWG;2011-09-03 23:00;CYWG 032300Z 35017KT 15SM VCSH SCT048 BKN065 16/11 A2996 RMK SC3SC2 SH NW SLP148

CYWG;2011-09-03 23:12;CYWG 032312Z 35013G18KT 15SM -SHRA SCT034 BKN065 15/ RMK SC3SC2 CVCTV CLD EMBD

CYWG;2011-09-04 00:00;CYWG 040000Z 33020G29KT 12SM -SHRA BKN039 14/12 A2998 RMK SC6 SLP158

CYWG;2011-09-04 00:46;CYWG 040046Z 32010KT 15SM SCT039 BKN065 13/ RMK SC3SC1

CYWG;2011-09-04 01:00;CYWG 040100Z 32012KT 15SM FEW039 SCT060 13/12 A3000 RMK SC2SC2 SLP163

CYWG;2011-09-04 02:00;CYWG 040200Z 35009KT 15SM FEW075 13/11 A3002 RMK AC2 SLP171

CYWG;2011-09-04 03:00;CYWG 040300Z 34007KT 15SM FEW100 12/11 A3005 RMK AC1 SLP180

CYWG;2011-09-04 04:00;CYWG 040400Z 35003KT 15SM FEW067 10/10 A3007 RMK AC2 SLP188

CYWG;2011-09-04 05:00;CYWG 040500Z 34005KT 15SM BKN032 11/11 A3009 RMK SC5 SLP193

CYWG;2011-09-04 06:00;CYWG 040600Z 32006KT 15SM BKN033 BKN075 12/11 A3010 RMK SC5AC2 SLP198

CYWG;2011-09-04 07:00;CYWG 040700Z 32004KT 15SM SCT034 BKN057 11/10 A3011 RMK SC3SC2 SLP202

CYWG;2011-09-04 08:00;CYWG 040800Z 32006KT 15SM FEW054 BKN078 10/09 A3012 RMK SC2AC2 SLP204

CYWG;2011-09-04 09:00;CYWG 040900Z 31005KT 15SM SCT047 10/09 A3013 RMK SC4 SLP209

CYWG;2011-09-04 10:00;CYWG 041000Z 31005KT 15SM FEW034 BKN075 09/09 A3016 RMK SF2AC5 SLP216

CYWG;2011-09-04 11:00;CYWG 041100Z 32008KT 15SM SCT039 BKN062 10/10 A3017 RMK SC3SC3 TCU TOPS NE SLP221

CYWG;2011-09-04 12:00;CYWG 041200Z 33009KT 15SM SCT057 10/09 A3019 RMK SC2 TCU TOPS NE SLP229

CYWG;2011-09-04 13:00;CYWG 041300Z 33008KT 15SM FEW040 SCT100 10/09 A3021 RMK SC2AC0 SLP235

CYWG;2011-09-04 14:00;CYWG 041400Z 34008KT 15SM FEW030 12/10 A3022 RMK SC2 SLP239

CYWG;2011-09-04 15:00;CYWG 041500Z 02011KT 15SM SCT030 14/09 A3022 RMK SC2 SLP240

CYWG;2011-09-04 16:00;CYWG 041600Z 06006KT 15SM BKN024 13/10 A3024 RMK SC6 SLP244

CYWG;2011-09-04 17:00;CYWG 041700Z 09004KT 15SM SCT032 BKN069 14/09 A3024 RMK SC3AC1 SLP245

CYWG;2011-09-04 18:00;CYWG 041800Z 04007KT 15SM BKN029 15/09 A3023 RMK SC6 SLP243

CYWG;2011-09-04 19:00;CYWG 041900Z 33010KT 15SM BKN040 16/07 A3023 RMK CU5 SLP241

CYWG;2011-09-04 20:00;CYWG 042000Z 03006KT 15SM BKN036 16/08 A3022 RMK SC5 SLP238

CYWG;2011-09-04 21:00;CYWG 042100Z 31003KT 14SM SCT045 17/06 A3020 RMK SC3 SLP233

CYWG;2011-09-04 22:00;CYWG 042200Z 36008KT 15SM SCT051 17/07 A3019 RMK SC3 SLP230

CYWG;2011-09-04 23:00;CYWG 042300Z 30007KT 15SM FEW051 17/07 A3019 RMK SC2 SLP228

CYWG;2011-09-05 00:00;CYWG 050000Z 29006KT 15SM FEW053 17/07 A3018 RMK SC1 SLP226

CYWG;2011-09-05 01:00;CYWG 050100Z 00000KT 15SM FEW050 14/09 A3017 RMK SC1 SLP222

CYWG;2011-09-05 02:00;CYWG 050200Z 18002KT 15SM SKC 12/08 A3017 RMK SLP221

CYWG;2011-09-05 03:00;CYWG 050300Z 17004KT 15SM SKC 11/07 A3016 RMK SLP218

CYWG;2011-09-05 04:00;CYWG 050400Z 18007KT 15SM SKC 09/07 A3015 RMK SLP216

CYWG;2011-09-05 05:00;CYWG 050500Z 18009KT 15SM SKC 11/08 A3015 RMK SLP215

CYWG;2011-09-05 06:00;CYWG 050600Z 18009KT 15SM SKC 10/08 A3015 RMK SLP215

CYWG;2011-09-05 07:00;CYWG 050700Z 18011KT 15SM SKC 10/07 A3014 RMK SLP212

CYWG;2011-09-05 08:00;CYWG 050800Z 19010KT 15SM SKC 09/07 A3013 RMK SLP210

CYWG;2011-09-05 09:00;CYWG 050900Z 18010KT 15SM SKC 09/07 A3013 RMK SLP207

CYWG;2011-09-05 10:00;CYWG 051000Z 18011KT 15SM SKC 09/07 A3012 RMK SLP203

CYWG;2011-09-05 11:00;CYWG 051100Z 18009KT 15SM FEW250 08/07 A3011 RMK CI1 SLP201

CYWG;2011-09-05 12:00;CYWG 051200Z 19010KT 15SM FEW140 SCT250 09/07 A3011 RMK AC1CI2 SLP200

CYWG;2011-09-05 13:00;CYWG 051300Z 18011KT 15SM FEW140 BKN250 10/08 A3010 RMK AC1CI2 SLP198

CYWG;2011-09-05 14:00;CYWG 051400Z 18010KT 15SM FEW140 SCT250 12/09 A3009 RMK AC1CI2 SLP194

CYWG;2011-09-05 15:00;CYWG 051500Z 18011G16KT 15SM FEW250 16/10 A3008 RMK CI1 SLP190

CYWG;2011-09-05 16:00;CYWG 051600Z 19013KT 15SM FEW250 18/09 A3006 RMK CI1 SLP185

CYWG;2011-09-05 17:00;CYWG 051700Z 18015KT 15SM SKC 20/09 A3005 RMK SLP180

CYWG;2011-09-05 18:00;CYWG 051800Z 20011G20KT 15SM SKC 22/08 A3003 RMK SLP174

CYWG;2011-09-05 19:00;CYWG 051900Z 21015G20KT 15SM FEW140 23/08 A3002 RMK AC1 SLP168

CYWG;2011-09-05 20:00;CYWG 052000Z 19010G17KT 15SM FEW140 23/08 A2999 RMK AC1 SLP160

CYWG;2011-09-05 21:00;CYWG 052100Z 17014KT 15SM FEW140 24/08 A2997 RMK AC1 SLP153

CYWG;2011-09-05 22:00;CYWG 052200Z 18014KT 15SM SKC 24/08 A2996 RMK SLP147

CYWG;2011-09-05 23:00;CYWG 052300Z 18015KT 15SM SKC 23/08 A2995 RMK SLP144

CYWG;2011-09-06 00:00;CYWG 060000Z 18013KT 15SM SKC 22/09 A2994 RMK SLP143

CYWG;2011-09-06 01:00;CYWG 060100Z 17011KT 15SM SKC 19/09 A2994 RMK SLP142

CYWG;2011-09-06 02:00;CYWG 060200Z 17008KT 15SM SKC 18/08 A2995 RMK SLP146

CYWG;2011-09-06 03:00;CYWG 060300Z 16010KT 15SM SKC 17/09 A2996 RMK SLP147

CYWG;2011-09-06 04:00;CYWG 060400Z 18012G17KT 15SM SKC 17/09 A2995 RMK SLP145

CYWG;2011-09-06 05:00;CYWG 060500Z 18010KT 15SM SKC 16/10 A2995 RMK OBS TAKE +4 SLP146

CYWG;2011-09-06 06:00;CYWG 060600Z 17012KT 15SM SKC 15/09 A2996 RMK SLP146

CYWG;2011-09-06 07:00;CYWG 060700Z 18013KT 15SM SKC 15/09 A2995 RMK SLP145

CYWG;2011-09-06 08:00;CYWG 060800Z 18013KT 15SM SKC 14/09 A2995 RMK SLP143

CYWG;2011-09-06 09:00;CYWG 060900Z 18011G16KT 15SM SKC 14/09 A2995 RMK SLP143

CYWG;2011-09-06 10:00;CYWG 061000Z 18010KT 15SM SKC 13/10 A2995 RMK SLP145

CYWG;2011-09-06 11:00;CYWG 061100Z 17010KT 15SM FEW140 12/10 A2995 RMK AC1 SLP144

CYWG;2011-09-06 12:00;CYWG 061200Z 17011KT 15SM SKC 12/10 A2995 RMK SLP146

CYWG;2011-09-06 13:00;CYWG 061300Z 18010KT 15SM FEW140 13/10 A2996 RMK AC1 SLP150

CYWG;2011-09-06 14:00;CYWG 061400Z 18011KT 15SM FEW140 15/11 A2997 RMK AC1 SLP152

CYWG;2011-09-06 15:00;CYWG 061500Z 19012KT 15SM FEW210 17/11 A2997 RMK CI1 SLP153

CYWG;2011-09-06 16:00;CYWG 061600Z 20006KT 15SM FEW210 19/12 A2998 RMK CI1 SLP156

CYWG;2011-09-06 17:00;CYWG 061700Z 16009KT 15SM FEW210 21/13 A2999 RMK CI1 SLP158

CYWG;2011-09-06 18:00;CYWG 061800Z 18009KT 15SM FEW140 23/13 A3000 RMK AC1 SLP161

CYWG;2011-09-06 19:00;CYWG 061900Z 19007KT 15SM SKC 24/13 A3000 RMK SLP161

CYWG;2011-09-06 20:00;CYWG 062000Z 19003KT 15SM FEW270 26/14 A2999 RMK CI1 SLP159

CYWG;2011-09-06 21:00;CYWG 062100Z 14002KT 15SM FEW270 27/14 A2999 RMK CI0 SLP158

CYWG;2011-09-06 22:00;CYWG 062200Z 20004KT 15SM FEW270 27/12 A3000 RMK CI0 SLP159

CYWG;2011-09-06 23:00;CYWG 062300Z 00000KT 15SM FEW270 27/12 A3001 RMK CI0 SLP163

CYWG;2011-09-07 00:00;CYWG 070000Z 14002KT 15SM SKC 26/13 A3003 RMK OBS TAKEN +12 SLP169

CYWG;2011-09-07 01:00;CYWG 070100Z 08003KT 15SM SKC 22/14 A3004 RMK SLP173

CYWG;2011-09-07 02:00;CYWG 070200Z 08003KT 15SM SKC 20/13 A3006 RMK SLP179

CYWG;2011-09-07 03:00;CYWG 070300Z 08002KT 15SM SKC 18/13 A3008 RMK SLP189

CYWG;2011-09-07 04:00;CYWG 070400Z 00000KT 15SM SKC 17/13 A3009 RMK SLP193

CYWG;2011-09-07 05:00;CYWG 070500Z 14002KT 15SM SKC 14/12 A3010 RMK SLP197

CYWG;2011-09-07 06:00;CYWG 070600Z 14002KT 15SM SKC 14/12 A3012 RMK SLP202

CYWG;2011-09-07 07:00;CYWG 070700Z 18002KT 15SM SKC 14/13 A3012 RMK SLP203

CYWG;2011-09-07 08:00;CYWG 070800Z 00000KT 15SM SKC 13/12 A3014 RMK SLP207

CYWG;2011-09-07 09:00;CYWG 070900Z 00000KT 10SM R13/2600FT/N MIFG SKC 11/10 A3015 RMK SLP212

CYWG;2011-09-07 10:00;CYWG 071000Z 00000KT 10SM R13/2400FT/N MIFG SKC 11/11 A3017 RMK SLP218

CYWG;2011-09-07 11:00;CYWG 071100Z 13002KT 10SM MIFG SKC 12/11 A3019 RMK SLP225

CYWG;2011-09-07 12:00;CYWG 071200Z 00000KT 8SM MIFG SKC 11/11 A3020 RMK SLP230

CYWG;2011-09-07 13:00;CYWG 071300Z 00000KT 8SM SKC 13/13 A3023 RMK SLP238

CYWG;2011-09-07 14:00;CYWG 071400Z 18002KT 10SM SKC 18/15 A3025 RMK SLP245

CYWG;2011-09-07 15:00;CYWG 071500Z 21002KT 15SM SKC 21/16 A3026 RMK SLP250

CYWG;2011-09-07 16:00;CYWG 071600Z 19003KT 15SM SKC 24/16 A3027 RMK SLP253

CYWG;2011-09-07 17:00;CYWG 071700Z 22005KT 15SM SKC 26/15 A3027 RMK SLP253

CYWG;2011-09-07 18:00;CYWG 071800Z 20005KT 15SM SKC 28/15 A3027 RMK SLP252

CYWG;2011-09-07 19:00;CYWG 071900Z 23005KT 15SM FEW060 FEW250 28/12 A3027 RMK CU1CI1 SLP251

CYWG;2011-09-07 20:00;CYWG 072000Z 28002KT 15SM FEW060 FEW250 29/11 A3026 RMK CU1CI1 SLP249

CYWG;2011-09-07 21:00;CYWG 072100Z 26006KT 15SM FEW060 FEW250 30/12 A3025 RMK CU1CI1 SLP246

CYWG;2011-09-07 22:00;CYWG 072200Z 29004KT 15SM FEW060 FEW250 30/11 A3025 RMK CU1CI1 CONTRAILS SLP245

CYWG;2011-09-07 23:00;CYWG 072300Z 31004KT 15SM FEW060 FEW250 30/11 A3024 RMK CU1CI1 CONTRAILS SLP243

CYWG;2011-09-08 00:00;CYWG 080000Z 32003KT 15SM FEW250 28/12 A3024 RMK CI1 SLP242

CYWG;2011-09-08 01:00;CYWG 080100Z 31003KT 15SM FEW250 23/13 A3025 RMK CI1 SLP244

CYWG;2011-09-08 02:00;CYWG 080200Z 00000KT 15SM FEW250 21/12 A3026 RMK CI1 SLP248

CYWG;2011-09-08 03:00;CYWG 080300Z 00000KT 15SM SKC 18/12 A3027 RMK SLP251

CYWG;2011-09-08 04:00;CYWG 080400Z 22002KT 15SM SKC 16/12 A3027 RMK SLP251

CYWG;2011-09-08 05:00;CYWG 080500Z 22007KT 15SM SKC 18/12 A3026 RMK SLP250

CYWG;2011-09-08 06:00;CYWG 080600Z 24006KT 15SM SKC 19/10 A3026 RMK SLP247

CYWG;2011-09-08 07:00;CYWG 080700Z 24007KT 15SM SKC 18/11 A3026 RMK SLP248

CYWG;2011-09-08 08:00;CYWG 080800Z 24008KT 15SM SKC 18/11 A3026 RMK SLP248

CYWG;2011-09-08 09:00;CYWG 080900Z 25005KT 15SM SKC 16/11 A3028 RMK SLP253

CYWG;2011-09-08 10:00;CYWG 081000Z 23005KT 15SM SKC 15/11 A3028 RMK SLP254

CYWG;2011-09-08 11:00;CYWG 081100Z 24004KT 15SM FEW120 15/11 A3027 RMK AC1 SLP252

CYWG;2011-09-08 12:00;CYWG 081200Z 24005KT 15SM FEW240 14/11 A3028 RMK CI1 SLP256

CYWG;2011-09-08 13:00;CYWG 081300Z 25007KT 10SM FEW240 17/11 A3029 RMK CI1 SLP257

CYWG;2011-09-08 14:00;CYWG 081400Z 27007KT 15SM FEW240 19/12 A3028 RMK CI1 SLP256

CYWG;2011-09-08 15:00;CYWG 081500Z 27008KT 15SM FEW120 FEW240 23/13 A3028 RMK AC1CI1 SLP254

CYWG;2011-09-08 16:00;CYWG 081600Z 27008KT 15SM FEW240 27/14 A3028 RMK CI1 SLP254

CYWG;2011-09-08 17:00;CYWG 081700Z 29009KT 15SM FEW240 29/14 A3026 RMK CI1 SLP249

CYWG;2011-09-08 18:00;CYWG 081800Z 30006KT 15SM FEW240 30/14 A3025 RMK CI1 SLP243

CYWG;2011-09-08 19:00;CYWG 081900Z 27008KT 15SM SKC 31/13 A3023 RMK SLP237

CYWG;2011-09-08 20:00;CYWG 082000Z 26009KT 15SM SKC 31/12 A3022 RMK SLP233

CYWG;2011-09-08 21:00;CYWG 082100Z 27006KT 15SM SKC 31/11 A3020 RMK SLP227

CYWG;2011-09-08 22:00;CYWG 082200Z 27006G16KT 15SM SKC 31/11 A3019 RMK SLP224

CYWG;2011-09-08 23:00;CYWG 082300Z 30007KT 15SM SKC 31/11 A3018 RMK SLP221

CYWG;2011-09-09 00:00;CYWG 090000Z 30004KT 15SM SKC 29/13 A3018 RMK SLP220

CYWG;2011-09-09 01:00;CYWG 090100Z 33004KT 15SM SKC 24/13 A3017 RMK SLP218

CYWG;2011-09-09 02:00;CYWG 090200Z 31003KT 15SM SKC 21/12 A3018 RMK SLP220

CYWG;2011-09-09 03:00;CYWG 090300Z 32004KT 15SM SKC 17/13 A3017 RMK SLP218

CYWG;2011-09-09 04:00;CYWG 090400Z 00000KT 15SM SKC 17/12 A3016 RMK SLP216

CYWG;2011-09-09 05:00;CYWG 090500Z 00000KT 15SM SKC 16/12 A3017 RMK SLP217

CYWG;2011-09-09 06:00;CYWG 090600Z 19004KT 15SM SKC 16/12 A3017 RMK SLP218

CYWG;2011-09-09 07:00;CYWG 090700Z 00000KT 15SM FEW094 15/12 A3017 RMK AC1 SLP216

CYWG;2011-09-09 08:00;CYWG 090800Z 27006KT 15SM SKC 16/12 A3017 RMK SLP216

CYWG;2011-09-09 09:00;CYWG 090900Z 27007KT 15SM SKC 15/12 A3016 RMK SLP213

CYWG;2011-09-09 10:00;CYWG 091000Z 28007KT 15SM SKC 13/12 A3016 RMK SLP213

CYWG;2011-09-09 11:00;CYWG 091100Z 27006KT 15SM SKC 14/12 A3016 RMK SLP213

CYWG;2011-09-09 12:00;CYWG 091200Z 27005KT 15SM FEW240 12/11 A3016 RMK CI1 SLP216

CYWG;2011-09-09 13:00;CYWG 091300Z 31004KT 15SM FEW240 15/14 A3017 RMK CI1 SLP219

CYWG;2011-09-09 14:00;CYWG 091400Z 30006KT 15SM SCT240 19/14 A3017 RMK CI1 SLP218

CYWG;2011-09-09 15:00;CYWG 091500Z 29005KT 15SM FEW240 23/15 A3016 RMK CI1 SLP216

CYWG;2011-09-09 16:00;CYWG 091600Z 29005KT 15SM SCT240 27/16 A3016 RMK CI1 SLP216

CYWG;2011-09-09 17:00;CYWG 091700Z 27009G15KT 15SM BKN250 29/15 A3015 RMK CI1 SLP212

CYWG;2011-09-09 18:00;CYWG 091800Z 31007KT 15SM BKN250 30/13 A3014 RMK CI1 SLP206

CYWG;2011-09-09 19:00;CYWG 091900Z 29006KT 15SM BKN250 31/12 A3012 RMK CI2 SLP199

CYWG;2011-09-09 20:00;CYWG 092000Z 29007KT 15SM BKN250 31/13 A3011 RMK CI2 SLP195

CYWG;2011-09-09 21:00;CYWG 092100Z 01005KT 15SM FEW250 31/12 A3009 RMK CI1 SLP190

CYWG;2011-09-09 22:00;CYWG 092200Z 25003KT 15SM FEW250 31/12 A3008 RMK CI1 SLP186

CYWG;2011-09-09 23:00;CYWG 092300Z 36006KT 15SM FEW250 30/14 A3007 RMK CI1 SLP183

CYWG;2011-09-10 00:00;CYWG 100000Z CCA 01006KT 15SM SCT250 27/16 A3007 RMK CI1 SLP183

CYWG;2011-09-10 01:00;CYWG 100100Z 02004KT 15SM SCT250 24/14 A3006 RMK CI1 SLP182

CYWG;2011-09-10 02:00;CYWG 100200Z 00000KT 15SM FEW250 20/14 A3007 RMK CI1 SLP185

CYWG;2011-09-10 03:00;CYWG 100300Z 00000KT 15SM FEW250 18/14 A3007 RMK CI1 SLP185

CYWG;2011-09-10 04:00;CYWG 100400Z 00000KT 15SM FEW250 17/13 A3007 RMK CI1 SLP184

CYWG;2011-09-10 05:00;CYWG 100500Z 26002KT 15SM SCT250 17/13 A3007 RMK CI1 SLP183

CYWG;2011-09-10 06:00;CYWG 100600Z 19002KT 15SM SCT250 17/13 A3007 RMK CI1 SLP181

CYWG;2011-09-10 07:00;CYWG 100700Z 25006KT 15SM SCT250 18/12 A3007 RMK CI1 SLP181

CYWG;2011-09-10 08:00;CYWG 100800Z 24006KT 15SM SCT250 18/12 A3006 RMK CI1 SLP179

CYWG;2011-09-10 09:00;CYWG 100900Z 23004KT 15SM SCT250 18/12 A3006 RMK CI1 SLP177

CYWG;2011-09-10 10:00;CYWG 101000Z 22004KT 15SM SCT250 17/12 A3005 RMK CI1 SLP176

CYWG;2011-09-10 11:00;CYWG 101100Z 22005KT 15SM SCT250 15/12 A3004 RMK CI1 SLP173

CYWG;2011-09-10 12:00;CYWG 101200Z 21005KT 15SM SCT250 15/12 A3005 RMK CI2 SLP175

CYWG;2011-09-10 13:00;CYWG 101300Z 19003KT 15SM SCT250 15/14 A3005 RMK CI1 SLP175

CYWG;2011-09-10 14:00;CYWG 101400Z 24006KT 15SM FEW250 19/14 A3004 RMK CI1 SLP172

CYWG;2011-09-10 15:00;CYWG 101500Z 23006KT 15SM FEW250 23/15 A3003 RMK CI1 SLP170

CYWG;2011-09-10 16:00;CYWG 101600Z 23004KT 15SM FEW250 26/15 A3002 RMK CI1 SLP167

CYWG;2011-09-10 17:00;CYWG 101700Z 21008KT 15SM FEW250 28/15 A3001 RMK CI1 SLP162

CYWG;2011-09-10 18:00;CYWG 101800Z 22011KT 15SM SCT250 30/13 A2998 RMK CI1 SLP153

CYWG;2011-09-10 19:00;CYWG 101900Z 25010G15KT 15SM FEW250 31/13 A2996 RMK CI0 SLP147

CYWG;2011-09-10 20:00;CYWG 102000Z 25011KT 15SM FEW250 31/11 A2994 RMK CI0 SLP139

CYWG;2011-09-10 21:00;CYWG 102100Z 23010KT 15SM FEW250 31/11 A2991 RMK CI0 SLP128

CYWG;2011-09-10 22:00;CYWG 102200Z 26010G15KT 15SM FEW250 31/12 A2990 RMK CI0 SLP123

CYWG;2011-09-10 23:00;CYWG 102300Z 26011KT 15SM FEW250 30/12 A2989 RMK CI1 SLP119

CYWG;2011-09-11 00:00;CYWG 110000Z 25007KT 15SM FEW250 28/13 A2987 RMK CI1 SLP116

CYWG;2011-09-11 01:00;CYWG 110100Z 23007KT 15SM FEW250 25/12 A2986 RMK CI0 SLP112

CYWG;2011-09-11 02:00;CYWG 110200Z 23008KT 15SM FEW250 24/12 A2986 RMK CI0 SLP113

CYWG;2011-09-11 03:00;CYWG 110300Z 24009KT 15SM SKC 25/12 A2986 RMK SLP109

CYWG;2011-09-11 04:00;CYWG 110400Z 24010KT 15SM SKC 24/11 A2985 RMK SLP107

CYWG;2011-09-11 05:00;CYWG 110500Z 25009KT 15SM SKC 22/12 A2985 RMK SLP107

CYWG;2011-09-11 06:00;CYWG 110600Z 26008KT 15SM SKC 19/12 A2986 RMK SLP110

CYWG;2011-09-11 07:00;CYWG 110700Z 28008KT 15SM SKC 17/12 A2987 RMK SLP113

CYWG;2011-09-11 08:00;CYWG 110800Z 28006KT 15SM SKC 16/12 A2987 RMK SLP114

CYWG;2011-09-11 09:00;CYWG 110900Z 28006KT 15SM FEW120 15/12 A2989 RMK AC2 SLP120

CYWG;2011-09-11 10:00;CYWG 111000Z 29007KT 15SM SKC 14/13 A2990 RMK SLP124

CYWG;2011-09-11 11:00;CYWG 111100Z 29007KT 15SM SKC 13/12 A2991 RMK SLP128

CYWG;2011-09-11 12:00;CYWG 111200Z 30006KT 15SM SKC 12/12 A2992 RMK SLP134

CYWG;2011-09-11 13:00;CYWG 111300Z 30004KT 15SM SKC 14/13 A2993 RMK SLP138

CYWG;2011-09-11 14:00;CYWG 111400Z 02006KT 10SM SKC 17/14 A2995 RMK HZ SLP143

CYWG;2011-09-11 15:00;CYWG 111500Z 03009KT 10SM SKC 19/14 A2995 RMK HZ SLP143

CYWG;2011-09-11 16:00;CYWG 111600Z 04008KT 10SM SKC 22/13 A2996 RMK HZ SLP144

CYWG;2011-09-11 17:00;CYWG 111700Z 05010KT 10SM SKC 24/12 A2996 RMK HZ SLP146

CYWG;2011-09-11 18:00;CYWG 111800Z 05010G15KT 8SM SCT270 24/09 A2995 RMK CI0 HZ SLP143

CYWG;2011-09-11 19:00;CYWG 111900Z 05012KT 7SM FEW270 25/07 A2994 RMK CI0 FU SLP138

CYWG;2011-09-11 20:00;CYWG 112000Z 09008KT 10SM FEW270 26/08 A2992 RMK CI0 FU SLP133

CYWG;2011-09-11 21:00;CYWG 112100Z 06009KT 10SM FEW270 26/06 A2990 RMK CI1 FU SLP126

CYWG;2011-09-11 22:00;CYWG 112200Z 08008KT 10SM FEW083 25/05 A2988 RMK AC1 FU SLP120

CYWG;2011-09-11 23:00;CYWG 112300Z 07006KT 10SM FEW270 25/06 A2987 RMK CI1 FU SLP115

CYWG;2011-09-12 00:00;CYWG 120000Z 07009KT 12SM FEW270 22/07 A2984 RMK CI0 FU SLP108

CYWG;2011-09-12 01:00;CYWG 120100Z 08006KT 7SM SKC 19/07 A2982 RMK FU SLP101

CYWG;2011-09-12 02:00;CYWG 120200Z 10008KT 10SM SKC 18/09 A2981 RMK FU SLP096

CYWG;2011-09-12 03:00;CYWG 120300Z 11007KT 10SM FEW120 18/08 A2979 RMK AC2 FU SLP088

CYWG;2011-09-12 04:00;CYWG 120400Z 13008KT 10SM FEW120 SCT250 18/07 A2975 RMK AC2CI0 FU SLP075

CYWG;2011-09-12 05:00;CYWG 120500Z 16010KT 10SM FEW120 SCT250 18/08 A2970 RMK AC2CI0 FU SLP061

CYWG;2011-09-12 06:00;CYWG 120600Z 18012KT 10SM FEW250 19/11 A2967 RMK CI1 FU SLP047

CYWG;2011-09-12 07:00;CYWG 120700Z 19016KT 12SM FEW250 20/14 A2963 RMK CI1 FU SLP035

CYWG;2011-09-12 08:00;CYWG 120800Z 20010G16KT 12SM FEW250 19/13 A2961 RMK CI1 FU SLP029

CYWG;2011-09-12 09:00;CYWG 120900Z 20012KT 12SM SCT250 19/13 A2958 RMK CI2 FU SLP017

CYWG;2011-09-12 10:00;CYWG 121000Z 27005KT 12SM SCT250 17/13 A2961 RMK CI2 FU SLP024

CYWG;2011-09-12 11:00;CYWG 121100Z 25005KT 12SM BKN250 17/13 A2958 RMK CI2 SLP017

CYWG;2011-09-12 12:00;CYWG 121200Z 31011KT 15SM FEW070 BKN140 OVC250 18/13 A2961 RMK AC1AC5CI2 SLP028

CYWG;2011-09-12 13:00;CYWG 121300Z 32018KT 15SM FEW070 OVC140 17/13 A2963 RMK AC2AC6 SLP035

CYWG;2011-09-12 14:00;CYWG 121400Z 33021G27KT 15SM FEW055 FEW070 BKN140 14/12 A2970 RMK SC1AC2AC5 PRESRR SLP056

CYWG;2011-09-12 15:00;CYWG 121500Z 35020G29KT 15SM FEW015 OVC051 14/11 A2974 RMK CF2SC6 SLP072

CYWG;2011-09-12 16:00;CYWG 121600Z 35023G34KT 15SM BKN021 16/11 A2978 RMK SC6 SLP087

CYWG;2011-09-12 17:00;CYWG 121700Z 35026G33KT 15SM BKN026 16/09 A2983 RMK CU6 SLP103

CYWG;2011-09-12 18:00;CYWG 121800Z 34016G25KT 15SM BKN031 16/09 A2984 RMK CU7 SLP107

CYWG;2011-09-12 19:00;CYWG 121900Z 34025G32KT 15SM BKN037 BKN090 15/07 A2987 RMK CU6AC2 SLP117

CYWG;2011-09-12 20:00;CYWG 122000Z 36024G30KT 15SM BKN037 16/06 A2990 RMK CU5 SLP126

CYWG;2011-09-12 21:00;CYWG 122100Z 01016G24KT 15SM BKN046 16/06 A2991 RMK CU6 SLP132

CYWG;2011-09-12 22:00;CYWG 122200Z 36013G20KT 15SM SCT046 17/06 A2992 RMK CU4 SLP133

CYWG;2011-09-12 23:00;CYWG 122300Z 32016KT 15SM BKN048 18/06 A2994 RMK SC6 SLP140

CYWG;2011-09-13 00:00;CYWG 130000Z 34010KT 15SM BKN055 16/06 A2995 RMK SC6 SLP144

CYWG;2011-09-13 01:00;CYWG 130100Z 32002KT 15SM FEW070 12/07 A2995 RMK AC2 SLP145

CYWG;2011-09-13 02:00;CYWG 130200Z 27005KT 15SM FEW063 10/06 A2996 RMK SC2 SLP148

CYWG;2011-09-13 03:00;CYWG 130300Z 27005KT 15SM FEW069 09/06 A2996 RMK AC2 SLP151

CYWG;2011-09-13 04:00;CYWG 130400Z 29005KT 15SM SKC 08/05 A2996 RMK SLP150

CYWG;2011-09-13 05:00;CYWG 130500Z 26007KT 15SM SKC 09/07 A2996 RMK SLP150

CYWG;2011-09-13 06:00;CYWG 130600Z 24008KT 15SM BKN120 11/06 A2994 RMK AC2 SLP143

CYWG;2011-09-13 07:00;CYWG 130700Z 26010KT 15SM OVC090 11/06 A2993 RMK AC8 SLP141

CYWG;2011-09-13 08:00;CYWG 130800Z 25009KT 15SM FEW044 BKN090 12/08 A2991 RMK SC2AC3 SLP133

CYWG;2011-09-13 09:00;CYWG 130900Z 25010KT 15SM SCT090 10/07 A2990 RMK AC2 SLP130

CYWG;2011-09-13 10:00;CYWG 131000Z 26008KT 15SM BKN090 09/06 A2990 RMK AC4 SLP128

CYWG;2011-09-13 11:00;CYWG 131100Z 27009KT 15SM SCT100 09/06 A2990 RMK AC3 SLP128

CYWG;2011-09-13 12:00;CYWG 131200Z 27008KT 15SM FEW100 08/06 A2989 RMK AC2 SLP128

CYWG;2011-09-13 13:00;CYWG 131300Z 25009KT 15SM SCT100 09/07 A2989 RMK AC2 VIRGA N SLP128

CYWG;2011-09-13 14:00;CYWG 131400Z 27009KT 15SM SCT100 11/08 A2990 RMK AC3 SLP129

CYWG;2011-09-13 15:00;CYWG 131500Z 30014KT 15SM FEW031 BKN072 14/09 A2990 RMK SC2AC5 SLP129

CYWG;2011-09-13 16:00;CYWG 131600Z 32017G26KT 15SM VCSH SCT031 BKN046 BKN070 14/08 A2991 RMK SC3SC2AC2 SH NE SLP134

CYWG;2011-09-13 16:33;CYWG 131633Z 34019G29KT 15SM -SHRA BKN029 BKN063 11/ RMK SC5SC2

CYWG;2011-09-13 17:00;CYWG 131700Z 34024KT 15SM SCT029 BKN060 BKN079 13/07 A2995 RMK SC3SC2AC2 OCNL RW- SLP148

CYWG;2011-09-13 18:00;CYWG 131800Z 32026G32KT 15SM BKN036 BKN078 13/03 A2996 RMK SC5AC2 SLP151

CYWG;2011-09-13 19:00;CYWG 131900Z 32027G39KT 15SM BKN046 BKN084 13/01 A2999 RMK SC5AC1 SLP159

CYWG;2011-09-13 19:50;CYWG 131950Z 32032G40KT 15SM -SHRA BKN046 11/ RMK SC5 TCU ASOCTD

CYWG;2011-09-13 20:00;CYWG 132000Z 31026G34KT 15SM VCSH BKN046 12/02 A3002 RMK SC5 TCU ASOCTD SLP169

CYWG;2011-09-13 20:38;CYWG 132038Z 34027G36KT 15SM -SHRA BKN036 08/ RMK SC6 TCU ASOCTD

CYWG;2011-09-13 21:00;CYWG 132100Z 35017G32KT 15SM -SHRA BKN015 08/06 A3006 RMK SC5 TCU ASOCTD SLP187

CYWG;2011-09-13 21:11;CYWG 132111Z 36018KT 15SM BKN015 09/ RMK SC5 TCU ASOCTD

CYWG;2011-09-13 22:00;CYWG 132200Z 35014G27KT 15SM SCT020 10/04 A3009 RMK SC3 SLP196

CYWG;2011-09-13 23:00;CYWG 132300Z 01018G25KT 15SM FEW024 09/02 A3013 RMK SC2 SLP211

CYWG;2011-09-14 00:00;CYWG 140000Z 02016G22KT 15SM FEW025 07/01 A3016 RMK SC2 SLP222

CYWG;2011-09-14 01:00;CYWG 140100Z 35008KT 15SM FEW025 05/00 A3017 RMK SC2 SLP224

CYWG;2011-09-14 02:00;CYWG 140200Z 36005KT 15SM FEW025 02/M00 A3019 RMK SC2 SLP231

CYWG;2011-09-14 03:00;CYWG 140300Z 26002KT 15SM FEW025 01/M01 A3020 RMK SC1 SLP234

CYWG;2011-09-14 04:00;CYWG 140400Z 30007KT 15SM SKC M00/M02 A3020 RMK SLP236

CYWG;2011-09-14 05:00;CYWG 140500Z 32004KT 15SM SKC M01/M03 A3022 RMK SLP241

CYWG;2011-09-14 06:00;CYWG 140600Z 33009KT 15SM FEW092 03/01 A3023 RMK AC1 SLP245

CYWG;2011-09-14 07:00;CYWG 140700Z 34010KT 15SM SKC 03/02 A3024 RMK SLP247

CYWG;2011-09-14 08:00;CYWG 140800Z 33010KT 15SM SKC 03/02 A3024 RMK SLP249

CYWG;2011-09-14 09:00;CYWG 140900Z 31007KT 15SM SKC 02/01 A3025 RMK SLP252

CYWG;2011-09-14 10:00;CYWG 141000Z 30003KT 15SM FEW017 M01/M01 A3026 RMK SC2 SLP256

CYWG;2011-09-14 11:00;CYWG 141100Z 28007KT 15SM FEW015 FEW080 M00/M00 A3027 RMK SC1AC1 SLP259

CYWG;2011-09-14 12:00;CYWG 141200Z 27006KT 15SM FEW015 FEW090 M01/M01 A3029 RMK SC1AC1 TR SC SLP267

CYWG;2011-09-14 13:00;CYWG 141300Z 30005KT 15SM FEW015 FEW080 01/01 A3031 RMK SC1AC1 SLP275

CYWG;2011-09-14 14:00;CYWG 141400Z 33012G17KT 15SM FEW015 FEW080 06/03 A3032 RMK SC1AC1 TR AC SLP280

CYWG;2011-09-14 15:00;CYWG 141500Z 36016KT 15SM BKN023 BKN050 08/03 A3034 RMK SC5SC2 SLP286

CYWG;2011-09-14 16:00;CYWG 141600Z 33016KT 15SM BKN021 07/03 A3035 RMK SC6 SLP289

CYWG;2011-09-14 17:00;CYWG 141700Z 34013KT 15SM BKN027 09/02 A3035 RMK CU6 SLP289

CYWG;2011-09-14 18:00;CYWG 141800Z 34015KT 15SM BKN033 11/02 A3035 RMK CU6 SH DIST NW-NE SLP285

CYWG;2011-09-14 18:56;CYWG 141856Z 03010G15KT 15SM -SHRA BKN042TCU 10/ RMK TCU6 TCU ALL QUADS

CYWG;2011-09-14 19:00;CYWG 141900Z 03011KT 15SM -SHRA BKN040TCU 10/03 A3034 RMK TCU6 TCU ALL QUADS SLP283

CYWG;2011-09-14 20:00;CYWG 142000Z 36010KT 15SM FEW020 BKN064TCU 10/05 A3033 RMK CF2TCU2 OCNL -SHRA SLP281

CYWG;2011-09-14 20:20;CYWG 142020Z 02015G20KT 10SM -SHRA BKN030TCU 09/ RMK TCU6 TCU ALL QUADS

CYWG;2011-09-14 21:00;CYWG 142100Z 36009KT 15SM -SHRA BKN030TCU 09/04 A3035 RMK TCU6 TCU ALL QUADS SLP287

CYWG;2011-09-14 21:42;CYWG 142142Z 01007KT 15SM SCT036TCU 11/ RMK TCU3 SH W-N

CYWG;2011-09-14 21:56;CYWG 142156Z 34016G21KT 15SM -SHRA BKN041TCU 10/ RMK TCU6 TCU ALL QUADS

CYWG;2011-09-14 22:00;CYWG 142200Z 34013G21KT 15SM -SHRA BKN027TCU 09/03 A3035 RMK TCU6 TCU ALL QUADS SLP287

CYWG;2011-09-14 22:27;CYWG 142227Z 34005KT 15SM BKN027 10/ RMK SC5

CYWG;2011-09-14 23:00;CYWG 142300Z 31004KT 15SM BKN052 10/03 A3034 RMK SC5 SH SE SLP284

CYWG;2011-09-14 23:19;CYWG 142319Z 02016G22KT 15SM -SHRA SCT027 BKN049 08/ RMK SC3SC2

CYWG;2011-09-14 23:23;CYWG 142323Z 36011G22KT 7SM -SHRAPL BKN017 07/ RMK SC6

CYWG;2011-09-14 23:34;CYWG 142334Z 36010G16KT 15SM -SHRA BKN017 BKN068 07/ RMK SC5AC1 TCU EMBD

CYWG;2011-09-15 00:00;CYWG 150000Z 02005KT 15SM FEW017 SCT020TCU 08/05 A3035 RMK CF2TCU2 TCU S SLP290

CYWG;2011-09-15 01:00;CYWG 150100Z 33004KT 15SM SCT020 05/04 A3035 RMK SC3 SLP290

CYWG;2011-09-15 02:00;CYWG 150200Z 24002KT 15SM SCT020 04/04 A3036 RMK SC3 SLP293

CYWG;2011-09-15 03:00;CYWG 150300Z 25002KT 15SM MIFG FEW047 03/02 A3037 RMK SC1 SLP293

CYWG;2011-09-15 04:00;CYWG 150400Z 24003KT 15SM SKC 03/02 A3037 RMK SLP294

CYWG;2011-09-15 05:00;CYWG 150500Z 23004KT 15SM MIFG SKC 02/02 A3037 RMK SLP295

CYWG;2011-09-15 06:00;CYWG 150600Z 23007KT 15SM SKC 03/02 A3037 RMK SLP293

CYWG;2011-09-15 07:00;CYWG 150700Z 21007KT 15SM SKC 02/02 A3036 RMK SLP291

CYWG;2011-09-15 07:53;CYWG 150753Z 22002KT 15SM SKC 02/

CYWG;2011-09-15 08:00;CYWG 150800Z 22003KT 15SM FEW090 01/01 A3037 RMK AC1 SLP294

CYWG;2011-09-15 09:00;CYWG 150900Z 23008KT 15SM SKC 02/01 A3038 RMK SLP296

CYWG;2011-09-15 10:00;CYWG 151000Z 23007KT 15SM SKC 02/01 A3038 RMK SLP297

CYWG;2011-09-15 11:00;CYWG 151100Z 23006KT 15SM SKC 01/00 A3038 RMK SLP297

CYWG;2011-09-15 12:00;CYWG 151200Z 23007KT 15SM FEW090 FEW280 01/M00 A3037 RMK AC1CI1 SLP296

CYWG;2011-09-15 13:00;CYWG 151300Z 17004KT 15SM FEW090 FEW280 01/00 A3038 RMK AC1CI1 SLP298

CYWG;2011-09-15 14:00;CYWG 151400Z 21006KT 15SM FEW090 FEW280 05/02 A3038 RMK AC1CI1 SLP297

CYWG;2011-09-15 15:00;CYWG 151500Z 21004KT 15SM FEW280 08/02 A3038 RMK CI0 SLP297

CYWG;2011-09-15 16:00;CYWG 151600Z 18006KT 15SM FEW280 11/04 A3037 RMK CI0 SLP293

CYWG;2011-09-15 17:00;CYWG 151700Z 19010KT 15SM FEW048 FEW280 12/00 A3036 RMK CF1CI0 SLP290

CYWG;2011-09-15 18:00;CYWG 151800Z 18011KT 15SM FEW056 FEW280 14/M00 A3033 RMK CF1CI0 SLP278

CYWG;2011-09-15 19:00;CYWG 151900Z 20013G19KT 15SM FEW280 15/M00 A3030 RMK CI0 SLP268

CYWG;2011-09-15 20:00;CYWG 152000Z 21011G17KT 15SM FEW280 16/M01 A3027 RMK CI1 SLP260

CYWG;2011-09-15 21:00;CYWG 152100Z 21012G22KT 15SM FEW280 16/M02 A3025 RMK CI1 SLP250

CYWG;2011-09-15 22:00;CYWG 152200Z 19010G21KT 15SM FEW280 16/M01 A3022 RMK CI0 SLP242

CYWG;2011-09-15 23:00;CYWG 152300Z 19012G17KT 15SM FEW280 15/M01 A3019 RMK CI0 SLP233

CYWG;2011-09-16 00:00;CYWG 160000Z 19011KT 15SM FEW280 14/M02 A3018 RMK CI0 SLP228

CYWG;2011-09-16 01:00;CYWG 160100Z 18009KT 15SM SKC 11/M02 A3017 RMK SLP225

CYWG;2011-09-16 02:00;CYWG 160200Z 18008KT 15SM SKC 10/M02 A3016 RMK SLP223

CYWG;2011-09-16 03:00;CYWG 160300Z 18009KT 15SM SKC 09/M02 A3016 RMK SLP221

CYWG;2011-09-16 04:00;CYWG 160400Z 18012KT 15SM SKC 09/M02 A3016 RMK SLP219

CYWG;2011-09-16 05:00;CYWG 160500Z 18010KT 15SM SKC 07/M02 A3015 RMK SLP218

CYWG;2011-09-16 06:00;CYWG 160600Z 18012KT 15SM SKC 07/M02 A3015 RMK SLP216

CYWG;2011-09-16 07:00;CYWG 160700Z 18010KT 15SM SKC 05/M02 A3015 RMK SLP216

CYWG;2011-09-16 08:00;CYWG 160800Z 18011KT 15SM SKC 05/M02 A3015 RMK SLP215

CYWG;2011-09-16 09:00;CYWG 160900Z 18010KT 15SM SKC 04/M01 A3014 RMK SLP213

CYWG;2011-09-16 10:00;CYWG 161000Z 18010KT 15SM SKC 04/M01 A3014 RMK SLP213

CYWG;2011-09-16 11:00;CYWG 161100Z 18011KT 15SM SKC 03/M01 A3014 RMK SLP212

CYWG;2011-09-16 12:00;CYWG 161200Z 17011KT 15SM SKC 03/M00 A3014 RMK SLP214

CYWG;2011-09-16 13:00;CYWG 161300Z 18011KT 15SM SKC 04/01 A3014 RMK SLP215

CYWG;2011-09-16 14:00;CYWG 161400Z 18014KT 15SM SKC 07/03 A3014 RMK SLP213

CYWG;2011-09-16 15:00;CYWG 161500Z 19015KT 15SM SKC 10/04 A3012 RMK SLP208

CYWG;2011-09-16 16:00;CYWG 161600Z 19019G24KT 15SM SKC 11/04 A3012 RMK SLP206

CYWG;2011-09-16 17:00;CYWG 161700Z 18020G28KT 15SM FEW038 FEW250 13/04 A3011 RMK CF1CI1 SLP202

CYWG;2011-09-16 18:00;CYWG 161800Z 19018G25KT 15SM SCT038 SCT250 14/05 A3009 RMK CU3CI1 SLP195

CYWG;2011-09-16 19:00;CYWG 161900Z 18019G29KT 15SM BKN040 15/05 A3007 RMK SC6 SLP188

CYWG;2011-09-16 20:00;CYWG 162000Z 18019G30KT 15SM BKN045 BKN250 15/05 A3006 RMK SC5CI0 SLP184

CYWG;2011-09-16 21:00;CYWG 162100Z 18022G28KT 15SM BKN045 BKN250 16/05 A3005 RMK SC6CI0 SLP182

CYWG;2011-09-16 22:00;CYWG 162200Z 20022G30KT 15SM BKN045 14/05 A3005 RMK SC6 SLP181

CYWG;2011-09-16 23:00;CYWG 162300Z 19022G27KT 15SM BKN040 14/05 A3004 RMK SC7 SLP180

CYWG;2011-09-17 00:00;CYWG 170000Z 19012G25KT 15SM BKN043 13/05 A3003 RMK SC7 SLP177

CYWG;2011-09-17 01:00;CYWG 170100Z 18017KT 15SM BKN043 13/05 A3003 RMK SC7 SLP176

CYWG;2011-09-17 02:00;CYWG 170200Z 17017KT 15SM OVC041 13/04 A3003 RMK SC8 SLP175

CYWG;2011-09-17 03:00;CYWG 170300Z 18015G24KT 15SM OVC041 12/04 A3003 RMK SC8 SLP174

CYWG;2011-09-17 04:00;CYWG 170400Z 17016KT 15SM OVC043 12/04 A3002 RMK SC8 SLP173

CYWG;2011-09-17 05:00;CYWG 170500Z 17017G24KT 15SM OVC043 12/05 A3001 RMK SC8 SLP170

CYWG;2011-09-17 06:00;CYWG 170600Z 18016KT 15SM OVC043 11/05 A3001 RMK SC8 SLP167

CYWG;2011-09-17 07:00;CYWG 170700Z 18016KT 15SM OVC041 12/05 A3000 RMK SC8 SLP165

CYWG;2011-09-17 08:00;CYWG 170800Z 18015G20KT 15SM OVC041 12/05 A3000 RMK SC8 SLP165

CYWG;2011-09-17 09:00;CYWG 170900Z 18015KT 15SM OVC037 12/05 A2999 RMK SC8 SLP162

CYWG;2011-09-17 10:00;CYWG 171000Z 19015KT 15SM OVC037 12/05 A2999 RMK SC8 SLP162

CYWG;2011-09-17 11:00;CYWG 171100Z 18016KT 15SM BKN039 11/06 A2998 RMK SC7 SLP158

CYWG;2011-09-17 12:00;CYWG 171200Z 18015KT 15SM BKN037 11/06 A2999 RMK SC7 SLP160

CYWG;2011-09-17 13:00;CYWG 171300Z 17016KT 15SM BKN035 11/06 A2998 RMK SC7 SLP157

CYWG;2011-09-17 14:00;CYWG 171400Z 18015G22KT 15SM BKN035 12/07 A2998 RMK SC7 SLP157

CYWG;2011-09-17 15:00;CYWG 171500Z 19016KT 15SM BKN029 13/07 A2997 RMK SC7 SLP154

CYWG;2011-09-17 16:00;CYWG 171600Z 19016G24KT 15SM OVC034 13/07 A2998 RMK SC8 SLP156

CYWG;2011-09-17 17:00;CYWG 171700Z 19015G20KT 15SM OVC040 14/08 A2997 RMK SC8 SLP155

CYWG;2011-09-17 18:00;CYWG 171800Z 18016G24KT 15SM BKN044 16/08 A2996 RMK SC7 SLP149

CYWG;2011-09-17 19:00;CYWG 171900Z 18022G27KT 15SM SCT035 BKN250 16/08 A2994 RMK SC3CI2 SLP143

CYWG;2011-09-17 20:00;CYWG 172000Z 18019G26KT 15SM BKN037 OVC250 17/09 A2993 RMK SC6CI1 SLP140

CYWG;2011-09-17 21:00;CYWG 172100Z 17019G25KT 15SM OVC037 17/09 A2992 RMK SC7 SLP135

CYWG;2011-09-17 22:00;CYWG 172200Z 18019KT 15SM OVC035 16/09 A2992 RMK SC8 SLP136

CYWG;2011-09-17 23:00;CYWG 172300Z 18017G24KT 15SM BKN033 OVC074 16/10 A2991 RMK SC6AC2 SLP134

CYWG;2011-09-18 00:00;CYWG 180000Z 17015KT 15SM OVC031 15/10 A2991 RMK SC8 SLP134

CYWG;2011-09-18 01:00;CYWG 180100Z 18018KT 15SM OVC029 15/10 A2992 RMK SC8 SLP135

CYWG;2011-09-18 02:00;CYWG 180200Z 19011G18KT 15SM OVC027 15/10 A2991 RMK SC8 SLP134

CYWG;2011-09-18 03:00;CYWG 180300Z 18014G21KT 15SM OVC025 15/11 A2991 RMK SC8 SLP133

CYWG;2011-09-18 04:00;CYWG 180400Z 18010G15KT 8SM -RA OVC023 14/11 A2990 RMK SC8 SLP128

CYWG;2011-09-18 05:00;CYWG 180500Z 18006KT 12SM -RA OVC024 13/12 A2988 RMK SC8 SLP124

CYWG;2011-09-18 06:00;CYWG 180600Z 19009KT 12SM -RA OVC022 14/11 A2987 RMK SC8 SLP118

CYWG;2011-09-18 07:00;CYWG 180700Z 19009KT 12SM -RA OVC022 12/12 A2986 RMK SC8 SLP114

CYWG;2011-09-18 07:30;CYWG 180730Z 18010KT 3SM -RA BR SCT007 OVC015 12/ RMK SF3SC5

CYWG;2011-09-18 07:48;CYWG 180748Z 18009KT 3SM -RA BR BKN005 OVC015 12/ RMK SF5SC3

CYWG;2011-09-18 08:00;CYWG 180800Z 18010KT 3SM -RA BR BKN006 OVC015 12/12 A2984 RMK SF6SC2 SLP109

CYWG;2011-09-18 09:00;CYWG 180900Z 18012KT 4SM -RA BR BKN005 OVC015 12/12 A2984 RMK SF6SC2 SLP108

CYWG;2011-09-18 10:00;CYWG 181000Z 20008KT 6SM -RA BR BKN005 OVC015 13/13 A2983 RMK SF6SC2 SLP105

CYWG;2011-09-18 11:00;CYWG 181100Z 20009KT 6SM -RA BR BKN005 OVC017 13/13 A2983 RMK SF6SC2 SLP107

CYWG;2011-09-18 11:23;CYWG 181123Z 20008KT 6SM BR SCT005 OVC019 13/ RMK SF4SC4

CYWG;2011-09-18 11:53;CYWG 181153Z 20008KT 6SM BR BKN004 BKN019 OVC023 13/ RMK SF5SC2SC1

CYWG;2011-09-18 12:00;CYWG 181200Z 20007KT 6SM BR BKN005 OVC019 13/13 A2983 RMK SF6SC2 SLP105

CYWG;2011-09-18 12:29;CYWG 181229Z 19005KT 6SM BR FEW005 BKN022 OVC120 13/ RMK SF2SC6AC1

CYWG;2011-09-18 13:00;CYWG 181300Z 18006KT 6SM BR SCT004 OVC020 13/13 A2982 RMK SF2SC6 SLP102

CYWG;2011-09-18 14:00;CYWG 181400Z 20009KT 8SM SCT005 BKN015 13/13 A2982 RMK SF2SC5 SLP101

CYWG;2011-09-18 15:00;CYWG 181500Z 19008KT 8SM SCT007 SCT020 BKN094 14/14 A2981 RMK SF2SC1AC2 BR SLP098

CYWG;2011-09-18 15:49;CYWG 181549Z 19011KT 10SM BKN009 BKN015 BKN094 15/ RMK SC5SC1AC1

CYWG;2011-09-18 16:00;CYWG 181600Z 18012KT 10SM BKN010 BKN094 BKN240 15/14 A2980 RMK SC5AC2CI1 BR SLP097

CYWG;2011-09-18 17:00;CYWG 181700Z 19012G17KT 15SM BKN014 BKN094 16/14 A2980 RMK SC6AC2 SLP095

CYWG;2011-09-18 18:00;CYWG 181800Z 18016G21KT 15SM SCT017 SCT100 19/14 A2978 RMK SC2AC1 SLP086

CYWG;2011-09-18 19:00;CYWG 181900Z 21011G18KT 15SM SCT027 SCT100 21/14 A2977 RMK SC3AC1 SLP082

CYWG;2011-09-18 20:00;CYWG 182000Z 27012KT 15SM BKN036 22/11 A2975 RMK CU6 SLP077

CYWG;2011-09-18 21:00;CYWG 182100Z 31016G22KT 15SM FEW046 20/09 A2978 RMK CU2 TCU ASOCTD SLP086

CYWG;2011-09-18 22:00;CYWG 182200Z 29012G17KT 15SM BKN049 20/10 A2977 RMK CU6 TCU ASOCTD SLP084

CYWG;2011-09-18 23:00;CYWG 182300Z 31019G25KT 15SM SCT055 19/10 A2980 RMK SC3 SLP092

CYWG;2011-09-19 00:00;CYWG 190000Z 32017G28KT 15SM FEW060 16/06 A2983 RMK SC2 SLP107

CYWG;2011-09-19 01:00;CYWG 190100Z 31010KT 15SM FEW100 13/06 A2986 RMK AC2 SLP114

CYWG;2011-09-19 02:00;CYWG 190200Z 30006KT 15SM FEW100 10/07 A2988 RMK AC2 OBS TAKEN +2 SLP121

CYWG;2011-09-19 03:00;CYWG 190300Z 26005KT 15SM FEW100 09/07 A2988 RMK AC2 SLP125

CYWG;2011-09-19 04:00;CYWG 190400Z 26006KT 15SM SKC 10/07 A2988 RMK SLP125

CYWG;2011-09-19 05:00;CYWG 190500Z 24008KT 15SM SKC 10/07 A2988 RMK SLP125

CYWG;2011-09-19 06:00;CYWG 190600Z 24008KT 15SM SKC 09/06 A2988 RMK SLP122

CYWG;2011-09-19 07:00;CYWG 190700Z 26010KT 15SM SKC 09/06 A2988 RMK SLP122

CYWG;2011-09-19 08:00;CYWG 190800Z 25009KT 15SM SKC 09/05 A2987 RMK SLP119

CYWG;2011-09-19 09:00;CYWG 190900Z 26008KT 15SM SKC 09/05 A2987 RMK SLP119

CYWG;2011-09-19 10:00;CYWG 191000Z 26010KT 15SM SKC 09/05 A2987 RMK SLP120

CYWG;2011-09-19 11:00;CYWG 191100Z 25010KT 15SM SKC 09/05 A2988 RMK SLP121

CYWG;2011-09-19 12:00;CYWG 191200Z 25007KT 15SM FEW100 FEW250 08/05 A2987 RMK AC1CI1 SLP121

CYWG;2011-09-19 13:00;CYWG 191300Z 24007KT 15SM FEW100 SCT250 08/05 A2987 RMK AC1CI2 SLP119

CYWG;2011-09-19 14:00;CYWG 191400Z 25007KT 15SM FEW100 SCT250 10/05 A2987 RMK AC1CI2 SLP118

CYWG;2011-09-19 15:00;CYWG 191500Z 25006KT 15SM FEW100 SCT250 14/06 A2986 RMK AC1CI1 SLP116

CYWG;2011-09-19 16:00;CYWG 191600Z 27007KT 15SM FEW100 FEW250 18/05 A2984 RMK AC1CI1 SLP111

CYWG;2011-09-19 17:00;CYWG 191700Z 23005KT 15SM FEW120 BKN250 19/06 A2983 RMK AC2CI2 SLP108

CYWG;2011-09-19 18:00;CYWG 191800Z 24005KT 15SM FEW120 BKN250 21/04 A2981 RMK AC2CI3 SLP099

CYWG;2011-09-19 19:00;CYWG 191900Z 23004KT 15SM FEW100 BKN250 22/05 A2979 RMK AC2CI3 SLP091

CYWG;2011-09-19 20:00;CYWG 192000Z 26005KT 15SM BKN094 BKN250 22/05 A2977 RMK AC5CI2 SLP085

CYWG;2011-09-19 21:00;CYWG 192100Z 27002KT 15SM BKN092 OVC250 23/04 A2976 RMK AC5CI2 SLP079

CYWG;2011-09-19 22:00;CYWG 192200Z 00000KT 15SM SCT090 BKN250 23/05 A2974 RMK AC3CI3 SLP075

CYWG;2011-09-19 23:00;CYWG 192300Z 03004KT 15SM SCT088 BKN250 21/10 A2973 RMK AC3CI3 SLP071

CYWG;2011-09-20 00:00;CYWG 200000Z 03008KT 15SM SCT088 OVC250 19/08 A2973 RMK AC3CI4 SLP070

CYWG;2011-09-20 01:00;CYWG 200100Z 03007KT 15SM SCT088 OVC250 17/07 A2973 RMK AC3CI4 SLP072

CYWG;2011-09-20 02:00;CYWG 200200Z 03007KT 15SM FEW110 OVC210 16/07 A2974 RMK AC2CI5 SLP074

CYWG;2011-09-20 03:00;CYWG 200300Z 04007KT 15SM SCT110 OVC210 16/06 A2974 RMK AC4CI3 SLP074

CYWG;2011-09-20 04:00;CYWG 200400Z 03006KT 15SM SCT110 BKN210 14/06 A2974 RMK AC4CI2 SLP074

CYWG;2011-09-20 05:00;CYWG 200500Z 02006KT 15SM SCT110 BKN210 13/07 A2974 RMK AC3CI2 SLP075

CYWG;2011-09-20 06:00;CYWG 200600Z 04005KT 15SM BKN099 12/06 A2975 RMK AC6 SLP077

CYWG;2011-09-20 07:00;CYWG 200700Z 03008KT 15SM BKN093 11/07 A2974 RMK AC6 SLP072

CYWG;2011-09-20 08:00;CYWG 200800Z 04008KT 15SM BKN094 11/08 A2973 RMK AC6 SLP070

CYWG;2011-09-20 09:00;CYWG 200900Z 03011KT 15SM BKN096 12/07 A2972 RMK AC6 SLP067

CYWG;2011-09-20 10:00;CYWG 201000Z 04011G16KT 15SM SCT096 BKN120 12/08 A2972 RMK AC3AC4 SLP066

CYWG;2011-09-20 11:00;CYWG 201100Z 04014G19KT 15SM OVC089 13/08 A2970 RMK AC8 SLP061

CYWG;2011-09-20 11:07;CYWG 201107Z 04015KT 15SM -RA OVC082 13/ RMK AC8

CYWG;2011-09-20 12:00;CYWG 201200Z 04014KT 15SM -RA SCT043 OVC076 12/09 A2971 RMK SC3AC4 SLP064

CYWG;2011-09-20 13:00;CYWG 201300Z 03016KT 15SM -RA FEW054 OVC072 12/10 A2969 RMK SC2AC6 SLP058

CYWG;2011-09-20 14:00;CYWG 201400Z 04012KT 15SM -RA OVC038 12/10 A2969 RMK SC8 SLP057

CYWG;2011-09-20 15:00;CYWG 201500Z 03013KT 15SM -RA OVC024 12/10 A2969 RMK SC8 SLP059

CYWG;2011-09-20 16:00;CYWG 201600Z 03012KT 3SM RA OVC014 11/11 A2970 RMK SC8 SLP061

CYWG;2011-09-20 16:38;CYWG 201638Z 03015KT 3SM RA BKN019 OVC065 11/ RMK SC6SC2

CYWG;2011-09-20 17:00;CYWG 201700Z 03016KT 3SM RA OVC018 11/11 A2970 RMK SC8 SLP062

CYWG;2011-09-20 18:00;CYWG 201800Z 03018G27KT 4SM RA SCT019 OVC027 12/12 A2970 RMK SC2SC6 SLP062

CYWG;2011-09-20 19:00;CYWG 201900Z 02022G27KT 4SM -RA FEW019 OVC027 12/12 A2970 RMK SC2SC6 SLP063

CYWG;2011-09-20 19:22;CYWG 201922Z 02019G28KT 6SM -RA BKN010 OVC027 13/ RMK SC6SC2

CYWG;2011-09-20 20:00;CYWG 202000Z 02021KT 3SM -RA OVC015 13/12 A2971 RMK SC8 SLP067

CYWG;2011-09-20 20:38;CYWG 202038Z 03021G29KT 2SM -RA BR BKN018 OVC034 12/ RMK SC6SC2

CYWG;2011-09-20 21:00;CYWG 202100Z 02023G28KT 4SM -RA BR BKN021 OVC035 13/12 A2973 RMK SC6SC2 SLP071

CYWG;2011-09-20 22:00;CYWG 202200Z 02018G25KT 4SM -RA BR BKN025 OVC035 12/12 A2974 RMK SC7SC1 SLP077

CYWG;2011-09-20 23:00;CYWG 202300Z 01019G25KT 4SM -RA BR BKN016 OVC035 12/12 A2977 RMK SC7SC1 SLP084

CYWG;2011-09-20 23:44;CYWG 202344Z 01021G26KT 3SM -RA BR OVC014 12/ RMK SC8

CYWG;2011-09-21 00:00;CYWG 210000Z 02021G31KT 3SM -RA BR OVC011 12/12 A2979 RMK SC8 SLP093

CYWG;2011-09-21 00:40;CYWG 210040Z 01026G32KT 3SM -RA BR OVC018 12/ RMK SC8

CYWG;2011-09-21 01:00;CYWG 210100Z 01023G30KT 3SM -RA BR OVC015 11/11 A2982 RMK SC8 SLP102

CYWG;2011-09-21 01:44;CYWG 210144Z 01024G31KT 4SM -RA BR OVC014 11/ RMK SC8

CYWG;2011-09-21 02:00;CYWG 210200Z 01025G34KT 5SM -RA BR OVC014 11/11 A2985 RMK SC8 SLP112

CYWG;2011-09-21 02:23;CYWG 210223Z 01022G31KT 6SM -RA BR OVC016 11/ RMK SC8

CYWG;2011-09-21 03:00;CYWG 210300Z 01020G32KT 6SM -RA BR OVC019 11/10 A2988 RMK SC8 OBS TAKEN +03 SLP123

CYWG;2011-09-21 03:21;CYWG 210321Z 01019G28KT 4SM -RA BR OVC014 11/ RMK SC8

CYWG;2011-09-21 04:00;CYWG 210400Z 02024G30KT 10SM OVC017 11/10 A2990 RMK SC8 SLP130

CYWG;2011-09-21 05:00;CYWG 210500Z 01022G27KT 15SM OVC017 10/09 A2992 RMK SC8 SLP136

CYWG;2011-09-21 06:00;CYWG 210600Z 01020G27KT 15SM OVC017 10/08 A2993 RMK SC8 SLP143

CYWG;2011-09-21 07:00;CYWG 210700Z 36016G22KT 15SM OVC017 09/07 A2994 RMK SC8 SLP146

CYWG;2011-09-21 08:00;CYWG 210800Z 36018KT 15SM OVC017 08/06 A2996 RMK SC8 SLP151

CYWG;2011-09-21 09:00;CYWG 210900Z 36018KT 15SM BKN017 OVC046 08/06 A2997 RMK SC6SC2 SLP156

CYWG;2011-09-21 10:00;CYWG 211000Z 36016G25KT 15SM OVC017 08/05 A2999 RMK SC8 SLP163

CYWG;2011-09-21 11:00;CYWG 211100Z 35018KT 15SM OVC017 07/05 A3001 RMK SC8 SLP168

CYWG;2011-09-21 12:00;CYWG 211200Z 35016G24KT 15SM OVC017 07/05 A3003 RMK SC8 SLP174

CYWG;2011-09-21 13:00;CYWG 211300Z 35017KT 15SM OVC015 07/05 A3005 RMK SC8 SLP181

CYWG;2011-09-21 13:41;CYWG 211341Z 36015G21KT 8SM -DZ SCT005 OVC015 07/ RMK SF4SC4

CYWG;2011-09-21 13:50;CYWG 211350Z 36015G21KT 5SM -DZ BR SCT005 OVC013 07/ RMK SF4SC4

CYWG;2011-09-21 14:00;CYWG 211400Z 36014G20KT 6SM -DZ BR SCT005 OVC013 07/06 A3006 RMK SF4SC4 SLP187

CYWG;2011-09-21 15:00;CYWG 211500Z 36015G21KT 6SM -DZ BR FEW005 OVC013 07/06 A3009 RMK SF2ST6 SLP195

CYWG;2011-09-21 16:00;CYWG 211600Z 01017G24KT 15SM OVC014 08/07 A3010 RMK SC8 VIS E 6 BR SLP201

CYWG;2011-09-21 16:25;CYWG 211625Z 01020G25KT 15SM OVC016 09/ RMK SC8

CYWG;2011-09-21 17:00;CYWG 211700Z 01018G25KT 15SM OVC020 09/05 A3012 RMK SC8 SLP206

CYWG;2011-09-21 18:00;CYWG 211800Z 36016KT 15SM BKN022 09/05 A3013 RMK SC7 SLP209

CYWG;2011-09-21 19:00;CYWG 211900Z 01019KT 15SM BKN024 11/05 A3013 RMK SC6 SLP209

CYWG;2011-09-21 20:00;CYWG 212000Z 01015G24KT 15SM BKN028 12/05 A3012 RMK SC5 SLP207

CYWG;2011-09-21 21:00;CYWG 212100Z 02014G20KT 15SM SCT033 12/06 A3013 RMK SC4 SLP209

CYWG;2011-09-21 22:00;CYWG 212200Z 02014G19KT 15SM FEW035 12/05 A3013 RMK SC2 SLP211

CYWG;2011-09-21 23:00;CYWG 212300Z 04014KT 15SM FEW035 11/04 A3014 RMK SC1 SLP212

CYWG;2011-09-22 00:00;CYWG 220000Z 03010KT 15SM FEW047 FEW072 10/04 A3016 RMK SC1AC1 SLP219

CYWG;2011-09-22 01:00;CYWG 220100Z 36006KT 15SM FEW047 06/04 A3016 RMK SC1 SLP221

CYWG;2011-09-22 02:00;CYWG 220200Z 34006KT 15SM SKC 03/02 A3017 RMK SLP223

CYWG;2011-09-22 03:00;CYWG 220300Z 32007KT 15SM SKC 03/02 A3016 RMK SLP223

CYWG;2011-09-22 04:00;CYWG 220400Z 36007KT 15SM FEW042 05/02 A3017 RMK SC2 SLP225

CYWG;2011-09-22 05:00;CYWG 220500Z 32005KT 15SM BKN042 03/03 A3018 RMK SC6 SLP228

CYWG;2011-09-22 06:00;CYWG 220600Z 02005KT 15SM BKN040 05/04 A3017 RMK SC6 SLP226

CYWG;2011-09-22 07:00;CYWG 220700Z 03004KT 15SM BKN038 05/04 A3018 RMK SC5 SLP228

CYWG;2011-09-22 08:00;CYWG 220800Z 03005KT 15SM BKN038 05/04 A3018 RMK SC6 SLP229

CYWG;2011-09-22 09:00;CYWG 220900Z 02002KT 15SM FEW038 03/03 A3018 RMK SC2 SLP229

CYWG;2011-09-22 09:38;CYWG 220938Z 03002KT 15SM FEW038 02/ RMK SC1

CYWG;2011-09-22 10:00;CYWG 221000Z 01002KT 15SM SKC 00/M00 A3018 RMK SLP229

CYWG;2011-09-22 11:00;CYWG 221100Z 32005KT 15SM SKC M00/M00 A3019 RMK SLP230

CYWG;2011-09-22 12:00;CYWG 221200Z 05002KT 15SM SKC M01/M01 A3018 RMK SLP231

CYWG;2011-09-22 13:00;CYWG 221300Z 12003KT 15SM FEW093 01/00 A3019 RMK AC1 AC TR SLP232

CYWG;2011-09-22 14:00;CYWG 221400Z 14005KT 15SM FEW095 FEW220 05/02 A3019 RMK AC1CI0 AC TR SLP233

CYWG;2011-09-22 15:00;CYWG 221500Z 15005KT 15SM FEW240 07/02 A3019 RMK CI0 SLP234

CYWG;2011-09-22 16:00;CYWG 221600Z 20004KT 15SM FEW020 FEW240 09/03 A3019 RMK CU1CI0 CU TR SLP235

CYWG;2011-09-22 17:00;CYWG 221700Z 14003KT 15SM FEW025 FEW240 09/04 A3019 RMK CU1CI0 SLP235

CYWG;2011-09-22 18:00;CYWG 221800Z 00000KT 15SM FEW031 10/03 A3018 RMK CU1 SLP228

CYWG;2011-09-22 19:00;CYWG 221900Z 18004KT 15SM FEW031 12/04 A3016 RMK CU1 TR CU SLP222

CYWG;2011-09-22 20:00;CYWG 222000Z 18007KT 15SM SKC 13/04 A3015 RMK COTRA SLP217

CYWG;2011-09-22 21:00;CYWG 222100Z 20006KT 15SM SKC 13/03 A3013 RMK SLP210

CYWG;2011-09-22 22:00;CYWG 222200Z 21008KT 15SM SKC 13/03 A3012 RMK SLP206

CYWG;2011-09-22 23:00;CYWG 222300Z 18008KT 15SM SKC 13/04 A3010 RMK SLP202

CYWG;2011-09-23 00:00;CYWG 230000Z 17007KT 15SM FEW300 11/04 A3009 RMK CI0 SLP200

CYWG;2011-09-23 01:00;CYWG 230100Z 18006KT 15SM FEW300 08/04 A3009 RMK CI0 SLP199

CYWG;2011-09-23 02:00;CYWG 230200Z 18007KT 15SM SKC 07/04 A3009 RMK SLP199

CYWG;2011-09-23 03:00;CYWG 230300Z 18008KT 15SM SKC 08/04 A3009 RMK SLP197

CYWG;2011-09-23 04:00;CYWG 230400Z 18008KT 15SM SKC 08/04 A3009 RMK SLP196

CYWG;2011-09-23 05:00;CYWG 230500Z 18010KT 15SM SKC 07/04 A3008 RMK SLP195

CYWG;2011-09-23 06:00;CYWG 230600Z 18011KT 15SM SKC 07/04 A3007 RMK SLP190

CYWG;2011-09-23 07:00;CYWG 230700Z 18012KT 15SM SKC 06/04 A3006 RMK SLP186

CYWG;2011-09-23 08:00;CYWG 230800Z 18010KT 15SM SKC 06/04 A3006 RMK SLP186

CYWG;2011-09-23 09:00;CYWG 230900Z 18012KT 15SM SKC 06/03 A3004 RMK SLP179

CYWG;2011-09-23 10:00;CYWG 231000Z 18011KT 15SM SKC 06/03 A3003 RMK SLP177

CYWG;2011-09-23 11:00;CYWG 231100Z 18009KT 15SM SKC 06/03 A3004 RMK SLP179

CYWG;2011-09-23 12:00;CYWG 231200Z 17015KT 15SM SCT074 BKN250 06/03 A2999 RMK AC3CI1 SLP165

CYWG;2011-09-23 13:00;CYWG 231300Z 17012G17KT 15SM FEW075 BKN250 07/03 A2999 RMK AC2CI2 SLP163

CYWG;2011-09-23 14:00;CYWG 231400Z 17014KT 15SM SCT250 09/04 A2997 RMK CI2 SLP158

CYWG;2011-09-23 15:00;CYWG 231500Z 18014KT 15SM BKN250 12/05 A2998 RMK CI2 SLP158

CYWG;2011-09-23 16:00;CYWG 231600Z 17017KT 15SM BKN250 13/06 A2997 RMK CI3 SLP155

CYWG;2011-09-23 17:00;CYWG 231700Z 17014G20KT 15SM BKN250 16/07 A2997 RMK CI2 SLP155

CYWG;2011-09-23 18:00;CYWG 231800Z 18019KT 15SM SCT250 18/06 A2994 RMK CI2 SLP145

CYWG;2011-09-23 19:00;CYWG 231900Z 18020KT 15SM SCT250 20/06 A2993 RMK CI1 SLP141

CYWG;2011-09-23 20:00;CYWG 232000Z 18018KT 15SM BKN250 20/06 A2993 RMK CI1 SLP139

CYWG;2011-09-23 21:00;CYWG 232100Z 18020G25KT 15SM SCT250 20/06 A2991 RMK CI1 SLP134

CYWG;2011-09-23 22:00;CYWG 232200Z 18019G24KT 15SM SCT250 20/06 A2991 RMK CI1 SLP134

CYWG;2011-09-23 23:00;CYWG 232300Z 18015G21KT 15SM SCT250 19/07 A2993 RMK CI1 SLP138

CYWG;2011-09-24 00:00;CYWG 240000Z 18012KT 15SM BKN250 17/07 A2993 RMK CI2 SLP139

CYWG;2011-09-24 01:00;CYWG 240100Z 16009KT 15SM BKN250 15/07 A2994 RMK CI2 SLP143

CYWG;2011-09-24 02:00;CYWG 240200Z 16010KT 15SM SCT250 14/07 A2995 RMK CI1 SLP146

CYWG;2011-09-24 03:00;CYWG 240300Z 16010KT 15SM SKC 14/06 A2995 RMK SLP147

CYWG;2011-09-24 04:00;CYWG 240400Z 16012KT 15SM SKC 13/06 A2994 RMK SLP145

CYWG;2011-09-24 05:00;CYWG 240500Z 18013KT 15SM SKC 13/05 A2995 RMK SLP147

CYWG;2011-09-24 06:00;CYWG 240600Z 17012KT 15SM SKC 12/06 A2995 RMK SLP145

CYWG;2011-09-24 07:00;CYWG 240700Z 18011KT 15SM SKC 11/06 A2995 RMK SLP145

CYWG;2011-09-24 08:00;CYWG 240800Z 18012KT 15SM SKC 11/05 A2994 RMK SLP142

CYWG;2011-09-24 09:00;CYWG 240900Z 18011KT 15SM SKC 10/05 A2994 RMK SLP141

CYWG;2011-09-24 10:00;CYWG 241000Z 18011KT 15SM SKC 10/05 A2994 RMK SLP142

CYWG;2011-09-24 11:00;CYWG 241100Z 18013KT 15SM FEW230 10/05 A2994 RMK CI0 SLP141

CYWG;2011-09-24 12:00;CYWG 241200Z 18010KT 15SM SCT230 09/05 A2995 RMK CI1 SLP148

CYWG;2011-09-24 13:00;CYWG 241300Z 17015KT 15SM BKN230 09/06 A2995 RMK CI2 SLP148

CYWG;2011-09-24 14:00;CYWG 241400Z 18012KT 15SM BKN230 10/07 A2997 RMK CI2 SLP154

CYWG;2011-09-24 15:00;CYWG 241500Z 18016KT 15SM BKN230 12/07 A2996 RMK CI2 SLP152

CYWG;2011-09-24 16:00;CYWG 241600Z 18016KT 15SM SCT230 14/08 A2997 RMK CI1 SLP153

CYWG;2011-09-24 17:00;CYWG 241700Z 17016KT 15SM SCT230 16/09 A2996 RMK CI1 SLP149

CYWG;2011-09-24 18:00;CYWG 241800Z 17015KT 15SM FEW240 18/09 A2995 RMK CI0 SLP145

CYWG;2011-09-24 19:00;CYWG 241900Z 17013G21KT 15SM FEW240 21/09 A2994 RMK CI0 SLP142

CYWG;2011-09-24 20:00;CYWG 242000Z 17016G21KT 15SM SKC 22/09 A2992 RMK SLP135

CYWG;2011-09-24 21:00;CYWG 242100Z 18018G24KT 15SM FEW040 FEW250 22/07 A2991 RMK SC1CI1 SLP131

CYWG;2011-09-24 22:00;CYWG 242200Z 18015G21KT 15SM FEW250 22/07 A2991 RMK CI1 SLP131

CYWG;2011-09-24 23:00;CYWG 242300Z 18015KT 15SM FEW250 21/07 A2991 RMK CI0 SLP132

CYWG;2011-09-25 00:00;CYWG 250000Z 18012KT 15SM SKC 19/07 A2991 RMK SLP133

CYWG;2011-09-25 01:00;CYWG 250100Z 17009KT 15SM FEW250 16/07 A2991 RMK CI1 SLP134

CYWG;2011-09-25 02:00;CYWG 250200Z 16009KT 15SM FEW250 14/07 A2991 RMK CI1 SLP133

CYWG;2011-09-25 03:00;CYWG 250300Z 16007KT 15SM SKC 12/07 A2992 RMK SLP137

CYWG;2011-09-25 04:00;CYWG 250400Z 17010KT 15SM SKC 14/07 A2992 RMK SLP136

CYWG;2011-09-25 05:00;CYWG 250500Z 18011G16KT 15SM SKC 14/06 A2991 RMK SLP134

CYWG;2011-09-25 06:00;CYWG 250600Z 18013KT 15SM SKC 13/07 A2992 RMK SLP134

CYWG;2011-09-25 07:00;CYWG 250700Z 18014G19KT 15SM SKC 13/07 A2991 RMK SLP132

CYWG;2011-09-25 08:00;CYWG 250800Z 18010G15KT 15SM SKC 11/07 A2991 RMK SLP133

CYWG;2011-09-25 09:00;CYWG 250900Z 18012KT 15SM SKC 11/08 A2991 RMK SLP130

CYWG;2011-09-25 10:00;CYWG 251000Z 18011KT 15SM SKC 10/08 A2991 RMK SLP130

CYWG;2011-09-25 11:00;CYWG 251100Z 17011KT 15SM SKC 10/08 A2991 RMK SLP132

CYWG;2011-09-25 12:00;CYWG 251200Z 16011KT 15SM SKC 10/08 A2991 RMK SLP133

CYWG;2011-09-25 13:00;CYWG 251300Z 16013KT 15SM SKC 10/08 A2992 RMK SLP135

CYWG;2011-09-25 14:00;CYWG 251400Z 17013G18KT 15SM SKC 11/08 A2992 RMK SLP136

CYWG;2011-09-25 15:00;CYWG 251500Z 18015KT 15SM SKC 14/08 A2992 RMK SLP137

CYWG;2011-09-25 16:00;CYWG 251600Z 17012G18KT 15SM SKC 17/09 A2992 RMK SLP137

CYWG;2011-09-25 17:00;CYWG 251700Z 16014KT 15SM SKC 19/09 A2993 RMK SLP139

CYWG;2011-09-25 18:00;CYWG 251800Z 17017G22KT 15SM SKC 20/09 A2993 RMK SLP137

CYWG;2011-09-25 19:00;CYWG 251900Z 16017G22KT 15SM FEW300 21/08 A2992 RMK CI1 SLP135

CYWG;2011-09-25 20:00;CYWG 252000Z 17015G22KT 15SM FEW300 22/08 A2992 RMK CI1 CONTRAILS SLP133

CYWG;2011-09-25 21:00;CYWG 252100Z 16014G20KT 15SM FEW300 22/07 A2991 RMK CI1 CONTRAILS SLP130

CYWG;2011-09-25 22:00;CYWG 252200Z 17014KT 15SM FEW300 22/07 A2991 RMK CI1 CONTRAIL SLP130

CYWG;2011-09-25 23:00;CYWG 252300Z 17014KT 15SM FEW300 20/07 A2991 RMK CI1 SLP131

CYWG;2011-09-26 00:00;CYWG 260000Z 16009KT 15SM FEW300 18/07 A2991 RMK CI1 SLP134

CYWG;2011-09-26 01:00;CYWG 260100Z 15009KT 15SM FEW300 15/07 A2992 RMK CI1 SLP135

CYWG;2011-09-26 02:00;CYWG 260200Z 15009KT 15SM SKC 14/07 A2993 RMK SLP138

CYWG;2011-09-26 03:00;CYWG 260300Z 15011KT 15SM SKC 15/07 A2993 RMK SLP141

CYWG;2011-09-26 04:00;CYWG 260400Z 16009KT 15SM SKC 14/09 A2995 RMK SLP145

CYWG;2011-09-26 05:00;CYWG 260500Z 15008KT 15SM SKC 13/09 A2996 RMK SLP148

CYWG;2011-09-26 06:00;CYWG 260600Z 17011G16KT 15SM SKC 13/09 A2996 RMK SLP148

CYWG;2011-09-26 07:00;CYWG 260700Z 17012KT 15SM SKC 12/09 A2996 RMK SLP149

CYWG;2011-09-26 08:00;CYWG 260800Z 18011KT 15SM SKC 11/09 A2996 RMK SLP150

CYWG;2011-09-26 09:00;CYWG 260900Z 18011KT 15SM SKC 11/09 A2996 RMK SLP148

CYWG;2011-09-26 10:00;CYWG 261000Z 18010KT 15SM SKC 10/08 A2997 RMK SLP152

CYWG;2011-09-26 11:00;CYWG 261100Z 18009KT 15SM SKC 09/08 A2998 RMK SLP156

CYWG;2011-09-26 12:00;CYWG 261200Z 17008KT 15SM FEW240 08/07 A2999 RMK CI1 SLP161

CYWG;2011-09-26 13:00;CYWG 261300Z 17009KT 15SM SCT240 09/08 A3000 RMK CI1 CC ASOCTD SLP164

CYWG;2011-09-26 14:00;CYWG 261400Z 17013KT 15SM SCT240 11/09 A3000 RMK CI1 OBS TAKEN +05 SLP164

CYWG;2011-09-26 15:00;CYWG 261500Z 17011KT 15SM SCT240 13/09 A3001 RMK CI1 SLP166

CYWG;2011-09-26 16:00;CYWG 261600Z 18014KT 15SM SCT240 16/10 A3000 RMK CI1 CC ASOCTD SLP163

CYWG;2011-09-26 17:00;CYWG 261700Z 18010G16KT 15SM SCT240 18/11 A2999 RMK CI1 SLP161

CYWG;2011-09-26 18:00;CYWG 261800Z 20014KT 15SM FEW240 19/10 A2997 RMK CI1 SLP152

CYWG;2011-09-26 19:00;CYWG 261900Z 19016KT 15SM FEW240 20/08 A2995 RMK CI1 COTRA SLP145

CYWG;2011-09-26 20:00;CYWG 262000Z 19016KT 15SM FEW240 21/08 A2993 RMK CI1 COTRA SLP139

CYWG;2011-09-26 21:00;CYWG 262100Z 19015KT 15SM FEW240 21/08 A2992 RMK CI2 COTRA SLP134

CYWG;2011-09-26 22:00;CYWG 262200Z 19014KT 15SM FEW240 21/08 A2991 RMK CI2 SLP132

CYWG;2011-09-26 23:00;CYWG 262300Z 18011G19KT 15SM FEW240 20/09 A2990 RMK CI2 SLP129

CYWG;2011-09-27 00:00;CYWG 270000Z 18011G16KT 15SM FEW088 SCT240 19/09 A2991 RMK AC2CC1 SLP132

CYWG;2011-09-27 01:00;CYWG 270100Z 18010KT 15SM FEW088 SCT240 17/10 A2990 RMK AC2CC1 SLP131

CYWG;2011-09-27 02:00;CYWG 270200Z 17011KT 15SM SCT240 16/10 A2989 RMK CI3 SLP127

CYWG;2011-09-27 03:00;CYWG 270300Z 18011KT 15SM SCT240 16/10 A2990 RMK CI2 SLP127

CYWG;2011-09-27 04:00;CYWG 270400Z 19010KT 15SM SCT240 16/09 A2988 RMK CI2 SLP122

CYWG;2011-09-27 05:00;CYWG 270500Z 19012KT 15SM SCT230 16/09 A2988 RMK CI2 SLP122

CYWG;2011-09-27 06:00;CYWG 270600Z 19012KT 15SM FEW230 15/09 A2988 RMK CI2 SLP120

CYWG;2011-09-27 07:00;CYWG 270700Z 19011KT 15SM SKC 14/09 A2987 RMK SLP118

CYWG;2011-09-27 08:00;CYWG 270800Z 18010KT 15SM SKC 13/09 A2987 RMK SLP118

CYWG;2011-09-27 09:00;CYWG 270900Z 19007KT 15SM SKC 13/09 A2987 RMK SLP117

CYWG;2011-09-27 10:00;CYWG 271000Z 20007KT 15SM SKC 12/09 A2987 RMK SLP118

CYWG;2011-09-27 11:00;CYWG 271100Z 17008KT 15SM SKC 10/08 A2987 RMK SLP119

CYWG;2011-09-27 12:00;CYWG 271200Z 19008KT 15SM SKC 10/08 A2987 RMK SLP120

CYWG;2011-09-27 13:00;CYWG 271300Z 21008KT 15SM SKC 11/09 A2989 RMK SLP124

CYWG;2011-09-27 14:00;CYWG 271400Z 21006KT 15SM FEW280 12/09 A2989 RMK CI0 SLP125

CYWG;2011-09-27 15:00;CYWG 271500Z 24004KT 15SM FEW280 15/10 A2989 RMK CI1 SLP125

CYWG;2011-09-27 16:00;CYWG 271600Z 22004KT 15SM FEW280 17/11 A2990 RMK CI1 SLP127

CYWG;2011-09-27 17:00;CYWG 271700Z 22006KT 15SM FEW280 20/11 A2989 RMK CI0 SLP124

CYWG;2011-09-27 18:00;CYWG 271800Z 22005KT 15SM SCT280 23/12 A2987 RMK CI1 SLP118

CYWG;2011-09-27 19:00;CYWG 271900Z 21005KT 15SM BKN280 24/12 A2985 RMK CI2 SLP110

CYWG;2011-09-27 20:00;CYWG 272000Z 23005KT 15SM BKN300 25/10 A2983 RMK CI2 SLP102

CYWG;2011-09-27 21:00;CYWG 272100Z 24004KT 15SM BKN300 26/10 A2981 RMK CI4 COTRA SLP097

CYWG;2011-09-27 22:00;CYWG 272200Z 22005KT 15SM SCT300 26/10 A2980 RMK CI3 SLP094

CYWG;2011-09-27 23:00;CYWG 272300Z 17006KT 15SM SCT300 25/10 A2980 RMK CI2 SLP091

CYWG;2011-09-28 00:00;CYWG 280000Z 19004KT 15SM FEW300 23/09 A2980 RMK CI1 SLP092

CYWG;2011-09-28 01:00;CYWG 280100Z 19004KT 15SM SKC 20/08 A2979 RMK SLP091

CYWG;2011-09-28 02:00;CYWG 280200Z 18008KT 15SM SKC 18/09 A2978 RMK SLP088

CYWG;2011-09-28 03:00;CYWG 280300Z 18009KT 15SM SKC 17/09 A2978 RMK SLP087

CYWG;2011-09-28 04:00;CYWG 280400Z 18009KT 15SM SKC 16/09 A2977 RMK SLP085

CYWG;2011-09-28 05:00;CYWG 280500Z 19008KT 15SM SKC 15/09 A2977 RMK AURBO SLP082

CYWG;2011-09-28 06:00;CYWG 280600Z 19009KT 15SM SKC 15/08 A2974 RMK SLP074

CYWG;2011-09-28 07:00;CYWG 280700Z 19007KT 15SM FEW280 15/08 A2974 RMK CI0 SLP072

CYWG;2011-09-28 08:00;CYWG 280800Z 19008KT 15SM FEW280 14/07 A2973 RMK CI0 SLP068

CYWG;2011-09-28 09:00;CYWG 280900Z 19008KT 15SM SKC 14/07 A2971 RMK SLP062

CYWG;2011-09-28 10:00;CYWG 281000Z 17006KT 15SM SKC 11/07 A2971 RMK SLP061

CYWG;2011-09-28 11:00;CYWG 281100Z 17006KT 15SM SKC 11/08 A2970 RMK SLP059

CYWG;2011-09-28 12:00;CYWG 281200Z 20008KT 15SM FEW140 FEW250 12/07 A2971 RMK AC1CI0 SLP063

CYWG;2011-09-28 13:00;CYWG 281300Z 21003KT 15SM FEW140 BKN250 12/08 A2972 RMK AC1CI1 SLP067

CYWG;2011-09-28 14:00;CYWG 281400Z 21008KT 15SM FEW140 OVC250 14/09 A2971 RMK AC1CI2 SLP063

CYWG;2011-09-28 15:00;CYWG 281500Z 26006KT 15SM FEW140 OVC250 17/10 A2972 RMK AC2CI2 SLP066

CYWG;2011-09-28 16:00;CYWG 281600Z 27004KT 15SM FEW140 BKN250 20/12 A2972 RMK AC2CI1 SLP065

CYWG;2011-09-28 17:00;CYWG 281700Z 29010KT 15SM FEW140 SCT170 BKN250 22/11 A2971 RMK AC2AC2CI2 SLP064

CYWG;2011-09-28 18:00;CYWG 281800Z 28013KT 15SM FEW140 SCT170 OVC250 23/11 A2971 RMK AC1AC2CI2 SLP062

CYWG;2011-09-28 19:00;CYWG 281900Z 30015KT 15SM BKN099 BKN250 20/11 A2972 RMK AC5CI1 SLP066

CYWG;2011-09-28 20:00;CYWG 282000Z 30014KT 15SM FEW100 SCT260 22/12 A2973 RMK AC2CI0 SLP069

CYWG;2011-09-28 21:00;CYWG 282100Z 36009KT 15SM FEW100 FEW260 23/12 A2972 RMK AC1CI0 SLP065

CYWG;2011-09-28 22:00;CYWG 282200Z 35011G16KT 15SM FEW090 24/10 A2973 RMK AC1 SLP068

CYWG;2011-09-28 23:00;CYWG 282300Z 32008KT 15SM FEW090 22/10 A2975 RMK AC1 SLP074

CYWG;2011-09-29 00:00;CYWG 290000Z 32012KT 15SM FEW050 FEW090 19/10 A2976 RMK SC1AC1 SLP079

CYWG;2011-09-29 01:00;CYWG 290100Z 31014KT 15SM FEW045 SCT092 18/08 A2978 RMK SC2AC1 SLP088

CYWG;2011-09-29 02:00;CYWG 290200Z 34016G21KT 15SM FEW040 SCT075 17/08 A2979 RMK SC2AC2 SLP090

CYWG;2011-09-29 03:00;CYWG 290300Z 29011G22KT 10SM RA OVC076 15/11 A2983 RMK AC8 SLP105

CYWG;2011-09-29 03:24;CYWG 290324Z 24002KT 15SM OVC031 14/ RMK SC8

CYWG;2011-09-29 04:00;CYWG 290400Z 21004KT 15SM BKN052 OVC080 13/12 A2982 RMK SC6AC2 SLP102

CYWG;2011-09-29 05:00;CYWG 290500Z 35014G22KT 15SM BKN061 13/10 A2984 RMK SC6 SLP108

CYWG;2011-09-29 06:00;CYWG 290600Z 32005KT 15SM BKN070 10/08 A2985 RMK AC5 SLP110

CYWG;2011-09-29 07:00;CYWG 290700Z 32018KT 15SM OVC065 12/09 A2989 RMK SC8 PRESRR SLP125

CYWG;2011-09-29 07:32;CYWG 290732Z 32013G18KT 10SM -RA BKN042 OVC090 12/ RMK SC5AC3

CYWG;2011-09-29 08:00;CYWG 290800Z 33012KT 15SM SCT050 OVC099 12/09 A2989 RMK SC3AC5 SLP123

CYWG;2011-09-29 09:00;CYWG 290900Z 33009KT 15SM BKN086 11/09 A2990 RMK AC6 SLP129

CYWG;2011-09-29 10:00;CYWG 291000Z 35012KT 15SM FEW010 BKN040 OVC084 11/09 A2993 RMK SF1SC5AC3 SLP139

CYWG;2011-09-29 11:00;CYWG 291100Z 34008KT 15SM BKN060 11/09 A2997 RMK SC6 SLP150

CYWG;2011-09-29 12:00;CYWG 291200Z 31012KT 15SM SCT060 10/09 A3000 RMK SC4 SLP162

CYWG;2011-09-29 13:00;CYWG 291300Z 32017KT 15SM FEW025 SCT071 BKN240 11/09 A3003 RMK SC1AC3CI1 SC TR SLP171

CYWG;2011-09-29 14:00;CYWG 291400Z CCA 33017G24KT 15SM FEW020 BKN075 BKN087 BKN240 12/10 A3006 RMK SF1AC4ACC1CI1 ACC W SLP181

CYWG;2011-09-29 15:00;CYWG 291500Z 34019G27KT 15SM BKN018 BKN087 13/10 A3009 RMK SF5AC2 SLP195

CYWG;2011-09-29 16:00;CYWG 291600Z 34022G30KT 15SM BKN021 14/10 A3012 RMK SC6 SLP205

CYWG;2011-09-29 17:00;CYWG 291700Z 34022G28KT 15SM BKN023 14/09 A3015 RMK SC6 SLP213

CYWG;2011-09-29 18:00;CYWG 291800Z 34020G28KT 15SM BKN029 15/08 A3015 RMK SC6 SLP215

CYWG;2011-09-29 19:00;CYWG 291900Z 34018G25KT 15SM BKN035 15/08 A3017 RMK SC7 SLP222

CYWG;2011-09-29 20:00;CYWG 292000Z 35019G24KT 15SM BKN033 15/08 A3019 RMK SC7 SLP230

CYWG;2011-09-29 21:00;CYWG 292100Z 33022KT 15SM BKN036 16/07 A3021 RMK SC5 SLP235

CYWG;2011-09-29 22:00;CYWG 292200Z 33019G24KT 15SM FEW043 15/05 A3021 RMK SC2 SLP235

CYWG;2011-09-29 23:00;CYWG 292300Z 34014G22KT 15SM FEW047 15/05 A3023 RMK SC1 SLP242

CYWG;2011-09-30 00:00;CYWG 300000Z 36008KT 15SM FEW047 12/05 A3024 RMK SC1 SLP247

CYWG;2011-09-30 01:00;CYWG 300100Z 02008KT 15SM SKC 09/03 A3025 RMK SLP251

CYWG;2011-09-30 02:00;CYWG 300200Z 01007KT 15SM SKC 07/02 A3028 RMK SLP259

CYWG;2011-09-30 03:00;CYWG 300300Z 36007KT 15SM SKC 06/03 A3030 RMK SLP267

CYWG;2011-09-30 04:00;CYWG 300400Z 36006KT 15SM SKC 04/02 A3030 RMK SLP269

CYWG;2011-09-30 05:00;CYWG 300500Z 36007KT 15SM SKC 05/03 A3030 RMK SLP269

CYWG;2011-09-30 06:00;CYWG 300600Z 36006KT 15SM SCT120 05/03 A3030 RMK AC1 SLP269

CYWG;2011-09-30 07:00;CYWG 300700Z 02005KT 15SM SKC 03/02 A3031 RMK SLP270

CYWG;2011-09-30 08:00;CYWG 300800Z 03004KT 15SM SKC 02/01 A3032 RMK SLP274

CYWG;2011-09-30 09:00;CYWG 300900Z 36002KT 15SM SKC M00/M00 A3032 RMK SLP275

CYWG;2011-09-30 10:00;CYWG 301000Z 07002KT 15SM SKC M02/M02 A3032 RMK SLP276

CYWG;2011-09-30 11:00;CYWG 301100Z 00000KT 15SM SKC M01/M01 A3033 RMK SLP278

CYWG;2011-09-30 12:00;CYWG 301200Z 29005KT 15SM FEW250 M04/M04 A3033 RMK CI0 SLP283

CYWG;2011-09-30 13:00;CYWG 301300Z 32003KT 15SM FEW250 M03/M04 A3034 RMK CI0 SLP284

CYWG;2011-09-30 14:00;CYWG 301400Z 00000KT 15SM FEW250 01/01 A3034 RMK CI0 SLP284

CYWG;2011-09-30 15:00;CYWG 301500Z 11005KT 15SM FEW250 08/02 A3035 RMK CI0 SLP285

CYWG;2011-09-30 16:00;CYWG 301600Z 14008KT 15SM FEW250 09/01 A3034 RMK CI0 SLP283

CYWG;2011-09-30 17:00;CYWG 301700Z 14008KT 15SM FEW250 10/M00 A3032 RMK CI0 SLP275

CYWG;2011-09-30 18:00;CYWG 301800Z 12008KT 15SM FEW250 11/00 A3030 RMK CI0 SLP269

CYWG;2011-09-30 19:00;CYWG 301900Z 14010KT 15SM FEW250 13/00 A3027 RMK CI0 SLP259

CYWG;2011-09-30 20:00;CYWG 302000Z 15011KT 15SM FEW250 13/M00 A3024 RMK CI0 SLP250

CYWG;2011-09-30 21:00;CYWG 302100Z 17010KT 15SM FEW250 14/M00 A3022 RMK CI0 SLP244

CYWG;2011-09-30 22:00;CYWG 302200Z 16012KT 15SM FEW250 14/01 A3019 RMK CI0 SLP233

CYWG;2011-09-30 23:00;CYWG 302300Z 16010G15KT 15SM SKC 13/01 A3017 RMK SLP227

CYWG;2011-10-01 01:00;CYWG 010100Z 16008KT 15SM SKC 08/01 A3015 RMK SLP219

CYWG;2011-10-01 02:00;CYWG 010200Z 15010KT 15SM SKC 09/01 A3014 RMK SLP216

CYWG;2011-10-01 03:00;CYWG 010300Z 16014G19KT 15SM SKC 09/M00 A3013 RMK SLP210

CYWG;2011-10-01 04:00;CYWG 010400Z 16012KT 15SM SKC 08/00 A3012 RMK SLP208

CYWG;2011-10-01 05:00;CYWG 010500Z 16015G20KT 15SM SKC 08/01 A3011 RMK SLP204

CYWG;2011-10-01 06:00;CYWG 010600Z 18014G20KT 15SM SKC 08/00 A3009 RMK SLP198

CYWG;2011-10-01 07:00;CYWG 010700Z 18014G19KT 15SM SKC 08/00 A3009 RMK SLP195

CYWG;2011-10-01 08:00;CYWG 010800Z 17015KT 15SM SKC 07/01 A3006 RMK SLP188

CYWG;2011-10-01 09:00;CYWG 010900Z 18017G26KT 15SM SKC 07/01 A3005 RMK SLP182

CYWG;2011-10-01 10:00;CYWG 011000Z 18018G25KT 15SM SKC 08/01 A3003 RMK SLP177

CYWG;2011-10-01 11:00;CYWG 011100Z 18021KT 15SM SKC 07/01 A3001 RMK SLP170

CYWG;2011-10-01 12:00;CYWG 011200Z 18019G26KT 15SM FEW250 07/01 A3000 RMK CI0 SLP167

CYWG;2011-10-01 13:00;CYWG 011300Z 18022G28KT 15SM SCT250 07/01 A2999 RMK CI1 SLP162

CYWG;2011-10-01 14:00;CYWG 011400Z 18023G29KT 15SM FEW250 08/02 A2998 RMK CI0 SLP158

CYWG;2011-10-01 15:00;CYWG 011500Z 19023G30KT 15SM BKN250 11/02 A2996 RMK CI1 SLP152

CYWG;2011-10-01 16:00;CYWG 011600Z 19029G35KT 15SM BKN250 13/02 A2995 RMK CI1 SLP148

CYWG;2011-10-01 17:00;CYWG 011700Z 18027G34KT 15SM BKN250 15/03 A2992 RMK CI1 SLP139

CYWG;2011-10-01 18:00;CYWG 011800Z 18021G29KT 15SM BKN250 17/04 A2991 RMK CI1 SLP133

CYWG;2011-10-01 19:00;CYWG 011900Z 18023G30KT 15SM FEW250 19/05 A2990 RMK CI0 SLP131

CYWG;2011-10-01 20:00;CYWG 012000Z 19021KT 15SM FEW250 21/05 A2990 RMK CI1 SLP130

CYWG;2011-10-01 21:00;CYWG 012100Z 20021KT 15SM SCT250 22/06 A2989 RMK CI0 SLP125

CYWG;2011-10-01 22:00;CYWG 012200Z 19014G22KT 15SM BKN250 22/06 A2989 RMK CI1 SLP124

CYWG;2011-10-01 23:00;CYWG 012300Z 19010KT 15SM BKN250 21/08 A2990 RMK CI1 SLP128

CYWG;2011-10-02 00:00;CYWG 020000Z 20010KT 15SM SCT250 20/07 A2992 RMK CI1 SLP135

CYWG;2011-10-02 01:00;CYWG 020100Z 18006KT 15SM SCT250 15/07 A2993 RMK CI1 SLP138

CYWG;2011-10-02 02:00;CYWG 020200Z 18008KT 15SM FEW250 15/06 A2993 RMK CI1 SLP140

CYWG;2011-10-02 03:00;CYWG 020300Z 18007KT 15SM FEW250 14/06 A2995 RMK CI1 SLP148

CYWG;2011-10-02 04:00;CYWG 020400Z 18007KT 15SM SKC 13/06 A2996 RMK SLP150

CYWG;2011-10-02 05:00;CYWG 020500Z 29002KT 15SM SKC 11/06 A2998 RMK SLP156

CYWG;2011-10-02 06:00;CYWG 020600Z 06004KT 15SM SKC 08/05 A2998 RMK SLP157

CYWG;2011-10-02 07:00;CYWG 020700Z 07005KT 15SM SKC 09/06 A2999 RMK SLP161

CYWG;2011-10-02 08:00;CYWG 020800Z 12005KT 15SM SKC 08/06 A3000 RMK SLP163

CYWG;2011-10-02 09:00;CYWG 020900Z 12004KT 15SM SKC 09/06 A3000 RMK SLP164

CYWG;2011-10-02 10:00;CYWG 021000Z 13002KT 15SM SKC 08/05 A3000 RMK SLP163

CYWG;2011-10-02 11:00;CYWG 021100Z 07003KT 15SM FEW120 06/05 A3002 RMK AC1 SLP169

CYWG;2011-10-02 12:00;CYWG 021200Z 05004KT 15SM SCT120 06/05 A3004 RMK AC3 SLP176

CYWG;2011-10-02 13:00;CYWG 021300Z 04003KT 15SM FEW120 SCT250 07/05 A3005 RMK AC2CI1 SLP180

CYWG;2011-10-02 14:00;CYWG 021400Z 11007KT 15SM FEW120 FEW250 10/07 A3003 RMK AC1CI0 SLP173

CYWG;2011-10-02 15:00;CYWG 021500Z 15008KT 15SM FEW120 SCT250 14/06 A3002 RMK AC2CI0 SLP169

CYWG;2011-10-02 16:00;CYWG 021600Z 13009KT 15SM FEW120 FEW250 15/07 A3002 RMK AC2CI0 SLP170

CYWG;2011-10-02 17:00;CYWG 021700Z 12011KT 15SM FEW120 SCT250 18/07 A3001 RMK AC2CI1 SLP166

CYWG;2011-10-02 18:00;CYWG 021800Z 12012KT 15SM FEW120 FEW250 20/08 A3001 RMK AC1CI1 SLP166

CYWG;2011-10-02 19:00;CYWG 021900Z 09007KT 15SM FEW120 21/08 A3000 RMK AC2 SLP165

CYWG;2011-10-02 20:00;CYWG 022000Z 13008G15KT 15SM FEW120 23/09 A2997 RMK AC2 SLP153

CYWG;2011-10-02 21:00;CYWG 022100Z 12011KT 15SM SCT090 23/08 A2996 RMK AC3 SLP148

CYWG;2011-10-02 22:00;CYWG 022200Z 12012KT 15SM BKN090 23/09 A2995 RMK AC5 SLP144

CYWG;2011-10-02 23:00;CYWG 022300Z 10008KT 15SM BKN100 BKN250 22/10 A2995 RMK AC5CI1 SLP144

CYWG;2011-10-03 00:00;CYWG 030000Z 11007KT 15SM BKN100 19/10 A2995 RMK AC5 SLP147

CYWG;2011-10-03 01:00;CYWG 030100Z 12012KT 15SM SCT100 20/10 A2995 RMK AC3 SLP146

CYWG;2011-10-03 02:00;CYWG 030200Z 13012KT 15SM FEW100 19/09 A2994 RMK AC2 SLP143

CYWG;2011-10-03 03:00;CYWG 030300Z 13008KT 15SM SCT100 17/09 A2995 RMK AC3 SLP144

CYWG;2011-10-03 04:00;CYWG 030400Z 11007KT 15SM FEW100 17/09 A2996 RMK AC2 SLP147

CYWG;2011-10-03 05:00;CYWG 030500Z 15009KT 15SM FEW100 16/09 A2996 RMK AC2 SLP149

CYWG;2011-10-03 06:00;CYWG 030600Z 14008KT 15SM FEW100 13/09 A2995 RMK AC2 SLP146

CYWG;2011-10-03 07:00;CYWG 030700Z 16007KT 15SM FEW100 FEW250 13/09 A2995 RMK AC1CI1 SLP146

CYWG;2011-10-03 08:00;CYWG 030800Z 17012KT 15SM FEW100 SCT250 14/09 A2995 RMK AC1CI1 SLP145

CYWG;2011-10-03 09:00;CYWG 030900Z 18012KT 15SM FEW100 FEW250 14/08 A2995 RMK AC1CI1 SLP143

CYWG;2011-10-03 10:00;CYWG 031000Z 18008KT 15SM FEW100 FEW250 13/08 A2996 RMK AC1CI1 SLP146

CYWG;2011-10-03 11:00;CYWG 031100Z 19006KT 15SM FEW100 FEW250 12/07 A2998 RMK AC1CI1 SLP155

CYWG;2011-10-03 12:00;CYWG 031200Z 00000KT 15SM FEW100 FEW250 10/07 A3000 RMK AC1CI1 SLP162

CYWG;2011-10-03 13:00;CYWG 031300Z 13003KT 15SM FEW100 BKN250 07/06 A3001 RMK AC1CI1 SLP166

CYWG;2011-10-03 14:00;CYWG 031400Z 27003KT 15SM FEW075 BKN250 13/08 A3002 RMK AC1CI1 SLP169

CYWG;2011-10-03 15:00;CYWG 031500Z 19007KT 15SM FEW075 BKN270 15/09 A3000 RMK AC1CI1 SLP164

CYWG;2011-10-03 16:00;CYWG 031600Z 27008KT 15SM FEW094 SCT220 BKN300 17/10 A3003 RMK AC1CI1CI0 SLP173

CYWG;2011-10-03 17:00;CYWG 031700Z 28003KT 15SM FEW095 BKN220 BKN300 18/10 A3004 RMK AC1CI1CI0 SLP175

CYWG;2011-10-03 18:00;CYWG 031800Z 36004KT 15SM FEW100 BKN220 BKN300 19/11 A3003 RMK AC1CI1CI0 SLP173

CYWG;2011-10-03 19:00;CYWG 031900Z 02004KT 15SM SCT200 BKN300 21/10 A3003 RMK CI3CI2 SLP173

CYWG;2011-10-03 20:00;CYWG 032000Z 07003KT 15SM FEW100 SCT200 BKN300 22/10 A3003 RMK AC2CI2CI1 SLP171

CYWG;2011-10-03 21:00;CYWG 032100Z 01010KT 15SM BKN091 BKN200 BKN300 21/11 A3003 RMK ACC5CI2CI1 SLP172

CYWG;2011-10-03 22:00;CYWG 032200Z 01010KT 15SM SCT090 BKN200 20/11 A3004 RMK ACC3CI2 SLP174

CYWG;2011-10-03 23:00;CYWG 032300Z 03010KT 15SM FEW090 SCT100 BKN200 19/11 A3005 RMK ACC2AC2CI1 SLP178

CYWG;2011-10-04 00:00;CYWG 040000Z 03007KT 15SM FEW100 SCT200 17/11 A3005 RMK AC2CI2 SLP181

CYWG;2011-10-04 01:00;CYWG 040100Z 03006KT 15SM FEW100 FEW200 14/10 A3006 RMK AC1CI1 SLP183

CYWG;2011-10-04 02:00;CYWG 040200Z 03006KT 15SM FEW100 13/10 A3007 RMK AC2 SLP186

CYWG;2011-10-04 03:00;CYWG 040300Z 01006KT 15SM SKC 11/09 A3008 RMK SLP190

CYWG;2011-10-04 04:00;CYWG 040400Z 02006KT 15SM SKC 10/08 A3007 RMK SLP189

CYWG;2011-10-04 05:00;CYWG 040500Z 36004KT 15SM SKC 09/07 A3007 RMK SLP189

CYWG;2011-10-04 06:00;CYWG 040600Z 36006KT 15SM SKC 09/08 A3007 RMK SLP187

CYWG;2011-10-04 07:00;CYWG 040700Z 01005KT 15SM SKC 09/08 A3006 RMK SLP184

CYWG;2011-10-04 08:00;CYWG 040800Z 01005KT 15SM SKC 08/08 A3005 RMK SLP181

CYWG;2011-10-04 09:00;CYWG 040900Z 01005KT 15SM SKC 09/08 A3004 RMK SLP178

CYWG;2011-10-04 10:00;CYWG 041000Z 03006KT 15SM SKC 09/08 A3004 RMK SLP176

CYWG;2011-10-04 11:00;CYWG 041100Z 03007KT 15SM SKC 09/08 A3003 RMK SLP175

CYWG;2011-10-04 12:00;CYWG 041200Z 04006KT 15SM FEW100 08/08 A3004 RMK AC1 SLP178

CYWG;2011-10-04 13:00;CYWG 041300Z 04009KT 15SM FEW100 FEW230 09/08 A3005 RMK AC1CI0 SLP181

CYWG;2011-10-04 14:00;CYWG 041400Z 05010KT 15SM FEW050 FEW100 11/09 A3004 RMK SC1AC0 SLP179

CYWG;2011-10-04 15:00;CYWG 041500Z 06010KT 15SM FEW100 FEW230 12/10 A3004 RMK AC1CI0 SLP178

CYWG;2011-10-04 16:00;CYWG 041600Z 06007KT 15SM FEW093 15/11 A3003 RMK AC1 SLP176

CYWG;2011-10-04 17:00;CYWG 041700Z 07007KT 15SM FEW100 17/11 A3002 RMK AC1 SLP170

CYWG;2011-10-04 18:00;CYWG 041800Z 09009KT 15SM SKC 21/11 A3000 RMK SLP162

CYWG;2011-10-04 19:00;CYWG 041900Z 08010KT 15SM FEW100 FEW230 23/11 A2997 RMK AC1CI1 AC CI TR SLP154

CYWG;2011-10-04 20:00;CYWG 042000Z 14011KT 15SM FEW100 FEW230 25/11 A2995 RMK AC1CI1 AC CI TR SLP146

CYWG;2011-10-04 21:00;CYWG 042100Z 13013KT 15SM FEW100 FEW230 26/10 A2992 RMK AC1CI1 CI TR SLP134

CYWG;2011-10-04 22:00;CYWG 042200Z 13010KT 15SM FEW090 FEW230 26/11 A2990 RMK AC2CI1 CI TR SLP129

CYWG;2011-10-04 23:00;CYWG 042300Z 14013KT 15SM FEW087 FEW230 25/10 A2990 RMK AC2CI1 CI TR SLP128

CYWG;2011-10-05 00:00;CYWG 050000Z 11011KT 15SM FEW090 FEW230 23/10 A2990 RMK AC2CI1 CI TR SLP128

CYWG;2011-10-05 01:00;CYWG 050100Z 11011KT 15SM FEW090 22/10 A2990 RMK AC2 SLP127

CYWG;2011-10-05 02:00;CYWG 050200Z 11013KT 15SM FEW090 21/10 A2989 RMK AC2 SLP126

CYWG;2011-10-05 03:00;CYWG 050300Z 11012KT 15SM FEW085 20/10 A2988 RMK AC2 SLP122

CYWG;2011-10-05 04:00;CYWG 050400Z 12010KT 15SM SCT100 19/10 A2988 RMK AC3 SLP121

CYWG;2011-10-05 05:00;CYWG 050500Z 11010KT 15SM SCT088 19/10 A2987 RMK AC4 SLP116

CYWG;2011-10-05 06:00;CYWG 050600Z 13008KT 15SM SCT095 19/10 A2985 RMK AC4 SLP110

CYWG;2011-10-05 07:00;CYWG 050700Z 14009KT 15SM BKN100 20/09 A2985 RMK AC6 SLP108

CYWG;2011-10-05 08:00;CYWG 050800Z 13012KT 15SM FEW100 20/09 A2983 RMK AC1 SLP102

CYWG;2011-10-05 09:00;CYWG 050900Z 13014KT 15SM SKC 19/09 A2981 RMK SLP093

CYWG;2011-10-05 10:00;CYWG 051000Z 13015KT 15SM SCT250 18/08 A2980 RMK CI2 SLP092

CYWG;2011-10-05 11:00;CYWG 051100Z 14016KT 15SM FEW250 17/08 A2980 RMK CI2 SLP092

CYWG;2011-10-05 12:00;CYWG 051200Z 14014KT 15SM FEW250 16/08 A2980 RMK CI1 SLP094

CYWG;2011-10-05 13:00;CYWG 051300Z 14015G20KT 15SM FEW250 16/09 A2980 RMK CI1 SLP093

CYWG;2011-10-05 14:00;CYWG 051400Z 14014G20KT 15SM FEW250 18/09 A2980 RMK CI1 SLP094

CYWG;2011-10-05 15:00;CYWG 051500Z 14015KT 15SM SKC 19/10 A2980 RMK SLP093

CYWG;2011-10-05 16:00;CYWG 051600Z 15018KT 15SM SKC 23/10 A2980 RMK SLP091

CYWG;2011-10-05 17:00;CYWG 051700Z 15016KT 15SM SKC 26/11 A2978 RMK SLP087

CYWG;2011-10-05 18:00;CYWG 051800Z 16017G26KT 15SM SKC 29/11 A2977 RMK SLP081

CYWG;2011-10-05 19:00;CYWG 051900Z 17025G30KT 15SM FEW240 30/08 A2976 RMK CI1 CI TR SLP076

CYWG;2011-10-05 20:00;CYWG 052000Z 19023G31KT 15SM SKC 31/08 A2975 RMK SLP072

CYWG;2011-10-05 21:00;CYWG 052100Z 18024G32KT 15SM SKC 31/07 A2974 RMK SLP071

CYWG;2011-10-05 22:00;CYWG 052200Z 17027KT 15SM SKC 31/08 A2974 RMK SLP070

CYWG;2011-10-05 23:00;CYWG 052300Z 18022G30KT 15SM SKC 30/07 A2974 RMK SLP069

CYWG;2011-10-06 00:00;CYWG 060000Z 17019KT 15SM FEW160 28/08 A2975 RMK AC1 SLP074

CYWG;2011-10-06 01:00;CYWG 060100Z 16017KT 15SM FEW160 27/08 A2976 RMK AC1 AC TR SLP078

CYWG;2011-10-06 02:00;CYWG 060200Z 16018G24KT 15SM SKC 26/08 A2978 RMK SLP084

CYWG;2011-10-06 03:00;CYWG 060300Z 16017KT 15SM SKC 24/09 A2980 RMK FU SLP090

CYWG;2011-10-06 04:00;CYWG 060400Z 17017KT 15SM SKC 24/09 A2980 RMK SLP093

CYWG;2011-10-06 05:00;CYWG 060500Z 15012KT 9SM SKC 21/10 A2981 RMK FU SLP096

CYWG;2011-10-06 06:00;CYWG 060600Z 17017KT 9SM SKC 22/09 A2982 RMK FU SLP095

CYWG;2011-10-06 07:00;CYWG 060700Z 16015G20KT 15SM SKC 22/09 A2982 RMK SLP096

CYWG;2011-10-06 08:00;CYWG 060800Z 16011KT 15SM SKC 20/09 A2983 RMK SLP098

CYWG;2011-10-06 09:00;CYWG 060900Z 17015G20KT 15SM SKC 20/07 A2982 RMK SLP097

CYWG;2011-10-06 10:00;CYWG 061000Z 15012KT 15SM SKC 18/07 A2982 RMK SLP097

CYWG;2011-10-06 11:00;CYWG 061100Z 15012KT 15SM SKC 17/07 A2982 RMK SLP096

CYWG;2011-10-06 12:00;CYWG 061200Z 15013KT 15SM SKC 17/07 A2982 RMK SLP098

CYWG;2011-10-06 13:00;CYWG 061300Z 15013KT 15SM SKC 17/07 A2983 RMK SLP100

CYWG;2011-10-06 14:00;CYWG 061400Z 16016KT 15SM SKC 19/07 A2983 RMK SLP101

CYWG;2011-10-06 15:00;CYWG 061500Z 17017G22KT 15SM SKC 21/07 A2982 RMK SLP099

CYWG;2011-10-06 16:00;CYWG 061600Z 16020G28KT 15SM SKC 22/08 A2982 RMK SLP099

CYWG;2011-10-06 17:00;CYWG 061700Z 16016G21KT 15SM SKC 25/10 A2981 RMK SLP095

CYWG;2011-10-06 18:00;CYWG 061800Z 16024G31KT 15SM SKC 26/11 A2980 RMK SLP089

CYWG;2011-10-06 19:00;CYWG 061900Z 17024G33KT 15SM FEW240 27/10 A2979 RMK CI0 SLP085

CYWG;2011-10-06 20:00;CYWG 062000Z 18021G36KT 15SM FEW240 28/10 A2978 RMK CI0 OBS TAKEN +06 SLP083

CYWG;2011-10-06 21:00;CYWG 062100Z 18024G33KT 15SM FEW240 28/09 A2977 RMK CI1 SLP081

CYWG;2011-10-06 22:00;CYWG 062200Z 17021G30KT 15SM SCT240 27/09 A2977 RMK CI1 SLP078

CYWG;2011-10-06 23:00;CYWG 062300Z 16021G29KT 12SM FEW140 BKN240 26/08 A2976 RMK AC1CI1 FU ALQDS SLP075

CYWG;2011-10-07 00:00;CYWG 070000Z 15014G19KT 15SM FEW110 BKN240 24/08 A2977 RMK AC2CI1 SLP080

CYWG;2011-10-07 01:00;CYWG 070100Z 15016KT 15SM FEW110 BKN240 24/07 A2977 RMK AC2CI1 SLP081

CYWG;2011-10-07 02:00;CYWG 070200Z 14016G21KT 15SM -SHRA BKN075 OVC240 21/08 A2976 RMK AC6CI2 ACC EMBD SLP078

CYWG;2011-10-07 02:39;CYWG 070239Z 14018G25KT 15SM FEW039 SCT056 BKN075 22/ RMK SC2SC2AC2

CYWG;2011-10-07 03:00;CYWG 070300Z 14018G29KT 15SM SCT039 BKN056 22/07 A2975 RMK SC3SC4 SLP075

CYWG;2011-10-07 04:00;CYWG 070400Z 13015KT 15SM BKN069 22/07 A2974 RMK AC6 SLP070

CYWG;2011-10-07 05:00;CYWG 070500Z 14013G19KT 15SM SCT070 BKN093 22/07 A2973 RMK AC3AC4 SLP068

CYWG;2011-10-07 06:00;CYWG 070600Z 13015KT 15SM BKN073 21/07 A2971 RMK AC6 SLP060

CYWG;2011-10-07 07:00;CYWG 070700Z 13014KT 15SM SCT077 20/07 A2970 RMK AC4 SLP055

CYWG;2011-10-07 08:00;CYWG 070800Z 13015KT 15SM OVC077 20/07 A2967 RMK AC8 SLP046

CYWG;2011-10-07 09:00;CYWG 070900Z 14018KT 15SM BKN079 20/07 A2963 RMK AC6 SLP033

CYWG;2011-10-07 10:00;CYWG 071000Z 14016G25KT 15SM BKN096 21/07 A2961 RMK AC5 SLP027

CYWG;2011-10-07 11:00;CYWG 071100Z 14014G21KT 10SM BKN110 20/08 A2959 RMK AC6 FU SLP018

CYWG;2011-10-07 12:00;CYWG 071200Z 16015KT 10SM SCT044 OVC071 20/08 A2958 RMK SC4AC4 FU TCU EMBD SLP015

CYWG;2011-10-07 13:00;CYWG 071300Z 16021G29KT 15SM FEW086 BKN240 21/09 A2955 RMK AC2CI2 SLP006

CYWG;2011-10-07 14:00;CYWG 071400Z 17022G29KT 15SM FEW085 OVC240 21/10 A2955 RMK AC2CI5 SLP005

CYWG;2011-10-07 15:00;CYWG 071500Z 16021G29KT 12SM SCT120 BKN250 21/11 A2954 RMK AC3CI2 FU SLP002

CYWG;2011-10-07 16:00;CYWG 071600Z 18023G43KT 15SM FEW120 FEW240 23/11 A2953 RMK AC1CI1 FU SLP000

CYWG;2011-10-07 17:00;CYWG 071700Z 19028G35KT 15SM SCT078 BKN250 23/11 A2950 RMK AC3CI2 FU SLP990

CYWG;2011-10-07 18:00;CYWG 071800Z 18022G31KT 15SM BKN053 OVC099 22/11 A2949 RMK SC7AC1 FU SLP985

CYWG;2011-10-07 19:00;CYWG 071900Z 17022G37KT 15SM OVC047 22/12 A2945 RMK SC8 FU SLP974

CYWG;2011-10-07 20:00;CYWG 072000Z 17025G37KT 12SM BKN045 BKN067 22/13 A2943 RMK SC5AC2 FU SLP967

CYWG;2011-10-07 20:27;CYWG 072027Z 17028G35KT 10SM -TSRA BKN037 BKN081 22/ RMK SC6AC2 FU CB EMBD OVRHD

CYWG;2011-10-07 20:45;CYWG 072045Z 16024G33KT 15SM TS FEW019 BKN047TCU BKN090 21/ RMK CF1TCU5AC1 CB EMBD N MOVG N

CYWG;2011-10-07 21:00;CYWG 072100Z 17029G37KT 15SM BKN047TCU BKN090 22/14 A2938 RETS RMK TCU6AC1 CB N MOVG NNE SLP949

CYWG;2011-10-07 22:00;CYWG 072200Z 18026G41KT 15SM FEW020 SCT053 BKN084 OVC280 22/05 A2937 RMK CF1CU2AC4CI1 VIRGA ALQDS SLP945

CYWG;2011-10-07 22:26;CYWG 072226Z 19020G25KT 12SM -RA OVC056 22/ RMK SC8

CYWG;2011-10-07 23:00;CYWG 072300Z 21021G29KT 15SM OVC056 22/01 A2937 RMK SC8 VIRGA ALQDS SLP944

CYWG;2011-10-07 23:39;CYWG 072339Z 19032G44KT 10SM -RA OVC058 20/ RMK SC8

CYWG;2011-10-08 00:00;CYWG 080000Z 20034G43KT 10SM -RA OVC030 19/04 A2938 RMK SC8 SLP951

CYWG;2011-10-08 00:44;CYWG 080044Z 20025G31KT 15SM OVC034 19/ RMK SC8

CYWG;2011-10-08 01:00;CYWG 080100Z 19028G44KT 15SM OVC034 20/08 A2935 RMK SC8 SLP940

CYWG;2011-10-08 02:00;CYWG 080200Z 24021G32KT 15SM FEW015 OVC040 16/12 A2939 RMK CF1SC8 SLP953

CYWG;2011-10-08 03:00;CYWG 080300Z 23019G26KT 15SM FEW015 OVC038 16/11 A2942 RMK SF1SC8 VIRGA ALQDS SLP964

CYWG;2011-10-08 04:00;CYWG 080400Z 22017KT 15SM FEW056 SCT090 15/10 A2946 RMK SC2AC1 SLP975

CYWG;2011-10-08 05:00;CYWG 080500Z 21013KT 15SM BKN060 OVC110 15/09 A2948 RMK SC6AC2 SLP983

CYWG;2011-10-08 06:00;CYWG 080600Z 21012KT 15SM FEW090 14/09 A2950 RMK AC1 SLP992

CYWG;2011-10-08 07:00;CYWG 080700Z 20008KT 15SM BKN035 BKN070 14/10 A2953 RMK SC6AC1 SLP000

CYWG;2011-10-08 08:00;CYWG 080800Z 22013KT 15SM BKN026 14/11 A2954 RMK SC5 SLP006

CYWG;2011-10-08 11:00;CYWG 081100Z 22011G17KT 15SM FEW040 SCT240 12/09 A2964 RMK SC1CI2 SLP039

CYWG;2011-10-08 12:00;CYWG 081200Z 23012KT 15SM FEW035 SCT240 11/09 A2971 RMK SC1CI1 PRESRR SLP064

CYWG;2011-10-08 13:00;CYWG 081300Z 22010KT 15SM FEW030 BKN240 11/09 A2973 RMK SC1CI2 SLP071

CYWG;2011-10-08 14:00;CYWG 081400Z 23009KT 15SM SCT043 BKN240 12/09 A2977 RMK SC3CI1 SLP082

CYWG;2011-10-08 15:00;CYWG 081500Z 27011G19KT 15SM BKN026 OVC040 14/09 A2980 RMK SC6SC2 SLP095

CYWG;2011-10-08 16:00;CYWG 081600Z 26011KT 15SM OVC026 13/08 A2984 RMK SC7 SLP109

CYWG;2011-10-08 17:00;CYWG 081700Z 30015G22KT 15SM OVC032 14/08 A2988 RMK SC8 SLP120

CYWG;2011-10-08 18:00;CYWG 081800Z 29015KT 15SM OVC032 15/08 A2990 RMK SC8 SLP128

CYWG;2011-10-08 19:00;CYWG 081900Z 27011G18KT 15SM OVC032 15/09 A2992 RMK SC8 SLP136

CYWG;2011-10-08 20:00;CYWG 082000Z 29012KT 15SM OVC032 15/08 A2994 RMK SC8 SLP143

CYWG;2011-10-08 21:00;CYWG 082100Z 29009KT 15SM BKN036 OVC098 16/08 A2996 RMK SC7AC1 SLP149

CYWG;2011-10-08 22:00;CYWG 082200Z 32007KT 15SM OVC039 15/08 A2997 RMK SC8 SLP154

CYWG;2011-10-08 23:00;CYWG 082300Z 33015G20KT 15SM BKN041 14/07 A3001 RMK SC7 SLP166

CYWG;2011-10-09 00:00;CYWG 090000Z 33006KT 15SM BKN041 11/06 A3005 RMK SC6 SLP183

CYWG;2011-10-09 01:00;CYWG 090100Z 30003KT 15SM SCT050 10/05 A3007 RMK SC4 SLP189

CYWG;2011-10-09 02:00;CYWG 090200Z 20004KT 15SM SCT050 BKN240 08/06 A3011 RMK SC3CI1 SLP202

CYWG;2011-10-09 03:00;CYWG 090300Z 22005KT 15SM BKN120 09/06 A3012 RMK AC7 SLP207

CYWG;2011-10-09 04:00;CYWG 090400Z 23005KT 15SM SCT120 BKN240 09/06 A3013 RMK AC3CI2 SLP208

CYWG;2011-10-09 05:00;CYWG 090500Z 24006KT 15SM FEW120 BKN240 09/05 A3016 RMK AC2CI2 SLP220

CYWG;2011-10-09 06:00;CYWG 090600Z 27007KT 15SM FEW120 BKN240 09/04 A3018 RMK AC2CI2 SLP225

CYWG;2011-10-09 07:00;CYWG 090700Z 30008KT 15SM SCT240 06/03 A3019 RMK CI3 SLP230

CYWG;2011-10-09 08:00;CYWG 090800Z 30006KT 15SM SCT240 03/01 A3021 RMK CI2 SLP236

CYWG;2011-10-09 08:22;CYWG 090822Z 30007KT 15SM BKN210 02/ RMK CI2

CYWG;2011-10-09 09:00;CYWG 090900Z 27005KT 15SM BKN210 03/02 A3023 RMK CI2 SLP244

CYWG;2011-10-09 10:00;CYWG 091000Z 26003KT 15SM BKN210 01/M00 A3024 RMK CI2 SLP248

CYWG;2011-10-09 11:00;CYWG 091100Z 28002KT 15SM BKN210 03/02 A3026 RMK CI2 SLP254

CYWG;2011-10-09 12:00;CYWG 091200Z 28003KT 15SM BKN140 BKN250 01/01 A3027 RMK AC2CI1 SLP260

CYWG;2011-10-09 13:00;CYWG 091300Z 23003KT 15SM BKN140 BKN250 03/02 A3029 RMK AC3CI2 SLP266

CYWG;2011-10-09 14:00;CYWG 091400Z 00000KT 15SM SCT140 BKN250 03/02 A3031 RMK AC2CI4 SLP273

CYWG;2011-10-09 15:00;CYWG 091500Z 18002KT 15SM FEW140 BKN250 07/04 A3031 RMK AC2CI5 SLP273

CYWG;2011-10-09 16:00;CYWG 091600Z 00000KT 15SM FEW140 BKN250 09/06 A3032 RMK AC2CI4 SLP275

CYWG;2011-10-09 17:00;CYWG 091700Z 05004KT 15SM FEW140 BKN280 12/06 A3030 RMK AC1CI5 SLP268

CYWG;2011-10-09 18:00;CYWG 091800Z 15008KT 15SM SCT140 OVC280 14/03 A3030 RMK AS2CS5 SLP266

CYWG;2011-10-09 19:00;CYWG 091900Z 12009KT 15SM FEW140 OVC260 15/02 A3027 RMK AS2CS5 SLP257

CYWG;2011-10-09 20:00;CYWG 092000Z 11009KT 15SM FEW140 OVC260 15/01 A3024 RMK AC2CS5 SLP246

CYWG;2011-10-09 21:00;CYWG 092100Z 11007KT 15SM SCT140 OVC260 16/01 A3022 RMK AC3CS4 SLP240

CYWG;2011-10-09 22:00;CYWG 092200Z 11008KT 15SM BKN120 BKN260 15/00 A3021 RMK AC5CS2 SLP236

CYWG;2011-10-09 23:00;CYWG 092300Z 09006KT 15SM BKN120 BKN260 14/M00 A3019 RMK AC5CS2 SLP230

CYWG;2011-10-10 00:00;CYWG 100000Z 08006KT 15SM BKN095 OVC240 14/01 A3017 RMK AC6CS2 SLP226

CYWG;2011-10-10 00:37;CYWG 100037Z 09006KT 15SM -RA OVC085 13/ RMK AC8

CYWG;2011-10-10 01:00;CYWG 100100Z 09006KT 15SM -RA OVC071 13/02 A3016 RMK AC8 SLP221

CYWG;2011-10-10 02:00;CYWG 100200Z 10009KT 15SM -RA OVC044 13/02 A3014 RMK SC8 SLP215

CYWG;2011-10-10 02:36;CYWG 100236Z 11011KT 15SM SCT044 OVC085 13/ RMK SC2AC6

CYWG;2011-10-10 03:00;CYWG 100300Z 12014KT 15SM OVC044 13/02 A3012 RMK SC8 SLP208

CYWG;2011-10-10 04:00;CYWG 100400Z 12010G17KT 15SM BKN033 OVC080 13/03 A3011 RMK SC7AC1 SLP203

CYWG;2011-10-10 05:00;CYWG 100500Z 11009KT 15SM BKN025 OVC088 12/06 A3009 RMK SC6AC2 SLP195

CYWG;2011-10-10 06:00;CYWG 100600Z 08007KT 15SM OVC028 12/05 A3005 RMK SC8 SLP181

CYWG;2011-10-10 06:18;CYWG 100618Z 08010KT 9SM -RA OVC028 12/ RMK SC8 BR

CYWG;2011-10-10 07:00;CYWG 100700Z 09008KT 6SM -SHRA BR OVC019 10/08 A3003 RERA RMK SC8 SLP176

CYWG;2011-10-10 08:00;CYWG 100800Z 07009KT 9SM -SHRA FEW034 OVC050 09/08 A2999 RMK SC2SC6 BR SLP160

CYWG;2011-10-10 08:27;CYWG 100827Z 08009KT 15SM FEW027 OVC057 10/ RMK SC1SC7

CYWG;2011-10-10 09:00;CYWG 100900Z 09009KT 15SM FEW033 OVC070 10/08 A2995 RMK SC2AC6 SLP148

CYWG;2011-10-10 10:00;CYWG 101000Z 10009KT 15SM BKN093 11/09 A2993 RMK AC6 SLP139

CYWG;2011-10-10 11:00;CYWG 101100Z 10008KT 15SM BKN100 11/09 A2989 RMK AC3 SLP127

CYWG;2011-10-10 12:00;CYWG 101200Z 12008KT 15SM FEW100 SCT150 BKN250 11/10 A2986 RMK AC2AC2CI1 SLP116

CYWG;2011-10-10 13:00;CYWG 101300Z 14011KT 15SM FEW096 FEW150 SCT250 13/11 A2983 RMK AC1AC1CI1 SLP108

CYWG;2011-10-10 14:00;CYWG 101400Z 14015KT 15SM FEW100 SCT150 BKN250 15/12 A2981 RMK AC1AC2CI1 SLP100

CYWG;2011-10-10 15:00;CYWG 101500Z 14015G22KT 15SM FEW100 BKN150 BKN250 16/12 A2979 RMK AC1AC5CI1 SLP091

CYWG;2011-10-10 16:00;CYWG 101600Z 16018G27KT 15SM SCT150 BKN250 17/13 A2978 RMK AC3CI3 SLP087

CYWG;2011-10-10 17:00;CYWG 101700Z 18022G27KT 15SM FEW028 FEW150 BKN250 18/13 A2976 RMK SC2AC1CI5 SLP082

CYWG;2011-10-10 18:00;CYWG 101800Z 18023G29KT 15SM BKN021 OVC065 17/13 A2975 RMK SC6SC2 SLP079

CYWG;2011-10-10 18:37;CYWG 101837Z 18020G28KT 10SM -RA BKN016 OVC065 16/ RMK SC6SC2

CYWG;2011-10-10 19:00;CYWG 101900Z 16019G25KT 12SM -RA BKN013 OVC067 15/14 A2975 RMK SC6SC2 SLP077

CYWG;2011-10-10 20:00;CYWG 102000Z 19017G27KT 15SM -RA BKN013 BKN065 16/14 A2973 RMK SC5SC2 SLP072

CYWG;2011-10-10 20:38;CYWG 102038Z 19018KT 15SM BKN019 BKN090 16/ RMK SC5AC2

CYWG;2011-10-10 21:00;CYWG 102100Z 19017KT 15SM BKN019 BKN083 16/13 A2973 RMK SC5AC2 SLP072

CYWG;2011-10-10 22:00;CYWG 102200Z 21013G18KT 15SM BKN019 OVC085 15/12 A2972 RMK SC6AC2 SLP069

CYWG;2011-10-10 23:00;CYWG 102300Z 22011KT 15SM BKN024 OVC090 15/12 A2970 RMK SC6AC2 SLP062

CYWG;2011-10-10 23:02;CYWG 102302Z 22009KT 15SM -RA BKN024 OVC090 15/ RMK SC6AC2

CYWG;2011-10-10 23:44;CYWG 102344Z 22009G16KT 15SM OVC024 15/ RMK SC8

CYWG;2011-10-11 00:00;CYWG 110000Z 22010KT 15SM OVC024 14/11 A2970 RMK SC8 SH E-SE SLP060

CYWG;2011-10-11 01:00;CYWG 110100Z 22008KT 15SM SCT025 OVC077 14/11 A2969 RMK SC4AC4 SLP057

CYWG;2011-10-11 02:00;CYWG 110200Z 20011KT 15SM OVC031 14/10 A2967 RMK SC8 SLP053

CYWG;2011-10-11 03:00;CYWG 110300Z 19011KT 15SM BKN033 13/10 A2967 RMK SC7 SLP049

CYWG;2011-10-11 04:00;CYWG 110400Z 20012KT 15SM SCT024 OVC075 13/11 A2965 RMK SC4AC4 SLP045

CYWG;2011-10-11 05:00;CYWG 110500Z 20011KT 15SM FEW017 SCT047 12/10 A2965 RMK SF2SC2 SLP045

CYWG;2011-10-11 06:00;CYWG 110600Z 21012G17KT 15SM BKN044 OVC081 12/08 A2966 RMK SC6AC2 SLP047

CYWG;2011-10-11 06:33;CYWG 110633Z 21011KT 15SM -SHRA OVC044 11/ RMK SC8

CYWG;2011-10-11 07:00;CYWG 110700Z 22011KT 15SM OVC055 11/08 A2967 RMK SC8 SLP049

CYWG;2011-10-11 08:00;CYWG 110800Z 21007KT 15SM -SHRA BKN024 OVC044 11/08 A2967 RMK SC5SC3 SLP049

CYWG;2011-10-11 08:41;CYWG 110841Z 20003KT 15SM SCT019 BKN024 BKN046 11/ RMK SF3SC3SC1

CYWG;2011-10-11 09:00;CYWG 110900Z 17006KT 15SM FEW019 BKN079 10/08 A2965 RMK SF2AC2 SLP046

CYWG;2011-10-11 10:00;CYWG 111000Z 17008KT 15SM FEW020 08/08 A2965 RMK SC1 SLP044

CYWG;2011-10-11 11:00;CYWG 111100Z 18011KT 15SM FEW020 10/10 A2964 RMK SF2 SLP041

CYWG;2011-10-11 11:31;CYWG 111131Z CCA 18011G16KT 10SM BKN004 RMK SF4

CYWG;2011-10-11 12:00;CYWG 111200Z 19011G17KT 10SM OVC003 10/10 A2965 RMK SF5 SLP044

CYWG;2011-10-11 12:32;CYWG 111232Z 18013KT 10SM SCT003 RMK SF2

CYWG;2011-10-11 13:00;CYWG 111300Z 18012KT 10SM SCT003 10/10 A2964 RMK SF2 SLP043

CYWG;2011-10-11 14:00;CYWG 111400Z 19012KT 10SM FEW003 10/10 A2965 RMK SF0 SLP044

CYWG;2011-10-11 15:00;CYWG 111500Z 20012KT 15SM SKC 12/10 A2966 RMK SLP048

CYWG;2011-10-11 16:00;CYWG 111600Z 20011KT 15SM SKC 14/10 A2966 RMK SLP047

CYWG;2011-10-11 17:00;CYWG 111700Z 20009KT 15SM SKC 16/10 A2966 RMK SLP048

CYWG;2011-10-11 18:00;CYWG 111800Z 20011KT 15SM SKC 18/10 A2966 RMK SLP047

CYWG;2011-10-11 19:00;CYWG 111900Z 20010G17KT 15SM FEW035 20/10 A2965 RMK CF1 CF TR SLP043

CYWG;2011-10-11 20:00;CYWG 112000Z 21014G20KT 15SM FEW100 FEW240 21/08 A2964 RMK AC1CI0 AC TR SLP039

CYWG;2011-10-11 21:00;CYWG 112100Z 19014KT 15SM FEW100 FEW240 21/08 A2964 RMK AC1CI0 AC TR SLP038

CYWG;2011-10-11 22:00;CYWG 112200Z 18012KT 15SM FEW100 SCT230 20/08 A2964 RMK AC1CI1 SLP039

CYWG;2011-10-11 23:00;CYWG 112300Z 18009KT 15SM FEW100 SCT160 BKN220 18/08 A2965 RMK AC1AC2CI1 SLP042

CYWG;2011-10-12 00:00;CYWG 120000Z 16008KT 15SM FEW100 BKN160 BKN210 15/08 A2965 RMK AC1AC4CI1 SLP046

CYWG;2011-10-12 01:00;CYWG 120100Z 17008KT 15SM FEW100 SCT160 BKN210 15/08 A2966 RMK AC1AC3CI1 SLP047

CYWG;2011-10-12 02:00;CYWG 120200Z 17008KT 15SM BKN120 BKN210 15/09 A2966 RMK AC6CI0 SLP047

CYWG;2011-10-12 03:00;CYWG 120300Z 18009KT 15SM BKN120 OVC210 16/09 A2966 RMK AC5CS1 SLP046

CYWG;2011-10-12 04:00;CYWG 120400Z 20006KT 15SM BKN082 OVC120 16/10 A2966 RMK AC5AC3 SLP046

CYWG;2011-10-12 05:00;CYWG 120500Z 16004KT 15SM BKN082 OVC120 13/10 A2965 RMK AC5AC3 SLP043

CYWG;2011-10-12 06:00;CYWG 120600Z 14004KT 15SM OVC200 12/10 A2963 RMK CS8 HALO MOOM DMLY VSBL SLP036

CYWG;2011-10-12 07:00;CYWG 120700Z 16008KT 15SM OVC200 13/10 A2965 RMK CS8 SLP043

CYWG;2011-10-12 07:55;CYWG 120755Z 14009KT 15SM -SHRA FEW063 SCT095 OVC200 14/ RMK SC2AC2CS4

CYWG;2011-10-12 08:00;CYWG 120800Z 15008KT 15SM -SHRA FEW063 SCT085 OVC200 14/09 A2964 RMK SC2AC2CS4 SLP041

CYWG;2011-10-12 09:00;CYWG 120900Z 28002KT 15SM -SHRA OVC018 13/11 A2964 RMK SC8 SLP039

CYWG;2011-10-12 10:00;CYWG 121000Z 18007KT 15SM -RA SCT018 OVC062 13/11 A2964 RMK SC3SC5 SLP041

CYWG;2011-10-12 11:00;CYWG 121100Z 07004KT 15SM -RA FEW020 OVC054 12/11 A2964 RMK SC2SC6 SLP041

CYWG;2011-10-12 11:40;CYWG 121140Z 10002KT 15SM BKN051 OVC075 12/ RMK SC5AC3

CYWG;2011-10-12 12:00;CYWG 121200Z 10004KT 15SM SCT051 BKN075 OVC200 12/11 A2964 RMK SC3AC3CI1 SLP041

CYWG;2011-10-12 13:00;CYWG 121300Z 16006KT 15SM FEW080 OVC200 11/11 A2964 RMK AC2CI2 SLP041

CYWG;2011-10-12 14:00;CYWG 121400Z 07005KT 15SM SCT090 OVC200 12/11 A2964 RMK AC3CI2 SLP040

CYWG;2011-10-12 15:00;CYWG 121500Z 09002KT 12SM FEW090 OVC200 13/12 A2965 RMK AC2CI2 SLP043

CYWG;2011-10-12 16:00;CYWG 121600Z 10004KT 15SM SCT069 BKN090 BKN200 15/12 A2965 RMK AC3AC2CI0 SLP045

CYWG;2011-10-12 17:00;CYWG 121700Z 10003KT 15SM SCT060 BKN090 BKN200 16/12 A2966 RMK SC3AC2CI0 SLP047

CYWG;2011-10-12 18:00;CYWG 121800Z 00000KT 15SM FEW060 BKN090 BKN200 17/12 A2966 RMK SC2AC2CI0 SLP046

CYWG;2011-10-12 19:00;CYWG 121900Z 00000KT 15SM FEW061 BKN085 BKN200 18/13 A2965 RMK SC1AC5CI2 SLP043

CYWG;2011-10-12 20:00;CYWG 122000Z 00000KT 15SM FEW063 BKN094 BKN200 18/11 A2964 RMK CU1AC4CI1 SLP039

CYWG;2011-10-12 21:00;CYWG 122100Z 31004KT 15SM VCSH BKN063TCU BKN092 18/12 A2964 RMK TCU5AC2 SLP042

CYWG;2011-10-12 21:13;CYWG 122113Z 30019G26KT 15SM -TSRA BKN029CB BKN090 14/ RMK CB6AC1 LTGCG NW

CYWG;2011-10-12 22:00;CYWG 122200Z 01006KT 15SM -TSRA BKN030CB BKN087 13/12 A2965 RERA RMK CB5AC1 SLP045

CYWG;2011-10-12 22:28;CYWG 122228Z 03006KT 15SM SCT017TCU BKN068 BKN090 13/ RETS RMK TCU4AC2AC1

CYWG;2011-10-12 23:00;CYWG 122300Z CCA 34003KT 15SM SCT049 BKN068 BKN090 13/12 A2967 RETS RMK SC4AC2AC2 SLP049

CYWG;2011-10-13 00:00;CYWG 130000Z 33006KT 15SM -SHRA BKN065TCU 13/12 A2967 RMK TCU7 SLP053

CYWG;2011-10-13 01:00;CYWG 130100Z 28004KT 15SM SCT028 OVC056 12/12 A2969 RMK SC3SC5 SLP058

CYWG;2011-10-13 02:00;CYWG 130200Z 30005KT 15SM SCT004 OVC013 OVC041 12/12 A2969 RMK SF4SC3SC1 SLP057

CYWG;2011-10-13 02:48;CYWG 130248Z 30002KT 15SM -RA BKN003 OVC011 12/ RMK ST6SC2

CYWG;2011-10-13 03:00;CYWG 130300Z 29004KT 5SM -RA BR BKN003 OVC010 12/12 A2968 RMK ST6SC2 SLP056

CYWG;2011-10-13 03:28;CYWG 130328Z CCA 01016KT 2SM RA BR BKN003 OVC007 11/ RMK ST7SC1

CYWG;2011-10-13 03:46;CYWG 130346Z 02014KT 2SM RA BR OVC009 11/ RMK ST8

CYWG;2011-10-13 04:00;CYWG 130400Z 36012G17KT 2 1/2SM RA BR OVC007 11/10 A2970 RMK ST8 SLP061

CYWG;2011-10-13 04:22;CYWG 130422Z 34015KT 5SM -RA BR OVC006 10/ RMK ST8

CYWG;2011-10-13 05:00;CYWG 130500Z 34013G18KT 5SM -RA BR OVC007 09/09 A2971 RMK ST8 SLP065

CYWG;2011-10-13 06:00;CYWG 130600Z 34012KT 4SM -RA BR BKN007 OVC016 08/08 A2971 RMK SF6SC2 SLP066

CYWG;2011-10-13 06:20;CYWG 130620Z 34013KT 5SM -RA BR SCT007 OVC011 08/ RMK SF3SC5

CYWG;2011-10-13 07:00;CYWG 130700Z 33009KT 8SM -RA FEW007 SCT011 OVC022 08/08 A2971 RMK SF2SC2SC4 SLP066

CYWG;2011-10-13 07:49;CYWG 130749Z 31008KT 10SM FEW005 SCT009 OVC060 08/ RMK SF1SC2SC5

CYWG;2011-10-13 08:00;CYWG 130800Z 31008KT 15SM SCT009 OVC060 08/08 A2971 RMK SC3SC5 SLP065

CYWG;2011-10-13 08:20;CYWG 130820Z 30010KT 10SM BKN009 OVC060 08/ RMK SF5SC3 BR

CYWG;2011-10-13 09:00;CYWG 130900Z 31011KT 10SM BKN006 OVC010 08/08 A2971 RMK SF5SC3 BR SLP065

CYWG;2011-10-13 09:54;CYWG 130954Z 32012G17KT 15SM BKN005 OVC060 07/ RMK SF5SC3

CYWG;2011-10-13 10:00;CYWG 131000Z 32012G17KT 15SM BKN005 OVC060 08/07 A2971 RMK SF5SC3 SLP066

CYWG;2011-10-13 10:37;CYWG 131037Z 32011KT 10SM BKN003 OVC063 07/ RMK SF5SC3

CYWG;2011-10-13 11:00;CYWG 131100Z 32013KT 10SM OVC004 07/07 A2972 RMK SF8 SLP067

CYWG;2011-10-13 12:00;CYWG 131200Z 33013G19KT 15SM BKN004 BKN060 07/07 A2971 RMK SF6SC1 SLP068

CYWG;2011-10-13 12:20;CYWG 131220Z 32012KT 10SM BKN007 BKN060 07/ RMK SF5SC1

CYWG;2011-10-13 12:47;CYWG 131247Z 32008KT 10SM SCT012 BKN060 BKN120 RMK SF2SC2AC1

CYWG;2011-10-13 13:00;CYWG 131300Z 33008KT 15SM FEW012 SCT060 BKN120 07/06 A2971 RMK SF2SC2AC2 SLP066

CYWG;2011-10-13 14:00;CYWG 131400Z 32012KT 15SM FEW012 FEW060 FEW120 BKN210 08/07 A2970 RMK SF1SC1AC1CI1 SLP065

CYWG;2011-10-13 15:00;CYWG 131500Z 33014G19KT 15SM FEW014 FEW060 FEW120 BKN210 08/06 A2971 RMK SF1SC1AC2CI1 SLP066

CYWG;2011-10-13 16:00;CYWG 131600Z 32015KT 15SM BKN016 09/07 A2970 RMK SC7 SLP062

CYWG;2011-10-13 17:00;CYWG 131700Z 33012G17KT 15SM BKN018 09/06 A2969 RMK SC7 SLP060

CYWG;2011-10-13 18:00;CYWG 131800Z 34015G22KT 15SM OVC023 09/05 A2968 RMK SC8 SLP058

CYWG;2011-10-13 19:00;CYWG 131900Z 31013G20KT 15SM OVC021 09/06 A2967 RMK SC7 SLP053

CYWG;2011-10-13 20:00;CYWG 132000Z 31015G21KT 15SM BKN023 10/05 A2967 RMK SC7 SLP053

CYWG;2011-10-13 21:00;CYWG 132100Z 31015KT 15SM OVC021 09/05 A2968 RMK SC8 SLP057

CYWG;2011-10-13 22:00;CYWG 132200Z 32016KT 15SM OVC025 09/04 A2968 RMK SC7 SLP057

CYWG;2011-10-13 23:00;CYWG 132300Z 32015KT 15SM OVC027 08/04 A2969 RMK SC8 SLP060

CYWG;2011-10-14 00:00;CYWG 140000Z 32011G16KT 15SM OVC025 08/04 A2969 RMK SC8 SLP062

CYWG;2011-10-14 01:00;CYWG 140100Z 31010KT 15SM OVC027 08/04 A2970 RMK SC8 SLP064

CYWG;2011-10-14 02:00;CYWG 140200Z 31010KT 15SM OVC031 08/04 A2970 RMK SC8 SLP064

CYWG;2011-10-14 03:00;CYWG 140300Z 32011KT 15SM OVC027 08/04 A2970 RMK SC8 SLP066

CYWG;2011-10-14 04:00;CYWG 140400Z 34011KT 15SM OVC021 07/04 A2971 RMK SC8 SLP067

CYWG;2011-10-14 05:00;CYWG 140500Z 33006KT 15SM BKN035 06/03 A2970 RMK SC3 SLP066

CYWG;2011-10-14 06:00;CYWG 140600Z 28007KT 15SM SCT035 02/01 A2970 RMK SC2 SLP067

CYWG;2011-10-14 07:00;CYWG 140700Z 28006KT 15SM OVC032 05/03 A2971 RMK SC8 SLP069

CYWG;2011-10-14 08:00;CYWG 140800Z 29008KT 15SM BKN036 OVC083 04/03 A2971 RMK SC7AC1 SLP069

CYWG;2011-10-14 09:00;CYWG 140900Z 29010KT 15SM SCT041 03/02 A2971 RMK SC3 SLP070

CYWG;2011-10-14 10:00;CYWG 141000Z 28009KT 15SM BKN043 BKN071 04/03 A2972 RMK SC6AC1 SLP071

CYWG;2011-10-14 11:00;CYWG 141100Z 29008KT 15SM OVC041 05/03 A2972 RMK SC8 SLP073

CYWG;2011-10-14 12:00;CYWG 141200Z 28006KT 15SM BKN027 BKN050 BKN073 05/04 A2973 RMK SC5SC2AC1 SLP074

CYWG;2011-10-14 13:00;CYWG 141300Z 28006KT 15SM BKN022 BKN050 BKN080 05/04 A2973 RMK SC5SC2AC1 SLP075

CYWG;2011-10-14 14:00;CYWG 141400Z 29006KT 15SM BKN026 BKN067 06/05 A2974 RMK SC6AC2 SLP078

CYWG;2011-10-14 15:00;CYWG 141500Z 34015KT 15SM BKN024 BKN067 BKN280 08/04 A2976 RMK SC6AC1CI1 SLP084

CYWG;2011-10-14 16:00;CYWG 141600Z 32018KT 15SM BKN026 BKN280 08/03 A2976 RMK SC6CI1 SLP086

CYWG;2011-10-14 17:00;CYWG 141700Z 31022G33KT 15SM BKN029 09/01 A2976 RMK SC5 SLP086

CYWG;2011-10-14 18:00;CYWG 141800Z 31019G27KT 15SM BKN037 09/01 A2977 RMK SC6 SLP088

CYWG;2011-10-14 19:00;CYWG 141900Z 31026G31KT 15SM SCT033 09/01 A2976 RMK SC4 SLP087

CYWG;2011-10-14 20:00;CYWG 142000Z 32024G30KT 15SM SCT038 10/02 A2977 RMK SC4 SLP089

CYWG;2011-10-14 21:00;CYWG 142100Z 32016G24KT 15SM FEW040 10/01 A2977 RMK SC2 SLP090

CYWG;2011-10-14 22:00;CYWG 142200Z 32022G28KT 15SM FEW040 10/M00 A2977 RMK SC2 SLP088

CYWG;2011-10-14 23:00;CYWG 142300Z 33015KT 15SM FEW040 09/M00 A2977 RMK SC1 SLP091

CYWG;2011-10-15 00:00;CYWG 150000Z 33008KT 15SM FEW040 06/00 A2978 RMK SC1 SLP092

CYWG;2011-10-15 01:00;CYWG 150100Z 32005KT 15SM FEW062 02/M00 A2978 RMK SC2 SLP093

CYWG;2011-10-15 02:00;CYWG 150200Z 33005KT 15SM FEW064 01/M01 A2978 RMK SC1 SLP094

CYWG;2011-10-15 03:00;CYWG 150300Z 31005KT 15SM FEW052 BKN058 03/01 A2979 RMK SC2SC4 SLP096

CYWG;2011-10-15 04:00;CYWG 150400Z 30004KT 15SM BKN052 04/01 A2979 RMK SC6 SLP096

CYWG;2011-10-15 05:00;CYWG 150500Z 26004KT 15SM BKN058 OVC089 04/01 A2978 RMK SC6AC2 SLP093

CYWG;2011-10-15 06:00;CYWG 150600Z 26006KT 15SM BKN042 OVC074 05/01 A2978 RMK SC6AC2 SLP092

CYWG;2011-10-15 07:00;CYWG 150700Z 26004KT 15SM BKN042 BKN079 04/01 A2977 RMK SC5AC2 SLP091

CYWG;2011-10-15 08:00;CYWG 150800Z 27008KT 15SM BKN054 OVC089 04/01 A2977 RMK SC6AC2 SLP090

CYWG;2011-10-15 09:00;CYWG 150900Z 27011KT 15SM BKN050 OVC093 04/01 A2976 RMK SC7AC1 SLP086

CYWG;2011-10-15 10:00;CYWG 151000Z 28012KT 15SM BKN049 OVC093 05/02 A2976 RMK SC7AC1 SLP086

CYWG;2011-10-15 11:00;CYWG 151100Z 30010G15KT 15SM OVC042 06/02 A2977 RMK SC8 SLP090

CYWG;2011-10-15 12:00;CYWG 151200Z 31007KT 15SM OVC040 06/M00 A2977 RMK SC8 SLP090

CYWG;2011-10-15 13:00;CYWG 151300Z 28008KT 15SM BKN038 05/02 A2977 RMK SC7 SLP089

CYWG;2011-10-15 14:00;CYWG 151400Z 29008KT 15SM BKN036 05/02 A2977 RMK SC7 SLP089

CYWG;2011-10-15 15:00;CYWG 151500Z 28012G17KT 15SM OVC034 06/02 A2977 RMK SC8 SLP089

CYWG;2011-10-15 16:00;CYWG 151600Z 28014KT 15SM OVC036 07/02 A2977 RMK SC8 SLP089

CYWG;2011-10-15 17:00;CYWG 151700Z 29017G22KT 15SM BKN028 08/02 A2976 RMK SC6 SLP087

CYWG;2011-10-15 18:00;CYWG 151800Z 30019G24KT 15SM BKN033 09/02 A2976 RMK SC6 SLP084

CYWG;2011-10-15 19:00;CYWG 151900Z 30015G25KT 15SM FEW035 10/02 A2974 RMK SC2 SLP080

CYWG;2011-10-15 20:00;CYWG 152000Z 30018KT 15SM FEW043 11/02 A2973 RMK SC2 SLP075

CYWG;2011-10-15 21:00;CYWG 152100Z 32015G25KT 15SM FEW051 11/02 A2973 RMK SC2 SLP073

CYWG;2011-10-15 22:00;CYWG 152200Z 30016KT 15SM FEW052 11/02 A2972 RMK SC2 SLP070

CYWG;2011-10-15 23:00;CYWG 152300Z 29011KT 15SM BKN064 10/02 A2972 RMK SC6 SLP070

CYWG;2011-10-16 00:00;CYWG 160000Z 27006KT 15SM BKN064 BKN086 07/03 A2971 RMK SC5AC1 SLP070

CYWG;2011-10-16 00:36;CYWG 160036Z 26005KT 15SM -SHRA BKN064 08/ RMK SC6

CYWG;2011-10-16 01:00;CYWG 160100Z 27007KT 15SM -SHRA BKN057 09/03 A2971 RMK SC6 SLP068

CYWG;2011-10-16 02:00;CYWG 160200Z 28010KT 15SM BKN051 07/03 A2970 RMK SC5 OBS TAKEN +30 SLP067

CYWG;2011-10-16 03:00;CYWG 160300Z 29006KT 15SM BKN083 07/03 A2970 RMK AC6 SLP067

CYWG;2011-10-16 04:00;CYWG 160400Z 27010KT 15SM BKN052 OVC082 07/03 A2970 RMK SC5AC3 SLP066

CYWG;2011-10-16 05:00;CYWG 160500Z 31009KT 15SM FEW029 SCT062 BKN081 06/03 A2970 RMK SC2SC2AC1 SLP067

CYWG;2011-10-16 05:54;CYWG 160554Z 29005KT 15SM -RA BKN026 OVC086 06/ RMK SC5AC3

CYWG;2011-10-16 06:00;CYWG 160600Z 28005KT 15SM -RA BKN026 OVC086 06/04 A2971 RMK SC5AC3 SLP070

CYWG;2011-10-16 07:00;CYWG 160700Z 33007KT 10SM -RA BKN026 OVC094 05/03 A2973 RMK SC5AC3 SLP074

CYWG;2011-10-16 07:26;CYWG 160726Z 30007KT 15SM SCT032 BKN054 OVC083 05/ RMK SC3SC2AC2

CYWG;2011-10-16 07:45;CYWG 160745Z 31006KT 15SM -SHRA BKN032 OVC054 05/ RMK SC6SC2

CYWG;2011-10-16 08:00;CYWG 160800Z 30005KT 15SM -SHRA BKN032 OVC049 05/03 A2973 RMK SC6SC2 SLP075

CYWG;2011-10-16 09:00;CYWG 160900Z 26006KT 15SM -SHRA BKN023 BKN056 04/03 A2973 RMK SC5SC1 SLP073

CYWG;2011-10-16 09:27;CYWG 160927Z 27008KT 15SM BKN023 04/ RMK SC6

CYWG;2011-10-16 10:00;CYWG 161000Z 27011KT 15SM SCT029 BKN068 03/02 A2973 RMK SC4AC2 SLP074

CYWG;2011-10-16 11:00;CYWG 161100Z 30011KT 15SM FEW031 03/00 A2974 RMK SC2 SLP077

CYWG;2011-10-16 11:16;CYWG 161116Z 29011KT 15SM FEW031 02/ RMK SC2

CYWG;2011-10-16 12:00;CYWG 161200Z 27013KT 15SM BKN032 02/M00 A2974 RMK SC6 SLP079

CYWG;2011-10-16 13:00;CYWG 161300Z 28013KT 15SM BKN032 03/00 A2974 RMK SC6 SLP079

CYWG;2011-10-16 14:00;CYWG 161400Z 30018KT 15SM SCT033 04/M00 A2975 RMK SC4 SLP083

CYWG;2011-10-16 15:00;CYWG 161500Z 28021G27KT 15SM FEW120 05/M01 A2975 RMK AC1 SLP082

CYWG;2011-10-16 16:00;CYWG 161600Z 28027G32KT 15SM FEW030 FEW120 06/M01 A2973 RMK CU1AC1 SLP077

CYWG;2011-10-16 17:00;CYWG 161700Z 29027G35KT 15SM FEW050 FEW120 08/M01 A2972 RMK CU2AC1 SLP073

CYWG;2011-10-16 18:00;CYWG 161800Z 30030G40KT 15SM BKN044 08/M01 A2971 RMK SC7 SLP069

CYWG;2011-10-16 19:00;CYWG 161900Z 30028G37KT 15SM SCT048 BKN270 09/M01 A2971 RMK SC3CI0 SLP069

CYWG;2011-10-16 20:00;CYWG 162000Z 31028G39KT 15SM FEW048 FEW094 BKN270 10/M03 A2972 RMK SC1AC1CI1 SLP071

CYWG;2011-10-16 21:00;CYWG 162100Z 30030G38KT 15SM FEW054 FEW099 BKN270 10/M03 A2971 RMK SC2AC1CI1 SLP069

CYWG;2011-10-16 22:00;CYWG 162200Z 31027G37KT 15SM FEW055 FEW074 BKN270 10/M02 A2971 RMK SC1AC1CI0 SLP070

CYWG;2011-10-16 23:00;CYWG 162300Z 31028KT 15SM FEW054 FEW074 BKN270 09/M02 A2972 RMK SC1AC1CI0 SLP072

CYWG;2011-10-17 00:00;CYWG 170000Z 31020G27KT 15SM FEW054 SCT270 09/M02 A2973 RMK SC1CI0 SLP076

CYWG;2011-10-17 01:00;CYWG 170100Z 30016KT 15SM SCT270 08/M02 A2974 RMK CI1 SLP078

CYWG;2011-10-17 02:00;CYWG 170200Z 29014KT 15SM SCT270 07/M02 A2973 RMK CI0 SLP077

CYWG;2011-10-17 03:00;CYWG 170300Z 28016KT 15SM FEW270 06/M02 A2973 RMK CI0 SLP076

CYWG;2011-10-17 04:00;CYWG 170400Z 28015G20KT 15SM FEW270 06/M02 A2972 RMK CI0 SLP073

CYWG;2011-10-17 05:00;CYWG 170500Z 28015KT 15SM FEW270 06/M02 A2972 RMK CI0 SLP073

CYWG;2011-10-17 06:00;CYWG 170600Z 28016KT 15SM SKC 05/M01 A2973 RMK SLP075

CYWG;2011-10-17 07:00;CYWG 170700Z 28013KT 15SM FEW120 05/M01 A2974 RMK AC2 SLP077

CYWG;2011-10-17 08:00;CYWG 170800Z 28014KT 15SM FEW120 04/M01 A2974 RMK AC2 SLP078

CYWG;2011-10-17 09:00;CYWG 170900Z 28014KT 15SM FEW095 03/M01 A2974 RMK AC2 SLP080

CYWG;2011-10-17 10:00;CYWG 171000Z 28011KT 15SM FEW100 02/M01 A2975 RMK AC1 SLP081

CYWG;2011-10-17 11:00;CYWG 171100Z 29011KT 15SM SCT120 02/M01 A2975 RMK AC2 SLP081

CYWG;2011-10-17 12:00;CYWG 171200Z 31010KT 15SM FEW120 SCT250 03/M00 A2976 RMK AC2CI1 SLP086

CYWG;2011-10-17 13:00;CYWG 171300Z 32014KT 15SM FEW120 FEW250 04/M01 A2978 RMK AC2CI0 SLP092

CYWG;2011-10-17 14:00;CYWG 171400Z 33014KT 15SM SCT120 BKN250 05/M01 A2980 RMK AC3CI1 SLP099

CYWG;2011-10-17 15:00;CYWG 171500Z 33019G24KT 15SM FEW028 SCT120 BKN250 06/M00 A2982 RMK SC2AC2CI2 SLP106

CYWG;2011-10-17 16:00;CYWG 171600Z 32017G22KT 15SM FEW026 BKN120 BKN250 06/00 A2983 RMK SC2AC2CI2 SLP111

CYWG;2011-10-17 17:00;CYWG 171700Z 32016KT 15SM BKN026 OVC099 06/01 A2985 RMK SC7AC1 SLP116

CYWG;2011-10-17 18:00;CYWG 171800Z 31017KT 15SM OVC024 06/01 A2986 RMK SC8 SLP121

CYWG;2011-10-17 19:00;CYWG 171900Z 33017G24KT 15SM BKN026 OVC045 07/00 A2987 RMK SC6SC2 SLP124

CYWG;2011-10-17 20:00;CYWG 172000Z 33019KT 15SM OVC028 07/00 A2988 RMK SC8 SLP128

CYWG;2011-10-17 21:00;CYWG 172100Z 33019G24KT 15SM BKN028 OVC049 06/M00 A2990 RMK SC6SC2 SLP135

CYWG;2011-10-17 22:00;CYWG 172200Z 33017KT 15SM BKN026 OVC045 06/01 A2992 RMK SC6SC2 SLP140

CYWG;2011-10-17 22:37;CYWG 172237Z 33016G25KT 15SM -DZ FEW012 BKN022 OVC045 05/ RMK SF2SC5SC1

CYWG;2011-10-17 23:00;CYWG 172300Z 32018G26KT 15SM -DZ FEW012 BKN020 OVC055 05/02 A2994 RMK SF2SC6SC1 SLP147

CYWG;2011-10-17 23:25;CYWG 172325Z 33014G22KT 15SM -RA BKN020 OVC055 05/ RMK SC7SC1

CYWG;2011-10-18 00:00;CYWG 180000Z 32015KT 15SM -SHRA BKN018 OVC050 05/03 A2996 RMK SC7SC1 CVCTV CLD EMBDD SLP154

CYWG;2011-10-18 01:00;CYWG 180100Z 33011KT 15SM SCT025 OVC058 04/02 A2997 RMK SC4SC4 SLP160

CYWG;2011-10-18 02:00;CYWG 180200Z 33013KT 15SM FEW025 BKN056 OVC082 04/01 A2999 RMK SC2SC5AC2 SLP165

CYWG;2011-10-18 03:00;CYWG 180300Z 33012KT 15SM BKN041 04/01 A3000 RMK SC6 SLP168

CYWG;2011-10-18 04:00;CYWG 180400Z 33014KT 15SM BKN026 OVC067 04/M00 A3000 RMK SC6AC2 SLP169

CYWG;2011-10-18 05:00;CYWG 180500Z 31008KT 15SM SCT028 BKN070 03/M00 A3001 RMK SC3AC3 SLP171

CYWG;2011-10-18 05:30;CYWG 180530Z 31009KT 15SM FEW028 BKN070 03/ RMK SC2AC2

CYWG;2011-10-18 06:00;CYWG 180600Z 32008KT 15SM BKN029 01/M02 A3002 RMK SC5 SLP176

CYWG;2011-10-18 07:00;CYWG 180700Z 31007KT 15SM FEW042 M01/M03 A3003 RMK SC2 SLP180

CYWG;2011-10-18 08:00;CYWG 180800Z 33007KT 15SM SKC M03/M05 A3004 RMK SLP183

CYWG;2011-10-18 09:00;CYWG 180900Z 32008KT 15SM SKC M03/M05 A3005 RMK SLP187

CYWG;2011-10-18 10:00;CYWG 181000Z 31006KT 15SM SKC M05/M06 A3006 RMK SLP192

CYWG;2011-10-18 11:00;CYWG 181100Z 30007KT 15SM SKC M04/M06 A3008 RMK SLP198

CYWG;2011-10-18 12:00;CYWG 181200Z 31003KT 15SM FEW090 M05/M06 A3009 RMK AC1 SLP203

CYWG;2011-10-18 13:00;CYWG 181300Z 30009KT 15SM FEW090 M04/M06 A3011 RMK AC1 SLP208

CYWG;2011-10-18 14:00;CYWG 181400Z 32010KT 15SM FEW090 M01/M04 A3012 RMK AC1 SLP214

CYWG;2011-10-18 15:00;CYWG 181500Z 33012KT 15SM FEW090 02/M02 A3014 RMK AC1 SLP216

CYWG;2011-10-18 16:00;CYWG 181600Z 35015KT 15SM FEW024 FEW090 03/M03 A3015 RMK CF1AC1 SLP220

CYWG;2011-10-18 17:00;CYWG 181700Z 33014G21KT 15SM FEW030 05/M04 A3016 RMK CF1 SLP223

CYWG;2011-10-18 18:00;CYWG 181800Z 34015G20KT 15SM FEW035 05/M05 A3016 RMK CF1 SLP224

CYWG;2011-10-18 19:00;CYWG 181900Z 35015G25KT 15SM FEW025 06/M07 A3015 RMK SC1 SLP220

CYWG;2011-10-18 20:00;CYWG 182000Z 34014G20KT 15SM FEW015 FEW025 06/M07 A3016 RMK CF1SC1 SLP222

CYWG;2011-10-18 21:00;CYWG 182100Z 34015KT 15SM FEW015 FEW025 06/M06 A3016 RMK CF1SC2 SLP225

CYWG;2011-10-18 22:00;CYWG 182200Z 01015KT 15SM BKN045 05/M05 A3017 RMK SC6 SLP229

CYWG;2011-10-18 23:00;CYWG 182300Z 35012KT 15SM BKN045 04/M05 A3019 RMK SC6 SLP233

CYWG;2011-10-19 00:00;CYWG 190000Z 35010KT 15SM BKN039 04/M04 A3020 RMK SC7 SLP240

CYWG;2011-10-19 01:00;CYWG 190100Z 36013G20KT 15SM -DZ OVC028 04/M02 A3022 RMK SC8 SLP246

CYWG;2011-10-19 01:52;CYWG 190152Z 36012KT 15SM BKN035 03/ RMK SC5

CYWG;2011-10-19 02:00;CYWG 190200Z 36011KT 15SM BKN035 03/M01 A3022 RMK SC7 SLP245

CYWG;2011-10-19 03:00;CYWG 190300Z 35008KT 15SM BKN037 02/M01 A3023 RMK SC6 SLP248

CYWG;2011-10-19 04:00;CYWG 190400Z 34007KT 15SM FEW037 M01/M02 A3023 RMK SC1 SLP249

CYWG;2011-10-19 05:00;CYWG 190500Z 34007KT 15SM SKC M01/M03 A3023 RMK SLP249

CYWG;2011-10-19 06:00;CYWG 190600Z 32006KT 15SM SKC M04/M05 A3023 RMK SLP251

CYWG;2011-10-19 07:00;CYWG 190700Z 36003KT 15SM SKC M04/M05 A3025 RMK SLP255

CYWG;2011-10-19 08:00;CYWG 190800Z CCA 02002KT 15SM FEW110 M04/M05 A3026 RMK AC2 SLP260

CYWG;2011-10-19 09:00;CYWG 190900Z 32004KT 15SM FEW009 BKN015 M04/M05 A3026 RMK SF2ST5 SLP259

CYWG;2011-10-19 10:00;CYWG 191000Z 32002KT 15SM SCT018 BKN027 M03/M04 A3026 RMK ST3SC3 SLP260

CYWG;2011-10-19 11:00;CYWG 191100Z 00000KT 15SM BKN014 M06/M06 A3027 RMK SC6 SLP262

CYWG;2011-10-19 11:39;CYWG 191139Z 34003KT 15SM BKN009 M04/ RMK SC7

CYWG;2011-10-19 12:00;CYWG 191200Z 32003KT 15SM BKN007 M03/M04 A3027 RMK SC7 SLP264

CYWG;2011-10-19 13:00;CYWG 191300Z 33003KT 4SM BR OVC005 M03/M03 A3028 RMK ST8 VIS NW - NE 1 SLP265

CYWG;2011-10-19 13:22;CYWG 191322Z 32005KT 6SM -FZDZ BR OVC005 M02/ RMK ST7

CYWG;2011-10-19 13:36;CYWG 191336Z 34004KT 4SM -FZDZ BR OVC004 M02/ RMK ST7

CYWG;2011-10-19 14:00;CYWG 191400Z 32004KT 3SM -FZDZ BR OVC003 M02/M02 A3029 RMK ST8 SLP269

CYWG;2011-10-19 14:29;CYWG 191429Z 34004KT 2SM -FZDZ BR OVC002 M01/ RMK ST8

CYWG;2011-10-19 15:00;CYWG 191500Z 34003KT 2SM -FZDZ BR OVC003 M01/M01 A3029 RMK ST8 SLP270

CYWG;2011-10-19 15:26;CYWG 191526Z 04003KT 6SM -FZDZ BR BKN003 OVC012 M00/ RMK ST6SC2

CYWG;2011-10-19 15:39;CYWG 191539Z 07004KT 10SM BKN004 00/ REFZDZ RMK ST7

CYWG;2011-10-19 15:47;CYWG 191547Z 03002KT 12SM BKN005 00/ REFZDZ RMK SC7

CYWG;2011-10-19 16:00;CYWG 191600Z 01002KT 15SM OVC005 00/M01 A3029 REFZDZ RMK SC7 SLP270

CYWG;2011-10-19 17:00;CYWG 191700Z 36002KT 15SM OVC008 01/M01 A3029 RMK SC8 SLP270

CYWG;2011-10-19 18:00;CYWG 191800Z 23002KT 15SM OVC009 02/M00 A3029 RMK SC8 SLP270

CYWG;2011-10-19 18:37;CYWG 191837Z 00000KT 15SM BKN010 02/ RMK SC7

CYWG;2011-10-19 19:00;CYWG 191900Z 10004KT 15SM BKN012 03/M00 A3027 RMK SC7 SLP263

CYWG;2011-10-19 20:00;CYWG 192000Z 02002KT 15SM BKN014 03/M00 A3024 RMK SC6 SLP255

CYWG;2011-10-19 20:25;CYWG 192025Z 12002KT 15SM SCT014 03/ RMK SC3

CYWG;2011-10-19 21:00;CYWG 192100Z 18003KT 15SM FEW015 05/M00 A3022 RMK SC2 SLP248

CYWG;2011-10-19 22:00;CYWG 192200Z 00000KT 15SM FEW015 04/M01 A3022 RMK SC1 SLP245

CYWG;2011-10-19 23:00;CYWG 192300Z 00000KT 15SM FEW020 04/M01 A3021 RMK SC1 SLP242

CYWG;2011-10-20 00:00;CYWG 200000Z 02002KT 15SM FEW020 02/M01 A3020 RMK SC1 SLP240

CYWG;2011-10-20 01:00;CYWG 200100Z 00000KT 15SM SKC M01/M02 A3019 RMK SLP238

CYWG;2011-10-20 02:00;CYWG 200200Z 34002KT 15SM SKC M02/M04 A3019 RMK SLP236

CYWG;2011-10-20 03:00;CYWG 200300Z 00000KT 15SM SKC M01/M02 A3018 RMK SLP234

CYWG;2011-10-20 04:00;CYWG 200400Z 00000KT 15SM SKC M05/M06 A3017 RMK SLP231

CYWG;2011-10-20 05:00;CYWG 200500Z 15003KT 15SM SKC M02/M02 A3017 RMK SLP230

CYWG;2011-10-20 06:00;CYWG 200600Z 16007KT 15SM SKC M02/M03 A3016 RMK SLP226

CYWG;2011-10-20 07:00;CYWG 200700Z 17005KT 15SM SKC M02/M03 A3016 RMK SLP226

CYWG;2011-10-20 08:00;CYWG 200800Z 19005KT 15SM SKC M02/M02 A3015 RMK SLP222

CYWG;2011-10-20 09:00;CYWG 200900Z 17007KT 15SM SKC M02/M04 A3013 RMK SLP216

CYWG;2011-10-20 10:00;CYWG 201000Z 17007KT 15SM SKC M03/M04 A3012 RMK SLP213

CYWG;2011-10-20 11:00;CYWG 201100Z 17007KT 15SM SKC M04/M05 A3012 RMK SLP213

CYWG;2011-10-20 12:00;CYWG 201200Z 17005KT 15SM SKC M04/M05 A3011 RMK SLP209

CYWG;2011-10-20 13:00;CYWG 201300Z 17007KT 15SM FEW260 M04/M05 A3009 RMK CI0 SLP204

CYWG;2011-10-20 14:00;CYWG 201400Z 17006KT 15SM FEW280 M01/M02 A3008 RMK CI0 SLP201

CYWG;2011-10-20 15:00;CYWG 201500Z 18008KT 15SM FEW300 01/M00 A3008 RMK CI0 SLP199

CYWG;2011-10-20 16:00;CYWG 201600Z 19007KT 15SM FEW300 04/01 A3007 RMK CI0 SLP197

CYWG;2011-10-20 17:00;CYWG 201700Z 18009KT 15SM SCT300 06/01 A3005 RMK CI0 SLP189

CYWG;2011-10-20 18:00;CYWG 201800Z 17012KT 15SM BKN300 08/00 A3002 RMK CI1 SLP176

CYWG;2011-10-20 19:00;CYWG 201900Z 18010KT 15SM OVC270 09/01 A2999 RMK CI1 SLP165

CYWG;2011-10-20 20:00;CYWG 202000Z 18013KT 15SM OVC270 09/M00 A2997 RMK CI2 SLP159

CYWG;2011-10-20 21:00;CYWG 202100Z 17012KT 15SM OVC270 09/M00 A2995 RMK CI2 SLP153

CYWG;2011-10-20 22:00;CYWG 202200Z 17012KT 15SM OVC270 09/00 A2994 RMK CI2 SLP149

CYWG;2011-10-20 23:00;CYWG 202300Z 17010KT 15SM OVC270 08/M00 A2992 RMK CI2 SLP143

CYWG;2011-10-21 00:00;CYWG 210000Z 17011KT 15SM OVC270 07/M00 A2991 RMK CI2 SLP139

CYWG;2011-10-21 01:00;CYWG 210100Z 17011KT 15SM BKN270 06/M00 A2990 RMK CI1 SLP136

CYWG;2011-10-21 02:00;CYWG 210200Z 18011KT 15SM BKN270 06/M00 A2989 RMK CI1 SLP132

CYWG;2011-10-21 03:00;CYWG 210300Z 18011KT 15SM BKN270 05/M01 A2988 RMK CI2 SLP129

CYWG;2011-10-21 04:00;CYWG 210400Z 18011KT 15SM BKN270 05/M01 A2987 RMK CI2 SLP124

CYWG;2011-10-21 05:00;CYWG 210500Z 18012KT 15SM BKN270 05/M01 A2985 RMK CI2 SLP118

CYWG;2011-10-21 06:00;CYWG 210600Z 18015KT 15SM BKN270 05/M01 A2983 RMK CI2 SLP108

CYWG;2011-10-21 07:00;CYWG 210700Z 18013KT 15SM BKN270 05/M01 A2982 RMK CI2 SLP105

CYWG;2011-10-21 08:00;CYWG 210800Z 18012KT 15SM FEW270 05/M01 A2981 RMK CI1 SLP102

CYWG;2011-10-21 09:00;CYWG 210900Z 19011G16KT 15SM FEW270 04/M01 A2981 RMK CI2 SLP104

CYWG;2011-10-21 10:00;CYWG 211000Z 18008KT 15SM SCT270 03/M01 A2980 RMK CI2 SLP101

CYWG;2011-10-21 11:00;CYWG 211100Z 19008KT 15SM BKN270 03/M01 A2981 RMK CI5 SLP103

CYWG;2011-10-21 12:00;CYWG 211200Z 21006KT 15SM FEW270 01/M02 A2982 RMK CI1 SLP109

CYWG;2011-10-21 13:00;CYWG 211300Z 21003KT 15SM FEW270 M00/M02 A2984 RMK CI1 SLP114

CYWG;2011-10-21 14:00;CYWG 211400Z 24003KT 15SM FEW270 01/M01 A2986 RMK CI0 SLP121

CYWG;2011-10-21 15:00;CYWG 211500Z 30010KT 15SM SKC 05/01 A2987 RMK SLP126

CYWG;2011-10-21 16:00;CYWG 211600Z 31012KT 15SM FEW250 09/03 A2989 RMK CI1 SLP131

CYWG;2011-10-21 17:00;CYWG 211700Z 32014G20KT 15SM FEW250 11/04 A2991 RMK CI2 SLP137

CYWG;2011-10-21 18:00;CYWG 211800Z 33015G21KT 15SM SCT250 12/04 A2992 RMK CI2 SLP140

CYWG;2011-10-21 19:00;CYWG 211900Z 32015KT 15SM FEW040 FEW120 BKN270 12/05 A2993 RMK SC1AC2CI1 SLP143

CYWG;2011-10-21 20:00;CYWG 212000Z 31013G18KT 15SM FEW040 FEW120 BKN270 12/05 A2994 RMK SC1AC1CI1 SLP147

CYWG;2011-10-21 21:00;CYWG 212100Z 33013KT 15SM FEW035 FEW120 BKN270 12/05 A2996 RMK SC1AC1CI1 SLP153

CYWG;2011-10-21 22:00;CYWG 212200Z 31013G19KT 15SM FEW035 FEW094 BKN250 12/04 A2997 RMK SC1AC1CI1 SLP157

CYWG;2011-10-21 23:00;CYWG 212300Z 32009KT 15SM FEW035 FEW100 SCT250 10/03 A2998 RMK SC1AC1CI1 SLP160

CYWG;2011-10-22 00:00;CYWG 220000Z 32009KT 15SM FEW035 FEW250 06/02 A3000 RMK SC1CI0 SLP170

CYWG;2011-10-22 01:00;CYWG 220100Z 31005KT 15SM SKC 04/01 A3001 RMK SLP172

CYWG;2011-10-22 02:00;CYWG 220200Z 28007KT 15SM FEW090 03/M00 A3001 RMK AC1 SLP174

CYWG;2011-10-22 03:00;CYWG 220300Z 30007KT 15SM FEW059 01/M01 A3003 RMK SC1 SLP179

CYWG;2011-10-22 04:00;CYWG 220400Z 28008KT 15SM FEW055 03/00 A3004 RMK SC2 SLP182

CYWG;2011-10-22 05:00;CYWG 220500Z 27004KT 15SM FEW055 01/M01 A3004 RMK SC2 SLP183

CYWG;2011-10-22 06:00;CYWG 220600Z 28005KT 15SM FEW055 02/M00 A3004 RMK SC2 SLP182

CYWG;2011-10-22 07:00;CYWG 220700Z 26003KT 15SM FEW055 01/M01 A3004 RMK SC2 SLP182

CYWG;2011-10-22 08:00;CYWG 220800Z 00000KT 15SM FEW055 M01/M01 A3004 RMK SC2 SLP182

CYWG;2011-10-22 09:00;CYWG 220900Z 25002KT 15SM FEW078 M02/M03 A3005 RMK AC2 SLP185

CYWG;2011-10-22 10:00;CYWG 221000Z 26002KT 15SM FEW053 M03/M03 A3006 RMK SC2 SLP187

CYWG;2011-10-22 11:00;CYWG 221100Z 00000KT 15SM FEW089 M04/M04 A3006 RMK AC2 SLP188

CYWG;2011-10-22 12:00;CYWG 221200Z 16004KT 15SM FEW085 M02/M03 A3006 RMK AC2 OBS TAKEN +05 SLP189

CYWG;2011-10-22 13:00;CYWG 221300Z 17005KT 15SM FEW096 M02/M02 A3005 RMK AC1 SLP188

CYWG;2011-10-22 14:00;CYWG 221400Z CCA 17006KT 8SM FEW100 BKN200 M01/M01 A3004 RMK AC1CI1 SLP183

CYWG;2011-10-22 15:00;CYWG 221500Z 17008KT 12SM SCT110 BKN200 03/01 A3003 RMK AC3CI1 SLP179

CYWG;2011-10-22 16:00;CYWG 221600Z 18007KT 15SM FEW110 BKN200 05/02 A3001 RMK AC2CI2 SLP175

CYWG;2011-10-22 17:00;CYWG 221700Z 17014KT 15SM SCT110 BKN200 09/03 A2997 RMK AC4CI2 SLP160

CYWG;2011-10-22 18:00;CYWG 221800Z 16015KT 15SM FEW120 BKN200 12/04 A2991 RMK AC2CI2 SLP138

CYWG;2011-10-22 19:00;CYWG 221900Z 18018KT 15SM FEW090 BKN250 13/03 A2987 RMK AC2CI2 SLP124

CYWG;2011-10-22 20:00;CYWG 222000Z 17019G24KT 15SM SCT097 BKN240 14/04 A2982 RMK AC3CI2 SLP106

CYWG;2011-10-22 21:00;CYWG 222100Z 18018KT 15SM BKN087 OVC230 14/03 A2977 RMK AC5CI3 SLP090

CYWG;2011-10-22 21:53;CYWG 222153Z 18014G19KT 15SM -RA SCT043 BKN060 OVC095 RMK SC3SC3AC2

CYWG;2011-10-22 22:00;CYWG 222200Z 18012G19KT 15SM -RA SCT038 BKN050 OVC095 13/04 A2975 RMK SC3SC3AC2 SLP082

CYWG;2011-10-22 23:00;CYWG 222300Z 16013KT 15SM -RA BKN028 BKN060 OVC089 12/07 A2967 RMK SC5SC2AC2 LTNG DIST NE SLP058

CYWG;2011-10-22 23:32;CYWG 222332Z 26004G18KT 15SM -TSRA BKN028 BKN060CB OVC089 RMK SC5CB2AC1 LTGCG S-W

CYWG;2011-10-22 23:52;CYWG 222352Z 21012KT 5SM TSRA BKN011 BKN030CB 12/ RMK SF5CB2 LTGICCCCG CLRG LN W

CYWG;2011-10-23 00:00;CYWG 230000Z 21007G17KT 5SM TSRA BKN011 BKN030CB BKN073 11/09 A2969 RMK SF5CB1AC1 LTGICCG CLRG LN W SLP064

CYWG;2011-10-23 00:12;CYWG 230012Z 22007KT 15SM -TSRA FEW011 SCT030CB BKN073 12/ RERA RMK SF2CB2AC2

CYWG;2011-10-23 00:28;CYWG 230028Z 24008KT 15SM FEW011 FEW030 SCT070 11/ RETSRA RMK SF1SC1AC2

CYWG;2011-10-23 01:00;CYWG 230100Z CCA 28008KT 15SM FEW030 10/07 A2970 RETSRA RMK SC2 SLP065

CYWG;2011-10-23 02:00;CYWG 230200Z 28008KT 15SM SKC 07/06 A2970 RMK SLP066

CYWG;2011-10-23 03:00;CYWG 230300Z 29008KT 15SM FEW088 06/05 A2970 RMK AC2 SLP067

CYWG;2011-10-23 04:00;CYWG 230400Z 28006KT 15SM FEW090 06/04 A2970 RMK AC2 SLP067

CYWG;2011-10-23 05:00;CYWG 230500Z 27007KT 15SM SCT062 07/05 A2970 RMK SC3 SLP066

CYWG;2011-10-23 06:00;CYWG 230600Z 27006KT 15SM SCT055 07/04 A2970 RMK SC2 SLP062

CYWG;2011-10-23 07:00;CYWG 230700Z 27009KT 15SM SCT052 06/04 A2971 RMK SC2 SLP066

CYWG;2011-10-23 08:00;CYWG 230800Z 27009KT 15SM FEW060 05/03 A2971 RMK SC2 SLP068

CYWG;2011-10-23 09:00;CYWG 230900Z 26007KT 15SM SKC 04/03 A2971 RMK SLP066

CYWG;2011-10-23 10:00;CYWG 231000Z 25010KT 15SM SKC 05/02 A2972 RMK SLP069

CYWG;2011-10-23 11:00;CYWG 231100Z 26009KT 15SM SKC 05/01 A2971 RMK SLP066

CYWG;2011-10-23 12:00;CYWG 231200Z 30005KT 15SM SKC 02/00 A2972 RMK SLP071

CYWG;2011-10-23 13:00;CYWG 231300Z 25006KT 15SM FEW120 02/M00 A2973 RMK AC1 SLP074

CYWG;2011-10-23 14:00;CYWG 231400Z 25008KT 15SM FEW120 03/00 A2974 RMK AC1 SLP079

CYWG;2011-10-23 15:00;CYWG 231500Z 27009KT 15SM FEW120 04/01 A2975 RMK AC1 SLP084

CYWG;2011-10-23 16:00;CYWG 231600Z 28012KT 15SM FEW015 FEW120 07/02 A2976 RMK SC1AC1 SC TR SLP087

CYWG;2011-10-23 17:00;CYWG 231700Z 30011KT 15SM FEW018 FEW120 09/04 A2977 RMK SC1AC1 SC TR SLP090

CYWG;2011-10-23 18:00;CYWG 231800Z 30010KT 15SM FEW018 FEW120 10/05 A2977 RMK SC2AC1 SLP090

CYWG;2011-10-23 19:00;CYWG 231900Z 31013KT 15SM FEW023 10/04 A2978 RMK SC2 SLP091

CYWG;2011-10-23 20:00;CYWG 232000Z 31015KT 15SM SCT027 10/04 A2978 RMK SC3 SLP092

CYWG;2011-10-23 21:00;CYWG 232100Z 31014G19KT 15SM FEW025 FEW100 10/03 A2980 RMK SC2AC1 SLP097

CYWG;2011-10-23 22:00;CYWG 232200Z 34013KT 15SM FEW025 SCT063 BKN100 09/03 A2981 RMK SC2SC2AC1 SLP103

CYWG;2011-10-23 23:00;CYWG 232300Z 35012KT 15SM BKN054 07/03 A2984 RMK SC5 SLP112

CYWG;2011-10-24 00:00;CYWG 240000Z 36005KT 15SM FEW025 SCT057 06/03 A2987 RMK SC1SC3 SLP124

CYWG;2011-10-24 01:00;CYWG 240100Z 35004KT 15SM FEW055 01/00 A2989 RMK SC2 SLP130

CYWG;2011-10-24 02:00;CYWG 240200Z 02005KT 15SM FEW055 02/01 A2990 RMK SC1 SLP134

CYWG;2011-10-24 03:00;CYWG 240300Z 01006KT 15SM BKN018 01/M00 A2992 RMK SC6 SLP141

CYWG;2011-10-24 04:00;CYWG 240400Z 34003KT 15SM FEW018 M00/M01 A2993 RMK SC2 SLP144

CYWG;2011-10-24 05:00;CYWG 240500Z 27003KT 15SM FEW020 M02/M03 A2993 RMK SC1 SLP145

CYWG;2011-10-24 06:00;CYWG 240600Z 29004KT 15SM FEW020 M03/M03 A2994 RMK SC2 SLP149

CYWG;2011-10-24 07:00;CYWG 240700Z 29002KT 15SM FEW023 M04/M05 A2995 RMK SC2 SLP151

CYWG;2011-10-24 08:00;CYWG 240800Z 28003KT 15SM FEW079 M04/M04 A2995 RMK AC2 SLP153

CYWG;2011-10-24 09:00;CYWG 240900Z 29006KT 15SM FEW024 BKN081 M03/M03 A2997 RMK SC2AC2 SLP159

CYWG;2011-10-24 10:00;CYWG 241000Z 28003KT 15SM SCT023 BKN055 BKN097 M02/M03 A2998 RMK SC3SC2AC1 SLP162

CYWG;2011-10-24 11:00;CYWG 241100Z 00000KT 15SM BKN055 M03/M03 A2999 RMK SC5 FROIN SLP164

CYWG;2011-10-24 12:00;CYWG 241200Z 00000KT 15SM BKN053 M02/M02 A2999 RMK SC7 FROIN SLP167

CYWG;2011-10-24 13:00;CYWG 241300Z 00000KT 15SM BKN049 M01/M01 A2999 RMK SC7 SLP169

CYWG;2011-10-24 14:00;CYWG 241400Z 17004KT 15SM BKN045 01/00 A3000 RMK SC6 SLP171

CYWG;2011-10-24 15:00;CYWG 241500Z 20006KT 15SM BKN042 BKN250 02/01 A3001 RMK SC5CI1 SLP175

CYWG;2011-10-24 16:00;CYWG 241600Z 20006KT 15SM FEW046 FEW250 04/01 A3002 RMK SC1CI1 SLP176

CYWG;2011-10-24 17:00;CYWG 241700Z 19005KT 15SM FEW015 FEW080 FEW250 06/02 A3001 RMK CF1AC1CI1 SLP175

CYWG;2011-10-24 18:00;CYWG 241800Z 22008KT 15SM FEW015 FEW080 FEW250 08/03 A3000 RMK CF1AC1CI1 SLP171

CYWG;2011-10-24 19:00;CYWG 241900Z 23006KT 15SM FEW015 FEW250 09/03 A2999 RMK CF1CI0 SLP166

CYWG;2011-10-24 20:00;CYWG 242000Z 21006KT 15SM FEW030 FEW250 10/03 A2997 RMK CF1CI0 SLP160

CYWG;2011-10-24 21:00;CYWG 242100Z 27004KT 15SM FEW040 FEW080 BKN250 11/02 A2997 RMK CU1AC1CI2 SLP159

CYWG;2011-10-24 22:00;CYWG 242200Z 27002KT 15SM FEW030 FEW080 BKN250 10/02 A2996 RMK CU1AC1CI2 SLP157

CYWG;2011-10-24 23:00;CYWG 242300Z 21003KT 15SM FEW080 BKN250 09/02 A2997 RMK AC1CI5 SLP160

CYWG;2011-10-25 00:00;CYWG 250000Z 18003KT 15SM FEW080 BKN250 07/01 A2998 RMK AC1CI5 SLP164

CYWG;2011-10-25 01:00;CYWG 250100Z 21003KT 15SM BKN250 06/01 A2999 RMK CI3 SLP167

CYWG;2011-10-25 02:00;CYWG 250200Z 21007KT 15SM BKN250 05/01 A3000 RMK CI3 SLP170

CYWG;2011-10-25 03:00;CYWG 250300Z 21008KT 15SM SKC 05/01 A3002 RMK SLP177

CYWG;2011-10-25 04:00;CYWG 250400Z 21008KT 15SM SKC 05/01 A3002 RMK SLP177

CYWG;2011-10-25 05:00;CYWG 250500Z 22008KT 15SM SKC 04/00 A3003 RMK SLP179

CYWG;2011-10-25 06:00;CYWG 250600Z 22007KT 15SM BKN230 04/00 A3003 RMK CI2 SLP179

CYWG;2011-10-25 07:00;CYWG 250700Z 22007KT 15SM BKN230 03/00 A3003 RMK CI3 SLP178

CYWG;2011-10-25 08:00;CYWG 250800Z 22005KT 15SM BKN210 02/M00 A3002 RMK CI4 SLP175

CYWG;2011-10-25 09:00;CYWG 250900Z 20004KT 15SM FEW085 BKN210 01/M01 A3002 RMK AC2CI2 SLP173

CYWG;2011-10-25 10:00;CYWG 251000Z 34002KT 15SM BKN091 M00/M02 A3002 RMK AC5 SLP175

CYWG;2011-10-25 11:00;CYWG 251100Z 19003KT 15SM BKN091 M01/M02 A3003 RMK AC6 SLP176

CYWG;2011-10-25 12:00;CYWG 251200Z 00000KT 15SM BKN090 M02/M03 A3003 RMK AC5 SLP180

CYWG;2011-10-25 13:00;CYWG 251300Z 22002KT 15SM BKN090 BKN280 M01/M03 A3004 RMK AC5CI0 SLP182

CYWG;2011-10-25 14:00;CYWG 251400Z 30002KT 15SM BKN090 BKN280 M01/M02 A3005 RMK AC3CI2 SLP186

CYWG;2011-10-25 15:00;CYWG 251500Z 35002KT 15SM BKN110 OVC280 02/M00 A3005 RMK AC5CI2 SLP186

CYWG;2011-10-25 16:00;CYWG 251600Z 35003KT 15SM BKN110 OVC280 03/01 A3005 RMK AC6CI1 SLP187

CYWG;2011-10-25 17:00;CYWG 251700Z 00000KT 10SM BKN110 OVC280 05/03 A3006 RMK AC6CI1 HZ SLP190

CYWG;2011-10-25 18:00;CYWG 251800Z 00000KT 10SM OVC110 07/04 A3006 RMK AC8 HZ SLP188

CYWG;2011-10-25 19:00;CYWG 251900Z 35002KT 10SM FEW064 BKN097 OVC280 08/03 A3005 RMK SC1AC6CI1 HZ SLP185

CYWG;2011-10-25 20:00;CYWG 252000Z 34006KT 10SM BKN083 OVC280 09/04 A3004 RMK AC6CI2 HZ SLP183

CYWG;2011-10-25 21:00;CYWG 252100Z 35006KT 15SM BKN075 OVC110 09/03 A3005 RMK AC5AC2 SLP185

CYWG;2011-10-25 22:00;CYWG 252200Z 34006KT 15SM FEW085 OVC110 09/03 A3006 RMK AC2AC6 SLP188

CYWG;2011-10-25 23:00;CYWG 252300Z 02005KT 15SM BKN084 07/03 A3005 RMK AC7 SLP186

CYWG;2011-10-26 00:00;CYWG 260000Z 05002KT 15SM OVC091 06/03 A3006 RMK AC8 SLP191

CYWG;2011-10-26 01:00;CYWG 260100Z 34003KT 15SM OVC084 03/02 A3007 RMK AC8 SLP195

CYWG;2011-10-26 02:00;CYWG 260200Z 32004KT 15SM SCT095 OVC250 02/01 A3009 RMK AC4CI3 SLP199

CYWG;2011-10-26 03:00;CYWG 260300Z 31003KT 15SM BKN098 BKN250 03/02 A3009 RMK AC5CI1 SLP201

CYWG;2011-10-26 04:00;CYWG 260400Z 24004KT 15SM BKN074 BKN250 02/01 A3009 RMK AC5CI1 SLP200

CYWG;2011-10-26 05:00;CYWG 260500Z 26004KT 15SM BKN069 OVC250 03/01 A3009 RMK AC6CI2 SLP202

CYWG;2011-10-26 06:00;CYWG 260600Z 25004KT 15SM BKN064 BKN250 04/01 A3009 RMK SC5CI1 SLP199

CYWG;2011-10-26 07:00;CYWG 260700Z 27003KT 15SM BKN034 BKN250 03/01 A3009 RMK SC5CI1 SLP199

CYWG;2011-10-26 08:00;CYWG 260800Z 26003KT 15SM BKN066 BKN250 02/01 A3009 RMK AC5CI1 SLP198

CYWG;2011-10-26 09:00;CYWG 260900Z 27005KT 15SM BKN035 BKN250 01/00 A3009 RMK SC6CI1 SLP198

CYWG;2011-10-26 10:00;CYWG 261000Z 27004KT 15SM BKN051 01/00 A3009 RMK SC6 SLP199

CYWG;2011-10-26 11:00;CYWG 261100Z 24004KT 15SM SCT053 00/M00 A3008 RMK SC4 SLP197

CYWG;2011-10-26 12:00;CYWG 261200Z 26003KT 15SM BKN056 01/00 A3009 RMK SC6 SLP199

CYWG;2011-10-26 13:00;CYWG 261300Z 26005KT 15SM BKN056 BKN089 01/00 A3009 RMK SC5AC2 SLP199

CYWG;2011-10-26 14:00;CYWG 261400Z 23003KT 15SM FEW060 SCT091 M00/M01 A3009 RMK SC2AC2 SLP199

CYWG;2011-10-26 15:00;CYWG 261500Z 29006KT 15SM BKN093 02/01 A3009 RMK AC7 SLP200

CYWG;2011-10-26 16:00;CYWG 261600Z 30007KT 15SM BKN100 04/03 A3010 RMK AC7 SLP203

CYWG;2011-10-26 17:00;CYWG 261700Z 29008KT 15SM FEW015 BKN070 05/03 A3010 RMK CU1AC6 SLP204

CYWG;2011-10-26 18:00;CYWG 261800Z 31007KT 15SM SCT063 07/04 A3009 RMK SC4 ACC W VIRGA W SLP199

CYWG;2011-10-26 19:00;CYWG 261900Z CCA 32006KT 15SM FEW025 SCT055TCU 07/02 A3008 RMK SC1TCU2 VIRGA N-W SLP194

CYWG;2011-10-26 20:00;CYWG 262000Z 30006KT 15SM FEW025 SCT055TCU BKN070 09/02 A3005 RMK SC1TCU2AC1 VIRGA NW-E SLP185

CYWG;2011-10-26 21:00;CYWG 262100Z 05008KT 15SM BKN029TCU BKN070 07/01 A3003 RMK TCU5AC1 VIRGA ALQDS SLP178

CYWG;2011-10-26 22:00;CYWG 262200Z 03004KT 15SM BKN035TCU 08/01 A3003 RMK TCU6 VIRGA NW-SE SLP178

CYWG;2011-10-26 23:00;CYWG 262300Z 05004KT 15SM FEW025TCU 05/01 A3003 RMK TCU2 SLP177

CYWG;2011-10-27 00:00;CYWG 270000Z 30004KT 15SM FEW027 FEW070 02/M01 A3003 RMK CU1AC1 SLP182

CYWG;2011-10-27 01:00;CYWG 270100Z 34006KT 15SM FEW080 M01/M03 A3004 RMK AC1 SLP185

CYWG;2011-10-27 02:00;CYWG 270200Z 32005KT 15SM FEW100 M02/M04 A3004 RMK AC1 SLP185

CYWG;2011-10-27 03:00;CYWG 270300Z 30006KT 15SM SKC M03/M05 A3005 RMK SLP188

CYWG;2011-10-27 04:00;CYWG 270400Z 28006KT 15SM FEW083 M04/M05 A3004 RMK AC2 SLP187

CYWG;2011-10-27 05:00;CYWG 270500Z 27007KT 15SM FEW079 M04/M05 A3004 RMK AC1 SLP187

CYWG;2011-10-27 06:00;CYWG 270600Z 27006KT 15SM SCT028 SCT090 M03/M04 A3004 RMK SC2AC1 SLP183

CYWG;2011-10-27 07:00;CYWG 270700Z 28006KT 15SM SKC M04/M05 A3003 RMK SLP181

CYWG;2011-10-27 08:00;CYWG 270800Z 30006KT 15SM FEW002 M05/M06 A3003 RMK SF1 TR CLD NE-E AND W SLP179

CYWG;2011-10-27 08:45;CYWG 270845Z 29007KT 2 1/2SM BR PRFG FEW001 M04/ RMK SF2 VIS SE-W AND N 6 BR

CYWG;2011-10-27 09:00;CYWG 270900Z 28006KT 4SM BR PRFG FEW001 M05/M05 A3001 RMK SF2 VIS NE 3/4 BR VIS NW 9 SLP174

CYWG;2011-10-27 09:30;CYWG 270930Z 34002KT 1SM R13/2600VP6000FT/N R36/P6000FT/N BR SKC M05/ RMK FG7

CYWG;2011-10-27 09:44;CYWG 270944Z 31002KT 1/2SM R13/1600FT/N R36/P6000FT/U FZFG VV001 M05/ RMK FG8 FROIN

CYWG;2011-10-27 10:00;CYWG 271000Z 31003KT 0SM R13/1000FT/N R36/0800V1200FT/N FZFG VV001 M05/M05 A3002 RMK FG8 SLP176

CYWG;2011-10-27 10:43;CYWG 271043Z 26003KT 1/8SM R13/1800FT/N R36/2600FT/N FZFG SKC M05/ RMK FG6 FROIN

CYWG;2011-10-27 11:00;CYWG 271100Z 28002KT 1/4SM R13/1400V1800FT/N R36/1400V2000FT/N FZFG SKC M04/M05 A3002 RMK FG6 FROIN SLP178

CYWG;2011-10-27 11:33;CYWG 271133Z 00000KT 1/8SM R13/1000FT/N R36/1200FT/N FZFG VV001 M04/ RMK FG8 FROIN

CYWG;2011-10-27 12:00;CYWG 271200Z 00000KT 1/8SM R13/2000FT/N R36/1100FT/N FZFG VV001 M04/M04 A3002 RMK FG8 FROIN SLP179

CYWG;2011-10-27 12:12;CYWG 271212Z 00000KT 0SM R13/1800FT/N R36/1400FT/N FZFG VV001 M03/ RMK FG8 FROIN

CYWG;2011-10-27 12:20;CYWG 271220Z 14002KT 1/8SM R13/1100V1600FT/N R36/1200FT/N FZFG VV001 M03/ RMK FG8 FROIN

CYWG;2011-10-27 12:43;CYWG 271243Z 00000KT 0SM R13/0600V0900FT/N R36/1200FT/N FZFG VV001 M02/ RMK FG8 FROIN

CYWG;2011-10-27 13:00;CYWG 271300Z 00000KT 0SM R13/0700FT/N R36/0700V1000FT/N FZFG SKC M03/M03 A3001 RMK FG6 FROIN SLP175

CYWG;2011-10-27 13:09;CYWG 271309Z CCA 00000KT 1/8SM R13/0700V1000FT/N R36/0700V1100FT/N FZFG SKC M03/ RMK FG6 FROIN

CYWG;2011-10-27 14:00;CYWG 271400Z 17004KT 1/8SM R13/1200V1800FT/D R36/1600FT/N FZFG SKC M02/M03 A3001 RMK FG6 FROIN SLP177

CYWG;2011-10-27 14:52;CYWG 271452Z 19004KT 1/4SM R13/1200V2000FT/U R36/1200V2400FT/U FZFG SKC M02/ RMK FG6 FROIN

CYWG;2011-10-27 15:00;CYWG 271500Z 19003KT 1/4SM R13/1200V2600FT/U R36/1600V2400FT/U FZFG SKC M02/M02 A3001 RMK FG6 FROIN SLP178

CYWG;2011-10-27 16:00;CYWG 271600Z 16006KT 1/4SM R13/2200FT/N R36/1800FT/N FZFG SKC M01/M01 A3001 RMK FG6 SLP176

CYWG;2011-10-27 16:18;CYWG 271618Z 16006KT 1/8SM R13/2000FT/N R36/1400V2000FT/N FZFG SKC M01/ RMK FG7

CYWG;2011-10-27 16:29;CYWG 271629Z 17006KT 1/4SM R13/2200FT/N R36/1200V1800FT/N FZFG SKC M01/ RMK FG7

CYWG;2011-10-27 17:00;CYWG 271700Z 17007KT 1/2SM R13/2800V5000FT/N R36/3000FT/D FG SKC 00/00 A3000 RMK FG6 SLP174

CYWG;2011-10-27 17:20;CYWG 271720Z 17008KT 1 1/2SM BR BKN001 BKN027 01/ RMK FG2SF2SC1

CYWG;2011-10-27 17:27;CYWG 271727Z 18007KT 3SM BR BKN003 01/ RMK SF5 VIS NW 11/2

CYWG;2011-10-27 17:46;CYWG 271746Z 17008KT 15SM SCT003 SCT200 02/ RMK SF3CI1

CYWG;2011-10-27 18:00;CYWG 271800Z 16007KT 15SM FEW005 SCT240 03/03 A2998 RMK SF2CI1 SLP164

CYWG;2011-10-27 19:00;CYWG 271900Z 16009KT 15SM FEW010 SCT240 05/01 A2996 RMK SF1CI1 SLP157

CYWG;2011-10-27 20:00;CYWG 272000Z 16011KT 15SM FEW015 BKN240 07/01 A2993 RMK SF1CI1 SF TR SLP149

CYWG;2011-10-27 21:00;CYWG 272100Z 16013KT 15SM FEW015 BKN240 07/00 A2992 RMK SF1CI6 SF TR SLP143

CYWG;2011-10-27 22:00;CYWG 272200Z 18009KT 15SM FEW100 BKN210 07/M00 A2992 RMK AC1CI6 SLP142

CYWG;2011-10-27 23:00;CYWG 272300Z 17010KT 15SM FEW100 BKN210 06/M00 A2991 RMK AC1CI6 SLP140

CYWG;2011-10-28 00:00;CYWG 280000Z 15009KT 15SM FEW090 BKN210 05/00 A2991 RMK AC1CI5 SLP142

CYWG;2011-10-28 01:00;CYWG 280100Z 15010KT 15SM FEW090 BKN210 04/00 A2991 RMK AC2CI4 SLP141

CYWG;2011-10-28 02:00;CYWG 280200Z 16009KT 15SM FEW056 FEW100 BKN210 04/M00 A2990 RMK SC2AC1CI3 SLP137

CYWG;2011-10-28 03:00;CYWG 280300Z 18008KT 15SM BKN045 BKN080 05/M00 A2990 RMK SC5AC2 SLP137

CYWG;2011-10-28 03:29;CYWG 280329Z 19007KT 15SM -SHRA BKN033 04/ RMK SC6

CYWG;2011-10-28 04:00;CYWG 280400Z 25005KT 15SM -SHRA OVC028 04/01 A2990 RMK SC8 SLP137

CYWG;2011-10-28 05:00;CYWG 280500Z 26003KT 15SM -SHRA OVC018 03/03 A2990 RMK SC8 SLP137

CYWG;2011-10-28 06:00;CYWG 280600Z 24002KT 15SM OVC018 02/02 A2990 RMK SC8 SLP135

CYWG;2011-10-28 06:10;CYWG 280610Z 23002KT 15SM SCT058 02/ RMK SC3

CYWG;2011-10-28 07:00;CYWG 280700Z 18003KT 15SM SCT035 02/01 A2990 RMK SC4 SLP134

CYWG;2011-10-28 08:00;CYWG 280800Z 21004KT 15SM FEW050 00/00 A2990 RMK SC1 SLP135

CYWG;2011-10-28 09:00;CYWG 280900Z 27008KT 15SM FEW040 01/01 A2990 RMK SC1 SLP135

CYWG;2011-10-28 10:00;CYWG 281000Z 27009KT 15SM FEW250 M01/M02 A2991 RMK CI1 SLP139

CYWG;2011-10-28 11:00;CYWG 281100Z 27007KT 15SM SKC M02/M03 A2993 RMK SLP143

CYWG;2011-10-28 12:00;CYWG 281200Z 27007KT 15SM SCT055 M02/M03 A2993 RMK SC3 SLP148

CYWG;2011-10-28 13:00;CYWG 281300Z 27007KT 15SM FEW045 M03/M04 A2995 RMK SC1 SLP152

CYWG;2011-10-28 14:00;CYWG 281400Z 27008KT 15SM FEW045 M02/M04 A2996 RMK SC1 SLP155

CYWG;2011-10-28 15:00;CYWG 281500Z 28008KT 15SM FEW045 M00/M02 A2997 RMK SC1 SLP159

CYWG;2011-10-28 16:00;CYWG 281600Z 27006KT 15SM BKN086 03/01 A2997 RMK AC5 SLP159

CYWG;2011-10-28 17:00;CYWG 281700Z 29010KT 15SM BKN089 05/01 A2998 RMK AC6 SLP163

CYWG;2011-10-28 18:00;CYWG 281800Z 30009KT 15SM BKN076 06/02 A2998 RMK AC6 SLP161

CYWG;2011-10-28 19:00;CYWG 281900Z 28010KT 15SM FEW050TCU BKN080 08/02 A2997 RMK TCU1AC4 SH NW QUAD SLP159

CYWG;2011-10-28 20:00;CYWG 282000Z 28013KT 15SM FEW040 SCT090 08/02 A2996 RMK CU2AC1 TCU ASOCTD VIRGA NW SLP156

CYWG;2011-10-28 21:00;CYWG 282100Z 31011G18KT 15SM FEW070 08/00 A2997 RMK CU2 TCU ASOCTD VIRGA E SLP159

CYWG;2011-10-28 22:00;CYWG 282200Z 32012KT 15SM FEW060 07/M00 A2998 RMK SC1 TCU EMB E SLP163

CYWG;2011-10-28 23:00;CYWG 282300Z 31008KT 15SM FEW050 05/M00 A2999 RMK SC1 SLP165

CYWG;2011-10-29 00:00;CYWG 290000Z 30008KT 15SM FEW050 M00/M03 A3000 RMK SC1 SLP173

CYWG;2011-10-29 01:00;CYWG 290100Z 30006KT 15SM SKC M02/M04 A3000 RMK SLP172

CYWG;2011-10-29 02:00;CYWG 290200Z 28007KT 15SM SKC M01/M03 A3000 RMK SLP172

CYWG;2011-10-29 03:00;CYWG 290300Z 29005KT 15SM SKC M01/M03 A2999 RMK SLP170

CYWG;2011-10-29 04:00;CYWG 290400Z 28002KT 15SM SKC M04/M05 A2999 RMK SLP169

CYWG;2011-10-29 05:00;CYWG 290500Z 26004KT 15SM SKC M02/M03 A2999 RMK SLP168

CYWG;2011-10-29 06:00;CYWG 290600Z 00000KT 15SM SKC M04/M05 A2998 RMK SLP163

CYWG;2011-10-29 07:00;CYWG 290700Z 17002KT 15SM SKC M03/M04 A2998 RMK SLP163

CYWG;2011-10-29 08:00;CYWG 290800Z 17003KT 15SM SKC M04/M06 A2997 RMK SLP162

CYWG;2011-10-29 09:00;CYWG 290900Z 16004KT 15SM SKC M05/M06 A2996 RMK SLP158

CYWG;2011-10-29 10:00;CYWG 291000Z 17006KT 15SM SKC M05/M07 A2995 RMK SLP153

CYWG;2011-10-29 11:00;CYWG 291100Z 17006KT 15SM FEW250 M05/M06 A2994 RMK CI1 SLP151

CYWG;2011-10-29 12:00;CYWG 291200Z 17008KT 15SM FEW250 M04/M05 A2995 RMK CI1 SLP155

CYWG;2011-10-29 13:00;CYWG 291300Z 15008KT 15SM FEW100 BKN250 M04/M06 A2993 RMK AC1CI2 SLP148

CYWG;2011-10-29 14:00;CYWG 291400Z 16006KT 15SM FEW100 SCT250 M03/M05 A2993 RMK AC1CI2 SLP149

CYWG;2011-10-29 15:00;CYWG 291500Z 17007KT 15SM FEW100 SCT250 00/M01 A2992 RMK AC1CI1 SLP144

CYWG;2011-10-29 16:00;CYWG 291600Z 17011KT 15SM SCT250 03/M00 A2990 RMK CI1 SLP139

CYWG;2011-10-29 17:00;CYWG 291700Z 17013G18KT 15SM BKN250 06/M01 A2989 RMK CI2 SLP133

CYWG;2011-10-29 18:00;CYWG 291800Z 16013G18KT 15SM FEW120 BKN250 08/M01 A2986 RMK AC2CI3 SLP123

CYWG;2011-10-29 19:00;CYWG 291900Z 17014G19KT 15SM SCT120 OVC250 08/M02 A2984 RMK AC4CI1 SLP115

CYWG;2011-10-29 20:00;CYWG 292000Z 16016G25KT 15SM BKN120 OVC250 09/M02 A2981 RMK AC5CI1 SLP106

CYWG;2011-10-29 21:00;CYWG 292100Z 15015KT 15SM BKN120 OVC250 09/M02 A2980 RMK AC6CI2 SLP104

CYWG;2011-10-29 22:00;CYWG 292200Z 16015KT 15SM FEW080 BKN120 OVC250 09/M03 A2979 RMK AC1AC4CI2 SLP099

CYWG;2011-10-29 23:00;CYWG 292300Z 15010KT 15SM FEW080 BKN120 OVC250 08/M02 A2979 RMK AC1AC5CI1 SLP098

CYWG;2011-10-30 00:00;CYWG 300000Z 15011KT 15SM OVC042 08/M03 A2979 RMK SC8 SLP098

CYWG;2011-10-30 01:00;CYWG 300100Z 15014G19KT 15SM OVC036 08/M03 A2978 RMK SC8 SLP096

CYWG;2011-10-30 01:20;CYWG 300120Z 15013KT 15SM -SHRA OVC032 08/ RMK SC8 CVCTV CLD ASOCTD

CYWG;2011-10-30 02:00;CYWG 300200Z 16015G20KT 15SM -SHRA OVC032 07/00 A2977 RMK SC8 CVCTV CLD ASOCTD SLP093

CYWG;2011-10-30 03:00;CYWG 300300Z 15015KT 15SM OVC038 07/M00 A2977 RMK SC8 SLP089

CYWG;2011-10-30 03:36;CYWG 300336Z 17019G27KT 15SM -SHRA OVC034 07/ RMK SC8

CYWG;2011-10-30 04:00;CYWG 300400Z 16018KT 15SM -SHRA OVC034 06/01 A2976 RMK SC8 SLP086

CYWG;2011-10-30 04:40;CYWG 300440Z 15015KT 15SM OVC052 06/ RMK SC8

CYWG;2011-10-30 05:00;CYWG 300500Z 15016KT 15SM BKN054 06/02 A2974 RMK SC7 SLP079

CYWG;2011-10-30 06:00;CYWG 300600Z 14015KT 15SM BKN052 06/02 A2973 RMK SC7 SLP074

CYWG;2011-10-30 07:00;CYWG 300700Z 15012KT 15SM BKN046 06/02 A2973 RMK SC7 SLP074

CYWG;2011-10-30 08:00;CYWG 300800Z 15011KT 15SM BKN052 06/02 A2972 RMK SC7 SLP071

CYWG;2011-10-30 09:00;CYWG 300900Z 15009KT 15SM FEW040 BKN058 06/01 A2971 RMK SC2SC5 SLP069

CYWG;2011-10-30 10:00;CYWG 301000Z 18005KT 15SM FEW038 BKN060 05/01 A2972 RMK SC2SC5 SLP071

CYWG;2011-10-30 11:00;CYWG 301100Z 20005KT 15SM FEW038 OVC060 05/01 A2972 RMK SC2SC6 SLP073

CYWG;2011-10-30 12:00;CYWG 301200Z 28006KT 15SM SCT044 OVC062 04/02 A2974 RMK SC3SC5 SLP081

CYWG;2011-10-30 13:00;CYWG 301300Z 28007KT 15SM BKN038 OVC070 04/03 A2976 RMK SC5AC3 SLP087

CYWG;2011-10-30 14:00;CYWG 301400Z 25003KT 15SM FEW045 OVC073 04/03 A2978 RMK SC2AC6 SLP094

CYWG;2011-10-30 14:15;CYWG 301415Z 26004KT 15SM BKN007 OVC045 04/ RMK ST6SC2

CYWG;2011-10-30 15:00;CYWG 301500Z 29007KT 15SM FEW008 OVC013 05/04 A2979 RMK SF2SC6 SLP097

CYWG;2011-10-30 15:24;CYWG 301524Z 31010KT 15SM OVC015 05/ RMK SC8

CYWG;2011-10-30 16:00;CYWG 301600Z 31011KT 15SM FEW019 BKN048 OVC073 05/03 A2981 RMK SC2SC4AC2 SLP102

CYWG;2011-10-30 16:16;CYWG 301616Z 31011KT 15SM BKN011 OVC048 06/ RMK ST6SC2

CYWG;2011-10-30 17:00;CYWG 301700Z 30011KT 15SM OVC011 06/03 A2983 RMK SC8 SLP109

CYWG;2011-10-30 18:00;CYWG 301800Z 30012KT 15SM OVC010 05/04 A2984 RMK SC8 SLP113

CYWG;2011-10-30 19:00;CYWG 301900Z 31010KT 15SM OVC012 06/03 A2984 RMK SC8 SLP114

CYWG;2011-10-30 20:00;CYWG 302000Z 29012KT 15SM OVC012 06/03 A2987 RMK SC8 SLP122

CYWG;2011-10-30 21:00;CYWG 302100Z 30009KT 15SM OVC014 06/03 A2988 RMK SC8 SLP126

CYWG;2011-10-30 22:00;CYWG 302200Z 29011KT 15SM OVC014 05/03 A2991 RMK SC8 SLP136

CYWG;2011-10-30 23:00;CYWG 302300Z 30007KT 15SM OVC016 05/02 A2991 RMK SC8 SLP137

CYWG;2011-10-31 00:00;CYWG 310000Z 28004KT 15SM BKN022 OVC044 04/02 A2991 RMK SC5SC3 SLP138

CYWG;2011-10-31 01:00;CYWG 310100Z 25004KT 15SM OVC044 04/02 A2992 RMK SC8 SLP140

CYWG;2011-10-31 02:00;CYWG 310200Z 25005KT 15SM BKN046 04/02 A2991 RMK SC7 SLP139

CYWG;2011-10-31 03:00;CYWG 310300Z 24005KT 15SM FEW033 OVC046 04/01 A2992 RMK SC2SC6 SLP140

CYWG;2011-10-31 04:00;CYWG 310400Z 21005KT 15SM BKN039 BKN066 03/01 A2991 RMK SC5AC2 SLP138

CYWG;2011-10-31 05:00;CYWG 310500Z 23006KT 15SM BKN035 OVC071 04/01 A2991 RMK SC5AC3 SLP137

CYWG;2011-10-31 06:00;CYWG 310600Z 22004KT 15SM FEW035 BKN075 02/00 A2990 RMK SC2AC2 SLP136

CYWG;2011-10-31 07:00;CYWG 310700Z 23007KT 15SM SCT075 01/M00 A2991 RMK AC3 SLP137

CYWG;2011-10-31 08:00;CYWG 310800Z 22006KT 15SM SKC M01/M02 A2990 RMK SLP134

CYWG;2011-10-31 09:00;CYWG 310900Z 18005KT 15SM SKC M01/M02 A2988 RMK SLP128

CYWG;2011-10-31 10:00;CYWG 311000Z 18005KT 15SM SKC M03/M04 A2986 RMK SLP122

CYWG;2011-10-31 11:00;CYWG 311100Z 18007KT 15SM SKC M03/M04 A2985 RMK SLP120

CYWG;2011-10-31 12:00;CYWG 311200Z 19007KT 15SM SCT093 M01/M02 A2983 RMK AC2 SLP114

CYWG;2011-10-31 13:00;CYWG 311300Z 18008KT 15SM SCT093 BKN210 00/M02 A2981 RMK AC3CI1 SLP106

CYWG;2011-10-31 14:00;CYWG 311400Z 17009KT 15SM BKN100 OVC210 01/M01 A2980 RMK AC6CI1 SLP102

CYWG;2011-10-31 15:00;CYWG 311500Z 17010KT 15SM BKN110 OVC210 02/M00 A2978 RMK AC7CI0 SLP096

CYWG;2011-10-31 16:00;CYWG 311600Z 17013KT 15SM BKN110 BKN210 03/00 A2975 RMK AC6CI0 SLP086

CYWG;2011-10-31 17:00;CYWG 311700Z 16014KT 15SM SCT110 BKN210 06/00 A2972 RMK AC3CI0 SLP076

CYWG;2011-10-31 18:00;CYWG 311800Z 16013G20KT 15SM FEW110 SCT210 10/01 A2968 RMK AC2CI1 SLP060

CYWG;2011-10-31 19:00;CYWG 311900Z 16020G27KT 15SM SCT092 SCT210 11/M01 A2964 RMK AC2CI1 SLP046

CYWG;2011-10-31 20:00;CYWG 312000Z 18022G29KT 15SM BKN098 BKN210 12/M01 A2962 RMK AC5CI1 VIRGA SLP038

CYWG;2011-10-31 21:00;CYWG 312100Z 17021G29KT 15SM SCT098 11/M00 A2961 RMK AC2 SLP036

CYWG;2011-10-31 22:00;CYWG 312200Z 18020G25KT 15SM FEW098 12/00 A2961 RMK AC2 SLP036

CYWG;2011-10-31 23:00;CYWG 312300Z 17012KT 15SM FEW098 10/00 A2961 RMK AC2 SLP036

CYWG;2011-11-01 01:00;CYWG 010100Z 18010KT 15SM -SHRA BKN077 10/01 A2961 RMK AC6 SLP037

CYWG;2011-11-01 02:00;CYWG 010200Z 18005KT 15SM -RA OVC040 08/03 A2961 RMK SC8 SLP035

CYWG;2011-11-01 02:29;CYWG 010229Z 23005KT 15SM OVC040 08/ RMK SC8

CYWG;2011-11-01 03:00;CYWG 010300Z 24002KT 15SM FEW040 BKN060 07/03 A2962 RMK SC2SC4 SLP040

CYWG;2011-11-01 04:00;CYWG 010400Z 30009KT 15SM SCT040 BKN068 07/03 A2963 RMK SC3AC4 SLP043

CYWG;2011-11-01 05:00;CYWG 010500Z 32012KT 15SM BKN058 BKN087 07/03 A2966 RMK SC5AC2 SLP051

CYWG;2011-11-01 06:00;CYWG 010600Z 33010KT 15SM SCT064 BKN076 05/02 A2968 RMK SC3AC2 SLP057

CYWG;2011-11-01 07:00;CYWG 010700Z 30007KT 15SM BKN070 04/02 A2970 RMK AC5 SLP065

CYWG;2011-11-01 08:00;CYWG 010800Z 31010KT 15SM BKN078 05/02 A2973 RMK AC6 SLP073

CYWG;2011-11-01 09:00;CYWG 010900Z 31010KT 15SM BKN072 05/03 A2975 RMK AC7 SLP081

CYWG;2011-11-01 10:00;CYWG 011000Z 29008KT 15SM BKN075 05/02 A2977 RMK AC7 SLP088

CYWG;2011-11-01 11:00;CYWG 011100Z 30011KT 15SM BKN075 04/02 A2979 RMK AC7 SLP095

CYWG;2011-11-01 12:00;CYWG 011200Z 29007KT 15SM BKN079 04/03 A2981 RMK AC6 SLP104

CYWG;2011-11-01 13:00;CYWG 011300Z 29009KT 15SM FEW090 01/00 A2984 RMK AC2 SLP112

CYWG;2011-11-01 14:00;CYWG 011400Z 29007KT 15SM FEW095 M00/M01 A2986 RMK AC1 SLP118

CYWG;2011-11-01 15:00;CYWG 011500Z 28007KT 15SM FEW100 03/00 A2988 RMK AC1 SLP127

CYWG;2011-11-01 16:00;CYWG 011600Z 28010KT 15SM FEW110 06/01 A2990 RMK AC1 AC TR SLP134

CYWG;2011-11-01 17:00;CYWG 011700Z 29008KT 15SM FEW120 08/01 A2991 RMK AC1 AC TR SLP139

CYWG;2011-11-01 18:00;CYWG 011800Z 29010KT 15SM FEW030 FEW120 09/00 A2992 RMK CU1AC1 CU AC TR SLP139

CYWG;2011-11-01 19:00;CYWG 011900Z 30012KT 15SM FEW020 FEW210 10/M00 A2993 RMK CF1CI1 SLP141

CYWG;2011-11-01 20:00;CYWG 012000Z 31009KT 15SM FEW020 FEW210 10/M01 A2993 RMK CF1CI1 SLP141

CYWG;2011-11-01 21:00;CYWG 012100Z 31011KT 15SM FEW020 FEW210 10/M01 A2994 RMK CF1CI1 SLP147

CYWG;2011-11-01 22:00;CYWG 012200Z 31007KT 15SM FEW020 FEW210 10/M01 A2995 RMK CF2CI1 SLP151

CYWG;2011-11-01 23:00;CYWG 012300Z 28005KT 15SM FEW020 FEW210 07/M01 A2996 RMK CF1CI1 SLP155

CYWG;2011-11-02 00:00;CYWG 020000Z 27006KT 15SM FEW020 FEW210 04/M03 A2999 RMK CF1CI1 SLP164

CYWG;2011-11-02 01:00;CYWG 020100Z 27006KT 15SM FEW020 FEW210 01/M03 A3001 RMK CF1CI1 SLP173

CYWG;2011-11-02 02:00;CYWG 020200Z 26007KT 15SM FEW210 03/M03 A3003 RMK CI2 SLP180

CYWG;2011-11-02 03:00;CYWG 020300Z 27006KT 15SM SKC 01/M03 A3006 RMK SLP189

CYWG;2011-11-02 04:00;CYWG 020400Z 27008KT 15SM SKC 01/M03 A3007 RMK SLP195

CYWG;2011-11-02 05:00;CYWG 020500Z 27009KT 15SM SKC 01/M03 A3009 RMK SLP201

CYWG;2011-11-02 06:00;CYWG 020600Z 27008KT 15SM SKC 00/M03 A3011 RMK SLP207

CYWG;2011-11-02 07:00;CYWG 020700Z 30003KT 15SM FEW052 M02/M04 A3013 RMK SC2 SLP213

CYWG;2011-11-02 08:00;CYWG 020800Z 32012G18KT 15SM -SHRA SCT016 BKN052 02/00 A3015 RMK SC3SC4 SLP218

CYWG;2011-11-02 08:38;CYWG 020838Z 28006KT 15SM SCT022 BKN085 01/ RMK SC3AC3

CYWG;2011-11-02 09:00;CYWG 020900Z 30007KT 15SM SCT035 BKN073 01/M00 A3016 RMK SC3AC3 SLP223

CYWG;2011-11-02 10:00;CYWG 021000Z 27007KT 15SM FEW044 M01/M02 A3017 RMK SC2 SLP227

CYWG;2011-11-02 11:00;CYWG 021100Z 27009KT 15SM FEW040 M01/M03 A3019 RMK SC2 SLP233

CYWG;2011-11-02 12:00;CYWG 021200Z 27009KT 15SM SCT056 SCT086 M02/M03 A3020 RMK SC3AC1 SLP240

CYWG;2011-11-02 13:00;CYWG 021300Z 27008KT 15SM FEW055 FEW085 M02/M03 A3022 RMK SC1AC2 SLP246

CYWG;2011-11-02 14:00;CYWG 021400Z 26008KT 15SM SKC M02/M03 A3023 RMK SLP249

CYWG;2011-11-02 15:00;CYWG 021500Z 26011KT 15SM SKC M00/M02 A3023 RMK SLP250

CYWG;2011-11-02 16:00;CYWG 021600Z 26009KT 15SM SKC 02/M01 A3022 RMK SLP248

CYWG;2011-11-02 17:00;CYWG 021700Z 25010KT 15SM SKC 05/M01 A3022 RMK SLP247

CYWG;2011-11-02 18:00;CYWG 021800Z 25013KT 15SM SKC 07/M03 A3021 RMK SLP240

CYWG;2011-11-02 19:00;CYWG 021900Z 27013KT 15SM SKC 08/M04 A3019 RMK SLP234

CYWG;2011-11-02 20:00;CYWG 022000Z 28015KT 15SM FEW220 09/M05 A3018 RMK CI1 SLP230

CYWG;2011-11-02 21:00;CYWG 022100Z 27014KT 15SM FEW220 09/M05 A3016 RMK CI1 SLP224

CYWG;2011-11-02 22:00;CYWG 022200Z 28010KT 15SM SCT220 08/M06 A3016 RMK CI1 SLP223

CYWG;2011-11-02 23:00;CYWG 022300Z 23005KT 15SM FEW220 05/M07 A3016 RMK CI1 SLP222

CYWG;2011-11-03 00:00;CYWG 030000Z 22007KT 15SM FEW220 03/M06 A3016 RMK CI0 SLP224

CYWG;2011-11-03 01:00;CYWG 030100Z 22007KT 15SM SKC 02/M06 A3015 RMK SLP223

CYWG;2011-11-03 02:00;CYWG 030200Z 22008KT 15SM SKC 02/M07 A3014 RMK SLP218

CYWG;2011-11-03 03:00;CYWG 030300Z 21008KT 15SM SKC 01/M08 A3014 RMK SLP220

CYWG;2011-11-03 04:00;CYWG 030400Z 21009KT 15SM SKC 01/M07 A3014 RMK SLP219

CYWG;2011-11-03 05:00;CYWG 030500Z 23009KT 15SM SKC 00/M07 A3014 RMK SLP218

CYWG;2011-11-03 06:00;CYWG 030600Z 21009KT 15SM SKC M00/M08 A3013 RMK SLP213

CYWG;2011-11-03 07:00;CYWG 030700Z 19009KT 15SM SKC M01/M08 A3012 RMK SLP210

CYWG;2011-11-03 08:00;CYWG 030800Z 20010KT 15SM SKC M00/M08 A3011 RMK SLP207

CYWG;2011-11-03 09:00;CYWG 030900Z 20012KT 15SM SKC M00/M07 A3010 RMK SLP204

CYWG;2011-11-03 10:00;CYWG 031000Z 20011KT 15SM SKC M00/M08 A3008 RMK SLP197

CYWG;2011-11-03 11:00;CYWG 031100Z 19009KT 15SM SKC M02/M08 A3008 RMK SLP195

CYWG;2011-11-03 12:00;CYWG 031200Z 20011KT 15SM FEW240 M02/M08 A3006 RMK CI0 SLP193

CYWG;2011-11-03 13:00;CYWG 031300Z 19010KT 15SM SCT220 M02/M08 A3006 RMK CI0 SLP193

CYWG;2011-11-03 14:00;CYWG 031400Z 18009KT 15SM FEW120 BKN220 M02/M08 A3007 RMK AC1CI0 SLP195

CYWG;2011-11-03 15:00;CYWG 031500Z 19010KT 15SM FEW120 BKN220 M00/M07 A3007 RMK AC1CI0 SLP194

CYWG;2011-11-03 16:00;CYWG 031600Z 20011KT 15SM FEW120 BKN220 02/M06 A3006 RMK AC1CI0 SLP191

CYWG;2011-11-03 17:00;CYWG 031700Z 18012KT 15SM FEW120 OVC220 04/M05 A3005 RMK AC1CI1 SLP189

CYWG;2011-11-03 18:00;CYWG 031800Z 18012KT 15SM FEW120 OVC220 07/M04 A3004 RMK AC1CI1 SLP184

CYWG;2011-11-03 19:00;CYWG 031900Z 19014KT 15SM FEW120 OVC220 08/M04 A3003 RMK AC2CI2 SLP179

CYWG;2011-11-03 20:00;CYWG 032000Z 18013KT 15SM FEW120 OVC220 10/M03 A3001 RMK AC2CI2 SLP172

CYWG;2011-11-03 21:00;CYWG 032100Z 19013G18KT 15SM FEW120 BKN220 11/M04 A2999 RMK AC2CI2 SLP166

CYWG;2011-11-03 22:00;CYWG 032200Z 18013KT 15SM FEW120 BKN220 10/M05 A2999 RMK AC2CI2 SLP163

CYWG;2011-11-03 23:00;CYWG 032300Z 16008KT 15SM FEW120 BKN220 06/M05 A2998 RMK AC1CI2 SLP161

CYWG;2011-11-04 00:00;CYWG 040000Z 17010KT 15SM FEW220 07/M06 A2998 RMK CI1 SLP163

CYWG;2011-11-04 01:00;CYWG 040100Z 17010KT 15SM SKC 06/M06 A2997 RMK SLP160

CYWG;2011-11-04 02:00;CYWG 040200Z 18015KT 15SM SKC 06/M07 A2995 RMK SLP152

CYWG;2011-11-04 03:00;CYWG 040300Z 18016G25KT 15SM SKC 06/M07 A2994 RMK SLP151

CYWG;2011-11-04 04:00;CYWG 040400Z 18018KT 15SM SKC 05/M07 A2993 RMK SLP148

CYWG;2011-11-04 05:00;CYWG 040500Z 18016G21KT 15SM BKN230 05/M07 A2993 RMK CI2 SLP145

CYWG;2011-11-04 06:00;CYWG 040600Z 18016G22KT 15SM BKN230 04/M07 A2992 RMK CI2 SLP141

CYWG;2011-11-04 07:00;CYWG 040700Z 18016G21KT 15SM BKN230 04/M06 A2993 RMK CI2 SLP143

CYWG;2011-11-04 08:00;CYWG 040800Z 18013KT 15SM OVC230 04/M07 A2993 RMK CI3 SLP144

CYWG;2011-11-04 09:00;CYWG 040900Z 17016KT 15SM OVC230 04/M07 A2990 RMK CI3 SLP133

CYWG;2011-11-04 10:00;CYWG 041000Z 18017KT 15SM OVC230 04/M06 A2987 RMK CI3 SLP123

CYWG;2011-11-04 11:00;CYWG 041100Z 18018KT 15SM OVC210 04/M07 A2985 RMK CI6 SLP117

CYWG;2011-11-04 12:00;CYWG 041200Z 18020G27KT 15SM BKN210 04/M07 A2983 RMK CI6 SLP111

CYWG;2011-11-04 13:00;CYWG 041300Z 18021G29KT 15SM BKN210 04/M07 A2982 RMK CI5 SLP107

CYWG;2011-11-04 14:00;CYWG 041400Z 18021G29KT 15SM BKN210 04/M07 A2982 RMK CI2 SLP108

CYWG;2011-11-04 15:00;CYWG 041500Z 18022G28KT 15SM BKN210 04/M07 A2980 RMK CI2 SLP099

CYWG;2011-11-04 16:00;CYWG 041600Z 18022G29KT 15SM BKN230 06/M06 A2979 RMK CI2 SLP097

CYWG;2011-11-04 17:00;CYWG 041700Z 19023G33KT 15SM BKN230 07/M06 A2977 RMK CI2 SLP092

CYWG;2011-11-04 18:00;CYWG 041800Z 19021G29KT 15SM BKN230 08/M05 A2976 RMK CI2 SLP085

CYWG;2011-11-04 19:00;CYWG 041900Z 19022G29KT 15SM BKN230 09/M05 A2974 RMK CI2 SLP079

CYWG;2011-11-04 20:00;CYWG 042000Z 20021G31KT 15SM BKN230 10/M04 A2973 RMK CI2 SLP075

CYWG;2011-11-04 21:00;CYWG 042100Z 20023KT 15SM BKN230 10/M04 A2972 RMK CI2 SLP073

CYWG;2011-11-04 22:00;CYWG 042200Z 20014G25KT 15SM BKN230 10/M04 A2972 RMK CI2 SLP073

CYWG;2011-11-04 23:00;CYWG 042300Z 21011KT 15SM BKN230 08/M04 A2972 RMK CI2 SLP071

CYWG;2011-11-05 00:00;CYWG 050000Z 20008KT 15SM FEW230 07/M04 A2972 RMK CI1 SLP074

CYWG;2011-11-05 01:00;CYWG 050100Z 19010KT 15SM SKC 06/M04 A2972 RMK SLP073

CYWG;2011-11-05 02:00;CYWG 050200Z 18008KT 15SM SKC 03/M05 A2972 RMK SLP072

CYWG;2011-11-05 03:00;CYWG 050300Z 18009KT 15SM SKC 04/M05 A2971 RMK SLP071

CYWG;2011-11-05 04:00;CYWG 050400Z 18012KT 15SM SKC 05/M05 A2970 RMK SLP068

CYWG;2011-11-05 05:00;CYWG 050500Z 19010KT 15SM SKC 04/M07 A2970 RMK SLP066

CYWG;2011-11-05 06:00;CYWG 050600Z 19012KT 15SM SKC 05/M06 A2969 RMK SLP063

CYWG;2011-11-05 07:00;CYWG 050700Z 19011G16KT 15SM FEW220 04/M06 A2969 RMK CI0 SLP062

CYWG;2011-11-05 08:00;CYWG 050800Z 18011G16KT 15SM FEW220 03/M05 A2969 RMK CI0 SLP063

CYWG;2011-11-05 09:00;CYWG 050900Z 18011KT 15SM FEW220 03/M05 A2968 RMK CI0 SLP060

CYWG;2011-11-05 10:00;CYWG 051000Z 17010KT 15SM SCT220 02/M04 A2967 RMK CI1 SLP057

CYWG;2011-11-05 11:00;CYWG 051100Z 19008KT 15SM SCT220 02/M04 A2968 RMK CI0 SLP058

CYWG;2011-11-05 11:45;CYWG 051145Z 18007KT 15SM BKN220 01/ RMK CI2

CYWG;2011-11-05 12:00;CYWG 051200Z 17007KT 15SM BKN220 01/M04 A2967 RMK CI2 SLP056

CYWG;2011-11-05 13:00;CYWG 051300Z 16008KT 15SM BKN220 01/M03 A2965 RMK CI5 SLP050

CYWG;2011-11-05 14:00;CYWG 051400Z 17007KT 15SM FEW100 OVC220 03/M02 A2965 RMK AC1CI5 SLP051

CYWG;2011-11-05 15:00;CYWG 051500Z 18008KT 15SM FEW100 OVC220 05/M01 A2966 RMK AC2CI6 SLP053

CYWG;2011-11-05 16:00;CYWG 051600Z 15008KT 15SM FEW150 OVC220 05/M01 A2966 RMK AC2CI6 SLP052

CYWG;2011-11-05 17:00;CYWG 051700Z 14009KT 15SM BKN150 OVC220 06/M00 A2965 RMK AC6CI2 SLP050

CYWG;2011-11-05 18:00;CYWG 051800Z 14008KT 15SM BKN150 BKN220 08/01 A2964 RMK AC6CI1 OBS TAKEN +03 SLP046

CYWG;2011-11-05 19:00;CYWG 051900Z 13010KT 15SM FEW084 BKN150 BKN220 08/01 A2961 RMK AC2AC3CI2 SLP037

CYWG;2011-11-05 20:00;CYWG 052000Z 10014KT 15SM FEW080 BKN120 OVC220 09/01 A2958 RMK AC2AC4CI2 ACC ASOCTD SLP026

CYWG;2011-11-05 21:00;CYWG 052100Z 11014KT 15SM BKN120 OVC220 09/01 A2957 RMK AC5CI2 SLP020

CYWG;2011-11-05 22:00;CYWG 052200Z 10009KT 15SM BKN120 OVC220 09/01 A2956 RMK AC5CI2 SLP019

CYWG;2011-11-05 23:00;CYWG 052300Z 08010KT 15SM BKN120 OVC220 09/01 A2956 RMK AC5CI3 SLP019

CYWG;2011-11-06 00:00;CYWG 060000Z 07011KT 15SM OVC120 08/02 A2955 RMK AC8 SLP017

CYWG;2011-11-06 01:00;CYWG 060100Z 06014KT 15SM OVC120 07/02 A2954 RMK AC8 SLP011

CYWG;2011-11-06 02:00;CYWG 060200Z 07010KT 15SM BKN098 BKN220 07/02 A2952 RMK AC5CI0 SLP005

CYWG;2011-11-06 03:00;CYWG 060300Z 08010KT 15SM BKN100 07/02 A2949 RMK AC6 SLP994

CYWG;2011-11-06 04:00;CYWG 060400Z 10014KT 15SM BKN100 08/02 A2948 RMK AC6 SLP989

CYWG;2011-11-06 05:00;CYWG 060500Z 11013G21KT 15SM SCT100 BKN220 08/02 A2945 RMK AC4CI1 SLP981

CYWG;2011-11-06 06:00;CYWG 060600Z 11012KT 15SM SCT090 OVC220 08/03 A2942 RMK AC4CI1 SLP970

CYWG;2011-11-06 07:00;CYWG 060700Z 12011G16KT 15SM SCT100 OVC220 08/03 A2940 RMK AC4CI1 SLP962

CYWG;2011-11-06 08:00;CYWG 060800Z 13014KT 15SM SCT100 OVC220 10/04 A2938 RMK AC4CI1 SLP955

CYWG;2011-11-06 09:00;CYWG 060900Z 12014KT 15SM BKN100 OVC220 10/05 A2935 RMK AC5CI1 SLP944

CYWG;2011-11-06 10:00;CYWG 061000Z 14015G22KT 15SM SCT100 BKN220 10/05 A2932 RMK AC3CI2 SLP933

CYWG;2011-11-06 11:00;CYWG 061100Z 15017KT 15SM SCT100 BKN220 09/05 A2930 RMK AC3CI1 SLP927

CYWG;2011-11-06 12:00;CYWG 061200Z 16015KT 15SM BKN090 OVC220 09/05 A2928 RMK AC5CI3 SLP920

CYWG;2011-11-06 12:45;CYWG 061245Z 15015KT 15SM -RA SCT049 OVC075 09/ RMK SC4AC4

CYWG;2011-11-06 13:00;CYWG 061300Z 15013KT 15SM -RA BKN049 OVC075 09/06 A2926 RMK SC5AC3 SLP915

CYWG;2011-11-06 14:00;CYWG 061400Z 15010KT 15SM -RA FEW025 SCT049 OVC070 09/06 A2925 RMK SF1SC3AC4 SLP910

CYWG;2011-11-06 15:00;CYWG 061500Z 13009KT 6SM -RA BR BKN023 OVC050 09/07 A2922 RMK SC6SC2 SLP900

CYWG;2011-11-06 16:00;CYWG 061600Z 13008KT 6SM -RA BR BKN023 OVC046 08/08 A2919 RMK SC6SC2 SLP890

CYWG;2011-11-06 17:00;CYWG 061700Z 18014G19KT 10SM BKN023 BKN053 OVC080 08/06 A2918 RMK SC5SC2AC1 SLP886

CYWG;2011-11-06 18:00;CYWG 061800Z 19018G24KT 15SM FEW020 BKN048 OVC100 07/04 A2918 RMK SC2SC4AC2 SLP888

CYWG;2011-11-06 19:00;CYWG 061900Z 19017G22KT 15SM FEW020 OVC051 06/03 A2918 RMK SC2SC6 SLP887

CYWG;2011-11-06 20:00;CYWG 062000Z 22019G24KT 12SM OVC016 06/03 A2919 RMK SC8 BR SLP892

CYWG;2011-11-06 20:19;CYWG 062019Z 23019G25KT 12SM -RA OVC014 06/ RMK SC8

CYWG;2011-11-06 21:00;CYWG 062100Z 23017G24KT 10SM -RA OVC012 05/02 A2922 RMK SC8 BR SLP903

CYWG;2011-11-06 22:00;CYWG 062200Z 23017G22KT 15SM -RA OVC016 04/01 A2926 RMK SC8 SLP914

CYWG;2011-11-06 23:00;CYWG 062300Z 22014KT 5SM -RA BR OVC012 03/02 A2929 RMK SC8 SLP924

CYWG;2011-11-06 23:20;CYWG 062320Z 22016KT 5SM -RA BR OVC010 02/ RMK SC8

CYWG;2011-11-06 23:42;CYWG 062342Z 22014G20KT 5SM -RA BR OVC008 02/ RMK SC8

CYWG;2011-11-07 00:00;CYWG 070000Z 23017G26KT 5SM -RA BR BKN008 OVC016 02/01 A2931 RMK SC6SC2 SLP932

CYWG;2011-11-07 00:33;CYWG 070033Z 22017G22KT 4SM -RASN BR OVC005 01/ RMK SC8

CYWG;2011-11-07 01:00;CYWG 070100Z 22019KT 4SM -RASN BR OVC005 01/01 A2932 RMK SC8 SLP938

CYWG;2011-11-07 01:44;CYWG 070144Z 23015G20KT 1 1/2SM -SN BR OVC005 01/ RMK SN2SC6

CYWG;2011-11-07 02:00;CYWG 070200Z 23014G21KT 2SM -SN BR OVC006 01/00 A2935 RMK SN1SC7 SLP945

CYWG;2011-11-07 02:16;CYWG 070216Z 23018KT 4SM -RASN BR OVC006 01/ RMK SC8

CYWG;2011-11-07 03:00;CYWG 070300Z 24012G20KT 2SM -RASN BR OVC005 01/00 A2937 RMK SC8 SLP955

CYWG;2011-11-07 04:00;CYWG 070400Z 26015G21KT 2 1/2SM -RASN OVC005 01/00 A2940 RMK SC8 SLP965

CYWG;2011-11-07 04:28;CYWG 070428Z 26014G20KT 2 1/2SM -SN OVC005 00/ RMK SC8

CYWG;2011-11-07 05:00;CYWG 070500Z 27018KT 4SM -SN OVC006 01/00 A2944 RMK SC8 SLP979

CYWG;2011-11-07 05:42;CYWG 070542Z 27021KT 2 1/2SM -SN OVC006 00/ RMK SC8

CYWG;2011-11-07 06:00;CYWG 070600Z 28020G25KT 2SM -SN OVC006 00/00 A2949 RMK SC8 SLP996

CYWG;2011-11-07 07:00;CYWG 070700Z 28018G24KT 4SM -SN OVC007 00/00 A2953 RMK SC8 SLP010

CYWG;2011-11-07 08:00;CYWG 070800Z 28019G25KT 3SM -SN OVC010 M00/M00 A2958 RMK SC8 SLP026

CYWG;2011-11-07 08:41;CYWG 070841Z 28022KT 2SM -SN OVC007 M00/ RMK SC8

CYWG;2011-11-07 09:00;CYWG 070900Z 28020KT 2 1/2SM -SN OVC007 M00/M01 A2963 RMK SC8 SLP045

CYWG;2011-11-07 10:00;CYWG 071000Z 28020G25KT 2 1/2SM -SN OVC007 M00/M01 A2967 RMK SC8 SLP059

CYWG;2011-11-07 11:00;CYWG 071100Z 28019G24KT 3SM -SN OVC008 M01/M01 A2972 RMK SC8 SLP074

CYWG;2011-11-07 11:45;CYWG 071145Z 28021KT 3SM -SN SCT008 OVC023 M01/ RMK SF4SC4

CYWG;2011-11-07 12:00;CYWG 071200Z 28019G25KT 6SM -SN SCT008 OVC018 M01/M01 A2976 RMK SF4SC4 SLP090

CYWG;2011-11-07 13:00;CYWG 071300Z 28018KT 10SM -SN BKN018 OVC057 M00/M02 A2980 RMK SC6SC2 SLP103

CYWG;2011-11-07 14:00;CYWG 071400Z 29015G20KT 15SM -SN BKN020 BKN080 OVC250 M00/M02 A2984 RMK SC6AC1CI1 SLP116

CYWG;2011-11-07 15:00;CYWG 071500Z 29013G18KT 15SM -SN BKN016 OVC080 M00/M02 A2988 RMK SC6AC2 SLP130

CYWG;2011-11-07 15:31;CYWG 071531Z 28017KT 15SM BKN018 OVC080 M00/ RMK SC6AC2

CYWG;2011-11-07 16:00;CYWG 071600Z 28016KT 15SM BKN018 OVC080 00/M02 A2992 RMK SC6AC2 SLP142

CYWG;2011-11-07 17:00;CYWG 071700Z 27010G15KT 15SM BKN018 OVC080 M00/M02 A2995 RMK SC6AC2 SLP154

CYWG;2011-11-07 18:00;CYWG 071800Z 27014KT 15SM BKN018 OVC080 M00/M02 A2998 RMK SC7AC1 SLP166

CYWG;2011-11-07 19:00;CYWG 071900Z 26011KT 15SM BKN018 OVC080 00/M03 A3001 RMK SC7AC1 SLP175

CYWG;2011-11-07 20:00;CYWG 072000Z 27011KT 15SM BKN020 OVC076 00/M03 A3003 RMK SC7AC1 SLP180

CYWG;2011-11-07 21:00;CYWG 072100Z 27009KT 15SM SCT020 OVC076 01/M02 A3005 RMK SC4AC3 SLP187

CYWG;2011-11-07 22:00;CYWG 072200Z 26006KT 15SM FEW022 FEW072 BKN240 01/M03 A3007 RMK SC2AC1CI0 SLP194

CYWG;2011-11-07 23:00;CYWG 072300Z 28006KT 15SM FEW079 M02/M04 A3007 RMK AC1 SLP196

CYWG;2011-11-08 00:00;CYWG 080000Z 25003KT 15SM SKC M02/M03 A3009 RMK SLP202

CYWG;2011-11-08 01:00;CYWG 080100Z 21004KT 15SM SKC M03/M05 A3011 RMK SLP208

CYWG;2011-11-08 02:00;CYWG 080200Z 19003KT 15SM SKC M04/M04 A3012 RMK SLP212

CYWG;2011-11-08 03:00;CYWG 080300Z 21005KT 15SM SKC M03/M05 A3013 RMK SLP218

CYWG;2011-11-08 04:00;CYWG 080400Z 21005KT 15SM SKC M04/M06 A3014 RMK SLP220

CYWG;2011-11-08 05:00;CYWG 080500Z 22007KT 15SM SKC M04/M06 A3014 RMK SLP219

CYWG;2011-11-08 06:00;CYWG 080600Z 22006KT 15SM SKC M05/M07 A3013 RMK SLP217

CYWG;2011-11-08 07:00;CYWG 080700Z 23005KT 15SM SKC M06/M07 A3012 RMK SLP213

CYWG;2011-11-08 08:00;CYWG 080800Z 19003KT 15SM FEW090 M07/M08 A3012 RMK AC1 SLP214

CYWG;2011-11-08 09:00;CYWG 080900Z 17004KT 15SM SKC M08/M09 A3013 RMK SLP217

CYWG;2011-11-08 10:00;CYWG 081000Z 20004KT 15SM SCT190 M06/M07 A3012 RMK AC1 SLP215

CYWG;2011-11-08 11:00;CYWG 081100Z 21004KT 15SM SKC M07/M08 A3012 RMK SLP214

CYWG;2011-11-08 12:00;CYWG 081200Z 00000KT 6SM BR SKC M08/M09 A3012 RMK FROIN SLP214

CYWG;2011-11-08 13:00;CYWG 081300Z 18005KT 6SM BR FEW210 M08/M08 A3012 RMK CI0 FROIN SLP215

CYWG;2011-11-08 14:00;CYWG 081400Z 18008KT 6SM BR FEW210 M08/M08 A3013 RMK CI0 FROIN SLP219

CYWG;2011-11-08 15:00;CYWG 081500Z 18006KT 8SM FEW210 M05/M06 A3013 RMK CI0 BR SLP219

CYWG;2011-11-08 16:00;CYWG 081600Z 17006KT 12SM SKC M03/M05 A3011 RMK BR OBS TAKEN +05 SLP211

CYWG;2011-11-08 17:00;CYWG 081700Z 17005KT 12SM SKC M01/M03 A3010 RMK SLP210

CYWG;2011-11-08 18:00;CYWG 081800Z 16004KT 15SM SKC 00/M02 A3009 RMK SLP202

CYWG;2011-11-08 19:00;CYWG 081900Z 15004KT 15SM SKC 02/M02 A3007 RMK SLP196

CYWG;2011-11-08 20:00;CYWG 082000Z 18007KT 15SM SKC 03/M01 A3006 RMK SLP195

CYWG;2011-11-08 21:00;CYWG 082100Z 17006KT 15SM SKC 03/M00 A3006 RMK SLP194

CYWG;2011-11-08 22:00;CYWG 082200Z 16006KT 15SM FEW090 02/M00 A3006 RMK AC1 TR AC SLP193

CYWG;2011-11-08 23:00;CYWG 082300Z 15006KT 15SM FEW090 FEW210 01/M01 A3006 RMK AC1CI0 SLP194

CYWG;2011-11-09 00:00;CYWG 090000Z 13005KT 15SM FEW110 FEW210 M00/M02 A3005 RMK AC1CI0 SLP192

CYWG;2011-11-09 01:00;CYWG 090100Z 15005KT 15SM FEW210 M01/M02 A3005 RMK CI1 SLP190

CYWG;2011-11-09 02:00;CYWG 090200Z 14004KT 15SM SKC M02/M03 A3004 RMK SLP188

CYWG;2011-11-09 03:00;CYWG 090300Z 15007KT 15SM BKN088 M01/M03 A3003 RMK AC5 SLP185

CYWG;2011-11-09 04:00;CYWG 090400Z 16005KT 15SM BKN088 M01/M03 A3003 RMK AC6 SLP182

CYWG;2011-11-09 05:00;CYWG 090500Z 19008KT 15SM BKN087 01/M03 A3001 RMK AC6 SLP178

CYWG;2011-11-09 06:00;CYWG 090600Z 23008KT 15SM BKN078 01/M03 A3001 RMK AC5 SLP174

CYWG;2011-11-09 07:00;CYWG 090700Z 26009KT 15SM FEW075 M01/M03 A3002 RMK AC1 SLP177

CYWG;2011-11-09 08:00;CYWG 090800Z 25009KT 15SM SKC M02/M04 A3002 RMK SLP179

CYWG;2011-11-09 09:00;CYWG 090900Z 25010KT 15SM SKC M02/M04 A3003 RMK SLP180

CYWG;2011-11-09 10:00;CYWG 091000Z 26008KT 15SM BKN014 M03/M05 A3003 RMK SC6 SLP180

CYWG;2011-11-09 11:00;CYWG 091100Z 27009KT 15SM FEW012 BKN018 M03/M05 A3003 RMK SC2SC5 SLP181

CYWG;2011-11-09 11:50;CYWG 091150Z 27007KT 15SM OVC011 M02/ RMK SC8

CYWG;2011-11-09 12:00;CYWG 091200Z 26008KT 15SM OVC013 M02/M04 A3003 RMK SC8 SLP183

CYWG;2011-11-09 12:31;CYWG 091231Z 27009KT 15SM OVC021 M02/ RMK SC8

CYWG;2011-11-09 13:00;CYWG 091300Z 28010KT 15SM OVC016 M02/M04 A3004 RMK SC8 SLP185

CYWG;2011-11-09 13:21;CYWG 091321Z 28012KT 15SM OVC014 M02/ RMK SC8

CYWG;2011-11-09 14:00;CYWG 091400Z 26010G15KT 15SM OVC012 M02/M04 A3005 RMK SC8 SLP188

CYWG;2011-11-09 14:31;CYWG 091431Z 27012KT 10SM OVC009 M02/ RMK SC8

CYWG;2011-11-09 15:00;CYWG 091500Z 28014KT 10SM OVC009 M02/M04 A3005 RMK ST8 SLP190

CYWG;2011-11-09 16:00;CYWG 091600Z 28013KT 12SM OVC010 M01/M02 A3006 RMK ST8 SLP192

CYWG;2011-11-09 17:00;CYWG 091700Z 30012KT 12SM -SN OVC012 00/M01 A3007 RMK SC8 SLP196

CYWG;2011-11-09 18:00;CYWG 091800Z 32016G22KT 10SM -SN OVC013 01/M01 A3007 RMK SC8 SLP194

CYWG;2011-11-09 19:00;CYWG 091900Z 32016KT 10SM -SN OVC011 00/M02 A3007 RMK SC8 SLP194

CYWG;2011-11-09 19:40;CYWG 091940Z 32019G24KT 10SM -SN FEW013 BKN027 OVC084 00/ RMK SC2SC5AC2

CYWG;2011-11-09 20:00;CYWG 092000Z 32014G19KT 10SM -SN SCT018 OVC025 01/M01 A3007 RMK SC3SC5 SLP195

CYWG;2011-11-09 21:00;CYWG 092100Z 32015KT 10SM -SN SCT013 OVC032 01/M01 A3007 RMK SC3SC5 SLP195

CYWG;2011-11-09 22:00;CYWG 092200Z 32013KT 6SM -SN OVC016 01/M01 A3007 RMK SC8 SLP197

CYWG;2011-11-09 23:00;CYWG 092300Z 32012KT 10SM -SN BKN020 OVC039 01/M01 A3008 RMK SC5SC3 SLP198

CYWG;2011-11-10 00:00;CYWG 100000Z 32013G19KT 15SM SCT016 OVC053 01/M01 A3008 RMK SC3SC5 SLP198

CYWG;2011-11-10 01:00;CYWG 100100Z 32015G20KT 15SM BKN021 OVC053 01/M01 A3007 RMK SC5SC3 SLP197

CYWG;2011-11-10 02:00;CYWG 100200Z 32014G19KT 15SM FEW016 BKN027 OVC058 01/M01 A3007 RMK SC2SC3SC2 SLP196

CYWG;2011-11-10 02:47;CYWG 100247Z 33013KT 15SM -SHSN BKN015 OVC058 01/ RMK SC5SC3

CYWG;2011-11-10 03:00;CYWG 100300Z 32014KT 15SM -SHSN SCT015 OVC060 00/M01 A3008 RMK SC4SC4 SLP198

CYWG;2011-11-10 04:00;CYWG 100400Z 32018G24KT 15SM -SHSN SCT020 BKN052 BKN130 01/M02 A3008 RMK SC2SC2AC2 SLP199

CYWG;2011-11-10 05:00;CYWG 100500Z 32016KT 15SM -SHSN FEW024 BKN040 OVC130 00/M02 A3008 RMK SC1SC6AC2 SLP199

CYWG;2011-11-10 06:00;CYWG 100600Z 32015KT 15SM FEW024 BKN040 BKN130 M00/M02 A3008 RMK SC1SC4AC2 SLP198

CYWG;2011-11-10 07:00;CYWG 100700Z 32014KT 15SM BKN020 OVC040 00/M02 A3009 RMK SC5SC3 OBS TAKEN +13 SLP200

CYWG;2011-11-10 08:00;CYWG 100800Z 33012G17KT 15SM OVC020 00/M02 A3009 RMK SC8 SLP201

CYWG;2011-11-10 09:00;CYWG 100900Z 32012KT 15SM OVC020 OVC046 M00/M02 A3010 RMK SC6SC2 SLP205

CYWG;2011-11-10 10:00;CYWG 101000Z 32013KT 15SM BKN039 BKN096 M01/M03 A3010 RMK SC5AC1 SLP205

CYWG;2011-11-10 11:00;CYWG 101100Z 32015G22KT 15SM BKN045 BKN089 M01/M04 A3011 RMK SC4AC1 SLP208

CYWG;2011-11-10 12:00;CYWG 101200Z 32011KT 15SM FEW045 SCT090 M03/M05 A3010 RMK SC2AC1 SLP208

CYWG;2011-11-10 13:00;CYWG 101300Z 32008KT 15SM FEW040 M04/M06 A3010 RMK SC1 SLP206

CYWG;2011-11-10 14:00;CYWG 101400Z 31007KT 15SM FEW040 FEW090 M05/M07 A3009 RMK SC1AC1 SLP205

CYWG;2011-11-10 15:00;CYWG 101500Z 28004KT 15SM FEW030 FEW210 M04/M06 A3008 RMK SC1CI1 SLP200

CYWG;2011-11-10 16:00;CYWG 101600Z 29012KT 15SM FEW030 FEW210 M02/M04 A3008 RMK SC1CI0 SLP200

CYWG;2011-11-10 17:00;CYWG 101700Z 28010KT 15SM FEW016 FEW210 M01/M03 A3007 RMK CU1CI0 SLP197

CYWG;2011-11-10 18:00;CYWG 101800Z 28010KT 15SM FEW015 FEW210 00/M04 A3004 RMK CU2CI0 SLP184

CYWG;2011-11-10 19:00;CYWG 101900Z 27011KT 15SM FEW018 FEW210 01/M04 A3002 RMK SC2CI0 SLP179

CYWG;2011-11-10 20:00;CYWG 102000Z 26007KT 15SM FEW020 FEW090 SCT220 02/M04 A2999 RMK SC1AC1CI0 TR AC SLP167

CYWG;2011-11-10 21:00;CYWG 102100Z 23006KT 15SM FEW025 FEW090 BKN220 01/M05 A2995 RMK SC1AC1CI1 TR SC SLP154

CYWG;2011-11-10 22:00;CYWG 102200Z 21006KT 15SM FEW090 BKN220 00/M05 A2993 RMK AC2CI1 SLP148

CYWG;2011-11-10 23:00;CYWG 102300Z 15004KT 15SM SCT090 BKN220 M01/M05 A2991 RMK AC3CI1 SLP140

CYWG;2011-11-11 00:00;CYWG 110000Z 15009KT 15SM BKN100 BKN220 M00/M05 A2986 RMK AC6CI1 SLP123

CYWG;2011-11-11 01:00;CYWG 110100Z 15008KT 15SM BKN092 M00/M05 A2981 RMK AC7 SLP109

CYWG;2011-11-11 02:00;CYWG 110200Z 16010KT 15SM OVC073 01/M06 A2979 RMK AS8 MOON DIMLY VISBL SLP102

CYWG;2011-11-11 03:00;CYWG 110300Z 17013KT 15SM BKN045 BKN075 OVC095 01/M06 A2976 RMK SC5AS2AC1 SLP089

CYWG;2011-11-11 04:00;CYWG 110400Z 15014KT 15SM OVC048 01/M06 A2970 RMK SC8 SLP072

CYWG;2011-11-11 05:00;CYWG 110500Z 14013KT 15SM BKN033 OVC090 01/M05 A2966 RMK SC7AC1 SLP057

CYWG;2011-11-11 06:00;CYWG 110600Z 16015KT 15SM BKN032 OVC090 01/M06 A2962 RMK SC6AC2 SLP040

CYWG;2011-11-11 12:00;CYWG 111200Z 21010KT 15SM FEW054 SCT073 BKN220 01/M05 A2945 RMK SC2AC2CI1 SLP985

CYWG;2011-11-11 13:00;CYWG 111300Z 21009KT 15SM FEW050 SCT090 BKN220 00/M04 A2943 RMK SC1AC2CI1 SLP977

CYWG;2011-11-11 14:00;CYWG 111400Z 23009G15KT 15SM FEW050 FEW090 BKN220 00/M04 A2943 RMK SC1AC1CI1 SLP976

CYWG;2011-11-11 15:00;CYWG 111500Z 26011KT 15SM FEW090 SCT220 01/M03 A2943 RMK AC1CI0 SLP977

CYWG;2011-11-11 16:00;CYWG 111600Z 28013KT 15SM FEW020 FEW090 FEW220 03/M01 A2943 RMK SC1AC1CI0 AC TR SLP978

CYWG;2011-11-11 17:00;CYWG 111700Z 30015KT 15SM SCT020 BKN220 04/01 A2945 RMK SC3CI1 SC LYR INVDG FM NW SLP983

CYWG;2011-11-11 17:27;CYWG 111727Z 29015KT 15SM BKN017 04/ RMK SC7

CYWG;2011-11-11 18:00;CYWG 111800Z 31014KT 15SM BKN017 04/01 A2946 RMK SC7 SLP986

CYWG;2011-11-11 19:00;CYWG 111900Z 30012KT 15SM OVC015 05/02 A2948 RMK SC8 SLP991

CYWG;2011-11-11 20:00;CYWG 112000Z 32012KT 15SM OVC015 04/02 A2948 RMK SC8 SLP993

CYWG;2011-11-11 21:00;CYWG 112100Z 30008KT 15SM BKN020 04/02 A2949 RMK SC7 SLP996

CYWG;2011-11-11 22:00;CYWG 112200Z 30007KT 15SM BKN018 04/02 A2950 RMK SC7 SLP998

CYWG;2011-11-11 23:00;CYWG 112300Z 32006KT 15SM BKN023 04/01 A2950 RMK SC7 SLP000

CYWG;2011-11-12 00:00;CYWG 120000Z 34004KT 15SM OVC019 03/01 A2949 RMK SC8 SLP998

CYWG;2011-11-12 01:00;CYWG 120100Z 04007KT 15SM OVC025 03/00 A2949 RMK SC8 SLP997

CYWG;2011-11-12 02:00;CYWG 120200Z 00000KT 15SM OVC027 02/00 A2950 RMK SC8 SLP999

CYWG;2011-11-12 03:00;CYWG 120300Z 15002KT 15SM FEW027 SCT055 BKN079 01/M01 A2949 RMK SC2SC2AC3 SLP996

CYWG;2011-11-12 04:00;CYWG 120400Z 07002KT 15SM OVC030 00/M01 A2949 RMK SC7 SLP998

CYWG;2011-11-12 05:00;CYWG 120500Z 09003KT 15SM BKN026 OVC086 00/M01 A2948 RMK SC6AS2 SLP995

CYWG;2011-11-12 06:00;CYWG 120600Z 10005KT 15SM SCT026 OVC086 00/M01 A2947 RMK SC4AC3 SLP990

CYWG;2011-11-12 07:00;CYWG 120700Z 11005KT 15SM BKN062 01/M01 A2946 RMK SC6 SLP987

CYWG;2011-11-12 08:00;CYWG 120800Z 10007KT 15SM BKN051 OVC083 01/M01 A2945 RMK SC6AC1 SLP983

CYWG;2011-11-12 09:00;CYWG 120900Z 10007KT 15SM BKN047 OVC090 01/M02 A2945 RMK SC5AC1 SLP982

CYWG;2011-11-12 10:00;CYWG 121000Z 13003KT 15SM FEW090 BKN240 M01/M03 A2945 RMK AC2CI1 SLP983

CYWG;2011-11-12 11:00;CYWG 121100Z 09007KT 15SM FEW240 M01/M03 A2944 RMK CI1 SLP978

CYWG;2011-11-12 12:00;CYWG 121200Z 10008KT 15SM FEW090 SCT240 M01/M02 A2943 RMK AC1CI1 SLP976

CYWG;2011-11-12 13:00;CYWG 121300Z 09008KT 15SM FEW090 SCT240 M01/M02 A2940 RMK AC1CI1 SLP968

CYWG;2011-11-12 14:00;CYWG 121400Z 08007KT 15SM FEW090 BKN240 M01/M02 A2940 RMK AC2CI2 SLP967

CYWG;2011-11-12 15:00;CYWG 121500Z 09008KT 15SM SCT095 OVC240 00/M01 A2938 RMK AC3CI2 SLP960

CYWG;2011-11-12 16:00;CYWG 121600Z 10008KT 15SM SCT098 OVC220 02/00 A2936 RMK AC4CI3 SLP953

CYWG;2011-11-12 17:00;CYWG 121700Z 10008KT 15SM BKN100 OVC220 02/01 A2934 RMK AC6CI2 SLP946

CYWG;2011-11-12 18:00;CYWG 121800Z CCA 10008KT 15SM BKN110 OVC220 03/01 A2931 RMK AS6CI2 SUN DIMLY VISBL SLP934

CYWG;2011-11-12 19:00;CYWG 121900Z 12008KT 15SM BKN087 OVC110 04/01 A2926 RMK AC6AS2 SLP919

CYWG;2011-11-12 20:00;CYWG 122000Z 12007KT 15SM BKN090 OVC110 04/02 A2924 RMK AC5AS3 SLP911

CYWG;2011-11-12 21:00;CYWG 122100Z 08004KT 15SM OVC110 05/02 A2919 RMK AC8 SLP895

CYWG;2011-11-12 22:00;CYWG 122200Z 06002KT 15SM OVC110 04/02 A2919 RMK AC8 SLP892

CYWG;2011-11-12 23:00;CYWG 122300Z 05005KT 15SM OVC110 04/02 A2915 RMK AC8 SLP881

CYWG;2011-11-13 00:00;CYWG 130000Z 09006KT 15SM OVC082 03/02 A2913 RMK AC8 SLP875

CYWG;2011-11-13 00:53;CYWG 130053Z CCA 17004KT 15SM -RASN OVC082 02/ RMK AC8

CYWG;2011-11-13 01:00;CYWG 130100Z 18005KT 15SM -RASN OVC082 03/02 A2912 RMK AC8 SLP870

CYWG;2011-11-13 01:13;CYWG 130113Z 18002KT 15SM OVC082 03/ RMK AC8

CYWG;2011-11-13 02:00;CYWG 130200Z 22004KT 15SM BKN085 BKN120 01/00 A2909 RMK AC5AS1 SLP862

CYWG;2011-11-13 03:00;CYWG 130300Z 27006KT 15SM OVC120 01/00 A2907 RMK AS6 SLP855

CYWG;2011-11-13 03:44;CYWG 130344Z 29011G17KT 4SM BR OVC003 01/ RMK ST8

CYWG;2011-11-13 04:00;CYWG 130400Z 28014KT 4SM BR BKN003 OVC006 01/00 A2908 RMK ST6ST2 SLP858

CYWG;2011-11-13 04:11;CYWG 130411Z 29017KT 6SM BR OVC060 01/ RMK ST8

CYWG;2011-11-13 04:45;CYWG 130445Z 29013KT 6SM BR OVC010 01/ RMK ST8

CYWG;2011-11-13 05:00;CYWG 130500Z 29011KT 6SM BR OVC010 01/00 A2908 RMK ST8 SLP857

CYWG;2011-11-13 06:00;CYWG 130600Z 28011KT 6SM BR OVC014 01/00 A2909 RMK ST8 SLP860

CYWG;2011-11-13 07:00;CYWG 130700Z 30010KT 12SM OVC012 02/01 A2909 RMK ST8 SLP860

CYWG;2011-11-13 08:00;CYWG 130800Z 30009KT 15SM OVC014 02/01 A2910 RMK ST8 SLP862

CYWG;2011-11-13 09:00;CYWG 130900Z 30013KT 12SM OVC012 02/00 A2911 RMK ST8 SLP866

CYWG;2011-11-13 10:00;CYWG 131000Z 28011KT 12SM OVC013 01/00 A2912 RMK ST8 SLP869

CYWG;2011-11-13 10:20;CYWG 131020Z 28012KT 12SM -RA OVC010 01/ RMK ST8

CYWG;2011-11-13 10:23;CYWG 131023Z CCA 28012KT 4SM -DZ OVC010 01/ RMK ST8

CYWG;2011-11-13 10:35;CYWG 131035Z 29009KT 4SM -DZ BR OVC009 01/ RMK ST8

CYWG;2011-11-13 10:49;CYWG 131049Z 29009KT 12SM OVC007 01/ RMK ST8

CYWG;2011-11-13 11:00;CYWG 131100Z 29010KT 12SM OVC013 01/00 A2913 RMK ST8 SLP873

CYWG;2011-11-13 11:28;CYWG 131128Z 28011KT 10SM -DZ OVC006 01/ RMK ST8

CYWG;2011-11-13 12:00;CYWG 131200Z 28011KT 6SM -DZ BR OVC005 01/00 A2915 RMK SF8 SLP879

CYWG;2011-11-13 12:50;CYWG 131250Z 28010KT 8SM -DZ SCT004 BKN012 OVC027 01/ RMK SF4SC2SC2

CYWG;2011-11-13 13:00;CYWG 131300Z 27009KT 10SM -DZ SCT004 BKN012 OVC027 01/00 A2916 RMK SF3SC3SC2 SLP885

CYWG;2011-11-13 13:13;CYWG 131313Z 29011KT 10SM OVC008 01/ RMK SF8 BR

CYWG;2011-11-13 14:00;CYWG 131400Z 28009KT 5SM BR OVC005 01/00 A2918 RMK SF8 SLP890

CYWG;2011-11-13 14:34;CYWG 131434Z 30008KT 10SM FEW005 BKN011 OVC033 01/ RMK SF2SC4SC2 BR

CYWG;2011-11-13 15:00;CYWG 131500Z 30009KT 15SM FEW005 SCT010 OVC020 01/00 A2918 RMK SF2SC2SC4 SLP892

CYWG;2011-11-13 16:00;CYWG 131600Z 31007KT 15SM FEW008 OVC027 01/M01 A2920 RMK SF2SC6 SLP898

CYWG;2011-11-13 17:00;CYWG 131700Z 34009KT 15SM FEW008 OVC020 01/M02 A2921 RMK SF1SC7 SLP900

CYWG;2011-11-13 18:00;CYWG 131800Z 32007KT 15SM BKN017 OVC029 01/M03 A2921 RMK SC5SC3 SLP900

CYWG;2011-11-13 19:00;CYWG 131900Z 29004KT 15SM FEW010 BKN030 BKN100 02/M02 A2921 RMK CF1SC6AC1 SLP900

CYWG;2011-11-13 20:00;CYWG 132000Z 30004KT 15SM BKN026 OVC100 01/M03 A2920 RMK SC6AC2 SLP898

CYWG;2011-11-13 21:00;CYWG 132100Z 26004KT 15SM BKN026 OVC100 02/M02 A2921 RMK SC6AC2 SLP900

CYWG;2011-11-13 21:51;CYWG 132151Z 26003KT 10SM -SN OVC028 01/ RMK SC8

CYWG;2011-11-13 22:00;CYWG 132200Z 26003KT 6SM -SN OVC028 01/M02 A2922 RMK SC8 SLP906

CYWG;2011-11-13 23:00;CYWG 132300Z 00000KT 3SM -SN SCT018 OVC028 00/M01 A2924 RMK SC3SC5 SLP910

CYWG;2011-11-13 23:09;CYWG 132309Z 00000KT 2 1/2SM -SN BKN015 OVC026 00/ RMK SC6SC2

CYWG;2011-11-13 23:17;CYWG 132317Z 00000KT 1 3/4SM -SN OVC015 00/ RMK SN3SC5

CYWG;2011-11-13 23:52;CYWG 132352Z 00000KT 3SM -SN BKN015 OVC026 M00/ RMK SC6SC2

CYWG;2011-11-14 00:00;CYWG 140000Z 00000KT 4SM -SN BKN015 OVC026 M00/M00 A2925 RMK SC6SC2 SLP914

CYWG;2011-11-14 00:26;CYWG 140026Z 17002KT 15SM -SN FEW009 BKN023 OVC046 M00/ RMK SF2SC5SC2

CYWG;2011-11-14 01:00;CYWG 140100Z 14002KT 15SM -SN FEW010 BKN023 OVC041 M00/M00 A2925 RMK SF2SC4SC2 SLP915

CYWG;2011-11-14 01:25;CYWG 140125Z 13002KT 12SM -SN FEW006 BKN021 OVC039 M00/ RMK SF2SC2SC3

CYWG;2011-11-14 01:46;CYWG 140146Z 09003KT 4SM -SN FEW006 BKN009 OVC028 00/ RMK SF2SF3SC3

CYWG;2011-11-14 01:53;CYWG 140153Z 09002KT 2 1/2SM -SN BKN006 OVC028 00/ RMK SF6SC2

CYWG;2011-11-14 02:00;CYWG 140200Z 09002KT 2 1/2SM -SN BKN006 OVC028 00/M00 A2924 RMK SF6SC2 SLP913

CYWG;2011-11-14 02:26;CYWG 140226Z CCA 13003KT 2 1/2SM -SN BKN004 OVC026 00/ RMK SF7SC1

CYWG;2011-11-14 02:42;CYWG 140242Z 12006KT 2 1/2SM -SN BKN005 OVC029 00/ RMK SF6SC2

CYWG;2011-11-14 03:00;CYWG 140300Z 12007KT 2 1/2SM -SN BKN005 OVC029 00/M00 A2924 RMK SF6SC2 SLP912

CYWG;2011-11-14 03:12;CYWG 140312Z 12007KT 3SM -SN BKN007 OVC028 00/ RMK SF6SC2

CYWG;2011-11-14 04:00;CYWG 140400Z 12006KT 3SM -SN BKN006 OVC024 00/M00 A2924 RMK SF6SC2 OBS TAKEN +8 SLP913

CYWG;2011-11-14 05:00;CYWG 140500Z 11005KT 3SM -SN BKN006 OVC024 00/M00 A2923 RMK ST6SC2 SLP909

CYWG;2011-11-14 06:00;CYWG 140600Z 09004KT 12SM OVC004 00/M00 A2924 RMK ST8 SLP911

CYWG;2011-11-14 07:00;CYWG 140700Z 10005KT 12SM OVC007 00/M00 A2924 RMK ST8 SLP912

CYWG;2011-11-14 07:23;CYWG 140723Z 08003KT 12SM OVC004 00/ RMK ST8

CYWG;2011-11-14 08:00;CYWG 140800Z 10005KT 6SM BR OVC004 00/M00 A2924 RMK ST8 SLP913

CYWG;2011-11-14 08:33;CYWG 140833Z 09004KT 12SM BKN004 OVC013 00/ RMK ST6ST2

CYWG;2011-11-14 09:00;CYWG 140900Z 12002KT 12SM BKN004 OVC011 M00/M00 A2925 RMK ST6ST2 SLP914

CYWG;2011-11-14 10:00;CYWG 141000Z 13002KT 12SM BKN004 OVC039 M00/M00 A2924 RMK ST6SC2 OBS TAKEN +10 SLP912

CYWG;2011-11-14 11:00;CYWG 141100Z 27002KT 12SM OVC004 M00/M00 A2925 RMK ST8 SLP914

CYWG;2011-11-14 12:00;CYWG 141200Z 32003KT 6SM BR OVC004 M00/M00 A2926 RMK ST8 SLP918

CYWG;2011-11-14 12:12;CYWG 141212Z 28002KT 6SM BR OVC003 00/ RMK ST8

CYWG;2011-11-14 13:00;CYWG 141300Z 22003KT 2SM BR OVC001 M00/M00 A2925 RMK ST8 SLP916

CYWG;2011-11-14 13:05;CYWG 141305Z 24003KT 1SM R13/P6000FT/U R36/P6000FT/D BR VV001 M00/ RMK FG8

CYWG;2011-11-14 14:00;CYWG 141400Z 22004KT 1/2SM R13/2600FT/N R36/3000FT/N FZFG VV001 M01/M01 A2927 RMK FG8 SLP921

CYWG;2011-11-14 15:00;CYWG 141500Z 24003KT 1/2SM R31/5000FT/N R36/5000FT/N FZFG VV001 M01/M01 A2926 RMK FG8 OBS TAKEN +02 SLP921

CYWG;2011-11-14 15:49;CYWG 141549Z 24004KT 1/4SM R31/2200FT/N R36/3500FT/D FZFG VV001 M01/ RMK FG8

CYWG;2011-11-14 16:00;CYWG 141600Z 23005KT 1/4SM R31/2600FT/N R36/2200FT/U FZFG VV001 M01/M01 A2926 RMK FG8 SLP920

CYWG;2011-11-14 17:00;CYWG 141700Z 21006KT 3/8SM R31/3000FT/N R36/2600V4000FT/N FZFG VV001 M01/M01 A2926 RMK FG8 SLP921

CYWG;2011-11-14 17:15;CYWG 141715Z 23007KT 3/4SM R31/3000VP6000FT/U R36/3500VP6000FT/N BR VV001 M01/ RMK FG8

CYWG;2011-11-14 17:25;CYWG 141725Z 22008KT 3/8SM R31/3000VP6000FT/D R36/3500FT/N FZFG VV001 M01/ RMK FG8

CYWG;2011-11-14 17:39;CYWG 141739Z 21007KT 1SM R31/3500VP6000FT/U R36/3000VP6000FT/U BR VV002 M01/ RMK FG8

CYWG;2011-11-14 18:00;CYWG 141800Z 24009KT 5SM BR OVC002 M01/M01 A2927 RMK ST8 OBS TAKEN +08 SLP923

CYWG;2011-11-14 18:37;CYWG 141837Z 25008KT 8SM OVC007 M01/ RMK SC8 BR

CYWG;2011-11-14 19:00;CYWG 141900Z 25007KT 8SM OVC007 M00/M01 A2926 RMK SC8 BR SLP921

CYWG;2011-11-14 20:00;CYWG 142000Z 22008KT 15SM OVC009 00/M00 A2926 RMK SC7 SLP921

CYWG;2011-11-14 20:10;CYWG 142010Z 23008KT 15SM BKN010 OVC067 RMK SC5AC2

CYWG;2011-11-14 21:00;CYWG 142100Z 27008KT 15SM OVC014 03/00 A2927 RMK SC8 SLP923

CYWG;2011-11-14 22:00;CYWG 142200Z 28007KT 15SM BKN017 BKN065 02/00 A2928 RMK SC5SC2 SLP927

CYWG;2011-11-14 23:00;CYWG 142300Z 27006KT 15SM BKN019 02/M00 A2932 RMK SC6 SLP937

CYWG;2011-11-15 00:00;CYWG 150000Z 23006KT 15SM SCT020 M00/M01 A2933 RMK SC3 SLP942

CYWG;2011-11-15 01:00;CYWG 150100Z 21005KT 15SM BKN045 00/M01 A2933 RMK SC5 SLP944

CYWG;2011-11-15 02:00;CYWG 150200Z 17004KT 15SM SCT047 M01/M02 A2932 RMK SC2 SLP940

CYWG;2011-11-15 03:00;CYWG 150300Z 24005KT 15SM FEW060 M02/M02 A2934 RMK SC2 SLP947

CYWG;2011-11-15 04:00;CYWG 150400Z 25008KT 15SM FEW060 M01/M03 A2935 RMK SC2 SLP951

CYWG;2011-11-15 05:00;CYWG 150500Z 25010KT 15SM BKN040 M01/M03 A2937 RMK SC5 SLP956

CYWG;2011-11-15 06:00;CYWG 150600Z 27013KT 15SM FEW036 BKN068 M01/M02 A2938 RMK SC1AC5 SLP959

CYWG;2011-11-15 07:00;CYWG 150700Z 30017KT 15SM -SHSN FEW013 OVC022 00/M01 A2940 RMK SF1SC7 SLP968

CYWG;2011-11-15 08:00;CYWG 150800Z 30011KT 15SM -SHSN FEW015 BKN036 BKN081 M01/M02 A2941 RMK SF1SC2AC2 SLP972

CYWG;2011-11-15 08:28;CYWG 150828Z 29007KT 15SM FEW040 FEW068 BKN081 M02/ RMK SC1AC1AC2

CYWG;2011-11-15 09:00;CYWG 150900Z 27006KT 15SM FEW016 BKN054 M01/M02 A2943 RMK SF1SC6 SLP978

CYWG;2011-11-15 09:16;CYWG 150916Z 26005KT 15SM FEW007 BKN054 M01/ RMK SF2SC2

CYWG;2011-11-15 10:00;CYWG 151000Z 25006KT 15SM FEW007 M03/M03 A2944 RMK SF1 TR SF SLP981

CYWG;2011-11-15 11:00;CYWG 151100Z 22007KT 15SM FEW007 M03/M04 A2945 RMK SF1 TR SF SLP984

CYWG;2011-11-15 12:00;CYWG 151200Z 23007KT 15SM FEW007 FEW220 M04/M06 A2946 RMK SF1CI1 FROIN SLP990

CYWG;2011-11-15 13:00;CYWG 151300Z 24007KT 15SM FEW095 SCT220 M05/M06 A2948 RMK AC1CI2 FROIN SLP995

CYWG;2011-11-15 14:00;CYWG 151400Z 25007KT 15SM FEW030 FEW095 BKN140 BKN220 M05/M06 A2950 RMK SC1AC1AC2CI2 FROIN SLP001

CYWG;2011-11-15 15:00;CYWG 151500Z 27004KT 15SM FEW043 FEW070 BKN140 BKN220 M04/M05 A2951 RMK SC1AC2AC2CI2 SLP007

CYWG;2011-11-15 16:00;CYWG 151600Z 28006KT 15SM FEW029 FEW081 BKN120 BKN220 M03/M04 A2954 RMK SC1AC2AC2CI2 SLP015

CYWG;2011-11-15 17:00;CYWG 151700Z 28007KT 12SM -SN FEW030 BKN100 BKN220 M02/M03 A2955 RMK SC1AS6CI1 SLP019

CYWG;2011-11-15 18:00;CYWG 151800Z 30011KT 15SM -SN FEW030 BKN100 OVC220 M01/M02 A2955 RMK SC2AS4CS2 SLP018

CYWG;2011-11-15 18:29;CYWG 151829Z 30012KT 15SM FEW030 FEW070 SCT120 OVC220 M00/ RMK SC1AC2AS2CI2

CYWG;2011-11-15 19:00;CYWG 151900Z 29013KT 15SM SCT026 SCT070 BKN120 BKN220 M00/M02 A2956 RMK SC2AC1AS2CI2 SLP022

CYWG;2011-11-15 20:00;CYWG 152000Z 29016KT 15SM SCT016 SCT070 BKN220 M01/M05 A2958 RMK SC3AC1CS1 SLP029

CYWG;2011-11-15 21:00;CYWG 152100Z 29015KT 15SM BKN021 BKN220 M01/M05 A2960 RMK SC5CS0 SLP037

CYWG;2011-11-15 22:00;CYWG 152200Z 29013KT 15SM OVC031 M01/M06 A2963 RMK SC8 SLP045

CYWG;2011-11-15 23:00;CYWG 152300Z 28011KT 15SM OVC033 M01/M05 A2965 RMK SC8 SLP054

CYWG;2011-11-16 00:00;CYWG 160000Z 28019KT 15SM OVC031 M02/M06 A2968 RMK SC8 SLP064

CYWG;2011-11-16 01:00;CYWG 160100Z 28014G19KT 15SM OVC033 M02/M07 A2970 RMK SC8 SLP071

CYWG;2011-11-16 02:00;CYWG 160200Z 28015KT 15SM BKN043 M03/M07 A2971 RMK SC7 SLP076

CYWG;2011-11-16 03:00;CYWG 160300Z 28013KT 15SM SCT048 M04/M08 A2973 RMK SC4 SLP083

CYWG;2011-11-16 04:00;CYWG 160400Z 28010KT 15SM SCT040 M05/M08 A2974 RMK SC3 SLP087

CYWG;2011-11-16 05:00;CYWG 160500Z 27015KT 15SM BKN039 M04/M08 A2976 RMK SC6 SLP092

CYWG;2011-11-16 06:00;CYWG 160600Z 27013G18KT 15SM BKN039 M05/M09 A2977 RMK SC7 SLP095

CYWG;2011-11-16 07:00;CYWG 160700Z 27011KT 15SM FEW037 M07/M10 A2978 RMK SC2 SLP099

CYWG;2011-11-16 08:00;CYWG 160800Z 27010KT 15SM FEW090 M07/M11 A2979 RMK AC1 SLP101

CYWG;2011-11-16 09:00;CYWG 160900Z 27010KT 15SM SKC M08/M11 A2980 RMK SLP106

CYWG;2011-11-16 10:00;CYWG 161000Z 25008KT 15SM FEW027 M08/M11 A2981 RMK SC2 SLP111

CYWG;2011-11-16 11:00;CYWG 161100Z 27009KT 15SM FEW030 M09/M11 A2982 RMK SC1 SLP114

CYWG;2011-11-16 12:00;CYWG 161200Z 26009KT 15SM BKN023 M09/M11 A2984 RMK SC6 SLP121

CYWG;2011-11-16 13:00;CYWG 161300Z 26010KT 15SM SCT021 BKN039 M08/M10 A2986 RMK SC3SC4 SLP126

CYWG;2011-11-16 14:00;CYWG 161400Z 27012KT 15SM -SHSN SCT023 BKN037 M07/M10 A2987 RMK SC3SC3 SLP129

CYWG;2011-11-16 14:11;CYWG 161411Z 27012G17KT 3SM -SHSN DRSN OVC037 M07/ RMK SN3SC4

CYWG;2011-11-16 15:00;CYWG 161500Z 26013KT 5SM -SHSN DRSN OVC032 M07/M09 A2988 RMK SC8 SLP134

CYWG;2011-11-16 15:13;CYWG 161513Z 27013KT 2SM -SHSN DRSN OVC017 M07/ RMK SN4SC4

CYWG;2011-11-16 16:00;CYWG 161600Z 27016KT 3SM -SHSN DRSN OVC029 M06/M08 A2988 RMK SN2SC6 SLP135

CYWG;2011-11-16 17:00;CYWG 161700Z 28017G22KT 6SM -SHSN DRSN SCT015 OVC024 M05/M07 A2989 RMK SC3SC4 SLP138

CYWG;2011-11-16 17:16;CYWG 161716Z 28018KT 4SM -SHSN DRSN OVC013 M05/ RMK SN3SC5

CYWG;2011-11-16 17:48;CYWG 161748Z 28018G24KT 2SM -SHSN DRSN OVC011 M04/ RMK SN4SC4

CYWG;2011-11-16 18:00;CYWG 161800Z 28018G24KT 2SM -SHSN DRSN OVC014 M04/M06 A2990 RMK SN4SC4 SLP142

CYWG;2011-11-16 18:19;CYWG 161819Z 28019KT 5SM -SHSN DRSN OVC014 M03/ RMK SC8

CYWG;2011-11-16 18:46;CYWG 161846Z 31018G24KT 10SM OVC014 M03/ RMK SC8

CYWG;2011-11-16 19:00;CYWG 161900Z 30020KT 10SM OVC014 M03/M06 A2993 RMK SC8 SLP150

CYWG;2011-11-16 19:31;CYWG 161931Z 30019KT 10SM -SHSN OVC018 M02/ RMK SC8

CYWG;2011-11-16 20:00;CYWG 162000Z 31019G24KT 10SM -SHSN OVC023 M03/M07 A2996 RMK SC8 CVCTC CLD EMBD SLP159

CYWG;2011-11-16 20:37;CYWG 162037Z 31017G22KT 15SM BKN025 OVC053 M03/ RMK SC5SC3

CYWG;2011-11-16 21:00;CYWG 162100Z 32018KT 15SM SCT025 OVC065 M03/M07 A2998 RMK SC3SC4 SLP167

CYWG;2011-11-16 21:15;CYWG 162115Z 31016G21KT 12SM -SHSN BKN019 OVC065 M03/ RMK SC6SC2 CVCTV CLD EMBD

CYWG;2011-11-16 22:00;CYWG 162200Z 31014G22KT 12SM -SHSN BKN023 OVC069 M04/M07 A3000 RMK SC4AC3 CVCTV CLD EMBD SLP175

CYWG;2011-11-16 22:36;CYWG 162236Z 31016KT 15SM SCT025 OVC070 RMK SC2AC5

CYWG;2011-11-16 23:00;CYWG 162300Z 31014KT 15SM SCT025 OVC070 M04/M07 A3003 RMK SC2AC6 SLP184

CYWG;2011-11-16 23:33;CYWG 162333Z 31014KT 10SM -SHSN BKN017 OVC070 RMK SC6AC2 CVCTV CLD EMBD

CYWG;2011-11-17 00:00;CYWG 170000Z 32015G20KT 10SM -SHSN BKN020 OVC070 M05/M08 A3005 RMK SC6AC2 CVCTV CLD EMBD SLP192

CYWG;2011-11-17 01:00;CYWG 170100Z 32011G16KT 10SM -SHSN BKN023 OVC071 M05/M08 A3006 RMK SC6AC2 CVCTV CLD EMBD SLP196

CYWG;2011-11-17 02:00;CYWG 170200Z 32017KT 12SM -SHSN BKN022 OVC070 M06/M10 A3007 RMK SC7AC1 CVCTV CLD EMBD SLP201

CYWG;2011-11-17 03:00;CYWG 170300Z 34011KT 15SM -SHSN BKN033 OVC085 M07/M11 A3009 RMK SC6AC2 CVCTV CLD EMBD SLP205

CYWG;2011-11-17 04:00;CYWG 170400Z 34004KT 15SM OVC033 M07/M11 A3009 RMK SC8 SLP206

CYWG;2011-11-17 05:00;CYWG 170500Z 34009KT 15SM OVC035 M08/M12 A3009 RMK SC8 SLP207

CYWG;2011-11-17 05:01;CYWG 170501Z 35010KT 15SM -SHSN OVC035 M08/ RMK SC8

CYWG;2011-11-17 06:00;CYWG 170600Z 33005KT 15SM -SHSN OVC028 M08/M12 A3009 RMK SC8 SLP206

CYWG;2011-11-17 07:00;CYWG 170700Z 27006KT 6SM -SHSN BKN028 M08/M10 A3009 RMK SC7 SLP207

CYWG;2011-11-17 08:00;CYWG 170800Z 28005KT 15SM -SHSN BKN033 M09/M11 A3009 RMK SC7 SLP208

CYWG;2011-11-17 09:00;CYWG 170900Z 27008KT 15SM -SHSN SCT017 BKN033 M10/M12 A3009 RMK SF2SC6 SLP207

CYWG;2011-11-17 10:00;CYWG 171000Z 26004KT 6SM -SHSN OVC024 M10/M11 A3008 RMK SC8 SLP204

CYWG;2011-11-17 11:00;CYWG 171100Z 27009KT 15SM -SHSN BKN024 M10/M12 A3008 RMK SC7 SLP204

CYWG;2011-11-17 12:00;CYWG 171200Z 27006KT 12SM -SHSN BKN033 M11/M13 A3008 RMK SC7 SLP203

CYWG;2011-11-17 13:00;CYWG 171300Z 27004KT 8SM -SHSN BKN029 M11/M13 A3008 RMK SC7 SLP203

CYWG;2011-11-17 14:00;CYWG 171400Z 27004KT 10SM -SHSN BKN027 M10/M12 A3007 RMK SC7 SLP201

CYWG;2011-11-17 15:00;CYWG 171500Z 25005KT 8SM -SHSN OVC033 M11/M13 A3009 RMK SC8 SLP207

CYWG;2011-11-17 16:00;CYWG 171600Z 26005KT 10SM -SHSN BKN031 M11/M13 A3008 RMK SC7 SLP205

CYWG;2011-11-17 17:00;CYWG 171700Z 27005KT 15SM -SHSN BKN028 BKN240 M09/M12 A3007 RMK SC5CI1 SLP201

CYWG;2011-11-17 17:38;CYWG 171738Z 26006KT 15SM BKN023 BKN240 M08/ RMK SC3CI1

CYWG;2011-11-17 18:00;CYWG 171800Z 27004KT 15SM FEW017 SCT023 BKN240 M08/M12 A3004 RMK CF1SC2CI1 SLP190

CYWG;2011-11-17 19:00;CYWG 171900Z 26003KT 15SM FEW023 FEW030 BKN240 M07/M12 A3002 RMK CF2SC1CI1 SLP184

CYWG;2011-11-17 20:00;CYWG 172000Z 00000KT 15SM FEW028 BKN240 M07/M13 A3000 RMK SC2CI2 SLP178

CYWG;2011-11-17 21:00;CYWG 172100Z 00000KT 15SM FEW030 BKN240 M07/M13 A2999 RMK SC1CI2 SLP172

CYWG;2011-11-17 22:00;CYWG 172200Z 17006KT 15SM FEW030 SCT140 BKN240 M07/M13 A2996 RMK SC1AC2CI1 SLP163

CYWG;2011-11-17 23:00;CYWG 172300Z 15009KT 15SM FEW030 SCT120 OVC240 M07/M12 A2995 RMK SC1AC3CI2 SLP160

CYWG;2011-11-18 00:00;CYWG 180000Z 13008KT 15SM BKN097 OVC220 M07/M12 A2993 RMK AC6CI1 SLP155

CYWG;2011-11-18 01:00;CYWG 180100Z 14010KT 15SM OVC077 M07/M13 A2991 RMK AC8 SLP147

CYWG;2011-11-18 02:00;CYWG 180200Z 12011KT 15SM OVC054 M07/M13 A2990 RMK SC8 SLP145

CYWG;2011-11-18 03:00;CYWG 180300Z 12012KT 15SM OVC040 M08/M12 A2991 RMK SC8 SLP146

CYWG;2011-11-18 03:28;CYWG 180328Z 11012KT 3SM -SN BKN015 OVC077 M08/ RMK SC6AC2

CYWG;2011-11-18 03:41;CYWG 180341Z 11012KT 1 1/2SM -SN VV010 M08/ RMK SN8

CYWG;2011-11-18 04:00;CYWG 180400Z 11012KT 3SM -SN OVC015 M08/M10 A2990 RMK SN3SC5 SLP143

CYWG;2011-11-18 05:00;CYWG 180500Z 12013KT 3SM -SN OVC020 M09/M10 A2987 RMK SN4SC4 SLP133

CYWG;2011-11-18 06:00;CYWG 180600Z 11013KT 3SM -SN OVC033 M09/M10 A2982 RMK SN2SC6 SLP116

CYWG;2011-11-18 07:00;CYWG 180700Z 09013G18KT 10SM -SN DRSN BKN045 OVC089 M09/M11 A2979 RMK SC6AC2 SLP106

CYWG;2011-11-18 08:00;CYWG 180800Z 09010G18KT 15SM -SN DRSN BKN051 OVC085 M08/M11 A2977 RMK SC6AC2 SLP100

CYWG;2011-11-18 08:49;CYWG 180849Z 08010G15KT 15SM DRSN SCT062 OVC081 M08/ RMK SC4AC4

CYWG;2011-11-18 09:00;CYWG 180900Z 08010KT 15SM DRSN SCT062 OVC081 M08/M11 A2977 RMK SC4AC4 SLP098

CYWG;2011-11-18 10:00;CYWG 181000Z 08009KT 15SM OVC060 M08/M10 A2976 RMK SC8 SLP094

CYWG;2011-11-18 10:07;CYWG 181007Z 08008KT 15SM -SN OVC060 M08/ RMK SC8

CYWG;2011-11-18 11:00;CYWG 181100Z 07008KT 15SM -SN OVC055 M08/M10 A2977 RMK SC8 SLP096

CYWG;2011-11-18 12:00;CYWG 181200Z 07012KT 15SM -SN BKN055 OVC073 M08/M10 A2975 RMK SC6AC2 SLP090

CYWG;2011-11-18 12:28;CYWG 181228Z 07009KT 15SM OVC075 M08/ RMK AC8

CYWG;2011-11-18 13:00;CYWG 181300Z 07010KT 15SM FEW020 OVC070 M08/M10 A2975 RMK SC2AC6 SLP092

CYWG;2011-11-18 14:00;CYWG 181400Z 07011KT 15SM FEW013 BKN052 BKN081 M07/M09 A2976 RMK SC1SC3AC2 SLP093

CYWG;2011-11-18 15:00;CYWG 181500Z 09011KT 15SM BKN014 OVC062 M07/M09 A2977 RMK SC5SC3 SLP098

CYWG;2011-11-18 16:00;CYWG 181600Z 08010G15KT 15SM BKN014 OVC042 M06/M08 A2976 RMK SC5SC3 SLP095

CYWG;2011-11-18 17:00;CYWG 181700Z 08009KT 15SM OVC014 M06/M09 A2978 RMK SC8 SLP100

CYWG;2011-11-18 17:23;CYWG 181723Z 08010KT 15SM -SN OVC014 M06/ RMK SC8

CYWG;2011-11-18 18:00;CYWG 181800Z 07012KT 10SM -SN BKN016 OVC061 M05/M08 A2974 RMK SC6SC2 SLP089

CYWG;2011-11-18 18:41;CYWG 181841Z 08010KT 15SM BKN016 OVC045 M05/ RMK SC6SC2

CYWG;2011-11-18 19:00;CYWG 181900Z 06011KT 15SM OVC016 M05/M08 A2973 RMK SC8 SLP084

CYWG;2011-11-18 19:37;CYWG 181937Z 06010KT 10SM -SN OVC016 M05/ RMK SC8

CYWG;2011-11-18 20:00;CYWG 182000Z 05012KT 3SM -SN OVC014 M06/M08 A2973 RMK SC8 SLP085

CYWG;2011-11-18 20:15;CYWG 182015Z 05010G15KT 2SM -SN OVC011 M06/ RMK SC8

CYWG;2011-11-18 20:37;CYWG 182037Z 03011KT 1 1/2SM -SN OVC011 M06/ RMK SC8

CYWG;2011-11-18 21:00;CYWG 182100Z 03014KT 2SM -SN OVC011 M06/M08 A2974 RMK SC8 SLP088

CYWG;2011-11-18 21:27;CYWG 182127Z 04013KT 1SM R31/P6000FT/D R36/P6000FT/D -SN VV009 M07/ RMK SN8

CYWG;2011-11-18 21:50;CYWG 182150Z 05012G17KT 3/4SM R31/5000FT/D R36/4500FT/N -SN VV003 M07/ RMK SN8

CYWG;2011-11-18 22:00;CYWG 182200Z 04011G16KT 3/4SM R31/P6000FT/U R36/4500VP6000FT/U -SN VV003 M07/M08 A2974 RMK SN8 SLP088

CYWG;2011-11-18 22:09;CYWG 182209Z 04010G16KT 1SM R31/P6000FT/U R36/P6000FT/U -SN VV003 M07/ RMK SN8

CYWG;2011-11-18 22:19;CYWG 182219Z 04012KT 1 1/2SM -SN BKN005 OVC057 M07/ RMK ST6SC2

CYWG;2011-11-18 22:46;CYWG 182246Z 04010KT 2 1/2SM -SN OVC024 M07/ RMK SC8

CYWG;2011-11-18 23:00;CYWG 182300Z 04011KT 3SM -SN OVC022 M07/M08 A2976 RMK SC8 SLP093

CYWG;2011-11-19 00:00;CYWG 190000Z 04011KT 4SM -SN BKN028 OVC055 M07/M08 A2976 RMK SC6SC2 SLP095

CYWG;2011-11-19 01:00;CYWG 190100Z 02009KT 3SM -SN OVC030 M07/M08 A2979 RMK SC8 SLP103

CYWG;2011-11-19 01:23;CYWG 190123Z 01011KT 1 1/2SM -SN OVC030 M07/ RMK SC8

CYWG;2011-11-19 01:38;CYWG 190138Z 01012KT 1SM R31/P6000FT/U R36/P6000FT/D -SN VV012 M07/ RMK SN8

CYWG;2011-11-19 02:00;CYWG 190200Z 01011KT 1SM R31/P6000FT/N R36/5500FT/U -SN VV008 M07/M08 A2980 RMK SN8 SLP108

CYWG;2011-11-19 02:27;CYWG 190227Z 01012KT 1 1/2SM -SN VV011 M07/ RMK SN8

CYWG;2011-11-19 03:00;CYWG 190300Z 34014G19KT 1SM R31/P6000FT/D R36/5000FT/D -SN DRSN VV008 M08/M09 A2983 RMK SN8 SLP119

CYWG;2011-11-19 04:00;CYWG 190400Z 35018KT 1SM R31/P6000FT/U R36/P6000FT/D -SN DRSN VV012 M09/M10 A2985 RMK SN8 /S02/ SLP125

CYWG;2011-11-19 04:23;CYWG 190423Z 35018G24KT 1 1/2SM -SN DRSN OVC050 M09/ RMK SN5SC3 OCNL BLSN

CYWG;2011-11-19 05:00;CYWG 190500Z 36015G24KT 3SM -SN DRSN OVC022 M10/M12 A2987 RMK SN2SC6 OCNL BLSN SLP130

CYWG;2011-11-19 05:39;CYWG 190539Z 34015KT 15SM DRSN SCT022 OVC052 M11/ RMK SC4SC4

CYWG;2011-11-19 06:00;CYWG 190600Z 34017KT 15SM DRSN BKN034 OVC072 M12/M14 A2992 RMK SC5AC3 SLP151

CYWG;2011-11-19 07:00;CYWG 190700Z 35012KT 15SM SCT086 M12/M14 A2996 RMK AC4 SLP162

CYWG;2011-11-19 08:00;CYWG 190800Z 34007KT 15SM SCT086 M16/M17 A2994 RMK AC3 SLP157

CYWG;2011-11-19 08:38;CYWG 190838Z 31007KT 15SM FEW007 SCT085 M17/ RMK ST2AC2

CYWG;2011-11-19 09:00;CYWG 190900Z 30007KT 15SM FEW009 SCT015 M18/M19 A3001 RMK ST0SC2 PRESRR SLP182

CYWG;2011-11-19 10:00;CYWG 191000Z 32012KT 15SM FEW015 M17/M18 A3003 RMK SC1 SLP188

CYWG;2011-11-19 11:00;CYWG 191100Z 33013KT 15SM FEW015 M17/M18 A3005 RMK SC1 SLP195

CYWG;2011-11-19 12:00;CYWG 191200Z 33013KT 15SM FEW015 M17/M22 A3008 RMK SC1 SLP206

CYWG;2011-11-19 13:00;CYWG 191300Z 33008KT 15SM FEW014 FEW094 M18/M22 A3011 RMK SC1AC1 SLP217

CYWG;2011-11-19 14:00;CYWG 191400Z 33008KT 15SM FEW019 FEW030 FEW090 M21/M25 A3013 RMK SC1SC1AC1 SLP224

CYWG;2011-11-19 15:00;CYWG 191500Z 33006KT 15SM FEW020 FEW090 FEW210 M21/M25 A3015 RMK SC1AC1CI0 SLP231

CYWG;2011-11-19 16:00;CYWG 191600Z 34013KT 15SM FEW020 FEW090 FEW210 M15/M18 A3017 RMK SC1AC1CI0 SLP239

CYWG;2011-11-19 17:00;CYWG 191700Z 34012KT 15SM FEW030 FEW090 SCT210 M14/M18 A3017 RMK SC1AC1CI0 SLP238

CYWG;2011-11-19 18:00;CYWG 191800Z 34011KT 15SM FEW030 FEW100 SCT210 M14/M18 A3016 RMK SC1AC1CI1 AC TR SLP234

CYWG;2011-11-19 19:00;CYWG 191900Z 32011KT 15SM FEW030 SCT210 M14/M18 A3016 RMK SC1CI1 SLP233

CYWG;2011-11-19 20:00;CYWG 192000Z 32007KT 15SM FEW210 M13/M18 A3017 RMK CI1 SLP239

CYWG;2011-11-19 21:00;CYWG 192100Z 28006KT 15SM FEW030 FEW210 M14/M18 A3019 RMK SC1CI1 SLP246

CYWG;2011-11-19 22:00;CYWG 192200Z 30008KT 15SM FEW030 BKN210 M16/M20 A3021 RMK SC1CI1 SLP253

CYWG;2011-11-19 23:00;CYWG 192300Z 31006KT 15SM FEW030 FEW210 M19/M23 A3022 RMK SC1CI1 SLP256

CYWG;2011-11-20 00:00;CYWG 200000Z 01004KT 15SM FEW030 FEW210 M21/M24 A3022 RMK SC1CI1 SLP259

CYWG;2011-11-20 01:00;CYWG 200100Z 29007KT 15SM FEW030 FEW210 M19/M23 A3024 RMK SC1CI1 SLP266

CYWG;2011-11-20 02:00;CYWG 200200Z 26008KT 15SM SCT028 BKN210 M19/M23 A3026 RMK SC3CI3 SLP273

CYWG;2011-11-20 03:00;CYWG 200300Z 28007KT 15SM BKN030 BKN210 M18/M21 A3027 RMK SC5CI2 SLP277

CYWG;2011-11-20 04:00;CYWG 200400Z 27005KT 15SM BKN030 BKN085 OVC210 M17/M20 A3029 RMK SC5AC1CI1 SLP283

CYWG;2011-11-20 05:00;CYWG 200500Z 27005KT 15SM SCT032 BKN093 OVC210 M17/M20 A3029 RMK SC4AC2CI1 SLP284

CYWG;2011-11-20 06:00;CYWG 200600Z 29008KT 15SM SCT100 OVC210 M17/M20 A3028 RMK AC4CI2 SLP278

CYWG;2011-11-20 07:00;CYWG 200700Z 28007KT 15SM SCT100 OVC210 M16/M19 A3029 RMK AC4CI2 SLP281

CYWG;2011-11-20 08:00;CYWG 200800Z 27005KT 15SM FEW025 SCT098 OVC210 M16/M19 A3029 RMK SC2AC2CI2 SLP281

CYWG;2011-11-20 09:00;CYWG 200900Z 27003KT 15SM FEW025 BKN092 OVC210 M17/M20 A3030 RMK SC1AC4CI2 SLP283

CYWG;2011-11-20 10:00;CYWG 201000Z 00000KT 15SM FEW025 BKN083 OVC210 M16/M20 A3029 RMK SC1AC6CI1 SLP280

CYWG;2011-11-20 11:00;CYWG 201100Z 00000KT 15SM BKN047 OVC210 M15/M19 A3029 RMK SC6CI1 SLP281

CYWG;2011-11-20 11:28;CYWG 201128Z 22003KT 15SM -SN BKN029 OVC094 M19/ RMK SC6AC2

CYWG;2011-11-20 12:00;CYWG 201200Z 20003KT 6SM -SN BKN021 OVC090 M15/M18 A3030 RMK SC6AC2 SLP286

CYWG;2011-11-20 13:00;CYWG 201300Z 23005KT 6SM -SN OVC036 M16/M19 A3031 RMK SC8 SLP291

CYWG;2011-11-20 14:00;CYWG 201400Z 22004KT 6SM -SN OVC031 OVC090 M16/M19 A3032 RMK SC2AC2 SLP293

CYWG;2011-11-20 15:00;CYWG 201500Z 18006KT 8SM -SN BKN009 BKN090 BKN210 M17/M19 A3032 RMK ST1AC2CI2 SLP293

CYWG;2011-11-20 15:34;CYWG 201534Z 16006KT 12SM SCT012 SCT090 SCT210 M16/ RMK ST1AC2CI1

CYWG;2011-11-20 16:00;CYWG 201600Z 18007KT 15SM FEW023 FEW090 SCT210 M15/M18 A3031 RMK ST1AC2CI1 TR ST SLP290

CYWG;2011-11-20 17:00;CYWG 201700Z 19010KT 15SM FEW090 M13/M17 A3031 RMK AC1 SLP289

CYWG;2011-11-20 18:00;CYWG 201800Z 18009KT 15SM FEW016 M13/M17 A3029 RMK ST1 TR ST SLP282

CYWG;2011-11-20 19:00;CYWG 201900Z CCA 18011KT 15SM FEW016 M12/M16 A3027 RMK SC1 TR SC SLP275

CYWG;2011-11-20 20:00;CYWG 202000Z 17011KT 15SM FEW015 M12/M15 A3025 RMK CF1 SLP268

CYWG;2011-11-20 21:00;CYWG 202100Z 18012KT 15SM FEW015 FEW210 M11/M15 A3023 RMK CF1CI1 SLP261

CYWG;2011-11-20 22:00;CYWG 202200Z 17012KT 15SM FEW210 M11/M15 A3021 RMK CI1 SLP254

CYWG;2011-11-20 23:00;CYWG 202300Z 17012G17KT 15SM FEW210 M12/M15 A3020 RMK CI1 SLP249

CYWG;2011-11-21 00:00;CYWG 210000Z 17013KT 15SM FEW210 M12/M16 A3019 RMK CI1 SLP244

CYWG;2011-11-21 01:00;CYWG 210100Z 16010G16KT 15SM SCT210 M12/M15 A3015 RMK CI3 SLP232

CYWG;2011-11-21 02:00;CYWG 210200Z 17013KT 15SM BKN100 OVC210 M11/M15 A3014 RMK AC6CI2 SLP228

CYWG;2011-11-21 03:00;CYWG 210300Z 17012KT 15SM OVC077 M10/M13 A3011 RMK AC8 OBS TAKEN +01 SLP217

CYWG;2011-11-21 04:00;CYWG 210400Z 18014G21KT 15SM OVC043 M10/M13 A3010 RMK SC8 SLP214

CYWG;2011-11-21 05:00;CYWG 210500Z 18012G17KT 15SM FEW029 SCT081 M10/M13 A3008 RMK SC2AC2 SLP209

CYWG;2011-11-21 06:00;CYWG 210600Z 18013KT 15SM FEW033 SCT095 M10/M12 A3008 RMK SC2AC2 SLP205

CYWG;2011-11-21 07:00;CYWG 210700Z 19013KT 15SM FEW085 M10/M13 A3007 RMK AC2 SLP202

CYWG;2011-11-21 08:00;CYWG 210800Z 18009KT 15SM FEW085 M11/M13 A3007 RMK AC1 SLP203

CYWG;2011-11-21 09:00;CYWG 210900Z 19010KT 15SM SKC M11/M13 A3009 RMK SLP209

CYWG;2011-11-21 10:00;CYWG 211000Z 20008KT 15SM FEW087 M12/M14 A3010 RMK AC2 SLP213

CYWG;2011-11-21 11:00;CYWG 211100Z 21006KT 15SM SKC M13/M14 A3010 RMK SLP214

CYWG;2011-11-21 12:00;CYWG 211200Z 23007KT 15SM FEW280 M14/M15 A3013 RMK CI0 SLP225

CYWG;2011-11-21 13:00;CYWG 211300Z 26007KT 15SM FEW110 FEW280 M14/M15 A3014 RMK AC1CI0 SLP229

CYWG;2011-11-21 14:00;CYWG 211400Z 27003KT 15SM FEW090 SCT260 M17/M17 A3015 RMK AC1CI0 SLP230

CYWG;2011-11-21 15:00;CYWG 211500Z 18005KT 15SM FEW090 BKN260 M16/M16 A3016 RMK AC1CI1 SLP235

CYWG;2011-11-21 16:00;CYWG 211600Z 18004KT 15SM FEW009 FEW090 BKN260 M14/M15 A3017 RMK ST1AC1CS2 ST TR SLP238

CYWG;2011-11-21 17:00;CYWG 211700Z 18005KT 15SM FEW004 FEW100 SCT260 M12/M14 A3019 RMK ST1AC1CI1 ST TR SLP244

CYWG;2011-11-21 18:00;CYWG 211800Z 00000KT 15SM FEW004 FEW090 FEW260 M10/M14 A3017 RMK ST1AC1CI0 ST AC TR SLP236

CYWG;2011-11-21 19:00;CYWG 211900Z 19008KT 15SM FEW110 FEW260 M09/M14 A3016 RMK AC1CI0 AC TR SLP231

CYWG;2011-11-21 20:00;CYWG 212000Z 19005KT 15SM SCT260 M09/M14 A3014 RMK CI1 SLP225

CYWG;2011-11-21 21:00;CYWG 212100Z 18004KT 15SM SCT260 M09/M14 A3013 RMK CI1 SLP224

CYWG;2011-11-21 22:00;CYWG 212200Z 17006KT 15SM FEW260 M11/M14 A3013 RMK CI1 SLP223

CYWG;2011-11-21 23:00;CYWG 212300Z 15006KT 15SM FEW260 M11/M13 A3012 RMK CI1 SLP220

CYWG;2011-11-22 00:00;CYWG 220000Z 15009KT 15SM FEW260 M12/M13 A3012 RMK CI1 SLP220

CYWG;2011-11-22 01:00;CYWG 220100Z 14008KT 15SM FEW260 M12/M13 A3010 RMK CI1 SLP214

CYWG;2011-11-22 02:00;CYWG 220200Z 15007KT 15SM FEW260 M11/M13 A3008 RMK CI1 SLP209

CYWG;2011-11-22 03:00;CYWG 220300Z 16009KT 15SM FEW260 M09/M11 A3007 RMK CI0 SLP204

CYWG;2011-11-22 04:00;CYWG 220400Z 16012KT 15SM FEW260 M08/M10 A3005 RMK CI1 SLP198

CYWG;2011-11-22 05:00;CYWG 220500Z 17016KT 15SM SCT093 BKN260 M05/M08 A3004 RMK AC3CI1 SLP195

CYWG;2011-11-22 06:00;CYWG 220600Z 18014G19KT 15SM BKN095 OVC260 M05/M07 A3003 RMK AC6CI1 SLP187

CYWG;2011-11-22 07:00;CYWG 220700Z 18017KT 15SM SCT097 BKN250 M04/M06 A3000 RMK AC3CI2 SLP177

CYWG;2011-11-22 08:00;CYWG 220800Z 18015G20KT 15SM BKN094 OVC250 M04/M06 A2998 RMK AC5CI2 SLP170

CYWG;2011-11-22 09:00;CYWG 220900Z 18018KT 15SM FEW095 BKN250 M04/M06 A2996 RMK AC2CI2 SLP163

CYWG;2011-11-22 10:00;CYWG 221000Z 18020G25KT 15SM FEW010 FEW093 SCT250 M05/M07 A2993 RMK SF1AC2CI1 SLP151

CYWG;2011-11-22 11:00;CYWG 221100Z 18021KT 3SM BR FEW010 FEW089 BKN250 M05/M06 A2990 RMK SF1AC2CI1 FROIN SLP143

CYWG;2011-11-22 12:00;CYWG 221200Z CCA 18019G24KT 3SM BR SCT008 BKN090 M04/M05 A2989 RMK SF2AC2 SLP140

CYWG;2011-11-22 12:33;CYWG 221233Z 18017G26KT 3SM BR BKN007 M04/ RMK SF5

CYWG;2011-11-22 13:00;CYWG 221300Z 18019G25KT 3SM BR BKN006 M04/M05 A2988 RMK SF5 SLP136

CYWG;2011-11-22 13:43;CYWG 221343Z 18018G27KT 3SM BR BKN007 BKN250 M04/ RMK SF3CI0

CYWG;2011-11-22 14:00;CYWG 221400Z 18019G26KT 3SM BR SCT007 BKN250 M04/M05 A2986 RMK SF3CI0 SLP129

CYWG;2011-11-22 15:00;CYWG 221500Z 19017G25KT 5SM BR SCT007 SCT250 M04/M05 A2985 RMK SF2CI0 SLP124

CYWG;2011-11-22 16:00;CYWG 221600Z 19019G26KT 8SM FEW007 FEW250 M03/M05 A2985 RMK SF1CI0 SLP125

CYWG;2011-11-22 17:00;CYWG 221700Z 20012KT 10SM FEW250 M02/M04 A2988 RMK CI0 SLP135

CYWG;2011-11-22 18:00;CYWG 221800Z 19013KT 15SM SKC M01/M04 A2987 RMK SLP127

CYWG;2011-11-22 19:00;CYWG 221900Z 18015KT 15SM SKC M00/M03 A2984 RMK SLP119

CYWG;2011-11-22 20:00;CYWG 222000Z 20013G18KT 15SM FEW240 01/M03 A2984 RMK CI0 SLP119

CYWG;2011-11-22 21:00;CYWG 222100Z 20011KT 15SM FEW240 01/M02 A2985 RMK CI0 SLP120

CYWG;2011-11-22 22:00;CYWG 222200Z 19011KT 15SM FEW240 01/M02 A2985 RMK CI0 SLP120

CYWG;2011-11-22 23:00;CYWG 222300Z 18010KT 15SM FEW240 M00/M02 A2986 RMK CI0 SLP123

CYWG;2011-11-23 00:00;CYWG 230000Z 18012KT 15SM SKC M01/M02 A2985 RMK SLP122

CYWG;2011-11-23 01:00;CYWG 230100Z 18012KT 15SM SKC M01/M02 A2986 RMK SLP124

CYWG;2011-11-23 02:00;CYWG 230200Z 18013KT 15SM SCT240 M01/M02 A2983 RMK CI3 SLP117

CYWG;2011-11-23 03:00;CYWG 230300Z 18015KT 15SM SCT240 M01/M03 A2982 RMK CI3 SLP110

CYWG;2011-11-23 04:00;CYWG 230400Z 18015KT 15SM SCT240 M01/M03 A2981 RMK CI3 SLP107

CYWG;2011-11-23 05:00;CYWG 230500Z 18016KT 15SM FEW240 M02/M03 A2977 RMK CI2 SLP096

CYWG;2011-11-23 06:00;CYWG 230600Z 18018KT 15SM SCT240 M02/M03 A2977 RMK CI3 SLP093

CYWG;2011-11-23 07:00;CYWG 230700Z 18017G22KT 15SM SCT240 M01/M03 A2974 RMK CI2 SLP085

CYWG;2011-11-23 08:00;CYWG 230800Z 19018KT 15SM SCT240 M01/M03 A2973 RMK CI2 SLP079

CYWG;2011-11-23 09:00;CYWG 230900Z 19016KT 15SM BKN140 M01/M03 A2971 RMK AC6 SLP072

CYWG;2011-11-23 10:00;CYWG 231000Z 19019KT 15SM FEW140 M01/M04 A2969 RMK AC2 SLP067

CYWG;2011-11-23 11:00;CYWG 231100Z 19016KT 15SM FEW140 M01/M03 A2969 RMK AC2 SLP066

CYWG;2011-11-23 12:00;CYWG 231200Z 19013KT 15SM SCT230 M01/M03 A2970 RMK CI2 SLP071

CYWG;2011-11-23 13:00;CYWG 231300Z 18011KT 15SM FEW120 SCT230 M01/M03 A2970 RMK AC1CI1 SLP071

CYWG;2011-11-23 14:00;CYWG 231400Z 19009G15KT 15SM FEW120 SCT230 M01/M03 A2973 RMK AC1CI2 AC TR SLP079

CYWG;2011-11-23 15:00;CYWG 231500Z 21009KT 15SM SCT230 M00/M03 A2976 RMK CI1 SLP089

CYWG;2011-11-23 16:00;CYWG 231600Z 22007KT 15SM SCT230 02/M01 A2976 RMK CI1 SLP091

CYWG;2011-11-23 17:00;CYWG 231700Z 24008KT 15SM SCT230 04/00 A2977 RMK CI1 CC ASOCTD SLP092

CYWG;2011-11-23 18:00;CYWG 231800Z 26010KT 15SM BKN230 05/01 A2977 RMK CI1 SLP090

CYWG;2011-11-23 19:00;CYWG 231900Z 27006KT 15SM BKN230 06/01 A2977 RMK CI1 SLP091

CYWG;2011-11-23 20:00;CYWG 232000Z 21008KT 15SM BKN230 07/02 A2977 RMK CI2 SLP093

CYWG;2011-11-23 21:00;CYWG 232100Z 16006KT 15SM BKN220 06/03 A2975 RMK CI2 SLP086

CYWG;2011-11-23 22:00;CYWG 232200Z 18009KT 15SM BKN220 05/03 A2974 RMK CI2 SLP082

CYWG;2011-11-23 23:00;CYWG 232300Z 17008KT 15SM BKN220 03/02 A2972 RMK CI2 SLP076

CYWG;2011-11-24 00:00;CYWG 240000Z 18015KT 15SM BKN220 05/03 A2970 RMK CI1 SLP067

CYWG;2011-11-24 01:00;CYWG 240100Z 18017KT 15SM SCT220 05/02 A2966 RMK CI1 SLP055

CYWG;2011-11-24 02:00;CYWG 240200Z 18016KT 15SM FEW220 05/02 A2964 RMK CI1 SLP048

CYWG;2011-11-24 03:00;CYWG 240300Z 18017KT 15SM FEW250 04/02 A2962 RMK CI1 SLP040

CYWG;2011-11-24 04:00;CYWG 240400Z 18015KT 15SM SCT250 04/01 A2960 RMK CI2 SLP035

CYWG;2011-11-24 05:00;CYWG 240500Z 18014KT 15SM BKN060 03/01 A2958 RMK AC5 SLP028

CYWG;2011-11-24 06:00;CYWG 240600Z 18013KT 15SM BKN140 03/00 A2957 RMK AC3 SLP021

CYWG;2011-11-24 07:00;CYWG 240700Z 18015KT 15SM SCT140 03/00 A2954 RMK AC2 SLP014

CYWG;2011-11-24 08:00;CYWG 240800Z 19013KT 15SM FEW250 02/M00 A2953 RMK CI2 SLP009

CYWG;2011-11-24 09:00;CYWG 240900Z 18012KT 15SM SCT250 03/M00 A2953 RMK CI2 SLP008

CYWG;2011-11-24 10:00;CYWG 241000Z 18011KT 15SM FEW250 02/M00 A2951 RMK CI2 SLP003

CYWG;2011-11-24 11:00;CYWG 241100Z 19013KT 15SM FEW250 02/M00 A2952 RMK CI2 SLP006

CYWG;2011-11-24 12:00;CYWG 241200Z 19008KT 15SM FEW250 02/M00 A2953 RMK CI2 SLP008

CYWG;2011-11-24 13:00;CYWG 241300Z 20009G17KT 15SM SCT250 02/M00 A2953 RMK CI2 SLP009

CYWG;2011-11-24 14:00;CYWG 241400Z 19006KT 15SM BKN220 01/M01 A2953 RMK CI2 SLP010

CYWG;2011-11-24 15:00;CYWG 241500Z 18007KT 15SM BKN220 00/M01 A2953 RMK CI2 SLP011

CYWG;2011-11-24 16:00;CYWG 241600Z 19008KT 15SM BKN220 03/M00 A2954 RMK CI2 SLP013

CYWG;2011-11-24 17:00;CYWG 241700Z 20006KT 15SM OVC220 04/00 A2954 RMK CI2 SLP012

CYWG;2011-11-24 18:00;CYWG 241800Z 20012KT 15SM OVC220 05/01 A2952 RMK CI2 SLP007

CYWG;2011-11-24 19:00;CYWG 241900Z 21009KT 15SM BKN220 07/02 A2954 RMK CI2 SLP014

CYWG;2011-11-24 20:00;CYWG 242000Z 22010KT 15SM FEW091 BKN240 08/03 A2954 RMK AC1CI1 SLP011

CYWG;2011-11-24 21:00;CYWG 242100Z 23009KT 15SM FEW091 BKN240 09/04 A2954 RMK AC1CI1 SLP011

CYWG;2011-11-24 22:00;CYWG 242200Z 24010KT 15SM FEW090 SCT240 09/03 A2954 RMK AC1CI1 SLP012

CYWG;2011-11-24 23:00;CYWG 242300Z 24012KT 15SM FEW240 09/02 A2955 RMK CI1 SLP015

CYWG;2011-11-25 00:00;CYWG 250000Z 27010KT 15SM SKC 07/02 A2960 RMK SLP032

CYWG;2011-11-25 01:00;CYWG 250100Z 29010KT 15SM SKC 03/01 A2964 RMK SLP045

CYWG;2011-11-25 03:00;CYWG 250300Z 35012KT 15SM SKC 02/00 A2970 RMK SLP068

CYWG;2011-11-25 04:00;CYWG 250400Z 32010G15KT 15SM SCT015 OVC260 01/M00 A2972 RMK SC4CI2 SLP074

CYWG;2011-11-25 05:00;CYWG 250500Z 33010G15KT 15SM BKN018 BKN095 00/M01 A2974 RMK SC5AC1 SLP081

CYWG;2011-11-25 06:00;CYWG 250600Z 35010KT 15SM BKN016 OVC095 01/M01 A2974 RMK SC6AC1 SLP083

CYWG;2011-11-25 07:00;CYWG 250700Z 01012KT 15SM OVC014 01/M01 A2976 RMK SC8 SLP087

CYWG;2011-11-25 08:00;CYWG 250800Z 36012KT 15SM OVC014 00/M02 A2978 RMK SC8 SLP094

CYWG;2011-11-25 08:51;CYWG 250851Z 04011KT 15SM OVC009 M00/ RMK ST8

CYWG;2011-11-25 09:00;CYWG 250900Z 02013KT 15SM OVC008 M00/M02 A2978 RMK ST8 SLP094

CYWG;2011-11-25 10:00;CYWG 251000Z 03011KT 15SM OVC007 M01/M02 A2978 RMK ST8 SLP093

CYWG;2011-11-25 10:44;CYWG 251044Z 04006KT 15SM BKN011 OVC095 M01/ RMK ST7AC1

CYWG;2011-11-25 11:00;CYWG 251100Z 05007KT 15SM BKN008 OVC095 M01/M02 A2980 RMK ST7AC1 SLP102

CYWG;2011-11-25 12:00;CYWG 251200Z 05010KT 15SM OVC008 M01/M02 A2981 RMK ST8 SLP105

CYWG;2011-11-25 13:00;CYWG 251300Z 04010KT 15SM OVC008 M01/M03 A2981 RMK ST8 SLP105

CYWG;2011-11-25 14:00;CYWG 251400Z 06009KT 10SM OVC008 M01/M03 A2982 RMK ST8 BR SLP108

CYWG;2011-11-25 15:00;CYWG 251500Z 08007KT 10SM OVC008 M01/M02 A2983 RMK ST8 BR SLP114

CYWG;2011-11-25 16:00;CYWG 251600Z 07009KT 10SM OVC008 M01/M02 A2982 RMK ST8 BR SLP109

CYWG;2011-11-25 17:00;CYWG 251700Z 08006KT 12SM OVC009 M01/M03 A2984 RMK ST8 BR SLP116

CYWG;2011-11-25 17:44;CYWG 251744Z 08008KT 15SM OVC010 M01/ RMK SC8

CYWG;2011-11-25 18:00;CYWG 251800Z 08007KT 15SM OVC010 M00/M02 A2981 RMK SC8 SLP107

CYWG;2011-11-25 19:00;CYWG 251900Z 06006KT 15SM OVC010 M00/M02 A2981 RMK SC8 SLP108

CYWG;2011-11-25 20:00;CYWG 252000Z 07008KT 15SM OVC010 M00/M02 A2979 RMK SC8 SLP100

CYWG;2011-11-25 21:00;CYWG 252100Z 08009KT 15SM OVC012 00/M02 A2977 RMK SC8 SLP095

CYWG;2011-11-25 22:00;CYWG 252200Z 07007KT 15SM OVC012 00/M02 A2979 RMK SC8 SLP100

CYWG;2011-11-25 22:45;CYWG 252245Z 07007KT 15SM BKN016 BKN084 OVC092 01/ RMK SC5AC2AS2

CYWG;2011-11-25 23:00;CYWG 252300Z 07006KT 15SM SCT016 BKN084 OVC092 01/M02 A2980 RMK SC3AC2AS2 SLP104

CYWG;2011-11-26 00:00;CYWG 260000Z 05006KT 15SM OVC075 M00/M02 A2981 RMK AC8 SLP108

CYWG;2011-11-26 01:00;CYWG 260100Z 01005KT 15SM OVC057 M00/M01 A2984 RMK SC8 SLP117

CYWG;2011-11-26 01:50;CYWG 260150Z 03008KT 15SM -SN OVC040 M00/ RMK SC8

CYWG;2011-11-26 02:00;CYWG 260200Z 02006KT 15SM -SN OVC036 M00/M02 A2986 RMK SC8 SLP122

CYWG;2011-11-26 02:49;CYWG 260249Z 03007KT 2 1/2SM -SN OVC020 M00/ RMK SC8

CYWG;2011-11-26 03:00;CYWG 260300Z 04007KT 2SM -SN OVC020 M01/M01 A2987 RMK SC8 SLP129

CYWG;2011-11-26 03:49;CYWG 260349Z 06007KT 1 3/4SM -SN VV012 M01/ RMK SN8

CYWG;2011-11-26 04:00;CYWG 260400Z 05006KT 1 3/4SM -SN VV012 M01/M01 A2988 RMK SN8 /S01/ SLP130

CYWG;2011-11-26 04:35;CYWG 260435Z 07005KT 1 3/4SM -SN VV006 M01/ RMK SN8

CYWG;2011-11-26 05:00;CYWG 260500Z 06004KT 1 3/4SM -SN VV005 M01/M01 A2989 RMK SN8 SLP133

CYWG;2011-11-26 05:29;CYWG 260529Z 08003KT 1 1/4SM -SN VV005 M01/ RMK SN8

CYWG;2011-11-26 06:00;CYWG 260600Z CCA 07004KT 1 1/2SM -SN VV006 M01/M01 A2990 RMK SN8 /S02/ SLP136

CYWG;2011-11-26 06:33;CYWG 260633Z 08003KT 1 1/2SM -SN VV004 M01/ RMK SN8

CYWG;2011-11-26 07:00;CYWG 260700Z 08003KT 1 1/2SM -SN VV006 M01/M01 A2991 RMK SN8 SLP140

CYWG;2011-11-26 08:00;CYWG 260800Z 08003KT 1 1/2SM -SN VV006 M01/M01 A2991 RMK SN8 SLP142

CYWG;2011-11-26 08:31;CYWG 260831Z 07002KT 1 1/2SM -SN VV003 M01/ RMK SN8

CYWG;2011-11-26 08:51;CYWG 260851Z 00000KT 1 1/2SM -SN VV004 M01/ RMK SN8

CYWG;2011-11-26 09:00;CYWG 260900Z 00000KT 1 1/2SM -SN VV004 M01/M01 A2993 RMK SN8 /S03/ SLP148

CYWG;2011-11-26 09:11;CYWG 260911Z 35002KT 1 1/2SM -SN VV009 M01/ RMK SN8

CYWG;2011-11-26 09:27;CYWG 260927Z 02003KT 2 1/2SM -SN VV012 M01/ RMK SN8

CYWG;2011-11-26 09:38;CYWG 260938Z 36002KT 2 1/2SM -SN BR VV005 M01/ RMK SN8

CYWG;2011-11-26 09:51;CYWG 260951Z 36002KT 2 1/2SM -SN BR VV011 M01/ RMK SN8

CYWG;2011-11-26 10:00;CYWG 261000Z 02003KT 2 1/2SM -SN BR VV011 M01/M01 A2993 RMK SN8 SLP148

CYWG;2011-11-26 10:15;CYWG 261015Z 05002KT 3SM -SN BR FEW005 OVC024 M01/ RMK SF2SC6

CYWG;2011-11-26 10:50;CYWG 261050Z 34003KT 1 1/2SM -SN BR VV012 M01/ RMK SN8

CYWG;2011-11-26 11:00;CYWG 261100Z 35003KT 1 1/2SM -SN BR VV012 M01/M01 A2995 RMK SN8 /S04/ SLP155

CYWG;2011-11-26 12:00;CYWG 261200Z 32004KT 1 1/4SM -SN BR VV014 M01/M01 A2997 RMK SN8 SLP161

CYWG;2011-11-26 12:16;CYWG 261216Z 32005KT 2SM -SN OVC019 M01/ RMK SN5SC3

CYWG;2011-11-26 13:00;CYWG 261300Z 34005KT 2SM -SN SCT007 OVC032 M02/M02 A2998 RMK SF4SC4 SLP165

CYWG;2011-11-26 13:16;CYWG 261316Z 36004KT 6SM -SN SCT007 OVC032 M02/ RMK SF4SC4

CYWG;2011-11-26 13:39;CYWG 261339Z 33005KT 10SM BKN013 OVC032 M02/ RMK SC5SC3 BR

CYWG;2011-11-26 14:00;CYWG 261400Z 33003KT 12SM SCT006 OVC009 M02/M02 A3000 RMK SF4SC4 BR SLP171

CYWG;2011-11-26 14:17;CYWG 261417Z 32003KT 12SM BKN008 OVC043 M02/ RMK SF6SC2 BR

CYWG;2011-11-26 14:24;CYWG 261424Z 33004KT 6SM -SN BR BKN008 OVC034 M02/ RMK SF6SC2

CYWG;2011-11-26 15:00;CYWG 261500Z 31004KT 1SM R13/P6000FT/D R36/P6000FT/D -SN BR VV010 M02/M02 A3002 RMK SN8 SLP178

CYWG;2011-11-26 15:24;CYWG 261524Z 31005KT 1SM R13/P6000FT/N R36/P6000FT/N -SN BR VV008 M01/ RMK SN8

CYWG;2011-11-26 15:35;CYWG 261535Z 31006KT 3SM -SN BR BKN003 OVC018 M01/ RMK SF6SC2

CYWG;2011-11-26 15:49;CYWG 261549Z 32007KT 1 1/2SM -SN BR VV003 M01/ RMK SN8

CYWG;2011-11-26 16:00;CYWG 261600Z 32008KT 1 1/2SM -SN BR VV003 M01/M01 A3003 RMK SN8 /S02/ SLP183

CYWG;2011-11-26 16:26;CYWG 261626Z 31009KT 2SM -FZDZ BR OVC003 M01/ RMK SF8

CYWG;2011-11-26 17:00;CYWG 261700Z CCA 32011KT 2 1/2SM -FZDZ BR OVC004 M00/M00 A3006 RMK SF8 SLP191

CYWG;2011-11-26 17:31;CYWG 261731Z 33013KT 2SM -DZ BR OVC006 00/ RMK SF8 REFZDZ

CYWG;2011-11-26 18:00;CYWG 261800Z 33013KT 2SM -DZ BR OVC006 00/00 A3006 REFZDZ RMK SF8 SLP194

CYWG;2011-11-26 18:34;CYWG 261834Z 33013KT 5SM BR SCT006 OVC009 01/ RMK SF3SC5

CYWG;2011-11-26 19:00;CYWG 261900Z 33014KT 10SM FEW006 OVC010 01/M00 A3007 RMK SF2SC6 BR SLP196

CYWG;2011-11-26 20:00;CYWG 262000Z 33017KT 10SM SCT014 OVC036 01/M01 A3010 RMK SF3SC5 SLP206

CYWG;2011-11-26 21:00;CYWG 262100Z 33018G24KT 10SM FEW015 OVC038 01/M02 A3012 RMK SF1SC7 SLP213

CYWG;2011-11-26 22:00;CYWG 262200Z 32019G25KT 10SM BKN025 OVC038 00/M02 A3016 RMK SC6SC2 SLP227

CYWG;2011-11-26 23:00;CYWG 262300Z 33018KT 10SM SCT023 OVC034 00/M02 A3019 RMK SC3SC5 SLP236

CYWG;2011-11-27 00:00;CYWG 270000Z 33014G19KT 15SM BKN027 OVC033 M00/M02 A3022 RMK SC5SC3 SLP248

CYWG;2011-11-27 01:00;CYWG 270100Z 33014KT 15SM OVC024 M00/M02 A3024 RMK SC8 SLP254

CYWG;2011-11-27 02:00;CYWG 270200Z 32016KT 15SM OVC022 M01/M03 A3025 RMK SC8 SLP258

CYWG;2011-11-27 03:00;CYWG 270300Z 33012KT 15SM OVC020 M01/M02 A3025 RMK SC8 SLP259

CYWG;2011-11-27 03:48;CYWG 270348Z 32014KT 15SM BKN013 OVC020 M01/ RMK SF7SC1

CYWG;2011-11-27 04:00;CYWG 270400Z 33013G19KT 15SM BKN013 OVC020 M01/M03 A3027 RMK SF6SC2 SLP263

CYWG;2011-11-27 05:00;CYWG 270500Z 32016KT 15SM SCT012 OVC022 M02/M03 A3027 RMK SF3SC5 SLP265

CYWG;2011-11-27 06:00;CYWG 270600Z 32015KT 15SM FEW015 OVC026 M02/M04 A3028 RMK SF2SC6 SLP268

CYWG;2011-11-27 07:00;CYWG 270700Z 32013KT 15SM FEW015 OVC030 M03/M05 A3029 RMK SF1SC7 SLP269

CYWG;2011-11-27 08:00;CYWG 270800Z 31012KT 15SM FEW015 BKN030 M04/M06 A3029 RMK SF1SC6 SLP270

CYWG;2011-11-27 09:00;CYWG 270900Z 31009KT 15SM FEW031 SCT070 M08/M09 A3029 RMK SC2AC1 SLP273

CYWG;2011-11-27 10:00;CYWG 271000Z 29009KT 15SM FEW100 M12/M12 A3029 RMK AC1 SLP272

CYWG;2011-11-27 11:00;CYWG 271100Z 00000KT 15SM FEW084 M12/M13 A3031 RMK AC1 SLP278

CYWG;2011-11-27 12:00;CYWG 271200Z 28003KT 15SM SKC M13/M14 A3029 RMK SLP273

CYWG;2011-11-27 12:52;CYWG 271252Z 28006KT 2SM BR OVC002 M13/ RMK ST8

CYWG;2011-11-27 13:00;CYWG 271300Z 27005KT 2SM BR OVC001 M14/M14 A3029 RMK ST8 SLP274

CYWG;2011-11-27 13:24;CYWG 271324Z 28004KT 3SM BR SCT001 M15/ RMK ST4

CYWG;2011-11-27 13:46;CYWG 271346Z 27005KT 1SM R31/P6000FT/N R36/P6000FT/D BR BKN001 M15/ RMK FG2ST3

CYWG;2011-11-27 14:00;CYWG 271400Z 28007KT 3/4SM R31/P6000FT/D R36/P6000FT/D BR BKN001 M13/M14 A3030 RMK FG3ST3 SLP278

CYWG;2011-11-27 15:00;CYWG 271500Z 00000KT 1/2SM R31/3000VP6000FT/U R36/P6000FT/N FZFG BKN001 M14/M15 A3028 RMK FG3ST3 SLP271

CYWG;2011-11-27 15:24;CYWG 271524Z 00000KT 3/4SM R31/4000VP6000FT/D R36/2800V4500FT/U BR BKN003 M13/ RMK FG3ST2

CYWG;2011-11-27 16:00;CYWG 271600Z 00000KT 3/4SM R31/P6000FT/N R36/P6000FT/D BR BKN001 M10/M11 A3026 RMK FG3ST3 SLP267

CYWG;2011-11-27 16:32;CYWG 271632Z 16005KT 1/4SM R31/1600FT/N R36/2000FT/N FZFG BKN001 M08/ RMK FG4ST2

CYWG;2011-11-27 17:00;CYWG 271700Z 18006KT 1/4SM R31/2200FT/N R36/2000FT/N FZFG OVC001 M07/M07 A3024 RMK FG4ST4 SLP258

CYWG;2011-11-27 18:00;CYWG 271800Z 18006KT 1/4SM R31/2400FT/N R36/2800FT/N FZFG OVC001 M07/M07 A3020 RMK FG4ST4 SLP243

CYWG;2011-11-27 18:07;CYWG 271807Z 20006KT 1/2SM R31/2800FT/N R36/2400FT/N FZFG OVC001 M07/ RMK FG4ST4

CYWG;2011-11-27 18:28;CYWG 271828Z 18006KT 3/4SM R31/3500VP6000FT/D R36/3000V5000FT/D BR BKN002 M07/ RMK FG4ST2

CYWG;2011-11-27 18:53;CYWG 271853Z 17006KT 1SM R31/P6000FT/N R36/P6000FT/N BR BKN002 M07/ RMK FG2ST4

CYWG;2011-11-27 19:00;CYWG 271900Z 18005KT 1SM R31/P6000FT/N R36/P6000FT/N BR BKN002 M07/M07 A3017 RMK FG2ST4 SLP232

CYWG;2011-11-27 19:11;CYWG 271911Z 17007KT 3SM BR BKN003 M07/ RMK ST6

CYWG;2011-11-27 19:40;CYWG 271940Z 18009KT 7SM BKN003 BKN260 M07/ RMK ST4CI1 BR

CYWG;2011-11-27 20:00;CYWG 272000Z 18010KT 8SM BKN003 M07/M07 A3014 RMK ST4 VIS S 4 BR SLP222

CYWG;2011-11-27 20:35;CYWG 272035Z 17008KT 10SM SCT003 BKN260 M07/ RMK SF3CI0 VIS S 5 BR

CYWG;2011-11-27 21:00;CYWG 272100Z 18011KT 12SM SCT003 SCT260 M07/M07 A3013 RMK SF2CI1 BR SLP220

CYWG;2011-11-27 22:00;CYWG 272200Z 16012KT 15SM FEW086 BKN260 M07/M07 A3008 RMK AC1CI1 SLP205

CYWG;2011-11-27 23:00;CYWG 272300Z 17017KT 15SM FEW086 FEW260 M06/M06 A3003 RMK AC1CI0 PRESFR SLP188

CYWG;2011-11-28 00:00;CYWG 280000Z 17016KT 15SM FEW086 FEW260 M05/M06 A3000 RMK AC1CI0 SLP177

CYWG;2011-11-28 01:00;CYWG 280100Z 17020KT 15SM SCT140 BKN280 M03/M05 A2995 RMK AC3CI0 SLP161

CYWG;2011-11-28 02:00;CYWG 280200Z 18020G27KT 15SM FEW140 BKN280 M03/M06 A2990 RMK AC2CI2 SLP146

CYWG;2011-11-28 03:00;CYWG 280300Z 18023G30KT 15SM BKN086 M02/M06 A2986 RMK AC3 SLP128

CYWG;2011-11-28 04:00;CYWG 280400Z 18022G31KT 15SM BKN100 OVC230 M02/M06 A2981 RMK AC5CI3 SLP113

CYWG;2011-11-28 05:00;CYWG 280500Z 18026G33KT 15SM BKN120 OVC230 M02/M06 A2976 RMK AC5CI3 SLP096

CYWG;2011-11-28 06:00;CYWG 280600Z 18022G30KT 15SM BKN120 OVC230 M02/M06 A2974 RMK AC6CI2 SLP084

CYWG;2011-11-28 07:00;CYWG 280700Z 18020G28KT 15SM BKN100 OVC230 M02/M06 A2970 RMK AC5CI3 SLP071

CYWG;2011-11-28 08:00;CYWG 280800Z 18023G30KT 15SM FEW090 OVC200 M02/M06 A2966 RMK AC2CI5 SLP058

CYWG;2011-11-28 09:00;CYWG 280900Z 18022G27KT 15SM FEW090 OVC200 M02/M06 A2966 RMK AC2CI5 SLP057

CYWG;2011-11-28 10:00;CYWG 281000Z 19018G26KT 15SM SCT087 OVC200 M02/M06 A2963 RMK AC3CI5 SLP048

CYWG;2011-11-28 11:00;CYWG 281100Z 19018KT 15SM FEW087 BKN200 M02/M06 A2963 RMK AC2CI4 SLP047

CYWG;2011-11-28 12:00;CYWG 281200Z 19017KT 15SM BKN110 BKN200 M02/M05 A2961 RMK AC5CI2 SLP041

CYWG;2011-11-28 13:00;CYWG 281300Z 18010KT 15SM OVC110 M01/M04 A2966 RMK AC8 SLP056

CYWG;2011-11-28 14:00;CYWG 281400Z 26010KT 15SM BKN090 03/M02 A2971 RMK AC7 SLP074

CYWG;2011-11-28 15:00;CYWG 281500Z 29010KT 15SM BKN090 BKN097 03/00 A2978 RMK AC6AC1 SLP096

CYWG;2011-11-28 16:00;CYWG 281600Z 32018KT 15SM FEW099 04/01 A2986 RMK AC2 PRESRR SLP124

CYWG;2011-11-28 17:00;CYWG 281700Z 32010G16KT 15SM FEW090 03/01 A2992 RMK AC1 PRESRR SLP142

CYWG;2011-11-28 18:00;CYWG 281800Z 31018KT 15SM FEW090 04/M01 A2996 RMK AC1 PRESRR SLP158

CYWG;2011-11-28 19:00;CYWG 281900Z 33016KT 15SM FEW090 04/M02 A3001 RMK AC1 SLP175

CYWG;2011-11-28 20:00;CYWG 282000Z 32011KT 15SM FEW020 FEW090 03/M03 A3006 RMK CF1AC1 SLP191

CYWG;2011-11-28 21:00;CYWG 282100Z 30012KT 15SM SKC 03/M03 A3010 RMK SLP205

CYWG;2011-11-28 22:00;CYWG 282200Z 30011G16KT 15SM SKC 01/M06 A3014 RMK SLP219

CYWG;2011-11-28 23:00;CYWG 282300Z 28009KT 15SM SKC M03/M07 A3017 RMK SLP229

CYWG;2011-11-29 00:00;CYWG 290000Z 30007KT 15SM SKC M05/M08 A3021 RMK SLP244

CYWG;2011-11-29 01:00;CYWG 290100Z 30008KT 15SM SKC M04/M08 A3024 RMK SLP255

CYWG;2011-11-29 02:00;CYWG 290200Z 29010KT 15SM SKC M06/M08 A3026 RMK SLP263

CYWG;2011-11-29 03:00;CYWG 290300Z 27008KT 15SM SKC M06/M08 A3029 RMK SLP272

CYWG;2011-11-29 04:00;CYWG 290400Z 28009KT 15SM SKC M09/M10 A3031 RMK SLP278

CYWG;2011-11-29 05:00;CYWG 290500Z 29008KT 15SM SKC M09/M11 A3033 RMK SLP284

CYWG;2011-11-29 06:00;CYWG 290600Z 25006KT 15SM SKC M09/M10 A3033 RMK SLP285

CYWG;2011-11-29 07:00;CYWG 290700Z 26006KT 15SM SKC M09/M11 A3033 RMK SLP286

CYWG;2011-11-29 08:00;CYWG 290800Z 26006KT 15SM SKC M09/M11 A3034 RMK SLP288

CYWG;2011-11-29 09:00;CYWG 290900Z 26007KT 15SM SKC M08/M10 A3034 RMK SLP289

CYWG;2011-11-29 10:00;CYWG 291000Z 25007KT 15SM SKC M08/M11 A3033 RMK SLP285

CYWG;2011-11-29 11:00;CYWG 291100Z 21004KT 15SM SKC M11/M12 A3030 RMK SLP276

CYWG;2011-11-29 12:00;CYWG 291200Z 21004KT 15SM SKC M10/M12 A3029 RMK SLP274

CYWG;2011-11-29 13:00;CYWG 291300Z 22006KT 15SM SKC M11/M12 A3029 RMK SLP276

CYWG;2011-11-29 14:00;CYWG 291400Z 18007KT 15SM SKC M11/M13 A3025 RMK SLP264

CYWG;2011-11-29 15:00;CYWG 291500Z 18010KT 15SM FEW240 M08/M11 A3022 RMK CI1 SLP252

CYWG;2011-11-29 16:00;CYWG 291600Z 19012KT 15SM SCT240 M06/M10 A3021 RMK CI1 SLP247

CYWG;2011-11-29 17:00;CYWG 291700Z 19015KT 15SM SCT240 M04/M09 A3019 RMK CI1 SLP240

CYWG;2011-11-29 18:00;CYWG 291800Z 19019KT 15SM FEW140 SCT240 M02/M08 A3014 RMK AC1CI1 SLP222

CYWG;2011-11-29 19:00;CYWG 291900Z CCA 19021G26KT 15SM FEW140 FEW240 M01/M06 A3008 RMK AC1CI0 PRESFR SLP202

CYWG;2011-11-29 20:00;CYWG 292000Z 18015G22KT 15SM FEW140 FEW240 M00/M05 A3004 RMK AC1CI1 SLP189

CYWG;2011-11-29 21:00;CYWG 292100Z 19021G27KT 15SM FEW140 BKN240 00/M04 A2998 RMK AC1CI1 SLP168

CYWG;2011-11-29 22:00;CYWG 292200Z 19017KT 15SM BKN078 BKN240 01/M04 A2998 RMK AC5CI1 SLP167

CYWG;2011-11-29 23:00;CYWG 292300Z 20014G19KT 15SM BKN078 BKN240 01/M04 A2997 RMK AC5CI2 SLP164

CYWG;2011-11-30 00:00;CYWG 300000Z 20016KT 15SM SCT080 BKN240 02/M04 A2995 RMK AC3CI2 SLP157

CYWG;2011-11-30 01:00;CYWG 300100Z 19011KT 15SM SCT080 BKN240 00/M04 A2993 RMK AC3CI3 SLP151

CYWG;2011-11-30 02:00;CYWG 300200Z 20010KT 15SM SKC M00/M04 A2992 RMK SLP146

CYWG;2011-11-30 03:00;CYWG 300300Z 22007KT 15SM SKC M01/M05 A2990 RMK SLP141

CYWG;2011-11-30 04:00;CYWG 300400Z 22008KT 15SM SKC M02/M05 A2989 RMK SLP137

CYWG;2011-11-30 05:00;CYWG 300500Z 28005KT 15SM SKC M04/M05 A2989 RMK OBS TAKEN +15 SLP136

CYWG;2011-11-30 06:00;CYWG 300600Z 31005KT 15SM SKC M05/M06 A2989 RMK SLP136

CYWG;2011-11-30 07:00;CYWG 300700Z 30005KT 15SM FEW140 BKN210 M07/M07 A2989 RMK AC2CI4 SLP137

CYWG;2011-11-30 08:00;CYWG 300800Z 30006KT 15SM FEW140 BKN210 M07/M08 A2990 RMK AC2CI5 SLP141

CYWG;2011-11-30 09:00;CYWG 300900Z 30004KT 15SM FEW140 OVC210 M06/M07 A2992 RMK AC2CI6 SLP146

CYWG;2011-11-30 10:00;CYWG 301000Z 32006KT 15SM FEW140 OVC210 M06/M07 A2993 RMK AC2CI6 SLP150

CYWG;2011-11-30 11:00;CYWG 301100Z 36008KT 15SM FEW140 OVC210 M03/M05 A2994 RMK AC2CI6 SLP153

CYWG;2011-11-30 12:00;CYWG 301200Z 01009KT 15SM SCT096 OVC140 M03/M05 A2995 RMK AC3AC5 SLP155

CYWG;2011-11-30 13:00;CYWG 301300Z 01010KT 15SM OVC120 M03/M05 A2996 RMK AC8 SLP160

CYWG;2011-11-30 14:00;CYWG 301400Z 01009KT 15SM OVC120 M03/M05 A2998 RMK AC8 SLP166

CYWG;2011-11-30 15:00;CYWG 301500Z 02008KT 15SM SCT091 OVC120 M04/M05 A3000 RMK AC2AC5 SLP173

CYWG;2011-11-30 16:00;CYWG 301600Z 03007KT 15SM FEW091 OVC120 M04/M05 A3002 RMK AC1AC6 SLP180

CYWG;2011-11-30 17:00;CYWG 301700Z 02009KT 15SM SCT015 OVC120 M03/M04 A3005 RMK SC3AC4 SLP188

CYWG;2011-11-30 17:35;CYWG 301735Z 02009KT 15SM FEW007 BKN020 OVC120 M02/ RMK SF2SC3AC2

CYWG;2011-11-30 18:00;CYWG 301800Z 02011G16KT 15SM SCT008 OVC020 M02/M03 A3005 RMK SF4SC4 SLP192

CYWG;2011-11-30 19:00;CYWG 301900Z 02014KT 15SM SCT010 OVC027 M02/M04 A3006 RMK SF4SC2 SLP195

CYWG;2011-11-30 20:00;CYWG 302000Z 02015G20KT 15SM FEW010 SCT140 BKN280 M02/M05 A3008 RMK SC1AC2CI2 SLP202

CYWG;2011-11-30 21:00;CYWG 302100Z 03011KT 15SM FEW010 BKN140 OVC280 M03/M07 A3011 RMK SC1AC6CI1 SC TR SLP213

CYWG;2011-11-30 22:00;CYWG 302200Z 03009KT 15SM FEW020 BKN140 OVC280 M03/M07 A3015 RMK SC1AC6CI0 SLP225

CYWG;2011-11-30 23:00;CYWG 302300Z 02008KT 15SM SCT024 BKN140 OVC280 M04/M07 A3019 RMK SC1AC5CI1 SLP238

CYWG;2011-12-01 01:00;CYWG 010100Z 02010KT 15SM SCT022 BKN095 M06/M08 A3026 RMK SC3AC2 SLP263

CYWG;2011-12-01 02:00;CYWG 010200Z 36013KT 15SM FEW022 SCT120 M07/M15 A3031 RMK SC1AC2 SLP278

CYWG;2011-12-01 03:00;CYWG 010300Z 36011KT 15SM FEW020 SCT120 BKN260 M08/M14 A3035 RMK SC1AC1CI2 SLP293

CYWG;2011-12-01 04:00;CYWG 010400Z 35009G16KT 15SM FEW020 SCT120 BKN260 M09/M13 A3037 RMK SC1AC1CI2 SLP301

CYWG;2011-12-01 05:00;CYWG 010500Z 33008KT 15SM FEW120 BKN260 M10/M13 A3039 RMK AC2CI2 SLP309

CYWG;2011-12-01 06:00;CYWG 010600Z 32010KT 15SM BKN120 M10/M14 A3042 RMK AC5 SLP320

CYWG;2011-12-01 07:00;CYWG 010700Z 32011KT 15SM FEW020 SCT120 M11/M14 A3044 RMK SC2AC2 SLP326

CYWG;2011-12-01 08:00;CYWG 010800Z 34013KT 15SM SCT120 M12/M15 A3045 RMK AC3 SLP330

CYWG;2011-12-01 09:00;CYWG 010900Z 33011KT 15SM FEW120 M13/M15 A3049 RMK AC2 SLP343

CYWG;2011-12-01 10:00;CYWG 011000Z 31007KT 15SM SKC M15/M16 A3050 RMK SLP348

CYWG;2011-12-01 11:00;CYWG 011100Z 31009KT 15SM SKC M15/M17 A3051 RMK SLP350

CYWG;2011-12-01 12:00;CYWG 011200Z 28005KT 15SM SKC M17/M18 A3053 RMK SLP358

CYWG;2011-12-01 13:00;CYWG 011300Z 27004KT 15SM SKC M17/M18 A3053 RMK SLP358

CYWG;2011-12-01 14:00;CYWG 011400Z 23005KT 15SM SKC M17/M18 A3053 RMK SLP358

CYWG;2011-12-01 15:00;CYWG 011500Z 26005KT 15SM FEW100 M15/M17 A3052 RMK AC1 SLP358

CYWG;2011-12-01 16:00;CYWG 011600Z 24005KT 15SM FEW100 M12/M15 A3052 RMK AC2 SLP357

CYWG;2011-12-01 17:00;CYWG 011700Z 23011KT 15SM BKN034 M10/M15 A3051 RMK SC6 SLP353

CYWG;2011-12-01 18:00;CYWG 011800Z 22009KT 15SM BKN036 M08/M13 A3047 RMK SC7 SLP338

CYWG;2011-12-01 18:13;CYWG 011813Z 21010KT 15SM -SN BKN027 BKN036 M08/ RMK SC5SC2

CYWG;2011-12-01 18:48;CYWG 011848Z 22011KT 15SM BKN036 M08/ RMK SC6

CYWG;2011-12-01 19:00;CYWG 011900Z 22011KT 15SM OVC034 M07/M12 A3044 RMK SC8 SLP328

CYWG;2011-12-01 19:35;CYWG 011935Z 21011KT 15SM -SN OVC034 M07/ RMK SC8

CYWG;2011-12-01 20:00;CYWG 012000Z 21011KT 12SM -SN OVC034 M07/M10 A3041 RMK SC8 SLP317

CYWG;2011-12-01 21:00;CYWG 012100Z 20009KT 10SM -SN OVC034 M06/M09 A3037 RMK SC8 SLP303

CYWG;2011-12-01 22:00;CYWG 012200Z 19010KT 10SM -SN OVC032 M05/M09 A3034 RMK SC8 SLP293

CYWG;2011-12-01 23:00;CYWG 012300Z 18011KT 15SM OVC034 M05/M08 A3029 RMK SC8 SLP277

CYWG;2011-12-02 00:00;CYWG 020000Z 20012KT 15SM OVC034 M04/M08 A3025 RMK SC8 SLP263

CYWG;2011-12-02 01:00;CYWG 020100Z 19016KT 15SM BKN032 M04/M08 A3019 RMK SC7 SLP245

CYWG;2011-12-02 02:00;CYWG 020200Z 18014KT 15SM SCT032 M05/M09 A3015 RMK SC3 SLP231

CYWG;2011-12-02 03:00;CYWG 020300Z 18015G21KT 15SM FEW100 M06/M08 A3011 RMK AC1 PRESFR SLP216

CYWG;2011-12-02 04:00;CYWG 020400Z 19013KT 15SM FEW100 M06/M08 A3007 RMK AC1 SLP204

CYWG;2011-12-02 05:00;CYWG 020500Z 19016KT 15SM BKN120 M06/M08 A3002 RMK AC6 SLP186

CYWG;2011-12-02 06:00;CYWG 020600Z 19016KT 15SM OVC120 M05/M07 A2997 RMK AC8 SLP167

CYWG;2011-12-02 07:00;CYWG 020700Z 19018G24KT 15SM OVC100 M04/M07 A2993 RMK AC8 SLP151

CYWG;2011-12-02 08:00;CYWG 020800Z 19019G25KT 15SM OVC084 M04/M06 A2989 RMK AC8 SLP139

CYWG;2011-12-02 09:00;CYWG 020900Z 19018G24KT 15SM OVC074 M04/M07 A2986 RMK AC8 SLP126

CYWG;2011-12-02 10:00;CYWG 021000Z 19017G22KT 15SM OVC079 M04/M06 A2981 RMK AC8 SLP112

CYWG;2011-12-02 11:00;CYWG 021100Z 19019G25KT 15SM OVC074 M03/M06 A2979 RMK AC8 SLP103

CYWG;2011-12-02 12:00;CYWG 021200Z 19020G26KT 15SM OVC064 M02/M06 A2975 RMK SC8 SLP089

CYWG;2011-12-02 13:00;CYWG 021300Z 19021G26KT 15SM OVC078 M02/M06 A2973 RMK AC8 SLP082

CYWG;2011-12-02 14:00;CYWG 021400Z 19016G24KT 15SM OVC078 M02/M06 A2971 RMK AC8 SLP075

CYWG;2011-12-02 15:00;CYWG 021500Z 19022G28KT 15SM OVC071 M02/M06 A2967 RMK AC8 SLP063

CYWG;2011-12-02 16:00;CYWG 021600Z 19021G27KT 15SM OVC078 M02/M06 A2964 RMK AC8 SLP052

CYWG;2011-12-02 17:00;CYWG 021700Z 19022G27KT 15SM OVC095 M03/M06 A2965 RMK AC8 SLP055

CYWG;2011-12-02 18:00;CYWG 021800Z 19020G25KT 15SM BKN095 OVC230 M02/M06 A2961 RMK AC7CI1 SLP040

CYWG;2011-12-02 19:00;CYWG 021900Z 19023G29KT 15SM BKN096 OVC230 M01/M05 A2957 RMK AC6CI1 SLP028

CYWG;2011-12-02 20:00;CYWG 022000Z 19023G28KT 15SM BKN096 BKN230 00/M05 A2957 RMK AC5CI2 SLP027

CYWG;2011-12-02 21:00;CYWG 022100Z 19015KT 15SM SCT100 BKN230 M00/M05 A2958 RMK AC4CI2 SLP029

CYWG;2011-12-02 22:00;CYWG 022200Z 20018KT 15SM BKN094 BKN230 01/M05 A2957 RMK AC6CI1 SLP028

CYWG;2011-12-02 23:00;CYWG 022300Z 19012KT 15SM FEW036 BKN085 BKN230 01/M04 A2960 RMK SC2AC5CI1 SLP036

CYWG;2011-12-03 00:00;CYWG 030000Z 19014KT 15SM SCT031 BKN058 OVC074 01/M04 A2961 RMK SC3SC4AC1 SLP039

CYWG;2011-12-03 01:00;CYWG 030100Z 20011KT 15SM FEW031 OVC064 01/M03 A2963 RMK SC2SC6 SLP044

CYWG;2011-12-03 02:00;CYWG 030200Z 23010KT 15SM FEW074 SCT100 01/M03 A2964 RMK AC2AC0 SLP050

CYWG;2011-12-03 03:00;CYWG 030300Z 23009KT 15SM FEW080 BKN150 M00/M03 A2966 RMK AC1AC0 SLP055

CYWG;2011-12-03 04:00;CYWG 030400Z 26010KT 15SM FEW150 M00/M03 A2966 RMK AC1 SLP055

CYWG;2011-12-03 05:00;CYWG 030500Z 26011G16KT 15SM FEW150 FEW210 M01/M03 A2967 RMK AC0CI0 SLP060

CYWG;2011-12-03 06:00;CYWG 030600Z 25010KT 15SM FEW150 SCT210 M01/M03 A2969 RMK AC2CI0 SLP068

CYWG;2011-12-03 07:00;CYWG 030700Z 25012KT 15SM BKN084 M01/M04 A2970 RMK AC3 SLP071

CYWG;2011-12-03 08:00;CYWG 030800Z 25011KT 15SM BKN065 M01/M03 A2972 RMK SC6 SLP077

CYWG;2011-12-03 08:54;CYWG 030854Z 26010G15KT 15SM -SHSN BKN035 OVC054 M00/ RMK SC6SC2

CYWG;2011-12-03 09:00;CYWG 030900Z 26010KT 15SM -SHSN BKN035 OVC054 M00/M03 A2974 RMK SC6SC2 SLP083

CYWG;2011-12-03 09:50;CYWG 030950Z 28011KT 15SM -SHSN BKN014 OVC090 M00/ RMK SF7AC1

CYWG;2011-12-03 10:00;CYWG 031000Z 30016KT 9SM -SHSN BKN009 OVC014 M00/M01 A2978 RMK SF6SF2 SLP095

CYWG;2011-12-03 10:25;CYWG 031025Z 32017KT 15SM SCT016 OVC038 M02/ RMK SF3SC5

CYWG;2011-12-03 11:00;CYWG 031100Z 32017G22KT 15SM OVC025 M03/M06 A2983 RMK SC8 SLP112

CYWG;2011-12-03 12:00;CYWG 031200Z 32012KT 15SM OVC027 M04/M07 A2987 RMK SC8 SLP127

CYWG;2011-12-03 13:00;CYWG 031300Z 32017KT 15SM OVC031 M06/M09 A2993 RMK SC8 SLP146

CYWG;2011-12-03 14:00;CYWG 031400Z 34014KT 15SM -SHSN FEW020 OVC037 M07/M09 A2996 RMK SF1SC7 SLP157

CYWG;2011-12-03 14:29;CYWG 031429Z 32013KT 15SM FEW018 BKN041 M08/ RMK SF1SC6

CYWG;2011-12-03 15:00;CYWG 031500Z 34014KT 15SM FEW022 BKN047 M07/M11 A2999 RMK SF1SC6 SLP170

CYWG;2011-12-03 15:47;CYWG 031547Z 35011G17KT 10SM -SHSN OVC020 RMK SC8

CYWG;2011-12-03 16:00;CYWG 031600Z 33010G15KT 10SM -SHSN OVC020 M07/M10 A3003 RMK SC8 SLP182

CYWG;2011-12-03 17:00;CYWG 031700Z 32019KT 5SM -SHSN OVC016 M07/M11 A3006 RMK SC8 SLP194

CYWG;2011-12-03 18:00;CYWG 031800Z 33010G16KT 10SM -SHSN OVC023 M07/M11 A3007 RMK SC8 SLP199

CYWG;2011-12-03 19:00;CYWG 031900Z 35009KT 15SM -SHSN OVC023 M07/M11 A3008 RMK SC8 SLP200

CYWG;2011-12-03 20:00;CYWG 032000Z 34011KT 15SM -SHSN BKN021 BKN034 M07/M11 A3007 RMK SC5SC2 SLP199

CYWG;2011-12-03 21:00;CYWG 032100Z 35005KT 15SM -SHSN BKN024 M07/M11 A3009 RMK SC7 SLP203

CYWG;2011-12-03 22:00;CYWG 032200Z 36004KT 15SM -SHSN BKN022 M07/M11 A3009 RMK SC7 SLP204

CYWG;2011-12-03 23:00;CYWG 032300Z 29003KT 15SM FEW023 FEW093 M11/M13 A3009 RMK SC1AC1 SLP206

CYWG;2011-12-04 00:00;CYWG 040000Z 32004KT 15SM FEW093 M12/M13 A3010 RMK AC1 SLP212

CYWG;2011-12-04 01:00;CYWG 040100Z 10003KT 15SM FEW090 M14/M16 A3009 RMK AC2 SLP207

CYWG;2011-12-04 02:00;CYWG 040200Z 10003KT 15SM BKN024 M11/M13 A3009 RMK SC7 SLP207

CYWG;2011-12-04 03:00;CYWG 040300Z 12003KT 15SM OVC024 M10/M11 A3009 RMK SC8 SLP208

CYWG;2011-12-04 04:00;CYWG 040400Z 11003KT 15SM OVC022 M08/M11 A3009 RMK SC8 SLP207

CYWG;2011-12-04 05:00;CYWG 040500Z 17007KT 15SM OVC022 M08/M11 A3009 RMK SC8 SLP209

CYWG;2011-12-04 05:05;CYWG 040505Z 15006KT 15SM -SHSN OVC022 M08/ RMK SC8

CYWG;2011-12-04 05:32;CYWG 040532Z 17006KT 15SM OVC022 M09/ RMK SC8

CYWG;2011-12-04 06:00;CYWG 040600Z 16004KT 15SM OVC022 M09/M11 A3010 RMK SC8 SLP210

CYWG;2011-12-04 07:00;CYWG 040700Z 18003KT 15SM OVC020 M08/M11 A3010 RMK SC8 SLP211

CYWG;2011-12-04 08:00;CYWG 040800Z 15002KT 15SM BKN020 OVC044 M08/M11 A3010 RMK SC7SC1 SLP210

CYWG;2011-12-04 09:00;CYWG 040900Z 09004KT 15SM OVC020 M08/M10 A3010 RMK SC8 SLP212

CYWG;2011-12-04 10:00;CYWG 041000Z 10005KT 15SM OVC020 M08/M11 A3011 RMK SC8 SLP214

CYWG;2011-12-04 10:15;CYWG 041015Z 10007KT 15SM -SHSN OVC020 M08/ RMK SC8

CYWG;2011-12-04 11:00;CYWG 041100Z 09003KT 15SM -SHSN OVC020 M08/M11 A3012 RMK SC8 SLP217

CYWG;2011-12-04 12:00;CYWG 041200Z 09003KT 15SM -SHSN OVC020 M09/M11 A3014 RMK SC8 SLP226

CYWG;2011-12-04 13:00;CYWG 041300Z 07004KT 13SM -SHSN OVC020 M09/M11 A3015 RMK SC8 SLP230

CYWG;2011-12-04 14:00;CYWG 041400Z 19002KT 15SM -SHSN OVC020 M08/M11 A3018 RMK SC8 SLP239

CYWG;2011-12-04 15:00;CYWG 041500Z 32002KT 15SM -SN OVC022 M08/M11 A3021 RMK SC8 SLP249

CYWG;2011-12-04 16:00;CYWG 041600Z 03005KT 10SM -SN OVC018 M09/M11 A3025 RMK SC8 SLP261

CYWG;2011-12-04 16:39;CYWG 041639Z 36007KT 2 1/2SM -SN OVC024 M08/ RMK SC8

CYWG;2011-12-04 17:00;CYWG 041700Z 02008KT 4SM -SN FEW013 OVC024 M08/M10 A3028 RMK SF1SC7 VIS E 2 SLP272

CYWG;2011-12-04 18:00;CYWG 041800Z 03007KT 10SM -SN FEW013 OVC031 M08/M10 A3029 RMK SF1SC8 SF TR SLP274

CYWG;2011-12-04 18:47;CYWG 041847Z 01005KT 7SM -SN OVC014 M08/ RMK SC8

CYWG;2011-12-04 19:00;CYWG 041900Z 01009KT 4SM -SN OVC014 M08/M11 A3031 RMK SC8 VIS E 2 SLP281

CYWG;2011-12-04 19:12;CYWG 041912Z 35009KT 2 1/2SM -SN OVC012 M08/ RMK SC8

CYWG;2011-12-04 19:17;CYWG 041917Z 04010KT 1 1/2SM -SHSN OVC012 M08/ RMK SN2SC6

CYWG;2011-12-04 19:22;CYWG 041922Z 04011KT 3/4SM R31/4500VP6000FT/D R36/P6000FT/D -SHSN VV006 M09/ RMK SN8

CYWG;2011-12-04 19:27;CYWG 041927Z 03010KT 2SM R31/4500VP6000FT/U -SHSN OVC012 M09/ RMK SN2SC6

CYWG;2011-12-04 19:32;CYWG 041932Z 03011KT 7SM -SHSN OVC012 M09/ RMK SC8

CYWG;2011-12-04 19:48;CYWG 041948Z 02009KT 12SM -SHSN FEW010 BKN016 BKN280 M08/ RMK SF1SC6CI0

CYWG;2011-12-04 20:00;CYWG 042000Z 02008KT 12SM -SHSN FEW010 OVC020 M08/M11 A3032 RMK SF1SC7 SLP287

CYWG;2011-12-04 21:00;CYWG 042100Z 36009KT 5SM -SHSN FEW014 OVC025 M08/M11 A3034 RMK SF1SC7 SLP294

CYWG;2011-12-04 21:25;CYWG 042125Z 36013KT 1SM R31/P6000FT/D R36/P6000FT/D -SHSN VV006 M09/ RMK SN8

CYWG;2011-12-04 21:43;CYWG 042143Z 02018KT 7SM -SHSN DRSN BKN013 M10/ RMK SC7

CYWG;2011-12-04 22:00;CYWG 042200Z 02017KT 8SM -SHSN DRSN FEW016 BKN029 M10/M13 A3039 RMK SF2SC6 SLP309

CYWG;2011-12-04 22:47;CYWG 042247Z 02010KT 15SM FEW014 SCT073 M13/ RMK SC2AC2

CYWG;2011-12-04 23:00;CYWG 042300Z 01009KT 15SM FEW014 SCT073 M13/M16 A3042 RMK SC1AC2 SLP320

CYWG;2011-12-05 00:00;CYWG 050000Z 01008KT 15SM FEW014 FEW073 SCT280 M13/M16 A3045 RMK SC1AC1CI1 SLP333

CYWG;2011-12-05 01:00;CYWG 050100Z 36009KT 15SM FEW082 FEW280 M14/M17 A3048 RMK AC1CI0 SLP343

CYWG;2011-12-05 02:00;CYWG 050200Z 36010KT 15SM FEW089 M16/M18 A3051 RMK AC1 SLP353

CYWG;2011-12-05 03:00;CYWG 050300Z 36009KT 15SM SKC M17/M19 A3053 RMK SLP362

CYWG;2011-12-05 04:00;CYWG 050400Z 36008KT 15SM SKC M18/M20 A3055 RMK SLP368

CYWG;2011-12-05 05:00;CYWG 050500Z 34007KT 15SM SKC M21/M22 A3057 RMK SLP373

CYWG;2011-12-05 06:00;CYWG 050600Z 35005KT 15SM SKC M22/M23 A3058 RMK SLP379

CYWG;2011-12-05 07:00;CYWG 050700Z 29005KT 15SM SKC M22/M23 A3058 RMK SLP380

CYWG;2011-12-05 08:00;CYWG 050800Z 31005KT 15SM SKC M23/M23 A3058 RMK SLP380

CYWG;2011-12-05 09:00;CYWG 050900Z 29005KT 15SM SKC M23/M24 A3059 RMK SLP383

CYWG;2011-12-05 10:00;CYWG 051000Z 29005KT 15SM SKC M23/M24 A3059 RMK SLP383

CYWG;2011-12-05 11:00;CYWG 051100Z 28005KT 15SM SKC M23/M24 A3059 RMK SLP385

CYWG;2011-12-05 12:00;CYWG 051200Z 29006KT 15SM SKC M24/M25 A3060 RMK SLP388

CYWG;2011-12-05 13:00;CYWG 051300Z 29005KT 15SM SKC M23/M24 A3060 RMK SLP390

CYWG;2011-12-05 14:00;CYWG 051400Z 22002KT 15SM SKC M22/M24 A3061 RMK SLP391

CYWG;2011-12-05 15:00;CYWG 051500Z 00000KT 8SM SKC M21/M22 A3059 RMK BR SLP388

CYWG;2011-12-05 16:00;CYWG 051600Z 17002KT 15SM SKC M19/M20 A3059 RMK SLP387

CYWG;2011-12-05 17:00;CYWG 051700Z 20005KT 15SM SKC M17/M20 A3059 RMK SLP388

CYWG;2011-12-05 18:00;CYWG 051800Z 23007KT 15SM SKC M16/M19 A3057 RMK SLP380

CYWG;2011-12-05 19:00;CYWG 051900Z 21007KT 15SM SKC M15/M18 A3055 RMK SLP372

CYWG;2011-12-05 20:00;CYWG 052000Z 21009KT 15SM FEW012 M15/M18 A3052 RMK CF1 SLP362

CYWG;2011-12-05 21:00;CYWG 052100Z 17008KT 15SM FEW018 M15/M17 A3050 RMK CF1 SLP356

CYWG;2011-12-05 22:00;CYWG 052200Z 18010KT 15SM FEW019 M15/M17 A3051 RMK SC1 SLP357

CYWG;2011-12-05 23:00;CYWG 052300Z 18008KT 15SM SKC M16/M18 A3049 RMK SLP351

CYWG;2011-12-06 00:00;CYWG 060000Z 18008KT 15SM SKC M16/M18 A3046 RMK SLP342

CYWG;2011-12-06 01:00;CYWG 060100Z 18010KT 15SM SKC M17/M19 A3043 RMK SLP332

CYWG;2011-12-06 02:00;CYWG 060200Z 18010KT 15SM SKC M17/M19 A3040 RMK SLP324

CYWG;2011-12-06 03:00;CYWG 060300Z 18009KT 15SM SKC M17/M19 A3038 RMK SLP315

CYWG;2011-12-06 04:00;CYWG 060400Z 19010KT 15SM SKC M17/M19 A3037 RMK SLP310

CYWG;2011-12-06 05:00;CYWG 060500Z 19012KT 15SM SKC M17/M19 A3033 RMK SLP297

CYWG;2011-12-06 06:00;CYWG 060600Z 19014KT 15SM SKC M16/M18 A3030 RMK SLP286

CYWG;2011-12-06 07:00;CYWG 060700Z 18014G19KT 15SM SCT090 M16/M18 A3026 RMK AC1 SLP272

CYWG;2011-12-06 08:00;CYWG 060800Z 19016KT 15SM SCT210 M16/M18 A3023 RMK CI0 SLP262

CYWG;2011-12-06 09:00;CYWG 060900Z 18016KT 15SM FEW210 M16/M18 A3018 RMK CI0 SLP244

CYWG;2011-12-06 10:00;CYWG 061000Z 18016KT 15SM SKC M16/M18 A3013 RMK SLP228

CYWG;2011-12-06 11:00;CYWG 061100Z CCA 18016KT 15SM SKC M15/M17 A3008 RMK PRESFR SLP209

CYWG;2011-12-06 12:00;CYWG 061200Z 18017KT 15SM SKC M15/M17 A3003 RMK PRESFR SLP191

CYWG;2011-12-06 13:00;CYWG 061300Z 18018G25KT 15SM FEW090 M15/M16 A2995 RMK AC2 PRESFR SLP165

CYWG;2011-12-06 14:00;CYWG 061400Z 18021G27KT 15SM SCT090 M14/M16 A2992 RMK AC3 PRESFR SLP156

CYWG;2011-12-06 15:00;CYWG 061500Z 18021G30KT 15SM BKN100 M13/M16 A2987 RMK AC5 PRESFR SLP136

CYWG;2011-12-06 16:00;CYWG 061600Z 19022G32KT 15SM BKN100 M11/M14 A2983 RMK AC7 SLP123

CYWG;2011-12-06 16:36;CYWG 061636Z 19025G32KT 15SM -SN BKN100 M10/ RMK AC7

CYWG;2011-12-06 17:00;CYWG 061700Z 18022G34KT 15SM -SN BKN095 M10/M13 A2978 RMK AC7 SLP107

CYWG;2011-12-06 18:00;CYWG 061800Z 19024G35KT 15SM -SN BKN092 M08/M12 A2971 RMK AC7 SLP081

CYWG;2011-12-06 19:00;CYWG 061900Z 19027G41KT 15SM FEW095 BKN230 M06/M11 A2965 RMK AC1CI1 PRESFR SLP061

CYWG;2011-12-06 20:00;CYWG 062000Z CCA 20027G34KT 15SM FEW095 BKN230 M04/M10 A2957 RMK AC1CI2 PRESFR SLP036

CYWG;2011-12-06 21:00;CYWG 062100Z 20024G31KT 15SM FEW095 BKN230 M03/M10 A2959 RMK AC1CI2 SLP038

CYWG;2011-12-06 22:00;CYWG 062200Z 21018KT 15SM FEW100 BKN230 M03/M09 A2958 RMK AC2CI2 SLP036

CYWG;2011-12-06 23:00;CYWG 062300Z 21015G20KT 15SM BKN058 BKN093 M03/M08 A2959 RMK SC6AC2 SLP038

CYWG;2011-12-07 00:00;CYWG 070000Z 21013KT 15SM BKN054 OVC075 M03/M08 A2960 RMK SC6AC2 SLP040

CYWG;2011-12-07 00:36;CYWG 070036Z 21011KT 10SM -SHGS BKN035 OVC078 M02/ RMK SC6AC2

CYWG;2011-12-07 01:00;CYWG 070100Z 22010KT 15SM OVC033 M02/M07 A2960 RMK SC8 SLP042

CYWG;2011-12-07 02:00;CYWG 070200Z 23008KT 15SM OVC029 M02/M06 A2962 RMK SC8 SLP048

CYWG;2011-12-07 03:00;CYWG 070300Z 30012KT 15SM BKN029 OVC081 M01/M03 A2965 RMK SC6AC2 SLP057

CYWG;2011-12-07 04:00;CYWG 070400Z 34014G20KT 15SM OVC023 01/M01 A2969 RMK SC8 SLP070

CYWG;2011-12-07 05:00;CYWG 070500Z 35014G24KT 15SM SCT025 M02/M06 A2978 RMK SC3 SLP100

CYWG;2011-12-07 06:00;CYWG 070600Z 35013G20KT 15SM BKN030 M02/M07 A2982 RMK SC6 SLP114

CYWG;2011-12-07 07:00;CYWG 070700Z 32006KT 15SM FEW033 M06/M09 A2986 RMK SC2 SLP127

CYWG;2011-12-07 08:00;CYWG 070800Z 31006KT 15SM SCT038 M09/M11 A2989 RMK SC4 SLP136

CYWG;2011-12-07 09:00;CYWG 070900Z 27007KT 15SM BKN033 M08/M10 A2991 RMK SC6 SLP145

CYWG;2011-12-07 10:00;CYWG 071000Z 27008KT 15SM FEW037 M09/M11 A2992 RMK SC2 SLP148

CYWG;2011-12-07 11:00;CYWG 071100Z 27007KT 15SM FEW087 M09/M11 A2993 RMK AC2 SLP151

CYWG;2011-12-07 12:00;CYWG 071200Z 26009KT 15SM SKC M08/M11 A2993 RMK SLP153

CYWG;2011-12-07 13:00;CYWG 071300Z 26008KT 15SM FEW091 M09/M11 A2994 RMK AC1 SLP155

CYWG;2011-12-07 14:00;CYWG 071400Z 27009KT 15SM FEW040 BKN099 M08/M11 A2994 RMK SC1AC6 SLP156

CYWG;2011-12-07 15:00;CYWG 071500Z 26008KT 15SM SCT046 OVC096 M07/M10 A2995 RMK SC3AC4 SLP156

CYWG;2011-12-07 15:36;CYWG 071536Z 27009KT 15SM -SHSN BKN041 OVC092 M07/ RMK SC5AC2 ACC EMBD

CYWG;2011-12-07 15:51;CYWG 071551Z 27010KT 2SM -SHSN BKN017 OVC041 M07/ RMK SN1SC4SC3 ACC EMBD

CYWG;2011-12-07 16:00;CYWG 071600Z 27010KT 10SM -SHSN FEW017 BKN059 BKN092 M07/M09 A2995 RMK SC2SC3AC2 ACC EMBD VIS SE 3 CLRG FM NW SLP156

CYWG;2011-12-07 16:34;CYWG 071634Z 26010KT 15SM SCT023 BKN092 M06/ RMK SC3AC2 ACC EMBD SHSN SE

CYWG;2011-12-07 17:00;CYWG 071700Z 26009KT 15SM FEW023 SCT057 BKN082 M06/M09 A2995 RMK SC1SC2AC1 SLP158

CYWG;2011-12-07 18:00;CYWG 071800Z 28011G16KT 15SM FEW027 SCT082 M05/M08 A2995 RMK SC1AC2 SLP157

CYWG;2011-12-07 19:00;CYWG 071900Z 30018G24KT 15SM FEW027 SCT082 M04/M09 A2993 RMK SC2AC1 CU ASOCTD SLP151

CYWG;2011-12-07 20:00;CYWG 072000Z 31019G24KT 15SM FEW035 M05/M13 A2994 RMK SC1 SLP155

CYWG;2011-12-07 21:00;CYWG 072100Z 31015KT 15SM FEW035 FEW080 M06/M13 A2994 RMK SC1AC1 SLP155

CYWG;2011-12-07 22:00;CYWG 072200Z 28011KT 15SM FEW035 FEW080 M07/M15 A2993 RMK SC1AC1 SLP153

CYWG;2011-12-07 23:00;CYWG 072300Z 27012KT 15SM FEW035 FEW077 M08/M16 A2994 RMK SC1AC1 SLP156

CYWG;2011-12-08 00:00;CYWG 080000Z 27016KT 15SM FEW077 M09/M15 A2994 RMK AC1 SLP156

CYWG;2011-12-08 01:00;CYWG 080100Z 27014G20KT 15SM SKC M09/M15 A2992 RMK SLP151

CYWG;2011-12-08 02:00;CYWG 080200Z 26013KT 15SM SKC M10/M16 A2992 RMK SLP151

CYWG;2011-12-08 03:00;CYWG 080300Z 28015KT 15SM FEW080 M10/M15 A2992 RMK AC1 SLP150

CYWG;2011-12-08 04:00;CYWG 080400Z 27012KT 15SM FEW080 M10/M14 A2991 RMK AC1 SLP148

CYWG;2011-12-08 05:00;CYWG 080500Z 30016KT 15SM SCT042 M10/M14 A2992 RMK SC3 SLP149

CYWG;2011-12-08 06:00;CYWG 080600Z 29010KT 15SM BKN018 M10/M12 A2992 RMK SC6 SLP148

CYWG;2011-12-08 06:43;CYWG 080643Z 29008KT 12SM -SN OVC047 M10/ RMK SC8

CYWG;2011-12-08 07:00;CYWG 080700Z 29008KT 15SM FEW003 BKN057 M11/M13 A2993 RMK SF1SC4 SLP152

CYWG;2011-12-08 08:00;CYWG 080800Z 30012KT 15SM FEW092 M12/M17 A2993 RMK AC2 SLP154

CYWG;2011-12-08 09:00;CYWG 080900Z 29007KT 15SM SCT057 M15/M18 A2995 RMK SC2 SLP161

CYWG;2011-12-08 10:00;CYWG 081000Z 31010KT 15SM SCT034 BKN071 M13/M17 A2996 RMK SC3AC2 SLP164

CYWG;2011-12-08 11:00;CYWG 081100Z 30014G20KT 15SM FEW031 M13/M18 A2997 RMK SC2 SLP169

CYWG;2011-12-08 12:00;CYWG 081200Z 30009KT 15SM FEW054 M15/M19 A2999 RMK SC1 SLP175

CYWG;2011-12-08 13:00;CYWG 081300Z 27010KT 15SM FEW050 M16/M19 A2999 RMK SC1 SLP176

CYWG;2011-12-08 14:00;CYWG 081400Z 26011KT 15SM SKC M15/M20 A2999 RMK SLP176

CYWG;2011-12-08 15:00;CYWG 081500Z 25009KT 15SM SKC M16/M19 A3000 RMK SLP179

CYWG;2011-12-08 16:00;CYWG 081600Z 27017KT 15SM SKC M14/M19 A2999 RMK SLP177

CYWG;2011-12-08 17:00;CYWG 081700Z 28019G24KT 15SM SKC M13/M18 A3000 RMK SLP179

CYWG;2011-12-08 18:00;CYWG 081800Z 30018KT 15SM FEW035 M13/M19 A3000 RMK SC2 SLP179

CYWG;2011-12-08 19:00;CYWG 081900Z 28018KT 15SM FEW024 M13/M18 A2999 RMK SC2 SLP176

CYWG;2011-12-08 20:00;CYWG 082000Z 28018KT 15SM SCT033 M13/M18 A2999 RMK SC3 SLP176

CYWG;2011-12-08 21:00;CYWG 082100Z 28014KT 15SM FEW033 M13/M18 A2999 RMK SC1 SLP176

CYWG;2011-12-08 22:00;CYWG 082200Z 28014KT 15SM SKC M13/M19 A3000 RMK SLP180

CYWG;2011-12-08 23:00;CYWG 082300Z 28012KT 15SM SKC M15/M19 A3000 RMK SLP182

CYWG;2011-12-09 00:00;CYWG 090000Z 28012G17KT 15SM SKC M15/M19 A3001 RMK SLP185

CYWG;2011-12-09 01:00;CYWG 090100Z 28013KT 15SM SKC M15/M19 A3001 RMK SLP186

CYWG;2011-12-09 02:00;CYWG 090200Z 29011KT 15SM SKC M16/M19 A3003 RMK SLP190

CYWG;2011-12-09 03:00;CYWG 090300Z 28010KT 15SM SKC M16/M19 A3003 RMK SLP192

CYWG;2011-12-09 04:00;CYWG 090400Z 28010KT 15SM SKC M17/M20 A3004 RMK SLP197

CYWG;2011-12-09 05:00;CYWG 090500Z 28010KT 15SM SKC M17/M20 A3006 RMK SLP204

CYWG;2011-12-09 06:00;CYWG 090600Z 27008KT 15SM SKC M17/M20 A3008 RMK SLP209

CYWG;2011-12-09 07:00;CYWG 090700Z 28009KT 15SM SKC M18/M21 A3009 RMK SLP213

CYWG;2011-12-09 08:00;CYWG 090800Z 29008KT 15SM SKC M18/M21 A3010 RMK SLP215

CYWG;2011-12-09 09:00;CYWG 090900Z 28008KT 15SM SKC M19/M21 A3012 RMK SLP224

CYWG;2011-12-09 10:00;CYWG 091000Z 28008KT 15SM SKC M19/M21 A3014 RMK SLP231

CYWG;2011-12-09 11:00;CYWG 091100Z 28011KT 15SM SKC M18/M21 A3015 RMK SLP232

CYWG;2011-12-09 12:00;CYWG 091200Z 26008KT 15SM SKC M19/M22 A3015 RMK SLP235

CYWG;2011-12-09 13:00;CYWG 091300Z 26008KT 15SM SKC M20/M22 A3018 RMK SLP243

CYWG;2011-12-09 14:00;CYWG 091400Z 26007KT 15SM SKC M20/M22 A3019 RMK SLP249

CYWG;2011-12-09 15:00;CYWG 091500Z 26006KT 15SM SKC M20/M22 A3021 RMK SLP255

CYWG;2011-12-09 16:00;CYWG 091600Z 27009KT 15SM SKC M18/M21 A3021 RMK SLP257

CYWG;2011-12-09 17:00;CYWG 091700Z 26009KT 15SM SKC M16/M20 A3022 RMK SLP260

CYWG;2011-12-09 18:00;CYWG 091800Z 26009KT 15SM FEW230 M15/M19 A3022 RMK CI0 SLP257

CYWG;2011-12-09 19:00;CYWG 091900Z 26009KT 15SM SCT230 M14/M19 A3021 RMK CI1 SLP253

CYWG;2011-12-09 20:00;CYWG 092000Z 25006KT 15SM BKN230 M13/M19 A3020 RMK CI3 SLP250

CYWG;2011-12-09 21:00;CYWG 092100Z 25005KT 15SM BKN230 M13/M19 A3018 RMK CI3 SLP245

CYWG;2011-12-09 22:00;CYWG 092200Z 24005KT 15SM SCT230 M14/M19 A3018 RMK CI2 SLP245

CYWG;2011-12-09 23:00;CYWG 092300Z 22004KT 15SM SCT230 M15/M19 A3019 RMK CI2 SLP246

CYWG;2011-12-10 00:00;CYWG 100000Z 21006KT 15SM FEW230 M16/M19 A3017 RMK CI1 SLP242

CYWG;2011-12-10 01:00;CYWG 100100Z 24006KT 15SM FEW280 M15/M19 A3016 RMK CI1 SLP237

CYWG;2011-12-10 02:00;CYWG 100200Z 20006KT 15SM FEW230 M15/M19 A3012 RMK CI1 SLP226

CYWG;2011-12-10 03:00;CYWG 100300Z 20008KT 15SM BKN093 M13/M18 A3010 RMK AC4 SLP217

CYWG;2011-12-10 04:00;CYWG 100400Z 21008KT 15SM OVC077 M12/M18 A3008 RMK AC8 SLP211

CYWG;2011-12-10 05:00;CYWG 100500Z 19008KT 15SM OVC066 M12/M17 A3005 RMK AC8 SLP201

CYWG;2011-12-10 06:00;CYWG 100600Z 17009KT 15SM OVC052 M12/M16 A3003 RMK SC6 SLP189

CYWG;2011-12-10 06:50;CYWG 100650Z 18011KT 15SM -SN SCT043 OVC061 M11/ RMK SC3SC5

CYWG;2011-12-10 07:00;CYWG 100700Z 17010KT 15SM -SN SCT041 OVC061 M11/M15 A2999 RMK SC3SC5 SLP178

CYWG;2011-12-10 08:00;CYWG 100800Z 19011KT 15SM -SN BKN031 OVC064 M11/M15 A2996 RMK SC5SC3 SLP169

CYWG;2011-12-10 08:43;CYWG 100843Z 18012KT 15SM BKN027 OVC051 M11/ RMK SC5SC3

CYWG;2011-12-10 09:00;CYWG 100900Z 18011KT 15SM BKN027 OVC051 M10/M14 A2995 RMK SC5SC3 SLP161

CYWG;2011-12-10 10:00;CYWG 101000Z 18009KT 15SM OVC047 M10/M13 A2993 RMK SC8 SLP157

CYWG;2011-12-10 11:00;CYWG 101100Z 18010KT 15SM OVC047 M09/M13 A2993 RMK SC6 SLP155

CYWG;2011-12-10 12:00;CYWG 101200Z 19009KT 15SM BKN047 M09/M13 A2992 RMK SC5 SLP153

CYWG;2011-12-10 13:00;CYWG 101300Z 19005KT 15SM FEW047 M10/M13 A2993 RMK SC1 SLP157

CYWG;2011-12-10 14:00;CYWG 101400Z 18005KT 15SM FEW047 FEW250 M13/M14 A2994 RMK SC1CI0 SLP159

CYWG;2011-12-10 15:00;CYWG 101500Z 21002KT 15SM FEW070 FEW250 M12/M14 A2995 RMK AC1CI0 SLP162

CYWG;2011-12-10 16:00;CYWG 101600Z 25003KT 15SM BKN022 BKN250 M09/M12 A2996 RMK SC6CI0 SLP165

CYWG;2011-12-10 17:00;CYWG 101700Z 25003KT 15SM BKN020 BKN250 M08/M12 A2998 RMK SC6CI1 SLP172

CYWG;2011-12-10 18:00;CYWG 101800Z 22005KT 15SM BKN018 OVC250 M07/M10 A2996 RMK SC7CI1 SLP165

CYWG;2011-12-10 19:00;CYWG 101900Z 24002KT 15SM BKN020 OVC250 M05/M10 A2997 RMK SC7CI1 SLP167

CYWG;2011-12-10 20:00;CYWG 102000Z 13003KT 15SM FEW020 SCT081 BKN250 M04/M10 A2994 RMK SC2AC2CI1 SLP157

CYWG;2011-12-10 21:00;CYWG 102100Z 17006KT 15SM FEW081 BKN250 M04/M09 A2993 RMK AC2CI3 SLP151

CYWG;2011-12-10 22:00;CYWG 102200Z 16006KT 15SM SCT081 BKN250 M05/M09 A2992 RMK AC3CI2 SLP148

CYWG;2011-12-10 23:00;CYWG 102300Z 15008KT 15SM FEW080 FEW250 M07/M10 A2990 RMK AC1CI1 SLP141

CYWG;2011-12-11 00:00;CYWG 110000Z 15007KT 15SM FEW090 BKN250 M07/M10 A2988 RMK AC2CI1 SLP136

CYWG;2011-12-11 01:00;CYWG 110100Z 14007KT 15SM FEW090 SCT250 M06/M10 A2985 RMK AC1CI1 SLP126

CYWG;2011-12-11 02:00;CYWG 110200Z 14008KT 15SM FEW250 M07/M10 A2981 RMK CI1 SLP114

CYWG;2011-12-11 03:00;CYWG 110300Z 15009KT 15SM FEW250 M06/M09 A2978 RMK CI1 SLP103

CYWG;2011-12-11 04:00;CYWG 110400Z 14006KT 15SM SKC M07/M09 A2974 RMK SLP091

CYWG;2011-12-11 05:00;CYWG 110500Z 15008KT 15SM SKC M07/M09 A2971 RMK SLP080

CYWG;2011-12-11 06:00;CYWG 110600Z 15006KT 15SM SKC M08/M10 A2971 RMK SLP077

CYWG;2011-12-11 07:00;CYWG 110700Z 18007KT 15SM SKC M07/M09 A2969 RMK SLP072

CYWG;2011-12-11 08:00;CYWG 110800Z 19006KT 15SM SKC M07/M09 A2968 RMK SLP069

CYWG;2011-12-11 09:00;CYWG 110900Z 18006KT 15SM SKC M09/M10 A2968 RMK SLP066

CYWG;2011-12-11 10:00;CYWG 111000Z 22004KT 15SM SKC M07/M09 A2969 RMK OBS TAKEN +05 SLP069

CYWG;2011-12-11 11:00;CYWG 111100Z 24007KT 15SM SKC M06/M08 A2969 RMK SLP070

CYWG;2011-12-11 12:00;CYWG 111200Z 26004KT 15SM SCT250 M08/M09 A2970 RMK CI2 SLP074

CYWG;2011-12-11 13:00;CYWG 111300Z 31006KT 15SM SCT250 M09/M10 A2973 RMK CI2 SLP083

CYWG;2011-12-11 14:00;CYWG 111400Z 28006KT 15SM FEW140 BKN250 M11/M12 A2976 RMK AC1CI2 SLP094

CYWG;2011-12-11 15:00;CYWG 111500Z 30004KT 15SM FEW100 BKN250 M12/M13 A2978 RMK AC1CI2 SLP101

CYWG;2011-12-11 16:00;CYWG 111600Z 29007KT 15SM FEW100 BKN250 M11/M12 A2983 RMK AC1CI3 SLP118

CYWG;2011-12-11 17:00;CYWG 111700Z 32007KT 15SM FEW100 BKN250 M09/M11 A2985 RMK AC1CI2 SLP126

CYWG;2011-12-11 18:00;CYWG 111800Z 30007KT 15SM FEW100 BKN250 M08/M10 A2987 RMK AC1CI2 SLP132

CYWG;2011-12-11 19:00;CYWG 111900Z 31009KT 15SM FEW120 OVC250 M06/M09 A2989 RMK AC2CI2 SLP140

CYWG;2011-12-11 20:00;CYWG 112000Z 32009KT 15SM FEW120 OVC250 M05/M08 A2992 RMK AC2CI4 SLP149

CYWG;2011-12-11 21:00;CYWG 112100Z 34007KT 15SM FEW120 OVC250 M05/M08 A2995 RMK AC1CI4 SLP159

CYWG;2011-12-11 22:00;CYWG 112200Z 32008KT 15SM FEW120 BKN250 M07/M09 A2997 RMK AC1CI3 SLP166

CYWG;2011-12-11 23:00;CYWG 112300Z 31005KT 15SM SCT250 M10/M11 A3001 RMK CI1 SLP178

CYWG;2011-12-12 00:00;CYWG 120000Z 30004KT 15SM FEW250 M12/M12 A3004 RMK CI1 SLP192

CYWG;2011-12-12 01:00;CYWG 120100Z 36006KT 15SM FEW092 FEW250 M10/M11 A3007 RMK AC1CI0 SLP201

CYWG;2011-12-12 02:00;CYWG 120200Z 34004KT 15SM FEW250 M12/M13 A3010 RMK CI1 SLP212

CYWG;2011-12-12 03:00;CYWG 120300Z 34008KT 15SM FEW036 SCT250 M11/M12 A3012 RMK SC2CI1 SLP221

CYWG;2011-12-12 04:00;CYWG 120400Z 35007KT 15SM FEW034 BKN100 M08/M09 A3014 RMK SC2AC2 SLP227

CYWG;2011-12-12 05:00;CYWG 120500Z 01010KT 15SM BKN034 M06/M08 A3016 RMK SC6 SLP232

CYWG;2011-12-12 06:00;CYWG 120600Z 01011KT 15SM BKN034 M06/M08 A3019 RMK SC7 SLP240

CYWG;2011-12-12 07:00;CYWG 120700Z 01010KT 15SM BKN036 M06/M08 A3020 RMK SC7 SLP244

CYWG;2011-12-12 08:00;CYWG 120800Z 01013KT 15SM BKN036 M07/M09 A3022 RMK SC7 SLP252

CYWG;2011-12-12 09:00;CYWG 120900Z 01012KT 15SM OVC034 M07/M09 A3025 RMK SC8 SLP260

CYWG;2011-12-12 10:00;CYWG 121000Z 01015KT 15SM OVC032 M08/M10 A3027 RMK SC8 SLP268

CYWG;2011-12-12 11:00;CYWG 121100Z 36011G16KT 15SM BKN010 OVC032 M10/M11 A3030 RMK ST6SC2 SLP276

CYWG;2011-12-12 11:37;CYWG 121137Z 01010KT 15SM BKN006 OVC036 M10/ RMK ST6SC2

CYWG;2011-12-12 12:00;CYWG 121200Z 01012KT 10SM -SN OVC006 M11/M12 A3032 RMK ST8 SLP289

CYWG;2011-12-12 13:00;CYWG 121300Z 36012KT 12SM -SN OVC008 M11/M12 A3035 RMK ST8 SLP297

CYWG;2011-12-12 14:00;CYWG 121400Z 36013KT 12SM -SN OVC009 M12/M13 A3036 RMK ST8 SLP303

CYWG;2011-12-12 15:00;CYWG 121500Z 01012KT 8SM -SN OVC017 M13/M14 A3038 RMK SC8 SLP310

CYWG;2011-12-12 16:00;CYWG 121600Z 36011KT 4SM -SN OVC008 M13/M14 A3040 RMK SC8 SLP315

CYWG;2011-12-12 17:00;CYWG 121700Z 02013KT 6SM -SN OVC008 M12/M14 A3041 RMK SC6 SLP319

CYWG;2011-12-12 18:00;CYWG 121800Z 01008KT 6SM -SN OVC008 M12/M13 A3040 RMK SC6 SLP313

CYWG;2011-12-12 18:41;CYWG 121841Z 04007KT 6SM -SN BKN010 M11/ RMK SC6

CYWG;2011-12-12 19:00;CYWG 121900Z 01007KT 6SM -SN BKN010 M11/M12 A3040 RMK SC6 SLP314

CYWG;2011-12-12 20:00;CYWG 122000Z 36008KT 4SM -SN BKN010 M11/M12 A3039 RMK SC6 SLP312

CYWG;2011-12-12 21:00;CYWG 122100Z 03007KT 3SM -SN OVC010 M11/M13 A3040 RMK SC7 SLP314

CYWG;2011-12-12 21:26;CYWG 122126Z 03006KT 6SM -SN SCT004 BKN010 M11/ RMK SF3SC2

CYWG;2011-12-12 21:44;CYWG 122144Z 03005KT 15SM -SN FEW005 SCT010 BKN250 M11/ RMK SF2SC2CI0

CYWG;2011-12-12 22:00;CYWG 122200Z 03006KT 15SM -SN FEW006 SCT010 BKN250 M12/M13 A3041 RMK SF2SC1CI0 SLP317

CYWG;2011-12-12 22:24;CYWG 122224Z 03004KT 15SM FEW006 FEW010 BKN250 M13/ RMK SF1SC1CI1

CYWG;2011-12-12 23:00;CYWG 122300Z 03003KT 15SM FEW006 FEW010 SCT094 BKN250 M14/M15 A3040 RMK SF1SC1AC2CI1 SLP315

CYWG;2011-12-13 00:00;CYWG 130000Z 32004KT 15SM FEW005 SCT250 M15/M16 A3041 RMK SF2CI0 SLP322

CYWG;2011-12-13 00:34;CYWG 130034Z 34004KT 15SM OVC010 M16/ RMK ST6

CYWG;2011-12-13 01:00;CYWG 130100Z 02004KT 15SM OVC008 M14/M15 A3041 RMK ST7 SLP321

CYWG;2011-12-13 02:00;CYWG 130200Z 09005KT 15SM OVC007 M11/M12 A3041 RMK ST8 SLP321

CYWG;2011-12-13 02:07;CYWG 130207Z 09005KT 15SM -SN OVC007 M11/ RMK ST8

CYWG;2011-12-13 03:00;CYWG 130300Z 08004KT 15SM -SN OVC007 M10/M11 A3041 RMK ST8 SLP320

CYWG;2011-12-13 04:00;CYWG 130400Z 08003KT 15SM -SN OVC008 M10/M11 A3040 RMK ST8 SLP317

CYWG;2011-12-13 05:00;CYWG 130500Z 23003KT 15SM -SN OVC007 M10/M11 A3040 RMK ST8 SLP316

CYWG;2011-12-13 06:00;CYWG 130600Z 17005KT 15SM -SN OVC006 M10/M11 A3039 RMK ST8 SLP313

CYWG;2011-12-13 07:00;CYWG 130700Z 21005KT 12SM -SN OVC005 M10/M11 A3040 RMK ST8 SLP314

CYWG;2011-12-13 08:00;CYWG 130800Z 21007KT 6SM -SN BR OVC004 M10/M10 A3038 RMK ST8 SLP307

CYWG;2011-12-13 08:22;CYWG 130822Z CCA 20007KT 2 1/2SM -SN BR OVC003 M10/ RMK SF8 FROIN

CYWG;2011-12-13 09:00;CYWG 130900Z 19008KT 2SM BR OVC002 M10/M10 A3036 RMK FG2SF6 FROIN SLP303

CYWG;2011-12-13 10:00;CYWG 131000Z 18009KT 2SM BR OVC002 M10/M11 A3035 RMK FG2SF6 FROIN SLP299

CYWG;2011-12-13 11:00;CYWG 131100Z 21007KT 2 1/2SM BR OVC003 M10/M11 A3034 RMK FG2SF6 FROIN SLP296

CYWG;2011-12-13 11:50;CYWG 131150Z 20008KT 1SM R13/P6000FT/N R36/P6000FT/N BR OVC003 M10/ RMK FG2ST6 VIS HIER W

CYWG;2011-12-13 12:00;CYWG 131200Z 19006KT 1 1/2SM BR OVC003 M09/M10 A3032 RMK FG2ST6 VIS HIER W SLP291

CYWG;2011-12-13 13:00;CYWG 131300Z 19006KT 1SM R13/P6000FT/N R36/P6000FT/N BR OVC003 M09/M10 A3031 RMK FG3ST5 FROIN SLP287

CYWG;2011-12-13 14:00;CYWG 131400Z 18006KT 4SM BR OVC003 M09/M10 A3030 RMK ST8 SLP282

CYWG;2011-12-13 14:40;CYWG 131440Z 18007KT 2SM BR OVC003 M09/ RMK ST8

CYWG;2011-12-13 15:00;CYWG 131500Z 18006KT 2SM BR OVC004 M08/M09 A3029 RMK ST8 FROIN SLP275

CYWG;2011-12-13 16:00;CYWG 131600Z 18006KT 1 3/4SM BR OVC003 M08/M08 A3027 RMK ST8 FROIN SLP271

CYWG;2011-12-13 17:00;CYWG 131700Z 18008KT 4SM BR OVC004 M07/M07 A3026 RMK ST8 SLP266

CYWG;2011-12-13 18:00;CYWG 131800Z 18009KT 4SM BR OVC005 M06/M07 A3022 RMK ST8 SLP253

CYWG;2011-12-13 19:00;CYWG 131900Z 18010KT 6SM BR OVC005 M05/M06 A3019 RMK ST8 SLP241

CYWG;2011-12-13 20:00;CYWG 132000Z 19010KT 6SM BR OVC006 M05/M05 A3016 RMK ST8 SLP232

CYWG;2011-12-13 21:00;CYWG 132100Z 20007KT 6SM BR OVC007 M05/M05 A3015 RMK ST8 SLP227

CYWG;2011-12-13 22:00;CYWG 132200Z 19006KT 6SM BR BKN008 OVC026 M05/M05 A3013 RMK SF6SC2 SLP221

CYWG;2011-12-13 22:31;CYWG 132231Z 17007KT 10SM SCT008 OVC028 M04/ RMK SF4SC4

CYWG;2011-12-13 23:00;CYWG 132300Z 18007KT 10SM SCT008 OVC028 M04/M05 A3011 RMK SF3SC5 BR SLP213

CYWG;2011-12-14 00:00;CYWG 140000Z 17009KT 8SM SCT008 OVC024 M04/M04 A3008 RMK SF3SC5 BR SLP203

CYWG;2011-12-14 01:00;CYWG 140100Z 17009KT 10SM OVC016 M03/M04 A3006 RMK SC8 BR SLP196

CYWG;2011-12-14 01:12;CYWG 140112Z 18009KT 10SM OVC014 M03/ RMK SC8 BR

CYWG;2011-12-14 02:00;CYWG 140200Z 18008KT 10SM OVC012 M03/M04 A3004 RMK SC8 BR SLP189

CYWG;2011-12-14 02:18;CYWG 140218Z 19007KT 10SM OVC009 M03/ RMK ST8 BR

CYWG;2011-12-14 03:00;CYWG 140300Z 18007KT 10SM OVC010 M03/M04 A3001 RMK SC8 BR SLP180

CYWG;2011-12-14 04:00;CYWG 140400Z 18011KT 10SM SCT012 OVC024 M02/M03 A2998 RMK SC3SC5 BR SLP170

CYWG;2011-12-14 05:00;CYWG 140500Z 19009KT 10SM BKN007 OVC024 M02/M03 A2996 RMK SF6SC2 BR SLP163

CYWG;2011-12-14 06:00;CYWG 140600Z 19009KT 8SM BKN007 OVC025 M02/M03 A2996 RMK SF6SC2 BR SLP159

CYWG;2011-12-14 07:00;CYWG 140700Z 20010KT 8SM BKN007 OVC020 M02/M03 A2994 RMK SF6SC2 BR SLP153

CYWG;2011-12-14 08:00;CYWG 140800Z 20010KT 3SM BR OVC006 M02/M03 A2992 RMK SF8 SLP147

CYWG;2011-12-14 08:48;CYWG 140848Z 21009KT 4SM BR SCT006 OVC013 M02/ RMK SF4SC4

CYWG;2011-12-14 09:00;CYWG 140900Z 21009KT 4SM BR SCT006 OVC013 M02/M04 A2991 RMK SF4ST4 SLP143

CYWG;2011-12-14 10:00;CYWG 141000Z 21006KT 5SM BR FEW006 OVC011 M02/M04 A2989 RMK SF2ST6 SLP136

CYWG;2011-12-14 11:00;CYWG 141100Z 18007KT 5SM BR OVC011 M02/M04 A2987 RMK ST8 SLP129

CYWG;2011-12-14 12:00;CYWG 141200Z 19009KT 5SM BR OVC007 M03/M04 A2985 RMK ST8 SLP121

CYWG;2011-12-14 13:00;CYWG 141300Z 18008KT 5SM BR FEW005 OVC007 M02/M03 A2983 RMK SF2ST6 SLP117

CYWG;2011-12-14 14:00;CYWG 141400Z 18007KT 5SM -FZDZ BR OVC006 M03/M03 A2982 RMK ST8 SLP111

CYWG;2011-12-14 14:37;CYWG 141437Z 19008KT 5SM BR OVC005 M02/ RMK ST8

CYWG;2011-12-14 15:00;CYWG 141500Z CCA 18007KT 3SM BR OVC005 M02/M03 A2980 RMK ST8 REFZDZ SLP107

CYWG;2011-12-14 16:00;CYWG 141600Z 19008KT 2 1/2SM BR OVC004 M02/M03 A2979 RMK ST8 SLP103

CYWG;2011-12-14 17:00;CYWG 141700Z 20007KT 2 1/2SM BR OVC004 M02/M03 A2979 RMK ST8 SLP101

CYWG;2011-12-14 17:24;CYWG 141724Z 20008KT 2SM BR OVC005 M02/ RMK ST8

CYWG;2011-12-14 18:00;CYWG 141800Z 21007KT 2SM BR OVC005 M02/M03 A2975 RMK ST8 SLP088

CYWG;2011-12-14 18:55;CYWG 141855Z 23006KT 2SM -FZDZ BR OVC004 M02/ RMK ST8

CYWG;2011-12-14 19:00;CYWG 141900Z 22005KT 2SM -FZDZ BR OVC004 M02/M02 A2974 RMK ST8 SLP083

CYWG;2011-12-14 19:18;CYWG 141918Z 21004KT 1SM R13/P6000FT/N R36/P6000FT/N -FZDZ BR OVC004 M01/ RMK ST8

CYWG;2011-12-14 20:00;CYWG 142000Z 22005KT 2SM -FZDZ BR OVC004 M01/M02 A2970 RMK ST8 SLP072

CYWG;2011-12-14 21:00;CYWG 142100Z 23005KT 2SM -FZDZ BR OVC003 M01/M01 A2970 RMK ST8 SLP069

CYWG;2011-12-14 21:35;CYWG 142135Z 25006KT 2 1/2SM -FZDZ BR OVC006 M01/ RMK SF8 CIG RAG

CYWG;2011-12-14 22:00;CYWG 142200Z 28012KT 5SM BR BKN005 OVC013 M02/M03 A2970 REFZDZ RMK SF6SC2 CIG RAG SLP069

CYWG;2011-12-14 22:38;CYWG 142238Z 30009KT 2SM -FZDZ BR OVC004 M03/ RMK SF8

CYWG;2011-12-14 23:00;CYWG 142300Z 29011KT 4SM -FZDZ BR OVC005 M03/M03 A2970 RMK SF8 SLP071

CYWG;2011-12-15 00:00;CYWG 150000Z 30011KT 3SM -FZDZ BR OVC004 M04/M04 A2971 RMK SF8 SLP075

CYWG;2011-12-15 00:51;CYWG 150051Z 30015KT 3SM -FZDZ BR OVC009 M04/ RMK SF8

CYWG;2011-12-15 01:00;CYWG 150100Z 29012G17KT 3SM -FZDZ BR OVC010 M04/M06 A2971 RMK SF8 SLP074

CYWG;2011-12-15 01:23;CYWG 150123Z 29011KT 8SM OVC010 M04/ REFZDZ RMK SF8

CYWG;2011-12-15 02:00;CYWG 150200Z 29012KT 15SM OVC012 M05/M06 A2970 RMK SF8 SLP073

CYWG;2011-12-15 03:00;CYWG 150300Z 30009KT 15SM OVC014 M05/M06 A2970 RMK SC8 SLP070

CYWG;2011-12-15 04:00;CYWG 150400Z 29005KT 15SM OVC014 M05/M06 A2969 RMK SC8 SLP068

CYWG;2011-12-15 04:32;CYWG 150432Z 27005KT 10SM -SN OVC012 M05/ RMK SC8

CYWG;2011-12-15 05:00;CYWG 150500Z 27006KT 10SM -SN OVC012 M05/M06 A2969 RMK SC8 SLP067

CYWG;2011-12-15 06:00;CYWG 150600Z 27007KT 10SM -SN OVC014 M05/M06 A2969 RMK SC8 SLP069

CYWG;2011-12-15 07:00;CYWG 150700Z 28009KT 6SM -SN OVC019 M05/M05 A2970 RMK SC7 SLP071

CYWG;2011-12-15 08:00;CYWG 150800Z 31013G19KT 10SM -SN OVC017 M04/M06 A2972 RMK SC7 SLP079

CYWG;2011-12-15 08:25;CYWG 150825Z 32017KT 15SM BKN020 M04/ RMK SC6

CYWG;2011-12-15 09:00;CYWG 150900Z 32014KT 15SM SCT020 BKN040 M05/M07 A2975 RMK SC3SC3 SLP089

CYWG;2011-12-15 10:00;CYWG 151000Z 31018KT 10SM -SN BKN016 OVC040 M05/M06 A2978 RMK SC5SC2 SLP099

CYWG;2011-12-15 11:00;CYWG 151100Z 32017G25KT 8SM -SN DRSN BKN019 M04/M06 A2982 RMK SC6 SLP111

CYWG;2011-12-15 12:00;CYWG 151200Z 33028G38KT 12SM -SN DRSN BKN015 M06/M08 A2988 RMK SC6 SLP133

CYWG;2011-12-15 12:45;CYWG 151245Z 33022KT 15SM DRSN OVC013 M07/ RMK SC8

CYWG;2011-12-15 13:00;CYWG 151300Z 32028G33KT 15SM DRSN OVC013 M08/M10 A2994 RMK SC8 PRESRR SLP154

CYWG;2011-12-15 13:46;CYWG 151346Z 32023G31KT 15SM DRSN FEW008 FEW015 M10/ RMK SF1SC1

CYWG;2011-12-15 14:00;CYWG 151400Z 32021G28KT 15SM DRSN SCT009 SCT015 SCT050 M10/M12 A3000 RMK SF1SC1SC1 SLP173

CYWG;2011-12-15 14:54;CYWG 151454Z 33022G28KT 15SM -SN DRSN SCT011 M10/ RMK SC2

CYWG;2011-12-15 15:00;CYWG 151500Z 33024G29KT 15SM -SN DRSN SCT011 M10/M13 A3004 RMK SC2 SLP191

CYWG;2011-12-15 15:32;CYWG 151532Z 32023G28KT 15SM DRSN FEW008 M11/ RMK SF2

CYWG;2011-12-15 16:00;CYWG 151600Z 32022G28KT 15SM -SN SCT009 M11/M14 A3010 RMK SF2 PRESRR SLP209

CYWG;2011-12-15 16:23;CYWG 151623Z 33020G27KT 15SM FEW010 M11/ RMK SF2

CYWG;2011-12-15 17:00;CYWG 151700Z 34014G24KT 15SM SCT012 M11/M14 A3013 RMK SF2 SLP221

CYWG;2011-12-15 18:00;CYWG 151800Z 33018G24KT 15SM FEW013 M11/M14 A3017 RMK SF2 SLP235

CYWG;2011-12-15 19:00;CYWG 151900Z 34013G19KT 15SM FEW011 M11/M14 A3019 RMK SF1 SLP240

CYWG;2011-12-15 20:00;CYWG 152000Z 33015G20KT 15SM FEW015 FEW220 M11/M14 A3022 RMK SF1CI0 SLP252

CYWG;2011-12-15 21:00;CYWG 152100Z 32014KT 15SM FEW015 FEW220 M12/M15 A3025 RMK SF1CI0 SLP261

CYWG;2011-12-15 22:00;CYWG 152200Z 33009KT 15SM FEW120 FEW220 M13/M16 A3028 RMK AC1CI0 SLP272

CYWG;2011-12-15 23:00;CYWG 152300Z 32008KT 15SM FEW120 FEW220 M15/M17 A3030 RMK AC1CI0 SLP279

CYWG;2011-12-16 00:00;CYWG 160000Z 31006KT 15SM FEW090 SCT220 M17/M18 A3032 RMK AC1CI0 SLP289

CYWG;2011-12-16 01:00;CYWG 160100Z 02004KT 15SM SCT220 M16/M18 A3035 RMK CI0 SLP298

CYWG;2011-12-16 02:00;CYWG 160200Z 02004KT 15SM FEW085 SCT220 M17/M19 A3035 RMK AC2CI0 SLP297

CYWG;2011-12-16 03:00;CYWG 160300Z 03006KT 15SM FEW085 SCT220 M17/M19 A3036 RMK AC2CI0 SLP304

CYWG;2011-12-16 04:00;CYWG 160400Z 04004KT 15SM SCT090 BKN220 M17/M20 A3037 RMK AC3CI2 SLP306

CYWG;2011-12-16 05:00;CYWG 160500Z 03003KT 15SM SCT100 BKN220 M17/M20 A3038 RMK AC3CI2 SLP311

CYWG;2011-12-16 06:00;CYWG 160600Z 05002KT 15SM SCT100 BKN220 M16/M20 A3039 RMK AC3CI2 SLP315

CYWG;2011-12-16 07:00;CYWG 160700Z 00000KT 15SM BKN080 OVC220 M16/M20 A3039 RMK AC5CI1 SLP315

CYWG;2011-12-16 08:00;CYWG 160800Z 00000KT 15SM BKN046 OVC090 M15/M20 A3039 RMK SC6AC2 SLP314

CYWG;2011-12-16 09:00;CYWG 160900Z 19003KT 15SM BKN041 OVC090 M15/M19 A3039 RMK SC6AC1 SLP313

CYWG;2011-12-16 10:00;CYWG 161000Z 20004KT 15SM BKN031 OVC094 M15/M20 A3040 RMK SC6AC1 SLP316

CYWG;2011-12-16 11:00;CYWG 161100Z 19005KT 8SM -SN BKN025 OVC090 M15/M17 A3040 RMK SC6AC1 SLP317

CYWG;2011-12-16 11:26;CYWG 161126Z 18006KT 2SM -SN OVC014 M15/ RMK SC7

CYWG;2011-12-16 12:00;CYWG 161200Z 17007KT 12SM -SN OVC016 M15/M16 A3038 RMK SC8 SLP314

CYWG;2011-12-16 13:00;CYWG 161300Z 18006KT 10SM -SN OVC043 M14/M16 A3038 RMK SC8 OBS TAKEN +04 SLP314

CYWG;2011-12-16 14:00;CYWG 161400Z 17005KT 4SM -SN OVC026 M14/M16 A3039 RMK SC8 SLP315

CYWG;2011-12-16 15:00;CYWG 161500Z 17007KT 8SM -SN FEW030 BKN090 M14/M16 A3038 RMK SC2AC1 SLP312

CYWG;2011-12-16 16:00;CYWG 161600Z 17007KT 15SM SCT048 BKN090 M13/M15 A3039 RMK SC3AC1 SLP316

CYWG;2011-12-16 17:00;CYWG 161700Z 18009KT 15SM -SN FEW026 BKN091 M13/M15 A3039 RMK SC1AC2 SLP317

CYWG;2011-12-16 18:00;CYWG 161800Z 18009KT 15SM -SN BKN020 M12/M14 A3036 RMK SC6 SLP303

CYWG;2011-12-16 19:00;CYWG 161900Z 19011KT 15SM -SN BKN018 M11/M13 A3034 RMK SC5 SLP298

CYWG;2011-12-16 20:00;CYWG 162000Z 18011KT 15SM FEW014 BKN230 M11/M13 A3032 RMK SC1CI2 SLP291

CYWG;2011-12-16 20:50;CYWG 162050Z 19010KT 15SM -SN FEW006 SCT020 BKN230 M10/ RMK SF1SC3CI1

CYWG;2011-12-16 21:00;CYWG 162100Z 19010KT 15SM -SN BKN020 BKN230 M10/M12 A3031 RMK SC6CI1 SLP287

CYWG;2011-12-16 21:29;CYWG 162129Z 19008KT 15SM FEW020 BKN230 M10/ RMK SC2CI2

CYWG;2011-12-16 22:00;CYWG 162200Z 17009KT 15SM FEW020 BKN230 M11/M12 A3030 RMK SC1CI6 SLP282

CYWG;2011-12-16 23:00;CYWG 162300Z 18009KT 15SM FEW150 BKN230 M11/M12 A3028 RMK AC1CI6 SLP277

CYWG;2011-12-17 00:00;CYWG 170000Z 18009KT 15SM FEW027 FEW150 BKN230 M10/M12 A3025 RMK SC1AC1CI5 SLP267

CYWG;2011-12-17 01:00;CYWG 170100Z 18011KT 15SM FEW030 FEW090 BKN230 M10/M12 A3022 RMK SC1AC1CI5 SLP257

CYWG;2011-12-17 02:00;CYWG 170200Z 18012KT 15SM FEW095 BKN230 M10/M12 A3020 RMK AC1CI6 SLP248

CYWG;2011-12-17 03:00;CYWG 170300Z 18013KT 15SM BKN089 OVC230 M10/M11 A3016 RMK AC6CI2 SLP235

CYWG;2011-12-17 04:00;CYWG 170400Z 18015KT 15SM BKN086 BKN220 M08/M10 A3012 RMK AC6CI1 SLP220

CYWG;2011-12-17 05:00;CYWG 170500Z 19016KT 15SM OVC074 M08/M10 A3006 RMK AC7 SLP203

CYWG;2011-12-17 06:00;CYWG 170600Z 19019KT 15SM OVC070 M07/M09 A3001 RMK AC8 SLP181

CYWG;2011-12-17 07:00;CYWG 170700Z 20019G26KT 15SM BKN020 OVC070 M06/M08 A2998 RMK SC6AC2 SLP170

CYWG;2011-12-17 08:00;CYWG 170800Z 21014KT 15SM OVC017 M06/M07 A2996 RMK SC8 SLP166

CYWG;2011-12-17 09:00;CYWG 170900Z 22009KT 15SM OVC017 M04/M06 A2994 RMK SC8 SLP157

CYWG;2011-12-17 10:00;CYWG 171000Z 23009KT 15SM SCT019 M05/M06 A2992 RMK SC4 SLP150

CYWG;2011-12-17 11:00;CYWG 171100Z 24011KT 15SM FEW020 M05/M07 A2990 RMK SC2 SLP143

CYWG;2011-12-17 12:00;CYWG 171200Z 27011KT 15SM FEW020 SCT094 M06/M08 A2991 RMK SC2AC2 SLP146

CYWG;2011-12-17 13:00;CYWG 171300Z 27008KT 15SM FEW096 M08/M09 A2993 RMK AC1 SLP152

CYWG;2011-12-17 14:00;CYWG 171400Z 30009KT 15SM FEW096 M09/M11 A2994 RMK AC2 SLP157

CYWG;2011-12-17 15:00;CYWG 171500Z 29010KT 15SM BKN026 M08/M10 A2996 RMK SC6 SLP165

CYWG;2011-12-17 16:00;CYWG 171600Z 28011KT 15SM BKN028 M06/M09 A2999 RMK SC7 SLP173

CYWG;2011-12-17 17:00;CYWG 171700Z 28009KT 15SM FEW028 M05/M09 A3000 RMK SC2 SLP178

CYWG;2011-12-17 18:00;CYWG 171800Z 27009KT 15SM FEW028 M05/M08 A3001 RMK SC1 SLP180

CYWG;2011-12-17 19:00;CYWG 171900Z 27006KT 15SM FEW028 M04/M08 A3000 RMK SC1 SLP177

CYWG;2011-12-17 20:00;CYWG 172000Z 28010KT 15SM FEW030 M03/M07 A3000 RMK SC1 SLP177

CYWG;2011-12-17 21:00;CYWG 172100Z 29009KT 15SM FEW030 FEW240 M03/M08 A3001 RMK SC1CI0 SLP178

CYWG;2011-12-17 22:00;CYWG 172200Z 24004KT 15SM FEW240 M05/M08 A3002 RMK CI1 SLP179

CYWG;2011-12-17 23:00;CYWG 172300Z 23005KT 15SM FEW240 M05/M09 A3002 RMK CI0 SLP179

CYWG;2011-12-18 00:00;CYWG 180000Z 20005KT 15SM SKC M07/M10 A3000 RMK SLP177

CYWG;2011-12-18 01:00;CYWG 180100Z 21006KT 15SM BKN094 M05/M08 A2999 RMK AC6 SLP172

CYWG;2011-12-18 02:00;CYWG 180200Z 22004KT 15SM BKN099 M05/M08 A2998 RMK AC7 SLP169

CYWG;2011-12-18 03:00;CYWG 180300Z 19005KT 15SM OVC082 M05/M08 A2995 RMK AC8 SLP160

CYWG;2011-12-18 04:00;CYWG 180400Z 19009KT 15SM BKN074 M04/M08 A2991 RMK AC7 SLP147

CYWG;2011-12-18 05:00;CYWG 180500Z 17008KT 15SM SCT076 M06/M08 A2986 RMK AC4 SLP128

CYWG;2011-12-18 06:00;CYWG 180600Z 18009KT 15SM BKN088 M04/M07 A2982 RMK AC6 SLP113

CYWG;2011-12-18 07:00;CYWG 180700Z 17010KT 15SM BKN090 M04/M07 A2977 RMK AC7 SLP097

CYWG;2011-12-18 08:00;CYWG 180800Z 17014KT 15SM BKN096 M04/M07 A2971 RMK AC5 PRESFR SLP077

CYWG;2011-12-18 09:00;CYWG 180900Z 18014KT 15SM SCT090 M05/M07 A2968 RMK AC4 SLP064

CYWG;2011-12-18 10:00;CYWG 181000Z 19012KT 15SM FEW090 M05/M07 A2966 RMK AC2 SLP057

CYWG;2011-12-18 11:00;CYWG 181100Z 19011KT 15SM SCT090 M05/M07 A2962 RMK AC4 SLP044

CYWG;2011-12-18 12:00;CYWG 181200Z 20012KT 15SM BKN110 M04/M06 A2960 RMK AC7 SLP038

CYWG;2011-12-18 13:00;CYWG 181300Z 20011KT 15SM OVC093 M04/M06 A2960 RMK AC8 SLP038

CYWG;2011-12-18 14:00;CYWG 181400Z 19009KT 15SM BKN072 M03/M05 A2957 RMK AC7 SLP028

CYWG;2011-12-18 15:00;CYWG 181500Z 20012KT 15SM BKN070 M03/M05 A2954 RMK AC7 SLP017

CYWG;2011-12-18 16:00;CYWG 181600Z 21005KT 15SM OVC076 M01/M03 A2954 RMK AC8 SLP018

CYWG;2011-12-18 17:00;CYWG 181700Z 26002KT 15SM OVC085 M00/M03 A2954 RMK AC8 SLP019

CYWG;2011-12-18 18:00;CYWG 181800Z 00000KT 15SM OVC100 M00/M03 A2951 RMK AC8 SLP006

CYWG;2011-12-18 19:00;CYWG 181900Z 32004KT 15SM SCT031 BKN100 OVC250 M01/M03 A2953 RMK SC4AC3CI1 SLP011

CYWG;2011-12-18 20:00;CYWG 182000Z 31004KT 15SM SCT027 OVC045 M01/M03 A2956 RMK SC3SC5 SLP022

CYWG;2011-12-18 20:27;CYWG 182027Z 36007KT 12SM -SN BKN023 OVC035 00/ RMK SC5SC3

CYWG;2011-12-18 20:42;CYWG 182042Z 35009KT 2SM -SN OVC015 00/ RMK SN4SC4

CYWG;2011-12-18 21:00;CYWG 182100Z 35009KT 1SM R31/P6000FT/D R36/P6000FT/D -SHSN VV008 M00/M01 A2959 RMK SN8 SLP033

CYWG;2011-12-18 21:33;CYWG 182133Z 33011KT 1SM R31/P6000FT/U R36/P6000FT/U -SHSN VV004 M01/ RMK SN8

CYWG;2011-12-18 22:00;CYWG 182200Z 32011KT 3SM -SHSN OVC013 M01/M01 A2964 RMK SN3SC5 SLP048

CYWG;2011-12-18 22:43;CYWG 182243Z 32010KT 6SM -SHSN OVC013 M01/ RMK SC8

CYWG;2011-12-18 23:00;CYWG 182300Z 32010KT 6SM -SHSN OVC013 M01/M01 A2967 RMK SC8 /S01/ SLP060

CYWG;2011-12-18 23:34;CYWG 182334Z 33012KT 10SM OVC013 M01/ RMK SC8

CYWG;2011-12-19 00:00;CYWG 190000Z 34016KT 12SM OVC016 M01/M03 A2973 RMK SC8 SLP080

CYWG;2011-12-19 01:00;CYWG 190100Z 34010KT 15SM OVC016 M01/M03 A2977 RMK SC8 SLP094

CYWG;2011-12-19 02:00;CYWG 190200Z 32019KT 15SM OVC018 M02/M05 A2981 RMK SC8 SLP108

CYWG;2011-12-19 03:00;CYWG 190300Z 33019KT 10SM -SN OVC016 M03/M05 A2984 RMK SC8 SLP120

CYWG;2011-12-19 04:00;CYWG 190400Z 34011G20KT 12SM -SN OVC018 M03/M06 A2987 RMK SC8 SLP130

CYWG;2011-12-19 04:25;CYWG 190425Z 34014KT 15SM OVC018 M04/ RMK SC8

CYWG;2011-12-19 05:00;CYWG 190500Z 33011KT 15SM OVC018 M04/M06 A2991 RMK SC8 SLP142

CYWG;2011-12-19 06:00;CYWG 190600Z 34015G20KT 15SM OVC016 M04/M06 A2995 RMK SC8 SLP155

CYWG;2011-12-19 07:00;CYWG 190700Z 35011KT 15SM OVC016 M05/M07 A2997 RMK SC8 SLP164

CYWG;2011-12-19 08:00;CYWG 190800Z 34009KT 15SM OVC016 M05/M07 A3000 RMK SC8 SLP173

CYWG;2011-12-19 09:00;CYWG 190900Z 34008KT 15SM OVC016 M05/M07 A3003 RMK SC8 SLP184

CYWG;2011-12-19 10:00;CYWG 191000Z 35013KT 15SM OVC016 M05/M08 A3006 RMK SC8 SLP193

CYWG;2011-12-19 11:00;CYWG 191100Z 33013KT 15SM OVC018 M05/M08 A3009 RMK SC8 SLP205

CYWG;2011-12-19 12:00;CYWG 191200Z 34006KT 15SM OVC016 M06/M08 A3012 RMK SC8 SLP216

CYWG;2011-12-19 13:00;CYWG 191300Z 30007KT 15SM OVC018 M06/M08 A3015 RMK SC8 SLP225

CYWG;2011-12-19 14:00;CYWG 191400Z 31006KT 15SM OVC018 M06/M08 A3017 RMK SC8 SLP231

CYWG;2011-12-19 15:00;CYWG 191500Z 31005KT 15SM OVC018 M06/M08 A3018 RMK SC8 SLP236

CYWG;2011-12-19 16:00;CYWG 191600Z 30006KT 15SM OVC020 M05/M08 A3021 RMK SC8 SLP245

CYWG;2011-12-19 17:00;CYWG 191700Z 27005KT 15SM OVC023 M05/M07 A3022 RMK SC8 SLP249

CYWG;2011-12-19 18:00;CYWG 191800Z 26006KT 15SM OVC021 M05/M07 A3023 RMK SC8 SLP252

CYWG;2011-12-19 19:00;CYWG 191900Z 23005KT 15SM OVC021 M05/M07 A3021 RMK SC8 SLP247

CYWG;2011-12-19 20:00;CYWG 192000Z 22007KT 15SM OVC021 M04/M06 A3022 RMK SC8 SLP249

CYWG;2011-12-19 21:00;CYWG 192100Z 21011KT 15SM BKN023 M04/M07 A3019 RMK SC6 SLP238

CYWG;2011-12-19 22:00;CYWG 192200Z 22008KT 15SM FEW027 FEW070 FEW210 M05/M08 A3019 RMK SC1AC1CI0 SLP238

CYWG;2011-12-19 23:00;CYWG 192300Z 22011KT 15SM FEW080 M06/M09 A3016 RMK AC1 SLP228

CYWG;2011-12-20 00:00;CYWG 200000Z 22010G15KT 15SM OVC014 M07/M09 A3014 RMK ST8 SLP224

CYWG;2011-12-20 01:00;CYWG 200100Z 23008KT 15SM SKC M08/M10 A3013 RMK SLP221

CYWG;2011-12-20 02:00;CYWG 200200Z 20010KT 15SM BKN088 M08/M10 A3010 RMK AC6 SLP211

CYWG;2011-12-20 03:00;CYWG 200300Z 19013G19KT 15SM FEW088 M08/M10 A3005 RMK AC2 SLP192

CYWG;2011-12-20 04:00;CYWG 200400Z 20013KT 15SM SCT086 M07/M10 A3003 RMK AC4 SLP186

CYWG;2011-12-20 05:00;CYWG 200500Z 19020KT 15SM FEW090 BKN250 M07/M09 A2997 RMK AC2CI2 SLP168

CYWG;2011-12-20 06:00;CYWG 200600Z 19018KT 15SM FEW090 BKN250 M06/M09 A2994 RMK AC2CI2 SLP154

CYWG;2011-12-20 07:00;CYWG 200700Z 19019G25KT 15SM FEW090 SCT250 M06/M09 A2989 RMK AC2CI1 SLP137

CYWG;2011-12-20 08:00;CYWG 200800Z 19020G26KT 15SM SCT100 BKN250 M05/M08 A2983 RMK AC4CI2 SLP118

CYWG;2011-12-20 09:00;CYWG 200900Z 19017G22KT 15SM BKN100 M04/M08 A2978 RMK AC6 SLP098

CYWG;2011-12-20 10:00;CYWG 201000Z 20018KT 15SM BKN084 M03/M07 A2972 RMK AC7 SLP080

CYWG;2011-12-20 11:00;CYWG 201100Z 21017G26KT 15SM OVC078 M02/M07 A2969 RMK AC8 SLP070

CYWG;2011-12-20 12:00;CYWG 201200Z 20018G25KT 15SM OVC059 M02/M06 A2966 RMK SC8 SLP059

CYWG;2011-12-20 13:00;CYWG 201300Z 20017KT 15SM OVC079 M02/M06 A2961 RMK AC8 SLP043

CYWG;2011-12-20 14:00;CYWG 201400Z 20015KT 15SM BKN096 M03/M06 A2960 RMK AC7 SLP039

CYWG;2011-12-20 15:00;CYWG 201500Z 19018KT 15SM BKN096 BKN250 M02/M06 A2956 RMK AC6CI1 SLP026

CYWG;2011-12-20 16:00;CYWG 201600Z 21012KT 15SM BKN088 OVC250 M02/M06 A2958 RMK AC7CI1 SLP032

CYWG;2011-12-20 17:00;CYWG 201700Z 20013KT 15SM BKN082 OVC250 M01/M05 A2956 RMK AC7CI1 SLP026

CYWG;2011-12-20 18:00;CYWG 201800Z 20012G17KT 15SM BKN085 OVC250 M01/M05 A2952 RMK AC7CI1 SLP009

CYWG;2011-12-20 18:28;CYWG 201828Z 21009KT 15SM -PL FEW047 BKN062 OVC250 M00/ RMK SC1SC6CI1

CYWG;2011-12-20 18:43;CYWG 201843Z 20013KT 15SM BKN047 BKN085 OVC250 M00/ RMK SC5AC2CI2

CYWG;2011-12-20 19:00;CYWG 201900Z 20012KT 15SM -RA BKN047 BKN098 OVC250 M00/M04 A2949 RMK SC5AC2CI1 SLP999

CYWG;2011-12-20 19:21;CYWG 201921Z 20012KT 15SM BKN049 BKN081 OVC250 00/ RMK SC5AC2CI1

CYWG;2011-12-20 20:00;CYWG 202000Z 21012G18KT 15SM SCT050 OVC081 00/M04 A2947 RMK SC3AC5 SLP992

CYWG;2011-12-20 21:00;CYWG 202100Z 20014KT 15SM FEW050 OVC079 01/M03 A2945 RMK SC2AC6 SLP984

CYWG;2011-12-20 22:00;CYWG 202200Z 21021G29KT 15SM BKN072 OVC098 01/M03 A2941 RMK AC5AC2 SLP972

CYWG;2011-12-20 23:00;CYWG 202300Z 23010G15KT 15SM OVC089 02/M03 A2945 RMK AC7 SLP986

CYWG;2011-12-21 00:00;CYWG 210000Z 22010KT 15SM OVC100 01/M03 A2945 RMK AC7 SLP984

CYWG;2011-12-21 01:00;CYWG 210100Z 25006KT 15SM BKN120 01/M03 A2946 RMK AC6 SLP989

CYWG;2011-12-21 02:00;CYWG 210200Z 26007KT 15SM BKN120 M01/M03 A2948 RMK AC6 SLP993

CYWG;2011-12-21 03:00;CYWG 210300Z 28007KT 15SM SCT038 M05/M06 A2950 RMK SC3 SLP002

CYWG;2011-12-21 04:00;CYWG 210400Z 29009KT 15SM FEW035 M05/M06 A2952 RMK SC1 SLP010

CYWG;2011-12-21 05:00;CYWG 210500Z 29007KT 15SM FEW097 SCT240 M06/M07 A2953 RMK AC1CI1 SLP013

CYWG;2011-12-21 06:00;CYWG 210600Z 32007KT 15SM OVC100 M05/M05 A2954 RMK AC8 SLP018

CYWG;2011-12-21 07:00;CYWG 210700Z 28005KT 15SM SCT087 BKN130 M06/M07 A2957 RMK AC3AC2 SLP026

CYWG;2011-12-21 08:00;CYWG 210800Z 33008KT 15SM SCT120 M05/M06 A2959 RMK AC3 SLP032

CYWG;2011-12-21 09:00;CYWG 210900Z 33008KT 15SM SCT120 M06/M06 A2961 RMK AC3 SLP040

CYWG;2011-12-21 10:00;CYWG 211000Z 33007KT 15SM FEW047 SCT120 M06/M06 A2964 RMK SC1AC3 SLP050

CYWG;2011-12-21 11:00;CYWG 211100Z 32005KT 15SM BKN045 M05/M06 A2966 RMK SC7 SLP056

CYWG;2011-12-21 12:00;CYWG 211200Z 32008KT 15SM BKN048 M05/M06 A2969 RMK SC5 SLP067

CYWG;2011-12-21 13:00;CYWG 211300Z 31008KT 15SM OVC050 M05/M05 A2973 RMK SC8 SLP081

CYWG;2011-12-21 14:00;CYWG 211400Z 33007KT 15SM OVC044 M04/M05 A2975 RMK SC8 SLP088

CYWG;2011-12-21 15:00;CYWG 211500Z 30007KT 15SM FEW015 OVC040 M04/M05 A2979 RMK SF2SC6 SLP104

CYWG;2011-12-21 16:00;CYWG 211600Z 34010KT 15SM OVC027 M03/M06 A2983 RMK SC8 SLP117

CYWG;2011-12-21 16:44;CYWG 211644Z 33010KT 15SM -SN OVC023 M03/ RMK SC8

CYWG;2011-12-21 17:00;CYWG 211700Z 33013KT 15SM -SN OVC020 M03/M06 A2986 RMK SC8 SLP126

CYWG;2011-12-21 18:00;CYWG 211800Z 34015KT 15SM -SN BKN019 OVC024 M04/M08 A2989 RMK SC6SC2 SLP135

CYWG;2011-12-21 18:21;CYWG 211821Z 33013KT 15SM FEW019 BKN030 BKN037 M04/ RMK SF2SC2SC1

CYWG;2011-12-21 19:00;CYWG 211900Z 33012KT 15SM BKN028 M03/M08 A2988 RMK SC6 SLP134

CYWG;2011-12-21 20:00;CYWG 212000Z 31013KT 15SM FEW025 FEW045 M04/M09 A2989 RMK SC1SC1 SLP137

CYWG;2011-12-21 21:00;CYWG 212100Z 34015G21KT 15SM FEW025 SCT045 M05/M09 A2993 RMK SC1SC2 SLP151

CYWG;2011-12-21 22:00;CYWG 212200Z 33014G20KT 15SM FEW020 BKN039 M06/M10 A2997 RMK SC1SC6 SLP165

CYWG;2011-12-21 23:00;CYWG 212300Z 33007KT 15SM BKN041 M06/M10 A3000 RMK SC6 SLP174

CYWG;2011-12-22 00:00;CYWG 220000Z 32009KT 15SM BKN047 M06/M10 A3003 RMK SC7 SLP187

CYWG;2011-12-22 01:00;CYWG 220100Z 29006KT 15SM OVC049 M06/M09 A3006 RMK SC8 SLP194

CYWG;2011-12-22 02:00;CYWG 220200Z 33008KT 15SM BKN047 OVC079 M06/M09 A3008 RMK SC6AC2 SLP202

CYWG;2011-12-22 03:00;CYWG 220300Z 35009KT 15SM OVC045 M06/M10 A3010 RMK SC8 SLP210

CYWG;2011-12-22 03:42;CYWG 220342Z 31006KT 15SM OVC043 M06/ RMK SC8

CYWG;2011-12-22 04:00;CYWG 220400Z 28006KT 15SM OVC043 M07/M09 A3012 RMK SC8 SLP215

CYWG;2011-12-22 05:00;CYWG 220500Z 30006KT 15SM -SN BKN043 OVC090 M07/M08 A3015 RMK SC6AC2 SLP224

CYWG;2011-12-22 06:00;CYWG 220600Z 29006KT 15SM -SN FEW016 OVC043 M07/M08 A3016 RMK SC2SC6 SLP230

CYWG;2011-12-22 06:34;CYWG 220634Z 30007KT 15SM BKN043 OVC087 M06/ RMK SC6AC2

CYWG;2011-12-22 07:00;CYWG 220700Z 30007KT 15SM FEW006 FEW020 OVC043 M07/M08 A3017 RMK SF1SC2SC6 SF TR SLP233

CYWG;2011-12-22 08:00;CYWG 220800Z 30005KT 15SM OVC043 M07/M09 A3019 RMK SC8 SLP238

CYWG;2011-12-22 09:00;CYWG 220900Z 23004KT 15SM BKN038 OVC095 M07/M09 A3019 RMK SC7AC1 SLP240

CYWG;2011-12-22 10:00;CYWG 221000Z 25005KT 15SM OVC034 M07/M09 A3020 RMK SC8 SLP243

CYWG;2011-12-22 11:00;CYWG 221100Z 23003KT 15SM BKN030 OVC095 M07/M09 A3020 RMK SC7AC1 SLP243

CYWG;2011-12-22 11:54;CYWG 221154Z 25006KT 3SM -SN OVC027 M07/ RMK SC8

CYWG;2011-12-22 12:00;CYWG 221200Z 24004KT 3SM -SN OVC023 M07/M09 A3020 RMK SC8 SLP243

CYWG;2011-12-22 12:18;CYWG 221218Z 25006KT 1 1/2SM -SN OVC021 M07/ RMK SC8

CYWG;2011-12-22 12:39;CYWG 221239Z 26006KT 4SM -SN OVC016 M08/ RMK SC8

CYWG;2011-12-22 12:48;CYWG 221248Z 25006KT 2SM -SN OVC016 M08/ RMK SC8

CYWG;2011-12-22 13:00;CYWG 221300Z 26006KT 2SM -SN OVC016 M09/M10 A3021 RMK SC8 SLP247

CYWG;2011-12-22 13:25;CYWG 221325Z 26004KT 5SM -SN BKN016 BKN075 M09/ RMK SC5AC2

CYWG;2011-12-22 13:41;CYWG 221341Z 25004KT 15SM FEW021 M10/ RMK SC2

CYWG;2011-12-22 14:00;CYWG 221400Z CCA 25003KT 15SM FEW025 SCT075 M10/M11 A3021 RMK SC2AC1 /S01/ SLP247

CYWG;2011-12-22 15:00;CYWG 221500Z 21003KT 15SM BKN034 M12/M12 A3021 RMK SC5 SLP250

CYWG;2011-12-22 16:00;CYWG 221600Z 18003KT 15SM BKN025 M08/M10 A3021 RMK SC7 SLP250

CYWG;2011-12-22 17:00;CYWG 221700Z 19005KT 15SM BKN023 M07/M09 A3021 RMK SC7 SLP250

CYWG;2011-12-22 18:00;CYWG 221800Z 18005KT 15SM OVC021 M07/M09 A3020 RMK SC8 OBS TAKEN +01 SLP245

CYWG;2011-12-22 19:00;CYWG 221900Z 19007KT 15SM OVC017 M06/M08 A3019 RMK SC8 SLP240

CYWG;2011-12-22 20:00;CYWG 222000Z 19008KT 15SM OVC013 M06/M08 A3017 RMK SC8 SLP235

CYWG;2011-12-22 21:00;CYWG 222100Z 22006KT 15SM BKN013 M05/M08 A3016 RMK SC7 SLP229

CYWG;2011-12-22 22:00;CYWG 222200Z 20004KT 15SM SCT013 M06/M08 A3016 RMK SC3 SLP230

CYWG;2011-12-22 23:00;CYWG 222300Z 17008KT 15SM BKN027 M05/M07 A3014 RMK SC7 SLP223

CYWG;2011-12-23 00:00;CYWG 230000Z 18009KT 15SM BKN027 M05/M07 A3011 RMK SC7 SLP212

CYWG;2011-12-23 01:00;CYWG 230100Z 18012KT 15SM BKN031 OVC070 M04/M06 A3008 RMK SC6AC2 SLP203

CYWG;2011-12-23 02:00;CYWG 230200Z 18012KT 15SM FEW030 BKN082 M05/M07 A3004 RMK SC2AC5 SLP190

CYWG;2011-12-23 03:00;CYWG 230300Z 18012KT 15SM OVC074 M05/M07 A2998 RMK AC8 SLP171

CYWG;2011-12-23 04:00;CYWG 230400Z 18014KT 15SM OVC057 M04/M07 A2994 RMK SC8 SLP157

CYWG;2011-12-23 04:55;CYWG 230455Z 18012KT 10SM -SN OVC023 M04/ RMK SC8

CYWG;2011-12-23 05:00;CYWG 230500Z 18012KT 10SM -SN OVC023 M04/M07 A2990 RMK SC8 SLP143

CYWG;2011-12-23 06:00;CYWG 230600Z 18011KT 10SM -SN OVC017 M04/M06 A2987 RMK SC8 SLP129

CYWG;2011-12-23 07:00;CYWG 230700Z 18011KT 15SM -SN OVC022 M04/M07 A2982 RMK SC8 SLP113

CYWG;2011-12-23 07:20;CYWG 230720Z 20008KT 15SM FEW022 OVC053 M04/ RMK SC2SC6

CYWG;2011-12-23 07:30;CYWG 230730Z 20010KT 10SM -SN OVC049 M04/ RMK SC8

CYWG;2011-12-23 08:00;CYWG 230800Z 18006KT 10SM -SN OVC039 M04/M06 A2980 RMK SC8 SLP107

CYWG;2011-12-23 08:10;CYWG 230810Z 18007KT 15SM OVC039 M04/ RMK SC8

CYWG;2011-12-23 09:00;CYWG 230900Z 22005KT 15SM BKN036 BKN090 M04/M06 A2980 RMK SC6AC2 SLP107

CYWG;2011-12-23 10:00;CYWG 231000Z 28008KT 15SM FEW040 BKN091 M05/M07 A2980 RMK SC2AC4 SLP106

CYWG;2011-12-23 11:00;CYWG 231100Z 30008KT 15SM FEW040 SCT090 M08/M09 A2980 RMK SC1AC2 SLP108

CYWG;2011-12-23 12:00;CYWG 231200Z 31011KT 15SM SKC M08/M09 A2984 RMK SLP120

CYWG;2011-12-23 13:00;CYWG 231300Z 32012KT 15SM SKC M08/M09 A2987 RMK SLP129

CYWG;2011-12-23 14:00;CYWG 231400Z 32014KT 15SM FEW013 M08/M10 A2989 RMK ST1 SLP137

CYWG;2011-12-23 14:15;CYWG 231415Z 32015KT 15SM BKN013 M08/ RMK ST5

CYWG;2011-12-23 15:00;CYWG 231500Z 33012KT 15SM OVC017 M07/M08 A2992 RMK SC8 SLP148

CYWG;2011-12-23 16:00;CYWG 231600Z 32012G17KT 15SM OVC019 M06/M08 A2995 RMK ST8 SLP157

CYWG;2011-12-23 17:00;CYWG 231700Z 32012KT 15SM OVC019 M06/M08 A2997 RMK ST8 SLP166

CYWG;2011-12-23 17:52;CYWG 231752Z 32014KT 15SM -SN OVC019 M05/ RMK ST8

CYWG;2011-12-23 18:00;CYWG 231800Z 32014KT 15SM -SN OVC019 M05/M07 A2999 RMK ST8 SLP170

CYWG;2011-12-23 19:00;CYWG 231900Z 31009KT 15SM -SN OVC021 M05/M07 A3000 RMK ST8 SLP176

CYWG;2011-12-23 20:00;CYWG 232000Z 31012KT 15SM -SN OVC021 M05/M07 A3001 RMK SC8 SLP177

CYWG;2011-12-23 21:00;CYWG 232100Z 31011KT 15SM FEW010 OVC021 M05/M07 A3001 RMK SF1SC8 SLP179

CYWG;2011-12-23 22:00;CYWG 232200Z 32004KT 12SM FEW010 OVC021 M05/M07 A3001 RMK SF1SC8 SLP179

CYWG;2011-12-23 23:00;CYWG 232300Z 27005KT 12SM OVC021 M05/M07 A3004 RMK SC8 OBS TAKEN +06 SLP189

CYWG;2011-12-24 00:00;CYWG 240000Z 25004KT 15SM OVC021 M05/M07 A3004 RMK SC8 SLP188

CYWG;2011-12-24 01:00;CYWG 240100Z 24003KT 15SM OVC019 M06/M08 A3004 RMK SC8 SLP188

CYWG;2011-12-24 02:00;CYWG 240200Z 22005KT 15SM OVC019 M06/M08 A3003 RMK SC8 SLP185

CYWG;2011-12-24 03:00;CYWG 240300Z 22005KT 15SM OVC017 M06/M08 A3003 RMK SC8 SLP185

CYWG;2011-12-24 04:00;CYWG 240400Z 19008KT 15SM OVC017 M07/M09 A3001 RMK SC8 SLP178

CYWG;2011-12-24 05:00;CYWG 240500Z 17007KT 15SM SCT015 BKN100 M08/M09 A3000 RMK SC3AC3 SLP176

CYWG;2011-12-24 06:00;CYWG 240600Z 17010KT 15SM BKN100 M08/M09 A2999 RMK AC7 SLP173

CYWG;2011-12-24 07:00;CYWG 240700Z 18013KT 15SM OVC120 M07/M09 A2997 RMK AC8 SLP165

CYWG;2011-12-24 08:00;CYWG 240800Z 18014KT 15SM OVC078 M07/M09 A2994 RMK AC8 SLP155

CYWG;2011-12-24 09:00;CYWG 240900Z 18016KT 15SM OVC064 M07/M09 A2993 RMK SC8 SLP152

CYWG;2011-12-24 10:00;CYWG 241000Z 18015G20KT 15SM SCT084 M07/M09 A2992 RMK AC3 SLP149

CYWG;2011-12-24 11:00;CYWG 241100Z 18014G19KT 15SM FEW089 M08/M09 A2991 RMK AC2 SLP145

CYWG;2011-12-24 12:00;CYWG 241200Z 18013KT 15SM SKC M09/M10 A2988 RMK SLP136

CYWG;2011-12-24 13:00;CYWG 241300Z 19014KT 15SM SKC M09/M11 A2988 RMK SLP136

CYWG;2011-12-24 14:00;CYWG 241400Z 19010KT 15SM SKC M10/M11 A2986 RMK SLP128

CYWG;2011-12-24 15:00;CYWG 241500Z 19009KT 15SM SCT230 M10/M11 A2986 RMK CI1 SLP129

CYWG;2011-12-24 16:00;CYWG 241600Z 20008KT 15SM BKN230 M08/M10 A2985 RMK CI4 SLP126

CYWG;2011-12-24 17:00;CYWG 241700Z 21007KT 15SM SCT088 BKN230 M05/M08 A2984 RMK AS3CI2 SLP123

CYWG;2011-12-24 18:00;CYWG 241800Z 23008KT 15SM BKN140 M03/M07 A2983 RMK AS7 SLP117

CYWG;2011-12-24 19:00;CYWG 241900Z 25006KT 15SM BKN140 M01/M05 A2980 RMK AS7 SLP107

CYWG;2011-12-24 20:00;CYWG 242000Z 25008KT 15SM BKN140 BKN230 01/M04 A2978 RMK AC4CI1 SLP100

CYWG;2011-12-24 21:00;CYWG 242100Z 26008KT 15SM BKN140 BKN230 01/M04 A2977 RMK AC5CI1 SLP095

CYWG;2011-12-24 22:00;CYWG 242200Z 27011KT 15SM FEW140 FEW230 01/M04 A2977 RMK AC1CI0 SLP094

CYWG;2011-12-24 23:00;CYWG 242300Z 26008KT 15SM SCT110 BKN140 M00/M04 A2976 RMK AC3AC1 SLP091

CYWG;2011-12-25 00:00;CYWG 250000Z 28014KT 15SM BKN091 BKN140 01/M04 A2977 RMK AC6AC1 SLP094

CYWG;2011-12-25 01:00;CYWG 250100Z 29016KT 15SM SCT047 BKN090 01/M03 A2978 RMK SC3AC2 SLP099

CYWG;2011-12-25 02:00;CYWG 250200Z 32016KT 15SM -SN BKN025 OVC070 02/M01 A2983 RMK SC6AC1 SLP116

CYWG;2011-12-25 03:00;CYWG 250300Z 30013KT 15SM SCT031 00/M02 A2986 RMK SC3 SLP127

CYWG;2011-12-25 04:00;CYWG 250400Z 31013KT 15SM BKN040 01/M01 A2988 RMK SC6 SLP134

CYWG;2011-12-25 05:00;CYWG 250500Z 29012KT 15SM SCT069 M00/M02 A2990 RMK AC3 SLP140

CYWG;2011-12-25 06:00;CYWG 250600Z 29012KT 15SM FEW037 M00/M03 A2992 RMK SC2 SLP146

CYWG;2011-12-25 07:00;CYWG 250700Z 28014KT 15SM BKN034 M00/M03 A2995 RMK SC6 SLP156

CYWG;2011-12-25 08:00;CYWG 250800Z 29011KT 15SM BKN035 M01/M04 A2998 RMK SC5 SLP166

CYWG;2011-12-25 09:00;CYWG 250900Z 30013KT 15SM BKN037 M01/M04 A3003 RMK SC5 SLP181

CYWG;2011-12-25 10:00;CYWG 251000Z 28011KT 15SM BKN039 M01/M04 A3005 RMK SC6 SLP189

CYWG;2011-12-25 11:00;CYWG 251100Z 28010KT 15SM BKN043 M02/M04 A3007 RMK SC6 SLP196

CYWG;2011-12-25 12:00;CYWG 251200Z 28008KT 15SM FEW032 BKN085 M02/M04 A3010 RMK SC2AC3 SLP205

CYWG;2011-12-25 13:00;CYWG 251300Z 28011KT 15SM BKN041 M01/M04 A3013 RMK SC7 SLP217

CYWG;2011-12-25 14:00;CYWG 251400Z 29008KT 15SM BKN037 M03/M05 A3014 RMK SC3 SLP219

CYWG;2011-12-25 15:00;CYWG 251500Z 28006KT 15SM FEW037 M07/M09 A3015 RMK SC1 TR SC SLP226

CYWG;2011-12-25 16:00;CYWG 251600Z 27007KT 15SM SKC M03/M06 A3017 RMK OBS TKN +16 SLP233

CYWG;2011-12-25 17:00;CYWG 251700Z 26007KT 15SM FEW250 M02/M05 A3016 RMK CI0 SLP230

CYWG;2011-12-25 18:00;CYWG 251800Z 26007KT 15SM FEW250 M01/M05 A3015 RMK CI1 SLP223

CYWG;2011-12-25 19:00;CYWG 251900Z 21005KT 15SM FEW090 BKN250 01/M04 A3012 RMK AC1CI2 SLP212

CYWG;2011-12-25 20:00;CYWG 252000Z 19007KT 15SM BKN100 BKN250 01/M03 A3008 RMK AC5CI1 SLP201

CYWG;2011-12-25 21:00;CYWG 252100Z 18011KT 15SM BKN100 02/M02 A3004 RMK AC7 SLP186

CYWG;2011-12-25 22:00;CYWG 252200Z 18012KT 15SM BKN100 OVC250 02/M02 A3000 RMK AC6CI2 SLP173

CYWG;2011-12-25 23:00;CYWG 252300Z 18016KT 15SM SCT093 OVC250 02/M03 A2995 RMK AC4CI3 SLP154

CYWG;2011-12-26 00:00;CYWG 260000Z 18018KT 15SM BKN083 02/M03 A2989 RMK AC7 SLP135

CYWG;2011-12-26 01:00;CYWG 260100Z 19020G26KT 15SM SCT080 BKN250 02/M03 A2983 RMK AC4CI2 PRESFR SLP113

CYWG;2011-12-26 02:00;CYWG 260200Z 20022G27KT 15SM FEW080 BKN250 02/M04 A2980 RMK AC2CI3 SLP103

CYWG;2011-12-26 03:00;CYWG 260300Z 19017G24KT 15SM FEW100 OVC250 01/M04 A2974 RMK AC2CI4 PRESFR SLP083

CYWG;2011-12-26 04:00;CYWG 260400Z 19018KT 15SM OVC120 02/M03 A2970 RMK AC8 SLP071

CYWG;2011-12-26 04:19;CYWG 260419Z 19017KT 15SM OVC120 01/ RMK AC8

CYWG;2011-12-26 05:00;CYWG 260500Z 19014KT 15SM OVC120 02/M03 A2966 RMK AC8 SLP059

CYWG;2011-12-26 06:00;CYWG 260600Z 19012KT 15SM OVC093 02/M02 A2964 RMK AC8 SLP048

CYWG;2011-12-26 07:00;CYWG 260700Z 19013KT 15SM OVC093 03/M02 A2960 RMK AC8 SLP035

CYWG;2011-12-26 08:00;CYWG 260800Z 19013KT 15SM OVC085 03/M01 A2955 RMK AC8 SLP020

CYWG;2011-12-26 09:00;CYWG 260900Z 20013KT 15SM OVC085 03/M01 A2953 RMK AC8 SLP010

CYWG;2011-12-26 10:00;CYWG 261000Z 19012KT 15SM OVC100 03/M02 A2949 RMK AC8 SLP998

CYWG;2011-12-26 11:00;CYWG 261100Z 19012G17KT 15SM OVC120 02/M02 A2946 RMK AC8 SLP987

CYWG;2011-12-26 12:00;CYWG 261200Z 20006KT 15SM OVC120 02/M03 A2942 RMK AC8 SLP973

CYWG;2011-12-26 13:00;CYWG 261300Z 20009G15KT 15SM BKN091 00/M03 A2939 RMK AC6 SLP964

CYWG;2011-12-26 14:00;CYWG 261400Z 20009KT 15SM SCT091 OVC120 00/M03 A2937 RMK AC3AC5 SLP956

CYWG;2011-12-26 15:00;CYWG 261500Z 20010KT 15SM SCT090 BKN120 00/M03 A2934 RMK AC2AC4 SLP945

CYWG;2011-12-26 16:00;CYWG 261600Z 21006KT 15SM SCT090 BKN120 01/M03 A2932 RMK AC4AC2 SLP941

CYWG;2011-12-26 17:00;CYWG 261700Z 24010KT 15SM BKN120 04/M02 A2933 RMK AC5 SLP944

CYWG;2011-12-26 18:00;CYWG 261800Z 28010KT 15SM BKN120 04/M01 A2932 RMK AC5 SLP939

CYWG;2011-12-26 19:00;CYWG 261900Z 30011KT 15SM FEW120 04/M01 A2932 RMK AC2 SLP937

CYWG;2011-12-26 20:00;CYWG 262000Z 29011KT 15SM FEW120 04/M01 A2934 RMK AC2 SLP945

CYWG;2011-12-26 20:54;CYWG 262054Z 30017KT 15SM SCT040 BKN120 02/ RMK SC4AC2

CYWG;2011-12-26 21:00;CYWG 262100Z 30017KT 15SM FEW010 SCT040 BKN100 02/M00 A2939 RMK CF1SC3AC2 SLP963

CYWG;2011-12-26 21:32;CYWG 262132Z 31018KT 15SM -RA BKN023 02/ RMK SC7

CYWG;2011-12-26 21:41;CYWG 262141Z 32023G29KT 10SM -RASN OVC012 02/ RMK SC8

CYWG;2011-12-26 22:00;CYWG 262200Z 32018G26KT 1SM R31/P6000FT/D R36/P6000FT/D -SN VV007 01/00 A2947 RMK SN8 PRESRR SLP989

CYWG;2011-12-26 22:07;CYWG 262207Z 32020G25KT 1/2SM R31/P6000FT/D R36/P6000FT/D SN VV003 00/ RMK SN8

CYWG;2011-12-26 22:32;CYWG 262232Z 32019G26KT 3/4SM R31/P6000FT/U R36/P6000FT/U -SN VV005 00/ RESN RMK SN8

CYWG;2011-12-26 22:40;CYWG 262240Z 32020G26KT 1 1/2SM -SN VV005 00/ RESN RMK SN8

CYWG;2011-12-26 23:00;CYWG 262300Z CCA 33020G28KT 2SM -SN BR OVC006 M00/M00 A2955 RESN RMK ST8 /S01/ SLP014

CYWG;2011-12-26 23:12;CYWG 262312Z 33020G28KT 3SM -SN BR SCT006 OVC009 M00/ RMK SF4ST4

CYWG;2011-12-26 23:20;CYWG 262320Z 34022G31KT 8SM -SN FEW006 OVC014 M01/ RMK SF2SC6

CYWG;2011-12-26 23:36;CYWG 262336Z 33023G28KT 8SM -SN OVC008 M01/ RMK ST8

CYWG;2011-12-26 23:51;CYWG 262351Z 34026G32KT 15SM SCT009 OVC014 M02/ RMK ST4SC4

CYWG;2011-12-27 00:00;CYWG 270000Z 33022G29KT 15SM FEW009 OVC014 M02/M03 A2963 RMK ST2SC6 PRESRR SLP046

CYWG;2011-12-27 01:00;CYWG 270100Z 35023G28KT 15SM BKN014 OVC029 M04/M06 A2971 RMK SC6SC2 PRESRR SLP073

CYWG;2011-12-27 02:00;CYWG 270200Z 36017G28KT 15SM OVC012 M06/M08 A2978 RMK SC8 PRESRR SLP094

CYWG;2011-12-27 03:00;CYWG 270300Z 36020G27KT 15SM OVC014 M07/M09 A2983 RMK SC8 SLP116

CYWG;2011-12-27 04:00;CYWG 270400Z 35017G22KT 15SM BKN016 OVC054 M08/M11 A2989 RMK SC6SC2 SLP134

CYWG;2011-12-27 05:00;CYWG 270500Z 35014KT 15SM SCT012 M10/M12 A2994 RMK SC3 SLP153

CYWG;2011-12-27 06:00;CYWG 270600Z 35018KT 15SM FEW009 M12/M14 A2999 RMK SF2 SLP173

CYWG;2011-12-27 07:00;CYWG 270700Z 35010G18KT 15SM FEW009 M14/M16 A3003 RMK SF2 SLP184

CYWG;2011-12-27 08:00;CYWG 270800Z 36015KT 15SM FEW009 M15/M17 A3008 RMK SF1 SLP202

CYWG;2011-12-27 09:00;CYWG 270900Z 01013KT 15SM SKC M16/M18 A3009 RMK SLP208

CYWG;2011-12-27 10:00;CYWG 271000Z 01011KT 15SM SKC M17/M19 A3014 RMK SLP222

CYWG;2011-12-27 11:00;CYWG 271100Z 01012KT 15SM SKC M18/M19 A3015 RMK SLP227

CYWG;2011-12-27 12:00;CYWG 271200Z 36007KT 15SM SKC M18/M20 A3018 RMK SLP241

CYWG;2011-12-27 13:00;CYWG 271300Z 03009KT 15SM SKC M19/M20 A3016 RMK SLP234

CYWG;2011-12-27 14:00;CYWG 271400Z 01004KT 15SM SKC M20/M21 A3016 RMK SLP235

CYWG;2011-12-27 15:00;CYWG 271500Z 34003KT 15SM FEW220 M20/M21 A3018 RMK CI1 SLP241

CYWG;2011-12-27 16:00;CYWG 271600Z 03004KT 15SM BKN220 M19/M20 A3019 RMK CI1 SLP244

CYWG;2011-12-27 17:00;CYWG 271700Z 00000KT 15SM BKN220 M17/M20 A3018 RMK CI2 SLP243

CYWG;2011-12-27 18:00;CYWG 271800Z 07002KT 15SM FEW160 BKN220 M17/M19 A3013 RMK AS1CI3 SLP227

CYWG;2011-12-27 19:00;CYWG 271900Z 00000KT 15SM BKN140 OVC220 M16/M18 A3011 RMK AS5CI2 SLP219

CYWG;2011-12-27 20:00;CYWG 272000Z 27002KT 15SM BKN140 OVC240 M15/M17 A3010 RMK AS6CS2 SLP216

CYWG;2011-12-27 21:00;CYWG 272100Z 15004KT 15SM BKN130 OVC240 M15/M17 A3007 RMK AC6CS1 SLP206

CYWG;2011-12-27 22:00;CYWG 272200Z 14003KT 15SM BKN130 OVC240 M14/M17 A3007 RMK AC7CS1 SLP206

CYWG;2011-12-27 23:00;CYWG 272300Z 15007KT 15SM OVC120 M15/M17 A3006 RMK AC8 SLP202

CYWG;2011-12-28 00:00;CYWG 280000Z 15008KT 15SM OVC120 M15/M17 A3004 RMK AC8 SLP196

CYWG;2011-12-28 01:00;CYWG 280100Z 14008KT 15SM OVC110 M14/M16 A3000 RMK AC8 SLP185

CYWG;2011-12-28 02:00;CYWG 280200Z 15010KT 15SM OVC093 M13/M16 A2998 RMK AC8 SLP176

CYWG;2011-12-28 03:00;CYWG 280300Z 16011KT 15SM OVC072 M13/M15 A2996 RMK AC8 SLP171

CYWG;2011-12-28 04:00;CYWG 280400Z 16011KT 15SM OVC042 M12/M15 A2994 RMK SC8 SLP164

CYWG;2011-12-28 05:00;CYWG 280500Z 16011KT 15SM OVC043 M12/M14 A2991 RMK SC8 SLP152

CYWG;2011-12-28 05:42;CYWG 280542Z 15011KT 15SM -SN OVC028 M11/ RMK SC8

CYWG;2011-12-28 06:00;CYWG 280600Z 14012KT 6SM -SN OVC025 M11/M13 A2987 RMK SC8 SLP138

CYWG;2011-12-28 06:39;CYWG 280639Z 16011KT 2SM -SN OVC017 M11/ RMK SN3SC5

CYWG;2011-12-28 07:00;CYWG 280700Z 16011KT 3SM -SN OVC017 M11/M12 A2985 RMK SC8 SLP130

CYWG;2011-12-28 08:00;CYWG 280800Z 17011KT 2SM -SN OVC014 M10/M12 A2983 RMK SN3SC5 SLP122

CYWG;2011-12-28 09:00;CYWG 280900Z 16013KT 3SM -SN OVC026 M10/M12 A2980 RMK SC8 SLP110

CYWG;2011-12-28 10:00;CYWG 281000Z 15011KT 2SM -SN OVC016 M10/M11 A2977 RMK SN3SC5 SLP103

CYWG;2011-12-28 10:43;CYWG 281043Z 17010KT 10SM -SN OVC019 M10/ RMK SC8

CYWG;2011-12-28 11:00;CYWG 281100Z 17011KT 15SM OVC019 M10/M11 A2975 RMK SC8 SLP096

CYWG;2011-12-28 12:00;CYWG 281200Z 17014KT 12SM -SN FEW012 OVC026 M09/M11 A2971 RMK SC1SC7 SLP082

CYWG;2011-12-28 13:00;CYWG 281300Z 18017KT 12SM -SN DRSN FEW012 OVC018 M09/M11 A2968 RMK SF1SC8 SF TR SLP071

CYWG;2011-12-28 14:00;CYWG 281400Z 18017KT 15SM -SN DRSN OVC018 M09/M11 A2967 RMK SC7 SLP067

CYWG;2011-12-28 14:19;CYWG 281419Z 18013G18KT 15SM DRSN OVC018 M09/ RMK SC8

CYWG;2011-12-28 15:00;CYWG 281500Z 20014G19KT 15SM OVC016 M09/M11 A2968 RMK SC7 SLP070

CYWG;2011-12-28 16:00;CYWG 281600Z 19014KT 15SM SCT016 BKN084 M09/M11 A2966 RMK SC3AC3 SLP062

CYWG;2011-12-28 16:47;CYWG 281647Z 19011KT 15SM BKN013 OVC084 M09/ RMK SC6AC2

CYWG;2011-12-28 17:00;CYWG 281700Z 20009KT 15SM BKN013 OVC083 M09/M11 A2966 RMK SC6AC1 SLP063

CYWG;2011-12-28 18:00;CYWG 281800Z 20005KT 15SM BKN013 OVC083 M08/M10 A2964 RMK SC6AC2 SLP055

CYWG;2011-12-28 18:32;CYWG 281832Z 19005KT 15SM SCT013 BKN079 BKN250 M07/ RMK SC2AC4CI0

CYWG;2011-12-28 18:54;CYWG 281854Z 18004KT 15SM BKN013 BKN076 M07/ RMK SC5AC1

CYWG;2011-12-28 19:00;CYWG 281900Z 16004KT 15SM BKN013 BKN076 M07/M09 A2961 RMK SC5AC1 SLP044

CYWG;2011-12-28 20:00;CYWG 282000Z 17003KT 15SM OVC010 M07/M09 A2959 RMK SC8 SLP038

CYWG;2011-12-28 20:10;CYWG 282010Z 16004KT 15SM OVC009 M07/ RMK SC8

CYWG;2011-12-28 21:00;CYWG 282100Z 16005KT 15SM OVC009 M07/M08 A2958 RMK SC8 SLP035

CYWG;2011-12-28 22:00;CYWG 282200Z 17004KT 15SM OVC008 M07/M08 A2958 RMK SC8 SLP035

CYWG;2011-12-28 23:00;CYWG 282300Z 14005KT 15SM OVC008 M07/M08 A2960 RMK SC8 SLP041

CYWG;2011-12-28 23:26;CYWG 282326Z 17002KT 15SM SCT007 OVC120 M07/ RMK SC3AC5

CYWG;2011-12-29 00:00;CYWG 290000Z 00000KT 15SM FEW007 OVC120 M08/M09 A2960 RMK SC2AC6 SLP039

CYWG;2011-12-29 01:00;CYWG 290100Z 01004KT 15SM FEW007 BKN130 OVC240 M10/M10 A2960 RMK SC1AC6CI0 SLP040

CYWG;2011-12-29 02:00;CYWG 290200Z 03005KT 15SM BKN140 BKN240 M10/M10 A2960 RMK AC3CS2 SLP040

CYWG;2011-12-29 03:00;CYWG 290300Z 05003KT 10SM BCFG SCT140 BKN240 M10/M11 A2958 RMK AC3CS1 SLP036

CYWG;2011-12-29 04:00;CYWG 290400Z 05007KT 15SM SCT010 M10/M11 A2958 RMK ST2 SLP036

CYWG;2011-12-29 05:00;CYWG 290500Z 04004KT 15SM OVC010 M08/M09 A2960 RMK ST8 SLP042

CYWG;2011-12-29 06:00;CYWG 290600Z 02003KT 15SM OVC009 M07/M08 A2961 RMK ST8 SLP045

CYWG;2011-12-29 07:00;CYWG 290700Z 02003KT 15SM OVC008 M07/M08 A2961 RMK ST8 SLP045

CYWG;2011-12-29 08:00;CYWG 290800Z 35003KT 15SM OVC005 M07/M07 A2963 RMK ST8 SLP049

CYWG;2011-12-29 08:53;CYWG 290853Z 36005KT 15SM OVC004 M07/ RMK ST8

CYWG;2011-12-29 09:00;CYWG 290900Z 02004KT 15SM OVC004 M07/M07 A2965 RMK ST8 SLP056

CYWG;2011-12-29 10:00;CYWG 291000Z 34002KT 15SM OVC004 M07/M08 A2967 RMK ST8 SLP062

CYWG;2011-12-29 11:00;CYWG 291100Z 35005KT 15SM OVC005 M07/M08 A2966 RMK ST8 SLP060

CYWG;2011-12-29 12:00;CYWG 291200Z 06004KT 15SM OVC004 M07/M08 A2966 RMK ST8 SLP061

CYWG;2011-12-29 13:00;CYWG 291300Z 19002KT 15SM OVC005 M07/M08 A2964 RMK ST8 SLP055

CYWG;2011-12-29 14:00;CYWG 291400Z 21005KT 12SM OVC004 M07/M07 A2965 RMK ST8 SLP056

CYWG;2011-12-29 15:00;CYWG 291500Z 20004KT 3SM BR OVC003 M07/M08 A2967 RMK ST8 SLP065

CYWG;2011-12-29 15:53;CYWG 291553Z 17005KT 2SM BR OVC003 M07/ RMK ST8

CYWG;2011-12-29 16:00;CYWG 291600Z 18002KT 2SM BR OVC003 M07/M08 A2966 RMK ST8 SLP062

CYWG;2011-12-29 17:00;CYWG 291700Z 16005KT 2SM BR OVC003 M07/M08 A2965 RMK ST8 SLP059

CYWG;2011-12-29 17:15;CYWG 291715Z 15005KT 3SM BR OVC003 M07/ RMK ST8

CYWG;2011-12-29 18:00;CYWG 291800Z 18007KT 5SM BR OVC004 M07/M08 A2965 RMK ST8 SLP056

CYWG;2011-12-29 19:00;CYWG 291900Z 14007KT 10SM OVC005 M07/M08 A2963 RMK ST8 SLP050

CYWG;2011-12-29 20:00;CYWG 292000Z 14005KT 15SM OVC007 M07/M08 A2961 RMK ST8 SLP044

CYWG;2011-12-29 21:00;CYWG 292100Z 18005KT 15SM -SN OVC008 M07/M08 A2963 RMK ST8 SLP050

CYWG;2011-12-29 21:46;CYWG 292146Z 15008KT 15SM OVC011 M07/ RMK ST8

CYWG;2011-12-29 22:00;CYWG 292200Z 15007KT 15SM OVC011 M07/M08 A2964 RMK ST8 SLP052

CYWG;2011-12-29 23:00;CYWG 292300Z 13008KT 15SM OVC011 M06/M08 A2965 RMK ST8 SLP056

CYWG;2011-12-30 00:00;CYWG 300000Z 13007KT 15SM OVC011 M06/M08 A2965 RMK ST8 SLP056

CYWG;2011-12-30 01:00;CYWG 300100Z 13010KT 15SM OVC011 M06/M08 A2964 RMK ST8 SLP055

CYWG;2011-12-30 02:00;CYWG 300200Z 14004KT 15SM OVC011 M07/M08 A2966 RMK ST8 SLP061

CYWG;2011-12-30 03:00;CYWG 300300Z 09006KT 15SM BKN011 M09/M10 A2966 RMK ST5 SLP060

CYWG;2011-12-30 04:00;CYWG 300400Z 09008KT 15SM SCT011 BKN120 M08/M09 A2965 RMK ST3AC2 SLP057

CYWG;2011-12-30 05:00;CYWG 300500Z 08005KT 15SM SCT120 M09/M10 A2966 RMK AC3 SLP061

CYWG;2011-12-30 06:00;CYWG 300600Z 09006KT 15SM BKN094 M08/M10 A2967 RMK AC6 SLP064

CYWG;2011-12-30 07:00;CYWG 300700Z 10006KT 15SM OVC100 M09/M10 A2968 RMK AC8 SLP067

CYWG;2011-12-30 08:00;CYWG 300800Z 10006KT 15SM OVC120 M08/M10 A2969 RMK AC8 SLP070

CYWG;2011-12-30 09:00;CYWG 300900Z 10006KT 15SM OVC120 M08/M10 A2971 RMK AC8 SLP077

CYWG;2011-12-30 10:00;CYWG 301000Z 10007KT 15SM BKN120 M09/M11 A2971 RMK AC5 SLP079

CYWG;2011-12-30 11:00;CYWG 301100Z 07004KT 15SM FEW120 BKN250 M11/M12 A2973 RMK AC2CI1 SLP083

CYWG;2011-12-30 12:00;CYWG 301200Z 05005KT 15SM FEW100 BKN250 M12/M13 A2976 RMK AC1CI1 SLP095

CYWG;2011-12-30 13:00;CYWG 301300Z 05005KT 15SM FEW100 BKN250 M12/M13 A2977 RMK AC2CI2 SLP101

CYWG;2011-12-30 14:00;CYWG 301400Z 10006KT 15SM FEW100 BKN250 M11/M12 A2977 RMK AC2CI2 SLP098

CYWG;2011-12-30 15:00;CYWG 301500Z 12007KT 15SM FEW100 BKN250 M11/M12 A2977 RMK AC1CI1 SLP100

CYWG;2011-12-30 16:00;CYWG 301600Z 14006KT 15SM FEW100 BKN250 M10/M12 A2979 RMK AC1CI1 SLP105

CYWG;2011-12-30 17:00;CYWG 301700Z 15009KT 15SM FEW100 BKN250 M09/M11 A2978 RMK AC1CI2 SLP102

CYWG;2011-12-30 18:00;CYWG 301800Z 16006KT 15SM FEW100 SCT250 M08/M10 A2976 RMK AC1CI1 SLP095

CYWG;2011-12-30 19:00;CYWG 301900Z 17006KT 15SM FEW100 FEW250 M07/M09 A2975 RMK AC1CI1 SLP092

CYWG;2011-12-30 20:00;CYWG 302000Z 17007KT 15SM FEW100 M06/M09 A2974 RMK AC1 SLP088

CYWG;2011-12-30 21:00;CYWG 302100Z 16006KT 15SM FEW100 M06/M09 A2974 RMK AC1 SLP088

CYWG;2011-12-30 22:00;CYWG 302200Z 18008KT 15SM SCT025 BKN100 M06/M08 A2974 RMK SC2AC1 SLP088

CYWG;2011-12-30 23:00;CYWG 302300Z 17008KT 15SM BKN020 M06/M08 A2974 RMK SC5 SLP086

CYWG;2011-12-31 00:00;CYWG 310000Z 18009KT 15SM BKN018 M05/M07 A2971 RMK SC6 SLP078

CYWG;2011-12-31 01:00;CYWG 310100Z 18009KT 15SM BKN016 M06/M07 A2971 RMK SC6 SLP078

CYWG;2011-12-31 02:00;CYWG 310200Z 18010G15KT 15SM BKN015 M06/M07 A2968 RMK SC5 SLP070

CYWG;2011-12-31 03:00;CYWG 310300Z 18014KT 10SM SCT005 OVC010 M08/M08 A2966 RMK SF3SC4 BR SLP061

CYWG;2011-12-31 03:07;CYWG 310307Z 18012KT 5SM BR OVC004 M07/ RMK SF7

CYWG;2011-12-31 04:00;CYWG 310400Z 18015KT 3SM BR OVC003 M06/M07 A2964 RMK ST8 SLP053

CYWG;2011-12-31 05:00;CYWG 310500Z 18015G20KT 2SM BR OVC003 M05/M06 A2962 RMK ST8 SLP047

CYWG;2011-12-31 06:00;CYWG 310600Z 18016G21KT 2SM BR OVC003 M05/M05 A2960 RMK ST8 SLP039

CYWG;2011-12-31 07:00;CYWG 310700Z 18015G20KT 3SM BR OVC005 M05/M06 A2958 RMK ST8 SLP033

CYWG;2011-12-31 07:25;CYWG 310725Z 17020G26KT 5SM BR OVC004 M05/ RMK ST8

CYWG;2011-12-31 08:00;CYWG 310800Z 18019G25KT 6SM BR OVC005 M05/M05 A2956 RMK ST8 SLP025

CYWG;2011-12-31 09:00;CYWG 310900Z 17024G31KT 6SM BR OVC005 M05/M05 A2951 RMK SF8 SLP007

CYWG;2011-12-31 09:52;CYWG 310952Z 17021G26KT 6SM BR OVC007 M04/ RMK SF8

CYWG;2011-12-31 10:00;CYWG 311000Z 18021G29KT 6SM BR BKN007 OVC025 M04/M05 A2950 RMK SF6SC2 SLP005

CYWG;2011-12-31 11:00;CYWG 311100Z 18017G24KT 2SM -SN BR OVC008 M04/M05 A2949 RMK SF8 SLP002

CYWG;2011-12-31 12:00;CYWG 311200Z 19015G24KT 2SM -SG BR OVC008 M04/M05 A2950 RMK ST8 CIG RAG SLP004

CYWG;2011-12-31 12:31;CYWG 311231Z 19017KT 2SM -SN BR OVC008 M03/ RMK ST8

CYWG;2011-12-31 13:00;CYWG 311300Z 18017KT 1SM R13/P6000FT/D R36/P6000FT/U -SN BR OVC007 M03/M04 A2950 RMK SN2ST6 SLP003

CYWG;2011-12-31 13:23;CYWG 311323Z 18017G24KT 2SM -SN OVC007 M03/ RMK ST8

CYWG;2011-12-31 13:40;CYWG 311340Z 18015G21KT 6SM -SN BR OVC006 M02/ RMK ST8

CYWG;2011-12-31 14:00;CYWG 311400Z 18017KT 15SM BKN006 OVC038 M02/M03 A2950 RMK ST7SC1 SLP003

CYWG;2011-12-31 15:00;CYWG 311500Z 18014G19KT 10SM BKN005 OVC045 M02/M03 A2950 RMK ST6SC2 BR VIS OVR CITY 5 SLP003

CYWG;2011-12-31 16:00;CYWG 311600Z 19016KT 10SM OVC005 M02/M02 A2952 RMK ST8 BR VIS OVR CITY 4 SLP011

CYWG;2011-12-31 16:28;CYWG 311628Z 19016KT 10SM BKN006 OVC014 M01/ RMK ST6SC2 BR VIS OVR CITY 5

CYWG;2011-12-31 17:00;CYWG 311700Z 19012G18KT 10SM BKN006 OVC014 M01/M02 A2953 RMK SF5SC3 BR VIS OVR CITY 6 SLP014

CYWG;2011-12-31 17:43;CYWG 311743Z 20012KT 15SM SCT007 BKN014 OVC250 M00/ RMK SF2SC2CI2

CYWG;2011-12-31 18:00;CYWG 311800Z 20010KT 12SM SCT007 BKN015 OVC250 M00/M01 A2952 RMK SF2SC2CI2 SLP011

CYWG;2011-12-31 19:00;CYWG 311900Z 22011KT 12SM FEW007 SCT015 BKN110 BKN250 01/M00 A2952 RMK SF1SC2AC2CI2 SLP010

CYWG;2011-12-31 20:00;CYWG 312000Z 25010KT 15SM SCT110 BKN250 01/M00 A2953 RMK AC3CI1 SLP012

CYWG;2011-12-31 21:00;CYWG 312100Z 29016KT 15SM FEW110 BKN250 01/M02 A2957 RMK AC2CI1 SLP025

CYWG;2011-12-31 22:00;CYWG 312200Z 32013G19KT 15SM BKN110 BKN250 M02/M04 A2964 RMK AC5CI1 PRESRR SLP051

CYWG;2011-12-31 23:00;CYWG 312300Z 31013KT 15SM SCT025 BKN054 BKN110 M01/M04 A2969 RMK SC3SC3AC1 SLP067

