CYXU;2005-01-01 00:00;METAR CYXU 010000Z 22016G22KT 8SM BKN009 09/08 A2995 RMK SF5 SLP147=

CYXU;2005-01-01 01:00;METAR CYXU 010100Z 22016G22KT 10SM BKN009 09/08 A2996 RMK SF6 SLP151=

CYXU;2005-01-01 01:48;SPECI CYXU 010148Z 23020G27KT 9SM SCT010 RMK SF4=

CYXU;2005-01-01 02:00;METAR CYXU 010200Z 24020G26KT 9SM SCT010 10/08 A2999 RMK SF4 SLP160=

CYXU;2005-01-01 03:00;METAR CYXU 010300Z 26014G19KT 10SM FEW010 09/06 A3004 RMK SF1 SLP178=

CYXU;2005-01-01 04:00;METAR CYXU 010400Z 28011KT 10SM SKC 08/05 A3009 RMK SLP195=

CYXU;2005-01-01 05:00;METAR CYXU 010500Z 28014G20KT 10SM FEW010 05/M02 A3014 RMK SF1 SLP210=

CYXU;2005-01-01 06:00;METAR CYXU 010600Z 31012G19KT 10SM SKC 02/M04 A3018 RMK SLP227=

CYXU;2005-01-01 07:00;METAR CYXU 010700Z 32008KT 10SM SKC 01/M04 A3020 RMK SLP235=

CYXU;2005-01-01 09:00;METAR CYXU 010900Z 29007KT 15SM SKC M00/M05 A3025 RMK SLP251=

CYXU;2005-01-01 10:00;METAR CYXU 011000Z 28007KT 15SM SKC M01/M05 A3028 RMK SLP263=

CYXU;2005-01-01 11:00;METAR CYXU 011100Z 28005KT 15SM SKC M02/M05 A3032 RMK SLP276=

CYXU;2005-01-01 12:00;METAR CYXU 011200Z 26005KT 15SM SKC M02/M05 A3036 RMK SLP291=

CYXU;2005-01-01 13:00;METAR CYXU 011300Z 27004KT 15SM SCT021 M02/M05 A3040 RMK SC3 SLP303=

CYXU;2005-01-01 14:00;METAR CYXU 011400Z 28005KT 15SM FEW022 FEW200 M01/M05 A3041 RMK SC2CI1 CONTRAILS SLP308=

CYXU;2005-01-01 15:00;METAR CYXU 011500Z 30005KT 15SM BKN024 00/M04 A3044 RMK SC7 SLP316=

CYXU;2005-01-01 16:00;METAR CYXU 011600Z 29005KT 15SM OVC020 00/M04 A3047 RMK SC8 SLP328=

CYXU;2005-01-01 17:00;METAR CYXU 011700Z 36006KT 15SM OVC024 00/M04 A3047 RMK SC8 SLP326=

CYXU;2005-01-01 18:00;METAR CYXU 011800Z 34004KT 15SM OVC020 00/M04 A3047 RMK SC8 SLP330=

CYXU;2005-01-01 19:00;METAR CYXU 011900Z 32005KT 15SM OVC019 00/M04 A3049 RMK SC8 SLP336=

CYXU;2005-01-01 20:00;METAR CYXU 012000Z 35006KT 15SM OVC020 M00/M05 A3050 RMK SC8 SLP340=

CYXU;2005-01-01 21:00;METAR CYXU 012100Z 04003KT 15SM BKN020 M00/M05 A3050 RMK SC7 SLP342=

CYXU;2005-01-01 22:00;METAR CYXU 012200Z 05005KT 15SM BKN019 M01/M05 A3053 RMK SC7 SLP349=

CYXU;2005-01-01 23:00;METAR CYXU 012300Z 06004KT 15SM BKN020 M01/M05 A3053 RMK SC7 SLP349=

CYXU;2005-01-02 00:00;METAR CYXU 020000Z 09004KT 15SM BKN020 BKN150 M01/M05 A3053 RMK SC5AC2 SLP353=

CYXU;2005-01-02 01:00;METAR CYXU 020100Z 10004KT 15SM SCT020 BKN150 M01/M05 A3054 RMK SC3AS4 SLP357=

CYXU;2005-01-02 02:00;METAR CYXU 020200Z 09005KT 15SM FEW020 BKN150 OVC220 M01/M05 A3053 RMK SC1AS6CI1 SLP352=

CYXU;2005-01-02 03:00;METAR CYXU 020300Z 09007KT 15SM FEW150 FEW220 M01/M05 A3050 RMK AS1CI1 SLP343=

CYXU;2005-01-02 04:00;METAR CYXU 020400Z 09009KT 15SM BKN110 M01/M05 A3049 RMK AS6 SLP337=

CYXU;2005-01-02 05:00;METAR CYXU 020500Z 11011KT 15SM BKN110 M01/M04 A3048 RMK AS6 SLP336=

CYXU;2005-01-02 05:31;SPECI CYXU 020531Z 10012KT 10SM -RA BKN070 OVC090 RMK AS6AS2=

CYXU;2005-01-02 06:00;METAR CYXU 020600Z 10014KT 10SM -RA FEW060 OVC070 M01/M04 A3045 RMK SF2AS6 SLP324=

CYXU;2005-01-02 06:04;SPECI CYXU 020604Z 09013KT 10SM -FZRA FEW060 OVC070 RMK SF2AS6=

CYXU;2005-01-02 06:16;SPECI CYXU 020616Z 10016KT 10SM FEW045 OVC070 RMK SF2AS6=

CYXU;2005-01-02 07:00;METAR CYXU 020700Z 10017KT 10SM -FZRA BKN033 OVC060 M00/M04 A3041 RMK SF5NS3 SLP311=

CYXU;2005-01-02 07:13;SPECI CYXU 020713Z 10020KT 10SM BKN033 OVC060 RMK SF5NS3=

CYXU;2005-01-02 07:33;SPECI CYXU 020733Z 11017KT 8SM -FZRA OVC028 RMK NS8=

CYXU;2005-01-02 08:00;METAR CYXU 020800Z 11016KT 8SM -FZRA OVC027 M00/M04 A3040 RMK NS8 SLP307=

CYXU;2005-01-02 08:19;SPECI CYXU 020819Z 11014G20KT 8SM OVC023 RMK ST8=

CYXU;2005-01-02 09:00;METAR CYXU 020900Z 11019KT 8SM OVC019 M00/M04 A3036 RMK ST8 SLP294=

CYXU;2005-01-02 09:50;SPECI CYXU 020950Z 11016KT 8SM -RA OVC019 RMK NS8=

CYXU;2005-01-02 10:10;SPECI CYXU 021010Z 11015KT 8SM -FZRA OVC018 RMK NS8=

CYXU;2005-01-02 10:52;SPECI CYXU 021052Z 11013KT 8SM -FZRA OVC013 RMK NS8=

CYXU;2005-01-02 11:23;SPECI CYXU 021123Z 11013KT 4SM -FZRA BR OVC009 RMK NS8 TEMP -0.4=

CYXU;2005-01-02 12:00;METAR CYXU 021200Z 11012KT 3SM -FZRA BR OVC006 M00/M02 A3030 RMK NS8 SLP272=

CYXU;2005-01-02 13:00;METAR CYXU 021300Z 11010KT 3SM -FZRA BR OVC005 M00/M01 A3027 RMK NS8 SLP264=

CYXU;2005-01-02 13:35;SPECI CYXU 021335Z 13010KT 2 1/2SM -RA BR OVC003 RMK NS8 REFZRA TEMP +0.2=

CYXU;2005-01-02 14:00;METAR CYXU 021400Z 13007KT 2SM BR OVC003 00/M01 A3025 RMK FG2NS6 REFZRA SLP257=

CYXU;2005-01-02 14:40;SPECI CYXU 021440Z 13006KT 1 1/4SM R15/6000FT/D BR OVC002 RMK FG3ST5=

CYXU;2005-01-02 15:00;METAR CYXU 021500Z 12007KT 3/4SM R15/3500V6000FT/U BR OVC002 01/M00 A3024 RMK FG6ST2 SLP253=

CYXU;2005-01-02 15:16;SPECI CYXU 021516Z 14005KT 1/2SM R15/3000V4500FT/D FG OVC002 RMK FG6ST2=

CYXU;2005-01-02 16:00;METAR CYXU 021600Z 14005KT 3/8SM R15/2200FT/N FG VV002 02/01 A3023 RMK FG8 SLP247=

CYXU;2005-01-02 16:38;SPECI CYXU 021638Z 15007KT 3/8SM R15/2200V3500FT/D SHRA FG VV002 RMK FG8 TCU EMBDD=

CYXU;2005-01-02 16:46;SPECI CYXU 021646Z 18006KT 1SM R15/2400V5500FT/U -SHRA BR OVC002 RMK FG6ST2 TCU ASOCTD=

CYXU;2005-01-02 17:00;METAR CYXU 021700Z 19006KT 1 1/4SM R15/4500VP6000FT/U -SHRA BR OVC003 05/04 A3018 RMK FG5ST3 TCU EMBDD SLP232=

CYXU;2005-01-02 17:23;SPECI CYXU 021723Z 21010G15KT 2SM -SHRA BR OVC004 RMK FG5SF3 TCU EMBDD=

CYXU;2005-01-02 18:00;METAR CYXU 021800Z 20010KT 1SM R15/P6000FT/U SHRA BR OVC003 07/06 A3015 RMK FG6SF2 TCU EMBDD SLP220=

CYXU;2005-01-02 18:14;SPECI CYXU 021814Z 20010G15KT 2SM -SHRA BR OVC004 RMK FG5SF3 TCU EMBDD RERA=

CYXU;2005-01-02 19:00;METAR CYXU 021900Z 20010KT 2SM -SHRA BR OVC004 08/07 A3012 RMK FG5SF3 TCU EMBDD SLP208=

CYXU;2005-01-02 19:29;SPECI CYXU 021929Z 22010KT 1 1/4SM SHRA BR OVC003 RMK FG6SF2 TCU EMBDD=

CYXU;2005-01-02 19:45;SPECI CYXU 021945Z 22006KT 2 1/2SM -SHRA BR OVC003 RMK SF8 CIG VRBL 2-4=

CYXU;2005-01-02 20:00;METAR CYXU 022000Z 23006KT 1 1/2SM -SHRA BR OVC002 09/08 A3012 RMK FG3SF5 CIG VRBL 1-3 / VSBY VRBL 1-2 / TCU EMBD SLP210=

CYXU;2005-01-02 20:04;SPECI CYXU 022004Z 25005KT 1/2SM R15/4500VP6000FT/D -SHRA FG VV001 RMK FG8=

CYXU;2005-01-02 20:10;SPECI CYXU 022010Z 22006KT 1/2SM R15/2800VP6000FT/D +SHRA FG VV001 RMK FG8 TCU EMBD=

CYXU;2005-01-02 20:33;SPECI CYXU 022033Z 23007KT 1SM R15/P6000FT/N -SHRA BR OVC003 RMK FG4SF4 TCU EMBD=

CYXU;2005-01-02 20:45;SPECI CYXU 022045Z 23008KT 2 1/2SM BR OVC003 RMK SF8=

CYXU;2005-01-02 21:00;METAR CYXU 022100Z 23009KT 2 1/2SM -SHRA BR OVC002 10/09 A3014 RMK SF8 CIG VRBL 1-3 TCU EMBD SLP213=

CYXU;2005-01-02 21:37;SPECI CYXU 022137Z 24007KT 3/4SM R15/P6000FT/U BR OVC002 RMK FG3SF5 CIG VRBL 1-3=

CYXU;2005-01-02 21:52;SPECI CYXU 022152Z 24007KT 3/8SM R15/6000FT/D FG OVC002 RMK FG5SF3 CIG VRBL 1-3=

CYXU;2005-01-02 22:00;METAR CYXU 022200Z 24008KT 3/8SM R15/5500FT/N FG OVC002 10/09 A3015 RMK FG6SF2 CIG VRBL 1-3 SLP217=

CYXU;2005-01-02 23:42;SPECI CYXU 022342Z 28007KT 1SM R15/P6000FT/D -DZ BR OVC002 RMK FG5SF3 CIG VRBL 1-3=

CYXU;2005-01-03 00:00;METAR CYXU 030000Z 33008G15KT 1 1/2SM -DZ BR OVC002 07/07 A3020 RMK FG5SF3 CIG VRBL 1-3 SLP234=

CYXU;2005-01-03 01:00;METAR CYXU 030100Z 33007KT 1 1/2SM BR OVC002 05/04 A3021 RMK FG5SF3 CIG=

CYXU;2005-01-03 01:35;SPECI CYXU 030135Z 31008KT 3SM BR OVC003 RMK SF8=

CYXU;2005-01-03 02:00;METAR CYXU 030200Z 31007KT 2SM BR OVC002 04/03 A3023 RMK SF8 CIG VRBL 1-3 SLP246=

CYXU;2005-01-03 03:00;METAR CYXU 030300Z 31006KT 3SM BR OVC004 03/02 A3025 RMK SF8 CIG RGD SLP254=

CYXU;2005-01-03 04:00;METAR CYXU 030400Z 31006KT 3SM -DZ BR OVC004 03/02 A3026 RMK SF8 CIG=

CYXU;2005-01-03 04:47;SPECI CYXU 030447Z 31009KT 5SM BR OVC008 RMK SF8=

CYXU;2005-01-03 05:00;METAR CYXU 030500Z 31012KT 10SM OVC008 03/01 A3027 RMK SF8 SLP262=

CYXU;2005-01-03 06:00;METAR CYXU 030600Z 32009KT 15SM OVC009 02/00 A3027 RMK SF8 SLP260=

CYXU;2005-01-03 07:00;METAR CYXU 030700Z 32006KT 15SM OVC009 02/M00 A3028 RMK SC8 SLP263=

CYXU;2005-01-03 08:00;METAR CYXU 030800Z 32005KT 15SM OVC009 02/M00 A3028 RMK SC8 SLP262=

CYXU;2005-01-03 09:00;METAR CYXU 030900Z 35003KT 15SM OVC009 02/M00 A3028 RMK SC8 SLP263=

CYXU;2005-01-03 10:00;METAR CYXU 031000Z 33002KT 15SM OVC009 01/M00 A3029 RMK SC8 SLP265=

CYXU;2005-01-03 11:00;METAR CYXU 031100Z 00000KT 15SM OVC009 01/M01 A3032 RMK ST8 SLP274=

CYXU;2005-01-03 12:00;METAR CYXU 031200Z 01002KT 10SM OVC008 01/M01 A3031 RMK ST8 SLP272=

CYXU;2005-01-03 13:00;METAR CYXU 031300Z 36003KT 12SM OVC008 01/M01 A3031 RMK ST8 SLP272=

CYXU;2005-01-03 14:00;METAR CYXU 031400Z 32002KT 12SM SCT008 OVC100 01/M01 A3032 RMK ST4AC4 SLP275=

CYXU;2005-01-03 15:00;METAR CYXU 031500Z 00000KT 12SM FEW008 OVC070 01/M00 A3032 RMK SF2AC6 VIRGA NW-SE SLP277=

CYXU;2005-01-03 16:00;METAR CYXU 031600Z 07005KT 12SM FEW008 OVC070 02/M00 A3029 RMK SF2AC6 VIRGA DOWN TO 4500FT SLP268=

CYXU;2005-01-03 17:00;METAR CYXU 031700Z 09003KT 12SM FEW008 OVC080 02/M00 A3027 RMK SF1AC7 VIRGA ALQDS SLP259=

CYXU;2005-01-03 18:00;METAR CYXU 031800Z 00000KT 12SM FEW008 OVC090 02/M00 A3025 RMK SF1AC7 VIRGA SLP252=

CYXU;2005-01-03 19:00;METAR CYXU 031900Z 02003KT 15SM FEW010 OVC090 03/00 A3021 RMK SF1AC7 VIRGA SLP241=

CYXU;2005-01-03 20:00;METAR CYXU 032000Z 02003KT 10SM -RA FEW010 OVC040 03/00 A3020 RMK SF1SC7 SLP236=

CYXU;2005-01-03 21:00;METAR CYXU 032100Z 02004KT 10SM -RA FEW030 OVC070 03/01 A3020 RMK SC1AC7 SLP236=

CYXU;2005-01-03 22:00;METAR CYXU 032200Z 36003KT 8SM OVC062 03/01 A3021 RMK SC8 SLP239=

CYXU;2005-01-03 23:00;METAR CYXU 032300Z 08003KT 8SM OVC062 03/00 A3020 RMK SC8 SLP236=

CYXU;2005-01-04 00:00;METAR CYXU 040000Z 05003KT 8SM OVC066 02/00 A3020 RMK SC8 SLP235=

CYXU;2005-01-04 01:00;METAR CYXU 040100Z 06004KT 10SM OVC073 02/00 A3017 RMK AC8 SLP228=

CYXU;2005-01-04 01:45;SPECI CYXU 040145Z 36006KT 8SM -RA BKN038 OVC067 RMK SC6AC2=

CYXU;2005-01-04 02:18;SPECI CYXU 040218Z 02006KT 5SM -RASN BKN041 OVC060 RMK SC5SC3=

CYXU;2005-01-04 03:00;METAR CYXU 040300Z 04004KT 3SM -SN OVC020 02/M00 A3020 RMK SC8 SLP237=

CYXU;2005-01-04 03:33;SPECI CYXU 040333Z 02002KT 2SM -SN FEW010 OVC030 RMK SF2SC6=

CYXU;2005-01-04 04:00;METAR CYXU 040400Z 36002KT 2SM -SN FEW010 OVC030 01/M01 A3021 RMK SF2SC6 SLP240=

CYXU;2005-01-04 05:00;METAR CYXU 040500Z 32004KT 1SM R15/P6000FT/D -SN VV004 00/M01 A3022 RMK SN8 SLP245=

CYXU;2005-01-04 06:00;METAR CYXU 040600Z 34003KT 1 1/2SM -SN SCT004 OVC013 00/M01 A3023 RMK SF4SC4 SLP246=

CYXU;2005-01-04 06:45;SPECI CYXU 040645Z 34004KT 3SM -SN SCT030 OVC060 RMK SC4SC4=

CYXU;2005-01-04 07:00;METAR CYXU 040700Z 34003KT 3SM -SN FEW005 SCT030 OVC060 00/M01 A3021 RMK SF2SC2SC4 SLP242=

CYXU;2005-01-04 08:00;METAR CYXU 040800Z 36005KT 5SM BR SCT005 OVC013 01/M01 A3023 RMK SF4SC4 SLP246=

CYXU;2005-01-04 09:00;METAR CYXU 040900Z 36006KT 10SM OVC013 00/M02 A3024 RMK SC8 SLP250=

CYXU;2005-01-04 10:00;METAR CYXU 041000Z 36005KT 15SM BKN085 M00/M02 A3024 RMK AC6 SLP249=

CYXU;2005-01-04 10:33;SPECI CYXU 041033Z 35006KT 15SM FEW010 SCT090 RMK SC2AC2=

CYXU;2005-01-04 11:00;METAR CYXU 041100Z 35006KT 15SM FEW010 SCT090 M01/M03 A3025 RMK SC1AC2 SLP254=

CYXU;2005-01-04 11:27;SPECI CYXU 041127Z 34006KT 15SM BKN011 RMK SC6=

CYXU;2005-01-04 12:00;METAR CYXU 041200Z 36006KT 15SM BKN012 BKN100 M00/M03 A3028 RMK SC5AC2 SLP266=

CYXU;2005-01-04 13:00;METAR CYXU 041300Z 01006KT 15SM BKN012 OVC100 M00/M03 A3028 RMK SC6AC2 OCNL BINOVC SLP266=

CYXU;2005-01-04 15:00;METAR CYXU 041500Z 36004KT 15SM BKN011 BKN100 M01/M04 A3032 RMK SC5AC2 SLP280=

CYXU;2005-01-04 16:00;METAR CYXU 041600Z 34007KT 15SM SCT013 SCT100 BKN250 00/M04 A3034 RMK SC3AC1CI2 SLP284=

CYXU;2005-01-04 17:00;METAR CYXU 041700Z 33006KT 15SM FEW015 SCT100 BKN250 01/M03 A3031 RMK SC2AC1CI2 SLP277=

CYXU;2005-01-04 18:00;METAR CYXU 041800Z 34006KT 15SM SCT018 BKN250 02/M03 A3029 RMK SC3CI2 SLP269=

CYXU;2005-01-04 20:00;METAR CYXU 042000Z 33006KT 15SM FEW018 SCT140 OVC250 01/M04 A3025 RMK SC2AC2CI2 SLP256=

CYXU;2005-01-04 21:00;METAR CYXU 042100Z 36004KT 15SM SCT018 BKN051 OVC200 01/M04 A3026 RMK SC4SC2CI1 SLP257=

CYXU;2005-01-04 22:00;METAR CYXU 042200Z 29002KT 15SM FEW018 SCT050 BKN200 00/M04 A3027 RMK SC1SC2CI3 SLP261=

CYXU;2005-01-04 23:00;METAR CYXU 042300Z 31004KT 15SM FEW019 BKN200 M00/M04 A3029 RMK SC2CI5 SLP268=

CYXU;2005-01-05 00:00;METAR CYXU 050000Z 33006KT 15SM SCT019 BKN045 BKN200 M00/M03 A3028 RMK SC3SC2CI2 SLP267=

CYXU;2005-01-05 01:00;METAR CYXU 050100Z 34004KT 15SM BKN017 BKN050 BKN200 M01/M04 A3028 RMK SC5SC1CI1 SLP266=

CYXU;2005-01-05 02:00;METAR CYXU 050200Z 32003KT 15SM FEW017 BKN043 OVC200 M01/M04 A3027 RMK SC2SC6CI1 SLP263=

CYXU;2005-01-05 02:40;SPECI CYXU 050240Z 30004KT 15SM BKN013 OVC043 RMK SC6SC2=

CYXU;2005-01-05 03:00;METAR CYXU 050300Z 31005KT 15SM BKN013 OVC040 M01/M04 A3027 RMK SC7SC1 SLP264=

CYXU;2005-01-05 04:00;METAR CYXU 050400Z 34008KT 15SM BKN012 OVC037 M01/M04 A3027 RMK SC5SC3 SLP263=

CYXU;2005-01-05 05:00;METAR CYXU 050500Z 35007KT 15SM SCT012 BKN043 OVC075 M01/M04 A3026 RMK SC3SC3AC2 SLP258=

CYXU;2005-01-05 05:48;SPECI CYXU 050548Z 35008KT 7SM -SN BKN013 OVC045 RMK SC6SC2=

CYXU;2005-01-05 06:00;METAR CYXU 050600Z 36006KT 7SM -SN BKN014 OVC045 M01/M04 A3024 RMK SC6SC2 SLP253=

CYXU;2005-01-05 06:26;SPECI CYXU 050626Z 35008KT 2 1/2SM -SN OVC017 RMK SN2SC6=

CYXU;2005-01-05 07:00;METAR CYXU 050700Z 01007KT 2 1/2SM -SN OVC016 M02/M04 A3023 RMK SN2SC6 SLP248=

CYXU;2005-01-05 07:28;SPECI CYXU 050728Z 03005KT 4SM -SN FEW016 OVC046 RMK SC2SC6=

CYXU;2005-01-05 08:00;METAR CYXU 050800Z 02003KT 8SM -SN SCT046 OVC072 M02/M04 A3023 RMK SC3AC5 SLP248=

CYXU;2005-01-05 09:00;METAR CYXU 050900Z 36005KT 4SM -SN FEW020 OVC043 M02/M04 A3023 RMK SC2SC6 SLP248=

CYXU;2005-01-05 09:17;SPECI CYXU 050917Z 36008KT 2SM -SN VV009 RMK SN8=

CYXU;2005-01-05 09:42;SPECI CYXU 050942Z 36005KT 1SM R15/P6000FT/U -SN VV008 RMK SN8=

CYXU;2005-01-05 09:50;SPECI CYXU 050950Z 01005KT 1 1/2SM -SN OVC009 RMK SN3SC5=

CYXU;2005-01-05 10:00;METAR CYXU 051000Z 01004KT 1 1/2SM -SN OVC009 M02/M04 A3021 RMK SN3NS5 SLP243=

CYXU;2005-01-05 10:24;SPECI CYXU 051024Z 36005KT 2SM -SN OVC008 RMK SN2NS6=

CYXU;2005-01-05 10:33;SPECI CYXU 051033Z 36006KT 4SM -SN OVC012 RMK NS8=

CYXU;2005-01-05 12:00;METAR CYXU 051200Z 36009KT 2SM -SN OVC020 M03/M05 A3024 RMK SN2NS6 SLP253=

CYXU;2005-01-05 13:17;SPECI CYXU 051317Z 01008KT 10SM -SN BKN018 RMK SC7=

CYXU;2005-01-05 13:26;SPECI CYXU 051326Z 01008KT 10SM BKN019 OVC080 RMK SC6AC2=

CYXU;2005-01-05 14:00;METAR CYXU 051400Z 02008KT 10SM OVC020 M03/M06 A3025 RMK SC8 SLP257=

CYXU;2005-01-05 15:00;METAR CYXU 051500Z 04011KT 15SM OVC016 M04/M07 A3025 RMK SC8 SLP258=

CYXU;2005-01-05 15:34;SPECI CYXU 051534Z 04009KT 15SM OVC014 RMK SC8=

CYXU;2005-01-05 16:00;METAR CYXU 051600Z 04009KT 15SM OVC014 M04/M08 A3026 RMK SC8 SLP259=

CYXU;2005-01-05 17:00;METAR CYXU 051700Z 05009KT 15SM OVC016 M04/M08 A3025 RMK SC8 SLP258=

CYXU;2005-01-05 17:53;SPECI CYXU 051753Z 05010KT 15SM OVC014 RMK SC8=

CYXU;2005-01-05 18:00;METAR CYXU 051800Z 06006KT 15SM OVC014 M04/M08 A3021 RMK SC8 SLP243=

CYXU;2005-01-05 18:50;SPECI CYXU 051850Z 05009KT 15SM OVC017 RMK SC8=

CYXU;2005-01-05 19:00;METAR CYXU 051900Z 05010KT 15SM OVC016 M04/M09 A3019 RMK SC8 SLP236=

CYXU;2005-01-05 20:00;METAR CYXU 052000Z 05008KT 15SM SCT017 OVC080 M04/M09 A3018 RMK SC3AC5 SLP234=

CYXU;2005-01-05 21:00;METAR CYXU 052100Z 06010KT 15SM FEW017 OVC078 M04/M11 A3017 RMK SC2AC6 SLP230=

CYXU;2005-01-05 22:00;METAR CYXU 052200Z 05009KT 15SM FEW017 OVC074 M04/M11 A3015 RMK SC1AC7 SLP223=

CYXU;2005-01-05 23:00;METAR CYXU 052300Z 07010G15KT 15SM OVC077 M05/M11 A3014 RMK AC8 SLP220=

CYXU;2005-01-06 01:00;METAR CYXU 060100Z 07013KT 15SM BKN016 OVC072 M05/M09 A3011 RMK SC5AC3 SLP210=

CYXU;2005-01-06 02:00;METAR CYXU 060200Z 07012G18KT 15SM OVC015 M06/M09 A3009 RMK SC8 SLP203=

CYXU;2005-01-06 02:50;SPECI CYXU 060250Z 06012G17KT 15SM OVC014 RMK SC8=

CYXU;2005-01-06 03:00;METAR CYXU 060300Z 07011G17KT 15SM OVC014 M06/M09 A3007 RMK SC8 SLP197=

CYXU;2005-01-06 03:36;SPECI CYXU 060336Z 07014G19KT 15SM -SN OVC014 RMK SC8=

CYXU;2005-01-06 04:00;METAR CYXU 060400Z 07013KT 4SM -SN SCT014 OVC053 M06/M09 A3004 RMK SC4SC4 SLP188=

CYXU;2005-01-06 05:00;METAR CYXU 060500Z 07016G21KT 7SM -SN FEW018 OVC053 M06/M09 A3000 RMK SC2SC6 SLP176=

CYXU;2005-01-06 06:00;METAR CYXU 060600Z 08012KT 2SM -SN OVC016 M05/M08 A2996 RMK SN2SC6 SLP159=

CYXU;2005-01-06 06:10;SPECI CYXU 060610Z 08013KT 3/4SM R15/P6000FT/D -SN VV008 RMK SN8=

CYXU;2005-01-06 07:00;METAR CYXU 060700Z 08016KT 3/4SM R15/P6000FT/U -SN DRSN OVC009 M05/M07 A2992 RMK SN5NS3 SLP146=

CYXU;2005-01-06 07:17;SPECI CYXU 060717Z 07016KT 1SM R15/P6000FT/N -SN DRSN OVC009 RMK SN5NS3=

CYXU;2005-01-06 08:00;METAR CYXU 060800Z 07012KT 1SM R15/P6000FT/N -SN DRSN OVC009 M05/M07 A2989 RMK SN4NS4 SLP137=

CYXU;2005-01-06 08:32;SPECI CYXU 060832Z 08015G20KT 4SM -SN DRSN BKN012 OVC035 RMK SC5SC3=

CYXU;2005-01-06 09:00;METAR CYXU 060900Z 07015KT 6SM -SN SCT014 OVC037 M04/M07 A2984 RMK SC3SC5 PRESFR SLP119=

CYXU;2005-01-06 10:00;METAR CYXU 061000Z 07017KT 8SM -SN DRSN FEW012 OVC072 M04/M07 A2980 RMK SF2AC6 SLP105=

CYXU;2005-01-06 10:54;SPECI CYXU 061054Z 09019G25KT 3SM -SN DRSN BKN012 OVC065 RMK SF5NS3=

CYXU;2005-01-06 11:00;METAR CYXU 061100Z 09019G25KT 6SM -SN DRSN BKN013 OVC065 M04/M07 A2972 RMK SF5NS3 PRESFR SLP078=

CYXU;2005-01-06 11:36;SPECI CYXU 061136Z 09019G24KT 8SM OVC012 RMK SC8=

CYXU;2005-01-06 13:20;SPECI CYXU 061320Z 09016KT 2 1/2SM -PL -FZRA OVC010 RMK NS8=

CYXU;2005-01-06 14:00;METAR CYXU 061400Z 09020G26KT 2 1/2SM -PL -FZRA OVC009 M02/M04 A2957 RMK NS8 SLP029=

CYXU;2005-01-06 14:47;SPECI CYXU 061447Z 09018KT 8SM OVC008 REFZRA RMK SC8=

CYXU;2005-01-06 15:00;METAR CYXU 061500Z 10015KT 12SM OVC008 M02/M04 A2957 REFZRA RMK SC8 SLP025=

CYXU;2005-01-06 15:22;SPECI CYXU 061522Z 11013KT 2SM -FZRA BKN007 OVC015 RMK SF5NS3=

CYXU;2005-01-06 16:00;METAR CYXU 061600Z 13009KT 2 1/2SM -FZRA BKN007 OVC015 M01/M03 A2958 RMK SF6NS2 SLP030=

CYXU;2005-01-06 16:13;SPECI CYXU 061613Z 14003KT 2 1/2SM -SNPL BKN007 OVC015 REFZRA RMK SF6NS2=

CYXU;2005-01-06 16:35;SPECI CYXU 061635Z 23005KT 1/2SM R15/P6000FT/D SN OVC008 REFZRA RMK SN4NS4=

CYXU;2005-01-06 16:53;SPECI CYXU 061653Z 26003KT 3/4SM R15/P6000FT/D -SN BR OVC013 REFZRASN RMK FG4NS4=

CYXU;2005-01-06 17:00;METAR CYXU 061700Z 27003KT 1/2SM R15/3500VP6000FT/D -SN FZFG OVC013 M01/M03 A2958 REFZRASN RMK FG6NS2 SLP030=

CYXU;2005-01-06 17:33;SPECI CYXU 061733Z 29005KT 2SM -SN BR OVC022 RMK FG2NS6=

CYXU;2005-01-06 17:48;SPECI CYXU 061748Z 28007KT 8SM BKN008 OVC022 RMK SF5NS3=

CYXU;2005-01-06 18:00;METAR CYXU 061800Z 30007KT 10SM BKN006 OVC022 M01/M03 A2956 RMK SF5SC3 SLP024=

CYXU;2005-01-06 19:00;METAR CYXU 061900Z 27006KT 10SM OVC007 M02/M04 A2958 RMK SC8 SLP030=

CYXU;2005-01-06 19:16;SPECI CYXU 061916Z 27006KT 12SM BKN009 OVC018 RMK SF5SC3=

CYXU;2005-01-06 19:29;SPECI CYXU 061929Z 25006KT 12SM SCT009 OVC015 RMK SF3SC5=

CYXU;2005-01-06 20:00;METAR CYXU 062000Z 24008KT 8SM -SN OVC011 M02/M04 A2961 RMK SC8 SLP038=

CYXU;2005-01-06 21:00;METAR CYXU 062100Z 24014KT 8SM -SN BKN012 OVC020 M02/M05 A2964 RMK SC6SC2 SLP050=

CYXU;2005-01-06 22:00;METAR CYXU 062200Z 24015KT 3SM -SN BKN013 OVC020 M03/M05 A2969 RMK SC5NS3 SLP065=

CYXU;2005-01-06 22:47;SPECI CYXU 062247Z 25015G20KT 6SM -SN BKN013 OVC020 RMK SC6NS2=

CYXU;2005-01-06 23:00;METAR CYXU 062300Z 25013G21KT 6SM -SN SCT013 OVC019 M03/M06 A2973 RMK SC4NS4 SLP078=

CYXU;2005-01-06 23:55;SPECI CYXU 062355Z 26014KT 8SM OVC018 RMK SC8=

CYXU;2005-01-07 00:00;METAR CYXU 070000Z 26012G17KT 8SM BKN017 OVC025 M03/M06 A2977 RMK SC6SC2 SLP093=

CYXU;2005-01-07 00:10;SPECI CYXU 070010Z 27013G19KT 6SM -SN BKN015 OVC020 RMK SC6SC2=

CYXU;2005-01-07 01:00;METAR CYXU 070100Z 28015KT 2SM -SN OVC011 M04/M06 A2981 RMK SN3SC5 SLP108=

CYXU;2005-01-07 01:11;SPECI CYXU 070111Z 27013KT 4SM -SN BKN012 OVC032 RMK SC6SC2=

CYXU;2005-01-07 01:43;SPECI CYXU 070143Z 27014KT 6SM -SN SCT012 OVC032 RMK SC4SC4=

CYXU;2005-01-07 02:00;METAR CYXU 070200Z 28016G22KT 6SM -SN SCT012 OVC035 M04/M07 A2986 RMK SC3SC5 SLP123=

CYXU;2005-01-07 03:00;METAR CYXU 070300Z 28012G17KT 8SM -SN BKN017 OVC035 M05/M08 A2990 RMK SC5SC3 SLP139=

CYXU;2005-01-07 05:00;METAR CYXU 070500Z 28013KT 10SM -SN BKN020 M05/M09 A2998 RMK SC7 PCPN=

CYXU;2005-01-07 05:47;SPECI CYXU 070547Z 27010G18KT 12SM OVC022 RMK SC8=

CYXU;2005-01-07 06:00;METAR CYXU 070600Z 27012KT 15SM OVC022 M06/M10 A3001 RMK SC8 SLP175=

CYXU;2005-01-07 07:00;METAR CYXU 070700Z 27009G15KT 15SM OVC020 M06/M10 A3005 RMK SC8 SLP189=

CYXU;2005-01-07 08:00;METAR CYXU 070800Z 27008KT 15SM OVC018 M06/M09 A3009 RMK SC8 SLP203=

CYXU;2005-01-07 09:00;METAR CYXU 070900Z 25005KT 15SM OVC021 M06/M09 A3011 RMK SC8 SLP210=

CYXU;2005-01-07 10:00;METAR CYXU 071000Z 26005KT 15SM FEW020 M07/M10 A3014 RMK SC2 SLP221=

CYXU;2005-01-07 11:00;METAR CYXU 071100Z 22004KT 15SM FEW020 M08/M11 A3017 RMK SC2 SLP231=

CYXU;2005-01-07 12:00;METAR CYXU 071200Z 18003KT 15SM FEW020 M09/M11 A3019 RMK SC2 FROIN SLP238=

CYXU;2005-01-07 14:00;METAR CYXU 071400Z 24003KT 15SM BKN032 M07/M09 A3023 RMK SC6 SLP253=

CYXU;2005-01-07 15:00;METAR CYXU 071500Z 21004KT 15SM BKN033 M05/M08 A3025 RMK SC6 SLP259=

CYXU;2005-01-07 16:00;METAR CYXU 071600Z 22003KT 15SM BKN031 M03/M08 A3027 RMK SC7 SLP265=

CYXU;2005-01-07 16:53;SPECI CYXU 071653Z 22006KT 3SM -SHSN OVC026 RMK SC8 CU EMBD=

CYXU;2005-01-07 17:52;SPECI CYXU 071752Z 23006KT 8SM -SHSN SCT011 OVC026 RMK SF3SC5 CU EMBD=

CYXU;2005-01-07 18:00;METAR CYXU 071800Z 23008KT 8SM -SHSN BKN013 OVC027 M03/M06 A3023 RMK SC5SC3 CU EMBD SLP251=

CYXU;2005-01-07 18:45;SPECI CYXU 071845Z 21007KT 10SM FEW010 OVC023 RMK SF2SC6=

CYXU;2005-01-07 19:00;METAR CYXU 071900Z 22009KT 10SM FEW010 OVC022 M03/M06 A3023 RMK SF2SC6 SLP250=

CYXU;2005-01-07 20:00;METAR CYXU 072000Z 20004KT 10SM SCT012 BKN020 OVC170 M03/M06 A3021 RMK SC3SC3AC2 SLP246=

CYXU;2005-01-07 21:00;METAR CYXU 072100Z 17004KT 10SM SCT012 OVC024 M03/M06 A3022 RMK SC4SC4 SLP249=

CYXU;2005-01-07 21:21;SPECI CYXU 072121Z 18005KT 10SM BKN013 OVC025 RMK SC6SC2=

CYXU;2005-01-07 22:00;METAR CYXU 072200Z 18005KT 10SM BKN012 OVC025 M03/M05 A3023 RMK SC6SC2 SLP252=

CYXU;2005-01-07 22:47;SPECI CYXU 072247Z 15004KT 8SM SCT012 OVC025 RMK SC3SC5=

CYXU;2005-01-07 22:51;SPECI CYXU 072251Z 15004KT 8SM FEW007 SCT012 OVC025 RMK SF1SC2SC5=

CYXU;2005-01-07 23:00;METAR CYXU 072300Z 15005KT 8SM FEW007 SCT012 OVC024 M03/M05 A3022 RMK SF1SC2SC5 SLP248=

CYXU;2005-01-08 00:00;METAR CYXU 080000Z 15005KT 5SM BR FEW012 OVC150 M03/M05 A3021 RMK SC2AC6 SLP248=

CYXU;2005-01-08 01:00;METAR CYXU 080100Z 00000KT 8SM OVC170 M03/M05 A3022 RMK AC8 SLP250=

CYXU;2005-01-08 02:00;METAR CYXU 080200Z 00000KT 5SM BR OVC190 M04/M06 A3020 RMK AC8 SLP242=

CYXU;2005-01-08 03:00;METAR CYXU 080300Z 04003KT 5SM BR OVC170 M05/M06 A3018 RMK AC8 SLP235=

CYXU;2005-01-08 04:00;METAR CYXU 080400Z 09002KT 5SM BR OVC130 M04/M05 A3016 RMK AC8 SLP229=

CYXU;2005-01-08 05:00;METAR CYXU 080500Z 05003KT 5SM BR OVC110 M04/M05 A3016 RMK AC8 SLP228=

CYXU;2005-01-08 06:00;METAR CYXU 080600Z 09004KT 5SM BR OVC110 M04/M05 A3013 RMK AC8 SLP215=

CYXU;2005-01-08 07:00;METAR CYXU 080700Z 05004KT 5SM BR OVC130 M04/M06 A3010 RMK AC8 SLP208=

CYXU;2005-01-08 08:00;METAR CYXU 080800Z 07004KT 5SM BR OVC120 M04/M05 A3009 RMK AC8 SLP203=

CYXU;2005-01-08 09:00;METAR CYXU 080900Z 04003KT 5SM BR BKN024 OVC110 M03/M05 A3009 RMK SC5AC3 SLP204=

CYXU;2005-01-08 10:00;METAR CYXU 081000Z 01007KT 5SM BR BKN024 OVC093 M03/M05 A3007 RMK SC6AC2 SLP197=

CYXU;2005-01-08 11:00;METAR CYXU 081100Z 02006KT 4SM HZ SCT030 OVC090 M02/M05 A3003 RMK SC3AS5 SLP184=

CYXU;2005-01-08 11:10;SPECI CYXU 081110Z 04006KT 3SM -SN HZ OVC041 RMK NS8=

CYXU;2005-01-08 11:21;SPECI CYXU 081121Z 04004KT 2SM -SN OVC040 RMK SN2NS6=

CYXU;2005-01-08 11:34;SPECI CYXU 081134Z 07005KT 1 1/4SM -SN OVC038 RMK SN2NS6=

CYXU;2005-01-08 12:00;METAR CYXU 081200Z 05007KT 1SM R15/P6000FT/N -SN OVC035 M02/M04 A3003 RMK SN2NS6 SLP182=

CYXU;2005-01-08 12:10;SPECI CYXU 081210Z 05005KT 3/4SM R15/P6000FT/D -SN VV010 RMK SN8=

CYXU;2005-01-08 12:30;SPECI CYXU 081230Z 03005KT 3/4SM R15/P6000FT/N -SN VV008 RMK SN8=

CYXU;2005-01-08 12:36;SPECI CYXU 081236Z 02005KT 1/2SM R15/P6000FT/D SN VV007 RMK SN8=

CYXU;2005-01-08 13:00;METAR CYXU 081300Z 01005KT 1/2SM R15/P6000FT/U SN VV006 M02/M04 A3003 RMK SN8 /S01/ SLP184=

CYXU;2005-01-08 13:37;SPECI CYXU 081337Z 36007KT 3/4SM R15/P6000FT/N -SN VV008 RESN RMK SN8=

CYXU;2005-01-08 14:00;METAR CYXU 081400Z 36007KT 3/4SM R15/P6000FT/N -SN VV007 M02/M04 A3009 RESN RMK SN8 PRESRR /S02/ SLP202=

CYXU;2005-01-08 14:43;SPECI CYXU 081443Z 33006KT 1/2SM R15/6000FT/D SN VV006 RMK SN8=

CYXU;2005-01-08 15:00;METAR CYXU 081500Z 31004KT 3/8SM R15/4000FT/N SN VV005 M02/M03 A3015 RMK SN8 PRESRR /S03/ SLP225=

CYXU;2005-01-08 15:20;SPECI CYXU 081520Z 32005KT 1/2SM R15/3500FT/N SN VV006 RMK SN8=

CYXU;2005-01-08 15:32;SPECI CYXU 081532Z 31006KT 3/4SM R15/4000V5500FT/U -SN VV008 RESN RMK SN8=

CYXU;2005-01-08 15:37;SPECI CYXU 081537Z 31004KT 1SM R15/4500VP6000FT/U -SN VV009 RESN RMK SN8=

CYXU;2005-01-08 15:44;SPECI CYXU 081544Z 31004KT 1 1/2SM -SN OVC035 RESN RMK SN2NS6=

CYXU;2005-01-08 16:00;METAR CYXU 081600Z 30005KT 1 1/2SM -SN VV020 M02/M03 A3019 RESN RMK SN8 /S04/ SLP237=

CYXU;2005-01-08 16:16;SPECI CYXU 081616Z 30005KT 2 1/2SM -SN BR FEW020 OVC055 RMK SF2NS6=

CYXU;2005-01-08 16:29;SPECI CYXU 081629Z 31004KT 3SM -SN BR FEW010 SCT020 OVC100 RMK SF2SC2AS5=

CYXU;2005-01-08 16:45;SPECI CYXU 081645Z 32006KT 3SM BR SCT010 BKN020 RMK SF3SC3=

CYXU;2005-01-08 17:00;METAR CYXU 081700Z 32009KT 4SM BR FEW010 BKN021 M02/M04 A3020 RMK SF2SC6 SLP239=

CYXU;2005-01-08 18:00;METAR CYXU 081800Z 32009KT 5SM HZ BKN017 BKN080 M01/M05 A3020 RMK SC5AC2 SLP239=

CYXU;2005-01-08 19:00;METAR CYXU 081900Z 32008KT 8SM BKN016 M01/M05 A3023 RMK SC7 SLP249=

CYXU;2005-01-08 23:00;METAR CYXU 082300Z 24002KT 10SM OVC018 M02/M05 A3036 RMK SC8 SLP293=

CYXU;2005-01-09 01:00;METAR CYXU 090100Z 22002KT 10SM OVC022 M02/M04 A3037 RMK SC8 SLP299=

CYXU;2005-01-09 02:00;METAR CYXU 090200Z 00000KT 8SM FEW013 OVC018 M02/M04 A3037 RMK SC2SC6 SLP296=

CYXU;2005-01-09 03:00;METAR CYXU 090300Z 10002KT 5SM HZ BKN012 OVC020 M02/M05 A3037 RMK SC5SC3 SLP296=

CYXU;2005-01-09 04:00;METAR CYXU 090400Z 18003KT 5SM BR BKN012 OVC020 M03/M05 A3036 RMK SC6SC2 SLP295=

CYXU;2005-01-09 05:35;SPECI CYXU 090535Z 00000KT 5SM BR SCT009 OVC019 RMK SC4SC4=

CYXU;2005-01-09 07:00;METAR CYXU 090700Z 00000KT 4SM BR BKN008 OVC018 M03/M04 A3035 RMK SC6SC2 SLP291=

CYXU;2005-01-09 09:00;METAR CYXU 090900Z 34002KT 1 1/2SM -SN BR OVC004 M03/M04 A3035 RMK SC8 SLP291=

CYXU;2005-01-09 10:00;METAR CYXU 091000Z 09002KT 1 1/2SM -SN BR BKN004 OVC009 M03/M04 A3033 RMK SC6SC2 SLP285=

CYXU;2005-01-09 10:40;SPECI CYXU 091040Z 12002KT 1 1/2SM -FZDZ BR OVC005 RMK SC8=

CYXU;2005-01-09 11:40;SPECI CYXU 091140Z 13002KT 1 1/2SM -SN OVC004 RMK SC8 REFZDZ=

CYXU;2005-01-09 12:00;METAR CYXU 091200Z 12004KT 1 1/2SM -SN OVC006 M03/M04 A3031 RMK SC8 REFZDZ SLP279=

CYXU;2005-01-09 12:27;SPECI CYXU 091227Z 13002KT 1SM R15/P6000FT/N -SN BR OVC005 RMK SC8=

CYXU;2005-01-09 13:00;METAR CYXU 091300Z 00000KT 3/4SM R15/P6000FT/U BR OVC004 M03/M04 A3032 RMK SC8 SLP281=

CYXU;2005-01-09 14:00;METAR CYXU 091400Z 00000KT 3/4SM R15/P6000FT/U BR OVC006 M02/M04 A3032 RMK ST8 SLP280=

CYXU;2005-01-09 15:00;METAR CYXU 091500Z 20005KT 1SM R15/P6000FT/N BR OVC007 M02/M03 A3032 RMK ST8 SLP279=

CYXU;2005-01-09 15:34;SPECI CYXU 091534Z 19004KT 1SM R15/P6000FT/N -SG BR BKN005 OVC023 RMK ST6SC2=

CYXU;2005-01-09 16:00;METAR CYXU 091600Z 23006KT 3SM -SG SCT005 OVC021 M01/M03 A3029 RMK SF3SC5 SLP270=

CYXU;2005-01-09 16:42;SPECI CYXU 091642Z 23007KT 5SM HZ OVC021 RMK SC8=

CYXU;2005-01-09 17:00;METAR CYXU 091700Z 22008KT 5SM HZ OVC021 M01/M04 A3026 RMK SC8 SLP260=

CYXU;2005-01-09 18:00;METAR CYXU 091800Z 22008KT 5SM HZ BKN013 OVC020 M01/M04 A3022 RMK SC6SC2 SLP245=

CYXU;2005-01-09 22:00;METAR CYXU 092200Z 17007KT 5SM HZ OVC016 00/M03 A3012 RMK SC8 SLP213=

CYXU;2005-01-09 22:19;SPECI CYXU 092219Z 17006KT 3SM HZ OVC013 RMK SC8=

CYXU;2005-01-10 00:00;METAR CYXU 100000Z 17007KT 8SM OVC018 00/M02 A3007 RMK SC8 SLP194=

CYXU;2005-01-10 01:00;METAR CYXU 100100Z 17006KT 10SM OVC016 00/M02 A3003 RMK SC8 SLP181=

CYXU;2005-01-10 03:00;METAR CYXU 100300Z 17007KT 8SM OVC053 01/M01 A2996 RMK SC8 SLP157=

CYXU;2005-01-10 04:00;METAR CYXU 100400Z 17007KT 8SM OVC057 01/M01 A2993 RMK SC8 SLP147=

CYXU;2005-01-10 05:24;SPECI CYXU 100524Z 21007KT 6SM BR BKN014 OVC052 RMK SC6SC2=

CYXU;2005-01-10 06:00;METAR CYXU 100600Z 22008KT 6SM BR BKN014 OVC050 02/M00 A2987 RMK SC6SC2 SLP125=

CYXU;2005-01-10 06:42;SPECI CYXU 100642Z 26012G17KT 8SM OVC009 RMK SC8=

CYXU;2005-01-10 07:44;SPECI CYXU 100744Z 27012G18KT 8SM -DZ OVC008 RMK SC8=

CYXU;2005-01-10 10:00;METAR CYXU 101000Z 28012G21KT 8SM -DZ OVC008 01/M02 A2996 RMK SC8 SLP155=

CYXU;2005-01-10 10:12;SPECI CYXU 101012Z 28011G21KT 10SM BKN012 OVC031 RMK SC5SC3=

CYXU;2005-01-10 12:00;METAR CYXU 101200Z 29010G16KT 10SM SCT018 OVC026 01/M03 A3003 RMK SC3SC5 SLP179=

CYXU;2005-01-10 13:00;METAR CYXU 101300Z 29012G19KT 15SM BKN018 OVC028 M00/M04 A3007 RMK SC6SC2 SLP192=

CYXU;2005-01-10 14:00;METAR CYXU 101400Z 29008KT 15SM FEW018 OVC025 M00/M04 A3009 RMK CF1SC7 SLP198=

CYXU;2005-01-10 15:00;METAR CYXU 101500Z 27013KT 15SM OVC020 M00/M05 A3013 RMK SC8 SLP215=

CYXU;2005-01-10 16:00;METAR CYXU 101600Z 29010KT 15SM OVC020 M01/M05 A3017 RMK SC8 SLP226=

CYXU;2005-01-10 17:00;METAR CYXU 101700Z 27010G15KT 15SM OVC021 M01/M05 A3015 RMK SC8 SLP222=

CYXU;2005-01-10 18:00;METAR CYXU 101800Z 29007KT 15SM OVC020 M01/M05 A3015 RMK SC8 SLP219=

CYXU;2005-01-10 19:00;METAR CYXU 101900Z 27012KT 15SM SCT020 M01/M06 A3015 RMK SC4 SLP219=

CYXU;2005-01-10 20:00;METAR CYXU 102000Z 27009KT 15SM BKN020 M00/M06 A3015 RMK SC6 SLP221=

CYXU;2005-01-10 21:00;METAR CYXU 102100Z 29010KT 15SM FEW020 BKN120 M01/M06 A3017 RMK SC2AC4 SLP229=

CYXU;2005-01-10 22:00;METAR CYXU 102200Z 29003KT 15SM BKN130 BKN200 M01/M06 A3019 RMK AC6CI1 SLP233=

CYXU;2005-01-10 23:00;METAR CYXU 102300Z 32003KT 15SM OVC130 M01/M05 A3019 RMK AC8 SLP235=

CYXU;2005-01-11 00:00;METAR CYXU 110000Z 30003KT 15SM OVC130 M02/M05 A3019 RMK AC8 VIRGA SLP236=

CYXU;2005-01-11 01:00;METAR CYXU 110100Z 24003KT 15SM OVC140 M02/M05 A3020 RMK AC8 SLP237=

CYXU;2005-01-11 04:00;METAR CYXU 110400Z 13002KT 12SM FEW020 OVC100 M02/M05 A3021 RMK SC2AC6 VIRGA SLP243=

CYXU;2005-01-11 05:00;METAR CYXU 110500Z 18002KT 10SM OVC020 M02/M05 A3023 RMK SC8 SLP248=

CYXU;2005-01-11 05:31;SPECI CYXU 110531Z 16002KT 10SM -SHSN OVC020 RMK SC8=

CYXU;2005-01-11 06:00;METAR CYXU 110600Z 12002KT 6SM -SN BKN020 OVC060 M02/M05 A3021 RMK SC6SC2 SLP243=

CYXU;2005-01-11 08:00;METAR CYXU 110800Z 09004KT 8SM -SN OVC050 M02/M04 A3019 RMK SC8 SLP237=

CYXU;2005-01-11 09:00;METAR CYXU 110900Z 09004KT 12SM -SHSN FEW015 OVC060 M02/M05 A3018 RMK SC2SC6 TCU EMBDD SLP234=

CYXU;2005-01-11 10:00;METAR CYXU 111000Z 10007KT 5SM -SHSN FEW015 OVC030 M02/M05 A3017 RMK SC2SC6 TCU EMBDD SLP231=

CYXU;2005-01-11 10:31;SPECI CYXU 111031Z 12008KT 1 1/4SM -SHSN OVC025 RMK SN5SC3 TCU EMBDD=

CYXU;2005-01-11 10:45;SPECI CYXU 111045Z 11009KT 1 1/4SM -SHSN OVC019 RMK SN6SC2 TCU EMBDD=

CYXU;2005-01-11 11:29;SPECI CYXU 111129Z 10010KT 2SM -SHSN OVC022 RMK SN6SC2 /S01/TCU EMBD=

CYXU;2005-01-11 12:00;METAR CYXU 111200Z 10008KT 2SM -SHSN OVC022 M03/M05 A3014 RMK SN4SC4 TCU EMBD SLP219=

CYXU;2005-01-11 12:35;SPECI CYXU 111235Z 10009KT 1 1/2SM -SHSN BKN014 OVC033 RMK SN4SC3SC1 TCU EMBD=

CYXU;2005-01-11 13:00;METAR CYXU 111300Z 09009KT 2SM -SHSN BKN014 OVC042 M03/M05 A3014 RMK SN3SC4SC1 TCU EMBD SLP219=

CYXU;2005-01-11 13:13;SPECI CYXU 111313Z 09011KT 2 1/2SM -SHSN FEW008 BKN018 OVC060 RMK SN1SF1SC6SC1 TCU EMBDD=

CYXU;2005-01-11 13:35;SPECI CYXU 111335Z 08010KT 3SM BR BKN009 OVC025 RMK SC7SC1=

CYXU;2005-01-11 14:00;METAR CYXU 111400Z 08009KT 4SM BR BKN009 OVC080 M03/M05 A3014 RMK SF6AC2 SLP219=

CYXU;2005-01-11 14:37;SPECI CYXU 111437Z 09012KT 8SM BKN010 OVC065 RMK SF6SC2=

CYXU;2005-01-11 15:00;METAR CYXU 111500Z 10011KT 8SM BKN009 BKN038 OVC095 M03/M05 A3013 RMK SF5SC2AC1 SLP217=

CYXU;2005-01-11 16:00;METAR CYXU 111600Z 09012KT 8SM BKN009 OVC034 M02/M04 A3012 RMK SF6SC2 SLP214=

CYXU;2005-01-11 17:17;SPECI CYXU 111717Z 08012G17KT 8SM SCT010 OVC028 RMK SF3SC5=

CYXU;2005-01-11 18:00;METAR CYXU 111800Z 08017KT 10SM FEW010 BKN030 OVC060 M01/M04 A3004 RMK SF1SC4SC3 SLP186=

CYXU;2005-01-11 18:11;SPECI CYXU 111811Z 08015KT 8SM -SN FEW010 BKN030 OVC060 RMK SF1SC4SC3=

CYXU;2005-01-11 21:00;METAR CYXU 112100Z 07013G19KT 10SM OVC018 M01/M04 A3005 RMK ST8 SLP187=

CYXU;2005-01-11 21:41;SPECI CYXU 112141Z 08012G18KT 10SM BKN012 OVC018 RMK ST5ST3=

CYXU;2005-01-11 22:00;METAR CYXU 112200Z 07013KT 10SM BKN012 OVC017 M01/M04 A3005 RMK SC7ST1 SLP187=

CYXU;2005-01-11 22:12;SPECI CYXU 112212Z 08013G19KT 10SM OVC009 RMK SC8=

CYXU;2005-01-11 23:41;SPECI CYXU 112341Z 08017G24KT 10SM DRSN OVC005 RMK SC8=

CYXU;2005-01-12 00:17;SPECI CYXU 120017Z 08015G22KT 10SM -SN DRSN OVC003 RMK SC8 SN VRY LGT=

CYXU;2005-01-12 01:00;METAR CYXU 120100Z 08015KT 10SM -SG DRSN OVC003 M02/M03 A3003 RMK ST8 SLP183=

CYXU;2005-01-12 02:40;SPECI CYXU 120240Z 09012G17KT 4SM BR OVC005 RMK ST8=

CYXU;2005-01-12 03:00;METAR CYXU 120300Z 09012KT 6SM BR OVC007 M01/M03 A3003 RMK ST8 SLP180=

CYXU;2005-01-12 04:00;METAR CYXU 120400Z 09015KT 8SM OVC007 M01/M03 A2999 RMK ST8 SLP169=

CYXU;2005-01-12 05:00;METAR CYXU 120500Z 09010G15KT 8SM OVC008 M01/M03 A2999 RMK ST8 SLP168=

CYXU;2005-01-12 07:00;METAR CYXU 120700Z 09010G15KT 3SM BR OVC004 M01/M03 A2995 RMK ST8 SLP154=

CYXU;2005-01-12 09:13;SPECI CYXU 120913Z 09012KT 3SM -FZRA OVC003 RMK ST8 ZR VERY LIGHT=

CYXU;2005-01-12 12:00;METAR CYXU 121200Z 10013KT 3SM BR OVC004 00/M01 A2988 REFZDZ RMK FG1ST7 TEMP 0.0 SLP131=

CYXU;2005-01-12 12:25;SPECI CYXU 121225Z 10012G17KT 2SM -RA BR OVC004 REFZDZ RMK FG2ST6 TEMP 0.2=

CYXU;2005-01-12 13:00;METAR CYXU 121300Z 09013KT 2 1/2SM -RA BR OVC003 00/M01 A2986 RMK FG2ST6 SLP125=

CYXU;2005-01-12 14:43;SPECI CYXU 121443Z 10012KT 2 1/2SM RA BR OVC004 RMK FG2ST6=

CYXU;2005-01-12 15:00;METAR CYXU 121500Z 10012KT 2 1/2SM RA BR BKN004 OVC007 01/M01 A2986 RMK FG2ST4ST2 SLP124=

CYXU;2005-01-12 15:29;SPECI CYXU 121529Z 09012KT 3SM -RA BR BKN004 OVC007 RERA RMK FG2ST5ST2 R- INTMT=

CYXU;2005-01-12 16:00;METAR CYXU 121600Z 10010KT 4SM BR BKN003 OVC007 01/M00 A2983 RERA RMK ST6ST2 INTMT R- SLP112=

CYXU;2005-01-12 16:36;SPECI CYXU 121636Z 11008KT 1 1/4SM -RA BR BKN003 OVC007 RMK FG2ST5ST2=

CYXU;2005-01-12 17:00;METAR CYXU 121700Z 09006KT 1 1/4SM RA BR BKN003 OVC007 02/01 A2983 RMK FG2ST5ST2 SLP113=

CYXU;2005-01-12 17:28;SPECI CYXU 121728Z 08008KT 2SM -RA BR BKN003 OVC006 RERA RMK FG2ST3ST3=

CYXU;2005-01-12 17:43;SPECI CYXU 121743Z 08005KT 3SM BR BKN003 OVC007 RERA RMK ST6ST2=

CYXU;2005-01-12 18:00;METAR CYXU 121800Z 10006KT 2 1/2SM BR BKN003 OVC007 02/01 A2980 RERA RMK FG1ST5ST2 SLP102=

CYXU;2005-01-12 18:25;SPECI CYXU 121825Z 11008KT 3/4SM R15/P6000FT/D BR OVC002 RMK FG3ST5=

CYXU;2005-01-12 18:35;SPECI CYXU 121835Z 09007KT 1/2SM R15/3000VP6000FT/D FG VV002 RMK FG8=

CYXU;2005-01-12 18:53;SPECI CYXU 121853Z 11006KT 3/8SM R15/2000FT/D FG VV002 RMK FG8=

CYXU;2005-01-12 19:00;METAR CYXU 121900Z 12006KT 1/4SM R15/1600FT/N FG VV001 03/02 A2979 RMK FG8 SLP098=

CYXU;2005-01-12 19:15;SPECI CYXU 121915Z 14006KT 1/8SM R15/1200FT/N FG VV001 RMK FG8=

CYXU;2005-01-12 20:00;METAR CYXU 122000Z 13006KT 1/8SM R15/0900FT/N FG VV001 04/03 A2979 RMK FG8 SLP097=

CYXU;2005-01-12 20:44;SPECI CYXU 122044Z 10006KT 1/8SM R15/1000FT/N -TSRA FG VV001 RMK FG8 CB EMBD=

CYXU;2005-01-12 21:00;METAR CYXU 122100Z 12007KT 1/8SM R15/1200FT/N -TSRA FG VV001 04/03 A2979 RMK FG8 CB EMBD SLP096=

CYXU;2005-01-12 21:18;SPECI CYXU 122118Z 11006KT 1/8SM R15/1100FT/N FG VV001 RETS RMK FG8=

CYXU;2005-01-12 22:00;METAR CYXU 122200Z 11005KT 1/8SM R15/1100FT/N FG VV001 05/05 A2980 RMK FG8 SLP100=

CYXU;2005-01-12 23:00;METAR CYXU 122300Z 16006KT 1/8SM R15/0900V1200FT/N FG VV001 07/06 A2979 RMK FG8 SLP098=

CYXU;2005-01-12 23:38;SPECI CYXU 122338Z 18012KT 1/4SM R15/1200V4000FT/U FG BKN003 OVC040 RMK FG5SF2SC2=

CYXU;2005-01-12 23:42;SPECI CYXU 122342Z 18013KT 1/2SM R15/1600V6000FT/U FG BKN003 OVC040 RMK FG5SF1SC2=

CYXU;2005-01-12 23:46;SPECI CYXU 122346Z 18012KT 3/4SM R15/3000VP6000FT/U BR BKN003 OVC040 RMK FG5SF1SC2=

CYXU;2005-01-13 00:00;METAR CYXU 130000Z 18012KT 1SM R15/P6000FT/N BR SCT003 BKN026 OVC042 09/09 A2980 RMK FG4SF1SC2SC2 FROPA SLP097=

CYXU;2005-01-13 00:51;SPECI CYXU 130051Z 18010KT 1 1/2SM BR FEW003 SCT026 BKN040 RMK FG2SF1SC1SC3=

CYXU;2005-01-13 01:00;METAR CYXU 130100Z 18012KT 2SM BR FEW026 BKN040 09/09 A2980 RMK SC2SC4 SLP098=

CYXU;2005-01-13 02:00;METAR CYXU 130200Z 17010KT 1SM R15/2200VP6000FT/D BR BKN040 08/08 A2979 RMK FG3SC3 SLP096=

CYXU;2005-01-13 02:22;SPECI CYXU 130222Z 17008KT 3/4SM R15/2000FT/N BR BKN040 OVC170 RMK FG3SC3AC2=

CYXU;2005-01-13 04:00;METAR CYXU 130400Z 17007KT 1SM R15/P6000FT/N BR OVC060 08/08 A2978 RMK FG4SC4 SLP093=

CYXU;2005-01-13 04:36;SPECI CYXU 130436Z 17008KT 4SM BR OVC065 RMK SC8=

CYXU;2005-01-13 07:00;METAR CYXU 130700Z 19015G20KT 12SM SCT050 OVC075 12/09 A2973 RMK SC3AC5 SLP072=

CYXU;2005-01-13 10:00;METAR CYXU 131000Z 19017G22KT 15SM BKN045 OVC080 13/08 A2967 RMK SC5AC3 SLP051=

CYXU;2005-01-13 11:00;METAR CYXU 131100Z 19015G21KT 15SM BKN055 BKN080 13/08 A2965 RMK SC5AC2 SLP044=

CYXU;2005-01-13 12:00;METAR CYXU 131200Z 19015G21KT 15SM BKN060 BKN120 12/08 A2964 RMK SC5AC2 SLP039=

CYXU;2005-01-13 12:41;SPECI CYXU 131241Z 20016G27KT 12SM -SHRA SCT040 BKN060 OVC098 RMK SC3SC2AC2 TCU ASOCTD=

CYXU;2005-01-13 12:54;SPECI CYXU 131254Z 20019G30KT 3SM -SHRA BR BKN025 OVC052 RMK SC6SC2 TCU ASOCTD=

CYXU;2005-01-13 13:00;METAR CYXU 131300Z 19019G26KT 2 1/2SM -SHRA BR BKN025 OVC050 11/09 A2963 RMK FG2SC4SC2 TCU ASOCTD VIS HIER NW-N SLP035=

CYXU;2005-01-13 13:10;SPECI CYXU 131310Z 18019G26KT 5SM -SHRA BR FEW020 BKN044 OVC050 RMK SC2SC3SC2 TCU ASOCTD=

CYXU;2005-01-13 13:36;SPECI CYXU 131336Z 18016KT 10SM FEW020 BKN052 OVC070 RMK SC2SC4AC2=

CYXU;2005-01-13 15:00;METAR CYXU 131500Z 18016G22KT 15SM FEW025 BKN062 BKN080 13/07 A2962 RMK SC1SC6AC1 SLP031=

CYXU;2005-01-13 16:00;METAR CYXU 131600Z 18020G27KT 15SM BKN048 OVC065 14/08 A2960 RMK SC6SC2 SLP024=

CYXU;2005-01-13 18:00;METAR CYXU 131800Z 19017G28KT 15SM BKN045 OVC080 14/08 A2951 RMK SC5AC3 SLP993=

CYXU;2005-01-13 18:36;SPECI CYXU 131836Z 20019G26KT 8SM -SHRA BKN040 OVC060 RMK SC6SC2 TCU ASOCTD=

CYXU;2005-01-13 19:00;METAR CYXU 131900Z 23013G20KT 10SM -SHRA BKN040 OVC060 13/08 A2950 RMK SC6SC2 TCU ASOCTD SLP991=

CYXU;2005-01-13 19:52;SPECI CYXU 131952Z 22008KT 6SM -RA BR BKN013 OVC030 RMK SF5NS3=

CYXU;2005-01-13 20:00;METAR CYXU 132000Z 22009KT 3SM -RA BR BKN011 OVC030 11/09 A2949 RMK SF6NS2 SLP986=

CYXU;2005-01-13 20:09;SPECI CYXU 132009Z 21008KT 2 1/2SM RA BR OVC009 RMK SF8=

CYXU;2005-01-13 20:41;SPECI CYXU 132041Z 30012G17KT 2 1/2SM RA BR OVC005 RMK SF8 FROPA=

CYXU;2005-01-13 20:50;SPECI CYXU 132050Z 31009G17KT 3SM RA BR SCT005 OVC045 RMK SF4NS4=

CYXU;2005-01-13 21:00;METAR CYXU 132100Z 31008KT 6SM -RA BR SCT005 OVC050 07/06 A2952 RMK SF3SC5 SLP000=

CYXU;2005-01-13 21:05;SPECI CYXU 132105Z 31012KT 6SM -RA BR BKN004 OVC050 RMK SF5SC3=

CYXU;2005-01-13 21:25;SPECI CYXU 132125Z 30012KT 7SM -RA OVC006 RMK SF8=

CYXU;2005-01-13 22:00;METAR CYXU 132200Z 32015G25KT 5SM -RA BR BKN006 OVC014 04/03 A2960 RMK SF7SC1 PRESRR SLP024=

CYXU;2005-01-13 22:30;SPECI CYXU 132230Z 33015KT 5SM -RA BR FEW008 BKN010 OVC022 RMK SF1SC6SC2 PRESRR=

CYXU;2005-01-13 23:19;SPECI CYXU 132319Z 32014G21KT 4SM -RASN BR BKN009 OVC015 RMK SF5SC3=

CYXU;2005-01-13 23:47;SPECI CYXU 132347Z 33012G21KT 4SM -RAPL BR OVC009 RMK SF8=

CYXU;2005-01-14 00:00;METAR CYXU 140000Z 32012G18KT 6SM -PLSN OVC008 01/M00 A2971 RMK SF8 PRESRR SLP066=

CYXU;2005-01-14 00:11;SPECI CYXU 140011Z 32011G18KT 2SM -SN OVC007 RMK SF8 PRESRR=

CYXU;2005-01-14 00:22;SPECI CYXU 140022Z 32013G19KT 1SM R15/P6000FT/D -SN OVC005 RMK SN2SF6=

CYXU;2005-01-14 02:00;METAR CYXU 140200Z 32009G16KT 1SM R15/P6000FT/D -SN OVC007 00/M01 A2978 RMK SF8 PRESRR SLP088=

CYXU;2005-01-14 04:00;METAR CYXU 140400Z 31007KT 1SM R15/P6000FT/D -SN OVC007 00/M01 A2986 RMK SN1NS7 /S01/ SLP115=

CYXU;2005-01-14 05:00;METAR CYXU 140500Z 31007KT 2 1/2SM -SN SCT007 OVC011 00/M01 A2990 RMK SF3NS5 SLP129=

CYXU;2005-01-14 05:49;SPECI CYXU 140549Z 30008KT 10SM OVC020 RMK SF8=

CYXU;2005-01-14 06:00;METAR CYXU 140600Z 30006KT 10SM OVC020 M00/M01 A2992 RMK SF8 /S02/ SLP137=

CYXU;2005-01-14 08:00;METAR CYXU 140800Z 29009KT 10SM OVC021 M00/M02 A3000 RMK SF8 SLP163=

CYXU;2005-01-14 13:00;METAR CYXU 141300Z 31016KT 15SM -SHSN BKN021 M05/M09 A3025 RMK SC7 CU EMBD SLP255=

CYXU;2005-01-14 14:00;METAR CYXU 141400Z 31013KT 8SM -SHSN BKN030 M06/M11 A3030 RMK CU7 SLP272=

CYXU;2005-01-14 14:40;SPECI CYXU 141440Z 30011G22KT 15SM SCT023 RMK SC4=

CYXU;2005-01-14 15:00;METAR CYXU 141500Z 31015KT 15SM VCSH SCT023 M08/M12 A3035 RMK SC4 SW- NW SLP291=

CYXU;2005-01-14 15:55;SPECI CYXU 141555Z 28012G18KT 8SM -SHSN BKN025 RMK CU5=

CYXU;2005-01-14 16:00;METAR CYXU 141600Z 28011G17KT 8SM -SHSN BKN020 M08/M13 A3038 RMK CU5 VIS NE 4 SLP301=

CYXU;2005-01-14 17:00;METAR CYXU 141700Z 31014G19KT 15SM SCT024 M09/M14 A3040 RMK SC4 SLP310=

CYXU;2005-01-14 18:00;METAR CYXU 141800Z 31013G18KT 15SM BKN025 M08/M13 A3040 RMK SC5 SLP309=

CYXU;2005-01-14 21:00;METAR CYXU 142100Z 31010G15KT 15SM VCSH BKN035 M09/M16 A3048 RMK SC5 SLP337=

CYXU;2005-01-14 22:00;METAR CYXU 142200Z 29006KT 15SM VCSH BKN035 M10/M16 A3048 RMK SC6 SLP339=

CYXU;2005-01-15 00:00;METAR CYXU 150000Z 27007KT 15SM VCSH BKN037 M10/M15 A3053 RMK SC6 SLP355=

CYXU;2005-01-15 04:00;METAR CYXU 150400Z 27008KT 15SM SKC M11/M16 A3059 RMK SLP377=

CYXU;2005-01-15 05:00;METAR CYXU 150500Z 27006KT 15SM SKC M11/M16 A3059 RMK SLP378=

CYXU;2005-01-15 07:00;METAR CYXU 150700Z 27008KT 15SM SKC M11/M15 A3061 RMK SLP385=

CYXU;2005-01-15 08:00;METAR CYXU 150800Z 28010KT 15SM FEW020 M11/M15 A3062 RMK SC1 SLP390=

CYXU;2005-01-15 11:00;METAR CYXU 151100Z 29007KT 15SM FEW060 M12/M17 A3064 RMK SC1 SLP395=

CYXU;2005-01-15 12:00;METAR CYXU 151200Z 28008KT 15SM FEW060 M12/M16 A3065 RMK SC2 SLP401=

CYXU;2005-01-15 13:00;METAR CYXU 151300Z 27009KT 15SM FEW060 M12/M16 A3067 RMK SC2 SLP407=

CYXU;2005-01-15 16:00;METAR CYXU 151600Z 29007KT 15SM BKN020 M10/M15 A3071 RMK SC5 SLP420=

CYXU;2005-01-15 17:00;METAR CYXU 151700Z 29009KT 15SM BKN023 M09/M15 A3069 RMK SC5 SLP414=

CYXU;2005-01-15 18:00;METAR CYXU 151800Z 26008KT 15SM BKN024 M09/M14 A3067 RMK SC5 SLP405=

CYXU;2005-01-15 19:00;METAR CYXU 151900Z 26006KT 15SM SCT025 M09/M14 A3065 RMK SC4 SLP400=

CYXU;2005-01-15 20:00;METAR CYXU 152000Z 25010G15KT 15SM BKN025 M08/M14 A3063 RMK SC5 SLP394=

CYXU;2005-01-15 22:00;METAR CYXU 152200Z 24008KT 15SM VCSH BKN025 M08/M14 A3064 RMK SC5 SLP395=

CYXU;2005-01-15 23:00;METAR CYXU 152300Z 22005KT 15SM BKN033 M08/M13 A3065 RMK SC5 SLP400=

CYXU;2005-01-16 00:00;METAR CYXU 160000Z 22007KT 15SM FEW030 BKN200 M08/M14 A3066 RMK SC2CS1 SLP403=

CYXU;2005-01-16 03:00;METAR CYXU 160300Z 25005KT 15SM SCT140 M09/M12 A3064 RMK AS2 SLP397=

CYXU;2005-01-16 04:00;METAR CYXU 160400Z 26004KT 15SM SCT160 M09/M13 A3064 RMK AS2 SLP394=

CYXU;2005-01-16 05:00;METAR CYXU 160500Z 29005KT 15SM SKC M10/M14 A3063 RMK SLP393=

CYXU;2005-01-16 06:00;METAR CYXU 160600Z 28005KT 15SM SCT140 M10/M14 A3062 RMK AS1 SLP390=

CYXU;2005-01-16 07:00;METAR CYXU 160700Z 30005KT 15SM FEW140 M10/M14 A3062 RMK AS0 SLP389=

CYXU;2005-01-16 09:00;METAR CYXU 160900Z 30003KT 15SM SCT120 M11/M15 A3060 RMK AS1 SLP382=

CYXU;2005-01-16 11:00;METAR CYXU 161100Z 00000KT 15SM SCT110 M11/M14 A3058 RMK AS2 FROIN SLP377=

CYXU;2005-01-16 12:00;METAR CYXU 161200Z 00000KT 15SM SCT110 M11/M14 A3059 RMK AS2 SLP378=

CYXU;2005-01-16 13:00;METAR CYXU 161300Z 06002KT 15SM FEW090 BKN150 M11/M14 A3057 RMK AC2AC2 SLP372=

CYXU;2005-01-16 14:00;METAR CYXU 161400Z 36004KT 15SM FEW065 BKN110 M10/M14 A3056 RMK SC2AS3 SLP368=

CYXU;2005-01-16 16:00;METAR CYXU 161600Z 06004KT 15SM FEW070 OVC100 M09/M15 A3054 RMK AC2AS5 SLP363=

CYXU;2005-01-16 16:35;SPECI CYXU 161635Z 05003KT 12SM -SHSN FEW023 OVC090 RMK CU2AS6=

CYXU;2005-01-16 17:00;METAR CYXU 161700Z 36002KT 6SM -SHSN BKN014 OVC030 M09/M14 A3051 RMK SC6SC2 SLP351=

CYXU;2005-01-16 17:37;SPECI CYXU 161737Z 02004KT 2 1/2SM -SHSN BKN012 OVC020 RMK CU5SC3=

CYXU;2005-01-16 18:00;METAR CYXU 161800Z 02002KT 2 1/2SM -SHSN BKN012 OVC020 M09/M13 A3047 RMK CU5SC3 SLP339=

CYXU;2005-01-16 18:54;SPECI CYXU 161854Z 34004KT 2 1/2SM -SHSN BKN020 OVC034 RMK CU5SC3=

CYXU;2005-01-16 19:00;METAR CYXU 161900Z 34004KT 2 1/2SM -SHSN BKN020 OVC034 M09/M13 A3044 RMK CU5SC3 SLP329=

CYXU;2005-01-16 19:14;SPECI CYXU 161914Z 35004KT 2 1/2SM -SHSN FEW009 OVC014 RMK CF2CU6=

CYXU;2005-01-16 20:00;METAR CYXU 162000Z 35004KT 3SM -SHSN OVC020 M09/M13 A3043 RMK SC8 CU EMBDD SLP323=

CYXU;2005-01-16 21:00;METAR CYXU 162100Z 33005KT 1 1/2SM -SHSN OVC015 M09/M12 A3042 RMK SN4CU4 SLP321=

CYXU;2005-01-16 21:06;SPECI CYXU 162106Z 34005KT 4SM -SHSN OVC020 RMK SC8 CU EMBDD=

CYXU;2005-01-16 21:27;SPECI CYXU 162127Z 34008KT 10SM -SHSN SCT020 OVC060 RMK CU3SC5=

CYXU;2005-01-16 21:42;SPECI CYXU 162142Z 34007KT 15SM FEW020 BKN060 OVC250 RMK CU2SC2CI3=

CYXU;2005-01-16 22:00;METAR CYXU 162200Z 35005KT 15SM FEW020 SCT060 OVC250 M09/M14 A3041 RMK CU2SC2CI4 N-S LINE OF CU WEST VCSH SLP319=

CYXU;2005-01-17 00:00;METAR CYXU 170000Z 30005KT 12SM -SHSN BKN027 OVC120 M09/M13 A3043 RMK CU6AC2 SLP324=

CYXU;2005-01-17 02:06;SPECI CYXU 170206Z 32007KT 1/2SM R15/4500VP6000FT/D SHSN VV003 RMK SN8=

CYXU;2005-01-17 02:14;SPECI CYXU 170214Z 33004KT 1 1/2SM R15/2400VP6000FT/U -SHSN VV008 RESN RMK SN8 /S01/=

CYXU;2005-01-17 02:38;SPECI CYXU 170238Z 28007KT 2SM -SHSN OVC022 RESN RMK SN6CU2=

CYXU;2005-01-17 03:00;METAR CYXU 170300Z 28007KT 2SM -SHSN BKN022 OVC039 M11/M13 A3045 RESN RMK SN4CU2SC2 SLP332=

CYXU;2005-01-17 03:09;SPECI CYXU 170309Z 29008KT 5SM -SHSN BKN027 OVC040 RESN RMK CU5SC3=

CYXU;2005-01-17 04:00;METAR CYXU 170400Z 27007KT 15SM -SHSN FEW027 BKN040 M12/M15 A3044 RMK CU2SC3 SLP330=

CYXU;2005-01-17 05:00;METAR CYXU 170500Z 27011G16KT 15SM -SHSN DRSN FEW027 BKN040 M11/M15 A3044 RMK CU2SC5 OCNL SW- SLP327=

CYXU;2005-01-17 06:00;METAR CYXU 170600Z 28008G16KT 15SM DRSN BKN040 M12/M16 A3043 RMK SC5 SLP325=

CYXU;2005-01-17 07:00;METAR CYXU 170700Z 27008KT 15SM SCT040 M13/M17 A3043 RMK SC3 SLP324=

CYXU;2005-01-17 08:31;SPECI CYXU 170831Z 28012KT 8SM -SHSN SCT025 BKN040 RMK CU3SC2=

CYXU;2005-01-17 09:00;METAR CYXU 170900Z 27012KT 12SM -SHSN FEW025 BKN040 M12/M16 A3042 RMK CU2SC4 SLP321=

CYXU;2005-01-17 10:00;METAR CYXU 171000Z 26009KT 4SM -SHSN FEW010 SCT020 BKN040 M13/M16 A3041 RMK SF1SC2CU4 SLP318=

CYXU;2005-01-17 12:00;METAR CYXU 171200Z 27010KT 10SM FEW010 SCT020 M13/M16 A3041 RMK SF1SC2 SLP318=

CYXU;2005-01-17 13:00;METAR CYXU 171300Z 27010KT 15SM FEW042 M13/M17 A3041 RMK SC2 TCU TOPS=

CYXU;2005-01-17 14:00;METAR CYXU 171400Z 27011G17KT 3SM -SHSN FEW007 SCT015TCU M12/M16 A3042 RMK CF1TCU3 VSB W 1 SLP321=

CYXU;2005-01-17 14:41;SPECI CYXU 171441Z 27012G17KT 12SM DRSN FEW007 FEW020TCU RMK CF1TCU2=

CYXU;2005-01-17 15:35;SPECI CYXU 171535Z 27013KT 10SM -SHSN SCT017TCU SCT100 RMK TCU3AC1=

CYXU;2005-01-17 16:00;METAR CYXU 171600Z 27015KT 10SM -SHSN SCT017 M11/M16 A3042 RMK CU4 TCU ASOCTD SLP322=

CYXU;2005-01-17 17:00;METAR CYXU 171700Z 28013G19KT 12SM -SHSN DRSN BKN027 M12/M17 A3040 RMK CU6 TCU ASOCTD PCPN VRY LGT SLP316=

CYXU;2005-01-17 17:37;SPECI CYXU 171737Z 27015G21KT 15SM DRSN SCT027 RMK CU3=

CYXU;2005-01-17 18:00;METAR CYXU 171800Z 27016G22KT 12SM DRSN SCT027 M12/M17 A3039 RMK CU3 SLP311=

CYXU;2005-01-17 18:38;SPECI CYXU 171838Z 27019G25KT 6SM -SHSN DRSN BKN022TCU RMK TCU5=

CYXU;2005-01-17 19:00;METAR CYXU 171900Z 27014G21KT 3SM -SHSN DRSN BKN018TCU M12/M16 A3038 RMK TCU6 SLP309=

CYXU;2005-01-17 19:08;SPECI CYXU 171908Z 28017G25KT 2 1/2SM -SHSN DRSN BKN012TCU RMK SN2TCU5=

CYXU;2005-01-17 20:00;METAR CYXU 172000Z 28017G24KT 1 1/2SM -SHSN DRSN BKN012TCU M12/M16 A3039 RMK SN2TCU6 SLP311=

CYXU;2005-01-17 20:12;SPECI CYXU 172012Z 29014G21KT 1SM R15/P6000FT/U -SHSN DRSN VV009 RMK SN8 TCU EMBD=

CYXU;2005-01-17 20:19;SPECI CYXU 172019Z 28016G24KT 1/2SM R15/4500VP6000FT/D -SHSN DRSN VV007 RMK SN8 TCU EMBD=

CYXU;2005-01-17 20:32;SPECI CYXU 172032Z 29013G22KT 1/8SM R15/1400V3000FT/N +SHSN DRSN VV002 RMK SN8 TCU EMBD=

CYXU;2005-01-17 20:44;SPECI CYXU 172044Z 28015G22KT 0SM R15/1200V2200FT/D +SHSN +BLSN VV002 RMK SN8 TCU EMBD=

CYXU;2005-01-17 21:00;METAR CYXU 172100Z 29014G21KT 0SM R15/1000V1600FT/U +SHSN +BLSN VV002 M12/M14 A3041 RMK SN8 TCU EMBD SLP320=

CYXU;2005-01-17 21:05;SPECI CYXU 172105Z 29009G21KT 1/4SM R15/1400V2800FT/U +SHSN +BLSN VV002 RMK SN8 TCU EMBD=

CYXU;2005-01-17 21:10;SPECI CYXU 172110Z 29009KT 1/2SM R15/1800VP6000FT/U SHSN DRSN VV005 RESN RMK SN8 TCU EMBD=

CYXU;2005-01-17 21:14;SPECI CYXU 172114Z 30009KT 3/4SM R15/3000VP6000FT/U -SHSN DRSN VV008 RESN REBLSN RMK SN8 TCU EMBD=

CYXU;2005-01-17 21:36;SPECI CYXU 172136Z 33008KT 1/2SM R15/3500VP6000FT/D SHSN VV004 RESN REBLSN RMK SN8 TCU EMBD /S01/=

CYXU;2005-01-17 21:39;SPECI CYXU 172139Z 33007KT 1/4SM R15/3000VP6000FT/D +SHSN VV004 REBLSN RMK SN8 TCU EMBD=

CYXU;2005-01-17 21:50;SPECI CYXU 172150Z 35013KT 3/4SM R15/3000VP6000FT/U -SHSN OVC016TCU REBLSN RMK SN5TCU3 VSBY VRBL 1/2 - 1=

CYXU;2005-01-17 22:12;SPECI CYXU 172212Z 34011KT 1SM R15/P6000FT/U -SHSN OVC016TCU RMK SN5TCU3 VSBY VRBL 1/2 - 11/2=

CYXU;2005-01-17 22:30;SPECI CYXU 172230Z 34010G15KT 1SM R15/P6000FT/N -SHSN VV005 RMK SN8 VSBY VRBL 1/2 - 1 1/2=

CYXU;2005-01-17 23:00;METAR CYXU 172300Z 33007KT 1SM R15/P6000FT/N -SHSN VV007 M13/M15 A3047 RMK SN8 VSBY VRBL 1/2 -1 1/2 CIG VRBL 5-10 SLP339=

CYXU;2005-01-18 00:00;METAR CYXU 180000Z 34009G15KT 1SM R15/4500FT/D -SHSN VV007 M13/M16 A3050 RMK SN8 VSBY VRBL 1/2-1 1/2 CIG VRBL 5-10 TCU EMBD SLP350=

CYXU;2005-01-18 00:30;SPECI CYXU 180030Z 34012G18KT 1 1/2SM -SHSN BKN026TCU RMK SN3TCU4 VSBY=

CYXU;2005-01-18 01:28;SPECI CYXU 180128Z 31010KT 6SM SCT034 RMK SC3=

CYXU;2005-01-18 01:43;SPECI CYXU 180143Z 31007KT 2SM -SHSN BKN012 RMK SN5SC2 TCU ASOCTD=

CYXU;2005-01-18 01:52;SPECI CYXU 180152Z 31006KT 3/4SM R15/3500VP6000FT/D -SHSN VV004 RMK SN8 TCU EMBD=

CYXU;2005-01-18 02:22;SPECI CYXU 180222Z 34013KT 1 1/4SM R15/4500VP6000FT/U -SHSN BKN012 OVC022TCU RMK SN3SC2TCU3 VSBY VRBL 3/4-13/4=

CYXU;2005-01-18 02:44;SPECI CYXU 180244Z 32008G15KT 5SM -SHSN SCT012 OVC022TCU RMK SC3TCU5=

CYXU;2005-01-18 04:00;METAR CYXU 180400Z 34007KT 15SM SCT040 M16/M19 A3056 RMK SC3 SLP370=

CYXU;2005-01-18 04:24;SPECI CYXU 180424Z 33004KT 13SM -SHSN FEW020TCU SCT040 RMK TCU2SC2=

CYXU;2005-01-18 06:00;METAR CYXU 180600Z 31003KT 15SM FEW040 M19/M23 A3058 RMK SC2 SLP381=

CYXU;2005-01-18 08:00;METAR CYXU 180800Z 30003KT 15SM FEW040 M21/M25 A3061 RMK SC1 SLP390=

CYXU;2005-01-18 10:00;METAR CYXU 181000Z 29002KT 15SM SKC M21/M26 A3064 RMK SLP403=

CYXU;2005-01-18 12:00;METAR CYXU 181200Z 27002KT 15SM SKC M22/M26 A3069 RMK SLP420=

CYXU;2005-01-18 13:00;METAR CYXU 181300Z 00000KT 15SM FEW100 M24/M28 A3071 RMK AC1 SLP425=

CYXU;2005-01-18 15:00;METAR CYXU 181500Z 16004KT 15SM FEW030 M19/M25 A3073 RMK SC1 SLP431=

CYXU;2005-01-18 16:00;METAR CYXU 181600Z 17005KT 15SM FEW030 M18/M24 A3073 RMK SC1 SLP431=

CYXU;2005-01-18 17:00;METAR CYXU 181700Z 18005KT 15SM FEW030 FEW210 M17/M24 A3071 RMK SC1CI0 SLP424=

CYXU;2005-01-18 18:00;METAR CYXU 181800Z 15008KT 15SM FEW024 BKN210 M16/M23 A3065 RMK SC1CI1 SLP405=

CYXU;2005-01-18 19:00;METAR CYXU 181900Z 16006KT 15SM BKN230 M15/M22 A3062 RMK CI1 SLP395=

CYXU;2005-01-18 21:00;METAR CYXU 182100Z 15006KT 15SM FEW024 SCT230 M13/M19 A3060 RMK SC1CI1 SLP387=

CYXU;2005-01-18 22:00;METAR CYXU 182200Z 15008KT 6SM -SHSN BKN024 BKN230 M14/M18 A3054 RMK SC5CI1 PRESFR SLP368=

CYXU;2005-01-18 22:25;SPECI CYXU 182225Z 15008KT 2 1/2SM -SHSN SCT016 BKN024 RMK SC4SC2=

CYXU;2005-01-18 22:47;SPECI CYXU 182247Z 15007KT 3SM -SHSN FEW016 SCT024 BKN230 RMK SC2SC2CI1=

CYXU;2005-01-18 23:00;METAR CYXU 182300Z 15007KT 3SM -SHSN FEW016 SCT024 BKN230 M14/M17 A3050 RMK SC2SC2CI1 SLP357=

CYXU;2005-01-18 23:17;SPECI CYXU 182317Z 14008KT 3SM -SHSN FEW016 BKN028 BKN210 RMK SC1SC5CI1=

CYXU;2005-01-18 23:36;SPECI CYXU 182336Z 14007KT 4SM -SHSN BKN027 RMK SC6 TCU ASOCTD=

CYXU;2005-01-19 00:00;METAR CYXU 190000Z 15009KT 3SM -SHSN FEW020 BKN027 M13/M16 A3046 RMK SC2SC6 TCU ASOCTD SLP342=

CYXU;2005-01-19 00:30;SPECI CYXU 190030Z 15008KT 4SM -SHSN BKN026 RMK SC7 TCU ASOCTD=

CYXU;2005-01-19 01:00;METAR CYXU 190100Z 18004KT 6SM -SHSN BKN026 M12/M14 A3040 RMK SC7 TCU ASOCTD PRESFR SLP322=

CYXU;2005-01-19 01:25;SPECI CYXU 190125Z 19004KT 8SM SCT026 BKN110 RMK SC4AC3=

CYXU;2005-01-19 01:40;SPECI CYXU 190140Z 18011KT 8SM -SHSN BKN026 BKN110 RMK SC5AC2=

CYXU;2005-01-19 02:00;METAR CYXU 190200Z 19011G16KT 8SM -SHSN BKN025 BKN110 M09/M13 A3034 RMK SC5AC2 PRESFR SLP300=

CYXU;2005-01-19 04:00;METAR CYXU 190400Z 19015KT 12SM -SHSN FEW026 BKN090 M08/M13 A3025 RMK SC2AS5 SLP267=

CYXU;2005-01-19 05:00;METAR CYXU 190500Z 19015G21KT 15SM -SHSN FEW025 OVC085 M08/M13 A3018 RMK CU1AS7 SLP243=

CYXU;2005-01-19 05:20;SPECI CYXU 190520Z 19015KT 15SM DRSN OVC080 RMK AS8=

CYXU;2005-01-19 06:00;METAR CYXU 190600Z 19014G25KT 15SM DRSN OVC070 M08/M12 A3014 RMK AS8 SLP226=

CYXU;2005-01-19 06:52;SPECI CYXU 190652Z 20014G20KT 8SM -SN DRSN OVC023 RMK SC8=

CYXU;2005-01-19 07:03;SPECI CYXU 190703Z 20016G22KT 2SM -SN BLSN VV009 RMK SN8=

CYXU;2005-01-19 08:13;SPECI CYXU 190813Z 18014G20KT 3/4SM R15/P6000FT/D -SN BLSN VV005 RMK SN8 NS /S01/=

CYXU;2005-01-19 10:00;METAR CYXU 191000Z 20018G25KT 1SM R15/5500FT/N -SN BLSN VV005 M07/M09 A2990 RMK SN8 NS VSBY VRBL 3/4-11/2 /S03/ SLP144=

CYXU;2005-01-19 10:11;SPECI CYXU 191011Z 20016G21KT 1/2SM R15/3500V5000FT/D SN BLSN VV003 RMK SN8=

CYXU;2005-01-19 10:54;SPECI CYXU 191054Z 20015G22KT 3/4SM R15/3000VP6000FT/U -SN BLSN VV005 RESN RMK SN8 NS=

CYXU;2005-01-19 11:39;SPECI CYXU 191139Z 21014G19KT 3/4SM R15/P6000FT/D -SN BLSN OVC010 RMK SN6SF2 NS ASOCTD=

CYXU;2005-01-19 12:00;METAR CYXU 191200Z 21014G19KT 3/4SM R15/P6000FT/D -SN BLSN SCT004 OVC010 M06/M08 A2982 RMK SN3SF1NS4 SLP117=

CYXU;2005-01-19 13:22;SPECI CYXU 191322Z 22015KT 1/2SM R15/P6000FT/D SN BLSN VV006 RMK SN8=

CYXU;2005-01-19 13:47;SPECI CYXU 191347Z 22014KT 3/4SM R15/4500VP6000FT/U -SN BLSN OVC012 RESN RMK SN3NS5=

CYXU;2005-01-19 14:00;METAR CYXU 191400Z 21014KT 1/2SM R15/P6000FT/D SN BLSN VV006 M06/M08 A2978 RMK SN8 SLP104=

CYXU;2005-01-19 15:14;SPECI CYXU 191514Z 22011G18KT 3/4SM R15/P6000FT/U -SN BLSN OVC009 RESN RMK SN3NS5 VSBY VRBL 1/2-1=

CYXU;2005-01-19 15:31;SPECI CYXU 191531Z 22012G17KT 2 1/2SM -SN BLSN OVC015 RESN RMK NS8=

CYXU;2005-01-19 15:45;SPECI CYXU 191545Z 23012G19KT 1 1/2SM -SN BLSN OVC015 RESN RMK SN3NS5=

CYXU;2005-01-19 16:00;METAR CYXU 191600Z 22013G19KT 1/2SM R15/P6000FT/D SN BLSN OVC013 M04/M07 A2976 RMK SN3NS5 SLP092=

CYXU;2005-01-19 16:37;SPECI CYXU 191637Z 23013G18KT 3/4SM R15/P6000FT/U -SN BLSN OVC013 RMK SN2NS6=

CYXU;2005-01-19 16:52;SPECI CYXU 191652Z 25011G17KT 1SM R15/P6000FT/N -SN BLSN OVC020 RMK SN2SF6 NS ASOCTD=

CYXU;2005-01-19 17:36;SPECI CYXU 191736Z 25012KT 1SM R15/P6000FT/D -SN BLSN OVC015 RMK SN3SF5 NS ASOCTD=

CYXU;2005-01-19 17:51;SPECI CYXU 191751Z 26012KT 1 1/2SM -SN BLSN OVC015 RMK SN2SF6 NS ASOCTD=

CYXU;2005-01-19 18:00;METAR CYXU 191800Z 26013KT 1 1/2SM -SN DRSN OVC015 M03/M06 A2973 REBLSN RMK SN2SF6 NS ASOCTD SLP082=

CYXU;2005-01-19 18:12;SPECI CYXU 191812Z 27010KT 2 1/2SM -SN DRSN OVC013 RMK SN2SF6 NS ASOCTD=

CYXU;2005-01-19 19:00;METAR CYXU 191900Z 27014KT 2 1/2SM -SN DRSN OVC013 M04/M06 A2974 RMK SN2SF6 NS ASOCTD SLP085=

CYXU;2005-01-19 19:10;SPECI CYXU 191910Z 28009G17KT 2SM -SN DRSN OVC013 RMK SN3SF5 NS ASOCTD=

CYXU;2005-01-19 19:42;SPECI CYXU 191942Z 29011KT 2 1/2SM -SN DRSN BKN013 OVC025 RMK SN2SF5NS2=

CYXU;2005-01-19 20:25;SPECI CYXU 192025Z 29012G18KT 2SM -SN DRSN SCT013 OVC023 RMK SN2SF2NS4 VSBY VRBL 1 1/2 - 4=

CYXU;2005-01-19 21:31;SPECI CYXU 192131Z 29010G15KT 5SM -SHSN DRSN FEW013 OVC023 RMK SF2SC6 TCU EMBD=

CYXU;2005-01-19 22:00;METAR CYXU 192200Z 29010G16KT 2SM -SHSN DRSN BKN013 OVC025 M04/M07 A2982 RMK SC5SC3 TCU EMBD / VSBY VRBL 11/2 - 21/2 SLP113=

CYXU;2005-01-19 22:11;SPECI CYXU 192211Z 29010G15KT 4SM -SHSN DRSN SCT013 OVC028 RMK SC3SC5 TCU EMBD=

CYXU;2005-01-19 22:30;SPECI CYXU 192230Z 29012KT 2SM -SHSN BKN010 OVC025 RMK SC6SC2 TCU EMBD=

CYXU;2005-01-19 22:47;SPECI CYXU 192247Z 29010KT 1SM R15/P6000FT/D -SHSN BKN009 OVC025 RMK SN2SF4SC2 TCU EMBD=

CYXU;2005-01-20 00:00;METAR CYXU 200000Z 29012G18KT 1SM R15/P6000FT/N -SHSN BKN015 OVC023 M04/M06 A2987 RMK SN2SF4SC2 TCU EMBD /S02/ SLP131=

CYXU;2005-01-20 02:48;SPECI CYXU 200248Z 30017G22KT 2SM -SHSN OVC054 RMK SC8=

CYXU;2005-01-20 03:41;SPECI CYXU 200341Z 31013G20KT 1SM R15/P6000FT/N -SHSN BKN013 OVC021 RMK SN2SC5SC2 TCU EMBD=

CYXU;2005-01-20 04:00;METAR CYXU 200400Z 31010G16KT 1SM R15/P6000FT/U -SHSN BKN013 OVC020 M06/M08 A2998 RMK SN2SC5SC1 TCU EMBD SLP166=

CYXU;2005-01-20 04:30;SPECI CYXU 200430Z 34008KT 2SM -SHSN OVC012 RMK SC8 TCU EMBD=

CYXU;2005-01-20 06:00;METAR CYXU 200600Z 33013G19KT 2SM -SHSN FEW014 OVC032 M08/M11 A3000 RMK SC2SC6 SLP175=

CYXU;2005-01-20 06:06;SPECI CYXU 200606Z 33011G17KT 7SM -SHSN OVC029 RMK SC8=

CYXU;2005-01-20 07:00;METAR CYXU 200700Z 35013G18KT 8SM -SHSN OVC025 M09/M12 A3003 RMK SC8 SLP184=

CYXU;2005-01-20 09:00;METAR CYXU 200900Z 35009KT 8SM -SHSN BKN020 M11/M15 A3006 RMK SC7 SLP197=

CYXU;2005-01-20 10:00;METAR CYXU 201000Z 36010KT 10SM -SHSN BKN020 M12/M15 A3007 RMK SC6 SLP201=

CYXU;2005-01-20 12:00;METAR CYXU 201200Z 36008KT 15SM FEW020 OVC110 M13/M18 A3008 RMK SC2AC6 SLP205=

CYXU;2005-01-20 13:00;METAR CYXU 201300Z 36008KT 15SM BKN092 M14/M18 A3010 RMK AC7 SLP209=

CYXU;2005-01-20 15:00;METAR CYXU 201500Z 03005KT 15SM BKN100 M13/M18 A3011 RMK AC7 VIRGA SLP216=

CYXU;2005-01-20 16:00;METAR CYXU 201600Z 03007KT 15SM BKN071 M13/M18 A3012 RMK AC7 VIRGA SLP219=

CYXU;2005-01-20 18:00;METAR CYXU 201800Z 01005KT 15SM BKN095 M13/M18 A3009 RMK AC6 SLP209=

CYXU;2005-01-20 19:00;METAR CYXU 201900Z 01003KT 15SM BKN085 M12/M18 A3008 RMK AC7 SLP206=

CYXU;2005-01-20 22:00;METAR CYXU 202200Z 01005KT 15SM BKN120 M12/M19 A3008 RMK AC7 SLP207=

CYXU;2005-01-21 00:00;METAR CYXU 210000Z 01004KT 15SM BKN120 M13/M18 A3012 RMK AC7 SLP220=

CYXU;2005-01-21 01:00;METAR CYXU 210100Z 36002KT 15SM BKN120 M13/M18 A3013 RMK AC7 SLP223=

CYXU;2005-01-21 04:00;METAR CYXU 210400Z 01005KT 15SM SCT110 M16/M20 A3016 RMK AC3 SLP234=

CYXU;2005-01-21 06:00;METAR CYXU 210600Z 36007KT 15SM SKC M18/M21 A3017 RMK SLP242=

CYXU;2005-01-21 08:00;METAR CYXU 210800Z 05006KT 15SM SKC M19/M23 A3019 RMK SLP248=

CYXU;2005-01-21 09:00;METAR CYXU 210900Z 05007KT 15SM SKC M21/M26 A3022 RMK SLP257=

CYXU;2005-01-21 12:00;METAR CYXU 211200Z 05008KT 15SM SKC M22/M27 A3026 RMK SLP272=

CYXU;2005-01-21 13:00;METAR CYXU 211300Z 06007KT 15SM SKC M23/M29 A3030 RMK SLP286=

CYXU;2005-01-21 14:00;METAR CYXU 211400Z 06004KT 15SM SKC M22/M29 A3031 RMK SLP290=

CYXU;2005-01-21 15:00;METAR CYXU 211500Z 05004KT 15SM SKC M21/M28 A3033 RMK SLP296=

CYXU;2005-01-21 16:00;METAR CYXU 211600Z 06006KT 15SM SKC M20/M27 A3034 RMK SLP299=

CYXU;2005-01-21 17:00;METAR CYXU 211700Z 06004KT 15SM SKC M19/M27 A3033 RMK SLP297=

CYXU;2005-01-21 19:00;METAR CYXU 211900Z 07005KT 15SM FEW250 M17/M26 A3030 RMK CI0 SLP287=

CYXU;2005-01-21 21:00;METAR CYXU 212100Z 04003KT 15SM FEW250 M16/M27 A3030 RMK CI1 SLP287=

CYXU;2005-01-21 22:00;METAR CYXU 212200Z 07004KT 15SM SCT250 M18/M27 A3027 RMK CI2 SLP279=

CYXU;2005-01-22 00:00;METAR CYXU 220000Z 06006KT 15SM FEW250 M20/M28 A3027 RMK CI1 SLP281=

CYXU;2005-01-22 03:00;METAR CYXU 220300Z 09008KT 15SM FEW250 M20/M25 A3020 RMK CI1 SLP257=

CYXU;2005-01-22 04:00;METAR CYXU 220400Z 09007KT 15SM FEW250 M19/M24 A3018 RMK CI1 SLP250=

CYXU;2005-01-22 05:00;METAR CYXU 220500Z 08007KT 15SM FEW200 M20/M24 A3016 RMK CI1 SLP241=

CYXU;2005-01-22 06:00;METAR CYXU 220600Z 08011KT 15SM SCT150 BKN200 M19/M23 A3012 RMK AC3CI4 SLP225=

CYXU;2005-01-22 06:38;SPECI CYXU 220638Z 08014KT 15SM FEW009 BKN130 BKN200 RMK SC2AC5CI1=

CYXU;2005-01-22 08:00;METAR CYXU 220800Z 09013KT 15SM BKN110 M17/M22 A3003 RMK AC7 MOON DMLY VISBL SLP198=

CYXU;2005-01-22 10:00;METAR CYXU 221000Z 08015G20KT 15SM BKN067 OVC082 M16/M22 A2993 RMK AC6AC2 SLP158=

CYXU;2005-01-22 11:00;METAR CYXU 221100Z 08017KT 15SM DRSN OVC076 M15/M23 A2987 RMK AC8 SLP140=

CYXU;2005-01-22 12:00;METAR CYXU 221200Z 09014G19KT 15SM DRSN OVC021 M14/M23 A2984 RMK SC8 SLP129=

CYXU;2005-01-22 12:20;SPECI CYXU 221220Z 09017KT 8SM -SN DRSN OVC030 RMK NS8=

CYXU;2005-01-22 13:00;METAR CYXU 221300Z 08015G22KT 6SM -SN DRSN OVC036 M13/M19 A2975 RMK NS8 SLP100=

CYXU;2005-01-22 13:22;SPECI CYXU 221322Z 07016KT 2SM -SN DRSN OVC020 RMK NS8=

CYXU;2005-01-22 13:30;SPECI CYXU 221330Z 07016KT 1SM R15/P6000FT/D -SN DRSN OVC016 RMK SN1NS7=

CYXU;2005-01-22 13:40;SPECI CYXU 221340Z 07014G20KT 1/2SM R15/4500FT/D SN DRSN OVC017 RMK SN2NS6=

CYXU;2005-01-22 14:00;METAR CYXU 221400Z 07018KT 1/2SM R15/6000FT/D SN DRSN VV005 M12/M16 A2973 RMK SN8 SLP091=

CYXU;2005-01-22 14:11;SPECI CYXU 221411Z 07019G24KT 3/8SM R15/5000FT/N SN BLSN VV004 RMK SN8=

CYXU;2005-01-22 14:41;SPECI CYXU 221441Z 06020G29KT 1/4SM R15/3500FT/N +SN +BLSN VV003 RMK SN8=

CYXU;2005-01-22 15:00;METAR CYXU 221500Z 06020G26KT 1/4SM R15/3500FT/N +SN +BLSN VV003 M13/M15 A2965 RMK SN8 PRESFR /S02/ SLP064=

CYXU;2005-01-22 16:00;METAR CYXU 221600Z 07020G28KT 3/8SM SN BLSN VV004 M13/M15 A2963 RMK SN8 /S04/ SLP057=

CYXU;2005-01-22 17:00;METAR CYXU 221700Z 06018G26KT 1/4SM +SN +BLSN VV003 M14/M16 A2964 RMK SN8 /S06/ SLP060=

CYXU;2005-01-22 18:00;METAR CYXU 221800Z 04021G28KT 1/4SM R15/3000FT/N +SN +BLSN VV003 M15/M19 A2966 RMK SN8 /S08/ SLP066=

CYXU;2005-01-22 18:20;SPECI CYXU 221820Z 06020G26KT 1/2SM R15/3500FT/N SN BLSN VV005 RMK SN8=

CYXU;2005-01-22 18:35;SPECI CYXU 221835Z 04014G20KT 1/4SM R15/3500V5000FT/U +SN +BLSN VV004 RMK SN8=

CYXU;2005-01-22 20:29;SPECI CYXU 222029Z 02014G20KT 3/4SM R15/P6000FT/U -SN BLSN VV009 RMK SN8=

CYXU;2005-01-22 21:00;METAR CYXU 222100Z 02014G22KT 3/4SM R15/P6000FT/N -SN BLSN VV012 M16/M20 A2974 RMK SN8 /S04/ SLP096=

CYXU;2005-01-22 21:13;SPECI CYXU 222113Z 03016G21KT 1 1/2SM -SN BLSN SCT012 VV030 RMK SF3SN5=

CYXU;2005-01-22 22:00;METAR CYXU 222200Z 01016G22KT 2SM -SN BLSN VV016 M16/M20 A2980 RMK SN8 /S05/ SLP113=

CYXU;2005-01-22 22:17;SPECI CYXU 222217Z 01017G22KT 1 1/2SM -SN BLSN VV016 RMK SN8=

CYXU;2005-01-22 22:42;SPECI CYXU 222242Z 01014G21KT 1 1/2SM -SN BLSN VV012 RMK SN8=

CYXU;2005-01-22 23:00;METAR CYXU 222300Z 01016G22KT 2SM -SN BLSN SCT012 VV030 M16/M20 A2985 RMK SF3SN5 MOON VISBL SLP130=

CYXU;2005-01-22 23:44;SPECI CYXU 222344Z 01014G22KT 3SM -SN BLSN OVC040 RMK SN6SC2 MOON VISBL=

CYXU;2005-01-23 00:00;METAR CYXU 230000Z 36013G25KT 3SM -SN BLSN OVC035 M16/M20 A2990 RMK SN6SC2 MOON VISBL PRESRR /S06/ SLP146=

CYXU;2005-01-23 02:00;METAR CYXU 230200Z 36019G24KT 4SM -SN BLSN SCT020 BKN080 M16/M21 A2997 RMK SN2SC2AC3 SLP170=

CYXU;2005-01-23 03:28;SPECI CYXU 230328Z 01015G20KT 4SM -SN BLSN BKN015 OVC030 RMK SC5SC3=

CYXU;2005-01-23 04:00;METAR CYXU 230400Z 01016KT 4SM -SN BLSN SCT015 SCT030 BKN070 M16/M21 A3004 RMK SC3SC1AC3 SLP194=

CYXU;2005-01-23 04:52;SPECI CYXU 230452Z 01013G20KT 8SM SCT025 BKN100 RMK SC3AC4=

CYXU;2005-01-23 05:00;METAR CYXU 230500Z 36016G22KT 8SM FEW025 BKN100 M16/M22 A3006 RMK SC2AC3 SLP201=

CYXU;2005-01-23 09:00;METAR CYXU 230900Z 35013G18KT 15SM DRSN SKC M17/M23 A3016 RMK SLP237=

CYXU;2005-01-23 11:00;METAR CYXU 231100Z 35015G20KT 15SM SKC M18/M24 A3020 RMK SLP253=

CYXU;2005-01-23 12:00;METAR CYXU 231200Z 36015KT 15SM DRSN SKC M18/M25 A3025 RMK PRESRR SLP268=

CYXU;2005-01-23 13:00;METAR CYXU 231300Z 36010KT 15SM SKC M18/M25 A3028 RMK SLP279=

CYXU;2005-01-23 15:00;METAR CYXU 231500Z 01010G15KT 15SM SKC M17/M24 A3033 RMK SLP296=

CYXU;2005-01-23 16:00;METAR CYXU 231600Z 35010G15KT 15SM SKC M16/M24 A3034 RMK SLP301=

CYXU;2005-01-23 17:00;METAR CYXU 231700Z 36010KT 15SM SKC M16/M24 A3034 RMK SLP299=

CYXU;2005-01-23 18:00;METAR CYXU 231800Z 32010KT 15SM SKC M15/M23 A3033 RMK SLP296=

CYXU;2005-01-23 22:00;METAR CYXU 232200Z 33006KT 15SM SKC M14/M22 A3032 RMK SLP293=

CYXU;2005-01-23 23:00;METAR CYXU 232300Z 29003KT 15SM FEW020 M16/M23 A3033 RMK SC1 SLP295=

CYXU;2005-01-24 00:00;METAR CYXU 240000Z 28004KT 15SM SKC M17/M23 A3033 RMK SLP296=

CYXU;2005-01-24 01:00;METAR CYXU 240100Z 27003KT 12SM -SHSN FEW020 BKN100 M18/M23 A3033 RMK SC2AS1 SLP296=

CYXU;2005-01-24 01:37;SPECI CYXU 240137Z 26002KT 15SM FEW100 RMK AS1=

CYXU;2005-01-24 03:00;METAR CYXU 240300Z 26004KT 15SM SKC M19/M23 A3030 RMK SLP287=

CYXU;2005-01-24 04:00;METAR CYXU 240400Z 22002KT 15SM SKC M19/M22 A3027 RMK SLP276=

CYXU;2005-01-24 06:00;METAR CYXU 240600Z 22002KT 15SM SKC M18/M22 A3021 RMK SLP254=

CYXU;2005-01-24 07:00;METAR CYXU 240700Z 25007KT 15SM FEW240 M16/M19 A3020 RMK CI2 SLP251=

CYXU;2005-01-24 09:00;METAR CYXU 240900Z 23011KT 15SM BKN180 M16/M20 A3015 RMK CI7 SLP234=

CYXU;2005-01-24 10:00;METAR CYXU 241000Z 22009KT 15SM OVC130 M15/M19 A3012 RMK AC8 SLP222=

CYXU;2005-01-24 11:00;METAR CYXU 241100Z 21010G17KT 15SM OVC140 M14/M20 A3007 RMK AC8 SLP208=

CYXU;2005-01-24 12:00;METAR CYXU 241200Z 21012KT 15SM BKN080 OVC130 M12/M20 A3005 RMK AC5AC3 SLP200=

CYXU;2005-01-24 13:00;METAR CYXU 241300Z 21010KT 15SM SCT070 OVC130 M11/M18 A3000 RMK AC4AC4 SLP182=

CYXU;2005-01-24 14:00;METAR CYXU 241400Z 22015G20KT 15SM BKN060 BKN120 M10/M16 A2997 RMK SC5AC2 SLP173=

CYXU;2005-01-24 15:00;METAR CYXU 241500Z 23017G22KT 15SM -SHSN SCT023 OVC080 M09/M15 A2993 RMK SC3AC5 SLP159=

CYXU;2005-01-24 15:39;SPECI CYXU 241539Z 23015G23KT 3SM -SHSN BKN020 OVC070 RMK SC6AC2 CU EMBDD=

CYXU;2005-01-24 15:42;SPECI CYXU 241542Z 24015G20KT 1SM R15/P6000FT/D -SHSN OVC020 RMK SN5SC3 TCU EMBDD=

CYXU;2005-01-24 16:00;METAR CYXU 241600Z 24015G20KT 1SM R15/3000VP6000FT/U -SHSN VV010 M10/M17 A2990 RMK SN8 TCU EMBDD SLP149=

CYXU;2005-01-24 16:11;SPECI CYXU 241611Z 24015G20KT 3/4SM R15/3500VP6000FT/D -SHSN VV007 RMK SN8 TCU EMBDD=

CYXU;2005-01-24 16:31;SPECI CYXU 241631Z 24015KT 1 1/4SM R15/3500VP6000FT/U -SHSN VV010 RMK SN8 TCU EMBDD=

CYXU;2005-01-24 16:40;SPECI CYXU 241640Z 24015G25KT 3/4SM R15/4000VP6000FT/D -SHSN VV006 RMK SN8 VSBY VRBL 1/2-1=

CYXU;2005-01-24 17:00;METAR CYXU 241700Z 24015KT 3/4SM R15/3000VP6000FT/U -SHSN VV007 M10/M12 A2988 RMK SN8 VSBY VRBL 1/2-1 SLP140=

CYXU;2005-01-24 17:24;SPECI CYXU 241724Z 25017KT 1/2SM R15/3000VP6000FT/D SN VV004 RMK SN8=

CYXU;2005-01-24 18:00;METAR CYXU 241800Z 25015KT 1 1/4SM -SN VV012 M09/M11 A2984 RMK SN8 SLP126=

CYXU;2005-01-24 18:09;SPECI CYXU 241809Z 25012G17KT 2SM -SN OVC015 RMK SN4CU4=

CYXU;2005-01-24 18:15;SPECI CYXU 241815Z 25012G20KT 4SM -SHSN BLSN OVC016 RMK SC8=

CYXU;2005-01-24 18:30;SPECI CYXU 241830Z 25012KT 1SM R15/P6000FT/D -SN BLSN VV012 RMK SN8=

CYXU;2005-01-24 18:41;SPECI CYXU 241841Z 25015KT 2SM -SN BLSN OVC015 RMK SN6SC2 VSBY VRBL 1-3=

CYXU;2005-01-24 18:47;SPECI CYXU 241847Z 24010G15KT 4SM -SN BLSN BKN015 OVC060 RMK CU6SC2=

CYXU;2005-01-24 19:00;METAR CYXU 241900Z 25013KT 4SM -SN BKN015 OVC060 M08/M11 A2982 RMK CU5SC3 SLP118=

CYXU;2005-01-24 19:23;SPECI CYXU 241923Z 25014KT 2SM -SHSN OVC015 RMK SN5CU3=

CYXU;2005-01-24 20:41;SPECI CYXU 242041Z 26011KT 5SM -SHSN FEW015 OVC040 RMK SC2SC6=

CYXU;2005-01-24 23:00;METAR CYXU 242300Z 26008KT 8SM -SHSN FEW006 FEW014 BKN018 M07/M10 A2986 RMK SF1SC1SC3 SLP129=

CYXU;2005-01-25 00:00;METAR CYXU 250000Z 25008KT 10SM -SHSN BKN019 M07/M10 A2987 RMK SC6 SLP134=

CYXU;2005-01-25 02:00;METAR CYXU 250200Z 25009KT 10SM -SHSN OVC013 M06/M09 A2990 RMK SC8 SLP142=

CYXU;2005-01-25 03:00;METAR CYXU 250300Z 25009KT 15SM -SHSN OVC014 M05/M08 A2990 RMK SC8 SLP140=

CYXU;2005-01-25 03:36;SPECI CYXU 250336Z 25011KT 5SM -SHSN OVC023 RMK SC8=

CYXU;2005-01-25 04:00;METAR CYXU 250400Z 25008KT 6SM -SHSN OVC025 M05/M07 A2990 RMK SC8 SLP141=

CYXU;2005-01-25 05:00;METAR CYXU 250500Z 26010KT 6SM -SHSN OVC021 M05/M07 A2990 RMK SC8 SLP141=

CYXU;2005-01-25 06:00;METAR CYXU 250600Z 26008KT 10SM -SHSN OVC021 M04/M07 A2988 RMK SC8 SLP135=

CYXU;2005-01-25 07:00;METAR CYXU 250700Z 26007KT 5SM -SHSN OVC021 M04/M07 A2991 RMK SC8 SLP143=

CYXU;2005-01-25 08:47;SPECI CYXU 250847Z 28006KT 7SM -SHSN BKN011 OVC025 RMK SC6SC2=

CYXU;2005-01-25 09:00;METAR CYXU 250900Z 30004KT 8SM -SHSN BKN011 OVC025 M04/M06 A2993 RMK SC6SC2 SLP149=

CYXU;2005-01-25 10:00;METAR CYXU 251000Z 00000KT 10SM -SN SCT010 OVC028 M04/M06 A2990 RMK SC3SC5 SLP142=

CYXU;2005-01-25 11:00;METAR CYXU 251100Z 27002KT 10SM -SHSN FEW010 OVC025 M04/M06 A2991 RMK CU2SC6 SNOW VERY LIGHT SLP145=

CYXU;2005-01-25 12:00;METAR CYXU 251200Z 00000KT 8SM BKN010 OVC020 M04/M06 A2992 RMK SC5SC3 SLP147=

CYXU;2005-01-25 13:00;METAR CYXU 251300Z 09004KT 10SM OVC016 M04/M07 A2990 RMK SC8 SLP142=

CYXU;2005-01-25 13:27;SPECI CYXU 251327Z 10003KT 10SM OVC014 RMK SC8=

CYXU;2005-01-25 14:00;METAR CYXU 251400Z 12004KT 10SM -SG OVC012 M04/M07 A2991 RMK ST8 SLP144=

CYXU;2005-01-25 15:00;METAR CYXU 251500Z 11006KT 8SM -SG OVC011 M04/M08 A2990 RMK ST8 SLP138=

CYXU;2005-01-25 16:00;METAR CYXU 251600Z 14008KT 10SM -SG OVC010 M04/M07 A2987 RMK ST8 SG-- SLP130=

CYXU;2005-01-25 17:00;METAR CYXU 251700Z 14007KT 10SM -SG OVC010 M04/M07 A2984 RMK ST8 PCPN VRY LGT SLP120=

CYXU;2005-01-25 18:00;METAR CYXU 251800Z 16007KT 8SM -SG OVC010 M03/M06 A2980 RMK ST8 PCPN VRY LGT SLP106=

CYXU;2005-01-25 19:00;METAR CYXU 251900Z 13006KT 8SM -SG OVC014 M04/M07 A2978 RMK ST8 SLP099=

CYXU;2005-01-25 19:27;SPECI CYXU 251927Z 16006KT 2 1/2SM -SHSN OVC013 RMK SC8 TCU EMBDD=

CYXU;2005-01-25 20:37;SPECI CYXU 252037Z 15008KT 2 1/2SM -SHSN BKN009 OVC026 RMK SC7SC1=

CYXU;2005-01-25 21:00;METAR CYXU 252100Z 14008KT 2 1/2SM -SHSN BKN009 OVC018 M03/M05 A2972 RMK SC5SC3 SLP076=

CYXU;2005-01-25 21:18;SPECI CYXU 252118Z 14009KT 2 1/2SM -SHSN FEW009 OVC018 RMK SC2SC6=

CYXU;2005-01-25 23:00;METAR CYXU 252300Z 12009KT 2 1/2SM -SHSN OVC011 M05/M06 A2965 RMK SC8 SLP054=

CYXU;2005-01-25 23:25;SPECI CYXU 252325Z 12010KT 2 1/2SM -SHSN BKN008 OVC012 RMK SC6SC2=

CYXU;2005-01-26 00:00;METAR CYXU 260000Z 13010KT 2 1/2SM -SHSN OVC006 M05/M07 A2962 RMK SC8 SLP042=

CYXU;2005-01-26 02:53;SPECI CYXU 260253Z 07003KT 2 1/2SM -SHSN BKN012 OVC035 RMK SC5SC3=

CYXU;2005-01-26 03:00;METAR CYXU 260300Z 05005KT 2 1/2SM -SHSN BKN012 OVC035 M03/M04 A2954 RMK SC5SC3 SLP017=

CYXU;2005-01-26 03:21;SPECI CYXU 260321Z 07006KT 3SM -SHSN BKN009 OVC037 RMK SC5SC3=

CYXU;2005-01-26 03:53;SPECI CYXU 260353Z 07006KT 1 1/2SM -SHSN BKN007 OVC015 RMK SN3SC3SC2 TCU EMBD=

CYXU;2005-01-26 04:00;METAR CYXU 260400Z 07006KT 1 1/2SM -SHSN BKN007 OVC016 M04/M05 A2953 RMK SN3SC2SC2 TCU EMBD SLP012=

CYXU;2005-01-26 04:49;SPECI CYXU 260449Z 08007KT 1 1/2SM -SHGSSN BKN005 OVC012 RMK SN3SC3SC2 TCU EMBD=

CYXU;2005-01-26 05:00;METAR CYXU 260500Z 07007KT 1 1/2SM -SHGSSN BKN005 OVC015 M04/M07 A2950 RMK SN2SC3SC2 TCU EMBD SLP002=

CYXU;2005-01-26 05:22;SPECI CYXU 260522Z 08006KT 5SM -SHSN SCT005 BKN029 OVC050 RMK SF3SC2SC2 TCU EMBD=

CYXU;2005-01-26 06:00;METAR CYXU 260600Z 06005KT 8SM BKN027 OVC045 M05/M07 A2948 RMK SC6SC2 SLP996=

CYXU;2005-01-26 06:26;SPECI CYXU 260626Z 07006KT 2 1/2SM -SHSN BKN004 BKN028 OVC043 RMK SF5SC1SC2 TCU EMBD=

CYXU;2005-01-26 06:42;SPECI CYXU 260642Z 07006KT 5SM -SHSN SCT004 BKN022 OVC043 RMK SF4SC1SC3=

CYXU;2005-01-26 07:00;METAR CYXU 260700Z 06006KT 4SM -SHSN BKN004 BKN021 OVC043 M05/M07 A2949 RMK SF5SC1SC2 SLP999=

CYXU;2005-01-26 07:45;SPECI CYXU 260745Z 05007KT 8SM BKN007 OVC015 RMK SC6SC2=

CYXU;2005-01-26 08:00;METAR CYXU 260800Z 05007KT 8SM OVC008 M05/M07 A2952 RMK SC8 SLP008=

CYXU;2005-01-26 10:00;METAR CYXU 261000Z 05010KT 10SM OVC012 M06/M09 A2959 RMK SC8 SLP032=

CYXU;2005-01-26 10:33;SPECI CYXU 261033Z 06013KT 10SM SCT008 OVC012 RMK SC3SC5=

CYXU;2005-01-26 12:00;METAR CYXU 261200Z 05011G16KT 10SM OVC008 M08/M10 A2969 RMK ST8 PRESRR SLP069=

CYXU;2005-01-26 12:42;SPECI CYXU 261242Z 05012KT 12SM OVC010 RMK ST8=

CYXU;2005-01-26 13:00;METAR CYXU 261300Z 04010KT 12SM OVC011 M10/M12 A2975 RMK ST8 PRESRR SLP090=

CYXU;2005-01-26 13:28;SPECI CYXU 261328Z 06008KT 12SM BKN016 OVC079 RMK SC6AC2=

CYXU;2005-01-26 14:00;METAR CYXU 261400Z 04008KT 15SM FEW016 OVC080 M09/M12 A2979 RMK SC2AC6 SLP102=

CYXU;2005-01-26 15:00;METAR CYXU 261500Z 05011KT 15SM OVC075 M09/M13 A2984 RMK AC8 SLP119=

CYXU;2005-01-26 16:00;METAR CYXU 261600Z 03008KT 15SM BKN072 M09/M13 A2989 RMK AC7 SLP137=

CYXU;2005-01-26 17:00;METAR CYXU 261700Z 01012KT 15SM BKN083 M09/M14 A2991 RMK AC7 SLP144=

CYXU;2005-01-26 21:00;METAR CYXU 262100Z 36012KT 15SM FEW080 M10/M16 A3003 RMK AC1 SLP188=

CYXU;2005-01-26 22:00;METAR CYXU 262200Z 36010G15KT 15SM SKC M11/M17 A3008 RMK SLP203=

CYXU;2005-01-26 23:00;METAR CYXU 262300Z 01008KT 15SM SKC M12/M18 A3013 RMK SLP220=

CYXU;2005-01-27 00:00;METAR CYXU 270000Z 36008KT 15SM SKC M14/M19 A3017 RMK SLP238=

CYXU;2005-01-27 01:00;METAR CYXU 270100Z 01007KT 15SM SKC M15/M19 A3021 RMK SLP249=

CYXU;2005-01-27 04:00;METAR CYXU 270400Z 01004KT 15SM SKC M18/M20 A3029 RMK SLP278=

CYXU;2005-01-27 06:00;METAR CYXU 270600Z 34004KT 15SM SKC M19/M22 A3033 RMK SLP294=

CYXU;2005-01-27 09:00;METAR CYXU 270900Z 35005KT 15SM SKC M22/M27 A3040 RMK SLP319=

CYXU;2005-01-27 10:00;METAR CYXU 271000Z 34004KT 15SM SKC M24/M29 A3043 RMK SLP329=

CYXU;2005-01-27 12:00;METAR CYXU 271200Z 36003KT 15SM SKC M25/M30 A3048 RMK FROIN SLP350=

CYXU;2005-01-27 13:00;METAR CYXU 271300Z 35004KT 15SM SKC M25/M29 A3051 RMK SLP361=

CYXU;2005-01-27 15:00;METAR CYXU 271500Z 01004KT 15SM FEW250 M21/M24 A3058 RMK CI1 SLP384=

CYXU;2005-01-27 16:00;METAR CYXU 271600Z 05002KT 15SM SKC M19/M20 A3061 RMK SLP392=

CYXU;2005-01-27 17:00;METAR CYXU 271700Z 00000KT 15SM SKC M17/M24 A3061 RMK SLP395=

CYXU;2005-01-27 19:00;METAR CYXU 271900Z 16002KT 15SM SKC M14/M24 A3062 RMK SLP396=

CYXU;2005-01-27 20:00;METAR CYXU 272000Z 16002KT 15SM SKC M13/M24 A3063 RMK SLP400=

CYXU;2005-01-28 19:00;METAR CYXU 281900Z 15004KT 15SM FEW250 M09/M15 A3067 RMK CI0 SLP413=

CYXU;2005-01-28 21:00;METAR CYXU 282100Z 15006KT 15SM FEW250 M08/M15 A3066 RMK CI1 SLP409=

CYXU;2005-01-28 22:00;METAR CYXU 282200Z 10004KT 15SM SCT250 M09/M15 A3065 RMK CI1 SLP406=

CYXU;2005-01-28 23:00;METAR CYXU 282300Z 09004KT 15SM SCT250 M11/M16 A3064 RMK CI1 SLP404=

CYXU;2005-01-29 00:00;METAR CYXU 290000Z 09006KT 15SM SCT250 M11/M15 A3063 RMK CI1 SLP400=

CYXU;2005-01-29 04:00;METAR CYXU 290400Z 09007KT 15SM FEW250 M13/M19 A3054 RMK CI1 SLP365=

CYXU;2005-01-29 08:00;METAR CYXU 290800Z 09007KT 15SM BKN250 M13/M19 A3046 RMK CI4 SLP336=

CYXU;2005-01-29 09:00;METAR CYXU 290900Z 09006KT 15SM OVC230 M13/M17 A3042 RMK CI6 SLP321=

CYXU;2005-01-29 10:00;METAR CYXU 291000Z 07004KT 15SM OVC200 M14/M18 A3041 RMK CS7 HALO SLP318=

CYXU;2005-01-29 12:00;METAR CYXU 291200Z 10006KT 15SM OVC180 M12/M16 A3037 RMK AS6 SLP304=

CYXU;2005-01-29 13:00;METAR CYXU 291300Z 09006KT 15SM SCT180 OVC220 M12/M16 A3035 RMK AC2CI1 SLP299=

CYXU;2005-01-29 14:00;METAR CYXU 291400Z 08004KT 15SM FEW160 OVC220 M12/M16 A3033 RMK AC2CI1 CS ASOCTD SLP291=

CYXU;2005-01-29 16:00;METAR CYXU 291600Z 13006KT 15SM FEW120 OVC200 M05/M13 A3030 RMK AC2CS3 SLP280=

CYXU;2005-01-29 17:00;METAR CYXU 291700Z 13007KT 15SM OVC110 M04/M13 A3026 RMK AC8 SLP269=

CYXU;2005-01-29 20:00;METAR CYXU 292000Z 16005KT 15SM BKN120 OVC200 M03/M11 A3019 RMK AC6CI2 SLP242=

CYXU;2005-01-29 21:00;METAR CYXU 292100Z 04003KT 15SM BKN100 OVC200 M03/M12 A3018 RMK AC6CI1 SLP237=

CYXU;2005-01-29 22:00;METAR CYXU 292200Z 11005KT 15SM BKN100 BKN200 M03/M11 A3017 RMK AC6CI1 SLP233=

CYXU;2005-01-29 23:00;METAR CYXU 292300Z 15002KT 15SM BKN140 BKN200 M03/M11 A3017 RMK AC5CI2 SLP234=

CYXU;2005-01-30 01:00;METAR CYXU 300100Z 10003KT 15SM BKN140 OVC200 M04/M11 A3015 RMK AC6CI1 SLP226=

CYXU;2005-01-30 03:00;METAR CYXU 300300Z 01002KT 15SM BKN120 BKN210 M06/M11 A3013 RMK AC5CS2 SLP221=

CYXU;2005-01-30 04:00;METAR CYXU 300400Z 36003KT 15SM OVC120 M06/M11 A3013 RMK AC7 SLP220=

CYXU;2005-01-30 05:00;METAR CYXU 300500Z 36004KT 15SM BKN120 OVC220 M07/M11 A3013 RMK AC6CS2 SLP221=

CYXU;2005-01-30 07:00;METAR CYXU 300700Z 34004KT 15SM OVC240 M09/M13 A3012 RMK CS4 SLP215=

CYXU;2005-01-30 10:00;METAR CYXU 301000Z 02005KT 15SM FEW250 M13/M15 A3013 RMK CI1 SLP219=

CYXU;2005-01-30 12:00;METAR CYXU 301200Z 03004KT 15SM FEW250 M12/M15 A3016 RMK CI1 FROIN SLP229=

CYXU;2005-01-30 13:00;METAR CYXU 301300Z 04003KT 15SM FEW250 M11/M16 A3017 RMK CI0 FROIN SLP235=

CYXU;2005-01-30 14:00;METAR CYXU 301400Z 05003KT 15SM FEW250 M09/M13 A3019 RMK CI1 SLP241=

CYXU;2005-01-30 15:00;METAR CYXU 301500Z 04006KT 12SM SKC M06/M11 A3021 RMK SLP247=

CYXU;2005-01-30 16:00;METAR CYXU 301600Z 05009KT 12SM SKC M04/M10 A3022 RMK SLP250=

CYXU;2005-01-30 18:00;METAR CYXU 301800Z 04004KT 15SM SKC M02/M09 A3022 RMK SLP250=

CYXU;2005-01-30 19:00;METAR CYXU 301900Z 04003KT 15SM SKC M02/M10 A3022 RMK SLP248=

CYXU;2005-01-30 22:00;METAR CYXU 302200Z 36004KT 15SM FEW250 M02/M09 A3024 RMK CI0 SLP258=

CYXU;2005-01-30 23:00;METAR CYXU 302300Z 36004KT 15SM SKC M04/M09 A3027 RMK SLP265=

CYXU;2005-01-31 00:00;METAR CYXU 310000Z 36003KT 15SM SKC M05/M09 A3028 RMK SLP273=

CYXU;2005-01-31 01:00;METAR CYXU 310100Z 01005KT 15SM SKC M08/M11 A3029 RMK SLP274=

CYXU;2005-01-31 04:00;METAR CYXU 310400Z 04005KT 15SM SKC M11/M13 A3030 RMK FROIN SLP279=

CYXU;2005-01-31 05:00;METAR CYXU 310500Z 04004KT 15SM SKC M12/M14 A3031 RMK FROIN SLP282=

CYXU;2005-01-31 06:00;METAR CYXU 310600Z 05004KT 15SM SKC M13/M15 A3031 RMK FROIN SLP283=

CYXU;2005-01-31 07:00;METAR CYXU 310700Z 06004KT 15SM SKC M13/M15 A3032 RMK FROIN SLP284=

CYXU;2005-01-31 09:00;METAR CYXU 310900Z 07004KT 15SM SKC M13/M15 A3032 RMK FROIN SLP286=

CYXU;2005-01-31 10:00;METAR CYXU 311000Z 06004KT 3SM BR SKC M13/M14 A3034 RMK FROIN SLP291=

CYXU;2005-01-31 11:00;METAR CYXU 311100Z 07004KT 3SM BR SKC M13/M14 A3035 RMK FROIN SLP296=

CYXU;2005-01-31 12:00;METAR CYXU 311200Z 08003KT 3SM BR SKC M13/M14 A3037 RMK FROIN SLP304=

CYXU;2005-01-31 12:10;SPECI CYXU 311210Z 07003KT 1/4SM R15/P6000FT/N FZFG SKC RMK FG2 FROIN=

CYXU;2005-01-31 12:18;SPECI CYXU 311218Z 06003KT 2SM BR SKC RMK FG1 FROIN VIS W 1/2=

CYXU;2005-01-31 12:30;SPECI CYXU 311230Z 09003KT 4SM BR SKC RMK FROIN VIS W 2=

CYXU;2005-01-31 13:00;METAR CYXU 311300Z 08003KT 4SM BR SKC M12/M14 A3038 RMK FROIN SLP307=

CYXU;2005-01-31 15:00;METAR CYXU 311500Z 09003KT 4SM BR FEW220 M09/M10 A3040 RMK CI0 SLP314=

CYXU;2005-01-31 16:00;METAR CYXU 311600Z 04005KT 5SM HZ FEW220 M06/M09 A3040 RMK CI1 SLP314=

CYXU;2005-01-31 17:00;METAR CYXU 311700Z 04004KT 5SM HZ SCT220 M04/M08 A3039 RMK CI1 SLP310=

CYXU;2005-01-31 18:00;METAR CYXU 311800Z 11003KT 6SM HZ BKN220 M03/M08 A3037 RMK CI1 SLP304=

CYXU;2005-01-31 19:00;METAR CYXU 311900Z 00000KT 8SM OVC220 M02/M07 A3036 RMK CI1 SLP299=

CYXU;2005-01-31 21:00;METAR CYXU 312100Z 08005KT 8SM BKN220 M02/M08 A3035 RMK CI2 SLP294=

CYXU;2005-01-31 22:00;METAR CYXU 312200Z 06003KT 8SM BKN220 M04/M09 A3034 RMK CI2 SLP290=

CYXU;2005-02-01 03:00;METAR CYXU 010300Z 36002KT 8SM SKC M12/M13 A3036 RMK FROIN SLP301=

CYXU;2005-02-01 04:00;METAR CYXU 010400Z 00000KT 8SM SKC M13/M15 A3037 RMK FROIN SLP303=

CYXU;2005-02-01 05:00;METAR CYXU 010500Z 36002KT 8SM SKC M15/M17 A3036 RMK SLP300=

CYXU;2005-02-01 06:00;METAR CYXU 010600Z 08002KT 8SM SKC M15/M17 A3035 RMK FROIN SLP297=

CYXU;2005-02-01 07:00;METAR CYXU 010700Z 04004KT 6SM BR SKC M17/M19 A3036 RMK FROIN SLP298=

CYXU;2005-02-01 09:00;METAR CYXU 010900Z 00000KT 8SM SKC M17/M19 A3036 RMK SLP299=

CYXU;2005-02-01 10:00;METAR CYXU 011000Z 00000KT 6SM BR SKC M18/M20 A3036 RMK FROIN SLP300=

CYXU;2005-02-01 11:31;SPECI CYXU 011131Z 34002KT 2SM BR OVC000 RMK ST8 FROIN=

CYXU;2005-02-01 12:00;METAR CYXU 011200Z 35003KT 3SM BR OVC000 M18/M22 A3039 RMK ST6 FROIN VSBY W 6 VSBY STH 1 SLP314=

CYXU;2005-02-01 12:18;SPECI CYXU 011218Z 35003KT 1 3/4SM BR SKC RMK FG6 FROIN=

CYXU;2005-02-01 13:00;METAR CYXU 011300Z 00000KT 2 1/2SM BR SKC M18/M22 A3041 RMK FG2 F BNK OVR THRSHLD RWY 33 SLP321=

CYXU;2005-02-01 14:00;METAR CYXU 011400Z 34002KT 2 1/2SM BR FEW002 M16/M20 A3044 RMK FG1ST0 FROIN SLP331=

CYXU;2005-02-01 14:32;SPECI CYXU 011432Z 00000KT 3SM BR FEW005 RMK CF1=

CYXU;2005-02-01 15:00;METAR CYXU 011500Z 00000KT 3SM BR SKC M11/M14 A3045 RMK SLP334=

CYXU;2005-02-01 16:00;METAR CYXU 011600Z 00000KT 5SM HZ SKC M06/M10 A3046 RMK SLP337=

CYXU;2005-02-01 17:00;METAR CYXU 011700Z 00000KT 6SM HZ SKC M04/M09 A3047 RMK SLP338=

CYXU;2005-02-01 18:00;METAR CYXU 011800Z 13002KT 8SM FEW020 M03/M08 A3044 RMK CF1 SLP328=

CYXU;2005-02-01 22:00;METAR CYXU 012200Z 04002KT 10SM SKC M03/M08 A3045 RMK SLP331=

CYXU;2005-02-01 23:00;METAR CYXU 012300Z 00000KT 10SM FEW250 M05/M09 A3047 RMK CI1 SLP337=

CYXU;2005-02-02 00:00;METAR CYXU 020000Z 00000KT 10SM SKC M07/M09 A3048 RMK SLP345=

CYXU;2005-02-02 02:46;SPECI CYXU 020246Z 00000KT 5SM BR SKC RMK VIS SW 1/4SM=

CYXU;2005-02-02 03:00;METAR CYXU 020300Z 00000KT 5SM BR BCFG SKC M12/M14 A3050 RMK VIS SW 1/4 SLP349=

CYXU;2005-02-02 05:50;SPECI CYXU 020550Z 00000KT 6SM BR SCT001 RMK ST1=

CYXU;2005-02-02 06:00;METAR CYXU 020600Z 00000KT 6SM BR SCT001 M15/M17 A3049 RMK ST2 FROIN SLP343=

CYXU;2005-02-02 06:47;SPECI CYXU 020647Z 00000KT 3SM BR BKN001 RMK ST3 VIS SW 1/4=

CYXU;2005-02-02 07:00;METAR CYXU 020700Z 00000KT 3SM BR SCT001 M16/M17 A3047 RMK ST2 VIS SW 1/4 SLP337=

CYXU;2005-02-02 08:00;METAR CYXU 020800Z 00000KT 6SM BR SKC M17/M18 A3048 RMK SLP341=

CYXU;2005-02-02 10:00;METAR CYXU 021000Z 00000KT 6SM BR FEW001 M16/M19 A3048 RMK ST1 SLP341=

CYXU;2005-02-02 11:00;METAR CYXU 021100Z 00000KT 6SM BR SCT001 M17/M19 A3049 RMK ST1 SLP343=

CYXU;2005-02-02 12:00;METAR CYXU 021200Z 00000KT 6SM BR SCT001 M17/M20 A3049 RMK ST1 SLP346=

CYXU;2005-02-02 12:16;SPECI CYXU 021216Z 06002KT 1 3/4SM BR SKC RMK FG2=

CYXU;2005-02-02 13:00;METAR CYXU 021300Z 00000KT 1 1/2SM BR SKC M16/M18 A3048 RMK FG2 SLP343=

CYXU;2005-02-02 14:00;METAR CYXU 021400Z 00000KT 1 3/4SM BR SKC M14/M16 A3048 RMK FG2 SLP343=

CYXU;2005-02-02 14:39;SPECI CYXU 021439Z 10003KT 1 1/4SM BR VV001 RMK FG8=

CYXU;2005-02-02 15:00;METAR CYXU 021500Z 09004KT 3/4SM R15/0800VP6000FT/D BR SKC M10/M11 A3047 RMK FG4 SLP339=

CYXU;2005-02-02 15:26;SPECI CYXU 021526Z 09003KT 1SM R15/3500VP6000FT/U BR SKC RMK FG5=

CYXU;2005-02-02 16:00;METAR CYXU 021600Z 06003KT 1SM R15/P6000FT/N BR SKC M08/M10 A3048 RMK FG4 SLP343=

CYXU;2005-02-02 16:37;SPECI CYXU 021637Z 09003KT 1 1/2SM R15/3500VP6000FT/U BR SCT250 RMK FG2CI0=

CYXU;2005-02-02 17:00;METAR CYXU 021700Z 08005KT 2SM BR FEW250 M06/M08 A3047 RMK FG1CI0 SLP338=

CYXU;2005-02-02 17:21;SPECI CYXU 021721Z 08003KT 3SM BR FEW250 RMK CI0=

CYXU;2005-02-02 18:00;METAR CYXU 021800Z 00000KT 5SM HZ FEW250 M03/M07 A3044 RMK CI1 SLP328=

CYXU;2005-02-02 19:00;METAR CYXU 021900Z 08004KT 8SM FEW250 M02/M07 A3040 RMK CI1 SLP316=

CYXU;2005-02-02 22:00;METAR CYXU 022200Z 09004KT 8SM SCT180 OVC250 M02/M08 A3036 RMK CS3CI3 SLP300=

CYXU;2005-02-03 00:00;METAR CYXU 030000Z 09003KT 10SM SCT180 OVC250 M04/M08 A3036 RMK CS3CI3 SLP301=

CYXU;2005-02-03 01:00;METAR CYXU 030100Z 09004KT 12SM FEW180 BKN250 M05/M08 A3035 RMK CS2CI3 SLP299=

CYXU;2005-02-03 02:00;METAR CYXU 030200Z 00000KT 12SM SCT180 SCT250 M07/M09 A3036 RMK CS3CI0 SLP302=

CYXU;2005-02-03 04:00;METAR CYXU 030400Z 00000KT 10SM BKN180 M07/M09 A3031 RMK CS6 SLP283=

CYXU;2005-02-03 06:32;SPECI CYXU 030632Z 03003KT 1/8SM R15/1400V2200FT/N FZFG VV001 RMK FG8=

CYXU;2005-02-03 07:00;METAR CYXU 030700Z 07003KT 1/8SM R15/1100FT/N FZFG VV001 M06/M07 A3026 RMK FG8 SLP261=

CYXU;2005-02-03 08:47;SPECI CYXU 030847Z 36002KT 1/4SM R15/3500VP6000FT/U FZFG VV001 RMK FG8=

CYXU;2005-02-03 09:40;SPECI CYXU 030940Z 34003KT 3/4SM R15/1400VP6000FT/U BR BKN001 RMK FG2ST2=

CYXU;2005-02-03 10:00;METAR CYXU 031000Z 35004KT 3SM BR SCT001 BKN048 M07/M09 A3020 RMK ST2SC2 SLP243=

CYXU;2005-02-03 12:00;METAR CYXU 031200Z 34004KT 3SM BR OVC044 M06/M07 A3024 RMK SC8 SLP256=

CYXU;2005-02-03 13:00;METAR CYXU 031300Z 00000KT 2SM BR BKN063 M06/M07 A3024 RMK FG1SC6 SLP254=

CYXU;2005-02-03 15:00;METAR CYXU 031500Z 34003KT 3SM HZ SCT064 BKN220 M03/M06 A3022 RMK SC3CI4 SLP248=

CYXU;2005-02-03 16:00;METAR CYXU 031600Z 32006KT 5SM HZ SCT057 BKN220 M02/M06 A3021 RMK SC3CI4 SLP247=

CYXU;2005-02-03 17:00;METAR CYXU 031700Z 28006KT 5SM HZ FEW057 OVC220 01/M06 A3021 RMK SC2CI5 SLP245=

CYXU;2005-02-03 18:00;METAR CYXU 031800Z 32004KT 7SM OVC180 00/M06 A3019 RMK AS6 SLP236=

CYXU;2005-02-03 19:00;METAR CYXU 031900Z 29007KT 8SM BKN220 01/M06 A3017 RMK CI2 SLP232=

CYXU;2005-02-03 22:00;METAR CYXU 032200Z 31005KT 12SM BKN140 M00/M07 A3019 RMK AC3 SLP237=

CYXU;2005-02-03 23:00;METAR CYXU 032300Z 32002KT 10SM BKN140 M02/M07 A3020 RMK AC4 SLP242=

CYXU;2005-02-04 00:00;METAR CYXU 040000Z 31003KT 10SM FEW140 M04/M08 A3022 RMK AC2 SLP250=

CYXU;2005-02-04 02:00;METAR CYXU 040200Z 00000KT 10SM FEW140 M05/M08 A3027 RMK AC1 SLP264=

CYXU;2005-02-04 04:00;METAR CYXU 040400Z 27002KT 8SM BKN032 M05/M08 A3027 RMK SC7 SLP267=

CYXU;2005-02-04 06:00;METAR CYXU 040600Z 09002KT 8SM OVC031 M04/M08 A3027 RMK SC8 SLP262=

CYXU;2005-02-04 08:00;METAR CYXU 040800Z 00000KT 6SM HZ BKN030 M05/M08 A3029 RMK SC6 SLP269=

CYXU;2005-02-04 10:00;METAR CYXU 041000Z 00000KT 4SM HZ BKN026 M08/M10 A3031 RMK SC6 SLP279=

CYXU;2005-02-04 12:00;METAR CYXU 041200Z 00000KT 2 1/2SM BR BKN025 M09/M11 A3034 RMK SC6 FROIN SLP289=

CYXU;2005-02-04 13:00;METAR CYXU 041300Z 10003KT 2 1/2SM BR BKN025 M08/M10 A3035 RMK SC6 FROIN SLP294=

CYXU;2005-02-04 14:00;METAR CYXU 041400Z 13003KT 2 1/2SM BR BKN024 M06/M08 A3037 RMK SC7 FROIN SLP300=

CYXU;2005-02-04 15:00;METAR CYXU 041500Z 11002KT 2 1/2SM HZ BKN024 M04/M08 A3038 RMK SC7 SLP303=

CYXU;2005-02-04 16:00;METAR CYXU 041600Z 00000KT 2 1/2SM HZ FEW024 00/M06 A3038 RMK SC1 SLP305=

CYXU;2005-02-04 16:42;SPECI CYXU 041642Z 12004KT 3SM HZ FEW025 RMK SC1=

CYXU;2005-02-04 17:00;METAR CYXU 041700Z 13003KT 3SM HZ SKC 01/M05 A3038 RMK SLP303=

CYXU;2005-02-04 18:00;METAR CYXU 041800Z 13005KT 5SM HZ FEW200 02/M05 A3035 RMK CI1 SLP290=

CYXU;2005-02-04 21:00;METAR CYXU 042100Z 20007KT 7SM FEW220 02/M04 A3033 RMK CI1 SLP285=

CYXU;2005-02-04 22:00;METAR CYXU 042200Z 19008KT 7SM FEW220 01/M04 A3033 RMK CI1 SLP285=

CYXU;2005-02-05 00:00;METAR CYXU 050000Z 15004KT 6SM HZ SKC M02/M05 A3034 RMK SLP289=

CYXU;2005-02-05 03:27;SPECI CYXU 050327Z 16003KT 3/4SM R15/2400V4500FT/U BR SKC RMK FG3 FROIN=

CYXU;2005-02-05 05:00;METAR CYXU 050500Z 16003KT 1 1/2SM R15/1400V2200FT/N BR SKC M06/M07 A3035 RMK FG2 FROIN SLP292=

CYXU;2005-02-05 06:00;METAR CYXU 050600Z 00000KT 3SM R15/1200V3000FT/D BR SKC M06/M07 A3035 RMK FROIN SLP292=

CYXU;2005-02-05 06:14;SPECI CYXU 050614Z 00000KT 1/2SM R15/4500VP6000FT/U FZFG SKC RMK FG6 FROIN=

CYXU;2005-02-05 08:00;METAR CYXU 050800Z 08003KT 0SM R15/6000FT/U FZFG VV001 M09/M11 A3037 RMK FG8 VSBY SE 1/4 FROIN SLP298=

CYXU;2005-02-05 08:10;SPECI CYXU 050810Z 09005KT 1/4SM R15/P6000FT/U FZFG SKC RMK FG6 FROIN=

CYXU;2005-02-05 09:00;METAR CYXU 050900Z 11003KT 1SM R15/P6000FT/U BR SKC M07/M08 A3037 RMK FROIN SLP297=

CYXU;2005-02-05 10:00;METAR CYXU 051000Z 13002KT 1SM R15/4000FT/N BR SKC M09/M10 A3037 RMK FROIN SLP297=

CYXU;2005-02-05 12:00;METAR CYXU 051200Z 12002KT 1SM R15/4500FT/N BR SKC M08/M10 A3039 RMK FG2 FROIN SLP308=

CYXU;2005-02-05 12:16;SPECI CYXU 051216Z 14002KT 1/2SM R15/3500V5000FT/D FZFG SKC RMK FG4 FROIN=

CYXU;2005-02-05 13:00;METAR CYXU 051300Z 09005KT 3/4SM R15/4500FT/N BR SKC M09/M10 A3041 RMK FG4 FROIN SLP315=

CYXU;2005-02-05 14:00;METAR CYXU 051400Z 11003KT 3/4SM R15/3500FT/N BR SKC M05/M07 A3043 RMK FG2 FROIN SLP320=

CYXU;2005-02-05 15:00;METAR CYXU 051500Z 13003KT 1SM R15/5000FT/N BR SKC M03/M04 A3043 RMK SLP318=

CYXU;2005-02-05 15:36;SPECI CYXU 051536Z 14004KT 2SM BR SKC=

CYXU;2005-02-05 16:00;METAR CYXU 051600Z 17003KT 2 1/2SM HZ SKC 00/M03 A3044 RMK SLP321=

CYXU;2005-02-05 17:00;METAR CYXU 051700Z 14006KT 3SM HZ SKC 02/M02 A3043 RMK SLP319=

CYXU;2005-02-05 18:00;METAR CYXU 051800Z 15006KT 3SM HZ SKC 03/M02 A3042 RMK SLP314=

CYXU;2005-02-05 19:00;METAR CYXU 051900Z 15006KT 4SM HZ SKC 04/M01 A3040 RMK SLP306=

CYXU;2005-02-05 22:00;METAR CYXU 052200Z 15006KT 4SM HZ FEW260 03/M01 A3040 RMK CI1 CONTRAILS SLP307=

CYXU;2005-02-06 00:00;METAR CYXU 060000Z 15005KT 4SM HZ FEW200 01/M02 A3042 RMK CI2 SLP315=

CYXU;2005-02-06 01:00;METAR CYXU 060100Z 12006KT 4SM HZ FEW200 M00/M03 A3040 RMK CI2 SLP310=

CYXU;2005-02-06 02:00;METAR CYXU 060200Z 10004KT 4SM HZ SKC M00/M03 A3040 RMK SLP310=

CYXU;2005-02-06 04:00;METAR CYXU 060400Z 10006KT 4SM HZ SKC M01/M04 A3041 RMK SLP311=

CYXU;2005-02-06 05:00;METAR CYXU 060500Z 10007KT 2SM BR SKC M01/M03 A3040 RMK SLP309=

CYXU;2005-02-06 06:00;METAR CYXU 060600Z 09005KT 2SM BR SKC M03/M05 A3041 RMK FROIN SLP311=

CYXU;2005-02-06 06:54;SPECI CYXU 060654Z 09006KT 3/4SM R15/5500FT/N BR SKC RMK FG2 FROIN=

CYXU;2005-02-06 07:00;METAR CYXU 060700Z 10006KT 1/2SM R15/5500FT/U FZFG SKC M03/M05 A3042 RMK FG3 FROIN SLP312=

CYXU;2005-02-06 07:11;SPECI CYXU 060711Z 10007KT 1/4SM R15/1800V5500FT/D FZFG SKC RMK FG4 FROIN=

CYXU;2005-02-06 12:00;METAR CYXU 061200Z 10007KT 4SM BR FEW250 M02/M05 A3042 RMK CI2 FROIN SLP313=

CYXU;2005-02-06 13:00;METAR CYXU 061300Z 10007KT 3SM BR SCT250 M02/M05 A3041 RMK CI2 FROIN SLP312=

CYXU;2005-02-06 15:00;METAR CYXU 061500Z 12006KT 4SM HZ BKN250 M00/M05 A3041 RMK CI6 SLP309=

CYXU;2005-02-06 16:00;METAR CYXU 061600Z 13007KT 4SM HZ BKN250 03/M04 A3040 RMK CI6 SLP307=

CYXU;2005-02-06 17:00;METAR CYXU 061700Z 17007KT 5SM HZ BKN250 05/M04 A3039 RMK CI5 SLP304=

CYXU;2005-02-06 19:00;METAR CYXU 061900Z 15009KT 10SM OVC250 06/M05 A3035 RMK CI8 SLP288=

CYXU;2005-02-06 21:00;METAR CYXU 062100Z 15005KT 12SM FEW150 OVC220 06/M04 A3035 RMK AS1CS7 SLP287=

CYXU;2005-02-06 22:00;METAR CYXU 062200Z 16006KT 12SM OVC210 05/M04 A3035 RMK CS8 SLP289=

CYXU;2005-02-07 00:00;METAR CYXU 070000Z 15006KT 12SM OVC180 04/M04 A3035 RMK AS8 SLP289=

CYXU;2005-02-07 03:00;METAR CYXU 070300Z 16004KT 15SM OVC180 04/M03 A3031 RMK AC8 SLP275=

CYXU;2005-02-07 04:00;METAR CYXU 070400Z 17003KT 15SM OVC150 04/M03 A3030 RMK AC8 SLP270=

CYXU;2005-02-07 06:00;METAR CYXU 070600Z 16003KT 15SM OVC150 04/M03 A3028 RMK AC8 SLP262=

CYXU;2005-02-07 07:00;METAR CYXU 070700Z 20003KT 15SM OVC130 04/M03 A3028 RMK AC8 SLP263=

CYXU;2005-02-07 09:00;METAR CYXU 070900Z 12007KT 15SM BKN150 04/M02 A3024 RMK AC7 SLP250=

CYXU;2005-02-07 10:00;METAR CYXU 071000Z 12003KT 15SM BKN120 03/M02 A3025 RMK AC6 SLP251=

CYXU;2005-02-07 11:00;METAR CYXU 071100Z 10004KT 15SM OVC120 03/M02 A3024 RMK AC8 SLP249=

CYXU;2005-02-07 12:00;METAR CYXU 071200Z 10003KT 15SM OVC110 02/M02 A3024 RMK AC8 SLP249=

CYXU;2005-02-07 13:00;METAR CYXU 071300Z 10005KT 15SM OVC120 03/M02 A3022 RMK AC8 SLP242=

CYXU;2005-02-07 14:00;METAR CYXU 071400Z 14006KT 15SM OVC080 04/M03 A3022 RMK AC8 SLP242=

CYXU;2005-02-07 15:00;METAR CYXU 071500Z 13008KT 15SM OVC080 04/M03 A3017 RMK AC8 VIRGA SLP225=

CYXU;2005-02-07 15:31;SPECI CYXU 071531Z 17008KT 15SM -SHRA OVC070 RMK AC8 ACC ASOCTD=

CYXU;2005-02-07 16:00;METAR CYXU 071600Z 18008KT 15SM OVC070 04/M03 A3019 RMK AC8 SLP232=

CYXU;2005-02-07 16:11;SPECI CYXU 071611Z 19008KT 15SM -SHRA OVC070 RMK AC8 ACC ASOCTD=

CYXU;2005-02-07 17:00;METAR CYXU 071700Z 19005KT 15SM -RA OVC060 05/M02 A3020 RMK NS8 PCPN VRY LGT SLP234=

CYXU;2005-02-07 20:00;METAR CYXU 072000Z 15007KT 5SM -RA BR OVC057 03/00 A3010 RMK NS8 SLP201=

CYXU;2005-02-07 21:00;METAR CYXU 072100Z 14005KT 5SM BR SCT044 OVC072 03/01 A3008 RMK SC3NS5 SLP194=

CYXU;2005-02-07 21:11;SPECI CYXU 072111Z 15005KT 4SM -RA BR BKN041 OVC070 RMK SC5NS3=

CYXU;2005-02-07 21:39;SPECI CYXU 072139Z 23003KT 3SM -RA BR OVC040 RMK NS8=

CYXU;2005-02-07 22:00;METAR CYXU 072200Z 18003KT 2 1/2SM -RA BR OVC041 02/01 A3009 RMK NS8 SLP199=

CYXU;2005-02-07 22:19;SPECI CYXU 072219Z 19005KT 2SM -RA BR SCT006 OVC013 RMK FG2SF2NS5=

CYXU;2005-02-07 23:00;METAR CYXU 072300Z 20007KT 2 1/2SM -RA BR OVC009 03/02 A3008 RMK FG2SF6 SLP196=

CYXU;2005-02-07 23:13;SPECI CYXU 072313Z 20007KT 3SM -RA BR OVC007 RMK FG2SF6=

CYXU;2005-02-07 23:28;SPECI CYXU 072328Z 21007KT 4SM -RA BR OVC005 RMK SF8=

CYXU;2005-02-08 00:00;METAR CYXU 080000Z 21007KT 2SM -RA BR OVC006 03/02 A3007 RMK SF8 SLP192=

CYXU;2005-02-08 00:43;SPECI CYXU 080043Z 20007KT 3SM -RA BR OVC008 RMK SF8=

CYXU;2005-02-08 01:16;SPECI CYXU 080116Z 20008KT 2 1/2SM -RA BR OVC005 RMK FG2SF6=

CYXU;2005-02-08 01:44;SPECI CYXU 080144Z 21007KT 2SM -RA BR OVC003 RMK FG3SF5=

CYXU;2005-02-08 02:00;METAR CYXU 080200Z 21007KT 1 1/2SM -RA BR OVC003 03/02 A3005 RMK FG3SF5 SLP186=

CYXU;2005-02-08 03:00;METAR CYXU 080300Z 23006KT 1 1/2SM BR OVC003 03/02 A3006 RMK SF8 SLP186=

CYXU;2005-02-08 03:24;SPECI CYXU 080324Z 22006KT 1/2SM R15/P6000FT/D FG OVC001 RMK FG5SF3=

CYXU;2005-02-08 04:00;METAR CYXU 080400Z 22005KT 1/4SM R15/1400V2400FT/D FG VV001 03/02 A3003 RMK FG8 SLP179=

CYXU;2005-02-08 06:00;METAR CYXU 080600Z 23004KT 1/4SM R15/1100FT/N FG VV001 03/02 A3001 RMK FG8 SLP171=

CYXU;2005-02-08 06:17;SPECI CYXU 080617Z 23003KT 1/4SM R15/1100FT/N -RA FG VV001 RMK FG8=

CYXU;2005-02-08 08:00;METAR CYXU 080800Z 27003KT 1/4SM R15/2200FT/N -RA FG VV002 03/02 A2998 RMK FG8 SLP162=

CYXU;2005-02-08 09:00;METAR CYXU 080900Z 00000KT 3/4SM R15/2200FT/N -RA BR VV003 03/02 A2995 RMK FG8 SLP152=

CYXU;2005-02-08 10:00;METAR CYXU 081000Z 28003KT 3/4SM R15/3500FT/N -RA BR VV002 03/02 A2997 RMK FG8 SLP159=

CYXU;2005-02-08 10:11;SPECI CYXU 081011Z 27003KT 1/2SM R15/2400FT/N -RA FG VV002 RMK FG8=

CYXU;2005-02-08 10:37;SPECI CYXU 081037Z 25003KT 1/4SM R15/1600V2200FT/N FG VV001 RMK FG8=

CYXU;2005-02-08 11:00;METAR CYXU 081100Z 27003KT 1/4SM R15/2000FT/N FG VV001 03/02 A2998 RMK FG8 SLP160=

CYXU;2005-02-08 11:14;SPECI CYXU 081114Z 28003KT 1/4SM R15/1800FT/N -RA FG VV001 RMK FG8=

CYXU;2005-02-08 12:00;METAR CYXU 081200Z 27003KT 1/8SM R15/1400FT/N FG VV001 02/02 A2998 RMK FG8 SLP162=

CYXU;2005-02-08 13:00;METAR CYXU 081300Z 30002KT 1/8SM R15/1400FT/N FG VV001 02/01 A2999 RMK FG8 SLP165=

CYXU;2005-02-08 13:27;SPECI CYXU 081327Z 30004KT 1/4SM R15/1800FT/N FG VV002 RMK FG8=

CYXU;2005-02-08 13:38;SPECI CYXU 081338Z 31005KT 1/8SM R15/2200FT/N -RA FG VV001 RMK FG8=

CYXU;2005-02-08 13:51;SPECI CYXU 081351Z 31004KT 3/8SM R15/2800FT/N -RA FG VV002 RMK FG8=

CYXU;2005-02-08 14:00;METAR CYXU 081400Z 30004KT 3/8SM R15/3000FT/N -RA FG VV002 02/01 A3001 RMK FG8 SLP170=

CYXU;2005-02-08 14:06;SPECI CYXU 081406Z 30005KT 1/2SM R15/2600V3500FT/N -RA FG VV002 RMK FG8=

CYXU;2005-02-08 14:12;SPECI CYXU 081412Z 29005KT 3/4SM R15/2600V4500FT/U -RA BR OVC002 RMK FG5ST3=

CYXU;2005-02-08 14:22;SPECI CYXU 081422Z 30006KT 1SM R15/P6000FT/U -RA BR OVC003 RMK FG3SF5=

CYXU;2005-02-08 14:35;SPECI CYXU 081435Z 30005KT 1 1/2SM BR OVC002 RMK FG3SF5=

CYXU;2005-02-08 15:00;METAR CYXU 081500Z 30006KT 1 1/2SM -DZ BR OVC003 01/00 A3003 RMK FG3ST5 SLP178=

CYXU;2005-02-08 15:26;SPECI CYXU 081526Z 20006KT 2SM BR OVC003 RMK FG2ST6=

CYXU;2005-02-08 15:50;SPECI CYXU 081550Z 29006KT 1 1/2SM -RA BR OVC003 RMK FG3ST5 CIG RGD=

CYXU;2005-02-08 16:00;METAR CYXU 081600Z 30005KT 1 1/2SM -RA BR OVC003 01/00 A3003 RMK FG3SF5 CIG RGD SLP179=

CYXU;2005-02-08 17:00;METAR CYXU 081700Z 31005KT 1 1/2SM -RA BR OVC002 01/00 A3003 RMK FG4SF4 CIG RDG SLP179=

CYXU;2005-02-08 17:12;SPECI CYXU 081712Z 30006KT 1SM R15/P6000FT/D BR OVC002 RMK FG5ST3 CIG RGD=

CYXU;2005-02-08 17:39;SPECI CYXU 081739Z 31008KT 1 1/2SM BR OVC002 RMK FG3ST5 CIG RGD VIS HIR N=

CYXU;2005-02-08 18:12;SPECI CYXU 081812Z 31006KT 2SM BR OVC002 RMK FG3ST5 CIG RGD=

CYXU;2005-02-08 18:24;SPECI CYXU 081824Z 30007KT 2 1/2SM BR OVC003 RMK FG2ST6 CIG RGD=

CYXU;2005-02-08 19:10;SPECI CYXU 081910Z 31007KT 5SM BR OVC006 RMK ST8=

CYXU;2005-02-08 20:40;SPECI CYXU 082040Z 32011KT 7SM OVC006 RMK ST8 HAZE=

CYXU;2005-02-08 22:00;METAR CYXU 082200Z 32006KT 6SM HZ OVC005 M00/M02 A3007 RMK ST8 SLP192=

CYXU;2005-02-08 22:20;SPECI CYXU 082220Z 34008KT 6SM HZ OVC007 RMK ST8=

CYXU;2005-02-09 00:00;METAR CYXU 090000Z 35007KT 8SM OVC007 M01/M03 A3008 RMK SF8 HAZE SLP198=

CYXU;2005-02-09 03:00;METAR CYXU 090300Z 35005KT 8SM BKN010 OVC042 M01/M04 A3010 RMK SC6SC2 SLP202=

CYXU;2005-02-09 04:00;METAR CYXU 090400Z 33005KT 8SM OVC014 M01/M04 A3010 RMK SC8 OBS TKN +12 SLP202=

CYXU;2005-02-09 05:00;METAR CYXU 090500Z 32004KT 8SM OVC009 M02/M04 A3009 RMK SC8 SLP201=

CYXU;2005-02-09 05:28;SPECI CYXU 090528Z 33006KT 8SM OVC012 RMK SC8=

CYXU;2005-02-09 06:00;METAR CYXU 090600Z 35007KT 8SM -SN OVC011 M02/M05 A3009 RMK SC8 SLP200=

CYXU;2005-02-09 08:00;METAR CYXU 090800Z 02005KT 8SM BKN011 OVC036 M02/M05 A3004 RMK SC6SC2 SLP184=

CYXU;2005-02-09 09:00;METAR CYXU 090900Z 36005KT 8SM -SHSN BKN010 OVC031 M02/M05 A3002 RMK SC6SC2 SLP178=

CYXU;2005-02-09 09:28;SPECI CYXU 090928Z 01005KT 8SM SCT011 OVC034 RMK SC4SC4=

CYXU;2005-02-09 10:00;METAR CYXU 091000Z 36004KT 10SM OVC036 M03/M05 A3001 RMK SC8 SLP175=

CYXU;2005-02-09 11:00;METAR CYXU 091100Z 36004KT 15SM OVC028 M03/M06 A3001 RMK SC8 SLP175=

CYXU;2005-02-09 12:00;METAR CYXU 091200Z 02005KT 15SM OVC030 M02/M06 A3000 RMK SC8 SLP173=

CYXU;2005-02-09 13:00;METAR CYXU 091300Z 05005KT 15SM -SN FEW011 OVC028 M03/M06 A2999 RMK SF2SC6 PCPN VRY LGT SLP169=

CYXU;2005-02-09 13:26;SPECI CYXU 091326Z 06005KT 2SM -SN SCT010 OVC028 RMK SN1SF2NS5=

CYXU;2005-02-09 13:31;SPECI CYXU 091331Z 04005KT 1 1/4SM -SN VV012 RMK SN8=

CYXU;2005-02-09 13:45;SPECI CYXU 091345Z 04005KT 1SM R15/P6000FT/D -SN VV009 RMK SN8=

CYXU;2005-02-09 14:07;SPECI CYXU 091407Z 03003KT 3/4SM R15/P6000FT/N -SN VV008 RMK SN8=

CYXU;2005-02-09 14:23;SPECI CYXU 091423Z 01003KT 1/2SM R15/4000VP6000FT/D SN VV005 RMK SN8=

CYXU;2005-02-09 14:40;SPECI CYXU 091440Z 02003KT 3/4SM R15/3000V5000FT/U -SN VV009 RMK SN8=

CYXU;2005-02-09 15:00;METAR CYXU 091500Z 04003KT 1/2SM R15/P6000FT/D SN OVC006 M03/M05 A3000 RMK SN4NS4 /S01/ SLP170=

CYXU;2005-02-09 15:32;SPECI CYXU 091532Z 06004KT 1SM R15/P6000FT/U -SN VV009 RMK SN8=

CYXU;2005-02-09 15:44;SPECI CYXU 091544Z 04004KT 3/4SM R15/P6000FT/D -SN VV007 RMK SN8=

CYXU;2005-02-09 16:00;METAR CYXU 091600Z 05004KT 3/4SM R15/6000FT/D -SN VV007 M03/M05 A2997 RMK SN8 /S02/ SLP161=

CYXU;2005-02-09 16:13;SPECI CYXU 091613Z 02004KT 1/2SM R15/5000FT/D SN VV005 RMK SN8=

CYXU;2005-02-09 16:36;SPECI CYXU 091636Z 03005KT 3/4SM R15/6000FT/U -SN VV008 RMK SN8 VSBY=

CYXU;2005-02-09 17:00;METAR CYXU 091700Z 02006KT 3/4SM R15/P6000FT/D -SN VV009 M03/M05 A2993 RMK SN8 VSBY VRBL 1/2-1 SLP149=

CYXU;2005-02-09 17:17;SPECI CYXU 091717Z 36006KT 1 1/4SM -SN VV012 RMK SN8=

CYXU;2005-02-09 17:39;SPECI CYXU 091739Z 02006KT 1 1/2SM -SN OVC020 RMK SN3NS5=

CYXU;2005-02-09 18:00;METAR CYXU 091800Z 02004KT 1 3/4SM -SN SCT008 OVC020 M03/M05 A2988 RMK SN2SF2NS5 /S03/ SLP132=

CYXU;2005-02-09 18:22;SPECI CYXU 091822Z 02004KT 1 1/2SM -SN BKN007 OVC011 RMK SN2SF4NS2=

CYXU;2005-02-09 19:18;SPECI CYXU 091918Z 35005KT 1 1/2SM -SN SCT008 OVC025 RMK SN2SF2NS4=

CYXU;2005-02-09 20:37;SPECI CYXU 092037Z 32007KT 2 1/2SM -SN BKN009 OVC015 RMK SN2SF4NS2=

CYXU;2005-02-09 21:00;METAR CYXU 092100Z 33007KT 4SM -SN FEW009 SCT015 OVC033 M03/M05 A2985 RMK SF1SC2NS5 SLP122=

CYXU;2005-02-09 22:00;METAR CYXU 092200Z 32006KT 3SM -SN SCT015 OVC035 M03/M06 A2986 RMK SC3NS5 SLP125=

CYXU;2005-02-09 22:14;SPECI CYXU 092214Z 32006KT 2 1/2SM -SN BKN015 OVC022 RMK SN2SC5NS2=

CYXU;2005-02-09 22:30;SPECI CYXU 092230Z 32006KT 2SM -SN BKN023 OVC041 RMK SN3SC2NS3=

CYXU;2005-02-09 22:54;SPECI CYXU 092254Z 33005KT 1 1/2SM -SN BKN011 OVC027 RMK SN3SC2NS2=

CYXU;2005-02-09 23:00;METAR CYXU 092300Z 32005KT 1 1/2SM -SN BKN012 OVC027 M04/M06 A2987 RMK SN3SC3NS2 /S01/ SLP129=

CYXU;2005-02-10 00:00;METAR CYXU 100000Z 32005KT 2SM -SN SCT022 OVC050 M04/M07 A2988 RMK SN2SC1NS5 /S02/ SLP130=

CYXU;2005-02-10 00:13;SPECI CYXU 100013Z 31005KT 5SM -SN FEW023 OVC052 RMK SC2NS6=

CYXU;2005-02-10 01:00;METAR CYXU 100100Z 32006KT 8SM -SN FEW023 OVC053 M04/M07 A2987 RMK SC2SC6 SLP128=

CYXU;2005-02-10 01:27;SPECI CYXU 100127Z 32005KT 8SM FEW023 BKN047 OVC053 RMK SC2SC5SC2=

CYXU;2005-02-10 02:05;SPECI CYXU 100205Z 33006KT 8SM -SN SCT013 OVC043 RMK SC3SC5 PCPN VRY LGT=

CYXU;2005-02-10 03:00;METAR CYXU 100300Z 32007KT 8SM -SN FEW010 SCT015 OVC043 M05/M07 A2986 RMK SF1SC3SC4 PCPN VRY LGT SLP126=

CYXU;2005-02-10 03:18;SPECI CYXU 100318Z 31006KT 10SM -SN FEW009 BKN014 OVC043 RMK SF1SC4SC3 PCPN VRY LGT=

CYXU;2005-02-10 04:00;METAR CYXU 100400Z 32002KT 10SM -SN FEW009 BKN014 OVC043 M05/M08 A2985 RMK SF2SC2SC3 PCPN VRY LGT SLP123=

CYXU;2005-02-10 05:00;METAR CYXU 100500Z 32005KT 10SM -SN FEW009 BKN013 OVC044 M06/M09 A2984 RMK SF1SC4SC3 PCPN VRY LGT SLP118=

CYXU;2005-02-10 06:00;METAR CYXU 100600Z 32007KT 10SM -SN FEW009 BKN013 OVC048 M06/M09 A2983 RMK SF1SC4SC3 PCPN VRY LGT SLP117=

CYXU;2005-02-10 06:08;SPECI CYXU 100608Z 32007KT 12SM SCT013 OVC051 RMK SC4SC4=

CYXU;2005-02-10 07:00;METAR CYXU 100700Z 31006KT 12SM FEW017 OVC054 M06/M09 A2983 RMK SC2SC6 SLP117=

CYXU;2005-02-10 08:00;METAR CYXU 100800Z 32006KT 12SM FEW020 OVC054 M06/M09 A2984 RMK SC2SC6 SLP118=

CYXU;2005-02-10 08:10;SPECI CYXU 100810Z 31006KT 12SM -SN FEW020 OVC054 RMK SC2SC6=

CYXU;2005-02-10 09:00;METAR CYXU 100900Z 32005KT 12SM -SN FEW020 OVC056 M06/M10 A2983 RMK SC2SC6 SLP114=

CYXU;2005-02-10 10:00;METAR CYXU 101000Z 31006KT 12SM -SN FEW028 OVC056 M06/M10 A2983 RMK SC2SC6 SLP115=

CYXU;2005-02-10 11:00;METAR CYXU 101100Z 31007KT 12SM -SN SCT058 BKN200 M07/M10 A2984 RMK SC3CS0 SLP118=

CYXU;2005-02-10 12:00;METAR CYXU 101200Z 32004KT 12SM -SN BKN023 BKN100 M08/M10 A2985 RMK SC5AC2 SLP123=

CYXU;2005-02-10 13:00;METAR CYXU 101300Z 33010KT 10SM -SN FEW023 OVC100 M07/M10 A2987 RMK SC2AC6 SLP129=

CYXU;2005-02-10 14:24;SPECI CYXU 101424Z 34015KT 1 1/2SM -SN OVC013 RMK SN3SC5=

CYXU;2005-02-10 15:00;METAR CYXU 101500Z 34012KT 1 1/2SM -SN VV012 M07/M10 A2989 RMK SN8 TCU EMBDD SLP138=

CYXU;2005-02-10 16:00;METAR CYXU 101600Z 34016KT 2SM -SN OVC017 M07/M10 A2990 RMK SC8 TCU EMBDD SLP141=

CYXU;2005-02-10 16:42;SPECI CYXU 101642Z 33009G15KT 6SM -SN SCT016 BKN220 RMK SC3CI1 TCU EMBDD=

CYXU;2005-02-10 17:00;METAR CYXU 101700Z 34013KT 10SM FEW016 SCT120 BKN220 M06/M10 A2991 RMK SC2AC2CI0 VSBY LWR W-SW SLP143=

CYXU;2005-02-10 18:00;METAR CYXU 101800Z 32012KT 12SM FEW018 FEW058 SCT130 BKN220 M05/M09 A2990 RMK SC1SC2AC2CI0 SLP139=

CYXU;2005-02-10 19:00;METAR CYXU 101900Z 33010G16KT 12SM FEW070 BKN220 M04/M10 A2990 RMK AC2CI1 SLP140=

CYXU;2005-02-10 20:00;METAR CYXU 102000Z 33011G16KT 15SM FEW070 M04/M10 A2990 RMK AC1 SLP141=

CYXU;2005-02-10 21:00;METAR CYXU 102100Z 33014G19KT 15SM FEW070 M04/M11 A2993 RMK AC1 SLP149=

CYXU;2005-02-10 22:00;METAR CYXU 102200Z 32011G17KT 15SM SKC M05/M11 A2995 RMK SLP158=

CYXU;2005-02-10 23:00;METAR CYXU 102300Z 32009KT 15SM FEW030 M05/M12 A2998 RMK SC1 SLP167=

CYXU;2005-02-11 00:00;METAR CYXU 110000Z 32008KT 15SM SKC M06/M12 A3000 RMK SLP176=

CYXU;2005-02-11 02:00;METAR CYXU 110200Z 32007KT 15SM SKC M06/M12 A3002 RMK SLP181=

CYXU;2005-02-11 04:00;METAR CYXU 110400Z 30005KT 15SM SKC M08/M12 A3002 RMK SLP183=

CYXU;2005-02-11 05:00;METAR CYXU 110500Z 31006KT 15SM SKC M07/M10 A3001 RMK SLP179=

CYXU;2005-02-11 09:00;METAR CYXU 110900Z 29004KT 15SM SKC M10/M12 A2999 RMK SLP173=

CYXU;2005-02-11 10:00;METAR CYXU 111000Z 27004KT 15SM FEW220 M09/M12 A2999 RMK CI2 SLP171=

CYXU;2005-02-11 11:00;METAR CYXU 111100Z 26006KT 15SM FEW220 M09/M12 A2998 RMK CI2 FROIN SLP169=

CYXU;2005-02-11 12:00;METAR CYXU 111200Z 27005KT 15SM BKN220 M09/M13 A2998 RMK CI2 CONTRAILS SLP169=

CYXU;2005-02-11 13:00;METAR CYXU 111300Z 25005KT 15SM SCT180 BKN240 M10/M13 A2997 RMK CS3CI0 SLP166=

CYXU;2005-02-11 14:00;METAR CYXU 111400Z 27006KT 15SM OVC240 M08/M12 A2997 RMK CS7 SLP166=

CYXU;2005-02-11 15:00;METAR CYXU 111500Z 26009KT 15SM FEW016 OVC240 M06/M10 A2996 RMK SC2CS6 SLP160=

CYXU;2005-02-11 16:00;METAR CYXU 111600Z 26010KT 15SM BKN020 M05/M08 A2994 RMK SC7 SLP156=

CYXU;2005-02-11 17:00;METAR CYXU 111700Z 27011G16KT 15SM BKN020 M04/M08 A2992 RMK SC7 SLP147=

CYXU;2005-02-11 18:00;METAR CYXU 111800Z 27011G17KT 10SM OVC017 M04/M08 A2990 RMK SC8 SLP140=

CYXU;2005-02-11 19:00;METAR CYXU 111900Z 28010KT 6SM -SN OVC016 M04/M08 A2987 RMK SC8 SLP132=

CYXU;2005-02-11 20:17;SPECI CYXU 112017Z 26009KT 6SM -SN OVC014 RMK SC8 PCPN VRY LGT=

CYXU;2005-02-11 21:00;METAR CYXU 112100Z 26008KT 6SM -SN OVC013 M03/M07 A2987 RMK SC8 SLP132=

CYXU;2005-02-11 23:00;METAR CYXU 112300Z 24007KT 2 1/2SM -SN BKN008 OVC030 M03/M06 A2986 RMK ST6SC2 SLP126=

CYXU;2005-02-12 00:00;METAR CYXU 120000Z 23008KT 3SM -SN BKN008 OVC029 M03/M05 A2984 RMK SC6SC2 SLP121=

CYXU;2005-02-12 01:00;METAR CYXU 120100Z 25009KT 3SM -SN BKN009 OVC025 M03/M05 A2984 RMK SC6SC2 SLP120=

CYXU;2005-02-12 03:00;METAR CYXU 120300Z 27009KT 3SM -SN BKN010 OVC020 M02/M05 A2982 RMK SC6SC2 SLP111=

CYXU;2005-02-12 04:00;METAR CYXU 120400Z 26011KT 3SM -SN BKN012 OVC020 M02/M05 A2979 RMK SC6SC2 SLP103=

CYXU;2005-02-12 05:00;METAR CYXU 120500Z 26009KT 4SM -SN BKN012 OVC026 M02/M05 A2977 RMK SC5SC3 PCPN VRY LGT SLP096=

CYXU;2005-02-12 05:25;SPECI CYXU 120525Z 26010KT 3SM -SN HZ SCT013 OVC024 RMK SC3SC5 PCPN VRY LGT=

CYXU;2005-02-12 06:00;METAR CYXU 120600Z 27009KT 3SM -SN HZ FEW013 OVC019 M02/M05 A2977 RMK SC2SC6 SLP093=

CYXU;2005-02-12 07:52;SPECI CYXU 120752Z 26008KT 1 1/2SM -SN OVC024 RMK SC8=

CYXU;2005-02-12 10:10;SPECI CYXU 121010Z 23008KT 3/4SM R15/P6000FT/N -SN BKN008 OVC013 RMK SN3SF2SC2 TCU ASTD=

CYXU;2005-02-12 11:31;SPECI CYXU 121131Z 26010KT 3/4SM R15/P6000FT/U -SN VV008 RMK SN8=

CYXU;2005-02-12 12:00;METAR CYXU 121200Z 26010KT 1SM R15/P6000FT/N -SN FEW008 OVC050 M02/M03 A2969 RMK SF2SC6 TCU ASOCTD SLP066=

CYXU;2005-02-12 12:11;SPECI CYXU 121211Z 26009KT 2SM -SN FEW034 OVC053 RMK SC2SC6=

CYXU;2005-02-12 12:42;SPECI CYXU 121242Z 26007KT 2SM BR FEW028 SCT053 OVC080 RMK SC2SC2AC4=

CYXU;2005-02-12 12:50;SPECI CYXU 121250Z 26008KT 3SM BR BKN028 OVC080 RMK SC6AC2=

CYXU;2005-02-12 13:00;METAR CYXU 121300Z 26009KT 3SM -SHSN BKN027 BKN080 M02/M04 A2970 RMK SC5AC2 TCU ASOCTD SLP069=

CYXU;2005-02-12 13:19;SPECI CYXU 121319Z 26008KT 5SM HZ FEW028 FEW080 RMK SC1AC1=

CYXU;2005-02-12 14:00;METAR CYXU 121400Z 28008KT 6SM HZ FEW030 M02/M04 A2970 RMK CU1 SLP070=

CYXU;2005-02-12 16:00;METAR CYXU 121600Z 29012KT 10SM SCT015 01/M03 A2972 RMK CU4 SLP075=

CYXU;2005-02-12 16:23;SPECI CYXU 121623Z 31012G18KT 10SM BKN013 RMK SC7=

CYXU;2005-02-12 17:00;METAR CYXU 121700Z 29017KT 12SM BKN016 01/M03 A2974 RMK SC7 SLP083=

CYXU;2005-02-12 18:00;METAR CYXU 121800Z 31011G19KT 12SM SCT016 01/M03 A2975 RMK SC4 SLP084=

CYXU;2005-02-12 22:00;METAR CYXU 122200Z 29007KT 15SM FEW020 02/M04 A2981 RMK SC1 SLP106=

CYXU;2005-02-13 00:00;METAR CYXU 130000Z 30004KT 15SM SKC M01/M05 A2989 RMK SLP134=

CYXU;2005-02-13 03:00;METAR CYXU 130300Z 27002KT 15SM SKC M05/M08 A2995 RMK SLP155=

CYXU;2005-02-13 04:00;METAR CYXU 130400Z 30004KT 15SM SKC M04/M07 A2997 RMK SLP161=

CYXU;2005-02-13 05:00;METAR CYXU 130500Z 27003KT 15SM SKC M06/M09 A2998 RMK FROIN SLP166=

CYXU;2005-02-13 07:00;METAR CYXU 130700Z 36002KT 15SM SKC M07/M10 A3003 RMK SLP180=

CYXU;2005-02-13 08:00;METAR CYXU 130800Z 04006KT 15SM SKC M07/M09 A3004 RMK SLP185=

CYXU;2005-02-13 10:00;METAR CYXU 131000Z 07004KT 15SM SKC M10/M13 A3010 RMK FROIN SLP206=

CYXU;2005-02-13 11:00;METAR CYXU 131100Z 06004KT 15SM SKC M10/M12 A3013 RMK FROIN SLP215=

CYXU;2005-02-13 12:00;METAR CYXU 131200Z 06005KT 15SM FEW250 M10/M13 A3014 RMK CI0 SLP223=

CYXU;2005-02-13 13:00;METAR CYXU 131300Z 08006KT 15SM FEW250 M09/M12 A3017 RMK CI0 FROIN SLP232=

CYXU;2005-02-13 14:00;METAR CYXU 131400Z 09009KT 15SM SCT250 M08/M12 A3018 RMK CI1 SLP235=

CYXU;2005-02-13 15:00;METAR CYXU 131500Z 10008KT 15SM SCT250 M07/M12 A3021 RMK CI1 SLP245=

CYXU;2005-02-13 16:00;METAR CYXU 131600Z 11007KT 15SM BKN220 M06/M12 A3023 RMK CI2 SLP252=

CYXU;2005-02-13 17:00;METAR CYXU 131700Z 11009KT 15SM BKN220 M06/M12 A3021 RMK CS5 SLP247=

CYXU;2005-02-13 19:00;METAR CYXU 131900Z 11012KT 15SM BKN220 M05/M12 A3019 RMK CS7 SLP238=

CYXU;2005-02-13 21:00;METAR CYXU 132100Z 09010G16KT 15SM OVC230 M05/M11 A3017 RMK CI8 SLP233=

CYXU;2005-02-13 22:00;METAR CYXU 132200Z 08012KT 15SM OVC200 M05/M11 A3016 RMK CI8 SLP229=

CYXU;2005-02-13 23:00;METAR CYXU 132300Z 09014KT 15SM OVC190 M06/M10 A3016 RMK CI8 SLP230=

CYXU;2005-02-14 01:00;METAR CYXU 140100Z 09015KT 15SM OVC130 M05/M10 A3013 RMK AC8 SLP221=

CYXU;2005-02-14 02:00;METAR CYXU 140200Z 09015KT 15SM OVC110 M05/M09 A3013 RMK AC8 SLP222=

CYXU;2005-02-14 04:00;METAR CYXU 140400Z 09017KT 15SM OVC080 M04/M09 A3004 RMK AC8 SLP190=

CYXU;2005-02-14 04:24;SPECI CYXU 140424Z 09017KT 12SM -PL OVC060 RMK NS8=

CYXU;2005-02-14 04:47;SPECI CYXU 140447Z 08015G21KT 10SM -FZRA OVC060 RMK NS8=

CYXU;2005-02-14 06:28;SPECI CYXU 140628Z 10018KT 10SM OVC046 REFZRA RMK SC8=

CYXU;2005-02-14 07:14;SPECI CYXU 140714Z 10017KT 10SM -FZRA OVC041 RMK NS8 PCPN VRY LGT=

CYXU;2005-02-14 10:43;SPECI CYXU 141043Z 11015G21KT 4SM -FZRA BR SCT009 OVC019 RMK SF3NS5=

CYXU;2005-02-14 11:38;SPECI CYXU 141138Z 12016KT 4SM -RA BR SCT008 OVC016 REFZRA RMK SF3SC5 TEMP 0.2=

CYXU;2005-02-14 12:08;SPECI CYXU 141208Z 12012G17KT 2SM RA BR SCT008 OVC013 REFZRA RMK FG1SF2NS5=

CYXU;2005-02-14 12:35;SPECI CYXU 141235Z 12013KT 2 1/2SM -RA BR SCT008 OVC011 RERA RMK FG1SF2NS5=

CYXU;2005-02-14 12:48;SPECI CYXU 141248Z 13013KT 2 1/2SM RA BR SCT008 OVC010 RMK FG1SF2NS5=

CYXU;2005-02-14 13:11;SPECI CYXU 141311Z 13013KT 2 1/2SM -RA BR OVC008 RERA RMK FG1NS7=

CYXU;2005-02-14 13:37;SPECI CYXU 141337Z 14017KT 2 1/2SM -RA BR OVC006 RMK FG1NS7=

CYXU;2005-02-14 14:48;SPECI CYXU 141448Z 15016KT 3SM -RA BR OVC005 RERA RMK FG1NS7 BLN CIG 500FT=

CYXU;2005-02-14 17:23;SPECI CYXU 141723Z 17017G22KT 2SM -RA BR OVC003 RMK FG2NS6=

CYXU;2005-02-14 18:31;SPECI CYXU 141831Z 17018G25KT 2 1/2SM RA BR OVC004 RMK FG2NS6=

CYXU;2005-02-14 18:44;SPECI CYXU 141844Z 17018G24KT 2 1/2SM -RA BR OVC004 RERA RMK FG2NS6=

CYXU;2005-02-14 22:41;SPECI CYXU 142241Z 20010KT 2 1/2SM -DZ BR OVC003 RMK SF8 CIG VRBL 2-4=

CYXU;2005-02-15 00:15;SPECI CYXU 150015Z 26015G21KT 3SM -RA BR SCT006 OVC011 RMK SF3SC5=

CYXU;2005-02-15 00:30;SPECI CYXU 150030Z 26019G24KT 3SM RA BR BKN008 OVC015 RMK SF5SC3 NS ASOCTD=

CYXU;2005-02-15 00:42;SPECI CYXU 150042Z 26012G24KT 5SM -SHRA BR SCT008 OVC015 RERA RMK SF3SC5=

CYXU;2005-02-15 01:55;SPECI CYXU 150155Z 27013G21KT 6SM -SHRASN BKN007 OVC015 RMK SF5SC3=

CYXU;2005-02-15 04:18;SPECI CYXU 150418Z 27013G20KT 4SM -SN BKN009 OVC015 RMK SF5NS3=

CYXU;2005-02-15 05:41;SPECI CYXU 150541Z 26009KT 10SM OVC014 RMK SC8=

CYXU;2005-02-15 09:00;METAR CYXU 150900Z 23008KT 8SM OVC018 02/M01 A2991 RMK SC8 SLP136=

CYXU;2005-02-15 10:00;METAR CYXU 151000Z 21008KT 8SM OVC017 02/M00 A2994 RMK SC8 SLP147=

CYXU;2005-02-15 12:00;METAR CYXU 151200Z 21008KT 8SM SCT010 BKN016 02/M00 A2994 RMK SF3SC4 SLP147=

CYXU;2005-02-15 12:11;SPECI CYXU 151211Z 21009KT 8SM BKN009 OVC017 RMK SF6SC2=

CYXU;2005-02-15 12:44;SPECI CYXU 151244Z 21009KT 6SM BR SCT009 BKN014 OVC096 RMK SF3SC4AC1=

CYXU;2005-02-15 13:00;METAR CYXU 151300Z 21008KT 4SM HZ SCT009 BKN013 OVC098 02/M00 A2995 RMK SF3SC3AC2 SLP150=

CYXU;2005-02-15 13:32;SPECI CYXU 151332Z 22007KT 4SM -RA BR SCT009 BKN014 OVC043 RMK SF3SC3SC2=

CYXU;2005-02-15 14:19;SPECI CYXU 151419Z 21008KT 2 1/2SM -RA BR FEW008 SCT014 OVC036 RMK SF2SC2SC4=

CYXU;2005-02-15 14:49;SPECI CYXU 151449Z 21009KT 2SM -RA BR SCT005 OVC026 RMK SF4SC4=

CYXU;2005-02-15 15:00;METAR CYXU 151500Z 21008KT 2SM -RA BR SCT005 BKN025 OVC040 02/01 A2997 RMK SF3SC2SC3 SLP160=

CYXU;2005-02-15 16:00;METAR CYXU 151600Z 22008KT 2SM -RA BR SCT005 OVC034 03/02 A2996 RMK FG2SF2SC4 SLP155=

CYXU;2005-02-15 16:46;SPECI CYXU 151646Z 21009KT 1 1/2SM -RA BR BKN005 OVC030 RMK FG2ST3SC2=

CYXU;2005-02-15 17:00;METAR CYXU 151700Z 21006KT 1 1/4SM -RA BR BKN004 OVC025 03/02 A2994 RMK FG3ST4SC1 SLP149=

CYXU;2005-02-15 17:39;SPECI CYXU 151739Z 21007KT 1 1/2SM -RA BR BKN004 OVC020 RMK FG3ST4SC1=

CYXU;2005-02-15 19:00;METAR CYXU 151900Z 17003KT 1 1/2SM -RA BR BKN004 OVC040 04/03 A2990 RMK FG5ST2SC2 SLP134=

CYXU;2005-02-15 19:19;SPECI CYXU 151919Z 14003KT 5/8SM R15/2000V3500FT/D -RA BR BKN003 OVC043 RMK FG5ST2SC2=

CYXU;2005-02-15 19:32;SPECI CYXU 151932Z 17003KT 3/4SM R15/2800VP6000FT/U -RA BR BKN003 OVC046 RMK FG4ST2SC2=

CYXU;2005-02-15 19:47;SPECI CYXU 151947Z 18002KT 1 1/4SM -RA BR FEW003 OVC046 RMK FG2SF1SC6=

CYXU;2005-02-15 20:00;METAR CYXU 152000Z 00000KT 1 1/4SM R15/6000FT/U -RA BR FEW003 OVC046 04/03 A2990 RMK FG1SF1SC6 SLP133=

CYXU;2005-02-15 21:00;METAR CYXU 152100Z 00000KT 1SM R15/3000FT/U -RA BR FEW003 OVC035 04/03 A2990 RMK FG1SF1SC6 VSBY VRBL 3/4-11/4 SLP132=

CYXU;2005-02-15 21:17;SPECI CYXU 152117Z 08002KT 1/2SM R15/1800V3500FT/D -RA FG FEW003 OVC040 RMK FG2SF1SC6 VSBY VRBL 1/4-3/4=

CYXU;2005-02-15 22:00;METAR CYXU 152200Z 36003KT 1/2SM R15/1800FT/N -RA FG SCT003 OVC030 04/03 A2989 RMK FG3SF1SC4 SLP131=

CYXU;2005-02-15 22:47;SPECI CYXU 152247Z 07003KT 1/4SM R15/2400FT/N -RA FG BKN005 OVC040 RMK FG4SF2SC2 VSBY VRBL 1/8-1/2=

CYXU;2005-02-15 23:00;SPECI CYXU 152300Z 13002KT 1/2SM R15/2600FT/N -RA FG SCT005 OVC040 02/02 A2989=

CYXU;2005-02-16 00:00;METAR CYXU 160000Z 34004KT 1/2SM R15/3000FT/N -RA FG BKN005 OVC045 03/02 A2988 RMK FG4SF2SC2 VSBY VRBL 1/4-3/4 SLP127=

CYXU;2005-02-16 00:31;SPECI CYXU 160031Z 32004KT 1SM R15/P6000FT/D -RA BR SCT005 OVC025 RMK FG3SF1SC4=

CYXU;2005-02-16 01:00;METAR CYXU 160100Z 33006KT 1SM R15/P6000FT/N RA BR SCT005 OVC030 04/03 A2988 RMK FG3SF1NS4 SLP127=

CYXU;2005-02-16 01:27;SPECI CYXU 160127Z 34007KT 1SM R15/P6000FT/D -RA BR SCT005 OVC048 RERA RMK FG3SF1NS4=

CYXU;2005-02-16 01:44;SPECI CYXU 160144Z 33005KT 4SM -RA BR FEW005 OVC040 RERA RMK SF1NS7=

CYXU;2005-02-16 03:00;METAR CYXU 160300Z 32007KT 3SM -RA BR SCT011 OVC026 03/02 A2988 RMK SF3NS5 SLP126=

CYXU;2005-02-16 03:14;SPECI CYXU 160314Z 33009KT 3SM -RA BR BKN007 OVC011 RMK SF6NS2=

CYXU;2005-02-16 03:29;SPECI CYXU 160329Z 34008KT 4SM -RA BR FEW007 SCT013 OVC044 RMK SF2SC2NS4=

CYXU;2005-02-16 04:00;METAR CYXU 160400Z 34007KT 3SM -RA BR FEW014 OVC020 02/00 A2986 RMK SF2NS6 SLP122=

CYXU;2005-02-16 04:13;SPECI CYXU 160413Z 33006KT 2SM -RASN BR BKN005 OVC014 RMK SF6NS2=

CYXU;2005-02-16 04:26;SPECI CYXU 160426Z 33004KT 1SM R15/P6000FT/D -SN OVC005 RMK SN2NS6=

CYXU;2005-02-16 04:40;SPECI CYXU 160440Z 32004KT 1 1/2SM -SN BKN002 OVC006 RMK SN2SF3NS3=

CYXU;2005-02-16 05:00;METAR CYXU 160500Z 34003KT 1 1/2SM -SN BKN002 OVC012 00/M01 A2986 RMK SN2SF4NS2 SLP119=

CYXU;2005-02-16 05:39;SPECI CYXU 160539Z 33004KT 1SM R15/P6000FT/N -SN BKN012 OVC022 RMK SN2SF3NS3=

CYXU;2005-02-16 05:52;SPECI CYXU 160552Z 33004KT 1SM R15/P6000FT/N -SN SCT002 OVC012 RMK SN2SF2NS4=

CYXU;2005-02-16 06:21;SPECI CYXU 160621Z 34004KT 1SM R15/P6000FT/U -SN SCT002 OVC012 RMK SN2SF2NS5=

CYXU;2005-02-16 06:43;SPECI CYXU 160643Z 32004KT 1SM R15/P6000FT/N -SN VV008 RMK SN8=

CYXU;2005-02-16 08:00;METAR CYXU 160800Z 32004KT 1SM R15/P6000FT/N -SN SCT002 OVC012 00/M01 A2981 RMK SN2SF2NS4 VSBY VRBL 3/4 - 1 1/4 /S01/ SLP105=

CYXU;2005-02-16 08:37;SPECI CYXU 160837Z 31004KT 1SM R15/P6000FT/U -SN BKN002 OVC011 RMK SN2SF3NS2 VSBY VRBL 3/4-1 1/4=

CYXU;2005-02-16 08:47;SPECI CYXU 160847Z 32003KT 1 1/2SM -SN OVC003 RMK SN2SF6=

CYXU;2005-02-16 09:00;METAR CYXU 160900Z 32004KT 1 1/2SM -SN OVC003 00/M01 A2980 RMK SN2SF6 SLP100=

CYXU;2005-02-16 09:31;SPECI CYXU 160931Z 32008KT 1 1/4SM -SN OVC006 RMK SN2NS6=

CYXU;2005-02-16 09:52;SPECI CYXU 160952Z 36011KT 4SM -SN FEW006 OVC035 RMK SF2SC6=

CYXU;2005-02-16 10:00;METAR CYXU 161000Z 02010KT 4SM -SN FEW006 OVC035 M01/M02 A2982 RMK SF2SC6 SLP107=

CYXU;2005-02-16 10:30;SPECI CYXU 161030Z 36009KT 2 1/2SM -SN FEW007 OVC025 RMK SF2SC6=

CYXU;2005-02-16 12:00;METAR CYXU 161200Z 34010KT 4SM -SN BKN013 OVC040 M01/M03 A2984 RMK SC5NS3 SLP116=

CYXU;2005-02-16 12:53;SPECI CYXU 161253Z 34007KT 10SM OVC011 RMK SC8=

CYXU;2005-02-16 13:00;METAR CYXU 161300Z 34008KT 6SM -SHSN OVC011 M01/M03 A2986 RMK SC8 TCU EMBD SLP121=

CYXU;2005-02-16 14:00;METAR CYXU 161400Z 32012KT 10SM -SHSN OVC015 M02/M05 A2989 RMK SC8 PCPN VRY LGT SLP132=

CYXU;2005-02-16 15:00;METAR CYXU 161500Z 32011KT 10SM -SHSN FEW010 OVC030 M02/M05 A2991 RMK SF1SC7 PCPN VRY LGT SLP138=

CYXU;2005-02-16 16:00;METAR CYXU 161600Z 32010G16KT 15SM BKN030 M02/M06 A2992 RMK SC6 SLP141=

CYXU;2005-02-16 17:00;METAR CYXU 161700Z 32010G15KT 15SM BKN023 M02/M06 A2993 RMK SC7 SLP144=

CYXU;2005-02-16 18:00;METAR CYXU 161800Z 32011G16KT 15SM BKN026 M02/M06 A2992 RMK SC6 SLP143=

CYXU;2005-02-16 19:00;METAR CYXU 161900Z 31011KT 15SM BKN023 M02/M06 A2992 RMK SC6 SLP144=

CYXU;2005-02-16 21:00;METAR CYXU 162100Z 32008KT 15SM BKN025 M03/M08 A2993 RMK SC7 SLP147=

CYXU;2005-02-16 22:00;METAR CYXU 162200Z 29005KT 15SM BKN028 M03/M08 A2995 RMK SC7 SLP152=

CYXU;2005-02-16 23:00;METAR CYXU 162300Z 35002KT 15SM FEW030 M03/M08 A2995 RMK SC2 SLP153=

CYXU;2005-02-17 00:11;SPECI CYXU 170011Z 00000KT 15SM -SHSN FEW030 SCT047 RMK SC1CU2 FROIN=

CYXU;2005-02-17 01:00;METAR CYXU 170100Z 27002KT 15SM -SHSN SCT027 OVC054 M04/M07 A2996 RMK SC3CU5 FROIN SLP157=

CYXU;2005-02-17 02:54;SPECI CYXU 170254Z 00000KT 2 1/2SM -SHSN SCT021 OVC040 RMK SC4CU4=

CYXU;2005-02-17 03:11;SPECI CYXU 170311Z 00000KT 1 1/2SM -SHSN OVC019 RMK SN3CU5=

CYXU;2005-02-17 03:20;SPECI CYXU 170320Z 00000KT 3/4SM R15/P6000FT/D -SHSN VV005 RMK SN8 TCU ASOCTD=

CYXU;2005-02-17 03:31;SPECI CYXU 170331Z 18002KT 1SM R15/P6000FT/D -SHSN BKN007 OVC019 RMK SN3SF2CU2 VSBY VRBL 3/4-1 1/4 TCU ASOCTD=

CYXU;2005-02-17 03:37;SPECI CYXU 170337Z 15002KT 5SM -SHSN SCT019 OVC047 RMK CU4SC4=

CYXU;2005-02-17 04:00;METAR CYXU 170400Z 12002KT 10SM -SHSN FEW019 OVC057 M04/M06 A2993 RMK CU2SC6 SLP147=

CYXU;2005-02-17 04:18;SPECI CYXU 170418Z 14002KT 12SM OVC066 RMK AC8=

CYXU;2005-02-17 06:00;METAR CYXU 170600Z 26008KT 12SM SCT066 M04/M07 A2989 RMK AC4 SLP133=

CYXU;2005-02-17 10:00;METAR CYXU 171000Z 26006KT 15SM SCT020 OVC069 M05/M08 A2985 RMK SC3AC5 SLP123=

CYXU;2005-02-17 10:14;SPECI CYXU 171014Z 27006KT 10SM -SHSN BKN022 OVC069 RMK CU5AC3=

CYXU;2005-02-17 11:17;SPECI CYXU 171117Z 26007KT 1 1/2SM -SHSN BKN025TCU OVC070 RMK SN2TCU5AC2=

CYXU;2005-02-17 11:32;SPECI CYXU 171132Z 25007KT 2 1/2SM -SHSN BKN025TCU OVC070 RMK SN2TCU5AC2=

CYXU;2005-02-17 11:42;SPECI CYXU 171142Z 26007KT 3/4SM R15/P6000FT/D -SHSN VV003 RMK SN8=

CYXU;2005-02-17 11:55;SPECI CYXU 171155Z 26008KT 1 1/2SM -SHSN OVC020TCU RMK SN2TCU6=

CYXU;2005-02-17 12:09;SPECI CYXU 171209Z 28012G18KT 3/4SM R15/4500VP6000FT/U -SHSN OVC020TCU RESN RMK SN5TCU3 VSBY VRBL 1/2-1=

CYXU;2005-02-17 12:27;SPECI CYXU 171227Z 27009G17KT 10SM -SHSN OVC050 RESN RMK SC8=

CYXU;2005-02-17 13:09;SPECI CYXU 171309Z 26008KT 2SM -SHSN OVC020 RMK SN2CU6 TCU ASOCTD=

CYXU;2005-02-17 13:36;SPECI CYXU 171336Z 27012KT 10SM -SHSN BKN020 BKN080 RMK CU5AC2=

CYXU;2005-02-17 14:34;SPECI CYXU 171434Z 27010KT 10SM SCT020 BKN080 RMK CU3AC2=

CYXU;2005-02-17 15:00;METAR CYXU 171500Z 27012KT 15SM FEW019 BKN080 M04/M09 A2986 RMK CU2AC2 SLP127=

CYXU;2005-02-17 16:00;METAR CYXU 171600Z 28012KT 15SM BKN018 M04/M08 A2987 RMK CU5 TCU ASOCTD SLP128=

CYXU;2005-02-17 16:35;SPECI CYXU 171635Z 28011G18KT 2SM -SHSN OVC020TCU RMK TCU8=

CYXU;2005-02-17 16:40;SPECI CYXU 171640Z 28013KT 1SM R15/P6000FT/D -SHSN OVC018TCU RMK SN2TCU6 VSBY VRBL 1/2-11/2=

CYXU;2005-02-17 17:00;METAR CYXU 171700Z 28012KT 1 1/2SM -SHSN OVC018TCU M05/M09 A2988 RMK SN2TCU6 VSBY VRBL 1-2 /S01/ SLP131=

CYXU;2005-02-17 17:18;SPECI CYXU 171718Z 28016KT 10SM -SHSN BKN025 RMK CU6 VIS S-SW 3 TCU S=

CYXU;2005-02-17 17:48;SPECI CYXU 171748Z 28013G18KT 1/2SM R15/2600VP6000FT/D SHSN VV005 RMK SN8=

CYXU;2005-02-17 17:57;SPECI CYXU 171757Z 27010G17KT 5SM R15/3500VP6000FT/U -SHSN BKN025TCU RESN RMK TCU6 VIS LWR S=

CYXU;2005-02-17 18:00;METAR CYXU 171800Z 27014KT 1SM R15/P6000FT/N -SHSN OVC012TCU M04/M08 A2986 RESN RMK SN2TCU6 VIS VRB 1/2-11/2 SLP127=

CYXU;2005-02-17 18:10;SPECI CYXU 171810Z 28013KT 10SM -SHSN BKN020 RMK CU6 TCU ASOCTD=

CYXU;2005-02-17 18:54;SPECI CYXU 171854Z 27012KT 15SM VCSH BKN028 BKN080 RMK CU5AC1=

CYXU;2005-02-17 19:26;SPECI CYXU 171926Z 27014KT 12SM -SHSN BKN031 RMK CU6 TCU ASOCTD=

CYXU;2005-02-17 20:02;SPECI CYXU 172002Z 30015G21KT 1/2SM R15/4000VP6000FT/D SHSN VV008 RMK SN8 TCU ASOCTD=

CYXU;2005-02-17 20:11;SPECI CYXU 172011Z 29011G19KT 3/4SM R15/3500VP6000FT/U -SHSN VV009 RESN RMK SN8 TCU ASOCTD=

CYXU;2005-02-17 20:34;SPECI CYXU 172034Z 32011KT 1SM R15/P6000FT/N -SHSN OVC013 RESN RMK SN6CU2 TCU ASOCTD=

CYXU;2005-02-17 20:44;SPECI CYXU 172044Z 32008KT 3/4SM R15/P6000FT/D -SHSN VV007 RESN RMK SN8 TCU ASOCTD=

CYXU;2005-02-17 20:50;SPECI CYXU 172050Z 30008KT 1/2SM R15/P6000FT/D SHSN VV005 RMK SN8 TCU ASOCTD=

CYXU;2005-02-17 20:55;SPECI CYXU 172055Z 31006KT 1SM R15/P6000FT/U -SHSN OVC012 RESN RMK SN6CU2 TCU ASOCTD=

CYXU;2005-02-17 21:09;SPECI CYXU 172109Z 30009KT 1SM R15/5500FT/N -SHSN VV005 RMK SN8 VIS=

CYXU;2005-02-17 21:42;SPECI CYXU 172142Z 31006KT 6SM -SHSN SCT016 BKN030 RMK CU3CU4 VIS SE-S 3 /TCU ASOCTD=

CYXU;2005-02-17 22:26;SPECI CYXU 172226Z 29010G18KT 1/4SM R15/3000VP6000FT/D +SHSN VV003 RMK SN8 TCU ASOCTD=

CYXU;2005-02-17 22:39;SPECI CYXU 172239Z 29007KT 10SM -SHSN SCT012 BKN050 RESN RMK CU3CU3 VIS E-S 3 /TCU ASOCTD=

CYXU;2005-02-17 23:00;METAR CYXU 172300Z 28005KT 12SM SCT012 BKN023 BKN071 M07/M10 A2993 RESN RMK CU3CU2AC2 TCU ASOCTD /S03/ SLP149=

CYXU;2005-02-17 23:36;SPECI CYXU 172336Z 27008KT 6SM -SHSN SCT012 BKN024 BKN075 RMK CU3CU2AC2 TCU ASOCTD=

CYXU;2005-02-18 00:00;METAR CYXU 180000Z 27009KT 6SM -SHSN SCT012 BKN022 BKN077 M07/M10 A2994 RMK CU3CU2AC2 TCU ASOCTD /S03/ SLP155=

CYXU;2005-02-18 00:34;SPECI CYXU 180034Z 27011G16KT 3/4SM R15/P6000FT/D -SHSN VV005 RMK SN8 TCU ASOCTD=

CYXU;2005-02-18 00:43;SPECI CYXU 180043Z 28009KT 1SM R15/P6000FT/U -SHSN OVC019 RMK SN6CU2 TCU ASOCTD=

CYXU;2005-02-18 00:51;SPECI CYXU 180051Z 27009KT 6SM -SHSN FEW012 SCT019 BKN080 RMK CU2CU2AC3 TCU ASOCTD=

CYXU;2005-02-18 01:20;SPECI CYXU 180120Z 28010G15KT 3SM -SHSN FEW012 BKN020 BKN080 RMK SN2CU1CU3AC2 TCU ASOCTD=

CYXU;2005-02-18 01:27;SPECI CYXU 180127Z 27009KT 1/2SM R15/3500VP6000FT/D SHSN VV003 RMK SN8 TCU ASOCTD=

CYXU;2005-02-18 01:39;SPECI CYXU 180139Z 28011G17KT 1/4SM R15/4000V5500FT/U +SHSN VV002 RMK SN8 TCU ASOCTD=

CYXU;2005-02-18 01:50;SPECI CYXU 180150Z 28009G15KT 3/4SM R15/2200V4500FT/N -SHSN VV007 RESN RMK SN8 TCU ASCTD=

CYXU;2005-02-18 02:44;SPECI CYXU 180244Z 29014KT 10SM FEW014 SCT054 BKN071 RMK CU2CU2AC2=

CYXU;2005-02-18 04:00;METAR CYXU 180400Z 27009KT 15SM SCT080 M10/M17 A3000 RMK AC3 /S04/ SLP175=

CYXU;2005-02-18 04:50;SPECI CYXU 180450Z 28007KT 6SM -SHSN BKN040 BKN080 RMK CU5AC2 TCU ASOCTD=

CYXU;2005-02-18 05:48;SPECI CYXU 180548Z 28009G17KT 3/4SM R15/P6000FT/D -SHSN VV005 RMK SN8 TCU ASOCTD=

CYXU;2005-02-18 06:00;METAR CYXU 180600Z 28013KT 1SM R15/P6000FT/U -SHSN DRSN VV007 M10/M13 A3001 RMK SN8 TCU ASOCTD SLP179=

CYXU;2005-02-18 06:25;SPECI CYXU 180625Z 28012KT 1SM R15/P6000FT/D -SHSN DRSN OVC023 RMK SN5SC3 VIS VRB 3/4-1 1/4 TCU ASOCTD=

CYXU;2005-02-18 07:00;METAR CYXU 180700Z 29011G19KT 1SM R15/P6000FT/U -SHSN DRSN OVC018 M10/M13 A3002 RMK SN5SC3 VIS VRB 3/4-1 1/4 TCU ASOCTD /S01/ SLP183=

CYXU;2005-02-18 07:16;SPECI CYXU 180716Z 28010G15KT 2SM -SHSN DRSN BKN016 RMK SN2SC3 TCU ASOCTD=

CYXU;2005-02-18 09:00;METAR CYXU 180900Z 27014KT 1 1/2SM -SHSN DRSN OVC022 M11/M13 A3003 RMK SN3SC5 VIS VRB 1-2 TCU ASOCTD SLP185=

CYXU;2005-02-18 10:00;METAR CYXU 181000Z 27013KT 3/4SM R15/P6000FT/D -SHSN DRSN VV011 M10/M13 A3004 RMK SN8 TCU ASOCTD /S03/ SLP191=

CYXU;2005-02-18 10:05;SPECI CYXU 181005Z 28013KT 1 1/2SM -SHSN DRSN OVC020 RMK SN4SC4 TCU ASOCTD=

CYXU;2005-02-18 11:00;METAR CYXU 181100Z 29013KT 1SM R15/P6000FT/D -SHSN DRSN OVC018 M10/M13 A3006 RMK SN5SC3 VIS VRB 3/4-1 1/4 TCU ASOCTD SLP197=

CYXU;2005-02-18 12:00;METAR CYXU 181200Z 27010G15KT 2SM -SHSN DRSN BKN020 M10/M13 A3008 RMK SN2SC5 TCU ASOCTD SLP205=

CYXU;2005-02-18 12:14;SPECI CYXU 181214Z 28011G16KT 1SM R15/P6000FT/D -SHSN DRSN OVC016 RMK SN5SC3 VIS VRB 3/4-11/4 TCU ASOCTD=

CYXU;2005-02-18 12:43;SPECI CYXU 181243Z 29009G16KT 1/4SM R15/3500FT/D +SHSN DRSN VV003 RMK SN8=

CYXU;2005-02-18 12:52;SPECI CYXU 181252Z 29009KT 1/8SM R15/2600FT/N +SHSN DRSN VV002 RMK SN8 /S02/=

CYXU;2005-02-18 13:00;METAR CYXU 181300Z 29010KT 1/4SM R15/2400FT/N +SHSN VV004 M10/M12 A3011 RMK SN8 SLP214=

CYXU;2005-02-18 13:10;SPECI CYXU 181310Z 30008KT 1/8SM R15/1800V4000FT/U +SHSN VV002 RMK SN8 TCU ASOCTD /S03/=

CYXU;2005-02-18 13:19;SPECI CYXU 181319Z 34008KT 1/2SM R15/3500V5000FT/D SHSN VV004 RESN RMK SN8 TCU ASOCTD /S05/=

CYXU;2005-02-18 13:53;SPECI CYXU 181353Z 34004KT 1SM R15/P6000FT/U -SHSN BKN019 RESN RMK SN4SC3 TCU ASOCTD=

CYXU;2005-02-18 14:00;METAR CYXU 181400Z 32006KT 4SM -SHSN SCT020 BKN050 M10/M12 A3014 RESN RMK SC4SC3 TCU ASOCTD VIS HIER SE SLP223=

CYXU;2005-02-18 15:00;METAR CYXU 181500Z 33007KT 3SM -SHSN OVC033 M10/M13 A3016 RMK SC8 SLP231=

CYXU;2005-02-18 15:06;SPECI CYXU 181506Z 34010KT 3/4SM R15/4500VP6000FT/D -SHSN VV007 RMK SN8 TCU ASOCTD=

CYXU;2005-02-18 15:13;SPECI CYXU 181513Z 02009KT 1/4SM R15/2400VP6000FT/D +SHSN VV003 RMK SN8 TCU ASOCTD=

CYXU;2005-02-18 15:21;SPECI CYXU 181521Z 01008KT 2SM R15/2400VP6000FT/U -SHSN OVC013TCU RESN RMK SN3TCU5=

CYXU;2005-02-18 16:00;METAR CYXU 181600Z 34008KT 10SM -SHSN FEW018 BKN043 M10/M13 A3018 RESN RMK CU2SC5 SLP239=

CYXU;2005-02-18 16:31;SPECI CYXU 181631Z 33007KT 12SM FEW020 BKN032 RMK CU2SC4=

CYXU;2005-02-18 17:00;METAR CYXU 181700Z 36010KT 12SM FEW020 BKN037 M09/M14 A3020 RMK CU2SC4 SLP244=

CYXU;2005-02-18 18:00;METAR CYXU 181800Z 31008KT 10SM -SHSN BKN029 M09/M14 A3020 RMK SC6 CU ASOCTD OBS TKN +8 SLP245=

CYXU;2005-02-18 19:00;METAR CYXU 181900Z 34006KT 12SM SCT020 BKN045 M09/M13 A3019 RMK CU3SC2 SLP243=

CYXU;2005-02-18 19:53;SPECI CYXU 181953Z 33008KT 10SM -SHSN OVC023TCU RMK TCU8=

CYXU;2005-02-18 20:00;METAR CYXU 182000Z 34008KT 10SM -SHSN OVC023TCU M09/M13 A3021 RMK TCU8 SLP248=

CYXU;2005-02-18 20:34;SPECI CYXU 182034Z 31008KT 5SM -SHSN OVC028 RMK SC8 VIS S-W 2 /TCU ASOCTD=

CYXU;2005-02-18 21:00;METAR CYXU 182100Z 30005KT 10SM -SHSN FEW019 BKN032 M10/M13 A3022 RMK CU2SC6 VIS S-W 4 /TCU ASOCTD SLP253=

CYXU;2005-02-18 21:26;SPECI CYXU 182126Z 29005KT 2SM -SHSN OVC032 RMK SN6SC2 VIS S-W 1 /TCU ASOCTD=

CYXU;2005-02-18 21:39;SPECI CYXU 182139Z 29005KT 3/4SM R15/P6000FT/D -SHSN VV003 RMK SN8 TCU ASOCTD=

CYXU;2005-02-18 22:00;METAR CYXU 182200Z 31006KT 1SM R15/4500VP6000FT/U -SHSN VV007 M10/M12 A3023 RMK SN8 TCU ASOCTD SLP256=

CYXU;2005-02-18 22:15;SPECI CYXU 182215Z 29008KT 6SM -SHSN FEW008 SCT023 BKN040 RMK CU2SC2SC3 VIS E-S 2 /TCU ASOCTD=

CYXU;2005-02-19 00:00;METAR CYXU 190000Z 27004KT 15SM FEW040 SCT180 M13/M17 A3024 RMK SC2AC2 SLP261=

CYXU;2005-02-19 01:00;METAR CYXU 190100Z 28004KT 15SM FEW040 SCT170 M14/M17 A3023 RMK SC1AC3 SLP258=

CYXU;2005-02-19 02:17;SPECI CYXU 190217Z 26004KT 15SM -SHSN BKN038 BKN170 RMK SC6AC1 FROIN=

CYXU;2005-02-19 02:45;SPECI CYXU 190245Z 25003KT 15SM BKN039 BKN150 RMK SC6AC1 FROIN=

CYXU;2005-02-19 04:00;METAR CYXU 190400Z 20005KT 15SM BKN043 M14/M17 A3021 RMK SC7 SLP250=

CYXU;2005-02-19 08:49;SPECI CYXU 190849Z 25008KT 1 1/2SM -SN FEW011 OVC041 RMK SN2SF1SC5 TCU ASOCTD=

CYXU;2005-02-19 10:00;METAR CYXU 191000Z 23007KT 12SM -SHSN BKN040 M10/M13 A3018 RMK SC4 TCU ASOCTD SLP240=

CYXU;2005-02-19 12:00;METAR CYXU 191200Z 23007KT 15SM BKN038 M09/M13 A3019 RMK SC7 SLP242=

CYXU;2005-02-19 14:00;METAR CYXU 191400Z 24012KT 15SM BKN051 M08/M12 A3022 RMK SC6 SLP252=

CYXU;2005-02-19 15:00;METAR CYXU 191500Z 24010KT 15SM BKN053 M06/M11 A3022 RMK SC7 SLP253=

CYXU;2005-02-19 15:24;SPECI CYXU 191524Z 23011KT 10SM -SHSN OVC028 RMK SC8 TCU ASOCTD=

CYXU;2005-02-19 15:45;SPECI CYXU 191545Z 22012KT 2SM -SHSN OVC019 RMK SC8 TCU ASOCTD=

CYXU;2005-02-19 16:00;METAR CYXU 191600Z 22013KT 2 1/2SM -SHSN OVC020 M06/M10 A3022 RMK SC8 TCU ASOCTD SLP254=

CYXU;2005-02-19 16:29;SPECI CYXU 191629Z 22011KT 4SM -SHSN OVC021 RMK SC8 TCU ASOCTD=

CYXU;2005-02-19 17:00;METAR CYXU 191700Z 23014KT 5SM -SHSN OVC016 M05/M08 A3021 RMK SC8 TCU ASOCTD SLP249=

CYXU;2005-02-19 18:00;METAR CYXU 191800Z 25015KT 12SM -SHSN OVC022 M04/M08 A3020 RMK SC8 TCU ASOCTD SLP243=

CYXU;2005-02-19 18:21;SPECI CYXU 191821Z 26013KT 3SM -SHSN OVC024 RMK SN2SC6 TCU ASOCTD=

CYXU;2005-02-19 18:45;SPECI CYXU 191845Z 26010G17KT 2 1/2SM -SHSN BKN019 RMK SN2SC6 TCU ASOCTD=

CYXU;2005-02-19 19:37;SPECI CYXU 191937Z 26011KT 2 1/2SM -SHSN BKN020 RMK SN2SC6 TCU ASOCTD=

CYXU;2005-02-19 20:00;METAR CYXU 192000Z 29008KT 3SM -SHSN OVC015 M03/M07 A3020 RMK SC8 TCU ASOCTD SLP245=

CYXU;2005-02-19 21:00;METAR CYXU 192100Z 32010KT 6SM -SHSN FEW015 BKN025 BKN040 M03/M07 A3022 RMK SC2SC3SC2 TCU ASOCTD SLP249=

CYXU;2005-02-19 22:00;METAR CYXU 192200Z 30007KT 8SM FEW025 BKN040 M04/M08 A3024 RMK SC2SC4 TCU TOPS E QUAD SLP256=

CYXU;2005-02-20 00:00;METAR CYXU 200000Z 32002KT 15SM BKN040 M06/M09 A3028 RMK SC5 SLP271=

CYXU;2005-02-20 02:00;METAR CYXU 200200Z 00000KT 15SM BKN040 M07/M09 A3031 RMK SC6 SLP283=

CYXU;2005-02-20 09:00;METAR CYXU 200900Z 09002KT 1/4SM R15/2000VP6000FT/U FZFG SKC M16/M17 A3037 RMK FG6 FROIN VIS VRBL 1/8-1/2 SLP304=

CYXU;2005-02-20 10:00;METAR CYXU 201000Z 07002KT 1/4SM R15/P6000FT/N FZFG SKC M15/M17 A3037 RMK FG7 FROIN VIS VRBL 1/8-1/2 SLP305=

CYXU;2005-02-20 11:20;SPECI CYXU 201120Z 07005KT 1 1/2SM BR SCT250 RMK FG1CI1 FROIN=

CYXU;2005-02-20 11:30;SPECI CYXU 201130Z 09004KT 4SM BR BKN250 RMK CI3 FROIN=

CYXU;2005-02-20 12:00;METAR CYXU 201200Z 07004KT 6SM BR OVC250 M13/M15 A3038 RMK CI5 FROIN SLP307=

CYXU;2005-02-20 13:00;METAR CYXU 201300Z 08007KT 10SM SCT130 OVC250 M10/M12 A3037 RMK AC2CI3 FROIN SLP305=

CYXU;2005-02-20 14:00;METAR CYXU 201400Z 09007KT 10SM FEW080 BKN110 OVC250 M08/M10 A3037 RMK AC2AC2CI2 SLP303=

CYXU;2005-02-20 15:00;METAR CYXU 201500Z 10010KT 10SM OVC080 M07/M09 A3035 RMK AS8 VIRGA SLP295=

CYXU;2005-02-20 15:17;SPECI CYXU 201517Z 11010KT 10SM -SN OVC080 RMK AS8=

CYXU;2005-02-20 15:31;SPECI CYXU 201531Z 11011KT 2 1/2SM -SN BKN014 OVC080 RMK SN2SF5AC2=

CYXU;2005-02-20 16:00;METAR CYXU 201600Z 11010KT 2 1/2SM -SN SCT014 OVC020 M06/M09 A3034 RMK SN2SF2SC4 SLP290=

CYXU;2005-02-20 16:24;SPECI CYXU 201624Z 11010KT 1SM R15/P6000FT/N -SN BKN010 OVC024 RMK SN2SC2SC3=

CYXU;2005-02-20 16:39;SPECI CYXU 201639Z 11010KT 3/4SM R15/P6000FT/D -SN VV008 RMK SN8=

CYXU;2005-02-20 17:00;METAR CYXU 201700Z 11012KT 3/4SM R15/P6000FT/D -SN VV007 M06/M08 A3030 RMK SN8 SLP278=

CYXU;2005-02-20 17:34;SPECI CYXU 201734Z 11011KT 1SM R15/P6000FT/N -SN VV009 RMK SN8=

CYXU;2005-02-20 17:43;SPECI CYXU 201743Z 11011KT 2SM -SN OVC015 RMK SN6SC2=

CYXU;2005-02-20 18:26;SPECI CYXU 201826Z 11014KT 3/4SM R15/P6000FT/N -SN VV007 RMK SN8=

CYXU;2005-02-20 19:00;METAR CYXU 201900Z 10011KT 3/4SM R15/P6000FT/N -SN VV009 M04/M06 A3018 RMK SN8 PRESFR SLP239=

CYXU;2005-02-20 20:41;SPECI CYXU 202041Z 10017KT 3/4SM R15/P6000FT/U -SN VV007 RESN RMK SN8 VSBY VRB 1/2 - 1 CIG VRB 5 - 9=

CYXU;2005-02-20 21:00;METAR CYXU 202100Z 10017KT 1SM R15/P6000FT/N -SN OVC012 M04/M07 A3007 RMK ST8 CIG VRB 10-14 SLP202=

CYXU;2005-02-20 22:00;METAR CYXU 202200Z 09014G19KT 1SM R15/P6000FT/U -SN OVC010 M05/M07 A3007 RMK NS8 CIG VRB 9-12 SLP202=

CYXU;2005-02-20 22:14;SPECI CYXU 202214Z 10017KT 1/2SM R15/P6000FT/D SN VV007 RMK SN8=

CYXU;2005-02-20 22:20;SPECI CYXU 202220Z 10016KT 1/2SM R15/P6000FT/D SN VV005 RMK SN8=

CYXU;2005-02-20 22:37;SPECI CYXU 202237Z 09019G24KT 1/2SM R15/P6000FT/D SN VV004 RMK SN8=

CYXU;2005-02-20 22:43;SPECI CYXU 202243Z 09019G24KT 1/4SM R15/P6000FT/D +SN VV003 RMK SN8=

CYXU;2005-02-20 23:00;METAR CYXU 202300Z 09017G22KT 1/4SM R15/5500FT/U +SN VV003 M05/M07 A2999 RMK SN8 SLP174=

CYXU;2005-02-20 23:12;SPECI CYXU 202312Z 09017KT 1/2SM R15/P6000FT/U SN VV008 RMK SN8=

CYXU;2005-02-21 00:30;SPECI CYXU 210030Z 09018G24KT 1/2SM R15/P6000FT/U SN VV005 RMK SN8=

CYXU;2005-02-21 01:00;METAR CYXU 210100Z 10016G21KT 1/2SM R15/6000FT/U SN VV005 M05/M07 A2992 RMK SN8 /S01/ SLP151=

CYXU;2005-02-21 01:41;SPECI CYXU 210141Z 10019G26KT 1/2SM R15/P6000FT/U SN DRSN VV010 RMK SN8 CIG VRB 8-12 VIS VRB 1/4-1=

CYXU;2005-02-21 02:00;METAR CYXU 210200Z 10020G25KT 1/2SM R15/P6000FT/N SN DRSN VV011 M04/M06 A2985 RMK SN8 SLP127=

CYXU;2005-02-21 02:14;SPECI CYXU 210214Z 10020KT 1/2SM R15/P6000FT/D SN DRSN VV007 RMK SN8=

CYXU;2005-02-21 02:47;SPECI CYXU 210247Z 11014G24KT 1/2SM R15/P6000FT/D SN VV004 RMK SN8 CIG VRB 4-8=

CYXU;2005-02-21 03:00;METAR CYXU 210300Z 12009G17KT 1/2SM R15/P6000FT/U SN VV004 M04/M06 A2983 RMK SN8 CIG VRB 4-8 SLP115=

CYXU;2005-02-21 03:30;SPECI CYXU 210330Z 11017G24KT 1/4SM R15/4000VP6000FT/D +SN VV002 RMK SN8=

CYXU;2005-02-21 04:00;METAR CYXU 210400Z 10017KT 1/4SM R15/3000V4500FT/U +SN VV002 M04/M06 A2976 RMK SN8 SLP094=

CYXU;2005-02-21 04:25;SPECI CYXU 210425Z 10015KT 1/2SM R15/P6000FT/D SN VV007 RMK SN8=

CYXU;2005-02-21 05:00;METAR CYXU 210500Z 10013KT 1SM R15/P6000FT/N -SN BKN007 OVC013 M04/M05 A2972 RESN RMK SN3SF2NS3 SLP079=

CYXU;2005-02-21 05:50;SPECI CYXU 210550Z 09010KT 1SM R15/P6000FT/N -SN -FZRA OVC008 RMK NS8=

CYXU;2005-02-21 06:00;METAR CYXU 210600Z 09009KT 1SM R15/P6000FT/U -SN -FZRA OVC008 M04/M05 A2970 RMK NS8 SLP070=

CYXU;2005-02-21 06:12;SPECI CYXU 210612Z 09010KT 3/8SM R15/4500VP6000FT/D SN -FZRA OVC008 RMK SN4NS4=

CYXU;2005-02-21 06:21;SPECI CYXU 210621Z 08009KT 1SM R15/4000VP6000FT/U -SN -FZRA OVC008 RESN RMK SN2NS6=

CYXU;2005-02-21 06:30;SPECI CYXU 210630Z 07007KT 1SM R15/P6000FT/N -SN OVC008 REFZRASN RMK SN2NS6=

CYXU;2005-02-21 06:45;SPECI CYXU 210645Z 09015KT 2SM -SN OVC007 REFZRASN RMK NS8=

CYXU;2005-02-21 07:30;SPECI CYXU 210730Z 08008KT 4SM BR OVC005 RMK SC8=

CYXU;2005-02-21 08:00;METAR CYXU 210800Z 07005KT 3SM BR OVC006 M03/M05 A2969 RMK SC8 FROIN SLP068=

CYXU;2005-02-21 09:07;SPECI CYXU 210907Z 05004KT 1 1/2SM -FZDZ BR OVC005 RMK SC8=

CYXU;2005-02-21 09:42;SPECI CYXU 210942Z 07004KT 1SM R15/P6000FT/N -FZDZ BR OVC003 RMK SC8=

CYXU;2005-02-21 10:00;METAR CYXU 211000Z 08004KT 1SM R15/P6000FT/D -FZDZ BR OVC003 M03/M05 A2972 RMK SC8 SLP076=

CYXU;2005-02-21 10:33;SPECI CYXU 211033Z 00000KT 3/8SM R15/4000V5000FT/D -FZDZ FZFG OVC003 RMK FG4ST4=

CYXU;2005-02-21 11:00;METAR CYXU 211100Z 00000KT 3/8SM R15/3500FT/N -FZDZ FZFG OVC003 M03/M04 A2976 RMK FG6ST2 SLP091=

CYXU;2005-02-21 11:40;SPECI CYXU 211140Z 18002KT 3/8SM R15/3000FT/N FZFG VV002 RMK FG8=

CYXU;2005-02-21 12:00;METAR CYXU 211200Z 23003KT 1/4SM R15/3000FT/N FZFG VV002 M03/M04 A2979 RMK FG8 FROIN SLP100=

CYXU;2005-02-21 12:15;SPECI CYXU 211215Z 00000KT 1/2SM R15/3500FT/N FZFG OVC002 RMK FG4ST4=

CYXU;2005-02-21 12:47;SPECI CYXU 211247Z 24004KT 3/8SM R15/1800FT/N FZFG VV002 RMK FG8 FROIN=

CYXU;2005-02-21 13:00;METAR CYXU 211300Z 25005KT 3/8SM R15/2000V3000FT/U FZFG VV002 M02/M03 A2982 RMK FG8 FROIN SLP110=

CYXU;2005-02-21 13:09;SPECI CYXU 211309Z 26007KT 1/2SM R15/2800V4000FT/N FZFG VV002 RMK FG8=

CYXU;2005-02-21 13:15;SPECI CYXU 211315Z 26007KT 1SM R15/3000V5500FT/U BR OVC002 RMK FG4ST4=

CYXU;2005-02-21 13:23;SPECI CYXU 211323Z 27008KT 1 1/4SM R15/4500VP6000FT/U BR OVC003 RMK FG2ST6=

CYXU;2005-02-21 13:36;SPECI CYXU 211336Z 29007KT 1 3/4SM BR OVC003 RMK FG2ST6=

CYXU;2005-02-21 13:43;SPECI CYXU 211343Z 29008KT 2SM BR OVC003 RMK FG2ST6=

CYXU;2005-02-21 14:00;METAR CYXU 211400Z 28011KT 2 1/2SM BR OVC003 M01/M02 A2984 RMK FG2ST6 SLP117=

CYXU;2005-02-21 14:05;SPECI CYXU 211405Z 29010KT 3SM BR OVC004 RMK ST8=

CYXU;2005-02-21 14:45;SPECI CYXU 211445Z 30009KT 4SM BR OVC005 RMK ST8=

CYXU;2005-02-21 15:25;SPECI CYXU 211525Z 29009KT 4SM BR OVC006 RMK ST8=

CYXU;2005-02-21 16:00;METAR CYXU 211600Z 28009KT 6SM BR OVC007 M01/M03 A2987 RMK ST8 SLP129=

CYXU;2005-02-21 17:10;SPECI CYXU 211710Z 31007KT 15SM SCT010 RMK CF4=

CYXU;2005-02-21 18:00;METAR CYXU 211800Z 29009KT 15SM BKN015 01/M01 A2986 RMK CU7 SLP124=

CYXU;2005-02-21 19:00;METAR CYXU 211900Z 29007KT 15SM BKN016 01/M02 A2988 RMK CU7 SLP130=

CYXU;2005-02-23 00:00;METAR CYXU 230000Z 36005KT 2SM -SHSN SCT020 BKN040 M03/M05 A3011 RMK SN2SC2SC3 TCU EMBD /S01/ SLP209=

CYXU;2005-02-23 00:14;SPECI CYXU 230014Z 36005KT 15SM -SHSN FEW020 BKN049 RMK SC2SC5 TCU EMBD=

CYXU;2005-02-23 01:00;METAR CYXU 230100Z 31003KT 15SM BKN080 M03/M06 A3013 RMK AC6 SLP216=

CYXU;2005-02-23 02:00;METAR CYXU 230200Z 33005KT 15SM FEW080 M05/M07 A3015 RMK AC2 SLP221=

CYXU;2005-02-23 03:00;METAR CYXU 230300Z 31003KT 15SM FEW080 M07/M09 A3017 RMK AC2 SLP230=

CYXU;2005-02-23 03:37;SPECI CYXU 230337Z 33003KT 10SM -SHSN SCT025 RMK SC4 LOW LEVEL FOG PATCHES DVLPG OVR AIRPORT=

CYXU;2005-02-23 04:00;METAR CYXU 230400Z 35005KT 8SM -SHSN MIFG BKN015 BKN025 M07/M08 A3017 RMK CU5SC2 SLP232=

CYXU;2005-02-23 05:00;METAR CYXU 230500Z 30002KT 12SM -SHSN FEW020 BKN057 M07/M08 A3019 RMK CU2SC5 SLP237=

CYXU;2005-02-23 06:00;METAR CYXU 230600Z 27003KT 15SM SCT055 M08/M10 A3020 RMK SC4 SLP243=

CYXU;2005-02-23 07:00;METAR CYXU 230700Z 28003KT 15SM -SHSN BKN050 M08/M10 A3022 RMK SC6 SLP248=

CYXU;2005-02-23 08:00;METAR CYXU 230800Z 27005KT 10SM -SHSN FEW030 OVC050 M06/M08 A3022 RMK CU2SC6 SLP248=

CYXU;2005-02-23 10:00;METAR CYXU 231000Z 30006KT 15SM FEW040 M08/M11 A3024 RMK SC1 SLP254=

CYXU;2005-02-23 11:00;METAR CYXU 231100Z 27003KT 15SM FEW035 M09/M12 A3024 RMK SC1 SLP256=

CYXU;2005-02-23 13:00;METAR CYXU 231300Z 27006KT 15SM FEW035 M08/M11 A3028 RMK SC1 SLP269=

CYXU;2005-02-23 14:00;METAR CYXU 231400Z 28007KT 15SM FEW035 FEW250 M07/M11 A3029 RMK SC1CI0 SLP272=

CYXU;2005-02-23 15:00;METAR CYXU 231500Z 29006KT 15SM FEW035 FEW250 M06/M11 A3029 RMK SC1CI0 SLP273=

CYXU;2005-02-23 16:00;METAR CYXU 231600Z 29008KT 15SM FEW020 FEW250 M05/M10 A3029 RMK CF1CI0 SLP274=

CYXU;2005-02-23 16:44;SPECI CYXU 231644Z 28005KT 15SM BKN019 BKN250 RMK CU4CI0=

CYXU;2005-02-23 18:25;SPECI CYXU 231825Z 32007KT 15SM BKN030 RMK CU5 SHWRS DSTNT S=

CYXU;2005-02-23 19:00;METAR CYXU 231900Z 33009KT 15SM BKN030 BKN250 M04/M10 A3027 RMK CU5CI1 SLP265=

CYXU;2005-02-23 20:00;METAR CYXU 232000Z 33005KT 15SM FEW030 FEW250 M04/M11 A3026 RMK CU2CI1 SLP262=

CYXU;2005-02-23 22:00;METAR CYXU 232200Z 33004KT 15SM FEW030 FEW250 M05/M11 A3026 RMK SC1CI1 SLP263=

CYXU;2005-02-24 00:00;METAR CYXU 240000Z 00000KT 15SM FEW030 SCT250 M08/M13 A3028 RMK SC1CI1 SLP273=

CYXU;2005-02-24 01:00;METAR CYXU 240100Z 00000KT 15SM FEW030 BKN250 M11/M14 A3028 RMK SC1CI1 SLP273=

CYXU;2005-02-24 03:00;METAR CYXU 240300Z 05002KT 15SM BKN060 M14/M16 A3030 RMK SC6 SLP280=

CYXU;2005-02-24 04:00;METAR CYXU 240400Z 05002KT 15SM FEW060 BKN250 M14/M16 A3030 RMK SC2CS2 FROIN SLP279=

CYXU;2005-02-24 06:00;METAR CYXU 240600Z 00000KT 15SM BKN250 M15/M18 A3028 RMK CS2 SLP274=

CYXU;2005-02-24 10:00;METAR CYXU 241000Z 07005KT 15SM BKN250 M13/M16 A3026 RMK CS6 SLP264=

CYXU;2005-02-24 11:00;METAR CYXU 241100Z 09007KT 15SM BKN210 M13/M16 A3025 RMK CS5 FROIN SLP263=

CYXU;2005-02-24 12:00;METAR CYXU 241200Z 08006KT 15SM BKN220 M14/M17 A3025 RMK CS6 FROIN SLP263=

CYXU;2005-02-24 13:00;METAR CYXU 241300Z 08009KT 15SM BKN220 M14/M17 A3024 RMK CS5 SLP260=

CYXU;2005-02-24 14:00;METAR CYXU 241400Z 08008KT 15SM BKN230 M12/M16 A3024 RMK CS6 SLP260=

CYXU;2005-02-24 15:00;METAR CYXU 241500Z 08008KT 15SM BKN200 M10/M15 A3023 RMK CS6 SLP258=

CYXU;2005-02-24 16:00;METAR CYXU 241600Z 08008KT 15SM BKN200 M08/M14 A3022 RMK CS6 SLP255=

CYXU;2005-02-24 17:00;METAR CYXU 241700Z 08011KT 15SM BKN200 M07/M13 A3020 RMK CS6 SLP249=

CYXU;2005-02-24 22:00;METAR CYXU 242200Z 07005KT 15SM FEW040 SCT130 BKN180 M06/M12 A3013 RMK SC1AS2CS3 SLP220=

CYXU;2005-02-24 23:00;METAR CYXU 242300Z 05005KT 15SM FEW040 SCT130 BKN200 M08/M13 A3013 RMK SC2AS2CS1 SLP221=

CYXU;2005-02-25 00:00;METAR CYXU 250000Z 05004KT 15SM FEW040 SCT200 M10/M14 A3014 RMK SC1CI2 SLP229=

CYXU;2005-02-25 01:00;METAR CYXU 250100Z 04004KT 15SM FEW040 FEW210 M11/M14 A3016 RMK SC1CI1 SLP233=

CYXU;2005-02-25 02:00;METAR CYXU 250200Z 02003KT 15SM FEW040 FEW210 M11/M13 A3016 RMK SC1CI1 FROIN SLP233=

CYXU;2005-02-25 04:00;METAR CYXU 250400Z 08003KT 15SM SKC M14/M16 A3016 RMK SLP232=

CYXU;2005-02-25 05:00;METAR CYXU 250500Z 06002KT 15SM SKC M15/M17 A3015 RMK SLP231=

CYXU;2005-02-25 06:00;METAR CYXU 250600Z 00000KT 15SM SKC M15/M18 A3014 RMK SLP227=

CYXU;2005-02-25 09:00;METAR CYXU 250900Z 08002KT 15SM FEW180 M18/M21 A3013 RMK AC0 SLP223=

CYXU;2005-02-25 10:00;METAR CYXU 251000Z 10003KT 15SM BKN067 M17/M20 A3012 RMK SC6 FROIN SLP221=

CYXU;2005-02-25 11:00;METAR CYXU 251100Z 10005KT 15SM BKN068 M15/M18 A3012 RMK SC7 FROIN SLP221=

CYXU;2005-02-25 12:00;METAR CYXU 251200Z 10002KT 15SM OVC060 M14/M17 A3013 RMK SC8 SLP222=

CYXU;2005-02-25 13:00;METAR CYXU 251300Z 12004KT 15SM OVC036 M13/M17 A3013 RMK SC8 FROIN SLP225=

CYXU;2005-02-25 14:00;METAR CYXU 251400Z 12003KT 15SM -SN OVC030 M11/M14 A3013 RMK SC8 PCPN VRY LGT SLP222=

CYXU;2005-02-25 15:00;METAR CYXU 251500Z 15005KT 4SM -SN OVC021 M08/M11 A3012 RMK SC8 SLP218=

CYXU;2005-02-25 15:29;SPECI CYXU 251529Z 17007KT 2 1/2SM -SN OVC014 RMK SC8=

CYXU;2005-02-25 16:00;METAR CYXU 251600Z 18009KT 2 1/2SM -SN OVC013 M06/M09 A3010 RMK SC8 SLP212=

CYXU;2005-02-25 17:00;METAR CYXU 251700Z 18011KT 3SM -SN OVC016 M05/M08 A3009 RMK SC8 SLP209=

CYXU;2005-02-25 17:14;SPECI CYXU 251714Z 19010KT 5SM -SN OVC014 RMK SC8=

CYXU;2005-02-25 17:43;SPECI CYXU 251743Z 20011KT 2 1/2SM -SHSN OVC012 RMK SC8 TCU ASOCTD=

CYXU;2005-02-25 18:00;METAR CYXU 251800Z 19012KT 5SM -SHSN OVC015 M05/M07 A3007 RMK SC8 TCU ASOCTD SLP200=

CYXU;2005-02-25 18:28;SPECI CYXU 251828Z 20013KT 2 1/2SM -SHSN OVC011 RMK SC8 TCU ASOCTD=

CYXU;2005-02-25 19:00;METAR CYXU 251900Z 20011KT 2 1/2SM -SHSN OVC013 M05/M07 A3006 RMK SC8 TCU ASOCTD SLP197=

CYXU;2005-02-25 19:45;SPECI CYXU 251945Z 18011KT 10SM -SHSN BKN030 RMK SC7=

CYXU;2005-02-25 20:55;SPECI CYXU 252055Z 18012KT 2SM -SHSN OVC016 RMK SC8 CVCTV CLD EMBDD=

CYXU;2005-02-25 21:33;SPECI CYXU 252133Z 19011KT 2 1/2SM -SHSN OVC011 RMK SC8 CVCTV CLD EMBDD=

CYXU;2005-02-25 22:00;METAR CYXU 252200Z 19010KT 1 1/2SM -SHSN OVC012 M04/M07 A3003 RMK SN2SC6 CVCTV CLD EMBDD SLP188=

CYXU;2005-02-25 22:38;SPECI CYXU 252238Z 18010KT 1SM R15/P6000FT/U -SHSN VV010 RMK SN8 CVCTV CLD EMBDD=

CYXU;2005-02-25 23:00;METAR CYXU 252300Z 17005KT 1SM R15/P6000FT/N -SHSN VV009 M05/M07 A3004 RMK SN8 CVCTV CLD EMBDD SLP191=

CYXU;2005-02-26 00:00;METAR CYXU 260000Z 17005KT 4SM -SHSN OVC011 M04/M06 A3004 RMK SC8 CVCTV CLD EMBDD SLP192=

CYXU;2005-02-26 00:37;SPECI CYXU 260037Z 17005KT 1 1/2SM -SHSN VV010 RMK SN8 CVCTV CLD EMBDD=

CYXU;2005-02-26 01:16;SPECI CYXU 260116Z 17006KT 1 1/2SM -SHSN OVC008TCU RMK SN2TCU6=

CYXU;2005-02-26 03:00;METAR CYXU 260300Z 22011KT 2SM -SHSN OVC008TCU M02/M04 A3000 RMK SN1TCU7 SLP174=

CYXU;2005-02-26 04:00;METAR CYXU 260400Z 24008KT 1 1/2SM -SHSN OVC008TCU M02/M04 A3000 RMK SN2TCU6 SLP173=

CYXU;2005-02-26 05:42;SPECI CYXU 260542Z 31008KT 2 1/2SM -SHSN OVC010 RMK SN1SC7 TCU ASOCTD=

CYXU;2005-02-26 11:00;METAR CYXU 261100Z 31008KT 10SM -SHSN BKN032 M05/M08 A3012 RMK SC6 CU EMBD SLP212=

CYXU;2005-02-26 12:00;METAR CYXU 261200Z 30010KT 10SM -SHSN BKN026 M06/M09 A3014 RMK SC7 SLP221=

CYXU;2005-02-26 13:00;METAR CYXU 261300Z 29009KT 10SM -SHSN SCT025 M06/M10 A3017 RMK SC3 CU EMBD SLP231=

CYXU;2005-02-26 14:22;SPECI CYXU 261422Z 29010KT 2 1/2SM -SHSN SCT023 RMK CU4 VIS SW 10=

CYXU;2005-02-26 14:35;SPECI CYXU 261435Z 29011KT 1 1/2SM -SHSN BKN011 RMK SN2CU4 TCU ASOCTD=

CYXU;2005-02-26 14:54;SPECI CYXU 261454Z 30008KT 2 1/2SM -SHSN SCT027 RMK CU4 TCU ASOCTD=

CYXU;2005-02-26 15:00;METAR CYXU 261500Z 29009KT 4SM -SHSN SCT027 M06/M09 A3020 RMK CU4 SLP240=

CYXU;2005-02-26 16:00;METAR CYXU 261600Z 33013KT 12SM -SHSN BKN033 M05/M11 A3022 RMK CU5 SLP247=

CYXU;2005-02-26 18:00;METAR CYXU 261800Z 32013KT 10SM -SHSN BKN028 M05/M11 A3023 RMK CU6 SLP252=

CYXU;2005-02-26 19:00;METAR CYXU 261900Z 34013KT 15SM -SHSN BKN031 M05/M11 A3024 RMK SC6 PCPN VRY LGT CU ASOCTD SLP255=

CYXU;2005-02-26 19:38;SPECI CYXU 261938Z 32010G15KT 15SM BKN030 RMK SC5=

CYXU;2005-02-26 21:00;METAR CYXU 262100Z 33009G16KT 15SM FEW028 M06/M12 A3027 RMK CU2 SLP267=

CYXU;2005-02-26 22:00;METAR CYXU 262200Z 33009KT 15SM FEW030 M06/M12 A3030 RMK CU1 SLP276=

CYXU;2005-02-26 23:00;METAR CYXU 262300Z 33006KT 15SM FEW030 M08/M13 A3032 RMK SC1 SLP281=

CYXU;2005-02-27 00:00;METAR CYXU 270000Z 34004KT 15SM FEW030 M09/M13 A3033 RMK SC1 SLP288=

CYXU;2005-02-27 02:00;METAR CYXU 270200Z 00000KT 15SM SKC M12/M14 A3034 RMK SLP293=

CYXU;2005-02-27 04:00;METAR CYXU 270400Z 35002KT 15SM MIFG FEW001 M15/M17 A3035 RMK ST1 SLP296=

CYXU;2005-02-27 06:00;METAR CYXU 270600Z 00000KT 15SM SKC M17/M19 A3035 RMK SLP297=

CYXU;2005-02-27 09:22;SPECI CYXU 270922Z 36003KT 10SM MIFG FEW002 RMK ST2=

CYXU;2005-02-27 10:00;METAR CYXU 271000Z 05002KT 15SM SKC M20/M24 A3034 RMK SLP295=

CYXU;2005-02-27 12:00;METAR CYXU 271200Z 09004KT 15SM BKN240 M19/M24 A3035 RMK CI1 FROIN SLP300=

CYXU;2005-02-27 13:00;METAR CYXU 271300Z 09002KT 15SM BKN240 M17/M20 A3036 RMK CS2 FROIN SLP305=

CYXU;2005-02-27 15:00;METAR CYXU 271500Z 09007KT 15SM BKN240 M10/M12 A3030 RMK CS2 SLP283=

CYXU;2005-02-27 16:00;METAR CYXU 271600Z 08009KT 15SM BKN240 M08/M13 A3027 RMK CS2 SLP271=

CYXU;2005-02-27 19:00;METAR CYXU 271900Z 11011KT 15SM BKN240 M05/M12 A3019 RMK CI1 SLP245=

CYXU;2005-02-27 20:00;METAR CYXU 272000Z 11011KT 15SM BKN240 M04/M11 A3015 RMK CI1 SLP230=

CYXU;2005-02-27 22:00;METAR CYXU 272200Z 11013KT 15SM BKN240 M05/M13 A3009 RMK CI1 SLP211=

CYXU;2005-02-27 23:00;METAR CYXU 272300Z 09010KT 15SM OVC240 M05/M14 A3006 RMK CI3 SLP199=

CYXU;2005-02-28 00:00;METAR CYXU 280000Z 09011KT 15SM OVC240 M06/M12 A3006 RMK CI5 SLP199=

CYXU;2005-02-28 01:00;METAR CYXU 280100Z 09011KT 15SM OVC150 M06/M11 A3002 RMK AC8 SLP186=

CYXU;2005-02-28 03:00;METAR CYXU 280300Z 09013KT 15SM BKN110 BKN180 M06/M11 A2996 RMK AC5AC2 SLP163=

CYXU;2005-02-28 04:00;METAR CYXU 280400Z 08012KT 15SM OVC120 M06/M11 A2991 RMK AC8 SLP145=

CYXU;2005-02-28 05:00;METAR CYXU 280500Z 09011KT 15SM OVC130 M05/M11 A2987 RMK AS8 SLP134=

CYXU;2005-02-28 06:00;METAR CYXU 280600Z 10011KT 15SM FEW030 SCT120 BKN260 M05/M11 A2984 RMK SC1AC2CI1 SLP120=

CYXU;2005-02-28 09:00;METAR CYXU 280900Z 08007KT 15SM SCT140 OVC220 M06/M10 A2976 RMK AC3CS4 SLP094=

CYXU;2005-02-28 10:00;METAR CYXU 281000Z 09009KT 15SM SCT120 OVC220 M05/M10 A2975 RMK AC4CS4 SLP088=

CYXU;2005-02-28 11:00;METAR CYXU 281100Z 08007KT 15SM OVC120 M05/M10 A2975 RMK AC8 SLP088=

CYXU;2005-02-28 12:00;METAR CYXU 281200Z 08008KT 15SM SCT120 BKN170 M05/M10 A2971 RMK AC3AC1 SLP075=

CYXU;2005-02-28 13:00;METAR CYXU 281300Z 09009KT 15SM FEW120 BKN180 M05/M10 A2970 RMK AC2CI2 SLP070=

CYXU;2005-02-28 14:00;METAR CYXU 281400Z 09009KT 15SM FEW120 OVC190 M04/M09 A2968 RMK AC1CI3 SLP065=

CYXU;2005-02-28 15:00;METAR CYXU 281500Z 09008KT 15SM BKN140 M02/M08 A2965 RMK AC5 SLP052=

CYXU;2005-02-28 16:00;METAR CYXU 281600Z 10009KT 15SM OVC090 M01/M07 A2963 RMK AS8 SLP048=

CYXU;2005-02-28 18:00;METAR CYXU 281800Z 10008KT 15SM OVC048 01/M06 A2959 RMK SC8 SLP032=

CYXU;2005-02-28 19:00;METAR CYXU 281900Z 11008KT 15SM OVC028 02/M04 A2957 RMK SC8 SLP024=

CYXU;2005-02-28 19:09;SPECI CYXU 281909Z 10008KT 3SM -SN OVC016 RMK NS8=

CYXU;2005-02-28 19:25;SPECI CYXU 281925Z 14013KT 2 1/2SM -SN OVC017 RMK NS8=

CYXU;2005-02-28 20:27;SPECI CYXU 282027Z 11011KT 2SM -SN BKN006 OVC011 RMK SF5NS3=

CYXU;2005-02-28 22:00;METAR CYXU 282200Z 11008KT 1 1/2SM -SN OVC008 00/M01 A2952 RMK NS8 SLP007=

CYXU;2005-02-28 22:15;SPECI CYXU 282215Z 11008KT 2 1/2SM -SN OVC008 RMK NS8 CIG VRB 4-12=

CYXU;2005-02-28 23:00;METAR CYXU 282300Z 12011KT 2SM -SN OVC007 00/M01 A2950 RMK NS8 CIG VRB 4-12 SLP003=

CYXU;2005-03-01 00:00;METAR CYXU 010000Z 09011KT 1 1/2SM -SN OVC007 M00/M01 A2949 RMK NS8 CIG VRB 4-15 SLP999=

CYXU;2005-03-01 00:21;SPECI CYXU 010021Z 09009KT 1SM R15/P6000FT/D -SN OVC007 RMK NS8 CIG VRB 4-17=

CYXU;2005-03-01 01:00;METAR CYXU 010100Z 10010KT 1SM R15/P6000FT/U -SN OVC009 M00/M01 A2947 RMK NS8 CIG VRB 4-14 SLP992=

CYXU;2005-03-01 02:35;SPECI CYXU 010235Z 11007KT 1SM R15/P6000FT/U -SN BKN004 OVC012 RMK SN5SF2NS2=

CYXU;2005-03-01 03:00;METAR CYXU 010300Z 10008KT 3/4SM R15/P6000FT/U -SN BKN005 OVC010 M01/M02 A2944 RMK SN4SF2NS2 /S03/ SLP979=

CYXU;2005-03-01 04:00;METAR CYXU 010400Z 11009KT 1SM R15/P6000FT/N -SN BKN005 OVC011 M01/M02 A2941 RMK SN2SF3NS2 SLP971=

CYXU;2005-03-01 06:00;METAR CYXU 010600Z 11010KT 1SM R15/P6000FT/D -SN BKN005 OVC010 M01/M02 A2937 RMK SN2SF3NS3 /S05/ SLP954=

CYXU;2005-03-01 09:00;METAR CYXU 010900Z 10011KT 1 1/4SM -SN BKN007 OVC015 M02/M03 A2930 RMK SN2SF6NS1 /S02/ SLP931=

CYXU;2005-03-01 10:00;METAR CYXU 011000Z 10012KT 1SM R15/P6000FT/U -SN BKN007 OVC013 M02/M03 A2929 RMK SN2SF5NS2 SLP927=

CYXU;2005-03-01 12:00;METAR CYXU 011200Z 08013KT 2SM -SN SCT008 OVC014 M02/M04 A2928 RMK SN2SF2NS4 SLP924=

CYXU;2005-03-01 13:00;METAR CYXU 011300Z 07013KT 2 1/2SM -SN BKN011 OVC018 M02/M04 A2928 RMK SN2SF3NS3 SLP925=

CYXU;2005-03-01 13:05;SPECI CYXU 011305Z 07013KT 2 1/2SM -SN SCT009 OVC012 RMK SN2SF2NS4=

CYXU;2005-03-01 14:00;METAR CYXU 011400Z 07013KT 2SM -SN BKN008 OVC013 M02/M04 A2928 RMK SN2SF5NS2 SLP926=

CYXU;2005-03-01 15:36;SPECI CYXU 011536Z 06014KT 4SM -SHSN SCT012 OVC045 RMK SF4SC3=

CYXU;2005-03-01 16:00;METAR CYXU 011600Z 06012KT 6SM -SHSN OVC011 M01/M04 A2930 RMK SC8 TCU ASOCT SLP931=

CYXU;2005-03-01 16:39;SPECI CYXU 011639Z 05009KT 15SM OVC014 RMK SC8=

CYXU;2005-03-01 17:00;METAR CYXU 011700Z 05009KT 15SM OVC014 M01/M03 A2931 RMK SC8 SLP936=

CYXU;2005-03-01 18:00;METAR CYXU 011800Z 01009KT 15SM OVC014 M01/M04 A2933 RMK SC8 SLP941=

CYXU;2005-03-01 18:28;SPECI CYXU 011828Z 01009KT 10SM -SHSN OVC015 RMK SC8 TCU ASOCT=

CYXU;2005-03-01 19:00;METAR CYXU 011900Z 36011KT 3SM -SHSN OVC015 M01/M05 A2934 RMK SC8 TCU ASOCT SLP946=

CYXU;2005-03-01 19:37;SPECI CYXU 011937Z 36009G16KT 1 1/2SM -SHSN OVC023 RMK SN2SC6 TCU ASOCT=

CYXU;2005-03-01 20:00;METAR CYXU 012000Z 35013KT 2 1/2SM -SHSN FEW014 OVC030 M02/M06 A2938 RMK SN1SC2SC6 TCU ASOCTD SLP957=

CYXU;2005-03-01 21:20;SPECI CYXU 012120Z 34008KT 1 1/2SM -SHSN BKN014 OVC032 RMK SN2SC3SC3 TCU ASOCTD=

CYXU;2005-03-01 21:34;SPECI CYXU 012134Z 33007KT 1SM R15/5000FT/N -SHSN VV006 RMK SN8 TCU ASOCTD=

CYXU;2005-03-01 22:26;SPECI CYXU 012226Z 31007KT 1SM R15/P6000FT/D -SHSN VV008 RMK SN8 TCU ASOCTD=

CYXU;2005-03-01 23:00;METAR CYXU 012300Z 33013G18KT 1SM R15/P6000FT/U -SHSN VV006 M04/M06 A2949 RMK SN8 TCU ASOCTD /S02/ SLP996=

CYXU;2005-03-01 23:32;SPECI CYXU 012332Z 33013KT 1 1/2SM -SHSN VV013 RMK SN8 TCU ASOCTD=

CYXU;2005-03-02 00:00;METAR CYXU 020000Z 32012KT 3SM -SN VV013 M04/M06 A2954 RMK SN8 NS ASOCTD /S03/ SLP014=

CYXU;2005-03-02 01:37;SPECI CYXU 020137Z 32012KT 2SM -SN DRSN VV010 RMK SN8 TCU ASOCTD=

CYXU;2005-03-02 02:28;SPECI CYXU 020228Z 32012G17KT 4SM -SHSN DRSN FEW014 OVC040 RMK SF2SC6 TCU ASOCTD=

CYXU;2005-03-02 03:00;METAR CYXU 020300Z 32010KT 8SM -SHSN DRSN SCT040 BKN160 M06/M09 A2962 RMK SC3AC4 TCU ASOCTD SLP042=

CYXU;2005-03-02 04:00;METAR CYXU 020400Z 32011KT 4SM -SHSN DRSN OVC050 M06/M09 A2963 RMK SC8 TCU ASOCTD SLP046=

CYXU;2005-03-02 06:00;METAR CYXU 020600Z 31006KT 4SM -SHSN BKN014 OVC050 M06/M08 A2966 RMK SC6SC2 TCU ASOCTD SLP055=

CYXU;2005-03-02 07:00;METAR CYXU 020700Z 30007KT 3SM -SHSN FEW012 OVC023 M06/M09 A2967 RMK SF1SC7 TCU ASOCTD SLP061=

CYXU;2005-03-02 07:12;SPECI CYXU 020712Z 29006KT 1 1/2SM -SHSN BKN012 OVC023TCU RMK SN2SF5TCU2=

CYXU;2005-03-02 10:00;METAR CYXU 021000Z 27011KT 2SM -SHSN BKN014 OVC025TCU M08/M10 A2972 RMK SN1SF6TCU2 /S06/ SLP077=

CYXU;2005-03-02 10:40;SPECI CYXU 021040Z 27010KT 1SM R15/P6000FT/U -SHSN VV009 RMK SN8 /S07/=

CYXU;2005-03-02 11:06;SPECI CYXU 021106Z 27010KT 1SM R15/P6000FT/U -SHSN VV008 RMK SN8=

CYXU;2005-03-02 11:35;SPECI CYXU 021135Z 27010KT 3/4SM R15/P6000FT/D -SHSN VV005 RMK SN8=

CYXU;2005-03-02 12:00;METAR CYXU 021200Z 28011KT 1SM R15/P6000FT/D -SHSN VV007 M08/M10 A2975 RMK SN8 CIG VRBL 5-10 SLP089=

CYXU;2005-03-02 13:00;METAR CYXU 021300Z 27010KT 3/4SM R15/6000FT/D -SHSN VV007 M08/M11 A2977 RMK SN8 CIG VRBL 5-10 SLP095=

CYXU;2005-03-02 14:00;METAR CYXU 021400Z 28011KT 3/4SM R15/6000FT/N -SHSN OVC015 M08/M10 A2978 RMK SN3SC5 TCU ASOCT /S08/ SLP099=

CYXU;2005-03-02 15:00;METAR CYXU 021500Z 29012KT 1SM R15/P6000FT/N -SHSN OVC011 M07/M10 A2979 RMK SN3SC5 TCU ASOCT /S10/ SLP102=

CYXU;2005-03-02 16:00;METAR CYXU 021600Z 28010G17KT 1SM R15/P6000FT/D -SHSN OVC012 M07/M10 A2980 RMK SN3SC5 TCU ASOCT /S12/ SLP107=

CYXU;2005-03-02 17:00;METAR CYXU 021700Z 29010G15KT 3/4SM R15/P6000FT/D -SHSN OVC013 M07/M10 A2981 RMK SN3SC5 TCU ASOCT SLP109=

CYXU;2005-03-02 17:14;SPECI CYXU 021714Z 28010G16KT 1/2SM R15/3000V5000FT/D SHSN VV004 RMK SN8 TCU ASOCT=

CYXU;2005-03-02 17:36;SPECI CYXU 021736Z 28016KT 1SM R15/P6000FT/U -SHSN OVC012 RMK SN3SC5 TCU ASOCT=

CYXU;2005-03-02 18:23;SPECI CYXU 021823Z 29011G19KT 3/4SM R15/6000FT/D -SHSN OVC012 RMK SN3SC5 TCU ASOCT=

CYXU;2005-03-02 19:00;METAR CYXU 021900Z 29008G15KT 1/2SM R15/3500FT/D SHSN OVC009 M07/M09 A2982 RMK SN3SC5 TCU ASOCT /S01/ SLP112=

CYXU;2005-03-02 19:22;SPECI CYXU 021922Z 29010KT 2SM -SHSN OVC013 RMK SN2SC6 TCU ASOCT=

CYXU;2005-03-02 19:39;SPECI CYXU 021939Z 30009KT 3SM -SHSN SCT013 OVC020 RMK SC3SC5 TCU ASOCT /S03/=

CYXU;2005-03-02 20:45;SPECI CYXU 022045Z 32009KT 2 1/2SM -SHSN BKN009 OVC015 RMK SC5SC3 TCU ASOCTD=

CYXU;2005-03-02 21:00;METAR CYXU 022100Z 33010KT 3SM -SHSN SCT009 BKN015 OVC025 M07/M10 A2985 RMK SC3SC2SC2 TCU ASOCTD SLP124=

CYXU;2005-03-02 22:00;METAR CYXU 022200Z 31008KT 3SM -SHSN BKN009 OVC015 M07/M10 A2987 RMK SC6SC2 TCU ASOCTD SLP130=

CYXU;2005-03-02 22:38;SPECI CYXU 022238Z 33010G15KT 5SM -SHSN SCT009 BKN015 OVC030 RMK SF3SC3SC2 TCU ASOCTD=

CYXU;2005-03-03 00:00;METAR CYXU 030000Z 32006KT 7SM -SHSN FEW015 OVC055 M09/M12 A2991 RMK SC2SC6 SLP147=

CYXU;2005-03-03 03:00;METAR CYXU 030300Z 30008KT 10SM -SHSN OVC032 M07/M11 A2993 RMK SC8 SLP153=

CYXU;2005-03-03 04:00;METAR CYXU 030400Z 30009KT 8SM -SHSN FEW018 OVC034 M07/M10 A2993 RMK SF2SC6 SLP153=

CYXU;2005-03-03 08:00;METAR CYXU 030800Z 29005KT 10SM -SHSN OVC037 M08/M10 A2995 RMK SC8 SLP158=

CYXU;2005-03-03 09:00;METAR CYXU 030900Z 28006KT 10SM -SHSN OVC034 M08/M11 A2997 RMK SC8 SLP164=

CYXU;2005-03-03 10:00;METAR CYXU 031000Z 35005KT 15SM -SHSN SCT032 M10/M14 A2999 RMK SC3 SLP172=

CYXU;2005-03-03 10:11;SPECI CYXU 031011Z 35005KT 15SM FEW032 RMK SC2=

CYXU;2005-03-03 11:00;METAR CYXU 031100Z 26003KT 15SM FEW030 FEW240 M13/M16 A3000 RMK SC1CI0 SLP175=

CYXU;2005-03-03 12:00;METAR CYXU 031200Z 27004KT 15SM MIFG FEW030 FEW240 M14/M16 A3001 RMK SC1CI0 SLP181=

CYXU;2005-03-03 13:00;METAR CYXU 031300Z 27005KT 15SM FEW030 FEW240 M11/M12 A3003 RMK SC1CI0 SLP187=

CYXU;2005-03-03 14:00;METAR CYXU 031400Z 27007KT 15SM FEW030 M09/M11 A3003 RMK SC1 SLP190=

CYXU;2005-03-03 14:39;SPECI CYXU 031439Z 27008KT 15SM -SHSN FEW032 RMK CU2 PCPN VRY LGT=

CYXU;2005-03-03 15:00;METAR CYXU 031500Z 28006KT 15SM -SHSN FEW032 M07/M10 A3004 RMK SC2 TCU ASOCTD PCPN VRY LGT SLP188=

CYXU;2005-03-03 16:00;METAR CYXU 031600Z 29008KT 1 1/2SM -SHSN OVC018TCU M07/M10 A3004 RMK SN2TCU6 SLP188=

CYXU;2005-03-03 17:35;SPECI CYXU 031735Z 29008KT 3SM -SHSN BKN015 RMK CU7 TCU ASOCTD=

CYXU;2005-03-03 18:10;SPECI CYXU 031810Z 27009KT 3/4SM R15/P6000FT/D -SHSN VV008 RMK SN8=

CYXU;2005-03-03 19:00;METAR CYXU 031900Z 28013KT 10SM -SHSN SCT018 BKN039 M05/M09 A3000 RMK CU3SC4 TCU ASOCTD VSBY N 3 SLP175=

CYXU;2005-03-03 20:00;METAR CYXU 032000Z 29013KT 10SM -SHSN BKN022 BKN040 M04/M10 A3000 RMK CU5SC2 TCU ASOCTD SLP174=

CYXU;2005-03-03 20:31;SPECI CYXU 032031Z 30010G16KT 10SM SCT022 BKN040 BKN200 RMK CU3SC2CI1 TCU TOPS N QUAD VIRGA=

CYXU;2005-03-03 21:00;METAR CYXU 032100Z 29012KT 10SM FEW022 SCT040 SCT150 BKN200 M06/M11 A3000 RMK CU2SC2AC1CI1 TCU TOPS N QUAD SLP175=

CYXU;2005-03-03 22:00;METAR CYXU 032200Z 29011KT 10SM FEW022 FEW040 BKN200 M06/M13 A3000 RMK CU1SC2CI1 TCU TOPS E QUAD SLP176=

CYXU;2005-03-04 00:00;METAR CYXU 040000Z 26005KT 15SM FEW140 M09/M14 A3001 RMK AC1 SLP183=

CYXU;2005-03-04 01:00;METAR CYXU 040100Z 27005KT 15SM SKC M10/M14 A3000 RMK SLP180=

CYXU;2005-03-04 03:00;METAR CYXU 040300Z 21002KT 15SM SKC M12/M14 A2999 RMK SLP173=

CYXU;2005-03-04 04:00;METAR CYXU 040400Z 21003KT 15SM SKC M12/M15 A2997 RMK SLP169=

CYXU;2005-03-04 05:00;METAR CYXU 040500Z 24003KT 15SM SKC M10/M14 A2996 RMK SLP164=

CYXU;2005-03-04 06:00;METAR CYXU 040600Z 24008KT 15SM SKC M09/M14 A2995 RMK SLP157=

CYXU;2005-03-04 07:00;METAR CYXU 040700Z 27008KT 15SM SKC M09/M14 A2993 RMK SLP153=

CYXU;2005-03-04 11:00;METAR CYXU 041100Z 26004KT 15SM FEW050 M12/M14 A2991 RMK SC1 SLP146=

CYXU;2005-03-04 12:00;METAR CYXU 041200Z 26004KT 15SM FEW070 SCT240 M12/M14 A2991 RMK AC1CI0 FROIN SLP148=

CYXU;2005-03-04 13:00;METAR CYXU 041300Z 24002KT 12SM FEW100 SCT240 M12/M14 A2992 RMK AC1CI0 SLP150=

CYXU;2005-03-04 14:00;METAR CYXU 041400Z 00000KT 12SM FEW090 BKN240 M09/M12 A2992 RMK AC1CI0 SLP151=

CYXU;2005-03-04 15:00;METAR CYXU 041500Z 24006KT 12SM FEW110 BKN240 M05/M10 A2991 RMK AC1CI1 SLP147=

CYXU;2005-03-04 16:00;METAR CYXU 041600Z 23007KT 12SM BKN033 OVC240 M04/M09 A2991 RMK CU6CI1 SLP145=

CYXU;2005-03-04 17:00;METAR CYXU 041700Z 25007KT 15SM BKN030 OVC240 M03/M09 A2990 RMK CU6CI1 SLP143=

CYXU;2005-03-04 18:00;METAR CYXU 041800Z 24008KT 15SM SCT025 BKN240 M02/M09 A2989 RMK CU3CI0 SLP136=

CYXU;2005-03-04 19:00;METAR CYXU 041900Z 27006KT 15SM SCT023 BKN240 M02/M09 A2987 RMK CU3CI0 SLP130=

CYXU;2005-03-04 21:00;METAR CYXU 042100Z 29005KT 15SM FEW030 SCT080 OVC240 M01/M09 A2986 RMK SC2AC2CI0 SLP125=

CYXU;2005-03-04 22:00;METAR CYXU 042200Z 29006KT 15SM FEW028 FEW075 BKN240 M01/M10 A2986 RMK SC2AC1CI0 SLP126=

CYXU;2005-03-04 23:00;METAR CYXU 042300Z 30003KT 15SM FEW026 SCT250 M03/M10 A2987 RMK SC1CI0 SLP130=

CYXU;2005-03-05 00:00;METAR CYXU 050000Z 00000KT 15SM BKN200 M06/M10 A2988 RMK CI2 SLP136=

CYXU;2005-03-05 01:00;METAR CYXU 050100Z 01002KT 15SM SCT200 M07/M11 A2988 RMK CI2 SLP137=

CYXU;2005-03-05 04:00;METAR CYXU 050400Z 00000KT 15SM FEW170 M13/M15 A2990 RMK AC2 SLP142=

CYXU;2005-03-05 05:00;METAR CYXU 050500Z 05002KT 8SM FEW170 M13/M15 A2990 RMK AC2 FROIN SLP141=

CYXU;2005-03-05 10:00;METAR CYXU 051000Z 04002KT 10SM SKC M17/M19 A2990 RMK FROIN SLP143=

CYXU;2005-03-05 12:00;METAR CYXU 051200Z 00000KT 4SM BR SKC M18/M21 A2994 RMK FROIN SLP158=

CYXU;2005-03-05 13:00;METAR CYXU 051300Z 00000KT 4SM R15/1200V4000FT/U BR SKC M15/M18 A2996 RMK FROIN SLP164=

CYXU;2005-03-05 15:00;METAR CYXU 051500Z 00000KT 5SM HZ SKC M06/M11 A2999 RMK HZ SLP174=

CYXU;2005-03-05 15:35;SPECI CYXU 051535Z 00000KT 7SM SKC=

CYXU;2005-03-05 16:00;METAR CYXU 051600Z 30003KT 7SM SKC M03/M09 A2999 RMK SLP174=

CYXU;2005-03-05 17:00;METAR CYXU 051700Z 30003KT 15SM SKC M01/M08 A3000 RMK SLP175=

CYXU;2005-03-05 21:00;METAR CYXU 052100Z 29010KT 15SM FEW200 01/M07 A2997 RMK CI1 SLP167=

CYXU;2005-03-05 22:00;METAR CYXU 052200Z 27009KT 15SM BKN210 M00/M07 A2997 RMK CI2 SLP166=

CYXU;2005-03-05 23:00;METAR CYXU 052300Z 27006KT 15SM FEW080 BKN200 M01/M08 A2997 RMK AC1CI2 COTRA SLP166=

CYXU;2005-03-06 04:00;METAR CYXU 060400Z 23006KT 10SM BKN160 M03/M07 A2991 RMK AC7 SLP143=

CYXU;2005-03-06 06:00;METAR CYXU 060600Z 25009KT 15SM FEW200 M03/M07 A2987 RMK CI1 SLP126=

CYXU;2005-03-06 08:00;METAR CYXU 060800Z 23012KT 8SM SCT210 M03/M06 A2981 RMK CI3 SLP107=

CYXU;2005-03-06 11:00;METAR CYXU 061100Z 23010G15KT 8SM OVC090 M02/M05 A2971 RMK AC8 SLP073=

CYXU;2005-03-06 12:00;METAR CYXU 061200Z 22013KT 8SM OVC080 M01/M04 A2965 RMK AS8 PRESFR VIRGA SLP053=

CYXU;2005-03-06 13:00;METAR CYXU 061300Z 24015G25KT 6SM HZ FEW020 OVC070 M01/M03 A2963 RMK SC1AC7 SLP047=

CYXU;2005-03-06 14:00;METAR CYXU 061400Z 24015G20KT 6SM HZ FEW020 OVC030 02/M02 A2962 RMK SC2SC6 SLP043=

CYXU;2005-03-06 15:00;METAR CYXU 061500Z 26017G22KT 6SM HZ FEW018 OVC024 02/M02 A2961 RMK SC2SC6 SLP036=

CYXU;2005-03-06 16:00;METAR CYXU 061600Z 26015KT 5SM HZ OVC023 02/M02 A2961 RMK SC8 SLP037=

CYXU;2005-03-06 19:00;METAR CYXU 061900Z 28010G20KT 8SM OVC030 04/M01 A2963 RMK SC8 SLP043=

CYXU;2005-03-06 20:00;METAR CYXU 062000Z 28012G17KT 10SM OVC031 04/M01 A2965 RMK SC8 SLP049=

CYXU;2005-03-06 22:00;METAR CYXU 062200Z 25006KT 10SM OVC035 04/M01 A2967 RMK SC8 SLP056=

CYXU;2005-03-07 00:00;METAR CYXU 070000Z 22003KT 10SM BKN041 03/M01 A2970 RMK SC7 SLP065=

CYXU;2005-03-07 01:00;METAR CYXU 070100Z 21004KT 10SM SCT040 03/M01 A2970 RMK SC4 SLP067=

CYXU;2005-03-07 03:00;METAR CYXU 070300Z 09003KT 8SM FEW040 BKN130 00/M02 A2968 RMK SC1AC6 SLP061=

CYXU;2005-03-07 05:00;METAR CYXU 070500Z 09006KT 8SM FEW080 SCT150 01/M02 A2960 RMK AC1AC3 SLP035=

CYXU;2005-03-07 06:00;METAR CYXU 070600Z 15007KT 8SM FEW065 SCT140 01/M02 A2958 RMK SC1AC3 SLP024=

CYXU;2005-03-07 08:00;METAR CYXU 070800Z 15008KT 8SM SCT160 01/M02 A2950 RMK AC4 SLP998=

CYXU;2005-03-07 11:00;METAR CYXU 071100Z 20010KT 8SM OVC150 04/00 A2940 RMK AC8 SLP963=

CYXU;2005-03-07 12:00;METAR CYXU 071200Z 20008KT 10SM OVC150 04/00 A2937 RMK AC8 SLP951=

CYXU;2005-03-07 13:00;METAR CYXU 071300Z 20010KT 10SM OVC120 04/M00 A2936 RMK AC8 SLP947=

CYXU;2005-03-07 14:00;METAR CYXU 071400Z 20013KT 10SM OVC100 04/M00 A2932 RMK AC8 VIRGA SLP935=

CYXU;2005-03-07 14:24;SPECI CYXU 071424Z 19015KT 10SM -SHRA SCT050 OVC100 RMK SC3AC5 TCU EMBDD=

CYXU;2005-03-07 15:00;METAR CYXU 071500Z 20015G20KT 5SM -SHRA BR FEW025 BKN050TCU OVC100 05/01 A2926 RMK SC2TCU3AC2 SLP914=

CYXU;2005-03-07 15:47;SPECI CYXU 071547Z 21015G25KT 8SM OVC023 RMK SC8=

CYXU;2005-03-07 16:00;METAR CYXU 071600Z 21017G25KT 10SM -SHRA OVC023 05/01 A2922 RMK SC8 TCU EMBDD SLP904=

CYXU;2005-03-07 16:39;SPECI CYXU 071639Z 21018G25KT 10SM OVC018 RMK SC8=

CYXU;2005-03-07 17:00;METAR CYXU 071700Z 22020KT 10SM OVC017 06/02 A2922 RMK SC8 SLP903=

CYXU;2005-03-07 18:00;METAR CYXU 071800Z 22017G26KT 10SM OVC012 06/03 A2921 RMK SC8 SLP899=

CYXU;2005-03-07 19:00;METAR CYXU 071900Z 22015G20KT 10SM OVC013 06/03 A2918 RMK SC8 SLP889=

CYXU;2005-03-07 19:27;SPECI CYXU 071927Z 21012KT 10SM -SHRA OVC018 RMK SC8 TCU EMBDD=

CYXU;2005-03-07 20:18;SPECI CYXU 072018Z 22012G17KT 4SM -SHRA OVC017 RMK SC8 TCU EMBDD=

CYXU;2005-03-07 20:28;SPECI CYXU 072028Z 22011G16KT 8SM OVC017 RMK SC8=

CYXU;2005-03-07 21:11;SPECI CYXU 072111Z 23010KT 10SM -SHRA OVC020 RMK SC8 TCU EMBDD=

CYXU;2005-03-07 21:17;SPECI CYXU 072117Z 26009G15KT 5SM +SHRA OVC019 RMK SC8 TCU EMBDD=

CYXU;2005-03-07 21:20;SPECI CYXU 072120Z 25009G15KT 5SM -TSRA OVC018 RERA RMK SC8 CB ASOCTD=

CYXU;2005-03-07 22:00;METAR CYXU 072200Z 27013KT 8SM -SHRA OVC017 06/04 A2917 RETSRA RMK SC8 SLP884=

CYXU;2005-03-07 22:17;SPECI CYXU 072217Z 26015G22KT 10SM SCT011 OVC018 RMK SF3SC5=

CYXU;2005-03-07 22:53;SPECI CYXU 072253Z 30015G27KT 2 1/2SM BR OVC003 RMK FG1SF7 FROPA=

CYXU;2005-03-07 23:00;METAR CYXU 072300Z 30016G24KT 2SM BR OVC002 M01/M03 A2924 RMK FG1SF7 FROPA SLP907=

CYXU;2005-03-07 23:30;SPECI CYXU 072330Z 30019G27KT 7SM OVC008 RMK SC8=

CYXU;2005-03-08 00:00;METAR CYXU 080000Z 31018G26KT 8SM OVC009 M04/M06 A2932 RMK SC8 PRESRR SLP936=

CYXU;2005-03-08 00:24;SPECI CYXU 080024Z 32015G24KT 8SM -SHSN OVC012 RMK SC8=

CYXU;2005-03-08 01:27;SPECI CYXU 080127Z 32015G25KT 8SM -SHSN OVC018 RMK SC8=

CYXU;2005-03-08 02:46;SPECI CYXU 080246Z 32016G24KT 4SM -SHSN OVC020 RMK CU8 TCU ASOCTD=

CYXU;2005-03-08 03:00;METAR CYXU 080300Z 32013G19KT 8SM -SHSN OVC022 M07/M11 A2943 RMK SC8 TCU ASOCTD SLP977=

CYXU;2005-03-08 05:40;SPECI CYXU 080540Z 35012KT 15SM SCT025 RMK SC4=

CYXU;2005-03-08 07:00;METAR CYXU 080700Z 35007KT 15SM FEW025 BKN210 M11/M16 A2952 RMK SC2CI5 SLP009=

CYXU;2005-03-08 08:00;METAR CYXU 080800Z 35008KT 15SM FEW025 SCT210 M12/M16 A2954 RMK SC1CI2 SLP014=

CYXU;2005-03-08 10:00;METAR CYXU 081000Z 35010KT 15SM FEW200 M13/M17 A2957 RMK CI1 SLP024=

CYXU;2005-03-08 11:00;METAR CYXU 081100Z 34010G15KT 15SM FEW200 M13/M18 A2960 RMK CI1 SLP033=

CYXU;2005-03-08 12:00;METAR CYXU 081200Z 35010KT 15SM FEW200 M14/M18 A2962 RMK CI1 SLP046=

CYXU;2005-03-08 13:00;METAR CYXU 081300Z 36012KT 15SM SKC M13/M17 A2964 RMK SLP055=

CYXU;2005-03-08 14:00;METAR CYXU 081400Z 36012KT 15SM SKC M13/M17 A2966 RMK SLP061=

CYXU;2005-03-08 15:00;METAR CYXU 081500Z 34010G15KT 15SM SKC M11/M17 A2965 RMK SLP058=

CYXU;2005-03-08 16:00;METAR CYXU 081600Z 33013KT 15SM SKC M10/M17 A2968 RMK SLP066=

CYXU;2005-03-08 17:00;METAR CYXU 081700Z 35013G18KT 15SM FEW030 M10/M16 A2968 RMK CU2 SLP068=

CYXU;2005-03-08 18:00;METAR CYXU 081800Z 34015G20KT 15SM VCSH BKN028 M09/M15 A2968 RMK CU5 VSBY LWR WEST IN SW- SLP069=

CYXU;2005-03-08 20:00;METAR CYXU 082000Z 34018G25KT 15SM -SHSN SCT028 M10/M17 A2971 RMK CU4 TCU W SLP078=

CYXU;2005-03-08 20:22;SPECI CYXU 082022Z 32015G21KT 15SM SCT025 RMK CU3 TCU W=

CYXU;2005-03-08 21:00;METAR CYXU 082100Z 33011G17KT 15SM FEW025 M10/M17 A2973 RMK CU2 TCU W SLP085=

CYXU;2005-03-08 22:00;METAR CYXU 082200Z 32011G17KT 15SM FEW025 M10/M15 A2975 RMK CU2 TCU W SLP092=

CYXU;2005-03-08 22:16;SPECI CYXU 082216Z 31010KT 10SM -SHSN BKN022 RMK SC6 TCU ASOCTD=

CYXU;2005-03-08 22:22;SPECI CYXU 082222Z 30011KT 4SM -SHSN BKN022 RMK SC6 VSBY N 11/2 TCU ASOCTD=

CYXU;2005-03-08 22:25;SPECI CYXU 082225Z 31009KT 2SM -SHSN BKN016 RMK SC6 VSBY VRBL 1-3 TCU ASOCTD=

CYXU;2005-03-08 23:00;METAR CYXU 082300Z 30010G15KT 2SM -SHSN BKN018 M10/M14 A2976 RMK SC5 VSBY VRBL 1-3 TCU ASOCTD SLP096=

CYXU;2005-03-08 23:30;SPECI CYXU 082330Z 30006KT 15SM -SHSN SCT018 RMK SC3=

CYXU;2005-03-09 00:00;METAR CYXU 090000Z 29005KT 15SM -SHSN BKN063 M11/M15 A2978 RMK SC5 SLP104=

CYXU;2005-03-09 00:22;SPECI CYXU 090022Z 29008KT 2SM -SHSN OVC029 RMK SN2SC6 VSBY VRBL 1-3 TCU ASOCTD=

CYXU;2005-03-09 01:39;SPECI CYXU 090139Z 26006KT 12SM -SHSN SCT030 RMK SC3=

CYXU;2005-03-09 03:00;METAR CYXU 090300Z 27005KT 15SM FEW045 M12/M16 A2980 RMK SC1 SLP111=

CYXU;2005-03-09 04:00;METAR CYXU 090400Z 26008KT 15SM -SHSN SCT047 M11/M15 A2980 RMK SC3 SLP110=

CYXU;2005-03-09 04:31;SPECI CYXU 090431Z 26011KT 3SM -SHSN VV006 RMK SN8=

CYXU;2005-03-09 04:38;SPECI CYXU 090438Z 25009KT 10SM -SHSN FEW030TCU RMK TCU2=

CYXU;2005-03-09 05:00;METAR CYXU 090500Z 27008KT 3SM -SHSN OVC028TCU M10/M13 A2980 RMK TCU8 SLP110=

CYXU;2005-03-09 06:00;METAR CYXU 090600Z 28011G18KT 6SM -SHSN FEW027TCU M10/M14 A2980 RMK TCU2 SLP108=

CYXU;2005-03-09 07:00;METAR CYXU 090700Z 29011G18KT 15SM SKC M10/M14 A2980 RMK SLP110=

CYXU;2005-03-09 07:43;SPECI CYXU 090743Z 28011KT 7SM -SHSN FEW018TCU RMK TCU2=

CYXU;2005-03-09 10:00;METAR CYXU 091000Z 28011KT 8SM -SHSN FEW020 SCT039 M11/M15 A2981 RMK SC2SC2 TCU ASOCTD SLP113=

CYXU;2005-03-09 10:53;SPECI CYXU 091053Z 04006KT 3/4SM R15/P6000FT/D -SHSN FEW006 OVC015TCU RMK SN2SF1TCU6=

CYXU;2005-03-09 11:00;METAR CYXU 091100Z 03006KT 3/4SM R15/4000VP6000FT/D -SHSN OVC012TCU M11/M14 A2983 RMK SN3TCU5 SLP119=

CYXU;2005-03-09 11:13;SPECI CYXU 091113Z 03004KT 1SM R15/6000FT/U -SHSN OVC016TCU RMK SN3TCU5=

CYXU;2005-03-09 11:39;SPECI CYXU 091139Z 01003KT 3/4SM R15/P6000FT/U -SHSN OVC018TCU RMK SN4TCU4=

CYXU;2005-03-09 12:00;METAR CYXU 091200Z 02002KT 1SM R15/P6000FT/D -SHSN OVC025TCU M12/M14 A2985 RMK SN2TCU6 /S01/ SLP126=

CYXU;2005-03-09 12:15;SPECI CYXU 091215Z 32002KT 3/4SM R15/P6000FT/D -SHSN OVC022TCU RMK SN3TCU5 VSBY VRBL 1/2-11/2=

CYXU;2005-03-09 13:00;METAR CYXU 091300Z 00000KT 3/4SM R15/P6000FT/U -SHSN OVC020TCU M11/M14 A2986 RMK SN3TCU5 VSBY VRBL 1/2-11/2 SLP131=

CYXU;2005-03-09 14:43;SPECI CYXU 091443Z 29013G18KT 4SM -SHSN BKN026 RMK CU6 TCU ASOCTD=

CYXU;2005-03-09 15:00;METAR CYXU 091500Z 28016KT 6SM -SHSN BKN030 M09/M14 A2987 RMK CU6 TCU ASOCTD SLP133=

CYXU;2005-03-09 15:38;SPECI CYXU 091538Z 29016KT 10SM BKN030 RMK CU5 SHWRS E-SE TCU ASOCTD=

CYXU;2005-03-09 16:00;METAR CYXU 091600Z 28017G22KT 10SM DRSN BKN030 M08/M14 A2986 RMK CU5 TCU ASOCTD E SLP132=

CYXU;2005-03-09 17:00;METAR CYXU 091700Z 29016G22KT 12SM DRSN BKN031 M08/M15 A2986 RMK CU6 SLP130=

CYXU;2005-03-09 18:00;METAR CYXU 091800Z 30015G20KT 12SM DRSN BKN034TCU M07/M15 A2984 RMK TCU5 SHWRS SW SLP123=

CYXU;2005-03-09 19:00;METAR CYXU 091900Z 29016KT 6SM -SHSN DRSN BKN025TCU M07/M13 A2982 RMK TCU6 VSBY E 21/2 SLP116=

CYXU;2005-03-09 20:00;METAR CYXU 092000Z 30013G18KT 6SM -SHSN OVC026TCU M08/M13 A2983 RMK TCU8 SLP117=

CYXU;2005-03-09 20:51;SPECI CYXU 092051Z 30010G17KT 15SM FEW025 SCT043 RMK CU1CF3 TCU ASOCTD=

CYXU;2005-03-09 21:00;METAR CYXU 092100Z 29015KT 15SM FEW043 M08/M15 A2983 RMK CU2 TCU DSTNT N SLP117=

CYXU;2005-03-09 22:00;METAR CYXU 092200Z 31012G18KT 15SM FEW032 M08/M15 A2983 RMK CF2 SLP119=

CYXU;2005-03-10 00:00;METAR CYXU 100000Z 27008KT 15SM FEW035 M10/M16 A2982 RMK CU1 SLP117=

CYXU;2005-03-10 02:00;METAR CYXU 100200Z 23005KT 6SM -SHSN OVC022 M09/M15 A2979 RMK CU6 SLP107=

CYXU;2005-03-10 02:14;SPECI CYXU 100214Z 23008KT 15SM FEW030 RMK CU2=

CYXU;2005-03-10 06:00;METAR CYXU 100600Z 26008KT 15SM -SHSN FEW030 FEW070 M10/M13 A2976 RMK CU1AC2 SLP095=

CYXU;2005-03-10 07:00;METAR CYXU 100700Z 27007KT 15SM FEW070 M10/M13 A2976 RMK AC1 FROIN SLP094=

CYXU;2005-03-10 08:00;METAR CYXU 100800Z 27008KT 15SM FEW070 M11/M14 A2974 RMK AC1 TR AC FROIN SLP088=

CYXU;2005-03-10 09:00;METAR CYXU 100900Z 25007KT 15SM FEW130 M11/M15 A2973 RMK AC1 SLP085=

CYXU;2005-03-10 10:00;METAR CYXU 101000Z 26006KT 15SM SCT110 M11/M15 A2972 RMK AC3 SLP081=

CYXU;2005-03-10 11:00;METAR CYXU 101100Z 26008KT 15SM FEW110 M12/M16 A2973 RMK AC2 SLP084=

CYXU;2005-03-10 12:00;METAR CYXU 101200Z 26009KT 15SM FEW110 M12/M16 A2975 RMK AC2 SLP092=

CYXU;2005-03-10 14:00;METAR CYXU 101400Z 25009KT 15SM SCT210 M08/M14 A2974 RMK CI2 SLP091=

CYXU;2005-03-10 15:00;METAR CYXU 101500Z 26010KT 15SM SCT210 M07/M15 A2975 RMK CI2 SLP091=

CYXU;2005-03-10 16:00;METAR CYXU 101600Z 25011KT 15SM FEW210 M06/M15 A2973 RMK CI1 SLP086=

CYXU;2005-03-10 17:00;METAR CYXU 101700Z 22009KT 15SM FEW035 FEW210 M05/M14 A2972 RMK CU1CI1 TCU TPS DIST SW SLP082=

CYXU;2005-03-10 18:00;METAR CYXU 101800Z 20010KT 15SM FEW035 FEW210 M04/M14 A2969 RMK CF1CI1 SLP069=

CYXU;2005-03-10 19:00;METAR CYXU 101900Z 21007KT 15SM FEW040 BKN210 BKN230 M04/M12 A2966 RMK CU2CI2CC1 SLP058=

CYXU;2005-03-10 20:00;METAR CYXU 102000Z 23011G16KT 15SM -SHSN BKN040 BKN220 M04/M11 A2964 RMK CU6CI1 SLP054=

CYXU;2005-03-10 20:50;SPECI CYXU 102050Z 22010G16KT 3/4SM R15/P6000FT/D -SHSN BKN006 OVC015TCU RMK SN3SF2TCU2=

CYXU;2005-03-10 21:00;METAR CYXU 102100Z 20010KT 3SM R15/4500VP6000FT/U -SHSN SCT006 BKN015 OVC030 M05/M08 A2964 RMK SF3SC2SC2 TCU ASOCTD SLP052=

CYXU;2005-03-10 21:14;SPECI CYXU 102114Z 20010KT 2SM -SHSN BKN010 OVC020TCU RMK SC6TCU2=

CYXU;2005-03-10 21:27;SPECI CYXU 102127Z 20010KT 5SM -SHSN SCT010 BKN020 OVC030 RMK SC3SC2SC2=

CYXU;2005-03-10 22:00;METAR CYXU 102200Z 21010G16KT 15SM -SHSN FEW010 SCT020 OVC028 M04/M10 A2962 RMK SC1SC2SC5 SLP047=

CYXU;2005-03-10 23:00;METAR CYXU 102300Z 19009G15KT 8SM -SN BKN020 OVC040 M05/M09 A2962 RMK SC6NS2 SLP045=

CYXU;2005-03-10 23:50;SPECI CYXU 102350Z 19010KT 2SM -SN BKN010 OVC020 RMK SC6NS2=

CYXU;2005-03-11 00:00;METAR CYXU 110000Z 18008KT 2SM -SN BKN010 OVC020 M06/M09 A2962 RMK SC6NS2 SLP047=

CYXU;2005-03-11 00:09;SPECI CYXU 110009Z 18009KT 5SM -SN SCT010 OVC028 RMK SC3NS5=

CYXU;2005-03-11 00:22;SPECI CYXU 110022Z 19005KT 3SM -SN BKN012 OVC026 RMK SC5NS3=

CYXU;2005-03-11 00:33;SPECI CYXU 110033Z 19009KT 2SM -SN BKN011 OVC029 RMK SN1SC5NS2=

CYXU;2005-03-11 01:13;SPECI CYXU 110113Z 18007KT 2 1/2SM -SN BKN012 OVC021 RMK SN1SC5NS2=

CYXU;2005-03-11 02:00;METAR CYXU 110200Z 17007KT 2SM -SN BKN009 OVC022 M05/M07 A2961 RMK SN1SC6NS1 /S01/ SLP043=

CYXU;2005-03-11 03:25;SPECI CYXU 110325Z 17009KT 1 1/2SM -SN BKN008 OVC015 RMK SN3SC2NS2 /S02/=

CYXU;2005-03-11 04:00;METAR CYXU 110400Z 15008KT 4SM -SN BKN009 OVC017 M05/M07 A2956 RMK SC5NS3 SLP024=

CYXU;2005-03-11 06:00;METAR CYXU 110600Z 14007KT 2SM -SN BKN007 OVC016 M05/M07 A2951 RMK SN2SF3NS2 SLP006=

CYXU;2005-03-11 06:40;SPECI CYXU 110640Z 13007KT 4SM -SN BKN008 OVC030 RMK SF5SC3=

CYXU;2005-03-11 07:00;METAR CYXU 110700Z 13006KT 6SM -SN BKN008 OVC020 M05/M07 A2949 RMK SF5NS3 SLP999=

CYXU;2005-03-11 09:26;SPECI CYXU 110926Z 11004KT 6SM -SN SCT007 OVC018 RMK SF4NS4=

CYXU;2005-03-11 10:00;METAR CYXU 111000Z 09005KT 4SM -SN SCT007 OVC014 M05/M07 A2943 RMK SF3NS5 SLP981=

CYXU;2005-03-11 11:00;METAR CYXU 111100Z 07003KT 4SM -SN BKN025 OVC095 M06/M07 A2944 RMK NS6AC2 SLP982=

CYXU;2005-03-11 12:00;METAR CYXU 111200Z 01003KT 4SM -SN BKN021 OVC094 M06/M08 A2943 RMK NS6AC2 /S02/ SLP981=

CYXU;2005-03-11 12:41;SPECI CYXU 111241Z 36003KT 2SM -SN OVC020 RMK SN2NS6=

CYXU;2005-03-11 13:00;METAR CYXU 111300Z 35005KT 2 1/2SM -SN OVC024 M06/M07 A2944 RMK SN2NS6 SLP982=

CYXU;2005-03-11 13:47;SPECI CYXU 111347Z 35004KT 3SM -SN BR FEW020 BKN240 RMK SC2CI1=

CYXU;2005-03-11 14:00;METAR CYXU 111400Z 34002KT 4SM -SN BR FEW100 BKN240 M05/M07 A2944 RMK AC2CI0 SLP982=

CYXU;2005-03-11 14:39;SPECI CYXU 111439Z 35003KT 6SM BR SCT020 SCT100 OVC240 RMK SC3AC1CI0=

CYXU;2005-03-11 16:00;METAR CYXU 111600Z 32007KT 10SM OVC013 M03/M07 A2944 RMK CU6 SLP981=

CYXU;2005-03-11 16:16;SPECI CYXU 111616Z 33009KT 10SM FEW013 FEW180 OVC240 RMK CU2AC1CI1=

CYXU;2005-03-11 17:00;METAR CYXU 111700Z 34010KT 10SM SCT018TCU OVC240 M02/M06 A2944 RMK TCU4CI0 SLP983=

CYXU;2005-03-11 18:00;METAR CYXU 111800Z 30011KT 12SM BKN025TCU OVC240 M02/M07 A2943 RMK TCU5CI1 SLP979=

CYXU;2005-03-11 19:00;METAR CYXU 111900Z 31007KT 15SM BKN022 OVC240 M02/M08 A2942 RMK CU5CI1 TCU ASOCTD SLP974=

CYXU;2005-03-11 21:00;METAR CYXU 112100Z 30007KT 15SM FEW025 BKN240 M03/M10 A2943 RMK CU2CI1 SLP980=

CYXU;2005-03-11 22:00;METAR CYXU 112200Z 31005KT 15SM FEW030 BKN240 M03/M10 A2945 RMK CU1CI2 SLP984=

CYXU;2005-03-11 23:00;METAR CYXU 112300Z 00000KT 15SM FEW030 BKN240 M03/M11 A2945 RMK CU1CI3 SLP986=

CYXU;2005-03-12 00:00;METAR CYXU 120000Z 00000KT 15SM SCT240 M06/M11 A2946 RMK CI4 SLP989=

CYXU;2005-03-12 01:00;METAR CYXU 120100Z 12003KT 15SM BKN170 M06/M11 A2945 RMK AC4 SLP987=

CYXU;2005-03-12 02:00;METAR CYXU 120200Z 15004KT 15SM SCT060 BKN100 BKN200 M06/M11 A2944 RMK SC3AC2CI1 SLP984=

CYXU;2005-03-12 04:00;METAR CYXU 120400Z 17004KT 15SM SCT056 OVC100 M06/M09 A2941 RMK SC3AC5 SLP973=

CYXU;2005-03-12 05:00;METAR CYXU 120500Z 18005KT 15SM FEW058 FEW100 M05/M08 A2938 RMK SC2AC1 SLP962=

CYXU;2005-03-12 07:00;METAR CYXU 120700Z 20007KT 15SM -SN BKN033 M04/M06 A2933 RMK SC7 TCU ASOCTD SLP944=

CYXU;2005-03-12 08:18;SPECI CYXU 120818Z 18007KT 5SM -SN OVC009 RMK SF8 TCU ASOCTD=

CYXU;2005-03-12 11:18;SPECI CYXU 121118Z 15008KT 3/4SM R15/P6000FT/U -SHSN VV008 RMK SN8 TCU ASOCTD=

CYXU;2005-03-12 11:30;SPECI CYXU 121130Z 15009KT 1SM R15/P6000FT/U -SN OVC011 RMK SN3NS5=

CYXU;2005-03-12 12:00;METAR CYXU 121200Z 14008KT 1/2SM R15/P6000FT/D SN VV005 M04/M05 A2924 RMK SN8 /S01/ SLP914=

CYXU;2005-03-12 13:00;METAR CYXU 121300Z 09008KT 1/4SM R15/3000V4500FT/D +SN VV004 M04/M05 A2924 RMK SN8 /S01/ SLP914=

CYXU;2005-03-12 13:08;SPECI CYXU 121308Z 09008KT 1/2SM R15/3500FT/N SN VV005 RESN RMK SN8=

CYXU;2005-03-12 14:00;METAR CYXU 121400Z 08011KT 1SM R15/P6000FT/U -SN BKN007 OVC020 M04/M05 A2924 RESN RMK SN3SF3NS2 /S05/ SLP914=

CYXU;2005-03-12 14:27;SPECI CYXU 121427Z 09007KT 1SM R15/P6000FT/U -SN OVC013 RMK SN3NS5=

CYXU;2005-03-12 14:46;SPECI CYXU 121446Z 08008KT 3/4SM R15/5000FT/D -SN OVC020 RMK SN5NS3=

CYXU;2005-03-12 14:52;SPECI CYXU 121452Z 07009KT 1SM R15/5500FT/U -SN OVC015 RMK SN5NS3=

CYXU;2005-03-12 15:00;METAR CYXU 121500Z 07008KT 1SM R15/4500VP6000FT/U -SN OVC016 M03/M05 A2925 RMK SN5NS3 SLP917=

CYXU;2005-03-12 15:32;SPECI CYXU 121532Z 08008KT 3SM -SN OVC010 RMK SC8=

CYXU;2005-03-12 16:00;METAR CYXU 121600Z 07008KT 3SM -SN BR OVC010 M02/M05 A2927 RMK SC8 SLP924=

CYXU;2005-03-12 17:47;SPECI CYXU 121747Z 35009KT 2SM -SN BR OVC020 RMK FG1SC7=

CYXU;2005-03-12 18:00;METAR CYXU 121800Z 34008KT 1 1/2SM -SHSN OVC014TCU M02/M05 A2936 RMK SN2TCU6 SLP953=

CYXU;2005-03-12 18:22;SPECI CYXU 121822Z 32010KT 6SM -SHSN OVC020TCU RMK TCU8=

CYXU;2005-03-12 19:00;METAR CYXU 121900Z 31011KT 10SM -SHSN BKN020TCU OVC240 M01/M06 A2939 RMK TCU6CI2 SLP964=

CYXU;2005-03-12 19:17;SPECI CYXU 121917Z 31013KT 1SM R15/P6000FT/D -SHSN OVC017TCU RMK SN2TCU6=

CYXU;2005-03-12 19:19;SPECI CYXU 121919Z 32013G18KT 1/2SM R15/3500VP6000FT/D SHSN VV010 RMK SN8 TCU ASOCTD=

CYXU;2005-03-12 19:22;SPECI CYXU 121922Z 33011G18KT 1/2SM R15/3000VP6000FT/D SHSN VV005 RMK SN8 TCU ASOCTD=

CYXU;2005-03-12 19:37;SPECI CYXU 121937Z 34009KT 3/4SM R15/3000VP6000FT/U -SHSN OVC023TCU RESN RMK SN5TCU3=

CYXU;2005-03-12 19:47;SPECI CYXU 121947Z 35008KT 1 1/2SM R15/4000VP6000FT/U -SHSN BKN024TCU RESN RMK SN2TCU5=

CYXU;2005-03-12 19:52;SPECI CYXU 121952Z 32013KT 3SM -SHSN BKN034TCU RMK SN1TCU6=

CYXU;2005-03-12 20:00;METAR CYXU 122000Z 32012G17KT 8SM -SHSN FEW008 BKN020TCU M01/M04 A2943 RESN RMK CF2TCU6 SLP976=

CYXU;2005-03-12 20:36;SPECI CYXU 122036Z 33010G16KT 15SM FEW020 FEW250 RMK CU2CI1=

CYXU;2005-03-12 21:00;METAR CYXU 122100Z 31011G17KT 15SM SCT020 SCT250 M01/M06 A2948 RMK CU4CI1 SLP993=

CYXU;2005-03-12 22:00;METAR CYXU 122200Z 30013KT 15SM FEW014 BKN032 M02/M07 A2953 RMK CU1SC6 SLP009=

CYXU;2005-03-13 00:00;METAR CYXU 130000Z 28003KT 15SM FEW020 FEW250 M06/M09 A2960 RMK SC2CI1 SLP037=

CYXU;2005-03-13 01:00;METAR CYXU 130100Z 00000KT 15SM BKN068 M06/M09 A2963 RMK AC6 SLP045=

CYXU;2005-03-13 03:00;METAR CYXU 130300Z 00000KT 15SM OVC068 M06/M09 A2966 RMK AC8 SLP057=

CYXU;2005-03-13 04:00;METAR CYXU 130400Z 00000KT 15SM OVC069 M06/M09 A2967 RMK AC8 SLP060=

CYXU;2005-03-13 05:38;SPECI CYXU 130538Z 00000KT 10SM -SN OVC070 RMK AC8=

CYXU;2005-03-13 06:00;METAR CYXU 130600Z 22003KT 10SM -SN FEW022 BKN035 OVC070 M07/M10 A2969 RMK SC2SC3AC3 FROIN SLP066=

CYXU;2005-03-13 08:46;SPECI CYXU 130846Z 31006KT 6SM -SN BKN007 OVC060 RMK SF5SC3=

CYXU;2005-03-13 10:00;METAR CYXU 131000Z 32006KT 6SM -SN FEW020 BKN056 M07/M10 A2972 RMK SC1SC4 FROIN SLP077=

CYXU;2005-03-13 11:00;METAR CYXU 131100Z 28005KT 12SM BKN053 M08/M10 A2975 RMK SC6 SLP086=

CYXU;2005-03-13 12:00;METAR CYXU 131200Z 31006KT 15SM BKN052 M08/M10 A2979 RMK SC6 FROIN SLP103=

CYXU;2005-03-13 12:15;SPECI CYXU 131215Z 31005KT 15SM -SN BKN051 RMK SC6 PCPN VRY LGT=

CYXU;2005-03-13 15:00;METAR CYXU 131500Z 33009KT 15SM FEW045 M06/M13 A2987 RMK SC2 CU ASOCTD SLP130=

CYXU;2005-03-13 16:00;METAR CYXU 131600Z 31011KT 15SM FEW035 FEW140 M06/M13 A2990 RMK CU2AC1 SLP139=

CYXU;2005-03-13 17:00;METAR CYXU 131700Z 31011KT 15SM FEW030 M06/M13 A2991 RMK CU2 SLP144=

CYXU;2005-03-13 18:00;METAR CYXU 131800Z 32011KT 15SM FEW030 FEW180 M05/M13 A2990 RMK CU2AC1 TCU TPS NW SLP141=

CYXU;2005-03-13 18:54;SPECI CYXU 131854Z 31006KT 15SM -SHSN FEW030 FEW180 RMK CU2AC1 TCU TPS NW=

CYXU;2005-03-13 21:00;METAR CYXU 132100Z 30007KT 15SM BKN032 M05/M12 A2993 RMK CU7 SLP151=

CYXU;2005-03-13 23:00;METAR CYXU 132300Z 29005KT 15SM FEW030 FEW250 M06/M13 A2995 RMK SC1CI1 SLP158=

CYXU;2005-03-14 00:00;METAR CYXU 140000Z 28004KT 15SM SKC M08/M13 A2998 RMK SLP170=

CYXU;2005-03-14 01:00;METAR CYXU 140100Z 27003KT 15SM SKC M09/M14 A3000 RMK SLP176=

CYXU;2005-03-14 03:00;METAR CYXU 140300Z 33002KT 15SM SKC M12/M15 A3003 RMK SLP186=

CYXU;2005-03-14 04:00;METAR CYXU 140400Z 30002KT 15SM SKC M12/M15 A3003 RMK FROIN SLP186=

CYXU;2005-03-14 05:00;METAR CYXU 140500Z 00000KT 15SM SKC M13/M16 A3002 RMK FROIN SLP185=

CYXU;2005-03-14 07:00;METAR CYXU 140700Z 00000KT 15SM SKC M16/M18 A3002 RMK SLP184=

CYXU;2005-03-14 10:00;METAR CYXU 141000Z 00000KT 15SM SKC M17/M19 A3004 RMK FROIN SLP191=

CYXU;2005-03-14 12:00;METAR CYXU 141200Z 08002KT 15SM FEW180 M17/M21 A3005 RMK AC1 FROIN SLP196=

CYXU;2005-03-14 13:00;METAR CYXU 141300Z 00000KT 15SM FEW180 M16/M19 A3006 RMK AC1 SLP201=

CYXU;2005-03-14 14:00;METAR CYXU 141400Z 09002KT 15SM FEW170 M10/M12 A3008 RMK AC1 SLP206=

CYXU;2005-03-14 15:00;METAR CYXU 141500Z 00000KT 15SM FEW180 M05/M10 A3009 RMK AC1 SLP206=

CYXU;2005-03-14 16:00;METAR CYXU 141600Z 11004KT 15SM FEW026 FEW180 M03/M09 A3009 RMK CU2AC1 SLP206=

CYXU;2005-03-14 17:00;METAR CYXU 141700Z 36004KT 15SM BKN030 M03/M11 A3008 RMK CU5 SLP205=

CYXU;2005-03-14 18:00;METAR CYXU 141800Z 07003KT 15SM BKN040 M03/M10 A3007 RMK CU5 SLP202=

CYXU;2005-03-14 19:00;METAR CYXU 141900Z 07002KT 15SM BKN042 BKN080 M03/M10 A3007 RMK CU6AC1 VIRGA S-SE SLP199=

CYXU;2005-03-14 21:00;METAR CYXU 142100Z 09002KT 15SM BKN039 BKN080 M02/M11 A3007 RMK SC5AC1 CU ASOCTD SLP201=

CYXU;2005-03-14 22:00;METAR CYXU 142200Z 00000KT 15SM BKN039 BKN080 M02/M11 A3008 RMK SC5AC1 SLP205=

CYXU;2005-03-14 23:00;METAR CYXU 142300Z 34002KT 15SM BKN040 M03/M11 A3010 RMK SC7 SLP211=

CYXU;2005-03-15 00:00;METAR CYXU 150000Z 00000KT 15SM BKN040 M05/M11 A3011 RMK SC5 SLP216=

CYXU;2005-03-15 01:00;METAR CYXU 150100Z 19003KT 15SM FEW035 M06/M11 A3012 RMK SC2 SLP219=

CYXU;2005-03-15 04:00;METAR CYXU 150400Z 00000KT 15SM SKC M10/M13 A3014 RMK FROIN SLP223=

CYXU;2005-03-15 07:00;METAR CYXU 150700Z 00000KT 15SM FEW010 M13/M15 A3015 RMK ST1 FROIN SLP226=

CYXU;2005-03-15 09:00;METAR CYXU 150900Z 00000KT 8SM FEW010 M14/M17 A3015 RMK ST2 FROIN SLP227=

CYXU;2005-03-15 10:00;METAR CYXU 151000Z 11003KT 4SM BR SCT010 M15/M17 A3016 RMK ST3 FROIN SLP230=

CYXU;2005-03-15 11:00;METAR CYXU 151100Z 00000KT 4SM BR SKC M15/M18 A3017 RMK FROIN SLP233=

CYXU;2005-03-15 11:36;SPECI CYXU 151136Z 00000KT 2SM BR SKC RMK FG2=

CYXU;2005-03-15 11:42;SPECI CYXU 151142Z 00000KT 2SM BR BKN001 RMK ST5=

CYXU;2005-03-15 12:00;METAR CYXU 151200Z 00000KT 3SM BR OVC000 M15/M17 A3018 RMK ST2 FROIN SLP239=

CYXU;2005-03-15 13:00;METAR CYXU 151300Z 00000KT 3SM R15/0300V0700FT/N BR BKN000 M12/M15 A3020 RMK ST2 SLP245=

CYXU;2005-03-15 13:28;SPECI CYXU 151328Z 08002KT 3SM BR FEW000 RMK ST1=

CYXU;2005-03-15 14:00;METAR CYXU 151400Z 00000KT 3SM BR SKC M08/M11 A3021 RMK SLP248=

CYXU;2005-03-15 15:00;METAR CYXU 151500Z 10003KT 5SM HZ SKC M04/M09 A3021 RMK SLP245=

CYXU;2005-03-15 16:00;METAR CYXU 151600Z 09002KT 6SM HZ FEW025 M01/M07 A3022 RMK CF1 SLP248=

CYXU;2005-03-15 17:00;METAR CYXU 151700Z 29002KT 10SM FEW030 BKN070 00/M07 A3021 RMK CU2AC4 SLP245=

CYXU;2005-03-15 18:00;METAR CYXU 151800Z 25009KT 10SM BKN037 01/M07 A3019 RMK CU6 SLP239=

CYXU;2005-03-15 21:00;METAR CYXU 152100Z 27009KT 10SM -SHSN BKN040 BKN060 00/M06 A3015 RMK SC5CU2 SLP226=

CYXU;2005-03-15 22:00;METAR CYXU 152200Z 25007KT 12SM -SHSN SCT040 BKN070 M00/M05 A3015 RMK CU3AC4 SLP227=

CYXU;2005-03-15 22:12;SPECI CYXU 152212Z 23008KT 15SM FEW040 BKN070 RMK CU1AC6=

CYXU;2005-03-16 00:00;METAR CYXU 160000Z 28004KT 15SM BKN047 BKN072 M01/M07 A3016 RMK CU5AC2 SLP232=

CYXU;2005-03-16 01:00;METAR CYXU 160100Z 27005KT 15SM BKN073 M01/M07 A3017 RMK AC7 SLP233=

CYXU;2005-03-16 02:00;METAR CYXU 160200Z 27005KT 12SM -SHSN BKN040 BKN070 M01/M07 A3017 RMK CU5AC2 SLP233=

CYXU;2005-03-16 03:00;METAR CYXU 160300Z 28005KT 12SM SCT040 BKN070 M02/M07 A3017 RMK CU3AC3 OCNL SW- SLP230=

CYXU;2005-03-16 04:00;METAR CYXU 160400Z 26005KT 10SM FEW030 BKN070 M03/M06 A3017 RMK CU1AC6 SLP229=

CYXU;2005-03-16 07:00;METAR CYXU 160700Z 28005KT 8SM SCT070 M04/M07 A3017 RMK AC2 F SLP228=

CYXU;2005-03-16 08:28;SPECI CYXU 160828Z 31005KT 8SM BKN009 BKN070 RMK ST6AC2=

CYXU;2005-03-16 09:00;METAR CYXU 160900Z 31008KT 8SM BKN008 OVC070 M04/M07 A3014 RMK ST7AC1 SLP220=

CYXU;2005-03-16 09:27;SPECI CYXU 160927Z 31008KT 8SM BKN007 OVC070 RMK ST7AC1=

CYXU;2005-03-16 10:00;METAR CYXU 161000Z 31008KT 8SM OVC007 M04/M06 A3014 RMK ST8 SLP220=

CYXU;2005-03-16 10:37;SPECI CYXU 161037Z 29004KT 8SM BKN009 OVC070 RMK SF7AC1=

CYXU;2005-03-16 11:37;SPECI CYXU 161137Z 30004KT 8SM OVC016 RMK ST8=

CYXU;2005-03-16 12:00;METAR CYXU 161200Z 27004KT 8SM OVC016 M04/M06 A3014 RMK ST8 SLP221=

CYXU;2005-03-16 12:15;SPECI CYXU 161215Z 26004KT 8SM OVC014 RMK ST8=

CYXU;2005-03-16 13:00;METAR CYXU 161300Z 27003KT 8SM OVC013 M04/M06 A3016 RMK ST8 SLP227=

CYXU;2005-03-16 13:17;SPECI CYXU 161317Z 28004KT 8SM -SN OVC011 RMK ST8=

CYXU;2005-03-16 14:00;METAR CYXU 161400Z 31005KT 8SM -SN OVC012 M03/M06 A3017 RMK ST8 S VRY LGT SLP229=

CYXU;2005-03-16 14:19;SPECI CYXU 161419Z 33005KT 10SM BKN012 RMK ST7=

CYXU;2005-03-16 15:00;METAR CYXU 161500Z 30002KT 10SM BKN016 M02/M06 A3018 RMK SC6 SLP232=

CYXU;2005-03-16 16:00;METAR CYXU 161600Z 33004KT 10SM BKN018 M01/M07 A3017 RMK SC7 CU ASOCTD SLP231=

CYXU;2005-03-16 17:00;METAR CYXU 161700Z 30002KT 12SM BKN019 M01/M07 A3017 RMK CU7 SLP228=

CYXU;2005-03-16 18:00;METAR CYXU 161800Z 29005KT 12SM BKN020 M01/M07 A3013 RMK CU6 SLP215=

CYXU;2005-03-16 19:00;METAR CYXU 161900Z 35005KT 12SM FEW020 M00/M07 A3009 RMK CU2 SLP202=

CYXU;2005-03-16 20:00;METAR CYXU 162000Z 07002KT 15SM FEW020 M00/M07 A3009 RMK CU2 SLP203=

CYXU;2005-03-16 21:00;METAR CYXU 162100Z 11002KT 15SM FEW020 M00/M07 A3007 RMK CU2 SLP195=

CYXU;2005-03-16 23:00;METAR CYXU 162300Z 21006KT 15SM FEW020 FEW040 M01/M07 A3006 RMK CU1SC1 SLP192=

CYXU;2005-03-17 00:00;METAR CYXU 170000Z 20007KT 15SM OVC050 M02/M06 A3007 RMK SC8 SLP194=

CYXU;2005-03-17 02:00;METAR CYXU 170200Z 21005KT 15SM -SN OVC056 M02/M06 A3006 RMK SC8 SLP192=

CYXU;2005-03-17 03:28;SPECI CYXU 170328Z 10003KT 15SM SCT056 BKN080 RMK SC4AC2=

CYXU;2005-03-17 07:33;SPECI CYXU 170733Z 14008KT 8SM -SN BKN038 OVC055 RMK SC5SC3=

CYXU;2005-03-17 09:00;METAR CYXU 170900Z 18005KT 8SM SCT040 BKN055 M04/M08 A2994 RMK SC4SC2 SLP152=

CYXU;2005-03-17 11:00;METAR CYXU 171100Z 13003KT 8SM SCT031 M06/M08 A2993 RMK SC3 SLP146=

CYXU;2005-03-17 12:00;METAR CYXU 171200Z 00000KT 6SM BCFG FEW240 M06/M09 A2993 RMK CI0 SLP150=

CYXU;2005-03-17 13:00;METAR CYXU 171300Z 00000KT 5SM HZ SCT240 M05/M08 A2994 RMK CI0 SLP152=

CYXU;2005-03-17 15:00;METAR CYXU 171500Z 29008KT 8SM FEW023 BKN240 00/M05 A2995 RMK SC1CI0 TR CF SLP155=

CYXU;2005-03-17 16:00;METAR CYXU 171600Z 29009KT 8SM FEW030 BKN240 01/M05 A2996 RMK CU1CI0 SLP158=

CYXU;2005-03-17 17:00;METAR CYXU 171700Z 32009KT 8SM SCT015 M01/M05 A2997 RMK CU4 SLP162=

CYXU;2005-03-17 18:00;METAR CYXU 171800Z 28007KT 8SM OVC017 M01/M06 A2997 RMK SC8 SLP162=

CYXU;2005-03-17 19:00;METAR CYXU 171900Z 29010KT 8SM OVC017 M01/M06 A2996 RMK SC8 SLP158=

CYXU;2005-03-17 21:00;METAR CYXU 172100Z 32006KT 8SM BKN026 M01/M06 A2996 RMK SC7 SLP157=

CYXU;2005-03-17 22:00;METAR CYXU 172200Z 30007KT 8SM BKN030 M01/M07 A2996 RMK SC6 SLP159=

CYXU;2005-03-17 23:00;METAR CYXU 172300Z 30003KT 12SM FEW030 M01/M06 A2997 RMK SC1 SLP163=

CYXU;2005-03-18 00:00;METAR CYXU 180000Z 29003KT 12SM SKC M03/M07 A3000 RMK SLP172=

CYXU;2005-03-18 02:00;METAR CYXU 180200Z 33003KT 12SM SKC M05/M08 A3001 RMK FROIN SLP177=

CYXU;2005-03-18 04:00;METAR CYXU 180400Z 00000KT 8SM SKC M08/M09 A3001 RMK FROIN SLP177=

CYXU;2005-03-18 04:16;SPECI CYXU 180416Z 01002KT 2 1/2SM BR SKC RMK FG2 VIS E-S 3/4=

CYXU;2005-03-18 04:25;SPECI CYXU 180425Z 36002KT 6SM BCFG SKC RMK VIS E-S 3/4=

CYXU;2005-03-18 07:00;METAR CYXU 180700Z 34003KT 6SM HZ BKN130 M09/M10 A3002 RMK AC6 FROIN SLP179=

CYXU;2005-03-18 09:00;METAR CYXU 180900Z 35002KT 6SM HZ BKN110 M09/M11 A3002 RMK AC4 FROIN SLP180=

CYXU;2005-03-18 10:00;METAR CYXU 181000Z 36005KT 5SM BR FEW006 OVC110 M08/M10 A3003 RMK SF2AC6 FROIN SLP185=

CYXU;2005-03-18 10:19;SPECI CYXU 181019Z 35005KT 3SM BR BKN003 OVC110 RMK SF6AC2 FROIN=

CYXU;2005-03-18 10:42;SPECI CYXU 181042Z 35005KT 2SM BR OVC002 RMK FG2SF6 CIG VRBL 1-3 / FROIN=

CYXU;2005-03-18 11:00;METAR CYXU 181100Z 34003KT 2SM BR OVC002 M07/M09 A3005 RMK FG3SF5 CIG=

CYXU;2005-03-18 11:19;SPECI CYXU 181119Z 36002KT 1/4SM R15/2400VP6000FT/D FZFG VV001 RMK FG8 FROIN=

CYXU;2005-03-18 11:50;SPECI CYXU 181150Z 36002KT 1/2SM R15/2800V4500FT/U FZFG OVC001 RMK FG4SF4 FROIN=

CYXU;2005-03-18 12:00;METAR CYXU 181200Z 01002KT 3/4SM R15/3000VP6000FT/U BR BKN001 OVC100 M07/M08 A3007 RMK FG2SF5AC1 FROIN SLP197=

CYXU;2005-03-18 12:09;SPECI CYXU 181209Z 00000KT 1 1/2SM BR SCT001 BKN100 RMK FG2SF2AC3 FROIN=

CYXU;2005-03-18 13:00;METAR CYXU 181300Z 00000KT 2SM BR FEW001 BKN100 M06/M08 A3007 RMK SF2AC2 FROIN SLP196=

CYXU;2005-03-18 13:31;SPECI CYXU 181331Z 00000KT 3SM BR FEW005 FEW100 SCT240 RMK SF1AC2CI2=

CYXU;2005-03-18 15:00;METAR CYXU 181500Z 00000KT 6SM HZ FEW100 SCT240 M01/M06 A3007 RMK AC1CI2 SLP198=

CYXU;2005-03-18 16:00;METAR CYXU 181600Z 05003KT 12SM FEW080 FEW240 M01/M07 A3007 RMK AC1CI2 SLP196=

CYXU;2005-03-18 17:00;METAR CYXU 181700Z 05004KT 15SM BKN077 BKN240 M01/M07 A3007 RMK AC5CI1 SLP195=

CYXU;2005-03-18 18:00;METAR CYXU 181800Z 02005KT 15SM BKN077 BKN240 00/M07 A3007 RMK AC6CI1 SLP197=

CYXU;2005-03-18 19:00;METAR CYXU 181900Z 06004KT 15SM BKN072 BKN240 01/M07 A3007 RMK AC6CI1 SLP195=

CYXU;2005-03-18 22:00;METAR CYXU 182200Z 05004KT 15SM BKN079 OVC220 00/M07 A3007 RMK AC5CI2 SLP195=

CYXU;2005-03-18 23:00;METAR CYXU 182300Z 04003KT 15SM BKN064 OVC240 00/M07 A3007 RMK SC6CI1 SLP196=

CYXU;2005-03-19 01:00;METAR CYXU 190100Z 06004KT 15SM BKN095 BKN200 M01/M07 A3008 RMK AC5CI1 SLP200=

CYXU;2005-03-19 03:00;METAR CYXU 190300Z 06005KT 15SM FEW140 FEW230 M04/M08 A3009 RMK AC1CI2 SLP203=

CYXU;2005-03-19 04:00;METAR CYXU 190400Z 06006KT 15SM BKN120 M03/M08 A3009 RMK AC4 SLP203=

CYXU;2005-03-19 07:00;METAR CYXU 190700Z 09009KT 12SM SCT093 BKN140 M02/M07 A3010 RMK AC3AC2 SLP203=

CYXU;2005-03-19 09:00;METAR CYXU 190900Z 10015KT 12SM BKN090 OVC200 M02/M08 A3007 RMK AC6CI2 SLP193=

CYXU;2005-03-19 10:00;METAR CYXU 191000Z 10012KT 15SM OVC091 M02/M08 A3008 RMK AC8 SLP198=

CYXU;2005-03-19 11:00;METAR CYXU 191100Z 09014KT 15SM BKN090 OVC160 M02/M08 A3007 RMK AC6AC2 SLP192=

CYXU;2005-03-19 12:00;METAR CYXU 191200Z 09013KT 10SM BKN084 OVC150 M02/M08 A3007 RMK AC6AC2 SLP196=

CYXU;2005-03-19 13:00;METAR CYXU 191300Z 09016KT 10SM BKN085 OVC150 M02/M07 A3005 RMK AC7AC1 SLP188=

CYXU;2005-03-19 14:00;METAR CYXU 191400Z 09015KT 15SM BKN080 OVC150 M01/M07 A3004 RMK AC7AC1 SLP186=

CYXU;2005-03-19 16:00;METAR CYXU 191600Z 09015KT 12SM OVC060 02/M05 A3002 RMK SC8 SLP178=

CYXU;2005-03-19 20:00;METAR CYXU 192000Z 09017KT 12SM BKN056 OVC100 03/M04 A2996 RMK SC6AS2 SLP156=

CYXU;2005-03-19 20:54;SPECI CYXU 192054Z 09018KT 12SM -RA BKN045 OVC080 RMK SC6AC2=

CYXU;2005-03-19 22:00;METAR CYXU 192200Z 08015KT 8SM -RA BKN030 OVC045 02/M03 A2996 RMK SC6SC2 SLP155=

CYXU;2005-03-19 23:37;SPECI CYXU 192337Z 09015KT 3SM -RA BR OVC029 RMK SC8=

CYXU;2005-03-20 00:00;METAR CYXU 200000Z 08015KT 4SM -RA BR OVC032 01/M02 A2996 RMK SC8 SLP157=

CYXU;2005-03-20 00:40;SPECI CYXU 200040Z 09013KT 4SM -RASN OVC032 RMK SC8=

CYXU;2005-03-20 00:48;SPECI CYXU 200048Z 09014KT 4SM -SHRAPL OVC032 RMK SC8 ACC EMBD=

CYXU;2005-03-20 02:40;SPECI CYXU 200240Z 09011KT 2 1/2SM -SHSN OVC022 RMK SN2SC6 ACC EMBD=

CYXU;2005-03-20 02:50;SPECI CYXU 200250Z 09010KT 1SM R15/P6000FT/N -SHSN OVC017 RMK SN3SC5 ACC EMBD=

CYXU;2005-03-20 03:00;METAR CYXU 200300Z 09009KT 1SM R15/P6000FT/D -SHSN VV017 M01/M02 A2997 RMK SN8 ACC EMBD /S01/ SLP161=

CYXU;2005-03-20 03:23;SPECI CYXU 200323Z 09010KT 1 1/2SM -SHSN SCT005 OVC019 RMK SN2SF1SC5 ACC EMBD=

CYXU;2005-03-20 03:42;SPECI CYXU 200342Z 09012KT 2SM -SHSN OVC021 RMK SN2SC6 ACC EMBD=

CYXU;2005-03-20 04:00;METAR CYXU 200400Z 09011KT 4SM -SHSNPL FEW007 OVC020 M01/M02 A2996 RMK SF2SC6 ACC EMBD /S03/ SLP156=

CYXU;2005-03-20 04:46;SPECI CYXU 200446Z 09010KT 6SM -SHSN OVC017 RMK SC8 ACC EMBD=

CYXU;2005-03-20 05:00;METAR CYXU 200500Z 09011KT 8SM -SHSN OVC018 M01/M03 A2995 RMK SC8 ACC EMBD SLP152=

CYXU;2005-03-20 07:00;METAR CYXU 200700Z 08011KT 4SM -SHSNPL BKN018 OVC030 M01/M03 A2993 RMK SC6SC2 ACC EMBD SLP145=

CYXU;2005-03-20 07:24;SPECI CYXU 200724Z 08011KT 6SM -FZRA BKN017 OVC029 RMK SC6SC2=

CYXU;2005-03-20 08:25;SPECI CYXU 200825Z 08010KT 10SM -FZRA OVC013 RMK SC8 PCPN VRY LGT=

CYXU;2005-03-20 09:55;SPECI CYXU 200955Z 08010KT 4SM BR BKN005 OVC010 REFZDZ RMK SF5SC3=

CYXU;2005-03-20 10:00;METAR CYXU 201000Z 08010KT 5SM BR BKN005 OVC010 M00/M02 A2991 REFZDZ RMK SF5SC3 SLP140=

CYXU;2005-03-20 11:00;METAR CYXU 201100Z 08008KT 5SM BR SCT005 OVC009 00/M02 A2993 RMK SF3SC5 SLP144=

CYXU;2005-03-20 12:13;SPECI CYXU 201213Z 08007KT 4SM -RA BR OVC005 RMK ST8=

CYXU;2005-03-20 13:00;METAR CYXU 201300Z 08009KT 3SM -RA BR OVC004 00/M01 A2994 RMK ST8 SLP150=

CYXU;2005-03-20 14:00;METAR CYXU 201400Z 07007KT 3SM -RA BR OVC004 00/M01 A2995 RMK ST8 SLP153=

CYXU;2005-03-20 15:00;METAR CYXU 201500Z 07007KT 3SM -RA BR OVC004 00/M01 A2996 RMK ST8 SLP157=

CYXU;2005-03-20 16:00;METAR CYXU 201600Z 08006KT 3SM -RASN BR OVC005 01/M01 A2997 RMK ST8 SLP160=

CYXU;2005-03-20 16:21;SPECI CYXU 201621Z 08006KT 3SM -RA BR OVC005 RMK ST8=

CYXU;2005-03-20 17:00;METAR CYXU 201700Z 08007KT 4SM -RA BR OVC005 01/M01 A2997 RMK ST8 SLP161=

CYXU;2005-03-20 17:42;SPECI CYXU 201742Z 09004KT 4SM BR OVC007 RMK ST8=

CYXU;2005-03-20 19:47;SPECI CYXU 201947Z 00000KT 3SM -SN BR OVC008 RMK ST8=

CYXU;2005-03-20 20:28;SPECI CYXU 202028Z 11002KT 1 1/2SM R15/6000FT/D -SN OVC006 RMK FG2ST6=

CYXU;2005-03-20 20:35;SPECI CYXU 202035Z 00000KT 1SM R15/5000FT/D -SN BR OVC006 RMK FG2ST6=

CYXU;2005-03-20 21:09;SPECI CYXU 202109Z 09002KT 1 1/2SM R15/6000FT/N -SN BR OVC005 RMK FG2ST6=

CYXU;2005-03-20 21:28;SPECI CYXU 202128Z 00000KT 2SM -SNPL BR OVC004 RMK FG2ST6=

CYXU;2005-03-20 22:00;METAR CYXU 202200Z 00000KT 1 1/2SM -SNPL BR OVC004 01/M01 A2999 RMK FG2ST6 SLP167=

CYXU;2005-03-20 22:35;SPECI CYXU 202235Z 00000KT 3/4SM R15/6000FT/U -SN BR OVC004 RMK FG3ST5=

CYXU;2005-03-20 23:00;METAR CYXU 202300Z 22003KT 3/4SM R15/P6000FT/U -SN BR OVC003 00/M01 A3001 RMK FG3ST5 SLP174=

CYXU;2005-03-20 23:22;SPECI CYXU 202322Z 29003KT 1SM R15/P6000FT/U -SN BR OVC004 RMK FG2ST6=

CYXU;2005-03-20 23:39;SPECI CYXU 202339Z 27004KT 1 1/2SM -SN BR OVC004 RMK FG2ST6=

CYXU;2005-03-20 23:53;SPECI CYXU 202353Z 28004KT 2SM -SN BR OVC004 RMK FG2ST6=

CYXU;2005-03-21 00:00;METAR CYXU 210000Z 28004KT 2SM -SN BR OVC005 01/M01 A3002 RMK FG2ST6 SLP176=

CYXU;2005-03-21 00:36;SPECI CYXU 210036Z 29004KT 1SM R15/P6000FT/D -SN BR OVC005 RMK FG2ST6=

CYXU;2005-03-21 01:38;SPECI CYXU 210138Z 27003KT 2SM -SN BR BKN005 OVC008 RMK FG2ST5ST2 /S01/=

CYXU;2005-03-21 03:00;METAR CYXU 210300Z 28004KT 1 1/2SM -SHSN BR OVC005 00/M01 A3003 RMK ST8 SLP178=

CYXU;2005-03-21 05:00;METAR CYXU 210500Z 29003KT 1 1/2SM -SN BR OVC004 00/M01 A3002 RMK ST8 SLP177=

CYXU;2005-03-21 05:46;SPECI CYXU 210546Z 30005KT 1 1/2SM BR OVC008 RMK ST8=

CYXU;2005-03-21 06:00;METAR CYXU 210600Z 30004KT 4SM BR OVC008 00/M01 A3003 RMK ST8 SLP178=

CYXU;2005-03-21 07:00;METAR CYXU 210700Z 29005KT 6SM BR BKN007 OVC043 M00/M02 A3003 RMK ST7SC1 SLP179=

CYXU;2005-03-21 09:00;METAR CYXU 210900Z 30005KT 6SM BR OVC005 M01/M03 A3003 RMK ST8 SLP180=

CYXU;2005-03-21 10:00;METAR CYXU 211000Z 27007KT 6SM BR OVC005 M01/M03 A3004 RMK ST8 SLP183=

CYXU;2005-03-21 11:08;SPECI CYXU 211108Z 29005KT 1/2SM R15/3500VP6000FT/D FZFG VV002 RMK FG8=

CYXU;2005-03-21 12:00;METAR CYXU 211200Z 28005KT 3/8SM R15/2000V3000FT/U FZFG VV001 M01/M02 A3007 RMK FG8 SLP193=

CYXU;2005-03-21 13:00;METAR CYXU 211300Z 30005KT 1/2SM R15/2800FT/D -SG FZFG VV001 M00/M01 A3007 RMK FG8 SLP194=

CYXU;2005-03-21 13:38;SPECI CYXU 211338Z 32006KT 2SM -SG BR OVC003 RMK FG2SF6=

CYXU;2005-03-21 14:00;METAR CYXU 211400Z 33006KT 3SM BR OVC006 M00/M01 A3008 RMK FG2SF6 SLP197=

CYXU;2005-03-21 16:00;METAR CYXU 211600Z 36006KT 5SM BR OVC011 01/M01 A3010 RMK SC8 SLP204=

CYXU;2005-03-21 16:44;SPECI CYXU 211644Z 36007KT 5SM BR OVC019 RMK SC8=

CYXU;2005-03-21 17:00;METAR CYXU 211700Z 33004KT 7SM OVC016 02/M02 A3010 RMK SC7 SLP205=

CYXU;2005-03-21 18:00;METAR CYXU 211800Z 32008KT 10SM SCT020 BKN070 03/M01 A3010 RMK SC3AC1 SLP204=

CYXU;2005-03-21 19:00;METAR CYXU 211900Z 32008KT 15SM OVC017 03/M02 A3010 RMK SC8 SLP203=

CYXU;2005-03-21 21:00;METAR CYXU 212100Z 29008KT 15SM BKN024 02/M02 A3012 RMK SC7 SLP211=

CYXU;2005-03-21 22:00;METAR CYXU 212200Z 30007KT 15SM BKN026 02/M03 A3014 RMK SC6 SLP217=

CYXU;2005-03-21 22:17;SPECI CYXU 212217Z 30009KT 15SM FEW026 RMK SC2=

CYXU;2005-03-21 23:00;METAR CYXU 212300Z 31006KT 15SM FEW026 01/M04 A3015 RMK SC1 TR SC SLP221=

CYXU;2005-03-22 00:00;METAR CYXU 220000Z 29005KT 15SM SKC M01/M04 A3017 RMK SLP228=

CYXU;2005-03-22 01:00;METAR CYXU 220100Z 29004KT 15SM SKC M01/M04 A3018 RMK SLP233=

CYXU;2005-03-22 03:00;METAR CYXU 220300Z 29005KT 15SM SKC M03/M05 A3020 RMK SLP237=

CYXU;2005-03-22 04:00;METAR CYXU 220400Z 27004KT 15SM SKC M03/M05 A3020 RMK FROIN SLP238=

CYXU;2005-03-22 05:00;METAR CYXU 220500Z 30003KT 15SM SKC M04/M06 A3020 RMK FROIN SLP238=

CYXU;2005-03-22 06:00;METAR CYXU 220600Z 33002KT 15SM SKC M04/M06 A3019 RMK SLP235=

CYXU;2005-03-22 06:31;SPECI CYXU 220631Z 28002KT 1/4SM R15/P6000FT/N FZFG VV001 RMK FG8=

CYXU;2005-03-22 08:00;METAR CYXU 220800Z 29003KT 1/4SM R15/2000V3000FT/D FZFG SKC M05/M07 A3020 RMK FG6 SLP237=

CYXU;2005-03-22 09:00;METAR CYXU 220900Z 34002KT 1/4SM R15/1800FT/N FZFG SKC M06/M07 A3020 RMK FG7 SLP239=

CYXU;2005-03-22 10:00;METAR CYXU 221000Z 00000KT 1/4SM R15/3000FT/N FZFG SKC M06/M08 A3020 RMK FG7 SLP241=

CYXU;2005-03-22 11:00;METAR CYXU 221100Z 00000KT 1/2SM R15/3500VP6000FT/D FZFG SKC M06/M08 A3020 RMK FG5 FROIN SLP241=

CYXU;2005-03-22 12:00;METAR CYXU 221200Z 00000KT 1/2SM R15/2800V4000FT/N FZFG SCT240 M07/M09 A3022 RMK FG2CI1 FROIN SLP247=

CYXU;2005-03-22 12:27;SPECI CYXU 221227Z 00000KT 12SM R15/4500VP6000FT/U BCFG FEW240 RMK CI1 VSBY NW 3=

CYXU;2005-03-22 13:00;METAR CYXU 221300Z 00000KT 15SM FEW240 M05/M07 A3021 RMK CI0 SLP246=

CYXU;2005-03-22 16:00;METAR CYXU 221600Z 00000KT 15SM FEW240 03/M04 A3021 RMK CI0 SLP244=

CYXU;2005-03-22 17:00;METAR CYXU 221700Z 35006KT 15SM FEW240 04/M04 A3021 RMK CI0 SLP242=

CYXU;2005-03-22 21:00;METAR CYXU 222100Z 33008KT 15SM BKN240 04/M05 A3016 RMK CI2 SLP226=

CYXU;2005-03-22 22:00;METAR CYXU 222200Z 33006KT 15SM BKN230 03/M06 A3014 RMK CI3 SLP218=

CYXU;2005-03-22 23:00;METAR CYXU 222300Z 36006KT 15SM BKN210 02/M05 A3014 RMK CI4 SLP219=

CYXU;2005-03-23 00:00;METAR CYXU 230000Z 01003KT 15SM SCT210 01/M06 A3015 RMK CI2 SLP224=

CYXU;2005-03-23 01:00;METAR CYXU 230100Z 02005KT 15SM BKN210 M01/M06 A3016 RMK CI2 SLP226=

CYXU;2005-03-23 02:00;METAR CYXU 230200Z 03004KT 15SM OVC220 M01/M06 A3015 RMK CI3 SLP224=

CYXU;2005-03-23 04:00;METAR CYXU 230400Z 06008KT 15SM OVC240 M01/M07 A3015 RMK CI4 SLP222=

CYXU;2005-03-23 09:00;METAR CYXU 230900Z 08013KT 15SM OVC170 M01/M10 A3003 RMK CI8 SLP180=

CYXU;2005-03-23 10:00;METAR CYXU 231000Z 07017KT 15SM OVC170 M01/M10 A3002 RMK CI8 SLP176=

CYXU;2005-03-23 11:00;METAR CYXU 231100Z 07016G22KT 15SM BKN150 M01/M09 A3000 RMK AC7 SLP170=

CYXU;2005-03-23 12:00;METAR CYXU 231200Z 07017KT 15SM BKN140 M01/M09 A3000 RMK AC7 SLP168=

CYXU;2005-03-23 13:00;METAR CYXU 231300Z 07020KT 15SM OVC120 M01/M08 A2998 RMK AC8 SLP164=

CYXU;2005-03-23 14:00;METAR CYXU 231400Z 07018G25KT 15SM OVC100 M01/M07 A2996 RMK AS8 SLP157=

CYXU;2005-03-23 16:00;METAR CYXU 231600Z 08021G27KT 15SM OVC090 M00/M06 A2994 RMK AS8 SLP152=

CYXU;2005-03-23 17:00;METAR CYXU 231700Z 07014G29KT 15SM FEW030 OVC090 M00/M06 A2992 RMK SC2AS6 SLP144=

CYXU;2005-03-23 17:43;SPECI CYXU 231743Z 07019G25KT 8SM -SN OVC030 RMK NS8=

CYXU;2005-03-23 17:55;SPECI CYXU 231755Z 08019G25KT 7SM -SN FEW009 OVC020 RMK SC2NS6=

CYXU;2005-03-23 18:00;METAR CYXU 231800Z 07020G25KT 4SM -SN FEW009 OVC019 M01/M05 A2990 RMK SC2NS6 SLP138=

CYXU;2005-03-23 18:04;SPECI CYXU 231804Z 07021G26KT 3/4SM R15/P6000FT/N -SN SCT009 OVC020 RMK SC4NS4=

CYXU;2005-03-23 18:13;SPECI CYXU 231813Z 07017G26KT 2 1/2SM -SN BKN030 OVC040 RMK SC6NS2=

CYXU;2005-03-23 18:32;SPECI CYXU 231832Z 07018G24KT 1SM R15/P6000FT/N -SN OVC020 RMK NS8=

CYXU;2005-03-23 19:20;SPECI CYXU 231920Z 07018KT 3/4SM R15/P6000FT/U -SN OVC020 RMK SN2NS6=

CYXU;2005-03-23 20:00;METAR CYXU 232000Z 06018KT 1SM R15/P6000FT/U -SN OVC025 M02/M04 A2986 RMK SN3NS5 SLP124=

CYXU;2005-03-23 20:12;SPECI CYXU 232012Z 07020G27KT 2 1/2SM -SN OVC025 RMK SN2NS6=

CYXU;2005-03-23 20:27;SPECI CYXU 232027Z 07020G28KT 1 1/2SM -SN VV010 RMK SN8=

CYXU;2005-03-23 20:43;SPECI CYXU 232043Z 07020G26KT 3/4SM R15/P6000FT/D -SN VV008 RMK SN8=

CYXU;2005-03-23 21:00;METAR CYXU 232100Z 08020G28KT 3/4SM R15/5500FT/N -SN VV006 M03/M05 A2986 RMK SN8 SLP122=

CYXU;2005-03-23 21:05;SPECI CYXU 232105Z 07021KT 1/2SM R15/5500FT/N SN VV006 RMK SN8=

CYXU;2005-03-23 21:32;SPECI CYXU 232132Z 07017G24KT 3/4SM R15/5500FT/U -SN VV007 RMK SN8=

CYXU;2005-03-23 22:00;METAR CYXU 232200Z 06018G24KT 3/4SM R15/P6000FT/U -SN VV012 M03/M05 A2985 RMK SN8 SLP121=

CYXU;2005-03-23 22:16;SPECI CYXU 232216Z 06016KT 1SM R15/P6000FT/U -SN VV012 RMK SN8=

CYXU;2005-03-23 22:48;SPECI CYXU 232248Z 06014G19KT 1 1/2SM -SN OVC027 RMK SN3NS5=

CYXU;2005-03-23 23:00;METAR CYXU 232300Z 06011G18KT 1 1/2SM -SN OVC027 M03/M05 A2986 RMK SN3NS5 SLP125=

CYXU;2005-03-24 00:00;METAR CYXU 240000Z 06011G18KT 3SM -SN FEW009 OVC027 M02/M04 A2986 RMK SF2NS6 SLP122=

CYXU;2005-03-24 01:51;SPECI CYXU 240151Z 05010G15KT 3SM -SN FEW009 OVC028 RMK SF2NS6=

CYXU;2005-03-24 02:00;METAR CYXU 240200Z 05010G15KT 2SM -SN FEW012 OVC024 M02/M04 A2987 RMK SF2NS6 /S01/ SLP128=

CYXU;2005-03-24 04:00;METAR CYXU 240400Z 05008KT 2SM -SN FEW013 OVC024 M02/M04 A2989 RMK SN1SF2NS6 SLP132=

CYXU;2005-03-24 04:07;SPECI CYXU 240407Z 04007KT 5SM -SN FEW012 OVC025 RMK SF2NS6=

CYXU;2005-03-24 06:00;METAR CYXU 240600Z 03006KT 5SM -SN SCT012 OVC023 M01/M04 A2990 RMK SF4SC4 SLP137=

CYXU;2005-03-24 07:43;SPECI CYXU 240743Z 04008KT 12SM BKN012 OVC021 RMK SC6SC2=

CYXU;2005-03-24 10:00;METAR CYXU 241000Z 04005KT 15SM FEW013 OVC020 M01/M04 A2994 RMK SC2SC6 SLP152=

CYXU;2005-03-24 11:50;SPECI CYXU 241150Z 32004KT 15SM BKN012 OVC020 RMK SC5SC3=

CYXU;2005-03-24 12:00;METAR CYXU 241200Z 33005KT 15SM BKN012 OVC018 M02/M04 A3000 RMK SC6SC2 SLP170=

CYXU;2005-03-24 13:00;METAR CYXU 241300Z 36003KT 15SM OVC012 M01/M04 A3000 RMK SC8 SLP173=

CYXU;2005-03-24 13:29;SPECI CYXU 241329Z 04003KT 15SM FEW012 BKN020 OVC040 RMK SC1SC4SC3=

CYXU;2005-03-24 14:00;METAR CYXU 241400Z 08003KT 15SM BKN020 OVC040 M00/M03 A3001 RMK SC6SC2 SLP176=

CYXU;2005-03-24 15:00;METAR CYXU 241500Z 00000KT 15SM SCT014 BKN025 OVC040 01/M03 A3002 RMK SC3SC2SC2 SLP178=

CYXU;2005-03-24 15:28;SPECI CYXU 241528Z 00000KT 15SM BKN014 OVC028 RMK SC6SC2=

CYXU;2005-03-24 16:00;METAR CYXU 241600Z 00000KT 15SM OVC014 02/M02 A3003 RMK SC8 SLP181=

CYXU;2005-03-24 16:46;SPECI CYXU 241646Z 24003KT 15SM OVC016 RMK SC8=

CYXU;2005-03-24 17:00;METAR CYXU 241700Z 29004KT 15SM BKN016 OVC029 02/M02 A3002 RMK SC5SC3 SLP178=

CYXU;2005-03-24 18:00;METAR CYXU 241800Z 30003KT 15SM OVC031 03/M01 A3002 RMK SC7 SLP175=

CYXU;2005-03-24 19:00;METAR CYXU 241900Z 30006KT 15SM BKN020 BKN040 04/M01 A3000 RMK SC6SC1 SLP169=

CYXU;2005-03-24 21:00;METAR CYXU 242100Z 31006KT 15SM OVC021 04/M01 A2998 RMK SC8 SLP161=

CYXU;2005-03-24 22:00;METAR CYXU 242200Z 29005KT 15SM OVC020 03/M02 A2998 RMK SC8 SLP163=

CYXU;2005-03-25 00:00;METAR CYXU 250000Z 21008KT 10SM BKN008 OVC018 01/M02 A3000 RMK SF5SC3 SLP171=

CYXU;2005-03-25 03:26;SPECI CYXU 250326Z 21005KT 10SM FEW007 RMK SC2=

CYXU;2005-03-25 04:00;METAR CYXU 250400Z 21007KT 10SM FEW007 M01/M03 A3002 RMK SC2 SLP175=

CYXU;2005-03-25 05:00;METAR CYXU 250500Z 23004KT 10SM BKN130 M00/M02 A3001 RMK AC6 SLP172=

CYXU;2005-03-25 09:00;METAR CYXU 250900Z 31002KT 5SM BR BKN130 M01/M03 A3000 RMK AC6 SLP169=

CYXU;2005-03-25 10:00;METAR CYXU 251000Z 29002KT 3SM BR BKN120 M02/M03 A3002 RMK AC6 SLP174=

CYXU;2005-03-25 10:08;SPECI CYXU 251008Z 29002KT 2SM R15/6000FT/D BR BKN120 RMK AC6=

CYXU;2005-03-25 10:43;SPECI CYXU 251043Z 30002KT 1SM R15/P6000FT/D BR SCT090 SCT120 RMK FG1AC2AC1=

CYXU;2005-03-25 11:00;METAR CYXU 251100Z 32002KT 3/4SM R15/1400VP6000FT/U BR BKN095 BKN120 M02/M03 A3003 RMK FG2AC3AC1 FROIN SLP178=

CYXU;2005-03-25 11:32;SPECI CYXU 251132Z 27002KT 1SM R15/4500VP6000FT/U BR BKN090 RMK FG1AC6 FROIN=

CYXU;2005-03-25 12:00;METAR CYXU 251200Z 28002KT 1 1/4SM BR BKN090 M01/M02 A3005 RMK AC6 FROIN SLP186=

CYXU;2005-03-25 12:40;SPECI CYXU 251240Z 32003KT 2SM BR SCT090 BKN190 RMK AC4AS2 FROIN=

CYXU;2005-03-25 16:00;METAR CYXU 251600Z 02007KT 15SM FEW020 SCT180 BKN240 03/M02 A3008 RMK CU1AS3CS1 SLP197=

CYXU;2005-03-25 17:00;METAR CYXU 251700Z 36006KT 15SM FEW020 BKN180 BKN240 03/M02 A3008 RMK CU1AS4CS1 SLP196=

CYXU;2005-03-25 18:00;METAR CYXU 251800Z 01005KT 15SM FEW024 BKN180 BKN240 04/M03 A3007 RMK CU1AS2CS1 SLP194=

CYXU;2005-03-25 21:00;METAR CYXU 252100Z 02007KT 15SM FEW030 BKN210 03/M05 A3005 RMK CU1CI2 SLP185=

CYXU;2005-03-25 22:00;METAR CYXU 252200Z 02009KT 15SM FEW030 SCT210 02/M06 A3005 RMK CU1CI1 SLP185=

CYXU;2005-03-26 00:00;METAR CYXU 260000Z 35004KT 15SM FEW210 M00/M07 A3007 RMK CI1 SLP194=

CYXU;2005-03-26 03:00;METAR CYXU 260300Z 36004KT 15SM FEW210 M03/M09 A3010 RMK CI2 SLP206=

CYXU;2005-03-26 05:00;METAR CYXU 260500Z 35004KT 15SM FEW210 M05/M09 A3011 RMK CI1 SLP208=

CYXU;2005-03-26 08:00;METAR CYXU 260800Z 03003KT 15SM SKC M06/M11 A3010 RMK SLP206=

CYXU;2005-03-26 10:00;METAR CYXU 261000Z 00000KT 15SM FEW210 M07/M12 A3010 RMK CI2 SLP207=

CYXU;2005-03-26 12:00;METAR CYXU 261200Z 08003KT 15SM FEW230 M07/M12 A3013 RMK CI0 SLP215=

CYXU;2005-03-26 14:00;METAR CYXU 261400Z 08004KT 15SM FEW230 M01/M09 A3014 RMK CI0 SLP221=

CYXU;2005-03-26 15:00;METAR CYXU 261500Z 03002KT 15SM FEW240 M00/M09 A3015 RMK CI0 SLP223=

CYXU;2005-03-26 20:00;METAR CYXU 262000Z 04005KT 15SM SCT200 04/M07 A3011 RMK CI2 SLP210=

CYXU;2005-03-26 21:00;METAR CYXU 262100Z 05004KT 15SM BKN200 04/M09 A3010 RMK CI2 SLP204=

CYXU;2005-03-26 22:00;METAR CYXU 262200Z 33003KT 15SM BKN200 04/M11 A3010 RMK CI2 SLP205=

CYXU;2005-03-26 23:00;METAR CYXU 262300Z 34004KT 15SM BKN200 04/M07 A3010 RMK CI2 SLP203=

CYXU;2005-03-27 00:00;METAR CYXU 270000Z 32002KT 15SM SCT200 02/M07 A3010 RMK CI2 SLP204=

CYXU;2005-03-27 04:00;METAR CYXU 270400Z 12002KT 15SM SKC M02/M07 A3010 RMK SLP207=

CYXU;2005-03-27 06:00;METAR CYXU 270600Z 07004KT 15SM SKC M04/M08 A3008 RMK SLP196=

CYXU;2005-03-27 08:00;METAR CYXU 270800Z 00000KT 15SM SKC M05/M08 A3008 RMK SLP197=

CYXU;2005-03-27 10:00;METAR CYXU 271000Z 36003KT 15SM FEW220 M05/M08 A3010 RMK CI1 FROIN SLP204=

CYXU;2005-03-27 12:00;METAR CYXU 271200Z 06003KT 5SM BR FEW220 M05/M07 A3008 RMK CI1 FROIN SLP197=

CYXU;2005-03-27 13:00;METAR CYXU 271300Z 09003KT 8SM SCT220 M01/M04 A3007 RMK CI1 HAZE/CONTRAILS SLP195=

CYXU;2005-03-27 14:00;METAR CYXU 271400Z 09003KT 10SM BKN220 02/M03 A3007 RMK CI2 HAZE SLP194=

CYXU;2005-03-27 15:00;METAR CYXU 271500Z 08005KT 15SM FEW180 BKN220 04/M04 A3005 RMK AC1CI2=

CYXU;2005-03-27 16:00;METAR CYXU 271600Z 12006KT 15SM FEW180 BKN220 05/M03 A3006 RMK AC1CI2 SLP190=

CYXU;2005-03-27 19:00;METAR CYXU 271900Z 15005KT 15SM FEW160 OVC240 07/01 A3003 RMK AC2CI5=

CYXU;2005-03-27 22:00;METAR CYXU 272200Z 04005KT 10SM BKN200 06/01 A2995 RMK CI7 SLP152=

CYXU;2005-03-28 00:00;METAR CYXU 280000Z 06003KT 10SM BKN220 03/M00 A2990 RMK CI3 SLP138=

CYXU;2005-03-28 02:00;METAR CYXU 280200Z 07007KT 8SM SCT140 03/M00 A2989 RMK AC4 SLP133=

CYXU;2005-03-28 04:00;METAR CYXU 280400Z 07008KT 8SM FEW140 01/M02 A2985 RMK AC2 SLP117=

CYXU;2005-03-28 05:00;METAR CYXU 280500Z 08007KT 15SM FEW140 01/M02 A2984 RMK AC2 SLP115=

CYXU;2005-03-28 07:00;METAR CYXU 280700Z 04006KT 5SM BR FEW140 00/M02 A2977 RMK AC2 SLP091=

CYXU;2005-03-28 08:00;METAR CYXU 280800Z 07008KT 5SM BR BKN015 00/M02 A2975 RMK SC5 SLP082=

CYXU;2005-03-28 09:00;METAR CYXU 280900Z 09007KT 4SM BR BKN015 02/M00 A2970 RMK SC6 SLP066=

CYXU;2005-03-28 10:00;METAR CYXU 281000Z 08007KT 5SM BR OVC017 02/00 A2972 RMK SC8 SLP070=

CYXU;2005-03-28 11:17;SPECI CYXU 281117Z 05006KT 2 1/2SM BR OVC016 RMK FG1SC7=

CYXU;2005-03-28 11:44;SPECI CYXU 281144Z 07008KT 3SM BR OVC016 RMK SC8=

CYXU;2005-03-28 12:00;METAR CYXU 281200Z 04008KT 2 1/2SM BR OVC016 02/00 A2970 RMK FG1SC7 SLP067=

CYXU;2005-03-28 15:36;SPECI CYXU 281536Z 04009KT 4SM HZ OVC014 RMK SC8=

CYXU;2005-03-28 16:00;METAR CYXU 281600Z 03010KT 4SM HZ OVC017 06/03 A2965 RMK SC8 SLP047=

CYXU;2005-03-28 18:00;METAR CYXU 281800Z 06011KT 6SM HZ FEW015 BKN025 BKN220 09/05 A2963 RMK CU1SC5CI0 CU TR SLP040=

CYXU;2005-03-28 19:00;METAR CYXU 281900Z 03009KT 6SM HZ FEW016 BKN021 BKN220 09/05 A2960 RMK CU1SC5CI0 SLP029=

CYXU;2005-03-28 21:00;METAR CYXU 282100Z 04011KT 6SM HZ OVC020 09/05 A2960 RMK SC8 SLP029=

CYXU;2005-03-28 23:00;METAR CYXU 282300Z 07010KT 5SM HZ OVC015 06/03 A2963 RMK SC8 SLP040=

CYXU;2005-03-29 00:00;METAR CYXU 290000Z 02008KT 5SM HZ OVC012 06/03 A2966 RMK SC8 SLP053=

CYXU;2005-03-29 01:00;METAR CYXU 290100Z 04007KT 5SM HZ OVC011 05/02 A2968 RMK SC8 SLP059=

CYXU;2005-03-29 02:00;METAR CYXU 290200Z 03010KT 6SM HZ OVC010 04/02 A2970 RMK SC8 SLP064=

CYXU;2005-03-29 02:31;SPECI CYXU 290231Z 04008KT 6SM HZ OVC009 RMK SC8=

CYXU;2005-03-29 03:00;METAR CYXU 290300Z 02005KT 6SM HZ OVC009 04/02 A2971 RMK SC8 SLP067=

CYXU;2005-03-29 04:00;METAR CYXU 290400Z 36004KT 6SM HZ OVC009 04/02 A2973 RMK SC8 SLP074=

CYXU;2005-03-29 05:00;METAR CYXU 290500Z 35006KT 6SM HZ OVC012 04/02 A2973 RMK SC8 SLP076=

CYXU;2005-03-29 06:00;METAR CYXU 290600Z 34007KT 8SM BKN015 03/01 A2974 RMK SC5 SLP076=

CYXU;2005-03-29 07:00;METAR CYXU 290700Z 35004KT 8SM SCT015 02/M03 A2974 RMK SC4 SLP078=

CYXU;2005-03-29 08:00;METAR CYXU 290800Z 31002KT 5SM BR FEW015 01/M01 A2977 RMK SC2 SLP088=

CYXU;2005-03-29 09:00;METAR CYXU 290900Z 34003KT 5SM BR SKC 01/M01 A2979 RMK SLP095=

CYXU;2005-03-29 10:00;METAR CYXU 291000Z 00000KT 5SM BR SKC M00/M00 A2982 RMK SLP106=

CYXU;2005-03-29 12:00;METAR CYXU 291200Z 33004KT 5SM HZ FEW250 01/M04 A2986 RMK CI1 SLP120=

CYXU;2005-03-29 15:00;METAR CYXU 291500Z 34007KT 9SM SCT250 07/M02 A2993 RMK CI1 SLP141=

CYXU;2005-03-29 16:00;METAR CYXU 291600Z 32005KT 10SM SCT250 09/01 A2992 RMK CI1 SLP138=

CYXU;2005-03-29 17:00;METAR CYXU 291700Z 04003KT 12SM BKN250 10/01 A2993 RMK CI2 SLP140=

CYXU;2005-03-29 18:00;METAR CYXU 291800Z 00000KT 15SM BKN250 11/01 A2993 RMK CI2 SLP141=

CYXU;2005-03-29 22:00;METAR CYXU 292200Z 18007KT 10SM BKN260 09/06 A2996 RMK CI2 SLP152=

CYXU;2005-03-29 23:00;METAR CYXU 292300Z 18004KT 10SM BKN260 08/05 A2997 RMK CI2 SLP155=

CYXU;2005-03-30 01:00;METAR CYXU 300100Z 16006KT 7SM SCT260 05/03 A2999 RMK CI1 SLP163=

CYXU;2005-03-30 04:00;METAR CYXU 300400Z 09004KT 6SM BR FEW250 03/02 A2998 RMK CI1 SLP159=

CYXU;2005-03-30 05:00;METAR CYXU 300500Z 09006KT 6SM BR FEW250 02/01 A2997 RMK CI1 SLP156=

CYXU;2005-03-30 08:00;METAR CYXU 300800Z 10007KT 3SM BR SCT200 03/01 A2998 RMK CI2 SLP157=

CYXU;2005-03-30 10:00;METAR CYXU 301000Z 10007KT 5SM BR BKN170 04/02 A3000 RMK AC7 SLP163=

CYXU;2005-03-30 12:00;METAR CYXU 301200Z 12007KT 8SM BKN180 04/02 A3003 RMK AC7 SLP175=

CYXU;2005-03-30 13:00;METAR CYXU 301300Z 11005KT 8SM BKN180 05/02 A3003 RMK AC7 SLP176=

CYXU;2005-03-30 14:00;METAR CYXU 301400Z 11008KT 10SM BKN200 07/02 A3001 RMK CI7 SLP170=

CYXU;2005-03-30 15:00;METAR CYXU 301500Z 12010KT 10SM FEW120 BKN200 09/03 A3000 RMK AC2CI3 SLP166=

CYXU;2005-03-30 16:00;METAR CYXU 301600Z 13015KT 10SM BKN200 10/03 A2999 RMK CI7 SLP162=

CYXU;2005-03-30 17:00;METAR CYXU 301700Z 11016KT 15SM FEW140 BKN200 12/03 A2994 RMK AC2CI4 SLP146=

CYXU;2005-03-30 18:00;METAR CYXU 301800Z 12013KT 15SM FEW140 SCT200 13/03 A2992 RMK AC2CI2 SLP137=

CYXU;2005-03-30 19:00;METAR CYXU 301900Z 12012G17KT 15SM FEW140 SCT200 14/03 A2991 RMK AC1CI2 SLP135=

CYXU;2005-03-30 21:00;METAR CYXU 302100Z 10017KT 15SM FEW180 SCT250 15/03 A2985 RMK AC2CI2 SLP113=

CYXU;2005-03-30 22:00;METAR CYXU 302200Z 10018KT 15SM SCT200 14/03 A2983 RMK CI3 SLP106=

CYXU;2005-03-30 23:00;METAR CYXU 302300Z 10015G20KT 15SM FEW180 FEW250 11/05 A2981 RMK ACC1CI2 SLP099=

CYXU;2005-03-31 00:00;METAR CYXU 310000Z 09013G18KT 15SM FEW250 09/04 A2983 RMK CI1 SLP107=

CYXU;2005-03-31 01:00;METAR CYXU 310100Z 09015KT 15SM SKC 07/03 A2982 RMK SLP103=

CYXU;2005-03-31 03:00;METAR CYXU 310300Z 09010KT 15SM FEW180 06/01 A2980 RMK AC1 SLP098=

CYXU;2005-03-31 04:00;METAR CYXU 310400Z 09010KT 15SM SKC 06/01 A2979 RMK SLP093=

CYXU;2005-03-31 05:00;METAR CYXU 310500Z 10011KT 15SM SKC 06/01 A2978 RMK SLP089=

CYXU;2005-03-31 06:00;METAR CYXU 310600Z 09011KT 15SM BKN160 07/01 A2976 RMK AC6 SLP082=

CYXU;2005-03-31 08:00;METAR CYXU 310800Z 12009KT 15SM BKN160 OVC220 07/02 A2974 RMK AC6CI2 SLP074=

CYXU;2005-03-31 10:00;METAR CYXU 311000Z 14010KT 15SM FEW160 BKN190 09/04 A2971 RMK AC2CI3 SLP062=

CYXU;2005-03-31 11:00;METAR CYXU 311100Z 15007KT 15SM SCT050 BKN120 11/05 A2971 RMK SC4AC3 SLP062=

CYXU;2005-03-31 12:00;METAR CYXU 311200Z 16011KT 15SM BKN055 BKN130 11/05 A2971 RMK SC5AC2 SLP065=

CYXU;2005-03-31 12:35;SPECI CYXU 311235Z 15011KT 12SM -SHRA SCT040 OVC100 RMK SC3AC5 ACC ASOCTD=

CYXU;2005-03-31 13:00;METAR CYXU 311300Z 16010KT 12SM -SHRA BKN080 11/06 A2969 RMK AC7 ACC ASOCTD SLP058=

CYXU;2005-03-31 13:27;SPECI CYXU 311327Z 16012KT 15SM BKN062 BKN100 RMK SC6AC2=

CYXU;2005-03-31 14:00;METAR CYXU 311400Z 17010KT 15SM -SHRA BKN080 12/06 A2969 RMK AC7 ACC ASOCTD SLP056=

CYXU;2005-03-31 14:26;SPECI CYXU 311426Z 17016KT 15SM SCT050 BKN090 RMK SC4AC3=

CYXU;2005-03-31 16:00;METAR CYXU 311600Z 20014G22KT 15SM BKN049 17/08 A2967 RMK SC6 TCU ASOCTD SLP050=

CYXU;2005-03-31 17:00;METAR CYXU 311700Z 22019G27KT 15SM BKN059 17/10 A2966 RMK SC6 TCU ASOCTD SLP047=

CYXU;2005-03-31 18:00;METAR CYXU 311800Z 23016G29KT 15SM BKN040 16/09 A2967 RMK SC6 TCU ASOCTD SLP048=

CYXU;2005-03-31 21:00;METAR CYXU 312100Z 23023G30KT 15SM BKN042 OVC250 13/05 A2971 RMK CU6CI2 TCU EMBDD SLP065=

CYXU;2005-03-31 22:00;METAR CYXU 312200Z 25020G26KT 15SM BKN042 OVC250 12/04 A2973 RMK CU6CI2 TCU ASOCTD SOUTH SLP072=

CYXU;2005-04-01 00:00;METAR CYXU 010000Z 24018G28KT 15SM OVC023 09/04 A2980 RMK SC8 TCU EMBDD SLP093=

CYXU;2005-04-01 01:00;METAR CYXU 010100Z 26017G23KT 15SM OVC022 08/03 A2983 RMK SC8 SLP103=

CYXU;2005-04-01 03:00;METAR CYXU 010300Z 25013KT 15SM OVC023 07/02 A2986 RMK SC8 SLP116=

CYXU;2005-04-01 05:00;METAR CYXU 010500Z 27012G18KT 15SM OVC027 06/01 A2991 RMK SC8 SLP131=

CYXU;2005-04-01 10:00;METAR CYXU 011000Z 27009KT 15SM FEW030 04/M00 A3000 RMK SC1 SLP165=

CYXU;2005-04-01 12:00;METAR CYXU 011200Z 27009KT 15SM FEW030 04/M00 A3006 RMK SC1 SLP186=

CYXU;2005-04-01 13:00;METAR CYXU 011300Z 27011G17KT 15SM FEW170 06/M00 A3008 RMK AC1 SLP192=

CYXU;2005-04-01 16:00;METAR CYXU 011600Z 33011G16KT 15SM FEW030 SCT220 09/00 A3010 RMK CF1CI1 SLP197=

CYXU;2005-04-01 17:00;METAR CYXU 011700Z 32012KT 15SM BKN220 10/01 A3005 RMK CI5 SLP183=

CYXU;2005-04-01 18:00;METAR CYXU 011800Z 33004KT 15SM BKN160 09/00 A3006 RMK AS7 SLP183=

CYXU;2005-04-01 21:00;METAR CYXU 012100Z 33003KT 15SM OVC150 10/00 A3003 RMK AC8 VIRGA SLP177=

CYXU;2005-04-01 22:00;METAR CYXU 012200Z 36011KT 15SM OVC120 09/01 A3000 RMK AC8 VIRGA SLP166=

CYXU;2005-04-01 23:00;METAR CYXU 012300Z 02005KT 15SM OVC120 09/01 A2998 RMK AC8 VIRGA SLP160=

CYXU;2005-04-02 00:00;METAR CYXU 020000Z 03006KT 15SM OVC110 08/01 A2997 RMK AC8 VIRGA SLP154=

CYXU;2005-04-02 04:00;METAR CYXU 020400Z 06010G15KT 15SM OVC140 06/01 A2990 RMK AC8 VIRGA SLP129=

CYXU;2005-04-02 06:00;METAR CYXU 020600Z 05015G21KT 15SM OVC090 06/M00 A2981 RMK AC8 SLP099=

CYXU;2005-04-02 07:22;SPECI CYXU 020722Z 06014G20KT 15SM -RA OVC046 RMK NS8=

CYXU;2005-04-02 09:42;SPECI CYXU 020942Z 05016G24KT 7SM -RA BKN009 OVC012 RMK SF6NS2=

CYXU;2005-04-02 10:00;METAR CYXU 021000Z 04016G25KT 5SM -RA BKN009 OVC012 02/00 A2972 RMK SF6NS2 PRESSFR SLP070=

CYXU;2005-04-02 11:00;METAR CYXU 021100Z 04016KT 4SM -RA OVC012 02/00 A2970 RMK NS8 SLP062=

CYXU;2005-04-02 11:19;SPECI CYXU 021119Z 04015G24KT 4SM -RASN BKN009 OVC023 RMK SF5NS3=

CYXU;2005-04-02 12:00;METAR CYXU 021200Z 04018KT 6SM -RASN BKN009 OVC012 02/00 A2969 RMK SF5NS3 SLP061=

CYXU;2005-04-02 13:00;METAR CYXU 021300Z 04015G25KT 3SM -RASN BKN009 OVC012 02/M00 A2966 RMK SF6NS2 PRESFR SLP050=

CYXU;2005-04-02 13:05;SPECI CYXU 021305Z 04017G24KT 2 1/4SM -RASN BKN008 OVC012 RMK SF6NS2 PRESFR=

CYXU;2005-04-02 13:52;SPECI CYXU 021352Z 03013G20KT 3SM -RASN SCT007 OVC012 RMK SF4NS4=

CYXU;2005-04-02 14:00;METAR CYXU 021400Z 03013G21KT 5SM -RASN FEW008 OVC011 01/M00 A2968 RMK SF2NS6 SLP056=

CYXU;2005-04-02 15:00;METAR CYXU 021500Z 03013G24KT 7SM -RASN FEW008 OVC012 02/00 A2965 RMK SF2NS6 SLP048=

CYXU;2005-04-02 16:00;METAR CYXU 021600Z 02017KT 5SM -SN SCT008 OVC013 02/00 A2964 RMK SF3NS5 SLP043=

CYXU;2005-04-02 17:00;METAR CYXU 021700Z 02015G21KT 6SM -RASN SCT010 OVC013 02/00 A2963 RMK SF3NS5 SLP039=

CYXU;2005-04-02 17:46;SPECI CYXU 021746Z 03016G21KT 10SM -RASN SCT009 BKN013 OVC022 RMK SF3NS4SC1=

CYXU;2005-04-02 18:00;METAR CYXU 021800Z 02020G29KT 12SM -RASN FEW009 BKN011 OVC022 03/01 A2957 RMK SF2SC5SC1 NS ASOCTD SLP019=

CYXU;2005-04-02 18:54;SPECI CYXU 021854Z 02017G29KT 14SM SCT011 OVC023 RMK SC4SC4=

CYXU;2005-04-02 19:00;METAR CYXU 021900Z 03017G25KT 15SM SCT011 OVC022 04/01 A2959 RMK SC4SC4 SLP026=

CYXU;2005-04-02 19:39;SPECI CYXU 021939Z 01014G25KT 14SM -RASN FEW010 OVC020 RMK SC2SC6=

CYXU;2005-04-02 20:00;METAR CYXU 022000Z 01015G26KT 15SM -RASN OVC021 04/01 A2959 RMK SC8 SLP025=

CYXU;2005-04-02 22:00;METAR CYXU 022200Z 35016G24KT 7SM -RASN BKN011 OVC020 02/00 A2960 RMK SF6SC2 SLP030=

CYXU;2005-04-02 23:48;SPECI CYXU 022348Z 35018G27KT 1SM R15/P6000FT/U -RASN OVC010 RMK SN4SC4=

CYXU;2005-04-03 00:00;METAR CYXU 030000Z 35019G30KT 1SM R15/P6000FT/D -SN BR OVC011 01/M01 A2959 RMK SN4SC4 SLP028=

CYXU;2005-04-03 01:00;METAR CYXU 030100Z 35021G30KT 2SM -SN BR OVC014 01/M01 A2960 RMK SN3SC5 SLP034=

CYXU;2005-04-03 04:00;METAR CYXU 030400Z 35018G27KT 1 1/2SM -SN BR OVC010 01/M01 A2957 RMK SN3SC5 SLP024=

CYXU;2005-04-03 05:00;METAR CYXU 030500Z 34016G25KT 1 1/2SM -SN BR OVC010 01/M01 A2956 RMK SN3SC5 SLP020=

CYXU;2005-04-03 05:42;SPECI CYXU 030542Z 34018G27KT 3SM -SN OVC020 RMK NS8=

CYXU;2005-04-03 08:00;METAR CYXU 030800Z 33020G29KT 2SM -SN OVC015 01/M01 A2948 RMK NS8 SLP993=

CYXU;2005-04-03 08:41;SPECI CYXU 030841Z 32020G28KT 1SM R15/P6000FT/D -SN BR OVC011 RMK SN3NS5=

CYXU;2005-04-03 10:00;METAR CYXU 031000Z 33021G29KT 1SM R15/P6000FT/U -SN OVC012 M00/M01 A2946 RMK SN2NS6 SLP986=

CYXU;2005-04-03 10:29;SPECI CYXU 031029Z 33020G31KT 2SM -SN OVC017 RMK SN2NS6=

CYXU;2005-04-03 10:49;SPECI CYXU 031049Z 33021G30KT 1SM R15/P6000FT/D -SN OVC020 RMK SN2NS6=

CYXU;2005-04-03 11:34;SPECI CYXU 031134Z 33019G28KT 1SM R15/P6000FT/U -SN OVC021 RMK SN3NS5=

CYXU;2005-04-03 12:19;SPECI CYXU 031219Z 33019G29KT 2 1/2SM -SN OVC020 RMK SN2NS6=

CYXU;2005-04-03 12:28;SPECI CYXU 031228Z 33020G29KT 1SM R15/P6000FT/N -SN OVC022 RMK SN2NS6=

CYXU;2005-04-03 13:00;METAR CYXU 031300Z 33024G34KT 1SM R15/P6000FT/D -SN OVC020 01/M01 A2948 RMK SN2NS6 SLP992=

CYXU;2005-04-03 13:09;SPECI CYXU 031309Z 33022G34KT 4SM -SN OVC047 RMK NS8=

CYXU;2005-04-03 13:33;SPECI CYXU 031333Z 33022G34KT 2 1/2SM -SN OVC022 RMK SN1NS7=

CYXU;2005-04-03 14:00;METAR CYXU 031400Z 33023G32KT 3SM -SN OVC024 02/M02 A2949 RMK NS8 SLP995=

CYXU;2005-04-03 15:00;METAR CYXU 031500Z 32017G27KT 3SM -SN OVC022 02/M01 A2951 RMK NS8 SLP002=

CYXU;2005-04-03 15:14;SPECI CYXU 031514Z 33025G33KT 3/4SM R15/P6000FT/D -SN OVC013 RMK SN4NS4=

CYXU;2005-04-03 16:00;METAR CYXU 031600Z 33018G29KT 1SM R15/P6000FT/N -SN OVC025 01/M01 A2953 RMK SN4NS4 SLP010=

CYXU;2005-04-03 17:16;SPECI CYXU 031716Z 34018G29KT 5SM -SN OVC044 RMK NS8=

CYXU;2005-04-03 17:33;SPECI CYXU 031733Z 33018G29KT 10SM BKN044 RMK SC6=

CYXU;2005-04-03 18:00;METAR CYXU 031800Z 33021G29KT 12SM BKN038 BKN240 04/01 A2956 RMK SC6CI1 SLP019=

CYXU;2005-04-03 19:00;METAR CYXU 031900Z 32016G29KT 12SM BKN052 06/05 A2958 RMK SC7 SLP026=

CYXU;2005-04-03 21:00;METAR CYXU 032100Z 32020G29KT 15SM BKN062 BKN240 08/M02 A2964 RMK SC6CI1 SLP044=

CYXU;2005-04-03 23:00;METAR CYXU 032300Z 32017G30KT 15SM FEW062 SCT170 BKN240 06/M04 A2970 RMK SC2AC2CI2 SLP062=

CYXU;2005-04-04 00:00;METAR CYXU 040000Z 31015G26KT 15SM FEW062 SCT170 BKN240 06/M06 A2972 RMK SC1AC2CI2 SLP072=

CYXU;2005-04-04 04:00;METAR CYXU 040400Z 31016G21KT 15SM FEW200 04/M05 A2977 RMK CI2 SLP090=

CYXU;2005-04-04 06:00;METAR CYXU 040600Z 30010G17KT 15SM FEW200 02/M03 A2979 RMK CI1 SLP096=

CYXU;2005-04-04 08:00;METAR CYXU 040800Z 30011G16KT 15SM SKC 02/M03 A2981 RMK SLP103=

CYXU;2005-04-04 10:00;METAR CYXU 041000Z 31007KT 15SM FEW150 01/M03 A2985 RMK AC1 SLP114=

CYXU;2005-04-04 12:00;METAR CYXU 041200Z 29009KT 15SM FEW230 02/M02 A2990 RMK CI0 SLP134=

CYXU;2005-04-04 13:00;METAR CYXU 041300Z 31011KT 15SM FEW220 04/M02 A2992 RMK CI0 SLP140=

CYXU;2005-04-04 14:00;METAR CYXU 041400Z 30011KT 15SM SKC 05/M02 A2994 RMK SLP146=

CYXU;2005-04-04 15:00;METAR CYXU 041500Z 31010G18KT 15SM SKC 07/M03 A2996 RMK SLP152=

CYXU;2005-04-04 16:00;METAR CYXU 041600Z 32013KT 15SM SKC 08/M02 A2997 RMK SLP156=

CYXU;2005-04-04 18:00;METAR CYXU 041800Z 30016G21KT 15SM FEW040 10/M03 A2999 RMK CF1 SLP162=

CYXU;2005-04-04 21:00;METAR CYXU 042100Z 31011G19KT 15SM BKN200 11/M02 A3000 RMK CI2 SLP166=

CYXU;2005-04-04 22:00;METAR CYXU 042200Z 31010KT 15SM BKN200 11/M07 A3001 RMK CI2 SLP169=

CYXU;2005-04-05 00:00;METAR CYXU 050000Z 29003KT 15SM SCT200 08/M05 A3003 RMK CI1 SLP175=

CYXU;2005-04-05 02:00;METAR CYXU 050200Z 36002KT 15SM SKC 04/M03 A3006 RMK SLP185=

CYXU;2005-04-05 04:00;METAR CYXU 050400Z 09002KT 15SM FEW180 01/M03 A3006 RMK CI1 SLP186=

CYXU;2005-04-05 05:00;METAR CYXU 050500Z 22002KT 15SM SKC 00/M03 A3007 RMK SLP189=

CYXU;2005-04-05 08:00;METAR CYXU 050800Z 08003KT 15SM SKC M01/M03 A3007 RMK SLP189=

CYXU;2005-04-05 10:00;METAR CYXU 051000Z 09004KT 15SM SCT200 M00/M03 A3009 RMK CS2 FROIN SLP196=

CYXU;2005-04-05 12:00;METAR CYXU 051200Z 09007KT 15SM SCT220 02/M03 A3009 RMK CS2 CONTRAILS SLP196=

CYXU;2005-04-05 16:00;METAR CYXU 051600Z 14016KT 15SM FEW160 BKN220 12/M05 A3009 RMK AC2CI2 CONTRAILS SLP197=

CYXU;2005-04-05 17:00;METAR CYXU 051700Z 14015KT 15SM FEW160 BKN240 14/M04 A3007 RMK AC1CI2 CONTRAILS SLP189=

CYXU;2005-04-05 18:00;METAR CYXU 051800Z 16012KT 15SM BKN240 15/01 A3004 RMK CI2 SLP178=

CYXU;2005-04-05 21:00;METAR CYXU 052100Z 15011KT 15SM BKN200 16/02 A2998 RMK CI3 SLP158=

CYXU;2005-04-05 22:00;METAR CYXU 052200Z 15010KT 15SM FEW160 BKN200 16/02 A2997 RMK AC1CI3 SLP155=

CYXU;2005-04-05 23:00;METAR CYXU 052300Z 15007KT 15SM FEW160 BKN200 16/03 A2997 RMK AC1CI3 SLP153=

CYXU;2005-04-06 00:00;METAR CYXU 060000Z 14006KT 15SM FEW160 BKN200 14/03 A2997 RMK AC1CI2 SLP155=

CYXU;2005-04-06 01:00;METAR CYXU 060100Z 09005KT 15SM FEW200 12/02 A3000 RMK CI1 SLP163=

CYXU;2005-04-06 02:00;METAR CYXU 060200Z 09007KT 15SM SCT080 BKN200 11/M01 A3001 RMK AC4CI1 SLP167=

CYXU;2005-04-06 04:00;METAR CYXU 060400Z 11007KT 15SM FEW080 FEW200 08/02 A3001 RMK AC1CI1 SLP166=

CYXU;2005-04-06 05:00;METAR CYXU 060500Z 09005KT 15SM BKN250 06/01 A3001 RMK CI2 SLP166=

CYXU;2005-04-06 10:00;METAR CYXU 061000Z 09007KT 15SM FEW070 SCT250 06/M00 A3001 RMK AC1CI1 SLP165=

CYXU;2005-04-06 11:00;METAR CYXU 061100Z 09006KT 15SM FEW080 FEW250 05/M00 A3002 RMK AC1CI0 SLP170=

CYXU;2005-04-06 12:00;METAR CYXU 061200Z 09006KT 15SM FEW075 BKN200 06/M00 A3005 RMK AC2CI2 SLP179=

CYXU;2005-04-06 13:00;METAR CYXU 061300Z 09006KT 15SM FEW068 BKN200 08/00 A3006 RMK AC2CI2 SLP182=

CYXU;2005-04-06 14:00;METAR CYXU 061400Z 13006KT 15SM FEW060 BKN200 11/02 A3007 RMK SC1CI4 SLP186=

CYXU;2005-04-06 15:00;METAR CYXU 061500Z 12007KT 15SM BKN200 13/04 A3007 RMK CI2 SLP186=

CYXU;2005-04-06 16:00;METAR CYXU 061600Z 10009KT 15SM FEW060 BKN200 15/05 A3007 RMK SC1CI2 SC TR SLP184=

CYXU;2005-04-06 19:00;METAR CYXU 061900Z 14007KT 15SM SCT055 BKN080 BKN200 20/10 A3003 RMK SC4AC2CI1 SLP170=

CYXU;2005-04-06 22:00;METAR CYXU 062200Z 19012KT 15SM FEW055 BKN200 20/11 A2997 RMK SC2CI1 SLP152=

CYXU;2005-04-06 23:00;METAR CYXU 062300Z 16006KT 15SM BKN200 19/11 A2996 RMK CI2 SLP146=

CYXU;2005-04-07 10:35;SPECI CYXU 071035Z 30005KT 15SM -SHRA BKN085 OVC110 RMK AC6AC2 ACC ASOCTD / RW- OCNL=

CYXU;2005-04-07 13:50;SPECI CYXU 071350Z 31011G16KT 8SM -SHRA BKN078 OVC100 RMK AC6AC2 BR / ACC ASOCTD=

CYXU;2005-04-07 14:48;SPECI CYXU 071448Z 30007KT 6SM -RA BR FEW005 BKN018 OVC080 RMK SF2SC4AC2=

CYXU;2005-04-07 20:38;SPECI CYXU 072038Z 33009KT 8SM FEW006 SCT012 BKN200 RMK SF1SC4CI2=

CYXU;2005-04-08 09:00;METAR CYXU 080900Z 35004KT 15SM SKC 01/M00 A2999 RMK SLP163=

CYXU;2005-04-08 09:44;SPECI CYXU 080944Z 31002KT 2SM BR SKC RMK FG2 VIS E 15 FROIN=

CYXU;2005-04-08 10:00;METAR CYXU 081000Z 32003KT 1SM R15/P6000FT/N BR SKC M00/M01 A3000 RMK FG4 FROIN SLP167=

CYXU;2005-04-08 11:33;SPECI CYXU 081133Z 35002KT 10SM SKC RMK FG1 VIS NW 1=

CYXU;2005-04-08 12:00;METAR CYXU 081200Z 36002KT 10SM SKC 01/01 A3004 RMK SLP180=

CYXU;2005-04-08 13:00;METAR CYXU 081300Z 32003KT 15SM SKC 05/03 A3006 RMK SLP185=

CYXU;2005-04-08 14:00;METAR CYXU 081400Z 33005KT 15SM SKC 08/03 A3007 RMK SLP190=

CYXU;2005-04-08 15:00;METAR CYXU 081500Z 33005KT 15SM SKC 10/03 A3007 RMK SLP190=

CYXU;2005-04-08 16:00;METAR CYXU 081600Z 04004KT 15SM SKC 13/01 A3007 RMK SLP190=

CYXU;2005-04-08 17:00;METAR CYXU 081700Z 36008G15KT 15SM FEW040 15/M02 A3007 RMK CF1 SLP189=

CYXU;2005-04-08 18:00;METAR CYXU 081800Z 02011KT 15SM FEW040 15/M03 A3007 RMK CF1 SLP187=

CYXU;2005-04-08 19:00;METAR CYXU 081900Z 36008KT 15SM FEW040 15/M03 A3006 RMK CF1 SLP184=

CYXU;2005-04-08 20:00;METAR CYXU 082000Z 01008G16KT 15SM FEW050 15/M02 A3007 RMK CF1 SLP186=

CYXU;2005-04-08 21:00;METAR CYXU 082100Z 02009KT 15SM FEW050 15/M02 A3006 RMK CF1 SLP185=

CYXU;2005-04-08 22:00;METAR CYXU 082200Z 03008KT 15SM SKC 14/M02 A3006 RMK SLP185=

CYXU;2005-04-08 23:00;METAR CYXU 082300Z 36007KT 15SM SKC 14/M02 A3006 RMK SLP186=

CYXU;2005-04-09 00:00;METAR CYXU 090000Z 01006KT 15SM SKC 12/M01 A3006 RMK SLP186=

CYXU;2005-04-09 03:00;METAR CYXU 090300Z 05005KT 15SM SKC 07/M01 A3012 RMK SLP204=

CYXU;2005-04-09 06:00;METAR CYXU 090600Z 04007KT 15SM SKC 05/M03 A3012 RMK SLP205=

CYXU;2005-04-09 08:00;METAR CYXU 090800Z 07008KT 15SM SKC 03/M03 A3013 RMK SLP206=

CYXU;2005-04-09 09:00;METAR CYXU 090900Z 07005KT 15SM SKC 03/M03 A3014 RMK SLP211=

CYXU;2005-04-09 10:00;METAR CYXU 091000Z 06005KT 15SM FEW220 02/M04 A3014 RMK CI1 SLP213=

CYXU;2005-04-09 11:00;METAR CYXU 091100Z 08004KT 15SM FEW220 02/M04 A3016 RMK CI1 SLP217=

CYXU;2005-04-09 12:00;METAR CYXU 091200Z 07007KT 15SM FEW220 04/M04 A3017 RMK CI1 SLP223=

CYXU;2005-04-09 13:00;METAR CYXU 091300Z 08008KT 15SM FEW220 07/M03 A3018 RMK CI1 SLP225=

CYXU;2005-04-09 14:00;METAR CYXU 091400Z 12007KT 15SM FEW220 09/M01 A3018 RMK CI2 SLP227=

CYXU;2005-04-09 16:00;METAR CYXU 091600Z 13012KT 15SM FEW220 12/M02 A3017 RMK CI2 SLP221=

CYXU;2005-04-09 18:00;METAR CYXU 091800Z 13008KT 15SM FEW200 14/M02 A3012 RMK CI1 SLP205=

CYXU;2005-04-09 21:00;METAR CYXU 092100Z 11006KT 15SM FEW240 16/M04 A3008 RMK CI0 SLP189=

CYXU;2005-04-09 22:00;METAR CYXU 092200Z 00000KT 15SM FEW240 16/M06 A3008 RMK CI1 SLP189=

CYXU;2005-04-10 00:00;METAR CYXU 100000Z 06004KT 15SM BKN230 14/M04 A3006 RMK CI2 SLP185=

CYXU;2005-04-10 06:00;METAR CYXU 100600Z 06004KT 15SM SKC 04/M04 A3008 RMK SLP191=

CYXU;2005-04-10 10:00;METAR CYXU 101000Z 05002KT 15SM FEW220 03/M04 A3009 RMK CI1 SLP195=

CYXU;2005-04-10 12:00;METAR CYXU 101200Z 05003KT 15SM SCT200 06/M02 A3013 RMK CI2 SLP208=

CYXU;2005-04-10 13:00;METAR CYXU 101300Z 07005KT 15SM SCT200 10/M02 A3014 RMK CI2 SLP210=

CYXU;2005-04-10 14:00;METAR CYXU 101400Z 08006KT 15SM FEW200 13/M02 A3014 RMK CI1 SLP212=

CYXU;2005-04-10 15:00;METAR CYXU 101500Z 05009KT 15SM FEW200 16/M01 A3016 RMK CI1 SLP215=

CYXU;2005-04-10 17:00;METAR CYXU 101700Z 10007KT 15SM SCT200 18/00 A3014 RMK CI2 SLP211=

CYXU;2005-04-10 18:00;METAR CYXU 101800Z 14006KT 15SM FEW200 18/M00 A3013 RMK CI1 SLP205=

CYXU;2005-04-10 21:00;METAR CYXU 102100Z 15002KT 15SM FEW230 20/M01 A3010 RMK CI0 SLP197=

CYXU;2005-04-10 22:00;METAR CYXU 102200Z 22003KT 15SM FEW230 19/M01 A3011 RMK CI0 SLP199=

CYXU;2005-04-11 00:00;METAR CYXU 110000Z 11006KT 15SM FEW230 16/00 A3011 RMK CI1 SLP201=

CYXU;2005-04-11 03:00;METAR CYXU 110300Z 08006KT 15SM OVC140 13/01 A3016 RMK AC8 SLP214=

CYXU;2005-04-11 04:00;METAR CYXU 110400Z 06006KT 15SM BKN150 11/02 A3016 RMK AC6 SLP215=

CYXU;2005-04-11 05:00;METAR CYXU 110500Z 07006KT 15SM BKN140 11/01 A3017 RMK AC6 SLP217=

CYXU;2005-04-11 07:00;METAR CYXU 110700Z 08011KT 15SM BKN150 10/M03 A3018 RMK AC5 SLP222=

CYXU;2005-04-11 10:00;METAR CYXU 111000Z 08016KT 15SM FEW180 06/M08 A3023 RMK CI1 SLP238=

CYXU;2005-04-11 12:00;METAR CYXU 111200Z 08017KT 15SM BKN240 04/M08 A3027 RMK CI1 SLP253=

CYXU;2005-04-11 13:00;METAR CYXU 111300Z 09019KT 15SM SCT240 05/M08 A3026 RMK CI1 SLP251=

CYXU;2005-04-11 14:00;METAR CYXU 111400Z 08016KT 15SM SCT240 07/M07 A3026 RMK CI1 SLP252=

CYXU;2005-04-11 15:00;METAR CYXU 111500Z 10014KT 15SM SCT240 08/M06 A3027 RMK CI1 SLP253=

CYXU;2005-04-11 16:00;METAR CYXU 111600Z 10014G19KT 15SM FEW240 08/M06 A3027 RMK CI1 SLP256=

CYXU;2005-04-11 17:00;METAR CYXU 111700Z 09012KT 15SM FEW240 09/M06 A3027 RMK CI1 SLP254=

CYXU;2005-04-11 18:00;METAR CYXU 111800Z 09014KT 15SM FEW240 10/M05 A3025 RMK CI1 SLP249=

CYXU;2005-04-11 19:00;METAR CYXU 111900Z 09012KT 15SM SCT240 12/M04 A3023 RMK CI0 SLP242=

CYXU;2005-04-11 20:00;METAR CYXU 112000Z 09009G17KT 15SM FEW230 11/M06 A3022 RMK CI0 SLP238=

CYXU;2005-04-11 21:00;METAR CYXU 112100Z 09012KT 15SM SCT250 11/M07 A3021 RMK CI0 SLP236=

CYXU;2005-04-11 22:00;METAR CYXU 112200Z 11009KT 15SM FEW250 11/M09 A3024 RMK CI0 SLP244=

CYXU;2005-04-12 00:00;METAR CYXU 120000Z 09007KT 15SM SCT250 08/M10 A3023 RMK CI0 SLP242=

CYXU;2005-04-12 04:00;METAR CYXU 120400Z 08010KT 15SM SKC 05/M08 A3021 RMK SLP237=

CYXU;2005-04-12 05:00;METAR CYXU 120500Z 08010KT 15SM SKC 04/M08 A3018 RMK SLP228=

CYXU;2005-04-12 06:00;METAR CYXU 120600Z 08012KT 15SM FEW230 04/M09 A3017 RMK CI1 SLP221=

CYXU;2005-04-12 08:00;METAR CYXU 120800Z 09013KT 15SM FEW230 02/M08 A3014 RMK CI1 SLP213=

CYXU;2005-04-12 10:00;METAR CYXU 121000Z 09011KT 15SM FEW240 01/M07 A3015 RMK CI1 SLP215=

CYXU;2005-04-12 11:00;METAR CYXU 121100Z 10013G18KT 15SM BKN240 02/M08 A3015 RMK CI0 SLP215=

CYXU;2005-04-12 12:00;METAR CYXU 121200Z 10014KT 15SM OVC250 03/M08 A3015 RMK CI0 SLP217=

CYXU;2005-04-12 13:00;METAR CYXU 121300Z 10014G20KT 15SM BKN250 04/M07 A3015 RMK CI0 SLP216=

CYXU;2005-04-12 14:00;METAR CYXU 121400Z 11018G25KT 15SM OVC250 05/M09 A3013 RMK CI0 SLP210=

CYXU;2005-04-12 15:00;METAR CYXU 121500Z 09021KT 15SM BKN250 06/M09 A3011 RMK CI1 SLP203=

CYXU;2005-04-12 16:00;METAR CYXU 121600Z 08019G24KT 15SM BKN250 08/M08 A3009 RMK CI1 SLP196=

CYXU;2005-04-12 18:00;METAR CYXU 121800Z 09017G24KT 15SM OVC250 10/M05 A3003 RMK CI1 SLP177=

CYXU;2005-04-12 19:00;METAR CYXU 121900Z 08015G20KT 15SM BKN250 11/M05 A3000 RMK CI1 SLP167=

CYXU;2005-04-12 20:00;METAR CYXU 122000Z 08016G21KT 15SM BKN250 10/M05 A2999 RMK CI1 SLP162=

CYXU;2005-04-12 21:00;METAR CYXU 122100Z 09018KT 15SM BKN250 09/M07 A2997 RMK CI1 SLP157=

CYXU;2005-04-12 22:00;METAR CYXU 122200Z 09016KT 15SM FEW250 09/M08 A2997 RMK CI1 SLP157=

CYXU;2005-04-13 00:00;METAR CYXU 130000Z 08009G16KT 15SM SKC 06/M09 A2997 RMK SLP155=

CYXU;2005-04-13 02:00;METAR CYXU 130200Z 05009KT 15SM SKC 03/M09 A2998 RMK SLP161=

CYXU;2005-04-13 04:00;METAR CYXU 130400Z 05008KT 15SM SKC 03/M09 A2999 RMK SLP162=

CYXU;2005-04-13 07:00;METAR CYXU 130700Z 06006KT 15SM SKC 01/M08 A2998 RMK SLP160=

CYXU;2005-04-13 09:00;METAR CYXU 130900Z 05007KT 15SM SKC 01/M08 A2998 RMK SLP160=

CYXU;2005-04-13 10:00;METAR CYXU 131000Z 06007KT 15SM FEW250 01/M08 A2999 RMK CI1 SLP162=

CYXU;2005-04-13 12:00;METAR CYXU 131200Z 05008KT 15SM SKC 03/M08 A3002 RMK SLP172=

CYXU;2005-04-13 13:00;METAR CYXU 131300Z 05010KT 15SM SKC 06/M08 A3004 RMK SLP179=

CYXU;2005-04-13 14:00;METAR CYXU 131400Z 07009KT 15SM SKC 08/M08 A3006 RMK SLP187=

CYXU;2005-04-13 15:00;METAR CYXU 131500Z 06008KT 15SM FEW250 09/M08 A3006 RMK CI1 SLP187=

CYXU;2005-04-13 16:00;METAR CYXU 131600Z 04010KT 15SM FEW250 11/M08 A3007 RMK CI1 SLP188=

CYXU;2005-04-13 18:00;METAR CYXU 131800Z 05009G18KT 15SM FEW250 12/M07 A3007 RMK CI1 SLP190=

CYXU;2005-04-13 19:00;METAR CYXU 131900Z 07013KT 15SM FEW250 13/M07 A3007 RMK CI1 SLP188=

CYXU;2005-04-13 21:00;METAR CYXU 132100Z 04008KT 15SM FEW250 14/M07 A3006 RMK CI2 SLP185=

CYXU;2005-04-13 22:00;METAR CYXU 132200Z 03008KT 15SM FEW250 14/M06 A3007 RMK CI1 SLP189=

CYXU;2005-04-14 00:00;METAR CYXU 140000Z 05004KT 15SM FEW250 11/M03 A3010 RMK CI1 SLP198=

CYXU;2005-04-14 02:00;METAR CYXU 140200Z 02007KT 15SM SKC 09/M04 A3014 RMK SLP212=

CYXU;2005-04-14 04:00;METAR CYXU 140400Z 36006KT 15SM SKC 07/M05 A3015 RMK SLP215=

CYXU;2005-04-14 05:00;METAR CYXU 140500Z 34005KT 15SM SKC 06/M05 A3016 RMK SLP218=

CYXU;2005-04-14 06:00;METAR CYXU 140600Z 35005KT 15SM SKC 05/M06 A3016 RMK SLP217=

CYXU;2005-04-14 08:00;METAR CYXU 140800Z 02006KT 15SM SKC 04/M06 A3015 RMK SLP215=

CYXU;2005-04-14 09:00;METAR CYXU 140900Z 05006KT 15SM SKC 04/M06 A3016 RMK SLP217=

CYXU;2005-04-14 10:00;METAR CYXU 141000Z 05007KT 15SM SKC 04/M07 A3017 RMK SLP222=

CYXU;2005-04-14 12:00;METAR CYXU 141200Z 06007KT 15SM FEW240 06/M06 A3020 RMK CI0 SLP233=

CYXU;2005-04-14 13:00;METAR CYXU 141300Z 07008KT 15SM FEW240 09/M06 A3022 RMK CI0 SLP239=

CYXU;2005-04-14 14:00;METAR CYXU 141400Z 07005KT 15SM FEW240 11/M06 A3024 RMK CI0 SLP244=

CYXU;2005-04-14 16:00;METAR CYXU 141600Z 35006KT 15SM FEW140 SCT240 13/M05 A3024 RMK AC1CI2 SLP244=

CYXU;2005-04-14 17:00;METAR CYXU 141700Z 01007KT 15SM SCT250 14/M04 A3024 RMK CI1 SLP243=

CYXU;2005-04-14 18:00;METAR CYXU 141800Z 36007KT 15SM SCT250 15/M04 A3023 RMK CI2 SLP241=

CYXU;2005-04-14 19:00;METAR CYXU 141900Z 04009KT 15SM FEW250 16/M03 A3022 RMK CI0 SLP239=

CYXU;2005-04-14 20:00;METAR CYXU 142000Z 05010KT 15SM FEW250 16/M03 A3021 RMK CI1 SLP236=

CYXU;2005-04-14 21:00;METAR CYXU 142100Z 05006KT 15SM FEW250 16/M04 A3021 RMK CI1 SLP236=

CYXU;2005-04-14 22:00;METAR CYXU 142200Z 03008KT 15SM FEW250 16/M04 A3021 RMK CI1 SLP236=

CYXU;2005-04-14 23:00;METAR CYXU 142300Z 11010KT 15SM FEW250 15/M04 A3023 RMK CI1 SLP240=

CYXU;2005-04-15 00:00;METAR CYXU 150000Z 17004KT 15SM FEW250 10/00 A3024 RMK CI1 SLP246=

CYXU;2005-04-15 01:00;METAR CYXU 150100Z 00000KT 15SM SKC 09/M01 A3027 RMK SLP255=

CYXU;2005-04-15 02:00;METAR CYXU 150200Z 00000KT 15SM SKC 07/M01 A3028 RMK SLP260=

CYXU;2005-04-15 03:00;METAR CYXU 150300Z 04005KT 15SM SKC 06/M01 A3030 RMK SLP265=

CYXU;2005-04-15 05:00;METAR CYXU 150500Z 05007KT 15SM SKC 04/M03 A3032 RMK SLP273=

CYXU;2005-04-15 06:00;METAR CYXU 150600Z 06006KT 15SM SKC 04/M03 A3034 RMK SLP277=

CYXU;2005-04-15 09:00;METAR CYXU 150900Z 06008KT 15SM SKC 03/M03 A3037 RMK SLP288=

CYXU;2005-04-15 10:00;METAR CYXU 151000Z 07007KT 15SM SKC 04/M06 A3038 RMK SLP294=

CYXU;2005-04-15 12:00;METAR CYXU 151200Z 07011G17KT 15SM SKC 04/M07 A3043 RMK SLP312=

CYXU;2005-04-15 13:00;METAR CYXU 151300Z 08012KT 15SM SKC 06/M07 A3044 RMK SLP316=

CYXU;2005-04-15 14:00;METAR CYXU 151400Z 09013KT 15SM SKC 08/M05 A3045 RMK SLP318=

CYXU;2005-04-15 16:00;METAR CYXU 151600Z 07012G18KT 15SM SKC 12/M03 A3046 RMK SLP321=

CYXU;2005-04-15 17:00;METAR CYXU 151700Z 08011G17KT 15SM SKC 12/M03 A3046 RMK SLP322=

CYXU;2005-04-15 20:00;METAR CYXU 152000Z 07009G16KT 15SM SKC 14/M05 A3044 RMK SLP314=

CYXU;2005-04-15 22:00;METAR CYXU 152200Z 09009KT 15SM SKC 13/M06 A3044 RMK SLP314=

CYXU;2005-04-16 00:00;METAR CYXU 160000Z 10009KT 15SM FEW250 10/M05 A3043 RMK CI0 SLP312=

CYXU;2005-04-16 03:00;METAR CYXU 160300Z 09006KT 15SM SKC 05/M06 A3045 RMK SLP317=

CYXU;2005-04-16 04:00;METAR CYXU 160400Z 08006KT 15SM SKC 05/M05 A3045 RMK SLP317=

CYXU;2005-04-16 06:00;METAR CYXU 160600Z 08005KT 15SM SKC 04/M04 A3044 RMK SLP313=

CYXU;2005-04-16 10:00;METAR CYXU 161000Z 10005KT 15SM SKC 03/M04 A3048 RMK SLP327=

CYXU;2005-04-16 11:00;METAR CYXU 161100Z 10004KT 15SM FEW240 02/M03 A3049 RMK CI0 SLP332=

CYXU;2005-04-16 12:00;METAR CYXU 161200Z 12004KT 15SM SKC 05/M02 A3050 RMK SLP337=

CYXU;2005-04-16 14:00;METAR CYXU 161400Z 21008KT 15SM SKC 14/M00 A3051 RMK SLP339=

CYXU;2005-04-16 16:00;METAR CYXU 161600Z 22010G16KT 15SM SKC 16/M03 A3050 RMK SLP333=

CYXU;2005-04-16 17:00;METAR CYXU 161700Z 19012KT 15SM SKC 16/M05 A3048 RMK SLP328=

CYXU;2005-04-16 18:00;METAR CYXU 161800Z 22010G16KT 15SM SKC 17/M05 A3047 RMK SLP324=

CYXU;2005-04-16 22:00;METAR CYXU 162200Z 17009KT 15SM BKN200 17/M07 A3038 RMK CI2 SLP293=

CYXU;2005-04-16 23:00;METAR CYXU 162300Z 20006KT 15SM BKN200 15/M08 A3037 RMK CI2 SLP289=

CYXU;2005-04-17 01:00;METAR CYXU 170100Z 18003KT 15SM BKN200 11/M04 A3036 RMK CI2 SLP285=

CYXU;2005-04-17 04:00;METAR CYXU 170400Z 16005KT 15SM SCT200 09/M05 A3033 RMK CI2 SLP274=

CYXU;2005-04-17 05:00;METAR CYXU 170500Z 15002KT 15SM FEW200 07/M05 A3032 RMK CI2 SLP270=

CYXU;2005-04-17 06:00;METAR CYXU 170600Z 14003KT 15SM FEW200 06/M04 A3030 RMK CI2 SLP266=

CYXU;2005-04-17 07:00;METAR CYXU 170700Z 00000KT 15SM SCT250 05/M04 A3029 RMK CI2 SLP261=

CYXU;2005-04-17 10:00;METAR CYXU 171000Z 12003KT 15SM BKN220 03/M03 A3026 RMK CI5 SLP252=

CYXU;2005-04-17 12:00;METAR CYXU 171200Z 34003KT 15SM BKN180 OVC220 06/00 A3028 RMK AC5CI2 VIRGA SLP259=

CYXU;2005-04-17 13:00;METAR CYXU 171300Z 00000KT 15SM SCT180 BKN220 09/00 A3028 RMK AC4CI1 VIRGA SLP258=

CYXU;2005-04-17 14:00;METAR CYXU 171400Z 34003KT 15SM SCT120 OVC220 13/M01 A3027 RMK AC4CI3 VIRGA SLP255=

CYXU;2005-04-17 15:00;METAR CYXU 171500Z 29003KT 15SM SCT100 BKN220 15/01 A3026 RMK AC4CI3 VIRGA SLP249=

CYXU;2005-04-17 16:00;METAR CYXU 171600Z 02004KT 15SM BKN080 BKN220 17/03 A3023 RMK AC6CI2 SLP240=

CYXU;2005-04-17 17:00;METAR CYXU 171700Z 00000KT 15SM BKN085 BKN250 18/03 A3022 RMK AC5CI1 SLP238=

CYXU;2005-04-17 17:52;SPECI CYXU 171752Z 19005KT 15SM -SHRA BKN085 OVC250 RMK AC6CI2 ACC ASOCTD=

CYXU;2005-04-17 18:00;METAR CYXU 171800Z 18005KT 15SM BKN090 OVC250 19/05 A3021 RMK AC6CI2 VIRGA SLP232=

CYXU;2005-04-17 18:15;SPECI CYXU 171815Z 25005KT 15SM -SHRA OVC090 RMK AC8 ACC EMBDD=

CYXU;2005-04-17 19:08;SPECI CYXU 171908Z 24012KT 15SM -SHRA FEW016 FEW036 OVC062 RMK SC1SC2SC6=

CYXU;2005-04-17 19:43;SPECI CYXU 171943Z 25008KT 15SM BKN064 RMK SC7=

CYXU;2005-04-17 21:00;METAR CYXU 172100Z 26008KT 15SM BKN072 18/05 A3019 RMK AC7 SLP226=

CYXU;2005-04-17 22:00;METAR CYXU 172200Z 31005KT 15SM BKN062 18/05 A3018 RMK SC6 SLP225=

CYXU;2005-04-17 23:00;METAR CYXU 172300Z 33004KT 15SM BKN072 17/05 A3018 RMK AC6 SLP224=

CYXU;2005-04-18 00:00;METAR CYXU 180000Z 31003KT 15SM FEW070 FEW240 16/04 A3018 RMK AC1CI1 SLP223=

CYXU;2005-04-18 03:00;METAR CYXU 180300Z 35005KT 15SM SKC 12/04 A3019 RMK SLP226=

CYXU;2005-04-18 04:00;METAR CYXU 180400Z 36004KT 15SM SKC 09/04 A3019 RMK SLP224=

CYXU;2005-04-18 06:00;METAR CYXU 180600Z 36002KT 15SM SKC 07/03 A3017 RMK SLP219=

CYXU;2005-04-18 10:00;METAR CYXU 181000Z 07002KT 15SM SKC 04/01 A3018 RMK SLP223=

CYXU;2005-04-18 12:00;METAR CYXU 181200Z 09002KT 15SM SKC 07/03 A3020 RMK SLP231=

CYXU;2005-04-18 13:00;METAR CYXU 181300Z 11005KT 15SM SKC 12/05 A3021 RMK SLP233=

CYXU;2005-04-18 14:00;METAR CYXU 181400Z 14005KT 15SM SKC 15/05 A3020 RMK SLP232=

CYXU;2005-04-18 15:00;METAR CYXU 181500Z 13006KT 15SM SKC 17/05 A3020 RMK SLP229=

CYXU;2005-04-18 16:00;METAR CYXU 181600Z 13005KT 15SM SKC 18/06 A3020 RMK SLP228=

CYXU;2005-04-18 17:00;METAR CYXU 181700Z 15002KT 15SM SKC 19/07 A3017 RMK SLP220=

CYXU;2005-04-18 19:00;METAR CYXU 181900Z 16006KT 15SM FEW220 21/04 A3014 RMK CI1 SLP208=

CYXU;2005-04-18 21:00;METAR CYXU 182100Z 16003KT 15SM FEW220 21/05 A3010 RMK CI0 SLP195=

CYXU;2005-04-18 22:00;METAR CYXU 182200Z 18005KT 15SM OVC220 21/06 A3008 RMK CI1 SLP190=

CYXU;2005-04-19 00:00;METAR CYXU 190000Z 19006KT 15SM OVC220 17/06 A3007 RMK CI2 SLP187=

CYXU;2005-04-19 02:00;METAR CYXU 190200Z 14004KT 15SM SKC 13/05 A3009 RMK SLP193=

CYXU;2005-04-19 04:00;METAR CYXU 190400Z 14002KT 15SM SKC 11/04 A3007 RMK SLP185=

CYXU;2005-04-19 06:00;METAR CYXU 190600Z 14002KT 12SM SKC 09/04 A3006 RMK SLP180=

CYXU;2005-04-19 07:00;METAR CYXU 190700Z 00000KT 12SM SKC 08/04 A3004 RMK SLP175=

CYXU;2005-04-19 08:00;METAR CYXU 190800Z 11002KT 12SM SKC 08/04 A3003 RMK SLP172=

CYXU;2005-04-19 09:00;METAR CYXU 190900Z 13002KT 12SM SKC 09/03 A3003 RMK SLP169=

CYXU;2005-04-19 10:00;METAR CYXU 191000Z 09004KT 12SM SKC 08/03 A3003 RMK SLP169=

CYXU;2005-04-19 11:00;METAR CYXU 191100Z 09005KT 15SM SCT120 08/03 A3003 RMK AC3 SLP171=

CYXU;2005-04-19 12:00;METAR CYXU 191200Z 12004KT 15SM BKN120 11/04 A3004 RMK AC5 SLP174=

CYXU;2005-04-19 13:00;METAR CYXU 191300Z 19006KT 15SM SCT120 15/07 A3004 RMK AC3 SLP173=

CYXU;2005-04-19 14:00;METAR CYXU 191400Z 18005KT 12SM FEW040 SCT120 18/09 A3003 RMK CU1AC2 SLP169=

CYXU;2005-04-19 15:00;METAR CYXU 191500Z 20005KT 12SM FEW060 FEW120 22/09 A3002 RMK CU1AC2 SLP164=

CYXU;2005-04-19 16:00;METAR CYXU 191600Z 24006KT 10SM FEW060TCU FEW120 24/10 A3001 RMK TCU2AC1 SLP161=

CYXU;2005-04-19 17:00;METAR CYXU 191700Z 25007KT 10SM FEW060TCU FEW120 25/10 A2998 RMK TCU1AC1 SLP153=

CYXU;2005-04-19 18:00;METAR CYXU 191800Z 21013G18KT 10SM FEW070TCU 28/11 A2996 RMK TCU2 SLP144=

CYXU;2005-04-19 19:00;METAR CYXU 191900Z 21014G20KT 10SM SCT070TCU 26/11 A2994 RMK TCU3 SLP138=

CYXU;2005-04-19 22:00;METAR CYXU 192200Z 25015KT 10SM FEW080 FEW250 26/06 A2990 RMK AC1CI0 SLP122=

CYXU;2005-04-19 23:00;METAR CYXU 192300Z 24013KT 10SM SCT250 25/08 A2990 RMK CI1 SLP122=

CYXU;2005-04-20 01:00;METAR CYXU 200100Z 22008KT 10SM BKN250 21/08 A2990 RMK CI2 SLP126=

CYXU;2005-04-20 04:00;METAR CYXU 200400Z 23009KT 10SM BKN250 18/07 A2990 RMK CI3 SLP124=

CYXU;2005-04-20 05:00;METAR CYXU 200500Z 23008KT 15SM FEW210 18/07 A2990 RMK CI1 SLP123=

CYXU;2005-04-20 10:00;METAR CYXU 201000Z 21006KT 15SM FEW250 15/08 A2984 RMK CI2 SLP101=

CYXU;2005-04-20 12:00;METAR CYXU 201200Z 22008KT 15SM BKN086 BKN250 15/08 A2984 RMK AC6CI1 SLP102=

CYXU;2005-04-20 12:17;SPECI CYXU 201217Z 26009KT 12SM -SHRA OVC083 RMK ACC8=

CYXU;2005-04-20 12:48;SPECI CYXU 201248Z 26006KT 2 1/2SM -RA BR SCT038 OVC060 RMK SF3NS5=

CYXU;2005-04-20 13:00;METAR CYXU 201300Z 24005KT 4SM -RA FEW040 OVC072 13/11 A2984 RMK SC2AS6 SLP104=

CYXU;2005-04-20 13:33;SPECI CYXU 201333Z 20005KT 4SM BR FEW070 BKN100 RMK AC2AS6=

CYXU;2005-04-20 14:00;METAR CYXU 201400Z 19006KT 3SM BR BKN086 BKN250 15/13 A2980 RMK AC6CS1 VSBY LWR NW SLP089=

CYXU;2005-04-20 14:13;SPECI CYXU 201413Z 22007KT 2 1/2SM -RA BR FEW022 OVC071 RMK SF2AS6=

CYXU;2005-04-20 14:41;SPECI CYXU 201441Z 21010KT 4SM -RA BR FEW050 OVC076 RMK SC2AS6=

CYXU;2005-04-20 15:00;METAR CYXU 201500Z 21012KT 2 1/2SM -RA BR FEW030 OVC080 14/12 A2980 RMK SC2AS6 SLP092=

CYXU;2005-04-20 15:05;SPECI CYXU 201505Z 21012KT 2 1/2SM RA BR FEW030 OVC078 RMK SC2AS6=

CYXU;2005-04-20 15:11;SPECI CYXU 201511Z 19014G19KT 2 1/2SM TSRA BR BKN040CB OVC080 RMK CB5AS3=

CYXU;2005-04-20 15:28;SPECI CYXU 201528Z 22008KT 10SM BKN050 OVC080 RERA RMK SC5AS3=

CYXU;2005-04-20 16:00;METAR CYXU 201600Z 21010KT 5SM +SHRA BR OVC041TCU 15/13 A2978 RMK TCU8 SLP083=

CYXU;2005-04-20 16:18;SPECI CYXU 201618Z 19011KT 4SM -SHRA BR FEW009 OVC035 RERA RMK SF1SC7 TCU EMBD=

CYXU;2005-04-20 16:37;SPECI CYXU 201637Z 21008KT 4SM BR OVC039 RERA RMK SC8=

CYXU;2005-04-20 17:00;METAR CYXU 201700Z 22012KT 10SM OVC026 16/13 A2976 RERA RMK SC8 SLP076=

CYXU;2005-04-20 18:15;SPECI CYXU 201815Z 25009G15KT 2SM -SHRA BR OVC019TCU RMK FG1TCU7=

CYXU;2005-04-20 18:34;SPECI CYXU 201834Z 30010G18KT 2SM -SHRA BR FEW009 OVC012 RMK FG1SF2SC6 TCU EMBD=

CYXU;2005-04-20 18:43;SPECI CYXU 201843Z 30015G20KT 5SM -SHRA BR BKN008 OVC015 RMK SC6SC2 TCU EMBD=

CYXU;2005-04-20 18:54;SPECI CYXU 201854Z 31012G18KT 5SM BR BKN010 OVC015 RMK SC6SC2=

CYXU;2005-04-20 22:00;METAR CYXU 202200Z 29012G18KT 10SM OVC004 08/06 A2984 RMK SC8 SLP108=

CYXU;2005-04-20 22:51;SPECI CYXU 202251Z 34014G19KT 10SM BKN006 OVC012 RMK SC6SC2=

CYXU;2005-04-21 00:00;METAR CYXU 210000Z 35011G16KT 15SM BKN008 OVC012 07/05 A2991 RMK SC7SC1 SLP132=

CYXU;2005-04-21 01:00;METAR CYXU 210100Z 34010G15KT 15SM OVC008 06/04 A2996 RMK SC8 SLP149=

CYXU;2005-04-21 04:00;METAR CYXU 210400Z 03010KT 15SM OVC011 06/03 A3003 RMK SC8 SLP173=

CYXU;2005-04-21 06:00;METAR CYXU 210600Z 05007KT 15SM SCT013 BKN032 05/02 A3006 RMK SC3SC3 SLP183=

CYXU;2005-04-21 07:00;METAR CYXU 210700Z 36003KT 15SM FEW250 04/01 A3007 RMK CI0 SLP185=

CYXU;2005-04-21 08:00;METAR CYXU 210800Z 02005KT 15SM FEW250 03/M01 A3007 RMK CI0 SLP186=

CYXU;2005-04-21 10:00;METAR CYXU 211000Z 02003KT 15SM FEW240 01/M02 A3008 RMK CI0 SLP194=

CYXU;2005-04-21 11:00;METAR CYXU 211100Z 04006KT 15SM FEW240 01/M03 A3009 RMK CI0 SLP196=

CYXU;2005-04-21 12:00;METAR CYXU 211200Z 03006KT 15SM FEW240 04/M02 A3011 RMK CI0 SLP205=

CYXU;2005-04-21 13:00;METAR CYXU 211300Z 07007KT 15SM SCT240 06/M03 A3012 RMK CI1 CONTRAILS SLP208=

CYXU;2005-04-21 15:00;METAR CYXU 211500Z 07008KT 15SM FEW280 09/M05 A3013 RMK CI0 SLP211=

CYXU;2005-04-21 16:00;METAR CYXU 211600Z 06006KT 15SM FEW280 10/M04 A3013 RMK CI0 SLP210=

CYXU;2005-04-21 17:00;METAR CYXU 211700Z 09007KT 15SM FEW280 10/M04 A3013 RMK CI0 SLP208=

CYXU;2005-04-21 18:00;METAR CYXU 211800Z 07003KT 15SM FEW280 11/M03 A3012 RMK CI1 SLP205=

CYXU;2005-04-21 20:00;METAR CYXU 212000Z 02005KT 15SM FEW250 13/M04 A3008 RMK CI2 SLP191=

CYXU;2005-04-21 21:00;METAR CYXU 212100Z 08005KT 15SM FEW250 13/M02 A3005 RMK CI1 SLP182=

CYXU;2005-04-21 22:00;METAR CYXU 212200Z 06006KT 15SM FEW250 13/M03 A3004 RMK CI1 SLP179=

CYXU;2005-04-21 23:00;METAR CYXU 212300Z 20011KT 15SM FEW250 11/01 A3003 RMK CI1 SLP175=

CYXU;2005-04-22 00:00;METAR CYXU 220000Z 21008KT 15SM FEW250 09/00 A3002 RMK CI1 SLP173=

CYXU;2005-04-22 02:00;METAR CYXU 220200Z 00000KT 15SM SKC 06/M01 A3003 RMK SLP176=

CYXU;2005-04-22 03:00;METAR CYXU 220300Z 23002KT 15SM SKC 05/M01 A3002 RMK SLP172=

CYXU;2005-04-22 04:00;METAR CYXU 220400Z 14003KT 15SM SKC 04/M01 A2999 RMK SLP163=

CYXU;2005-04-22 05:00;METAR CYXU 220500Z 00000KT 15SM FEW250 04/M01 A3000 RMK CI0 SLP166=

CYXU;2005-04-22 06:00;METAR CYXU 220600Z 05003KT 15SM SKC 03/M01 A2999 RMK SLP163=

CYXU;2005-04-22 09:00;METAR CYXU 220900Z 05006KT 15SM FEW250 03/M04 A2990 RMK CI1 SLP130=

CYXU;2005-04-22 10:00;METAR CYXU 221000Z 07007KT 15SM FEW250 02/M04 A2987 RMK CI0 SLP122=

CYXU;2005-04-22 12:00;METAR CYXU 221200Z 08009KT 15SM BKN170 BKN250 04/M03 A2986 RMK AC4CI0 SLP117=

CYXU;2005-04-22 13:00;METAR CYXU 221300Z 08011KT 15SM BKN140 OVC250 07/M02 A2984 RMK AC6CI2 SLP112=

CYXU;2005-04-22 16:00;METAR CYXU 221600Z 08012KT 15SM BKN140 OVC250 11/M00 A2976 RMK AC6CS2 ACC ASOCTD SLP082=

CYXU;2005-04-22 17:00;METAR CYXU 221700Z 11008KT 15SM SCT140 OVC240 12/01 A2974 RMK AC4CS3 ACC ASOCTD SLP078=

CYXU;2005-04-22 18:00;METAR CYXU 221800Z 08011KT 15SM FEW070 BKN130 OVC250 13/01 A2972 RMK ACC1AC4CS3 SLP069=

CYXU;2005-04-22 19:00;METAR CYXU 221900Z 09012KT 15SM FEW060 BKN090 OVC250 12/00 A2969 RMK ACC1AC5CS2 SLP059=

CYXU;2005-04-22 20:00;METAR CYXU 222000Z 09012KT 15SM BKN072 OVC220 11/M01 A2966 RMK AC6CS2 ACC ASOCTD SLP048=

CYXU;2005-04-22 20:46;SPECI CYXU 222046Z 07010KT 15SM -RA SCT046 BKN060 OVC100 RMK SC4SC2AC2 ACC ASOCTD=

CYXU;2005-04-22 21:00;METAR CYXU 222100Z 09008KT 12SM -RA BKN048 OVC060 10/M00 A2966 RMK SC6SC2 ACC ASOCTD SLP050=

CYXU;2005-04-22 22:00;METAR CYXU 222200Z 10010KT 6SM -RA BR BKN040 OVC060 07/03 A2966 RMK SC6SC2 ACC ASOCTD SLP051=

CYXU;2005-04-22 22:18;SPECI CYXU 222218Z 09011KT 4SM -RA BR OVC040 RMK NS8=

CYXU;2005-04-22 22:53;SPECI CYXU 222253Z 08012KT 3SM -RA BR SCT007 OVC030 RMK SF3NS5=

CYXU;2005-04-22 23:00;METAR CYXU 222300Z 08011KT 3SM -RA BR SCT007 OVC035 06/04 A2965 RMK SF3NS5 SLP046=

CYXU;2005-04-22 23:28;SPECI CYXU 222328Z 07009KT 3SM -RA BR BKN007 OVC020 RMK SF5NS3=

CYXU;2005-04-23 00:00;METAR CYXU 230000Z 04006KT 3SM -RA BR BKN008 OVC033 05/03 A2963 RMK SF5NS3 SLP042=

CYXU;2005-04-23 00:29;SPECI CYXU 230029Z 04009KT 4SM -RA BR SCT008 BKN012 OVC025 RMK SF3SC3NS2=

CYXU;2005-04-23 06:00;METAR CYXU 230600Z 02011G16KT 8SM OVC014 07/04 A2953 RMK SC8 SLP002=

CYXU;2005-04-23 07:00;METAR CYXU 230700Z 02010G17KT 10SM OVC012 07/04 A2952 RMK SC8 SLP999=

CYXU;2005-04-23 08:00;METAR CYXU 230800Z 03010G16KT 6SM -DZ BR OVC011 06/04 A2950 RMK SC8 SLP992=

CYXU;2005-04-23 09:00;METAR CYXU 230900Z 04010G16KT 6SM -DZ BR OVC011 06/05 A2948 RMK SC8 SLP988=

CYXU;2005-04-23 09:54;SPECI CYXU 230954Z 03011G19KT 6SM BR OVC009 RMK SC8=

CYXU;2005-04-23 10:00;METAR CYXU 231000Z 04011G19KT 6SM BR OVC009 06/04 A2946 RMK SC8 SLP981=

CYXU;2005-04-23 12:00;METAR CYXU 231200Z 03012G18KT 7SM OVC009 06/04 A2945 RMK SC8 SLP977=

CYXU;2005-04-23 12:47;SPECI CYXU 231247Z 02015G22KT 7SM -RA OVC009 RMK SC8=

CYXU;2005-04-23 13:00;METAR CYXU 231300Z 02013G21KT 7SM -RA OVC009 06/04 A2943 RMK SC8 SLP973=

CYXU;2005-04-23 14:00;METAR CYXU 231400Z 03011KT 3SM -RA BR OVC009 06/04 A2944 RMK SC8 SLP975=

CYXU;2005-04-23 14:09;SPECI CYXU 231409Z 03012KT 2 1/2SM -RA BR OVC009 RMK SC8=

CYXU;2005-04-23 14:38;SPECI CYXU 231438Z 02013G18KT 4SM -RA BR OVC011 RMK SC8=

CYXU;2005-04-23 15:00;METAR CYXU 231500Z 36015KT 5SM -RA BR OVC009 05/04 A2941 RMK SC8 SLP966=

CYXU;2005-04-23 15:26;SPECI CYXU 231526Z 36014G20KT 2 1/2SM -RA BR OVC008 RMK SC8=

CYXU;2005-04-23 15:36;SPECI CYXU 231536Z 36014G19KT 1 1/2SM RA BR OVC007 RMK SF8=

CYXU;2005-04-23 15:44;SPECI CYXU 231544Z 36014G19KT 2 1/2SM +RA BR OVC008 RMK SF8=

CYXU;2005-04-23 16:00;METAR CYXU 231600Z 36015G24KT 2 1/2SM RA BR OVC008 03/02 A2941 RMK SF8 SLP966=

CYXU;2005-04-23 16:15;SPECI CYXU 231615Z 36012G22KT 2 1/2SM RASN BR OVC008 RMK SF8=

CYXU;2005-04-23 16:46;SPECI CYXU 231646Z 35013KT 1 1/2SM -RASN BR OVC004 RMK FG2SF6=

CYXU;2005-04-23 17:00;METAR CYXU 231700Z 36012G17KT 1 1/2SM -RASN BR OVC004 01/00 A2940 RMK FG2SF6 RERA /R010/ SLP963=

CYXU;2005-04-23 20:00;METAR CYXU 232000Z 35014G21KT 1SM R15/P6000FT/U -SN OVC005 01/M01 A2940 RMK FG2SF6 SLP964=

CYXU;2005-04-23 20:18;SPECI CYXU 232018Z 34017G22KT 1 1/2SM -SN BKN005 OVC021 RMK FG2SF5SC2=

CYXU;2005-04-23 21:00;METAR CYXU 232100Z 34014G19KT 1SM R15/P6000FT/D -SN OVC008 00/M01 A2941 RMK FG2SF6 SLP965=

CYXU;2005-04-23 21:25;SPECI CYXU 232125Z 34014KT 1 1/2SM -SN BKN007 OVC020 RMK FG2SF6SC1 CIG RAG=

CYXU;2005-04-23 21:40;SPECI CYXU 232140Z 34014G20KT 2SM -SN BKN009 OVC020 RMK FG2SF5SC2 CIG RAG=

CYXU;2005-04-23 22:00;METAR CYXU 232200Z 34015G20KT 2SM -SN BKN008 OVC021 01/M01 A2941 RMK FG2SF5NS2 CIG RAG SLP966=

CYXU;2005-04-23 23:00;METAR CYXU 232300Z 34014KT 1 1/2SM -SN BKN008 OVC020 01/M01 A2941 RMK FG2SF6NS1 SLP966=

CYXU;2005-04-24 00:00;METAR CYXU 240000Z 34013G18KT 1 1/2SM -SN OVC009 01/M00 A2940 RMK FG2SF6 NS ASOCTD SLP964=

CYXU;2005-04-24 03:48;SPECI CYXU 240348Z 36017G24KT 2SM -RASN BR SCT007 OVC022 RMK FG2SF2NS4=

CYXU;2005-04-24 04:00;METAR CYXU 240400Z 36016KT 2SM -RASN BR SCT007 OVC020 01/01 A2935 RMK FG2SF2NS4 SLP945=

CYXU;2005-04-24 06:00;METAR CYXU 240600Z 02013G18KT 2SM -RASN BR BKN006 OVC020 02/02 A2930 RMK SF5NS3 SLP930=

CYXU;2005-04-24 06:35;SPECI CYXU 240635Z 01012G18KT 2SM -DZ BR SCT007 OVC013 RMK SF3SC5=

CYXU;2005-04-24 07:00;METAR CYXU 240700Z 36011G18KT 4SM -DZ BR FEW007 OVC013 02/02 A2928 RMK SF1SC7 SLP923=

CYXU;2005-04-24 09:48;SPECI CYXU 240948Z 35011KT 2SM -RASN BR BKN004 OVC010 RMK SF6SC2=

CYXU;2005-04-24 10:00;METAR CYXU 241000Z 35008KT 2SM -RASN BR OVC004 01/00 A2925 RMK SF8 SLP913=

CYXU;2005-04-24 10:36;SPECI CYXU 241036Z 34009KT 1SM R15/P6000FT/N -RASN BR OVC003 RMK FG2SF6=

CYXU;2005-04-24 10:46;SPECI CYXU 241046Z 34008KT 3/4SM R15/P6000FT/D -SN OVC003 RMK FG3SF5=

CYXU;2005-04-24 11:00;METAR CYXU 241100Z 34009KT 3/4SM R15/P6000FT/N -SN OVC003 00/M00 A2924 RMK FG3SF5 SLP910=

CYXU;2005-04-24 11:21;SPECI CYXU 241121Z 34012KT 1/2SM R15/P6000FT/D SN VV002 RMK SN8=

CYXU;2005-04-24 11:50;SPECI CYXU 241150Z 33008KT 1/2SM R15/6000FT/D SN VV003 RMK SN8=

CYXU;2005-04-24 12:00;METAR CYXU 241200Z 34009KT 1/2SM R15/5000FT/D SN VV003 00/M00 A2923 RMK SN8 SLP906=

CYXU;2005-04-24 12:50;SPECI CYXU 241250Z 32013G19KT 1/4SM R15/4000FT/N +SN VV002 RMK SN8=

CYXU;2005-04-24 13:07;SPECI CYXU 241307Z 34010G16KT 2 1/2SM -SN OVC003 RMK SF8=

CYXU;2005-04-24 13:24;SPECI CYXU 241324Z 33010KT 3/4SM R15/P6000FT/D -SN OVC003 RMK SN2SF6=

CYXU;2005-04-24 13:47;SPECI CYXU 241347Z 34012KT 1/4SM R15/3500V5000FT/D +SN VV004 RMK SN8=

CYXU;2005-04-24 14:32;SPECI CYXU 241432Z 33008KT 2SM -SN OVC007 RMK SN2SF6 RESN=

CYXU;2005-04-24 15:20;SPECI CYXU 241520Z 31010G15KT 2 1/2SM -SN OVC004 RMK SF8=

CYXU;2005-04-24 15:34;SPECI CYXU 241534Z 33010KT 4SM -SN OVC004 RMK SF8=

CYXU;2005-04-24 16:00;METAR CYXU 241600Z 31008KT 7SM -SN OVC004 02/00 A2919 RMK SF8 /S03/ SLP893=

CYXU;2005-04-24 16:34;SPECI CYXU 241634Z 32008KT 2 1/2SM -SN OVC004 RMK SF8=

CYXU;2005-04-24 18:00;METAR CYXU 241800Z 31008KT 2SM -SN OVC004 01/00 A2919 RMK SF8 SLP894=

CYXU;2005-04-24 18:22;SPECI CYXU 241822Z 31008KT 4SM -SN OVC004 RMK SF8=

CYXU;2005-04-24 19:00;METAR CYXU 241900Z 31010G15KT 3SM -SN OVC006 02/01 A2920 RMK SN2SF6 NS ASOCTD SLP897=

CYXU;2005-04-24 19:14;SPECI CYXU 241914Z 31010G17KT 5SM -SN OVC007 RMK SF8 NS ASOCTD=

CYXU;2005-04-24 20:00;METAR CYXU 242000Z 31009G16KT 5SM -SN BKN008 OVC020 02/00 A2921 RMK SF6NS2 NS ASOCTD/OBS TAKEN +9 SLP900=

CYXU;2005-04-24 21:00;METAR CYXU 242100Z 31009G15KT 4SM -SN OVC007 01/00 A2922 RMK SF8 CIG RAG/NS ASOCTD SLP903=

CYXU;2005-04-24 22:00;METAR CYXU 242200Z 29010G15KT 3SM -SN BKN007 OVC013 01/M00 A2923 RMK SN2SF5NS2 CIG RAG SLP906=

CYXU;2005-04-24 23:10;SPECI CYXU 242310Z 29011KT 1 1/2SM -SN OVC006 RMK FG3NS5=

CYXU;2005-04-24 23:15;SPECI CYXU 242315Z 29010G15KT 2SM -SN OVC006 RMK FG3NS5=

CYXU;2005-04-24 23:20;SPECI CYXU 242320Z 29010G15KT 3SM -SN OVC007 RMK FG2NS6=

CYXU;2005-04-24 23:44;SPECI CYXU 242344Z 29008KT 1 1/2SM -SN OVC006 RMK FG3NS5=

CYXU;2005-04-25 00:00;METAR CYXU 250000Z 29008KT 2SM -SN OVC007 01/M00 A2925 RMK FG2NS6 SLP914=

CYXU;2005-04-25 00:22;SPECI CYXU 250022Z 28009KT 1 1/2SM -SN OVC007 RMK FG3NS5=

CYXU;2005-04-25 00:53;SPECI CYXU 250053Z 27009KT 2SM -SN OVC007 RMK FG2NS6=

CYXU;2005-04-25 01:00;METAR CYXU 250100Z 27009KT 2SM -SN OVC006 01/M00 A2926 RMK FG2NS6 SLP917=

CYXU;2005-04-25 01:23;SPECI CYXU 250123Z 27008KT 2SM -SN OVC005 RMK FG2NS6=

CYXU;2005-04-25 03:00;METAR CYXU 250300Z 26009KT 2SM -SN OVC005 00/M01 A2926 RMK SN2NS6 SLP918=

CYXU;2005-04-25 03:20;SPECI CYXU 250320Z 26009KT 1 1/2SM -SN OVC005 RMK SN2NS6=

CYXU;2005-04-25 03:53;SPECI CYXU 250353Z 26009KT 1 1/2SM -SN OVC006 RMK SN2NS6=

CYXU;2005-04-25 05:00;METAR CYXU 250500Z 27009KT 1 1/2SM -SN BR VV006 01/M00 A2926 RMK SN8 SLP918=

CYXU;2005-04-25 07:00;METAR CYXU 250700Z 25009KT 2SM -SN BR VV006 01/M00 A2927 RMK SN8 SLP920=

CYXU;2005-04-25 09:43;SPECI CYXU 250943Z 26010KT 1 1/2SM -SN BR OVC004 RMK SF8=

CYXU;2005-04-25 10:00;METAR CYXU 251000Z 26011KT 1 1/2SM -SN BR OVC004 01/M00 A2930 RMK SF8 SLP930=

CYXU;2005-04-25 10:22;SPECI CYXU 251022Z 26010KT 4SM -SN OVC004 RMK SF8=

CYXU;2005-04-25 10:36;SPECI CYXU 251036Z 26009KT 2SM -RASN OVC004 RMK SF8=

CYXU;2005-04-25 11:00;METAR CYXU 251100Z 26009KT 1 1/2SM -SN OVC004 01/M00 A2932 RMK SF8 SLP935=

CYXU;2005-04-25 11:21;SPECI CYXU 251121Z 26009KT 1SM R15/P6000FT/D -SN OVC003 RMK FG2SF6=

CYXU;2005-04-25 12:00;METAR CYXU 251200Z 26008G15KT 2 1/2SM -SN OVC003 01/M00 A2933 RMK SF8 SLP941=

CYXU;2005-04-25 12:31;SPECI CYXU 251231Z 27009KT 2SM -SN OVC004 RMK SF8=

CYXU;2005-04-25 13:18;SPECI CYXU 251318Z 27010G15KT 3SM -RA BR OVC004 RMK SF8=

CYXU;2005-04-25 14:00;METAR CYXU 251400Z 26012KT 4SM -RA BR OVC004 02/01 A2937 RMK SF8 SLP954=

CYXU;2005-04-25 14:24;SPECI CYXU 251424Z 27012G17KT 4SM -RA BR OVC005 RMK SF8=

CYXU;2005-04-25 15:00;METAR CYXU 251500Z 27011G17KT 4SM -RA BR OVC005 03/02 A2940 RMK SF8 SLP963=

CYXU;2005-04-25 15:43;SPECI CYXU 251543Z 27013KT 3SM -RA BR OVC006 RMK SF8=

CYXU;2005-04-25 16:00;METAR CYXU 251600Z 27010G17KT 4SM -RA BR OVC007 03/01 A2943 RMK SF8 SLP973=

CYXU;2005-04-25 16:29;SPECI CYXU 251629Z 27010G19KT 4SM -RA BR OVC008 RMK SF8=

CYXU;2005-04-25 17:00;METAR CYXU 251700Z 27011KT 7SM OVC011 04/01 A2945 RMK SC8 SLP981=

CYXU;2005-04-25 17:42;SPECI CYXU 251742Z 27009G16KT 10SM BKN015 OVC028 RMK SC6SC2=

CYXU;2005-04-25 20:34;SPECI CYXU 252034Z 27006KT 15SM FEW025 BKN057 RMK SC1SC6=

CYXU;2005-04-25 22:00;METAR CYXU 252200Z 26004KT 15SM FEW025 FEW070 09/02 A2952 RMK SC1AC1 SC TR SLP003=

CYXU;2005-04-26 00:00;METAR CYXU 260000Z 16007KT 15SM FEW080 FEW240 07/02 A2954 RMK AC2CI1 SLP009=

CYXU;2005-04-26 03:00;METAR CYXU 260300Z 17007KT 15SM FEW240 04/02 A2956 RMK CI1 SLP017=

CYXU;2005-04-26 04:00;METAR CYXU 260400Z 18004KT 15SM FEW220 04/02 A2956 RMK CI1 SLP019=

CYXU;2005-04-26 06:00;METAR CYXU 260600Z 19008KT 15SM BKN091 08/03 A2956 RMK AC6 SLP017=

CYXU;2005-04-26 08:00;METAR CYXU 260800Z 20010KT 15SM FEW080 FEW160 07/02 A2956 RMK AC1AC1 SLP014=

CYXU;2005-04-26 09:00;METAR CYXU 260900Z 20011KT 15SM BKN080 08/02 A2956 RMK AC6 SLP014=

CYXU;2005-04-26 10:00;METAR CYXU 261000Z 20010G15KT 15SM OVC075 08/02 A2956 RMK AC8 SLP016=

CYXU;2005-04-26 12:00;METAR CYXU 261200Z 20015KT 10SM -RA SCT037 OVC047 08/04 A2959 RMK SC4NS4 SLP023=

CYXU;2005-04-26 13:00;METAR CYXU 261300Z 17010G15KT 10SM -RA OVC039 08/04 A2959 RMK SC8 SLP023=

CYXU;2005-04-26 14:00;METAR CYXU 261400Z 17009KT 10SM -RA OVC046 08/05 A2959 RMK SC8 SLP023=

CYXU;2005-04-26 14:29;SPECI CYXU 261429Z 18009KT 12SM BKN070 OVC240 RMK AC5CI2=

CYXU;2005-04-26 16:00;METAR CYXU 261600Z 18016G21KT 12SM -SHRA OVC056 10/04 A2957 RMK SC8 TCU EMBD SLP019=

CYXU;2005-04-26 17:00;METAR CYXU 261700Z 18012KT 8SM -SHRA OVC043 10/05 A2956 RMK SC8 TCU EMBD SLP016=

CYXU;2005-04-26 18:00;METAR CYXU 261800Z 18010KT 10SM -SHRA OVC031 09/06 A2956 RMK SC8 TCU EMBD SLP014=

CYXU;2005-04-26 19:00;METAR CYXU 261900Z 20006KT 12SM -SHRA SCT030 OVC070 10/06 A2955 RMK SC3AC5 ACC ASOCTD SLP010=

CYXU;2005-04-26 20:00;METAR CYXU 262000Z 24009KT 12SM FEW030 OVC075 10/07 A2954 RMK CF2AC6 OCNL -SHRA SLP006=

CYXU;2005-04-26 21:00;METAR CYXU 262100Z 23005KT 12SM FEW030 OVC067 10/07 A2952 RMK CF1AC7 OCNL -SHRA SLP000=

CYXU;2005-04-26 22:00;METAR CYXU 262200Z 25005KT 6SM -SHRA BR FEW015 OVC054 10/08 A2954 RMK CF2SC6 TCU EMBD SLP006=

CYXU;2005-04-27 00:24;SPECI CYXU 270024Z 18002KT 2 1/2SM -RA BR BKN010 OVC041 RMK FG1SF6NS1=

CYXU;2005-04-27 01:00;METAR CYXU 270100Z 14004KT 2 1/2SM RA BR SCT011 OVC037 08/07 A2954 RMK FG1SF3NS4 SLP007=

CYXU;2005-04-27 03:09;SPECI CYXU 270309Z 11006KT 1 1/2SM -RA BR BKN003 OVC011 RMK FG1SF6SC2=

CYXU;2005-04-27 04:00;METAR CYXU 270400Z 11007KT 1 1/2SM -RA BR BKN003 OVC012 08/08 A2949 RMK FG2SF5SC2 SLP989=

CYXU;2005-04-27 04:19;SPECI CYXU 270419Z 12004KT 1 1/2SM -RA BR BKN005 OVC012 RMK FG2SF6SC1 CIG VRBL 3-8=

CYXU;2005-04-27 04:31;SPECI CYXU 270431Z 26008KT 1 1/2SM RA BR BKN004 OVC010 RMK FG2SF6SC1 CIG VRBL 2-6=

CYXU;2005-04-27 05:32;SPECI CYXU 270532Z 27008KT 3SM -RA BR SCT006 OVC040 RMK SF4SC4 /R10/=

CYXU;2005-04-27 06:00;METAR CYXU 270600Z 26008KT 3SM BR SCT006 OVC029 08/07 A2951 RMK SF4SC4 SLP996=

CYXU;2005-04-27 07:00;METAR CYXU 270700Z 27006KT 5SM BR SCT008 OVC048 07/06 A2952 RMK SF4SC4 SLP999=

CYXU;2005-04-27 08:00;METAR CYXU 270800Z 23007KT 8SM SCT008 SCT014 BKN075 06/05 A2955 RMK SF3SC1AC2 SLP009=

CYXU;2005-04-27 08:30;SPECI CYXU 270830Z 23009KT 6SM BR BKN008 BKN014 BKN075 RMK SF5SC2AC1=

CYXU;2005-04-27 10:00;METAR CYXU 271000Z 21005KT 5SM BR BKN006 OVC070 06/05 A2959 RMK SF6AC2 SLP023=

CYXU;2005-04-27 11:26;SPECI CYXU 271126Z 22010KT 2 1/2SM BR OVC006 RMK SF8=

CYXU;2005-04-27 12:00;METAR CYXU 271200Z 22009KT 2 1/2SM -SHRA BKN006 OVC060 06/05 A2962 RMK SF6SC2 TCU EMBD SLP035=

CYXU;2005-04-27 12:45;SPECI CYXU 271245Z 21010KT 4SM BR BKN007 OVC060 RMK SF7SC1=

CYXU;2005-04-27 13:00;METAR CYXU 271300Z 21009KT 3SM BR BKN008 OVC060 07/05 A2964 RMK SF7SC1 SLP041=

CYXU;2005-04-27 14:00;METAR CYXU 271400Z 22011KT 5SM BR BKN010 OVC020 07/06 A2965 RMK CF6SC2 SLP044=

CYXU;2005-04-27 15:00;METAR CYXU 271500Z 22011KT 7SM OVC012 08/05 A2966 RMK SC8 SLP050=

CYXU;2005-04-27 15:41;SPECI CYXU 271541Z 20013KT 8SM BKN018 RMK SC7=

CYXU;2005-04-27 16:00;METAR CYXU 271600Z 20012KT 8SM BKN018 09/06 A2966 RMK CF7 SLP050=

CYXU;2005-04-27 16:02;SPECI CYXU 271602Z 19010KT 8SM -SHRA BKN018 RMK CF7 TCU EMBD=

CYXU;2005-04-27 16:22;SPECI CYXU 271622Z 18013KT 2 1/2SM SHRA BR OVC018TCU RMK FG1TCU7=

CYXU;2005-04-27 17:00;METAR CYXU 271700Z 19013KT 3SM -SHRA BR BKN020TCU OVC059 07/06 A2968 RMK TCU6SC2 SLP054=

CYXU;2005-04-27 17:22;SPECI CYXU 271722Z 22013G21KT 3SM SHRAPL BR OVC024TCU RMK TCU8=

CYXU;2005-04-27 17:34;SPECI CYXU 271734Z 23011G21KT 6SM -SHRA BR OVC033TCU RMK TCU8=

CYXU;2005-04-27 18:00;METAR CYXU 271800Z 22010KT 6SM -SHRA BR OVC027 05/03 A2970 RMK SC8 TCU EMBD SLP063=

CYXU;2005-04-27 20:00;METAR CYXU 272000Z 19011G16KT 8SM -SHRA BKN025 OVC050 06/04 A2972 RMK SC6SC2 SLP068=

CYXU;2005-04-27 21:25;SPECI CYXU 272125Z 21009G15KT 10SM BKN016 BKN075 RMK SC6AC2 TCU ASCTD=

CYXU;2005-04-27 22:00;METAR CYXU 272200Z 20009KT 10SM BKN020 OVC069 08/05 A2974 RMK SC6AC2 TCU ASCTD SLP076=

CYXU;2005-04-27 22:43;SPECI CYXU 272243Z 26014KT 8SM -SHRA BKN020TCU OVC070 RMK TCU6AC2=

CYXU;2005-04-28 00:00;METAR CYXU 280000Z 23008KT 10SM -SHRA FEW020TCU BKN071 06/02 A2978 RMK TCU2AC5 SLP089=

CYXU;2005-04-28 00:49;SPECI CYXU 280049Z 24011KT 15SM SCT050 BKN072 RMK SC3AC4=

CYXU;2005-04-28 01:00;METAR CYXU 280100Z 25011G16KT 15SM FEW050 BKN072 06/01 A2980 RMK SC2AC2 SLP096=

CYXU;2005-04-28 04:00;METAR CYXU 280400Z 24007KT 15SM FEW030 BKN060 BKN140 06/01 A2984 RMK SC1SC4AC2 SLP110=

CYXU;2005-04-28 06:00;METAR CYXU 280600Z 28005KT 10SM BKN060 BKN110 05/00 A2984 RMK SC5AC1 SLP111=

CYXU;2005-04-28 07:00;METAR CYXU 280700Z 27002KT 15SM FEW110 BKN240 03/M00 A2983 RMK AC2CI2 SLP110=

CYXU;2005-04-28 08:00;METAR CYXU 280800Z 21002KT 15SM FEW060 FEW110 BKN240 03/00 A2983 RMK SC1AC2CI1 SLP108=

CYXU;2005-04-28 09:00;METAR CYXU 280900Z 17004KT 15SM SCT049 BKN110 03/01 A2982 RMK SC4AC2 SLP106=

CYXU;2005-04-28 09:20;SPECI CYXU 280920Z 22009G18KT 10SM -SHRA BKN020 RMK SC6 CB ASOCTD NW=

CYXU;2005-04-28 09:24;SPECI CYXU 280924Z 22011G18KT 6SM -TSRA BKN020CB RMK CB6 LTGCG=

CYXU;2005-04-28 09:49;SPECI CYXU 280949Z 27003KT 10SM OVC019 RMK SC8=

CYXU;2005-04-28 10:00;METAR CYXU 281000Z 23002KT 10SM BKN017TCU 04/02 A2982 RMK TCU6 SLP104=

CYXU;2005-04-28 12:00;METAR CYXU 281200Z 27013KT 8SM SCT022 BKN040 03/M01 A2985 RMK CF3SC2 SLP114=

CYXU;2005-04-28 13:00;METAR CYXU 281300Z 28016G21KT 10SM BKN024 BKN045 04/M01 A2986 RMK CU5SC2 TCU ASCOTD SLP117=

CYXU;2005-04-28 13:17;SPECI CYXU 281317Z 27013KT 10SM -SHRA BKN018 RMK CU7 TCU ASOCTD RW- VRY LGT=

CYXU;2005-04-28 13:38;SPECI CYXU 281338Z 27013G19KT 10SM -SHRASN BKN020TCU RMK TCU7=

CYXU;2005-04-28 14:00;METAR CYXU 281400Z 28011KT 10SM BKN018TCU 03/M00 A2987 RMK TCU7 SLP122=

CYXU;2005-04-28 14:36;SPECI CYXU 281436Z 27014KT 8SM -SHRA OVC017 RMK SC8 TCU EMBD=

CYXU;2005-04-28 15:00;METAR CYXU 281500Z 27016KT 7SM -SHRA OVC018 04/01 A2989 RMK SC8 SLP129=

CYXU;2005-04-28 15:28;SPECI CYXU 281528Z 29011G17KT 7SM -SHRA OVC012 RMK SC8 TCU EMBD CIG RAG=

CYXU;2005-04-28 16:00;METAR CYXU 281600Z 30013G18KT 10SM OVC012 04/01 A2991 RMK SC8 CIG RAG SLP137=

CYXU;2005-04-28 17:00;METAR CYXU 281700Z 29015KT 10SM -SHRA OVC014 04/01 A2993 RMK SC8 CIG RAG TCU EMBD SLP144=

CYXU;2005-04-28 22:00;METAR CYXU 282200Z 30007KT 15SM FEW030 BKN068 08/M01 A2995 RMK CU2AC4 SLP148=

CYXU;2005-04-28 23:00;METAR CYXU 282300Z 28007KT 15SM FEW030 SCT070 08/M02 A2995 RMK CU2AC2 SLP148=

CYXU;2005-04-29 00:00;METAR CYXU 290000Z 32004KT 15SM FEW030 BKN067 07/M01 A2995 RMK CF1AC6 SLP149=

CYXU;2005-04-29 02:00;METAR CYXU 290200Z 00000KT 15SM BKN063 04/M01 A2997 RMK SC7 SLP154=

CYXU;2005-04-29 04:00;METAR CYXU 290400Z 00000KT 15SM SCT070 02/M01 A2997 RMK AC4 SLP158=

CYXU;2005-04-29 05:00;METAR CYXU 290500Z 00000KT 15SM SCT060 02/M00 A2997 RMK AC4 SLP156=

CYXU;2005-04-29 07:00;METAR CYXU 290700Z 05002KT 15SM SKC 01/M01 A2994 RMK OBS TAKEN +9/FROIN SLP147=

CYXU;2005-04-29 10:00;METAR CYXU 291000Z 07003KT 12SM SCT060 M00/M02 A2994 RMK AC4 FROIN SLP148=

CYXU;2005-04-29 11:00;METAR CYXU 291100Z 08003KT 15SM SCT060 SCT140 M00/M01 A2995 RMK AC3AC1 FROIN SLP150=

CYXU;2005-04-29 12:00;METAR CYXU 291200Z 07003KT 15SM FEW065 FEW170 03/00 A2995 RMK AC1AC2 SLP149=

CYXU;2005-04-29 19:00;METAR CYXU 291900Z 15003KT 15SM BKN052 BKN230 11/01 A2989 RMK CU6CI1 SLP128=

CYXU;2005-04-29 20:00;METAR CYXU 292000Z 00000KT 12SM BKN052 BKN230 11/03 A2989 RMK CU6CI1 SLP127=

CYXU;2005-04-29 21:00;METAR CYXU 292100Z 15006KT 12SM BKN043 BKN230 11/03 A2988 RMK CU6CI1 SLP126=

CYXU;2005-04-29 22:00;METAR CYXU 292200Z 18003KT 10SM BKN041 OVC200 11/03 A2989 RMK CU7CI1 SLP128=

CYXU;2005-04-29 23:00;METAR CYXU 292300Z 20006KT 10SM OVC041 10/04 A2989 RMK CU8 SLP128=

CYXU;2005-04-30 00:00;METAR CYXU 300000Z 22006KT 10SM BKN038 OVC058 10/03 A2989 RMK CU6SC2 SLP128=

CYXU;2005-04-30 03:00;METAR CYXU 300300Z 02007KT 15SM OVC100 07/M01 A2991 RMK AC8 SLP133=

CYXU;2005-04-30 04:00;METAR CYXU 300400Z 02005KT 15SM SCT100 06/M01 A2990 RMK AC3 SLP130=

CYXU;2005-04-30 05:00;METAR CYXU 300500Z 04004KT 15SM OVC080 06/M00 A2990 RMK AC8 SLP132=

CYXU;2005-04-30 09:00;METAR CYXU 300900Z 02007KT 15SM OVC055 06/M01 A2986 RMK SC8 SLP115=

CYXU;2005-04-30 09:52;SPECI CYXU 300952Z 01005KT 15SM -RA OVC052 RMK SC8=

CYXU;2005-04-30 10:00;METAR CYXU 301000Z 01005KT 15SM -RA OVC051 06/01 A2986 RMK SC8 SLP116=

CYXU;2005-04-30 11:00;METAR CYXU 301100Z 04004KT 15SM -RA OVC047 05/01 A2985 RMK SC8 PCPN VERY LGT SLP114=

CYXU;2005-04-30 12:00;METAR CYXU 301200Z 03007KT 12SM -RA OVC047 06/01 A2985 RMK SC8 SLP114=

CYXU;2005-04-30 12:29;SPECI CYXU 301229Z 04008KT 15SM OVC046 RMK SC8=

CYXU;2005-04-30 13:00;METAR CYXU 301300Z 04009KT 15SM BKN045 OVC075 06/02 A2983 RMK SC7AC1 SLP108=

CYXU;2005-04-30 15:00;METAR CYXU 301500Z 06008KT 15SM OVC043 07/02 A2983 RMK SC8 SLP107=

CYXU;2005-04-30 16:00;METAR CYXU 301600Z 02010KT 15SM BKN018 OVC041 07/02 A2983 RMK SC6SC2 SLP109=

CYXU;2005-04-30 17:00;METAR CYXU 301700Z 02006KT 12SM -RA OVC033 06/03 A2984 RMK SC8 SLP112=

CYXU;2005-04-30 17:38;SPECI CYXU 301738Z 01008KT 15SM SCT020 OVC035 RMK SF3SC5=

CYXU;2005-04-30 18:00;METAR CYXU 301800Z 02010KT 15SM OVC036 07/03 A2984 RMK SC8 SLP111=

CYXU;2005-04-30 19:00;METAR CYXU 301900Z 01009KT 10SM FEW020 OVC033 07/02 A2983 RMK SF2SC6 SLP108=

CYXU;2005-04-30 21:00;METAR CYXU 302100Z 02004KT 15SM OVC045 08/01 A2983 RMK SC8 SLP106=

CYXU;2005-04-30 22:00;METAR CYXU 302200Z 34002KT 10SM -RA OVC030 08/02 A2984 RMK SC8 SLP110=

CYXU;2005-04-30 23:36;SPECI CYXU 302336Z 26002KT 15SM SCT040 BKN065 RMK SC4AC3=

CYXU;2005-05-01 00:00;METAR CYXU 010000Z 25006KT 15SM SCT040 BKN100 07/01 A2986 RMK SC3AC4 SLP117=

CYXU;2005-05-01 03:00;METAR CYXU 010300Z 26003KT 15SM SKC 03/M02 A2989 RMK SLP129=

CYXU;2005-05-01 05:00;METAR CYXU 010500Z 22004KT 15SM BKN080 03/M02 A2988 RMK AC6 SLP125=

CYXU;2005-05-01 06:00;METAR CYXU 010600Z 19003KT 10SM BKN070 02/M01 A2987 RMK AC5 SLP122=

CYXU;2005-05-01 10:00;METAR CYXU 011000Z 27006KT 15SM FEW100 FEW230 03/M02 A2987 RMK AC1CI1 SLP122=

CYXU;2005-05-01 11:00;METAR CYXU 011100Z 26006KT 15SM FEW100 03/M02 A2988 RMK AC1 AC TR SLP124=

CYXU;2005-05-01 12:00;METAR CYXU 011200Z 27005KT 15SM FEW100 04/M00 A2988 RMK AC1 SLP126=

CYXU;2005-05-01 13:00;METAR CYXU 011300Z 27009KT 15SM FEW100 06/00 A2989 RMK AC1 SLP128=

CYXU;2005-05-01 14:00;METAR CYXU 011400Z 27012KT 15SM FEW030 FEW100 08/M01 A2989 RMK CU1AC1 AC TR SLP128=

CYXU;2005-05-01 15:00;METAR CYXU 011500Z 28009KT 15SM FEW040 SCT100 09/M01 A2989 RMK CU2AC1 SLP128=

CYXU;2005-05-01 16:00;METAR CYXU 011600Z 24013KT 15SM VCSH BKN046 09/M01 A2989 RMK CU6 TCU ASOCTD SHWRS E-SW SLP129=

CYXU;2005-05-01 18:22;SPECI CYXU 011822Z 28008G24KT 15SM -SHRA BKN048 RMK CU6 TCU ASOCTD=

CYXU;2005-05-01 18:39;SPECI CYXU 011839Z 29008KT 15SM BKN048 RMK CU6 TCU ASOCTD=

CYXU;2005-05-01 19:00;METAR CYXU 011900Z 27012KT 15SM -SHRA BKN042 BKN080 08/M01 A2991 RMK CU6AC1 TCU ASOCTD SLP135=

CYXU;2005-05-01 19:30;SPECI CYXU 011930Z 25012G17KT 15SM VCSH BKN040 BKN082 RMK CU5AC1=

CYXU;2005-05-01 21:00;METAR CYXU 012100Z 30007KT 15SM VCSH SCT038 BKN090 09/M01 A2990 RMK CU3AC2 SLP132=

CYXU;2005-05-01 22:00;METAR CYXU 012200Z 25015KT 15SM -SHRA BKN045 BKN090 09/M01 A2990 RMK CU5AC2 SLP133=

CYXU;2005-05-01 22:15;SPECI CYXU 012215Z 27004KT 15SM VCSH SCT045 BKN090 RMK CU3AC2=

CYXU;2005-05-01 23:00;METAR CYXU 012300Z 24005KT 15SM SCT050 BKN120 09/00 A2989 RMK CU3AC2 SLP127=

CYXU;2005-05-02 00:00;METAR CYXU 020000Z 20006KT 15SM BKN060 BKN090 08/00 A2988 RMK SC6AC2 SLP126=

CYXU;2005-05-02 00:20;SPECI CYXU 020020Z 21014G19KT 10SM -SHRA BKN031 OVC060 RMK CU5SC3=

CYXU;2005-05-02 01:00;METAR CYXU 020100Z 23011KT 12SM -SHRA OVC040 07/02 A2989 RMK SC7 SLP129=

CYXU;2005-05-02 04:00;METAR CYXU 020400Z 25006KT 12SM FEW045TCU BKN060 BKN080 05/02 A2989 RMK TCU1SC5AC2 SLP127=

CYXU;2005-05-02 05:00;METAR CYXU 020500Z 25004KT 12SM BKN065 BKN080 05/02 A2989 RMK SC5AC2 SLP126=

CYXU;2005-05-02 08:00;METAR CYXU 020800Z 26004KT 12SM OVC095 04/00 A2986 RMK AC8 SLP119=

CYXU;2005-05-02 10:00;METAR CYXU 021000Z 26008KT 15SM FEW032 OVC085 04/M01 A2987 RMK SC2AC6 SLP120=

CYXU;2005-05-02 10:38;SPECI CYXU 021038Z 26011G16KT 15SM -SHRA SCT042 OVC085 RMK SC3AC5 TCU ASOCTD=

CYXU;2005-05-02 11:51;SPECI CYXU 021151Z 26006KT 12SM BKN036 OVC085 RMK SC5AC3=

CYXU;2005-05-02 12:00;METAR CYXU 021200Z 25006KT 12SM -RA BKN040 OVC085 04/01 A2989 RMK SC5AS3 R- INTMT SUN DMLY VISBL SLP128=

CYXU;2005-05-02 12:37;SPECI CYXU 021237Z 25013KT 15SM FEW021 BKN043 OVC120 RMK CF2SC3AC2=

CYXU;2005-05-02 13:00;METAR CYXU 021300Z 26009KT 15SM FEW018 BKN048 BKN120 04/00 A2990 RMK CU2SC3AC2 SLP130=

CYXU;2005-05-02 14:13;SPECI CYXU 021413Z 25011KT 12SM SHPL BKN024TCU BKN045 BKN120 RMK TCU5CU1AC2=

CYXU;2005-05-02 15:00;METAR CYXU 021500Z 27012KT 15SM VCSH BKN028TCU BKN120 06/M00 A2990 RMK TCU6AC1 SLP133=

CYXU;2005-05-02 16:00;METAR CYXU 021600Z 27011G16KT 15SM VCSH BKN035TCU BKN120 07/M01 A2990 RMK TCU6AC1 SLP133=

CYXU;2005-05-02 16:23;SPECI CYXU 021623Z 27011G21KT 10SM -SHRA BKN026TCU BKN100 RMK TCU6AC1=

CYXU;2005-05-02 16:44;SPECI CYXU 021644Z 27011KT 15SM VCSH SCT030TCU BKN110 RMK TCU3AC3=

CYXU;2005-05-02 17:00;METAR CYXU 021700Z 25013KT 15SM VCSH SCT030TCU BKN100 07/M00 A2990 RMK TCU3AC4 SLP132=

CYXU;2005-05-02 17:44;SPECI CYXU 021744Z 25014KT 15SM -SHPL BKN029TCU BKN100 RMK TCU5AC2=

CYXU;2005-05-02 18:00;METAR CYXU 021800Z 27010G16KT 15SM VCSH BKN030TCU BKN110 07/00 A2990 RMK TCU5AC2 SLP131=

CYXU;2005-05-02 18:35;SPECI CYXU 021835Z 27008KT 12SM -SHPL BKN039TCU RMK TCU7=

CYXU;2005-05-02 19:00;METAR CYXU 021900Z 25007KT 12SM VCSH BKN038TCU 07/01 A2990 RMK TCU6 SLP132=

CYXU;2005-05-02 19:16;SPECI CYXU 021916Z 25013G21KT 8SM -SHRA BKN036TCU BKN200 RMK TCU6CI1 VIS NE 21/2=

CYXU;2005-05-02 19:35;SPECI CYXU 021935Z 33002KT 12SM SCT040TCU BKN110 RMK TCU3AC3 SHRA NE=

CYXU;2005-05-02 20:00;METAR CYXU 022000Z 22003KT 12SM -SHRA SCT043TCU BKN110 07/M00 A2991 RMK TCU4AC2 SLP134=

CYXU;2005-05-02 22:00;METAR CYXU 022200Z 25017KT 10SM -SHRA OVC040TCU 07/M00 A2993 RMK TCU8 SLP143=

CYXU;2005-05-02 22:48;SPECI CYXU 022248Z 25008KT 12SM SCT040 BKN060 BKN110 RMK CU3SC2AC1=

CYXU;2005-05-02 23:26;SPECI CYXU 022326Z 24009KT 10SM -SHRA BKN027TCU RMK TCU7=

CYXU;2005-05-02 23:37;SPECI CYXU 022337Z 27017G25KT 1SM R15/P6000FT/D SHRA BR OVC010TCU RMK RA2TCU6 VIS E-S 8=

CYXU;2005-05-03 00:00;METAR CYXU 030000Z 26003KT 4SM -SHRA BR FEW010 OVC044TCU 03/01 A2996 RERA RMK CF2TCU6 SLP153=

CYXU;2005-05-03 00:21;SPECI CYXU 030021Z 27004KT 6SM BR FEW010 BKN044 OVC110 RMK CF1SC5AC3=

CYXU;2005-05-03 04:00;METAR CYXU 030400Z 29006KT 8SM SCT049 OVC100 03/01 A3000 RMK SC4AC4 SLP166=

CYXU;2005-05-03 05:00;METAR CYXU 030500Z 30005KT 8SM SCT045 OVC100 02/01 A3000 RMK SC4AC4 SLP168=

CYXU;2005-05-03 07:00;METAR CYXU 030700Z 27006KT 8SM BKN050 OVC100 02/01 A3000 RMK SC7AC1 SLP165=

CYXU;2005-05-03 09:00;METAR CYXU 030900Z 25004KT 8SM BKN065 02/00 A3001 RMK SC7 SLP170=

CYXU;2005-05-03 10:00;METAR CYXU 031000Z 25003KT 12SM BKN074 02/M00 A3001 RMK AC7 SLP172=

CYXU;2005-05-03 11:00;METAR CYXU 031100Z 25002KT 15SM BKN072 02/00 A3002 RMK AC7 SLP174=

CYXU;2005-05-03 12:00;METAR CYXU 031200Z 25005KT 15SM OVC070 03/01 A3004 RMK AC8 SLP181=

CYXU;2005-05-03 13:00;METAR CYXU 031300Z 29005KT 15SM FEW012 OVC066 04/00 A3005 RMK CF1SC7 SLP186=

CYXU;2005-05-03 14:00;METAR CYXU 031400Z 28005KT 15SM SCT020 OVC070 04/00 A3007 RMK CU3AC5 SLP191=

CYXU;2005-05-03 15:00;METAR CYXU 031500Z 27008KT 15SM BKN028 OVC069 05/M00 A3007 RMK CU5AC3 SLP192=

CYXU;2005-05-03 15:37;SPECI CYXU 031537Z 29005KT 15SM -SHSN BKN031 OVC070 RMK CU6AC2 TCU ASOCTD PCPN VRY LGT=

CYXU;2005-05-03 16:00;METAR CYXU 031600Z 29009KT 15SM VCSH BKN035 OVC070 05/M00 A3009 RMK CU5AC3 TCU ASCOTD SLP196=

CYXU;2005-05-03 17:44;SPECI CYXU 031744Z 27014G19KT 12SM -SHRASN BKN032TCU OVC070 RMK TCU6AC2=

CYXU;2005-05-03 18:08;SPECI CYXU 031808Z 30007KT 15SM FEW015 BKN040 OVC067 RMK CF1SC5AC2 TCU ASOCTD VIRGA=

CYXU;2005-05-03 18:41;SPECI CYXU 031841Z 30009KT 15SM -SHGS BKN025TCU OVC067 RMK TCU6AC2=

CYXU;2005-05-03 19:17;SPECI CYXU 031917Z 31008KT 12SM -SHRA FEW025 OVC045 RMK CU2SC6 TCU EMBD=

CYXU;2005-05-03 20:22;SPECI CYXU 032022Z 27008KT 10SM FEW030 OVC053 RMK CU2SC6=

CYXU;2005-05-03 21:14;SPECI CYXU 032114Z 33010KT 10SM -SHRA BKN035 OVC070 RMK SC6AC2 TCU EMBD=

CYXU;2005-05-05 01:00;METAR CYXU 050100Z 20007KT 15SM FEW070 06/M03 A3039 RMK AC1 SLP298=

CYXU;2005-05-05 03:00;METAR CYXU 050300Z 17002KT 15SM SKC 04/M02 A3041 RMK SLP306=

CYXU;2005-05-05 04:00;METAR CYXU 050400Z 14003KT 15SM SKC 04/M02 A3042 RMK SLP308=

CYXU;2005-05-05 07:00;METAR CYXU 050700Z 11002KT 15SM SKC 02/M03 A3043 RMK SLP312=

CYXU;2005-05-05 10:00;METAR CYXU 051000Z 09004KT 15SM SCT220 00/M03 A3045 RMK CI3 SLP320=

CYXU;2005-05-05 11:00;METAR CYXU 051100Z 09004KT 12SM FEW240 01/M02 A3047 RMK CI1 SLP324=

CYXU;2005-05-05 12:00;METAR CYXU 051200Z 11004KT 8SM FEW240 04/01 A3047 RMK CI1 SLP325=

CYXU;2005-05-05 13:00;METAR CYXU 051300Z 14004KT 10SM BKN240 08/01 A3047 RMK CI1 SLP325=

CYXU;2005-05-05 14:00;METAR CYXU 051400Z 15006KT 15SM BKN240 11/M01 A3047 RMK CI2 SLP324=

CYXU;2005-05-05 15:00;METAR CYXU 051500Z 17006KT 15SM OVC240 11/M01 A3047 RMK CS6 HALO SLP323=

CYXU;2005-05-05 16:00;METAR CYXU 051600Z 18004KT 15SM OVC240 12/M01 A3046 RMK CS6 SLP321=

CYXU;2005-05-05 17:00;METAR CYXU 051700Z 18007KT 15SM BKN240 13/00 A3044 RMK CS3 SLP313=

CYXU;2005-05-05 18:00;METAR CYXU 051800Z 13006KT 15SM FEW056 OVC240 14/00 A3041 RMK CF1CS3 SLP304=

CYXU;2005-05-05 19:00;METAR CYXU 051900Z 13010KT 15SM FEW060 OVC240 15/M01 A3040 RMK CF1CS3=

CYXU;2005-05-05 22:00;METAR CYXU 052200Z 12008KT 15SM FEW240 14/M04 A3035 RMK CS2 SLP285=

CYXU;2005-05-06 03:00;METAR CYXU 060300Z 08007KT 15SM SKC 07/00 A3032 RMK SLP273=

CYXU;2005-05-06 05:00;METAR CYXU 060500Z 08005KT 15SM SKC 05/M01 A3030 RMK SLP266=

CYXU;2005-05-06 07:00;METAR CYXU 060700Z 07005KT 15SM SKC 04/M01 A3027 RMK SLP254=

CYXU;2005-05-06 10:00;METAR CYXU 061000Z 07005KT 15SM FEW210 04/M01 A3024 RMK CI1 SLP245=

CYXU;2005-05-06 11:00;METAR CYXU 061100Z 07003KT 6SM BR FEW230 04/M01 A3024 RMK CI1 CI TR SLP247=

CYXU;2005-05-06 12:00;METAR CYXU 061200Z 09007KT 6SM BR SKC 06/01 A3024 RMK SLP245=

CYXU;2005-05-06 13:00;METAR CYXU 061300Z 11003KT 8SM SKC 09/02 A3023 RMK SLP242=

CYXU;2005-05-06 14:00;METAR CYXU 061400Z 13003KT 8SM SKC 12/04 A3022 RMK SLP238=

CYXU;2005-05-06 15:00;METAR CYXU 061500Z 20003KT 10SM FEW250 14/04 A3021 RMK CI1 CI TR SLP235=

CYXU;2005-05-06 16:00;METAR CYXU 061600Z 36003KT 12SM FEW250 15/04 A3022 RMK CI1 CI TR WND L/V SLP238=

CYXU;2005-05-06 17:00;METAR CYXU 061700Z 01002KT 12SM FEW250 16/04 A3020 RMK CI1 SLP231=

CYXU;2005-05-06 18:00;METAR CYXU 061800Z 36004KT 12SM FEW048 FEW250 18/05 A3017 RMK CF1CI1 CF TR SLP221=

CYXU;2005-05-06 19:00;METAR CYXU 061900Z 17002KT 12SM FEW054 BKN250 18/05 A3014 RMK CF1CI3 SLP212=

CYXU;2005-05-06 20:00;METAR CYXU 062000Z 22008KT 12SM FEW060 BKN250 18/03 A3012 RMK CF1CI2 SLP205=

CYXU;2005-05-06 21:00;METAR CYXU 062100Z 00000KT 12SM FEW064 BKN250 19/02 A3011 RMK CF1CI1 SLP199=

CYXU;2005-05-06 22:00;METAR CYXU 062200Z 33003KT 12SM FEW070 BKN250 19/00 A3010 RMK CF1CI2 SLP197=

CYXU;2005-05-07 00:00;METAR CYXU 070000Z 21007KT 12SM BKN130 BKN250 15/02 A3009 RMK AC5CI2 SLP194=

CYXU;2005-05-07 02:00;METAR CYXU 070200Z 07003KT 15SM BKN110 12/03 A3008 RMK AC6 SLP190=

CYXU;2005-05-07 03:00;METAR CYXU 070300Z 18004KT 15SM FEW100 09/02 A3007 RMK AC2 SLP185=

CYXU;2005-05-07 04:00;METAR CYXU 070400Z 14004KT 15SM SCT100 09/01 A3006 RMK AC3 SLP183=

CYXU;2005-05-07 05:00;METAR CYXU 070500Z 11004KT 15SM SCT090 08/02 A3006 RMK AC3 SLP183=

CYXU;2005-05-07 06:08;SPECI CYXU 070608Z 00000KT 15SM -SHRA BKN081 RMK AC6 ACC ASCTD=

CYXU;2005-05-07 07:00;METAR CYXU 070700Z 28003KT 15SM -SHRA BKN083 09/04 A3005 RMK AC6 SLP177=

CYXU;2005-05-07 07:56;SPECI CYXU 070756Z 28007KT 8SM SHRA OVC034TCU RMK TCU8=

CYXU;2005-05-07 08:35;SPECI CYXU 070835Z 14004KT 7SM -SHRA OVC061 RERA RMK SC8 TCU ASCTD=

CYXU;2005-05-07 10:00;METAR CYXU 071000Z 11004KT 6SM -SHRA OVC064 09/07 A2999 RMK SC8 SLP157=

CYXU;2005-05-07 10:30;SPECI CYXU 071030Z 09005KT 6SM BR VCSH OVC050 RMK SC8 TCU=

CYXU;2005-05-07 11:31;SPECI CYXU 071131Z 12005KT 4SM -SHRA BR OVC047 RMK SC8 TCU=

CYXU;2005-05-07 12:00;METAR CYXU 071200Z 12008KT 8SM VCSH BKN043 OVC060 10/07 A3001 RMK SC6SC2 TCU SLP165=

CYXU;2005-05-07 13:00;METAR CYXU 071300Z 10007KT 7SM VCSH BKN044 OVC060 10/07 A3002 RMK SC6SC2 TCU SLP169=

CYXU;2005-05-07 14:00;METAR CYXU 071400Z 12006KT 6SM HZ OVC044 10/07 A3003 RMK SC8 TCU SLP170=

CYXU;2005-05-07 16:00;METAR CYXU 071600Z 13007KT 8SM BKN042 14/08 A3003 RMK SC5 CU SLP172=

CYXU;2005-05-07 17:00;METAR CYXU 071700Z 10003KT 10SM FEW030 SCT044 BKN120 15/08 A3003 RMK CU2SC1AC1 SLP171=

CYXU;2005-05-07 21:00;METAR CYXU 072100Z 02005KT 12SM FEW050 BKN200 17/05 A3002 RMK CU2CI0 SLP166=

CYXU;2005-05-08 00:00;METAR CYXU 080000Z 04004KT 10SM FEW050 FEW200 16/06 A3004 RMK SC1CI1 SLP176=

CYXU;2005-05-08 03:00;METAR CYXU 080300Z 00000KT 8SM SKC 11/06 A3008 RMK SLP188=

CYXU;2005-05-08 04:00;METAR CYXU 080400Z 34002KT 8SM SKC 09/05 A3008 RMK SLP190=

CYXU;2005-05-08 05:00;METAR CYXU 080500Z 35006KT 6SM HZ SKC 09/06 A3009 RMK SLP193=

CYXU;2005-05-08 07:00;METAR CYXU 080700Z 35003KT 6SM HZ SKC 08/06 A3008 RMK SLP188=

CYXU;2005-05-08 08:00;METAR CYXU 080800Z 32003KT 5SM HZ SKC 07/05 A3008 RMK SLP189=

CYXU;2005-05-08 10:00;METAR CYXU 081000Z 34004KT 4SM BR FEW260 06/04 A3010 RMK CI1 SLP194=

CYXU;2005-05-08 11:00;METAR CYXU 081100Z 35005KT 6SM HZ SKC 08/04 A3011 RMK SLP199=

CYXU;2005-05-08 12:00;METAR CYXU 081200Z 01006KT 8SM SKC 11/06 A3013 RMK HAZY SLP204=

CYXU;2005-05-08 13:00;METAR CYXU 081300Z 36005KT 10SM SKC 14/05 A3013 RMK HAZY SLP206=

CYXU;2005-05-08 14:00;METAR CYXU 081400Z 36004KT 10SM FEW250 17/05 A3014 RMK CI1 HAZY SLP208=

CYXU;2005-05-08 15:00;METAR CYXU 081500Z 04004KT 12SM SKC 18/04 A3014 RMK HAZE SLP207=

CYXU;2005-05-08 16:00;METAR CYXU 081600Z 04006KT 15SM SKC 20/04 A3013 RMK SLP206=

CYXU;2005-05-08 18:00;METAR CYXU 081800Z 27002KT 15SM FEW240 21/03 A3012 RMK CI1 SLP200=

CYXU;2005-05-08 19:00;METAR CYXU 081900Z 00000KT 15SM FEW290 22/05 A3010 RMK CI0 SLP195=

CYXU;2005-05-08 20:00;METAR CYXU 082000Z 34003KT 15SM FEW290 22/02 A3008 RMK CI0 SLP187=

CYXU;2005-05-08 21:00;METAR CYXU 082100Z 20004KT 15SM SCT290 23/02 A3007 RMK CI1 SLP182=

CYXU;2005-05-08 22:00;METAR CYXU 082200Z 34004KT 15SM SCT290 22/03 A3006 RMK CI1 SLP179=

CYXU;2005-05-08 23:00;METAR CYXU 082300Z 20002KT 15SM SCT290 21/06 A3005 RMK CI1 SLP177=

CYXU;2005-05-09 00:00;METAR CYXU 090000Z 20004KT 15SM BKN290 18/06 A3005 RMK CI2 SLP177=

CYXU;2005-05-09 04:00;METAR CYXU 090400Z 00000KT 15SM BKN290 12/05 A3007 RMK CI2 SLP185=

CYXU;2005-05-09 05:00;METAR CYXU 090500Z 10004KT 15SM FEW290 11/05 A3008 RMK CI2 SLP186=

CYXU;2005-05-09 06:00;METAR CYXU 090600Z 09003KT 15SM FEW280 10/05 A3007 RMK CI1 SLP183=

CYXU;2005-05-09 08:00;METAR CYXU 090800Z 06003KT 15SM FEW280 09/04 A3006 RMK CI1 SLP181=

CYXU;2005-05-09 09:00;METAR CYXU 090900Z 00000KT 15SM FEW180 08/04 A3007 RMK AC2 SLP184=

CYXU;2005-05-09 10:00;METAR CYXU 091000Z 09005KT 8SM SCT200 09/04 A3007 RMK CI4 SLP182=

CYXU;2005-05-09 12:00;METAR CYXU 091200Z 12002KT 8SM OVC250 11/07 A3008 RMK CI3 SLP187=

CYXU;2005-05-09 15:00;METAR CYXU 091500Z 17009KT 15SM OVC250 19/06 A3007 RMK CI4 SLP184=

CYXU;2005-05-09 16:00;METAR CYXU 091600Z 19007KT 15SM OVC250 20/05 A3006 RMK CI6 SLP181=

CYXU;2005-05-09 17:00;METAR CYXU 091700Z 17008KT 15SM OVC250 21/05 A3005 RMK CI2 SLP176=

CYXU;2005-05-09 18:00;METAR CYXU 091800Z 17008KT 15SM BKN250 21/05 A3003 RMK CI2 SLP170=

CYXU;2005-05-09 22:00;METAR CYXU 092200Z 17008KT 15SM BKN220 22/03 A2997 RMK CI4 SLP148=

CYXU;2005-05-09 23:00;METAR CYXU 092300Z 16008KT 15SM BKN220 22/01 A2995 RMK CI4 SLP143=

CYXU;2005-05-10 00:00;METAR CYXU 100000Z 15005KT 15SM BKN200 20/02 A2995 RMK CI4 SLP141=

CYXU;2005-05-10 04:00;METAR CYXU 100400Z 10005KT 15SM SCT200 15/02 A2992 RMK CI3 SLP132=

CYXU;2005-05-10 07:00;METAR CYXU 100700Z 10007KT 15SM FEW200 13/04 A2990 RMK CI2 SLP124=

CYXU;2005-05-10 09:00;METAR CYXU 100900Z 11005KT 15SM SCT200 12/05 A2987 RMK CI3 SLP116=

CYXU;2005-05-10 10:00;METAR CYXU 101000Z 11005KT 12SM FEW075 BKN200 12/05 A2987 RMK AC1CI2 SLP116=

CYXU;2005-05-10 11:00;METAR CYXU 101100Z 13005KT 12SM SCT200 13/06 A2987 RMK CI3 SLP116=

CYXU;2005-05-10 12:00;METAR CYXU 101200Z 18004KT 15SM BKN200 16/06 A2988 RMK CI5 SLP117=

CYXU;2005-05-10 13:00;METAR CYXU 101300Z 19006KT 15SM FEW090 BKN200 18/08 A2988 RMK AC2CI2 SLP116=

CYXU;2005-05-10 14:36;SPECI CYXU 101436Z 20006KT 8SM -SHRA BKN023 OVC040 RMK SC5SC3 TCU EMBD=

CYXU;2005-05-10 15:41;SPECI CYXU 101541Z 18003KT 15SM FEW025 SCT060 OVC100 RMK SC1SC2AC5=

CYXU;2005-05-10 16:00;METAR CYXU 101600Z 18005KT 12SM FEW025 BKN080 OVC100 16/11 A2989 RMK SC2AC5AC2 SLP120=

CYXU;2005-05-10 17:00;METAR CYXU 101700Z 20006KT 15SM BKN080 OVC200 20/13 A2986 RMK AC6CI1 SLP113=

CYXU;2005-05-10 21:00;METAR CYXU 102100Z 19013G18KT 10SM FEW035TCU BKN290 23/15 A2983 RMK TCU2CI1 SLP102=

CYXU;2005-05-10 22:00;METAR CYXU 102200Z 20012G17KT 10SM FEW040 SCT110 BKN290 23/15 A2983 RMK CU1AC3CI0 TCU ACC SLP101=

CYXU;2005-05-11 00:00;METAR CYXU 110000Z 20011G18KT 10SM FEW040TCU FEW090 SCT290 20/14 A2984 RMK TCU1AC1CI1 CB TOP ENE ACC ASOCTD SLP105=

CYXU;2005-05-11 04:00;METAR CYXU 110400Z 26005KT 7SM FEW080 FEW290 16/12 A2989 RMK AC1CI1 SLP121=

CYXU;2005-05-11 05:00;METAR CYXU 110500Z 29002KT 12SM SKC 15/12 A2989 RMK SLP121=

CYXU;2005-05-11 07:00;METAR CYXU 110700Z 29004KT 15SM SKC 13/10 A2989 RMK SLP119=

CYXU;2005-05-11 10:00;METAR CYXU 111000Z 27002KT 15SM FEW250 12/10 A2991 RMK CI1 CI TR SLP127=

CYXU;2005-05-11 12:00;METAR CYXU 111200Z 29005KT 12SM SCT260 14/11 A2996 RMK CI2 SLP143=

CYXU;2005-05-11 13:00;METAR CYXU 111300Z 30007KT 12SM FEW170 BKN260 16/12 A2998 RMK AC1CI2 SLP150=

CYXU;2005-05-11 14:00;METAR CYXU 111400Z 32007KT 12SM FEW011 FEW170 BKN260 17/12 A2998 RMK SC1AC1CI1 SC TR SLP150=

CYXU;2005-05-11 15:00;METAR CYXU 111500Z 31009KT 10SM BKN011 BKN260 16/12 A3003 RMK SC5CI1 SLP170=

CYXU;2005-05-11 16:00;METAR CYXU 111600Z 29009KT 12SM SCT012 BKN120 BKN260 17/12 A3005 RMK SC4AC2CI1 SLP175=

CYXU;2005-05-11 17:00;METAR CYXU 111700Z 32010G15KT 15SM SCT013 BKN110 16/11 A3006 RMK SC3AC4 SLP178=

CYXU;2005-05-11 18:00;METAR CYXU 111800Z 30015G20KT 15SM FEW012 BKN090 15/10 A3008 RMK SC1AC6 SLP188=

CYXU;2005-05-11 19:29;SPECI CYXU 111929Z 34005KT 15SM -SHRA FEW018TCU OVC110 RMK TCU1AC7=

CYXU;2005-05-11 19:45;SPECI CYXU 111945Z 32009KT 15SM BKN110 OVC200 RMK AC6CI2=

CYXU;2005-05-11 22:00;METAR CYXU 112200Z 36014KT 15SM FEW030 BKN100 BKN180 16/09 A3007 RMK SC2AC4CI2 SLP184=

CYXU;2005-05-11 23:27;SPECI CYXU 112327Z 36013KT 15SM -SHRA BKN031 BKN063 OVC090 RMK SC5SC2AC1 TCU ASCTD=

CYXU;2005-05-12 00:00;METAR CYXU 120000Z 36009G15KT 15SM -SHRA FEW030 BKN064 BKN180 12/06 A3015 RMK CF1SC6CI1 TCU S SLP211=

CYXU;2005-05-12 01:12;SPECI CYXU 120112Z 36012KT 15SM FEW017 SCT063 SCT180 RMK CF1SC2CI1=

CYXU;2005-05-12 02:00;METAR CYXU 120200Z 01007KT 15SM FEW063 08/04 A3019 RMK SC2 SLP225=

CYXU;2005-05-12 03:00;METAR CYXU 120300Z 01008KT 15SM SKC 08/03 A3022 RMK SLP236=

CYXU;2005-05-12 04:00;METAR CYXU 120400Z 01006KT 15SM FEW250 07/03 A3024 RMK CI0 SLP243=

CYXU;2005-05-12 05:00;METAR CYXU 120500Z 01008KT 15SM FEW220 07/02 A3025 RMK CI0 SLP247=

CYXU;2005-05-12 06:00;METAR CYXU 120600Z 03010KT 15SM FEW220 07/01 A3027 RMK CI0 SLP256=

CYXU;2005-05-12 08:00;METAR CYXU 120800Z 02008KT 15SM BKN200 05/00 A3031 RMK CI2 SLP269=

CYXU;2005-05-12 09:00;METAR CYXU 120900Z 02010KT 15SM BKN200 04/M00 A3033 RMK CI2 SLP275=

CYXU;2005-05-12 10:00;METAR CYXU 121000Z 03010KT 15SM FEW012 SCT230 03/M01 A3036 RMK SC1CI2 SLP284=

CYXU;2005-05-12 11:00;METAR CYXU 121100Z 05011G16KT 15SM FEW020 BKN250 02/M04 A3040 RMK SC2CI2 PRESRR SLP300=

CYXU;2005-05-12 13:00;METAR CYXU 121300Z 04011G17KT 15SM BKN220 04/M05 A3043 RMK CI2 SLP311=

CYXU;2005-05-12 14:00;METAR CYXU 121400Z 05009G17KT 15SM SCT270 05/M05 A3043 RMK CI1 SLP312=

CYXU;2005-05-12 15:00;METAR CYXU 121500Z 04012KT 15SM FEW270 06/M06 A3044 RMK CI1 SLP314=

CYXU;2005-05-12 16:00;METAR CYXU 121600Z 06008G15KT 15SM FEW270 09/M05 A3044 RMK CI1 SLP314=

CYXU;2005-05-12 17:00;METAR CYXU 121700Z 09010KT 15SM FEW270 10/M06 A3044 RMK CI1 SLP314=

CYXU;2005-05-12 18:00;METAR CYXU 121800Z 07009G15KT 15SM FEW270 10/M05 A3043 RMK CI1 CI TR SLP309=

CYXU;2005-05-12 19:00;METAR CYXU 121900Z 08012KT 15SM FEW270 11/M05 A3042 RMK CI1 SLP307=

CYXU;2005-05-12 20:00;METAR CYXU 122000Z 04008G15KT 15SM FEW270 12/M06 A3041 RMK CI1 SLP305=

CYXU;2005-05-12 22:00;METAR CYXU 122200Z 04005KT 15SM FEW270 12/M05 A3041 RMK CI1 SLP305=

CYXU;2005-05-13 00:00;METAR CYXU 130000Z 11010KT 15SM FEW270 09/M06 A3040 RMK CI0 SLP303=

CYXU;2005-05-13 03:00;METAR CYXU 130300Z 10007KT 15SM BKN160 06/M05 A3038 RMK AC7 SLP295=

CYXU;2005-05-13 04:00;METAR CYXU 130400Z 09007KT 15SM OVC140 06/M06 A3038 RMK AC8 SLP296=

CYXU;2005-05-13 09:00;METAR CYXU 130900Z 10015KT 15SM BKN100 06/M06 A3032 RMK AC7 SLP273=

CYXU;2005-05-13 10:00;METAR CYXU 131000Z 10014G21KT 15SM BKN100 BKN240 06/M07 A3031 RMK AC5CI1 SLP270=

CYXU;2005-05-13 12:00;METAR CYXU 131200Z 11015G21KT 15SM FEW070 BKN091 07/M08 A3031 RMK AC2AC6 SLP270=

CYXU;2005-05-13 13:00;METAR CYXU 131300Z 11017G24KT 15SM FEW091 SCT160 SCT240 08/M07 A3027 RMK AC2AC1CI1 SLP256=

CYXU;2005-05-13 14:00;METAR CYXU 131400Z 10017KT 15SM FEW160 FEW240 09/M06 A3023 RMK AC1CI1 SLP244=

CYXU;2005-05-13 15:00;METAR CYXU 131500Z 09014G20KT 15SM SCT200 11/M04 A3024 RMK CI2 SLP244=

CYXU;2005-05-13 17:00;METAR CYXU 131700Z 11013G19KT 15SM BKN090 13/M03 A3016 RMK AC7 SLP220=

CYXU;2005-05-13 18:00;METAR CYXU 131800Z 07011G16KT 15SM SCT060 OVC080 14/M03 A3017 RMK AC3AC5 SLP222=

CYXU;2005-05-13 19:23;SPECI CYXU 131923Z 09018KT 12SM FEW025 BKN045 OVC065 RMK SC2SC3AC3=

CYXU;2005-05-13 19:49;SPECI CYXU 131949Z 09015KT 10SM -TSRA FEW025 BKN045 OVC070 RMK SC2SC3AC3 CB EMBDD=

CYXU;2005-05-13 20:28;SPECI CYXU 132028Z 08013KT 2 1/2SM -TSRA FEW025 BKN042 OVC065 RMK SC2SC4AC2 CB EMBDD LTGCCIC=

CYXU;2005-05-13 20:51;SPECI CYXU 132051Z 10017KT 6SM -TSRA FEW025 BKN045 OVC070 RMK SC2SC4AC2 CB EMBDD=

CYXU;2005-05-13 20:55;SPECI CYXU 132055Z 10016KT 2 1/2SM -TSRA FEW025 OVC047 RMK SC2SC6 CB EMBDD=

CYXU;2005-05-13 21:00;METAR CYXU 132100Z 09014G19KT 2 1/2SM -TSRA FEW022 OVC045 06/02 A3003 RMK SC2SC6 CB EMBDD PRESFR SLP175=

CYXU;2005-05-13 21:11;SPECI CYXU 132111Z 10012G17KT 3SM -TSRA FEW020 BKN045 OVC064 RMK SC2SC5AC2 CB EMBDD=

CYXU;2005-05-13 21:16;SPECI CYXU 132116Z 10013KT 2SM +TSRA FEW014 BKN030 OVC064 RMK SC2SC5AC2 CB EMBDD LTGICCG=

CYXU;2005-05-13 21:29;SPECI CYXU 132129Z 10013KT 3SM -TSRA FEW015 BKN040CB OVC077 RERA RMK SC2CB4AC2=

CYXU;2005-05-13 21:37;SPECI CYXU 132137Z 09017KT 12SM FEW025 BKN065 OVC110 RETSRA RMK CU2SC2AC3=

CYXU;2005-05-13 22:00;METAR CYXU 132200Z 10015KT 15SM FEW030 BKN070 OVC110 07/04 A2998 RETSRA RMK CU2AC2AC3 SLP158=

CYXU;2005-05-14 00:00;METAR CYXU 140000Z 10012KT 15SM SCT080 OVC220 08/04 A2992 RMK AC3CS5 SLP136=

CYXU;2005-05-14 01:03;SPECI CYXU 140103Z 29014G25KT 15SM TS SCT030 BKN066 OVC220 RMK CU3SC2CS3 CB EMBDD LTGICCCCG N=

CYXU;2005-05-14 01:10;SPECI CYXU 140110Z 33005KT 10SM -TSRA BKN054CB OVC220 RMK CB5CS3 LTGICCCCG N VSBY N 4 WND EST=

CYXU;2005-05-14 01:16;SPECI CYXU 140116Z 13010KT 2 1/2SM +TSRA BKN025CB OVC220 RMK CB6CS2 LTGICCCCG PRESRR=

CYXU;2005-05-14 01:23;SPECI CYXU 140123Z 16007KT 2 1/2SM -TSRA BKN025CB OVC090 RMK CB5AC3 LTGICCG RERA=

CYXU;2005-05-14 03:37;SPECI CYXU 140337Z 16010KT 12SM FEW040 OVC120 RMK SC2AC6 RETS=

CYXU;2005-05-14 04:00;METAR CYXU 140400Z 14005KT 12SM -SHRA BKN040TCU OVC100 10/08 A2986 RETS RMK TCU5AC3 SLP116=

CYXU;2005-05-14 06:00;METAR CYXU 140600Z 18012KT 3SM -SHRA BKN005 OVC100 13/11 A2983 RMK SF5AC3 TCU ASCTD SLP101=

CYXU;2005-05-14 06:24;SPECI CYXU 140624Z 17009G15KT 2SM -SHRA BKN004 OVC036 RMK SF6SC2 TCU ASCTD=

CYXU;2005-05-14 10:27;SPECI CYXU 141027Z 28008KT 2 1/2SM BR OVC006 RMK FG2ST6=

CYXU;2005-05-14 12:00;METAR CYXU 141200Z 27007KT 2SM BR BKN005 OVC013 14/12 A2982 RMK FG2SF6SC1 SLP102=

CYXU;2005-05-14 12:35;SPECI CYXU 141235Z 27005KT 2 1/2SM BR BKN005 BKN015 RMK FG2SF4SC2=

CYXU;2005-05-14 13:00;METAR CYXU 141300Z 24005KT 2 1/2SM BR BKN005 OVC012 14/13 A2982 RMK FG2SF5SC2 SLP101=

CYXU;2005-05-14 14:17;SPECI CYXU 141417Z 23007KT 4SM BR BKN008 OVC012 RMK SF5SC3=

CYXU;2005-05-14 15:00;METAR CYXU 141500Z 21007KT 4SM BR BKN009 OVC012 15/13 A2982 RMK SF5SC3 SLP100=

CYXU;2005-05-14 16:00;METAR CYXU 141600Z 20002KT 5SM HZ SCT012 BKN023 BKN180 16/13 A2980 RMK SF3SC2AC2 SLP092=

CYXU;2005-05-14 18:00;METAR CYXU 141800Z 17011KT 5SM HZ BKN013 OVC024 17/14 A2975 RMK SC5SC3 SLP074=

CYXU;2005-05-14 18:27;SPECI CYXU 141827Z 18012KT 5SM -SHRA BR BKN013 OVC031 RMK SC5SC3 TCU ASOCTD=

CYXU;2005-05-14 18:47;SPECI CYXU 141847Z 18012KT 5SM HZ BKN012 OVC030 RMK SC5SC3=

CYXU;2005-05-14 21:00;METAR CYXU 142100Z 17007KT 3SM -SHRA BR FEW009 BKN012 OVC027 16/15 A2969 RMK SF2SC4SC2 TCU ASOCTD SLP055=

CYXU;2005-05-14 21:13;SPECI CYXU 142113Z 17008KT 3SM -SHRA BR BKN005 OVC012 RMK ST5SC3 TCU ASOCTD=

CYXU;2005-05-14 21:25;SPECI CYXU 142125Z 17007KT 3SM -SHRA BR SCT007 OVC012 RMK ST4SC4 TCU ASOCTD=

CYXU;2005-05-14 21:37;SPECI CYXU 142137Z 17009KT 3SM -SHRA BR BKN006 OVC012 RMK ST6SC2 TCU ASOCTD=

CYXU;2005-05-14 22:00;METAR CYXU 142200Z 18007KT 2 1/2SM -SHRA BR BKN007 OVC012 16/15 A2967 RMK ST6SC2 TCU ASOCTD SLP049=

CYXU;2005-05-14 22:17;SPECI CYXU 142217Z 20007KT 1 1/2SM SHRA BR BKN004 OVC011 RMK ST6SC2 TCU ASOCTD=

CYXU;2005-05-14 22:23;SPECI CYXU 142223Z 19006KT 1 1/4SM R15/3500VP6000FT/D +SHRA BR BKN004 OVC011 RMK ST6SC2 TCU ASOCTD=

CYXU;2005-05-14 22:37;SPECI CYXU 142237Z 28008G15KT 2 1/2SM -SHRA BR BKN007 BKN011 OVC028 RERA RMK ST5SC2SC2 TCU ASOCTD FROPA=

CYXU;2005-05-14 22:42;SPECI CYXU 142242Z 28006KT 5SM -SHRA BR SCT007 BKN012 OVC042 RERA RMK ST4SC2SC2 TCU ASOCTD=

CYXU;2005-05-15 00:00;METAR CYXU 150000Z 29004KT 10SM FEW007 BKN023 BKN090 15/13 A2970 RMK SF1SC5AC2 SLP056=

CYXU;2005-05-15 02:00;METAR CYXU 150200Z 27005KT 10SM FEW230 12/11 A2972 RMK CI2 SLP063=

CYXU;2005-05-15 06:00;METAR CYXU 150600Z 25003KT 10SM SCT090 08/07 A2973 RMK AC3 SLP070=

CYXU;2005-05-15 10:00;METAR CYXU 151000Z 27003KT 12SM BKN050 08/06 A2976 RMK SC5 SLP079=

CYXU;2005-05-15 12:00;METAR CYXU 151200Z 26011KT 15SM BKN015 09/06 A2980 RMK SC6 SLP093=

CYXU;2005-05-15 13:00;METAR CYXU 151300Z 27007KT 12SM OVC015 08/05 A2982 RMK SC8 SLP099=

CYXU;2005-05-15 15:00;METAR CYXU 151500Z 28010G16KT 15SM OVC027 09/05 A2983 RMK SC8 SLP106=

CYXU;2005-05-15 16:00;METAR CYXU 151600Z 28009KT 15SM BKN029 12/06 A2983 RMK CU6 SLP104=

CYXU;2005-05-15 17:00;METAR CYXU 151700Z 26012G17KT 15SM SCT030 OVC058 11/05 A2984 RMK CU4SC4 SLP107=

CYXU;2005-05-15 18:00;METAR CYXU 151800Z 28010KT 15SM BKN034 OVC060 11/05 A2985 RMK CU6SC2 SLP111=

CYXU;2005-05-15 22:00;METAR CYXU 152200Z 31004KT 15SM FEW040 BKN065 OVC082 09/05 A2986 RMK SC2AC4AC2 SLP116=

CYXU;2005-05-15 23:00;METAR CYXU 152300Z 29009G15KT 12SM -SHRA BKN027 OVC070 10/05 A2988 RMK SC5AC3 TCU ASOCTD SLP121=

CYXU;2005-05-15 23:38;SPECI CYXU 152338Z 31002KT 15SM FEW025 BKN055 BKN080 RMK SC2SC3AC2=

CYXU;2005-05-16 04:00;METAR CYXU 160400Z 30005KT 15SM BKN082 08/04 A2992 RMK AC7 SLP136=

CYXU;2005-05-16 05:00;METAR CYXU 160500Z 30008KT 15SM FEW034 BKN077 07/04 A2992 RMK SC2AC5 SLP137=

CYXU;2005-05-16 10:00;METAR CYXU 161000Z 30006KT 15SM FEW047 FEW060 FEW250 05/02 A2995 RMK CU1SC1CI1 SLP148=

CYXU;2005-05-16 12:00;METAR CYXU 161200Z 30008KT 15SM BKN017 05/01 A3001 RMK SC7 SLP169=

CYXU;2005-05-16 13:00;METAR CYXU 161300Z 29008KT 15SM OVC019 05/01 A3003 RMK SC8 SLP176=

CYXU;2005-05-16 13:03;SPECI CYXU 161303Z 30007KT 15SM -SHRA OVC016 RMK SC8=

CYXU;2005-05-16 13:30;SPECI CYXU 161330Z 30007KT 15SM OVC022 RMK SC8=

CYXU;2005-05-16 14:00;METAR CYXU 161400Z 31010G16KT 15SM OVC020 05/01 A3005 RMK SC8 SLP181=

CYXU;2005-05-16 15:00;METAR CYXU 161500Z 31010KT 15SM BKN032 07/01 A3006 RMK SC7 CU SLP185=

CYXU;2005-05-16 16:00;METAR CYXU 161600Z 30007KT 15SM BKN035 08/00 A3007 RMK CU6 SLP187=

CYXU;2005-05-16 18:00;METAR CYXU 161800Z 33008KT 15SM BKN035 09/01 A3007 RMK CU7 SLP186=

CYXU;2005-05-16 19:00;METAR CYXU 161900Z 31008KT 15SM BKN035 09/01 A3007 RMK CU7 SLP188=

CYXU;2005-05-16 21:00;METAR CYXU 162100Z 33007KT 15SM BKN041 09/01 A3008 RMK SC6 SLP192=

CYXU;2005-05-16 22:00;METAR CYXU 162200Z 36006KT 15SM BKN040 09/M00 A3007 RMK SC6 SLP190=

CYXU;2005-05-17 00:00;METAR CYXU 170000Z 32003KT 15SM SCT044 09/M00 A3009 RMK SC4 SLP196=

CYXU;2005-05-17 02:00;METAR CYXU 170200Z 00000KT 15SM FEW040 06/00 A3010 RMK SC1 SLP200=

CYXU;2005-05-17 03:00;METAR CYXU 170300Z 00000KT 15SM FEW058 04/01 A3011 RMK SC2 SLP204=

CYXU;2005-05-17 05:00;METAR CYXU 170500Z 09002KT 15SM BKN060 05/02 A3012 RMK SC6 SLP206=

CYXU;2005-05-17 10:00;METAR CYXU 171000Z 24004KT 15SM BKN062 07/03 A3013 RMK SC7 SLP210=

CYXU;2005-05-17 11:00;METAR CYXU 171100Z 23002KT 12SM BKN065 07/02 A3016 RMK SC7 SLP217=

CYXU;2005-05-17 12:00;METAR CYXU 171200Z 00000KT 12SM BKN066 08/03 A3017 RMK AC7 SLP220=

CYXU;2005-05-17 13:00;METAR CYXU 171300Z 22005KT 15SM BKN066 10/02 A3017 RMK AC7 SLP222=

CYXU;2005-05-17 15:00;METAR CYXU 171500Z 00000KT 12SM FEW040 BKN068 12/02 A3017 RMK CU2AC4 SLP220=

CYXU;2005-05-17 17:00;METAR CYXU 171700Z 30006KT 15SM SCT050 BKN068 12/M00 A3015 RMK CU4AC2 SLP215=

CYXU;2005-05-17 18:00;METAR CYXU 171800Z 23003KT 15SM SCT050 BKN066 13/01 A3014 RMK CU4AC2 SLP212=

CYXU;2005-05-17 19:00;METAR CYXU 171900Z 25004KT 15SM BKN056 13/01 A3013 RMK SC6 SLP208=

CYXU;2005-05-17 20:00;METAR CYXU 172000Z 26006KT 15SM BKN057 13/02 A3013 RMK SC7 SLP206=

CYXU;2005-05-17 21:00;METAR CYXU 172100Z 23005KT 15SM BKN058 14/04 A3012 RMK SC6 SLP204=

CYXU;2005-05-17 22:00;METAR CYXU 172200Z 00000KT 15SM BKN055 14/02 A3012 RMK SC5 SLP203=

CYXU;2005-05-18 00:00;METAR CYXU 180000Z 30005KT 15SM FEW050 12/01 A3013 RMK SC2 SLP207=

CYXU;2005-05-18 03:00;METAR CYXU 180300Z 00000KT 15SM SKC 08/01 A3015 RMK SLP213=

CYXU;2005-05-18 04:00;METAR CYXU 180400Z 00000KT 15SM SKC 06/01 A3015 RMK SLP214=

CYXU;2005-05-18 05:00;METAR CYXU 180500Z 00000KT 15SM FEW020 06/02 A3015 RMK CF1 CF TR SLP213=

CYXU;2005-05-18 07:00;METAR CYXU 180700Z 00000KT 15SM FEW071 04/01 A3014 RMK AC1 SLP213=

CYXU;2005-05-18 10:00;METAR CYXU 181000Z 05003KT 10SM FEW066 03/01 A3019 RMK AC2 SLP227=

CYXU;2005-05-18 11:00;METAR CYXU 181100Z 09006KT 15SM FEW066 FEW200 05/01 A3020 RMK AC1CI1 SLP233=

CYXU;2005-05-18 12:00;METAR CYXU 181200Z 10006KT 15SM FEW066 SCT200 08/02 A3020 RMK AC1CI1 SLP232=

CYXU;2005-05-18 13:00;METAR CYXU 181300Z 14006KT 15SM FEW100 SCT200 11/03 A3022 RMK AC2CI1 SLP236=

CYXU;2005-05-18 14:00;METAR CYXU 181400Z 13005KT 15SM FEW100 SCT200 12/03 A3021 RMK AC1CI1 SLP234=

CYXU;2005-05-18 15:00;METAR CYXU 181500Z 12005KT 15SM FEW100 FEW200 13/03 A3020 RMK AC1CI1 SLP231=

CYXU;2005-05-18 16:00;METAR CYXU 181600Z 13004KT 15SM FEW080 BKN200 15/04 A3020 RMK AC2CI1 SLP229=

CYXU;2005-05-18 17:00;METAR CYXU 181700Z 20004KT 15SM FEW040 FEW080 BKN200 16/05 A3018 RMK CU1AC1CI1 SLP223=

CYXU;2005-05-18 19:00;METAR CYXU 181900Z 08005KT 12SM BKN062 17/05 A3016 RMK SC6 SLP216=

CYXU;2005-05-18 22:00;METAR CYXU 182200Z 24003KT 12SM SCT058 16/05 A3014 RMK SC3 SLP210=

CYXU;2005-05-19 00:00;METAR CYXU 190000Z 18008KT 15SM BKN200 14/04 A3013 RMK CI6 SLP205=

CYXU;2005-05-19 01:00;METAR CYXU 190100Z 22008KT 15SM BKN200 13/02 A3013 RMK CI5 SLP207=

CYXU;2005-05-19 03:00;METAR CYXU 190300Z 15003KT 15SM FEW200 10/M00 A3014 RMK CI2 SLP210=

CYXU;2005-05-19 04:00;METAR CYXU 190400Z 11002KT 15SM FEW200 10/01 A3013 RMK CI1 SLP206=

CYXU;2005-05-19 07:00;METAR CYXU 190700Z 08004KT 15SM FEW220 07/02 A3010 RMK CI2 SLP197=

CYXU;2005-05-19 08:00;METAR CYXU 190800Z 09004KT 15SM FEW220 07/01 A3011 RMK CI2 SLP198=

CYXU;2005-05-19 10:00;METAR CYXU 191000Z 08004KT 15SM BKN220 06/02 A3012 RMK CI2 SLP201=

CYXU;2005-05-19 11:00;METAR CYXU 191100Z 09002KT 15SM BKN220 08/03 A3013 RMK CI2 SLP204=

CYXU;2005-05-19 12:00;METAR CYXU 191200Z 05006KT 15SM FEW150 BKN220 10/03 A3011 RMK AC1CI2 SLP199=

CYXU;2005-05-19 13:00;METAR CYXU 191300Z 12008KT 15SM SCT180 BKN220 13/03 A3010 RMK AC2CI2 SLP196=

CYXU;2005-05-19 14:00;METAR CYXU 191400Z 11011KT 15SM SCT180 BKN220 14/03 A3009 RMK AC3CI2 SLP191=

CYXU;2005-05-19 15:00;METAR CYXU 191500Z 12014KT 15SM SCT180 BKN220 16/05 A3007 RMK AC4CI2 SLP186=

CYXU;2005-05-19 16:00;METAR CYXU 191600Z 11015KT 15SM BKN170 BKN220 16/03 A3006 RMK AC5CI2 SLP180=

CYXU;2005-05-19 17:00;METAR CYXU 191700Z 11010G18KT 15SM SCT150 BKN220 17/03 A3004 RMK AC4CI2 SLP174=

CYXU;2005-05-19 18:00;METAR CYXU 191800Z 14012KT 15SM FEW160 BKN220 17/02 A3004 RMK AC2CI2 SLP174=

CYXU;2005-05-19 19:00;METAR CYXU 191900Z 14011KT 15SM FEW090 OVC150 18/02 A3003 RMK AC1AC7 SLP170=

CYXU;2005-05-19 21:00;METAR CYXU 192100Z 12009KT 15SM FEW090 OVC140 18/01 A2999 RMK AC1AC7 SLP159=

CYXU;2005-05-19 22:00;METAR CYXU 192200Z 12009KT 15SM BKN120 OVC200 17/M00 A2997 RMK AC7CI1 SLP152=

CYXU;2005-05-19 23:00;METAR CYXU 192300Z 08013KT 15SM BKN120 OVC200 16/05 A2996 RMK AC6CI2 SLP147=

CYXU;2005-05-20 00:00;METAR CYXU 200000Z 09011KT 15SM BKN120 OVC200 15/04 A2996 RMK AC6CI2 SLP146=

CYXU;2005-05-20 01:00;METAR CYXU 200100Z 08009KT 15SM BKN120 OVC200 13/02 A2996 RMK AC6CI2 SLP147=

CYXU;2005-05-20 02:00;METAR CYXU 200200Z 01010KT 15SM BKN120 OVC200 12/01 A2997 RMK AC6CI2 SLP150=

CYXU;2005-05-20 07:00;METAR CYXU 200700Z 07013KT 15SM FEW180 FEW220 11/01 A2992 RMK AC1CI2 SLP134=

CYXU;2005-05-21 16:00;METAR CYXU 211600Z 29011KT 15SM FEW080 20/05 A3000 RMK AC1 SLP158=

CYXU;2005-05-21 17:00;METAR CYXU 211700Z 30010G15KT 15SM FEW060 21/06 A2999 RMK CU1 SLP157=

CYXU;2005-05-21 21:00;METAR CYXU 212100Z 31012G17KT 15SM VCSH SCT070TCU 23/05 A2993 RMK TCU3 SLP138=

CYXU;2005-05-21 22:00;METAR CYXU 212200Z 31013G18KT 15SM VCSH SCT080TCU 22/04 A2994 RMK TCU3 SLP139=

CYXU;2005-05-21 23:00;METAR CYXU 212300Z 32010G15KT 15SM FEW080 21/03 A2994 RMK AC2 SLP139=

CYXU;2005-05-22 00:00;METAR CYXU 220000Z 34010KT 15SM FEW080 BKN250 20/02 A2994 RMK AC2CI1 SLP140=

CYXU;2005-05-22 01:00;METAR CYXU 220100Z 34005KT 15SM FEW250 18/02 A2993 RMK CI2 SLP137=

CYXU;2005-05-22 03:00;METAR CYXU 220300Z 32004KT 15SM FEW250 15/04 A2993 RMK CI1 SLP134=

CYXU;2005-05-22 04:00;METAR CYXU 220400Z 06006KT 15SM FEW250 12/04 A2994 RMK CI0 SLP138=

CYXU;2005-05-22 05:00;METAR CYXU 220500Z 06005KT 15SM FEW250 11/04 A2995 RMK CI0 SLP141=

CYXU;2005-05-22 06:00;METAR CYXU 220600Z 08007KT 15SM SKC 10/05 A2995 RMK SLP141=

CYXU;2005-05-22 08:00;METAR CYXU 220800Z 09005KT 15SM FEW250 08/06 A2993 RMK CI1 SLP135=

CYXU;2005-05-22 10:00;METAR CYXU 221000Z 08004KT 15SM FEW120 FEW250 08/06 A2992 RMK AC1CI1 SLP133=

CYXU;2005-05-22 11:27;SPECI CYXU 221127Z 09007KT 15SM BKN007 RMK SF6=

CYXU;2005-05-22 12:00;METAR CYXU 221200Z 10008KT 15SM BKN006 09/07 A2991 RMK SF7 SLP130=

CYXU;2005-05-22 12:30;SPECI CYXU 221230Z 13006KT 15SM FEW008 SCT250 RMK SF2CI2=

CYXU;2005-05-22 13:00;METAR CYXU 221300Z 13008KT 15SM FEW010 SCT250 12/08 A2990 RMK SF1CI2 SLP127=

CYXU;2005-05-22 14:00;METAR CYXU 221400Z 11008KT 15SM FEW010 SCT250 13/08 A2990 RMK SF1CI1 SLP124=

CYXU;2005-05-22 15:00;METAR CYXU 221500Z 12007KT 15SM FEW020 SCT250 14/08 A2987 RMK CF1CI1 SLP117=

CYXU;2005-05-22 16:00;METAR CYXU 221600Z 13004KT 15SM FEW020 SCT250 15/09 A2986 RMK CF1CI2 SLP114=

CYXU;2005-05-22 17:00;METAR CYXU 221700Z 15005KT 15SM FEW020 FEW100 BKN250 16/08 A2985 RMK CF1AC1CS4 SLP108=

CYXU;2005-05-22 18:00;METAR CYXU 221800Z 11005KT 15SM FEW100 BKN200 17/09 A2982 RMK AC2CS5 SLP099=

CYXU;2005-05-22 19:00;METAR CYXU 221900Z 22010KT 15SM SCT040 BKN100 OVC250 16/10 A2982 RMK CU3AC2CI2 SLP099=

CYXU;2005-05-22 21:00;METAR CYXU 222100Z 21007KT 15SM SCT100 OVC250 15/08 A2977 RMK AC4CS4 VIRGA SLP085=

CYXU;2005-05-22 22:00;METAR CYXU 222200Z 21008KT 15SM SCT040 BKN100 OVC250 13/06 A2977 RMK CU3AC2CS3 SLP084=

CYXU;2005-05-22 22:14;SPECI CYXU 222214Z 19009KT 15SM -SHRA SCT040 OVC120 RMK CU3AC5=

CYXU;2005-05-22 23:00;METAR CYXU 222300Z 20006KT 12SM -SHRA FEW040 OVC070 13/07 A2977 RMK CU2AC6 SLP085=

CYXU;2005-05-23 00:00;METAR CYXU 230000Z 18004KT 12SM -SHRA OVC070 12/07 A2977 RMK AC8 SLP086=

CYXU;2005-05-23 01:47;SPECI CYXU 230147Z 11006KT 12SM -SHRA OVC067 RMK AC8 ACC EMBD=

CYXU;2005-05-23 02:00;METAR CYXU 230200Z 10007KT 12SM -SHRA OVC068 11/07 A2976 RMK AC8 ACC EMBD SLP081=

CYXU;2005-05-23 03:47;SPECI CYXU 230347Z 15004KT 15SM OVC060 RMK SC8=

CYXU;2005-05-23 04:00;METAR CYXU 230400Z 12005KT 15SM OVC060 10/08 A2973 RMK SC8 SLP071=

CYXU;2005-05-23 09:00;METAR CYXU 230900Z 10009KT 15SM SCT067 BKN080 10/07 A2963 RMK AC4AC2 SLP035=

CYXU;2005-05-23 10:00;METAR CYXU 231000Z 09007KT 15SM BKN038 OVC060 10/06 A2963 RMK SC7SC1 SLP035=

CYXU;2005-05-23 12:00;METAR CYXU 231200Z 09012KT 15SM OVC037 09/07 A2961 RMK SC8 SLP030=

CYXU;2005-05-23 13:00;METAR CYXU 231300Z 10011KT 15SM OVC039 10/06 A2961 RMK SC8 SLP030=

CYXU;2005-05-23 14:00;METAR CYXU 231400Z 10016G21KT 15SM FEW015 OVC061 10/07 A2961 RMK CF1SC7 SLP030=

CYXU;2005-05-23 14:28;SPECI CYXU 231428Z 09015KT 10SM -SHRA SCT012 OVC064 RMK CF3SC5 TCU ASOCTD=

CYXU;2005-05-23 15:00;METAR CYXU 231500Z 09015KT 10SM -SHRA SCT012 OVC060 10/07 A2962 RMK CF3SC5 TCU ASOCTD SLP034=

CYXU;2005-05-23 15:28;SPECI CYXU 231528Z 08015KT 15SM SCT015 OVC065 RMK CF3SC5=

CYXU;2005-05-23 16:00;METAR CYXU 231600Z 10014KT 15SM SCT015 OVC069 11/07 A2964 RMK CF4AC4 SLP040=

CYXU;2005-05-23 17:00;METAR CYXU 231700Z 08016KT 15SM -SHRA FEW019 OVC034 12/07 A2965 RMK CU2SC6 SLP042=

CYXU;2005-05-23 17:22;SPECI CYXU 231722Z 09012G18KT 15SM SCT024 BKN034 OVC078 RMK CU4SC2AC2=

CYXU;2005-05-23 18:00;METAR CYXU 231800Z 08013G18KT 15SM -SHRA BKN024 OVC038 13/06 A2965 RMK CU5SC3 TCU ASOCTD SLP044=

CYXU;2005-05-23 19:00;METAR CYXU 231900Z 07009G16KT 15SM BKN025 OVC075 13/06 A2966 RMK CU5AC3 SLP045=

CYXU;2005-05-23 19:34;SPECI CYXU 231934Z 09012KT 15SM BKN033 BKN075 RMK CU5AC2=

CYXU;2005-05-23 21:00;METAR CYXU 232100Z 07009G15KT 15SM BKN037 BKN090 15/05 A2967 RMK CU6AC2 SLP050=

CYXU;2005-05-23 22:00;METAR CYXU 232200Z 05010G16KT 15SM BKN040 BKN070 14/05 A2970 RMK CU5AC2 SLP060=

CYXU;2005-05-23 23:00;METAR CYXU 232300Z 05011KT 15SM FEW030 BKN062 BKN200 13/05 A2973 RMK CU1SC6CI1 SLP067=

CYXU;2005-05-24 00:00;METAR CYXU 240000Z 02006KT 15SM FEW030 SCT060 BKN250 12/05 A2974 RMK SC1SC2CI3 SLP075=

CYXU;2005-05-24 01:00;METAR CYXU 240100Z 03004KT 15SM BKN055 BKN200 11/06 A2976 RMK SC5CI2 SLP082=

CYXU;2005-05-24 02:00;METAR CYXU 240200Z 07005KT 15SM SCT030 BKN055 12/06 A2979 RMK SC3SC4 SLP091=

CYXU;2005-05-24 04:00;METAR CYXU 240400Z 03003KT 15SM SCT030 BKN053 10/08 A2980 RMK SC3SC4 SLP094=

CYXU;2005-05-24 05:00;METAR CYXU 240500Z 36004KT 15SM SCT025 BKN045 09/07 A2980 RMK SC3SC4 SLP093=

CYXU;2005-05-24 07:00;METAR CYXU 240700Z 35005KT 15SM FEW020 SCT060 09/07 A2978 RMK SC2SC2 SLP087=

CYXU;2005-05-24 10:00;METAR CYXU 241000Z 35008KT 15SM BKN051 OVC180 09/07 A2980 RMK SC7CI1 SLP094=

CYXU;2005-05-24 10:46;SPECI CYXU 241046Z 36006KT 10SM -SHRA BKN040 OVC180 RMK SC7AC1 TCU ASOCTD=

CYXU;2005-05-24 11:00;METAR CYXU 241100Z 35007KT 15SM FEW033 BKN050 OVC180 09/07 A2981 RMK CF2SC6AC1 SLP097=

CYXU;2005-05-24 11:39;SPECI CYXU 241139Z 36009KT 10SM -SHRA FEW030 OVC050 RMK CF1SC7 CVCTV CLD EMBDD=

CYXU;2005-05-24 12:00;METAR CYXU 241200Z 35008KT 10SM -SHRA FEW030 OVC043 09/08 A2981 RMK CF1SC8 CVCTV CLD EMBDD SLP099=

CYXU;2005-05-24 12:19;SPECI CYXU 241219Z 36007KT 15SM BKN029 OVC180 RMK SC6AC2=

CYXU;2005-05-24 13:00;METAR CYXU 241300Z 02008KT 15SM BKN013 OVC040 11/04 A2982 RMK CU7SC1 SLP100=

CYXU;2005-05-24 14:00;METAR CYXU 241400Z 01010G15KT 10SM OVC019 11/08 A2983 RMK CU8 SHWRS E SLP103=

CYXU;2005-05-24 14:17;SPECI CYXU 241417Z 03010G17KT 10SM -SHRA BKN010 OVC030 RMK CU6SC2 CNVCTV CLD EMBDD=

CYXU;2005-05-24 14:47;SPECI CYXU 241447Z 04014G19KT 15SM BKN020 BKN037 RMK CU5SC2=

CYXU;2005-05-24 15:00;METAR CYXU 241500Z 04015G20KT 15SM BKN020 BKN033 13/08 A2983 RMK CU6SC2 SLP103=

CYXU;2005-05-24 16:00;METAR CYXU 241600Z 04013G18KT 15SM BKN021 BKN036 13/08 A2983 RMK CU6SC2 SLP103=

CYXU;2005-05-24 17:00;METAR CYXU 241700Z 06009G15KT 15SM BKN027 OVC043 13/07 A2985 RMK CU6SC2 SLP109=

CYXU;2005-05-24 17:37;SPECI CYXU 241737Z 04007KT 15SM -SHRA OVC027 RMK CU8=

CYXU;2005-05-24 20:00;METAR CYXU 242000Z 08014KT 15SM BKN023 OVC045 12/07 A2991 RMK CU6SC2 SLP131=

CYXU;2005-05-24 21:00;METAR CYXU 242100Z 09009KT 15SM FEW025 OVC040 11/06 A2993 RMK CU2SC6 SLP141=

CYXU;2005-05-24 22:00;METAR CYXU 242200Z 03007KT 15SM FEW025 BKN056 12/06 A2995 RMK CU1SC6 SLP146=

CYXU;2005-05-24 23:00;METAR CYXU 242300Z 04007KT 15SM FEW040 BKN080 12/06 A2996 RMK SC2AC5 SLP149=

CYXU;2005-05-25 00:00;METAR CYXU 250000Z 05007KT 15SM BKN053 12/06 A2998 RMK SC7 SLP155=

CYXU;2005-05-25 01:32;SPECI CYXU 250132Z 03005KT 15SM -SHRA BKN043 RMK SC7=

CYXU;2005-05-25 02:00;METAR CYXU 250200Z 05006KT 15SM BKN041 10/08 A3000 RMK SC7 TCU ASOCTD SLP164=

CYXU;2005-05-25 04:00;METAR CYXU 250400Z 02008KT 15SM BKN035 BKN060 11/07 A3001 RMK SC5SC2 SLP164=

CYXU;2005-05-25 05:00;METAR CYXU 250500Z 04006KT 15SM SCT055 10/07 A3000 RMK SC4 SLP163=

CYXU;2005-05-25 10:00;METAR CYXU 251000Z 36006KT 10SM FEW250 07/05 A3000 RMK CI1 SLP162=

CYXU;2005-05-25 12:00;METAR CYXU 251200Z 01008KT 15SM FEW250 11/07 A3002 RMK CI1 SLP167=

CYXU;2005-05-25 13:00;METAR CYXU 251300Z 01009KT 15SM FEW250 14/08 A3004 RMK CI1 SLP174=

CYXU;2005-05-25 14:00;METAR CYXU 251400Z 36010G18KT 15SM FEW036 FEW250 16/08 A3003 RMK CU1CI1 SLP173=

CYXU;2005-05-25 15:00;METAR CYXU 251500Z 01014KT 15SM FEW040 17/07 A3003 RMK CF1 SLP170=

CYXU;2005-05-25 16:00;METAR CYXU 251600Z 03010G15KT 15SM FEW040 19/07 A3002 RMK CF1 SLP168=

CYXU;2005-05-25 17:00;METAR CYXU 251700Z 35011G17KT 15SM FEW052 20/06 A3000 RMK CF1 SLP161=

CYXU;2005-05-25 18:00;METAR CYXU 251800Z 03008KT 15SM FEW052 FEW280 21/07 A2999 RMK CU1CI1 SLP157=

CYXU;2005-05-25 19:00;METAR CYXU 251900Z 02010G15KT 15SM FEW064 22/07 A2997 RMK CF1 TR CF SLP151=

CYXU;2005-05-25 20:00;METAR CYXU 252000Z 35008KT 15SM FEW066 23/06 A2995 RMK CF1 TR CF SLP144=

CYXU;2005-05-25 21:00;METAR CYXU 252100Z 03007KT 15SM FEW066 23/05 A2994 RMK CF1 TR CF SLP140=

CYXU;2005-05-25 22:00;METAR CYXU 252200Z 04007KT 15SM SKC 23/05 A2993 RMK SLP137=

CYXU;2005-05-25 23:00;METAR CYXU 252300Z 05008KT 15SM SKC 23/04 A2993 RMK SLP136=

CYXU;2005-05-26 00:00;METAR CYXU 260000Z 03005KT 15SM FEW250 21/06 A2993 RMK CI1 TR CI SLP135=

CYXU;2005-05-26 01:00;METAR CYXU 260100Z 03004KT 15SM FEW250 19/06 A2993 RMK CI1 TR CI SLP135=

CYXU;2005-05-26 02:00;METAR CYXU 260200Z 32004KT 15SM FEW250 15/07 A2993 RMK CI1 TR CI SLP137=

CYXU;2005-05-26 03:00;METAR CYXU 260300Z 31005KT 15SM SKC 14/08 A2993 RMK SLP137=

CYXU;2005-05-26 04:00;METAR CYXU 260400Z 02007KT 15SM SKC 14/07 A2995 RMK SLP142=

CYXU;2005-05-26 05:00;METAR CYXU 260500Z 05004KT 15SM SKC 12/07 A2993 RMK SLP137=

CYXU;2005-05-26 06:00;METAR CYXU 260600Z 35002KT 15SM SKC 12/06 A2993 RMK SLP135=

CYXU;2005-05-26 07:00;METAR CYXU 260700Z 01003KT 15SM SKC 10/06 A2993 RMK SLP134=

CYXU;2005-05-26 08:00;METAR CYXU 260800Z 32003KT 15SM SKC 09/05 A2992 RMK SLP132=

CYXU;2005-05-26 09:00;METAR CYXU 260900Z 00000KT 15SM SKC 08/06 A2992 RMK SLP132=

CYXU;2005-05-26 10:00;METAR CYXU 261000Z 34004KT 15SM FEW280 08/05 A2992 RMK CI1 SLP132=

CYXU;2005-05-26 11:00;METAR CYXU 261100Z 33002KT 15SM FEW280 09/07 A2992 RMK CI1 SLP133=

CYXU;2005-05-26 12:00;METAR CYXU 261200Z 00000KT 15SM FEW280 15/08 A2992 RMK CI1 SLP131=

CYXU;2005-05-26 13:00;METAR CYXU 261300Z 35003KT 15SM FEW280 19/07 A2992 RMK CI1 SLP130=

CYXU;2005-05-26 14:00;METAR CYXU 261400Z 32003KT 15SM FEW280 21/06 A2990 RMK CI1 SLP125=

CYXU;2005-05-26 15:00;METAR CYXU 261500Z 30004KT 15SM FEW280 22/06 A2990 RMK CI1 SLP125=

CYXU;2005-05-26 16:00;METAR CYXU 261600Z 35005KT 15SM BKN280 23/06 A2989 RMK CI1 SLP121=

CYXU;2005-05-26 17:00;METAR CYXU 261700Z 35003KT 15SM BKN280 23/06 A2988 RMK CI1 SLP117=

CYXU;2005-05-26 18:00;METAR CYXU 261800Z 22003KT 15SM FEW050 FEW180 BKN280 24/07 A2986 RMK CU1AC1CI1 SLP111=

CYXU;2005-05-26 19:00;METAR CYXU 261900Z 27002KT 15SM FEW066 FEW180 BKN280 24/07 A2985 RMK CF1CI1CS6 SLP107=

CYXU;2005-05-26 20:00;METAR CYXU 262000Z 31007KT 15SM FEW068 SCT180 BKN280 24/07 A2984 RMK CF1CI0CS4 SLP103=

CYXU;2005-05-26 21:00;METAR CYXU 262100Z 31006KT 15SM FEW075 SCT180 SCT280 25/05 A2983 RMK CF1CI1CS1 SLP101=

CYXU;2005-05-26 22:00;METAR CYXU 262200Z 31007KT 15SM FEW080 FEW180 FEW280 24/06 A2982 RMK AC1CI1CS1 SLP098=

CYXU;2005-05-26 23:00;METAR CYXU 262300Z 32004KT 15SM BKN070 BKN140 BKN180 22/11 A2982 RMK AC5AC1CI1 SLP097=

CYXU;2005-05-27 00:00;METAR CYXU 270000Z 32003KT 15SM BKN065 BKN110 22/09 A2982 RMK SC5AC2 SLP096=

CYXU;2005-05-27 01:00;METAR CYXU 270100Z 29004KT 15SM FEW060 SCT100 OVC200 20/09 A2983 RMK SC2AC2CS4 SLP098=

CYXU;2005-05-27 02:00;METAR CYXU 270200Z 27003KT 15SM SCT100 BKN150 19/09 A2983 RMK AC3AC4 SLP100=

CYXU;2005-05-27 03:00;METAR CYXU 270300Z 29004KT 15SM FEW100 BKN150 18/09 A2983 RMK AC2AC5 SLP100=

CYXU;2005-05-27 04:00;METAR CYXU 270400Z 31006KT 15SM OVC070 17/08 A2983 RMK AC8 SLP099=

CYXU;2005-05-27 05:00;METAR CYXU 270500Z 33005KT 15SM OVC096 17/08 A2983 RMK AC8 SLP100=

CYXU;2005-05-27 06:00;METAR CYXU 270600Z 30004KT 15SM OVC100 16/09 A2983 RMK AC8 SLP097=

CYXU;2005-05-27 07:00;METAR CYXU 270700Z 30004KT 15SM BKN072 OVC100 15/09 A2982 RMK AC5AC3 SLP095=

CYXU;2005-05-27 09:00;METAR CYXU 270900Z 28003KT 15SM BKN050 13/10 A2982 RMK SC6 SLP096=

CYXU;2005-05-27 10:00;METAR CYXU 271000Z 29003KT 8SM SCT058 13/10 A2983 RMK SC3 SLP099=

CYXU;2005-05-27 11:00;METAR CYXU 271100Z 30003KT 5SM BR FEW058 13/10 A2985 RMK SC1 SLP105=

CYXU;2005-05-27 13:00;METAR CYXU 271300Z 03003KT 10SM FEW060 17/11 A2986 RMK SC1 SLP110=

CYXU;2005-05-27 14:00;METAR CYXU 271400Z 31003KT 15SM FEW035 18/11 A2985 RMK SC1 SLP108=

CYXU;2005-05-27 15:00;METAR CYXU 271500Z 29004KT 15SM FEW048 20/07 A2984 RMK SC2 SLP104=

CYXU;2005-05-27 16:00;METAR CYXU 271600Z 27010KT 15SM BKN050 20/07 A2984 RMK CU6 TCU ASOCTD SLP102=

CYXU;2005-05-27 17:00;METAR CYXU 271700Z 23010G15KT 15SM BKN060 21/07 A2983 RMK CU6 TCU ASOCTD CB DSTNT W SLP100=

CYXU;2005-05-27 18:00;METAR CYXU 271800Z 24012G17KT 15SM SCT060TCU BKN230 22/07 A2982 RMK TCU4CI1 CB W SLP097=

CYXU;2005-05-27 18:40;SPECI CYXU 271840Z 21012G18KT 15SM -TSRA BKN065TCU BKN230 RMK TCU5CI0 CB SW-NW MVG NE=

CYXU;2005-05-27 19:00;METAR CYXU 271900Z 20015KT 15SM -TSRA BKN065TCU BKN150 18/09 A2982 RMK TCU5AC1 CB ASOCTD N CONTINUOUS LTNGCG SLP095=

CYXU;2005-05-27 20:00;METAR CYXU 272000Z 06003KT 12SM -TSRA BKN055CB BKN150 18/09 A2981 RMK CB5AC1 CB OVERHEAD LTGCC SLP094=

CYXU;2005-05-27 20:06;SPECI CYXU 272006Z 36005KT 10SM TSRA BKN050CB RMK CB6 CB OVERHEAD LTGCCCG=

CYXU;2005-05-27 20:12;SPECI CYXU 272012Z 36005KT 10SM TSRA BKN050CB RMK CB6 CB OVERHEAD LTGCCCG REPORTS OF HAIL 5 WEST=

CYXU;2005-05-27 20:24;SPECI CYXU 272024Z 05010G20KT 10SM +TSRA BKN050CB RMK CB6 CB OVERHEAD LTGCCCG REPORTS OF HAIL TO THE WEST=

CYXU;2005-05-27 20:33;SPECI CYXU 272033Z 05010KT 10SM +TSRA BKN050CB RMK CB6 LTGCCCG /R10/=

CYXU;2005-05-27 20:54;SPECI CYXU 272054Z 13010KT 12SM -TSRA BKN055CB BKN120 RMK CB6AC1 RERA+=

CYXU;2005-05-27 21:00;METAR CYXU 272100Z 13008KT 12SM -TSRA BKN055CB 14/09 A2982 RMK CB6 LTGCCCG RERA+ /R11/ SLP098=

CYXU;2005-05-27 21:04;SPECI CYXU 272104Z 17007KT 10SM +TSRA FEW015 BKN060CB RMK SF1CB6=

CYXU;2005-05-27 21:32;SPECI CYXU 272132Z 27005KT 8SM TSRA FEW015 BKN060TCU RMK SF1TCU6 CB ASOCTD LTGCC VSBY LWR NORTH=

CYXU;2005-05-27 21:46;SPECI CYXU 272146Z 00000KT 10SM -TSRA BKN060TCU RMK TCU6 CB EAST=

CYXU;2005-05-27 22:00;METAR CYXU 272200Z 04002KT 12SM VCSH FEW040 BKN070TCU 14/11 A2983 RMK CU2TCU6 CB ASOCTD EAST RETS RERA+ SLP102=

CYXU;2005-05-27 23:00;METAR CYXU 272300Z 09008KT 15SM BKN070 BKN120 15/11 A2981 RMK AC5ACC1 SLP095=

CYXU;2005-05-27 23:34;SPECI CYXU 272334Z 07005KT 15SM VCSH BKN075TCU BKN150 RMK TCU5ACC2 CB WEST MOVING EAST=

CYXU;2005-05-27 23:46;SPECI CYXU 272346Z 07005KT 15SM -TSRA BKN075CB BKN150 RMK CB5AC2=

CYXU;2005-05-28 00:00;METAR CYXU 280000Z 00000KT 15SM -TSRA BKN070CB OVC150 15/11 A2982 RMK CB5AC3 SLP098=

CYXU;2005-05-28 00:55;SPECI CYXU 280055Z 04002KT 12SM TS VCSH BKN076CB BKN150 RMK CB5AC2=

CYXU;2005-05-28 01:00;METAR CYXU 280100Z 34004KT 12SM TS VCSH BKN067CB BKN150 14/10 A2982 RMK CB5AC2 LTGCCCGIC VIS LWR N SLP099=

CYXU;2005-05-28 01:11;SPECI CYXU 280111Z 31011G17KT 12SM -TSRA BKN065CB BKN150 RMK CB5AC2 LTGCCCG VIS N QUAD 5=

CYXU;2005-05-28 01:45;SPECI CYXU 280145Z 25006KT 12SM -SHRA BKN065 BKN110 RETS RMK SC6AC2 TCU ASCTD=

CYXU;2005-05-28 02:00;METAR CYXU 280200Z 20006KT 12SM -SHRA BKN062 BKN110 13/09 A2984 RETS RMK SC6AC2 SLP104=

CYXU;2005-05-28 02:06;SPECI CYXU 280206Z 20007KT 12SM -TSRA BKN062 BKN110 RMK SC6AC2 CB ASCTD=

CYXU;2005-05-28 02:48;SPECI CYXU 280248Z 00000KT 12SM BKN070 RETS RMK AC6=

CYXU;2005-05-28 03:00;METAR CYXU 280300Z 00000KT 15SM BKN071 12/10 A2984 RETS RMK AC5 SLP106=

CYXU;2005-05-28 04:00;METAR CYXU 280400Z 23002KT 15SM FEW070 11/09 A2983 RMK AC2 SLP102=

CYXU;2005-05-28 05:00;METAR CYXU 280500Z 24002KT 3SM BR FEW070 10/10 A2983 RMK AC2 SLP101=

CYXU;2005-05-28 06:00;METAR CYXU 280600Z 00000KT 3SM BR SKC 09/08 A2981 RMK SLP095=

CYXU;2005-05-28 06:18;SPECI CYXU 280618Z 00000KT 1 1/2SM BR SKC=

CYXU;2005-05-28 07:00;METAR CYXU 280700Z 00000KT 1 1/2SM R15/1400FT/N BR SKC 08/08 A2980 RMK FG2 SLP093=

CYXU;2005-05-28 07:14;SPECI CYXU 280714Z 00000KT 1SM R15/1400V2400FT/U BR SKC RMK FG2=

CYXU;2005-05-28 08:00;METAR CYXU 280800Z 00000KT 1SM R15/1600V2200FT/D BR SKC 08/07 A2980 RMK FG1 SLP093=

CYXU;2005-05-28 09:00;METAR CYXU 280900Z 12002KT 1SM R15/P6000FT/D BR SCT200 08/07 A2979 RMK CI3 SLP091=

CYXU;2005-05-28 09:50;SPECI CYXU 280950Z 17002KT 2 1/2SM BR BKN200 RMK CI6=

CYXU;2005-05-28 10:00;METAR CYXU 281000Z 00000KT 6SM R15/4500VP6000FT/U BR MIFG FEW080 OVC200 08/07 A2980 RMK AC1CI6 SLP096=

CYXU;2005-05-28 11:00;METAR CYXU 281100Z 26004KT 6SM BR FEW080 OVC130 10/09 A2982 RMK AC2AC6 SLP100=

CYXU;2005-05-28 12:00;METAR CYXU 281200Z 26006KT 8SM FEW080 OVC130 11/08 A2982 RMK AC1AC7 SLP098=

CYXU;2005-05-28 13:00;METAR CYXU 281300Z 27004KT 10SM FEW080 BKN110 12/09 A2982 RMK AC1AC6 SLP099=

CYXU;2005-05-28 14:00;METAR CYXU 281400Z 22008KT 12SM BKN080 13/09 A2983 RMK AC7 SLP104=

CYXU;2005-05-28 15:00;METAR CYXU 281500Z 21007KT 15SM FEW020 FEW080 15/10 A2983 RMK CU1AC2 TCU ASOCTD SLP101=

CYXU;2005-05-28 16:00;METAR CYXU 281600Z 21003KT 15SM BKN032TCU BKN090 16/10 A2982 RMK TCU5AC1 SHWRS S-W-NW SLP098=

CYXU;2005-05-28 16:32;SPECI CYXU 281632Z 21007KT 12SM -SHRA BKN032TCU RMK TCU7=

CYXU;2005-05-28 16:41;SPECI CYXU 281641Z 20010KT 10SM -TSRA BKN035TCU RMK TCU7 CB EMBD=

CYXU;2005-05-28 17:00;METAR CYXU 281700Z 19011KT 8SM -TSRA BKN037TCU 14/10 A2981 RMK TCU7 CB LTGCC E SLP097=

CYXU;2005-05-28 17:20;SPECI CYXU 281720Z 18011KT 12SM BKN035TCU BKN100 RMK TCU6AC2 SHWRS N-E QUAD=

CYXU;2005-05-28 18:00;METAR CYXU 281800Z 16010KT 12SM TS BKN034TCU BKN100 15/13 A2979 RMK TCU6AC2 CB SHWRS NW QUAD SLP091=

CYXU;2005-05-28 18:41;SPECI CYXU 281841Z 03009G16KT 12SM -TSRA BKN027CB BKN100 RMK CB6AC2 LTGCG HVY SHWRS N-E QUAD=

CYXU;2005-05-28 19:00;METAR CYXU 281900Z 04005KT 12SM -TSRA FEW020TCU BKN030CB BKN100 13/09 A2979 RMK TCU2CB4AC1 LTGCCCG S-E SLP089=

CYXU;2005-05-28 19:31;SPECI CYXU 281931Z 09010KT 15SM BKN025TCU BKN120 RMK TCU5AC1 RETS CB NE-SW=

CYXU;2005-05-28 20:00;METAR CYXU 282000Z 09010KT 12SM -SHRA BKN035TCU BKN100 13/09 A2980 RMK TCU6ACC1 CB NE-SW LTGCG EAST SLP093=

CYXU;2005-05-28 21:00;METAR CYXU 282100Z 11006KT 12SM -SHRA BKN040TCU BKN120 12/09 A2980 RMK TCU6ACC2 CB ASOCTD E-SE SLP095=

CYXU;2005-05-28 21:38;SPECI CYXU 282138Z 11006KT 15SM SCT050TCU BKN120 RMK TCU4ACC2=

CYXU;2005-05-28 22:00;METAR CYXU 282200Z 13010KT 15SM SCT050TCU BKN120 14/10 A2980 RMK TCU4AC2 SLP093=

CYXU;2005-05-28 23:00;METAR CYXU 282300Z 11012KT 15SM TS VCSH BKN055TCU OVC120 14/09 A2980 RMK TCU6AC2 CB WEST MOVING EAST LTGCG SLP093=

CYXU;2005-05-28 23:24;SPECI CYXU 282324Z 12008KT 12SM -TSRA BKN045CB OVC120 RMK CB6AC2 LTGCCCG NORTH WEST SOUTH=

CYXU;2005-05-28 23:29;SPECI CYXU 282329Z 12006KT 10SM TSRA BKN042CB OVC120 RMK CB6AC2 LTGCCCG NORTH WEST SOUTH=

CYXU;2005-05-28 23:38;SPECI CYXU 282338Z 29025G33KT 8SM TSRA BKN025CB OVC120 RMK CB7AC1 LTGCCCG ALQDS VSBY LWR WEST=

CYXU;2005-05-28 23:43;SPECI CYXU 282343Z 31023G33KT 2SM TSRA SQ OVC020CB RMK CB8=

CYXU;2005-05-28 23:45;SPECI CYXU 282345Z 31023G33KT 2SM +TSRA SQ OVC020CB RMK CB8=

CYXU;2005-05-28 23:46;SPECI CYXU 282346Z 31023G33KT 2SM +TSRA SQ OVC020CB RMK CB8=

CYXU;2005-05-29 00:00;METAR CYXU 290000Z 03015KT 3SM TSRA BKN023CB 10/08 A2983 RMK CB7 CLEARING FM WEST LTGCCCG N-E-S SLP105=

CYXU;2005-05-29 00:14;SPECI CYXU 290014Z 04010KT 4SM -TSRA SCT020CB BKN060 RMK CB4CU3 LTGCG NE-E-S CB MOVING EAST CLEARING TO THE WEST=

CYXU;2005-05-29 00:32;SPECI CYXU 290032Z 05006KT 12SM FEW020 SCT060CB BKN110 RETSRA RMK SF1CB3AC1=

CYXU;2005-05-29 01:00;METAR CYXU 290100Z 11002KT 15SM SCT060TCU SCT110 10/09 A2983 RETSRA RMK TCU3AC1 SLP105=

CYXU;2005-05-29 02:00;METAR CYXU 290200Z 21004KT 15SM SCT090 09/08 A2984 RMK AC3 SLP108=

CYXU;2005-05-29 03:00;METAR CYXU 290300Z 22002KT 15SM SCT090 09/08 A2985 RMK AC4 SLP109=

CYXU;2005-05-29 04:00;METAR CYXU 290400Z 18002KT 6SM BR SCT110 08/08 A2985 RMK AC4 SLP109=

CYXU;2005-05-29 04:34;SPECI CYXU 290434Z 00000KT 1 1/2SM R15/3000VP6000FT/U BR FEW110 RMK AC2=

CYXU;2005-05-29 05:00;METAR CYXU 290500Z 00000KT 1SM R15/P6000FT/D BR FEW110 08/07 A2985 RMK AC2 SLP111=

CYXU;2005-05-29 05:23;SPECI CYXU 290523Z 00000KT 3/4SM R15/P6000FT/U BR FEW110 RMK FG2AC1=

CYXU;2005-05-29 06:00;METAR CYXU 290600Z 27002KT 1SM R15/1400V2400FT/N BR SKC 07/06 A2986 RMK FG2 SLP116=

CYXU;2005-05-29 06:44;SPECI CYXU 290644Z 27004KT 8SM FEW100 RMK AC2=

CYXU;2005-05-29 07:00;METAR CYXU 290700Z 29003KT 8SM FEW100 08/07 A2986 RMK AC2 SLP116=

CYXU;2005-05-29 08:00;METAR CYXU 290800Z 31002KT 8SM FEW100 08/08 A2986 RMK AC2 SLP115=

CYXU;2005-05-29 09:00;METAR CYXU 290900Z 32002KT 3/4SM R15/3000VP6000FT/U BR FEW100 07/07 A2986 RMK FG2AC1 SLP117=

CYXU;2005-05-29 09:38;SPECI CYXU 290938Z 26002KT 8SM R15/3000VP6000FT/N MIFG FEW100 RMK AC2=

CYXU;2005-05-29 10:00;METAR CYXU 291000Z 00000KT 3/4SM R15/P6000FT/D BR SCT100 07/06 A2988 RMK FG2AC2 SLP122=

CYXU;2005-05-29 10:36;SPECI CYXU 291036Z 00000KT 8SM SCT063 RMK SC4 F BNK OVR RWY 09/27=

CYXU;2005-05-29 11:00;METAR CYXU 291100Z 00000KT 6SM BR FEW063 09/09 A2989 RMK SC2 VIS E 21/2 SLP126=

CYXU;2005-05-29 12:00;METAR CYXU 291200Z 30002KT 10SM FEW060 11/10 A2990 RMK SC1 SLP129=

CYXU;2005-05-29 13:00;METAR CYXU 291300Z 31007KT 12SM FEW015 FEW060 13/10 A2993 RMK CF1SC2 SLP139=

CYXU;2005-05-29 14:00;METAR CYXU 291400Z 29004KT 15SM FEW015 FEW060 14/10 A2994 RMK CU1SC1 SLP141=

CYXU;2005-05-29 15:00;METAR CYXU 291500Z 32006KT 15SM FEW025 16/10 A2994 RMK CU2 SLP140=

CYXU;2005-05-29 16:00;METAR CYXU 291600Z 30008KT 15SM -SHRA BKN033TCU 16/08 A2993 RMK TCU6 SLP138=

CYXU;2005-05-29 16:21;SPECI CYXU 291621Z 29007KT 15SM BKN040TCU RMK TCU5 SHWRS S=

CYXU;2005-05-29 17:00;METAR CYXU 291700Z 30010KT 15SM BKN045TCU 18/08 A2993 RMK TCU5 SHWRS SE SLP137=

CYXU;2005-05-29 18:00;METAR CYXU 291800Z 28013KT 15SM SCT040 17/08 A2992 RMK CU4 TCU ASOCTD SLP135=

CYXU;2005-05-29 19:00;METAR CYXU 291900Z 29007G15KT 15SM FEW044 18/08 A2992 RMK CU2 SLP134=

CYXU;2005-05-29 21:00;METAR CYXU 292100Z 33006KT 15SM FEW050TCU 19/07 A2992 RMK TCU2 CB DIST E SLP133=

CYXU;2005-05-29 22:00;METAR CYXU 292200Z 30008KT 15SM FEW050TCU FEW250 19/06 A2992 RMK TCU1CI1 SLP133=

CYXU;2005-05-29 23:00;METAR CYXU 292300Z 30005KT 15SM FEW055TCU SCT240 18/06 A2992 RMK TCU1CI3 TR TCU SLP134=

CYXU;2005-05-30 00:00;METAR CYXU 300000Z 31004KT 15SM FEW050TCU BKN220 17/07 A2993 RMK TCU1CI4 TR TCU CB DIST W SLP136=

CYXU;2005-05-30 01:00;METAR CYXU 300100Z 33002KT 15SM FEW050 FEW180 BKN200 16/07 A2992 RMK CU1AC1CI5 SLP134=

CYXU;2005-05-30 03:00;METAR CYXU 300300Z 26007KT 15SM SCT100 OVC150 15/08 A2994 RMK AC4AS4 SLP140=

CYXU;2005-05-30 04:00;METAR CYXU 300400Z 27004KT 15SM BKN086 14/09 A2993 RMK AC5 SLP137=

CYXU;2005-05-30 05:00;METAR CYXU 300500Z 00000KT 15SM BKN070 BKN120 13/09 A2993 RMK AC5AC2 SLP136=

CYXU;2005-05-30 06:00;METAR CYXU 300600Z 26004KT 15SM OVC075 13/09 A2993 RMK AC8 SLP134=

CYXU;2005-05-30 07:00;METAR CYXU 300700Z 00000KT 15SM BKN075 OVC110 13/09 A2993 RMK AC6AC2 SLP135=

CYXU;2005-05-30 08:00;METAR CYXU 300800Z 27004KT 15SM BKN075 OVC110 12/09 A2993 RMK AC5AC3 SLP137=

CYXU;2005-05-30 09:00;METAR CYXU 300900Z 27003KT 15SM FEW075 SCT110 12/08 A2995 RMK AC1AC2 SLP141=

CYXU;2005-05-30 10:00;METAR CYXU 301000Z 29003KT 15SM FEW075 FEW110 11/08 A2995 RMK AC1AC2 SLP142=

CYXU;2005-05-30 11:00;METAR CYXU 301100Z 00000KT 15SM FEW075 FEW200 12/09 A2996 RMK AC1CI1 SLP145=

CYXU;2005-05-30 13:00;METAR CYXU 301300Z 27003KT 15SM FEW075 16/09 A2997 RMK AC1 SLP150=

CYXU;2005-05-30 14:00;METAR CYXU 301400Z 29004KT 15SM FEW100 FEW200 17/10 A2998 RMK AC2CI1 SLP152=

CYXU;2005-05-30 15:00;METAR CYXU 301500Z 29007KT 15SM FEW040 FEW200 19/10 A2997 RMK CU1CI1 SLP149=

CYXU;2005-05-30 16:00;METAR CYXU 301600Z 29006KT 15SM SCT040 20/10 A2997 RMK CU3 SLP147=

CYXU;2005-05-30 17:00;METAR CYXU 301700Z 29009KT 15SM BKN040 20/09 A2996 RMK CU6 SLP146=

CYXU;2005-05-30 18:00;METAR CYXU 301800Z 30009KT 15SM FEW040 FEW220 20/08 A2996 RMK CU2CI1 SLP144=

CYXU;2005-05-30 19:00;METAR CYXU 301900Z 30012KT 15SM SCT040 21/07 A2996 RMK CU3 TCU ASOCTD SLP144=

CYXU;2005-05-30 20:00;METAR CYXU 302000Z 33010KT 15SM SCT040 21/08 A2995 RMK CU3 SLP143=

CYXU;2005-05-30 21:00;METAR CYXU 302100Z 31008KT 15SM FEW040 SCT250 21/07 A2996 RMK CU2CI1 SLP145=

CYXU;2005-05-30 22:00;METAR CYXU 302200Z 32008KT 15SM FEW050 SCT250 21/07 A2997 RMK CU2CI2 SLP148=

CYXU;2005-05-30 23:00;METAR CYXU 302300Z 33009KT 15SM FEW050 FEW250 20/06 A2997 RMK CU1CI2 SLP147=

CYXU;2005-05-31 00:00;METAR CYXU 310000Z 33009KT 15SM FEW050 FEW250 19/06 A2998 RMK CU1CI1 SLP152=

CYXU;2005-05-31 01:00;METAR CYXU 310100Z 34004KT 15SM FEW250 17/06 A2998 RMK CI1 SLP152=

CYXU;2005-05-31 02:00;METAR CYXU 310200Z 32003KT 15SM FEW250 15/06 A3000 RMK CI1 SLP159=

CYXU;2005-05-31 03:00;METAR CYXU 310300Z 31003KT 15SM FEW250 14/07 A3001 RMK CI1 SLP161=

CYXU;2005-05-31 04:00;METAR CYXU 310400Z 30004KT 15SM SKC 11/07 A3001 RMK SLP162=

CYXU;2005-05-31 05:00;METAR CYXU 310500Z 31004KT 15SM SKC 12/07 A3001 RMK SLP163=

CYXU;2005-05-31 06:00;METAR CYXU 310600Z 32006KT 15SM SCT057 12/08 A3003 RMK SC4 SLP168=

CYXU;2005-05-31 08:00;METAR CYXU 310800Z 31002KT 15SM BKN040 12/08 A3004 RMK SC7 SLP172=

CYXU;2005-05-31 09:00;METAR CYXU 310900Z 31005KT 15SM BKN046 12/09 A3005 RMK SC7 SLP175=

CYXU;2005-05-31 10:00;METAR CYXU 311000Z 28004KT 15SM BKN044 12/10 A3005 RMK SC7 SLP177=

CYXU;2005-05-31 11:00;METAR CYXU 311100Z 27003KT 15SM BKN043 13/10 A3006 RMK SC6 SLP180=

CYXU;2005-05-31 12:00;METAR CYXU 311200Z 34005KT 15SM FEW040 14/10 A3008 RMK SC2 SLP187=

CYXU;2005-05-31 13:00;METAR CYXU 311300Z 33007KT 15SM FEW100 16/11 A3009 RMK AC1 SLP190=

CYXU;2005-05-31 14:00;METAR CYXU 311400Z 34009KT 15SM FEW050 18/10 A3011 RMK SC1 SLP195=

CYXU;2005-05-31 15:00;METAR CYXU 311500Z 36008KT 15SM FEW035 19/12 A3010 RMK CU1 SLP194=

CYXU;2005-05-31 16:00;METAR CYXU 311600Z 31004KT 15SM FEW033 20/12 A3011 RMK CU2 SLP196=

CYXU;2005-05-31 17:00;METAR CYXU 311700Z 33007KT 15SM SCT040 20/11 A3010 RMK CU4 SLP193=

CYXU;2005-05-31 18:00;METAR CYXU 311800Z 31006KT 15SM SCT043 21/12 A3009 RMK CU4 SLP190=

CYXU;2005-05-31 19:00;METAR CYXU 311900Z 02003KT 15SM BKN044 22/12 A3008 RMK CU6 SLP186=

CYXU;2005-05-31 20:00;METAR CYXU 312000Z 36005KT 15SM BKN044 23/12 A3008 RMK CU6 SLP185=

CYXU;2005-05-31 21:00;METAR CYXU 312100Z 30004KT 15SM SCT045 22/13 A3008 RMK CU4 TCU MOVED S SLP185=

CYXU;2005-05-31 22:00;METAR CYXU 312200Z 19003KT 15SM BKN045TCU 22/12 A3007 RMK TCU6 SLP181=

CYXU;2005-05-31 23:00;METAR CYXU 312300Z 31007KT 15SM BKN045 22/12 A3008 RMK CU6 SLP185=

CYXU;2005-06-01 00:00;METAR CYXU 010000Z 31005KT 15SM BKN045 20/11 A3009 RMK SC6 SLP190=

CYXU;2005-06-01 01:00;METAR CYXU 010100Z 31003KT 15SM BKN045 19/11 A3009 RMK SC6 SLP190=

CYXU;2005-06-01 02:00;METAR CYXU 010200Z 27003KT 15SM FEW045 17/11 A3011 RMK SC1 SLP196=

CYXU;2005-06-01 03:00;METAR CYXU 010300Z 00000KT 15SM SKC 15/11 A3013 RMK SLP202=

CYXU;2005-06-01 04:00;METAR CYXU 010400Z 29002KT 15SM SKC 14/10 A3013 RMK SLP202=

CYXU;2005-06-01 05:00;METAR CYXU 010500Z 09002KT 15SM SKC 13/10 A3013 RMK SLP201=

CYXU;2005-06-01 06:00;METAR CYXU 010600Z 00000KT 15SM SKC 12/10 A3012 RMK SLP201=

CYXU;2005-06-01 08:00;METAR CYXU 010800Z 02002KT 15SM SKC 11/09 A3011 RMK SLP197=

CYXU;2005-06-01 09:00;METAR CYXU 010900Z 07003KT 12SM MIFG SKC 11/09 A3012 RMK SLP200=

CYXU;2005-06-01 10:00;METAR CYXU 011000Z 06002KT 6SM BR FEW260 10/09 A3013 RMK CI1 SLP205=

CYXU;2005-06-01 11:00;METAR CYXU 011100Z 10005KT 5SM BR FEW260 12/10 A3016 RMK CI1 SLP212=

CYXU;2005-06-01 12:00;METAR CYXU 011200Z 09003KT 10SM FEW260 14/11 A3017 RMK CI1 SLP215=

CYXU;2005-06-01 13:00;METAR CYXU 011300Z 14004KT 10SM FEW260 16/11 A3018 RMK CI1 SLP219=

CYXU;2005-06-01 14:00;METAR CYXU 011400Z 12003KT 12SM FEW260 19/12 A3017 RMK CI1 SLP217=

CYXU;2005-06-01 15:00;METAR CYXU 011500Z 14003KT 15SM FEW032 FEW260 21/13 A3016 RMK CU1CI1 SLP213=

CYXU;2005-06-01 16:00;METAR CYXU 011600Z 13003KT 15SM FEW040 FEW260 22/12 A3016 RMK CU1CI1 SLP211=

CYXU;2005-06-01 17:00;METAR CYXU 011700Z 11002KT 15SM FEW045 FEW260 23/12 A3015 RMK CU2CI1 SLP209=

CYXU;2005-06-01 18:00;METAR CYXU 011800Z 12005KT 15SM FEW045 FEW260 23/10 A3014 RMK CU2CI1 SLP205=

CYXU;2005-06-01 19:00;METAR CYXU 011900Z 12006KT 15SM FEW045 FEW260 24/11 A3012 RMK CU2CI1 CI TR SLP199=

CYXU;2005-06-01 20:00;METAR CYXU 012000Z 10004KT 15SM FEW055 BKN260 24/13 A3011 RMK CU2CI1 SLP196=

CYXU;2005-06-01 21:00;METAR CYXU 012100Z 09007KT 15SM FEW055 BKN260 24/10 A3010 RMK CU1CI2 SLP193=

CYXU;2005-06-01 22:00;METAR CYXU 012200Z 12004KT 15SM FEW055 BKN240 24/10 A3010 RMK CU1CI2 SLP192=

CYXU;2005-06-01 23:00;METAR CYXU 012300Z 10006KT 15SM FEW055 BKN240 24/08 A3009 RMK CU1CI3 CU TR SLP190=

CYXU;2005-06-02 00:00;METAR CYXU 020000Z 15005KT 15SM BKN240 22/09 A3010 RMK CI4 SLP193=

CYXU;2005-06-02 01:00;METAR CYXU 020100Z 14004KT 15SM BKN240 20/09 A3012 RMK CI3 SLP197=

CYXU;2005-06-02 02:00;METAR CYXU 020200Z 11003KT 15SM BKN240 19/09 A3012 RMK CI2 SLP199=

CYXU;2005-06-02 03:00;METAR CYXU 020300Z 07003KT 15SM FEW240 17/09 A3012 RMK CI1 SLP199=

CYXU;2005-06-02 04:00;METAR CYXU 020400Z 08006KT 15SM FEW240 18/11 A3012 RMK CI1 SLP198=

CYXU;2005-06-02 05:00;METAR CYXU 020500Z 07005KT 15SM FEW240 17/11 A3012 RMK CI1 SLP198=

CYXU;2005-06-02 06:00;METAR CYXU 020600Z 08003KT 15SM SKC 16/10 A3012 RMK SLP197=

CYXU;2005-06-02 07:00;METAR CYXU 020700Z 08006KT 15SM SKC 16/09 A3011 RMK SLP196=

CYXU;2005-06-02 08:00;METAR CYXU 020800Z 09007KT 15SM SKC 15/10 A3011 RMK SLP194=

CYXU;2005-06-02 09:00;METAR CYXU 020900Z 09007KT 15SM FEW250 14/10 A3011 RMK CI1 SLP196=

CYXU;2005-06-02 10:00;METAR CYXU 021000Z 09004KT 15SM BKN250 14/10 A3013 RMK CI2 SLP200=

CYXU;2005-06-02 11:00;METAR CYXU 021100Z 08005KT 15SM BKN250 15/10 A3014 RMK CI2 SLP205=

CYXU;2005-06-02 12:00;METAR CYXU 021200Z 09006KT 15SM BKN210 17/11 A3015 RMK CI2 SLP207=

CYXU;2005-06-02 13:00;METAR CYXU 021300Z 13010KT 15SM BKN210 18/11 A3014 RMK CI2 SLP205=

CYXU;2005-06-02 14:00;METAR CYXU 021400Z 14009KT 15SM BKN200 21/11 A3013 RMK CI1 SLP201=

CYXU;2005-06-02 15:00;METAR CYXU 021500Z 16014KT 15SM BKN240 23/09 A3013 RMK CI1 SLP199=

CYXU;2005-06-02 16:00;METAR CYXU 021600Z 14015KT 15SM SCT240 24/09 A3012 RMK CI1 SLP197=

CYXU;2005-06-02 17:00;METAR CYXU 021700Z 14015G20KT 15SM SCT240 24/09 A3010 RMK CI1 SLP191=

CYXU;2005-06-02 18:00;METAR CYXU 021800Z 15013KT 15SM FEW050 SCT240 25/08 A3007 RMK CF1CI1 SLP181=

CYXU;2005-06-02 19:00;METAR CYXU 021900Z 14013G20KT 15SM FEW050 BKN240 25/10 A3005 RMK CU1CI2 CU TR SLP175=

CYXU;2005-06-02 20:00;METAR CYXU 022000Z 12012G19KT 15SM FEW050 BKN240 25/09 A3004 RMK CU1CI2 SLP172=

CYXU;2005-06-02 22:00;METAR CYXU 022200Z 15012KT 15SM BKN240 25/10 A3003 RMK CI2 SLP166=

CYXU;2005-06-02 23:00;METAR CYXU 022300Z 16011KT 15SM BKN240 24/09 A3003 RMK CI2 SLP167=

CYXU;2005-06-03 00:00;METAR CYXU 030000Z 16006KT 15SM BKN240 23/10 A3003 RMK CI2 SLP168=

CYXU;2005-06-03 02:00;METAR CYXU 030200Z 14003KT 15SM BKN210 20/11 A3004 RMK CC2 SLP172=

CYXU;2005-06-03 03:00;METAR CYXU 030300Z 11004KT 15SM BKN220 19/11 A3005 RMK CC2 SLP173=

CYXU;2005-06-03 04:00;METAR CYXU 030400Z 14004KT 15SM BKN220 19/11 A3005 RMK CC4 SLP173=

CYXU;2005-06-03 05:00;METAR CYXU 030500Z 13004KT 15SM OVC240 18/11 A3005 RMK CI5 SLP172=

CYXU;2005-06-03 06:00;METAR CYXU 030600Z 13004KT 15SM OVC200 18/11 A3003 RMK CI7 SLP168=

CYXU;2005-06-03 07:00;METAR CYXU 030700Z 11005KT 15SM OVC200 17/11 A3003 RMK CI8 SLP166=

CYXU;2005-06-03 08:00;METAR CYXU 030800Z 14005KT 15SM BKN180 17/10 A3002 RMK AC7 SLP164=

CYXU;2005-06-03 09:00;METAR CYXU 030900Z 14007KT 15SM SCT180 OVC230 17/10 A3002 RMK AC4CI4 SLP164=

CYXU;2005-06-03 10:00;METAR CYXU 031000Z 14009KT 15SM SCT110 OVC200 16/11 A3004 RMK AC4CI4 SLP170=

CYXU;2005-06-03 11:00;METAR CYXU 031100Z 14010KT 15SM FEW019 BKN037 OVC100 16/12 A3005 RMK SF2SC3AC2 SLP172=

CYXU;2005-06-03 12:00;METAR CYXU 031200Z 16008KT 15SM -RA BKN015 OVC100 15/13 A3005 RMK SC6AC2 SLP175=

CYXU;2005-06-03 12:36;SPECI CYXU 031236Z 12005KT 15SM -RA BKN013 OVC100 RMK SC6AC2 R- INTMT=

CYXU;2005-06-03 13:00;METAR CYXU 031300Z 13008KT 15SM -RA BKN012 OVC100 16/13 A3005 RMK SC6AC2 R- INTMT SLP174=

CYXU;2005-06-03 14:00;METAR CYXU 031400Z 13008KT 5SM -DZ BR OVC010 15/13 A3005 RMK SC8 SLP173=

CYXU;2005-06-03 14:06;SPECI CYXU 031406Z 13008KT 4SM -DZ BR OVC008 RMK SF8=

CYXU;2005-06-03 15:00;METAR CYXU 031500Z 12009KT 10SM -DZ OVC008 15/13 A3004 RMK SF8 SLP171=

CYXU;2005-06-03 15:18;SPECI CYXU 031518Z 14010KT 10SM -DZ OVC011 RMK SF8=

CYXU;2005-06-03 16:00;METAR CYXU 031600Z 13009KT 10SM -DZ OVC009 16/13 A3003 RMK SF8 SLP169=

CYXU;2005-06-03 16:11;SPECI CYXU 031611Z 14007KT 10SM -DZ SCT009 OVC019 RMK CF4SC4 PCPN VRY LGT=

CYXU;2005-06-03 16:27;SPECI CYXU 031627Z 14008KT 8SM -DZ OVC007 RMK SF8=

CYXU;2005-06-03 17:00;METAR CYXU 031700Z 13010G15KT 12SM FEW007 OVC011 17/14 A3001 RMK SF2SC6 SLP163=

CYXU;2005-06-03 18:00;METAR CYXU 031800Z 13009KT 12SM OVC011 17/14 A3000 RMK SC8 SLP160=

CYXU;2005-06-03 19:00;METAR CYXU 031900Z 14012KT 12SM BKN012 OVC022 17/14 A2997 RMK SC7SC1 SLP148=

CYXU;2005-06-03 20:00;METAR CYXU 032000Z 14006KT 12SM BKN014 OVC020 17/14 A2997 RMK SC7SC1 SLP147=

CYXU;2005-06-03 20:48;SPECI CYXU 032048Z 12007KT 12SM BKN017 OVC022 RMK SC6SC2=

CYXU;2005-06-03 21:00;METAR CYXU 032100Z 11006KT 15SM BKN017 OVC022 18/14 A2997 RMK SC7SC1 SLP147=

CYXU;2005-06-03 22:00;METAR CYXU 032200Z 10007KT 15SM BKN018 OVC025 18/14 A2996 RMK SC6SC2 SLP145=

CYXU;2005-06-03 23:00;METAR CYXU 032300Z 13005KT 15SM BKN020 OVC035 18/14 A2997 RMK SC6SC2 SLP147=

CYXU;2005-06-04 00:00;METAR CYXU 040000Z 11008KT 15SM BKN020 OVC025 18/14 A2995 RMK SC5SC3 SLP143=

CYXU;2005-06-04 01:00;METAR CYXU 040100Z 09004KT 15SM BKN020 OVC035 18/14 A2997 RMK SC6SC2 SLP147=

CYXU;2005-06-04 02:00;METAR CYXU 040200Z 09006KT 15SM SCT020 OVC038 17/14 A2996 RMK SC4SC4 SLP146=

CYXU;2005-06-04 03:00;METAR CYXU 040300Z 11006KT 10SM FEW020 OVC036 17/14 A2996 RMK SC2SC6 SLP146=

CYXU;2005-06-04 04:00;METAR CYXU 040400Z 13003KT 10SM OVC035 16/14 A2996 RMK SC8 SLP145=

CYXU;2005-06-04 05:00;METAR CYXU 040500Z 11004KT 10SM OVC032 16/14 A2996 RMK SC8 SLP145=

CYXU;2005-06-04 06:00;METAR CYXU 040600Z 09003KT 10SM SCT021 OVC030 17/14 A2995 RMK SC3SC5 SLP141=

CYXU;2005-06-04 07:00;METAR CYXU 040700Z 11004KT 10SM OVC028 16/14 A2993 RMK SC8 SLP137=

CYXU;2005-06-04 08:00;METAR CYXU 040800Z 11003KT 10SM OVC029 16/14 A2993 RMK SC8 SLP136=

CYXU;2005-06-04 09:00;METAR CYXU 040900Z 11003KT 10SM OVC030 16/14 A2994 RMK SC8 SLP137=

CYXU;2005-06-04 10:00;METAR CYXU 041000Z 12003KT 6SM BR OVC030 16/14 A2994 RMK SC8 SLP138=

CYXU;2005-06-04 11:00;METAR CYXU 041100Z 11004KT 8SM OVC031 16/14 A2994 RMK SC8 HZ SLP138=

CYXU;2005-06-04 12:00;METAR CYXU 041200Z 13004KT 8SM BKN035 17/15 A2996 RMK SC7 HZ SLP144=

CYXU;2005-06-04 13:00;METAR CYXU 041300Z 13003KT 8SM OVC035 18/15 A2997 RMK SC8 HZ SLP147=

CYXU;2005-06-04 14:00;METAR CYXU 041400Z 16003KT 8SM OVC035 19/16 A2997 RMK SC8 HZ SLP148=

CYXU;2005-06-04 15:00;METAR CYXU 041500Z 17002KT 8SM FEW016 OVC035 21/16 A2997 RMK CU2SC6 HZ SLP149=

CYXU;2005-06-04 16:00;METAR CYXU 041600Z 17004KT 8SM FEW020 OVC040 21/16 A2997 RMK CU2SC6 HZ SLP147=

CYXU;2005-06-04 17:00;METAR CYXU 041700Z 13005KT 8SM BKN024 BKN040 22/17 A2996 RMK CU5SC2 HZ SLP145=

CYXU;2005-06-04 18:00;METAR CYXU 041800Z 15004KT 10SM BKN026 OVC040 22/17 A2996 RMK CU5SC3 SLP143=

CYXU;2005-06-04 19:00;METAR CYXU 041900Z 17006KT 10SM BKN028 OVC040 23/17 A2995 RMK CU5SC2 SLP139=

CYXU;2005-06-04 20:00;METAR CYXU 042000Z 16009KT 12SM SCT030 24/17 A2993 RMK CU4 SLP133=

CYXU;2005-06-04 21:00;METAR CYXU 042100Z 21009KT 12SM FEW030 25/17 A2992 RMK CU2 SLP130=

CYXU;2005-06-04 22:00;METAR CYXU 042200Z 19011KT 12SM FEW030 SCT260 24/17 A2993 RMK CU2CI2 SLP134=

CYXU;2005-06-04 23:00;METAR CYXU 042300Z 20006KT 12SM FEW030 BKN060 OVC260 23/17 A2993 RMK CU1SC4CI2 TCU TPS N SLP134=

CYXU;2005-06-05 00:00;METAR CYXU 050000Z 18005KT 12SM FEW030TCU SCT060 BKN260 22/16 A2993 RMK TCU1SC2CI1 TCU E SLP132=

CYXU;2005-06-05 01:00;METAR CYXU 050100Z 11004KT 12SM FEW040 FEW110 SCT260 21/16 A2991 RMK SC1AC1CI1 SLP128=

CYXU;2005-06-05 02:00;METAR CYXU 050200Z 17003KT 10SM FEW040 FEW260 20/16 A2993 RMK SC1CI1 SLP135=

CYXU;2005-06-05 03:00;METAR CYXU 050300Z 13004KT 7SM FEW260 19/15 A2993 RMK CI1 SLP133=

CYXU;2005-06-05 04:00;METAR CYXU 050400Z 13004KT 7SM FEW260 18/15 A2993 RMK CI0 SLP132=

CYXU;2005-06-05 05:00;METAR CYXU 050500Z 13005KT 8SM FEW260 18/15 A2992 RMK CI2 SLP129=

CYXU;2005-06-05 06:00;METAR CYXU 050600Z 11005KT 6SM HZ FEW260 17/15 A2990 RMK CI2 SLP124=

CYXU;2005-06-05 07:00;METAR CYXU 050700Z 09003KT 6SM HZ BKN050 17/15 A2991 RMK SC7 SLP127=

CYXU;2005-06-05 08:00;METAR CYXU 050800Z 15003KT 6SM HZ BKN052 17/15 A2991 RMK SC6 SLP127=

CYXU;2005-06-05 09:00;METAR CYXU 050900Z 14003KT 6SM HZ FEW050 17/15 A2991 RMK SC2 SLP127=

CYXU;2005-06-05 10:00;METAR CYXU 051000Z 14002KT 4SM HZ FEW050 SCT240 17/15 A2994 RMK SC2CI1 SLP135=

CYXU;2005-06-05 11:00;METAR CYXU 051100Z 15002KT 4SM HZ FEW240 18/16 A2994 RMK CI1 SLP137=

CYXU;2005-06-05 12:00;METAR CYXU 051200Z 19005KT 4SM HZ SCT240 20/17 A2994 RMK CI2 SLP137=

CYXU;2005-06-05 12:53;SPECI CYXU 051253Z 19004KT 8SM SCT240 RMK CI1 HZ VIS 6 N QUAD=

CYXU;2005-06-05 13:00;METAR CYXU 051300Z 18003KT 8SM SCT240 23/18 A2995 RMK CI1 HZ VIS 6 N QUAD SLP140=

CYXU;2005-06-05 14:00;METAR CYXU 051400Z 22005KT 8SM FEW170 SCT240 25/19 A2995 RMK AS1CI1 HZ SLP139=

CYXU;2005-06-05 15:00;METAR CYXU 051500Z 20006KT 8SM FEW170 SCT240 27/19 A2994 RMK AS1CI1 HZ SLP135=

CYXU;2005-06-05 16:00;METAR CYXU 051600Z 21008G15KT 10SM FEW040 BKN240 27/18 A2994 RMK CF1CI1 SLP135=

CYXU;2005-06-05 17:00;METAR CYXU 051700Z 19012KT 15SM FEW040 BKN240 27/18 A2993 RMK CF1CI1 SLP130=

CYXU;2005-06-05 18:00;METAR CYXU 051800Z 18009KT 15SM BKN240 28/18 A2991 RMK CI2 SLP126=

CYXU;2005-06-05 19:00;METAR CYXU 051900Z 19014G19KT 15SM FEW040 BKN260 28/19 A2991 RMK CF1CI2 SLP124=

CYXU;2005-06-05 20:00;METAR CYXU 052000Z 18016KT 15SM BKN260 28/18 A2989 RMK CI2 SLP118=

CYXU;2005-06-05 21:00;METAR CYXU 052100Z 19014G20KT 15SM BKN260 28/18 A2988 RMK CI2 SLP113=

CYXU;2005-06-05 22:00;METAR CYXU 052200Z 19014G19KT 15SM BKN260 28/17 A2985 RMK CI2 SLP105=

CYXU;2005-06-05 23:00;METAR CYXU 052300Z 20011G16KT 15SM BKN260 28/17 A2985 RMK CI2 SLP105=

CYXU;2005-06-06 00:00;METAR CYXU 060000Z 18010KT 15SM FEW090 BKN260 27/18 A2986 RMK AC1CI2 SLP106=

CYXU;2005-06-06 01:00;METAR CYXU 060100Z 16008KT 15SM FEW070 SCT150 BKN260 25/17 A2984 RMK AC1AC2CI2 SLP100=

CYXU;2005-06-06 02:00;METAR CYXU 060200Z 15009KT 15SM SCT150 BKN260 24/16 A2984 RMK AC3CI2 SLP099=

CYXU;2005-06-06 03:00;METAR CYXU 060300Z 26018G28KT 15SM SCT040 BKN080 OVC260 24/17 A2990 RMK SC3AC2CI2 LTGIC CB EMBD W PRESRR SLP119=

CYXU;2005-06-06 03:07;SPECI CYXU 060307Z 30013G29KT 10SM -TSRA FEW020 BKN060 OVC260 RMK SC2SC4CI2 FQT LTGIC CB EMBDD=

CYXU;2005-06-06 03:49;SPECI CYXU 060349Z 26003KT 12SM FEW065 OVC120 RETS RMK SC2AC6 LTGIC=

CYXU;2005-06-06 04:00;METAR CYXU 060400Z 30003KT 12SM -SHRA FEW060 OVC120 20/17 A2988 RETS RMK SC2AC6 LTGIC E CB EMBD SLP113=

CYXU;2005-06-06 04:26;SPECI CYXU 060426Z 00000KT 12SM SCT090 OVC120 RMK AC4AC4=

CYXU;2005-06-06 05:00;METAR CYXU 060500Z 16006KT 12SM SCT080 OVC120 19/17 A2988 RMK AC3AC5 SLP114=

CYXU;2005-06-06 05:11;SPECI CYXU 060511Z 14009KT 12SM -SHRA OVC080 RMK AC8 TCU EMBDD=

CYXU;2005-06-06 05:39;SPECI CYXU 060539Z 21003KT 10SM -TSRA BKN043CB OVC080 RMK CB5AC3=

CYXU;2005-06-06 06:00;METAR CYXU 060600Z 18011KT 8SM -TSRA BKN040CB OVC080 19/17 A2988 RMK CB5AC3 SLP115=

CYXU;2005-06-06 06:02;SPECI CYXU 060602Z 20012KT 6SM +TSRA BKN040CB OVC080 RMK CB6AC2=

CYXU;2005-06-06 06:05;SPECI CYXU 060605Z 19015KT 6SM TSRA BKN040CB OVC080 RMK CB6AC2=

CYXU;2005-06-06 06:06;SPECI CYXU 060606Z 18014KT 6SM +TSRA BKN040CB OVC080 RMK CB6AC2=

CYXU;2005-06-06 06:25;SPECI CYXU 060625Z 16008KT 8SM -SHRA OVC040TCU RMK TCU8 RETS RERA=

CYXU;2005-06-06 07:00;METAR CYXU 060700Z 19009KT 10SM FEW060 BKN140 19/17 A2983 RMK SC2AC4 RETS RERA SLP099=

CYXU;2005-06-06 08:00;METAR CYXU 060800Z 17006KT 10SM FEW043 BKN075 18/16 A2983 RMK SC2AC3 SLP099=

CYXU;2005-06-06 09:00;METAR CYXU 060900Z 18006KT 10SM FEW060 SCT140 18/16 A2984 RMK SC1AC2 SLP100=

CYXU;2005-06-06 10:00;METAR CYXU 061000Z 20010KT 15SM FEW140 SCT240 19/15 A2985 RMK AC2CI1 CB TOPS DSNT S QUAD SLP103=

CYXU;2005-06-06 11:00;METAR CYXU 061100Z 19007KT 10SM FEW060 SCT240 19/16 A2984 RMK SC1CI1 TCU TOPS DSNT S SLP102=

CYXU;2005-06-06 12:00;METAR CYXU 061200Z 21007KT 10SM FEW060 SCT240 20/17 A2985 RMK SC1CI1 SLP103=

CYXU;2005-06-06 13:00;METAR CYXU 061300Z 23010KT 15SM FEW240 22/17 A2985 RMK CI1 SLP104=

CYXU;2005-06-06 14:00;METAR CYXU 061400Z 23009KT 15SM FEW040 FEW060 SCT240 24/18 A2986 RMK CF1SC1CI1 SLP105=

CYXU;2005-06-06 15:00;METAR CYXU 061500Z 25013KT 15SM FEW030 SCT240 25/18 A2985 RMK CU2CI1 SLP102=

CYXU;2005-06-06 16:00;METAR CYXU 061600Z 26012G19KT 15SM FEW045 SCT240 26/17 A2984 RMK CU2CI1 SLP100=

CYXU;2005-06-06 17:00;METAR CYXU 061700Z 26014G19KT 15SM SCT050 BKN240 26/17 A2983 RMK CU3CI1 CUMULUS MEDIOCRIS SLP098=

CYXU;2005-06-06 18:00;METAR CYXU 061800Z 25013G20KT 15SM SCT050 BKN240 27/17 A2983 RMK CU3CI1 SLP096=

CYXU;2005-06-06 19:00;METAR CYXU 061900Z 26015G20KT 15SM SCT050 27/15 A2982 RMK CU3 SLP094=

CYXU;2005-06-06 20:00;METAR CYXU 062000Z 27012G18KT 15SM FEW050 27/15 A2981 RMK CU2 SLP089=

CYXU;2005-06-06 21:00;METAR CYXU 062100Z 27019KT 15SM FEW055 28/14 A2980 RMK CU2 SLP086=

CYXU;2005-06-06 22:00;METAR CYXU 062200Z 26015G21KT 15SM FEW055 27/14 A2980 RMK CU2 SLP085=

CYXU;2005-06-06 23:00;METAR CYXU 062300Z 27014G22KT 15SM FEW055 27/14 A2980 RMK CU2 SLP085=

CYXU;2005-06-07 00:00;METAR CYXU 070000Z 26008KT 15SM FEW055 26/13 A2980 RMK CU1 SLP087=

CYXU;2005-06-07 01:00;METAR CYXU 070100Z 26006KT 15SM FEW050 25/13 A2981 RMK CF1 SLP089=

CYXU;2005-06-07 02:00;METAR CYXU 070200Z 26006KT 15SM FEW050 23/13 A2982 RMK CF1 SLP094=

CYXU;2005-06-07 03:00;METAR CYXU 070300Z 25003KT 15SM FEW060 22/14 A2983 RMK SC2 SLP095=

CYXU;2005-06-07 04:00;METAR CYXU 070400Z 26003KT 15SM SCT060 21/14 A2983 RMK SC3 SLP097=

CYXU;2005-06-07 05:00;METAR CYXU 070500Z 25007KT 15SM FEW070 21/14 A2984 RMK SC2 SLP100=

CYXU;2005-06-07 06:00;METAR CYXU 070600Z 25006KT 15SM FEW070 21/14 A2984 RMK SC2 SLP099=

CYXU;2005-06-07 07:00;METAR CYXU 070700Z 25005KT 15SM FEW070 20/14 A2984 RMK AC2 SLP100=

CYXU;2005-06-07 08:00;METAR CYXU 070800Z 26005KT 15SM SCT070 20/14 A2984 RMK AC3 SLP100=

CYXU;2005-06-07 09:00;METAR CYXU 070900Z 26005KT 15SM SCT070 20/14 A2984 RMK AC4 SLP101=

CYXU;2005-06-07 10:00;METAR CYXU 071000Z 27006KT 15SM FEW070 19/14 A2986 RMK AC2 SLP106=

CYXU;2005-06-07 11:00;METAR CYXU 071100Z 26005KT 15SM FEW070 20/14 A2987 RMK AC1 SLP109=

CYXU;2005-06-07 12:00;METAR CYXU 071200Z 29006KT 15SM FEW070 21/15 A2988 RMK AC1 SLP113=

CYXU;2005-06-07 13:00;METAR CYXU 071300Z 29007KT 15SM FEW070 23/15 A2989 RMK AC2 SLP118=

CYXU;2005-06-07 14:00;METAR CYXU 071400Z 27008KT 15SM FEW080 24/15 A2990 RMK AC1 SLP122=

CYXU;2005-06-07 15:00;METAR CYXU 071500Z 28006KT 15SM FEW080 25/15 A2990 RMK AC1 SLP119=

CYXU;2005-06-07 16:00;METAR CYXU 071600Z 25008KT 15SM FEW080 27/17 A2989 RMK AC1 SLP116=

CYXU;2005-06-07 17:00;METAR CYXU 071700Z 30011KT 15SM FEW060 SCT080 29/16 A2989 RMK CU2AC2 SLP117=

CYXU;2005-06-07 18:00;METAR CYXU 071800Z 29010G17KT 15SM FEW080 FEW280 30/16 A2989 RMK AC2CI1 SLP116=

CYXU;2005-06-07 19:00;METAR CYXU 071900Z 30014KT 15SM FEW060 FEW080 FEW280 31/15 A2989 RMK CU1AC1CI1 OBS TKN +27 SLP116=

CYXU;2005-06-07 20:00;METAR CYXU 072000Z 28010G15KT 15SM FEW060 FEW080 FEW280 31/15 A2989 RMK CU1AC1CI1 SLP115=

CYXU;2005-06-07 21:00;METAR CYXU 072100Z 28012G17KT 15SM FEW060 BKN083 BKN280 31/15 A2988 RMK CU1AC4CI2 SLP114=

CYXU;2005-06-07 22:00;METAR CYXU 072200Z 30003KT 15SM FEW060 FEW085 FEW280 31/15 A2988 RMK CU1AC1CI1 SLP113=

CYXU;2005-06-07 23:00;METAR CYXU 072300Z 30004KT 15SM FEW080 OVC280 31/15 A2987 RMK AC1CI1 SLP111=

CYXU;2005-06-08 00:00;METAR CYXU 080000Z 17007KT 15SM FEW100 FEW280 28/17 A2988 RMK AC1CI1 TCU / ACC DSTNT S SLP112=

CYXU;2005-06-08 01:00;METAR CYXU 080100Z 10003KT 15SM FEW100 FEW280 25/16 A2987 RMK AC1CI1 SLP109=

CYXU;2005-06-08 02:00;METAR CYXU 080200Z 13002KT 15SM FEW280 23/16 A2987 RMK CI1 SLP111=

CYXU;2005-06-08 03:00;METAR CYXU 080300Z 13002KT 15SM FEW280 22/16 A2988 RMK CI1 SLP113=

CYXU;2005-06-08 04:00;METAR CYXU 080400Z 13004KT 15SM FEW120 21/15 A2988 RMK AC2 SLP114=

CYXU;2005-06-08 05:00;METAR CYXU 080500Z 13004KT 15SM FEW100 FEW250 21/15 A2989 RMK AC1CI2 SLP117=

CYXU;2005-06-08 06:00;METAR CYXU 080600Z 19005KT 15SM FEW100 BKN250 20/14 A2990 RMK AC1CI4 SLP119=

CYXU;2005-06-08 07:00;METAR CYXU 080700Z 20008KT 15SM BKN250 23/14 A2989 RMK CI5 SLP117=

CYXU;2005-06-08 08:00;METAR CYXU 080800Z 20007KT 15SM SCT080 BKN250 21/15 A2988 RMK AC3CI2 SLP112=

CYXU;2005-06-08 09:00;METAR CYXU 080900Z 21006KT 15SM SCT080 OVC280 21/15 A2986 RMK AC3CI3 SLP107=

CYXU;2005-06-08 10:00;METAR CYXU 081000Z 22006KT 15SM FEW080 OVC280 21/15 A2987 RMK AC1CS6 SLP110=

CYXU;2005-06-08 11:00;METAR CYXU 081100Z 24006KT 12SM SCT075 OVC280 22/16 A2989 RMK ACC3CS4 SLP116=

CYXU;2005-06-08 12:00;METAR CYXU 081200Z 31008KT 12SM -SHRA SCT075 OVC280 23/16 A2991 RMK ACC3CS5 RW- VRY LGT HVIER SHWRS E SLP124=

CYXU;2005-06-08 12:30;SPECI CYXU 081230Z 31004KT 12SM FEW075 OVC280 RMK ACC2CS5=

CYXU;2005-06-08 13:00;METAR CYXU 081300Z 27004KT 12SM FEW120 OVC280 23/17 A2992 RMK AC1CS5 SLP125=

CYXU;2005-06-08 14:00;METAR CYXU 081400Z 00000KT 12SM FEW120 BKN240 25/17 A2989 RMK AC1CI5 SLP115=

CYXU;2005-06-08 15:00;METAR CYXU 081500Z 21003KT 12SM BKN230 27/18 A2989 RMK CI5 SLP115=

CYXU;2005-06-08 16:00;METAR CYXU 081600Z 17009KT 12SM BKN230 28/18 A2989 RMK CI5 SLP115=

CYXU;2005-06-08 17:00;METAR CYXU 081700Z 18014KT 12SM SCT230 27/18 A2990 RMK CI2 SLP118=

CYXU;2005-06-08 18:00;METAR CYXU 081800Z 22011G16KT 12SM FEW040TCU SCT230 27/17 A2992 RMK TCU1CI2 SLP126=

CYXU;2005-06-08 19:00;METAR CYXU 081900Z 21010KT 15SM FEW040TCU SCT230 29/18 A2991 RMK TCU1CI1 CB N SLP124=

CYXU;2005-06-08 19:28;SPECI CYXU 081928Z 20009KT 15SM -SHRA FEW037TCU RMK TCU2=

CYXU;2005-06-08 19:41;SPECI CYXU 081941Z 20009KT 15SM FEW040TCU FEW240 RMK TCU2CI1=

CYXU;2005-06-08 19:49;SPECI CYXU 081949Z 21009KT 15SM -SHRA FEW040TCU FEW240 RMK TCU2CI1=

CYXU;2005-06-08 20:00;METAR CYXU 082000Z 20008KT 15SM FEW040TCU SCT240 30/18 A2989 RMK TCU2CI2 OCNL RW- SLP116=

CYXU;2005-06-08 20:15;SPECI CYXU 082015Z 20009KT 15SM FEW040TCU BKN240 RMK TCU1CI2=

CYXU;2005-06-08 21:00;METAR CYXU 082100Z 19009KT 15SM FEW040TCU OVC240 29/19 A2987 RMK TCU1CI2 SLP110=

CYXU;2005-06-08 22:00;METAR CYXU 082200Z 21010KT 15SM FEW045TCU OVC250 29/19 A2987 RMK TCU1CI2 SLP111=

CYXU;2005-06-08 23:00;METAR CYXU 082300Z 19007KT 15SM FEW045TCU OVC250 29/18 A2989 RMK TCU1CI2 CB DSTNT NW-NE SLP117=

CYXU;2005-06-09 00:00;METAR CYXU 090000Z 05006KT 15SM FEW060TCU FEW140 OVC250 26/16 A2990 RMK TCU1AC2CI1 SLP121=

CYXU;2005-06-09 01:00;METAR CYXU 090100Z 11003KT 15SM FEW060TCU FEW140 BKN250 25/15 A2991 RMK TCU1AC1CI1 SLP125=

CYXU;2005-06-09 02:00;METAR CYXU 090200Z 08003KT 15SM FEW140 FEW250 23/15 A2992 RMK AC1CI2 SLP127=

CYXU;2005-06-09 03:00;METAR CYXU 090300Z 10005KT 15SM FEW250 23/15 A2993 RMK CI2 SLP132=

CYXU;2005-06-09 04:00;METAR CYXU 090400Z 20004KT 15SM FEW220 21/15 A2994 RMK CI1 SLP133=

CYXU;2005-06-09 05:00;METAR CYXU 090500Z 17006KT 15SM FEW060 BKN220 22/17 A2995 RMK SC1CI4 SLP138=

CYXU;2005-06-09 06:00;METAR CYXU 090600Z 08004KT 10SM FEW120 21/17 A2993 RMK AC2 SLP129=

CYXU;2005-06-09 07:00;METAR CYXU 090700Z 04002KT 15SM SCT280 20/16 A2993 RMK CI1 SLP131=

CYXU;2005-06-09 09:00;METAR CYXU 090900Z 08003KT 8SM SCT120 BKN280 20/16 A2994 RMK AC3CI2 SLP135=

CYXU;2005-06-09 10:00;METAR CYXU 091000Z 08004KT 4SM HZ BKN140 20/16 A2995 RMK AC7 SLP138=

CYXU;2005-06-09 11:00;METAR CYXU 091100Z 09002KT 4SM HZ BKN140 20/17 A2997 RMK AC7 ACC ASOCTD SLP144=

CYXU;2005-06-09 12:00;METAR CYXU 091200Z 12003KT 5SM HZ OVC120 22/18 A2999 RMK AC8 SLP150=

CYXU;2005-06-09 13:00;METAR CYXU 091300Z 16004KT 5SM HZ FEW040 BKN140 23/19 A2998 RMK SC1AC5 SLP149=

CYXU;2005-06-09 14:00;METAR CYXU 091400Z 19006KT 5SM HZ FEW140 26/20 A2997 RMK AC2 SLP146=

CYXU;2005-06-09 15:00;METAR CYXU 091500Z 16008KT 6SM HZ FEW170 26/20 A2997 RMK AC2 SLP144=

CYXU;2005-06-09 16:00;METAR CYXU 091600Z 18008KT 7SM FEW025 FEW170 28/21 A2998 RMK CF1AC1 SLP147=

CYXU;2005-06-09 17:00;METAR CYXU 091700Z 20008KT 7SM FEW030 FEW170 29/21 A2998 RMK CF1AC1 SLP146=

CYXU;2005-06-09 18:00;METAR CYXU 091800Z 18013KT 8SM FEW030 29/21 A2997 RMK CU1 SLP144=

CYXU;2005-06-09 18:31;SPECI CYXU 091831Z 20009KT 8SM FEW030 29/21 RMK CU1 CB TOP NW=

CYXU;2005-06-09 19:00;METAR CYXU 091900Z 19010KT 8SM FEW030 29/20 A2996 RMK CU1 CB N SLP139=

CYXU;2005-06-09 20:00;METAR CYXU 092000Z 20009G16KT 8SM FEW035 29/20 A2994 RMK CU1 SLP135=

CYXU;2005-06-09 21:00;METAR CYXU 092100Z 23005KT 8SM FEW040 FEW210 29/20 A2996 RMK CU1CI1 SLP140=

CYXU;2005-06-09 21:34;SPECI CYXU 092134Z 30004KT 8SM TS BKN040TCU BKN200 RMK TCU6CI1 CB EMBDD=

CYXU;2005-06-09 22:00;METAR CYXU 092200Z 25004KT 8SM -TSRA BKN040TCU BKN200 26/19 A2996 RMK TCU6CI1 CB EMBDD SLP140=

CYXU;2005-06-09 22:17;SPECI CYXU 092217Z 23003KT 8SM -SHRA FEW040TCU BKN120 RETS RMK TCU1AC5=

CYXU;2005-06-09 23:00;METAR CYXU 092300Z 00000KT 8SM -SHRA FEW050TCU BKN120 27/20 A2994 RETS RMK TCU1AC4 SLP133=

CYXU;2005-06-10 00:00;METAR CYXU 100000Z 00000KT 8SM SCT120 SCT250 27/20 A2995 RMK AC3CI1 SLP136=

CYXU;2005-06-10 01:00;METAR CYXU 100100Z 10004KT 8SM FEW230 26/19 A2995 RMK CI2 SLP137=

CYXU;2005-06-10 02:00;METAR CYXU 100200Z 16005KT 8SM FEW060 FEW210 25/19 A2997 RMK AC1CI1 SLP144=

CYXU;2005-06-10 03:00;METAR CYXU 100300Z 15004KT 15SM FEW150 FEW210 24/19 A2998 RMK AC1CI1 SLP146=

CYXU;2005-06-10 04:00;METAR CYXU 100400Z 08003KT 8SM SCT130 23/19 A2998 RMK AC3 SLP147=

CYXU;2005-06-10 06:00;METAR CYXU 100600Z 14003KT 8SM FEW110 SCT170 22/19 A2998 RMK AC1AC2 SLP148=

CYXU;2005-06-10 07:00;METAR CYXU 100700Z 19003KT 8SM FEW100 BKN140 22/19 A2999 RMK AC2AC4 SLP149=

CYXU;2005-06-10 07:37;SPECI CYXU 100737Z 23003KT 7SM -SHRA FEW100 BKN120 RMK AC2AC5 TCU ASOCTD=

CYXU;2005-06-10 07:54;SPECI CYXU 100754Z 25004KT 8SM BKN130 BKN170 RMK AC6AC1=

CYXU;2005-06-10 08:00;METAR CYXU 100800Z 27004KT 8SM BKN130 BKN170 22/18 A2997 RMK AC6AC1 SLP143=

CYXU;2005-06-10 09:00;METAR CYXU 100900Z 03002KT 5SM HZ BKN140 21/19 A2997 RMK AC6 SLP145=

CYXU;2005-06-10 10:00;METAR CYXU 101000Z 10003KT 5SM HZ FEW080 BKN180 21/19 A2999 RMK AC2AC3 SLP149=

CYXU;2005-06-10 11:00;METAR CYXU 101100Z 16005KT 5SM HZ BKN091 21/19 A3000 RMK AC6 SLP154=

CYXU;2005-06-10 12:00;METAR CYXU 101200Z 14003KT 8SM FEW070 SCT130 22/19 A3000 RMK AC1AC2 SLP155=

CYXU;2005-06-10 13:00;METAR CYXU 101300Z 20007KT 12SM FEW200 24/20 A3002 RMK CI1 SLP160=

CYXU;2005-06-10 14:00;METAR CYXU 101400Z 20005KT 12SM FEW200 25/21 A3001 RMK CI1 SLP159=

CYXU;2005-06-10 15:00;METAR CYXU 101500Z 19003KT 8SM FEW025 FEW200 27/21 A3000 RMK CU1CI1 SLP154=

CYXU;2005-06-10 16:00;METAR CYXU 101600Z 15004KT 8SM FEW025 SCT200 28/22 A3001 RMK CU1CI0 SLP157=

CYXU;2005-06-10 17:00;METAR CYXU 101700Z 22004KT 8SM FEW025 SCT200 30/22 A3001 RMK CU2CI0 SLP157=

CYXU;2005-06-10 18:00;METAR CYXU 101800Z 25008KT 12SM SCT045 SCT200 31/21 A2999 RMK CU3CI1 TCU ASOCTD SLP151=

CYXU;2005-06-10 19:00;METAR CYXU 101900Z 18004KT 12SM BKN040 31/22 A2997 RMK CU6 TCU ASOCTD SLP142=

CYXU;2005-06-10 20:00;METAR CYXU 102000Z 23006KT 12SM BKN049TCU 31/21 A2995 RMK TCU6 HAZE SLP136=

CYXU;2005-06-10 21:00;METAR CYXU 102100Z 20011KT 12SM BKN050TCU BKN180 31/21 A2993 RMK TCU5AC1 CB EMBD NNW SLP131=

CYXU;2005-06-10 21:42;SPECI CYXU 102142Z 20010KT 12SM TS BKN050TCU BKN180 RMK TCU5AC1 CB EMBD N-NE=

CYXU;2005-06-10 22:00;METAR CYXU 102200Z 20009KT 12SM TS FEW030 BKN050TCU BKN180 30/20 A2994 RMK CF1TCU4AC2 CB EMBD NE SLP133=

CYXU;2005-06-10 22:20;SPECI CYXU 102220Z 18010KT 15SM SCT050TCU BKN180 RETS RMK TCU4AC2 CB EMBD NW AND NE=

CYXU;2005-06-10 23:00;METAR CYXU 102300Z 19007KT 15SM SCT050TCU BKN180 30/18 A2996 RETS RMK TCU3AC3 CB EMBD DIST NW SLP138=

CYXU;2005-06-11 00:00;METAR CYXU 110000Z 19011KT 15SM FEW045TCU BKN180 28/18 A2997 RMK TCU2AC4 SLP142=

CYXU;2005-06-11 01:00;METAR CYXU 110100Z 19007KT 15SM FEW050TCU SCT080 BKN180 25/19 A2999 RMK TCU1AC3AC2 TCU TR SLP150=

CYXU;2005-06-11 02:00;METAR CYXU 110200Z 19007KT 15SM FEW080 BKN180 24/19 A3000 RMK AC2AC2 SLP153=

CYXU;2005-06-11 03:00;METAR CYXU 110300Z 19005KT 8SM FEW080 BKN180 23/19 A3002 RMK AC1AC2 HAZE SLP161=

CYXU;2005-06-11 04:00;METAR CYXU 110400Z 00000KT 8SM SKC 23/19 A3002 RMK SLP161=

CYXU;2005-06-11 06:00;METAR CYXU 110600Z 14004KT 8SM BKN180 BKN220 22/19 A3001 RMK AC5CI2 SLP157=

CYXU;2005-06-11 07:00;METAR CYXU 110700Z 13005KT 7SM BKN160 BKN190 22/19 A3001 RMK AC5CI1 SLP158=

CYXU;2005-06-11 08:00;METAR CYXU 110800Z 13003KT 7SM SCT160 BKN190 21/19 A3001 RMK AC3CI2 SLP156=

CYXU;2005-06-11 09:00;METAR CYXU 110900Z 15002KT 6SM HZ SCT150 BKN190 21/19 A3000 RMK AC3CI3 SLP153=

CYXU;2005-06-11 10:00;METAR CYXU 111000Z 14005KT 3SM HZ BKN190 21/19 A3000 RMK CI5 SLP154=

CYXU;2005-06-11 11:00;METAR CYXU 111100Z 13003KT 3SM HZ SCT200 22/20 A3000 RMK CI4 SLP155=

CYXU;2005-06-11 12:00;METAR CYXU 111200Z 19006KT 4SM HZ SCT200 23/20 A3001 RMK CI3 SLP157=

CYXU;2005-06-11 13:00;METAR CYXU 111300Z 19007KT 5SM HZ FEW230 24/20 A3002 RMK CI1 SLP160=

CYXU;2005-06-11 14:00;METAR CYXU 111400Z 19006KT 10SM FEW240 26/21 A3002 RMK CI1 SLP159=

CYXU;2005-06-11 15:00;METAR CYXU 111500Z 18006KT 12SM FEW026 FEW250 28/21 A3002 RMK CU2CI1 SLP159=

CYXU;2005-06-11 16:00;METAR CYXU 111600Z 19010KT 12SM FEW030 FEW250 28/21 A3002 RMK CU2CI1 SLP161=

CYXU;2005-06-11 17:00;METAR CYXU 111700Z 21007G16KT 12SM FEW032 SCT250 29/21 A3002 RMK CU2CI2 SLP159=

CYXU;2005-06-11 18:00;METAR CYXU 111800Z 19010G15KT 15SM FEW040 SCT250 30/21 A3000 RMK CU2CI1 TCU ASOCTD SLP153=

CYXU;2005-06-11 19:00;METAR CYXU 111900Z 19014G20KT 15SM FEW042TCU BKN250 30/20 A2998 RMK TCU2CI1 SLP148=

CYXU;2005-06-11 20:00;METAR CYXU 112000Z 18014G20KT 15SM FEW044TCU BKN230 30/20 A2998 RMK TCU1CS3 SLP146=

CYXU;2005-06-11 21:00;METAR CYXU 112100Z 21013G18KT 15SM FEW036TCU OVC230 28/20 A2998 RMK TCU1CS6 TCU ASOCTD NW SUN VSBL SLP147=

CYXU;2005-06-11 22:00;METAR CYXU 112200Z 22012KT 12SM FEW034TCU OVC230 28/20 A2997 RMK TCU1CS7 TCU TR SLP144=

CYXU;2005-06-11 23:47;SPECI CYXU 112347Z 20009KT 12SM FEW040CB BKN140 OVC230 RMK CB1AC4CS2 CB N=

CYXU;2005-06-12 00:00;METAR CYXU 120000Z 19007KT 10SM FEW040CB BKN140 OVC230 27/20 A2999 RMK CB1AC5CS2 SLP149=

CYXU;2005-06-12 01:00;METAR CYXU 120100Z 22006KT 10SM BKN140 OVC230 26/20 A3000 RMK AC5CI2 SLP152=

CYXU;2005-06-12 02:00;METAR CYXU 120200Z 20006KT 10SM BKN140 BKN240 25/20 A3000 RMK AC5CI2 SLP152=

CYXU;2005-06-12 03:00;METAR CYXU 120300Z 20006KT 10SM BKN140 BKN240 25/20 A3000 RMK AC6CI1 SLP152=

CYXU;2005-06-12 04:00;METAR CYXU 120400Z 20004KT 10SM BKN150 24/20 A3000 RMK AC6 SLP154=

CYXU;2005-06-12 05:00;METAR CYXU 120500Z 10005KT 10SM BKN140 BKN180 24/20 A2999 RMK AC5AC2 SLP151=

CYXU;2005-06-12 06:00;METAR CYXU 120600Z 21004KT 10SM OVC120 24/20 A2999 RMK AC8 SLP149=

CYXU;2005-06-12 07:41;SPECI CYXU 120741Z 18005KT 8SM FEW090 OVC120 RMK AC2AC6=

CYXU;2005-06-12 08:00;METAR CYXU 120800Z 19004KT 8SM SCT037 SCT090 OVC120 23/20 A2999 RMK SC3AC1AC4 SLP150=

CYXU;2005-06-12 09:00;METAR CYXU 120900Z 18002KT 6SM HZ BKN090 BKN140 22/20 A2998 RMK AC6AC2 SLP147=

CYXU;2005-06-12 10:00;METAR CYXU 121000Z 15004KT 4SM HZ BKN037 BKN140 22/20 A2999 RMK SC6AC2 SLP151=

CYXU;2005-06-12 11:00;METAR CYXU 121100Z 00000KT 4SM HZ FEW030TCU BKN190 22/20 A3000 RMK TCU1CI6 TCU W SLP153=

CYXU;2005-06-12 12:00;METAR CYXU 121200Z 18005KT 6SM HZ FEW035 SCT110 BKN200 24/21 A3000 RMK CU1AC3CI2 SLP154=

CYXU;2005-06-12 13:00;METAR CYXU 121300Z 22004KT 7SM BKN040 OVC130 25/21 A3000 RMK SC6AC2 SLP154=

CYXU;2005-06-12 14:00;METAR CYXU 121400Z 17005KT 8SM BKN030 BKN130 OVC200 26/21 A2999 RMK SC6AC2CI1 SLP151=

CYXU;2005-06-12 15:00;METAR CYXU 121500Z 22005KT 12SM FEW025 OVC200 27/21 A2999 RMK CU2CI5 SLP149=

CYXU;2005-06-12 16:00;METAR CYXU 121600Z 19005KT 12SM BKN027TCU OVC200 28/21 A2998 RMK TCU6CI2 SLP147=

CYXU;2005-06-12 17:00;METAR CYXU 121700Z 21006KT 12SM BKN032TCU OVC200 29/21 A2996 RMK TCU6CI1 SLP141=

CYXU;2005-06-12 18:00;METAR CYXU 121800Z 20008KT 12SM BKN038 OVC220 29/20 A2995 RMK CU6CI2 TCU ASOCTD SLP137=

CYXU;2005-06-12 19:00;METAR CYXU 121900Z 20008KT 15SM BKN038TCU OVC180 29/21 A2994 RMK TCU5AC2 SLP133=

CYXU;2005-06-12 21:00;METAR CYXU 122100Z 16007KT 15SM FEW037 BKN180 29/20 A2992 RMK CU2AC4 TCU ASOCTD SLP127=

CYXU;2005-06-12 22:00;METAR CYXU 122200Z 18007KT 12SM FEW034 OVC180 29/20 A2991 RMK CU1AC7 CU TR SLP123=

CYXU;2005-06-12 23:00;METAR CYXU 122300Z 20006KT 12SM FEW180 OVC220 28/20 A2991 RMK AC2CI4 CC ASOCTD SLP122=

CYXU;2005-06-13 00:00;METAR CYXU 130000Z 18006KT 12SM BKN180 OVC240 27/20 A2990 RMK AC5CI2 SLP118=

CYXU;2005-06-13 00:53;SPECI CYXU 130053Z 19006KT 12SM -SHRA BKN080 OVC180 RMK AC6AC2 TCU ASOCTD=

CYXU;2005-06-13 01:00;METAR CYXU 130100Z 19006KT 12SM -SHRA FEW040 BKN079 OVC180 26/20 A2990 RMK CF1AC6AC2 SLP120=

CYXU;2005-06-13 01:40;SPECI CYXU 130140Z 18002KT 6SM -SHRA HZ FEW040 BKN080 OVC130 RMK CF1AC4AC3=

CYXU;2005-06-13 02:00;METAR CYXU 130200Z 14005KT 8SM -SHRA SCT043 BKN075 OVC130 25/20 A2990 RMK SC3AC4AC1 HAZE/CU ASOCTD SLP120=

CYXU;2005-06-13 03:00;METAR CYXU 130300Z 18004KT 4SM -SHRA HZ SCT040 OVC073 24/21 A2990 RMK SC3AC5 CU ASOCTD SLP121=

CYXU;2005-06-13 03:43;SPECI CYXU 130343Z 11002KT 4SM HZ FEW040 BKN070 RMK SC2AC6=

CYXU;2005-06-13 05:00;METAR CYXU 130500Z 00000KT 3SM HZ FEW100 OVC160 23/21 A2989 RMK AC2AC6 SLP117=

CYXU;2005-06-13 06:00;METAR CYXU 130600Z 09003KT 3SM HZ FEW080 OVC160 23/21 A2987 RMK AC1AC7 SLP109=

CYXU;2005-06-13 07:00;METAR CYXU 130700Z 10004KT 3SM HZ FEW080 OVC170 23/21 A2985 RMK AC1AC7 SLP103=

CYXU;2005-06-13 09:00;METAR CYXU 130900Z 11004KT 2SM BR SCT070 BKN140 22/20 A2983 RMK FG3AC1AC2 SLP097=

CYXU;2005-06-13 09:31;SPECI CYXU 130931Z 09005KT 1SM R15/P6000FT/U BR SCT070 OVC120 RMK FG3AC1AS4=

CYXU;2005-06-13 10:29;SPECI CYXU 131029Z 07004KT 1SM R15/P6000FT/D BR SCT070 OVC140 RMK FG2AC2AS4 ACC ASOCTD=

CYXU;2005-06-13 11:00;METAR CYXU 131100Z 12002KT 1 1/2SM BR SCT040 OVC100 22/20 A2983 RMK FG2SC2AC3 SLP095=

CYXU;2005-06-13 12:00;METAR CYXU 131200Z 10005KT 2 1/2SM HZ BKN070 23/20 A2981 RMK HZ2AC6 SLP089=

CYXU;2005-06-13 12:44;SPECI CYXU 131244Z 14007KT 6SM HZ BKN080 RMK AC6=

CYXU;2005-06-13 13:00;METAR CYXU 131300Z 14008KT 8SM BKN077 24/20 A2980 RMK AC6 ACC ASOCTD=

CYXU;2005-06-13 14:00;METAR CYXU 131400Z 15006KT 10SM BKN060 26/21 A2979 RMK SC6 TCU EMBD SLP081=

CYXU;2005-06-13 14:11;SPECI CYXU 131411Z 17007KT 12SM -SHRA BKN040 RMK SC7 TCU EMBD=

CYXU;2005-06-13 14:36;SPECI CYXU 131436Z 18007KT 12SM BKN044 RMK SC7=

CYXU;2005-06-13 15:00;METAR CYXU 131500Z 16006KT 12SM FEW022 SCT040 BKN100 27/21 A2976 RMK CU1SC2AC4 ACC ASOCTD SLP074=

CYXU;2005-06-13 16:00;METAR CYXU 131600Z 18010KT 12SM BKN030 BKN200 28/21 A2975 RMK CU5CI2 SLP070=

CYXU;2005-06-13 17:00;METAR CYXU 131700Z 20010G17KT 12SM BKN040 27/20 A2973 RMK CU6 TCU ASOCTD SLP064=

CYXU;2005-06-13 18:00;METAR CYXU 131800Z 20015G21KT 15SM SCT035 OVC068 26/20 A2972 RMK CU4AC4 TCU ASOCTD VIRGA SLP059=

CYXU;2005-06-13 19:00;METAR CYXU 131900Z 20015G20KT 12SM FEW035 BKN043 26/20 A2970 RMK CU2SC6 SLP053=

CYXU;2005-06-13 20:00;METAR CYXU 132000Z 20018KT 12SM SCT020 OVC034 25/20 A2969 RMK CU3SC5 RW DSNT S QUAD SLP049=

CYXU;2005-06-13 21:00;METAR CYXU 132100Z 21008KT 12SM OVC018 24/20 A2968 RMK SC8 SLP046=

CYXU;2005-06-13 22:00;METAR CYXU 132200Z 20008KT 15SM SCT018 BKN030 OVC055 24/21 A2967 RMK CU3SC3SC2 SLP042=

CYXU;2005-06-13 22:53;SPECI CYXU 132253Z 20008KT 15SM -SHRA OVC016 RMK SC8 TCU ASOCTD VIS 6 S QUAD=

CYXU;2005-06-13 23:00;METAR CYXU 132300Z 21007KT 15SM -SHRA OVC015 23/21 A2966 RMK SC8 TCU ASOCTD VIS 6 S QUAD SLP040=

CYXU;2005-06-13 23:32;SPECI CYXU 132332Z 24006KT 8SM SCT012 OVC020 RMK CU4SC4 HZ=

CYXU;2005-06-14 00:00;METAR CYXU 140000Z 23010KT 8SM FEW012 BKN020 OVC037 24/21 A2967 RMK CF2SC3SC3 HZ SLP042=

CYXU;2005-06-14 00:46;SPECI CYXU 140046Z 24008KT 4SM -SHRA SCT012 OVC030 RMK SC4SC4=

CYXU;2005-06-14 00:51;SPECI CYXU 140051Z 24008KT 2 1/2SM -SHRA FEW009 BKN012 OVC030 RMK CF1SC4SC3=

CYXU;2005-06-14 01:00;METAR CYXU 140100Z 25008KT 2 1/2SM -SHRA BR SCT009 OVC012 23/21 A2967 RMK FG2CF2SC4 SLP043=

CYXU;2005-06-14 01:18;SPECI CYXU 140118Z 26008KT 2SM -SHRA BR BKN009 OVC012 RMK FG2CF3SC3=

CYXU;2005-06-14 01:40;SPECI CYXU 140140Z 26008KT 2SM SHRA BR SCT004 OVC009 RMK FG2CF2CF4 TCU ASOCTD=

CYXU;2005-06-14 01:52;SPECI CYXU 140152Z 28007KT 1 1/2SM +SHRA BR SCT004 BKN009 OVC015 RMK FG2CF2CF2SC2 TCU ASOCTD=

CYXU;2005-06-14 02:00;METAR CYXU 140200Z 29005KT 1 1/2SM +SHRA BR SCT004 OVC015CB 22/21 A2969 RMK FG2CF2CB4 LTNG FLASH S QUAD SLP049=

CYXU;2005-06-14 02:22;SPECI CYXU 140222Z 30007KT 2SM -SHRA BR SCT005 OVC015 RERA RMK FG2CF2SC4 CB E=

CYXU;2005-06-14 03:00;METAR CYXU 140300Z 28009KT 3SM BR SCT007 OVC011 22/20 A2972 RERA RMK CF3SC5 SLP058=

CYXU;2005-06-14 03:22;SPECI CYXU 140322Z 28011G17KT 1SM R15/P6000FT/D -SHRA BR OVC002 RMK FG3SF5 TCU ASOCTD=

CYXU;2005-06-14 03:35;SPECI CYXU 140335Z 30010G16KT 2SM -SHRA BR OVC004 RMK FG3SF5 TCU ASOCTD=

CYXU;2005-06-14 04:00;METAR CYXU 140400Z 28011G17KT 2SM BR OVC003 20/19 A2973 RMK FG3ST5 SLP064=

CYXU;2005-06-14 05:00;METAR CYXU 140500Z 28009KT 2SM -DZ BR OVC002 20/19 A2974 RMK FG3ST5 SLP067=

CYXU;2005-06-14 06:14;SPECI CYXU 140614Z 28009KT 2SM BR OVC003 RMK FG2ST6=

CYXU;2005-06-14 07:00;METAR CYXU 140700Z 29007KT 3SM BR OVC003 20/19 A2975 RMK ST8 SLP070=

CYXU;2005-06-14 08:00;METAR CYXU 140800Z 29006KT 3SM BR OVC004 20/19 A2974 RMK ST8 SLP067=

CYXU;2005-06-14 09:00;METAR CYXU 140900Z 28006KT 3SM BR BKN004 20/19 A2975 RMK SF7 SLP071=

CYXU;2005-06-14 09:13;SPECI CYXU 140913Z 30005KT 5SM BR BKN006 RMK SF7=

CYXU;2005-06-14 09:46;SPECI CYXU 140946Z 30003KT 3SM BR OVC005 RMK SF8=

CYXU;2005-06-14 10:00;METAR CYXU 141000Z 28003KT 3SM BR OVC005 20/19 A2976 RMK SF8 SLP074=

CYXU;2005-06-14 10:10;SPECI CYXU 141010Z 26004KT 3SM BR OVC004 RMK SF8=

CYXU;2005-06-14 11:00;METAR CYXU 141100Z 24002KT 4SM BR OVC004 20/19 A2976 RMK SF8 UA/ TOPS 017 SLP075=

CYXU;2005-06-14 11:39;SPECI CYXU 141139Z 00000KT 4SM BR OVC006 RMK SF7=

CYXU;2005-06-14 12:00;METAR CYXU 141200Z 24002KT 4SM BR SCT005 BKN027 OVC130 21/19 A2976 RMK SF3SC2AC2 SLP075=

CYXU;2005-06-14 12:22;SPECI CYXU 141222Z 19003KT 6SM BR BKN005 BKN031 OVC130 RMK SF5SC2AC1=

CYXU;2005-06-14 12:49;SPECI CYXU 141249Z 17003KT 8SM FEW005 SCT030 BKN120 RMK SF2SC2AC2=

CYXU;2005-06-14 13:00;METAR CYXU 141300Z 19004KT 6SM BR FEW005 SCT025 BKN120 22/20 A2976 RMK SF2SC2AC1 SLP074=

CYXU;2005-06-14 14:00;METAR CYXU 141400Z 18005KT 8SM BKN013 OVC120 23/20 A2975 RMK SF6AC2 HAZY SLP069=

CYXU;2005-06-14 15:00;METAR CYXU 141500Z 18006KT 8SM OVC012 24/21 A2973 RMK SF8 SLP064=

CYXU;2005-06-14 15:46;SPECI CYXU 141546Z 19004KT 5SM HZ FEW005 SCT016 BKN120 RMK SF1CU2AC3=

CYXU;2005-06-14 16:00;METAR CYXU 141600Z 20005KT 6SM HZ FEW016 BKN140 26/21 A2972 RMK CU2AC2 SLP060=

CYXU;2005-06-14 17:00;METAR CYXU 141700Z 18009KT 10SM FEW020 FEW140 28/21 A2971 RMK CF1AC1=

CYXU;2005-06-14 18:00;METAR CYXU 141800Z 18013KT 12SM FEW035 28/21 A2969 RMK CU2 SLP050=

CYXU;2005-06-14 19:00;METAR CYXU 141900Z 18014KT 12SM FEW035TCU 29/19 A2966 RMK TCU2 SLP038=

CYXU;2005-06-14 20:00;METAR CYXU 142000Z 20015G21KT 12SM FEW035 29/18 A2963 RMK CU2 CB TOPS DSNT NE QUAD SLP030=

CYXU;2005-06-14 21:00;METAR CYXU 142100Z 19015KT 12SM SCT050TCU BKN150 BKN230 29/19 A2959 RMK TCU3AC2CI0 RW NW QUAD SLP015=

CYXU;2005-06-14 21:48;SPECI CYXU 142148Z 27027G39KT 12SM -TSRA SCT050CB BKN160 BKN230 RMK CB4AC2CI0 VIS N 2=

CYXU;2005-06-14 22:00;METAR CYXU 142200Z 28010G32KT 12SM -TSRA BKN045CB BKN160 21/18 A2961 RMK CB5AC2 VIS E 6 LTGCG SLP020=

CYXU;2005-06-14 22:44;SPECI CYXU 142244Z 18009KT 15SM SCT045TCU BKN120 BKN230 RMK TCU3AC2CI1=

CYXU;2005-06-14 23:00;METAR CYXU 142300Z 19016G21KT 15SM SCT045TCU BKN080 BKN230 25/19 A2958 RMK TCU3AC2CI1 SLP012=

CYXU;2005-06-15 00:00;METAR CYXU 150000Z 18007KT 12SM SCT045CB BKN120 BKN230 24/18 A2957 RMK CB3AC2CI1 SLP008=

CYXU;2005-06-15 00:20;SPECI CYXU 150020Z 31012G19KT 12SM FEW006 BKN015 OVC040 RMK SF2SC3SC2 CB ASOCTD/WND SHFT 0020Z/RW NE QUAD=

CYXU;2005-06-15 01:06;SPECI CYXU 150106Z 00000KT 15SM TS BKN027CB BKN120 RMK CB6AC1 LTGCG=

CYXU;2005-06-15 01:11;SPECI CYXU 150111Z 28003KT 12SM -TSRA OVC022CB RMK CB8 VIS 5 N QUAD LTGCG=

CYXU;2005-06-15 01:38;SPECI CYXU 150138Z 31003KT 8SM FEW014 BKN022CB RMK SF1CB4 TS DSNT N TO S LTGCC=

CYXU;2005-06-15 02:12;SPECI CYXU 150212Z 30006KT 15SM TS BKN040CB RMK CB6 LTGICCG=

CYXU;2005-06-15 02:16;SPECI CYXU 150216Z 31007KT 8SM -TSRA BKN040CB OVC060 RMK CB6SC2 LTGICCG=

CYXU;2005-06-15 03:00;METAR CYXU 150300Z 31002KT 8SM -SHRA FEW040CB BKN060 BKN110 20/18 A2960 RETSRA RMK CB2SC4AC2 LTGIC IN S QUAD SLP018=

CYXU;2005-06-15 03:29;SPECI CYXU 150329Z 24002KT 15SM SCT060 SCT100 RMK SC3AC1=

CYXU;2005-06-15 04:00;METAR CYXU 150400Z 28004KT 15SM FEW060 19/17 A2959 RMK SC1 TR SC SLP017=

CYXU;2005-06-15 05:00;METAR CYXU 150500Z 21004KT 15SM SCT110 19/17 A2959 RMK AC3 SLP016=

CYXU;2005-06-15 06:00;METAR CYXU 150600Z 24009KT 15SM SCT100 19/17 A2958 RMK AC4 SLP012=

CYXU;2005-06-15 07:00;METAR CYXU 150700Z 25011KT 15SM BKN100 19/17 A2956 RMK AC6 SLP007=

CYXU;2005-06-15 08:00;METAR CYXU 150800Z 24009KT 15SM SCT075 19/16 A2956 RMK AC3 SLP007=

CYXU;2005-06-15 09:00;METAR CYXU 150900Z 24009KT 15SM FEW080 18/15 A2956 RMK AC1 SLP006=

CYXU;2005-06-15 10:00;METAR CYXU 151000Z 24008G15KT 15SM SCT073 SCT230 18/15 A2957 RMK AC3CI1 SLP007=

CYXU;2005-06-15 11:00;METAR CYXU 151100Z 24013KT 15SM BKN065 BKN230 18/15 A2957 RMK SC5CI1 SLP009=

CYXU;2005-06-15 12:00;METAR CYXU 151200Z 26010G16KT 15SM FEW017 FEW100 FEW230 19/15 A2957 RMK CF1AC1CI1 SLP011=

CYXU;2005-06-15 13:00;METAR CYXU 151300Z 25012G18KT 15SM SCT018 BKN070 20/16 A2958 RMK CU4AC1 SLP013=

CYXU;2005-06-15 14:00;METAR CYXU 151400Z 26012KT 15SM BKN020 OVC110 20/15 A2958 RMK CU6AC1 SLP014=

CYXU;2005-06-15 15:00;METAR CYXU 151500Z 26009G16KT 15SM -SHRA BKN026 OVC110 20/16 A2957 RMK CU6AC2 SLP012=

CYXU;2005-06-15 16:00;METAR CYXU 151600Z 24013KT 15SM BKN020 BKN230 21/16 A2957 RMK CU6CI1 TCU ASOCTD SLP011=

CYXU;2005-06-15 17:00;METAR CYXU 151700Z 25012KT 15SM BKN025TCU BKN110 22/15 A2956 RMK TCU6AC1 CB N-NE SLP006=

CYXU;2005-06-15 17:07;SPECI CYXU 151707Z 29014KT 10SM -SHRA OVC027TCU 22/ RMK TCU8 CB N=

CYXU;2005-06-15 17:36;SPECI CYXU 151736Z 27009KT 15SM VCSH BKN022TCU 22/ RMK TCU7=

CYXU;2005-06-15 18:00;METAR CYXU 151800Z 28012G18KT 15SM BKN030TCU 22/15 A2956 RMK TCU7 SLP006=

CYXU;2005-06-15 18:19;SPECI CYXU 151819Z 23014G20KT 12SM -SHRA BKN030TCU 20/ RMK TCU7=

CYXU;2005-06-15 19:00;METAR CYXU 151900Z 27010G15KT 12SM BKN030TCU BKN075 20/17 A2956 RMK TCU5AC2 SLP008=

CYXU;2005-06-15 19:23;SPECI CYXU 151923Z 28006KT 12SM -SHRA BKN026TCU BKN075 RMK TCU6AC1 VIS LWR W=

CYXU;2005-06-15 20:00;METAR CYXU 152000Z 28014G21KT 15SM BKN037 BKN075 21/17 A2957 RMK CU5AC2 SHRA DSNT SE QUAD SLP009=

CYXU;2005-06-15 21:00;METAR CYXU 152100Z 29009G22KT 15SM FEW018 BKN037 BKN075 22/16 A2957 RMK CU2CU3AC2 SHRA DSNT S SLP010=

CYXU;2005-06-15 22:00;METAR CYXU 152200Z 30009G15KT 15SM SCT025 BKN075 21/16 A2959 RMK CU4AC2 SLP016=

CYXU;2005-06-15 23:00;METAR CYXU 152300Z 30011KT 12SM FEW014 SCT025 BKN085 20/16 A2960 RMK SF2CU2AC3 SLP018=

CYXU;2005-06-15 23:54;SPECI CYXU 152354Z 31009KT 12SM FEW009 BKN020 BKN085 19/ RMK CF1CU6AC1=

CYXU;2005-06-16 00:00;METAR CYXU 160000Z 30008KT 12SM FEW009 BKN020 BKN085 19/16 A2961 RMK CF1CU6AC1 SLP024=

CYXU;2005-06-16 01:00;METAR CYXU 160100Z 31006KT 8SM -SHRA FEW009 BKN015 OVC060 18/15 A2962 RMK CF1SC6SC2 TCU ASOCTD SLP026=

CYXU;2005-06-16 01:26;SPECI CYXU 160126Z 32007KT 8SM -SHRA FEW009 BKN012 OVC060 17/ RMK CF1SC6SC2=

CYXU;2005-06-16 02:00;METAR CYXU 160200Z 33007KT 15SM FEW009 BKN015 BKN075 17/14 A2963 RMK CF1SC6AC1 SLP030=

CYXU;2005-06-16 03:00;METAR CYXU 160300Z 34006KT 15SM BKN018 OVC075 16/13 A2964 RMK SC6AC2 SLP035=

CYXU;2005-06-16 03:18;SPECI CYXU 160318Z 33007KT 15SM -SHRA BKN018 OVC075 16/ RMK SC6AC2 TCU ASOCTD=

CYXU;2005-06-16 04:00;METAR CYXU 160400Z 34006KT 15SM -SHRA BKN016 OVC100 15/13 A2964 RMK SC6AC2 TCU ASOCTD SLP036=

CYXU;2005-06-16 05:00;METAR CYXU 160500Z 33006KT 15SM -SHRA BKN017 OVC100 15/13 A2964 RMK SC6AC2 TCU ASOCTD SLP035=

CYXU;2005-06-16 06:00;METAR CYXU 160600Z 33008KT 15SM -SHRA BKN028 OVC095 15/14 A2964 RMK SC6AC2 TCU ASOCTD SLP035=

CYXU;2005-06-16 07:00;METAR CYXU 160700Z 34009KT 12SM -SHRA OVC021 15/13 A2964 RMK SC8 TCU ASOCTD SLP034=

CYXU;2005-06-16 08:00;METAR CYXU 160800Z 33009KT 15SM -SHRA BKN032 OVC070 15/13 A2964 RMK SC5AC3 TCU ASOCTD SLP034=

CYXU;2005-06-16 09:00;METAR CYXU 160900Z 31007KT 15SM -SHRA BKN031 OVC076 14/12 A2965 RMK SC6AC2 TCU ASOCTD SLP038=

CYXU;2005-06-16 09:27;SPECI CYXU 160927Z 30008KT 10SM -SHRA FEW008 BKN035 OVC072 14/ RMK SF2SC6AC1 CVCTV CLD ASOCTD=

CYXU;2005-06-16 10:00;METAR CYXU 161000Z 31006KT 12SM -SHRA FEW008 BKN060 OVC080 14/13 A2966 RMK SF1SC6AC1 CVCTV CLD ASOCTD SLP040=

CYXU;2005-06-16 11:00;METAR CYXU 161100Z 29005KT 12SM -SHRA SCT008 SCT020 BKN080 OVC120 14/13 A2967 RMK SF3SC1AC4AS1 CVCTV CLD ASOCTD SLP045=

CYXU;2005-06-16 11:48;SPECI CYXU 161148Z 30006KT 12SM -SHRA BKN008 OVC028 14/ RMK SF6SC2 CVCTV CLD ASOCTD=

CYXU;2005-06-16 12:00;METAR CYXU 161200Z 30006KT 12SM -SHRA BKN008 OVC027 14/13 A2970 RMK SF6SC2 CVCTV CLD ASOCTD SLP056=

CYXU;2005-06-16 12:42;SPECI CYXU 161242Z 30006KT 15SM -SHRA SCT008 OVC020 15/ RMK SF4SC4 PCPN VRY LGT CVCTV CLD ASOCTD=

CYXU;2005-06-16 13:00;METAR CYXU 161300Z 31009KT 15SM SCT010 BKN028 15/13 A2970 RMK SF4SC3 SLP058=

CYXU;2005-06-16 14:00;METAR CYXU 161400Z 31012KT 15SM BKN018 BKN110 16/12 A2971 RMK CU5AC1 CUMULUS MEDIOCRIS SLP061=

CYXU;2005-06-16 15:00;METAR CYXU 161500Z 32012G19KT 15SM BKN040 BKN110 17/10 A2972 RMK CU6AC1 CUMULUS HUMILIS SLP063=

CYXU;2005-06-16 16:00;METAR CYXU 161600Z 32013G19KT 15SM BKN034 BKN052 17/09 A2972 RMK CU6SC2 CUMULUS HUMILIS SLP064=

CYXU;2005-06-16 17:00;METAR CYXU 161700Z 30012G18KT 15SM SCT035 BKN060 17/09 A2973 RMK CU3SC3 CUMULUS MEDIOCRIS SLP067=

CYXU;2005-06-16 18:00;METAR CYXU 161800Z 30019G24KT 15SM SCT035 SCT060 18/09 A2973 RMK CU3SC1 CUMULUS HUMILIS SLP066=

CYXU;2005-06-16 19:00;METAR CYXU 161900Z 32014G19KT 15SM BKN036 17/08 A2973 RMK CU5 SLP067=

CYXU;2005-06-16 20:00;METAR CYXU 162000Z 31010G22KT 15SM SCT040 18/08 A2973 RMK CU3 SLP066=

CYXU;2005-06-16 21:00;METAR CYXU 162100Z 30014KT 15SM FEW040 BKN060 17/08 A2973 RMK CU2SC6 SLP069=

CYXU;2005-06-16 22:00;METAR CYXU 162200Z 29010G15KT 15SM FEW040 BKN060 BKN080 17/09 A2974 RMK CU1SC4AC2 SLP070=

CYXU;2005-06-16 23:00;METAR CYXU 162300Z 29008G16KT 15SM FEW035 BKN065 BKN110 17/09 A2973 RMK CU1SC5AC2 SLP069=

CYXU;2005-06-17 00:00;METAR CYXU 170000Z 30009KT 15SM FEW035 FEW070 FEW110 15/08 A2973 RMK CU1AC1AC1 SLP069=

CYXU;2005-06-17 02:00;METAR CYXU 170200Z 29006KT 15SM FEW140 13/09 A2975 RMK AC1 SLP074=

CYXU;2005-06-17 03:00;METAR CYXU 170300Z 27005KT 15SM FEW020 FEW060 BKN082 12/10 A2975 RMK SC1SC1AC6 SLP075=

CYXU;2005-06-17 04:00;METAR CYXU 170400Z 31006KT 15SM FEW020 FEW060 BKN080 13/11 A2975 RMK SC2SC1AC5 SLP074=

CYXU;2005-06-17 05:00;METAR CYXU 170500Z 27007KT 15SM -SHRA FEW020 OVC076 13/11 A2975 RMK SC2AC6 SLP073=

CYXU;2005-06-17 06:00;METAR CYXU 170600Z 29005KT 15SM -SHRA SCT016 BKN094 13/11 A2973 RMK SC4AC2 SLP069=

CYXU;2005-06-17 07:50;SPECI CYXU 170750Z 30006KT 15SM -SHRA BKN014 BKN080 13/ RMK SC5AC2 CVCTV CLD ASOCTD=

CYXU;2005-06-17 09:00;METAR CYXU 170900Z 30004KT 15SM -SHRA BKN014 BKN080 12/11 A2973 RMK SC5AC2 CVCTV CLD ASOCTD SLP067=

CYXU;2005-06-17 09:26;SPECI CYXU 170926Z 29003KT 15SM FEW014 SCT220 12/ RMK SC2CI1=

CYXU;2005-06-17 09:45;SPECI CYXU 170945Z 29002KT 15SM BKN010 BKN080 BKN220 12/ RMK SF5AC1CI1 ALTOCUMULUS PERLUCIDUS=

CYXU;2005-06-17 10:00;METAR CYXU 171000Z 29003KT 15SM SCT010 SCT080 BKN220 12/11 A2973 RMK SF2AC1CI1 CIRRUS FIBRATUS SLP069=

CYXU;2005-06-17 11:00;METAR CYXU 171100Z 31005KT 15SM SCT006 SCT020TCU SCT080 BKN220 13/12 A2974 RMK SF2TCU1AC1CI0 SLP072=

CYXU;2005-06-17 11:18;SPECI CYXU 171118Z 30004KT 15SM BKN008 13/ RMK SC6 TCU TOP DSTNT SW=

CYXU;2005-06-17 12:00;METAR CYXU 171200Z 30006KT 15SM BKN010 14/12 A2976 RMK SC7 SLP077=

CYXU;2005-06-17 12:27;SPECI CYXU 171227Z 32008KT 15SM OVC009 14/ RMK SC8=

CYXU;2005-06-17 12:46;SPECI CYXU 171246Z 34010KT 15SM OVC011 14/ RMK SC8=

CYXU;2005-06-17 13:00;METAR CYXU 171300Z 32008KT 15SM BKN013 15/12 A2977 RMK CU7 SLP083=

CYXU;2005-06-17 13:19;SPECI CYXU 171319Z 29009KT 15SM BKN019 15/ RMK CU6=

CYXU;2005-06-17 14:00;METAR CYXU 171400Z 30008KT 15SM SCT016 BKN029 16/12 A2978 RMK CU4SC2 CUMULUS MEDIOCRIS SLP084=

CYXU;2005-06-17 15:00;METAR CYXU 171500Z 30008KT 15SM SCT023 BKN050 17/11 A2979 RMK CU4SC1 CUMULUS MEDIOCRIS SLP087=

CYXU;2005-06-17 16:00;METAR CYXU 171600Z 29013G19KT 15SM SCT029 SCT240 18/11 A2979 RMK CU4CC1 CUMULUS MEDIOCRIS SLP089=

CYXU;2005-06-17 17:00;METAR CYXU 171700Z 29011G17KT 15SM SCT032 BKN100 BKN240 19/11 A2980 RMK CU4AC1CI0 CUMULUS MEDIOCRIS SLP093=

CYXU;2005-06-17 18:00;METAR CYXU 171800Z 31011G17KT 15SM SCT034 SCT100 BKN240 18/10 A2982 RMK CU4AC1CI0 SLP098=

CYXU;2005-06-17 19:00;METAR CYXU 171900Z 29003KT 15SM BKN032 BKN240 18/10 A2983 RMK CU6CI1 SLP101=

CYXU;2005-06-17 20:00;METAR CYXU 172000Z 29012G17KT 15SM SCT032 BKN240 18/09 A2983 RMK CU4CI0 SLP101=

CYXU;2005-06-17 21:00;METAR CYXU 172100Z 29007G17KT 15SM FEW032 BKN240 18/09 A2983 RMK CU2CI0 SLP100=

CYXU;2005-06-17 22:00;METAR CYXU 172200Z 28011KT 15SM FEW032 FEW100 BKN240 18/10 A2983 RMK CU1AC1CI0 SLP103=

CYXU;2005-06-17 23:00;METAR CYXU 172300Z 29011KT 15SM SCT035 BKN240 17/10 A2984 RMK CU4CI0 SLP105=

CYXU;2005-06-18 01:00;METAR CYXU 180100Z 34006KT 15SM FEW035 BKN240 14/09 A2987 RMK SC1CI0 SLP116=

CYXU;2005-06-18 02:00;METAR CYXU 180200Z 32004KT 15SM FEW035 BKN240 14/10 A2988 RMK SC1CI0 CONTRAILS SLP119=

CYXU;2005-06-18 03:00;METAR CYXU 180300Z 31005KT 15SM FEW035 13/10 A2989 RMK SC1 SLP122=

CYXU;2005-06-18 04:00;METAR CYXU 180400Z 30005KT 15SM BKN110 13/10 A2990 RMK AC6 SLP125=

CYXU;2005-06-18 06:00;METAR CYXU 180600Z 29003KT 15SM BKN094 12/11 A2990 RMK AC6 SLP126=

CYXU;2005-06-18 07:00;METAR CYXU 180700Z 30005KT 15SM BKN053 OVC090 13/11 A2990 RMK SC6AC2 SLP126=

CYXU;2005-06-18 08:00;METAR CYXU 180800Z 31006KT 15SM BKN066 13/12 A2990 RMK AC6 SLP124=

CYXU;2005-06-18 09:00;METAR CYXU 180900Z 32003KT 15SM FEW010 BKN066 14/12 A2990 RMK SC2AC4 SLP126=

CYXU;2005-06-18 09:29;SPECI CYXU 180929Z 34005KT 15SM BKN010 14/ RMK SC7=

CYXU;2005-06-18 10:00;METAR CYXU 181000Z 34005KT 15SM OVC014 14/12 A2992 RMK SC7 SLP132=

CYXU;2005-06-18 11:00;METAR CYXU 181100Z 30004KT 15SM BKN014 14/13 A2994 RMK SC7 SLP138=

CYXU;2005-06-18 11:38;SPECI CYXU 181138Z 35006KT 15SM BKN015 15/ RMK SC7=

CYXU;2005-06-18 12:00;METAR CYXU 181200Z 36006KT 15SM BKN015 15/12 A2995 RMK SC6 SLP143=

CYXU;2005-06-18 13:00;METAR CYXU 181300Z 35008KT 15SM OVC016 16/12 A2997 RMK SC8 SLP149=

CYXU;2005-06-18 14:00;METAR CYXU 181400Z 35007KT 15SM OVC017 16/12 A2999 RMK SC8 SLP155=

CYXU;2005-06-18 15:00;METAR CYXU 181500Z 34008KT 15SM BKN018 17/12 A3000 RMK SC7 SLP161=

CYXU;2005-06-18 16:00;METAR CYXU 181600Z 01007KT 15SM BKN024 17/12 A3002 RMK SC7 CU ASOCTD SLP165=

CYXU;2005-06-18 18:00;METAR CYXU 181800Z 31006KT 15SM SCT029 BKN044 20/12 A3001 RMK CU4SC2 SLP163=

CYXU;2005-06-18 20:00;METAR CYXU 182000Z 30004KT 15SM FEW030 BKN040 19/13 A3002 RMK CU1SC6 SLP166=

CYXU;2005-06-18 21:00;METAR CYXU 182100Z 31003KT 15SM OVC038 19/13 A3003 RMK SC8 SLP169=

CYXU;2005-06-18 22:00;METAR CYXU 182200Z 07003KT 15SM OVC034 18/14 A3003 RMK SC8 SLP171=

CYXU;2005-06-18 23:00;METAR CYXU 182300Z 09006KT 15SM SCT035 OVC058 18/14 A3005 RMK CU3SC5 SLP176=

CYXU;2005-06-19 00:00;METAR CYXU 190000Z 09005KT 15SM SCT035 OVC060 17/14 A3007 RMK CU4SC4 SLP182=

CYXU;2005-06-19 01:36;SPECI CYXU 190136Z 09006KT 15SM FEW030TCU BKN067 RMK TCU2AC6=

CYXU;2005-06-19 02:00;METAR CYXU 190200Z 11006KT 15SM BKN013 BKN066 16/14 A3010 RMK SC5AC2 SLP194=

CYXU;2005-06-19 03:24;SPECI CYXU 190324Z 13003KT 15SM OVC018 RMK SC8=

CYXU;2005-06-19 04:00;METAR CYXU 190400Z 11003KT 15SM OVC020 16/13 A3013 RMK SC8 SLP203=

CYXU;2005-06-19 05:00;METAR CYXU 190500Z 09006KT 15SM BKN030 BKN060 15/12 A3014 RMK SC5SC2 SLP207=

CYXU;2005-06-19 06:00;METAR CYXU 190600Z 08002KT 15SM BKN032 14/12 A3015 RMK SC6 SLP210=

CYXU;2005-06-19 07:00;METAR CYXU 190700Z 07007KT 15SM BKN034 15/12 A3015 RMK SC7 SLP209=

CYXU;2005-06-19 08:00;METAR CYXU 190800Z 09005KT 15SM SCT034 14/12 A3014 RMK SC3 SLP206=

CYXU;2005-06-19 09:00;METAR CYXU 190900Z 00000KT 15SM FEW032 FEW052 12/11 A3015 RMK SC1SC1 SLP209=

CYXU;2005-06-19 10:00;METAR CYXU 191000Z 10003KT 15SM FEW032 FEW070 12/11 A3016 RMK SC1AC1 SHALLOW FOG OVR THRESHOLD 27 SLP214=

CYXU;2005-06-19 11:00;METAR CYXU 191100Z 03003KT 15SM FEW030 FEW070 13/12 A3019 RMK SC1AC2 SC TR SLP223=

CYXU;2005-06-19 12:00;METAR CYXU 191200Z 09006KT 15SM FEW020 FEW070 15/12 A3021 RMK CU1AC2 CU TR SLP231=

CYXU;2005-06-19 13:00;METAR CYXU 191300Z 10005KT 15SM FEW020 BKN044 16/12 A3023 RMK CU1SC6 CU TR SLP238=

CYXU;2005-06-19 14:00;METAR CYXU 191400Z 11007KT 15SM FEW024 BKN052 18/12 A3024 RMK CU2SC5 SLP239=

CYXU;2005-06-19 15:00;METAR CYXU 191500Z 11006KT 15SM SCT028 BKN055 18/11 A3024 RMK CU4SC2 SLP241=

CYXU;2005-06-19 16:00;METAR CYXU 191600Z 07005KT 15SM BKN032 BKN058 19/12 A3024 RMK CU6SC1 SLP242=

CYXU;2005-06-19 17:00;METAR CYXU 191700Z 08007KT 15SM BKN032 BKN048 18/11 A3025 RMK CU6SC1 SLP243=

CYXU;2005-06-19 18:00;METAR CYXU 191800Z 06003KT 15SM BKN034 BKN050 19/11 A3024 RMK CU5SC2 SLP242=

CYXU;2005-06-19 19:00;METAR CYXU 191900Z 07007KT 15SM BKN034 BKN047 20/11 A3024 RMK CU5SC2 SLP239=

CYXU;2005-06-19 21:00;METAR CYXU 192100Z 09009KT 15SM BKN043 20/12 A3023 RMK SC6 SLP237=

CYXU;2005-06-19 22:00;METAR CYXU 192200Z 06008KT 15SM BKN046 19/11 A3023 RMK SC7 SLP238=

CYXU;2005-06-19 23:00;METAR CYXU 192300Z 09009KT 15SM FEW046 FEW200 18/12 A3023 RMK SC2CI1 SLP237=

CYXU;2005-06-20 00:00;METAR CYXU 200000Z 10008KT 15SM FEW050 18/12 A3023 RMK SC1 SLP237=

CYXU;2005-06-20 03:00;METAR CYXU 200300Z 11005KT 15SM SKC 13/10 A3025 RMK SLP245=

CYXU;2005-06-20 04:00;METAR CYXU 200400Z 09002KT 15SM SKC 12/10 A3025 RMK SLP246=

CYXU;2005-06-20 05:00;METAR CYXU 200500Z 10003KT 15SM SKC 12/10 A3025 RMK SLP245=

CYXU;2005-06-20 09:00;METAR CYXU 200900Z 07002KT 12SM FEW240 10/09 A3024 RMK CI1 TR CI SLP242=

CYXU;2005-06-20 10:00;METAR CYXU 201000Z 00000KT 12SM FEW240 10/08 A3025 RMK CI0 MIST SLP246=

CYXU;2005-06-20 11:00;METAR CYXU 201100Z 07002KT 12SM FEW240 11/09 A3027 RMK CI1 MIST SLP250=

CYXU;2005-06-20 12:00;METAR CYXU 201200Z 06002KT 15SM FEW250 15/11 A3028 RMK CI2 SLP254=

CYXU;2005-06-20 13:00;METAR CYXU 201300Z 10003KT 15SM SCT250 17/11 A3027 RMK CI2 SLP251=

CYXU;2005-06-20 14:00;METAR CYXU 201400Z 09003KT 15SM FEW024 BKN250 18/12 A3027 RMK CU1CI2 CU TR SLP250=

CYXU;2005-06-20 15:00;METAR CYXU 201500Z 34002KT 15SM FEW024 BKN250 19/12 A3025 RMK CU1CI4 SLP243=

CYXU;2005-06-20 16:00;METAR CYXU 201600Z 33002KT 15SM FEW028 BKN250 20/12 A3025 RMK CU1CI3 CU TR SLP245=

CYXU;2005-06-20 17:00;METAR CYXU 201700Z 05002KT 15SM FEW034 BKN250 21/13 A3025 RMK CU1CI2 CU TR SLP243=

CYXU;2005-06-20 18:00;METAR CYXU 201800Z 21003KT 15SM FEW040 BKN250 22/13 A3023 RMK CU1CI2 CU TR SLP238=

CYXU;2005-06-20 19:00;METAR CYXU 201900Z 00000KT 15SM FEW040 BKN250 24/13 A3021 RMK CU1CI1 SLP230=

CYXU;2005-06-20 20:00;METAR CYXU 202000Z 28003KT 15SM FEW040 BKN250 24/14 A3019 RMK CU1CI1 SLP223=

CYXU;2005-06-20 21:00;METAR CYXU 202100Z 33004KT 15SM BKN250 25/13 A3017 RMK CI2 SLP214=

CYXU;2005-06-20 22:00;METAR CYXU 202200Z 36004KT 15SM BKN250 25/13 A3013 RMK CI3 SLP204=

CYXU;2005-06-20 23:00;METAR CYXU 202300Z 02003KT 15SM BKN250 24/13 A3012 RMK CI5 SLP199=

CYXU;2005-06-21 00:00;METAR CYXU 210000Z 36004KT 15SM BKN250 25/13 A3013 RMK CI2 SLP201=

CYXU;2005-06-21 01:00;METAR CYXU 210100Z 00000KT 15SM BKN250 21/14 A3013 RMK CI2 SLP201=

CYXU;2005-06-21 02:00;METAR CYXU 210200Z 21005KT 15SM FEW250 19/12 A3013 RMK CI2 SLP203=

CYXU;2005-06-21 03:00;METAR CYXU 210300Z 22002KT 15SM FEW250 18/12 A3014 RMK CI1 SLP205=

CYXU;2005-06-21 04:00;METAR CYXU 210400Z 00000KT 15SM FEW250 17/12 A3013 RMK CI1 SLP204=

CYXU;2005-06-21 05:00;METAR CYXU 210500Z 00000KT 15SM FEW250 15/12 A3012 RMK CI1 SLP200=

CYXU;2005-06-21 06:00;METAR CYXU 210600Z 20002KT 15SM SKC 14/12 A3011 RMK SLP196=

CYXU;2005-06-21 07:00;METAR CYXU 210700Z 16002KT 15SM SKC 13/12 A3008 RMK SLP185=

CYXU;2005-06-21 08:00;METAR CYXU 210800Z 27003KT 15SM SKC 14/12 A3007 RMK SLP182=

CYXU;2005-06-21 09:00;METAR CYXU 210900Z 00000KT 15SM SKC 13/11 A3007 RMK SLP182=

CYXU;2005-06-21 10:00;METAR CYXU 211000Z 00000KT 10SM SCT250 12/11 A3008 RMK CI2 SHALLOW MIST E-SE SLP186=

CYXU;2005-06-21 12:00;METAR CYXU 211200Z 25004KT 15SM SCT250 18/13 A3008 RMK CI2 SLP182=

CYXU;2005-06-21 13:00;METAR CYXU 211300Z 26007KT 15SM BKN250 21/13 A3007 RMK CI2 SLP181=

CYXU;2005-06-21 14:00;METAR CYXU 211400Z 25007KT 15SM BKN250 22/15 A3006 RMK CI3 CC ASOCTD SLP175=

CYXU;2005-06-21 15:00;METAR CYXU 211500Z 26007KT 15SM FEW120 BKN250 24/15 A3003 RMK ACC1CI5 ACC NW SLP168=

CYXU;2005-06-21 16:00;METAR CYXU 211600Z 24009KT 15SM FEW040 FEW120 BKN250 25/15 A3003 RMK CU1ACC1CI6 ACC NW/CU TR SLP167=

CYXU;2005-06-21 17:00;METAR CYXU 211700Z 27007KT 15SM FEW040 FEW120 OVC250 25/15 A3004 RMK CU1ACC1CI6 ACC NW SLP169=

CYXU;2005-06-21 19:00;METAR CYXU 211900Z 30008KT 15SM BKN052 BKN250 27/15 A3001 RMK SC6CI1 ACC NW SLP160=

CYXU;2005-06-21 20:23;SPECI CYXU 212023Z 31005KT 15SM -SHRA FEW025TCU OVC053 24/ RMK TCU2SC6=

CYXU;2005-06-21 21:00;METAR CYXU 212100Z 32006KT 15SM -SHRA FEW024 OVC053 21/17 A3000 RMK SF2SC6 TCU ASOCTD SLP159=

CYXU;2005-06-21 22:00;METAR CYXU 212200Z 29006KT 10SM -SHRA FEW018 OVC047 20/17 A2999 RMK SF2SC6 TCU ASOCTD SLP155=

CYXU;2005-06-21 23:00;METAR CYXU 212300Z 23004KT 10SM -SHRA BKN043 BKN080 19/17 A2997 RMK SC6AC2 TCU ASOCTD SLP149=

CYXU;2005-06-21 23:28;SPECI CYXU 212328Z 00000KT 15SM BKN057 BKN080 19/ RMK SC6AC1 TCU ASOCTD=

CYXU;2005-06-22 00:00;METAR CYXU 220000Z 02002KT 15SM BKN047 OVC130 19/17 A2997 RMK SC6AC2 SLP149=

CYXU;2005-06-22 01:00;METAR CYXU 220100Z 00000KT 10SM SCT045 BKN140 19/17 A2997 RMK SC4AC1 SLP148=

CYXU;2005-06-22 02:00;METAR CYXU 220200Z 32002KT 8SM BKN044 19/17 A2999 RMK SC7 SLP154=

CYXU;2005-06-22 03:00;METAR CYXU 220300Z 31003KT 8SM FEW036 18/17 A3000 RMK SC2 SLP157=

CYXU;2005-06-22 04:00;METAR CYXU 220400Z 32003KT 10SM SKC 18/16 A2999 RMK SLP154=

CYXU;2005-06-22 05:00;METAR CYXU 220500Z 29003KT 10SM SKC 17/15 A2998 RMK SLP151=

CYXU;2005-06-22 06:00;METAR CYXU 220600Z 32006KT 8SM SKC 17/15 A2998 RMK SLP150=

CYXU;2005-06-22 08:00;METAR CYXU 220800Z 31006KT 15SM SKC 15/12 A2997 RMK SLP146=

CYXU;2005-06-22 09:00;METAR CYXU 220900Z 32005KT 15SM FEW100 14/11 A2998 RMK AC1 TR AC SLP151=

CYXU;2005-06-22 10:00;METAR CYXU 221000Z 34007KT 15SM FEW100 14/11 A3000 RMK AC1 TR AC SLP159=

CYXU;2005-06-22 12:00;METAR CYXU 221200Z 02006KT 15SM FEW082 16/13 A3004 RMK AC1 TR AC SLP171=

CYXU;2005-06-22 13:00;METAR CYXU 221300Z 04007KT 15SM BKN035 19/14 A3007 RMK SC5 SLP181=

CYXU;2005-06-22 14:00;METAR CYXU 221400Z 06007KT 15SM BKN042 20/14 A3009 RMK SC5 OBS TAKEN +10 SLP188=

CYXU;2005-06-22 15:00;METAR CYXU 221500Z 04009G15KT 15SM FEW042 SCT240 22/14 A3010 RMK SC2CI0 SLP192=

CYXU;2005-06-22 16:00;METAR CYXU 221600Z 05010KT 15SM FEW045 FEW240 23/11 A3012 RMK CU2CI0 CUMULUS HUMILIS SLP197=

CYXU;2005-06-22 17:00;METAR CYXU 221700Z 03008G15KT 15SM FEW053 23/11 A3013 RMK CU2 CUMULUS HUMILIS SLP199=

CYXU;2005-06-22 18:00;METAR CYXU 221800Z 34008KT 15SM FEW056 25/10 A3012 RMK CU2 CUMULUS HUMILIS SLP196=

CYXU;2005-06-22 19:00;METAR CYXU 221900Z 36008KT 15SM FEW060 25/09 A3011 RMK CU2 SLP194=

CYXU;2005-06-22 20:00;METAR CYXU 222000Z 36010KT 15SM FEW060 25/09 A3011 RMK CU2 SLP193=

CYXU;2005-06-22 21:00;METAR CYXU 222100Z 02010KT 15SM FEW060 25/07 A3010 RMK CU1 SLP191=

CYXU;2005-06-22 22:00;METAR CYXU 222200Z 01006KT 15SM FEW060 25/04 A3010 RMK CU1 SLP190=

CYXU;2005-06-22 23:00;METAR CYXU 222300Z 35009KT 15SM SKC 24/05 A3012 RMK SLP197=

CYXU;2005-06-23 00:00;METAR CYXU 230000Z 36008KT 15SM SKC 23/05 A3012 RMK SLP199=

CYXU;2005-06-23 02:00;METAR CYXU 230200Z 36006KT 15SM FEW300 18/08 A3015 RMK CI1 SLP208=

CYXU;2005-06-23 03:00;METAR CYXU 230300Z 35006KT 15SM SKC 17/08 A3017 RMK SLP215=

CYXU;2005-06-23 04:00;METAR CYXU 230400Z 03005KT 15SM SKC 15/08 A3017 RMK SLP215=

CYXU;2005-06-23 05:00;METAR CYXU 230500Z 03004KT 15SM SKC 14/08 A3017 RMK SLP214=

CYXU;2005-06-23 06:00;METAR CYXU 230600Z 07003KT 15SM SKC 13/08 A3016 RMK SLP212=

CYXU;2005-06-23 07:00;METAR CYXU 230700Z 07003KT 15SM FEW250 13/08 A3015 RMK CI1 SLP209=

CYXU;2005-06-23 08:00;METAR CYXU 230800Z 09004KT 15SM FEW250 12/08 A3015 RMK CI2 SLP209=

CYXU;2005-06-23 09:00;METAR CYXU 230900Z 07002KT 15SM FEW250 11/07 A3016 RMK CI1 SLP212=

CYXU;2005-06-23 10:00;METAR CYXU 231000Z 09004KT 15SM FEW250 11/08 A3017 RMK CI1 SLP214=

CYXU;2005-06-23 11:00;METAR CYXU 231100Z 13002KT 15SM FEW250 12/09 A3017 RMK CI1 SLP215=

CYXU;2005-06-23 12:00;METAR CYXU 231200Z 14004KT 15SM FEW250 15/11 A3017 RMK CI1 SLP216=

CYXU;2005-06-23 13:00;METAR CYXU 231300Z 20007KT 15SM FEW250 19/15 A3018 RMK CI1 SLP218=

CYXU;2005-06-23 14:00;METAR CYXU 231400Z 21008KT 15SM FEW250 21/14 A3017 RMK CI1 SLP214=

CYXU;2005-06-23 15:00;METAR CYXU 231500Z 24008KT 15SM FEW040 FEW250 22/13 A3017 RMK CF1CI2 SLP215=

CYXU;2005-06-23 16:00;METAR CYXU 231600Z 27008KT 15SM FEW040 SCT220 24/12 A3016 RMK CF1CI2 SLP211=

CYXU;2005-06-23 17:00;METAR CYXU 231700Z 23006KT 15SM SCT220 25/10 A3015 RMK CI2 SLP209=

CYXU;2005-06-23 18:00;METAR CYXU 231800Z 25008KT 15SM BKN220 25/09 A3013 RMK CI2 SLP203=

CYXU;2005-06-23 19:00;METAR CYXU 231900Z 28011KT 15SM BKN250 26/09 A3013 RMK CI4 SLP201=

CYXU;2005-06-23 20:00;METAR CYXU 232000Z 24008KT 15SM FEW180 BKN280 25/13 A3010 RMK AC2CI2 SLP193=

CYXU;2005-06-23 21:00;METAR CYXU 232100Z 18012KT 15SM FEW180 BKN250 25/12 A3009 RMK AC2CI2 SLP187=

CYXU;2005-06-23 22:00;METAR CYXU 232200Z 19010KT 15SM FEW180 BKN250 24/10 A3008 RMK AC2CI2 SLP186=

CYXU;2005-06-23 23:00;METAR CYXU 232300Z 20010KT 15SM FEW180 BKN250 23/07 A3007 RMK AC2CI3 SLP182=

CYXU;2005-06-24 00:00;METAR CYXU 240000Z 21006KT 15SM FEW200 BKN300 22/07 A3007 RMK CI2CS2 SLP181=

CYXU;2005-06-24 01:00;METAR CYXU 240100Z 16004KT 15SM BKN250 19/08 A3009 RMK CS2 SLP187=

CYXU;2005-06-24 02:00;METAR CYXU 240200Z 18005KT 15SM SCT250 17/09 A3009 RMK CI2 SLP188=

CYXU;2005-06-24 03:00;METAR CYXU NIL=

CYXU;2005-06-24 04:00;METAR CYXU 240400Z 17005KT 15SM FEW250 16/12 A3006 RMK CI0 SLP178=

CYXU;2005-06-24 05:00;METAR CYXU 240500Z 18004KT 15SM FEW250 16/13 A3006 RMK CI0 SLP177=

CYXU;2005-06-24 06:00;METAR CYXU 240600Z 18004KT 15SM SKC 16/13 A3006 RMK SLP177=

CYXU;2005-06-24 09:00;METAR CYXU 240900Z 16003KT 15SM FEW250 16/14 A3007 RMK CI0 SLP181=

CYXU;2005-06-24 10:00;METAR CYXU 241000Z 21005KT 15SM SCT250 17/14 A3007 RMK CI1 SLP179=

CYXU;2005-06-24 11:00;METAR CYXU 241100Z 22006KT 15SM FEW250 20/14 A3006 RMK CI1 SLP178=

CYXU;2005-06-24 12:00;METAR CYXU 241200Z 22007KT 15SM FEW250 22/14 A3006 RMK CI1 SLP177=

CYXU;2005-06-24 13:00;METAR CYXU 241300Z 22008KT 15SM FEW036 FEW080 24/15 A3006 RMK CU1AC1 SLP175=

CYXU;2005-06-24 14:00;METAR CYXU 241400Z 22009G15KT 15SM FEW040 26/17 A3005 RMK CU1 SLP173=

CYXU;2005-06-24 15:00;METAR CYXU 241500Z 22011KT 15SM FEW250 29/18 A3003 RMK CI0 SLP167=

CYXU;2005-06-24 16:00;METAR CYXU 241600Z 26010G15KT 12SM FEW250 30/20 A3004 RMK CI1 SLP168=

CYXU;2005-06-24 17:00;METAR CYXU 241700Z 26008KT 12SM FEW042 30/20 A3004 RMK CU1 SLP168=

CYXU;2005-06-24 18:00;METAR CYXU 241800Z 23009G16KT 12SM FEW042 30/20 A3002 RMK CU1 SLP163=

CYXU;2005-06-24 19:00;METAR CYXU 241900Z 18013KT 10SM FEW045 31/20 A3001 RMK CU2 SLP160=

CYXU;2005-06-24 20:00;METAR CYXU 242000Z 18014KT 12SM FEW050 31/19 A3001 RMK CU2 SLP160=

CYXU;2005-06-24 21:00;METAR CYXU 242100Z 20013KT 12SM FEW050 30/19 A3000 RMK CU1 SLP156=

CYXU;2005-06-24 22:00;METAR CYXU 242200Z 20011G16KT 12SM SKC 30/19 A2999 RMK SLP152=

CYXU;2005-06-24 23:00;METAR CYXU 242300Z 19013KT 12SM SKC 30/19 A3000 RMK SLP154=

CYXU;2005-06-25 00:00;METAR CYXU 250000Z 22010KT 15SM SKC 28/18 A3000 RMK SLP154=

CYXU;2005-06-25 01:00;METAR CYXU 250100Z 20010KT 15SM SKC 27/18 A3000 RMK SLP152=

CYXU;2005-06-25 02:00;METAR CYXU 250200Z 21008KT 15SM SKC 26/19 A3001 RMK SLP157=

CYXU;2005-06-25 03:00;METAR CYXU 250300Z 21008KT 15SM SKC 25/19 A3002 RMK SLP161=

CYXU;2005-06-25 04:00;METAR CYXU 250400Z 21007KT 15SM SKC 25/18 A3003 RMK SLP165=

CYXU;2005-06-25 06:00;METAR CYXU 250600Z 20006KT 10SM FEW072 24/17 A3002 RMK AC2 SLP159=

CYXU;2005-06-25 07:00;METAR CYXU 250700Z 21008KT 10SM FEW068 24/17 A3001 RMK AC2 SLP156=

CYXU;2005-06-25 08:00;METAR CYXU 250800Z 23006KT 10SM SKC 24/17 A3000 RMK SLP153=

CYXU;2005-06-25 10:00;METAR CYXU 251000Z 22005KT 6SM HZ OVC250 22/17 A3000 RMK CI1 SLP155=

CYXU;2005-06-25 11:00;METAR CYXU 251100Z 22003KT 6SM HZ OVC250 22/18 A3002 RMK CI1 SLP160=

CYXU;2005-06-25 12:00;METAR CYXU 251200Z 25007KT 6SM HZ OVC250 25/19 A3003 RMK CI1 SLP163=

CYXU;2005-06-25 13:00;METAR CYXU 251300Z 28006KT 6SM HZ OVC250 26/20 A3004 RMK CI1 SLP166=

CYXU;2005-06-25 14:00;METAR CYXU 251400Z 26004KT 6SM HZ OVC270 28/20 A3004 RMK CI1 SLP167=

CYXU;2005-06-25 15:00;METAR CYXU 251500Z 29007KT 6SM HZ OVC270 29/20 A3005 RMK CI1 SLP170=

CYXU;2005-06-25 16:00;METAR CYXU 251600Z 27007KT 6SM HZ FEW180 OVC270 30/21 A3005 RMK AC1CI1 AC TR SLP170=

CYXU;2005-06-25 17:00;METAR CYXU 251700Z 29009KT 6SM HZ BKN070TCU OVC270 30/21 A3007 RMK TCU5CI1 SLP175=

CYXU;2005-06-25 18:00;METAR CYXU 251800Z 30009KT 6SM HZ BKN070 OVC270 30/20 A3007 RMK CU6CI1 SLP177=

CYXU;2005-06-25 19:00;METAR CYXU 251900Z 31007KT 6SM HZ FEW070TCU BKN200 30/21 A3007 RMK TCU1CI2 SLP175=

CYXU;2005-06-25 20:00;METAR CYXU 252000Z 31006KT 6SM HZ SCT220 30/20 A3006 RMK CI2 PSBL CB TOPS DIST S SLP173=

CYXU;2005-06-25 21:00;METAR CYXU 252100Z 30010KT 6SM HZ SCT220 30/20 A3007 RMK CI1 SLP175=

CYXU;2005-06-25 22:00;METAR CYXU 252200Z 32006KT 12SM SCT220 30/18 A3006 RMK CI1 SLP173=

CYXU;2005-06-26 00:00;METAR CYXU 260000Z 32003KT 15SM SCT270 29/15 A3008 RMK CI1 SLP180=

CYXU;2005-06-26 01:00;METAR CYXU 260100Z 29002KT 15SM FEW140 BKN270 26/14 A3008 RMK AC1CI0 SLP179=

CYXU;2005-06-26 02:00;METAR CYXU 260200Z 33003KT 15SM FEW140 FEW270 24/15 A3010 RMK AC1CI1 SLP187=

CYXU;2005-06-26 03:00;METAR CYXU 260300Z 02004KT 15SM SKC 23/13 A3011 RMK SLP190=

CYXU;2005-06-26 04:00;METAR CYXU 260400Z 04004KT 15SM SKC 22/12 A3011 RMK SLP191=

CYXU;2005-06-26 05:00;METAR CYXU 260500Z 00000KT 15SM SKC 20/12 A3010 RMK SLP189=

CYXU;2005-06-26 06:00;METAR CYXU 260600Z 07002KT 15SM SKC 20/12 A3012 RMK SLP195=

CYXU;2005-06-26 08:00;METAR CYXU 260800Z 09002KT 15SM FEW080 17/12 A3013 RMK AC2 SLP199=

CYXU;2005-06-26 10:00;METAR CYXU 261000Z 08003KT 15SM FEW045 FEW070 BKN270 19/10 A3015 RMK CF1AC1CI1 SLP205=

CYXU;2005-06-26 11:00;METAR CYXU 261100Z 16004KT 12SM FEW250 17/15 A3014 RMK CI1 SLP206=

CYXU;2005-06-26 13:00;METAR CYXU 261300Z 06006KT 15SM FEW270 23/11 A3017 RMK CI1 SLP213=

CYXU;2005-06-26 14:00;METAR CYXU 261400Z 08004KT 15SM SCT270 25/12 A3018 RMK CI1 SLP214=

CYXU;2005-06-26 15:00;METAR CYXU 261500Z 36003KT 15SM FEW060TCU FEW270 27/13 A3018 RMK TCU1CI1 SLP216=

CYXU;2005-06-26 16:00;METAR CYXU 261600Z 01002KT 15SM FEW270 28/13 A3017 RMK CI1 SLP212=

CYXU;2005-06-26 17:00;METAR CYXU 261700Z 00000KT 15SM FEW270 30/13 A3016 RMK CI2 SLP209=

CYXU;2005-06-26 18:00;METAR CYXU 261800Z 35003KT 15SM BKN160 30/15 A3016 RMK AC6 SLP207=

CYXU;2005-06-26 19:00;METAR CYXU 261900Z 36003KT 15SM BKN150 30/17 A3015 RMK AC5 SLP204=

CYXU;2005-06-26 20:00;METAR CYXU 262000Z 28002KT 15SM BKN160 31/16 A3014 RMK AC6 SLP201=

CYXU;2005-06-26 21:00;METAR CYXU 262100Z 29004KT 15SM SCT170 31/17 A3013 RMK AC4 SLP199=

CYXU;2005-06-26 22:00;METAR CYXU 262200Z 32002KT 15SM FEW260 31/17 A3013 RMK CI1 SLP197=

CYXU;2005-06-26 23:00;METAR CYXU 262300Z 33005KT 15SM SKC 31/17 A3013 RMK SLP198=

CYXU;2005-06-27 00:00;METAR CYXU 270000Z 01002KT 15SM SKC 30/17 A3013 RMK SLP199=

CYXU;2005-06-27 01:00;METAR CYXU 270100Z 00000KT 15SM FEW260 27/17 A3014 RMK CI1 SLP202=

CYXU;2005-06-27 02:00;METAR CYXU 270200Z 08002KT 15SM SKC 25/18 A3015 RMK SLP204=

CYXU;2005-06-27 03:00;METAR CYXU 270300Z 16002KT 15SM SKC 23/18 A3016 RMK SLP208=

CYXU;2005-06-27 04:00;METAR CYXU 270400Z 00000KT 15SM SKC 23/17 A3016 RMK SLP209=

CYXU;2005-06-27 06:00;METAR CYXU 270600Z 00000KT 15SM SKC 21/18 A3016 RMK SLP209=

CYXU;2005-06-27 07:00;METAR CYXU 270700Z 00000KT 15SM SKC 20/17 A3016 RMK SLP208=

CYXU;2005-06-27 08:00;METAR CYXU 270800Z 07002KT 15SM SKC 20/17 A3015 RMK SLP206=

CYXU;2005-06-27 09:00;METAR CYXU 270900Z 06002KT 15SM SKC 20/17 A3015 RMK SLP206=

CYXU;2005-06-27 10:00;METAR CYXU 271000Z 07003KT 6SM HZ FEW270 19/16 A3017 RMK CI1 SLP211=

CYXU;2005-06-27 11:00;METAR CYXU 271100Z 08003KT 6SM HZ FEW270 21/16 A3017 RMK CI1 SLP213=

CYXU;2005-06-27 12:00;METAR CYXU 271200Z 09004KT 8SM SKC 23/16 A3019 RMK SLP217=

CYXU;2005-06-27 13:00;METAR CYXU 271300Z 12003KT 10SM SKC 26/17 A3019 RMK SLP218=

CYXU;2005-06-27 14:00;METAR CYXU 271400Z 15004KT 10SM SKC 28/19 A3019 RMK SLP219=

CYXU;2005-06-27 15:00;METAR CYXU 271500Z 16007KT 10SM SKC 30/19 A3018 RMK SLP215=

CYXU;2005-06-27 16:00;METAR CYXU 271600Z 16004KT 10SM FEW270 32/19 A3018 RMK CI1 SLP214=

CYXU;2005-06-27 17:00;METAR CYXU 271700Z 14004KT 10SM FEW060 OVC270 32/18 A3017 RMK CU1CI1 SLP211=

CYXU;2005-06-27 18:00;METAR CYXU 271800Z 13006KT 10SM FEW065 BKN270 32/19 A3015 RMK CU1CI1 SLP205=

CYXU;2005-06-27 19:00;METAR CYXU 271900Z 14006KT 8SM FEW065 BKN270 33/19 A3014 RMK CU2CI0 SLP200=

CYXU;2005-06-27 20:00;METAR CYXU 272000Z 16011KT 8SM FEW065 BKN200 33/19 A3013 RMK CU2CI2 SLP198=

CYXU;2005-06-27 21:00;METAR CYXU 272100Z 16009KT 6SM HZ FEW065 BKN200 32/19 A3012 RMK CU1CI2 SLP194=

CYXU;2005-06-27 22:00;METAR CYXU 272200Z 18007KT 6SM HZ BKN200 31/18 A3010 RMK CI3 SLP189=

CYXU;2005-06-27 23:00;METAR CYXU 272300Z 17008KT 5SM HZ BKN200 30/19 A3010 RMK CI4 SLP187=

CYXU;2005-06-28 00:00;METAR CYXU 280000Z 16006KT 5SM HZ BKN200 29/20 A3010 RMK CI4 SLP187=

CYXU;2005-06-28 01:00;METAR CYXU 280100Z 16004KT 3SM HZ SCT150 BKN220 27/19 A3009 RMK AC3CI1 SLP185=

CYXU;2005-06-28 02:00;METAR CYXU 280200Z 14003KT 4SM HZ FEW150 BKN220 26/19 A3010 RMK AC2CI2 SLP188=

CYXU;2005-06-28 03:00;METAR CYXU 280300Z 14003KT 4SM HZ BKN220 25/19 A3009 RMK CI4 SLP184=

CYXU;2005-06-28 04:00;METAR CYXU 280400Z 12002KT 4SM HZ FEW220 25/19 A3009 RMK CI2 SLP184=

CYXU;2005-06-28 05:00;METAR CYXU 280500Z 15005KT 4SM HZ SKC 24/18 A3008 RMK SLP179=

CYXU;2005-06-28 06:00;METAR CYXU 280600Z 17005KT 4SM HZ SKC 23/18 A3006 RMK SLP174=

CYXU;2005-06-28 07:00;METAR CYXU 280700Z 17003KT 4SM HZ FEW250 23/18 A3005 RMK CI2 SLP171=

CYXU;2005-06-28 08:00;METAR CYXU 280800Z 16003KT 4SM HZ BKN200 23/18 A3004 RMK CI5 SLP168=

CYXU;2005-06-28 09:00;METAR CYXU 280900Z 15002KT 5SM HZ BKN200 23/18 A3004 RMK CI6 SLP166=

CYXU;2005-06-28 09:49;SPECI CYXU 280949Z 09003KT 3SM HZ SCT190 22/ RMK AC3=

CYXU;2005-06-28 10:00;METAR CYXU 281000Z 09003KT 2 1/2SM HZ SCT190 21/18 A3004 RMK HZ1AC3 SLP167=

CYXU;2005-06-28 11:00;METAR CYXU 281100Z 11003KT 2 1/2SM HZ SCT190 22/19 A3004 RMK HZ1AC3 SLP168=

CYXU;2005-06-28 12:00;METAR CYXU 281200Z 13005KT 2 1/2SM HZ SCT190 24/20 A3004 RMK HZ1AC2 SLP167=

CYXU;2005-06-28 12:28;SPECI CYXU 281228Z 14006KT 3SM HZ FEW190 25/ RMK AC2=

CYXU;2005-06-28 13:00;METAR CYXU 281300Z 14007KT 3SM HZ BKN200 26/20 A3003 RMK CC3 SLP162=

CYXU;2005-06-28 14:00;METAR CYXU 281400Z 16007KT 4SM HZ BKN200 27/20 A3002 RMK CC2 SLP160=

CYXU;2005-06-28 15:00;METAR CYXU 281500Z 18009KT 5SM HZ BKN200 28/20 A3002 RMK CC3 SLP161=

CYXU;2005-06-28 16:00;METAR CYXU 281600Z 22010KT 8SM BKN240 30/19 A3002 RMK CI3 HAZE SLP161=

CYXU;2005-06-28 17:00;METAR CYXU 281700Z 19011KT 15SM BKN240 30/18 A3002 RMK CI2 HAZE SLP159=

CYXU;2005-06-28 18:00;METAR CYXU 281800Z 21008G17KT 15SM FEW040 BKN240 31/20 A3000 RMK CU1CI2 TCU ASOCTD SLP154=

CYXU;2005-06-28 19:00;METAR CYXU 281900Z 27010KT 15SM FEW045 BKN240 31/20 A2997 RMK CU2CI1 TCU ASOCTD VIRGA SLP142=

CYXU;2005-06-28 19:10;SPECI CYXU 281910Z 27009KT 12SM TS SCT045CB BKN240 RMK CB3CI1 VIRGA=

CYXU;2005-06-28 19:48;SPECI CYXU 281948Z 20011G21KT 12SM -TSRA BKN045CB BKN240 RMK CB6CI1 LTGCG=

CYXU;2005-06-28 20:00;METAR CYXU 282000Z 20008KT 12SM -TSRA SCT045CB BKN170 BKN240 25/18 A2997 RMK CB4AC2CI1 LTGCG SLP141=

CYXU;2005-06-28 20:22;SPECI CYXU 282022Z 21005KT 8SM SCT045TCU BKN170 BKN240 26/ RMK TCU4AC2CI1 VIRGA=

CYXU;2005-06-28 21:00;METAR CYXU 282100Z 27004KT 8SM SCT050TCU BKN170 BKN240 29/20 A2995 RETS RMK TCU3AC2CI1 HZ SLP136=

CYXU;2005-06-28 22:00;METAR CYXU 282200Z 34006KT 8SM FEW050 BKN170 BKN240 30/19 A2996 RMK CU2AC3CI2 HZ SLP138=

CYXU;2005-06-28 23:00;METAR CYXU 282300Z 26003KT 12SM FEW050 SCT170 BKN220 28/18 A2997 RMK CU1AC2CI2 SLP141=

CYXU;2005-06-29 00:00;METAR CYXU 290000Z 27003KT 12SM SCT095 SCT120 BKN200 27/18 A2998 RMK AC3AC1CI2 SLP147=

CYXU;2005-06-29 01:00;METAR CYXU 290100Z 31003KT 8SM SCT120 BKN200 25/19 A2997 RMK AC3CI1 SLP145=

CYXU;2005-06-29 02:00;METAR CYXU 290200Z 19004KT 8SM BKN090 24/19 A2999 RMK AC6 LTNG DSNT W SLP149=

CYXU;2005-06-29 03:00;METAR CYXU 290300Z 27006KT 8SM FEW090 BKN170 23/19 A2997 RMK AC2AC5 SLP145=

CYXU;2005-06-29 04:00;METAR CYXU 290400Z 31004KT 8SM FEW040 SCT090 BKN200 23/18 A2998 RMK SC1AC2CI3 SLP148=

CYXU;2005-06-29 05:00;METAR CYXU 290500Z 30002KT 8SM BKN220 22/18 A2997 RMK CI4 SLP145=

CYXU;2005-06-29 06:00;METAR CYXU 290600Z 31004KT 8SM BKN110 OVC200 22/19 A2998 RMK AC6CI2 SLP147=

CYXU;2005-06-29 07:00;METAR CYXU 290700Z 27003KT 6SM HZ BKN120 21/19 A2998 RMK AC6 SLP145=

CYXU;2005-06-29 09:00;METAR CYXU 290900Z 30003KT 6SM HZ SCT050 BKN120 21/18 A3000 RMK SC3AC2 SLP152=

CYXU;2005-06-29 09:41;SPECI CYXU 290941Z 00000KT 2 1/2SM HZ FEW050 BKN150 21/ RMK HZ1SC1AC2=

CYXU;2005-06-29 10:00;METAR CYXU 291000Z 00000KT 2 1/2SM HZ FEW065 BKN180 20/18 A3000 RMK HZ1AC1AC2 SLP154=

CYXU;2005-06-29 11:00;METAR CYXU 291100Z 27005KT 2 1/2SM HZ BKN160 21/19 A3001 RMK HZ1AC4 SLP156=

CYXU;2005-06-29 12:00;METAR CYXU 291200Z 01003KT 3SM HZ BKN160 22/19 A3001 RMK AC3 VIS EAST 21/2SM SLP157=

CYXU;2005-06-29 13:00;METAR CYXU 291300Z 31002KT 5SM HZ BKN180 24/19 A3001 RMK AC3 SLP159=

CYXU;2005-06-29 14:00;METAR CYXU 291400Z 31002KT 8SM OVC240 25/19 A3001 RMK CI5 HAZE / CC ASOCTD SLP159=

CYXU;2005-06-29 15:00;METAR CYXU 291500Z 28003KT 8SM OVC240 27/18 A3001 RMK CI6 HAZE SLP156=

CYXU;2005-06-29 16:00;METAR CYXU 291600Z 29002KT 12SM OVC240 28/17 A3001 RMK CI7 HAZE/OB TAKEN=

CYXU;2005-06-29 17:00;METAR CYXU 291700Z 32006KT 15SM FEW052 OVC240 29/16 A3001 RMK CU1CI6 SLP157=

CYXU;2005-06-29 18:00;METAR CYXU 291800Z 32004KT 15SM FEW052 OVC240 30/17 A3000 RMK CU2CI6 HAZE/CUMULUS MEDIOCRIS SLP154=

CYXU;2005-06-29 19:00;METAR CYXU 291900Z 36003KT 15SM FEW052 BKN210 30/16 A2999 RMK CU2CI2 SLP149=

CYXU;2005-06-30 17:45;SPECI CYXU 301745Z 21011KT 10SM SCT040TCU BKN240 30/ RMK TCU3CI1 CB TOPS VIS SW-W=

CYXU;2005-06-30 18:36;SPECI CYXU 301836Z 22011KT 10SM -SHRA BKN040TCU OVC240 29/ RMK TCU5CI2 CB ASOCTD NW/HAZE=

CYXU;2005-06-30 21:15;SPECI CYXU 302115Z 24004KT 10SM SCT040 BKN150 OVC210 25/ RMK SC4AC2CI1=

CYXU;2005-07-01 01:00;METAR CYXU 010100Z 19008KT 10SM FEW170 BKN210 23/19 A2979 RMK AC1CI4 SLP083=

CYXU;2005-07-01 02:00;METAR CYXU 010200Z 22009KT 15SM FEW170 SCT210 23/19 A2979 RMK AC1CI2 SLP084=

CYXU;2005-07-01 03:00;METAR CYXU 010300Z 21006KT 15SM SCT210 22/18 A2978 RMK CI3 SLP079=

CYXU;2005-07-01 04:00;METAR CYXU 010400Z 20007KT 15SM FEW210 21/18 A2977 RMK CI2 SLP075=

CYXU;2005-07-01 05:00;METAR CYXU 010500Z 20008KT 15SM SCT210 21/19 A2975 RMK CI2 SLP070=

CYXU;2005-07-01 06:00;METAR CYXU 010600Z 21009KT 15SM FEW055 BKN210 22/19 A2973 RMK SC2CI2 SLP063=

CYXU;2005-07-01 08:00;METAR CYXU 010800Z 23009KT 15SM BKN210 22/19 A2970 RMK CS2 SLP052=

CYXU;2005-07-01 09:00;METAR CYXU 010900Z 24007KT 15SM BKN230 22/18 A2970 RMK CS2 SLP053=

CYXU;2005-07-01 11:00;METAR CYXU 011100Z 24009KT 15SM FEW150 BKN230 21/18 A2970 RMK AC1CS2 SLP053=

CYXU;2005-07-01 12:00;METAR CYXU 011200Z 24008KT 15SM BKN050 BKN230 22/19 A2970 RMK SC5CS2 SLP052=

CYXU;2005-07-01 13:00;METAR CYXU 011300Z 24010KT 15SM FEW016 BKN200 23/19 A2970 RMK CF1CS5 SLP052=

CYXU;2005-07-01 14:00;METAR CYXU 011400Z 26010KT 15SM FEW028 BKN200 25/18 A2969 RMK CU1CS2 SLP050=

CYXU;2005-07-01 16:00;METAR CYXU 011600Z 29008G16KT 15SM SCT040 25/16 A2970 RMK CU3 SLP050=

CYXU;2005-07-01 17:00;METAR CYXU 011700Z 29013G19KT 15SM SCT044 26/15 A2972 RMK CU3 SLP059=

CYXU;2005-07-01 18:00;METAR CYXU 011800Z 31014G19KT 15SM FEW041 26/14 A2973 RMK CU2 SLP062=

CYXU;2005-07-01 19:00;METAR CYXU 011900Z 30015G20KT 15SM BKN051 25/13 A2973 RMK CU5 SLP064=

CYXU;2005-07-01 20:00;METAR CYXU 012000Z 31011G17KT 15SM FEW040 SCT060 24/13 A2975 RMK CU2SC2 SLP070=

CYXU;2005-07-01 21:00;METAR CYXU 012100Z 30011G21KT 15SM FEW038 BKN064 22/13 A2977 RMK CU2SC4 SLP076=

CYXU;2005-07-01 22:00;METAR CYXU 012200Z 31013KT 15SM FEW040 BKN065 22/13 A2977 RMK CU1SC6 SLP078=

CYXU;2005-07-01 23:00;METAR CYXU 012300Z 31009G16KT 15SM FEW035 BKN063 21/13 A2979 RMK CF2SC5 SLP082=

CYXU;2005-07-02 00:00;METAR CYXU 020000Z 34015G20KT 15SM FEW030 BKN057 18/13 A2982 RMK CF2SC5 SLP095=

CYXU;2005-07-02 01:00;METAR CYXU 020100Z 33013KT 15SM SCT020 BKN035 17/12 A2984 RMK CF3SC4 SLP101=

CYXU;2005-07-02 02:00;METAR CYXU 020200Z 35012KT 15SM SCT022 BKN042 17/11 A2988 RMK CF3SC2 SLP115=

CYXU;2005-07-02 03:00;METAR CYXU 020300Z 34007KT 15SM FEW040 15/10 A2990 RMK SC1 SLP123=

CYXU;2005-07-02 04:00;METAR CYXU 020400Z 35006KT 15SM SKC 14/09 A2991 RMK SLP126=

CYXU;2005-07-02 05:00;METAR CYXU 020500Z 36005KT 15SM SKC 13/09 A2992 RMK SLP130=

CYXU;2005-07-02 06:00;METAR CYXU 020600Z 34005KT 15SM SKC 13/09 A2993 RMK SLP132=

CYXU;2005-07-02 09:00;METAR CYXU 020900Z 36005KT 15SM SKC 11/09 A2995 RMK SLP140=

CYXU;2005-07-02 10:00;METAR CYXU 021000Z 36004KT 15SM SKC 11/09 A2997 RMK SLP146=

CYXU;2005-07-02 11:00;METAR CYXU 021100Z 01004KT 15SM SKC 12/10 A2999 RMK SLP155=

CYXU;2005-07-02 12:00;METAR CYXU 021200Z 04005KT 15SM SKC 14/09 A3001 RMK SLP164=

CYXU;2005-07-02 13:00;METAR CYXU 021300Z 07008KT 15SM SKC 16/07 A3002 RMK SLP167=

CYXU;2005-07-02 14:00;METAR CYXU 021400Z 04008KT 15SM SKC 18/07 A3004 RMK SLP172=

CYXU;2005-07-02 15:00;METAR CYXU 021500Z 07008KT 15SM FEW040 19/07 A3004 RMK CF1 SLP174=

CYXU;2005-07-02 16:00;METAR CYXU 021600Z 04007KT 15SM FEW040 20/07 A3005 RMK CF1 SLP176=

CYXU;2005-07-02 17:00;METAR CYXU 021700Z 06004KT 15SM FEW040 FEW220 21/07 A3005 RMK CF1CI1 SLP177=

CYXU;2005-07-02 18:00;METAR CYXU 021800Z 09004KT 15SM FEW040 FEW220 22/08 A3004 RMK CF1CI1 SLP173=

CYXU;2005-07-02 19:00;METAR CYXU 021900Z 01004KT 15SM FEW050 23/07 A3003 RMK CF1 SLP170=

CYXU;2005-07-02 20:00;METAR CYXU 022000Z 09008KT 15SM FEW050 23/08 A3002 RMK CF1 SLP165=

CYXU;2005-07-02 21:00;METAR CYXU 022100Z 31002KT 15SM FEW050 23/07 A3001 RMK CF1 SLP162=

CYXU;2005-07-02 22:00;METAR CYXU 022200Z 33002KT 15SM FEW250 24/08 A3001 RMK CI1 SLP163=

CYXU;2005-07-02 23:00;METAR CYXU 022300Z 00000KT 15SM FEW250 24/09 A3001 RMK CI1 SLP163=

CYXU;2005-07-03 00:00;METAR CYXU 030000Z 24007KT 15SM SCT250 22/11 A3001 RMK CI1 SLP163=

CYXU;2005-07-03 01:00;METAR CYXU 030100Z 28002KT 15SM SKC 19/11 A3002 RMK SLP164=

CYXU;2005-07-03 02:00;METAR CYXU 030200Z 00000KT 15SM SKC 18/11 A3003 RMK SLP167=

CYXU;2005-07-03 03:00;METAR CYXU 030300Z 00000KT 15SM SKC 16/11 A3004 RMK SLP171=

CYXU;2005-07-03 04:00;METAR CYXU 030400Z 00000KT 15SM SKC 14/10 A3005 RMK SLP174=

CYXU;2005-07-03 05:00;METAR CYXU 030500Z 00000KT 15SM SKC 15/10 A3005 RMK SLP175=

CYXU;2005-07-03 06:00;METAR CYXU 030600Z 01003KT 15SM SKC 13/10 A3005 RMK SLP174=

CYXU;2005-07-03 07:00;METAR CYXU 030700Z 01002KT 15SM SKC 12/10 A3004 RMK SLP173=

CYXU;2005-07-03 09:00;METAR CYXU 030900Z 06003KT 15SM BKN260 12/09 A3004 RMK CI1 SLP173=

CYXU;2005-07-03 10:00;METAR CYXU 031000Z 08004KT 15SM BKN260 12/08 A3005 RMK CI2 SLP176=

CYXU;2005-07-03 11:00;METAR CYXU 031100Z 09006KT 15SM BKN260 14/10 A3007 RMK CI2 SLP180=

CYXU;2005-07-03 12:00;METAR CYXU 031200Z 09006KT 15SM BKN260 17/11 A3007 RMK CI2 SLP179=

CYXU;2005-07-03 13:00;METAR CYXU 031300Z 12008KT 15SM BKN260 20/13 A3007 RMK CI2 SLP181=

CYXU;2005-07-03 14:00;METAR CYXU 031400Z 13010KT 15SM SCT260 22/13 A3007 RMK CI2 SLP180=

CYXU;2005-07-03 15:00;METAR CYXU 031500Z 14010KT 15SM FEW260 24/14 A3004 RMK CI2 SLP169=

CYXU;2005-07-03 16:00;METAR CYXU 031600Z 16012KT 15SM FEW050 FEW260 25/14 A3002 RMK CU1CI1 SLP164=

CYXU;2005-07-03 17:00;METAR CYXU 031700Z 16010G15KT 15SM FEW055 FEW260 26/14 A3001 RMK CU2CI1 SLP161=

CYXU;2005-07-03 18:00;METAR CYXU 031800Z 19007KT 15SM FEW055 FEW260 26/13 A3002 RMK CU2CI1 SLP164=

CYXU;2005-07-03 19:00;METAR CYXU 031900Z 18006KT 15SM FEW055 SCT260 26/13 A3002 RMK CU2CI1 SLP164=

CYXU;2005-07-03 20:00;METAR CYXU 032000Z 19010G16KT 15SM FEW055 SCT260 26/14 A3000 RMK CU1CI2 SLP157=

CYXU;2005-07-03 21:00;METAR CYXU 032100Z 22014KT 15SM FEW055 SCT260 26/14 A3000 RMK CU1CI2 SLP159=

CYXU;2005-07-03 22:00;METAR CYXU 032200Z 18013KT 15SM FEW055 FEW260 26/13 A2999 RMK CU1CI2 SLP155=

CYXU;2005-07-03 23:00;METAR CYXU 032300Z 18010KT 15SM FEW260 25/13 A2999 RMK CI1 SLP153=

CYXU;2005-07-04 00:00;METAR CYXU 040000Z 18007KT 15SM FEW260 25/13 A3000 RMK CI1 SLP157=

CYXU;2005-07-04 01:00;METAR CYXU 040100Z 16006KT 15SM FEW260 23/13 A3000 RMK CI1 SLP155=

CYXU;2005-07-04 02:00;METAR CYXU 040200Z 17005KT 15SM FEW260 20/13 A3003 RMK CI1 SLP165=

CYXU;2005-07-04 03:00;METAR CYXU 040300Z 16006KT 15SM SKC 20/13 A3002 RMK SLP162=

CYXU;2005-07-04 04:00;METAR CYXU 040400Z 16004KT 15SM SKC 19/12 A3003 RMK SLP164=

CYXU;2005-07-04 05:00;METAR CYXU 040500Z 17004KT 15SM SKC 18/14 A3003 RMK SLP164=

CYXU;2005-07-04 06:00;METAR CYXU 040600Z 12003KT 15SM FEW210 18/14 A3001 RMK CI1 SLP160=

CYXU;2005-07-04 08:00;METAR CYXU 040800Z 07003KT 15SM SKC 16/14 A3000 RMK SLP157=

CYXU;2005-07-04 09:00;METAR CYXU 040900Z 09004KT 15SM SCT050 17/14 A3000 RMK SC3 SLP156=

CYXU;2005-07-04 10:00;METAR CYXU 041000Z 09004KT 10SM FEW055 FEW240 17/14 A2999 RMK SC1CI1 SLP153=

CYXU;2005-07-04 11:00;METAR CYXU 041100Z 10003KT 10SM FEW052 18/15 A3000 RMK SC2 SLP155=

CYXU;2005-07-04 12:00;METAR CYXU 041200Z 18004KT 6SM HZ FEW053 FEW260 22/18 A3001 RMK SC1CI1 SLP158=

CYXU;2005-07-04 13:00;METAR CYXU 041300Z 21009KT 5SM HZ FEW050 SCT260 25/20 A3003 RMK SC1CI2 SLP164=

CYXU;2005-07-04 14:00;METAR CYXU 041400Z 22009KT 5SM HZ FEW050 FEW260 26/20 A3002 RMK CU1CI1 SLP162=

CYXU;2005-07-04 15:00;METAR CYXU 041500Z 22005KT 6SM HZ FEW052 FEW270 28/21 A3001 RMK CU1CI0 TR CU SLP157=

CYXU;2005-07-04 16:00;METAR CYXU 041600Z 21009KT 8SM SCT033 29/21 A3000 RMK CU3 TCU ASOCTD SLP154=

CYXU;2005-07-04 16:32;SPECI CYXU 041632Z 18010KT 8SM -SHRA SCT033 RMK CU3 TCU ASOCTD/PCPN VRY LGT=

CYXU;2005-07-04 16:48;SPECI CYXU 041648Z 21008G16KT 7SM FEW034TCU RMK TCU2=

CYXU;2005-07-04 17:00;METAR CYXU 041700Z 18010KT 8SM FEW033 SCT150 29/21 A2999 RMK CU2AC1 TCU ASOCTD SLP151=

CYXU;2005-07-04 18:00;METAR CYXU 041800Z 19014G20KT 10SM SCT035 30/20 A2998 RMK CU3 TCU ASOCTD SLP147=

CYXU;2005-07-04 20:00;METAR CYXU 042000Z 19015G20KT 12SM FEW040 FEW200 30/20 A2997 RMK CU2CI1 TCU ASOCTD SLP144=

CYXU;2005-07-04 21:00;METAR CYXU 042100Z 20019KT 12SM FEW040 SCT200 30/19 A2995 RMK CU1CI2 CB DSNT N SLP137=

CYXU;2005-07-04 22:00;METAR CYXU 042200Z 21011G18KT 12SM FEW045 SCT200 30/19 A2994 RMK CU1CI2 TCU ASOCTD SLP134=

CYXU;2005-07-04 23:00;METAR CYXU 042300Z 19008G15KT 12SM FEW045 SCT200 29/20 A2992 RMK CU2CI2 SLP129=

CYXU;2005-07-05 00:00;METAR CYXU 050000Z 18007KT 10SM FEW100 BKN250 28/19 A2993 RMK AC1CI5 SLP129=

CYXU;2005-07-05 01:00;METAR CYXU 050100Z 20007KT 8SM BKN150 BKN250 26/19 A2994 RMK AC6CI1 SLP134=

CYXU;2005-07-05 02:00;METAR CYXU 050200Z 18004KT 8SM FEW150 BKN180 25/19 A2994 RMK AC2AC5 SLP135=

CYXU;2005-07-05 03:00;METAR CYXU 050300Z 29009G16KT 8SM BKN045 BKN210 25/19 A2996 RMK CU6CI1 SLP138=

CYXU;2005-07-05 04:00;METAR CYXU 050400Z 00000KT 8SM FEW045 BKN170 24/20 A2995 RMK CU1AC6 SLP135=

CYXU;2005-07-05 05:00;METAR CYXU 050500Z 09003KT 8SM OVC170 23/19 A2992 RMK AC8 HZ SLP127=

CYXU;2005-07-05 06:00;METAR CYXU 050600Z 34004KT 6SM HZ SCT170 SCT210 23/19 A2993 RMK AC3CI1 SLP130=

CYXU;2005-07-05 07:00;METAR CYXU 050700Z 31002KT 6SM HZ FEW060 SCT170 22/19 A2993 RMK SC2AC2 SLP131=

CYXU;2005-07-05 08:00;METAR CYXU 050800Z 35004KT 5SM HZ FEW170 21/18 A2992 RMK AC2 SLP125=

CYXU;2005-07-05 09:00;METAR CYXU 050900Z 00000KT 5SM HZ BKN170 20/18 A2990 RMK AC5 SLP121=

CYXU;2005-07-05 10:00;METAR CYXU 051000Z 29004KT 4SM HZ BKN150 20/18 A2992 RMK AC7 SLP126=

CYXU;2005-07-05 11:00;METAR CYXU 051100Z 31002KT 4SM HZ SCT078 OVC150 20/18 A2993 RMK AC3AC5 SLP129=

CYXU;2005-07-05 11:31;SPECI CYXU 051131Z 30003KT 4SM -SHRA HZ SCT080 OVC120 20/ RMK AC3AC5 TCU ASOCTD=

CYXU;2005-07-05 11:57;SPECI CYXU 051157Z 31004KT 4SM HZ FEW082 OVC140 20/ RMK AC2AC6=

CYXU;2005-07-05 12:00;METAR CYXU 051200Z 31004KT 4SM HZ FEW082 OVC140 21/18 A2993 RMK AC2AC6 SLP132=

CYXU;2005-07-05 13:00;METAR CYXU 051300Z 35004KT 6SM HZ FEW082 OVC180 22/18 A2993 RMK AC2AC6 SLP129=

CYXU;2005-07-05 14:00;METAR CYXU 051400Z 35005KT 6SM -SHRA BR SCT068 OVC180 22/18 A2994 RMK AC3AC5 TCU ASOCTD/PCPN VRY LGT SLP134=

CYXU;2005-07-05 14:28;SPECI CYXU 051428Z 34005KT 8SM SCT070 OVC180 22/ RMK AC3AC5=

CYXU;2005-07-05 14:44;SPECI CYXU 051444Z 33005KT 8SM -SHRA SCT070 OVC140 22/ RMK AC3AC5 TCU ASOCTD/PCPN VRY LGT=

CYXU;2005-07-05 15:00;METAR CYXU 051500Z 33003KT 8SM -SHRA FEW070 OVC110 22/18 A2995 RMK AC2AC6 TCU ASOCTD/PCPN VRY LGT SLP137=

CYXU;2005-07-05 15:26;SPECI CYXU 051526Z 31004KT 8SM FEW016 FEW070 OVC120 22/ RMK CU1AC2AC6 TR CU=

CYXU;2005-07-05 16:00;METAR CYXU 051600Z 32003KT 12SM BKN120 BKN230 23/18 A2995 RMK AC6CI1 SLP138=

CYXU;2005-07-05 17:00;METAR CYXU 051700Z 26002KT 12SM FEW021 BKN100 OVC230 24/18 A2995 RMK CU2AC5CI2 SLP139=

CYXU;2005-07-05 18:00;METAR CYXU 051800Z 28007KT 15SM FEW021 SCT040 BKN080 BKN230 24/18 A2995 RMK CU2SC2AC2CI1 SLP138=

CYXU;2005-07-05 19:00;METAR CYXU 051900Z 28008KT 15SM FEW020 BKN050 OVC080 25/16 A2994 RMK CF1CU6AC2 SLP135=

CYXU;2005-07-05 19:34;SPECI CYXU 051934Z 31006KT 15SM -SHRA FEW020 BKN038 OVC080 23/ RMK CF1CU6AC1 TCU EMBD=

CYXU;2005-07-05 20:00;METAR CYXU 052000Z 30005KT 15SM -SHRA FEW020 BKN044 OVC080 23/18 A2994 RMK CU1SC6AC1 TCU EMBD SLP135=

CYXU;2005-07-05 20:50;SPECI CYXU 052050Z 29005KT 15SM FEW020 BKN065 BKN080 22/ RMK CU1SC6AC1=

CYXU;2005-07-05 21:00;METAR CYXU 052100Z 26007KT 15SM FEW020 BKN065 BKN093 22/18 A2995 RMK CU1SC4AC2 SLP139=

CYXU;2005-07-05 22:00;METAR CYXU 052200Z 28004KT 15SM FEW025 SCT065 BKN098 24/18 A2994 RMK CU1SC2AC2 SLP135=

CYXU;2005-07-05 23:00;METAR CYXU 052300Z 34008KT 15SM FEW036 SCT100 BKN250 25/16 A2994 RMK CU2AC1CI0 SLP137=

CYXU;2005-07-06 00:00;METAR CYXU 060000Z 32006KT 15SM FEW030 SCT250 24/17 A2995 RMK CU1CI3 TCU ASOCTD SLP137=

CYXU;2005-07-06 01:00;METAR CYXU 060100Z 31008KT 15SM BKN025 BKN250 22/17 A2996 RMK SC6CI1 CU ASOCTD SLP142=

CYXU;2005-07-06 02:00;METAR CYXU 060200Z 31003KT 15SM BKN040 21/17 A2997 RMK SC7 SLP146=

CYXU;2005-07-06 03:00;METAR CYXU 060300Z 36005KT 15SM BKN040 21/17 A3000 RMK SC5 SLP154=

CYXU;2005-07-06 04:00;METAR CYXU 060400Z 01004KT 15SM SCT040 19/16 A3000 RMK SC3 SLP157=

CYXU;2005-07-06 05:00;METAR CYXU 060500Z 36004KT 15SM FEW040 18/15 A3001 RMK SC1 SLP159=

CYXU;2005-07-06 06:00;METAR CYXU 060600Z 36006KT 15SM FEW040 FEW200 17/15 A3001 RMK SC1CI1 SLP161=

CYXU;2005-07-06 08:00;METAR CYXU 060800Z 36004KT 15SM SCT110 BKN200 16/14 A3001 RMK AC3CI1 SLP159=

CYXU;2005-07-06 09:00;METAR CYXU 060900Z 36003KT 15SM FEW013 BKN030 BKN110 16/15 A3001 RMK SC2SC3AC2 SLP162=

CYXU;2005-07-06 09:54;SPECI CYXU 060954Z 02003KT 15SM BKN013 BKN030 OVC110 17/ RMK SC5SC2AC2=

CYXU;2005-07-06 10:00;METAR CYXU 061000Z 36003KT 15SM BKN013 BKN030 OVC110 17/15 A3003 RMK SC5SC2AC1 SLP167=

CYXU;2005-07-06 11:00;METAR CYXU 061100Z 01003KT 15SM BKN013 OVC030 18/15 A3004 RMK SC6SC2 SLP172=

CYXU;2005-07-06 12:00;METAR CYXU 061200Z 03005KT 15SM BKN013 OVC016 18/16 A3005 RMK SC6SC2 SLP174=

CYXU;2005-07-06 12:22;SPECI CYXU 061222Z 05004KT 15SM FEW013 BKN018 19/ RMK SC2SC5=

CYXU;2005-07-06 13:00;METAR CYXU 061300Z 05005KT 15SM SCT012 BKN020 BKN030 19/16 A3006 RMK SC3SC2SC2 SLP175=

CYXU;2005-07-06 14:00;METAR CYXU 061400Z 05006KT 15SM BKN015 OVC030 20/16 A3006 RMK SC7SC1 SLP176=

CYXU;2005-07-06 15:00;METAR CYXU 061500Z 04004KT 15SM BKN019 21/16 A3007 RMK SC7 SLP178=

CYXU;2005-07-06 16:00;METAR CYXU 061600Z 31004KT 15SM BKN020 22/16 A3009 RMK SC7 SLP185=

CYXU;2005-07-06 17:00;METAR CYXU 061700Z 28002KT 15SM BKN025 BKN250 23/16 A3009 RMK SC6CI0 CU ASOCTD SLP187=

CYXU;2005-07-06 18:00;METAR CYXU 061800Z 35004KT 15SM BKN032 BKN250 24/15 A3007 RMK CU5CI0 SLP182=

CYXU;2005-07-06 19:00;METAR CYXU 061900Z 33006KT 15SM BKN040 BKN250 26/16 A3006 RMK CU5CI1 SLP177=

CYXU;2005-07-06 20:00;METAR CYXU 062000Z 34008KT 15SM BKN038 25/16 A3006 RMK CU6 TCU ASOCTD SLP177=

CYXU;2005-07-06 21:00;METAR CYXU 062100Z 33008KT 15SM BKN036 26/16 A3005 RMK CU6 TCU ASOCTD SLP173=

CYXU;2005-07-06 22:00;METAR CYXU 062200Z 29010G15KT 15SM VCSH BKN036TCU 26/17 A3004 RMK TCU5 CU ASOCTD SLP170=

CYXU;2005-07-06 23:00;METAR CYXU 062300Z 34006KT 15SM VCSH BKN029TCU 22/16 A3006 RMK TCU6 CU ASOCTD SLP175=

CYXU;2005-07-07 00:00;METAR CYXU 070000Z 15002KT 15SM BKN028TCU 21/17 A3007 RMK TCU6 SLP180=

CYXU;2005-07-07 01:00;METAR CYXU 070100Z 29004KT 15SM SCT030 21/15 A3007 RMK CU3 TCU ASOCTD SLP182=

CYXU;2005-07-07 02:00;METAR CYXU 070200Z 00000KT 15SM SCT040 19/14 A3008 RMK SC3 SLP185=

CYXU;2005-07-07 04:00;METAR CYXU 070400Z 29002KT 15SM SKC 17/14 A3009 RMK SLP188=

CYXU;2005-07-07 05:00;METAR CYXU 070500Z 05002KT 15SM SKC 17/14 A3010 RMK SLP190=

CYXU;2005-07-07 06:00;METAR CYXU 070600Z 00000KT 15SM SCT063 17/14 A3010 RMK SC3 SLP189=

CYXU;2005-07-07 07:00;METAR CYXU 070700Z 04008KT 15SM BKN062 16/14 A3010 RMK SC5 SLP189=

CYXU;2005-07-07 07:11;SPECI CYXU 070711Z 05002KT 15SM FEW001 BKN063 16/ RMK ST2SC4=

CYXU;2005-07-07 08:00;METAR CYXU 070800Z 00000KT 10SM FEW001 BKN068 16/15 A3010 RMK ST2AC4 SLP190=

CYXU;2005-07-07 09:00;METAR CYXU 070900Z 00000KT 7SM FEW068 16/15 A3010 RMK AC2 SLP191=

CYXU;2005-07-07 10:00;METAR CYXU 071000Z 07004KT 4SM BR FEW067 16/14 A3011 RMK AC2 SLP194=

CYXU;2005-07-07 11:00;METAR CYXU 071100Z 08006KT 5SM HZ FEW067 17/15 A3011 RMK AC2 SLP195=

CYXU;2005-07-07 12:00;METAR CYXU 071200Z 09006KT 8SM FEW070 19/15 A3012 RMK AC1 SLP197=

CYXU;2005-07-07 13:00;METAR CYXU 071300Z 10007KT 12SM SKC 21/16 A3012 RMK SLP198=

CYXU;2005-07-07 14:00;METAR CYXU 071400Z 11009KT 15SM SKC 23/15 A3013 RMK SLP200=

CYXU;2005-07-07 15:00;METAR CYXU 071500Z 13008KT 15SM FEW035 24/15 A3013 RMK CU2 SLP199=

CYXU;2005-07-07 16:00;METAR CYXU 071600Z 13006KT 15SM SCT040 25/15 A3013 RMK CU3 TCU ASOCTD SLP199=

CYXU;2005-07-07 17:00;METAR CYXU 071700Z 10006KT 15SM BKN043 26/15 A3012 RMK CU5 TCU ASOCTD SLP197=

CYXU;2005-07-07 19:00;METAR CYXU 071900Z 09007KT 15SM SCT050 BKN220 27/14 A3008 RMK CU3CI1 TCU ASOCTD SLP183=

CYXU;2005-07-07 21:00;METAR CYXU 072100Z 12005KT 15SM TS SCT056 BKN110 BKN220 25/14 A3007 RMK CU4AC1CI1 CB W SLP180=

CYXU;2005-07-07 21:50;SPECI CYXU 072150Z 27010KT 15SM BKN057TCU BKN110 23/ RETS RMK TCU6AC1 SH W=

CYXU;2005-07-07 22:00;METAR CYXU 072200Z 27008KT 15SM -SHRA BKN043TCU BKN110 22/15 A3008 RETS RMK TCU6AC1 SLP183=

CYXU;2005-07-07 22:26;SPECI CYXU 072226Z 33006KT 15SM -TSRA BKN050CB BKN090 22/ RMK CB6AC1=

CYXU;2005-07-07 22:45;SPECI CYXU 072245Z 24005KT 2 1/2SM +TSRA BKN032CB 20/ RMK CB7=

CYXU;2005-07-07 23:00;METAR CYXU 072300Z 18004KT 4SM TSRA HZ BKN040CB BKN100 19/16 A3010 RERA RMK CB6AC1 LTGCG SE SLP188=

CYXU;2005-07-07 23:45;SPECI CYXU 072345Z 10006KT 12SM -TSRA BKN030 BKN120 19/ RERA RMK SC5AC2 CB SE=

CYXU;2005-07-08 00:00;METAR CYXU 080000Z 08006KT 10SM SCT030 BKN130 20/16 A3010 RETSRA RMK SC4AC2 TCU SW SLP191=

CYXU;2005-07-08 01:00;METAR CYXU 080100Z 07002KT 10SM FEW030 BKN130 BKN210 19/17 A3009 RMK SC2AC2CI0 SLP187=

CYXU;2005-07-08 03:00;METAR CYXU 080300Z 05002KT 15SM BKN110 19/16 A3010 RMK AC6 SLP189=

CYXU;2005-07-08 04:00;METAR CYXU 080400Z 05003KT 15SM BKN130 18/16 A3010 RMK AC5 SLP188=

CYXU;2005-07-08 05:00;METAR CYXU 080500Z 03004KT 15SM FEW120 18/15 A3008 RMK AC2 SLP183=

CYXU;2005-07-08 06:00;METAR CYXU 080600Z 02003KT 15SM FEW120 17/14 A3008 RMK AC2 SLP182=

CYXU;2005-07-08 07:00;METAR CYXU 080700Z 06004KT 15SM SKC 16/14 A3007 RMK SLP180=

CYXU;2005-07-08 08:00;METAR CYXU 080800Z 36005KT 15SM SKC 16/14 A3006 RMK SLP177=

CYXU;2005-07-08 10:00;METAR CYXU 081000Z 36005KT 8SM FEW100 FEW230 15/13 A3007 RMK AC1CI1 SLP181=

CYXU;2005-07-08 11:00;METAR CYXU 081100Z 04004KT 10SM FEW100 16/14 A3008 RMK AC1 SLP184=

CYXU;2005-07-08 12:00;METAR CYXU 081200Z 03004KT 12SM FEW100 19/15 A3009 RMK AC1 SLP188=

CYXU;2005-07-08 13:00;METAR CYXU 081300Z 05004KT 15SM FEW100 21/12 A3010 RMK AC1 SLP191=

CYXU;2005-07-08 14:00;METAR CYXU 081400Z 04007KT 15SM FEW180 23/16 A3010 RMK AC1 SLP192=

CYXU;2005-07-08 15:00;METAR CYXU 081500Z 03006KT 15SM FEW035 24/16 A3009 RMK CU2 SLP185=

CYXU;2005-07-08 16:00;METAR CYXU 081600Z 03003KT 15SM SCT040 25/16 A3008 RMK CU3 TCU ASOCTD SLP182=

CYXU;2005-07-08 17:00;METAR CYXU 081700Z 07002KT 15SM BKN045TCU 25/15 A3007 RMK TCU5 CB TPS E SLP179=

CYXU;2005-07-08 18:00;METAR CYXU 081800Z 34007KT 15SM BKN050TCU 27/14 A3005 RMK TCU5 CB SHWRS E SLP173=

CYXU;2005-07-08 18:42;SPECI CYXU 081842Z 08012G18KT 15SM TS BKN055TCU RMK TCU6 CB EMBDD LTGCG S=

CYXU;2005-07-08 18:49;SPECI CYXU 081849Z 09010G15KT 15SM -TSRA BKN056CB 24/ RMK CB7=

CYXU;2005-07-08 19:00;METAR CYXU 081900Z 09009KT 15SM -TSRA BKN053CB 23/14 A3005 RMK CB7 SLP173=

CYXU;2005-07-08 20:00;METAR CYXU 082000Z 10006KT 15SM TS BKN050CB BKN120 22/16 A3005 RMK CB6AC1 OCNL -SHRA CB NE AND S SLP173=

CYXU;2005-07-08 20:15;SPECI CYXU 082015Z 12004KT 15SM BKN050CB BKN100 22/ RETS RMK CB6AC1 CB NE AND S=

CYXU;2005-07-08 20:50;SPECI CYXU 082050Z 05010G18KT 15SM -TSRA BKN052CB 21/ RMK CB7 LTGICCG NE=

CYXU;2005-07-08 21:00;METAR CYXU 082100Z 05010G15KT 15SM -TSRA BKN045CB 20/14 A3009 RMK CB7 LTGICCG NE SLP187=

CYXU;2005-07-08 22:00;METAR CYXU 082200Z 14002KT 15SM -SHRA BKN040TCU BKN260 19/15 A3006 RETS RMK TCU6CI1 SLP178=

CYXU;2005-07-08 22:34;SPECI CYXU 082234Z 27003KT 15SM SCT040TCU BKN110 BKN260 19/ RMK TCU3AC2CI2=

CYXU;2005-07-08 23:00;METAR CYXU 082300Z 34003KT 15SM FEW040TCU BKN140 BKN240 21/15 A3005 RMK TCU2AC3CI1 SLP174=

CYXU;2005-07-09 00:00;METAR CYXU 090000Z 00000KT 15SM FEW040TCU FEW140 BKN240 22/15 A3006 RMK TCU1AC2CI2 SLP177=

CYXU;2005-07-09 01:00;METAR CYXU 090100Z 00000KT 15SM FEW040TCU FEW140 BKN250 21/15 A3005 RMK TCU1AC2CI2 SLP174=

CYXU;2005-07-09 02:00;METAR CYXU 090200Z 29004KT 15SM FEW170 FEW250 19/16 A3007 RMK AC1CI1 SLP180=

CYXU;2005-07-09 03:00;METAR CYXU 090300Z 00000KT 15SM SKC 18/15 A3007 RMK SLP179=

CYXU;2005-07-09 04:00;METAR CYXU 090400Z 08002KT 15SM SKC 17/15 A3007 RMK SLP179=

CYXU;2005-07-09 06:00;METAR CYXU 090600Z 00000KT 15SM SKC 15/14 A3007 RMK SLP181=

CYXU;2005-07-09 07:00;METAR CYXU 090700Z 00000KT 7SM R15/4500VP6000FT/U FEW001 14/14 A3007 RMK ST2 SLP180=

CYXU;2005-07-09 08:00;METAR CYXU 090800Z 00000KT 4SM BR FEW001 14/13 A3008 RMK ST2 SLP182=

CYXU;2005-07-09 08:20;SPECI CYXU 090820Z 36002KT 1/4SM R15/2600VP6000FT/U FG SKC 14/ RMK FG6=

CYXU;2005-07-09 09:00;METAR CYXU 090900Z 00000KT 1/4SM R15/3000FT/N FG SKC 13/13 A3009 RMK FG6 SLP189=

CYXU;2005-07-09 09:47;SPECI CYXU 090947Z 00000KT 4SM R15/3500VP6000FT/U BR FEW280 RMK CI1 DENSE F BNK OVR RWY 27=

CYXU;2005-07-09 10:00;METAR CYXU 091000Z 00000KT 5SM BR FEW280 13/13 A3010 RMK CI1 DENSE FG BNK E-SE SLP194=

CYXU;2005-07-09 11:00;METAR CYXU 091100Z 00000KT 7SM BKN280 14/12 A3012 RMK CI2 SLP199=

CYXU;2005-07-09 12:00;METAR CYXU 091200Z 00000KT 10SM BKN230 15/13 A3013 RMK CI2 SLP200=

CYXU;2005-07-09 13:00;METAR CYXU 091300Z 31003KT 15SM FEW240 19/15 A3013 RMK CI1 SLP202=

CYXU;2005-07-09 14:00;METAR CYXU 091400Z 33004KT 15SM FEW240 22/14 A3014 RMK CI1 SLP205=

CYXU;2005-07-09 15:00;METAR CYXU 091500Z 33007KT 15SM FEW045 FEW240 25/13 A3014 RMK CF1CI1 SLP203=

CYXU;2005-07-09 16:00;METAR CYXU 091600Z 31010KT 15SM FEW045 FEW240 25/13 A3014 RMK CU1CI1 SLP204=

CYXU;2005-07-09 17:00;METAR CYXU 091700Z 29011G16KT 15SM FEW050 FEW240 26/13 A3014 RMK CU1CI1 SLP204=

CYXU;2005-07-09 18:00;METAR CYXU 091800Z 33007KT 15SM FEW050 SCT240 27/12 A3013 RMK CU1CI1 SLP202=

CYXU;2005-07-09 20:00;METAR CYXU 092000Z 32008KT 15SM FEW065 FEW240 28/11 A3012 RMK CU1CI1 SLP198=

CYXU;2005-07-09 22:00;METAR CYXU 092200Z 34008KT 15SM FEW070 SCT240 28/10 A3010 RMK CU1CI1 SLP192=

CYXU;2005-07-09 23:00;METAR CYXU 092300Z 32007KT 15SM FEW240 27/10 A3010 RMK CI1 SLP190=

CYXU;2005-07-10 00:00;METAR CYXU 100000Z 31005KT 15SM SKC 26/10 A3010 RMK SLP191=

CYXU;2005-07-10 02:00;METAR CYXU 100200Z 29003KT 15SM FEW260 20/11 A3013 RMK CI1 SLP199=

CYXU;2005-07-10 03:00;METAR CYXU 100300Z 31004KT 15SM SKC 19/11 A3013 RMK SLP202=

CYXU;2005-07-10 04:00;METAR CYXU 100400Z 00000KT 15SM SKC 17/11 A3014 RMK SLP204=

CYXU;2005-07-10 05:00;METAR CYXU 100500Z 00000KT 15SM SKC 16/11 A3015 RMK SLP206=

CYXU;2005-07-10 07:00;METAR CYXU 100700Z 00000KT 15SM SKC 14/11 A3016 RMK SLP210=

CYXU;2005-07-10 08:00;METAR CYXU 100800Z 00000KT 15SM SKC 14/11 A3016 RMK SLP211=

CYXU;2005-07-10 10:00;METAR CYXU 101000Z 11002KT 15SM FEW250 12/10 A3016 RMK CI1 SLP212=

CYXU;2005-07-10 11:00;METAR CYXU 101100Z 04002KT 15SM FEW250 13/11 A3018 RMK CI1 SLP219=

CYXU;2005-07-10 12:00;METAR CYXU 101200Z 15002KT 15SM SCT250 17/14 A3019 RMK CI1 SLP220=

CYXU;2005-07-10 13:00;METAR CYXU 101300Z 32003KT 15SM FEW300 22/14 A3020 RMK CI2 SLP224=

CYXU;2005-07-10 14:00;METAR CYXU 101400Z 30005KT 15SM FEW300 26/15 A3021 RMK CI2 SLP226=

CYXU;2005-07-10 15:00;METAR CYXU 101500Z 26006KT 15SM FEW300 27/12 A3020 RMK CI2 SLP224=

CYXU;2005-07-10 16:00;METAR CYXU 101600Z 24004KT 15SM FEW300 29/12 A3020 RMK CI2 SLP222=

CYXU;2005-07-10 17:00;METAR CYXU 101700Z 29009KT 15SM SKC 29/11 A3019 RMK SLP219=

CYXU;2005-07-10 18:00;METAR CYXU 101800Z 25007KT 15SM SKC 30/13 A3017 RMK SLP214=

CYXU;2005-07-10 19:00;METAR CYXU 101900Z 31010G16KT 15SM FEW076 FEW300 30/11 A3016 RMK CF1CI1 SLP209=

CYXU;2005-07-10 20:00;METAR CYXU 102000Z 27005KT 15SM FEW088 FEW300 31/09 A3015 RMK CF1CI1 SLP207=

CYXU;2005-07-10 21:00;METAR CYXU 102100Z 34007KT 15SM FEW300 31/10 A3013 RMK CI1 SLP200=

CYXU;2005-07-10 22:00;METAR CYXU 102200Z 32005KT 15SM FEW300 30/11 A3012 RMK CI1 SLP196=

CYXU;2005-07-10 23:00;METAR CYXU 102300Z 28005KT 15SM FEW300 29/14 A3012 RMK CI1 SLP195=

CYXU;2005-07-11 00:00;METAR CYXU 110000Z 29005KT 15SM FEW300 28/11 A3012 RMK CI1 SLP196=

CYXU;2005-07-11 01:00;METAR CYXU 110100Z 21006KT 15SM FEW300 25/13 A3012 RMK CI1 SLP197=

CYXU;2005-07-11 03:00;METAR CYXU 110300Z 24005KT 15SM SKC 23/13 A3014 RMK SLP202=

CYXU;2005-07-11 04:00;METAR CYXU 110400Z 27003KT 15SM SKC 22/12 A3013 RMK SLP200=

CYXU;2005-07-11 05:00;METAR CYXU 110500Z 00000KT 15SM SKC 19/13 A3013 RMK SLP198=

CYXU;2005-07-11 06:00;METAR CYXU 110600Z 00000KT 15SM SKC 19/13 A3013 RMK SLP197=

CYXU;2005-07-11 07:00;METAR CYXU 110700Z 00000KT 15SM SKC 18/13 A3013 RMK SLP197=

CYXU;2005-07-11 08:00;METAR CYXU 110800Z 00000KT 15SM SKC 17/13 A3012 RMK SLP196=

CYXU;2005-07-11 09:00;METAR CYXU 110900Z 00000KT 15SM SKC 16/13 A3012 RMK SLP196=

CYXU;2005-07-11 10:00;METAR CYXU 111000Z 00000KT 15SM FEW250 17/13 A3013 RMK CI1 SLP199=

CYXU;2005-07-11 11:00;METAR CYXU 111100Z 00000KT 15SM FEW250 18/14 A3014 RMK CI1 SLP201=

CYXU;2005-07-11 12:00;METAR CYXU 111200Z 00000KT 15SM SCT250 21/16 A3015 RMK CI3 SLP204=

CYXU;2005-07-11 13:00;METAR CYXU 111300Z 00000KT 12SM SCT250 25/15 A3016 RMK CI2 SLP208=

CYXU;2005-07-11 14:00;METAR CYXU 111400Z 28004KT 12SM FEW050 SCT250 27/16 A3016 RMK CU1CI2 SLP209=

CYXU;2005-07-11 15:00;METAR CYXU 111500Z 35005KT 12SM FEW060 SCT250 29/15 A3015 RMK CU2CI2 SLP205=

CYXU;2005-07-11 16:00;METAR CYXU 111600Z 34004KT 12SM SCT060 BKN250 30/16 A3013 RMK CU3CI2 SLP200=

CYXU;2005-07-11 17:00;METAR CYXU 111700Z 27005KT 15SM FEW060 BKN250 31/16 A3012 RMK CU2CI2 SLP194=

CYXU;2005-07-11 18:00;METAR CYXU 111800Z 35006KT 12SM SCT060 BKN250 31/17 A3011 RMK CU3CI2 SLP190=

CYXU;2005-07-11 19:00;METAR CYXU 111900Z 32002KT 12SM FEW060 OVC250 31/17 A3010 RMK CU1CI2 SLP186=

CYXU;2005-07-11 20:00;METAR CYXU 112000Z 30004KT 12SM FEW060 OVC250 32/17 A3008 RMK CU1CI3 SLP182=

CYXU;2005-07-11 21:00;METAR CYXU 112100Z 33005KT 12SM FEW060 BKN250 33/17 A3007 RMK CU1CI3 SLP179=

CYXU;2005-07-11 22:00;METAR CYXU 112200Z 20006KT 15SM FEW060 BKN250 31/17 A3007 RMK CU1CI3 SLP177=

CYXU;2005-07-11 23:00;METAR CYXU 112300Z 21006KT 15SM FEW060 OVC250 30/17 A3007 RMK CU1CI3 SLP176=

CYXU;2005-07-12 00:00;METAR CYXU 120000Z 36004KT 15SM OVC250 29/17 A3008 RMK CI2 SLP180=

CYXU;2005-07-12 01:00;METAR CYXU 120100Z 36003KT 15SM OVC250 27/17 A3007 RMK CI2 SLP178=

CYXU;2005-07-12 02:00;METAR CYXU 120200Z 00000KT 15SM OVC250 24/18 A3007 RMK CI2 SLP178=

CYXU;2005-07-12 03:00;METAR CYXU 120300Z 00000KT 15SM BKN250 24/18 A3007 RMK CI2 SLP177=

CYXU;2005-07-12 04:00;METAR CYXU 120400Z 00000KT 15SM BKN250 23/18 A3008 RMK CI2 SLP180=

CYXU;2005-07-12 05:00;METAR CYXU 120500Z 00000KT 10SM FEW057 BKN260 23/18 A3008 RMK SC2CI2 SLP179=

CYXU;2005-07-12 06:00;METAR CYXU 120600Z 00000KT 10SM BKN260 21/18 A3007 RMK CI3 SLP179=

CYXU;2005-07-12 07:00;METAR CYXU 120700Z 05002KT 10SM BKN260 21/18 A3007 RMK CI3 SLP177=

CYXU;2005-07-12 08:00;METAR CYXU 120800Z 00000KT 10SM FEW260 20/17 A3007 RMK CI1 SLP178=

CYXU;2005-07-12 09:00;METAR CYXU 120900Z 04002KT 10SM FEW150 BKN260 20/17 A3007 RMK AC1CI2 SLP177=

CYXU;2005-07-12 10:00;METAR CYXU 121000Z 00000KT 10SM FEW150 BKN260 20/17 A3007 RMK AC2CI4 SLP176=

CYXU;2005-07-12 12:00;METAR CYXU 121200Z 10003KT 12SM FEW150 BKN280 23/19 A3008 RMK AC2CI5 SLP182=

CYXU;2005-07-12 13:00;METAR CYXU 121300Z 11004KT 12SM FEW150 BKN280 26/20 A3008 RMK AC2CI5 SLP181=

CYXU;2005-07-12 14:00;METAR CYXU 121400Z 11003KT 12SM FEW150 BKN280 27/20 A3007 RMK AC2CI6 SLP178=

CYXU;2005-07-12 15:00;METAR CYXU 121500Z 13003KT 12SM BKN250 29/20 A3007 RMK CI4 SLP178=

CYXU;2005-07-12 16:00;METAR CYXU 121600Z 14006KT 12SM SCT220 BKN300 30/17 A3006 RMK CI3CI3 SLP174=

CYXU;2005-07-12 17:00;METAR CYXU 121700Z 19007KT 15SM SCT220 BKN300 30/18 A3005 RMK CC3CI3 SLP171=

CYXU;2005-07-12 20:00;METAR CYXU 122000Z 12004KT 15SM BKN180 OVC300 32/17 A3003 RMK CC5CI2 SLP165=

CYXU;2005-07-12 21:00;METAR CYXU 122100Z 07004KT 15SM BKN180 OVC300 32/17 A3002 RMK CC5CI2 SLP160=

CYXU;2005-07-12 22:00;METAR CYXU 122200Z 11005KT 15SM SCT180 BKN300 32/17 A3001 RMK CC3CI0 CONTRAILS SLP156=

CYXU;2005-07-13 00:00;METAR CYXU 130000Z 04003KT 15SM BKN220 30/20 A3000 RMK CC7 SLP155=

CYXU;2005-07-13 01:00;METAR CYXU 130100Z 03003KT 15SM BKN220 28/20 A3000 RMK CC7 SLP155=

CYXU;2005-07-13 02:00;METAR CYXU 130200Z 09002KT 15SM BKN220 27/20 A3001 RMK CC7 SLP157=

CYXU;2005-07-13 03:00;METAR CYXU 130300Z 36002KT 15SM BKN250 26/20 A3001 RMK CC7 SLP155=

CYXU;2005-07-13 04:00;METAR CYXU 130400Z 00000KT 15SM BKN220 25/20 A3001 RMK CC6 SLP155=

CYXU;2005-07-13 06:00;METAR CYXU 130600Z 05003KT 15SM SCT220 23/19 A2998 RMK CI2 SLP146=

CYXU;2005-07-13 07:00;METAR CYXU 130700Z 09003KT 12SM SCT220 22/19 A2997 RMK CI3 SLP143=

CYXU;2005-07-13 08:00;METAR CYXU 130800Z 03003KT 12SM FEW240 22/18 A2996 RMK CI2 SLP140=

CYXU;2005-07-13 09:00;METAR CYXU 130900Z 07003KT 15SM SCT240 22/18 A2996 RMK CI2 SLP140=

CYXU;2005-07-13 10:00;METAR CYXU 131000Z 04002KT 8SM SCT240 21/18 A2997 RMK CC2 BR SLP142=

CYXU;2005-07-13 11:00;METAR CYXU 131100Z 06005KT 6SM HZ FEW120 BKN240 22/18 A2997 RMK AC1CC2 SLP141=

CYXU;2005-07-13 12:00;METAR CYXU 131200Z 09004KT 8SM SCT060 SCT120 BKN240 24/19 A2997 RMK SC3AC1CI2 HZ SLP143=

CYXU;2005-07-13 13:00;METAR CYXU 131300Z 11003KT 8SM FEW060 BKN240 27/20 A2998 RMK SC2CC2 HZ SLP145=

CYXU;2005-07-13 14:00;METAR CYXU 131400Z 11005KT 8SM FEW060 BKN240 27/20 A2997 RMK SC2CI2 HZ SLP144=

CYXU;2005-07-13 15:00;METAR CYXU 131500Z 13006KT 10SM SCT240 30/20 A2997 RMK CC2 HAZE SLP141=

CYXU;2005-07-13 16:00;METAR CYXU 131600Z 12006KT 10SM BKN260 31/21 A2996 RMK CI3 HZ SLP139=

CYXU;2005-07-13 17:00;METAR CYXU 131700Z 13006KT 12SM FEW040 BKN260 32/21 A2995 RMK CU2CI1 HZ SLP134=

CYXU;2005-07-13 17:23;SPECI CYXU 131723Z 15008KT 12SM BKN045TCU BKN240 32/ RMK TCU5CI0 HZ=

CYXU;2005-07-13 18:00;METAR CYXU 131800Z 14008KT 12SM TS VCSH BKN045TCU BKN260 32/21 A2993 RMK TCU5CI1 CB EMBD/LTGCG/HZ SLP128=

CYXU;2005-07-13 19:00;METAR CYXU 131900Z 13006KT 10SM TS VCSH SCT045CB BKN250 32/21 A2992 RMK CB4CI1 SLP126=

CYXU;2005-07-13 19:37;SPECI CYXU 131937Z 19002KT 10SM SCT040TCU BKN250 31/ RMK TCU4CI2 RETS CB ASOCTD NW=

CYXU;2005-07-13 20:00;METAR CYXU 132000Z 28002KT 10SM SCT040TCU OVC250 31/20 A2991 RMK TCU4CI4 RETS CB EMBDD NW SLP122=

CYXU;2005-07-13 21:00;METAR CYXU 132100Z 34005KT 12SM FEW045TCU BKN250 29/20 A2991 RMK TCU2CI4 SLP123=

CYXU;2005-07-13 22:00;METAR CYXU 132200Z 35002KT 12SM FEW045TCU BKN250 32/21 A2991 RMK TCU2CI2 CB EAST SLP124=

CYXU;2005-07-13 22:46;SPECI CYXU 132246Z 18010KT 12SM TS SCT040CB BKN250 30/ RMK CB3CI2=

CYXU;2005-07-13 23:00;METAR CYXU 132300Z 19008KT 12SM TS VCSH SCT045TCU SCT075 BKN250 30/19 A2992 RMK TCU3AC1CI2 CB ASOCTD SLP125=

CYXU;2005-07-14 00:00;METAR CYXU 140000Z 16002KT 12SM TS VCSH SCT050TCU BKN250 26/20 A2994 RMK TCU4CI2 CB ASOCTD LTGCG SLP135=

CYXU;2005-07-14 01:00;METAR CYXU 140100Z 36004KT 12SM FEW045TCU BKN140 BKN250 26/20 A2993 RMK TCU2AC3CI0 RETS SLP132=

CYXU;2005-07-14 02:00;METAR CYXU 140200Z 34002KT 12SM FEW050TCU BKN160 BKN250 24/19 A2995 RMK TCU2AC3CI0 CB NORTH LTGCC SLP137=

CYXU;2005-07-14 03:00;METAR CYXU 140300Z 26003KT 12SM SCT160 BKN250 23/19 A2996 RMK AC3CI2 SLP138=

CYXU;2005-07-14 04:00;METAR CYXU 140400Z 12004KT 12SM FEW180 BKN230 22/19 A2995 RMK AC2CI3 SLP136=

CYXU;2005-07-14 05:00;METAR CYXU 140500Z 07006KT 12SM SCT190 BKN240 22/19 A2994 RMK AC3CI2 SLP134=

CYXU;2005-07-14 06:00;METAR CYXU 140600Z 34002KT 12SM SCT130 BKN190 22/19 A2994 RMK AC3AC2 SLP132=

CYXU;2005-07-14 09:00;METAR CYXU 140900Z 00000KT 7SM FEW120 BKN170 20/19 A2993 RMK AC2AC2 HZ SLP132=

CYXU;2005-07-14 09:36;SPECI CYXU 140936Z 10002KT 3SM BR BKN170 21/ RMK AC5=

CYXU;2005-07-14 10:00;METAR CYXU 141000Z 04002KT 2 1/2SM BR BKN170 21/19 A2994 RMK FG1AC5 SLP133=

CYXU;2005-07-14 11:00;METAR CYXU 141100Z 00000KT 2 1/2SM BR BKN170 21/19 A2994 RMK FG1AC4 SLP133=

CYXU;2005-07-14 11:25;SPECI CYXU 141125Z 11003KT 3SM BR BKN180 22/ RMK AC6=

CYXU;2005-07-14 12:00;METAR CYXU 141200Z 36002KT 4SM HZ BKN180 23/19 A2995 RMK AC6 SLP136=

CYXU;2005-07-14 12:51;SPECI CYXU 141251Z 00000KT 10SM BKN180 25/ RMK AC4 HZ=

CYXU;2005-07-14 13:00;METAR CYXU 141300Z 06002KT 12SM SCT180 26/19 A2995 RMK AC3 HZ SLP137=

CYXU;2005-07-14 14:00;METAR CYXU 141400Z 09002KT 12SM SCT180 27/21 A2994 RMK AC2 HZ SLP135=

CYXU;2005-07-14 15:00;METAR CYXU 141500Z 17002KT 12SM SCT240 28/21 A2994 RMK CC2 HZ SLP133=

CYXU;2005-07-14 16:00;METAR CYXU 141600Z 10003KT 12SM FEW035 FEW240 30/21 A2994 RMK CU1CI0 HZ SLP134=

CYXU;2005-07-14 17:00;METAR CYXU 141700Z 12005KT 12SM SCT040TCU 30/21 A2994 RMK TCU4 HZ SLP132=

CYXU;2005-07-14 18:00;METAR CYXU 141800Z 14008KT 12SM SCT044TCU 32/21 A2993 RMK TCU4 HZ SLP131=

CYXU;2005-07-14 19:00;METAR CYXU 141900Z 20002KT 12SM SCT045TCU 31/20 A2990 RMK TCU3 SLP121=

CYXU;2005-07-14 20:00;METAR CYXU 142000Z 14006KT 12SM SCT045TCU 32/19 A2990 RMK TCU4 SLP120=

CYXU;2005-07-14 20:17;SPECI CYXU 142017Z 15006KT 12SM SCT045TCU 32/ RMK TCU4 CB NW=

CYXU;2005-07-14 21:00;METAR CYXU 142100Z 26005KT 12SM VCSH SCT045CB 31/20 A2991 RMK CB4 SLP123=

CYXU;2005-07-14 22:00;METAR CYXU 142200Z 04020G30KT 12SM TS VCSH FEW035 BKN050CB BKN250 27/20 A2994 RMK CU1CB5CI1 SLP133=

CYXU;2005-07-14 22:54;SPECI CYXU 142254Z 07008KT 12SM -SHRA BKN040TCU BKN250 24/ RMK TCU5CI1 RETS=

CYXU;2005-07-14 23:00;METAR CYXU 142300Z 07008KT 12SM -SHRA BKN045TCU BKN250 24/20 A2994 RMK TCU5CI1 RETS SLP134=

CYXU;2005-07-15 00:00;METAR CYXU 150000Z 13004KT 15SM FEW050 SCT150 BKN250 24/20 A2993 RMK CU2AC2CI2 SLP132=

CYXU;2005-07-15 01:00;METAR CYXU 150100Z 08005KT 15SM FEW060 SCT150 BKN250 23/21 A2994 RMK CU1AC2CI2 SLP136=

CYXU;2005-07-15 02:00;METAR CYXU 150200Z 07005KT 12SM FEW150 FEW250 23/20 A2996 RMK AC1CI2 SLP140=

CYXU;2005-07-15 03:00;METAR CYXU 150300Z 06004KT 12SM FEW250 22/19 A2997 RMK CI2 SLP145=

CYXU;2005-07-15 04:00;METAR CYXU 150400Z 09004KT 6SM HZ FEW220 22/20 A2997 RMK CI0 SLP144=

CYXU;2005-07-15 05:00;METAR CYXU 150500Z 09002KT 3SM BR SKC 22/20 A2998 RMK SLP148=

CYXU;2005-07-15 05:53;SPECI CYXU 150553Z 09006KT 2 1/2SM BR SKC 21/ RMK FG2=

CYXU;2005-07-15 06:00;METAR CYXU 150600Z 09006KT 2 1/2SM BR SKC 21/20 A2998 RMK FG2 SLP147=

CYXU;2005-07-15 06:25;SPECI CYXU 150625Z 09006KT 2SM BR FEW003 22/ RMK FG2SF1=

CYXU;2005-07-15 07:00;METAR CYXU 150700Z 08005KT 1 3/4SM BR BKN003 22/21 A2998 RMK FG3SF3 SLP147=

CYXU;2005-07-15 07:53;SPECI CYXU 150753Z 07008KT 1 3/4SM BR OVC005 22/ RMK FG3SF5=

CYXU;2005-07-15 08:00;METAR CYXU 150800Z 07005KT 2SM BR OVC005 22/20 A2999 RMK FG3SF5 SLP149=

CYXU;2005-07-15 09:00;METAR CYXU 150900Z 09007KT 1 3/4SM BR BKN006 22/20 A2999 RMK FG2SF4 SLP150=

CYXU;2005-07-15 10:00;METAR CYXU 151000Z 08008KT 1 3/4SM BR BKN006 BKN240 22/20 A3000 RMK FG2SF2CC1 SLP155=

CYXU;2005-07-15 10:31;SPECI CYXU 151031Z 08007KT 2SM BR OVC007 22/ RMK FG2SF5=

CYXU;2005-07-15 11:43;SPECI CYXU 151143Z 08008KT 2 1/2SM BR OVC008 22/ RMK FG2SF6=

CYXU;2005-07-15 12:00;METAR CYXU 151200Z 09009KT 2 1/2SM HZ OVC008 23/20 A3003 RMK FG2SF6 SLP167=

CYXU;2005-07-15 12:18;SPECI CYXU 151218Z 09009KT 2 1/2SM HZ OVC009 23/ RMK FG2SF6=

CYXU;2005-07-15 12:52;SPECI CYXU 151252Z 09010KT 3SM HZ OVC010 24/ RMK SF7=

CYXU;2005-07-15 13:00;METAR CYXU 151300Z 08011KT 3SM HZ OVC011 24/21 A3004 RMK SF7 SLP169=

CYXU;2005-07-15 13:45;SPECI CYXU 151345Z 07011KT 4SM HZ OVC013 24/ RMK SC7=

CYXU;2005-07-15 14:00;METAR CYXU 151400Z 09009KT 5SM HZ OVC014 25/21 A3005 RMK SC8 SLP171=

CYXU;2005-07-15 15:00;METAR CYXU 151500Z 08010KT 6SM HZ BKN015 25/21 A3004 RMK SC7 SLP170=

CYXU;2005-07-15 16:00;METAR CYXU 151600Z 07009KT 6SM HZ BKN018 27/21 A3004 RMK SC7 SLP170=

CYXU;2005-07-15 16:19;SPECI CYXU 151619Z 07010KT 6SM HZ SCT020 BKN200 27/ RMK CU3CI0=

CYXU;2005-07-15 17:00;METAR CYXU 151700Z 08009KT 6SM HZ SCT020 BKN200 28/21 A3003 RMK CU3CI0 SLP167=

CYXU;2005-07-15 18:00;METAR CYXU 151800Z 09008KT 8SM SCT034 BKN240 30/22 A3003 RMK CU3CI1 HZ SLP162=

CYXU;2005-07-15 19:00;METAR CYXU 151900Z 07010KT 10SM SCT035 BKN250 30/21 A3001 RMK CU4CI1 TCU ASOCTD SLP156=

CYXU;2005-07-15 20:00;METAR CYXU 152000Z 09010KT 10SM SCT040 BKN250 31/21 A3000 RMK CU3CI2 SLP154=

CYXU;2005-07-15 21:00;METAR CYXU 152100Z 09008KT 10SM BKN045CB BKN250 31/20 A2999 RMK CB5CI1 SLP149=

CYXU;2005-07-15 21:15;SPECI CYXU 152115Z 13014KT 10SM SHRA BKN040CB BKN250 28/ RMK CB5CI6=

CYXU;2005-07-15 21:24;SPECI CYXU 152124Z 12010KT 10SM VCSH BKN040TCU BKN250 29/ RMK TCU6CI2 RERA=

CYXU;2005-07-15 22:00;METAR CYXU 152200Z 08005KT 8SM BKN045TCU OVC250 30/21 A2999 RMK TCU6CI2 CB EMBDD N SLP150=

CYXU;2005-07-15 23:00;METAR CYXU 152300Z 07009KT 8SM BKN050TCU 30/20 A2999 RMK TCU7 CB ASOCTD SLP150=

CYXU;2005-07-16 00:00;METAR CYXU 160000Z 08007KT 10SM FEW050TCU SCT120 BKN250 28/21 A2999 RMK TCU2AC2CI2 SLP151=

CYXU;2005-07-16 01:00;METAR CYXU 160100Z 09006KT 8SM FEW050TCU FEW150 BKN250 27/20 A3001 RMK TCU1AC2CI2 SLP158=

CYXU;2005-07-16 02:00;METAR CYXU 160200Z 10005KT 8SM SCT120 BKN250 25/19 A3003 RMK AC3CI2 SLP163=

CYXU;2005-07-16 03:00;METAR CYXU 160300Z 08007KT 8SM BKN130 25/20 A3002 RMK AC7 SLP161=

CYXU;2005-07-16 04:00;METAR CYXU 160400Z 08005KT 8SM FEW050 BKN120 24/20 A3002 RMK SC1AC6 SLP160=

CYXU;2005-07-16 05:00;METAR CYXU 160500Z 11005KT 7SM BKN140 24/20 A3002 RMK AC6 SLP160=

CYXU;2005-07-16 06:00;METAR CYXU 160600Z 09004KT 7SM BKN140 23/20 A3001 RMK AC7 SLP157=

CYXU;2005-07-16 07:00;METAR CYXU 160700Z 07004KT 6SM BR BKN120 23/20 A3001 RMK AC6 SLP158=

CYXU;2005-07-16 09:00;METAR CYXU 160900Z 09004KT 5SM BR BKN030 OVC140 23/20 A3001 RMK SC5AC3 SLP155=

CYXU;2005-07-16 10:00;METAR CYXU 161000Z 08006KT 6SM -SHRA BR OVC130 23/21 A3001 RMK AC8 PCPN=

CYXU;2005-07-16 10:47;SPECI CYXU 161047Z 06005KT 2 1/2SM -SHRA BR SCT070 OVC130 23/ RMK AC3AC5=

CYXU;2005-07-16 11:00;METAR CYXU 161100Z 08006KT 2 1/2SM BR SCT060 OVC130 23/21 A3003 RMK SC3AC5 SLP161=

CYXU;2005-07-16 12:00;METAR CYXU 161200Z 11006KT 3SM BR SCT070 OVC130 24/21 A3003 RMK AC4AC4 SLP162=

CYXU;2005-07-16 13:00;METAR CYXU 161300Z 13007KT 3SM HZ SCT060 OVC130 25/22 A3003 RMK SC3AC5 SLP163=

CYXU;2005-07-16 14:00;METAR CYXU 161400Z 15007KT 3SM HZ SCT010 OVC060 26/22 A3003 RMK CU4SC4 SLP162=

CYXU;2005-07-16 14:35;SPECI CYXU 161435Z 14005KT 4SM HZ BKN010 OVC060 26/ RMK CU5SC2=

CYXU;2005-07-16 15:00;METAR CYXU 161500Z 14007KT 4SM HZ BKN020 OVC100 27/22 A3002 RMK CU5AC2 SLP159=

CYXU;2005-07-16 16:00;METAR CYXU 161600Z 13009KT 6SM HZ BKN020 OVC060 29/23 A3000 RMK CU5SC2 TCU ASOCTD SLP153=

CYXU;2005-07-16 17:00;METAR CYXU 161700Z 16010KT 6SM HZ BKN020 OVC060 27/22 A2999 RMK CU5SC3 TCU ASOCTD SLP151=

CYXU;2005-07-16 18:00;METAR CYXU 161800Z 18010KT 6SM HZ SCT018 BKN060 OVC220 27/22 A2998 RMK CU4SC3CI1 TCU ASOCTD SLP147=

CYXU;2005-07-16 19:33;SPECI CYXU 161933Z 31004KT 8SM FEW007 BKN018 OVC060 25/ RMK SF2CU6SC1 HZ TCU ASOCTD=

CYXU;2005-07-16 20:00;METAR CYXU 162000Z 02004KT 8SM TS FEW007 BKN020CB OVC050 24/21 A2998 RMK SF2CB3CU3 SLP148=

CYXU;2005-07-16 20:27;SPECI CYXU 162027Z 02005KT 10SM -TSRA BKN024CB OVC035 24/ RMK CB5CU3=

CYXU;2005-07-16 20:42;SPECI CYXU 162042Z 03003KT 6SM TSRA SCT018CB OVC035TCU 24/ RMK CB3TCU5=

CYXU;2005-07-16 21:28;SPECI CYXU 162128Z 07005KT 8SM FEW008 OVC017 24/ RMK SF2CU6 TCU ASOCTD=

CYXU;2005-07-16 22:00;METAR CYXU 162200Z 10004KT 10SM FEW008 BKN013 OVC120 25/22 A2996 RMK SF1CU4AC2 SLP141=

CYXU;2005-07-16 22:42;SPECI CYXU 162242Z 15005KT 8SM FEW008 SCT013 BKN080 25/ RMK SF1CU2AC3=

CYXU;2005-07-16 23:00;METAR CYXU 162300Z 17004KT 6SM BR FEW008 BKN055 OVC080 25/22 A2996 RMK SF1CU5AC2 SLP142=

CYXU;2005-07-16 23:10;SPECI CYXU 162310Z 17005KT 5SM -SHRA BR FEW008 BKN044 OVC080 25/ RMK SF2CU4AC2 TCU ASOCTD=

CYXU;2005-07-16 23:20;SPECI CYXU 162320Z 19004KT 8SM FEW008 BKN044 OVC080 25/ RMK SF2CU4AC2=

CYXU;2005-07-16 23:40;SPECI CYXU 162340Z 25003KT 8SM -SHRA FEW008 OVC040 25/ RMK SF2CU6=

CYXU;2005-07-16 23:51;SPECI CYXU 162351Z 21002KT 5SM BR FEW012 OVC039 25/ RMK SF2CU6=

CYXU;2005-07-17 00:00;METAR CYXU 170000Z 21002KT 5SM HZ FEW012 OVC039 25/22 A2997 RMK SF2CU6 SLP142=

CYXU;2005-07-17 02:00;METAR CYXU 170200Z 19002KT 5SM HZ FEW017 OVC023 24/22 A2996 RMK SF2SC6 SLP140=

CYXU;2005-07-17 02:06;SPECI CYXU 170206Z 00000KT 5SM -SHRA HZ SCT009 OVC021 24/ RMK SF3SC5 TCU ASOCTD=

CYXU;2005-07-17 02:17;SPECI CYXU 170217Z 14006KT 1 1/2SM +SHRA BR OVC006 23/ RMK SF8 TCU EMBDD=

CYXU;2005-07-17 02:22;SPECI CYXU 170222Z 15010KT 1SM R15/P6000FT/D +SHRA BR OVC006 23/ RMK SF8 CB EMBDD=

CYXU;2005-07-17 02:40;SPECI CYXU 170240Z 16010KT 2 1/2SM -SHRA BR FEW007 OVC028 24/ RMK SF2SC6 CB ASOCTD 25.4MM RAIN PST 30 MINS=

CYXU;2005-07-17 03:54;SPECI CYXU 170354Z 16004KT 2 1/2SM -SHRA BR OVC007 23/ RMK SF8 TCU EMBDD=

CYXU;2005-07-17 04:10;SPECI CYXU 170410Z 16006KT 2SM -SHRA BR SCT004 OVC035 RMK SF4SC4=

CYXU;2005-07-17 04:26;SPECI CYXU 170426Z 15005KT 1 1/2SM SHRA BR BKN004 OVC020 RMK SF6SC2 TCU EMBDD=

CYXU;2005-07-17 05:00;METAR CYXU 170500Z 17007KT 1 1/2SM SHRA BR FEW004 OVC020 23/22 A2997 RMK SF2SF6 TCU EMBDD SLP143=

CYXU;2005-07-17 05:06;SPECI CYXU 170506Z 18006KT 1 1/2SM -TSRA BR FEW004 OVC020 RMK SF2SC6 CB EMBDD=

CYXU;2005-07-17 05:35;SPECI CYXU 170535Z 18005KT 2SM BR FEW007 OVC020 RMK SF2SC6=

CYXU;2005-07-17 06:00;METAR CYXU 170600Z 16004KT 2SM BR FEW007 OVC035 23/22 A2997 RMK SF1SC7 RETS RERA SLP143=

CYXU;2005-07-17 06:47;SPECI CYXU 170647Z 16004KT 2SM BR BKN007 OVC028 RMK SF6SC2=

CYXU;2005-07-17 07:00;METAR CYXU 170700Z 16004KT 2SM BR OVC008 23/22 A2997 RMK SF8 SLP142=

CYXU;2005-07-17 08:00;METAR CYXU 170800Z 14004KT 2SM BR BKN007 OVC013 23/22 A2994 RMK SF5SC3 SLP135=

CYXU;2005-07-17 09:00;METAR CYXU 170900Z 18004KT 1SM R15/P6000FT/N BR SCT007 OVC014 23/22 A2995 RMK SF4SC4 SLP137=

CYXU;2005-07-17 09:28;SPECI CYXU 170928Z 18002KT 1SM R15/P6000FT/D BR OVC004 RMK SF8=

CYXU;2005-07-17 10:00;METAR CYXU 171000Z 12002KT 1SM R15/P6000FT/D BR BKN004 OVC021 23/22 A2996 RMK SF5SC3 SLP140=

CYXU;2005-07-17 10:29;SPECI CYXU 171029Z 19006KT 1 1/2SM BR VCSH BKN004 BKN021 BKN060 23/ RMK SF5SC2SC1=

CYXU;2005-07-17 11:00;METAR CYXU 171100Z 19003KT 2SM BR SCT005 BKN021 BKN060 23/22 A2996 RMK SF4SC1SC2 TCU ASOCTD SLP140=

CYXU;2005-07-17 11:37;SPECI CYXU 171137Z 23002KT 2 1/2SM TS BR SCT008 SCT021 BKN060 23/ RMK SF3SC1SC3 CB ASOCTD=

CYXU;2005-07-17 12:00;METAR CYXU 171200Z 20003KT 2SM -TSRA BR BKN009 BKN060 BKN090 23/22 A2995 RMK SF5SC2AC1 CB ASOCTD SLP138=

CYXU;2005-07-17 12:30;SPECI CYXU 171230Z 16003KT 2SM BR SCT009 BKN030 BKN060 23/ RMK SF4SC2SC1 TCU ASOCTD=

CYXU;2005-07-17 13:00;METAR CYXU 171300Z 18003KT 1 1/2SM BR SCT003 BKN009 OVC060 23/22 A2996 RMK SF3SF3SC2 SLP141=

CYXU;2005-07-17 13:28;SPECI CYXU 171328Z 00000KT 2SM BR FEW003 BKN009 OVC017 24/ RMK SF2SF4SC2=

CYXU;2005-07-17 13:52;SPECI CYXU 171352Z 23003KT 2 1/2SM BR SCT009 BKN020 BKN060 25/ RMK SF3SC3SC1=

CYXU;2005-07-17 14:00;METAR CYXU 171400Z 21003KT 2 1/2SM HZ SCT010 BKN020 BKN060 25/23 A2996 RMK SF3CU3SC1 SLP141=

CYXU;2005-07-17 15:00;METAR CYXU 171500Z 25003KT 4SM HZ FEW009 BKN013TCU BKN060 27/22 A2996 RMK SF2TCU4SC2 SLP141=

CYXU;2005-07-17 15:31;SPECI CYXU 171531Z 22002KT 4SM -TSRA HZ FEW009 BKN016CB BKN060 26/ RMK SF2CB4SC2=

CYXU;2005-07-17 16:08;SPECI CYXU 171608Z 29008G16KT 1SM +TSRA HZ BKN015CB OVC060 23/ RMK CB6SC2 VIS 4 S QUAD LTGCG=

CYXU;2005-07-17 16:29;SPECI CYXU 171629Z 19004KT 2SM TSRA BKN015CB OVC060 23/ RMK CB6SC2 VIS 4 N QUAD=

CYXU;2005-07-17 16:42;SPECI CYXU 171642Z 23003KT 4SM -TSRA HZ SCT015CB OVC040 23/ RMK CB4SC4 RERA=

CYXU;2005-07-17 17:00;METAR CYXU 171700Z 25003KT 4SM TS HZ BKN016CB OVC040 24/22 A2997 RERA RMK CB5SC3 SLP144=

CYXU;2005-07-17 17:45;SPECI CYXU 171745Z 27003KT 4SM HZ SCT016 BKN040 BKN060 BKN130 25/ RETS RMK CU4SC2SC1AC1=

CYXU;2005-07-17 18:00;METAR CYXU 171800Z 26003KT 5SM HZ SCT016 BKN040 OVC130 25/22 A2996 RETS RMK CU4SC2AC2 SLP140=

CYXU;2005-07-17 19:00;METAR CYXU 171900Z 16005KT 4SM -SHRA HZ BKN012 BKN056 26/23 A2994 RMK CF5CU2 SLP134=

CYXU;2005-07-17 19:20;SPECI CYXU 171920Z 17004KT 4SM HZ BKN012 BKN032 26/ RMK CF5CU2=

CYXU;2005-07-17 20:00;METAR CYXU 172000Z 19005KT 3SM HZ SCT012 BKN035 BKN075 27/23 A2993 RMK CU4CU2AC1 SLP130=

CYXU;2005-07-17 20:18;SPECI CYXU 172018Z 30006KT 4SM HZ SCT012 BKN030 BKN070 28/ RMK CU4CU3AC1 VIS 3 NE QUAD=

CYXU;2005-07-17 21:00;METAR CYXU 172100Z 25006KT 4SM HZ SCT015 BKN025TCU 27/23 A2992 RMK CU4TCU3 SLP127=

CYXU;2005-07-17 22:00;METAR CYXU 172200Z 29006KT 8SM FEW015 BKN031 29/22 A2992 RMK CF2CU5 SLP125=

CYXU;2005-07-17 23:00;METAR CYXU 172300Z 28005KT 8SM FEW015 BKN032 29/21 A2992 RMK CF1CU4 SLP126=

CYXU;2005-07-18 00:00;METAR CYXU 180000Z 30003KT 8SM FEW015 BKN240 28/21 A2992 RMK CU2CI1 TCU ASOCTD S SLP127=

CYXU;2005-07-18 01:48;SPECI CYXU 180148Z 20003KT 8SM TS BKN046 OVC240 25/ RMK SC6CI0 CB ASOCTD W LTGICCG W=

CYXU;2005-07-18 01:56;SPECI CYXU 180156Z 23005KT 8SM -TSRA OVC034 25/ RMK SC7 CB ASOCTD LTGICCG W=

CYXU;2005-07-18 02:00;METAR CYXU 180200Z 23005KT 8SM -TSRA OVC034 25/22 A2995 RMK SC7 CB ASOCTD LTGICCG OVHD SLP135=

CYXU;2005-07-18 02:19;SPECI CYXU 180219Z 20007KT 8SM TS BKN040 BKN260 25/ RMK SC5CI1 CB ASOCTD LTGIC S=

CYXU;2005-07-18 02:32;SPECI CYXU 180232Z 22004KT 8SM FEW040 BKN260 24/ RMK SC2CI2 CB ASOCTD LTGIC SE=

CYXU;2005-07-18 03:00;METAR CYXU 180300Z 18003KT 8SM BKN260 23/21 A2994 RMK CI3 RETS SLP134=

CYXU;2005-07-18 04:00;METAR CYXU 180400Z 15003KT 8SM FEW180 22/20 A2994 RMK AC1 AC TR SLP133=

CYXU;2005-07-18 05:00;METAR CYXU 180500Z 20004KT 8SM SKC 22/20 A2993 RMK SLP130=

CYXU;2005-07-18 06:00;METAR CYXU 180600Z 21003KT 8SM SKC 22/21 A2992 RMK SLP128=

CYXU;2005-07-18 07:00;METAR CYXU 180700Z 22003KT 8SM SKC 23/21 A2991 RMK SLP124=

CYXU;2005-07-18 08:00;METAR CYXU 180800Z 23003KT 8SM SKC 23/21 A2992 RMK SLP128=

CYXU;2005-07-18 09:42;SPECI CYXU 180942Z 23005KT 3SM BR SKC 22/=

CYXU;2005-07-18 10:00;METAR CYXU 181000Z 23006KT 2SM BR SKC 23/21 A2994 RMK SLP133=

CYXU;2005-07-18 11:00;METAR CYXU 181100Z 21005KT 2SM BR SKC 23/21 A2993 RMK SLP132=

CYXU;2005-07-18 11:44;SPECI CYXU 181144Z 21005KT 2 1/2SM BR SKC 24/=

CYXU;2005-07-18 12:00;METAR CYXU 181200Z 20006KT 2 1/2SM BR SKC 24/22 A2994 RMK SLP134=

CYXU;2005-07-18 12:40;SPECI CYXU 181240Z 22008KT 2 1/2SM BR SCT009 25/ RMK SF4=

CYXU;2005-07-18 13:00;METAR CYXU 181300Z 22008KT 2 1/2SM HZ SCT009 BKN250 25/23 A2993 RMK SF4CI2 SLP131=

CYXU;2005-07-18 13:36;SPECI CYXU 181336Z 21008KT 3SM HZ SCT009 BKN250 26/ RMK SF4CI2=

CYXU;2005-07-18 14:00;METAR CYXU 181400Z 22009KT 4SM HZ SCT012 BKN250 27/23 A2993 RMK CU4CI2 SLP130=

CYXU;2005-07-18 15:00;METAR CYXU 181500Z 24007KT 5SM HZ SCT020 BKN250 28/23 A2992 RMK CU4CI2 SLP127=

CYXU;2005-07-18 16:00;METAR CYXU 181600Z 20008KT 5SM HZ FEW020 BKN035TCU BKN250 29/23 A2991 RMK CU2TCU4CI2 SLP124=

CYXU;2005-07-18 16:32;SPECI CYXU 181632Z 19014KT 4SM HZ BKN018TCU 29/ RMK TCU6=

CYXU;2005-07-18 17:00;METAR CYXU 181700Z 19015G21KT 4SM HZ FEW018 SCT035TCU BKN250 29/24 A2990 RMK CU2TCU2CI2 SLP120=

CYXU;2005-07-18 17:32;SPECI CYXU 181732Z 19012G21KT 4SM -SHRA HZ FEW018 SCT035TCU BKN250 29/ RMK CU2TCU2CI2=

CYXU;2005-07-18 18:00;METAR CYXU 181800Z 20019KT 5SM HZ SCT020 BKN250 29/23 A2989 RMK CU4CI2 TCU ASOCTD SLP117=

CYXU;2005-07-18 19:00;METAR CYXU 181900Z 20017G22KT 5SM HZ SCT020 BKN250 29/23 A2988 RMK CU3CI2 TCU ASOCTD SLP112=

CYXU;2005-07-18 20:00;METAR CYXU 182000Z 20013G18KT 5SM HZ BKN024 29/23 A2987 RMK CU5 TCU ASOCTD SLP111=

CYXU;2005-07-18 21:00;METAR CYXU 182100Z 22007G18KT 5SM HZ BKN025 29/23 A2987 RMK CU6 TCU ASOCTD SLP110=

CYXU;2005-07-18 22:00;METAR CYXU 182200Z 23011G17KT 5SM HZ SCT035 29/22 A2985 RMK CU4 SLP103=

CYXU;2005-07-18 23:00;METAR CYXU 182300Z 20013KT 4SM HZ BKN035 BKN250 29/23 A2986 RMK CU6CI1 SLP105=

CYXU;2005-07-18 23:45;SPECI CYXU 182345Z 28022G32KT 4SM TS HZ FEW007 BKN029CB OVC060TCU 28/ RMK CF2CB4TCU2 MAMMATS=

CYXU;2005-07-18 23:50;SPECI CYXU 182350Z 29021G32KT 4SM -TSRA HZ FEW007 BKN029CB OVC040TCU 26/ RMK CF2CB4TCU2 MAMMATS PRESRR=

CYXU;2005-07-18 23:54;SPECI CYXU 182354Z 29016G32KT 1SM R15/P6000FT/U TSRA BR FEW007 OVC022CB 23/ RMK CF2CB6 LGTCC=

CYXU;2005-07-19 00:00;METAR CYXU 190000Z 30013G27KT 2SM -TSRA BR FEW007 OVC022CB 22/19 A2990 RERA RMK CF2CB6 SLP122=

CYXU;2005-07-19 00:31;SPECI CYXU 190031Z 14003KT 5SM -SHRA BR FEW022CB BKN040 OVC100 21/ RETS RMK CB2SC4AC2 CB E=

CYXU;2005-07-19 00:51;SPECI CYXU 190051Z 11005KT 6SM BR FEW022 BKN045 BKN100 OVC240 21/ RETS RMK SC2SC3AC2CI1=

CYXU;2005-07-19 01:00;METAR CYXU 190100Z 11007KT 6SM BR FEW022 FEW045 BKN100 OVC200 21/20 A2986 RMK SC1SC2AC2CI2 SLP109=

CYXU;2005-07-19 01:52;SPECI CYXU 190152Z 13003KT 6SM -SHRA BR FEW040 BKN100 OVC240 21/ RMK SC2AC4CI2=

CYXU;2005-07-19 02:00;METAR CYXU 190200Z 16002KT 8SM -SHRA FEW031 BKN100 OVC240 21/20 A2986 RMK SC2AC4CI2 SLP107=

CYXU;2005-07-19 02:36;SPECI CYXU 190236Z 17006KT 8SM FEW035 BKN250 22/ RMK SC2CI4=

CYXU;2005-07-19 04:00;METAR CYXU 190400Z 22005KT 10SM BKN170 BKN250 22/20 A2988 RMK AC5CI2 SLP114=

CYXU;2005-07-19 05:00;METAR CYXU 190500Z 23008KT 15SM SCT068 BKN180 22/20 A2990 RMK AC4AC3 SLP121=

CYXU;2005-07-19 06:00;METAR CYXU 190600Z 24008KT 15SM FEW008 SCT060 BKN170 22/20 A2990 RMK SF1SC3AC2 SLP121=

CYXU;2005-07-19 06:19;SPECI CYXU 190619Z 24008KT 8SM SCT007 BKN055 BKN180 22/ RMK SF3SC2AC2 BR=

CYXU;2005-07-19 06:45;SPECI CYXU 190645Z 24008KT 6SM BR BKN006 BKN060 22/ RMK SF5SC2=

CYXU;2005-07-19 07:00;METAR CYXU 190700Z 24008KT 6SM BR BKN006 BKN063 22/21 A2990 RMK SF5SC2 SLP118=

CYXU;2005-07-19 08:00;METAR CYXU 190800Z 25006KT 5SM BR BKN006 22/21 A2988 RMK SF6 SLP114=

CYXU;2005-07-19 09:00;METAR CYXU 190900Z 25006KT 4SM BR BKN006 22/20 A2990 RMK SF6 SLP118=

CYXU;2005-07-19 10:00;METAR CYXU 191000Z 25005KT 2SM BR BKN006 21/20 A2992 RMK SF7 SLP126=

CYXU;2005-07-19 10:26;SPECI CYXU 191026Z 25005KT 2SM BR FEW006 RMK SF2=

CYXU;2005-07-19 11:00;METAR CYXU 191100Z 25004KT 2SM BR FEW006 21/20 A2993 RMK SF1 SLP129=

CYXU;2005-07-19 11:14;SPECI CYXU 191114Z 24007KT 2 1/2SM BR BKN007 RMK SF6=

CYXU;2005-07-19 11:42;SPECI CYXU 191142Z 26006KT 2 1/2SM BR FEW007 RMK SF2=

CYXU;2005-07-19 12:00;METAR CYXU 191200Z 27005KT 2 1/2SM BR SCT008 23/21 A2995 RMK SF4 SLP139=

CYXU;2005-07-19 12:16;SPECI CYXU 191216Z 28007KT 3SM BR SCT008 RMK SF4=

CYXU;2005-07-19 13:00;METAR CYXU 191300Z 30006KT 7SM FEW009 24/20 A2997 RMK SF2 SLP145=

CYXU;2005-07-19 14:00;METAR CYXU 191400Z 29005KT 10SM FEW015 25/20 A2998 RMK CF2 SLP149=

CYXU;2005-07-19 15:00;METAR CYXU 191500Z 30009KT 15SM FEW030 27/19 A2999 RMK CF2 SLP152=

CYXU;2005-07-19 16:00;METAR CYXU 191600Z 30008KT 15SM FEW040 27/17 A2999 RMK CF1 SLP152=

CYXU;2005-07-19 17:00;METAR CYXU 191700Z 31007KT 15SM FEW050 28/16 A2999 RMK CU1 SLP152=

CYXU;2005-07-19 18:00;METAR CYXU 191800Z 30009KT 15SM FEW050 28/16 A2999 RMK CU2 SLP151=

CYXU;2005-07-19 19:00;METAR CYXU 191900Z 30010G15KT 15SM SCT050 28/16 A3000 RMK CU3 SLP154=

CYXU;2005-07-19 21:00;METAR CYXU 192100Z 28009G15KT 15SM FEW050 28/16 A3000 RMK CU2 SLP153=

CYXU;2005-07-19 22:00;METAR CYXU 192200Z 33011KT 15SM FEW050 27/16 A3001 RMK CU1 SLP156=

CYXU;2005-07-20 00:00;METAR CYXU 200000Z 34008KT 15SM FEW050 25/16 A3002 RMK CF1 SLP161=

CYXU;2005-07-20 01:00;METAR CYXU 200100Z 33004KT 15SM FEW250 24/16 A3004 RMK CI1 SLP167=

CYXU;2005-07-20 02:00;METAR CYXU 200200Z 32002KT 15SM FEW250 21/17 A3006 RMK CI1 SLP174=

CYXU;2005-07-20 03:00;METAR CYXU 200300Z 00000KT 15SM FEW250 20/17 A3007 RMK CI1 SLP179=

CYXU;2005-07-20 04:00;METAR CYXU 200400Z 34003KT 15SM FEW250 20/16 A3007 RMK CI1 SLP180=

CYXU;2005-07-20 05:00;METAR CYXU 200500Z 00000KT 15SM SKC 18/16 A3008 RMK SLP182=

CYXU;2005-07-20 06:00;METAR CYXU 200600Z 00000KT 15SM SKC 18/16 A3008 RMK SLP181=

CYXU;2005-07-20 07:00;METAR CYXU 200700Z 00000KT 15SM SKC 18/16 A3007 RMK SLP178=

CYXU;2005-07-20 08:00;METAR CYXU 200800Z 00000KT 12SM FEW006 16/16 A3007 RMK ST1 ST LAYER OVER CITY/ BR SLP180=

CYXU;2005-07-20 09:00;METAR CYXU 200900Z 00000KT 6SM BR PRFG FEW006 FEW045 16/15 A3008 RMK ST1SC2 FOG BANK EAST SIDE RWY 15/33 SLP183=

CYXU;2005-07-20 09:12;SPECI CYXU 200912Z 05002KT 3SM BR PRFG FEW006 FEW045 16/ RMK ST1SC2=

CYXU;2005-07-20 10:00;METAR CYXU 201000Z 06002KT 3SM BR PRFG FEW050 16/15 A3009 RMK SC1 SLP185=

CYXU;2005-07-20 11:00;METAR CYXU 201100Z 00000KT 5SM BR SKC 16/15 A3010 RMK SLP191=

CYXU;2005-07-20 12:00;METAR CYXU 201200Z 10002KT 7SM SKC 19/17 A3011 RMK SLP194=

CYXU;2005-07-20 13:00;METAR CYXU 201300Z 00000KT 15SM SKC 22/17 A3011 RMK SLP193=

CYXU;2005-07-20 14:00;METAR CYXU 201400Z 16004KT 15SM SKC 25/17 A3010 RMK SLP190=

CYXU;2005-07-20 15:00;METAR CYXU 201500Z 18004KT 15SM FEW035 26/17 A3010 RMK CF1 SLP191=

CYXU;2005-07-20 16:00;METAR CYXU 201600Z 18004KT 15SM SCT040 26/17 A3009 RMK CU3 SLP185=

CYXU;2005-07-20 17:00;METAR CYXU 201700Z 18007KT 15SM SCT040 27/18 A3007 RMK CU3 SLP181=

CYXU;2005-07-20 18:00;METAR CYXU 201800Z 19009KT 15SM SCT045 28/18 A3007 RMK CU3 SLP180=

CYXU;2005-07-20 19:00;METAR CYXU 201900Z 24005KT 15SM FEW045 28/19 A3006 RMK CU2 SLP175=

CYXU;2005-07-20 20:00;METAR CYXU 202000Z 18010KT 15SM FEW040 SCT220 29/19 A3004 RMK CU2CI1 SLP168=

CYXU;2005-07-20 21:00;METAR CYXU 202100Z 19009KT 15SM FEW040 SCT220 28/17 A3003 RMK CU1CI3 SLP164=

CYXU;2005-07-20 22:00;METAR CYXU 202200Z 18009KT 15SM FEW040 OVC220 27/18 A3002 RMK CU1CI2 CU TR SLP162=

CYXU;2005-07-20 23:00;METAR CYXU 202300Z 18008KT 15SM FEW040 OVC220 27/19 A3002 RMK CU1CI2 SLP163=

CYXU;2005-07-21 00:00;METAR CYXU 210000Z 18008KT 15SM BKN220 26/19 A3002 RMK CI2 SLP161=

CYXU;2005-07-21 01:00;METAR CYXU 210100Z 19006KT 15SM SCT220 24/19 A3002 RMK CI3 SLP161=

CYXU;2005-07-21 02:00;METAR CYXU 210200Z 18003KT 15SM OVC220 22/18 A3002 RMK CI2 SLP163=

CYXU;2005-07-21 04:00;METAR CYXU 210400Z 09002KT 15SM SCT220 21/17 A3001 RMK CC3 SLP158=

CYXU;2005-07-21 05:00;METAR CYXU 210500Z 09002KT 10SM SCT048 BKN130 20/18 A3001 RMK SC3AC4 SLP158=

CYXU;2005-07-21 05:20;SPECI CYXU 210520Z 09003KT 10SM -SHRA BKN058 BKN130 21/ RMK SC5AC2 CU ASOCTD=

CYXU;2005-07-21 06:26;SPECI CYXU 210626Z 16003KT 8SM SCT046 BKN170 21/ RMK SC4AC3=

CYXU;2005-07-21 07:00;METAR CYXU 210700Z 24007KT 10SM SCT045 BKN170 23/19 A2997 RMK SC3AC2 SLP146=

CYXU;2005-07-21 09:00;METAR CYXU 210900Z 27005KT 15SM FEW045 BKN085 22/19 A2998 RMK SC1AC6 SLP148=

CYXU;2005-07-21 10:00;METAR CYXU 211000Z 26005KT 15SM SCT085 BKN250 22/19 A2999 RMK AC3CI3 SLP151=

CYXU;2005-07-21 11:00;METAR CYXU 211100Z 30004KT 12SM BKN120 BKN250 22/19 A3000 RMK AC5CI1 SLP155=

CYXU;2005-07-21 12:00;METAR CYXU 211200Z 31004KT 10SM FEW120 FEW250 23/20 A3001 RMK AC1CI0 SLP157=

CYXU;2005-07-21 13:00;METAR CYXU 211300Z 34005KT 12SM FEW010 FEW020 FEW120 24/20 A3000 RMK SF1CF1AC1 SLP156=

CYXU;2005-07-21 14:00;METAR CYXU 211400Z 30007KT 15SM FEW018 26/21 A3000 RMK CF2 SLP155=

CYXU;2005-07-21 14:17;SPECI CYXU 211417Z 29005KT 15SM BKN018 26/ RMK SC5=

CYXU;2005-07-21 15:00;METAR CYXU 211500Z 35008KT 15SM SCT020 26/21 A3000 RMK CU3 SLP154=

CYXU;2005-07-21 16:00;METAR CYXU 211600Z 27003KT 15SM FEW025 27/20 A3001 RMK CU2 SLP157=

CYXU;2005-07-21 17:00;METAR CYXU 211700Z 30006KT 15SM FEW030 SCT250 29/21 A3001 RMK CU2CI0 SLP159=

CYXU;2005-07-21 18:00;METAR CYXU 211800Z 32005KT 15SM FEW035 BKN250 30/21 A3001 RMK CU2CI0 SLP157=

CYXU;2005-07-21 19:00;METAR CYXU 211900Z 00000KT 15SM FEW035 BKN220 30/20 A3000 RMK CU2CI1 SLP155=

CYXU;2005-07-21 20:00;METAR CYXU 212000Z 29007KT 15SM FEW040 BKN220 30/21 A3000 RMK CU2CI1 SLP152=

CYXU;2005-07-21 21:00;METAR CYXU 212100Z 29007KT 15SM FEW035 BKN220 30/21 A2999 RMK CU2CI1 SLP151=

CYXU;2005-07-22 00:00;METAR CYXU 220000Z 33005KT 15SM FEW200 BKN220 28/19 A2998 RMK CI1CI2 SLP148=

CYXU;2005-07-22 01:00;METAR CYXU 220100Z 00000KT 15SM FEW200 BKN220 25/19 A2998 RMK CI1CI2 SLP146=

CYXU;2005-07-22 02:00;METAR CYXU 220200Z 23003KT 15SM BKN220 23/19 A2998 RMK CI2 SLP148=

CYXU;2005-07-22 03:00;METAR CYXU 220300Z 00000KT 15SM OVC240 23/19 A2999 RMK CI4 SLP151=

CYXU;2005-07-22 04:00;METAR CYXU 220400Z 00000KT 10SM FEW030 OVC240 23/19 A2999 RMK SC2CI2 SLP151=

CYXU;2005-07-22 05:00;METAR CYXU 220500Z 27003KT 10SM FEW030 OVC240 24/20 A3000 RMK SC2CI2 SLP155=

CYXU;2005-07-22 06:00;METAR CYXU 220600Z 28002KT 10SM OVC140 24/21 A2999 RMK AC8 SLP149=

CYXU;2005-07-22 07:00;METAR CYXU 220700Z 33002KT 10SM OVC180 24/21 A2997 RMK CI4 SLP143=

CYXU;2005-07-22 08:00;METAR CYXU 220800Z 34008KT 10SM BKN120 OVC220 24/21 A2999 RMK AC6CI2 SLP149=

CYXU;2005-07-22 09:00;METAR CYXU 220900Z 36003KT 10SM -SHRA BKN120 OVC220 23/21 A2998 RMK AC6CI2 SLP145=

CYXU;2005-07-22 09:26;SPECI CYXU 220926Z 29004KT 10SM OVC100 23/ RMK AC8=

CYXU;2005-07-22 09:41;SPECI CYXU 220941Z 26005KT 10SM -SHRA OVC091 22/ RMK AC8 ACC ASOCTD=

CYXU;2005-07-22 10:00;METAR CYXU 221000Z 27002KT 8SM -SHRA SCT065 OVC090 22/21 A3000 RMK SC3AC5 ACC ASOCTD SLP154=

CYXU;2005-07-22 10:40;SPECI CYXU 221040Z 01002KT 10SM FEW065 OVC100 22/ RMK SC2AC6=

CYXU;2005-07-22 11:00;METAR CYXU 221100Z 36004KT 10SM FEW065 OVC100 22/21 A3000 RMK SC1AC7 SLP153=

CYXU;2005-07-22 11:33;SPECI CYXU 221133Z 23006KT 10SM -SHRA SCT065 OVC095 22/ RMK SC3AC5 ACC ASOCTD=

CYXU;2005-07-22 12:00;METAR CYXU 221200Z 30004KT 6SM -SHRA BR FEW010 SCT040 OVC080 21/19 A3003 RMK SF2SC2AC4 ACC ASOCTD SLP165=

CYXU;2005-07-22 12:45;SPECI CYXU 221245Z 02004KT 12SM BKN060 OVC090 21/ RMK SC5AC3=

CYXU;2005-07-22 13:00;METAR CYXU 221300Z 35004KT 15SM BKN060 BKN090 21/17 A3003 RMK SC6AC2 OCNL -SHRA SLP164=

CYXU;2005-07-22 14:00;METAR CYXU 221400Z 32004KT 15SM BKN060 BKN100 23/19 A3003 RMK SC5AC1 SLP166=

CYXU;2005-07-22 15:00;METAR CYXU 221500Z 03004KT 15SM BKN070 25/17 A3004 RMK AC7 SLP167=

CYXU;2005-07-22 16:00;METAR CYXU 221600Z 34004KT 15SM BKN062 25/17 A3004 RMK SC5 SLP169=

CYXU;2005-07-22 17:00;METAR CYXU 221700Z 30009KT 15SM BKN065 27/16 A3005 RMK SC6 SLP171=

CYXU;2005-07-22 18:00;METAR CYXU 221800Z 31008G15KT 15SM FEW045 FEW220 28/17 A3004 RMK CU2CI1 SLP167=

CYXU;2005-07-22 19:00;METAR CYXU 221900Z 32007KT 15SM FEW045 FEW200 29/16 A3005 RMK CU2CI0 SLP169=

CYXU;2005-07-22 20:00;METAR CYXU 222000Z 31011G16KT 15SM FEW050 FEW200 29/16 A3006 RMK CU1CI1 SLP172=

CYXU;2005-07-22 21:00;METAR CYXU 222100Z 32009G16KT 15SM FEW050 FEW200 27/15 A3006 RMK CU1CI1 TCU TPS DIST S SLP173=

CYXU;2005-07-22 22:00;METAR CYXU 222200Z 30009KT 15SM FEW050 27/14 A3006 RMK CU1 SLP173=

CYXU;2005-07-22 23:00;METAR CYXU 222300Z 32009KT 15SM FEW045 26/15 A3006 RMK CU1 SLP175=

CYXU;2005-07-23 00:00;METAR CYXU 230000Z 31008KT 15SM FEW200 24/16 A3007 RMK CI1 SLP178=

CYXU;2005-07-23 01:00;METAR CYXU 230100Z 34008KT 15SM FEW200 23/14 A3008 RMK CI1 SLP181=

CYXU;2005-07-23 02:00;METAR CYXU 230200Z 34006KT 15SM FEW220 21/14 A3010 RMK CI1 SLP187=

CYXU;2005-07-23 03:00;METAR CYXU 230300Z 33006KT 15SM SKC 20/14 A3011 RMK SLP194=

CYXU;2005-07-23 04:00;METAR CYXU 230400Z 34006KT 15SM SKC 19/14 A3012 RMK SLP196=

CYXU;2005-07-23 05:00;METAR CYXU 230500Z 35005KT 15SM SKC 17/13 A3013 RMK SLP199=

CYXU;2005-07-23 06:00;METAR CYXU 230600Z 36005KT 15SM SKC 16/13 A3014 RMK SLP202=

CYXU;2005-07-23 07:00;METAR CYXU 230700Z 36003KT 15SM SKC 15/13 A3015 RMK SLP206=

CYXU;2005-07-23 08:00;METAR CYXU 230800Z 01002KT 15SM SKC 14/13 A3016 RMK SLP209=

CYXU;2005-07-23 09:00;METAR CYXU 230900Z 00000KT 15SM SKC 14/12 A3017 RMK SLP215=

CYXU;2005-07-23 10:00;METAR CYXU 231000Z 00000KT 15SM SKC 13/12 A3018 RMK SLP218=

CYXU;2005-07-23 11:00;METAR CYXU 231100Z 00000KT 15SM FEW250 14/13 A3020 RMK CI1 SLP223=

CYXU;2005-07-23 12:00;METAR CYXU 231200Z 00000KT 15SM FEW250 18/14 A3021 RMK CI1 SLP228=

CYXU;2005-07-23 13:00;METAR CYXU 231300Z 10002KT 15SM FEW250 21/13 A3021 RMK CI1 SLP227=

CYXU;2005-07-23 14:00;METAR CYXU 231400Z 06003KT 15SM FEW250 24/14 A3020 RMK CI1 SLP226=

CYXU;2005-07-23 15:00;METAR CYXU 231500Z 05005KT 15SM FEW250 25/11 A3020 RMK CI1 SLP222=

CYXU;2005-07-23 16:00;METAR CYXU 231600Z 03002KT 15SM FEW055 25/11 A3020 RMK CU1 SLP224=

CYXU;2005-07-23 17:00;METAR CYXU 231700Z 03003KT 15SM FEW055 28/14 A3020 RMK CU2 SLP222=

CYXU;2005-07-23 18:00;METAR CYXU 231800Z 28007KT 15SM SCT065 27/11 A3020 RMK CU3 SLP224=

CYXU;2005-07-23 19:00;METAR CYXU 231900Z 33005KT 15SM FEW065 FEW250 27/10 A3017 RMK CU2CI1 SLP213=

CYXU;2005-07-23 20:00;METAR CYXU 232000Z 31006KT 15SM FEW065 SCT250 29/11 A3016 RMK CU2CI1 SLP209=

CYXU;2005-07-23 21:00;METAR CYXU 232100Z 32005KT 15SM FEW065 BKN240 28/12 A3014 RMK CU2CI2 SLP205=

CYXU;2005-07-23 22:00;METAR CYXU 232200Z 23005KT 15SM FEW068 FEW140 BKN210 27/13 A3013 RMK AC1AC1CI2 SLP199=

CYXU;2005-07-23 23:00;METAR CYXU 232300Z 20007KT 15SM FEW065 BKN210 25/12 A3012 RMK SC1CI1 SLP198=

CYXU;2005-07-24 00:00;METAR CYXU 240000Z 22008KT 15SM FEW060 BKN210 24/11 A3013 RMK SC1CI2 SLP202=

CYXU;2005-07-24 01:00;METAR CYXU 240100Z 26003KT 15SM FEW060 FEW180 BKN220 22/12 A3013 RMK SC1AC2CI1 SLP202=

CYXU;2005-07-24 02:00;METAR CYXU 240200Z 11002KT 15SM BKN190 BKN220 22/12 A3014 RMK AC5CI0 SLP204=

CYXU;2005-07-24 03:00;METAR CYXU 240300Z 10002KT 15SM BKN190 BKN240 20/14 A3013 RMK AC5CI0 SLP199=

CYXU;2005-07-24 04:00;METAR CYXU 240400Z 09002KT 15SM BKN240 19/14 A3012 RMK CI6 SLP195=

CYXU;2005-07-24 05:00;METAR CYXU 240500Z 09002KT 15SM BKN160 19/14 A3012 RMK AC7 SLP196=

CYXU;2005-07-24 06:00;METAR CYXU 240600Z 09002KT 15SM BKN130 19/14 A3012 RMK AC7 SLP197=

CYXU;2005-07-24 08:00;METAR CYXU 240800Z 09004KT 15SM OVC110 19/14 A3010 RMK AC8 SLP188=

CYXU;2005-07-24 09:00;METAR CYXU 240900Z 11002KT 15SM BKN100 19/14 A3008 RMK AC6 SLP181=

CYXU;2005-07-24 10:00;METAR CYXU 241000Z 10004KT 15SM SCT090 BKN230 18/14 A3007 RMK AC3CI1 SLP180=

CYXU;2005-07-24 11:00;METAR CYXU 241100Z 10004KT 15SM FEW080 BKN100 OVC230 19/16 A3008 RMK AC2AC4CI2 SLP183=

CYXU;2005-07-24 12:00;METAR CYXU 241200Z 15004KT 15SM BKN050 BKN100 OVC200 20/16 A3008 RMK SC5AC2CI1 SLP183=

CYXU;2005-07-24 12:40;SPECI CYXU 241240Z 16003KT 12SM -SHRA OVC047 20/ RMK SC8 TCU EMBD=

CYXU;2005-07-24 13:00;METAR CYXU 241300Z 18005KT 12SM -SHRA BKN045 OVC080 21/17 A3007 RMK SC7AC1 TCU EMBD SLP181=

CYXU;2005-07-24 14:00;METAR CYXU 241400Z 17007KT 12SM -SHRA SCT035 OVC150 21/18 A3004 RMK SC3AC5 ACC EMBD SLP169=

CYXU;2005-07-24 14:50;SPECI CYXU 241450Z 20005KT 8SM -TSRA SCT050CB OVC120 21/ RMK CB3AC5=

CYXU;2005-07-24 15:00;METAR CYXU 241500Z 22007KT 6SM TSRA BKN035CB OVC120 21/19 A3005 RMK CB5AC3 SLP174=

CYXU;2005-07-24 16:00;METAR CYXU 241600Z 24003KT 8SM TSRA BKN040CB OVC090 21/20 A3005 RMK CB5AC3 SLP173=

CYXU;2005-07-24 16:08;SPECI CYXU 241608Z 24006KT 8SM -SHRA SCT040TCU OVC090 21/ RETSRA RMK TCU4AC4=

CYXU;2005-07-24 17:00;METAR CYXU 241700Z 18006KT 15SM FEW010 FEW040 BKN075 22/20 A3000 RETSRA RMK SF1SC2AC5 SLP157=

CYXU;2005-07-24 17:52;SPECI CYXU 241752Z 18010G15KT 15SM -SHRA FEW010 FEW060 SCT075 BKN150 22/ RMK SF2SC1AC2AC3=

CYXU;2005-07-24 18:00;METAR CYXU 241800Z 18010G15KT 15SM -SHRA FEW010 FEW060 SCT075 BKN150 23/20 A2996 RMK SF2SC1AC2AC3 -SHRA OCNL SLP143=

CYXU;2005-07-24 18:27;SPECI CYXU 241827Z 18011G21KT 15SM SCT010 BKN150 23/ RMK SF4AC3=

CYXU;2005-07-24 18:34;SPECI CYXU 241834Z 19010G16KT 15SM BKN012 OVC150 24/ RMK CU5AC3=

CYXU;2005-07-24 18:56;SPECI CYXU 241856Z 17016KT 15SM -SHRA FEW012 BKN060 OVC150 23/ RMK CF2SC3ACC3=

CYXU;2005-07-24 19:00;METAR CYXU 241900Z 20013G19KT 15SM -SHRA FEW012 BKN060 OVC170 23/20 A2990 RMK CF2SC3ACC2 SLP123=

CYXU;2005-07-24 19:19;SPECI CYXU 241919Z 19010G17KT 15SM FEW015 OVC110 25/ RMK CF2ACC6=

CYXU;2005-07-24 20:00;METAR CYXU 242000Z 18013KT 15SM BKN023 OVC110 24/21 A2993 RMK CU6AC2 TCU ASOCTD SLP131=

CYXU;2005-07-24 21:00;METAR CYXU 242100Z 20012G18KT 15SM FEW015 BKN039 OVC100 24/20 A2990 RMK CF1SC6ACC2 SLP121=

CYXU;2005-07-24 22:00;METAR CYXU 242200Z 20015G20KT 15SM FEW015 OVC140 25/20 A2989 RMK CF2AC6 SLP117=

CYXU;2005-07-24 23:00;METAR CYXU 242300Z 18012KT 15SM FEW030 OVC078 24/21 A2987 RMK SC2AC6 SLP112=

CYXU;2005-07-25 00:00;METAR CYXU 250000Z 18009KT 15SM FEW030 BKN083 BKN240 24/21 A2985 RMK SC2AC4CI1 SLP103=

CYXU;2005-07-25 00:21;SPECI CYXU 250021Z 18009KT 15SM TS FEW030 BKN040CB 24/ RMK CF2CB6=

CYXU;2005-07-25 00:53;SPECI CYXU 250053Z 18010KT 10SM -TSRA FEW025 OVC040CB 24/ RMK CF2CB6 LTGCG=

CYXU;2005-07-25 01:00;METAR CYXU 250100Z 18010KT 10SM -TSRA OVC040CB 23/21 A2982 RMK CB8 SLP095=

CYXU;2005-07-25 02:36;SPECI CYXU 250236Z 00000KT 10SM TS OVC023CB 24/ RMK CB8 LTGIC=

CYXU;2005-07-25 03:00;METAR CYXU 250300Z 18010KT 8SM TS SCT023CB OVC088 24/23 A2980 RERA RMK CB4AC4 LTGIC S-SW SLP086=

CYXU;2005-07-25 04:00;METAR CYXU 250400Z 23005KT 5SM BR FEW025 OVC070 24/23 A2980 RETS RMK SC2AC6 SLP086=

CYXU;2005-07-25 05:00;METAR CYXU 250500Z 18005KT 4SM BR FEW025 BKN052 24/23 A2982 RMK SC2SC5 SLP092=

CYXU;2005-07-25 06:00;METAR CYXU 250600Z 27005KT 6SM BR FEW050 25/24 A2983 RMK SC2 SLP095=

CYXU;2005-07-25 07:00;METAR CYXU 250700Z 27005KT 4SM BR SKC 25/23 A2983 RMK SLP098=

CYXU;2005-07-25 08:00;METAR CYXU 250800Z 27003KT 2SM BR BKN008 24/23 A2986 RMK ST6 SLP106=

CYXU;2005-07-25 08:45;SPECI CYXU 250845Z 27005KT 2 1/2SM BR FEW007 24/ RMK ST2=

CYXU;2005-07-25 09:00;METAR CYXU 250900Z 32005KT 3SM BR SKC 23/22 A2987 RMK SLP110=

CYXU;2005-07-25 09:28;SPECI CYXU 250928Z 32005KT 2 1/2SM BR FEW006 23/ RMK SF2 WND EST=

CYXU;2005-07-25 10:00;METAR CYXU 251000Z 32003KT 2SM BR FEW100 23/22 A2988 RMK AC1 WND EST SLP113=

CYXU;2005-07-25 10:23;SPECI CYXU 251023Z 32003KT 2SM BR BKN006 23/ RMK SF6 WND ESTD=

CYXU;2005-07-25 10:39;SPECI CYXU 251039Z 32003KT 2 1/2SM BR BKN004 23/ RMK SF6 WND ESTD=

CYXU;2005-07-25 11:00;METAR CYXU 251100Z 32004KT 2 1/2SM BR BKN005 23/22 A2989 RMK SF6 WND=

CYXU;2005-07-25 11:33;SPECI CYXU 251133Z 32005KT 2SM BR OVC003 23/ RMK SF7 WND ESTD=

CYXU;2005-07-25 12:00;METAR CYXU 251200Z 32006KT 1 1/2SM BR OVC003 OVC100 23/22 A2991 RMK SF7AC1 WND ESTD SLP125=

CYXU;2005-07-25 12:23;SPECI CYXU 251223Z 32006KT 2SM BR BKN004 BKN100 24/ RMK SF6AC2 WND=

CYXU;2005-07-25 12:52;SPECI CYXU 251252Z 32006KT 2 1/2SM BR OVC007 24/ RMK SF8 WND ESTD=

CYXU;2005-07-25 13:00;METAR CYXU 251300Z 32005KT 2 1/2SM BR OVC007 24/22 A2993 RMK SF8 WND=

CYXU;2005-07-25 13:45;SPECI CYXU 251345Z 32005KT 3SM BR OVC008 25/ RMK SF8 WND ESTD=

CYXU;2005-07-25 14:00;METAR CYXU 251400Z 32005KT 3SM HZ BKN008 BKN025 26/23 A2993 RMK CU6SC1 WND ESTD SLP129=

CYXU;2005-07-25 15:00;METAR CYXU 251500Z 32007KT 10SM FEW024 SCT250 28/22 A2994 RMK CU2CI1 WND=

CYXU;2005-07-25 16:00;METAR CYXU 251600Z 32010KT 12SM FEW030 BKN250 29/21 A2994 RMK CF1CI1 WND=

CYXU;2005-07-25 19:00;METAR CYXU 251900Z 32010KT 15SM FEW170 SCT250 30/15 A2995 RMK AC1CI1 WND=

CYXU;2005-07-25 21:00;METAR CYXU 252100Z 32012KT 15SM FEW160 SCT250 30/14 A2994 RMK AC2CI1 WND=

CYXU;2005-07-25 22:00;METAR CYXU 252200Z 32008KT 15SM FEW160 SCT250 30/13 A2993 RMK AC1CI1 WND=

CYXU;2005-07-25 23:00;METAR CYXU 252300Z 32005KT 15SM FEW120 BKN200 28/14 A2993 RMK AC2CI1 WND=

CYXU;2005-07-26 00:00;METAR CYXU 260000Z 32003KT 15SM FEW120 BKN200 28/15 A2992 RMK AC2CI1 WND=

CYXU;2005-07-26 01:00;METAR CYXU 260100Z 32003KT 15SM SCT150 BKN200 25/16 A2993 RMK AC3CI1 WND=

CYXU;2005-07-26 03:00;METAR CYXU 260300Z 32003KT 15SM FEW200 21/17 A2993 RMK CI1 WND ESTD SLP130=

CYXU;2005-07-26 04:00;METAR CYXU 260400Z 32003KT 15SM FEW200 20/16 A2991 RMK CI0 WND ESTD SLP125=

CYXU;2005-07-26 05:00;METAR CYXU 260500Z 32002KT 15SM FEW240 20/16 A2990 RMK CI1 WND EST SLP121=

CYXU;2005-07-26 06:00;METAR CYXU 260600Z 32002KT 15SM FEW240 19/16 A2989 RMK CI1 SLP117=

CYXU;2005-07-26 07:00;METAR CYXU 260700Z 00000KT 15SM FEW070 FEW150 19/16 A2988 RMK SC1AC2 SLP114=

CYXU;2005-07-26 08:00;METAR CYXU 260800Z 32003KT 15SM SCT200 20/18 A2986 RMK CS3 SLP106=

CYXU;2005-07-26 09:00;METAR CYXU 260900Z 32002KT 10SM SCT200 21/20 A2983 RMK CS3 SLP097=

CYXU;2005-07-26 10:00;METAR CYXU 261000Z 31005KT 3SM BR SCT120 OVC200 23/21 A2981 RMK AC4CS4 WND ESTD SLP090=

CYXU;2005-07-26 11:00;METAR CYXU 261100Z 18010KT 8SM OVC260 23/21 A2980 RMK CS8 WND ESTD SLP084=

CYXU;2005-07-26 11:51;SPECI CYXU 261151Z 24010KT 10SM TS BKN100 OVC260 RMK AC5CS3 CB ASCTD NW WND ESTD=

CYXU;2005-07-26 12:00;METAR CYXU 261200Z 24010KT 8SM TS FEW020 BKN100 OVC260 24/21 A2981 RMK SC2AC5CS2 CB ASCTD NW WND ESTD SLP089=

CYXU;2005-07-26 12:15;SPECI CYXU 261215Z 24009KT 8SM BKN022 OVC100 24/ RMK SC5AC3 WND ESTD=

CYXU;2005-07-26 12:17;SPECI CYXU 261217Z 24011KT 8SM TS BKN022 OVC100 24/ RMK SC6AC2 CB ASCTD WND ESTD=

CYXU;2005-07-26 12:28;SPECI CYXU 261228Z 24012KT 8SM -TSRA BKN021 OVC100 24/ RMK SC7AC1 CB ASCTD WND ESTD=

CYXU;2005-07-26 12:38;SPECI CYXU 261238Z 24012KT 2 1/2SM -TSRA BR OVC021 24/ RMK SC8 CB ASCTD WND ESTD=

CYXU;2005-07-26 13:00;METAR CYXU 261300Z 22005KT 2 1/2SM -TSRA BR OVC016 23/21 A2981 RMK SC8 CB EMBD WND ESTD SLP090=

CYXU;2005-07-26 13:36;SPECI CYXU 261336Z 22002KT 2 1/2SM -TSRA BR OVC011 23/ RMK SC8 CB EMBD WND ESTD=

CYXU;2005-07-26 13:52;SPECI CYXU 261352Z 24004KT 3SM -TSRA BR SCT011 OVC042 23/ RMK SC3SC5 CB ASCTD WND ESTD=

CYXU;2005-07-26 14:00;METAR CYXU 261400Z 24003KT 3SM -SHRA BR FEW011 SCT040 OVC120 23/22 A2978 RMK SC1SC3AC4 WND ESTD SLP078=

CYXU;2005-07-26 14:28;SPECI CYXU 261428Z 23005KT 5SM BR SCT040 OVC100 23/ RMK SC3AC5 WND=

CYXU;2005-07-26 15:00;METAR CYXU 261500Z 24007KT 8SM FEW040TCU SCT080 BKN260 24/22 A2977 RMK TCU1AC3CS3 WND ESTD SLP077=

CYXU;2005-07-26 16:00;METAR CYXU 261600Z 23009KT 10SM FEW020 BKN160 27/23 A2977 RMK SC2AC5 WND=

CYXU;2005-07-26 17:00;METAR CYXU 261700Z 30012KT 10SM OVC020 27/23 A2976 RMK SC8 WND ESTD SLP074=

CYXU;2005-07-26 18:00;METAR CYXU 261800Z 25007KT 8SM BKN020 OVC040 28/24 A2975 RMK SC6SC2 SLP068=

CYXU;2005-07-26 19:00;METAR CYXU 261900Z 24012G24KT 4SM -SHRA BKN020TCU OVC090 29/24 A2971 RMK TCU5AC3 SLP057=

CYXU;2005-07-26 19:37;SPECI CYXU 261937Z 22015G20KT 3SM -TSRA BR BKN022CB OVC090 26/ RMK CB6AC2 LTGCC=

CYXU;2005-07-26 20:15;SPECI CYXU 262015Z 23012G21KT 3SM -TSRA BR BKN026CB OVC060 23/ RMK CB5SC3 LTGCG=

CYXU;2005-07-26 20:54;SPECI CYXU 262054Z 22012KT 5SM BR FEW026CB SCT060 BKN160 OVC210 23/ RETS RMK CB2SC2AC2CI2 TS DSNT E QUAD=

CYXU;2005-07-26 21:00;METAR CYXU 262100Z 22012KT 5SM BR FEW026CB SCT060 BKN160 OVC210 23/21 A2973 RETS RMK CB2SC2AC2CI2 SLP065=

CYXU;2005-07-26 21:42;SPECI CYXU 262142Z 26006KT 8SM FEW060 BKN160 OVC210 24/ RMK SC2AC3CI2=

CYXU;2005-07-26 22:00;METAR CYXU 262200Z 24007KT 8SM FEW060 BKN160 OVC210 24/22 A2973 RMK SC1AC4CI3 CB TOPS DSNT E QUAD SLP064=

CYXU;2005-07-26 23:00;METAR CYXU 262300Z 23006KT 8SM BKN042TCU OVC160 25/22 A2974 RMK TCU5AC3 SLP067=

CYXU;2005-07-26 23:15;SPECI CYXU 262315Z 23008KT 8SM -SHRA FEW009 SCT020 BKN042TCU OVC160 25/ RMK CF1CU2TCU2AC2=

CYXU;2005-07-26 23:51;SPECI CYXU 262351Z 21007KT 8SM FEW020 SCT042TCU OVC160 24/ RMK CU2TCU2AC4=

CYXU;2005-07-27 00:00;METAR CYXU 270000Z 23010KT 8SM FEW020 SCT042TCU OVC160 24/22 A2974 RMK CU1TCU3AC4 SHRA NE QUAD VIS 5 NE QUAD SLP065=

CYXU;2005-07-27 00:14;SPECI CYXU 270014Z 30008KT 6SM -SHRA FEW010 SCT020 BKN042TCU OVC160 24/ RMK CF1CU2TCU3AC2 VIS 2 E QUAD=

CYXU;2005-07-27 00:40;SPECI CYXU 270040Z 31006KT 15SM FEW010 BKN036TCU BKN160 23/ RMK CF1TCU4AC1=

CYXU;2005-07-27 01:00;METAR CYXU 270100Z 32007KT 15SM SCT010 BKN038 BKN100 23/21 A2976 RMK CF4SC2AC1 SLP073=

CYXU;2005-07-27 01:32;SPECI CYXU 270132Z 34008KT 15SM BKN008 BKN038 22/ RMK SF5SC2=

CYXU;2005-07-27 02:00;METAR CYXU 270200Z 28004KT 15SM BKN009 OVC038 22/20 A2980 RMK SF6SC2 SLP085=

CYXU;2005-07-27 03:00;METAR CYXU 270300Z 31005KT 15SM BKN009 BKN110 OVC240 21/19 A2982 RMK SF5AC1CI2 SLP093=

CYXU;2005-07-27 04:00;METAR CYXU 270400Z 30008KT 15SM BKN008 OVC110 20/19 A2982 RMK SF6AC2 SLP094=

CYXU;2005-07-27 05:30;SPECI CYXU 270530Z 34006KT 15SM -SHRA BKN007 OVC070 20/ RMK SF6AC2=

CYXU;2005-07-27 06:00;METAR CYXU 270600Z 34004KT 10SM -SHRA OVC007 20/18 A2982 RMK SF8 SLP094=

CYXU;2005-07-27 06:07;SPECI CYXU 270607Z 35004KT 10SM SHRA OVC008 19/ RMK SF8=

CYXU;2005-07-27 07:00;METAR CYXU 270700Z 03004KT 10SM -SHRA FEW009 OVC095 19/18 A2979 RERA RMK SF2AC6 SLP083=

CYXU;2005-07-27 08:00;METAR CYXU 270800Z 34006KT 10SM -SHRA OVC046 19/17 A2980 RMK SC8 SLP088=

CYXU;2005-07-27 09:00;METAR CYXU 270900Z 36008KT 6SM -SHRA BR FEW025 OVC053 18/17 A2981 RMK SF2SC6 SLP093=

CYXU;2005-07-27 10:00;METAR CYXU 271000Z 36006KT 6SM -SHRA BR BKN046 OVC092 17/16 A2981 RMK SC5AC3 SLP092=

CYXU;2005-07-27 11:00;METAR CYXU 271100Z 35007KT 5SM -SHRA BR BKN065 OVC085 18/16 A2981 RMK SC5AC3 SLP093=

CYXU;2005-07-27 12:00;METAR CYXU 271200Z 35005KT 5SM -SHRA BR FEW008 SCT020 BKN045 OVC070 18/17 A2985 RMK SF1SC2SC3AC2 SLP105=

CYXU;2005-07-27 12:13;SPECI CYXU 271213Z 36005KT 3SM -SHRA BR BKN008 BKN015 BKN038 OVC070 18/ RMK SF5SC1SC2AC1=

CYXU;2005-07-27 13:00;METAR CYXU 271300Z 36005KT 4SM -SHRA BR SCT009 BKN015 BKN040 OVC080 18/17 A2987 RMK SF3SC2SC2AC2 SLP112=

CYXU;2005-07-27 13:10;SPECI CYXU 271310Z 35004KT 3SM -SHRA BR BKN007 BKN015 OVC038 18/ RMK SF5SC2SC2=

CYXU;2005-07-27 13:41;SPECI CYXU 271341Z 36004KT 8SM FEW008 BKN046 OVC060 18/ RMK SF1SC6SC2=

CYXU;2005-07-27 14:00;METAR CYXU 271400Z 01004KT 10SM FEW008 BKN041 OVC080 18/17 A2990 RMK SF1SC6AC2 SLP121=

CYXU;2005-07-27 14:55;SPECI CYXU 271455Z 02007KT 10SM -SHRA FEW008 BKN046 BKN070 OVC160 19/ RMK SF1SC6SC1AC1=

CYXU;2005-07-27 15:00;METAR CYXU 271500Z 02007KT 10SM -SHRA FEW008 BKN046 BKN070 OVC160 19/16 A2991 RMK SF1SC6SC1AC1 SLP126=

CYXU;2005-07-27 15:25;SPECI CYXU 271525Z 01003KT 10SM SCT025 BKN057 OVC120 19/ RMK SC3SC4AC1=

CYXU;2005-07-27 16:00;METAR CYXU 271600Z 34004KT 15SM FEW012 BKN030 BKN059 20/17 A2994 RMK SF1CU4SC2 SLP137=

CYXU;2005-07-27 17:00;METAR CYXU 271700Z 33006KT 15SM BKN020 BKN060 21/17 A2995 RMK CU6SC1 SLP140=

CYXU;2005-07-27 18:00;METAR CYXU 271800Z 33008KT 15SM BKN033 BKN180 22/15 A2996 RMK CU5AC1 SLP141=

CYXU;2005-07-27 19:00;METAR CYXU 271900Z 35008KT 15SM BKN033 BKN140 23/14 A2997 RMK CU5AC1 SLP146=

CYXU;2005-07-27 20:00;METAR CYXU 272000Z 32009KT 15SM SCT033 BKN200 24/14 A2998 RMK CU4CI2 SLP150=

CYXU;2005-07-27 21:00;METAR CYXU 272100Z 34010G15KT 15SM SCT035 BKN200 23/15 A2999 RMK CU4CI1 SLP154=

CYXU;2005-07-27 22:00;METAR CYXU 272200Z 35012KT 15SM SCT035 SCT140 23/14 A3000 RMK CU3AC1 SLP157=

CYXU;2005-07-27 23:00;METAR CYXU 272300Z 34009G15KT 15SM FEW035 FEW140 22/13 A3002 RMK CU1AC1 SLP163=

CYXU;2005-07-28 00:00;METAR CYXU 280000Z 33010KT 15SM FEW035 FEW140 20/12 A3003 RMK CU1AC1 SLP169=

CYXU;2005-07-28 01:00;METAR CYXU 280100Z 30004KT 15SM FEW035 FEW200 18/12 A3004 RMK CU1CI1 SLP171=

CYXU;2005-07-28 02:00;METAR CYXU 280200Z 31004KT 15SM FEW200 16/12 A3006 RMK CI1 SLP176=

CYXU;2005-07-28 03:00;METAR CYXU 280300Z 34005KT 15SM SKC 15/11 A3006 RMK SLP178=

CYXU;2005-07-28 04:00;METAR CYXU 280400Z 02003KT 15SM SKC 14/11 A3007 RMK SLP182=

CYXU;2005-07-28 05:00;METAR CYXU 280500Z 35005KT 15SM SKC 13/11 A3008 RMK SLP186=

CYXU;2005-07-28 06:00;METAR CYXU 280600Z 36005KT 15SM SKC 13/11 A3008 RMK SLP187=

CYXU;2005-07-28 07:00;METAR CYXU 280700Z 01005KT 15SM SKC 12/10 A3009 RMK SLP188=

CYXU;2005-07-28 08:00;METAR CYXU 280800Z 01004KT 15SM SKC 12/10 A3009 RMK SLP189=

CYXU;2005-07-28 09:00;METAR CYXU 280900Z 35004KT 15SM SKC 12/10 A3010 RMK SLP191=

CYXU;2005-07-28 10:00;METAR CYXU 281000Z 36004KT 15SM MIFG FEW120 FEW250 11/10 A3010 RMK AC1CI1 SLP193=

CYXU;2005-07-28 11:00;METAR CYXU 281100Z 00000KT 15SM FEW120 FEW250 12/10 A3011 RMK ACC1CI1 ACC S SLP197=

CYXU;2005-07-28 12:00;METAR CYXU 281200Z 03002KT 15SM FEW030 FEW250 14/11 A3012 RMK CU1CI1 SLP199=

CYXU;2005-07-28 13:00;METAR CYXU 281300Z 04002KT 15SM FEW100 FEW250 17/13 A3013 RMK ACC1CI1 SLP201=

CYXU;2005-07-28 14:00;METAR CYXU 281400Z 08002KT 15SM FEW025 FEW120 FEW250 18/12 A3012 RMK CF1AC1CI0 SLP199=

CYXU;2005-07-28 15:00;METAR CYXU 281500Z 30002KT 15SM FEW025 FEW250 19/12 A3012 RMK CU2CI1 SLP200=

CYXU;2005-07-28 16:00;METAR CYXU 281600Z 21002KT 15SM FEW036 FEW250 21/13 A3012 RMK CU2CI0 SLP200=

CYXU;2005-07-28 17:00;METAR CYXU 281700Z 36003KT 15SM FEW040 FEW250 22/11 A3011 RMK CU1CI0 SLP197=

CYXU;2005-07-28 18:00;METAR CYXU 281800Z 34006KT 15SM FEW044 SCT250 23/12 A3010 RMK CU1CI0 SLP193=

CYXU;2005-07-28 19:00;METAR CYXU 281900Z 31007KT 15SM FEW045 FEW250 23/12 A3010 RMK CU1CI1 SLP192=

CYXU;2005-07-28 20:00;METAR CYXU 282000Z 29007KT 15SM FEW048 23/11 A3010 RMK CU1 SLP192=

CYXU;2005-07-28 21:00;METAR CYXU 282100Z 32007KT 15SM FEW040 23/09 A3008 RMK CF1 SLP187=

CYXU;2005-07-28 22:00;METAR CYXU 282200Z 30005KT 15SM FEW040 23/10 A3009 RMK CF1 SLP189=

CYXU;2005-07-28 23:00;METAR CYXU 282300Z 31005KT 15SM FEW040 22/10 A3009 RMK CF1 SLP188=

CYXU;2005-07-29 00:00;METAR CYXU 290000Z 32003KT 15SM FEW040 FEW250 22/11 A3009 RMK CU1CI1 SLP189=

CYXU;2005-07-29 01:00;METAR CYXU 290100Z 36002KT 15SM FEW250 20/12 A3009 RMK CI1 SLP188=

CYXU;2005-07-29 02:00;METAR CYXU 290200Z 10002KT 15SM FEW250 17/12 A3009 RMK CI1 SLP189=

CYXU;2005-07-29 03:00;METAR CYXU 290300Z 00000KT 15SM SKC 15/12 A3010 RMK SLP193=

CYXU;2005-07-29 04:00;METAR CYXU 290400Z 18002KT 15SM SKC 15/12 A3010 RMK SLP194=

CYXU;2005-07-29 05:00;METAR CYXU 290500Z 00000KT 15SM FEW250 15/12 A3011 RMK CI0 SLP195=

CYXU;2005-07-29 06:00;METAR CYXU 290600Z 00000KT 15SM SKC 14/11 A3011 RMK SLP195=

CYXU;2005-07-29 09:00;METAR CYXU 290900Z 00000KT 15SM SKC 13/11 A3010 RMK SLP194=

CYXU;2005-07-29 10:00;METAR CYXU 291000Z 00000KT 15SM FEW020 13/11 A3012 RMK SC1 SLP199=

CYXU;2005-07-29 12:00;METAR CYXU 291200Z 27002KT 12SM FEW045 FEW100 18/15 A3015 RMK SC1ACC1 HZ ACC DIST S SLP207=

CYXU;2005-07-29 13:00;METAR CYXU 291300Z 27004KT 15SM FEW100 FEW140 20/15 A3016 RMK ACC1AC1 ACC DIST S SLP210=

CYXU;2005-07-29 14:00;METAR CYXU 291400Z 28007KT 15SM FEW030 FEW140 22/15 A3016 RMK CU1AC1 SLP210=

CYXU;2005-07-29 15:00;METAR CYXU 291500Z 29006KT 15SM FEW040 FEW140 23/13 A3016 RMK CU1AC1 SLP212=

CYXU;2005-07-29 16:00;METAR CYXU 291600Z 28006KT 15SM FEW040 FEW140 24/14 A3018 RMK CU1AC1 SLP218=

CYXU;2005-07-29 17:00;METAR CYXU 291700Z 30006KT 15SM FEW042 SCT140 SCT250 25/15 A3018 RMK CU2AC1CI1 SLP220=

CYXU;2005-07-29 18:00;METAR CYXU 291800Z 29006KT 15SM FEW044 BKN090 25/14 A3018 RMK CU2AC4 SLP220=

CYXU;2005-07-29 19:00;METAR CYXU 291900Z 31005KT 15SM FEW045 BKN100 25/14 A3018 RMK CU2AC3 SLP219=

CYXU;2005-07-29 20:00;METAR CYXU 292000Z 30003KT 15SM FEW045 BKN120 25/14 A3018 RMK CU2AC5 SLP219=

CYXU;2005-07-29 21:00;METAR CYXU 292100Z 30005KT 15SM BKN060 BKN080 25/14 A3018 RMK CU6AC2 TCU NW SLP219=

CYXU;2005-07-29 21:55;SPECI CYXU 292155Z 28006KT 12SM -SHRA FEW050 BKN060TCU 23/ RMK CU2TCU6=

CYXU;2005-07-29 22:00;METAR CYXU 292200Z 29005KT 12SM -SHRA FEW050 BKN060TCU 23/15 A3019 RMK CU2TCU6 SLP221=

CYXU;2005-07-29 22:23;SPECI CYXU 292223Z 35010KT 12SM SCT060TCU BKN087 23/ RMK TCU4AC2=

CYXU;2005-07-29 23:00;METAR CYXU 292300Z 32006KT 15SM FEW060TCU BKN083 22/15 A3019 RMK TCU2AC5 SLP221=

CYXU;2005-07-30 00:00;METAR CYXU 300000Z 33008KT 15SM FEW060TCU BKN080 BKN120 21/15 A3020 RMK TCU2AC3AC2 SLP224=

CYXU;2005-07-30 01:00;METAR CYXU 300100Z 35002KT 15SM FEW045 BKN100 OVC240 20/16 A3020 RMK SC1AC6CS2 SLP227=

CYXU;2005-07-30 02:00;METAR CYXU 300200Z 33002KT 15SM BKN100 19/16 A3022 RMK AC5 SLP232=

CYXU;2005-07-30 03:00;METAR CYXU 300300Z 36003KT 15SM SCT045 BKN100 19/16 A3022 RMK SC3AC2 SLP231=

CYXU;2005-07-30 04:00;METAR CYXU 300400Z 36006KT 15SM FEW045 BKN080 19/15 A3023 RMK SC2AC6 SLP235=

CYXU;2005-07-30 05:00;METAR CYXU 300500Z 02006KT 15SM BKN042 BKN090 18/14 A3024 RMK SC5AC2 SLP237=

CYXU;2005-07-30 07:00;METAR CYXU 300700Z 01005KT 15SM BKN063 17/14 A3024 RMK SC7 SLP239=

CYXU;2005-07-30 08:00;METAR CYXU 300800Z 36004KT 15SM BKN055 17/12 A3025 RMK SC5 SLP241=

CYXU;2005-07-30 09:00;METAR CYXU 300900Z 01004KT 15SM FEW055 16/11 A3026 RMK SC2 SLP245=

CYXU;2005-07-30 10:00;METAR CYXU 301000Z 02005KT 15SM FEW055 BKN080 BKN250 15/11 A3027 RMK SC2AC2CI1 SLP248=

CYXU;2005-07-30 11:00;METAR CYXU 301100Z 02005KT 15SM FEW055 FEW080 FEW250 15/11 A3029 RMK SC1AC1CI1 SLP254=

CYXU;2005-07-30 12:00;METAR CYXU 301200Z 01006KT 15SM FEW080 FEW250 16/12 A3030 RMK AC1CI1 SLP260=

CYXU;2005-07-30 13:00;METAR CYXU 301300Z 01004KT 15SM FEW250 19/13 A3031 RMK CI1 SLP264=

CYXU;2005-07-30 14:00;METAR CYXU 301400Z 03005KT 15SM FEW250 21/12 A3032 RMK CI1 SLP267=

CYXU;2005-07-30 15:00;METAR CYXU 301500Z 36003KT 15SM FEW035 FEW250 22/13 A3033 RMK CU1CI1 SLP268=

CYXU;2005-07-30 16:00;METAR CYXU 301600Z 32005KT 15SM FEW040 23/13 A3032 RMK CU1 SLP266=

CYXU;2005-07-30 17:00;METAR CYXU 301700Z 02006KT 15SM FEW040 23/13 A3030 RMK CU1 SLP261=

CYXU;2005-07-30 18:00;METAR CYXU 301800Z 00000KT 15SM FEW050 24/10 A3030 RMK CU1 SLP257=

CYXU;2005-07-30 19:00;METAR CYXU 301900Z 07002KT 15SM FEW060 25/10 A3028 RMK CU1 SLP252=

CYXU;2005-07-30 20:00;METAR CYXU 302000Z 29003KT 15SM FEW068 25/08 A3027 RMK CU1 SLP249=

CYXU;2005-07-30 21:00;METAR CYXU 302100Z 34004KT 15SM FEW076 25/07 A3026 RMK CU1 SLP246=

CYXU;2005-07-30 22:00;METAR CYXU 302200Z 33005KT 15SM FEW075 25/07 A3026 RMK CU1 SLP246=

CYXU;2005-07-30 23:00;METAR CYXU 302300Z 33006KT 15SM FEW075 25/08 A3026 RMK AC1 SLP244=

CYXU;2005-07-31 00:00;METAR CYXU 310000Z 32007KT 15SM FEW075TCU FEW220 23/14 A3025 RMK TCU1CI1 TCU E SLP243=

CYXU;2005-07-31 01:00;METAR CYXU 310100Z 31006KT 15SM FEW220 20/14 A3027 RMK CI1 SLP248=

CYXU;2005-07-31 02:00;METAR CYXU 310200Z 34005KT 15SM FEW220 19/15 A3027 RMK CI1 SLP247=

CYXU;2005-07-31 03:00;METAR CYXU 310300Z 33005KT 15SM SKC 18/15 A3027 RMK SLP248=

CYXU;2005-07-31 04:00;METAR CYXU 310400Z 36005KT 15SM SKC 17/14 A3027 RMK SLP248=

CYXU;2005-07-31 05:00;METAR CYXU 310500Z 35004KT 15SM SKC 16/14 A3027 RMK SLP249=

CYXU;2005-07-31 06:00;METAR CYXU 310600Z 35006KT 15SM SKC 16/13 A3028 RMK SLP252=

CYXU;2005-07-31 10:00;METAR CYXU 311000Z 36002KT 15SM FEW260 14/12 A3026 RMK CI1 TR CI SLP246=

CYXU;2005-07-31 11:00;METAR CYXU 311100Z 07002KT 15SM FEW260 14/12 A3025 RMK CI1 CONTRAILS SLP243=

CYXU;2005-07-31 12:00;METAR CYXU 311200Z 11004KT 15SM FEW260 17/14 A3024 RMK CI1 SLP240=

CYXU;2005-07-31 13:00;METAR CYXU 311300Z 14002KT 15SM FEW260 20/16 A3025 RMK CI1 SLP241=

CYXU;2005-07-31 14:00;METAR CYXU 311400Z 17004KT 15SM FEW020 FEW260 22/18 A3026 RMK CF1CI1 TR CF SLP244=

CYXU;2005-07-31 15:00;METAR CYXU 311500Z 16006KT 15SM SCT025 BKN240 24/16 A3024 RMK CF1CI1 SLP236=

CYXU;2005-07-31 16:00;METAR CYXU 311600Z 18004KT 15SM FEW025 FEW150 BKN210 25/15 A3024 RMK CF1AC1CI2 TR CF SLP239=

CYXU;2005-07-31 17:00;METAR CYXU 311700Z 19006KT 15SM FEW150 BKN250 26/16 A3022 RMK AC2CI2 SLP232=

CYXU;2005-07-31 18:00;METAR CYXU 311800Z 25005KT 15SM FEW150 BKN250 27/15 A3020 RMK AC2CI2 SLP224=

CYXU;2005-07-31 19:00;METAR CYXU 311900Z 25005KT 15SM FEW040 FEW150 BKN250 27/15 A3019 RMK CU1AC2CI2 SLP220=

CYXU;2005-07-31 20:00;METAR CYXU 312000Z 20005KT 15SM BKN120 BKN250 27/16 A3017 RMK AC5CI2 SLP216=

CYXU;2005-07-31 21:00;METAR CYXU 312100Z 18007KT 15SM FEW040 SCT120 SCT250 27/17 A3017 RMK CU1AC2CI1 SLP214=

CYXU;2005-07-31 22:00;METAR CYXU 312200Z 18007KT 15SM FEW120 SCT250 27/17 A3016 RMK AC2CI1 SLP210=

CYXU;2005-07-31 23:00;METAR CYXU 312300Z 21006KT 15SM FEW120 BKN250 26/18 A3014 RMK AC1CI2 SLP204=

CYXU;2005-08-01 00:00;METAR CYXU 010000Z 18009KT 15SM BKN250 24/17 A3013 RMK CI3 SLP200=

CYXU;2005-08-01 01:00;METAR CYXU 010100Z 19005KT 15SM BKN220 22/16 A3013 RMK CI2 SLP201=

CYXU;2005-08-01 02:00;METAR CYXU 010200Z 20004KT 15SM FEW220 21/15 A3014 RMK CI2 SLP203=

CYXU;2005-08-01 03:00;METAR CYXU 010300Z 17004KT 15SM SKC 18/15 A3015 RMK SLP207=

CYXU;2005-08-01 04:00;METAR CYXU 010400Z 11002KT 15SM FEW220 19/16 A3016 RMK CI1 LTNG DSNT N SLP209=

CYXU;2005-08-01 05:00;METAR CYXU 010500Z 00000KT 15SM FEW220 18/16 A3015 RMK CI2 LTNG DSNT=

CYXU;2005-08-01 06:00;METAR CYXU 010600Z 00000KT 15SM SKC 18/16 A3013 RMK SLP201=

CYXU;2005-08-01 07:00;METAR CYXU 010700Z 24006KT 15SM SKC 20/17 A3012 RMK SLP195=

CYXU;2005-08-01 08:00;METAR CYXU 010800Z 23004KT 15SM SKC 20/17 A3011 RMK SLP194=

CYXU;2005-08-01 09:00;METAR CYXU 010900Z 00000KT 15SM SKC 18/16 A3012 RMK SLP196=

CYXU;2005-08-01 10:00;METAR CYXU 011000Z 00000KT 13SM FEW220 19/17 A3011 RMK CI2 SLP194=

CYXU;2005-08-01 11:00;METAR CYXU 011100Z 00000KT 13SM FEW180 SCT240 19/17 A3011 RMK AC1CI2 SLP194=

CYXU;2005-08-01 12:00;METAR CYXU 011200Z 23006KT 15SM FEW170 BKN270 22/19 A3012 RMK AC1CI2 SLP195=

CYXU;2005-08-01 13:00;METAR CYXU 011300Z 26007KT 15SM FEW170 BKN270 25/19 A3013 RMK AC1CI2 SLP198=

CYXU;2005-08-01 14:00;METAR CYXU 011400Z 27007KT 15SM FEW270 26/20 A3013 RMK CI1 SLP198=

CYXU;2005-08-01 15:00;METAR CYXU 011500Z 28007KT 15SM SCT270 28/20 A3012 RMK CI1 SLP196=

CYXU;2005-08-01 16:00;METAR CYXU 011600Z 28007KT 15SM FEW035 SCT270 29/20 A3011 RMK CF1CI1 CB TOPS DIST N SLP194=

CYXU;2005-08-01 17:00;METAR CYXU 011700Z 27009KT 15SM FEW045 FEW270 30/19 A3009 RMK CF1CI1 CB TOPS DIST N SLP187=

CYXU;2005-08-01 18:00;METAR CYXU 011800Z 26010KT 15SM FEW050 SCT270 30/18 A3009 RMK CU2CI2 SLP186=

CYXU;2005-08-01 19:00;METAR CYXU 011900Z 27008KT 15SM FEW050 BKN220 30/20 A3008 RMK CU2CI2 SLP182=

CYXU;2005-08-01 20:00;METAR CYXU 012000Z 29007KT 15SM SCT050 BKN230 31/20 A3007 RMK CU3CI1 SLP179=

CYXU;2005-08-01 21:00;METAR CYXU 012100Z 28011KT 15SM FEW040 BKN180 30/20 A3006 RMK CU2CI2 SLP176=

CYXU;2005-08-01 22:00;METAR CYXU 012200Z 29006KT 15SM FEW040 BKN200 30/20 A3006 RMK CU2CI1 SLP174=

CYXU;2005-08-01 23:00;METAR CYXU 012300Z 31010KT 15SM FEW040 SCT200 30/21 A3007 RMK CU2CI1 TCU ASOCTD SLP177=

CYXU;2005-08-02 00:00;METAR CYXU 020000Z 30004KT 15SM FEW040 BKN200 28/21 A3007 RMK CU1CI1 TCU DSNT SE SLP177=

CYXU;2005-08-02 01:00;METAR CYXU 020100Z 28003KT 15SM FEW040 SCT200 26/21 A3007 RMK CU1CI2 SLP179=

CYXU;2005-08-02 02:00;METAR CYXU 020200Z 31002KT 15SM FEW040CB FEW220 25/21 A3009 RMK CB1CI2=

CYXU;2005-08-02 03:00;METAR CYXU 020300Z 24002KT 15SM FEW220 24/21 A3010 RMK CI2 SLP186=

CYXU;2005-08-02 04:00;METAR CYXU 020400Z 25002KT 15SM FEW220 23/21 A3010 RMK CI1 SLP186=

CYXU;2005-08-02 05:00;METAR CYXU 020500Z 26002KT 15SM FEW250 22/20 A3010 RMK CI2 SLP186=

CYXU;2005-08-02 06:00;METAR CYXU 020600Z 27004KT 15SM SKC 23/19 A3009 RMK SLP182=

CYXU;2005-08-02 09:00;METAR CYXU 020900Z 28003KT 15SM SKC 20/17 A3008 RMK SLP181=

CYXU;2005-08-02 10:00;METAR CYXU 021000Z 00000KT 10SM FEW240 19/17 A3009 RMK CI0 SLP183=

CYXU;2005-08-02 12:00;METAR CYXU 021200Z 31005KT 10SM FEW240 22/18 A3012 RMK CI0 SLP194=

CYXU;2005-08-02 13:00;METAR CYXU 021300Z 30005KT 12SM FEW240 25/19 A3012 RMK CI0 SLP195=

CYXU;2005-08-02 14:00;METAR CYXU 021400Z 34004KT 15SM FEW240 27/19 A3012 RMK CI0 SLP194=

CYXU;2005-08-02 15:00;METAR CYXU 021500Z 33002KT 12SM FEW240 28/18 A3011 RMK CI0 SLP192=

CYXU;2005-08-02 17:00;METAR CYXU 021700Z 28006KT 12SM FEW040 30/19 A3010 RMK CU2 SLP186=

CYXU;2005-08-02 18:00;METAR CYXU 021800Z 31004KT 12SM SCT045 31/19 A3008 RMK CU3 TCU ASOCTD SLP180=

CYXU;2005-08-02 19:00;METAR CYXU 021900Z 30010G15KT 12SM FEW055 SCT200 32/19 A3007 RMK CU2CI1 TCU ASOCTD SLP175=

CYXU;2005-08-02 20:00;METAR CYXU 022000Z 28010G15KT 12SM FEW080 SCT200 32/17 A3006 RMK CU2CC1 TCU ASOCTD SLP173=

CYXU;2005-08-02 22:00;METAR CYXU 022200Z 34006KT 12SM FEW080 FEW220 31/18 A3006 RMK CU1CI1 TCU ASOCTD DIST E SLP173=

CYXU;2005-08-02 23:00;METAR CYXU 022300Z 34006KT 12SM FEW080TCU FEW220 30/18 A3006 RMK TCU1CU1 CB TOPS DIST E SLP173=

CYXU;2005-08-03 00:00;METAR CYXU 030000Z 34002KT 12SM FEW220 30/19 A3006 RMK CI1 SLP175=

CYXU;2005-08-03 01:00;METAR CYXU 030100Z 00000KT 12SM FEW220 28/19 A3005 RMK CI2 SLP171=

CYXU;2005-08-03 02:00;METAR CYXU 030200Z 00000KT 12SM FEW220 24/19 A3006 RMK CI1 SLP174=

CYXU;2005-08-03 03:00;METAR CYXU 030300Z 00000KT 12SM SKC 24/20 A3006 RMK SLP172=

CYXU;2005-08-03 04:00;METAR CYXU 030400Z 29002KT 12SM SKC 23/19 A3005 RMK SLP171=

CYXU;2005-08-03 06:00;METAR CYXU 030600Z 00000KT 12SM SKC 21/18 A3006 RMK SLP172=

CYXU;2005-08-03 09:00;METAR CYXU 030900Z 00000KT 10SM SCT260 20/18 A3005 RMK CI2 SLP171=

CYXU;2005-08-03 10:00;METAR CYXU 031000Z 00000KT 8SM MIFG BKN260 20/18 A3007 RMK CI2 SLP176=

CYXU;2005-08-03 12:00;METAR CYXU 031200Z 00000KT 4SM HZ SCT260 23/20 A3008 RMK CI2 SLP181=

CYXU;2005-08-03 14:00;METAR CYXU 031400Z 29003KT 5SM HZ FEW180 28/20 A3009 RMK AC1 SLP184=

CYXU;2005-08-03 15:00;METAR CYXU 031500Z 27004KT 7SM FEW040 30/20 A3009 RMK CU1 HZY SLP182=

CYXU;2005-08-03 16:00;METAR CYXU 031600Z 28006KT 8SM FEW044 30/20 A3008 RMK CU1 HZY SLP180=

CYXU;2005-08-03 17:00;METAR CYXU 031700Z 30006KT 10SM FEW044 30/19 A3007 RMK CU1 SLP177=

CYXU;2005-08-03 18:00;METAR CYXU 031800Z 27007KT 10SM FEW050 32/18 A3006 RMK CU1 SLP172=

CYXU;2005-08-03 19:00;METAR CYXU 031900Z 31006KT 8SM SCT060 31/18 A3004 RMK CU3 TCU ASOCTD SLP168=

CYXU;2005-08-03 20:00;METAR CYXU 032000Z 23006KT 8SM SCT060TCU 31/19 A3003 RMK TCU4 SLP164=

CYXU;2005-08-03 21:00;METAR CYXU 032100Z 25005KT 8SM SCT060TCU 31/21 A3002 RMK TCU4 SLP159=

CYXU;2005-08-03 22:00;METAR CYXU 032200Z 27006KT 8SM SCT060TCU 31/21 A3001 RMK TCU3 SLP157=

CYXU;2005-08-03 23:00;METAR CYXU 032300Z 21006KT 8SM FEW060 29/20 A3002 RMK CU1 SLP159=

CYXU;2005-08-04 00:00;METAR CYXU 040000Z 20007KT 10SM FEW250 28/20 A3002 RMK CI1 SLP160=

CYXU;2005-08-04 02:00;METAR CYXU 040200Z 20004KT 8SM SKC 24/19 A3003 RMK SLP163=

CYXU;2005-08-04 03:00;METAR CYXU 040300Z 20004KT 8SM SKC 23/20 A3003 RMK SLP163=

CYXU;2005-08-04 04:00;METAR CYXU 040400Z 18005KT 8SM SKC 23/20 A3003 RMK SLP165=

CYXU;2005-08-04 05:00;METAR CYXU 040500Z 19005KT 8SM FEW140 23/20 A3004 RMK AC1 SLP166=

CYXU;2005-08-04 06:00;METAR CYXU 040600Z 20005KT 10SM SKC 23/20 A3003 RMK SLP165=

CYXU;2005-08-04 07:00;METAR CYXU 040700Z 20005KT 10SM SKC 23/21 A3003 RMK SLP164=

CYXU;2005-08-04 08:00;METAR CYXU 040800Z 20005KT 10SM SKC 23/20 A3003 RMK SLP162=

CYXU;2005-08-04 10:00;METAR CYXU 041000Z 00000KT 2 1/2SM BR SKC 22/20 A3002 RMK SLP161=

CYXU;2005-08-04 11:00;METAR CYXU 041100Z 22002KT 3SM BR FEW220 22/21 A3003 RMK CI2 SLP164=

CYXU;2005-08-04 12:00;METAR CYXU 041200Z 22006KT 4SM HZ SCT220 25/21 A3003 RMK CI4 SLP162=

CYXU;2005-08-04 13:00;METAR CYXU 041300Z 24011KT 6SM HZ SCT180 BKN240 27/21 A3003 RMK AC3CI2 SLP165=

CYXU;2005-08-04 14:00;METAR CYXU 041400Z 22011KT 7SM SCT170 BKN240 29/21 A3003 RMK AC3CI2 SLP162=

CYXU;2005-08-04 15:00;METAR CYXU 041500Z 22014KT 7SM SCT075 BKN120 BKN250 29/21 A3002 RMK AC3AC2CI2 SLP161=

CYXU;2005-08-04 16:00;METAR CYXU 041600Z 25014G20KT 7SM FEW040 BKN120 OVC240 29/20 A3003 RMK CU2AC5CI1 SLP164=

CYXU;2005-08-04 17:00;METAR CYXU 041700Z 22013KT 7SM FEW040 BKN110 OVC240 29/20 A2999 RMK CU1AS5CI2 SLP150=

CYXU;2005-08-04 18:00;METAR CYXU 041800Z 20010G15KT 7SM SCT140 BKN220 29/20 A2996 RMK AC3CS4 SLP139=

CYXU;2005-08-04 19:00;METAR CYXU 041900Z 21014KT 8SM BKN130 OVC250 29/21 A2998 RMK AC6CI2 SLP146=

CYXU;2005-08-04 20:00;METAR CYXU 042000Z 20014KT 8SM BKN140 OVC250 28/21 A2998 RMK AC6CI2 SLP146=

CYXU;2005-08-04 20:33;SPECI CYXU 042033Z 22007KT 8SM VCSH FEW030TCU OVC120 29/ RMK TCU2AC6=

CYXU;2005-08-04 20:48;SPECI CYXU 042048Z 23013G18KT 6SM -SHRA BR BKN030TCU OVC120 29/ RMK TCU5AC3=

CYXU;2005-08-04 21:00;METAR CYXU 042100Z 22010KT 8SM -SHRA SCT030TCU BKN080 OVC150 28/21 A2998 RMK TCU3AC2AC2 SLP146=

CYXU;2005-08-04 21:05;SPECI CYXU 042105Z 22010G16KT 5SM SHRA BR BKN025TCU BKN080 OVC150 27/ RMK TCU5AC2AC2=

CYXU;2005-08-04 21:13;SPECI CYXU 042113Z 22010G20KT 6SM BR SCT030TCU BKN080 OVC150 26/ RMK TCU3AC3AC2=

CYXU;2005-08-04 22:00;METAR CYXU 042200Z 21010KT 8SM FEW030TCU BKN070 BKN250 29/23 A2996 RMK TCU2AC2CI2 SLP141=

CYXU;2005-08-04 23:00;METAR CYXU 042300Z 22013G18KT 10SM FEW070 SCT150 BKN250 28/21 A2996 RMK AC2AC2CI1 SLP140=

CYXU;2005-08-05 00:00;METAR CYXU 050000Z 24008KT 10SM FEW040 BKN160 BKN250 27/20 A2996 RMK CU1AC4CI0 SLP140=

CYXU;2005-08-05 01:00;METAR CYXU 050100Z 24008KT 12SM FEW040 SCT140 BKN250 26/20 A2996 RMK CU1AC2CI2 EAST WEST LINE OF CB TOPS NORTH SLP139=

CYXU;2005-08-05 02:00;METAR CYXU 050200Z 23009KT 12SM FEW040 BKN130 26/21 A2997 RMK CU1AC5 LTGIC DIST N SLP143=

CYXU;2005-08-05 03:00;METAR CYXU 050300Z 30009KT 12SM FEW039CB BKN130 25/21 A2998 RMK CB2AC3 LTGIC NW SLP145=

CYXU;2005-08-05 03:26;SPECI CYXU 050326Z 31009KT 12SM TS BKN019CB OVC130 25/ RMK CB6AC2=

CYXU;2005-08-05 03:36;SPECI CYXU 050336Z 30007G18KT 1 1/2SM TSRA BR OVC016CB 23/ RMK CB8 LTGICCG=

CYXU;2005-08-05 04:00;METAR CYXU 050400Z 28005KT 2SM -TSRA BR FEW006 OVC015CB 22/21 A3002 RERA RMK SF2CB6 LTGICCG SLP158=

CYXU;2005-08-05 04:06;SPECI CYXU 050406Z 25006KT 2SM -TSRA BR BKN005 OVC015CB 22/ RMK SF6CB2 LTGICCG=

CYXU;2005-08-05 04:22;SPECI CYXU 050422Z 29008KT 1 1/2SM +TSRA BR BKN011 OVC024CB 22/ RMK SF5CB3 LTGICCG=

CYXU;2005-08-05 04:52;SPECI CYXU 050452Z 35012G20KT 2 1/2SM -TSRA BR BKN011 OVC020CB 21/ RERA RMK SF6CB2=

CYXU;2005-08-05 05:00;METAR CYXU 050500Z 36012G17KT 12SM -SHRA SCT011 OVC024TCU 20/18 A3006 RETSRA RMK SF4TCU4 SLP172=

CYXU;2005-08-05 05:39;SPECI CYXU 050539Z 36007KT 15SM FEW100 BKN160 OVC240 19/ RMK AC2AC5CI2=

CYXU;2005-08-05 06:00;METAR CYXU 050600Z 34004KT 15SM SCT160 OVC240 19/16 A3007 RMK AC4CI4 SLP177=

CYXU;2005-08-05 07:00;METAR CYXU 050700Z 27003KT 15SM SCT250 18/17 A3007 RMK CI2 SLP179=

CYXU;2005-08-05 08:00;METAR CYXU 050800Z 27002KT 15SM SCT250 18/17 A3008 RMK CI2 SLP183=

CYXU;2005-08-05 09:00;METAR CYXU 050900Z 00000KT 15SM SCT250 18/17 A3009 RMK CI2 SLP185=

CYXU;2005-08-05 10:00;METAR CYXU 051000Z 26002KT 15SM FEW100 SCT250 18/17 A3010 RMK AC1CI1 SLP190=

CYXU;2005-08-05 11:00;METAR CYXU 051100Z 25002KT 15SM FEW100 SCT250 18/17 A3012 RMK AC1CI1 SLP196=

CYXU;2005-08-05 12:00;METAR CYXU 051200Z 25005KT 15SM FEW150 SCT250 20/17 A3015 RMK AC2CI1 SLP207=

CYXU;2005-08-05 13:00;METAR CYXU 051300Z 27004KT 15SM FEW150 SCT250 22/17 A3017 RMK AC1CI1 SLP211=

CYXU;2005-08-05 14:00;METAR CYXU 051400Z 28007KT 15SM FEW028 SCT250 23/16 A3019 RMK CF1CI1 SLP219=

CYXU;2005-08-05 15:00;METAR CYXU 051500Z 29006KT 15SM FEW036 SCT250 24/15 A3019 RMK CU1CI1 SLP220=

CYXU;2005-08-05 16:00;METAR CYXU 051600Z 29008G15KT 15SM FEW040 SCT250 25/14 A3020 RMK CU1CI1 SLP222=

CYXU;2005-08-05 17:00;METAR CYXU 051700Z 32008G15KT 15SM FEW040 BKN250 25/14 A3019 RMK CU1CI1 SLP219=

CYXU;2005-08-05 18:00;METAR CYXU 051800Z 32010G16KT 15SM FEW040 BKN250 26/13 A3019 RMK CU1CI2 SLP220=

CYXU;2005-08-05 19:00;METAR CYXU 051900Z 32009KT 15SM FEW048 BKN250 25/12 A3019 RMK CU1CI3 TR CU SLP220=

CYXU;2005-08-05 20:00;METAR CYXU 052000Z 33010G17KT 15SM BKN250 26/11 A3019 RMK CI2 SLP219=

CYXU;2005-08-05 22:00;METAR CYXU 052200Z 33014KT 15SM SCT250 25/11 A3017 RMK CI1 SLP215=

CYXU;2005-08-05 23:00;METAR CYXU 052300Z 35010KT 15SM SCT270 24/11 A3017 RMK CI1 SLP215=

CYXU;2005-08-06 04:00;METAR CYXU 060400Z 00000KT 15SM SKC 16/13 A3020 RMK SLP224=

CYXU;2005-08-06 05:00;METAR CYXU 060500Z 00000KT 15SM SKC 16/13 A3020 RMK SLP226=

CYXU;2005-08-06 06:00;METAR CYXU 060600Z 00000KT 15SM SKC 15/13 A3021 RMK SLP228=

CYXU;2005-08-06 09:00;METAR CYXU 060900Z 00000KT 15SM SKC 13/12 A3022 RMK SLP232=

CYXU;2005-08-06 10:00;METAR CYXU 061000Z 00000KT 15SM MIFG FEW270 13/12 A3023 RMK CI1 SLP235=

CYXU;2005-08-06 11:00;METAR CYXU 061100Z 36002KT 15SM MIFG BKN270 13/12 A3024 RMK CI1 SLP239=

CYXU;2005-08-06 12:00;METAR CYXU 061200Z 00000KT 15SM SCT270 16/13 A3025 RMK CI1 SLP241=

CYXU;2005-08-06 13:00;METAR CYXU 061300Z 09002KT 15SM SCT270 20/14 A3025 RMK CI1 SLP243=

CYXU;2005-08-06 14:00;METAR CYXU 061400Z 00000KT 15SM FEW100 FEW270 22/13 A3025 RMK AC1CI1 SLP241=

CYXU;2005-08-06 15:00;METAR CYXU 061500Z 05003KT 15SM SCT270 23/13 A3024 RMK CI1 SLP240=

CYXU;2005-08-06 16:00;METAR CYXU 061600Z 09002KT 15SM FEW040 SCT270 24/14 A3023 RMK CF1CI1 SLP236=

CYXU;2005-08-06 17:00;METAR CYXU 061700Z 25004KT 15SM FEW050 SCT270 25/14 A3022 RMK CU2CI1 SLP231=

CYXU;2005-08-06 18:00;METAR CYXU 061800Z 30007KT 15SM FEW050 SCT270 26/14 A3020 RMK CU2CI1 SLP225=

CYXU;2005-08-06 19:00;METAR CYXU 061900Z 27005KT 15SM FEW055 SCT270 26/14 A3020 RMK CU2CI1 SLP223=

CYXU;2005-08-06 20:00;METAR CYXU 062000Z 28008KT 15SM FEW055 BKN270 27/14 A3017 RMK CU2CI2 SLP216=

CYXU;2005-08-06 21:00;METAR CYXU 062100Z 31005KT 15SM FEW055 BKN270 27/14 A3016 RMK CU1CI6 SLP210=

CYXU;2005-08-06 22:00;METAR CYXU 062200Z 04002KT 15SM FEW050 BKN250 27/15 A3015 RMK CU1CI6 SLP207=

CYXU;2005-08-06 23:00;METAR CYXU 062300Z 18005KT 15SM FEW045 BKN250 25/17 A3013 RMK CU1CI4 SLP202=

CYXU;2005-08-07 00:00;METAR CYXU 070000Z 18007KT 15SM BKN250 23/16 A3013 RMK CI3 SLP203=

CYXU;2005-08-07 01:00;METAR CYXU 070100Z 19006KT 15SM BKN250 21/16 A3014 RMK CI3 SLP204=

CYXU;2005-08-07 02:00;METAR CYXU 070200Z 19004KT 15SM BKN250 20/16 A3015 RMK CI3 SLP209=

CYXU;2005-08-07 04:00;METAR CYXU 070400Z 00000KT 15SM SKC 19/16 A3015 RMK SLP208=

CYXU;2005-08-07 05:00;METAR CYXU 070500Z 09002KT 15SM SKC 17/15 A3015 RMK SLP208=

CYXU;2005-08-07 06:00;METAR CYXU 070600Z 00000KT 15SM SKC 17/15 A3015 RMK SLP207=

CYXU;2005-08-07 08:00;METAR CYXU 070800Z 00000KT 8SM SKC 15/14 A3014 RMK SLP203=

CYXU;2005-08-07 09:00;METAR CYXU 070900Z 08002KT 8SM SKC 15/14 A3014 RMK SLP203=

CYXU;2005-08-07 11:00;METAR CYXU 071100Z 00000KT 8SM MIFG SKC 14/14 A3016 RMK SLP209=

CYXU;2005-08-07 12:00;METAR CYXU 071200Z 00000KT 8SM FEW290 18/16 A3017 RMK CI1 TR CI SLP213=

CYXU;2005-08-07 13:00;METAR CYXU 071300Z 14002KT 15SM FEW290 21/17 A3017 RMK CI1 TR CI SLP216=

CYXU;2005-08-07 14:00;METAR CYXU 071400Z 21006KT 15SM SCT290 24/17 A3017 RMK CI1 SLP216=

CYXU;2005-08-07 15:00;METAR CYXU 071500Z 22008KT 15SM FEW050 FEW150 BKN290 26/17 A3017 RMK CF1AC1CI1 TR CF TR AC SLP214=

CYXU;2005-08-07 16:00;METAR CYXU 071600Z 19003KT 15SM FEW052 FEW150 BKN270 25/17 A3017 RMK CU1AC1CI1 SLP213=

CYXU;2005-08-07 17:00;METAR CYXU 071700Z 19003KT 15SM BKN050 26/17 A3016 RMK CU5 SLP210=

CYXU;2005-08-07 18:00;METAR CYXU 071800Z 21005KT 15SM SCT050 27/17 A3014 RMK CU3 SLP205=

CYXU;2005-08-07 19:00;METAR CYXU 071900Z 15007KT 15SM BKN040 27/18 A3013 RMK CU5 SLP202=

CYXU;2005-08-07 20:00;METAR CYXU 072000Z 18004KT 15SM FEW045 27/18 A3012 RMK CU2 SLP197=

CYXU;2005-08-07 21:00;METAR CYXU 072100Z 17005KT 15SM FEW048 26/18 A3012 RMK CU2 SLP196=

CYXU;2005-08-07 22:00;METAR CYXU 072200Z 18006KT 15SM FEW045 26/18 A3012 RMK CU2 SLP196=

CYXU;2005-08-07 23:00;METAR CYXU 072300Z 19007KT 15SM FEW045 26/18 A3011 RMK CU1 SLP194=

CYXU;2005-08-08 00:00;METAR CYXU 080000Z 20005KT 15SM FEW035 FEW250 24/17 A3011 RMK CU1CI1 SLP195=

CYXU;2005-08-08 01:00;METAR CYXU 080100Z 19004KT 15SM FEW030 FEW250 22/17 A3012 RMK CU1CI1 SLP198=

CYXU;2005-08-08 03:00;METAR CYXU 080300Z 00000KT 15SM SKC 20/17 A3013 RMK SLP201=

CYXU;2005-08-08 04:00;METAR CYXU 080400Z 00000KT 15SM SKC 19/16 A3014 RMK SLP202=

CYXU;2005-08-08 05:00;METAR CYXU 080500Z 00000KT 12SM SKC 18/16 A3014 RMK SLP202=

CYXU;2005-08-08 06:00;METAR CYXU 080600Z 00000KT 8SM SKC 18/16 A3013 RMK SLP200=

CYXU;2005-08-08 07:00;METAR CYXU 080700Z 00000KT 8SM SKC 17/16 A3013 RMK SLP201=

CYXU;2005-08-08 08:29;SPECI CYXU 080829Z 00000KT 2SM BR SKC 16/=

CYXU;2005-08-08 09:00;METAR CYXU 080900Z 00000KT 1 1/2SM BR SKC 16/15 A3014 RMK FG1 SLP204=

CYXU;2005-08-08 10:00;METAR CYXU 081000Z 00000KT 1 1/2SM BR FEW100 16/15 A3014 RMK FG1AC1 SLP205=

CYXU;2005-08-08 11:00;METAR CYXU 081100Z 00000KT 1 1/2SM BR FEW025 FEW100 16/15 A3015 RMK SC1AC1 TR AC SLP208=

CYXU;2005-08-08 11:23;SPECI CYXU 081123Z 00000KT 2 1/2SM BR FEW025 FEW100 16/ RMK SC1AC1 TR AC=

CYXU;2005-08-08 12:00;METAR CYXU 081200Z 00000KT 2 1/2SM BR FEW025 FEW100 18/17 A3016 RMK SC1AC1 SLP209=

CYXU;2005-08-08 12:37;SPECI CYXU 081237Z 15004KT 3SM BR FEW035 FEW100 20/ RMK CF1AC1=

CYXU;2005-08-08 13:00;METAR CYXU 081300Z 15004KT 5SM HZ FEW050 FEW100 22/18 A3016 RMK CF1AC1 SLP211=

CYXU;2005-08-08 14:00;METAR CYXU 081400Z 17005KT 8SM FEW050 24/17 A3016 RMK CF1 SLP210=

CYXU;2005-08-08 15:00;METAR CYXU 081500Z 17003KT 12SM FEW050 BKN290 26/19 A3017 RMK CF1CI1 TR CF SLP211=

CYXU;2005-08-08 16:00;METAR CYXU 081600Z 16006KT 15SM SCT045 26/18 A3016 RMK CU4 SLP208=

CYXU;2005-08-08 17:00;METAR CYXU 081700Z 10002KT 15SM SCT055 27/17 A3014 RMK CU3 SLP204=

CYXU;2005-08-08 18:00;METAR CYXU 081800Z 18007KT 15SM BKN050 29/18 A3014 RMK CU5 SLP202=

CYXU;2005-08-08 19:00;METAR CYXU 081900Z 20008KT 15SM BKN050 BKN230 29/19 A3012 RMK CU5CI1 SLP197=

CYXU;2005-08-08 20:00;METAR CYXU 082000Z 21005KT 15SM BKN045 28/18 A3011 RMK CU5 SLP193=

CYXU;2005-08-08 21:00;METAR CYXU 082100Z 15006KT 15SM SCT045 SCT160 BKN230 28/17 A3009 RMK CU3AC1CI1 SLP187=

CYXU;2005-08-08 22:00;METAR CYXU 082200Z 20007KT 15SM FEW045 SCT160 SCT230 28/17 A3009 RMK CU2AC2CI1 SLP185=

CYXU;2005-08-08 23:00;METAR CYXU 082300Z 18007KT 15SM FEW045 FEW160 SCT230 27/17 A3007 RMK CU1AC1CI1 SLP179=

CYXU;2005-08-09 00:00;METAR CYXU 090000Z 19005KT 15SM FEW160 SCT230 26/16 A3007 RMK AC1CI1 SLP180=

CYXU;2005-08-09 03:00;METAR CYXU 090300Z 00000KT 15SM SKC 21/15 A3010 RMK SLP189=

CYXU;2005-08-09 04:00;METAR CYXU 090400Z 15002KT 12SM SKC 20/16 A3010 RMK SLP187=

CYXU;2005-08-09 06:00;METAR CYXU 090600Z 11003KT 5SM HZ SKC 18/16 A3009 RMK SLP185=

CYXU;2005-08-09 07:00;METAR CYXU 090700Z 13003KT 4SM HZ FEW065 18/16 A3008 RMK AC1 SLP183=

CYXU;2005-08-09 08:00;METAR CYXU 090800Z 09002KT 3SM HZ FEW068 18/16 A3007 RMK AC1 SLP180=

CYXU;2005-08-09 09:00;METAR CYXU 090900Z 16002KT 3SM BR FEW068 17/16 A3007 RMK AC1 SLP178=

CYXU;2005-08-09 10:00;METAR CYXU 091000Z 22002KT 6SM BR FEW250 21/20 A3008 RMK CI1 SHALLOW FOG PTCHS OVER FIELD SLP182=

CYXU;2005-08-09 11:00;METAR CYXU 091100Z 21006KT 6SM HZ SKC 22/19 A3007 RMK SLP180=

CYXU;2005-08-09 12:00;METAR CYXU 091200Z 23005KT 8SM SKC 23/19 A3007 RMK SLP180=

CYXU;2005-08-09 13:00;METAR CYXU 091300Z 23008KT 8SM SKC 25/19 A3006 RMK SLP176=

CYXU;2005-08-09 14:00;METAR CYXU 091400Z 23008KT 8SM SKC 26/20 A3007 RMK SLP177=

CYXU;2005-08-09 16:00;METAR CYXU 091600Z 22010KT 6SM HZ SCT035 29/21 A3008 RMK CU3 SLP181=

CYXU;2005-08-09 17:00;METAR CYXU 091700Z 24007KT 6SM HZ BKN038TCU 30/21 A3007 RMK TCU5 SLP180=

CYXU;2005-08-09 18:00;METAR CYXU 091800Z 22005KT 6SM HZ BKN045TCU 31/20 A3006 RMK TCU5 SLP173=

CYXU;2005-08-09 19:00;METAR CYXU 091900Z 18013KT 6SM HZ BKN046TCU 29/22 A3003 RMK TCU6 SLP165=

CYXU;2005-08-09 20:00;METAR CYXU 092000Z 21012KT 8SM SCT046TCU SCT100 30/22 A3002 RMK TCU3AC1 HZ SLP162=

CYXU;2005-08-09 22:00;METAR CYXU 092200Z 21013KT 8SM FEW230 29/20 A3001 RMK CI1 HZ SLP157=

CYXU;2005-08-09 23:00;METAR CYXU 092300Z 20011KT 8SM SCT230 28/20 A3000 RMK CI2 HZ SLP153=

CYXU;2005-08-10 00:00;METAR CYXU 100000Z 21009KT 8SM FEW180 SCT230 27/19 A2999 RMK AC1CI1 HZ SLP150=

CYXU;2005-08-10 01:00;METAR CYXU 100100Z 20005KT 8SM FEW180 SCT230 25/19 A3000 RMK AC1CI1 HZ SLP154=

CYXU;2005-08-10 02:00;METAR CYXU 100200Z 18004KT 8SM FEW230 23/19 A3001 RMK CI1 SLP158=

CYXU;2005-08-10 03:00;METAR CYXU 100300Z 13003KT 15SM FEW230 23/18 A3003 RMK CI1 SLP162=

CYXU;2005-08-10 04:00;METAR CYXU 100400Z 21005KT 15SM SKC 22/18 A3001 RMK SLP158=

CYXU;2005-08-10 05:00;METAR CYXU 100500Z 20005KT 10SM SCT050 23/18 A3001 RMK SC3 SLP157=

CYXU;2005-08-10 06:00;METAR CYXU 100600Z 21006KT 10SM SCT055 23/19 A3000 RMK SC3 SLP153=

CYXU;2005-08-10 07:00;METAR CYXU 100700Z 21009KT 8SM SCT050 23/20 A2999 RMK SC4 HAZE SLP149=

CYXU;2005-08-10 09:00;METAR CYXU 100900Z 22007KT 6SM HZ FEW045 23/20 A2997 RMK SC1 SLP143=

CYXU;2005-08-10 10:00;METAR CYXU 101000Z 21006KT 4SM HZ SKC 23/20 A2997 RMK SLP142=

CYXU;2005-08-10 11:00;METAR CYXU 101100Z 21005KT 4SM HZ FEW280 23/20 A2997 RMK CI0 SLP143=

CYXU;2005-08-10 12:00;METAR CYXU 101200Z 23007KT 5SM HZ SCT045 BKN250 24/21 A2997 RMK CU4CI1 SLP145=

CYXU;2005-08-10 13:00;METAR CYXU 101300Z 25007KT 5SM HZ FEW045 26/20 A2997 RMK CU1 SLP144=

CYXU;2005-08-10 14:00;METAR CYXU 101400Z 22010KT 5SM HZ FEW040 27/21 A2996 RMK CU1 SLP140=

CYXU;2005-08-10 15:00;METAR CYXU 101500Z 24012KT 5SM HZ SCT035 29/21 A2995 RMK CU3 TCU ASOCTD CB TOPS NORTH SLP136=

CYXU;2005-08-10 16:00;METAR CYXU 101600Z 24010G17KT 5SM HZ SCT040TCU 29/19 A2993 RMK TCU4 SLP131=

CYXU;2005-08-10 17:00;METAR CYXU 101700Z 25011G21KT 5SM TS HZ VCSH BKN040TCU 29/20 A2992 RMK TCU6 VSYB NORTH LOWER IN SHRA CB ASOCTD SLP127=

CYXU;2005-08-10 17:13;SPECI CYXU 101713Z 33012G22KT 4SM -TSRA HZ OVC040CB 24/ RMK CB8=

CYXU;2005-08-10 17:25;SPECI CYXU 101725Z 28018G27KT 1SM R15/3000VP6000FT/D +TSRA BR OVC035CB 22/ RMK CB8 HEAVY THUNDER=

CYXU;2005-08-10 17:36;SPECI CYXU 101736Z 24007G18KT 6SM -TSRA BKN035CB 21/ RMK CB6 CB NE-SW LTGCCCG /R14/=

CYXU;2005-08-10 18:00;METAR CYXU 101800Z 20005KT 8SM -TSRA SCT035CB BKN070 OVC150 21/19 A2994 RMK CB4AC2AC2 LTGCCCG EAST /R14/ SLP134=

CYXU;2005-08-10 18:33;SPECI CYXU 101833Z 00000KT 5SM BR SCT035TCU BKN070 OVC150 23/ RMK TCU3AC2AC3 RETS VIS LOWER SOUTH=

CYXU;2005-08-10 19:00;METAR CYXU 101900Z 17009KT 5SM HZ SCT040TCU BKN070 OVC120 22/20 A2994 RETS RMK TCU3AC2AC3 SLP134=

CYXU;2005-08-10 20:00;METAR CYXU 102000Z 17005KT 8SM FEW040TCU SCT070 BKN120 25/20 A2993 RMK TCU2AC2AC3 HZ SLP131=

CYXU;2005-08-10 21:00;METAR CYXU 102100Z 29007KT 12SM FEW040 FEW070 BKN120 BKN230 28/19 A2994 RMK CU2AC1AC2CI1 TCU ASOCTD SLP132=

CYXU;2005-08-10 22:00;METAR CYXU 102200Z 30008KT 12SM FEW040 SCT070 BKN120 BKN230 28/18 A2993 RMK CU2AC2AC2CI1 TCU TOPS SE QUAD SLP131=

CYXU;2005-08-10 23:00;METAR CYXU 102300Z 24004KT 12SM FEW040 SCT070 SCT120 BKN230 27/19 A2993 RMK CU1AC2AC1CI2 SLP129=

CYXU;2005-08-11 00:00;METAR CYXU 110000Z 30002KT 12SM FEW040 SCT070 BKN230 26/19 A2994 RMK CU1AC2CI2 SLP135=

CYXU;2005-08-11 01:00;METAR CYXU 110100Z 00000KT 8SM BKN074 25/19 A2995 RMK AC6 SLP138=

CYXU;2005-08-11 03:00;METAR CYXU 110300Z 34002KT 5SM HZ BKN050 BKN080 23/20 A2997 RMK SC5AC2 SLP144=

CYXU;2005-08-11 04:00;METAR CYXU 110400Z 36003KT 6SM HZ SCT050 22/19 A2997 RMK SC4 SLP145=

CYXU;2005-08-11 06:00;METAR CYXU 110600Z 35002KT 5SM HZ SCT030 21/18 A3000 RMK SC3 SLP154=

CYXU;2005-08-11 08:00;METAR CYXU 110800Z 35004KT 8SM FEW058 19/16 A3001 RMK SC2 SLP159=

CYXU;2005-08-11 09:00;METAR CYXU 110900Z 34005KT 8SM FEW060 19/16 A3001 RMK SC2 SLP158=

CYXU;2005-08-11 10:00;METAR CYXU 111000Z 34005KT 12SM FEW060 SCT250 19/16 A3002 RMK SC1CI2 SLP161=

CYXU;2005-08-11 11:00;METAR CYXU 111100Z 34006KT 12SM SCT250 18/16 A3004 RMK CI2 SLP169=

CYXU;2005-08-11 12:00;METAR CYXU 111200Z 35008KT 15SM SCT250 20/16 A3006 RMK CI2 SLP176=

CYXU;2005-08-11 13:00;METAR CYXU 111300Z 35008KT 15SM SCT250 21/14 A3007 RMK CI2 SLP177=

CYXU;2005-08-11 14:00;METAR CYXU 111400Z 36006KT 15SM SCT250 23/13 A3007 RMK CI2 SLP178=

CYXU;2005-08-11 15:00;METAR CYXU 111500Z 34004KT 15SM BKN250 24/12 A3007 RMK CI5 SLP180=

CYXU;2005-08-11 16:00;METAR CYXU 111600Z 33005KT 15SM BKN250 25/13 A3008 RMK CI7 SLP182=

CYXU;2005-08-11 17:00;METAR CYXU 111700Z 33007KT 15SM OVC250 25/13 A3007 RMK CI7 SLP180=

CYXU;2005-08-11 18:00;METAR CYXU 111800Z 32004KT 15SM OVC250 25/14 A3007 RMK CS8 SLP177=

CYXU;2005-08-11 19:00;METAR CYXU 111900Z 32006KT 15SM FEW120 OVC250 26/13 A3007 RMK AC2CI6 SLP179=

CYXU;2005-08-11 20:00;METAR CYXU 112000Z 30004KT 15SM FEW120 OVC250 25/11 A3007 RMK AC1CI7 SLP179=

CYXU;2005-08-11 21:00;METAR CYXU 112100Z 28005KT 15SM FEW180 OVC250 24/12 A3007 RMK AC2CI6 SLP178=

CYXU;2005-08-11 22:00;METAR CYXU 112200Z 32005KT 15SM SCT140 BKN200 24/14 A3006 RMK AC4CI3 SLP176=

CYXU;2005-08-11 23:00;METAR CYXU 112300Z 31004KT 15SM SCT140 BKN180 OVC200 23/14 A3006 RMK AC3AC3CI2 SLP176=

CYXU;2005-08-12 00:00;METAR CYXU 120000Z 35002KT 15SM BKN130 OVC200 22/14 A3005 RMK AC6CI1 VIRGA SLP173=

CYXU;2005-08-12 01:00;METAR CYXU 120100Z 31004KT 15SM BKN120 OVC200 21/15 A3005 RMK AC5CI3 VIRGA SLP174=

CYXU;2005-08-12 02:00;METAR CYXU 120200Z 34004KT 15SM OVC110 20/15 A3006 RMK AC8 SLP175=

CYXU;2005-08-12 04:00;METAR CYXU 120400Z 03005KT 15SM BKN090 OVC160 19/16 A3004 RMK AC5AC3 SLP171=

CYXU;2005-08-12 05:00;METAR CYXU 120500Z 07003KT 15SM SCT075 OVC140 19/16 A3004 RMK AC3AC5 SLP170=

CYXU;2005-08-12 06:00;METAR CYXU 120600Z 09003KT 15SM BKN090 OVC140 19/16 A3003 RMK AC6AC2 SLP164=

CYXU;2005-08-12 07:00;METAR CYXU 120700Z 08002KT 15SM -SHRA OVC070 19/15 A3002 RMK AC8 SLP162=

CYXU;2005-08-12 07:21;SPECI CYXU 120721Z 09004KT 15SM OVC070 19/ RMK AC8=

CYXU;2005-08-12 08:00;METAR CYXU 120800Z 10003KT 15SM OVC075 19/15 A3001 RMK AC8 SLP159=

CYXU;2005-08-12 09:00;METAR CYXU 120900Z 11006KT 15SM FEW070 SCT210 18/15 A2999 RMK AC2CI1 SLP151=

CYXU;2005-08-12 10:00;METAR CYXU 121000Z 12004KT 15SM BKN034 OVC070 19/15 A2998 RMK SC5AC3 SLP149=

CYXU;2005-08-12 10:20;SPECI CYXU 121020Z 12004KT 15SM -SHRA FEW035 OVC110 RMK SC2AC6 ACC EMBD=

CYXU;2005-08-12 11:00;METAR CYXU 121100Z 14009KT 15SM -SHRA SCT035 OVC120 18/15 A2997 RMK SC3AC5 SLP147=

CYXU;2005-08-12 12:17;SPECI CYXU 121217Z 03007KT 10SM -TSRA BKN040 OVC120 19/ RMK SC7AC1 CB EMBD=

CYXU;2005-08-12 12:22;SPECI CYXU 121222Z 34018KT 10SM -TSRA SCT009 OVC040CB 19/ RMK SF3CB5 LTGIC=

CYXU;2005-08-12 12:25;SPECI CYXU 121225Z 36006G21KT 1SM R15/P6000FT/N +TSRA SCT009 OVC025CB 18/ RMK SF3CB5=

CYXU;2005-08-12 12:39;SPECI CYXU 121239Z 02008KT 3SM -TSRA BR BKN010 OVC027 18/ RMK SF5SC3 CB EMBD=

CYXU;2005-08-12 12:55;SPECI CYXU 121255Z 09007KT 3SM -SHRA BR FEW010 BKN025 OVC045 18/ RMK SF2SC3SC2=

CYXU;2005-08-12 13:14;SPECI CYXU 121314Z 07005KT 3SM -SHRA BR OVC024 19/ RERA RMK SC8 TCU EMBD=

CYXU;2005-08-12 14:00;METAR CYXU 121400Z 12008KT 5SM -SHRA BR SCT024 OVC075 19/18 A2995 RERA RMK SC3ACC5 SLP139=

CYXU;2005-08-12 14:42;SPECI CYXU 121442Z 13010KT 8SM FEW024 OVC080 20/ RMK SC2AC6=

CYXU;2005-08-12 15:00;METAR CYXU 121500Z 13010KT 8SM FEW010 BKN180 21/19 A2993 RMK SF1AC6 SLP131=

CYXU;2005-08-12 16:00;METAR CYXU 121600Z 19007KT 8SM OVC014 24/21 A2992 RMK SC8 SLP130=

CYXU;2005-08-12 17:00;METAR CYXU 121700Z 18010KT 6SM HZ OVC011 25/22 A2990 RMK SC8 SLP122=

CYXU;2005-08-12 18:00;METAR CYXU 121800Z 21010KT 5SM HZ BKN015 OVC120 26/22 A2987 RMK SC6AC2 SLP112=

CYXU;2005-08-12 18:24;SPECI CYXU 121824Z 22010G15KT 5SM HZ OVC018 27/ RMK SC8=

CYXU;2005-08-12 19:00;METAR CYXU 121900Z 23012KT 4SM HZ BKN018 OVC070 27/23 A2987 RMK SC6AC2 SLP110=

CYXU;2005-08-12 20:00;METAR CYXU 122000Z 24013KT 5SM HZ BKN028 OVC080 28/22 A2986 RMK SC6SC2 SLP109=

CYXU;2005-08-12 21:00;METAR CYXU 122100Z 26010KT 5SM HZ BKN031 OVC060 28/22 A2986 RMK CF6SC2 SLP106=

CYXU;2005-08-12 22:00;METAR CYXU 122200Z 27008G17KT 5SM HZ FEW030 FEW060 BKN200 29/22 A2985 RMK CF1SC1CI5 CB TPS S-SE SLP105=

CYXU;2005-08-13 00:00;METAR CYXU 130000Z 29006KT 5SM HZ FEW040 BKN240 27/21 A2986 RMK CF2CI1 SLP107=

CYXU;2005-08-13 01:00;METAR CYXU 130100Z 29004KT 5SM HZ FEW040 SCT240 25/21 A2987 RMK SC1CI1 SLP112=

CYXU;2005-08-13 02:00;METAR CYXU 130200Z 32006KT 5SM HZ FEW180 24/20 A2990 RMK AC1 SLP120=

CYXU;2005-08-13 03:00;METAR CYXU 130300Z 31005KT 5SM HZ BKN180 23/20 A2990 RMK AC6 SLP123=

CYXU;2005-08-13 04:00;METAR CYXU 130400Z 30003KT 12SM FEW180 SCT260 22/19 A2991 RMK AC2CI1 SLP125=

CYXU;2005-08-13 06:00;METAR CYXU 130600Z 31004KT 15SM OVC140 22/19 A2992 RMK AC8 SLP126=

CYXU;2005-08-13 07:00;METAR CYXU 130700Z 33005KT 15SM OVC110 22/18 A2991 RMK AC8 SLP125=

CYXU;2005-08-13 08:00;METAR CYXU 130800Z 22003KT 15SM BKN120 OVC160 21/19 A2992 RMK AC6AC2 SLP128=

CYXU;2005-08-13 09:00;METAR CYXU 130900Z 27002KT 15SM OVC150 21/18 A2993 RMK AC8 SLP129=

CYXU;2005-08-13 10:00;METAR CYXU 131000Z 00000KT 15SM OVC100 21/19 A2993 RMK AC8 SLP132=

CYXU;2005-08-13 11:00;METAR CYXU 131100Z 00000KT 15SM BKN100 BKN150 21/18 A2994 RMK AC6AC2 SLP135=

CYXU;2005-08-13 12:00;METAR CYXU 131200Z 00000KT 15SM BKN100 BKN150 21/19 A2997 RMK AC6AC1 OBS TAKEN +8 SLP142=

CYXU;2005-08-13 12:46;SPECI CYXU 131246Z 29002KT 10SM -SHRA FEW018 BKN100 21/ RMK SC2AC6 ACC ASOCTD=

CYXU;2005-08-13 13:00;METAR CYXU 131300Z 00000KT 10SM -SHRA FEW018 BKN100 21/19 A2997 RMK SC1AC6 SLP143=

CYXU;2005-08-13 13:13;SPECI CYXU 131313Z 29002KT 10SM SCT016 BKN100 21/ RMK SC4AC3=

CYXU;2005-08-13 14:00;METAR CYXU 131400Z 00000KT 10SM FEW016 BKN110 23/19 A2997 RMK CF1AC6 SLP144=

CYXU;2005-08-13 15:00;METAR CYXU 131500Z 00000KT 15SM SCT020 BKN180 24/19 A2997 RMK CU3AC3 SLP145=

CYXU;2005-08-13 16:00;METAR CYXU 131600Z 21002KT 15SM BKN022 BKN180 25/18 A2997 RMK SC5AC2 SLP146=

CYXU;2005-08-13 17:00;METAR CYXU 131700Z 22003KT 15SM FEW025 BKN180 25/18 A2997 RMK CU2AC4 SLP143=

CYXU;2005-08-13 18:00;METAR CYXU 131800Z 00000KT 15SM SCT030 BKN170 26/18 A2996 RMK CU4AC3 SLP142=

CYXU;2005-08-13 19:00;METAR CYXU 131900Z 34005KT 15SM BKN040 BKN120 26/17 A2996 RMK CU5AC2 SLP141=

CYXU;2005-08-13 21:00;METAR CYXU 132100Z 34007KT 15SM FEW035 BKN150 BKN250 26/17 A2992 RMK CU2AC3CI2 SLP128=

CYXU;2005-08-13 22:00;METAR CYXU 132200Z 36004KT 15SM FEW035 BKN120 BKN250 25/17 A2992 RMK CU1AC4CI1 SLP126=

CYXU;2005-08-13 23:00;METAR CYXU 132300Z 02005KT 15SM FEW035 BKN140 BKN250 25/19 A2992 RMK CF1AC5CI1 ACC ASOCTD SLP127=

CYXU;2005-08-14 00:00;METAR CYXU 140000Z 04003KT 15SM SCT150 SCT250 23/19 A2992 RMK AC3CI1 SLP129=

CYXU;2005-08-14 01:00;METAR CYXU 140100Z 02004KT 15SM FEW150 SCT250 22/19 A2993 RMK AC2CI0 SLP130=

CYXU;2005-08-14 03:00;METAR CYXU 140300Z 01003KT 12SM BKN100 OVC180 22/18 A2995 RMK AC6AC2 SLP139=

CYXU;2005-08-14 04:00;METAR CYXU 140400Z 08002KT 12SM FEW035 OVC140 21/18 A2994 RMK SC2AC6 SLP136=

CYXU;2005-08-14 04:35;SPECI CYXU 140435Z 34003KT 10SM -SHRA BKN033 OVC140 21/ RMK SC6AC2 ACC ASOCTD=

CYXU;2005-08-14 05:00;METAR CYXU 140500Z 05002KT 6SM RA BR OVC032 21/18 A2995 RMK SC8 SLP138=

CYXU;2005-08-14 06:00;METAR CYXU 140600Z 05006KT 10SM -RA OVC030 20/18 A2991 RMK SC8 RERA SLP126=

CYXU;2005-08-14 07:00;METAR CYXU 140700Z 30004KT 4SM -RA BR OVC028 19/17 A2992 RMK SC8 SLP129=

CYXU;2005-08-14 08:00;METAR CYXU 140800Z 36005KT 6SM -RA BR SCT028 OVC037 19/17 A2992 RMK SC4SC4 SLP128=

CYXU;2005-08-14 09:00;METAR CYXU 140900Z 36008KT 3SM -RA BR SCT028 OVC034 19/17 A2992 RMK SF4SC4 SLP129=

CYXU;2005-08-14 10:00;METAR CYXU 141000Z 02006KT 5SM BR FEW005 BKN015 OVC028 19/16 A2995 RMK SF1SC7SC1 SLP137=

CYXU;2005-08-14 11:00;METAR CYXU 141100Z 02008KT 10SM OVC026 18/15 A2997 RMK SC8 SLP144=

CYXU;2005-08-14 11:20;SPECI CYXU 141120Z 02009KT 8SM -SHRA OVC026 18/ RMK SC8=

CYXU;2005-08-14 11:40;SPECI CYXU 141140Z 01009KT 2 1/2SM -SHRA BR OVC026 18/ RMK SC8=

CYXU;2005-08-14 11:50;SPECI CYXU 141150Z 03009KT 1 1/4SM -SHRA BR OVC026 17/ RMK FG1SC7 CU EMBDD=

CYXU;2005-08-14 12:00;METAR CYXU 141200Z 03008KT 1 1/4SM -SHRA BR OVC026 17/14 A2999 RMK FG1SC7 CU EMBDD SLP152=

CYXU;2005-08-14 12:15;SPECI CYXU 141215Z 06011KT 2 1/2SM -SHRA BR BKN026 OVC036 17/ RMK SC6CU2=

CYXU;2005-08-14 12:35;SPECI CYXU 141235Z 06009KT 8SM BKN026 BKN035 OVC040 17/ RMK SC5CU2SC2=

CYXU;2005-08-14 13:00;METAR CYXU 141300Z 06009KT 10SM FEW026 SCT040 OVC053 17/15 A2998 RMK SC2SC2SC4 SLP150=

CYXU;2005-08-14 13:50;SPECI CYXU 141350Z 04005KT 4SM -SHRA BR SCT040 OVC048 18/ RMK CU4SC4=

CYXU;2005-08-14 14:00;METAR CYXU 141400Z 03005KT 3SM -SHRA BR SCT040 OVC048 18/15 A3001 RMK CU4SC4 SLP161=

CYXU;2005-08-14 14:09;SPECI CYXU 141409Z 08006KT 1 1/4SM -SHRA BR FEW017 BKN040 OVC048 17/ RMK SF2CU5SC2=

CYXU;2005-08-14 14:20;SPECI CYXU 141420Z 07007KT 2 1/2SM -SHRA BR FEW018 BKN039 OVC048 17/ RMK SF2CU5SC2=

CYXU;2005-08-14 14:45;SPECI CYXU 141445Z 09009KT 3SM -SHRA BR BKN039 OVC048 17/ RMK CU6SC2=

CYXU;2005-08-14 15:00;METAR CYXU 141500Z 09009KT 5SM -SHRA BR SCT040 OVC081 17/15 A3002 RMK SC4AC4 SLP164=

CYXU;2005-08-14 15:15;SPECI CYXU 141515Z 09009KT 10SM FEW040 OVC090 17/ RMK SC2AC6=

CYXU;2005-08-14 15:40;SPECI CYXU 141540Z 04004KT 12SM FEW011 FEW040 OVC095 18/ RMK SF2SC1AC6=

CYXU;2005-08-14 16:00;METAR CYXU 141600Z 08004KT 12SM -SHRA SCT011 OVC100 18/16 A3003 RMK CF3AC5 SLP168=

CYXU;2005-08-14 16:20;SPECI CYXU 141620Z 09005KT 12SM BKN012 OVC040 18/ RMK SC7SC1=

CYXU;2005-08-14 16:51;SPECI CYXU 141651Z 08004KT 12SM -SHRA BKN012 OVC100 19/ RMK SC7AC1 TCU ASOCTD=

CYXU;2005-08-14 17:00;METAR CYXU 141700Z 05002KT 12SM BKN012 OVC110 19/16 A3004 RMK SC7AC1 SLP171=

CYXU;2005-08-14 18:00;METAR CYXU 141800Z 05002KT 12SM OVC012 19/16 A3005 RMK SC8 SLP173=

CYXU;2005-08-14 19:09;SPECI CYXU 141909Z 35004KT 12SM -SHRA BKN019 OVC140 20/ RMK SC6AC2=

CYXU;2005-08-14 20:00;METAR CYXU 142000Z 01004KT 12SM SCT020 BKN120 21/16 A3006 RMK CU3AC3 SLP177=

CYXU;2005-08-14 21:00;METAR CYXU 142100Z 32004KT 15SM BKN023 BKN180 22/16 A3006 RMK CU5AC2 SLP177=

CYXU;2005-08-14 22:00;METAR CYXU 142200Z 36004KT 15SM BKN039 BKN210 22/15 A3007 RMK CU5CI2 SLP180=

CYXU;2005-08-14 23:00;METAR CYXU 142300Z 32007KT 15SM BKN035 BKN210 22/16 A3008 RMK CU5CI2 SLP184=

CYXU;2005-08-15 00:00;METAR CYXU 150000Z 31004KT 15SM FEW035 BKN190 20/13 A3009 RMK SC1AC6 SLP187=

CYXU;2005-08-15 01:00;METAR CYXU 150100Z 30002KT 15SM BKN190 19/13 A3010 RMK AC7 SLP190=

CYXU;2005-08-15 04:00;METAR CYXU 150400Z 31003KT 15SM OVC230 18/14 A3012 RMK CS8 SLP200=

CYXU;2005-08-15 05:00;METAR CYXU 150500Z 35003KT 15SM BKN230 17/13 A3012 RMK CS7 SLP200=

CYXU;2005-08-15 06:00;METAR CYXU 150600Z 35004KT 15SM BKN230 17/12 A3012 RMK CS6 SLP200=

CYXU;2005-08-15 07:00;METAR CYXU 150700Z 35004KT 15SM FEW230 16/12 A3013 RMK CI2 SLP202=

CYXU;2005-08-15 08:00;METAR CYXU 150800Z 34004KT 15SM FEW230 15/12 A3014 RMK CI2 SLP205=

CYXU;2005-08-15 09:00;METAR CYXU 150900Z 34003KT 15SM FEW230 15/12 A3014 RMK CI2 SLP207=

CYXU;2005-08-15 10:00;METAR CYXU 151000Z 34003KT 15SM FEW230 14/12 A3016 RMK CI1 SLP211=

CYXU;2005-08-15 11:00;METAR CYXU 151100Z 35003KT 15SM FEW230 13/12 A3017 RMK CI1 SLP216=

CYXU;2005-08-15 12:00;METAR CYXU 151200Z 34004KT 15SM FEW230 17/14 A3018 RMK CI1 SLP220=

CYXU;2005-08-15 13:00;METAR CYXU 151300Z 35005KT 15SM FEW250 19/15 A3019 RMK CI2 SLP223=

CYXU;2005-08-15 14:00;METAR CYXU 151400Z 32007KT 15SM FEW250 21/14 A3020 RMK CI0 SLP226=

CYXU;2005-08-15 15:00;METAR CYXU 151500Z 32006KT 15SM FEW035 FEW250 23/14 A3021 RMK CF1CI0 SLP227=

CYXU;2005-08-15 16:00;METAR CYXU 151600Z 34005KT 15SM FEW040 FEW250 23/13 A3021 RMK CU2CI1 SLP228=

CYXU;2005-08-15 17:00;METAR CYXU 151700Z 33005KT 15SM FEW045 SCT250 25/13 A3020 RMK CU1CI1 SLP225=

CYXU;2005-08-15 18:00;METAR CYXU 151800Z 29002KT 15SM FEW045 FEW260 25/12 A3019 RMK CU1CI1 SLP222=

CYXU;2005-08-15 19:00;METAR CYXU 151900Z 32003KT 15SM FEW048 SCT240 25/13 A3018 RMK CU1CI3 SLP219=

CYXU;2005-08-15 20:00;METAR CYXU 152000Z 32004KT 15SM FEW055 BKN240 25/11 A3017 RMK CU2CI3 SLP216=

CYXU;2005-08-15 21:00;METAR CYXU 152100Z 31006KT 15SM FEW045 BKN240 25/14 A3016 RMK CU2CI3 SLP212=

CYXU;2005-08-15 22:00;METAR CYXU 152200Z 33006KT 15SM FEW045 BKN220 25/14 A3017 RMK CU1CI6 SLP213=

CYXU;2005-08-15 23:00;METAR CYXU 152300Z 34008KT 15SM BKN220 23/14 A3016 RMK CI6 SLP211=

CYXU;2005-08-16 00:00;METAR CYXU 160000Z 33003KT 15SM BKN220 22/14 A3015 RMK CI5 SLP209=

CYXU;2005-08-16 02:00;METAR CYXU 160200Z 34004KT 15SM BKN220 20/13 A3017 RMK CI5 SLP214=

CYXU;2005-08-16 03:00;METAR CYXU 160300Z 00000KT 15SM BKN250 17/13 A3017 RMK CI5 SLP214=

CYXU;2005-08-16 04:00;METAR CYXU 160400Z 36003KT 15SM BKN250 17/13 A3016 RMK CI5 SLP212=

CYXU;2005-08-16 05:00;METAR CYXU 160500Z 00000KT 15SM FEW250 15/13 A3016 RMK CI2 SLP212=

CYXU;2005-08-16 06:00;METAR CYXU 160600Z 00000KT 15SM SKC 14/12 A3015 RMK SLP209=

CYXU;2005-08-16 07:00;METAR CYXU 160700Z 35003KT 15SM SKC 14/12 A3015 RMK SLP207=

CYXU;2005-08-16 08:00;METAR CYXU 160800Z 35003KT 15SM SKC 14/12 A3014 RMK SLP206=

CYXU;2005-08-16 10:00;METAR CYXU 161000Z 00000KT 15SM FEW250 12/10 A3015 RMK CI1 SLP208=

CYXU;2005-08-16 11:00;METAR CYXU 161100Z 00000KT 15SM FEW250 12/10 A3015 RMK CI1 SLP207=

CYXU;2005-08-16 12:00;METAR CYXU 161200Z 35003KT 15SM FEW250 15/11 A3015 RMK CI1 SLP210=

CYXU;2005-08-16 13:00;METAR CYXU 161300Z 00000KT 15SM FEW250 18/12 A3015 RMK CI1 TR CI SLP209=

CYXU;2005-08-16 14:00;METAR CYXU 161400Z 27002KT 15SM FEW250 22/12 A3014 RMK CI1 TR CI SLP207=

CYXU;2005-08-16 15:00;METAR CYXU 161500Z 28003KT 15SM FEW260 23/11 A3014 RMK CI0 SLP206=

CYXU;2005-08-16 16:00;METAR CYXU 161600Z 35003KT 15SM FEW050 FEW170 FEW260 25/12 A3014 RMK CU1AC1CI1 SLP204=

CYXU;2005-08-16 17:00;METAR CYXU 161700Z 29003KT 15SM FEW050 FEW170 FEW230 26/13 A3013 RMK CU1AC1CI1 SLP200=

CYXU;2005-08-16 18:00;METAR CYXU 161800Z 30008KT 15SM FEW050 SCT068 BKN230 26/12 A3012 RMK CU1AC2CI0 SLP196=

CYXU;2005-08-16 19:00;METAR CYXU 161900Z 31009KT 15SM FEW060 26/13 A3010 RMK CU2 TCU ASOCTD SLP190=

CYXU;2005-08-16 20:00;METAR CYXU 162000Z 30005KT 15SM BKN060TCU 26/15 A3009 RMK TCU7 SLP187=

CYXU;2005-08-16 21:00;METAR CYXU 162100Z 29009KT 12SM -SHRA BKN060TCU 25/15 A3008 RMK TCU7 SLP186=

CYXU;2005-08-16 21:39;SPECI CYXU 162139Z 29005KT 15SM BKN060TCU 23/ RMK TCU5=

CYXU;2005-08-16 22:00;METAR CYXU 162200Z 28003KT 15SM SCT060TCU 25/17 A3008 RMK TCU3 SLP185=

CYXU;2005-08-16 23:00;METAR CYXU 162300Z 29003KT 15SM SCT060 24/17 A3007 RMK CU3 SLP182=

CYXU;2005-08-17 00:00;METAR CYXU 170000Z 29004KT 15SM FEW030 SCT070 24/17 A3007 RMK CU1AC2 SLP182=

CYXU;2005-08-17 01:00;METAR CYXU 170100Z 28002KT 15SM FEW070 21/17 A3008 RMK AC2 SLP184=

CYXU;2005-08-17 02:00;METAR CYXU 170200Z 25002KT 15SM FEW070 20/16 A3009 RMK AC1 SLP188=

CYXU;2005-08-17 03:00;METAR CYXU 170300Z 26002KT 15SM SKC 19/15 A3010 RMK SLP190=

CYXU;2005-08-17 04:00;METAR CYXU 170400Z 27002KT 15SM SKC 18/15 A3009 RMK SLP188=

CYXU;2005-08-17 05:00;METAR CYXU 170500Z 00000KT 8SM SKC 17/15 A3010 RMK SLP189=

CYXU;2005-08-17 07:00;METAR CYXU 170700Z 00000KT 8SM BCFG SKC 16/14 A3009 RMK SLP185=

CYXU;2005-08-17 08:00;METAR CYXU 170800Z 00000KT 8SM BCFG SKC 16/14 A3008 RMK VIS S QUAD 6 SLP183=

CYXU;2005-08-17 09:00;METAR CYXU 170900Z 00000KT 8SM BCFG SKC 15/14 A3008 RMK SLP184=

CYXU;2005-08-17 10:00;METAR CYXU 171000Z 00000KT 7SM MIFG FEW100 15/14 A3008 RMK AC1 AC TR SLP185=

CYXU;2005-08-17 10:07;SPECI CYXU 171007Z 32003KT 7SM MIFG SCT009 RMK ST1=

CYXU;2005-08-17 10:13;SPECI CYXU 171013Z 33004KT 6SM BR MIFG BKN008 RMK ST5=

CYXU;2005-08-17 10:22;SPECI CYXU 171022Z 36004KT 3SM BR MIFG FEW008 FEW260 RMK ST1CI1 CI TR=

CYXU;2005-08-17 10:41;SPECI CYXU 171041Z 36004KT 3SM BR MIFG BKN004 BKN260 RMK ST3CI1 CI TR=

CYXU;2005-08-17 10:46;SPECI CYXU 171046Z 36003KT 1 1/2SM BR OVC001 RMK ST8 VSBY N QUAD 3/4=

CYXU;2005-08-17 10:53;SPECI CYXU 171053Z 34004KT 3/8SM R15/1600FT/N FG OVC001 RMK FG3ST5=

CYXU;2005-08-17 11:00;METAR CYXU 171100Z 35004KT 1/4SM R15/1200FT/N FG OVC001 16/15 A3010 RMK FG5ST3 SLP189=

CYXU;2005-08-17 11:04;SPECI CYXU 171104Z 35005KT 1/8SM R15/1100FT/N FG VV000 RMK FG8=

CYXU;2005-08-17 11:55;SPECI CYXU 171155Z 00000KT 1/4SM R15/1100FT/N FG BKN001 BKN260 RMK FG1SF3CI1=

CYXU;2005-08-17 12:00;METAR CYXU 171200Z 00000KT 1/4SM R15/1800FT/N FG BKN001 BKN260 16/15 A3010 RMK FG1ST2CI0 SLP191=

CYXU;2005-08-17 12:07;SPECI CYXU 171207Z 00000KT 3/4SM R15/2800V4500FT/N BR BKN260 RMK FG1CI1=

CYXU;2005-08-17 12:16;SPECI CYXU 171216Z 33002KT 1 1/2SM R15/4500VP6000FT/U BR BKN260 RMK FG1CI1 VSBY SE QUAD 3/4=

CYXU;2005-08-17 12:32;SPECI CYXU 171232Z 01002KT 4SM BR FEW260 RMK CI1 VSBY SE QUAD 2=

CYXU;2005-08-17 13:00;METAR CYXU 171300Z 00000KT 7SM FEW260 20/16 A3010 RMK CI1 CI TR SLP191=

CYXU;2005-08-17 14:00;METAR CYXU 171400Z 35006KT 12SM FEW260 22/14 A3010 RMK CI1 CI TR SLP192=

CYXU;2005-08-17 15:00;METAR CYXU 171500Z 34005KT 15SM FEW260 23/14 A3010 RMK CI1 CI TR SLP192=

CYXU;2005-08-17 16:00;METAR CYXU 171600Z 33008KT 15SM FEW065 FEW260 24/15 A3011 RMK SC1CI1 SLP193=

CYXU;2005-08-17 17:00;METAR CYXU 171700Z 30006KT 15SM FEW042 FEW085 FEW260 24/14 A3010 RMK CU1AC1CI1 CU CI TR SLP191=

CYXU;2005-08-17 18:00;METAR CYXU 171800Z 31007KT 15SM FEW042 FEW090 FEW260 25/14 A3010 RMK CU1AC1CI0 CU AC TR SLP189=

CYXU;2005-08-17 19:00;METAR CYXU 171900Z 34006KT 15SM FEW045 FEW100 BKN260 26/14 A3008 RMK CU1AC1CI1 CU AC TR ACC ASOCTD SLP185=

CYXU;2005-08-17 20:00;METAR CYXU 172000Z 32007KT 15SM FEW050 BKN260 25/13 A3008 RMK CU1CI2 SLP184=

CYXU;2005-08-17 21:00;METAR CYXU 172100Z 32005KT 15SM FEW050 SCT260 25/13 A3007 RMK CU1CI2 SLP182=

CYXU;2005-08-17 22:00;METAR CYXU 172200Z 33005KT 15SM FEW045 BKN260 24/12 A3007 RMK CU1CI3 SLP182=

CYXU;2005-08-17 23:00;METAR CYXU 172300Z 31005KT 15SM BKN260 24/11 A3007 RMK CI5 SLP180=

CYXU;2005-08-18 00:00;METAR CYXU 180000Z 31004KT 15SM BKN260 22/11 A3007 RMK CI3 SLP179=

CYXU;2005-08-18 02:00;METAR CYXU 180200Z 36003KT 15SM BKN260 19/12 A3008 RMK CI3 SLP183=

CYXU;2005-08-18 04:00;METAR CYXU 180400Z 00000KT 15SM FEW220 16/12 A3007 RMK CI2 SLP182=

CYXU;2005-08-18 05:00;METAR CYXU 180500Z 07004KT 15SM BKN220 16/12 A3007 RMK CI6 SLP181=

CYXU;2005-08-18 06:00;METAR CYXU 180600Z 08006KT 15SM SCT220 15/12 A3007 RMK CI3 SLP181=

CYXU;2005-08-18 07:00;METAR CYXU 180700Z 08005KT 15SM SCT220 15/11 A3007 RMK CI3 SLP182=

CYXU;2005-08-18 08:00;METAR CYXU 180800Z 09005KT 15SM SCT220 15/10 A3007 RMK CI3 SLP180=

CYXU;2005-08-18 09:00;METAR CYXU 180900Z 08006KT 15SM FEW220 15/10 A3006 RMK CI2 SLP178=

CYXU;2005-08-18 10:00;METAR CYXU 181000Z 09006KT 15SM BKN220 15/10 A3005 RMK CI6 SLP175=

CYXU;2005-08-18 11:00;METAR CYXU 181100Z 09007KT 15SM BKN170 BKN220 15/11 A3006 RMK AC6CI2 SLP177=

CYXU;2005-08-18 12:00;METAR CYXU 181200Z 11006KT 15SM SCT170 OVC220 16/12 A3006 RMK AC3CI1 SLP178=

CYXU;2005-08-18 13:00;METAR CYXU 181300Z 09006KT 15SM FEW160 BKN220 19/13 A3006 RMK AC2CI1 SLP176=

CYXU;2005-08-18 14:00;METAR CYXU 181400Z 11008KT 15SM BKN170 21/15 A3005 RMK AC6 SLP174=

CYXU;2005-08-18 15:00;METAR CYXU 181500Z 13007KT 10SM SCT180 BKN240 23/14 A3005 RMK AC3CI0 SLP173=

CYXU;2005-08-18 16:00;METAR CYXU 181600Z 11008KT 10SM SCT150 BKN240 25/18 A3003 RMK AC4CI0 SLP167=

CYXU;2005-08-18 17:00;METAR CYXU 181700Z 12007KT 10SM FEW040 BKN150 BKN240 25/17 A3002 RMK CU1AC4CI1 SLP164=

CYXU;2005-08-18 18:00;METAR CYXU 181800Z 11010KT 10SM FEW040 SCT150 OVC240 26/18 A3001 RMK CU1AC3CI2 SLP159=

CYXU;2005-08-18 19:00;METAR CYXU 181900Z 12010G16KT 10SM FEW040 BKN150 OVC240 26/17 A3000 RMK CU2AC4CI1 SLP155=

CYXU;2005-08-18 20:00;METAR CYXU 182000Z 11009KT 10SM FEW040 BKN160 BKN240 26/17 A2998 RMK CU1AC7CI1 SLP149=

CYXU;2005-08-18 21:00;METAR CYXU 182100Z 11011KT 10SM BKN160 BKN240 26/16 A2997 RMK AC6CI1 SLP146=

CYXU;2005-08-18 22:00;METAR CYXU 182200Z 11009KT 10SM BKN160 OVC240 26/15 A2996 RMK AC6CS2 SLP142=

CYXU;2005-08-18 23:00;METAR CYXU 182300Z 09009KT 10SM SCT160 BKN240 25/15 A2994 RMK AC4CS3 SLP137=

CYXU;2005-08-19 00:00;METAR CYXU 190000Z 08010KT 10SM BKN140 OVC240 23/17 A2993 RMK AC6CS2 SLP135=

CYXU;2005-08-19 01:00;METAR CYXU 190100Z 09011KT 15SM OVC130 21/15 A2993 RMK AC8 SLP134=

CYXU;2005-08-19 01:35;SPECI CYXU 190135Z 08013G18KT 10SM -RA OVC130 21/ RMK AC8=

CYXU;2005-08-19 03:00;METAR CYXU 190300Z 09013KT 15SM OVC130 20/16 A2993 RMK AC8 SLP131=

CYXU;2005-08-19 04:00;METAR CYXU 190400Z 08009KT 15SM OVC130 21/16 A2992 RMK AC8 SLP129=

CYXU;2005-08-19 05:00;METAR CYXU 190500Z 09012KT 15SM OVC130 21/16 A2991 RMK AC8 SLP124=

CYXU;2005-08-19 05:08;SPECI CYXU 190508Z 09012KT 15SM TS OVC130 21/ RMK AC8 LGTCC NW CB ASOCTD=

CYXU;2005-08-19 05:27;SPECI CYXU 190527Z 12011KT 2SM +TSRA BKN038CB OVC070 20/ RMK CB6AC2=

CYXU;2005-08-19 05:43;SPECI CYXU 190543Z 10011KT 4SM -TSRA BR BKN034CB OVC070 19/ RMK CB5AC3=

CYXU;2005-08-19 06:00;METAR CYXU 190600Z 10011KT 7SM -TSRA BKN038 OVC070 19/16 A2990 RMK SC6AC2 CB E SLP121=

CYXU;2005-08-19 06:11;SPECI CYXU 190611Z 11008KT 10SM BKN032 OVC070 19/ RETSRA RMK SC6AC2=

CYXU;2005-08-19 08:00;METAR CYXU 190800Z 10008KT 2 1/2SM -SHRA BR SCT017 OVC027 19/17 A2988 RMK SF3SC5 TCU ASOCTD LTGCC NE SLP115=

CYXU;2005-08-19 08:40;SPECI CYXU 190840Z 13006KT 2 1/2SM -SHRA BR BKN010 OVC027 20/ RMK SF6SC2 TCU ASOCTD=

CYXU;2005-08-19 09:00;METAR CYXU 190900Z 11006KT 2 1/2SM -SHRA BR BKN009 OVC027 20/18 A2988 RMK SF6SC2 TCU ASOCTD SLP113=

CYXU;2005-08-19 10:00;METAR CYXU 191000Z 11004KT 2SM -SHRA BR BKN008 OVC014 20/18 A2987 RMK SF6SC2 TCU ASOCTD SLP111=

CYXU;2005-08-19 11:00;METAR CYXU 191100Z 10005KT 2SM BR BKN005 OVC012 20/19 A2987 RMK SF6SC2 SLP111=

CYXU;2005-08-19 11:40;SPECI CYXU 191140Z 12007KT 1 1/2SM BR OVC005 21/ RMK SF8=

CYXU;2005-08-19 12:00;METAR CYXU 191200Z 15007KT 1 1/2SM BR BKN005 OVC012 22/20 A2987 RMK SF7SC1 SLP112=

CYXU;2005-08-19 12:26;SPECI CYXU 191226Z 16010KT 2SM BR OVC008 23/ RMK SF8=

CYXU;2005-08-19 13:00;METAR CYXU 191300Z 10009KT 2 1/2SM BR BKN010 OVC040 23/21 A2986 RMK SF6SC2 SLP109=

CYXU;2005-08-19 13:22;SPECI CYXU 191322Z 16011KT 2 1/2SM -SHRA BR OVC007 23/ RMK SF8 TCU EMBDD=

CYXU;2005-08-19 14:00;METAR CYXU 191400Z 17014KT 2SM -SHRA BR OVC009 23/22 A2984 RMK SF8 TCU EMBDD SLP102=

CYXU;2005-08-19 14:42;SPECI CYXU 191442Z 17012G18KT 2SM BR OVC008 24/ RMK SF8=

CYXU;2005-08-19 15:00;METAR CYXU 191500Z 18011G17KT 2 1/2SM BR OVC008 24/22 A2983 RMK SF8 SLP097=

CYXU;2005-08-19 15:34;SPECI CYXU 191534Z 19015G21KT 2 1/2SM -SHRA BR OVC010 24/ RMK SF8 TCU EMBDD=

CYXU;2005-08-19 16:00;METAR CYXU 191600Z 18024KT 2 1/2SM HZ OVC011 25/22 A2980 RMK SF8 SLP089=

CYXU;2005-08-19 17:00;METAR CYXU 191700Z 20014G24KT 3SM HZ OVC010 25/22 A2980 RMK SF8 SLP086=

CYXU;2005-08-19 18:00;METAR CYXU 191800Z 20014KT 4SM HZ BKN019 26/22 A2980 RMK CF6 SLP086=

CYXU;2005-08-19 19:00;METAR CYXU 191900Z 20019G25KT 4SM HZ BKN020 27/22 A2976 RMK CU7 SLP076=

CYXU;2005-08-19 22:00;METAR CYXU 192200Z 29009G16KT 15SM BKN044 27/19 A2979 RMK SC6 TCU EMBD SLP082=

CYXU;2005-08-19 23:00;METAR CYXU 192300Z 29011G18KT 15SM BKN045 26/19 A2981 RMK SC5 SLP090=

CYXU;2005-08-20 00:00;METAR CYXU 200000Z 28010G16KT 15SM BKN063 25/18 A2984 RMK SC7 SLP099=

CYXU;2005-08-20 01:00;METAR CYXU 200100Z 31015KT 15SM BKN022 BKN060 23/18 A2988 RMK SC5SC2 SLP112=

CYXU;2005-08-20 01:43;SPECI CYXU 200143Z 30009G16KT 15SM OVC014 21/ RMK SC8=

CYXU;2005-08-20 02:00;METAR CYXU 200200Z 30008G15KT 15SM FEW014 20/17 A2990 RMK SC2 SLP120=

CYXU;2005-08-20 03:00;METAR CYXU 200300Z 29007KT 15SM BKN020 20/16 A2990 RMK SC4 SLP122=

CYXU;2005-08-20 04:00;METAR CYXU 200400Z 28007KT 15SM FEW020 19/16 A2993 RMK SC1 SLP132=

CYXU;2005-08-20 05:00;METAR CYXU 200500Z 28007KT 15SM FEW025 18/16 A2993 RMK SC2 SLP132=

CYXU;2005-08-20 06:00;METAR CYXU 200600Z 28006KT 15SM FEW022 18/16 A2994 RMK SC1 SLP135=

CYXU;2005-08-20 07:00;METAR CYXU 200700Z 28007KT 15SM FEW022 SCT250 18/15 A2994 RMK SC1CI0 SLP135=

CYXU;2005-08-20 08:00;METAR CYXU 200800Z 28006KT 10SM FEW020 FEW250 17/15 A2994 RMK SC1CI0 SLP135=

CYXU;2005-08-20 09:00;METAR CYXU 200900Z 28002KT 10SM SCT250 17/15 A2993 RMK CI0 SLP133=

CYXU;2005-08-20 10:00;METAR CYXU 201000Z 27003KT 6SM BR SCT250 16/16 A2996 RMK CI1 SLP142=

CYXU;2005-08-20 11:00;METAR CYXU 201100Z 24003KT 6SM BR BKN250 17/15 A2997 RMK CI1 SLP144=

CYXU;2005-08-20 12:00;METAR CYXU 201200Z 24005KT 6SM HZ FEW013 BKN250 18/17 A2997 RMK CF1CI2 SLP147=

CYXU;2005-08-20 12:22;SPECI CYXU 201222Z 24004KT 6SM HZ BKN012 BKN250 19/ RMK SF5CI1=

CYXU;2005-08-20 13:00;METAR CYXU 201300Z 26005KT 6SM HZ BKN013 BKN250 20/17 A3000 RMK SF5CI1 SLP156=

CYXU;2005-08-20 13:23;SPECI CYXU 201323Z 25003KT 8SM SCT011 BKN180 21/ RMK CF3AC2=

CYXU;2005-08-20 13:40;SPECI CYXU 201340Z 24002KT 8SM OVC015 20/ RMK CF8=

CYXU;2005-08-20 14:00;METAR CYXU 201400Z 23005KT 10SM OVC016 21/17 A3000 RMK SC8 SLP157=

CYXU;2005-08-20 15:00;METAR CYXU 201500Z 23009KT 10SM -SHRA OVC022 21/17 A3003 RMK SC8 SLP165=

CYXU;2005-08-20 16:00;METAR CYXU 201600Z 16007KT 10SM FEW025 BKN150 OVC250 21/17 A2996 RMK CF1AC5CI2 PRESFR SLP144=

CYXU;2005-08-20 16:32;SPECI CYXU 201632Z 16009KT 10SM BKN011 OVC120 21/ RMK CF6AC2=

CYXU;2005-08-20 17:00;METAR CYXU 201700Z 20006KT 10SM BKN013 OVC100 21/18 A2995 RMK CF6AC2 SLP139=

CYXU;2005-08-20 17:27;SPECI CYXU 201727Z 19006KT 10SM -SHRA SCT014 OVC085 21/ RMK CF3AC5 ACC ASOCTD=

CYXU;2005-08-20 18:00;METAR CYXU 201800Z 17007KT 8SM FEW014 BKN100 OVC250 21/19 A2993 RMK CF1AC5CS2 SLP135=

CYXU;2005-08-20 18:17;SPECI CYXU 201817Z 18011KT 8SM -SHRA FEW015 OVC100 22/ RMK CF2AC6 ACC ASOCTD=

CYXU;2005-08-20 20:00;METAR CYXU 202000Z 18007KT 10SM OVC021 24/20 A2989 RMK SC8 SLP120=

CYXU;2005-08-20 21:00;METAR CYXU 202100Z 18004KT 10SM BKN022 OVC100 25/20 A2987 RMK SC7AC1 SLP111=

CYXU;2005-08-20 22:00;METAR CYXU 202200Z 04005KT 3SM SHRA OVC016TCU 23/20 A2986 RMK TCU8 SLP110=

CYXU;2005-08-20 22:26;SPECI CYXU 202226Z 05002KT 4SM HZ BKN016 BKN100 24/ RMK SC7AC1 TCU ASCTD RERA=

CYXU;2005-08-20 22:48;SPECI CYXU 202248Z 09002KT 4SM -SHRA HZ BKN016 BKN077 23/ RMK SC5AC2 TCU ASCTD RERA=

CYXU;2005-08-20 23:00;METAR CYXU 202300Z 14003KT 4SM -SHRA HZ BKN020 OVC070 23/21 A2986 RMK SC5AC3 TCU ASCTD RERA SLP110=

CYXU;2005-08-20 23:33;SPECI CYXU 202333Z 23003KT 2SM -SHRA HZ OVC013TCU 23/ RMK TCU8=

CYXU;2005-08-20 23:42;SPECI CYXU 202342Z 19002KT 1SM R15/P6000FT/D SHRA HZ BKN016TCU OVC100 23/ RMK TCU6AC2=

CYXU;2005-08-20 23:46;SPECI CYXU 202346Z 18003KT 3/4SM R15/P6000FT/U -SHRA HZ BKN015TCU BKN100 23/ RMK TCU5AC2 RERA=

CYXU;2005-08-21 00:00;METAR CYXU 210000Z 20004KT 2SM HZ FEW015TCU SCT100 23/21 A2987 RMK TCU2AC2 RERA /R10/ SLP113=

CYXU;2005-08-21 00:47;SPECI CYXU 210047Z 00000KT 1/2SM R15/3000VP6000FT/U FG FEW015TCU FEW100 22/ RMK TCU1AC1=

CYXU;2005-08-21 01:00;METAR CYXU 210100Z 00000KT 1SM R15/1800FT/N BR FEW015TCU FEW100 22/20 A2988 RMK TCU1AC1 SLP115=

CYXU;2005-08-21 01:14;SPECI CYXU 210114Z 00000KT 1/2SM R15/1400V2000FT/N FG FEW100 21/ RMK AC1=

CYXU;2005-08-21 02:00;METAR CYXU 210200Z 27002KT 1SM R15/2200FT/N BR FEW100 21/20 A2988 RMK AC1 SLP115=

CYXU;2005-08-21 03:00;METAR CYXU 210300Z 26003KT 1/2SM R15/2800FT/N FG SKC 20/19 A2988 RMK FG2 SLP116=

CYXU;2005-08-21 04:00;METAR CYXU 210400Z 25002KT 3/4SM R15/2800FT/N BR BKN030 21/20 A2987 RMK SC6 SLP114=

CYXU;2005-08-21 05:00;METAR CYXU 210500Z 29004KT 2SM BR BKN012 21/20 A2989 RMK SC7 SLP120=

CYXU;2005-08-21 05:20;SPECI CYXU 210520Z 27003KT 3SM BR SCT012 21/ RMK SC4=

CYXU;2005-08-21 05:50;SPECI CYXU 210550Z 28007KT 5SM BR BKN008 21/ RMK SF6=

CYXU;2005-08-21 06:00;METAR CYXU 210600Z 29007KT 5SM BR BKN008 21/20 A2990 RMK SF6 CIG VRB 6-10 SLP121=

CYXU;2005-08-21 08:00;METAR CYXU 210800Z 28005KT 6SM BR BKN012 19/18 A2991 RMK SF5 SLP126=

CYXU;2005-08-21 08:42;SPECI CYXU 210842Z 28005KT 6SM BR BKN003 19/ RMK SF6=

CYXU;2005-08-21 09:00;METAR CYXU 210900Z 28004KT 2 1/2SM BR BKN003 19/18 A2991 RMK SF7 SLP126=

CYXU;2005-08-21 10:00;METAR CYXU 211000Z 27003KT 2SM BR SCT002 18/17 A2992 RMK SF4 SLP128=

CYXU;2005-08-21 10:19;SPECI CYXU 211019Z 27003KT 5SM BR FEW002 18/ RMK SF2=

CYXU;2005-08-21 11:00;METAR CYXU 211100Z 25004KT 6SM BR FEW002 18/17 A2993 RMK SF2 SLP133=

CYXU;2005-08-21 12:00;METAR CYXU 211200Z 27005KT 6SM HZ FEW003 19/17 A2994 RMK SF1 SLP137=

CYXU;2005-08-21 13:00;METAR CYXU 211300Z 26007KT 12SM SKC 20/17 A2994 RMK SLP137=

CYXU;2005-08-21 14:00;METAR CYXU 211400Z 27007KT 15SM SKC 22/17 A2994 RMK SLP137=

CYXU;2005-08-21 15:00;METAR CYXU 211500Z 25009KT 15SM FEW050 SCT150 24/16 A2994 RMK CU2AC2 SLP135=

CYXU;2005-08-21 16:00;METAR CYXU 211600Z 26013KT 15SM SCT050 25/17 A2994 RMK CU4 SLP134=

CYXU;2005-08-21 17:00;METAR CYXU 211700Z 28007G18KT 15SM BKN040 25/14 A2994 RMK CU5 SLP134=

CYXU;2005-08-21 18:00;METAR CYXU 211800Z 29012KT 15SM SCT050 25/14 A2993 RMK CU3 FEW TCU ASOCTD SLP131=

CYXU;2005-08-21 19:00;METAR CYXU 211900Z 28015KT 15SM SCT050 25/14 A2992 RMK CU4 SLP127=

CYXU;2005-08-21 20:00;METAR CYXU 212000Z 29011KT 15SM SCT054 25/15 A2991 RMK CU4 SLP126=

CYXU;2005-08-21 21:00;METAR CYXU 212100Z 32011G17KT 15SM FEW055 25/14 A2991 RMK CU1 SLP124=

CYXU;2005-08-21 22:00;METAR CYXU 212200Z 32008KT 15SM FEW055 FEW250 24/14 A2990 RMK CU1CI1 SLP123=

CYXU;2005-08-21 23:00;METAR CYXU 212300Z 31008G16KT 15SM FEW055 FEW250 23/13 A2991 RMK CU1CI1 SLP124=

CYXU;2005-08-22 00:00;METAR CYXU 220000Z 32005KT 15SM FEW060 FEW250 22/13 A2991 RMK SC1CI1 SLP126=

CYXU;2005-08-22 01:00;METAR CYXU 220100Z 28003KT 15SM FEW070 19/13 A2991 RMK AC1 SLP126=

CYXU;2005-08-22 02:00;METAR CYXU 220200Z 29004KT 15SM SKC 18/13 A2991 RMK SLP127=

CYXU;2005-08-22 03:00;METAR CYXU 220300Z 35007KT 15SM FEW070 17/14 A2993 RMK AC1 SLP133=

CYXU;2005-08-22 04:00;METAR CYXU 220400Z 35004KT 15SM FEW070 16/13 A2994 RMK AC1 SLP135=

CYXU;2005-08-22 05:00;METAR CYXU 220500Z 27002KT 15SM FEW060 15/13 A2995 RMK SC1 SLP139=

CYXU;2005-08-22 07:00;METAR CYXU 220700Z 27004KT 15SM BKN063 16/13 A2995 RMK SC6 SLP138=

CYXU;2005-08-22 08:00;METAR CYXU 220800Z 29004KT 15SM BKN062 16/13 A2995 RMK SC6 SLP138=

CYXU;2005-08-22 09:00;METAR CYXU 220900Z 26004KT 15SM BKN060 16/13 A2994 RMK SC6 SLP137=

CYXU;2005-08-22 09:51;SPECI CYXU 220951Z 28006KT 15SM -SHRA SCT020 BKN040 16/ RMK CU3CU3=

CYXU;2005-08-22 10:00;METAR CYXU 221000Z 29008KT 15SM -SHRA SCT020 BKN045 16/13 A2995 RMK SC4CU3 SLP138=

CYXU;2005-08-22 11:00;METAR CYXU 221100Z 29006KT 12SM -SHRA SCT020 BKN040 15/13 A2996 RMK CU3SC3 SLP143=

CYXU;2005-08-22 11:51;SPECI CYXU 221151Z 26004KT 15SM VCSH FEW020 BKN050 15/ RMK CU2SC4=

CYXU;2005-08-22 12:00;METAR CYXU 221200Z 25005KT 15SM VCSH FEW025 BKN050 16/13 A2997 RMK CU2SC4 SLP145=

CYXU;2005-08-22 13:00;METAR CYXU 221300Z 29006KT 15SM VCSH FEW020 BKN055 16/12 A2997 RMK CU2SC4 SLP148=

CYXU;2005-08-22 14:00;METAR CYXU 221400Z 31010G15KT 15SM VCSH SCT025 BKN055 18/11 A2999 RMK CU3SC3 SHOWERS NORTH SLP152=

CYXU;2005-08-22 15:00;METAR CYXU 221500Z 30010KT 15SM VCSH BKN025 BKN045 18/11 A3000 RMK CU5SC2 VIS LOWER EAST IN SHOWERS SLP157=

CYXU;2005-08-22 16:00;METAR CYXU 221600Z 32013KT 15SM VCSH FEW020 OVC040 18/12 A3000 RMK CU2SC6 SLP159=

CYXU;2005-08-22 16:31;SPECI CYXU 221631Z 31010G15KT 10SM -SHRA BKN020 OVC040 17/ RMK CU6SC2=

CYXU;2005-08-22 17:00;METAR CYXU 221700Z 29010G15KT 12SM VCSH BKN013 OVC040 17/13 A3000 RMK SC6CU2 SLP157=

CYXU;2005-08-22 18:00;METAR CYXU 221800Z 27010KT 6SM -SHRA BR BKN015 OVC040 18/13 A3000 RMK CU5SC3 SLP157=

CYXU;2005-08-22 18:28;SPECI CYXU 221828Z 28008KT 15SM VCSH SCT020 OVC050 17/ RMK CU3SC5=

CYXU;2005-08-22 20:00;METAR CYXU 222000Z 28011KT 15SM FEW015 BKN060 18/14 A3001 RMK CU2SC5 SLP162=

CYXU;2005-08-22 21:00;METAR CYXU 222100Z 29008G15KT 15SM FEW020 BKN060 18/14 A3001 RMK CU2SC6 SLP163=

CYXU;2005-08-22 22:00;METAR CYXU 222200Z 27009G15KT 15SM FEW017 BKN060 18/13 A3001 RMK CU1SC6 SLP163=

CYXU;2005-08-22 23:00;METAR CYXU 222300Z 32007KT 15SM BKN046 17/12 A3001 RMK SC7 SLP163=

CYXU;2005-08-23 00:00;METAR CYXU 230000Z 30006KT 15SM VCSH FEW025 BKN051 16/12 A3002 RMK CU2SC5 SHRA E SLP166=

CYXU;2005-08-23 01:00;METAR CYXU 230100Z 31005KT 15SM BKN037 16/12 A3003 RMK SC7 SLP169=

CYXU;2005-08-23 02:00;METAR CYXU 230200Z 32003KT 15SM BKN053 16/12 A3003 RMK SC6 SLP171=

CYXU;2005-08-23 03:00;METAR CYXU 230300Z 34006KT 15SM BKN051 15/12 A3004 RMK SC7 SLP173=

CYXU;2005-08-23 04:00;METAR CYXU 230400Z 34004KT 15SM FEW050 14/12 A3004 RMK SC1 SLP174=

CYXU;2005-08-23 05:00;METAR CYXU 230500Z 35003KT 15SM FEW050 13/11 A3005 RMK SC1 SLP176=

CYXU;2005-08-23 07:00;METAR CYXU 230700Z 29003KT 15SM BKN054 14/11 A3006 RMK SC7 SLP179=

CYXU;2005-08-23 09:00;METAR CYXU 230900Z 00000KT 15SM BKN057 13/12 A3007 RMK SC7 SLP184=

CYXU;2005-08-23 10:00;METAR CYXU 231000Z 00000KT 15SM BKN060 13/11 A3007 RMK SC5 SLP183=

CYXU;2005-08-23 11:00;METAR CYXU 231100Z 30003KT 15SM FEW060 13/11 A3009 RMK SC2 SLP191=

CYXU;2005-08-23 12:00;METAR CYXU 231200Z 34002KT 15SM FEW060 14/12 A3010 RMK SC2 SLP195=

CYXU;2005-08-23 13:00;METAR CYXU 231300Z 32002KT 15SM FEW060 16/12 A3011 RMK SC2 SLP198=

CYXU;2005-08-23 14:00;METAR CYXU 231400Z 34005KT 15SM FEW025 SCT060 17/12 A3012 RMK CU1SC2 SLP199=

CYXU;2005-08-23 14:30;SPECI CYXU 231430Z 34005KT 15SM BKN022 BKN060 18/ RMK CU5SC1=

CYXU;2005-08-23 15:00;METAR CYXU 231500Z 36005KT 15SM SCT025 BKN060 18/13 A3013 RMK CU4SC2 SLP202=

CYXU;2005-08-23 16:00;METAR CYXU 231600Z 02005KT 15SM FEW022 OVC065 19/12 A3013 RMK CU2SC6 SLP203=

CYXU;2005-08-23 17:00;METAR CYXU 231700Z 36008KT 15SM FEW030 BKN065 20/12 A3012 RMK CU2SC5 SLP201=

CYXU;2005-08-23 18:00;METAR CYXU 231800Z 05004KT 15SM FEW030 BKN068 20/12 A3012 RMK CU2SC6 SLP201=

CYXU;2005-08-23 19:00;METAR CYXU 231900Z 02004KT 15SM FEW030 BKN062 20/12 A3012 RMK CU2SC6 SLP200=

CYXU;2005-08-23 21:00;METAR CYXU 232100Z 06003KT 15SM FEW040 BKN066 20/12 A3012 RMK CU2AC6 SLP200=

CYXU;2005-08-23 22:00;METAR CYXU 232200Z 35005KT 15SM SCT035 BKN057 20/12 A3013 RMK CU3SC4 SLP202=

CYXU;2005-08-23 23:00;METAR CYXU 232300Z 36007KT 15SM FEW035 BKN065 20/12 A3013 RMK CU1SC6 SLP201=

CYXU;2005-08-24 00:00;METAR CYXU 240000Z 35004KT 15SM FEW068 19/12 A3013 RMK AC2 SLP203=

CYXU;2005-08-24 02:00;METAR CYXU 240200Z 34006KT 15SM FEW070 16/12 A3014 RMK AC1 SLP208=

CYXU;2005-08-24 03:00;METAR CYXU 240300Z 35005KT 15SM FEW070 15/12 A3016 RMK AC1 SLP212=

CYXU;2005-08-24 04:00;METAR CYXU 240400Z 35004KT 15SM FEW070 14/12 A3017 RMK AC1 SLP217=

CYXU;2005-08-24 05:00;METAR CYXU 240500Z 02004KT 15SM FEW070 13/11 A3019 RMK AC1 SLP222=

CYXU;2005-08-24 07:00;METAR CYXU 240700Z 02005KT 15SM SKC 12/10 A3019 RMK SLP224=

CYXU;2005-08-24 09:00;METAR CYXU 240900Z 35003KT 15SM SKC 11/09 A3020 RMK SLP227=

CYXU;2005-08-24 10:00;METAR CYXU 241000Z 36002KT 15SM FEW250 11/09 A3021 RMK CI1 SLP230=

CYXU;2005-08-24 11:00;METAR CYXU 241100Z 36002KT 15SM FEW250 11/09 A3023 RMK CI1 SLP236=

CYXU;2005-08-24 12:00;METAR CYXU 241200Z 35003KT 15SM FEW030 FEW250 12/10 A3024 RMK CU1CI1 SLP239=

CYXU;2005-08-24 13:00;METAR CYXU 241300Z 05004KT 15SM FEW030 17/13 A3024 RMK CU1 CU DIST SW SLP242=

CYXU;2005-08-24 14:00;METAR CYXU 241400Z 08004KT 15SM FEW030 20/12 A3025 RMK CU1 CU DIST SW SLP244=

CYXU;2005-08-24 15:00;METAR CYXU 241500Z 05003KT 15SM FEW040 21/10 A3026 RMK CF1 SLP245=

CYXU;2005-08-24 16:00;METAR CYXU 241600Z 13003KT 15SM FEW040 22/10 A3025 RMK CF1 SLP244=

CYXU;2005-08-24 18:00;METAR CYXU 241800Z 03006KT 15SM FEW040 23/11 A3025 RMK CU1 SLP244=

CYXU;2005-08-24 19:00;METAR CYXU 241900Z 11002KT 15SM FEW045 24/11 A3024 RMK CU1 SLP240=

CYXU;2005-08-24 20:00;METAR CYXU 242000Z 03004KT 15SM FEW045 24/11 A3024 RMK CU1 SLP238=

CYXU;2005-08-24 21:00;METAR CYXU 242100Z 06005KT 15SM FEW050 24/11 A3022 RMK CU1 SLP233=

CYXU;2005-08-24 23:00;METAR CYXU 242300Z 00000KT 15SM FEW200 24/10 A3023 RMK CI1 SLP236=

CYXU;2005-08-25 00:00;METAR CYXU 250000Z 18007KT 15SM FEW240 20/13 A3024 RMK CI1 SLP239=

CYXU;2005-08-25 01:00;METAR CYXU 250100Z 21005KT 15SM FEW240 18/12 A3026 RMK CI0 SLP246=

CYXU;2005-08-25 03:00;METAR CYXU 250300Z 00000KT 15SM FEW240 15/12 A3027 RMK CI0 SLP250=

CYXU;2005-08-25 04:00;METAR CYXU 250400Z 00000KT 15SM SKC 15/12 A3028 RMK SLP252=

CYXU;2005-08-25 05:00;METAR CYXU 250500Z 00000KT 15SM FEW240 13/11 A3029 RMK CI0 SLP255=

CYXU;2005-08-25 06:00;METAR CYXU 250600Z 00000KT 15SM FEW240 13/11 A3028 RMK CI1 SLP254=

CYXU;2005-08-25 09:00;METAR CYXU 250900Z 36002KT 15SM FEW270 12/10 A3028 RMK CI0 SLP254=

CYXU;2005-08-25 10:00;METAR CYXU 251000Z 07006KT 15SM FEW270 11/09 A3028 RMK CI0 SLP254=

CYXU;2005-08-25 11:00;METAR CYXU 251100Z 07003KT 15SM FEW270 12/10 A3029 RMK CI0 SLP256=

CYXU;2005-08-25 12:00;METAR CYXU 251200Z 07003KT 15SM FEW270 15/11 A3030 RMK CI1 SLP259=

CYXU;2005-08-25 13:00;METAR CYXU 251300Z 09008KT 15SM SCT270 18/12 A3030 RMK CI1 CC ASOCTD SLP262=

CYXU;2005-08-25 14:00;METAR CYXU 251400Z 10010KT 15SM BKN270 21/13 A3031 RMK CI3 SLP263=

CYXU;2005-08-25 15:00;METAR CYXU 251500Z 10010KT 15SM BKN190 22/11 A3029 RMK CI3 SLP257=

CYXU;2005-08-25 16:00;METAR CYXU 251600Z 12010KT 15SM BKN200 23/12 A3029 RMK CI3 SLP255=

CYXU;2005-08-25 17:00;METAR CYXU 251700Z 11010KT 15SM BKN210 24/12 A3027 RMK CI6 SLP251=

CYXU;2005-08-25 18:00;METAR CYXU 251800Z 12006KT 15SM OVC230 24/12 A3027 RMK CI6 SLP248=

CYXU;2005-08-25 19:00;METAR CYXU 251900Z 13006KT 15SM BKN230 25/12 A3025 RMK CI6 SLP243=

CYXU;2005-08-25 20:00;METAR CYXU 252000Z 13006KT 15SM OVC240 24/12 A3024 RMK CI6 SLP239=

CYXU;2005-08-25 21:00;METAR CYXU 252100Z 14006KT 15SM OVC240 24/12 A3021 RMK CI6 SLP231=

CYXU;2005-08-25 22:00;METAR CYXU 252200Z 16004KT 15SM FEW120 BKN240 23/13 A3021 RMK AC2CI4 SLP229=

CYXU;2005-08-25 23:00;METAR CYXU 252300Z 00000KT 15SM FEW120 BKN240 22/13 A3019 RMK AC1CI5 SLP224=

CYXU;2005-08-26 00:00;METAR CYXU 260000Z 07003KT 15SM FEW120 BKN240 21/14 A3018 RMK AC1CI6 SLP219=

CYXU;2005-08-26 01:00;METAR CYXU 260100Z 08003KT 15SM BKN240 19/13 A3017 RMK CI6 SLP216=

CYXU;2005-08-26 02:00;METAR CYXU 260200Z 10002KT 15SM BKN230 18/14 A3018 RMK CI5 SLP218=

CYXU;2005-08-26 03:00;METAR CYXU 260300Z 09004KT 15SM BKN230 17/13 A3017 RMK CI3 SLP214=

CYXU;2005-08-26 06:00;METAR CYXU 260600Z 06004KT 15SM BKN200 17/13 A3015 RMK CI5 SLP208=

CYXU;2005-08-26 07:00;METAR CYXU 260700Z 08005KT 15SM FEW200 15/12 A3014 RMK CI1 SLP204=

CYXU;2005-08-26 09:00;METAR CYXU 260900Z 08005KT 15SM FEW050 SCT210 15/13 A3011 RMK SC1CI1 SLP195=

CYXU;2005-08-26 10:00;METAR CYXU 261000Z 08006KT 15SM SCT230 15/13 A3010 RMK CI1 SLP192=

CYXU;2005-08-26 11:00;METAR CYXU 261100Z 05006KT 15SM MIFG FEW050 FEW120 SCT230 15/13 A3009 RMK SC1AC2CI0 SLP189=

CYXU;2005-08-26 12:00;METAR CYXU 261200Z 09006KT 15SM FEW050 FEW120 SCT210 16/13 A3009 RMK SC1AC1CI1 SLP189=

CYXU;2005-08-26 13:00;METAR CYXU 261300Z 09007KT 15SM FEW050 FEW120 FEW210 19/14 A3007 RMK SC1AC1CI0 SLP182=

CYXU;2005-08-26 16:00;METAR CYXU 261600Z 10008KT 15SM FEW100 FEW230 25/16 A3004 RMK AC1CI1 SLP170=

CYXU;2005-08-26 17:00;METAR CYXU 261700Z 13011KT 15SM FEW054 SCT230 27/17 A3003 RMK SC2CI1 SLP165=

CYXU;2005-08-26 18:00;METAR CYXU 261800Z 13010G16KT 15SM FEW040 FEW220 28/16 A3001 RMK CF1CI0 SLP158=

CYXU;2005-08-26 20:00;METAR CYXU 262000Z 14010KT 15SM FEW230 28/15 A2997 RMK CI0 SLP145=

CYXU;2005-08-26 21:00;METAR CYXU 262100Z 13009KT 15SM SCT230 27/15 A2996 RMK CI0 SLP141=

CYXU;2005-08-26 22:00;METAR CYXU 262200Z 13011KT 15SM FEW180 SCT230 27/14 A2995 RMK AC1CI0 SLP139=

CYXU;2005-08-26 23:00;METAR CYXU 262300Z 13006KT 15SM FEW080 FEW180 BKN230 25/14 A2993 RMK AC1AC1CI0 SLP134=

CYXU;2005-08-27 00:00;METAR CYXU 270000Z 10005KT 15SM FEW080 BKN230 23/14 A2993 RMK AC1CI1 AC TR SLP132=

CYXU;2005-08-27 01:00;METAR CYXU 270100Z 09005KT 15SM FEW044 BKN230 22/14 A2993 RMK SC1CI4 SLP133=

CYXU;2005-08-27 02:00;METAR CYXU 270200Z 10009KT 15SM SCT050 OVC240 22/16 A2993 RMK SC3CI4 SLP134=

CYXU;2005-08-27 03:00;METAR CYXU 270300Z 11008KT 15SM FEW050 BKN230 20/15 A2994 RMK SC1CI2 SLP135=

CYXU;2005-08-27 04:00;METAR CYXU 270400Z 10007KT 12SM FEW050 BKN230 20/15 A2993 RMK SC1CI1 SLP132=

CYXU;2005-08-27 05:00;METAR CYXU 270500Z 12004KT 12SM FEW050 19/16 A2992 RMK SC2 SLP129=

CYXU;2005-08-27 06:00;METAR CYXU 270600Z 15006KT 10SM SCT180 20/17 A2991 RMK CS2 SLP123=

CYXU;2005-08-27 07:00;METAR CYXU 270700Z 15007KT 10SM SCT180 19/17 A2989 RMK CS2 SLP117=

CYXU;2005-08-27 08:00;METAR CYXU 270800Z 12005KT 10SM SCT180 18/16 A2988 RMK CS2 SLP115=

CYXU;2005-08-27 09:00;METAR CYXU 270900Z 14003KT 8SM FEW180 18/16 A2988 RMK CS2 SLP113=

CYXU;2005-08-27 09:44;SPECI CYXU 270944Z 13003KT 5SM BR SCT016 BKN180 18/ RMK SC3AC3=

CYXU;2005-08-27 10:00;METAR CYXU 271000Z 11002KT 5SM BR BKN017 BKN180 18/16 A2986 RMK SC5AC2 SLP108=

CYXU;2005-08-27 10:35;SPECI CYXU 271035Z 11005KT 3SM BR OVC016 18/ RMK SC8=

CYXU;2005-08-27 11:00;METAR CYXU 271100Z 10007KT 3SM BR OVC015 18/16 A2985 RMK SC8 SLP105=

CYXU;2005-08-27 12:00;METAR CYXU 271200Z 11006KT 5SM HZ OVC020 19/16 A2985 RMK SC8 SLP106=

CYXU;2005-08-27 12:41;SPECI CYXU 271241Z 12008KT 5SM HZ BKN013 OVC020 19/ RMK SC5SC3=

CYXU;2005-08-27 13:00;METAR CYXU 271300Z 11008KT 5SM -DZ HZ BKN011 OVC020 19/17 A2984 RMK ST6SC2 SLP103=

CYXU;2005-08-27 13:40;SPECI CYXU 271340Z 13010KT 6SM HZ OVC010 20/ RMK ST8=

CYXU;2005-08-27 14:00;METAR CYXU 271400Z 13011KT 5SM HZ OVC010 20/17 A2983 RMK ST8 SLP098=

CYXU;2005-08-27 15:00;METAR CYXU 271500Z 14012KT 6SM HZ OVC009 20/17 A2983 RMK ST8 SLP099=

CYXU;2005-08-27 16:00;METAR CYXU 271600Z 14010KT 5SM -DZ HZ OVC008 21/18 A2982 RMK ST8 SLP095=

CYXU;2005-08-27 17:00;METAR CYXU 271700Z 16013KT 6SM HZ OVC010 21/18 A2980 RMK ST8 SLP090=

CYXU;2005-08-27 18:00;METAR CYXU 271800Z 16011G16KT 6SM HZ OVC010 21/18 A2979 RMK ST8 SLP084=

CYXU;2005-08-27 18:11;SPECI CYXU 271811Z 16011G16KT 6SM -SHRA HZ OVC011 21/ RMK SC8=

CYXU;2005-08-27 19:00;METAR CYXU 271900Z 15009KT 3SM -SHRA BR OVC012 21/19 A2977 RMK SC8 TCU ASOCTD SLP080=

CYXU;2005-08-27 20:00;METAR CYXU 272000Z 14011KT 3SM -SHRA BR OVC011 20/19 A2975 RMK SC8 TCU ASOCTD SLP072=

CYXU;2005-08-27 20:25;SPECI CYXU 272025Z 16009KT 3SM -SHRA BR OVC008 20/ RMK SC8 TCU ASOCTD=

CYXU;2005-08-27 21:00;METAR CYXU 272100Z 16009KT 3SM -SHRA BR OVC007 20/19 A2975 RMK SC8 TCU ASOCTD SLP073=

CYXU;2005-08-27 21:30;SPECI CYXU 272130Z 17010KT 3SM BR BKN006 OVC010 21/ RMK SF6SC2=

CYXU;2005-08-27 21:46;SPECI CYXU 272146Z 20008KT 5SM BR BKN004 OVC010 21/ RMK SF6SC2 VIS S-W 10=

CYXU;2005-08-27 22:00;METAR CYXU 272200Z 20006KT 5SM BR BKN005 BKN010 OVC020 21/19 A2976 RMK SF6SC2SC1 VIS S-W 12 / VIS IMPRVG RPDLY SLP074=

CYXU;2005-08-27 22:15;SPECI CYXU 272215Z 22006KT 12SM FEW005 BKN020 BKN080 22/ RMK SF2SC2AC1 VIS NE-SE 4=

CYXU;2005-08-27 23:00;METAR CYXU 272300Z 25005KT 12SM SCT007 SCT080 21/19 A2975 RMK SF3AC1 SLP073=

CYXU;2005-08-28 00:00;METAR CYXU 280000Z 20002KT 8SM FEW007 FEW240 21/19 A2976 RMK SF1CI1 SLP076=

CYXU;2005-08-28 01:00;METAR CYXU 280100Z 20006KT 6SM BR SCT005 20/19 A2978 RMK SF3 SLP081=

CYXU;2005-08-28 01:27;SPECI CYXU 280127Z 19006KT 3SM BR BKN003 20/ RMK SF6=

CYXU;2005-08-28 02:39;SPECI CYXU 280239Z 21006KT 2SM BR OVC002 21/ RMK FG2SF6=

CYXU;2005-08-28 02:55;SPECI CYXU 280255Z 21006KT 3SM BR BKN002 21/ RMK SF7=

CYXU;2005-08-28 03:00;METAR CYXU 280300Z 24011KT 3SM -TSRA BR BKN002 21/20 A2980 RMK SF7 CB ASOCTD SLP089=

CYXU;2005-08-28 03:08;SPECI CYXU 280308Z 25007KT 2SM +TSRA BR BKN003 OVC020CB 21/ RMK SF6CB2=

CYXU;2005-08-28 03:17;SPECI CYXU 280317Z 24007KT 6SM -TSRA BR BKN003 BKN020CB OVC060 20/ RERA RMK SF5CB2AC2 CB E=

CYXU;2005-08-28 03:31;SPECI CYXU 280331Z 25006KT 8SM FEW003 BKN060 20/ RETSRA RMK SF2AC5=

CYXU;2005-08-28 04:00;METAR CYXU 280400Z 23005KT 8SM FEW070 20/18 A2981 RETSRA RMK AC2 SLP091=

CYXU;2005-08-28 05:00;METAR CYXU 280500Z 26006KT 3SM BR FEW005 FEW055 20/19 A2982 RMK FG2SF1SC1 SLP095=

CYXU;2005-08-28 05:18;SPECI CYXU 280518Z 26005KT 2SM BR BKN002 20/ RMK FG2SF3=

CYXU;2005-08-28 08:00;METAR CYXU 280800Z 00000KT 2SM BR SKC 17/16 A2985 RMK FG2 SLP105=

CYXU;2005-08-28 08:11;SPECI CYXU 280811Z 00000KT 1/4SM R15/P6000FT/N FG SKC 17/ RMK FG2=

CYXU;2005-08-28 09:00;METAR CYXU 280900Z 25002KT 3SM R15/2200VP6000FT/D BR MIFG SKC 16/15 A2986 RMK FG2 SLP112=

CYXU;2005-08-28 09:45;SPECI CYXU 280945Z 19002KT 5SM BR MIFG SKC 15/=

CYXU;2005-08-28 10:00;METAR CYXU 281000Z 21002KT 5SM R15/4500VP6000FT/U BR MIFG SKC 15/14 A2988 RMK SLP117=

CYXU;2005-08-28 10:33;SPECI CYXU 281033Z 00000KT 1SM R15/3000VP6000FT/D BR PRFG SKC 15/ RMK FG1 VIS E QUAD 1/8=

CYXU;2005-08-28 11:00;METAR CYXU 281100Z 00000KT 1 1/2SM R15/1400FT/N BR PRFG SKC 15/14 A2990 RMK FG1 VIS 1/2 NE QUAD FG 20 FT THK SLP122=

CYXU;2005-08-28 11:31;SPECI CYXU 281131Z 14002KT 2SM R15/1800FT/N BR BCFG SKC 15/ RMK FG1 VIS 1 NE QUAD=

CYXU;2005-08-28 11:47;SPECI CYXU 281147Z 00000KT 4SM R15/2800VP6000FT/U BR MIFG SKC 16/=

CYXU;2005-08-28 12:00;METAR CYXU 281200Z 00000KT 4SM BR SKC 16/15 A2991 RMK SLP126=

CYXU;2005-08-28 12:37;SPECI CYXU 281237Z 19003KT 6SM BR SKC 18/=

CYXU;2005-08-28 13:00;METAR CYXU 281300Z 19002KT 6SM HZ SKC 19/16 A2991 RMK SLP127=

CYXU;2005-08-28 14:00;METAR CYXU 281400Z 20007KT 15SM SKC 22/15 A2993 RMK SLP133=

CYXU;2005-08-28 15:00;METAR CYXU 281500Z 22011KT 15SM FEW180 24/15 A2993 RMK AC1 SLP132=

CYXU;2005-08-28 16:00;METAR CYXU 281600Z 21011KT 15SM FEW180 25/15 A2993 RMK AC1 SLP131=

CYXU;2005-08-28 17:00;METAR CYXU 281700Z 19011G17KT 15SM FEW180 26/17 A2992 RMK AC1 SLP129=

CYXU;2005-08-28 18:00;METAR CYXU 281800Z 20012G17KT 15SM FEW050 FEW180 26/16 A2992 RMK CF1AC1 SLP127=

CYXU;2005-08-28 19:00;METAR CYXU 281900Z 19012G18KT 15SM FEW048 FEW180 27/15 A2991 RMK CF1AC1 TR AC SLP125=

CYXU;2005-08-28 20:00;METAR CYXU 282000Z 20012G19KT 15SM FEW050 FEW210 27/16 A2991 RMK CF1CI1 TR CF SLP124=

CYXU;2005-08-28 21:00;METAR CYXU 282100Z 18013G18KT 15SM FEW050 FEW210 27/13 A2990 RMK CU1CI1 TR CU SLP123=

CYXU;2005-08-28 22:00;METAR CYXU 282200Z 20014KT 15SM FEW180 FEW210 26/13 A2990 RMK AC1CI1 TR CI SLP123=

CYXU;2005-08-28 23:00;METAR CYXU 282300Z 19009G15KT 15SM FEW210 25/14 A2990 RMK CI1 SLP121=

CYXU;2005-08-29 00:00;METAR CYXU 290000Z 19007KT 15SM FEW040 SCT210 23/14 A2990 RMK SC1CI2 TCU=

CYXU;2005-08-29 01:00;METAR CYXU 290100Z 17005KT 15SM FEW040 FEW210 20/14 A2992 RMK SC1CI1 SLP129=

CYXU;2005-08-29 02:00;METAR CYXU 290200Z 18004KT 15SM FEW210 20/15 A2992 RMK CI1 SLP130=

CYXU;2005-08-29 03:00;METAR CYXU 290300Z 18005KT 15SM FEW078 20/16 A2993 RMK AC2 SLP130=

CYXU;2005-08-29 04:00;METAR CYXU 290400Z 18002KT 15SM FEW070 20/17 A2993 RMK AC1 SLP131=

CYXU;2005-08-29 05:00;METAR CYXU 290500Z 26002KT 15SM FEW070 18/16 A2994 RMK AC2 SLP135=

CYXU;2005-08-29 06:00;METAR CYXU 290600Z 00000KT 15SM FEW070 19/17 A2993 RMK AC2 SLP133=

CYXU;2005-08-29 07:00;METAR CYXU 290700Z 00000KT 15SM FEW070 19/16 A2993 RMK AC2 SLP133=

CYXU;2005-08-29 08:00;METAR CYXU 290800Z 00000KT 15SM FEW070 BKN280 18/16 A2993 RMK AC1CS5 SLP131=

CYXU;2005-08-29 10:00;METAR CYXU 291000Z 12003KT 6SM BR FEW070 BKN240 16/15 A2993 RMK AC2CS3 SLP132=

CYXU;2005-08-29 10:18;SPECI CYXU 291018Z 14002KT 1 1/2SM BR SCT070 BKN240 17/ RMK FG2AC2CS2=

CYXU;2005-08-29 10:43;SPECI CYXU 291043Z 00000KT 1SM R15/P6000FT/U BR SCT070 BKN090 BKN240 17/ RMK FG2AC2AC2CS1=

CYXU;2005-08-29 11:00;METAR CYXU 291100Z 00000KT 1 1/2SM BR BKN085 BKN240 17/15 A2994 RMK FG2AC3CI1 SLP136=

CYXU;2005-08-29 12:00;METAR CYXU 291200Z 08002KT 1 1/2SM BR SCT085 BKN240 17/15 A2995 RMK FG2AC2CI2 SLP140=

CYXU;2005-08-29 12:25;SPECI CYXU 291225Z 00000KT 2SM BR SCT085 BKN240 18/ RMK FG2AC2CI2=

CYXU;2005-08-29 12:47;SPECI CYXU 291247Z 08002KT 2 1/2SM HZ SCT085 BKN240 20/ RMK AC3CI2=

CYXU;2005-08-29 13:00;METAR CYXU 291300Z 08003KT 3SM HZ SCT085 BKN240 21/18 A2996 RMK AC4CI1 SLP142=

CYXU;2005-08-29 13:11;SPECI CYXU 291311Z 08003KT 4SM HZ BKN085 BKN240 21/ RMK AC5CI1=

CYXU;2005-08-29 14:00;METAR CYXU 291400Z 06008KT 5SM HZ SCT085 BKN240 23/18 A2996 RMK AC3CI1 SLP143=

CYXU;2005-08-29 15:00;METAR CYXU 291500Z 13005KT 15SM FEW085 BKN240 26/17 A2996 RMK AC2CI2 SLP140=

CYXU;2005-08-29 16:00;METAR CYXU 291600Z 16004KT 15SM FEW085 FEW120 BKN240 27/16 A2995 RMK AC1AC1CI2 SLP137=

CYXU;2005-08-29 17:00;METAR CYXU 291700Z 20008KT 15SM FEW050 SCT120 BKN240 28/18 A2993 RMK CF1AC2CI2 TCU TOP DSNT E QUAD SLP133=

CYXU;2005-08-29 18:00;METAR CYXU 291800Z 19013KT 15SM FEW050 SCT120 BKN240 28/17 A2993 RMK CU2AC2CI2 TCU DSNT N QUAD SLP129=

CYXU;2005-08-29 19:00;METAR CYXU 291900Z 18010G15KT 15SM FEW050TCU SCT120 BKN240 28/17 A2991 RMK TCU2AC1CI2 TCU NW-NE SLP125=

CYXU;2005-08-29 20:00;METAR CYXU 292000Z 21014KT 15SM FEW040TCU BKN120 BKN240 28/18 A2990 RMK TCU2AC2CI1 LINE OF TCU W-NE SLP122=

CYXU;2005-08-29 21:00;METAR CYXU 292100Z 20015G20KT 15SM FEW040TCU FEW120 SCT240 27/16 A2990 RMK TCU2AC1CI1 SLP123=

CYXU;2005-08-29 22:00;METAR CYXU 292200Z 19013KT 15SM FEW040TCU SCT140 SCT240 25/15 A2991 RMK TCU1AC2CI1 SLP126=

CYXU;2005-08-29 23:00;METAR CYXU 292300Z 18012KT 15SM FEW240 24/15 A2992 RMK CI2 TCU DIST N SLP127=

CYXU;2005-08-30 00:00;METAR CYXU 300000Z 16005KT 15SM SCT240 22/17 A2991 RMK CI2 TCU DIST N SLP127=

CYXU;2005-08-30 02:00;METAR CYXU 300200Z 16006KT 15SM FEW240 19/16 A2991 RMK CI0 SLP125=

CYXU;2005-08-30 03:00;METAR CYXU 300300Z 14004KT 15SM SKC 18/15 A2991 RMK SLP125=

CYXU;2005-08-30 04:00;METAR CYXU 300400Z 11004KT 15SM BKN250 18/15 A2990 RMK CI3 SLP122=

CYXU;2005-08-30 05:00;METAR CYXU 300500Z 10004KT 12SM SCT250 18/15 A2989 RMK CI2 SLP119=

CYXU;2005-08-30 06:00;METAR CYXU 300600Z 13003KT 12SM SCT250 17/15 A2988 RMK CI2 SLP115=

CYXU;2005-08-30 06:47;SPECI CYXU 300647Z 11002KT 8SM FEW011 BKN250 17/ RMK SC2CI2 BR=

CYXU;2005-08-30 07:00;METAR CYXU 300700Z 08002KT 6SM BR SCT010 BKN250 17/15 A2988 RMK SC4CI2 SLP115=

CYXU;2005-08-30 08:00;METAR CYXU 300800Z 10004KT 5SM BR BKN012 BKN250 18/16 A2987 RMK SC6CI1 SLP111=

CYXU;2005-08-30 09:00;METAR CYXU 300900Z 12004KT 4SM BR BKN014 18/17 A2986 RMK SC7 SLP108=

CYXU;2005-08-30 09:41;SPECI CYXU 300941Z 13003KT 3SM BR BKN008 OVC019 19/ RMK SF6SC2=

CYXU;2005-08-30 10:00;METAR CYXU 301000Z 09003KT 3SM BR SCT008 OVC018 19/17 A2986 RMK SF3SC5 SLP108=

CYXU;2005-08-30 10:38;SPECI CYXU 301038Z 12003KT 1 3/4SM BR FEW008 OVC018 19/ RMK SF2SC6=

CYXU;2005-08-30 11:00;METAR CYXU 301100Z 11004KT 1 3/4SM BR FEW008 OVC018 19/17 A2986 RMK SF2SC6 SLP109=

CYXU;2005-08-30 12:00;METAR CYXU 301200Z 11004KT 1 3/4SM BR OVC018 19/18 A2988 RMK SC8 SLP114=

CYXU;2005-08-30 13:00;METAR CYXU 301300Z 15004KT 2 1/2SM HZ OVC022 20/18 A2988 RMK SC8 SLP115=

CYXU;2005-08-30 13:37;SPECI CYXU 301337Z 16007KT 3SM HZ SCT020 OVC032 21/ RMK CF3SC5=

CYXU;2005-08-30 14:00;METAR CYXU 301400Z 13007KT 4SM HZ FEW020 FEW032 BKN260 23/19 A2987 RMK CF1SC2CI2 SLP113=

CYXU;2005-08-30 16:00;METAR CYXU 301600Z 13006KT 5SM HZ BKN020 OVC250 23/18 A2985 RMK CU5CS2 SLP105=

CYXU;2005-08-30 17:00;METAR CYXU 301700Z 12007KT 6SM HZ BKN023 OVC250 24/18 A2983 RMK CU6CS2 SLP099=

CYXU;2005-08-30 18:00;METAR CYXU 301800Z 16006KT 6SM HZ BKN023 OVC250 24/18 A2983 RMK CU6CS2 SLP097=

CYXU;2005-08-30 19:00;METAR CYXU 301900Z 12005KT 6SM HZ BKN022 OVC200 24/18 A2980 RMK CU6CS2 SLP089=

CYXU;2005-08-30 20:00;METAR CYXU 302000Z 08006KT 6SM HZ SCT022 OVC200 24/18 A2978 RMK SC4CS4 SLP082=

CYXU;2005-08-30 21:00;METAR CYXU 302100Z 10005KT 6SM HZ BKN022 OVC200 24/18 A2976 RMK SC5CS3 SLP074=

CYXU;2005-08-30 22:00;METAR CYXU 302200Z 13008KT 6SM HZ BKN024 OVC150 23/18 A2974 RMK SC5AS3 SLP069=

CYXU;2005-08-30 22:07;SPECI CYXU 302207Z 11007KT 6SM -SHRA HZ BKN024 OVC150 23/ RMK SC5AS3 ACC ASOCTD=

CYXU;2005-08-30 23:00;METAR CYXU 302300Z 11008KT 6SM -SHRA HZ BKN050 OVC150 23/18 A2973 RMK SC6AS2 TCU ASOCTD SLP065=

CYXU;2005-08-31 00:00;METAR CYXU 310000Z 07005KT 3SM -SHRA HZ BKN022 BKN050 OVC140 22/18 A2972 RMK SF5SC1AS2 TCU ASOCTD SLP060=

CYXU;2005-08-31 01:00;METAR CYXU 310100Z 08007KT 3SM -SHRA HZ BKN019 OVC140 21/18 A2971 RMK SC6AS2 TCU ASOCTD SLP057=

CYXU;2005-08-31 02:00;METAR CYXU 310200Z 07009KT 2SM -SHRA HZ BKN018 OVC130 21/19 A2968 RMK SC6AS2 TCU ASOCTD SLP048=

CYXU;2005-08-31 02:25;SPECI CYXU 310225Z 07009KT 2SM -SHRA HZ BKN009 OVC022 21/ RMK SF6NS2=

CYXU;2005-08-31 03:00;METAR CYXU 310300Z 06011KT 2SM -SHRA HZ OVC009 20/18 A2966 RMK NS8 SLP041=

CYXU;2005-08-31 04:00;METAR CYXU 310400Z 05008KT 2 1/2SM -RA BR OVC007 20/18 A2963 RMK FG2NS6 SLP028=

CYXU;2005-08-31 04:51;SPECI CYXU 310451Z 04008KT 2SM -RA BR OVC005 20/ RMK FG2NS6=

CYXU;2005-08-31 05:00;METAR CYXU 310500Z 05008KT 2SM -RA BR OVC006 20/18 A2959 RMK FG2NS6 SLP017=

CYXU;2005-08-31 05:41;SPECI CYXU 310541Z 05010KT 2SM RA BR OVC007 20/ RMK FG2NS6=

CYXU;2005-08-31 06:00;METAR CYXU 310600Z 04009KT 2SM RA BR BKN007 OVC011 20/18 A2956 RMK FG2SF6NS1 SLP007=

CYXU;2005-08-31 07:00;METAR CYXU 310700Z 03008KT 3SM -RA BR BKN007 OVC011 20/18 A2954 RERA RMK SF6NS2 SLP000=

CYXU;2005-08-31 07:42;SPECI CYXU 310742Z 05007KT 4SM -RA BR SCT006 OVC011 20/ RERA RMK SF4NS4=

CYXU;2005-08-31 08:30;SPECI CYXU 310830Z 03007KT 4SM -RA BR SCT007 BKN013 BKN041 OVC071 19/ RMK SF3SC3SC1AC1=

CYXU;2005-08-31 10:00;METAR CYXU 311000Z 01007KT 2 1/2SM -RA BR SCT009 OVC015 19/18 A2955 RMK SF3SC5 TCU EMBD SLP003=

CYXU;2005-08-31 10:32;SPECI CYXU 311032Z 36008KT 1 3/4SM -RA BR OVC006 19/ RMK SF8 TCU EMBD=

CYXU;2005-08-31 11:00;METAR CYXU 311100Z 36008KT 2 1/4SM -RA BR BKN006 OVC024TCU 19/17 A2957 RMK SF5TCU3 SLP008=

CYXU;2005-08-31 11:22;SPECI CYXU 311122Z 35008KT 4SM -RA BR FEW006 BKN040 OVC087 19/ RMK SF2SC4AC2 TCU EMBD=

CYXU;2005-08-31 12:00;METAR CYXU 311200Z 36007KT 5SM BR FEW006 BKN041 OVC250 18/16 A2959 RMK SF1SC6CI2 SLP016=

CYXU;2005-08-31 13:00;METAR CYXU 311300Z 01010KT 7SM FEW006 BKN020 OVC090 19/16 A2961 RMK SF1SC6AC2 SLP024=

CYXU;2005-08-31 14:00;METAR CYXU 311400Z 36006KT 10SM FEW010 OVC027 20/17 A2963 RMK SF2CF6 SLP030=

CYXU;2005-08-31 15:00;METAR CYXU 311500Z 34009KT 10SM BKN020 OVC037 21/18 A2965 RMK CF6SC2 SLP037=

CYXU;2005-08-31 15:46;SPECI CYXU 311546Z 34007KT 10SM OVC012 21/ RMK CF8=

CYXU;2005-08-31 16:00;METAR CYXU 311600Z 33008KT 10SM OVC018 21/17 A2967 RMK CF8 SLP044=

CYXU;2005-08-31 17:00;METAR CYXU 311700Z 35012G17KT 12SM FEW023 BKN240 24/17 A2968 RMK CF2CI5 SLP048=

CYXU;2005-08-31 18:00;METAR CYXU 311800Z 32004KT 10SM FEW025 BKN220 24/18 A2970 RMK CU2CI2 SLP052=

CYXU;2005-08-31 19:00;METAR CYXU 311900Z 31014KT 10SM SCT020 BKN220 24/19 A2970 RMK CU3CI2 SLP054=

CYXU;2005-08-31 21:00;METAR CYXU 312100Z 30012G18KT 15SM FEW022 BKN220 24/17 A2973 RMK CU2CI4 WND ESTD SLP063=

CYXU;2005-08-31 22:00;METAR CYXU 312200Z 32009G15KT 15SM FEW025 BKN220 23/15 A2976 RMK CU1CI6 SLP072=

CYXU;2005-08-31 23:00;METAR CYXU 312300Z 30011KT 15SM BKN220 21/14 A2977 RMK CI5 SLP078=

CYXU;2005-09-01 00:00;METAR CYXU 010000Z 30007KT 15SM SCT220 19/15 A2980 RMK CI2 SLP089=

CYXU;2005-09-01 01:00;METAR CYXU 010100Z 29004KT 15SM FEW220 17/15 A2982 RMK CI2 SLP096=

CYXU;2005-09-01 03:00;METAR CYXU 010300Z 27003KT 15SM FEW220 16/15 A2984 RMK CI1 SLP104=

CYXU;2005-09-01 04:00;METAR CYXU 010400Z 00000KT 15SM FEW220 16/15 A2986 RMK CI0 SLP108=

CYXU;2005-09-01 06:00;METAR CYXU 010600Z 26002KT 15SM SKC 15/14 A2986 RMK SLP110=

CYXU;2005-09-01 07:00;METAR CYXU 010700Z 28003KT 15SM FEW044 15/14 A2986 RMK SC1 SLP111=

CYXU;2005-09-01 10:00;METAR CYXU 011000Z 27002KT 15SM FEW050 14/13 A2988 RMK SC1 SLP117=

CYXU;2005-09-01 11:00;METAR CYXU 011100Z 00000KT 15SM BCFG FEW050 14/13 A2990 RMK SC1 SLP124=

CYXU;2005-09-01 12:00;METAR CYXU 011200Z 00000KT 15SM FEW015 FEW050 16/15 A2991 RMK CF1SC1 SLP129=

CYXU;2005-09-01 13:00;METAR CYXU 011300Z 27003KT 15SM FEW050 19/16 A2993 RMK SC1 SLP134=

CYXU;2005-09-01 14:00;METAR CYXU 011400Z 27004KT 15SM FEW025 FEW050 22/15 A2994 RMK CU1SC1 SLP138=

CYXU;2005-09-01 15:00;METAR CYXU 011500Z 24006KT 15SM FEW030 23/15 A2994 RMK CU1 SLP138=

CYXU;2005-09-01 16:00;METAR CYXU 011600Z 28004KT 15SM FEW035 24/15 A2994 RMK CU2 SLP137=

CYXU;2005-09-01 17:00;METAR CYXU 011700Z 24008G15KT 15SM FEW040 24/14 A2994 RMK CU2 SLP136=

CYXU;2005-09-01 18:00;METAR CYXU 011800Z 27010G16KT 15SM FEW050 25/14 A2993 RMK CU2 SLP133=

CYXU;2005-09-01 19:00;METAR CYXU 011900Z 26007G15KT 15SM FEW050 FEW220 26/14 A2992 RMK CU2CI1 SLP130=

CYXU;2005-09-01 20:00;METAR CYXU 012000Z 26009KT 15SM FEW050 FEW220 25/13 A2992 RMK CU2CI1 SLP128=

CYXU;2005-09-01 21:00;METAR CYXU 012100Z 27006KT 15SM FEW050 FEW110 26/14 A2991 RMK CU2AC1 SLP126=

CYXU;2005-09-01 23:00;METAR CYXU 012300Z 28004KT 15SM BKN090 BKN220 25/14 A2991 RMK AC5CI1 SLP126=

CYXU;2005-09-02 00:00;METAR CYXU 020000Z 21006KT 15SM FEW050 FEW220 22/16 A2991 RMK CU1CI1 SLP126=

CYXU;2005-09-02 01:00;METAR CYXU 020100Z 21006KT 15SM FEW220 21/15 A2992 RMK CI1 SLP130=

CYXU;2005-09-02 03:00;METAR CYXU 020300Z 24007KT 15SM FEW060 21/16 A2993 RMK AC2 SLP131=

CYXU;2005-09-02 04:00;METAR CYXU 020400Z 25006KT 15SM FEW220 20/15 A2994 RMK CI0 SLP135=

CYXU;2005-09-02 05:00;METAR CYXU 020500Z 27004KT 15SM SKC 19/15 A2994 RMK SLP135=

CYXU;2005-09-02 06:00;METAR CYXU 020600Z 27005KT 15SM SKC 17/14 A2993 RMK SLP132=

CYXU;2005-09-02 07:00;METAR CYXU 020700Z 23004KT 15SM SKC 16/14 A2993 RMK SLP132=

CYXU;2005-09-02 08:00;METAR CYXU 020800Z 25006KT 15SM SKC 16/12 A2993 RMK SLP131=

CYXU;2005-09-02 09:00;METAR CYXU 020900Z 26007KT 15SM SKC 18/11 A2992 RMK SLP129=

CYXU;2005-09-02 10:00;METAR CYXU 021000Z 25007KT 15SM SKC 17/10 A2993 RMK SLP132=

CYXU;2005-09-02 11:00;METAR CYXU 021100Z 25007KT 15SM SKC 16/10 A2994 RMK SLP136=

CYXU;2005-09-02 12:00;METAR CYXU 021200Z 26007KT 15SM SKC 17/10 A2995 RMK SLP140=

CYXU;2005-09-02 13:00;METAR CYXU 021300Z 26009KT 15SM SKC 19/11 A2995 RMK SLP139=

CYXU;2005-09-02 15:00;METAR CYXU 021500Z 27016G24KT 15SM SKC 23/11 A2997 RMK SLP146=

CYXU;2005-09-02 16:00;METAR CYXU 021600Z 28014G21KT 15SM FEW050 24/10 A2997 RMK CU1 SLP147=

CYXU;2005-09-02 17:00;METAR CYXU 021700Z 30013G21KT 15SM FEW050 24/12 A2998 RMK CU1 SLP150=

CYXU;2005-09-02 18:00;METAR CYXU 021800Z 30016KT 15SM FEW050 24/12 A2999 RMK CU2 SLP153=

CYXU;2005-09-02 19:00;METAR CYXU 021900Z 29009G18KT 15SM SCT044 23/12 A2999 RMK CU4 SLP154=

CYXU;2005-09-02 20:00;METAR CYXU 022000Z 32012G18KT 15SM SCT044 23/13 A3000 RMK CU3 SLP155=

CYXU;2005-09-02 21:00;METAR CYXU 022100Z 31011G16KT 15SM FEW044 23/12 A3001 RMK CU2 SLP160=

CYXU;2005-09-02 22:00;METAR CYXU 022200Z 31010G17KT 15SM FEW044 23/12 A3002 RMK CU1 SLP162=

CYXU;2005-09-02 23:00;METAR CYXU 022300Z 32008KT 15SM FEW040 FEW120 22/12 A3003 RMK CU1AC1 CU TR SLP165=

CYXU;2005-09-03 00:00;METAR CYXU 030000Z 30005KT 15SM FEW100 20/12 A3005 RMK AC2 SLP173=

CYXU;2005-09-03 01:00;METAR CYXU 030100Z 31004KT 15SM FEW080 18/12 A3005 RMK AC1 SLP174=

CYXU;2005-09-03 02:00;METAR CYXU 030200Z 26003KT 15SM SKC 17/12 A3007 RMK SLP179=

CYXU;2005-09-03 03:00;METAR CYXU 030300Z 27002KT 15SM FEW050 17/13 A3008 RMK SC2 SLP184=

CYXU;2005-09-03 04:00;METAR CYXU 030400Z 31002KT 15SM FEW025 16/13 A3009 RMK SC1 SLP186=

CYXU;2005-09-03 05:00;METAR CYXU 030500Z 00000KT 15SM FEW025 16/13 A3010 RMK SC1 SLP189=

CYXU;2005-09-03 06:00;METAR CYXU 030600Z 27003KT 15SM FEW025 SCT057 15/13 A3010 RMK SC1SC2 SLP191=

CYXU;2005-09-03 07:00;METAR CYXU 030700Z 25005KT 15SM FEW057 15/12 A3010 RMK SC2 SLP191=

CYXU;2005-09-03 08:00;METAR CYXU 030800Z 29002KT 15SM FEW057 15/12 A3010 RMK SC1 SLP192=

CYXU;2005-09-03 09:00;METAR CYXU 030900Z 26002KT 15SM FEW060 14/12 A3011 RMK SC1 SLP196=

CYXU;2005-09-03 10:00;METAR CYXU 031000Z 26005KT 15SM FEW060 15/13 A3012 RMK SC1 SLP198=

CYXU;2005-09-03 12:00;METAR CYXU 031200Z 28005KT 15SM FEW020 FEW060 16/14 A3016 RMK CU1SC1 SLP211=

CYXU;2005-09-03 13:00;METAR CYXU 031300Z 28006KT 15SM FEW020 FEW065 18/15 A3016 RMK CU1SC2 SLP213=

CYXU;2005-09-03 15:00;METAR CYXU 031500Z 31011KT 15SM BKN030 22/13 A3017 RMK CU6 SLP215=

CYXU;2005-09-03 16:00;METAR CYXU 031600Z 31011KT 15SM SCT040 23/12 A3017 RMK CU4 SLP214=

CYXU;2005-09-03 18:00;METAR CYXU 031800Z 32014KT 15SM FEW045 24/12 A3016 RMK CU2 SLP212=

CYXU;2005-09-03 19:00;METAR CYXU 031900Z 31011KT 15SM FEW048 23/11 A3016 RMK CU2 SLP211=

CYXU;2005-09-03 20:00;METAR CYXU 032000Z 32009G15KT 15SM FEW048 24/12 A3016 RMK CU2 SLP212=

CYXU;2005-09-03 21:00;METAR CYXU 032100Z 31011G16KT 15SM FEW044 22/11 A3017 RMK CU2 SLP216=

CYXU;2005-09-03 22:00;METAR CYXU 032200Z 33010G15KT 15SM FEW044 22/11 A3017 RMK CU1 SLP215=

CYXU;2005-09-03 23:00;METAR CYXU 032300Z 32008KT 15SM FEW036 FEW200 21/11 A3017 RMK CU1CI0 CU TR SLP215=

CYXU;2005-09-04 00:00;METAR CYXU 040000Z 32006KT 15SM FEW200 19/11 A3017 RMK CI1 SLP217=

CYXU;2005-09-04 01:00;METAR CYXU 040100Z 32005KT 15SM FEW200 17/11 A3018 RMK CI1 SLP221=

CYXU;2005-09-04 03:00;METAR CYXU 040300Z 34005KT 15SM SKC 15/12 A3020 RMK SLP225=

CYXU;2005-09-04 04:00;METAR CYXU 040400Z 26005KT 15SM SKC 15/11 A3021 RMK SLP228=

CYXU;2005-09-04 05:00;METAR CYXU 040500Z 36004KT 15SM SKC 14/11 A3021 RMK SLP230=

CYXU;2005-09-04 06:00;METAR CYXU 040600Z 01004KT 15SM SKC 13/11 A3022 RMK SLP232=

CYXU;2005-09-04 07:00;METAR CYXU 040700Z 32002KT 15SM SKC 11/10 A3023 RMK SLP235=

CYXU;2005-09-04 08:00;METAR CYXU 040800Z 26002KT 15SM SKC 11/10 A3024 RMK SLP239=

CYXU;2005-09-04 09:00;METAR CYXU 040900Z 27003KT 12SM R15/3500VP6000FT/D MIFG FEW250 11/10 A3025 RMK CI0 SLP244=

CYXU;2005-09-04 10:00;METAR CYXU 041000Z 00000KT 15SM FEW250 11/10 A3027 RMK CI2 SLP250=

CYXU;2005-09-04 10:36;SPECI CYXU 041036Z 00000KT 1SM R15/P6000FT/N BR FEW250 11/ RMK FG1CI2=

CYXU;2005-09-04 11:00;METAR CYXU 041100Z 00000KT 2SM BR BKN250 10/09 A3028 RMK FG2CI1 SLP255=

CYXU;2005-09-04 11:55;SPECI CYXU 041155Z 00000KT 10SM BKN250 12/ RMK CI4=

CYXU;2005-09-04 12:00;METAR CYXU 041200Z 00000KT 12SM BKN250 12/11 A3029 RMK CI4 SLP259=

CYXU;2005-09-04 13:00;METAR CYXU 041300Z 00000KT 15SM FEW020 BKN250 14/13 A3030 RMK SC1CI4 SLP263=

CYXU;2005-09-04 14:00;METAR CYXU 041400Z 08002KT 15SM FEW020 BKN250 17/14 A3032 RMK CU1CI5 SLP269=

CYXU;2005-09-04 15:00;METAR CYXU 041500Z 00000KT 15SM SCT020 BKN250 19/14 A3032 RMK CU3CI2 SLP267=

CYXU;2005-09-04 16:00;METAR CYXU 041600Z 05005KT 15SM BKN040 BKN250 21/11 A3032 RMK CU5CI2 SLP268=

CYXU;2005-09-04 17:00;METAR CYXU 041700Z 03004KT 15SM SCT040 BKN250 21/11 A3032 RMK SC3CI2 SLP267=

CYXU;2005-09-04 18:00;METAR CYXU 041800Z 05005KT 15SM SCT050 SCT110 BKN250 23/11 A3032 RMK CU3AC1CI1 SLP267=

CYXU;2005-09-04 19:00;METAR CYXU 041900Z 05003KT 15SM SCT050 SCT110 23/11 A3030 RMK CU3AC1 SLP262=

CYXU;2005-09-04 20:00;METAR CYXU 042000Z 06004KT 15SM FEW048 SCT110 23/10 A3030 RMK CU2AC1 SLP261=

CYXU;2005-09-04 21:00;METAR CYXU 042100Z 00000KT 15SM FEW050 FEW110 23/10 A3030 RMK CU2AC0 SLP260=

CYXU;2005-09-04 22:00;METAR CYXU 042200Z 07003KT 15SM FEW048 23/10 A3030 RMK CU2 SLP260=

CYXU;2005-09-05 00:00;METAR CYXU 050000Z 07003KT 15SM FEW040 19/11 A3031 RMK SC1 SLP264=

CYXU;2005-09-05 01:00;METAR CYXU 050100Z 23004KT 15SM SKC 18/13 A3034 RMK SLP274=

CYXU;2005-09-05 03:00;METAR CYXU 050300Z 09002KT 15SM SKC 15/12 A3036 RMK SLP280=

CYXU;2005-09-05 04:00;METAR CYXU 050400Z 09003KT 15SM SKC 14/11 A3036 RMK SLP281=

CYXU;2005-09-05 06:00;METAR CYXU 050600Z 09004KT 15SM SKC 13/11 A3037 RMK SLP283=

CYXU;2005-09-05 07:00;METAR CYXU 050700Z 09004KT 10SM SKC 13/11 A3037 RMK SLP283=

CYXU;2005-09-05 08:00;METAR CYXU 050800Z 08003KT 6SM BR SKC 12/11 A3037 RMK SLP285=

CYXU;2005-09-05 09:00;METAR CYXU 050900Z 08002KT 3SM BR SKC 12/10 A3038 RMK SLP289=

CYXU;2005-09-05 11:00;METAR CYXU 051100Z 06002KT 10SM MIFG SKC 11/09 A3040 RMK SLP296=

CYXU;2005-09-05 12:00;METAR CYXU 051200Z 09003KT 10SM FEW250 13/10 A3042 RMK CI1 SLP301=

CYXU;2005-09-05 13:00;METAR CYXU 051300Z 09003KT 15SM FEW020 FEW250 17/12 A3042 RMK CU1CI1 TR CU W SLP303=

CYXU;2005-09-05 14:00;METAR CYXU 051400Z 11008KT 15SM FEW032 FEW250 19/11 A3044 RMK CU1CI1 SLP307=

CYXU;2005-09-05 15:00;METAR CYXU 051500Z 10007KT 15SM FEW040 FEW250 21/11 A3043 RMK CU1CI1 SLP305=

CYXU;2005-09-05 16:00;METAR CYXU 051600Z 10002KT 15SM FEW040 22/09 A3043 RMK CU1 SLP304=

CYXU;2005-09-05 17:00;METAR CYXU 051700Z 11006KT 15SM FEW040 23/11 A3043 RMK CU1 SLP304=

CYXU;2005-09-05 18:00;METAR CYXU 051800Z 13003KT 15SM FEW040 23/10 A3041 RMK CU1 SLP299=

CYXU;2005-09-05 19:00;METAR CYXU 051900Z 25003KT 15SM FEW040 25/12 A3040 RMK CU2 SLP294=

CYXU;2005-09-05 20:00;METAR CYXU 052000Z 12002KT 15SM FEW040 24/12 A3039 RMK CU2 SLP291=

CYXU;2005-09-05 21:00;METAR CYXU 052100Z 17005KT 15SM FEW040 24/11 A3038 RMK CU1 SLP289=

CYXU;2005-09-05 22:00;METAR CYXU 052200Z 17005KT 15SM FEW040 24/12 A3037 RMK CU1 SLP286=

CYXU;2005-09-06 00:00;METAR CYXU 060000Z 15005KT 15SM FEW250 19/11 A3038 RMK CI0 SLP289=

CYXU;2005-09-06 02:00;METAR CYXU 060200Z 12003KT 15SM SKC 17/11 A3039 RMK SLP293=

CYXU;2005-09-06 03:00;METAR CYXU 060300Z 09004KT 15SM SKC 16/12 A3040 RMK SLP295=

CYXU;2005-09-06 04:00;METAR CYXU 060400Z 09005KT 15SM SKC 15/12 A3040 RMK SLP295=

CYXU;2005-09-06 06:00;METAR CYXU 060600Z 08004KT 15SM SKC 14/11 A3040 RMK SLP296=

CYXU;2005-09-06 08:00;METAR CYXU 060800Z 09005KT 10SM SKC 14/12 A3038 RMK SLP289=

CYXU;2005-09-06 09:00;METAR CYXU 060900Z 09003KT 6SM BR SKC 13/12 A3038 RMK SLP288=

CYXU;2005-09-06 09:32;SPECI CYXU 060932Z 08004KT 2SM MIFG SKC 13/=

CYXU;2005-09-06 10:29;SPECI CYXU 061029Z 09004KT 1/4SM R15/2400FT/N FG SKC 13/ RMK FG5=

CYXU;2005-09-06 11:00;METAR CYXU 061100Z 09005KT 1/8SM R15/2000FT/N FG VV001 12/11 A3039 RMK FG8 SLP291=

CYXU;2005-09-06 11:13;SPECI CYXU 061113Z 09005KT 1/4SM R15/3000V5500FT/U FG SKC 13/ RMK FG7=

CYXU;2005-09-06 11:30;SPECI CYXU 061130Z 09003KT 1/2SM R15/P6000FT/U FG SKC 13/ RMK FG7=

CYXU;2005-09-06 11:38;SPECI CYXU 061138Z 09003KT 1SM R15/P6000FT/U BR SKC 13/ RMK FG5 VIS SE 1/2=

CYXU;2005-09-06 12:00;METAR CYXU 061200Z 10003KT 2SM BR SKC 14/13 A3040 RMK FG4 SLP293=

CYXU;2005-09-06 12:26;SPECI CYXU 061226Z 11003KT 3SM BR SKC 16/=

CYXU;2005-09-06 12:45;SPECI CYXU 061245Z 11003KT 5SM BR SKC 18/=

CYXU;2005-09-06 13:00;METAR CYXU 061300Z 13004KT 10SM SKC 19/16 A3040 RMK SLP296=

CYXU;2005-09-06 14:00;METAR CYXU 061400Z 18007KT 10SM SKC 22/14 A3041 RMK SLP298=

CYXU;2005-09-06 15:00;METAR CYXU 061500Z 18008KT 10SM FEW030 25/16 A3041 RMK CF1 SLP297=

CYXU;2005-09-06 16:00;METAR CYXU 061600Z 20011KT 15SM SCT040 25/14 A3040 RMK CU3 SLP294=

CYXU;2005-09-06 17:00;METAR CYXU 061700Z 21009G15KT 15SM FEW045 25/14 A3038 RMK CU2 SLP287=

CYXU;2005-09-06 18:00;METAR CYXU 061800Z 18012KT 15SM FEW045 26/14 A3037 RMK CF1 SLP281=

CYXU;2005-09-06 19:00;METAR CYXU 061900Z 15012G18KT 15SM FEW045 26/13 A3035 RMK CF1 SLP276=

CYXU;2005-09-06 21:00;METAR CYXU 062100Z 19008G15KT 15SM FEW045 25/13 A3034 RMK CF1 SLP273=

CYXU;2005-09-06 22:00;METAR CYXU 062200Z 18010KT 15SM SKC 24/13 A3033 RMK SLP270=

CYXU;2005-09-06 23:00;METAR CYXU 062300Z 18009KT 15SM SKC 23/13 A3033 RMK SLP270=

CYXU;2005-09-07 00:00;METAR CYXU 070000Z 18005KT 15SM FEW140 FEW250 21/13 A3034 RMK AC1CI1 SLP274=

CYXU;2005-09-07 03:00;METAR CYXU 070300Z 13002KT 15SM SKC 17/13 A3034 RMK SLP274=

CYXU;2005-09-07 04:00;METAR CYXU 070400Z 12004KT 15SM SKC 16/12 A3033 RMK SLP270=

CYXU;2005-09-07 05:00;METAR CYXU 070500Z 00000KT 6SM BR SKC 16/12 A3033 RMK SLP268=

CYXU;2005-09-07 06:00;METAR CYXU 070600Z 12002KT 6SM BR SKC 14/11 A3032 RMK SLP267=

CYXU;2005-09-07 07:00;METAR CYXU 070700Z 09002KT 6SM BR SKC 13/11 A3031 RMK SLP264=

CYXU;2005-09-07 10:00;METAR CYXU 071000Z 09002KT 3SM BR SKC 12/10 A3030 RMK SLP258=

CYXU;2005-09-07 10:12;SPECI CYXU 071012Z 09002KT 1 1/4SM BR FEW250 12/ RMK CI1=

CYXU;2005-09-07 11:00;METAR CYXU 071100Z 09002KT 1SM R15/P6000FT/U BR FEW001 BKN250 12/10 A3031 RMK ST2CI1 SLP262=

CYXU;2005-09-07 11:45;SPECI CYXU 071145Z 09003KT 3/4SM R15/P6000FT/N BR SCT001 SCT250 13/ RMK ST2CI1 CI TR VSBY SW 3/8=

CYXU;2005-09-07 11:53;SPECI CYXU 071153Z 09003KT 1/2SM R15/1800FT/N FG SCT001 SCT250 13/ RMK ST2CI1=

CYXU;2005-09-07 12:00;METAR CYXU 071200Z 09003KT 1/4SM R15/0700V1100FT/N FG BKN250 13/12 A3031 RMK FG3CI1 SLP265=

CYXU;2005-09-07 12:14;SPECI CYXU 071214Z 09003KT 1/8SM R15/0700V1000FT/N FG SCT250 13/ RMK FG2CI1=

CYXU;2005-09-07 12:31;SPECI CYXU 071231Z 10002KT 1/4SM R15/1100V1600FT/N FG BKN250 14/ RMK FG2CI1=

CYXU;2005-09-07 12:38;SPECI CYXU 071238Z 00000KT 1/2SM R15/2600FT/N FG BKN250 15/ RMK FG2CI0=

CYXU;2005-09-07 12:53;SPECI CYXU 071253Z 11002KT 3/4SM R15/3000VP6000FT/U BR BKN250 16/ RMK CI1=

CYXU;2005-09-07 13:00;METAR CYXU 071300Z 11002KT 1 1/4SM BR BKN250 17/15 A3031 RMK CI1 SLP266=

CYXU;2005-09-07 13:04;SPECI CYXU 071304Z 11002KT 2SM BR BKN250 18/ RMK CI1=

CYXU;2005-09-07 13:11;SPECI CYXU 071311Z 13002KT 3SM BR BKN250 19/ RMK CI1=

CYXU;2005-09-07 14:00;METAR CYXU 071400Z 28002KT 7SM BKN250 22/15 A3031 RMK CI1 SLP265=

CYXU;2005-09-07 15:00;METAR CYXU 071500Z 23005KT 10SM BKN250 24/14 A3030 RMK CI0 SLP259=

CYXU;2005-09-07 16:00;METAR CYXU 071600Z 21005KT 12SM BKN250 26/14 A3029 RMK CI0 SLP254=

CYXU;2005-09-07 17:00;METAR CYXU 071700Z 20006KT 12SM FEW050 FEW120 BKN250 27/14 A3026 RMK CU1AC1CI0 CU AC TR SLP246=

CYXU;2005-09-07 18:00;METAR CYXU 071800Z 22009KT 12SM FEW050 BKN250 28/16 A3025 RMK CU2CI0 SLP240=

CYXU;2005-09-07 19:00;METAR CYXU 071900Z 19009KT 12SM FEW050 FEW250 27/16 A3023 RMK CU2CI0 SLP233=

CYXU;2005-09-07 20:00;METAR CYXU 072000Z 18011KT 12SM FEW050 FEW120 FEW250 27/15 A3022 RMK CU1AC1CI1 SLP230=

CYXU;2005-09-07 21:00;METAR CYXU 072100Z 18011KT 12SM FEW120 FEW220 26/14 A3020 RMK AC1CI1 SLP225=

CYXU;2005-09-07 22:00;METAR CYXU 072200Z 18010G15KT 15SM SCT220 25/14 A3018 RMK CI2 SLP220=

CYXU;2005-09-07 23:00;METAR CYXU 072300Z 19008KT 15SM FEW120 BKN200 23/14 A3018 RMK AC1CI2 SLP218=

CYXU;2005-09-08 00:00;METAR CYXU 080000Z 20006KT 15SM SCT200 21/14 A3017 RMK CI2 SLP217=

CYXU;2005-09-08 01:00;METAR CYXU 080100Z 21006KT 15SM SCT200 20/14 A3018 RMK CI2 SLP219=

CYXU;2005-09-08 03:00;METAR CYXU 080300Z 15002KT 15SM FEW200 17/13 A3017 RMK CI1 SLP214=

CYXU;2005-09-08 04:00;METAR CYXU 080400Z 16002KT 15SM SCT140 BKN200 17/14 A3016 RMK AC4CI1 SLP212=

CYXU;2005-09-08 05:00;METAR CYXU 080500Z 00000KT 12SM BKN150 17/14 A3016 RMK AC7 SLP210=

CYXU;2005-09-08 06:00;METAR CYXU 080600Z 27002KT 12SM FEW058 BKN150 19/14 A3016 RMK SC2AC3 SLP208=

CYXU;2005-09-08 07:00;METAR CYXU 080700Z 00000KT 12SM FEW058 BKN150 18/14 A3014 RMK SC2AC5 SLP203=

CYXU;2005-09-08 10:00;METAR CYXU 081000Z 32007KT 12SM BKN036 OVC070 18/15 A3014 RMK SC5AC3 SLP202=

CYXU;2005-09-08 10:43;SPECI CYXU 081043Z 02008KT 12SM -SHRA SCT036 OVC071 18/ RMK SC3AC5 CVCTV CLD ASOCTD=

CYXU;2005-09-08 12:00;METAR CYXU 081200Z 07003KT 15SM FEW060 BKN080 BKN250 17/14 A3013 RMK SC2AC3CI2 SLP200=

CYXU;2005-09-08 12:32;SPECI CYXU 081232Z 36003KT 12SM -SHRA BKN060 BKN080 OVC250 17/ RMK SC5AC2CI2 CVCTV CLD ASOCTD=

CYXU;2005-09-08 13:00;METAR CYXU 081300Z 33005KT 12SM -SHRA FEW020CB OVC060 17/15 A3016 RMK CB2SC6 CB NW SLP211=

CYXU;2005-09-08 13:01;SPECI CYXU 081301Z 31006KT 12SM -TSRA FEW020CB OVC055 17/ RMK CB2SC6 LTGCG NW=

CYXU;2005-09-08 13:35;SPECI CYXU 081335Z 01004KT 8SM -SHRA FEW020CB SCT060 BKN120 BKN250 17/ RMK CB1SC3AC2CI2 CB E RETS RERA=

CYXU;2005-09-08 14:00;METAR CYXU 081400Z 35003KT 12SM FEW010 BKN056 OVC120 17/15 A3016 RMK SF1SC6AC2 RETS RERA SLP211=

CYXU;2005-09-08 15:00;METAR CYXU 081500Z 05003KT 15SM BKN057 BKN250 18/14 A3014 RMK SC6CI1 SLP207=

CYXU;2005-09-08 16:00;METAR CYXU 081600Z 00000KT 15SM FEW046 SCT120 SCT250 20/14 A3014 RMK SC2AC2CI0 SLP206=

CYXU;2005-09-08 17:00;METAR CYXU 081700Z 33003KT 15SM FEW034 BKN120 23/14 A3013 RMK CU1AC3 SLP202=

CYXU;2005-09-08 18:00;METAR CYXU 081800Z 29004KT 15SM FEW040 SCT120 24/14 A3011 RMK CU2AC1 SLP193=

CYXU;2005-09-08 19:00;METAR CYXU 081900Z 29007KT 15SM SCT040 SCT120 24/15 A3010 RMK CU3AC1 SLP190=

CYXU;2005-09-08 20:00;METAR CYXU 082000Z 29006KT 15SM FEW042 FEW200 25/14 A3009 RMK CU2CI1 SLP186=

CYXU;2005-09-08 21:00;METAR CYXU 082100Z 30008KT 15SM FEW042 FEW120 FEW200 25/14 A3008 RMK CU1AC1CI1 SLP184=

CYXU;2005-09-08 22:00;METAR CYXU 082200Z 30007KT 15SM FEW040 FEW120 BKN200 24/13 A3008 RMK CU1AC1CI2 SLP182=

CYXU;2005-09-09 00:00;METAR CYXU 090000Z 30006KT 15SM FEW040 FEW200 19/12 A3009 RMK CU1CI1 SLP188=

CYXU;2005-09-09 01:00;METAR CYXU 090100Z 31005KT 15SM FEW200 17/12 A3011 RMK CI1 SLP194=

CYXU;2005-09-09 02:00;METAR CYXU 090200Z 33006KT 15SM BKN240 17/13 A3011 RMK CS6 SLP196=

CYXU;2005-09-09 03:00;METAR CYXU 090300Z 35006KT 15SM BKN170 16/12 A3012 RMK AC7 SLP198=

CYXU;2005-09-09 04:00;METAR CYXU 090400Z 36006KT 15SM OVC170 16/11 A3011 RMK AC8 SLP195=

CYXU;2005-09-09 05:00;METAR CYXU 090500Z 02005KT 15SM OVC190 16/11 A3010 RMK CI8 SLP194=

CYXU;2005-09-09 06:00;METAR CYXU 090600Z 36003KT 15SM SCT120 SCT250 15/11 A3012 RMK AC3CI1 SLP197=

CYXU;2005-09-09 07:00;METAR CYXU 090700Z 36005KT 15SM SCT120 14/11 A3011 RMK AC3 SLP196=

CYXU;2005-09-09 09:00;METAR CYXU 090900Z 36004KT 15SM BKN130 14/11 A3012 RMK AC6 SLP198=

CYXU;2005-09-09 10:00;METAR CYXU 091000Z 36005KT 15SM BKN130 14/11 A3013 RMK AC6 SLP201=

CYXU;2005-09-09 11:00;METAR CYXU 091100Z 01005KT 15SM FEW100 SCT130 13/10 A3014 RMK AC2AC1 SLP206=

CYXU;2005-09-09 12:00;METAR CYXU 091200Z 01005KT 15SM FEW100 14/10 A3017 RMK AC2 SLP215=

CYXU;2005-09-09 13:00;METAR CYXU 091300Z 02005KT 15SM FEW100 17/11 A3018 RMK AC1 SLP219=

CYXU;2005-09-09 14:00;METAR CYXU 091400Z 06005KT 15SM SKC 20/12 A3019 RMK SLP222=

CYXU;2005-09-09 16:00;METAR CYXU 091600Z 00000KT 15SM SKC 23/09 A3019 RMK SLP221=

CYXU;2005-09-09 17:00;METAR CYXU 091700Z 35004KT 15SM FEW055 24/09 A3018 RMK CU1 SLP218=

CYXU;2005-09-09 18:00;METAR CYXU 091800Z 04002KT 15SM FEW055 25/08 A3017 RMK CU1 SLP214=

CYXU;2005-09-09 19:00;METAR CYXU 091900Z 35004KT 15SM FEW240 25/07 A3015 RMK CI1 SLP209=

CYXU;2005-09-09 20:00;METAR CYXU 092000Z 07004KT 15SM FEW240 25/07 A3015 RMK CI1 SLP207=

CYXU;2005-09-09 21:00;METAR CYXU 092100Z 00000KT 15SM FEW240 25/07 A3014 RMK CI1 SLP205=

CYXU;2005-09-09 22:00;METAR CYXU 092200Z 34002KT 15SM SKC 25/06 A3014 RMK SLP206=

CYXU;2005-09-10 00:00;METAR CYXU 100000Z 22006KT 15SM FEW240 20/12 A3017 RMK CI1 SLP216=

CYXU;2005-09-10 01:00;METAR CYXU 100100Z 23003KT 15SM SKC 19/13 A3019 RMK SLP223=

CYXU;2005-09-10 02:00;METAR CYXU 100200Z 29004KT 15SM SKC 17/12 A3020 RMK SLP225=

CYXU;2005-09-10 03:00;METAR CYXU 100300Z 31004KT 15SM SKC 16/11 A3021 RMK SLP229=

CYXU;2005-09-10 04:00;METAR CYXU 100400Z 33003KT 15SM SKC 16/11 A3022 RMK SLP231=

CYXU;2005-09-10 05:00;METAR CYXU 100500Z 36002KT 15SM SKC 14/11 A3021 RMK SLP230=

CYXU;2005-09-10 06:00;METAR CYXU 100600Z 06003KT 15SM SKC 12/10 A3023 RMK SLP235=

CYXU;2005-09-10 09:00;METAR CYXU 100900Z 06002KT 5SM BR SKC 11/09 A3024 RMK SLP240=

CYXU;2005-09-10 10:00;METAR CYXU 101000Z 07002KT 10SM FEW260 11/09 A3026 RMK CI1 SLP245=

CYXU;2005-09-10 11:00;METAR CYXU 101100Z 08004KT 12SM FEW260 11/08 A3027 RMK CI1 SLP248=

CYXU;2005-09-10 12:00;METAR CYXU 101200Z 09004KT 15SM FEW260 12/09 A3027 RMK CI1 SLP252=

CYXU;2005-09-10 13:00;METAR CYXU 101300Z 12003KT 15SM FEW260 16/11 A3027 RMK CI1 SLP252=

CYXU;2005-09-10 14:00;METAR CYXU 101400Z 10003KT 15SM FEW260 19/13 A3029 RMK CI1 SLP256=

CYXU;2005-09-10 15:00;METAR CYXU 101500Z 19004KT 15SM FEW260 22/14 A3028 RMK CI1 SLP254=

CYXU;2005-09-10 16:00;METAR CYXU 101600Z 25003KT 15SM FEW260 23/13 A3029 RMK CI1 SLP257=

CYXU;2005-09-10 17:00;METAR CYXU 101700Z 00000KT 15SM FEW260 24/12 A3028 RMK CI1 SLP253=

CYXU;2005-09-10 18:00;METAR CYXU 101800Z 00000KT 15SM FEW055 FEW260 25/11 A3027 RMK CF1CI1 SLP251=

CYXU;2005-09-10 19:00;METAR CYXU 101900Z 06003KT 15SM FEW060 BKN260 26/10 A3026 RMK CF1CS3 SLP247=

CYXU;2005-09-10 20:00;METAR CYXU 102000Z 21004KT 15SM FEW060 BKN260 26/11 A3025 RMK CF1CS2 SLP244=

CYXU;2005-09-10 21:00;METAR CYXU 102100Z 01003KT 15SM FEW060 SCT200 26/11 A3025 RMK CF1CI1 SLP242=

CYXU;2005-09-10 22:00;METAR CYXU 102200Z 17008KT 15SM FEW200 25/13 A3024 RMK CI1 SLP241=

CYXU;2005-09-10 23:00;METAR CYXU 102300Z 17008KT 15SM FEW200 22/13 A3025 RMK CI0 SLP243=

CYXU;2005-09-11 00:00;METAR CYXU 110000Z 16005KT 15SM SCT200 20/12 A3026 RMK CI1 SLP246=

CYXU;2005-09-11 01:00;METAR CYXU 110100Z 13005KT 15SM SKC 19/12 A3027 RMK SLP249=

CYXU;2005-09-11 03:00;METAR CYXU 110300Z 10004KT 15SM FEW200 16/13 A3027 RMK CI1 SLP251=

CYXU;2005-09-11 05:00;METAR CYXU 110500Z 09003KT 15SM SKC 15/12 A3028 RMK SLP253=

CYXU;2005-09-11 06:00;METAR CYXU 110600Z 09005KT 15SM SKC 14/12 A3029 RMK SLP255=

CYXU;2005-09-11 07:00;METAR CYXU 110700Z 00000KT 15SM SKC 13/11 A3028 RMK SLP252=

CYXU;2005-09-11 09:00;METAR CYXU 110900Z 08004KT 15SM SKC 13/11 A3029 RMK SLP254=

CYXU;2005-09-11 10:00;METAR CYXU 111000Z 08005KT 15SM SKC 13/11 A3030 RMK BR SLP258=

CYXU;2005-09-11 11:00;METAR CYXU 111100Z 09004KT 15SM MIFG SCT240 13/11 A3031 RMK CI1 SLP262=

CYXU;2005-09-11 12:00;METAR CYXU 111200Z 10004KT 15SM FEW240 14/12 A3031 RMK CI1 HAZE SLP265=

CYXU;2005-09-11 13:00;METAR CYXU 111300Z 12002KT 15SM FEW240 18/15 A3032 RMK CI1 HAZE SLP268=

CYXU;2005-09-11 14:00;METAR CYXU 111400Z 17005KT 15SM FEW240 21/16 A3032 RMK CI0 SLP267=

CYXU;2005-09-11 15:00;METAR CYXU 111500Z 18006KT 15SM SKC 23/15 A3032 RMK SLP266=

CYXU;2005-09-11 16:00;METAR CYXU 111600Z 16002KT 15SM FEW250 25/14 A3031 RMK CI0 SLP262=

CYXU;2005-09-11 17:00;METAR CYXU 111700Z 18007KT 15SM FEW240 27/13 A3029 RMK CI0 SLP257=

CYXU;2005-09-11 18:00;METAR CYXU 111800Z 17008KT 15SM FEW240 27/13 A3028 RMK CI0 SLP251=

CYXU;2005-09-11 19:00;METAR CYXU 111900Z 19007KT 15SM FEW240 27/13 A3026 RMK CI0 SLP245=

CYXU;2005-09-11 20:00;METAR CYXU 112000Z 19007KT 15SM FEW240 27/13 A3023 RMK CI0 SLP236=

CYXU;2005-09-11 21:00;METAR CYXU 112100Z 18010KT 15SM SKC 27/13 A3022 RMK SLP232=

CYXU;2005-09-11 22:00;METAR CYXU 112200Z 18009KT 15SM SKC 25/13 A3020 RMK SLP227=

CYXU;2005-09-11 23:00;METAR CYXU 112300Z 18008KT 15SM SKC 24/12 A3020 RMK SLP226=

CYXU;2005-09-12 00:00;METAR CYXU 120000Z 20004KT 15SM SKC 26/11 A3021 RMK SLP227=

CYXU;2005-09-12 03:00;METAR CYXU 120300Z 18003KT 15SM SKC 17/13 A3020 RMK SLP224=

CYXU;2005-09-12 04:00;METAR CYXU 120400Z 18002KT 15SM SKC 16/14 A3021 RMK SLP227=

CYXU;2005-09-12 05:00;METAR CYXU 120500Z 00000KT 15SM SKC 15/13 A3020 RMK SLP226=

CYXU;2005-09-12 07:00;METAR CYXU 120700Z 14002KT 15SM SKC 14/13 A3019 RMK SLP221=

CYXU;2005-09-12 08:00;METAR CYXU 120800Z 12002KT 10SM FEW001 14/12 A3019 RMK ST1 BR SLP221=

CYXU;2005-09-12 09:00;METAR CYXU 120900Z 00000KT 1 1/2SM R15/0900V1400FT/N BR SKC 14/12 A3019 RMK FG3 SLP220=

CYXU;2005-09-12 09:41;SPECI CYXU 120941Z 09002KT 1 1/2SM BR SCT001 14/ RMK FG2ST2=

CYXU;2005-09-12 10:00;METAR CYXU 121000Z 09002KT 1 1/2SM R15/1200V2200FT/N BR SKC 13/11 A3018 RMK FG6 SLP218=

CYXU;2005-09-12 10:35;SPECI CYXU 121035Z 00000KT 3/4SM R15/P6000FT/N BR SKC 13/ RMK FG6=

CYXU;2005-09-12 11:00;METAR CYXU 121100Z 00000KT 3/4SM R15/P6000FT/D BR SKC 13/11 A3019 RMK FG7 SLP221=

CYXU;2005-09-12 11:12;SPECI CYXU 121112Z 00000KT 3/8SM R15/P6000FT/D FG SKC 12/ RMK FG7=

CYXU;2005-09-12 11:18;SPECI CYXU 121118Z 00000KT 1/4SM R15/P6000FT/U FG SKC 12/ RMK FG7=

CYXU;2005-09-12 11:28;SPECI CYXU 121128Z 00000KT 1/2SM R15/1200FT/N FG SKC 12/ RMK FG6=

CYXU;2005-09-12 11:45;SPECI CYXU 121145Z 11002KT 5/8SM R15/1000FT/N BR SKC 13/ RMK FG6=

CYXU;2005-09-12 12:00;METAR CYXU 121200Z 09002KT 3/4SM R15/1200V2000FT/U BR SKC 13/12 A3018 RMK FG6 SLP218=

CYXU;2005-09-12 12:11;SPECI CYXU 121211Z 09003KT 1SM R15/2800VP6000FT/N BR SKC 14/ RMK FG5=

CYXU;2005-09-12 12:16;SPECI CYXU 121216Z 09002KT 1 1/2SM BR SKC 15/ RMK FG4=

CYXU;2005-09-12 12:23;SPECI CYXU 121223Z 00000KT 2SM BR SKC 15/ RMK FG3=

CYXU;2005-09-12 12:36;SPECI CYXU 121236Z 00000KT 2 1/2SM BR SKC 17/ RMK FG2=

CYXU;2005-09-12 12:45;SPECI CYXU 121245Z 00000KT 3SM HZ SKC 17/=

CYXU;2005-09-12 13:00;METAR CYXU 121300Z 00000KT 5SM HZ SKC 19/16 A3017 RMK SLP215=

CYXU;2005-09-12 14:00;METAR CYXU 121400Z 26004KT 15SM SKC 24/15 A3017 RMK SLP216=

CYXU;2005-09-12 15:00;METAR CYXU 121500Z 28004KT 15SM SKC 27/15 A3016 RMK SLP209=

CYXU;2005-09-12 16:00;METAR CYXU 121600Z 22005KT 15SM SKC 29/15 A3015 RMK HAZE SLP206=

CYXU;2005-09-12 17:00;METAR CYXU 121700Z 27005KT 12SM FEW250 30/15 A3013 RMK CI0 HAZE SLP199=

CYXU;2005-09-12 18:00;METAR CYXU 121800Z 26008KT 12SM FEW250 31/15 A3010 RMK CI0 HAZE SLP191=

CYXU;2005-09-12 20:00;METAR CYXU 122000Z 18013KT 12SM FEW070 FEW230 30/16 A3007 RMK AC1CI0=

CYXU;2005-09-12 21:00;METAR CYXU 122100Z 19012KT 12SM FEW070 FEW200 29/13 A3006 RMK AC1CI0 SLP176=

CYXU;2005-09-12 22:00;METAR CYXU 122200Z 19012KT 12SM FEW200 28/13 A3005 RMK CI0 SLP174=

CYXU;2005-09-12 23:00;METAR CYXU 122300Z 20010KT 12SM FEW200 26/13 A3004 RMK CI0 SLP171=

CYXU;2005-09-13 00:00;METAR CYXU 130000Z 20006KT 12SM FEW200 24/13 A3005 RMK CI1 SLP174=

CYXU;2005-09-13 01:00;METAR CYXU 130100Z 20006KT 15SM FEW200 22/13 A3005 RMK CI1 SLP174=

CYXU;2005-09-13 03:00;METAR CYXU 130300Z 00000KT 15SM SKC 20/13 A3005 RMK SLP172=

CYXU;2005-09-13 04:00;METAR CYXU 130400Z 14003KT 15SM SKC 18/14 A3004 RMK SLP169=

CYXU;2005-09-13 05:00;METAR CYXU 130500Z 09003KT 7SM SKC 17/14 A3003 RMK SLP166=

CYXU;2005-09-13 06:00;METAR CYXU 130600Z 09003KT 7SM SKC 16/13 A3002 RMK SLP162=

CYXU;2005-09-13 07:00;METAR CYXU 130700Z 09003KT 7SM SKC 16/13 A3001 RMK SLP159=

CYXU;2005-09-13 08:00;METAR CYXU 130800Z 11003KT 5SM BR SKC 15/13 A3000 RMK SLP155=

CYXU;2005-09-13 09:00;METAR CYXU 130900Z 12002KT 5SM BR FEW001 14/12 A3001 RMK ST1 SLP160=

CYXU;2005-09-13 10:00;METAR CYXU 131000Z 12003KT 4SM BR SKC 16/14 A3002 RMK SLP162=

CYXU;2005-09-13 11:00;METAR CYXU 131100Z 14002KT 2SM BR SKC 16/14 A3003 RMK FG2 SLP164=

CYXU;2005-09-13 12:00;METAR CYXU 131200Z 15002KT 2SM BR SKC 18/15 A3003 RMK FG2 SLP166=

CYXU;2005-09-13 12:21;SPECI CYXU 131221Z 13002KT 3SM HZ SKC 19/ RMK VIS EAST 2=

CYXU;2005-09-13 13:00;METAR CYXU 131300Z 20005KT 3SM HZ SKC 21/17 A3003 RMK SLP166=

CYXU;2005-09-13 13:15;SPECI CYXU 131315Z 21006KT 4SM HZ SKC 22/=

CYXU;2005-09-13 14:00;METAR CYXU 131400Z 21006KT 5SM HZ SKC 24/17 A3002 RMK SLP164=

CYXU;2005-09-13 15:00;METAR CYXU 131500Z 21007KT 6SM HZ SKC 27/17 A3000 RMK SLP156=

CYXU;2005-09-13 16:00;METAR CYXU 131600Z 22007KT 6SM HZ SKC 28/17 A2999 RMK SLP152=

CYXU;2005-09-13 17:00;METAR CYXU 131700Z 22010KT 6SM HZ FEW055 29/17 A2997 RMK CU2 SLP146=

CYXU;2005-09-13 18:00;METAR CYXU 131800Z 22015G20KT 7SM FEW055 30/16 A2996 RMK CU2 SLP140=

CYXU;2005-09-13 19:00;METAR CYXU 131900Z 19013G21KT 7SM SCT220 29/14 A2994 RMK CI3 SLP135=

CYXU;2005-09-13 20:00;METAR CYXU 132000Z 19014G20KT 7SM SCT220 29/15 A2993 RMK CI3 SLP130=

CYXU;2005-09-13 21:00;METAR CYXU 132100Z 18017KT 7SM FEW220 28/15 A2991 RMK CI2 SLP125=

CYXU;2005-09-13 22:00;METAR CYXU 132200Z 19015KT 7SM FEW220 27/15 A2992 RMK CI2 SLP127=

CYXU;2005-09-13 23:00;METAR CYXU 132300Z 20009KT 8SM FEW220 26/15 A2992 RMK CI2 SLP127=

CYXU;2005-09-14 00:00;METAR CYXU 140000Z 19007KT 8SM FEW220 24/14 A2990 RMK CI1 SLP124=

CYXU;2005-09-14 01:00;METAR CYXU 140100Z 18005KT 8SM FEW220 22/15 A2991 RMK CI1 SLP125=

CYXU;2005-09-14 03:00;METAR CYXU 140300Z 16004KT 5SM HZ SKC 20/15 A2993 RMK SLP132=

CYXU;2005-09-14 04:00;METAR CYXU 140400Z 15003KT 10SM SKC 20/16 A2992 RMK SLP129=

CYXU;2005-09-14 06:00;METAR CYXU 140600Z 19007KT 12SM SKC 22/17 A2988 RMK SLP113=

CYXU;2005-09-14 07:00;METAR CYXU 140700Z 20008KT 12SM SKC 22/17 A2986 RMK SLP107=

CYXU;2005-09-14 08:00;METAR CYXU 140800Z 20008KT 10SM SKC 21/17 A2986 RMK SLP108=

CYXU;2005-09-14 09:00;METAR CYXU 140900Z 20007KT 10SM SKC 21/17 A2987 RMK SLP110=

CYXU;2005-09-14 10:00;METAR CYXU 141000Z 19005KT 10SM SKC 21/17 A2987 RMK HAZE SLP109=

CYXU;2005-09-14 11:00;METAR CYXU 141100Z 19007KT 3SM HZ FEW080 FEW250 21/17 A2987 RMK AC1CI1 SLP111=

CYXU;2005-09-14 12:00;METAR CYXU 141200Z 19009KT 4SM HZ BKN088 BKN250 22/18 A2988 RMK AC6CI1 SLP115=

CYXU;2005-09-14 13:00;METAR CYXU 141300Z 21012KT 4SM HZ BKN090 23/18 A2988 RMK AC6 SLP113=

CYXU;2005-09-14 14:00;METAR CYXU 141400Z 21012KT 5SM HZ FEW070 FEW200 25/18 A2988 RMK AC1CI1 SLP115=

CYXU;2005-09-14 15:00;METAR CYXU 141500Z 23011KT 5SM HZ FEW070 SCT240 26/18 A2987 RMK AC1CI1 SLP112=

CYXU;2005-09-14 16:00;METAR CYXU 141600Z 27011G17KT 7SM BKN040 27/18 A2988 RMK CU7 HAZE SLP114=

CYXU;2005-09-14 17:00;METAR CYXU 141700Z 28008KT 7SM OVC035 26/17 A2988 RMK CU8 HAZE TCU ASOCTD SLP115=

CYXU;2005-09-14 18:00;METAR CYXU 141800Z 32006KT 7SM FEW060 FEW090 OVC130 25/17 A2988 RMK CU1AC1AS6 HAZE SLP113=

CYXU;2005-09-14 18:49;SPECI CYXU 141849Z 00000KT 10SM -TSRA 004CB OVC090 24/ RMK CB5AC3=

CYXU;2005-09-14 19:00;METAR CYXU 141900Z 30007KT 3SM -TSRA OVC037CB 23/18 A2990 RMK CB8 SLP120=

CYXU;2005-09-14 19:03;SPECI CYXU 141903Z 27013KT 1/2SM R15/P6000FT/N TSRA OVC022CB 21/ RMK CB8=

CYXU;2005-09-14 19:07;SPECI CYXU 141907Z 29010G15KT 1/2SM R15/3500VP6000FT/D +TSRA OVC015CB 20/ RMK FG6CB2=

CYXU;2005-09-14 19:15;SPECI CYXU 141915Z 33010G15KT 2SM R15/3000V4500FT/N TSRA OVC017CB 20/ RMK FG5CB3=

CYXU;2005-09-14 19:21;SPECI CYXU 141921Z 34005KT 5SM R15/3000VP6000FT/U -TSRA BKN015CB OVC100 19/ RMK CB5AC3=

CYXU;2005-09-14 19:36;SPECI CYXU 141936Z 04003KT 12SM -SHRA FEW015 BKN050TCU OVC100 20/ RMK CU2TCU3AC2 RETS CB EAST=

CYXU;2005-09-14 20:00;METAR CYXU 142000Z 02002KT 8SM FEW020 BKN048TCU OVC100 20/18 A2990 RMK CU2TCU4AC2 RETS RERA SLP122=

CYXU;2005-09-14 20:37;SPECI CYXU 142037Z 36003KT 6SM -SHRA BR FEW020 BKN040TCU OVC100 21/ RMK CU2TCU5AC2=

CYXU;2005-09-14 21:00;METAR CYXU 142100Z 00000KT 5SM -SHRA BR FEW020 BKN035TCU OVC100 21/18 A2992 RMK CU2TCU5AC2 SLP130=

CYXU;2005-09-14 21:33;SPECI CYXU 142133Z 00000KT 10SM FEW015 SCT040 BKN070 BKN100 21/ RMK CF1CU2AC2AC2=

CYXU;2005-09-14 23:00;METAR CYXU 142300Z 20002KT 12SM FEW040 BKN090 21/18 A2994 RMK CU2AC4 SLP137=

CYXU;2005-09-15 00:00;METAR CYXU 150000Z 29002KT 8SM FEW050 BKN090 20/18 A2996 RMK CF1AC4 TCU TOP DISTANT W-N SLP142=

CYXU;2005-09-15 01:00;METAR CYXU 150100Z 00000KT 6SM BR FEW090 SCT250 19/18 A2997 RMK AC2CI2 SHALLOW FOG OVER RUNWAYS SLP145=

CYXU;2005-09-15 01:16;SPECI CYXU 150116Z 34002KT 2SM BR SKC 19/ RMK FG2=

CYXU;2005-09-15 01:49;SPECI CYXU 150149Z 03002KT 1SM R15/4000VP6000FT/N BR SKC 18/ RMK FG4=

CYXU;2005-09-15 02:00;METAR CYXU 150200Z 06003KT 1SM R15/3000FT/N BR SKC 17/16 A2998 RMK FG5 SLP150=

CYXU;2005-09-15 02:53;SPECI CYXU 150253Z 00000KT 2SM BR SCT008 OVC030 18/ RMK ST3SC5=

CYXU;2005-09-15 03:00;METAR CYXU 150300Z 31002KT 3SM -SHRA BR BKN008 OVC025TCU 18/17 A3001 RMK ST5TCU3 SLP159=

CYXU;2005-09-15 03:19;SPECI CYXU 150319Z 36007KT 3SM -SHRA BR SCT008 OVC030 19/ RMK SF3SC5 TCU EMBDD=

CYXU;2005-09-15 03:41;SPECI CYXU 150341Z 36008KT 15SM FEW008 OVC026 19/ RMK SF1SC7=

CYXU;2005-09-15 04:00;METAR CYXU 150400Z 01005KT 15SM OVC019 18/14 A3003 RMK SC8 SLP166=

CYXU;2005-09-15 06:00;METAR CYXU 150600Z 03004KT 15SM OVC034 17/13 A3005 RMK SC8 SLP173=

CYXU;2005-09-15 09:00;METAR CYXU 150900Z 01003KT 15SM FEW070 15/12 A3008 RMK AC2 SLP185=

CYXU;2005-09-15 10:00;METAR CYXU 151000Z 36005KT 15SM FEW070 15/11 A3009 RMK AC2 SLP189=

CYXU;2005-09-15 11:00;METAR CYXU 151100Z 36004KT 15SM FEW100 FEW280 14/11 A3010 RMK AC1CI1 SLP193=

CYXU;2005-09-15 12:00;METAR CYXU 151200Z 36005KT 15SM FEW100 FEW280 14/11 A3013 RMK AC1CI1 SLP204=

CYXU;2005-09-15 13:00;METAR CYXU 151300Z 02008KT 15SM FEW050 FEW080 FEW280 16/11 A3015 RMK SC1AC1CI1 CC ASOCTD SLP209=

CYXU;2005-09-15 14:00;METAR CYXU 151400Z 01006KT 15SM BKN050 BKN280 17/10 A3017 RMK SC6CI0 SLP216=

CYXU;2005-09-15 15:00;METAR CYXU 151500Z 02008KT 15SM FEW050 FEW120 SCT280 20/08 A3017 RMK SC2AC1CI1 SLP217=

CYXU;2005-09-15 16:00;METAR CYXU 151600Z 26007KT 15SM FEW050 SCT280 21/07 A3017 RMK SC1CI2 SLP216=

CYXU;2005-09-15 17:00;METAR CYXU 151700Z 36005KT 15SM FEW050 SCT280 22/08 A3016 RMK SC1CI1 SLP213=

CYXU;2005-09-15 18:00;METAR CYXU 151800Z 36006KT 15SM FEW080 BKN220 23/07 A3015 RMK AC1CI6 SLP208=

CYXU;2005-09-15 19:00;METAR CYXU 151900Z 33006KT 15SM FEW080 BKN240 23/06 A3014 RMK AC1CI6 SLP206=

CYXU;2005-09-15 20:00;METAR CYXU 152000Z 33004KT 15SM FEW100 BKN250 23/07 A3015 RMK AC1CS5 SLP208=

CYXU;2005-09-15 21:00;METAR CYXU 152100Z 33007KT 15SM FEW100 BKN250 23/07 A3015 RMK AC1CS4 SLP207=

CYXU;2005-09-15 22:00;METAR CYXU 152200Z 35008KT 15SM FEW100 BKN250 21/06 A3014 RMK AC1CI4 SLP206=

CYXU;2005-09-15 23:00;METAR CYXU 152300Z 34004KT 15SM OVC220 20/07 A3016 RMK CS7 SLP210=

CYXU;2005-09-16 00:00;METAR CYXU 160000Z 36007KT 15SM OVC220 18/07 A3015 RMK CI8 SLP211=

CYXU;2005-09-16 01:00;METAR CYXU 160100Z 36005KT 15SM OVC200 17/07 A3017 RMK CI8 SLP216=

CYXU;2005-09-16 04:00;METAR CYXU 160400Z 04003KT 15SM OVC150 15/09 A3015 RMK AS8 SLP210=

CYXU;2005-09-16 05:00;METAR CYXU 160500Z 05003KT 15SM BKN150 OVC250 15/09 A3013 RMK AC6CS1 SLP202=

CYXU;2005-09-16 06:00;METAR CYXU 160600Z 07005KT 15SM BKN140 OVC240 14/09 A3010 RMK AC6CS2 SLP192=

CYXU;2005-09-16 07:00;METAR CYXU 160700Z 08005KT 15SM OVC120 15/09 A3010 RMK AC8 SLP190=

CYXU;2005-09-16 08:00;METAR CYXU 160800Z 07002KT 15SM OVC120 15/10 A3009 RMK AC8 SLP188=

CYXU;2005-09-16 09:00;METAR CYXU 160900Z 06005KT 15SM FEW050 OVC110 16/11 A3007 RMK SC2AC6 SLP182=

CYXU;2005-09-16 10:00;METAR CYXU 161000Z 04006KT 15SM SCT045 OVC100 16/11 A3006 RMK SC3AC5 SLP178=

CYXU;2005-09-16 10:17;SPECI CYXU 161017Z 08008KT 8SM -RA SCT025 OVC043 15/ RMK SC3SC5=

CYXU;2005-09-16 12:00;METAR CYXU 161200Z 06004KT 7SM -RA FEW015 FEW038 OVC110 15/13 A3004 RMK SF1SC2AS6 SLP174=

CYXU;2005-09-16 13:00;METAR CYXU 161300Z 06010KT 7SM -RA BKN022 OVC100 16/14 A3003 RMK SC6AS2 SLP169=

CYXU;2005-09-16 14:00;METAR CYXU 161400Z 07008KT 7SM -RA BKN017 OVC100 16/14 A3003 RMK NS6AS2 SLP169=

CYXU;2005-09-16 15:12;SPECI CYXU 161512Z 09012KT 4SM RA BR BKN006 OVC022 17/ RMK SF5NS3=

CYXU;2005-09-16 15:51;SPECI CYXU 161551Z 08011KT 4SM -RA BR BKN005 OVC020 17/ RMK SF6NS2 RERA=

CYXU;2005-09-16 16:33;SPECI CYXU 161633Z 08010KT 7SM BKN006 OVC020 18/ RMK SF6NS2=

CYXU;2005-09-16 17:00;METAR CYXU 161700Z 08008KT 7SM OVC006 18/16 A3000 RMK SF8 SLP159=

CYXU;2005-09-16 17:24;SPECI CYXU 161724Z 09009KT 5SM -RA BR BKN006 OVC020 18/ RMK SF6NS2=

CYXU;2005-09-16 18:00;METAR CYXU 161800Z 10010KT 5SM -RA BR BKN008 OVC015 18/16 A2999 RMK SF6NS2 SLP156=

CYXU;2005-09-16 19:00;METAR CYXU 161900Z 07003KT 10SM -RA BKN006 OVC020 18/16 A3000 RMK SF6NS2 SLP158=

CYXU;2005-09-16 19:21;SPECI CYXU 161921Z 09007KT 7SM -RA SCT006 BKN020 OVC063 18/ RMK SF3SC2NS3=

CYXU;2005-09-16 20:00;METAR CYXU 162000Z 00000KT 3SM RA BR FEW008 OVC016 18/16 A3000 RMK SF2NS6 SLP160=

CYXU;2005-09-16 20:04;SPECI CYXU 162004Z 09004KT 2SM +RA BR OVC010 18/ RMK FG2SF6 ACC EMBDD=

CYXU;2005-09-16 20:17;SPECI CYXU 162017Z 10004KT 3SM -RA BR FEW008 BKN018 OVC060 18/ RMK SF2SC3NS2 RERA=

CYXU;2005-09-16 20:55;SPECI CYXU 162055Z 27002KT 6SM -RA BR BKN007 BKN020 OVC075 18/ RMK SF5SC2AC2 RERA=

CYXU;2005-09-16 21:00;METAR CYXU 162100Z 00000KT 6SM -RA BR BKN007 BKN020 OVC075 18/16 A3000 RMK SF5SC2AC2 RERA SLP157=

CYXU;2005-09-16 21:14;SPECI CYXU 162114Z 04004KT 6SM -RA BR SCT007 BKN020 BKN090 18/ RMK SF3SC3AC1=

CYXU;2005-09-16 21:25;SPECI CYXU 162125Z 04004KT 6SM -RA BR SCT006 BKN012 BKN080 18/ RMK SF3SC3AC1=

CYXU;2005-09-16 21:34;SPECI CYXU 162134Z 05005KT 8SM SCT006 BKN015 BKN080 18/ RMK SF3SC3AC1=

CYXU;2005-09-16 22:00;METAR CYXU 162200Z 03003KT 8SM SCT008 BKN020 BKN110 18/16 A2999 RMK SF3SC2AC2 SLP154=

CYXU;2005-09-16 23:00;METAR CYXU 162300Z 36005KT 6SM BR FEW009 BKN016 OVC080 18/16 A3000 RMK SF2SC5AC1 SLP159=

CYXU;2005-09-16 23:45;SPECI CYXU 162345Z 02004KT 3SM BR BKN012 OVC080 18/ RMK SF5AC3=

CYXU;2005-09-17 00:00;METAR CYXU 170000Z 04004KT 5SM BR BKN013 OVC080 18/16 A3000 RMK SF5AC3 SLP159=

CYXU;2005-09-17 00:40;SPECI CYXU 170040Z 07005KT 6SM BR FEW013 FEW028 OVC080 18/ RMK SF1SC1AC6=

CYXU;2005-09-17 01:00;METAR CYXU 170100Z 36004KT 6SM BR FEW032 BKN080 17/16 A3001 RMK SC2AC5 SLP162=

CYXU;2005-09-17 01:13;SPECI CYXU 170113Z 01003KT 6SM BR FEW006 BKN014 OVC030 17/ RMK SF2SC3SC2=

CYXU;2005-09-17 02:00;METAR CYXU 170200Z 36004KT 5SM BR FEW008 BKN012 OVC025 18/16 A3002 RMK SF2ST5SC2 SLP165=

CYXU;2005-09-17 03:00;METAR CYXU 170300Z 02004KT 5SM BR FEW008 BKN011 OVC019 17/16 A3002 RMK SF1ST6SC1 SLP166=

CYXU;2005-09-17 03:26;SPECI CYXU 170326Z 04005KT 4SM -DZ BR FEW008 BKN012 BKN019 OVC039 17/ RMK SF1ST6SC1SC1=

CYXU;2005-09-17 04:00;METAR CYXU 170400Z 06004KT 7SM -DZ FEW009 BKN011 OVC040 17/15 A3002 RMK SF1ST4SC3 SLP165=

CYXU;2005-09-17 05:54;SPECI CYXU 170554Z 05004KT 9SM BKN011 OVC032 17/ RMK ST6SC2=

CYXU;2005-09-17 06:00;METAR CYXU 170600Z 05005KT 9SM BKN010 OVC032 17/15 A3002 RMK ST6SC2 SLP164=

CYXU;2005-09-17 07:00;METAR CYXU 170700Z 01004KT 10SM SCT010 BKN038 17/15 A3002 RMK SC3SC3 SLP164=

CYXU;2005-09-17 09:00;METAR CYXU 170900Z 01004KT 10SM FEW010 BKN043 BKN056 17/15 A3002 RMK SF2SC4SC2 SLP166=

CYXU;2005-09-17 10:00;METAR CYXU 171000Z 01006KT 10SM SCT007 BKN059 OVC100 16/15 A3003 RMK SF3SC2AC2 SLP168=

CYXU;2005-09-17 12:00;METAR CYXU 171200Z 03003KT 10SM BKN110 16/14 A3004 RMK AC7 SLP172=

CYXU;2005-09-17 13:00;METAR CYXU 171300Z 05004KT 10SM FEW008 FEW052 BKN110 17/14 A3005 RMK SF1SC2AC5 SLP176=

CYXU;2005-09-17 14:00;METAR CYXU 171400Z 04005KT 12SM FEW008 BKN110 18/14 A3006 RMK SF2AC6 SLP179=

CYXU;2005-09-17 15:00;METAR CYXU 171500Z 02005KT 12SM SCT014 BKN110 20/15 A3007 RMK CU3AC3 SLP180=

CYXU;2005-09-17 16:00;METAR CYXU 171600Z 02002KT 12SM SCT018 BKN110 20/15 A3006 RMK CU4AC2 SLP179=

CYXU;2005-09-17 17:00;METAR CYXU 171700Z 05002KT 15SM SCT022 BKN170 21/15 A3006 RMK CU4AC2 SLP178=

CYXU;2005-09-17 18:00;METAR CYXU 171800Z 36002KT 15SM SCT029 BKN110 22/14 A3005 RMK CU4AC2 SLP173=

CYXU;2005-09-17 19:00;METAR CYXU 171900Z 36005KT 15SM BKN034 BKN240 22/14 A3003 RMK CU6CI1 SLP167=

CYXU;2005-09-17 20:00;METAR CYXU 172000Z 33003KT 15SM SCT037 SCT110 23/14 A3002 RMK CU3AC1 SLP164=

CYXU;2005-09-17 21:00;METAR CYXU 172100Z 30002KT 15SM SCT037 BKN085 23/14 A3002 RMK CU3AC2 SLP162=

CYXU;2005-09-17 22:00;METAR CYXU 172200Z 34002KT 15SM FEW037 BKN120 23/15 A3001 RMK CU2AC4 SLP161=

CYXU;2005-09-17 23:00;METAR CYXU 172300Z 35005KT 15SM FEW039 SCT120 22/15 A3002 RMK SC2AC2 SLP163=

CYXU;2005-09-18 00:00;METAR CYXU 180000Z 32003KT 15SM FEW040 FEW078 SCT120 20/15 A3003 RMK SC1AC1AC2 SLP168=

CYXU;2005-09-18 01:00;METAR CYXU 180100Z 34005KT 15SM FEW120 19/15 A3004 RMK AC2 SLP171=

CYXU;2005-09-18 02:00;METAR CYXU 180200Z 31004KT 15SM FEW120 17/14 A3004 RMK AC1 SLP173=

CYXU;2005-09-18 03:00;METAR CYXU 180300Z 34004KT 15SM SCT060 16/14 A3005 RMK SC4 SLP176=

CYXU;2005-09-18 04:00;METAR CYXU 180400Z 35003KT 15SM FEW060 16/13 A3005 RMK SC2 SLP175=

CYXU;2005-09-18 06:00;METAR CYXU 180600Z 00000KT 15SM SKC 14/12 A3004 RMK SLP172=

CYXU;2005-09-18 07:00;METAR CYXU 180700Z 00000KT 15SM FEW050 13/12 A3004 RMK SC1 SLP172=

CYXU;2005-09-18 08:00;METAR CYXU 180800Z 29003KT 15SM FEW080 13/11 A3005 RMK AC2 SLP174=

CYXU;2005-09-18 09:00;METAR CYXU 180900Z 00000KT 15SM SKC 13/11 A3005 RMK SLP174=

CYXU;2005-09-18 10:00;METAR CYXU 181000Z 34002KT 15SM SKC 12/11 A3006 RMK SLP178=

CYXU;2005-09-18 11:00;METAR CYXU 181100Z 00000KT 15SM MIFG FEW230 12/10 A3007 RMK CI1 SLP183=

CYXU;2005-09-18 12:00;METAR CYXU 181200Z 00000KT 15SM SKC 13/11 A3008 RMK SLP187=

CYXU;2005-09-18 13:00;METAR CYXU 181300Z 36002KT 15SM FEW230 15/13 A3009 RMK CI1 SLP190=

CYXU;2005-09-18 14:00;METAR CYXU 181400Z 29002KT 15SM SKC 18/13 A3010 RMK SLP192=

CYXU;2005-09-18 15:00;METAR CYXU 181500Z 30006KT 15SM FEW024 21/15 A3010 RMK CU1 SLP192=

CYXU;2005-09-18 16:00;METAR CYXU 181600Z 27008KT 15SM FEW030 SCT160 22/14 A3010 RMK CU2AC1 SLP190=

CYXU;2005-09-18 17:00;METAR CYXU 181700Z 26008KT 15SM FEW039 SCT160 23/13 A3009 RMK CU2AC1 SLP189=

CYXU;2005-09-18 18:00;METAR CYXU 181800Z 29009G16KT 15SM FEW040 SCT160 23/13 A3009 RMK CU2AC1 SLP189=

CYXU;2005-09-18 19:00;METAR CYXU 181900Z 26006KT 15SM SCT048 SCT180 24/12 A3009 RMK CU4AC1 SLP187=

CYXU;2005-09-18 20:00;METAR CYXU 182000Z 29008KT 15SM FEW050 FEW150 25/12 A3008 RMK CU2AC1 SLP186=

CYXU;2005-09-18 21:00;METAR CYXU 182100Z 29008KT 15SM FEW050 FEW150 25/11 A3009 RMK CU1CI1 SLP187=

CYXU;2005-09-18 22:00;METAR CYXU 182200Z 32002KT 15SM FEW050 BKN140 23/11 A3009 RMK CU1AC5 SLP188=

CYXU;2005-09-18 23:00;METAR CYXU 182300Z 30002KT 15SM FEW050 SCT150 22/12 A3009 RMK CU1AC3 ACC ASOCTD SLP189=

CYXU;2005-09-19 00:00;METAR CYXU 190000Z 18003KT 8SM FEW050 FEW150 19/16 A3010 RMK SC1AC1 SLP193=

CYXU;2005-09-19 01:00;METAR CYXU 190100Z 12003KT 8SM SCT130 18/16 A3012 RMK AC4 SLP201=

CYXU;2005-09-19 03:00;METAR CYXU 190300Z 00000KT 6SM BR SKC 17/15 A3014 RMK SLP204=

CYXU;2005-09-19 04:00;METAR CYXU 190400Z 00000KT 6SM BR SKC 16/14 A3015 RMK SLP208=

CYXU;2005-09-19 05:00;METAR CYXU 190500Z 00000KT 3SM BR BCFG SKC 15/13 A3016 RMK SLP210=

CYXU;2005-09-19 05:53;SPECI CYXU 190553Z 00000KT 8SM FEW000 15/ RMK ST2=

CYXU;2005-09-19 07:00;METAR CYXU 190700Z 10002KT 7SM MIFG SKC 13/12 A3017 RMK SLP215=

CYXU;2005-09-19 08:00;METAR CYXU 190800Z 00000KT 7SM SKC 14/12 A3017 RMK VIS S 3 SLP217=

CYXU;2005-09-19 08:21;SPECI CYXU 190821Z 10002KT 2SM R15/2600V4000FT/N BR SKC 13/ RMK FG2=

CYXU;2005-09-19 08:33;SPECI CYXU 190833Z 09002KT 3/4SM R15/P6000FT/U BR BKN001 13/ RMK FG5ST2=

CYXU;2005-09-19 08:44;SPECI CYXU 190844Z 10004KT 2SM R15/1800FT/N BR PRFG SCT000 13/ RMK ST4=

CYXU;2005-09-19 09:00;METAR CYXU 190900Z 10002KT 2 1/2SM R15/2800V6000FT/N BR PRFG FEW000 13/12 A3017 RMK ST2 SLP215=

CYXU;2005-09-19 09:06;SPECI CYXU 190906Z 09002KT 4SM BR FEW000 13/ RMK ST1=

CYXU;2005-09-19 09:40;SPECI CYXU 190940Z 09002KT 3/4SM R15/3500VP6000FT/U BR SCT001 12/ RMK FG3ST1=

CYXU;2005-09-19 10:00;METAR CYXU 191000Z 09002KT 1/4SM R15/1600V2200FT/N FG BKN006 12/11 A3018 RMK FG3ST2 SLP219=

CYXU;2005-09-19 10:12;SPECI CYXU 191012Z 08003KT 1/8SM R15/1200FT/N FG BKN006 12/ RMK FG5ST1=

CYXU;2005-09-19 10:23;SPECI CYXU 191023Z 08003KT 0SM R15/1000FT/N FG BKN001 12/ RMK FG6ST1=

CYXU;2005-09-19 10:42;SPECI CYXU 191042Z 08002KT 1/4SM R15/1100FT/N FG BKN001 12/ RMK FG4ST1=

CYXU;2005-09-19 11:00;METAR CYXU 191100Z 09002KT 1/4SM R15/1600FT/N FG BKN001 13/11 A3018 RMK FG4ST2 SLP219=

CYXU;2005-09-19 11:05;SPECI CYXU 191105Z 09002KT 1/8SM R15/1100V1600FT/N FG BKN001 13/ RMK FG6ST2=

CYXU;2005-09-19 11:09;SPECI CYXU 191109Z 11002KT 0SM R15/1000FT/N FG VV000 13/ RMK FG8=

CYXU;2005-09-19 12:00;METAR CYXU 191200Z 00000KT 0SM R15/0600FT/N FG VV000 15/14 A3021 RMK FG8 SLP229=

CYXU;2005-09-19 13:00;METAR CYXU 191300Z 14003KT 1/8SM R15/1000FT/N FG VV000 17/16 A3020 RMK FG8 SLP226=

CYXU;2005-09-19 13:34;SPECI CYXU 191334Z 17004KT 1/4SM R15/1100FT/N FG BKN001 18/ RMK FG5ST2=

CYXU;2005-09-19 13:45;SPECI CYXU 191345Z 17004KT 1/2SM R15/2800FT/N FG BKN001 19/ RMK FG3ST4=

CYXU;2005-09-19 13:52;SPECI CYXU 191352Z 18004KT 3/4SM R15/2800VP6000FT/U BR BKN002 19/ RMK FG3SF4=

CYXU;2005-09-19 14:00;METAR CYXU 191400Z 19005KT 1SM R15/P6000FT/U BR BKN002 19/18 A3022 RMK FG3SF4 SLP233=

CYXU;2005-09-19 14:17;SPECI CYXU 191417Z 19004KT 1 1/2SM BR BKN004 20/ RMK FG3SF4=

CYXU;2005-09-19 14:28;SPECI CYXU 191428Z 20007KT 2 1/2SM BR SCT003 BKN006 21/ RMK FG2SF1SF4=

CYXU;2005-09-19 14:43;SPECI CYXU 191443Z 19007KT 3SM BR FEW003 BKN210 21/ RMK SF2CI6=

CYXU;2005-09-19 15:00;METAR CYXU 191500Z 20006KT 5SM BR FEW003 BKN210 22/18 A3022 RMK SF1CI6 SLP231=

CYXU;2005-09-19 15:21;SPECI CYXU 191521Z 19009KT 7SM FEW003 OVC210 22/ RMK SF1CI7 HZ=

CYXU;2005-09-19 16:00;METAR CYXU 191600Z 19009KT 10SM FEW024 OVC210 23/17 A3019 RMK CF2CI6 HZ SLP222=

CYXU;2005-09-19 17:00;METAR CYXU 191700Z 18012KT 12SM FEW026 OVC210 24/17 A3017 RMK CU2CI6 SLP215=

CYXU;2005-09-19 18:00;METAR CYXU 191800Z 20010G15KT 15SM FEW028 OVC200 23/16 A3015 RMK CU2CI6 SLP207=

CYXU;2005-09-19 20:00;METAR CYXU 192000Z 18014G20KT 15SM BKN140 22/15 A3009 RMK AC7 SLP188=

CYXU;2005-09-19 21:00;METAR CYXU 192100Z 17013KT 15SM FEW030 BKN140 22/16 A3006 RMK CF1AC6 SLP177=

CYXU;2005-09-19 22:00;METAR CYXU 192200Z 17010G17KT 12SM FEW030 SCT100 23/16 A3003 RMK CU1AC4 SLP167=

CYXU;2005-09-19 23:00;METAR CYXU 192300Z 18010KT 10SM BKN065 22/16 A3002 RMK SC7 SLP164=

CYXU;2005-09-20 00:00;METAR CYXU 200000Z 18012G18KT 10SM BKN048 22/16 A2999 RMK SC7 SLP155=

CYXU;2005-09-20 01:00;METAR CYXU 200100Z 19012KT 10SM BKN050 OVC090 22/16 A3000 RMK SC6AC2 SLP158=

CYXU;2005-09-20 02:00;METAR CYXU 200200Z 20008KT 10SM SCT048 BKN260 21/16 A2998 RMK SC4CI1 SLP151=

CYXU;2005-09-20 03:00;METAR CYXU 200300Z 20008KT 10SM FEW050 SCT080 OVC260 21/17 A2997 RMK SC2AC2CI2 SLP145=

CYXU;2005-09-20 04:00;METAR CYXU 200400Z 21010KT 10SM BKN040 21/17 A2994 RMK SC6 OCNL DIST LTGCC SW SLP137=

CYXU;2005-09-20 05:00;METAR CYXU 200500Z 21007KT 10SM FEW060 BKN300 21/17 A2990 RMK SC2CI0 SLP124=

CYXU;2005-09-20 06:00;METAR CYXU 200600Z 23011KT 10SM BKN040 21/17 A2990 RMK SC6 SLP123=

CYXU;2005-09-20 07:00;METAR CYXU 200700Z 27011KT 10SM SCT025 21/17 A2991 RMK SC4 SLP124=

CYXU;2005-09-20 08:00;METAR CYXU 200800Z 28009KT 10SM BKN019 20/16 A2992 RMK SC7 SLP129=

CYXU;2005-09-20 09:00;METAR CYXU 200900Z 28007KT 10SM FEW020 BKN250 19/15 A2995 RMK SC2CI0 SLP138=

CYXU;2005-09-20 10:00;METAR CYXU 201000Z 28009KT 15SM FEW020 BKN070 BKN250 18/13 A2997 RMK SC2AC3CI0 SLP144=

CYXU;2005-09-20 11:00;METAR CYXU 201100Z 27008KT 15SM FEW070 SCT250 17/13 A2998 RMK AC1CI2 SLP150=

CYXU;2005-09-20 12:00;METAR CYXU 201200Z 28008KT 15SM FEW020 FEW250 17/13 A3001 RMK SC1CI1 SC TR SLP161=

CYXU;2005-09-20 13:00;METAR CYXU 201300Z 29008G15KT 15SM FEW020 FEW200 18/13 A3003 RMK SC2CI1 SLP166=

CYXU;2005-09-20 14:00;METAR CYXU 201400Z 29012KT 15SM BKN020 19/14 A3004 RMK SC7 SLP172=

CYXU;2005-09-20 15:00;METAR CYXU 201500Z 29011G16KT 15SM BKN024 20/14 A3006 RMK SC6 SLP177=

CYXU;2005-09-20 16:00;METAR CYXU 201600Z 29012KT 15SM BKN026 21/14 A3007 RMK SC6 SLP181=

CYXU;2005-09-20 17:00;METAR CYXU 201700Z 27009G19KT 15SM BKN036 21/13 A3007 RMK CU5 SLP182=

CYXU;2005-09-20 18:00;METAR CYXU 201800Z 31014KT 15SM BKN038 22/13 A3007 RMK CU5 SLP181=

CYXU;2005-09-20 19:00;METAR CYXU 201900Z 32012G18KT 15SM BKN038 22/12 A3008 RMK CU5 SLP183=

CYXU;2005-09-20 21:00;METAR CYXU 202100Z 32009KT 15SM SCT047 22/11 A3010 RMK CU4 SLP190=

CYXU;2005-09-20 22:00;METAR CYXU 202200Z 31011G16KT 15SM FEW047 22/12 A3010 RMK CU2 SLP192=

CYXU;2005-09-20 23:00;METAR CYXU 202300Z 29005KT 15SM FEW240 20/12 A3011 RMK CI1 SLP193=

CYXU;2005-09-21 00:00;METAR CYXU 210000Z 27002KT 15SM FEW240 17/12 A3011 RMK CI1 SLP196=

CYXU;2005-09-21 04:00;METAR CYXU 210400Z 23002KT 15SM SKC 15/12 A3013 RMK SLP201=

CYXU;2005-09-21 05:00;METAR CYXU 210500Z 00000KT 15SM SKC 14/11 A3013 RMK SLP202=

CYXU;2005-09-21 06:00;METAR CYXU 210600Z 00000KT 15SM SKC 14/11 A3013 RMK SLP202=

CYXU;2005-09-21 07:00;METAR CYXU 210700Z 00000KT 15SM SKC 13/10 A3013 RMK SLP201=

CYXU;2005-09-21 09:00;METAR CYXU 210900Z 27003KT 15SM SKC 15/11 A3013 RMK SLP202=

CYXU;2005-09-21 10:00;METAR CYXU 211000Z 26002KT 15SM SKC 13/11 A3014 RMK SLP204=

CYXU;2005-09-21 11:00;METAR CYXU 211100Z 23002KT 15SM SKC 14/11 A3014 RMK BR SLP205=

CYXU;2005-09-21 12:00;METAR CYXU 211200Z 00000KT 15SM SKC 15/11 A3015 RMK BR SLP210=

CYXU;2005-09-21 13:00;METAR CYXU 211300Z 25004KT 15SM SKC 19/12 A3015 RMK SLP211=

CYXU;2005-09-21 14:00;METAR CYXU 211400Z 28005KT 15SM SKC 21/11 A3016 RMK SLP212=

CYXU;2005-09-21 15:00;METAR CYXU 211500Z 27008KT 15SM SKC 23/12 A3015 RMK SLP210=

CYXU;2005-09-21 16:00;METAR CYXU 211600Z 25007KT 15SM SKC 25/13 A3016 RMK SLP211=

CYXU;2005-09-21 17:00;METAR CYXU 211700Z 27005KT 15SM FEW048 26/14 A3015 RMK CU1 CU TR SLP208=

CYXU;2005-09-21 18:00;METAR CYXU 211800Z 28007KT 15SM FEW055 28/13 A3013 RMK CU1 CU TR SLP199=

CYXU;2005-09-21 19:00;METAR CYXU 211900Z 27006KT 15SM FEW055 28/12 A3011 RMK CU1 SLP194=

CYXU;2005-09-21 20:00;METAR CYXU 212000Z 23010G16KT 15SM FEW055 28/13 A3009 RMK CU1 SLP186=

CYXU;2005-09-21 21:00;METAR CYXU 212100Z 18014KT 15SM FEW055 26/14 A3007 RMK CU1 SLP181=

CYXU;2005-09-21 22:00;METAR CYXU 212200Z 20015KT 15SM SKC 25/12 A3007 RMK SLP179=

CYXU;2005-09-21 23:00;METAR CYXU 212300Z 20012KT 15SM FEW200 23/11 A3007 RMK CI1 SLP179=

CYXU;2005-09-22 00:00;METAR CYXU 220000Z 20006KT 15SM FEW200 22/10 A3007 RMK CI1 SLP180=

CYXU;2005-09-22 01:00;METAR CYXU 220100Z 23005KT 15SM SKC 21/10 A3008 RMK SLP184=

CYXU;2005-09-22 02:00;METAR CYXU 220200Z 19006KT 15SM FEW200 19/10 A3007 RMK CI1 SLP182=

CYXU;2005-09-22 03:00;METAR CYXU 220300Z 19007KT 15SM FEW200 19/11 A3004 RMK CI1 SLP170=

CYXU;2005-09-22 04:00;METAR CYXU 220400Z 18005KT 15SM SCT200 18/11 A3003 RMK CI1 SLP166=

CYXU;2005-09-22 05:00;METAR CYXU 220500Z 16003KT 15SM SKC 17/12 A3004 RMK SLP169=

CYXU;2005-09-22 06:00;METAR CYXU 220600Z 15004KT 15SM SKC 15/12 A3004 RMK SLP169=

CYXU;2005-09-22 07:00;METAR CYXU 220700Z 12004KT 12SM SKC 16/13 A3001 RMK SLP161=

CYXU;2005-09-22 08:00;METAR CYXU 220800Z 16002KT 10SM SKC 14/12 A3000 RMK SLP158=

CYXU;2005-09-22 09:00;METAR CYXU 220900Z 17003KT 8SM FEW160 15/14 A2998 RMK AC2 SLP151=

CYXU;2005-09-22 10:00;METAR CYXU 221000Z 12003KT 5SM BR FEW160 15/13 A2998 RMK AC2 SLP151=

CYXU;2005-09-22 10:26;SPECI CYXU 221026Z 11002KT 3SM BR FEW160 14/ RMK FG1AC2=

CYXU;2005-09-22 10:29;SPECI CYXU 221029Z 12003KT 3/4SM R15/P6000FT/D BR SCT160 14/ RMK FG2AC1=

CYXU;2005-09-22 10:50;SPECI CYXU 221050Z 17002KT 1SM R15/1200V1800FT/N BR PRFG SCT160 14/ RMK FG2AC1 FOG BANK NW-SE=

CYXU;2005-09-22 11:00;METAR CYXU 221100Z 17002KT 1SM R15/3000V5000FT/N BR PRFG SCT180 14/13 A2998 RMK FG2AC1 FOG BANK NW-SE SLP151=

CYXU;2005-09-22 11:20;SPECI CYXU 221120Z 00000KT 3SM R15/2800VP6000FT/U BR PRFG FEW160 BKN240 15/ RMK AC1CI2 FOG BANK NNW-SE=

CYXU;2005-09-22 12:00;METAR CYXU 221200Z 18003KT 3SM BR PRFG FEW160 BKN240 15/14 A2999 RMK AC2CI2 FOG BANK E SLP153=

CYXU;2005-09-22 12:19;SPECI CYXU 221219Z 22003KT 5SM BR BKN050 BKN180 17/ RMK SC5AC2=

CYXU;2005-09-22 13:00;METAR CYXU 221300Z 23008KT 5SM HZ SCT050 OVC180 20/16 A2998 RMK CU3AC4 SLP152=

CYXU;2005-09-22 14:00;METAR CYXU 221400Z 22009KT 6SM HZ FEW050 OVC180 21/16 A2997 RMK CU1AS7 SLP147=

CYXU;2005-09-22 15:00;METAR CYXU 221500Z 20009KT 8SM FEW037 OVC200 21/16 A2993 RMK CU1CS7 HAZE SLP133=

CYXU;2005-09-22 16:00;METAR CYXU 221600Z 20011G18KT 8SM FEW050 OVC180 22/17 A2990 RMK SC1AS7=

CYXU;2005-09-22 17:00;METAR CYXU 221700Z 21011KT 8SM FEW030 OVC180 22/17 A2990 RMK SC1AS7 HAZE SLP122=

CYXU;2005-09-22 18:00;METAR CYXU 221800Z 18009KT 8SM FEW025 OVC190 23/17 A2987 RMK CU2AC6 HAZE SLP114=

CYXU;2005-09-22 19:00;METAR CYXU 221900Z 21012KT 8SM SCT025 OVC190 23/17 A2987 RMK CU3AC5 SLP114=

CYXU;2005-09-22 19:10;SPECI CYXU 221910Z 22014KT 8SM -SHRA SCT029 OVC190 23/ RMK SC4AC4=

CYXU;2005-09-22 20:00;METAR CYXU 222000Z 25011KT 6SM -SHRA FEW031 BKN040 OVC190 21/18 A2994 RMK CF2SC5AC2 TCU ASOCTD SLP135=

CYXU;2005-09-22 20:10;SPECI CYXU 222010Z 24010G16KT 6SM -TSRA BKN040CB OVC190 21/ RMK CB6AC2 LTGIC=

CYXU;2005-09-22 21:00;METAR CYXU 222100Z 20005KT 6SM TSRA BKN040CB BKN060 OVC190 19/17 A2985 RMK CB5SC2AC2 LTGCGIC PRESFR SLP106=

CYXU;2005-09-22 21:19;SPECI CYXU 222119Z 21010KT 6SM -SHRA SCT040CB BKN060 OVC120 19/ RETSRA RMK CB3SC2AC2 LTNG DSNT W QUAD=

CYXU;2005-09-22 21:28;SPECI CYXU 222128Z 21010KT 6SM -TSRA BKN040CB BKN060 OVC120 19/ RERA RMK CB5SC2AC2=

CYXU;2005-09-22 22:00;METAR CYXU 222200Z 22010G15KT 6SM -TSRA BKN040CB BKN080 OVC120 19/17 A2987 RERA RMK CB5AC2AC2 SLP113=

CYXU;2005-09-22 22:31;SPECI CYXU 222231Z 27016G22KT 3SM +TSRA SCT022 BKN045CB OVC080 18/ RMK CF3CB3AC2 LTGCCCG=

CYXU;2005-09-22 22:52;SPECI CYXU 222252Z 28010G15KT 2SM +TSRA FEW007 OVC040CB 18/ RMK CF2CB6 LTGCCCG=

CYXU;2005-09-22 23:00;METAR CYXU 222300Z 27009G15KT 1SM R15/P6000FT/N +TSRA FEW007 OVC040CB 18/16 A2987 RMK CF2CB6 LTGCCCG SLP115=

CYXU;2005-09-22 23:14;SPECI CYXU 222314Z 22004KT 4SM +TSRA FEW007 OVC040CB 18/ RMK CF1CB7 LTGCCCG=

CYXU;2005-09-23 00:00;METAR CYXU 230000Z 25007KT 6SM TSRA OVC058CB 18/16 A2991 RMK CB8 SLP129=

CYXU;2005-09-23 01:00;METAR CYXU 230100Z 25004KT 4SM -TSRA FEW007 SCT040CB BKN120 OVC160 17/16 A2988 RMK CF2CB2AC2AC3 LTGCC SLP118=

CYXU;2005-09-23 01:32;SPECI CYXU 230132Z 20006KT 4SM BR BKN005 OVC030 18/ RETSRA RMK CF6SC2 CIG VRBL 3 - 7 LTNG S QUAD=

CYXU;2005-09-23 02:00;METAR CYXU 230200Z 23005KT 4SM BR BKN005 OVC030 18/17 A2990 RETSRA RMK CF6SC2 CIG VRBL 3-7 SLP123=

CYXU;2005-09-23 03:00;METAR CYXU 230300Z 23004KT 2SM BR SCT005 OVC010 18/17 A2991 RMK CF4SC4 SLP127=

CYXU;2005-09-23 04:00;METAR CYXU 230400Z 26003KT 2SM BR SCT005 OVC008 18/17 A2991 RMK SF3SC5 SLP127=

CYXU;2005-09-23 05:00;METAR CYXU 230500Z 27003KT 2SM BR SCT003 OVC014 18/17 A2993 RMK SF3SC5 SLP131=

CYXU;2005-09-23 06:45;SPECI CYXU 230645Z 30004KT 2SM BR FEW003 SCT009 OVC029 18/ RMK SF2SF2SC5=

CYXU;2005-09-23 07:00;METAR CYXU 230700Z 32005KT 2SM BR BKN008 OVC029 18/17 A2995 RMK SF6SC2 SLP140=

CYXU;2005-09-23 08:00;METAR CYXU 230800Z 34008KT 2SM BR OVC008 18/16 A2997 RMK ST8 SLP146=

CYXU;2005-09-23 08:34;SPECI CYXU 230834Z 34010G15KT 2SM BR OVC004 17/ RMK ST8=

CYXU;2005-09-23 09:00;METAR CYXU 230900Z 36011G17KT 2SM BR OVC004 16/15 A3000 RMK ST8 SLP160=

CYXU;2005-09-23 09:46;SPECI CYXU 230946Z 01010KT 10SM FEW020 SCT085 15/ RMK SC2AC2=

CYXU;2005-09-23 10:00;METAR CYXU 231000Z 36008KT 8SM FEW024 SCT085 14/11 A3004 RMK SC1AC2 HAZE SLP171=

CYXU;2005-09-23 11:00;METAR CYXU 231100Z 36009KT 10SM FEW024 SCT085 13/11 A3007 RMK SF1AC2 SLP182=

CYXU;2005-09-23 12:00;METAR CYXU 231200Z 36010G15KT 15SM FEW080 13/11 A3010 RMK AC1 SLP194=

CYXU;2005-09-23 13:00;METAR CYXU 231300Z 02007KT 15SM FEW080 15/10 A3014 RMK AC1 SLP207=

CYXU;2005-09-23 14:00;METAR CYXU 231400Z 02010KT 15SM FEW200 16/09 A3017 RMK CI1 SLP217=

CYXU;2005-09-23 15:00;METAR CYXU 231500Z 03011KT 15SM FEW020 FEW220 18/08 A3019 RMK CF1CI0 SLP221=

CYXU;2005-09-23 16:00;METAR CYXU 231600Z 04010G15KT 15SM FEW030 FEW220 18/07 A3019 RMK SC1CI1 SLP222=

CYXU;2005-09-23 17:00;METAR CYXU 231700Z 02008G15KT 15SM FEW030 FEW230 19/09 A3020 RMK SC1CI1 SLP226=

CYXU;2005-09-23 18:00;METAR CYXU 231800Z 05007KT 15SM FEW230 20/08 A3020 RMK CI1 SLP226=

CYXU;2005-09-23 19:00;METAR CYXU 231900Z 04009KT 15SM FEW050 BKN250 20/06 A3021 RMK CU1CI1 SLP229=

CYXU;2005-09-23 21:00;METAR CYXU 232100Z 02008KT 15SM SCT250 20/07 A3024 RMK CI1 SLP239=

CYXU;2005-09-23 22:00;METAR CYXU 232200Z 06005KT 15SM SCT250 19/07 A3025 RMK CI1 SLP242=

CYXU;2005-09-23 23:00;METAR CYXU 232300Z 05005KT 15SM FEW250 18/07 A3025 RMK CI1 SLP243=

CYXU;2005-09-24 00:00;METAR CYXU 240000Z 04005KT 15SM FEW250 15/06 A3026 RMK CI1 SLP247=

CYXU;2005-09-24 01:00;METAR CYXU 240100Z 05005KT 15SM SKC 14/06 A3027 RMK SLP252=

CYXU;2005-09-24 02:00;METAR CYXU 240200Z 06005KT 15SM SKC 12/05 A3028 RMK SLP254=

CYXU;2005-09-24 03:00;METAR CYXU 240300Z 06005KT 15SM SCT250 12/05 A3030 RMK CI2 SLP261=

CYXU;2005-09-24 04:00;METAR CYXU 240400Z 08005KT 15SM BKN240 11/05 A3030 RMK CI2 SLP262=

CYXU;2005-09-24 05:00;METAR CYXU 240500Z 07005KT 15SM BKN240 10/05 A3030 RMK CI2 SLP261=

CYXU;2005-09-24 06:00;METAR CYXU 240600Z 07007KT 15SM BKN240 10/06 A3029 RMK CI5 SLP259=

CYXU;2005-09-24 08:00;METAR CYXU 240800Z 08008KT 15SM BKN230 10/06 A3028 RMK CI6 SLP255=

CYXU;2005-09-24 09:00;METAR CYXU 240900Z 08006KT 15SM FEW240 10/06 A3030 RMK CI2 SLP261=

CYXU;2005-09-24 10:00;METAR CYXU 241000Z 08006KT 15SM FEW240 09/06 A3029 RMK CI1 SLP258=

CYXU;2005-09-24 11:00;METAR CYXU 241100Z 10003KT 15SM FEW240 09/07 A3031 RMK CI1 SLP265=

CYXU;2005-09-24 12:00;METAR CYXU 241200Z 08008KT 15SM FEW230 11/07 A3031 RMK CI1 SLP266=

CYXU;2005-09-24 13:00;METAR CYXU 241300Z 09013KT 15SM FEW230 14/09 A3029 RMK CI1 SLP261=

CYXU;2005-09-24 14:00;METAR CYXU 241400Z 11017G26KT 15SM SCT170 16/08 A3028 RMK AC2 SLP258=

CYXU;2005-09-24 15:00;METAR CYXU 241500Z 10017G22KT 15SM FEW170 16/07 A3028 RMK AC2 SLP255=

CYXU;2005-09-24 16:00;METAR CYXU 241600Z 11015G21KT 15SM FEW170 17/07 A3026 RMK AC1 SLP248=

CYXU;2005-09-24 17:00;METAR CYXU 241700Z 10014KT 15SM FEW170 FEW230 18/07 A3024 RMK AC1CI1 SLP244=

CYXU;2005-09-24 18:00;METAR CYXU 241800Z 11012KT 15SM FEW220 20/07 A3021 RMK CI1 SLP231=

CYXU;2005-09-24 21:00;METAR CYXU 242100Z 13010KT 15SM BKN075 20/09 A3016 RMK AC6 SLP214=

CYXU;2005-09-24 22:00;METAR CYXU 242200Z 13010KT 15SM FEW024 BKN067 BKN220 19/11 A3016 RMK SC1AC6CI1 SLP213=

CYXU;2005-09-24 23:00;METAR CYXU 242300Z 12005KT 15SM FEW024 SCT061 BKN220 18/11 A3016 RMK SC1SC4CI2 SLP213=

CYXU;2005-09-25 01:00;METAR CYXU 250100Z 11008KT 15SM SCT045 BKN080 17/11 A3015 RMK SC3AC2 SLP210=

CYXU;2005-09-25 04:00;METAR CYXU 250400Z 09003KT 15SM BKN032 16/11 A3012 RMK SC7 SLP201=

CYXU;2005-09-25 05:00;METAR CYXU 250500Z 12004KT 15SM SCT030 BKN083 BKN140 16/12 A3010 RMK SC3AC2AC1 SLP194=

CYXU;2005-09-25 06:00;METAR CYXU 250600Z 09002KT 10SM -SHRA OVC030 17/14 A3010 RMK SC8 SLP191=

CYXU;2005-09-25 06:29;SPECI CYXU 250629Z 13004KT 5SM -SHRA BR FEW013 OVC031 17/ RMK SF1SC7=

CYXU;2005-09-25 07:06;SPECI CYXU 250706Z 17008KT 3SM -SHRA BR BKN011 OVC030 18/ RMK SF5SC3=

CYXU;2005-09-25 08:00;METAR CYXU 250800Z 18005KT 3SM -SHRA BR FEW011 SCT030 OVC080 18/17 A3007 RERA RMK SF2SC2AC5 SLP180=

CYXU;2005-09-25 09:00;METAR CYXU 250900Z 21002KT 2SM +SHRA BR FEW010 OVC030 18/17 A3008 RMK SF2SC6 CB EMBDD LTGIC SLP183=

CYXU;2005-09-25 10:00;METAR CYXU 251000Z 12004KT 6SM BR BKN010 OVC060 18/17 A3008 RETSRA RMK SC6SC2 SLP185=

CYXU;2005-09-25 11:00;METAR CYXU 251100Z 06005KT 5SM BR SCT010 OVC036 18/11 A3007 RMK SF3SC5 SLP181=

CYXU;2005-09-25 11:34;SPECI CYXU 251134Z 13004KT 2 1/2SM BR SCT008 OVC035 18/ RMK SF4SC4=

CYXU;2005-09-25 12:00;METAR CYXU 251200Z 06002KT 2 1/2SM BR BKN006 OVC028 18/17 A3009 RMK SF5SC3 SLP187=

CYXU;2005-09-25 13:00;METAR CYXU 251300Z 11003KT 2 1/2SM BR OVC004 19/17 A3008 RMK SF8 SLP186=

CYXU;2005-09-25 13:46;SPECI CYXU 251346Z 13005KT 1SM R15/P6000FT/D BR OVC004 19/ RMK SF8=

CYXU;2005-09-25 14:00;METAR CYXU 251400Z 15004KT 1 1/2SM BR OVC005 20/19 A3008 RMK SF8 SLP184=

CYXU;2005-09-25 14:40;SPECI CYXU 251440Z 18006KT 2 1/2SM BR BKN006 22/ RMK SF7=

CYXU;2005-09-25 15:00;METAR CYXU 251500Z 18005KT 3SM HZ BKN009 23/20 A3006 RMK SF6 SLP177=

CYXU;2005-09-25 16:00;METAR CYXU 251600Z 18008KT 4SM HZ BKN010 23/20 A3006 RMK SF6 SLP176=

CYXU;2005-09-25 17:00;METAR CYXU 251700Z 19009KT 4SM HZ BKN012 25/20 A3004 RMK SF6 SLP172=

CYXU;2005-09-25 18:00;METAR CYXU 251800Z 19009KT 4SM HZ BKN016 BKN180 26/21 A3001 RMK SF5CI1 SLP160=

CYXU;2005-09-25 18:39;SPECI CYXU 251839Z 20011KT 4SM -SHRA HZ BKN017 BKN026 OVC045 24/ RMK SF5CU2CU2 TCU ASOCTD=

CYXU;2005-09-25 19:00;METAR CYXU 251900Z 17010KT 4SM -SHRA HZ SCT017 BKN050TCU OVC180 24/20 A2998 RMK SF3TCU2CI3 SLP151=

CYXU;2005-09-25 19:13;SPECI CYXU 251913Z 18013KT 4SM HZ FEW020TCU OVC240 23/ RMK TCU1CS7=

CYXU;2005-09-25 20:00;METAR CYXU 252000Z 19015KT 4SM HZ FEW016 BKN090 OVC240 23/19 A2997 RMK CU1AC6CS2 CU TR SLP145=

CYXU;2005-09-25 21:00;METAR CYXU 252100Z 19010G16KT 5SM HZ FEW020 BKN180 OVC240 23/19 A2995 RMK CU1AC7CS1 CU TR SLP139=

CYXU;2005-09-25 22:00;METAR CYXU 252200Z 19009KT 6SM HZ SCT110 OVC180 23/19 A2994 RMK AC3AC5 SLP136=

CYXU;2005-09-25 22:10;SPECI CYXU 252210Z 20007KT 6SM -SHRA HZ BKN100 OVC180 23/ RMK AC6AC2=

CYXU;2005-09-25 23:00;METAR CYXU 252300Z 21006KT 4SM -RA HZ BKN080 OVC100 22/19 A2996 RMK AC6AC2 SLP142=

CYXU;2005-09-25 23:26;SPECI CYXU 252326Z 21004KT 2 1/2SM -RA BR FEW040 OVC120 21/ RMK SC1AC7=

CYXU;2005-09-26 00:00;METAR CYXU 260000Z 24008KT 4SM -RA BR OVC100 21/19 A2996 RMK AC8 SLP143=

CYXU;2005-09-26 01:00;METAR CYXU 260100Z 24005KT 4SM -RA BR OVC100 20/18 A2993 RMK AC8 SLP135=

CYXU;2005-09-26 02:00;METAR CYXU 260200Z 25006KT 4SM -RA BR BKN042 OVC075 20/18 A2992 RMK SC6AC2 SLP131=

CYXU;2005-09-26 02:25;SPECI CYXU 260225Z 22006KT 3SM RA SCT018 BKN042 OVC075 20/ RMK ST3ST3AC2=

CYXU;2005-09-26 04:00;METAR CYXU 260400Z 18005KT 3SM -RA BR FEW018 OVC053 19/18 A2987 RMK SF1ST7 SLP112=

CYXU;2005-09-26 05:00;METAR CYXU 260500Z 23009KT 5SM -RA BR FEW025 OVC050 20/18 A2984 RERA RMK SF2ST6 SLP102=

CYXU;2005-09-26 05:34;SPECI CYXU 260534Z 23008KT 4SM -RA BR SCT007 BKN014 OVC050 20/ RERA RMK SF3ST2ST3=

CYXU;2005-09-26 06:00;METAR CYXU 260600Z 23007KT 3SM BR BKN006 OVC014 20/18 A2983 RMK SF6ST2 CIG VRBL 5-7 SLP096=

CYXU;2005-09-26 09:00;METAR CYXU 260900Z 23009KT 4SM -SHRA BR BKN008 OVC047 20/18 A2975 RMK SF7SC1 TCU ASOCTD SLP072=

CYXU;2005-09-26 10:00;METAR CYXU 261000Z 22012KT 4SM -SHRA BR BKN008 OVC015 20/18 A2973 RMK SF6SC2 PCPN VRY LGT SLP065=

CYXU;2005-09-26 10:25;SPECI CYXU 261025Z 22013G18KT 2SM SHRA BR OVC010 19/ RMK NS8 CNVCTV CLD EMBDD=

CYXU;2005-09-26 10:46;SPECI CYXU 261046Z 21017G25KT 2SM -SHRA BR BKN009 OVC033 20/ RMK SF7SC1 CNVCTV CLD EMBDD=

CYXU;2005-09-26 11:21;SPECI CYXU 261121Z 23012KT 2 1/2SM BR BKN012 OVC025 19/ RMK SF6NS2=

CYXU;2005-09-26 11:46;SPECI CYXU 261146Z 22011KT 2 1/2SM -SHRA BR BKN010 OVC025 19/ RMK SF7NS1 CVCTV CLD EMBDD=

CYXU;2005-09-26 12:00;METAR CYXU 261200Z 21010G16KT 2SM -SHRA BR BKN010 OVC025 19/17 A2970 RMK SF7NS1 CNVCTV CLD EMBDD SLP055=

CYXU;2005-09-26 12:07;SPECI CYXU 261207Z 21011KT 1 1/2SM -SHRA BR OVC006 19/ RMK SF8 CNVCTV CLD EMBDD=

CYXU;2005-09-26 13:00;METAR CYXU 261300Z 22009KT 1 1/2SM -SHRA BR OVC006 19/17 A2968 RMK SF8 CVCTV CLD EMBDD SLP048=

CYXU;2005-09-26 14:00;METAR CYXU 261400Z 22007KT 2 1/2SM -SHRA BR OVC006 19/18 A2966 RMK SF8 CVCTV CLD EMBDD SLP042=

CYXU;2005-09-26 14:26;SPECI CYXU 261426Z 27003KT 4SM -SHRA BR SCT006 OVC025 19/ RMK SF4SC4 CVCTV CLD EMBD=

CYXU;2005-09-26 14:46;SPECI CYXU 261446Z 26005KT 10SM SCT006 BKN025 20/ RMK SF4SC3=

CYXU;2005-09-26 15:00;METAR CYXU 261500Z 27006KT 10SM BKN006 OVC033 20/18 A2966 RMK SF6SC2 SLP041=

CYXU;2005-09-26 15:13;SPECI CYXU 261513Z 27005KT 10SM -SHRA BKN006 BKN014 OVC035 20/ RMK SF6SC1SC1 CVCTV CLD EMBDD=

CYXU;2005-09-26 15:30;SPECI CYXU 261530Z 27006KT 10SM BKN006 OVC013 20/ RMK SF7SC1=

CYXU;2005-09-26 15:39;SPECI CYXU 261539Z 27007KT 10SM -SHRA BKN006 OVC015 20/ RMK SF6SC2=

CYXU;2005-09-26 16:00;METAR CYXU 261600Z 28008KT 10SM -SHRA OVC008 20/18 A2966 RMK SF8 CVCTV CLD EMBDD SLP041=

CYXU;2005-09-26 16:13;SPECI CYXU 261613Z 27008KT 10SM OVC008 20/ RMK SF8=

CYXU;2005-09-26 18:00;METAR CYXU 261800Z 31011G18KT 15SM BKN009 OVC050 20/17 A2968 RMK SF7SC1 SLP047=

CYXU;2005-09-26 18:32;SPECI CYXU 261832Z 32009G16KT 15SM BKN014 OVC060 20/ RMK SF6SC2=

CYXU;2005-09-26 19:00;METAR CYXU 261900Z 31012G18KT 15SM BKN016 21/17 A2970 RMK SC7 SLP054=

CYXU;2005-09-26 20:00;METAR CYXU 262000Z 31011G21KT 15SM OVC015 19/15 A2973 RMK SC8 SLP066=

CYXU;2005-09-26 20:24;SPECI CYXU 262024Z 32008G17KT 15SM -DZ BKN010 OVC020 18/ RMK SF6SC2=

CYXU;2005-09-26 21:00;METAR CYXU 262100Z 31014G21KT 10SM -DZ BKN010 OVC025 17/15 A2977 RMK SF6SC2 SLP079=

CYXU;2005-09-26 21:50;SPECI CYXU 262150Z 31013G24KT 15SM BKN012 OVC025 16/ RMK SC7SC1=

CYXU;2005-09-26 22:00;METAR CYXU 262200Z 33015KT 15SM BKN011 OVC025 17/13 A2980 RMK SC7SC1 SLP089=

CYXU;2005-09-26 23:00;METAR CYXU 262300Z 31011G18KT 15SM BKN012 OVC030 16/13 A2984 RMK SC6SC2 SLP102=

CYXU;2005-09-27 00:00;METAR CYXU 270000Z 32010G18KT 15SM BKN012 BKN025 OVC044 15/13 A2987 RMK SC5SC2SC2 SLP115=

CYXU;2005-09-27 00:19;SPECI CYXU 270019Z 32010G18KT 15SM -DZ BKN010 OVC045 15/ RMK SF6SC2 -DZ OCNL=

CYXU;2005-09-27 02:00;METAR CYXU 270200Z 35009KT 15SM BKN010 BKN040 15/12 A2993 RMK SF6SC1 OCNL -DZ SLP134=

CYXU;2005-09-27 02:51;SPECI CYXU 270251Z 34008KT 15SM SCT010 BKN032 14/ RMK SF3SC4=

CYXU;2005-09-27 03:00;METAR CYXU 270300Z 33007KT 15SM SCT010 BKN035 14/12 A2996 RMK SF3SC4 SLP143=

CYXU;2005-09-27 04:00;METAR CYXU 270400Z 34008KT 15SM FEW025 13/11 A2999 RMK SC2 SLP153=

CYXU;2005-09-27 05:00;METAR CYXU 270500Z 35005KT 15SM SKC 12/10 A3001 RMK SLP161=

CYXU;2005-09-27 06:00;METAR CYXU 270600Z 34004KT 15SM SKC 11/09 A3003 RMK SLP168=

CYXU;2005-09-27 08:00;METAR CYXU 270800Z 36003KT 15SM SKC 10/08 A3005 RMK SLP177=

CYXU;2005-09-27 09:00;METAR CYXU 270900Z 00000KT 15SM SKC 08/07 A3006 RMK SLP182=

CYXU;2005-09-27 10:00;METAR CYXU 271000Z 00000KT 15SM SKC 08/07 A3008 RMK SLP187=

CYXU;2005-09-27 11:00;METAR CYXU 271100Z 00000KT 15SM MIFG SKC 07/06 A3009 RMK SLP192=

CYXU;2005-09-27 12:00;METAR CYXU 271200Z 23002KT 15SM MIFG FEW025 FEW240 07/06 A3012 RMK SC1CI1 SLP202=

CYXU;2005-09-27 13:00;METAR CYXU 271300Z 27004KT 15SM FEW025 12/09 A3013 RMK SC1 SLP208=

CYXU;2005-09-27 14:00;METAR CYXU 271400Z 29003KT 15SM FEW025 14/09 A3015 RMK CU1 TR CU SLP213=

CYXU;2005-09-27 15:00;METAR CYXU 271500Z 31003KT 15SM FEW025 17/09 A3014 RMK CU1 SLP208=

CYXU;2005-09-27 16:00;METAR CYXU 271600Z 29005KT 15SM FEW035 FEW250 17/08 A3014 RMK CU1CI1 SLP206=

CYXU;2005-09-27 17:00;METAR CYXU 271700Z 33006KT 15SM FEW035 FEW250 19/09 A3013 RMK CF1CI1 SLP204=

CYXU;2005-09-27 18:00;METAR CYXU 271800Z 29004KT 15SM FEW035 FEW250 20/09 A3012 RMK CU1CI1 SLP200=

CYXU;2005-09-27 20:00;METAR CYXU 272000Z 27005KT 15SM FEW050 FEW250 21/09 A3010 RMK CU1CI1 SLP194=

CYXU;2005-09-27 21:00;METAR CYXU 272100Z 29003KT 15SM FEW050 21/09 A3009 RMK CU1 SLP192=

CYXU;2005-09-27 23:00;METAR CYXU 272300Z 20008KT 15SM SKC 17/11 A3010 RMK SLP193=

CYXU;2005-09-28 00:00;METAR CYXU 280000Z 20005KT 15SM SKC 15/11 A3010 RMK SLP196=

CYXU;2005-09-28 01:00;METAR CYXU 280100Z 19004KT 15SM SKC 14/10 A3011 RMK SLP199=

CYXU;2005-09-28 02:00;METAR CYXU 280200Z 00000KT 15SM SKC 13/10 A3011 RMK SLP201=

CYXU;2005-09-28 03:00;METAR CYXU 280300Z 09002KT 15SM SKC 12/10 A3011 RMK SLP198=

CYXU;2005-09-28 04:00;METAR CYXU 280400Z 09004KT 15SM SKC 11/09 A3011 RMK SLP197=

CYXU;2005-09-28 05:00;METAR CYXU 280500Z 09004KT 15SM SKC 11/09 A3010 RMK SLP194=

CYXU;2005-09-28 06:00;METAR CYXU 280600Z 08003KT 15SM FEW250 10/09 A3009 RMK CI0 SLP191=

CYXU;2005-09-28 07:00;METAR CYXU 280700Z 09003KT 15SM SKC 10/09 A3008 RMK SLP188=

CYXU;2005-09-28 07:40;SPECI CYXU 280740Z 08003KT 6SM BCFG SKC 09/=

CYXU;2005-09-28 08:00;METAR CYXU 280800Z 08004KT 5SM BR PRFG SKC 08/07 A3008 RMK SLP187=

CYXU;2005-09-28 09:00;METAR CYXU 280900Z 09004KT 15SM SKC 10/08 A3007 RMK SLP184=

CYXU;2005-09-28 10:00;METAR CYXU 281000Z 09005KT 15SM FEW030 09/08 A3007 RMK SC1 TR SC SLP185=

CYXU;2005-09-28 11:00;METAR CYXU 281100Z 11002KT 15SM FEW250 09/08 A3007 RMK CI1 TR CI SLP183=

CYXU;2005-09-28 12:00;METAR CYXU 281200Z 09003KT 15SM FEW035 FEW250 10/08 A3007 RMK CU1CI1 TR CU/CI SLP183=

CYXU;2005-09-28 13:00;METAR CYXU 281300Z 17003KT 15SM FEW035 FEW250 14/12 A3006 RMK SC1CI1 TR SC/CI SLP180=

CYXU;2005-09-28 14:00;METAR CYXU 281400Z 20007KT 15SM FEW250 18/13 A3004 RMK CI1 TR CI SLP176=

CYXU;2005-09-28 15:00;METAR CYXU 281500Z 20009KT 15SM FEW030 FEW250 20/13 A3002 RMK CU1CI1 TR CI SLP167=

CYXU;2005-09-28 16:00;METAR CYXU 281600Z 19012KT 15SM FEW035 FEW250 20/12 A3000 RMK CU2CI1 TR CI SLP158=

CYXU;2005-09-28 17:00;METAR CYXU 281700Z 18013G18KT 15SM FEW035 SCT250 20/12 A2997 RMK CF1CI3 TR CF SLP150=

CYXU;2005-09-28 18:00;METAR CYXU 281800Z 17011KT 15SM FEW035 SCT250 21/12 A2995 RMK CF1CI1 SLP141=

CYXU;2005-09-28 19:00;METAR CYXU 281900Z 18012G18KT 15SM FEW035 BKN250 21/12 A2990 RMK CF1CI2 SLP125=

CYXU;2005-09-28 20:00;METAR CYXU 282000Z 19011G17KT 15SM OVC250 20/11 A2988 RMK CI6 SLP118=

CYXU;2005-09-28 21:00;METAR CYXU 282100Z 19013KT 15SM FEW160 OVC250 19/11 A2984 RMK AC1CI6 SLP105=

CYXU;2005-09-28 22:00;METAR CYXU 282200Z 18009KT 15SM FEW160 OVC230 19/10 A2983 RMK AC1CI7 SLP104=

CYXU;2005-09-28 23:00;METAR CYXU 282300Z 17006KT 15SM OVC230 17/12 A2982 RMK CI8 SLP098=

CYXU;2005-09-29 00:00;METAR CYXU 290000Z 14008KT 15SM OVC210 16/12 A2976 RMK CI8 PRESFR SLP078=

CYXU;2005-09-29 01:00;METAR CYXU 290100Z 15007KT 15SM OVC190 16/13 A2973 RMK CI8 SLP070=

CYXU;2005-09-29 02:00;METAR CYXU 290200Z 16008KT 15SM OVC180 18/13 A2968 RMK CI8 SLP054=

CYXU;2005-09-29 04:00;METAR CYXU 290400Z 19014G19KT 15SM OVC100 21/16 A2956 RMK AC8 PRESFR SLP008=

CYXU;2005-09-29 04:41;SPECI CYXU 290441Z 20012G20KT 15SM -RA SCT088 OVC100 20/ RMK AC3AC5=

CYXU;2005-09-29 05:00;METAR CYXU 290500Z 20011G18KT 10SM -RA OVC075 20/17 A2950 RMK AC8 BR PRESFR SLP988=

CYXU;2005-09-29 06:00;METAR CYXU 290600Z 20016G25KT 6SM -RA BR BKN025 OVC088 19/17 A2946 RMK SC7AC1 SLP971=

CYXU;2005-09-29 07:29;SPECI CYXU 290729Z 30019G31KT 6SM SHRA BR OVC026 13/ RMK SF8 TCU EMBDD=

CYXU;2005-09-29 08:00;METAR CYXU 290800Z 30016G27KT 10SM -SHRA BKN012 OVC020 12/11 A2954 RMK SF6SC2 TCU EMBDD BR PRESRR SLP000=

CYXU;2005-09-29 09:00;METAR CYXU 290900Z 28018G27KT 6SM -SHRA BR OVC014 11/10 A2958 RMK SF8 SLP017=

CYXU;2005-09-29 10:00;METAR CYXU 291000Z 30019G28KT 6SM -SHRA BR SCT010 OVC014 11/09 A2965 RMK SF4SC4 PRESRR TCU EMBD SLP039=

CYXU;2005-09-29 11:00;METAR CYXU 291100Z 30013G22KT 5SM -SHRA BR BKN018 OVC040 10/07 A2973 RMK SC5SC3 TCU EMBD SLP067=

CYXU;2005-09-29 12:00;METAR CYXU 291200Z 30018G31KT 10SM -SHRA FEW010 BKN030 09/07 A2979 RMK SF2SC4 TCU EMBD SLP090=

CYXU;2005-09-29 12:24;SPECI CYXU 291224Z 31014G20KT 15SM SCT030 09/ RMK SC4 TCU ASOCTD=

CYXU;2005-09-29 13:00;METAR CYXU 291300Z 29016G21KT 15SM -SHRA FEW030 BKN050 10/06 A2983 RMK SF2SC2 TCU ASOCTD RAINBOW SLP104=

CYXU;2005-09-29 13:49;SPECI CYXU 291349Z 30012G17KT 15SM FEW030 BKN050 09/ RMK SF1SC4=

CYXU;2005-09-29 14:00;METAR CYXU 291400Z 30013G19KT 15SM VCSH SCT050 10/05 A2989 RMK SC4 TCU ASOCTD SLP121=

CYXU;2005-09-29 15:00;METAR CYXU 291500Z 30017G24KT 15SM VCSH SCT060 11/02 A2993 RMK SC4 TCU ASOCTD SLP135=

CYXU;2005-09-29 15:16;SPECI CYXU 291516Z 29016G21KT 10SM -SHRA BKN050 09/ RMK SC7 TCU EMBD=

CYXU;2005-09-29 16:00;METAR CYXU 291600Z 30010G26KT 15SM VCSH BKN050 12/03 A2997 RMK SC6 TCU ASOCTD SLP150=

CYXU;2005-09-29 16:33;SPECI CYXU 291633Z 29019G29KT 10SM -SHRA BKN035 10/ RMK SC6 TCU EMBD=

CYXU;2005-09-29 17:00;METAR CYXU 291700Z 28014G20KT 15SM VCSH BKN035 11/05 A3000 RMK SC6 TCU ASOCTD SLP158=

CYXU;2005-09-29 18:00;METAR CYXU 291800Z 31015G25KT 15SM BKN035 BKN250 12/03 A3001 RMK CU6CI2 SLP162=

CYXU;2005-09-29 18:22;SPECI CYXU 291822Z 30014G21KT 7SM -SHRA BKN040TCU BKN250 12/ RMK TCU6CI1=

CYXU;2005-09-29 19:00;METAR CYXU 291900Z 29015KT 15SM -SHRA BKN044 BKN250 11/04 A3003 RMK SC5CI2 TCU EMBD SLP170=

CYXU;2005-09-29 19:08;SPECI CYXU 291908Z 27017G22KT 15SM VCSH BKN041 BKN250 11/ RMK SC5CI2 TCU EMBD=

CYXU;2005-09-29 20:00;METAR CYXU 292000Z 28015G20KT 15SM VCSH SCT040 BKN250 13/03 A3003 RMK SC4CI2 TCU ASOCTD SLP170=

CYXU;2005-09-29 21:00;METAR CYXU 292100Z 31011G17KT 15SM BKN041 BKN250 12/04 A3005 RMK SC5CI1 SLP178=

CYXU;2005-09-29 22:00;METAR CYXU 292200Z 28009KT 15SM SCT040 BKN200 13/04 A3005 RMK SC3CI3 SLP180=

CYXU;2005-09-29 23:00;METAR CYXU 292300Z 28005KT 15SM FEW030 SCT040 BKN200 11/04 A3006 RMK CU1SC3CI2 SLP183=

CYXU;2005-09-30 00:00;METAR CYXU 300000Z 29002KT 15SM SCT050 BKN200 10/04 A3007 RMK SC3CI1 SLP186=

CYXU;2005-09-30 01:00;METAR CYXU 300100Z 22002KT 15SM FEW055 FEW230 07/05 A3007 RMK SC2CI1 SLP187=

CYXU;2005-09-30 02:00;METAR CYXU 300200Z 23002KT 15SM FEW055 FEW220 08/05 A3006 RMK SC1CI2 SLP185=

CYXU;2005-09-30 03:00;METAR CYXU 300300Z 17002KT 15SM FEW240 07/05 A3007 RMK CI2 SLP187=

CYXU;2005-09-30 04:00;METAR CYXU 300400Z 00000KT 15SM FEW240 06/04 A3007 RMK CI2 SLP189=

CYXU;2005-09-30 05:00;METAR CYXU 300500Z 00000KT 15SM SCT220 06/04 A3007 RMK CI2 SLP189=

CYXU;2005-09-30 06:00;METAR CYXU 300600Z 25004KT 15SM SCT220 06/04 A3009 RMK CI2 SLP195=

CYXU;2005-09-30 07:00;METAR CYXU 300700Z 26003KT 15SM FEW230 06/03 A3009 RMK CI2 SLP195=

CYXU;2005-09-30 09:00;METAR CYXU 300900Z 00000KT 15SM BKN220 05/02 A3012 RMK CI2 SLP205=

CYXU;2005-09-30 10:00;METAR CYXU 301000Z 14002KT 15SM FEW220 04/02 A3012 RMK CI2 SLP204=

CYXU;2005-09-30 11:00;METAR CYXU 301100Z 00000KT 15SM SCT160 BKN220 05/03 A3013 RMK AC4CI2 SLP207=

CYXU;2005-09-30 12:00;METAR CYXU 301200Z 11003KT 15SM BKN160 BKN220 06/03 A3015 RMK AC5CI1 SLP215=

CYXU;2005-09-30 13:00;METAR CYXU 301300Z 00000KT 15SM SCT150 BKN220 09/04 A3015 RMK AC3CI2 SLP217=

CYXU;2005-09-30 14:00;METAR CYXU 301400Z 21004KT 15SM FEW160 BKN220 12/03 A3016 RMK AC2CI0 SLP218=

CYXU;2005-09-30 15:00;METAR CYXU 301500Z 25008KT 15SM FEW160 SCT230 13/03 A3014 RMK AC2CI0 SLP212=

CYXU;2005-09-30 16:00;METAR CYXU 301600Z 21011KT 15SM FEW140 SCT230 15/04 A3014 RMK AC2CC1 SLP210=

CYXU;2005-09-30 17:00;METAR CYXU 301700Z 23010G15KT 15SM FEW140 FEW230 16/04 A3013 RMK AC1CC1 SLP206=

CYXU;2005-09-30 18:00;METAR CYXU 301800Z 22010G16KT 15SM FEW140 FEW230 17/04 A3010 RMK AC1CI1 SLP196=

CYXU;2005-09-30 19:00;METAR CYXU 301900Z 19013KT 15SM FEW040 SCT230 17/07 A3008 RMK CU1CI2 SLP189=

CYXU;2005-09-30 20:00;METAR CYXU 302000Z 19013KT 15SM FEW040 SCT230 17/07 A3007 RMK CU1CI1 SLP185=

CYXU;2005-09-30 21:00;METAR CYXU 302100Z 20012G19KT 15SM FEW040 SCT230 16/06 A3007 RMK CF1CI2 SLP186=

CYXU;2005-09-30 22:00;METAR CYXU 302200Z 19011KT 15SM SCT230 15/05 A3007 RMK CI2 CONTRAILS SLP188=

CYXU;2005-09-30 23:00;METAR CYXU 302300Z 20007KT 15SM FEW230 13/04 A3007 RMK CI1 CONTRAILS SLP187=

CYXU;2005-10-01 00:00;METAR CYXU 010000Z 18004KT 15SM FEW230 12/04 A3008 RMK CI2 SLP191=

CYXU;2005-10-01 01:00;METAR CYXU 010100Z 17003KT 15SM FEW230 11/04 A3010 RMK CI1 SLP196=

CYXU;2005-10-01 02:00;METAR CYXU 010200Z 10003KT 15SM FEW230 10/05 A3011 RMK CI1 SLP200=

CYXU;2005-10-01 03:00;METAR CYXU 010300Z 10003KT 15SM FEW230 09/05 A3011 RMK CI1 SLP200=

CYXU;2005-10-01 04:00;METAR CYXU 010400Z 14004KT 15SM FEW230 08/05 A3010 RMK CI1 SLP196=

CYXU;2005-10-01 06:00;METAR CYXU 010600Z 02002KT 15SM SKC 11/08 A3009 RMK SLP192=

CYXU;2005-10-01 07:00;METAR CYXU 010700Z 17003KT 15SM SKC 08/06 A3010 RMK SLP195=

CYXU;2005-10-01 09:00;METAR CYXU 010900Z 19003KT 15SM SKC 08/06 A3012 RMK SLP203=

CYXU;2005-10-01 10:00;METAR CYXU 011000Z 25002KT 15SM SKC 11/08 A3014 RMK SLP210=

CYXU;2005-10-01 11:00;METAR CYXU 011100Z 22003KT 15SM FEW230 10/08 A3016 RMK CI1 SLP215=

CYXU;2005-10-01 12:00;METAR CYXU 011200Z 16004KT 15SM FEW230 10/09 A3017 RMK CI1 SLP220=

CYXU;2005-10-01 13:00;METAR CYXU 011300Z 20004KT 15SM FEW230 14/11 A3019 RMK CI1 SLP226=

CYXU;2005-10-01 14:00;METAR CYXU 011400Z 21008KT 15SM FEW230 17/10 A3019 RMK CI1 SLP228=

CYXU;2005-10-01 15:00;METAR CYXU 011500Z 20010KT 15SM FEW240 19/10 A3019 RMK CI1 SLP225=

CYXU;2005-10-01 16:00;METAR CYXU 011600Z 23011KT 15SM FEW240 20/10 A3020 RMK CI1 SLP228=

CYXU;2005-10-01 17:00;METAR CYXU 011700Z 23010KT 15SM FEW240 21/10 A3020 RMK CI1 SLP227=

CYXU;2005-10-01 18:00;METAR CYXU 011800Z 19012KT 15SM FEW240 21/11 A3018 RMK CI1 SLP221=

CYXU;2005-10-01 19:00;METAR CYXU 011900Z 20012KT 15SM FEW240 22/11 A3019 RMK CI1 SLP222=

CYXU;2005-10-01 20:00;METAR CYXU 012000Z 21010G15KT 15SM FEW240 21/10 A3019 RMK CI1 SLP223=

CYXU;2005-10-01 21:00;METAR CYXU 012100Z 20010G16KT 15SM FEW240 20/09 A3020 RMK CI1 SLP229=

CYXU;2005-10-01 22:00;METAR CYXU 012200Z 19007KT 15SM FEW240 19/08 A3021 RMK CI1 SLP232=

CYXU;2005-10-01 23:00;METAR CYXU 012300Z 18005KT 15SM FEW240 17/08 A3022 RMK CI1 SLP235=

CYXU;2005-10-02 00:00;METAR CYXU 020000Z 17004KT 15SM SKC 15/08 A3023 RMK SLP239=

CYXU;2005-10-02 01:00;METAR CYXU 020100Z 15003KT 15SM SKC 14/08 A3024 RMK SLP244=

CYXU;2005-10-02 02:00;METAR CYXU 020200Z 10003KT 15SM SKC 13/08 A3026 RMK SLP248=

CYXU;2005-10-02 03:00;METAR CYXU 020300Z 09003KT 15SM SKC 12/09 A3026 RMK SLP249=

CYXU;2005-10-02 04:00;METAR CYXU 020400Z 10003KT 10SM SKC 11/08 A3027 RMK SLP252=

CYXU;2005-10-02 05:00;METAR CYXU 020500Z 05002KT 6SM BR SKC 11/08 A3027 RMK SLP253=

CYXU;2005-10-02 06:00;METAR CYXU 020600Z 09004KT 6SM BR SKC 10/08 A3029 RMK SLP257=

CYXU;2005-10-02 07:00;METAR CYXU 020700Z 08004KT 6SM BR SKC 11/09 A3029 RMK SLP258=

CYXU;2005-10-02 09:00;METAR CYXU 020900Z 08004KT 5SM BR SKC 10/09 A3029 RMK SLP259=

CYXU;2005-10-02 10:00;METAR CYXU 021000Z 09004KT 2 1/2SM BR SKC 11/09 A3030 RMK FG1 SLP261=

CYXU;2005-10-02 10:47;SPECI CYXU 021047Z 09003KT 1/2SM R15/P6000FT/U FG SKC 10/ RMK FG6=

CYXU;2005-10-02 11:00;METAR CYXU 021100Z 09003KT 1/2SM R15/P6000FT/U FG SKC 10/09 A3031 RMK FG5 SLP266=

CYXU;2005-10-02 11:10;SPECI CYXU 021110Z 09004KT 1/4SM R15/P6000FT/D FG SKC 10/ RMK FG6=

CYXU;2005-10-02 11:39;SPECI CYXU 021139Z 08003KT 1/2SM R15/5000FT/N FG SKC 10/ RMK FG6=

CYXU;2005-10-02 12:00;METAR CYXU 021200Z 08004KT 1/2SM R15/4500FT/N FG SKC 10/09 A3032 RMK FG5 SLP270=

CYXU;2005-10-02 12:21;SPECI CYXU 021221Z 09004KT 3/4SM R15/P6000FT/U BR SKC 12/ RMK FG4=

CYXU;2005-10-02 12:44;SPECI CYXU 021244Z 09005KT 1SM R15/P6000FT/N BR SKC 13/ RMK FG2=

CYXU;2005-10-02 13:00;METAR CYXU 021300Z 09003KT 2SM BR SKC 14/12 A3034 RMK FG2 SLP275=

CYXU;2005-10-02 13:29;SPECI CYXU 021329Z 11004KT 3SM BR SKC 16/=

CYXU;2005-10-02 14:00;METAR CYXU 021400Z 13004KT 6SM HZ FEW250 18/15 A3034 RMK CI1 SLP278=

CYXU;2005-10-02 15:00;METAR CYXU 021500Z 15005KT 10SM FEW250 21/16 A3034 RMK CI1 SLP275=

CYXU;2005-10-02 16:00;METAR CYXU 021600Z 17006KT 15SM FEW250 23/15 A3033 RMK CI2 SLP272=

CYXU;2005-10-02 17:00;METAR CYXU 021700Z 16009KT 15SM SCT250 24/15 A3033 RMK CI2 SLP270=

CYXU;2005-10-02 18:00;METAR CYXU 021800Z 19010KT 15SM SCT250 25/15 A3032 RMK CI2 SLP266=

CYXU;2005-10-02 19:00;METAR CYXU 021900Z 18011KT 15SM BKN250 25/15 A3031 RMK CI1 SLP264=

CYXU;2005-10-02 20:00;METAR CYXU 022000Z 17006KT 15SM BKN250 25/14 A3030 RMK CI1 SLP262=

CYXU;2005-10-02 21:00;METAR CYXU 022100Z 18009KT 15SM BKN250 24/15 A3029 RMK CI1 SLP258=

CYXU;2005-10-02 22:00;METAR CYXU 022200Z 16007KT 15SM BKN250 23/15 A3028 RMK CI2 SLP254=

CYXU;2005-10-02 23:00;METAR CYXU 022300Z 15005KT 15SM BKN250 21/14 A3028 RMK CI2 SLP255=

CYXU;2005-10-03 00:00;METAR CYXU 030000Z 15003KT 15SM BKN250 19/14 A3029 RMK CI1 SLP258=

CYXU;2005-10-03 01:00;METAR CYXU 030100Z 00000KT 15SM FEW250 17/13 A3030 RMK CI1 OBS TKN 0109 SLP263=

CYXU;2005-10-03 02:00;METAR CYXU 030200Z 12003KT 15SM SKC 17/13 A3031 RMK SLP265=

CYXU;2005-10-03 03:00;METAR CYXU 030300Z 03004KT 15SM SKC 16/13 A3031 RMK SLP262=

CYXU;2005-10-03 04:00;METAR CYXU 030400Z 11004KT 15SM SKC 16/14 A3030 RMK SLP261=

CYXU;2005-10-03 05:00;METAR CYXU 030500Z 10004KT 8SM SKC 16/14 A3029 RMK SLP257=

CYXU;2005-10-03 06:00;METAR CYXU 030600Z 09004KT 8SM SKC 15/13 A3030 RMK SLP259=

CYXU;2005-10-03 07:00;METAR CYXU 030700Z 09004KT 6SM BR SKC 15/13 A3030 RMK SLP258=

CYXU;2005-10-03 08:00;METAR CYXU 030800Z 09004KT 4SM BR SKC 15/13 A3030 RMK SLP258=

CYXU;2005-10-03 09:00;METAR CYXU 030900Z 10004KT 3SM BR SCT250 16/14 A3029 RMK CI3 SLP255=

CYXU;2005-10-03 10:00;METAR CYXU 031000Z 00000KT 2 1/2SM BR SCT250 15/14 A3031 RMK CI4 SLP261=

CYXU;2005-10-03 11:00;METAR CYXU 031100Z 00000KT 1 1/2SM BR BKN040 16/14 A3033 RMK SC6 SLP267=

CYXU;2005-10-03 12:00;METAR CYXU 031200Z 09002KT 1 1/2SM BR BKN040 BKN250 16/15 A3033 RMK SC5CI2 SLP271=

CYXU;2005-10-03 13:00;METAR CYXU 031300Z 16003KT 2SM BR FEW040 BKN200 18/17 A3031 RMK SC2CI1 SLP265=

CYXU;2005-10-03 14:00;METAR CYXU 031400Z 19005KT 2 1/2SM HZ FEW040 BKN200 21/18 A3032 RMK SC1CI2 SLP268=

CYXU;2005-10-03 14:13;SPECI CYXU 031413Z 20004KT 3SM HZ FEW040 BKN200 21/ RMK SC1CI2=

CYXU;2005-10-03 15:00;METAR CYXU 031500Z 21006KT 5SM HZ FEW040 BKN200 22/18 A3033 RMK SC2CI1 SLP268=

CYXU;2005-10-03 16:00;METAR CYXU 031600Z 21004KT 7SM BKN077 23/18 A3033 RMK AC6 SLP268=

CYXU;2005-10-03 17:00;METAR CYXU 031700Z 18004KT 7SM BKN060 BKN200 23/19 A3031 RMK SC6CI2 SLP263=

CYXU;2005-10-03 18:00;METAR CYXU 031800Z 21006KT 8SM SCT060 BKN200 25/19 A3029 RMK SC3CI2 SLP255=

CYXU;2005-10-03 19:00;METAR CYXU 031900Z 20006KT 8SM FEW060 BKN200 25/18 A3028 RMK SC1CS6 SLP252=

CYXU;2005-10-03 20:00;METAR CYXU 032000Z 19009KT 8SM BKN200 26/19 A3028 RMK CS6 SLP252=

CYXU;2005-10-03 21:00;METAR CYXU 032100Z 18009KT 8SM SCT200 25/18 A3027 RMK CI3 SLP250=

CYXU;2005-10-03 22:00;METAR CYXU 032200Z 19009KT 10SM SCT200 24/18 A3027 RMK CI1 SLP250=

CYXU;2005-10-03 23:00;METAR CYXU 032300Z 18005KT 10SM SCT200 22/17 A3028 RMK CI1 SLP252=

CYXU;2005-10-04 00:00;METAR CYXU 040000Z 18005KT 10SM FEW200 20/17 A3028 RMK CI1 SLP253=

CYXU;2005-10-04 01:00;METAR CYXU 040100Z 14003KT 8SM SKC 19/16 A3028 RMK SLP254=

CYXU;2005-10-04 02:00;METAR CYXU 040200Z 12004KT 8SM SKC 18/15 A3029 RMK SLP255=

CYXU;2005-10-04 03:00;METAR CYXU 040300Z 12003KT 8SM SKC 18/15 A3029 RMK SLP254=

CYXU;2005-10-04 04:00;METAR CYXU 040400Z 10003KT 6SM HZ SKC 17/15 A3028 RMK SLP253=

CYXU;2005-10-04 05:00;METAR CYXU 040500Z 13004KT 5SM HZ FEW250 18/15 A3028 RMK CI1 SLP251=

CYXU;2005-10-04 06:00;METAR CYXU 040600Z 11002KT 3SM HZ FEW250 17/15 A3028 RMK CI1 SLP252=

CYXU;2005-10-04 07:00;METAR CYXU 040700Z 12002KT 2SM BR FEW250 16/14 A3027 RMK CI1 SLP249=

CYXU;2005-10-04 08:00;METAR CYXU 040800Z 00000KT 2SM BR SKC 16/14 A3027 RMK SLP247=

CYXU;2005-10-04 09:00;METAR CYXU 040900Z 09003KT 1SM R15/P6000FT/D BR SKC 15/14 A3027 RMK SLP249=

CYXU;2005-10-04 10:00;METAR CYXU 041000Z 08003KT 1SM R15/P6000FT/N BR SKC 15/14 A3028 RMK FG2 SLP252=

CYXU;2005-10-04 11:00;METAR CYXU 041100Z 12004KT 3/4SM R15/2400FT/N BR SKC 15/14 A3028 RMK FG2 SLP253=

CYXU;2005-10-04 11:29;SPECI CYXU 041129Z 13004KT 3/8SM R15/0700V1200FT/D FG SKC 16/ RMK FG3=

CYXU;2005-10-04 12:00;METAR CYXU 041200Z 12002KT 3/8SM R15/1000FT/N FG SKC 16/15 A3030 RMK FG2 SLP261=

CYXU;2005-10-04 12:14;SPECI CYXU 041214Z 11002KT 1/4SM R15/0700V1600FT/U FG SKC 16/ RMK FG2=

CYXU;2005-10-04 13:00;METAR CYXU 041300Z 10003KT 1/2SM R15/2800FT/N FG SKC 17/16 A3032 RMK FG2 SLP266=

CYXU;2005-10-04 13:29;SPECI CYXU 041329Z 12003KT 3/4SM R15/3500V5000FT/U BR SKC 19/ RMK FG2=

CYXU;2005-10-04 13:49;SPECI CYXU 041349Z 13004KT 1 3/4SM BR SKC 20/ RMK FG2=

CYXU;2005-10-04 14:00;METAR CYXU 041400Z 14003KT 2SM BR SKC 20/18 A3031 RMK FG1 SLP265=

CYXU;2005-10-04 15:00;METAR CYXU 041500Z 19006KT 3SM HZ SKC 23/19 A3031 RMK SLP262=

CYXU;2005-10-04 16:00;METAR CYXU 041600Z 18005KT 5SM HZ SKC 25/18 A3030 RMK SLP258=

CYXU;2005-10-04 17:00;METAR CYXU 041700Z 18008KT 6SM HZ SKC 26/18 A3028 RMK SLP252=

CYXU;2005-10-04 18:00;METAR CYXU 041800Z 18007KT 8SM SKC 26/18 A3026 RMK SLP245=

CYXU;2005-10-04 19:00;METAR CYXU 041900Z 19008KT 8SM SKC 26/18 A3025 RMK SLP240=

CYXU;2005-10-04 20:00;METAR CYXU 042000Z 15009KT 8SM SKC 25/17 A3024 RMK SLP236=

CYXU;2005-10-04 21:00;METAR CYXU 042100Z 16009KT 8SM SKC 25/16 A3023 RMK SLP236=

CYXU;2005-10-04 22:00;METAR CYXU 042200Z 18009KT 8SM SKC 23/16 A3023 RMK SLP236=

CYXU;2005-10-04 23:00;METAR CYXU 042300Z 16004KT 6SM HZ FEW250 21/16 A3022 RMK CI1 SLP232=

CYXU;2005-10-05 00:00;METAR CYXU 050000Z 14004KT 4SM HZ SKC 19/15 A3022 RMK SLP233=

CYXU;2005-10-05 01:00;METAR CYXU 050100Z 10003KT 4SM HZ SKC 19/15 A3022 RMK SLP234=

CYXU;2005-10-05 03:00;METAR CYXU 050300Z 10003KT 3SM HZ SKC 17/15 A3022 RMK SLP232=

CYXU;2005-10-05 04:00;METAR CYXU 050400Z 12003KT 3SM HZ SKC 17/15 A3021 RMK SLP230=

CYXU;2005-10-05 05:00;METAR CYXU 050500Z 12004KT 6SM HZ SKC 17/14 A3021 RMK SLP229=

CYXU;2005-10-05 06:00;METAR CYXU 050600Z 10003KT 3SM HZ SKC 17/14 A3021 RMK SLP228=

CYXU;2005-10-05 07:00;METAR CYXU 050700Z 14005KT 7SM SKC 16/14 A3020 RMK SLP226=

CYXU;2005-10-05 09:00;METAR CYXU 050900Z 10004KT 7SM MIFG SKC 15/13 A3022 RMK SLP231=

CYXU;2005-10-05 09:50;SPECI CYXU 050950Z 09004KT 1SM R15/P6000FT/D BR SKC 14/ RMK FG2=

CYXU;2005-10-05 10:00;METAR CYXU 051000Z 09004KT 1SM R15/P6000FT/U BR SKC 14/13 A3022 RMK FG2 SLP232=

CYXU;2005-10-05 10:42;SPECI CYXU 051042Z 09004KT 3/4SM R15/3000V4500FT/U BR SKC 15/ RMK FG2=

CYXU;2005-10-05 11:00;METAR CYXU 051100Z 10004KT 3/4SM R15/3000V4500FT/D BR SKC 15/14 A3022 RMK FG2 SLP232=

CYXU;2005-10-05 11:34;SPECI CYXU 051134Z 10004KT 1/2SM R15/3500FT/D FG SKC 14/ RMK FG2=

CYXU;2005-10-05 12:00;METAR CYXU 051200Z 10003KT 1/2SM R15/3500FT/N FG SKC 15/14 A3022 RMK FG2 SLP233=

CYXU;2005-10-05 12:45;SPECI CYXU 051245Z 12003KT 1SM R15/5500FT/U BR SKC 17/ RMK FG2=

CYXU;2005-10-05 13:00;METAR CYXU 051300Z 15005KT 2SM BR SKC 18/16 A3022 RMK FG1 SLP232=

CYXU;2005-10-05 13:36;SPECI CYXU 051336Z 18005KT 4SM BR SKC 19/ RMK FG1=

CYXU;2005-10-05 14:00;METAR CYXU 051400Z 18005KT 4SM HZ SKC 21/17 A3022 RMK QNH +16 SLP233=

CYXU;2005-10-05 15:00;METAR CYXU 051500Z 19007KT 7SM SKC 22/17 A3022 RMK HAZY SLP233=

CYXU;2005-10-05 16:00;METAR CYXU 051600Z 19007KT 7SM SKC 24/17 A3021 RMK HAZE SLP228=

CYXU;2005-10-05 17:00;METAR CYXU 051700Z 20010KT 10SM SKC 25/17 A3019 RMK SLP222=

CYXU;2005-10-05 18:00;METAR CYXU 051800Z 19008KT 10SM SKC 26/16 A3017 RMK SLP214=

CYXU;2005-10-05 21:00;METAR CYXU 052100Z 20007KT 12SM SKC 25/15 A3015 RMK SLP207=

CYXU;2005-10-05 23:00;METAR CYXU 052300Z 15006KT 10SM FEW220 20/15 A3015 RMK CI1 SLP208=

CYXU;2005-10-06 01:00;METAR CYXU 060100Z 11003KT 8SM SKC 17/14 A3014 RMK SLP208=

CYXU;2005-10-06 02:00;METAR CYXU 060200Z 10003KT 8SM SKC 16/14 A3014 RMK SLP206=

CYXU;2005-10-06 04:00;METAR CYXU 060400Z 12004KT 8SM SKC 16/14 A3011 RMK SLP196=

CYXU;2005-10-06 05:00;METAR CYXU 060500Z 13006KT 10SM SKC 16/14 A3010 RMK SLP192=

CYXU;2005-10-06 06:00;METAR CYXU 060600Z 13005KT 8SM SKC 16/14 A3010 RMK SLP189=

CYXU;2005-10-06 09:00;METAR CYXU 060900Z 13003KT 5SM BR SKC 16/15 A3007 RMK SLP181=

CYXU;2005-10-06 10:00;METAR CYXU 061000Z 14003KT 5SM R15/3000FT/N BR SKC 16/15 A3007 RMK SLP179=

CYXU;2005-10-06 10:41;SPECI CYXU 061041Z 13003KT 3/4SM R15/1200FT/N BR SKC 16/ RMK FG2=

CYXU;2005-10-06 11:00;METAR CYXU 061100Z 14004KT 1 1/2SM R15/1600FT/N BR SKC 16/15 A3006 RMK FG1 FG BANK N-E SLP176=

CYXU;2005-10-06 12:00;METAR CYXU 061200Z 16002KT 1 1/2SM BR SKC 17/15 A3005 RMK FG1 SLP174=

CYXU;2005-10-06 12:18;SPECI CYXU 061218Z 15004KT 2 1/2SM BR SKC 17/ RMK FG1=

CYXU;2005-10-06 13:00;METAR CYXU 061300Z 18005KT 3SM BR SKC 19/17 A3004 RMK SLP172=

CYXU;2005-10-06 14:00;METAR CYXU 061400Z 19008KT 5SM HZ SKC 21/18 A3003 RMK SLP169=

CYXU;2005-10-06 15:00;METAR CYXU 061500Z 18012KT 6SM HZ FEW018 23/18 A3002 RMK CF1 SLP165=

CYXU;2005-10-06 16:00;METAR CYXU 061600Z 19010G15KT 10SM FEW022 24/18 A3002 RMK CF1 SLP163=

CYXU;2005-10-06 17:00;METAR CYXU 061700Z 19012KT 15SM FEW022 25/19 A3000 RMK CF1 SLP159=

CYXU;2005-10-06 18:00;METAR CYXU 061800Z 18012KT 15SM FEW025 25/18 A2998 RMK CU1 SLP148=

CYXU;2005-10-06 19:00;METAR CYXU 061900Z 20011G19KT 15SM FEW030 25/17 A2997 RMK CU2 SLP144=

CYXU;2005-10-06 21:00;METAR CYXU 062100Z 21011G19KT 15SM FEW030 25/16 A2995 RMK CU2 HZ SLP139=

CYXU;2005-10-06 22:00;METAR CYXU 062200Z 20011KT 15SM FEW030 BKN230 24/16 A2995 RMK CU1CI2 SLP138=

CYXU;2005-10-06 23:00;METAR CYXU 062300Z 31009KT 15SM FEW020 SCT060 BKN220 23/17 A2996 RMK CF1CU2CI2 TCU EMBD SLP141=

CYXU;2005-10-06 23:50;SPECI CYXU 062350Z 32008KT 15SM BKN009 OVC060 RMK SC5SC3 TCU EMBD=

CYXU;2005-10-07 00:00;METAR CYXU 070000Z 31012KT 15SM BKN009 OVC060 18/15 A2999 RMK SC5SC3 SLP156=

CYXU;2005-10-07 00:29;SPECI CYXU 070029Z 32007G15KT 15SM BKN011 OVC050 RMK SC5SC3=

CYXU;2005-10-07 01:00;METAR CYXU 070100Z 32010G17KT 15SM BKN017 BKN050 17/13 A3000 RMK SC5SC2 SLP159=

CYXU;2005-10-07 02:00;METAR CYXU 070200Z 32008G15KT 15SM FEW017 16/11 A3001 RMK SC2 SLP162=

CYXU;2005-10-07 03:00;METAR CYXU 070300Z 33008G15KT 15SM FEW063 16/11 A3000 RMK SC2 SLP159=

CYXU;2005-10-07 04:00;METAR CYXU 070400Z 31004KT 15SM BKN016 BKN034 15/11 A3002 RMK SC5SC2 SLP163=

CYXU;2005-10-07 05:00;METAR CYXU 070500Z 32005KT 15SM BKN036 OVC048 14/10 A3002 RMK SC6SC2 SLP163=

CYXU;2005-10-07 06:00;METAR CYXU NIL=

CYXU;2005-10-07 09:00;METAR CYXU 070900Z 01006KT 15SM BKN037 BKN052 12/07 A3003 RMK SC5SC2 SLP169=

CYXU;2005-10-07 10:00;METAR CYXU 071000Z 01007KT 15SM BKN040 OVC048 12/07 A3003 RMK SC6SC2 SLP167=

CYXU;2005-10-07 11:00;METAR CYXU 071100Z 36008KT 15SM OVC042 11/07 A3004 RMK SC8 SLP170=

CYXU;2005-10-07 12:00;METAR CYXU 071200Z 36007KT 15SM OVC044 12/07 A3004 RMK SC8 SLP174=

CYXU;2005-10-07 13:00;METAR CYXU 071300Z 36007G15KT 15SM FEW015 BKN042 OVC060 12/06 A3005 RMK SC1SC7SC1 SLP178=

CYXU;2005-10-07 13:16;SPECI CYXU 071316Z 36008KT 15SM -SHRA FEW015 BKN042 OVC057 12/ RMK SC1SC6SC2=

CYXU;2005-10-07 14:00;METAR CYXU 071400Z 02011G16KT 15SM -SHRA FEW015 BKN052 OVC080 11/07 A3004 RMK CF1SC6AC2 SLP175=

CYXU;2005-10-07 14:47;SPECI CYXU 071447Z 02008KT 15SM FEW015 BKN049 BKN080 12/ RMK CF1SC5AC2=

CYXU;2005-10-07 15:00;METAR CYXU 071500Z 01008KT 15SM FEW015 BKN044 BKN095 12/06 A3005 RMK CF1SC5AC2 SLP178=

CYXU;2005-10-07 16:00;METAR CYXU 071600Z 02010KT 15SM FEW020 FEW080 BKN120 14/06 A3003 RMK CU1AC2AC3 SLP171=

CYXU;2005-10-07 17:00;METAR CYXU 071700Z 01008G15KT 15SM FEW020 SCT070 BKN120 15/06 A3001 RMK CU1AC3AC3 SLP165=

CYXU;2005-10-07 18:00;METAR CYXU 071800Z 03005KT 15SM FEW040 SCT068 OVC120 15/06 A2999 RMK SC2AC2AC3 SLP156=

CYXU;2005-10-07 20:00;METAR CYXU 072000Z 36009KT 15SM FEW020 SCT070 BKN094 15/07 A2996 RMK SC2AC2AC4 SLP147=

CYXU;2005-10-07 21:00;METAR CYXU 072100Z 36008KT 15SM FEW020 SCT050 BKN110 15/06 A2996 RMK SC2SC2AC2 SLP148=

CYXU;2005-10-07 22:00;METAR CYXU 072200Z 02013KT 15SM FEW037 SCT045 BKN140 13/06 A2997 RMK SC2SC2AC1 SLP149=

CYXU;2005-10-07 23:00;METAR CYXU 072300Z 01010G18KT 15SM FEW038 BKN100 11/05 A2998 RMK SC2AC3 SLP154=

CYXU;2005-10-08 00:00;METAR CYXU 080000Z 01013G19KT 15SM BKN053 10/03 A3000 RMK SC6 SLP162=

CYXU;2005-10-08 01:00;METAR CYXU 080100Z 01013KT 15SM BKN054 BKN070 10/03 A3000 RMK SC5AC2 SLP162=

CYXU;2005-10-08 02:00;METAR CYXU 080200Z 01009KT 15SM BKN055 BKN075 09/03 A3001 RMK SC5AC2 SLP165=

CYXU;2005-10-08 03:00;METAR CYXU 080300Z 36008KT 15SM BKN057 BKN063 09/04 A3000 RMK SC5SC2 SLP163=

CYXU;2005-10-08 04:00;METAR CYXU 080400Z 02009KT 15SM FEW024 OVC057 09/03 A2999 RMK SC2SC5 SLP160=

CYXU;2005-10-08 05:00;METAR CYXU 080500Z 03008KT 15SM OVC022 09/03 A2999 RMK SC8 SLP160=

CYXU;2005-10-08 06:00;METAR CYXU 080600Z 04009KT 15SM OVC023 08/02 A2999 RMK SC8 SLP159=

CYXU;2005-10-08 07:00;METAR CYXU 080700Z 03008KT 15SM BKN021 08/01 A3000 RMK SC7 SLP160=

CYXU;2005-10-08 08:00;METAR CYXU 080800Z 03008KT 15SM FEW021 BKN200 07/01 A3000 RMK SC2CI6 SLP163=

CYXU;2005-10-08 09:00;METAR CYXU 080900Z 02009KT 15SM BKN160 07/01 A3001 RMK AC7 SLP166=

CYXU;2005-10-08 10:00;METAR CYXU 081000Z 03010KT 15SM FEW030 BKN160 06/00 A3001 RMK SC1AC6 SLP166=

CYXU;2005-10-08 11:00;METAR CYXU 081100Z 02008KT 15SM FEW030 BKN180 06/00 A3003 RMK SC2AC5 VIRGA SLP173=

CYXU;2005-10-08 12:00;METAR CYXU 081200Z 03010G15KT 15SM FEW024 BKN160 06/M00 A3004 RMK SC1AC6 VIRGA SLP177=

CYXU;2005-10-08 13:00;METAR CYXU 081300Z 04008KT 15SM SCT024 BKN160 06/00 A3005 RMK SC3AC4 VIRGA SLP181=

CYXU;2005-10-08 14:00;METAR CYXU 081400Z 04010KT 15SM -SHRA SCT024 BKN150 06/01 A3005 RMK SC4AC3 CU ASOCTD / VERY LGT PCPN SLP182=

CYXU;2005-10-08 14:34;SPECI CYXU 081434Z 05009G15KT 15SM SCT024 BKN130 07/ RMK SC3AC4=

CYXU;2005-10-08 15:00;METAR CYXU 081500Z 03011KT 15SM SCT024 BKN160 07/01 A3004 RMK SC4AC3 SLP179=

CYXU;2005-10-08 16:00;METAR CYXU 081600Z 05010KT 15SM SCT025 BKN140 08/02 A3004 RMK SC3AC4 SLP179=

CYXU;2005-10-08 17:00;METAR CYXU 081700Z 04008KT 15SM SCT024 OVC160 08/02 A3003 RMK SC4AC4 OBS TAKEN HR+6 SLP176=

CYXU;2005-10-08 18:00;METAR CYXU 081800Z 02009KT 15SM BKN027 BKN160 09/02 A3003 RMK SC5AC2 SLP175=

CYXU;2005-10-08 18:34;SPECI CYXU 081834Z 36009KT 15SM SCT028 BKN180 10/ RMK SC3AC2=

CYXU;2005-10-08 19:00;METAR CYXU 081900Z 36011KT 15SM FEW030 BKN180 11/03 A3002 RMK SC1AC5 SLP170=

CYXU;2005-10-08 20:00;METAR CYXU 082000Z 02008KT 15SM FEW030 BKN180 11/03 A3002 RMK SC1AC5 SLP171=

CYXU;2005-10-08 21:00;METAR CYXU 082100Z 01006KT 15SM FEW032 BKN200 11/03 A3001 RMK SC1CI5 SLP168=

CYXU;2005-10-08 22:00;METAR CYXU 082200Z 01003KT 15SM FEW130 BKN190 11/03 A3003 RMK AC2AC4 SLP172=

CYXU;2005-10-08 23:00;METAR CYXU 082300Z 01005KT 15SM FEW180 BKN200 10/02 A3003 RMK AC2CI4 SLP173=

CYXU;2005-10-09 00:00;METAR CYXU 090000Z 01006KT 15SM BKN200 10/02 A3004 RMK CI5 SLP178=

CYXU;2005-10-09 01:00;METAR CYXU 090100Z 03007KT 15SM BKN200 10/01 A3005 RMK CI6 SLP181=

CYXU;2005-10-09 02:00;METAR CYXU 090200Z 02006KT 15SM FEW200 BKN220 08/01 A3006 RMK CI2CI3 SLP183=

CYXU;2005-10-09 03:00;METAR CYXU 090300Z 36005KT 15SM SCT200 08/02 A3005 RMK CI3 SLP183=

CYXU;2005-10-09 04:00;METAR CYXU 090400Z 36006KT 15SM SCT220 07/02 A3005 RMK CI3 SLP181=

CYXU;2005-10-09 05:00;METAR CYXU 090500Z 36005KT 15SM SCT220 06/02 A3005 RMK CI4 SLP181=

CYXU;2005-10-09 06:00;METAR CYXU 090600Z 03006KT 15SM BKN240 07/01 A3004 RMK CI6 SLP178=

CYXU;2005-10-09 07:00;METAR CYXU 090700Z 02005KT 15SM SCT230 06/01 A3004 RMK CI3 SLP179=

CYXU;2005-10-09 09:00;METAR CYXU 090900Z 02005KT 15SM FEW230 04/00 A3006 RMK CI2 SLP184=

CYXU;2005-10-09 10:00;METAR CYXU 091000Z 03006KT 15SM FEW250 04/00 A3007 RMK CI1 SLP188=

CYXU;2005-10-09 11:00;METAR CYXU 091100Z 03006KT 15SM FEW120 04/00 A3007 RMK AC1 SLP190=

CYXU;2005-10-09 12:00;METAR CYXU 091200Z 02006KT 15SM FEW120 03/00 A3008 RMK AC1 SLP194=

CYXU;2005-10-09 13:00;METAR CYXU 091300Z 02005KT 15SM FEW120 FEW250 04/00 A3010 RMK AC1CI1 SLP198=

CYXU;2005-10-09 14:00;METAR CYXU 091400Z 05008KT 15SM FEW120 FEW250 07/02 A3010 RMK AC1CI1 SLP200=

CYXU;2005-10-09 15:00;METAR CYXU 091500Z 05008KT 15SM FEW120 FEW250 09/02 A3010 RMK AC1CI1 SLP197=

CYXU;2005-10-09 16:00;METAR CYXU 091600Z 04007KT 15SM FEW120 11/03 A3008 RMK AC1 SLP193=

CYXU;2005-10-09 17:00;METAR CYXU 091700Z 03008KT 15SM FEW160 13/03 A3007 RMK AC1 SLP189=

CYXU;2005-10-09 18:00;METAR CYXU 091800Z 07009KT 15SM FEW160 FEW230 15/03 A3006 RMK AC1CI1 SLP184=

CYXU;2005-10-09 19:00;METAR CYXU 091900Z 05010KT 15SM FEW230 15/03 A3005 RMK CI1 SLP180=

CYXU;2005-10-09 20:00;METAR CYXU 092000Z 04006KT 15SM FEW050 FEW230 16/03 A3005 RMK SC1CI1 SC=

CYXU;2005-10-09 21:00;METAR CYXU 092100Z 05007KT 15SM FEW050 FEW230 16/04 A3005 RMK SC1CI1 SC=

CYXU;2005-10-09 22:00;METAR CYXU 092200Z 03005KT 15SM FEW050 FEW220 15/05 A3006 RMK SC1CI1 SC SE SLP183=

CYXU;2005-10-09 23:00;METAR CYXU 092300Z 06005KT 15SM FEW050 FEW220 13/06 A3008 RMK SC2CI1 SC SE SLP189=

CYXU;2005-10-10 00:00;METAR CYXU 100000Z 09005KT 15SM SCT051 12/06 A3009 RMK SC4 SLP195=

CYXU;2005-10-10 01:00;METAR CYXU 100100Z 09007KT 15SM BKN056 12/07 A3010 RMK SC6 SLP200=

CYXU;2005-10-10 02:00;METAR CYXU 100200Z 08008KT 15SM BKN056 11/06 A3011 RMK SC6 SLP201=

CYXU;2005-10-10 03:00;METAR CYXU 100300Z 08008KT 15SM SCT056 10/06 A3011 RMK SC3 SLP201=

CYXU;2005-10-10 03:26;SPECI CYXU 100326Z 08009KT 15SM BKN013 BKN056 10/ RMK SC5SC2=

CYXU;2005-10-10 04:00;METAR CYXU 100400Z 09010KT 15SM BKN012 BKN056 10/06 A3011 RMK SC6SC2 SLP200=

CYXU;2005-10-10 05:00;METAR CYXU 100500Z 09009KT 15SM OVC011 10/07 A3010 RMK SC8 SLP198=

CYXU;2005-10-10 06:00;METAR CYXU 100600Z 10010KT 15SM OVC010 10/07 A3011 RMK SC8 SLP198=

CYXU;2005-10-10 07:00;METAR CYXU 100700Z 10009KT 10SM OVC010 10/07 A3010 RMK SC8 SLP194=

CYXU;2005-10-10 09:00;METAR CYXU 100900Z 09009KT 8SM OVC005 10/08 A3010 RMK SF8 SLP193=

CYXU;2005-10-10 10:00;METAR CYXU 101000Z 09010KT 8SM OVC005 10/08 A3010 RMK SC8 SLP194=

CYXU;2005-10-10 10:45;SPECI CYXU 101045Z 07006KT 8SM OVC006 10/ RMK SC8=

CYXU;2005-10-10 11:00;METAR CYXU 101100Z 07010KT 8SM OVC006 10/08 A3010 RMK SC8 SLP196=

CYXU;2005-10-10 11:40;SPECI CYXU 101140Z 09006KT 5SM BR OVC005 10/ RMK SC8=

CYXU;2005-10-10 12:00;METAR CYXU 101200Z 08006KT 5SM BR OVC005 10/08 A3012 RMK SC8 SLP203=

CYXU;2005-10-10 13:00;METAR CYXU 101300Z 08007KT 3SM BR OVC006 10/09 A3012 RMK SC8 SLP204=

CYXU;2005-10-10 13:45;SPECI CYXU 101345Z 07008KT 7SM OVC008 10/ RMK SC8=

CYXU;2005-10-10 14:00;METAR CYXU 101400Z 08007KT 7SM OVC008 11/09 A3013 RMK SC8 SLP205=

CYXU;2005-10-10 15:00;METAR CYXU 101500Z 09008KT 7SM OVC006 11/09 A3013 RMK SC8 SLP209=

CYXU;2005-10-10 16:00;METAR CYXU 101600Z 06007KT 10SM OVC009 11/09 A3011 RMK SC8 SLP202=

CYXU;2005-10-10 16:34;SPECI CYXU 101634Z 06006KT 10SM OVC011 12/ RMK SC8=

CYXU;2005-10-10 17:00;METAR CYXU 101700Z 08007KT 10SM OVC011 12/09 A3012 RMK SC8 SLP205=

CYXU;2005-10-10 18:00;METAR CYXU 101800Z 08008KT 10SM OVC011 12/09 A3011 RMK SC8 SLP200=

CYXU;2005-10-10 19:00;METAR CYXU 101900Z 07008KT 10SM OVC011 12/09 A3010 RMK SC8 SLP196=

CYXU;2005-10-10 20:33;SPECI CYXU 102033Z 05005KT 10SM OVC015 13/ RMK SC8=

CYXU;2005-10-10 21:00;METAR CYXU 102100Z 04007KT 12SM OVC015 13/09 A3009 RMK SC8 SLP192=

CYXU;2005-10-10 21:26;SPECI CYXU 102126Z 07005KT 12SM OVC017 13/ RMK SC8=

CYXU;2005-10-10 23:00;METAR CYXU 102300Z 13004KT 12SM OVC019 13/09 A3012 RMK SC8 SLP203=

CYXU;2005-10-11 00:00;METAR CYXU 110000Z 08007KT 10SM OVC018 13/09 A3013 RMK SC8 SLP206=

CYXU;2005-10-11 01:00;METAR CYXU 110100Z 07004KT 10SM OVC014 12/10 A3013 RMK SC8 SLP207=

CYXU;2005-10-11 02:00;METAR CYXU 110200Z 06005KT 10SM BKN012 OVC016 12/09 A3014 RMK SC5SC3 SLP210=

CYXU;2005-10-11 03:00;METAR CYXU 110300Z 06005KT 10SM BKN011 OVC014 12/09 A3015 RMK SC5SC3 SLP213=

CYXU;2005-10-11 03:14;SPECI CYXU 110314Z 05007KT 10SM SCT012 BKN019 BKN110 12/ RMK SC3SC3AC1=

CYXU;2005-10-11 04:00;METAR CYXU 110400Z 08005KT 12SM BKN015 BKN110 11/09 A3014 RMK SC6AC2 SLP210=

CYXU;2005-10-11 05:00;METAR CYXU 110500Z 06004KT 12SM BKN015 BKN110 11/08 A3013 RMK SC6AC1 SLP208=

CYXU;2005-10-11 07:00;METAR CYXU 110700Z 05004KT 12SM BKN017 11/08 A3012 RMK SC7 SLP204=

CYXU;2005-10-11 08:00;METAR CYXU 110800Z 03004KT 12SM BKN016 11/08 A3012 RMK SC7 SLP203=

CYXU;2005-10-11 08:35;SPECI CYXU 110835Z 03005KT 12SM SCT009 BKN016 11/ RMK SF3SC4=

CYXU;2005-10-11 10:00;METAR CYXU 111000Z 04005KT 15SM OVC013 11/08 A3014 RMK SC8 SLP210=

CYXU;2005-10-11 10:34;SPECI CYXU 111034Z 04007KT 15SM BKN009 OVC016 10/ RMK SF6SC2=

CYXU;2005-10-11 11:00;METAR CYXU 111100Z 04006KT 15SM OVC010 10/08 A3017 RMK SC8 SLP219=

CYXU;2005-10-11 12:00;METAR CYXU 111200Z 04009KT 15SM BKN013 11/08 A3017 RMK SC7 SLP221=

CYXU;2005-10-11 12:46;SPECI CYXU 111246Z 06008KT 15SM SCT013 11/ RMK CF4=

CYXU;2005-10-11 13:00;METAR CYXU 111300Z 07006KT 15SM FEW015 11/08 A3019 RMK CF2 SLP226=

CYXU;2005-10-11 14:00;METAR CYXU 111400Z 07014KT 15SM BKN017 13/09 A3018 RMK SC6 SLP224=

CYXU;2005-10-11 15:00;METAR CYXU 111500Z 04009KT 15SM OVC019 13/09 A3019 RMK SC8 SLP226=

CYXU;2005-10-11 16:00;METAR CYXU 111600Z 04006KT 15SM BKN019 14/09 A3019 RMK SC7 SLP226=

CYXU;2005-10-11 18:00;METAR CYXU 111800Z 08008KT 15SM OVC025 14/09 A3018 RMK SC8 SLP222=

CYXU;2005-10-11 19:00;METAR CYXU 111900Z 07010KT 15SM OVC024 15/10 A3017 RMK SC7 SLP218=

CYXU;2005-10-11 21:00;METAR CYXU 112100Z 08009KT 15SM OVC022 15/10 A3017 RMK SC8 SLP217=

CYXU;2005-10-11 22:00;METAR CYXU 112200Z 07008KT 15SM OVC021 14/10 A3017 RMK SC8 SLP219=

CYXU;2005-10-11 23:00;METAR CYXU 112300Z 07004KT 15SM BKN018 OVC025 14/10 A3018 RMK SC6SC2 SLP222=

CYXU;2005-10-11 23:50;SPECI CYXU 112350Z 07007KT 15SM OVC013 14/ RMK SC8=

CYXU;2005-10-12 00:00;METAR CYXU 120000Z 08006KT 15SM OVC014 14/10 A3019 RMK SC8 SLP226=

CYXU;2005-10-12 01:00;METAR CYXU 120100Z 09008KT 12SM -DZ OVC012 13/11 A3020 RMK ST8 SLP228=

CYXU;2005-10-12 01:17;SPECI CYXU 120117Z 09008KT 12SM -DZ SCT008 OVC011 13/ RMK SF3ST5=

CYXU;2005-10-12 01:32;SPECI CYXU 120132Z 08008KT 12SM BKN007 OVC011 13/ RMK SF5ST3=

CYXU;2005-10-12 02:00;METAR CYXU 120200Z 08009KT 10SM OVC007 13/11 A3020 RMK ST8 SLP230=

CYXU;2005-10-12 03:00;METAR CYXU 120300Z 07007KT 8SM OVC008 12/11 A3019 RMK ST8 SLP227=

CYXU;2005-10-12 04:00;METAR CYXU 120400Z 09009KT 10SM BKN008 BKN014 12/11 A3019 RMK SF5SC2 SLP226=

CYXU;2005-10-12 05:00;METAR CYXU 120500Z 08008KT 10SM -DZ BKN008 OVC013 12/11 A3018 RMK SF6SC2 SLP224=

CYXU;2005-10-12 06:00;METAR CYXU 120600Z 08008KT 12SM SCT008 BKN012 BKN034 12/11 A3018 RMK SF4SC2SC1 SLP221=

CYXU;2005-10-12 06:24;SPECI CYXU 120624Z 08007KT 10SM BKN007 OVC012 12/ RMK SF6SC2=

CYXU;2005-10-12 07:00;METAR CYXU 120700Z 09008KT 10SM BKN009 BKN017 12/10 A3017 RMK SF6SC1 SLP220=

CYXU;2005-10-12 08:00;METAR CYXU 120800Z 08008KT 10SM BKN008 BKN014 12/10 A3016 RMK SF6SC1 SLP214=

CYXU;2005-10-12 10:00;METAR CYXU 121000Z 08008KT 10SM -DZ OVC008 12/10 A3016 RMK ST8 SLP215=

CYXU;2005-10-12 11:00;METAR CYXU 121100Z 08008KT 6SM -DZ BR OVC006 12/11 A3015 RMK ST8 SLP213=

CYXU;2005-10-12 12:00;METAR CYXU 121200Z 08008KT 6SM BR OVC006 12/10 A3017 RMK ST8 SLP219=

CYXU;2005-10-12 13:00;METAR CYXU 121300Z 08008KT 6SM BR OVC007 12/10 A3017 RMK ST8 SLP219=

CYXU;2005-10-12 13:47;SPECI CYXU 121347Z 08010G15KT 2 1/2SM -DZ BR OVC005 12/ RMK FG1SF7=

CYXU;2005-10-12 14:00;METAR CYXU 121400Z 09011KT 3SM -DZ BR OVC006 12/11 A3017 RMK SF8 SLP219=

CYXU;2005-10-12 14:32;SPECI CYXU 121432Z 09010KT 6SM BR OVC008 13/ RMK SF8=

CYXU;2005-10-12 15:00;METAR CYXU 121500Z 08013KT 8SM OVC010 14/11 A3017 RMK SC8 SLP217=

CYXU;2005-10-12 16:00;METAR CYXU 121600Z 09012KT 10SM OVC011 14/11 A3017 RMK SC8 SLP217=

CYXU;2005-10-12 17:00;METAR CYXU 121700Z 09011KT 10SM OVC013 14/11 A3015 RMK SC8 SLP213=

CYXU;2005-10-12 17:29;SPECI CYXU 121729Z 09011KT 6SM -DZ BR OVC011 14/ RMK ST8=

CYXU;2005-10-12 18:00;METAR CYXU 121800Z 09010KT 8SM OVC008 14/11 A3014 RMK ST8 SLP209=

CYXU;2005-10-12 18:30;SPECI CYXU 121830Z 09010KT 2SM -DZ BR OVC007 13/ RMK FG1ST7=

CYXU;2005-10-12 18:48;SPECI CYXU 121848Z 07008KT 2 1/4SM -DZ BR OVC004 13/ RMK FG1ST7=

CYXU;2005-10-12 19:00;METAR CYXU 121900Z 08009KT 2 1/2SM -DZ BR SCT004 OVC009 13/12 A3013 RMK FG1SF2ST5 SLP206=

CYXU;2005-10-12 19:15;SPECI CYXU 121915Z 08009KT 2 1/2SM -DZ BR OVC004 13/ RMK FG1ST7=

CYXU;2005-10-13 01:43;SPECI CYXU 130143Z 07007KT 4SM -DZ BR FEW005 OVC010 13/ RMK SF2ST6=

CYXU;2005-10-13 02:27;SPECI CYXU 130227Z 08008KT 5SM -DZ BR BKN004 OVC046 12/ RMK SF5ST3=

CYXU;2005-10-13 03:30;SPECI CYXU 130330Z 07008KT 4SM -DZ BR OVC004 12/ RMK ST8=

CYXU;2005-10-13 12:18;SPECI CYXU 131218Z 00000KT 1 3/4SM BR OVC002 12/ RMK FG1ST7=

CYXU;2005-10-13 12:29;SPECI CYXU 131229Z 07002KT 1 3/4SM BR VV001 12/ RMK FG8=

CYXU;2005-10-13 13:40;SPECI CYXU 131340Z 08004KT 1 3/4SM BR VV002 13/ RMK FG8=

CYXU;2005-10-13 15:36;SPECI CYXU 131536Z 00000KT 2 1/2SM BR BKN006 OVC033 15/ RMK FG1CF6SC2=

CYXU;2005-10-14 01:00;METAR CYXU 140100Z 10004KT 5SM BR BKN012 OVC050 15/13 A3012 RMK SF5SC3 SLP202=

CYXU;2005-10-14 02:00;METAR CYXU 140200Z 11003KT 4SM BR BKN008 OVC016 15/13 A3013 RMK SF6SC2 SLP203=

CYXU;2005-10-14 02:40;SPECI CYXU 140240Z 12006KT 4SM BR FEW008 BKN046 15/ RMK SF1SC6=

CYXU;2005-10-14 03:00;METAR CYXU 140300Z 11005KT 4SM BR FEW046 14/13 A3012 RMK SC1 SLP201=

CYXU;2005-10-14 03:51;SPECI CYXU 140351Z 09002KT 2SM BR BKN002 13/ RMK FG2SF3=

CYXU;2005-10-14 04:00;METAR CYXU 140400Z 08003KT 2SM BR BKN002 13/12 A3012 RMK FG2SF4 SLP202=

CYXU;2005-10-14 04:28;SPECI CYXU 140428Z 08003KT 3/8SM R15/3500VP6000FT/D FG SCT001 13/ RMK FG2SF2=

CYXU;2005-10-14 04:38;SPECI CYXU 140438Z 09004KT 1/4SM R15/2000FT/N FG VV001 13/ RMK FG8=

CYXU;2005-10-14 05:00;METAR CYXU 140500Z 11003KT 1/8SM R15/1200FT/N FG VV001 13/12 A3012 RMK FG8 SLP200=

CYXU;2005-10-14 05:39;SPECI CYXU 140539Z 12002KT 1/2SM R15/P6000FT/U FG VV002 13/ RMK FG8=

CYXU;2005-10-14 06:00;METAR CYXU 140600Z 14002KT 1/2SM R15/3500V5000FT/D FG VV002 13/13 A3011 RMK FG8 SLP199=

CYXU;2005-10-14 06:51;SPECI CYXU 140651Z 00000KT 1SM R15/P6000FT/U BR OVC010 13/ RMK FG5ST3=

CYXU;2005-10-14 07:07;SPECI CYXU 140707Z 09002KT 1 1/4SM BR VV002 13/ RMK FG8=

CYXU;2005-10-14 07:37;SPECI CYXU 140737Z 00000KT 3/8SM R15/3000VP6000FT/D FG VV002 13/ RMK FG8=

CYXU;2005-10-14 08:40;SPECI CYXU 140840Z 09004KT 1/4SM R15/1400FT/N FG VV001 13/ RMK FG8=

CYXU;2005-10-14 09:00;METAR CYXU 140900Z 12002KT 1/8SM R15/1600FT/N FG VV001 13/12 A3009 RMK FG8 SLP191=

CYXU;2005-10-14 09:50;SPECI CYXU 140950Z 10003KT 1/4SM R15/2200FT/N FG VV001 13/ RMK FG8=

CYXU;2005-10-14 10:00;METAR CYXU 141000Z 10004KT 1/4SM R15/2200FT/N FG VV001 13/12 A3009 RMK FG8 SLP190=

CYXU;2005-10-14 10:35;SPECI CYXU 141035Z 15002KT 1/2SM R15/2600V4000FT/D FG VV001 13/ RMK FG8=

CYXU;2005-10-14 11:00;METAR CYXU 141100Z 13002KT 1/2SM R15/2400FT/N FG VV001 12/12 A3009 RMK FG8 SLP191=

CYXU;2005-10-14 11:20;SPECI CYXU 141120Z 13003KT 1/4SM R15/2600FT/N FG VV001 12/ RMK FG8 VSBY VRBL 1/4-1/2=

CYXU;2005-10-14 11:38;SPECI CYXU 141138Z 11003KT 1/8SM R15/2600V4500FT/U FG VV001 12/ RMK FG8=

CYXU;2005-10-14 12:00;METAR CYXU 141200Z 09004KT 1/8SM R15/2000FT/N FG VV001 12/12 A3010 RMK FG8 SLP194=

CYXU;2005-10-14 13:00;METAR CYXU 141300Z 13003KT 1/4SM R15/1400FT/N FG VV002 12/12 A3011 RMK FG8 VSBY VRBL 1/8-1/2 SLP197=

CYXU;2005-10-14 14:00;METAR CYXU 141400Z 10004KT 1/4SM R15/2400FT/N FG VV001 13/12 A3011 RMK FG8 VSBY VRBL 1/8-1/2 SLP198=

CYXU;2005-10-14 14:22;SPECI CYXU 141422Z 11002KT 1/2SM R15/3000V5500FT/U FG VV002 13/ RMK FG8=

CYXU;2005-10-14 14:45;SPECI CYXU 141445Z 16003KT 3/4SM R15/P6000FT/U BR VV002 13/ RMK FG8=

CYXU;2005-10-14 14:52;SPECI CYXU 141452Z 14002KT 1SM R15/P6000FT/N BR OVC003 13/ RMK FG5SF3=

CYXU;2005-10-14 15:00;METAR CYXU 141500Z 17002KT 1SM R15/P6000FT/U BR OVC003 13/13 A3011 RMK FG3SF5 SLP197=

CYXU;2005-10-14 15:15;SPECI CYXU 141515Z 17004KT 1 1/2SM BR OVC004 13/ RMK FG2SF6=

CYXU;2005-10-14 15:35;SPECI CYXU 141535Z 15004KT 2 1/2SM BR OVC005 14/ RMK SF8=

CYXU;2005-10-14 15:47;SPECI CYXU 141547Z 14005KT 2 1/2SM BR OVC007 14/ RMK ST8 CLD TOPS 030 ASL=

CYXU;2005-10-14 16:00;METAR CYXU 141600Z 14004KT 2 1/2SM BR OVC007 14/13 A3009 RMK ST8 SLP191=

CYXU;2005-10-14 16:09;SPECI CYXU 141609Z 17004KT 3SM BR FEW007 BKN010 15/ RMK SF2SC5=

CYXU;2005-10-14 17:00;METAR CYXU 141700Z 16005KT 5SM HZ SCT013 17/14 A3007 RMK SC4 SLP184=

CYXU;2005-10-14 18:00;METAR CYXU 141800Z 17003KT 8SM FEW018 18/13 A3004 RMK SC2 SLP173=

CYXU;2005-10-14 20:00;METAR CYXU 142000Z 17007KT 12SM FEW030 20/13 A3000 RMK CU2 SLP160=

CYXU;2005-10-14 21:00;METAR CYXU 142100Z 21007KT 12SM FEW028 19/12 A3000 RMK SC1 SLP158=

CYXU;2005-10-14 22:00;METAR CYXU 142200Z 19007KT 12SM FEW220 17/13 A2998 RMK CI1 SLP152=

CYXU;2005-10-14 23:00;METAR CYXU 142300Z 18006KT 8SM FEW220 15/13 A2997 RMK CI2 SLP149=

CYXU;2005-10-15 00:00;METAR CYXU 150000Z 18004KT 4SM BR FEW220 14/12 A2996 RMK CI2 SLP148=

CYXU;2005-10-15 01:29;SPECI CYXU 150129Z 18005KT 2 1/2SM BR SCT058 SCT090 13/ RMK FG2SC2AC1=

CYXU;2005-10-15 02:00;METAR CYXU 150200Z 19005KT 2 1/2SM BR FEW090 14/13 A2993 RMK FG2AC1 SLP137=

CYXU;2005-10-15 03:00;METAR CYXU 150300Z 21004KT 3SM BR BKN030 BKN070 14/13 A2991 RMK SC6AC1 SLP130=

CYXU;2005-10-15 04:00;METAR CYXU 150400Z 21005KT 3SM BR FEW030 14/13 A2989 RMK SC1 SLP122=

CYXU;2005-10-15 05:00;METAR CYXU 150500Z 24005KT 3SM BR SKC 14/12 A2987 RMK SLP117=

CYXU;2005-10-15 06:00;METAR CYXU 150600Z 23003KT 3SM BR FEW070 13/12 A2983 RMK AC1 SLP103=

CYXU;2005-10-15 07:00;METAR CYXU 150700Z 23004KT 3SM BR SCT070 12/11 A2980 RMK AC4 SLP093=

CYXU;2005-10-15 09:00;METAR CYXU 150900Z 27006KT 8SM SKC 13/10 A2978 RMK SLP084=

CYXU;2005-10-15 10:00;METAR CYXU 151000Z 28005KT 8SM FEW080 12/10 A2978 RMK AC2 SLP083=

CYXU;2005-10-15 11:00;METAR CYXU 151100Z 29004KT 8SM FEW080 11/09 A2979 RMK AC2 SLP088=

CYXU;2005-10-15 12:00;METAR CYXU 151200Z 29005KT 8SM MIFG FEW080 11/09 A2980 RMK AC1 SLP091=

CYXU;2005-10-15 13:00;METAR CYXU 151300Z 30008KT 12SM FEW020 FEW080 13/11 A2981 RMK SC1AC1 SLP095=

CYXU;2005-10-15 14:00;METAR CYXU 151400Z 32008KT 15SM SCT020 14/10 A2981 RMK SC3 SLP097=

CYXU;2005-10-15 15:00;METAR CYXU 151500Z 33012G22KT 15SM SCT025 15/06 A2981 RMK CU4 SLP096=

CYXU;2005-10-15 16:00;METAR CYXU 151600Z 28015G22KT 15SM FEW025 BKN055 16/06 A2981 RMK CU2CU3 SLP094=

CYXU;2005-10-15 17:00;METAR CYXU 151700Z 29014G20KT 15SM FEW020 BKN042 BKN080 16/05 A2980 RMK CF1CU5AC1 SLP093=

CYXU;2005-10-15 18:00;METAR CYXU 151800Z 31013G24KT 15SM FEW020 BKN040 15/06 A2980 RMK CF1CU6 SLP092=

CYXU;2005-10-15 19:00;METAR CYXU 151900Z 32011G16KT 15SM FEW032 BKN058 15/06 A2979 RMK CU2SC5 SHWRS DIST N SLP089=

CYXU;2005-10-15 20:50;SPECI CYXU 152050Z 31009G19KT 12SM -SHRA SCT020TCU BKN032 BKN080 11/ RMK TCU4SC1AC2 VIS NE-S 4=

CYXU;2005-10-15 21:00;METAR CYXU 152100Z 30008KT 15SM FEW008 SCT020TCU SCT032 BKN080 11/08 A2982 RMK CF1TCU2SC1AC2 VIS E-S 6 IN SHWRS SLP101=

CYXU;2005-10-15 22:00;METAR CYXU 152200Z 31007G15KT 15SM FEW020TCU SCT040 BKN070 10/07 A2982 RMK TCU2SC2AC2 VCNTY SHWRS/VIS S-SW 6/RAINBOW N SLP101=

CYXU;2005-10-15 22:22;SPECI CYXU 152222Z 32010KT 10SM -SHRA SCT035 BKN070 11/ RMK SC3AC3 TCU ASOCTD=

CYXU;2005-10-15 22:45;SPECI CYXU 152245Z 29006KT 15SM FEW025TCU FEW035 BKN050 BKN070 10/ RMK TCU1SC2SC2AC1 SHWRS W AND E=

CYXU;2005-10-15 23:00;METAR CYXU 152300Z 28008KT 15SM VCSH FEW032 BKN050 BKN070 10/07 A2984 RMK CU2SC3AC1 SLP106=

CYXU;2005-10-16 00:00;METAR CYXU 160000Z 29006KT 15SM FEW030 FEW050 10/07 A2983 RMK CF1SC2 SLP104=

CYXU;2005-10-16 00:19;SPECI CYXU 160019Z 31007KT 12SM -SHRA BKN032 10/ RMK SC6 TCU ASOCTD=

CYXU;2005-10-16 01:00;METAR CYXU 160100Z 31009KT 15SM FEW030 SCT055 10/07 A2984 RMK SC2SC2 SLP108=

CYXU;2005-10-16 02:00;METAR CYXU 160200Z 28008KT 15SM FEW036 BKN058 10/07 A2984 RMK SC2SC5 SLP107=

CYXU;2005-10-16 02:46;SPECI CYXU 160246Z 29012G18KT 15SM BKN035 BKN060 11/ RMK SC5SC2=

CYXU;2005-10-16 03:00;METAR CYXU 160300Z 29013G18KT 15SM FEW035 BKN060 10/07 A2983 RMK SC2SC3 SLP104=

CYXU;2005-10-16 03:32;SPECI CYXU 160332Z 31012KT 10SM -SHRA BKN018 BKN032 11/ RMK SC5SC2 TCU ASOCTD=

CYXU;2005-10-16 03:48;SPECI CYXU 160348Z 30010G16KT 15SM BKN020 BKN032 10/ RMK SC6SC1=

CYXU;2005-10-16 04:00;METAR CYXU 160400Z 31008KT 15SM SCT020 BKN040 10/08 A2984 RMK SC3SC3 SLP108=

CYXU;2005-10-16 04:29;SPECI CYXU 160429Z 31010G16KT 8SM -SHRA OVC032 10/ RMK SC8 TCU ASOCTD=

CYXU;2005-10-16 05:00;METAR CYXU 160500Z 30007KT 8SM -SHRA OVC026 10/08 A2984 RMK SC8 TCU ASOCTD SLP107=

CYXU;2005-10-16 05:48;SPECI CYXU 160548Z 30012G20KT 15SM BKN035 11/ RMK SC7=

CYXU;2005-10-16 06:00;METAR CYXU 160600Z 32012G21KT 15SM FEW032 BKN054 11/08 A2985 RMK SC2SC6 SLP109=

CYXU;2005-10-16 08:00;METAR CYXU 160800Z 31010G17KT 15SM BKN043 10/07 A2986 RMK SC6 SLP112=

CYXU;2005-10-16 10:00;METAR CYXU 161000Z 30010G20KT 15SM SCT034 BKN060 11/07 A2987 RMK SC4SC3 SLP118=

CYXU;2005-10-16 10:21;SPECI CYXU 161021Z 32009KT 2SM -SHRA BR FEW016 BKN034 OVC060 10/ RMK SF2CU4SC2=

CYXU;2005-10-16 10:33;SPECI CYXU 161033Z 31012G19KT 15SM BKN034 BKN060 10/ RMK SC5SC2=

CYXU;2005-10-16 11:00;METAR CYXU 161100Z 31009KT 15SM SCT017 BKN034 BKN060 10/08 A2989 RMK SF4SC2SC1 SLP123=

CYXU;2005-10-16 12:00;METAR CYXU 161200Z 31011G16KT 15SM FEW017 SCT034 BKN064 10/06 A2990 RMK SF2SC2SC2 SHWRS W-NW SLP127=

CYXU;2005-10-16 12:07;SPECI CYXU 161207Z 31011G16KT 10SM -SHRA FEW017 BKN034 BKN064 10/ RMK SF2CU2SC2=

CYXU;2005-10-16 12:42;SPECI CYXU 161242Z 30010KT 15SM VCSH SCT017 BKN034 BKN059 10/ RMK SF3CU2SC2 SHWRS S-NW=

CYXU;2005-10-16 13:00;METAR CYXU 161300Z 32009G18KT 15SM VCSH SCT017 BKN034 BKN052 10/07 A2992 RMK SF3CU2SC2 SHWRS SW-NW SLP134=

CYXU;2005-10-16 14:00;METAR CYXU 161400Z 31010KT 15SM FEW017 BKN030 BKN046 11/07 A2993 RMK SF2CU3SC2 SLP138=

CYXU;2005-10-16 15:00;METAR CYXU 161500Z 31015KT 15SM BKN027 BKN051 11/07 A2994 RMK CU6SC1 SLP143=

CYXU;2005-10-16 16:00;METAR CYXU 161600Z 31013G20KT 15SM SCT020 BKN050 12/07 A2994 RMK CU3SC4 SLP143=

CYXU;2005-10-16 17:00;METAR CYXU 161700Z 32015G22KT 15SM FEW025 BKN040 13/05 A2995 RMK CU2SC4 SLP145=

CYXU;2005-10-16 19:00;METAR CYXU 161900Z 31015G22KT 15SM OVC028 11/05 A2996 RMK SC8 SLP147=

CYXU;2005-10-16 21:00;METAR CYXU 162100Z 32014G22KT 15SM OVC035 11/04 A2997 RMK SC8 SLP152=

CYXU;2005-10-16 22:00;METAR CYXU 162200Z 32011G18KT 15SM BKN035 10/05 A2997 RMK SC7 SLP153=

CYXU;2005-10-16 23:00;METAR CYXU 162300Z 31012KT 15SM BKN038 10/04 A2997 RMK SC6 SLP153=

CYXU;2005-10-17 00:00;METAR CYXU 170000Z 32010KT 15SM BKN038 09/04 A2998 RMK SC6 SLP156=

CYXU;2005-10-17 01:00;METAR CYXU 170100Z 31010KT 15SM BKN039 09/04 A2997 RMK SC6 SLP154=

CYXU;2005-10-17 02:00;METAR CYXU 170200Z 31009KT 15SM BKN040 09/05 A2997 RMK SC6 SLP154=

CYXU;2005-10-17 03:00;METAR CYXU 170300Z 31009KT 15SM BKN037 10/04 A2997 RMK SC6 SLP152=

CYXU;2005-10-17 04:00;METAR CYXU 170400Z 33010KT 15SM BKN037 10/04 A2997 RMK SC7 SLP152=

CYXU;2005-10-17 05:00;METAR CYXU 170500Z 32009KT 15SM OVC030 10/04 A2996 RMK SC8 SLP150=

CYXU;2005-10-17 06:00;METAR CYXU 170600Z 31007KT 15SM OVC028 10/05 A2995 RMK SC8 SLP146=

CYXU;2005-10-17 09:00;METAR CYXU 170900Z 31006KT 15SM OVC028 10/05 A2993 RMK SC8 SLP137=

CYXU;2005-10-17 10:00;METAR CYXU 171000Z 33006KT 15SM OVC028 10/05 A2993 RMK SC8 SLP138=

CYXU;2005-10-17 11:00;METAR CYXU 171100Z 33008KT 15SM OVC026 10/04 A2993 RMK SC8 SLP139=

CYXU;2005-10-17 12:00;METAR CYXU 171200Z 30004KT 15SM BKN024 09/05 A2993 RMK SC6 SLP138=

CYXU;2005-10-17 13:00;METAR CYXU 171300Z 29004KT 15SM FEW012 OVC024 10/05 A2992 RMK SF1SC6 SLP137=

CYXU;2005-10-17 14:00;METAR CYXU 171400Z 31009KT 15SM FEW012 BKN021 10/05 A2992 RMK SF1SC6 SLP137=

CYXU;2005-10-17 15:00;METAR CYXU 171500Z 26006KT 15SM FEW012 OVC022 10/06 A2992 RMK SF1SC7 SLP135=

CYXU;2005-10-17 16:00;METAR CYXU 171600Z 30007KT 15SM BKN022 12/06 A2991 RMK SC6 SLP132=

CYXU;2005-10-17 17:00;METAR CYXU 171700Z 29008KT 15SM SCT025 BKN280 12/06 A2989 RMK SC3CI1 SLP125=

CYXU;2005-10-17 18:00;METAR CYXU 171800Z 24008KT 15SM FEW025 FEW120 BKN280 12/05 A2986 RMK SC1AC1CI5 SLP113=

CYXU;2005-10-17 19:00;METAR CYXU 171900Z 24005KT 15SM FEW120 BKN280 14/05 A2982 RMK AC2CI3 SLP102=

CYXU;2005-10-17 20:00;METAR CYXU 172000Z 24006KT 15SM SCT150 BKN220 14/04 A2980 RMK AC3CI3 SLP096=

CYXU;2005-10-17 21:00;METAR CYXU 172100Z 24009KT 15SM BKN130 BKN220 13/07 A2979 RMK AC6CI2 SLP089=

CYXU;2005-10-17 23:00;METAR CYXU 172300Z 21011KT 10SM -SHRA FEW050 OVC070 12/08 A2974 RMK CU2AC6 SLP073=

CYXU;2005-10-17 23:44;SPECI CYXU 172344Z 20009KT 6SM SHRA BR FEW015 OVC077 11/ RMK CF2AC6=

CYXU;2005-10-17 23:52;SPECI CYXU 172352Z 20011KT 8SM -SHRA FEW015 BKN040 OVC070 11/ RERA RMK CF2CU5AC2=

CYXU;2005-10-18 00:00;METAR CYXU 180000Z 21009G15KT 10SM BKN036 OVC070 10/08 A2971 RERA RMK CU6AC2 SLP065=

CYXU;2005-10-18 00:17;SPECI CYXU 180017Z 21008KT 10SM BKN038CB OVC070 11/ RMK CB5AC3=

CYXU;2005-10-18 00:23;SPECI CYXU 180023Z 21009KT 4SM +TSRA BR OVC038CB 11/ RMK CB8 LTGCC=

CYXU;2005-10-18 00:28;SPECI CYXU 180028Z 22008KT 6SM -TSRA BR FEW018 OVC038CB 11/ RERA RMK SF1CB7 LTGCC=

CYXU;2005-10-18 00:53;SPECI CYXU 180053Z 23008KT 8SM FEW018 OVC037 11/ RETSRA RMK SF1CU7=

CYXU;2005-10-18 01:45;SPECI CYXU 180145Z 22005KT 10SM OVC050 11/ RETSRA RMK CU8=

CYXU;2005-10-18 02:00;METAR CYXU 180200Z 20005KT 10SM OVC050 11/09 A2970 RMK SC8 SLP059=

CYXU;2005-10-18 04:00;METAR CYXU 180400Z 26009KT 12SM BKN045 12/08 A2965 RMK SC7 SLP044=

CYXU;2005-10-18 05:00;METAR CYXU 180500Z 26010KT 12SM BKN037 12/09 A2965 RMK SC6 SLP042=

CYXU;2005-10-18 06:00;METAR CYXU 180600Z 27007KT 15SM SCT020 11/08 A2964 RMK SC4 SLP040=

CYXU;2005-10-18 07:00;METAR CYXU 180700Z 30006KT 15SM BKN026 11/09 A2966 RMK SC6 SLP046=

CYXU;2005-10-18 08:00;METAR CYXU 180800Z 27004KT 8SM BKN056 10/08 A2966 RMK SC6 SLP045=

CYXU;2005-10-18 09:00;METAR CYXU 180900Z 25006KT 5SM BR SCT013 BKN040 11/09 A2966 RMK SC3SC3 SLP046=

CYXU;2005-10-18 10:00;METAR CYXU 181000Z 27006KT 5SM BR SCT012 BKN018 11/10 A2968 RMK SC3SC3 SLP051=

CYXU;2005-10-18 13:00;METAR CYXU 181300Z 27008KT 15SM SCT020 10/08 A2973 RMK CU3 CLD BASE RAGGED SLP072=

CYXU;2005-10-18 14:00;METAR CYXU 181400Z 28011G17KT 15SM BKN020 BKN280 11/08 A2975 RMK CU6CI1 SLP077=

CYXU;2005-10-18 15:00;METAR CYXU 181500Z 30013G20KT 15SM BKN020 12/07 A2977 RMK CU6 SLP084=

CYXU;2005-10-18 16:00;METAR CYXU 181600Z 29015G21KT 15SM BKN024 13/05 A2978 RMK CU6 SLP087=

CYXU;2005-10-18 17:00;METAR CYXU 181700Z 31016G21KT 15SM SCT036 14/05 A2979 RMK CU4 SLP089=

CYXU;2005-10-18 18:00;METAR CYXU 181800Z 30012G24KT 15SM FEW036 14/05 A2980 RMK CU2 SLP092=

CYXU;2005-10-18 19:00;METAR CYXU 181900Z 28015G21KT 15SM FEW038 14/04 A2981 RMK CU2 SLP096=

CYXU;2005-10-18 20:00;METAR CYXU 182000Z 31014G19KT 15SM FEW040 14/05 A2983 RMK SC2 SLP102=

CYXU;2005-10-18 21:00;METAR CYXU 182100Z 29010KT 15SM FEW040 14/05 A2984 RMK SC2 SLP106=

CYXU;2005-10-18 22:00;METAR CYXU 182200Z 31006KT 15SM FEW040 13/05 A2984 RMK SC1 SLP107=

CYXU;2005-10-18 23:00;METAR CYXU 182300Z 29002KT 15SM FEW240 11/05 A2985 RMK CI1 SLP110=

CYXU;2005-10-19 00:00;METAR CYXU 190000Z 26002KT 15SM FEW240 08/05 A2986 RMK CI1 CI TR SLP117=

CYXU;2005-10-19 01:00;METAR CYXU 190100Z 00000KT 15SM FEW240 07/05 A2987 RMK CI0 SLP121=

CYXU;2005-10-19 03:00;METAR CYXU 190300Z 13004KT 15SM FEW180 BKN230 07/04 A2986 RMK AS1CI4 SLP116=

CYXU;2005-10-19 04:00;METAR CYXU 190400Z 00000KT 15SM BKN220 07/05 A2986 RMK CI5 SLP116=

CYXU;2005-10-19 05:00;METAR CYXU 190500Z 16003KT 15SM FEW220 06/04 A2986 RMK CI2 SLP116=

CYXU;2005-10-19 07:00;METAR CYXU 190700Z 18004KT 15SM SKC 07/05 A2984 RMK SLP107=

CYXU;2005-10-19 09:00;METAR CYXU 190900Z 12002KT 15SM BKN110 07/05 A2979 RMK AC6 SLP090=

CYXU;2005-10-19 10:00;METAR CYXU 191000Z 20005KT 15SM BKN110 10/08 A2977 RMK AC7 SLP086=

CYXU;2005-10-19 11:00;METAR CYXU 191100Z 20008KT 15SM SCT110 BKN160 12/10 A2975 RMK AC3AC4 SLP077=

CYXU;2005-10-19 12:00;METAR CYXU 191200Z 21012KT 15SM FEW040 SCT120 BKN160 14/10 A2973 RMK SC1AC3AC4 SLP070=

CYXU;2005-10-19 13:00;METAR CYXU 191300Z 21013G18KT 15SM FEW040 BKN080 BKN160 15/09 A2970 RMK SC2AC3AC2 SLP062=

CYXU;2005-10-19 14:00;METAR CYXU 191400Z 23018KT 15SM FEW056 BKN095 15/08 A2970 RMK SC2AC5 VIRGA WNW SLP061=

CYXU;2005-10-19 14:06;SPECI CYXU 191406Z 24014G24KT 15SM -TSRA BKN054 BKN100 15/ RMK SC5AC2 CB EMBD LTG NW-N=

CYXU;2005-10-19 14:29;SPECI CYXU 191429Z 25012KT 15SM -SHRA BKN058 BKN080 14/ RERA RMK SC5ACC2 CB E=

CYXU;2005-10-19 14:52;SPECI CYXU 191452Z 26014G20KT 15SM FEW065 BKN098 14/ RERA RMK SC2ACC3=

CYXU;2005-10-19 15:00;METAR CYXU 191500Z 25011G20KT 15SM FEW060 SCT075 BKN100 15/08 A2972 RERA RMK SC2ACC2AC1 SLP067=

CYXU;2005-10-19 16:00;METAR CYXU 191600Z 31017G27KT 15SM FEW015 BKN026 OVC040 15/09 A2975 RMK SF1SC4SC3 SLP078=

CYXU;2005-10-19 17:00;METAR CYXU 191700Z 33019G29KT 15SM BKN022 12/07 A2981 RMK SC7 CIG RAG SLP097=

CYXU;2005-10-19 18:00;METAR CYXU 191800Z 32014G20KT 15SM BKN033 11/06 A2983 RMK CU7 SLP106=

CYXU;2005-10-19 19:00;METAR CYXU 191900Z 32016G24KT 15SM BKN032 11/04 A2986 RMK SC7 SLP114=

CYXU;2005-10-19 20:00;METAR CYXU 192000Z 33015G24KT 15SM BKN032 10/03 A2990 RMK SC6 PRESRR SLP128=

CYXU;2005-10-19 21:00;METAR CYXU 192100Z 34012G21KT 15SM BKN030 09/02 A2993 RMK SC7 SLP141=

CYXU;2005-10-19 22:00;METAR CYXU 192200Z 33012KT 15SM OVC031 09/03 A2996 RMK SC8 SLP151=

CYXU;2005-10-20 00:00;METAR CYXU 200000Z 34006KT 15SM BKN029 07/01 A3000 RMK SC5 SLP164=

CYXU;2005-10-20 01:00;METAR CYXU 200100Z 35004KT 15SM SKC 06/01 A3002 RMK SLP170=

CYXU;2005-10-20 02:00;METAR CYXU 200200Z 32002KT 15SM SKC 04/01 A3003 RMK SLP173=

CYXU;2005-10-20 03:00;METAR CYXU 200300Z 27003KT 15SM SKC 03/00 A3004 RMK SLP179=

CYXU;2005-10-20 04:00;METAR CYXU 200400Z 34004KT 15SM FEW250 04/01 A3004 RMK CI0 SLP177=

CYXU;2005-10-20 06:00;METAR CYXU 200600Z 00000KT 15SM FEW220 01/M01 A3004 RMK CI1 SLP178=

CYXU;2005-10-20 08:00;METAR CYXU 200800Z 00000KT 15SM FEW220 M00/M02 A3003 RMK CI1 FROIN SLP176=

CYXU;2005-10-20 09:00;METAR CYXU 200900Z 00000KT 15SM FEW220 00/M01 A3006 RMK CI1 FROIN SLP188=

CYXU;2005-10-20 10:00;METAR CYXU 201000Z 00000KT 15SM FEW240 M00/M02 A3007 RMK CI1 FROIN SLP191=

CYXU;2005-10-20 11:00;METAR CYXU 201100Z 00000KT 15SM FEW130 SCT240 M00/M02 A3008 RMK AC1CI1 FROIN SLP193=

CYXU;2005-10-20 12:00;METAR CYXU 201200Z 00000KT 15SM FEW100 BKN240 00/M02 A3008 RMK AC1CI2 FROIN SLP195=

CYXU;2005-10-20 13:00;METAR CYXU 201300Z 00000KT 15SM FEW001 BKN220 01/M01 A3010 RMK SF1CI4 SF TR RISING FM FANSHAWE LK SLP200=

CYXU;2005-10-20 14:00;METAR CYXU 201400Z 00000KT 15SM FEW100 BKN220 04/02 A3010 RMK AC1CI2 SLP203=

CYXU;2005-10-20 15:00;METAR CYXU 201500Z 21003KT 15SM FEW040 FEW220 09/03 A3010 RMK SC1CI0 SLP199=

CYXU;2005-10-20 16:00;METAR CYXU 201600Z 21003KT 15SM FEW032 FEW220 11/03 A3010 RMK CU1CI0 SLP199=

CYXU;2005-10-20 17:00;METAR CYXU 201700Z 32003KT 15SM SCT036 BKN230 11/03 A3008 RMK CU4CI0 SLP194=

CYXU;2005-10-20 18:00;METAR CYXU 201800Z 23004KT 15SM SCT041 SCT060 BKN230 13/04 A3006 RMK CU3SC1CI0 SLP186=

CYXU;2005-10-20 19:00;METAR CYXU 201900Z 27004KT 15SM BKN043 BKN210 12/03 A3006 RMK SC5CI1 SLP185=

CYXU;2005-10-20 20:00;METAR CYXU 202000Z 32007KT 15SM SCT040 BKN210 13/03 A3006 RMK SC3CI2 SLP186=

CYXU;2005-10-20 21:00;METAR CYXU 202100Z 31005KT 15SM FEW040 BKN220 12/03 A3005 RMK SC2CI4 SLP183=

CYXU;2005-10-20 22:00;METAR CYXU 202200Z 31003KT 15SM FEW040 BKN240 11/03 A3006 RMK SC1CI5 SLP185=

CYXU;2005-10-20 23:00;METAR CYXU 202300Z 36003KT 15SM FEW040 BKN240 09/03 A3007 RMK SC1CI3 SLP188=

CYXU;2005-10-21 00:00;METAR CYXU 210000Z 36003KT 15SM BKN240 08/03 A3007 RMK CI3 SLP192=

CYXU;2005-10-21 03:00;METAR CYXU 210300Z 09002KT 15SM BKN240 05/03 A3010 RMK CI5 SLP198=

CYXU;2005-10-21 04:00;METAR CYXU 210400Z 00000KT 15SM SCT240 03/02 A3009 RMK CI3 SLP196=

CYXU;2005-10-21 05:00;METAR CYXU 210500Z 36003KT 15SM FEW240 03/01 A3008 RMK CI2 SLP194=

CYXU;2005-10-21 07:00;METAR CYXU 210700Z 00000KT 15SM FEW240 02/01 A3009 RMK CI1 SLP194=

CYXU;2005-10-21 10:00;METAR CYXU 211000Z 04006KT 15SM FEW240 01/M00 A3009 RMK CI2 FROIN SLP196=

CYXU;2005-10-21 11:00;METAR CYXU 211100Z 06002KT 15SM FEW240 01/M00 A3009 RMK CI1 COTRA SLP196=

CYXU;2005-10-21 12:00;METAR CYXU 211200Z 12003KT 15SM FEW240 02/01 A3010 RMK CI1 COTRA SLP199=

CYXU;2005-10-21 13:00;METAR CYXU 211300Z 06004KT 15SM FEW240 04/01 A3010 RMK CI1 SLP200=

CYXU;2005-10-21 14:00;METAR CYXU 211400Z 07008KT 15SM FEW020 FEW240 06/03 A3010 RMK SC1CI0 SLP200=

CYXU;2005-10-21 15:00;METAR CYXU 211500Z 10010KT 15SM SCT015 SCT240 08/04 A3009 RMK CU3CI0 SLP196=

CYXU;2005-10-21 16:00;METAR CYXU 211600Z 10009KT 15SM FEW020 FEW240 09/03 A3007 RMK CU1CI1 COTRA SLP190=

CYXU;2005-10-21 17:00;METAR CYXU 211700Z 11008KT 15SM FEW035 SCT240 11/03 A3005 RMK CU1CI1 SLP183=

CYXU;2005-10-21 18:00;METAR CYXU 211800Z 11006KT 15SM FEW035 BKN240 11/01 A3002 RMK CU1CI1 SLP173=

CYXU;2005-10-21 21:00;METAR CYXU 212100Z 06007KT 15SM BKN230 11/M00 A2998 RMK CI4 CC ASOCTD SLP160=

CYXU;2005-10-21 22:00;METAR CYXU 212200Z 09008KT 15SM BKN210 11/01 A2999 RMK CI5 SLP161=

CYXU;2005-10-22 00:00;METAR CYXU 220000Z 06005KT 15SM BKN230 07/00 A2998 RMK CI4 SLP160=

CYXU;2005-10-22 01:00;METAR CYXU 220100Z 05005KT 15SM BKN230 06/M00 A2997 RMK CI3 SLP155=

CYXU;2005-10-22 02:00;METAR CYXU 220200Z 05006KT 15SM BKN230 06/M00 A2996 RMK CI6 SLP153=

CYXU;2005-10-22 03:00;METAR CYXU 220300Z 06008KT 15SM BKN200 06/00 A2995 RMK CI6 SLP147=

CYXU;2005-10-22 04:00;METAR CYXU 220400Z 07007KT 15SM BKN200 06/00 A2993 RMK CI7 SLP141=

CYXU;2005-10-22 05:00;METAR CYXU 220500Z 07007KT 15SM BKN160 06/01 A2991 RMK AC6 SLP135=

CYXU;2005-10-22 06:00;METAR CYXU 220600Z 06010KT 15SM BKN160 06/01 A2988 RMK CI6 SLP124=

CYXU;2005-10-22 08:00;METAR CYXU 220800Z 06008KT 15SM OVC140 06/02 A2985 RMK AC8 SLP112=

CYXU;2005-10-22 09:00;METAR CYXU 220900Z 07009KT 15SM OVC130 06/02 A2983 RMK AC8 SLP107=

CYXU;2005-10-22 10:00;METAR CYXU 221000Z 06009KT 15SM FEW150 BKN190 06/02 A2981 RMK AC2AC5 SLP100=

CYXU;2005-10-22 11:00;METAR CYXU 221100Z 06010KT 15SM SCT180 BKN230 06/03 A2980 RMK CI3CI2 SLP095=

CYXU;2005-10-22 12:00;METAR CYXU 221200Z 06008KT 15SM BKN150 06/03 A2980 RMK AC6 SLP095=

CYXU;2005-10-22 13:00;METAR CYXU 221300Z 06010KT 15SM FEW025 BKN150 BKN180 06/03 A2980 RMK CF1AC5CI1 CF TR SLP095=

CYXU;2005-10-22 14:00;METAR CYXU 221400Z 06013G18KT 15SM FEW012 BKN040 OVC150 07/04 A2979 RMK CF2SC6CI1 SLP094=

CYXU;2005-10-22 15:00;METAR CYXU 221500Z 05009G16KT 15SM BKN020 BKN045 OVC150 07/03 A2977 RMK SC5SC2AC2 SLP088=

CYXU;2005-10-22 16:00;METAR CYXU 221600Z 07013KT 15SM FEW020 BKN050 BKN150 08/03 A2976 RMK CF2SC4AC1 SLP085=

CYXU;2005-10-22 17:00;METAR CYXU 221700Z 04008KT 15SM FEW020 BKN048 OVC150 08/03 A2975 RMK CF2SC4AC2 SLP081=

CYXU;2005-10-22 18:00;METAR CYXU 221800Z 05007KT 15SM FEW022 BKN047 OVC150 08/02 A2973 RMK CF1SC6CI1 SLP075=

CYXU;2005-10-22 19:10;SPECI CYXU 221910Z 03010KT 12SM -SHRA FEW025 OVC042 07/ RMK CF2SC6 ACC EMBD=

CYXU;2005-10-22 19:32;SPECI CYXU 221932Z 36008KT 12SM -DZ FEW018 SCT025 OVC040 07/ RMK ST2CF2SC4=

CYXU;2005-10-22 20:00;METAR CYXU 222000Z 01007KT 12SM -DZ FEW018 SCT025 OVC034 06/04 A2973 RMK ST2CF1SC5 SLP075=

CYXU;2005-10-22 20:11;SPECI CYXU 222011Z 02007KT 10SM -SHRA FEW012 OVC042 06/ RMK ST2SC6=

CYXU;2005-10-22 21:00;METAR CYXU 222100Z 03006KT 10SM -SHRA SCT030 OVC035 06/03 A2975 RMK CF3SC5 SLP079=

CYXU;2005-10-22 21:25;SPECI CYXU 222125Z 02007KT 3SM -SHRA FEW018 OVC037 06/ RMK CF2SC6 TCU EMBD=

CYXU;2005-10-22 22:00;METAR CYXU 222200Z 01008KT 2 1/2SM -RA BR SCT015 OVC031 05/03 A2976 RMK CF3NS5 SLP085=

CYXU;2005-10-22 23:00;METAR CYXU 222300Z 02006KT 2 1/2SM -RA BR FEW025 OVC039 05/03 A2978 RMK CF2NS6 SLP089=

CYXU;2005-10-22 23:52;SPECI CYXU 222352Z 01007KT 4SM -RA BR OVC035 05/ RMK NS8=

CYXU;2005-10-23 00:00;METAR CYXU 230000Z 02010KT 4SM -RA BR BKN033 OVC053 05/02 A2978 RMK NS6SC2 SLP092=

CYXU;2005-10-23 00:21;SPECI CYXU 230021Z 01008KT 4SM -RA BR SCT012 OVC033 05/ RMK ST3NS5=

CYXU;2005-10-23 01:00;METAR CYXU 230100Z 02005KT 4SM -RA BR FEW012 BKN028 OVC041 04/02 A2978 RMK ST2SC3NS3 SLP091=

CYXU;2005-10-23 02:14;SPECI CYXU 230214Z 03007KT 6SM -RA FEW013 SCT025 OVC040 04/ RMK ST2SC2NS4=

CYXU;2005-10-23 02:32;SPECI CYXU 230232Z 02003KT 6SM -RA FEW009 BKN032 OVC057 04/ RMK ST2SC2NS3=

CYXU;2005-10-23 03:00;METAR CYXU 230300Z 03004KT 8SM FEW012 BKN035 OVC042 04/02 A2979 RMK ST2SC3NS2 SLP094=

CYXU;2005-10-23 03:48;SPECI CYXU 230348Z 35004KT 8SM -RA FEW008 SCT013 OVC060 04/ RMK SF2ST2NS4=

CYXU;2005-10-23 04:00;METAR CYXU 230400Z 03004KT 6SM -RA FEW007 BKN012 OVC060 04/02 A2979 RMK SF2ST2NS3 SLP094=

CYXU;2005-10-23 05:00;METAR CYXU 230500Z 01005KT 8SM -RA FEW010 OVC035 03/02 A2979 RMK SF2NS6 PCPN VRY LGT SLP093=

CYXU;2005-10-23 06:00;METAR CYXU 230600Z 36004KT 8SM -RA FEW010 OVC060 03/02 A2980 RMK SF2NS6 SLP096=

CYXU;2005-10-23 07:00;METAR CYXU 230700Z 01006KT 8SM -RA OVC065 03/01 A2980 RMK NS8 SLP098=

CYXU;2005-10-23 08:00;METAR CYXU 230800Z 32004KT 10SM BKN110 03/01 A2980 RMK AC6 SLP099=

CYXU;2005-10-23 10:00;METAR CYXU 231000Z 00000KT 15SM FEW030 SCT058 BKN080 03/01 A2982 RMK SC2SC2AC1 SLP104=

CYXU;2005-10-23 11:00;METAR CYXU 231100Z 29003KT 15SM FEW040 BKN080 02/01 A2982 RMK SC2AC3 SLP106=

CYXU;2005-10-23 12:00;METAR CYXU 231200Z 29004KT 15SM FEW008 FEW040 BKN077 02/01 A2983 RMK SF1SC2AC2 SLP111=

CYXU;2005-10-23 13:00;METAR CYXU 231300Z 33005KT 15SM FEW008 FEW040 BKN085 03/02 A2985 RMK SF1SC1AC2 SLP116=

CYXU;2005-10-23 14:00;METAR CYXU 231400Z 36005KT 15SM FEW010 SCT100 04/03 A2986 RMK SF2AC2 SLP118=

CYXU;2005-10-23 15:00;METAR CYXU 231500Z 03002KT 15SM BKN015 BKN080 06/03 A2987 RMK CU5AC2 SLP121=

CYXU;2005-10-23 16:00;METAR CYXU 231600Z 35002KT 15SM BKN016 BKN080 07/02 A2988 RMK CU6AC1 SLP124=

CYXU;2005-10-23 16:21;SPECI CYXU 231621Z 03004KT 15SM BKN020 BKN080 07/ RMK SC6AC1=

CYXU;2005-10-23 17:00;METAR CYXU 231700Z 36002KT 15SM BKN020 BKN040 07/02 A2987 RMK SC6SC2 SLP122=

CYXU;2005-10-23 18:00;METAR CYXU 231800Z 00000KT 15SM BKN024 BKN040 08/02 A2988 RMK CU5SC2 SLP124=

CYXU;2005-10-23 19:00;METAR CYXU 231900Z 01004KT 15SM BKN024 BKN045 09/02 A2987 RMK CU6SC2 SLP123=

CYXU;2005-10-23 20:00;METAR CYXU 232000Z 02004KT 15SM BKN024 BKN048 08/02 A2988 RMK CU5SC2 SLP126=

CYXU;2005-10-23 21:00;METAR CYXU 232100Z 34003KT 15SM FEW024 BKN050 08/02 A2989 RMK CU1SC5 SLP129=

CYXU;2005-10-23 22:00;METAR CYXU 232200Z 02003KT 15SM FEW024 BKN053 08/02 A2990 RMK CU1SC4 SLP133=

CYXU;2005-10-23 23:00;METAR CYXU 232300Z 36005KT 15SM SCT050 07/02 A2992 RMK SC4 SLP138=

CYXU;2005-10-24 00:00;METAR CYXU 240000Z 05003KT 15SM BKN056 06/02 A2993 RMK SC5 SLP142=

CYXU;2005-10-24 01:00;METAR CYXU 240100Z 04003KT 15SM BKN054 06/03 A2993 RMK SC5 SLP142=

CYXU;2005-10-24 03:00;METAR CYXU 240300Z 07003KT 15SM SCT049 05/02 A2994 RMK SC4 SLP146=

CYXU;2005-10-24 04:00;METAR CYXU 240400Z 06002KT 15SM BKN047 05/03 A2993 RMK SC5 SLP144=

CYXU;2005-10-24 05:00;METAR CYXU 240500Z 06004KT 15SM BKN042 05/03 A2992 RMK SC5 SLP140=

CYXU;2005-10-24 06:00;METAR CYXU 240600Z 05006KT 15SM FEW040 04/02 A2992 RMK SC2 SLP138=

CYXU;2005-10-24 07:00;METAR CYXU 240700Z 09004KT 15SM FEW040 03/02 A2993 RMK SC2 SLP141=

CYXU;2005-10-24 08:00;METAR CYXU 240800Z 06006KT 15SM FEW040 03/01 A2993 RMK SC2 SLP141=

CYXU;2005-10-24 09:00;METAR CYXU 240900Z 05007KT 15SM BKN039 03/02 A2993 RMK SC6 SLP142=

CYXU;2005-10-24 10:00;METAR CYXU 241000Z 07008KT 15SM BKN037 04/02 A2993 RMK SC6 SLP143=

CYXU;2005-10-24 11:00;METAR CYXU 241100Z 05006KT 15SM FEW038 SCT100 03/01 A2993 RMK SC1AC2 SLP141=

CYXU;2005-10-24 12:00;METAR CYXU 241200Z 06009KT 15SM FEW038 BKN080 04/02 A2993 RMK SC2AC2 SLP141=

CYXU;2005-10-24 13:00;METAR CYXU 241300Z 05008KT 15SM FEW020 BKN100 05/02 A2994 RMK SC2AC2 FU N SLP145=

CYXU;2005-10-24 13:51;SPECI CYXU 241351Z 06007KT 15SM FEW008 SCT025 BKN130 05/ RMK SF2SC2AC2=

CYXU;2005-10-24 14:00;METAR CYXU 241400Z 04011KT 15SM SCT008 BKN025 BKN130 05/03 A2994 RMK SF4SC1AC2 SLP145=

CYXU;2005-10-24 15:00;METAR CYXU 241500Z 04010G16KT 15SM SCT010 BKN030 BKN100 06/03 A2994 RMK SF4SC2AC1 SLP145=

CYXU;2005-10-24 16:00;METAR CYXU 241600Z 06012KT 15SM BKN016 OVC030 07/03 A2994 RMK SC6SC2 SLP145=

CYXU;2005-10-24 17:00;METAR CYXU 241700Z 05009G16KT 15SM -RA OVC020 07/03 A2993 RMK SC8 PCPN=

CYXU;2005-10-24 18:00;METAR CYXU 241800Z 04012KT 15SM OVC022 07/03 A2991 RMK SC8 INTMT -RA SLP134=

CYXU;2005-10-24 19:00;METAR CYXU 241900Z 06011G16KT 15SM OVC022 08/03 A2990 RMK SC8 SLP130=

CYXU;2005-10-24 19:12;SPECI CYXU 241912Z 06011G16KT 15SM -RA OVC023 08/ RMK SC8=

CYXU;2005-10-24 20:00;METAR CYXU 242000Z 06012KT 15SM -RA OVC024 07/04 A2990 RMK SC8 NS ASOCTD SLP132=

CYXU;2005-10-24 21:00;METAR CYXU 242100Z 06011G16KT 12SM -RA BKN024 OVC030 07/04 A2991 RMK SC5NS3 SLP136=

CYXU;2005-10-24 22:00;METAR CYXU 242200Z 05005KT 12SM -RA SCT019 OVC024 06/04 A2991 RMK SF4NS4 SLP137=

CYXU;2005-10-25 00:00;METAR CYXU 250000Z 06011KT 12SM -RA BKN019 OVC024 05/03 A2993 RMK SF6NS2 SLP143=

CYXU;2005-10-25 01:00;METAR CYXU 250100Z 05011KT 12SM -RA BKN014 OVC025 05/03 A2992 RMK SF6NS2 SLP140=

CYXU;2005-10-25 02:00;METAR CYXU 250200Z 05010KT 12SM -RA BKN015 OVC025 05/03 A2992 RMK SF6NS2 SLP138=

CYXU;2005-10-25 02:18;SPECI CYXU 250218Z 05011KT 10SM -RA BKN012 OVC024 05/ RMK SF6NS2=

CYXU;2005-10-25 03:00;METAR CYXU 250300Z 05008G15KT 10SM -RA BKN012 OVC024 05/03 A2991 RMK SF6NS2 SLP134=

CYXU;2005-10-25 04:00;METAR CYXU 250400Z 04009KT 12SM -RA OVC012 04/03 A2990 RMK SF8 SLP130=

CYXU;2005-10-25 06:00;METAR CYXU 250600Z 04008KT 15SM -RA BKN012 OVC036 04/02 A2988 RMK SF5NS3 SLP125=

CYXU;2005-10-25 07:00;METAR CYXU 250700Z 02008KT 15SM -RA SCT012 OVC033 04/03 A2987 RMK SF4NS4 SLP121=

CYXU;2005-10-25 08:00;METAR CYXU 250800Z 02008KT 15SM -RA BKN014 OVC030 04/02 A2986 RMK SF7NS1 SLP117=

CYXU;2005-10-25 08:27;SPECI CYXU 250827Z 03010KT 15SM OVC014 04/ RMK SF8=

CYXU;2005-10-25 09:00;METAR CYXU 250900Z 03011KT 15SM OVC014 04/02 A2984 RMK SF7 SLP112=

CYXU;2005-10-25 10:00;METAR CYXU 251000Z 03009G15KT 15SM OVC014 05/02 A2985 RMK SC7 SLP114=

CYXU;2005-10-25 11:00;METAR CYXU 251100Z 03012G17KT 15SM OVC012 05/02 A2985 RMK SC8 SLP115=

CYXU;2005-10-25 12:00;METAR CYXU 251200Z 03008G16KT 15SM BKN017 OVC075 05/02 A2985 RMK SC7AC1 SLP116=

CYXU;2005-10-25 13:00;METAR CYXU 251300Z 01010G16KT 15SM OVC014 05/02 A2985 RMK SC8 SLP116=

CYXU;2005-10-25 13:27;SPECI CYXU 251327Z 02013G18KT 15SM OVC017 05/ RMK SC8=

CYXU;2005-10-25 14:00;METAR CYXU 251400Z 02012KT 15SM BKN017 OVC079 05/02 A2984 RMK SC7AC1 SLP113=

CYXU;2005-10-25 15:00;METAR CYXU 251500Z 01013G19KT 15SM BKN020 BKN084 07/03 A2983 RMK SC5AC2 SLP109=

CYXU;2005-10-25 16:00;METAR CYXU 251600Z 02014KT 15SM BKN020 OVC080 07/02 A2984 RMK SC6AC2 SLP111=

CYXU;2005-10-25 17:00;METAR CYXU 251700Z 01012G17KT 15SM OVC025 08/03 A2983 RMK SC8 SLP106=

CYXU;2005-10-25 18:00;METAR CYXU 251800Z 01011G16KT 15SM OVC024 08/02 A2981 RMK SC8 SLP102=

CYXU;2005-10-25 19:00;METAR CYXU 251900Z 01013G19KT 15SM OVC026 08/02 A2981 RMK SC8 SLP100=

CYXU;2005-10-25 19:54;SPECI CYXU 251954Z 36014G19KT 15SM -SHRA OVC028 08/ RMK SC8 TCU ASOCTD=

CYXU;2005-10-25 20:00;METAR CYXU 252000Z 36016KT 15SM -SHRA OVC030 08/02 A2981 RMK SC8 TCU ASOCTD SLP102=

CYXU;2005-10-25 21:00;METAR CYXU 252100Z 36016G21KT 15SM -SHRA OVC030 07/03 A2982 RMK SC8 SLP103=

CYXU;2005-10-25 21:25;SPECI CYXU 252125Z 35011G19KT 15SM OVC030 08/ RMK SC8=

CYXU;2005-10-25 22:00;METAR CYXU 252200Z 36014KT 15SM BKN026 07/03 A2983 RMK SC7 SLP108=

CYXU;2005-10-25 23:00;METAR CYXU 252300Z 35012G17KT 15SM BKN026 07/02 A2985 RMK SC7 SLP113=

CYXU;2005-10-26 00:00;METAR CYXU 260000Z 36010G15KT 15SM OVC026 07/02 A2986 RMK SC8 SLP117=

CYXU;2005-10-26 01:00;METAR CYXU 260100Z 35013KT 15SM BKN026 OVC073 06/02 A2986 RMK SC6AC2 SLP118=

CYXU;2005-10-26 02:00;METAR CYXU 260200Z 35009G15KT 15SM BKN027 OVC078 06/02 A2987 RMK SC6AC2 SLP121=

CYXU;2005-10-26 03:00;METAR CYXU 260300Z 34008KT 15SM BKN026 OVC077 06/02 A2987 RMK SC6AC2 SLP120=

CYXU;2005-10-26 05:00;METAR CYXU 260500Z 35011G16KT 15SM OVC024 06/02 A2987 RMK SC8 SLP120=

CYXU;2005-10-26 06:00;METAR CYXU 260600Z 35008KT 15SM FEW042 OVC077 05/02 A2987 RMK SC1AC7 SLP121=

CYXU;2005-10-26 07:00;METAR CYXU 260700Z 34007KT 15SM BKN063 05/01 A2987 RMK SC7 SLP122=

CYXU;2005-10-26 08:00;METAR CYXU 260800Z 33007KT 15SM FEW041 BKN060 05/01 A2988 RMK SC2SC3 SLP124=

CYXU;2005-10-26 10:00;METAR CYXU 261000Z 32004KT 15SM FEW040 03/00 A2990 RMK SC1 SLP130=

CYXU;2005-10-26 11:00;METAR CYXU 261100Z 35003KT 15SM FEW040 02/M00 A2991 RMK SC2 SLP135=

CYXU;2005-10-26 12:00;METAR CYXU 261200Z 30004KT 15SM FEW040 01/M01 A2993 RMK SC2 SLP145=

CYXU;2005-10-26 13:00;METAR CYXU 261300Z 35007KT 15SM FEW040 04/01 A2995 RMK SC2 SLP150=

CYXU;2005-10-26 13:40;SPECI CYXU 261340Z 34012KT 15SM BKN014 BKN060 05/ RMK SC5SC2=

CYXU;2005-10-26 14:00;METAR CYXU 261400Z 35011KT 15SM BKN015 BKN060 06/02 A2998 RMK SC5SC1 SLP159=

CYXU;2005-10-26 15:00;METAR CYXU 261500Z 34009KT 15SM BKN018 07/02 A2998 RMK SC7 SLP160=

CYXU;2005-10-26 16:00;METAR CYXU 261600Z 33008KT 15SM BKN023 BKN057 08/02 A3000 RMK SC5SC2 SLP164=

CYXU;2005-10-26 17:00;METAR CYXU 261700Z 33009KT 15SM BKN030 BKN057 07/01 A3000 RMK SC5SC2 SLP166=

CYXU;2005-10-26 18:00;METAR CYXU 261800Z 30006KT 15SM BKN031 BKN057 07/01 A3000 RMK CU6SC2 SLP166=

CYXU;2005-10-26 19:00;METAR CYXU 261900Z 31006KT 15SM VCSH SCT030 OVC052 08/01 A3001 RMK CU4SC4 SLP168=

CYXU;2005-10-26 19:10;SPECI CYXU 261910Z 29011KT 15SM -SHRA BKN030 BKN050 06/ RMK CU5SC2 TCU ASOCTD=

CYXU;2005-10-26 19:40;SPECI CYXU 261940Z 31008KT 15SM VCSH SCT030 BKN052 07/ RMK CU3SC7=

CYXU;2005-10-26 21:00;METAR CYXU 262100Z 31010G15KT 15SM VCSH FEW030 BKN055 07/M00 A3002 RMK CU2SC6 SLP174=

CYXU;2005-10-26 22:00;METAR CYXU 262200Z 33008KT 15SM FEW030 OVC055 06/00 A3004 RMK CU2SC6 SLP180=

CYXU;2005-10-26 23:00;METAR CYXU 262300Z 34006KT 15SM VCSH FEW030 OVC053 06/00 A3007 RMK CU2SC6 SLP189=

CYXU;2005-10-27 00:00;METAR CYXU 270000Z 31004KT 15SM OVC055 05/00 A3009 RMK SC8 SLP198=

CYXU;2005-10-27 01:00;METAR CYXU 270100Z 35005KT 15SM FEW020 OVC055 05/00 A3010 RMK CU2SC6 SLP202=

CYXU;2005-10-27 02:00;METAR CYXU 270200Z 30003KT 15SM OVC055 05/01 A3012 RMK SC8 SLP207=

CYXU;2005-10-27 03:00;METAR CYXU 270300Z 28003KT 15SM OVC055 04/01 A3012 RMK SC8 SLP208=

CYXU;2005-10-27 04:00;METAR CYXU 270400Z 28003KT 15SM OVC047 04/01 A3014 RMK SC8 SLP213=

CYXU;2005-10-27 06:00;METAR CYXU 270600Z 27004KT 15SM OVC048 04/01 A3015 RMK SC8 SLP216=

CYXU;2005-10-27 07:00;METAR CYXU 270700Z 28003KT 15SM OVC052 04/01 A3016 RMK SC8 SLP220=

CYXU;2005-10-27 08:00;METAR CYXU 270800Z 30003KT 15SM OVC040 04/01 A3016 RMK SC8 SLP221=

CYXU;2005-10-27 09:00;METAR CYXU 270900Z 30003KT 15SM OVC053 04/01 A3017 RMK SC8 SLP222=

CYXU;2005-10-27 11:00;METAR CYXU 271100Z 32003KT 15SM OVC045 04/02 A3019 RMK SC8 SLP230=

CYXU;2005-10-27 12:00;METAR CYXU 271200Z 30003KT 15SM BKN047 04/01 A3020 RMK SC7 SLP234=

CYXU;2005-10-27 13:00;METAR CYXU 271300Z 32002KT 15SM BKN048 04/01 A3021 RMK SC7 OBS TKN +7 SLP238=

CYXU;2005-10-27 14:00;METAR CYXU 271400Z 00000KT 15SM BKN048 05/00 A3022 RMK SC7 SLP240=

CYXU;2005-10-27 15:00;METAR CYXU 271500Z 00000KT 15SM BKN049 06/M03 A3022 RMK SC7 SLP242=

CYXU;2005-10-27 16:00;METAR CYXU 271600Z 29003KT 15SM BKN050 07/M02 A3023 RMK SC6 SLP243=

CYXU;2005-10-27 17:00;METAR CYXU 271700Z 28004KT 15SM BKN040 BKN065 08/M02 A3021 RMK SC5SC2 SLP239=

CYXU;2005-10-27 18:00;METAR CYXU 271800Z 34004KT 15SM BKN045 07/M02 A3020 RMK SC7 SLP235=

CYXU;2005-10-27 19:00;METAR CYXU NIL=

CYXU;2005-10-27 19:38;SPECI CYXU 271938Z 26006KT 15SM FEW040 OVC060 07/ RMK CU2SC6=

CYXU;2005-10-27 22:00;METAR CYXU 272200Z 27005KT 15SM VCSH FEW030 OVC060 06/02 A3020 RMK CU2SC6 SLP234=

CYXU;2005-10-27 23:00;METAR CYXU 272300Z 28005KT 15SM VCSH FEW030 OVC052 06/02 A3021 RMK CU2SC6 SLP238=

CYXU;2005-10-28 00:00;METAR CYXU 280000Z 36004KT 15SM BKN052 OVC090 05/02 A3022 RMK SC6AC2 SLP242=

CYXU;2005-10-28 01:00;METAR CYXU 280100Z 09002KT 15SM -SHRA BKN053 OVC090 05/02 A3023 RMK SC6AC2 CU ASOCTD SLP245=

CYXU;2005-10-28 02:00;METAR CYXU 280200Z 31003KT 15SM FEW050 SCT090 04/02 A3024 RMK SC2AC2 SLP249=

CYXU;2005-10-28 03:00;METAR CYXU 280300Z 30003KT 15SM BKN090 03/02 A3025 RMK AC6 SLP251=

CYXU;2005-10-28 04:00;METAR CYXU 280400Z 32002KT 15SM OVC088 04/02 A3025 RMK AC8 SLP252=

CYXU;2005-10-28 05:00;METAR CYXU 280500Z 00000KT 15SM OVC089 03/02 A3026 RMK AC8 SLP254=

CYXU;2005-10-28 06:00;METAR CYXU 280600Z 00000KT 15SM BKN090 03/02 A3026 RMK AC6 SLP254=

CYXU;2005-10-28 08:00;METAR CYXU 280800Z 04004KT 12SM BKN086 00/M01 A3027 RMK AC6 SLP259=

CYXU;2005-10-28 09:00;METAR CYXU 280900Z 34002KT 15SM FEW080 01/M00 A3027 RMK AC2 FROIN SLP260=

CYXU;2005-10-28 10:00;METAR CYXU 281000Z 04003KT 15SM FEW080 01/M01 A3029 RMK AC2 FROIN SLP264=

CYXU;2005-10-28 11:00;METAR CYXU 281100Z 36004KT 15SM FEW080 00/M02 A3030 RMK AC2 FROIN SLP270=

CYXU;2005-10-28 12:00;METAR CYXU 281200Z 05002KT 15SM FEW080 M01/M02 A3032 RMK AC1 FROIN SLP276=

CYXU;2005-10-28 13:00;METAR CYXU 281300Z 36004KT 15SM FEW080 01/M01 A3034 RMK AC1 SLP282=

CYXU;2005-10-28 14:00;METAR CYXU 281400Z 02004KT 15SM FEW080 04/01 A3034 RMK AC1 SLP285=

CYXU;2005-10-28 15:00;METAR CYXU 281500Z 02004KT 15SM FEW024 FEW080 06/00 A3035 RMK CF1AC1 SLP285=

CYXU;2005-10-28 16:00;METAR CYXU 281600Z 04008KT 15SM FEW030 08/M02 A3035 RMK CU1 SLP287=

CYXU;2005-10-28 17:00;METAR CYXU 281700Z 04009KT 15SM SCT040 08/M03 A3034 RMK SC4 SLP284=

CYXU;2005-10-28 18:00;METAR CYXU 281800Z 04005KT 15SM BKN046 08/M03 A3034 RMK SC7 SLP280=

CYXU;2005-10-28 19:00;METAR CYXU 281900Z 36005KT 15SM OVC050 08/M03 A3033 RMK SC8 SLP279=

CYXU;2005-10-28 20:00;METAR CYXU 282000Z 36004KT 15SM BKN050 08/M03 A3033 RMK SC7 SLP279=

CYXU;2005-10-28 21:00;METAR CYXU 282100Z 02004KT 15SM BKN047 08/M02 A3033 RMK SC6 SLP279=

CYXU;2005-10-28 22:00;METAR CYXU 282200Z 34004KT 15SM BKN055 07/M02 A3033 RMK SC6 SLP279=

CYXU;2005-10-28 23:00;METAR CYXU 282300Z 34003KT 15SM SCT050 06/M02 A3034 RMK SC4 SLP281=

CYXU;2005-10-29 00:00;METAR CYXU 290000Z 34003KT 15SM SCT050 03/M02 A3034 RMK SC3 SLP286=

CYXU;2005-10-29 01:00;METAR CYXU 290100Z 31003KT 15SM FEW050 02/M02 A3034 RMK SC2 SLP286=

CYXU;2005-10-29 02:00;METAR CYXU 290200Z 32003KT 15SM SKC 02/M02 A3034 RMK SLP285=

CYXU;2005-10-29 03:00;METAR CYXU 290300Z 35003KT 15SM SKC 00/M03 A3035 RMK SLP286=

CYXU;2005-10-29 04:00;METAR CYXU 290400Z 34002KT 15SM SKC M01/M03 A3034 RMK SLP285=

CYXU;2005-10-29 05:00;METAR CYXU 290500Z 24002KT 15SM SKC M01/M03 A3035 RMK SLP287=

CYXU;2005-10-29 06:00;METAR CYXU 290600Z 28002KT 15SM SKC M02/M03 A3036 RMK SLP289=

CYXU;2005-10-29 08:00;METAR CYXU 290800Z 00000KT 15SM SKC M02/M03 A3036 RMK SLP290=

CYXU;2005-10-29 09:00;METAR CYXU 290900Z 00000KT 15SM SKC M02/M04 A3037 RMK SLP292=

CYXU;2005-10-29 10:00;METAR CYXU 291000Z 00000KT 15SM SKC M02/M04 A3037 RMK FROIN SLP293=

CYXU;2005-10-29 12:00;METAR CYXU 291200Z 00000KT 6SM BR FEW010 FEW100 M03/M04 A3037 RMK SF1AC1 FROIN TR SF NW SLP299=

CYXU;2005-10-29 13:00;METAR CYXU 291300Z 00000KT 6SM BR FEW100 M01/M02 A3038 RMK AC1 TR AC SE SLP301=

CYXU;2005-10-29 15:00;METAR CYXU 291500Z 27007KT 12SM FEW100 08/03 A3037 RMK AC1 TR AC SE SLP294=

CYXU;2005-10-29 16:00;METAR CYXU 291600Z 29007KT 15SM FEW025 10/04 A3037 RMK CU1 SLP295=

CYXU;2005-10-29 17:00;METAR CYXU 291700Z 30008KT 15SM FEW035 11/03 A3035 RMK CU1 SLP287=

CYXU;2005-10-29 18:00;METAR CYXU 291800Z 27006KT 15SM SKC 12/02 A3033 RMK SLP278=

CYXU;2005-10-29 19:00;METAR CYXU 291900Z 28009KT 15SM FEW210 12/01 A3031 RMK CI1 TR CI SE SLP273=

CYXU;2005-10-29 20:00;METAR CYXU 292000Z 27008KT 15SM SKC 12/M01 A3031 RMK SLP271=

CYXU;2005-10-29 21:00;METAR CYXU 292100Z 28008KT 15SM SKC 12/M00 A3030 RMK SLP267=

CYXU;2005-10-29 23:00;METAR CYXU 292300Z 27002KT 15SM FEW210 08/M00 A3030 RMK CI1 TR CI SLP268=

CYXU;2005-10-30 00:00;METAR CYXU 300000Z 23003KT 15SM SKC 06/M01 A3029 RMK SLP268=

CYXU;2005-10-30 02:00;METAR CYXU 300200Z 27005KT 15SM SKC 06/M01 A3029 RMK SLP268=

CYXU;2005-10-30 03:00;METAR CYXU 300300Z 26005KT 15SM SKC 06/M01 A3029 RMK SLP264=

CYXU;2005-10-30 04:00;METAR CYXU 300400Z 27005KT 15SM SKC 05/M00 A3028 RMK SLP262=

CYXU;2005-10-30 05:00;METAR CYXU 300500Z 27006KT 15SM SKC 05/00 A3028 RMK SLP262=

CYXU;2005-10-30 06:00;METAR CYXU 300600Z 27006KT 15SM SKC 05/00 A3028 RMK SLP260=

CYXU;2005-10-30 07:00;METAR CYXU 300700Z 27005KT 15SM SKC 04/00 A3029 RMK SLP262=

CYXU;2005-10-30 08:00;METAR CYXU 300800Z 27006KT 15SM SKC 04/00 A3028 RMK SLP260=

CYXU;2005-10-30 09:00;METAR CYXU 300900Z 27003KT 15SM SKC 04/00 A3028 RMK SLP259=

CYXU;2005-10-30 10:00;METAR CYXU 301000Z 26005KT 15SM SKC 04/00 A3028 RMK SLP261=

CYXU;2005-10-30 12:00;METAR CYXU 301200Z 26006KT 12SM SCT220 04/01 A3030 RMK CI2 SLP268=

CYXU;2005-10-30 13:00;METAR CYXU 301300Z 25007KT 12SM SCT200 06/02 A3031 RMK CI2 SLP273=

CYXU;2005-10-30 14:00;METAR CYXU 301400Z 25009KT 15SM BKN200 09/03 A3031 RMK CI2 SLP272=

CYXU;2005-10-30 15:00;METAR CYXU 301500Z 25011KT 12SM OVC200 10/03 A3030 RMK CI2 SLP266=

CYXU;2005-10-30 16:00;METAR CYXU 301600Z 26010G15KT 15SM OVC200 11/03 A3029 RMK CI5 SLP264=

CYXU;2005-10-30 17:00;METAR CYXU 301700Z 26009G17KT 15SM OVC200 13/03 A3027 RMK CI4 SLP255=

CYXU;2005-10-30 18:00;METAR CYXU 301800Z 23012KT 15SM OVC200 14/02 A3024 RMK CI3 SLP244=

CYXU;2005-10-30 19:00;METAR CYXU 301900Z 20013KT 15SM OVC200 14/02 A3021 RMK CI3 SLP236=

CYXU;2005-10-30 20:00;METAR CYXU 302000Z 20012G17KT 15SM BKN250 14/05 A3020 RMK CI3 CONTRAILS SLP231=

CYXU;2005-10-30 21:00;METAR CYXU 302100Z 20013KT 15SM BKN250 13/05 A3020 RMK CI3 CONTRAILS SLP231=

CYXU;2005-10-30 22:00;METAR CYXU 302200Z 21011G16KT 15SM FEW200 BKN240 11/04 A3020 RMK CI1CI2 SLP231=

CYXU;2005-10-31 00:00;METAR CYXU 310000Z 20008KT 15SM SKC 09/03 A3019 RMK SLP229=

CYXU;2005-10-31 01:00;METAR CYXU 310100Z 20007KT 15SM FEW240 09/05 A3017 RMK CI1 SLP225=

CYXU;2005-10-31 03:00;METAR CYXU 310300Z 22006KT 15SM FEW240 09/05 A3017 RMK CI0 SLP221=

CYXU;2005-10-31 04:00;METAR CYXU 310400Z 20005KT 15SM FEW240 08/04 A3017 RMK CI1 SLP220=

CYXU;2005-10-31 06:00;METAR CYXU 310600Z 21007KT 15SM BKN140 08/04 A3015 RMK AC3 SLP213=

CYXU;2005-10-31 07:00;METAR CYXU 310700Z 21005KT 15SM FEW140 07/03 A3014 RMK AC2 SLP210=

CYXU;2005-10-31 08:00;METAR CYXU 310800Z 19003KT 15SM FEW140 06/02 A3013 RMK AC1 SLP205=

CYXU;2005-10-31 10:00;METAR CYXU 311000Z 21004KT 15SM FEW120 SCT180 08/03 A3010 RMK AC2AC1 SLP199=

CYXU;2005-10-31 12:00;METAR CYXU 311200Z 22007KT 15SM -DZ OVC037 09/05 A3010 RMK NS8 SLP196=

CYXU;2005-10-31 12:14;SPECI CYXU 311214Z 22005KT 6SM -RA BR BKN037 OVC059 09/ RMK SC6NS2=

CYXU;2005-10-31 12:30;SPECI CYXU 311230Z 23005KT 10SM BKN037 OVC044 09/ RMK SC5SC3=

CYXU;2005-10-31 13:00;METAR CYXU 311300Z 21006KT 10SM -RA BKN037 OVC040 09/06 A3010 RMK SC5SC3 SLP197=

CYXU;2005-10-31 13:46;SPECI CYXU 311346Z 22006KT 10SM BKN025 OVC041 09/ RMK SC6SC2=

CYXU;2005-10-31 14:00;METAR CYXU 311400Z 22007KT 10SM BKN027 OVC040 09/06 A3010 RMK SC6SC2 SLP197=

CYXU;2005-10-31 15:00;METAR CYXU 311500Z 22010KT 10SM OVC031 11/07 A3009 RMK SC8 SLP194=

CYXU;2005-10-31 16:00;METAR CYXU 311600Z 24010KT 15SM OVC029 12/07 A3009 RMK SC8 SLP193=

CYXU;2005-10-31 17:00;METAR CYXU 311700Z 22009KT 15SM OVC025 12/08 A3008 RMK SC8 SLP192=

CYXU;2005-10-31 18:00;METAR CYXU 311800Z 23010KT 15SM OVC034 13/09 A3006 RMK SC8 SLP182=

CYXU;2005-10-31 19:00;METAR CYXU 311900Z 25013KT 15SM BKN035 15/10 A3004 RMK CU6 SLP176=

CYXU;2005-10-31 20:00;METAR CYXU 312000Z 22012KT 10SM BKN035 15/09 A3004 RMK SC7 HAZE SLP177=

CYXU;2005-10-31 22:00;METAR CYXU 312200Z 18007KT 8SM BKN030 BKN045 14/09 A3004 RMK SC5SC2 HAZE SLP177=

CYXU;2005-10-31 23:00;METAR CYXU 312300Z 19007KT 8SM BKN030 11/08 A3005 RMK SC6 HAZE SLP178=

CYXU;2005-11-01 00:00;METAR CYXU 010000Z 21007KT 7SM FEW030 BKN068 12/09 A3004 RMK SC2AC6 HAZE SLP177=

CYXU;2005-11-01 01:00;METAR CYXU 010100Z 20007KT 8SM BKN043 OVC068 13/08 A3003 RMK SC6AC2 SLP174=

CYXU;2005-11-01 02:00;METAR CYXU 010200Z 15006KT 8SM BKN068 OVC100 12/09 A3001 RMK AC7AC1 HAZE SLP166=

CYXU;2005-11-01 02:49;SPECI CYXU 010249Z 18005KT 6SM -RA BR BKN045 OVC068 12/ RMK SC6AC2=

CYXU;2005-11-01 03:00;METAR CYXU 010300Z 20005KT 5SM -RA BR OVC044 12/10 A3000 RMK SC8 NS ASOCTD SLP163=

CYXU;2005-11-01 04:00;METAR CYXU 010400Z 21009KT 4SM -RA BR OVC020 12/11 A2998 RMK NS8 SLP156=

CYXU;2005-11-01 06:00;METAR CYXU 010600Z 16005KT 1 1/2SM BR BKN060 OVC120 11/10 A2990 RMK FG3SC2AC2 SLP129=

CYXU;2005-11-01 07:00;METAR CYXU 010700Z 16005KT 1 1/2SM BR OVC065 10/10 A2988 RMK FG4SC4 SLP120=

CYXU;2005-11-01 08:00;METAR CYXU 010800Z 20005KT 3SM BR BKN065 BKN130 11/10 A2986 RMK SC5AC2 SLP113=

CYXU;2005-11-01 09:00;METAR CYXU 010900Z 22007KT 3SM BR FEW060 OVC130 11/09 A2983 RMK SC2AC6 SLP102=

CYXU;2005-11-01 10:00;METAR CYXU 011000Z 24006KT 3SM BR FEW025 BKN065 OVC130 11/08 A2982 RMK SC2SC3AC3 SLP100=

CYXU;2005-11-01 10:43;SPECI CYXU 011043Z 26009KT 3SM -SHRA BR BKN009 OVC100 11/ RMK SC5AC3=

CYXU;2005-11-01 11:00;METAR CYXU 011100Z 27010KT 3SM -SHRA BR BKN008 OVC025 11/09 A2983 RMK SF6SC2 SLP102=

CYXU;2005-11-01 11:13;SPECI CYXU 011113Z 30009G16KT 3SM -SHRA BR BKN018 OVC025 10/ RMK SF6SC2=

CYXU;2005-11-01 11:39;SPECI CYXU 011139Z 29008KT 3SM -SHRA BR BKN007 OVC030 09/ RMK SF7SC1=

CYXU;2005-11-01 11:44;SPECI CYXU 011144Z 29011KT 3SM SHRA BR BKN008 OVC027 09/ RMK SF7SC1=

CYXU;2005-11-01 12:00;METAR CYXU 011200Z 29008KT 5SM -SHRA BR BKN009 OVC036 09/08 A2986 RMK SF6SC2 SLP115=

CYXU;2005-11-01 13:00;METAR CYXU 011300Z 28007KT 5SM -SHRA BR BKN010 OVC051 08/07 A2988 RMK SF5SC3 SLP123=

CYXU;2005-11-01 13:20;SPECI CYXU 011320Z 27004KT 8SM -SHRA FEW010 OVC042 08/ RMK SF2SC6=

CYXU;2005-11-01 13:53;SPECI CYXU 011353Z 27004KT 10SM FEW045 OVC067 08/ RMK SC2AC6=

CYXU;2005-11-01 14:00;METAR CYXU 011400Z 28003KT 10SM FEW045 OVC067 08/07 A2987 RMK SC2AC6 SLP120=

CYXU;2005-11-01 14:32;SPECI CYXU 011432Z 26007KT 10SM SCT009 OVC070 09/ RMK CF4AC4=

CYXU;2005-11-01 15:00;METAR CYXU 011500Z 26009KT 10SM SCT009 SCT027 OVC072 09/08 A2990 RMK SF3SC1AC4 SLP127=

CYXU;2005-11-01 19:00;METAR CYXU 011900Z 27009KT 15SM BKN025 OVC055 10/05 A2989 RMK CU7SC1 SLP126=

CYXU;2005-11-01 20:00;METAR CYXU 012000Z 27009KT 15SM FEW022 BKN048 OVC080 10/05 A2990 RMK CU2SC5AC1 SLP130=

CYXU;2005-11-01 21:00;METAR CYXU 012100Z 27008KT 15SM FEW025 SCT055 BKN260 10/04 A2990 RMK CU2SC2CI1 SLP128=

CYXU;2005-11-01 22:00;METAR CYXU 012200Z 26006KT 15SM SCT035 BKN055 BKN260 08/04 A2991 RMK CU4SC1CI1 TCU SHWRS WNW SLP132=

CYXU;2005-11-01 22:12;SPECI CYXU 012212Z 31003KT 15SM -SHRA BKN035TCU BKN055 BKN260 09/ RMK TCU5SC2CI1=

CYXU;2005-11-01 22:47;SPECI CYXU 012247Z 26004KT 15SM SCT035TCU BKN055 08/ RMK TCU3SC2 SHWRS SE=

CYXU;2005-11-01 23:00;METAR CYXU 012300Z 27004KT 15SM FEW035TCU SCT055 08/04 A2993 RMK TCU2SC2 SHWRS NW SLP139=

CYXU;2005-11-01 23:42;SPECI CYXU 012342Z 31012KT 10SM -SHRA FEW018 BKN035TCU BKN055 08/ RMK CF2TCU4SC1=

CYXU;2005-11-02 00:00;METAR CYXU 020000Z 32010G16KT 7SM -SHRA FEW018 OVC038TCU 06/04 A2996 RMK CF2TCU6 SLP151=

CYXU;2005-11-02 00:31;SPECI CYXU 020031Z 27004KT 15SM SCT045 06/ RMK SC4 TCU=

CYXU;2005-11-02 01:00;METAR CYXU 020100Z 27003KT 15SM FEW030 05/04 A2996 RMK SC1 SLP151=

CYXU;2005-11-02 02:00;METAR CYXU 020200Z 30003KT 15SM BKN058 06/03 A2998 RMK SC5 SLP157=

CYXU;2005-11-02 03:00;METAR CYXU 020300Z 25005KT 15SM FEW060 BKN250 06/03 A2999 RMK SC1CI2 SLP161=

CYXU;2005-11-02 04:00;METAR CYXU 020400Z 26006KT 15SM FEW040 SCT250 06/03 A3000 RMK SC2CI2 SLP164=

CYXU;2005-11-02 05:00;METAR CYXU 020500Z 27004KT 15SM FEW040 05/02 A3000 RMK SC2 SLP165=

CYXU;2005-11-02 06:00;METAR CYXU 020600Z 27006KT 15SM SKC 04/02 A3001 RMK SLP168=

CYXU;2005-11-02 07:00;METAR CYXU 020700Z 27006KT 15SM FEW040 04/02 A3002 RMK SC2 SLP172=

CYXU;2005-11-02 08:00;METAR CYXU 020800Z 27006KT 15SM FEW040 04/02 A3002 RMK SC1 SLP172=

CYXU;2005-11-02 10:00;METAR CYXU 021000Z 00000KT 12SM SKC 02/01 A3003 RMK SLP177=

CYXU;2005-11-02 12:00;METAR CYXU 021200Z 00000KT 6SM R15/3500VP6000FT/D BR MIFG FEW030 02/01 A3006 RMK CU1 TR CU SLP187=

CYXU;2005-11-02 12:19;SPECI CYXU 021219Z 00000KT 1/2SM R15/4000VP6000FT/D FG FEW030 01/ RMK CU1 VSBY NW-E 1/4=

CYXU;2005-11-02 12:40;SPECI CYXU 021240Z 00000KT 2 1/2SM BR MIFG FEW030 01/ RMK CU1 TR CU=

CYXU;2005-11-02 13:00;METAR CYXU 021300Z 00000KT 2SM R15/3500VP6000FT/U BR MIFG FEW030 03/02 A3010 RMK CU1 VSBY N-E 1 TR CU SLP200=

CYXU;2005-11-02 13:24;SPECI CYXU 021324Z 31002KT 4SM BR FEW030 04/ RMK CU1 TR CU=

CYXU;2005-11-02 14:00;METAR CYXU 021400Z 29004KT 6SM BR FEW030 FEW250 05/04 A3011 RMK CU1CI1 TR CU/CI SLP205=

CYXU;2005-11-02 15:00;METAR CYXU 021500Z 26005KT 15SM FEW030 FEW250 08/05 A3013 RMK CU1CI1 TR CU/CI SLP211=

CYXU;2005-11-02 16:00;METAR CYXU 021600Z 27006KT 15SM FEW030 10/03 A3015 RMK CU1 SLP217=

CYXU;2005-11-02 17:00;METAR CYXU 021700Z 25007KT 15SM FEW030 11/03 A3014 RMK CU1 SLP212=

CYXU;2005-11-02 18:00;METAR CYXU 021800Z 26007KT 15SM FEW030 11/03 A3013 RMK CU2 SLP208=

CYXU;2005-11-02 21:00;METAR CYXU 022100Z 19006KT 15SM BKN042 11/04 A3010 RMK CU5 SLP197=

CYXU;2005-11-02 22:00;METAR CYXU 022200Z 20008KT 15SM FEW042 10/05 A3009 RMK SC2 SLP196=

CYXU;2005-11-03 00:00;METAR CYXU 030000Z 15004KT 15SM SKC 06/04 A3009 RMK SLP197=

CYXU;2005-11-03 01:00;METAR CYXU 030100Z 16005KT 15SM SKC 06/04 A3006 RMK SLP188=

CYXU;2005-11-03 02:00;METAR CYXU 030200Z 17005KT 15SM SKC 06/05 A3005 RMK SLP184=

CYXU;2005-11-03 03:00;METAR CYXU 030300Z 18008KT 15SM BKN200 08/06 A3002 RMK CI5 SLP170=

CYXU;2005-11-03 04:00;METAR CYXU 030400Z 19010KT 15SM SCT200 09/08 A3000 RMK CI3 SLP166=

CYXU;2005-11-03 06:00;METAR CYXU 030600Z 21011G16KT 15SM FEW200 10/08 A2997 RMK CI2 SLP151=

CYXU;2005-11-03 08:00;METAR CYXU 030800Z 22013G20KT 15SM SKC 11/04 A2991 RMK SLP133=

CYXU;2005-11-03 09:00;METAR CYXU 030900Z 23018G23KT 15SM SKC 12/03 A2989 RMK SLP125=

CYXU;2005-11-03 10:00;METAR CYXU 031000Z 22021G26KT 15SM SKC 12/03 A2987 RMK SLP117=

CYXU;2005-11-03 12:00;METAR CYXU 031200Z 24017G25KT 15SM BKN250 12/04 A2987 RMK CI5 SLP119=

CYXU;2005-11-03 13:00;METAR CYXU 031300Z 23017G24KT 15SM BKN250 12/05 A2988 RMK CI5 SLP122=

CYXU;2005-11-03 14:00;METAR CYXU 031400Z 23014G24KT 15SM BKN250 13/05 A2990 RMK CI1 SLP129=

CYXU;2005-11-03 15:00;METAR CYXU 031500Z 25013G22KT 15SM BKN250 BKN300 14/06 A2990 RMK CI1CI1 COTRA SLP130=

CYXU;2005-11-03 16:00;METAR CYXU 031600Z 24014G22KT 15SM OVC250 OVC300 15/07 A2991 RMK CI1CI1 COTRA SLP131=

CYXU;2005-11-03 19:00;METAR CYXU 031900Z 26012KT 15SM FEW160 BKN230 17/08 A2991 RMK AC1CI7 TR AC SLP129=

CYXU;2005-11-03 20:00;METAR CYXU 032000Z 24010KT 15SM FEW160 OVC230 17/08 A2991 RMK AC1CI4 SLP129=

CYXU;2005-11-04 00:00;METAR CYXU 040000Z 11002KT 15SM BKN230 12/08 A2991 RMK CS5 SLP132=

CYXU;2005-11-04 01:00;METAR CYXU 040100Z 16005KT 15SM BKN230 11/07 A2991 RMK CS5 SLP131=

CYXU;2005-11-04 02:00;METAR CYXU 040200Z 14003KT 15SM BKN230 11/07 A2991 RMK CS6 SLP130=

CYXU;2005-11-04 03:00;METAR CYXU 040300Z 11003KT 15SM BKN230 10/07 A2990 RMK CS3 SLP128=

CYXU;2005-11-04 05:00;METAR CYXU 040500Z 14005KT 15SM OVC220 10/06 A2988 RMK CS7 SLP121=

CYXU;2005-11-04 06:00;METAR CYXU 040600Z 17005KT 15SM BKN220 10/07 A2987 RMK CS3 SLP116=

CYXU;2005-11-04 07:00;METAR CYXU 040700Z 18006KT 15SM SKC 11/08 A2984 RMK SLP107=

CYXU;2005-11-04 08:00;METAR CYXU 040800Z 19008KT 15SM BKN230 11/07 A2982 RMK CI3 SLP099=

CYXU;2005-11-04 10:00;METAR CYXU 041000Z 20010KT 15SM OVC250 12/07 A2978 RMK CI6 SLP084=

CYXU;2005-11-04 12:00;METAR CYXU 041200Z 20011KT 15SM BKN220 12/06 A2974 RMK CI4 SLP072=

CYXU;2005-11-04 13:00;METAR CYXU 041300Z 21013KT 15SM OVC220 13/06 A2975 RMK CI8 SLP076=

CYXU;2005-11-04 14:00;METAR CYXU 041400Z 21014G19KT 15SM OVC220 13/06 A2976 RMK CI8 SLP080=

CYXU;2005-11-04 15:00;METAR CYXU 041500Z 22013G18KT 15SM FEW180 BKN220 14/06 A2976 RMK AC1CS6 SLP080=

CYXU;2005-11-04 16:00;METAR CYXU 041600Z 22012G18KT 15SM BKN180 BKN220 15/07 A2976 RMK AC5CS1 SLP079=

CYXU;2005-11-04 17:00;METAR CYXU 041700Z 22016G21KT 15SM FEW180 16/07 A2973 RMK AC1 SLP071=

CYXU;2005-11-04 18:00;METAR CYXU 041800Z 22015G21KT 15SM FEW150 17/08 A2973 RMK AC1 SLP068=

CYXU;2005-11-04 19:00;METAR CYXU 041900Z 22015G21KT 15SM FEW150 17/08 A2973 RMK AC1 SLP070=

CYXU;2005-11-04 21:00;METAR CYXU 042100Z 22016KT 15SM FEW200 17/08 A2976 RMK CI1 SLP078=

CYXU;2005-11-04 22:00;METAR CYXU 042200Z 22012G17KT 15SM FEW230 15/08 A2978 RMK CI1 SLP084=

CYXU;2005-11-04 23:00;METAR CYXU 042300Z 22011KT 15SM FEW230 15/08 A2980 RMK CI1 SLP090=

CYXU;2005-11-05 00:00;METAR CYXU 050000Z 22010G15KT 15SM FEW230 14/08 A2981 RMK CI0 SLP097=

CYXU;2005-11-05 02:00;METAR CYXU 050200Z 22009KT 15SM SKC 14/08 A2984 RMK SLP105=

CYXU;2005-11-05 03:00;METAR CYXU 050300Z 24008KT 15SM SCT140 14/09 A2985 RMK AC1 SLP110=

CYXU;2005-11-05 04:00;METAR CYXU 050400Z 27005KT 15SM BKN130 14/09 A2986 RMK AC3 SLP113=

CYXU;2005-11-05 05:00;METAR CYXU 050500Z 27004KT 15SM SCT120 12/08 A2987 RMK AC3 SLP115=

CYXU;2005-11-05 06:00;METAR CYXU 050600Z 00000KT 15SM SCT130 11/08 A2987 RMK AC2 SLP115=

CYXU;2005-11-05 08:00;METAR CYXU 050800Z 17004KT 15SM SCT120 08/07 A2988 RMK AC2 SLP120=

CYXU;2005-11-05 09:00;METAR CYXU 050900Z 07002KT 10SM SKC 09/07 A2988 RMK SLP120=

CYXU;2005-11-05 10:00;METAR CYXU 051000Z 08003KT 7SM SKC 06/06 A2989 RMK BR SLP122=

CYXU;2005-11-05 11:00;METAR CYXU 051100Z 14003KT 7SM SCT080 06/06 A2989 RMK AC3 SLP122=

CYXU;2005-11-05 12:00;METAR CYXU 051200Z 10002KT 2 1/2SM BR BKN046 OVC082 08/08 A2989 RMK SC5AC3 SLP123=

CYXU;2005-11-05 13:00;METAR CYXU 051300Z 00000KT 2 1/2SM BR BKN042 OVC080 10/10 A2991 RMK SC6AC2 SLP131=

CYXU;2005-11-05 14:00;METAR CYXU 051400Z 00000KT 2 1/2SM BR BKN016 OVC080 11/10 A2992 RMK SC6AC2 SLP135=

CYXU;2005-11-05 15:00;METAR CYXU 051500Z 00000KT 2 1/2SM BR BKN020 OVC079 12/11 A2992 RMK SC5AC3 SLP133=

CYXU;2005-11-05 16:00;METAR CYXU 051600Z 14002KT 2 1/2SM BR BKN020 OVC062 14/12 A2992 RMK SC5SC3 SLP132=

CYXU;2005-11-05 17:00;METAR CYXU 051700Z 18004KT 3SM BR BKN012 OVC062 15/13 A2990 RMK SC5SC3 SLP128=

CYXU;2005-11-05 17:36;SPECI CYXU 051736Z 21009KT 5SM HZ BKN012 OVC050 16/ RMK SC6SC2=

CYXU;2005-11-05 18:00;METAR CYXU 051800Z 22007KT 5SM HZ BKN014 OVC040 15/13 A2990 RMK SC6SC2 SLP126=

CYXU;2005-11-05 19:00;METAR CYXU 051900Z 22008KT 6SM HZ OVC015 16/13 A2991 RMK SC8 SLP129=

CYXU;2005-11-05 20:00;METAR CYXU 052000Z 22007KT 5SM HZ OVC015 16/13 A2991 RMK SC8 SLP131=

CYXU;2005-11-05 20:54;SPECI CYXU 052054Z 27006KT 5SM -SHRA BR OVC014 16/ RMK SC8=

CYXU;2005-11-05 21:10;SPECI CYXU 052110Z 27004KT 4SM -SHRA BR OVC014 15/ RMK SC8 TCU ASOCTD=

CYXU;2005-11-05 21:25;SPECI CYXU 052125Z 30003KT 4SM BR OVC013 15/ RMK SC8=

CYXU;2005-11-05 22:00;METAR CYXU 052200Z 34003KT 3SM BR OVC013 14/13 A2994 RMK SC8 SLP141=

CYXU;2005-11-05 22:33;SPECI CYXU 052233Z 35003KT 2 1/2SM BR OVC013 14/ RMK FG2SC6=

CYXU;2005-11-05 23:00;METAR CYXU 052300Z 36002KT 2 1/2SM BR OVC013 14/13 A2995 RMK FG2SC6 SLP145=

CYXU;2005-11-06 00:00;METAR CYXU 060000Z 09003KT 2 1/2SM BR BKN013 BKN020 OVC074 13/13 A2996 RMK FG2SC4SC2AC1 SLP147=

CYXU;2005-11-06 00:47;SPECI CYXU 060047Z 07005KT 2 1/4SM BR SCT013 OVC076 13/ RMK FG2SC2AC5=

CYXU;2005-11-06 04:00;METAR CYXU 060400Z 11012KT 3SM BR FEW030 OVC120 12/11 A2984 RMK SC2AC6 SLP106=

CYXU;2005-11-06 05:00;METAR CYXU 060500Z 11010KT 2SM BR FEW006 OVC060 12/11 A2983 RMK FG1SF2SC6 SLP104=

CYXU;2005-11-06 06:00;METAR CYXU 060600Z 11013KT 2SM BR FEW006 OVC078 12/11 A2980 RMK FG1SF1AC6 SLP094=

CYXU;2005-11-06 09:00;METAR CYXU 060900Z 15008KT 6SM BR SCT050 15/12 A2970 RMK SC3 SLP058=

CYXU;2005-11-06 10:00;METAR CYXU 061000Z 17013KT 8SM SCT050 16/13 A2967 RMK SC4 SLP048=

CYXU;2005-11-06 11:00;METAR CYXU 061100Z 17015KT 10SM BKN060 16/13 A2965 RMK SC5 SLP040=

CYXU;2005-11-06 11:18;SPECI CYXU 061118Z 17013KT 10SM TS FEW040 BKN060 16/ RMK CU2SC5 CB SOUTH=

CYXU;2005-11-06 11:34;SPECI CYXU 061134Z 18015G20KT 10SM -TSRA BKN036CB 16/ RMK CB6=

CYXU;2005-11-06 12:00;METAR CYXU 061200Z 17013G20KT 10SM -TSRA OVC035TCU 15/13 A2962 RMK TCU8 CB EMBDD SLP029=

CYXU;2005-11-06 12:32;SPECI CYXU 061232Z 19020G25KT 8SM SCT020 OVC040TCU 15/ RMK CF3TCU5 EB EMBDD EAST RETS=

CYXU;2005-11-06 13:00;METAR CYXU 061300Z 20017G26KT 12SM FEW025 BKN040 OVC100 16/13 A2963 RMK CF2CU3AC3 RETS SLP033=

CYXU;2005-11-06 13:19;SPECI CYXU 061319Z 20016G25KT 12SM -SHRA SCT025TCU OVC080 16/ RMK TCU3AC5=

CYXU;2005-11-06 13:34;SPECI CYXU 061334Z 21012G20KT 4SM SHRA BR BKN025TCU OVC060 14/ RMK TCU6SC2=

CYXU;2005-11-06 13:48;SPECI CYXU 061348Z 20010G15KT 8SM -SHRA SCT025 OVC095 14/ RMK CU3ACC5 RERA=

CYXU;2005-11-06 14:00;METAR CYXU 061400Z 17013KT 10SM -SHRA FEW025 BKN060 OVC110 14/13 A2958 RMK CU2SC2AC3 RERA SLP018=

CYXU;2005-11-06 15:00;METAR CYXU 061500Z 17015G20KT 12SM FEW040 OVC100 14/13 A2953 RMK SC2AC6 TCU TOPS SOUTH SLP000=

CYXU;2005-11-06 16:00;METAR CYXU 061600Z 19023G35KT 10SM -SHRA BKN018TCU OVC070 15/14 A2951 RMK TCU6AC2 SLP995=

CYXU;2005-11-06 16:31;SPECI CYXU 061631Z 21022G35KT 12SM BKN020 16/ RMK CU7 TCU ASOCTD=

CYXU;2005-11-06 17:00;METAR CYXU 061700Z 22033G40KT 15SM BKN025 16/11 A2950 RMK CU7 TCU ASOCTD SLP991=

CYXU;2005-11-06 18:00;METAR CYXU 061800Z 23027G40KT 15SM OVC033 14/08 A2953 RMK SC8 CU TCU ASOCTD SLP999=

CYXU;2005-11-06 19:00;METAR CYXU 061900Z 23030G40KT 15SM OVC030 13/07 A2956 RMK SC8 SLP009=

CYXU;2005-11-06 20:53;SPECI CYXU 062053Z 27024G37KT 5SM -SHRA BR OVC031 09/ RMK SC8 TCU ASOCTD/PRESRR=

CYXU;2005-11-06 21:00;METAR CYXU 062100Z 25023G33KT 12SM -SHRA BKN031 OVC052 09/04 A2969 RMK SC6SC2 TCU ASOCTD/PRESRR SLP057=

CYXU;2005-11-06 22:00;METAR CYXU 062200Z 26018G27KT 12SM -SHRA BKN030 BKN050 08/04 A2975 RMK SC6SC2 TCU ASOCTD SLP075=

CYXU;2005-11-06 22:23;SPECI CYXU 062223Z 26017G26KT 15SM OVC030 08/ RMK SC8=

CYXU;2005-11-06 23:00;METAR CYXU 062300Z 27016G21KT 15SM BKN028 BKN043 08/03 A2980 RMK SC6SC2 SLP091=

CYXU;2005-11-07 00:00;METAR CYXU 070000Z 27017G26KT 15SM OVC036 08/02 A2985 RMK SC8 SLP110=

CYXU;2005-11-07 01:00;METAR CYXU 070100Z 26014G25KT 15SM BKN028 OVC200 07/02 A2990 RMK SC7CI1 SLP126=

CYXU;2005-11-07 02:00;METAR CYXU 070200Z 27014G21KT 15SM OVC021 07/02 A2993 RMK SC8 SLP139=

CYXU;2005-11-07 03:00;METAR CYXU 070300Z 28013G29KT 15SM BKN037 08/02 A2997 RMK SC6 SLP150=

CYXU;2005-11-07 04:00;METAR CYXU 070400Z 27014G21KT 15SM SCT035 07/01 A2998 RMK SC3 SLP156=

CYXU;2005-11-07 06:00;METAR CYXU 070600Z 26009G16KT 15SM SCT027 BKN042 07/02 A3002 RMK SC3SC4 SLP171=

CYXU;2005-11-07 07:00;METAR CYXU 070700Z 26010G15KT 15SM SCT035 06/02 A3005 RMK SC4 SLP179=

CYXU;2005-11-07 09:00;METAR CYXU 070900Z 26010G16KT 15SM FEW030 SCT150 06/02 A3008 RMK SC2AC2 SLP193=

CYXU;2005-11-07 10:00;METAR CYXU 071000Z 26010KT 15SM SCT160 05/02 A3011 RMK AC2 SLP203=

CYXU;2005-11-07 11:00;METAR CYXU 071100Z 26008KT 15SM FEW150 05/02 A3013 RMK AC2 SLP207=

CYXU;2005-11-07 13:00;METAR CYXU 071300Z 25008KT 15SM FEW030 FEW220 05/02 A3018 RMK SC1CI1 SLP227=

CYXU;2005-11-07 14:00;METAR CYXU 071400Z 26008KT 15SM FEW030 FEW220 07/03 A3019 RMK SC1CI1 SLP231=

CYXU;2005-11-07 16:00;METAR CYXU 071600Z 24013KT 15SM FEW024 FEW220 10/04 A3019 RMK CU1CI1 SLP230=

CYXU;2005-11-07 18:00;METAR CYXU 071800Z 23014KT 15SM FEW030 SCT130 11/03 A3015 RMK CU1AC2 SLP215=

CYXU;2005-11-07 20:00;METAR CYXU 072000Z 19015KT 15SM FEW035 SCT130 12/07 A3009 RMK CU1AC2 SLP195=

CYXU;2005-11-07 21:00;METAR CYXU 072100Z 21012G17KT 15SM BKN110 11/05 A3007 RMK AC7 SLP189=

CYXU;2005-11-07 23:00;METAR CYXU 072300Z 22012G17KT 15SM OVC120 11/06 A3005 RMK AC8 SLP180=

CYXU;2005-11-08 00:00;METAR CYXU 080000Z 22011KT 15SM OVC100 11/06 A3005 RMK AC8 SLP181=

CYXU;2005-11-08 01:00;METAR CYXU 080100Z 22014KT 15SM BKN100 11/06 A3003 RMK AC7 SLP176=

CYXU;2005-11-08 04:00;METAR CYXU 080400Z 25012KT 15SM SKC 11/06 A3004 RMK SLP176=

CYXU;2005-11-08 05:00;METAR CYXU 080500Z 26009KT 15SM SKC 10/06 A3004 RMK SLP177=

CYXU;2005-11-08 06:00;METAR CYXU 080600Z 25008KT 15SM SKC 10/06 A3003 RMK SLP174=

CYXU;2005-11-08 07:00;METAR CYXU 080700Z 26009KT 15SM SKC 09/06 A3004 RMK SLP176=

CYXU;2005-11-08 08:00;METAR CYXU 080800Z 26007KT 15SM SKC 09/06 A3004 RMK SLP177=

CYXU;2005-11-08 10:00;METAR CYXU 081000Z 27004KT 8SM SKC 07/05 A3006 RMK SLP183=

CYXU;2005-11-08 11:00;METAR CYXU 081100Z 31002KT 7SM FEW200 06/04 A3006 RMK CI1 SLP184=

CYXU;2005-11-08 12:00;METAR CYXU 081200Z 00000KT 3SM BR SCT200 05/04 A3007 RMK CI2 SLP189=

CYXU;2005-11-08 13:00;METAR CYXU 081300Z 00000KT 3SM BR FEW160 BKN220 05/04 A3009 RMK AC2CI2 SLP195=

CYXU;2005-11-08 15:00;METAR CYXU 081500Z 05005KT 5SM HZ FEW007 BKN160 09/07 A3012 RMK SF2AC6 SLP205=

CYXU;2005-11-08 16:00;METAR CYXU 081600Z 09007KT 7SM FEW008 BKN180 10/07 A3013 RMK SF1AC6 SLP209=

CYXU;2005-11-08 17:00;METAR CYXU 081700Z 11006KT 8SM FEW020 FEW160 BKN220 12/06 A3012 RMK CF1AC2CI1 SLP204=

CYXU;2005-11-08 18:00;METAR CYXU 081800Z 08004KT 8SM FEW025 SCT220 13/07 A3011 RMK CF1CI2 SLP199=

CYXU;2005-11-08 19:00;METAR CYXU 081900Z 14005KT 10SM FEW030 BKN220 13/06 A3010 RMK CF1CI2 SLP195=

CYXU;2005-11-08 20:00;METAR CYXU 082000Z 13002KT 10SM FEW030 BKN220 13/06 A3010 RMK CF1CI2 SLP196=

CYXU;2005-11-08 21:00;METAR CYXU 082100Z 10006KT 15SM FEW170 OVC220 13/06 A3010 RMK AC2CI0 SLP197=

CYXU;2005-11-08 22:00;METAR CYXU 082200Z 09005KT 10SM FEW170 OVC220 11/06 A3011 RMK AC2CI0 SLP201=

CYXU;2005-11-08 23:00;METAR CYXU 082300Z 08007KT 13SM FEW170 OVC220 10/05 A3012 RMK AC2CI1 SLP203=

CYXU;2005-11-09 00:00;METAR CYXU 090000Z 09008KT 10SM FEW170 OVC230 09/04 A3013 RMK AC2CI2 SLP209=

CYXU;2005-11-09 01:00;METAR CYXU 090100Z 09008KT 15SM FEW180 FEW230 08/03 A3013 RMK CI2CI1 SLP208=

CYXU;2005-11-09 02:00;METAR CYXU 090200Z 09010KT 15SM FEW180 OVC230 07/02 A3012 RMK CI2CI6 SLP206=

CYXU;2005-11-09 03:00;METAR CYXU 090300Z 09010KT 15SM BKN160 OVC230 07/01 A3011 RMK AC6CI2 SLP202=

CYXU;2005-11-09 04:00;METAR CYXU 090400Z 09011KT 15SM FEW160 FEW230 06/01 A3009 RMK AC1CI1 SLP196=

CYXU;2005-11-09 05:00;METAR CYXU 090500Z 09013KT 15SM FEW160 FEW230 06/01 A3006 RMK AC1CI1 SLP185=

CYXU;2005-11-09 07:00;METAR CYXU 090700Z 10016KT 15SM BKN190 06/01 A2998 RMK AC7 SLP158=

CYXU;2005-11-09 08:00;METAR CYXU 090800Z 10011G16KT 15SM SCT048 OVC120 06/02 A2997 RMK SC3AC5 SLP153=

CYXU;2005-11-09 08:45;SPECI CYXU 090845Z 09017KT 15SM -SHRA SCT040 OVC070 06/ RMK SC4AC4=

CYXU;2005-11-09 09:44;SPECI CYXU 090944Z 10016KT 2SM +SHRA SCT017 OVC040 05/ RMK SC3SC5=

CYXU;2005-11-09 10:00;METAR CYXU 091000Z 09017KT 4SM SHRA BKN018 OVC040 05/03 A2989 RERA RMK SC6SC2 SLP127=

CYXU;2005-11-09 10:37;SPECI CYXU 091037Z 09013KT 4SM SHRA OVC015 05/ RMK SC8 TCU ASOCTD=

CYXU;2005-11-09 10:45;SPECI CYXU 091045Z 09012KT 4SM +TSRA OVC015CB 05/ RMK CB8 LTGCG N=

CYXU;2005-11-09 11:00;METAR CYXU 091100Z 08012G17KT 4SM +SHRA OVC013 05/04 A2987 RETS RMK SC8 CVCTV CLD EMBD /R10/ SLP119=

CYXU;2005-11-09 11:10;SPECI CYXU 091110Z 07015KT 4SM SHRA BR OVC020 05/ RETSRA RMK NS8 CVCTV CLD EMBD=

CYXU;2005-11-09 11:20;SPECI CYXU 091120Z 10015KT 3SM TSRA BR OVC013 05/ RERA RMK NS8 CB EMBD=

CYXU;2005-11-09 12:00;METAR CYXU 091200Z 12021KT 2SM TSRA BR OVC007 05/04 A2979 RERA RMK NS8 RERA CB EMBD PRESFR SLP093=

CYXU;2005-11-09 12:14;SPECI CYXU 091214Z 13013G22KT 1 1/2SM +TSRA BR BKN005 OVC015CB 05/ RMK SF6CB2 LTGCC=

CYXU;2005-11-09 12:20;SPECI CYXU 091220Z 14016KT 1SM R15/P6000FT/D +TSRAGR BR BKN005 OVC015CB 05/ RMK SF3CB5 LTGCC=

CYXU;2005-11-09 12:30;SPECI CYXU 091230Z 13015KT 2 1/2SM R15/4000VP6000FT/U -TSRA BR FEW007 OVC030 06/ RERA RMK SF2SC6 CB ASOCTD E /R10/=

CYXU;2005-11-09 13:00;METAR CYXU 091300Z 09011G16KT 3SM -SHRA BR BKN005 OVC030 07/07 A2973 RETSRA RMK SF6SC2 TCU EMBD SLP075=

CYXU;2005-11-09 13:37;SPECI CYXU 091337Z 14014KT 1 1/2SM -TSRA BR OVC003 08/ RMK ST8 CB EMBD=

CYXU;2005-11-09 14:00;METAR CYXU 091400Z 15009G19KT 1 1/2SM -SHRA BR OVC004 08/07 A2968 RETS RMK ST8 SLP056=

CYXU;2005-11-09 14:25;SPECI CYXU 091425Z 15010G15KT 2 1/2SM -SHRA BR BKN004 OVC010 08/ RMK SF5SC3 PCPN VRY LGT=

CYXU;2005-11-09 15:10;SPECI CYXU 091510Z 14009KT 1SM R15/P6000FT/D -DZ BR OVC002 09/ RMK ST8=

CYXU;2005-11-09 15:40;SPECI CYXU 091540Z 17006KT 2SM -DZ BR OVC002 12/ RMK ST8=

CYXU;2005-11-09 16:00;METAR CYXU 091600Z 19008KT 3/4SM R15/P6000FT/D -DZ BR OVC002 12/12 A2956 RMK FG4ST4 PRESFR SLP017=

CYXU;2005-11-09 17:00;METAR CYXU 091700Z 22011KT 1 1/2SM -DZ BR OVC002 15/14 A2953 RMK FG2ST6 SLP004=

CYXU;2005-11-09 17:16;SPECI CYXU 091716Z 23013KT 1 1/2SM BR OVC004 15/ RMK FG2ST6=

CYXU;2005-11-09 17:42;SPECI CYXU 091742Z 24013G20KT 3SM BR BKN008 OVC015 16/ RMK SF5SC3=

CYXU;2005-11-09 18:00;METAR CYXU 091800Z 24010KT 3SM BR BKN010 OVC018 16/16 A2948 RMK SF5SC3 /R14/ SLP986=

CYXU;2005-11-09 18:42;SPECI CYXU 091842Z 24010G19KT 6SM BR BKN016 OVC023 17/ RMK SC6SC2=

CYXU;2005-11-09 19:53;SPECI CYXU 091953Z 24021G26KT 8SM -TSRA SCT015 BKN024CB 18/ RMK SC3CB4=

CYXU;2005-11-09 20:00;METAR CYXU 092000Z 28018G26KT 6SM -TSRA BR SCT010 OVC020CB 18/15 A2945 RMK SF3CB5 SLP974=

CYXU;2005-11-09 20:16;SPECI CYXU 092016Z 28015G24KT 8SM TS FEW010 SCT020 BKN035 16/ RMK SF1SC3SC3 CB ASOCTD=

CYXU;2005-11-09 20:27;SPECI CYXU 092027Z 29015G26KT 12SM FEW020 BKN035 BKN230 16/ RETS RMK SC2SC4CI2 PRESRR=

CYXU;2005-11-09 21:00;METAR CYXU 092100Z 29020G30KT 15SM BKN035 BKN120 14/05 A2952 RETS RMK SC6AC1 PRESRR SLP999=

CYXU;2005-11-09 22:00;METAR CYXU 092200Z 31014G22KT 15SM SCT045 BKN230 11/04 A2958 RMK SC3CI4 PRESRR SLP020=

CYXU;2005-11-09 23:00;METAR CYXU 092300Z 30018G25KT 15SM BKN038 OVC230 09/02 A2963 RMK SC7CI1 SLP036=

CYXU;2005-11-10 00:00;METAR CYXU 100000Z 28012G17KT 15SM BKN038 OVC230 08/01 A2966 RMK SC7CI1 SLP050=

CYXU;2005-11-10 01:00;METAR CYXU 100100Z 28011G19KT 15SM OVC042 08/00 A2966 RMK SC8 SLP050=

CYXU;2005-11-10 02:00;METAR CYXU 100200Z 28015G26KT 15SM OVC048 07/M01 A2968 RMK SC8 SLP056=

CYXU;2005-11-10 04:00;METAR CYXU 100400Z 28019G27KT 15SM OVC046 07/M01 A2969 RMK SC8 SLP059=

CYXU;2005-11-10 05:00;METAR CYXU 100500Z 27017KT 15SM OVC066 06/M01 A2970 RMK AC8 SLP062=

CYXU;2005-11-10 06:00;METAR CYXU 100600Z 27016G25KT 15SM BKN037 OVC072 05/M00 A2971 RMK SC5AC3 SLP064=

CYXU;2005-11-10 06:53;SPECI CYXU 100653Z 31017G29KT 15SM PL BKN019 OVC028 05/ RMK SC6SC2 TCU ASOCTD=

CYXU;2005-11-10 07:12;SPECI CYXU 100712Z 29014G20KT 15SM OVC055 04/ RMK SC8=

CYXU;2005-11-10 09:00;METAR CYXU 100900Z 28017G24KT 15SM BKN040 04/M01 A2978 RMK SC7 SLP090=

CYXU;2005-11-10 10:00;METAR CYXU 101000Z 30019G28KT 15SM -SHRA BKN034 03/M00 A2983 RMK SC7 SLP106=

CYXU;2005-11-10 12:00;METAR CYXU 101200Z 30009G15KT 15SM -SHRA BKN048 03/M01 A2990 RMK SC7 TCU ASOCTD SLP131=

CYXU;2005-11-10 12:46;SPECI CYXU 101246Z 30012G18KT 15SM -SHSN BKN045 RMK SC7 TCU ASOCTD=

CYXU;2005-11-10 13:00;METAR CYXU 101300Z 31010KT 15SM -SHSN FEW030 BKN054 03/M01 A2993 RMK CF2SC5 TCU ASOCTD SLP142=

CYXU;2005-11-10 13:51;SPECI CYXU 101351Z 31019G27KT 2 1/2SM -SHSN FEW009 OVC023TCU RMK CF2TCU6=

CYXU;2005-11-10 15:00;METAR CYXU 101500Z 31011G20KT 15SM FEW020 BKN045TCU 04/M02 A2996 RMK CF1TCU6 SHWRS ALQDS SLP153=

CYXU;2005-11-10 16:00;METAR CYXU 101600Z 34012G17KT 15SM BKN028 04/M02 A2998 RMK SC7 TCU ASOCTD SHWRS SE SLP158=

CYXU;2005-11-10 17:00;METAR CYXU 101700Z 30013G25KT 15SM BKN041 05/M02 A2998 RMK SC7 SHWRS NE SLP159=

CYXU;2005-11-10 18:00;METAR CYXU 101800Z 30014G21KT 15SM BKN040 04/M03 A3000 RMK SC7 SLP165=

CYXU;2005-11-10 19:00;METAR CYXU 101900Z 30012G21KT 15SM OVC048 05/M02 A3001 RMK SC8 SLP169=

CYXU;2005-11-10 20:00;METAR CYXU 102000Z 29011G16KT 15SM OVC040 05/M03 A3001 RMK SC8 SLP169=

CYXU;2005-11-10 21:00;METAR CYXU 102100Z 30010G18KT 15SM FEW030 BKN046 04/M03 A3002 RMK CF1SC6 SLP173=

CYXU;2005-11-10 22:00;METAR CYXU 102200Z 29010G15KT 15SM BKN050 04/M02 A3003 RMK SC7 SLP175=

CYXU;2005-11-10 23:00;METAR CYXU 102300Z 29009KT 15SM BKN045 04/M02 A3003 RMK SC7 SLP176=

CYXU;2005-11-11 00:00;METAR CYXU 110000Z 27007KT 15SM BKN055 04/M02 A3004 RMK SC7 SLP180=

CYXU;2005-11-11 02:00;METAR CYXU 110200Z 27007KT 15SM BKN052 04/M02 A3005 RMK SC7 SLP184=

CYXU;2005-11-11 03:00;METAR CYXU 110300Z 27005KT 15SM BKN054 04/M02 A3006 RMK SC7 SLP187=

CYXU;2005-11-11 04:00;METAR CYXU 110400Z 29003KT 15SM BKN058 03/M02 A3005 RMK SC6 SLP183=

CYXU;2005-11-11 05:00;METAR CYXU 110500Z 30002KT 15SM BKN058 03/M02 A3006 RMK SC5 SLP186=

CYXU;2005-11-11 07:00;METAR CYXU 110700Z 27005KT 15SM BKN044 02/M02 A3005 RMK SC5 SLP185=

CYXU;2005-11-11 09:00;METAR CYXU 110900Z 26006KT 15SM BKN046 02/M02 A3007 RMK SC5 SLP190=

CYXU;2005-11-11 10:00;METAR CYXU 111000Z 27006KT 15SM BKN041 03/M02 A3008 RMK SC6 SLP194=

CYXU;2005-11-11 11:00;METAR CYXU 111100Z 25004KT 15SM BKN040 02/M03 A3008 RMK SC6 SLP196=

CYXU;2005-11-11 12:00;METAR CYXU 111200Z 25006KT 15SM BKN040 01/M02 A3009 RMK SC5 SLP199=

CYXU;2005-11-11 13:00;METAR CYXU 111300Z 25005KT 15SM FEW040 02/M02 A3012 RMK SC2 SLP208=

CYXU;2005-11-11 14:00;METAR CYXU 111400Z 26009KT 15SM FEW040 04/M01 A3014 RMK CU1 SLP214=

CYXU;2005-11-11 15:00;METAR CYXU 111500Z 25007KT 15SM FEW040 05/M00 A3014 RMK SC1 SLP214=

CYXU;2005-11-11 16:00;METAR CYXU 111600Z 25007KT 15SM FEW040 FEW250 06/M01 A3014 RMK CF1CI1 SLP215=

CYXU;2005-11-11 17:00;METAR CYXU 111700Z 22005KT 15SM FEW035 FEW090 07/M01 A3013 RMK CF1AC1 SLP211=

CYXU;2005-11-11 18:00;METAR CYXU 111800Z 26007KT 15SM FEW035 FEW250 08/M01 A3011 RMK CU1CI1 SLP203=

CYXU;2005-11-11 19:00;METAR CYXU 111900Z 27007KT 15SM FEW035 FEW180 09/M01 A3010 RMK CF1AC1 SLP202=

CYXU;2005-11-11 20:00;METAR CYXU 112000Z 23008KT 15SM FEW035 FEW180 FEW250 09/01 A3010 RMK CF1AC1CI1 SLP200=

CYXU;2005-11-11 21:00;METAR CYXU 112100Z 22007KT 15SM FEW180 FEW250 09/01 A3008 RMK AC1CI1 SLP193=

CYXU;2005-11-11 22:00;METAR CYXU 112200Z 21007KT 15SM FEW180 FEW250 08/00 A3008 RMK AC1CI1 SLP194=

CYXU;2005-11-11 23:00;METAR CYXU 112300Z 21007KT 15SM FEW180 FEW250 06/03 A3008 RMK AC1CI1 SLP194=

CYXU;2005-11-12 00:00;METAR CYXU 120000Z 21007KT 15SM SCT230 06/02 A3009 RMK CI2 SLP197=

CYXU;2005-11-12 01:00;METAR CYXU 120100Z 20004KT 15SM FEW230 04/01 A3009 RMK CI1 SLP198=

CYXU;2005-11-12 02:00;METAR CYXU 120200Z 21004KT 15SM SKC 04/01 A3009 RMK SLP199=

CYXU;2005-11-12 03:00;METAR CYXU 120300Z 16002KT 15SM SKC 04/01 A3009 RMK SLP198=

CYXU;2005-11-12 04:00;METAR CYXU 120400Z 18003KT 15SM SKC 04/01 A3008 RMK SLP195=

CYXU;2005-11-12 05:00;METAR CYXU 120500Z 20004KT 15SM SKC 04/00 A3008 RMK SLP195=

CYXU;2005-11-12 06:00;METAR CYXU 120600Z 20006KT 15SM SKC 05/01 A3008 RMK SLP192=

CYXU;2005-11-12 08:00;METAR CYXU 120800Z 19006KT 15SM SKC 04/01 A3008 RMK SLP193=

CYXU;2005-11-12 09:00;METAR CYXU 120900Z 18005KT 15SM SKC 04/01 A3007 RMK SLP190=

CYXU;2005-11-12 10:00;METAR CYXU 121000Z 18007KT 15SM SKC 04/01 A3006 RMK SLP187=

CYXU;2005-11-12 11:00;METAR CYXU 121100Z 18006KT 15SM SKC 05/02 A3006 RMK SLP187=

CYXU;2005-11-12 12:00;METAR CYXU 121200Z 19007KT 15SM FEW120 FEW250 06/03 A3007 RMK AC2CI1 SLP188=

CYXU;2005-11-12 13:00;METAR CYXU 121300Z 18008KT 15SM SCT120 07/04 A3007 RMK AC4 ACC ASOCTD VIRGA SLP189=

CYXU;2005-11-12 14:00;METAR CYXU 121400Z 19009KT 15SM FEW140 09/05 A3006 RMK AC1 SLP187=

CYXU;2005-11-12 15:00;METAR CYXU 121500Z 20010KT 15SM FEW240 12/05 A3006 RMK CI1 SLP184=

CYXU;2005-11-12 16:00;METAR CYXU 121600Z 20014KT 15SM FEW250 13/04 A3005 RMK CI1 SLP182=

CYXU;2005-11-12 17:00;METAR CYXU 121700Z 21016KT 15SM BKN250 14/05 A3003 RMK CI5 SLP174=

CYXU;2005-11-12 18:00;METAR CYXU 121800Z 19011G16KT 15SM SCT240 14/05 A3001 RMK CI2 SLP167=

CYXU;2005-11-12 20:00;METAR CYXU 122000Z 20011G16KT 15SM SCT240 14/02 A3001 RMK CI2 SLP167=

CYXU;2005-11-12 21:00;METAR CYXU 122100Z 19011G19KT 15SM SCT240 13/03 A3001 RMK CI2 SLP167=

CYXU;2005-11-12 22:00;METAR CYXU 122200Z 17009KT 15SM FEW180 SCT240 12/01 A3001 RMK AC2CI1 SLP168=

CYXU;2005-11-12 23:00;METAR CYXU 122300Z 16005KT 15SM FEW180 FEW240 11/02 A3000 RMK AC2CI1 SLP165=

CYXU;2005-11-13 00:00;METAR CYXU 130000Z 17008KT 15SM FEW180 BKN240 10/04 A3000 RMK AC1CI2 SLP165=

CYXU;2005-11-13 01:00;METAR CYXU 130100Z 18008KT 15SM BKN240 11/04 A3000 RMK CI2 SLP164=

CYXU;2005-11-13 02:00;METAR CYXU 130200Z 17007KT 15SM SCT240 11/03 A3000 RMK CI2 SLP164=

CYXU;2005-11-13 03:00;METAR CYXU 130300Z 16008KT 15SM SCT240 10/03 A2999 RMK CI2 HALO SLP157=

CYXU;2005-11-13 04:00;METAR CYXU 130400Z 16007KT 15SM FEW240 09/04 A2998 RMK CI2 SLP156=

CYXU;2005-11-13 05:00;METAR CYXU 130500Z 17008KT 15SM FEW240 10/04 A2998 RMK CI1 SLP155=

CYXU;2005-11-13 06:00;METAR CYXU 130600Z 17007KT 15SM FEW240 10/03 A2995 RMK CI2 SLP146=

CYXU;2005-11-13 08:00;METAR CYXU 130800Z 17011KT 15SM FEW240 10/04 A2992 RMK CI2 SLP135=

CYXU;2005-11-13 10:00;METAR CYXU 131000Z 22017G25KT 8SM -SHRA OVC025 11/05 A2990 RMK SC8 TCU EMBD SLP127=

CYXU;2005-11-13 11:00;METAR CYXU 131100Z 18010G15KT 8SM -SHRA BKN040 OVC100 09/07 A2987 RMK SC6AC2 TCU EMBDD SLP118=

CYXU;2005-11-13 12:00;METAR CYXU 131200Z 19013G18KT 10SM BKN040 OVC120 10/08 A2986 RMK SC6AC2 SLP115=

CYXU;2005-11-13 13:00;METAR CYXU 131300Z 19015G20KT 15SM SCT040 BKN120 BKN220 11/07 A2986 RMK SC3AC2CI2 SLP116=

CYXU;2005-11-13 14:00;METAR CYXU 131400Z 20015G20KT 15SM BKN023 OVC120 12/08 A2987 RMK SC6AC2 SLP118=

CYXU;2005-11-13 15:00;METAR CYXU 131500Z 21016G28KT 15SM OVC022 13/10 A2987 RMK SC8 CIG RGD SLP117=

CYXU;2005-11-13 16:00;METAR CYXU 131600Z 20015G28KT 15SM BKN022 14/10 A2986 RMK SC7 SLP113=

CYXU;2005-11-13 17:00;METAR CYXU 131700Z 21020G26KT 15SM OVC022 14/11 A2984 RMK SC8 CIG RGD SLP108=

CYXU;2005-11-13 18:00;METAR CYXU 131800Z 21016G27KT 15SM OVC023 14/11 A2983 RMK SC8 SLP105=

CYXU;2005-11-13 19:00;METAR CYXU 131900Z 21015G25KT 15SM BKN023 15/11 A2983 RMK CU7 SLP102=

CYXU;2005-11-13 22:00;METAR CYXU 132200Z 20018G28KT 15SM FEW025 14/11 A2982 RMK CU1 SLP100=

CYXU;2005-11-13 23:00;METAR CYXU 132300Z 21012G18KT 15SM FEW025 14/10 A2984 RMK CF1 SLP107=

CYXU;2005-11-14 00:00;METAR CYXU 140000Z 25018G26KT 15SM FEW060 13/07 A2987 RMK SC1 SLP118=

CYXU;2005-11-14 01:00;METAR CYXU 140100Z 27021G28KT 15SM SKC 12/M01 A2993 RMK SLP138=

CYXU;2005-11-14 02:00;METAR CYXU 140200Z 26017G24KT 15SM BKN053 09/M00 A2998 RMK SC6 SLP154=

CYXU;2005-11-14 03:00;METAR CYXU 140300Z 26018G27KT 15SM OVC051 09/M01 A3001 RMK SC8 SLP167=

CYXU;2005-11-14 04:00;METAR CYXU 140400Z 25018G25KT 15SM BKN055 08/M01 A3004 RMK SC7 SLP176=

CYXU;2005-11-14 05:00;METAR CYXU 140500Z 26012G20KT 15SM FEW055 07/M02 A3007 RMK SC2 SLP186=

CYXU;2005-11-14 06:00;METAR CYXU 140600Z 26012G20KT 15SM FEW055 06/M01 A3010 RMK SC1 SLP196=

CYXU;2005-11-14 07:00;METAR CYXU 140700Z 28012G17KT 15SM FEW050 06/M01 A3013 RMK SC2 SLP208=

CYXU;2005-11-14 09:00;METAR CYXU 140900Z 28008KT 15SM FEW035 04/M01 A3021 RMK SC1 SLP236=

CYXU;2005-11-14 10:00;METAR CYXU 141000Z 29006KT 15SM SCT035 04/M01 A3026 RMK SC4 SLP250=

CYXU;2005-11-14 11:00;METAR CYXU 141100Z 30005KT 15SM FEW030 04/M01 A3028 RMK SC2 SLP257=

CYXU;2005-11-14 12:00;METAR CYXU 141200Z 28004KT 15SM FEW030 03/M01 A3030 RMK SC1 SLP267=

CYXU;2005-11-14 13:00;METAR CYXU 141300Z 28004KT 15SM FEW030 FEW260 03/M01 A3033 RMK SC1CI0 SLP277=

CYXU;2005-11-14 14:00;METAR CYXU 141400Z 28006KT 15SM FEW030 FEW260 06/M00 A3036 RMK SC1CI0 SLP286=

CYXU;2005-11-14 16:00;METAR CYXU 141600Z 26004KT 15SM FEW030 SCT250 07/M00 A3038 RMK CU2CI0 SLP293=

CYXU;2005-11-14 18:00;METAR CYXU 141800Z 00000KT 15SM FEW030 BKN250 08/M00 A3036 RMK SC1CS6 SLP286=

CYXU;2005-11-14 19:00;METAR CYXU 141900Z 00000KT 15SM BKN160 OVC250 08/M00 A3035 RMK AC6CS2 SLP283=

CYXU;2005-11-14 20:00;METAR CYXU 142000Z 06004KT 15SM BKN160 BKN250 08/M00 A3033 RMK AC5CS2 SLP276=

CYXU;2005-11-14 21:00;METAR CYXU 142100Z 08004KT 15SM BKN130 BKN250 08/M00 A3033 RMK AS6CS1 SLP279=

CYXU;2005-11-14 22:00;METAR CYXU 142200Z 08005KT 15SM BKN170 OVC250 07/00 A3031 RMK AC7CS1 SLP273=

CYXU;2005-11-14 23:00;METAR CYXU 142300Z 09005KT 15SM FEW100 BKN170 OVC250 06/M00 A3030 RMK AC2AC6CS0 SLP270=

CYXU;2005-11-15 00:00;METAR CYXU 150000Z 08005KT 15SM BKN130 OVC250 06/00 A3028 RMK AC6CS2 SLP262=

CYXU;2005-11-15 01:00;METAR CYXU 150100Z 09006KT 15SM OVC100 06/01 A3028 RMK AC8 SLP261=

CYXU;2005-11-15 03:00;METAR CYXU 150300Z 09011KT 15SM OVC088 06/00 A3022 RMK AC8 SLP240=

CYXU;2005-11-15 04:00;METAR CYXU 150400Z 08015G20KT 15SM OVC080 06/00 A3018 RMK AC8 SLP228=

CYXU;2005-11-15 04:45;SPECI CYXU 150445Z 09017KT 10SM -SHRA OVC072 06/ RMK AC8 TCU EMBDD=

CYXU;2005-11-15 05:00;METAR CYXU 150500Z 09015G20KT 10SM -SHRA OVC060 05/01 A3016 RMK SC8 TCU EMBDD SLP219=

CYXU;2005-11-15 06:00;METAR CYXU 150600Z 08016KT 10SM -SHRA OVC043 04/02 A3008 RMK SC8 SLP192=

CYXU;2005-11-15 07:00;METAR CYXU 150700Z 08016KT 6SM -SHRA OVC032 04/02 A3006 RMK SC8 SLP186=

CYXU;2005-11-15 08:00;METAR CYXU 150800Z 08017KT 3SM -SHRA BR OVC009 04/03 A3004 RMK SC8 SLP180=

CYXU;2005-11-15 09:00;METAR CYXU 150900Z 09017G24KT 3SM -SHRA BR OVC008 04/03 A3000 RMK SC8 TCU EMBD SLP167=

CYXU;2005-11-15 10:00;METAR CYXU 151000Z 09013G18KT 4SM -DZ BR OVC006 05/04 A2999 RMK ST8 SLP161=

CYXU;2005-11-15 11:00;METAR CYXU 151100Z 08013G18KT 2SM -DZ BR OVC005 05/04 A2997 RMK NS8 SLP157=

CYXU;2005-11-15 11:46;SPECI CYXU 151146Z 09012KT 4SM -DZ BR OVC005 05/ RMK NS8=

CYXU;2005-11-15 12:00;METAR CYXU 151200Z 09012KT 4SM -DZ BR OVC004 05/04 A2998 RMK NS8 SLP160=

CYXU;2005-11-15 12:29;SPECI CYXU 151229Z 08010KT 1 1/2SM -DZ BR OVC004 05/ RMK FG4NS4=

CYXU;2005-11-15 13:00;METAR CYXU 151300Z 09012KT 2SM -DZ BR OVC004 05/05 A2998 RMK FG3NS5 SLP159=

CYXU;2005-11-15 14:00;METAR CYXU 151400Z 08012KT 2SM -DZ BR OVC003 06/05 A2998 RMK FG3NS5 SLP160=

CYXU;2005-11-15 14:19;SPECI CYXU 151419Z 08012KT 2SM -SHRA BR OVC003 06/ RMK FG3NS5=

CYXU;2005-11-15 15:00;METAR CYXU 151500Z 09012KT 2SM -SHRA BR OVC003 06/05 A2997 RMK FG3NS5 SLP156=

CYXU;2005-11-15 15:23;SPECI CYXU 151523Z 09012KT 3SM -RA BR OVC003 06/ RMK NS8=

CYXU;2005-11-15 16:00;METAR CYXU 151600Z 09010KT 3SM -RA BR OVC004 06/05 A2997 RMK NS8 CIELING RAGGED SLP156=

CYXU;2005-11-15 16:26;SPECI CYXU 151626Z 09010KT 3SM RA BR OVC005 06/ RMK NS8 CIG VRBL 4-7=

CYXU;2005-11-15 17:00;METAR CYXU 151700Z 08008KT 3SM RA BR BKN004 OVC007 07/06 A2995 RMK SF6NS2 /R10/ SLP150=

CYXU;2005-11-15 18:00;METAR CYXU 151800Z 08010KT 3SM RA BR BKN004 OVC007 07/06 A2991 RMK SF6NS2 SLP136=

CYXU;2005-11-15 19:00;METAR CYXU 151900Z 09010KT 3SM RA BR OVC004 07/07 A2988 RMK NS8 CIELING RAGGED CIG VRBL 3-5 SLP126=

CYXU;2005-11-15 20:00;METAR CYXU 152000Z 09011KT 2 1/2SM RA BR OVC004 08/07 A2985 RMK NS8 SLP116=

CYXU;2005-11-15 20:17;SPECI CYXU 152017Z 09009KT 2 1/2SM -RA BR OVC003 08/ RMK NS8=

CYXU;2005-11-15 21:00;METAR CYXU 152100Z 09009KT 2 1/2SM -RA BR OVC003 08/08 A2984 RMK NS8 SLP111=

CYXU;2005-11-15 22:00;METAR CYXU 152200Z 09011KT 1 1/2SM -RA BR OVC003 08/08 A2979 RMK NS8 SLP093=

CYXU;2005-11-15 23:00;METAR CYXU 152300Z 09011KT 1 1/2SM -RA BR OVC004 09/08 A2976 RMK NS8 SLP086=

CYXU;2005-11-16 00:00;METAR CYXU 160000Z 10008KT 1 1/2SM RA BR SCT003 OVC022 09/09 A2973 RMK SF4NS4 /R11/ SLP072=

CYXU;2005-11-16 00:22;SPECI CYXU 160022Z 12006G15KT 5SM -RA FEW003 OVC016 10/ RMK SF2NS6=

CYXU;2005-11-16 01:00;METAR CYXU 160100Z 13012KT 5SM -RA FEW003 OVC025 11/11 A2970 RMK SF2NS6 SLP063=

CYXU;2005-11-16 02:26;SPECI CYXU 160226Z 10009KT 4SM -TSRA OVC040 11/ RMK NS8 CB EMBDD=

CYXU;2005-11-16 02:54;SPECI CYXU 160254Z 34006KT 5SM -RA OVC045 12/ RMK SC8 TCU EMBDD=

CYXU;2005-11-16 03:00;METAR CYXU 160300Z 34005KT 5SM -RA FEW005 OVC045 12/11 A2966 RMK SF2SC6 TCU EMBDD SLP048=

CYXU;2005-11-16 03:14;SPECI CYXU 160314Z 09006KT 5SM -TSRA FEW005 OVC045 13/ RMK SF2SC6 CB EMBDD=

CYXU;2005-11-16 03:37;SPECI CYXU 160337Z 14007KT 5SM -RA FEW005 OVC045 14/ RMK SF1SC7 TCU EMBDD=

CYXU;2005-11-16 04:00;METAR CYXU 160400Z 17010KT 6SM -RA OVC045 15/13 A2961 RMK SC8 TCU EMBDD SLP031=

CYXU;2005-11-16 05:00;METAR CYXU 160500Z 18019G27KT 6SM -RA OVC048 16/13 A2957 RMK SC8 TCU EMBDD SLP018=

CYXU;2005-11-16 05:54;SPECI CYXU 160554Z 18019G25KT 15SM OVC045 16/ RMK SC8=

CYXU;2005-11-16 06:00;METAR CYXU 160600Z 18020G26KT 15SM OVC043 16/13 A2954 RMK SC8 SLP004=

CYXU;2005-11-16 07:00;METAR CYXU 160700Z 18024G36KT 15SM OVC038 18/13 A2949 RMK SC8 PRESFR SLP990=

CYXU;2005-11-16 08:00;METAR CYXU 160800Z 19025G39KT 15SM OVC028 18/13 A2949 RMK SC8 SLP987=

CYXU;2005-11-16 08:29;SPECI CYXU 160829Z 23029G35KT 10SM -SHRA OVC022 14/ RMK SC8 TCU EMBD=

CYXU;2005-11-16 09:00;METAR CYXU 160900Z 25026G34KT 12SM -SHRA FEW022 OVC038 09/07 A2956 RMK SC2SC6 CVCTV CLD EMBD PRESRR SLP014=

CYXU;2005-11-16 10:00;METAR CYXU 161000Z 24022G30KT 15SM -SHRA SCT020 OVC051 08/05 A2960 RMK SC4SC4 CVCTV CLD EMBD SLP027=

CYXU;2005-11-16 10:14;SPECI CYXU 161014Z 23019G35KT 15SM FEW020 OVC060 08/ RMK SC2SC6=

CYXU;2005-11-16 11:00;METAR CYXU 161100Z 25020G30KT 15SM BKN023 07/M05 A2965 RMK SC7 SLP043=

CYXU;2005-11-16 12:00;METAR CYXU 161200Z 24018G31KT 15SM OVC032 06/01 A2968 RMK SC8 SLP055=

CYXU;2005-11-16 13:00;METAR CYXU 161300Z 23022G30KT 15SM OVC024 05/01 A2972 RMK SC8 SLP069=

CYXU;2005-11-16 14:00;METAR CYXU 161400Z 24021G28KT 15SM BKN035 05/01 A2976 RMK SC7 SLP080=

CYXU;2005-11-16 15:00;METAR CYXU 161500Z 23021G29KT 15SM OVC031 05/M00 A2979 RMK SC8 SLP093=

CYXU;2005-11-16 16:00;METAR CYXU 161600Z 23021G32KT 15SM OVC024 05/00 A2982 RMK SC8 SLP101=

CYXU;2005-11-16 17:00;METAR CYXU 161700Z 23019G26KT 15SM OVC025 05/M00 A2983 RMK SC8 SLP104=

CYXU;2005-11-16 18:00;METAR CYXU 161800Z 24019G29KT 15SM OVC022 04/M01 A2984 RMK SC8 SLP110=

CYXU;2005-11-16 19:00;METAR CYXU 161900Z 24018G27KT 15SM OVC021 03/M01 A2986 RMK SC8 SLP115=

CYXU;2005-11-16 20:00;METAR CYXU 162000Z 23020G28KT 15SM OVC021 03/M02 A2989 RMK SC8 SLP124=

CYXU;2005-11-16 20:52;SPECI CYXU 162052Z 23021G26KT 15SM OVC018 02/ RMK SC8=

CYXU;2005-11-16 21:00;METAR CYXU 162100Z 23017G26KT 15SM OVC020 02/M02 A2992 RMK SC8 SLP138=

CYXU;2005-11-16 22:00;METAR CYXU 162200Z 23017G25KT 15SM OVC016 01/M03 A2994 RMK SC8 SLP146=

CYXU;2005-11-16 23:00;METAR CYXU 162300Z 25016G25KT 15SM OVC018 01/M04 A2997 RMK SC8 SLP155=

CYXU;2005-11-17 00:00;METAR CYXU 170000Z 25020G28KT 15SM OVC019 00/M04 A2999 RMK SC8 SLP163=

CYXU;2005-11-17 00:35;SPECI CYXU 170035Z 25017KT 12SM -SHSN BKN023 OVC041 00/ RMK SC6SC2 CVCTV CLD EMBD=

CYXU;2005-11-17 01:00;METAR CYXU 170100Z 25015G24KT 15SM -SHSN SCT023 OVC050 M00/M05 A3000 RMK CU3SC5 SLP169=

CYXU;2005-11-17 01:37;SPECI CYXU 170137Z 24017G28KT 15SM BKN026 OVC050 M00/ RMK SC6SC2=

CYXU;2005-11-17 02:00;METAR CYXU 170200Z 24016KT 15SM OVC032 M00/M06 A3002 RMK SC8 SLP173=

CYXU;2005-11-17 02:16;SPECI CYXU 170216Z 25014G22KT 12SM -SHSN OVC028 M00/ RMK SC8 CVCTV CLD EMBD=

CYXU;2005-11-17 03:00;METAR CYXU 170300Z 24018KT 15SM BKN028 OVC034 M01/M06 A3003 RMK SC6SC2 SLP180=

CYXU;2005-11-17 04:00;METAR CYXU 170400Z 25017G25KT 15SM OVC035 M01/M07 A3005 RMK SC8 SLP184=

CYXU;2005-11-17 05:00;METAR CYXU 170500Z 26016G24KT 15SM OVC035 M01/M07 A3006 RMK SC8 SLP187=

CYXU;2005-11-17 06:00;METAR CYXU 170600Z 26013G20KT 15SM OVC037 M02/M08 A3007 RMK SC8 SLP191=

CYXU;2005-11-17 07:00;METAR CYXU 170700Z 25013G21KT 15SM OVC034 M02/M08 A3007 RMK SC8 SLP192=

CYXU;2005-11-17 08:00;METAR CYXU 170800Z 23018KT 15SM OVC046 M02/M08 A3009 RMK SC8 SLP198=

CYXU;2005-11-17 08:47;SPECI CYXU 170847Z 24016KT 15SM -SHSN OVC038 M02/ RMK SC8=

CYXU;2005-11-17 09:00;METAR CYXU 170900Z 24017G22KT 6SM -SHSN OVC040 M03/M08 A3009 RMK SC8 SLP199=

CYXU;2005-11-17 10:00;METAR CYXU 171000Z 25011G18KT 6SM -SHSN OVC041 M03/M08 A3010 RMK SC8 SLP204=

CYXU;2005-11-17 11:00;METAR CYXU 171100Z 24015KT 10SM -SHSN BKN037 M03/M08 A3011 RMK SC6 SLP208=

CYXU;2005-11-17 12:00;METAR CYXU 171200Z 24011G20KT 12SM -SHSN OVC035 M03/M08 A3013 RMK SC8 PCPN VRY LGT SLP214=

CYXU;2005-11-17 13:00;METAR CYXU 171300Z 25014G19KT 12SM -SHSN OVC023 M03/M08 A3014 RMK SC8 SLP219=

CYXU;2005-11-17 14:00;METAR CYXU 171400Z 26014G20KT 12SM -SHSN OVC023 M03/M08 A3016 RMK SC8 SLP224=

CYXU;2005-11-17 15:00;METAR CYXU 171500Z 26017KT 6SM -SHSN DRSN OVC016 M03/M07 A3017 RMK SC8 TCU EMBD SLP231=

CYXU;2005-11-17 16:00;METAR CYXU 171600Z 25013G21KT 10SM -SHSN OVC014 M03/M06 A3019 RMK SC8 CU ASOCTD SLP236=

CYXU;2005-11-17 16:46;SPECI CYXU 171646Z 26014G22KT 15SM -SHSN OVC020 M02/ RMK SC8 CU EMBD=

CYXU;2005-11-17 18:00;METAR CYXU 171800Z 27011G21KT 15SM -SHSN OVC020 M01/M06 A3022 RMK SC8 TCU EMBD SLP246=

CYXU;2005-11-17 19:00;METAR CYXU 171900Z 29016G25KT 15SM OVC030 M01/M07 A3024 RMK SC8 SLP252=

CYXU;2005-11-17 19:53;SPECI CYXU 171953Z 27016G24KT 12SM -SHSN OVC030 M01/ RMK SC8 TCU EMBD=

CYXU;2005-11-17 20:00;METAR CYXU 172000Z 27017G24KT 12SM -SHSN SCT030 OVC042 M01/M07 A3026 RMK SC3SC5 TCU EMBD SLP259=

CYXU;2005-11-17 21:00;METAR CYXU 172100Z 28013G19KT 15SM VCSH SCT031 BKN041 M02/M09 A3028 RMK SC3SC4 SLP267=

CYXU;2005-11-17 21:55;SPECI CYXU 172155Z 28014G22KT 10SM -SHSN DRSN SCT028TCU BKN052 M02/ RMK TCU3SC4=

CYXU;2005-11-17 22:00;METAR CYXU 172200Z 27013G20KT 10SM -SHSN DRSN SCT028TCU BKN052 M02/M08 A3029 RMK TCU3SC4 SLP271=

CYXU;2005-11-17 22:31;SPECI CYXU 172231Z 27012G17KT 12SM VCSH FEW030TCU BKN050 M02/ RMK TCU2SC5=

CYXU;2005-11-17 23:00;METAR CYXU 172300Z 27012KT 15SM -SHSN FEW030 BKN052 M02/M09 A3030 RMK CU2SC5 PCPN VRY LGT SLP275=

CYXU;2005-11-18 00:00;METAR CYXU 180000Z 25012KT 15SM OVC048 M02/M09 A3032 RMK SC8 SLP281=

CYXU;2005-11-18 01:00;METAR CYXU 180100Z 26013KT 12SM -SHSN BKN050 M03/M09 A3033 RMK SC7 CVCTV CLD EMBD SLP284=

CYXU;2005-11-18 02:00;METAR CYXU 180200Z 26009G16KT 12SM -SHSN OVC050 M03/M09 A3034 RMK SC8 CVCTV CLD EMBD SLP287=

CYXU;2005-11-18 04:00;METAR CYXU 180400Z 26012G17KT 8SM -SHSN DRSN OVC038 M04/M09 A3034 RMK SC8 TCU EMBD SLP287=

CYXU;2005-11-18 05:00;METAR CYXU 180500Z 26006KT 15SM -SHSN DRSN OVC048 M04/M09 A3034 RMK SC8 TCU EMBD SLP287=

CYXU;2005-11-18 06:00;METAR CYXU 180600Z 26010KT 15SM -SHSN BKN049 M05/M09 A3034 RMK SC7 CVCTV CLD EMBD SLP287=

CYXU;2005-11-18 07:00;METAR CYXU 180700Z 25008KT 15SM -SHSN FEW042 M05/M10 A3034 RMK CU1 PCPN VRY LGT SLP286=

CYXU;2005-11-18 09:00;METAR CYXU 180900Z 24010KT 15SM FEW040 M06/M11 A3034 RMK CF1 TR CF SLP288=

CYXU;2005-11-18 10:00;METAR CYXU 181000Z 26007KT 15SM FEW035 M07/M11 A3034 RMK SC1 TR SC SLP288=

CYXU;2005-11-18 11:00;METAR CYXU 181100Z 24006KT 15SM FEW035 M07/M11 A3032 RMK SC1 TR SC SLP283=

CYXU;2005-11-18 12:00;METAR CYXU 181200Z 23006KT 15SM FEW035 SCT120 M07/M11 A3032 RMK SC1AC2 SLP284=

CYXU;2005-11-18 13:00;METAR CYXU 181300Z 24007KT 15SM FEW035 SCT080 BKN200 M07/M12 A3031 RMK SC1AC2CI2 SLP281=

CYXU;2005-11-18 14:00;METAR CYXU 181400Z 25007KT 15SM FEW030 BKN100 M05/M11 A3031 RMK SC1AS6 SLP280=

CYXU;2005-11-18 15:00;METAR CYXU 181500Z 25009KT 15SM -SN OVC075 M04/M10 A3029 RMK AS8 SLP272=

CYXU;2005-11-18 16:00;METAR CYXU 181600Z 23008KT 3SM -SN VV017 M04/M08 A3027 RMK SN8 SLP266=

CYXU;2005-11-18 16:30;SPECI CYXU 181630Z 24010KT 2SM -SN VV012 M04/ RMK SN8=

CYXU;2005-11-18 16:45;SPECI CYXU 181645Z 24007KT 1 1/2SM -SN VV009 M04/ RMK SN8=

CYXU;2005-11-18 16:51;SPECI CYXU 181651Z 24007KT 1SM R15/P6000FT/N -SN VV008 M04/ RMK SN8=

CYXU;2005-11-18 17:00;METAR CYXU 181700Z 25006KT 3/4SM R15/P6000FT/N -SN VV007 M04/M07 A3024 RMK SN8 SLP257=

CYXU;2005-11-18 17:41;SPECI CYXU 181741Z 23006KT 3/4SM R15/P6000FT/D -SN VV005 M04/ RMK SN8=

CYXU;2005-11-18 18:00;METAR CYXU 181800Z 24009KT 3/4SM R15/P6000FT/D -SN VV007 M04/M06 A3021 RMK SN8 /S02/ SLP246=

CYXU;2005-11-18 18:22;SPECI CYXU 181822Z 22008KT 1SM R15/P6000FT/U -SN VV010 M04/ RMK SN8=

CYXU;2005-11-18 18:48;SPECI CYXU 181848Z 22008KT 1 1/2SM -SN VV010 M03/ RMK SN8=

CYXU;2005-11-18 19:00;METAR CYXU 181900Z 22007KT 3SM -SN SCT012 OVC025 M03/M05 A3019 RMK SF3NS5 SLP237=

CYXU;2005-11-18 21:00;METAR CYXU 182100Z 23008KT 8SM FEW015 OVC045 M02/M06 A3015 RMK SC2SC6 SLP225=

CYXU;2005-11-18 22:00;METAR CYXU 182200Z 23006KT 12SM OVC042 M02/M07 A3015 RMK SC8 SLP224=

CYXU;2005-11-18 23:00;METAR CYXU 182300Z 23008KT 12SM BKN040 OVC055 M02/M07 A3015 RMK SC6SC2 SLP223=

CYXU;2005-11-19 00:00;METAR CYXU 190000Z 23009KT 12SM OVC042 M01/M07 A3014 RMK SC8 SLP220=

CYXU;2005-11-19 01:00;METAR CYXU 190100Z 23012KT 12SM OVC037 M01/M07 A3015 RMK SC8 SLP223=

CYXU;2005-11-19 03:00;METAR CYXU 190300Z 24012KT 12SM OVC035 M01/M06 A3014 RMK SC8 SLP219=

CYXU;2005-11-19 04:00;METAR CYXU 190400Z 22011KT 12SM OVC033 M00/M06 A3014 RMK SC8 SLP220=

CYXU;2005-11-19 06:00;METAR CYXU 190600Z 21009KT 15SM OVC039 M00/M05 A3013 RMK SC8 SLP216=

CYXU;2005-11-19 09:00;METAR CYXU 190900Z 23010KT 15SM OVC040 01/M04 A3015 RMK SC8 SLP222=

CYXU;2005-11-19 11:00;METAR CYXU 191100Z 21007KT 15SM OVC045 01/M04 A3015 RMK SC8 SLP222=

CYXU;2005-11-19 12:00;METAR CYXU 191200Z 20008KT 15SM OVC048 01/M04 A3015 RMK SC8 SLP220=

CYXU;2005-11-19 13:00;METAR CYXU 191300Z 20010KT 15SM BKN049 02/M02 A3014 RMK SC7 SLP218=

CYXU;2005-11-19 14:00;METAR CYXU 191400Z 21010KT 15SM BKN050 03/M01 A3014 RMK SC7 SLP218=

CYXU;2005-11-19 16:00;METAR CYXU 191600Z 20016G22KT 15SM SCT030 SCT050 06/01 A3013 RMK CU3SC1 SLP212=

CYXU;2005-11-19 17:00;METAR CYXU 191700Z 21015KT 15SM SCT030 SCT050 07/01 A3011 RMK CU3SC1 SLP207=

CYXU;2005-11-19 18:00;METAR CYXU 191800Z 20016KT 15SM SCT035 08/01 A3009 RMK CU4 SLP199=

CYXU;2005-11-19 19:00;METAR CYXU 191900Z 20015G24KT 15SM FEW035 08/01 A3008 RMK CU2 SLP195=

CYXU;2005-11-19 21:00;METAR CYXU 192100Z 19016KT 15SM FEW200 07/01 A3007 RMK CI0 SLP191=

CYXU;2005-11-19 22:00;METAR CYXU 192200Z 18012KT 15SM FEW200 06/00 A3006 RMK CI1 SLP188=

CYXU;2005-11-20 00:00;METAR CYXU 200000Z 20008KT 15SM SKC 06/01 A3007 RMK SLP189=

CYXU;2005-11-20 01:00;METAR CYXU 200100Z 21013KT 15SM SKC 07/M00 A3007 RMK SLP191=

CYXU;2005-11-20 02:00;METAR CYXU 200200Z 22012KT 15SM SKC 07/M01 A3007 RMK SLP192=

CYXU;2005-11-20 03:00;METAR CYXU 200300Z 22013G18KT 15SM SKC 07/M01 A3009 RMK SLP195=

CYXU;2005-11-20 04:00;METAR CYXU 200400Z 23009KT 15SM FEW095 06/M01 A3010 RMK AC1 SLP198=

CYXU;2005-11-20 06:00;METAR CYXU 200600Z 23011G16KT 15SM SKC 06/M02 A3010 RMK SLP201=

CYXU;2005-11-20 07:00;METAR CYXU 200700Z 23009KT 15SM FEW240 05/M03 A3010 RMK CI1 SLP201=

CYXU;2005-11-20 08:00;METAR CYXU 200800Z 23010KT 15SM FEW240 04/M03 A3011 RMK CI1 SLP202=

CYXU;2005-11-20 10:00;METAR CYXU 201000Z 25006KT 15SM FEW240 03/M03 A3010 RMK CI2 SLP201=

CYXU;2005-11-20 11:00;METAR CYXU 201100Z 23007KT 15SM FEW240 03/M03 A3010 RMK CI0 SLP202=

CYXU;2005-11-20 12:00;METAR CYXU 201200Z 23007KT 15SM FEW240 02/M03 A3011 RMK CI1 SLP206=

CYXU;2005-11-20 13:00;METAR CYXU 201300Z 24006KT 15SM FEW240 02/M03 A3011 RMK CI1 SLP206=

CYXU;2005-11-20 14:00;METAR CYXU 201400Z 25006KT 15SM SKC 04/M02 A3012 RMK SLP207=

CYXU;2005-11-20 15:00;METAR CYXU 201500Z 21008KT 15SM SKC 06/M01 A3011 RMK SLP203=

CYXU;2005-11-20 16:00;METAR CYXU 201600Z 25007KT 15SM SKC 07/M00 A3013 RMK SLP208=

CYXU;2005-11-20 17:00;METAR CYXU 201700Z 25003KT 15SM SKC 08/00 A3010 RMK SLP201=

CYXU;2005-11-20 18:00;METAR CYXU 201800Z 25011KT 15SM SKC 10/01 A3008 RMK SLP193=

CYXU;2005-11-20 21:00;METAR CYXU 202100Z 23011KT 15SM FEW050 09/01 A3005 RMK SC2 SLP182=

CYXU;2005-11-20 22:00;METAR CYXU 202200Z 20009KT 15SM FEW050 07/02 A3004 RMK SC2 SLP180=

CYXU;2005-11-20 23:00;METAR CYXU 202300Z 21008KT 15SM FEW050 06/02 A3005 RMK SC1 SLP181=

CYXU;2005-11-21 00:00;METAR CYXU 210000Z 22010KT 15SM SKC 06/01 A3003 RMK SLP178=

CYXU;2005-11-21 01:00;METAR CYXU 210100Z 23009KT 15SM SKC 06/00 A3003 RMK SLP177=

CYXU;2005-11-21 02:00;METAR CYXU 210200Z 23011KT 15SM SKC 06/00 A3002 RMK SLP173=

CYXU;2005-11-21 03:00;METAR CYXU 210300Z 24009KT 15SM FEW045 05/00 A3000 RMK SC1 SLP167=

CYXU;2005-11-21 04:00;METAR CYXU 210400Z 25006KT 15SM SKC 05/M00 A2999 RMK SLP161=

CYXU;2005-11-21 05:00;METAR CYXU 210500Z 25007KT 15SM SKC 04/M00 A2998 RMK SLP158=

CYXU;2005-11-21 06:00;METAR CYXU 210600Z 24007KT 15SM SKC 04/M00 A2996 RMK SLP151=

CYXU;2005-11-21 07:00;METAR CYXU 210700Z 24007KT 15SM FEW026 03/M00 A2993 RMK SC1 SLP143=

CYXU;2005-11-21 08:00;METAR CYXU 210800Z 25007KT 15SM SKC 03/M00 A2993 RMK SLP142=

CYXU;2005-11-21 09:00;METAR CYXU 210900Z 24008KT 15SM BKN016 03/00 A2990 RMK SC7 SLP130=

CYXU;2005-11-21 10:00;METAR CYXU 211000Z 23007KT 15SM BKN016 02/M00 A2987 RMK SC5 SLP122=

CYXU;2005-11-21 11:00;METAR CYXU 211100Z 23006KT 8SM BKN018 02/M00 A2986 RMK SC6 SLP117=

CYXU;2005-11-21 11:48;SPECI CYXU 211148Z 23008KT 8SM FEW008 BKN018 02/ RMK SF2SC6=

CYXU;2005-11-21 12:00;METAR CYXU 211200Z 23009KT 6SM BR SCT008 BKN017 02/00 A2986 RMK SF3SC4 SLP120=

CYXU;2005-11-21 13:00;METAR CYXU 211300Z 24008KT 4SM BR BKN006 OVC018 03/01 A2986 RMK SF5SC3 SLP119=

CYXU;2005-11-21 13:42;SPECI CYXU 211342Z 23007KT 5SM BR FEW006 BKN020 03/ RMK SF2SC5=

CYXU;2005-11-21 14:00;METAR CYXU 211400Z 24007KT 6SM BR FEW006 BKN019 03/01 A2983 RMK SF2SC6 SLP111=

CYXU;2005-11-21 15:00;METAR CYXU 211500Z 22009KT 8SM SCT012 BKN020 04/01 A2984 RMK SF4SC3 SLP112=

CYXU;2005-11-21 16:00;METAR CYXU 211600Z 26008KT 8SM FEW008 OVC016 04/01 A2982 RMK SF1SC7 SLP104=

CYXU;2005-11-21 17:00;METAR CYXU 211700Z 28008KT 10SM OVC017 04/M00 A2977 RMK SC8 SLP090=

CYXU;2005-11-21 18:00;METAR CYXU 211800Z 25008KT 10SM OVC019 04/M00 A2977 RMK SC8 SLP088=

CYXU;2005-11-21 19:00;METAR CYXU 211900Z 25007KT 10SM OVC019 04/00 A2974 RMK SC8 SLP078=

CYXU;2005-11-21 20:52;SPECI CYXU 212052Z 25007KT 3SM -DZ BR OVC017 04/ RMK SC8=

CYXU;2005-11-21 21:00;METAR CYXU 212100Z 25005KT 2 1/4SM -DZ BR OVC016 04/01 A2972 RMK FG2SC6 SLP072=

CYXU;2005-11-21 21:36;SPECI CYXU 212136Z 24006KT 2 1/2SM -DZ BR OVC014 03/ RMK FG2SC6=

CYXU;2005-11-21 22:00;METAR CYXU 212200Z 25005KT 2 1/4SM -DZ BR FEW009 OVC013 03/02 A2971 RMK FG2SF1SC6 SLP069=

CYXU;2005-11-21 22:28;SPECI CYXU 212228Z 27005KT 2SM -DZ BR BKN009 OVC014 03/ RMK FG2SF4SC2=

CYXU;2005-11-21 23:00;METAR CYXU 212300Z 27006KT 2SM -DZ BR BKN009 OVC013 03/02 A2970 RMK FG2SF4SC2 SLP065=

CYXU;2005-11-22 00:00;METAR CYXU 220000Z 27005KT 8SM BKN009 BKN020 OVC042 03/02 A2969 RMK SF5SC2SC2 SLP062=

CYXU;2005-11-22 01:24;SPECI CYXU 220124Z 27005KT 3SM -DZ BR OVC007 03/ RMK SF8=

CYXU;2005-11-22 02:00;METAR CYXU 220200Z 27004KT 3SM -DZ BR OVC006 03/02 A2965 RMK SF8 SLP049=

CYXU;2005-11-22 02:30;SPECI CYXU 220230Z 27004KT 3SM -DZ BR OVC005 03/ RMK SF8=

CYXU;2005-11-22 03:31;SPECI CYXU 220331Z 27003KT 4SM BR FEW007 BKN012 OVC045 03/ RMK SF2SC4SC2=

CYXU;2005-11-22 04:00;METAR CYXU 220400Z 32007KT 13SM BKN012 BKN045 OVC070 04/03 A2961 RMK SC5SC2AC1 WSHFT 0350 SLP034=

CYXU;2005-11-22 04:16;SPECI CYXU 220416Z 34013G18KT 12SM -SHRA BKN012 OVC042 04/ RMK SC6SC2 CVCTV CLD EMBD=

CYXU;2005-11-22 04:40;SPECI CYXU 220440Z 32006KT 15SM BKN029 BKN050 03/ RMK SC5SC2=

CYXU;2005-11-22 05:00;METAR CYXU 220500Z 32004KT 15SM FEW029 03/01 A2960 RMK SC2 SLP030=

CYXU;2005-11-22 06:00;METAR CYXU 220600Z 32007KT 15SM SCT015 BKN030 03/01 A2956 RMK SF4SC2 SLP019=

CYXU;2005-11-22 07:00;METAR CYXU 220700Z 34010KT 15SM BKN030 03/01 A2956 RMK SC6 SLP017=

CYXU;2005-11-22 08:00;METAR CYXU 220800Z 01009KT 15SM OVC020 03/01 A2956 RMK SC8 SLP017=

CYXU;2005-11-22 09:00;METAR CYXU 220900Z 36011G16KT 15SM BKN020 02/M01 A2956 RMK SC6 SLP016=

CYXU;2005-11-22 10:00;METAR CYXU 221000Z 35013G19KT 15SM BKN015 01/M02 A2957 RMK SC5 SLP022=

CYXU;2005-11-22 11:00;METAR CYXU 221100Z 35011G17KT 15SM BKN015 01/M03 A2959 RMK SC5 SLP026=

CYXU;2005-11-22 12:00;METAR CYXU 221200Z 35010KT 15SM FEW015 FEW220 00/M04 A2960 RMK SC1CI0 SLP033=

CYXU;2005-11-22 13:00;METAR CYXU 221300Z 36008KT 15SM FEW015 FEW220 M00/M04 A2960 RMK SC1CI0 SLP034=

CYXU;2005-11-22 14:00;METAR CYXU 221400Z 34015KT 15SM SCT019 00/M04 A2960 RMK SC4 SLP034=

CYXU;2005-11-22 15:00;METAR CYXU 221500Z 34013G22KT 15SM BKN018 M00/M05 A2961 RMK CU5 SLP035=

CYXU;2005-11-22 16:00;METAR CYXU 221600Z 34014G24KT 15SM BKN024 M00/M06 A2962 RMK CU7 SLP039=

CYXU;2005-11-22 16:15;SPECI CYXU 221615Z 34020G26KT 15SM -SHSN OVC030 M01/ RMK CU8 TCU ASOCTD=

CYXU;2005-11-22 16:51;SPECI CYXU 221651Z 34016G25KT 15SM OVC033 M01/ RMK CU8=

CYXU;2005-11-22 17:00;METAR CYXU 221700Z 33015G26KT 15SM BKN032 M01/M07 A2961 RMK CU7 SLP037=

CYXU;2005-11-22 17:29;SPECI CYXU 221729Z 32018G30KT 15SM -SHSN BKN028 M01/ RMK CU7 TCU ASOCTD VIS LWR E=

CYXU;2005-11-22 17:49;SPECI CYXU 221749Z 34019G26KT 15SM BKN026 M01/ RMK CU7=

CYXU;2005-11-22 18:00;METAR CYXU 221800Z 34018G28KT 15SM BKN027 M02/M08 A2961 RMK CU7 SLP037=

CYXU;2005-11-22 18:21;SPECI CYXU 221821Z 34020G26KT 15SM -SHSN BKN033 M02/ RMK CU7 TCU ASOCTD=

CYXU;2005-11-23 12:21;SPECI CYXU 231221Z 23005KT 5SM -SHSN SCT021 BKN040 M06/ RMK SC3SC4 TCU ASOCTD=

CYXU;2005-11-23 19:35;SPECI CYXU 231935Z 15007KT 15SM -SN FEW023 BKN045 BKN140 M01/ RMK CF1SC4AS2=

CYXU;2005-11-23 19:52;SPECI CYXU 231952Z 16009KT 2SM -SN OVC022 M01/ RMK NS8=

CYXU;2005-11-23 20:27;SPECI CYXU 232027Z 16008KT 1SM R15/P6000FT/N -SN FEW008 OVC019 M02/ RMK SN2SF1SC5=

CYXU;2005-11-23 20:51;SPECI CYXU 232051Z 14010KT 1SM R15/P6000FT/N -SN OVC011 M02/ RMK SN2SC6 TCU EMBDD=

CYXU;2005-11-23 21:33;SPECI CYXU 232133Z 15009KT 3/4SM R15/P6000FT/N -SN OVC006 M02/ RMK SN2NS6=

CYXU;2005-11-23 22:35;SPECI CYXU 232235Z 14013KT 1SM R15/P6000FT/U -SN BKN007 OVC016 M02/ RMK SF5NS3=

CYXU;2005-11-24 04:52;SPECI CYXU 240452Z 24008KT 1 1/2SM -SN OVC007 00/ RMK NS8=

CYXU;2005-11-24 07:00;METAR CYXU 240700Z 26011KT 2SM -SN OVC008 M00/M01 A2904 RMK SC8 /S01/ SLP844=

CYXU;2005-11-24 09:06;SPECI CYXU 240906Z 32016G22KT 1/2SM R15/3000VP6000FT/D -SN BLSN VV004 M02/ RMK BLSN8=

CYXU;2005-11-24 09:41;SPECI CYXU 240941Z 32009KT 2SM -SN BKN008 OVC015 M02/ RMK SF5SC3=

CYXU;2005-11-24 11:00;METAR CYXU 241100Z 33014KT 1 1/2SM -SHSN OVC010TCU M03/M05 A2912 RMK TCU8 SLP870=

CYXU;2005-11-24 11:21;SPECI CYXU 241121Z 32011G19KT 3/4SM R15/3500V5500FT/D -SHSN VV005 M04/ RMK SN8=

CYXU;2005-11-24 12:00;METAR CYXU 241200Z 31015G21KT 1/2SM R15/3000VP6000FT/U SHSN VV005 M04/M06 A2915 RMK SN8 VIS VRBL 3/8-5/8 /S04/ SLP883=

CYXU;2005-11-24 12:17;SPECI CYXU 241217Z 29013G18KT 1 1/4SM -SHSN OVC017TCU M05/ RMK SN1TCU7=

CYXU;2005-11-24 12:31;SPECI CYXU 241231Z 29013G18KT 1/2SM R15/2800VP6000FT/D SHSN VV003 M05/ RMK SN8 VIS VRBL 1/4-3/4=

CYXU;2005-11-24 12:38;SPECI CYXU 241238Z 30018G32KT 1/4SM R15/1200V2200FT/N SHSN +BLSN VV003 M05/ RMK SN8 VIS VRBL 1/8-1/2=

CYXU;2005-11-24 13:00;METAR CYXU 241300Z 30011G17KT 4SM -SHSN OVC035TCU M05/M07 A2919 RMK TCU8 CIG RAG /S02/ RESN SLP897=

CYXU;2005-11-24 13:33;SPECI CYXU 241333Z 29018G28KT 1/4SM R15/1800FT/N SHSN +BLSN VV002 M06/ RMK SN8 VIS VRBL 0-1/2=

CYXU;2005-11-24 14:00;METAR CYXU 241400Z 31018G26KT 3/4SM R15/3500V6000FT/N -SHSN BLSN BKN018TCU M07/M09 A2925 RMK SN2TCU6 VIS VRBL 1/2-1 RESN SLP914=

CYXU;2005-11-24 15:35;SPECI CYXU 241535Z 29021G29KT 4SM R15/4500VP6000FT/D -SHSN BLSN FEW025TCU M09/ RMK TCU2=

CYXU;2005-11-24 16:00;METAR CYXU 241600Z 29013G27KT 6SM -SHSN BLSN SCT025TCU M09/M15 A2936 RMK TCU3 VIS VRBL 3-10 SLP954=

CYXU;2005-11-24 17:00;METAR CYXU 241700Z 29015G20KT 3SM -SHSN BLSN BKN023TCU M09/M14 A2939 RMK TCU7 VIS VRBL 2-4 SLP965=

CYXU;2005-11-24 17:08;SPECI CYXU 241708Z 31017G28KT 3/4SM R15/3000FT/N -SHSN BLSN VV010 M09/ RMK SN8 VIS VRBL 1/4-11/2=

CYXU;2005-11-24 17:18;SPECI CYXU 241718Z 28018G28KT 2SM R15/2800VP6000FT/U -SHSN BLSN OVC028TCU M10/ RMK SN2TCU6 VIS VRBL 1-3=

CYXU;2005-11-24 18:00;METAR CYXU 241800Z 29019G27KT 3/4SM R15/2800FT/N -SHSN BLSN VV008 M11/M14 A2944 RMK SN8 VIS VRBL 1/2-11/2 SLP984=

CYXU;2005-11-24 18:40;SPECI CYXU 241840Z 27015G22KT 1/4SM R15/1400V2800FT/D SHSN +BLSN VV002 M11/ RMK SN8 VIS VRBL 0-1/2=

CYXU;2005-11-24 19:00;METAR CYXU 241900Z 27015G21KT 3/4SM R15/2800FT/N -SHSN BLSN VV007 M10/M13 A2948 RMK SN8 VIS VRBL 1/4-1 RESN SLP996=

CYXU;2005-11-24 19:20;SPECI CYXU 241920Z 27015G21KT 2 1/2SM R15/3000VP6000FT/N -SHSN BLSN OVC024TCU M10/ RMK SN2TCU6 VIS VRBL 11/2-4=

CYXU;2005-11-24 21:00;METAR CYXU 242100Z 26016G27KT 3SM -SHSN OVC030TCU M10/M16 A2956 RMK SN2TCU4 OCNL BLSN /S02/ SLP024=

CYXU;2005-11-24 22:00;METAR CYXU 242200Z 25018G25KT 3SM -SHSN OVC028TCU M10/M17 A2960 RMK SN2TCU6 SLP036=

CYXU;2005-11-24 23:00;METAR CYXU 242300Z 25018G28KT 3SM -SHSN DRSN OVC028TCU M11/M17 A2962 RMK SN2TCU6 OCNL BLSN SLP044=

CYXU;2005-11-25 00:00;METAR CYXU 250000Z 25018G27KT 8SM DRSN SCT030TCU SCT090 BKN250 M11/M18 A2963 RMK TCU3AC1CI0 /S03/ SLP051=

CYXU;2005-11-25 03:00;METAR CYXU 250300Z 25022G29KT 1SM R15/P6000FT/U BLSN OVC013TCU M11/M14 A2964 RMK TCU8 VIS VRB 1/2 - 11/2 SLP056=

CYXU;2005-11-25 04:00;METAR CYXU 250400Z 25021G30KT 1SM R15/4000VP6000FT/U -SHSN BLSN VV009 M10/M13 A2966 RMK SN8 VIS VRB 1/2-11/2 SLP063=

CYXU;2005-11-25 05:00;METAR CYXU 250500Z 26020G28KT 1/2SM R15/P6000FT/N -SHSN BLSN VV007 M10/M12 A2970 RMK SN8 VIS VRB 1/4-3/4 SLP073=

CYXU;2005-11-25 06:00;METAR CYXU 250600Z 25018G24KT 3/4SM R15/P6000FT/D -SHSN BLSN VV007 M09/M12 A2973 RMK SN8 VIS VRB 1/2-1 SLP085=

CYXU;2005-11-25 06:39;SPECI CYXU 250639Z 26016G22KT 2SM -SHSN BLSN BKN020TCU M09/ RMK SN3TCU2=

CYXU;2005-11-25 07:00;METAR CYXU 250700Z 26017G28KT 2SM -SHSN BLSN FEW011 SCT020TCU M09/M11 A2977 RMK SN2SF1TCU2 SLP099=

CYXU;2005-11-25 08:00;METAR CYXU 250800Z 26016G22KT 2SM -SHSN BLSN SCT020TCU M08/M11 A2982 RMK SN2TCU2 SLP114=

CYXU;2005-11-25 09:00;METAR CYXU 250900Z 26015G20KT 2SM -SHSN BLSN SCT020TCU M08/M11 A2985 RMK SN2TCU2 SLP125=

CYXU;2005-11-25 10:00;METAR CYXU 251000Z 25013G18KT 2SM -SHSN BLSN BKN021TCU M08/M11 A2987 RMK SN2TCU2 SLP132=

CYXU;2005-11-25 11:00;METAR CYXU 251100Z 25012KT 1 1/2SM -SHSN BKN010 OVC020TCU M08/M11 A2990 REBLSN RMK SN2SF2TCU3 SLP144=

CYXU;2005-11-25 12:00;METAR CYXU 251200Z 24012KT 1SM R15/P6000FT/N -SHSN DRSN BKN010 BKN023TCU M08/M11 A2994 RMK SN2SF2TCU2 SLP156=

CYXU;2005-11-25 12:36;SPECI CYXU 251236Z 25011G16KT 2SM -SHSN DRSN BKN015 BKN030TCU M08/ RMK SN2SC3TCU2=

CYXU;2005-11-25 13:00;METAR CYXU 251300Z 25012KT 2 1/2SM -SHSN SCT030TCU M08/M10 A2998 RMK SN2TCU2 SLP169=

CYXU;2005-11-25 14:00;METAR CYXU 251400Z 25013KT 3SM -SHSN FEW030 M08/M11 A3001 RMK SN1CU2 SLP179=

CYXU;2005-11-25 15:00;METAR CYXU 251500Z 25013KT 12SM FEW025 M07/M10 A3004 RMK CF1 SLP191=

CYXU;2005-11-25 16:00;METAR CYXU 251600Z 24012KT 15SM FEW025 M06/M10 A3007 RMK CU1 SLP201=

CYXU;2005-11-25 18:00;METAR CYXU 251800Z 26008KT 15SM FEW025 M05/M09 A3009 RMK SC1 SLP206=

CYXU;2005-11-25 20:00;METAR CYXU 252000Z 24012KT 15SM SCT020 BKN250 M04/M09 A3011 RMK CU3CI2 SLP213=

CYXU;2005-11-25 21:00;METAR CYXU 252100Z 24007KT 15SM BKN022 BKN160 BKN250 M04/M09 A3013 RMK CU5AC2CI1 SLP218=

CYXU;2005-11-25 23:00;METAR CYXU 252300Z 22010KT 15SM FEW025 BKN180 M06/M09 A3015 RMK SC2AC3 SLP225=

CYXU;2005-11-26 00:00;METAR CYXU 260000Z 24008KT 15SM BKN130 M06/M09 A3016 RMK AS2 SLP229=

CYXU;2005-11-26 01:00;METAR CYXU 260100Z 24009KT 15SM BKN120 M06/M10 A3017 RMK AS2 SLP233=

CYXU;2005-11-26 02:00;METAR CYXU 260200Z 24009KT 12SM FEW090 BKN160 M06/M10 A3017 RMK AC2AS2 VIRGA SLP232=

CYXU;2005-11-26 03:00;METAR CYXU 260300Z 24010KT 10SM VCSH BKN080 OVC160 M05/M10 A3016 RMK AC5AS3 SLP229=

CYXU;2005-11-26 03:44;SPECI CYXU 260344Z 25012KT 10SM -SHSN SCT040TCU OVC070 M05/ RMK TCU3AS5=

CYXU;2005-11-26 04:00;METAR CYXU 260400Z 25008KT 10SM -SHSN FEW040TCU OVC070 M06/M10 A3017 RMK TCU2AS6 SLP232=

CYXU;2005-11-26 05:00;METAR CYXU 260500Z 24011KT 8SM -SHSN OVC033TCU M06/M09 A3017 RMK TCU8 SLP232=

CYXU;2005-11-26 05:49;SPECI CYXU 260549Z 26007KT 2 1/2SM -SHSN VV011 M06/ RMK SN8=

CYXU;2005-11-26 06:00;METAR CYXU 260600Z 26008KT 2SM -SHSN VV010 M06/M09 A3016 RMK SN8 SLP228=

CYXU;2005-11-26 06:17;SPECI CYXU 260617Z 27007KT 2SM -SHSN VV008 M06/ RMK SN8=

CYXU;2005-11-26 06:42;SPECI CYXU 260642Z 27006KT 1 1/2SM -SHSN VV006 M06/ RMK SN8=

CYXU;2005-11-26 07:00;METAR CYXU 260700Z 27006KT 1 1/2SM -SHSN VV009 M06/M08 A3015 RMK SN8 SLP226=

CYXU;2005-11-26 07:24;SPECI CYXU 260724Z 26006KT 3/4SM R15/P6000FT/D -SHSN VV004 M06/ RMK SN8 VIS VRB 1/2-11/2=

CYXU;2005-11-26 07:43;SPECI CYXU 260743Z 26004KT 1 1/2SM -SHSN VV009 M06/ RMK SN8=

CYXU;2005-11-26 08:00;METAR CYXU 260800Z 26003KT 1 1/2SM -SHSN VV008 M06/M08 A3015 RMK SN8 /S02/ SLP224=

CYXU;2005-11-26 09:00;METAR CYXU 260900Z 26002KT 1/2SM R15/P6000FT/D SHSN VV005 M06/M08 A3013 RMK SN8 /S04/ SLP218=

CYXU;2005-11-26 09:29;SPECI CYXU 260929Z 00000KT 2SM -SHSN OVC025TCU M06/ RESN RMK SN5TCU3=

CYXU;2005-11-26 10:00;METAR CYXU 261000Z 13002KT 2SM -SHSN OVC012TCU M06/M08 A3012 RESN RMK SN5TCU3 SLP214=

CYXU;2005-11-26 10:44;SPECI CYXU 261044Z 13003KT 6SM -SHSN BKN010 BKN060 M06/ RMK CU6SC2=

CYXU;2005-11-26 11:00;METAR CYXU 261100Z 16003KT 10SM -SHSN OVC010 M06/M08 A3011 RMK CU8 SLP213=

CYXU;2005-11-26 13:00;METAR CYXU 261300Z 09004KT 7SM -SHSN SCT010 OVC030 M06/M08 A3012 RMK SF3CU5 SLP215=

CYXU;2005-11-26 14:00;METAR CYXU 261400Z 11004KT 8SM -SHSN FEW010 OVC030 M06/M08 A3012 RMK SF1CU7 SLP216=

CYXU;2005-11-26 14:48;SPECI CYXU 261448Z 12004KT 15SM BKN060 OVC090 M06/ RMK SC6AC2=

CYXU;2005-11-26 15:00;METAR CYXU 261500Z 10003KT 15SM BKN061 OVC090 M05/M07 A3013 RMK SC7AC1 SLP219=

CYXU;2005-11-26 16:00;METAR CYXU 261600Z 08004KT 15SM BKN033 OVC060 M05/M07 A3012 RMK SC6SC2 SLP216=

CYXU;2005-11-26 17:00;METAR CYXU 261700Z 08005KT 15SM -SN OVC030 M04/M07 A3010 RMK SC8 SLP210=

CYXU;2005-11-26 18:00;METAR CYXU 261800Z 09005KT 15SM OVC027 M04/M07 A3010 RMK SC8 SLP206=

CYXU;2005-11-26 19:00;METAR CYXU 261900Z 10007KT 15SM SCT025 OVC077 M04/M07 A3009 RMK SC3AC5 SLP203=

CYXU;2005-11-26 20:00;METAR CYXU 262000Z 09008KT 12SM FEW025 OVC060 M04/M07 A3008 RMK SC2SC6 SLP202=

CYXU;2005-11-26 21:00;METAR CYXU 262100Z 09008KT 12SM OVC063 M04/M07 A3007 RMK SC8 SLP199=

CYXU;2005-11-26 22:00;METAR CYXU 262200Z 08004KT 12SM OVC060 M04/M07 A3010 RMK SC8 SLP208=

CYXU;2005-11-26 23:00;METAR CYXU 262300Z 09008KT 12SM OVC057 M04/M07 A3012 RMK SC8 SLP214=

CYXU;2005-11-27 00:00;METAR CYXU 270000Z 10007KT 12SM OVC050 M04/M08 A3013 RMK SC8 SLP219=

CYXU;2005-11-27 01:00;METAR CYXU 270100Z 09006KT 15SM SCT050 BKN210 M04/M08 A3013 RMK SC4CI3 SLP220=

CYXU;2005-11-27 03:00;METAR CYXU 270300Z 09006KT 12SM SCT200 M06/M09 A3013 RMK CS2 SLP220=

CYXU;2005-11-27 04:00;METAR CYXU 270400Z 09006KT 12SM FEW200 M06/M08 A3015 RMK CS1 SLP224=

CYXU;2005-11-27 05:00;METAR CYXU 270500Z 09006KT 12SM FEW200 M06/M08 A3014 RMK CS1 SLP223=

CYXU;2005-11-27 06:00;METAR CYXU 270600Z 08008KT 12SM BKN044 M06/M08 A3013 RMK SC7 SLP217=

CYXU;2005-11-27 07:00;METAR CYXU 270700Z 09009KT 12SM BKN047 M04/M06 A3012 RMK SC7 SLP214=

CYXU;2005-11-27 09:00;METAR CYXU 270900Z 09007KT 12SM SCT047 BKN064 M03/M06 A3011 RMK SC3SC4 SLP211=

CYXU;2005-11-27 10:00;METAR CYXU 271000Z 09010KT 12SM SCT033 OVC047 M02/M06 A3010 RMK SC4SC4 SLP208=

CYXU;2005-11-27 11:00;METAR CYXU 271100Z 09011KT 12SM OVC041 M01/M05 A3010 RMK SC8 SLP207=

CYXU;2005-11-27 12:00;METAR CYXU 271200Z 09011KT 10SM OVC020 M00/M04 A3010 RMK SC8 SLP207=

CYXU;2005-11-27 13:00;METAR CYXU 271300Z 09009KT 10SM BKN016 OVC035 00/M04 A3011 RMK SC7SC1 SLP209=

CYXU;2005-11-27 15:00;METAR CYXU 271500Z 11010KT 12SM BKN011 OVC030 01/M05 A3011 RMK ST5ST3 SLP209=

CYXU;2005-11-27 16:00;METAR CYXU 271600Z 10010KT 10SM FEW011 OVC026 02/M04 A3011 RMK ST2ST6 SLP209=

CYXU;2005-11-27 16:22;SPECI CYXU 271622Z 10008KT 10SM -RA OVC026 02/ RMK ST8=

CYXU;2005-11-27 17:00;METAR CYXU 271700Z 11008KT 10SM -RA BKN025 OVC045 02/M03 A3009 RMK ST6NS2 SLP202=

CYXU;2005-11-27 18:00;METAR CYXU 271800Z 09009KT 10SM -RA BKN022 OVC077 02/M02 A3007 RMK NS5AS3 SLP193=

CYXU;2005-11-27 19:00;METAR CYXU 271900Z 09010KT 10SM FEW020 BKN060 OVC080 02/M01 A3004 RMK ST1SC6AS1 SLP185=

CYXU;2005-11-27 19:13;SPECI CYXU 271913Z 09006KT 10SM -RA BKN020 OVC060 02/ RMK ST5SC3=

CYXU;2005-11-27 19:35;SPECI CYXU 271935Z 09009KT 10SM SCT020 BKN060 OVC120 03/ RMK ST3SC3AS2=

CYXU;2005-11-27 20:00;METAR CYXU 272000Z 09008KT 10SM SCT020 OVC065 03/M01 A3003 RMK SC3SC5 SLP183=

CYXU;2005-11-27 21:00;METAR CYXU 272100Z 09009KT 10SM FEW020 BKN065 OVC120 02/M01 A3001 RMK SC1SC4AS3 SLP175=

CYXU;2005-11-27 22:00;METAR CYXU 272200Z 08010KT 10SM FEW060 OVC120 02/M00 A3002 RMK SC2AS6 SLP176=

CYXU;2005-11-27 23:00;METAR CYXU 272300Z 11010KT 10SM OVC100 03/M00 A3004 RMK AC8 SLP183=

CYXU;2005-11-27 23:10;SPECI CYXU 272310Z 11010KT 8SM -SHRA OVC080 02/ RMK AC8=

CYXU;2005-11-28 00:00;METAR CYXU 280000Z 07010KT 6SM -SHRA BR OVC070 02/00 A3002 RMK AC8 SLP175=

CYXU;2005-11-28 01:00;METAR CYXU 280100Z 08013KT 6SM -RA BR OVC060 02/01 A3002 RMK NS8 SLP177=

CYXU;2005-11-28 02:00;METAR CYXU 280200Z 13004KT 5SM -RA BR OVC060 03/01 A3004 RMK NS8 SLP182=

CYXU;2005-11-28 03:00;METAR CYXU 280300Z 09008KT 5SM -RA BR OVC080 03/01 A3000 RMK AC8 SLP170=

CYXU;2005-11-28 04:00;METAR CYXU 280400Z 10009KT 5SM BR BKN080 OVC130 03/01 A2999 RMK AC5AC3 SLP165=

CYXU;2005-11-28 05:00;METAR CYXU 280500Z 10009KT 12SM BKN060 OVC130 04/01 A2999 RMK SC5AC3 SLP165=

CYXU;2005-11-28 06:00;METAR CYXU 280600Z 09010KT 15SM OVC048 04/02 A2998 RMK SC8 SLP160=

CYXU;2005-11-28 07:00;METAR CYXU 280700Z 10008KT 15SM OVC049 04/02 A2997 RMK SC8 SLP156=

CYXU;2005-11-28 08:00;METAR CYXU 280800Z 11008KT 15SM BKN049 05/03 A2997 RMK SC7 SLP156=

CYXU;2005-11-28 09:00;METAR CYXU 280900Z 10008KT 8SM BKN060 05/03 A2995 RMK SC6 SLP151=

CYXU;2005-11-28 10:00;METAR CYXU 281000Z 10010KT 8SM SCT075 05/03 A2994 RMK AC4 SLP148=

CYXU;2005-11-28 11:00;METAR CYXU 281100Z 10008KT 8SM FEW040 BKN072 06/04 A2993 RMK SC2AC5 SLP145=

CYXU;2005-11-28 12:00;METAR CYXU 281200Z 10007KT 8SM OVC055 06/05 A2994 RMK SC8 SLP146=

CYXU;2005-11-28 13:00;METAR CYXU 281300Z 10009KT 6SM BR FEW080 BKN240 06/05 A2991 RMK AC2CI6 SLP137=

CYXU;2005-11-28 15:00;METAR CYXU 281500Z 13010KT 8SM BKN057 OVC240 08/06 A2990 RMK SC6CI2 SLP130=

CYXU;2005-11-28 16:00;METAR CYXU 281600Z 14015KT 10SM BKN055 BKN120 OVC240 11/08 A2986 RMK SC5AC1CI2 SLP118=

CYXU;2005-11-28 17:00;METAR CYXU 281700Z 15014KT 15SM BKN054 BKN075 OVC240 12/09 A2984 RMK SC6AC1CI1 SLP113=

CYXU;2005-11-28 17:50;SPECI CYXU 281750Z 13014KT 15SM -SHRA FEW025 BKN060 OVC100 12/ RMK SC1SC6AC2=

CYXU;2005-11-28 18:00;METAR CYXU 281800Z 13013KT 15SM -SHRA FEW025 BKN060 OVC095 12/09 A2980 RMK SC1SC5AC2 SLP097=

CYXU;2005-11-28 18:54;SPECI CYXU 281854Z 13014KT 15SM SCT060 BKN230 14/ RMK SC4CI0=

CYXU;2005-11-28 19:00;METAR CYXU 281900Z 13015KT 15SM SCT075 BKN230 14/11 A2975 RMK AC4CI1 ACC NW-NE SLP079=

CYXU;2005-11-28 20:00;METAR CYXU 282000Z 13010KT 15SM -SHRA BKN068 BKN230 14/11 A2973 RMK AC7CI1 CI TR ACC EMBDD SLP074=

CYXU;2005-11-28 20:47;SPECI CYXU 282047Z 12008KT 15SM VCSH OVC068 14/ RMK AC8 ACC EMBDD SHWRS SE=

CYXU;2005-11-28 20:53;SPECI CYXU 282053Z 11010KT 15SM -SHRA OVC064 14/ RMK SC8 ACC EMBDD=

CYXU;2005-11-28 21:00;METAR CYXU 282100Z 11009KT 15SM -SHRA OVC064 14/11 A2971 RMK SC8 ACC EMBDD SLP063=

CYXU;2005-11-28 21:55;SPECI CYXU 282155Z 12011KT 15SM SCT070 OVC230 13/ RERA RMK AC4CI4 SHWRS E=

CYXU;2005-11-28 22:00;METAR CYXU 282200Z 11011KT 15SM SCT070 OVC230 13/11 A2970 RERA RMK AC4CI4 SLP059=

CYXU;2005-11-28 23:00;METAR CYXU 282300Z 13011KT 15SM OVC066 13/11 A2969 RMK SC8 SLP058=

CYXU;2005-11-29 00:00;METAR CYXU 290000Z 13015G22KT 15SM FEW090 BKN240 14/12 A2966 RMK AC2CS4 SLP049=

CYXU;2005-11-29 00:56;SPECI CYXU 290056Z 15021G29KT 15SM -SHRA OVC082 15/ RMK AC8 ACC EMBDD=

CYXU;2005-11-29 01:00;METAR CYXU 290100Z 15020G29KT 15SM -SHRA OVC082 15/12 A2966 RMK AC8 ACC EMBDD SLP047=

CYXU;2005-11-29 04:00;METAR CYXU 290400Z 15020G29KT 15SM BKN068 OVC120 16/12 A2957 RMK AC6AC2 SLP015=

CYXU;2005-11-29 05:00;METAR CYXU 290500Z 16020G33KT 15SM BKN045 OVC110 16/12 A2956 RMK SC7AC1 SLP012=

CYXU;2005-11-29 05:32;SPECI CYXU 290532Z 19021G33KT 15SM -SHRA FEW020 OVC028 15/ RMK SC2SC6=

CYXU;2005-11-29 06:00;METAR CYXU 290600Z 21010G17KT 15SM -SHRA SCT010 OVC028 13/12 A2960 RMK SF3SC5 SLP026=

CYXU;2005-11-29 06:20;SPECI CYXU 290620Z 23010KT 3SM SHRA SCT008 OVC028 12/ RMK SF3SC5=

CYXU;2005-11-29 07:00;METAR CYXU 290700Z 22009KT 6SM -SHRA FEW008 BKN030 OVC120 10/08 A2962 RMK SF2SC6AC1 TCU EMBD SLP032=

CYXU;2005-11-29 08:00;METAR CYXU 290800Z 20007KT 6SM SHRA FEW008 BKN030 OVC060 09/08 A2962 RMK SF2SC2SC3 TCU EMBD SLP031=

CYXU;2005-11-29 10:00;METAR CYXU 291000Z 19007KT 5SM -SHRA BR FEW004 BKN009 OVC030 08/08 A2960 RMK SF2SF4SC2 TCU EMBD SLP026=

CYXU;2005-11-29 11:00;METAR CYXU 291100Z 18007KT 5SM -SHRA BR BKN005 OVC015 08/08 A2962 RERA RMK SF6SC2 SLP031=

CYXU;2005-11-29 11:53;SPECI CYXU 291153Z 19010KT 10SM -SHRA BKN006 OVC080 08/ RMK SF5AC3 ACC ASOCTD=

CYXU;2005-11-29 12:00;METAR CYXU 291200Z 18007KT 10SM -SHRA SCT006 OVC080 08/08 A2963 RMK SF3AC5 ACC ASOCTD SLP035=

CYXU;2005-11-29 12:41;SPECI CYXU 291241Z 20008KT 10SM -SHRA BKN008 OVC040 08/ RMK SF6SC2 TCU EMBD=

CYXU;2005-11-29 12:51;SPECI CYXU 291251Z 19010KT 10SM BKN006 OVC040 08/ RMK SF6SC2=

CYXU;2005-11-29 13:00;METAR CYXU 291300Z 18008KT 10SM OVC006 08/08 A2965 RMK SC8 SLP041=

CYXU;2005-11-29 13:45;SPECI CYXU 291345Z 18010KT 10SM OVC009 09/ RMK SC8=

CYXU;2005-11-29 14:00;METAR CYXU 291400Z 19010KT 10SM BKN010 OVC039 09/08 A2965 RMK SF6SC2 SLP042=

CYXU;2005-11-29 14:21;SPECI CYXU 291421Z 19010KT 10SM BKN008 OVC040 09/ RMK SF5SC3=

CYXU;2005-11-29 15:00;METAR CYXU 291500Z 19014KT 10SM BKN010 OVC040 09/08 A2967 RMK SF6SC2 SLP051=

CYXU;2005-11-29 16:00;METAR CYXU 291600Z 22012G18KT 15SM FEW012 BKN040 OVC100 09/07 A2967 RMK SF2SC4AC2 SLP049=

CYXU;2005-11-29 17:00;METAR CYXU 291700Z 22012KT 15SM SCT020 BKN038 09/06 A2966 RMK CF3SC4 SLP046=

CYXU;2005-11-29 18:00;METAR CYXU 291800Z 21010G17KT 15SM FEW020 BKN040 09/03 A2966 RMK CF1SC6 SLP046=

CYXU;2005-11-29 19:00;METAR CYXU 291900Z 18010KT 15SM BKN032 09/04 A2965 RMK SC6 SLP043=

CYXU;2005-11-29 20:00;METAR CYXU 292000Z 20010G18KT 15SM FEW025 BKN045 08/03 A2966 RMK CU1SC6 SLP046=

CYXU;2005-11-29 21:00;METAR CYXU 292100Z 24012KT 15SM FEW025 BKN050 07/02 A2969 RMK CU2SC5 SLP057=

CYXU;2005-11-29 22:00;METAR CYXU 292200Z 25011G21KT 15SM FEW025 OVC040 06/00 A2972 RMK CF1SC7 SLP067=

CYXU;2005-11-29 23:00;METAR CYXU 292300Z 24010G17KT 15SM OVC049 05/M02 A2975 RMK SC8 SLP078=

CYXU;2005-11-30 01:00;METAR CYXU 300100Z 25017G24KT 15SM FEW025 OVC051 04/M02 A2978 RMK CF1SC7 SLP090=

CYXU;2005-11-30 02:00;METAR CYXU 300200Z 24014G20KT 15SM FEW025 OVC050 03/M03 A2982 RMK SF1SC7 SLP102=

CYXU;2005-11-30 03:00;METAR CYXU 300300Z 25012KT 15SM OVC049 02/M03 A2985 RMK SC8 SLP114=

CYXU;2005-11-30 04:00;METAR CYXU 300400Z 24013G22KT 15SM SCT023 OVC048 02/M03 A2986 RMK CU3SC5 SLP120=

CYXU;2005-11-30 05:00;METAR CYXU 300500Z 24013KT 15SM FEW020 OVC043 01/M04 A2987 RMK CU2SC6 SLP122=

CYXU;2005-11-30 06:00;METAR CYXU 300600Z 23011KT 15SM BKN020 OVC043 01/M03 A2988 RMK CU5SC3 SLP126=

CYXU;2005-11-30 07:00;METAR CYXU 300700Z 24009KT 15SM OVC025 01/M04 A2989 RMK SC8 SLP129=

CYXU;2005-11-30 10:00;METAR CYXU 301000Z 24010KT 10SM -SHRA FEW019 OVC027 M00/M04 A2993 RMK SF2SC6 SLP143=

CYXU;2005-11-30 10:47;SPECI CYXU 301047Z 24008KT 10SM -FZDZ BKN014 OVC024 M00/ RMK SF6SC2=

CYXU;2005-11-30 12:00;METAR CYXU 301200Z 24009KT 10SM -FZDZ BKN017 OVC024 M01/M04 A2997 RMK SF6SC2 PCPN VRY LGT SLP157=

CYXU;2005-11-30 13:00;METAR CYXU 301300Z 23008KT 10SM -SHSN -FZDZ BKN016 OVC025 M01/M04 A2998 RMK SF6SC2 SLP163=

CYXU;2005-11-30 13:09;SPECI CYXU 301309Z 24007KT 10SM -SHSN BKN016 OVC040 M01/ REFZDZ RMK SF5SC3 PCPN VRY LGT=

CYXU;2005-11-30 14:06;SPECI CYXU 301406Z 23006KT 3/4SM R15/P6000FT/D -SHSN BR OVC016 M01/ RMK SN4SC4 TCU EMBD=

CYXU;2005-11-30 14:23;SPECI CYXU 301423Z 23008KT 2 1/2SM R15/4500VP6000FT/U -SHSN BR SCT007 OVC030 M01/ RMK SF3SC5 TCU EMBD=

CYXU;2005-11-30 14:35;SPECI CYXU 301435Z 22008KT 6SM -SHSN BKN011 OVC022 M01/ RMK SC5SC3=

CYXU;2005-11-30 15:09;SPECI CYXU 301509Z 23010KT 2 1/2SM -SHSN BKN012 OVC040 M01/ RMK CU6SC2=

CYXU;2005-11-30 15:25;SPECI CYXU 301525Z 22012KT 4SM -SHSN BKN012 OVC040 M01/ RMK CU6SC2 TCU EMBD=

CYXU;2005-11-30 15:39;SPECI CYXU 301539Z 24011KT 2 1/2SM -SHSN BKN012 OVC040 M01/ RMK CU6SC2 TCU ASOCTD=

CYXU;2005-11-30 16:00;METAR CYXU 301600Z 24010G15KT 6SM -SHSN BKN010 OVC040 M01/M03 A3002 RMK CU6SC2 SLP175=

CYXU;2005-11-30 17:00;METAR CYXU 301700Z 24012G17KT 8SM -SHSN BKN020 M00/M04 A3001 RMK CU7 SLP173=

CYXU;2005-11-30 17:44;SPECI CYXU 301744Z 25015KT 10SM OVC028 M00/ RMK SC8=

CYXU;2005-11-30 18:00;METAR CYXU 301800Z 25013KT 10SM OVC025 M01/M04 A3000 RMK SC8 SLP169=

CYXU;2005-11-30 19:00;METAR CYXU 301900Z 26011KT 15SM BKN020 M00/M05 A3001 RMK SC7 SLP173=

CYXU;2005-11-30 20:00;METAR CYXU 302000Z 25010G15KT 15SM OVC021 M00/M04 A3003 RMK SC8 SLP181=

CYXU;2005-11-30 21:00;METAR CYXU 302100Z 25010KT 15SM BKN025 M00/M04 A3004 RMK SC7 SLP185=

CYXU;2005-11-30 22:00;METAR CYXU 302200Z 24008KT 10SM OVC020 M00/M05 A3007 RMK SC8 SLP195=

CYXU;2005-11-30 23:00;METAR CYXU 302300Z 25009KT 12SM BKN018 OVC026 M00/M04 A3009 RMK CU6SC2 SLP201=

CYXU;2005-12-01 00:00;METAR CYXU 010000Z 25007KT 12SM FEW018 OVC023 M00/M04 A3010 RMK CU2SC6 SLP205=

CYXU;2005-12-01 01:00;METAR CYXU 010100Z 24007KT 12SM OVC023 M00/M05 A3011 RMK SC8 SLP207=

CYXU;2005-12-01 02:00;METAR CYXU 010200Z 23007KT 15SM BKN025 M01/M05 A3010 RMK SC7 SLP206=

CYXU;2005-12-01 03:00;METAR CYXU 010300Z 23006KT 15SM OVC035 M01/M05 A3010 RMK SC8 SLP205=

CYXU;2005-12-01 04:00;METAR CYXU 010400Z 25007KT 15SM OVC030 M01/M04 A3011 RMK SC8 SLP207=

CYXU;2005-12-01 05:00;METAR CYXU 010500Z 25006KT 15SM OVC029 M01/M05 A3011 RMK SC8 SLP207=

CYXU;2005-12-01 06:00;METAR CYXU 010600Z 26004KT 15SM OVC029 M01/M05 A3011 RMK SC8 SLP207=

CYXU;2005-12-01 07:00;METAR CYXU 010700Z 22007KT 15SM OVC031 M01/M05 A3010 RMK SC8 SLP204=

CYXU;2005-12-01 08:00;METAR CYXU 010800Z 27003KT 15SM OVC028 M01/M05 A3009 RMK SC8 SLP202=

CYXU;2005-12-01 11:00;METAR CYXU 011100Z 25004KT 15SM OVC031 M01/M05 A3004 RMK SC8 SLP185=

CYXU;2005-12-01 12:00;METAR CYXU 011200Z 27004KT 15SM OVC038 M01/M05 A3002 RMK SC8 SLP177=

CYXU;2005-12-01 13:00;METAR CYXU 011300Z 33002KT 15SM OVC036 M01/M05 A2999 RMK SC8 SLP168=

CYXU;2005-12-01 14:00;METAR CYXU 011400Z 02004KT 15SM OVC035 M01/M05 A2997 RMK SC8 SLP162=

CYXU;2005-12-01 15:00;METAR CYXU 011500Z 04002KT 15SM OVC031 M00/M05 A2997 RMK SC8 SLP161=

CYXU;2005-12-01 16:00;METAR CYXU 011600Z 05004KT 15SM OVC031 M00/M04 A2994 RMK SC8 WND ESTD SLP149=

CYXU;2005-12-01 17:00;METAR CYXU 011700Z 09002KT 15SM OVC032 00/M04 A2990 RMK SC8 SLP136=

CYXU;2005-12-01 18:00;METAR CYXU 011800Z 05004KT 15SM OVC030 00/M05 A2984 RMK SC8 SLP116=

CYXU;2005-12-01 19:29;SPECI CYXU 011929Z 00000KT 4SM -SN OVC024 M00/ RMK NS8=

CYXU;2005-12-01 20:00;METAR CYXU 012000Z 00000KT 2SM -SN OVC024 M01/M03 A2982 RMK NS8 SLP109=

CYXU;2005-12-01 20:39;SPECI CYXU 012039Z 30003KT 1 1/2SM -SN SCT005 OVC016 M01/ RMK SF4NS4=

CYXU;2005-12-01 21:00;METAR CYXU 012100Z 31003KT 2SM -SN SCT005 OVC016 M01/M03 A2980 RMK SF3NS5 SLP104=

CYXU;2005-12-01 21:40;SPECI CYXU 012140Z 33005KT 2 1/2SM -SN BKN006 OVC020 M01/ RMK SC7NS1=

CYXU;2005-12-01 22:00;METAR CYXU 012200Z 33003KT 2SM -SN BKN007 OVC029 M01/M03 A2980 RMK SC6NS2 SLP101=

CYXU;2005-12-01 22:16;SPECI CYXU 012216Z 31002KT 2SM -SN SCT007 OVC025 M01/ RMK SC3NS5=

CYXU;2005-12-01 23:00;METAR CYXU 012300Z 35005KT 2 1/2SM -SN SCT007 OVC025 M01/M03 A2979 RMK SC4NS4 SLP100=

CYXU;2005-12-01 23:08;SPECI CYXU 012308Z 33004KT 2 1/2SM BR SCT007 OVC025 RMK SC3SC5=

CYXU;2005-12-01 23:48;SPECI CYXU 012348Z 31004KT 2 1/2SM -SN BR BKN009 OVC044 M01/ RMK SC6SC2=

CYXU;2005-12-02 00:00;METAR CYXU 020000Z 29003KT 2 1/2SM -SN BKN009 OVC045 M01/M03 A2979 RMK SC6SC2 SLP099=

CYXU;2005-12-02 01:00;METAR CYXU 020100Z 28003KT 2 1/2SM -SN FEW009 BKN034 M01/M03 A2977 RMK SC2SC5 SLP093=

CYXU;2005-12-02 01:24;SPECI CYXU 020124Z 27004KT 2SM -SN BKN006 OVC035 M01/ RMK SC6NS2=

CYXU;2005-12-02 02:00;METAR CYXU 020200Z 26004KT 2SM -SN BKN005 OVC013 M01/M03 A2976 RMK SC6NS2 SLP090=

CYXU;2005-12-02 03:00;METAR CYXU 020300Z 26004KT 2SM -SN BKN009 OVC025 M02/M04 A2974 RMK SC6NS2 SLP083=

CYXU;2005-12-02 04:00;METAR CYXU 020400Z 26009KT 2SM -SN BKN008 OVC016 M02/M04 A2974 RMK SC6NS2 SLP082=

CYXU;2005-12-02 05:00;METAR CYXU 020500Z 26009KT 1 1/2SM -SN BKN008 OVC018 M02/M04 A2973 RMK SC6NS2 SLP079=

CYXU;2005-12-02 06:00;METAR CYXU 020600Z 27013KT 2SM -SN BKN008 BKN018 OVC100 M03/M05 A2972 RMK SC5SC2AC2 SLP075=

CYXU;2005-12-02 06:24;SPECI CYXU 020624Z 27007KT 5SM -SN FEW019 OVC100 M03/ RMK SC2AC6=

CYXU;2005-12-02 07:40;SPECI CYXU 020740Z 25011KT 4SM -SN BKN012 OVC100 M03/ RMK SC6AC2=

CYXU;2005-12-02 09:00;METAR CYXU 020900Z 26010KT 3SM -SN OVC011 M03/M05 A2967 RMK SC8 SLP058=

CYXU;2005-12-02 10:00;METAR CYXU 021000Z 25012KT 3SM -SN OVC010 M03/M05 A2964 RMK SC8 SLP049=

CYXU;2005-12-02 10:06;SPECI CYXU 021006Z 24012KT 2SM -SN OVC009 M03/ RMK SC8=

CYXU;2005-12-02 10:35;SPECI CYXU 021035Z 24015KT 1/2SM R15/3000V6000FT/D SHSN VV002 M03/ RMK SN8=

CYXU;2005-12-02 12:39;SPECI CYXU 021239Z 31011G17KT 12SM -SHSN SCT012TCU OVC048 M02/ RMK TCU3SC5=

CYXU;2005-12-02 13:00;METAR CYXU 021300Z 31011G16KT 12SM -SHSN DRSN SCT015TCU BKN038 M01/M04 A2970 RMK TCU3SC4 SLP067=

CYXU;2005-12-02 13:26;SPECI CYXU 021326Z 31011G16KT 2SM -SHSN DRSN OVC012TCU M02/ RMK TCU8=

CYXU;2005-12-02 13:34;SPECI CYXU 021334Z 30009KT 1/2SM R15/P6000FT/D SHSN DRSN VV004 M02/ RMK SN8 TCU ASOCTD=

CYXU;2005-12-02 14:00;METAR CYXU 021400Z 31010KT 1/2SM R15/5000FT/D SHSN DRSN VV004 M02/M03 A2973 RMK SN8 TCU ASOCTD SLP078=

CYXU;2005-12-02 14:12;SPECI CYXU 021412Z 31012G17KT 1/2SM R15/5000FT/D SHSN DRSN VV003 M02/ RMK SN8 CIG VRB 2-4=

CYXU;2005-12-02 14:26;SPECI CYXU 021426Z 31007G17KT 1/4SM R15/4000FT/N +SHSN DRSN VV003 M02/ RMK SN8 TCU ASOCTD CIG VRB 2-4=

CYXU;2005-12-02 15:00;METAR CYXU 021500Z 30009G15KT 1/4SM R15/3000FT/N +SHSN DRSN VV003 M02/M04 A2976 RMK SN8 TCU ASOCTD CIG VRB 2-4 SLP088=

CYXU;2005-12-02 16:00;METAR CYXU 021600Z 32010KT 1/4SM R15/2400FT/N +SHSN DRSN VV003 M03/M04 A2977 RMK SN8 TCU ASOCTD CIG VRB 2-4 WND ESTD SLP094=

CYXU;2005-12-02 16:47;SPECI CYXU 021647Z 31008KT 3/4SM R15/3500V5000FT/U -SHSN DRSN OVC009TCU M03/ RMK SN3TCU5=

CYXU;2005-12-02 17:16;SPECI CYXU 021716Z 29011G16KT 7SM -SHSN BKN016 M02/ RMK SC7 TCU ASOCTD=

CYXU;2005-12-02 17:38;SPECI CYXU 021738Z 29014G25KT 1/2SM R15/3000VP6000FT/D -SHSN BLSN VV003TCU M03/ RMK TCU8=

CYXU;2005-12-02 17:49;SPECI CYXU 021749Z 29016G21KT 5SM -SHSN SCT012TCU BKN040 M03/ RMK TCU3SC4 RESN=

CYXU;2005-12-02 18:00;METAR CYXU 021800Z 29016G24KT 2SM -SHSN BLSN OVC012TCU M03/M05 A2978 RMK SN3TCU5 RESN /SS13/ SLP098=

CYXU;2005-12-02 18:07;SPECI CYXU 021807Z 29015G21KT 3/4SM R15/3500VP6000FT/D -SHSN OVC011TCU M03/ RMK SN3TCU5=

CYXU;2005-12-02 18:18;SPECI CYXU 021818Z 31017G26KT 1/8SM R15/2200FT/N +SHSN +BLSN VV002 M03/ RMK SN8 TCU ASOCTD=

CYXU;2005-12-02 18:27;SPECI CYXU 021827Z 31014G25KT 4SM R15/2800VP6000FT/N -SHSN BLSN SCT012TCU BKN038 M03/ RMK TCU3SC4 RESN=

CYXU;2005-12-02 18:46;SPECI CYXU 021846Z 30011G16KT 7SM -SHSN FEW012TCU BKN026 M02/ RMK TCU2SC4 RESN REBLSN=

CYXU;2005-12-02 19:00;METAR CYXU 021900Z 31019G28KT 3/4SM R15/P6000FT/N -SHSN BLSN FEW015TCU BKN023 M01/M06 A2980 RMK TCU2SC4 RESN REBLSN /SS02/ SLP105=

CYXU;2005-12-02 19:08;SPECI CYXU 021908Z 31013G28KT 1/8SM R15/1800FT/N +SHSN +BLSN VV002 M03/ RMK SN8 TCU ASOCTD=

CYXU;2005-12-02 19:38;SPECI CYXU 021938Z 30013G21KT 1/2SM R15/2800VP6000FT/N -SHSN BLSN OVC009TCU M04/ RMK SN3TCU5 RESN REBLSN=

CYXU;2005-12-02 20:00;METAR CYXU 022000Z 31015G20KT 3/4SM R15/4500VP6000FT/N -SHSN BLSN OVC009TCU M05/M06 A2985 RMK SN1TCU7 RESN REBLSN /SS01/ SLP120=

CYXU;2005-12-02 20:18;SPECI CYXU 022018Z 29012G20KT 2SM -SHSN BKN015TCU M05/ RMK SN1TCU6 VIS LWR S RESBLSN=

CYXU;2005-12-02 20:22;SPECI CYXU 022022Z 29011G16KT 6SM -SHSN BKN025TCU M04/ RMK SN1TCU6 VIS LWR S-W RESBLSN=

CYXU;2005-12-02 20:39;SPECI CYXU 022039Z 28013KT 1SM R15/P6000FT/N -SHSN BKN009TCU M04/ RMK SN2TCU6 REBLSN=

CYXU;2005-12-02 21:00;METAR CYXU 022100Z 30015KT 5/8SM R15/3500VP6000FT/D -SHSN OVC005TCU M04/M07 A2988 RMK SN5TCU3 SLP131=

CYXU;2005-12-02 21:16;SPECI CYXU 022116Z 31014G19KT 8SM BKN033TCU M04/ RMK TCU6 VIS LWR E=

CYXU;2005-12-02 22:00;METAR CYXU 022200Z 30015G22KT 8SM SCT015TCU BKN056 M04/M10 A2990 RMK TCU4SC3 SLP137=

CYXU;2005-12-02 23:00;METAR CYXU 022300Z 28012KT 12SM BKN058 M04/M11 A2991 RMK SC7 SLP142=

CYXU;2005-12-02 23:42;SPECI CYXU 022342Z 27012G17KT 8SM -SHSN SCT050TCU OVC060 M04/ RMK TCU3SC5=

CYXU;2005-12-03 00:00;METAR CYXU 030000Z 27011KT 12SM -SHSN SCT015TCU OVC061 M04/M09 A2992 RMK TCU3SC5 SLP146=

CYXU;2005-12-03 01:00;METAR CYXU 030100Z 28012G17KT 15SM FEW020 BKN060 M04/M10 A2993 RMK SC2SC5 SLP148=

CYXU;2005-12-03 02:00;METAR CYXU 030200Z 27015KT 15SM FEW020TCU SCT050 M05/M09 A2993 RMK TCU2SC2 SLP149=

CYXU;2005-12-03 02:53;SPECI CYXU 030253Z 26010G15KT 3SM -SHSN OVC015TCU M05/ RMK SN2TCU6=

CYXU;2005-12-03 03:00;METAR CYXU 030300Z 27010G15KT 4SM -SHSN BKN015TCU M05/M08 A2994 RMK SN2TCU4 SLP151=

CYXU;2005-12-03 03:18;SPECI CYXU 030318Z 27012KT 1 1/2SM -SHSN OVC011TCU M05/ RMK SN4TCU4=

CYXU;2005-12-03 04:00;METAR CYXU 030400Z 28012KT 3/8SM R15/P6000FT/D SHSN BLSN OVC005TCU M05/M08 A2996 RMK SN6TCU2 SLP157=

CYXU;2005-12-03 04:15;SPECI CYXU 030415Z 27010G20KT 3SM -SHSN FEW015TCU BKN055 M06/ RMK SN1TCU2SC3 RESN REBLSN=

CYXU;2005-12-03 04:50;SPECI CYXU 030450Z 26010KT 7SM FEW015TCU BKN043 M06/ RMK TCU2SC3 RESN REBLSN=

CYXU;2005-12-03 05:00;METAR CYXU 030500Z 27011KT 12SM FEW030 M06/M08 A2997 RMK SC2 RESN REBLSN SLP161=

CYXU;2005-12-03 06:00;METAR CYXU 030600Z 26012G17KT 15SM BKN051 M05/M09 A2999 RMK SC6 SLP168=

CYXU;2005-12-03 06:09;SPECI CYXU 030609Z 27010G15KT 2SM -SHSN OVC049 M06/ RMK SC8=

CYXU;2005-12-03 07:00;METAR CYXU 030700Z 28013KT 2SM -SHSN OVC024 M06/M09 A3000 RMK SC8 SLP172=

CYXU;2005-12-03 08:08;SPECI CYXU 030808Z 27009KT 15SM FEW030 M07/ RMK SC2=

CYXU;2005-12-03 08:44;SPECI CYXU 030844Z 26010KT 8SM -SHSN BKN038 M07/ RMK SC6=

CYXU;2005-12-03 09:00;METAR CYXU 030900Z 26009KT 12SM -SHSN SCT031 M08/M11 A3002 RMK SC3 SLP181=

CYXU;2005-12-03 10:00;METAR CYXU 031000Z 25009KT 15SM -SHSN FEW030 M08/M11 A3003 RMK SC2 SLP185=

CYXU;2005-12-03 10:07;SPECI CYXU 031007Z 24009KT 15SM FEW030 M08/ RMK SC2=

CYXU;2005-12-03 10:23;SPECI CYXU 031023Z 25009KT 8SM -SHSN SCT030 M08/ RMK SC4=

CYXU;2005-12-03 11:00;METAR CYXU 031100Z 25010KT 8SM -SHSN FEW018 BKN048 M08/M11 A3005 RMK SC2SC3 SLP191=

CYXU;2005-12-03 12:00;METAR CYXU 031200Z 26007KT 8SM -SHSN FEW020 BKN040 M07/M10 A3005 RMK SC2SC5 SLP192=

CYXU;2005-12-03 12:23;SPECI CYXU 031223Z 25008KT 3SM -SHSN SCT026 BKN040 M07/ RMK SC3SC4=

CYXU;2005-12-03 12:43;SPECI CYXU 031243Z 25010KT 12SM -SHSN FEW018 BKN048 M07/ RMK SC2SC5=

CYXU;2005-12-03 13:00;METAR CYXU 031300Z 25011KT 8SM -SHSN FEW018 BKN047 M07/M11 A3006 RMK SC2SC4 VSB 3 NW-N SLP195=

CYXU;2005-12-03 14:00;METAR CYXU 031400Z 25010G16KT 12SM SCT046 M07/M11 A3007 RMK SC4 SLP197=

CYXU;2005-12-03 15:00;METAR CYXU 031500Z 26011KT 15SM FEW044 M06/M11 A3008 RMK SC2 SLP202=

CYXU;2005-12-03 15:35;SPECI CYXU 031535Z 26012KT 5SM -SHSN FEW017 SCT044 M06/ RMK SC2SC2=

CYXU;2005-12-03 16:00;METAR CYXU 031600Z 28011KT 5SM -SHSN FEW017 BKN038 M05/M10 A3008 RMK SC2SC3 SLP201=

CYXU;2005-12-03 17:00;METAR CYXU 031700Z 25009KT 7SM -SHSN BKN038 M05/M10 A3006 RMK CU6 SLP195=

CYXU;2005-12-03 18:00;METAR CYXU 031800Z 26011KT 5SM -SHSN BKN040 M05/M09 A3005 RMK CU6 SLP191=

CYXU;2005-12-03 19:00;METAR CYXU 031900Z 26009KT 12SM FEW040 BKN110 M05/M10 A3003 RMK SC2AC4 SLP186=

CYXU;2005-12-03 20:00;METAR CYXU 032000Z 25008KT 15SM FEW040 BKN110 BKN120 M05/M10 A3003 RMK SC1AC4AC2 SLP183=

CYXU;2005-12-03 21:00;METAR CYXU 032100Z 26005KT 15SM FEW040 BKN120 M05/M11 A3003 RMK SC1AC3 SLP186=

CYXU;2005-12-03 22:00;METAR CYXU 032200Z 23007KT 15SM FEW040 BKN110 M05/M11 A3003 RMK SC1AC6 SLP184=

CYXU;2005-12-04 00:00;METAR CYXU 040000Z 21002KT 15SM OVC110 M05/M11 A2997 RMK AC8 SLP166=

CYXU;2005-12-04 01:00;METAR CYXU 040100Z 00000KT 15SM BKN090 M06/M11 A2997 RMK AC7 SLP165=

CYXU;2005-12-04 02:00;METAR CYXU 040200Z 00000KT 15SM OVC090 M06/M10 A2996 RMK AC8 VIRGA SLP160=

CYXU;2005-12-04 03:00;METAR CYXU 040300Z 11002KT 15SM OVC064 M06/M10 A2993 RMK SC8 SLP152=

CYXU;2005-12-04 04:00;METAR CYXU 040400Z 05002KT 15SM -SN OVC029 M06/M10 A2991 RMK NS8 SLP144=

CYXU;2005-12-04 04:37;SPECI CYXU 040437Z 04002KT 1SM R15/P6000FT/D -SN BKN005 OVC015 M06/ RMK SF6NS2=

CYXU;2005-12-04 06:00;METAR CYXU 040600Z 02005KT 1 1/2SM -SN OVC015 M07/M09 A2985 RMK SN3NS5 VSBY VRB 1-2 SLP123=

CYXU;2005-12-04 08:00;METAR CYXU 040800Z 06003KT 1 1/2SM -SN OVC010 M06/M08 A2983 RMK SN2NS6 CIG VRB 7-13 / VSBY VRB 1-2 SLP116=

CYXU;2005-12-04 10:00;METAR CYXU 041000Z 04004KT 1 1/2SM -SN OVC010 M06/M08 A2980 RMK SN2NS6 CIG VRB 7-13 / VSBY VRB 1-2 /S02/ SLP104=

CYXU;2005-12-04 10:30;SPECI CYXU 041030Z 04002KT 2 1/2SM -SN OVC020 M06/ RMK NS8=

CYXU;2005-12-04 10:51;SPECI CYXU 041051Z 03002KT 4SM -SN OVC020 M06/ RMK NS8=

CYXU;2005-12-04 11:00;METAR CYXU 041100Z 36002KT 4SM -SN OVC017 M06/M08 A2981 RMK NS8 SLP108=

CYXU;2005-12-04 12:00;METAR CYXU 041200Z 36002KT 4SM -SN OVC025 M06/M08 A2982 RMK NS8 SLP113=

CYXU;2005-12-04 12:25;SPECI CYXU 041225Z 00000KT 2 1/2SM -SN OVC023 M06/ RMK NS8=

CYXU;2005-12-04 12:55;SPECI CYXU 041255Z 00000KT 5SM -SN FEW023 BKN039 OVC090 M06/ RMK SC2SC3AC2=

CYXU;2005-12-04 13:00;METAR CYXU 041300Z 36002KT 5SM -SN FEW023 BKN030 OVC090 M06/M08 A2983 RMK SC2SC3AC2 SLP117=

CYXU;2005-12-04 14:00;METAR CYXU 041400Z 29003KT 5SM -SHSN OVC022 M06/M08 A2984 RMK SC8 TCU ASOCTD SLP120=

CYXU;2005-12-04 14:48;SPECI CYXU 041448Z 00000KT 2 1/2SM -SHSN BKN018 BKN042 M05/ RMK SN2SC3SC2 TCU ASOCTD=

CYXU;2005-12-04 15:00;METAR CYXU 041500Z 23004KT 4SM -SHSN FEW018 BKN035 M05/M07 A2986 RMK SC2SC6 TCU ASOCTD SLP125=

CYXU;2005-12-04 15:10;SPECI CYXU 041510Z 24005KT 3SM -SHSN FEW018 BKN035 M05/ RMK SC2SC5 TCU ASOCTD VIS VRB 2-4=

CYXU;2005-12-04 15:21;SPECI CYXU 041521Z 26006KT 6SM -SHSN BKN013 OVC040 M04/ RMK SC5SC3=

CYXU;2005-12-04 15:48;SPECI CYXU 041548Z 26006KT 3SM -SHSN OVC010 M04/ RMK SC8 TCU ASOCTD=

CYXU;2005-12-04 16:00;METAR CYXU 041600Z 26008KT 3SM -SHSN BKN010 OVC023 M04/M06 A2987 RMK SC5SC3 TCU ASOCTD SLP130=

CYXU;2005-12-04 16:17;SPECI CYXU 041617Z 27010KT 5SM -SHSN SCT008 BKN023 M04/ RMK SF3SC4 TCU ASOCTD=

CYXU;2005-12-04 17:00;METAR CYXU 041700Z 28010KT 5SM -SHSN BKN010 BKN035 M03/M05 A2988 RMK SC5SC2 TCU ASOCTD SLP134=

CYXU;2005-12-04 17:50;SPECI CYXU 041750Z 27011G16KT 12SM -SHSN FEW010 OVC019 M03/ RMK SC2SC6 TCU ASOCTD=

CYXU;2005-12-04 18:00;METAR CYXU 041800Z 27014KT 15SM FEW013 BKN019 M03/M07 A2990 RMK SC2SC6 SLP138=

CYXU;2005-12-04 19:00;METAR CYXU 041900Z 28011KT 15SM BKN023 M03/M07 A2991 RMK SC6 SLP142=

CYXU;2005-12-04 20:00;METAR CYXU 042000Z 26009G19KT 15SM BKN023 M03/M08 A2993 RMK SC6 SLP149=

CYXU;2005-12-04 21:00;METAR CYXU 042100Z 27011G17KT 15SM SCT025 M04/M09 A2996 RMK SC4 SLP160=

CYXU;2005-12-04 21:24;SPECI CYXU 042124Z 27011KT 15SM -SHSN BKN040 M04/ RMK SC7=

CYXU;2005-12-04 22:00;METAR CYXU 042200Z 26010KT 15SM -SHSN SCT039 M04/M09 A2998 RMK SC4 PCPN VRY LGT SLP166=

CYXU;2005-12-04 22:14;SPECI CYXU 042214Z 25008KT 15SM FEW040 M05/ RMK SC2=

CYXU;2005-12-04 23:00;METAR CYXU 042300Z 25008KT 15SM FEW039 M05/M09 A2999 RMK SC2 SLP171=

CYXU;2005-12-05 00:00;METAR CYXU 050000Z 26012KT 15SM BKN040 M05/M10 A3000 RMK SC5 SLP175=

CYXU;2005-12-05 01:00;METAR CYXU 050100Z 26011G16KT 15SM BKN042 M04/M10 A3002 RMK SC6 SLP179=

CYXU;2005-12-05 03:00;METAR CYXU 050300Z 26011G16KT 15SM BKN040 M04/M09 A3003 RMK SC7 SLP184=

CYXU;2005-12-05 04:00;METAR CYXU 050400Z 27011G16KT 15SM SCT040 M04/M09 A3005 RMK SC4 SLP189=

CYXU;2005-12-05 05:00;METAR CYXU 050500Z 28012KT 15SM FEW040 M06/M10 A3005 RMK SC2 SLP191=

CYXU;2005-12-05 06:00;METAR CYXU 050600Z 27009G15KT 15SM FEW020 M06/M11 A3006 RMK SC2 SLP194=

CYXU;2005-12-05 08:00;METAR CYXU 050800Z 27009KT 15SM SCT020 M07/M12 A3008 RMK SC3 SLP201=

CYXU;2005-12-05 09:00;METAR CYXU 050900Z 27009KT 15SM SCT025 M07/M12 A3008 RMK SC4 SLP201=

CYXU;2005-12-05 10:00;METAR CYXU 051000Z 27006KT 15SM BKN026 M09/M13 A3008 RMK SC6 SLP200=

CYXU;2005-12-05 12:00;METAR CYXU 051200Z 27009KT 15SM -SHSN BKN029 M06/M11 A3010 RMK SC7 TCU ASOCTD SLP206=

CYXU;2005-12-05 12:33;SPECI CYXU 051233Z 27008KT 15SM OVC030 M06/ RMK SC8=

CYXU;2005-12-05 13:00;METAR CYXU 051300Z 25006KT 15SM BKN030 M06/M11 A3010 RMK SC7 SLP207=

CYXU;2005-12-05 14:00;METAR CYXU 051400Z 26006KT 15SM BKN032 M06/M11 A3010 RMK SC6 SLP209=

CYXU;2005-12-05 16:00;METAR CYXU 051600Z 23009KT 10SM -SHSN BKN024 BKN034 M05/M09 A3011 RMK SC6SC2 TCU ASOCTD SLP211=

CYXU;2005-12-05 16:47;SPECI CYXU 051647Z 25010KT 2SM -SHSN BKN012 OVC024 M05/ RMK SN2SC5SC2 TCU ASOCTD=

CYXU;2005-12-05 17:00;METAR CYXU 051700Z 25007KT 3SM -SHSN FEW012 BKN024 BKN038 M05/M09 A3009 RMK SC1SC6SC1 TCU ASOCTD SLP205=

CYXU;2005-12-05 17:24;SPECI CYXU 051724Z 25009KT 8SM -SHSN FEW012 BKN023 M05/ RMK CF1SC6 TCU ASOCTD=

CYXU;2005-12-05 17:45;SPECI CYXU 051745Z 26009KT 3SM -SHSN FEW012 BKN023 M05/ RMK SC2SC6 TCU ASOCTD=

CYXU;2005-12-05 17:54;SPECI CYXU 051754Z 28008KT 5SM -SHSN BKN023 BKN038 M05/ RMK SC6SC1 TCU ASOCTD=

CYXU;2005-12-05 18:00;METAR CYXU 051800Z 28007KT 3SM -SHSN BKN023 BKN038 M05/M09 A3007 RMK SC6SC1 TCU ASOCTD SLP196=

CYXU;2005-12-05 18:30;SPECI CYXU 051830Z 28007KT 15SM SCT020 BKN190 M05/ RMK CU4CI1 CONTRAILS=

CYXU;2005-12-05 19:00;METAR CYXU 051900Z 27007KT 15SM BKN025 BKN190 M05/M10 A3005 RMK SC6CI1 SLP190=

CYXU;2005-12-05 19:17;SPECI CYXU 051917Z 26007KT 12SM -SHSN BKN024 M04/ RMK SC7 TCU ASOCTD=

CYXU;2005-12-05 21:00;METAR CYXU 052100Z 30004KT 15SM -SHSN BKN036 M05/M09 A3004 RMK SC7 SLP189=

CYXU;2005-12-05 22:00;METAR CYXU 052200Z 26002KT 15SM -SHSN OVC035 M05/M09 A3003 RMK SC8 SLP187=

CYXU;2005-12-05 23:00;METAR CYXU 052300Z 27002KT 15SM -SHSN OVC031 M05/M09 A3004 RMK SC8 SLP190=

CYXU;2005-12-06 00:00;METAR CYXU 060000Z 26003KT 15SM -SHSN OVC030 M05/M09 A3005 RMK SC8 SLP190=

CYXU;2005-12-06 01:00;METAR CYXU 060100Z 30003KT 15SM -SHSN BKN038 M06/M10 A3005 RMK SC6 SLP191=

CYXU;2005-12-06 02:00;METAR CYXU 060200Z 24003KT 15SM -SHSN OVC033 M06/M09 A3004 RMK SC8 SLP188=

CYXU;2005-12-06 03:00;METAR CYXU 060300Z 26003KT 10SM -SHSN OVC034 M06/M09 A3004 RMK SC8 SLP188=

CYXU;2005-12-06 04:00;METAR CYXU 060400Z 27005KT 10SM -SHSN OVC034 M06/M09 A3004 RMK SC8 SLP188=

CYXU;2005-12-06 05:00;METAR CYXU 060500Z 27004KT 10SM -SHSN OVC033 M06/M09 A3003 RMK SC8 SLP184=

CYXU;2005-12-06 06:00;METAR CYXU 060600Z 26004KT 15SM OVC031 M06/M10 A3002 RMK SC8 SLP181=

CYXU;2005-12-06 07:00;METAR CYXU 060700Z 27005KT 10SM -SHSN OVC030 M06/M10 A3001 RMK SC8 SLP179=

CYXU;2005-12-06 08:00;METAR CYXU 060800Z 26004KT 10SM -SHSN OVC032 M06/M10 A3003 RMK SC8 SLP183=

CYXU;2005-12-06 10:00;METAR CYXU 061000Z 26009KT 15SM SCT035 M08/M13 A3003 RMK SC3 SLP183=

CYXU;2005-12-06 11:00;METAR CYXU 061100Z 27008KT 15SM SCT035 M09/M14 A3004 RMK SC4 SLP187=

CYXU;2005-12-06 12:00;METAR CYXU 061200Z 26009KT 15SM SCT035 BKN170 M10/M14 A3005 RMK SC3AC2 SLP194=

CYXU;2005-12-06 13:00;METAR CYXU 061300Z 26009KT 12SM FEW035 SCT230 M10/M14 A3006 RMK SC2CI1 SLP196=

CYXU;2005-12-06 14:00;METAR CYXU 061400Z 25008KT 12SM FEW038 SCT097 BKN230 M09/M13 A3008 RMK SC2AC1CI1 SLP202=

CYXU;2005-12-06 16:00;METAR CYXU 061600Z 25009G15KT 12SM FEW040 SCT120 BKN190 M08/M13 A3010 RMK SC1AC2CI2 SLP210=

CYXU;2005-12-06 18:00;METAR CYXU 061800Z 26012KT 12SM VCSH BKN023 BKN040 M08/M13 A3010 RMK CU5SC2 SLP211=

CYXU;2005-12-06 18:48;SPECI CYXU 061848Z 25011G18KT 12SM -SHSN DRSN BKN024 M07/ RMK SC6 TCU ASOCTD=

CYXU;2005-12-06 19:00;METAR CYXU 061900Z 26012G18KT 10SM -SHSN DRSN BKN025 M07/M13 A3010 RMK SC6 VIS NW 3 TCU ASOCTD SLP210=

CYXU;2005-12-06 19:30;SPECI CYXU 061930Z 27011G16KT 12SM VCSH BKN025 M07/ RMK SC6=

CYXU;2005-12-06 20:00;METAR CYXU 062000Z 25015KT 15SM VCSH BKN029 M08/M14 A3012 RMK SC6 CU ASOCTD SLP217=

CYXU;2005-12-06 21:00;METAR CYXU 062100Z 26011KT 15SM BKN033 M08/M13 A3014 RMK SC6 SLP223=

CYXU;2005-12-06 22:00;METAR CYXU 062200Z 26009KT 15SM BKN035 M08/M14 A3015 RMK SC6 SLP228=

CYXU;2005-12-06 23:00;METAR CYXU 062300Z 26010KT 15SM SCT033 M08/M14 A3016 RMK SC4 SLP231=

CYXU;2005-12-07 00:00;METAR CYXU 070000Z 27012G18KT 15SM SCT035 M08/M14 A3018 RMK SC4 SLP238=

CYXU;2005-12-07 01:00;METAR CYXU 070100Z 26008KT 15SM FEW034 M09/M14 A3019 RMK SC2 SLP241=

CYXU;2005-12-07 01:54;SPECI CYXU 070154Z 26009KT 8SM -SHSN OVC038 M08/ RMK SC8=

CYXU;2005-12-07 03:00;METAR CYXU 070300Z 25009KT 12SM -SHSN SCT035 M09/M12 A3021 RMK SC3 SLP250=

CYXU;2005-12-07 03:42;SPECI CYXU 070342Z 26009KT 15SM FEW035 M09/ RMK SC2=

CYXU;2005-12-07 04:00;METAR CYXU 070400Z 26008KT 10SM FEW024 M09/M12 A3022 RMK SC2 SLP253=

CYXU;2005-12-07 05:00;METAR CYXU 070500Z 27009KT 15SM SKC M09/M12 A3024 RMK SLP257=

CYXU;2005-12-07 06:49;SPECI CYXU 070649Z 25009KT 15SM -SHSN BKN029 M10/ RMK SC7 CVCTV CLD EMBD=

CYXU;2005-12-07 07:00;METAR CYXU 070700Z 25009KT 15SM -SHSN BKN029 M10/M13 A3025 RMK SC7 CVCTV CLD EMBD SLP262=

CYXU;2005-12-07 08:00;METAR CYXU 070800Z 26010KT 15SM -SHSN BKN031 M10/M14 A3027 RMK SC6 CVCTV CLD EMBD SLP270=

CYXU;2005-12-07 08:48;SPECI CYXU 070848Z 26008KT 15SM FEW031 M11/ RMK SC2=

CYXU;2005-12-07 10:00;METAR CYXU 071000Z 25008KT 15SM SKC M12/M15 A3031 RMK SLP282=

CYXU;2005-12-07 11:00;METAR CYXU 071100Z 25009KT 15SM FEW030 M12/M15 A3034 RMK SC1 SLP291=

CYXU;2005-12-07 12:00;METAR CYXU 071200Z 26010KT 15SM -SHSN BKN030 M11/M15 A3036 RMK SC6 CU ASOCTD SLP299=

CYXU;2005-12-07 13:00;METAR CYXU 071300Z 26010KT 12SM -SHSN BKN032 M11/M14 A3038 RMK SC6 CU ASOCTD SLP306=

CYXU;2005-12-07 14:00;METAR CYXU 071400Z 25013KT 12SM -SHSN DRSN FEW025 M10/M14 A3039 RMK CU2 SLP310=

CYXU;2005-12-07 14:17;SPECI CYXU 071417Z 26010G15KT 15SM DRSN FEW025 M10/ RMK SC1=

CYXU;2005-12-07 15:00;METAR CYXU 071500Z 26012G17KT 15SM DRSN FEW025 M09/M13 A3042 RMK SC1 SLP319=

CYXU;2005-12-07 16:00;METAR CYXU 071600Z 26012KT 15SM SKC M08/M12 A3044 RMK SLP327=

CYXU;2005-12-07 17:42;SPECI CYXU 071742Z 26013KT 15SM -SHSN FEW025 M06/ RMK CU1 LINE OF CLD AND SNOW NORTH MOVING SOUTH=

CYXU;2005-12-07 18:00;METAR CYXU 071800Z 26013KT 15SM VCSH FEW025 M06/M11 A3044 RMK CU1 LINE OF COUD AND SNOW NORTH SLP328=

CYXU;2005-12-07 20:00;METAR CYXU 072000Z 26010G15KT 15SM FEW020 FEW080 M06/M11 A3046 RMK CF1AC1 SLP334=

CYXU;2005-12-07 20:26;SPECI CYXU 072026Z 26010KT 10SM -SHSN FEW030 M06/ RMK SC2=

CYXU;2005-12-07 21:00;METAR CYXU 072100Z 25013KT 10SM -SHSN SCT037 M06/M12 A3049 RMK SC3 SLP343=

CYXU;2005-12-07 22:44;SPECI CYXU 072244Z 25007KT 10SM FEW037 BKN056 M08/ RMK SC1SC5=

CYXU;2005-12-07 23:00;METAR CYXU 072300Z 25006KT 10SM FEW040 BKN046 M08/M13 A3054 RMK SC1SC5 VIS NE 5 SLP359=

CYXU;2005-12-08 00:00;METAR CYXU 080000Z 27005KT 10SM BKN054 M08/M14 A3056 RMK SC6 VIS NE 5 SLP370=

CYXU;2005-12-08 00:45;SPECI CYXU 080045Z 27004KT 10SM -SHSN BKN052 M06/ RMK SC7 VIS N-NE 5 CVCTV CLD EMBD=

CYXU;2005-12-08 01:00;METAR CYXU 080100Z 26004KT 10SM -SHSN BKN051 M08/M13 A3059 RMK SC7 VIS N-NE 4 CVCTV CLD EMBD SLP380=

CYXU;2005-12-08 02:00;METAR CYXU 080200Z 28005KT 8SM -SHSN BKN026 BKN050 M09/M14 A3060 RMK SC5SC2 CVCTV CLD EMBD SLP383=

CYXU;2005-12-08 02:43;SPECI CYXU 080243Z 27002KT 15SM FEW050 M10/ RMK SC1=

CYXU;2005-12-08 03:00;METAR CYXU 080300Z 00000KT 15SM SKC M10/M14 A3061 RMK SLP387=

CYXU;2005-12-08 04:00;METAR CYXU 080400Z 00000KT 15SM SKC M13/M15 A3062 RMK SLP390=

CYXU;2005-12-08 05:00;METAR CYXU 080500Z 00000KT 15SM SKC M14/M16 A3063 RMK SLP392=

CYXU;2005-12-08 06:00;METAR CYXU 080600Z 00000KT 15SM SKC M15/M17 A3063 RMK FROIN SLP392=

CYXU;2005-12-08 09:00;METAR CYXU 080900Z 09002KT 15SM SKC M17/M19 A3063 RMK FROIN SLP394=

CYXU;2005-12-08 10:00;METAR CYXU 081000Z 11002KT 10SM FEW020 M17/M19 A3063 RMK SC1 FROIN SLP393=

CYXU;2005-12-08 11:00;METAR CYXU 081100Z 11002KT 10SM BKN022 M17/M18 A3064 RMK SC6 FROIN SLP397=

CYXU;2005-12-08 12:00;METAR CYXU 081200Z 08002KT 10SM FEW020 M17/M19 A3064 RMK SC2 SLP397=

CYXU;2005-12-08 13:00;METAR CYXU 081300Z 00000KT 8SM FEW020 M16/M19 A3063 RMK SC2 FROIN SLP394=

CYXU;2005-12-08 14:00;METAR CYXU 081400Z 00000KT 8SM FEW020 M15/M17 A3062 RMK SC2 SLP393=

CYXU;2005-12-08 14:38;SPECI CYXU 081438Z 00000KT 8SM -SHSN BKN025 M15/ RMK SC5 CU ASOCTD=

CYXU;2005-12-08 15:00;METAR CYXU 081500Z 04002KT 8SM -SHSN BKN025 M14/M16 A3061 RMK SC6 SLP387=

CYXU;2005-12-08 16:00;METAR CYXU 081600Z 00000KT 10SM OVC027 M10/M13 A3060 RMK SC8 SLP385=

CYXU;2005-12-08 17:00;METAR CYXU 081700Z 26002KT 10SM BKN028 M07/M11 A3057 RMK SC7 SLP375=

CYXU;2005-12-08 18:00;METAR CYXU 081800Z 10003KT 12SM BKN027 M05/M10 A3051 RMK SC6 SLP353=

CYXU;2005-12-08 19:00;METAR CYXU 081900Z 12003KT 12SM SCT027 BKN250 M04/M09 A3047 RMK SC2CI1 SLP339=

CYXU;2005-12-08 20:00;METAR CYXU 082000Z 11007KT 8SM BKN025 OVC250 M05/M09 A3045 RMK SC6CI2 HZ VIS N-NE 4 SLP332=

CYXU;2005-12-08 21:00;METAR CYXU 082100Z 09007KT 8SM FEW025 FEW120 OVC250 M05/M09 A3040 RMK SC1AC1CI6 SLP315=

CYXU;2005-12-08 22:00;METAR CYXU 082200Z 09009KT 8SM BKN110 OVC250 M05/M09 A3037 RMK AC6CI2 HZ SLP306=

CYXU;2005-12-08 23:00;METAR CYXU 082300Z 09008KT 10SM OVC200 M06/M09 A3033 RMK CI8 SLP292=

CYXU;2005-12-09 00:00;METAR CYXU 090000Z 08010KT 10SM OVC140 M05/M09 A3027 RMK AC8 SLP271=

CYXU;2005-12-09 01:00;METAR CYXU 090100Z 10008KT 10SM OVC090 M05/M08 A3025 RMK AC8 SLP265=

CYXU;2005-12-09 02:00;METAR CYXU 090200Z 11008KT 10SM OVC060 M04/M07 A3023 RMK SC8 SLP256=

CYXU;2005-12-09 02:03;SPECI CYXU 090203Z 10008KT 5SM -SN OVC040 M04/ RMK SC8=

CYXU;2005-12-09 02:33;SPECI CYXU 090233Z 08010KT 1 1/2SM -SN OVC020 M05/ RMK SN6SC2=

CYXU;2005-12-09 02:48;SPECI CYXU 090248Z 11009G15KT 2SM -SN DRSN OVC022 M04/ RMK SN5SC3=

CYXU;2005-12-09 03:00;METAR CYXU 090300Z 09009KT 3SM -SN OVC030 M04/M07 A3017 RMK SN2SC6 PRESFR SLP233=

CYXU;2005-12-09 03:51;SPECI CYXU 090351Z 07013G18KT 1 1/2SM -SN DRSN OVC024 M05/ RMK SN6SC2=

CYXU;2005-12-09 04:00;METAR CYXU 090400Z 07014KT 1 1/2SM -SN DRSN OVC024 M05/M07 A3008 RMK SN6SC2 PRESFR SLP204=

CYXU;2005-12-09 04:25;SPECI CYXU 090425Z 07013KT 1SM R15/P6000FT/D -SN DRSN VV008 M05/ RMK SN8 PRESFR=

CYXU;2005-12-09 05:00;METAR CYXU 090500Z 08014KT 1SM R15/P6000FT/D -SN DRSN VV008 M05/M07 A3001 RMK SN8 PRESFR SLP181=

CYXU;2005-12-09 05:32;SPECI CYXU 090532Z 07014KT 4SM -SN DRSN OVC024 M05/ RMK NS8=

CYXU;2005-12-09 06:00;METAR CYXU 090600Z 08015KT 1 1/2SM -SN DRSN VV008 M05/M07 A2993 RMK SN8 PRESFR SLP149=

CYXU;2005-12-09 08:16;SPECI CYXU 090816Z 06013KT 3/4SM R15/3500FT/N -SN DRSN VV007 M05/ RESN RMK SN8=

CYXU;2005-12-09 09:00;METAR CYXU 090900Z 05010KT 1SM R15/P6000FT/D -SN DRSN VV007 M05/M06 A2982 RESN RMK SN8 SLP112=

CYXU;2005-12-09 09:18;SPECI CYXU 090918Z 06010G15KT 2SM -SN DRSN OVC021 M05/ RMK SN6NS2=

CYXU;2005-12-09 10:00;METAR CYXU 091000Z 02006KT 1SM R15/P6000FT/U -SN DRSN VV005 M04/M06 A2983 RMK SN8 SLP114=

CYXU;2005-12-09 11:00;METAR CYXU 091100Z 32007KT 1SM R15/P6000FT/N -SN BR VV010 M04/M06 A2986 RMK SN8 SLP127=

CYXU;2005-12-09 11:23;SPECI CYXU 091123Z 32008KT 2SM -SN BR OVC010 M05/ RMK SN2NS6=

CYXU;2005-12-09 12:00;METAR CYXU 091200Z 32010G15KT 6SM -SN SCT010 BKN030 M05/M07 A2993 RMK CU4SC3 SNOW VERY LIGHT SLP149=

CYXU;2005-12-09 12:49;SPECI CYXU 091249Z 31010G15KT 8SM FEW010 SCT030 BKN250 M06/ RMK CU2SC2CI2=

CYXU;2005-12-09 13:00;METAR CYXU 091300Z 31010KT 12SM FEW030 BKN250 M06/M08 A2998 RMK SC2CI1 SLP167=

CYXU;2005-12-09 14:00;METAR CYXU 091400Z 30008KT 15SM FEW010 SCT040 M05/M07 A3003 RMK SC1SC2 SLP184=

CYXU;2005-12-09 15:00;METAR CYXU 091500Z 30006KT 15SM SCT040 M04/M06 A3008 RMK SC3 LINE OF CU WEST WITH SNW SHOWERS ASOCTD SLP199=

CYXU;2005-12-09 15:29;SPECI CYXU 091529Z 28006KT 10SM -SHSN BKN020 M03/ RMK SC6 VSBY WEST 3 CU ASOCTD=

CYXU;2005-12-09 15:33;SPECI CYXU 091533Z 28007KT 4SM -SHSN OVC020 M03/ RMK SC8 CU ASOCTD=

CYXU;2005-12-09 15:40;SPECI CYXU 091540Z 27006KT 2SM -SHSN OVC020 M03/ RMK SN3SC5 TCU EMBDD=

CYXU;2005-12-09 16:00;METAR CYXU 091600Z 27006KT 1 1/2SM -SHSN OVC022 M03/M05 A3011 RMK SN5CU3 SLP209=

CYXU;2005-12-09 16:15;SPECI CYXU 091615Z 25006KT 1 1/4SM -SHSN VV013 M03/ RMK SN8=

CYXU;2005-12-09 16:26;SPECI CYXU 091626Z 25005KT 2SM -SHSN OVC008 M02/ RMK SN3ST5 TCU EMBDD=

CYXU;2005-12-09 17:00;METAR CYXU 091700Z 28013G21KT 3SM -SHSN BR OVC010 M02/M04 A3011 RMK ST8 SNOW VERY FINE SLP210=

CYXU;2005-12-09 17:36;SPECI CYXU 091736Z 27017G25KT 6SM DRSN BR OVC009 M02/ RMK ST8=

CYXU;2005-12-09 18:00;METAR CYXU 091800Z 26012G18KT 8SM DRSN OVC010 M03/M05 A3013 RMK ST8 CIELING RAGGED SLP217=

CYXU;2005-12-09 18:39;SPECI CYXU 091839Z 26013KT 10SM DRSN SCT010 OVC020 M03/ RMK SF4SC4=

CYXU;2005-12-09 20:00;METAR CYXU 092000Z 26010KT 12SM OVC023 M03/M07 A3012 RMK SC8 SLP214=

CYXU;2005-12-09 21:00;METAR CYXU 092100Z 25010G16KT 12SM OVC022 M03/M07 A3012 RMK SC8 SLP215=

CYXU;2005-12-09 22:00;METAR CYXU 092200Z 24013KT 12SM OVC022 M03/M07 A3012 RMK SC8 SLP213=

CYXU;2005-12-09 23:00;METAR CYXU 092300Z 23014KT 12SM OVC016 M03/M06 A3012 RMK SC8 SLP214=

CYXU;2005-12-10 00:00;METAR CYXU 100000Z 25016KT 12SM DRSN OVC014 M04/M06 A3012 RMK SC8 SLP214=

CYXU;2005-12-10 01:00;METAR CYXU 100100Z 24014G19KT 12SM OVC014 M03/M06 A3010 RMK SC8 SLP209=

CYXU;2005-12-10 03:00;METAR CYXU 100300Z 24018KT 12SM DRSN OVC009 M05/M07 A3007 RMK SC8 SLP195=

CYXU;2005-12-10 04:00;METAR CYXU 100400Z 23015G20KT 10SM DRSN BKN012 M06/M09 A3006 RMK SC6 SLP192=

CYXU;2005-12-10 05:23;SPECI CYXU 100523Z 23016G24KT 10SM BKN009 M07/ RMK SC6=

CYXU;2005-12-10 06:00;METAR CYXU 100600Z 23015G20KT 10SM BKN009 M07/M10 A3003 RMK SC7 SLP182=

CYXU;2005-12-10 09:00;METAR CYXU 100900Z 23014G21KT 10SM BKN009 M07/M10 A3000 RMK SC6 SLP173=

CYXU;2005-12-10 09:53;SPECI CYXU 100953Z 23019G24KT 12SM BKN013 M07/ RMK SC6=

CYXU;2005-12-10 10:00;METAR CYXU 101000Z 22016G21KT 12SM BKN012 M07/M10 A2997 RMK SC6 SLP164=

CYXU;2005-12-10 12:00;METAR CYXU 101200Z 23016G22KT 15SM BKN014 M07/M10 A2993 RMK SC5 SLP150=

CYXU;2005-12-10 13:00;METAR CYXU 101300Z 23015G20KT 15SM SCT014 BKN180 M07/M10 A2991 RMK SC3AC3 SLP145=

CYXU;2005-12-10 14:00;METAR CYXU 101400Z 23015G21KT 15SM FEW015 BKN190 M06/M10 A2990 RMK SF1AC6 SLP139=

CYXU;2005-12-10 15:00;METAR CYXU 101500Z 23014G19KT 15SM DRSN FEW015 BKN180 BKN210 M06/M10 A2988 RMK CF1AC6CI1 SLP132=

CYXU;2005-12-10 16:00;METAR CYXU 101600Z 22012G18KT 15SM DRSN BKN090 OVC210 M05/M09 A2983 RMK AC6CI2 SLP118=

CYXU;2005-12-10 17:00;METAR CYXU 101700Z 22015G20KT 15SM DRSN BKN130 OVC210 M04/M09 A2980 RMK AC6CI2 SLP106=

CYXU;2005-12-10 18:00;METAR CYXU 101800Z 22014KT 15SM OVC110 M04/M08 A2976 RMK AC8 SLP091=

CYXU;2005-12-10 19:00;METAR CYXU 101900Z 22012G17KT 15SM BKN160 BKN240 M04/M08 A2970 RMK AC6CI1 SLP072=

CYXU;2005-12-10 20:00;METAR CYXU 102000Z 21015KT 15SM DRSN FEW018 FEW160 BKN240 M04/M08 A2968 RMK CF1AC1CI2 SLP065=

CYXU;2005-12-10 21:00;METAR CYXU 102100Z 21016G24KT 15SM FEW110 BKN230 M04/M08 A2965 RMK AC1CI2 SLP054=

CYXU;2005-12-10 22:00;METAR CYXU 102200Z 21013KT 12SM SCT050 BKN230 M04/M07 A2964 RMK SC3CI2 SLP052=

CYXU;2005-12-11 00:00;METAR CYXU 110000Z 21010G16KT 12SM BKN130 M04/M07 A2960 RMK AC7 SLP038=

CYXU;2005-12-11 01:00;METAR CYXU 110100Z 21014G20KT 12SM BKN110 OVC200 M04/M07 A2957 RMK AC5CI2 SLP029=

CYXU;2005-12-11 02:00;METAR CYXU 110200Z 22011G16KT 12SM OVC080 M04/M08 A2956 RMK AC7 SLP026=

CYXU;2005-12-11 03:00;METAR CYXU 110300Z 22012KT 12SM FEW020 OVC090 M04/M08 A2955 RMK CF1AC7 SLP021=

CYXU;2005-12-11 04:00;METAR CYXU 110400Z 22015G21KT 12SM FEW020 OVC070 M04/M08 A2953 RMK CF1AC6 SLP015=

CYXU;2005-12-11 05:00;METAR CYXU 110500Z 23016KT 12SM FEW022 BKN080 M04/M09 A2952 RMK SC2AC3 SLP010=

CYXU;2005-12-11 05:49;SPECI CYXU 110549Z 22019G25KT 12SM -SHSN BKN015 BKN080 M05/ RMK SC5AC2=

CYXU;2005-12-11 06:00;METAR CYXU 110600Z 23017G25KT 12SM -SHSN BKN015 BKN080 M05/M08 A2950 RMK SC5AC2 SLP002=

CYXU;2005-12-11 08:00;METAR CYXU 110800Z 23013G19KT 12SM -SHSN BKN012 OVC048 M04/M07 A2946 RMK SC6SC2 SLP990=

CYXU;2005-12-11 08:32;SPECI CYXU 110832Z 22011KT 12SM -SHSN BKN009 OVC042 M04/ RMK SC7SC1=

CYXU;2005-12-11 09:00;METAR CYXU 110900Z 22012KT 12SM -SHSN OVC009 M04/M07 A2944 RMK SC8 SLP983=

CYXU;2005-12-11 10:00;METAR CYXU 111000Z 23013KT 5SM -SHSN DRSN BKN009 OVC023 M04/M06 A2944 RMK SF5SC3 SLP981=

CYXU;2005-12-11 11:00;METAR CYXU 111100Z 23010G15KT 2SM -SHSN DRSN OVC009 M04/M06 A2944 RMK SF8 SLP981=

CYXU;2005-12-11 11:17;SPECI CYXU 111117Z 23012KT 5SM -SHSN DRSN OVC010 M04/ RMK SF8=

CYXU;2005-12-11 12:00;METAR CYXU 111200Z 24014KT 6SM -SHSN DRSN OVC010 M03/M05 A2944 RMK SF8 SLP982=

CYXU;2005-12-11 13:00;METAR CYXU 111300Z 25013KT 6SM -SHSN DRSN OVC010 M03/M05 A2944 RMK SF8 SLP983=

CYXU;2005-12-11 14:00;METAR CYXU 111400Z 26010KT 6SM -SHSN DRSN OVC013 M03/M05 A2946 RMK SF8 SLP988=

CYXU;2005-12-11 15:00;METAR CYXU 111500Z 26011KT 6SM -SHSN DRSN BKN015 OVC025 M03/M06 A2947 RMK SF7SC1 SLP991=

CYXU;2005-12-11 16:00;METAR CYXU 111600Z 25012KT 6SM -SHSN DRSN OVC010 M02/M05 A2947 RMK SF8 SLP992=

CYXU;2005-12-11 17:00;METAR CYXU 111700Z 26010KT 6SM -SHSN DRSN OVC010 M02/M04 A2946 RMK SF8 SLP989=

CYXU;2005-12-11 20:00;METAR CYXU 112000Z 30010G16KT 6SM -SN OVC010 M01/M03 A2949 RMK NS8 SLP996=

CYXU;2005-12-11 21:00;METAR CYXU 112100Z 28010G15KT 10SM -SN SCT010 OVC050 M02/M05 A2952 RMK SF4SC4 SLP008=

CYXU;2005-12-11 22:00;METAR CYXU 112200Z 27011G16KT 1 1/2SM -SHSN DRSN OVC016TCU M03/M05 A2955 RMK SN5TCU3 SLP017=

CYXU;2005-12-11 22:10;SPECI CYXU 112210Z 30008KT 1SM R15/P6000FT/D -SHSN DRSN VV009 M03/ RMK SN8=

CYXU;2005-12-11 22:34;SPECI CYXU 112234Z 30010G15KT 4SM -SHSN DRSN FEW010 OVC030TCU M03/ RMK SF2TCU6=

CYXU;2005-12-12 00:00;METAR CYXU 120000Z 30010G15KT 3SM -SHSN OVC016TCU M04/M06 A2960 RMK TCU8 SLP037=

CYXU;2005-12-12 00:48;SPECI CYXU 120048Z 31005KT 5SM -SHSN BKN010 OVC033TCU M04/ RMK SF5TCU3=

CYXU;2005-12-12 02:00;METAR CYXU 120200Z 34006KT 6SM -SHSN SCT018 OVC034TCU M05/M07 A2964 RMK SF3TCU5 SLP050=

CYXU;2005-12-12 03:00;METAR CYXU 120300Z 31005KT 15SM -SHSN FEW033 OVC055 M05/M08 A2966 RMK SC2SC6 CVCTV CLD EMBD SLP057=

CYXU;2005-12-12 04:00;METAR CYXU 120400Z 36006KT 15SM -SHSN FEW013 OVC100 M06/M09 A2968 RMK SC2AC6 SLP062=

CYXU;2005-12-12 05:00;METAR CYXU 120500Z 33004KT 15SM -SHSN SCT047 OVC100 M07/M10 A2969 RMK SC3AC3 SLP066=

CYXU;2005-12-12 06:00;METAR CYXU 120600Z 34003KT 15SM -SHSN SCT038 OVC100 M08/M11 A2970 RMK SC3AC3 SLP071=

CYXU;2005-12-12 07:00;METAR CYXU 120700Z 32003KT 15SM -SHSN SCT040 OVC087 M08/M11 A2972 RMK SC3AC3 SLP078=

CYXU;2005-12-12 10:00;METAR CYXU 121000Z 33002KT 15SM FEW030 M13/M15 A2976 RMK SC2 SLP093=

CYXU;2005-12-12 11:00;METAR CYXU 121100Z 35003KT 15SM FEW035 M13/M15 A2979 RMK SC1 FROIN SLP103=

CYXU;2005-12-12 12:00;METAR CYXU 121200Z 33002KT 15SM FEW240 M14/M16 A2982 RMK CI1 FROIN SLP115=

CYXU;2005-12-12 13:00;METAR CYXU 121300Z 34003KT 15SM FEW240 M15/M18 A2983 RMK CI1 FROIN SLP119=

CYXU;2005-12-12 14:00;METAR CYXU 121400Z 02003KT 15SM FEW240 M14/M16 A2986 RMK CI1 SLP128=

CYXU;2005-12-12 15:00;METAR CYXU 121500Z 02003KT 15SM SKC M13/M15 A2989 RMK SLP140=

CYXU;2005-12-12 16:00;METAR CYXU 121600Z 01005KT 15SM SKC M11/M15 A2991 RMK SLP145=

CYXU;2005-12-12 17:00;METAR CYXU 121700Z 03008KT 15SM SKC M10/M15 A2990 RMK SLP144=

CYXU;2005-12-12 18:00;METAR CYXU 121800Z 34005KT 15SM SKC M10/M16 A2991 RMK SLP147=

CYXU;2005-12-12 19:00;METAR CYXU 121900Z 35006KT 15SM SKC M10/M17 A2993 RMK SLP152=

CYXU;2005-12-12 21:00;METAR CYXU 122100Z 01004KT 15SM FEW240 M11/M18 A2997 RMK CI1 TR CI SLP167=

CYXU;2005-12-12 22:00;METAR CYXU 122200Z 32002KT 15SM FEW240 M12/M18 A3000 RMK CI1 SLP176=

CYXU;2005-12-12 23:00;METAR CYXU 122300Z 34002KT 15SM FEW240 M14/M18 A3002 RMK CI1 SLP185=

CYXU;2005-12-13 00:00;METAR CYXU 130000Z 03003KT 15SM FEW210 M15/M19 A3004 RMK CI1 FROIN SLP196=

CYXU;2005-12-13 01:00;METAR CYXU 130100Z 02002KT 15SM FEW210 M17/M20 A3006 RMK CI2 FROIN SLP203=

CYXU;2005-12-13 02:00;METAR CYXU 130200Z 00000KT 15SM SCT120 M17/M19 A3007 RMK AS4 FROIN SLP205=

CYXU;2005-12-13 03:00;METAR CYXU 130300Z 00000KT 15SM SCT100 M17/M20 A3008 RMK AS4 FROIN SLP209=

CYXU;2005-12-13 04:00;METAR CYXU 130400Z 00000KT 15SM SCT090 M17/M19 A3009 RMK AS3 SLP213=

CYXU;2005-12-13 05:00;METAR CYXU 130500Z 00000KT 15SM FEW040 BKN100 M15/M18 A3010 RMK SC1AS6 SLP216=

CYXU;2005-12-13 06:00;METAR CYXU 130600Z 00000KT 15SM FEW050 OVC100 M14/M17 A3011 RMK SC2AS6 SLP218=

CYXU;2005-12-13 09:00;METAR CYXU 130900Z 00000KT 10SM -SN FEW040 BKN080 M14/M16 A3014 RMK SC2AS4 SLP229=

CYXU;2005-12-13 11:00;METAR CYXU 131100Z 07003KT 12SM -SN SCT037 M15/M17 A3017 RMK SC4 FROIN SNOW VERY LIGHT SLP239=

CYXU;2005-12-13 12:00;METAR CYXU 131200Z 09004KT 12SM -SN BKN040 M14/M16 A3020 RMK SC5 SLP248=

CYXU;2005-12-13 12:22;SPECI CYXU 131222Z 09004KT 15SM BKN040 M14/ RMK SC6 FROIN=

CYXU;2005-12-13 13:00;METAR CYXU 131300Z 09002KT 12SM -SHSN BKN041 M14/M16 A3021 RMK SC5 FROIN SLP254=

CYXU;2005-12-13 13:35;SPECI CYXU 131335Z 09005KT 15SM FEW040 M14/ RMK SC2 FROIN=

CYXU;2005-12-13 14:00;METAR CYXU 131400Z 10004KT 15SM FEW036 M14/M16 A3023 RMK SC2 FROIN SLP260=

CYXU;2005-12-13 15:00;METAR CYXU 131500Z 00000KT 15SM FEW040 M11/M15 A3026 RMK SC1 FROIN SLP271=

CYXU;2005-12-13 16:00;METAR CYXU 131600Z 11004KT 15SM FEW038 M09/M15 A3027 RMK SC1 SLP275=

CYXU;2005-12-13 17:00;METAR CYXU 131700Z 14005KT 15SM FEW040 M08/M13 A3027 RMK SC2 SLP272=

CYXU;2005-12-13 19:00;METAR CYXU 131900Z 11004KT 15SM FEW040 M06/M11 A3025 RMK SC2 SLP264=

CYXU;2005-12-13 20:22;SPECI CYXU 132022Z 14007KT 15SM SCT035 BKN055 M06/ RMK SC3SC3=

CYXU;2005-12-13 21:00;METAR CYXU 132100Z 12005KT 15SM FEW035 BKN055 M06/M12 A3029 RMK SC2SC5 SLP277=

CYXU;2005-12-13 22:00;METAR CYXU 132200Z 10004KT 15SM BKN051 M07/M12 A3030 RMK SC6 SLP280=

CYXU;2005-12-13 23:00;METAR CYXU 132300Z 09005KT 15SM BKN052 M06/M12 A3031 RMK SC7 SLP284=

CYXU;2005-12-14 00:00;METAR CYXU 140000Z 11008KT 15SM BKN051 M07/M11 A3032 RMK SC7 SLP287=

CYXU;2005-12-14 00:15;SPECI CYXU 140015Z 12006KT 15SM -SHSN BKN050 M07/ RMK SC7=

CYXU;2005-12-14 01:00;METAR CYXU 140100Z 11007KT 15SM BKN050 M07/M10 A3033 RMK SC7 SLP290=

CYXU;2005-12-14 01:15;SPECI CYXU 140115Z 11009KT 15SM -SHSN BKN050 M07/ RMK SC7=

CYXU;2005-12-14 01:48;SPECI CYXU 140148Z 10008KT 15SM BKN050 M07/ RMK SC6=

CYXU;2005-12-14 02:00;METAR CYXU 140200Z 10006KT 15SM BKN050 M07/M11 A3032 RMK SC6 SLP287=

CYXU;2005-12-14 04:00;METAR CYXU 140400Z 10008KT 6SM -SHSN SCT030 OVC040 M07/M10 A3035 RMK SC3SC5 SLP295=

CYXU;2005-12-14 05:00;METAR CYXU 140500Z 10008KT 15SM OVC030 M06/M10 A3035 RMK SC8 SLP296=

CYXU;2005-12-14 06:00;METAR CYXU 140600Z 09010KT 12SM OVC028 M06/M10 A3034 RMK SC8 SLP289=

CYXU;2005-12-14 07:00;METAR CYXU 140700Z 10010KT 12SM -SHSN OVC032 M06/M10 A3034 RMK SC8 CU EMBDD SLP292=

CYXU;2005-12-14 09:00;METAR CYXU 140900Z 10008KT 15SM BKN040 M07/M11 A3037 RMK SC7 SLP301=

CYXU;2005-12-14 11:00;METAR CYXU 141100Z 08008KT 15SM BKN045 BKN220 M08/M12 A3036 RMK SC6CI2 SLP297=

CYXU;2005-12-14 12:00;METAR CYXU 141200Z 10010KT 15SM BKN045 BKN220 M08/M12 A3036 RMK SC5CI2 SLP298=

CYXU;2005-12-14 13:00;METAR CYXU 141300Z 11011KT 15SM FEW045 BKN200 M08/M11 A3036 RMK SC2CI5 SLP297=

CYXU;2005-12-14 14:00;METAR CYXU 141400Z 09014KT 15SM FEW045 BKN210 M07/M11 A3035 RMK SC1CI6 SLP295=

CYXU;2005-12-14 15:00;METAR CYXU 141500Z 10014KT 15SM FEW040 BKN170 M07/M11 A3034 RMK SC1CI6 SLP293=

CYXU;2005-12-14 16:00;METAR CYXU 141600Z 10012KT 15SM FEW040 BKN160 M06/M11 A3033 RMK SC1AS6 BARO READ HR+5 SLP287=

CYXU;2005-12-14 17:00;METAR CYXU 141700Z 10014KT 15SM BKN120 M06/M11 A3029 RMK AS7 SLP276=

CYXU;2005-12-14 18:00;METAR CYXU 141800Z 12013KT 15SM BKN120 M05/M11 A3028 RMK AS7 SLP269=

CYXU;2005-12-14 19:00;METAR CYXU 141900Z 10014KT 15SM BKN120 M06/M11 A3025 RMK AS7 SLP260=

CYXU;2005-12-14 20:00;METAR CYXU 142000Z 10016KT 15SM OVC120 M06/M12 A3024 RMK AS8 SLP257=

CYXU;2005-12-14 21:00;METAR CYXU 142100Z 09015G22KT 15SM BKN100 BKN200 M06/M12 A3022 RMK AS6CI2 SLP251=

CYXU;2005-12-14 22:00;METAR CYXU 142200Z 09014G21KT 15SM DRSN BKN078 BKN100 BKN200 M06/M13 A3020 RMK AC5AS1CI1 SLP244=

CYXU;2005-12-14 23:00;METAR CYXU 142300Z 10015G21KT 15SM DRSN BKN080 M07/M14 A3017 RMK AC6 SLP235=

CYXU;2005-12-15 00:00;METAR CYXU 150000Z 10014G19KT 15SM DRSN BKN068 M07/M14 A3017 RMK AC7 SLP232=

CYXU;2005-12-15 01:00;METAR CYXU 150100Z 11014G20KT 15SM DRSN SCT068 BKN089 M07/M14 A3015 RMK AC4AC2 SLP228=

CYXU;2005-12-15 02:00;METAR CYXU 150200Z 10014KT 15SM DRSN BKN068 M07/M14 A3015 RMK AC7 SLP226=

CYXU;2005-12-15 04:29;SPECI CYXU 150429Z 10015KT 15SM -SHSN FEW025 OVC037 M07/ RMK SC2SC6=

CYXU;2005-12-15 05:00;METAR CYXU 150500Z 09014KT 15SM -SHSN OVC032 M07/M13 A3008 RMK SC8 TCU EMBD SLP204=

CYXU;2005-12-15 06:00;METAR CYXU 150600Z 09012KT 15SM OVC030 M07/M12 A3007 RMK SC8 SLP198=

CYXU;2005-12-15 07:00;METAR CYXU 150700Z 10014KT 15SM OVC038 M06/M12 A3005 RMK SC8 SLP192=

CYXU;2005-12-15 08:00;METAR CYXU 150800Z 10014KT 15SM OVC033 M06/M11 A3004 RMK SC8 SLP188=

CYXU;2005-12-15 09:45;SPECI CYXU 150945Z 10012KT 15SM -SHSN OVC032 M05/ RMK SC8 TCU EMBDD=

CYXU;2005-12-15 10:00;METAR CYXU 151000Z 10013KT 15SM -SHSN OVC032 M05/M10 A2999 RMK SC8 SLP171=

CYXU;2005-12-15 11:43;SPECI CYXU 151143Z 12013KT 4SM -SHSN OVC034 M05/ RMK SC8 TCU EMBD=

CYXU;2005-12-15 12:00;METAR CYXU 151200Z 11013KT 8SM -SHSN FEW018 OVC032 M05/M09 A2998 RMK SC1SC7 TCU EMBD SLP167=

CYXU;2005-12-15 12:35;SPECI CYXU 151235Z 11015KT 3SM -SHSN FEW018 OVC033 M05/ RMK SC1SC7 TCU EMBD=

CYXU;2005-12-15 12:47;SPECI CYXU 151247Z 11014KT 10SM -SHSN FEW017 OVC022 M05/ RMK SC1SC7 TCU EMBD=

CYXU;2005-12-15 13:00;METAR CYXU 151300Z 11013KT 8SM -SHSN OVC021 M05/M09 A2997 RMK SC8 TCU EMBD SLP163=

CYXU;2005-12-15 13:21;SPECI CYXU 151321Z 11014KT 3SM -SN OVC020 M05/ RMK SC8=

CYXU;2005-12-15 13:28;SPECI CYXU 151328Z 10012G17KT 3/4SM R15/P6000FT/N -SN DRSN SCT008 OVC017 M05/ RMK SN2SF2SC5=

CYXU;2005-12-15 13:37;SPECI CYXU 151337Z 10012KT 2 1/2SM -SN DRSN FEW008 OVC019 M06/ RMK SN1SF2SC6=

CYXU;2005-12-15 13:43;SPECI CYXU 151343Z 11013KT 4SM -SN DRSN FEW008 OVC032 M06/ RMK SF2SC6=

CYXU;2005-12-15 14:00;METAR CYXU 151400Z 10013KT 10SM -SN DRSN OVC030 M05/M08 A2995 RMK SC8 SLP158=

CYXU;2005-12-15 14:10;SPECI CYXU 151410Z 10013KT 3/8SM R15/P6000FT/N -SN DRSN VV004 M05/ RMK SN8=

CYXU;2005-12-15 14:14;SPECI CYXU 151414Z 10013KT 3/4SM R15/P6000FT/D -SN DRSN VV010 M05/ RMK SN8=

CYXU;2005-12-15 14:18;SPECI CYXU 151418Z 10013KT 2 1/2SM -SN DRSN OVC020 M05/ RMK SN2SC6=

CYXU;2005-12-15 14:35;SPECI CYXU 151435Z 10015KT 2SM -SN DRSN OVC014 M05/ RMK SN2SC6=

CYXU;2005-12-15 15:00;METAR CYXU 151500Z 11014KT 2 1/2SM -SN DRSN BKN014 OVC025 M05/M08 A2991 RMK SN1SC6SC1 SLP145=

CYXU;2005-12-15 15:49;SPECI CYXU 151549Z 11015KT 3SM -SN DRSN OVC017 M05/ RMK SC8=

CYXU;2005-12-15 16:00;METAR CYXU 151600Z 11015KT 4SM -SN DRSN OVC017 M05/M07 A2988 RMK SC8 SLP134=

CYXU;2005-12-15 16:20;SPECI CYXU 151620Z 12014KT 2 1/2SM -SN DRSN OVC018 M04/ RMK SN1SC7=

CYXU;2005-12-15 16:34;SPECI CYXU 151634Z 11014KT 2SM -SN DRSN SCT008 OVC019 M04/ RMK SN2SC1SC5=

CYXU;2005-12-15 17:00;METAR CYXU 151700Z 12013KT 1SM R15/P6000FT/N -SN DRSN VV009 M04/M06 A2984 RMK SN8 SLP122=

CYXU;2005-12-15 17:07;SPECI CYXU 151707Z 12014KT 1/2SM R15/P6000FT/D SN VV007 M04/ RMK SN8 /S01/=

CYXU;2005-12-15 17:38;SPECI CYXU 151738Z 11014KT 1 1/4SM -SN DRSN OVC021 M04/ RMK SN2NS6=

CYXU;2005-12-15 21:36;SPECI CYXU 152136Z 10012G17KT 1 1/2SM -SN DRSN FEW008 OVC020 M03/ RMK SF1NS6 VIS VRB 1-2=

CYXU;2005-12-15 23:24;SPECI CYXU 152324Z 10012KT 1 1/2SM -SN DRSN OVC009 M02/ RMK SN3NS5 VIS VRB 1-2=

CYXU;2005-12-16 01:32;SPECI CYXU 160132Z 16011G16KT 4SM -SN DRSN OVC005 01/ RMK SN2NS6=

CYXU;2005-12-16 03:44;SPECI CYXU 160344Z 18010KT 1 1/2SM -SN DRSN OVC004 01/ RMK SN2NS6 VIS VRB 1-2 CIG VRB 2-6=

CYXU;2005-12-16 07:14;SPECI CYXU 160714Z 26010KT 10SM OVC008 00/ RMK NS8=

CYXU;2005-12-16 10:54;SPECI CYXU 161054Z 23011KT 10SM BKN004 M02/ RMK SF6=

CYXU;2005-12-16 11:22;SPECI CYXU 161122Z 23014KT 10SM BKN005 M02/ RMK SF6=

CYXU;2005-12-16 11:45;SPECI CYXU 161145Z 23011KT 10SM BKN010 M01/ RMK SF6=

CYXU;2005-12-16 12:49;SPECI CYXU 161249Z 21009KT 10SM BKN045 M02/ RMK SC6=

CYXU;2005-12-16 20:34;SPECI CYXU 162034Z 23015G21KT 2SM -SHSN OVC016TCU M03/ RMK SN2TCU6=

CYXU;2005-12-17 01:00;METAR CYXU 170100Z 23010G17KT 15SM FEW017 BKN048 M04/M08 A2996 RMK CF2SC5 SLP158=

CYXU;2005-12-17 04:00;METAR CYXU 170400Z 24014G22KT 15SM OVC032 M04/M10 A3003 RMK SC8 SLP184=

CYXU;2005-12-17 05:00;METAR CYXU 170500Z 25015KT 15SM OVC025 M04/M09 A3005 RMK SC8 SLP190=

CYXU;2005-12-17 05:44;SPECI CYXU 170544Z 25010G17KT 15SM -SHSN OVC021 M04/ RMK SC8 CVCTV CLD EMBD=

CYXU;2005-12-17 06:00;METAR CYXU 170600Z 25010KT 15SM -SHSN OVC022 M04/M09 A3008 RMK SC8 CVCTV CLD EMBD SLP200=

CYXU;2005-12-17 07:00;METAR CYXU 170700Z 25010KT 15SM -SHSN OVC022 M04/M09 A3012 RMK SC8 CVCTV CLD EMBD SLP212=

CYXU;2005-12-17 08:00;METAR CYXU 170800Z 24012G17KT 15SM -SHSN OVC023 M05/M09 A3016 RMK SC8 CVCTV CLD EMBD SLP225=

CYXU;2005-12-17 09:00;METAR CYXU 170900Z 23011KT 15SM -SHSN OVC025 M05/M09 A3017 RMK SC8 CVCTV CLD EMBD SLP232=

CYXU;2005-12-17 09:34;SPECI CYXU 170934Z 24011KT 15SM OVC025 M05/ RMK SC8=

CYXU;2005-12-17 10:00;METAR CYXU 171000Z 24011KT 15SM OVC024 M05/M09 A3020 RMK SC8 SLP241=

CYXU;2005-12-17 11:00;METAR CYXU 171100Z 23009KT 15SM OVC021 M05/M09 A3024 RMK SC8 SLP252=

CYXU;2005-12-17 12:00;METAR CYXU 171200Z 23009KT 15SM OVC018 M05/M09 A3026 RMK SC8 SLP263=

CYXU;2005-12-17 13:00;METAR CYXU 171300Z 23011KT 15SM OVC017 M05/M09 A3028 RMK SC8 SLP270=

CYXU;2005-12-17 14:00;METAR CYXU 171400Z 24008KT 10SM -SHSN OVC018 M05/M09 A3031 RMK SC8 CU EMBD SLP278=

CYXU;2005-12-17 15:00;METAR CYXU 171500Z 23009KT 5SM -SHSN OVC020 M05/M09 A3035 RMK SC8 CU EMBD SLP292=

CYXU;2005-12-17 15:30;SPECI CYXU 171530Z 22008KT 2 1/2SM -SHSN SCT010 OVC024 M05/ RMK SC3SC5 CU EMBD=

CYXU;2005-12-17 16:00;METAR CYXU 171600Z 21009KT 4SM -SHSN BKN013 M05/M08 A3036 RMK CU6 SLP296=

CYXU;2005-12-17 17:00;METAR CYXU 171700Z 23011KT 10SM -SHSN BKN015 M05/M08 A3036 RMK CU6 SLP295=

CYXU;2005-12-17 17:30;SPECI CYXU 171730Z 23013KT 10SM BKN017 M05/ RMK CU6=

CYXU;2005-12-17 18:00;METAR CYXU 171800Z 22014KT 15SM BKN018 M04/M09 A3036 RMK CU6 SLP296=

CYXU;2005-12-17 19:00;METAR CYXU 171900Z 25009KT 15SM BKN020 M04/M09 A3036 RMK CU6 SLP297=

CYXU;2005-12-17 20:00;METAR CYXU 172000Z 23011KT 15SM BKN019 M05/M09 A3037 RMK CU7 SLP298=

CYXU;2005-12-17 21:00;METAR CYXU 172100Z 25010KT 15SM OVC016 M05/M09 A3040 RMK SC8 SLP309=

CYXU;2005-12-17 22:00;METAR CYXU 172200Z 23011KT 15SM OVC013 M06/M10 A3042 RMK SC8 SLP317=

CYXU;2005-12-17 23:00;METAR CYXU 172300Z 23009KT 15SM OVC013 M06/M10 A3043 RMK SC8 SLP319=

CYXU;2005-12-18 00:00;METAR CYXU 180000Z 25008KT 15SM OVC012 M06/M10 A3043 RMK SC8 SLP320=

CYXU;2005-12-18 01:00;METAR CYXU 180100Z 24008KT 15SM OVC012 M06/M10 A3044 RMK SC8 SLP323=

CYXU;2005-12-18 02:00;METAR CYXU 180200Z 25007KT 15SM OVC012 M07/M10 A3043 RMK SC8 SLP321=

CYXU;2005-12-18 03:00;METAR CYXU 180300Z 23010KT 15SM OVC014 M07/M10 A3044 RMK SC8 SLP325=

CYXU;2005-12-18 04:00;METAR CYXU 180400Z 25008KT 15SM OVC017 M08/M12 A3045 RMK SC8 SLP328=

CYXU;2005-12-18 05:00;METAR CYXU 180500Z 26006KT 15SM SKC M09/M12 A3043 RMK SLP320=

CYXU;2005-12-18 06:00;METAR CYXU 180600Z 25008KT 15SM OVC011 M09/M12 A3043 RMK SC8 SLP322=

CYXU;2005-12-18 07:00;METAR CYXU 180700Z 25004KT 12SM OVC012 M08/M11 A3044 RMK SC8 SLP323=

CYXU;2005-12-18 09:00;METAR CYXU 180900Z 20008KT 12SM OVC013 M08/M11 A3047 RMK SC8 SLP334=

CYXU;2005-12-18 10:00;METAR CYXU 181000Z 21005KT 12SM OVC015 M08/M11 A3045 RMK SC8 SLP329=

CYXU;2005-12-18 11:00;METAR CYXU 181100Z 21006KT 12SM OVC015 M08/M11 A3044 RMK SC8 SLP326=

CYXU;2005-12-18 12:00;METAR CYXU 181200Z 24004KT 10SM OVC014 M08/M11 A3046 RMK SC8 SLP331=

CYXU;2005-12-18 13:00;METAR CYXU 181300Z 23005KT 8SM OVC015 M08/M10 A3045 RMK SC8 SLP330=

CYXU;2005-12-18 14:00;METAR CYXU 181400Z 25008KT 8SM OVC015 M07/M10 A3045 RMK SC8 SLP329=

CYXU;2005-12-18 14:05;SPECI CYXU 181405Z 25009KT 8SM -SHSN OVC015 M07/ RMK SC8 CU EMBD=

CYXU;2005-12-18 15:00;METAR CYXU 181500Z 25007KT 8SM -SHSN OVC016 M07/M10 A3044 RMK SC8 SLP327=

CYXU;2005-12-18 16:00;METAR CYXU 181600Z 24010KT 10SM -SHSN OVC015 M06/M10 A3044 RMK SC8 PCPN VRY LGT SLP326=

CYXU;2005-12-18 17:00;METAR CYXU 181700Z 25009KT 10SM -SHSN OVC016 M06/M10 A3040 RMK SC8 PCPN VRY LGT SLP314=

CYXU;2005-12-18 18:00;METAR CYXU 181800Z 26009KT 10SM -SHSN OVC015 M06/M10 A3038 RMK SC8 PCPN VRY LGT SLP306=

CYXU;2005-12-18 19:00;METAR CYXU 181900Z 27008G15KT 10SM -SHSN BKN018 M06/M10 A3037 RMK SC7 PCPN VRY LGT SLP302=

CYXU;2005-12-18 19:13;SPECI CYXU 181913Z 26010KT 10SM BKN020 BKN120 M06/ RMK SC5AC2=

CYXU;2005-12-18 20:00;METAR CYXU 182000Z 26011KT 12SM FEW018 OVC070 M06/M10 A3036 RMK SC2AS6 SLP299=

CYXU;2005-12-18 21:00;METAR CYXU 182100Z 24009KT 12SM FEW018 OVC070 M06/M10 A3035 RMK SC2AS6 SLP296=

CYXU;2005-12-18 22:00;METAR CYXU 182200Z 25008KT 12SM FEW018 OVC071 M06/M10 A3035 RMK SC1AS7 SLP296=

CYXU;2005-12-18 23:00;METAR CYXU 182300Z 25009KT 12SM SCT025 OVC083 M06/M10 A3035 RMK SC3AS5 SLP294=

CYXU;2005-12-19 00:00;METAR CYXU 190000Z 25011KT 12SM BKN022 OVC080 M06/M10 A3035 RMK SC5AS3 SLP294=

CYXU;2005-12-19 00:23;SPECI CYXU 190023Z 24010KT 10SM -SN BKN021 OVC080 M06/ RMK SC5AS3=

CYXU;2005-12-19 01:00;METAR CYXU 190100Z 25009KT 6SM -SN BKN035 OVC080 M06/M10 A3034 RMK SC5AS3 SLP292=

CYXU;2005-12-19 02:00;METAR CYXU 190200Z 26009KT 5SM -SN BKN036 OVC080 M07/M10 A3032 RMK SC5AS3 SLP285=

CYXU;2005-12-19 04:00;METAR CYXU 190400Z 27011KT 10SM -SN BKN036 OVC080 M07/M12 A3030 RMK SC7AS1 SLP278=

CYXU;2005-12-19 06:00;METAR CYXU 190600Z 25013KT 10SM -SN BKN032 M09/M14 A3028 RMK SC7 SLP271=

CYXU;2005-12-19 07:00;METAR CYXU 190700Z 26010KT 10SM -SN BKN031 M10/M14 A3027 RMK SC7 SLP269=

CYXU;2005-12-19 08:00;METAR CYXU 190800Z 26009KT 8SM -SN OVC036 M10/M14 A3027 RMK SC8 SLP269=

CYXU;2005-12-19 09:00;METAR CYXU 190900Z 24012KT 8SM -SN OVC038 M09/M13 A3026 RMK SC8 SLP265=

CYXU;2005-12-19 10:00;METAR CYXU 191000Z 24011G16KT 6SM -SN DRSN OVC038 M10/M13 A3026 RMK SC8 SLP264=

CYXU;2005-12-19 11:00;METAR CYXU 191100Z 25009KT 10SM -SN DRSN SCT026 M10/M14 A3026 RMK SC4 SLP264=

CYXU;2005-12-19 12:00;METAR CYXU 191200Z 25009KT 10SM -SN BKN025 M10/M14 A3026 RMK SC6 SLP266=

CYXU;2005-12-19 12:47;SPECI CYXU 191247Z 25010KT 12SM FEW025 RMK SC2=

CYXU;2005-12-19 13:00;METAR CYXU 191300Z 25011KT 12SM FEW022 M11/M15 A3026 RMK SC2 SLP265=

CYXU;2005-12-19 14:00;METAR CYXU 191400Z 25011KT 15SM FEW022 M11/M14 A3027 RMK SC2 SLP270=

CYXU;2005-12-19 15:00;METAR CYXU 191500Z 25009KT 15SM FEW022 M10/M13 A3028 RMK SC1 SLP272=

CYXU;2005-12-19 16:00;METAR CYXU 191600Z 24010KT 15SM FEW020 M09/M13 A3027 RMK SC2 SLP269=

CYXU;2005-12-19 17:00;METAR CYXU 191700Z 25012KT 15SM BKN018 M08/M12 A3025 RMK SC7 SLP262=

CYXU;2005-12-19 18:00;METAR CYXU 191800Z 26013KT 15SM FEW018 M07/M13 A3022 RMK SC2 SLP251=

CYXU;2005-12-19 19:00;METAR CYXU 191900Z 25015KT 15SM FEW023 M07/M13 A3020 RMK SC2 SLP246=

CYXU;2005-12-19 20:00;METAR CYXU 192000Z 23015KT 15SM FEW023 FEW250 M07/M13 A3019 RMK CF1CI1 SLP242=

CYXU;2005-12-19 21:00;METAR CYXU 192100Z 24010G15KT 15SM FEW020 FEW250 M08/M12 A3020 RMK SC1CI1 SLP243=

CYXU;2005-12-19 22:00;METAR CYXU 192200Z 24013KT 15SM FEW015 FEW250 M09/M13 A3019 RMK SC2CI1 SLP240=

CYXU;2005-12-19 23:00;METAR CYXU 192300Z 23014G20KT 15SM FEW015 FEW250 M09/M13 A3018 RMK SC2CI1 SLP238=

CYXU;2005-12-20 00:00;METAR CYXU 200000Z 23012G17KT 15SM FEW015 M10/M13 A3017 RMK SC1 SLP235=

CYXU;2005-12-20 01:00;METAR CYXU 200100Z 23014KT 15SM FEW015 M10/M14 A3015 RMK SC1 SLP229=

CYXU;2005-12-20 03:00;METAR CYXU 200300Z 24014KT 15SM FEW015 M11/M14 A3012 RMK SC1 SLP219=

CYXU;2005-12-20 04:00;METAR CYXU 200400Z 24015KT 15SM FEW015 M12/M15 A3011 RMK SC1 SLP215=

CYXU;2005-12-20 05:00;METAR CYXU 200500Z 24018KT 15SM FEW012 M12/M14 A3008 RMK SC1 SLP205=

CYXU;2005-12-20 05:49;SPECI CYXU 200549Z 24017KT 6SM -SN DRSN BKN011 M12/ RMK SC7=

CYXU;2005-12-20 06:00;METAR CYXU 200600Z 24014G21KT 6SM -SN DRSN BKN010 M12/M14 A3007 RMK SC6 SLP200=

CYXU;2005-12-20 07:00;METAR CYXU 200700Z 24013KT 10SM BKN010 M12/M15 A3007 RMK SC7 SLP201=

CYXU;2005-12-20 08:00;METAR CYXU 200800Z 25011G16KT 6SM -SN OVC009 M12/M15 A3007 RMK SC8 SLP203=

CYXU;2005-12-20 09:00;METAR CYXU 200900Z 24012KT 6SM -SN BKN009 M13/M15 A3007 RMK SC7 SLP201=

CYXU;2005-12-20 10:00;METAR CYXU 201000Z 25012KT 6SM -SN SCT003 BKN009 M13/M16 A3006 RMK SF3SC4 SLP198=

CYXU;2005-12-20 10:26;SPECI CYXU 201026Z 24011KT 6SM -SN BKN015 M13/ RMK SC7=

CYXU;2005-12-20 11:00;METAR CYXU 201100Z 25013KT 10SM OVC019 M13/M15 A3005 RMK SC8 FROIN SLP194=

CYXU;2005-12-20 11:30;SPECI CYXU 201130Z 25010G15KT 10SM DRSN FEW006 OVC018 M12/ RMK SF1SC7=

CYXU;2005-12-20 12:00;METAR CYXU 201200Z 25012KT 6SM -SN DRSN FEW006 OVC015 M12/M14 A3005 RMK SF2SC6 FROIN SLP197=

CYXU;2005-12-20 13:00;METAR CYXU 201300Z 24012KT 6SM -SN DRSN FEW006 OVC017 M10/M13 A3006 RMK SF2SC6 SLP198=

CYXU;2005-12-20 13:45;SPECI CYXU 201345Z 25011KT 3SM -SHSN DRSN OVC020 M10/ RMK SC8 TCU EMBD=

CYXU;2005-12-20 14:00;METAR CYXU 201400Z 25012KT 2SM -SHSN DRSN OVC022 M10/M12 A3007 RMK SC8 TCU EMBD SLP203=

CYXU;2005-12-20 15:00;METAR CYXU 201500Z 26013KT 1 1/2SM -SHSN OVC023 M08/M11 A3008 RMK SN2SC6 TCU EMBD SUN DMLY VSB SLP205=

CYXU;2005-12-20 15:42;SPECI CYXU 201542Z 25012G17KT 2SM -SHSN BKN022 M08/ RMK SC7 TCU EMBD=

CYXU;2005-12-20 16:00;METAR CYXU 201600Z 25014KT 3SM -SHSN OVC031 M07/M10 A3008 RMK SC8 TCU EMBD /S01/ SLP206=

CYXU;2005-12-20 16:48;SPECI CYXU 201648Z 26012KT 2SM -SHSN OVC031 M07/ RMK SC8 TCU EMBD=

CYXU;2005-12-20 17:00;METAR CYXU 201700Z 26011KT 2SM -SHSN OVC030 M07/M10 A3007 RMK SN2SC6 TCU EMBD SLP201=

CYXU;2005-12-20 18:00;METAR CYXU 201800Z 25011KT 1 1/2SM -SHSN OVC019 M07/M10 A3006 RMK SN1SC7 SLP198=

CYXU;2005-12-20 18:14;SPECI CYXU 201814Z 25011KT 2 1/2SM -SHSN OVC019 M07/ RMK SC8 TCU EMBD=

CYXU;2005-12-20 19:00;METAR CYXU 201900Z 25010G16KT 3SM -SHSN OVC023 M06/M09 A3006 RMK SC8 TCU EMBD SLP198=

CYXU;2005-12-20 20:00;METAR CYXU 202000Z 26011KT 4SM -SHSN FEW009 BKN020 OVC057 M05/M08 A3007 RMK SF1CU5SC2 SLP200=

CYXU;2005-12-20 21:00;METAR CYXU 202100Z 26010KT 2SM -SHSN OVC017 M05/M07 A3009 RMK SN2CU6 SLP208=

CYXU;2005-12-20 22:00;METAR CYXU 202200Z 26010KT 1 1/2SM -SHSN OVC018TCU M05/M07 A3010 RMK SN3TCU5 SLP210=

CYXU;2005-12-20 22:42;SPECI CYXU 202242Z 25010KT 6SM -SHSN OVC020 M05/ RMK CU8=

CYXU;2005-12-20 23:00;METAR CYXU 202300Z 25011KT 8SM -SHSN BKN020 OVC031 M05/M07 A3012 RMK CU5SC3 SLP216=

CYXU;2005-12-20 23:20;SPECI CYXU 202320Z 25010KT 2SM -SHSN BKN018 OVC030 M05/ RMK CU6SC2=

CYXU;2005-12-20 23:48;SPECI CYXU 202348Z 36005KT 1SM R15/P6000FT/D -SHSN OVC013 M05/ RMK SN4CU4=

CYXU;2005-12-21 00:14;SPECI CYXU 210014Z 28004KT 2SM -SHSN OVC010 M04/ RMK SN6CU2=

CYXU;2005-12-21 00:51;SPECI CYXU 210051Z 28005KT 1 1/2SM -SHSN OVC016 M05/ RMK SN6CU2=

CYXU;2005-12-21 01:00;METAR CYXU 210100Z 28004KT 1 1/2SM -SHSN OVC017 M05/M07 A3016 RMK SN6CU2 SLP229=

CYXU;2005-12-21 02:00;METAR CYXU 210200Z 26004KT 1 1/2SM -SHSN OVC017 M05/M07 A3015 RMK SN5CU3 /S01/ SLP228=

CYXU;2005-12-21 02:46;SPECI CYXU 210246Z 26005KT 4SM -SHSN OVC017 M05/ RMK CU8=

CYXU;2005-12-21 03:00;METAR CYXU 210300Z 25006KT 5SM -SHSN OVC021 M05/M07 A3016 RMK CU8 /S02/ SLP228=

CYXU;2005-12-21 04:00;METAR CYXU 210400Z 26004KT 5SM -SHSN SCT020 OVC040 M06/M09 A3016 RMK CU4SC4 SLP228=

CYXU;2005-12-21 05:00;METAR CYXU 210500Z 25005KT 15SM BKN045 M07/M10 A3015 RMK SC6 SLP226=

CYXU;2005-12-21 06:00;METAR CYXU 210600Z 27006KT 15SM FEW045 M09/M12 A3013 RMK SC1 SLP221=

CYXU;2005-12-21 07:00;METAR CYXU 210700Z 24006KT 6SM BR FEW045 M11/M14 A3013 RMK SC1 SLP219=

CYXU;2005-12-21 08:00;METAR CYXU 210800Z 25005KT 6SM BR SKC M09/M11 A3012 RMK SLP217=

CYXU;2005-12-21 09:00;METAR CYXU 210900Z 25006KT 6SM BR SCT032 M08/M10 A3010 RMK SC4 SLP209=

CYXU;2005-12-21 10:00;METAR CYXU 211000Z 24006KT 6SM BR SCT018 OVC028 M06/M09 A3010 RMK SF3SC5 SLP207=

CYXU;2005-12-21 10:07;SPECI CYXU 211007Z 25005KT 5SM -SHSN OVC025 M06/ RMK SC8=

CYXU;2005-12-21 10:37;SPECI CYXU 211037Z 24006KT 7SM OVC024 M06/ RMK SC8=

CYXU;2005-12-21 11:00;METAR CYXU 211100Z 23006KT 7SM OVC024 M06/M09 A3009 RMK SC8 SLP204=

CYXU;2005-12-21 12:00;METAR CYXU 211200Z 24010G16KT 3SM BR SCT007 OVC022 M06/M09 A3008 RMK SF3SC5 SLP200=

CYXU;2005-12-21 12:52;SPECI CYXU 211252Z 24010KT 4SM BR FEW008 OVC013 M06/ RMK SF2SC6=

CYXU;2005-12-21 13:00;METAR CYXU 211300Z 23010KT 5SM BR SCT008 OVC012 M06/M08 A3007 RMK SF4SC4 SLP196=

CYXU;2005-12-21 13:43;SPECI CYXU 211343Z 24008KT 2 1/2SM -SHSN FEW008 OVC012 M06/ RMK SF2SC6=

CYXU;2005-12-21 14:00;METAR CYXU 211400Z 23012KT 2SM -SHSN FEW009 OVC013 M06/M08 A3005 RMK SF2SC6 SLP191=

CYXU;2005-12-21 14:13;SPECI CYXU 211413Z 24011KT 1SM R15/P6000FT/D -SHSN FEW009 OVC014 M06/ RMK SF2SC6 TCU EMBD=

CYXU;2005-12-21 14:36;SPECI CYXU 211436Z 23013G18KT 1 1/2SM -SHSN OVC014 M06/ RMK SN2SC6 TCU EMBD=

CYXU;2005-12-21 15:00;METAR CYXU 211500Z 23012KT 2SM -SHSN FEW009 SCT014 BKN033 M07/M10 A3005 RMK SF1SC2SC4 TCU EMBD SLP193=

CYXU;2005-12-21 15:39;SPECI CYXU 211539Z 25010G15KT 3SM -SHSN FEW009 BKN015 BKN033 M06/ RMK SF1SC4SC2 TCU EMBD=

CYXU;2005-12-21 16:00;METAR CYXU 211600Z 24009KT 3SM -SHSN FEW009 BKN015 BKN040 M06/M09 A3004 RMK SF1SC4SC2 TCU EMBD SLP190=

CYXU;2005-12-21 17:00;METAR CYXU 211700Z 25013KT 10SM BKN015 BKN038 M06/M09 A3002 RMK SC5SC2 SLP181=

CYXU;2005-12-21 17:07;SPECI CYXU 211707Z 24012G17KT 10SM -SHSN BKN015 BKN033 M06/ RMK SC5SC2 TCU EMBD=

CYXU;2005-12-21 18:00;METAR CYXU 211800Z 27012KT 10SM BKN015 OVC038 M06/M09 A3001 RMK SC6SC2 SLP178=

CYXU;2005-12-21 18:32;SPECI CYXU 211832Z 26010G17KT 8SM -SHSN OVC018 M05/ RMK SC8 TCU EMBD=

CYXU;2005-12-21 19:00;METAR CYXU 211900Z 26011KT 8SM -SHSN OVC016 M05/M09 A3001 RMK SC8 TCU EMBD SLP180=

CYXU;2005-12-21 20:00;METAR CYXU 212000Z 25012KT 2SM -SHSN OVC015 M05/M09 A3003 RMK SC8 TCU EMBD SLP187=

CYXU;2005-12-21 20:44;SPECI CYXU 212044Z 26010KT 1SM R15/P6000FT/N -SHSN BKN010 OVC021 M05/ RMK SN3SC3SC2 TCU EMBD=

CYXU;2005-12-21 21:25;SPECI CYXU 212125Z 26009KT 2SM -SHSN SCT010 OVC019 M05/ RMK SN1SC2SC5 TCU EMBD=

CYXU;2005-12-21 22:00;METAR CYXU 212200Z 26010KT 1 1/2SM -SHSN SCT012 OVC025 M05/M07 A3008 RMK SN2SC2SC4 TCU EMBD /S03/ SLP202=

CYXU;2005-12-21 22:49;SPECI CYXU 212249Z 24009KT 4SM -SHSN FEW012 OVC025 M05/ RMK SC2SC6 CU EMBD=

CYXU;2005-12-21 23:00;METAR CYXU 212300Z 24009KT 5SM -SHSN FEW012 OVC025 M04/M07 A3010 RMK SC2SC6 SLP208=

CYXU;2005-12-22 00:00;METAR CYXU 220000Z 24011KT 6SM -SHSN OVC025 M04/M08 A3012 RMK SC8 CU EMBD SLP216=

CYXU;2005-12-22 01:00;METAR CYXU 220100Z 24009KT 12SM -SHSN OVC027 M05/M08 A3013 RMK SC8 SLP219=

CYXU;2005-12-22 03:00;METAR CYXU 220300Z 25011KT 15SM -SHSN OVC030 M05/M08 A3014 RMK SC8 CU EMBD SLP222=

CYXU;2005-12-22 04:00;METAR CYXU 220400Z 25009KT 15SM -SHSN OVC030 M05/M09 A3015 RMK SC8 SLP225=

CYXU;2005-12-22 06:00;METAR CYXU 220600Z 24007KT 15SM OVC025 M05/M09 A3014 RMK SC8 SLP221=

CYXU;2005-12-22 08:00;METAR CYXU 220800Z 23008KT 15SM OVC021 M06/M09 A3013 RMK SC8 SLP220=

CYXU;2005-12-22 09:00;METAR CYXU 220900Z 24009KT 15SM OVC012 M05/M09 A3012 RMK SC8 SLP216=

CYXU;2005-12-22 10:00;METAR CYXU 221000Z 21009KT 15SM OVC012 M05/M08 A3010 RMK SC8 SLP209=

CYXU;2005-12-22 11:00;METAR CYXU 221100Z 22012KT 15SM OVC008 M05/M08 A3009 RMK SC8 SLP205=

CYXU;2005-12-22 12:00;METAR CYXU 221200Z 22012G18KT 15SM OVC007 M05/M08 A3007 RMK CF8 SLP199=

CYXU;2005-12-22 13:00;METAR CYXU 221300Z 21015G20KT 7SM OVC006 M05/M07 A3007 RMK ST8 SLP197=

CYXU;2005-12-22 14:00;METAR CYXU 221400Z 22013KT 6SM BR OVC008 M06/M07 A3008 RMK ST8 SLP202=

CYXU;2005-12-22 14:23;SPECI CYXU 221423Z 22015KT 6SM BR BKN010 M05/ RMK CF7=

CYXU;2005-12-22 14:40;SPECI CYXU 221440Z 22017G22KT 6SM BR FEW010 BKN190 M05/ RMK CF2AC6=

CYXU;2005-12-22 15:00;METAR CYXU 221500Z 21011G20KT 8SM FEW017 BKN190 M06/M09 A3007 RMK CF2AC6 SLP197=

CYXU;2005-12-22 16:00;METAR CYXU 221600Z 22012G18KT 8SM FEW020 BKN180 M05/M10 A3005 RMK CF1AC6 SLP190=

CYXU;2005-12-22 17:00;METAR CYXU 221700Z 22016KT 8SM BKN013 OVC180 M04/M08 A3000 RMK CF6AC2 SLP175=

CYXU;2005-12-22 18:00;METAR CYXU 221800Z 21012G21KT 6SM HZ OVC013 M03/M06 A2996 RMK CF8 PRESFR SLP160=

CYXU;2005-12-22 19:00;METAR CYXU 221900Z 22019KT 6SM HZ BKN010 M02/M05 A2993 RMK CF7 SLP149=

CYXU;2005-12-22 20:00;METAR CYXU 222000Z 21017KT 3SM HZ BKN013 OVC110 M01/M04 A2991 RMK CF6AC2 SLP144=

CYXU;2005-12-22 21:00;METAR CYXU 222100Z 22019G24KT 4SM HZ FEW016 OVC080 M00/M04 A2991 RMK CF2AC6 SLP143=

CYXU;2005-12-22 21:53;SPECI CYXU 222153Z 21021G26KT 3SM -SHSN HZ FEW016 OVC057 M00/ RMK CF2SC6=

CYXU;2005-12-22 22:00;METAR CYXU 222200Z 20022G27KT 3SM -SHSN DRSN HZ FEW016 OVC052 M00/M03 A2990 RMK CF2SC6 SLP139=

CYXU;2005-12-22 22:18;SPECI CYXU 222218Z 22023G28KT 3SM DRSN -FZDZ HZ FEW016 OVC058 M00/ RMK SF2SC6=

CYXU;2005-12-22 22:43;SPECI CYXU 222243Z 21019G26KT 1SM R15/P6000FT/D -SN OVC017 M01/ RMK SN5SC3 DRSN REFZRA=

CYXU;2005-12-22 23:15;SPECI CYXU 222315Z 21019G27KT 4SM -SN FEW010 OVC060 M00/ RMK SF2SC6=

CYXU;2005-12-23 00:00;METAR CYXU 230000Z 21018G25KT 6SM -FZRA SCT015 OVC057 00/M02 A2987 RMK SC3SC5 SLP128=

CYXU;2005-12-23 00:14;SPECI CYXU 230014Z 21019G24KT 6SM HZ SCT015 OVC057 00/ RMK SC4SC4 REFZRA=

CYXU;2005-12-23 01:00;METAR CYXU 230100Z 22018KT 6SM HZ FEW014 OVC063 01/M02 A2986 RMK SC2SC6 REFZRA SLP126=

CYXU;2005-12-23 02:00;METAR CYXU 230200Z 22016G22KT 10SM SCT018 01/M03 A2985 RMK SC3 SLP121=

CYXU;2005-12-23 03:00;METAR CYXU 230300Z 21016G26KT 10SM SCT021 01/M03 A2984 RMK SC3 SLP116=

CYXU;2005-12-23 04:00;METAR CYXU 230400Z 22012KT 10SM BKN021 01/M03 A2984 RMK SC5 SLP117=

CYXU;2005-12-23 06:00;METAR CYXU 230600Z 23012G17KT 10SM FEW110 00/M03 A2983 RMK AC2 SLP114=

CYXU;2005-12-23 07:00;METAR CYXU 230700Z 23011KT 10SM FEW110 M00/M03 A2983 RMK AC2 SLP115=

CYXU;2005-12-23 09:00;METAR CYXU 230900Z 22009KT 4SM BR FEW150 M01/M03 A2983 RMK AC2 SLP113=

CYXU;2005-12-23 10:00;METAR CYXU 231000Z 21011KT 5SM BR FEW150 M01/M03 A2982 RMK AC2 SLP108=

CYXU;2005-12-23 11:00;METAR CYXU 231100Z 21011KT 5SM BR BKN100 M00/M03 A2981 RMK AC6 SLP106=

CYXU;2005-12-23 12:00;METAR CYXU 231200Z 20010G15KT 5SM HZ BKN100 00/M02 A2981 RMK AC6 SLP105=

CYXU;2005-12-23 13:00;METAR CYXU 231300Z 21012KT 4SM HZ FEW010 SCT029 OVC100 00/M02 A2982 RMK SF1CF2AS5 VIRGA SLP108=

CYXU;2005-12-23 14:38;SPECI CYXU 231438Z 20013KT 2 1/2SM -RA BR OVC039 M01/ RMK NS8=

CYXU;2005-12-23 15:00;METAR CYXU 231500Z 20012KT 3SM -RA BR FEW010 OVC049 01/M01 A2981 RMK SF2NS6 SLP105=

CYXU;2005-12-23 16:00;METAR CYXU 231600Z 21014KT 3SM -RA HZ FEW014 OVC057 01/M01 A2979 RMK SF2NS6 SLP097=

CYXU;2005-12-23 18:00;METAR CYXU 231800Z 21013KT 5SM HZ OVC016 02/M01 A2970 RMK SC8 SLP068=

CYXU;2005-12-23 18:18;SPECI CYXU 231818Z 21013G19KT 5SM -RA HZ BKN014 OVC080 02/ RMK SC7AS1=

CYXU;2005-12-23 18:45;SPECI CYXU 231845Z 21013G21KT 5SM -SHRAPL OVC016 02/ RMK SC8 TCU ASOCTD=

CYXU;2005-12-23 19:00;METAR CYXU 231900Z 21014KT 5SM -SHPL HZ OVC015 02/M01 A2969 RMK SC8 TCU ASOCTD SLP062=

CYXU;2005-12-23 19:24;SPECI CYXU 231924Z 22013KT 5SM HZ OVC015 02/ RMK SC8=

CYXU;2005-12-23 19:43;SPECI CYXU 231943Z 21013G20KT 8SM OVC015 02/ RMK SC8=

CYXU;2005-12-23 20:00;METAR CYXU 232000Z 22016KT 8SM OVC015 02/M01 A2969 RMK SC8 SLP064=

CYXU;2005-12-23 21:00;METAR CYXU 232100Z 23013G18KT 6SM HZ OVC015 02/M01 A2970 RMK SC8 SLP068=

CYXU;2005-12-23 22:00;METAR CYXU 232200Z 22012G18KT 6SM HZ OVC016 02/M01 A2971 RMK SC8 SLP070=

CYXU;2005-12-23 23:00;METAR CYXU 232300Z 23011G17KT 6SM HZ OVC022 02/M01 A2972 RMK SC8 SLP075=

CYXU;2005-12-24 00:00;METAR CYXU 240000Z 23010KT 6SM HZ OVC018 02/M01 A2974 RMK SC8 SLP081=

CYXU;2005-12-24 02:00;METAR CYXU 240200Z 24009KT 8SM OVC018 02/M01 A2977 RMK SC8 SLP091=

CYXU;2005-12-24 03:00;METAR CYXU 240300Z 23009KT 6SM HZ OVC019 02/M01 A2978 RMK SC8 SLP094=

CYXU;2005-12-24 04:00;METAR CYXU 240400Z 24007KT 6SM HZ OVC027 02/M01 A2978 RMK SC8 SLP094=

CYXU;2005-12-24 05:00;METAR CYXU 240500Z 23005KT 6SM HZ BKN022 OVC031 02/M01 A2978 RMK SC6SC2 SLP093=

CYXU;2005-12-24 07:00;METAR CYXU 240700Z 22005KT 5SM HZ OVC023 02/M01 A2979 RMK SC8 SLP096=

CYXU;2005-12-24 08:00;METAR CYXU 240800Z 05002KT 4SM HZ BKN023 OVC044 01/M00 A2980 RMK SC6SC2 SLP099=

CYXU;2005-12-24 09:39;SPECI CYXU 240939Z 20007KT 2 1/2SM HZ OVC042 01/ RMK SC8=

CYXU;2005-12-24 10:00;METAR CYXU 241000Z 18005KT 2 1/2SM HZ OVC042 01/M01 A2980 RMK SC8 SLP101=

CYXU;2005-12-24 11:00;METAR CYXU 241100Z 18004KT 3SM BR OVC048 01/M01 A2980 RMK SC8 SLP102=

CYXU;2005-12-24 13:00;METAR CYXU 241300Z 14002KT 2 1/2SM BR BKN047 OVC130 01/M00 A2981 RMK SC6AC2 SLP104=

CYXU;2005-12-24 14:00;METAR CYXU 241400Z 13002KT 2 1/2SM BR OVC043 02/M00 A2983 RMK SC8 SLP109=

CYXU;2005-12-24 15:00;METAR CYXU 241500Z 14003KT 3SM HZ BKN043 OVC160 02/00 A2983 RMK SC6AC2 SLP109=

CYXU;2005-12-24 16:00;METAR CYXU 241600Z 17004KT 5SM HZ FEW043 BKN071 03/00 A2982 RMK SC2AC5 SLP106=

CYXU;2005-12-24 17:00;METAR CYXU 241700Z 18004KT 6SM HZ BKN050 04/00 A2979 RMK SC7 SLP098=

CYXU;2005-12-24 18:00;METAR CYXU 241800Z 18006KT 8SM BKN051 04/M00 A2977 RMK SC7 SLP089=

CYXU;2005-12-24 19:00;METAR CYXU 241900Z 17006KT 8SM FEW050 OVC180 04/M00 A2976 RMK SC1AS4 SLP085=

CYXU;2005-12-24 20:00;METAR CYXU 242000Z 17006KT 8SM FEW046 FEW120 OVC180 03/M01 A2976 RMK SC1AC2AS5 SLP086=

CYXU;2005-12-24 21:00;METAR CYXU 242100Z 17006KT 8SM BKN048 OVC180 03/M01 A2977 RMK SC7AS1 SLP089=

CYXU;2005-12-24 22:00;METAR CYXU 242200Z 14005KT 8SM BKN057 OVC120 03/M01 A2977 RMK SC7AS1 SLP091=

CYXU;2005-12-24 23:00;METAR CYXU 242300Z 12005KT 10SM FEW055 OVC220 02/M01 A2976 RMK SC2CS6 SLP088=

CYXU;2005-12-25 00:00;METAR CYXU 250000Z 10005KT 10SM BKN055 OVC120 03/M01 A2976 RMK SC6AS2 SLP086=

CYXU;2005-12-25 01:00;METAR CYXU 250100Z 09004KT 14SM BKN051 OVC120 03/M01 A2975 RMK SC6AS2 SLP084=

CYXU;2005-12-25 01:51;SPECI CYXU 250151Z 09002KT 12SM -RA OVC042 02/ RMK SC8=

CYXU;2005-12-25 02:00;METAR CYXU 250200Z 09003KT 12SM -RA OVC041 02/M01 A2975 RMK SC8 SLP083=

CYXU;2005-12-25 04:00;METAR CYXU 250400Z 07004KT 10SM -RA BKN031 OVC042 02/M01 A2973 RMK SC6NS2 SLP077=

CYXU;2005-12-25 05:00;METAR CYXU 250500Z 04003KT 8SM -RA BKN036 OVC043 02/M01 A2973 RMK SC7NS1 SLP075=

CYXU;2005-12-25 06:00;METAR CYXU 250600Z 08003KT 8SM -RA BKN037 OVC061 02/M01 A2971 RMK SC6NS2 SLP069=

CYXU;2005-12-25 07:00;METAR CYXU 250700Z 08005KT 8SM -RA BKN030 OVC058 02/M01 A2969 RMK SC6NS2 SLP063=

CYXU;2005-12-25 09:00;METAR CYXU 250900Z 10004KT 8SM -RA BKN018 OVC038 02/M01 A2967 RMK SC6NS2 SLP054=

CYXU;2005-12-25 10:00;METAR CYXU 251000Z 08007KT 7SM -RA BKN012 OVC024 02/M01 A2964 RMK SC6NS2 SLP044=

CYXU;2005-12-25 11:00;METAR CYXU 251100Z 08006KT 8SM OVC012 02/M01 A2963 RMK SC8 SLP041=

CYXU;2005-12-25 11:38;SPECI CYXU 251138Z 10005KT 5SM -RA BR OVC013 03/ RMK NS8=

CYXU;2005-12-25 12:00;METAR CYXU 251200Z 11008KT 6SM -RA BR BKN013 OVC040 02/01 A2963 RMK SC5NS3 SLP042=

CYXU;2005-12-25 14:00;METAR CYXU 251400Z 08005KT 1 1/2SM -RA BR OVC045 02/00 A2960 RMK FG4NS4 SLP033=

CYXU;2005-12-25 15:00;METAR CYXU 251500Z 07005KT 1 3/4SM -RA BR OVC035 02/01 A2961 RMK FG4NS4 SLP035=

CYXU;2005-12-25 16:00;METAR CYXU 251600Z 08007KT 2 1/2SM -RA BR OVC035 02/01 A2959 RMK FG2NS6 SLP030=

CYXU;2005-12-25 16:31;SPECI CYXU 251631Z 07006KT 4SM BR FEW020 OVC040 02/ RMK SC2NS6=

CYXU;2005-12-25 16:50;SPECI CYXU 251650Z 06008KT 4SM -RA BR FEW020 OVC040 02/ RMK SC2NS6=

CYXU;2005-12-25 17:00;METAR CYXU 251700Z 06007KT 4SM -RA BR FEW020 OVC040 02/00 A2954 RMK SC2NS6 SLP013=

CYXU;2005-12-25 18:00;METAR CYXU 251800Z 05006KT 4SM -RA BR OVC038 03/01 A2949 RMK NS8 SLP996=

CYXU;2005-12-25 19:00;METAR CYXU 251900Z 07005KT 3SM BR OVC045 02/01 A2949 RMK NS8 SLP995=

CYXU;2005-12-25 19:31;SPECI CYXU 251931Z 04007KT 3SM -RA BR OVC045 02/ RMK NS8=

CYXU;2005-12-25 20:00;METAR CYXU 252000Z 04009KT 1SM R15/P6000FT/N -RA BR OVC046 02/00 A2945 RMK NS8 SLP981=

CYXU;2005-12-25 21:00;METAR CYXU 252100Z 07008KT 1SM R15/P6000FT/N -RA BR OVC036 02/00 A2946 RMK NS8 SLP986=

CYXU;2005-12-25 21:52;SPECI CYXU 252152Z 07006KT 1SM R15/P6000FT/U -RA BR FEW006 OVC035 02/ RMK SF2NS6=

CYXU;2005-12-25 22:00;METAR CYXU 252200Z 07007KT 1SM R15/P6000FT/U -RA BR BKN006 OVC035 02/00 A2948 RMK SF5NS3 SLP990=

CYXU;2005-12-25 22:41;SPECI CYXU 252241Z 05005KT 1SM R15/P6000FT/N -RA BR SCT007 OVC026 02/ RMK SF3NS5=

CYXU;2005-12-26 00:00;METAR CYXU 260000Z 01005KT 1SM R15/P6000FT/N -RA BR OVC024 01/00 A2946 RMK NS8 SLP986=

CYXU;2005-12-26 00:28;SPECI CYXU 260028Z 01005KT 1SM R15/P6000FT/N -RA BR FEW008 OVC024 01/ RMK SF2NS6=

CYXU;2005-12-26 00:55;SPECI CYXU 260055Z 36005KT 1SM R15/P6000FT/N -RA BR OVC007 01/ RMK SF8 NS ASOCTD=

CYXU;2005-12-26 01:00;METAR CYXU 260100Z 36005KT 1SM R15/P6000FT/N -RASN BR OVC006 01/00 A2946 RMK SF8 NS ASOCTD SLP986=

CYXU;2005-12-26 02:00;METAR CYXU 260200Z 35006KT 3/4SM R15/P6000FT/N -SN BR VV007 01/M01 A2946 RMK SN8 SLP986=

CYXU;2005-12-26 04:00;METAR CYXU 260400Z 36008KT 1SM R15/P6000FT/N -SN BR OVC022 01/M01 A2946 RMK NS8 SLP983=

CYXU;2005-12-26 06:00;METAR CYXU 260600Z 35007KT 1SM R15/P6000FT/N -SN BR BKN027 OVC050 01/M01 A2944 RMK FG2NS6NS1 SLP978=

CYXU;2005-12-26 07:36;SPECI CYXU 260736Z 33008KT 3/4SM R15/P6000FT/N -SN BR OVC004 01/ RMK SN5SF3=

CYXU;2005-12-26 08:00;METAR CYXU 260800Z 34008KT 1SM R15/P6000FT/N -SN BR OVC005 01/M01 A2947 RMK SN4SF4 SLP989=

CYXU;2005-12-26 09:00;METAR CYXU 260900Z 34008KT 1SM R15/P6000FT/N -SN BR OVC005 01/M01 A2949 RMK SN4SF4 SLP993=

CYXU;2005-12-26 11:00;METAR CYXU 261100Z 33010KT 4SM -RASN BR BKN008 OVC035 01/M01 A2953 RMK SF5NS3 SLP006=

CYXU;2005-12-26 12:00;METAR CYXU 261200Z 34011G17KT 5SM -RASN BR SCT008 OVC015 01/M01 A2956 RMK SF4NS4 SLP018=

CYXU;2005-12-26 12:28;SPECI CYXU 261228Z 34010G15KT 8SM -DZ OVC010 01/ RMK NS8=

CYXU;2005-12-26 12:38;SPECI CYXU 261238Z 33015KT 10SM -DZ OVC008 00/ RMK NS8=

CYXU;2005-12-26 13:00;METAR CYXU 261300Z 32013G18KT 10SM OVC005 00/M02 A2958 RMK NS8 SLP026=

CYXU;2005-12-26 14:00;METAR CYXU 261400Z 33010G22KT 12SM OVC006 M00/M02 A2961 RMK NS8 SLP036=

CYXU;2005-12-26 15:00;METAR CYXU 261500Z 33015G20KT 12SM OVC006 M00/M02 A2963 RMK ST8 SLP042=

CYXU;2005-12-26 16:00;METAR CYXU 261600Z 32013G18KT 12SM OVC007 M01/M03 A2965 RMK ST8 SLP050=

CYXU;2005-12-26 17:00;METAR CYXU 261700Z 32012G20KT 12SM OVC007 M00/M03 A2966 RMK ST8 SLP052=

CYXU;2005-12-26 17:47;SPECI CYXU 261747Z 31013G20KT 12SM OVC006 M01/ RMK ST8=

CYXU;2005-12-26 18:00;METAR CYXU 261800Z 32017G26KT 12SM OVC009 M00/M03 A2966 RMK ST8 SLP054=

CYXU;2005-12-26 18:26;SPECI CYXU 261826Z 32015G20KT 6SM -SG BR OVC007 M00/ RMK ST8=

CYXU;2005-12-26 18:33;SPECI CYXU 261833Z 32012G20KT 2 1/2SM -SG BR OVC009 M00/ RMK ST8=

CYXU;2005-12-26 19:00;METAR CYXU 261900Z 33013KT 1 1/2SM -SHSN BR BKN008 OVC020TCU M00/M02 A2967 RMK SN2ST4TCU2 SLP058=

CYXU;2005-12-26 19:37;SPECI CYXU 261937Z 31012G17KT 1 1/4SM -SHSN BR OVC006TCU M00/ RMK SN6TCU2=

CYXU;2005-12-26 20:00;METAR CYXU 262000Z 32011G16KT 3/4SM R15/P6000FT/D -SHSN OVC006TCU M00/M02 A2970 RMK SN6TCU2 SLP065=

CYXU;2005-12-26 22:00;METAR CYXU 262200Z 30012G17KT 3/4SM R15/P6000FT/U -SHSN OVC008TCU M01/M02 A2975 RMK SN3TCU5 SLP085=

CYXU;2005-12-26 23:00;METAR CYXU 262300Z 30010G15KT 3/4SM R15/P6000FT/N -SHSN OVC007TCU M01/M02 A2978 RMK SN4TCU4 SLP094=

CYXU;2005-12-27 00:00;METAR CYXU 270000Z 31012G17KT 3/4SM R15/P6000FT/N -SHSN BKN005 OVC024TCU M01/M02 A2980 RMK SF6TCU2 /S01/ SLP102=

CYXU;2005-12-27 01:26;SPECI CYXU 270126Z 31009KT 10SM OVC014 M01/ RMK SC8=

CYXU;2005-12-27 03:00;METAR CYXU 270300Z 29008KT 10SM OVC018 M01/M03 A2985 RMK SC8 SLP118=

CYXU;2005-12-27 04:00;METAR CYXU 270400Z 28007KT 10SM OVC020 M01/M03 A2985 RMK SC8 SLP120=

CYXU;2005-12-27 05:00;METAR CYXU 270500Z 28008KT 10SM OVC019 M01/M03 A2986 RMK SC8 SLP124=

CYXU;2005-12-27 08:00;METAR CYXU 270800Z 27004KT 15SM OVC015 M01/M03 A2990 RMK SC8 SLP136=

CYXU;2005-12-27 09:00;METAR CYXU 270900Z 28009KT 15SM OVC013 M01/M04 A2990 RMK SC8 SLP138=

CYXU;2005-12-27 10:00;METAR CYXU 271000Z 27007KT 15SM OVC013 M01/M04 A2991 RMK SC8 SLP141=

CYXU;2005-12-27 11:00;METAR CYXU 271100Z 23003KT 15SM OVC018 M01/M04 A2990 RMK SC8 SLP137=

CYXU;2005-12-27 12:00;METAR CYXU 271200Z 18003KT 12SM OVC020 M01/M04 A2990 RMK SC8 SLP138=

CYXU;2005-12-27 13:00;METAR CYXU 271300Z 18004KT 10SM OVC019 M01/M04 A2991 RMK SC8 SLP139=

CYXU;2005-12-27 14:00;METAR CYXU 271400Z 20005KT 10SM OVC019 M01/M03 A2991 RMK SC8 SLP140=

CYXU;2005-12-27 14:37;SPECI CYXU 271437Z 20007KT 10SM OVC014 M00/ RMK SC8=

CYXU;2005-12-27 15:00;METAR CYXU 271500Z 19007KT 10SM OVC013 M00/M03 A2992 RMK SC8 SLP142=

CYXU;2005-12-27 15:45;SPECI CYXU 271545Z 18008KT 10SM OVC016 M00/ RMK SC8=

CYXU;2005-12-27 16:00;METAR CYXU 271600Z 18007KT 10SM OVC015 00/M03 A2990 RMK SC8 SLP138=

CYXU;2005-12-27 17:00;METAR CYXU 271700Z 18009KT 12SM OVC015 00/M03 A2988 RMK SC8 SLP129=

CYXU;2005-12-27 17:09;SPECI CYXU 271709Z 19010G15KT 12SM OVC013 01/ RMK SC8=

CYXU;2005-12-27 18:00;METAR CYXU 271800Z 21010G15KT 12SM OVC013 01/M03 A2984 RMK SC8 SLP117=

CYXU;2005-12-27 19:00;METAR CYXU 271900Z 20013G18KT 12SM OVC014 01/M03 A2982 RMK SC8 SLP110=

CYXU;2005-12-27 20:00;METAR CYXU 272000Z 19011KT 12SM OVC014 01/M03 A2981 RMK SC8 SLP105=

CYXU;2005-12-27 21:00;METAR CYXU 272100Z 18010KT 12SM OVC015 01/M03 A2982 RMK SC8 SLP107=

CYXU;2005-12-27 22:00;METAR CYXU 272200Z 15006KT 12SM FEW015 BKN250 M00/M03 A2981 RMK SC1CI1 SLP104=

CYXU;2005-12-27 23:00;METAR CYXU 272300Z 12005KT 12SM SCT020 BKN250 M01/M04 A2980 RMK SC4CI0 SLP101=

CYXU;2005-12-28 00:00;METAR CYXU 280000Z 10006KT 12SM FEW020 BKN190 M01/M04 A2979 RMK SC2CI2 SLP098=

CYXU;2005-12-28 01:00;METAR CYXU 280100Z 10006KT 12SM FEW020 BKN240 M02/M04 A2978 RMK SC2CI0 FROIN SLP096=

CYXU;2005-12-28 02:00;METAR CYXU 280200Z 09005KT 12SM FEW020 BKN240 M02/M04 A2978 RMK SC2CI1 FROIN SLP095=

CYXU;2005-12-28 04:00;METAR CYXU 280400Z 10005KT 7SM FEW027 OVC220 M01/M04 A2975 RMK SC2CS6 SLP086=

CYXU;2005-12-28 05:00;METAR CYXU 280500Z 11006KT 7SM BKN024 OVC220 M01/M03 A2973 RMK SC6CS2 SLP081=

CYXU;2005-12-28 06:00;METAR CYXU 280600Z 11007KT 7SM OVC020 M00/M02 A2970 RMK SC8 SLP069=

CYXU;2005-12-28 07:00;METAR CYXU 280700Z 11007KT 6SM -DZ OVC015 01/M02 A2970 RMK ST8 SLP066=

CYXU;2005-12-28 08:00;METAR CYXU 280800Z 11010KT 2 1/2SM -DZ BR OVC007 00/M01 A2969 RMK ST8 SLP065=

CYXU;2005-12-28 09:00;METAR CYXU 280900Z 11009KT 3SM BR BKN004 OVC012 01/M01 A2966 RMK SF5ST3 SLP054=

CYXU;2005-12-28 09:26;SPECI CYXU 280926Z 12007KT 2SM -DZ BR OVC004 01/ RMK FG2ST6=

CYXU;2005-12-28 11:00;METAR CYXU 281100Z 10009KT 1SM R15/P6000FT/D -DZ BR VV003 01/M00 A2964 RMK FG8 SLP046=

CYXU;2005-12-28 12:00;METAR CYXU 281200Z 10008KT 1 1/2SM BR BKN003 OVC012 01/M00 A2963 RMK FG3SF3ST2 SLP044=

CYXU;2005-12-28 13:00;METAR CYXU 281300Z 09009KT 1SM R15/P6000FT/N BR SCT003 OVC012 01/M00 A2961 RMK FG3SF1ST4 SLP038=

CYXU;2005-12-28 15:00;METAR CYXU 281500Z 10007KT 1SM R15/P6000FT/U BR BKN004 OVC017 01/00 A2961 RMK FG3SF3ST2 SLP038=

CYXU;2005-12-28 16:00;METAR CYXU 281600Z 10011KT 1SM R15/P6000FT/N BR SCT004 OVC027 02/00 A2957 RMK FG2SF2SC4 SLP023=

CYXU;2005-12-28 17:00;METAR CYXU 281700Z 09006KT 1 1/2SM BR FEW004 OVC026 02/00 A2954 RMK FG2SF1SC6 SLP013=

CYXU;2005-12-28 17:33;SPECI CYXU 281733Z 08008KT 2 1/2SM BR FEW004 OVC030 02/ RMK FG1SF1SC6=

CYXU;2005-12-28 18:00;METAR CYXU 281800Z 08009KT 2 1/2SM BR FEW004 OVC030 03/01 A2950 RMK FG1SF1SC6 SLP998=

CYXU;2005-12-28 19:00;METAR CYXU 281900Z 09010KT 1 1/2SM BR OVC034 02/00 A2947 RMK FG3SC5 SLP988=

CYXU;2005-12-28 20:00;METAR CYXU 282000Z 09011KT 1 1/2SM BR SCT030 OVC092 02/00 A2946 RMK FG2SC2AC4 SLP984=

CYXU;2005-12-28 22:00;METAR CYXU 282200Z 09008KT 1 1/2SM BR SCT004 BKN010 OVC020 02/01 A2946 RMK FG2SF1SC3SC2 SLP983=

CYXU;2005-12-28 22:27;SPECI CYXU 282227Z 07008KT 1 1/2SM -SHRA BR SCT004 SCT010 OVC028 02/ RMK FG2SF1SC1SC4 TCU EMBD=

CYXU;2005-12-28 23:00;METAR CYXU 282300Z 07009KT 1 1/2SM -SHRA BR SCT010 OVC020 02/00 A2944 RMK FG2SC2SC4 TCU EMBD SLP977=

CYXU;2005-12-28 23:09;SPECI CYXU 282309Z 07010KT 1 1/2SM BR SCT010 OVC020 02/ RMK FG2SC1SC5=

CYXU;2005-12-28 23:42;SPECI CYXU 282342Z 09010KT 1 1/2SM BR SCT004 OVC022 02/ RMK FG2SF1SC5=

CYXU;2005-12-29 00:00;METAR CYXU 290000Z 08009KT 1 1/2SM BR OVC023 02/00 A2942 RMK FG2SC6 SLP972=

CYXU;2005-12-29 00:20;SPECI CYXU 290020Z 09009KT 1 1/2SM -SHRA BR BKN004 BKN012 OVC022 02/ RMK FG2SF3SC2SC1 TCU EMBD=

CYXU;2005-12-29 01:00;METAR CYXU 290100Z 08009KT 4SM -SHRA SCT004 OVC007 02/01 A2943 RMK SF3SF5 TCU EMBD SLP974=

CYXU;2005-12-29 02:00;METAR CYXU 290200Z 07011KT 2SM -SHRA BR BKN004 OVC007 02/01 A2939 RMK FG2SF3SF3 TCU EMBD SLP963=

CYXU;2005-12-29 03:00;METAR CYXU 290300Z 08008KT 1 1/2SM BR BKN003 OVC007 02/00 A2939 RMK FG3SF2SF2 SLP962=

CYXU;2005-12-29 04:00;METAR CYXU 290400Z 07009KT 2SM BR OVC004 02/00 A2939 RMK FG2SF6 SLP961=

CYXU;2005-12-29 04:56;SPECI CYXU 290456Z 07007KT 1 1/2SM -SHRA BR OVC003 02/ RMK FG3SF5 TCU EMBD=

CYXU;2005-12-29 05:00;METAR CYXU 290500Z 07008KT 1 1/2SM -SHRA BR OVC003 02/00 A2939 RMK FG3SF5 TCU EMBD SLP960=

CYXU;2005-12-29 06:00;METAR CYXU 290600Z 07006KT 2SM -SHRA BR OVC003 01/00 A2938 RMK FG3SF5 TCU EMBD SLP956=

CYXU;2005-12-29 07:00;METAR CYXU 290700Z 07005KT 2SM -SHRA BR OVC003 01/00 A2938 RMK FG3SF5 CVCTV CLD EMBD SLP956=

CYXU;2005-12-29 08:31;SPECI CYXU 290831Z 05004KT 1 1/2SM -SHRA BR OVC003 01/ RMK FG3SF5 CVCTV CLD EMBD=

CYXU;2005-12-29 09:00;METAR CYXU 290900Z 06004KT 1 1/2SM -SHRA BR OVC003 01/00 A2939 RMK FG2SF6 CVCTV CLD EMBD SLP960=

CYXU;2005-12-29 10:00;METAR CYXU 291000Z 02006KT 2SM -RA BR OVC005 01/00 A2940 RMK FG2NS6 SLP963=

CYXU;2005-12-29 11:00;METAR CYXU 291100Z 02004KT 2SM BR OVC007 01/00 A2941 RMK FG1SF7 SLP967=

CYXU;2005-12-29 12:00;METAR CYXU 291200Z 02005KT 2SM BR OVC008 02/00 A2943 RMK FG2SF6 SLP972=

CYXU;2005-12-29 12:50;SPECI CYXU 291250Z 36006KT 2 1/2SM -RA BR OVC007 02/ RMK FG2NS6=

CYXU;2005-12-29 13:00;METAR CYXU 291300Z 36006KT 2 1/2SM -RA BR OVC007 02/00 A2945 RMK FG2NS6 SLP979=

CYXU;2005-12-29 13:50;SPECI CYXU 291350Z 01007KT 4SM -RA BR BKN005 OVC011 01/ RMK SF5NS3=

CYXU;2005-12-29 14:00;METAR CYXU 291400Z 01007KT 4SM -RA BR BKN006 OVC012 02/00 A2947 RMK SF5NS3 SLP988=

CYXU;2005-12-29 15:00;METAR CYXU 291500Z 36009KT 4SM -RA BR SCT005 OVC012 02/00 A2950 RMK SF3NS5 SLP997=

CYXU;2005-12-29 15:47;SPECI CYXU 291547Z 36009KT 4SM -RA BR BKN007 OVC012 01/ RMK FG1SF5NS2=

CYXU;2005-12-29 16:00;METAR CYXU 291600Z 36008KT 4SM -RA BR BKN007 OVC012 01/M00 A2952 RMK SF5NS3 SLP005=

CYXU;2005-12-29 18:39;SPECI CYXU 291839Z 34008KT 5SM BR BKN008 OVC015 01/ RMK SF7NS1=

CYXU;2005-12-29 19:00;METAR CYXU 291900Z 36009KT 4SM BR BKN009 OVC015 01/M01 A2954 RMK SF7NS1 -PL SLP012=

CYXU;2005-12-29 19:23;SPECI CYXU 291923Z 35007KT 4SM BR OVC006 01/ RMK SF8=

CYXU;2005-12-29 20:00;METAR CYXU 292000Z 35010KT 4SM BR BKN006 OVC009 01/M01 A2958 RMK SF6NS2 SLP024=

CYXU;2005-12-29 20:34;SPECI CYXU 292034Z 01009KT 6SM BR BKN009 OVC022 01/ RMK SF6NS2=

CYXU;2005-12-29 21:00;METAR CYXU 292100Z 33008KT 8SM BKN011 OVC020 01/M02 A2962 RMK SC6SC2 SLP040=

CYXU;2005-12-29 22:00;METAR CYXU 292200Z 35011KT 12SM BKN013 OVC030 01/M02 A2966 RMK SC6SC2 SLP051=

CYXU;2005-12-29 23:00;METAR CYXU 292300Z 34009KT 13SM BKN012 OVC041 01/M02 A2969 RMK SC7SC1 SLP062=

CYXU;2005-12-29 23:37;SPECI CYXU 292337Z 34010G17KT 13SM FEW009 OVC011 00/ RMK SF2SC6=

CYXU;2005-12-30 00:00;METAR CYXU 300000Z 34011KT 15SM BKN010 OVC053 M00/M03 A2971 RMK SC5SC3 SLP072=

CYXU;2005-12-30 01:00;METAR CYXU 300100Z 35010KT 15SM BKN014 BKN037 OVC053 M00/M03 A2974 RMK SC6SC2SC1 SLP080=

CYXU;2005-12-30 02:00;METAR CYXU 300200Z 35009KT 15SM BKN012 OVC033 M01/M03 A2974 RMK SC6SC2 SLP082=

CYXU;2005-12-30 02:49;SPECI CYXU 300249Z 34005KT 15SM FEW011 OVC031 M01/ RMK SC2SC6=

CYXU;2005-12-30 03:00;METAR CYXU 300300Z 34007KT 15SM FEW011 OVC032 M01/M04 A2976 RMK SC2SC6 SLP087=

CYXU;2005-12-30 04:00;METAR CYXU 300400Z 34007KT 15SM FEW011 OVC030 M01/M04 A2978 RMK SC2SC6 SLP095=

CYXU;2005-12-30 05:00;METAR CYXU 300500Z 33007KT 15SM SCT011 OVC028 M01/M04 A2979 RMK SC3SC5 SLP098=

CYXU;2005-12-30 06:00;METAR CYXU 300600Z 33007KT 15SM SCT010 OVC027 M01/M04 A2980 RMK SC4SC4 SLP103=

CYXU;2005-12-30 08:38;SPECI CYXU 300838Z 35008KT 15SM BKN013 OVC030 M02/ RMK SC5SC3=

CYXU;2005-12-30 09:00;METAR CYXU 300900Z 35011KT 15SM BKN013 OVC030 M02/M05 A2986 RMK SC6SC2 SLP121=

CYXU;2005-12-30 10:00;METAR CYXU 301000Z 36009KT 15SM OVC010 M02/M05 A2988 RMK SC8 SLP130=

CYXU;2005-12-30 11:00;METAR CYXU 301100Z 35006KT 15SM SCT010 SCT190 M03/M07 A2989 RMK SC3CI1 SLP133=

CYXU;2005-12-30 11:33;SPECI CYXU 301133Z 36005KT 15SM BKN008 M04/ RMK SC6=

CYXU;2005-12-30 12:00;METAR CYXU 301200Z 35006KT 15SM BKN008 M04/M07 A2992 RMK SC7 SLP143=

CYXU;2005-12-30 13:00;METAR CYXU 301300Z 01005KT 15SM BKN008 BKN200 M04/M07 A2993 RMK SC7CI1 SLP147=

CYXU;2005-12-30 14:00;METAR CYXU 301400Z 35004KT 15SM BKN008 BKN028 M04/M07 A2993 RMK SF5SC2 SLP149=

CYXU;2005-12-30 14:22;SPECI CYXU 301422Z 03002KT 15SM FEW008 BKN150 BKN200 M04/ RMK SF2AC2CI2=

CYXU;2005-12-30 15:00;METAR CYXU 301500Z 06002KT 15SM FEW008 FEW150 SCT230 M03/M06 A2994 RMK SF1AC2CI1 SLP151=

CYXU;2005-12-30 16:00;METAR CYXU 301600Z 06002KT 15SM FEW008 FEW230 M02/M06 A2993 RMK SF1CI1 SLP149=

CYXU;2005-12-30 17:00;METAR CYXU 301700Z 08002KT 15SM FEW013 SCT230 M01/M06 A2993 RMK SC2CI1 SLP146=

CYXU;2005-12-30 18:00;METAR CYXU 301800Z 12002KT 15SM SCT015 BKN230 M01/M06 A2990 RMK SC4CI0 SLP138=

CYXU;2005-12-30 19:00;METAR CYXU 301900Z 00000KT 15SM BKN021 M01/M06 A2990 RMK SC7 SLP135=

CYXU;2005-12-30 20:00;METAR CYXU 302000Z 00000KT 15SM BKN019 M01/M06 A2988 RMK SC7 SLP130=

CYXU;2005-12-30 21:00;METAR CYXU 302100Z 33003KT 15SM OVC018 M01/M05 A2989 RMK SC8 SLP133=

CYXU;2005-12-30 22:00;METAR CYXU 302200Z 02003KT 15SM OVC019 M01/M06 A2989 RMK SC8 SLP132=

CYXU;2005-12-30 23:00;METAR CYXU 302300Z 05004KT 15SM OVC019 M01/M05 A2986 RMK SC8 SLP122=

CYXU;2005-12-31 00:00;METAR CYXU 310000Z 10006KT 15SM OVC019 M01/M05 A2983 RMK SC8 SLP115=

CYXU;2005-12-31 01:00;METAR CYXU 310100Z 11007KT 15SM OVC019 M01/M05 A2982 RMK SC8 SLP111=

CYXU;2005-12-31 02:00;METAR CYXU 310200Z 11011KT 15SM FEW009 BKN019 OVC120 M02/M05 A2981 RMK CF1SC6AC2 SLP108=

CYXU;2005-12-31 03:00;METAR CYXU 310300Z 10013KT 15SM FEW010 SCT020 OVC110 M02/M05 A2980 RMK CF2SC2AC5 SLP104=

CYXU;2005-12-31 04:00;METAR CYXU 310400Z 11009KT 15SM FEW010 BKN025 OVC100 M02/M05 A2980 RMK CF2SC4AC2 SLP105=

CYXU;2005-12-31 04:46;SPECI CYXU 310446Z 11012KT 15SM BKN010 OVC025 M02/ RMK SC5SC3=

CYXU;2005-12-31 05:00;METAR CYXU 310500Z 11011KT 12SM BKN010 OVC022 M02/M05 A2977 RMK SC6SC2 SLP095=

CYXU;2005-12-31 06:00;METAR CYXU 310600Z 10014KT 12SM BKN010 OVC018 M02/M05 A2973 RMK SC5SC3 SLP079=

CYXU;2005-12-31 07:00;METAR CYXU 310700Z 12011KT 12SM SCT010 OVC018 M02/M05 A2973 RMK SC3SC5 SLP080=

CYXU;2005-12-31 09:15;SPECI CYXU 310915Z 10015KT 10SM -SHSN BKN009 OVC016TCU M02/ RMK SC5TCU3=

CYXU;2005-12-31 10:00;METAR CYXU 311000Z 10012KT 1 1/2SM -SHSN BKN009 OVC016TCU M02/M04 A2965 RMK SC6TCU2 SLP051=

CYXU;2005-12-31 11:00;METAR CYXU 311100Z 10014KT 1 1/2SM -SHSN BKN008 OVC020TCU M02/M04 A2963 RMK SC6TCU2 SLP047=

CYXU;2005-12-31 12:00;METAR CYXU 311200Z 09011KT 1 1/2SM -SHSN BKN008 OVC020TCU M02/M05 A2963 RMK SC6TCU2 SLP044=

CYXU;2005-12-31 12:15;SPECI CYXU 311215Z 10013KT 2SM -SHSN BKN009 OVC020TCU M02/ RMK SC7TCU1=

CYXU;2005-12-31 12:48;SPECI CYXU 311248Z 09012KT 3SM -SHSN BKN009 OVC020TCU M02/ RMK SC7TCU1=

CYXU;2005-12-31 13:00;METAR CYXU 311300Z 09013KT 4SM -SHSN BKN009 OVC021TCU M02/M05 A2962 RMK SC6TCU2 SLP040=

CYXU;2005-12-31 13:18;SPECI CYXU 311318Z 10013KT 4SM -SHSN SCT008 OVC018TCU M02/ RMK SC4TCU4=

CYXU;2005-12-31 13:45;SPECI CYXU 311345Z 09013KT 2 1/2SM -SHSN SCT008 OVC014TCU M02/ RMK SC4TCU4=

CYXU;2005-12-31 14:33;SPECI CYXU 311433Z 09011KT 5SM -SHSN OVC008TCU M03/ RMK TCU8=

CYXU;2005-12-31 15:00;METAR CYXU 311500Z 09012KT 3SM -SHSN OVC007TCU M03/M05 A2963 RMK TCU8 SLP046=

CYXU;2005-12-31 15:29;SPECI CYXU 311529Z 09012KT 2 1/2SM -SHSN OVC006TCU M03/ RMK TCU8=

CYXU;2005-12-31 15:51;SPECI CYXU 311551Z 09010KT 2 1/2SM -SHSN OVC008TCU M02/ RMK TCU8=

CYXU;2005-12-31 16:00;METAR CYXU 311600Z 10009KT 2SM -SHSN OVC008TCU M02/M05 A2962 RMK TCU8 SLP042=

CYXU;2005-12-31 16:12;SPECI CYXU 311612Z 09010KT 4SM -SHSN OVC010TCU M02/ RMK TCU8=

CYXU;2005-12-31 16:27;SPECI CYXU 311627Z 09010KT 4SM -SHSN OVC007TCU M02/ RMK TCU8=

CYXU;2005-12-31 17:00;METAR CYXU 311700Z 11008KT 5SM -SHSN OVC007TCU M02/M04 A2960 RMK TCU8 SLP037=

CYXU;2005-12-31 17:36;SPECI CYXU 311736Z 11008KT 2 1/2SM -SHSN OVC008TCU M02/ RMK TCU8=

CYXU;2005-12-31 18:00;METAR CYXU 311800Z 11007KT 2 1/2SM -SHSN OVC008TCU M02/M04 A2960 RMK TCU8 SLP035=

CYXU;2005-12-31 18:31;SPECI CYXU 311831Z 11006KT 2 1/2SM -SHSN OVC006TCU M02/ RMK TCU8=

CYXU;2005-12-31 18:47;SPECI CYXU 311847Z 10007KT 2SM -SHSN OVC006TCU M02/ RMK TCU8=

CYXU;2005-12-31 19:00;METAR CYXU 311900Z 10004KT 1SM R15/P6000FT/D -SHSN OVC006TCU M02/M04 A2961 RMK SN2TCU6 SLP038=

CYXU;2005-12-31 19:19;SPECI CYXU 311919Z 11005KT 1SM R15/P6000FT/N -SHSN OVC008TCU M02/ RMK SN2TCU6=

CYXU;2005-12-31 20:00;METAR CYXU 312000Z 11003KT 1 1/2SM -SN OVC008 M01/M03 A2963 RMK SN3NS5 SLP044=

CYXU;2005-12-31 20:53;SPECI CYXU 312053Z 11002KT 1SM R15/P6000FT/N -SN OVC007 M01/ RMK SN3NS5=

CYXU;2005-12-31 21:00;METAR CYXU 312100Z 11002KT 1SM R15/P6000FT/N -SN OVC006 M01/M03 A2965 RMK SN3NS5 SLP051=

CYXU;2005-12-31 22:00;METAR CYXU 312200Z 13002KT 1 1/2SM -SN OVC005 M01/M02 A2967 RMK SN3NS5 /S02/ SLP057=

CYXU;2005-12-31 22:54;SPECI CYXU 312254Z 20002KT 1SM R15/P6000FT/U -SN BR OVC003 M00/ RMK SN3NS5=

CYXU;2005-12-31 23:34;SPECI CYXU 312334Z 25008KT 3SM -SN BR OVC004 01/ RMK SN2NS6 PCPN VRY LGT=

