CYSC;2003-08-15 00:00;METAR CYSC 150000Z AUTO 26002KT 9SM CLR 17/14 A3021 RMK SLP231
CYSC;2003-08-15 02:00;METAR CYSC 150200Z AUTO 00000KT 9SM CLR 14/13 A3022 RMK SLP235
CYSC;2003-08-15 03:00;METAR CYSC 150300Z AUTO 11002KT 9SM CLR 14/13 A3022 RMK SLP235
CYSC;2003-08-15 04:00;METAR CYSC 150400Z AUTO 00000KT 9SM CLR 13/12 A3021 RMK SLP233
CYSC;2003-08-15 05:00;METAR CYSC 150500Z AUTO 00000KT 9SM CLR 13/12 A3020 RMK SLP230
CYSC;2003-08-15 06:00;METAR CYSC 150600Z AUTO 09003KT 9SM CLR 13/12 A3019 RMK SLP224
CYSC;2003-08-15 07:00;METAR CYSC 150700Z AUTO 09002KT 9SM SCT032 SCT047 14/13 A3017 RMK SLP219
CYSC;2003-08-15 08:00;METAR CYSC 150800Z AUTO 08002KT 9SM CLR 13/12 A3017 RMK SLP217
CYSC;2003-08-15 09:00;METAR CYSC 150900Z AUTO 08003KT 9SM CLR 13/12 A3016 RMK SLP214
CYSC;2003-08-15 10:00;METAR CYSC 151000Z AUTO 11002KT 9SM CLR 13/12 A3015 RMK SLP211
CYSC;2003-08-15 11:00;METAR CYSC 151100Z AUTO 00000KT 9SM CLR 15/13 A3015 RMK SLP211
CYSC;2003-08-15 12:00;METAR CYSC 151200Z 00000KT 15SM FEW063 FEW140 SCT240 16/14 A3014 RMK SC2AC1CI1 SLP209
CYSC;2003-08-15 13:00;METAR CYSC 151300Z 00000KT 15SM FEW035 FEW065 SCT120 20/16 A3012 RMK CU1SC1AC2 SLP203
CYSC;2003-08-15 14:00;METAR CYSC 151400Z 22006KT 15SM FEW120 FEW240 23/18 A3011 RMK AC1CI2 SLP198
CYSC;2003-08-15 15:00;METAR CYSC 151500Z 24006KT 15SM FEW038 BKN220 24/18 A3009 RMK SC2CI4 SLP191
CYSC;2003-08-15 16:00;METAR CYSC 151600Z 20008KT 15SM FEW035 FEW092 BKN240 27/20 A3007 RMK CU1AC2CI2 SLP184
CYSC;2003-08-15 17:00;METAR CYSC 151700Z 23009KT 15SM FEW035 FEW053 SCT083 BKN240 28/17 A3005 RMK CU1SC2AC2CI1 SLP178
CYSC;2003-08-15 18:00;METAR CYSC 151800Z 26010G15KT 15SM FEW038 FEW053 FEW120 SCT220 28/15 A3004 RMK CU1SC1AC2CI0 SLP172
CYSC;2003-08-15 19:00;METAR CYSC 151900Z 23008KT 15SM FEW035 FEW120 SCT240 28/16 A3001 RMK CU1AC1CI0 SLP162
CYSC;2003-08-15 20:00;METAR CYSC 152000Z 23008KT 15SM FEW240 28/16 A2998 RMK CI1 SLP152
CYSC;2003-08-15 21:00;METAR CYSC 152100Z 23009KT 15SM FEW240 28/16 A2995 RMK CI1 LAST MANNED OB/NEXT 161200 SLP143
CYSC;2003-08-15 22:00;METAR CYSC 152200Z AUTO 26006KT 9SM FEW050 27/17 A2993 RMK SLP137
CYSC;2003-08-15 23:00;METAR CYSC 152300Z AUTO 26006KT 9SM CLR 26/18 A2992 RMK SLP132
CYSC;2003-08-16 00:00;METAR CYSC 160000Z AUTO 24003KT 9SM CLR 24/18 A2991 RMK SLP128
CYSC;2003-08-16 01:00;METAR CYSC 160100Z AUTO 17003KT 9SM CLR 22/18 A2991 RMK SLP128
CYSC;2003-08-16 02:00;METAR CYSC 160200Z AUTO 22003KT 9SM FEW065 22/18 A2990 RMK SLP124
CYSC;2003-08-16 03:00;METAR CYSC 160300Z AUTO 20004KT 9SM FEW070 21/18 A2988 RMK SLP117
CYSC;2003-08-16 04:00;METAR CYSC 160400Z AUTO 19003KT 9SM FEW073 20/17 A2985 RMK SLP109
CYSC;2003-08-16 05:00;METAR CYSC 160500Z AUTO 20003KT 9SM FEW073 20/17 A2984 RMK SLP103
CYSC;2003-08-16 06:00;METAR CYSC 160600Z AUTO 17002KT 9SM FEW075 20/17 A2982 RMK SLP097
CYSC;2003-08-16 07:00;METAR CYSC 160700Z AUTO 22003KT 9SM CLR 19/17 A2979 RMK SLP088
CYSC;2003-08-16 08:00;METAR CYSC 160800Z AUTO 22003KT 8SM FEW080 20/17 A2977 RMK SLP080
CYSC;2003-08-16 09:00;METAR CYSC 160900Z AUTO 23004KT 6SM FEW076 FEW087 20/18 A2975 RMK SLP072
CYSC;2003-08-16 10:00;METAR CYSC 161000Z AUTO 24003KT 6SM FEW040 FEW070 FEW085 20/18 A2973 RMK SLP067
CYSC;2003-08-16 11:00;METAR CYSC 161100Z AUTO 25005KT 6SM CLR 21/18 A2973 RMK SLP065
CYSC;2003-08-16 12:00;METAR CYSC 161200Z 21007KT 10SM BKN023 BKN060 22/18 A2971 RMK SC5SC2 HAZY SLP059
CYSC;2003-08-16 13:00;METAR CYSC 161300Z 21006KT 10SM BKN020 OVC050 22/18 A2970 RMK SC7SC1 HAZY SLP055
CYSC;2003-08-16 14:00;METAR CYSC 161400Z CCA 25010G15KT 4SM -SHRA BR FEW011 SCT016 BKN033 21/19 A2970 RETSRA RMK CF1CF2SC4 SLP055
CYSC;2003-08-16 15:00;METAR CYSC 161500Z 26009G16KT 10SM SCT017 SCT056 BKN240 23/20 A2970 RMK CU3SC1CI0 HAZY SLP056
CYSC;2003-08-16 16:00;METAR CYSC 161600Z 25012G19KT 15SM BKN025 BKN240 24/19 A2968 RMK CU5CI0 TCU ASOCTD SLP050
CYSC;2003-08-16 17:00;METAR CYSC 161700Z 26009G16KT 15SM FEW017 SCT030 SCT050 22/18 A2969 RMK CF1CU2SC1 TCU ALL QUAD SLP054
CYSC;2003-08-16 18:00;METAR CYSC 161800Z 29015G24KT 15SM SCT030 SCT065 24/17 A2970 RMK CU3SC1 TCU ASOCTD SLP055
CYSC;2003-08-16 19:00;METAR CYSC 161900Z 29015G20KT 15SM FEW031 SCT065 BKN090 22/17 A2972 RMK CU2SC2AC1 SLP061
CYSC;2003-08-16 20:00;METAR CYSC 162000Z 30007KT 15SM -SHRA SCT017 BKN024 BKN069 22/17 A2974 RMK CF3SC3AC1 SLP068
CYSC;2003-08-16 21:00;METAR CYSC 162100Z 31006KT 15SM FEW026 FEW057 24/16 A2973 RMK CU2SC1 LAST MANNED OB/NEXT 171200 SLP067
CYSC;2003-08-16 22:00;METAR CYSC 162200Z AUTO 29008KT 9SM FEW036 FEW044 FEW056 23/17 A2973 RMK SLP066
CYSC;2003-08-16 23:00;METAR CYSC 162300Z AUTO 31008G17KT 9SM -RA FEW037 FEW067 FEW094 21/15 A2976 RMK SLP078
CYSC;2003-08-17 00:00;METAR CYSC 170000Z AUTO 33002KT 9SM OVC065 19/16 A2978 RMK SLP085
CYSC;2003-08-17 01:00;METAR CYSC 170100Z AUTO 34003KT 9SM OVC082 19/15 A2981 RMK SLP094
CYSC;2003-08-17 02:00;METAR CYSC 170200Z AUTO 02003KT 9SM FEW041 18/15 A2980 RMK SLP093
CYSC;2003-08-17 04:00;METAR CYSC 170400Z AUTO 26003KT 9SM CLR 16/14 A2983 RMK SLP103
CYSC;2003-08-17 05:00;METAR CYSC 170500Z AUTO 16002KT 9SM CLR 14/13 A2984 RMK SLP107
CYSC;2003-08-17 06:00;METAR CYSC 170600Z AUTO 28002KT 6SM BKN012 14/13 A2984 RMK SLP105
CYSC;2003-08-17 07:00;METAR CYSC 170700Z AUTO 30004KT 8SM OVC008 16/15 A2984 RMK SLP106
CYSC;2003-08-17 08:00;METAR CYSC 170800Z AUTO 21003KT 9SM OVC010 16/15 A2987 RMK SLP114
CYSC;2003-08-17 09:00;METAR CYSC 170900Z AUTO 00000KT 9SM OVC010 17/15 A2988 RMK SLP118
CYSC;2003-08-17 10:00;METAR CYSC 171000Z AUTO 26003KT 5SM OVC009 16/15 A2991 RMK SLP128
CYSC;2003-08-17 11:00;METAR CYSC 171100Z AUTO 27004KT 2 1/2SM BKN003 OVC012 16/15 A2993 RMK SLP137
CYSC;2003-08-17 13:00;METAR CYSC 171300Z 26002KT 10SM OVC005 17/15 A2995 RMK CF8 SLP142
CYSC;2003-08-17 14:00;METAR CYSC 171400Z 25002KT 12SM FEW008 OVC015 18/16 A2995 RMK CF2SC6 SLP144
CYSC;2003-08-17 15:00;METAR CYSC 171500Z 00000KT 15SM SCT009 BKN016 OVC030 18/15 A2997 RMK CF3SC4SC1 SLP149
CYSC;2003-08-17 16:00;METAR CYSC 171600Z 22002KT 15SM SCT016 SCT042 BKN240 21/16 A2996 RMK CU3SC1CI0 SLP147
CYSC;2003-08-17 17:00;METAR CYSC 171700Z 21005KT 15SM FEW019 FEW040 SCT240 22/16 A2995 RMK CU2SC1CI0 SLP144
CYSC;2003-08-17 18:00;METAR CYSC 171800Z 27003KT 15SM SCT022 22/16 A2995 RMK CU3 SLP145
CYSC;2003-08-17 19:00;METAR CYSC 171900Z 30004KT 15SM FEW026 SCT056 SCT240 23/16 A2995 RMK CU2SC1CI0 TCU ASOCTD SLP143
CYSC;2003-08-17 20:00;METAR CYSC 172000Z 04006KT 12SM SHRA SCT012 BKN025 19/16 A2996 RMK CF4SC2 TCU EMBDD SLP147
CYSC;2003-08-17 21:00;METAR CYSC 172100Z 08002KT 15SM BKN031 BKN077 19/17 A2997 RMK SC6AC1 LAST MANNED OB/NEXT 181200 TCU EMBDD SLP149
CYSC;2003-08-17 22:00;METAR CYSC 172200Z AUTO 00000KT 9SM FEW086 BKN099 19/17 A2997 RMK SLP149
CYSC;2003-08-17 23:00;METAR CYSC 172300Z AUTO 14002KT 9SM CLR 19/18 A2997 RMK SLP151
CYSC;2003-08-18 00:00;METAR CYSC 180000Z AUTO 08003KT 8SM FEW024 SCT050 18/17 A2998 RMK SLP154
CYSC;2003-08-18 01:00;METAR CYSC 180100Z AUTO 06002KT 9SM CLR 18/17 A2999 RMK SLP157
CYSC;2003-08-18 02:00;METAR CYSC 180200Z AUTO 10002KT 7SM CLR 17/16 A3000 RMK SLP162
CYSC;2003-08-18 03:00;METAR CYSC 180300Z AUTO 04003KT 9SM CLR 17/16 A3000 RMK SLP161
CYSC;2003-08-18 04:00;METAR CYSC 180400Z AUTO 06005KT 9SM FEW074 SCT088 17/15 A3001 RMK SLP164
CYSC;2003-08-18 05:00;METAR CYSC 180500Z AUTO 09004KT 9SM SCT090 16/15 A3002 RMK SLP168
CYSC;2003-08-18 06:00;METAR CYSC 180600Z AUTO 06005KT 9SM CLR 15/14 A3003 RMK SLP169
CYSC;2003-08-18 07:00;METAR CYSC 180700Z AUTO 09003KT 9SM CLR 15/14 A3003 RMK SLP171
CYSC;2003-08-18 08:00;METAR CYSC 180800Z AUTO 07004KT 6SM FEW063 14/13 A3004 RMK SLP177
CYSC;2003-08-18 09:00;METAR CYSC 180900Z AUTO 09006KT 1/2SM BKN000 BKN072 14/13 A3005 RMK SLP178
CYSC;2003-08-18 10:00;METAR CYSC 181000Z AUTO 09004KT 1/8SM OVC000 13/13 A3007 RMK SLP185
CYSC;2003-08-18 11:00;METAR CYSC 181100Z AUTO 09004KT 1/8SM OVC000 13/13 A3008 RMK SLP189
CYSC;2003-08-18 12:00;METAR CYSC 181200Z 06003KT 10SM SCT001 SCT025 15/14 A3009 RMK CF3SC1 SLP192
CYSC;2003-08-18 13:00;METAR CYSC 181300Z 06002KT 15SM FEW100 17/15 A3010 RMK AC1 SLP194
CYSC;2003-08-18 14:00;METAR CYSC 181400Z 00000KT 15SM FEW020 20/16 A3010 RMK CU1 SLP195
CYSC;2003-08-18 15:00;METAR CYSC 181500Z 24002KT 15SM SCT025 21/16 A3009 RMK CU3 SLP191
CYSC;2003-08-18 16:00;METAR CYSC 181600Z 29004KT 15SM FEW034 23/15 A3009 RMK CU2 SLP189
CYSC;2003-08-18 17:00;METAR CYSC 181700Z 31002KT 15SM FEW037 24/16 A3008 RMK CU2 SLP186
CYSC;2003-08-18 18:00;METAR CYSC 181800Z 32003KT 15SM FEW043 24/16 A3008 RMK CU2 TCU ASOCTD SLP187
CYSC;2003-08-18 19:00;METAR CYSC 181900Z 32007KT 15SM FEW045 25/14 A3007 RMK CU2 SLP184
CYSC;2003-08-18 20:00;METAR CYSC 182000Z 33005KT 15SM FEW050 25/14 A3006 RMK CU1 SLP181
CYSC;2003-08-18 21:00;METAR CYSC 182100Z 32007KT 15SM FEW048 25/13 A3006 RMK CU1 LAST MANNED OB/NEXT 191200 SLP181
CYSC;2003-08-18 22:00;METAR CYSC 182200Z AUTO 31005KT 9SM FEW053 24/12 A3006 RMK SLP182
CYSC;2003-08-18 23:00;METAR CYSC 182300Z AUTO 29005KT 9SM CLR 22/13 A3007 RMK SLP185
CYSC;2003-08-19 00:00;METAR CYSC 190000Z AUTO 00000KT 9SM CLR 16/14 A3007 RMK SLP188
CYSC;2003-08-19 01:00;METAR CYSC 190100Z AUTO 25002KT 9SM CLR 14/12 A3009 RMK SLP193
CYSC;2003-08-19 02:00;METAR CYSC 190200Z AUTO 00000KT 9SM CLR 13/12 A3010 RMK SLP195
CYSC;2003-08-19 03:00;METAR CYSC 190300Z AUTO 00000KT 9SM CLR 13/12 A3011 RMK SLP200
CYSC;2003-08-19 04:00;METAR CYSC 190400Z AUTO 08002KT 9SM FEW061 12/11 A3011 RMK SLP201
CYSC;2003-08-19 05:00;METAR CYSC 190500Z AUTO 11002KT 9SM FEW055 13/12 A3011 RMK SLP199
CYSC;2003-08-19 06:00;METAR CYSC 190600Z AUTO 00000KT 9SM FEW042 12/11 A3010 RMK SLP196
CYSC;2003-08-19 07:00;METAR CYSC 190700Z AUTO 09003KT 9SM CLR 12/11 A3009 RMK SLP192
CYSC;2003-08-19 08:00;METAR CYSC 190800Z AUTO 00000KT 9SM CLR 11/10 A3010 RMK SLP194
CYSC;2003-08-19 09:00;METAR CYSC 190900Z AUTO 13002KT 7SM CLR 10/09 A3010 RMK SLP196
CYSC;2003-08-19 10:00;METAR CYSC 191000Z AUTO 00000KT 3 1/2SM CLR 10/09 A3011 RMK SLP200
CYSC;2003-08-19 11:00;METAR CYSC 191100Z AUTO 09002KT 9SM CLR 13/12 A3012 RMK SLP204
CYSC;2003-08-19 12:00;METAR CYSC 191200Z 23002KT 15SM FEW240 17/14 A3013 RMK CI1 SLP206
CYSC;2003-08-19 13:00;METAR CYSC 191300Z 20004KT 15SM FEW240 20/16 A3012 RMK CI1 SLP202
CYSC;2003-08-19 14:00;METAR CYSC 191400Z 26007KT 15SM FEW240 22/17 A3011 RMK CI1 SLP200
CYSC;2003-08-19 15:00;METAR CYSC 191500Z 25008KT 15SM FEW030 FEW180 25/17 A3010 RMK CU1AC1 SLP195
CYSC;2003-08-19 16:00;METAR CYSC 191600Z 25013G20KT 15SM FEW035 FEW240 26/15 A3009 RMK CU1CI0 SLP191
CYSC;2003-08-19 17:00;METAR CYSC 191700Z 26012G18KT 15SM FEW039 FEW240 26/15 A3008 RMK CU1CI1 CU TR SLP189
CYSC;2003-08-19 18:00;METAR CYSC 191800Z 27011G16KT 15SM FEW040 FEW200 26/15 A3008 RMK CU1CI1 SLP185
CYSC;2003-08-19 19:00;METAR CYSC 191900Z 26014KT 15SM FEW045 FEW200 26/13 A3006 RMK CU1CI1 SLP179
CYSC;2003-08-19 20:00;METAR CYSC 192000Z 25012G19KT 15SM FEW045 FEW240 26/11 A3008 RMK CU1CI1 SLP186
CYSC;2003-08-19 21:00;METAR CYSC 192100Z 26011G19KT 15SM FEW200 26/11 A3005 RMK CI1 LAST MANNED OB/NEXT 201200 SLP178
CYSC;2003-08-19 22:00;METAR CYSC 192200Z AUTO 28006KT 9SM CLR 25/12 A3005 RMK SLP179
CYSC;2003-08-19 23:00;METAR CYSC 192300Z AUTO 25006KT 9SM CLR 23/13 A3005 RMK SLP179
CYSC;2003-08-20 00:00;METAR CYSC 200000Z AUTO 26006KT 9SM CLR 21/13 A3005 RMK SLP178
CYSC;2003-08-20 01:00;METAR CYSC 200100Z AUTO 25006KT 9SM FEW090 22/13 A3007 RMK SLP183
CYSC;2003-08-20 02:00;METAR CYSC 200200Z AUTO 24005KT 9SM SCT054 SCT065 SCT090 22/14 A3008 RMK SLP185
CYSC;2003-08-20 03:00;METAR CYSC 200300Z AUTO 25006KT 9SM SCT065 22/14 A3008 RMK SLP184
CYSC;2003-08-20 04:00;METAR CYSC 200400Z AUTO 24005KT 9SM FEW065 FEW080 21/14 A3008 RMK SLP187
CYSC;2003-08-20 05:00;METAR CYSC 200500Z AUTO 24006KT 9SM FEW050 FEW069 21/15 A3007 RMK SLP181
CYSC;2003-08-20 06:00;METAR CYSC 200600Z AUTO 23004KT 9SM SCT047 SCT067 21/15 A3007 RMK SLP182
CYSC;2003-08-20 07:00;METAR CYSC 200700Z AUTO 25002KT 9SM FEW046 SCT060 20/15 A3007 RMK SLP182
CYSC;2003-08-20 08:00;METAR CYSC 200800Z AUTO 24002KT 9SM SCT044 SCT068 20/15 A3007 RMK SLP181
CYSC;2003-08-20 09:00;METAR CYSC 200900Z AUTO 24003KT 9SM SCT046 SCT062 19/15 A3007 RMK SLP182
CYSC;2003-08-20 10:00;METAR CYSC 201000Z AUTO 00000KT 9SM FEW046 16/14 A3007 RMK SLP186
CYSC;2003-08-20 11:00;METAR CYSC 201100Z AUTO 00000KT 9SM FEW054 FEW069 18/16 A3009 RMK SLP190
CYSC;2003-08-20 12:00;METAR CYSC 201200Z 21003KT 15SM BKN025 BKN049 21/16 A3010 RMK SC5SC2 SLP193
CYSC;2003-08-20 13:00;METAR CYSC 201300Z 25005KT 15SM FEW025 BKN043 BKN079 BKN099 23/17 A3011 RMK SC2SC2AC1AC1 SLP196
CYSC;2003-08-20 14:00;METAR CYSC 201400Z CCA 21005KT 4SM -TSRA BR SCT007 BKN021 OVC040 18/16 A3013 RMK CF3SC4SC1 CB EMBDD RERA SLP202
CYSC;2003-08-20 15:00;METAR CYSC 201500Z CCA 22003KT 10SM -SHRA FEW020 BKN031 OVC061 19/17 A3012 RMK CF2SC5SC1 VSBY W QUAD 3 RETS RERA SLP199
CYSC;2003-08-20 16:00;METAR CYSC 201600Z 24003KT 15SM FEW035 SCT055 BKN080 BKN098 20/19 A3009 RMK SC2SC2AC2AC1 CU ASOCTD SLP191
CYSC;2003-08-20 17:00;METAR CYSC 201700Z 24004KT 15SM FEW025 BKN037 BKN072 23/19 A3010 RMK CU1SC5AC2 SLP192
CYSC;2003-08-20 18:00;METAR CYSC 201800Z 24003KT 15SM FEW048 BKN070 BKN099 24/19 A3009 RMK SC2AC2AC1 SLP190
CYSC;2003-08-20 19:00;METAR CYSC 201900Z 26006KT 15SM FEW048 SCT066 SCT099 26/18 A3008 RMK SC1AC2AC1 SLP184
CYSC;2003-08-20 20:00;METAR CYSC 202000Z 29008KT 15SM FEW041 SCT071 BKN100 26/18 A3007 RMK SC1AC2AC2 SLP181
CYSC;2003-08-20 21:00;METAR CYSC 202100Z 27006KT 15SM -RA FEW043 BKN063 BKN099 25/18 A3006 RMK SC2SC2AC1 LAST MANNED OB/NEXT 211200 SLP179
CYSC;2003-08-20 22:00;METAR CYSC 202200Z AUTO 27007KT 9SM CLR 25/18 A3006 RMK SLP180
CYSC;2003-08-20 23:00;METAR CYSC 202300Z AUTO 23003KT 9SM CLR 24/19 A3006 RMK SLP181
CYSC;2003-08-21 00:00;METAR CYSC 210000Z AUTO 19003KT 9SM CLR 22/18 A3007 RMK SLP183
CYSC;2003-08-21 01:00;METAR CYSC 210100Z AUTO 17003KT 9SM CLR 21/18 A3008 RMK SLP186
CYSC;2003-08-21 03:00;METAR CYSC 210300Z AUTO 00000KT 9SM FEW077 19/17 A3006 RMK SLP182
CYSC;2003-08-21 04:00;METAR CYSC 210400Z AUTO 00000KT 7SM CLR 19/17 A3006 RMK SLP181
CYSC;2003-08-21 05:00;METAR CYSC 210500Z AUTO 11002KT 4SM CLR 17/16 A3007 RMK SLP184
CYSC;2003-08-21 06:00;METAR CYSC 210600Z AUTO 00000KT 8SM BKN059 BKN068 18/17 A3006 RMK SLP180
CYSC;2003-08-21 07:00;METAR CYSC 210700Z AUTO 00000KT 5SM FEW068 18/17 A3007 RMK SLP182
CYSC;2003-08-21 08:00;METAR CYSC 210800Z AUTO 14002KT 6SM BKN064 18/17 A3006 RMK SLP180
CYSC;2003-08-21 09:00;METAR CYSC 210900Z AUTO 00000KT 9SM FEW071 19/17 A3005 RMK SLP177
CYSC;2003-08-21 10:00;METAR CYSC 211000Z AUTO 00000KT 5SM CLR 17/16 A3006 RMK SLP181
CYSC;2003-08-21 11:00;METAR CYSC 211100Z AUTO 00000KT 1/2SM CLR 16/15 A3006 RMK VSBY VRBL 0.1V8.0 SLP181
CYSC;2003-08-21 12:00;METAR CYSC 211200Z 22003KT 15SM FEW040 FEW140 FEW220 21/17 A3006 RMK SC1AC1CI2 AC TR SLP180
CYSC;2003-08-21 13:00;METAR CYSC 211300Z 22005KT 15SM FEW045 FEW075 SCT240 22/17 A3005 RMK SC1AC1CI2 SLP175
CYSC;2003-08-21 14:00;METAR CYSC 211400Z 20006KT 15SM FEW047 FEW067 SCT099 25/17 A3002 RMK SC2AC1AC2 SLP167
CYSC;2003-08-21 15:00;METAR CYSC 211500Z 21008KT 15SM FEW040 FEW061 FEW098 SCT240 24/17 A3001 RMK SC1SC1AC1CI0 SLP161
CYSC;2003-08-21 16:00;METAR CYSC 211600Z 22005KT 15SM FEW041 FEW074 FEW110 27/17 A2999 RMK CU1AC1AC2 CU TR SLP156
CYSC;2003-08-21 17:00;METAR CYSC 211700Z 24005KT 15SM FEW045 FEW100 FEW240 27/17 A2998 RMK CU1AC1CI0 CU TR SLP151
CYSC;2003-08-21 18:00;METAR CYSC 211800Z 23008KT 15SM FEW045 FEW240 28/18 A2997 RMK CU1CI0 SLP146
CYSC;2003-08-21 19:00;METAR CYSC 211900Z 26006KT 15SM FEW036 FEW240 27/17 A2995 RMK CU2CI0 SLP139
CYSC;2003-08-21 20:00;METAR CYSC 212000Z 20005KT 15SM FEW045 FEW240 28/18 A2992 RMK CU1CI0 SLP132
CYSC;2003-08-21 21:00;METAR CYSC 212100Z 23005KT 15SM FEW045 FEW240 28/17 A2990 RMK CU1CI1 LAST MANNED OB/NEXT 221200 SLP124
CYSC;2003-08-21 22:00;METAR CYSC 212200Z AUTO 22005KT 9SM CLR 27/18 A2988 RMK SLP120
CYSC;2003-08-21 23:00;METAR CYSC 212300Z AUTO 25003KT 9SM CLR 26/18 A2988 RMK SLP118
CYSC;2003-08-22 00:00;METAR CYSC 220000Z AUTO 16002KT 8SM CLR 20/18 A2987 RMK SLP117
CYSC;2003-08-22 01:00;METAR CYSC 220100Z AUTO 17004KT 8SM CLR 20/17 A2988 RMK SLP117
CYSC;2003-08-22 03:00;METAR CYSC 220300Z AUTO 00000KT 3 1/2SM CLR 16/15 A2983 RMK SLP103
CYSC;2003-08-22 04:00;METAR CYSC 220400Z AUTO 00000KT 3 1/2SM CLR 16/15 A2983 RMK SLP103
CYSC;2003-08-22 05:00;METAR CYSC 220500Z AUTO 00000KT 1 3/4SM CLR 16/15 A2982 RMK SLP099
CYSC;2003-08-22 06:00;METAR CYSC 220600Z AUTO 00000KT 1 3/8SM FEW079 16/15 A2982 RMK SLP096
CYSC;2003-08-22 07:00;METAR CYSC 220700Z AUTO 12002KT 3 1/2SM BKN079 17/16 A2979 RMK SLP086
CYSC;2003-08-22 08:00;METAR CYSC 220800Z AUTO 00000KT 2 1/8SM CLR 16/15 A2975 RMK SLP073
CYSC;2003-08-22 09:00;METAR CYSC 220900Z AUTO 32004KT 3SM FEW090 17/16 A2973 RMK SLP067
CYSC;2003-08-22 10:00;METAR CYSC 221000Z AUTO 30002KT 2 1/2SM CLR 18/16 A2973 RMK SLP067
CYSC;2003-08-22 11:00;METAR CYSC 221100Z AUTO 21002KT 2 1/2SM CLR 19/18 A2973 RMK SLP068
CYSC;2003-08-22 12:00;METAR CYSC 221200Z 23003KT 4SM HZ FEW240 22/19 A2974 RMK CI1 SLP071
CYSC;2003-08-22 13:00;METAR CYSC 221300Z 25005KT 6SM HZ FEW020 SCT033 BKN240 24/19 A2975 RMK CF1SC2CI0 SLP074
CYSC;2003-08-22 14:00;METAR CYSC 221400Z 27007G16KT 8SM BKN028 OVC067 23/18 A2976 RMK SC6AC2 HAZY SLP076
CYSC;2003-08-22 15:00;METAR CYSC 221500Z CCA 25013KT 12SM SCT028 SCT084 24/18 A2976 RMK SC3AC1 CU ASOCTD HAZY SLP077
CYSC;2003-08-22 16:00;METAR CYSC 221600Z 27012G18KT 15SM FEW028 SCT081 25/18 A2975 RMK SC2AC1 CU ASOCTD SLP074
CYSC;2003-08-22 17:00;METAR CYSC 221700Z 25009KT 15SM SCT034 BKN054 25/18 A2975 RMK SC3SC2 CU ASOCTD SLP073
CYSC;2003-08-22 18:00;METAR CYSC 221800Z 24008G15KT 15SM FEW034 SCT068 26/18 A2973 RMK SC2AC2 CU ASOCTD SLP068
CYSC;2003-08-22 19:00;METAR CYSC 221900Z 26014KT 15SM FEW037 FEW063 25/17 A2972 RMK CU2SC1 SLP064
CYSC;2003-08-22 20:00;METAR CYSC 222000Z 25008KT 15SM FEW039 25/16 A2972 RMK CU2 SLP063
CYSC;2003-08-22 21:00;METAR CYSC 222100Z 26010KT 15SM FEW048 26/16 A2972 RMK CU2 LAST MANNED OB/NEXT 231200 SLP063
CYSC;2003-08-22 22:00;METAR CYSC 222200Z AUTO 27014KT 9SM FEW046 FEW061 25/15 A2972 RMK SLP063
CYSC;2003-08-22 23:00;METAR CYSC 222300Z AUTO 26007KT 9SM CLR 23/15 A2973 RMK SLP066
CYSC;2003-08-23 00:00;METAR CYSC 230000Z AUTO 28006KT 9SM FEW050 20/14 A2975 RMK SLP074
CYSC;2003-08-23 01:00;METAR CYSC 230100Z AUTO 26003KT 9SM CLR 17/13 A2977 RMK SLP081
CYSC;2003-08-23 02:00;METAR CYSC 230200Z AUTO 23003KT 9SM CLR 16/13 A2977 RMK SLP081
CYSC;2003-08-23 03:00;METAR CYSC 230300Z AUTO 22004KT 9SM CLR 17/12 A2976 RMK SLP079
CYSC;2003-08-23 04:00;METAR CYSC 230400Z AUTO 23005KT 9SM CLR 16/12 A2975 RMK SLP076
CYSC;2003-08-23 05:00;METAR CYSC 230500Z AUTO 23005KT 9SM FEW086 15/12 A2974 RMK SLP073
CYSC;2003-08-23 06:00;METAR CYSC 230600Z AUTO 26007KT 9SM FEW066 SCT077 17/12 A2974 RMK SLP070
CYSC;2003-08-23 07:00;METAR CYSC 230700Z AUTO 28009KT 9SM FEW079 FEW089 16/12 A2975 RMK SLP073
CYSC;2003-08-23 08:00;METAR CYSC 230800Z AUTO 28006KT 9SM CLR 15/12 A2975 RMK SLP076
CYSC;2003-08-23 09:00;METAR CYSC 230900Z AUTO 29008KT 9SM CLR 13/10 A2976 RMK SLP078
CYSC;2003-08-23 10:00;METAR CYSC 231000Z AUTO 23006KT 9SM CLR 12/09 A2978 RMK SLP087
CYSC;2003-08-23 11:00;METAR CYSC 231100Z AUTO 25007KT 9SM CLR 14/09 A2979 RMK SLP090
CYSC;2003-08-23 12:00;METAR CYSC 231200Z 27012G19KT 15SM FEW120 15/08 A2980 RMK AC1 SLP093
CYSC;2003-08-23 13:00;METAR CYSC 231300Z 28018KT 15SM FEW025 FEW120 16/07 A2981 RMK CU1AC1 CU TR SLP095
CYSC;2003-08-23 14:00;METAR CYSC 231400Z 28015G21KT 15SM FEW043 FEW120 17/07 A2980 RMK CU1AC1 AC TR SLP093
CYSC;2003-08-23 15:00;METAR CYSC 231500Z 28017G22KT 15SM FEW047 FEW120 18/07 A2981 RMK CU2AC1 SLP096
CYSC;2003-08-23 16:00;METAR CYSC 231600Z 28019G29KT 15SM SCT032 18/07 A2980 RMK CU4 SLP094
CYSC;2003-08-23 17:00;METAR CYSC 231700Z 28014G24KT 15SM BKN040 19/08 A2980 RMK CU5 SLP092
CYSC;2003-08-23 18:00;METAR CYSC 231800Z 28015G25KT 15SM BKN034 BKN250 18/07 A2980 RMK CU6CI1 SLP092
CYSC;2003-08-23 19:00;METAR CYSC 231900Z 29019G25KT 15SM BKN043 BKN250 19/06 A2979 RMK CU6CI1 SLP087
CYSC;2003-08-23 20:00;METAR CYSC 232000Z 32014G26KT 15SM SCT036 BKN084 BKN250 17/06 A2982 RMK CU3AC2CI1 SLP098
CYSC;2003-08-23 21:00;METAR CYSC 232100Z 02006KT 15SM FEW038 BKN080 BKN250 13/07 A2987 RMK CU2AC3CI1 LAST MANNED OB/NEXT 241200 SLP117
CYSC;2003-08-23 22:00;METAR CYSC 232200Z AUTO 36003KT 9SM FEW089 13/06 A2988 RMK SLP123
CYSC;2003-08-23 23:00;METAR CYSC 232300Z AUTO 35004KT 9SM FEW075 13/07 A2989 RMK SLP126
CYSC;2003-08-24 00:00;METAR CYSC 240000Z AUTO 31003KT 9SM OVC075 11/06 A2990 RMK SLP130
CYSC;2003-08-24 01:00;METAR CYSC 240100Z AUTO 00000KT 9SM OVC073 10/07 A2992 RMK SLP138
CYSC;2003-08-24 02:00;METAR CYSC 240200Z AUTO 00000KT 9SM FEW073 FEW094 07/05 A2993 RMK SLP139
CYSC;2003-08-24 03:00;METAR CYSC 240300Z AUTO 00000KT 9SM FEW066 FEW084 06/05 A2993 RMK SLP139
CYSC;2003-08-24 04:00;METAR CYSC 240400Z AUTO 00000KT 9SM FEW064 07/06 A2992 RMK SLP136
CYSC;2003-08-24 05:00;METAR CYSC 240500Z AUTO 22004KT 9SM FEW061 07/06 A2992 RMK SLP138
CYSC;2003-08-24 06:00;METAR CYSC 240600Z AUTO 26002KT 9SM FEW058 07/04 A2992 RMK SLP138
CYSC;2003-08-24 07:00;METAR CYSC 240700Z AUTO 23004KT 9SM CLR 07/04 A2993 RMK SLP139
CYSC;2003-08-24 08:00;METAR CYSC 240800Z AUTO 25004KT 9SM CLR 06/03 A2994 RMK SLP143
CYSC;2003-08-24 09:00;METAR CYSC 240900Z AUTO 23004KT 9SM CLR 04/02 A2995 RMK SLP149
CYSC;2003-08-24 10:00;METAR CYSC 241000Z AUTO 24006KT 9SM CLR 05/02 A2997 RMK SLP155
CYSC;2003-08-24 11:00;METAR CYSC 241100Z AUTO 26007KT 9SM CLR 07/03 A2997 RMK SLP156
CYSC;2003-08-24 12:00;METAR CYSC 241200Z 26008KT 15SM FEW120 09/03 A3000 RMK AC1 SLP163
CYSC;2003-08-24 13:00;METAR CYSC 241300Z 30011G19KT 15SM FEW025 FEW120 11/03 A3000 RMK CU1AC2 SLP163
CYSC;2003-08-24 14:00;METAR CYSC 241400Z 31011G20KT 15SM FEW030 FEW120 12/03 A2999 RMK CF1AC1 CF TR SLP162
CYSC;2003-08-24 15:00;METAR CYSC 241500Z 29011G16KT 15SM FEW120 FEW250 13/03 A2999 RMK AC1CI0 SLP162
CYSC;2003-08-24 16:00;METAR CYSC 241600Z 29013KT 15SM FEW035 15/04 A2997 RMK CF1 SLP155
CYSC;2003-08-24 17:00;METAR CYSC 241700Z 28012G17KT 15SM FEW035 16/04 A2995 RMK CF1 SLP148
CYSC;2003-08-24 18:00;METAR CYSC 241800Z 30013G19KT 15SM SKC 17/03 A2995 RMK SLP146
CYSC;2003-08-24 19:00;METAR CYSC 241900Z 28017KT 15SM FEW120 FEW250 18/02 A2993 RMK AC1CI0 SLP140
CYSC;2003-08-24 20:00;METAR CYSC 242000Z 30009G19KT 15SM FEW120 FEW250 18/02 A2992 RMK AC1CI0 SLP136
CYSC;2003-08-24 21:00;METAR CYSC 242100Z 28011KT 15SM FEW150 FEW250 19/04 A2991 RMK AC1CI0 LAST MANNED OB/NEXT 251200 SLP134
CYSC;2003-08-24 22:00;METAR CYSC 242200Z AUTO 30009G17KT 9SM FEW041 FEW072 FEW090 19/05 A2991 RMK SLP133
CYSC;2003-08-24 23:00;METAR CYSC 242300Z AUTO 29005KT 9SM CLR 16/05 A2991 RMK SLP135
CYSC;2003-08-25 00:00;METAR CYSC 250000Z AUTO 26006KT 9SM CLR 15/06 A2991 RMK SLP134
CYSC;2003-08-25 01:00;METAR CYSC 250100Z AUTO 28004KT 9SM CLR 11/07 A2992 RMK SLP139
CYSC;2003-08-25 02:00;METAR CYSC 250200Z AUTO 27004KT 9SM CLR 11/08 A2993 RMK SLP139
CYSC;2003-08-25 03:00;METAR CYSC 250300Z AUTO 26003KT 9SM CLR 11/08 A2993 RMK SLP138
CYSC;2003-08-25 04:00;METAR CYSC 250400Z AUTO 22002KT 9SM CLR 13/08 A2993 RMK SLP140
CYSC;2003-08-25 05:00;METAR CYSC 250500Z AUTO 00000KT 9SM CLR 12/09 A2994 RMK SLP141
CYSC;2003-08-25 06:00;METAR CYSC 250600Z AUTO 00000KT 9SM CLR 12/10 A2993 RMK SLP139
CYSC;2003-08-25 07:00;METAR CYSC 250700Z AUTO 21002KT 9SM OVC084 13/09 A2991 RMK SLP134
CYSC;2003-08-25 08:00;METAR CYSC 250800Z AUTO 21002KT 9SM FEW068 OVC082 13/10 A2992 RMK SLP133
CYSC;2003-08-25 09:00;METAR CYSC 250900Z AUTO 22003KT 9SM FEW062 BKN071 13/10 A2991 RMK SLP130
CYSC;2003-08-25 10:00;METAR CYSC 251000Z AUTO 25002KT 9SM FEW048 BKN066 13/10 A2991 RMK SLP131
CYSC;2003-08-25 11:00;METAR CYSC 251100Z AUTO 25005KT 9SM OVC054 14/11 A2991 RMK SLP132
CYSC;2003-08-25 12:00;METAR CYSC 251200Z 25006KT 15SM BKN032 OVC120 14/11 A2992 RMK SC6AC2 SLP133
CYSC;2003-08-25 13:00;METAR CYSC 251300Z 18002KT 15SM -RA BKN026 OVC120 14/11 A2992 RMK SC7AC1
CYSC;2003-08-25 14:00;METAR CYSC 251400Z 16003KT 15SM BKN030 OVC120 14/11 A2991 RMK SC6AC2 SLP130
CYSC;2003-08-25 15:00;METAR CYSC 251500Z CCA 00000KT 15SM -RA BKN027 OVC099 15/12 A2989
CYSC;2003-08-25 16:00;METAR CYSC 251600Z 18002KT 15SM BKN041 OVC082 15/13 A2989 RMK SC6AC2 SLP125
CYSC;2003-08-25 17:00;METAR CYSC 251700Z 23002KT 15SM -RA BKN032 OVC077 16/13 A2988 RMK SC6AC2 SLP122
CYSC;2003-08-25 18:00;METAR CYSC 251800Z 22003KT 15SM BKN032 OVC080 16/13 A2988 RMK SC6AC2 SLP120
CYSC;2003-08-25 19:00;METAR CYSC 251900Z 21003KT 15SM BKN026 OVC071 16/12 A2988 RMK SC7AC1
CYSC;2003-08-25 21:00;METAR CYSC 252100Z 19003KT 12SM OVC012 15/12 A2988 RMK SC8 LAST MANNED OB/NEXT 261200 SLP121
CYSC;2003-08-25 22:00;METAR CYSC 252200Z AUTO 00000KT 9SM OVC014 15/13 A2988 RMK SLP124
CYSC;2003-08-25 23:00;METAR CYSC 252300Z AUTO 00000KT 7SM OVC011 15/13 A2990 RMK SLP128
CYSC;2003-08-26 00:00;METAR CYSC 260000Z AUTO 00000KT 3SM OVC013 14/13 A2990 RMK SLP129
CYSC;2003-08-26 01:00;METAR CYSC 260100Z AUTO 00000KT 5SM OVC013 14/13 A2991 RMK SLP133
CYSC;2003-08-26 02:00;METAR CYSC 260200Z AUTO 00000KT 9SM OVC011 14/13 A2992 RMK SLP136
CYSC;2003-08-26 03:00;METAR CYSC 260300Z AUTO 00000KT 6SM OVC008 15/14 A2993 RMK SLP139
CYSC;2003-08-26 04:00;METAR CYSC 260400Z AUTO 00000KT 4SM BKN007 15/14 A2993 RMK SLP140
CYSC;2003-08-26 05:00;METAR CYSC 260500Z AUTO 00000KT 4SM OVC006 15/14 A2993 RMK SLP139 SLP140
CYSC;2003-08-26 07:00;METAR CYSC 260700Z AUTO 00000KT 5/8SM OVC000 OVC009 OVC019 15/14 A2992 RMK SLP137
CYSC;2003-08-26 08:00;METAR CYSC 260800Z AUTO 26002KT 2 1/4SM BKN005 OVC018 OVC061 15/14 A2992 RMK SLP136
CYSC;2003-08-26 09:00;METAR CYSC 260900Z AUTO 25002KT 2SM OVC005 OVC063 15/14 A2992 RMK SLP134
CYSC;2003-08-26 10:00;METAR CYSC 261000Z AUTO 27003KT 2 3/8SM OVC005 OVC019 15/15 A2992 RMK SLP134
CYSC;2003-08-26 11:00;METAR CYSC 261100Z AUTO 25002KT 2 1/2SM FEW006 OVC015 15/15 A2992 RMK SLP136
CYSC;2003-08-26 12:00;METAR CYSC 261200Z 26004KT 10SM SCT007 OVC013 16/15 A2992 RMK CF3CU5 SLP135
CYSC;2003-08-26 13:00;METAR CYSC 261300Z 29005KT 12SM BKN011 17/14 A2992 RMK CU7 SLP135
CYSC;2003-08-26 14:00;METAR CYSC 261400Z 28006KT 15SM FEW013 SCT031 SCT250 18/15 A2992 RMK CF1CU2CI0 SLP134
CYSC;2003-08-26 15:00;METAR CYSC 261500Z 25006KT 15SM SCT023 BKN250 20/13 A2991 RMK CU4CI0 SLP130
CYSC;2003-08-26 16:00;METAR CYSC 261600Z 28007KT 15SM SCT027 BKN250 20/13 A2990 RMK CU3CI1 SLP128
CYSC;2003-08-26 17:00;METAR CYSC 261700Z 27008KT 15SM SCT032 BKN250 22/13 A2988 RMK CU4CI1 SLP121
CYSC;2003-08-26 18:00;METAR CYSC 261800Z 23004KT 15SM SCT036 BKN250 22/13 A2985 RMK CU3CI1 SLP109
CYSC;2003-08-26 19:00;METAR CYSC 261900Z 27005KT 15SM FEW040 SCT250 23/14 A2983 RMK CU2CI1 SLP103
CYSC;2003-08-26 20:00;METAR CYSC 262000Z 31003KT 15SM FEW042 SCT084 BKN250 23/14 A2980 RMK CU2AC2CI1 SLP092
CYSC;2003-08-26 21:00;METAR CYSC 262100Z 15002KT 15SM FEW046 SCT110 BKN250 23/13 A2977 RMK CU1ACC2CI1 LAST MANNED OB/NEXT 271200 SLP082
CYSC;2003-08-26 22:00;METAR CYSC 262200Z AUTO 20002KT 9SM FEW043 FEW056 FEW089 SCT099 21/15 A2976 RMK SLP079
CYSC;2003-08-26 23:00;METAR CYSC 262300Z AUTO 13002KT 9SM BKN088 20/16 A2973 RMK SLP069
CYSC;2003-08-27 00:00;METAR CYSC 270000Z AUTO 12004KT 9SM BKN071 18/15 A2971 RMK SLP062
CYSC;2003-08-27 01:00;METAR CYSC 270100Z AUTO 16004KT 9SM -RA BKN026 OVC076 17/15 A2969 RMK SLP057
CYSC;2003-08-27 02:00;METAR CYSC 270200Z AUTO 13008KT 3 1/2SM RA FEW001 FEW020 FEW031 OVC040 17/15 A2965 RMK PCPN 2.0MM PAST HR SLP041
CYSC;2003-08-27 03:00;METAR CYSC 270300Z AUTO 05004KT 9SM OVC035 16/15 A2962 RMK SLP032
CYSC;2003-08-27 04:00;METAR CYSC 270400Z AUTO 35005KT 3SM -RA FEW013 OVC027 OVC074 16/15 A2960 RMK PCPN 2.0MM PAST HR SLP024
CYSC;2003-08-27 05:00;METAR CYSC 270500Z AUTO 00000KT 9SM OVC021 OVC036 17/16 A2960 RMK PCPN 2.5MM PAST HR SLP025
CYSC;2003-08-27 06:00;METAR CYSC 270600Z AUTO 25007KT 9SM BKN019 18/17 A2961 RMK SLP026
CYSC;2003-08-27 07:00;METAR CYSC 270700Z AUTO 25005KT 9SM CLR 18/17 A2960 RMK SLP023
CYSC;2003-08-27 08:00;METAR CYSC 270800Z AUTO 25006KT 9SM BKN014 BKN045 19/17 A2960 RMK SLP023
CYSC;2003-08-27 09:00;METAR CYSC 270900Z AUTO 25006KT 8SM BKN012 BKN078 BKN092 19/17 A2961 RMK SLP026
CYSC;2003-08-27 10:00;METAR CYSC 271000Z AUTO 26008KT 7SM FEW014 FEW041 FEW088 18/17 A2963 RMK SLP034
CYSC;2003-08-27 11:00;METAR CYSC 271100Z AUTO 26010KT 9SM BKN030 BKN091 18/16 A2965 RMK SLP042
CYSC;2003-08-27 12:00;METAR CYSC 271200Z 25007KT 15SM FEW016 FEW250 19/16 A2968 RMK CU2CI0 SLP052
CYSC;2003-08-27 13:00;METAR CYSC 271300Z 27012KT 15SM SCT019 SCT250 20/16 A2969 RMK CU3CI0 SLP056
CYSC;2003-08-27 14:00;METAR CYSC 271400Z 27012G19KT 15SM FEW030 FEW120 FEW250 21/15 A2969 RMK CU1AC1CI0 SLP056
CYSC;2003-08-27 15:00;METAR CYSC 271500Z 27012KT 15SM FEW036 FEW120 SCT250 22/15 A2969 RMK CU2AC1CI0 SLP056
CYSC;2003-08-27 16:00;METAR CYSC 271600Z 25012G22KT 15SM VCSH BKN038 BKN086 BKN250 23/14 A2968 RMK CU5AC1CI0 TCU ASOCTD N QUAD SLP050
CYSC;2003-08-27 17:00;METAR CYSC 271700Z 29014KT 3SM +TSRA BR FEW008CB BKN017TCU OVC099 16/13 A2972 RMK CB2TCU5AC1 SLP064
CYSC;2003-08-27 18:00;METAR CYSC 271800Z 27009KT 12SM SCT014TCU SCT250 18/16 A2972 RETSRA RMK TCU3CI0 SLP063
CYSC;2003-08-27 19:00;METAR CYSC 271900Z 27012G17KT 12SM -TSRA FEW011CB BKN020TCU BKN079 16/13 A2973 RERA RMK CB2TCU3AC2 CB ACTVTY SE QUAD SLP069
CYSC;2003-08-27 20:00;METAR CYSC 272000Z 27010KT 15SM FEW031 19/15 A2974 RETS RMK CU2 SLP070
CYSC;2003-08-27 21:00;METAR CYSC 272100Z 28015G22KT 15SM FEW047 20/11 A2976 RMK CU2 TCU ASOCTD LAST MANNED OB/NEXT 281200 SLP076
CYSC;2003-08-27 22:00;METAR CYSC 272200Z AUTO 28011G16KT 9SM CLR 19/09 A2978 RMK SLP085
CYSC;2003-08-27 23:00;METAR CYSC 272300Z AUTO 29005KT 9SM FEW058 17/10 A2980 RMK SLP092
CYSC;2003-08-28 00:00;METAR CYSC 280000Z AUTO 28006KT 9SM FEW067 15/10 A2983 RMK SLP104
CYSC;2003-08-28 01:00;METAR CYSC 280100Z AUTO 27005KT 9SM FEW061 FEW072 13/09 A2986 RMK SLP116
CYSC;2003-08-28 02:00;METAR CYSC 280200Z AUTO 27006KT 9SM FEW064 12/09 A2989 RMK SLP124
CYSC;2003-08-28 03:00;METAR CYSC 280300Z AUTO 29005KT 9SM BKN061 12/09 A2990 RMK SLP126
CYSC;2003-08-28 04:00;METAR CYSC 280400Z AUTO 27006KT 9SM CLR 11/09 A2991 RMK SLP130
CYSC;2003-08-28 05:00;METAR CYSC 280500Z AUTO 28006KT 9SM CLR 11/09 A2993 RMK SLP140
CYSC;2003-08-28 06:00;METAR CYSC 280600Z AUTO 30007KT 9SM SCT030 SCT047 11/09 A2994 RMK SLP143
CYSC;2003-08-28 07:00;METAR CYSC 280700Z AUTO 26003KT 9SM CLR 09/08 A2995 RMK SLP147
CYSC;2003-08-28 08:00;METAR CYSC 280800Z AUTO 28005KT 9SM BKN030 10/08 A2997 RMK SLP152
CYSC;2003-08-28 09:00;METAR CYSC 280900Z AUTO 26006KT 9SM OVC027 10/08 A2999 RMK SLP159
CYSC;2003-08-28 10:00;METAR CYSC 281000Z AUTO 28003KT 9SM OVC025 10/08 A3002 RMK SLP169
CYSC;2003-08-28 11:00;METAR CYSC 281100Z AUTO 29007KT 9SM OVC025 11/08 A3004 RMK SLP178
CYSC;2003-08-28 13:00;METAR CYSC 281300Z 30005KT 15SM OVC014 11/08 A3010 RMK SC8 SLP196
CYSC;2003-08-28 14:00;METAR CYSC 281400Z 27009KT 15SM OVC019 11/07 A3011 RMK SC8 SLP202
CYSC;2003-08-28 15:00;METAR CYSC 281500Z 28009KT 15SM BKN021 13/08 A3012 RMK SC7 CU EMBDD SLP205
CYSC;2003-08-28 16:00;METAR CYSC 281600Z 28010KT 15SM BKN023 14/09 A3013 RMK SC7 CU EMBDD SLP206
CYSC;2003-08-28 17:00;METAR CYSC 281700Z 30007KT 15SM BKN023 BKN089 14/08 A3012 RMK CU6AC1 SLP203
CYSC;2003-08-28 18:00;METAR CYSC 281800Z 29007KT 15SM BKN026 BKN082 15/08 A3011 RMK CU6AC1 SLP200
CYSC;2003-08-28 19:00;METAR CYSC 281900Z 30010KT 15SM BKN030 BKN096 15/09 A3011 RMK CU6AC1 SLP199
CYSC;2003-08-28 20:00;METAR CYSC 282000Z 28011KT 15SM BKN034 17/09 A3011 RMK CU6 SLP199
CYSC;2003-08-28 21:00;METAR CYSC 282100Z 29009KT 15SM BKN037 BKN093 16/09 A3012 RMK CU5AC1 LAST MANNED OB/NEXT 291200 SLP205
CYSC;2003-08-28 22:00;METAR CYSC 282200Z AUTO 25007KT 9SM FEW039 16/09 A3011 RMK SLP202
CYSC;2003-08-28 23:00;METAR CYSC 282300Z AUTO 26005KT 9SM CLR 14/09 A3011 RMK SLP200
CYSC;2003-08-29 00:00;METAR CYSC 290000Z AUTO 22003KT 9SM CLR 11/08 A3012 RMK SLP206
CYSC;2003-08-29 01:00;METAR CYSC 290100Z AUTO 20004KT 9SM CLR 11/08 A3013 RMK SLP208
CYSC;2003-08-29 02:00;METAR CYSC 290200Z AUTO 21003KT 9SM CLR 08/07 A3014 RMK SLP214
CYSC;2003-08-29 03:00;METAR CYSC 290300Z AUTO 00000KT 9SM CLR 06/05 A3014 RMK SLP214
CYSC;2003-08-29 04:00;METAR CYSC 290400Z AUTO 00000KT 9SM CLR 07/07 A3014 RMK SLP213
CYSC;2003-08-29 05:00;METAR CYSC 290500Z AUTO 00000KT 9SM CLR 07/07 A3016 RMK SLP220
CYSC;2003-08-29 06:00;METAR CYSC 290600Z AUTO 11002KT 9SM CLR 08/07 A3015 RMK SLP215
CYSC;2003-08-29 07:00;METAR CYSC 290700Z AUTO 00000KT 9SM CLR 08/08 A3014 RMK SLP212
CYSC;2003-08-29 08:00;METAR CYSC 290800Z AUTO 10003KT 9SM CLR 08/07 A3013 RMK SLP208
CYSC;2003-08-29 09:00;METAR CYSC 290900Z AUTO 00000KT 9SM CLR 08/07 A3011 RMK SLP202
CYSC;2003-08-29 10:00;METAR CYSC 291000Z AUTO 00000KT 8SM CLR 08/07 A3011 RMK SLP201
CYSC;2003-08-29 11:00;METAR CYSC 291100Z AUTO 00000KT 8SM CLR 09/08 A3011 RMK SLP202
CYSC;2003-08-29 12:00;METAR CYSC 291200Z 08002KT 15SM SCT120 BKN250 11/10 A3010 RMK AC4CI2 SLP197
CYSC;2003-08-29 13:00;METAR CYSC 291300Z 00000KT 15SM SCT120 BKN250 15/11 A3005 RMK AC3CI2 SLP183
CYSC;2003-08-29 14:00;METAR CYSC 291400Z 18009KT 15SM FEW120 BKN250 19/11 A3002 RMK AC2CI2 SLP173
CYSC;2003-08-29 15:00;METAR CYSC 291500Z 17012KT 15SM FEW041 SCT083 BKN250 20/11 A3000 RMK CU2AC2CI2 SLP163
CYSC;2003-08-29 16:00;METAR CYSC 291600Z 19008KT 15SM FEW033 SCT080 BKN250 22/14 A2998 RMK CU2AC2CI2 SLP156
CYSC;2003-08-29 17:00;METAR CYSC 291700Z 19009KT 15SM SCT039 BKN075 OVC250 21/14 A2995 RMK CU3AC2CI2 SLP145
CYSC;2003-08-29 18:00;METAR CYSC 291800Z 19007KT 12SM FEW035 BKN076 BKN250 21/15 A2989 RMK CU2AC2CI2 PRESFR SLP125
CYSC;2003-08-29 19:00;METAR CYSC 291900Z 21005KT 12SM -SHRA FEW046 BKN076 OVC250 20/16 A2990 RMK CU2AC3CI2 SLP127
CYSC;2003-08-29 20:00;METAR CYSC 292000Z 18006KT 8SM FEW036 BKN068 BKN250 21/16 A2984 RMK CU2AC3CI2 HAZY SLP108
CYSC;2003-08-29 21:00;METAR CYSC 292100Z 20008KT 8SM -TSRA FEW020CB SCT054TCU OVC110 22/17 A2984 RMK CB1TCU3AC4 RW- VRY LGT LAST MANNED OB/NEXT 301200 SLP106
CYSC;2003-08-29 22:00;METAR CYSC 292200Z AUTO 20007KT 5SM -RA BKN028 19/18 A2985 RMK PCPN 2.5MM PAST HR SLP111
CYSC;2003-08-29 23:00;METAR CYSC 292300Z AUTO 20007KT 3 1/2SM -RA BKN022 BKN038 OVC048 20/18 A2983 RMK PCPN 0.5MM PAST HR SLP107
CYSC;2003-08-30 00:00;METAR CYSC 300000Z AUTO 19006KT 4SM BKN022 BKN054 20/18 A2983 RMK SLP103
CYSC;2003-08-30 01:00;METAR CYSC 300100Z AUTO 21002KT 5SM FEW019 BKN030 20/18 A2984 RMK SLP106
CYSC;2003-08-30 02:00;METAR CYSC 300200Z AUTO 23002KT 4SM FEW032 20/19 A2984 RMK SLP105
CYSC;2003-08-30 03:00;METAR CYSC 300300Z AUTO 23008KT 3 1/2SM BKN026 20/19 A2984 RMK PCPN 0.5MM PAST HR SLP104
CYSC;2003-08-30 04:00;METAR CYSC 300400Z AUTO 22006KT 3 1/2SM FEW023 FEW078 20/19 A2985 RMK SLP107
CYSC;2003-08-30 05:00;METAR CYSC 300500Z AUTO 23005KT 3 1/2SM FEW022 FEW064 FEW071 20/19 A2984 RMK SLP105
CYSC;2003-08-30 06:00;METAR CYSC 300600Z AUTO 25008G15KT 6SM FEW017 FEW032 FEW059 20/18 A2985 RMK
CYSC;2003-08-30 07:00;METAR CYSC 300700Z AUTO 27010KT 9SM CLR 19/17 A2987 RMK SLP114
CYSC;2003-08-30 08:00;METAR CYSC 300800Z AUTO 25005KT 9SM OVC017 OVC029 18/16 A2987 RMK SLP117
CYSC;2003-08-30 09:00;METAR CYSC 300900Z AUTO 24006KT 9SM OVC014 18/16 A2990 RMK SLP127
CYSC;2003-08-30 10:00;METAR CYSC 301000Z AUTO 27006KT 9SM OVC012 OVC024 17/15 A2992 RMK SLP134
CYSC;2003-08-30 11:00;METAR CYSC 301100Z AUTO 31007KT 9SM OVC015 OVC054 16/13 A2996 RMK SLP149
CYSC;2003-08-30 12:00;METAR CYSC 301200Z 33008KT 15SM BKN013 OVC030 14/11 A3000 RMK SC6SC2 SLP162
CYSC;2003-08-30 13:00;METAR CYSC 301300Z 29007KT 15SM OVC023 14/11 A3002 RMK SC8 SLP169
CYSC;2003-08-30 14:00;METAR CYSC 301400Z 30005KT 15SM OVC018 14/10 A3005 RMK SC8 SLP176
CYSC;2003-08-30 15:00;METAR CYSC 301500Z 30009KT 15SM OVC023 14/10 A3007 RMK SC8 SLP184
CYSC;2003-08-30 16:00;METAR CYSC 301600Z 31007KT 15SM OVC020 13/09 A3009 RMK SC8 SLP191
CYSC;2003-08-30 17:00;METAR CYSC 301700Z 29006KT 15SM BKN018 14/09 A3011 RMK SC7 SLP197
CYSC;2003-08-30 18:00;METAR CYSC 301800Z 30010KT 15SM BKN023 14/08 A3012 RMK SC7 CU ASOCTD SLP201
CYSC;2003-08-30 19:00;METAR CYSC 301900Z 30007KT 15SM BKN024 BKN070 14/09 A3013 RMK SC6AC2 SLP206
CYSC;2003-08-30 20:00;METAR CYSC 302000Z 30009KT 15SM FEW018 BKN025 13/08 A3014 RMK CF2CU6 SLP208
CYSC;2003-08-30 21:00;METAR CYSC 302100Z 30006KT 15SM BKN030 BKN084 BKN250 14/08 A3016 RMK CU6AC1CI0 LAST MANNED OB/NEXT 311200 SLP216
CYSC;2003-08-30 22:00;METAR CYSC 302200Z AUTO 29005KT 9SM FEW040 13/08 A3017 RMK SLP220
CYSC;2003-08-30 23:00;METAR CYSC 302300Z AUTO 29003KT 9SM FEW045 12/08 A3017 RMK SLP222
CYSC;2003-08-31 00:00;METAR CYSC 310000Z AUTO 25002KT 9SM CLR 08/06 A3019 RMK SLP229
CYSC;2003-08-31 01:00;METAR CYSC 310100Z AUTO 21002KT 9SM CLR 07/05 A3021 RMK SLP238
CYSC;2003-08-31 02:00;METAR CYSC 310200Z AUTO 00000KT 9SM CLR 05/04 A3022 RMK SLP242
CYSC;2003-08-31 03:00;METAR CYSC 310300Z AUTO 00000KT 9SM CLR 05/04 A3023 RMK SLP244
CYSC;2003-08-31 04:00;METAR CYSC 310400Z AUTO 09002KT 3/4SM CLR 03/02 A3023 RMK VSBY VRBL 0.3V7.0 SLP246
CYSC;2003-08-31 05:00;METAR CYSC 310500Z AUTO 09002KT 4SM CLR 03/02 A3025 RMK SLP250
CYSC;2003-08-31 06:00;METAR CYSC 310600Z AUTO 00000KT 9SM CLR 03/02 A3026 RMK SLP254
CYSC;2003-08-31 07:00;METAR CYSC 310700Z AUTO 00000KT 9SM CLR 02/01 A3027 RMK SLP257
CYSC;2003-08-31 08:00;METAR CYSC 310800Z AUTO 09002KT 9SM CLR 03/02 A3029 RMK SLP264
CYSC;2003-08-31 09:00;METAR CYSC 310900Z AUTO 00000KT 8SM CLR 02/02 A3029 RMK SLP264
CYSC;2003-08-31 10:00;METAR CYSC 311000Z AUTO 09002KT 9SM CLR 03/02 A3029 RMK SLP264
CYSC;2003-08-31 11:00;METAR CYSC 311100Z AUTO 13002KT 9SM FEW062 04/04 A3031 RMK SLP272
CYSC;2003-08-31 12:00;METAR CYSC 311200Z 00000KT 15SM BKN062 BKN120 07/06 A3032 RMK SC5AC1 SLP274
CYSC;2003-08-31 13:00;METAR CYSC 311300Z 00000KT 15SM SCT062 SCT120 BKN250 10/08 A3033 RMK SC3AC1CI1 SLP279
CYSC;2003-08-31 14:00;METAR CYSC 311400Z 24006KT 15SM FEW057 SCT120 BKN250 14/10 A3033 RMK SC2AC1CI1 SLP277
CYSC;2003-08-31 15:00;METAR CYSC 311500Z 24007KT 15SM FEW040 SCT120 BKN250 16/10 A3032 RMK CU2AC1CI1 SLP273
CYSC;2003-08-31 16:00;METAR CYSC 311600Z 26012KT 15SM FEW034 SCT078 BKN250 17/08 A3031 RMK CU2AC2CI1 SLP268
CYSC;2003-08-31 17:00;METAR CYSC 311700Z 26005KT 15SM FEW036 SCT097 BKN250 18/08 A3029 RMK CU2AC1CI1 SLP264
CYSC;2003-08-31 18:00;METAR CYSC 311800Z 24008KT 15SM SCT039 BKN250 18/09 A3028 RMK CU3CI1 SLP259
CYSC;2003-08-31 19:00;METAR CYSC 311900Z 21007KT 15SM SCT043 BKN250 18/09 A3026 RMK CU3CI1 SLP252
CYSC;2003-08-31 20:00;METAR CYSC 312000Z 25007KT 15SM SCT039 SCT250 18/08 A3024 RMK CU3CI0 SLP248
CYSC;2003-08-31 21:00;METAR CYSC 312100Z 23007KT 15SM FEW038 SCT250 20/09 A3023 RMK CU2CI1 LAST MANNED OB/NEXT 011200 SLP242
CYSC;2003-08-31 22:00;METAR CYSC 312200Z AUTO 25007KT 9SM SCT051 SCT079 SCT091 19/09 A3021 RMK SLP238
CYSC;2003-08-31 23:00;METAR CYSC 312300Z AUTO 21003KT 9SM FEW051 FEW069 16/10 A3021 RMK SLP235
CYSC;2003-09-01 00:00;METAR CYSC 010000Z AUTO 19003KT 9SM CLR 10/09 A3021 RMK SLP237
CYSC;2003-09-01 01:00;METAR CYSC 010100Z AUTO 19004KT 9SM CLR 12/09 A3021 RMK SLP237
CYSC;2003-09-01 02:00;METAR CYSC 010200Z AUTO 21003KT 9SM CLR 10/08 A3022 RMK SLP237
CYSC;2003-09-01 03:00;METAR CYSC 010300Z AUTO 22003KT 9SM CLR 11/09 A3021 RMK SLP236
CYSC;2003-09-01 04:00;METAR CYSC 010400Z AUTO 26002KT 9SM CLR 10/08 A3022 RMK SLP237
CYSC;2003-09-01 05:00;METAR CYSC 010500Z AUTO 24003KT 9SM CLR 10/08 A3021 RMK SLP234
CYSC;2003-09-01 06:00;METAR CYSC 010600Z AUTO 28002KT 9SM CLR 09/08 A3020 RMK SLP232
CYSC;2003-09-01 07:00;METAR CYSC 010700Z AUTO 11002KT 9SM CLR 08/07 A3019 RMK SLP228
CYSC;2003-09-01 08:00;METAR CYSC 010800Z AUTO 00000KT 9SM CLR 08/07 A3018 RMK SLP227
CYSC;2003-09-01 09:00;METAR CYSC 010900Z AUTO 19003KT 9SM CLR 09/08 A3017 RMK SLP223
CYSC;2003-09-01 10:00;METAR CYSC 011000Z AUTO 00000KT 9SM CLR 08/07 A3017 RMK SLP223
CYSC;2003-09-01 11:00;METAR CYSC 011100Z AUTO 00000KT 9SM CLR 09/08 A3018 RMK SLP225
CYSC;2003-09-01 12:00;METAR CYSC 011200Z 21002KT 15SM FEW120 BKN250 13/11 A3018 RMK AC1CI2 SLP225
CYSC;2003-09-01 13:00;METAR CYSC 011300Z 23006KT 15SM FEW086 BKN250 16/11 A3017 RMK AC2CI2 ACC ASOCTD SLP220
CYSC;2003-09-01 14:00;METAR CYSC 011400Z 21007KT 15SM FEW090 SCT250 18/11 A3017 RMK AC1CI2 SLP220
CYSC;2003-09-01 15:00;METAR CYSC 011500Z 23008KT 15SM FEW068 SCT250 18/11 A3016 RMK AC2CI1 SLP217
CYSC;2003-09-01 16:00;METAR CYSC 011600Z 24010KT 15SM FEW020 FEW096 SCT250 21/11 A3015 RMK CU1AC2CI2 SLP211
CYSC;2003-09-01 17:00;METAR CYSC 011700Z 24010G15KT 15SM FEW020 FEW140 BKN250 21/11 A3011 RMK CU1AC2CI2 SLP201
CYSC;2003-09-01 18:00;METAR CYSC 011800Z 20012KT 15SM FEW047 FEW096 SCT140 BKN250 21/12 A3011 RMK CU2AC1AC2CI2 SLP200
CYSC;2003-09-01 19:00;METAR CYSC 011900Z 24008KT 15SM FEW043 SCT072 BKN140 BKN250 20/12 A3011 RMK CU2AC2AC2CI1 SLP199
CYSC;2003-09-01 20:00;METAR CYSC 012000Z 26010G16KT 15SM FEW045 FEW078 BKN140 BKN250 20/12 A3011 RMK CU2AC1AS3CI1 SLP199
CYSC;2003-09-01 21:00;METAR CYSC 012100Z 27012KT 15SM FEW039 SCT079 BKN140 BKN250 20/12 A3010 RMK CU2AC1AS2CI1 LAST MANNED OB/NEXT 021200 SLP197
CYSC;2003-09-01 22:00;METAR CYSC 012200Z AUTO 27007KT 9SM BKN039 BKN072 BKN093 19/12 A3010 RMK SLP197
CYSC;2003-09-01 23:00;METAR CYSC 012300Z AUTO 00000KT 9SM FEW037 17/13 A3011 RMK SLP200
CYSC;2003-09-02 00:00;METAR CYSC 020000Z AUTO 21004KT 9SM FEW051 15/13 A3013 RMK SLP206
CYSC;2003-09-02 01:00;METAR CYSC 020100Z AUTO 24005KT 9SM CLR 16/13 A3014 RMK SLP209
CYSC;2003-09-02 02:00;METAR CYSC 020200Z AUTO 04004KT 9SM BKN025 BKN058 BKN072 BKN082 15/13 A3016 RMK SLP214
CYSC;2003-09-02 03:00;METAR CYSC 020300Z AUTO 05004KT 9SM BKN033 BKN047 BKN078 15/12 A3016 RMK SLP217
CYSC;2003-09-02 04:00;METAR CYSC 020400Z AUTO 00000KT 9SM SCT037 SCT047 13/11 A3017 RMK SLP219
CYSC;2003-09-02 05:00;METAR CYSC 020500Z AUTO 04004KT 9SM CLR 12/11 A3017 RMK SLP218
CYSC;2003-09-02 06:00;METAR CYSC 020600Z AUTO 00000KT 9SM CLR 11/10 A3017 RMK SLP220
CYSC;2003-09-02 07:00;METAR CYSC 020700Z AUTO 03002KT 9SM CLR 10/10 A3017 RMK SLP219
CYSC;2003-09-02 08:00;METAR CYSC 020800Z AUTO 08003KT 9SM CLR 11/10 A3017 RMK SLP221
CYSC;2003-09-02 09:00;METAR CYSC 020900Z AUTO 07003KT 9SM CLR 11/10 A3017 RMK SLP220
CYSC;2003-09-02 10:00;METAR CYSC 021000Z AUTO 06004KT 9SM CLR 11/10 A3018 RMK SLP222
CYSC;2003-09-02 11:00;METAR CYSC 021100Z AUTO 06004KT 9SM CLR 11/10 A3019 RMK SLP226
CYSC;2003-09-02 12:00;METAR CYSC 021200Z CCA 06005KT 15SM FEW058 SCT120 BKN250 12/11 A3020 RMK
CYSC;2003-09-02 13:00;METAR CYSC 021300Z 05005KT 15SM FEW058 SCT120 BKN250 14/11 A3021 RMK CU2AC2CI2 SLP232
CYSC;2003-09-02 14:00;METAR CYSC 021400Z 06004KT 15SM FEW043 FEW120 SCT250 16/12 A3020 RMK CU1AC2CI1 SLP231
CYSC;2003-09-02 15:00;METAR CYSC 021500Z 12002KT 15SM FEW040 FEW090 SCT250 18/11 A3020 RMK CU2ACC1CI0 SLP230
CYSC;2003-09-02 16:00;METAR CYSC 021600Z 00000KT 15SM SCT045 BKN250 20/11 A3019 RMK CU4CI0 SLP225
CYSC;2003-09-02 17:00;METAR CYSC 021700Z 31005KT 15SM SCT034 20/10 A3017 RMK CU3 SLP220
CYSC;2003-09-02 18:00;METAR CYSC 021800Z 27006KT 15SM SCT047 21/10 A3016 RMK CU3 SLP216
CYSC;2003-09-02 19:00;METAR CYSC 021900Z 28004KT 15SM FEW051 22/10 A3015 RMK CU2 SLP213
CYSC;2003-09-02 20:00;METAR CYSC 022000Z 32004KT 15SM FEW051 SCT250 20/11 A3015 RMK CU2CI1 SLP213
CYSC;2003-09-02 21:00;METAR CYSC 022100Z 35007KT 15SM FEW047 FEW250 21/11 A3015 RMK CU2CI0 LAST MANNED OB/NEXT 031200 SLP213
CYSC;2003-09-02 23:00;METAR CYSC 022300Z AUTO 32004KT 9SM FEW055 17/11 A3016 RMK SLP219
CYSC;2003-09-03 00:00;METAR CYSC 030000Z AUTO 00000KT 9SM CLR 13/10 A3017 RMK SLP224
CYSC;2003-09-03 01:00;METAR CYSC 030100Z AUTO 00000KT 9SM CLR 09/08 A3018 RMK SLP227
CYSC;2003-09-03 02:00;METAR CYSC 030200Z AUTO 13003KT 9SM CLR 09/08 A3018 RMK SLP227
CYSC;2003-09-03 03:00;METAR CYSC 030300Z AUTO 00000KT 9SM FEW047 FEW061 09/08 A3019 RMK SLP228
CYSC;2003-09-03 04:00;METAR CYSC 030400Z AUTO 00000KT 9SM FEW047 FEW064 10/09 A3020 RMK SLP230
CYSC;2003-09-03 05:00;METAR CYSC 030500Z AUTO 00000KT 9SM FEW047 08/07 A3019 RMK SLP229
CYSC;2003-09-03 06:00;METAR CYSC 030600Z AUTO 10002KT 3/8SM FEW047 07/07 A3019 RMK SLP227
CYSC;2003-09-03 07:00;METAR CYSC 030700Z AUTO 09002KT 2 1/2SM FEW042 07/06 A3019 RMK VSBY VRBL 0.5V9.+ SLP228
CYSC;2003-09-03 08:00;METAR CYSC 030800Z AUTO 10004KT 9SM FEW044 08/07 A3019 RMK SLP229
CYSC;2003-09-03 09:00;METAR CYSC 030900Z AUTO 03002KT 8SM SCT042 07/07 A3019 RMK SLP229
CYSC;2003-09-03 10:00;METAR CYSC 031000Z AUTO 07004KT 9SM SCT041 07/06 A3020 RMK SLP230
CYSC;2003-09-03 11:00;METAR CYSC 031100Z AUTO 06002KT 9SM FEW001 07/07 A3020 RMK SLP233
CYSC;2003-09-03 12:00;METAR CYSC 031200Z 06002KT 15SM FEW120 FEW250 10/09 A3020 RMK AC1CI0 SLP232
CYSC;2003-09-03 13:00;METAR CYSC 031300Z 09002KT 15SM FEW120 FEW250 14/11 A3019 RMK AC1CI0 SLP229
CYSC;2003-09-03 14:00;METAR CYSC 031400Z 12002KT 15SM FEW120 FEW250 17/13 A3018 RMK AC1CI0 SLP225
CYSC;2003-09-03 15:00;METAR CYSC 031500Z 17005KT 15SM FEW120 FEW250 20/14 A3015 RMK AC1CI0 SLP214
CYSC;2003-09-03 16:00;METAR CYSC 031600Z 16006KT 15SM FEW030 FEW120 FEW250 22/14 A3013 RMK CU1AC1CI0 SLP206
CYSC;2003-09-03 17:00;METAR CYSC 031700Z 14005KT 15SM FEW035 SCT250 23/13 A3010 RMK CU2CI1 SLP197
CYSC;2003-09-03 18:00;METAR CYSC 031800Z 15007KT 15SM FEW042 SCT250 24/13 A3008 RMK CU2CI1 SLP187
CYSC;2003-09-03 19:00;METAR CYSC 031900Z 19006KT 15SM FEW038 SCT075 BKN250 23/13 A3005 RMK CU2AC2CI0 SLP180
CYSC;2003-09-03 20:00;METAR CYSC 032000Z 18006KT 15SM FEW044 SCT088 BKN250 24/13 A3003 RMK CU2AC2CI0 SLP172
CYSC;2003-09-03 21:00;METAR CYSC 032100Z 15009KT 15SM BKN051 BKN099 BKN250 22/13 A3002 RMK CU5AC2CI0 LAST MANNED OB/NEXT 041200 SLP168
CYSC;2003-09-03 22:00;METAR CYSC 032200Z AUTO 15007KT 9SM OVC049 21/14 A3001 RMK SLP166
CYSC;2003-09-03 23:00;METAR CYSC 032300Z AUTO 16004KT 9SM FEW042 BKN063 BKN095 20/14 A3000 RMK SLP164
CYSC;2003-09-04 00:00;METAR CYSC 040000Z AUTO 18005KT 9SM FEW044 FEW051 BKN057 19/13 A3000 RMK SLP163
CYSC;2003-09-04 01:00;METAR CYSC 040100Z AUTO 23005KT 9SM -RA BKN028 16/12 A3002 RMK SLP170
CYSC;2003-09-04 02:00;METAR CYSC 040200Z AUTO 14004KT 9SM BKN026 16/13 A3000 RMK SLP163
CYSC;2003-09-04 03:00;METAR CYSC 040300Z AUTO 14005KT 9SM OVC017 16/13 A2998 RMK SLP154
CYSC;2003-09-04 04:00;METAR CYSC 040400Z AUTO 15005KT 9SM OVC022 16/12 A2996 RMK SLP147
CYSC;2003-09-04 05:00;METAR CYSC 040500Z AUTO 15006KT 9SM OVC015 15/12 A2994 RMK SLP139
CYSC;2003-09-04 06:00;METAR CYSC 040600Z AUTO 15007KT 9SM OVC018 15/12 A2992 RMK SLP132
CYSC;2003-09-04 07:00;METAR CYSC 040700Z AUTO 16006KT 9SM OVC019 15/12 A2989 RMK SLP123
CYSC;2003-09-04 08:00;METAR CYSC 040800Z AUTO 16005KT 9SM OVC019 15/12 A2988 RMK SLP121
CYSC;2003-09-04 09:00;METAR CYSC 040900Z AUTO 14005KT 9SM OVC021 15/12 A2987 RMK SLP118
CYSC;2003-09-04 10:00;METAR CYSC 041000Z AUTO 12004KT 9SM OVC026 15/12 A2987 RMK SLP117
CYSC;2003-09-04 11:00;METAR CYSC 041100Z AUTO 14008KT 9SM OVC024 OVC054 15/12 A2986 RMK SLP114
CYSC;2003-09-04 12:00;METAR CYSC 041200Z CCA 13006KT 15SM SCT027 BKN120 BKN250 15/12 A2985 RMK
CYSC;2003-09-04 13:00;METAR CYSC 041300Z 14005KT 15SM FEW023 FEW069 BKN120 BKN250 17/13 A2983 RMK CU1AC2AC2CI1 SLP103
CYSC;2003-09-04 14:00;METAR CYSC 041400Z 18004KT 15SM BKN018 BKN054 OVC250 18/14 A2982 RMK SC5SC2CI1 SLP100
CYSC;2003-09-04 15:00;METAR CYSC 041500Z 16004KT 15SM BKN026 OVC120 19/15 A2981 RMK SC7AC1 SLP097
CYSC;2003-09-04 16:00;METAR CYSC 041600Z 20004KT 15SM BKN017 OVC083 19/15 A2979 RMK SC6AC2 SLP091
CYSC;2003-09-04 17:00;METAR CYSC 041700Z 24004KT 15SM BKN017 BKN081 BKN250 20/16 A2978 RMK CU5AC2CI0 SLP087
CYSC;2003-09-04 18:00;METAR CYSC 041800Z 21007KT 15SM BKN020 BKN076 BKN250 21/16 A2976 RMK CU5AC2CI0 SLP080
CYSC;2003-09-04 20:00;METAR CYSC 042000Z 20006KT 15SM VCSH SCT026 BKN095 BKN250 22/16 A2973 RMK CU3AC2CI2 TCU EMBDD N QUAD SLP068
CYSC;2003-09-04 21:00;METAR CYSC 042100Z 33004KT 15SM VCSH BKN024 BKN100 BKN250 20/16 A2974 RMK CU6AC1CI0 TCU ASOCTD LAST MANNED OB/NEXT 051200 SLP072
CYSC;2003-09-05 22:00;METAR CYSC 042200Z AUTO 22003KT 9SM BKN032 BKN055 OVC092 19/17 A2975 RMK SLP077
CYSC;2003-09-05 23:00;METAR CYSC 042300Z AUTO 20003KT 9SM BKN067 19/17 A2976 RMK SLP079
CYSC;2003-09-05 00:00;METAR CYSC 050000Z AUTO 19003KT 9SM SCT049 18/17 A2978 RMK SLP087
CYSC;2003-09-05 01:00;METAR CYSC 050100Z AUTO 23005KT 9SM FEW075 17/16 A2980 RMK SLP092
CYSC;2003-09-05 02:00;METAR CYSC 050200Z AUTO 22005KT 9SM BKN068 16/14 A2980 RMK SLP095
CYSC;2003-09-05 04:00;METAR CYSC 050400Z AUTO 15003KT 9SM FEW080 11/10 A2981 RMK SLP099
CYSC;2003-09-05 05:00;METAR CYSC 050500Z AUTO 21003KT 9SM SCT077 13/11 A2982 RMK SLP099
CYSC;2003-09-05 06:00;METAR CYSC 050600Z AUTO 00000KT 9SM OVC081 12/11 A2982 RMK SLP101
CYSC;2003-09-05 07:00;METAR CYSC 050700Z AUTO 23002KT 9SM BKN083 12/11 A2983 RMK SLP104
CYSC;2003-09-05 08:00;METAR CYSC 050800Z AUTO 19002KT 9SM BKN081 11/10 A2984 RMK SLP106
CYSC;2003-09-05 09:00;METAR CYSC 050900Z AUTO 19003KT 9SM OVC081 13/11 A2986 RMK SLP114
CYSC;2003-09-05 10:00;METAR CYSC 051000Z AUTO 26003KT 9SM BKN083 11/10 A2987 RMK SLP119
CYSC;2003-09-05 11:00;METAR CYSC 051100Z AUTO 25004KT 9SM FEW085 12/12 A2990 RMK SLP127
CYSC;2003-09-05 12:00;METAR CYSC 051200Z CCA 26005KT 15SM BKN085 14/12 A2992 RMK AC6 SLP132
CYSC;2003-09-05 13:00;METAR CYSC 051300Z 28005KT 15SM FEW035 BKN080 BKN120 16/13 A2993 RMK CU2AC4AC1 SLP136
CYSC;2003-09-05 14:00;METAR CYSC 051400Z 26006KT 15SM BKN016 OVC080 16/13 A2994 RMK CU7AC1 SLP141
CYSC;2003-09-05 15:00;METAR CYSC 051500Z 26009KT 15SM BKN019 17/12 A2995 RMK CU7 SLP146
CYSC;2003-09-05 16:00;METAR CYSC 051600Z 29008KT 15SM BKN021 BKN080 17/12 A2995 RMK CU6AC1 SLP146
CYSC;2003-09-05 17:00;METAR CYSC 051700Z 29008KT 15SM BKN027 BKN077 19/13 A2995 RMK CU5AC2 SLP145
CYSC;2003-09-05 18:00;METAR CYSC 051800Z 30007KT 15SM BKN030 BKN074 18/13 A2995 RMK CU5AC2
CYSC;2003-09-05 19:00;METAR CYSC 051900Z 28010KT 15SM BKN026 OVC080 18/13 A2996 RMK CU5AC3 SLP147
CYSC;2003-09-05 20:00;METAR CYSC 052000Z 30007KT 15SM BKN026 BKN076 18/12 A2997 RMK CU5AC2 SLP150
CYSC;2003-09-05 21:00;METAR CYSC 052100Z 28008KT 15SM BKN026 BKN072 18/13 A2998 RMK CU5AC2 TCU EMBDD LAST MANNED OB/NEXT 061200 SLP153
CYSC;2003-09-06 00:00;METAR CYSC 060000Z AUTO 25005KT 9SM FEW072 14/12 A3001 RMK SLP167
CYSC;2003-09-06 01:00;METAR CYSC 060100Z AUTO 23003KT 9SM CLR 11/09 A3004 RMK SLP177
CYSC;2003-09-06 02:00;METAR CYSC 060200Z AUTO 23003KT 9SM OVC056 14/12 A3005 RMK SLP179
CYSC;2003-09-06 03:00;METAR CYSC 060300Z AUTO 00000KT 9SM OVC056 13/12 A3005 RMK SLP180
CYSC;2003-09-06 04:00;METAR CYSC 060400Z AUTO 22002KT 9SM OVC054 13/12 A3006 RMK SLP182
CYSC;2003-09-06 05:00;METAR CYSC 060500Z AUTO 22004KT 9SM OVC054 13/12 A3006 RMK SLP183
CYSC;2003-09-06 06:00;METAR CYSC 060600Z AUTO 00000KT 8SM FEW056 11/10 A3007 RMK SLP185
CYSC;2003-09-06 07:00;METAR CYSC 060700Z AUTO 21004KT 9SM SCT056 11/11 A3006 RMK SLP184
CYSC;2003-09-06 08:00;METAR CYSC 060800Z AUTO 00000KT 9SM SCT056 09/09 A3006 RMK SLP184
CYSC;2003-09-06 09:00;METAR CYSC 060900Z AUTO 00000KT 9SM SCT053 09/08 A3007 RMK SLP186
CYSC;2003-09-06 10:00;METAR CYSC 061000Z AUTO 22004KT 9SM CLR 10/09 A3008 RMK SLP191
CYSC;2003-09-06 11:00;METAR CYSC 061100Z AUTO 21003KT 9SM CLR 09/08 A3009 RMK SLP196
CYSC;2003-09-06 12:00;METAR CYSC 061200Z 21005KT 15SM FEW015 FEW080 13/11 A3011 RMK CU1AC1 SLP199
CYSC;2003-09-06 13:00;METAR CYSC 061300Z 25005KT 15SM FEW010 15/12 A3010 RMK CU2 SLP198
CYSC;2003-09-06 14:00;METAR CYSC 061400Z 29006KT 15SM FEW017 17/13 A3010 RMK CU2 SLP197
CYSC;2003-09-06 15:00;METAR CYSC 061500Z 27009KT 15SM FEW023 17/11 A3009 RMK CU2 SLP194
CYSC;2003-09-06 16:00;METAR CYSC 061600Z 24007KT 15SM SCT029 18/10 A3008 RMK CU3 SLP189
CYSC;2003-09-06 17:00;METAR CYSC 061700Z 26008KT 15SM FEW030 19/11 A3006 RMK SC2 SLP183
CYSC;2003-09-06 18:00;METAR CYSC 061800Z 24008KT 15SM FEW041 21/11 A3004 RMK CU2 SLP175
CYSC;2003-09-06 19:00;METAR CYSC 061900Z 26006KT 15SM FEW041 FEW240 21/11 A3002 RMK CU1CI1 SLP169
CYSC;2003-09-06 20:00;METAR CYSC 062000Z 25008KT 15SM FEW044 FEW240 21/11 A3001 RMK CU1CI2 SLP163
CYSC;2003-09-06 21:00;METAR CYSC 062100Z 23006KT 15SM FEW050 FEW240 20/11 A3000 RMK CU1CI2 LAST MANNED OB/NEXT 071200 SLP163
CYSC;2003-09-06 22:00;METAR CYSC 062200Z AUTO 23005KT 9SM CLR 19/11 A2999 RMK SLP161
CYSC;2003-09-06 23:00;METAR CYSC 062300Z AUTO 23003KT 9SM CLR 18/11 A2999 RMK SLP159
CYSC;2003-09-07 00:00;METAR CYSC 070000Z AUTO 20004KT 9SM CLR 14/11 A3000 RMK SLP162
CYSC;2003-09-07 01:00;METAR CYSC 070100Z AUTO 21002KT 9SM CLR 10/08 A3000 RMK SLP164
CYSC;2003-09-07 02:00;METAR CYSC 070200Z AUTO 21002KT 9SM CLR 09/08 A3000 RMK SLP164
CYSC;2003-09-07 04:00;METAR CYSC 070400Z AUTO 00000KT 9SM CLR 08/07 A3000 RMK SLP164
CYSC;2003-09-07 05:00;METAR CYSC 070500Z AUTO 00000KT 9SM CLR 08/07 A2999 RMK SLP160
CYSC;2003-09-07 06:00;METAR CYSC 070600Z AUTO 00000KT 9SM CLR 08/07 A2998 RMK SLP156
CYSC;2003-09-07 07:00;METAR CYSC 070700Z AUTO 09002KT 9SM BKN060 09/08 A2997 RMK SLP152
CYSC;2003-09-07 08:00;METAR CYSC 070800Z AUTO 00000KT 9SM FEW045 BKN060 BKN094 10/10 A2996 RMK SLP148
CYSC;2003-09-07 09:00;METAR CYSC 070900Z AUTO 00000KT 9SM OVC043 11/11 A2996 RMK SLP149
CYSC;2003-09-07 11:00;METAR CYSC 071100Z AUTO 25002KT 9SM BKN047 13/11 A2998 RMK SLP155
CYSC;2003-09-07 12:00;METAR CYSC 071200Z 23003KT 15SM OVC047 14/12 A2999 RMK SC8 SLP159
CYSC;2003-09-07 13:00;METAR CYSC 071300Z 23003KT 15SM BKN033 15/12 A3000 RMK SC7 SLP161
CYSC;2003-09-07 14:00;METAR CYSC 071400Z 27005KT 15SM FEW015 BKN029 BKN063 17/12 A3001 RMK CF1SC5SC2 SLP164
CYSC;2003-09-07 15:00;METAR CYSC 071500Z 28005KT 15SM SCT019 BKN030 OVC065 16/12 A3001 RMK SC3SC3SC2 SLP166
CYSC;2003-09-07 16:00;METAR CYSC 071600Z 29006KT 15SM OVC017 16/12 A3001 RMK SC8 SLP167
CYSC;2003-09-07 17:00;METAR CYSC 071700Z 27005KT 15SM OVC013 16/13 A3001 RMK SC8 SLP165
CYSC;2003-09-07 18:00;METAR CYSC 071800Z 27007KT 15SM BKN013 OVC046 16/13 A3001 RMK CF6SC2 SLP165
CYSC;2003-09-07 19:00;METAR CYSC 071900Z CCA 22006KT 15SM FEW015 BKN020 BKN050 16/13 A3000 RMK
CYSC;2003-09-07 20:00;METAR CYSC 072000Z 28008KT 15SM BKN020 BKN060 BKN097 17/13 A3000 RMK SC5SC2AC1 SLP163
CYSC;2003-09-07 21:00;METAR CYSC 072100Z 29005KT 15SM FEW034 BKN060 BKN097 17/13 A3001 RMK SC2SC4AC1 LAST MANNED OB/NEXT 081200 SLP164
CYSC;2003-09-07 22:00;METAR CYSC 072200Z AUTO 30004KT 9SM BKN021 16/11 A3002 RMK SLP170
CYSC;2003-09-07 23:00;METAR CYSC 072300Z AUTO 32004KT 9SM CLR 15/10 A3003 RMK SLP174
CYSC;2003-09-08 00:00;METAR CYSC 080000Z AUTO 36002KT 9SM CLR 10/08 A3005 RMK SLP182
CYSC;2003-09-08 01:00;METAR CYSC 080100Z AUTO 00000KT 9SM CLR 08/07 A3007 RMK SLP187
CYSC;2003-09-08 02:00;METAR CYSC 080200Z AUTO 00000KT 9SM BKN040 08/08 A3008 RMK SLP191
CYSC;2003-09-08 03:00;METAR CYSC 080300Z AUTO 23002KT 9SM BKN040 09/08 A3009 RMK SLP194
CYSC;2003-09-08 04:00;METAR CYSC 080400Z AUTO 12002KT 2SM FEW042 07/07 A3009 RMK VSBY VRBL 0.8V9.+ SLP195
CYSC;2003-09-08 05:00;METAR CYSC 080500Z AUTO 00000KT 2 1/4SM CLR 06/05 A3010 RMK VSBY VRBL 0.6V9.+ SLP198
CYSC;2003-09-08 06:00;METAR CYSC 080600Z AUTO 00000KT 1/8SM CLR 04/04 A3010 RMK SLP199
CYSC;2003-09-08 07:00;METAR CYSC 080700Z AUTO 13003KT 9SM FEW001 03/03 A3010 RMK SLP199
CYSC;2003-09-08 08:00;METAR CYSC 080800Z AUTO 00000KT 1/8SM OVC000 04/04 A3011 RMK SLP204
CYSC;2003-09-08 09:00;METAR CYSC 080900Z AUTO 00000KT 1/8SM OVC000 05/05 A3012 RMK SLP207
CYSC;2003-09-08 10:00;METAR CYSC 081000Z AUTO 00000KT 1/8SM OVC000 05/05 A3014 RMK SLP212
CYSC;2003-09-08 11:00;METAR CYSC 081100Z AUTO 00000KT 1/8SM OVC000 06/05 A3016 RMK SLP221
CYSC;2003-09-08 12:00;METAR CYSC 081200Z 00000KT 1/8SM FG VV000 06/06 A3018 RMK FG8 SLP226
CYSC;2003-09-08 13:00;METAR CYSC 081300Z 00000KT 1/8SM FG VV001 08/07 A3019 RMK FG8 SLP229
CYSC;2003-09-08 14:00;METAR CYSC 081400Z 00000KT 1 1/2SM BR BKN003 09/09 A3019 RMK FG2CF5 SLP229
CYSC;2003-09-08 15:00;METAR CYSC 081500Z 25004KT 15SM FEW010 13/11 A3019 RMK CF1 SLP229
CYSC;2003-09-08 16:00;METAR CYSC 081600Z 30008KT 15SM FEW028 17/10 A3019 RMK CF1 SLP229
CYSC;2003-09-08 17:00;METAR CYSC 081700Z 32005KT 15SM FEW033 17/08 A3019 RMK CU1 SLP229
CYSC;2003-09-08 18:00;METAR CYSC 081800Z 28009KT 15SM FEW035 18/09 A3019 RMK CU1 SLP227
CYSC;2003-09-08 19:00;METAR CYSC 081900Z 34007KT 15SM FEW040 19/09 A3018 RMK CU1 SLP225
CYSC;2003-09-08 20:00;METAR CYSC 082000Z 34009KT 15SM FEW041 18/08 A3018 RMK CU1 SLP226
CYSC;2003-09-08 21:00;METAR CYSC 082100Z 33005KT 15SM FEW044 17/08 A3018 RMK CU1 LAST MANNED OB/NEXT 091200 SLP227
CYSC;2003-09-08 22:00;METAR CYSC 082200Z AUTO 35005KT 9SM FEW044 16/08 A3020 RMK SLP231
CYSC;2003-09-08 23:00;METAR CYSC 082300Z AUTO 33004KT 9SM CLR 13/07 A3021 RMK SLP238
CYSC;2003-09-09 00:00;METAR CYSC 090000Z AUTO 33003KT 9SM CLR 10/06 A3024 RMK SLP247
CYSC;2003-09-09 01:00;METAR CYSC 090100Z AUTO 35002KT 9SM CLR 07/06 A3025 RMK SLP252
CYSC;2003-09-09 02:00;METAR CYSC 090200Z AUTO 03003KT 9SM CLR 06/05 A3027 RMK SLP258
CYSC;2003-09-09 03:00;METAR CYSC 090300Z AUTO ///// 9SM CLR 04/03 A3029 RMK SLP265
CYSC;2003-09-09 04:00;METAR CYSC 090400Z AUTO 12002KT 9SM CLR 05/04 A3031 RMK SLP270
CYSC;2003-09-09 05:00;METAR CYSC 090500Z AUTO 08004KT 9SM CLR 05/04 A3032 RMK SLP275
CYSC;2003-09-09 06:00;METAR CYSC 090600Z AUTO 07005KT 9SM CLR 05/03 A3033 RMK SLP278
CYSC;2003-09-09 07:00;METAR CYSC 090700Z AUTO 08004KT 9SM CLR 03/03 A3034 RMK SLP281
CYSC;2003-09-09 08:00;METAR CYSC 090800Z AUTO 09004KT 9SM CLR 03/02 A3035 RMK SLP285
CYSC;2003-09-09 09:00;METAR CYSC 090900Z AUTO 11003KT 9SM CLR 02/01 A3036 RMK SLP289
CYSC;2003-09-09 10:00;METAR CYSC 091000Z AUTO 08004KT 9SM CLR 02/01 A3039 RMK SLP297
CYSC;2003-09-09 11:00;METAR CYSC 091100Z AUTO 13003KT 9SM BKN001 02/01 A3041 RMK SLP304
CYSC;2003-09-09 12:00;METAR CYSC 091200Z 08004KT 15SM FEW002 FEW240 05/03 A3041 RMK CF1CI0 SLP304
CYSC;2003-09-09 13:00;METAR CYSC 091300Z 08005KT 15SM FEW240 09/05 A3041 RMK CI1 SLP307
CYSC;2003-09-09 14:00;METAR CYSC 091400Z 03002KT 15SM FEW240 12/06 A3042 RMK CI1 SLP308
CYSC;2003-09-09 15:00;METAR CYSC 091500Z 12003KT 15SM FEW240 15/04 A3041 RMK CI1 SLP304
CYSC;2003-09-09 16:00;METAR CYSC 091600Z 00000KT 15SM FEW220 16/05 A3040 RMK CI1 SLP300
CYSC;2003-09-09 17:00;METAR CYSC 091700Z 31004KT 15SM FEW040 FEW220 16/04 A3038 RMK CU1CI1 SLP295
CYSC;2003-09-09 18:00;METAR CYSC 091800Z 13003KT 15SM FEW045 FEW240 18/03 A3036 RMK CU1CI0 SLP287
CYSC;2003-09-09 19:00;METAR CYSC 091900Z 13002KT 15SM FEW045 FEW240 18/04 A3035 RMK CU1CI0 SLP282
CYSC;2003-09-09 20:00;METAR CYSC 092000Z 01003KT 15SM FEW240 18/04 A3034 RMK CI0 SLP278
CYSC;2003-09-09 21:00;METAR CYSC 092100Z CCA 29006KT 15SM FEW045 SCT240 18/05 A3032 RMK SC1CI0 LAST MANNED OB/NEXT 101200 SLP273
CYSC;2003-09-09 22:00;METAR CYSC 092200Z AUTO 30002KT 9SM CLR 18/06 A3031 RMK SLP270
CYSC;2003-09-09 23:00;METAR CYSC 092300Z AUTO 00000KT 9SM CLR 12/09 A3030 RMK SLP270
CYSC;2003-09-10 00:00;METAR CYSC 100000Z AUTO 11002KT 9SM CLR 08/06 A3030 RMK SLP268
CYSC;2003-09-10 01:00;METAR CYSC 100100Z AUTO 09004KT 9SM CLR 08/07 A3030 RMK SLP269
CYSC;2003-09-10 02:00;METAR CYSC 100200Z AUTO 00000KT 9SM CLR 07/06 A3030 RMK SLP270
CYSC;2003-09-10 03:00;METAR CYSC 100300Z AUTO 08002KT 9SM CLR 03/02 A3031 RMK SLP270
CYSC;2003-09-10 04:00;METAR CYSC 100400Z AUTO 00000KT 9SM CLR 03/02 A3031 RMK SLP272
CYSC;2003-09-10 05:00;METAR CYSC 100500Z AUTO 13003KT 9SM CLR 02/01 A3031 RMK SLP271
CYSC;2003-09-10 06:00;METAR CYSC 100600Z AUTO 00000KT 9SM CLR 01/01 A3030 RMK SLP268
CYSC;2003-09-10 07:00;METAR CYSC 100700Z AUTO 00000KT 9SM CLR 01/00 A3029 RMK SLP265
CYSC;2003-09-10 08:00;METAR CYSC 100800Z AUTO 09002KT 9SM CLR 01/M00 A3029 RMK SLP264
CYSC;2003-09-10 09:00;METAR CYSC 100900Z AUTO 00000KT 9SM CLR 00/M01 A3028 RMK SLP262
CYSC;2003-09-10 10:00;METAR CYSC 101000Z AUTO 00000KT 9SM CLR M01/M02 A3028 RMK ICG SLP263
CYSC;2003-09-10 11:00;METAR CYSC 101100Z AUTO 13002KT 9SM CLR 01/00 A3028 RMK ICG PAST HR SLP264
CYSC;2003-09-10 12:00;METAR CYSC 101200Z CCA 00000KT 15SM FEW220 04/04 A3029 RMK CI1 SLP264
CYSC;2003-09-10 13:00;METAR CYSC 101300Z 20004KT 15SM FEW220 09/07 A3028 RMK CI1 SLP260
CYSC;2003-09-10 14:00;METAR CYSC 101400Z 22005KT 15SM FEW220 13/09 A3027 RMK CI1 SLP257
CYSC;2003-09-10 15:00;METAR CYSC 101500Z 23007KT 15SM SKC 17/08 A3025 RMK SLP250
CYSC;2003-09-10 16:00;METAR CYSC 101600Z 26006KT 15SM SKC 19/09 A3023 RMK SLP243
CYSC;2003-09-10 17:00;METAR CYSC 101700Z 27010KT 15SM FEW220 20/09 A3021 RMK CI1 SLP238
CYSC;2003-09-10 18:00;METAR CYSC 101800Z 26008KT 15SM SKC 21/10 A3019 RMK SLP228
CYSC;2003-09-10 19:00;METAR CYSC 101900Z 26011KT 15SM FEW100 FEW220 22/10 A3017 RMK AC1CI0 SLP220
CYSC;2003-09-10 20:00;METAR CYSC 102000Z 27008G15KT 15SM FEW051 FEW220 22/11 A3015 RMK SC1CI0 SLP215
CYSC;2003-09-10 21:00;METAR CYSC 102100Z 29006KT 15SM BKN039 BKN074 BKN240 21/12 A3015 RMK SC5AC1CI0 LAST MANNED OB/NEXT 111200 SLP216
CYSC;2003-09-10 22:00;METAR CYSC 102200Z AUTO 27006KT 9SM OVC042 OVC066 20/12 A3016 RMK SLP219
CYSC;2003-09-10 23:00;METAR CYSC 102300Z AUTO 23004KT 9SM BKN042 18/12 A3017 RMK SLP222
CYSC;2003-09-11 00:00;METAR CYSC 110000Z AUTO 21003KT 9SM BKN051 17/12 A3018 RMK SLP226
CYSC;2003-09-11 01:00;METAR CYSC 110100Z AUTO 21002KT 9SM FEW055 FEW068 15/12 A3019 RMK SLP229
CYSC;2003-09-11 02:00;METAR CYSC 110200Z AUTO 23002KT 9SM FEW061 13/11 A3020 RMK SLP232
CYSC;2003-09-11 03:00;METAR CYSC 110300Z AUTO 14002KT 9SM CLR 12/11 A3021 RMK SLP234
CYSC;2003-09-11 04:00;METAR CYSC 110400Z AUTO 11002KT 9SM CLR 11/11 A3021 RMK SLP236
CYSC;2003-09-11 05:00;METAR CYSC 110500Z AUTO 08003KT 9SM CLR 11/10 A3022 RMK SLP239
CYSC;2003-09-11 06:00;METAR CYSC 110600Z AUTO 12002KT 9SM CLR 10/09 A3023 RMK SLP240
CYSC;2003-09-11 07:00;METAR CYSC 110700Z AUTO 09002KT 9SM CLR 10/09 A3023 RMK SLP242
CYSC;2003-09-11 08:00;METAR CYSC 110800Z AUTO 08003KT 9SM CLR 09/09 A3024 RMK SLP245
CYSC;2003-09-11 09:00;METAR CYSC 110900Z AUTO 09004KT 9SM CLR 10/09 A3025 RMK SLP248
CYSC;2003-09-11 10:00;METAR CYSC 111000Z AUTO 10003KT 9SM CLR 09/08 A3027 RMK SLP254
CYSC;2003-09-11 11:00;METAR CYSC 111100Z AUTO 09003KT 9SM CLR 10/09 A3029 RMK SLP261
CYSC;2003-09-11 12:00;METAR CYSC 111200Z 11003KT 15SM FEW047 11/10 A3031 RMK CU2 SLP267
CYSC;2003-09-11 13:00;METAR CYSC 111300Z 13002KT 15SM FEW053 15/12 A3031 RMK CU2 SLP267
CYSC;2003-09-11 14:00;METAR CYSC 111400Z 26002KT 15SM FEW050 18/13 A3032 RMK CU2 SLP271
CYSC;2003-09-11 15:00;METAR CYSC 111500Z CCA 00000KT 15SM FEW045 FEW060 SCT220 20/14 A3033 RMK CU1SC1CI0 SLP272
CYSC;2003-09-11 16:00;METAR CYSC 111600Z 27002KT 12SM FEW047 FEW240 22/15 A3032 RMK CU2CI0 HAZY SLP271
CYSC;2003-09-11 17:00;METAR CYSC 111700Z 14003KT 12SM FEW050 FEW240 24/16 A3031 RMK SC2CI0 HAZY CU ASOCTD SLP267
CYSC;2003-09-11 18:00;METAR CYSC 111800Z 32006KT 15SM FEW045 25/17 A3030 RMK CU2 SLP262
CYSC;2003-09-11 19:00;METAR CYSC 111900Z 29002KT 15SM FEW046 25/16 A3029 RMK CU2 SLP259
CYSC;2003-09-11 20:00;METAR CYSC 112000Z 35003KT 15SM FEW043 25/15 A3029 RMK CU2 SLP260
CYSC;2003-09-11 21:00;METAR CYSC 112100Z 31003KT 15SM FEW045 25/15 A3030 RMK CU2 LAST MANNED OB/NEXT 121200 SLP261
CYSC;2003-09-11 22:00;METAR CYSC 112200Z AUTO 32003KT 9SM SCT047 SCT085 24/16 A3030 RMK SLP264
CYSC;2003-09-11 23:00;METAR CYSC 112300Z AUTO 00000KT 9SM SCT047 21/17 A3031 RMK SLP267
CYSC;2003-09-12 00:00;METAR CYSC 120000Z AUTO 03002KT 9SM FEW045 FEW052 17/14 A3031 RMK SLP268
CYSC;2003-09-12 01:00;METAR CYSC 120100Z AUTO 00000KT 9SM CLR 14/12 A3032 RMK SLP271
CYSC;2003-09-12 02:00;METAR CYSC 120200Z AUTO 09006KT 9SM CLR 16/14 A3033 RMK SLP273
CYSC;2003-09-12 03:00;METAR CYSC 120300Z AUTO 09005KT 9SM CLR 15/14 A3032 RMK SLP271
CYSC;2003-09-12 04:00;METAR CYSC 120400Z AUTO 09004KT 9SM CLR 14/12 A3033 RMK SLP273
CYSC;2003-09-12 05:00;METAR CYSC 120500Z AUTO 08004KT 9SM CLR 12/11 RMK ALTM MISG SLP273
CYSC;2003-09-12 06:00;METAR CYSC 120600Z AUTO 11003KT 9SM CLR 11/10 A3033 RMK SLP274
CYSC;2003-09-12 07:00;METAR CYSC 120700Z AUTO 09004KT 9SM CLR 12/11 A3034 RMK SLP276
CYSC;2003-09-12 08:00;METAR CYSC 120800Z AUTO 07002KT 5SM CLR 10/09 A3035 RMK SLP280
CYSC;2003-09-12 09:00;METAR CYSC 120900Z AUTO 08002KT 1SM CLR 09/09 A3036 RMK SLP283
CYSC;2003-09-12 10:00;METAR CYSC 121000Z AUTO 10002KT 5SM CLR 09/08 A3036 RMK SLP285
CYSC;2003-09-12 11:00;METAR CYSC 121100Z AUTO 08003KT 5SM CLR 10/09 A3037 RMK SLP290
CYSC;2003-09-12 12:00;METAR CYSC 121200Z 07003KT 12SM SKC 13/11 A3038 RMK HAZY SLP292
CYSC;2003-09-12 13:00;METAR CYSC 121300Z 00000KT 12SM SKC 16/14 A3040 RMK HAZY SLP296
CYSC;2003-09-12 14:00;METAR CYSC 121400Z 00000KT 15SM FEW220 19/15 A3039 RMK CI0 SLP294
CYSC;2003-09-12 15:00;METAR CYSC 121500Z 24002KT 15SM FEW220 22/16 A3037 RMK CI1 SLP287
CYSC;2003-09-12 16:00;METAR CYSC 121600Z 27002KT 15SM FEW030 FEW220 23/16 A3037 RMK CU1CI0 SLP285
CYSC;2003-09-12 17:00;METAR CYSC 121700Z 27003KT 15SM FEW036 FEW220 25/17 A3035 RMK CU1CI0 SLP280
CYSC;2003-09-12 18:00;METAR CYSC 121800Z 33002KT 15SM FEW043 FEW220 25/16 A3033 RMK CU1CI2 SLP272
CYSC;2003-09-12 19:00;METAR CYSC 121900Z 12003KT 15SM FEW036 FEW220 25/16 A3031 RMK CU1CI1 SLP264
CYSC;2003-09-12 20:00;METAR CYSC 122000Z 35003KT 15SM FEW220 25/17 A3029 RMK CI1 SLP258
CYSC;2003-09-12 21:00;METAR CYSC 122100Z 33002KT 15SM FEW220 25/17 A3029 RMK CI1 LAST MANNED OB/NEXT 131200 SLP258
CYSC;2003-09-12 22:00;METAR CYSC 122200Z AUTO 33002KT 9SM CLR 24/18 A3027 RMK SLP255
CYSC;2003-09-12 23:00;METAR CYSC 122300Z AUTO 00000KT 9SM CLR 20/17 A3027 RMK SLP256
CYSC;2003-09-13 00:00;METAR CYSC 130000Z AUTO 11002KT 9SM CLR 17/15 A3028 RMK SLP258
CYSC;2003-09-13 01:00;METAR CYSC 130100Z AUTO 14004KT 9SM CLR 16/14 A3029 RMK SLP261
CYSC;2003-09-13 02:00;METAR CYSC 130200Z AUTO 00000KT 9SM CLR 15/13 A3030 RMK SLP266
CYSC;2003-09-13 03:00;METAR CYSC 130300Z AUTO 00000KT 9SM CLR 12/11 A3031 RMK SLP268
CYSC;2003-09-13 04:00;METAR CYSC 130400Z AUTO 00000KT 9SM CLR 12/10 A3032 RMK SLP271
CYSC;2003-09-13 05:00;METAR CYSC 130500Z AUTO 00000KT 9SM CLR 10/09 A3033 RMK SLP275
CYSC;2003-09-13 06:00;METAR CYSC 130600Z AUTO 11002KT 5SM CLR 10/09 A3033 RMK SLP276
CYSC;2003-09-13 07:00;METAR CYSC 130700Z AUTO 00000KT 7SM CLR 09/08 A3033 RMK SLP274
CYSC;2003-09-13 08:00;METAR CYSC 130800Z AUTO 00000KT 1/8SM CLR 08/07 A3033 RMK SLP276
CYSC;2003-09-13 09:00;METAR CYSC 130900Z AUTO 00000KT 1 3/4SM CLR 07/06 A3034 RMK VSBY VRBL 0.5V7.0 SLP277
CYSC;2003-09-13 10:00;METAR CYSC 131000Z AUTO 10003KT 7SM CLR 08/07 A3035 RMK SLP283
CYSC;2003-09-13 11:00;METAR CYSC 131100Z AUTO 08002KT 2 1/2SM CLR 07/07 A3037 RMK SLP289
CYSC;2003-09-13 12:00;METAR CYSC 131200Z 11003KT 15SM FEW120 SCT250 12/10 A3037 RMK AC1CI2 SLP290
CYSC;2003-09-13 13:00;METAR CYSC 131300Z 07002KT 15SM FEW120 SCT250 15/12 A3037 RMK AC1CI2 SLP289
CYSC;2003-09-13 14:00;METAR CYSC 131400Z 18003KT 15SM FEW120 SCT250 18/12 A3037 RMK AC1CI2 SLP287
CYSC;2003-09-13 15:00;METAR CYSC 131500Z 00000KT 15SM FEW120 SCT250 20/12 A3035 RMK AC1CI2 SLP280
CYSC;2003-09-13 16:00;METAR CYSC 131600Z 15003KT 15SM FEW043 SCT120 BKN250 22/12 A3033 RMK SC2AC2CI1 SLP275
CYSC;2003-09-13 17:00;METAR CYSC 131700Z 18004KT 15SM FEW090 BKN250 23/13 A3033 RMK AC2CI2 SLP273
CYSC;2003-09-13 18:00;METAR CYSC 131800Z 19002KT 15SM FEW120 BKN250 23/13 A3031 RMK AC2CI2 SLP268
CYSC;2003-09-13 19:00;METAR CYSC 131900Z 19004KT 15SM SCT073 BKN250 24/13 A3031 RMK AC3CI2 SLP265
CYSC;2003-09-13 20:00;METAR CYSC 132000Z 26004KT 15SM FEW048 SCT087 BKN250 24/15 A3030 RMK SC2AC2CI2 SLP263
CYSC;2003-09-13 21:00;METAR CYSC 132100Z 25003KT 15SM FEW045 SCT110 BKN250 23/15 A3031 RMK SC2AC2CI2 LAST MANNED OB/NEXT 141200 SLP267
CYSC;2003-09-13 22:00;METAR CYSC 132200Z AUTO 00000KT 9SM CLR 22/18 A3031 RMK SLP268
CYSC;2003-09-13 23:00;METAR CYSC 132300Z AUTO 14002KT 9SM FEW045 20/17 A3031 RMK SLP268
CYSC;2003-09-14 00:00;METAR CYSC 140000Z AUTO 00000KT 9SM FEW044 18/16 A3032 RMK SLP271
CYSC;2003-09-14 01:00;METAR CYSC 140100Z AUTO 22002KT 9SM CLR 18/16 A3032 RMK SLP271
CYSC;2003-09-14 02:00;METAR CYSC 140200Z AUTO 00000KT 9SM CLR 17/16 A3032 RMK SLP271
CYSC;2003-09-14 03:00;METAR CYSC 140300Z AUTO 00000KT 9SM CLR 17/16 A3032 RMK SLP270
CYSC;2003-09-14 04:00;METAR CYSC 140400Z AUTO 08002KT 9SM CLR 16/15 RMK ALTM MISG SLP268
CYSC;2003-09-14 05:00;METAR CYSC 140500Z AUTO 18002KT 9SM CLR 16/15 A3031 RMK SLP267
CYSC;2003-09-14 06:00;METAR CYSC 140600Z AUTO 16003KT 9SM CLR 17/15 A3031 RMK SLP266
CYSC;2003-09-14 07:00;METAR CYSC 140700Z AUTO 09003KT 9SM CLR 17/15 A3030 RMK SLP263
CYSC;2003-09-14 08:00;METAR CYSC 140800Z AUTO 12002KT 8SM CLR 17/16 A3030 RMK SLP262
CYSC;2003-09-14 09:00;METAR CYSC 140900Z AUTO 00000KT 2 1/2SM -RA 17/16 A3030 RMK PCPN 0.5MM PAST HR SLP264
CYSC;2003-09-14 10:00;METAR CYSC 141000Z AUTO 11004KT 9SM FEW056 17/16 A3031 RMK SLP266
CYSC;2003-09-14 11:00;METAR CYSC 141100Z AUTO 09002KT 7SM FEW015 SCT034 BKN051 BKN058 18/17 A3031 RMK SLP267
CYSC;2003-09-14 12:00;METAR CYSC 141200Z CCA 10004KT 12SM BKN034 BKN120 BKN250 18/17 A3031 RMK
CYSC;2003-09-14 13:00;METAR CYSC 141300Z 11002KT 12SM BKN044 BKN120 BKN250 19/18 A3031 RMK
CYSC;2003-09-14 14:00;METAR CYSC 141400Z 00000KT 15SM BKN049 BKN120 BKN250 20/19 A3030 RMK SC5AC1CI0 SLP263
CYSC;2003-09-14 15:00;METAR CYSC 141500Z 14003KT 15SM FEW037 SCT083 BKN250 23/20 A3029 RMK CU2AC2CI0 SLP259
CYSC;2003-09-14 16:00;METAR CYSC 141600Z 18007KT 15SM SCT040 BKN086 BKN250 25/20 A3028 RMK CU3AC2CI0 SLP256
CYSC;2003-09-14 17:00;METAR CYSC 141700Z 14002KT 15SM SCT024 BKN087 BKN250 26/20 A3026 RMK CU4AC1CI1 SLP247
CYSC;2003-09-14 18:00;METAR CYSC 141800Z 24003KT 15SM BKN027 BKN100 26/20 A3025 RMK SC6AC1 SLP243
CYSC;2003-09-14 19:00;METAR CYSC 141900Z 15003KT 15SM SCT033 BKN110 BKN250 26/21 A3023 RMK CU3AC2CI1 SLP237
CYSC;2003-09-14 20:00;METAR CYSC 142000Z 21002KT 15SM BKN025 BKN079 BKN250 26/21 A3022 RMK CU5AC1CI0 SLP233
CYSC;2003-09-14 21:00;METAR CYSC 142100Z 17005KT 15SM -SHRA BKN039 BKN080 BKN250 24/20 A3021 RMK CU5AC2CI0 LAST MANNED OB/NEXT 151200 SLP232
CYSC;2003-09-14 22:00;METAR CYSC 142200Z AUTO 15003KT 9SM -RA CLR 22/20 A3021 RMK SLP232
CYSC;2003-09-14 23:00;METAR CYSC 142300Z AUTO 16003KT 9SM CLR 22/20 A3022 RMK SLP233
CYSC;2003-09-15 00:00;METAR CYSC 150000Z AUTO 14004KT 9SM CLR 21/19 A3022 RMK SLP234
CYSC;2003-09-15 01:00;METAR CYSC 150100Z AUTO 18003KT 9SM CLR 21/19 A3022 RMK SLP235
CYSC;2003-09-15 02:00;METAR CYSC 150200Z AUTO 14003KT 9SM CLR 20/18 A3021 RMK SLP233
CYSC;2003-09-15 03:00;METAR CYSC 150300Z AUTO 00000KT 9SM CLR 19/18 A3021 RMK SLP230
CYSC;2003-09-15 04:00;METAR CYSC 150400Z AUTO 16003KT 9SM CLR 19/18 A3020 RMK SLP227
CYSC;2003-09-15 05:00;METAR CYSC 150500Z AUTO 18003KT 9SM CLR 20/18 A3020 RMK SLP227
CYSC;2003-09-15 06:00;METAR CYSC 150600Z AUTO 09003KT 9SM CLR 18/17 A3019 RMK SLP224
CYSC;2003-09-15 07:00;METAR CYSC 150700Z AUTO 09003KT 9SM CLR 18/17 A3019 RMK SLP223
CYSC;2003-09-15 08:00;METAR CYSC 150800Z AUTO 13004KT 7SM CLR 17/16 A3018 RMK SLP219
CYSC;2003-09-15 09:00;METAR CYSC 150900Z AUTO 11003KT 7SM FEW078 17/16 A3016 RMK SLP215
CYSC;2003-09-15 10:00;METAR CYSC 151000Z AUTO 14004KT 9SM CLR 18/17 A3017 RMK SLP217
CYSC;2003-09-15 11:00;METAR CYSC 151100Z AUTO 12003KT 9SM FEW060 19/17 A3017 RMK SLP217
CYSC;2003-09-15 12:00;METAR CYSC 151200Z CCA 00000KT 15SM SCT068 SCT120 BKN250 22/18 A3017 RMK
CYSC;2003-09-15 13:00;METAR CYSC 151300Z 19006KT 15SM FEW038 SCT087 SCT250 23/18 A3017 RMK CU1AC3CI0 SLP215
CYSC;2003-09-15 14:00;METAR CYSC 151400Z 17006KT 15SM FEW040 FEW087 FEW250 25/18 A3015 RMK CU1AC2CI0 SLP211
CYSC;2003-09-15 15:00;METAR CYSC 151500Z 20009KT 15SM FEW048 FEW090 SCT250 26/17 A3015 RMK CU1AC2CI1 SLP208
CYSC;2003-09-15 16:00;METAR CYSC 151600Z 23010KT 15SM FEW050 FEW081 FEW250 28/18 A3013 RMK CU1AC1CI0 SLP202
CYSC;2003-09-15 17:00;METAR CYSC 151700Z 20007KT 15SM FEW043 FEW085 FEW250 29/18 A3012 RMK CU1AC1CI0 SLP198
CYSC;2003-09-15 18:00;METAR CYSC 151800Z 19006KT 15SM FEW041 FEW087 FEW250 28/18 A3010 RMK CU1AC1CI1 SLP192
CYSC;2003-09-15 19:00;METAR CYSC 151900Z 19008KT 15SM FEW040 FEW085 SCT250 29/18 A3008 RMK CU2AC1CI1 SLP186
CYSC;2003-09-15 20:00;METAR CYSC 152000Z 23009KT 15SM FEW046 SCT086 SCT250 28/18 A3008 RMK CU2AC1CI0 SLP184
CYSC;2003-09-15 21:00;METAR CYSC 152100Z 19011KT 15SM FEW045 FEW086 SCT250 25/16 A3008 RMK CU1AC2CI1 TCU ASOCTD LAST MANNED OB/NEXT 161200 SLP184
CYSC;2003-09-15 22:00;METAR CYSC 152200Z AUTO 18003KT 9SM CLR 23/16 A3007 RMK SLP182
CYSC;2003-09-15 23:00;METAR CYSC 152300Z AUTO 13003KT 9SM CLR 21/15 A3006 RMK SLP180
CYSC;2003-09-16 00:00;METAR CYSC 160000Z AUTO 14006KT 9SM CLR 19/15 A3006 RMK SLP178
CYSC;2003-09-16 01:00;METAR CYSC 160100Z AUTO 15005KT 9SM CLR 20/16 A3006 RMK SLP178
CYSC;2003-09-16 02:00;METAR CYSC 160200Z AUTO 11004KT 9SM CLR 19/16 A3005 RMK SLP177
CYSC;2003-09-16 03:00;METAR CYSC 160300Z AUTO 00000KT 9SM CLR 17/15 A3005 RMK SLP175
CYSC;2003-09-16 04:00;METAR CYSC 160400Z AUTO 00000KT 5SM CLR 15/14 A3004 RMK SLP172
CYSC;2003-09-16 05:00;METAR CYSC 160500Z AUTO 13003KT 9SM CLR 18/16 A3003 RMK SLP167
CYSC;2003-09-16 06:00;METAR CYSC 160600Z AUTO 14003KT 9SM CLR 19/16 A3002 RMK SLP166
CYSC;2003-09-16 07:00;METAR CYSC 160700Z AUTO 15005KT 9SM CLR 19/16 A3002 RMK SLP165
CYSC;2003-09-16 08:00;METAR CYSC 160800Z AUTO 16003KT 9SM FEW032 FEW042 FEW046 19/16 A3001 RMK SLP164
CYSC;2003-09-16 09:00;METAR CYSC 160900Z AUTO 13007KT 9SM SCT046 19/16 A3001 RMK SLP162
CYSC;2003-09-16 10:00;METAR CYSC 161000Z AUTO 10004KT 9SM BKN055 19/16 A3001 RMK SLP163
CYSC;2003-09-16 11:00;METAR CYSC 161100Z AUTO 15005KT 9SM FEW029 FEW046 FEW062 18/16 A3002 RMK SLP167
CYSC;2003-09-16 12:00;METAR CYSC 161200Z CCA 27009KT 7SM -RA BKN015 OVC062 16/14 A3005 RMK NS5SC3
CYSC;2003-09-16 13:00;METAR CYSC 161300Z 27003KT 10SM BKN010 OVC060 16/15 A3006 RMK SF6SC2 SLP182
CYSC;2003-09-16 14:00;METAR CYSC 161400Z 30004KT 15SM -RA SCT008 OVC018 15/13 A3007 RMK SF3SC5 R- VRY LGT SLP183
CYSC;2003-09-16 15:00;METAR CYSC 161500Z 25003KT 8SM -RA SCT013 BKN026 OVC072 16/15 A3007 RMK SF3SC4AC1 SLP186
CYSC;2003-09-16 16:00;METAR CYSC 161600Z 27004KT 3SM -RA BR OVC010 15/14 A3008 RMK SF8 SLP190
CYSC;2003-09-16 17:00;METAR CYSC 161700Z 00000KT 10SM -RA SCT004 BKN040 OVC087 15/14 A3008 RMK SF3SC2AC2 SLP187
CYSC;2003-09-16 18:00;METAR CYSC 161800Z 18003KT 12SM -RA FEW008 BKN022 OVC080 16/14 A3007 RMK SF2SC4AC2 SLP184
CYSC;2003-09-16 19:00;METAR CYSC 161900Z 19003KT 15SM FEW012 BKN043 BKN093 BKN250 17/14 A3006 RMK SF2SC3AC1CI1 SLP180
CYSC;2003-09-16 20:00;METAR CYSC 162000Z 16004KT 15SM FEW012 BKN059 BKN099 BKN250 17/14 A3005 RMK CF2CU2AC1CI0 TCU ASOCTD SLP179
CYSC;2003-09-16 21:00;METAR CYSC 162100Z 20002KT 15SM FEW016 SCT060 BKN250 18/14 A3005 RMK CU2SC2CI1 LAST MANNED OB/NEXT 171200 SLP177
CYSC;2003-09-16 22:00;METAR CYSC 162200Z AUTO 00000KT 9SM FEW057 FEW092 18/14 A3005 RMK SLP177
CYSC;2003-09-16 23:00;METAR CYSC 162300Z AUTO 00000KT 9SM CLR 14/13 A3006 RMK SLP184
CYSC;2003-09-17 00:00;METAR CYSC 170000Z AUTO 24003KT 9SM CLR 11/10 A3009 RMK SLP192
CYSC;2003-09-17 01:00;METAR CYSC 170100Z AUTO 22003KT 9SM CLR 10/08 A3009 RMK SLP196
CYSC;2003-09-17 02:00;METAR CYSC 170200Z AUTO 00000KT 9SM CLR 09/08 A3011 RMK SLP200
CYSC;2003-09-17 03:00;METAR CYSC 170300Z AUTO 00000KT 9SM CLR 08/07 A3012 RMK SLP205
CYSC;2003-09-17 04:00;METAR CYSC 170400Z AUTO 00000KT 9SM CLR 08/07 A3013 RMK SLP210
CYSC;2003-09-17 05:00;METAR CYSC 170500Z AUTO 00000KT 3SM FEW057 07/06 A3015 RMK SLP217
CYSC;2003-09-17 06:00;METAR CYSC 170600Z AUTO 00000KT 6SM CLR 07/07 A3017 RMK SLP223
CYSC;2003-09-17 07:00;METAR CYSC 170700Z AUTO 00000KT 9SM CLR 06/05 A3019 RMK SLP227
CYSC;2003-09-17 08:00;METAR CYSC 170800Z AUTO 00000KT 5/8SM CLR 06/05 A3022 RMK VSBY VRBL 0.3V2.3 SLP238
CYSC;2003-09-17 09:00;METAR CYSC 170900Z AUTO 00000KT 6SM FEW048 06/05 A3024 RMK SLP245
CYSC;2003-09-17 10:00;METAR CYSC 171000Z AUTO 10002KT 3SM CLR 05/04 A3027 RMK SLP256
CYSC;2003-09-17 12:00;METAR CYSC 171200Z CCA 00000KT 15SM SKC 11/10 A3033 RMK SLP275
CYSC;2003-09-17 12:00;METAR CYSC 171200Z 00000KT 15SM SKC 11/10 A3033 RMK SLP275
CYSC;2003-09-17 13:00;METAR CYSC 171300Z 29004KT 15SM SKC 14/11 A3035 RMK SLP282
CYSC;2003-09-17 14:00;METAR CYSC 171400Z 33005KT 15SM SKC 16/09 A3036 RMK SLP287
CYSC;2003-09-17 15:00;METAR CYSC 171500Z 00000KT 15SM FEW020 17/09 A3036 RMK CU1 SLP286
CYSC;2003-09-17 16:00;METAR CYSC 171600Z 00000KT 15SM FEW025 18/09 A3036 RMK CU1 SLP284
CYSC;2003-09-17 17:00;METAR CYSC 171700Z 33004KT 15SM FEW030 19/09 A3035 RMK CU1 SLP283
CYSC;2003-09-17 18:00;METAR CYSC 171800Z 29008KT 15SM FEW040 20/09 A3036 RMK CU1 SLP284
CYSC;2003-09-17 19:00;METAR CYSC 171900Z 31005KT 15SM FEW045 21/09 A3036 RMK CU1 SLP284
CYSC;2003-09-17 20:00;METAR CYSC 172000Z 30005KT 15SM FEW045 21/09 A3035 RMK CU1 SLP281
CYSC;2003-09-17 21:00;METAR CYSC 172100Z 24002KT 15SM SKC 21/08 A3034 RMK LAST MANNED OB/NEXT 181200 SLP278
CYSC;2003-09-17 22:00;METAR CYSC 172200Z AUTO 33003KT 9SM CLR 19/10 A3034 RMK SLP280
CYSC;2003-09-17 23:00;METAR CYSC 172300Z AUTO 00000KT 9SM CLR 14/11 A3036 RMK SLP288
CYSC;2003-09-18 00:00;METAR CYSC 180000Z AUTO 00000KT 9SM CLR 11/09 A3039 RMK SLP297
CYSC;2003-09-18 01:00;METAR CYSC 180100Z AUTO 10003KT 9SM CLR 10/09 A3041 RMK SLP302
CYSC;2003-09-18 02:00;METAR CYSC 180200Z AUTO 10002KT 9SM CLR 10/09 A3042 RMK SLP305
CYSC;2003-09-18 03:00;METAR CYSC 180300Z AUTO 10002KT 9SM CLR 09/08 A3043 RMK SLP310
CYSC;2003-09-18 04:00;METAR CYSC 180400Z AUTO 14002KT 9SM CLR 08/07 A3043 RMK SLP309
CYSC;2003-09-18 05:00;METAR CYSC 180500Z AUTO 10002KT 9SM CLR 07/06 A3043 RMK SLP308
CYSC;2003-09-18 06:00;METAR CYSC 180600Z AUTO 10004KT 9SM CLR 07/06 A3043 RMK SLP308
CYSC;2003-09-18 07:00;METAR CYSC 180700Z AUTO 10004KT 9SM CLR 07/06 A3043 RMK SLP311
CYSC;2003-09-18 08:00;METAR CYSC 180800Z AUTO 09004KT 9SM CLR 07/06 A3044 RMK SLP312
CYSC;2003-09-18 09:00;METAR CYSC 180900Z AUTO 08005KT 9SM CLR 07/06 A3045 RMK SLP315
CYSC;2003-09-18 10:00;METAR CYSC 181000Z AUTO 12004KT 9SM CLR 06/05 A3046 RMK SLP320
CYSC;2003-09-18 11:00;METAR CYSC 181100Z AUTO 08003KT 9SM CLR 06/05 A3049 RMK SLP331
CYSC;2003-09-18 12:00;METAR CYSC 181200Z CCA 07004KT 15SM BKN250 08/07 A3050 RMK CI3 SLP336
CYSC;2003-09-18 13:00;METAR CYSC 181300Z 08003KT 15SM FEW220 BKN250 11/09 A3051 RMK CS2CI2 HALO SLP339
CYSC;2003-09-18 14:00;METAR CYSC 181400Z 05002KT 15SM FEW220 BKN250 15/11 A3050 RMK CS2CI2 SLP337
CYSC;2003-09-18 15:00;METAR CYSC 181500Z 07002KT 15SM BKN250 19/13 A3050 RMK CI5 CC ASOCTD SLP332
CYSC;2003-09-18 16:00;METAR CYSC 181600Z 11007KT 15SM FEW020 FEW094 BKN250 22/12 A3048 RMK CU1AC1CI4 CU TR SLP325
CYSC;2003-09-18 17:00;METAR CYSC 181700Z 12006KT 15SM FEW051 FEW110 BKN250 23/11 A3046 RMK CU1AC1CI4 AC TR SLP320
CYSC;2003-09-18 18:00;METAR CYSC 181800Z 15006KT 15SM FEW053 FEW086 BKN250 24/10 A3045 RMK CU1AC1CI4 CU TR SLP314
CYSC;2003-09-18 19:00;METAR CYSC 181900Z 15010KT 15SM FEW050 FEW090 BKN250 24/11 A3044 RMK CU1AC1CI4 SLP311
CYSC;2003-09-18 20:00;METAR CYSC 182000Z 14006KT 15SM FEW050 FEW110 BKN250 23/10 A3043 RMK CU1AC1CI4 SLP307
CYSC;2003-09-18 21:00;METAR CYSC 182100Z 13006KT 15SM FEW090 BKN250 23/10 A3041 RMK AC1CI3 LAST MANNED OB/NEXT 191200 SLP303
CYSC;2003-09-18 22:00;METAR CYSC 182200Z AUTO 12004KT 9SM CLR 19/12 A3040 RMK SLP301
CYSC;2003-09-18 23:00;METAR CYSC 182300Z AUTO 13003KT 9SM CLR 15/12 A3041 RMK SLP305
CYSC;2003-09-19 00:00;METAR CYSC 190000Z AUTO 00000KT 9SM CLR 13/10 A3042 RMK SLP307
CYSC;2003-09-19 01:00;METAR CYSC 190100Z AUTO 00000KT 9SM CLR 11/09 A3043 RMK SLP311
CYSC;2003-09-19 02:00;METAR CYSC 190200Z AUTO 06005KT 9SM CLR 11/09 A3042 RMK SLP306
CYSC;2003-09-19 03:00;METAR CYSC 190300Z AUTO 09002KT 9SM CLR 11/09 A3040 RMK SLP298
CYSC;2003-09-19 05:00;METAR CYSC 190500Z AUTO 06005KT 9SM CLR 11/09 A3036 RMK SLP285
CYSC;2003-09-19 06:00;METAR CYSC 190600Z AUTO 08003KT 9SM CLR 10/08 A3035 RMK SLP282
CYSC;2003-09-19 07:00;METAR CYSC 190700Z AUTO 10002KT 9SM CLR 10/08 A3035 RMK SLP282
CYSC;2003-09-19 08:00;METAR CYSC 190800Z AUTO 05004KT 9SM CLR 10/09 A3034 RMK SLP278
CYSC;2003-09-19 09:00;METAR CYSC 190900Z AUTO 06006KT 9SM CLR 10/08 A3032 RMK SLP272
CYSC;2003-09-19 10:00;METAR CYSC 191000Z AUTO 06007KT 9SM CLR 10/08 A3031 RMK SLP267
CYSC;2003-09-19 11:00;METAR CYSC 191100Z AUTO 07006KT 9SM CLR 10/08 A3030 RMK SLP267
CYSC;2003-09-19 12:00;METAR CYSC 191200Z CCA 05005KT 15SM FEW120 BKN250 12/08 A3031 RMK AC2CI2
CYSC;2003-09-19 13:00;METAR CYSC 191300Z 07004KT 15SM FEW120 BKN250 15/10 A3029 RMK ACC2CI2 SLP263
CYSC;2003-09-19 14:00;METAR CYSC 191400Z 10006KT 15SM FEW120 SCT250 19/10 A3026 RMK ACC2CI1 SLP253
CYSC;2003-09-19 15:00;METAR CYSC 191500Z CCA 12007KT 15SM FEW042 SCT093 BKN250 20/10 A3024 RMK CU2AC2CI1 ACC ASOCTD SLP245
CYSC;2003-09-19 16:00;METAR CYSC 191600Z 13013KT 15SM SCT038 BKN082 BKN250 20/11 A3023 RMK CU3AC2CI1 ACC ASOCTD SLP239
CYSC;2003-09-19 17:00;METAR CYSC 191700Z 12011G20KT 15SM SCT035 BKN079 BKN250 20/13 A3021 RMK CU3AC2CI0 ACC ASOCTD SLP232
CYSC;2003-09-19 18:00;METAR CYSC 191800Z 14012G18KT 15SM -SHRA SCT031 BKN060 BKN120 BKN250 19/14 A3018 RMK CU3SC2AC2CI0 ACC EMBDD SLP225
CYSC;2003-09-19 19:00;METAR CYSC 191900Z 13009G15KT 15SM BKN020 BKN120 BKN250 19/14 A3016 RMK CU5AC2CI0 SLP217
CYSC;2003-09-19 20:00;METAR CYSC 192000Z 13012G18KT 15SM FEW025 SCT093 BKN250 20/15 A3014 RMK CU2AC2CI1 TCU-ACC ASOCTD SLP209
CYSC;2003-09-19 21:00;METAR CYSC 192100Z 13015G20KT 15SM FEW034 SCT120 BKN250 21/15 A3012 RMK CU2AC2CI0 TCU-ACC ASOCTD LAST MANNED OB/NEXT 201200 SLP203
CYSC;2003-09-19 22:00;METAR CYSC 192200Z AUTO 13011G20KT 9SM SCT026 OVC053 21/15 A3012 RMK SLP202
CYSC;2003-09-19 23:00;METAR CYSC 192300Z AUTO 12011G16KT 9SM CLR 19/15 A3010 RMK SLP196
CYSC;2003-09-20 00:00;METAR CYSC 200000Z AUTO 12015G21KT 9SM FEW070 19/15 A3007 RMK SLP187
CYSC;2003-09-20 01:00;METAR CYSC 200100Z AUTO 14015G21KT 9SM CLR 19/15 A3006 RMK SLP181
CYSC;2003-09-20 02:00;METAR CYSC 200200Z AUTO 13012KT 9SM CLR 19/16 A3003 RMK SLP172
CYSC;2003-09-20 03:00;METAR CYSC 200300Z AUTO 15008G21KT 9SM CLR 19/16 A3002 RMK SLP167
CYSC;2003-09-20 04:00;METAR CYSC 200400Z AUTO 15009KT 9SM CLR 19/16 A3002 RMK SLP165
CYSC;2003-09-20 05:00;METAR CYSC 200500Z AUTO 15006KT 9SM FEW074 19/16 A2999 RMK SLP156
CYSC;2003-09-20 06:00;METAR CYSC 200600Z AUTO 14005KT 9SM BKN069 19/16 A2999 RMK SLP155
CYSC;2003-09-20 07:00;METAR CYSC 200700Z AUTO 20003KT 9SM OVC029 OVC082 20/16 A3000 RMK SLP160
CYSC;2003-09-20 08:00;METAR CYSC 200800Z AUTO 16005KT 9SM FEW032 BKN039 19/17 A3001 RMK SLP163
CYSC;2003-09-20 09:00;METAR CYSC 200900Z AUTO 17006KT 9SM FEW046 SCT061 20/17 A3002 RMK SLP166
CYSC;2003-09-20 10:00;METAR CYSC 201000Z AUTO 21002KT 9SM FEW028 SCT049 BKN067 BKN093 19/17 A3004 RMK SLP176
CYSC;2003-09-20 11:00;METAR CYSC 201100Z AUTO 04002KT 9SM BKN069 18/17 A3007 RMK SLP183
CYSC;2003-09-20 12:00;METAR CYSC 201200Z 00000KT 10SM -RA FEW034 BKN059 OVC100 19/18 A3008 RMK SC2SC4AC2 SLP187
CYSC;2003-09-20 13:00;METAR CYSC 201300Z 20003KT 12SM FEW041 BKN075 BKN093 21/18 A3008 RMK SC1AC5AC2 SLP188
CYSC;2003-09-20 14:00;METAR CYSC 201400Z 23006KT 15SM FEW020 BKN036 OVC071 21/18 A3009 RMK CF1SC6AC1 SLP191
CYSC;2003-09-20 15:00;METAR CYSC 201500Z 23006KT 15SM BKN022 OVC040 21/17 A3009 RMK CF5SC3 SLP191
CYSC;2003-09-20 16:00;METAR CYSC 201600Z 25004KT 15SM SCT024 BKN040 OVC085 21/16 A3010 RMK CF4SC3AC1 SLP192
CYSC;2003-09-20 17:00;METAR CYSC 201700Z 25007KT 15SM FEW020 BKN028 21/15 A3010 RMK CF1SC7 SLP192
CYSC;2003-09-20 18:00;METAR CYSC 201800Z 23004KT 15SM BKN038 21/14 A3009 RMK SC7 SLP190
CYSC;2003-09-20 19:00;METAR CYSC 201900Z 23004KT 15SM OVC033 20/14 A3009 RMK SC8 CU EMBDD SLP191
CYSC;2003-09-20 20:00;METAR CYSC 202000Z 24004KT 15SM BKN031 BKN055 20/15 A3010 RMK SC6SC1 SLP194
CYSC;2003-09-20 21:00;METAR CYSC 202100Z 28008KT 15SM BKN031 BKN079 19/13 A3011 RMK SC5AC1 LAST MANNED OB/NEXT 211200 SLP198
CYSC;2003-09-20 22:00;METAR CYSC 202200Z AUTO 29007KT 9SM BKN049 19/12 A3013 RMK SLP206
CYSC;2003-09-20 23:00;METAR CYSC 202300Z AUTO 27005KT 9SM FEW056 16/11 A3016 RMK SLP215
CYSC;2003-09-21 00:00;METAR CYSC 210000Z AUTO 25002KT 9SM BKN056 15/10 A3018 RMK SLP221
CYSC;2003-09-21 01:00;METAR CYSC 210100Z AUTO 00000KT 9SM BKN058 11/10 A3019 RMK SLP228
CYSC;2003-09-21 02:00;METAR CYSC 210200Z AUTO 22002KT 9SM CLR 10/09 A3021 RMK SLP232
CYSC;2003-09-21 03:00;METAR CYSC 210300Z AUTO 00000KT 9SM FEW059 09/08 A3021 RMK SLP236
CYSC;2003-09-21 04:00;METAR CYSC 210400Z AUTO 00000KT 9SM CLR 07/06 A3022 RMK SLP237
CYSC;2003-09-21 05:00;METAR CYSC 210500Z AUTO 00000KT 9SM FEW042 07/07 A3023 RMK SLP241
CYSC;2003-09-21 06:00;METAR CYSC 210600Z AUTO 00000KT 5SM FEW055 07/06 A3024 RMK SLP244
CYSC;2003-09-21 07:00;METAR CYSC 210700Z AUTO 00000KT 9SM BKN055 09/08 A3024 RMK SLP245
CYSC;2003-09-21 08:00;METAR CYSC 210800Z AUTO 00000KT 9SM OVC055 09/09 A3025 RMK SLP248
CYSC;2003-09-21 09:00;METAR CYSC 210900Z AUTO 00000KT 9SM OVC053 09/09 A3026 RMK SLP253
CYSC;2003-09-21 10:00;METAR CYSC 211000Z AUTO 00000KT 9SM OVC051 10/09 A3028 RMK SLP257
CYSC;2003-09-21 11:00;METAR CYSC 211100Z AUTO 00000KT 9SM OVC049 10/09 A3030 RMK SLP265
CYSC;2003-09-21 12:00;METAR CYSC 211200Z 23002KT 15SM OVC047 12/11 A3031 RMK SC8 SLP267
CYSC;2003-09-21 13:00;METAR CYSC 211300Z 24002KT 15SM OVC047 13/11 A3031 RMK SC8 SLP269
CYSC;2003-09-21 14:00;METAR CYSC 211400Z 00000KT 15SM FEW030 OVC047 15/12 A3032 RMK CF1SC7 SLP271
CYSC;2003-09-21 15:00;METAR CYSC 211500Z 26002KT 15SM FEW036 OVC046 16/12 A3032 RMK CF1SC7 SLP273
CYSC;2003-09-21 16:00;METAR CYSC 211600Z 27006KT 15SM FEW040 OVC075 17/12 A3032 RMK CF2AC6 SLP272
CYSC;2003-09-21 17:00;METAR CYSC 211700Z 29005KT 15SM FEW035 BKN045 OVC067 17/11 A3031 RMK CF2SC4AC2 SLP268
CYSC;2003-09-21 18:00;METAR CYSC 211800Z 31005KT 15SM FEW025 SCT032 OVC050 17/10 A3030 RMK CF1SC3SC4 SLP266
CYSC;2003-09-21 19:00;METAR CYSC 211900Z 32004KT 15SM FEW030 OVC041 17/11 A3030 RMK CF1SC7 SLP265
CYSC;2003-09-21 20:00;METAR CYSC 212000Z 31004KT 15SM FEW035 OVC043 17/12 A3030 RMK CF2SC6
CYSC;2003-09-21 21:00;METAR CYSC 212100Z 30003KT 15SM OVC034 16/12 A3030 RMK SC8 LAST MANNED OB/NEXT 221200 SLP266
CYSC;2003-09-21 22:00;METAR CYSC 212200Z AUTO 00000KT 9SM OVC042 16/12 A3030 RMK SLP266
CYSC;2003-09-21 23:00;METAR CYSC 212300Z AUTO 16002KT 9SM OVC044 15/12 A3030 RMK SLP267
CYSC;2003-09-22 00:00;METAR CYSC 220000Z AUTO 00000KT 9SM OVC044 14/12 A3030 RMK SLP268
CYSC;2003-09-22 01:00;METAR CYSC 220100Z AUTO 00000KT 9SM OVC044 13/12 A3031 RMK SLP269
CYSC;2003-09-22 02:00;METAR CYSC 220200Z AUTO 30002KT 9SM OVC041 13/12 A3032 RMK SLP271
CYSC;2003-09-22 03:00;METAR CYSC 220300Z AUTO 00000KT 9SM OVC041 13/12 A3033 RMK SLP274
CYSC;2003-09-22 04:00;METAR CYSC 220400Z AUTO 14002KT 9SM OVC043 13/12 A3032 RMK SLP272
CYSC;2003-09-22 05:00;METAR CYSC 220500Z AUTO 00000KT 9SM OVC043 13/12 A3032 RMK SLP273
CYSC;2003-09-22 06:00;METAR CYSC 220600Z AUTO 07002KT 9SM OVC043 13/12 A3031 RMK SLP269
CYSC;2003-09-22 07:00;METAR CYSC 220700Z AUTO 00000KT 9SM OVC043 13/12 A3031 RMK SLP268
CYSC;2003-09-22 08:00;METAR CYSC 220800Z AUTO 09002KT 9SM OVC041 13/12 A3029 RMK SLP263
CYSC;2003-09-22 09:00;METAR CYSC 220900Z AUTO 07003KT 9SM OVC041 13/12 A3030 RMK SLP264
CYSC;2003-09-22 10:00;METAR CYSC 221000Z AUTO 08002KT 9SM OVC041 12/11 A3029 RMK SLP262
CYSC;2003-09-22 11:00;METAR CYSC 221100Z AUTO 08003KT 9SM OVC041 12/11 A3030 RMK SLP264
CYSC;2003-09-22 12:00;METAR CYSC 221200Z 10004KT 15SM BKN041 12/10 A3029 RMK SC5 SLP262
CYSC;2003-09-22 13:00;METAR CYSC 221300Z 09004KT 15SM FEW043 FEW095 SCT240 14/10 A3028 RMK SC1AC2CI1 SLP257
CYSC;2003-09-22 14:00;METAR CYSC 221400Z 00000KT 15SM FEW040 FEW100 FEW140 SCT240 17/11 A3028 RMK CU1AC1AC2CI1 CU TR SLP257
CYSC;2003-09-22 15:00;METAR CYSC 221500Z CCA 15007KT 15SM FEW039 FEW240 20/10 A3025 RMK CU2CI1
CYSC;2003-09-22 16:00;METAR CYSC 221600Z 18006KT 15SM FEW040 SCT240 21/10 A3022 RMK CU2CI1 SLP237
CYSC;2003-09-22 17:00;METAR CYSC 221700Z 16005KT 15SM FEW034 FEW062 SCT240 22/12 A3021 RMK CU1SC1CI1 SLP232
CYSC;2003-09-22 18:00;METAR CYSC 221800Z 17009KT 15SM FEW044 FEW060 SCT240 21/11 A3018 RMK CU1SC1CI2 SLP223
CYSC;2003-09-22 19:00;METAR CYSC 221900Z 18004KT 15SM FEW043 FEW065 BKN240 22/11 A3015 RMK CU1SC2CI2 SLP212
CYSC;2003-09-22 20:00;METAR CYSC 222000Z 16007KT 15SM FEW040 FEW065 BKN240 22/11 A3014 RMK CU1SC1CI2 SC TR SLP209
CYSC;2003-09-22 21:00;METAR CYSC 222100Z 13008KT 15SM FEW040 FEW070 BKN220 20/11 A3012 RMK CU1AC1CS3 LAST MANNED OB/NEXT 231200 SLP203
CYSC;2003-09-22 22:00;METAR CYSC 222200Z AUTO 12007KT 9SM FEW048 18/11 A3011 RMK SLP199
CYSC;2003-09-22 23:00;METAR CYSC 222300Z AUTO 12007KT 9SM CLR 17/11 A3010 RMK SLP198
CYSC;2003-09-23 00:00;METAR CYSC 230000Z AUTO 13008KT 9SM CLR 16/11 A3010 RMK SLP196
CYSC;2003-09-23 01:00;METAR CYSC 230100Z AUTO 13008KT 9SM CLR 15/11 A3009 RMK SLP192
CYSC;2003-09-23 02:00;METAR CYSC 230200Z AUTO 13007KT 9SM CLR 15/11 A3006 RMK SLP183
CYSC;2003-09-23 03:00;METAR CYSC 230300Z AUTO 15004KT 9SM CLR 15/10 A3005 RMK SLP178
CYSC;2003-09-23 04:00;METAR CYSC 230400Z AUTO 14008KT 9SM FEW047 15/10 A3002 RMK SLP167
CYSC;2003-09-23 05:00;METAR CYSC 230500Z AUTO 14008KT 9SM CLR 15/10 A3000 RMK SLP160
CYSC;2003-09-23 06:00;METAR CYSC 230600Z AUTO 13009G15KT 9SM CLR 15/09 A2996 RMK SLP147
CYSC;2003-09-23 07:00;METAR CYSC 230700Z AUTO 14005KT 9SM CLR 15/09 A2993 RMK SLP137
CYSC;2003-09-23 08:00;METAR CYSC 230800Z AUTO 13006KT 9SM CLR 15/09 A2989 RMK SLP125
CYSC;2003-09-23 09:00;METAR CYSC 230900Z AUTO 15009KT 9SM BKN071 BKN093 15/09 A2988 RMK SLP119
CYSC;2003-09-23 10:00;METAR CYSC 231000Z AUTO 12005KT 9SM -RA FEW053 14/11 A2987 RMK SLP118
CYSC;2003-09-23 11:00;METAR CYSC 231100Z AUTO 12006KT 8SM -RA CLR 14/11 A2986 RMK SLP113
CYSC;2003-09-23 12:00;METAR CYSC 231200Z 14005KT 10SM -RA BKN034 OVC080 14/12 A2984 RMK SC6AC2 SLP106
CYSC;2003-09-23 13:00;METAR CYSC 231300Z 13005KT 12SM -RA SCT028 OVC073 14/12 A2982 RMK SC4AC4 SLP099
CYSC;2003-09-23 14:00;METAR CYSC 231400Z 19003KT 12SM -RA FEW022 BKN034 OVC070 15/13 A2981 RMK CF2SC6AC1 SLP098
CYSC;2003-09-23 15:00;METAR CYSC 231500Z 16002KT 6SM -RA BR BKN018 OVC040 15/14 A2979 RMK CF6SC2 SLP091
CYSC;2003-09-23 16:00;METAR CYSC 231600Z 15004KT 5SM -RA BR BKN015 BKN030 OVC070 15/14 A2976 RESN RMK CF5SC2AC1 SLP079
CYSC;2003-09-23 17:00;METAR CYSC 231700Z 16005KT 2 1/2SM RA BR BKN013 OVC038 15/14 A2974 RMK CF6SC2 SLP074
CYSC;2003-09-23 18:00;METAR CYSC 231800Z CCA 13006KT 8SM -RA FEW012 BKN018 OVC035 15/14 A2973 RESN RMK CF1SC6SC2 /R17/ SLP069
CYSC;2003-09-23 19:00;METAR CYSC 231900Z CCA 09009KT 7SM -RA BKN021 OVC040 15/14 A2967 RMK SC7SC1 PRESFR SLP049
CYSC;2003-09-23 20:00;METAR CYSC 232000Z 00000KT 15SM -RA FEW015 BKN028 OVC077 15/14 A2967 RMK CF1SC6AC1 SLP051
CYSC;2003-09-23 21:00;METAR CYSC 232100Z 00000KT 15SM -RA FEW015 OVC038 15/14 A2967 RMK CF1SC7 LAST MANNED OB/NEXT 241200 SLP048
CYSC;2003-09-23 22:00;METAR CYSC 232200Z AUTO 25005KT 4SM -RA BKN005 OVC021 15/15 A2970 RMK SLP059
CYSC;2003-09-23 23:00;METAR CYSC 232300Z AUTO 21004KT 9SM OVC031 15/14 A2971 RMK PCPN 0.5MM PAST HR SLP063
CYSC;2003-09-24 00:00;METAR CYSC 240000Z AUTO 19005KT 9SM FEW062 FEW077 FEW089 15/14 A2973 RMK SLP070
CYSC;2003-09-24 01:00;METAR CYSC 240100Z AUTO 21004KT 9SM FEW006 FEW065 14/13 A2975 RMK SLP079
CYSC;2003-09-24 02:00;METAR CYSC 240200Z AUTO 23005KT 9SM FEW026 13/12 A2978 RMK SLP087
CYSC;2003-09-24 03:00;METAR CYSC 240300Z AUTO 24007KT 9SM CLR 12/11 A2980 RMK SLP095
CYSC;2003-09-24 04:00;METAR CYSC 240400Z AUTO 25005KT 9SM CLR 11/10 A2983 RMK SLP104
CYSC;2003-09-24 05:00;METAR CYSC 240500Z AUTO 22005KT 9SM BKN024 BKN039 BKN075 11/10 A2985 RMK SLP112
CYSC;2003-09-24 06:00;METAR CYSC 240600Z AUTO 20004KT 9SM FEW027 FEW033 11/09 A2987 RMK SLP119
CYSC;2003-09-24 07:00;METAR CYSC 240700Z AUTO 22004KT 9SM CLR 10/08 A2988 RMK SLP123
CYSC;2003-09-24 08:00;METAR CYSC 240800Z AUTO 19005KT 9SM FEW027 10/09 A2989 RMK SLP127
CYSC;2003-09-24 09:00;METAR CYSC 240900Z AUTO 23006KT 9SM FEW028 10/08 A2991 RMK SLP134
CYSC;2003-09-24 10:00;METAR CYSC 241000Z AUTO 23004KT 9SM FEW032 10/08 A2994 RMK SLP144
CYSC;2003-09-24 11:00;METAR CYSC 241100Z AUTO 22003KT 9SM CLR 09/08 A2996 RMK SLP152
CYSC;2003-09-24 12:00;METAR CYSC 241200Z 24004KT 15SM SCT028 SCT050 11/09 A2998 RMK SC3SC1 SLP156
CYSC;2003-09-24 13:00;METAR CYSC 241300Z 24008KT 15SM SCT023 SCT058 13/10 A3000 RMK SC3SC1 CU ASOCTD SLP161
CYSC;2003-09-24 14:00;METAR CYSC 241400Z 23004KT 15SM BKN030 BKN050 14/11 A3002 RMK SC6SC1 CU ASOCTD SLP168
CYSC;2003-09-24 15:00;METAR CYSC 241500Z 25006KT 15SM BKN022 16/11 A3003 RMK SC6 CU ASOCTD SLP171
CYSC;2003-09-24 16:00;METAR CYSC 241600Z 26008KT 15SM BKN026 16/10 A3002 RMK SC5 CU ASOCTD SLP170
CYSC;2003-09-24 17:00;METAR CYSC 241700Z 23009KT 15SM BKN032 17/09 A3002 RMK SC5 CU ASOCTD SLP169
CYSC;2003-09-24 18:00;METAR CYSC 241800Z 21007KT 15SM SCT038 18/09 A3000 RMK CU4 SLP163
CYSC;2003-09-24 19:00;METAR CYSC 241900Z 23008KT 15SM BKN040 18/09 A3002 RMK SC6 CU ASOCTD SLP167
CYSC;2003-09-24 20:00;METAR CYSC 242000Z 24006KT 15SM FEW030 BKN044 BKN075 18/09 A3002 RMK CU2SC3AC1 SLP168
CYSC;2003-09-24 21:00;METAR CYSC 242100Z 22004KT 15SM FEW034 BKN061 17/10 A3002 RMK CF2SC5 LAST MANNED OB/NEXT 251200 SLP169
CYSC;2003-09-24 22:00;METAR CYSC 242200Z AUTO 18003KT 9SM OVC061 16/10 A3002 RMK SLP169
CYSC;2003-09-24 23:00;METAR CYSC 242300Z AUTO 16004KT 9SM BKN058 13/10 A3002 RMK SLP172
CYSC;2003-09-25 00:00;METAR CYSC 250000Z AUTO 15005KT 9SM CLR 11/09 A3002 RMK SLP170
CYSC;2003-09-25 01:00;METAR CYSC 250100Z AUTO 01002KT 9SM CLR 08/08 A3002 RMK SLP172
CYSC;2003-09-25 02:00;METAR CYSC 250200Z AUTO 11004KT 9SM CLR 09/08 A3000 RMK SLP164
CYSC;2003-09-25 03:00;METAR CYSC 250300Z AUTO 11005KT 9SM CLR 07/06 A2999 RMK SLP162
CYSC;2003-09-25 04:00;METAR CYSC 250400Z AUTO 09003KT 9SM CLR 06/05 A2998 RMK SLP156
CYSC;2003-09-25 05:00;METAR CYSC 250500Z AUTO 00000KT 9SM CLR 07/06 A2997 RMK SLP154
CYSC;2003-09-25 06:00;METAR CYSC 250600Z AUTO 10005KT 9SM CLR 09/07 A2995 RMK SLP147
CYSC;2003-09-25 07:00;METAR CYSC 250700Z AUTO 10004KT 9SM CLR 10/08 A2992 RMK SLP138
CYSC;2003-09-25 08:00;METAR CYSC 250800Z AUTO 11004KT 9SM FEW077 08/07 A2992 RMK SLP135
CYSC;2003-09-25 09:00;METAR CYSC 250900Z AUTO 11002KT 9SM FEW001 FEW040 OVC069 11/09 A2991 RMK SLP131
CYSC;2003-09-25 10:00;METAR CYSC 251000Z AUTO 11004KT 9SM BKN077 11/09 A2989 RMK SLP124
CYSC;2003-09-25 11:00;METAR CYSC 251100Z AUTO 05002KT 9SM FEW085 10/08 A2989 RMK SLP125
CYSC;2003-09-25 12:00;METAR CYSC 251200Z 11003KT 15SM FEW040 FEW086 FEW140 13/10 A2986 RMK SC1AC1AC1 SLP117
CYSC;2003-09-25 13:00;METAR CYSC 251300Z 17010KT 15SM FEW100 17/10 A2986 RMK AC1 SLP117
CYSC;2003-09-25 14:00;METAR CYSC 251400Z 18010G17KT 15SM FEW040 FEW100 20/10 A2985 RMK SC1AC1 SLP112
CYSC;2003-09-25 15:00;METAR CYSC 251500Z 19010G15KT 15SM FEW040 FEW200 21/11 A2983 RMK SC1CI2 SLP105
CYSC;2003-09-25 16:00;METAR CYSC 251600Z 19011G17KT 15SM FEW040 FEW090 FEW140 22/11 A2982 RMK SC1AC1AC1 SLP102
CYSC;2003-09-25 17:00;METAR CYSC 251700Z 21012KT 15SM SCT032 BKN067 BKN120 21/11 A2985 RMK SC4AC2AC1 SLP110
CYSC;2003-09-25 18:00;METAR CYSC 251800Z 21007KT 15SM FEW045 BKN053 BKN095 OVC140 20/12 A2984 RMK SC1SC4AC2AC1 SLP108
CYSC;2003-09-25 19:00;METAR CYSC 251900Z 20008KT 15SM SCT048 BKN063 BKN100 20/13 A2983 RMK SC4SC2AC2 SLP104
CYSC;2003-09-25 20:00;METAR CYSC 252000Z 27007KT 10SM -SHRA BKN027 OVC070 17/14 A2985 RMK SC7AC1 SLP110
CYSC;2003-09-25 21:00;METAR CYSC 252100Z 28009KT 15SM -SHRA FEW007 BKN011 OVC032 12/11 A2990 RMK CF1SC6SC2 LAST MANNED OB/NEXT 261200 PRESRR SLP131
CYSC;2003-09-25 22:00;METAR CYSC 252200Z AUTO 00000KT 8SM RA FEW021 OVC028 12/11 A2993 RMK PCPN 1.5MM PAST HR SLP139
CYSC;2003-09-25 23:00;METAR CYSC 252300Z AUTO 17004KT 9SM BKN045 BKN052 11/10 A2995 RMK SLP147
CYSC;2003-09-26 00:00;METAR CYSC 260000Z AUTO 19003KT 9SM CLR 10/09 A2998 RMK SLP156
CYSC;2003-09-26 01:00;METAR CYSC 260100Z AUTO 13003KT 1 1/8SM CLR 09/08 A2999 RMK VSBY VRBL 0.3V9.+ SLP161
CYSC;2003-09-26 02:00;METAR CYSC 260200Z AUTO 33002KT 6SM CLR 08/08 A3001 RMK SLP166
CYSC;2003-09-26 03:00;METAR CYSC 260300Z AUTO 24002KT 9SM FEW036 08/08 A3002 RMK SLP171
CYSC;2003-09-26 04:00;METAR CYSC 260400Z AUTO 09003KT 1 1/8SM CLR 07/07 A3003 RMK SLP174
CYSC;2003-09-26 05:00;METAR CYSC 260500Z AUTO 00000KT 3/8SM FEW040 06/05 A3003 RMK SLP175
CYSC;2003-09-26 06:00;METAR CYSC 260600Z AUTO 00000KT 1/2SM CLR 05/04 A3005 RMK SLP181
CYSC;2003-09-26 07:00;METAR CYSC 260700Z AUTO 00000KT 1/4SM FEW044 05/04 A3006 RMK SLP185
CYSC;2003-09-26 08:00;METAR CYSC 260800Z AUTO 10002KT 5SM BKN044 06/05 A3007 RMK SLP189
CYSC;2003-09-26 09:00;METAR CYSC 260900Z AUTO 10002KT 4SM FEW044 05/04 A3008 RMK SLP194
CYSC;2003-09-26 10:00;METAR CYSC 261000Z AUTO 00000KT 1/8SM CLR 03/02 A3010 RMK SLP201
CYSC;2003-09-26 11:00;METAR CYSC 261100Z AUTO 11003KT 7SM BKN042 04/04 A3011 RMK SLP203
CYSC;2003-09-26 12:00;METAR CYSC 261200Z 09003KT 15SM FEW050 07/06 A3013 RMK SC1 SLP209
CYSC;2003-09-26 13:00;METAR CYSC 261300Z 09003KT 15SM FEW005 FEW050 FEW240 09/08 A3014 RMK CF1SC1CI1 SLP212
CYSC;2003-09-26 14:00;METAR CYSC 261400Z 10002KT 15SM FEW015 FEW050 13/08 A3014 RMK CU1SC1 SLP213
CYSC;2003-09-26 15:00;METAR CYSC 261500Z 00000KT 15SM FEW020 15/09 A3012 RMK CU1 SLP206
CYSC;2003-09-26 16:00;METAR CYSC 261600Z 09003KT 15SM FEW027 16/10 A3012 RMK CU1 SLP205
CYSC;2003-09-26 17:00;METAR CYSC 261700Z 16002KT 15SM FEW034 18/09 A3010 RMK CU2 SLP199
CYSC;2003-09-26 18:00;METAR CYSC 261800Z CCA 07002KT 15SM FEW043 17/08 A3009 RMK CU1 WND VRB SLP194
CYSC;2003-09-26 19:00;METAR CYSC 261900Z 36002KT 15SM FEW036 18/08 A3008 RMK CU1 WND VRB SLP191
CYSC;2003-09-26 20:00;METAR CYSC 262000Z 36004KT 15SM FEW044 FEW220 18/09 A3006 RMK CU1CI1 SLP186
CYSC;2003-09-26 21:00;METAR CYSC 262100Z 36003KT 15SM FEW045 FEW090 18/09 A3006 RMK CU1AC1 LAST MANNED OB/NEXT 271200 SLP185
CYSC;2003-09-26 22:00;METAR CYSC 262200Z AUTO 00000KT 9SM CLR 17/11 A3006 RMK SLP185
CYSC;2003-09-26 23:00;METAR CYSC 262300Z AUTO 00000KT 9SM CLR 11/09 A3007 RMK SLP189
CYSC;2003-09-27 00:00;METAR CYSC 270000Z AUTO 10003KT 9SM CLR 09/08 A3008 RMK SLP192
CYSC;2003-09-27 01:00;METAR CYSC 270100Z AUTO 08004KT 9SM CLR 09/09 A3008 RMK SLP192
CYSC;2003-09-27 02:00;METAR CYSC 270200Z AUTO 07002KT 9SM CLR 10/09 A3008 RMK SLP191
CYSC;2003-09-27 03:00;METAR CYSC 270300Z AUTO 00000KT 4SM CLR 08/07 A3008 RMK SLP194
CYSC;2003-09-27 04:00;METAR CYSC 270400Z AUTO 05002KT 6SM CLR 09/08 A3009 RMK SLP194
CYSC;2003-09-27 05:00;METAR CYSC 270500Z AUTO 09004KT 9SM SCT029 10/09 A3006 RMK SLP184
CYSC;2003-09-27 06:00;METAR CYSC 270600Z AUTO 12003KT 9SM BKN030 10/09 A3006 RMK SLP185
CYSC;2003-09-27 07:00;METAR CYSC 270700Z AUTO 09004KT 8SM SCT032 09/08 A3006 RMK SLP184
CYSC;2003-09-27 08:00;METAR CYSC 270800Z AUTO 09005KT 9SM OVC023 11/09 A3006 RMK SLP182
CYSC;2003-09-27 09:00;METAR CYSC 270900Z AUTO 10006KT 9SM BKN022 OVC030 12/11 A3004 RMK SLP178
CYSC;2003-09-27 10:00;METAR CYSC 271000Z AUTO 09004KT 8SM BKN020 11/10 A3003 RMK SLP175
CYSC;2003-09-27 11:00;METAR CYSC 271100Z AUTO 07005KT 6SM CLR 12/11 A3002 RMK SLP173
CYSC;2003-09-27 12:00;METAR CYSC 271200Z CCA 07003KT 12SM FEW250 14/13 A3003 RMK CI0 HAZY SLP174
CYSC;2003-09-27 13:00;METAR CYSC 271300Z 12005KT 12SM FEW250 18/15 A3004 RMK CI1 HAZY SLP176
CYSC;2003-09-27 14:00;METAR CYSC 271400Z 14009G18KT 12SM FEW030 FEW090 FEW250 21/14 A3005 RMK CU1AC1CI0 HAZY AC TR SLP179
CYSC;2003-09-27 15:00;METAR CYSC 271500Z 14012G19KT 15SM FEW040 FEW078 FEW250 22/14 A3003 RMK CU1AC1CI0 SLP172
CYSC;2003-09-27 16:00;METAR CYSC 271600Z 16012G19KT 15SM FEW040 FEW080 FEW250 24/15 A3002 RMK CU1AC1CI0 SLP167
CYSC;2003-09-27 17:00;METAR CYSC 271700Z 17014G27KT 15SM FEW043 FEW080 SCT250 25/15 A3000 RMK CU1AC1CI1 SLP162
CYSC;2003-09-27 18:00;METAR CYSC 271800Z 18015G26KT 15SM FEW038 FEW089 26/15 A2998 RMK CU2AC1 SLP153
CYSC;2003-09-27 19:00;METAR CYSC 271900Z 16014KT 15SM SCT045 SCT250 26/16 A2997 RMK CU4CI1 SLP151
CYSC;2003-09-27 20:00;METAR CYSC 272000Z CCA 16013G19KT 15SM BKN038 BKN087 BKN220 24/16 A2996 RMK CU5AC1CC1 SLP148
CYSC;2003-09-27 21:00;METAR CYSC 272100Z 14011G17KT 15SM FEW033 FEW090 SCT220 23/16 A2996 RMK CU2AC1CC1 LAST MANNED OB/NEXT 281200 SLP148
CYSC;2003-09-27 22:00;METAR CYSC 272200Z AUTO 12009KT 9SM CLR 21/15 A2997 RMK SLP153
CYSC;2003-09-27 23:00;METAR CYSC 272300Z AUTO 13008KT 9SM CLR 20/14 A2997 RMK SLP152
CYSC;2003-09-28 00:00;METAR CYSC 280000Z AUTO 13005KT 9SM FEW051 18/14 A2998 RMK SLP156
CYSC;2003-09-28 01:00;METAR CYSC 280100Z AUTO 09003KT 9SM CLR 17/14 A2998 RMK SLP155
CYSC;2003-09-28 02:00;METAR CYSC 280200Z AUTO 09003KT 9SM CLR 17/13 A2997 RMK SLP152
CYSC;2003-09-28 03:00;METAR CYSC 280300Z AUTO 13005KT 9SM CLR 17/13 A2998 RMK SLP152
CYSC;2003-09-28 04:00;METAR CYSC 280400Z AUTO 11005KT 9SM CLR 17/13 A2994 RMK SLP140
CYSC;2003-09-28 05:00;METAR CYSC 280500Z AUTO 00000KT 9SM CLR 15/12 A2993 RMK SLP137
CYSC;2003-09-28 06:00;METAR CYSC 280600Z AUTO 10002KT 9SM CLR 12/11 A2991 RMK SLP129
CYSC;2003-09-28 07:00;METAR CYSC 280700Z AUTO 13002KT 9SM CLR 13/11 A2988 RMK SLP119
CYSC;2003-09-28 08:00;METAR CYSC 280800Z AUTO 05002KT 9SM BKN029 BKN052 13/13 A2986 RMK SLP114
CYSC;2003-09-28 09:00;METAR CYSC 280900Z AUTO 14004KT 9SM CLR 13/12 A2984 RMK SLP107
CYSC;2003-09-28 10:00;METAR CYSC 281000Z AUTO 14004KT 9SM CLR 15/13 A2983 RMK SLP102
CYSC;2003-09-28 11:00;METAR CYSC 281100Z AUTO 01003KT 9SM FEW032 16/13 A2982 RMK SLP099
CYSC;2003-09-28 12:00;METAR CYSC 281200Z CCA 00000KT 15SM SCT120 BKN250 17/15 A2980 RMK AC4CI2 ACC ASOCTD SLP091
CYSC;2003-09-28 13:00;METAR CYSC 281300Z 15007KT 15SM BKN120 OVC250 19/14 A2979 RMK AC5CI2 ACC ASOCTD SLP088
CYSC;2003-09-28 14:00;METAR CYSC 281400Z 16005KT 15SM SCT069 BKN120 OVC250 19/14 A2979 RMK AC3AC2CI2 SLP088
CYSC;2003-09-28 15:00;METAR CYSC 281500Z 16005KT 15SM -SHRA SCT034 BKN079 OVC250 20/14 A2978 RMK SC3AC3CI1 SLP084
CYSC;2003-09-28 16:00;METAR CYSC 281600Z 00000KT 10SM -SHRA BKN022 BKN089 OVC120 18/16 A2977 RMK SC5AC2AC2 SLP081
CYSC;2003-09-28 17:00;METAR CYSC 281700Z 26003KT 12SM -SHRA FEW008 OVC027 19/17 A2976 RMK CF2SC6 SLP078
CYSC;2003-09-28 18:00;METAR CYSC 281800Z 28007KT 6SM -SHRA BKN004 BKN013 OVC021 14/13 A2977 RMK CF5SC2SC2 SLP086
CYSC;2003-09-28 19:00;METAR CYSC 281900Z 28008KT 12SM -SHRA BKN008 OVC018 13/12 A2977 RMK CF6SC2 SLP085
CYSC;2003-09-28 20:00;METAR CYSC 282000Z 28004KT 6SM -SHRA BR FEW005 BKN010 OVC023 13/12 A2977 RMK CF2CF3SC2 SLP085
CYSC;2003-09-28 21:00;METAR CYSC 282100Z 26005KT 2SM -SHRA BR BKN003 OVC025 12/12 A2979 RMK FG3CF3SC2 LAST MANNED OB/NEXT 291200 SLP090
CYSC;2003-09-28 22:00;METAR CYSC 282200Z AUTO 00000KT 3SM -RA OVC002 12/12 A2977 RMK PCPN 0.5MM PAST HR SLP085
CYSC;2003-09-28 23:00;METAR CYSC 282300Z AUTO 10002KT 8SM -RA FEW017 OVC027 12/11 A2976 RMK SLP081
CYSC;2003-09-29 00:00;METAR CYSC 290000Z AUTO 00000KT 2 1/2SM -RA BKN012 OVC026 11/11 A2977 RMK PCPN 0.5MM PAST HR SLP084
CYSC;2003-09-29 01:00;METAR CYSC 290100Z AUTO 00000KT 8SM -RA FEW015 BKN034 11/11 A2976 RMK PCPN 1.0MM PAST HR SLP081
CYSC;2003-09-29 02:00;METAR CYSC 290200Z AUTO 25003KT 2 1/2SM -RA OVC002 OVC029 11/11 A2977 RMK PCPN 1.0MM PAST HR SLP083
CYSC;2003-09-29 03:00;METAR CYSC 290300Z AUTO 27002KT 2SM -RA FEW001 BKN013 OVC028 11/11 A2975 RMK PCPN 1.5MM PAST HR SLP078
CYSC;2003-09-29 04:00;METAR CYSC 290400Z AUTO 26002KT 2 1/8SM -RA FEW001 SCT005 OVC010 OVC019 11/11 A2975 RMK PCPN 0.5MM PAST HR SLP078
CYSC;2003-09-29 05:00;METAR CYSC 290500Z AUTO 27002KT 3SM -RA OVC000 OVC012 11/11 A2975 RMK PCPN 1.0MM PAST HR SLP077
CYSC;2003-09-29 06:00;METAR CYSC 290600Z AUTO 27003KT 8SM OVC001 OVC013 11/11 A2975 RMK SLP078
CYSC;2003-09-29 07:00;METAR CYSC 290700Z AUTO 26002KT 3SM OVC001 11/11 A2975 RMK SLP078
CYSC;2003-09-29 08:00;METAR CYSC 290800Z AUTO 25002KT 5SM FEW001 OVC004 OVC030 11/11 A2975 RMK SLP080
CYSC;2003-09-29 09:00;METAR CYSC 290900Z AUTO 26005KT 6SM BKN004 OVC012 11/11 A2976 RMK PCPN 0.5MM PAST HR SLP081
CYSC;2003-09-29 10:00;METAR CYSC 291000Z AUTO 25003KT 9SM OVC014 11/10 A2977 RMK SLP086
CYSC;2003-09-29 11:00;METAR CYSC 291100Z AUTO 00000KT 9SM OVC014 OVC031 11/10 A2978 RMK SLP091
CYSC;2003-09-29 12:00;METAR CYSC 291200Z 22003KT 6SM BR SCT010 OVC014 11/11 A2980 RMK SF3SC5 SLP096
CYSC;2003-09-29 13:00;METAR CYSC 291300Z 24004KT 12SM FEW005 BKN013 BKN044 12/11 A2981 RMK SF2SC3SC2 CU ASOCTD SLP099
CYSC;2003-09-29 14:00;METAR CYSC 291400Z 24003KT 15SM BKN008 BKN035 12/11 A2983 RMK CF6CU2 SLP105
CYSC;2003-09-29 15:00;METAR CYSC 291500Z 23003KT 15SM BKN012 BKN250 14/11 A2983 RMK CU6CI1 SLP104
CYSC;2003-09-29 16:00;METAR CYSC 291600Z 25005KT 15SM BKN016 BKN250 15/10 A2982 RMK CU6CI1 SLP101
CYSC;2003-09-29 17:00;METAR CYSC 291700Z 25004KT 15SM BKN022 BKN077 BKN250 15/10 A2983 RMK CU5AC1CI1 SLP106
CYSC;2003-09-29 18:00;METAR CYSC 291800Z 19002KT 15SM BKN027 OVC079 15/10 A2984 RMK CU6AC2 SLP107
CYSC;2003-09-29 19:00;METAR CYSC 291900Z 28004KT 15SM BKN031 BKN078 OVC250 15/10 A2984 RMK CU6AC1CI1 SLP109
CYSC;2003-09-29 20:00;METAR CYSC 292000Z 20002KT 15SM -SHRA SCT024 BKN082 BKN250 14/11 A2985 RMK CU3AC2CI1 FEW TCU SLP111
CYSC;2003-09-29 21:00;METAR CYSC 292100Z 23002KT 15SM -SHRA SCT039 BKN078 BKN250 13/09 A2985 RMK CU3AC2CI1 TCU-ACC ASOCTD LAST MANNED OB/NEXT 301200 SLP112
CYSC;2003-09-29 22:00;METAR CYSC 292200Z AUTO 20003KT 9SM FEW035 12/09 A2984 RMK SLP111
CYSC;2003-09-29 23:00;METAR CYSC 292300Z AUTO 18005KT 4SM RA FEW000 FEW023 OVC029 OVC063 10/09 A2987 RMK PCPN 0.5MM PAST HR SLP122
CYSC;2003-09-30 00:00;METAR CYSC 300000Z AUTO 19003KT 9SM -RA CLR 10/09 A2990 RMK SLP130
CYSC;2003-09-30 01:00;METAR CYSC 300100Z AUTO 20004KT 9SM -RA FEW028 FEW039 FEW056 BKN067 10/09 A2990 RMK SLP132
CYSC;2003-09-30 02:00;METAR CYSC 300200Z AUTO 21003KT 9SM SCT058 09/08 A2992 RMK PCPN 0.5MM PAST HR SLP137
CYSC;2003-09-30 03:00;METAR CYSC 300300Z AUTO 21002KT 9SM CLR 08/08 A2993 RMK SLP140
CYSC;2003-09-30 04:00;METAR CYSC 300400Z AUTO 23003KT 9SM BKN050 09/08 A2993 RMK SLP142
CYSC;2003-09-30 05:00;METAR CYSC 300500Z AUTO 21002KT 6SM FEW027 SCT057 SCT067 07/06 A2995 RMK SLP147
CYSC;2003-09-30 06:00;METAR CYSC 300600Z AUTO 23005KT 9SM OVC019 09/08 A2997 RMK SLP152
CYSC;2003-09-30 07:00;METAR CYSC 300700Z AUTO 23004KT 9SM FEW053 FEW061 SCT073 09/08 A2997 RMK SLP155
CYSC;2003-09-30 08:00;METAR CYSC 300800Z AUTO 23006KT 9SM FEW026 FEW040 BKN055 09/08 A2999 RMK SLP161
CYSC;2003-09-30 09:00;METAR CYSC 300900Z AUTO 23005KT 9SM OVC018 08/07 A3001 RMK SLP168
CYSC;2003-09-30 10:00;METAR CYSC 301000Z AUTO 24007KT 9SM FEW060 07/05 A3003 RMK SLP174
CYSC;2003-09-30 11:00;METAR CYSC 301100Z AUTO 22005KT 9SM CLR 06/04 A3005 RMK SLP184
CYSC;2003-09-30 12:00;METAR CYSC 301200Z 21004KT 15SM FEW026 SCT120 SCT250 08/05 A3008 RMK CU2AC2CI0 SLP191
CYSC;2003-09-30 13:00;METAR CYSC 301300Z 24007KT 15SM SCT022 BKN090 BKN250 10/05 A3010 RMK CU3AC2CI0 SLP198
CYSC;2003-09-30 14:00;METAR CYSC 301400Z 23007KT 15SM FEW023 SCT086 09/05 A3011 RMK CU2AC1 SLP204
CYSC;2003-09-30 15:00;METAR CYSC 301500Z 25009G15KT 15SM BKN030 10/03 A3011 RMK CU6 SLP204
CYSC;2003-09-30 16:00;METAR CYSC 301600Z 25009KT 15SM BKN030 11/05 A3011 RMK CU5 SLP202
CYSC;2003-09-30 17:00;METAR CYSC 301700Z 25009KT 15SM SCT038 12/04 A3010 RMK CU3 SLP199
CYSC;2003-09-30 18:00;METAR CYSC 301800Z 25007G16KT 15SM SCT034 14/03 A3009 RMK CU3 SLP195
CYSC;2003-09-30 19:00;METAR CYSC 301900Z 27007KT 15SM BKN043 12/03 A3009 RMK CU5 SLP196
CYSC;2003-09-30 20:00;METAR CYSC 302000Z 27008KT 15SM SCT048 13/02 A3009 RMK CU3 SLP194
CYSC;2003-09-30 21:00;METAR CYSC 302100Z 19004KT 15SM FEW050 13/03 A3008 RMK CU2 LAST MANNED OB/NEXT 011200 SLP191
CYSC;2003-09-30 22:00;METAR CYSC 302200Z AUTO 19003KT 9SM FEW051 11/04 A3008 RMK SLP192
CYSC;2003-09-30 23:00;METAR CYSC 302300Z AUTO 15004KT 9SM CLR 06/03 A3007 RMK SLP191
CYSC;2003-10-01 00:00;METAR CYSC 010000Z AUTO 16004KT 9SM CLR 05/03 A3009 RMK SLP197
CYSC;2003-10-01 01:00;METAR CYSC 010100Z AUTO 17004KT 9SM CLR 07/02 A3010 RMK SLP201
CYSC;2003-10-01 02:00;METAR CYSC 010200Z AUTO 00000KT 9SM CLR 02/01 A3008 RMK SLP196
CYSC;2003-10-01 03:00;METAR CYSC 010300Z AUTO 01002KT 9SM CLR 02/00 A3008 RMK SLP195
CYSC;2003-10-01 04:00;METAR CYSC 010400Z AUTO 31004KT 9SM FEW062 03/02 A3010 RMK SLP200
CYSC;2003-10-01 05:00;METAR CYSC 010500Z AUTO 25002KT 9SM FEW050 FEW062 05/03 A3010 RMK SLP199
CYSC;2003-10-01 06:00;METAR CYSC 010600Z AUTO 21005KT 9SM OVC027 07/04 A3011 RMK SLP202
CYSC;2003-10-01 07:00;METAR CYSC 010700Z AUTO 25004KT 9SM BKN016 BKN042 08/05 A3010 RMK SLP199
CYSC;2003-10-01 08:00;METAR CYSC 010800Z AUTO 24003KT 9SM FEW025 FEW030 OVC061 07/05 A3010 RMK SLP199
CYSC;2003-10-01 09:00;METAR CYSC 010900Z AUTO 22003KT 9SM BKN021 OVC069 07/05 A3010 RMK SLP199
CYSC;2003-10-01 10:00;METAR CYSC 011000Z AUTO 23004KT 9SM BKN017 BKN071 07/05 A3010 RMK SLP200
CYSC;2003-10-01 11:00;METAR CYSC 011100Z AUTO 19002KT 9SM CLR 05/04 A3012 RMK SLP208
CYSC;2003-10-01 12:00;METAR CYSC 011200Z CCA 00000KT 15SM FEW035 SCT120 BKN250 06/04 A3012 RMK
CYSC;2003-10-01 13:00;METAR CYSC 011300Z 16002KT 15SM FEW025 SCT082 BKN120 BKN250 09/06 A3012 RMK CU1AC2AC2CI2 SLP209
CYSC;2003-10-01 14:00;METAR CYSC 011400Z 19003KT 15SM BKN021 BKN082 OVC120 09/05 A3013 RMK CU5AC2AC1 SLP210
CYSC;2003-10-01 15:00;METAR CYSC 011500Z 22003KT 15SM SCT019 BKN078 BKN120 BKN250 10/05 A3012 RMK CU3AC2AC2CI0 SLP209
CYSC;2003-10-01 16:00;METAR CYSC 011600Z 25006KT 15SM SCT025 BKN088 BKN120 OVC250 11/04 A3011 RMK CU3AC2AC2CI1 SLP205
CYSC;2003-10-01 17:00;METAR CYSC 011700Z 27003KT 15SM SCT029 BKN087 BKN120 OVC250 11/03 A3010 RMK CU3AC2AC2CI1 SLP200
CYSC;2003-10-01 18:00;METAR CYSC 011800Z 21002KT 15SM VCSH SCT037 BKN120 BKN250 11/03 A3008 RMK CU3AC2CI2 SLP194
CYSC;2003-10-01 19:00;METAR CYSC 011900Z 17003KT 12SM -SHRA BKN029 OVC120 08/06 A3008 RMK CU5AC3 SLP191
CYSC;2003-10-01 20:00;METAR CYSC 012000Z 14003KT 15SM -SHRA BKN024 BKN073 OVC250 09/07 A3007 RMK CU5AC2CI1 SLP188
CYSC;2003-10-01 21:00;METAR CYSC 012100Z 12002KT 15SM -SHRA SCT016 BKN031 BKN120 BKN250 09/07 A3006 RMK CU3SC2AC2CI0 LAST MANNED OB/NEXT 021200 SLP186
CYSC;2003-10-01 22:00;METAR CYSC 012200Z AUTO 00000KT 9SM SCT041 BKN059 BKN085 09/07 A3006 RMK SLP188
CYSC;2003-10-01 23:00;METAR CYSC 012300Z AUTO 19002KT 9SM FEW052 FEW090 06/05 A3006 RMK SLP189
CYSC;2003-10-02 00:00;METAR CYSC 020000Z AUTO 18003KT 3/8SM CLR 02/02 A3007 RMK SLP192
CYSC;2003-10-02 01:00;METAR CYSC 020100Z AUTO 00000KT 2 1/2SM FEW093 02/01 A3007 RMK SLP191
CYSC;2003-10-02 02:00;METAR CYSC 020200Z AUTO 00000KT 1/8SM CLR 01/M00 A3006 RMK SLP190
CYSC;2003-10-02 03:00;METAR CYSC 020300Z AUTO 00000KT 5SM BKN079 03/02 A3006 RMK SLP186
CYSC;2003-10-02 04:00;METAR CYSC 020400Z AUTO 09003KT 5/8SM FEW061 FEW099 02/01 A3004 RMK VSBY VRBL 0.3V5.0 SLP181
CYSC;2003-10-02 05:00;METAR CYSC 020500Z AUTO 09003KT 3 1/2SM FEW061 FEW082 03/02 A3003 RMK SLP176
CYSC;2003-10-02 06:00;METAR CYSC 020600Z AUTO 07002KT 5SM FEW042 FEW059 BKN070 04/03 A3001 RMK SLP171
CYSC;2003-10-02 07:00;METAR CYSC 020700Z AUTO 04002KT 4SM BKN068 03/02 A3000 RMK SLP166
CYSC;2003-10-02 08:00;METAR CYSC 020800Z AUTO 07002KT 9SM FEW068 03/02 A2998 RMK SLP162
CYSC;2003-10-02 09:00;METAR CYSC 020900Z AUTO 09002KT 5SM FEW055 FEW093 01/M00 A2998 RMK SLP161
CYSC;2003-10-02 10:00;METAR CYSC 021000Z AUTO 07005KT 4SM SCT058 02/01 A2996 RMK SLP154
CYSC;2003-10-02 11:00;METAR CYSC 021100Z AUTO 00000KT 5SM FEW001 FEW061 02/01 A2996 RMK SLP153
CYSC;2003-10-02 12:00;METAR CYSC 021200Z 00000KT 15SM BKN048 BKN120 BKN250 03/02 A2995 RMK SC5AC2CI0 SLP153
CYSC;2003-10-02 13:00;METAR CYSC 021300Z 08003KT 12SM -SHRA FEW008 BKN042 BKN120 BKN250 04/03 A2994 RMK CF1SC5AC2CI0 SLP148
CYSC;2003-10-02 14:00;METAR CYSC 021400Z 12004KT 15SM -SHRA FEW005 BKN030 BKN120 BKN250 06/05 A2993 RMK CF1CU5AC2CI0 SLP144
CYSC;2003-10-02 15:00;METAR CYSC 021500Z 31002KT 15SM FEW008 BKN032 BKN083 BKN250 08/07 A2990 RMK CF1CU4AC2CI0 SLP134
CYSC;2003-10-02 16:00;METAR CYSC 021600Z 26009G18KT 5SM -SHRA BR BKN011 OVC074 05/03 A2992
CYSC;2003-10-02 17:00;METAR CYSC 021700Z 19004KT 15SM FEW008 BKN033 BKN083 BKN250 06/05 A2991 RMK CF2CU4AC1CI0 SLP137
CYSC;2003-10-02 18:00;METAR CYSC 021800Z 21003KT 15SM FEW010 BKN045 BKN085 BKN250 07/06 A2988 RMK CF2CU3AC1CI1 SLP126
CYSC;2003-10-02 19:00;METAR CYSC 021900Z 27012KT 12SM -SHRAPL FEW008TCU BKN013 BKN250 07/03 A2988 RMK TCU2CU4CI1 SLP125
CYSC;2003-10-02 20:00;METAR CYSC 022000Z CCA 20002KT 12SM SCT012 BKN029 BKN080 OVC250 06/04 A2986 RMK CU3SC2AC2CI0 SLP121
CYSC;2003-10-02 21:00;METAR CYSC 022100Z 23005KT 15SM -SHRA FEW008TCU BKN026 BKN080 BKN250 05/03 A2986 RMK TCU2SC3AC1CI0 LAST MANNED OB/NEXT 031200 SLP122
CYSC;2003-10-02 22:00;METAR CYSC 022200Z AUTO 29006KT 9SM -RA OVC011 OVC069 OVC084 05/03 A2987 RMK SLP125
CYSC;2003-10-02 23:00;METAR CYSC 022300Z AUTO 21004KT 9SM -RA FEW022 FEW030 04/03 A2988 RMK PCPN 0.5MM PAST HR SLP127
CYSC;2003-10-03 00:00;METAR CYSC 030000Z AUTO 28010G18KT 3SM RA BKN007 02/01 A2990 RMK PCPN 1.5MM PAST HR SLP134
CYSC;2003-10-03 01:00;METAR CYSC 030100Z AUTO 19003KT 9SM CLR 02/01 A2987 RMK PCPN 0.5MM PAST HR SLP124
CYSC;2003-10-03 02:00;METAR CYSC 030200Z AUTO 00000KT 9SM OVC017 OVC064 OVC082 02/01 A2987 RMK SLP123
CYSC;2003-10-03 03:00;METAR CYSC 030300Z AUTO 25005KT 9SM FEW011 OVC019 OVC041 03/02 A2986 RMK SLP122
CYSC;2003-10-03 04:00;METAR CYSC 030400Z AUTO 25009KT 4SM -RA OVC006 OVC019 04/03 A2987 RMK PCPN 1.0MM PAST HR SLP123
CYSC;2003-10-03 05:00;METAR CYSC 030500Z AUTO 28008KT 9SM -RA OVC005 OVC035 03/02 A2989 RMK PCPN 0.5MM PAST HR SLP129
CYSC;2003-10-03 06:00;METAR CYSC 030600Z AUTO 28010KT 9SM -RA SCT009 OVC017 03/01 A2992 RMK SLP139
CYSC;2003-10-03 07:00;METAR CYSC 030700Z AUTO 26007KT 9SM OVC010 OVC039 OVC066 02/01 A2995 RMK SLP151
CYSC;2003-10-03 08:00;METAR CYSC 030800Z AUTO 24006KT 9SM OVC009 OVC044 02/01 A2997 RMK SLP157
CYSC;2003-10-03 09:00;METAR CYSC 030900Z AUTO 23004KT 9SM OVC012 OVC054 02/00 A2998 RMK SLP163
CYSC;2003-10-03 10:00;METAR CYSC 031000Z AUTO 23003KT 9SM CLR 00/M01 A3000 RMK SLP171
CYSC;2003-10-03 11:00;METAR CYSC 031100Z AUTO 24004KT 9SM FEW009 00/M01 A3003 RMK SLP179
CYSC;2003-10-03 12:00;METAR CYSC 031200Z CCA 25004KT 15SM BKN010 01/M00 A3005 RMK SC7 SLP186
CYSC;2003-10-03 13:00;METAR CYSC 031300Z 26007KT 15SM BKN010 02/01 A3006 RMK SC7 SLP189
CYSC;2003-10-03 14:00;METAR CYSC 031400Z 26009KT 15SM BKN009 04/02 A3007 RMK CU7 SLP193
CYSC;2003-10-03 15:00;METAR CYSC 031500Z 27010KT 15SM BKN016 05/01 A3007 RMK CU6 SLP191
CYSC;2003-10-03 16:00;METAR CYSC 031600Z 27007KT 15SM SCT024 07/00 A3006 RMK CU3 SLP188
CYSC;2003-10-03 17:00;METAR CYSC 031700Z 26004KT 15SM FEW036 SCT250 08/M01 A3004 RMK CU2CI0 SLP183
CYSC;2003-10-03 18:00;METAR CYSC 031800Z 20004KT 15SM FEW043 FEW250 10/M01 A3001 RMK CU2CI0 SLP171
CYSC;2003-10-03 19:00;METAR CYSC 031900Z 18007KT 15SM FEW045 FEW250 10/M02 A2999 RMK CU1CI1 SLP165
CYSC;2003-10-03 20:00;METAR CYSC 032000Z 19006KT 15SM FEW045 FEW120 FEW250 11/M02 A2998 RMK CU1AC1CI2 SLP161
CYSC;2003-10-03 21:00;METAR CYSC 032100Z 19004KT 15SM FEW079 SCT250 10/M04 A2998 RMK AC1CI2 LAST MANNED OB/NEXT 041200 SLP159
CYSC;2003-10-03 22:00;METAR CYSC 032200Z AUTO 16002KT 9SM CLR 07/M00 A2997 RMK SLP159
CYSC;2003-10-03 23:00;METAR CYSC 032300Z AUTO 15005KT 9SM CLR 05/M02 A2997 RMK SLP159
CYSC;2003-10-04 00:00;METAR CYSC 040000Z AUTO 12005KT 9SM CLR 04/M01 A2997 RMK SLP160
CYSC;2003-10-04 01:00;METAR CYSC 040100Z AUTO 12004KT 9SM CLR 03/M02 A2996 RMK SLP157
CYSC;2003-10-04 02:00;METAR CYSC 040200Z AUTO 08007KT 9SM CLR 02/M02 A2996 RMK SLP155
CYSC;2003-10-04 03:00;METAR CYSC 040300Z AUTO 08004KT 9SM CLR 02/M02 A2995 RMK SLP153
CYSC;2003-10-04 04:00;METAR CYSC 040400Z AUTO 12005KT 9SM CLR 03/M01 A2995 RMK SLP151
CYSC;2003-10-04 05:00;METAR CYSC 040500Z AUTO 12003KT 9SM CLR 04/M02 A2992 RMK SLP140
CYSC;2003-10-04 06:00;METAR CYSC 040600Z AUTO 14004KT 9SM SCT092 05/M01 A2991 RMK SLP136
CYSC;2003-10-04 07:00;METAR CYSC 040700Z AUTO 14010KT 9SM BKN079 06/M00 A2988 RMK SLP127
CYSC;2003-10-04 08:00;METAR CYSC 040800Z AUTO 14008KT 9SM SCT089 06/M01 A2988 RMK SLP124
CYSC;2003-10-04 09:00;METAR CYSC 040900Z AUTO 17008KT 9SM CLR 07/00 A2985 RMK SLP116
CYSC;2003-10-04 10:00;METAR CYSC 041000Z AUTO 16012G18KT 9SM CLR 08/01 A2984 RMK SLP111
CYSC;2003-10-04 11:00;METAR CYSC 041100Z AUTO 16009G17KT 9SM CLR 08/01 A2984 RMK SLP112
CYSC;2003-10-04 12:00;METAR CYSC 041200Z 16011G16KT 15SM FEW040 OVC085 09/01 A2983 RMK SC1AC7 SLP107
CYSC;2003-10-04 13:00;METAR CYSC 041300Z 16013G22KT 15SM FEW030 OVC060 10/02 A2980 RMK SC1SC7 SLP096
CYSC;2003-10-04 14:00;METAR CYSC 041400Z 17015G21KT 15SM FEW035 OVC078 11/03 A2979 RMK SC2AC6 SLP093
CYSC;2003-10-04 15:00;METAR CYSC 041500Z 12005KT 15SM SCT043 OVC080 11/04 A2977 RMK SC3AC5 SLP088
CYSC;2003-10-04 16:00;METAR CYSC 041600Z 18014G35KT 15SM -RA BKN040 OVC063 12/04 A2976 RMK SC5SC3 SLP083
CYSC;2003-10-04 17:00;METAR CYSC 041700Z 16011G21KT 15SM -RA SCT029 BKN059 OVC085 11/05 A2972 RMK SC3SC4AC1 SLP073
CYSC;2003-10-04 18:00;METAR CYSC 041800Z CCA 16008KT 10SM -RA OVC027 10/07 A2971 RMK SC8 SLP068
CYSC;2003-10-04 19:00;METAR CYSC 041900Z 16009G18KT 10SM -RA OVC024 09/08 A2969 RMK SC8 SLP060
CYSC;2003-10-04 20:00;METAR CYSC 042000Z 18006KT 12SM -RA BKN027 OVC039 09/07 A2967 RMK CF5SC3 SLP054
CYSC;2003-10-04 21:00;METAR CYSC 042100Z 18003KT 10SM -RA BKN024 OVC045 09/08 A2966 RMK CF6SC2 LAST MANNED OB/NEXT 051200 SLP048
CYSC;2003-10-04 22:00;METAR CYSC 042200Z AUTO 17002KT 8SM -RA BKN022 09/08 A2964 RMK PCPN 0.5MM PAST HR SLP043
CYSC;2003-10-04 23:00;METAR CYSC 042300Z AUTO 20003KT 8SM -RA BKN022 08/08 A2964 RMK PCPN 0.5MM PAST HR SLP044
CYSC;2003-10-05 00:00;METAR CYSC 050000Z AUTO 28006KT 2 1/4SM RA FEW001 BKN012 06/05 A2967 RMK PCPN 2.5MM PAST HR SLP055
CYSC;2003-10-05 01:00;METAR CYSC 050100Z AUTO 24004KT 3 1/2SM RA OVC014 06/05 A2970 RMK PCPN 2.5MM PAST HR SLP063
CYSC;2003-10-05 02:00;METAR CYSC 050200Z AUTO 19003KT 9SM CLR 06/05 A2970 RMK PCPN 0.5MM PAST HR SLP065
CYSC;2003-10-05 03:00;METAR CYSC 050300Z AUTO 20003KT 9SM SCT029 06/05 A2971 RMK PCPN 0.5MM PAST HR SLP067
CYSC;2003-10-05 04:00;METAR CYSC 050400Z AUTO 26006KT 7SM -RA OVC013 OVC050 OVC059 06/05 A2972 RMK SLP069
CYSC;2003-10-05 06:00;METAR CYSC 050600Z AUTO 20003KT 9SM BKN024 05/04 A2971 RMK SLP069
CYSC;2003-10-05 07:00;METAR CYSC 050700Z AUTO 20003KT 9SM BKN023 04/03 A2971 RMK SLP068
CYSC;2003-10-05 08:00;METAR CYSC 050800Z AUTO 23008KT 5SM -RA OVC017 OVC040 05/03 A2972 RMK SLP070
CYSC;2003-10-05 09:00;METAR CYSC 050900Z AUTO 19003KT 9SM BKN022 OVC045 04/03 A2972 RMK PCPN 0.5MM PAST HR SLP073
CYSC;2003-10-05 10:00;METAR CYSC 051000Z AUTO 21004KT 9SM -RA BKN019 BKN038 OVC045 OVC066 04/03 A2974 RMK PCPN 0.5MM PAST HR SLP077
CYSC;2003-10-05 11:00;METAR CYSC 051100Z AUTO 23002KT 9SM BKN017 BKN027 OVC046 03/03 A2975 RMK SLP081
CYSC;2003-10-05 12:00;METAR CYSC 051200Z 24004KT 15SM FEW025 03/02 A2976 RMK SC2 CU ASOCTD SLP087
CYSC;2003-10-05 13:00;METAR CYSC 051300Z 23007KT 15SM FEW020 SCT040 06/04 A2977 RMK CF1SC2 CU ASOCTD SLP089
CYSC;2003-10-05 14:00;METAR CYSC 051400Z 22004KT 15SM FEW020 BKN042 BKN075 06/04 A2977 RMK CF1SC5AC1 SLP088
CYSC;2003-10-05 15:00;METAR CYSC 051500Z 21012G20KT 15SM BKN017 BKN045 BKN093 06/03 A2977 RMK SC5SC1AC1 SLP087
CYSC;2003-10-05 16:00;METAR CYSC 051600Z 25012G18KT 12SM -SHRA BKN019 BKN045 07/03 A2976 RMK CF6SC1 SLP086
CYSC;2003-10-05 17:00;METAR CYSC 051700Z 25016KT 12SM -SHRA SCT008 OVC015 05/04 A2979 RMK CF3CF4 CU EMBDD SLP095
CYSC;2003-10-05 18:00;METAR CYSC 051800Z 22006KT 15SM BKN017 BKN045 06/05 A2979 RMK SC5SC1 TCU ASOCTD SLP095
CYSC;2003-10-05 19:00;METAR CYSC 051900Z 24005KT 15SM BKN020 06/04 A2980 RMK SC6 TCU ASOCTD SLP098
CYSC;2003-10-05 20:00;METAR CYSC 052000Z 23006KT 15SM BKN024 BKN056 07/04 A2980 RMK SC6SC1 CU ASOCTD SLP099
CYSC;2003-10-05 21:00;METAR CYSC 052100Z 26009KT 15SM FEW025 SCT056 07/01 A2982 RMK SC2SC2 LAST MANNED OB/NEXT 061200 CU ASOCTD SLP105
CYSC;2003-10-05 22:00;METAR CYSC 052200Z AUTO 26009G17KT 9SM BKN044 06/00 A2984 RMK SLP114
CYSC;2003-10-05 23:00;METAR CYSC 052300Z AUTO 25006KT 9SM SCT040 05/00 A2986 RMK SLP122
CYSC;2003-10-06 00:00;METAR CYSC 060000Z AUTO 23004KT 9SM FEW051 04/00 A2989 RMK SLP130
CYSC;2003-10-06 01:00;METAR CYSC 060100Z AUTO 21004KT 9SM SCT053 SCT060 BKN081 04/00 A2990 RMK SLP134
CYSC;2003-10-06 02:00;METAR CYSC 060200Z AUTO 23004KT 9SM FEW048 BKN077 04/01 A2991 RMK SLP137
CYSC;2003-10-06 03:00;METAR CYSC 060300Z AUTO 22005KT 9SM SCT048 BKN073 04/01 A2992 RMK SLP140
CYSC;2003-10-06 04:00;METAR CYSC 060400Z AUTO 23006KT 9SM BKN038 04/01 A2992 RMK SLP140
CYSC;2003-10-06 05:00;METAR CYSC 060500Z AUTO 24006KT 9SM SCT025 SCT044 SCT058 04/01 A2992 RMK SLP143
CYSC;2003-10-06 06:00;METAR CYSC 060600Z AUTO 22002KT 9SM BKN022 BKN030 BKN060 03/01 A2994 RMK SLP148
CYSC;2003-10-06 07:00;METAR CYSC 060700Z AUTO 23004KT 9SM OVC017 04/02 A2995 RMK SLP151
CYSC;2003-10-06 08:00;METAR CYSC 060800Z AUTO 24006KT 9SM OVC016 05/02 A2996 RMK SLP154
CYSC;2003-10-06 09:00;METAR CYSC 060900Z AUTO 25004KT 9SM OVC024 05/02 A2998 RMK SLP160
CYSC;2003-10-06 10:00;METAR CYSC 061000Z AUTO 27009KT 9SM OVC016 05/02 A3000 RMK SLP167
CYSC;2003-10-06 11:00;METAR CYSC 061100Z AUTO 26007KT 9SM OVC020 04/02 A3001 RMK SLP171
CYSC;2003-10-06 12:00;METAR CYSC 061200Z 26008KT 15SM OVC020 04/02 A3003 RMK SC8 SLP178
CYSC;2003-10-06 13:00;METAR CYSC 061300Z 24007KT 15SM OVC016 05/02 A3005 RMK SC8 SLP185
CYSC;2003-10-06 14:00;METAR CYSC 061400Z 25006KT 15SM OVC015 05/02 A3006 RMK SC8 SLP189
CYSC;2003-10-06 15:00;METAR CYSC 061500Z 29007KT 15SM OVC017 06/01 A3006 RMK SC8 SLP188
CYSC;2003-10-06 16:00;METAR CYSC 061600Z 27006KT 15SM OVC019 06/01 A3006 RMK SC8 SLP189
CYSC;2003-10-06 17:00;METAR CYSC 061700Z 26009KT 15SM OVC019 06/01 A3006 RMK SC8 SLP188
CYSC;2003-10-06 18:00;METAR CYSC 061800Z 27010KT 15SM OVC019 06/02 A3006 RMK SC8 SLP187
CYSC;2003-10-06 19:00;METAR CYSC 061900Z 25007KT 15SM BKN027 OVC093 06/02 A3006 RMK SC7AC1 SLP187
CYSC;2003-10-06 20:00;METAR CYSC 062000Z 27007KT 15SM BKN027 OVC090 06/02 A3006 RMK SC7AC1 SLP188
CYSC;2003-10-06 21:00;METAR CYSC 062100Z 23006KT 15SM FEW015 BKN027 BKN090 BKN250 06/01 A3006 RMK CF1CU5AC1CI0 LAST MANNED OB/NEXT 071200 SLP187
CYSC;2003-10-06 22:00;METAR CYSC 062200Z AUTO 24004KT 9SM FEW030 FEW036 FEW054 05/01 A3006 RMK SLP189
CYSC;2003-10-06 23:00;METAR CYSC 062300Z AUTO 20003KT 9SM BKN028 BKN052 04/01 A3007 RMK SLP192
CYSC;2003-10-07 00:00;METAR CYSC 070000Z AUTO 21003KT 9SM FEW032 BKN048 04/01 A3008 RMK SLP195
CYSC;2003-10-07 01:00;METAR CYSC 070100Z AUTO 24004KT 9SM OVC046 04/01 A3009 RMK SLP200
CYSC;2003-10-07 02:00;METAR CYSC 070200Z AUTO 22002KT 9SM OVC044 03/01 A3010 RMK SLP202
CYSC;2003-10-07 03:00;METAR CYSC 070300Z AUTO 00000KT 9SM OVC046 03/01 A3010 RMK SLP202
CYSC;2003-10-07 04:00;METAR CYSC 070400Z AUTO 20003KT 9SM OVC046 03/01 A3010 RMK SLP202
CYSC;2003-10-07 05:00;METAR CYSC 070500Z AUTO 21004KT 9SM SCT050 02/M00 A3010 RMK SLP204
CYSC;2003-10-07 06:00;METAR CYSC 070600Z AUTO 23003KT 9SM FEW056 01/M01 A3011 RMK SLP208
CYSC;2003-10-07 08:00;METAR CYSC 070800Z AUTO 00000KT 5SM FEW044 BKN060 00/M01 A3012 RMK SLP209
CYSC;2003-10-07 09:00;METAR CYSC 070900Z AUTO 00000KT 5SM BKN060 00/M00 A3012 RMK SLP209
CYSC;2003-10-07 10:00;METAR CYSC 071000Z AUTO 00000KT 5SM OVC055 00/M00 A3013 RMK SLP212
CYSC;2003-10-07 11:00;METAR CYSC 071100Z AUTO 00000KT 5SM FEW050 M01/M03 A3013 RMK SLP214
CYSC;2003-10-07 12:00;METAR CYSC 071200Z 00000KT 15SM SCT032 SCT120 01/M00 A3014 RMK CU3AC1 F BNK OVR RVR SLP215
CYSC;2003-10-07 13:00;METAR CYSC 071300Z 23003KT 15SM SCT026 SCT120 04/01 A3014 RMK CU3AC1 SLP217
CYSC;2003-10-07 14:00;METAR CYSC 071400Z 23006KT 15SM FEW020 SCT250 07/02 A3014 RMK CU2CI0
CYSC;2003-10-07 15:00;METAR CYSC 071500Z 25005KT 15SM FEW021 SCT095 SCT250 09/03 A3013 RMK CU2AC1CI0 SLP212
CYSC;2003-10-07 16:00;METAR CYSC 071600Z 23006KT 15SM BKN030 BKN087 BKN250 10/03 A3011 RMK CU5AC1CI0 SLP206
CYSC;2003-10-07 17:00;METAR CYSC 071700Z 27009KT 15SM SCT034 SCT080 09/01 A3010 RMK CU3AC1 SLP200
CYSC;2003-10-07 18:00;METAR CYSC 071800Z 29011G16KT 15SM FEW041 SCT080 11/02 A3007 RMK CU2AC1 SLP192
CYSC;2003-10-07 19:00;METAR CYSC 071900Z 27008KT 15SM FEW038 SCT059 BKN250 11/01 A3006 RMK CU2SC2CI0 SLP187
CYSC;2003-10-07 20:00;METAR CYSC 072000Z 23009KT 15SM FEW039 SCT059 BKN120 BKN250 12/02 A3004 RMK CU1SC2AC2CI0 SLP182
CYSC;2003-10-07 21:00;METAR CYSC 072100Z 23007KT 15SM FEW040 BKN098 BKN250 11/03 A3003 RMK CU1AC4CI1 LAST MANNED OB/NEXT 081200 SLP178
CYSC;2003-10-07 22:00;METAR CYSC 072200Z AUTO 19005KT 9SM SCT076 09/03 A3002 RMK SLP174
CYSC;2003-10-07 23:00;METAR CYSC 072300Z AUTO 19003KT 9SM FEW059 BKN078 09/03 A3001 RMK SLP173
CYSC;2003-10-08 00:00;METAR CYSC 080000Z AUTO 22002KT 9SM FEW059 SCT071 09/03 A3002 RMK SLP176
CYSC;2003-10-08 01:00;METAR CYSC 080100Z AUTO 23003KT 9SM BKN059 BKN067 09/03 A3004 RMK SLP183
CYSC;2003-10-08 02:00;METAR CYSC 080200Z AUTO 22004KT 9SM BKN053 BKN067 09/03 A3006 RMK SLP187
CYSC;2003-10-08 03:00;METAR CYSC 080300Z AUTO 22004KT 9SM BKN051 09/03 A3007 RMK SLP190
CYSC;2003-10-08 04:00;METAR CYSC 080400Z AUTO 22003KT 9SM OVC049 09/04 A3008 RMK SLP191
CYSC;2003-10-08 05:00;METAR CYSC 080500Z AUTO 21005KT 9SM OVC049 09/03 A3008 RMK SLP191
CYSC;2003-10-08 06:00;METAR CYSC 080600Z AUTO 23007KT 9SM OVC049 10/03 A3008 RMK SLP193
CYSC;2003-10-08 07:00;METAR CYSC 080700Z AUTO 22006KT 9SM SCT064 SCT090 09/03 A3009 RMK SLP195
CYSC;2003-10-08 08:00;METAR CYSC 080800Z AUTO 20002KT 9SM FEW067 OVC088 08/02 A3009 RMK SLP197
CYSC;2003-10-08 09:00;METAR CYSC 080900Z AUTO 21003KT 9SM OVC085 08/03 A3009 RMK SLP197
CYSC;2003-10-08 10:00;METAR CYSC 081000Z AUTO 22002KT 9SM OVC079 08/02 A3010 RMK SLP200
CYSC;2003-10-08 11:00;METAR CYSC 081100Z AUTO 22002KT 9SM SCT077 06/02 A3011 RMK SLP204
CYSC;2003-10-08 12:00;METAR CYSC 081200Z 00000KT 15SM SKC 07/02 A3012 RMK SLP208
CYSC;2003-10-08 13:00;METAR CYSC 081300Z 23003KT 15SM SKC 10/03 A3013 RMK SLP211
CYSC;2003-10-08 14:00;METAR CYSC 081400Z 23008KT 15SM SKC 13/04 A3013 RMK SLP209
CYSC;2003-10-08 15:00;METAR CYSC 081500Z 23011KT 15SM FEW240 15/04 A3011 RMK CI1 SLP201
CYSC;2003-10-08 16:00;METAR CYSC 081600Z 23011KT 15SM FEW220 16/05 A3010 RMK CI1 SLP196
CYSC;2003-10-08 17:00;METAR CYSC 081700Z 23006KT 15SM FEW220 18/06 A3008 RMK CI1 SLP189
CYSC;2003-10-08 18:00;METAR CYSC 081800Z 22010KT 15SM FEW220 18/06 A3005 RMK CI1 SLP179
CYSC;2003-10-08 19:00;METAR CYSC 081900Z 23006KT 15SM SKC 19/06 A3003 RMK SLP174
CYSC;2003-10-08 20:00;METAR CYSC 082000Z 22009KT 15SM SKC 19/07 A3003 RMK SLP172
CYSC;2003-10-08 21:00;METAR CYSC 082100Z 23004KT 15SM FEW050 FEW220 19/07 A3002 RMK SC1CI1 LAST MANNED OB/NEXT 091200 SLP170
CYSC;2003-10-08 22:00;METAR CYSC 082200Z AUTO 24003KT 9SM FEW050 17/07 A3001 RMK SLP168
CYSC;2003-10-08 23:00;METAR CYSC 082300Z AUTO 23003KT 9SM CLR 11/08 A3001 RMK SLP169
CYSC;2003-10-09 00:00;METAR CYSC 090000Z AUTO 23005KT 9SM CLR 12/07 A3002 RMK SLP173
CYSC;2003-10-09 01:00;METAR CYSC 090100Z AUTO 23002KT 9SM CLR 09/07 A3003 RMK SLP175
CYSC;2003-10-09 02:00;METAR CYSC 090200Z AUTO 21003KT 9SM CLR 07/05 A3005 RMK SLP182
CYSC;2003-10-09 03:00;METAR CYSC 090300Z AUTO 24003KT 9SM CLR 07/06 A3007 RMK SLP187
CYSC;2003-10-09 04:00;METAR CYSC 090400Z AUTO 24002KT 9SM CLR 06/05 A3007 RMK SLP190
CYSC;2003-10-09 05:00;METAR CYSC 090500Z AUTO 00000KT 8SM CLR 05/04 A3009 RMK SLP194
CYSC;2003-10-09 06:00;METAR CYSC 090600Z AUTO 00000KT 7SM CLR 05/04 A3009 RMK SLP194
CYSC;2003-10-09 07:00;METAR CYSC 090700Z AUTO 00000KT 5SM CLR 05/04 A3009 RMK SLP194
CYSC;2003-10-09 08:00;METAR CYSC 090800Z AUTO 00000KT 5SM CLR 04/04 A3010 RMK SLP197
CYSC;2003-10-09 09:00;METAR CYSC 090900Z AUTO 12002KT 4SM CLR 05/05 A3012 RMK SLP205
CYSC;2003-10-09 10:00;METAR CYSC 091000Z AUTO 03002KT 2SM CLR 03/03 A3014 RMK VSBY VRBL 1.3V4.0 SLP214
CYSC;2003-10-09 11:00;METAR CYSC 091100Z AUTO 00000KT 1 1/2SM CLR 03/03 A3018 RMK SLP227
CYSC;2003-10-09 12:00;METAR CYSC 091200Z 00000KT 6SM BR SKC 07/06 A3021 RMK SLP235
CYSC;2003-10-09 13:00;METAR CYSC 091300Z 00000KT 6SM BR SCT010 10/09 A3023 RMK SF2 SLP242
CYSC;2003-10-09 14:00;METAR CYSC 091400Z 00000KT 10SM OVC011 12/10 A3024 RMK SF7 FOGGY SLP248
CYSC;2003-10-09 15:00;METAR CYSC 091500Z CCA 04003KT 10SM OVC010 14/11 A3025 RMK SF6 FOGGY SLP251
CYSC;2003-10-09 16:00;METAR CYSC 091600Z 00000KT 12SM BKN012 15/12 A3025 RMK CF5 SLP251
CYSC;2003-10-09 17:00;METAR CYSC 091700Z 36004KT 12SM FEW014 SCT220 16/12 A3024 RMK CF2CI0 HAZY SLP248
CYSC;2003-10-09 18:00;METAR CYSC 091800Z 03002KT 15SM FEW020 FEW220 18/13 A3023 RMK CU2CI0 SLP242
CYSC;2003-10-09 19:00;METAR CYSC 091900Z 05003KT 12SM FEW025 FEW220 18/13 A3023 RMK CU1CI0 HAZY SLP241
CYSC;2003-10-09 20:00;METAR CYSC 092000Z 07004KT 15SM FEW025 FEW220 18/12 A3023 RMK CU1CI0
CYSC;2003-10-09 21:00;METAR CYSC 092100Z 04003KT 15SM FEW220 18/12 A3023 RMK CI1 LAST MANNED OB/NEXT 101200 SLP243
CYSC;2003-10-09 22:00;METAR CYSC 092200Z AUTO 04003KT 9SM CLR 15/12 A3024 RMK SLP247
CYSC;2003-10-09 23:00;METAR CYSC 092300Z AUTO 04003KT 9SM CLR 14/11 A3024 RMK SLP250
CYSC;2003-10-10 00:00;METAR CYSC 100000Z AUTO 07003KT 7SM CLR 12/10 A3025 RMK SLP250
CYSC;2003-10-10 01:00;METAR CYSC 100100Z AUTO 08004KT 6SM CLR 11/10 A3025 RMK SLP249
CYSC;2003-10-10 02:00;METAR CYSC 100200Z AUTO 08003KT 4SM CLR 11/10 A3025 RMK SLP250
CYSC;2003-10-10 03:00;METAR CYSC 100300Z AUTO 10003KT 1 3/4SM CLR 09/08 A3025 RMK SLP251
CYSC;2003-10-10 04:00;METAR CYSC 100400Z AUTO 11003KT 1 1/8SM CLR 08/08 A3025 RMK SLP250
CYSC;2003-10-10 05:00;METAR CYSC 100500Z AUTO 06004KT 2 1/2SM CLR 09/08 A3025 RMK SLP249
CYSC;2003-10-10 06:00;METAR CYSC 100600Z AUTO 08003KT 1 1/4SM CLR 08/08 A3025 RMK SLP249
CYSC;2003-10-10 07:00;METAR CYSC 100700Z AUTO 07004KT 2SM CLR 08/07 A3025 RMK SLP247
CYSC;2003-10-10 08:00;METAR CYSC 100800Z AUTO 05002KT 2 1/4SM CLR 08/08 A3025 RMK SLP248
CYSC;2003-10-10 09:00;METAR CYSC 100900Z AUTO 11002KT 1 1/2SM CLR 06/06 A3026 RMK SLP252
CYSC;2003-10-10 10:00;METAR CYSC 101000Z AUTO 08003KT 1 3/8SM CLR 06/05 A3027 RMK SLP256
CYSC;2003-10-10 11:00;METAR CYSC 101100Z AUTO 07003KT 1 1/2SM CLR 06/06 A3027 RMK SLP258
CYSC;2003-10-10 12:00;METAR CYSC 101200Z 08003KT 3SM BR FEW220 07/07 A3029 RMK CI2 SLP262
CYSC;2003-10-10 13:00;METAR CYSC 101300Z 00000KT 3SM BR SCT220 09/08 A3030 RMK CI2 SLP265
CYSC;2003-10-10 14:00;METAR CYSC 101400Z 00000KT 10SM SCT220 12/10 A3030 RMK CI2 SLP266
CYSC;2003-10-10 15:00;METAR CYSC 101500Z 00000KT 12SM FEW220 15/12 A3030 RMK CI1 SLP265
CYSC;2003-10-10 16:00;METAR CYSC 101600Z 26004KT 15SM FEW220 19/13 A3029 RMK CI1 SLP261
CYSC;2003-10-10 17:00;METAR CYSC 101700Z 26004KT 15SM FEW220 21/14 A3026 RMK CI1 SLP252
CYSC;2003-10-10 18:00;METAR CYSC 101800Z 27004KT 15SM FEW220 23/15 A3024 RMK CI1 SLP242
CYSC;2003-10-10 19:00;METAR CYSC 101900Z 30003KT 15SM FEW030 FEW220 23/14 A3023 RMK CU1CI0 SLP240
CYSC;2003-10-10 20:00;METAR CYSC 102000Z 26004KT 15SM FEW035 FEW220 23/14 A3022 RMK CU1CI1 TCU ASOCTD SLP236
CYSC;2003-10-10 21:00;METAR CYSC 102100Z 25003KT 15SM FEW030 FEW220 23/14 A3021 RMK CU1CI1 LAST MANNED OB/NEXT 111200 TCU ASOCTD SLP235
CYSC;2003-10-10 22:00;METAR CYSC 102200Z AUTO 00000KT 9SM CLR 18/15 A3021 RMK SLP236
CYSC;2003-10-10 23:00;METAR CYSC 102300Z AUTO 12002KT 9SM CLR 14/12 A3022 RMK SLP240
CYSC;2003-10-11 00:00;METAR CYSC 110000Z AUTO 10002KT 3SM CLR 12/12 A3022 RMK SLP241
CYSC;2003-10-11 01:00;METAR CYSC 110100Z AUTO 10003KT 4SM CLR 14/13 A3023 RMK SLP242
CYSC;2003-10-11 02:00;METAR CYSC 110200Z AUTO 09004KT 2 1/8SM CLR 12/12 A3023 RMK SLP242
CYSC;2003-10-11 03:00;METAR CYSC 110300Z AUTO 09003KT 3SM CLR 12/12 A3024 RMK SLP245
CYSC;2003-10-11 04:00;METAR CYSC 110400Z AUTO 08003KT 1 1/2SM CLR 11/10 A3024 RMK SLP244
CYSC;2003-10-11 05:00;METAR CYSC 110500Z AUTO 09002KT 1 1/8SM CLR 10/09 A3024 RMK SLP245
CYSC;2003-10-11 06:00;METAR CYSC 110600Z AUTO 09003KT 1/2SM CLR 09/09 A3025 RMK SLP247
CYSC;2003-10-11 07:00;METAR CYSC 110700Z AUTO 10003KT 5/8SM CLR 09/08 A3024 RMK SLP245
CYSC;2003-10-11 08:00;METAR CYSC 110800Z AUTO 00000KT 1/8SM CLR 07/07 A3025 RMK SLP247
CYSC;2003-10-11 09:00;METAR CYSC 110900Z AUTO 00000KT 1/8SM OVC000 OVC015 05/05 A3026 RMK SLP251
CYSC;2003-10-11 10:00;METAR CYSC 111000Z AUTO 11002KT 1/8SM VV000 06/05 A3027 RMK SLP255
CYSC;2003-10-11 11:00;METAR CYSC 111100Z AUTO 00000KT 1/8SM OVC000 OVC025 05/05 A3027 RMK SLP258
CYSC;2003-10-11 12:00;METAR CYSC 111200Z 06002KT 1 1/2SM BR BKN001 07/07 A3028 RMK SF2 SLP261
CYSC;2003-10-11 13:00;METAR CYSC 111300Z 10002KT 2 1/2SM BR FEW001 10/10 A3029 RMK CF1 SLP263
CYSC;2003-10-11 14:00;METAR CYSC 111400Z 09002KT 8SM FEW005 13/12 A3028 RMK CF1 FOGGY SLP261
CYSC;2003-10-11 15:00;METAR CYSC 111500Z 00000KT 12SM SKC 16/13 A3028 RMK HAZY SLP256
CYSC;2003-10-11 16:00;METAR CYSC 111600Z 28003KT 15SM SKC 20/12 A3026 RMK SLP250
CYSC;2003-10-11 17:00;METAR CYSC 111700Z 30004KT 15SM FEW030 22/12 A3022 RMK CU1 SLP239
CYSC;2003-10-11 18:00;METAR CYSC 111800Z 27004KT 15SM FEW035 24/13 A3020 RMK CU1 SLP228
CYSC;2003-10-11 19:00;METAR CYSC 111900Z 30002KT 15SM FEW040 FEW220 24/12 A3018 RMK CU1CI1 SLP222
CYSC;2003-10-11 20:00;METAR CYSC 112000Z 25003KT 15SM FEW040 FEW220 24/11 A3016 RMK CU1CI1 SLP217
CYSC;2003-10-11 21:00;METAR CYSC 112100Z 27002KT 15SM SKC 24/12 A3015 RMK LAST MANNED OB/NEXT 121200 SLP213
CYSC;2003-10-11 22:00;METAR CYSC 112200Z AUTO 00000KT 9SM CLR 18/13 A3015 RMK SLP214
CYSC;2003-10-11 23:00;METAR CYSC 112300Z AUTO 00000KT 9SM CLR 13/10 A3015 RMK SLP216
CYSC;2003-10-12 00:00;METAR CYSC 120000Z AUTO 10002KT 9SM CLR 13/11 A3015 RMK SLP215
CYSC;2003-10-12 01:00;METAR CYSC 120100Z AUTO 08004KT 8SM CLR 11/10 A3014 RMK SLP211
CYSC;2003-10-12 02:00;METAR CYSC 120200Z AUTO 10003KT 8SM CLR 10/09 A3013 RMK SLP209
CYSC;2003-10-12 03:00;METAR CYSC 120300Z AUTO 09003KT 5SM CLR 09/08 A3012 RMK SLP204
CYSC;2003-10-12 04:00;METAR CYSC 120400Z AUTO 10005KT 5SM CLR 09/08 A3011 RMK SLP201
CYSC;2003-10-12 05:00;METAR CYSC 120500Z AUTO 10002KT 5SM CLR 08/07 A3010 RMK SLP197
CYSC;2003-10-12 06:00;METAR CYSC 120600Z AUTO 08003KT 2 1/2SM CLR 07/06 A3009 RMK SLP193
CYSC;2003-10-12 07:00;METAR CYSC 120700Z AUTO 08004KT 3 1/2SM CLR 08/07 A3007 RMK SLP185
CYSC;2003-10-12 08:00;METAR CYSC 120800Z AUTO 09004KT 4SM CLR 07/06 A3005 RMK SLP180
CYSC;2003-10-12 09:00;METAR CYSC 120900Z AUTO 06003KT 1SM OVC000 06/05 A3004 RMK SLP176
CYSC;2003-10-12 10:00;METAR CYSC 121000Z AUTO 07004KT 5/8SM BKN000 05/05 A3003 RMK SLP174
CYSC;2003-10-12 11:00;METAR CYSC 121100Z AUTO 07003KT 2 1/4SM CLR 06/05 A3002 RMK SLP171
CYSC;2003-10-12 12:00;METAR CYSC 121200Z CCA 06004KT 4SM BR SKC 07/06 A3002 RMK SLP170
CYSC;2003-10-12 13:00;METAR CYSC 121300Z 00000KT 8SM FEW008 10/08 A3000 RMK CF1 HAZY SLP166
CYSC;2003-10-12 14:00;METAR CYSC 121400Z 03002KT 15SM SKC 13/10 A2997 RMK SLP156
CYSC;2003-10-12 15:00;METAR CYSC 121500Z 28002KT 15SM FEW250 17/12 A2994 RMK CI0 SLP143
CYSC;2003-10-12 16:00;METAR CYSC 121600Z 17004KT 15SM FEW250 22/08 A2991 RMK CI0 SLP133
CYSC;2003-10-12 17:00;METAR CYSC 121700Z 15007KT 15SM FEW250 24/07 A2987 RMK CI1 SLP120
CYSC;2003-10-12 18:00;METAR CYSC 121800Z 19008KT 15SM FEW150 FEW250 24/06 A2984 RMK ACC1CI1 SLP107
CYSC;2003-10-12 19:00;METAR CYSC 121900Z 15006KT 15SM FEW150 BKN250 23/06 A2981 RMK ACC2CI2 SLP096
CYSC;2003-10-12 20:00;METAR CYSC 122000Z 15007KT 15SM FEW120 BKN250 23/08 A2978 RMK ACC2CI2 SLP087
CYSC;2003-10-12 21:00;METAR CYSC 122100Z 21004KT 15SM SCT058 BKN081 BKN250 22/09 A2978 RMK SC3AC2CI1 SLP088
CYSC;2003-10-12 22:00;METAR CYSC 122200Z AUTO 20004KT 9SM BKN053 OVC083 20/09 A2978 RMK SLP088
CYSC;2003-10-12 23:00;METAR CYSC 122300Z AUTO 18004KT 9SM BKN047 BKN078 18/10 A2978 RMK SLP088
CYSC;2003-10-13 00:00;METAR CYSC 130000Z AUTO 21002KT 9SM CLR 12/09 A2978 RMK SLP089
CYSC;2003-10-13 01:00;METAR CYSC 130100Z AUTO 15003KT 9SM CLR 09/08 A2978 RMK SLP089
CYSC;2003-10-13 02:00;METAR CYSC 130200Z AUTO 24003KT 9SM CLR 10/09 A2977 RMK SLP087
CYSC;2003-10-13 03:00;METAR CYSC 130300Z AUTO 20004KT 9SM FEW031 FEW098 12/09 A2978 RMK SLP088
CYSC;2003-10-13 04:00;METAR CYSC 130400Z AUTO 20003KT 9SM OVC020 14/11 A2979 RMK SLP088
CYSC;2003-10-13 05:00;METAR CYSC 130500Z AUTO 28009G18KT 9SM OVC018 OVC044 15/11 A2979 RMK SLP091
CYSC;2003-10-13 06:00;METAR CYSC 130600Z AUTO 27008KT 9SM SCT020 BKN032 BKN078 13/09 A2981 RMK SLP095
CYSC;2003-10-13 07:00;METAR CYSC 130700Z AUTO 27009KT 9SM CLR 11/08 A2982 RMK SLP100
CYSC;2003-10-13 08:00;METAR CYSC 130800Z AUTO 27006KT 9SM FEW017 09/07 A2983 RMK SLP105
CYSC;2003-10-13 09:00;METAR CYSC 130900Z AUTO 27004KT 9SM CLR 08/06 A2985 RMK SLP110
CYSC;2003-10-13 10:00;METAR CYSC 131000Z AUTO 28004KT 9SM CLR 07/06 A2986 RMK SLP115
CYSC;2003-10-13 11:00;METAR CYSC 131100Z AUTO 27003KT 9SM CLR 06/05 A2986 RMK SLP117
CYSC;2003-10-13 12:00;METAR CYSC 131200Z 00000KT 15SM FEW010 07/07 A2988 RMK CF1 SLP120
CYSC;2003-10-13 13:00;METAR CYSC 131300Z 28008KT 15SM FEW015 10/08 A2988 RMK CU2 SLP120
CYSC;2003-10-13 14:00;METAR CYSC 131400Z 26010G15KT 15SM BKN016 12/08 A2988 RMK CU5 SLP122
CYSC;2003-10-13 15:00;METAR CYSC 131500Z 27008KT 15SM BKN024 13/07 A2987 RMK CU5 SLP120
CYSC;2003-10-13 16:00;METAR CYSC 131600Z 29009KT 15SM BKN028 13/06 A2988 RMK CU6 SLP121
CYSC;2003-10-13 17:00;METAR CYSC 131700Z 28012KT 15SM BKN034 13/05 A2987 RMK CU6 SLP119
CYSC;2003-10-13 18:00;METAR CYSC 131800Z 28011KT 15SM BKN034 15/06 A2986 RMK CU5 SLP115
CYSC;2003-10-13 19:00;METAR CYSC 131900Z 29010KT 15SM FEW042 SCT250 15/05 A2985 RMK CU2CI0 SLP111
CYSC;2003-10-13 20:00;METAR CYSC 132000Z 29011G16KT 15SM FEW045 FEW250 15/04 A2985 RMK CU2CI0 SLP112
CYSC;2003-10-13 21:00;METAR CYSC 132100Z 29013KT 15SM FEW046 FEW250 14/05 A2986 RMK CU2CI0 LAST MANNED OB/NEXT 141200 SLP116
CYSC;2003-10-13 22:00;METAR CYSC 132200Z AUTO 27005KT 9SM CLR 11/05 A2988 RMK SLP126
CYSC;2003-10-13 23:00;METAR CYSC 132300Z AUTO 26005KT 9SM FEW047 09/04 A2990 RMK SLP133
CYSC;2003-10-14 00:00;METAR CYSC 140000Z AUTO 26004KT 9SM CLR 07/04 A2991 RMK SLP137
CYSC;2003-10-14 01:00;METAR CYSC 140100Z AUTO 21003KT 9SM CLR 04/02 A2993 RMK SLP141
CYSC;2003-10-14 02:00;METAR CYSC 140200Z AUTO 19003KT 9SM CLR 03/02 A2994 RMK SLP146
CYSC;2003-10-14 03:00;METAR CYSC 140300Z AUTO 00000KT 9SM CLR 02/01 A2995 RMK SLP149
CYSC;2003-10-14 04:00;METAR CYSC 140400Z AUTO 12002KT 8SM CLR 02/01 A2995 RMK SLP150
CYSC;2003-10-14 05:00;METAR CYSC 140500Z AUTO 10002KT 9SM CLR 01/M00 A2995 RMK SLP150
CYSC;2003-10-14 06:00;METAR CYSC 140600Z AUTO 00000KT 6SM CLR M00/M01 A2995 RMK SLP152
CYSC;2003-10-14 07:00;METAR CYSC 140700Z AUTO 09002KT 7SM CLR M01/M02 A2996 RMK SLP154
CYSC;2003-10-14 08:00;METAR CYSC 140800Z AUTO 00000KT 9SM CLR 00/M01 A2997 RMK SLP155
CYSC;2003-10-14 09:00;METAR CYSC 140900Z AUTO 09003KT 9SM CLR 01/M00 A2997 RMK ICG SLP157
CYSC;2003-10-14 10:00;METAR CYSC 141000Z AUTO 09002KT 8SM CLR 00/M01 A2997 RMK ICG INTMT SLP159
CYSC;2003-10-14 11:00;METAR CYSC 141100Z AUTO 00000KT 8SM CLR 00/M01 A2998 RMK ICG PAST HR SLP161
CYSC;2003-10-14 12:00;METAR CYSC 141200Z 07002KT 15SM FEW180 02/01 A2998 RMK CC1 SLP161
CYSC;2003-10-14 13:00;METAR CYSC 141300Z 10002KT 15SM FEW140 06/04 A2997 RMK CC1 SLP157
CYSC;2003-10-14 14:00;METAR CYSC 141400Z 12004KT 15SM FEW140 FEW220 11/06 A2995 RMK AC1CI1 SLP150
CYSC;2003-10-14 15:00;METAR CYSC 141500Z 24002KT 15SM FEW140 FEW220 15/08 A2992 RMK AC1CI1 SLP139
CYSC;2003-10-14 16:00;METAR CYSC 141600Z 17005KT 15SM FEW140 18/05 A2990 RMK AC1 SLP132
CYSC;2003-10-14 17:00;METAR CYSC 141700Z 17007KT 15SM FEW073 FEW140 19/04 A2986 RMK AC1AC1 SLP117
CYSC;2003-10-14 18:00;METAR CYSC 141800Z 17008KT 15SM FEW080 FEW200 20/04 A2982 RMK AC1CC2 SLP104
CYSC;2003-10-14 19:00;METAR CYSC 141900Z 16008KT 15SM FEW047 SCT091 SCT200 19/03 A2980 RMK SC2AC2CC1 SLP097
CYSC;2003-10-14 20:00;METAR CYSC 142000Z 16006KT 15SM SCT048 SCT070 BKN140 18/04 A2977 RMK SC3AC1AC1 SLP087
CYSC;2003-10-14 21:00;METAR CYSC 142100Z 15006KT 15SM SCT070 SCT090 BKN120 17/04 A2975 RMK AC3AC1AC1 LAST MANNED OB/NEXT 151200 SLP081
CYSC;2003-10-14 22:00;METAR CYSC 142200Z AUTO 13010KT 9SM CLR 15/04 A2973 RMK SLP074
CYSC;2003-10-14 23:00;METAR CYSC 142300Z AUTO 13006KT 9SM CLR 13/04 A2971 RMK SLP067
CYSC;2003-10-15 00:00;METAR CYSC 150000Z AUTO 13012G17KT 9SM CLR 13/04 A2968 RMK SLP059
CYSC;2003-10-15 01:00;METAR CYSC 150100Z AUTO 13011G16KT 9SM CLR 12/04 A2965 RMK SLP047
CYSC;2003-10-15 02:00;METAR CYSC 150200Z AUTO 13006KT 9SM CLR 11/03 A2963 RMK SLP037
CYSC;2003-10-15 03:00;METAR CYSC 150300Z AUTO 14012KT 9SM CLR 11/02 A2960 RMK SLP028
CYSC;2003-10-15 04:00;METAR CYSC 150400Z AUTO 14014G19KT 9SM CLR 10/03 A2957 RMK SLP017
CYSC;2003-10-15 05:00;METAR CYSC 150500Z AUTO 14009KT 9SM CLR 10/04 A2957 RMK SLP016
CYSC;2003-10-15 06:00;METAR CYSC 150600Z AUTO 11004KT 9SM FEW032 10/05 A2954 RMK SLP004
CYSC;2003-10-15 07:00;METAR CYSC 150700Z AUTO 12007KT 9SM FEW032 11/06 A2951 RMK SLP995
CYSC;2003-10-15 08:00;METAR CYSC 150800Z AUTO 11011G16KT 9SM CLR 11/06 A2945 RMK SLP976
CYSC;2003-10-15 09:00;METAR CYSC 150900Z AUTO 09011G17KT 9SM BKN030 BKN098 12/05 A2937 RMK PRESFR SLP949
CYSC;2003-10-15 10:00;METAR CYSC 151000Z AUTO 10016G24KT 9SM -RA OVC026 10/08 A2929 RMK PCPN 0.5MM PAST HR PRESFR SLP921
CYSC;2003-10-15 11:00;METAR CYSC 151100Z AUTO 08011KT 9SM -RA FEW023 SCT045 BKN092 10/08 A2922 RMK PCPN 0.5MM PAST HR PRESFR SLP899
CYSC;2003-10-15 12:00;METAR CYSC 151200Z CCA 09012G17KT 15SM FEW012 SCT027 BKN097 OVC250 11/09 A2910 RMK SF2SC2AC2CI1 PRESFR SLP855
CYSC;2003-10-15 13:00;METAR CYSC 151300Z CCA 11022G29KT 10SM -RA FEW010 BKN027 OVC099 13/10 A2899 RERA RMK SF2SC4AC2 PRESFR SLP821
CYSC;2003-10-15 14:00;METAR CYSC 151400Z CCA 10017G27KT 15SM -RA FEW008 BKN023 BKN110 13/11 A2887 RMK SF2SC3AC2 PRESFR SLP780
CYSC;2003-10-15 15:00;METAR CYSC 151500Z CCA 13018G26KT 2SM SHRA BR FEW008 OVC018 14/12 A2884 RMK CF2SC6 TCU EMBDD SLP767
CYSC;2003-10-15 16:00;METAR CYSC 151600Z CCA 18011G21KT 15SM -SHRA FEW010 BKN020 BKN072 13/12 A2886 RERA RMK CF2CU4AC2 SLP774
CYSC;2003-10-15 17:00;METAR CYSC 151700Z 19009G21KT 15SM BKN017 BKN081 14/10 A2887 RMK CU5AC2 SLP778
CYSC;2003-10-15 18:00;METAR CYSC 151800Z 18013G24KT 15SM BKN030 13/08 A2888 RMK CU7 SLP781
CYSC;2003-10-15 19:00;METAR CYSC 151900Z 19015G27KT 15SM OVC029 13/07 A2890 RMK SC8 CU EMBDD SLP788
CYSC;2003-10-15 20:00;METAR CYSC 152000Z 19010G16KT 10SM -SHRA OVC018 11/09 A2895 RMK SC8 CU EMBDD SLP804
CYSC;2003-10-15 21:00;METAR CYSC 152100Z 19014G20KT 12SM -SHRA OVC026 09/07 A2898 RMK SC8 LAST MANNED OB/NEXT 161200 SLP815
CYSC;2003-10-15 22:00;METAR CYSC 152200Z AUTO 24013G24KT 9SM -RA FEW005 OVC010 OVC046 08/07 A2903 RMK PCPN 0.5MM PAST HR SLP833
CYSC;2003-10-15 23:00;METAR CYSC 152300Z AUTO 24016G22KT 6SM -RA OVC012 08/07 A2908 RMK PCPN 0.5MM PAST HR SLP853
CYSC;2003-10-16 00:00;METAR CYSC 160000Z AUTO 24017G28KT 9SM -RA OVC014 07/05 A2914 RMK PCPN 0.5MM PAST HR PRESRR SLP874
CYSC;2003-10-16 01:00;METAR CYSC 160100Z AUTO 25017G28KT 9SM -RA BKN015 06/04 A2920 RMK PCPN 0.5MM PAST HR PRESRR SLP895
CYSC;2003-10-16 02:00;METAR CYSC 160200Z AUTO 25015G28KT 9SM -RA OVC018 05/03 A2926 RMK PCPN 0.5MM PAST HR SLP915
CYSC;2003-10-16 03:00;METAR CYSC 160300Z AUTO 26021G32KT 9SM -RA BKN017 05/03 A2933 RMK PCPN 0.5MM PAST HR PRESRR SLP936
CYSC;2003-10-16 04:00;METAR CYSC 160400Z AUTO 25020G29KT 9SM -RA OVC017 04/03 A2938 RMK PCPN 0.5MM PAST HR SLP954
CYSC;2003-10-16 05:00;METAR CYSC 160500Z AUTO 26016G28KT 9SM -RA BKN019 04/02 A2944 RMK PCPN 0.5MM PAST HR SLP973
CYSC;2003-10-16 06:00;METAR CYSC 160600Z AUTO 25017G26KT 9SM -RA SCT023 04/02 A2948 RMK SLP988
CYSC;2003-10-16 07:00;METAR CYSC 160700Z AUTO 25018G26KT 9SM BKN029 BKN073 05/01 A2952 RMK SLP002
CYSC;2003-10-16 08:00;METAR CYSC 160800Z AUTO 27016G28KT 9SM FEW039 SCT049 BKN063 04/M02 A2957 RMK SLP020
CYSC;2003-10-16 09:00;METAR CYSC 160900Z AUTO 27018KT 9SM FEW034 FEW046 04/M03 A2962 RMK SLP038
CYSC;2003-10-16 10:00;METAR CYSC 161000Z AUTO 25013KT 9SM FEW050 04/M01 A2967 RMK SLP055
CYSC;2003-10-16 11:00;METAR CYSC 161100Z AUTO 25008KT 9SM BKN047 04/M02 A2971 RMK SLP067
CYSC;2003-10-16 12:00;METAR CYSC 161200Z 24007KT 15SM FEW120 SCT250 04/M02 A2972 RMK AC2CI1 SLP070
CYSC;2003-10-16 13:00;METAR CYSC 161300Z 25007KT 15SM FEW120 FEW250 06/M01 A2972 RMK AC1CI1 SLP071
CYSC;2003-10-16 14:00;METAR CYSC 161400Z 25010G15KT 15SM FEW120 FEW250 08/M02 A2972 RMK AC1CI0 SLP072
CYSC;2003-10-16 15:00;METAR CYSC 161500Z 25017G22KT 15SM SCT047 BKN087 BKN250 09/M02 A2972 RMK SC3AC2CI1 CU ASOCTD SLP072
CYSC;2003-10-16 16:00;METAR CYSC 161600Z 24011G16KT 15SM BKN036 BKN070 08/M02 A2973 RMK CU6AC2 SLP074
CYSC;2003-10-16 17:00;METAR CYSC 161700Z 22011G18KT 15SM -SHRA BKN021 BKN082 06/04 A2974 RMK CU6AC2 TCU EMBDD SLP076
CYSC;2003-10-16 18:00;METAR CYSC 161800Z CCA 29007KT 10SM SHRAGS BKN016 OVC079 05/03 A2975 RMK
CYSC;2003-10-16 19:00;METAR CYSC 161900Z 26010G19KT 15SM -SHRA FEW009 SCT029 BKN068 05/03 A2977 RERA RMK CF2CU2AC2 TCU ASOCTD SLP088
CYSC;2003-10-16 20:00;METAR CYSC 162000Z 26009G16KT 12SM -SHRA FEW012 BKN035 OVC070 06/02 A2979 RMK CF2CU4AC2 TCU ASOCTD SLP095
CYSC;2003-10-16 21:00;METAR CYSC 162100Z 24015G26KT 15SM -SHRA FEW008 BKN028 BKN070 05/02 A2982 RMK CF2CU4AC1 LAST MANNED OB/NEXT 171200 SLP107
CYSC;2003-10-16 22:00;METAR CYSC 162200Z AUTO 24010G15KT 9SM FEW042 FEW092 05/01 A2985 RMK SLP117
CYSC;2003-10-16 23:00;METAR CYSC 162300Z AUTO 28007KT 9SM FEW022 BKN044 04/00 A2988 RMK SLP130
CYSC;2003-10-17 00:00;METAR CYSC 170000Z AUTO 26006KT 9SM FEW048 04/M01 A2991 RMK SLP137
CYSC;2003-10-17 01:00;METAR CYSC 170100Z AUTO 25006KT 9SM FEW027 04/M01 A2992 RMK SLP139
CYSC;2003-10-17 02:00;METAR CYSC 170200Z AUTO 25006KT 9SM FEW016 BKN021 03/01 A2993 RMK SLP142
CYSC;2003-10-17 03:00;METAR CYSC 170300Z AUTO 27007KT 4SM -RA OVC011 03/01 A2994 RMK SLP146
CYSC;2003-10-17 04:00;METAR CYSC 170400Z AUTO 25005KT 9SM FEW053 FEW080 02/01 A2995 RMK SLP151
CYSC;2003-10-17 05:00;METAR CYSC 170500Z AUTO 23006KT 9SM FEW090 02/00 A2996 RMK SLP153
CYSC;2003-10-17 06:00;METAR CYSC 170600Z AUTO 22004KT 9SM CLR 01/M00 A2997 RMK SLP159
CYSC;2003-10-17 07:00;METAR CYSC 170700Z AUTO 23006KT 9SM BKN076 01/M00 A2998 RMK SLP163
CYSC;2003-10-17 08:00;METAR CYSC 170800Z AUTO 23004KT 9SM FEW060 OVC078 02/M01 A2999 RMK SLP165
CYSC;2003-10-17 09:00;METAR CYSC 170900Z AUTO 00000KT 9SM SCT036 OVC066 02/M00 A3000 RMK SLP168
CYSC;2003-10-17 10:00;METAR CYSC 171000Z AUTO 25002KT 9SM FEW031 BKN065 02/00 A3001 RMK SLP173
CYSC;2003-10-17 11:00;METAR CYSC 171100Z AUTO 21002KT 9SM OVC024 OVC052 OVC063 02/00 A3003 RMK SLP179
CYSC;2003-10-17 12:00;METAR CYSC 171200Z 00000KT 15SM FEW012 SCT044 SCT120 BKN250 02/00 A3005 RMK CF1SC2AC1CI0 SLP185
CYSC;2003-10-17 13:00;METAR CYSC 171300Z 24004KT 15SM FEW012 FEW068 SCT250 04/03 A3006 RMK CU2AC1CI0 SLP189
CYSC;2003-10-17 14:00;METAR CYSC 171400Z 27008KT 15SM FEW016 FEW068 SCT250 06/01 A3007 RMK CU2AC1CI1 SLP191
CYSC;2003-10-17 15:00;METAR CYSC 171500Z 25006KT 15SM SCT023 BKN071 BKN250 08/01 A3008 RMK CU4AC1CI0 SLP193
CYSC;2003-10-17 16:00;METAR CYSC 171600Z 25011KT 15SM BKN034 BKN070 07/M02 A3008 RMK CU6AC2 SLP193
CYSC;2003-10-17 17:00;METAR CYSC 171700Z 27012KT 15SM BKN040 BKN080 07/M02 A3007 RMK CU6AC2 SLP192
CYSC;2003-10-17 18:00;METAR CYSC 171800Z 24009KT 15SM BKN037 BKN091 06/M01 A3007 RMK CU5AC2
CYSC;2003-10-17 19:00;METAR CYSC 171900Z 23009KT 15SM VCSH SCT027 BKN068 BKN250 06/01 A3008 RMK CU4AC2CI0 SLP195
CYSC;2003-10-17 20:00;METAR CYSC 172000Z 24006KT 15SM VCSH BKN039 BKN073 06/01 A3008 RMK CU6AC2 TCU EMBDD SLP195
CYSC;2003-10-17 21:00;METAR CYSC 172100Z 22005KT 15SM FEW012 SCT025 BKN056 05/02 A3008 RMK CF2CU2SC3 LAST MANNED OB/NEXT 181200 SLP196
CYSC;2003-10-17 22:00;METAR CYSC 172200Z AUTO 20004KT 9SM OVC060 04/02 A3009 RMK SLP199
CYSC;2003-10-17 23:00;METAR CYSC 172300Z AUTO 20002KT 9SM BKN060 03/02 A3010 RMK SLP203
CYSC;2003-10-18 00:00;METAR CYSC 180000Z AUTO 21002KT 9SM FEW027 FEW043 OVC061 03/02 A3010 RMK SLP205
CYSC;2003-10-18 01:00;METAR CYSC 180100Z AUTO 17002KT 9SM OVC067 03/01 A3009 RMK SLP201
CYSC;2003-10-18 02:00;METAR CYSC 180200Z AUTO 20003KT 9SM FEW057 BKN067 03/01 A3009 RMK SLP201
CYSC;2003-10-18 03:00;METAR CYSC 180300Z AUTO 23002KT 9SM OVC054 03/01 A3009 RMK SLP199
CYSC;2003-10-18 04:00;METAR CYSC 180400Z AUTO 25003KT 9SM OVC060 03/01 A3008 RMK SLP196
CYSC;2003-10-18 05:00;METAR CYSC 180500Z AUTO 22003KT 9SM OVC060 03/01 A3008 RMK SLP194
CYSC;2003-10-18 06:00;METAR CYSC 180600Z AUTO 21003KT 9SM OVC058 03/01 A3007 RMK SLP193
CYSC;2003-10-18 07:00;METAR CYSC 180700Z AUTO 20002KT 9SM OVC058 03/01 A3006 RMK SLP190
CYSC;2003-10-18 08:00;METAR CYSC 180800Z AUTO 00000KT 9SM FEW025 BKN058 02/01 A3006 RMK SLP188
CYSC;2003-10-18 09:00;METAR CYSC 180900Z AUTO 19002KT 9SM OVC073 01/M00 A3005 RMK SLP186
CYSC;2003-10-18 10:00;METAR CYSC 181000Z AUTO 00000KT 8SM FEW067 FEW075 M00/M02 A3005 RMK SLP187
CYSC;2003-10-18 11:00;METAR CYSC 181100Z AUTO 00000KT 9SM FEW056 BKN074 M00/M01 A3005 RMK SLP187
CYSC;2003-10-18 12:00;METAR CYSC 181200Z 00000KT 15SM SCT035 OVC060 01/00 A3006 RMK SC3SC5 SLP189
CYSC;2003-10-18 13:00;METAR CYSC 181300Z 09002KT 15SM BKN033 OVC065 02/01 A3005 RMK SC6SC2 SLP185
CYSC;2003-10-18 14:00;METAR CYSC 181400Z 32002KT 10SM -RASG FEW006 BKN030 OVC050 03/M00 A3005 RMK CF2SC3SC2 SLP185
CYSC;2003-10-18 15:00;METAR CYSC 181500Z 35003KT 15SM -SNPL FEW016 OVC042 03/00 A3004 RMK CF2SC6 SLP182
CYSC;2003-10-18 16:00;METAR CYSC 181600Z 00000KT 15SM -RA SCT013 BKN030 OVC065 04/01 A3002 RMK CF3SC4SC1 SLP176
CYSC;2003-10-18 17:00;METAR CYSC 181700Z 00000KT 15SM BKN015 OVC070 05/01 A3000 RMK SC7AC1 CU EMBDD SLP168
CYSC;2003-10-18 18:00;METAR CYSC 181800Z 00000KT 15SM SCT021 OVC038 05/M00 A2998 RMK SC3SC5 SLP162
CYSC;2003-10-18 19:00;METAR CYSC 181900Z 21003KT 12SM -SHRASN BKN024 OVC040 04/02 A2998 RMK SC6SC2 CU EMBDD SLP161
CYSC;2003-10-18 20:00;METAR CYSC 182000Z 22002KT 15SM SCT025 BKN041 OVC075 04/02 A2997 RMK SC3SC4AC1 SLP158
CYSC;2003-10-18 21:00;METAR CYSC 182100Z 00000KT 15SM BKN030 OVC070 04/01 A2996 RMK SC5AC3 LAST MANNED OB/NEXT 191200 SLP156
CYSC;2003-10-18 22:00;METAR CYSC 182200Z AUTO 00000KT 9SM BKN034 04/02 A2996 RMK SLP157
CYSC;2003-10-18 23:00;METAR CYSC 182300Z AUTO 00000KT 9SM CLR 03/02 A2996 RMK SLP158
CYSC;2003-10-19 00:00;METAR CYSC 190000Z AUTO 22002KT 9SM SCT053 SCT078 03/02 A2996 RMK SLP158
CYSC;2003-10-19 01:00;METAR CYSC 190100Z AUTO 00000KT 9SM BKN034 BKN055 BKN064 BKN081 03/02 A2997 RMK SLP159
CYSC;2003-10-19 02:00;METAR CYSC 190200Z AUTO 00000KT 6SM BKN032 BKN081 02/01 A2997 RMK SLP157
CYSC;2003-10-19 03:00;METAR CYSC 190300Z AUTO 26002KT 7SM FEW047 FEW079 02/01 A2996 RMK SLP155
CYSC;2003-10-19 04:00;METAR CYSC 190400Z AUTO 00000KT 9SM FEW029 FEW046 FEW079 02/01 A2995 RMK SLP152
CYSC;2003-10-19 05:00;METAR CYSC 190500Z AUTO 26002KT 9SM CLR 02/01 A2995 RMK SLP151
CYSC;2003-10-19 06:00;METAR CYSC 190600Z AUTO 28003KT 7SM FEW050 02/01 A2994 RMK SLP147
CYSC;2003-10-19 07:00;METAR CYSC 190700Z AUTO 28002KT 6SM BKN079 01/00 A2992 RMK SLP143
CYSC;2003-10-19 08:00;METAR CYSC 190800Z AUTO 28003KT 5SM OVC077 01/M00 A2992 RMK SLP143
CYSC;2003-10-19 09:00;METAR CYSC 190900Z AUTO 00000KT 5SM OVC077 01/00 A2992 RMK SLP142
CYSC;2003-10-19 10:00;METAR CYSC 191000Z AUTO 21002KT 5SM SCT044 OVC079 00/M01 A2993 RMK SLP145
CYSC;2003-10-19 11:00;METAR CYSC 191100Z AUTO 00000KT 2 1/2SM BKN029 BKN047 OVC076 00/M00 A2993 RMK SLP148
CYSC;2003-10-19 12:00;METAR CYSC 191200Z 23004KT 2SM BR SCT003 SCT042 BKN076 00/M00 A2995 RMK SF3SC1AC1 SLP152
CYSC;2003-10-19 13:00;METAR CYSC 191300Z 29005KT 1 1/4SM BR VV001 01/00 A2996 RMK FG8 SLP157
CYSC;2003-10-19 14:00;METAR CYSC 191400Z 32003KT 8SM BKN005 BKN044 02/01 A2997 RMK CF7SC1 SLP158
CYSC;2003-10-19 15:00;METAR CYSC 191500Z 33004KT 15SM BKN009 BKN045 03/00 A2997 RMK SC6SC1 CU ASOCTD SLP159
CYSC;2003-10-19 16:00;METAR CYSC 191600Z 31005KT 15SM BKN016 04/M00 A2998 RMK SC7 CU ASOCTD SLP160
CYSC;2003-10-19 17:00;METAR CYSC 191700Z 28003KT 15SM SCT025 SCT240 06/00 A2997 RMK SC3CI0 CU ASOCTD SLP158
CYSC;2003-10-19 18:00;METAR CYSC 191800Z 32003KT 15SM SCT029 BKN050 05/M02 A2997 RMK CU3SC2 SLP157
CYSC;2003-10-19 19:00;METAR CYSC 191900Z 31007KT 15SM FEW030 SCT055 BKN240 05/M03 A2997 RMK CU2SC2CI0 SLP159
CYSC;2003-10-19 20:00;METAR CYSC 192000Z 30009KT 15SM FEW030 FEW063 SCT240 06/M05 A2998 RMK CU1SC2CI0 SLP162
CYSC;2003-10-19 21:00;METAR CYSC 192100Z 31006KT 15SM BKN049 BKN070 04/M06 A3001 RMK SC5AC1 LAST MANNED OB/NEXT 201200 SLP171
CYSC;2003-10-19 22:00;METAR CYSC 192200Z AUTO 31007KT 9SM OVC049 03/M06 A3002 RMK SLP177
CYSC;2003-10-19 23:00;METAR CYSC 192300Z AUTO 27005KT 9SM BKN049 02/M05 A3004 RMK SLP185
CYSC;2003-10-20 00:00;METAR CYSC 200000Z AUTO 29004KT 9SM OVC049 02/M05 A3005 RMK SLP188
CYSC;2003-10-20 01:00;METAR CYSC 200100Z AUTO 26003KT 9SM SCT047 M01/M06 A3006 RMK SLP191
CYSC;2003-10-20 02:00;METAR CYSC 200200Z AUTO 27003KT 9SM CLR M03/M06 A3007 RMK SLP194
CYSC;2003-10-20 03:00;METAR CYSC 200300Z AUTO 25002KT 9SM SCT052 M02/M05 A3007 RMK SLP196
CYSC;2003-10-20 04:00;METAR CYSC 200400Z AUTO 23002KT 9SM OVC052 M02/M05 A3008 RMK SLP197
CYSC;2003-10-20 05:00;METAR CYSC 200500Z AUTO 00000KT 9SM BKN052 M03/M05 A3008 RMK SLP199
CYSC;2003-10-20 06:00;METAR CYSC 200600Z AUTO 00000KT 9SM BKN052 M03/M05 A3009 RMK SLP200
CYSC;2003-10-20 07:00;METAR CYSC 200700Z AUTO 00000KT 9SM CLR M06/M07 A3008 RMK SLP198
CYSC;2003-10-20 08:00;METAR CYSC 200800Z AUTO 00000KT 9SM CLR M06/M08 A3008 RMK ICG SLP199
CYSC;2003-10-20 09:00;METAR CYSC 200900Z AUTO 03002KT 9SM FEW050 M05/M07 A3008 RMK ICG INTMT SLP199
CYSC;2003-10-20 10:00;METAR CYSC 201000Z AUTO 00000KT 9SM SCT050 M06/M08 A3009 RMK ICG INTMT SLP202
CYSC;2003-10-20 11:00;METAR CYSC 201100Z AUTO 00000KT 9SM BKN050 M05/M07 A3009 RMK ICG PAST HR SLP203
CYSC;2003-10-20 12:00;METAR CYSC 201200Z 00000KT 15SM BKN050 M04/M05 A3009 RMK SC6 FROIN SLP203
CYSC;2003-10-20 13:00;METAR CYSC 201300Z 00000KT 15SM BKN052 M01/M02 A3009 RMK SC6 SLP202
CYSC;2003-10-20 14:00;METAR CYSC 201400Z 00000KT 15SM BKN054 BKN099 02/M00 A3008 RMK SC5AC2 SLP200
CYSC;2003-10-20 15:00;METAR CYSC 201500Z 24006KT 15SM SCT030 BKN054 04/M01 A3006 RMK SC3SC4 SLP190
CYSC;2003-10-20 16:00;METAR CYSC 201600Z 24007KT 15SM FEW015 SCT030 OVC051 05/M01 A3005 RMK CU1SC2SC5 SLP185
CYSC;2003-10-20 17:00;METAR CYSC 201700Z 24009KT 15SM FEW020 BKN048 OVC099 06/M03 A3002 RMK CU1SC6AC2 SLP176
CYSC;2003-10-20 18:00;METAR CYSC 201800Z 24006KT 15SM FEW020 OVC048 06/M02 A2999 RMK CU1SC8 SLP166
CYSC;2003-10-20 19:00;METAR CYSC 201900Z 24011KT 15SM OVC035 06/M02 A2998 RMK SC8 SLP161
CYSC;2003-10-20 20:00;METAR CYSC 202000Z 25008KT 15SM OVC031 06/M01 A2997 RMK SC8 SLP158
CYSC;2003-10-20 21:00;METAR CYSC 202100Z 25007KT 12SM -RA OVC020 04/02 A2996 RMK SC8 LAST MANNED OB/NEXT 211200 SLP157
CYSC;2003-10-20 22:00;METAR CYSC 202200Z AUTO 27005KT 7SM -RA OVC015 03/02 A2995 RMK SLP154
CYSC;2003-10-20 23:00;METAR CYSC 202300Z AUTO 23005KT 9SM FEW019 OVC024 03/02 A2995 RMK SLP155
CYSC;2003-10-21 00:00;METAR CYSC 210000Z AUTO 23006KT 9SM -RA OVC015 04/02 A2994 RMK SLP151
CYSC;2003-10-21 01:00;METAR CYSC 210100Z AUTO 15002KT 9SM OVC015 03/03 A2991 RMK SLP138
CYSC;2003-10-21 02:00;METAR CYSC 210200Z AUTO 00000KT 3SM -RA BKN015 03/03 A2989 RMK PCPN 0.5MM PAST HR SLP134
CYSC;2003-10-21 03:00;METAR CYSC 210300Z AUTO 22004KT 3 1/2SM RA BKN011 03/02 A2988 RMK PCPN 1.0MM PAST HR SLP130
CYSC;2003-10-21 04:00;METAR CYSC 210400Z AUTO 13002KT 1 1/2SM FEW004 01/M00 A2986 RMK PCPN 4.0MM PAST HR SLP120
CYSC;2003-10-21 05:00;METAR CYSC 210500Z AUTO 08005KT 5/8SM -FZRA OVC000 OVC008 OVC019 00/M00 A2983 RMK PCPN 2.0MM PAST HR SLP110
CYSC;2003-10-21 06:00;METAR CYSC 210600Z AUTO 08003KT 1 5/8SM UP FEW001 OVC012 00/M00 A2978 RMK ICG PAST HR PCPN 1.0MM PAST HR SLP094
CYSC;2003-10-21 07:00;METAR CYSC 210700Z AUTO 06003KT 3 1/2SM +RA FEW001 OVC015 00/M00 A2973 RMK PCPN 2.5MM PAST HR SLP078
CYSC;2003-10-21 08:00;METAR CYSC 210800Z AUTO 05004KT 4SM +RA FEW001 FEW038 00/M00 A2966 RMK PCPN 3.0MM PAST HR PRESFR SLP055
CYSC;2003-10-21 09:00;METAR CYSC 210900Z AUTO 06004KT 7SM -RA FEW020 BKN026 BKN044 01/00 A2964 RMK PCPN 4.5MM PAST HR SLP047
CYSC;2003-10-21 10:00;METAR CYSC 211000Z AUTO 06007KT 6SM RA OVC022 01/00 A2957 RMK PCPN 3.0MM PAST HR PRESFR SLP023
CYSC;2003-10-21 11:00;METAR CYSC 211100Z AUTO 04005KT 9SM OVC022 01/00 A2954 RMK PCPN 2.0MM PAST HR SLP012
CYSC;2003-10-21 12:00;METAR CYSC 211200Z CCA 04005KT 6SM -RA BR OVC016 01/01 A2954 RMK SC8 /R25 AFT 22Z/ /S02 AFT 22Z/ SLP013
CYSC;2003-10-21 13:00;METAR CYSC 211300Z CCA 06011KT 8SM -RA SCT002 OVC015 01/01 A2947 RERA RMK SF3SC5 PRESFR SLP989
CYSC;2003-10-21 14:00;METAR CYSC 211400Z CCA 06009KT 2 1/2SM -RA BR FEW002 OVC017 02/01 A2945 RMK SF1SC7 RERA SLP983
CYSC;2003-10-21 15:00;METAR CYSC 211500Z 04012KT 8SM -RA SCT002 BKN017 OVC031 02/01 A2942 RMK SF4SC3SC1 SLP972
CYSC;2003-10-21 16:00;METAR CYSC 211600Z 04009KT 3SM -RA SCT004 OVC017 02/02 A2940 RMK SF3SC5 SLP964
CYSC;2003-10-21 17:00;METAR CYSC 211700Z 04008G16KT 8SM -RA FEW004 OVC017 02/02 A2938 RMK CF2SC6 SLP957
CYSC;2003-10-21 18:00;METAR CYSC 211800Z 03009KT 5SM -RA BKN003 BKN016 OVC030 02/02 A2937 RMK CF5SC2SC1 /R13/ SLP956
CYSC;2003-10-21 19:00;METAR CYSC 211900Z 04010G16KT 12SM -RA BKN006 OVC022 02/02 A2940 RMK CF7SC1
CYSC;2003-10-21 20:00;METAR CYSC 212000Z 03007G15KT 12SM -RA BKN005 BKN020 OVC045 02/01 A2944 RMK CF6SC1SC1 SLP978
CYSC;2003-10-21 21:00;METAR CYSC 212100Z 01008KT 8SM -PL BKN007 OVC022 01/00 A2948 RMK CF6SC2 LAST MANNED OB/NEXT 221200 SLP991
CYSC;2003-10-21 22:00;METAR CYSC 212200Z AUTO 01006KT 9SM BKN009 OVC024 01/00 A2952 RMK SLP006
CYSC;2003-10-21 23:00;METAR CYSC 212300Z AUTO 01005KT 9SM BKN011 01/M00 A2956 RMK SLP020
CYSC;2003-10-22 00:00;METAR CYSC 220000Z AUTO 36005KT 9SM OVC012 01/M01 A2959 RMK SLP031
CYSC;2003-10-22 01:00;METAR CYSC 220100Z AUTO 03007KT 9SM BKN014 OVC036 00/M01 A2961 RMK SLP037
CYSC;2003-10-22 02:00;METAR CYSC 220200Z AUTO 03006KT 9SM OVC012 00/M01 A2961 RMK SLP039
CYSC;2003-10-22 03:00;METAR CYSC 220300Z AUTO 04007KT 9SM BKN028 OVC036 00/M02 A2962 RMK SLP041
CYSC;2003-10-22 04:00;METAR CYSC 220400Z AUTO 01002KT 9SM SCT028 OVC040 00/M02 A2962 RMK SLP042
CYSC;2003-10-22 05:00;METAR CYSC 220500Z AUTO 04002KT 9SM BKN031 OVC042 OVC059 00/M03 A2962 RMK SLP042
CYSC;2003-10-22 06:00;METAR CYSC 220600Z AUTO 03004KT 9SM OVC031 OVC047 00/M03 A2963 RMK SLP043
CYSC;2003-10-22 07:00;METAR CYSC 220700Z AUTO 01004KT 9SM BKN033 OVC045 00/M03 A2962 RMK SLP040
CYSC;2003-10-22 08:00;METAR CYSC 220800Z AUTO 04006KT 9SM BKN054 00/M03 A2961 RMK SLP039
CYSC;2003-10-22 09:00;METAR CYSC 220900Z AUTO 06003KT 9SM OVC044 M00/M03 A2963 RMK SLP043
CYSC;2003-10-22 10:00;METAR CYSC 221000Z AUTO 04004KT 9SM OVC055 M00/M03 A2964 RMK SLP047
CYSC;2003-10-22 11:00;METAR CYSC 221100Z AUTO 04005KT 9SM OVC059 M00/M03 A2965 RMK SLP051
CYSC;2003-10-22 12:00;METAR CYSC 221200Z 03010KT 15SM FEW030 BKN059 BKN099 M00/M03 A2965 RMK CU1SC5AC2 SLP051
CYSC;2003-10-22 13:00;METAR CYSC 221300Z 03004KT 15SM FEW030 BKN061 BKN099 M00/M04 A2966 RMK CU2SC6AC1 SLP055
CYSC;2003-10-22 14:00;METAR CYSC 221400Z 05005KT 15SM FEW030 OVC063 01/M03 A2966 RMK CU1SC7 SLP053
CYSC;2003-10-22 15:00;METAR CYSC 221500Z 05007KT 15SM FEW020 OVC063 01/M04 A2965 RMK CU1SC6 SLP049
CYSC;2003-10-22 16:00;METAR CYSC 221600Z 03008KT 15SM FEW025 BKN063 BKN220 01/M04 A2963 RMK CU1SC5CI1 SLP042
CYSC;2003-10-22 17:00;METAR CYSC 221700Z 05010KT 15SM FEW025 BKN065 BKN099 02/M05 A2961 RMK CU1SC4AC1 SLP038
CYSC;2003-10-22 18:00;METAR CYSC 221800Z 01007KT 15SM FEW028 BKN065 BKN100 02/M04 A2961 RMK CU2SC4AC1 SLP037
CYSC;2003-10-22 19:00;METAR CYSC 221900Z 03005KT 15SM SCT028 BKN069 OVC100 02/M05 A2961 RMK SC3AC4AC1 SLP037
CYSC;2003-10-22 20:00;METAR CYSC 222000Z 01007KT 15SM BKN028 OVC073 02/M04 A2961 RMK SC5AC3 SLP038
CYSC;2003-10-22 21:00;METAR CYSC 222100Z 04008KT 15SM BKN022 OVC066 02/M05 A2962 RMK SC6AC2 LAST MANNED OB/NEXT 231200 SLP040
CYSC;2003-10-22 22:00;METAR CYSC 222200Z AUTO 36003KT 9SM OVC026 OVC048 OVC066 01/M04 A2963 RMK SLP043
CYSC;2003-10-22 23:00;METAR CYSC 222300Z AUTO 35003KT 9SM FEW038 FEW098 01/M04 A2963 RMK SLP043
CYSC;2003-10-23 00:00;METAR CYSC 230000Z AUTO 36003KT 9SM FEW067 01/M04 A2962 RMK SLP040
CYSC;2003-10-23 01:00;METAR CYSC 230100Z AUTO 02004KT 9SM FEW065 01/M05 A2961 RMK SLP037
CYSC;2003-10-23 02:00;METAR CYSC 230200Z AUTO 04006KT 9SM FEW083 01/M05 A2961 RMK SLP037
CYSC;2003-10-23 03:00;METAR CYSC 230300Z AUTO 02008KT 9SM FEW027 FEW059 FEW081 01/M04 A2960 RMK SLP033
CYSC;2003-10-23 04:00;METAR CYSC 230400Z AUTO 01003KT 9SM FEW030 00/M03 A2958 RMK SLP029
CYSC;2003-10-23 05:00;METAR CYSC 230500Z AUTO 36002KT 3SM -SN BKN015 OVC025 M00/M03 A2958 RMK SLP026
CYSC;2003-10-23 06:00;METAR CYSC 230600Z AUTO 36004KT 3SM -SN BKN015 OVC024 M00/M02 A2956 RMK SLP021
CYSC;2003-10-23 07:00;METAR CYSC 230700Z AUTO 32003KT 5SM -SN BKN018 BKN063 M01/M02 A2954 RMK SLP013
CYSC;2003-10-23 08:00;METAR CYSC 230800Z AUTO 32006KT 3 1/2SM -SN BKN022 BKN063 M00/M02 A2952 RMK SLP006
CYSC;2003-10-23 09:00;METAR CYSC 230900Z AUTO 33006KT 7SM BKN023 M01/M03 A2951 RMK SLP002
CYSC;2003-10-23 10:00;METAR CYSC 231000Z AUTO 32005KT 9SM OVC023 M01/M03 A2950 RMK SLP000
CYSC;2003-10-23 11:00;METAR CYSC 231100Z AUTO 32002KT 9SM OVC027 M01/M03 A2950 RMK SLP999
CYSC;2003-10-23 12:00;METAR CYSC 231200Z 33004KT 3SM -SN FEW010 OVC022 M01/M03 A2950 RMK SF1SC8 /S02 AFT 22Z/ VSBY SE 8 SLP000
CYSC;2003-10-23 13:00;METAR CYSC 231300Z 32005KT 2 1/2SM -SN FEW012 OVC025 M00/M02 A2949 RMK CF1SC7 SLP998
CYSC;2003-10-23 14:00;METAR CYSC 231400Z 33006KT 3SM -SN FEW010 OVC032 00/M02 A2948 RMK CF2SC6 VSBY SE 8 SLP996
CYSC;2003-10-23 15:00;METAR CYSC 231500Z 30005KT 2 1/2SM -SN BKN007 OVC025 01/M01 A2947 RMK CF6SC2 VSBY SE 5 SLP988
CYSC;2003-10-23 16:00;METAR CYSC 231600Z 32005KT 6SM -SN BKN010 BKN020 OVC050 01/M01 A2946 RMK CF6SC1SC1 SLP984
CYSC;2003-10-23 17:00;METAR CYSC 231700Z 29007KT 3SM -SN BKN008 OVC025 02/M00 A2944 RMK CF6SC2 SLP978
CYSC;2003-10-23 18:00;METAR CYSC 231800Z 30007KT 4SM -SN BKN010 BKN020 OVC045 01/M01 A2943 RMK CF5SC2SC2 SLP977
CYSC;2003-10-23 19:00;METAR CYSC 231900Z 30009KT 1 1/4SM -SN OVC012 01/M01 A2944 RMK SN2CF6
CYSC;2003-10-23 20:00;METAR CYSC 232000Z CCA 30009G18KT 15SM -SN FEW010 BKN025 OVC050 01/M04 A2945 RMK CF1SC6SC2 SLP983
CYSC;2003-10-23 21:00;METAR CYSC 232100Z 28008KT 15SM FEW015 OVC033 01/M04 A2947 RMK CF1SC7 LAST MANNED OB/NEXT 241200 SLP989
CYSC;2003-10-23 22:00;METAR CYSC 232200Z AUTO 27007KT 9SM BKN036 01/M04 A2949 RMK SLP996
CYSC;2003-10-23 23:00;METAR CYSC 232300Z AUTO 26006KT 9SM OVC041 01/M04 A2950 RMK SLP001
CYSC;2003-10-24 00:00;METAR CYSC 240000Z AUTO 27009KT 9SM OVC039 01/M04 A2952 RMK SLP007
CYSC;2003-10-24 01:00;METAR CYSC 240100Z AUTO 29005KT 9SM BKN017 BKN028 BKN036 01/M04 A2954 RMK SLP014
CYSC;2003-10-24 02:00;METAR CYSC 240200Z AUTO 28009KT 9SM OVC036 01/M05 A2955 RMK SLP017
CYSC;2003-10-24 03:00;METAR CYSC 240300Z AUTO 28009KT 9SM BKN038 01/M05 A2957 RMK SLP024
CYSC;2003-10-24 04:00;METAR CYSC 240400Z AUTO 28010G17KT 9SM BKN041 01/M05 A2958 RMK SLP028
CYSC;2003-10-24 05:00;METAR CYSC 240500Z AUTO 27009KT 9SM BKN044 01/M05 A2960 RMK SLP034
CYSC;2003-10-24 06:00;METAR CYSC 240600Z AUTO 26010KT 9SM OVC040 01/M06 A2962 RMK SLP041
CYSC;2003-10-24 07:00;METAR CYSC 240700Z AUTO 27010G15KT 9SM OVC042 01/M06 A2964 RMK SLP048
CYSC;2003-10-24 08:00;METAR CYSC 240800Z AUTO 27011KT 9SM BKN034 BKN054 01/M06 A2967 RMK SLP057
CYSC;2003-10-24 09:00;METAR CYSC 240900Z AUTO 27010G15KT 9SM OVC039 01/M05 A2970 RMK SLP069
CYSC;2003-10-24 10:00;METAR CYSC 241000Z AUTO 28015KT 9SM FEW031 OVC039 01/M05 A2974 RMK SLP082
CYSC;2003-10-24 11:00;METAR CYSC 241100Z AUTO 28011KT 9SM BKN025 00/M04 A2979 RMK SLP098
CYSC;2003-10-24 13:00;METAR CYSC 241300Z 28011KT 8SM -SHSN FEW013 BKN037 01/M02 A2986 RMK CF2SC3 CU EMBDD SLP123
CYSC;2003-10-24 14:00;METAR CYSC 241400Z 28009G19KT 15SM -SN FEW015 OVC022 02/M03 A2989 RMK CU1SC7 SLP132
CYSC;2003-10-24 15:00;METAR CYSC 241500Z 29013G19KT 15SM -SHSN BKN029 BKN055 03/M04 A2992 RMK SC5SC1 CU ASOCTD SLP143
CYSC;2003-10-24 16:00;METAR CYSC 241600Z 28012G24KT 12SM -SHSN BKN029 BKN039 BKN069 03/M04 A2995 RMK SC5SC2AC1 CU EMBDD SLP151
CYSC;2003-10-24 17:00;METAR CYSC 241700Z 30011G17KT 15SM BKN029 OVC063 03/M05 A2997 RMK SC5SC3 SLP159
CYSC;2003-10-24 18:00;METAR CYSC 241800Z 28012G18KT 15SM BKN036 OVC075 03/M05 A2999 RMK SC6AC2 SLP166
CYSC;2003-10-24 20:00;METAR CYSC 242000Z 30009G15KT 15SM FEW020 BKN037 BKN060 03/M05 A3006 RMK CU1SC5SC2 SLP189
CYSC;2003-10-24 21:00;METAR CYSC 242100Z 27010G16KT 15SM BKN047 03/M06 A3008 RMK SC5 LAST MANNED OB/NEXT 251200 SLP198
CYSC;2003-10-24 22:00;METAR CYSC 242200Z AUTO 25005KT 9SM FEW049 02/M06 A3012 RMK SLP210
CYSC;2003-10-24 23:00;METAR CYSC 242300Z AUTO 23005KT 9SM BKN055 01/M05 A3017 RMK SLP228
CYSC;2003-10-25 00:00;METAR CYSC 250000Z AUTO 20003KT 9SM BKN059 01/M05 A3019 RMK SLP234
CYSC;2003-10-25 01:00;METAR CYSC 250100Z AUTO 22005KT 9SM FEW061 M01/M05 A3021 RMK SLP243
CYSC;2003-10-25 02:00;METAR CYSC 250200Z AUTO 23004KT 9SM CLR M02/M05 A3024 RMK SLP253
CYSC;2003-10-25 03:00;METAR CYSC 250300Z AUTO 20004KT 9SM CLR M03/M05 A3027 RMK SLP262
CYSC;2003-10-25 04:00;METAR CYSC 250400Z AUTO 18002KT 9SM CLR M04/M06 A3028 RMK SLP269
CYSC;2003-10-25 05:00;METAR CYSC 250500Z AUTO 00000KT 9SM CLR M05/M06 A3031 RMK SLP278
CYSC;2003-10-25 06:00;METAR CYSC 250600Z AUTO 09002KT 9SM CLR M05/M07 A3033 RMK ICG SLP285
CYSC;2003-10-25 07:00;METAR CYSC 250700Z AUTO 08002KT 9SM CLR M05/M06 A3033 RMK ICG INTMT SLP285
CYSC;2003-10-25 08:00;METAR CYSC 250800Z AUTO 09002KT 9SM CLR M04/M06 A3035 RMK ICG PAST HR SLP291
CYSC;2003-10-25 09:00;METAR CYSC 250900Z AUTO 08002KT 9SM CLR M03/M04 A3037 RMK SLP297
CYSC;2003-10-25 10:00;METAR CYSC 251000Z AUTO 11004KT 9SM CLR M02/M04 A3037 RMK SLP296
CYSC;2003-10-25 11:00;METAR CYSC 251100Z AUTO 09002KT 9SM CLR M02/M04 A3038 RMK SLP299
CYSC;2003-10-25 12:00;METAR CYSC 251200Z 05002KT 15SM BKN099 BKN250 M01/M03 A3037 RMK AC5CI2 SLP297
CYSC;2003-10-25 13:00;METAR CYSC 251300Z 12003KT 15SM FEW100 BKN250 02/M02 A3037 RMK AC2CI2 SLP296
CYSC;2003-10-25 14:00;METAR CYSC 251400Z 18002KT 15SM FEW061 SCT073 BKN140 BKN250 04/M02 A3037 RMK SC2AC2AS2CI0 SLP297
CYSC;2003-10-25 15:00;METAR CYSC 251500Z 22004KT 15SM VCSH FEW048 BKN120 OVC250 05/M03 A3038 RMK SC2AS5CI1 SLP301
CYSC;2003-10-25 16:00;METAR CYSC 251600Z 19006KT 15SM FEW030 SCT075 BKN120 BKN250 05/M04 A3035 RMK SC2AC2AS2CI1 SLP291
CYSC;2003-10-25 17:00;METAR CYSC 251700Z 17010KT 15SM FEW064 BKN081 BKN120 OVC250 07/M05 A3031 RMK SC2AC2AS2CI1 SLP277
CYSC;2003-10-25 18:00;METAR CYSC 251800Z 18005KT 15SM SCT083 BKN120 OVC250 06/M04 A3029 RMK AC3AS2CI2 SLP270
CYSC;2003-10-25 19:00;METAR CYSC 251900Z 16005KT 15SM SCT090 OVC120 06/M04 A3027 RMK AC3AS5 SLP261
CYSC;2003-10-25 20:00;METAR CYSC 252000Z 16006KT 15SM BKN086 OVC120 06/M03 A3025 RMK AC5AS3 SLP257
CYSC;2003-10-25 21:00;METAR CYSC 252100Z CCA 16004KT 15SM SCT071 OVC120 06/M03 A3025 RMK AC3AS5 LAST MANNED OB/NEXT 261300 SLP254
CYSC;2003-10-25 22:00;METAR CYSC 252200Z AUTO 16005KT 9SM OVC062 06/M02 A3024 RMK SLP252
CYSC;2003-10-25 23:00;METAR CYSC 252300Z AUTO 16003KT 9SM BKN050 BKN057 OVC062 06/M02 A3027 RMK SLP262
CYSC;2003-10-26 00:00;METAR CYSC 260000Z AUTO 16003KT 9SM OVC042 06/M01 A3027 RMK SLP260
CYSC;2003-10-26 01:00;METAR CYSC 260100Z AUTO 10003KT 9SM OVC046 05/M00 A3026 RMK SLP259
CYSC;2003-10-26 02:00;METAR CYSC 260200Z AUTO 05002KT 9SM OVC042 05/01 A3026 RMK SLP256
CYSC;2003-10-26 03:00;METAR CYSC 260300Z AUTO 12003KT 9SM OVC042 05/01 A3026 RMK SLP256
CYSC;2003-10-26 04:00;METAR CYSC 260400Z AUTO 21003KT 9SM OVC040 07/01 A3025 RMK SLP251
CYSC;2003-10-26 05:00;METAR CYSC 260500Z AUTO 19002KT 9SM OVC040 08/01 A3024 RMK SLP249
CYSC;2003-10-26 06:00;METAR CYSC 260600Z AUTO 00000KT 9SM OVC038 06/02 A3024 RMK SLP251
CYSC;2003-10-26 07:00;METAR CYSC 260700Z AUTO 15002KT 9SM BKN041 06/02 A3023 RMK SLP246
CYSC;2003-10-26 08:00;METAR CYSC 260800Z AUTO 17003KT 9SM OVC041 07/03 A3023 RMK SLP244
CYSC;2003-10-26 09:00;METAR CYSC 260900Z AUTO 07002KT 9SM BKN041 07/03 A3021 RMK SLP240
CYSC;2003-10-26 10:00;METAR CYSC 261000Z AUTO 08002KT 9SM -RA OVC037 07/03 A3020 RMK SLP234
CYSC;2003-10-26 11:00;METAR CYSC 261100Z AUTO 00000KT 9SM -RA BKN028 07/04 A3019 RMK SLP232
CYSC;2003-10-26 13:00;METAR CYSC 261300Z AUTO 06003KT 5SM BKN050 06/05 A3016 RMK SLP220
CYSC;2003-10-26 14:00;METAR CYSC 261400Z 04002KT 12SM BKN042 BKN094 OVC250 07/06 A3012 RMK SC5AC2CI1 SLP209
CYSC;2003-10-26 15:00;METAR CYSC 261500Z 06003KT 15SM BKN024 OVC120 08/07 A3008 RMK SC6AC2 SLP195
CYSC;2003-10-26 16:00;METAR CYSC 261600Z 05003KT 15SM BKN020 OVC120 09/08 A3005 RMK SC6AC2 SLP182
CYSC;2003-10-26 17:00;METAR CYSC 261700Z 10003KT 15SM BKN018 OVC090 11/09 A3000 RMK SC6AC2 SLP166
CYSC;2003-10-26 18:00;METAR CYSC 261800Z 19008KT 15SM BKN018 OVC110 14/11 A2996 RMK SC6AC2 SLP152
CYSC;2003-10-26 19:00;METAR CYSC 261900Z 18010G17KT 15SM SCT026 BKN085 BKN250 15/12 A2993 RMK SC3AC2CI1 SLP141
CYSC;2003-10-26 20:00;METAR CYSC 262000Z 19010G17KT 15SM FEW025 SCT054 BKN085 BKN250 16/12 A2992 RMK SC2SC2AC2CI1 SLP136
CYSC;2003-10-26 21:00;METAR CYSC 262100Z 19008KT 12SM SCT028 BKN046 BKN090 BKN250 16/12 A2990 RMK SC3SC2AC2CI0 SLP131
CYSC;2003-10-26 22:00;METAR CYSC 262200Z 19010G17KT 10SM -SHRA BKN029 BKN053 OVC081 15/12 A2988 RMK SC5SC2AC1 CU ASOCTD LAST MANNED OB/NEXT 271300 SLP124
CYSC;2003-10-26 23:00;METAR CYSC 262300Z AUTO 19008G15KT 8SM -RA FEW055 15/12 A2987 RMK PCPN 0.5MM PAST HR SLP122
CYSC;2003-10-27 00:00;METAR CYSC 270000Z AUTO 28023G29KT 3SM +RA FEW012 FEW027 SCT034 SCT043 12/11 A2991 RMK PCPN 0.5MM PAST HR SLP135
CYSC;2003-10-27 01:00;METAR CYSC 270100Z AUTO 21003KT 1 1/4SM RA OVC000 OVC015 OVC026 OVC045 11/10 A2993 RMK PCPN 7.0MM PAST HR SLP141
CYSC;2003-10-27 02:00;METAR CYSC 270200Z AUTO 23003KT 2SM RA FEW000 FEW012 OVC019 10/10 A2993 RMK PCPN 5.0MM PAST HR SLP143
CYSC;2003-10-27 03:00;METAR CYSC 270300Z AUTO 25003KT 4SM RA BKN008 OVC028 10/10 A2994 RMK PCPN 4.0MM PAST HR SLP145
CYSC;2003-10-27 04:00;METAR CYSC 270400Z AUTO 25004KT 4SM -RA FEW006 BKN014 OVC030 10/10 A2995 RMK PCPN 1.5MM PAST HR SLP149
CYSC;2003-10-27 05:00;METAR CYSC 270500Z AUTO 25004KT 5SM -RA FEW006 BKN020 10/09 A2995 RMK PCPN 2.0MM PAST HR SLP149
CYSC;2003-10-27 06:00;METAR CYSC 270600Z AUTO 23003KT 9SM -RA BKN005 OVC010 OVC067 09/09 A2995 RMK PCPN 0.5MM PAST HR SLP148
CYSC;2003-10-27 07:00;METAR CYSC 270700Z AUTO 27002KT 5SM -RA OVC008 09/09 A2994 RMK PCPN 0.5MM PAST HR SLP145
CYSC;2003-10-27 08:00;METAR CYSC 270800Z AUTO 00000KT 9SM -RA BKN006 09/08 A2992 RMK SLP136
CYSC;2003-10-27 09:00;METAR CYSC 270900Z AUTO 29003KT 2 1/2SM -RA OVC001 09/08 A2993 RMK PCPN 0.5MM PAST HR SLP140
CYSC;2003-10-27 10:00;METAR CYSC 271000Z AUTO 14003KT 2 1/4SM -RA BKN000 OVC011 OVC025 09/08 A2991 RMK PCPN 1.0MM PAST HR SLP134
CYSC;2003-10-27 11:00;METAR CYSC 271100Z AUTO 12002KT 1 1/2SM -RA FEW000 OVC011 OVC024 OVC037 09/08 A2989 RMK PCPN 2.5MM PAST HR SLP128
CYSC;2003-10-27 12:00;METAR CYSC 271200Z AUTO 36003KT 1/4SM OVC000 OVC006 08/08 A2988 RMK PCPN 1.0MM PAST HR SLP123
CYSC;2003-10-27 13:00;METAR CYSC 271300Z CCA 00000KT 3SM -RA BR OVC006 09/08 A2986 RMK FG2NS6 /R27 AFT 22Z/ SLP118 SLP103
CYSC;2003-10-27 15:00;METAR CYSC 271500Z 04005KT 2SM -RA BR OVC003 08/08 A2979 RERA RMK NS8 SLP092
CYSC;2003-10-27 16:00;METAR CYSC 271600Z 30004KT 3SM -RA BR BKN002 OVC016 08/08 A2979 RERA RMK NS6SC2 SLP092
CYSC;2003-10-27 17:00;METAR CYSC 271700Z 00000KT 3SM -RA BR FEW005 OVC011 08/08 A2975 RMK NS2SC6 SLP080
CYSC;2003-10-27 18:00;METAR CYSC 271800Z 07004KT 4SM RA BR BKN004 OVC017 08/08 A2972 RMK NS5SC3 SLP068
CYSC;2003-10-27 19:00;METAR CYSC 271900Z 36005KT 10SM -SHRA BKN007 OVC019 08/08 A2969 RERA RMK CF5SC3 SLP059
CYSC;2003-10-27 20:00;METAR CYSC 272000Z 05004KT 8SM -SHRA BKN007 OVC017 08/07 A2965 RMK CF5SC3 SLP047
CYSC;2003-10-27 21:00;METAR CYSC 272100Z 02003KT 4SM -SHRA BR BKN004 OVC015 08/07 A2961 RMK CF6SC2 SLP031
CYSC;2003-10-27 22:00;METAR CYSC 272200Z 30003KT 2SM -RA BR OVC001 07/07 A2959 RMK NS8 LAST MANNED OB/NEXT 281300 SLP024
CYSC;2003-10-27 23:00;METAR CYSC 272300Z AUTO 09002KT 2 1/8SM RA BKN000 OVC013 OVC027 08/07 A2953 RMK PCPN 5.5MM PAST HR SLP005
CYSC;2003-10-28 22:00;METAR CYSC 272200Z 30003KT 2SM -RA BR OVC001 07/07 A2959 RMK NS8 LAST MANNED OB/NEXT 281300 SLP024
CYSC;2003-10-28 00:00;METAR CYSC 280000Z AUTO 23002KT 1 1/2SM -RA BKN000 BKN012 OVC023 07/07 A2952 RMK PCPN 4.0MM PAST HR SLP002
CYSC;2003-10-28 01:00;METAR CYSC 280100Z AUTO 20003KT 4SM -RA OVC002 OVC042 07/06 A2951 RMK PCPN 2.0MM PAST HR SLP000
CYSC;2003-10-28 02:00;METAR CYSC 280200Z AUTO 18002KT 3SM RA OVC003 OVC032 OVC043 06/06 A2952 RMK PCPN 2.5MM PAST HR SLP002
CYSC;2003-10-28 03:00;METAR CYSC 280300Z AUTO 00000KT 3SM -RA OVC024 OVC066 06/06 A2947 RMK PCPN 3.5MM PAST HR SLP987
CYSC;2003-10-28 04:00;METAR CYSC 280400Z AUTO 28014KT 8SM -RA OVC005 OVC029 OVC057 04/04 A2954 RMK PCPN 2.0MM PAST HR PRESRR SLP009
CYSC;2003-10-28 05:00;METAR CYSC 280500Z AUTO 26010G15KT 9SM OVC006 04/04 A2959 RMK PCPN 1.0MM PAST HR SLP026
CYSC;2003-10-28 06:00;METAR CYSC 280600Z AUTO 24004KT 9SM OVC007 04/04 A2964 RMK SLP046
CYSC;2003-10-28 07:00;METAR CYSC 280700Z AUTO 25006KT 9SM OVC005 05/04 A2968 RMK SLP059
CYSC;2003-10-28 08:00;METAR CYSC 280800Z AUTO 25010KT 9SM FEW007 OVC011 05/04 A2972 RMK SLP073
CYSC;2003-10-28 09:00;METAR CYSC 280900Z AUTO 24006KT 9SM OVC009 05/04 A2975 RMK SLP081
CYSC;2003-10-28 10:00;METAR CYSC 281000Z AUTO 24008KT 9SM BKN010 OVC023 04/03 A2977 RMK SLP088
CYSC;2003-10-28 11:00;METAR CYSC 281100Z AUTO 18002KT 9SM OVC013 05/04 A2979 RMK SLP097
CYSC;2003-10-28 12:00;METAR CYSC 281200Z AUTO 21003KT 9SM OVC020 05/04 A2983 RMK SLP110 22Z/ SLP119
CYSC;2003-10-28 14:00;METAR CYSC 281400Z 21003KT 15SM BKN016 OVC038 06/05 A2990 RMK SC5SC3 CU EMBDD SLP132
CYSC;2003-10-28 15:00;METAR CYSC 281500Z 23002KT 15SM BKN015 OVC040 07/05 A2992 RMK CU5SC3 SLP137
CYSC;2003-10-28 16:00;METAR CYSC 281600Z 22005KT 15SM BKN025 BKN073 BKN250 09/05 A2993 RMK CU5AC1CI0 SLP141
CYSC;2003-10-28 17:00;METAR CYSC 281700Z 23008KT 15SM BKN018 BKN073 10/04 A2993 RMK CU5AC1 SLP143
CYSC;2003-10-28 18:00;METAR CYSC 281800Z 22004KT 15SM BKN030 BKN070 BKN250 09/03 A2993 RMK CU6AC1CI0 SLP141
CYSC;2003-10-28 19:00;METAR CYSC 281900Z 27007KT 15SM BKN041 BKN250 10/03 A2993 RMK CU5CI1
CYSC;2003-10-28 20:00;METAR CYSC 282000Z 30004KT 15SM FEW045 SCT110 BKN250 09/02 A2995 RMK CU2AC1CI1 SLP148
CYSC;2003-10-28 21:00;METAR CYSC 282100Z 00000KT 15SM FEW045 SCT110 BKN250 08/02 A2994 RMK CU1AC2CI2 SLP147
CYSC;2003-10-28 22:00;METAR CYSC 282200Z 05003KT 15SM FEW110 BKN250 04/02 A2994 RMK AC2CI2 LAST MANNED OB/NEXT 291300 SLP147
CYSC;2003-10-28 23:00;METAR CYSC 282300Z AUTO 09005KT 9SM CLR 04/02 A2995 RMK SLP150
CYSC;2003-10-29 00:00;METAR CYSC 290000Z AUTO 07005KT 9SM CLR 03/02 A2996 RMK SLP153
CYSC;2003-10-29 01:00;METAR CYSC 290100Z AUTO 09007KT 9SM CLR 03/02 A2996 RMK SLP154
CYSC;2003-10-29 02:00;METAR CYSC 290200Z AUTO 09005KT 9SM CLR 03/02 A2996 RMK SLP155
CYSC;2003-10-29 03:00;METAR CYSC 290300Z AUTO 08004KT 8SM CLR 02/01 A2996 RMK SLP155
CYSC;2003-10-29 04:00;METAR CYSC 290400Z AUTO 07004KT 7SM CLR 02/01 A2995 RMK SLP153
CYSC;2003-10-29 05:00;METAR CYSC 290500Z AUTO 07003KT 6SM CLR 02/01 A2994 RMK SLP147
CYSC;2003-10-29 06:00;METAR CYSC 290600Z AUTO 08004KT 8SM CLR 02/01 A2993 RMK SLP142
CYSC;2003-10-29 07:00;METAR CYSC 290700Z AUTO 06006KT 9SM CLR 03/02 A2990 RMK SLP132
CYSC;2003-10-29 08:00;METAR CYSC 290800Z AUTO 07005KT 9SM CLR 04/02 A2988 RMK SLP125
CYSC;2003-10-29 09:00;METAR CYSC 290900Z AUTO 06005KT 9SM CLR 04/03 A2986 RMK SLP120
CYSC;2003-10-29 10:00;METAR CYSC 291000Z AUTO 05005KT 8SM -RA CLR 05/03 A2986 RMK SLP120
CYSC;2003-10-29 11:00;METAR CYSC 291100Z AUTO 06005KT 5SM -RA BKN029 BKN070 05/04 A2983 RMK SLP110
CYSC;2003-10-29 12:00;METAR CYSC 291200Z AUTO 03003KT 2 1/2SM -RA OVC020 05/05 A2980 RMK PCPN 2.5MM PAST HR SLP100
CYSC;2003-10-29 13:00;METAR CYSC 291300Z 05006KT 2SM -RA BR OVC023 06/05 A2976 RMK FG2SC6 SLP087
CYSC;2003-10-29 14:00;METAR CYSC 291400Z CCA 03006KT 3SM RA BR FEW004 BKN010 OVC018 06/06 A2971 RMK SF2NS4SC2 SLP068
CYSC;2003-10-29 15:00;METAR CYSC 291500Z 03005KT 2SM RA BR SCT003 OVC015 06/05 A2968 RMK SF3NS5 SLP060
CYSC;2003-10-29 16:00;METAR CYSC 291600Z 04008KT 2SM RA BR BKN002 OVC013 06/06 A2961 RMK SF5NS3 SLP035
CYSC;2003-10-29 17:00;METAR CYSC 291700Z 04010G15KT 4SM -RA BR BKN003 OVC014 06/06 A2951
CYSC;2003-10-29 18:00;METAR CYSC 291800Z 03006KT 12SM -RA BKN005 OVC014 07/06 A2943 RERA RMK SF6NS2 PRESFR SLP975
CYSC;2003-10-29 18:00;METAR CYSC 291800Z CCB 03006KT 12SM -RA BKN005 OVC014 07/06 A2943
CYSC;2003-10-29 19:00;METAR CYSC 291900Z 28007KT 2SM -RADZ BR BKN002 OVC048 07/07 A2945 RMK NS5SC3 SLP979 SLP983
CYSC;2003-10-29 21:00;METAR CYSC 292100Z 22007KT 4SM -RA BR SCT005 OVC027 07/07 A2950 RMK SF3NS5 SLP997 LAST MANNED OB/NEXT 301300 SLP009
CYSC;2003-10-29 23:00;METAR CYSC 292300Z AUTO 23006KT 9SM FEW003 OVC009 07/07 A2956 RMK SLP019
CYSC;2003-10-30 00:00;METAR CYSC 300000Z AUTO 25008KT 9SM OVC008 07/06 A2959 RMK SLP029
CYSC;2003-10-30 01:00;METAR CYSC 300100Z AUTO 25007KT 9SM OVC006 06/06 A2961 RMK SLP036
CYSC;2003-10-30 02:00;METAR CYSC 300200Z AUTO 24008KT 6SM OVC006 06/05 A2964 RMK SLP043
CYSC;2003-10-30 03:00;METAR CYSC 300300Z AUTO 25011KT 9SM FEW008 BKN013 OVC025 OVC038 06/05 A2965 RMK SLP049
CYSC;2003-10-30 04:00;METAR CYSC 300400Z AUTO 24007KT 9SM BKN006 06/05 A2965 RMK SLP047
CYSC;2003-10-30 05:00;METAR CYSC 300500Z AUTO 25011G16KT 9SM OVC012 OVC038 05/04 A2968 RMK SLP060
CYSC;2003-10-30 06:00;METAR CYSC 300600Z AUTO 25008KT 9SM OVC012 05/04 A2971 RMK SLP068
CYSC;2003-10-30 07:00;METAR CYSC 300700Z AUTO 24008KT 8SM OVC009 06/04 A2974 RMK SLP080
CYSC;2003-10-30 08:00;METAR CYSC 300800Z AUTO 24006KT 3SM -RA OVC003 06/05 A2977 RMK SLP087
CYSC;2003-10-30 09:00;METAR CYSC 300900Z AUTO 25013G19KT 3 1/2SM -RA OVC006 06/05 A2979 RMK PCPN 0.5MM PAST HR SLP094
CYSC;2003-10-30 10:00;METAR CYSC 301000Z AUTO 24007G16KT 9SM -RA OVC015 05/04 A2981 RMK SLP104
CYSC;2003-10-30 11:00;METAR CYSC 301100Z AUTO 25010KT 9SM OVC015 OVC039 OVC047 OVC059 06/04 A2985 RMK SLP117
CYSC;2003-10-30 12:00;METAR CYSC 301200Z AUTO 22005KT 9SM OVC019 06/03 A2988 RMK SLP126
CYSC;2003-10-30 13:00;METAR CYSC 301300Z 24008KT 15SM BKN022 OVC065 06/03 A2992 RMK SC6SC2 SLP140
CYSC;2003-10-30 14:00;METAR CYSC 301400Z 26012KT 15SM OVC022 07/03 A2994 RMK SC8 SLP146
CYSC;2003-10-30 15:00;METAR CYSC 301500Z 26011G16KT 15SM BKN022 OVC081 07/03 A2997 RMK SC6AC2 SLP156
CYSC;2003-10-30 16:00;METAR CYSC 301600Z 26016KT 15SM BKN032 BKN085 08/03 A3001 RMK CU6AC2 SLP170
CYSC;2003-10-30 17:00;METAR CYSC 301700Z 25014G19KT 15SM BKN024 BKN084 09/03 A3004 RMK CU6AC1 SLP179
CYSC;2003-10-30 18:00;METAR CYSC 301800Z 25011G16KT 15SM BKN026 BKN085 09/03 A3006 RMK CU6AC1 SLP186
CYSC;2003-10-30 19:00;METAR CYSC 301900Z 26013G20KT 15SM BKN032 BKN076 BKN250 09/02 A3008 RMK CU5AC1CI0 SLP194
CYSC;2003-10-30 20:00;METAR CYSC 302000Z 26013G19KT 15SM SCT034 BKN082 BKN250 09/02 A3010 RMK CU3AC2CI0 SLP201
CYSC;2003-10-30 21:00;METAR CYSC 302100Z 26012KT 15SM FEW039 SCT085 SCT250 08/02 A3014 RMK CU2AC1CI0 SLP212
CYSC;2003-10-30 22:00;METAR CYSC 302200Z 26010KT 15SM SCT037 BKN250 08/02 A3017 RMK CU4CI0 LAST MANNED OB/NEXT 311300 SLP222
CYSC;2003-10-30 23:00;METAR CYSC 302300Z AUTO 14002KT 9SM FEW047 05/02 A3018 RMK SLP230
CYSC;2003-10-31 00:00;METAR CYSC 310000Z AUTO 22004KT 9SM CLR 05/02 A3019 RMK SLP234
CYSC;2003-10-31 01:00;METAR CYSC 310100Z AUTO 22005KT 9SM SCT040 06/02 A3020 RMK SLP237
CYSC;2003-10-31 02:00;METAR CYSC 310200Z AUTO 21004KT 9SM BKN036 06/02 A3023 RMK SLP247
CYSC;2003-10-31 03:00;METAR CYSC 310300Z AUTO 23004KT 9SM FEW034 BKN040 06/02 A3025 RMK SLP251
CYSC;2003-10-31 04:00;METAR CYSC 310400Z AUTO 25002KT 9SM OVC036 06/02 A3025 RMK SLP253
CYSC;2003-10-31 05:00;METAR CYSC 310500Z AUTO 00000KT 9SM FEW040 03/01 A3025 RMK SLP253
CYSC;2003-10-31 06:00;METAR CYSC 310600Z AUTO 23002KT 9SM CLR 01/M00 A3026 RMK SLP257
CYSC;2003-10-31 07:00;METAR CYSC 310700Z AUTO 00000KT 9SM CLR 00/M01 A3028 RMK SLP263
CYSC;2003-10-31 08:00;METAR CYSC 310800Z AUTO 07003KT 9SM CLR 01/M00 A3027 RMK SLP260
CYSC;2003-10-31 09:00;METAR CYSC 310900Z AUTO 09003KT 9SM BKN063 02/01 A3027 RMK SLP261
CYSC;2003-10-31 10:00;METAR CYSC 311000Z AUTO 09005KT 9SM OVC056 02/01 A3026 RMK SLP257
CYSC;2003-10-31 11:00;METAR CYSC 311100Z AUTO 08004KT 9SM BKN050 03/00 A3024 RMK SLP249
CYSC;2003-10-31 12:00;METAR CYSC 311200Z AUTO 10006KT 9SM CLR 03/01 A3022 RMK SLP242
CYSC;2003-10-31 13:00;METAR CYSC 311300Z 09005KT 15SM FEW250 05/02 A3019 RMK CI0 SLP232
CYSC;2003-10-31 14:00;METAR CYSC 311400Z 07004KT 15SM FEW250 09/03 A3019 RMK CI1 SLP231
CYSC;2003-10-31 15:00;METAR CYSC 311500Z 08002KT 15SM FEW250 12/05 A3016 RMK CI1 SLP219
CYSC;2003-10-31 16:00;METAR CYSC 311600Z 22003KT 15SM FEW250 15/06 A3014 RMK CI1 SLP212
CYSC;2003-10-31 17:00;METAR CYSC 311700Z CCA 21007KT 15SM SCT250 17/06 A3010 RMK CI2 PRESFR SLP199
CYSC;2003-10-31 18:00;METAR CYSC 311800Z 20009KT 15SM FEW089 SCT250 18/06 A3007 RMK AC1CI2 SLP188
CYSC;2003-10-31 19:00;METAR CYSC 311900Z 23007KT 15SM SCT250 19/07 A3006 RMK CI2 SLP186
CYSC;2003-10-31 20:00;METAR CYSC 312000Z 20008KT 15SM SCT062 BKN250 18/06 A3007 RMK SC3CI1 SLP187
CYSC;2003-10-31 21:00;METAR CYSC 312100Z 19005KT 15SM BKN060 BKN250 17/07 A3007 RMK SC5CI1
CYSC;2003-10-31 22:00;METAR CYSC 312200Z 19007KT 15SM BKN066 16/07 A3007 RMK AC7 LAST MANNED OB/NEXT 011300 SLP187
CYSC;2003-10-31 23:00;METAR CYSC 312300Z AUTO 20004KT 9SM OVC073 16/07 A3006 RMK SLP187
CYSC;2003-11-01 00:00;METAR CYSC 010000Z AUTO 21005KT 9SM OVC070 15/07 A3006 RMK SLP186
CYSC;2003-11-01 01:00;METAR CYSC 010100Z AUTO 20006KT 9SM FEW045 OVC073 15/07 A3006 RMK SLP185
CYSC;2003-11-01 02:00;METAR CYSC 010200Z AUTO 19006KT 9SM SCT047 SCT071 15/08 A3005 RMK SLP181
CYSC;2003-11-01 03:00;METAR CYSC 010300Z AUTO 18005KT 9SM BKN062 16/08 A3004 RMK SLP177
CYSC;2003-11-01 04:00;METAR CYSC 010400Z AUTO 28002KT 3SM -RA SCT000 BKN017 OVC031 14/10 A3005 RMK SLP178
CYSC;2003-11-01 05:00;METAR CYSC 010500Z AUTO 13002KT 9SM BKN044 BKN058 13/10 A3003 RMK SLP172
CYSC;2003-11-01 06:00;METAR CYSC 010600Z AUTO 00000KT 9SM OVC036 12/11 A3002 RMK SLP170
CYSC;2003-11-01 07:00;METAR CYSC 010700Z AUTO 13002KT 5SM OVC033 12/11 A3002 RMK SLP167
CYSC;2003-11-01 08:00;METAR CYSC 010800Z AUTO 12002KT 7SM FEW035 FEW099 11/10 A2999 RMK SLP161
CYSC;2003-11-01 09:00;METAR CYSC 010900Z AUTO 00000KT 5SM FEW033 FEW096 10/09 A2998 RMK SLP157
CYSC;2003-11-01 10:00;METAR CYSC 011000Z AUTO 00000KT 9SM BKN034 12/11 A2998 RMK SLP156
CYSC;2003-11-01 11:00;METAR CYSC 011100Z AUTO 23003KT 9SM BKN034 14/12 A2998 RMK SLP154
CYSC;2003-11-01 12:00;METAR CYSC 011200Z AUTO 24004KT 9SM FEW032 15/12 A2999 RMK PCPN 0.5MM PAST HR SLP159
CYSC;2003-11-01 13:00;METAR CYSC 011300Z 23006KT 12SM -SHRA FEW015 BKN028 OVC055 15/12 A3001 RMK CF2SC5SC1 SLP165
CYSC;2003-11-01 14:00;METAR CYSC 011400Z 23006KT 15SM FEW015 BKN040 OVC061 16/12 A3002 RMK CF1SC6SC2 SLP168
CYSC;2003-11-01 15:00;METAR CYSC 011500Z 24010KT 15SM FEW029 OVC044 17/13 A3003 RMK CF1SC7 SLP170
CYSC;2003-11-01 16:00;METAR CYSC 011600Z 25015KT 15SM FEW030 FEW046 BKN063 17/11 A3002 RMK CF1SC2SC4 SLP169
CYSC;2003-11-01 17:00;METAR CYSC 011700Z CCA 26011KT 15SM BKN033 BKN065 17/11 A3002 RMK SC6SC1 CU ASOCTD SLP168
CYSC;2003-11-01 18:00;METAR CYSC 011800Z 27021G27KT 15SM BKN035 17/09 A3003 RMK SC7 CU ASOCTD SLP172
CYSC;2003-11-01 19:00;METAR CYSC 011900Z 26010G21KT 15SM FEW020 BKN031 16/09 A3006 RMK CF1SC7 SLP181
CYSC;2003-11-01 20:00;METAR CYSC 012000Z 29015KT 15SM BKN025 OVC044 14/09 A3009 RMK SC6SC2 SLP193
CYSC;2003-11-01 21:00;METAR CYSC 012100Z 33010KT 15SM BKN027 OVC045 12/07 A3012 RMK SC7SC1 SLP205
CYSC;2003-11-01 22:00;METAR CYSC 012200Z 31007KT 15SM BKN030 11/05 A3016 RMK SC7 LAST MANNED OB/NEXT 021300 SLP219
CYSC;2003-11-01 23:00;METAR CYSC 012300Z AUTO 30004KT 9SM BKN037 10/05 A3019 RMK SLP227
CYSC;2003-11-02 00:00;METAR CYSC 020000Z AUTO 28004KT 9SM BKN035 09/05 A3021 RMK SLP236
CYSC;2003-11-02 01:00;METAR CYSC 020100Z AUTO 31006KT 9SM BKN037 08/03 A3022 RMK SLP238
CYSC;2003-11-02 02:00;METAR CYSC 020200Z AUTO 34005KT 9SM CLR 06/00 A3023 RMK SLP242
CYSC;2003-11-02 03:00;METAR CYSC 020300Z AUTO 33004KT 9SM CLR 05/M01 A3024 RMK SLP246
CYSC;2003-11-02 04:00;METAR CYSC 020400Z AUTO 00000KT 9SM CLR 02/M02 A3024 RMK SLP247
CYSC;2003-11-02 05:00;METAR CYSC 020500Z AUTO 24002KT 9SM FEW040 M01/M03 A3024 RMK SLP249
CYSC;2003-11-02 06:00;METAR CYSC 020600Z AUTO 00000KT 9SM CLR M01/M03 A3024 RMK SLP248
CYSC;2003-11-02 07:00;METAR CYSC 020700Z AUTO 00000KT 9SM CLR M02/M03 A3024 RMK SLP250
CYSC;2003-11-02 08:00;METAR CYSC 020800Z AUTO 00000KT 9SM CLR M02/M03 A3024 RMK SLP251
CYSC;2003-11-02 09:00;METAR CYSC 020900Z AUTO 00000KT 9SM CLR M02/M03 A3026 RMK SLP256
CYSC;2003-11-02 10:00;METAR CYSC 021000Z AUTO 10002KT 9SM CLR M02/M03 A3026 RMK ICG PAST HR SLP257
CYSC;2003-11-02 11:00;METAR CYSC 021100Z AUTO 06002KT 9SM CLR M01/M03 A3026 RMK ICG SLP257
CYSC;2003-11-02 12:00;METAR CYSC 021200Z AUTO 14002KT 9SM CLR M01/M02 A3027 RMK SLP262
CYSC;2003-11-02 13:00;METAR CYSC 021300Z 00000KT 15SM FEW060 OVC100 00/M01 A3028 RMK SC2AC6 SLP263
CYSC;2003-11-02 14:00;METAR CYSC 021400Z 04002KT 15SM -RA OVC098 01/00 A3027 RMK AC8 SLP260
CYSC;2003-11-02 15:00;METAR CYSC 021500Z 00000KT 12SM -PL FEW020 FEW040 BKN077 OVC120 02/01 A3025 RMK CF1SC1AC3AC4 SLP254
CYSC;2003-11-02 16:00;METAR CYSC 021600Z 28002KT 15SM FEW002 SCT050 OVC073 02/01 A3026 RMK CF1SC3AC5 SLP257
CYSC;2003-11-02 17:00;METAR CYSC 021700Z 00000KT 15SM BKN047 BKN073 OVC100 03/01 A3024 RMK SC5AC2AC1 SLP249
CYSC;2003-11-02 18:00;METAR CYSC 021800Z 30002KT 15SM SCT040 OVC075 03/02 A3023 RMK SC4AC4 SLP247
CYSC;2003-11-02 19:00;METAR CYSC 021900Z 00000KT 15SM OVC034 04/02 A3021 RMK SC8 SLP240
CYSC;2003-11-02 20:00;METAR CYSC 022000Z 00000KT 15SM OVC032 04/02 A3020 RMK SC8 SLP239
CYSC;2003-11-02 21:00;METAR CYSC 022100Z 00000KT 15SM OVC030 04/02 A3021 RMK SC8 SLP243
CYSC;2003-11-02 22:00;METAR CYSC 022200Z 00000KT 15SM OVC025 04/02 A3022 RMK SC8 LAST MANNED OB/NEXT 031300 SLP246
CYSC;2003-11-02 23:00;METAR CYSC 022300Z AUTO 07002KT 9SM OVC027 04/02 A3022 RMK SLP245
CYSC;2003-11-03 00:00;METAR CYSC 030000Z AUTO 03002KT 9SM BKN023 OVC070 04/02 A3021 RMK SLP241
CYSC;2003-11-03 01:00;METAR CYSC 030100Z AUTO 05002KT 9SM OVC023 04/02 A3021 RMK SLP240
CYSC;2003-11-03 02:00;METAR CYSC 030200Z AUTO 07002KT 9SM OVC021 OVC064 04/02 A3021 RMK SLP241
CYSC;2003-11-03 03:00;METAR CYSC 030300Z AUTO 04002KT 9SM OVC019 04/02 A3021 RMK SLP240
CYSC;2003-11-03 04:00;METAR CYSC 030400Z AUTO 00000KT 9SM OVC017 04/01 A3019 RMK SLP235
CYSC;2003-11-03 05:00;METAR CYSC 030500Z AUTO 00000KT 9SM OVC011 OVC063 03/01 A3018 RMK SLP231
CYSC;2003-11-03 06:00;METAR CYSC 030600Z AUTO 06002KT 9SM OVC010 OVC055 03/01 A3017 RMK SLP227
CYSC;2003-11-03 07:00;METAR CYSC 030700Z AUTO 06003KT 9SM SCT010 OVC055 OVC070 03/02 A3016 RMK SLP223
CYSC;2003-11-03 08:00;METAR CYSC 030800Z AUTO 04002KT 9SM FEW045 SCT060 03/01 A3014 RMK SLP215
CYSC;2003-11-03 09:00;METAR CYSC 030900Z AUTO 07003KT 9SM BKN032 OVC045 OVC058 03/01 A3014 RMK SLP216
CYSC;2003-11-03 10:00;METAR CYSC 031000Z AUTO 04003KT 9SM OVC028 OVC045 03/01 A3015 RMK SLP219
CYSC;2003-11-03 11:00;METAR CYSC 031100Z AUTO 06004KT 9SM OVC026 04/01 A3014 RMK SLP217
CYSC;2003-11-03 12:00;METAR CYSC 031200Z AUTO 08003KT 9SM OVC022 OVC045 04/02 A3015 RMK SLP218
CYSC;2003-11-03 13:00;METAR CYSC 031300Z 08003KT 15SM OVC022 04/02 A3015 RMK SC8 SLP219
CYSC;2003-11-03 14:00;METAR CYSC 031400Z 10002KT 15SM -RA OVC019 05/02 A3014 RMK SC8 SLP215
CYSC;2003-11-03 17:00;METAR CYSC 031700Z 24002KT 15SM OVC007 08/06 A3011 RMK CF8 SLP206
CYSC;2003-11-03 18:00;METAR CYSC 031800Z 25004KT 15SM SCT008 OVC035 08/06 A3010 RMK CF3SC5 SLP200
CYSC;2003-11-03 19:00;METAR CYSC 031900Z 26004KT 15SM OVC009 09/06 A3011 RMK CF8 SLP204
CYSC;2003-11-03 20:00;METAR CYSC 032000Z 29006KT 15SM OVC014 08/05 A3012 RMK SC8 SLP208
CYSC;2003-11-03 21:00;METAR CYSC 032100Z 33005KT 15SM OVC010 07/04 A3012 RMK SC8 SLP209
CYSC;2003-11-03 22:00;METAR CYSC 032200Z 28006KT 10SM BKN008 OVC035 06/05 A3014 RMK CF5SC3 LAST MANNED OB/NEXT 041300 FOGGY SLP213
CYSC;2003-11-03 23:00;METAR CYSC 032300Z AUTO 28003KT 9SM FEW009 OVC022 06/05 A3014 RMK SLP215
CYSC;2003-11-04 00:00;METAR CYSC 040000Z AUTO 00000KT 8SM OVC026 06/04 A3014 RMK SLP217
CYSC;2003-11-04 01:00;METAR CYSC 040100Z AUTO 28002KT 8SM OVC028 06/04 A3015 RMK SLP220
CYSC;2003-11-04 02:00;METAR CYSC 040200Z AUTO 30005KT 4SM -RA BKN013 OVC022 05/04 A3020 RMK SLP236
CYSC;2003-11-04 03:00;METAR CYSC 040300Z AUTO 27002KT 2 3/8SM RA OVC000 OVC015 04/03 A3018 RMK PCPN 1.5MM PAST HR SLP230
CYSC;2003-11-04 04:00;METAR CYSC 040400Z AUTO 32004KT 3SM -RA OVC007 03/02 A3021 RMK PCPN 1.5MM PAST HR SLP241
CYSC;2003-11-04 05:00;METAR CYSC 040500Z AUTO 32005KT 8SM -RA FEW010 02/01 A3023 RMK PCPN 1.0MM PAST HR SLP246
CYSC;2003-11-04 06:00;METAR CYSC 040600Z AUTO 35004KT 9SM SCT012 01/M02 A3024 RMK SLP249
CYSC;2003-11-04 07:00;METAR CYSC 040700Z AUTO 36004KT 9SM SCT033 BKN066 01/M02 A3026 RMK SLP257
CYSC;2003-11-04 08:00;METAR CYSC 040800Z AUTO 01002KT 9SM BKN039 OVC066 01/M03 A3026 RMK SLP258
CYSC;2003-11-04 09:00;METAR CYSC 040900Z AUTO 00000KT 9SM SCT043 BKN069 00/M02 A3029 RMK SLP269
CYSC;2003-11-04 10:00;METAR CYSC 041000Z AUTO 01003KT 9SM FEW051 M00/M04 A3032 RMK SLP278
CYSC;2003-11-04 11:00;METAR CYSC 041100Z AUTO 03003KT 9SM BKN057 00/M04 A3031 RMK SLP275
CYSC;2003-11-04 12:00;METAR CYSC 041200Z AUTO 03004KT 9SM CLR M00/M05 A3036 RMK SLP290
CYSC;2003-11-04 13:00;METAR CYSC 041300Z 06006KT 15SM FEW030 OVC100 M00/M06 A3039 RMK CF1AC8 SLP303
CYSC;2003-11-04 14:00;METAR CYSC 041400Z 06005KT 15SM FEW040 OVC100 M01/M07 A3039 RMK SC2AC6 SLP302
CYSC;2003-11-04 15:00;METAR CYSC 041500Z 07005KT 15SM SCT033 OVC100 M01/M08 A3041 RMK SC3AC5 SLP309
CYSC;2003-11-04 16:00;METAR CYSC 041600Z 07006KT 15SM BKN035 OVC100 M01/M10 A3039 RMK SC5AC3
CYSC;2003-11-04 17:00;METAR CYSC 041700Z 07009KT 12SM -PL FEW030 OVC062 M01/M11 A3036 RMK SC2SC6 SLP293
CYSC;2003-11-04 18:00;METAR CYSC 041800Z 05007KT 12SM -SN OVC070 M01/M09 A3037 RMK AC8 SLP296
CYSC;2003-11-04 19:00;METAR CYSC 041900Z 06006KT 1/8SM +SN VV001 M02/M05 A3040 RMK SN8 SLP305
CYSC;2003-11-04 20:00;METAR CYSC 042000Z 09008KT 3SM -SN FEW015 OVC025 M02/M04 A3035 RESN RMK SN1CF2SC6 /S01/ SLP290
CYSC;2003-11-04 21:00;METAR CYSC 042100Z 06006KT 12SM -PL OVC039 M02/M04 A3035 RMK SC8 SLP290
CYSC;2003-11-04 22:00;METAR CYSC 042200Z 08007KT 8SM -FZRA SCT011 OVC025 M02/M04 A3033 RMK SC3SC5 LAST MANNED OB/NEXT 051300 SLP283
CYSC;2003-11-04 23:00;METAR CYSC 042300Z AUTO 08006KT 6SM -FZRA OVC020 M01/M03 A3032 RMK PCPN 0.5MM PAST HR SLP282
CYSC;2003-11-05 00:00;METAR CYSC 050000Z AUTO 09007KT 2 3/8SM -FZRA OVC022 M01/M02 A3033 RMK SLP283
CYSC;2003-11-05 01:00;METAR CYSC 050100Z AUTO 10010G15KT 8SM -FZRA OVC029 M00/M03 A3030 RMK PCPN 1.0MM PAST HR SLP273
CYSC;2003-11-05 02:00;METAR CYSC 050200Z AUTO 12008KT 9SM -FZRA OVC027 M01/M04 A3025 RMK SLP257
CYSC;2003-11-05 03:00;METAR CYSC 050300Z AUTO 11006KT 9SM OVC027 M01/M04 A3024 RMK ICG PAST HR SLP253
CYSC;2003-11-05 04:00;METAR CYSC 050400Z AUTO 10007KT 9SM OVC027 M01/M03 A3021 RMK SLP242
CYSC;2003-11-05 05:00;METAR CYSC 050500Z AUTO 12010KT 9SM OVC027 M01/M04 A3021 RMK SLP244
CYSC;2003-11-05 06:00;METAR CYSC 050600Z AUTO 11007KT 9SM -RA OVC025 M01/M03 A3020 RMK SLP240
CYSC;2003-11-05 07:00;METAR CYSC 050700Z AUTO 11008KT 9SM -RA OVC023 M00/M03 A3019 RMK SLP237
CYSC;2003-11-05 08:00;METAR CYSC 050800Z AUTO 13008KT 9SM OVC023 00/M02 A3016 RMK SLP224
CYSC;2003-11-05 09:00;METAR CYSC 050900Z AUTO 12006KT 9SM OVC021 01/M01 A3015 RMK SLP222
CYSC;2003-11-05 10:00;METAR CYSC 051000Z AUTO 13007KT 9SM OVC021 01/M01 A3014 RMK PCPN 0.5MM PAST HR SLP218
CYSC;2003-11-05 11:00;METAR CYSC 051100Z AUTO 12006KT 9SM OVC019 01/M00 A3011 RMK PCPN 2.0MM PAST HR SLP209
CYSC;2003-11-05 12:00;METAR CYSC 051200Z AUTO 11005KT 9SM OVC019 02/00 A3009 RMK PCPN 1.5MM PAST HR SLP203
CYSC;2003-11-05 13:00;METAR CYSC 051300Z 09004KT 15SM OVC017 02/01 A3007 RMK SC8 SLP195
CYSC;2003-11-05 15:00;METAR CYSC 051500Z 16006KT 12SM -RA BKN017 OVC035 05/04 A3005 RMK SC6SC2 SLP186
CYSC;2003-11-05 16:00;METAR CYSC 051600Z 18006KT 8SM -RA OVC015 07/06 A3002 RMK SF8 SLP176
CYSC;2003-11-05 17:00;METAR CYSC 051700Z 17004KT 15SM -RA BKN010 BKN020 OVC045 08/07 A2997 RMK SF5SC2SC1 SLP160 SLP146
CYSC;2003-11-05 19:00;METAR CYSC 051900Z 20007KT 15SM FEW010 OVC015 10/09 A2993 RMK CF2SC6 SLP144
CYSC;2003-11-05 20:00;METAR CYSC 052000Z 21002KT 15SM OVC012 10/09 A2994 RMK SC8 SLP147
CYSC;2003-11-05 21:00;METAR CYSC 052100Z 19005KT 15SM SCT012 OVC036 11/10 A2993 RMK CF4SC4
CYSC;2003-11-05 22:00;METAR CYSC 052200Z 26004KT 15SM FEW015 BKN040 OVC095 11/10 A2992 RMK CF2SC5AC1 LAST MANNED OB/NEXT 061200 SLP139
CYSC;2003-11-05 23:00;METAR CYSC 052300Z AUTO 34002KT 9SM FEW027 FEW061 10/09 A2991 RMK SLP137
CYSC;2003-11-06 00:00;METAR CYSC 060000Z AUTO 34002KT 8SM BKN025 BKN031 BKN071 10/09 A2990 RMK SLP133
CYSC;2003-11-06 01:00;METAR CYSC 060100Z AUTO 27003KT 5SM OVC018 10/09 A2989 RMK SLP132
CYSC;2003-11-06 02:00;METAR CYSC 060200Z AUTO 28004KT 4SM -RA OVC014 10/09 A2992 RMK SLP141
CYSC;2003-11-06 03:00;METAR CYSC 060300Z AUTO 25006KT 6SM OVC006 10/10 A2993 RMK PCPN 1.0MM PAST HR SLP144
CYSC;2003-11-06 05:00;METAR CYSC 060500Z AUTO 27012KT 6SM OVC008 09/08 A3002 RMK SLP172
CYSC;2003-11-06 06:00;METAR CYSC 060600Z AUTO 29013KT 9SM OVC013 08/06 A3005 RMK SLP183
CYSC;2003-11-06 07:00;METAR CYSC 060700Z AUTO 27006KT 9SM OVC015 07/05 A3008 RMK SLP195
CYSC;2003-11-06 08:00;METAR CYSC 060800Z AUTO 30005KT 9SM OVC027 06/04 A3009 RMK SLP197
CYSC;2003-11-06 09:00;METAR CYSC 060900Z AUTO 29006KT 9SM OVC013 06/04 A3012 RMK SLP205
CYSC;2003-11-06 10:00;METAR CYSC 061000Z AUTO 29009KT 9SM OVC019 05/02 A3013 RMK SLP211
CYSC;2003-11-06 11:00;METAR CYSC 061100Z AUTO 30008KT 9SM OVC017 04/02 A3014 RMK SLP214
CYSC;2003-11-06 12:00;METAR CYSC 061200Z AUTO 29008G16KT 9SM OVC017 04/01 A3018 RMK SLP227
CYSC;2003-11-06 13:00;METAR CYSC 061300Z 25007KT 15SM BKN013 03/00 A3019 RMK SC7 SLP230
CYSC;2003-11-06 14:00;METAR CYSC 061400Z 28007KT 15SM BKN017 03/00 A3018 RMK SC7 SLP227
CYSC;2003-11-06 15:00;METAR CYSC 061500Z 27009KT 15SM BKN020 BKN050 05/01 A3018 RMK SC6SC1 SLP227
CYSC;2003-11-06 16:00;METAR CYSC 061600Z 24006KT 15SM OVC018 04/M00 A3018 RMK SC8 SLP229
CYSC;2003-11-06 17:00;METAR CYSC 061700Z 28010KT 15SM BKN020 OVC050 04/M00 A3018 RMK SC5SC3 SLP229
CYSC;2003-11-06 18:00;METAR CYSC 061800Z 28009KT 15SM OVC020 04/M00 A3018 RMK SC8 SLP228
CYSC;2003-11-06 19:00;METAR CYSC 061900Z 30005KT 15SM OVC018 03/M01 A3017 RMK SC8 SLP224
CYSC;2003-11-06 20:00;METAR CYSC 062000Z 26003KT 15SM BKN018 OVC050 03/M00 A3016 RMK SC7SC1 SLP223
CYSC;2003-11-06 21:00;METAR CYSC 062100Z 00000KT 15SM BKN018 OVC050 03/00 A3017 RMK SC6SC2 SLP224
CYSC;2003-11-06 22:00;METAR CYSC 062200Z 31003KT 15SM BKN018 OVC050 03/M00 A3013 RMK SC7SC1 LAST MANNED OB/NEXT 061300 SLP213
CYSC;2003-11-06 23:00;METAR CYSC 062300Z AUTO 27003KT 9SM OVC020 03/M00 A3014 RMK SLP219
CYSC;2003-11-07 00:00;METAR CYSC 070000Z AUTO 00000KT 9SM OVC020 02/M01 A3013 RMK SLP214
CYSC;2003-11-07 01:00;METAR CYSC 070100Z AUTO 00000KT 9SM OVC020 02/M00 A3012 RMK SLP212
CYSC;2003-11-07 02:00;METAR CYSC 070200Z AUTO 00000KT 9SM OVC020 02/M00 A3011 RMK SLP208
CYSC;2003-11-07 03:00;METAR CYSC 070300Z AUTO 22002KT 9SM OVC022 02/M01 A3011 RMK SLP205
CYSC;2003-11-07 04:00;METAR CYSC 070400Z AUTO 27002KT 9SM OVC022 01/M00 A3010 RMK SLP205
CYSC;2003-11-07 05:00;METAR CYSC 070500Z AUTO 32003KT 9SM OVC022 01/M02 A3009 RMK SLP200
CYSC;2003-11-07 06:00;METAR CYSC 070600Z AUTO 00000KT 9SM OVC020 01/M01 A3009 RMK SLP201
CYSC;2003-11-07 07:00;METAR CYSC 070700Z AUTO 25003KT 9SM OVC022 01/M02 A3009 RMK SLP201
CYSC;2003-11-07 08:00;METAR CYSC 070800Z AUTO 28002KT 9SM OVC022 00/M02 A3008 RMK SLP198
CYSC;2003-11-07 09:00;METAR CYSC 070900Z AUTO 26002KT 9SM OVC022 01/M01 A3007 RMK SLP195
CYSC;2003-11-07 10:00;METAR CYSC 071000Z AUTO 24003KT 9SM OVC022 00/M03 A3008 RMK SLP197
CYSC;2003-11-07 11:00;METAR CYSC 071100Z AUTO 15002KT 9SM CLR M02/M04 A3008 RMK SLP198
CYSC;2003-11-07 12:00;METAR CYSC 071200Z AUTO 17003KT 9SM BKN050 M00/M02 A3008 RMK SLP199
CYSC;2003-11-07 13:00;METAR CYSC 071300Z 17002KT 15SM BKN048 01/M02 A3008 RMK SC7 SLP196
CYSC;2003-11-07 14:00;METAR CYSC 071400Z 24002KT 15SM FEW041 BKN095 02/M00 A3007 RMK SC2AC3 SLP193
CYSC;2003-11-07 15:00;METAR CYSC 071500Z 22008KT 15SM FEW030 FEW053 FEW095 04/M00 A3005 RMK CU1SC2AC1 AC TR SLP187
CYSC;2003-11-07 16:00;METAR CYSC 071600Z 22005KT 15SM FEW028 06/M01 A3002 RMK CU2 SLP176
CYSC;2003-11-07 17:00;METAR CYSC 071700Z 25010KT 15SM BKN030 06/M02 A3000 RMK CU6 SLP168
CYSC;2003-11-07 18:00;METAR CYSC 071800Z 23007KT 15SM SCT034 06/M02 A2997 RMK CU4 SLP158
CYSC;2003-11-07 19:00;METAR CYSC 071900Z 24012KT 15SM FEW036 07/M02 A2995 RMK CU2 SLP151
CYSC;2003-11-07 20:00;METAR CYSC 072000Z 24007KT 15SM FEW046 07/M02 A2992 RMK CU2 SLP143
CYSC;2003-11-07 21:00;METAR CYSC 072100Z 23006KT 15SM FEW046 06/M03 A2991 RMK SC2 CU ASOCTD SLP136
CYSC;2003-11-07 22:00;METAR CYSC 072200Z 21004KT 15SM BKN053 06/M03 A2990 RMK SC7 LAST MANNED OB/NEXT 081300 SLP135
CYSC;2003-11-07 23:00;METAR CYSC 072300Z AUTO 27013G24KT 9SM FEW055 BKN063 06/M05 A2993 RMK SLP144
CYSC;2003-11-08 00:00;METAR CYSC 080000Z AUTO 26015G21KT 9SM SCT055 04/M05 A2995 RMK SLP152
CYSC;2003-11-08 01:00;METAR CYSC 080100Z AUTO 24011G17KT 9SM FEW063 04/M05 A2996 RMK SLP154
CYSC;2003-11-08 02:00;METAR CYSC 080200Z AUTO 26018G28KT 7SM -SN FEW016 FEW021 BKN027 BKN055 03/M03 A2996 RMK SLP155
CYSC;2003-11-08 03:00;METAR CYSC 080300Z AUTO 27017G24KT 9SM FEW025 FEW058 SCT067 03/M02 A2997 RMK SLP160
CYSC;2003-11-08 04:00;METAR CYSC 080400Z AUTO 29015G21KT 9SM FEW060 FEW077 M00/M05 A3001 RMK SLP172
CYSC;2003-11-08 05:00;METAR CYSC 080500Z AUTO 28014G21KT 6SM -SN FEW070 BKN079 M02/M05 A3004 RMK SLP185
CYSC;2003-11-08 06:00;METAR CYSC 080600Z AUTO 31011KT 2 1/2SM -SN BKN013 OVC028 OVC048 M04/M08 A3010 RMK VSBY VRBL 1.4V9.+ SLP204
CYSC;2003-11-08 07:00;METAR CYSC 080700Z AUTO 31004KT 3SM VV015 M05/M08 A3011 RMK SLP206
CYSC;2003-11-08 08:00;METAR CYSC 080800Z AUTO 30013G26KT 9SM BKN026 BKN060 OVC090 M05/M10 A3011 RMK SLP210
CYSC;2003-11-08 09:00;METAR CYSC 080900Z AUTO 31009G21KT 9SM SCT027 SCT085 M06/M14 A3015 RMK SLP221
CYSC;2003-11-08 10:00;METAR CYSC 081000Z AUTO 30010G17KT 9SM CLR M07/M15 A3018 RMK SLP232
CYSC;2003-11-08 11:00;METAR CYSC 081100Z AUTO 28008KT 9SM CLR M08/M15 A3020 RMK SLP241
CYSC;2003-11-08 12:00;METAR CYSC 081200Z AUTO 28010KT 9SM BKN031 M08/M15 A3023 RMK SLP251
CYSC;2003-11-08 13:00;METAR CYSC 081300Z CCA 30011G19KT 15SM FEW030 M07/M15 A3025 RMK CU2 /S04 AFT 22Z/ SLP258
CYSC;2003-11-08 14:00;METAR CYSC 081400Z 30012G19KT 15SM SCT038 M06/M14 A3027 RMK CU3 SLP263
CYSC;2003-11-08 15:00;METAR CYSC 081500Z 28013KT 15SM VCSH BKN031 BKN099 BKN250 M06/M14 A3029 RMK CU5AC1CI1 SLP269
CYSC;2003-11-08 16:00;METAR CYSC 081600Z 30013G19KT 6SM -SHSN BKN034 BKN072 OVC250 M06/M14 A3030 RMK CU6AC1CI1 SLP272
CYSC;2003-11-08 17:00;METAR CYSC 081700Z 31010G18KT 10SM -SHSN BKN025 BKN097 BKN250 M06/M13 A3031 RMK CU5AC1CI1 SLP276
CYSC;2003-11-08 18:00;METAR CYSC 081800Z 31014G19KT 12SM -SHSN FEW010 BKN020 BKN250 M07/M13 A3032 RMK CF2CU2CI1 VSBY SW QUAD 4 SLP283
CYSC;2003-11-08 19:00;METAR CYSC 081900Z 30012G21KT 15SM -SHSN SCT031 BKN250 M05/M14 A3034 RMK CU3CI1 SLP288
CYSC;2003-11-08 20:00;METAR CYSC 082000Z 28012G18KT 15SM -SHSN SCT021 SCT250 M06/M13 A3037 RMK CU3CI0 SLP298
CYSC;2003-11-08 21:00;METAR CYSC 082100Z 30011G17KT 15SM FEW045 M06/M16 A3040 RMK CU2 SLP310
CYSC;2003-11-08 22:00;METAR CYSC 082200Z 26005KT 15SM FEW040 M08/M15 A3042 RMK CU2 LAST MANNED OB/NEXT 091300 SLP318
CYSC;2003-11-08 23:00;METAR CYSC 082300Z AUTO 23005KT 9SM CLR M08/M15 A3044 RMK SLP326
CYSC;2003-11-09 00:00;METAR CYSC 090000Z AUTO 22005KT 9SM CLR M08/M15 A3045 RMK SLP329
CYSC;2003-11-09 01:00;METAR CYSC 090100Z AUTO 22004KT 9SM CLR M09/M14 A3046 RMK SLP334
CYSC;2003-11-09 02:00;METAR CYSC 090200Z AUTO 25005KT 9SM CLR M09/M15 A3047 RMK SLP335
CYSC;2003-11-09 03:00;METAR CYSC 090300Z AUTO 24003KT 9SM CLR M09/M14 A3047 RMK SLP337
CYSC;2003-11-09 04:00;METAR CYSC 090400Z AUTO 20004KT 9SM CLR M11/M14 A3048 RMK SLP340
CYSC;2003-11-09 05:00;METAR CYSC 090500Z AUTO 25004KT 9SM CLR M10/M14 A3048 RMK SLP340
CYSC;2003-11-09 06:00;METAR CYSC 090600Z AUTO 22003KT 9SM CLR M10/M14 A3049 RMK SLP343
CYSC;2003-11-09 07:00;METAR CYSC 090700Z AUTO 23004KT 9SM CLR M12/M14 A3050 RMK SLP348
CYSC;2003-11-09 08:00;METAR CYSC 090800Z AUTO 24005KT 9SM CLR M10/M14 A3050 RMK SLP348
CYSC;2003-11-09 09:00;METAR CYSC 090900Z AUTO 26005KT 9SM CLR M10/M13 A3053 RMK SLP355
CYSC;2003-11-09 10:00;METAR CYSC 091000Z AUTO 28007KT 9SM CLR M11/M13 A3054 RMK SLP361
CYSC;2003-11-09 11:00;METAR CYSC 091100Z AUTO 26007KT 9SM CLR M10/M13 A3055 RMK SLP366
CYSC;2003-11-09 12:00;METAR CYSC 091200Z AUTO 26007KT 9SM CLR M10/M13 A3057 RMK SLP370
CYSC;2003-11-09 13:00;METAR CYSC 091300Z 27008KT 15SM FEW020 M08/M12 A3058 RMK CU2 SLP375
CYSC;2003-11-09 14:00;METAR CYSC 091400Z 27013KT 15SM FEW020 M07/M13 A3060 RMK CU1 SLP380
CYSC;2003-11-09 15:00;METAR CYSC 091500Z 29009KT 15SM FEW020 M06/M14 A3060 RMK CF1 SLP379
CYSC;2003-11-09 16:00;METAR CYSC 091600Z 30008KT 15SM FEW039 SCT250 M04/M15 A3059 RMK CU1CI2 SLP375
CYSC;2003-11-09 17:00;METAR CYSC 091700Z 27010G16KT 15SM FEW039 SCT250 M03/M14 A3056 RMK CU2CI2 SLP365
CYSC;2003-11-09 18:00;METAR CYSC 091800Z 27013KT 15SM FEW035 SCT250 M02/M13 A3053 RMK CU2CI1 SLP356
CYSC;2003-11-09 19:00;METAR CYSC 091900Z 27014KT 15SM FEW043 FEW250 M02/M13 A3051 RMK CU1CI0 SLP350
CYSC;2003-11-09 20:00;METAR CYSC 092000Z 27011G16KT 15SM FEW045 FEW220 FEW250 M02/M13 A3050 RMK CU1CC1CI1 CC TR SLP346
CYSC;2003-11-09 21:00;METAR CYSC 092100Z 27009KT 15SM FEW040 M02/M13 A3048 RMK CF1 SLP339
CYSC;2003-11-09 22:00;METAR CYSC 092200Z 24005KT 15SM FEW035 M03/M13 A3047 RMK CF1 LAST MANNED OB/NEXT 101300 SLP333
CYSC;2003-11-09 23:00;METAR CYSC 092300Z AUTO 24005KT 9SM CLR M04/M12 A3046 RMK SLP334
CYSC;2003-11-10 00:00;METAR CYSC 100000Z AUTO 23005KT 9SM BKN039 M03/M11 A3046 RMK SLP334
CYSC;2003-11-10 01:00;METAR CYSC 100100Z AUTO 22003KT 9SM OVC033 M03/M11 A3046 RMK SLP331
CYSC;2003-11-10 02:00;METAR CYSC 100200Z AUTO 24005KT 9SM OVC033 M03/M10 A3045 RMK SLP328
CYSC;2003-11-10 03:00;METAR CYSC 100300Z AUTO 23006KT 9SM OVC033 M02/M09 A3045 RMK SLP325
CYSC;2003-11-10 04:00;METAR CYSC 100400Z AUTO 24005KT 9SM OVC035 M02/M08 A3043 RMK SLP321
CYSC;2003-11-10 05:00;METAR CYSC 100500Z AUTO 24005KT 9SM BKN037 M02/M08 A3043 RMK SLP318
CYSC;2003-11-10 06:00;METAR CYSC 100600Z AUTO 24007KT 9SM OVC035 M01/M07 A3043 RMK SLP319
CYSC;2003-11-10 07:00;METAR CYSC 100700Z AUTO 23005KT 9SM BKN030 M02/M07 A3043 RMK SLP317
CYSC;2003-11-10 08:00;METAR CYSC 100800Z AUTO 24005KT 9SM BKN044 M02/M07 A3041 RMK SLP313
CYSC;2003-11-10 09:00;METAR CYSC 100900Z AUTO 24006KT 9SM BKN044 BKN078 M02/M07 A3041 RMK SLP311
CYSC;2003-11-10 10:00;METAR CYSC 101000Z AUTO 22006KT 9SM BKN032 OVC060 M01/M07 A3041 RMK SLP310
CYSC;2003-11-10 11:00;METAR CYSC 101100Z AUTO 19005KT 9SM FEW034 BKN068 M02/M07 A3039 RMK SLP307
CYSC;2003-11-10 12:00;METAR CYSC 101200Z AUTO 18005KT 9SM BKN070 M02/M07 A3041 RMK SLP310
CYSC;2003-11-10 13:00;METAR CYSC 101300Z 20005KT 15SM FEW025 FEW250 M01/M07 A3041 RMK CU1CI1 SLP310
CYSC;2003-11-10 14:00;METAR CYSC 101400Z 25005KT 15SM FEW028 SCT250 02/M05 A3040 RMK CU2CI1 SLP309
CYSC;2003-11-10 15:00;METAR CYSC 101500Z 27013KT 15SM FEW032 FEW093 SCT250 03/M06 A3039 RMK CU2AC1CI0 SLP302
CYSC;2003-11-10 16:00;METAR CYSC 101600Z 25014KT 15SM FEW032 FEW250 03/M06 A3036 RMK CU1CI1 SLP292
CYSC;2003-11-10 17:00;METAR CYSC 101700Z 24012KT 15SM FEW038 FEW095 FEW250 04/M05 A3033 RMK CU2AC1CI0 SLP284
CYSC;2003-11-10 18:00;METAR CYSC 101800Z 26010G15KT 15SM FEW038 FEW091 FEW250 05/M05 A3031 RMK CU1AC1CI0 SLP274
CYSC;2003-11-10 19:00;METAR CYSC 101900Z 24011KT 15SM FEW059 FEW084 SCT250 05/M05 A3030 RMK CU1AC1CI1 SLP270
CYSC;2003-11-10 20:00;METAR CYSC 102000Z 27011KT 15SM FEW080 SCT250 05/M05 A3029 RMK AC2CI0 SLP269
CYSC;2003-11-10 21:00;METAR CYSC 102100Z 25004KT 15SM BKN072 BKN250 04/M05 A3029 RMK AC5CI0
CYSC;2003-11-10 22:00;METAR CYSC 102200Z 23003KT 15SM BKN068 BKN250 03/M05 A3029 RMK AC6CI0 LAST MANNED OB/NEXT 111300 SLP267
CYSC;2003-11-10 23:00;METAR CYSC 102300Z AUTO 25003KT 9SM BKN064 01/M06 A3030 RMK SLP272
CYSC;2003-11-11 00:00;METAR CYSC 110000Z AUTO 21003KT 9SM OVC062 02/M06 A3031 RMK SLP276
CYSC;2003-11-11 01:00;METAR CYSC 110100Z AUTO 00000KT 9SM BKN062 01/M05 A3030 RMK SLP274
CYSC;2003-11-11 02:00;METAR CYSC 110200Z AUTO 21003KT 9SM FEW055 02/M06 A3031 RMK SLP274
CYSC;2003-11-11 03:00;METAR CYSC 110300Z AUTO 00000KT 9SM BKN055 M00/M05 A3029 RMK SLP271
CYSC;2003-11-11 04:00;METAR CYSC 110400Z AUTO 21002KT 9SM BKN061 BKN091 M00/M06 A3029 RMK SLP269
CYSC;2003-11-11 05:00;METAR CYSC 110500Z AUTO 25004KT 9SM SCT061 SCT091 M00/M06 A3028 RMK SLP267
CYSC;2003-11-11 06:00;METAR CYSC 110600Z AUTO 20004KT 9SM OVC063 01/M06 A3028 RMK SLP266
CYSC;2003-11-11 07:00;METAR CYSC 110700Z AUTO 00000KT 9SM BKN067 OVC088 M01/M05 A3029 RMK SLP267
CYSC;2003-11-11 08:00;METAR CYSC 110800Z AUTO 05002KT 9SM OVC069 M01/M05 A3028 RMK SLP265
CYSC;2003-11-11 09:00;METAR CYSC 110900Z AUTO 07002KT 9SM OVC069 M01/M05 A3026 RMK SLP260
CYSC;2003-11-11 10:00;METAR CYSC 111000Z AUTO 00000KT 9SM OVC069 M00/M05 A3024 RMK SLP252
CYSC;2003-11-11 11:00;METAR CYSC 111100Z AUTO 00000KT 9SM OVC067 M01/M04 A3023 RMK SLP250
CYSC;2003-11-11 12:00;METAR CYSC 111200Z AUTO 00000KT 9SM OVC070 M01/M04 A3022 RMK SLP245
CYSC;2003-11-11 13:00;METAR CYSC 111300Z 11003KT 15SM SCT088 BKN220 01/M04 A3020 RMK AC3CI1 SLP238
CYSC;2003-11-11 14:00;METAR CYSC 111400Z 09006KT 15SM FEW090 BKN220 03/M04 A3018 RMK AC2CI2 SLP231
CYSC;2003-11-11 16:00;METAR CYSC 111600Z 17006KT 15SM FEW098 OVC160 07/M06 A3013 RMK AC1AS7 SLP214
CYSC;2003-11-11 17:00;METAR CYSC 111700Z 16005KT 15SM BKN040 OVC100 06/M06 A3011 RMK SC5AC3 SLP206
CYSC;2003-11-11 18:00;METAR CYSC 111800Z 16008KT 15SM FEW056 OVC120 06/M07 A3008 RMK SC2AC6 SLP195
CYSC;2003-11-11 19:00;METAR CYSC 111900Z CCA 15008KT 15SM FEW038 BKN080 OVC120 06/M07 A3002 RMK SC2AC3AC2 PRESFR SLP175
CYSC;2003-11-11 20:00;METAR CYSC 112000Z 18017G22KT 6SM -SN OVC037 05/M07 A2999 RMK SC8 VSBY NW 2 SLP165
CYSC;2003-11-11 21:00;METAR CYSC 112100Z 15013G18KT 3SM -SHSN FEW011 OVC025 03/M02 A2994 RMK SF2SC6 SLP149
CYSC;2003-11-11 22:00;METAR CYSC 112200Z 15009KT 12SM -SHSN SCT014 OVC027 03/M01 A2992 RMK SF3SC5 LAST MANNED OB/NEXT 121200 SLP143
CYSC;2003-11-11 23:00;METAR CYSC 112300Z AUTO 19007KT 8SM -RA BKN016 02/00 A2989 RMK SLP134
CYSC;2003-11-12 00:00;METAR CYSC 120000Z AUTO 17005KT 8SM -RA OVC016 02/00 A2986 RMK SLP123
CYSC;2003-11-12 01:00;METAR CYSC 120100Z AUTO 16006KT 5SM RA OVC016 02/00 A2984 RMK SLP115
CYSC;2003-11-12 02:00;METAR CYSC 120200Z AUTO 19005KT 9SM OVC015 03/01 A2983 RMK SLP112
CYSC;2003-11-12 03:00;METAR CYSC 120300Z AUTO 19003KT 3 1/2SM -RA OVC010 03/01 A2982 RMK SLP107
CYSC;2003-11-12 04:00;METAR CYSC 120400Z AUTO 18003KT 4SM OVC006 03/02 A2982 RMK PCPN 0.5MM PAST HR SLP106
CYSC;2003-11-12 05:00;METAR CYSC 120500Z AUTO 21004KT 3SM OVC006 03/02 A2981 RMK SLP106
CYSC;2003-11-12 06:00;METAR CYSC 120600Z AUTO 23004KT 3SM -RA OVC003 03/03 A2982 RMK SLP106
CYSC;2003-11-12 07:00;METAR CYSC 120700Z AUTO 22006KT 2 1/8SM BKN004 OVC010 04/03 A2982 RMK PCPN 0.5MM PAST HR SLP108
CYSC;2003-11-12 08:00;METAR CYSC 120800Z AUTO 24004KT 2 3/8SM BKN002 OVC011 04/03 A2981 RMK SLP103
CYSC;2003-11-12 09:00;METAR CYSC 120900Z AUTO 23005KT 3 1/2SM OVC013 OVC027 OVC043 04/04 A2981 RMK SLP103
CYSC;2003-11-12 10:00;METAR CYSC 121000Z AUTO 26003KT 2 3/8SM OVC017 OVC044 04/03 A2981 RMK SLP105
CYSC;2003-11-12 11:00;METAR CYSC 121100Z AUTO 25004KT 3SM OVC017 OVC041 04/03 A2981 RMK SLP104
CYSC;2003-11-12 12:00;METAR CYSC 121200Z AUTO 25004KT 4SM OVC013 04/04 A2982 RMK SLP109
CYSC;2003-11-12 13:00;METAR CYSC 121300Z 21005KT 5SM BR OVC035 05/04 A2984 RMK SC8 SLP114
CYSC;2003-11-12 14:00;METAR CYSC 121400Z 22004KT 10SM OVC025 05/04 A2985 RMK SC8 SLP116
CYSC;2003-11-12 15:00;METAR CYSC 121500Z 22005KT 10SM OVC027 06/05 A2983 RMK SC8 SLP111
CYSC;2003-11-12 16:00;METAR CYSC 121600Z 23005KT 10SM OVC031 07/05 A2983 RMK SC8 SLP109
CYSC;2003-11-12 17:00;METAR CYSC 121700Z 21006KT 15SM OVC031 07/05 A2981 RMK SC8 SLP104
CYSC;2003-11-12 18:00;METAR CYSC 121800Z 22004KT 12SM BKN027 OVC110 08/05 A2980 RMK SC6AC2 SLP100
CYSC;2003-11-12 19:00;METAR CYSC 121900Z 24004KT 12SM BKN019 OVC110 08/05 A2980 RMK SC6AC2
CYSC;2003-11-12 20:00;METAR CYSC 122000Z 00000KT 12SM FEW010 BKN019 BKN110 08/05 A2981 RMK CF2SC5AC1 SLP102
CYSC;2003-11-12 21:00;METAR CYSC 122100Z 21002KT 12SM SCT023 BKN091 BKN250 06/05 A2980 RMK SC3AC2CI2 SLP100
CYSC;2003-11-12 22:00;METAR CYSC 122200Z 00000KT 10SM FEW027 SCT032 BKN090 BKN250 03/02 A2979 RMK SC2SC2AC2CI1 LAST MANNED OB/NEXT 131300 SLP096
CYSC;2003-11-12 23:00;METAR CYSC 122300Z AUTO 10002KT 2 1/2SM BKN032 03/03 A2978 RMK SLP094
CYSC;2003-11-13 00:00;METAR CYSC 130000Z AUTO 08003KT 4SM BKN030 04/03 A2976 RMK SLP087
CYSC;2003-11-13 01:00;METAR CYSC 130100Z AUTO 08005KT 6SM SCT023 BKN029 04/03 A2973 RMK SLP075
CYSC;2003-11-13 02:00;METAR CYSC 130200Z AUTO 09004KT 5SM OVC021 OVC030 04/03 A2969 RMK SLP062
CYSC;2003-11-13 03:00;METAR CYSC 130300Z AUTO 07003KT 3 1/2SM FEW041 03/02 A2965 RMK SLP047
CYSC;2003-11-13 04:00;METAR CYSC 130400Z AUTO 09004KT 4SM CLR 03/02 A2959 RMK SLP028
CYSC;2003-11-13 05:00;METAR CYSC 130500Z AUTO 08007KT 5SM CLR 03/02 A2952 RMK PRESFR SLP002
CYSC;2003-11-13 06:00;METAR CYSC 130600Z AUTO 07005KT 9SM CLR 05/03 A2944 RMK PRESFR SLP975
CYSC;2003-11-13 07:00;METAR CYSC 130700Z AUTO 11014KT 3 1/2SM RA FEW022 OVC027 OVC069 OVC098 07/06 A2937 RMK PCPN 0.5MM PAST HR PRESFR SLP952
CYSC;2003-11-13 08:00;METAR CYSC 130800Z AUTO 13013G22KT 9SM -RA BKN046 08/06 A2926 RMK PCPN 0.5MM PAST HR PRESFR SLP914
CYSC;2003-11-13 09:00;METAR CYSC 130900Z AUTO 14023G29KT 7SM -RA FEW020 FEW033 SCT039 08/06 A2917 RMK PCPN 0.5MM PAST HR PRESFR SLP884
CYSC;2003-11-13 10:00;METAR CYSC 131000Z AUTO 17006KT 9SM -RA OVC018 OVC055 08/06 A2912 RMK PCPN 1.5MM PAST HR SLP867
CYSC;2003-11-13 11:00;METAR CYSC 131100Z AUTO 26011G18KT 3 1/2SM RA FEW012 OVC017 OVC039 06/05 A2918 RMK PCPN 7.0MM PAST HR PRESRR SLP888
CYSC;2003-11-13 12:00;METAR CYSC 131200Z AUTO 14006KT 8SM -RA OVC023 05/04 A2917 RMK PCPN 1.5MM PAST HR SLP885
CYSC;2003-11-13 13:00;METAR CYSC 131300Z 15005KT 15SM SCT043 BKN120 BKN250 05/04 A2913 RMK SC3AC2CI2 CU EMBDD /R13 AFT 22Z/ SLP872
CYSC;2003-11-13 14:00;METAR CYSC 131400Z 18002KT 15SM SCT045 BKN096 BKN250 06/05 A2908 RMK CU3AC2CI1 SLP856
CYSC;2003-11-13 15:00;METAR CYSC 131500Z 19005KT 15SM SCT045 BKN097 BKN250 07/04 A2903 RMK CU3AC2CI1 SLP838
CYSC;2003-11-13 16:00;METAR CYSC 131600Z 24002KT 12SM -SHRA OVC036 06/05 A2898 RMK CU8 TCU EMBDD SLP821
CYSC;2003-11-13 17:00;METAR CYSC 131700Z 25008KT 15SM FEW012 SCT038 BKN073 BKN250 04/01 A2898 RESN RMK CF2CU2AC2CI0 SLP819
CYSC;2003-11-13 18:00;METAR CYSC 131800Z 24010G18KT 15SM FEW018 BKN033 BKN076 BKN250 04/01 A2896 RMK CF2CU3AC2CI0 SLP813
CYSC;2003-11-13 19:00;METAR CYSC 131900Z 24011G17KT 15SM -SHSN FEW015 BKN025 BKN072 BKN250 04/00 A2895 RMK CF2CU3AC2CI0 SLP809
CYSC;2003-11-13 20:00;METAR CYSC 132000Z 20009G16KT 15SM -SHSN SCT016TCU OVC021 03/00 A2893 RMK TCU3CU5 SLP803
CYSC;2003-11-13 21:00;METAR CYSC 132100Z 19007KT 8SM -SHRASN OVC020 02/M00 A2892 RMK SC8 SLP800
CYSC;2003-11-13 22:00;METAR CYSC 132200Z 19006KT 6SM -SHRASN SCT002 OVC012 01/M00 A2892 RMK CF3SC5 LAST MANNED OB/NEXT 141300 SLP800
CYSC;2003-11-13 23:00;METAR CYSC 132300Z AUTO 19004KT 1 1/8SM -FZRA BKN003 BKN015 00/M01 A2891 RMK PCPN 0.5MM PAST HR SLP797
CYSC;2003-11-14 00:00;METAR CYSC 140000Z AUTO 24003KT 1 1/4SM -UP BKN002 OVC006 OVC022 00/M01 A2891 RMK ICG SLP797
CYSC;2003-11-14 01:00;METAR CYSC 140100Z AUTO 25007KT 3/4SM -UP BKN001 00/M01 A2892 RMK ICG PAST HR PCPN 0.5MM PAST HR SLP802
CYSC;2003-11-14 02:00;METAR CYSC 140200Z AUTO 27010KT 2 1/8SM -UP OVC003 00/M00 A2894 RMK PCPN 0.5MM PAST HR SLP807
CYSC;2003-11-14 03:00;METAR CYSC 140300Z AUTO 28013G18KT 1 1/8SM -UP OVC001 00/M00 A2896 RMK ICG INTMT PCPN 0.5MM PAST HR SLP813
CYSC;2003-11-14 04:00;METAR CYSC 140400Z AUTO 28019G28KT 1 1/8SM -UP VV006 00/M01 A2899 RMK ICG INTMT PCPN 0.5MM PAST HR SLP825
CYSC;2003-11-14 05:00;METAR CYSC 140500Z AUTO 28017G28KT 1/2SM -SN BKN000 OVC005 M00/M02 A2904 RMK ICG SLP840
CYSC;2003-11-14 06:00;METAR CYSC 140600Z AUTO 28024G31KT 1/4SM -SN OVC000 OVC007 OVC013 OVC025 M02/M03 A2908 RMK ICG PAST HR PCPN 0.5MM PAST HR SLP856
CYSC;2003-11-14 07:00;METAR CYSC 140700Z AUTO 28028G37KT 1/4SM -SN OVC000 OVC030 M03/M04 A2913 RMK SLP875
CYSC;2003-11-14 08:00;METAR CYSC 140800Z AUTO 28019G35KT 1/8SM -SN OVC000 M04/M05 A2919 RMK SLP894
CYSC;2003-11-14 09:00;METAR CYSC 140900Z AUTO 28024G31KT 1/8SM -SN OVC000 M05/M07 A2922 RMK SLP908
CYSC;2003-11-14 10:00;METAR CYSC 141000Z AUTO 27017G26KT 1/4SM -SN OVC000 M06/M07 A2926 RMK PCPN 0.5MM PAST HR SLP919
CYSC;2003-11-14 11:00;METAR CYSC 141100Z AUTO 27020G28KT 1/4SM -SN OVC000 M07/M08 A2929 RMK SLP932
CYSC;2003-11-14 12:00;METAR CYSC 141200Z AUTO 27017G28KT 1/4SM -SN OVC000 M07/M09 A2932 RMK SLP942
CYSC;2003-11-14 13:00;METAR CYSC 141300Z 27019G27KT 1/4SM -SN +BLSN VV001 M08/M09 A2935 RMK SN8 /S05 AFT 22Z/ SLP950
CYSC;2003-11-14 14:00;METAR CYSC 141400Z 26014G22KT 1/4SM -SN +BLSN VV001 M08/M09 A2937 RMK SN8 /S01/ SLP956
CYSC;2003-11-14 15:00;METAR CYSC 141500Z 26016G27KT 1/2SM -SN BLSN VV003 M07/M09 A2937 RMK SN8 VSBY VRBL 1/4-3/4 SLP958
CYSC;2003-11-14 16:00;METAR CYSC 141600Z 27016G22KT 1/2SM -SN BLSN VV002 M07/M09 A2938 RMK SN8 VSBY VRBL 1/4-3/4 SLP962
CYSC;2003-11-14 17:00;METAR CYSC 141700Z 26014G25KT 1/2SM -SN BLSN VV003 M08/M09 A2939 RMK SN8 /S04/ VSBY VRBL 1/4-3/4 SLP964
CYSC;2003-11-14 18:00;METAR CYSC 141800Z 26014G24KT 3/4SM -SN BLSN VV005 M07/M09 A2940 RMK SN8 /S05/ VSBY VRBL 1/2-1 SLP967
CYSC;2003-11-14 19:00;METAR CYSC 141900Z 27015G24KT 3/4SM -SN BLSN VV005 M07/M08 A2941 RMK SN8 VSBY VRBL 1/2-1 SLP971
CYSC;2003-11-14 20:00;METAR CYSC 142000Z 27015G26KT 3/4SM -SN BLSN VV005 M06/M08 A2943 RMK SN8 /S01/ VSBY VRBL 1/2-1 SLP979
CYSC;2003-11-14 21:00;METAR CYSC 142100Z 27015G22KT 3/4SM -SN BLSN VV008 M06/M08 A2945 RMK SN8 /S02/ VSBY VRBL 1/2-1 SLP988
CYSC;2003-11-14 22:00;METAR CYSC 142200Z 27017G25KT 1 1/2SM -SN BLSN VV014 M06/M08 A2948 RMK SN8 VSBY VRBL 1-2 LAST MANNED OB/NEXT 151300 SLP997
CYSC;2003-11-14 23:00;METAR CYSC 142300Z AUTO 27013G18KT 5/8SM -SN BKN005 OVC010 M06/M08 A2950 RMK SLP005
CYSC;2003-11-15 00:00;METAR CYSC 150000Z AUTO 27017G24KT 5/8SM -SN VV005 M06/M08 A2951 RMK SLP008
CYSC;2003-11-15 01:00;METAR CYSC 150100Z AUTO 27016G24KT 3/4SM -SN OVC010 M06/M08 A2952 RMK SLP011
CYSC;2003-11-15 02:00;METAR CYSC 150200Z AUTO 27012G20KT 3SM -SN BKN025 M06/M09 A2954 RMK PCPN 0.5MM PAST HR SLP018
CYSC;2003-11-15 03:00;METAR CYSC 150300Z AUTO 26015KT 7SM -SN SCT022 M06/M09 A2955 RMK SLP022
CYSC;2003-11-15 04:00;METAR CYSC 150400Z AUTO 27016G21KT 5SM -SN VV015 M06/M09 A2956 RMK SLP027
CYSC;2003-11-15 05:00;METAR CYSC 150500Z AUTO 28018G25KT 4SM -SN M06/M09 A2958 RMK SLP033
CYSC;2003-11-15 06:00;METAR CYSC 150600Z AUTO 27015G20KT 9SM SCT019 M06/M09 A2959 RMK SLP037
CYSC;2003-11-15 07:00;METAR CYSC 150700Z AUTO 27019G24KT 7SM -SN FEW024 SCT035 M06/M09 A2962 RMK SLP046
CYSC;2003-11-15 08:00;METAR CYSC 150800Z AUTO 27016G21KT 8SM -SN OVC017 OVC031 M06/M09 A2964 RMK SLP052
CYSC;2003-11-15 09:00;METAR CYSC 150900Z AUTO 27016G21KT 9SM BKN017 BKN031 BKN048 M06/M09 A2967 RMK SLP062
CYSC;2003-11-15 10:00;METAR CYSC 151000Z AUTO 27013G18KT 6SM -SN OVC017 M07/M10 A2970 RMK SLP074
CYSC;2003-11-15 11:00;METAR CYSC 151100Z AUTO 27012G17KT 9SM BKN021 BKN031 M07/M10 A2972 RMK SLP081
CYSC;2003-11-15 12:00;METAR CYSC 151200Z AUTO 26014G20KT 3 1/2SM -SN BKN015 OVC025 M07/M10 A2975 RMK SLP089
CYSC;2003-11-15 13:00;METAR CYSC 151300Z CCA 27021G26KT 1 1/2SM -SN BLSN VV015 M07/M10 A2976 RMK SN8 /S03 AFT 22Z/ SLP094
CYSC;2003-11-15 14:00;METAR CYSC 151400Z 27016G22KT 1 1/2SM -SN BLSN BKN015 OVC032 M07/M09 A2979 RMK SN3SC2SC2 VSBY VRBL 1-2 SLP103
CYSC;2003-11-15 15:00;METAR CYSC 151500Z 27018KT 4SM -SN BLSN BKN017 OVC035 M06/M10 A2981 RMK SC6SC2 SLP110
CYSC;2003-11-15 16:00;METAR CYSC 151600Z 26017G25KT 8SM -SN DRSN BKN020 OVC085 M05/M09 A2982 RMK SC5AC3 SLP113
CYSC;2003-11-15 17:00;METAR CYSC 151700Z 28018G25KT 12SM -SHSN DRSN FEW013 BKN020 BKN087 M05/M09 A2982 RMK CF2CU2AC2 SLP113
CYSC;2003-11-15 18:00;METAR CYSC 151800Z 28019G28KT 15SM FEW012 BKN023 BKN076 M04/M08 A2984 RMK CF2CU3AC1 /S01/ SLP118
CYSC;2003-11-15 19:00;METAR CYSC 151900Z 28016KT 15SM -SHSN BKN023 BKN075 M03/M07 A2985 RMK CU5AC2 SLP123
CYSC;2003-11-15 20:00;METAR CYSC 152000Z 28018KT 15SM -SHSN SCT023 BKN075 M03/M08 A2987 RMK CU4AC2 SLP129
CYSC;2003-11-15 21:00;METAR CYSC 152100Z 28013G18KT 15SM -SHSN SCT024 BKN075 M03/M08 A2990 RMK CU3AC2 SLP140
CYSC;2003-11-15 22:00;METAR CYSC 152200Z 28011KT 15SM -SHSN SCT026 BKN075 M03/M08 A2993 RMK CU3AC2 LAST MANNED OB/NEXT 161300 SLP150
CYSC;2003-11-15 23:00;METAR CYSC 152300Z AUTO 28009KT 9SM OVC034 M04/M08 A2996 RMK SLP162
CYSC;2003-11-16 00:00;METAR CYSC 160000Z AUTO 28010KT 9SM SCT034 M05/M09 A2998 RMK SLP168
CYSC;2003-11-16 01:00;METAR CYSC 160100Z AUTO 27007KT 9SM CLR M06/M09 A2999 RMK SLP172
CYSC;2003-11-16 02:00;METAR CYSC 160200Z AUTO 27007KT 9SM CLR M07/M10 A3000 RMK SLP176
CYSC;2003-11-16 03:00;METAR CYSC 160300Z AUTO 27004KT 9SM BKN031 M08/M10 A3002 RMK SLP181
CYSC;2003-11-16 04:00;METAR CYSC 160400Z AUTO 27004KT 9SM OVC029 OVC048 M07/M09 A3003 RMK SLP187
CYSC;2003-11-16 05:00;METAR CYSC 160500Z AUTO 25003KT 9SM OVC027 M06/M09 A3006 RMK SLP193
CYSC;2003-11-16 06:00;METAR CYSC 160600Z AUTO 28003KT 9SM OVC027 M06/M09 A3007 RMK SLP197
CYSC;2003-11-16 07:00;METAR CYSC 160700Z AUTO 25006KT 9SM BKN027 M07/M10 A3008 RMK SLP201
CYSC;2003-11-16 08:00;METAR CYSC 160800Z AUTO 22003KT 9SM CLR M10/M11 A3009 RMK SLP207
CYSC;2003-11-16 09:00;METAR CYSC 160900Z AUTO 21005KT 9SM CLR M09/M11 A3012 RMK SLP215
CYSC;2003-11-16 10:00;METAR CYSC 161000Z AUTO 22003KT 9SM CLR M09/M11 A3014 RMK SLP224
CYSC;2003-11-16 11:00;METAR CYSC 161100Z AUTO 26002KT 9SM CLR M13/M14 A3016 RMK SLP231
CYSC;2003-11-16 12:00;METAR CYSC 161200Z AUTO 00000KT 9SM CLR M13/M15 A3019 RMK ICG SLP241
CYSC;2003-11-16 13:00;METAR CYSC 161300Z 29002KT 15SM FEW220 M10/M11 A3021 RMK CI1 FROIN SLP246
CYSC;2003-11-16 14:00;METAR CYSC 161400Z 24004KT 15SM FEW220 M06/M10 A3022 RMK CI1 SLP251
CYSC;2003-11-16 15:00;METAR CYSC 161500Z 23003KT 15SM FEW180 M04/M09 A3023 RMK AC1 SLP252
CYSC;2003-11-16 16:00;METAR CYSC 161600Z 29003KT 15SM FEW180 M04/M09 A3020 RMK AC1 SLP244
CYSC;2003-11-16 17:00;METAR CYSC 161700Z 26005KT 15SM FEW220 M02/M08 A3020 RMK CI1 SLP243
CYSC;2003-11-16 18:00;METAR CYSC 161800Z 28003KT 15SM FEW090 FEW180 M01/M08 A3020 RMK AC1AC1 SLP240
CYSC;2003-11-16 19:00;METAR CYSC 161900Z 28006KT 15SM FEW180 M01/M08 A3019 RMK AC1 SLP239
CYSC;2003-11-16 20:00;METAR CYSC 162000Z 26004KT 15SM FEW090 M01/M08 A3020 RMK AC1 SLP241
CYSC;2003-11-16 21:00;METAR CYSC 162100Z 29002KT 15SM FEW095 M02/M08 A3021 RMK AC1 SLP246
CYSC;2003-11-16 22:00;METAR CYSC 162200Z 00000KT 15SM FEW095 M06/M07 A3022 RMK AC1 LAST MANNED OB/NEXT 171300 SLP249
CYSC;2003-11-16 23:00;METAR CYSC 162300Z AUTO 00000KT 9SM CLR M07/M09 A3023 RMK SLP255
CYSC;2003-11-17 00:00;METAR CYSC 170000Z AUTO 08002KT 9SM CLR M08/M10 A3023 RMK ICG INTMT SLP257
CYSC;2003-11-17 01:00;METAR CYSC 170100Z AUTO 12003KT 9SM CLR M09/M11 A3023 RMK ICG SLP256
CYSC;2003-11-17 02:00;METAR CYSC 170200Z AUTO 00000KT 9SM CLR M10/M12 A3023 RMK ICG PAST HR SLP256
CYSC;2003-11-17 03:00;METAR CYSC 170300Z AUTO 11004KT 9SM CLR M10/M11 A3024 RMK SLP257
CYSC;2003-11-17 04:00;METAR CYSC 170400Z AUTO 09004KT 9SM CLR M10/M12 A3024 RMK SLP256
CYSC;2003-11-17 05:00;METAR CYSC 170500Z AUTO 09004KT 9SM CLR M10/M12 A3024 RMK ICG SLP256
CYSC;2003-11-17 06:00;METAR CYSC 170600Z AUTO 09004KT 9SM CLR M11/M13 A3023 RMK ICG INTMT SLP254
CYSC;2003-11-17 07:00;METAR CYSC 170700Z AUTO 09005KT 9SM CLR M11/M13 A3023 RMK ICG PAST HR SLP254
CYSC;2003-11-17 08:00;METAR CYSC 170800Z AUTO 10004KT 9SM CLR M12/M14 A3024 RMK SLP256
CYSC;2003-11-17 09:00;METAR CYSC 170900Z AUTO 08005KT 9SM CLR M13/M14 A3024 RMK SLP259
CYSC;2003-11-17 10:00;METAR CYSC 171000Z AUTO 08004KT 9SM CLR M13/M15 A3025 RMK SLP262
CYSC;2003-11-17 11:00;METAR CYSC 171100Z AUTO 09004KT 9SM CLR M13/M15 A3026 RMK SLP266
CYSC;2003-11-17 12:00;METAR CYSC 171200Z AUTO 08003KT 9SM CLR M13/M15 A3027 RMK SLP269
CYSC;2003-11-17 13:00;METAR CYSC 171300Z 09004KT 15SM SCT100 BKN160 M11/M14 A3028 RMK AC3AC2 SLP273
CYSC;2003-11-17 14:00;METAR CYSC 171400Z 09002KT 15SM FEW160 BKN220 M10/M12 A3029 RMK AC1CI2 SLP276
CYSC;2003-11-17 15:00;METAR CYSC 171500Z 07004KT 15SM FEW050 FEW140 BKN220 M07/M10 A3029 RMK SC1AC1CI2 SLP274
CYSC;2003-11-17 16:00;METAR CYSC 171600Z 08002KT 15SM FEW050 FEW140 BKN220 M03/M08 A3028 RMK SC1AC1CI3 SLP269
CYSC;2003-11-17 17:00;METAR CYSC 171700Z 02002KT 15SM FEW050 BKN200 M01/M06 A3027 RMK SC1CI3 SLP267
CYSC;2003-11-17 18:00;METAR CYSC 171800Z 05002KT 15SM FEW055 SCT220 M01/M07 A3027 RMK SC1CI2 SLP266
CYSC;2003-11-17 19:00;METAR CYSC 171900Z 09003KT 15SM FEW055 FEW220 00/M06 A3026 RMK SC1CI2 SLP262
CYSC;2003-11-17 20:00;METAR CYSC 172000Z 04003KT 15SM FEW220 01/M07 A3027 RMK CI1 SLP265
CYSC;2003-11-17 21:00;METAR CYSC 172100Z 00000KT 15SM FEW220 M00/M06 A3027 RMK CI1 SLP266
CYSC;2003-11-17 22:00;METAR CYSC 172200Z 06003KT 15SM SKC M04/M06 A3028 RMK LAST MANNED OB/NEXT 181300 SLP271
CYSC;2003-11-17 23:00;METAR CYSC 172300Z AUTO 08003KT 9SM CLR M05/M07 A3030 RMK SLP280
CYSC;2003-11-18 00:00;METAR CYSC 180000Z AUTO 08002KT 9SM CLR M06/M07 A3031 RMK SLP284
CYSC;2003-11-18 01:00;METAR CYSC 180100Z AUTO 00000KT 6SM CLR M07/M08 A3032 RMK ICG INTMT SLP286
CYSC;2003-11-18 02:00;METAR CYSC 180200Z AUTO 09003KT 9SM CLR M07/M08 A3032 RMK ICG SLP286
CYSC;2003-11-18 03:00;METAR CYSC 180300Z AUTO 09006KT 9SM CLR M07/M09 A3032 RMK ICG PAST HR SLP284
CYSC;2003-11-18 04:00;METAR CYSC 180400Z AUTO 00000KT 9SM CLR M08/M10 A3032 RMK ICG PAST HR
CYSC;2003-11-18 05:00;METAR CYSC 180500Z AUTO 00000KT 9SM CLR M09/M11 A3036 RMK ICG SLP298
CYSC;2003-11-18 06:00;METAR CYSC 180600Z AUTO 09004KT 9SM CLR M10/M11 A3036 RMK ICG INTMT SLP297
CYSC;2003-11-18 07:00;METAR CYSC 180700Z AUTO 08003KT 9SM CLR M09/M11 A3037 RMK ICG PAST HR SLP299
CYSC;2003-11-18 08:00;METAR CYSC 180800Z AUTO 06004KT 9SM CLR M09/M11 A3037 RMK SLP299
CYSC;2003-11-18 09:00;METAR CYSC 180900Z AUTO 08004KT 9SM CLR M10/M11 A3036 RMK SLP297
CYSC;2003-11-18 10:00;METAR CYSC 181000Z AUTO 07004KT 9SM CLR M10/M11 A3036 RMK SLP299
CYSC;2003-11-18 11:00;METAR CYSC 181100Z AUTO 07004KT 9SM CLR M10/M12 A3036 RMK SLP300
CYSC;2003-11-18 13:00;METAR CYSC 181300Z 00000KT 15SM FEW220 M08/M10 A3037 RMK CI1 SLP302
CYSC;2003-11-18 14:00;METAR CYSC 181400Z 07002KT 15SM FEW220 M06/M08 A3040 RMK CI1 SLP310
CYSC;2003-11-18 15:00;METAR CYSC 181500Z 09004KT 15SM FEW009 SCT140 M03/M07 A3038 RMK CF2AC1 SLP303
CYSC;2003-11-18 16:00;METAR CYSC 181600Z 33002KT 15SM FEW220 M00/M05 A3034 RMK CI1 SLP292
CYSC;2003-11-18 17:00;METAR CYSC 181700Z 09002KT 15SM SCT220 03/M03 A3031 RMK CI2 SLP280
CYSC;2003-11-18 18:00;METAR CYSC 181800Z 03003KT 15SM FEW220 05/M01 A3028 RMK CI1 SLP269
CYSC;2003-11-18 19:00;METAR CYSC 181900Z 03002KT 15SM FEW220 06/M00 A3027 RMK CI1 SLP264
CYSC;2003-11-18 20:00;METAR CYSC 182000Z 00000KT 15SM FEW055 FEW220 08/01 A3024 RMK SC1CI0 SLP256
CYSC;2003-11-18 21:00;METAR CYSC 182100Z 20003KT 15SM FEW050 SCT220 05/01 A3024 RMK SC1CI1 SLP253
CYSC;2003-11-18 22:00;METAR CYSC 182200Z 14004KT 15SM FEW050 FEW100 FEW220 03/00 A3023 RMK SC1AC1CI0 LAST MANNED OB/NEXT 191300 SLP249
CYSC;2003-11-18 23:00;METAR CYSC 182300Z AUTO 12005KT 9SM CLR 03/00 A3021 RMK SLP245
CYSC;2003-11-19 00:00;METAR CYSC 190000Z AUTO 10005KT 9SM CLR 03/M00 A3018 RMK SLP234
CYSC;2003-11-19 01:00;METAR CYSC 190100Z AUTO 14005KT 9SM CLR 02/M02 A3015 RMK SLP224
CYSC;2003-11-19 02:00;METAR CYSC 190200Z AUTO 13007KT 9SM CLR 03/M00 A3014 RMK SLP220
CYSC;2003-11-19 03:00;METAR CYSC 190300Z AUTO 11007KT 9SM CLR 03/M00 A3013 RMK SLP217
CYSC;2003-11-19 04:00;METAR CYSC 190400Z AUTO 14010G15KT 9SM OVC028 05/01 A3011 RMK SLP208
CYSC;2003-11-19 05:00;METAR CYSC 190500Z AUTO 13008KT 9SM FEW036 05/01 A3009 RMK SLP199
CYSC;2003-11-19 06:00;METAR CYSC 190600Z AUTO 16012KT 9SM OVC036 06/02 A3006 RMK SLP187
CYSC;2003-11-19 07:00;METAR CYSC 190700Z AUTO 16006KT 9SM FEW042 06/02 A3004 RMK SLP182
CYSC;2003-11-19 08:00;METAR CYSC 190800Z AUTO 16007KT 9SM FEW050 07/02 A3001 RMK SLP172
CYSC;2003-11-19 09:00;METAR CYSC 190900Z AUTO 17011KT 9SM FEW041 07/02 A2999 RMK SLP164
CYSC;2003-11-19 11:00;METAR CYSC 191100Z AUTO 14006KT 9SM -RA SCT034 SCT088 07/03 A2993 RMK SLP144
CYSC;2003-11-19 12:00;METAR CYSC 191200Z AUTO 15007KT 9SM -RA BKN042 BKN090 07/04 A2992 RMK SLP141
CYSC;2003-11-19 13:00;METAR CYSC 191300Z 16009KT 15SM BKN046 OVC082 08/03 A2989 RMK SC6AC2 SLP131
CYSC;2003-11-19 14:00;METAR CYSC 191400Z 17006KT 15SM BKN032 BKN050 OVC085 09/04 A2989 RMK SC6SC1AC1 SLP128
CYSC;2003-11-19 15:00;METAR CYSC 191500Z 16011KT 15SM BKN026 OVC085 09/05 A2987 RMK SC6AC2 SLP122
CYSC;2003-11-19 16:00;METAR CYSC 191600Z 16009G15KT 15SM BKN024 OVC050 10/06 A2983 RMK SC6SC2 SLP110
CYSC;2003-11-19 17:00;METAR CYSC 191700Z 17002KT 8SM -RA BKN014 OVC042 09/07 A2982 RMK SC6SC2 SLP104
CYSC;2003-11-19 18:00;METAR CYSC 191800Z 15006KT 15SM FEW014 BKN026 OVC050 09/07 A2978 RMK CF1SC6SC2 SLP092
CYSC;2003-11-19 19:00;METAR CYSC 191900Z 11005KT 15SM SCT028 BKN049 OVC095 08/06 A2972 RMK SC4SC3AC1 SLP073
CYSC;2003-11-19 20:00;METAR CYSC 192000Z 13005KT 12SM -RA SCT024 OVC048 09/07 A2969 RMK SC4SC4 SLP062
CYSC;2003-11-19 21:00;METAR CYSC 192100Z 15006KT 10SM -RA FEW020 OVC035 08/07 A2967 RMK CF1SC7 SLP052
CYSC;2003-11-19 22:00;METAR CYSC 192200Z 13008KT 12SM -RA OVC029 09/07 A2963 RMK SC8 LAST MANNED OB/NEXT 201300 SLP038
CYSC;2003-11-19 23:00;METAR CYSC 192300Z AUTO 14012KT 9SM SCT033 BKN047 10/08 A2958 RMK SLP022
CYSC;2003-11-20 00:00;METAR CYSC 200000Z AUTO 13019G26KT 9SM FEW037 FEW045 FEW055 SCT090 12/09 A2952 RMK PCPN 0.5MM PAST HR SLP002
CYSC;2003-11-20 01:00;METAR CYSC 200100Z AUTO 16015G29KT 9SM CLR 13/09 A2949 RMK SLP992
CYSC;2003-11-20 02:00;METAR CYSC 200200Z AUTO 15017G25KT 9SM SCT038 13/09 A2948 RMK SLP989
CYSC;2003-11-20 03:00;METAR CYSC 200300Z AUTO 14012G17KT 9SM BKN032 BKN086 14/09 A2946 RMK SLP979
CYSC;2003-11-20 04:00;METAR CYSC 200400Z AUTO 15014G21KT 9SM SCT036 SCT057 BKN079 15/10 A2941 RMK SLP963
CYSC;2003-11-20 05:00;METAR CYSC 200500Z AUTO 27018KT 9SM BKN019 BKN084 13/10 A2944 RMK SLP975
CYSC;2003-11-20 06:00;METAR CYSC 200600Z AUTO 25008KT 2 1/2SM RA OVC008 OVC020 08/07 A2949 RMK PCPN 6.5MM PAST HR SLP993
CYSC;2003-11-20 07:00;METAR CYSC 200700Z AUTO 23005KT 5SM RA FEW006 OVC009 07/07 A2956 RMK PCPN 3.5MM PAST HR PRESRR SLP015
CYSC;2003-11-20 08:00;METAR CYSC 200800Z AUTO 28005KT 7SM -RA OVC006 OVC022 07/06 A2955 RMK PCPN 3.5MM PAST HR SLP014
CYSC;2003-11-20 09:00;METAR CYSC 200900Z AUTO 28003KT 3SM RA BKN000 OVC007 OVC017 OVC022 06/06 A2957 RMK PCPN 3.0MM PAST HR SLP022
CYSC;2003-11-20 10:00;METAR CYSC 201000Z AUTO 27006KT 4SM RA BKN017 06/05 A2960 RMK PCPN 3.0MM PAST HR SLP031
CYSC;2003-11-20 11:00;METAR CYSC 201100Z AUTO 30005KT 4SM RA OVC011 05/04 A2962 RMK PCPN 3.0MM PAST HR SLP036
CYSC;2003-11-20 12:00;METAR CYSC 201200Z AUTO 33007KT 9SM -RA OVC009 04/03 A2966 RMK PCPN 3.0MM PAST HR SLP049
CYSC;2003-11-20 13:00;METAR CYSC 201300Z CCA 31005KT 8SM -RA BKN008 OVC020 03/02 A2968 RMK SF7SC1 /R27 AFT 22Z/ SLP056
CYSC;2003-11-20 14:00;METAR CYSC 201400Z 30005KT 12SM -RA OVC009 03/02 A2970 RMK SF8 SLP064
CYSC;2003-11-20 15:00;METAR CYSC 201500Z 03002KT 15SM BKN011 OVC025 03/02 A2968 RMK SF6SC2 SLP055
CYSC;2003-11-20 16:00;METAR CYSC 201600Z 32003KT 15SM -RA OVC011 04/03 A2969 RMK CF8 SLP061
CYSC;2003-11-20 17:00;METAR CYSC 201700Z 31005KT 12SM -RA BKN010 OVC030 04/03 A2971 RMK CF7SC1 SLP067
CYSC;2003-11-20 18:00;METAR CYSC 201800Z 30006KT 15SM BKN010 OVC035 05/04 A2970 RMK SC7SC1 SLP063
CYSC;2003-11-20 19:00;METAR CYSC 201900Z 30009KT 15SM BKN008 OVC035 04/03 A2972 RMK CF7SC1 SLP070
CYSC;2003-11-20 20:00;METAR CYSC 202000Z 30010KT 15SM OVC009 04/03 A2975 RMK CF8 SLP081
CYSC;2003-11-20 21:00;METAR CYSC 202100Z 28008KT 15SM OVC009 04/03 A2978 RMK CF8 SLP093
CYSC;2003-11-20 22:00;METAR CYSC 202200Z 30007KT 15SM BKN012 OVC040 04/03 A2981 RMK SC6SC2 LAST MANNED OB/NEXT 211300 SLP104
CYSC;2003-11-20 23:00;METAR CYSC 202300Z AUTO 31007KT 9SM OVC013 OVC021 04/02 A2982 RMK SLP108
CYSC;2003-11-21 00:00;METAR CYSC 210000Z AUTO 00000KT 9SM BKN013 04/02 A2986 RMK SLP122
CYSC;2003-11-21 01:00;METAR CYSC 210100Z AUTO 32007KT 9SM BKN013 03/01 A2984 RMK SLP114
CYSC;2003-11-21 02:00;METAR CYSC 210200Z AUTO 32003KT 9SM OVC015 03/01 A2986 RMK SLP121
CYSC;2003-11-21 03:00;METAR CYSC 210300Z AUTO 31005KT 9SM OVC015 03/00 A2986 RMK SLP121
CYSC;2003-11-21 04:00;METAR CYSC 210400Z AUTO 30003KT 9SM OVC019 03/M00 A2986 RMK SLP123
CYSC;2003-11-21 05:00;METAR CYSC 210500Z AUTO 33003KT 9SM OVC017 03/M01 A2987 RMK SLP123
CYSC;2003-11-21 06:00;METAR CYSC 210600Z AUTO 31002KT 9SM OVC015 02/M01 A2989 RMK SLP132
CYSC;2003-11-21 07:00;METAR CYSC 210700Z AUTO 31002KT 9SM OVC015 02/M00 A2989 RMK SLP133
CYSC;2003-11-21 08:00;METAR CYSC 210800Z AUTO 30005KT 9SM OVC015 02/M01 A2990 RMK SLP134
CYSC;2003-11-21 09:00;METAR CYSC 210900Z AUTO 00000KT 9SM OVC015 02/M02 A2989 RMK SLP132
CYSC;2003-11-21 11:00;METAR CYSC 211100Z AUTO 16003KT 9SM CLR M02/M03 A2990 RMK SLP135
CYSC;2003-11-21 12:00;METAR CYSC 211200Z AUTO 13003KT 9SM CLR M02/M03 A2989 RMK SLP135
CYSC;2003-11-21 13:00;METAR CYSC 211300Z 00000KT 15SM FEW180 01/M01 A2990 RMK AC1 SLP136
CYSC;2003-11-21 14:00;METAR CYSC 211400Z 17004KT 15SM FEW180 03/M00 A2990 RMK AC1 SLP135
CYSC;2003-11-21 15:00;METAR CYSC 211500Z 00000KT 15SM FEW180 05/M00 A2990 RMK AC1 SLP134
CYSC;2003-11-21 16:00;METAR CYSC 211600Z 22002KT 15SM FEW220 06/M00 A2990 RMK CI1 SLP134
CYSC;2003-11-21 17:00;METAR CYSC 211700Z 26003KT 15SM FEW200 07/01 A2990 RMK CI1 SLP133
CYSC;2003-11-21 18:00;METAR CYSC 211800Z 28003KT 15SM FEW200 08/01 A2989 RMK CI1 SLP131
CYSC;2003-11-21 19:00;METAR CYSC 211900Z 25002KT 15SM FEW200 09/01 A2989 RMK CI1 SLP130
CYSC;2003-11-21 20:00;METAR CYSC 212000Z 26004KT 15SM FEW090 09/02 A2991 RMK AC1 SLP137
CYSC;2003-11-21 21:00;METAR CYSC 212100Z 19002KT 15SM FEW070 FEW100 07/01 A2992 RMK AC1AC1 SLP141
CYSC;2003-11-21 22:00;METAR CYSC 212200Z 16002KT 15SM FEW050 02/M00 A2994 RMK SC1 LAST MANNED OB/NEXT 231300 SLP148
CYSC;2003-11-21 23:00;METAR CYSC 212300Z AUTO 00000KT 9SM CLR 01/M00 A2996 RMK SLP158
CYSC;2003-11-22 00:00;METAR CYSC 220000Z AUTO 11002KT 9SM CLR 00/M01 A2999 RMK SLP168
CYSC;2003-11-22 01:00;METAR CYSC 220100Z AUTO 00000KT 9SM CLR M01/M03 A3002 RMK SLP179
CYSC;2003-11-22 02:00;METAR CYSC 220200Z AUTO 00000KT 8SM FEW030 M02/M03 A3004 RMK SLP185
CYSC;2003-11-22 03:00;METAR CYSC 220300Z AUTO 00000KT 7SM OVC024 M00/M01 A3005 RMK SLP186
CYSC;2003-11-22 04:00;METAR CYSC 220400Z AUTO 00000KT 7SM OVC024 00/M01 A3006 RMK SLP189
CYSC;2003-11-22 05:00;METAR CYSC 220500Z AUTO 12002KT 6SM BKN024 01/M00 A3007 RMK SLP193
CYSC;2003-11-22 06:00;METAR CYSC 220600Z AUTO 26002KT 7SM OVC024 01/00 A3009 RMK SLP199
CYSC;2003-11-22 07:00;METAR CYSC 220700Z AUTO 29002KT 5SM BKN028 01/M01 A3012 RMK SLP209
CYSC;2003-11-22 08:00;METAR CYSC 220800Z AUTO 28003KT 4SM CLR M01/M03 A3013 RMK SLP212
CYSC;2003-11-22 09:00;METAR CYSC 220900Z AUTO 00000KT 3SM CLR M03/M04 A3014 RMK ICG SLP220
CYSC;2003-11-22 10:00;METAR CYSC 221000Z AUTO 19003KT 2 1/2SM CLR M03/M05 A3015 RMK VSBY VRBL 1.8V5.0 ICG INTMT SLP222
CYSC;2003-11-22 11:00;METAR CYSC 221100Z AUTO 27002KT 3SM BKN000 M03/M05 A3017 RMK ICG SLP229
CYSC;2003-11-22 12:00;METAR CYSC 221200Z AUTO 00000KT 1/8SM OVC000 OVC031 M03/M05 A3017 RMK ICG SLP231
CYSC;2003-11-22 13:00;METAR CYSC 221300Z 22003KT 1/4SM FZFG VV000 M01/M02 A3020 RMK FG8 SLP237
CYSC;2003-11-22 14:00;METAR CYSC 221400Z 18003KT 0SM FZFG VV000 M01/M02 A3021 RMK FG8 SLP243
CYSC;2003-11-22 15:00;METAR CYSC 221500Z 00000KT 0SM FZFG VV000 M00/M01 A3024 RMK FG8 SLP251
CYSC;2003-11-22 16:00;METAR CYSC 221600Z 26002KT 1/4SM FZFG VV000 M00/M01 A3024 RMK FG8 SLP252
CYSC;2003-11-22 17:00;METAR CYSC 221700Z 05002KT 1 1/2SM BR SCT008 OVC056 01/00 A3021 RMK FG2SF2SC4 SLP244
CYSC;2003-11-22 18:00;METAR CYSC 221800Z 00000KT 1 1/2SM BR OVC002 01/01 A3019 RMK FG2ST6 SLP234
CYSC;2003-11-22 19:00;METAR CYSC 221900Z 25002KT 4SM BR BKN002 BKN084 01/01 A3018 RMK ST6AC2 SLP232
CYSC;2003-11-22 20:00;METAR CYSC 222000Z 00000KT 12SM FEW003 BKN250 02/01 A3018 RMK CF2CI2
CYSC;2003-11-22 21:00;METAR CYSC 222100Z 00000KT 12SM SCT250 01/M00 A3019 RMK CI2 SLP235
CYSC;2003-11-22 22:00;METAR CYSC 222200Z 00000KT 12SM FEW250 M02/M03 A3019 RMK CI1 LAST MANNED OB/NEXT 231300 SLP236
CYSC;2003-11-22 23:00;METAR CYSC 222300Z AUTO 13002KT 6SM CLR M02/M04 A3019 RMK SLP239
CYSC;2003-11-23 00:00;METAR CYSC 230000Z AUTO 02002KT 1/8SM CLR M02/M04 A3022 RMK ICG INTMT SLP246
CYSC;2003-11-23 01:00;METAR CYSC 230100Z AUTO 09005KT 1/8SM OVC000 M02/M03 A3023 RMK ICG SLP249
CYSC;2003-11-23 02:00;METAR CYSC 230200Z AUTO 09005KT 3SM CLR M02/M04 A3022 RMK ICG SLP247
CYSC;2003-11-23 03:00;METAR CYSC 230300Z AUTO 07005KT 9SM CLR M02/M04 A3022 RMK ICG PAST HR SLP247
CYSC;2003-11-23 04:00;METAR CYSC 230400Z AUTO 07004KT 9SM CLR M03/M04 A3023 RMK SLP251
CYSC;2003-11-23 05:00;METAR CYSC 230500Z AUTO 06006KT 9SM CLR M02/M05 A3023 RMK SLP249
CYSC;2003-11-23 06:00;METAR CYSC 230600Z AUTO 06005KT 9SM CLR M02/M05 A3023 RMK SLP249
CYSC;2003-11-23 07:00;METAR CYSC 230700Z AUTO 07005KT 9SM CLR M02/M05 A3023 RMK SLP251
CYSC;2003-11-23 08:00;METAR CYSC 230800Z AUTO 06003KT 9SM CLR M02/M06 A3023 RMK SLP251
CYSC;2003-11-23 09:00;METAR CYSC 230900Z AUTO 07005KT 9SM CLR M03/M06 A3023 RMK SLP250
CYSC;2003-11-23 10:00;METAR CYSC 231000Z AUTO 07005KT 9SM CLR M03/M06 A3025 RMK SLP257
CYSC;2003-11-23 11:00;METAR CYSC 231100Z AUTO 07005KT 9SM CLR M03/M06 A3024 RMK SLP257
CYSC;2003-11-23 12:00;METAR CYSC 231200Z AUTO 09005KT 9SM CLR M04/M06 A3025 RMK SLP259
CYSC;2003-11-23 13:00;METAR CYSC 231300Z 07005KT 15SM SCT250 M02/M06 A3027 RMK CI2 FROIN SLP262
CYSC;2003-11-23 14:00;METAR CYSC 231400Z 07006KT 15SM SCT250 M00/M04 A3025 RMK CI2 SLP258
CYSC;2003-11-23 15:00;METAR CYSC 231500Z 05005KT 15SM FEW120 SCT250 02/M04 A3024 RMK AC1CI2 SLP253
CYSC;2003-11-23 16:00;METAR CYSC 231600Z 05005KT 15SM SCT250 04/M03 A3022 RMK CI2 SLP246
CYSC;2003-11-23 17:00;METAR CYSC 231700Z 07005KT 15SM FEW250 06/M02 A3019 RMK CI1 CC ASOCTD SLP235
CYSC;2003-11-23 18:00;METAR CYSC 231800Z 04004KT 15SM FEW250 08/M02 A3017 RMK CI1 SLP226
CYSC;2003-11-23 19:00;METAR CYSC 231900Z 06004KT 15SM FEW120 SCT250 09/M01 A3014 RMK AC1CI2 SLP217
CYSC;2003-11-23 20:00;METAR CYSC 232000Z 05002KT 15SM FEW150 SCT250 08/M02 A3014 RMK AC2CI2 SLP216
CYSC;2003-11-23 21:00;METAR CYSC 232100Z 08004KT 15SM FEW140 BKN250 06/M02 A3014 RMK AC2CI2 SLP215
CYSC;2003-11-23 22:00;METAR CYSC 232200Z 08003KT 15SM SCT120 BKN250 06/M03 A3014 RMK AC3CI2 LAST MANNED OB/NEXT 241300 SLP217
CYSC;2003-11-23 23:00;METAR CYSC 232300Z AUTO 10005KT 9SM CLR 04/M01 A3013 RMK SLP214
CYSC;2003-11-24 00:00;METAR CYSC 240000Z AUTO 11003KT 9SM CLR 03/M02 A3012 RMK SLP213
CYSC;2003-11-24 01:00;METAR CYSC 240100Z AUTO 11005KT 9SM CLR 04/M03 A3010 RMK SLP204
CYSC;2003-11-24 02:00;METAR CYSC 240200Z AUTO 09002KT 9SM CLR 02/M03 A3009 RMK SLP202
CYSC;2003-11-24 03:00;METAR CYSC 240300Z AUTO 11003KT 9SM CLR 01/M04 A3008 RMK SLP197
CYSC;2003-11-24 04:00;METAR CYSC 240400Z AUTO 12004KT 9SM CLR 00/M04 A3007 RMK SLP194
CYSC;2003-11-24 05:00;METAR CYSC 240500Z AUTO 12003KT 9SM CLR M01/M04 A3006 RMK SLP190
CYSC;2003-11-24 06:00;METAR CYSC 240600Z AUTO 13007KT 9SM CLR 03/M05 A3005 RMK SLP183
CYSC;2003-11-24 07:00;METAR CYSC 240700Z AUTO 12006KT 9SM CLR 03/M06 A3005 RMK SLP183
CYSC;2003-11-24 08:00;METAR CYSC 240800Z AUTO 10004KT 9SM CLR 01/M06 A3004 RMK SLP181
CYSC;2003-11-24 09:00;METAR CYSC 240900Z AUTO 10004KT 9SM CLR M01/M06 A3003 RMK SLP178
CYSC;2003-11-24 10:00;METAR CYSC 241000Z AUTO 12004KT 9SM CLR 01/M05 A3001 RMK SLP173
CYSC;2003-11-24 11:00;METAR CYSC 241100Z AUTO 10004KT 9SM CLR 03/M05 A3000 RMK SLP170
CYSC;2003-11-24 12:00;METAR CYSC 241200Z AUTO 09005KT 9SM CLR 02/M05 A2998 RMK SLP163
CYSC;2003-11-24 13:00;METAR CYSC 241300Z 09003KT 15SM FEW180 BKN250 04/M03 A2998 RMK AC1CI2 SLP161
CYSC;2003-11-24 14:00;METAR CYSC 241400Z 11003KT 15SM FEW035 SCT120 BKN250 08/M01 A2996 RMK SC1AC2CI2 CC ASOCTD SLP155
CYSC;2003-11-24 15:00;METAR CYSC 241500Z 11002KT 15SM SCT120 BKN250 10/M01 A2994 RMK AC3CI2 SLP146
CYSC;2003-11-24 16:00;METAR CYSC 241600Z 17003KT 15SM SCT120 BKN250 12/00 A2991 RMK AC3CI2 SLP137
CYSC;2003-11-24 17:00;METAR CYSC 241700Z 16007KT 15SM FEW120 BKN250 14/01 A2988 RMK AC2CI2 SLP125
CYSC;2003-11-24 18:00;METAR CYSC 241800Z 17012KT 15SM FEW120 SCT250 16/01 A2984 RMK AC1CI2 SLP111
CYSC;2003-11-24 19:00;METAR CYSC 241900Z 16010G19KT 15SM FEW250 15/00 A2981 RMK CI1 SLP101
CYSC;2003-11-24 20:00;METAR CYSC 242000Z 12007KT 15SM FEW250 14/M01 A2979 RMK CI0 SLP092
CYSC;2003-11-24 21:00;METAR CYSC 242100Z 14007KT 15SM FEW250 12/M02 A2976 RMK CI0 SLP086
CYSC;2003-11-24 22:00;METAR CYSC 242200Z 13009KT 15SM FEW250 09/M02 A2975 RMK CI0 LAST MANNED OB/NEXT 251300 SLP083
CYSC;2003-11-24 23:00;METAR CYSC 242300Z AUTO 12009KT 9SM CLR 07/M02 A2974 RMK SLP080
CYSC;2003-11-25 00:00;METAR CYSC 250000Z AUTO 11006KT 9SM CLR 07/M02 A2971 RMK SLP071
CYSC;2003-11-25 01:00;METAR CYSC 250100Z AUTO 11006KT 9SM CLR 07/M02 A2969 RMK SLP063
CYSC;2003-11-25 02:00;METAR CYSC 250200Z AUTO 13006KT 9SM CLR 05/M02 A2970 RMK SLP065
CYSC;2003-11-25 03:00;METAR CYSC 250300Z AUTO 00000KT 9SM CLR 05/M02 A2972 RMK SLP072
CYSC;2003-11-25 04:00;METAR CYSC 250400Z AUTO 00000KT 9SM CLR 03/M03 A2974 RMK SLP078
CYSC;2003-11-25 05:00;METAR CYSC 250500Z AUTO 24011KT 9SM SCT057 SCT070 07/M01 A2976 RMK SLP083
CYSC;2003-11-25 06:00;METAR CYSC 250600Z AUTO 28014G21KT 9SM OVC019 OVC048 05/00 A2978 RMK SLP090
CYSC;2003-11-25 07:00;METAR CYSC 250700Z AUTO 29009KT 6SM -UP OVC006 02/00 A2980 RMK SLP099
CYSC;2003-11-25 08:00;METAR CYSC 250800Z AUTO 27007KT 9SM -UP BKN007 01/M01 A2982 RMK SLP106
CYSC;2003-11-25 09:00;METAR CYSC 250900Z AUTO 28007KT 2 1/4SM -SN VV005 00/M01 A2982 RMK SLP107
CYSC;2003-11-25 10:00;METAR CYSC 251000Z AUTO 26008KT 5SM VV012 M00/M02 A2984 RMK PCPN 0.5MM PAST HR SLP112
CYSC;2003-11-25 11:00;METAR CYSC 251100Z AUTO 26011KT 9SM OVC017 00/M03 A2987 RMK SLP125
CYSC;2003-11-25 12:00;METAR CYSC 251200Z AUTO 27015KT 9SM FEW024 FEW038 BKN051 M00/M05 A2990 RMK SLP134
CYSC;2003-11-25 13:00;METAR CYSC 251300Z 27009KT 15SM FEW047 FEW120 FEW250 M01/M07 A2993 RMK SC1AC1CI0 /S02 AFT 22Z/ SLP145
CYSC;2003-11-25 14:00;METAR CYSC 251400Z 27013G20KT 15SM FEW034 FEW120 FEW250 M00/M07 A2995 RMK CU1AC1CI0 AC TR SLP153
CYSC;2003-11-25 15:00;METAR CYSC 251500Z 26016KT 15SM SCT041 SCT120 M00/M07 A2997 RMK CU3AC1 SLP158
CYSC;2003-11-25 16:00;METAR CYSC 251600Z 26015G28KT 15SM BKN034 BKN093 M00/M07 A2998 RMK CU6AC1 SLP163
CYSC;2003-11-25 17:00;METAR CYSC 251700Z 25013G22KT 15SM BKN034 BKN087 01/M07 A2998 RMK CU5AC1
CYSC;2003-11-25 18:00;METAR CYSC 251800Z 27016G22KT 15SM BKN034 BKN076 BKN250 M00/M08 A2999 RMK CU5AC1CI0 SLP166
CYSC;2003-11-25 19:00;METAR CYSC 251900Z 28012G22KT 15SM SCT036 SCT250 00/M09 A3000 RMK CU3CI0 SLP168
CYSC;2003-11-25 20:00;METAR CYSC 252000Z 27009G20KT 15SM FEW038 M00/M09 A3002 RMK CU2 SLP174
CYSC;2003-11-25 21:00;METAR CYSC 252100Z 28010KT 15SM FEW040 M01/M09 A3004 RMK CU2 SLP183
CYSC;2003-11-25 22:00;METAR CYSC 252200Z 26009KT 15SM FEW030 M02/M09 A3005 RMK CU2 LAST MANNED OB/NEXT 261300 SLP188
CYSC;2003-11-25 23:00;METAR CYSC 252300Z AUTO 23003KT 9SM FEW034 M03/M09 A3006 RMK SLP194
CYSC;2003-11-26 00:00;METAR CYSC 260000Z AUTO 20003KT 9SM CLR M03/M09 A3007 RMK SLP195
CYSC;2003-11-26 01:00;METAR CYSC 260100Z AUTO 18003KT 9SM CLR M04/M09 A3007 RMK SLP198
CYSC;2003-11-26 02:00;METAR CYSC 260200Z AUTO 17003KT 9SM CLR M04/M09 A3006 RMK SLP194
CYSC;2003-11-26 03:00;METAR CYSC 260300Z AUTO 19004KT 9SM CLR M04/M09 A3007 RMK SLP195
CYSC;2003-11-26 04:00;METAR CYSC 260400Z AUTO 20002KT 9SM CLR M05/M09 A3007 RMK SLP197
CYSC;2003-11-26 05:00;METAR CYSC 260500Z AUTO 00000KT 9SM CLR M05/M09 A3007 RMK SLP195
CYSC;2003-11-26 06:00;METAR CYSC 260600Z AUTO 00000KT 9SM CLR M05/M08 A3007 RMK SLP198
CYSC;2003-11-26 07:00;METAR CYSC 260700Z AUTO 00000KT 9SM CLR M05/M07 A3008 RMK SLP202
CYSC;2003-11-26 08:00;METAR CYSC 260800Z AUTO 09002KT 9SM BKN028 M05/M07 A3008 RMK SLP199
CYSC;2003-11-26 09:00;METAR CYSC 260900Z AUTO 00000KT 9SM CLR M05/M07 A3007 RMK SLP196
CYSC;2003-11-26 10:00;METAR CYSC 261000Z AUTO 00000KT 9SM CLR M05/M07 A3007 RMK SLP196
CYSC;2003-11-26 11:00;METAR CYSC 261100Z AUTO 35003KT 9SM CLR M06/M08 A3007 RMK SLP199
CYSC;2003-11-26 12:00;METAR CYSC 261200Z AUTO 02002KT 9SM CLR M06/M08 A3007 RMK SLP199
CYSC;2003-11-26 13:00;METAR CYSC 261300Z 00000KT 15SM SCT140 BKN250 M03/M06 A3008 RMK AC3CI2 SLP201
CYSC;2003-11-26 14:00;METAR CYSC 261400Z 00000KT 15SM SCT140 BKN250 M01/M05 A3008 RMK AC3CI2 SLP200
CYSC;2003-11-26 15:00;METAR CYSC 261500Z 20002KT 15SM SCT140 BKN250 01/M05 A3008 RMK AC3CI2 SLP197
CYSC;2003-11-26 16:00;METAR CYSC 261600Z 18006KT 15SM BKN140 BKN250 01/M06 A3006 RMK AS5CI2 CC ASOCTD SUN DMLY VSB SLP192
CYSC;2003-11-26 17:00;METAR CYSC 261700Z 23007KT 15SM BKN140 BKN250 02/M05 A3007 RMK AS5CI2 SLP195
CYSC;2003-11-26 18:00;METAR CYSC 261800Z 23007KT 15SM FEW097 BKN140 BKN250 02/M05 A3007 RMK AC2AS3CI1 SLP194
CYSC;2003-11-26 19:00;METAR CYSC 261900Z 22006KT 15SM FEW120 FEW250 04/M05 A3007 RMK AC1CI1 SLP194
CYSC;2003-11-26 20:00;METAR CYSC 262000Z 23005KT 15SM FEW120 FEW250 03/M05 A3008 RMK AC1CI0 SLP198
CYSC;2003-11-26 21:00;METAR CYSC 262100Z 21003KT 15SM FEW120 FEW250 02/M06 A3008 RMK AC1CI0
CYSC;2003-11-26 22:00;METAR CYSC 262200Z 20003KT 15SM FEW250 M02/M06 A3010 RMK CI0 LAST MANNED OB/NEXT 271300 SLP205
CYSC;2003-11-26 23:00;METAR CYSC 262300Z AUTO 19002KT 9SM CLR M03/M07 A3010 RMK SLP209
CYSC;2003-11-27 00:00;METAR CYSC 270000Z AUTO 08003KT 9SM CLR M04/M06 A3012 RMK SLP215
CYSC;2003-11-27 01:00;METAR CYSC 270100Z AUTO 09002KT 9SM CLR M04/M07 A3014 RMK SLP220
CYSC;2003-11-27 02:00;METAR CYSC 270200Z AUTO 09002KT 9SM CLR M05/M07 A3016 RMK SLP226
CYSC;2003-11-27 03:00;METAR CYSC 270300Z AUTO 11002KT 9SM CLR M04/M06 A3017 RMK SLP230
CYSC;2003-11-27 04:00;METAR CYSC 270400Z AUTO 12002KT 9SM CLR M05/M07 A3019 RMK SLP235
CYSC;2003-11-27 05:00;METAR CYSC 270500Z AUTO 00000KT 9SM CLR M06/M08 A3020 RMK SLP240
CYSC;2003-11-27 06:00;METAR CYSC 270600Z AUTO 00000KT 9SM CLR M07/M09 A3021 RMK ICG PAST HR SLP245
CYSC;2003-11-27 07:00;METAR CYSC 270700Z AUTO 09002KT 9SM CLR M07/M09 A3022 RMK ICG SLP249
CYSC;2003-11-27 08:00;METAR CYSC 270800Z AUTO 08002KT 9SM FEW039 M05/M08 A3023 RMK ICG SLP250
CYSC;2003-11-27 09:00;METAR CYSC 270900Z AUTO 10003KT 9SM BKN035 M05/M07 A3023 RMK ICG PAST HR SLP252
CYSC;2003-11-27 10:00;METAR CYSC 271000Z AUTO 12002KT 9SM OVC035 M05/M07 A3025 RMK SLP257
CYSC;2003-11-27 11:00;METAR CYSC 271100Z AUTO 10003KT 9SM CLR M06/M08 A3025 RMK SLP260
CYSC;2003-11-27 12:00;METAR CYSC 271200Z AUTO 00000KT 9SM CLR M07/M09 A3026 RMK SLP262
CYSC;2003-11-27 13:00;METAR CYSC 271300Z 04002KT 15SM FEW250 M05/M07 A3027 RMK CI0 SLP266
CYSC;2003-11-27 14:00;METAR CYSC 271400Z 06002KT 15SM FEW250 M02/M05 A3027 RMK CI1 SLP265
CYSC;2003-11-27 15:00;METAR CYSC 271500Z 00000KT 15SM FEW250 01/M04 A3027 RMK CI1 SLP264
CYSC;2003-11-27 16:00;METAR CYSC 271600Z 00000KT 15SM FEW140 SCT250 05/M03 A3026 RMK AC1CI1 SLP261
CYSC;2003-11-27 17:00;METAR CYSC 271700Z 00000KT 15SM SCT250 06/M02 A3022 RMK CI2 CC ASOCTD SLP247
CYSC;2003-11-27 18:00;METAR CYSC 271800Z 00000KT 15SM FEW220 SCT250 07/M02 A3021 RMK CC2CI1 SLP242
CYSC;2003-11-27 19:00;METAR CYSC 271900Z 11005KT 15SM FEW180 BKN250 07/M02 A3020 RMK AC2CI2 SLP237
CYSC;2003-11-27 20:00;METAR CYSC 272000Z 00000KT 15SM FEW180 BKN250 07/M03 A3021 RMK AC2CI2 SLP241
CYSC;2003-11-27 21:00;METAR CYSC 272100Z 06002KT 15SM SCT110 BKN150 BKN250 04/M04 A3018 RMK AC3AC2CI1 SLP234
CYSC;2003-11-27 22:00;METAR CYSC 272200Z 06004KT 15SM SCT099 BKN150 BKN250 04/M03 A3017 RMK AC3AC2CI1 LAST MANNED OB/NEXT 281300 SLP228
CYSC;2003-11-27 23:00;METAR CYSC 272300Z AUTO 07005KT 9SM FEW089 04/M03 A3017 RMK SLP230
CYYG;2004-08-15 00:00;METAR CYYG 150000Z 25011G16KT 15SM FEW030 21/19 A3005 RMK SC2 SLP175
CYYG;2004-08-15 01:00;METAR CYYG 150100Z 25009KT 15SM FEW034 21/19 A3007 RMK SC2 SLP182
CYYG;2004-08-15 02:00;METAR CYYG 150200Z 25007KT 15SM FEW034 20/19 A3009 RMK SC1 SLP189
CYYG;2004-08-15 03:00;METAR CYYG 150300Z 25007KT 15SM FEW034 BKN230 20/18 A3009 RMK SC1CI1 SLP191
CYYG;2004-08-15 04:00;METAR CYYG 150400Z 25006KT 15SM BKN220 BKN240 19/18 A3011 RMK CI5CI1 SLP195
CYYG;2004-08-15 05:00;METAR CYYG 150500Z 27005KT 15SM BKN220 19/17 A3011 RMK CI2 SLP197
CYYG;2004-08-15 06:00;METAR CYYG 150600Z 27006KT 15SM BKN230 18/16 A3012 RMK CI2 SLP201
CYYG;2004-08-15 07:00;METAR CYYG 150700Z 27004KT 15SM FEW230 17/16 A3015 RMK CI1 SLP210
CYYG;2004-08-15 08:00;METAR CYYG 150800Z 28004KT 15SM BKN044 17/16 A3016 RMK SC6 SLP212
CYYG;2004-08-15 09:00;METAR CYYG 150900Z 29005KT 15SM FEW050 SCT230 17/15 A3017 RMK SC1CI1 SLP218
CYYG;2004-08-15 10:00;METAR CYYG 151000Z 28006KT 15SM FEW056 BKN230 17/15 A3020 RMK SC2CI1 SLP227
CYYG;2004-08-15 11:00;METAR CYYG 151100Z 29006KT 15SM FEW056 BKN210 18/15 A3022 RMK SC1CI4 SLP232
CYYG;2004-08-15 12:00;METAR CYYG 151200Z 31007KT 15SM SCT210 20/15 A3023 RMK CI2 SLP238
CYYG;2004-08-15 13:00;METAR CYYG 151300Z 28005KT 15SM FEW210 21/15 A3025 RMK CI2 SLP243
CYYG;2004-08-15 14:00;METAR CYYG 151400Z 29008KT 15SM FEW030 FEW140 FEW210 22/14 A3025 RMK CF1AC1CI1 SLP245
CYYG;2004-08-15 15:00;METAR CYYG 151500Z 30010KT 15SM FEW050 SCT140 BKN220 23/11 A3026 RMK SC2AC2CI2 SLP246
CYYG;2004-08-15 16:00;METAR CYYG 151600Z 31008KT 15SM FEW050 SCT140 BKN220 24/13 A3026 RMK
CYYG;2004-08-15 17:00;METAR CYYG 151700Z 35007KT 15SM FEW051 SCT140 BKN220 21/14 A3026 RMK SC2AC2CI2 SLP248
CYYG;2004-08-15 18:00;METAR CYYG 151800Z 34004KT 15SM FEW050 SCT140 BKN220 22/14 A3027 RMK SC2AC2CI2 SLP250
CYYG;2004-08-15 19:00;METAR CYYG 151900Z 02005KT 15SM BKN120 BKN220 21/12 A3026 RMK AC5CI2 SLP247
CYYG;2004-08-15 20:00;METAR CYYG 152000Z 36005KT 15SM BKN120 OVC220 20/13 A3027 RMK AC5CI2 SLP249
CYYG;2004-08-15 21:00;METAR CYYG 152100Z 36003KT 15SM BKN120 OVC220 19/13 A3027 RMK AC6CI2
CYYG;2004-08-15 22:00;METAR CYYG 152200Z 02003KT 15SM FEW120 BKN140 BKN300 19/13 A3026 RMK AC2AC3CI2 SLP247
CYYG;2004-08-15 23:00;METAR CYYG 152300Z 00000KT 15SM VCSH BKN130 BKN300 18/14 A3026 RMK AC6CI1 SLP248
CYYG;2004-08-16 00:00;METAR CYYG 160000Z 00000KT 15SM BKN130 BKN300 17/14 A3028 RMK AC6CI1 SLP254
CYYG;2004-08-16 01:00;METAR CYYG 160100Z 00000KT 15SM FEW085 BKN130 BKN300 17/12 A3029 RMK AC2AC3CI2 SLP258
CYYG;2004-08-16 02:00;METAR CYYG 160200Z 00000KT 15SM FEW085 BKN110 18/12 A3029 RMK AC2AC6 SLP256
CYYG;2004-08-16 03:00;METAR CYYG 160300Z 00000KT 15SM OVC093 17/14 A3028 RMK AC8 SLP254
CYYG;2004-08-16 04:00;METAR CYYG 160400Z 00000KT 15SM BKN078 OVC093 17/14 A3028 RMK AC5AC3 SLP255
CYYG;2004-08-16 05:00;METAR CYYG 160500Z 00000KT 15SM BKN077 OVC091 17/13 A3027 RMK AC6AC2 SLP251
CYYG;2004-08-16 06:00;METAR CYYG 160600Z 00000KT 15SM OVC088 16/14 A3027 RMK AC8 SLP250
CYYG;2004-08-16 07:00;METAR CYYG 160700Z 00000KT 15SM OVC093 15/14 A3025 RMK AC8 SLP245
CYYG;2004-08-16 08:00;METAR CYYG 160800Z 00000KT 15SM OVC095 16/14 A3024 RMK AC8 SLP241
CYYG;2004-08-16 09:00;METAR CYYG 160900Z 00000KT 15SM FEW085 BKN099 BKN300 15/13 A3025 RMK AC2AC4CI1 SLP245
CYYG;2004-08-16 10:00;METAR CYYG 161000Z 00000KT 15SM BKN079 OVC260 16/14 A3026 RMK AC6CI2 SLP248
CYYG;2004-08-16 11:00;METAR CYYG 161100Z 00000KT 15SM BKN083 OVC260 17/15 A3027 RMK AC6CI2 SLP250
CYYG;2004-08-16 12:00;METAR CYYG 161200Z 33003KT 15SM BKN077 OVC260 18/13 A3026 RMK AC6CI2
CYYG;2004-08-16 13:00;METAR CYYG 161300Z 33002KT 15SM OVC084 19/13 A3025 RMK AC7 SLP246
CYYG;2004-08-16 14:00;METAR CYYG 161400Z 00000KT 15SM BKN081 BKN260 21/14 A3025 RMK AC5CI1 SLP246
CYYG;2004-08-16 15:00;METAR CYYG 161500Z 00000KT 15SM FEW032 BKN081 BKN260 22/13 A3024 RMK CU2AC4CI0 SLP241
CYYG;2004-08-16 16:00;METAR CYYG 161600Z 04004KT 15SM FEW040 BKN080 22/13 A3021 RMK SC2AC4 SLP229
CYYG;2004-08-16 17:00;METAR CYYG 161700Z 01003KT 15SM SCT043 BKN080 21/13 A3020 RMK SC3AC3 SLP228
CYYG;2004-08-16 18:00;METAR CYYG 161800Z 35003KT 15SM SCT045 BKN080 BKN260 21/14 A3018 RMK SC3AC3CI0 SLP221
CYYG;2004-08-16 19:00;METAR CYYG 161900Z 01005KT 15SM SCT045 BKN080 BKN260 21/13 A3019 RMK SC3AC3CI0 SLP223
CYYG;2004-08-16 20:00;METAR CYYG 162000Z 34004KT 15SM FEW040 BKN130 BKN240 21/13 A3018 RMK SC2AC2CI1 SLP219
CYYG;2004-08-16 21:00;METAR CYYG 162100Z 36003KT 15SM FEW038 BKN140 OVC240 20/13 A3016 RMK SC2AC3CS3 SLP214
CYYG;2004-08-16 22:00;METAR CYYG 162200Z 00000KT 15SM FEW038 BKN140 OVC240 20/14 A3015 RMK SC2AC3CI2 SLP210
CYYG;2004-08-16 23:00;METAR CYYG 162300Z 00000KT 15SM FEW038 SCT110 OVC240 18/13 A3015 RMK SC1AC3CI3 SLP209
CYYG;2004-08-17 00:00;METAR CYYG 170000Z 00000KT 15SM SCT110 OVC240 18/12 A3015 RMK AC4CI4 SLP210
CYYG;2004-08-17 01:00;METAR CYYG 170100Z 00000KT 15SM SCT110 OVC240 17/12 A3014 RMK AC4CI4 SLP206
CYYG;2004-08-17 02:00;METAR CYYG 170200Z 00000KT 15SM BKN110 OVC240 16/14 A3012 RMK AC6CI2 SLP201
CYYG;2004-08-17 03:00;METAR CYYG 170300Z 00000KT 15SM BKN110 OVC240 17/13 A3012 RMK AC6CI2 SLP198
CYYG;2004-08-17 04:00;METAR CYYG 170400Z 00000KT 15SM BKN100 OVC240 17/14 A3009 RMK AC6CI2 SLP191
CYYG;2004-08-17 05:00;METAR CYYG 170500Z 00000KT 15SM OVC110 15/14 A3007 RMK AC8 SLP183
CYYG;2004-08-17 06:00;METAR CYYG 170600Z 00000KT 15SM -SHRA OVC110 15/14 A3005 RMK AC8 SLP177
CYYG;2004-08-17 07:00;METAR CYYG 170700Z 00000KT 15SM OVC110 15/14 A3004 RMK AC8 SLP173
CYYG;2004-08-17 08:00;METAR CYYG 170800Z 00000KT 15SM -SHRA OVC110 15/14 A3003 RMK AC8 SLP169
CYYG;2004-08-17 09:00;METAR CYYG 170900Z 00000KT 15SM -SHRA FEW040 OVC110 15/14 A3002 RMK SC1AC7 SLP166
CYYG;2004-08-17 10:00;METAR CYYG 171000Z 00000KT 15SM -SHRA FEW040 OVC070 14/13 A3001 RMK SC2AC6 SLP162
CYYG;2004-08-17 11:00;METAR CYYG 171100Z 18005KT 15SM -SHRA FEW040 OVC070 15/14 A3005 RMK SC2AC6 SLP175
CYYG;2004-08-17 12:00;METAR CYYG 171200Z 11008KT 10SM -SHRA OVC035 15/14 A2999 RMK SC8 SLP157
CYYG;2004-08-17 13:00;METAR CYYG 171300Z 09005KT 15SM SCT035 OVC091 14/13 A2997 RMK SC3AC5 SLP150
CYYG;2004-08-17 14:00;METAR CYYG 171400Z 26004KT 15SM SCT040 OVC100 15/13 A3000 RMK SC3AC5 SLP158
CYYG;2004-08-17 15:00;METAR CYYG 171500Z 00000KT 15SM FEW010 FEW057 BKN110 17/14 A2998 RMK SC1SC1AC6 SLP152
CYYG;2004-08-17 16:00;METAR CYYG 171600Z 07002KT 15SM FEW015 SCT120 BKN300 17/13 A2998 RMK CU1AC3CI2 SLP152
CYYG;2004-08-17 17:00;METAR CYYG 171700Z 00000KT 15SM BKN022 BKN300 18/13 A2997 RMK SC5CI2 SLP149
CYYG;2004-08-17 18:00;METAR CYYG 171800Z 05006KT 15SM BKN030 BKN300 20/15 A2996 RMK SC5CI1 SLP144
CYYG;2004-08-17 19:00;METAR CYYG 171900Z 03005KT 15SM FEW030 SCT300 20/13 A2995 RMK SC2CI2 SLP141
CYYG;2004-08-17 20:00;METAR CYYG 172000Z 06006KT 15SM FEW030 SCT300 20/13 A2995 RMK SC2CI1
CYYG;2004-08-17 21:00;METAR CYYG 172100Z 04004KT 15SM FEW030 19/12 A2995 RMK SC2 SLP143
CYYG;2004-08-17 22:00;METAR CYYG 172200Z 07003KT 15SM FEW030 FEW300 19/12 A2996 RMK SC1CI1
CYYG;2004-08-17 23:00;METAR CYYG 172300Z 00000KT 15SM FEW300 17/12 A2996 RMK CI1 SLP145
CYYG;2004-08-18 00:00;METAR CYYG 180000Z 19005KT 15SM FEW300 16/12 A2997 RMK CI1 SLP148
CYYG;2004-08-18 01:00;METAR CYYG 180100Z 25004KT 15SM FEW300 15/12 A2997 RMK CI1 SLP149
CYYG;2004-08-18 02:00;METAR CYYG 180200Z 24005KT 15SM SKC 15/13 A2996 RMK SLP147
CYYG;2004-08-18 03:00;METAR CYYG 180300Z 25004KT 15SM SKC 16/13 A2996 RMK SLP147
CYYG;2004-08-18 05:00;METAR CYYG 180500Z 24005KT 15SM SKC 16/14 A2996 RMK SLP144
CYYG;2004-08-18 06:00;METAR CYYG 180600Z 24006KT 15SM SKC 16/15 A2995 RMK SLP143
CYYG;2004-08-18 07:00;METAR CYYG 180700Z 00000KT 15SM FEW070 16/15 A2995 RMK AC2 SLP142
CYYG;2004-08-18 08:00;METAR CYYG 180800Z 16004KT 15SM FEW070 14/13 A2995 RMK AC2 SLP141
CYYG;2004-08-18 09:00;METAR CYYG 180900Z 22005KT 15SM SCT082 BKN300 16/15 A2996 RMK AC3CI2 SLP144
CYYG;2004-08-18 10:00;METAR CYYG 181000Z 22005KT 15SM SCT094 BKN300 16/15 A2996 RMK AC3CI2 SLP147
CYYG;2004-08-18 11:00;METAR CYYG 181100Z 23005KT 15SM FEW090 SCT300 17/15 A2998 RMK AC2CI2 SLP151
CYYG;2004-08-18 12:00;METAR CYYG 181200Z 23006KT 15SM FEW090 SCT300 18/15 A2998 RMK AC1CI2 SLP153
CYYG;2004-08-18 13:00;METAR CYYG 181300Z 25007KT 15SM SCT300 20/15 A2999 RMK CI2 SLP155
CYYG;2004-08-18 14:00;METAR CYYG 181400Z 22002KT 15SM SCT300 22/16 A2998 RMK CI3 SLP154
CYYG;2004-08-18 15:00;METAR CYYG 181500Z 24004KT 15SM FEW300 24/17 A2998 RMK CI2 SLP154
CYYG;2004-08-18 16:00;METAR CYYG 181600Z 26009KT 15SM FEW040 SCT300 25/15 A2998 RMK CU1CI2 SLP152
CYYG;2004-08-18 17:00;METAR CYYG 181700Z 26011KT 15SM FEW040 25/14 A2998 RMK CU2 SLP152
CYYG;2004-08-18 18:00;METAR CYYG 181800Z 25010KT 15SM FEW040TCU FEW300 25/14 A2997 RMK TCU2CI1 SLP150
CYYG;2004-08-18 19:00;METAR CYYG 181900Z 25011KT 15SM FEW040 FEW080 26/15 A2996 RMK CU1AC1 SLP145
CYYG;2004-08-18 20:00;METAR CYYG 182000Z 24011KT 15SM FEW040 FEW080 25/14 A2996 RMK CU1AC1
CYYG;2004-08-18 21:00;METAR CYYG 182100Z 25008KT 15SM FEW040TCU FEW080 SCT300 24/15 A2996 RMK TCU1AC1CI1 SLP145
CYYG;2004-08-18 22:00;METAR CYYG 182200Z 25009KT 15SM FEW040TCU BKN300 23/14 A2996 RMK TCU1CI2 SLP146
CYYG;2004-08-18 23:00;METAR CYYG 182300Z 25008KT 15SM FEW040 BKN300 21/15 A2998 RMK SC1CI2
CYYG;2004-08-19 00:00;METAR CYYG 190000Z 23007KT 15SM FEW040 BKN300 19/15 A3000 RMK SC1CI2 SLP159
CYYG;2004-08-19 01:00;METAR CYYG 190100Z 24007KT 15SM SCT300 19/15 A3001 RMK CI1 SLP162
CYYG;2004-08-19 02:00;METAR CYYG 190200Z 23007KT 15SM SCT300 18/15 A3001 RMK CI1 SLP164
CYYG;2004-08-19 03:00;METAR CYYG 190300Z 24009KT 15SM SKC 18/15 A3002 RMK SLP167
CYYG;2004-08-19 04:00;METAR CYYG 190400Z 23007KT 15SM SKC 17/15 A3003 RMK SLP168
CYYG;2004-08-19 05:00;METAR CYYG 190500Z 23007KT 15SM SKC 16/15 A3003 RMK SLP168
CYYG;2004-08-19 06:00;METAR CYYG 190600Z 23008KT 15SM SKC 16/15 A3003 RMK SLP168
CYYG;2004-08-19 07:00;METAR CYYG 190700Z 22007KT 15SM SKC 16/15 A3003 RMK SLP169
CYYG;2004-08-19 08:00;METAR CYYG 190800Z 22007KT 15SM SKC 16/15 A3002 RMK SLP167
CYYG;2004-08-19 09:00;METAR CYYG 190900Z 23008KT 6SM BR BKN006 16/15 A3004 RMK SF7 SLP171
CYYG;2004-08-19 10:00;METAR CYYG 191000Z 22010KT 10SM BKN007 16/15 A3004 RMK SF5 SLP172
CYYG;2004-08-19 11:00;METAR CYYG 191100Z 22011KT 10SM BKN007 17/15 A3005 RMK SF7 SLP176
CYYG;2004-08-19 12:00;METAR CYYG 191200Z 23011KT 10SM BKN007 18/16 A3005 RMK SF6 SLP177
CYYG;2004-08-19 13:00;METAR CYYG 191300Z 21010G15KT 12SM BKN008 19/16 A3006 RMK SF5 SLP180
CYYG;2004-08-19 14:00;METAR CYYG 191400Z 21012KT 15SM BKN300 20/16 A3006 RMK CI2 SLP180
CYYG;2004-08-19 15:00;METAR CYYG 191500Z 21011KT 15SM BKN300 22/17 A3005 RMK CI2 SLP177
CYYG;2004-08-19 16:00;METAR CYYG 191600Z 21009G16KT 15SM FEW020 BKN300 23/17 A3003 RMK CU1CI2 SLP170
CYYG;2004-08-19 17:00;METAR CYYG 191700Z 21013KT 15SM BKN300 24/14 A3002 RMK CI2 SLP167
CYYG;2004-08-19 18:00;METAR CYYG 191800Z 22013G19KT 15SM SCT300 25/14 A3001 RMK CI1 SLP163
CYYG;2004-08-19 19:00;METAR CYYG 191900Z 22010KT 15SM FEW030 FEW300 25/15 A3000 RMK CU1CI1 SLP160
CYYG;2004-08-19 20:00;METAR CYYG 192000Z 20010KT 15SM FEW030 FEW300 25/16 A3000 RMK CU1CI0 SLP158
CYYG;2004-08-19 21:00;METAR CYYG 192100Z 19013KT 15SM SCT300 25/15 A2998 RMK CI1 SLP154
CYYG;2004-08-19 22:00;METAR CYYG 192200Z 19013G18KT 15SM FEW160 SCT300 23/15 A2998 RMK AC2CI1 SLP153
CYYG;2004-08-19 23:00;METAR CYYG 192300Z 19013KT 15SM FEW160 SCT300 22/15 A2999 RMK AC2CI0 SLP155
CYYG;2004-08-20 00:00;METAR CYYG 200000Z 19015KT 15SM FEW160 21/15 A2999 RMK AC2 SLP157
CYYG;2004-08-20 01:00;METAR CYYG 200100Z 19015G21KT 15SM FEW044 SCT160 20/15 A2999 RMK SC2AC2 SLP156
CYYG;2004-08-20 02:00;METAR CYYG 200200Z 18015KT 15SM BKN041 20/16 A2999 RMK SC5 SLP155
CYYG;2004-08-20 03:00;METAR CYYG 200300Z 19014KT 15SM BKN040 19/16 A2998 RMK SC5 SLP152
CYYG;2004-08-20 04:00;METAR CYYG 200400Z 19013G18KT 15SM FEW030 BKN044 OVC300 19/16 A2998 RMK SC2SC2CI1 SLP152
CYYG;2004-08-20 05:00;METAR CYYG 200500Z 18013KT 15SM BKN017 OVC160 19/17 A2996 RMK SC6AC1 SLP144
CYYG;2004-08-20 06:00;METAR CYYG 200600Z 18011KT 15SM OVC009 19/17 A2996 RMK SF8 SLP146
CYYG;2004-08-20 07:00;METAR CYYG 200700Z 19014KT 15SM OVC009 20/18 A2995 RMK SF8 SLP143
CYYG;2004-08-20 08:00;METAR CYYG 200800Z 19011KT 15SM BKN006 OVC120 20/18 A2994 RMK SF6AC2 SLP138
CYYG;2004-08-20 09:00;METAR CYYG 200900Z 18009KT 15SM BKN006 OVC016 20/18 A2993 RMK SF6SC2 SLP136
CYYG;2004-08-20 10:00;METAR CYYG 201000Z 18011KT 10SM FEW005 BKN009 OVC013 20/19 A2993 RMK SF1SF4SC3 SLP136
CYYG;2004-08-20 11:00;METAR CYYG 201100Z 19010KT 15SM SCT007 OVC011 20/19 A2995 RMK SF3SC5 SLP142 SLP143
CYYG;2004-08-20 15:00;METAR CYYG 201500Z 22012G17KT 15SM BKN007 OVC015 21/19 A2995 RMK SC6SC2 SLP141
CYYG;2004-08-20 16:00;METAR CYYG 201600Z 22017KT 15SM BKN010 OVC300 22/19 A2994 RMK SC7CI0 SLP140
CYYG;2004-08-20 17:00;METAR CYYG 201700Z 24014G19KT 15SM FEW014 BKN300 23/19 A2994 RMK CU1CI2
CYYG;2004-08-20 18:00;METAR CYYG 201800Z 23013KT 15SM FEW031 BKN300 24/17 A2994 RMK CU1CI2 SLP137
CYYG;2004-08-20 19:00;METAR CYYG 201900Z 23014KT 15SM FEW031 BKN300 25/16 A2993 RMK CU1CI2 SLP134
CYYG;2004-08-20 20:00;METAR CYYG 202000Z 23010G16KT 15SM FEW081 BKN300 24/16 A2992 RMK AC2CI2 SLP132
CYYG;2004-08-20 21:00;METAR CYYG 202100Z 22008KT 15SM FEW081 BKN300 24/16 A2992 RMK AC2CI2
CYYG;2004-08-20 23:00;METAR CYYG 202300Z 23008KT 15SM FEW053 SCT080 BKN300 23/14 A2992 RMK SC2AC2CI1 SLP131
CYYG;2004-08-21 00:00;METAR CYYG 210000Z 23010G15KT 15SM BKN050 OVC300 22/15 A2993 RMK SC5CI2 SLP135
CYYG;2004-08-21 01:00;METAR CYYG 210100Z 23005KT 15SM OVC047 22/15 A2993 RMK SC8 SLP134
CYYG;2004-08-21 02:00;METAR CYYG 210200Z 23006KT 15SM BKN047 OVC240 21/15 A2992 RMK SC6CI1 SLP133
CYYG;2004-08-21 03:00;METAR CYYG 210300Z 23006KT 15SM FEW045 BKN240 20/16 A2992 RMK SC2CI1 SLP132
CYYG;2004-08-21 05:00;METAR CYYG 210500Z 23007KT 15SM FEW170 BKN240 20/17 A2992 RMK AC2CI2 SLP131
CYYG;2004-08-21 04:00;METAR CYYG 210400Z 25006KT 15SM FEW060 BKN240 20/16 A2992 RMK SC2CI2
CYYG;2004-08-21 06:00;METAR CYYG 210600Z 24007KT 15SM FEW170 BKN240 19/18 A2992 RMK AC2CI2 SLP130
CYYG;2004-08-21 07:00;METAR CYYG 210700Z 25005KT 10SM BKN006 OVC100 20/18 A2991 RMK SF6AC2 SLP128
CYYG;2004-08-21 08:00;METAR CYYG 210800Z 23006KT 15SM OVC006 20/18 A2991 RMK SF8 SLP127
CYYG;2004-08-21 09:00;METAR CYYG 210900Z 22007KT 10SM OVC005 19/18 A2991 RMK SF8 SLP127
CYYG;2004-08-21 10:00;METAR CYYG 211000Z 22008KT 3SM BR OVC004 19/18 A2992 RMK ST8 SLP131
CYYG;2004-08-21 11:00;METAR CYYG 211100Z 22008KT 3SM BR OVC005 20/18 A2993 RMK ST8 SLP134
CYYG;2004-08-21 12:00;METAR CYYG 211200Z 23007KT 8SM OVC005 20/18 A2992 RMK ST8 SLP132
CYYG;2004-08-21 13:00;METAR CYYG 211300Z 25007KT 12SM BKN006 BKN280 21/19 A2993 RMK SF6CC2 SLP134
CYYG;2004-08-21 14:00;METAR CYYG 211400Z 21006KT 12SM SCT009 BKN280 22/19 A2990 RMK SC3CC3 SLP127
CYYG;2004-08-21 15:00;METAR CYYG 211500Z 21009KT 10SM OVC008 21/19 A2989 RMK SC8 SLP122
CYYG;2004-08-21 16:00;METAR CYYG 211600Z 16005KT 5SM BR FEW006 OVC009 21/19 A2987 RMK SF2SC6 SLP113
CYYG;2004-08-21 17:00;METAR CYYG 211700Z 16005KT 2SM -SHRA BR BKN003 OVC006 21/20 A2985
CYYG;2004-08-21 18:00;METAR CYYG 211800Z 17009KT 3SM -SHRA BR BKN005 BKN009 OVC014 21/20 A2983 RERA RMK SF5SF2SC2 SLP100
CYYG;2004-08-21 19:00;METAR CYYG 211900Z 18008G15KT 5SM BR FEW006 BKN045 OVC280 22/20 A2979 RMK SF1SC5CI2 SLP089
CYYG;2004-08-21 20:00;METAR CYYG 212000Z 19008KT 5SM BR FEW030 FEW045 OVC200 22/20 A2977 RMK SC2SC1CI6 SLP082
CYYG;2004-08-21 21:00;METAR CYYG 212100Z 18013KT 10SM FEW110 OVC250 23/20 A2974 RMK AC2CI6 SLP070
CYYG;2004-08-21 22:00;METAR CYYG 212200Z 18011G16KT 10SM -SHRA FEW030 BKN100 OVC250 22/20 A2971 RMK SC1AC4CI3 SLP062
CYYG;2004-08-21 23:00;METAR CYYG 212300Z 18015KT 15SM FEW030 BKN100 OVC130 22/19 A2970 RMK SC1AC4AC3 SLP057
CYYG;2004-08-22 00:00;METAR CYYG 220000Z 19013G19KT 15SM FEW040 OVC100 22/20 A2970 RMK SC2AC6 SLP058
CYYG;2004-08-22 01:00;METAR CYYG 220100Z 19014G19KT 15SM -SHRA FEW048 OVC110 22/20 A2968 RMK SC2AS6 SLP050
CYYG;2004-08-22 02:00;METAR CYYG 220200Z 25010G15KT 15SM -SHRA BKN009 OVC018 21/19 A2971 RMK SF6SC2 RERA SLP059
CYYG;2004-08-22 03:00;METAR CYYG 220300Z 25015KT 15SM -SHRA OVC012 20/18 A2972 RMK SC8 SLP063
CYYG;2004-08-22 04:00;METAR CYYG 220400Z 26008KT 15SM -SHRA OVC009 19/17 A2974 RMK SF8 SLP071
CYYG;2004-08-22 05:00;METAR CYYG 220500Z 25005KT 15SM -SHRA SCT006 OVC012 18/17 A2974 RMK SF3SC5 SLP071
CYYG;2004-08-22 06:00;METAR CYYG 220600Z 32004KT 15SM -SHRA FEW006 OVC012 18/17 A2975 RMK SF2SC6 SLP075
CYYG;2004-08-22 07:00;METAR CYYG 220700Z 35005KT 15SM -SHRA OVC022 15/14 A2976 RMK SC8 SLP077
CYYG;2004-08-22 08:00;METAR CYYG 220800Z 31008KT 15SM -SHRA FEW013 OVC030 16/15 A2978 RMK SC2SC6 SLP084
CYYG;2004-08-22 09:00;METAR CYYG 220900Z 33006KT 15SM -RA FEW027 OVC045 15/14 A2980 RMK SC2SC6 SLP092
CYYG;2004-08-22 10:00;METAR CYYG 221000Z 29004KT 15SM -RA BKN021 OVC060 15/14 A2982 RMK SC6SC2 SLP098
CYYG;2004-08-22 11:00;METAR CYYG 221100Z 26006KT 15SM FEW010 FEW022 OVC046 16/14 A2985 RMK SF1SC2SC6 SLP108
CYYG;2004-08-22 12:00;METAR CYYG 221200Z 31007KT 15SM FEW012 FEW045 BKN300 16/15 A2986 RMK SC1SC1CS6 SLP113
CYYG;2004-08-22 13:00;METAR CYYG 221300Z 32012KT 15SM FEW012 BKN300 17/14 A2989 RMK CF1CS6 SLP121
CYYG;2004-08-22 14:00;METAR CYYG 221400Z 31011KT 15SM FEW012 FEW020 BKN300 17/13 A2991 RMK CF1SC1CS6 SLP129
CYYG;2004-08-22 15:00;METAR CYYG 221500Z 32008KT 15SM FEW018 BKN300 19/13 A2993 RMK SC1CI3 SLP134
CYYG;2004-08-22 16:00;METAR CYYG 221600Z 29009KT 15SM FEW028 BKN300 19/12 A2994 RMK CU1CI2 SLP139
CYYG;2004-08-22 17:00;METAR CYYG 221700Z 31008KT 15SM FEW030 SCT300 19/12 A2996 RMK CU1CI2 SLP144
CYYG;2004-08-22 18:00;METAR CYYG 221800Z 33008KT 15SM FEW030 SCT300 19/11 A2996 RMK CU1CI2 SLP147
CYYG;2004-08-22 19:00;METAR CYYG 221900Z 33011KT 15SM FEW030 FEW300 19/10 A2997 RMK CU1CI2 SLP148
CYYG;2004-08-22 20:00;METAR CYYG 222000Z 34005KT 15SM FEW030 FEW300 19/10 A2997 RMK CU1CI1 SLP149
CYYG;2004-08-22 21:00;METAR CYYG 222100Z 35005KT 15SM FEW030 FEW300 18/10 A2998 RMK CU1CI1 SLP151
CYYG;2004-08-22 22:00;METAR CYYG 222200Z 35004KT 15SM FEW300 18/11 A3000 RMK CI1 SLP158
CYYG;2004-08-22 23:00;METAR CYYG 222300Z 06004KT 15SM FEW300 16/10 A3000 RMK CI1 SLP158
CYYG;2004-08-23 00:00;METAR CYYG 230000Z 11002KT 15SM FEW300 15/09 A3002 RMK CI1 SLP167
CYYG;2004-08-23 01:00;METAR CYYG 230100Z 14004KT 15SM FEW300 13/10 A3003 RMK CI1 SLP170
CYYG;2004-08-23 02:00;METAR CYYG 230200Z 17004KT 15SM SKC 13/10 A3004 RMK SLP171
CYYG;2004-08-23 03:00;METAR CYYG 230300Z 14005KT 15SM SKC 13/09 A3003 RMK SLP169
CYYG;2004-08-23 04:00;METAR CYYG 230400Z 15002KT 15SM SKC 13/10 A3002 RMK SLP167
CYYG;2004-08-23 05:00;METAR CYYG 230500Z 17003KT 15SM SKC 13/10 A3001 RMK SLP164
CYYG;2004-08-23 06:00;METAR CYYG 230600Z 15005KT 15SM SKC 14/11 A3001 RMK SLP161
CYYG;2004-08-23 07:00;METAR CYYG 230700Z 18004KT 15SM SKC 12/11 A3000 RMK SLP160
CYYG;2004-08-23 08:00;METAR CYYG 230800Z 00000KT 15SM SKC 11/11 A3000 RMK SLP158
CYYG;2004-08-23 09:00;METAR CYYG 230900Z 20005KT 15SM FEW300 14/12 A3000 RMK CI1 SLP159
CYYG;2004-08-23 10:00;METAR CYYG 231000Z 19005KT 15SM MIFG FEW300 14/12 A3000 RMK CI1 SLP159
CYYG;2004-08-23 11:00;METAR CYYG 231100Z 20006KT 15SM FEW300 17/14 A2999 RMK CI1 SLP155
CYYG;2004-08-23 12:00;METAR CYYG 231200Z 21012KT 15SM SCT300 18/13 A2999 RMK CI1 SLP157
CYYG;2004-08-23 13:00;METAR CYYG 231300Z 20012KT 15SM FEW012 FEW080 SCT300 18/14 A3000 RMK CF1AC1CI1 SLP158
CYYG;2004-08-23 14:00;METAR CYYG 231400Z 21009KT 15SM FEW020 FEW027 BKN300 20/15 A2999 RMK CU1SC2CI1 SLP156
CYYG;2004-08-23 15:00;METAR CYYG 231500Z 22010KT 15SM FEW024 FEW030 BKN300 20/14 A2998 RMK CU1SC1CI1 SLP151
CYYG;2004-08-23 16:00;METAR CYYG 231600Z 18010G16KT 15SM FEW024 BKN300 20/15 A2996 RMK CU1CI2 SLP144
CYYG;2004-08-23 17:00;METAR CYYG 231700Z 19012G19KT 15SM FEW024 BKN300 22/15 A2993 RMK CU1CI2 SLP134
CYYG;2004-08-23 18:00;METAR CYYG 231800Z 18010G18KT 15SM BKN300 22/15 A2990 RMK CI2 CONTRAILS SLP127
CYYG;2004-08-23 19:00;METAR CYYG 231900Z 16008G17KT 15SM BKN300 23/15 A2988 RMK CI2 CONTRAILS SLP119
CYYG;2004-08-23 20:00;METAR CYYG 232000Z 20013KT 15SM BKN300 23/14 A2987 RMK CI2 SLP116
CYYG;2004-08-23 21:00;METAR CYYG 232100Z 18010KT 15SM BKN300 23/14 A2985 RMK CI1 SLP110
CYYG;2004-08-23 22:00;METAR CYYG 232200Z 18007KT 15SM BKN300 22/14 A2985 RMK CI1 CONTRAILS SLP108
CYYG;2004-08-23 23:00;METAR CYYG 232300Z 19006KT 15SM FEW100 BKN300 20/14 A2986 RMK AC1CI1 SLP111
CYYG;2004-08-24 00:00;METAR CYYG 240000Z 24006KT 15SM FEW100 19/15 A2988 RMK AC2 SLP118
CYYG;2004-08-24 01:00;METAR CYYG 240100Z 24005KT 15SM FEW100 17/10 A2989 RMK AC2 SLP122
CYYG;2004-08-24 02:00;METAR CYYG 240200Z 22007KT 15SM FEW100 18/09 A2990 RMK AC1 SLP124
CYYG;2004-08-24 03:00;METAR CYYG 240300Z 23008KT 15SM SKC 17/12 A2989 RMK SLP122
CYYG;2004-08-24 04:00;METAR CYYG 240400Z 23008KT 15SM SKC 16/12 A2990 RMK SLP125
CYYG;2004-08-24 05:00;METAR CYYG 240500Z 24008KT 15SM SKC 16/13 A2989 RMK SLP122
CYYG;2004-08-24 06:00;METAR CYYG 240600Z 25007KT 15SM FEW130 15/13 A2990 RMK AC2 SLP125
CYYG;2004-08-24 07:00;METAR CYYG 240700Z 26006KT 15SM BKN090 16/14 A2990 RMK AC5 SLP126
CYYG;2004-08-24 08:00;METAR CYYG 240800Z 26007KT 15SM BKN140 16/14 A2992 RMK AC6 SLP131
CYYG;2004-08-24 09:00;METAR CYYG 240900Z 25005KT 15SM FEW080 BKN130 15/14 A2993 RMK AC2AC2 SLP135
CYYG;2004-08-24 10:00;METAR CYYG 241000Z 32006KT 15SM FEW024 SCT080 BKN130 15/12 A2996 RMK SC2AC2AC2 SLP144
CYYG;2004-08-24 11:00;METAR CYYG 241100Z 30005KT 15SM FEW024 FEW070 FEW310 14/10 A2998 RMK SC1AC1CI1 SLP154
CYYG;2004-08-24 12:00;METAR CYYG 241200Z 30007KT 15SM FEW024 FEW070 FEW310 15/09 A2999 RMK SC1AC1CI1 SLP157
CYYG;2004-08-24 13:00;METAR CYYG 241300Z 30008KT 15SM FEW025 FEW310 16/09 A3001 RMK SC1CI1 SLP164
CYYG;2004-08-24 14:00;METAR CYYG 241400Z 30008KT 15SM FEW030 16/09 A3003 RMK SC1 SLP168
CYYG;2004-08-24 15:00;METAR CYYG 241500Z 31009KT 15SM BKN034 17/10 A3003 RMK SC6 SLP168
CYYG;2004-08-24 17:00;METAR CYYG 241700Z 31010KT 15SM BKN028 16/10 A3006 RMK SC7 SLP178
CYYG;2004-08-24 18:00;METAR CYYG 241800Z 32007KT 15SM SCT027 BKN032 16/11 A3006 RMK CU3SC4 SLP181
CYYG;2004-08-24 19:00;METAR CYYG 241900Z 33008KT 15SM SCT026 BKN036 17/12 A3007 RMK CU3SC4 SLP184
CYYG;2004-08-24 20:00;METAR CYYG 242000Z 32010G16KT 15SM SCT025 BKN035 17/11 A3009 RMK CU3SC4 SLP188
CYYG;2004-08-24 21:00;METAR CYYG 242100Z 34010G15KT 15SM FEW025 BKN035 17/11 A3009 RMK CU2SC5 SLP189
CYYG;2004-08-24 22:00;METAR CYYG 242200Z 33007KT 15SM FEW025 BKN043 16/11 A3010 RMK CU2SC5 SLP192
CYYG;2004-08-24 23:00;METAR CYYG 242300Z 33006KT 15SM FEW030 BKN046 16/11 A3012 RMK CU2SC5 SLP199
CYYG;2004-08-25 00:00;METAR CYYG 250000Z 35008G16KT 15SM SCT033 BKN044 16/10 A3015 RMK SC3SC3 SLP210
CYYG;2004-08-25 01:00;METAR CYYG 250100Z 36009KT 15SM FEW035 BKN048 16/10 A3016 RMK SC2SC5 SLP214
CYYG;2004-08-25 02:00;METAR CYYG 250200Z 36009G15KT 15SM FEW035 BKN043 16/09 A3017 RMK SC2SC5 SLP217
CYYG;2004-08-25 03:00;METAR CYYG 250300Z 36007KT 15SM FEW035 BKN044 16/10 A3017 RMK SC2SC5 SLP216
CYYG;2004-08-25 04:00;METAR CYYG 250400Z 35011G16KT 15SM FEW033 BKN040 16/10 A3017 RMK SC2SC5
CYYG;2004-08-25 05:00;METAR CYYG 250500Z 36008KT 15SM FEW031 BKN040 16/10 A3018 RMK SC2SC5 SLP219
CYYG;2004-08-25 06:00;METAR CYYG 250600Z 34006KT 15SM FEW031 FEW039 SCT220 14/10 A3018 RMK CU1SC1CI2 SLP222
CYYG;2004-08-25 07:00;METAR CYYG 250700Z 35004KT 15SM FEW039 FEW220 13/10 A3020 RMK SC1CI1 SLP226
CYYG;2004-08-25 08:00;METAR CYYG 250800Z 35005KT 15SM FEW025 FEW035 13/10 A3020 RMK CU1SC1 SLP229
CYYG;2004-08-25 09:00;METAR CYYG 250900Z 34005KT 15SM FEW025 13/10 A3023 RMK CU2 SLP239
CYYG;2004-08-25 10:00;METAR CYYG 251000Z 33005KT 15SM FEW025 13/10 A3025 RMK CU1 SLP246
CYYG;2004-08-25 11:00;METAR CYYG 251100Z 34006KT 15SM FEW025 15/11 A3027 RMK CF1 SLP250
CYYG;2004-08-25 12:00;METAR CYYG 251200Z 35012G17KT 15SM FEW025 16/11 A3028 RMK CF2 SLP255
CYYG;2004-08-25 13:00;METAR CYYG 251300Z 36012G18KT 15SM SCT025 17/11 A3029 RMK SC3 SLP258
CYYG;2004-08-25 14:00;METAR CYYG 251400Z 02012G19KT 15SM SCT025 17/11 A3030 RMK SC3 SLP261
CYYG;2004-08-25 15:00;METAR CYYG 251500Z 36011G17KT 15SM BKN023 17/11 A3030 RMK SC6 SLP262
CYYG;2004-08-25 16:00;METAR CYYG 251600Z 01011G16KT 15SM BKN023 18/12 A3032 RMK SC6 SLP268
CYYG;2004-08-25 17:00;METAR CYYG 251700Z 36011G16KT 15SM BKN025 17/11 A3032 RMK SC6 SLP269
CYYG;2004-08-25 18:00;METAR CYYG 251800Z 36010G15KT 15SM BKN031 17/11 A3033 RMK SC6 SLP273
CYYG;2004-08-25 19:00;METAR CYYG 251900Z 02010KT 15SM BKN034 17/11 A3033 RMK SC6 SLP272
CYYG;2004-08-25 20:00;METAR CYYG 252000Z 36007KT 15SM BKN029 17/12 A3033 RMK SC6 SLP272
CYYG;2004-08-25 21:00;METAR CYYG 252100Z 01007KT 15SM BKN029 16/11 A3033 RMK SC6 SLP273
CYYG;2004-08-25 22:00;METAR CYYG 252200Z 36005KT 15SM BKN025 BKN300 16/11 A3034 RMK SC6CI1 SLP275
CYYG;2004-08-25 23:00;METAR CYYG 252300Z 35003KT 15SM BKN024 BKN300 15/11 A3035 RMK SC6CI0 SLP277
CYYG;2004-08-26 00:00;METAR CYYG 260000Z 04003KT 15SM BKN024 BKN300 15/11 A3034 RMK SC6CI0 SLP275
CYYG;2004-08-26 01:00;METAR CYYG 260100Z 06003KT 15SM BKN023 14/10 A3036 RMK SC5 SLP280
CYYG;2004-08-26 02:00;METAR CYYG 260200Z 29002KT 15SM BKN026 13/11 A3037 RMK SC6 SLP284
CYYG;2004-08-26 03:00;METAR CYYG 260300Z 00000KT 15SM FEW024 FEW300 12/10 A3036 RMK SC1CI0 CONTRAILS SLP281
CYYG;2004-08-26 04:00;METAR CYYG 260400Z 27002KT 15SM FEW024 FEW300 09/08 A3036 RMK SC1CI0 CONTRAILS SLP280
CYYG;2004-08-26 05:00;METAR CYYG 260500Z 30002KT 15SM FEW300 08/08 A3035 RMK CI0 SLP278
CYYG;2004-08-26 06:00;METAR CYYG 260600Z 29002KT 15SM FEW300 09/08 A3034 RMK CI0 SLP274
CYYG;2004-08-26 07:00;METAR CYYG 260700Z 00000KT 15SM SKC 09/08 A3034 RMK SLP275
CYYG;2004-08-26 08:00;METAR CYYG 260800Z 31002KT 15SM SKC 07/06 A3034 RMK SLP275
CYYG;2004-08-26 09:00;METAR CYYG 260900Z 27002KT 15SM FEW030 FEW300 08/07 A3034 RMK SC1CI0
CYYG;2004-08-26 10:00;METAR CYYG 261000Z 00000KT 15SM MIFG FEW030 FEW300 07/07 A3035 RMK SC1CI0 SLP278
CYYG;2004-08-26 11:00;METAR CYYG 261100Z 00000KT 15SM FEW030 FEW300 13/11 A3036 RMK SC1CI1 SLP282
CYYG;2004-08-26 12:00;METAR CYYG 261200Z 24004KT 15SM FEW030 FEW300 15/12 A3036 RMK SC1CI1 SLP283
CYYG;2004-08-26 13:00;METAR CYYG 261300Z 29005KT 15SM FEW019 SCT300 17/12 A3037 RMK SC2CI1 SLP284
CYYG;2004-08-26 14:00;METAR CYYG 261400Z 00000KT 15SM FEW020 BKN300 18/11 A3035 RMK SC1CI1 SLP277
CYYG;2004-08-26 15:00;METAR CYYG 261500Z 00000KT 15SM FEW020 BKN300 19/12 A3032 RMK SC1CI1 SLP268
CYYG;2004-08-26 16:00;METAR CYYG 261600Z 22007KT 15SM FEW020 BKN300 20/13 A3029 RMK SC1CI1 SLP259
CYYG;2004-08-26 17:00;METAR CYYG 261700Z 18009G16KT 15SM FEW024 BKN300 19/13 A3028 RMK CU1CI2 SLP253
CYYG;2004-08-26 18:00;METAR CYYG 261800Z 18008KT 15SM FEW024 BKN300 20/13 A3025 RMK CU1CI2 SLP246
CYYG;2004-08-26 19:00;METAR CYYG 261900Z 19004KT 15SM FEW030 BKN300 21/12 A3025 RMK CU1CI2 SLP243
CYYG;2004-08-26 20:00;METAR CYYG 262000Z 19003KT 15SM BKN300 21/12 A3023 RMK CI3 SLP237
CYYG;2004-08-26 21:00;METAR CYYG 262100Z 17005KT 15SM BKN300 21/12 A3021 RMK CI5 SLP231
CYYG;2004-08-26 22:00;METAR CYYG 262200Z 18005KT 15SM BKN300 19/12 A3020 RMK CI2 SLP229
CYYG;2004-08-26 23:00;METAR CYYG 262300Z 17005KT 15SM BKN300 BKN360 17/11 A3020 RMK CI1CI1 CONTRAILS SLP228
CYYG;2004-08-27 00:00;METAR CYYG 270000Z 21004KT 15SM BKN300 16/12 A3021 RMK CI2 SLP232
CYYG;2004-08-27 01:00;METAR CYYG 270100Z 23003KT 15SM BKN300 16/12 A3021 RMK CI1 SLP231
CYYG;2004-08-27 02:00;METAR CYYG 270200Z 22004KT 15SM BKN300 16/12 A3020 RMK CI1 SLP229
CYYG;2004-08-27 03:00;METAR CYYG 270300Z 22005KT 15SM BKN300 15/12 A3019 RMK CI1 SLP222
CYYG;2004-08-27 04:00;METAR CYYG 270400Z 22006KT 15SM BKN300 15/12 A3017 RMK CI2 SLP218
CYYG;2004-08-27 05:00;METAR CYYG 270500Z 23006KT 15SM BKN300 14/11 A3016 RMK CI2 SLP214
CYYG;2004-08-27 06:00;METAR CYYG 270600Z 22007KT 15SM BKN300 14/12 A3015 RMK CI2 SLP209
CYYG;2004-08-27 07:00;METAR CYYG 270700Z 23006KT 15SM BKN300 14/12 A3014 RMK CI2 SLP205
CYYG;2004-08-27 08:00;METAR CYYG 270800Z 24006KT 15SM BKN300 14/12 A3012 RMK CI2 SLP200
CYYG;2004-08-27 09:00;METAR CYYG 270900Z 24008KT 15SM FEW150 BKN300 14/12 A3012 RMK AC2CI1 SLP199
CYYG;2004-08-27 10:00;METAR CYYG 271000Z 24006KT 15SM FEW150 BKN300 14/12 A3012 RMK AC2CI1 SLP198
CYYG;2004-08-27 11:00;METAR CYYG 271100Z 22004KT 15SM FEW150 BKN300 15/13 A3012 RMK AC2CI1
CYYG;2004-08-27 12:00;METAR CYYG 271200Z 24007KT 15SM FEW150 BKN300 17/13 A3010 RMK AC1CI2 SLP194
CYYG;2004-08-27 13:00;METAR CYYG 271300Z 22007KT 15SM SCT300 18/13 A3010 RMK CI2 SLP194
CYYG;2004-08-27 14:00;METAR CYYG 271400Z 22008KT 15SM SCT300 20/14 A3009 RMK CI2 SLP190
CYYG;2004-08-27 15:00;METAR CYYG 271500Z 22007KT 15SM SCT300 20/14 A3008 RMK CI2 SLP185
CYYG;2004-08-27 16:00;METAR CYYG 271600Z 22010KT 15SM SCT300 21/14 A3005 RMK CI2 SLP176
CYYG;2004-08-27 17:00;METAR CYYG 271700Z 21011KT 15SM SCT300 22/15 A3004 RMK CI2 SLP171
CYYG;2004-08-27 18:00;METAR CYYG 271800Z 24010KT 15SM SCT300 23/15 A2999 RMK CI2 SLP157
CYYG;2004-08-27 19:00;METAR CYYG 271900Z 20008KT 15SM BKN300 22/16 A2998 RMK CI3 SLP153
CYYG;2004-08-27 20:00;METAR CYYG 272000Z 19007KT 15SM FEW180 BKN300 22/16 A2996 RMK AC1CI5 SLP147
CYYG;2004-08-27 21:00;METAR CYYG 272100Z 23009KT 15SM BKN300 22/16 A2995 RMK CI4 SLP142
CYYG;2004-08-27 22:00;METAR CYYG 272200Z 23007KT 15SM FEW180 SCT300 22/17 A2994 RMK AC2CI0 SLP139
CYYG;2004-08-27 23:00;METAR CYYG 272300Z 25006KT 15SM FEW180 SCT300 20/16 A2995 RMK AC1CI1 SLP142
CYYG;2004-08-28 00:00;METAR CYYG 280000Z 23006KT 15SM BKN300 19/16 A2994 RMK CI1 SLP139
CYYG;2004-08-28 01:00;METAR CYYG 280100Z 23009KT 10SM BKN300 18/16 A2993 RMK CI2 SLP135
CYYG;2004-08-28 02:00;METAR CYYG 280200Z 25009G15KT 8SM BKN300 17/15 A2993 RMK CI2 SLP137
CYYG;2004-08-28 03:00;METAR CYYG 280300Z 23011KT 6SM BR OVC006 17/15 A2990 RMK SF8 SLP124
CYYG;2004-08-28 04:00;METAR CYYG 280400Z 25012G18KT 6SM BR OVC006 17/15 A2990 RMK SF8 SLP124
CYYG;2004-08-28 05:00;METAR CYYG 280500Z 23010G16KT 6SM BR OVC006 17/15 A2988 RMK SF8 SLP119
CYYG;2004-08-28 06:00;METAR CYYG 280600Z 23011KT 6SM BR OVC006 17/15 A2986 RMK SF8 SLP113
CYYG;2004-08-28 07:00;METAR CYYG 280700Z 23012KT 6SM BR OVC005 17/16 A2985 RMK SF8 SLP110
CYYG;2004-08-28 08:00;METAR CYYG 280800Z 23011KT 6SM BR OVC004 17/16 A2984 RMK SF8 SLP104
CYYG;2004-08-28 09:00;METAR CYYG 280900Z 23010KT 6SM BR OVC004 17/16 A2982 RMK SF8 SLP099
CYYG;2004-08-28 10:00;METAR CYYG 281000Z 22009KT 6SM BR OVC005 17/16 A2981 RMK SF8 SLP095
CYYG;2004-08-28 11:00;METAR CYYG 281100Z 22008KT 10SM BKN006 OVC300 18/16 A2981 RMK SF6CI2 SLP093
CYYG;2004-08-28 12:00;METAR CYYG 281200Z 23011KT 12SM SCT006 BKN300 19/17 A2980 RMK SF3CI1 SLP091
CYYG;2004-08-28 13:00;METAR CYYG 281300Z 24009G15KT 15SM FEW008 BKN300 20/17 A2978 RMK SF2CI2 SLP085
CYYG;2004-08-28 14:00;METAR CYYG 281400Z 24012KT 15SM FEW012 SCT110 BKN300 22/18 A2978 RMK SC1AC3CI1 SLP083
CYYG;2004-08-28 15:00;METAR CYYG 281500Z 23012KT 15SM FEW110 SCT300 23/19 A2976 RMK AC2CI1 HAZY SLP078
CYYG;2004-08-28 16:00;METAR CYYG 281600Z 25010G15KT 15SM FEW025 SCT300 25/20 A2975 RMK CF1CI2 HAZY SLP073
CYYG;2004-08-28 17:00;METAR CYYG 281700Z 24014KT 15SM FEW025 SCT300 25/20 A2974 RMK CF1CI2 HAZY SLP070
CYYG;2004-08-28 18:00;METAR CYYG 281800Z 23012G17KT 15SM FEW035 SCT300 26/20 A2973 RMK SC2CI1 HAZY SLP068
CYYG;2004-08-28 19:00;METAR CYYG 281900Z 25013KT 15SM FEW035 SCT300 26/20 A2973 RMK SC1CI2 HAZY SLP067
CYYG;2004-08-28 20:00;METAR CYYG 282000Z 25009KT 15SM FEW300 26/20 A2971 RMK CI1 HAZY SLP062
CYYG;2004-08-28 21:00;METAR CYYG 282100Z 26009KT 15SM SKC 26/20 A2971 RMK HAZY SLP062
CYYG;2004-08-28 22:00;METAR CYYG 282200Z 25007KT 15SM SKC 25/20 A2972 RMK HAZY SLP063
CYYG;2004-08-28 23:00;METAR CYYG 282300Z 24008KT 10SM FEW100 SCT300 24/19 A2973 RMK AC1CI0 CB TOPS NW-NE HAZY SLP067
CYYG;2004-08-29 00:00;METAR CYYG 290000Z 25008KT 10SM FEW100 FEW300 23/19 A2974 RMK AC2CI0 TCU TOPS N HAZY SLP071
CYYG;2004-08-29 01:00;METAR CYYG 290100Z 27008KT 10SM FEW100 22/19 A2977 RMK AC1 HAZY SLP080
CYYG;2004-08-29 02:00;METAR CYYG 290200Z 26007KT 10SM BKN060 21/18 A2979 RMK SC6 HAZY SLP086
CYYG;2004-08-29 03:00;METAR CYYG 290300Z 29004KT 10SM BKN058 BKN100 21/18 A2980 RMK SC6AC1 SLP092
CYYG;2004-08-29 04:00;METAR CYYG 290400Z 34009KT 15SM FEW060 SCT100 22/15 A2982 RMK SC2AC2 SLP097
CYYG;2004-08-29 05:00;METAR CYYG 290500Z 32007KT 15SM FEW060 FEW100 21/15 A2983 RMK SC1AC2 SLP100
CYYG;2004-08-29 06:00;METAR CYYG 290600Z 33010KT 15SM FEW077 FEW100 20/15 A2986 RMK AC1AC2 SLP110
CYYG;2004-08-29 07:00;METAR CYYG 290700Z 34008KT 15SM FEW077 19/15 A2987 RMK AC1 SLP116
CYYG;2004-08-29 08:00;METAR CYYG 290800Z 34007KT 15SM SKC 18/14 A2990 RMK SLP123
CYYG;2004-08-29 09:00;METAR CYYG 290900Z 35006KT 15SM FEW120 16/13 A2993 RMK AC2 SLP137
CYYG;2004-08-29 10:00;METAR CYYG 291000Z 34007KT 15SM SCT120 16/12 A2995 RMK AC4 SLP143
CYYG;2004-08-29 11:00;METAR CYYG 291100Z 35008KT 15SM FEW120 SCT220 17/12 A2998 RMK AC2CC2 SLP154
CYYG;2004-08-29 12:00;METAR CYYG 291200Z 36008KT 15SM FEW120 SCT220 18/13 A3001 RMK AC2CC2 SLP161
CYYG;2004-08-29 13:00;METAR CYYG 291300Z 33010G16KT 15SM FEW220 19/13 A3003 RMK CC2 SLP169
CYYG;2004-08-29 14:00;METAR CYYG 291400Z 36009KT 15SM FEW025 FEW220 19/13 A3004 RMK CU1CC2 SLP172
CYYG;2004-08-29 15:00;METAR CYYG 291500Z 36010KT 15SM FEW025 SCT220 20/13 A3006 RMK CU2CC2 SLP180
CYYG;2004-08-29 16:00;METAR CYYG 291600Z 36010KT 15SM FEW030 SCT220 20/13 A3007 RMK CU1CC2 SLP183
CYYG;2004-08-29 17:00;METAR CYYG 291700Z 02007KT 15SM FEW030 SCT220 20/12 A3008 RMK CU1CC2 SLP185
CYYG;2004-08-29 18:00;METAR CYYG 291800Z 02006KT 15SM FEW030 FEW220 21/14 A3008 RMK CU1CC2 SLP186
CYYG;2004-08-29 19:00;METAR CYYG 291900Z 04008KT 15SM FEW030 FEW220 20/13 A3009 RMK CU1CC1 SLP188
CYYG;2004-08-29 20:00;METAR CYYG 292000Z 02003KT 15SM FEW220 20/13 A3010 RMK CC2 SLP193
CYYG;2004-08-29 21:00;METAR CYYG 292100Z 05005KT 15SM FEW030 FEW220 20/14 A3010 RMK SC1CC2 SLP193
CYYG;2004-08-29 22:00;METAR CYYG 292200Z 04007KT 15SM FEW030 FEW220 18/14 A3010 RMK SC1CC1 SLP194
CYYG;2004-08-29 23:00;METAR CYYG 292300Z 05006KT 15SM FEW018 FEW120 FEW300 16/14 A3010 RMK SC1AC2CI0 SLP193
CYYG;2004-08-30 00:00;METAR CYYG 300000Z 06005KT 15SM FEW018 FEW080 BKN100 16/14 A3013 RMK SC1AC2AC4 SLP202
CYYG;2004-08-30 01:00;METAR CYYG 300100Z 09005KT 15SM BKN067 OVC110 17/14 A3013 RMK AC6AC2 SLP202
CYYG;2004-08-30 02:00;METAR CYYG 300200Z 12006KT 15SM OVC067 17/14 A3013 RMK AC8 SLP203
CYYG;2004-08-30 03:00;METAR CYYG 300300Z 12004KT 15SM FEW050 OVC061 17/14 A3014 RMK SC2SC6 SLP205
CYYG;2004-08-30 04:00;METAR CYYG 300400Z 11006KT 15SM OVC045 17/15 A3012 RMK SC8 SLP199
CYYG;2004-08-30 05:00;METAR CYYG 300500Z 12006KT 15SM FEW035 OVC045 17/15 A3009 RMK SC2SC6 SLP189
CYYG;2004-08-30 06:00;METAR CYYG 300600Z 13008KT 15SM OVC045 17/15 A3007 RMK SC8 SLP184
CYYG;2004-08-30 07:00;METAR CYYG 300700Z 14008KT 15SM BKN032 OVC045 18/15 A3004 RMK SC7SC1 SLP172
CYYG;2004-08-30 08:00;METAR CYYG 300800Z 16010G15KT 15SM OVC017 18/15 A3002 RMK SC8 SLP167
CYYG;2004-08-30 09:00;METAR CYYG 300900Z 17011G16KT 10SM -TSRA OVC013 18/16 A3003 RMK SC8 CB ASOCTD N-NE MOVG E FRQ LTGIC SLP168
CYYG;2004-08-30 10:00;METAR CYYG 301000Z 17008KT 15SM -SHRA OVC008 18/17 A3001 RETSRA RMK SC8 SLP164
CYYG;2004-08-30 11:00;METAR CYYG 301100Z 21010G16KT 5SM BR BKN004 OVC009 19/18 A3003 RMK SF6SF2 SLP169
CYYG;2004-08-30 12:00;METAR CYYG 301200Z 23007KT 5SM -SHRA BR OVC007 20/19 A3005 RMK SF8 SLP176
CYYG;2004-08-30 13:00;METAR CYYG 301300Z 23006KT 5SM -SHRA BR BKN005 BKN008 OVC100 20/19 A3004 RERA RMK SF5SF1AC2 SLP174
CYYG;2004-08-30 14:00;METAR CYYG 301400Z 24007KT 15SM BKN004 OVC012 20/19 A3006 RMK SF7SC1 SLP178
CYYG;2004-08-30 15:00;METAR CYYG 301500Z 24009KT 15SM FEW004 OVC021 21/19 A3005 RMK SF2SC6 SLP177
CYYG;2004-08-30 16:00;METAR CYYG 301600Z 25011KT 15SM FEW011 OVC017 21/19 A3006 RMK SC1SC7
CYYG;2004-08-30 17:00;METAR CYYG 301700Z 26010G15KT 15SM BKN011 OVC017 21/19 A3006 RMK SC6SC2 SLP181
CYYG;2004-08-30 18:00;METAR CYYG 301800Z 25012KT 15SM SCT010 OVC019 21/19 A3007 RMK SC3SC5 SLP183
CYYG;2004-08-30 19:00;METAR CYYG 301900Z 27010G15KT 15SM FEW013 OVC022 22/19 A3007 RMK SC1SC7 SLP184
CYYG;2004-08-30 20:00;METAR CYYG 302000Z 26009KT 15SM OVC019 22/19 A3008 RMK SC8 SLP185
CYYG;2004-08-30 21:00;METAR CYYG 302100Z 26006KT 15SM FEW019 BKN034 22/19 A3009 RMK SC2SC5
CYYG;2004-08-30 22:00;METAR CYYG 302200Z 31003KT 15SM BKN019 OVC042 22/19 A3011 RMK SC6SC2 SLP196
CYYG;2004-08-30 23:00;METAR CYYG 302300Z 01005KT 6SM BR BKN012 OVC023 20/18 A3012 RMK SC5SC3 SLP198
CYYG;2004-08-31 00:00;METAR CYYG 310000Z 00000KT 15SM OVC009 19/18 A3013 RMK SF8 SLP204
CYYG;2004-08-31 01:00;METAR CYYG 310100Z 00000KT 15SM OVC007 19/18 A3015 RMK SF8 SLP209
CYYG;2004-08-31 02:00;METAR CYYG 310200Z 00000KT 15SM OVC006 19/18 A3015 RMK SF8 SLP209
CYYG;2004-08-31 03:00;METAR CYYG 310300Z 15002KT 15SM BKN007 OVC010 19/18 A3014 RMK SF6SC2 SLP207 SLP206 SLP197
CYYG;2004-08-31 07:00;METAR CYYG 310700Z 17004KT 15SM BKN012 OVC016 20/19 A3010 RMK SC6SC2 SLP192
CYYG;2004-08-31 08:00;METAR CYYG 310800Z 17005KT 15SM OVC016 20/19 A3008 RMK SC8 SLP185
CYYG;2004-08-31 09:00;METAR CYYG 310900Z 16007KT 15SM -RA BKN012 OVC022 20/19 A3006 RMK SC6SC2 LTGIC DIST SW SLP181
CYYG;2004-08-31 10:00;METAR CYYG 311000Z CCA 16007KT 1 1/2SM -RA BR OVC004 20/19 A3003 RETSRA RMK FG6SF2 SLP168
CYYG;2004-08-31 11:00;METAR CYYG 311100Z 17010KT 2 1/2SM BR OVC003 21/20 A3001 RMK SF8 SLP162
CYYG;2004-08-31 12:00;METAR CYYG 311200Z 19011G17KT 4SM BR BKN003 OVC025 21/20 A3000 RMK SF6SC2 VIS S-SW 15 SLP159
CYYG;2004-08-31 13:00;METAR CYYG 311300Z 18013KT 10SM SCT005 OVC009 21/20 A2998 RMK SF3SF5 SLP151
CYYG;2004-08-31 14:00;METAR CYYG 311400Z 18016KT 12SM FEW006 BKN016 BKN100 22/21 A2994 RMK SF2SC2AC2 SLP139
CYYG;2004-08-31 15:00;METAR CYYG 311500Z 18017KT 15SM FEW010 SCT020 BKN068 BKN280 24/21 A2991 RMK CF1SC2AC2CI1 SLP128
CYYG;2004-08-31 16:00;METAR CYYG 311600Z 19016G22KT 15SM FEW012 BKN039 BKN080 25/21 A2986 RMK CF1SC4AC2 SLP111
CYYG;2004-08-31 17:00;METAR CYYG 311700Z 18015G22KT 15SM -SHRA BKN022 OVC070 23/21 A2983 RMK SC7AC1 SLP102
CYYG;2004-08-31 18:00;METAR CYYG 311800Z 20019KT 8SM -SHRA BKN022 OVC050 22/20 A2982 RMK SC6SC2 RERA SLP098
CYYG;2004-08-31 19:00;METAR CYYG 311900Z 19008KT 6SM -SHRA BR SCT012 OVC020 22/20 A2980 RMK SC3SC5 RERA SLP092
CYYG;2004-08-31 20:00;METAR CYYG 312000Z 18008KT 4SM -SHRA BR BKN006 OVC012 21/20 A2977 RMK SF5SC3 SLP082
CYYG;2004-08-31 21:00;METAR CYYG 312100Z 24013KT 2SM -SHRA BR FEW003 BKN006 OVC015 21/20 A2977 RMK SF2SF5SC2 SLP079
CYYG;2004-08-31 22:00;METAR CYYG 312200Z 26009KT 2SM -SHRA BR BKN003 OVC006 21/20 A2979 RMK SF6SF2 VSBY VRBL 1-3 SLP086
CYYG;2004-08-31 23:00;METAR CYYG 312300Z 28005KT 15SM -SHRA BKN008 OVC013 21/20 A2981 RMK SF6SC2 SLP094
CYYG;2004-09-01 00:00;METAR CYYG 010000Z 28005KT 15SM -SHRA BKN010 OVC025 21/19 A2984 RMK SC6SC2 SLP104
CYYG;2004-09-01 01:00;METAR CYYG 010100Z CCA 25007KT 3SM -SHRA BR OVC002 19/18 A2986 RMK SF8 SLP111
CYYG;2004-09-01 02:00;METAR CYYG 010200Z 22006KT 10SM -SHRA BKN003 OVC006 19/18 A2987 RMK SF5SF3 SLP115
CYYG;2004-09-01 03:00;METAR CYYG 010300Z 34005KT 15SM -SHRA FEW003 SCT008 OVC024 17/16 A2987 RMK SF2SF2SC5 SLP113
CYYG;2004-09-01 04:00;METAR CYYG 010400Z 34003KT 15SM FEW020 OVC034 17/16 A2986 RMK SC2SC6
CYYG;2004-09-01 05:00;METAR CYYG 010500Z 00000KT 15SM SCT007 OVC034 17/16 A2985 RMK SF3SC5 SLP108
CYYG;2004-09-01 06:00;METAR CYYG 010600Z 30003KT 15SM FEW007 OVC013 17/16 A2984 RMK SF2SC6 SLP106
CYYG;2004-09-01 07:00;METAR CYYG 010700Z 27002KT 15SM BKN020 OVC031 17/16 A2984 RMK SC6SC2 SLP105
CYYG;2004-09-01 08:00;METAR CYYG 010800Z 31004KT 15SM BKN020 OVC040 17/15 A2982 RMK SC5SC3 SLP098
CYYG;2004-09-01 09:00;METAR CYYG 010900Z 32006KT 15SM OVC040 16/15 A2982 RMK SC8 SLP097
CYYG;2004-09-01 10:00;METAR CYYG 011000Z 30006KT 15SM BKN016 OVC040 16/15 A2983 RMK SC6SC2 SLP102
CYYG;2004-09-01 11:00;METAR CYYG 011100Z 31006KT 15SM FEW007 OVC021 16/15 A2983 RMK SF2SC6 VIS LWR NE SLP102 SF5SF2SC1 SLP105 SF4SF2SC1 VIS LWR E SLP107
CYYG;2004-09-01 14:00;METAR CYYG 011400Z 31011G16KT 15SM SCT011 BKN023 18/15 A2985 RMK SF3SC4
CYYG;2004-09-01 15:00;METAR CYYG 011500Z 30008KT 15SM SCT014 BKN021 19/15 A2985 RMK SC4SC3
CYYG;2004-09-01 16:00;METAR CYYG 011600Z 31006KT 15SM SCT015 BKN025 19/15 A2985 RMK SC3SC3
CYYG;2004-09-01 17:00;METAR CYYG 011700Z 27006KT 15SM BKN022 BKN080 21/15 A2984 RMK SC5AC2
CYYG;2004-09-01 18:00;METAR CYYG 011800Z 29012KT 15SM BKN023 BKN090 20/14 A2985 RMK SC5AC1 SLP109
CYYG;2004-09-01 19:00;METAR CYYG 011900Z 29010G15KT 15SM FEW023 SCT090 21/14 A2985 RMK SC2AC1
CYYG;2004-09-01 20:00;METAR CYYG 012000Z 29010KT 15SM FEW032 SCT060 BKN090 20/13 A2985 RMK SC2SC2AC1 SLP108
CYYG;2004-09-01 21:00;METAR CYYG 012100Z 31008KT 15SM FEW032 FEW055 BKN090 20/14 A2985 RMK SC1SC2AC2 SLP110
CYYG;2004-09-01 22:00;METAR CYYG 012200Z 30006KT 15SM SCT030 BKN055 BKN090 19/14 A2986 RMK SC3SC2AC1 SLP113
CYYG;2004-09-01 23:00;METAR CYYG 012300Z 29004KT 15SM BKN069 15/13 A2988 RMK AC6 RETS RERA SLP120
CYYG;2004-09-02 00:00;METAR CYYG 020000Z 28007KT 15SM SCT069 15/13 A2992 RMK AC4 SLP131
CYYG;2004-09-02 01:00;METAR CYYG 020100Z 29010KT 15SM FEW070 15/12 A2993 RMK AC2 SLP137
CYYG;2004-09-02 02:00;METAR CYYG 020200Z 30008KT 15SM FEW070 14/12 A2995 RMK AC2 SLP143
CYYG;2004-09-02 03:00;METAR CYYG 020300Z 31008KT 15SM SCT070 14/12 A2996 RMK AC3 SLP147
CYYG;2004-09-02 04:00;METAR CYYG 020400Z 30007KT 15SM SCT054 14/11 A2999 RMK SC4 SLP155
CYYG;2004-09-02 05:00;METAR CYYG 020500Z 30008KT 15SM SCT055 13/10 A3000 RMK SC4 SLP159
CYYG;2004-09-02 06:00;METAR CYYG 020600Z 30009KT 15SM SCT055 12/09 A3001 RMK SC4 SLP163
CYYG;2004-09-02 07:00;METAR CYYG 020700Z 29009KT 15SM FEW055 12/09 A3002 RMK SC2 SLP167
CYYG;2004-09-02 08:00;METAR CYYG 020800Z 28007KT 15SM FEW055 11/08 A3004 RMK SC2 SLP172
CYYG;2004-09-02 09:00;METAR CYYG 020900Z 26006KT 15SM SCT038 11/08 A3006 RMK SC4 SLP179
CYYG;2004-09-02 10:00;METAR CYYG 021000Z 28008KT 15SM SCT040 11/08 A3009 RMK CU4 SLP189
CYYG;2004-09-02 11:00;METAR CYYG 021100Z 29009KT 15SM FEW040 12/09 A3011 RMK CU2 SLP197
CYYG;2004-09-02 13:00;METAR CYYG 021300Z 33010G15KT 15SM SCT039 15/08 A3015 RMK CU4 SLP210
CYYG;2004-09-02 14:00;METAR CYYG 021400Z 31010G15KT 15SM SCT040 15/08 A3016 RMK CU4 SLP214
CYYG;2004-09-02 15:00;METAR CYYG 021500Z 33011G17KT 15SM BKN037 15/07 A3017 RMK CU5 SLP216
CYYG;2004-09-02 16:00;METAR CYYG 021600Z 33011KT 15SM BKN037 15/07 A3017 RMK CU5 SLP218
CYYG;2004-09-02 17:00;METAR CYYG 021700Z 33008G18KT 15SM BKN040 15/07 A3018 RMK CU6 SLP221
CYYG;2004-09-02 18:00;METAR CYYG 021800Z 34010G15KT 15SM BKN040 14/07 A3018 RMK SC5 SLP221
CYYG;2004-09-02 19:00;METAR CYYG 021900Z 34008KT 15SM SCT040 15/06 A3018 RMK SC3 SLP222
CYYG;2004-09-02 20:00;METAR CYYG 022000Z 33008KT 15SM SCT042 14/06 A3019 RMK SC3 SLP223
CYYG;2004-09-02 21:00;METAR CYYG 022100Z 29008KT 15SM FEW040 FEW280 15/06 A3019 RMK SC2CI0 SLP225
CYYG;2004-09-02 22:00;METAR CYYG 022200Z 28003KT 15SM FEW040 FEW280 14/05 A3018 RMK SC1CI0 SLP222
CYYG;2004-09-02 23:00;METAR CYYG 022300Z 26002KT 15SM FEW040 FEW280 12/06 A3018 RMK SC1CI0 SLP220
CYYG;2004-09-03 00:00;METAR CYYG 030000Z 25002KT 15SM FEW040 10/05 A3019 RMK SC2 SLP224
CYYG;2004-09-03 01:00;METAR CYYG 030100Z 25002KT 15SM FEW066 09/06 A3020 RMK AC2 SLP226
CYYG;2004-09-03 02:00;METAR CYYG 030200Z 24002KT 15SM SCT058 10/06 A3019 RMK SC4 SLP225
CYYG;2004-09-03 03:00;METAR CYYG 030300Z 35003KT 15SM BKN069 09/07 A3019 RMK AC6 SLP224
CYYG;2004-09-03 04:00;METAR CYYG 030400Z 29004KT 15SM SCT070 BKN220 10/07 A3018 RMK AC4CI2 SLP220
CYYG;2004-09-03 05:00;METAR CYYG 030500Z 31007KT 15SM SCT070 BKN220 10/07 A3019 RMK AC3CI2 SLP224
CYYG;2004-09-03 06:00;METAR CYYG 030600Z 29006KT 15SM FEW070 BKN200 11/06 A3019 RMK AC2CI3
CYYG;2004-09-03 07:00;METAR CYYG 030700Z 27006KT 15SM FEW079 BKN180 10/05 A3018 RMK AC2AC5
CYYG;2004-09-03 08:00;METAR CYYG 030800Z 26006KT 15SM FEW070 BKN180 10/06 A3017 RMK AC2AC5 SLP219
CYYG;2004-09-03 09:00;METAR CYYG 030900Z 27006KT 15SM FEW070 BKN170 10/05 A3019 RMK AC2AC5
CYYG;2004-09-03 10:00;METAR CYYG 031000Z 26007KT 15SM FEW030 BKN160 BKN310 11/06 A3018 RMK SC1AC6CI0 SLP222
CYYG;2004-09-03 11:00;METAR CYYG 031100Z 26007KT 15SM FEW030 FEW160 FEW310 12/08 A3020 RMK CU1AC1CI0 SLP226
CYYG;2004-09-03 12:00;METAR CYYG 031200Z 26010KT 15SM FEW020 FEW090 FEW160 FEW310 13/07 A3018 RMK CU1AC1AC2CI0 SLP222
CYYG;2004-09-03 13:00;METAR CYYG 031300Z 26008KT 15SM FEW020 FEW100 BKN150 14/05 A3017 RMK CU1AC2AC6 SLP217
CYYG;2004-09-03 14:00;METAR CYYG 031400Z 26012KT 15SM FEW020 BKN140 14/05 A3016 RMK CU1AC7 SLP215
CYYG;2004-09-03 15:00;METAR CYYG 031500Z 26006KT 15SM FEW020 FEW085 BKN110 15/06 A3013 RMK CU1AC2AC6 SLP204
CYYG;2004-09-03 16:00;METAR CYYG 031600Z 23006KT 15SM FEW020 BKN080 BKN095 15/06 A3011 RMK SC1AC5AC2 SLP196
CYYG;2004-09-03 17:00;METAR CYYG 031700Z 27003KT 15SM FEW030 OVC080 15/07 A3009 RMK SC1AC8 SLP192
CYYG;2004-09-03 18:00;METAR CYYG 031800Z 00000KT 15SM FEW030 OVC067 15/08 A3006 RMK SC2AC6 SLP180
CYYG;2004-09-03 19:00;METAR CYYG 031900Z 16003KT 4SM -SHRA BR BKN021 OVC060 13/09 A3005 RMK SC6SC2 CU ASOCTD SLP178
CYYG;2004-09-03 20:00;METAR CYYG 032000Z 03003KT 15SM -SHRA BKN014 OVC055 13/11 A3003 RMK SC7SC1 SLP169
CYYG;2004-09-03 21:00;METAR CYYG 032100Z 07003KT 12SM -SHRA BKN021 OVC050 12/11 A3001 RMK SC6SC2 SLP165
CYYG;2004-09-03 22:00;METAR CYYG 032200Z 10007KT 15SM OVC016 12/10 A3001 RMK SC8 SLP162
CYYG;2004-09-03 23:00;METAR CYYG 032300Z 10004KT 15SM BKN013 OVC028 12/10 A3000 RMK SC6SC2 SLP161
CYYG;2004-09-04 00:00;METAR CYYG 040000Z 12006KT 15SM SCT015 BKN021 OVC046 12/10 A2999 RMK SC3SC3SC2 SLP156
CYYG;2004-09-04 01:00;METAR CYYG 040100Z 13003KT 15SM OVC017 12/11 A2996 RMK SC8 SLP147
CYYG;2004-09-04 02:00;METAR CYYG 040200Z 34004KT 15SM BKN011 OVC030 12/12 A2996 RMK SC6SC2 SLP148
CYYG;2004-09-04 03:00;METAR CYYG 040300Z 00000KT 15SM OVC008 12/12 A2995 RMK SF8 SLP143
CYYG;2004-09-04 04:00;METAR CYYG 040400Z 02002KT 15SM FEW002 BKN008 OVC022 13/12 A2995 RMK SF1SF6SC2 SLP141
CYYG;2004-09-04 05:00;METAR CYYG 040500Z 36002KT 15SM OVC008 13/12 A2994 RMK SF8 SLP140 SLP142
CYYG;2004-09-04 07:00;METAR CYYG 040700Z 01004KT 15SM -SHRA FEW007 OVC012 13/12 A2996 RMK SF2SC6 SLP144
CYYG;2004-09-04 08:00;METAR CYYG 040800Z 03003KT 15SM -SHRA FEW002 BKN006 OVC022 13/12 A2996 RMK SF2SF5SC2 SLP145
CYYG;2004-09-04 09:00;METAR CYYG 040900Z 05007KT 15SM -SHRA BKN005 OVC013 13/12 A2996 RMK SF5SC3 SLP147
CYYG;2004-09-04 10:00;METAR CYYG 041000Z 05008KT 7SM -RA BKN006 OVC027 13/12 A2998 RERA RMK SF6NS2 SLP153
CYYG;2004-09-04 11:00;METAR CYYG 041100Z 02004KT 5SM -RA BR BKN005 OVC015 12/12 A3001 RMK SF6NS2 SLP162
CYYG;2004-09-04 12:00;METAR CYYG 041200Z 02006KT 7SM -RA FEW004 SCT016 OVC025 12/11 A3002 RMK SF2SC2NS4 SLP166
CYYG;2004-09-04 13:00;METAR CYYG 041300Z 01006KT 10SM -SHRA FEW006 BKN010 OVC025 13/11 A3004 RMK SF2CU4SC2 SLP173
CYYG;2004-09-04 14:00;METAR CYYG 041400Z 01008KT 15SM FEW006 FEW010 BKN025 13/11 A3006 RMK SF1CU1SC7 SLP182
CYYG;2004-09-04 15:00;METAR CYYG 041500Z 01011G17KT 15SM SCT028 BKN040 14/10 A3008 RMK CU4SC3 SLP188
CYYG;2004-09-04 16:00;METAR CYYG 041600Z 01013G19KT 15SM BKN028 15/10 A3009 RMK CU6 SLP191
CYYG;2004-09-04 17:00;METAR CYYG 041700Z 35012G17KT 15SM BKN028 16/10 A3009 RMK CU6 SLP190
CYYG;2004-09-04 18:00;METAR CYYG 041800Z 36012G18KT 15SM BKN028 15/10 A3011 RMK CU6 SLP198
CYYG;2004-09-04 19:00;METAR CYYG 041900Z 02014G20KT 15SM BKN025 BKN065 15/09 A3013 RMK CU6SC1 TCU ASOCTD SLP204
CYYG;2004-09-04 20:00;METAR CYYG 042000Z 01012G19KT 15SM -SHRA BKN025 BKN060 14/10 A3016 RMK CU6SC2 TCU ASOCTD SLP213
CYYG;2004-09-04 21:00;METAR CYYG 042100Z 36012G17KT 15SM BKN030 BKN055 13/08 A3018 RMK CU5SC2 SLP221
CYYG;2004-09-04 22:00;METAR CYYG 042200Z 36011KT 15SM BKN035 BKN050 BKN300 13/07 A3020 RMK CU5SC2CI0 SLP228
CYYG;2004-09-04 23:00;METAR CYYG 042300Z 36008KT 15SM FEW038 SCT300 12/07 A3022 RMK CU2CI0 SLP234
CYYG;2004-09-05 00:00;METAR CYYG 050000Z 35005KT 15SM BKN028 BKN300 12/07 A3025 RMK CU6CI0 SLP244
CYYG;2004-09-05 01:00;METAR CYYG 050100Z 35008KT 15SM FEW028 FEW043 SCT300 11/07 A3026 RMK CU1CU1CI0 SLP248
CYYG;2004-09-05 02:00;METAR CYYG 050200Z 02010KT 10SM -SHRA BKN024 11/09 A3027 RMK SC6 SLP250
CYYG;2004-09-05 03:00;METAR CYYG 050300Z 03007KT 15SM -SHRA BKN030 BKN049 11/09 A3027 RMK CU5SC1 SLP252
CYYG;2004-09-05 04:00;METAR CYYG 050400Z 02004KT 15SM SCT028 BKN058 10/08 A3029 RMK CU3SC3 SLP257
CYYG;2004-09-05 05:00;METAR CYYG 050500Z 03004KT 15SM SCT030 BKN058 11/09 A3030 RMK CU3SC3 SLP260
CYYG;2004-09-05 06:00;METAR CYYG 050600Z 36005KT 15SM BKN030 11/07 A3031 RMK SC6 SLP263
CYYG;2004-09-05 07:00;METAR CYYG 050700Z 02005KT 15SM FEW028 BKN057 10/07 A3031 RMK CU1SC6 SLP266
CYYG;2004-09-05 08:00;METAR CYYG 050800Z 01004KT 15SM FEW032 BKN057 10/07 A3033 RMK CU1SC5 SLP270
CYYG;2004-09-05 09:00;METAR CYYG 050900Z 36003KT 15SM FEW032 SCT057 09/06 A3034 RMK CU2SC2 SLP276
CYYG;2004-09-05 10:00;METAR CYYG 051000Z 36004KT 15SM FEW035 FEW250 09/05 A3037 RMK SC2CI0 SLP286
CYYG;2004-09-05 11:00;METAR CYYG 051100Z 34004KT 15SM FEW038 SCT250 09/06 A3041 RMK SC2CI0 SLP298
CYYG;2004-09-05 12:00;METAR CYYG 051200Z 03009KT 15SM FEW038 14/07 A3042 RMK SC2 SLP301
CYYG;2004-09-05 13:00;METAR CYYG 051300Z 01012KT 15SM BKN042 14/07 A3044 RMK SC5 SLP308
CYYG;2004-09-05 14:00;METAR CYYG 051400Z 36010KT 15SM BKN041 BKN280 14/07 A3045 RMK SC5CI1 SLP313
CYYG;2004-09-05 15:00;METAR CYYG 051500Z 36009G15KT 15SM BKN039 14/07 A3045 RMK SC6 SLP314
CYYG;2004-09-05 16:00;METAR CYYG 051600Z 36009KT 15SM BKN040 14/07 A3044 RMK SC6 SLP311
CYYG;2004-09-05 17:00;METAR CYYG 051700Z 01011G16KT 15SM BKN040 BKN280 15/06 A3044 RMK SC6CI1 SLP309
CYYG;2004-09-05 18:00;METAR CYYG 051800Z 02008KT 15SM BKN040 BKN280 14/07 A3043 RMK SC6CI1 SLP305
CYYG;2004-09-05 19:00;METAR CYYG 051900Z 36007KT 15SM BKN040 14/06 A3044 RMK SC6 SLP308
CYYG;2004-09-05 20:00;METAR CYYG 052000Z 35006KT 15SM FEW040 SCT300 14/07 A3044 RMK SC2CI0 SLP308
CYYG;2004-09-05 21:00;METAR CYYG 052100Z 33006KT 15SM FEW040 SCT300 14/06 A3045 RMK SC2CI1 SLP312
CYYG;2004-09-05 22:00;METAR CYYG 052200Z 36003KT 15SM FEW038 FEW120 SCT300 13/07 A3045 RMK SC1AC1CI1 SLP312
CYYG;2004-09-05 23:00;METAR CYYG 052300Z 00000KT 15SM FEW120 SCT300 11/06 A3046 RMK AC1CI1 SLP316
CYYG;2004-09-06 00:00;METAR CYYG 060000Z 00000KT 15SM FEW120 SCT300 08/06 A3046 RMK AC1CI1 SLP317
CYYG;2004-09-06 01:00;METAR CYYG 060100Z 00000KT 15SM FEW300 08/05 A3046 RMK CI1 SLP315
CYYG;2004-09-06 02:00;METAR CYYG 060200Z 00000KT 15SM FEW300 08/06 A3045 RMK CI1 SLP312
CYYG;2004-09-06 03:00;METAR CYYG 060300Z 22002KT 15SM SKC 08/06 A3044 RMK SLP310
CYYG;2004-09-06 04:00;METAR CYYG 060400Z 23004KT 15SM SKC 09/07 A3044 RMK SLP308
CYYG;2004-09-06 05:00;METAR CYYG 060500Z 21004KT 15SM FEW130 10/08 A3042 RMK AC1 SLP302
CYYG;2004-09-06 06:00;METAR CYYG 060600Z 21004KT 15SM FEW130 10/08 A3040 RMK AC1 SLP295
CYYG;2004-09-06 07:00;METAR CYYG 060700Z 23004KT 15SM FEW130 10/08 A3040 RMK AC1 SLP294
CYYG;2004-09-06 08:00;METAR CYYG 060800Z 24004KT 15SM FEW130 10/08 A3040 RMK AC1 SLP294
CYYG;2004-09-06 09:00;METAR CYYG 060900Z 24005KT 15SM FEW130 SCT230 10/08 A3040 RMK AC1CI2 SLP296
CYYG;2004-09-06 10:00;METAR CYYG 061000Z 23004KT 15SM FEW130 BKN230 10/08 A3040 RMK AC2CI2 SLP295
CYYG;2004-09-06 11:00;METAR CYYG 061100Z 23004KT 15SM FEW130 SCT230 12/10 A3040 RMK AC2CI1 SLP294
CYYG;2004-09-06 12:00;METAR CYYG 061200Z 24007KT 15SM FEW120 FEW150 SCT230 15/10 A3039 RMK AC1AC1CI1 SLP291
CYYG;2004-09-06 13:00;METAR CYYG 061300Z 26011KT 15SM FEW030 FEW130 SCT300 15/10 A3037 RMK CU1AC2CI0 SLP285
CYYG;2004-09-06 14:00;METAR CYYG 061400Z 24010KT 15SM FEW030 FEW130 FEW300 15/10 A3036 RMK CU1AC1CI0 SLP280
CYYG;2004-09-06 15:00;METAR CYYG 061500Z 23012G17KT 15SM FEW030 FEW120 SCT280 16/09 A3033 RMK CU1AC1CI1 SLP273
CYYG;2004-09-06 16:00;METAR CYYG 061600Z 23013G20KT 15SM FEW032 FEW095 BKN280 17/08 A3031 RMK CU1AC2CI1 SLP264
CYYG;2004-09-06 17:00;METAR CYYG 061700Z 23016G22KT 15SM FEW036 FEW095 BKN280 18/08 A3028 RMK CU1AC1CI1 SLP253
CYYG;2004-09-06 18:00;METAR CYYG 061800Z 24015G22KT 15SM FEW100 BKN280 18/09 A3026 RMK AC2CI2 SLP249
CYYG;2004-09-06 19:00;METAR CYYG 061900Z 24014G20KT 15SM FEW100 BKN280 19/09 A3024 RMK AC2CI2 SLP242
CYYG;2004-09-06 20:00;METAR CYYG 062000Z 22016G24KT 15SM FEW110 BKN280 18/09 A3022 RMK AC2CI2 SLP234
CYYG;2004-09-06 21:00;METAR CYYG 062100Z 23017G25KT 15SM FEW120 BKN280 18/08 A3020 RMK AC2CI2 SLP228
CYYG;2004-09-06 22:00;METAR CYYG 062200Z 23013G19KT 15SM FEW120 BKN280 17/07 A3020 RMK AC1CI2 SLP226
CYYG;2004-09-06 23:00;METAR CYYG 062300Z 24016KT 15SM FEW120 BKN280 16/07 A3020 RMK AC1CI2
CYYG;2004-09-07 00:00;METAR CYYG 070000Z 24015KT 15SM BKN280 15/06 A3020 RMK CI2 SLP227
CYYG;2004-09-07 01:00;METAR CYYG 070100Z 24011G19KT 15SM BKN280 14/06 A3018 RMK CI2 SLP222
CYYG;2004-09-07 02:00;METAR CYYG 070200Z 24014KT 15SM SCT280 14/07 A3017 RMK CI2 SLP219
CYYG;2004-09-07 03:00;METAR CYYG 070300Z 24011G17KT 15SM SCT280 14/08 A3017 RMK CI2 SLP218
CYYG;2004-09-07 04:00;METAR CYYG 070400Z 23010KT 15SM FEW280 13/09 A3016 RMK CI1 SLP215
CYYG;2004-09-07 05:00;METAR CYYG 070500Z 23011KT 15SM FEW280 13/10 A3015 RMK CI1 SLP211
CYYG;2004-09-07 06:00;METAR CYYG 070600Z 23010G15KT 15SM SKC 13/10 A3015 RMK SLP210
CYYG;2004-09-07 07:00;METAR CYYG 070700Z 23009KT 15SM SKC 13/10 A3014 RMK SLP206
CYYG;2004-09-07 08:00;METAR CYYG 070800Z 23008KT 15SM SKC 13/10 A3014 RMK SLP207
CYYG;2004-09-07 09:00;METAR CYYG 070900Z 22007KT 15SM FEW280 13/11 A3013 RMK CI1 SLP205
CYYG;2004-09-07 10:00;METAR CYYG 071000Z 22009KT 15SM BKN280 13/10 A3013 RMK CI4 SLP205
CYYG;2004-09-07 11:00;METAR CYYG 071100Z 23010KT 15SM BKN280 14/11 A3014 RMK CI4 SLP207
CYYG;2004-09-07 12:00;METAR CYYG 071200Z 22011G16KT 15SM FEW015 BKN280 14/11 A3013 RMK CF1CI3 SLP204
CYYG;2004-09-07 13:00;METAR CYYG 071300Z 23012G17KT 15SM FEW015 BKN280 16/12 A3011 RMK SC1CS4 SLP197
CYYG;2004-09-07 14:00;METAR CYYG 071400Z 23012G18KT 15SM FEW015 BKN280 16/13 A3010 RMK SC1CS3 SLP194
CYYG;2004-09-07 15:00;METAR CYYG 071500Z 24015KT 15SM FEW015 BKN280 18/13 A3010 RMK SC1CS2 SLP192
CYYG;2004-09-07 16:00;METAR CYYG 071600Z 23014G19KT 15SM BKN280 19/13 A3009 RMK CI2 SLP188
CYYG;2004-09-07 17:00;METAR CYYG 071700Z 25014KT 15SM SCT280 21/14 A3008 RMK CI2 SLP187
CYYG;2004-09-07 18:00;METAR CYYG 071800Z 24013G19KT 15SM FEW310 22/14 A3006 RMK CI1 CONTRAILS SLP181
CYYG;2004-09-07 19:00;METAR CYYG 071900Z 23013G18KT 15SM FEW310 22/14 A3005 RMK CI1 CONTRAILS SLP176
CYYG;2004-09-07 20:00;METAR CYYG 072000Z 22015G20KT 15SM FEW310 22/14 A3004 RMK CI1 CONTRAILS SLP173
CYYG;2004-09-07 21:00;METAR CYYG 072100Z 23012G17KT 15SM FEW310 22/14 A3004 RMK CI1 SLP172
CYYG;2004-09-07 22:00;METAR CYYG 072200Z 22014KT 15SM FEW310 20/14 A3004 RMK CI0 SLP171
CYYG;2004-09-07 23:00;METAR CYYG 072300Z 24012KT 15SM FEW310 19/15 A3005 RMK CI1 SLP175
CYYG;2004-09-08 00:00;METAR CYYG 080000Z 24012G19KT 15SM FEW310 18/15 A3006 RMK CI1 SLP178
CYYG;2004-09-08 01:00;METAR CYYG 080100Z 24013G20KT 15SM FEW310 18/14 A3006 RMK CI1 SLP180
CYYG;2004-09-08 02:00;METAR CYYG 080200Z 25017G22KT 15SM SKC 18/14 A3005 RMK SLP177
CYYG;2004-09-08 03:00;METAR CYYG 080300Z 24013G21KT 15SM SKC 18/14 A3005 RMK SLP175
CYYG;2004-09-08 04:00;METAR CYYG 080400Z 24011G16KT 15SM SKC 18/14 A3004 RMK SLP174
CYYG;2004-09-08 05:00;METAR CYYG 080500Z 23010KT 15SM SKC 17/14 A3004 RMK SLP174
CYYG;2004-09-08 06:00;METAR CYYG 080600Z 23010G15KT 15SM SKC 18/15 A3004 RMK SLP174
CYYG;2004-09-08 07:00;METAR CYYG 080700Z 25014KT 15SM SCT012 18/15 A3005 RMK SC3 SLP176
CYYG;2004-09-08 08:00;METAR CYYG 080800Z 24009G16KT 15SM BKN011 18/16 A3005 RMK SC6 SLP176
CYYG;2004-09-08 09:00;METAR CYYG 080900Z 23008KT 15SM BKN010 BKN018 18/16 A3006 RMK SC5SC2 SLP178
CYYG;2004-09-08 10:00;METAR CYYG 081000Z 25010KT 15SM BKN006 OVC018 18/17 A3007 RMK SF6SC2 SLP183
CYYG;2004-09-08 11:00;METAR CYYG 081100Z 25007KT 15SM OVC005 18/17 A3009 RMK ST8 SLP190
CYYG;2004-09-08 12:00;METAR CYYG 081200Z 24010G15KT 12SM OVC007 19/17 A3009 RMK SF8 CIG RAG VIS LWR E SLP191
CYYG;2004-09-08 13:00;METAR CYYG 081300Z 25008KT 15SM OVC007 20/18 A3011 RMK SF8 CIG RAG SLP197
CYYG;2004-09-08 14:00;METAR CYYG 081400Z 26008KT 15SM OVC009 20/18 A3013 RMK SC8 SLP202
CYYG;2004-09-08 15:00;METAR CYYG 081500Z 26006KT 10SM OVC009 19/18 A3014 RMK SC8 VIS LWR N SLP205
CYYG;2004-09-08 16:00;METAR CYYG 081600Z 25008KT 15SM VCSH FEW009 BKN017 OVC038 20/18 A3015 RMK SF2SC5SC2 SLP209
CYYG;2004-09-08 17:00;METAR CYYG 081700Z 35006KT 15SM VCSH BKN016 OVC040 19/16 A3016 RMK SC6SC2 SLP213
CYYG;2004-09-08 18:00;METAR CYYG 081800Z 36006KT 15SM -SHRA FEW008 BKN018 OVC050 18/15 A3017 RMK SF1SC6SC1 SLP216
CYYG;2004-09-08 19:00;METAR CYYG 081900Z 01005KT 15SM VCSH FEW024 BKN053 18/15 A3017 RMK SC1SC6 SLP218
CYYG;2004-09-08 20:00;METAR CYYG 082000Z 35007KT 15SM VCSH FEW024 BKN055 18/13 A3020 RMK CU1SC6 SLP228
CYYG;2004-09-08 21:00;METAR CYYG 082100Z 36005KT 15SM -SHRA FEW025 BKN050 OVC080 17/13 A3021 RMK SC1SC6AC1 SLP231
CYYG;2004-09-08 22:00;METAR CYYG 082200Z 36003KT 15SM VCSH FEW025 BKN054 BKN080 16/14 A3023 RMK SC1SC6AC1 SLP236
CYYG;2004-09-08 23:00;METAR CYYG 082300Z 00000KT 15SM -SHRA FEW025 BKN052 BKN250 16/14 A3025 RMK SC1SC7CS1 SLP245
CYYG;2004-09-09 00:00;METAR CYYG 090000Z 00000KT 15SM FEW025 FEW060 OVC082 16/14 A3027 RMK SC1SC2AC6 SLP252
CYYG;2004-09-09 01:00;METAR CYYG 090100Z 00000KT 15SM OVC095 15/14 A3029 RMK AC8 SLP259
CYYG;2004-09-09 02:00;METAR CYYG 090200Z 04002KT 15SM -SHRA BKN090 OVC120 15/14 A3029 RMK AC5AC3 SLP259
CYYG;2004-09-09 03:00;METAR CYYG 090300Z 04002KT 15SM BKN095 OVC120 14/14 A3030 RMK AC7AC1 SLP262
CYYG;2004-09-09 04:00;METAR CYYG 090400Z 07004KT 15SM FEW085 OVC120 14/13 A3032 RMK AC2AC6 SLP269
CYYG;2004-09-09 05:00;METAR CYYG 090500Z 08004KT 15SM BKN080 OVC120 14/13 A3034 RMK AC6AC2 SLP274
CYYG;2004-09-09 06:00;METAR CYYG 090600Z 07004KT 15SM BKN075 OVC130 14/13 A3035 RMK AC7AC1 SLP277
CYYG;2004-09-09 07:00;METAR CYYG 090700Z 09004KT 15SM OVC070 14/12 A3035 RMK AC8 SLP277
CYYG;2004-09-09 08:00;METAR CYYG 090800Z 07003KT 15SM FEW070 OVC140 14/12 A3036 RMK AC1AC7 SLP283
CYYG;2004-09-09 09:00;METAR CYYG 090900Z 07006KT 15SM FEW070 OVC140 13/10 A3037 RMK AC1AC7 SLP284
CYYG;2004-09-09 10:00;METAR CYYG 091000Z 09005KT 15SM FEW140 BKN160 OVC220 13/09 A3037 RMK AC2AC3CI2 SLP286
CYYG;2004-09-09 11:00;METAR CYYG 091100Z 10004KT 15SM FEW110 FEW160 OVC260 14/09 A3039 RMK AC1AC1CI6 SLP293
CYYG;2004-09-09 12:00;METAR CYYG 091200Z 08003KT 15SM -RA BKN120 OVC260 14/10 A3039 RMK AC6CI2 SLP292
CYYG;2004-09-09 13:00;METAR CYYG 091300Z 09003KT 15SM -RA SCT080 SCT120 OVC260 14/10 A3040 RMK AC3AC1CI4 SLP294
CYYG;2004-09-09 14:00;METAR CYYG 091400Z 06005KT 15SM -RA BKN058 BKN120 OVC260 15/11 A3039 RMK SC5AC2CI2 SLP292
CYYG;2004-09-09 15:00;METAR CYYG 091500Z 08005KT 15SM -RA OVC051 15/11 A3039 RMK SC8 SLP293
CYYG;2004-09-09 16:00;METAR CYYG 091600Z 08005KT 15SM -RA BKN042 OVC260 15/12 A3036 RMK SC6CI2 SLP282
CYYG;2004-09-09 17:00;METAR CYYG 091700Z 10007KT 15SM -RA SCT039 BKN087 OVC260 16/13 A3035 RMK SC3AC2CI2 SLP277
CYYG;2004-09-09 18:00;METAR CYYG 091800Z 10006KT 15SM -RA FEW033 SCT087 OVC260 16/14 A3033 RMK SC2AC2CI4 SLP271
CYYG;2004-09-09 19:00;METAR CYYG 091900Z 11006KT 15SM -RA FEW020 BKN048 OVC092 16/13 A3032 RMK SC2SC5AC2 SLP267
CYYG;2004-09-09 20:00;METAR CYYG 092000Z 10006KT 15SM OVC013 16/14 A3030 RMK SC8 SLP261
CYYG;2004-09-09 21:00;METAR CYYG 092100Z 11009KT 15SM BKN008 BKN015 OVC028 16/14 A3028 RMK SC6SC2SC1 VIS SE-SW 4 SLP255
CYYG;2004-09-09 22:00;METAR CYYG 092200Z 11005KT 3SM -RA BR OVC004 16/15 A3025 RMK SF8 SLP244
CYYG;2004-09-09 23:00;METAR CYYG 092300Z 13008KT 4SM -RA BR OVC006 16/16 A3022 RMK SF8 SLP235
CYYG;2004-09-10 00:00;METAR CYYG 100000Z 13009KT 6SM -RA OVC004 17/16 A3019 RMK SF8 SLP224
CYYG;2004-09-10 01:00;METAR CYYG 100100Z 14010KT 8SM -RA OVC005 17/17 A3015 RMK SF8 SLP211
CYYG;2004-09-10 02:00;METAR CYYG 100200Z 16012G17KT 10SM -RA BKN005 OVC007 18/18 A3011 RMK SF6SF2 SLP197
CYYG;2004-09-10 03:00;METAR CYYG 100300Z 16013G19KT 12SM -RA SCT005 BKN018 OVC080 19/18 A3007 RMK SF4SC2AC2 SLP182
CYYG;2004-09-10 04:00;METAR CYYG 100400Z 17016G21KT 15SM -RA FEW005 OVC013 19/18 A3004 RMK SF2SC6 SLP172
CYYG;2004-09-10 05:00;METAR CYYG 100500Z 18015KT 15SM -SHRA OVC015 20/19 A3001 RMK SC8 SLP162
CYYG;2004-09-10 06:00;METAR CYYG 100600Z 18017KT 15SM -SHRA OVC015 20/19 A2999 RMK SC8 SLP155
CYYG;2004-09-10 07:00;METAR CYYG 100700Z 19017KT 15SM -SHRA OVC022 21/19 A2996 RMK SC8 SLP147
CYYG;2004-09-10 08:00;METAR CYYG 100800Z 20016KT 15SM -SHRA BKN020 OVC060 21/19 A2994 RMK SC6SC2 SLP140
CYYG;2004-09-10 09:00;METAR CYYG 100900Z 20013G24KT 15SM OVC020 21/19 A2992 RMK SC8 SLP133
CYYG;2004-09-10 09:15;SPECI CYYG 100915Z 20016KT 15SM -SHRA OVC017 RMK SC8
CYYG;2004-09-10 10:00;METAR CYYG 101000Z 20013G18KT 15SM BKN015 BKN019 BKN042 21/19 A2992 RMK SC6SC1SC1 SLP131
CYYG;2004-09-10 11:00;METAR CYYG 101100Z 19014G20KT 15SM BKN016 BKN160 BKN300 21/19 A2991 RMK SC6AC1CI1 SLP128
CYYG;2004-09-10 12:00;METAR CYYG 101200Z 20017KT 15SM BKN016 BKN220 BKN300 21/19 A2990 RMK SC4CC2CI0 SLP127
CYYG;2004-09-10 13:00;METAR CYYG 101300Z 18015G20KT 15SM FEW019 BKN220 BKN300 21/19 A2988 RMK SC2CC3CI1 SLP118
CYYG;2004-09-10 14:00;METAR CYYG 101400Z 18016KT 15SM FEW019 BKN140 21/19 A2986 RMK SC1AC6 SLP112
CYYG;2004-09-10 15:00;METAR CYYG 101500Z 19016G21KT 15SM -SHRA FEW016 SCT080 BKN120 23/20 A2983 RMK SC2AC2AC4 ACC ASOCTD SLP101
CYYG;2004-09-10 17:00;METAR CYYG 101700Z 20012G19KT 10SM -SHRA OVC023 22/20 A2979 RMK SC8 SLP088
CYYG;2004-09-10 18:00;METAR CYYG 101800Z 20013G18KT 2SM SHRA BR SCT017TCU OVC035 21/20 A2977 RMK TCU4SC4 SLP082
CYYG;2004-09-10 19:00;METAR CYYG 101900Z 22013G22KT 15SM FEW005 SCT009TCU SCT045 23/21 A2975 RERA RMK SF1TCU2SC1 SLP073
CYYG;2004-09-10 20:00;METAR CYYG 102000Z 25015KT 15SM FEW009 FEW019TCU SCT080 22/19 A2975 RMK CF1TCU2AC1 SLP075
CYYG;2004-09-10 21:00;METAR CYYG 102100Z 25015G21KT 15SM FEW020TCU FEW057 21/17 A2975 RMK TCU1SC1 SLP075
CYYG;2004-09-10 22:00;METAR CYYG 102200Z 24015KT 15SM BKN060 BKN078 20/16 A2977 RMK SC5AC1 SLP080
CYYG;2004-09-10 23:00;METAR CYYG 102300Z 25009KT 15SM BKN040 OVC060 19/15 A2979 RMK SC6SC2 SLP089
CYYG;2004-09-11 00:00;METAR CYYG 110000Z 33008KT 10SM -SHRA BKN006 OVC040 16/15 A2984 RMK SF6SC2 SLP104
CYYG;2004-09-11 01:00;METAR CYYG 110100Z 36014G24KT 6SM -SHRA BR OVC007 14/13 A2988 RMK SF8 SLP118
CYYG;2004-09-11 02:00;METAR CYYG 110200Z 01012G20KT 6SM -SHRA BR OVC007 13/12 A2991 RMK SF8 SLP128
CYYG;2004-09-11 03:00;METAR CYYG 110300Z 02014G21KT 10SM -SHRA OVC007 13/12 A2994 RMK SF8 SLP138
CYYG;2004-09-11 04:00;METAR CYYG 110400Z 01016G28KT 15SM OVC012 14/12 A2995 RMK SC8 SLP143
CYYG;2004-09-11 05:00;METAR CYYG 110500Z 01011G18KT 15SM BKN012 OVC055 14/12 A3000 RMK SC6SC2 SLP158
CYYG;2004-09-11 06:00;METAR CYYG 110600Z 36009G16KT 15SM FEW012 BKN058 13/11 A3003 RMK SC2SC4 SLP168
CYYG;2004-09-11 07:00;METAR CYYG 110700Z 36009KT 15SM FEW130 13/11 A3006 RMK AC2 SLP178
CYYG;2004-09-11 08:00;METAR CYYG 110800Z 01009KT 15SM SKC 13/10 A3006 RMK SLP181
CYYG;2004-09-11 09:00;METAR CYYG 110900Z 36006KT 15SM SKC 13/10 A3010 RMK SLP192
CYYG;2004-09-11 10:00;METAR CYYG 111000Z 36006KT 15SM FEW130 13/11 A3012 RMK AC1 SLP201
CYYG;2004-09-11 11:00;METAR CYYG 111100Z 02010KT 15SM FEW250 14/12 A3014 RMK CI1 SLP208
CYYG;2004-09-11 12:00;METAR CYYG 111200Z 02008KT 15SM FEW250 16/13 A3017 RMK CI1 SLP217
CYYG;2004-09-11 13:00;METAR CYYG 111300Z 01010KT 15SM FEW015 FEW250 16/13 A3019 RMK CF1CI1 SLP225
CYYG;2004-09-11 14:00;METAR CYYG 111400Z 01012KT 15SM FEW250 17/12 A3022 RMK CI1 SLP233
CYYG;2004-09-11 15:00;METAR CYYG 111500Z 03013KT 15SM FEW250 17/12 A3023 RMK CI1 SLP237
CYYG;2004-09-11 16:00;METAR CYYG 111600Z 03012KT 15SM FEW250 17/12 A3024 RMK CI1 SLP240
CYYG;2004-09-11 17:00;METAR CYYG 111700Z 05011KT 15SM FEW250 18/11 A3025 RMK CI1 SLP244
CYYG;2004-09-11 18:00;METAR CYYG 111800Z 03009KT 15SM FEW250 17/11 A3026 RMK CI1 SLP249
CYYG;2004-09-11 19:00;METAR CYYG 111900Z 02009KT 15SM FEW250 17/10 A3025 RMK CI1 SLP246
CYYG;2004-09-11 20:00;METAR CYYG 112000Z 04008KT 15SM FEW300 16/10 A3026 RMK CI1 SLP247
CYYG;2004-09-11 21:00;METAR CYYG 112100Z 04008KT 15SM FEW300 16/10 A3026 RMK CI1 SLP247
CYYG;2004-09-11 22:00;METAR CYYG 112200Z 02005KT 15SM FEW300 14/10 A3027 RMK CI1 SLP251
CYYG;2004-09-11 23:00;METAR CYYG 112300Z 05002KT 15SM FEW300 12/09 A3027 RMK CI1 SLP250
CYYG;2004-09-12 00:00;METAR CYYG 120000Z 35003KT 15SM FEW300 09/08 A3028 RMK CI1 SLP256
CYYG;2004-09-12 01:00;METAR CYYG 120100Z 06002KT 15SM SKC 08/08 A3029 RMK SLP257
CYYG;2004-09-12 02:00;METAR CYYG 120200Z 06003KT 15SM SKC 07/06 A3028 RMK SLP255
CYYG;2004-09-12 03:00;METAR CYYG 120300Z 00000KT 15SM SKC 09/08 A3027 RMK SLP252
CYYG;2004-09-12 04:00;METAR CYYG 120400Z 00000KT 15SM SKC 06/06 A3027 RMK SLP250
CYYG;2004-09-12 05:00;METAR CYYG 120500Z 16002KT 15SM SKC 08/08 A3026 RMK SLP247
CYYG;2004-09-12 06:00;METAR CYYG 120600Z 14002KT 15SM SKC 06/05 A3025 RMK SLP243
CYYG;2004-09-12 07:00;METAR CYYG 120700Z 00000KT 15SM SKC 04/03 A3024 RMK SLP241
CYYG;2004-09-12 08:00;METAR CYYG 120800Z 00000KT 15SM SKC 05/04 A3023 RMK SLP238
CYYG;2004-09-12 09:00;METAR CYYG 120900Z CCA 00000KT 15SM MIFG FEW300 04/03 A3022 RMK CI1 SLP234
CYYG;2004-09-12 10:00;METAR CYYG 121000Z 00000KT 10SM MIFG BKN300 05/04 A3022 RMK CI3 SLP234
CYYG;2004-09-12 11:00;METAR CYYG 121100Z 14003KT 10SM PRFG BKN300 07/06 A3022 RMK CI3 FG BANK E-SE SLP234
CYYG;2004-09-12 12:00;METAR CYYG 121200Z 00000KT 15SM BKN300 11/11 A3021 RMK CI2 SLP230
CYYG;2004-09-12 13:00;METAR CYYG 121300Z 22006KT 15SM OVC300 15/11 A3020 RMK CI4 SLP229
CYYG;2004-09-12 14:00;METAR CYYG 121400Z 21006KT 15SM FEW240 BKN300 16/10 A3019 RMK CC2CS2 SLP224
CYYG;2004-09-12 15:00;METAR CYYG 121500Z 22007KT 15SM FEW240 BKN300 16/10 A3017 RMK CC2CS1 SLP218
CYYG;2004-09-12 16:00;METAR CYYG 121600Z 20007KT 15SM FEW240 BKN300 17/10 A3014 RMK CC2CS1 SLP208
CYYG;2004-09-12 17:00;METAR CYYG 121700Z 18008KT 15SM BKN300 17/12 A3012 RMK CS2 SLP202
CYYG;2004-09-12 18:00;METAR CYYG 121800Z 18011KT 15SM FEW300 19/12 A3009 RMK CI1 SLP191
CYYG;2004-09-12 19:00;METAR CYYG 121900Z 18009KT 15SM SCT300 19/12 A3007 RMK CI1 SLP185
CYYG;2004-09-12 20:00;METAR CYYG 122000Z 18010KT 15SM FEW300 19/11 A3005 RMK CI1 SLP177
CYYG;2004-09-12 21:00;METAR CYYG 122100Z 20008KT 15SM FEW300 19/11 A3003 RMK CI1 SLP171
CYYG;2004-09-12 22:00;METAR CYYG 122200Z 20010G15KT 15SM FEW300 17/12 A3002 RMK CI1 SLP166
CYYG;2004-09-12 23:00;METAR CYYG 122300Z 22006KT 15SM FEW300 17/12 A3000 RMK CI1 SLP161
CYYG;2004-09-13 00:00;METAR CYYG 130000Z 22007KT 15SM SKC 16/11 A3000 RMK SLP158
CYYG;2004-09-13 01:00;METAR CYYG 130100Z 23011KT 15SM SKC 16/08 A2999 RMK SLP156
CYYG;2004-09-13 02:00;METAR CYYG 130200Z 24009KT 15SM SKC 15/09 A2998 RMK SLP154
CYYG;2004-09-13 03:00;METAR CYYG 130300Z 24007KT 15SM SKC 15/09 A2998 RMK SLP153
CYYG;2004-09-13 04:00;METAR CYYG 130400Z 22006KT 15SM SKC 13/10 A2997 RMK SLP150
CYYG;2004-09-13 05:00;METAR CYYG 130500Z 24009KT 15SM SCT096 15/10 A2996 RMK AC3 SLP146
CYYG;2004-09-13 06:00;METAR CYYG 130600Z 25007KT 15SM FEW095 14/11 A2996 RMK AC1 SLP144
CYYG;2004-09-13 07:00;METAR CYYG 130700Z 25008KT 15SM FEW088 14/11 A2996 RMK AC2 SLP145
CYYG;2004-09-13 08:00;METAR CYYG 130800Z 25008KT 15SM FEW088 14/11 A2996 RMK AC2 SLP144
CYYG;2004-09-13 09:00;METAR CYYG 130900Z 27006KT 15SM FEW085 SCT220 13/11 A2997 RMK AC2CC2 SLP149
CYYG;2004-09-13 10:00;METAR CYYG 131000Z 29006KT 15SM FEW030 FEW100 SCT230 SCT310 13/10 A2999 RMK SC1AC1CC2CI0 SLP155
CYYG;2004-09-13 11:00;METAR CYYG 131100Z 29004KT 15SM FEW030 FEW100 SCT230 SCT310 13/09 A3001 RMK SC2AC1CC2CI0 SLP161
CYYG;2004-09-13 12:00;METAR CYYG 131200Z 29008KT 15SM BKN023 BKN310 14/10 A3001 RMK SC6CI0 SLP163
CYYG;2004-09-13 13:00;METAR CYYG 131300Z 30009KT 15SM BKN035 BKN310 15/08 A3002 RMK SC6CI1 SLP166
CYYG;2004-09-13 14:00;METAR CYYG 131400Z 31009KT 15SM BKN035 14/07 A3003 RMK SC6 SLP170
CYYG;2004-09-13 15:00;METAR CYYG 131500Z 29010G16KT 15SM BKN030 13/07 A3003 RMK SC7 SLP169
CYYG;2004-09-13 16:00;METAR CYYG 131600Z 32011G16KT 15SM BKN028 12/06 A3004 RMK SC7 SLP171
CYYG;2004-09-13 17:00;METAR CYYG 131700Z 31011G19KT 15SM BKN035 13/06 A3005 RMK SC7 SLP176
CYYG;2004-09-13 18:00;METAR CYYG 131800Z 33015G20KT 15SM BKN035 11/05 A3007 RMK SC7 SLP183
CYYG;2004-09-13 19:00;METAR CYYG 131900Z 32015G21KT 15SM BKN037 12/04 A3009 RMK SC7 SLP190
CYYG;2004-09-13 20:00;METAR CYYG 132000Z 32007G18KT 15SM VCSH BKN039 11/05 A3010 RMK SC7 SLP194
CYYG;2004-09-13 21:00;METAR CYYG 132100Z 32011G16KT 15SM -SHRA BKN035 BKN050 11/06 A3012 RMK SC6SC2 SLP199
CYYG;2004-09-13 22:00;METAR CYYG 132200Z 32010G16KT 15SM VCSH FEW035 BKN045 12/06 A3013 RMK SC2SC5 SLP205
CYYG;2004-09-13 23:00;METAR CYYG 132300Z 35011G18KT 15SM FEW029 BKN048 11/05 A3016 RMK SC2SC6 SLP214
CYYG;2004-09-14 00:00;METAR CYYG 140000Z 34011KT 15SM FEW035 BKN043 11/04 A3018 RMK SC2SC6 SLP221
CYYG;2004-09-14 01:00;METAR CYYG 140100Z 36008G17KT 15SM FEW035 BKN045 11/04 A3019 RMK SC2SC6 SLP225
CYYG;2004-09-14 02:00;METAR CYYG 140200Z 35011G16KT 15SM BKN045 11/04 A3020 RMK SC7 SLP228
CYYG;2004-09-14 03:00;METAR CYYG 140300Z 35013G19KT 15SM BKN045 11/04 A3021 RMK SC6 SLP232
CYYG;2004-09-14 04:00;METAR CYYG 140400Z 35011G16KT 15SM BKN045 11/04 A3022 RMK SC6 SLP233
CYYG;2004-09-14 05:00;METAR CYYG 140500Z 35008KT 15SM FEW042 BKN051 11/04 A3023 RMK SC2SC5 SLP236
CYYG;2004-09-14 06:00;METAR CYYG 140600Z 36007G17KT 15SM FEW031 BKN051 11/05 A3023 RMK SC2SC5 SLP238
CYYG;2004-09-14 07:00;METAR CYYG 140700Z 36009KT 15SM FEW031 BKN051 11/05 A3025 RMK SC2SC5 SLP243
CYYG;2004-09-14 08:00;METAR CYYG 140800Z 02009KT 15SM OVC043 11/04 A3027 RMK SC8 SLP250
CYYG;2004-09-14 09:00;METAR CYYG 140900Z 01010G15KT 15SM BKN040 10/03 A3030 RMK SC6 SLP260
CYYG;2004-09-14 10:00;METAR CYYG 141000Z 01007KT 15SM SCT040 BKN310 09/03 A3031 RMK SC4CI0 SLP266
CYYG;2004-09-14 11:00;METAR CYYG 141100Z 35004KT 15SM SCT040 BKN310 09/03 A3035 RMK SC4CI0 SLP277
CYYG;2004-09-14 12:00;METAR CYYG 141200Z 36009G15KT 15SM SCT036 BKN310 12/04 A3035 RMK SC3CI0 SLP278
CYYG;2004-09-14 13:00;METAR CYYG 141300Z 03010G16KT 15SM BKN034 12/04 A3037 RMK SC5 SLP286
CYYG;2004-09-14 14:00;METAR CYYG 141400Z 02010G16KT 15SM BKN035 12/04 A3039 RMK SC5 SLP291
CYYG;2004-09-14 15:00;METAR CYYG 141500Z 36009KT 15SM BKN036 BKN300 12/04 A3039 RMK SC5CI0 SLP291
CYYG;2004-09-14 16:00;METAR CYYG 141600Z 36006KT 15SM SCT036 SCT300 13/04 A3038 RMK SC3CI0 SLP289
CYYG;2004-09-14 17:00;METAR CYYG 141700Z 01008KT 15SM FEW035 SCT300 13/04 A3038 RMK SC2CI0 SLP287
CYYG;2004-09-14 18:00;METAR CYYG 141800Z 32002KT 15SM FEW036 SCT300 13/04 A3036 RMK SC2CI0 SLP283
CYYG;2004-09-14 19:00;METAR CYYG 141900Z 05004KT 15SM FEW035 FEW300 13/04 A3037 RMK SC1CI0 SLP284
CYYG;2004-09-14 20:00;METAR CYYG 142000Z 36005KT 15SM FEW035 FEW100 SCT300 13/05 A3036 RMK SC1AC1CI0 SLP283
CYYG;2004-09-14 21:00;METAR CYYG 142100Z 00000KT 15SM FEW035 FEW100 SCT300 13/05 A3035 RMK SC1AC1CI0 SLP277
CYYG;2004-09-14 22:00;METAR CYYG 142200Z 12003KT 15SM FEW100 FEW300 11/05 A3034 RMK AC1CI0 SLP275
CYYG;2004-09-14 23:00;METAR CYYG 142300Z 00000KT 15SM FEW300 09/05 A3034 RMK CI1 SLP276
CYYG;2004-09-15 00:00;METAR CYYG 150000Z 16005KT 15SM SKC 09/05 A3034 RMK SLP277
CYYG;2004-09-15 01:00;METAR CYYG 150100Z 20006KT 15SM SKC 10/06 A3033 RMK SLP272
CYYG;2004-09-15 02:00;METAR CYYG 150200Z 21004KT 15SM SKC 10/07 A3033 RMK SLP272
CYYG;2004-09-15 03:00;METAR CYYG 150300Z 22004KT 15SM SKC 10/07 A3032 RMK SLP267
CYYG;2004-09-15 04:00;METAR CYYG 150400Z 22006KT 15SM SKC 11/07 A3029 RMK SLP259
CYYG;2004-09-15 05:00;METAR CYYG 150500Z 23006KT 15SM SKC 11/08 A3028 RMK SLP255
CYYG;2004-09-15 06:00;METAR CYYG 150600Z 23009KT 15SM SKC 11/08 A3027 RMK SLP250
CYYG;2004-09-15 07:00;METAR CYYG 150700Z 24009KT 15SM SKC 11/07 A3026 RMK SLP249
CYYG;2004-09-15 08:00;METAR CYYG 150800Z 24009KT 15SM SKC 11/07 A3025 RMK SLP246
CYYG;2004-09-15 09:00;METAR CYYG 150900Z 24010KT 15SM SKC 11/08 A3025 RMK SLP245
CYYG;2004-09-15 10:00;METAR CYYG 151000Z 23009KT 15SM FEW120 FEW280 11/08 A3025 RMK AC1CI1 SLP245
CYYG;2004-09-15 11:00;METAR CYYG 151100Z 24010G15KT 15SM FEW120 FEW280 12/08 A3025 RMK AC1CI0
CYYG;2004-09-15 12:00;METAR CYYG 151200Z 24016KT 15SM FEW280 14/08 A3024 RMK CI0 SLP240
CYYG;2004-09-15 13:00;METAR CYYG 151300Z 24018KT 15SM FEW280 15/08 A3023 RMK CI0 SLP237
CYYG;2004-09-15 14:00;METAR CYYG 151400Z 24014G22KT 15SM FEW280 17/09 A3021 RMK CI1 SLP232
CYYG;2004-09-15 15:00;METAR CYYG 151500Z 23012G18KT 15SM FEW280 18/11 A3021 RMK CI1 SLP231
CYYG;2004-09-15 16:00;METAR CYYG 151600Z 25017G24KT 15SM FEW280 19/11 A3020 RMK CI1 SLP227
CYYG;2004-09-15 17:00;METAR CYYG 151700Z 24016G21KT 15SM FEW280 20/12 A3018 RMK CI1 SLP221
CYYG;2004-09-15 18:00;METAR CYYG 151800Z 22013G19KT 15SM FEW280 21/13 A3016 RMK CI1 SLP214
CYYG;2004-09-15 19:00;METAR CYYG 151900Z 23015KT 15SM FEW280 21/13 A3014 RMK CI1 SLP208
CYYG;2004-09-15 20:00;METAR CYYG 152000Z 23013G19KT 15SM FEW280 21/08 A3013 RMK CI1 SLP204
CYYG;2004-09-15 21:00;METAR CYYG 152100Z 23014KT 15SM FEW280 20/12 A3013 RMK CI1 SLP203
CYYG;2004-09-15 22:00;METAR CYYG 152200Z 23010KT 15SM FEW280 18/12 A3012 RMK CI1 SLP201
CYYG;2004-09-15 23:00;METAR CYYG 152300Z 23013KT 15SM FEW280 17/11 A3014 RMK CI1 SLP205
CYYG;2004-09-16 00:00;METAR CYYG 160000Z 24014G21KT 15SM FEW280 16/10 A3014 RMK CI1 SLP208
CYYG;2004-09-16 01:00;METAR CYYG 160100Z 25015G20KT 15SM FEW280 15/08 A3014 RMK CI1 SLP206
CYYG;2004-09-16 02:00;METAR CYYG 160200Z 24012G19KT 15SM SKC 15/09 A3014 RMK SLP206
CYYG;2004-09-16 03:00;METAR CYYG 160300Z 24009KT 15SM SKC 14/10 A3012 RMK SLP201
CYYG;2004-09-16 04:00;METAR CYYG 160400Z 23010G15KT 15SM SKC 14/11 A3012 RMK SLP198
CYYG;2004-09-16 05:00;METAR CYYG 160500Z 24010G15KT 15SM SKC 13/11 A3011 RMK SLP195
CYYG;2004-09-16 06:00;METAR CYYG 160600Z 24011KT 15SM SKC 13/10 A3009 RMK SLP191
CYYG;2004-09-16 07:00;METAR CYYG 160700Z 23013KT 15SM SKC 13/10 A3008 RMK SLP186
CYYG;2004-09-16 08:00;METAR CYYG 160800Z 24010G15KT 15SM SKC 12/10 A3008 RMK SLP186
CYYG;2004-09-16 09:00;METAR CYYG 160900Z 24011G18KT 15SM FEW250 12/11 A3008 RMK CI1 SLP186
CYYG;2004-09-16 10:00;METAR CYYG 161000Z 24014KT 15SM FEW015 SCT250 13/11 A3008 RMK SC1CI2 SLP187
CYYG;2004-09-16 11:00;METAR CYYG 161100Z 23013G18KT 15SM FEW015 SCT250 14/11 A3009 RMK SC1CI2 SLP188
CYYG;2004-09-16 12:00;METAR CYYG 161200Z 23012G20KT 15SM FEW012 SCT250 15/12 A3007 RMK SC2CI1 SLP184
CYYG;2004-09-16 13:00;METAR CYYG 161300Z 25012G21KT 15SM FEW012 SCT250 17/14 A3007 RMK SC2CI1
CYYG;2004-09-16 14:00;METAR CYYG 161400Z 23013G18KT 15SM FEW015 SCT250 18/14 A3007 RMK SC2CI1
CYYG;2004-09-16 15:00;METAR CYYG 161500Z 24012KT 15SM SCT250 20/15 A3006 RMK CI2 SLP181
CYYG;2004-09-16 16:00;METAR CYYG 161600Z 23014G19KT 15SM BKN220 20/15 A3006 RMK CI2 SLP179
CYYG;2004-09-16 17:00;METAR CYYG 161700Z 23013KT 15SM FEW160 BKN220 20/14 A3004 RMK AC2CI2 SLP171
CYYG;2004-09-16 18:00;METAR CYYG 161800Z 22016KT 15SM FEW160 BKN220 22/15 A3002 RMK AC2CI2 SLP165
CYYG;2004-09-16 19:00;METAR CYYG 161900Z 23010G18KT 15SM FEW160 SCT220 23/15 A3000 RMK AC1CI2 SLP160
CYYG;2004-09-16 20:00;METAR CYYG 162000Z 24011G20KT 15SM SCT220 22/15 A3001 RMK CI2 SLP161
CYYG;2004-09-16 21:00;METAR CYYG 162100Z 23011KT 15SM FEW160 SCT220 20/14 A2999 RMK AC1CI2 SLP157
CYYG;2004-09-16 22:00;METAR CYYG 162200Z 22008KT 15SM FEW150 BKN220 19/15 A3000 RMK AC2CI2 SLP159
CYYG;2004-09-16 23:00;METAR CYYG 162300Z 22011KT 15SM SCT160 BKN220 19/14 A3000 RMK AC3CI2
CYYG;2004-09-17 00:00;METAR CYYG 170000Z 22008KT 15SM SCT160 BKN220 18/14 A3001 RMK AC3CI3 SLP161
CYYG;2004-09-17 01:00;METAR CYYG 170100Z 23007KT 15SM SCT150 BKN220 17/14 A3001 RMK AC3CI3 SLP162
CYYG;2004-09-17 02:00;METAR CYYG 170200Z 22006KT 15SM FEW022 SCT150 BKN220 16/14 A3000 RMK SC2AC2CI2 SLP160
CYYG;2004-09-17 03:00;METAR CYYG 170300Z 21007KT 15SM SCT016 BKN140 BKN220 16/14 A3000 RMK SC3AC2CI2 SLP158
CYYG;2004-09-17 04:00;METAR CYYG 170400Z 21007KT 15SM SCT016 BKN140 BKN220 17/14 A2999 RMK SC4AC2CI1 SLP155
CYYG;2004-09-17 05:00;METAR CYYG 170500Z 21007KT 15SM SCT012 BKN140 18/16 A2998 RMK SC4AC2 SLP153
CYYG;2004-09-17 06:00;METAR CYYG 170600Z 22008G18KT 15SM BKN012 BKN140 18/17 A2997 RMK SC6AC2 SLP150
CYYG;2004-09-17 07:00;METAR CYYG 170700Z 22006KT 10SM FEW002 OVC009 18/17 A2997 RMK SF2SF6 SLP149
CYYG;2004-09-17 08:00;METAR CYYG 170800Z 21006KT 10SM FEW002 SCT006 OVC015 18/17 A2996 RMK SF2SC2SC4 SLP145
CYYG;2004-09-17 09:00;METAR CYYG 170900Z 21006KT 15SM FEW015 18/17 A2996 RMK SC2 SLP144
CYYG;2004-09-17 10:00;METAR CYYG 171000Z 22007KT 15SM SCT013 BKN250 18/17 A2995 RMK SC4CI1 SLP143
CYYG;2004-09-17 11:00;METAR CYYG 171100Z 20009KT 15SM BKN009 18/17 A2996 RMK SC6 SLP145
CYYG;2004-09-17 12:00;METAR CYYG 171200Z 20011KT 15SM SCT009 BKN250 19/18 A2996 RMK SC4CI2 SLP144
CYYG;2004-09-17 13:00;METAR CYYG 171300Z 21013KT 15SM BKN012 19/18 A2996 RMK SC6 SLP145
CYYG;2004-09-17 14:00;METAR CYYG 171400Z 19018KT 15SM BKN012 21/18 A2994 RMK SC5 SLP139
CYYG;2004-09-17 15:00;METAR CYYG 171500Z 19015G20KT 15SM BKN012 21/18 A2992 RMK SC6 SLP133
CYYG;2004-09-17 16:00;METAR CYYG 171600Z 18015KT 15SM SCT012 BKN250 22/18 A2990 RMK SC3CI2 SLP126
CYYG;2004-09-17 17:00;METAR CYYG 171700Z 18013KT 15SM BKN022 22/18 A2988 RMK SC7 SLP119
CYYG;2004-09-17 18:00;METAR CYYG 171800Z 19012G17KT 15SM BKN032 22/19 A2987 RMK SC7 SLP114
CYYG;2004-09-17 19:00;METAR CYYG 171900Z 19011KT 15SM BKN038 BKN250 23/19 A2985 RMK SC6CI2 SLP107
CYYG;2004-09-17 20:00;METAR CYYG 172000Z 18009KT 15SM FEW038 BKN250 23/19 A2984 RMK SC2CI2 SLP105
CYYG;2004-09-17 21:00;METAR CYYG 172100Z 21009KT 15SM FEW040 SCT250 23/19 A2983 RMK SC2CI1 SLP101
CYYG;2004-09-17 22:00;METAR CYYG 172200Z 23004KT 15SM FEW035 SCT250 22/19 A2983 RMK SC2CI1 SLP102
CYYG;2004-09-17 23:00;METAR CYYG 172300Z 24006KT 15SM FEW035 19/18 A2984 RMK SC2 SLP105
CYYG;2004-09-18 00:00;METAR CYYG 180000Z 25009KT 15SM FEW035 19/17 A2986 RMK SC2 SLP112
CYYG;2004-09-18 01:00;METAR CYYG 180100Z 25008KT 15SM FEW010 SCT220 18/17 A2987 RMK SF2CI2 SLP114
CYYG;2004-09-18 03:00;METAR CYYG 180300Z 23009KT 15SM BKN008 18/17 A2986 RMK SF7 SLP113
CYYG;2004-09-18 04:00;METAR CYYG 180400Z 24009KT 15SM OVC008 18/17 A2987 RMK SF8 SLP114
CYYG;2004-09-18 05:00;METAR CYYG 180500Z 23007KT 15SM OVC008 18/17 A2987 RMK SF8 SLP117
CYYG;2004-09-18 06:00;METAR CYYG 180600Z 25009KT 15SM BKN008 OVC020 18/17 A2987 RMK SF6SC2 SLP116
CYYG;2004-09-18 07:00;METAR CYYG 180700Z 26006KT 15SM BKN008 OVC015 18/17 A2989 RMK SF6SC2 SLP121
CYYG;2004-09-18 08:00;METAR CYYG 180800Z 34005KT 15SM BKN008 OVC016 16/13 A2990 RMK SF5SC3 SLP126
CYYG;2004-09-18 09:00;METAR CYYG 180900Z 34003KT 15SM FEW008 OVC024 15/12 A2990 RMK SF2SC6 SLP127
CYYG;2004-09-18 10:00;METAR CYYG 181000Z 35003KT 15SM -RA FEW008 SCT029 OVC097 15/12 A2992 RMK SF1SC2AS5 SLP132
CYYG;2004-09-18 11:00;METAR CYYG 181100Z 34004KT 15SM SCT028 BKN085 OVC099 14/12 A2994 RMK SC3AC2AC2 SLP139
CYYG;2004-09-18 12:00;METAR CYYG 181200Z 36008KT 15SM FEW028 SCT069 OVC078 15/11 A2993 RMK SC2AC2AC4 SLP135
CYYG;2004-09-18 13:00;METAR CYYG 181300Z 34005KT 15SM FEW028 OVC067 14/11 A2995 RMK SC2AC6 SLP143
CYYG;2004-09-18 14:00;METAR CYYG 181400Z 34007KT 8SM -RA OVC064 13/10 A2999 RMK NS8 SLP155
CYYG;2004-09-18 15:00;METAR CYYG 181500Z 36005KT 15SM FEW020 OVC061 13/11 A2997 RMK SC2NS6 SLP149
CYYG;2004-09-18 16:00;METAR CYYG 181600Z 36003KT 15SM FEW010 OVC057 13/10 A2996 RMK CU1SC7 SLP147
CYYG;2004-09-18 17:00;METAR CYYG 181700Z 35004KT 15SM FEW020 OVC054 13/10 A2996 RMK SC2SC6
CYYG;2004-09-18 18:00;METAR CYYG 181800Z 36005KT 10SM -RA FEW020 OVC048 12/11 A2995 RMK SC2SC6 SLP142
CYYG;2004-09-18 19:00;METAR CYYG 181900Z 35006KT 8SM -RA FEW009 OVC044 11/11 A2996 RMK SF2NS6 SLP146
CYYG;2004-09-18 20:00;METAR CYYG 182000Z 36005KT 3SM -RA BR BKN004 OVC043 11/11 A2996 RMK SF5NS3 SLP144
CYYG;2004-09-18 21:00;METAR CYYG 182100Z 01008KT 3SM RA BR SCT004 OVC042 10/10 A2992 RMK SF4NS4 SLP132
CYYG;2004-09-18 22:00;METAR CYYG 182200Z 02009KT 4SM RA BR BKN004 OVC012 10/10 A2990 RMK SF6NS2
CYYG;2004-09-18 23:00;METAR CYYG 182300Z 35006KT 5SM RA BR BKN005 OVC032 10/10 A2995 RMK SF6NS2
CYYG;2004-09-19 00:00;METAR CYYG 190000Z 36007KT 5SM RA BR BKN009 OVC012 10/10 A2994 RMK SF6NS2 SLP138
CYYG;2004-09-19 01:00;METAR CYYG 190100Z 36008KT 6SM RA BR OVC010 10/10 A2994 RMK SF8 SLP138
CYYG;2004-09-19 02:00;METAR CYYG 190200Z 36006KT 7SM -RA OVC013 09/09 A2991 RMK SF8 RERA SLP129
CYYG;2004-09-19 03:00;METAR CYYG 190300Z 34007KT 8SM OVC010 10/09 A2990 RMK SF8 SLP126
CYYG;2004-09-19 04:00;METAR CYYG 190400Z 04011KT 6SM -RA BR OVC010 11/11 A2989 RMK SF8 SLP122
CYYG;2004-09-19 05:00;METAR CYYG 190500Z 03011KT 8SM -RA OVC014 10/10 A2989 RMK SF8 SLP124
CYYG;2004-09-19 06:00;METAR CYYG 190600Z 03009KT 8SM -RA OVC014 10/09 A2988 RMK SC8 SLP120
CYYG;2004-09-19 07:00;METAR CYYG 190700Z 35005KT 6SM -RA BR OVC011 10/10 A2989 RMK SC8 SLP122
CYYG;2004-09-19 08:00;METAR CYYG 190800Z 01007KT 6SM -RA BR OVC011 10/09 A2989 RMK SC8 SLP124
CYYG;2004-09-19 09:00;METAR CYYG 190900Z 01008KT 15SM OVC020 10/09 A2989 RMK SC8 SLP122
CYYG;2004-09-19 10:00;METAR CYYG 191000Z 01009KT 15SM OVC020 11/09 A2990 RMK SC8 SLP125
CYYG;2004-09-19 11:00;METAR CYYG 191100Z 36008KT 15SM BKN026 OVC045 11/09 A2991 RMK SC6SC2 SLP129
CYYG;2004-09-19 12:00;METAR CYYG 191200Z 36008KT 15SM BKN022 OVC035 11/09 A2990 RMK SC6SC2 SLP126
CYYG;2004-09-19 13:00;METAR CYYG 191300Z 02011KT 15SM OVC019 12/10 A2992 RMK SC8 SLP134
CYYG;2004-09-19 14:00;METAR CYYG 191400Z 02012G18KT 12SM -SHRA OVC015 12/11 A2993 RMK SC8 SLP135
CYYG;2004-09-19 15:00;METAR CYYG 191500Z 02012G18KT 10SM -SHRA OVC015 12/11 A2993 RMK SC8 SLP138
CYYG;2004-09-19 16:00;METAR CYYG 191600Z 02014G22KT 12SM -SHRA BKN015 OVC030 13/11 A2991 RMK SC6SC2 CIG RAG SLP130
CYYG;2004-09-19 17:00;METAR CYYG 191700Z 02016G24KT 10SM -SHRA BKN015 OVC030 12/11 A2991 RMK SC6SC2 SLP129
CYYG;2004-09-19 18:00;METAR CYYG 191800Z 03017G26KT 12SM -SHRA BKN015 OVC032 12/11 A2991 RMK SC6SC2 RERA CIG RAG SLP130
CYYG;2004-09-19 19:00;METAR CYYG 191900Z 04017G25KT 10SM -SHRA BKN015 OVC026 12/09 A2995 RMK SC5SC3 CIG RAG SLP144
CYYG;2004-09-19 20:00;METAR CYYG 192000Z 03020G27KT 6SM -SHRA BR SCT010 OVC026 10/10 A2993 RMK SC4SC4 CIG RAG SLP136
CYYG;2004-09-19 21:00;METAR CYYG 192100Z 02023G28KT 8SM -SHRA SCT010 OVC030 10/10 A2993 RMK SC4SC4 SLP138
CYYG;2004-09-19 22:00;METAR CYYG 192200Z 02023G31KT 8SM -SHRA SCT010 OVC025 10/09 A2994 RMK SC3SC5 SLP141
CYYG;2004-09-19 23:00;METAR CYYG 192300Z 02019G29KT 8SM -SHRA FEW010 OVC024 10/08 A2996 RMK SC2SC6 SLP148
CYYG;2004-09-20 00:00;METAR CYYG 200000Z 02024G32KT 10SM -SHRA FEW012 OVC025 09/08 A2998 RMK SC2SC6 SLP153
CYYG;2004-09-20 01:00;METAR CYYG 200100Z 02025G32KT 15SM -SHRA OVC029 10/08 A2997 RMK SC8 SLP150
CYYG;2004-09-20 02:00;METAR CYYG 200200Z 01021G31KT 15SM SCT018 OVC031 09/08 A2997 RMK SC3SC5 SLP149
CYYG;2004-09-20 03:00;METAR CYYG 200300Z 36021G30KT 15SM SCT020 OVC030 10/07 A2997 RMK SC3SC5
CYYG;2004-09-20 04:00;METAR CYYG 200400Z 02025G33KT 15SM -SHRA FEW013 OVC033 08/08 A2996 RMK SC2SC6 SLP146
CYYG;2004-09-20 05:00;METAR CYYG 200500Z 01020G27KT 15SM -SHRA FEW026 OVC036 09/07 A2996 RMK
CYYG;2004-09-20 06:00;METAR CYYG 200600Z 01018G32KT 15SM -SHRA FEW022 OVC034 09/07 A2995 RMK SC2SC6 SLP142
CYYG;2004-09-20 07:00;METAR CYYG 200700Z 01024G29KT 15SM -SHRA FEW020 OVC040 09/07 A2993 RMK SC2SC6 SLP137
CYYG;2004-09-20 08:00;METAR CYYG 200800Z 01017G28KT 15SM -SHRA FEW018 OVC039 09/07 A2993 RMK SC2SC6 SLP135
CYYG;2004-09-20 09:00;METAR CYYG 200900Z 01022G34KT 15SM -SHRA SCT018 OVC033 09/07 A2993 RMK SC3SC5 SLP136
CYYG;2004-09-20 10:00;METAR CYYG 201000Z 36018G28KT 15SM -SHRA BKN020 OVC040 10/07 A2996 RMK SC5SC3 SLP146
CYYG;2004-09-20 10:28;SPECI CYYG 201028Z 36016G31KT 15SM BKN024 OVC040 RMK SC5SC3
CYYG;2004-09-20 11:00;METAR CYYG 201100Z 01018G25KT 15SM OVC032 09/06 A2998 RMK SC8 SLP153
CYYG;2004-09-20 12:00;METAR CYYG 201200Z 35017G26KT 15SM VCSH OVC034 10/05 A2999 RMK SC8 SLP156
CYYG;2004-09-20 13:00;METAR CYYG 201300Z 35016G29KT 15SM VCSH BKN033 09/05 A2999 RMK SC7 SLP158
CYYG;2004-09-20 15:00;METAR CYYG 201500Z CCA 35014G27KT 15SM BKN032 BKN280 11/05 A2999 RMK SC6CI1 SLP158
CYYG;2004-09-20 16:00;METAR CYYG 201600Z 36017G30KT 15SM BKN029 BKN280 10/04 A2998 RMK SC6CI1 SLP153
CYYG;2004-09-20 17:00;METAR CYYG 201700Z 36019G26KT 15SM BKN029 BKN280 11/05 A2996 RMK SC5CI1 SLP147
CYYG;2004-09-20 18:00;METAR CYYG 201800Z 34020G31KT 15SM SCT030 BKN280 11/05 A2996 RMK SC3CI1
CYYG;2004-09-20 19:00;METAR CYYG 201900Z 36022G30KT 15SM FEW030 SCT280 11/04 A2996 RMK SC2CI1 SLP148
CYYG;2004-09-20 20:00;METAR CYYG 202000Z 34017G29KT 15SM FEW030 SCT280 11/04 A2997 RMK SC2CI1
CYYG;2004-09-20 21:00;METAR CYYG 202100Z 36014G27KT 15SM FEW030 FEW280 10/04 A2997 RMK SC1CI1
CYYG;2004-09-20 22:00;METAR CYYG 202200Z 36016G24KT 15SM FEW030 FEW280 10/03 A2997 RMK SC1CI1 SLP150
CYYG;2004-09-20 23:00;METAR CYYG 202300Z 36012G19KT 15SM FEW030 FEW100 10/03 A2998 RMK SC1AC1
CYYG;2004-09-21 00:00;METAR CYYG 210000Z 35011G17KT 15SM FEW030 FEW100 11/04 A2998 RMK SC1AC1 SLP152
CYYG;2004-09-21 01:00;METAR CYYG 210100Z 35012G19KT 15SM SKC 11/04 A2997 RMK SLP151
CYYG;2004-09-21 02:00;METAR CYYG 210200Z 35009KT 15SM SKC 11/05 A2997 RMK SLP149
CYYG;2004-09-21 03:00;METAR CYYG 210300Z 35007KT 15SM FEW087 11/05 A2996 RMK AC2 SLP148
CYYG;2004-09-21 04:00;METAR CYYG 210400Z 36010G17KT 15SM SCT086 12/05 A2996 RMK AC3 SLP145
CYYG;2004-09-21 05:00;METAR CYYG 210500Z 36008KT 15SM BKN086 11/06 A2995 RMK AC6 SLP142
CYYG;2004-09-21 06:00;METAR CYYG 210600Z 34004KT 15SM FEW031 BKN078 10/06 A2994 RMK SC2AC5 SLP140
CYYG;2004-09-21 07:00;METAR CYYG 210700Z 36006KT 15SM FEW030 BKN078 10/07 A2994 RMK SC2AC4
CYYG;2004-09-21 08:00;METAR CYYG 210800Z 36006KT 15SM FEW030 SCT078 09/06 A2995 RMK SC2AC2 SLP142
CYYG;2004-09-21 09:00;METAR CYYG 210900Z 35011G16KT 15SM FEW030 SCT060 10/05 A2995 RMK SC2SC2 SLP144
CYYG;2004-09-21 10:00;METAR CYYG 211000Z 36012G22KT 15SM SCT034 10/03 A2997 RMK SC4 SLP151
CYYG;2004-09-21 11:00;METAR CYYG 211100Z 36013G20KT 15SM FEW035 BKN042 10/03 A2999 RMK SC1SC6 SLP157
CYYG;2004-09-21 12:00;METAR CYYG 211200Z 01017G22KT 15SM BKN035 09/03 A3001 RMK SC7 SLP162
CYYG;2004-09-21 13:00;METAR CYYG 211300Z 01017G24KT 15SM BKN033 09/03 A3004 RMK SC7 SLP172
CYYG;2004-09-21 14:00;METAR CYYG 211400Z 36017G25KT 15SM BKN035 09/02 A3005 RMK SC7 SLP176
CYYG;2004-09-21 15:00;METAR CYYG 211500Z 35013G24KT 15SM BKN038 09/03 A3005 RMK SC7 SLP176
CYYG;2004-09-21 16:00;METAR CYYG 211600Z 35014G21KT 15SM BKN033 09/03 A3004 RMK SC7 SLP173
CYYG;2004-09-21 17:00;METAR CYYG 211700Z 36017G24KT 15SM BKN028 09/03 A3004 RMK SC7 SLP173
CYYG;2004-09-21 18:00;METAR CYYG 211800Z 35012G22KT 15SM FEW028 BKN037 10/03 A3004 RMK SC2SC5 SLP173
CYYG;2004-09-21 19:00;METAR CYYG 211900Z 36020G26KT 15SM BKN033 09/02 A3004 RMK SC6 SLP173
CYYG;2004-09-21 20:00;METAR CYYG 212000Z 36009G19KT 15SM FEW033 FEW300 10/03 A3004 RMK SC1CI1 SLP174
CYYG;2004-09-21 21:00;METAR CYYG 212100Z 36010G18KT 15SM FEW030 FEW300 09/02 A3005 RMK SC1CI1 SLP177
CYYG;2004-09-21 22:00;METAR CYYG 212200Z 36010G15KT 15SM FEW030 08/02 A3006 RMK SC1 SLP180
CYYG;2004-09-21 23:00;METAR CYYG 212300Z 36008KT 15SM FEW030 07/02 A3006 RMK SC1 SLP182
CYYG;2004-09-22 00:00;METAR CYYG 220000Z 34004KT 15SM SKC 06/02 A3007 RMK SLP183
CYYG;2004-09-22 01:00;METAR CYYG 220100Z 35004KT 15SM SKC 05/02 A3006 RMK SLP180
CYYG;2004-09-22 02:00;METAR CYYG 220200Z 33004KT 15SM FEW040 06/02 A3007 RMK SC2 SLP183
CYYG;2004-09-22 03:00;METAR CYYG 220300Z 32004KT 15SM FEW040 05/01 A3006 RMK SC2 SLP179
CYYG;2004-09-22 04:00;METAR CYYG 220400Z 29006KT 15SM FEW040 04/02 A3004 RMK SC1 SLP175
CYYG;2004-09-22 05:00;METAR CYYG 220500Z 31005KT 15SM SKC 05/02 A3005 RMK SLP176
CYYG;2004-09-22 06:00;METAR CYYG 220600Z 32006KT 15SM SKC 05/02 A3005 RMK SLP178
CYYG;2004-09-22 07:00;METAR CYYG 220700Z 30005KT 15SM SKC 05/02 A3005 RMK SLP177
CYYG;2004-09-22 08:00;METAR CYYG 220800Z 26003KT 15SM SKC 04/02 A3005 RMK SLP177
CYYG;2004-09-22 09:00;METAR CYYG 220900Z 27004KT 15SM SKC 03/01 A3004 RMK SLP174
CYYG;2004-09-22 10:00;METAR CYYG 221000Z 27005KT 15SM FEW020 FEW300 04/02 A3004 RMK SC1CI1 SLP174
CYYG;2004-09-22 11:00;METAR CYYG 221100Z 29008KT 15SM FEW025 SCT300 06/05 A3004 RMK CU1CI1
CYYG;2004-09-22 12:00;METAR CYYG 221200Z 29007KT 15SM FEW025 BKN300 09/07 A3004 RMK SC1CI1
CYYG;2004-09-22 13:00;METAR CYYG 221300Z 31010KT 15SM FEW030 BKN300 11/07 A3003 RMK CU1CI1 SLP170
CYYG;2004-09-22 14:00;METAR CYYG 221400Z 28009KT 15SM FEW032 FEW120 BKN300 12/04 A3001 RMK CU1AC1CI1 SLP163
CYYG;2004-09-22 15:00;METAR CYYG 221500Z 27012KT 15SM FEW032 FEW110 SCT300 13/05 A3000 RMK SC1AC2CI0 SLP159
CYYG;2004-09-22 16:00;METAR CYYG 221600Z 29010KT 15SM FEW036 FEW110 SCT280 15/04 A2997 RMK CF1AC2CI1 SLP151
CYYG;2004-09-22 17:00;METAR CYYG 221700Z 28010KT 15SM FEW036 BKN120 BKN280 15/04 A2995 RMK CF1AC5CI1 SLP144
CYYG;2004-09-22 18:00;METAR CYYG 221800Z 25006KT 15SM FEW036 SCT120 BKN170 14/03 A2992 RMK SC1AC3AC3 SLP134
CYYG;2004-09-22 19:00;METAR CYYG 221900Z 25006KT 15SM BKN110 BKN170 14/05 A2990 RMK AC5AC2 SLP128
CYYG;2004-09-22 20:00;METAR CYYG 222000Z 23008KT 15SM FEW070 BKN100 OVC170 14/05 A2987 RMK AC2AC4AC2 SLP118
CYYG;2004-09-22 21:00;METAR CYYG 222100Z 23008KT 15SM FEW069 OVC110 13/06 A2983 RMK AC2AC6 SLP104
CYYG;2004-09-22 22:00;METAR CYYG 222200Z 25007KT 15SM FEW038 BKN090 OVC280 13/08 A2982 RMK SC1AC6CI2 SLP098
CYYG;2004-09-22 23:00;METAR CYYG 222300Z 25009KT 15SM -SHRA SCT040 OVC080 12/10 A2981 RMK SC4AC4 SLP096
CYYG;2004-09-23 00:00;METAR CYYG 230000Z 25006KT 3SM -SHRA BR BKN007 OVC025 12/11 A2980 RMK SF6SC2 SLP091
CYYG;2004-09-23 01:00;METAR CYYG 230100Z 26005KT 4SM -SHRA BR BKN007 OVC015 12/12 A2977 RMK SF6SC2 SLP082
CYYG;2004-09-23 02:00;METAR CYYG 230200Z 29011KT 12SM -SHRA OVC008 13/13 A2978 RMK SF8 SLP085
CYYG;2004-09-23 03:00;METAR CYYG 230300Z 34014G21KT 15SM OVC011 14/13 A2979 RMK SC8 SLP087
CYYG;2004-09-23 04:00;METAR CYYG 230400Z 35011KT 15SM BKN011 OVC025 13/12 A2979 RMK SC5SC3 SLP090
CYYG;2004-09-23 05:00;METAR CYYG 230500Z 35013G18KT 15SM SCT011 OVC022 13/11 A2983 RMK SC3SC5 SLP101
CYYG;2004-09-23 06:00;METAR CYYG 230600Z 36012G18KT 15SM SCT010 OVC025 13/11 A2985 RMK SC3SC5 SLP108
CYYG;2004-09-23 07:00;METAR CYYG 230700Z 36012G22KT 15SM SCT010 OVC040 13/10 A2987 RMK SC3SC5 SLP117
CYYG;2004-09-23 08:00;METAR CYYG 230800Z 36011G17KT 15SM FEW010 OVC042 12/10 A2988 RMK SC2SC6 SLP120
CYYG;2004-09-23 09:00;METAR CYYG 230900Z 35014G19KT 15SM BKN014 OVC042 12/10 A2991 RMK SC5SC3 SLP130
CYYG;2004-09-23 10:00;METAR CYYG 231000Z 35012G22KT 15SM OVC019 11/08 A2996 RMK SC8 SLP147
CYYG;2004-09-23 11:00;METAR CYYG 231100Z 35013G21KT 15SM BKN022 BKN038 11/07 A2999 RMK SC5SC2 SLP155
CYYG;2004-09-23 12:00;METAR CYYG 231200Z 35013G24KT 15SM -SHRA SCT022 BKN034 11/07 A3001 RMK SC3SC4 SLP165
CYYG;2004-09-23 13:00;METAR CYYG 231300Z 35013G25KT 15SM VCSH BKN028 11/06 A3004 RMK SC7 SLP173
CYYG;2004-09-23 14:00;METAR CYYG 231400Z 36013G22KT 15SM BKN029 11/06 A3005 RMK SC7 SLP177
CYYG;2004-09-23 15:00;METAR CYYG 231500Z 36016KT 15SM OVC024 11/06 A3007 RMK SC8 SLP184
CYYG;2004-09-23 16:00;METAR CYYG 231600Z 36012G20KT 15SM OVC022 11/06 A3009 RMK SC8 SLP192
CYYG;2004-09-23 17:00;METAR CYYG 231700Z 01014G21KT 15SM OVC024 11/06 A3011 RMK SC8 SLP196
CYYG;2004-09-23 18:00;METAR CYYG 231800Z 36013KT 15SM OVC025 11/06 A3012 RMK SC8 SLP200
CYYG;2004-09-23 19:00;METAR CYYG 231900Z 01011G17KT 15SM OVC026 11/06 A3013 RMK SC8 SLP205
CYYG;2004-09-23 20:00;METAR CYYG 232000Z 01011G18KT 15SM BKN028 11/06 A3014 RMK SC7 SLP208
CYYG;2004-09-23 21:00;METAR CYYG 232100Z 36010G15KT 15SM BKN025 11/06 A3015 RMK SC6 SLP212
CYYG;2004-09-23 22:00;METAR CYYG 232200Z 01007KT 15SM FEW025 09/06 A3017 RMK SC2 SLP219
CYYG;2004-09-23 23:00;METAR CYYG 232300Z 34004KT 15SM FEW025 07/05 A3020 RMK SC1 SLP226
CYYG;2004-09-24 00:00;METAR CYYG 240000Z 32004KT 15SM FEW025 06/05 A3020 RMK SC1 SLP229
CYYG;2004-09-24 01:00;METAR CYYG 240100Z 36003KT 15SM SKC 05/04 A3021 RMK SLP231
CYYG;2004-09-24 02:00;METAR CYYG 240200Z 28003KT 15SM SKC 06/05 A3021 RMK SLP232
CYYG;2004-09-24 03:00;METAR CYYG 240300Z 31003KT 15SM SKC 05/04 A3022 RMK SLP236
CYYG;2004-09-24 04:00;METAR CYYG 240400Z 29002KT 15SM SKC 05/04 A3023 RMK SLP237
CYYG;2004-09-24 05:00;METAR CYYG 240500Z 29002KT 15SM SKC 04/04 A3022 RMK SLP234
CYYG;2004-09-24 06:00;METAR CYYG 240600Z 29003KT 15SM SKC 04/04 A3023 RMK SLP237
CYYG;2004-09-24 07:00;METAR CYYG 240700Z 28004KT 15SM SKC 05/04 A3022 RMK SLP236
CYYG;2004-09-24 08:00;METAR CYYG 240800Z 32004KT 15SM SKC 06/05 A3023 RMK SLP240
CYYG;2004-09-24 09:00;METAR CYYG 240900Z 30006KT 15SM SKC 06/05 A3023 RMK SLP239
CYYG;2004-09-24 10:00;METAR CYYG 241000Z 31005KT 15SM FEW015 06/05 A3023 RMK SC1 SLP238
CYYG;2004-09-24 11:00;METAR CYYG 241100Z 00000KT 15SM FEW015 07/06 A3025 RMK SC1 SLP244
CYYG;2004-09-24 12:00;METAR CYYG 241200Z 31007KT 15SM FEW015 10/08 A3025 RMK SC1 SLP246
CYYG;2004-09-24 13:00;METAR CYYG 241300Z 30006KT 15SM FEW015 12/09 A3024 RMK SC1 SLP243
CYYG;2004-09-24 14:00;METAR CYYG 241400Z 28005KT 15SM FEW015 13/08 A3023 RMK SC1 SLP239
CYYG;2004-09-24 15:00;METAR CYYG 241500Z 24006KT 15SM FEW015 FEW250 15/08 A3020 RMK SC1CI0 SLP228
CYYG;2004-09-24 16:00;METAR CYYG 241600Z 28007KT 15SM FEW015 FEW250 15/08 A3020 RMK SC1CI0 SLP227
CYYG;2004-09-24 17:00;METAR CYYG 241700Z 28008KT 15SM FEW250 16/08 A3017 RMK CI2 SLP216
CYYG;2004-09-24 18:00;METAR CYYG 241800Z 29005KT 15SM FEW250 16/08 A3015 RMK CI1 SLP212
CYYG;2004-09-24 19:00;METAR CYYG 241900Z 28006KT 15SM FEW250 17/07 A3014 RMK CI0 SLP206
CYYG;2004-09-24 20:00;METAR CYYG 242000Z 27005KT 15SM FEW250 17/06 A3011 RMK CI0 SLP198
CYYG;2004-09-24 21:00;METAR CYYG 242100Z 22005KT 15SM SKC 16/08 A3010 RMK SLP194
CYYG;2004-09-24 22:00;METAR CYYG 242200Z 21005KT 15SM FEW280 14/08 A3009 RMK CI1 SLP192
CYYG;2004-09-24 23:00;METAR CYYG 242300Z 22003KT 15SM FEW280 13/08 A3010 RMK CI1 SLP193
CYYG;2004-09-25 00:00;METAR CYYG 250000Z 21005KT 15SM FEW280 12/09 A3009 RMK CI1 SLP192
CYYG;2004-09-25 01:00;METAR CYYG 250100Z 23006KT 15SM FEW280 13/11 A3009 RMK CI1 SLP191
CYYG;2004-09-25 02:00;METAR CYYG 250200Z 22007KT 15SM FEW280 12/11 A3008 RMK CI1 SLP188
CYYG;2004-09-25 03:00;METAR CYYG 250300Z 25005KT 15SM FEW280 12/11 A3008 RMK CI1 SLP186
CYYG;2004-09-25 04:00;METAR CYYG 250400Z 24007KT 15SM FEW280 12/11 A3007 RMK CI1 SLP183
CYYG;2004-09-25 05:00;METAR CYYG 250500Z 23006KT 15SM FEW280 12/11 A3006 RMK CI1 SLP180
CYYG;2004-09-25 08:00;METAR CYYG 250800Z CCA 25005KT 15SM SKC 12/10 A3003 RMK SLP169
CYYG;2004-09-25 09:00;METAR CYYG 250900Z 23007KT 15SM FEW280 12/10 A3002 RMK CI1 SLP167
CYYG;2004-09-25 10:00;METAR CYYG 251000Z 21005KT 15SM FEW280 11/10 A3003 RMK CI1 SLP168
CYYG;2004-09-25 11:00;METAR CYYG 251100Z 21004KT 15SM FEW280 12/11 A3002 RMK CI1 SLP167
CYYG;2004-09-25 12:00;METAR CYYG 251200Z 22009KT 15SM SCT280 14/12 A3001 RMK CI2 SLP164
CYYG;2004-09-25 13:00;METAR CYYG 251300Z 23008KT 15SM SCT260 17/12 A3001 RMK CI2 SLP163
CYYG;2004-09-25 14:00;METAR CYYG 251400Z 21009KT 15SM BKN260 18/13 A2999 RMK CI5 SLP156
CYYG;2004-09-25 15:00;METAR CYYG 251500Z 21008KT 15SM BKN260 20/13 A2998 RMK CI5 SLP152
CYYG;2004-09-25 16:00;METAR CYYG 251600Z 22010KT 15SM BKN260 20/13 A2996 RMK CI6 SLP145
CYYG;2004-09-25 17:00;METAR CYYG 251700Z 23013KT 15SM BKN260 22/13 A2993 RMK CI4 SLP135
CYYG;2004-09-25 18:00;METAR CYYG 251800Z 23012G17KT 15SM BKN260 22/13 A2991 RMK CI6 SLP128
CYYG;2004-09-25 19:00;METAR CYYG 251900Z 22013KT 15SM BKN260 21/13 A2990 RMK CI6 SLP125
CYYG;2004-09-25 20:00;METAR CYYG 252000Z 23009KT 15SM BKN260 20/14 A2989 RMK CI6 SLP122
CYYG;2004-09-25 21:00;METAR CYYG 252100Z 24012KT 15SM BKN260 20/13 A2988 RMK CI6 SLP120
CYYG;2004-09-25 22:00;METAR CYYG 252200Z 22009KT 15SM FEW120 BKN260 18/13 A2987 RMK AC2CI4 SLP115
CYYG;2004-09-25 23:00;METAR CYYG 252300Z 22010G15KT 15SM FEW120 BKN220 18/14 A2986 RMK AC2CI4 SLP112
CYYG;2004-09-26 00:00;METAR CYYG 260000Z 22010G16KT 15SM FEW120 BKN220 18/14 A2985 RMK AC2CI4 SLP107
CYYG;2004-09-26 01:00;METAR CYYG 260100Z 22012G19KT 15SM FEW120 BKN190 18/14 A2983 RMK AC2CI5 SLP101
CYYG;2004-09-26 02:00;METAR CYYG 260200Z 23014G22KT 15SM BKN170 17/14 A2982 RMK AC7 SLP099
CYYG;2004-09-26 03:00;METAR CYYG 260300Z 24011G17KT 15SM BKN170 16/14 A2981 RMK AC7 SLP094
CYYG;2004-09-26 04:00;METAR CYYG 260400Z 23011G18KT 15SM OVC160 16/14 A2978 RMK AC8 SLP086
CYYG;2004-09-26 05:00;METAR CYYG 260500Z 24010G16KT 15SM SCT065 OVC140 16/14 A2978 RMK SC3AC5 SLP085
CYYG;2004-09-26 06:00;METAR CYYG 260600Z 25011KT 15SM FEW016 BKN065 OVC100 15/14 A2977 RMK SC2SC3AC3 SLP082
CYYG;2004-09-26 07:00;METAR CYYG 260700Z 25011KT 15SM SCT012 OVC065 15/14 A2977 RMK SC4SC4 SLP082
CYYG;2004-09-26 08:00;METAR CYYG 260800Z 26008KT 15SM SCT009 OVC030 14/14 A2978 RMK SC4SC4 SLP084
CYYG;2004-09-26 09:00;METAR CYYG 260900Z 29008KT 15SM FEW009 BKN027 OVC063 15/14 A2980 RMK SF2SC4SC2 SLP091
CYYG;2004-09-26 10:00;METAR CYYG 261000Z 33011KT 15SM FEW010 SCT035 OVC075 15/11 A2982 RMK SF1SC3AC4 SLP098
CYYG;2004-09-26 11:00;METAR CYYG 261100Z 33010G15KT 15SM FEW025 FEW060 BKN072 14/09 A2984 RMK SC1SC1AC5 SLP104
CYYG;2004-09-26 12:00;METAR CYYG 261200Z 32008G15KT 15SM FEW025 FEW060 SCT068 13/09 A2986 RMK SC1SC1AC2 SLP111
CYYG;2004-09-26 13:00;METAR CYYG 261300Z 34010G15KT 15SM FEW015 FEW033 FEW068 14/09 A2988 RMK CU1SC1AC1 SLP119
CYYG;2004-09-26 14:00;METAR CYYG 261400Z 34010G16KT 15SM BKN022 BKN068 14/09 A2989 RMK SC6AC1 SLP123
CYYG;2004-09-26 15:00;METAR CYYG 261500Z 35008KT 15SM SCT023 BKN038 14/09 A2991 RMK SC3SC3 SLP128
CYYG;2004-09-26 16:00;METAR CYYG 261600Z 33010KT 15SM SCT023 BKN031 14/09 A2991 RMK CU3SC3 SLP130
CYYG;2004-09-26 17:00;METAR CYYG 261700Z 35008KT 15SM BKN025 14/09 A2991 RMK SC6 SLP128
CYYG;2004-09-26 18:00;METAR CYYG 261800Z 34007KT 15SM FEW028 15/09 A2991 RMK SC2 SLP129
CYYG;2004-09-26 19:00;METAR CYYG 261900Z 34006KT 15SM FEW028 15/09 A2990 RMK SC1 SLP127
CYYG;2004-09-26 20:00;METAR CYYG 262000Z 34003KT 15SM FEW030 15/09 A2991 RMK CU1 SLP129
CYYG;2004-09-26 21:00;METAR CYYG 262100Z 02006KT 15SM FEW030 14/09 A2993 RMK SC1 SLP134
CYYG;2004-09-26 22:00;METAR CYYG 262200Z 00000KT 15SM SKC 12/08 A2994 RMK SLP140
CYYG;2004-09-26 23:00;METAR CYYG 262300Z 17004KT 15SM SKC 12/09 A2996 RMK SLP144
CYYG;2004-09-27 00:00;METAR CYYG 270000Z 20006KT 15SM SKC 11/09 A2997 RMK SLP149
CYYG;2004-09-27 01:00;METAR CYYG 270100Z 24005KT 15SM SKC 11/08 A2998 RMK SLP155
CYYG;2004-09-27 02:00;METAR CYYG 270200Z 23005KT 15SM SKC 11/09 A2999 RMK SLP157
CYYG;2004-09-27 03:00;METAR CYYG 270300Z 24007KT 15SM SKC 11/09 A2999 RMK SLP158
CYYG;2004-09-27 05:00;METAR CYYG 270500Z 25008KT 15SM SKC 12/09 A3001 RMK SLP163
CYYG;2004-09-27 06:00;METAR CYYG 270600Z 25008KT 15SM SKC 12/09 A3001 RMK SLP163
CYYG;2004-09-27 07:00;METAR CYYG 270700Z 26007KT 15SM SKC 11/09 A3001 RMK SLP165
CYYG;2004-09-27 08:00;METAR CYYG 270800Z 27009KT 15SM SKC 11/09 A3002 RMK SLP166
CYYG;2004-09-27 09:00;METAR CYYG 270900Z 27006KT 15SM SKC 11/09 A3004 RMK SLP172
CYYG;2004-09-27 10:00;METAR CYYG 271000Z 27006KT 15SM FEW070 BKN300 11/09 A3006 RMK AC1CI1 SLP179
CYYG;2004-09-27 11:00;METAR CYYG 271100Z 26008KT 15SM FEW070 SCT300 11/10 A3008 RMK AC1CI0 SLP188
CYYG;2004-09-27 12:00;METAR CYYG 271200Z 27008KT 15SM FEW100 BKN300 13/11 A3010 RMK AC2CI0 SLP194
CYYG;2004-09-27 13:00;METAR CYYG 271300Z 28007KT 15SM FEW090 BKN300 15/11 A3011 RMK AC2CI0 SLP196
CYYG;2004-09-27 14:00;METAR CYYG 271400Z 25006KT 15SM FEW090 FEW300 16/12 A3010 RMK AC1CI0
CYYG;2004-09-27 15:00;METAR CYYG 271500Z 25006KT 15SM FEW070 FEW300 17/12 A3010 RMK AC1CI0 SLP193
CYYG;2004-09-27 16:00;METAR CYYG 271600Z 22007KT 15SM FEW030 FEW070 FEW300 19/11 A3008 RMK CU1AC1CI0 SLP188
CYYG;2004-09-27 17:00;METAR CYYG 271700Z 23010KT 15SM FEW030 FEW070 FEW300 19/11 A3007 RMK SC1AC1CI0 SLP185
CYYG;2004-09-27 18:00;METAR CYYG 271800Z 25011KT 15SM FEW030 FEW300 20/12 A3007 RMK CU1CI0 SLP183
CYYG;2004-09-27 19:00;METAR CYYG 271900Z 25012KT 15SM FEW040 SCT300 21/12 A3005 RMK CU1CI0 SLP177
CYYG;2004-09-27 20:00;METAR CYYG 272000Z 19008KT 15SM FEW300 20/13 A3006 RMK CI0 SLP178
CYYG;2004-09-27 23:00;METAR CYYG 272300Z 22007KT 15SM FEW350 16/11 A3006 RMK CI1 SLP179
CYYG;2004-09-28 00:00;METAR CYYG 280000Z 23007KT 15SM SKC 16/10 A3006 RMK SLP182
CYYG;2004-09-28 01:00;METAR CYYG 280100Z 22010G15KT 15SM FEW350 16/08 A3007 RMK CI0 SLP183
CYYG;2004-09-28 02:00;METAR CYYG 280200Z 22010G16KT 15SM BKN350 15/10 A3006 RMK CI2 CONTRAILS SLP180
CYYG;2004-09-28 03:00;METAR CYYG 280300Z 22010G17KT 15SM BKN330 15/12 A3006 RMK CI3 SLP178
CYYG;2004-09-28 04:00;METAR CYYG 280400Z 23007KT 15SM BKN350 14/12 A3005 RMK CI2 SLP176
CYYG;2004-09-28 05:00;METAR CYYG 280500Z 22008KT 15SM BKN350 14/11 A3004 RMK CI1 SLP173
CYYG;2004-09-28 06:00;METAR CYYG 280600Z 21009KT 15SM SCT350 14/11 A3003 RMK CI1 SLP169
CYYG;2004-09-28 07:00;METAR CYYG 280700Z 22008G15KT 15SM BKN350 13/11 A3002 RMK CI2 SLP166
CYYG;2004-09-28 08:00;METAR CYYG 280800Z 22008KT 15SM FEW350 13/10 A3001 RMK CI1 SLP164
CYYG;2004-09-28 09:00;METAR CYYG 280900Z 22007KT 15SM BKN350 13/10 A3001 RMK CI2 SLP163
CYYG;2004-09-28 10:00;METAR CYYG 281000Z 22010KT 15SM BKN350 13/09 A3001 RMK CI2 SLP161
CYYG;2004-09-28 11:00;METAR CYYG 281100Z 21008KT 15SM BKN350 13/09 A3001 RMK CI2 SLP161
CYYG;2004-09-28 12:00;METAR CYYG 281200Z 22012KT 15SM BKN350 14/09 A2999 RMK CI2 SLP155
CYYG;2004-09-28 13:00;METAR CYYG 281300Z 22016KT 15SM FEW020 BKN350 15/10 A2997 RMK SC1CI2 SLP150
CYYG;2004-09-28 14:00;METAR CYYG 281400Z 21014KT 15SM FEW030 FEW100 BKN350 16/11 A2996 RMK CU1AC1CI1 SLP145
CYYG;2004-09-28 15:00;METAR CYYG 281500Z 22014G20KT 15SM FEW100 BKN330 17/11 A2994 RMK AC1CI1 SLP139
CYYG;2004-09-28 16:00;METAR CYYG 281600Z 20014KT 15SM FEW100 BKN330 18/12 A2993 RMK AC2CI0 SLP135
CYYG;2004-09-28 17:00;METAR CYYG 281700Z 22013KT 15SM FEW100 BKN330 18/12 A2990 RMK AC2CI2 SLP124
CYYG;2004-09-28 18:00;METAR CYYG 281800Z 23014KT 15SM SCT100 BKN330 18/12 A2989 RMK AC3CI4 SLP122
CYYG;2004-09-28 19:00;METAR CYYG 281900Z 22010G16KT 15SM BKN048 OVC330 18/13 A2987 RMK SC6CS2 SLP116
CYYG;2004-09-28 20:00;METAR CYYG 282000Z 21007KT 15SM BKN026 BKN045 OVC300 17/13 A2985 RMK SC5SC1CI2 SLP110
CYYG;2004-09-28 21:00;METAR CYYG 282100Z 20007KT 15SM -RA BKN026 BKN044 OVC070 17/14 A2983 RMK SC5SC2AS2 SLP103
CYYG;2004-09-28 22:00;METAR CYYG 282200Z 25007KT 15SM -SHRA BKN016 OVC035 15/14 A2984 RMK SC7SC1 SLP105
CYYG;2004-09-28 23:00;METAR CYYG 282300Z 26007KT 10SM BKN009 OVC020 15/14 A2985 RMK SF7SC1 SLP107 SLP124
CYYG;2004-09-29 01:00;METAR CYYG 290100Z 02011KT 15SM FEW010 OVC039 11/10 A2991 RMK SC2SC6 SLP129
CYYG;2004-09-29 02:00;METAR CYYG 290200Z 02007KT 15SM FEW045 OVC063 12/10 A2991 RMK SC1SC7
CYYG;2004-09-29 03:00;METAR CYYG 290300Z 01009KT 15SM BKN060 12/10 A2992 RMK SC7 SLP131
CYYG;2004-09-29 04:00;METAR CYYG 290400Z 01005KT 15SM FEW015 SCT080 OVC300 11/09 A2991 RMK CU1AC3CS4 HALO SLP129
CYYG;2004-09-29 05:00;METAR CYYG 290500Z 34005KT 15SM FEW018 OVC300 10/09 A2994 RMK SC2CS4 HALO SLP138
CYYG;2004-09-29 06:00;METAR CYYG 290600Z 32003KT 15SM FEW018 SCT035 BKN300 10/08 A2994 RMK SC2SC1CS1 HALO SLP140
CYYG;2004-09-29 07:00;METAR CYYG 290700Z 31003KT 15SM BKN041 BKN300 09/08 A2994 RMK SC6CS0 HALO SLP139
CYYG;2004-09-29 08:00;METAR CYYG 290800Z 27004KT 15SM BKN038 BKN300 08/08 A2995 RMK SC6CS0 HALO SLP141
CYYG;2004-09-29 09:00;METAR CYYG 290900Z 28004KT 15SM SCT026 BKN038 10/09 A2996 RMK SC3SC4 SLP147
CYYG;2004-09-29 10:00;METAR CYYG 291000Z 29004KT 15SM FEW019 FEW035 BKN300 09/08 A2997 RMK SC1SC2CI0 SLP149
CYYG;2004-09-29 11:00;METAR CYYG 291100Z 32005KT 15SM FEW020 FEW035 BKN300 08/08 A3000 RMK SC1SC2CI1 CU ASOCTD SLP158
CYYG;2004-09-29 12:00;METAR CYYG 291200Z 35003KT 15SM FEW026 BKN300 11/08 A3002 RMK SC1CS2 SLP166
CYYG;2004-09-29 13:00;METAR CYYG 291300Z 35006KT 15SM FEW026 BKN300 12/07 A3004 RMK SC1CS2 SLP172
CYYG;2004-09-29 14:00;METAR CYYG 291400Z 02006KT 15SM FEW028 SCT260 BKN300 13/07 A3004 RMK CF2CS1CI1 SLP173
CYYG;2004-09-29 15:00;METAR CYYG 291500Z 36007KT 15SM FEW030 SCT260 BKN300 14/06 A3003 RMK CF2CS1CI1 SLP171
CYYG;2004-09-29 16:00;METAR CYYG 291600Z 02009KT 15SM FEW030 BKN300 13/06 A3002 RMK CU1CS2 SLP167
CYYG;2004-09-29 17:00;METAR CYYG 291700Z 33006KT 15SM FEW030 BKN300 13/07 A3001 RMK CU1CS2 SLP165
CYYG;2004-09-29 18:00;METAR CYYG 291800Z 02006KT 15SM FEW030 BKN300 14/07 A3002 RMK CU1CS2
CYYG;2004-09-29 19:00;METAR CYYG 291900Z 36002KT 15SM FEW030 BKN300 14/06 A3001 RMK CU1CS2 SLP164
CYYG;2004-09-29 20:00;METAR CYYG 292000Z 01004KT 15SM FEW030 OVC300 13/06 A3001 RMK CF1CS2 SLP162
CYYG;2004-09-29 21:00;METAR CYYG 292100Z 05004KT 15SM FEW040 BKN300 12/07 A3001 RMK SC1CS2
CYYG;2004-09-29 22:00;METAR CYYG 292200Z 04005KT 15SM FEW220 BKN300 10/07 A3001 RMK CC1CS2 SLP163
CYYG;2004-09-29 23:00;METAR CYYG 292300Z 05003KT 15SM FEW220 BKN300 08/07 A3002 RMK CC1CS2
CYYG;2004-09-30 00:00;METAR CYYG 300000Z 00000KT 15SM FEW220 BKN300 08/07 A3002 RMK CC1CS2 SLP167
CYYG;2004-09-30 01:00;METAR CYYG 300100Z 06002KT 15SM OVC260 08/07 A3002 RMK CS3 SLP167
CYYG;2004-09-30 02:00;METAR CYYG 300200Z 06002KT 15SM OVC260 08/07 A3001 RMK CS3 SLP162
CYYG;2004-09-30 03:00;METAR CYYG 300300Z 00000KT 15SM OVC260 08/07 A3001 RMK CS3 SLP162
CYYG;2004-09-30 04:00;METAR CYYG 300400Z 00000KT 15SM OVC260 08/07 A3000 RMK CS4 SLP161
CYYG;2004-09-30 05:00;METAR CYYG 300500Z 00000KT 15SM OVC220 08/07 A2999 RMK CS5 SLP158
CYYG;2004-09-30 06:00;METAR CYYG 300600Z 00000KT 15SM OVC220 08/07 A2998 RMK CS5 SLP154
CYYG;2004-09-30 07:00;METAR CYYG 300700Z 34002KT 15SM OVC220 07/07 A2998 RMK CS5 SLP153
CYYG;2004-09-30 08:00;METAR CYYG 300800Z 04003KT 15SM OVC210 08/07 A2996 RMK CS5 SLP148
CYYG;2004-09-30 09:00;METAR CYYG 300900Z 02002KT 15SM OVC200 08/07 A2996 RMK CS6 SLP148
CYYG;2004-09-30 10:00;METAR CYYG 301000Z 01002KT 15SM OVC210 08/07 A2997 RMK CS6 SLP150
CYYG;2004-09-30 11:00;METAR CYYG 301100Z 04003KT 15SM FEW025 OVC210 08/08 A2997 RMK CF1CS6 SLP151
CYYG;2004-09-30 12:00;METAR CYYG 301200Z 03004KT 15SM FEW025 OVC200 11/10 A2998 RMK CF1CS7 SLP154
CYYG;2004-09-30 13:00;METAR CYYG 301300Z 05004KT 15SM FEW010 OVC200 12/11 A2998 RMK CF1CS7 SLP153
CYYG;2004-09-30 14:00;METAR CYYG 301400Z 04009KT 15SM FEW015 BKN200 13/10 A2997 RMK CF1CS6 SLP149
CYYG;2004-09-30 15:00;METAR CYYG 301500Z 01010KT 15SM FEW015 FEW100 BKN200 14/08 A2997 RMK SC1AC2CS4 SLP150
CYYG;2004-09-30 16:00;METAR CYYG 301600Z 02012KT 15SM FEW100 BKN200 15/08 A2996 RMK AC2CS4 SLP148
CYYG;2004-09-30 17:00;METAR CYYG 301700Z 02012KT 15SM SCT120 BKN200 14/05 A2996 RMK AC3CS3
CYYG;2004-09-30 18:00;METAR CYYG 301800Z 02011KT 15SM SCT120 BKN200 15/07 A2996 RMK AC3CS2 SLP146
CYYG;2004-09-30 19:00;METAR CYYG 301900Z 04010KT 15SM FEW120 BKN210 15/07 A2996 RMK AC2CS2
CYYG;2004-09-30 20:00;METAR CYYG 302000Z 36007KT 15SM FEW120 BKN210 14/06 A2997 RMK AC2CS3
CYYG;2004-09-30 21:00;METAR CYYG 302100Z 01007KT 15SM FEW120 BKN210 12/08 A2997 RMK AC2CS3
CYYG;2004-09-30 22:00;METAR CYYG 302200Z 01004KT 15SM FEW120 BKN210 10/07 A2998 RMK AC2CS3 SLP152
CYYG;2004-09-30 23:00;METAR CYYG 302300Z 33003KT 15SM FEW120 BKN210 09/07 A3000 RMK AC2CS3 SLP161
CYYG;2004-10-01 00:00;METAR CYYG 010000Z 36003KT 15SM FEW120 BKN210 08/07 A3001 RMK AC2CS2 SLP163
CYYG;2004-10-01 01:00;METAR CYYG 010100Z 34004KT 15SM FEW240 07/06 A3002 RMK CI1 SLP166
CYYG;2004-10-01 02:00;METAR CYYG 010200Z 35003KT 15SM FEW240 06/06 A3003 RMK CI1 SLP171
CYYG;2004-10-01 03:00;METAR CYYG 010300Z 35004KT 15SM FEW240 06/05 A3004 RMK CI1 SLP175
CYYG;2004-10-01 04:00;METAR CYYG 010400Z 34003KT 15SM FEW240 05/05 A3005 RMK CI1 SLP176
CYYG;2004-10-01 05:00;METAR CYYG 010500Z 30003KT 15SM SKC 04/04 A3006 RMK SLP181
CYYG;2004-10-01 06:00;METAR CYYG 010600Z 31003KT 15SM SKC 04/04 A3006 RMK SLP182
CYYG;2004-10-01 07:00;METAR CYYG 010700Z 31004KT 15SM SKC 07/07 A3008 RMK SLP186
CYYG;2004-10-01 08:00;METAR CYYG 010800Z 31004KT 15SM FEW005 08/08 A3009 RMK SF2 SLP192
CYYG;2004-10-01 09:00;METAR CYYG 010900Z 30004KT 12SM VCFG FEW002 07/07 A3010 RMK SF2 SHALLOW LYR FOG SLP195
CYYG;2004-10-01 10:00;METAR CYYG 011000Z 31003KT 10SM MIFG SKC 05/05 A3012 RMK SLP199
CYYG;2004-10-01 11:00;METAR CYYG 011100Z 33004KT 12SM MIFG FEW120 05/05 A3013 RMK AC2 SLP205
CYYG;2004-10-01 12:00;METAR CYYG 011200Z 00000KT 15SM FEW120 11/11 A3015 RMK AC2 SLP211
CYYG;2004-10-01 13:00;METAR CYYG 011300Z 03004KT 15SM FEW015 FEW120 14/11 A3016 RMK CF1AC2 SLP215
CYYG;2004-10-01 14:00;METAR CYYG 011400Z 32003KT 15SM FEW016 FEW140 BKN200 15/12 A3017 RMK CF1AC2CI2 CC ASOCTD SLP218
CYYG;2004-10-01 15:00;METAR CYYG 011500Z 34005KT 15SM FEW016 FEW140 BKN200 16/11 A3017 RMK CF1AC2CI2 SLP218
CYYG;2004-10-01 16:00;METAR CYYG 011600Z 03005KT 15SM FEW020 FEW140 BKN200 16/11 A3018 RMK CU1AC2CI2 SLP222
CYYG;2004-10-01 17:00;METAR CYYG 011700Z 36005KT 15SM FEW024 FEW140 BKN200 16/10 A3018 RMK
CYYG;2004-10-01 18:00;METAR CYYG 011800Z 03008KT 15SM FEW025 FEW140 BKN200 16/09 A3019 RMK CU1AC2CI2 SLP225
CYYG;2004-10-01 19:00;METAR CYYG 011900Z 36006KT 15SM FEW025 FEW140 BKN200 15/10 A3020 RMK CU1AC2CI2 SLP227
CYYG;2004-10-01 20:00;METAR CYYG 012000Z 36006KT 15SM FEW025 SCT140 BKN190 14/11 A3020 RMK CU1AC2CI2 SLP228
CYYG;2004-10-01 21:00;METAR CYYG 012100Z 02007KT 15SM FEW025 SCT150 BKN190 13/11 A3022 RMK CU1AC3CI2 SLP233
CYYG;2004-10-01 22:00;METAR CYYG 012200Z 03004KT 15SM SCT150 BKN190 11/10 A3023 RMK AC3CI2 SLP238
CYYG;2004-10-01 23:00;METAR CYYG 012300Z 36003KT 15SM FEW150 BKN190 10/09 A3025 RMK AC2CI3 SLP245
CYYG;2004-10-02 00:00;METAR CYYG 020000Z 01003KT 15SM FEW190 09/08 A3027 RMK CI2 SLP252
CYYG;2004-10-02 01:00;METAR CYYG 020100Z 06003KT 15SM FEW200 08/08 A3029 RMK CI2 SLP257
CYYG;2004-10-02 02:00;METAR CYYG 020200Z 02002KT 15SM FEW200 07/07 A3029 RMK CI2 SLP259
CYYG;2004-10-02 03:00;METAR CYYG 020300Z 01003KT 15SM FEW220 05/05 A3030 RMK CI2 SLP260
CYYG;2004-10-02 04:00;METAR CYYG 020400Z 36004KT 15SM VCFG FEW220 04/04 A3029 RMK CI2 SLP259
CYYG;2004-10-02 05:00;METAR CYYG 020500Z 35003KT 15SM MIFG FEW220 04/04 A3031 RMK CI2 SLP263
CYYG;2004-10-02 06:00;METAR CYYG 020600Z 36002KT 15SM MIFG FEW220 04/04 A3031 RMK CI2 SLP265
CYYG;2004-10-02 07:00;METAR CYYG 020700Z 34003KT 15SM MIFG FEW220 02/02 A3031 RMK CI2 SLP265
CYYG;2004-10-02 08:00;METAR CYYG 020800Z 07003KT 4SM MIFG SCT220 04/03 A3031 RMK FG2CI2 SLP267
CYYG;2004-10-02 09:00;METAR CYYG 020900Z 00000KT 1/2SM FG SCT220 04/04 A3033 RMK FG3CI1 RVR RWY03 2600FT TWR VIS 15 SLP271
CYYG;2004-10-02 10:00;METAR CYYG 021000Z 13002KT 0SM FG BKN007 05/05 A3033 RMK FG6SF1 RVR RWY03 1000FT SLP273
CYYG;2004-10-02 11:00;METAR CYYG 021100Z 00000KT 4SM BR VCFG BKN004 05/05 A3035 RMK SF7 SLP278
CYYG;2004-10-02 12:00;METAR CYYG 021200Z 12002KT 0SM FG SKC 08/08 A3035 RMK FG6 RVR RWY03 0800FT SLP280
CYYG;2004-10-02 13:00;METAR CYYG 021300Z 26002KT 1SM BR SKC 09/09 A3036 RMK FG7 SLP281
CYYG;2004-10-02 14:00;METAR CYYG 021400Z 29003KT 6SM BR BKN004 10/10 A3035 RMK CF6 SLP280
CYYG;2004-10-02 15:00;METAR CYYG 021500Z 00000KT 15SM FEW010 14/10 A3033 RMK CU2 SLP274
CYYG;2004-10-02 16:00;METAR CYYG 021600Z 14002KT 15SM FEW018 14/09 A3032 RMK CU2 SLP268
CYYG;2004-10-02 17:00;METAR CYYG 021700Z 19006KT 15SM FEW020 15/09 A3029 RMK CU1 SLP260
CYYG;2004-10-02 18:00;METAR CYYG 021800Z 18010KT 15SM FEW025 15/07 A3028 RMK SC1 SLP256
CYYG;2004-10-02 19:00;METAR CYYG 021900Z 16008KT 15SM FEW025 16/07 A3026 RMK SC1 SLP248
CYYG;2004-10-02 20:00;METAR CYYG 022000Z 16004KT 15SM FEW025 FEW350 16/05 A3025 RMK SC1CI1 SLP244
CYYG;2004-10-02 21:00;METAR CYYG 022100Z 14005KT 15SM FEW350 15/06 A3023 RMK CI1 SLP239
CYYG;2004-10-02 22:00;METAR CYYG 022200Z 15003KT 15SM FEW350 13/05 A3023 RMK CI1 SLP237
CYYG;2004-10-02 23:00;METAR CYYG 022300Z 15005KT 15SM FEW350 11/05 A3023 RMK CI1 SLP236
CYYG;2004-10-03 00:00;METAR CYYG 030000Z 15006KT 15SM SKC 11/08 A3021 RMK SLP232
CYYG;2004-10-03 01:00;METAR CYYG 030100Z 19011KT 15SM SKC 12/10 A3022 RMK SLP233
CYYG;2004-10-03 02:00;METAR CYYG 030200Z 19011KT 15SM FEW250 11/08 A3021 RMK CI2 SLP232
CYYG;2004-10-03 03:00;METAR CYYG 030300Z 20011G16KT 15SM FEW250 12/08 A3021 RMK CI2 SLP232
CYYG;2004-10-03 04:00;METAR CYYG 030400Z 20010KT 15SM FEW250 11/08 A3020 RMK CI2 SLP227
CYYG;2004-10-03 05:00;METAR CYYG 030500Z 18010KT 15SM FEW250 11/08 A3020 RMK CI2 SLP226
CYYG;2004-10-03 06:00;METAR CYYG 030600Z 18010G15KT 15SM SCT250 11/09 A3018 RMK CI4 SLP221
CYYG;2004-10-03 07:00;METAR CYYG 030700Z 19010KT 15SM SCT250 11/09 A3017 RMK CI4 SLP217
CYYG;2004-10-03 08:00;METAR CYYG 030800Z 21007KT 15SM SCT250 11/10 A3017 RMK CI4 SLP216
CYYG;2004-10-03 09:00;METAR CYYG 030900Z 19007KT 15SM BKN250 11/10 A3016 RMK CI3 SLP214
CYYG;2004-10-03 10:00;METAR CYYG 031000Z 19009KT 15SM FEW030 BKN310 11/10 A3015 RMK SC1CI5 SLP212
CYYG;2004-10-03 11:00;METAR CYYG 031100Z 19009KT 15SM FEW015 FEW080 SCT220 BKN310 12/10 A3017 RMK SC1AC2CC2CI2 ACC TOPS W SLP216
CYYG;2004-10-03 12:00;METAR CYYG 031200Z 19011KT 15SM FEW012 FEW040 SCT080 BKN220 13/11 A3017 RMK SF1SC2AC2CI2 SLP218
CYYG;2004-10-03 13:00;METAR CYYG 031300Z 22010KT 15SM BKN015 OVC080 13/11 A3018 RMK SC7AC1 SLP221
CYYG;2004-10-03 14:00;METAR CYYG 031400Z 22008KT 15SM -SHRA BKN009 OVC013 13/11 A3018 RMK SC7SC1
CYYG;2004-10-03 15:00;METAR CYYG 031500Z 20009KT 15SM BKN008 OVC025 13/12 A3018 RMK SC6SC2 SLP222
CYYG;2004-10-03 16:00;METAR CYYG 031600Z 21007KT 7SM -SHRA BKN005 OVC028 13/13 A3017 RMK SF7SC1 SLP219
CYYG;2004-10-03 17:00;METAR CYYG 031700Z 20006KT 8SM -SHRA BKN005 OVC008 13/13 A3017 RMK SF6SC2 SLP216
CYYG;2004-10-03 18:00;METAR CYYG 031800Z 22006KT 12SM BKN004 OVC018 13/13 A3017 RMK SF5SC3 SLP217
CYYG;2004-10-03 19:00;METAR CYYG 031900Z 20007KT 3SM -SHRA BR BKN005 OVC018 13/13 A3017 RMK SF6SC2 SLP217 SF6SC2 SLP218
CYYG;2004-10-03 23:00;METAR CYYG 032300Z 16007KT 10SM -SHRA FEW003 BKN007 OVC011 13/13 A3017 RMK SF2SF3SC3 SLP219
CYYG;2004-10-04 00:00;METAR CYYG 040000Z 17009KT 15SM -SHRA FEW004 OVC011 13/13 A3018 RMK SF2SC6 SLP220
CYYG;2004-10-04 01:00;METAR CYYG 040100Z 18008KT 15SM -SHRA FEW007 BKN009 OVC033 13/13 A3018 RMK SF1SF6SC1 SLP221
CYYG;2004-10-04 02:00;METAR CYYG 040200Z 17011KT 15SM -SHRA OVC008 13/13 A3019 RMK SF8 SLP223 SLP221
CYYG;2004-10-04 04:00;METAR CYYG 040400Z 17012KT 15SM SCT005 BKN007 OVC041 13/12 A3017 RMK SF3SF3SC2 SLP219
CYYG;2004-10-04 05:00;METAR CYYG 040500Z 17009KT 15SM OVC009 13/12 A3017 RMK SF8 SLP218
CYYG;2004-10-04 06:00;METAR CYYG 040600Z 17010KT 15SM BKN011 OVC030 13/12 A3017 RMK SC6SC2 SLP217
CYYG;2004-10-04 07:00;METAR CYYG 040700Z 17012KT 15SM BKN008 BKN015 OVC034 13/12 A3017 RMK SF5SC2SC2 SLP217
CYYG;2004-10-04 08:00;METAR CYYG 040800Z 16010KT 15SM FEW007 OVC022 13/12 A3017 RMK SF2SC6
CYYG;2004-10-04 09:00;METAR CYYG 040900Z 16010KT 15SM BKN022 OVC038 13/12 A3017 RMK SC5SC3 SLP216
CYYG;2004-10-04 10:00;METAR CYYG 041000Z 15009KT 15SM OVC033 13/12 A3017 RMK SC8 SLP218
CYYG;2004-10-04 11:00;METAR CYYG 041100Z 15012KT 15SM FEW025 BKN035 BKN068 13/11 A3017 RMK SC2SC3AC2 SLP218
CYYG;2004-10-04 12:00;METAR CYYG 041200Z 15011G16KT 15SM FEW025 BKN039 OVC070 13/11 A3017 RMK SC2SC3AC2 SLP219
CYYG;2004-10-04 13:00;METAR CYYG 041300Z 15010KT 15SM BKN042 OVC070 13/11 A3018 RMK SC6AC1
CYYG;2004-10-04 14:00;METAR CYYG 041400Z 14010G16KT 15SM VCSH BKN033 OVC070 13/11 A3017 RMK SC6AC2 SLP219
CYYG;2004-10-04 15:00;METAR CYYG 041500Z 16008KT 15SM BKN034 BKN070 14/11 A3017 RMK SC6AC2
CYYG;2004-10-04 16:00;METAR CYYG 041600Z 15010G16KT 15SM BKN044 BKN070 15/11 A3014 RMK SC6AC2 SLP208
CYYG;2004-10-04 17:00;METAR CYYG 041700Z 15011KT 15SM FEW044 BKN073 16/11 A3012 RMK SC2AC2 SLP200
CYYG;2004-10-04 18:00;METAR CYYG 041800Z 16013G18KT 15SM FEW040 SCT080 BKN110 18/11 A3009 RMK SC2AC2AC2 SLP189
CYYG;2004-10-04 19:00;METAR CYYG 041900Z 16019G26KT 15SM FEW040 SCT110 17/11 A3008 RMK SC2AC2 SLP185
CYYG;2004-10-04 20:00;METAR CYYG 042000Z 17016KT 15SM FEW030 SCT110 16/10 A3008 RMK SC2AC2 SLP187
CYYG;2004-10-04 21:00;METAR CYYG 042100Z 16012G18KT 15SM BKN043 BKN110 16/11 A3008 RMK SC6AC1 SLP188
CYYG;2004-10-04 22:00;METAR CYYG 042200Z 15013KT 15SM BKN042 BKN100 BKN330 14/10 A3009 RMK SC5AC1CI0 SLP189
CYYG;2004-10-04 23:00;METAR CYYG 042300Z 14011KT 15SM FEW040 SCT075 BKN110 14/11 A3010 RMK SC1AC3AC2 SLP193
CYYG;2004-10-05 00:00;METAR CYYG 050000Z 15012KT 15SM BKN055 BKN095 13/11 A3008 RMK SC5AC2 SLP188
CYYG;2004-10-05 01:00;METAR CYYG 050100Z 15015G22KT 15SM FEW015 BKN082 13/12 A3005 RMK SC1AC6 SLP177
CYYG;2004-10-05 02:00;METAR CYYG 050200Z 15012G17KT 15SM OVC012 13/12 A3006 RMK SC8 SLP179
CYYG;2004-10-05 03:00;METAR CYYG 050300Z 15011KT 15SM OVC012 13/12 A3004 RMK SC8 SLP173
CYYG;2004-10-05 04:00;METAR CYYG 050400Z 15010KT 15SM FEW012 OVC085 13/12 A3001 RMK SC2AC6 SLP162
CYYG;2004-10-05 05:00;METAR CYYG 050500Z 14009KT 15SM OVC012 14/12 A3001 RMK SC8 SLP163
CYYG;2004-10-05 06:00;METAR CYYG 050600Z 14011KT 15SM -SHRA OVC011 13/13 A2999 RMK SC8 SLP155
CYYG;2004-10-05 07:00;METAR CYYG 050700Z 15009KT 15SM OVC011 14/13 A2996 RMK SC8 SLP146
CYYG;2004-10-05 08:00;METAR CYYG 050800Z 16011KT 15SM OVC010 14/13 A2995 RMK SC8 SLP142 SF4SC2SC2 SLP136 SLP135 SLP138 SF3SC3SC2 SLP137
CYYG;2004-10-05 16:00;METAR CYYG 051600Z 32013G20KT 15SM OVC010 11/10 A2993 RMK SC8 SLP137
CYYG;2004-10-05 17:00;METAR CYYG 051700Z 32015G21KT 15SM OVC009 10/09 A2995 RMK SC8 SLP143
CYYG;2004-10-05 18:00;METAR CYYG 051800Z 31011G22KT 15SM OVC010 09/08 A2997 RMK SC8 SLP151
CYYG;2004-10-05 19:00;METAR CYYG 051900Z 31011G17KT 15SM OVC010 09/08 A2999 RMK SC8 VSBY N 3 SLP158
CYYG;2004-10-05 20:00;METAR CYYG 052000Z 32012G19KT 15SM OVC011 09/08 A3001 RMK SC8 SLP164
CYYG;2004-10-05 21:00;METAR CYYG 052100Z 32009KT 15SM BKN026 09/06 A3004 RMK SC7 SLP172
CYYG;2004-10-05 22:00;METAR CYYG 052200Z 32006KT 15SM SCT035 08/04 A3006 RMK SC4 SLP180
CYYG;2004-10-05 23:00;METAR CYYG 052300Z 31005KT 15SM FEW035 07/02 A3008 RMK SC1 SLP188
CYYG;2004-10-06 00:00;METAR CYYG 060000Z 30006KT 15SM SCT045 06/02 A3011 RMK SC3 SLP196
CYYG;2004-10-06 01:00;METAR CYYG 060100Z 32008G15KT 15SM FEW045 06/01 A3014 RMK SC1 SLP206
CYYG;2004-10-06 02:00;METAR CYYG 060200Z 31008KT 15SM FEW030 05/00 A3015 RMK SC1 SLP212
CYYG;2004-10-06 04:00;METAR CYYG 060400Z 28009KT 15SM FEW034 04/M00 A3019 RMK SC2 SLP224
CYYG;2004-10-06 05:00;METAR CYYG 060500Z 27009KT 15SM FEW033 03/M00 A3022 RMK SC2 SLP233
CYYG;2004-10-06 06:00;METAR CYYG 060600Z 26008KT 15SM BKN034 03/M01 A3023 RMK SC6 SLP239
CYYG;2004-10-06 07:00;METAR CYYG 060700Z 28010G15KT 15SM FEW034 03/M01 A3023 RMK SC2 SLP238
CYYG;2004-10-06 08:00;METAR CYYG 060800Z 29008KT 15SM FEW035 02/M02 A3024 RMK SC1 SLP243
CYYG;2004-10-06 09:00;METAR CYYG 060900Z 27007KT 15SM FEW035 01/M02 A3025 RMK SC2 SLP247
CYYG;2004-10-06 10:00;METAR CYYG 061000Z 27007KT 15SM FEW031 02/M02 A3027 RMK SC2 SLP253
CYYG;2004-10-06 11:00;METAR CYYG 061100Z 27006KT 15SM SCT031 01/M03 A3029 RMK SC3 SLP259
CYYG;2004-10-06 12:00;METAR CYYG 061200Z 27006KT 15SM FEW035 SCT280 03/M02 A3030 RMK SC2CI1 SLP263
CYYG;2004-10-06 13:00;METAR CYYG 061300Z 28009KT 15SM FEW035 FEW280 05/M02 A3031 RMK SC2CI1 SLP265
CYYG;2004-10-06 14:00;METAR CYYG 061400Z 27008KT 15SM FEW035 FEW280 06/M01 A3031 RMK SC2CI1 SLP264
CYYG;2004-10-06 15:00;METAR CYYG 061500Z 25008KT 15SM FEW035 SCT280 07/00 A3030 RMK SC2CI2 SLP262
CYYG;2004-10-06 16:00;METAR CYYG 061600Z 27009KT 15SM FEW030 SCT280 07/00 A3029 RMK SC2CI2 SLP260
CYYG;2004-10-06 17:00;METAR CYYG 061700Z 25008KT 15SM FEW030 SCT280 07/M01 A3028 RMK SC1CI1 SLP256
CYYG;2004-10-06 18:00;METAR CYYG 061800Z 25006KT 15SM BKN280 07/M01 A3028 RMK CI3 SLP254
CYYG;2004-10-06 19:00;METAR CYYG 061900Z 24008KT 15SM SCT280 08/M01 A3027 RMK CI2 SLP253
CYYG;2004-10-06 20:00;METAR CYYG 062000Z 23006KT 15SM FEW083 BKN280 08/M01 A3026 RMK AC2CI2 SLP248
CYYG;2004-10-06 21:00;METAR CYYG 062100Z 23006KT 15SM BKN082 BKN280 08/M00 A3025 RMK AC6CI1 SLP246
CYYG;2004-10-06 22:00;METAR CYYG 062200Z 23006KT 15SM OVC070 08/01 A3024 RMK AS8 SLP243
CYYG;2004-10-06 23:00;METAR CYYG 062300Z 24004KT 15SM OVC080 08/02 A3025 RMK AS8 SLP244
CYYG;2004-10-07 00:00;METAR CYYG 070000Z 25008KT 15SM OVC060 08/03 A3026 RMK SC8 SLP249
CYYG;2004-10-07 01:00;METAR CYYG 070100Z 22009KT 15SM -SHRA OVC070 08/05 A3025 RMK AC8 SLP246
CYYG;2004-10-07 02:00;METAR CYYG 070200Z 23006KT 15SM -SHRA OVC072 08/05 A3025 RMK AC8 SLP246
CYYG;2004-10-07 03:00;METAR CYYG 070300Z 24005KT 15SM OVC070 08/06 A3024 RMK AC8 SLP243
CYYG;2004-10-07 04:00;METAR CYYG 070400Z 23008KT 15SM BKN055 OVC075 08/06 A3023 RMK SC6AC2 SLP239
CYYG;2004-10-07 05:00;METAR CYYG 070500Z 24009KT 15SM OVC052 09/06 A3023 RMK SC8 SLP238
CYYG;2004-10-07 06:00;METAR CYYG 070600Z 25008KT 15SM FEW060 BKN075 09/06 A3022 RMK SC2AC5 SLP234
CYYG;2004-10-07 07:00;METAR CYYG 070700Z 26007KT 15SM FEW055 08/05 A3022 RMK SC2 SLP235
CYYG;2004-10-07 08:00;METAR CYYG 070800Z 26006KT 15SM FEW055 08/05 A3022 RMK SC1 SLP236
CYYG;2004-10-07 09:00;METAR CYYG 070900Z 26006KT 15SM FEW150 07/05 A3023 RMK AC1 SLP240
CYYG;2004-10-07 10:00;METAR CYYG 071000Z 25007KT 15SM FEW030 FEW150 07/05 A3025 RMK SC1AC1 SLP246
CYYG;2004-10-07 11:00;METAR CYYG 071100Z 25006KT 15SM FEW030 BKN250 07/06 A3028 RMK SC2CI4 SLP254
CYYG;2004-10-07 12:00;METAR CYYG 071200Z 27007KT 15SM FEW030 BKN250 08/07 A3031 RMK SC2CI3 SLP264
CYYG;2004-10-07 13:00;METAR CYYG 071300Z 29007KT 15SM FEW030 BKN250 10/07 A3033 RMK SC2CI2 SLP271
CYYG;2004-10-07 14:00;METAR CYYG 071400Z 31009G15KT 15SM FEW030 BKN250 12/05 A3033 RMK SC2CI2 SLP274
CYYG;2004-10-07 15:00;METAR CYYG 071500Z 29010KT 15SM FEW038 BKN250 12/05 A3034 RMK SC2CI2 SLP276
CYYG;2004-10-07 16:00;METAR CYYG 071600Z 29009KT 15SM FEW040 SCT250 13/06 A3033 RMK SC2CI2 SLP273
CYYG;2004-10-07 17:00;METAR CYYG 071700Z 29010KT 15SM SCT040 13/05 A3032 RMK SC3 SLP269
CYYG;2004-10-07 18:00;METAR CYYG 071800Z 34005KT 15SM SCT040 13/06 A3032 RMK SC3 SLP268
CYYG;2004-10-07 19:00;METAR CYYG 071900Z 01005KT 15SM FEW040 SCT250 13/07 A3032 RMK SC2CI1 SLP269
CYYG;2004-10-07 20:00;METAR CYYG 072000Z 03006KT 15SM FEW040 FEW250 12/06 A3033 RMK SC1CI2
CYYG;2004-10-07 21:00;METAR CYYG 072100Z 05003KT 15SM FEW250 11/06 A3033 RMK CI1 SLP272
CYYG;2004-10-07 22:00;METAR CYYG 072200Z 12003KT 15SM FEW350 09/06 A3033 RMK CI1 CONTRAILS
CYYG;2004-10-07 23:00;METAR CYYG 072300Z 16006KT 15SM SCT350 08/06 A3035 RMK CI1 SLP279
CYYG;2004-10-08 00:00;METAR CYYG 080000Z 16005KT 15SM SCT350 08/05 A3035 RMK CI1 SLP280
CYYG;2004-10-08 01:00;METAR CYYG 080100Z 20006KT 15SM FEW350 08/06 A3035 RMK CI0 SLP280
CYYG;2004-10-08 02:00;METAR CYYG 080200Z 19007KT 15SM FEW350 09/07 A3036 RMK CI0 SLP281
CYYG;2004-10-08 03:00;METAR CYYG 080300Z 21006KT 15SM SKC 10/08 A3034 RMK SLP276
CYYG;2004-10-08 04:00;METAR CYYG 080400Z 22005KT 15SM SKC 09/07 A3035 RMK SLP278
CYYG;2004-10-08 05:00;METAR CYYG 080500Z 23006KT 15SM SKC 09/07 A3034 RMK SLP276
CYYG;2004-10-08 06:00;METAR CYYG 080600Z 23006KT 15SM SKC 09/07 A3033 RMK SLP273
CYYG;2004-10-08 07:00;METAR CYYG 080700Z 23006KT 15SM SKC 09/08 A3033 RMK SLP272
CYYG;2004-10-08 08:00;METAR CYYG 080800Z 22005KT 15SM SKC 10/08 A3033 RMK SLP270
CYYG;2004-10-08 09:00;METAR CYYG 080900Z 22006KT 15SM SKC 10/08 A3032 RMK SLP268
CYYG;2004-10-08 10:00;METAR CYYG 081000Z 22006KT 15SM FEW250 10/08 A3032 RMK CI0 SLP267
CYYG;2004-10-08 11:00;METAR CYYG 081100Z 22006KT 15SM SCT250 09/08 A3033 RMK CI1 SLP270
CYYG;2004-10-08 12:00;METAR CYYG 081200Z 23009KT 15SM SCT250 12/09 A3032 RMK CI1 SLP270
CYYG;2004-10-08 13:00;METAR CYYG 081300Z 24012G17KT 15SM SCT250 13/09 A3033 RMK CI1 SLP271
CYYG;2004-10-08 14:00;METAR CYYG 081400Z 24012KT 15SM FEW250 15/09 A3032 RMK CI1 SLP268
CYYG;2004-10-08 15:00;METAR CYYG 081500Z 24012G21KT 15SM FEW250 17/10 A3031 RMK CI2 SLP263
CYYG;2004-10-08 16:00;METAR CYYG 081600Z 23014G19KT 15SM FEW250 18/10 A3028 RMK CI2 SLP254
CYYG;2004-10-08 17:00;METAR CYYG 081700Z 24015KT 15SM SCT250 19/10 A3025 RMK CI2 SLP245
CYYG;2004-10-08 18:00;METAR CYYG 081800Z 23019G26KT 15SM SCT250 19/10 A3024 RMK CI2 SLP241
CYYG;2004-10-08 19:00;METAR CYYG 081900Z 23018KT 15SM SCT250 18/10 A3023 RMK CI2 SLP237
CYYG;2004-10-08 20:00;METAR CYYG 082000Z 23013G18KT 15SM BKN250 18/09 A3023 RMK CI2 SLP236
CYYG;2004-10-08 21:00;METAR CYYG 082100Z 23013KT 15SM BKN250 17/09 A3022 RMK CI2 SLP235
CYYG;2004-10-08 22:00;METAR CYYG 082200Z 23011KT 15SM BKN260 16/09 A3023 RMK CI2 SLP238
CYYG;2004-10-08 23:00;METAR CYYG 082300Z 23013G18KT 15SM BKN260 15/08 A3024 RMK CI2 SLP241
CYYG;2004-10-09 00:00;METAR CYYG 090000Z 23012G18KT 15SM SCT260 14/08 A3024 RMK CI1 SLP241
CYYG;2004-10-09 01:00;METAR CYYG 090100Z 23011KT 15SM FEW260 13/08 A3024 RMK CI1 SLP241
CYYG;2004-10-09 02:00;METAR CYYG 090200Z 24009KT 15SM FEW260 13/08 A3024 RMK CI1 SLP240
CYYG;2004-10-09 03:00;METAR CYYG 090300Z 22010KT 15SM FEW260 13/08 A3023 RMK CI1 SLP239
CYYG;2004-10-09 04:00;METAR CYYG 090400Z 23010KT 15SM BKN260 12/08 A3023 RMK CI2 SLP239
CYYG;2004-10-09 05:00;METAR CYYG 090500Z 22010KT 15SM BKN260 13/08 A3023 RMK CI3 SLP236
CYYG;2004-10-09 07:00;METAR CYYG 090700Z CCA 22010G15KT 15SM BKN260 13/08 A3022 RMK CI2 SLP234
CYYG;2004-10-09 08:00;METAR CYYG 090800Z 23008KT 15SM BKN260 12/08 A3021 RMK CI2 SLP232
CYYG;2004-10-09 09:00;METAR CYYG 090900Z 22010KT 15SM BKN260 12/08 A3020 RMK CI2 SLP229
CYYG;2004-10-09 10:00;METAR CYYG 091000Z 23008KT 15SM BKN260 12/08 A3020 RMK CI4 SLP228
CYYG;2004-10-09 11:00;METAR CYYG 091100Z 22009KT 15SM BKN260 12/08 A3020 RMK CI6 SLP228
CYYG;2004-10-09 12:00;METAR CYYG 091200Z 22010KT 15SM BKN260 13/09 A3021 RMK CI6 SLP230
CYYG;2004-10-09 13:00;METAR CYYG 091300Z 20012KT 15SM BKN260 13/09 A3021 RMK CI5 SLP232
CYYG;2004-10-09 14:00;METAR CYYG 091400Z 20012KT 15SM BKN260 14/09 A3020 RMK CI4 SLP227
CYYG;2004-10-09 15:00;METAR CYYG 091500Z 20011KT 15SM BKN260 15/10 A3019 RMK CI4 SLP224
CYYG;2004-10-09 16:00;METAR CYYG 091600Z 20013KT 15SM BKN260 16/10 A3017 RMK CI4 SLP218
CYYG;2004-10-09 17:00;METAR CYYG 091700Z 19011KT 15SM BKN260 17/11 A3014 RMK CI4 SLP208
CYYG;2004-10-09 18:00;METAR CYYG 091800Z 22013G18KT 15SM BKN260 18/11 A3013 RMK CI4 SLP202
CYYG;2004-10-09 19:00;METAR CYYG 091900Z 22014G19KT 15SM BKN260 19/10 A3011 RMK CI3 SLP197
CYYG;2004-10-09 20:00;METAR CYYG 092000Z 22013KT 15SM BKN260 18/10 A3010 RMK CI3 SLP194
CYYG;2004-10-09 21:00;METAR CYYG 092100Z 23007KT 15SM BKN260 17/11 A3011 RMK CI4 SLP196
CYYG;2004-10-09 22:00;METAR CYYG 092200Z 21006KT 15SM OVC260 14/11 A3010 RMK CI4 SLP195
CYYG;2004-10-09 23:00;METAR CYYG 092300Z 22007KT 15SM OVC260 14/11 A3010 RMK CI5 SLP195
CYYG;2004-10-10 00:00;METAR CYYG 100000Z 18006KT 15SM OVC260 13/11 A3010 RMK CI5 SLP195
CYYG;2004-10-10 01:00;METAR CYYG 100100Z 20016KT 15SM OVC260 15/12 A3010 RMK CI6 SLP193
CYYG;2004-10-10 02:00;METAR CYYG 100200Z 19011KT 15SM OVC260 14/12 A3010 RMK CI6 SLP193
CYYG;2004-10-10 03:00;METAR CYYG 100300Z 19012KT 15SM BKN260 14/12 A3008 RMK CI4 SLP188
CYYG;2004-10-10 04:00;METAR CYYG 100400Z 20007KT 15SM BKN260 13/12 A3008 RMK CI3 SLP187
CYYG;2004-10-10 05:00;METAR CYYG 100500Z 20011KT 15SM BKN260 13/12 A3006 RMK CI3 SLP182
CYYG;2004-10-10 06:00;METAR CYYG 100600Z 21011KT 15SM BKN240 14/12 A3006 RMK CI3 SLP179
CYYG;2004-10-10 07:00;METAR CYYG 100700Z 19010KT 15SM FEW040 BKN240 13/13 A3004 RMK SC2CI2 SLP174
CYYG;2004-10-10 08:00;METAR CYYG 100800Z 19010KT 15SM FEW056 BKN240 14/13 A3004 RMK SC2CI1 SLP171
CYYG;2004-10-10 09:00;METAR CYYG 100900Z 19014KT 15SM FEW030 FEW060 SCT240 15/13 A3001 RMK SC1SC1CI1 SLP164
CYYG;2004-10-10 10:00;METAR CYYG 101000Z 19010KT 15SM SCT011 BKN026 BKN240 15/14 A3002 RMK SC4SC2CI1 SLP165
CYYG;2004-10-10 11:00;METAR CYYG 101100Z 19012KT 15SM BKN014 15/14 A3001 RMK SC7 SLP161
CYYG;2004-10-10 12:00;METAR CYYG 101200Z 18014G19KT 15SM BKN014 OVC023 16/15 A3000 RMK SC6SC2 SLP160
CYYG;2004-10-10 13:00;METAR CYYG 101300Z 19015G20KT 15SM SCT015 SCT040 BKN076 17/15 A3000 RMK SC3SC1AC2 SLP159
CYYG;2004-10-10 14:00;METAR CYYG 101400Z 18014KT 15SM FEW015 BKN026 BKN076 17/15 A2999 RMK SC2SC4AC2 SLP155
CYYG;2004-10-10 15:00;METAR CYYG 101500Z 20012G17KT 15SM FEW015 BKN032 BKN076 18/15 A2998 RMK CF1SC5AC2 SLP154
CYYG;2004-10-10 16:00;METAR CYYG 101600Z 22012G17KT 12SM -SHRA BKN028 OVC075 17/15 A2998 RMK SC7AC1 SLP151
CYYG;2004-10-10 17:00;METAR CYYG 101700Z 22007KT 15SM -SHRA OVC035 16/15 A2996 RMK SC8 SLP146
CYYG;2004-10-10 18:00;METAR CYYG 101800Z 22007KT 15SM BKN045 BKN060 18/14 A2994 RMK SC6SC2 SLP139
CYYG;2004-10-10 19:00;METAR CYYG 101900Z 21007KT 15SM BKN040 OVC060 18/13 A2993 RMK SC6SC2 SLP136
CYYG;2004-10-10 20:00;METAR CYYG 102000Z 24004KT 15SM -SHRA SCT040 OVC074 16/14 A2991 RMK SC4AC4 SLP128
CYYG;2004-10-10 21:00;METAR CYYG 102100Z 21006KT 15SM SCT034 BKN062 OVC095 16/14 A2990 RMK SC4SC2AC2 SLP124
CYYG;2004-10-10 22:00;METAR CYYG 102200Z 15006KT 15SM OVC029 OVC034 16/13 A2991 RMK SC6SC2 SLP130
CYYG;2004-10-10 23:00;METAR CYYG 102300Z 16005KT 15SM -SHRA BKN022 OVC039 15/14 A2993 RMK SC6SC2 SLP135
CYYG;2004-10-11 00:00;METAR CYYG 110000Z 16004KT 15SM -SHRA BKN020 OVC030 15/14 A2991 RMK SC6SC2 SLP130
CYYG;2004-10-11 01:00;METAR CYYG 110100Z 14002KT 15SM -SHRA OVC022 15/14 A2991 RMK SC8 SLP128
CYYG;2004-10-11 02:00;METAR CYYG 110200Z 00000KT 15SM -SHRA OVC024 15/14 A2990 RMK SC8 SLP127
CYYG;2004-10-11 03:00;METAR CYYG 110300Z 12003KT 15SM -SHRA SCT020 OVC077 14/14 A2989 RMK SC3AC5 SLP122
CYYG;2004-10-11 04:00;METAR CYYG 110400Z 09003KT 15SM -SHRA BKN020 OVC075 14/14 A2988 RMK SC6AC2 SLP118
CYYG;2004-10-11 05:00;METAR CYYG 110500Z 10003KT 15SM -SHRA BKN020 OVC075 14/14 A2987 RMK SC5AC3 SLP116
CYYG;2004-10-11 06:00;METAR CYYG 110600Z 03003KT 15SM -SHRA OVC014 14/14 A2986 RMK SC8 SLP113
CYYG;2004-10-11 07:00;METAR CYYG 110700Z 03009KT 15SM -SHRA SCT020 OVC048 14/14 A2985 RMK SC3SC5 SLP110
CYYG;2004-10-11 08:00;METAR CYYG 110800Z 05008KT 15SM -SHRA BKN017 OVC028 14/14 A2985 RMK SC6SC2
CYYG;2004-10-11 09:00;METAR CYYG 110900Z 05013KT 10SM -SHRA SCT003 OVC017 14/14 A2986 RMK SF4SC4 SLP112
CYYG;2004-10-11 10:00;METAR CYYG 111000Z 05010G17KT 12SM -SHRA OVC004 14/13 A2986 RMK SF7 SLP112
CYYG;2004-10-11 11:00;METAR CYYG 111100Z 04011G16KT 15SM FEW005 BKN300 13/12 A2987 RMK SF2CI1 SLP115
CYYG;2004-10-11 12:00;METAR CYYG 111200Z 04014KT 15SM FEW005 BKN300 14/13 A2988 RMK SF1CI2
CYYG;2004-10-11 13:00;METAR CYYG 111300Z 05017G22KT 15SM BKN010 OVC300 15/13 A2989 RMK SF5CI2
CYYG;2004-10-11 14:00;METAR CYYG 111400Z 05021G27KT 15SM OVC006 14/13 A2987 RMK SF8 SLP114
CYYG;2004-10-11 15:00;METAR CYYG 111500Z 04021G28KT 12SM OVC005 13/12 A2985 RMK SF8 SLP107
CYYG;2004-10-11 16:00;METAR CYYG 111600Z 04022G30KT 12SM OVC005 13/12 A2985 RMK SF8 SLP107
CYYG;2004-10-11 17:00;METAR CYYG 111700Z 04025G35KT 8SM -SHRA OVC007 13/12 A2983 RMK SF8 SLP102
CYYG;2004-10-11 18:00;METAR CYYG 111800Z 03025G34KT 10SM -SHRA OVC007 12/12 A2979 RMK SF8 SLP088
CYYG;2004-10-11 19:00;METAR CYYG 111900Z 03029G38KT 5SM -SHRA BR OVC006 11/11 A2975 RMK SF8 SLP076
CYYG;2004-10-11 20:00;METAR CYYG 112000Z 04027G37KT 3SM -SHRA BR OVC007 11/11 A2974 RMK SF8 SLP070
CYYG;2004-10-11 21:00;METAR CYYG 112100Z 04026G38KT 3SM SHRA BR BKN007 OVC016 12/11 A2970 RMK SF6SC2 SLP059
CYYG;2004-10-11 22:00;METAR CYYG 112200Z 04030G41KT 4SM -SHRA BR OVC007 11/11 A2967 RMK SF8 RERA SLP049
CYYG;2004-10-11 23:00;METAR CYYG 112300Z 04025G36KT 5SM -SHRA BR OVC007 11/11 A2965 RMK SF8 SLP040
CYYG;2004-10-12 00:00;METAR CYYG 120000Z 05025G42KT 5SM -RA BR OVC008 11/11 A2961 RMK SF8 RERA SLP028
CYYG;2004-10-12 01:00;METAR CYYG 120100Z 05025G40KT 5SM -RA BR OVC007 11/11 A2958 RMK SF8 SLP016
CYYG;2004-10-12 02:00;METAR CYYG 120200Z 05028G38KT 5SM -RA BR OVC007 11/11 A2953 RMK SF8 SLP000
CYYG;2004-10-12 03:00;METAR CYYG 120300Z 04031G40KT 5SM -RA BR OVC006 11/11 A2943 RMK SF8 PRESFR SLP967
CYYG;2004-10-12 04:00;METAR CYYG 120400Z 04031G42KT 4SM RA BR OVC008 11/11 A2939 RMK SF8 SLP952
CYYG;2004-10-12 05:00;METAR CYYG 120500Z 05024G33KT 6SM -RA BR OVC008 12/12 A2939 RMK SF8 RERA SLP952
CYYG;2004-10-12 06:00;METAR CYYG 120600Z 06021G28KT 10SM -RA OVC009 12/12 A2936 RMK SF8 SLP941
CYYG;2004-10-12 07:00;METAR CYYG 120700Z 05016G22KT 6SM -RA BR OVC006 12/12 A2933 RMK SF8 SLP934
CYYG;2004-10-12 08:00;METAR CYYG 120800Z 06012G18KT 6SM -RA BR OVC006 13/13 A2933 RMK SF8 SLP932
CYYG;2004-10-12 12:00;METAR CYYG 121200Z 05010KT 6SM BR BKN007 BKN160 14/14 A2931 RMK SF6AC1 VIS HIER N SLP927
CYYG;2004-10-12 13:00;METAR CYYG 121300Z 05012KT 10SM -SHRA BKN007 OVC012 15/14 A2931 RMK SF6SC2 SLP924
CYYG;2004-10-12 14:00;METAR CYYG 121400Z 06008KT 12SM OVC006 16/15 A2928 RMK SF8 SLP916
CYYG;2004-10-12 15:00;METAR CYYG 121500Z 11014G21KT 15SM BKN008 BKN021 17/15 A2926 RMK SF5SC2 SLP910
CYYG;2004-10-12 16:00;METAR CYYG 121600Z 10014KT 15SM BKN013 BKN130 BKN260 18/15 A2925 RMK SC5AC1CI1 SLP904
CYYG;2004-10-12 17:00;METAR CYYG 121700Z 11014G19KT 15SM SCT020 SCT040 BKN260 18/14 A2923 RMK SC3SC1CI2 CU ASOCTD SLP899
CYYG;2004-10-12 18:00;METAR CYYG 121800Z 09016KT 15SM VCSH SCT012 BKN060 BKN260 17/15 A2923 RMK CU3SC2CI2 SLP899
CYYG;2004-10-12 19:00;METAR CYYG 121900Z 10011G18KT 12SM -SHRA FEW012 BKN040 BKN100 16/14 A2923 RMK CU2SC3AC2 SLP897
CYYG;2004-10-12 20:00;METAR CYYG 122000Z 09013KT 12SM -SHRA FEW012 BKN036 BKN080 15/14 A2922 RMK CU1SC4AC2 SLP896
CYYG;2004-10-12 21:00;METAR CYYG 122100Z 09010KT 15SM -SHRA FEW012 BKN043 OVC060 14/13 A2923 RMK SC2SC3SC3 SLP898
CYYG;2004-10-12 22:00;METAR CYYG 122200Z 09010KT 12SM OVC014 14/13 A2923 RMK SC8 SLP899
CYYG;2004-10-12 23:00;METAR CYYG 122300Z 10012KT 10SM OVC013 14/12 A2923 RMK SC8 SLP899
CYYG;2004-10-13 00:00;METAR CYYG 130000Z 09011KT 12SM BKN016 OVC030 14/12 A2923 RMK SC6SC2 SLP897
CYYG;2004-10-13 01:00;METAR CYYG 130100Z 10010G15KT 12SM BKN011 OVC091 13/12 A2921 RMK SC6AC2 SLP893
CYYG;2004-10-13 02:00;METAR CYYG 130200Z 09009KT 10SM -SHRA BKN011 OVC036 13/12 A2921 RMK SC5SC3 SLP891
CYYG;2004-10-13 03:00;METAR CYYG 130300Z 09011KT 10SM -SHRA BKN013 OVC029 13/12 A2919 RMK SC6SC2 SLP884
CYYG;2004-10-13 04:00;METAR CYYG 130400Z 07011G17KT 10SM -SHRA OVC014 12/12 A2916 RMK SC8 SLP875
CYYG;2004-10-13 05:00;METAR CYYG 130500Z 08016G21KT 9SM -SHRA OVC011 13/12 A2912 RMK SC8 SLP862
CYYG;2004-10-13 06:00;METAR CYYG 130600Z 07017KT 10SM -SHRA OVC011 13/12 A2909 RMK SC8 SLP852
CYYG;2004-10-13 07:00;METAR CYYG 130700Z 06013KT 8SM -RA OVC010 13/13 A2906 RMK SF8 SLP842
CYYG;2004-10-13 08:00;METAR CYYG 130800Z 35005KT 5SM -RA BR SCT004 OVC010 13/13 A2906 RMK SF3SF5 SLP843
CYYG;2004-10-13 09:00;METAR CYYG 130900Z 27007KT 6SM -RA BR SCT004 OVC010 13/13 A2909 RMK SF4SF4 SLP851
CYYG;2004-10-13 10:00;METAR CYYG 131000Z 26009KT 6SM -RA BR OVC003 13/13 A2913 RMK SF8 SLP866
CYYG;2004-10-13 11:00;METAR CYYG 131100Z 26013KT 8SM -RA OVC004 13/12 A2919 RMK SF8 SLP884
CYYG;2004-10-13 12:00;METAR CYYG 131200Z 26011G16KT 5SM -RA BR OVC005 13/12 A2924 RMK SF8 SLP902
CYYG;2004-10-13 13:00;METAR CYYG 131300Z 27013G19KT 10SM -SHRA OVC007 13/12 A2928 RMK SF8 SLP914 SW SLP924
CYYG;2004-10-13 15:00;METAR CYYG 131500Z 27013KT 15SM OVC008 12/11 A2934 RMK SC8 SLP937
CYYG;2004-10-13 16:00;METAR CYYG 131600Z 27010G17KT 15SM OVC008 12/11 A2937 RMK SC8 SLP946
CYYG;2004-10-13 20:00;METAR CYYG 132000Z 29011KT 15SM BKN010 BKN020 11/10 A2947 RMK SC7SC1 SLP980
CYYG;2004-10-13 21:00;METAR CYYG 132100Z 28009KT 15SM BKN013 OVC043 11/09 A2950 RMK SC7SC1 SLP992
CYYG;2004-10-13 22:00;METAR CYYG 132200Z 29007KT 15SM OVC015 11/09 A2952 RMK SC8 SLP999
CYYG;2004-10-13 23:00;METAR CYYG 132300Z 27004KT 15SM OVC013 10/10 A2955 RMK SC8 SLP006
CYYG;2004-10-14 00:00;METAR CYYG 140000Z 27004KT 15SM OVC011 10/09 A2956 RMK SC8 SLP012
CYYG;2004-10-14 01:00;METAR CYYG 140100Z 24003KT 15SM OVC016 10/10 A2958 RMK SC8 SLP019
CYYG;2004-10-14 02:00;METAR CYYG 140200Z 26005KT 15SM OVC022 10/10 A2959 RMK SC8 SLP020
CYYG;2004-10-14 03:00;METAR CYYG 140300Z 27007KT 15SM OVC026 11/09 A2960 RMK SC8 SLP024
CYYG;2004-10-14 04:00;METAR CYYG 140400Z 28008KT 15SM OVC024 10/09 A2961 RMK SC8 SLP028
CYYG;2004-10-14 05:00;METAR CYYG 140500Z 28005KT 15SM SCT025 09/08 A2962 RMK SC4 SLP032
CYYG;2004-10-14 06:00;METAR CYYG 140600Z 27006KT 15SM BKN037 09/08 A2963 RMK SC6 SLP035
CYYG;2004-10-14 07:00;METAR CYYG 140700Z 27006KT 15SM SCT035 08/07 A2964 RMK SC4 SLP037
CYYG;2004-10-14 08:00;METAR CYYG 140800Z 25005KT 15SM SCT035 08/07 A2965 RMK SC3 SLP042
CYYG;2004-10-14 09:00;METAR CYYG 140900Z 25004KT 15SM FEW035 07/07 A2966 RMK SC2 SLP046
CYYG;2004-10-14 10:00;METAR CYYG 141000Z 26003KT 15SM FEW035 07/07 A2969 RMK SC1 SLP055
CYYG;2004-10-14 11:00;METAR CYYG 141100Z 23004KT 15SM FEW035 07/07 A2971 RMK SC1 SLP062
CYYG;2004-10-14 12:00;METAR CYYG 141200Z 27003KT 15SM FEW030 09/08 A2973 RMK SC1 SLP068
CYYG;2004-10-14 13:00;METAR CYYG 141300Z 25005KT 15SM FEW010 FEW030 SCT260 11/09 A2975 RMK CF2SC1CI0 SLP074
CYYG;2004-10-14 14:00;METAR CYYG 141400Z 23009KT 15SM SCT012 SCT260 12/09 A2975 RMK CF3CI0 SLP075
CYYG;2004-10-14 15:00;METAR CYYG 141500Z 23006KT 15SM FEW012 SCT260 13/09 A2975 RMK CF2CI1
CYYG;2004-10-14 16:00;METAR CYYG 141600Z 25005KT 15SM FEW016 BKN260 13/09 A2977 RMK CF2CI2 SLP080
CYYG;2004-10-14 17:00;METAR CYYG 141700Z 22004KT 15SM FEW020 BKN260 13/09 A2977 RMK SC2CI2
CYYG;2004-10-14 18:00;METAR CYYG 141800Z 20008KT 15SM FEW020 BKN260 14/10 A2977 RMK SC1CI2 SLP083
CYYG;2004-10-14 19:00;METAR CYYG 141900Z 19006KT 15SM BKN260 13/09 A2979 RMK CI3 SLP090
CYYG;2004-10-14 21:00;METAR CYYG 142100Z 00000KT 15SM BKN260 13/09 A2980 RMK CI4 SLP091
CYYG;2004-10-14 22:00;METAR CYYG 142200Z 13003KT 15SM BKN260 11/09 A2982 RMK CI4 SLP099
CYYG;2004-10-14 23:00;METAR CYYG 142300Z 13003KT 15SM BKN230 10/09 A2984 RMK CI4 SLP105
CYYG;2004-10-15 00:00;METAR CYYG 150000Z 10003KT 15SM BKN200 09/08 A2985 RMK CI4 SLP111
CYYG;2004-10-15 01:00;METAR CYYG 150100Z 14004KT 15SM BKN190 10/09 A2987 RMK CI3 SLP115
CYYG;2004-10-15 02:00;METAR CYYG 150200Z 12003KT 15SM BKN190 09/09 A2987 RMK CI3 SLP117
CYYG;2004-10-15 03:00;METAR CYYG 150300Z 12005KT 15SM FEW190 09/09 A2987 RMK CI1 SLP118
CYYG;2004-10-15 04:00;METAR CYYG 150400Z 13004KT 15SM FEW190 08/08 A2989 RMK CI1 SLP124
CYYG;2004-10-15 05:00;METAR CYYG 150500Z 13004KT 15SM SKC 09/09 A2990 RMK SLP125
CYYG;2004-10-15 06:00;METAR CYYG 150600Z 11004KT 6SM BR SKC 09/09 A2990 RMK SLP125
CYYG;2004-10-15 07:00;METAR CYYG 150700Z 12005KT 3SM BR FEW007 SCT160 08/08 A2990 RMK SF2AC2 SLP127
CYYG;2004-10-15 08:00;METAR CYYG 150800Z 10004KT 1SM BR BKN006 08/08 A2991 RMK SF6 SLP129
CYYG;2004-10-15 09:00;METAR CYYG 150900Z 10005KT 1/4SM FG VV001 08/08 A2990 RMK FG8 RVR RWY03 1600 FT SLP125
CYYG;2004-10-15 12:00;METAR CYYG 151200Z 08007KT 12SM -SHRA BKN013 OVC060 11/11 A2991 RMK SC5SC3 SLP131
CYYG;2004-10-15 13:00;METAR CYYG 151300Z 10010KT 3SM -SHRA BR BKN007 OVC011 12/11 A2992 RMK SF6SC2 SLP132
CYYG;2004-10-15 14:00;METAR CYYG 151400Z 09015KT 4SM -SHRA BR BKN007 OVC020 12/11 A2990 RMK SF6SC2 SLP127
CYYG;2004-10-15 15:00;METAR CYYG 151500Z 09013KT 10SM -SHRA OVC007 12/12 A2989 RMK SF8 SLP122
CYYG;2004-10-15 16:00;METAR CYYG 151600Z 10012KT 8SM -SHRA OVC007 12/12 A2988 RMK SF8 SLP121
CYYG;2004-10-15 17:00;METAR CYYG 151700Z 11014G19KT 8SM -SHRA OVC007 13/12 A2985 RMK SF8 SLP111
CYYG;2004-10-15 18:00;METAR CYYG 151800Z 11017G22KT 6SM -SHRA BR OVC007 13/12 A2983 RMK SF8 /R11/ SLP101
CYYG;2004-10-15 19:00;METAR CYYG 151900Z 11011G19KT 10SM -SHRA OVC008 13/13 A2982 RMK SF8 SLP099
CYYG;2004-10-15 20:00;METAR CYYG 152000Z 12013G20KT 8SM -SHRA OVC004 13/13 A2982 RMK SF8 SLP099
CYYG;2004-10-15 21:00;METAR CYYG 152100Z 12011G17KT 6SM -SHRA BR OVC003 14/14 A2982 RMK SF8 CIG RAG SLP099
CYYG;2004-10-15 22:00;METAR CYYG 152200Z 12012KT 6SM -SHRA BR OVC002 14/14 A2981 RMK SF8 CIG RAG SLP095
CYYG;2004-10-16 00:00;METAR CYYG 160000Z 12010G15KT 1 1/2SM BR OVC002 15/15 A2981 RMK SF8 SLP095
CYYG;2004-10-16 01:00;METAR CYYG 160100Z 11010KT 2SM BR OVC002 15/15 A2981 RMK SF8 SLP095
CYYG;2004-10-16 02:00;METAR CYYG 160200Z 13009KT 4SM BR OVC002 15/15 A2981 RMK SF8 SLP095
CYYG;2004-10-16 03:00;METAR CYYG 160300Z 13010KT 12SM OVC004 15/15 A2981 RMK SF8 SLP096
CYYG;2004-10-16 04:00;METAR CYYG 160400Z 13008KT 10SM OVC003 15/15 A2979 RMK SF8 SLP089
CYYG;2004-10-16 05:00;METAR CYYG 160500Z 14010KT 2SM BR OVC003 15/15 A2979 RMK SF8 SLP089
CYYG;2004-10-16 06:00;METAR CYYG 160600Z 14006KT 2SM BR OVC002 15/15 A2979 RMK SF8 SLP087
CYYG;2004-10-16 07:00;METAR CYYG 160700Z 12007KT 2SM BR OVC002 16/16 A2976 RMK SF8 SLP077
CYYG;2004-10-16 08:00;METAR CYYG 160800Z 11009KT 2SM BR OVC002 15/15 A2974 RMK SF8 SLP073
CYYG;2004-10-16 09:00;METAR CYYG 160900Z 12011KT 1/2SM FG VV001 15/15 A2972 RMK FG8 RVR RWY03 3500 FT SLP064
CYYG;2004-10-16 10:00;METAR CYYG 161000Z 12008KT 1/2SM FG VV001 15/15 A2971 RMK FG8 RVR RWY03 4000FT SLP060
CYYG;2004-10-16 11:00;METAR CYYG 161100Z 13011KT 6SM BR OVC003 16/16 A2970 RMK SF8 SLP057
CYYG;2004-10-16 12:00;METAR CYYG 161200Z 14015KT 6SM BR OVC003 16/16 A2968 RMK SF8 SLP052
CYYG;2004-10-16 13:00;METAR CYYG 161300Z 13015KT 8SM OVC003 17/17 A2965 RMK SF8 SLP041
CYYG;2004-10-16 14:00;METAR CYYG 161400Z 13012G17KT 10SM OVC004 17/17 A2962 RMK SF8 SLP031
CYYG;2004-10-16 15:00;METAR CYYG 161500Z 13017KT 15SM OVC008 19/18 A2958 RMK SC8 SLP016
CYYG;2004-10-16 16:00;METAR CYYG 161600Z 14015G24KT 10SM -SHRA OVC010 19/18 A2953 RMK SC8 SLP000
CYYG;2004-10-16 17:00;METAR CYYG 161700Z 15018G26KT 10SM -SHRA BKN015 OVC030 19/18 A2951 RMK SC6SC2 SLP994
CYYG;2004-10-16 18:00;METAR CYYG 161800Z 16016KT 8SM -SHRA BKN007 OVC022 18/17 A2949 RMK SF5SC3 SLP985
CYYG;2004-10-16 19:00;METAR CYYG 161900Z 17017KT 15SM FEW012 BKN024 19/17 A2951 RMK SC2SC4 SLP994
CYYG;2004-10-16 20:00;METAR CYYG 162000Z 18017G22KT 15SM FEW012 SCT024 18/15 A2953 RMK SC2SC2 SLP000
CYYG;2004-10-16 21:00;METAR CYYG 162100Z 18018G24KT 15SM FEW024 17/15 A2956 RMK SC2 SLP009
CYYG;2004-10-16 22:00;METAR CYYG 162200Z 18018G24KT 15SM FEW024 16/14 A2960 RMK SC2 SLP024
CYYG;2004-10-16 23:00;METAR CYYG 162300Z 18014KT 15SM FEW025 15/14 A2963 RMK SC2 SLP034
CYYG;2004-10-17 00:00;METAR CYYG 170000Z 17011KT 15SM FEW025 14/13 A2964 RMK SC2 SLP038
CYYG;2004-10-17 01:00;METAR CYYG 170100Z 18009KT 15SM SCT019 14/13 A2968 RMK SC3 SLP052
CYYG;2004-10-17 02:00;METAR CYYG 170200Z 18012G17KT 15SM SCT020 13/12 A2969 RMK SC3 SLP056
CYYG;2004-10-17 03:00;METAR CYYG 170300Z 19010KT 15SM SCT020 13/11 A2970 RMK SC3 SLP057
CYYG;2004-10-17 04:00;METAR CYYG 170400Z 20014KT 15SM SCT020 13/11 A2971 RMK SC3 SLP063
CYYG;2004-10-17 05:00;METAR CYYG 170500Z 20014KT 15SM FEW020 12/10 A2972 RMK SC2 SLP065
CYYG;2004-10-17 06:00;METAR CYYG 170600Z 18012KT 15SM FEW020 12/10 A2972 RMK SC2 SLP065
CYYG;2004-10-17 07:00;METAR CYYG 170700Z 19011KT 15SM FEW020 12/10 A2974 RMK SC2 SLP072
CYYG;2004-10-17 08:00;METAR CYYG 170800Z 18010KT 15SM FEW012 FEW080 12/10 A2974 RMK SC1AC2 SLP071
CYYG;2004-10-17 09:00;METAR CYYG 170900Z 19010KT 15SM FEW012 SCT093 BKN200 12/10 A2976 RMK SC1AC2CI2 SLP078
CYYG;2004-10-17 10:00;METAR CYYG 171000Z 18004KT 15SM FEW093 BKN220 11/10 A2976 RMK AC2CI2 SLP078
CYYG;2004-10-17 11:00;METAR CYYG 171100Z 13003KT 15SM BKN077 11/11 A2976 RMK AC6 SLP079
CYYG;2004-10-17 12:00;METAR CYYG 171200Z 15004KT 15SM BKN066 12/11 A2976 RMK AC7 SLP078
CYYG;2004-10-17 13:00;METAR CYYG 171300Z 14010KT 15SM -SHRA BKN040 13/12 A2976 RMK SC7 SLP079
CYYG;2004-10-17 14:00;METAR CYYG 171400Z 16013KT 15SM SCT040 BKN250 14/12 A2974 RMK SC4CI3
CYYG;2004-10-17 15:00;METAR CYYG 171500Z 16011G17KT 15SM SCT040 BKN250 14/12 A2972 RMK SC3CS4 SLP064
CYYG;2004-10-17 16:00;METAR CYYG 171600Z 14009G15KT 15SM -SHRA BKN020 OVC040 14/11 A2970 RMK SC6SC2 SLP057
CYYG;2004-10-17 17:00;METAR CYYG 171700Z 16013G18KT 15SM -SHRA BKN020 OVC040 15/13 A2968 RMK SC6SC2 SLP051
CYYG;2004-10-17 18:00;METAR CYYG 171800Z 17014KT 15SM FEW030 SCT080 BKN250 16/13 A2966 RMK SC2AC2CI2 SLP043
CYYG;2004-10-17 19:00;METAR CYYG 171900Z 24010G22KT 15SM SCT023 BKN065 13/10 A2968 RMK SC4AC2 SLP051
CYYG;2004-10-17 20:00;METAR CYYG 172000Z 25009KT 15SM SCT025 SCT070 14/10 A2968 RMK SC3AC1
CYYG;2004-10-17 21:00;METAR CYYG 172100Z 25006KT 15SM FEW065 13/10 A2969 RMK SC2 SLP054
CYYG;2004-10-17 22:00;METAR CYYG 172200Z 27004KT 15SM FEW053 11/09 A2971 RMK SC2 SLP060
CYYG;2004-10-17 23:00;METAR CYYG 172300Z 25006KT 15SM FEW053 11/08 A2973 RMK SC2 SLP067
CYYG;2004-10-18 00:00;METAR CYYG 180000Z 24004KT 15SM FEW050 10/05 A2974 RMK SC2 SLP073
CYYG;2004-10-18 01:00;METAR CYYG 180100Z 21005KT 15SM FEW050 09/06 A2976 RMK SC2 SLP077
CYYG;2004-10-18 02:00;METAR CYYG 180200Z 21007KT 15SM FEW047 09/07 A2977 RMK SC2 SLP081
CYYG;2004-10-18 03:00;METAR CYYG 180300Z 22006KT 15SM FEW050 09/07 A2977 RMK SC2 SLP082
CYYG;2004-10-18 04:00;METAR CYYG 180400Z 22005KT 15SM FEW036 09/07 A2977 RMK SC2 SLP083
CYYG;2004-10-18 05:00;METAR CYYG 180500Z 22009G15KT 15SM BKN049 10/06 A2979 RMK SC5 SLP087
CYYG;2004-10-18 06:00;METAR CYYG 180600Z 19008KT 15SM SCT049 08/06 A2980 RMK SC4 SLP091
CYYG;2004-10-18 07:00;METAR CYYG 180700Z 19009KT 15SM FEW030 08/06 A2979 RMK SC2 SLP090
CYYG;2004-10-18 08:00;METAR CYYG 180800Z 22009KT 15SM FEW060 09/07 A2981 RMK SC2 SLP095
CYYG;2004-10-18 09:00;METAR CYYG 180900Z 22008KT 15SM FEW060 09/06 A2982 RMK SC2 SLP099
CYYG;2004-10-18 10:00;METAR CYYG 181000Z 22007KT 15SM FEW020 BKN047 09/07 A2984 RMK CU1SC4 SLP104
CYYG;2004-10-18 11:00;METAR CYYG 181100Z 22006KT 15SM FEW015 FEW045 SCT055 09/07 A2985 RMK SC1SC1SC2 SLP108
CYYG;2004-10-18 12:00;METAR CYYG 181200Z 21007KT 15SM FEW015 FEW055 SCT070 10/07 A2987 RMK SC2SC1AC1 SLP117
CYYG;2004-10-18 13:00;METAR CYYG 181300Z 22009KT 15SM FEW018 FEW070 SCT300 11/08 A2988 RMK CU1AC2CI0 SLP121
CYYG;2004-10-18 14:00;METAR CYYG 181400Z 25010KT 15SM FEW020 SCT082 BKN300 11/07 A2990 RMK CU2AC2CI0 SLP126
CYYG;2004-10-18 15:00;METAR CYYG 181500Z 24007KT 15SM FEW022 SCT082 BKN300 11/06 A2990 RMK CU2AC2CI0 SLP128
CYYG;2004-10-18 16:00;METAR CYYG 181600Z 27009KT 15SM FEW026 SCT088 BKN300 13/07 A2990 RMK CU2AC2CI1 SLP127
CYYG;2004-10-18 17:00;METAR CYYG 181700Z 25009KT 15SM SCT029TCU BKN088 BKN300 12/06 A2990 RMK TCU3AC2CI0 SLP126
CYYG;2004-10-18 18:00;METAR CYYG 181800Z 24008KT 15SM VCSH FEW029TCU BKN079 12/04 A2990 RMK TCU2AC5 SLP128
CYYG;2004-10-18 19:00;METAR CYYG 181900Z 23010G15KT 15SM FEW030TCU SCT080 SCT300 12/04 A2992 RMK TCU1AC2CI0 SLP132
CYYG;2004-10-18 20:00;METAR CYYG 182000Z 28004KT 15SM FEW032 FEW080 SCT300 12/05 A2994 RMK SC2AC1CI0 TCU EMBDD N-NE SLP141
CYYG;2004-10-18 21:00;METAR CYYG 182100Z 29004KT 15SM FEW032TCU SCT073 10/04 A2997 RMK TCU1AC2 SLP149
CYYG;2004-10-18 22:00;METAR CYYG 182200Z 24004KT 15SM BKN058 BKN083 10/04 A2998 RMK SC6AC1 SLP155
CYYG;2004-10-18 23:00;METAR CYYG 182300Z 24004KT 15SM FEW078 09/04 A2999 RMK AC2 SLP157
CYYG;2004-10-19 00:00;METAR CYYG 190000Z 34004KT 15SM BKN041 BKN078 07/04 A3001 RMK SC5AC1 SLP162
CYYG;2004-10-19 01:00;METAR CYYG 190100Z 27003KT 15SM FEW050 SCT082 09/03 A3002 RMK SC2AC2 SLP168
CYYG;2004-10-19 02:00;METAR CYYG 190200Z 27005KT 15SM FEW050 SCT080 08/05 A3004 RMK SC2AC2 SLP172
CYYG;2004-10-19 03:00;METAR CYYG 190300Z 27006KT 15SM BKN070 07/04 A3004 RMK AC5 SLP175
CYYG;2004-10-19 04:00;METAR CYYG 190400Z 29005KT 15SM SCT070 06/03 A3006 RMK AC4 SLP179
CYYG;2004-10-19 05:00;METAR CYYG 190500Z 28006KT 15SM FEW070 05/03 A3007 RMK AC2 SLP185
CYYG;2004-10-19 06:00;METAR CYYG 190600Z 27005KT 15SM SKC 06/03 A3008 RMK SLP186
CYYG;2004-10-19 07:00;METAR CYYG 190700Z 29006KT 15SM SKC 05/04 A3008 RMK SLP186
CYYG;2004-10-19 08:00;METAR CYYG 190800Z 29007KT 15SM SKC 05/04 A3008 RMK SLP188
CYYG;2004-10-19 09:00;METAR CYYG 190900Z 29006KT 15SM SKC 05/04 A3009 RMK SLP192
CYYG;2004-10-19 10:00;METAR CYYG 191000Z 27005KT 15SM FEW020 04/04 A3011 RMK SC1 SLP196
CYYG;2004-10-19 11:00;METAR CYYG 191100Z 27005KT 15SM FEW020 FEW300 05/04 A3012 RMK SC1CI0 SLP202
CYYG;2004-10-19 12:00;METAR CYYG 191200Z 28005KT 15SM FEW025 06/05 A3014 RMK SC1 SLP207
CYYG;2004-10-19 13:00;METAR CYYG 191300Z 29006KT 15SM FEW013 FEW025 08/05 A3014 RMK CF1CU1 TCU S SLP210
CYYG;2004-10-19 14:00;METAR CYYG 191400Z 30010KT 15SM BKN016 09/06 A3015 RMK CU6 SLP213
CYYG;2004-10-19 15:00;METAR CYYG 191500Z 28008KT 15SM BKN021 10/06 A3016 RMK CU6 TCU ASOCTD SLP214
CYYG;2004-10-19 16:00;METAR CYYG 191600Z 30006KT 15SM BKN025 BKN046 09/04 A3015 RMK CU5SC2 TCU ASOCTD SLP212
CYYG;2004-10-19 17:00;METAR CYYG 191700Z 27008KT 15SM FEW025 BKN041 10/04 A3015 RMK CU2SC3
CYYG;2004-10-19 18:00;METAR CYYG 191800Z 34007KT 15SM FEW023 BKN031 BKN300 09/05 A3017 RMK CU2SC4CI1 SLP217
CYYG;2004-10-19 19:00;METAR CYYG 191900Z 34008KT 15SM FEW020 BKN043 09/05 A3017 RMK CU1SC5 SLP220
CYYG;2004-10-19 20:00;METAR CYYG 192000Z 30006KT 15SM FEW020 BKN046 09/05 A3019 RMK CU2SC5 SLP226
CYYG;2004-10-19 21:00;METAR CYYG 192100Z 30005KT 15SM FEW020 BKN051 09/05 A3020 RMK CU1SC5 SLP230
CYYG;2004-10-19 22:00;METAR CYYG 192200Z 27003KT 15SM -SHRA FEW020 BKN035 08/05 A3021 RMK CU1SC6 SLP233
CYYG;2004-10-19 23:00;METAR CYYG 192300Z 00000KT 15SM -SHRA SCT025 OVC042 08/05 A3022 RMK CU3SC5 SLP236
CYYG;2004-10-20 00:00;METAR CYYG 200000Z 29007KT 15SM OVC048 08/05 A3022 RMK SC8 SLP235
CYYG;2004-10-20 01:00;METAR CYYG 200100Z 30005KT 15SM FEW035 OVC050 08/05 A3022 RMK SC2SC6 SLP236
CYYG;2004-10-20 02:00;METAR CYYG 200200Z 31007KT 15SM BKN048 08/04 A3021 RMK SC6 SLP232
CYYG;2004-10-20 03:00;METAR CYYG 200300Z 28006KT 15SM -SHRA OVC030 08/05 A3021 RMK SC8 SLP232
CYYG;2004-10-20 04:00;METAR CYYG 200400Z 27006KT 15SM BKN022 06/04 A3022 RMK SC6 CU ASOCTD SLP233
CYYG;2004-10-20 05:00;METAR CYYG 200500Z 28007KT 15SM FEW022 BKN055 06/04 A3022 RMK SC1SC6
CYYG;2004-10-20 06:00;METAR CYYG 200600Z 32004KT 12SM -SHRA BKN025 OVC040 07/06 A3022 RMK SC6SC2 SLP235
CYYG;2004-10-20 07:00;METAR CYYG 200700Z 32004KT 15SM FEW025 OVC032 07/05 A3021 RMK SC2SC6
CYYG;2004-10-20 08:00;METAR CYYG 200800Z 32002KT 15SM FEW025 OVC032 07/05 A3021 RMK SC1SC7
CYYG;2004-10-20 09:00;METAR CYYG 200900Z 30004KT 15SM FEW025 OVC035 07/04 A3022 RMK SC2SC6 SLP234
CYYG;2004-10-20 10:00;METAR CYYG 201000Z 32003KT 15SM FEW025 BKN040 06/04 A3022 RMK SC1SC4
CYYG;2004-10-20 11:00;METAR CYYG 201100Z 35004KT 15SM FEW028 BKN039 06/03 A3022 RMK SC2SC5
CYYG;2004-10-20 12:00;METAR CYYG 201200Z 36006KT 15SM FEW028 BKN035 07/04 A3022 RMK SC2SC5
CYYG;2004-10-20 13:00;METAR CYYG 201300Z 35006KT 15SM FEW025 BKN032 07/02 A3023 RMK CU1SC5 SLP238
CYYG;2004-10-20 14:00;METAR CYYG 201400Z 36013KT 15SM BKN030 07/02 A3024 RMK SC6 SLP241
CYYG;2004-10-20 15:00;METAR CYYG 201500Z 35009KT 15SM BKN028 07/02 A3023 RMK SC7 SLP240
CYYG;2004-10-20 16:00;METAR CYYG 201600Z 35010KT 15SM OVC027 07/03 A3023 RMK SC8 SLP238
CYYG;2004-10-20 19:00;METAR CYYG 201900Z 01009KT 15SM FEW022 OVC028 07/03 A3022 RMK SC2SC6
CYYG;2004-10-20 20:00;METAR CYYG 202000Z 35008KT 15SM OVC023 07/02 A3023 RMK SC8 SLP237
CYYG;2004-10-20 21:00;METAR CYYG 202100Z 36007KT 15SM BKN023 06/02 A3022 RMK SC7 SLP235
CYYG;2004-10-20 22:00;METAR CYYG 202200Z 36007KT 15SM OVC025 06/02 A3023 RMK SC8 SLP239
CYYG;2004-10-20 23:00;METAR CYYG 202300Z 36010G15KT 15SM OVC025 06/02 A3023 RMK SC8 SLP238
CYYG;2004-10-21 00:00;METAR CYYG 210000Z 36009KT 15SM OVC027 06/02 A3023 RMK SC8 SLP237
CYYG;2004-10-21 01:00;METAR CYYG 210100Z 36008KT 15SM OVC027 06/02 A3021 RMK SC8 SLP233
CYYG;2004-10-21 02:00;METAR CYYG 210200Z 36008KT 15SM OVC028 07/02 A3021 RMK SC8 SLP232
CYYG;2004-10-21 03:00;METAR CYYG 210300Z 36007KT 15SM OVC029 07/02 A3020 RMK SC8 SLP230
CYYG;2004-10-21 04:00;METAR CYYG 210400Z 36007KT 15SM OVC029 07/02 A3020 RMK SC8 SLP230
CYYG;2004-10-21 05:00;METAR CYYG 210500Z 35009KT 15SM OVC030 06/01 A3020 RMK SC8 SLP228
CYYG;2004-10-21 06:00;METAR CYYG 210600Z 34006KT 15SM OVC029 07/02 A3020 RMK SC8 SLP228
CYYG;2004-10-21 07:00;METAR CYYG 210700Z 36008KT 15SM OVC025 07/03 A3019 RMK SC8 SLP226
CYYG;2004-10-21 08:00;METAR CYYG 210800Z 36008KT 15SM OVC022 06/03 A3020 RMK SC8 SLP227
CYYG;2004-10-21 09:00;METAR CYYG 210900Z 34005KT 12SM -SHRA FEW012 OVC022 05/04 A3020 RMK SC2SC6 SLP228
CYYG;2004-10-21 10:00;METAR CYYG 211000Z 35006KT 6SM -SHRA BR BKN012 OVC030 06/05 A3020 RMK SC6SC2 SLP230
CYYG;2004-10-21 11:00;METAR CYYG 211100Z 34005KT 5SM -SHRA BR SCT010 BKN019 OVC031 06/06 A3021 RMK SF3SC4SC1 SLP231 SLP230
CYYG;2004-10-21 13:00;METAR CYYG 211300Z 36009KT 12SM VCSH BKN007 BKN025 BKN060 09/08 A3020 RMK SF5SC2SC1 VIS LWR E SLP230
CYYG;2004-10-21 14:00;METAR CYYG 211400Z 04015KT 12SM -SHRA SCT008 BKN021 09/08 A3021 RMK SF4SC3 VIS E 6 SLP233
CYYG;2004-10-21 15:00;METAR CYYG 211500Z 04014G20KT 15SM -SHRA FEW009 BKN031 BKN056 10/08 A3022 RMK SF2SC5SC1 VIS LWR SE-SW SLP234
CYYG;2004-10-21 16:00;METAR CYYG 211600Z 04017G22KT 15SM FEW014 BKN029 11/07 A3022 RMK CF2SC5 SLP234
CYYG;2004-10-21 17:00;METAR CYYG 211700Z 05014KT 15SM FEW016 BKN034 11/05 A3023 RMK CF2SC6 SLP238
CYYG;2004-10-21 18:00;METAR CYYG 211800Z 05016G21KT 15SM FEW020 BKN040 11/06 A3022 RMK CU2SC3 SLP235
CYYG;2004-10-21 19:00;METAR CYYG 211900Z 05018KT 15SM FEW020 BKN038 10/06 A3023 RMK CU2SC4 SLP237
CYYG;2004-10-21 20:00;METAR CYYG 212000Z 06012G18KT 15SM FEW020 BKN043 09/06 A3025 RMK CU2SC4 SLP245
CYYG;2004-10-21 21:00;METAR CYYG 212100Z 05012G19KT 15SM FEW020 BKN035 09/05 A3027 RMK CU2SC5 SLP251
CYYG;2004-10-21 22:00;METAR CYYG 212200Z 05010G16KT 15SM FEW020 BKN035 08/05 A3028 RMK CU2SC5 SLP257
CYYG;2004-10-21 23:00;METAR CYYG 212300Z 04010KT 15SM FEW020 BKN035 08/05 A3031 RMK CU1SC6 SLP265
CYYG;2004-10-22 00:00;METAR CYYG 220000Z 06006KT 15SM BKN036 08/05 A3033 RMK SC7 SLP271
CYYG;2004-10-22 01:00;METAR CYYG 220100Z 04007KT 15SM BKN036 07/03 A3033 RMK SC7 SLP273
CYYG;2004-10-22 02:00;METAR CYYG 220200Z 02006KT 15SM BKN045 06/03 A3033 RMK SC6 SLP273
CYYG;2004-10-22 03:00;METAR CYYG 220300Z 04007KT 15SM BKN040 06/03 A3032 RMK SC6 SLP269
CYYG;2004-10-22 04:00;METAR CYYG 220400Z 05008KT 15SM BKN040 06/04 A3032 RMK SC6 SLP269
CYYG;2004-10-22 05:00;METAR CYYG 220500Z 01004KT 15SM BKN042 05/04 A3032 RMK SC6 SLP269
CYYG;2004-10-22 06:00;METAR CYYG 220600Z 07003KT 10SM OVC028 06/05 A3032 RMK SC8 SLP270
CYYG;2004-10-22 07:00;METAR CYYG 220700Z 01004KT 15SM OVC032 05/04 A3033 RMK SC8 SLP272
CYYG;2004-10-22 08:00;METAR CYYG 220800Z 04004KT 15SM BKN032 OVC055 06/05 A3033 RMK SC6SC2 SLP271
CYYG;2004-10-22 09:00;METAR CYYG 220900Z 01004KT 15SM BKN032 OVC055 06/05 A3034 RMK SC7SC1 SLP276
CYYG;2004-10-22 10:00;METAR CYYG 221000Z 06004KT 15SM -SHRA BKN030 06/05 A3034 RMK SC7 SLP277
CYYG;2004-10-22 11:00;METAR CYYG 221100Z 03007KT 15SM -SHRA BKN031 BKN058 06/05 A3035 RMK SC6SC2 VIS LWR NE SLP280
CYYG;2004-10-22 12:00;METAR CYYG 221200Z 09005KT 12SM -SHRA SCT017 BKN031 07/06 A3037 RMK SC3SC4 CU ASOCTD SLP286
CYYG;2004-10-22 13:00;METAR CYYG 221300Z 04008KT 12SM -SHRA FEW007 SCT017 BKN030 07/06 A3038 RMK SF1SC3SC4 CU ASOCTD SLP290
CYYG;2004-10-22 14:00;METAR CYYG 221400Z 02012KT 15SM FEW008 SCT020 BKN044 09/07 A3039 RMK SF1SC2SC4 SLP292
CYYG;2004-10-22 15:00;METAR CYYG 221500Z 05011KT 15SM -SHRA FEW008 FEW020 BKN033 09/07 A3039 RMK SF1CU2SC5 SLP291
CYYG;2004-10-22 16:00;METAR CYYG 221600Z 09008KT 15SM -SHRA FEW008 BKN025 BKN042 08/07 A3037 RMK SF1CU5SC2 SLP287
CYYG;2004-10-22 17:00;METAR CYYG 221700Z 05011KT 15SM VCSH FEW020 BKN044 09/05 A3036 RMK CU2SC5 SLP284
CYYG;2004-10-22 18:00;METAR CYYG 221800Z 05010KT 15SM FEW030 BKN040 09/03 A3036 RMK CU1SC6 SLP281
CYYG;2004-10-22 19:00;METAR CYYG 221900Z 04006KT 15SM FEW030 BKN040 09/03 A3036 RMK SC2SC4 SLP283
CYYG;2004-10-22 20:00;METAR CYYG 222000Z 36005KT 15SM FEW030 BKN042 09/03 A3036 RMK SC1SC7
CYYG;2004-10-22 21:00;METAR CYYG 222100Z 05005KT 15SM FEW035 BKN042 BKN300 08/04 A3036 RMK SC1SC7CI1 SLP282
CYYG;2004-10-22 22:00;METAR CYYG 222200Z 07005KT 15SM SCT035 BKN045 08/03 A3036 RMK SC3SC4
CYYG;2004-10-22 23:00;METAR CYYG 222300Z 07004KT 15SM OVC035 08/04 A3036 RMK SC8 SLP284
CYYG;2004-10-23 00:00;METAR CYYG 230000Z 01002KT 15SM OVC030 07/05 A3038 RMK SC8 SLP289 SLP290
CYYG;2004-10-23 02:00;METAR CYYG 230200Z 05006KT 15SM FEW017 BKN043 07/06 A3037 RMK SC2SC5 SLP286
CYYG;2004-10-23 03:00;METAR CYYG 230300Z 06005KT 15SM FEW015 BKN043 07/06 A3037 RMK SC2SC6
CYYG;2004-10-23 04:00;METAR CYYG 230400Z 04006KT 15SM FEW015 BKN043 07/06 A3036 RMK SC2SC3 SLP283
CYYG;2004-10-23 05:00;METAR CYYG 230500Z 05005KT 15SM FEW015 BKN032 07/05 A3036 RMK SC2SC5
CYYG;2004-10-23 06:00;METAR CYYG 230600Z 05005KT 15SM BKN032 07/06 A3036 RMK SC7 SLP282
CYYG;2004-10-23 07:00;METAR CYYG 230700Z 04007KT 15SM SCT030 05/04 A3034 RMK SC4 SLP275
CYYG;2004-10-23 08:00;METAR CYYG 230800Z 04009KT 15SM BKN031 07/04 A3032 RMK SC5 SLP270
CYYG;2004-10-23 09:00;METAR CYYG 230900Z 04010KT 15SM BKN031 07/04 A3032 RMK SC6 SLP270
CYYG;2004-10-23 10:00;METAR CYYG 231000Z 03009KT 15SM OVC027 07/04 A3033 RMK SC8 SLP273
CYYG;2004-10-23 11:00;METAR CYYG 231100Z 05007KT 15SM BKN024 08/04 A3035 RMK SC7 SLP279
CYYG;2004-10-23 12:00;METAR CYYG 231200Z 05006KT 15SM OVC035 08/04 A3036 RMK SC8 SLP282
CYYG;2004-10-23 13:00;METAR CYYG 231300Z 04008KT 15SM OVC025 08/04 A3036 RMK SC8 SLP282
CYYG;2004-10-23 14:00;METAR CYYG 231400Z 04011KT 15SM BKN028 09/05 A3034 RMK SC7 SLP276
CYYG;2004-10-23 15:00;METAR CYYG 231500Z 05008KT 15SM BKN028 09/05 A3032 RMK SC7 SLP268
CYYG;2004-10-23 16:00;METAR CYYG 231600Z 04011G17KT 15SM BKN028 10/04 A3029 RMK SC7 SLP259
CYYG;2004-10-23 17:00;METAR CYYG 231700Z 07010KT 15SM BKN028 10/05 A3028 RMK SC7 SLP254
CYYG;2004-10-23 18:00;METAR CYYG 231800Z 04012KT 15SM SCT022 BKN028 10/06 A3027 RMK CU3SC4 SLP252
CYYG;2004-10-23 19:00;METAR CYYG 231900Z 04014KT 15SM BKN025 BKN032 09/06 A3026 RMK SC5SC2 SLP250
CYYG;2004-10-23 20:00;METAR CYYG 232000Z 04010G16KT 15SM BKN018 BKN032 09/06 A3026 RMK CU5SC2 SLP249
CYYG;2004-10-23 21:00;METAR CYYG 232100Z 05009KT 15SM FEW020 SCT030 SCT300 08/06 A3026 RMK SC2SC1CI1 SLP249
CYYG;2004-10-23 22:00;METAR CYYG 232200Z 05006KT 15SM FEW020 07/04 A3028 RMK SC2 SLP254
CYYG;2004-10-23 23:00;METAR CYYG 232300Z 05008KT 15SM FEW019 06/04 A3026 RMK SC2 SLP249
CYYG;2004-10-24 00:00;METAR CYYG 240000Z 06008KT 15SM FEW019 06/05 A3025 RMK SC2 SLP247
CYYG;2004-10-24 01:00;METAR CYYG 240100Z 05008KT 15SM FEW019 06/05 A3025 RMK SC1 SLP245
CYYG;2004-10-24 02:00;METAR CYYG 240200Z 08007KT 15SM BKN025 06/05 A3025 RMK SC6 SLP245
CYYG;2004-10-24 03:00;METAR CYYG 240300Z 09007KT 15SM BKN022 06/04 A3022 RMK SC6 SLP235
CYYG;2004-10-24 04:00;METAR CYYG 240400Z 09008KT 15SM BKN021 06/03 A3020 RMK SC7 SLP230
CYYG;2004-10-24 05:00;METAR CYYG 240500Z 08006KT 15SM BKN021 06/03 A3019 RMK SC7 SLP226
CYYG;2004-10-24 06:00;METAR CYYG 240600Z 07005KT 15SM OVC020 06/04 A3020 RMK SC8 SLP228
CYYG;2004-10-24 07:00;METAR CYYG 240700Z 06006KT 15SM OVC021 06/04 A3020 RMK SC8 SLP227
CYYG;2004-10-24 08:00;METAR CYYG 240800Z 07005KT 15SM OVC020 06/04 A3019 RMK SC8 SLP225
CYYG;2004-10-24 09:00;METAR CYYG 240900Z 05006KT 15SM OVC020 06/04 A3020 RMK SC8 SLP227
CYYG;2004-10-24 10:00;METAR CYYG 241000Z 04007KT 15SM OVC021 07/03 A3019 RMK SC8 SLP225
CYYG;2004-10-24 11:00;METAR CYYG 241100Z 06009KT 15SM OVC024 07/03 A3019 RMK SC8 SLP226
CYYG;2004-10-24 12:00;METAR CYYG 241200Z 07011KT 15SM OVC025 08/03 A3019 RMK SC8 SLP225
CYYG;2004-10-24 13:00;METAR CYYG 241300Z 07009G15KT 15SM OVC025 08/04 A3018 RMK SC8 SLP222
CYYG;2004-10-24 14:00;METAR CYYG 241400Z 09009G15KT 15SM OVC025 09/04 A3017 RMK SC8 SLP217
CYYG;2004-10-24 15:00;METAR CYYG 241500Z 08010KT 15SM OVC024 09/04 A3015 RMK SC8 SLP212
CYYG;2004-10-24 16:00;METAR CYYG 241600Z 08007KT 15SM OVC024 09/05 A3014 RMK SC8 SLP207
CYYG;2004-10-24 17:00;METAR CYYG 241700Z 10007KT 15SM BKN026 BKN300 10/05 A3013 RMK SC7CI1 SLP203
CYYG;2004-10-24 18:00;METAR CYYG 241800Z 05007KT 15SM BKN027 OVC300 10/05 A3012 RMK SC7CI0 SLP199
CYYG;2004-10-24 19:00;METAR CYYG 241900Z 04009KT 15SM BKN028 OVC300 09/05 A3011 RMK SC7CI0 SLP198
CYYG;2004-10-24 20:00;METAR CYYG 242000Z 05008KT 15SM BKN029 OVC300 09/04 A3011 RMK SC7CI0
CYYG;2004-10-24 21:00;METAR CYYG 242100Z 04008KT 15SM BKN028 OVC300 08/05 A3011 RMK SC6CS2 SLP197
CYYG;2004-10-24 22:00;METAR CYYG 242200Z 06007KT 15SM FEW028 OVC300 07/04 A3012 RMK SC2CS1
CYYG;2004-10-24 23:00;METAR CYYG 242300Z 05005KT 15SM FEW022 OVC300 06/04 A3012 RMK SC2CS1 SLP200
CYYG;2004-10-25 00:00;METAR CYYG 250000Z 05005KT 15SM BKN023 OVC300 07/05 A3011 RMK SC6CS1 SLP198
CYYG;2004-10-25 01:00;METAR CYYG 250100Z 05006KT 15SM FEW023 OVC300 06/05 A3011 RMK SC2CS1
CYYG;2004-10-25 02:00;METAR CYYG 250200Z 06008KT 15SM FEW023 OVC300 07/05 A3011 RMK SC1CS2 SLP196
CYYG;2004-10-25 03:00;METAR CYYG 250300Z 07006KT 15SM FEW023 OVC300 06/05 A3010 RMK SC1CS2 SLP195
CYYG;2004-10-25 04:00;METAR CYYG 250400Z 06006KT 15SM FEW019 OVC300 06/04 A3009 RMK SC2CS1 SLP192
CYYG;2004-10-25 05:00;METAR CYYG 250500Z 06006KT 15SM FEW019 OVC300 05/04 A3009 RMK SC2CS1 SLP191
CYYG;2004-10-25 06:00;METAR CYYG 250600Z 02003KT 15SM FEW017 OVC300 05/04 A3009 RMK SC2CS1
CYYG;2004-10-25 07:00;METAR CYYG 250700Z 02004KT 15SM FEW016 OVC300 04/04 A3009 RMK SC2CS2 SLP189
CYYG;2004-10-25 08:00;METAR CYYG 250800Z 02004KT 15SM FEW015 SCT300 04/04 A3008 RMK SC2CI0 SLP186
CYYG;2004-10-25 09:00;METAR CYYG 250900Z 00000KT 15SM BKN018 05/05 A3009 RMK SC6 SLP189
CYYG;2004-10-25 10:00;METAR CYYG 251000Z 35002KT 15SM BKN018 BKN300 04/04 A3009 RMK SC5CI0
CYYG;2004-10-25 11:00;METAR CYYG 251100Z 04007KT 15SM SCT016 BKN140 BKN300 04/03 A3009 RMK SC4AC1CI1 SLP189
CYYG;2004-10-25 12:00;METAR CYYG 251200Z 05006KT 15SM FEW014 BKN140 BKN300 09/08 A3009 RMK SC2AC2CI1 SLP192
CYYG;2004-10-25 13:00;METAR CYYG 251300Z 06010KT 15SM BKN018 BKN140 BKN300 10/08 A3011 RMK SC5AC1CI1 SLP196
CYYG;2004-10-25 14:00;METAR CYYG 251400Z 07012KT 15SM SCT018 BKN140 BKN300 11/08 A3011 RMK SC4AC2CI1 SLP197
CYYG;2004-10-25 15:00;METAR CYYG 251500Z 07011KT 15SM FEW020 SCT140 BKN300 12/07 A3010 RMK SC2AC2CI1 SLP195
CYYG;2004-10-25 16:00;METAR CYYG 251600Z 04010KT 15SM FEW020 SCT140 BKN300 12/07 A3009 RMK SC2AC2CI2 SLP190
CYYG;2004-10-25 17:00;METAR CYYG 251700Z 03012KT 15SM FEW020 SCT140 BKN300 13/08 A3007 RMK SC1AC2CI2 SLP183
CYYG;2004-10-25 18:00;METAR CYYG 251800Z 05009G15KT 15SM FEW020 SCT140 BKN300 12/08 A3006 RMK CU1AC2CI0 SLP181
CYYG;2004-10-25 19:00;METAR CYYG 251900Z 04011KT 15SM FEW018 SCT140 BKN300 11/08 A3006 RMK CF1AC2CI1 SLP182
CYYG;2004-10-25 20:00;METAR CYYG 252000Z 03009KT 15SM FEW016 FEW150 BKN300 10/08 A3006 RMK CF1AC2CI2 SLP182
CYYG;2004-10-25 21:00;METAR CYYG 252100Z 04006KT 15SM FEW150 BKN300 09/08 A3007 RMK AC2CI2 SLP184
CYYG;2004-10-25 22:00;METAR CYYG 252200Z 04007KT 15SM FEW150 BKN300 08/08 A3007 RMK AC2CI1 SLP183
CYYG;2004-10-25 23:00;METAR CYYG 252300Z 05008KT 15SM FEW150 BKN300 08/08 A3006 RMK AC2CI1 SLP182
CYYG;2004-10-26 00:00;METAR CYYG 260000Z 05008KT 15SM FEW150 BKN300 08/08 A3007 RMK AC2CI1 SLP184
CYYG;2004-10-26 01:00;METAR CYYG 260100Z 02005KT 15SM FEW150 BKN300 06/06 A3007 RMK AC2CI1 SLP185
CYYG;2004-10-26 02:00;METAR CYYG 260200Z 36004KT 15SM FEW150 BKN300 06/06 A3007 RMK AC2CI1
CYYG;2004-10-26 03:00;METAR CYYG 260300Z 04003KT 15SM FEW150 BKN300 06/06 A3007 RMK AC2CI1
CYYG;2004-10-26 04:00;METAR CYYG 260400Z 03002KT 15SM FEW150 BKN300 04/04 A3007 RMK AC2CI1
CYYG;2004-10-26 05:00;METAR CYYG 260500Z 36003KT 15SM FEW150 BKN300 03/03 A3007 RMK AC2CI1 SLP183
CYYG;2004-10-26 06:00;METAR CYYG 260600Z 01004KT 15SM BKN250 03/03 A3007 RMK CI2 SLP185
CYYG;2004-10-26 07:00;METAR CYYG 260700Z 36003KT 15SM BKN250 03/03 A3007 RMK CI3 SLP185
CYYG;2004-10-26 08:00;METAR CYYG 260800Z 01004KT 15SM BKN250 03/03 A3008 RMK CI3 SLP187
CYYG;2004-10-26 09:00;METAR CYYG 260900Z 05005KT 15SM SCT250 03/03 A3008 RMK CI2 SLP188
CYYG;2004-10-26 10:00;METAR CYYG 261000Z 03004KT 15SM SCT250 04/04 A3008 RMK CI2 SLP187
CYYG;2004-10-26 11:00;METAR CYYG 261100Z 06006KT 15SM FEW160 BKN250 04/04 A3008 RMK AC2CI2 SLP189
CYYG;2004-10-26 12:00;METAR CYYG 261200Z 35002KT 15SM FEW160 BKN250 05/05 A3010 RMK AC1CI3 SLP194
CYYG;2004-10-26 13:00;METAR CYYG 261300Z 02004KT 15SM BKN250 08/07 A3010 RMK CI4 SLP195
CYYG;2004-10-26 14:00;METAR CYYG 261400Z 08004KT 15SM BKN250 11/07 A3010 RMK CI5 SLP195
CYYG;2004-10-26 15:00;METAR CYYG 261500Z 09007KT 15SM BKN250 11/07 A3010 RMK CI5 SLP193
CYYG;2004-10-26 16:00;METAR CYYG 261600Z 10008KT 15SM SCT030 BKN260 11/07 A3008 RMK SC3CI2 SLP187
CYYG;2004-10-26 17:00;METAR CYYG 261700Z 12009KT 15SM FEW030 SCT140 BKN260 11/07 A3007 RMK SC2AC2CI2 SLP183
CYYG;2004-10-26 18:00;METAR CYYG 261800Z 14010KT 15SM FEW030 SCT140 BKN260 11/07 A3007 RMK SC2AC2CI2 SLP185
CYYG;2004-10-26 19:00;METAR CYYG 261900Z 12008KT 15SM FEW030 SCT140 BKN260 10/07 A3006 RMK SC2AC2CI2 SLP181
CYYG;2004-10-26 20:00;METAR CYYG 262000Z 15007KT 15SM SCT018 BKN260 10/07 A3008 RMK SC4CI3 SLP186
CYYG;2004-10-26 21:00;METAR CYYG 262100Z 09004KT 15SM BKN021 BKN260 10/07 A3008 RMK SC6CI2
CYYG;2004-10-26 22:00;METAR CYYG 262200Z 08002KT 15SM BKN024 BKN220 09/07 A3008 RMK SC6CI1
CYYG;2004-10-26 23:00;METAR CYYG 262300Z 07005KT 15SM BKN029 BKN220 09/07 A3007 RMK SC6CI1
CYYG;2004-10-27 00:00;METAR CYYG 270000Z 04005KT 15SM OVC032 08/07 A3006 RMK SC8 SLP181
CYYG;2004-10-27 01:00;METAR CYYG 270100Z 04005KT 15SM FEW020 OVC032 08/07 A3007 RMK SC2SC6 SLP183
CYYG;2004-10-27 02:00;METAR CYYG 270200Z 00000KT 15SM FEW018 OVC030 09/07 A3007 RMK SC2SC6 SLP184
CYYG;2004-10-27 03:00;METAR CYYG 270300Z 00000KT 15SM OVC024 08/07 A3006 RMK SC8 SLP181
CYYG;2004-10-27 04:00;METAR CYYG 270400Z 34003KT 15SM OVC026 08/07 A3006 RMK SC8 SLP179
CYYG;2004-10-27 05:00;METAR CYYG 270500Z 34003KT 15SM OVC027 08/07 A3005 RMK SC8 SLP176
CYYG;2004-10-27 06:00;METAR CYYG 270600Z 36003KT 15SM OVC035 08/07 A3005 RMK SC8 SLP178
CYYG;2004-10-27 07:00;METAR CYYG 270700Z 03004KT 15SM OVC034 08/06 A3004 RMK SC8 SLP172
CYYG;2004-10-27 08:00;METAR CYYG 270800Z 36002KT 15SM OVC036 08/07 A3004 RMK SC8 SLP175
CYYG;2004-10-27 09:00;METAR CYYG 270900Z 02005KT 15SM BKN036 OVC130 07/07 A3003 RMK SC6AC2 SLP169
CYYG;2004-10-27 10:00;METAR CYYG 271000Z 36003KT 15SM BKN034 OVC130 08/07 A3003 RMK SC6AC2 SLP171
CYYG;2004-10-27 11:00;METAR CYYG 271100Z 01004KT 15SM BKN034 BKN130 08/08 A3003 RMK SC6AC2
CYYG;2004-10-27 12:00;METAR CYYG 271200Z 36003KT 15SM FEW018 BKN028 BKN130 09/08 A3004 RMK SC2SC3AC2 SLP172
CYYG;2004-10-27 13:00;METAR CYYG 271300Z 34003KT 15SM FEW018 BKN035 BKN130 09/08 A3004 RMK SC2SC3AC2 SLP174
CYYG;2004-10-27 14:00;METAR CYYG 271400Z 35007KT 15SM FEW018 BKN033 BKN130 10/08 A3004 RMK SC2SC5AC1 SLP172
CYYG;2004-10-27 15:00;METAR CYYG 271500Z 02009KT 15SM SCT016 BKN029 10/08 A3003 RMK SC4SC3
CYYG;2004-10-27 16:00;METAR CYYG 271600Z 02009KT 15SM SCT016 BKN031 10/07 A3002 RMK SC3SC4 SLP167
CYYG;2004-10-27 17:00;METAR CYYG 271700Z 02008KT 15SM SCT018 BKN031 11/07 A3001 RMK SC3SC4 SLP163
CYYG;2004-10-27 18:00;METAR CYYG 271800Z 03009KT 15SM FEW018 OVC034 10/07 A3001 RMK SC2SC6 SLP162
CYYG;2004-10-27 19:00;METAR CYYG 271900Z 36008KT 15SM FEW018 OVC034 10/08 A3001 RMK SC2SC6 SLP165
CYYG;2004-10-27 20:00;METAR CYYG 272000Z 35006KT 15SM FEW018 OVC034 10/07 A3003 RMK SC2SC6 SLP173
CYYG;2004-10-27 22:00;METAR CYYG 272200Z 36009G16KT 12SM -SHRA FEW008 OVC034 09/07 A3005 RMK SF2SC6 SLP176
CYYG;2004-10-27 23:00;METAR CYYG 272300Z 36013G18KT 10SM FEW008 SCT021 OVC045 08/06 A3004 RMK SF2SC2SC4 SLP175
CYYG;2004-10-28 00:00;METAR CYYG 280000Z 34009G16KT 10SM FEW008 BKN018 OVC040 08/06 A3005 RMK SF1SC5SC3 SLP178
CYYG;2004-10-28 01:00;METAR CYYG 280100Z 35007KT 10SM FEW008 BKN022 OVC040 07/05 A3005 RMK SF1SC6SC2 SLP177
CYYG;2004-10-28 02:00;METAR CYYG 280200Z 35014G19KT 12SM BKN022 OVC031 08/04 A3005 RMK SC5SC3 SLP176
CYYG;2004-10-28 03:00;METAR CYYG 280300Z 35009KT 15SM BKN020 OVC035 08/04 A3004 RMK SC6SC2 SLP174
CYYG;2004-10-28 04:00;METAR CYYG 280400Z 36010G18KT 15SM FEW020 OVC030 08/04 A3004 RMK SC2SC6 SLP173
CYYG;2004-10-28 05:00;METAR CYYG 280500Z 35009G19KT 15SM SCT011 OVC030 07/05 A3003 RMK SC3SC5 SLP169
CYYG;2004-10-28 06:00;METAR CYYG 280600Z 34007KT 12SM -SHRA FEW015 OVC030 07/06 A3003 RMK SC2SC6
CYYG;2004-10-28 07:00;METAR CYYG 280700Z 36006KT 12SM -SHRA FEW015 OVC032 06/05 A3003 RMK SC2SC6
CYYG;2004-10-28 08:00;METAR CYYG 280800Z CCA 36010G20KT 10SM -SHRA OVC032 07/04 A3003 RMK SC8 CU ASOCTD SLP171
CYYG;2004-10-28 09:00;METAR CYYG 280900Z 35012G24KT 15SM BKN025 BKN032 07/03 A3005 RMK CU5SC2 SLP177
CYYG;2004-10-28 10:00;METAR CYYG 281000Z 35013G27KT 15SM -SHRAPL FEW018 BKN032 06/03 A3007 RMK CU2SC4 SLP184
CYYG;2004-10-28 11:00;METAR CYYG 281100Z 36011G18KT 15SM VCSH BKN035 06/02 A3008 RMK SC6 SLP187
CYYG;2004-10-28 12:00;METAR CYYG 281200Z 35015G21KT 15SM BKN026 BKN035 06/01 A3010 RMK SC5SC2 SLP193
CYYG;2004-10-28 13:00;METAR CYYG 281300Z 36014G28KT 15SM BKN028 06/01 A3012 RMK SC6 SLP199
CYYG;2004-10-28 14:00;METAR CYYG 281400Z 36015G28KT 15SM BKN029 07/01 A3012 RMK SC5 SLP199
CYYG;2004-10-28 15:00;METAR CYYG 281500Z 35015G27KT 15SM BKN029 07/00 A3012 RMK SC6 SLP200
CYYG;2004-10-28 16:00;METAR CYYG 281600Z 36018G26KT 15SM BKN031 07/M00 A3012 RMK SC6 SLP200
CYYG;2004-10-28 17:00;METAR CYYG 281700Z 35020G28KT 15SM BKN036 07/M01 A3011 RMK SC6 SLP197
CYYG;2004-10-28 18:00;METAR CYYG 281800Z 35018G29KT 15SM BKN034 07/M01 A3011 RMK SC6 SLP198
CYYG;2004-10-28 19:00;METAR CYYG 281900Z 36019G27KT 15SM BKN034 06/M02 A3011 RMK SC6 SLP197
CYYG;2004-10-28 20:00;METAR CYYG 282000Z 36015G22KT 15SM BKN045 06/M02 A3011 RMK SC6 SLP196
CYYG;2004-10-28 21:00;METAR CYYG 282100Z 35008G21KT 15SM VCSH BKN031 BKN040 05/01 A3011 RMK SC5SC2 SLP197
CYYG;2004-10-28 22:00;METAR CYYG 282200Z 36017G22KT 15SM BKN033 06/M01 A3011 RMK SC6 SLP199
CYYG;2004-10-28 23:00;METAR CYYG 282300Z 35012G20KT 15SM BKN033 05/M02 A3012 RMK SC6 CU ASOCTD SLP201
CYYG;2004-10-29 00:00;METAR CYYG 290000Z 34014G20KT 15SM BKN044 05/M04 A3011 RMK SC6 CU ASOCTD SLP199
CYYG;2004-10-29 01:00;METAR CYYG 290100Z 34010G15KT 15SM BKN045 05/M03 A3011 RMK SC6 CU ASOCTD
CYYG;2004-10-29 02:00;METAR CYYG 290200Z 35008KT 15SM SCT045 05/M03 A3011 RMK SC3 SLP197
CYYG;2004-10-29 03:00;METAR CYYG 290300Z 33005KT 15SM FEW045 03/M04 A3009 RMK SC2 SLP191
CYYG;2004-10-29 04:00;METAR CYYG 290400Z 31003KT 15SM FEW045 03/M03 A3009 RMK SC2 SLP190
CYYG;2004-10-29 05:00;METAR CYYG 290500Z 29004KT 15SM SCT045 03/M02 A3008 RMK SC3 SLP188
CYYG;2004-10-29 06:00;METAR CYYG 290600Z 31005KT 15SM SCT040 02/M02 A3007 RMK SC4 SLP186
CYYG;2004-10-29 07:00;METAR CYYG 290700Z 29005KT 15SM BKN040 03/M02 A3006 RMK SC6 SLP181
CYYG;2004-10-29 08:00;METAR CYYG 290800Z 27005KT 15SM BKN040 02/M01 A3005 RMK SC6 SLP178
CYYG;2004-10-29 09:00;METAR CYYG 290900Z 27007KT 15SM BKN040 03/M01 A3005 RMK SC7 SLP179
CYYG;2004-10-29 10:00;METAR CYYG 291000Z 28007KT 15SM BKN042 03/M01 A3004 RMK SC6 SLP176
CYYG;2004-10-29 11:00;METAR CYYG 291100Z 29006KT 15SM FEW042 BKN300 03/M01 A3004 RMK SC2CS1 SLP173
CYYG;2004-10-29 12:00;METAR CYYG 291200Z 30005KT 15SM FEW038 OVC300 03/M01 A3004 RMK SC2CS4
CYYG;2004-10-29 13:00;METAR CYYG 291300Z 29008KT 15SM BKN032 OVC300 04/M00 A3003 RMK SC6CI2 SLP171
CYYG;2004-10-29 14:00;METAR CYYG 291400Z 29009KT 15SM BKN034 BKN045 OVC300 05/M00 A3003 RMK SC5SC2CI2 SLP170
CYYG;2004-10-29 15:00;METAR CYYG 291500Z 36011KT 15SM BKN032 BKN300 05/M01 A3001 RMK SC6CI0 SLP165
CYYG;2004-10-29 16:00;METAR CYYG 291600Z 34008KT 15SM VCSH FEW032 BKN040 05/M01 A3000 RMK SC2SC5 SLP160
CYYG;2004-10-29 17:00;METAR CYYG 291700Z 31007KT 15SM VCSH FEW018 BKN047 04/01 A2998 RMK CU2SC6 SLP155
CYYG;2004-10-29 18:00;METAR CYYG 291800Z 30006KT 15SM VCSH FEW020 BKN033 05/01 A2997 RMK CU2SC6 VIS LWR E-SE SLP151
CYYG;2004-10-29 19:00;METAR CYYG 291900Z 34009KT 15SM VCSH BKN031 05/M01 A2998 RMK SC7 SLP153
CYYG;2004-10-29 20:00;METAR CYYG 292000Z 34010KT 15SM VCSH FEW037 BKN048 04/M02 A2998 RMK CU2SC6 SLP154
CYYG;2004-10-29 21:00;METAR CYYG 292100Z 34007KT 15SM VCSH FEW027 BKN042 04/M01 A2998 RMK CU2SC6 SLP156
CYYG;2004-10-29 22:00;METAR CYYG 292200Z 36006KT 15SM FEW028 BKN038 03/M01 A2999 RMK CU1SC5 SLP158
CYYG;2004-10-29 23:00;METAR CYYG 292300Z 34006KT 15SM BKN043 03/M03 A2999 RMK SC6 SLP158
CYYG;2004-10-30 00:00;METAR CYYG 300000Z 34004KT 15SM OVC040 03/M02 A2999 RMK SC8 SLP157
CYYG;2004-10-30 01:00;METAR CYYG 300100Z 27004KT 15SM OVC037 02/M02 A2998 RMK SC8 SLP154
CYYG;2004-10-30 02:00;METAR CYYG 300200Z 27006KT 15SM BKN035 01/M02 A2998 RMK SC6 SLP154
CYYG;2004-10-30 03:00;METAR CYYG 300300Z 28005KT 15SM SCT032 01/M03 A2998 RMK SC4 SLP153
CYYG;2004-10-30 04:00;METAR CYYG 300400Z 29004KT 15SM FEW030 01/M03 A2997 RMK SC2 SLP151
CYYG;2004-10-30 05:00;METAR CYYG 300500Z 27006KT 15SM FEW030 00/M03 A2997 RMK SC2 SLP151
CYYG;2004-10-30 06:00;METAR CYYG 300600Z 25006KT 15SM BKN031 00/M02 A2996 RMK SC6 SLP147
CYYG;2004-10-30 07:00;METAR CYYG 300700Z 26006KT 15SM SCT040 01/M02 A2995 RMK SC4 SLP143
CYYG;2004-10-30 08:00;METAR CYYG 300800Z 25006KT 15SM SCT040 02/M02 A2994 RMK SC3 SLP140
CYYG;2004-10-30 09:00;METAR CYYG 300900Z 27006KT 15SM FEW040 01/M02 A2994 RMK SC2 SLP142
CYYG;2004-10-30 10:00;METAR CYYG 301000Z 27006KT 15SM FEW300 00/M01 A2995 RMK CI0 SLP143
CYYG;2004-10-30 11:00;METAR CYYG 301100Z 26005KT 15SM FEW020 BKN300 00/M01 A2996 RMK SC1CI0 SLP147
CYYG;2004-10-30 12:00;METAR CYYG 301200Z 27006KT 15SM FEW025 BKN300 01/M00 A2996 RMK SC1CI1 SLP149
CYYG;2004-10-30 13:00;METAR CYYG 301300Z 29009KT 15SM FEW025 BKN300 04/01 A2997 RMK SC1CI1 SLP150
CYYG;2004-10-30 14:00;METAR CYYG 301400Z 32007KT 15SM FEW025 BKN300 05/01 A2996 RMK SC1CI1 SLP148
CYYG;2004-10-30 15:00;METAR CYYG 301500Z 29008KT 15SM FEW025 SCT300 07/01 A2996 RMK SC1CI1
CYYG;2004-10-30 16:00;METAR CYYG 301600Z 29006KT 15SM FEW005 SCT300 08/M01 A2994 RMK SC1CI1 SLP142
CYYG;2004-10-30 17:00;METAR CYYG 301700Z 27007KT 15SM SCT300 08/01 A2993 RMK CI1 SLP136
CYYG;2004-10-30 18:00;METAR CYYG 301800Z 27007KT 15SM SCT300 08/M01 A2991 RMK CI1 SLP131
CYYG;2004-10-30 19:00;METAR CYYG 301900Z 25009KT 15SM SCT300 08/M04 A2991 RMK CI1 SLP131
CYYG;2004-10-30 20:00;METAR CYYG 302000Z 27007KT 15SM FEW300 08/M05 A2991 RMK CI1 SLP131
CYYG;2004-10-30 21:00;METAR CYYG 302100Z 25003KT 15SM FEW300 06/M03 A2991 RMK CI1 SLP129
CYYG;2004-10-30 22:00;METAR CYYG 302200Z 25003KT 15SM SKC 05/M03 A2991 RMK SLP130
CYYG;2004-10-30 23:00;METAR CYYG 302300Z 22004KT 15SM SKC 05/M03 A2991 RMK SLP131
CYYG;2004-10-31 00:00;METAR CYYG 310000Z 23004KT 15SM SKC 04/M01 A2991 RMK SLP131
CYYG;2004-10-31 01:00;METAR CYYG 310100Z 22005KT 15SM SKC 04/00 A2990 RMK SLP128
CYYG;2004-10-31 02:00;METAR CYYG 310200Z 22006KT 15SM SKC 04/00 A2989 RMK SLP125
CYYG;2004-10-31 03:00;METAR CYYG 310300Z 22006KT 15SM SKC 04/00 A2988 RMK SLP119
CYYG;2004-10-31 04:00;METAR CYYG 310400Z 21008KT 15SM SKC 05/02 A2985 RMK SLP111
CYYG;2004-10-31 05:00;METAR CYYG 310500Z 20007KT 15SM SCT040 05/02 A2983 RMK SC2 SLP103
CYYG;2004-10-31 06:00;METAR CYYG 310600Z 18009KT 15SM BKN060 06/03 A2982 RMK SC3 SLP098
CYYG;2004-10-31 07:00;METAR CYYG 310700Z 19011KT 15SM BKN042 08/01 A2979 RMK SC5 SLP089
CYYG;2004-10-31 08:00;METAR CYYG 310800Z 19013G19KT 15SM BKN029 08/01 A2976 RMK SC6 SLP079
CYYG;2004-10-31 09:00;METAR CYYG 310900Z 19012G19KT 15SM -RA OVC019 08/04 A2974 RMK SC8 SLP074
CYYG;2004-10-31 10:00;METAR CYYG 311000Z 18016KT 15SM -RA BKN020 OVC030 08/06 A2971 RMK SC6SC2 SLP064
CYYG;2004-10-31 11:00;METAR CYYG 311100Z 18016KT 10SM -RA BKN016 OVC040 08/07 A2969 RMK SC6SC2 SLP054
CYYG;2004-10-31 12:00;METAR CYYG 311200Z 19012G19KT 3SM -RA BR BKN009 OVC025 09/08 A2969 RMK SF6SC2 SLP056
CYYG;2004-10-31 13:00;METAR CYYG 311300Z 18014KT 6SM -RA BR BKN007 OVC012 09/09 A2966 RMK SF6SC2 SLP045
CYYG;2004-10-31 14:00;METAR CYYG 311400Z 18015KT 15SM -RA BKN007 OVC012 10/10 A2963 RMK SF5SC3 SLP036
CYYG;2004-10-31 15:00;METAR CYYG 311500Z 18015G21KT 15SM -SHRA FEW007 BKN012 OVC036 11/10 A2960 RMK SF2SC4SC2 SLP025
CYYG;2004-10-31 16:00;METAR CYYG 311600Z 18015G20KT 15SM OVC010 12/11 A2957 RMK SC8 SLP014
CYYG;2004-10-31 17:00;METAR CYYG 311700Z 18013G19KT 15SM OVC009 12/11 A2954 RMK SF8 SLP003
CYYG;2004-10-31 18:00;METAR CYYG 311800Z 19015G20KT 15SM OVC007 13/12 A2951 RMK SF8 SLP995
CYYG;2004-10-31 19:00;METAR CYYG 311900Z 18012G17KT 10SM OVC007 13/12 A2950 RMK SF8 SLP990 SF6SC2SC1 SLP981 SF6SF1SF2 SLP976
CYYG;2004-11-01 02:00;METAR CYYG 010200Z 29009KT 15SM BKN022 BKN080 11/10 A2946 RMK SC5AC2 SLP978
CYYG;2004-11-01 03:00;METAR CYYG 010300Z 27010KT 15SM BKN022 BKN080 11/10 A2947 RMK SC5AC2 SLP982
CYYG;2004-11-01 04:00;METAR CYYG 010400Z 27012KT 15SM FEW025 BKN087 10/09 A2948 RMK SC2AC2 SLP984
CYYG;2004-11-01 05:00;METAR CYYG 010500Z 27009KT 15SM BKN037 BKN064 10/09 A2949 RMK SC5AC2 SLP987
CYYG;2004-11-01 06:00;METAR CYYG 010600Z 27007KT 15SM SCT037 BKN061 10/09 A2950 RMK SC4SC2 SLP989
CYYG;2004-11-01 07:00;METAR CYYG 010700Z 27008KT 15SM OVC065 10/09 A2950 RMK SC8 SLP991
CYYG;2004-11-01 08:00;METAR CYYG 010800Z 28006KT 15SM OVC066 10/09 A2951 RMK SC8 SLP993
CYYG;2004-11-01 09:00;METAR CYYG 010900Z 27007KT 15SM OVC067 10/09 A2953 RMK AC8 SLP000
CYYG;2004-11-01 10:00;METAR CYYG 011000Z 27005KT 15SM BKN069 09/08 A2953 RMK AC6 SLP001
CYYG;2004-11-01 11:00;METAR CYYG 011100Z 27006KT 15SM FEW040 SCT070 BKN090 09/08 A2955 RMK SC2AC2AC4 VIRGA SLP007
CYYG;2004-11-01 12:00;METAR CYYG 011200Z 27004KT 15SM FEW045 OVC070 09/09 A2957 RMK SC2AC6 SLP015
CYYG;2004-11-01 13:00;METAR CYYG 011300Z 30007KT 15SM OVC010 10/09 A2958 RMK SC8 SLP018 SF7SC1 SLP024 SF6SC2 SLP031
CYYG;2004-11-01 16:00;METAR CYYG 011600Z 35012G19KT 10SM -SHRA FEW008 OVC012 07/06 A2963 RMK SF1SC8 SLP035
CYYG;2004-11-01 17:00;METAR CYYG 011700Z 35015G20KT 2 1/2SM -SHRA BR BKN008 OVC018 06/06 A2965 RMK SF6SC2 SLP042
CYYG;2004-11-01 18:00;METAR CYYG 011800Z 36018G28KT 6SM -SHRA BR BKN012 OVC022 06/05 A2967 RMK SC6SC2 SLP048
CYYG;2004-11-01 19:00;METAR CYYG 011900Z 35019G27KT 8SM -SHRA BKN012 OVC020 05/04 A2970 RMK SC7SC1 SLP059
CYYG;2004-11-01 20:00;METAR CYYG 012000Z 34017G25KT 8SM -SHRA OVC013 05/04 A2973 RMK SC8 SLP069
CYYG;2004-11-01 21:00;METAR CYYG 012100Z 34017G29KT 5SM -SHRA BR OVC011 05/04 A2975 RMK SC8 SLP077
CYYG;2004-11-01 22:00;METAR CYYG 012200Z 35024G33KT 5SM -SHRA BR OVC012 05/04 A2979 RMK SC8 SLP088
CYYG;2004-11-01 23:00;METAR CYYG 012300Z 36024G35KT 6SM -SHRA BR OVC015 05/04 A2981 RMK SC8 SLP097
CYYG;2004-11-02 00:00;METAR CYYG 020000Z 36021G28KT 6SM -SHRA BR OVC016 05/04 A2985 RMK SC8 SLP109
CYYG;2004-11-02 01:00;METAR CYYG 020100Z 36021G28KT 5SM -SHRA BR OVC010 05/05 A2988 RMK SC8 SLP119
CYYG;2004-11-02 02:00;METAR CYYG 020200Z 01022G29KT 6SM -SHRA BR OVC014 05/05 A2989 RMK SC8 SLP122
CYYG;2004-11-02 03:00;METAR CYYG 020300Z 01016G32KT 6SM -SHRA BR OVC014 05/05 A2991 RMK SC8 SLP131
CYYG;2004-11-02 10:00;METAR CYYG 021000Z 02012G19KT 12SM OVC020 05/03 A3009 RMK SC8 SLP190
CYYG;2004-11-02 11:00;METAR CYYG 021100Z 03014KT 6SM -SHRA BR OVC018 05/03 A3010 RMK SC8 SLP194
CYYG;2004-11-02 12:00;METAR CYYG 021200Z 02013G18KT 15SM OVC024 06/03 A3012 RMK SC8 SLP201
CYYG;2004-11-02 13:00;METAR CYYG 021300Z 03013G18KT 12SM -SHRA OVC022 06/03 A3012 RMK SC8 SLP202
CYYG;2004-11-02 14:00;METAR CYYG 021400Z 03012G17KT 12SM -SHRA OVC021 06/03 A3014 RMK SC8 PCPN VRY LGT SLP207
CYYG;2004-11-02 15:00;METAR CYYG 021500Z 04010G15KT 15SM -SHRA OVC027 06/02 A3013 RMK SC8 PCPN VRY LGT SLP204
CYYG;2004-11-02 16:00;METAR CYYG 021600Z 01009G15KT 15SM OVC025 06/03 A3012 RMK SC8 SLP202
CYYG;2004-11-02 17:00;METAR CYYG 021700Z 03011KT 15SM OVC027 06/01 A3012 RMK SC8 SLP200
CYYG;2004-11-02 18:00;METAR CYYG 021800Z 01010KT 15SM OVC027 06/02 A3011 RMK SC8 SLP197
CYYG;2004-11-02 19:00;METAR CYYG 021900Z 02011KT 15SM OVC025 06/02 A3010 RMK SC8 SLP195
CYYG;2004-11-02 20:00;METAR CYYG 022000Z 02008KT 15SM OVC027 05/02 A3011 RMK SC8 SLP197
CYYG;2004-11-02 21:00;METAR CYYG 022100Z 01002KT 15SM OVC025 05/01 A3008 RMK SC8 SLP189
CYYG;2004-11-02 22:00;METAR CYYG 022200Z 00000KT 15SM OVC025 05/02 A3007 RMK SC8 SLP185
CYYG;2004-11-02 23:00;METAR CYYG 022300Z 00000KT 15SM OVC027 05/02 A3005 RMK SC8 SLP179
CYYG;2004-11-03 00:00;METAR CYYG 030000Z 00000KT 15SM OVC026 04/02 A3004 RMK SC8 SLP174
CYYG;2004-11-03 01:00;METAR CYYG 030100Z 00000KT 15SM OVC026 04/02 A3000 RMK SC8 SLP161
CYYG;2004-11-03 02:00;METAR CYYG 030200Z 00000KT 15SM OVC026 04/03 A2999 RMK SC8 SLP157
CYYG;2004-11-03 03:00;METAR CYYG 030300Z 27003KT 15SM OVC026 04/02 A2996 RMK SC8 SLP145
CYYG;2004-11-03 04:00;METAR CYYG 030400Z 27003KT 15SM BKN023 OVC053 04/02 A2994 RMK SC6SC2 SLP141
CYYG;2004-11-03 05:00;METAR CYYG 030500Z 00000KT 15SM OVC022 04/03 A2990 RMK SC8 SLP125
CYYG;2004-11-03 06:00;METAR CYYG 030600Z 16003KT 15SM OVC019 04/03 A2985 RMK SC8 SLP109
CYYG;2004-11-03 07:00;METAR CYYG 030700Z 22005KT 15SM -RA OVC020 06/03 A2984 RMK SC8 SLP107
CYYG;2004-11-03 08:00;METAR CYYG 030800Z 20006KT 10SM -RA FEW011 OVC020 04/04 A2980 RMK SC2SC6 SLP093
CYYG;2004-11-03 09:00;METAR CYYG 030900Z 21007KT 15SM -RA BKN014 BKN023 OVC032 04/03 A2976 RMK SC5SC2SC2 SLP079
CYYG;2004-11-03 10:00;METAR CYYG 031000Z 21008KT 15SM -RA FEW009 BKN013 OVC033 04/03 A2972 RMK SF2SC5SC2 SLP067
CYYG;2004-11-03 11:00;METAR CYYG 031100Z 21007KT 10SM -RA OVC013 05/04 A2969 RMK NS8 SLP057
CYYG;2004-11-03 12:00;METAR CYYG 031200Z 19007KT 7SM -RA SCT009 OVC017 05/05 A2966 RMK SF3NS5 SLP045
CYYG;2004-11-03 13:00;METAR CYYG 031300Z 19009KT 2SM -RA BR SCT005 OVC011 06/05 A2962 RMK SF4NS4 SLP031
CYYG;2004-11-03 14:00;METAR CYYG 031400Z 21006KT 6SM -RA BR SCT004 OVC007 06/06 A2958 RMK SF3NS5 SLP017
CYYG;2004-11-03 15:00;METAR CYYG 031500Z 22004KT 5SM -RA BR BKN005 OVC014 06/06 A2954 RMK SF7NS1 SLP004
CYYG;2004-11-03 16:00;METAR CYYG 031600Z 26005KT 10SM -RA SCT005 OVC027 07/06 A2949 RMK SF4NS4 SLP989
CYYG;2004-11-03 17:00;METAR CYYG 031700Z 29013G18KT 6SM -RA BR SCT010 OVC022 06/06 A2947 RMK SF3NS5 SLP980
CYYG;2004-11-03 18:00;METAR CYYG 031800Z 32009KT 6SM -RA BR BKN015 OVC022 05/04 A2947 RMK SC5NS3 SLP981
CYYG;2004-11-03 19:00;METAR CYYG 031900Z 32012G18KT 12SM -RA FEW008 OVC012 05/04 A2948 RMK SF1SC7 SLP983
CYYG;2004-11-03 20:00;METAR CYYG 032000Z 33017G26KT 12SM -SHRA FEW008 BKN012 OVC030 04/03 A2949 RMK SF1SC6SC2 SLP988
CYYG;2004-11-03 21:00;METAR CYYG 032100Z 34019G32KT 12SM -SHRA FEW008 BKN013 OVC030 04/02 A2952 RMK SF1SC7SC1 SLP998
CYYG;2004-11-03 22:00;METAR CYYG 032200Z 33015G26KT 15SM -SHRA BKN013 OVC030 04/02 A2955 RMK SC6SC2 SLP010
CYYG;2004-11-03 23:00;METAR CYYG 032300Z 34021G29KT 15SM FEW013 BKN035 OVC050 04/00 A2957 RMK SC2SC4SC2 SLP016
CYYG;2004-11-04 00:00;METAR CYYG 040000Z 34025G34KT 15SM BKN032 OVC058 04/M01 A2959 RMK SC5SC3 SLP022
CYYG;2004-11-04 01:00;METAR CYYG 040100Z 33019G40KT 15SM -SHRASN FEW023 OVC050 04/M00 A2962 RMK SC2SC6 SLP031
CYYG;2004-11-04 02:00;METAR CYYG 040200Z 34024G33KT 15SM -SHRASN FEW033 OVC047 04/M04 A2964 RMK SC2SC6 SLP038
CYYG;2004-11-04 03:00;METAR CYYG 040300Z 34023G39KT 15SM FEW032 OVC045 04/M04 A2964 RMK SC2SC6 SLP040
CYYG;2004-11-04 04:00;METAR CYYG 040400Z 35019G34KT 15SM -SHSN SCT035 OVC052 03/M01 A2966 RMK SC3SC5 SLP044
CYYG;2004-11-04 05:00;METAR CYYG 040500Z 33022G33KT 15SM -SHSN SCT033 OVC046 03/M02 A2968 RMK SC3SC5 SLP053
CYYG;2004-11-04 06:00;METAR CYYG 040600Z 33022G34KT 15SM -SHSN OVC037 04/M03 A2971 RMK SC8 SLP061
CYYG;2004-11-04 07:00;METAR CYYG 040700Z 33024G34KT 15SM -SHSN OVC038 03/M04 A2973 RMK SC8 SLP069
CYYG;2004-11-04 08:00;METAR CYYG 040800Z 34025G36KT 15SM OVC038 03/M05 A2976 RMK SC8 SLP079
CYYG;2004-11-04 09:00;METAR CYYG 040900Z 33022G35KT 15SM -SHSN OVC038 03/M04 A2978 RMK SC8 SLP086
CYYG;2004-11-04 10:00;METAR CYYG 041000Z 34020G35KT 15SM -SHSN OVC036 03/M04 A2979 RMK SC8 SLP089
CYYG;2004-11-04 11:00;METAR CYYG 041100Z 34021G32KT 15SM -SHSN BKN035 03/M04 A2981 RMK SC7 SLP096
CYYG;2004-11-04 12:00;METAR CYYG 041200Z 35016G25KT 15SM BKN035 03/M04 A2985 RMK SC7 SLP111
CYYG;2004-11-04 13:00;METAR CYYG 041300Z 33018G28KT 15SM BKN036 03/M04 A2987 RMK SC7 SLP116
CYYG;2004-11-04 14:00;METAR CYYG 041400Z 34015G24KT 15SM -SHSN BKN037 03/M03 A2987 RMK SC7 SLP118
CYYG;2004-11-04 15:00;METAR CYYG 041500Z 33015G21KT 15SM -SHSN BKN038 04/M04 A2988 RMK SC7 SLP120
CYYG;2004-11-04 16:00;METAR CYYG 041600Z 35015G22KT 15SM -SHSN BKN032 03/M03 A2987 RMK SC7 SLP116
CYYG;2004-11-04 17:00;METAR CYYG 041700Z 33014G19KT 15SM -SHSN BKN034 04/M04 A2987 RMK SC7
CYYG;2004-11-04 18:00;METAR CYYG 041800Z 34012G19KT 15SM -SHSN BKN032 03/M04 A2988 RMK SC7 SLP119
CYYG;2004-11-04 19:00;METAR CYYG 041900Z 33011G16KT 15SM BKN032 03/M03 A2990 RMK SC7 SLP126
CYYG;2004-11-04 20:00;METAR CYYG 042000Z 32010KT 15SM BKN033 03/M03 A2992 RMK SC7 SLP132
CYYG;2004-11-04 21:00;METAR CYYG 042100Z 31005KT 15SM BKN034 BKN240 03/M03 A2990 RMK SC6CI0 SLP129
CYYG;2004-11-04 22:00;METAR CYYG 042200Z 30005KT 15SM SCT035 BKN250 02/M03 A2990 RMK SC3CI2 SLP127
CYYG;2004-11-04 23:00;METAR CYYG 042300Z 25005KT 15SM FEW035 00/M04 A2988 RMK SC2 SLP121
CYYG;2004-11-05 00:00;METAR CYYG 050000Z 24006KT 15SM FEW030 M00/M04 A2987 RMK SC2 SLP117
CYYG;2004-11-05 01:00;METAR CYYG 050100Z 26006KT 15SM FEW030 00/M04 A2986 RMK SC2 SLP114
CYYG;2004-11-05 02:00;METAR CYYG 050200Z 27002KT 15SM FEW030 M01/M04 A2983 RMK SC1 SLP105
CYYG;2004-11-05 03:00;METAR CYYG 050300Z 20003KT 15SM FEW030 M00/M04 A2979 RMK SC1 SLP091
CYYG;2004-11-05 04:00;METAR CYYG 050400Z 21004KT 15SM FEW030 01/M03 A2977 RMK SC2 SLP084
CYYG;2004-11-05 05:00;METAR CYYG 050500Z 17003KT 15SM FEW030 00/M02 A2977 RMK SC2 SLP083
CYYG;2004-11-05 06:00;METAR CYYG 050600Z 13003KT 15SM FEW030 00/M02 A2976 RMK SC2 SLP078
CYYG;2004-11-05 07:00;METAR CYYG 050700Z 13005KT 15SM FEW025 SCT130 01/M01 A2971 RMK SC2AC2 SLP064
CYYG;2004-11-05 08:00;METAR CYYG 050800Z 14006KT 15SM FEW025 BKN140 02/M01 A2966 RMK SC2AC3 PRESFR SLP044
CYYG;2004-11-05 09:00;METAR CYYG 050900Z 13011KT 15SM FEW025 BKN140 02/M01 A2961 RMK SC2AC3 SLP028
CYYG;2004-11-05 10:00;METAR CYYG 051000Z 13010KT 15SM SCT027 BKN140 02/M01 A2957 RMK SC3AC2 SLP016
CYYG;2004-11-05 11:00;METAR CYYG 051100Z 13012G18KT 15SM SCT027 BKN110 03/M01 A2952 RMK SC3AC4 PRESFR SLP997
CYYG;2004-11-05 12:00;METAR CYYG 051200Z 13014KT 15SM BKN020 OVC053 03/M00 A2944 RMK SC6SC2 PRESFR SLP973
CYYG;2004-11-05 13:00;METAR CYYG 051300Z 13015G22KT 8SM -SHRASN SCT010 OVC016 02/01 A2937 RMK SF3SC5 PRESFR SLP949
CYYG;2004-11-05 14:00;METAR CYYG 051400Z 12016KT 15SM -SHRA BKN007 OVC022 03/02 A2927 RMK SF5SC3 PRESFR SLP914
CYYG;2004-11-05 16:00;METAR CYYG 051600Z 13019G29KT 10SM -SHRA OVC012 06/05 A2903 RMK SC8 PRESFR SLP832
CYYG;2004-11-05 17:00;METAR CYYG 051700Z 14025G35KT 10SM -SHRA OVC014 08/06 A2892 RMK SC8 PRESFR SLP794
CYYG;2004-11-05 18:00;METAR CYYG 051800Z 15022G32KT 8SM -SHRA OVC010 09/08 A2885 RMK SC8 SLP772
CYYG;2004-11-05 19:00;METAR CYYG 051900Z 23019G36KT 15SM BKN018 09/08 A2884 RMK SC7 RERA SLP768
CYYG;2004-11-05 20:00;METAR CYYG 052000Z 23027G37KT 15SM BKN020 08/03 A2886 RMK SC7 SLP775
CYYG;2004-11-05 21:00;METAR CYYG 052100Z 23027G38KT 15SM BKN032 06/02 A2890 RMK SC7 SLP786
CYYG;2004-11-05 22:00;METAR CYYG 052200Z 23018G29KT 15SM BKN036 05/M00 A2893 RMK SC7 SLP796
CYYG;2004-11-05 23:00;METAR CYYG 052300Z 24020G32KT 15SM BKN033 05/M01 A2894 RMK SC6 SLP800
CYYG;2004-11-06 00:00;METAR CYYG 060000Z 23019G26KT 15SM FEW023 BKN033 05/00 A2894 RMK SC2SC6 SLP800
CYYG;2004-11-06 01:00;METAR CYYG 060100Z 24023G29KT 15SM FEW023 BKN033 BKN076 05/M02 A2894 RMK SC2SC4AC2 SLP801
CYYG;2004-11-06 02:00;METAR CYYG 060200Z 24020G37KT 15SM BKN032 OVC070 05/M01 A2894 RMK SC6AC2
CYYG;2004-11-06 03:00;METAR CYYG 060300Z 24022G31KT 15SM BKN035 OVC070 05/M01 A2893 RMK SC6AC2 SLP799
CYYG;2004-11-06 04:00;METAR CYYG 060400Z 25025G34KT 15SM OVC032 04/00 A2896 RMK SC8 SLP809
CYYG;2004-11-06 05:00;METAR CYYG 060500Z 25025G33KT 12SM -SHRA BKN017 OVC029 03/01 A2901 RMK SC6SC2 SLP823
CYYG;2004-11-06 06:00;METAR CYYG 060600Z 26023G32KT 15SM -SHRA BKN016 OVC030 04/00 A2906 RMK SC6SC2 PRESRR SLP842
CYYG;2004-11-06 07:00;METAR CYYG 060700Z 26019G29KT 15SM BKN016 OVC030 04/00 A2912 RMK SC6SC2 SLP860
CYYG;2004-11-06 08:00;METAR CYYG 060800Z 26019G25KT 15SM OVC020 04/M01 A2915 RMK SC8 SLP873
CYYG;2004-11-06 09:00;METAR CYYG 060900Z 26022G31KT 15SM OVC024 04/M01 A2920 RMK SC8 SLP888
CYYG;2004-11-06 10:00;METAR CYYG 061000Z 27023G32KT 15SM OVC032 03/M02 A2923 RMK SC8 SLP899
CYYG;2004-11-06 11:00;METAR CYYG 061100Z 26024G31KT 15SM BKN031 04/M02 A2927 RMK SC7 SH DIST E-SE SLP912
CYYG;2004-11-06 12:00;METAR CYYG 061200Z 26017G29KT 15SM BKN032 04/M02 A2931 RMK SC6 SLP926
CYYG;2004-11-06 13:00;METAR CYYG 061300Z 26021G34KT 15SM SCT035 04/M02 A2934 RMK SC4 SLP938
CYYG;2004-11-06 14:00;METAR CYYG 061400Z 26024G30KT 15SM FEW033 04/M03 A2937 RMK CU2 SLP948
CYYG;2004-11-06 15:00;METAR CYYG 061500Z 26021G29KT 15SM BKN037 04/M04 A2941 RMK SC6 SLP959
CYYG;2004-11-06 16:00;METAR CYYG 061600Z 26014G32KT 15SM BKN037 05/M03 A2941 RMK SC6 SLP960
CYYG;2004-11-06 17:00;METAR CYYG 061700Z 25018G29KT 15SM BKN039 05/M03 A2942 RMK SC6 SLP964
CYYG;2004-11-06 18:00;METAR CYYG 061800Z 25019G29KT 15SM FEW037 05/M03 A2944 RMK SC2 SLP969
CYYG;2004-11-06 19:00;METAR CYYG 061900Z 24015G24KT 15SM FEW039 FEW300 06/M03 A2944 RMK CU1CI0 SLP971
CYYG;2004-11-06 20:00;METAR CYYG 062000Z 25013G19KT 15SM FEW039 FEW100 SCT300 06/M03 A2945 RMK CU1AC1CI1 SLP974
CYYG;2004-11-06 21:00;METAR CYYG 062100Z 24007KT 15SM FEW039 SCT071 BKN160 06/M03 A2945 RMK CU1AC2AS3 SLP974
CYYG;2004-11-06 22:00;METAR CYYG 062200Z 22004KT 15SM SCT038 BKN072 OVC160 06/M01 A2944 RMK SC3AC3AS2 SLP969
CYYG;2004-11-06 23:00;METAR CYYG 062300Z 22009G18KT 10SM -RA FEW019 OVC030 06/05 A2943 RMK SC2NS6 SLP966
CYYG;2004-11-07 00:00;METAR CYYG 070000Z 21011KT 15SM -RA BKN032 OVC060 07/05 A2941 RMK SC6NS2 SLP959
CYYG;2004-11-07 01:00;METAR CYYG 070100Z 22014G20KT 15SM FEW030 OVC055 08/05 A2940 RMK SC2SC6 SLP958
CYYG;2004-11-07 02:00;METAR CYYG 070200Z 23014G21KT 10SM SHRA FEW030 OVC055 08/05 A2939 RMK SC2SC6 SLP954
CYYG;2004-11-07 04:00;METAR CYYG 070400Z CCA 29017G24KT 6SM -SHRA BR FEW005 SCT011 OVC035 03/02 A2942 RERA RMK SF1SC3SC5 CB DIST E OCNL LTGIC SLP963
CYYG;2004-11-07 04:00;METAR CYYG 070400Z 29017G24KT 6SM -SHRA BR FEW005 SCT011 OVC035 03/02 A2942 RMK SF1SC3SC5 CB DIST E OCNL LTGIC SLP963
CYYG;2004-11-07 05:00;METAR CYYG 070500Z 25010KT 15SM FEW035 SCT110 03/02 A2942 RMK SC1AC3 SLP963
CYYG;2004-11-07 06:00;METAR CYYG 070600Z 28017G24KT 15SM FEW035 BKN082 05/01 A2947 RMK SC2AC5 SLP979
CYYG;2004-11-07 07:00;METAR CYYG 070700Z 27023G29KT 15SM BKN035 05/M00 A2952 RMK SC7 PRESRR SLP999
CYYG;2004-11-07 08:00;METAR CYYG 070800Z 27014KT 15SM BKN035 04/M00 A2957 RMK SC7 SLP013
CYYG;2004-11-07 09:00;METAR CYYG 070900Z 27015G20KT 15SM FEW025 OVC050 04/M00 A2963 RMK SC2SC6 SLP034
CYYG;2004-11-07 10:00;METAR CYYG 071000Z 28016G24KT 15SM FEW025 BKN050 03/M01 A2968 RMK SC2SC6 SLP051
CYYG;2004-11-07 11:00;METAR CYYG 071100Z 28013G19KT 15SM SCT030 02/M02 A2974 RMK SC3 PRESRR SLP074
CYYG;2004-11-07 12:00;METAR CYYG 071200Z 29014G19KT 15SM FEW029 02/M04 A2979 RMK SC2 SLP089
CYYG;2004-11-07 13:00;METAR CYYG 071300Z 30012G18KT 15SM FEW029 03/M03 A2982 RMK SC2 SLP101
CYYG;2004-11-07 14:00;METAR CYYG 071400Z 28011G17KT 15SM FEW028 03/M03 A2985 RMK SC2 SLP108
CYYG;2004-11-07 15:00;METAR CYYG 071500Z 26013KT 15SM FEW028 FEW100 SCT300 04/M05 A2987 RMK SC1AC1CI0 SLP118
CYYG;2004-11-07 16:00;METAR CYYG 071600Z 27009KT 15SM FEW028 BKN140 04/M04 A2987 RMK SC1AC4 SLP116
CYYG;2004-11-07 17:00;METAR CYYG 071700Z 23009KT 15SM FEW028 BKN120 BKN300 04/M04 A2987 RMK SC1AC5CI0 SLP118
CYYG;2004-11-07 18:00;METAR CYYG 071800Z 24006KT 15SM FEW028 BKN110 BKN300 05/M03 A2987 RMK SC1AC6CI0 SLP118
CYYG;2004-11-07 19:00;METAR CYYG 071900Z 18006KT 15SM FEW028 BKN100 BKN120 BKN300 05/M02 A2987 RMK SC1AC5AC2CI0 SLP118
CYYG;2004-11-07 20:00;METAR CYYG 072000Z 16008KT 15SM SCT100 BKN110 BKN140 BKN300 05/M01 A2987 RMK AC3AC2AC1CS2 SLP115
CYYG;2004-11-07 21:00;METAR CYYG 072100Z 14006KT 15SM OVC100 04/M00 A2986 RMK AS8 SLP113
CYYG;2004-11-07 22:00;METAR CYYG 072200Z 15006KT 15SM BKN061 OVC100 04/M00 A2985 RMK SC6AS2 SLP111
CYYG;2004-11-07 23:00;METAR CYYG 072300Z 15009KT 10SM -RA OVC049 05/02 A2983 RMK SC8 SLP104
CYYG;2004-11-08 00:00;METAR CYYG 080000Z 16012KT 10SM -RA OVC060 06/03 A2980 RMK SC8 SLP093
CYYG;2004-11-08 01:00;METAR CYYG 080100Z 16010G15KT 12SM -RA OVC070 06/03 A2978 RMK AC8 SLP086
CYYG;2004-11-08 02:00;METAR CYYG 080200Z 16012KT 15SM FEW030 OVC090 07/04 A2975 RMK SC2AC6 SLP077
CYYG;2004-11-08 03:00;METAR CYYG 080300Z 17012KT 15SM OVC017 08/06 A2973 RMK SC8 SLP070
CYYG;2004-11-08 04:00;METAR CYYG 080400Z 17012KT 12SM -SHRA BKN018 OVC090 09/08 A2971 RMK SC7AC1 SLP063
CYYG;2004-11-08 05:00;METAR CYYG 080500Z 18010KT 12SM -SHRA FEW018 OVC062 10/08 A2968 RMK SC2SC6 SLP053
CYYG;2004-11-08 06:00;METAR CYYG 080600Z 19015KT 12SM -SHRA OVC075 10/08 A2967 RMK AC8 SLP049
CYYG;2004-11-08 07:00;METAR CYYG 080700Z 19013KT 12SM BKN055 OVC140 10/09 A2966 RMK SC6AC2 SLP045
CYYG;2004-11-08 08:00;METAR CYYG 080800Z 20009KT 12SM OVC062 10/09 A2963 RMK SC8 SLP036
CYYG;2004-11-08 09:00;METAR CYYG 080900Z 19008KT 15SM FEW062 OVC140 10/08 A2961 RMK SC2AC6 SLP029
CYYG;2004-11-08 10:00;METAR CYYG 081000Z 18008KT 12SM -SHRA OVC048 10/09 A2958 RMK SC8 SLP018
CYYG;2004-11-08 11:00;METAR CYYG 081100Z 20009KT 15SM BKN030 OVC060 10/09 A2957 RMK SC6SC2 SLP013
CYYG;2004-11-08 12:00;METAR CYYG 081200Z 20007KT 10SM -SHRA OVC025 10/09 A2956 RMK SC8 SLP012
CYYG;2004-11-08 13:00;METAR CYYG 081300Z CCA 33015G22KT 10SM -SHRA FEW005 OVC016 07/06 A2956 RMK SF2SC6 WSHFT 1256 SLP012
CYYG;2004-11-08 14:00;METAR CYYG 081400Z 31011KT 15SM -SHRA FEW010 OVC028 06/05 A2957 RMK SF2SC6
CYYG;2004-11-08 15:00;METAR CYYG 081500Z 31014KT 5SM -SHRA BR BKN010 OVC021 04/03 A2960 RMK SF6SC2 SLP025
CYYG;2004-11-08 16:00;METAR CYYG 081600Z 29012KT 2SM -SHRASN OVC018 01/00 A2964 RMK SN6SC2 SLP039
CYYG;2004-11-08 17:00;METAR CYYG 081700Z 29008KT 1 1/2SM -SN BKN006 OVC014 00/M00 A2965 RMK SF5SC3 /S01/ SLP041
CYYG;2004-11-08 18:00;METAR CYYG 081800Z 29013G20KT 10SM -SN BKN006 BKN018 00/M01 A2968 RMK SF5SC2 SLP051
CYYG;2004-11-08 19:00;METAR CYYG 081900Z 29011G18KT 15SM FEW018 FEW089 01/M01 A2971 RMK SC1AC2 SLP062
CYYG;2004-11-08 20:00;METAR CYYG 082000Z 29009G18KT 15SM FEW020 FEW090 FEW300 01/M01 A2974 RMK SC1AC1CI0 SLP074
CYYG;2004-11-08 21:00;METAR CYYG 082100Z 29008KT 15SM FEW020 FEW300 01/M04 A2978 RMK SC1CI1 SLP087
CYYG;2004-11-08 22:00;METAR CYYG 082200Z 26003KT 15SM FEW025 FEW300 M00/M04 A2983 RMK SC2CI1 SLP104
CYYG;2004-11-08 23:00;METAR CYYG 082300Z 29011KT 15SM FEW300 00/M05 A2985 RMK CI1 SLP110
CYYG;2004-11-09 00:00;METAR CYYG 090000Z 28010KT 15SM FEW300 M00/M06 A2989 RMK CI1 SLP124
CYYG;2004-11-09 01:00;METAR CYYG 090100Z 29012KT 15SM SKC M00/M05 A2992 RMK SLP132
CYYG;2004-11-09 02:00;METAR CYYG 090200Z 29012G17KT 15SM SKC M00/M05 A2995 RMK SLP142
CYYG;2004-11-09 03:00;METAR CYYG 090300Z 29011KT 15SM SKC M01/M05 A2996 RMK SLP148
CYYG;2004-11-09 04:00;METAR CYYG 090400Z 30013KT 15SM SKC M01/M05 A2996 RMK SLP146
CYYG;2004-11-09 05:00;METAR CYYG 090500Z 29013G18KT 15SM SKC M01/M05 A2996 RMK SLP148
CYYG;2004-11-09 06:00;METAR CYYG 090600Z 29010G15KT 15SM SKC M02/M06 A2999 RMK SLP158
CYYG;2004-11-09 07:00;METAR CYYG 090700Z 26006KT 15SM SKC M02/M06 A3002 RMK SLP169
CYYG;2004-11-09 08:00;METAR CYYG 090800Z 27006KT 15SM SKC M03/M06 A3005 RMK SLP177
CYYG;2004-11-09 09:00;METAR CYYG 090900Z 25005KT 15SM SKC M03/M06 A3007 RMK SLP185
CYYG;2004-11-09 10:00;METAR CYYG 091000Z 27006KT 15SM SKC M03/M06 A3008 RMK SLP189
CYYG;2004-11-09 11:00;METAR CYYG 091100Z 27006KT 15SM FEW020 FEW300 M03/M06 A3010 RMK SC1CI1 SLP195
CYYG;2004-11-09 12:00;METAR CYYG 091200Z 29008KT 15SM VCSH FEW020 FEW300 M02/M05 A3013 RMK SC2CI1 SH N-NE SLP204
CYYG;2004-11-09 13:00;METAR CYYG 091300Z 29010KT 15SM FEW025 M01/M05 A3014 RMK SC2 SH DIS N-E SLP207
CYYG;2004-11-09 14:00;METAR CYYG 091400Z 29008KT 15SM FEW025 00/M05 A3014 RMK SC2 SHSN DIS N-E
CYYG;2004-11-09 15:00;METAR CYYG 091500Z 29009G17KT 15SM FEW025 01/M05 A3015 RMK SC2 SH DIS ALQDS TCU NE SLP212
CYYG;2004-11-09 16:00;METAR CYYG 091600Z 29011G16KT 15SM FEW030 01/M06 A3015 RMK CU2 SH DIS NE-E SLP212
CYYG;2004-11-09 17:00;METAR CYYG 091700Z 29012KT 15SM FEW033 01/M07 A3016 RMK CU2 SH DIS ALQDS SLP214
CYYG;2004-11-09 18:00;METAR CYYG 091800Z 30013G18KT 15SM SCT041 01/M07 A3017 RMK CU3 SH DIS ALQDS SLP220
CYYG;2004-11-09 19:00;METAR CYYG 091900Z 30011KT 15SM BKN055 M00/M09 A3018 RMK CU5 SH DIS ALQDS SLP224
CYYG;2004-11-09 20:00;METAR CYYG 092000Z 31011KT 15SM -SHSN FEW044 SCT064 M00/M09 A3020 RMK SC2SC2 SLP229
CYYG;2004-11-09 21:00;METAR CYYG 092100Z 29005KT 15SM VCSH SCT062 M01/M09 A3021 RMK SC4 SLP234
CYYG;2004-11-09 22:00;METAR CYYG 092200Z 29006KT 15SM SCT065 M02/M09 A3023 RMK SC4 SLP239
CYYG;2004-11-09 23:00;METAR CYYG 092300Z 27005KT 15SM FEW030 SCT060 M01/M08 A3024 RMK SC2SC2 SLP243
CYYG;2004-11-10 00:00;METAR CYYG 100000Z 27005KT 15SM BKN072 M02/M08 A3025 RMK AC6 SLP247
CYYG;2004-11-10 01:00;METAR CYYG 100100Z 29009KT 15SM BKN076 M01/M09 A3027 RMK AC6 SLP252
CYYG;2004-11-10 02:00;METAR CYYG 100200Z 30010KT 15SM BKN068 M01/M08 A3027 RMK AC6 SLP253
CYYG;2004-11-10 03:00;METAR CYYG 100300Z 29010G16KT 15SM BKN068 M01/M07 A3028 RMK AC6 SLP255
CYYG;2004-11-10 04:00;METAR CYYG 100400Z 29012G17KT 15SM BKN061 M02/M07 A3028 RMK SC6 SLP256
CYYG;2004-11-10 05:00;METAR CYYG 100500Z 30008KT 15SM BKN063 M03/M06 A3028 RMK SC6 SLP258
CYYG;2004-11-10 06:00;METAR CYYG 100600Z 32012KT 6SM -SHSN FEW024 BKN060 M03/M04 A3031 RMK SC2SC3 SLP267
CYYG;2004-11-10 07:00;METAR CYYG 100700Z 29009KT 15SM -SHSN FEW032 BKN060 M03/M04 A3031 RMK SC2SC3 SLP268
CYYG;2004-11-10 08:00;METAR CYYG 100800Z 28006KT 15SM -SHSN BKN040 M04/M06 A3032 RMK SC6 SLP270
CYYG;2004-11-10 09:00;METAR CYYG 100900Z 29009KT 15SM BKN040 M03/M07 A3034 RMK SC3 SLP277
CYYG;2004-11-10 10:00;METAR CYYG 101000Z 32007KT 15SM BKN040 M03/M05 A3036 RMK SC3 SLP285
CYYG;2004-11-10 11:00;METAR CYYG 101100Z 30007KT 3SM -SHSN BKN050 M04/M05 A3038 RMK SN2SC2 SLP290
CYYG;2004-11-10 12:00;METAR CYYG 101200Z 29005KT 4SM -SHSN FEW020 BKN035 M03/M04 A3040 RMK SC2SC4 VIS VRB 2-15 /S01/ SLP298
CYYG;2004-11-10 13:00;METAR CYYG 101300Z 30008KT 15SM -SHSN FEW020 SCT035 M02/M05 A3041 RMK SC2SC2 VIS N-NE 3 SLP300
CYYG;2004-11-10 14:00;METAR CYYG 101400Z 30007KT 15SM -SHSN FEW020 SCT040 M01/M05 A3043 RMK SC1SC2 VIS N-NE 3 SLP306
CYYG;2004-11-10 15:00;METAR CYYG 101500Z 31010G17KT 15SM -SHSN FEW012 SCT030 M01/M05 A3044 RMK SC1SC2 VIS NW 4 SLP309
CYYG;2004-11-10 16:00;METAR CYYG 101600Z 32006KT 15SM -SHSN FEW020 SCT035 M02/M04 A3043 RMK SC2SC2 SLP306
CYYG;2004-11-10 17:00;METAR CYYG 101700Z 31007KT 15SM -SHSN FEW020 SCT040 01/M06 A3042 RMK SC2SC2 SLP303
CYYG;2004-11-10 18:00;METAR CYYG 101800Z 30010KT 15SM -SHSN FEW020 SCT050 01/M08 A3042 RMK SC1SC3
CYYG;2004-11-10 19:00;METAR CYYG 101900Z 31004KT 15SM -SHSN FEW020 SCT050 M00/M09 A3043 RMK SC1SC2 SLP307
CYYG;2004-11-10 20:00;METAR CYYG 102000Z CCA 29005KT 15SM FEW020 SCT054 00/M09 A3044 RMK SC1SC2 SHSN DIS N-E SLP310
CYYG;2004-11-10 21:00;METAR CYYG 102100Z 31002KT 15SM FEW020 FEW055 M02/M10 A3045 RMK SC1SC2 SHSN DIS N-E SLP313
CYYG;2004-11-10 22:00;METAR CYYG 102200Z 27004KT 15SM FEW020 FEW055 M02/M10 A3046 RMK SC1SC1 SLP317
CYYG;2004-11-10 23:00;METAR CYYG 102300Z 29004KT 15SM FEW020 FEW055 M03/M09 A3046 RMK SC1SC1
CYYG;2004-11-11 00:00;METAR CYYG 110000Z 23002KT 15SM FEW020 FEW055 M04/M09 A3046 RMK SC1SC1 SLP319
CYYG;2004-11-11 01:00;METAR CYYG 110100Z 00000KT 15SM FEW020 M05/M10 A3047 RMK SC1 SLP322
CYYG;2004-11-11 02:00;METAR CYYG 110200Z 00000KT 15SM FEW020 M03/M08 A3047 RMK SC1 SLP320
CYYG;2004-11-11 03:00;METAR CYYG 110300Z 20005KT 15SM FEW020 M03/M08 A3045 RMK SC1 SLP314
CYYG;2004-11-11 04:00;METAR CYYG 110400Z 19004KT 15SM SKC M02/M08 A3043 RMK SLP307
CYYG;2004-11-11 05:00;METAR CYYG 110500Z 21007KT 15SM SKC M02/M07 A3041 RMK SLP301
CYYG;2004-11-11 06:00;METAR CYYG 110600Z 20011KT 15SM SKC M00/M06 A3039 RMK SLP295
CYYG;2004-11-11 07:00;METAR CYYG 110700Z 20011KT 15SM FEW097 00/M06 A3038 RMK AC2 SLP291
CYYG;2004-11-11 08:00;METAR CYYG 110800Z 19015KT 15SM BKN082 09/M07 A3036 RMK AC6 SLP284
CYYG;2004-11-11 09:00;METAR CYYG 110900Z 19015KT 15SM BKN069 00/M07 A3036 RMK AC7 SLP283
CYYG;2004-11-11 10:00;METAR CYYG 111000Z 19016KT 15SM BKN074 01/M06 A3033 RMK AC7 SLP274
CYYG;2004-11-11 11:00;METAR CYYG 111100Z 20016G22KT 15SM FEW074 BKN140 OVC300 01/M04 A3033 RMK AC1AC6CI0 SLP274
CYYG;2004-11-11 12:00;METAR CYYG 111200Z 19019G24KT 15SM BKN140 OVC300 02/M03 A3031 RMK AC6CI0 SLP268
CYYG;2004-11-11 13:00;METAR CYYG 111300Z 20016G22KT 15SM FEW040 SCT140 OVC300 03/M02 A3031 RMK SC1AC3CI0 SLP265
CYYG;2004-11-11 14:00;METAR CYYG 111400Z 20022G27KT 15SM FEW040 BKN140 OVC300 04/M01 A3028 RMK SC1AC6CI0 SLP257
CYYG;2004-11-11 15:00;METAR CYYG 111500Z 19021G29KT 15SM FEW012 BKN030 BKN140 OVC300 05/M00 A3025 RMK CF1SC7AC1CI0 SLP245
CYYG;2004-11-11 16:00;METAR CYYG 111600Z 21018KT 15SM FEW015 BKN028 05/00 A3022 RMK CF1SC7 SLP236
CYYG;2004-11-11 17:00;METAR CYYG 111700Z 20020G25KT 15SM OVC027 06/01 A3020 RMK SC8 SLP228
CYYG;2004-11-11 18:00;METAR CYYG 111800Z 21020G27KT 15SM OVC027 06/01 A3018 RMK SC8 SLP223
CYYG;2004-11-11 19:00;METAR CYYG 111900Z 20018G24KT 15SM OVC028 07/01 A3017 RMK SC8 SLP219
CYYG;2004-11-11 20:00;METAR CYYG 112000Z 19015KT 15SM OVC031 07/02 A3017 RMK SC8 SLP218
CYYG;2004-11-11 21:00;METAR CYYG 112100Z 19014KT 15SM OVC031 07/03 A3017 RMK SC8 SLP217
CYYG;2004-11-11 22:00;METAR CYYG 112200Z 19013G18KT 15SM OVC030 07/03 A3016 RMK SC8 SLP214
CYYG;2004-11-11 23:00;METAR CYYG 112300Z 19016KT 15SM OVC024 07/04 A3014 RMK SC8 SLP209
CYYG;2004-11-12 00:00;METAR CYYG 120000Z 19016KT 15SM OVC023 07/04 A3014 RMK SC8 SLP209
CYYG;2004-11-12 01:00;METAR CYYG 120100Z 20011G16KT 15SM OVC021 07/04 A3014 RMK SC8 SLP210
CYYG;2004-11-12 02:00;METAR CYYG 120200Z 21008KT 15SM OVC019 07/05 A3015 RMK SC8 SLP212
CYYG;2004-11-12 03:00;METAR CYYG 120300Z 22009KT 15SM BKN017 OVC030 08/05 A3015 RMK SC6SC2 SLP212
CYYG;2004-11-12 04:00;METAR CYYG 120400Z 25005KT 15SM OVC027 08/05 A3017 RMK SC8 SLP219
CYYG;2004-11-12 05:00;METAR CYYG 120500Z 34010G18KT 15SM OVC022 07/05 A3020 RMK SC8 SLP230
CYYG;2004-11-12 06:00;METAR CYYG 120600Z 33015KT 15SM OVC020 04/01 A3023 RMK SC8 SLP240
CYYG;2004-11-12 07:00;METAR CYYG 120700Z 34012G22KT 15SM OVC029 03/M01 A3026 RMK SC8 SLP250
CYYG;2004-11-12 08:00;METAR CYYG 120800Z 34011G16KT 15SM SCT034 OVC072 02/M03 A3028 RMK SC4AC4 SLP254
CYYG;2004-11-12 09:00;METAR CYYG 120900Z 34008KT 15SM BKN074 01/M04 A3031 RMK AC6 SLP264
CYYG;2004-11-12 10:00;METAR CYYG 121000Z 34006KT 15SM FEW025 01/M04 A3033 RMK SC2 SLP274
CYYG;2004-11-12 11:00;METAR CYYG 121100Z 34006KT 15SM FEW025 FEW100 SCT300 00/M04 A3036 RMK SC1AC1CI0 SLP283
CYYG;2004-11-12 12:00;METAR CYYG 121200Z 34004KT 15SM FEW025 SCT100 01/M04 A3038 RMK SC2AC2 VIRGA SLP289
CYYG;2004-11-12 13:00;METAR CYYG 121300Z 01005KT 15SM BKN030 BKN100 BKN300 03/M04 A3040 RMK SC5AC1CI1 SLP295
CYYG;2004-11-12 14:00;METAR CYYG 121400Z 01008KT 15SM SCT025 BKN035 04/M02 A3041 RMK CU3SC4 SLP298
CYYG;2004-11-12 15:00;METAR CYYG 121500Z 02008KT 15SM BKN032 04/M03 A3041 RMK SC7 SLP301
CYYG;2004-11-12 16:00;METAR CYYG 121600Z 02009KT 15SM BKN033 BKN300 03/M04 A3042 RMK SC7CI1 SLP302
CYYG;2004-11-12 17:00;METAR CYYG 121700Z 36008KT 15SM BKN035 BKN300 04/M05 A3042 RMK SC6CI0 SLP303
CYYG;2004-11-12 18:00;METAR CYYG 121800Z 01004KT 15SM FEW035 BKN300 03/M05 A3041 RMK SC2CI0
CYYG;2004-11-12 19:00;METAR CYYG 121900Z 04010G15KT 15SM FEW035 SCT300 03/M04 A3041 RMK SC2CI0 CONTRAILS SLP299
CYYG;2004-11-12 20:00;METAR CYYG 122000Z 04009KT 15SM FEW030 FEW170 BKN300 02/M04 A3043 RMK SC2AC1CI0 SLP307
CYYG;2004-11-12 21:00;METAR CYYG 122100Z 04004KT 15SM FEW028 FEW070 FEW120 SCT300 M00/M05 A3045 RMK SC2AC1AC1CI0 SLP314
CYYG;2004-11-12 22:00;METAR CYYG 122200Z 02005KT 15SM FEW028 SCT300 M01/M05 A3046 RMK SC1CI1 SLP316
CYYG;2004-11-12 23:00;METAR CYYG 122300Z 01006KT 15SM FEW028 SCT300 M01/M05 A3047 RMK SC1CI1 SLP321
CYYG;2004-11-13 00:00;METAR CYYG 130000Z 01003KT 15SM FEW029 SCT300 M01/M06 A3048 RMK SC2CI0 SLP324
CYYG;2004-11-13 01:00;METAR CYYG 130100Z 01003KT 15SM FEW029 SCT300 M02/M05 A3050 RMK SC2CI0 SLP330
CYYG;2004-11-13 02:00;METAR CYYG 130200Z 02002KT 15SM BKN029 M01/M05 A3050 RMK SC6 SLP332
CYYG;2004-11-13 03:00;METAR CYYG 130300Z 05004KT 15SM BKN029 M00/M04 A3050 RMK SC6 SLP331
CYYG;2004-11-13 04:00;METAR CYYG 130400Z 04005KT 15SM OVC029 00/M04 A3050 RMK SC8 SLP330
CYYG;2004-11-13 05:00;METAR CYYG 130500Z 04005KT 15SM OVC029 01/M04 A3050 RMK SC8 SLP330
CYYG;2004-11-13 06:00;METAR CYYG 130600Z 06005KT 15SM OVC027 01/M04 A3050 RMK SC8 SLP331
CYYG;2004-11-13 07:00;METAR CYYG 130700Z 04006KT 15SM OVC028 01/M04 A3050 RMK SC8 SLP330
CYYG;2004-11-13 08:00;METAR CYYG 130800Z 05007KT 15SM OVC031 01/M04 A3049 RMK SC8 SLP328
CYYG;2004-11-13 09:00;METAR CYYG 130900Z 06006KT 15SM OVC027 01/M04 A3050 RMK SC8 SLP331
CYYG;2004-11-13 10:00;METAR CYYG 131000Z 04007KT 15SM BKN029 01/M04 A3050 RMK SC6 SLP331
CYYG;2004-11-13 11:00;METAR CYYG 131100Z 06004KT 15SM BKN029 01/M04 A3050 RMK SC7 SLP331
CYYG;2004-11-13 12:00;METAR CYYG 131200Z 07006KT 15SM OVC026 01/M03 A3051 RMK SC8 SLP333
CYYG;2004-11-13 13:00;METAR CYYG 131300Z 06006KT 15SM OVC030 02/M03 A3050 RMK SC8 SLP332
CYYG;2004-11-13 14:00;METAR CYYG 131400Z 05007KT 15SM OVC029 03/M03 A3050 RMK SC8 SLP329
CYYG;2004-11-13 15:00;METAR CYYG 131500Z 05010G15KT 15SM OVC026 03/M03 A3050 RMK SC8 SLP329
CYYG;2004-11-13 16:00;METAR CYYG 131600Z 05013G18KT 15SM OVC029 02/M03 A3047 RMK SC8 SLP322
CYYG;2004-11-13 17:00;METAR CYYG 131700Z 04014KT 15SM OVC022 03/M02 A3045 RMK SC8 CIG RAG SLP315
CYYG;2004-11-13 18:00;METAR CYYG 131800Z 05011KT 12SM -SHSN SCT020 OVC035 03/M02 A3043 RMK SC3SC5 SLP308
CYYG;2004-11-13 19:00;METAR CYYG 131900Z 05014KT 10SM -SHSN BKN022 OVC035 02/M01 A3043 RMK SC5SC3 SLP307
CYYG;2004-11-13 20:00;METAR CYYG 132000Z 04013G18KT 8SM -SHSN FEW011 BKN022 OVC035 02/M00 A3042 RMK SC2SC4SC2 SLP305
CYYG;2004-11-13 21:00;METAR CYYG 132100Z 05011G17KT 10SM -SHSN FEW011 BKN021 OVC035 02/M00 A3041 RMK SC2SC4SC2 SLP302
CYYG;2004-11-13 22:00;METAR CYYG 132200Z 05011G16KT 10SM -SHRASN OVC016 01/M00 A3042 RMK SC8 SLP304
CYYG;2004-11-13 23:00;METAR CYYG 132300Z 04013G19KT 5SM -SN BKN009 OVC016 01/M00 A3042 RMK SF6SC2 SLP303
CYYG;2004-11-14 00:00;METAR CYYG 140000Z 05014G19KT 3SM -SN SCT006 OVC015 01/00 A3040 RMK SF3SC5 /S01/ SLP298
CYYG;2004-11-14 01:00;METAR CYYG 140100Z 05014KT 5SM -SN BKN005 OVC014 01/00 A3039 RMK SF6SC2 SLP295
CYYG;2004-11-14 02:00;METAR CYYG 140200Z 05013KT 2SM -SN OVC007 01/00 A3037 RMK SF8 RVR RWY 03 6000 FT SLP287
CYYG;2004-11-14 03:00;METAR CYYG 140300Z 04011KT 2SM -SN OVC005 00/00 A3036 RMK SF8 RVR RWY03 4000 FT SLP285
CYYG;2004-11-14 04:00;METAR CYYG 140400Z 04014G24KT 1SM -SN OVC005 00/00 A3035 RMK SN3SF5 /S01/ RVR RWY03 3500 FT SLP279
CYYG;2004-11-14 05:00;METAR CYYG 140500Z 05013KT 1SM -SN BKN003 OVC008 01/00 A3033 RMK SF5SF3 RVR RWY03 3000 FT SLP274
CYYG;2004-11-14 06:00;METAR CYYG 140600Z 04016KT 1SM -SN BKN004 OVC007 00/00 A3032 RMK SF6SF2 /S03/ RVR RWY03 2800 FT SLP270
CYYG;2004-11-14 07:00;METAR CYYG 140700Z 04018KT 1SM -SN OVC004 01/01 A3029 RMK SF8 RVR RWY03 4000 FT SLP261
CYYG;2004-11-14 08:00;METAR CYYG 140800Z 04017KT 1SM -SN OVC005 00/00 A3028 RMK SF8 /S01/ RVR RWY03 2800 FT SLP258
CYYG;2004-11-14 09:00;METAR CYYG 140900Z 04016G21KT 1SM -SN OVC004 00/00 A3028 RMK SF8 /S02/ RVR RWY03 3000 FT SLP256
CYYG;2004-11-14 10:00;METAR CYYG 141000Z 04014G19KT 2SM -SN OVC004 00/00 A3027 RMK SF8 RVR RWY03 4000 FT SLP252
CYYG;2004-11-14 11:00;METAR CYYG 141100Z CCA 04014G21KT 2SM -SN OVC005 00/00 A3026 RMK SF8 /S04/ SLP249
CYYG;2004-11-14 12:00;METAR CYYG 141200Z 04017G22KT 4SM -SN BKN006 OVC011 01/00 A3026 RMK SF6SC2 SLP250
CYYG;2004-11-14 13:00;METAR CYYG 141300Z CCA 04020KT 10SM -SN BKN006 OVC012 01/00 A3025 RMK SF5SC3 /S01/ SLP248
CYYG;2004-11-14 14:00;METAR CYYG 141400Z 04016G22KT 2 1/2SM -SN BKN007 OVC011 01/01 A3025 RMK SF6SC2 /S02/ SLP246
CYYG;2004-11-14 15:00;METAR CYYG 141500Z 04022G29KT 3SM -SN BKN009 OVC015 01/01 A3024 RMK SF6SC2 SLP242
CYYG;2004-11-14 16:00;METAR CYYG 141600Z 04019G27KT 10SM -RASN SCT009 OVC015 02/01 A3020 RMK SF4SC4 /S03/ SLP230
CYYG;2004-11-14 17:00;METAR CYYG 141700Z 03019G27KT 12SM -SHRASN SCT010 OVC016 02/01 A3017 RMK SF3SC5 SLP220
CYYG;2004-11-14 18:00;METAR CYYG 141800Z 04025G35KT 15SM -SHRA FEW010 BKN016 OVC043 02/00 A3017 RMK SF2SC6SC1 SLP219
CYYG;2004-11-14 19:00;METAR CYYG 141900Z 04018G28KT 12SM -SHRA BKN016 OVC045 02/00 A3017 RMK SC6SC2 SLP219
CYYG;2004-11-14 20:00;METAR CYYG 142000Z 03023G29KT 10SM -SHRASN FEW010 BKN017 OVC032 02/01 A3017 RMK SC1SC6SC2 SLP218
CYYG;2004-11-14 21:00;METAR CYYG 142100Z 03023G30KT 10SM -SHRASN SCT011 BKN016 OVC030 02/01 A3017 RMK SC3SC4SC1 SLP217
CYYG;2004-11-14 22:00;METAR CYYG 142200Z 03018G29KT 15SM -SHRA SCT010 OVC020 02/01 A3017 RMK SC3SC5 SLP219
CYYG;2004-11-14 23:00;METAR CYYG 142300Z 03024G30KT 5SM -RASN BKN008 OVC012 02/01 A3017 RMK SF6SC2 SLP220
CYYG;2004-11-15 00:00;METAR CYYG 150000Z 03025G30KT 10SM -RASN BKN009 OVC014 02/01 A3019 RMK SF6SC2 SLP224
CYYG;2004-11-15 01:00;METAR CYYG 150100Z 03021G26KT 8SM -RASN OVC013 02/01 A3018 RMK SC8 SLP223
CYYG;2004-11-15 02:00;METAR CYYG 150200Z 03022G31KT 15SM -RASN FEW013 OVC017 02/00 A3019 RMK SC2SC6 SLP225
CYYG;2004-11-15 03:00;METAR CYYG 150300Z 03022G29KT 15SM OVC018 02/00 A3018 RMK SC8 SLP223
CYYG;2004-11-15 04:00;METAR CYYG 150400Z 02023G29KT 10SM -SHRA BKN015 OVC020 02/00 A3018 RMK SC6SC2 SLP222
CYYG;2004-11-15 05:00;METAR CYYG 150500Z 02021G27KT 10SM -SHRA OVC015 02/00 A3019 RMK SC8 SLP225
CYYG;2004-11-15 06:00;METAR CYYG 150600Z 01020G30KT 15SM -SHRA BKN010 OVC016 01/00 A3019 RMK SF5SC3 SLP226
CYYG;2004-11-15 07:00;METAR CYYG 150700Z 02019G26KT 15SM -SHSN OVC019 01/M00 A3020 RMK SC8 SLP230
CYYG;2004-11-15 08:00;METAR CYYG 150800Z 02023G29KT 15SM BKN018 OVC025 02/M01 A3021 RMK SC5SC3 SLP232
CYYG;2004-11-15 09:00;METAR CYYG 150900Z 02020G27KT 15SM BKN019 OVC041 01/M02 A3021 RMK SC6SC2 SLP233
CYYG;2004-11-15 10:00;METAR CYYG 151000Z 02015G20KT 15SM -SHSN BKN019 OVC035 01/M02 A3022 RMK SC6SC2 SLP236
CYYG;2004-11-15 11:00;METAR CYYG 151100Z 02016G22KT 15SM -SHSN BKN020 OVC044 02/M02 A3023 RMK SC6SC2 SLP239
CYYG;2004-11-15 12:00;METAR CYYG 151200Z 02014G20KT 15SM BKN022 OVC044 02/M02 A3024 RMK SC7SC1 SLP242
CYYG;2004-11-15 13:00;METAR CYYG 151300Z 02015G20KT 15SM BKN021 OVC044 02/M02 A3025 RMK SC7SC1 SLP245
CYYG;2004-11-15 14:00;METAR CYYG 151400Z 02015G20KT 15SM OVC029 02/M02 A3025 RMK SC8 SLP244
CYYG;2004-11-15 15:00;METAR CYYG 151500Z 01012G19KT 15SM OVC021 02/M01 A3024 RMK SC8 SLP241
CYYG;2004-11-15 16:00;METAR CYYG 151600Z 01015G20KT 15SM OVC022 03/M02 A3022 RMK SC8 SLP234
CYYG;2004-11-15 17:00;METAR CYYG 151700Z 02016G22KT 15SM OVC018 03/M01 A3021 RMK SC8 SLP231
CYYG;2004-11-15 18:00;METAR CYYG 151800Z 02015G22KT 15SM BKN022 OVC100 03/M01 A3020 RMK SC7AC1 SHSN DIST W-N SLP228
CYYG;2004-11-15 19:00;METAR CYYG 151900Z 36014G25KT 15SM OVC023 02/M02 A3020 RMK SC8 SLP229
CYYG;2004-11-15 20:00;METAR CYYG 152000Z 01015KT 15SM OVC021 02/M02 A3021 RMK SC8 SLP231
CYYG;2004-11-15 21:00;METAR CYYG 152100Z 02014G19KT 15SM OVC021 02/M02 A3021 RMK SC8 SLP231
CYYG;2004-11-15 22:00;METAR CYYG 152200Z 01012G20KT 15SM -SHSN OVC022 02/M02 A3022 RMK SC8 SLP234
CYYG;2004-11-15 23:00;METAR CYYG 152300Z 02015G22KT 15SM -SHSN OVC016 02/M01 A3022 RMK SC8
CYYG;2004-11-16 00:00;METAR CYYG 160000Z 01017G24KT 15SM -SHSN OVC022 02/M02 A3021 RMK SC8 SLP232
CYYG;2004-11-16 01:00;METAR CYYG 160100Z 01014G24KT 15SM -SHSN OVC025 02/M03 A3021 RMK SC8 SLP231
CYYG;2004-11-16 02:00;METAR CYYG 160200Z 02016G22KT 15SM -SHSN OVC027 01/M04 A3020 RMK SC8 SLP228
CYYG;2004-11-16 03:00;METAR CYYG 160300Z 02016G24KT 15SM OVC029 01/M04 A3019 RMK SC8 SLP226
CYYG;2004-11-16 04:00;METAR CYYG 160400Z 02016G21KT 15SM OVC029 01/M04 A3019 RMK SC8 SLP226
CYYG;2004-11-16 05:00;METAR CYYG 160500Z 01015G24KT 15SM OVC027 01/M04 A3018 RMK SC8 SLP222
CYYG;2004-11-16 06:00;METAR CYYG 160600Z 02017G22KT 15SM OVC025 01/M04 A3017 RMK SC8 SLP218
CYYG;2004-11-16 07:00;METAR CYYG 160700Z 01015G25KT 15SM OVC029 01/M04 A3016 RMK SC8 SLP216
CYYG;2004-11-16 08:00;METAR CYYG 160800Z 36017KT 15SM OVC027 01/M04 A3016 RMK SC8 SLP216
CYYG;2004-11-16 09:00;METAR CYYG 160900Z 36014G22KT 15SM OVC025 00/M04 A3016 RMK SC8 SLP214
CYYG;2004-11-16 10:00;METAR CYYG 161000Z 36017G22KT 15SM OVC027 01/M05 A3015 RMK SC8 SLP212
CYYG;2004-11-16 11:00;METAR CYYG 161100Z 36018G29KT 15SM OVC025 01/M04 A3014 RMK SC8 SLP210
CYYG;2004-11-16 12:00;METAR CYYG 161200Z 36018G27KT 15SM OVC026 01/M04 A3016 RMK SC8 SLP215
CYYG;2004-11-16 13:00;METAR CYYG 161300Z 01018G27KT 15SM OVC023 01/M04 A3016 RMK SC8 SLP216
CYYG;2004-11-16 14:00;METAR CYYG 161400Z 01015G26KT 15SM -RA OVC024 00/M05 A3017 RMK SC8 SLP217
CYYG;2004-11-16 15:00;METAR CYYG 161500Z 02020G27KT 15SM -RA OVC023 01/M04 A3016 RMK SC8 PCPN VRY LGT SLP215
CYYG;2004-11-16 16:00;METAR CYYG 161600Z 01016G27KT 15SM -RA OVC024 01/M04 A3013 RMK SC8 SLP206
CYYG;2004-11-16 17:00;METAR CYYG 161700Z 36018G28KT 10SM -SHRASN OVC023 01/M03 A3013 RMK SC8 SLP204
CYYG;2004-11-16 18:00;METAR CYYG 161800Z 36014G28KT 12SM -SHRASNGS OVC025 01/M04 A3012 RMK SC8 SLP203
CYYG;2004-11-16 19:00;METAR CYYG 161900Z 36012G24KT 10SM -SHRASN OVC023 01/M03 A3013 RMK SC8
CYYG;2004-11-16 20:00;METAR CYYG 162000Z 36017G26KT 12SM -SHRA OVC021 00/M03 A3012 RMK SC8 SLP202
CYYG;2004-11-16 21:00;METAR CYYG 162100Z 01016G24KT 12SM -SHRA OVC020 00/M03 A3014 RMK SC8 SLP207
CYYG;2004-11-16 22:00;METAR CYYG 162200Z 02018G26KT 12SM -SHRA OVC024 00/M05 A3014 RMK SC8 SLP208
CYYG;2004-11-16 23:00;METAR CYYG 162300Z 36017G26KT 10SM -SHRASN OVC022 00/M04 A3015 RMK SC8 SLP211
CYYG;2004-11-17 00:00;METAR CYYG 170000Z 36020G31KT 12SM -SHRASN OVC024 00/M05 A3014 RMK SC8 SLP209
CYYG;2004-11-17 01:00;METAR CYYG 170100Z 36017G26KT 15SM OVC025 01/M04 A3012 RMK SC8 SLP202
CYYG;2004-11-17 02:00;METAR CYYG 170200Z 36014G25KT 15SM OVC024 01/M05 A3011 RMK SC8 SLP199
CYYG;2004-11-17 03:00;METAR CYYG 170300Z 36012G26KT 15SM OVC023 M00/M05 A3010 RMK SC8 SLP195
CYYG;2004-11-17 04:00;METAR CYYG 170400Z 36017G26KT 15SM OVC023 M01/M05 A3010 RMK SC8 SLP194
CYYG;2004-11-17 05:00;METAR CYYG 170500Z 36016G27KT 15SM OVC021 M00/M05 A3009 RMK SC8 SLP190
CYYG;2004-11-17 06:00;METAR CYYG 170600Z 36018G25KT 15SM OVC024 M00/M05 A3009 RMK SC8 SLP192
CYYG;2004-11-17 07:00;METAR CYYG 170700Z 36016G25KT 15SM OVC020 M00/M04 A3009 RMK SC8 SLP192
CYYG;2004-11-17 08:00;METAR CYYG 170800Z 35011G20KT 15SM OVC018 M00/M04 A3009 RMK SC8 SLP190
CYYG;2004-11-17 09:00;METAR CYYG 170900Z 36014G21KT 15SM OVC017 M00/M03 A3008 RMK SC8 SLP188
CYYG;2004-11-17 10:00;METAR CYYG 171000Z 36015G24KT 10SM -SHSN OVC016 00/M02 A3008 RMK SC8 SLP188
CYYG;2004-11-17 11:00;METAR CYYG 171100Z 35014G21KT 6SM -SHSN OVC020 00/M02 A3009 RMK SC8 SLP191
CYYG;2004-11-17 12:00;METAR CYYG 171200Z 35013G22KT 3SM -SHSN OVC018 01/M01 A3010 RMK SC8 VIS VRB 1-6 SLP196
CYYG;2004-11-17 13:00;METAR CYYG 171300Z 35012G20KT 3SM -SHSN OVC015 01/M01 A3010 RMK SC8 VIS VRB
CYYG;2004-11-17 14:00;METAR CYYG 171400Z 35011G22KT 3SM -SHSN FEW009 OVC020 01/M00 A3010 RMK SF2SC6 VIS VRB 1-6 SLP196
CYYG;2004-11-17 15:00;METAR CYYG 171500Z 36012G19KT 3SM -SHSN BKN010 OVC030 01/00 A3010 RMK SC6SC2 VIS VRB 1-6 SLP195
CYYG;2004-11-17 16:00;METAR CYYG 171600Z 35015G21KT 2SM -SHSN BKN008 OVC030 01/00 A3009 RMK SC6SC2 VIS VRB 1-3 SLP191
CYYG;2004-11-17 17:00;METAR CYYG 171700Z 35014G20KT 2SM -SHSN BKN008 OVC030 01/00 A3008 RMK SC6SC2 VIS VRB 1-3 SLP188
CYYG;2004-11-17 18:00;METAR CYYG 171800Z 36017G22KT 4SM -SHSN BKN008 BKN028 01/00 A3008 RMK SC5SC2 VIS SW 10 SLP187
CYYG;2004-11-17 19:00;METAR CYYG 171900Z 35011G21KT 12SM VCSH FEW008 OVC015 02/M00 A3008 RMK SC1SC7 SLP187
CYYG;2004-11-17 20:00;METAR CYYG 172000Z 36012G18KT 15SM OVC016 01/M01 A3009 RMK SC8 SLP190
CYYG;2004-11-17 21:00;METAR CYYG 172100Z 36014G20KT 15SM OVC018 02/M01 A3010 RMK SC8 SLP195
CYYG;2004-11-17 22:00;METAR CYYG 172200Z 35015G20KT 5SM -SG OVC016 01/M01 A3010 RMK SC8 SLP196
CYYG;2004-11-17 23:00;METAR CYYG 172300Z 35011G20KT 10SM -SHSN SCT014 OVC028 01/M01 A3011 RMK SC3SC5 SLP197
CYYG;2004-11-18 00:00;METAR CYYG 180000Z 35015G21KT 15SM OVC020 01/M01 A3011 RMK SC8 SLP197
CYYG;2004-11-18 01:00;METAR CYYG 180100Z 36013KT 8SM -SHSN OVC022 01/M01 A3011 RMK SC8 SLP198
CYYG;2004-11-18 02:00;METAR CYYG 180200Z 36011G17KT 8SM -SHSN OVC025 01/M01 A3010 RMK SC8 SLP195
CYYG;2004-11-18 03:00;METAR CYYG 180300Z 35009G15KT 10SM -SHSN OVC027 01/M01 A3009 RMK SC8 SLP191
CYYG;2004-11-18 04:00;METAR CYYG 180400Z 36012G17KT 10SM -SHSN OVC021 02/M01 A3008 RMK SC8 SLP188
CYYG;2004-11-18 05:00;METAR CYYG 180500Z 35009KT 15SM OVC020 02/M01 A3006 RMK SC8 SLP182
CYYG;2004-11-18 06:00;METAR CYYG 180600Z 35007KT 15SM BKN020 01/M01 A3005 RMK SC5 SLP177
CYYG;2004-11-18 07:00;METAR CYYG 180700Z 34008KT 15SM BKN022 01/M02 A3005 RMK SC6 SLP177
CYYG;2004-11-18 08:00;METAR CYYG 180800Z 35008KT 15SM BKN022 02/M02 A3004 RMK SC6 SLP176
CYYG;2004-11-18 09:00;METAR CYYG 180900Z 35008KT 15SM BKN023 02/M02 A3004 RMK SC7 SLP176
CYYG;2004-11-18 10:00;METAR CYYG 181000Z 36010KT 15SM OVC024 02/M02 A3004 RMK SC8 SLP175
CYYG;2004-11-18 11:00;METAR CYYG 181100Z 36007KT 15SM BKN022 02/M02 A3005 RMK SC7 SLP178
CYYG;2004-11-18 12:00;METAR CYYG 181200Z 36008KT 15SM BKN020 02/M02 A3007 RMK SC7 SLP184
CYYG;2004-11-18 13:00;METAR CYYG 181300Z 36011KT 15SM BKN022 03/M02 A3007 RMK SC7 SLP184
CYYG;2004-11-18 14:00;METAR CYYG 181400Z 36009G16KT 15SM BKN024 03/M02 A3006 RMK SC7 SLP183
CYYG;2004-11-18 15:00;METAR CYYG 181500Z 35010KT 15SM BKN022 BKN100 03/M01 A3005 RMK SC7AC1 SLP178
CYYG;2004-11-18 16:00;METAR CYYG 181600Z 34011G16KT 15SM BKN022 BKN100 04/M02 A3004 RMK SC7AC1 SLP174
CYYG;2004-11-18 17:00;METAR CYYG 181700Z 35009KT 15SM FEW022 FEW170 SCT300 04/M01 A3002 RMK SC1AC1CI0 SLP167
CYYG;2004-11-18 18:00;METAR CYYG 181800Z 36010KT 15SM FEW025 FEW170 FEW300 04/M02 A3002 RMK SC2AC1CI1 SLP168
CYYG;2004-11-18 19:00;METAR CYYG 181900Z 35006G15KT 15SM FEW025 FEW170 03/M02 A3002 RMK SC2AC1 SLP167
CYYG;2004-11-18 20:00;METAR CYYG 182000Z 34007KT 15SM FEW023 03/M02 A3002 RMK SC2 SLP169
CYYG;2004-11-18 21:00;METAR CYYG 182100Z 34004KT 15SM FEW023 01/M02 A3002 RMK SC1 SLP168
CYYG;2004-11-18 22:00;METAR CYYG 182200Z 30005KT 15SM FEW023 00/M02 A3002 RMK SC1 SLP169
CYYG;2004-11-18 23:00;METAR CYYG 182300Z 31004KT 15SM FEW023 M00/M02 A3003 RMK SC1 SLP170
CYYG;2004-11-19 00:00;METAR CYYG 190000Z 31004KT 15SM SKC M00/M02 A3002 RMK SLP168
CYYG;2004-11-19 01:00;METAR CYYG 190100Z 31004KT 15SM SKC M01/M03 A3002 RMK SLP167
CYYG;2004-11-19 02:00;METAR CYYG 190200Z 30003KT 15SM SKC M01/M03 A3002 RMK SLP167
CYYG;2004-11-19 03:00;METAR CYYG 190300Z 26005KT 15SM SKC M01/M03 A3000 RMK SLP162
CYYG;2004-11-19 04:00;METAR CYYG 190400Z 26004KT 15SM FEW052 M00/M03 A3001 RMK SC2 SLP163
CYYG;2004-11-19 05:00;METAR CYYG 190500Z 26005KT 15SM SCT053 00/M04 A2998 RMK SC4 SLP154
CYYG;2004-11-19 06:00;METAR CYYG 190600Z 24003KT 15SM BKN047 01/M03 A2997 RMK SC5 SLP152
CYYG;2004-11-19 07:00;METAR CYYG 190700Z 24004KT 15SM BKN046 00/M02 A2996 RMK SC6 SLP149
CYYG;2004-11-19 08:00;METAR CYYG 190800Z 22009KT 15SM OVC048 01/M02 A2995 RMK SC8 SLP144
CYYG;2004-11-19 09:00;METAR CYYG 190900Z 21006KT 15SM OVC050 01/M03 A2994 RMK SC8 SLP140
CYYG;2004-11-19 10:00;METAR CYYG 191000Z 21006KT 15SM OVC053 02/M03 A2993 RMK SC8 SLP137
CYYG;2004-11-19 11:00;METAR CYYG 191100Z 22006KT 15SM BKN053 BKN065 02/M03 A2992 RMK SC5SC2 SLP134
CYYG;2004-11-19 12:00;METAR CYYG 191200Z 22007KT 15SM BKN047 03/M01 A2990 RMK SC7 SLP126
CYYG;2004-11-19 13:00;METAR CYYG 191300Z 22007KT 15SM OVC036 04/02 A2988 RMK SC8 SLP121
CYYG;2004-11-19 14:00;METAR CYYG 191400Z 23007KT 15SM OVC033 05/02 A2987 RMK SC8 SLP118
CYYG;2004-11-19 15:00;METAR CYYG 191500Z 25012KT 2SM -SHRA BR BKN007 OVC011 05/04 A2986 RMK SF6SC2 SLP114
CYYG;2004-11-19 16:00;METAR CYYG 191600Z 27008KT 12SM FEW007 BKN031 BKN064 06/05 A2984 RMK SF2SC4SC2 SLP106
CYYG;2004-11-19 17:00;METAR CYYG 191700Z 28010KT 15SM FEW007 SCT040 BKN060 06/03 A2983 RMK SF1SC2SC4 SLP103
CYYG;2004-11-19 18:00;METAR CYYG 191800Z 29010KT 15SM FEW030 BKN055 07/03 A2982 RMK SC2SC6 SLP100
CYYG;2004-11-19 19:00;METAR CYYG 191900Z 30010KT 15SM FEW017 BKN054 07/02 A2982 RMK SC2SC6 SLP101
CYYG;2004-11-19 20:00;METAR CYYG 192000Z 27004KT 15SM FEW025 BKN047 06/02 A2983 RMK SC2SC5 SLP103
CYYG;2004-11-19 21:00;METAR CYYG 192100Z 29008KT 15SM FEW032 BKN051 06/M00 A2984 RMK SC2SC6 SLP105
CYYG;2004-11-19 22:00;METAR CYYG 192200Z 29007KT 15SM FEW032 BKN060 05/M02 A2984 RMK SC1SC6
CYYG;2004-11-19 23:00;METAR CYYG 192300Z 28007KT 15SM OVC060 04/M02 A2984 RMK SC8 SLP106
CYYG;2004-11-20 00:00;METAR CYYG 200000Z 27005KT 15SM BKN060 03/M01 A2984 RMK SC7 SLP107
CYYG;2004-11-20 01:00;METAR CYYG 200100Z 27006KT 15SM SCT060 OVC070 04/M01 A2984 RMK SC4AC4 SLP106
CYYG;2004-11-20 02:00;METAR CYYG 200200Z 29009KT 15SM FEW060 OVC072 04/M00 A2983 RMK SC2AC6 SLP103
CYYG;2004-11-20 03:00;METAR CYYG 200300Z 30009KT 15SM FEW034 OVC070 04/00 A2983 RMK SC2AC6 SLP104
CYYG;2004-11-20 04:00;METAR CYYG 200400Z 29010KT 15SM OVC070 04/M00 A2984 RMK AC8 SLP105
CYYG;2004-11-20 05:00;METAR CYYG 200500Z 31016G22KT 15SM FEW030 OVC060 04/M00 A2984 RMK SC2SC6
CYYG;2004-11-20 06:00;METAR CYYG 200600Z 30012G19KT 15SM BKN023 OVC042 03/01 A2985 RMK SC5SC3 SLP109
CYYG;2004-11-20 07:00;METAR CYYG 200700Z 31009G15KT 15SM -SHRA OVC023 03/M00 A2986 RMK SC8 SLP112
CYYG;2004-11-20 08:00;METAR CYYG 200800Z 29011G16KT 15SM -SHRA OVC024 03/M00 A2986 RMK SC8 SLP113
CYYG;2004-11-20 09:00;METAR CYYG 200900Z 30011KT 15SM -SHRA OVC025 03/M01 A2987 RMK SC8 SLP118
CYYG;2004-11-20 10:00;METAR CYYG 201000Z 30011G17KT 15SM -SHRA OVC023 03/00 A2989 RMK SC8 SLP123
CYYG;2004-11-20 11:00;METAR CYYG 201100Z 31011G17KT 15SM -SHRA BKN018 OVC040 03/01 A2992 RMK SC7SC1 SLP132
CYYG;2004-11-20 12:00;METAR CYYG 201200Z 31009KT 15SM -SHRA BKN018 OVC055 03/01 A2994 RMK SC7SC1 SLP142
CYYG;2004-11-20 13:00;METAR CYYG 201300Z 32015G21KT 15SM -SHRA BKN020 BKN040 04/01 A2997 RMK SC6SC1 SLP150
CYYG;2004-11-20 14:00;METAR CYYG 201400Z 35013G20KT 15SM -SHRA FEW013 BKN045 04/01 A2999 RMK SC2SC5 SLP157
CYYG;2004-11-20 15:00;METAR CYYG 201500Z 34012G20KT 15SM -SHRA OVC018 04/01 A3000 RMK SC8 TCU ASOCTD SLP162
CYYG;2004-11-20 16:00;METAR CYYG 201600Z 33016G27KT 15SM -SHRASN BKN018 OVC035 03/01 A3001 RMK SC6SC2 TCU ASOCTD SLP165
CYYG;2004-11-20 17:00;METAR CYYG 201700Z 34014G22KT 7SM -SHRASN BKN012 OVC035 03/01 A3002 RMK SC7SC1 TCU ASOCTD SLP168
CYYG;2004-11-20 18:00;METAR CYYG 201800Z 35013G25KT 10SM -SHRASN FEW012 OVC020 04/01 A3004 RMK CU2SC6 SLP174
CYYG;2004-11-20 18:21;SPECI CYYG 201821Z 35014G22KT 15SM OVC018 RMK SC8
CYYG;2004-11-20 19:00;METAR CYYG 201900Z 34013G22KT 15SM OVC018 04/00 A3007 RMK SC8 SLP184
CYYG;2004-11-20 20:00;METAR CYYG 202000Z 36011G20KT 15SM OVC015 03/01 A3010 RMK SC8 SLP195
CYYG;2004-11-20 20:33;SPECI CYYG 202033Z 35012G18KT 10SM -SHRA OVC015 RMK SC8
CYYG;2004-11-20 21:00;METAR CYYG 202100Z 35011G18KT 2 1/2SM -SHRA BR FEW005 OVC010 03/02 A3012 RMK SF2SC6 SLP203 SLP211 SLP216 SLP225
CYYG;2004-11-21 01:00;METAR CYYG 210100Z 02010G17KT 12SM OVC021 04/02 A3020 RMK SC8 SLP227
CYYG;2004-11-21 02:00;METAR CYYG 210200Z 36010KT 12SM -SHRA BKN026 04/03 A3020 RMK SC7 SLP230
CYYG;2004-11-21 03:00;METAR CYYG 210300Z 36010KT 12SM OVC028 04/03 A3021 RMK SC8 SLP231
CYYG;2004-11-21 04:00;METAR CYYG 210400Z 01008KT 15SM BKN030 04/02 A3022 RMK SC7 SLP234
CYYG;2004-11-21 05:00;METAR CYYG 210500Z 01005KT 15SM FEW030 03/01 A3022 RMK SC2 SLP235
CYYG;2004-11-21 06:00;METAR CYYG 210600Z 01006KT 15SM FEW030 02/01 A3023 RMK SC2 SLP238
CYYG;2004-11-21 07:00;METAR CYYG 210700Z 26002KT 15SM BKN029 02/01 A3025 RMK SC5 SLP245
CYYG;2004-11-21 08:00;METAR CYYG 210800Z 01005KT 15SM BKN029 02/01 A3024 RMK SC5 SLP242
CYYG;2004-11-21 09:00;METAR CYYG 210900Z 31002KT 15SM BKN018 03/01 A3025 RMK SC6 SLP247
CYYG;2004-11-21 10:00;METAR CYYG 211000Z 32003KT 15SM BKN019 02/01 A3026 RMK SC6 SLP250
CYYG;2004-11-21 11:00;METAR CYYG 211100Z 33004KT 15SM BKN017 02/00 A3027 RMK SC5 SLP252
CYYG;2004-11-21 12:00;METAR CYYG 211200Z 35004KT 15SM BKN020 BKN310 02/00 A3028 RMK SC7CI1 SLP256
CYYG;2004-11-21 13:00;METAR CYYG 211300Z 02004KT 15SM BKN020 BKN310 03/01 A3028 RMK SC6CI0 SLP257
CYYG;2004-11-21 14:00;METAR CYYG 211400Z 02007KT 15SM BKN019 BKN310 04/00 A3029 RMK SC6CI0 SLP259
CYYG;2004-11-21 15:00;METAR CYYG 211500Z 03005KT 15SM BKN020 BKN310 04/00 A3029 RMK SC6CI0 SLP258
CYYG;2004-11-21 16:00;METAR CYYG 211600Z 02006KT 15SM SCT022 BKN310 04/01 A3027 RMK SC4CI1 SLP252
CYYG;2004-11-21 17:00;METAR CYYG 211700Z 07002KT 15SM FEW022 BKN310 05/00 A3026 RMK SC1CI2 SLP248
CYYG;2004-11-21 18:00;METAR CYYG 211800Z 01003KT 15SM FEW025 FEW230 BKN290 05/M00 A3024 RMK SC1CC1CI1 SLP242
CYYG;2004-11-21 19:00;METAR CYYG 211900Z 07003KT 15SM FEW025 FEW200 BKN290 05/M00 A3022 RMK SC1CC1CI2 SLP236
CYYG;2004-11-21 20:00;METAR CYYG 212000Z 09002KT 15SM FEW025 FEW200 BKN290 04/M00 A3022 RMK
CYYG;2004-11-21 21:00;METAR CYYG 212100Z 05003KT 15SM FEW025 FEW200 BKN270 02/M01 A3022 RMK SC1CC1CI2 SLP234
CYYG;2004-11-21 22:00;METAR CYYG 212200Z 09003KT 15SM BKN015 OVC270 01/M01 A3022 RMK SC6CI0 SLP234
CYYG;2004-11-21 23:00;METAR CYYG 212300Z 11002KT 15SM SCT015 BKN170 01/M01 A3022 RMK SC4AC2 SLP235
CYYG;2004-11-22 00:00;METAR CYYG 220000Z 17003KT 15SM SCT015 BKN170 01/M01 A3021 RMK SC4AC3 SLP233
CYYG;2004-11-22 01:00;METAR CYYG 220100Z 15002KT 15SM SCT015 OVC170 01/M01 A3020 RMK SC3AC5 SLP229
CYYG;2004-11-22 02:00;METAR CYYG 220200Z 16002KT 15SM FEW015 OVC160 00/M01 A3019 RMK SC2AC6 SLP225
CYYG;2004-11-22 03:00;METAR CYYG 220300Z 13003KT 15SM FEW015 OVC150 00/M01 A3017 RMK SC2AC5 SLP218
CYYG;2004-11-22 04:00;METAR CYYG 220400Z 14002KT 15SM FEW089 BKN160 M00/M01 A3016 RMK AC2AC3 SLP215
CYYG;2004-11-22 05:00;METAR CYYG 220500Z 15005KT 15SM BKN090 OVC160 01/M00 A3013 RMK AC6AC2 SLP205
CYYG;2004-11-22 06:00;METAR CYYG 220600Z 21003KT 15SM BKN090 OVC160 02/01 A3012 RMK AC7AC1 SLP203
CYYG;2004-11-22 07:00;METAR CYYG 220700Z 21004KT 15SM OVC058 03/02 A3011 RMK SC8 SLP197
CYYG;2004-11-22 08:00;METAR CYYG 220800Z 21004KT 15SM OVC052 03/01 A3009 RMK SC8 SLP192
CYYG;2004-11-22 09:00;METAR CYYG 220900Z 20006KT 15SM BKN052 BKN088 03/02 A3007 RMK SC5AC2 SLP186
CYYG;2004-11-22 10:00;METAR CYYG 221000Z 21006KT 15SM BKN029 OVC050 03/02 A3006 RMK SC6SC2 SLP182
CYYG;2004-11-22 10:10;SPECI CYYG 221010Z 22008KT 15SM SCT010 OVC014 RMK SC4SC4 SLP179
CYYG;2004-11-22 17:00;METAR CYYG 221700Z 22008KT 5SM BR OVC003 04/04 A2998 RMK SF8 SLP153
CYYG;2004-11-22 18:00;METAR CYYG 221800Z 25005KT 10SM BKN005 OVC008 05/05 A2996 RMK SF6SF2 SLP146
CYYG;2004-11-22 18:09;SPECI CYYG 221809Z 24004KT 15SM FEW005 OVC008 RMK SF2SF6
CYYG;2004-11-22 18:48;SPECI CYYG 221848Z 23004KT 15SM FEW008 SCT013 OVC037 RMK SF2SC2SC4
CYYG;2004-11-22 19:00;METAR CYYG 221900Z 24005KT 15SM FEW008 OVC038 05/04 A2995 RMK SF2SC6 SLP143
CYYG;2004-11-22 20:00;METAR CYYG 222000Z 22005KT 15SM FEW011 OVC042 05/04 A2995 RMK SF2SC6
CYYG;2004-11-22 21:00;METAR CYYG 222100Z 25005KT 15SM FEW011 BKN035 OVC090 05/03 A2994 RMK SF2SC4AC2 SLP142
CYYG;2004-11-22 22:00;METAR CYYG 222200Z 27004KT 15SM SCT025 OVC048 04/02 A2994 RMK SC3SC5 SLP142
CYYG;2004-11-22 23:00;METAR CYYG 222300Z 26007KT 15SM FEW025 SCT048 OVC070 04/02 A2995 RMK SC2SC2AS5 SLP143
CYYG;2004-11-23 00:00;METAR CYYG 230000Z 26006KT 15SM FEW025 BKN051 OVC070 04/02 A2995 RMK SC2SC4AS2 SLP143
CYYG;2004-11-23 01:00;METAR CYYG 230100Z 28006KT 15SM SCT029 03/00 A2994 RMK SC3 SLP142
CYYG;2004-11-23 02:00;METAR CYYG 230200Z 26005KT 15SM FEW029 SCT053 03/01 A2994 RMK SC1SC2 SLP141
CYYG;2004-11-23 03:00;METAR CYYG 230300Z 25005KT 15SM FEW053 02/00 A2994 RMK SC2 SLP141
CYYG;2004-11-23 04:00;METAR CYYG 230400Z 27005KT 15SM FEW053 01/M01 A2994 RMK SC2 SLP141
CYYG;2004-11-23 05:00;METAR CYYG 230500Z 25005KT 15SM BKN060 01/M01 A2994 RMK SC6 SLP142
CYYG;2004-11-23 06:00;METAR CYYG 230600Z 26005KT 15SM BKN062 01/M00 A2995 RMK SC6 SLP145
CYYG;2004-11-23 07:00;METAR CYYG 230700Z 26005KT 15SM SCT061 01/M00 A2996 RMK SC4 SLP148
CYYG;2004-11-23 08:00;METAR CYYG 230800Z 29009KT 15SM FEW061 01/M01 A2996 RMK SC1 SLP149
CYYG;2004-11-23 09:00;METAR CYYG 230900Z 29008KT 15SM FEW020 01/M02 A2998 RMK SC2 SLP154
CYYG;2004-11-23 10:00;METAR CYYG 231000Z 29010KT 15SM FEW022 00/M03 A3000 RMK SC2 SLP162
CYYG;2004-11-23 11:00;METAR CYYG 231100Z 29009KT 15SM FEW022 M01/M04 A3003 RMK SC1 SLP171
CYYG;2004-11-23 12:00;METAR CYYG 231200Z 29011KT 15SM FEW022 M00/M04 A3005 RMK SC1 SLP177
CYYG;2004-11-23 13:00;METAR CYYG 231300Z 29010KT 15SM FEW022 00/M04 A3007 RMK SC1 SLP184
CYYG;2004-11-23 14:00;METAR CYYG 231400Z 31011KT 15SM FEW022 01/M04 A3008 RMK SC1 SLP187
CYYG;2004-11-23 15:00;METAR CYYG 231500Z 30009KT 15SM FEW022 02/M05 A3009 RMK SC2 SLP190
CYYG;2004-11-23 16:00;METAR CYYG 231600Z 31009KT 15SM FEW025 03/M06 A3008 RMK SC1 SLP188
CYYG;2004-11-23 17:00;METAR CYYG 231700Z 31010G18KT 15SM FEW025 03/M07 A3008 RMK SC1 SLP187
CYYG;2004-11-23 18:00;METAR CYYG 231800Z 30011G16KT 15SM FEW025 03/M08 A3009 RMK SC1 SLP190
CYYG;2004-11-23 19:00;METAR CYYG 231900Z 29012KT 15SM FEW025 FEW260 03/M08 A3010 RMK SC1CI1 SLP194
CYYG;2004-11-23 20:00;METAR CYYG 232000Z 29007KT 15SM FEW025 FEW260 02/M08 A3012 RMK SC1CI0 SLP200
CYYG;2004-11-23 21:00;METAR CYYG 232100Z 29004KT 15SM FEW260 00/M07 A3014 RMK CI0 SLP207
CYYG;2004-11-23 22:00;METAR CYYG 232200Z 27004KT 15SM SKC M00/M08 A3015 RMK SLP211
CYYG;2004-11-23 23:00;METAR CYYG 232300Z 00000KT 15SM SKC M02/M07 A3016 RMK SLP215
CYYG;2004-11-24 00:00;METAR CYYG 240000Z 00000KT 15SM SKC M02/M07 A3017 RMK SLP220
CYYG;2004-11-24 01:00;METAR CYYG 240100Z 00000KT 15SM SKC M03/M07 A3018 RMK SLP224
CYYG;2004-11-24 02:00;METAR CYYG 240200Z 21004KT 15SM SKC M03/M06 A3018 RMK SLP224
CYYG;2004-11-24 03:00;METAR CYYG 240300Z 22004KT 15SM SKC 00/M06 A3019 RMK SLP226
CYYG;2004-11-24 04:00;METAR CYYG 240400Z 20005KT 15SM FEW300 M00/M04 A3019 RMK CI0 SLP226
CYYG;2004-11-24 05:00;METAR CYYG 240500Z 21005KT 15SM FEW300 00/M04 A3019 RMK CI0 SLP226
CYYG;2004-11-24 06:00;METAR CYYG 240600Z 22005KT 15SM FEW300 00/M03 A3020 RMK CI0 SLP228
CYYG;2004-11-24 07:00;METAR CYYG 240700Z 21005KT 15SM FEW300 00/M03 A3020 RMK CI0 SLP228
CYYG;2004-11-24 08:00;METAR CYYG 240800Z 20005KT 15SM FEW300 M01/M03 A3020 RMK CI0 SLP228
CYYG;2004-11-24 09:00;METAR CYYG 240900Z 20004KT 15SM FEW100 FEW300 M00/M02 A3020 RMK AC1CI0 SLP229
CYYG;2004-11-24 10:00;METAR CYYG 241000Z 20006KT 15SM FEW100 FEW300 M00/M02 A3020 RMK AC1CI0 SLP231
CYYG;2004-11-24 11:00;METAR CYYG 241100Z 18006KT 15SM FEW100 FEW300 M00/M02 A3021 RMK AC1CI0 SLP233
CYYG;2004-11-24 12:00;METAR CYYG 241200Z 18007KT 15SM FEW090 FEW280 01/M02 A3022 RMK AC1CI0 SLP236
CYYG;2004-11-24 13:00;METAR CYYG 241300Z 21010KT 15SM FEW090 FEW280 03/M03 A3022 RMK AC1CI0 SLP235
CYYG;2004-11-24 14:00;METAR CYYG 241400Z 20014KT 15SM FEW090 SCT280 05/M02 A3021 RMK AC1CI1
CYYG;2004-11-24 15:00;METAR CYYG 241500Z 20014G20KT 15SM FEW090 BKN280 05/M01 A3021 RMK AC1CI2 SLP232
CYYG;2004-11-24 16:00;METAR CYYG 241600Z 21013G18KT 15SM FEW090 BKN280 06/M00 A3019 RMK AC1CI2 SLP225
CYYG;2004-11-24 17:00;METAR CYYG 241700Z 20015KT 15SM FEW120 BKN280 07/01 A3017 RMK AC2CI3 SLP218
CYYG;2004-11-24 18:00;METAR CYYG 241800Z 20016KT 15SM FEW110 OVC280 06/M00 A3015 RMK AC2CI2 SLP213
CYYG;2004-11-24 19:00;METAR CYYG 241900Z 19013KT 15SM FEW110 OVC280 06/M00 A3016 RMK AC2CI3 SLP215
CYYG;2004-11-24 20:00;METAR CYYG 242000Z 18014KT 15SM FEW110 OVC280 05/01 A3015 RMK AC2CI3 SLP211
CYYG;2004-11-24 21:00;METAR CYYG 242100Z 19015KT 15SM BKN100 OVC280 06/00 A3018 RMK AC5CI2 SLP222
CYYG;2004-11-24 22:00;METAR CYYG 242200Z 19014KT 15SM BKN120 OVC280 05/01 A3017 RMK AC5CI2 SLP220
CYYG;2004-11-24 23:00;METAR CYYG 242300Z 19013KT 15SM SCT120 OVC280 05/01 A3016 RMK AC4CI4
CYYG;2004-11-25 00:00;METAR CYYG 250000Z 19014KT 15SM SCT120 OVC220 05/01 A3015 RMK AC3CI5 SLP212
CYYG;2004-11-25 01:00;METAR CYYG 250100Z 19014G19KT 15SM SCT120 OVC220 04/01 A3013 RMK AC4CI4 SLP205
CYYG;2004-11-25 02:00;METAR CYYG 250200Z 18012G17KT 15SM SCT120 OVC250 04/01 A3012 RMK AC4CI4 SLP201
CYYG;2004-11-25 03:00;METAR CYYG 250300Z 17011G19KT 15SM FEW120 OVC250 04/02 A3008 RMK AC2CI6 SLP189
CYYG;2004-11-25 04:00;METAR CYYG 250400Z 17016KT 15SM FEW120 OVC250 04/01 A3004 RMK AC2CI6 SLP173
CYYG;2004-11-25 05:00;METAR CYYG 250500Z 16014G19KT 15SM SCT098 OVC250 04/01 A3000 RMK AC4CI4 SLP162
CYYG;2004-11-25 06:00;METAR CYYG 250600Z 16016KT 15SM BKN100 OVC250 04/01 A2996 RMK AC6CI2 SLP145
CYYG;2004-11-25 07:00;METAR CYYG 250700Z 17017G24KT 15SM -SHRA BKN050 OVC100 05/03 A2991 RMK SC6AC2 SLP130
CYYG;2004-11-25 08:00;METAR CYYG 250800Z 16018G25KT 15SM -SHRA BKN060 OVC100 05/04 A2982 RMK SC6AC2 PRESFR SLP098
CYYG;2004-11-25 09:00;METAR CYYG 250900Z 16021G29KT 15SM -SHRA BKN053 OVC090 06/04 A2976 RMK SC6AC2 PRESFR SLP078
CYYG;2004-11-25 10:00;METAR CYYG 251000Z 16018G25KT 12SM -RA FEW018 BKN027 OVC055 06/05 A2972 RMK SC2SC5SC2 SLP065
CYYG;2004-11-25 11:00;METAR CYYG 251100Z 16017G24KT 10SM -RA BKN008 OVC027 07/07 A2966 RMK SC7SC1 PRESFR SLP045
CYYG;2004-11-25 12:00;METAR CYYG 251200Z 16019G31KT 12SM -RA BKN009 OVC014 09/08 A2961 RMK SC6SC2 SLP028
CYYG;2004-11-25 12:10;SPECI CYYG 251210Z 16021G30KT 15SM -RA SCT009 OVC013 RMK SC4SC4
CYYG;2004-11-25 13:00;METAR CYYG 251300Z 16018G25KT 15SM -RA OVC010 09/09 A2956 RMK SC8 SLP012
CYYG;2004-11-25 13:24;SPECI CYYG 251324Z 16017G24KT 4SM -RA BR SCT004 OVC009 RMK SC4SC4
CYYG;2004-11-25 13:45;SPECI CYYG 251345Z 17024G30KT 4SM -RA BR OVC004 RMK SF8
CYYG;2004-11-25 14:00;METAR CYYG 251400Z 17021G29KT 10SM -RA BKN004 OVC008 10/10 A2951 RMK SF5SC3 PRESFR SLP993
CYYG;2004-11-25 14:25;SPECI CYYG 251425Z 18020G28KT 15SM -RA SCT004 OVC017 RMK SF4SC4
CYYG;2004-11-25 15:00;METAR CYYG 251500Z 18019G28KT 15SM -RA FEW004 OVC018 12/12 A2948 RMK SF2SC6 SLP983
CYYG;2004-11-25 16:00;METAR CYYG 251600Z 18021G27KT 15SM -RA FEW004 OVC019 12/12 A2944 RMK SF2SC6 SLP971
CYYG;2004-11-25 17:00;METAR CYYG 251700Z 18020G26KT 15SM -SHRA FEW004 BKN025 OVC130 12/12 A2941 RMK SF1SC4AC3 SLP961
CYYG;2004-11-25 18:00;METAR CYYG 251800Z 18023KT 15SM FEW005 SCT025 OVC110 13/12 A2942 RMK SF1SC2AC5 SLP965
CYYG;2004-11-25 18:24;SPECI CYYG 251824Z 18022KT 10SM -SHRA FEW006 SCT030 OVC069 RMK SF1SC3AC4
CYYG;2004-11-25 19:00;METAR CYYG 251900Z 18022G28KT 15SM -SHRA FEW006 BKN028 OVC084 13/13 A2941 RERA RMK SF2SC3AC3 SLP960
CYYG;2004-11-25 20:00;METAR CYYG 252000Z 19017G29KT 15SM -SHRA FEW008 SCT030 OVC100 14/13 A2942 RMK SF1SC3AC4 SLP962
CYYG;2004-11-25 21:00;METAR CYYG 252100Z 18017KT 15SM -SHRA FEW020 OVC071 13/13 A2940 RMK SC2AC6 SLP957
CYYG;2004-11-25 22:00;METAR CYYG 252200Z 18019G28KT 15SM -SHRA BKN040 OVC070 13/12 A2936 RMK SC5AC3 SLP945
CYYG;2004-11-25 23:00;METAR CYYG 252300Z 18019G29KT 15SM -SHRA BKN037 OVC068 13/13 A2934 RMK SC5AC3 SLP938
CYYG;2004-11-26 00:00;METAR CYYG 260000Z 18017G27KT 12SM -SHRA BKN030 OVC055 13/12 A2928 RMK SC5SC3 CIG RAG PRESFR SLP915
CYYG;2004-11-26 01:00;METAR CYYG 260100Z 18020G28KT 12SM -SHRA BKN027 OVC055 13/13 A2924 RMK SC6SC2 RERA SLP902
CYYG;2004-11-26 02:00;METAR CYYG 260200Z 18021G27KT 15SM -SHRA BKN024 OVC060 13/13 A2919 RMK SC6SC2 SLP885
CYYG;2004-11-26 03:00;METAR CYYG 260300Z 19023G32KT 15SM -SHRA FEW012 BKN020 OVC100 14/13 A2915 RMK SC2SC6AC1 SLP872
CYYG;2004-11-26 04:00;METAR CYYG 260400Z 18021G31KT 15SM FEW012 BKN022 OVC058 13/11 A2912 RMK SC2SC5SC2 SLP860
CYYG;2004-11-26 05:00;METAR CYYG 260500Z 19022G30KT 15SM -SHRA FEW006 BKN022 OVC040 13/13 A2909 RMK SC2SC5SC2 SLP850
CYYG;2004-11-26 06:00;METAR CYYG 260600Z 19025G33KT 15SM -SHRA FEW006 BKN020 OVC080 14/12 A2907 RMK SF1SC6AC1 SLP844
CYYG;2004-11-26 07:00;METAR CYYG 260700Z 19026G35KT 15SM OVC031 13/10 A2906 RMK SC8 SLP841
CYYG;2004-11-26 08:00;METAR CYYG 260800Z 21023G31KT 15SM OVC034 12/10 A2910 RMK SC8 SLP856
CYYG;2004-11-26 09:00;METAR CYYG 260900Z 28017G27KT 15SM OVC015 08/06 A2920 RMK SC8 PRESRR SLP890
CYYG;2004-11-26 10:00;METAR CYYG 261000Z 27016G22KT 15SM SCT016 BKN025 OVC048 05/02 A2930 RMK SC3SC3SC2 PRESRR SLP922
CYYG;2004-11-26 11:00;METAR CYYG 261100Z 27017G27KT 15SM SCT016 OVC023 04/00 A2936 RMK SC3SC5 PRESRR SLP944
CYYG;2004-11-26 12:00;METAR CYYG 261200Z 26015G24KT 15SM BKN017 OVC022 03/00 A2942 RMK SC5SC3 PRESRR SLP963
CYYG;2004-11-26 12:07;SPECI CYYG 261207Z 26014KT 15SM -SHRASN OVC016 RMK SC8 VIS LWR W
CYYG;2004-11-26 12:26;SPECI CYYG 261226Z 27013G19KT 15SM OVC018 RMK SC8
CYYG;2004-11-26 13:00;METAR CYYG 261300Z 27017KT 10SM -SHSN BKN021 01/M02 A2947 RMK SC7 PRESRR SLP982
CYYG;2004-11-26 14:00;METAR CYYG 261400Z 27013G26KT 15SM BKN028 01/M04 A2953 RMK SC7 SLP001
CYYG;2004-11-26 15:00;METAR CYYG 261500Z 27022G30KT 15SM BKN030 00/M07 A2956 RMK SC6 SLP010
CYYG;2004-11-26 16:00;METAR CYYG 261600Z 28013G27KT 15SM BKN034 00/M06 A2959 RMK SC6 SLP020
CYYG;2004-11-26 17:00;METAR CYYG 261700Z 26015G22KT 15SM BKN036 M00/M07 A2962 RMK SC6 SLP031
CYYG;2004-11-26 18:00;METAR CYYG 261800Z 27015KT 15SM BKN031 M01/M07 A2964 RMK SC7 SLP038
CYYG;2004-11-26 19:00;METAR CYYG 261900Z 27013G18KT 15SM BKN038 M01/M08 A2968 RMK SC6 SLP052
CYYG;2004-11-26 20:00;METAR CYYG 262000Z 26014KT 15SM BKN040 M01/M09 A2971 RMK SC6 SLP063
CYYG;2004-11-26 21:00;METAR CYYG 262100Z 26014G19KT 15SM FEW040 M02/M10 A2977 RMK SC2 SLP081
CYYG;2004-11-26 22:00;METAR CYYG 262200Z 25015G24KT 15SM SCT045 M02/M10 A2979 RMK SC3 SLP091
CYYG;2004-11-26 23:00;METAR CYYG 262300Z 28018G25KT 15SM -SHSN BKN050 M02/M09 A2983 RMK SC7 SLP103
CYYG;2004-11-27 00:00;METAR CYYG 270000Z 26017G28KT 15SM -SHSN BKN035 BKN047 M02/M09 A2987 RMK CU5SC2 SLP117
CYYG;2004-11-27 01:00;METAR CYYG 270100Z 28015G24KT 15SM FEW035 M03/M10 A2990 RMK SC1 SLP127
CYYG;2004-11-27 02:00;METAR CYYG 270200Z 26012G19KT 15SM FEW035 M03/M10 A2993 RMK SC1 SLP136
CYYG;2004-11-27 03:00;METAR CYYG 270300Z 26011G16KT 15SM FEW034 M03/M09 A2994 RMK SC1 SLP142
CYYG;2004-11-27 04:00;METAR CYYG 270400Z 27014G19KT 15SM FEW032 M03/M09 A2996 RMK SC1 SLP147
CYYG;2004-11-27 05:00;METAR CYYG 270500Z 26014KT 15SM FEW032 M03/M09 A2998 RMK SC1 SLP155
CYYG;2004-11-27 06:00;METAR CYYG 270600Z 25009G16KT 15SM FEW032 M03/M09 A3002 RMK SC1 SLP168
CYYG;2004-11-27 07:00;METAR CYYG 270700Z 26012G17KT 15SM BKN034 M03/M09 A3006 RMK SC6 SLP183
CYYG;2004-11-27 08:00;METAR CYYG 270800Z 26013G19KT 15SM SCT034 M03/M08 A3009 RMK SC4 SLP193
CYYG;2004-11-27 09:00;METAR CYYG 270900Z 25011KT 15SM FEW034 M03/M09 A3013 RMK SC2 SLP207
CYYG;2004-11-27 10:00;METAR CYYG 271000Z 26009G15KT 15SM FEW035 M03/M09 A3017 RMK SC1 SLP218
CYYG;2004-11-27 11:00;METAR CYYG 271100Z 26010G17KT 15SM FEW027 M04/M09 A3020 RMK SC2 SLP230
CYYG;2004-11-27 12:00;METAR CYYG 271200Z 26013G19KT 15SM FEW027 M04/M09 A3024 RMK SC2 SLP243
CYYG;2004-11-27 13:00;METAR CYYG 271300Z 25012G17KT 15SM FEW027 M03/M08 A3028 RMK SC2 SLP255
CYYG;2004-11-27 14:00;METAR CYYG 271400Z 26013G20KT 15SM FEW027 M02/M08 A3031 RMK CU2 SLP265
CYYG;2004-11-27 15:00;METAR CYYG 271500Z 27013G20KT 15SM SCT027 M02/M09 A3033 RMK SC4 SLP275
CYYG;2004-11-27 16:00;METAR CYYG 271600Z 28016G22KT 15SM FEW034 M01/M10 A3033 RMK SC2 SLP275
CYYG;2004-11-27 17:00;METAR CYYG 271700Z 27012G17KT 15SM FEW034 M01/M09 A3036 RMK SC1 SLP282
CYYG;2004-11-27 18:00;METAR CYYG 271800Z 27012KT 15SM FEW034 M01/M09 A3038 RMK SC1 SLP290
CYYG;2004-11-27 19:00;METAR CYYG 271900Z 26008KT 15SM FEW034 FEW300 M00/M09 A3040 RMK SC1CI0 SLP297
CYYG;2004-11-27 20:00;METAR CYYG 272000Z 25007KT 15SM FEW034 FEW300 M00/M10 A3043 RMK SC1CI0 SLP308
CYYG;2004-11-27 21:00;METAR CYYG 272100Z 27004KT 15SM FEW034 FEW300 M02/M09 A3045 RMK SC1CI0 SLP315
CYYG;2004-11-27 22:00;METAR CYYG 272200Z 32002KT 15SM FEW300 M05/M09 A3048 RMK CI0 SLP323
CYYG;2004-11-27 23:00;METAR CYYG 272300Z 29007KT 15SM SKC M02/M09 A3051 RMK SLP334
CYEG;2004-08-15 00:00;METAR CYEG 150000Z 36008KT 8SM FEW040 FEW120 FEW250 23/15 A3010 RMK CF1AC1CI1 HZ SLP196 SLP196
CYEG;2004-08-15 01:00;METAR CYEG 150100Z 36005KT 8SM FEW130 SCT180 BKN250 22/15 A3010 RMK AC2AC1CI1 HZ SLP196 SLP195
CYEG;2004-08-15 03:00;METAR CYEG 150300Z 01002KT 10SM FEW080 FEW130 SCT250 19/15 A3011 RMK AC1AC1CI1 HZ TR HIER AC SLP198 TR HIER AC SLP198
CYEG;2004-08-15 04:00;METAR CYEG 150400Z 00000KT 10SM FEW130 FEW250 14/13 A3012 RMK AC1CI0 HZ SLP201
CYEG;2004-08-15 05:00;METAR CYEG 150500Z 00000KT 15SM SKC 12/11 A3012 RMK SLP202
CYEG;2004-08-15 06:00;METAR CYEG 150600Z 19003KT 15SM SKC 11/11 A3014 RMK SLP210
CYEG;2004-08-15 07:00;METAR CYEG 150700Z 00000KT 15SM SKC 10/09 A3014 RMK SLP211
CYEG;2004-08-15 08:00;METAR CYEG 150800Z 00000KT 10SM FEW150 09/09 A3015 RMK AC1 BR SLP213
CYEG;2004-08-15 09:00;METAR CYEG 150900Z 18002KT 2 1/2SM BR FEW050 08/07 A3015 RMK FG2SC1 SLP213
CYEG;2004-08-15 10:00;METAR CYEG 151000Z 00000KT 10SM OVC049 10/10 A3015 RMK SC8 BR SLP216
CYEG;2004-08-15 11:00;METAR CYEG 151100Z 00000KT 10SM OVC049 12/12 A3015 RMK SC8 BR SLP216
CYEG;2004-08-15 12:00;METAR CYEG 151200Z 00000KT 6SM BR BKN049 11/11 A3016 RMK SC4 SLP217
CYEG;2004-08-15 13:00;METAR CYEG 151300Z 00000KT 5SM BR BKN052 BKN250 11/11 A3016 RMK SC5CI1 MIFG ROOF VISY 10 SLP218 VISY 10 SLP218
CYEG;2004-08-15 14:00;METAR CYEG 151400Z 00000KT 4SM BR FEW050 14/14 A3017 RMK SC2 SLP220
CYEG;2004-08-15 15:00;METAR CYEG 151500Z 00000KT 8SM FEW050 17/14 A3017 RMK SC1 BR SLP220
CYEG;2004-08-15 16:00;METAR CYEG 151600Z 00000KT 8SM FEW050 FEW250 20/14 A3017 RMK SC1CI0 BR SLP219
CYEG;2004-08-15 17:00;METAR CYEG 151700Z 27002KT 8SM SKC 21/13 A3017 RMK BR SLP220
CYEG;2004-08-15 18:00;METAR CYEG 151800Z 00000KT 8SM FEW035 FEW250 23/13 A3017 RMK CU1CI0 BR SLP221
CYEG;2004-08-15 19:00;METAR CYEG 151900Z 07003KT 10SM FEW035 SCT250 24/14 A3017 RMK CU2CI0
CYEG;2004-08-15 20:00;METAR CYEG 152000Z 36003KT 10SM FEW035 SCT250 23/13 A3017 RMK CU2CI1
CYEG;2004-08-15 21:00;METAR CYEG 152100Z 35003KT 10SM FEW040 SCT220 BKN260 24/13 A3017 RMK CU2CS0CI2 HALO SLP222 HALO SLP222
CYEG;2004-08-15 22:00;METAR CYEG 152200Z 02002KT 10SM FEW045 FEW220 BKN260 23/12 A3016 RMK CU1CS1CI2 SLP221
CYEG;2004-08-15 23:00;METAR CYEG 152300Z 34006KT 10SM FEW040 FEW220 BKN250 24/14 A3016 RMK CU1CS2CI2 SLP220 SLP220
CYEG;2004-08-16 00:00;METAR CYEG 160000Z 33004KT 10SM FEW045 SCT220 BKN250 24/13 A3015 RMK CU1CS2CI2 HZ HALO SLP214 HALO SLP214
CYEG;2004-08-16 01:00;METAR CYEG 160100Z 08006KT 10SM FEW045 BKN150 BKN220 BKN250 21/14 A3016 RMK SC1AC2CS1CI2 HZ TR SC SLP215
CYEG;2004-08-16 02:00;METAR CYEG 160200Z 07005KT 10SM FEW160 SCT220 BKN250 20/13 A3016 RMK AC1CI2CI2 FU SLP215 SLP215
CYEG;2004-08-16 03:00;METAR CYEG 160300Z 07004KT 10SM FEW160 BKN250 17/12 A3018 RMK AC1CI4 FU SLP223
CYEG;2004-08-16 04:00;METAR CYEG 160400Z 00000KT 12SM BKN250 14/12 A3020 RMK CI4 FU SLP230
CYEG;2004-08-16 05:00;METAR CYEG 160500Z 00000KT 12SM BKN250 12/10 A3019 RMK CI4 FU SLP228
CYEG;2004-08-16 06:00;METAR CYEG 160600Z 00000KT 15SM BKN250 11/10 A3020 RMK CI5 SLP231
CYEG;2004-08-16 07:00;METAR CYEG 160700Z 00000KT 15SM BKN250 09/09 A3020 RMK CI3 SLP232
CYEG;2004-08-16 08:00;METAR CYEG 160800Z 00000KT 15SM BKN240 10/10 A3020 RMK CI5 SLP230
CYEG;2004-08-16 09:00;METAR CYEG 160900Z 00000KT 15SM BKN240 08/08 A3021 RMK CI3 SLP234
CYEG;2004-08-16 10:00;METAR CYEG 161000Z 00000KT 15SM BKN240 07/07 A3020 RMK CI3 SLP232
CYEG;2004-08-16 11:00;METAR CYEG 161100Z 00000KT 4SM BR SCT240 07/07 A3019 RMK FG1CI2 VIS W QUAD 1 SLP230 SLP230
CYEG;2004-08-16 12:00;METAR CYEG 161200Z 19003KT 5SM BR FEW120 SCT240 06/06 A3020 RMK AC1CI1 SLP235
CYEG;2004-08-16 13:00;METAR CYEG 161300Z 00000KT 6SM BR FEW055 FEW140 SCT240 06/06 A3020 RMK SC1AC1CI2 TCU EMBDD SW TR AC SLP235 TCU EMBDD SW TR AC SLP235
CYEG;2004-08-16 14:00;METAR CYEG 161400Z 07003KT 8SM FEW140 BKN240 11/11 A3021 RMK AC1CI2 BR SLP236
CYEG;2004-08-16 15:00;METAR CYEG 161500Z 09004KT 10SM FEW140 BKN240 16/12 A3020 RMK AC1CI2 HZ SLP231
CYEG;2004-08-16 16:00;METAR CYEG 161600Z 10004KT 12SM FEW140 BKN240 20/14 A3019 RMK AC1CI2 HZ SLP228
CYEG;2004-08-16 17:00;METAR CYEG 161700Z 09005KT 10SM FEW140 BKN260 21/12 A3018 RMK AC1CS3 HZ SLP226
CYEG;2004-08-16 18:00;METAR CYEG 161800Z 36004KT 8SM FEW140 OVC260 22/13 A3018 RMK AC1CI3 HZ SLP224 AC CI SLP221
CYEG;2004-08-16 20:00;METAR CYEG 162000Z 06002KT 10SM FEW045 FEW140 BKN260 24/13 A3016 RMK CU1AC1CI2 HZ SLP219 SLP219
CYEG;2004-08-16 21:00;METAR CYEG 162100Z 07003KT 10SM FEW050 FEW140 BKN260 24/12 A3015 RMK CU2AC1CI2 HZ SLP216 SLP216
CYEG;2004-08-16 22:00;METAR CYEG 162200Z 01004KT 12SM FEW050 SCT100 BKN260 23/12 A3014 RMK CU1AC2CI2 HZ SLP212 SLP212
CYEG;2004-08-16 23:00;METAR CYEG 162300Z 35003KT 12SM FEW050 SCT100 OVC260 24/12 A3013 RMK CU1AC2CI2 HZ SLP209 SLP209
CYEG;2004-08-17 00:00;METAR CYEG 170000Z 03005KT 10SM SCT060 BKN100 BKN140 BKN260 22/13 A3012 RMK SC2AC2AC1CI2 HZ CU ASOCTD TR HIER AC SLP207
CYEG;2004-08-17 01:00;METAR CYEG 170100Z 08007KT 12SM FEW060 BKN100 OVC260 22/12 A3010 RMK SC1AC5CI2 HZ SLP203 SLP203
CYEG;2004-08-17 02:00;METAR CYEG 170200Z 04005KT 10SM BKN085 OVC260 20/15 A3011 RMK AC6CI1 FU ACC EMBDD SLP205 SLP205
CYEG;2004-08-17 03:00;METAR CYEG 170300Z 05005KT 10SM SCT085 BKN120 BKN260 18/14 A3011 RMK AC4AC2CI0 FU FEW ACC EMBD LWR AC SLP200 FEW ACC EMBD LWR AC SLP200
CYEG;2004-08-17 04:00;METAR CYEG 170400Z 05005KT 12SM FEW085 BKN110 BKN260 16/14 A3012 RMK AC2AC3CI0 FU SLP202 SLP202
CYEG;2004-08-17 05:00;METAR CYEG 170500Z 32002KT 12SM SCT110 BKN250 13/12 A3012 RMK AC3CI1 FU SLP204
CYEG;2004-08-17 06:00;METAR CYEG 170600Z 23002KT 12SM FEW110 SCT250 11/10 A3012 RMK AC2CI1 FU
CYEG;2004-08-17 07:00;METAR CYEG 170700Z 00000KT 12SM FEW250 10/10 A3012 RMK CI1 FU SLP205
CYEG;2004-08-17 08:00;METAR CYEG 170800Z 00000KT 12SM MIFG FEW250 08/08 A3012 RMK CI1 SLP204
CYEG;2004-08-17 09:00;METAR CYEG 170900Z 22003KT 2SM BR FEW250 08/08 A3011 RMK CI0 SLP202
CYEG;2004-08-17 10:00;METAR CYEG 171000Z 22003KT 1/4SM R30/3500FT R02/0800FT FG SKC 08/08 A3010 RMK FG6 SLP200 SLP200
CYEG;2004-08-17 11:00;METAR CYEG 171100Z 22002KT 1/4SM R12/1600FT R30/1400FT FG SKC 08/08 A3010 RMK FG6 SLP198 SLP198
CYEG;2004-08-17 12:00;METAR CYEG 171200Z 22002KT 1/4SM R12/1800FT R30/1000FT FG SKC 07/07 A3010 RMK FG5 SLP199 SLP199
CYEG;2004-08-17 13:00;METAR CYEG 171300Z 22002KT 1/8SM R30/0900FT R02/1000FT FG SKC 08/08 A3009 RMK FG6 SLP196 SLP196
CYEG;2004-08-17 14:00;METAR CYEG 171400Z 21002KT 1/4SM R30/1400FT R02/1200FT FG SKC 11/11 A3009 RMK FG7 SLP196
CYEG;2004-08-17 15:00;METAR CYEG 171500Z 26004KT 3/8SM R30/1200FT R12/2600FT FG VV002 14/14 A3008 RMK FG8 SLP193 FG8 SLP193
CYEG;2004-08-17 16:00;METAR CYEG 171600Z 30006KT 5SM BR FEW006 SCT043 BKN120 BKN250 16/15 A3008 RMK CF1SC2AC1CI1 SLP192 CF1SC2AC1CI1 SLP192
CYEG;2004-08-17 17:00;METAR CYEG 171700Z 30005KT 8SM BKN250 18/15 A3008 RMK CI3 HZ SLP190
CYEG;2004-08-17 18:00;METAR CYEG 171800Z 32006KT 8SM FEW022 FEW170 BKN260 20/15 A3007 RMK CU2AC1CI2 HZ SLP188 SLP188
CYEG;2004-08-17 19:00;METAR CYEG 171900Z 34009G15KT 10SM BKN044 BKN170 BKN260 21/14 A3006 RMK CU5AC1CI1 HZ TCU EMBD SLP184
CYEG;2004-08-17 20:00;METAR CYEG 172000Z 35013G18KT 10SM FEW047 OVC260 23/13 A3005 RMK CU2CI3 HZ TCU ASOCTD S-SW SLP183 ASOCTD S-SW SLP183
CYEG;2004-08-17 21:00;METAR CYEG 172100Z 33013G19KT 12SM FEW045 BKN260 23/11 A3005 RMK CU2CI2 HZ TCU ASOCTD S SLP183 ASOCTD S SLP183
CYEG;2004-08-17 22:00;METAR CYEG 172200Z 33012G17KT 12SM FEW055 BKN260 23/09 A3005 RMK CU1CI2 HZ SLP181
CYEG;2004-08-17 23:00;METAR CYEG 172300Z 35012G18KT 15SM FEW055 BKN260 23/10 A3004 RMK CU1CI2 SLP180
CYEG;2004-08-18 00:00;METAR CYEG 180000Z 35013G19KT 15SM FEW060TCU SCT260 22/08 A3005 RMK TCU1CI2 TR TCU DIST S-SW SLP184 TCU DIST S-SW SLP184
CYEG;2004-08-18 01:00;METAR CYEG 180100Z 34011KT 15SM SCT260 21/08 A3005 RMK CI2 SLP184
CYEG;2004-08-18 02:00;METAR CYEG 180200Z 34009KT 15SM FEW100 BKN260 19/10 A3007 RMK AC1CI2 SLP188
CYEG;2004-08-18 03:00;METAR CYEG 180300Z 34011G17KT 15SM FEW060 BKN260 17/07 A3010 RMK SC1CI2 SLP199
CYEG;2004-08-18 05:00;METAR CYEG 180500Z 02007KT 15SM BKN260 12/08 A3016 RMK CI2 SLP217
CYEG;2004-08-18 06:00;METAR CYEG 180600Z 03006KT 15SM FEW075 BKN260 09/07 A3017 RMK AC1CI2 SLP225
CYEG;2004-08-18 07:00;METAR CYEG 180700Z 04007KT 15SM BKN260 09/07 A3019 RMK CI2 SLP231
CYEG;2004-08-18 08:00;METAR CYEG 180800Z 07002KT 15SM FEW075 BKN260 08/06 A3022 RMK AC1CI1 SLP239
CYEG;2004-08-18 09:00;METAR CYEG 180900Z 19002KT 15SM FEW075 BKN260 05/04 A3022 RMK AC1CI1 SLP245
CYEG;2004-08-18 10:00;METAR CYEG 181000Z 20004KT 15SM FEW075 BKN260 04/04 A3023 RMK AC2CI1 SLP246
CYEG;2004-08-18 11:00;METAR CYEG 181100Z 18003KT 15SM FEW055 BKN260 03/03 A3022 RMK SC1CI1
CYEG;2004-08-18 12:00;METAR CYEG 181200Z 18004KT 12SM FEW055 FEW100 BKN260 03/03 A3022 RMK SC1AC1CI1 SLP247 SLP247
CYEG;2004-08-18 13:00;METAR CYEG 181300Z 18004KT 15SM FEW050 FEW100 BKN270 05/04 A3022 RMK SC1AC1CI1 SLP246
CYEG;2004-08-18 14:00;METAR CYEG 181400Z 15003KT 15SM FEW050 FEW120 BKN270 10/09 A3022 RMK SC1AC1CI2 TR AC SLP246 AC SLP246
CYEG;2004-08-18 15:00;METAR CYEG 181500Z 18003KT 15SM FEW050 FEW120 BKN270 12/09 A3021 RMK SC1AC1CI2 TR AC SLP240 AC SLP240
CYEG;2004-08-18 16:00;METAR CYEG 181600Z 00000KT 15SM FEW120 SCT270 14/10 A3020 RMK AC1CI2 SLP235
CYEG;2004-08-18 17:00;METAR CYEG 181700Z 31003KT 15SM FEW030 FEW250 SCT280 17/10 A3018 RMK CU1CI2CI0 SLP230 SLP230
CYEG;2004-08-18 18:00;METAR CYEG 181800Z 26003KT 15SM FEW035 FEW250 SCT280 19/09 A3017 RMK CU1CI1CI0 TR CU SLP226 CU SLP226
CYEG;2004-08-18 19:00;METAR CYEG 181900Z 29006KT 15SM FEW050 FEW150 FEW250 SCT280 19/06 A3015 RMK CU1AC1CI1CI0 TR CU TR AC SLP220
CYEG;2004-08-18 20:00;METAR CYEG 182000Z 31007KT 15SM FEW150 BKN220 BKN280 21/07 A3013 RMK AC1CI1CI1 CC ASOCTD TR AC SLP212 ASOCTD TR AC SLP212
CYEG;2004-08-18 21:00;METAR CYEG 182100Z 28005KT 15SM FEW150 SCT220 BKN270 22/05 A3011 RMK AC1CC1CI1 TR AC SLP206 AC SLP206
CYEG;2004-08-18 22:00;METAR CYEG 182200Z 32005KT 15SM BKN180 BKN250 22/06 A3008 RMK AC2CI1 CC ASOCTD SLP196 SLP196
CYEG;2004-08-18 23:00;METAR CYEG 182300Z 26008KT 15SM SCT180 BKN250 22/08 A3006 RMK AC2CI1 CC ASOCTD SLP190 SLP190
CYEG;2004-08-19 00:00;METAR CYEG 190000Z 31007KT 15SM FEW180 SCT250 22/09 A3004 RMK AC1CI1 SLP183
CYEG;2004-08-19 01:00;METAR CYEG 190100Z 28004KT 15SM FEW180 FEW250 22/10 A3002 RMK AC0CI1 SLP176
CYEG;2004-08-19 02:00;METAR CYEG 190200Z 26003KT 15SM FEW180 BKN250 19/14 A2999 RMK AC1CI1 HZ SLP168
CYEG;2004-08-19 03:00;METAR CYEG 190300Z 21005KT 15SM FEW180 BKN250 14/11 A2998 RMK AC1CI1 HZ SLP163
CYEG;2004-08-19 04:00;METAR CYEG 190400Z 20006KT 15SM FEW180 BKN260 12/10 A2998 RMK AC2CI1 SLP161
CYEG;2004-08-19 05:00;METAR CYEG 190500Z 19004KT 15SM BKN180 OVC260 12/10 A2997 RMK AC3CI2 SLP160
CYEG;2004-08-19 06:00;METAR CYEG 190600Z 21002KT 15SM SCT180 BKN260 12/10 A2997 RMK AC2CI1 SLP156
CYEG;2004-08-19 07:00;METAR CYEG 190700Z 36006KT 12SM BKN260 09/09 A2998 RMK CI2 SLP158
CYEG;2004-08-19 08:00;METAR CYEG 190800Z 21003KT 12SM BKN260 07/07 A2998 RMK CI2 SLP157
CYEG;2004-08-19 09:00;METAR CYEG 190900Z 23002KT 12SM BKN260 07/07 A2997 RMK CI1 SLP157
CYEG;2004-08-19 10:00;METAR CYEG 191000Z 21003KT 12SM SCT260 07/07 A2998 RMK CI1 SLP159
CYEG;2004-08-19 11:00;METAR CYEG 191100Z 22004KT 10SM BKN260 07/07 A2998 RMK CI2 SLP159
CYEG;2004-08-19 12:00;METAR CYEG 191200Z 24002KT 12SM FEW180 BKN260 07/07 A2999 RMK AC1CI1
CYEG;2004-08-19 13:00;METAR CYEG 191300Z 24002KT 12SM FEW180 BKN260 08/08 A3000 RMK AC2CI2 SLP165
CYEG;2004-08-19 14:00;METAR CYEG 191400Z 24002KT 10SM BKN180 BKN250 12/10 A3001 RMK AC2CI1 FU
CYEG;2004-08-19 15:00;METAR CYEG 191500Z 32003KT 10SM SCT180 BKN250 15/12 A3002 RMK AC2CI2 FU SLP174
CYEG;2004-08-19 16:00;METAR CYEG 191600Z 28003KT 10SM SCT180 OVC250 16/11 A3003 RMK AC1CI2 FU SLP178
CYEG;2004-08-19 17:00;METAR CYEG 191700Z 34004KT 8SM BKN130 BKN250 19/13 A3003 RMK AC6CI0 FU SLP177
CYEG;2004-08-19 18:00;METAR CYEG 191800Z 02003KT 6SM FU BKN130 OVC220 18/12 A3003 RMK AC5CI2 ACC ASOCTD SLP176
CYEG;2004-08-19 19:00;METAR CYEG 191900Z 02005KT 6SM FU SCT070 BKN100 OVC220 19/13 A3004 RMK AC2AS2CI1 SLP179 SLP179
CYEG;2004-08-19 20:00;METAR CYEG 192000Z 06004KT 8SM FEW050 BKN110 BKN150 BKN220 19/12 A3004 RMK SC1AC3AS2CI1 FU TR SC SLP179
CYEG;2004-08-19 21:00;METAR CYEG 192100Z 06005KT 8SM FEW070 BKN110 BKN150 BKN220 19/12 A3004 RMK AC1AC3AS1CI1 FU SLP183
CYEG;2004-08-19 22:00;METAR CYEG 192200Z 05006KT 8SM FEW100 SCT150 OVC250 20/11 A3004 RMK AC1AS2CI1 FU SLP182 SLP182
CYEG;2004-08-19 23:00;METAR CYEG 192300Z 05006KT 10SM FEW090 SCT150 BKN200 OVC250 19/11 A3005 RMK AC1AS2CS1CI1 FU HALO SLP184
CYEG;2004-08-20 00:00;METAR CYEG 200000Z 06006KT 10SM FEW100 FEW150 BKN180 OVC250 19/12 A3005 RMK AC1AC1AS2CI2 FU SLP187
CYEG;2004-08-20 01:00;METAR CYEG 200100Z 07007KT 12SM FEW100 BKN120 BKN180 OVC250 18/11 A3006 RMK AC2AC2AS2CI1 FU SLP189
CYEG;2004-08-20 02:00;METAR CYEG 200200Z 07006KT 12SM FEW100 BKN160 OVC250 16/10 A3006 RMK AC2AC2CI2 FU SLP190 SLP190
CYEG;2004-08-20 03:00;METAR CYEG 200300Z 07004KT 12SM SCT090 BKN150 BKN250 14/10 A3007 RMK AC2AC2CI2 FU SLP192 SLP192
CYEG;2004-08-20 04:00;METAR CYEG 200400Z 11002KT 15SM FEW055 SCT090 BKN150 OVC250 12/10 A3008 RMK SC2AC2AS2CI1 FU SLP196
CYEG;2004-08-20 05:00;METAR CYEG 200500Z 10002KT 15SM BKN058 BKN090 OVC250 12/10 A3009 RMK SC5AC2CI1 FU SLP197 SLP197
CYEG;2004-08-20 06:00;METAR CYEG 200600Z 11003KT 15SM BKN058 OVC250 11/10 A3008 RMK SC5CI1 SLP196
CYEG;2004-08-20 07:00;METAR CYEG 200700Z 11007KT 15SM BKN055 OVC270 11/10 A3008 RMK SC5CI2 SLP195
CYEG;2004-08-20 08:00;METAR CYEG 200800Z 12007KT 15SM SCT055 09/08 A3007 RMK SC2 SLP191
CYEG;2004-08-20 09:00;METAR CYEG 200900Z 13005KT 15SM SCT055 07/06 A3007 RMK SC2 SLP191
CYEG;2004-08-20 10:00;METAR CYEG 201000Z 17005KT 15SM BKN053 07/06 A3005 RMK SC3 SLP186
CYEG;2004-08-20 11:00;METAR CYEG 201100Z 13007KT 15SM FEW055 SCT270 07/07 A3003 RMK SC1CI1 SLP181
CYEG;2004-08-20 12:00;METAR CYEG 201200Z 12006KT 15SM BKN270 08/07 A3002 RMK CI2 SLP177
CYEG;2004-08-20 13:00;METAR CYEG 201300Z 15005KT 15SM FEW100 BKN270 08/07 A3001 RMK AC1CI2 FU ALF SLP173
CYEG;2004-08-20 14:00;METAR CYEG 201400Z 14004KT 15SM FEW100 FEW270 10/08 A3000 RMK AC1CI1 FU ALF SLP169
CYEG;2004-08-20 15:00;METAR CYEG 201500Z 15006KT 15SM BKN270 13/10 A2998 RMK CI2 FU ALF SLP161
CYEG;2004-08-20 16:00;METAR CYEG 201600Z 19006KT 12SM BKN270 15/11 A2996 RMK CI2 FU SLP156
CYEG;2004-08-20 17:00;METAR CYEG 201700Z 18004KT 12SM BKN270 18/13 A2994 RMK CS3 FU SLP148
CYEG;2004-08-20 18:00;METAR CYEG 201800Z 15005KT 10SM BKN270 21/13 A2992 RMK CI2 FU SLP137
CYEG;2004-08-20 19:00;METAR CYEG 201900Z 16009KT 8SM SCT270 23/13 A2989 RMK CI2 HZ SLP127
CYEG;2004-08-20 20:00;METAR CYEG 202000Z 21004KT 10SM SCT200 BKN270 24/13 A2986 RMK CI2CI2 HZ CC ASOCTD SLP119 SLP119
CYEG;2004-08-20 21:00;METAR CYEG 202100Z 16005KT 10SM FEW050 FEW200 OVC270 25/13 A2984 RMK CU1CC1CI4 HZ SLP107 SLP107 SLP099
CYEG;2004-08-20 23:00;METAR CYEG 202300Z 25006KT 10SM FEW120 SCT200 BKN250 26/12 A2979 RMK AC1CC2CI2 HZ SLP091 SLP091
CYEG;2004-08-21 00:00;METAR CYEG 210000Z 22006KT 8SM BKN090 BKN140 OVC200 23/13 A2978 RMK AC4AC2CI2 HZ SLP089 SLP089
CYEG;2004-08-21 01:00;METAR CYEG 210100Z 26014G20KT 10SM TS VCSH FEW040 FEW055CB SCT090 OVC130 17/13 A2980 RMK SC1CB2AC2AC4 SH SW+NW+NE SLP094 A2980 RMK SC1CB2AC2AC4 SH SW+NW+NE SLP094
CYEG;2004-08-21 02:00;METAR CYEG 210200Z 22003KT 12SM SCT100 BKN140 BKN250 17/13 A2976 RETS RMK AC3AS4CI1 SLP082
CYEG;2004-08-21 03:00;METAR CYEG 210300Z 26004KT 12SM FEW100 BKN140 BKN250 15/13 A2976 RMK AC2AS4CI1 HZ SLP082 SLP082 SLP083
CYEG;2004-08-21 05:00;METAR CYEG 210500Z 26002KT 15SM FEW100 SCT140 13/12 A2977 RMK AC2AS1 SLP088
CYEG;2004-08-21 06:00;METAR CYEG 210600Z 26003KT 15SM SCT085 BKN120 13/12 A2977 RMK AC3AC2
CYEG;2004-08-21 07:00;METAR CYEG 210700Z 25004KT 15SM BKN062 BKN095 13/12 A2976 RMK SC5AC2 SLP080
CYEG;2004-08-21 08:00;METAR CYEG 210800Z 27006KT 15SM SCT075 BKN100 14/13 A2975 RMK AC3AC4 SLP076
CYEG;2004-08-21 09:00;METAR CYEG 210900Z 26007KT 15SM FEW075 BKN100 14/13 A2974 RMK AC1AC6 SLP067
CYEG;2004-08-21 10:00;METAR CYEG 211000Z 28007KT 15SM FEW100 14/12 A2973 RMK AC1 SLP064
CYEG;2004-08-21 11:00;METAR CYEG 211100Z 29006KT 15SM FEW020 BKN100 13/12 A2973 RMK SC1AC5 SLP065
CYEG;2004-08-21 12:00;METAR CYEG 211200Z 30007KT 15SM FEW020 BKN086 13/12 A2973 RMK SC1AC4 SLP069
CYEG;2004-08-21 13:00;METAR CYEG 211300Z 30005KT 15SM FEW045 BKN068 BKN100 BKN250 13/12 A2974 RMK SC2AC4AC1CI1 SLP072
CYEG;2004-08-21 14:00;METAR CYEG 211400Z 30007KT 15SM BKN013 BKN040 BKN090 13/13 A2976 RERA RMK SC4SC2AC2 SLP076
CYEG;2004-08-21 15:00;METAR CYEG 211500Z 35007KT 15SM BKN008 BKN011 OVC020 12/12 A2977 RMK SC5SC2SC2 INTMT L- SLP090 INTMT L- SLP090
CYEG;2004-08-21 16:00;METAR CYEG 211600Z 36012KT 15SM BKN008 OVC010 12/11 A2980 RMK SC6SC2 SLP097
CYEG;2004-08-21 17:00;METAR CYEG 211700Z 01008KT 15SM BKN008 OVC013 12/11 A2982 RMK SC5SC3 INTMT R- SLP103 SLP103
CYEG;2004-08-21 18:00;METAR CYEG 211800Z 36008KT 4SM -RA BR BKN008 BKN013 OVC019 12/11 A2985 RMK SF4SC2SC2 SLP119
CYEG;2004-08-21 19:00;METAR CYEG 211900Z 01012KT 7SM -RA FEW008 BKN013 OVC022 11/11 A2988 RMK SF2SC3SC2 BR SLP127 BR SLP127
CYEG;2004-08-21 20:00;METAR CYEG 212000Z 36011KT 4SM -RA BR SCT005 BKN013 OVC017 11/10 A2990 RMK SF3SC2SC2 SLP136
CYEG;2004-08-21 21:00;METAR CYEG 212100Z 01011G16KT 12SM -RA FEW007 BKN011 OVC017 11/10 A2992 RMK SF2SC2SC3 SLP143
CYEG;2004-08-21 22:00;METAR CYEG 212200Z 36010KT 10SM -RA FEW009 BKN013 OVC016 11/10 A2995 RMK SF2SC3SC3 BR SLP152
CYEG;2004-08-21 23:00;METAR CYEG 212300Z 36009KT 15SM FEW008 SCT013 OVC020 10/09 A2996 RMK SF2SC2SC4 SLP154 SLP154
CYEG;2004-08-22 00:00;METAR CYEG 220000Z 03010KT 15SM FEW013 BKN028 OVC056 11/09 A2996 RMK SC2SC4SC1 SLP156 SLP156
CYEG;2004-08-22 01:00;METAR CYEG 220100Z 03007KT 15SM FEW013 BKN032 OVC045 11/09 A2996 RMK SC2SC2SC3 SLP156
CYEG;2004-08-22 02:00;METAR CYEG 220200Z 03005KT 15SM FEW013 SCT045 BKN110 10/09 A2996 RMK SC2SC2AC3 SLP158 SLP158
CYEG;2004-08-22 03:00;METAR CYEG 220300Z 04004KT 15SM FEW015 BKN049 BKN110 10/08 A2998 RMK SC2SC2AC2 SLP164 SLP164
CYEG;2004-08-22 04:00;METAR CYEG 220400Z 07004KT 15SM FEW015 SCT049 BKN120 09/08 A2999 RMK SC2SC2AC4 SLP167 SLP167
CYEG;2004-08-22 05:00;METAR CYEG 220500Z 05003KT 15SM FEW018 BKN048 OVC130 09/08 A2998 RMK SC2SC4AC2 VIRGA N SLP165 VIRGA N SLP165
CYEG;2004-08-22 06:00;METAR CYEG 220600Z 07006KT 15SM OVC042 10/08 A2998 RMK SC8 SLP165
CYEG;2004-08-22 07:00;METAR CYEG 220700Z 08007KT 15SM VCSH FEW015 OVC047 09/07 A2997 RMK CF1SC8 SHRA NE / VIRGA SLP163 / VIRGA SLP163
CYEG;2004-08-22 08:00;METAR CYEG 220800Z 07006KT 15SM FEW015 SCT036 OVC054 09/07 A2997 RMK CF1SC4SC4 VIRGA N SLP162 VIRGA N SLP162
CYEG;2004-08-22 10:00;METAR CYEG 221000Z 08008KT 15SM -SHRA FEW008 BKN011 OVC055 08/07 A2997 RMK CF1SC6SC2 SLP164
CYEG;2004-08-22 11:00;METAR CYEG 221100Z 08007KT 12SM -RA FEW008 OVC012 08/07 A2996 RMK CF2SC6 SLP161
CYEG;2004-08-22 12:00;METAR CYEG 221200Z 07009KT 12SM -RA FEW008 BKN014 OVC046 08/07 A2995 RMK CF2SC3SC3 SLP156
CYEG;2004-08-22 13:00;METAR CYEG 221300Z 06012KT 6SM -RA FEW007 OVC046 07/07 A2994 RMK CF2SC6 SLP154
CYEG;2004-08-22 14:00;METAR CYEG 221400Z 07013KT 8SM -RA SCT008 OVC052 08/07 A2992 RMK CF3SC5 SLP148
CYEG;2004-08-22 15:00;METAR CYEG 221500Z 08012G18KT 8SM -RA BKN009 OVC040 08/07 A2991 RMK SC5SC3 CIG RAG SLP147 RAG SLP147
CYEG;2004-08-22 16:00;METAR CYEG 221600Z 08010G16KT 10SM -RA BKN011 OVC040 08/08 A2991 RMK SC6SC2 CIG RAG SLP145 RAG SLP145
CYEG;2004-08-22 17:00;METAR CYEG 221700Z 08012KT 10SM -RA BKN014 OVC040 08/08 A2990 RMK SC6SC2 CIG RAG SLP143 SLP143
CYEG;2004-08-22 18:00;METAR CYEG 221800Z 08011G18KT 6SM -RA BKN013 BKN018 OVC030 08/08 A2990 RMK SC6SC1SC1 CIG RAG SLP143
CYEG;2004-08-22 19:00;METAR CYEG 221900Z 08013KT 6SM -RA BKN013 OVC030 08/07 A2990 RMK SF7SC1
CYEG;2004-08-22 20:00;METAR CYEG 222000Z 08012G18KT 4SM -RA BR BKN012 OVC030 08/08 A2990 RMK SF6SC2 CIG VRBL 8-16 SLP141 VRBL 8-16 SLP141
CYEG;2004-08-22 21:00;METAR CYEG 222100Z 07013G18KT 6SM -RA BKN012 OVC033 09/08 A2989 RMK SF6SC2 CIG VRBL 8-16 SLP137 VRBL 8-16 SLP137
CYEG;2004-08-22 22:00;METAR CYEG 222200Z 08014KT 8SM -RA BKN012 OVC030 09/08 A2988 RMK SF6SC2 CIG VRBL 8-18 VIS SE 3F SLP135 8-18 VIS SE 3F SLP135
CYEG;2004-08-22 23:00;METAR CYEG 222300Z 07015KT 5SM -RA BR BKN012 OVC035 08/08 A2988 RMK SF6SC2 CIG VRBL 8-18 SLP134 VRBL 8-18 SLP134
CYEG;2004-08-23 00:00;METAR CYEG 230000Z 05013G18KT 8SM -RA BKN012 BKN025 OVC035 08/08 A2987 RMK SF6SC1SC1 CIG VRBL 8-17 SLP133
CYEG;2004-08-23 01:00;METAR CYEG 230100Z 06013G18KT 8SM -RA BKN011 OVC030 08/07 A2987 RMK SF7SC1 CIG VRBL 7-16 SLP133 VRBL 7-16 SLP133
CYEG;2004-08-23 02:00;METAR CYEG 230200Z 06013KT 15SM -RA SCT006 BKN011 OVC032 07/07 A2986 RMK SF3SC2SC2 SLP129
CYEG;2004-08-23 03:00;METAR CYEG 230300Z 06010G15KT 5SM -RA BR BKN008 OVC032 07/07 A2986 RMK SF6SC2 SLP129 SLP129
CYEG;2004-08-23 04:00;METAR CYEG 230400Z 04009KT 4SM -RA BR OVC006 07/07 A2985 RMK SF8 SLP127
CYEG;2004-08-23 05:00;METAR CYEG 230500Z 05008KT 6SM -RA BR BKN008 OVC011 07/07 A2983 RMK SF6SC2 SLP122 SLP118 SLP113 SLP110 SLP103
CYEG;2004-08-23 10:00;METAR CYEG 231000Z 08010KT 15SM BKN009 OVC018 08/07 A2977 RMK SF7SC1 SLP100
CYEG;2004-08-23 11:00;METAR CYEG 231100Z 09010G15KT 15SM OVC009 08/07 A2977 RMK SF8 SLP098
CYEG;2004-08-23 12:00;METAR CYEG 231200Z 07008KT 15SM BKN007 OVC012 08/07 A2977 RMK SF6SC2 SLP097
CYEG;2004-08-23 13:00;METAR CYEG 231300Z 07007KT 15SM BKN007 OVC012 08/07 A2976 RMK SF7SC1 SLP094
CYEG;2004-08-23 14:00;METAR CYEG 231400Z 07009KT 15SM OVC009 08/07 A2976 RMK SC8 SLP094
CYEG;2004-08-23 15:00;METAR CYEG 231500Z 08008KT 12SM BKN007 OVC010 07/07 A2976 RMK SF6SC2 BR PCPN S SLP094 SLP093 SF6SC2 SLP094 SLP089 SLP087
CYEG;2004-08-23 20:00;METAR CYEG 232000Z 03004KT 15SM FEW009 OVC015 09/08 A2973 RMK SF2SC6 SLP084
CYEG;2004-08-23 21:00;METAR CYEG 232100Z 03005KT 15SM OVC011 09/08 A2972 RMK SC8 SLP081
CYEG;2004-08-23 22:00;METAR CYEG 232200Z 02005KT 15SM OVC013 10/08 A2973 RMK SC8 SLP082
CYEG;2004-08-23 23:00;METAR CYEG 232300Z 01004KT 12SM BKN012 OVC018 10/08 A2972 RMK SC7SC1 BR SLP081
CYEG;2004-08-24 00:00;METAR CYEG 240000Z 03005KT 12SM OVC013 10/08 A2973 RMK SC8 BR SLP082
CYEG;2004-08-24 01:00;METAR CYEG 240100Z 35003KT 12SM OVC014 09/08 A2973 RMK SC8 BR SLP082
CYEG;2004-08-24 02:00;METAR CYEG 240200Z 01004KT 12SM SCT009 OVC015 09/08 A2972 RMK SF4SC4 BR SLP081
CYEG;2004-08-24 03:00;METAR CYEG 240300Z 00000KT 12SM SCT009 OVC017 09/08 A2972 RMK SF3SC5 BR SLP082
CYEG;2004-08-24 04:00;METAR CYEG 240400Z 30002KT 12SM SCT010 OVC017 09/09 A2972 RMK SF3SC5 BR
CYEG;2004-08-24 05:00;METAR CYEG 240500Z 30004KT 12SM SCT012 OVC020 09/08 A2973 RMK SF3SC5 BR SLP083
CYEG;2004-08-24 06:00;METAR CYEG 240600Z 31003KT 15SM FEW012 OVC018 09/08 A2971 RMK SC2SC6 SLP078
CYEG;2004-08-24 07:00;METAR CYEG 240700Z 31003KT 15SM FEW010 OVC024 08/08 A2971 RMK SF2SC6 SLP077
CYEG;2004-08-24 08:00;METAR CYEG 240800Z 29002KT 15SM FEW010 OVC025 08/08 A2970 RMK SF2SC6 SLP073
CYEG;2004-08-24 09:00;METAR CYEG 240900Z 29002KT 2SM BR SCT002 OVC020 08/08 A2969 RMK SF4SC4 VIS SE 3SM SLP071 SLP071
CYEG;2004-08-24 10:00;METAR CYEG 241000Z 23002KT 2 1/2SM R30/5000FT BR SCT002 BKN016 OVC022 07/07 A2969 RMK SF3SC2SC2 SLP069 RMK SF3SC2SC2 SLP069
CYEG;2004-08-24 11:00;METAR CYEG 241100Z 26002KT 3SM BR SCT002 SCT016 OVC022 08/08 A2968 RMK SF3SC1SC4 VIS W 11/2SM SLP066 VIS W 11/2SM SLP066
CYEG;2004-08-24 12:00;METAR CYEG 241200Z 00000KT 3SM BR SCT002 OVC020 08/08 A2968 RMK SF3SC5 SLP065
CYEG;2004-08-24 13:00;METAR CYEG 241300Z 21002KT 2SM BR BKN004 OVC019 08/08 A2967 RMK SF5SC3 SLP064
CYEG;2004-08-24 14:00;METAR CYEG 241400Z 00000KT 5SM BR BKN004 OVC022 08/08 A2966 RMK SF4SC4 4-BKN SLP060 SLP060
CYEG;2004-08-24 15:00;METAR CYEG 241500Z 27003KT 15SM SCT005 BKN022 09/08 A2967 RMK SF2SC5 SLP061 SLP058
CYEG;2004-08-24 17:00;METAR CYEG 241700Z 23002KT 15SM BKN021 BKN110 11/08 A2964 RMK SC7AC1 TR AC SLP054
CYEG;2004-08-24 18:00;METAR CYEG 241800Z 00000KT 15SM BKN025 BKN110 12/07 A2964 RMK SC6AC1 SLP049
CYEG;2004-08-24 19:00;METAR CYEG 241900Z 18004KT 15SM FEW025 BKN055 BKN110 12/08 A2963 RMK SC2SC4AC1 SLP046 SLP046
CYEG;2004-08-24 20:00;METAR CYEG 242000Z 24005KT 15SM SCT025 BKN063 BKN100 13/08 A2962 RMK CU3SC3AC1 FEW TCU ASOCTD N SLP043 FEW TCU ASOCTD N SLP043
CYEG;2004-08-24 21:00;METAR CYEG 242100Z 21004KT 15SM SCT025TCU BKN055 BKN100 13/08 A2961 RMK TCU3SC2AC2 SLP040
CYEG;2004-08-24 22:00;METAR CYEG 242200Z 18007KT 15SM FEW030 SCT100 15/08 A2959 RMK CU2AC2 FEW TCU ASOCTD SLP033 ASOCTD SLP033
CYEG;2004-08-24 23:00;METAR CYEG 242300Z 19007KT 15SM SCT030 SCT100 14/07 A2958 RMK CU3AC1 TCU ASOCTD SLP031 SLP031
CYEG;2004-08-25 00:00;METAR CYEG 250000Z 20002KT 15SM FEW030 SCT110 15/08 A2958 RMK CU2AC1 TCU ASOCTD SLP025 SLP025
CYEG;2004-08-25 01:00;METAR CYEG 250100Z 18006KT 15SM SCT035TCU SCT110 15/09 A2958 RMK TCU3AC1
CYEG;2004-08-25 02:00;METAR CYEG 250200Z 19007KT 15SM FEW035 SCT100 SCT150 BKN250 13/09 A2958 RMK CU1AC2AC1CI0 VIRGA ENE SLP026
CYEG;2004-08-25 03:00;METAR CYEG 250300Z 18006KT 15SM FEW040TCU BKN110 BKN250 11/09 A2958 RMK TCU1AC4CI1 VIRGA+TCU S SLP029
CYEG;2004-08-25 04:00;METAR CYEG 250400Z 19004KT 15SM FEW110 FEW250 08/08 A2958 RMK AC1CI0 SLP030
CYEG;2004-08-25 05:00;METAR CYEG 250500Z 20003KT 15SM FEW110 FEW250 07/06 A2959 RMK AC1CI0 SLP032
CYEG;2004-08-25 06:00;METAR CYEG 250600Z 18007KT 15SM FEW110 FEW250 06/06 A2958 RMK AC1CI0 SLP033
CYEG;2004-08-25 07:00;METAR CYEG 250700Z 18007KT 15SM FEW110 06/05 A2958 RMK AC1 SLP032
CYEG;2004-08-25 08:00;METAR CYEG 250800Z 21002KT 4SM BR SKC 03/03 A2958 RMK SLP033
CYEG;2004-08-25 09:00;METAR CYEG 250900Z 18003KT 1/2SM FG SKC 02/02 A2958 RMK FG2 RVR RWY 12 MISSING RWY 30 P6000 SLP035 RWY 30 P6000 SLP035
CYEG;2004-08-25 10:00;METAR CYEG 251000Z 18002KT 0SM FG SKC 02/02 A2959 RMK FG6 RVR RWY 12 MISSING RWY 02 1200 FT SLP037 02 1200 FT SLP037
CYEG;2004-08-25 11:00;METAR CYEG 251100Z 18003KT 1/8SM FG SKC 02/02 A2958 RMK FG3 RVR RWY 12 MISSING RWY 30 1400 FT SLP035 RWY 30 1400 FT SLP035
CYEG;2004-08-25 12:00;METAR CYEG 251200Z 01002KT 1/8SM FG SKC 01/01 A2959 RMK FG3 RVR RWY 12 RWY 02 1200 FT SLP037
CYEG;2004-08-25 13:00;METAR CYEG 251300Z 18004KT 1/4SM FG SCT002 BKN250 01/01 A2961 RMK FG2SF1CI0 RVR RWY 12 MISSING RWY 30 2400 FT SLP042 RWY 12 MISSING RWY 30 2400 FT SLP042
CYEG;2004-08-25 14:00;METAR CYEG 251400Z 00000KT 1 1/4SM R02/5000FT BR FEW001 SCT250 03/03 A2962 RMK FG1SF1CI0 SLP047 FG1SF1CI0 SLP047
CYEG;2004-08-25 15:00;METAR CYEG 251500Z 00000KT 1/4SM R02/1100FT R30/1200FT FG SKC 06/06 A2964 RMK FG7 SLP051 SLP051
CYEG;2004-08-25 16:00;METAR CYEG 251600Z 03003KT 2SM BR BKN002 08/08 A2964 RMK FG2SF6 SLP053
CYEG;2004-08-25 17:00;METAR CYEG 251700Z 09004KT 15SM FEW008 FEW120 FEW250 12/09 A2965 RMK SF1AC1CI0 SLP056 SLP056
CYEG;2004-08-25 18:00;METAR CYEG 251800Z 05006KT 15SM FEW020 FEW120 SCT250 14/09 A2965 RMK CU1AC1CI1 SLP054 SLP054
CYEG;2004-08-25 19:00;METAR CYEG 251900Z 04007KT 15SM FEW030 FEW120 SCT250 16/07 A2966 RMK CU2AC1CI1 TR AC SLP056 AC SLP056
CYEG;2004-08-25 20:00;METAR CYEG 252000Z 09004KT 15SM FEW040 FEW120 BKN250 16/06 A2966 RMK CU2AC1CI2 TR AC SLP057 AC SLP057
CYEG;2004-08-25 21:00;METAR CYEG 252100Z 03005KT 15SM FEW045 BKN250 17/06 A2967 RMK CU2CI2 SLP060
CYEG;2004-08-25 22:00;METAR CYEG 252200Z 03006KT 15SM FEW045 FEW120 BKN250 18/07 A2967 RMK CU2AC1CI2 FEW TCU ASOCTD TR AC SLP062 FEW TCU ASOCTD TR AC SLP062
CYEG;2004-08-25 23:00;METAR CYEG 252300Z 06004KT 15SM FEW045 FEW120 BKN240 18/07 A2968 RMK CU2AC1CI2 FEW TCU ASOCTD TR AC SLP064 FEW TCU ASOCTD TR AC SLP064
CYEG;2004-08-26 00:00;METAR CYEG 260000Z 01003KT 15SM FEW045 FEW110 BKN240 17/06 A2969 RMK CU2AC1CI2 FEW TCU ASOCTD TR AC SLP069 FEW TCU ASOCTD TR AC SLP069
CYEG;2004-08-26 01:00;METAR CYEG 260100Z 09003KT 15SM FEW045 FEW110 BKN240 16/07 A2970 RMK CU1AC1CI2 SLP073 SLP073
CYEG;2004-08-26 02:00;METAR CYEG 260200Z 07006KT 15SM FEW045 BKN240 14/08 A2972 RMK SC1CI2 SLP079
CYEG;2004-08-26 03:00;METAR CYEG 260300Z 12003KT 15SM FEW045 FEW110 BKN240 10/07 A2975 RMK SC1AC1CI1 SLP090 SLP090
CYEG;2004-08-26 04:00;METAR CYEG 260400Z 07005KT 15SM FEW100 SCT240 09/07 A2977 RMK AC1CI1 SLP096
CYEG;2004-08-26 05:00;METAR CYEG 260500Z 10005KT 15SM FEW100 BKN240 09/07 A2978 RMK AC2CI1 SLP100
CYEG;2004-08-26 06:00;METAR CYEG 260600Z 10003KT 15SM BKN088 07/06 A2979 RMK AC6 AC INVDG SLP102
CYEG;2004-08-26 07:00;METAR CYEG 260700Z 00000KT 15SM BKN089 OVC250 08/07 A2982 RMK AC6CI1 SLP110
CYEG;2004-08-26 08:00;METAR CYEG 260800Z 00000KT 15SM BKN093 08/07 A2983 RMK AC6 SLP115
CYEG;2004-08-26 09:00;METAR CYEG 260900Z 00000KT 15SM FEW080 BKN097 07/06 A2985 RMK AC1AC6 SLP119
CYEG;2004-08-26 10:00;METAR CYEG 261000Z 00000KT 15SM BKN081 BKN097 06/06 A2986 RMK AC5AC2 SLP122
CYEG;2004-08-26 11:00;METAR CYEG 261100Z 00000KT 15SM FEW053 BKN080 BKN095 05/05 A2988 RMK SC2AC2AC2 SLP129 SLP129
CYEG;2004-08-26 12:00;METAR CYEG 261200Z 09002KT 15SM SCT049 SCT080 BKN093 06/05 A2990 RMK SC3AC1ACC3 SLP138 SLP138
CYEG;2004-08-26 13:00;METAR CYEG 261300Z 00000KT 15SM FEW050 SCT080 BKN250 05/05 A2992 RMK SC2ACC2CI1 SLP144 SLP144
CYEG;2004-08-26 14:00;METAR CYEG 261400Z 03004KT 15SM SCT050 BKN090 BKN150 BKN250 06/06 A2994 RMK SC4AC1AC1CI0 TCU EMBDD TR HIER AC SLP151
CYEG;2004-08-26 15:00;METAR CYEG 261500Z 00000KT 15SM BKN045 BKN090 BKN150 BKN250 10/09 A2996 RMK SC5AC1AC1CI0 TCU EMBD SLP161
CYEG;2004-08-26 16:00;METAR CYEG 261600Z 06003KT 15SM FEW045 BKN100 BKN250 11/08 A2997 RMK SC2AC3CI0 TCU+ACC ASOCTD SLP165 TCU+ACC ASOCTD SLP165
CYEG;2004-08-26 17:00;METAR CYEG 261700Z 10004KT 15SM FEW045 SCT100 BKN250 14/08 A2998 RMK SC2AC1CI0 TCU ASOCTD SLP167 TCU ASOCTD SLP167
CYEG;2004-08-26 18:00;METAR CYEG 261800Z 14002KT 15SM FEW045 FEW100 SCT250 16/05 A2999 RMK SC1AC1CI0 TR AC SLP168 AC SLP168
CYEG;2004-08-26 19:00;METAR CYEG 261900Z 12004KT 15SM FEW040 FEW090 SCT250 17/06 A2999 RMK CU1AC1CI0 TR CU SLP169 CU SLP169
CYEG;2004-08-26 20:00;METAR CYEG 262000Z 12003KT 15SM SCT045 SCT090 BKN250 17/06 A2999 RMK CU3AC1CI0 SLP169 SLP169
CYEG;2004-08-26 21:00;METAR CYEG 262100Z 12003KT 15SM SCT045 SCT090 BKN250 19/08 A2999 RMK CU3AC1CI0 FEW TCU SLP167 FEW TCU SLP167
CYEG;2004-08-26 22:00;METAR CYEG 262200Z 36004KT 15SM SCT045 SCT090 BKN250 18/07 A2999 RMK CU3AC1CI1 FEW TCU TR AC SLP167 FEW TCU TR AC SLP167
CYEG;2004-08-26 23:00;METAR CYEG 262300Z 08002KT 15SM FEW045 FEW090 BKN250 19/07 A2999 RMK CU2AC1CI1 FEW TCU TR AC SLP167
CYEG;2004-08-27 00:00;METAR CYEG 270000Z 12005KT 15SM FEW045 FEW090 BKN250 19/08 A3000 RMK CU2AC1CI0 TCU ASOCTD SLP170 TCU ASOCTD SLP170
CYEG;2004-08-27 01:00;METAR CYEG 270100Z 12006KT 15SM FEW045 SCT090 BKN250 17/08 A3001 RMK CU2AC2CI0 TCU+ACC ASOCTD SLP174 TCU+ACC ASOCTD SLP174
CYEG;2004-08-27 02:00;METAR CYEG 270200Z 08008KT 15SM SCT050TCU BKN090 BKN250 17/09 A3002 RMK TCU4AC2CI1 CB/SH SW QUAD SLP176
CYEG;2004-08-27 03:00;METAR CYEG 270300Z 09008KT 15SM FEW050TCU BKN085 BKN120 BKN170 15/09 A3003 RMK TCU2AC2AC2AC1 CB/SH SW-W SLP181 TCU2AC2AC2AC1 CB/SH SW-W SLP181
CYEG;2004-08-27 04:00;METAR CYEG 270400Z 21007KT 15SM FEW050TCU BKN080 BKN120 OVC170 13/10 A3006 RMK TCU2AC2AC2AC1 SLP189 TCU2AC2AC2AC1 SLP189
CYEG;2004-08-27 05:00;METAR CYEG 270500Z 00000KT 15SM FEW050TCU BKN110 OVC170 12/10 A3006 RMK TCU2AC4AC2 SLP189
CYEG;2004-08-27 06:00;METAR CYEG 270600Z 13005KT 15SM FEW050 FEW070 BKN110 BKN170 11/10 A3006 RMK SC1AC2AC2AC2 SLP188
CYEG;2004-08-27 07:00;METAR CYEG 270700Z 12004KT 15SM FEW073 BKN110 BKN170 10/10 A3005 RMK AC2AC2AC1 SLP184 SLP184
CYEG;2004-08-27 08:00;METAR CYEG 270800Z 13005KT 15SM SCT070 BKN100 BKN170 10/09 A3004 RMK AC3AC2AC1 SLP183 SLP183
CYEG;2004-08-27 09:00;METAR CYEG 270900Z 09003KT 15SM FEW060 BKN080 BKN110 10/09 A3004 RMK SC2AC2AC1 SLP180 SLP180
CYEG;2004-08-27 10:00;METAR CYEG 271000Z 12002KT 15SM SCT055 BKN100 10/09 A3003 RMK SC3AC2 SLP177
CYEG;2004-08-27 11:00;METAR CYEG 271100Z 00000KT 8SM MIFG FEW070 FEW110 08/08 A3003 RMK AC1AC1 AC1AC1 SLP184
CYEG;2004-08-27 13:00;METAR CYEG 271300Z 00000KT 1/2SM R30/P6000FT R12/3500FT FG FEW070 FEW110 SCT250 04/04 A3004 RMK AC1AC1CI0 ACC EMBD SE SLP184 04/04 A3004 RMK AC1AC1CI0 ACC EMBD SE SLP184
CYEG;2004-08-27 14:00;METAR CYEG 271400Z 00000KT 2 1/2SM BR FEW002 FEW100 SCT250 07/07 A3004 RMK SF1AC1CI0 VIS W 1F ACC ASOCTD SLP186
CYEG;2004-08-27 15:00;METAR CYEG 271500Z 00000KT 12SM FEW003 FEW030 FEW150 FEW250 12/10 A3004 RMK SF1CU1AC1CI1 TR SF TR CU SLP181
CYEG;2004-08-27 16:00;METAR CYEG 271600Z 16003KT 15SM FEW020 FEW150 BKN250 14/11 A3003 RMK CU1AC2CI1 SLP178 SLP178
CYEG;2004-08-27 17:00;METAR CYEG 271700Z 27002KT 15SM FEW020 SCT150 BKN250 15/10 A3002 RMK CU2AC1CI1 CC ASOCTD SLP177 ASOCTD SLP177
CYEG;2004-08-27 18:00;METAR CYEG 271800Z 24003KT 15SM FEW020 FEW150 BKN250 17/11 A3002 RMK CU1AC1CI2 SLP172 SLP172
CYEG;2004-08-27 19:00;METAR CYEG 271900Z 26004KT 15SM FEW025 SCT150 BKN250 17/11 A3001 RMK CU2AC1CI2 TCU DIST W SLP170 TCU DIST W SLP170
CYEG;2004-08-27 20:00;METAR CYEG 272000Z 00000KT 15SM FEW035 SCT150 BKN250 19/10 A3000 RMK CU2AC0CI2 SLP167 SLP167
CYEG;2004-08-27 21:00;METAR CYEG 272100Z 29004KT 15SM FEW035 FEW150 SCT250 19/10 A2998 RMK CU1AC1CI1 FEW TCU SLP160 FEW TCU SLP160
CYEG;2004-08-27 22:00;METAR CYEG 272200Z 25007KT 15SM FEW040 FEW150 SCT250 21/10 A2997 RMK CU2AC1CI1 TCU ASOCTD TR AC SLP156 TCU ASOCTD TR AC SLP156
CYEG;2004-08-27 23:00;METAR CYEG 272300Z 25004KT 15SM FEW045TCU FEW130 BKN250 21/09 A2996 RMK TCU2AC1CI1 CB DIST W TR AC SLP152
CYEG;2004-08-28 00:00;METAR CYEG 280000Z 26004KT 15SM FEW048TCU FEW100 SCT170 BKN250 20/08 A2995 RMK TCU2AC0AS1CI1 SLP153 TCU2AC0AS1CI1 SLP153
CYEG;2004-08-28 01:00;METAR CYEG 280100Z 26005KT 15SM FEW040TCU FEW100 SCT170 BKN250 19/09 A2995 RMK TCU2AC1AS1CI2 SHRA DIST S SLP153 TCU2AC1AS1CI2 SHRA DIST S SLP153
CYEG;2004-08-28 02:00;METAR CYEG 280200Z 24002KT 15SM FEW040TCU BKN081 BKN250 16/12 A2995 RMK TCU1AC4CI1 VIRGA W SLP151
CYEG;2004-08-28 03:00;METAR CYEG 280300Z 09002KT 12SM TSRA BKN048CB BKN080 BKN130 BKN250 14/08 A2996 RERA RMK CB6AC2AC1CI1 LTG OVHD SLP154 RERA RMK CB6AC2AC1CI1 LTG OVHD SLP154
CYEG;2004-08-28 04:00;METAR CYEG 280400Z 00000KT 15SM FEW050 BKN100 BKN250 12/10 A2995 RETSRA RMK SC2AC2CI1 SLP151
CYEG;2004-08-28 05:00;METAR CYEG 280500Z 19006KT 15SM FEW100 SCT140 BKN250 11/09 A2993 RMK AC1AC2CI1 SLP144 SLP144
CYEG;2004-08-28 06:00;METAR CYEG 280600Z 24004KT 15SM FEW100 BKN160 BKN250 09/08 A2992 RMK AC1AC5CI0 SLP142 SLP142
CYEG;2004-08-28 07:00;METAR CYEG 280700Z 19002KT 15SM FEW110 OVC150 09/09 A2991 RMK AC1AC6 SLP139
CYEG;2004-08-28 08:00;METAR CYEG 280800Z 15002KT 15SM SCT100 BKN130 09/09 A2990 RMK AC4AC3 SLP135
CYEG;2004-08-28 09:00;METAR CYEG 280900Z 16002KT 15SM BKN095 10/09 A2989 RMK AC6 SLP128
CYEG;2004-08-28 10:00;METAR CYEG 281000Z 18003KT 15SM FEW090 OVC110 10/09 A2987 RMK AC2AC6 SLP123
CYEG;2004-08-28 11:00;METAR CYEG 281100Z 13002KT 15SM BKN082 OVC110 10/09 A2986 RMK AC5AC3 VIRGA N SLP120 SLP120
CYEG;2004-08-28 12:00;METAR CYEG 281200Z 19004KT 15SM BKN084 BKN200 10/09 A2985 RMK AC6CI1 SLP115
CYEG;2004-08-28 13:00;METAR CYEG 281300Z 20004KT 15SM -SHRA BKN073 BKN100 BKN200 10/09 A2986 RMK AC6AC2CI1 SLP116
CYEG;2004-08-28 14:00;METAR CYEG 281400Z 31007KT 12SM -RA BKN062 BKN075 OVC100 11/10 A2988 RMK SC5AC2AC1 SLP122
CYEG;2004-08-28 15:00;METAR CYEG 281500Z 29005KT 5SM -RA BKN045 OVC060 11/11 A2989 RMK SC6SC2 SLP131
CYEG;2004-08-28 16:00;METAR CYEG 281600Z 22005KT 10SM -RA SCT040 OVC059 12/12 A2988 RERA RMK SC3SC5 SLP127 SLP127
CYEG;2004-08-28 17:00;METAR CYEG 281700Z 23006KT 15SM FEW040 SCT059 BKN100 14/12 A2987 RMK SC2SC2AC4 SHRA N+SE QUADS VIRGA W SLP126 SHRA N+SE QUADS VIRGA W SLP126
CYEG;2004-08-28 18:00;METAR CYEG 281800Z 30010G15KT 15SM FEW015 BKN081 BKN100 BKN230 14/12 A2988 RMK CU1AC4AC1CI1 CF ASOCTD SLP129 CU1AC4AC1CI1 CF ASOCTD SLP129
CYEG;2004-08-28 19:00;METAR CYEG 281900Z 32011G16KT 15SM FEW025 SCT036 BKN094 BKN230 16/10 A2988 RMK CU2SC2AC2CI1 TCU ASOCTD VIRGA OVRHD S SLP129 CU2SC2AC2CI1 TCU ASOCTD VIRGA OVRHD S SLP129
CYEG;2004-08-28 20:00;METAR CYEG 282000Z 31011G16KT 15SM SCT030 SCT100 SCT230 18/10 A2988 RMK CU3AC1CI1 FEW TCU ASOCTD CB TPS DIST E-SE SLP129 FEW TCU ASOCTD CB TPS DIST E-SE SLP129
CYEG;2004-08-28 21:00;METAR CYEG 282100Z 32015G20KT 15SM FEW040 FEW100 FEW230 18/08 A2987 RMK CU2AC1CI1 TCU ASOCTD SHRA N-NE + DIST SW-W SLP123 TCU ASOCTD SHRA N-NE + DIST SW-W SLP123
CYEG;2004-08-28 22:00;METAR CYEG 282200Z 32010G15KT 15SM SCT040 SCT080 BKN230 17/08 A2987 RMK CU3AC1CI1 TCU ASOCTD VIRGA SW SLP123 TCU ASOCTD VIRGA SW SLP123
CYEG;2004-08-28 23:00;METAR CYEG 282300Z 29011KT 15SM FEW040TCU FEW080 FEW230 18/07 A2988 RMK TCU2AC1CI1 TCU SHRA/VIRGA NE + SW TR CI SLP124
CYEG;2004-08-29 00:00;METAR CYEG 290000Z 27007KT 15SM TS SCT040CB BKN058 BKN100 BKN230 18/09 A2988 RMK CB3SC2AC1CI0 CB SHRA SE-S + W-NW SLP127 CB3SC2AC1CI0 CB SHRA SE-S + W-NW SLP127
CYEG;2004-08-29 01:00;METAR CYEG 290100Z 32010G24KT 15SM -TSRA SCT048CB BKN072 BKN100 12/09 A2990 RMK CB4AC2AC1 CB OVRHD NE-E SLP134 CB4AC2AC1 CB OVRHD NE-E SLP134
CYEG;2004-08-29 02:00;METAR CYEG 290200Z 29006KT 15SM FEW053CB FEW110 FEW250 13/09 A2991 CB1AC1CI1 CB TP NE+SW+NW SLP136
CYEG;2004-08-29 03:00;METAR CYEG 290300Z 29006KT 15SM FEW100 11/08 A2994 RMK AC1 CB TPS SW SLP150
CYEG;2004-08-29 04:00;METAR CYEG 290400Z 27005KT 15SM FEW100 09/07 A2995 RMK AC1 SLP153
CYEG;2004-08-29 05:00;METAR CYEG 290500Z 28006KT 15SM FEW100 09/08 A2996 RMK AC1 SLP158
CYEG;2004-08-29 06:00;METAR CYEG 290600Z 27005KT 15SM FEW100 07/06 A2996 RMK AC1 SLP161
CYEG;2004-08-29 07:00;METAR CYEG 290700Z 27004KT 15SM FEW100 06/06 A2997 RMK AC1 SLP164
CYEG;2004-08-29 08:00;METAR CYEG 290800Z 24004KT 15SM FEW100 FEW250 05/05 A2999 RMK AC1CI1 TR CLD SLP168
CYEG;2004-08-29 10:00;METAR CYEG 291000Z 28004KT 15SM FEW100 FEW250 06/06 A2999 RMK AC1CI0 SLP167
CYEG;2004-08-29 11:00;METAR CYEG 291100Z 24002KT 15SM FEW100 FEW250 04/04 A2999 RMK AC1CI0 SLP166
CYEG;2004-08-29 12:00;METAR CYEG 291200Z 20002KT 15SM FEW100 FEW250 04/04 A2999 RMK AC1CI0
CYEG;2004-08-29 13:00;METAR CYEG 291300Z 22002KT 15SM FEW025 FEW100 BKN250 03/03 A2998 RMK SC1AC1CI1 SLP166
CYEG;2004-08-29 14:00;METAR CYEG 291400Z 17002KT 15SM FEW030 FEW100 BKN250 07/07 A2999 RMK SC1AC1CI2 SLP168
CYEG;2004-08-29 15:00;METAR CYEG 291500Z 00000KT 15SM FEW100 BKN250 09/08 A2999 RMK ACC1CI2 SLP172
CYEG;2004-08-29 16:00;METAR CYEG 291600Z 00000KT 15SM FEW015 FEW035 FEW100 BKN250 12/09 A2998 RMK CU1SC1AC1CI2 SLP169
CYEG;2004-08-29 17:00;METAR CYEG 291700Z 00000KT 15SM FEW015 FEW100 BKN250 14/11 A2998 RMK CU1AC0CI3 SLP167
CYEG;2004-08-29 18:00;METAR CYEG 291800Z 00000KT 15SM FEW020 FEW100 SCT200 BKN250 15/09 A2996 RMK CU1AC1CS2CI0 TR AC SLP160
CYEG;2004-08-29 19:00;METAR CYEG 291900Z 13004KT 15SM FEW025 SCT120 BKN210 BKN250 15/09 A2996 RMK CU2AC1CS2CI0 SLP158
CYEG;2004-08-29 20:00;METAR CYEG 292000Z 16003KT 15SM FEW025 SCT120 SCT170 BKN210 16/08 A2996 RMK CU2AC1AS1CS2 SLP157
CYEG;2004-08-29 21:00;METAR CYEG 292100Z 20002KT 15SM SCT035 BKN055 BKN170 OVC210 16/09 A2994 RMK CU4SC2AS1CS2 SLP151
CYEG;2004-08-29 22:00;METAR CYEG 292200Z 15004KT 15SM SCT040 SCT055 BKN080 OVC210 16/09 A2993 RMK CU3SC1AS4CS1 TR SC SLP147
CYEG;2004-08-29 23:00;METAR CYEG 292300Z 18004KT 15SM -SHRA SCT040 BKN055 OVC070 15/11 A2992 RMK SC4SC1AS3 SLP146
CYEG;2004-08-30 00:00;METAR CYEG 300000Z 22003KT 12SM -SHRA BKN039 OVC070 14/12 A2994 RMK SC5AS3 SLP154
CYEG;2004-08-30 01:00;METAR CYEG 300100Z 12003KT 15SM -SHRA FEW040 BKN064 OVC090 13/12 A2992 RMK SC2SC5AS2 SLP148
CYEG;2004-08-30 02:00;METAR CYEG 300200Z 08004KT 15SM FEW035 BKN068 OVC140 13/11 A2991 RMK SC2AC6AC1 SLP145 SLP145
CYEG;2004-08-30 03:00;METAR CYEG 300300Z 10005KT 15SM FEW035 SCT058 BKN076 OVC140 13/11 A2991 RMK SC1SC2AC3AS2 SLP143
CYEG;2004-08-30 04:00;METAR CYEG 300400Z 08004KT 15SM SCT048 OVC077 12/11 A2992 RMK SC4AC4 SLP144
CYEG;2004-08-30 05:00;METAR CYEG 300500Z 09005KT 15SM FEW048 BKN072 OVC140 12/11 A2991 RMK SC2AC3AS1 SLP142 SLP142
CYEG;2004-08-30 06:00;METAR CYEG 300600Z 00000KT 6SM -RA BR OVC035 12/11 A2992 RMK SC8 SLP141
CYEG;2004-08-30 07:00;METAR CYEG 300700Z 12005KT 10SM -RA BKN033 OVC070 11/11 A2992 RERA RMK SC6AC2 BR SLP142
CYEG;2004-08-30 08:00;METAR CYEG 300800Z 10008KT 10SM -RA SCT030 BKN060 OVC090 11/11 A2991 RMK SC3SC3AC2 BR SLP137
CYEG;2004-08-30 09:00;METAR CYEG 300900Z 14007KT 15SM -RA FEW040 SCT060 OVC090 11/11 A2989 RMK SC2SC2AS3 R- VRY LGT SLP131
CYEG;2004-08-30 10:00;METAR CYEG 301000Z 18003KT 15SM -RA FEW008 FEW040 FEW070 OVC120 11/11 A2991 RMK SF1SC1AC1AS6 SLP137 SF1SC1AC1AS6 SLP137
CYEG;2004-08-30 11:00;METAR CYEG 301100Z 00000KT 10SM -RA FEW008 FEW015 SCT040 BKN065 OVC090 11/10 A2992 RMK SF1SC2SC2SC2AS2 BR SLP139 A2992 RMK SF1SC2SC2SC2AS2 BR SLP139
CYEG;2004-08-30 12:00;METAR CYEG 301200Z 13003KT 10SM -RA FEW005 FEW015 BKN067 OVC090 11/10 A2991 RMK SF1SC2AC3AS2 BR SLP141 SF1SC2AC3AS2 BR SLP141
CYEG;2004-08-30 13:00;METAR CYEG 301300Z 16002KT 4SM -RA BR SCT012 OVC072 11/11 A2992 RMK SC3AS5 SLP143
CYEG;2004-08-30 15:00;METAR CYEG 301500Z 17003KT 6SM BR SCT011 OVC063 12/11 A2994 RMK SC3SC4 SLP150
CYEG;2004-08-30 16:00;METAR CYEG 301600Z 25002KT 6SM BR SCT006 OVC063 13/12 A2995 RMK SF4SC4 SLP153
CYEG;2004-08-30 17:00;METAR CYEG 301700Z 23002KT 12SM BKN009 OVC077 14/13 A2996 RMK CF5AC2 BR SLP155
CYEG;2004-08-30 18:00;METAR CYEG 301800Z 25003KT 12SM BKN010 OVC077 15/13 A2997 RMK CU6AC1 BR SLP159
CYEG;2004-08-30 19:00;METAR CYEG 301900Z 30005KT 15SM BKN014 BKN077 16/13 A2998 RMK CU6AC1 SLP162
CYEG;2004-08-30 20:00;METAR CYEG 302000Z 32005KT 15SM FEW018 FEW033 BKN080 17/13 A2999 RMK CU2SC1AC2 SLP165 SLP165
CYEG;2004-08-30 21:00;METAR CYEG 302100Z 04003KT 15SM SCT022 SCT080 BKN250 18/13 A2999 RMK CU3AC1CI1 SLP161 SLP161
CYEG;2004-08-30 22:00;METAR CYEG 302200Z 34004KT 15SM BKN028 BKN250 18/12 A3000 RMK CU5CI0 SLP164
CYEG;2004-08-30 23:00;METAR CYEG 302300Z 32003KT 15SM SCT030 BKN110 19/12 A2999 RMK CU4AC1 SLP163
CYEG;2004-08-31 00:00;METAR CYEG 310000Z 04003KT 15SM FEW030 BKN110 18/12 A3000 RMK CU2AC2 TCU ASOCTD SHRA SW SLP166 SHRA SW SLP166
CYEG;2004-08-31 01:00;METAR CYEG 310100Z 04002KT 15SM FEW030 SCT090 BKN250 18/12 A3001 RMK CU2AC2CI2 VIRGA W SLP168 VIRGA W SLP168
CYEG;2004-08-31 02:00;METAR CYEG 310200Z 07006KT 15SM FEW030 FEW090 BKN140 BKN250 16/12 A3001 RMK CU1AC2AC1CI2 ACC ASOCTD VIRGA/SHRA S SLP168
CYEG;2004-08-31 03:00;METAR CYEG 310300Z 00000KT 15SM FEW039 SCT072 BKN110 BKN170 OVC250 14/13 A3004 RMK SC1AC2AC2AS2CI1 SHRA S-SW-W SLP182 RMK SC1AC2AC2AS2CI1 SHRA S-SW-W SLP182
CYEG;2004-08-31 04:00;METAR CYEG 310400Z 13005KT 15SM -SHRA FEW038 BKN070 BKN095 OVC140 14/13 A3003 RMK SC2AC4AC2AS1 ACC AMBD SLP180 SC2AC4AC2AS1 ACC AMBD SLP180
CYEG;2004-08-31 05:00;METAR CYEG 310500Z 27002KT 15SM -SHRA FEW040 BKN085 OVC130 14/13 A3003 RMK SC2AC6AS1 ACC EMBD SLP181
CYEG;2004-08-31 06:00;METAR CYEG 310600Z 18002KT 15SM FEW040 BKN081 BKN110 OVC250 13/13 A3003 RMK SC1AC5AS1CI1 ACC EMBD OCNL RW- SLP179
CYEG;2004-08-31 07:00;METAR CYEG 310700Z 16008KT 15SM -SHRA BKN090 BKN250 14/13 A3002 RMK AC5CI1 ACC EMBD SLP174 EMBD SLP174
CYEG;2004-08-31 08:00;METAR CYEG 310800Z 17006KT 15SM FEW068 SCT090 BKN160 BKN250 13/12 A3001 RMK ACC2AC2AC2CI1 VIRGA NW + E SLP172
CYEG;2004-08-31 09:00;METAR CYEG 310900Z 17006KT 15SM FEW055 SCT090 BKN170 13/12 A3001 RMK SC2AC2AC2 SLP167 SLP167
CYEG;2004-08-31 10:00;METAR CYEG 311000Z 14010KT 15SM FEW090 BKN160 OVC270 12/11 A2998 RMK AC2AC2CI2 SLP160 SLP160
CYEG;2004-08-31 11:00;METAR CYEG 311100Z 15006KT 15SM SCT100 BKN150 OVC270 12/11 A2997 RMK AC3AC3CI2 SLP156 SLP156
CYEG;2004-08-31 12:00;METAR CYEG 311200Z 15008KT 15SM BKN110 OVC270 12/11 A2996 RMK AC6CI1 SLP151
CYEG;2004-08-31 13:00;METAR CYEG 311300Z 14008KT 15SM FEW070 SCT100 BKN150 OVC270 12/11 A2994 RMK ACC1AC2AC1CI1 ACC DIST E CC ASOCTD SLP144
CYEG;2004-08-31 14:00;METAR CYEG 311400Z 15011G16KT 15SM FEW012 FEW100 BKN250 13/11 A2994 RMK SF1AC1CI2 TR SF SLP144 TR SF SLP144
CYEG;2004-08-31 15:00;METAR CYEG 311500Z 15007KT 12SM BKN008 OVC250 13/12 A2995 RMK SF7CI1 BR SLP149
CYEG;2004-08-31 16:00;METAR CYEG 311600Z 16007KT 12SM BKN010 14/12 A2994 RMK SF6 BR SLP146
CYEG;2004-08-31 17:00;METAR CYEG 311700Z 16007KT 12SM BKN012 BKN100 15/12 A2993 RMK CF5AC1 BR SLP143
CYEG;2004-08-31 18:00;METAR CYEG 311800Z 14006KT 12SM FEW012 FEW100 BKN250 17/13 A2991 RMK CF1AC1CI3 BR SLP136 SLP136
CYEG;2004-08-31 19:00;METAR CYEG 311900Z 15008KT 12SM FEW012 BKN250 17/13 A2991 RMK CF1CI6 BR SLP135
CYEG;2004-08-31 20:00;METAR CYEG 312000Z 16004KT 15SM FEW015 FEW100 BKN250 20/14 A2991 RMK SC1AC1CI5 SLP134 SLP134
CYEG;2004-08-31 21:00;METAR CYEG 312100Z 00000KT 15SM FEW100 BKN250 21/14 A2991 RMK AC1CI3 SLP130
CYEG;2004-08-31 22:00;METAR CYEG 312200Z 00000KT 15SM FEW030TCU FEW150 BKN250 21/14 A2990 RMK TCU1AC1CI3 TR TCU SW SLP129
CYEG;2004-08-31 23:00;METAR CYEG 312300Z 05002KT 15SM FEW030 FEW150 BKN250 22/15 A2989 RMK CU1AC2CI2 SLP126 SLP126
CYEG;2004-09-01 00:00;METAR CYEG 010000Z 09004KT 15SM FEW040 SCT150 BKN250 21/15 A2989 RMK CU1AC2CI2 SLP124 SLP124
CYEG;2004-09-01 01:00;METAR CYEG 010100Z 07006KT 15SM FEW120 SCT150 BKN250 20/15 A2989 RMK ACC2AC2CI2 SLP123 SLP123
CYEG;2004-09-01 02:00;METAR CYEG 010200Z 35004KT 15SM FEW110 SCT150 BKN250 18/15 A2988 RMK ACC2AC2CI2 SLP122 SLP122
CYEG;2004-09-01 03:00;METAR CYEG 010300Z 03005KT 12SM FEW120 SCT170 BKN250 16/14 A2989 RMK AC1AS2CI2 SLP129 SLP129
CYEG;2004-09-01 04:00;METAR CYEG 010400Z 34006KT 12SM FEW100 SCT170 OVC250 14/13 A2992 RMK AC2AS2CI2 SLP139 SLP139
CYEG;2004-09-01 05:00;METAR CYEG 010500Z 01007KT 10SM FEW100 SCT160 OVC230 15/14 A2992 RMK AC1AS2CS4 SLP137 SLP137
CYEG;2004-09-01 06:00;METAR CYEG 010600Z 04003KT 10SM FEW040CB SCT160 OVC230 14/13 A2991 RMK CB1AS2CS5 OCNL LTGIC DIST N SLP135 OCNL LTGIC DIST N SLP135
CYEG;2004-09-01 07:00;METAR CYEG 010700Z 33007KT 8SM FEW010 OVC240 13/13 A2993 RMK ST1CS6 BR SLP141
CYEG;2004-09-01 08:00;METAR CYEG 010800Z 02004KT 4SM BR FEW006 SCT130 OVC250 13/13 A2993 RMK SF2AS1CS5 LO CLD SE QUAD SLP141 LO CLD SE QUAD SLP141
CYEG;2004-09-01 09:00;METAR CYEG 010900Z 33004KT 4SM BR FEW004 BKN130 OVC250 12/12 A2993 RMK ST1AC3CS4 SLP137
CYEG;2004-09-01 10:00;METAR CYEG 011000Z 31007KT 3SM BR SCT006 BKN130 OVC180 12/12 A2995 RMK SF2AC2AS4 LO CLD SE QUAD MOON DMLY VISBL SLP144 LO CLD SE QUAD MOON DMLY VISBL SLP144
CYEG;2004-09-01 11:00;METAR CYEG 011100Z 31006KT 2 1/2SM BR BKN007 BKN130 OVC250 12/12 A2994 RMK SF6AC1CS2 SLP142
CYEG;2004-09-01 12:00;METAR CYEG 011200Z 02004KT 2SM BR OVC002 12/12 A2992 RMK FG2ST6 CIG VRBL 1-3 SLP136 SLP136
CYEG;2004-09-01 13:00;METAR CYEG 011300Z 32004KT 1 1/2SM BR OVC002 12/12 A2994 RMK FG3ST5 CIG VRBL 1-3 SLP141
CYEG;2004-09-01 14:00;METAR CYEG 011400Z 36003KT 1 3/4SM BR OVC004 13/12 A2993 RMK FG2ST6 SLP137
CYEG;2004-09-01 15:00;METAR CYEG 011500Z 03006KT 1 3/4SM BR BKN003 OVC006 13/12 A2991 RMK FG2SF5ST2 SLP137
CYEG;2004-09-01 16:00;METAR CYEG 011600Z 06004KT 2SM BR BKN004 OVC006 13/12 A2989 RMK FG1SF6ST2 SLP130
CYEG;2004-09-01 17:00;METAR CYEG 011700Z 05007KT 2SM BR BKN008 OVC011 14/13 A2988 RMK SF6SC2 SLP125
CYEG;2004-09-01 18:00;METAR CYEG 011800Z 03007KT 10SM BKN011 OVC020 15/12 A2987 RMK SC7SC1 SLP121
CYEG;2004-09-01 19:00;METAR CYEG 011900Z 05007KT 12SM BKN018 OVC032 15/12 A2984 RMK SC6SC2 BR SLP114
CYEG;2004-09-01 20:00;METAR CYEG 012000Z 06008KT 15SM SCT020 SCT040 BKN250 18/13 A2981 RMK SC3SC1CI1 SLP102 SLP102
CYEG;2004-09-01 21:00;METAR CYEG 012100Z 07011KT 15SM OVC020 17/13 A2977 RMK SC8 SLP086
CYEG;2004-09-01 22:00;METAR CYEG 012200Z 09007KT 15SM OVC024 17/13 A2976 RMK SC8 SLP083
CYEG;2004-09-01 23:00;METAR CYEG 012300Z 05008KT 15SM BKN024 OVC035 17/14 A2971 RMK SC6SC2 SLP068
CYEG;2004-09-02 00:00;METAR CYEG 020000Z 05010KT 15SM BKN022 BKN035 17/14 A2969 RMK SC6SC1 SLP059
CYEG;2004-09-02 01:00;METAR CYEG 020100Z 11004KT 15SM BKN017 OVC035 17/14 A2970 RMK SC7SC1 SLP062
CYEG;2004-09-02 02:00;METAR CYEG 020200Z 14009KT 15SM FEW017 BKN031 OVC110 16/13 A2971 RMK SC2SC3AC2 SLP066 SLP066
CYEG;2004-09-02 03:00;METAR CYEG 020300Z 12008KT 15SM FEW017 BKN030 BKN110 OVC250 15/13 A2970 RMK SC2SC5AC1CI1 SLP062
CYEG;2004-09-02 04:00;METAR CYEG 020400Z 09011KT 15SM FEW030 BKN100 OVC250 15/13 A2966 RMK SC2AC5CI1 CB ASOCTD OCNL LTGIC DIST NW SLP052 ASOCTD OCNL LTGIC DIST NW SLP052
CYEG;2004-09-02 05:00;METAR CYEG 020500Z 12002KT 15SM FEW030 BKN110 OVC250 14/13 A2966 RMK SC2AC5CI1 CB ASOCTD OCNL LTGIC DIST SW SLP050 ASOCTD OCNL LTGIC DIST SW SLP050
CYEG;2004-09-02 06:00;METAR CYEG 020600Z 09003KT 15SM -TSRA BKN010 OVC032 14/13 A2964 RMK SC5SC3 CB EMBD OCNL LTGIC SW-W SLP041 EMBD OCNL LTGIC SW-W SLP041
CYEG;2004-09-02 07:00;METAR CYEG 020700Z 23004KT 10SM -SHRA BKN005 BKN025 OVC072 13/13 A2964 RETSRA RMK SF2SC3AC2 CVCTV CLD EMBD SLP044 SF2SC3AC2 CVCTV CLD EMBD SLP044
CYEG;2004-09-02 08:00;METAR CYEG 020800Z 31006KT 15SM FEW008 SCT026CB BKN054 OVC120 12/11 A2962 RETSRA RMK SF1CB2SC4AC1 OCNL LTGCCIC N + NE SLP037 RMK SF1CB2SC4AC1 OCNL LTGCCIC N + NE SLP037
CYEG;2004-09-02 09:00;METAR CYEG 020900Z 26005KT 15SM FEW008 OVC054 11/11 A2961 RMK ST1SC7 SLP034
CYEG;2004-09-02 10:00;METAR CYEG 021000Z 25003KT 15SM FEW008 BKN061 11/11 A2960 RMK ST1SC6 SLP031
CYEG;2004-09-02 11:00;METAR CYEG 021100Z 22003KT 15SM FEW062 BKN088 11/10 A2959 RMK SC2AC6 FEW ACC/VIRGA ASOCTD SW-W SLP027
CYEG;2004-09-02 13:00;METAR CYEG 021300Z 27005KT 15SM FEW005 FEW030TCU FEW090 BKN220 10/10 A2959 RMK SF1TCU1AC1CI1 CB ASOCTD S-SW + NW-N SHRA W SLP026 SF1TCU1AC1CI1 CB ASOCTD S-SW + NW-N SHRA W SLP026
CYEG;2004-09-02 14:00;METAR CYEG 021400Z 27005KT 15SM FEW008 SCT020 BKN028 BKN090 BKN180 11/11 A2962 RMK SF1SC2SC2AC1AC1 ACC ASOCTD SE SC INVDG FM NW SLP034 RMK SF1SC2SC2AC1AC1 ACC ASOCTD SE SC INVDG FM NW SLP034
CYEG;2004-09-02 15:00;METAR CYEG 021500Z 27005KT 15SM FEW008 BKN013 BKN027 BKN090 12/11 A2963 RMK SF2CU3SC2AC1 SLP039
CYEG;2004-09-02 16:00;METAR CYEG 021600Z 25006KT 15SM FEW008 BKN012 BKN067 12/11 A2963 RMK CU2SC5AC1 SLP040 SLP040
CYEG;2004-09-02 17:00;METAR CYEG 021700Z 24004KT 15SM FEW010 BKN013 BKN017 13/10 A2965 RMK SF1SC3SC3 SLP048 SLP048
CYEG;2004-09-02 18:00;METAR CYEG 021800Z 23005KT 15SM SCT014 BKN020 BKN030 BKN080 14/11 A2965 RMK CU3SC2SC1AC1 SLP047
CYEG;2004-09-02 19:00;METAR CYEG 021900Z 25003KT 15SM SCT020 SCT050 BKN250 15/10 A2965 RMK CU3SC1CI1 SLP047 SLP047
CYEG;2004-09-02 20:00;METAR CYEG 022000Z 28002KT 15SM SCT025 BKN058 15/09 A2967 RMK CU4SC3 FEW TCU SLP053 SLP053
CYEG;2004-09-02 21:00;METAR CYEG 022100Z 25011KT 15SM BKN021TCU BKN085 14/10 A2967 RMK TCU5AC2 SLP057
CYEG;2004-09-02 22:00;METAR CYEG 022200Z 25009KT 15SM SCT024TCU BKN055 BKN250 17/11 A2969 RMK TCU4SC1CI1 SLP061
CYEG;2004-09-02 23:00;METAR CYEG 022300Z 27007KT 10SM SHRA BKN025TCU BKN050 13/11 A2970 RMK TCU6SC2 VIS E-SE 2 SM SLP065 E-SE 2 SM SLP065
CYEG;2004-09-03 00:00;METAR CYEG 030000Z 27007KT 12SM -SHRA BKN028CB BKN050 BKN070 13/11 A2970 RERA RMK CB5SC2AC1 LTNG SE HVYR SH E-SE SLP069
CYEG;2004-09-03 01:00;METAR CYEG 030100Z 13012KT 1 1/2SM +TSRA BR FEW008 BKN016 OVC028CB 11/10 A2975 RMK SF2SC3CB3 SLP084 RMK SF2SC3CB3 SLP084
CYEG;2004-09-03 02:00;METAR CYEG 030200Z 19007KT 8SM -SHRA FEW008 BKN029 OVC045 09/09 A2977 RETSRA RMK SF2SC4SC2 TCU EMBD VIS SW 5 /R12/ SLP090 SF2SC4SC2 TCU EMBD VIS SW 5 /R12/ SLP090
CYEG;2004-09-03 03:00;METAR CYEG 030300Z 29002KT 15SM FEW025 SCT055 BKN068 OVC220 09/09 A2977 RMK SC1SC2AC4CI1 TCU EMBD SHRA S-SW-W-NW-N SLP095
CYEG;2004-09-03 04:00;METAR CYEG 030400Z 03004KT 15SM VCSH FEW012 SCT025 BKN063 OVC220 09/09 A2978 RMK SF2SC2SC2CI1 SHRA N QUAD SLP097 SF2SC2SC2CI1 SHRA N QUAD SLP097
CYEG;2004-09-03 05:00;METAR CYEG 030500Z 05002KT 15SM FEW025 OVC061 09/09 A2978 RMK SC2SC6 SHRA NW QUAD SLP097 SLP097
CYEG;2004-09-03 06:00;METAR CYEG 030600Z 35003KT 15SM MIFG FEW025 FEW060 BKN090 08/08 A2979 RMK SC1SC1AC2 SLP100 RMK FG2SC2 VSBY VRBL 1/2-11/2 SLP105
CYEG;2004-09-03 08:00;METAR CYEG 030800Z 27002KT 10SM FEW006 BKN016 OVC024 08/08 A2981 RMK ST2SC5SC2 SLP108 SLP108
CYEG;2004-09-03 09:00;METAR CYEG 030900Z 00000KT 12SM BKN006 OVC022 09/09 A2981 RMK SF7SC1 SLP107
CYEG;2004-09-03 10:00;METAR CYEG 031000Z 34005KT 10SM SCT003 BKN009 BKN020 OVC036 10/10 A2982 RMK SF2ST3SC2SC1 SLP109
CYEG;2004-09-03 11:00;METAR CYEG 031100Z 36005KT 8SM FEW006 BKN015 BKN075 09/08 A2982 RMK SF1SC4AC1 BR SLP109 SLP109
CYEG;2004-09-03 12:00;METAR CYEG 031200Z 34003KT 8SM FEW006 BKN013 BKN085 09/09 A2982 RMK SF1SC6AC1 BR SLP111 SLP111
CYEG;2004-09-03 13:00;METAR CYEG 031300Z 35003KT 8SM BKN006 BKN015 OVC100 10/10 A2983 RMK SF5SC2AC1 VIS E QUAD 3 BR SLP113 E QUAD 3 BR SLP113
CYEG;2004-09-03 14:00;METAR CYEG 031400Z 29002KT 12SM SCT008 BKN016 BKN100 10/10 A2983 RMK SF2SC5AC1 CU TOPS SW SLP112 TOPS SW SLP112
CYEG;2004-09-03 15:00;METAR CYEG 031500Z 30003KT 12SM SCT008 OVC013 11/10 A2983 RMK SF2SC6 SLP114 SF2SC4SC2 VIS HIER SW SLP112
CYEG;2004-09-03 17:00;METAR CYEG 031700Z 32006KT 2SM -RA BR FEW005 BKN008 BKN010 OVC024 11/11 A2981 RMK SF2SF2SC2SC2 VIS HIER N-NE SLP110 SF2SF2SC2SC2 VIS HIER N-NE SLP110
CYEG;2004-09-03 19:00;METAR CYEG 031900Z 29007KT 12SM SCT010 BKN033 BKN090 BKN250 13/11 A2979 RMK CU3SC2AC1CI1 TCU ASOCTD SHRA SW+NW+NE SLP103
CYEG;2004-09-03 20:00;METAR CYEG 032000Z 27009KT 8SM VCSH FEW008 SCT012TCU BKN032 OVC050 12/11 A2979 RMK SF2TCU2SC4SC1 SHRA E-SE-SW-NW SLP102 RMK SF2TCU2SC4SC1 SHRA E-SE-SW-NW SLP102
CYEG;2004-09-03 21:00;METAR CYEG 032100Z 28007KT 8SM -SHRA FEW008 BKN030 OVC050 12/11 A2978 RMK CU2SC4SC2 SLP097 CU2SC2AC5 RW- VRY LGT SLP095
CYEG;2004-09-03 23:00;METAR CYEG 032300Z 28005KT 15SM -SHRA FEW010 FEW030 OVC066 12/10 A2978 RMK CU1SC2AC6 RW- VRY LGT SLP098
CYEG;2004-09-04 00:00;METAR CYEG 040000Z 27006KT 12SM -SHRA FEW010 FEW030 OVC072 12/10 A2979 RMK CU1SC2AC6 SLP100
CYEG;2004-09-04 01:00;METAR CYEG 040100Z 26006KT 10SM -SHRA FEW010 FEW030 BKN055 OVC070 12/11 A2979 RMK CU1SC2SC3AC2 SLP101 CU1SC2SC3AC2 SLP101
CYEG;2004-09-04 02:00;METAR CYEG 040200Z 26006KT 12SM -SHRA FEW010 FEW032 BKN040 OVC070 11/11 A2979 RMK CU1SC2SC4AC2 SLP100 CU1SC2SC4AC2 SLP100
CYEG;2004-09-04 03:00;METAR CYEG 040300Z 23005KT 15SM FEW030 FEW060 BKN075 OVC130 11/10 A2980 RMK SC1SC1AC5AS1 SLP103
CYEG;2004-09-04 04:00;METAR CYEG 040400Z 27007KT 15SM BKN063 OVC110 11/10 A2980 RMK SC6AC2 SLP103
CYEG;2004-09-04 05:00;METAR CYEG 040500Z 27006KT 15SM BKN061 OVC100 11/10 A2979 RMK SC6AC2 SLP102
CYEG;2004-09-04 06:00;METAR CYEG 040600Z 27005KT 12SM -SHRA FEW047 BKN062 OVC100 11/10 A2979 RMK SC2SC5AC2 SLP100
CYEG;2004-09-04 07:00;METAR CYEG 040700Z 25003KT 15SM SCT045 SCT078 BKN100 10/10 A2979 RMK SC3AC1AC3 SHRA N SLP098 SHRA N SLP098
CYEG;2004-09-04 08:00;METAR CYEG 040800Z 23006KT 15SM FEW050 OVC100 10/10 A2978 RMK SC2AC6 SLP097
CYEG;2004-09-04 09:00;METAR CYEG 040900Z 24006KT 15SM FEW050 BKN099 10/09 A2978 RMK SC1AC6 SLP096
CYEG;2004-09-04 10:00;METAR CYEG 041000Z 26007KT 15SM BKN091 11/09 A2977 RMK AC6 SLP093
CYEG;2004-09-04 11:00;METAR CYEG 041100Z 25007KT 15SM FEW090 09/08 A2976 RMK AC1 SLP090
CYEG;2004-09-04 12:00;METAR CYEG 041200Z 24006KT 15SM FEW090 FEW250 08/07 A2976 RMK AC1CI0 SLP091
CYEG;2004-09-04 13:00;METAR CYEG 041300Z 22004KT 15SM FEW090 BKN250 07/06 A2975 RMK AC1CI0 SLP089
CYEG;2004-09-04 14:00;METAR CYEG 041400Z 19003KT 15SM FEW090 BKN250 08/07 A2975 RMK AC1CI2 ACC EMBD NW+NE SLP087 NW+NE SLP087
CYEG;2004-09-04 15:00;METAR CYEG 041500Z 20002KT 15SM FEW090 SCT180 BKN250 11/09 A2973 RMK AC2AC1CI2 ACC EMBD SLP080
CYEG;2004-09-04 16:00;METAR CYEG 041600Z 22006KT 15SM SCT072 BKN090 BKN180 BKN250 14/10 A2972 RMK AC3AC2AC2CI1 SLP076
CYEG;2004-09-04 17:00;METAR CYEG 041700Z 18006KT 15SM FEW072 BKN090 BKN180 BKN250 15/10 A2970 RMK AC2AC2AS2CI1 VIRGA SE-S SLP071
CYEG;2004-09-04 18:00;METAR CYEG 041800Z 18005KT 15SM FEW072 FEW090 BKN130 OVC250 16/11 A2969 RMK AC1AC1AS5CI1 VIRGA SLP060
CYEG;2004-09-04 19:00;METAR CYEG 041900Z 19007KT 15SM FEW072 FEW090 SCT110 OVC130 16/10 A2967 RMK AC1AC1AC2AS5 SLP056
CYEG;2004-09-04 20:00;METAR CYEG 042000Z 22008KT 15SM FEW070 BKN088 OVC120 17/09 A2966 RMK AC2AS4AS2 VIRGA SLP052 VIRGA SLP052
CYEG;2004-09-04 21:00;METAR CYEG 042100Z 25003KT 15SM -RA FEW030 SCT060 OVC070 17/09 A2965 RMK CU1SC2AS5 SLP047
CYEG;2004-09-04 22:00;METAR CYEG 042200Z 23006KT 15SM FEW030 FEW070 SCT090 BKN110 17/08 A2964 RMK CU1AC2AC2AS3 SHRA DIST W SLP045
CYEG;2004-09-04 23:00;METAR CYEG 042300Z 20004KT 15SM FEW030 SCT080 BKN110 17/09 A2964 RMK CU1AC3AS3 SHRA DIST SW VIRGA W + SE SLP043 SHRA DIST SW VIRGA W + SE SLP043
CYEG;2004-09-05 00:00;METAR CYEG 050000Z 20006KT 15SM FEW036 FEW100 BKN170 BKN250 17/08 A2964 RMK CU1AC1AC2CI2 TCU ASOCTD NW-N VIRGA S-W SLP044
CYEG;2004-09-05 01:00;METAR CYEG 050100Z 22005KT 15SM FEW036 FEW100 BKN170 BKN250 17/10 A2964 RMK CU1AC1AC2CI2 CB/SH NE SLP046
CYEG;2004-09-05 02:00;METAR CYEG 050200Z 23004KT 15SM FEW036 FEW100 FEW170 BKN250 14/10 A2965 RMK CU1AC1AC1CI2 CB TPS S+W SLP048
CYEG;2004-09-05 03:00;METAR CYEG 050300Z 19006KT 15SM FEW036 FEW170 BKN230 11/09 A2965 RMK CU1AC1CI2 CB TPS SW+N SLP052 TPS SW+N SLP052
CYEG;2004-09-05 04:00;METAR CYEG 050400Z 21003KT 15SM FEW100 FEW170 BKN230 10/09 A2966 RMK AC1AC1CI2 SLP056 SLP056
CYEG;2004-09-05 05:00;METAR CYEG 050500Z 27007KT 15SM SCT094 BKN230 11/09 A2968 RMK AC3CI2 VIRGA SLP060
CYEG;2004-09-05 06:00;METAR CYEG 050600Z 28008KT 15SM SCT094 BKN230 12/07 A2970 RMK AC3CI1 VIRGA SLP062
CYEG;2004-09-05 07:00;METAR CYEG 050700Z 29007KT 15SM FEW081 FEW230 10/06 A2971 RMK AC1CI0 SLP068
CYEG;2004-09-05 08:00;METAR CYEG 050800Z 22003KT 15SM FEW220 07/04 A2973 RMK CI0 SLP072
CYEG;2004-09-05 09:00;METAR CYEG 050900Z 26005KT 15SM FEW220 05/03 A2974 RMK CI1 SLP083
CYEG;2004-09-05 10:00;METAR CYEG 051000Z 22007KT 15SM SCT170 BKN220 06/03 A2975 RMK AC2CI1 SLP086
CYEG;2004-09-05 11:00;METAR CYEG 051100Z 25008KT 15SM FEW170 SCT220 06/04 A2975 RMK AC2CI1 SLP085
CYEG;2004-09-05 12:00;METAR CYEG 051200Z 26011KT 15SM BKN039 BKN120 BKN200 08/05 A2974 RMK SC5AC2CI0 SLP081 SLP081
CYEG;2004-09-05 13:00;METAR CYEG 051300Z 27014KT 15SM -RA BKN034 09/07 A2977 RMK SC7 SLP089
CYEG;2004-09-05 14:00;METAR CYEG 051400Z 27016G24KT 10SM -RA SCT028 OVC034 09/07 A2978 RMK SC3SC5 SLP094
CYEG;2004-09-05 15:00;METAR CYEG 051500Z 28015G22KT 8SM -RA SCT012 BKN025 OVC045 09/07 A2982 RMK SF2SC5SC2 BR SLP113
CYEG;2004-09-05 16:00;METAR CYEG 051600Z 29017G22KT 10SM -RA FEW015 BKN043 OVC070 09/08 A2986 RMK SF2SC3AS3 BR SLP125
CYEG;2004-09-05 17:00;METAR CYEG 051700Z 30017G24KT 12SM -RA BKN027 BKN043 OVC090 10/08 A2989 RMK SC6SC1AC1 SLP136
CYEG;2004-09-05 18:00;METAR CYEG 051800Z 30018G25KT 15SM SCT028 BKN033 OVC045 10/07 A2992 RMK SC4SC3SC1 INTMT R- SLP145 INTMT R- SLP145
CYEG;2004-09-05 19:00;METAR CYEG 051900Z 30018G27KT 15SM SCT028 BKN049 BKN090 11/06 A2994 RMK CU4SC2AC1 SLP151 SLP151
CYEG;2004-09-05 20:00;METAR CYEG 052000Z 31021G27KT 15SM SCT030 BKN054 12/06 A2996 RMK CU3SC4 SLP157
CYEG;2004-09-05 21:00;METAR CYEG 052100Z 31019G27KT 15SM SCT035 BKN059 12/05 A2999 RMK CU3SC4 SLP172
CYEG;2004-09-05 22:00;METAR CYEG 052200Z 32016G25KT 15SM BKN048 BKN250 12/05 A3001 RMK CU6CI1 SLP178
CYEG;2004-09-05 23:00;METAR CYEG 052300Z 31017KT 15SM BKN035 BKN250 13/06 A3002 RMK CU5CI1 SLP184
CYEG;2004-09-06 00:00;METAR CYEG 060000Z 31014G21KT 15SM SCT040 SCT090 BKN250 12/05 A3005 RMK CU3AC1CI1 SLP192 SLP192
CYEG;2004-09-06 01:00;METAR CYEG 060100Z 32010G15KT 15SM FEW035 FEW090 FEW250 11/05 A3007 RMK CU1AC1CI0 SLP196 SLP196 SLP202
CYEG;2004-09-06 03:00;METAR CYEG 060300Z 31004KT 15SM FEW090 08/05 A3010 RMK AC1 SLP213
CYEG;2004-09-06 04:00;METAR CYEG 060400Z 33003KT 15SM SKC 06/04 A3011 RMK SLP216
CYEG;2004-09-06 05:00;METAR CYEG 060500Z 26004KT 15SM SKC 03/03 A3012 RMK SLP219
CYEG;2004-09-06 06:00;METAR CYEG 060600Z 25002KT 15SM SKC 03/02 A3015 RMK SLP230
CYEG;2004-09-06 07:00;METAR CYEG 060700Z 23003KT 15SM FEW033 02/02 A3015 RMK SC2 SLP231
CYEG;2004-09-06 08:00;METAR CYEG 060800Z 26004KT 15SM SCT033 02/02 A3016 RMK SC3 SLP235
CYEG;2004-09-06 09:00;METAR CYEG 060900Z 00000KT 15SM BKN033 04/04 A3017 RMK SC6 SLP238
CYEG;2004-09-06 10:00;METAR CYEG 061000Z 25002KT 15SM BKN036 04/04 A3018 RMK SC6 SLP239
CYEG;2004-09-06 11:00;METAR CYEG 061100Z 21003KT 15SM SCT036 01/01 A3019 RMK SC2 SLP242
CYEG;2004-09-06 12:00;METAR CYEG 061200Z 19002KT 15SM BKN023 02/02 A3019 RMK SC6 SLP246
CYEG;2004-09-06 13:00;METAR CYEG 061300Z 20002KT 6SM BR FEW023 SCT250 01/01 A3020 RMK SC1CI2 VIS W 11/2SM SLP247 11/2SM SLP247
CYEG;2004-09-06 15:00;METAR CYEG 061500Z 00000KT 12SM FEW002 BKN031 BKN250 06/06 A3021 RMK SF1SC5CI1 TR SF SLP253 SF SLP253
CYEG;2004-09-06 16:00;METAR CYEG 061600Z 15004KT 15SM FEW012 BKN030 BKN250 09/06 A3021 RMK CF1SC4CI2 SLP254 SLP254
CYEG;2004-09-06 17:00;METAR CYEG 061700Z 16003KT 15SM FEW016 SCT031 BKN250 11/06 A3021 RMK CF1SC2CI1 SLP254
CYEG;2004-09-06 18:00;METAR CYEG 061800Z 20005KT 15SM FEW022 SCT250 12/07 A3020 RMK CU2CI0 SLP248
CYEG;2004-09-06 19:00;METAR CYEG 061900Z 16005KT 15SM SCT028 SCT250 13/07 A3018 RMK CU4CI1 SLP241
CYEG;2004-09-06 20:00;METAR CYEG 062000Z 00000KT 15SM SCT032 SCT120 14/07 A3017 RMK CU4AC1 SLP239
CYEG;2004-09-06 21:00;METAR CYEG 062100Z 08005KT 15SM SCT034 BKN180 16/08 A3016 RMK CU3AC1 FEW TCU ASOCTD SW QUAD SLP229 ASOCTD SW QUAD SLP229
CYEG;2004-09-06 22:00;METAR CYEG 062200Z 04003KT 15SM VCSH FEW044TCU SCT100 BKN180 15/07 A3015 RMK TCU2AC1AC1 SHRA E CB/SHRA ASOCTD DIST S SLP227 TCU2AC1AC1 SHRA E CB/SHRA ASOCTD DIST S SLP227
CYEG;2004-09-06 23:00;METAR CYEG 062300Z 12006KT 15SM FEW045TCU FEW100 SCT180 BKN250 16/07 A3014 RMK TCU2AC1AC1CI0 SHRA SE + SW-W-NW SLP223 TCU2AC1AC1CI0 SHRA SE + SW-W-NW SLP223
CYEG;2004-09-07 00:00;METAR CYEG 070000Z 10006KT 15SM -SHRA FEW050TCU BKN090 BKN180 BKN250 15/08 A3014 RMK TCU2AC2AC1CI0 CB/HVYR SHRA ASOCTD SW SLP225 RMK TCU2AC2AC1CI0 CB/HVYR SHRA ASOCTD SW SLP225
CYEG;2004-09-07 01:00;METAR CYEG 070100Z 13013KT 15SM TSRA FEW040CB BKN050TCU BKN090 BKN250 10/09 A3015 RMK CB2TCU2AC2CI1 WSHFT GRDL TSTM LTGCCCG MOVG E VIS E QUAD 4 PRES UNSTDY SLP230 RMK CB2TCU2AC2CI1 WSHFT GRDL TSTM LTGCCCG MOVG E VIS E QUAD 4 PRES UNSTDY SLP230
CYEG;2004-09-07 03:00;METAR CYEG 070300Z 06004KT 15SM FEW100 SCT140 08/07 A3016 RMK ACC2AC1 SLP235
CYEG;2004-09-07 04:00;METAR CYEG 070400Z 14004KT 15SM FEW100 SCT140 06/05 A3016 RMK AC2AC2 SLP234
CYEG;2004-09-07 05:00;METAR CYEG 070500Z 13002KT 15SM FEW100 SCT140 05/04 A3016 RMK AC2AC2 SLP236
CYEG;2004-09-07 06:00;METAR CYEG 070600Z 00000KT 15SM BKN120 04/04 A3016 RMK AC6 SLP232
CYEG;2004-09-07 07:00;METAR CYEG 070700Z 01003KT 15SM BKN120 05/05 A3016 RMK AC6 SLP232
CYEG;2004-09-07 08:00;METAR CYEG 070800Z 10005KT 15SM BKN120 06/06 A3016 RMK AC6 SLP232
CYEG;2004-09-07 09:00;METAR CYEG 070900Z 13004KT 15SM BKN120 06/05 A3015 RMK AC6 SLP225
CYEG;2004-09-07 10:00;METAR CYEG 071000Z 11002KT 15SM BKN120 05/05 A3014 RMK AC6 SLP221
CYEG;2004-09-07 11:00;METAR CYEG 071100Z 16003KT 15SM BKN120 05/05 A3013 RMK AC6 SLP217
CYEG;2004-09-07 12:00;METAR CYEG 071200Z 12006KT 15SM BKN120 04/04 A3012 RMK AC6 SLP215
CYEG;2004-09-07 13:00;METAR CYEG 071300Z 11004KT 12SM FEW080 BKN120 05/05 A3012 RMK AC2AC4 BR SLP215
CYEG;2004-09-07 14:00;METAR CYEG 071400Z 00000KT 12SM FEW080 BKN130 BKN250 06/06 A3012 RMK AC1AC4CI1 BR ACC/VIRGA/SHRA DIST N SLP215 ACC/VIRGA/SHRA DIST N SLP215
CYEG;2004-09-07 15:00;METAR CYEG 071500Z 10005KT 12SM FEW006 FEW080 BKN130 BKN250 08/07 A3011 RMK CF1ACC1AC5CI0 TR CF S-SW VIRGA/SHRA DIST N SLP214
CYEG;2004-09-07 16:00;METAR CYEG 071600Z 13003KT 12SM FEW007 FEW080 BKN130 BKN250 10/09 A3010 RMK CF1ACC1AC3CI1 FEW VIRGA N SLP211
CYEG;2004-09-07 17:00;METAR CYEG 071700Z 13005KT 12SM FEW080 SCT130 SCT250 12/09 A3008 RMK ACC1AC2CI0 SLP206 SLP206
CYEG;2004-09-07 18:00;METAR CYEG 071800Z 14008KT 15SM FEW080 FEW120 FEW250 15/10 A3006 RMK ACC1AC2CI1 SLP195 SLP195
CYEG;2004-09-07 19:00;METAR CYEG 071900Z 14009KT 15SM FEW032 SCT130 16/08 A3003 RMK CU1AC1 SLP188
CYEG;2004-09-07 20:00;METAR CYEG 072000Z 16009G15KT 15SM FEW040 FEW130 SCT250 17/07 A3002 RMK CU1AC1CI0 SLP183 SLP183
CYEG;2004-09-07 21:00;METAR CYEG 072100Z 18007KT 15SM FEW050 SCT120 BKN250 18/07 A3001 RMK CU2AC1CI1 SLP175 SLP175
CYEG;2004-09-07 22:00;METAR CYEG 072200Z 21008KT 15SM FEW055 SCT120 BKN250 18/06 A3000 RMK CU2AC1CI1 FEW TCU/VIRGA E-SE-S SLP172 FEW TCU/VIRGA E-SE-S SLP172
CYEG;2004-09-07 23:00;METAR CYEG 072300Z 22007KT 15SM FEW055TCU BKN110 BKN250 18/06 A2999 RMK TCU2AC2CI1 SHRA/VIRGA NW SLP168
CYEG;2004-09-08 00:00;METAR CYEG 080000Z 17005KT 15SM FEW055TCU BKN110 BKN250 17/07 A2999 RMK TCU2AC3CI1 SLP168
CYEG;2004-09-08 01:00;METAR CYEG 080100Z 18004KT 15SM FEW060 BKN100 BKN250 16/08 A2998 RMK CU1AC4CI1 FEW TCU ASOCTD VIRGA SW-W SLP166 FEW TCU ASOCTD VIRGA SW-W SLP166
CYEG;2004-09-08 02:00;METAR CYEG 080200Z 36012KT 15SM FEW060 BKN120 13/10 A3000 RMK CU1AC5 TCU ASOCTD VIRGA NW WSHFT 0150Z SLP171 VIRGA NW WSHFT 0150Z SLP171
CYEG;2004-09-08 03:00;METAR CYEG 080300Z 01005KT 15SM SCT062 BKN110 11/09 A3001 RMK CU4AC1 TCU ASOCTD SLP177 SLP177
CYEG;2004-09-08 04:00;METAR CYEG 080400Z 01003KT 12SM BKN062 OVC110 10/09 A3001 RMK SC5AC3 BR VIRGA OVHD SLP178 OVHD SLP178
CYEG;2004-09-08 05:00;METAR CYEG 080500Z 34002KT 12SM BKN005 OVC062 10/10 A3001 RMK SF6SC2 BR SLP179
CYEG;2004-09-08 06:00;METAR CYEG 080600Z 02004KT 4SM BR BKN005 OVC078 10/10 A3001 RMK SF5AC3 SLP174
CYEG;2004-09-08 07:00;METAR CYEG 080700Z 36004KT 4SM BR BKN005 BKN070 BKN120 09/09 A3001 RMK SF5AC2AC1 SLP173 SLP173
CYEG;2004-09-08 08:00;METAR CYEG 080800Z 02003KT 4SM BR OVC004 09/09 A3000 RMK ST8 SLP170
CYEG;2004-09-08 09:00;METAR CYEG 080900Z 00000KT 4SM BR OVC004 09/09 A3000 RMK ST8 SLP168
CYEG;2004-09-08 10:00;METAR CYEG 081000Z 05003KT 4SM BR SCT004 OVC080 08/08 A2999 RMK SF3AC3 SLP165
CYEG;2004-09-08 11:00;METAR CYEG 081100Z 04007KT 6SM BR SCT004 OVC011 09/08 A2999 RMK SF3SC5 SLP164
CYEG;2004-09-08 12:00;METAR CYEG 081200Z 05008KT 6SM BR FEW004 OVC008 08/08 A2997 RMK SF2ST6 SLP159
CYEG;2004-09-08 13:00;METAR CYEG 081300Z 08008KT 8SM OVC009 08/07 A2996 RMK ST8 BR SLP157
CYEG;2004-09-08 14:00;METAR CYEG 081400Z 09007KT 8SM BKN006 OVC070 08/08 A2997 RMK SF7AC1 BR
CYEG;2004-09-08 15:00;METAR CYEG 081500Z 09008KT 12SM BKN008 BKN014 OVC034 08/07 A2997 RMK SF4SC3SC1 SLP166 SLP166
CYEG;2004-09-08 16:00;METAR CYEG 081600Z 07009KT 15SM -RA FEW009 OVC014 08/07 A2997 RMK CF2SC6 R- INTMT SLP165
CYEG;2004-09-08 17:00;METAR CYEG 081700Z 09015KT 15SM OVC013 09/06 A2995 RMK SC8 INTMT R- SLP159
CYEG;2004-09-08 18:00;METAR CYEG 081800Z 09015KT 15SM OVC012 09/07 A2994 RMK SC8 SLP153
CYEG;2004-09-08 19:00;METAR CYEG 081900Z 09011G18KT 15SM OVC012 09/07 A2994 RMK SC8 SLP153
CYEG;2004-09-08 20:00;METAR CYEG 082000Z 06011KT 15SM OVC011 09/07 A2995 RMK SC8 SLP157
CYEG;2004-09-08 21:00;METAR CYEG 082100Z 03008KT 15SM OVC010 08/07 A2996 RMK SF8 CIG RAG SLP164
CYEG;2004-09-08 22:00;METAR CYEG 082200Z 02010KT 12SM -RA FEW008 OVC011 07/06 A2998 RMK SF2SC6 SLP169
CYEG;2004-09-08 23:00;METAR CYEG 082300Z 02013KT 4SM -RA BR FEW002 OVC004 05/05 A2998 RMK SF2ST6 SLP170
CYEG;2004-09-09 00:00;METAR CYEG 090000Z 03014KT 8SM -RA OVC007 05/04 A2999 RMK SF8 CIG VRBL 5-9 SLP178
CYEG;2004-09-09 01:00;METAR CYEG 090100Z 04014KT 12SM BKN007 OVC012 04/03 A3000 RMK SF7SC1 INTMT R- SLP181 SLP181
CYEG;2004-09-09 02:00;METAR CYEG 090200Z 03013G20KT 2 1/2SM -RA BR FEW003 OVC007 03/02 A3000 RMK SF2SF6 VIS SE 3 SM SLP179 VIS SE 3 SM SLP179
CYEG;2004-09-09 03:00;METAR CYEG 090300Z 02011KT 5SM -RA FEW004 OVC006 03/02 A3002 RMK SF2SF6 BR SLP190
CYEG;2004-09-09 04:00;METAR CYEG 090400Z 01007KT 7SM -RA BKN007 OVC010 03/03 A3004 RMK SF6SC2 BR SLP195
CYEG;2004-09-09 05:00;METAR CYEG 090500Z 01008KT 8SM -RA BKN008 OVC012 03/03 A3004 RMK SF6SC2 BR SLP196
CYEG;2004-09-09 06:00;METAR CYEG 090600Z 36008KT 6SM -RA BR BKN004 OVC008 01/01 A3005 RMK SF6SF2 SLP201
CYEG;2004-09-09 07:00;METAR CYEG 090700Z 36008KT 5SM -RA BR SCT004 OVC006 01/01 A3006 RMK SF3SF5 SLP202
CYEG;2004-09-09 08:00;METAR CYEG 090800Z 01008KT 3SM -RASN BR SCT003 OVC007 00/00 A3005 RMK SF4SF4 SLP201
CYEG;2004-09-09 09:00;METAR CYEG 090900Z 36007KT 2 1/2SM -SN BKN002 BKN007 OVC025 00/00 A3005 RMK SF5SF2SC1 SLP203
CYEG;2004-09-09 10:00;METAR CYEG 091000Z 36007KT 3SM -SN BKN002 BKN007 OVC024 00/00 A3004 RMK SF4SF3SC1 SLP200 SLP200
CYEG;2004-09-09 11:00;METAR CYEG 091100Z 01006KT 3SM -SN BKN002 OVC007 00/00 A3005 RMK SF6SF2
CYEG;2004-09-09 12:00;METAR CYEG 091200Z 36006KT 2SM -SN BKN002 OVC006 00/00 A3005 RMK SF4SF4 /S01/ SLP204 SLP204
CYEG;2004-09-09 14:00;METAR CYEG 091400Z 02006KT 3SM -SN BR SCT004 BKN008 OVC025 00/00 A3005 RMK SF2SF5SC1 SLP205
CYEG;2004-09-09 15:00;METAR CYEG 091500Z 02007KT 2 1/2SM -SN BR FEW004 BKN008 OVC026 00/00 A3005 RMK SF2SF4SC2 SLP208 SF2SF4SC2 SLP208
CYEG;2004-09-09 16:00;METAR CYEG 091600Z 02004KT 4SM -SG BR SCT004 BKN008 OVC013 01/01 A3005 RMK SF2SF4SC2 SLP206
CYEG;2004-09-09 17:00;METAR CYEG 091700Z 02005KT 6SM -SG BR FEW004 OVC009 01/01 A3007 RMK SF2SF6 SLP212
CYEG;2004-09-09 18:00;METAR CYEG 091800Z 04005KT 4SM -SG BR FEW005 BKN009 OVC013 02/02 A3006 RMK SF1SF6SC2 SLP209 SF6SC2 BR SLP212
CYEG;2004-09-09 20:00;METAR CYEG 092000Z 04008KT 6SM -RA BR FEW007 BKN012 OVC015 03/02 A3007 RMK SF2SF5SC2 SLP212
CYEG;2004-09-09 21:00;METAR CYEG 092100Z 02008KT 8SM -RA FEW006 BKN011 OVC015 03/02 A3007 RMK SF1SF5SC2 BR SLP212 BR SLP212
CYEG;2004-09-09 22:00;METAR CYEG 092200Z 04007KT 15SM -RA BKN008 BKN012 OVC020 03/03 A3007 RMK SF5SC2SC2 SLP213
CYEG;2004-09-09 23:00;METAR CYEG 092300Z 04007KT 15SM -RA BKN011 OVC025 04/03 A3007 RMK SC6SC2 SLP213
CYEG;2004-09-10 00:00;METAR CYEG 100000Z 04009KT 15SM BKN012 BKN022 OVC050 04/03 A3007 RMK SC6SC2SC1 SLP213 SLP213
CYEG;2004-09-10 01:00;METAR CYEG 100100Z 07008KT 15SM BKN014 OVC022 04/03 A3008 RMK SC6SC2 SLP215
CYEG;2004-09-10 02:00;METAR CYEG 100200Z 09008KT 8SM SCT006 OVC012 03/03 A3008 RMK SF3SC5 INTMT R- SLP217 SLP217
CYEG;2004-09-10 03:00;METAR CYEG 100300Z 09008KT 12SM SCT007 BKN012 OVC018 03/03 A3009 RMK SF3SC3SC2 SLP221 SLP221 INTMT SLP223 SLP223
CYEG;2004-09-10 05:00;METAR CYEG 100500Z 10005KT 12SM SCT007 BKN014 OVC040 03/03 A3010 RMK SF3SC3SC2 SLP222 SLP222
CYEG;2004-09-10 06:00;METAR CYEG 100600Z 11007KT 12SM FEW007 BKN014 OVC038 03/03 A3010 RMK SF2SC4SC2 SLP223
CYEG;2004-09-10 07:00;METAR CYEG 100700Z 11008KT 12SM SCT006 BKN014 BKN047 OVC062 02/02 A3009 RMK SF4SC2SC2SC1 SLP220
CYEG;2004-09-10 08:00;METAR CYEG 100800Z 10008KT 15SM FEW007 FEW014 BKN047 OVC062 02/01 A3009 RMK SF1SC2SC3SC2 SLP221
CYEG;2004-09-10 09:00;METAR CYEG 100900Z 11006KT 15SM FEW007 SCT015 BKN038 OVC062 02/01 A3010 RMK SF1SC3SC2SC2 SLP222
CYEG;2004-09-10 10:00;METAR CYEG 101000Z 10009KT 15SM FEW008 BKN017 BKN047 OVC062 02/00 A3010 RMK SF1SC5SC2SC1 SLP224
CYEG;2004-09-10 11:00;METAR CYEG 101100Z 10007KT 15SM FEW008 BKN015 BKN047 OVC062 01/00 A3010 RMK SF1SC6SC1SC1 SLP223
CYEG;2004-09-10 12:00;METAR CYEG 101200Z 13004KT 12SM -RA FEW009 BKN013 OVC016 01/00 A3012 RMK SF1SC3SC4 SLP229
CYEG;2004-09-10 13:00;METAR CYEG 101300Z 12006KT 15SM FEW008 BKN011 OVC016 01/00 A3012 RMK SF2SC5SC2 SLP229 SLP229
CYEG;2004-09-10 14:00;METAR CYEG 101400Z 10006KT 15SM FEW008 BKN012 OVC016 01/00 A3013 RMK SF1SC4SC3 SLP232 SLP232
CYEG;2004-09-10 15:00;METAR CYEG 101500Z 13005KT 10SM -DZSG BKN007 BKN015 OVC031 01/01 A3014 RMK SF5SC2SC2 SLP235
CYEG;2004-09-10 17:00;METAR CYEG 101700Z 11007KT 15SM -SN SCT009 BKN015 OVC042 02/01 A3014 RMK SF3SC2SC2 SLP236
CYEG;2004-09-10 18:00;METAR CYEG 101800Z 12008KT 15SM BKN015 OVC032 03/01 A3015 RMK SC7SC1 SLP238
CYEG;2004-09-10 19:00;METAR CYEG 101900Z 16007KT 12SM -RA FEW012 OVC016 03/02 A3014 RMK SC2SC6 SLP236
CYEG;2004-09-10 20:00;METAR CYEG 102000Z 10005KT 15SM OVC015 03/01 A3014 RMK SC8 CIG RAG SLP235
CYEG;2004-09-10 21:00;METAR CYEG 102100Z 13008KT 15SM OVC017 04/01 A3013 RMK SC8 SLP232
CYEG;2004-09-10 22:00;METAR CYEG 102200Z 13007KT 15SM OVC016 04/02 A3013 RMK SC8 SLP230
CYEG;2004-09-10 23:00;METAR CYEG 102300Z 12008KT 15SM OVC018 05/02 A3012 RMK SC8 SLP228
CYEG;2004-09-11 00:00;METAR CYEG 110000Z 12009KT 15SM OVC017 05/02 A3011 RMK SC8 SLP224
CYEG;2004-09-11 01:00;METAR CYEG 110100Z 13008KT 15SM BKN017 OVC022 05/02 A3009 RMK SC7SC1 SLP219
CYEG;2004-09-11 02:00;METAR CYEG 110200Z 12009KT 15SM FEW017 OVC028 04/02 A3008 RMK SC2SC6 SLP215
CYEG;2004-09-11 03:00;METAR CYEG 110300Z 13009KT 15SM OVC031 04/02 A3007 RMK SC8 SLP211
CYEG;2004-09-11 04:00;METAR CYEG 110400Z 12014KT 15SM OVC028 04/02 A3003 RMK SC8 SLP199
CYEG;2004-09-11 05:00;METAR CYEG 110500Z 12015KT 15SM OVC029 04/02 A3001 RMK SC8 SLP191
CYEG;2004-09-11 06:00;METAR CYEG 110600Z 13014KT 15SM OVC026 04/03 A3000 RMK SC8 SLP185
CYEG;2004-09-11 08:00;METAR CYEG 110800Z 13014G21KT 15SM OVC024 04/03 A2992 RMK SC8 VIRGA SLP162
CYEG;2004-09-11 09:00;METAR CYEG 110900Z 13019KT 15SM OVC021 04/02 A2989 RMK SC8 VIRGA SLP148
CYEG;2004-09-11 10:00;METAR CYEG 111000Z 13013G19KT 12SM -SHRA BKN013 OVC018 03/02 A2987 RMK SC6SC2 SLP140 SLP140
CYEG;2004-09-11 11:00;METAR CYEG 111100Z 13015KT 12SM -SHRA SCT011 BKN019 OVC080 03/02 A2983 RMK SC3SC2AC2 SLP127
CYEG;2004-09-11 12:00;METAR CYEG 111200Z 13014G19KT 15SM SCT008 OVC010 04/03 A2978 RMK SF4SC4 SLP109
CYEG;2004-09-11 13:00;METAR CYEG 111300Z 17017G25KT 15SM FEW008 OVC010 04/03 A2974 RMK SF2SC6 SLP096
CYEG;2004-09-11 14:00;METAR CYEG 111400Z 14018G26KT 15SM OVC007 04/03 A2969 RMK ST8 SLP080
CYEG;2004-09-11 15:00;METAR CYEG 111500Z 15014G20KT 15SM OVC007 05/04 A2969 RMK ST8 SLP076
CYEG;2004-09-11 16:00;METAR CYEG 111600Z 16014KT 15SM OVC008 06/05 A2965 RMK ST8 SLP064
CYEG;2004-09-11 17:00;METAR CYEG 111700Z 17017G25KT 15SM FEW009 BKN120 07/05 A2959 RMK SF2AC5 SLP046
CYEG;2004-09-11 18:00;METAR CYEG 111800Z 16018G24KT 15SM FEW009 FEW120 BKN210 08/07 A2958 RMK SF2AC1CS6 SLP036 SLP036
CYEG;2004-09-11 19:00;METAR CYEG 111900Z 14013G18KT 15SM FEW012 SCT120 BKN210 09/07 A2954 RMK SF1AC2CS3 SLP024 SLP024
CYEG;2004-09-11 20:00;METAR CYEG 112000Z 15009KT 15SM FEW014 FEW120 BKN250 12/09 A2954 RMK CF1AC1CI1 TCU TPS DIST W SLP023 TCU TPS DIST W SLP023
CYEG;2004-09-11 21:00;METAR CYEG 112100Z 13004KT 15SM FEW020 FEW250 15/10 A2956 RMK CU1CI1 TCU TPS DIST SW-W SLP024 SW-W SLP024
CYEG;2004-09-11 22:00;METAR CYEG 112200Z 09007KT 15SM FEW022 FEW250 16/10 A2955 RMK CU1CI1 CBTP DIST W TR CI SLP021 TR CI SLP021
CYEG;2004-09-11 23:00;METAR CYEG 112300Z 09005KT 15SM FEW025 FEW250 16/11 A2956 RMK CU1CI1 CB TP W SLP023 SLP023
CYEG;2004-09-12 00:00;METAR CYEG 120000Z 02004KT 15SM FEW030 FEW120 SCT250 17/11 A2957 RMK CU1AC1CI2 CB TP S TR CU SLP026 TP S TR CU SLP026
CYEG;2004-09-12 01:00;METAR CYEG 120100Z 36005KT 15SM FEW030TCU FEW120 SCT250 16/11 A2958 RMK TCU1AC2CI1 TR TCU SE SLP030
CYEG;2004-09-12 02:00;METAR CYEG 120200Z 36007KT 15SM FEW030TCU SCT110 BKN250 13/10 A2962 RMK TCU1AC2CI2 TR TCU SE SLP041
CYEG;2004-09-12 03:00;METAR CYEG 120300Z 22007KT 15SM BKN120 BKN250 10/09 A2965 RMK AC4CI1 SLP060
CYEG;2004-09-12 04:00;METAR CYEG 120400Z 35004KT 15SM SCT120 09/08 A2968 RMK AC2 SLP068
CYEG;2004-09-12 05:00;METAR CYEG 120500Z 00000KT 15SM FEW120 06/06 A2968 RMK AC1 SLP069
CYEG;2004-09-12 06:00;METAR CYEG 120600Z 22006KT 15SM FEW160 05/04 A2970 RMK AC2 SLP078
CYEG;2004-09-12 07:00;METAR CYEG 120700Z 20004KT 12SM SCT140 05/05 A2971 RMK AC2 BR SLP081
CYEG;2004-09-12 09:00;METAR CYEG 120900Z 17003KT 10SM BKN130 06/06 A2972 RMK AC7 BR SLP078
CYEG;2004-09-12 10:00;METAR CYEG 121000Z 00000KT 10SM FEW100 BKN130 05/05 A2973 RMK AC2AC6 BR SLP081
CYEG;2004-09-12 11:00;METAR CYEG 121100Z 00000KT 10SM FEW090 OVC120 06/06 A2973 RMK AC2AC6 VIRGA BR SLP081
CYEG;2004-09-12 12:00;METAR CYEG 121200Z 27002KT 10SM FEW100 BKN140 06/06 A2975 RMK AC2AC5 BR SLP086
CYEG;2004-09-12 13:00;METAR CYEG 121300Z 00000KT 15SM FEW100 SCT140 05/05 A2976 RMK AC1AC2 VIS 8 S+SW SLP089 SLP089
CYEG;2004-09-12 14:00;METAR CYEG 121400Z 00000KT 2SM BR FEW120 SCT160 BKN250 04/04 A2978 RMK AC1AC2CI0 VIS N 15 SM SLP094 VIS N 15 SM SLP094
CYEG;2004-09-12 15:00;METAR CYEG 121500Z 17002KT 10SM FEW010 BKN110 BKN250 07/07 A2979 RMK SF1AC6CI1 TR SF BR VIRGA S-W SLP103 SF BR VIRGA S-W SLP103
CYEG;2004-09-12 16:00;METAR CYEG 121600Z 32004KT 15SM FEW010 BKN110 10/07 A2979 RMK SF1AC6 VIRGA OVHD SLP105 SLP105
CYEG;2004-09-12 17:00;METAR CYEG 121700Z 27011KT 15SM FEW032 SCT110 SCT250 13/05 A2981 RMK CF1AC2CI1 VIRGA S WSHFT 1655Z SLP109 VIRGA S WSHFT 1655Z SLP109
CYEG;2004-09-12 18:00;METAR CYEG 121800Z 31010G15KT 15SM FEW042 BKN100 14/03 A2981 RMK CF1AC3 VIRGA S SLP110 SLP110
CYEG;2004-09-12 19:00;METAR CYEG 121900Z 28010KT 15SM FEW042 BKN100 13/04 A2981 RMK CU1AC4 SLP109
CYEG;2004-09-12 20:00;METAR CYEG 122000Z 35006KT 15SM FEW042 SCT100 14/03 A2980 RMK CU1AC2 SLP106
CYEG;2004-09-12 21:00;METAR CYEG 122100Z 32009KT 15SM FEW048 FEW100 SCT250 14/03 A2980 RMK CU1AC1CI0 SLP104 SLP104
CYEG;2004-09-12 22:00;METAR CYEG 122200Z 33004KT 15SM FEW048 FEW100 14/03 A2979 RMK CU1AC1 SLP102
CYEG;2004-09-12 23:00;METAR CYEG 122300Z 02004KT 15SM FEW048 FEW100 14/03 A2978 RMK CU1AC1 TR AC SLP100
CYEG;2004-09-13 00:00;METAR CYEG 130000Z 32006KT 15SM FEW048 FEW100 15/04 A2978 RMK CU1AC1 TR CU SLP099
CYEG;2004-09-13 01:00;METAR CYEG 130100Z 03003KT 15SM FEW048 FEW100 13/03 A2979 RMK CU1AC1 TR CU TCU/VIRGA W SLP101
CYEG;2004-09-13 02:00;METAR CYEG 130200Z 04004KT 15SM FEW045 FEW100 09/03 A2980 RMK SC1AC1 VIRGA W TR AC SLP104 AC SLP104
CYEG;2004-09-13 03:00;METAR CYEG 130300Z 14003KT 15SM FEW045 FEW085 09/03 A2981 RMK SC1AC2 SLP113
CYEG;2004-09-13 04:00;METAR CYEG 130400Z 18002KT 15SM FEW085 06/03 A2983 RMK AC2 SLP117
CYEG;2004-09-13 05:00;METAR CYEG 130500Z 13006KT 15SM FEW095 05/03 A2982 RMK AC2 SLP116
CYEG;2004-09-13 06:00;METAR CYEG 130600Z 14003KT 15SM FEW095 03/02 A2982 RMK AC1 SLP114
CYEG;2004-09-13 07:00;METAR CYEG 130700Z 18004KT 15SM FEW060 FEW090 02/01 A2981 RMK SC1AC1 SLP112
CYEG;2004-09-13 08:00;METAR CYEG 130800Z 18006KT 15SM FEW060 FEW090 04/03 A2981 RMK SC1AC1 SLP111
CYEG;2004-09-13 09:00;METAR CYEG 130900Z 20003KT 15SM FEW060 02/01 A2980 RMK SC1 SLP110
CYEG;2004-09-13 10:00;METAR CYEG 131000Z 19003KT 15SM FEW060 FEW100 02/02 A2980 RMK SC1AC1 SLP108
CYEG;2004-09-13 11:00;METAR CYEG 131100Z 18004KT 15SM FEW065 FEW100 01/01 A2980 RMK SC1AC1 SLP109
CYEG;2004-09-13 12:00;METAR CYEG 131200Z 16005KT 15SM FEW065 FEW085 01/01 A2979 RMK SC1AC1 SLP107
CYEG;2004-09-13 13:00;METAR CYEG 131300Z 16002KT 10SM FEW060 SCT095 SCT250 02/02 A2980 RMK SC1AC2CI1 TR CI BR SLP108 CI BR SLP108
CYEG;2004-09-13 14:00;METAR CYEG 131400Z 00000KT 10SM FEW060 BKN095 04/04 A2980 RMK SC1AC2 ACC ASOCTD BR SLP109 BR SLP109
CYEG;2004-09-13 15:00;METAR CYEG 131500Z 17003KT 10SM FEW070 BKN095 07/06 A2980 RMK ACC1AC3 TR ACC SE BR SLP108 BR SLP108
CYEG;2004-09-13 16:00;METAR CYEG 131600Z 18002KT 15SM FEW070 BKN100 11/09 A2979 RMK ACC1AC3 SLP106
CYEG;2004-09-13 17:00;METAR CYEG 131700Z 10002KT 15SM SCT100 BKN250 12/08 A2978 RMK AC2CI0 SLP104
CYEG;2004-09-13 18:00;METAR CYEG 131800Z 12004KT 15SM FEW030 FEW100 SCT250 15/08 A2977 RMK CU1AC2CI0 TCU S SLP095 TCU S SLP095
CYEG;2004-09-13 19:00;METAR CYEG 131900Z 15002KT 15SM SCT038 SCT100 SCT250 15/07 A2975 RMK CU3AC1CI0 TCU S SLP089 TCU S SLP089
CYEG;2004-09-13 20:00;METAR CYEG 132000Z 34002KT 15SM SCT045TCU SCT100 BKN250 16/08 A2973 RMK TCU4AC1CI0 SLP084
CYEG;2004-09-13 21:00;METAR CYEG 132100Z 15006KT 15SM SCT045TCU SCT100 BKN250 17/07 A2972 RMK TCU4AC1CI0 SLP078
CYEG;2004-09-13 22:00;METAR CYEG 132200Z 14005KT 15SM FEW050TCU SCT100 BKN250 17/06 A2970 RMK TCU2AC1CI0 SLP074
CYEG;2004-09-13 23:00;METAR CYEG 132300Z 11005KT 15SM SCT050TCU SCT100 BKN250 16/06 A2969 RMK TCU3AC1CI0 SLP070
CYEG;2004-09-14 00:00;METAR CYEG 140000Z 10007KT 15SM SCT060TCU BKN100 BKN250 17/07 A2969 RMK TCU4AC1CI0 SLP070
CYEG;2004-09-14 01:00;METAR CYEG 140100Z 11006KT 15SM FEW060TCU SCT100 BKN250 15/08 A2969 RMK TCU2AC1CI1 SLP068
CYEG;2004-09-14 02:00;METAR CYEG 140200Z 10006KT 15SM FEW058 FEW100 BKN250 13/08 A2969 RMK SC2AC1CI2 SLP068 SLP068
CYEG;2004-09-14 03:00;METAR CYEG 140300Z 11006KT 15SM FEW058 FEW100 BKN240 09/07 A2970 RMK SC1AC1CI2 SLP073 SLP073
CYEG;2004-09-14 04:00;METAR CYEG 140400Z 12005KT 15SM FEW060 BKN240 07/06 A2970 RMK SC1CI2
CYEG;2004-09-14 05:00;METAR CYEG 140500Z 14004KT 15SM BKN240 07/05 A2968 RMK CI3 SLP069
CYEG;2004-09-14 06:00;METAR CYEG 140600Z 13005KT 15SM SCT240 06/05 A2968 RMK CI2 SLP062
CYEG;2004-09-14 07:00;METAR CYEG 140700Z 14005KT 15SM SCT240 05/04 A2967 RMK CI2 SLP060
CYEG;2004-09-14 08:00;METAR CYEG 140800Z 14005KT 15SM FEW240 03/03 A2966 RMK CI1 SLP058
CYEG;2004-09-14 09:00;METAR CYEG 140900Z 00000KT 15SM SCT240 03/03 A2967 RMK CI2 SLP060
CYEG;2004-09-14 10:00;METAR CYEG 141000Z 14004KT 15SM SCT240 02/02 A2966 RMK CI2 SLP058
CYEG;2004-09-14 11:00;METAR CYEG 141100Z 15002KT 15SM BKN240 02/02 A2966 RMK CI2 SLP056
CYEG;2004-09-14 12:00;METAR CYEG 141200Z 15004KT 15SM BKN240 02/02 A2966 RMK CI4 SLP058
CYEG;2004-09-14 13:00;METAR CYEG 141300Z 20004KT 10SM FEW060 BKN230 03/03 A2967 RMK SC1CI4 BR TR SC SLP061 SLP061
CYEG;2004-09-14 14:00;METAR CYEG 141400Z 20002KT 6SM BR FEW070 SCT190 BKN250 03/03 A2968 RMK AC1AC2CI2 SLP065 SLP065
CYEG;2004-09-14 15:00;METAR CYEG 141500Z 22003KT 6SM BR FEW080 SCT190 BKN250 07/06 A2969 RMK AC1AC2CI2 SLP071 SLP071
CYEG;2004-09-14 16:00;METAR CYEG 141600Z 23003KT 10SM FEW080 FEW190 BKN250 10/09 A2969 RMK AC1AC1CI2 SLP072 SLP072
CYEG;2004-09-14 17:00;METAR CYEG 141700Z 27004KT 15SM FEW070 BKN250 12/08 A2970 RMK ACC1CI2 SLP074
CYEG;2004-09-14 18:00;METAR CYEG 141800Z 28005KT 15SM FEW090 FEW100 BKN250 14/08 A2970 RMK AC1ACC1CI2 SLP070 SLP070
CYEG;2004-09-14 19:00;METAR CYEG 141900Z 28004KT 15SM FEW050 FEW090 FEW110 BKN250 16/08 A2970 RMK CU1ACC1AC1CI1 SLP071
CYEG;2004-09-14 20:00;METAR CYEG 142000Z 29007KT 15SM FEW036 FEW090 BKN250 16/07 A2971 RMK CU1AC1CI1 SLP073
CYEG;2004-09-14 21:00;METAR CYEG 142100Z 29007KT 15SM FEW040TCU FEW090 SCT200 BKN250 17/07 A2970 RMK TCU1AC1CI1CI2 LN TCU S-E-NE SLP072 TCU1AC1CI1CI2 LN TCU S-E-NE SLP072
CYEG;2004-09-14 22:00;METAR CYEG 142200Z 34008KT 15SM FEW045CB FEW090 SCT200 BKN250 18/07 A2970 RMK CB1AC1CI1CI2 LC CB/TCU S-E-N SLP069 CB1AC1CI1CI2 LC CB/TCU S-E-N SLP069
CYEG;2004-09-14 23:00;METAR CYEG 142300Z 35006KT 15SM FEW045 FEW110 BKN250 18/07 A2970 RMK CU1AC1CI2 CB DIST SE + NE SLP070 DIST SE + NE SLP070
CYEG;2004-09-15 00:00;METAR CYEG 150000Z 30007KT 15SM FEW050 SCT110 BKN250 17/06 A2971 RMK CU1AC2CI1 CB DIST NE+SE SLP074 DIST NE+SE SLP074
CYEG;2004-09-15 01:00;METAR CYEG 150100Z 30004KT 15SM FEW050 SCT110 BKN140 BKN250 14/07 A2972 RMK CU1AC2AC2CI2 CB DIST SE+E-N+SW SLP079
CYEG;2004-09-15 02:00;METAR CYEG 150200Z 28003KT 15SM FEW050CB FEW100 BKN150 BKN250 12/07 A2974 RMK CB1AC2AC2CI2 CB/VIRGA/SH ASOCTD S-SW + W SLP083 CB1AC2AC2CI2 CB/VIRGA/SH ASOCTD S-SW + W SLP083
CYEG;2004-09-15 03:00;METAR CYEG 150300Z 22002KT 15SM FEW050CB FEW100 BKN130 BKN250 10/07 A2975 RMK CB1ACC1AC3CI1 OCNL LTGIC DIST NE SH SE-S SLP091 CB1ACC1AC3CI1 OCNL LTGIC DIST NE SH SE-S SLP091
CYEG;2004-09-15 04:00;METAR CYEG 150400Z 23003KT 15SM FEW050CB FEW100 BKN150 BKN250 08/06 A2975 RMK CB1ACC2AC2CI1 OCNL LTGIC DIST N SLP092 CB1ACC2AC2CI1 OCNL LTGIC DIST N SLP092
CYEG;2004-09-15 05:00;METAR CYEG 150500Z 23005KT 15SM FEW100 FEW150 SCT250 06/05 A2976 RMK AC1AC1CI1 SLP094 SLP094
CYEG;2004-09-15 06:00;METAR CYEG 150600Z 25005KT 15SM BKN120 BKN250 07/05 A2976 RMK AC5CI0 SLP091
CYEG;2004-09-15 07:00;METAR CYEG 150700Z 22004KT 15SM FEW120 SCT250 06/04 A2977 RMK AC2CI1 SLP092
CYEG;2004-09-15 08:00;METAR CYEG 150800Z 23003KT 15SM FEW120 FEW180 05/04 A2977 RMK AC1AC1 SLP093
CYEG;2004-09-15 09:00;METAR CYEG 150900Z 19003KT 15SM FEW120 FEW180 02/01 A2977 RMK AC1AC1 SLP098
CYEG;2004-09-15 10:00;METAR CYEG 151000Z 25004KT 15SM FEW100 01/01 A2977 RMK AC2 SLP097
CYEG;2004-09-15 11:00;METAR CYEG 151100Z 24004KT 15SM SCT120 03/03 A2977 RMK AC2 SLP096
CYEG;2004-09-15 12:00;METAR CYEG 151200Z 22004KT 15SM FEW120 02/01 A2977 RMK AC2 SLP098
CYEG;2004-09-15 13:00;METAR CYEG 151300Z 25002KT 15SM FEW090 FEW120 SCT230 01/01 A2978 RMK ACC1AC2CI0 VIRGA SE SLP099 VIRGA SE SLP099
CYEG;2004-09-15 14:00;METAR CYEG 151400Z 00000KT 15SM FEW090 FEW120 SCT230 02/01 A2979 RMK ACC1AC1CI1 VIRGA SE+W SLP102 VIRGA SE+W SLP102
CYEG;2004-09-15 15:00;METAR CYEG 151500Z 00000KT 15SM FEW090 SCT120 BKN230 06/05 A2978 RMK AC2AC1CI1 VIRGA W+E ACC EMBD LWR LYR SLP102 VIRGA W+E ACC EMBD LWR LYR SLP102
CYEG;2004-09-15 16:00;METAR CYEG 151600Z 00000KT 15SM FEW100 SCT140 SCT230 10/06 A2978 RMK AC2AC1CI0 VIRGA NE-E ACC EMBD LWR LYR SLP103 VIRGA NE-E ACC EMBD LWR LYR SLP103
CYEG;2004-09-15 17:00;METAR CYEG 151700Z 30003KT 15SM FEW100 SCT140 BKN230 11/05 A2980 RMK AC1AC1CI1 ACC EMBD E SLP107 ACC EMBD E SLP107
CYEG;2004-09-15 18:00;METAR CYEG 151800Z 00000KT 15SM FEW100 FEW140 BKN230 13/05 A2978 RMK AC1AC1CI2 TR HIER AC SLP100 HIER AC SLP100
CYEG;2004-09-15 19:00;METAR CYEG 151900Z 09004KT 15SM FEW040 FEW100 FEW140 BKN230 15/05 A2977 RMK CU1AC1AC1CI2 TR CU + HIER AC SLP095
CYEG;2004-09-15 20:00;METAR CYEG 152000Z 08004KT 15SM FEW040 FEW100 BKN220 15/05 A2975 RMK CU1AC1CI2 SLP090 SLP090
CYEG;2004-09-15 21:00;METAR CYEG 152100Z 25002KT 15SM FEW044 FEW100 SCT210 BKN300 16/05 A2974 RMK CU2AC1CI2CI0 SLP087
CYEG;2004-09-15 22:00;METAR CYEG 152200Z 08004KT 15SM SCT050 BKN120 BKN300 16/04 A2973 RMK CU4AC1CI0 FEW TCU SLP084 FEW TCU SLP084
CYEG;2004-09-15 23:00;METAR CYEG 152300Z 08002KT 15SM SCT060TCU BKN110 BKN300 16/05 A2972 RMK TCU4AC2CI0 SLP082
CYEG;2004-09-16 00:00;METAR CYEG 160000Z 34004KT 15SM FEW055TCU SCT110 BKN300 16/05 A2973 RMK TCU2AC2CI1 SH/VIRGA SW-W SLP082
CYEG;2004-09-16 01:00;METAR CYEG 160100Z 03005KT 15SM FEW055TCU SCT110 BKN260 13/06 A2973 RMK TCU2AC2CI2 SH/VIRGA SW SLP084
CYEG;2004-09-16 02:00;METAR CYEG 160200Z 07002KT 15SM FEW055TCU SCT100 BKN160 BKN260 11/06 A2974 RMK TCU1AC2AS1CI1 SH/VIRGA NE+ SW SLP085 TCU1AC2AS1CI1 SH/VIRGA NE+ SW SLP085
CYEG;2004-09-16 03:00;METAR CYEG 160300Z 05003KT 15SM FEW055TCU SCT100 BKN170 BKN220 08/05 A2974 RMK TCU2AC2AS1CI1 CB/SH/VIRGA ASOCTD SW-W SLP089 TCU2AC2AS1CI1 CB/SH/VIRGA ASOCTD SW-W SLP089
CYEG;2004-09-16 04:00;METAR CYEG 160400Z 18008KT 15SM FEW055TCU BKN071 OVC100 11/06 A2976 RMK TCU2ACC3AC2 CB ASOCTD LTGIC S SLP096
CYEG;2004-09-16 05:00;METAR CYEG 160500Z 10008KT 15SM -SHRA BKN053TCU OVC088 10/06 A2975 RMK TCU5AC3 CB ASOCTD OCNL LTGIC DIST SSW SLP093 ASOCTD OCNL LTGIC DIST SSW SLP093
CYEG;2004-09-16 06:00;METAR CYEG 160600Z 19008KT 15SM -SHRA BKN050 OVC088 09/07 A2977 RMK SC6AC2 TCU EMBD SLP093 EMBD SLP093
CYEG;2004-09-16 07:00;METAR CYEG 160700Z 19005KT 12SM SHRA OVC044 08/08 A2977 RMK SC8 TCU EMBD SLP093
CYEG;2004-09-16 08:00;METAR CYEG 160800Z 18009KT 12SM -SHRA FEW006 OVC036 08/07 A2976 RERA RMK SF1SC8 TR SF TCU EMBD SLP090 TR SF TCU EMBD SLP090
CYEG;2004-09-16 09:00;METAR CYEG 160900Z 01003KT 15SM VCSH FEW006 FEW035 OVC063 08/07 A2976 RMK SF1SC2SC6 SHRA N-NE-E TCU EMBD SLP088
CYEG;2004-09-16 10:00;METAR CYEG 161000Z 01002KT 15SM FEW035 BKN070 OVC100 08/08 A2976 RMK SC2AC6AC1 SLP087
CYEG;2004-09-16 11:00;METAR CYEG 161100Z 29003KT 15SM FEW004 SCT070 BKN100 BKN160 07/07 A2976 RMK SF1AC3AC2AS2 TR SF SLP088
CYEG;2004-09-16 12:00;METAR CYEG 161200Z 00000KT 12SM MIFG FEW004 FEW045 BKN083 BKN160 06/06 A2977 RMK SF1SC1AC4AS2 TR SF SLP092 SF1SC1AC4AS2 TR SF SLP092
CYEG;2004-09-16 13:00;METAR CYEG 161300Z 19002KT 12SM MIFG FEW045 SCT083 BKN250 06/06 A2976 RMK SC2AC1CI0 VIRGA NE SLP091
CYEG;2004-09-16 14:00;METAR CYEG 161400Z 19002KT 2SM BR SCT040 SCT083 BKN250 05/05 A2977 RMK SC2AC1CI0 SLP095 SLP095
CYEG;2004-09-16 15:00;METAR CYEG 161500Z 00000KT 7SM FEW010 FEW039 BKN048 BKN250 08/08 A2978 RMK SF1SC1SC5CI1 BR TR SF SLP101
CYEG;2004-09-16 16:00;METAR CYEG 161600Z 00000KT 15SM FEW010 FEW048 SCT085 BKN250 10/08 A2977 RMK CF1SC2AC1CI1 TR CF SLP099
CYEG;2004-09-16 17:00;METAR CYEG 161700Z 10006KT 15SM FEW015 SCT056 BKN090 BKN250 12/09 A2977 RMK CU2SC2AC1CI1 CC ASOCTD SLP098
CYEG;2004-09-16 18:00;METAR CYEG 161800Z 14006KT 15SM FEW020 BKN048 BKN250 12/08 A2977 RMK CU2SC3CI1 SLP092 SLP092
CYEG;2004-09-16 19:00;METAR CYEG 161900Z 13007KT 15SM BKN026 BKN046 BKN250 13/08 A2975 RMK CU5SC1CI1 SLP086 SLP086
CYEG;2004-09-16 20:00;METAR CYEG 162000Z 16005KT 15SM SCT030 BKN180 13/08 A2973 RMK CU4AS2 SLP082 ASOCTD SLP077
CYEG;2004-09-16 22:00;METAR CYEG 162200Z 17005KT 15SM SCT030TCU BKN090 OVC160 14/07 A2972 RMK TCU3AC2AS2 SH E+SW+NW SLP075
CYEG;2004-09-16 23:00;METAR CYEG 162300Z 13007KT 15SM SCT030TCU BKN060 OVC180 14/08 A2970 RMK TCU3SC2AS2 SHRA N+NE-SE+SW SLP071
CYEG;2004-09-17 00:00;METAR CYEG 170000Z 03003KT 12SM -TSRA BKN030CB BKN060 BKN180 12/06 A2971 RMK CB5SC2AS1 LTGCC NW HVRY SHRA NW SLP076 CB5SC2AS1 LTGCC NW HVRY SHRA NW SLP076
CYEG;2004-09-17 01:00;METAR CYEG 170100Z 07015KT 12SM -SHRA SCT032CB BKN090 BKN120 11/09 A2970 RETSRA RMK CB3AC2AC1 HVYR SH N-E VIS N-E 5 SM SLP074 RMK CB3AC2AC1 HVYR SH N-E VIS N-E 5 SM SLP074
CYEG;2004-09-17 02:00;METAR CYEG 170200Z 08013KT 15SM FEW030CB SCT050TCU BKN090 BKN200 10/07 A2971 RMK CB2TCU2AC2CI1 HVY SH N-NE SLP077 CB2TCU2AC2CI1 HVY SH N-NE SLP077
CYEG;2004-09-17 03:00;METAR CYEG 170300Z 08011KT 15SM FEW045TCU SCT090 BKN200 09/07 A2972 RMK TCU2AC2CI1 SLP080
CYEG;2004-09-17 04:00;METAR CYEG 170400Z 09010KT 15SM FEW035CB FEW045TCU BKN100 08/07 A2971 RMK CB1TCU2AC2 CB/LTGCG N SLP078
CYEG;2004-09-17 05:00;METAR CYEG 170500Z 08009KT 15SM FEW035 BKN100 BKN220 08/06 A2970 RMK SC1AC2CI1 CB EMBD OCNL LTGIC DIST NW SLP076
CYEG;2004-09-17 06:00;METAR CYEG 170600Z 05007KT 15SM FEW035 SCT080 06/06 A2971 RMK SC1AC2 SLP075
CYEG;2004-09-17 07:00;METAR CYEG 170700Z 08007KT 15SM FEW035 FEW080 06/05 A2970 RMK SC1AC1 SLP073
CYEG;2004-09-17 08:00;METAR CYEG 170800Z 09004KT 15SM FEW080 FEW220 05/04 A2969 RMK AC2CI0 SLP070
CYEG;2004-09-17 09:00;METAR CYEG 170900Z 09005KT 15SM FEW045 SCT080 04/04 A2969 RMK SC1AC2 SLP069
CYEG;2004-09-17 10:00;METAR CYEG 171000Z 04002KT 12SM FEW045 BKN082 03/03 A2968 RMK SC1AC4 SLP067
CYEG;2004-09-17 11:00;METAR CYEG 171100Z 36002KT 7SM BCFG FEW001 SCT080 BKN230 03/03 A2968 RMK ST1AC2CI2 VIS SE11/2 N2 SLP067
CYEG;2004-09-17 12:00;METAR CYEG 171200Z 10003KT 12SM FEW001 SCT050 BKN086 BKN230 03/03 A2968 RMK ST1SC3AC2CI1 TR ST NW SLP069
CYEG;2004-09-17 13:00;METAR CYEG 171300Z 08003KT 15SM BKN052 BKN095 BKN230 05/05 A2970 RMK SC5AC1CI1 FEW ACC ASOCTD NE SLP073 FEW ACC ASOCTD NE SLP073
CYEG;2004-09-17 14:00;METAR CYEG 171400Z 09002KT 15SM FEW055 BKN096 BKN250 04/04 A2970 RMK SC2AC3CI2 VIRGA SW SLP074 VIRGA SW SLP074
CYEG;2004-09-17 15:00;METAR CYEG 171500Z 09006KT 15SM FEW010 FEW055 SCT095 BKN140 BKN250 07/06 A2970 RMK SF1SC1AC2AC2CI1 VIRGA W TR SF SLP073 RMK SF1SC1AC2AC2CI1 VIRGA W TR SF SLP073
CYEG;2004-09-17 16:00;METAR CYEG 171600Z 10007KT 15SM FEW001 BKN095 BKN150 BKN250 10/08 A2970 RMK SF1AC4AC1CI1 SLP074
CYEG;2004-09-17 17:00;METAR CYEG 171700Z 13010KT 15SM SCT015 BKN095 BKN250 11/08 A2970 RMK SC3AC3CI1 SLP075
CYEG;2004-09-17 18:00;METAR CYEG 171800Z 11010G16KT 15SM BKN018 BKN100 12/09 A2970 RMK SC5AC2 SLP071
CYEG;2004-09-17 19:00;METAR CYEG 171900Z 12013KT 15SM BKN024 BKN060 OVC100 12/08 A2970 RMK SC6SC1AC1 SLP071
CYEG;2004-09-17 20:00;METAR CYEG 172000Z 10011KT 15SM BKN032 BKN060 BKN110 14/09 A2969 RMK SC6SC1AC1 SLP070
CYEG;2004-09-17 21:00;METAR CYEG 172100Z 09013KT 15SM BKN030 BKN110 13/08 A2969 RMK SC6AC1
CYEG;2004-09-17 22:00;METAR CYEG 172200Z 09013G19KT 15SM FEW021TCU SCT110 BKN250 14/09 A2969 RMK TCU2AC1CI2 SHRA W SLP070
CYEG;2004-09-17 23:00;METAR CYEG 172300Z 08018KT 15SM FEW021TCU SCT100 BKN240 13/08 A2969 RMK TCU2AC1CI2 SLP070
CYEG;2004-09-18 00:00;METAR CYEG 180000Z 08012G18KT 15SM FEW020TCU BKN098 BKN140 BKN240 12/08 A2970 RMK TCU2AC2AC1CI0 VIRGA W SLP074 TCU2AC2AC1CI0 VIRGA W SLP074
CYEG;2004-09-18 01:00;METAR CYEG 180100Z 08014KT 15SM FEW020TCU SCT098 BKN120 BKN240 11/08 A2970 RMK TCU2AC2AC1CI2 VIRGA W-NW SLP074 TCU2AC2AC1CI2 VIRGA W-NW SLP074 TCU2AC2AC2CI2 VIRGA NW SLP074
CYEG;2004-09-18 03:00;METAR CYEG 180300Z 07013G18KT 15SM FEW020TCU SCT085 OVC150 10/07 A2969 RMK TCU2AC2AC2 VIRGA NW-N LTNG SW CB ASOCTD SLP071
CYEG;2004-09-18 04:00;METAR CYEG 180400Z 08013KT 15SM FEW015 OVC090 09/07 A2969 RMK SC2AC6 LTNG SW CB ASOCTD G21 PST HR SLP070 ASOCTD G21 PST HR SLP070
CYEG;2004-09-18 05:00;METAR CYEG 180500Z 06010KT 15SM -SHRA BKN014 OVC090 08/07 A2969 RMK SC6AC2 LTNG SW-W CB EMBD SLP071 SW-W CB EMBD SLP071
CYEG;2004-09-18 06:00;METAR CYEG 180600Z 33007KT 15SM -SHRA OVC011 08/07 A2971 RETS RMK SC8 LTNG NW CB EMBD SLP076 EMBD SLP076
CYEG;2004-09-18 07:00;METAR CYEG 180700Z 36010KT 15SM OVC012 08/07 A2970 RMK SC8 SLP073
CYEG;2004-09-18 08:00;METAR CYEG 180800Z 04010KT 15SM OVC012 08/07 A2969 RMK SC8 SLP067
CYEG;2004-09-18 09:00;METAR CYEG 180900Z 05008KT 15SM OVC009 08/07 A2967 RMK SC8 SLP059
CYEG;2004-09-18 10:00;METAR CYEG 181000Z 06008KT 15SM OVC008 08/07 A2964 RMK ST8 SLP051
CYEG;2004-09-18 11:00;METAR CYEG 181100Z 06005KT 15SM OVC007 08/08 A2964 RMK ST8 SLP051
CYEG;2004-09-18 12:00;METAR CYEG 181200Z 06007KT 15SM OVC005 08/08 A2964 RMK ST8 SLP052
CYEG;2004-09-18 13:00;METAR CYEG 181300Z 06006KT 15SM OVC007 08/08 A2964 RMK ST8 SLP052
CYEG;2004-09-18 14:00;METAR CYEG 181400Z 03004KT 15SM -SHRA OVC008 08/08 A2963 RMK SC8 SLP047
CYEG;2004-09-18 15:00;METAR CYEG 181500Z 36005KT 15SM BKN007 OVC090 08/08 A2963 RMK SC7AC1 SLP047
CYEG;2004-09-18 16:00;METAR CYEG 181600Z 04003KT 15SM -SHRA OVC008 09/08 A2964 RMK SC8 SLP050
CYEG;2004-09-18 17:00;METAR CYEG 181700Z 02005KT 15SM OVC006 09/08 A2963 RMK SC8 SLP049
CYEG;2004-09-18 18:00;METAR CYEG 181800Z 03004KT 15SM OVC009 10/08 A2963 RMK SC8 SLP047
CYEG;2004-09-18 19:00;METAR CYEG 181900Z 05004KT 15SM OVC012 10/08 A2961 RMK SC8 SLP043
CYEG;2004-09-18 20:00;METAR CYEG 182000Z 04003KT 15SM BKN014 OVC027 11/09 A2962 RMK SC6SC2 SLP046
CYEG;2004-09-18 21:00;METAR CYEG 182100Z 31003KT 15SM BKN015 BKN028 OVC072 12/09 A2961 RMK SC5SC2AC1 SLP041 SLP041
CYEG;2004-09-18 22:00;METAR CYEG 182200Z 30006KT 12SM FEW015 BKN037 OVC075 11/09 A2962 RMK SC2SC4AC2 HZ SLP042
CYEG;2004-09-18 23:00;METAR CYEG 182300Z 30005KT 10SM -SHRA FEW008 BKN035 OVC068 11/09 A2962 RMK SF2SC3AC2 BR SLP043
CYEG;2004-09-19 00:00;METAR CYEG 190000Z 01007KT 12SM FEW007 BKN070 OVC090 10/09 A2959 RMK SF2AC2AS3 BR SLP034 SLP034
CYEG;2004-09-19 01:00;METAR CYEG 190100Z 29008KT 8SM BKN010 OVC090 10/09 A2960 RMK SF6AS2 BR SLP038
CYEG;2004-09-19 02:00;METAR CYEG 190200Z 29005KT 6SM BR FEW009 BKN026 OVC120 09/08 A2962 RMK SF2SC4AC2 SLP044 SLP044
CYEG;2004-09-19 03:00;METAR CYEG 190300Z 29003KT 10SM BKN040 OVC080 09/08 A2962 RMK SC5AC3 BR SLP046
CYEG;2004-09-19 04:00;METAR CYEG 190400Z 30003KT 8SM SCT040 OVC080 08/08 A2960 RMK SC3AC5 BR SLP040
CYEG;2004-09-19 05:00;METAR CYEG 190500Z 24006KT 4SM +SHRA BR SCT004 BKN019 OVC037 08/08 A2963 RMK SF3SC2SC3 CB EMBD SLP047 SF3SC2SC3 CB EMBD SLP047
CYEG;2004-09-19 06:00;METAR CYEG 190600Z 26006KT 15SM FEW004 BKN032 OVC090 07/06 A2964 RERA RMK SF2SC3AC3 G22 PST HR SLP052
CYEG;2004-09-19 07:00;METAR CYEG 190700Z 25009KT 15SM SCT010 BKN032 BKN140 06/05 A2964 RMK SF3SC2AC2 SLP053 SLP053
CYEG;2004-09-19 08:00;METAR CYEG 190800Z 27010KT 15SM FEW010 SCT032 04/04 A2966 RMK SF2SC2 SLP060
CYEG;2004-09-19 09:00;METAR CYEG 190900Z 27015KT 15SM OVC011 05/04 A2968 RMK SC8 SLP067
CYEG;2004-09-19 10:00;METAR CYEG 191000Z 28013G19KT 15SM OVC012 04/03 A2970 RMK SC8 SLP072
CYEG;2004-09-19 11:00;METAR CYEG 191100Z 27011KT 15SM OVC014 04/03 A2971 RMK SC8 SLP077
CYEG;2004-09-19 11:28;SPECI CYEG 191128Z 27013KT 15SM OVC015 RMK SC8
CYEG;2004-09-19 12:00;METAR CYEG 191200Z 27009KT 15SM BKN015 04/02 A2973 RMK SC7 SLP085
CYEG;2004-09-19 13:00;METAR CYEG 191300Z 27008KT 15SM BKN017 BKN120 03/01 A2973 RMK SC4AC1 SLP085
CYEG;2004-09-19 14:00;METAR CYEG 191400Z 24006KT 15SM FEW017 FEW120 FEW230 01/00 A2974 RMK SC1AC1CI1 SLP090 SLP090
CYEG;2004-09-19 15:00;METAR CYEG 191500Z 26008KT 15SM FEW016 FEW120 SCT230 04/02 A2976 RMK SC1AC1CI1 SLP099 SLP099
CYEG;2004-09-19 16:00;METAR CYEG 191600Z 27008KT 15SM BKN015 BKN230 05/02 A2978 RMK SC6CI1 SLP104
CYEG;2004-09-19 17:00;METAR CYEG 191700Z 28008KT 15SM BKN018 05/02 A2978 RMK SC6 SLP106
CYEG;2004-09-19 18:00;METAR CYEG 191800Z 31008KT 15SM BKN024 BKN240 07/02 A2979 RMK SC6CI1 SLP108
CYEG;2004-09-19 19:00;METAR CYEG 191900Z 31010KT 15SM BKN028 BKN240 08/02 A2979 RMK SC6CI1 SLP106
CYEG;2004-09-19 20:00;METAR CYEG 192000Z 29007KT 15SM BKN030 BKN180 09/03 A2980 RMK SC6AC1 SLP109
CYEG;2004-09-19 21:00;METAR CYEG 192100Z 31009KT 15SM BKN030 BKN180 BKN250 09/02 A2980 RMK SC6AC1CI0 SLP111 SLP111
CYEG;2004-09-19 22:00;METAR CYEG 192200Z 27011KT 15SM SCT030 BKN250 09/02 A2980 RMK CU4CI0
CYEG;2004-09-19 23:00;METAR CYEG 192300Z 30011KT 15SM SCT035 BKN250 10/02 A2979 RMK CU3CI0
CYEG;2004-09-20 00:00;METAR CYEG 200000Z 33009KT 15SM SCT035 BKN250 09/02 A2980 RMK CU3CI1 SLP113
CYEG;2004-09-20 01:00;METAR CYEG 200100Z 32006KT 15SM FEW035 BKN250 08/02 A2980 RMK CU1CI1
CYEG;2004-09-20 02:00;METAR CYEG 200200Z 34004KT 15SM FEW035 BKN250 05/01 A2983 RMK SC1CI2 SLP121
CYEG;2004-09-20 03:00;METAR CYEG 200300Z 34006KT 15SM FEW035 BKN250 04/01 A2983 RMK SC1CI1 SLP126
CYEG;2004-09-20 04:00;METAR CYEG 200400Z 32004KT 15SM BKN240 02/00 A2983 RMK CI2 SLP125
CYEG;2004-09-20 05:00;METAR CYEG 200500Z 32004KT 15SM BKN240 02/00 A2985 RMK CI2 SLP132
CYEG;2004-09-20 06:00;METAR CYEG 200600Z 30005KT 15SM BKN240 01/M00 A2987 RMK CI2 SLP139
CYEG;2004-09-20 07:00;METAR CYEG 200700Z 33006KT 15SM FEW035 OVC240 02/01 A2987 RMK SC1CS6 SLP139
CYEG;2004-09-20 08:00;METAR CYEG 200800Z 33004KT 15SM FEW035 FEW120 OVC230 02/01 A2988 RMK SC1AC1CS6 SLP142 SLP142
CYEG;2004-09-20 09:00;METAR CYEG 200900Z 30002KT 15SM BKN090 OVC240 01/00 A2990 RMK AC5CS3 SLP148
CYEG;2004-09-20 10:00;METAR CYEG 201000Z 27003KT 15SM SCT090 BKN230 00/M01 A2991 RMK AC2CS4 SLP151
CYEG;2004-09-20 11:00;METAR CYEG 201100Z 27005KT 15SM FEW030 BKN100 OVC230 00/M00 A2990 RMK SC2AC5CI1 SLP150 SLP150
CYEG;2004-09-20 12:00;METAR CYEG 201200Z 25002KT 15SM FEW028 BKN100 OVC230 01/00 A2993 RMK SC2AC6CI1 VIRGA SLP159 VIRGA SLP159
CYEG;2004-09-20 13:00;METAR CYEG 201300Z 28003KT 15SM FEW028 BKN100 BKN230 01/01 A2994 RMK SC1AC5CI1 VIRGA SLP162 VIRGA SLP162
CYEG;2004-09-20 14:00;METAR CYEG 201400Z 28004KT 15SM BKN028 BKN110 02/01 A2995 RMK SC6AC1 SLP164
CYEG;2004-09-20 15:00;METAR CYEG 201500Z 28005KT 15SM SCT034 BKN110 BKN240 03/02 A2995 RMK SC4AC3CI1 TR CI SLP169 CI SLP169
CYEG;2004-09-20 16:00;METAR CYEG 201600Z 30009KT 15SM FEW015 FEW035 BKN110 05/01 A2996 RMK CU1SC1AC5 SLP172 SLP172
CYEG;2004-09-20 17:00;METAR CYEG 201700Z 29013KT 15SM FEW020 SCT110 06/01 A2996 RMK CU2AC2 SLP173
CYEG;2004-09-20 18:00;METAR CYEG 201800Z 29012KT 15SM FEW025 FEW110 07/01 A2996 RMK CU2AC1 SLP169
CYEG;2004-09-20 19:00;METAR CYEG 201900Z 29012G17KT 15SM FEW030 SCT100 09/01 A2996 RMK CU2AC1 SLP170
CYEG;2004-09-20 20:00;METAR CYEG 202000Z 28010KT 15SM SCT030 SCT085 10/01 A2995 RMK CU3AC1 TR AC SLP166
CYEG;2004-09-20 21:00;METAR CYEG 202100Z 27011G17KT 15SM SCT045 BKN085 09/M01 A2994 RMK CU3AC2 TCU ASOCTD N SLP163 ASOCTD N SLP163
CYEG;2004-09-20 22:00;METAR CYEG 202200Z 29015KT 15SM SCT045 BKN079 10/M01 A2994 RMK CU3AC3 TCU ASOCTD VIRGA NE SLP162 VIRGA NE SLP162
CYEG;2004-09-20 23:00;METAR CYEG 202300Z 27010KT 15SM FEW045 BKN083 10/M01 A2993 RMK CU2AC2 FEW TCU E QUAD SLP160 QUAD SLP160
CYEG;2004-09-21 00:00;METAR CYEG 210000Z 27005KT 15SM FEW045 BKN081 09/M01 A2993 RMK CU2AC4 SLP160
CYEG;2004-09-21 01:00;METAR CYEG 210100Z 25005KT 15SM FEW045 BKN078 09/M02 A2993 RMK CU1AC4
CYEG;2004-09-21 02:00;METAR CYEG 210200Z 23007KT 15SM FEW045 FEW080 SCT250 04/M02 A2994 RMK CU1AC2CI0 TR CU SLP161 TR CU SLP161
CYEG;2004-09-21 03:00;METAR CYEG 210300Z 20005KT 15SM SCT080 02/M02 A2995 RMK AC2 SLP170
CYEG;2004-09-21 04:00;METAR CYEG 210400Z 19006KT 15SM BKN075 01/M02 A2995 RMK AC3 SLP169
CYEG;2004-09-21 05:00;METAR CYEG 210500Z 19006KT 15SM BKN073 01/M02 A2995 RMK AC5 SLP170
CYEG;2004-09-21 06:00;METAR CYEG 210600Z 19006KT 15SM FEW075 SCT270 00/M02 A2994 RMK AC1CI1 SLP165
CYEG;2004-09-21 07:00;METAR CYEG 210700Z 19007KT 15SM FEW075 FEW160 SCT270 01/M00 A2995 RMK AC1AC1CI1 TR LWR AC SLP166 TR LWR AC SLP166
CYEG;2004-09-21 08:00;METAR CYEG 210800Z 19005KT 15SM FEW100 FEW170 BKN270 01/M00 A2995 RMK AC1AC1CI0 SLP166 SLP166
CYEG;2004-09-21 09:00;METAR CYEG 210900Z 18006KT 15SM FEW070 FEW140 BKN270 00/M00 A2994 RMK AC1AC1CI1 SLP162 SLP162
CYEG;2004-09-21 10:00;METAR CYEG 211000Z 19006KT 15SM BKN068 OVC270 02/01 A2993 RMK AC6CI1 SLP159
CYEG;2004-09-21 11:00;METAR CYEG 211100Z 19006KT 15SM OVC069 04/02 A2992 RMK AC8 SLP156
CYEG;2004-09-21 12:00;METAR CYEG 211200Z 19008KT 15SM BKN067 BKN270 04/02 A2991 RMK AC6CI1 SLP148
CYEG;2004-09-21 13:00;METAR CYEG 211300Z 19007KT 15SM BKN066 04/01 A2990 RMK AC6 SLP147
CYEG;2004-09-21 14:00;METAR CYEG 211400Z 20004KT 15SM BKN062 05/01 A2990 RMK SC6 SLP147
CYEG;2004-09-21 15:00;METAR CYEG 211500Z 19007KT 15SM BKN065 07/01 A2989 RMK SC6 SLP148
CYEG;2004-09-21 16:00;METAR CYEG 211600Z 20007KT 15SM BKN054 09/02 A2988 RMK SC7 SLP144
CYEG;2004-09-21 17:00;METAR CYEG 211700Z 20006KT 15SM BKN057 11/03 A2987 RMK SC7 SLP141
CYEG;2004-09-21 18:00;METAR CYEG 211800Z 22008KT 15SM BKN058 14/04 A2986 RMK SC6 SLP132
CYEG;2004-09-21 19:00;METAR CYEG 211900Z 19008KT 15SM BKN068 BKN250 17/06 A2984 RMK AC6CI0 SLP124
CYEG;2004-09-21 20:00;METAR CYEG 212000Z 20010KT 15SM FEW070 BKN250 19/07 A2982 RMK AC1CI2 SLP118
CYEG;2004-09-21 21:00;METAR CYEG 212100Z 23011KT 15SM FEW070 SCT094 BKN250 20/07 A2980 RMK AC1AC2CI2 ACSL SW SLP105 ACSL SW SLP105
CYEG;2004-09-21 22:00;METAR CYEG 212200Z 23013KT 15SM FEW070 FEW095 BKN250 22/07 A2979 RMK AC1AC1CI2 TR LWR AC SLP101 LWR AC SLP101
CYEG;2004-09-21 23:00;METAR CYEG 212300Z 22011KT 15SM FEW095 SCT160 BKN250 22/08 A2977 RMK AC1AC2CI2 G 17 PST HR VIRGA W SLP095 17 PST HR VIRGA W SLP095
CYEG;2004-09-22 00:00;METAR CYEG 220000Z 21007KT 15SM FEW100 FEW160 BKN220 BKN250 22/09 A2976 RMK AC1AC1CI2CI2 SLP084
CYEG;2004-09-22 01:00;METAR CYEG 220100Z 19006KT 15SM FEW090 SCT160 BKN220 BKN250 19/10 A2974 RMK AC1AC2CI2CI1 SLP079
CYEG;2004-09-22 02:00;METAR CYEG 220200Z 21004KT 15SM FEW090 SCT170 BKN220 15/09 A2973 RMK AC1AC2CI3 SLP077 SLP077
CYEG;2004-09-22 03:00;METAR CYEG 220300Z 20004KT 15SM SCT150 BKN230 14/09 A2973 RMK AC2CI3 SLP081
CYEG;2004-09-22 04:00;METAR CYEG 220400Z 23003KT 15SM BKN150 BKN250 12/08 A2975 RMK AC5CI1 SLP086
CYEG;2004-09-22 05:00;METAR CYEG 220500Z 28004KT 15SM SCT110 BKN150 BKN250 11/08 A2976 RMK AC2AC1CI1 SLP090 SLP090
CYEG;2004-09-22 06:00;METAR CYEG 220600Z 29008KT 15SM FEW110 SCT250 13/08 A2978 RMK AC2CI0 SLP092
CYEG;2004-09-22 07:00;METAR CYEG 220700Z 27009KT 15SM FEW110 SCT250 12/08 A2980 RMK AC1CI1 SLP099
CYEG;2004-09-22 08:00;METAR CYEG 220800Z 27006KT 15SM FEW110 BKN270 12/07 A2982 RMK AC1CI2 SLP105
CYEG;2004-09-22 09:00;METAR CYEG 220900Z 26004KT 15SM BKN270 09/06 A2983 RMK CI2 SLP109
CYEG;2004-09-22 10:00;METAR CYEG 221000Z 25005KT 15SM SCT270 08/06 A2984 RMK CI1 SLP111
CYEG;2004-09-22 11:00;METAR CYEG 221100Z 22004KT 15SM FEW270 05/02 A2985 RMK CI1 SLP113
CYEG;2004-09-22 12:00;METAR CYEG 221200Z 21003KT 15SM FEW270 04/03 A2986 RMK CI0 SLP120
CYEG;2004-09-22 13:00;METAR CYEG 221300Z 19006KT 15SM FEW089 FEW270 05/03 A2988 RMK AC1CI0 SLP126
CYEG;2004-09-22 14:00;METAR CYEG 221400Z 20006KT 15SM FEW020 FEW085 FEW270 05/04 A2989 RMK SC1AC1CI1 TR SC SLP130 SC SLP130
CYEG;2004-09-22 15:00;METAR CYEG 221500Z 21002KT 15SM FEW020 FEW085 FEW270 08/06 A2990 RMK SC1AC1CI0 TR SC SLP139 SC SLP139
CYEG;2004-09-22 16:00;METAR CYEG 221600Z 27004KT 15SM FEW085 FEW120 SCT250 14/06 A2992 RMK AC1AC1CI2 TR LWR AC SLP143 LWR AC SLP143
CYEG;2004-09-22 17:00;METAR CYEG 221700Z 28005KT 15SM FEW090 FEW120 BKN250 16/05 A2993 RMK AC1AC1CI2 SLP146 SLP146
CYEG;2004-09-22 18:00;METAR CYEG 221800Z 29009KT 15SM FEW050 FEW095 FEW250 16/03 A2992 RMK CU1AC1CI1 SLP139 SLP139
CYEG;2004-09-22 19:00;METAR CYEG 221900Z 31012G17KT 15SM FEW050 FEW095 FEW240 17/03 A2992 RMK CU1AC1CI1 TR CU SLP140 TR CU SLP140
CYEG;2004-09-22 20:00;METAR CYEG 222000Z 30009KT 15SM FEW050 FEW088 FEW240 17/04 A2992 RMK
CYEG;2004-09-22 21:00;METAR CYEG 222100Z 30005KT 15SM FEW055 FEW088 17/04 A2990 RMK CU1AC2 SLP135
CYEG;2004-09-22 22:00;METAR CYEG 222200Z 22006KT 15SM FEW060 FEW090 18/03 A2989 RMK CU2AC1 TR AC SLP129
CYEG;2004-09-22 23:00;METAR CYEG 222300Z 29005KT 15SM FEW060 FEW250 18/04 A2988 RMK CU2CI1 TR CI SLP127
CYEG;2004-09-23 00:00;METAR CYEG 230000Z 28003KT 15SM FEW060 FEW080 FEW250 17/04 A2989 RMK CU1AC1CI0 SLP134 SLP134
CYEG;2004-09-23 01:00;METAR CYEG 230100Z 00000KT 15SM FEW060 FEW080 FEW250 16/05 A2988 RMK SC1AC1CI0 SLP133 SLP133
CYEG;2004-09-23 02:00;METAR CYEG 230200Z 11003KT 15SM FEW080 BKN110 11/04 A2988 RMK AC2AC4
CYEG;2004-09-23 03:00;METAR CYEG 230300Z 00000KT 15SM FEW081 BKN110 11/05 A2990 RMK AC2AC5 SLP140
CYEG;2004-09-23 04:00;METAR CYEG 230400Z 00000KT 15SM FEW070 SCT110 BKN240 07/05 A2991 RMK AC2AC2CI2 SLP143 SLP143
CYEG;2004-09-23 05:00;METAR CYEG 230500Z 16004KT 15SM FEW075 SCT110 BKN240 08/04 A2992 RMK AC2AC1CI1 AURBO SLP147 AURBO SLP147
CYEG;2004-09-23 06:00;METAR CYEG 230600Z 25002KT 15SM FEW075 SCT110 BKN240 06/04 A2993 RMK AC1AC2CI1 SLP149 SLP149
CYEG;2004-09-23 07:00;METAR CYEG 230700Z 00000KT 15SM FEW090 BKN110 06/04 A2993 RMK AC2AC3 SLP148
CYEG;2004-09-23 08:00;METAR CYEG 230800Z 00000KT 15SM FEW090 BKN250 05/04 A2993 RMK AC2CI1
CYEG;2004-09-23 09:00;METAR CYEG 230900Z 00000KT 15SM FEW090 SCT250 03/03 A2993 RMK AC2CI1
CYEG;2004-09-23 10:00;METAR CYEG 231000Z 16002KT 15SM FEW110 FEW250 03/02 A2992 RMK AC1CI0 SLP145
CYEG;2004-09-23 11:00;METAR CYEG 231100Z 19003KT 15SM FEW110 BKN250 02/01 A2990 RMK AC1CI1 SLP141
CYEG;2004-09-23 12:00;METAR CYEG 231200Z 04002KT 15SM FEW110 SCT240 01/01 A2990 RMK AC1CI1
CYEG;2004-09-23 13:00;METAR CYEG 231300Z 22003KT 15SM FEW110 FEW240 M00/M01 A2992 RMK AC1CI1 SLP147
CYEG;2004-09-23 14:00;METAR CYEG 231400Z 18005KT 15SM FEW110 BKN240 01/01 A2992 RMK AC1CI2
CYEG;2004-09-23 15:00;METAR CYEG 231500Z 22003KT 15SM FEW110 BKN270 07/04 A2992 RMK AC1CI3
CYEG;2004-09-23 16:00;METAR CYEG 231600Z 25002KT 15SM FEW110 BKN240 09/06 A2993 RMK AC2CI2 VIRGA N CC ASOCTD SW SLP153 ASOCTD SW SLP153
CYEG;2004-09-23 17:00;METAR CYEG 231700Z 25005KT 15SM FEW100 FEW140 BKN240 13/06 A2993 RMK AC2AC1CI2 TR HIR AC SLP153 HIR AC SLP153
CYEG;2004-09-23 18:00;METAR CYEG 231800Z 24003KT 15SM FEW100 FEW140 BKN230 16/05 A2993 RMK AC2AC1CS4 SLP149
CYEG;2004-09-23 19:00;METAR CYEG 231900Z 31009KT 15SM FEW100 BKN130 BKN230 15/06 A2996 RMK AC1AS5CS2 SLP157 SLP157
CYEG;2004-09-23 20:00;METAR CYEG 232000Z 31006KT 15SM FEW120 BKN170 BKN230 15/05 A2996 RMK AC1AS4CS2 SLP156 SLP156
CYEG;2004-09-23 21:00;METAR CYEG 232100Z 30008KT 15SM FEW045 FEW120 FEW180 BKN240 16/05 A2996 RMK CU1AC1AS2CI2 TR CU SLP162
CYEG;2004-09-23 22:00;METAR CYEG 232200Z 28007KT 15SM FEW050 FEW120 FEW240 17/04 A2996 RMK CU1AC1CI1 TR CU SLP161 CU SLP161
CYEG;2004-09-23 23:00;METAR CYEG 232300Z 30007KT 15SM FEW050 FEW140 FEW240 17/04 A2996 RMK CU1AC1CI1 TR CU AC SLP162 CU AC SLP162
CYEG;2004-09-24 00:00;METAR CYEG 240000Z 28005KT 15SM FEW050 FEW140 FEW240 17/04 A2997 RMK CU1AC1CI1 TR CU AC SLP166 CU AC SLP166
CYEG;2004-09-24 01:00;METAR CYEG 240100Z 28003KT 15SM FEW120 FEW240 15/04 A2998 RMK AC1CI1 TR CLD SLP170
CYEG;2004-09-24 02:00;METAR CYEG 240200Z 21004KT 15SM FEW120 09/02 A2999 RMK AC1 TR CLD SLP172
CYEG;2004-09-24 03:00;METAR CYEG 240300Z 18006KT 15SM SKC 08/03 A2999 RMK SLP177
CYEG;2004-09-24 04:00;METAR CYEG 240400Z 19007KT 15SM SKC 07/03 A3000 RMK SLP180
CYEG;2004-09-24 05:00;METAR CYEG 240500Z 19008KT 15SM SKC 06/03 A3000 RMK SLP180
CYEG;2004-09-24 06:00;METAR CYEG 240600Z 21004KT 15SM SKC 05/03 A3002 RMK SLP179
CYEG;2004-09-24 07:00;METAR CYEG 240700Z 22004KT 15SM SKC 05/03 A3002 RMK SLP180
CYEG;2004-09-24 08:00;METAR CYEG 240800Z 22003KT 15SM SKC 05/03 A3002 RMK SLP181
CYEG;2004-09-24 09:00;METAR CYEG 240900Z 21004KT 15SM SKC 04/02 A3003 RMK SLP184
CYEG;2004-09-24 10:00;METAR CYEG 241000Z 20004KT 15SM SKC 02/01 A3003 RMK SLP184
CYEG;2004-09-24 11:00;METAR CYEG 241100Z 19006KT 15SM SKC 03/01 A3003 RMK SLP184
CYEG;2004-09-24 12:00;METAR CYEG 241200Z 19005KT 15SM SKC 03/01 A3002 RMK SLP182
CYEG;2004-09-24 13:00;METAR CYEG 241300Z 18007KT 15SM FEW120 03/01 A3001 RMK AC1 SLP178
CYEG;2004-09-24 14:00;METAR CYEG 241400Z 17004KT 15SM FEW120 01/M00 A3001 RMK AC1 SLP177
CYEG;2004-09-24 15:00;METAR CYEG 241500Z 18005KT 15SM FEW030 FEW120 07/04 A3000 RMK SC1AC1 SLP178
CYEG;2004-09-24 16:00;METAR CYEG 241600Z 17008KT 15SM FEW030 FEW120 11/05 A2999 RMK SC1AC1 SLP176
CYEG;2004-09-24 17:00;METAR CYEG 241700Z 20008KT 15SM FEW120 FEW250 15/06 A2998 RMK AC1CI1 SLP172
CYEG;2004-09-24 18:00;METAR CYEG 241800Z 21008KT 15SM FEW120 FEW250 18/05 A2995 RMK AC1CI1 SLP155
CYEG;2004-09-24 19:00;METAR CYEG 241900Z 19010KT 15SM FEW120 FEW250 20/05 A2994 RMK AC1CI0 SLP150
CYEG;2004-09-24 20:00;METAR CYEG 242000Z 23008KT 15SM FEW120 FEW250 21/05 A2993 RMK AC1CI1 TR AC SLP147
CYEG;2004-09-24 21:00;METAR CYEG 242100Z 25008KT 15SM FEW120 FEW250 22/03 A2991 RMK AC1CI1 TR AC SLP138
CYEG;2004-09-24 22:00;METAR CYEG 242200Z 20006KT 15SM FEW120 FEW250 22/04 A2989 RMK AC1CI1 TR AC SLP133
CYEG;2004-09-24 23:00;METAR CYEG 242300Z 25008KT 15SM FEW120 FEW250 23/04 A2989 RMK AC1CI0 SLP130
CYEG;2004-09-25 00:00;METAR CYEG 250000Z 22003KT 15SM FEW120 BKN250 22/04 A2988 RMK AC1CI1 SLP126
CYEG;2004-09-25 01:00;METAR CYEG 250100Z 18003KT 15SM FEW120 BKN250 20/06 A2987 RMK AC2CI1 SLP124
CYEG;2004-09-25 02:00;METAR CYEG 250200Z 18003KT 15SM SCT140 BKN250 16/06 A2987 RMK AC2CI1 SLP125
CYEG;2004-09-25 03:00;METAR CYEG 250300Z 19004KT 15SM BKN250 12/05 A2988 RMK CI2 SLP133
CYEG;2004-09-25 04:00;METAR CYEG 250400Z 21002KT 15SM SCT250 08/04 A2988 RMK CI1 SLP134
CYEG;2004-09-25 05:00;METAR CYEG 250500Z 23004KT 15SM SCT250 07/04 A2989 RMK CI1 SLP138
CYEG;2004-09-25 06:00;METAR CYEG 250600Z 25002KT 15SM SCT250 05/04 A2992 RMK CI0 SLP145
CYEG;2004-09-25 07:00;METAR CYEG 250700Z 00000KT 15SM FEW100 SCT250 05/04 A2994 RMK AC1CI0 SLP150
CYEG;2004-09-25 08:00;METAR CYEG 250800Z 00000KT 15SM SCT110 BKN250 04/03 A2995 RMK AC2CI1 AC INVDNG SLP152 SLP152
CYEG;2004-09-25 09:00;METAR CYEG 250900Z 27002KT 15SM BKN110 BKN250 05/04 A2995 RMK AC5CI1
CYEG;2004-09-25 10:00;METAR CYEG 251000Z 02003KT 15SM BKN110 OVC250 06/05 A2995 RMK AC6CI2
CYEG;2004-09-25 11:00;METAR CYEG 251100Z 19007KT 15SM BKN110 OVC250 07/06 A2997 RMK AC7CI1 SLP157
CYEG;2004-09-25 12:00;METAR CYEG 251200Z 19004KT 15SM OVC110 08/06 A2997 RMK AC8 SLP155
CYEG;2004-09-25 13:00;METAR CYEG 251300Z 18002KT 15SM BKN110 OVC250 09/06 A2997 RMK AC7CI1 SLP156
CYEG;2004-09-25 14:00;METAR CYEG 251400Z 18004KT 15SM BKN110 OVC250 09/06 A2999 RMK AC6CI2 SLP160
CYEG;2004-09-25 15:00;METAR CYEG 251500Z 18005KT 15SM SCT110 BKN160 OVC210 10/06 A2999 RMK AC2AS5CI1 SLP168 SLP168
CYEG;2004-09-25 16:00;METAR CYEG 251600Z 18006KT 15SM FEW110 BKN160 BKN210 12/07 A2998 RMK AC2AS2CI2 SLP167 SLP167
CYEG;2004-09-25 17:00;METAR CYEG 251700Z 17007KT 15SM FEW110 SCT160 BKN210 14/06 A2999 RMK AC2AS2CS3 HALO SLP168 HALO SLP168
CYEG;2004-09-25 18:00;METAR CYEG 251800Z 16007KT 15SM FEW110 SCT160 BKN210 16/05 A2999 RMK AC2AS2CS1 SLP169 SLP169
CYEG;2004-09-25 19:00;METAR CYEG 251900Z 14007KT 15SM SCT120 SCT160 BKN210 17/04 A2998 RMK AC2AS2CS1 SLP166 SLP166
CYEG;2004-09-25 20:00;METAR CYEG 252000Z 16005KT 15SM FEW120 FEW160 SCT210 19/05 A2997 RMK AC1AC1CI1 SLP164 SLP164
CYEG;2004-09-25 21:00;METAR CYEG 252100Z 27002KT 15SM FEW060 FEW120 FEW210 19/05 A2997 RMK CU1AC1CI1 TR CU SLP160 CU SLP160
CYEG;2004-09-25 22:00;METAR CYEG 252200Z 25004KT 15SM FEW120 SCT210 20/05 A2997 RMK AC1CI2
CYEG;2004-09-25 23:00;METAR CYEG 252300Z 35015KT 15SM BKN110 BKN210 17/07 A2998 RMK AC6CI1
CYEG;2004-09-26 00:00;METAR CYEG 260000Z 35011KT 15SM SCT110 BKN230 16/05 A3001 RMK AC4CI1 G19 PST HR SLP174 SLP174
CYEG;2004-09-26 01:00;METAR CYEG 260100Z 33007KT 15SM BKN100 BKN230 14/05 A3003 RMK AC6CI1 SLP182
CYEG;2004-09-26 02:00;METAR CYEG 260200Z 30005KT 15SM SCT079 BKN100 BKN230 13/05 A3005 RMK AC3AC3CI1 VIRGA SLP188 VIRGA SLP188
CYEG;2004-09-26 03:00;METAR CYEG 260300Z 32014KT 15SM OVC074 13/04 A3009 RMK AC8 SLP202
CYEG;2004-09-26 04:00;METAR CYEG 260400Z 30005KT 15SM OVC064 11/05 A3010 RMK SC8 SLP207
CYEG;2004-09-26 05:00;METAR CYEG 260500Z 25005KT 15SM SCT052 OVC076 09/08 A3011 RMK SC4AC4 OCNL RW- SLP208 SLP208
CYEG;2004-09-26 06:00;METAR CYEG 260600Z 27005KT 15SM FEW076 07/06 A3012 RMK AC2 SLP214
CYEG;2004-09-26 07:00;METAR CYEG 260700Z 27004KT 15SM FEW080 06/05 A3013 RMK AC2 SLP217
CYEG;2004-09-26 08:00;METAR CYEG 260800Z 25004KT 15SM FEW080 05/04 A3015 RMK AC1 SLP222
CYEG;2004-09-26 09:00;METAR CYEG 260900Z 27005KT 15SM FEW080 04/04 A3017 RMK AC1 SLP229
CYEG;2004-09-26 10:00;METAR CYEG 261000Z 26004KT 15SM FEW080 FEW250 04/04 A3018 RMK AC1CI0 SLP233
CYEG;2004-09-26 11:00;METAR CYEG 261100Z 24002KT 5SM BR SKC 02/02 A3019 RMK SLP236
CYEG;2004-09-26 12:00;METAR CYEG 261200Z 22004KT 15SM FEW250 02/02 A3021 RMK CI0 SLP249
CYEG;2004-09-26 13:00;METAR CYEG 261300Z 20005KT 15SM FEW100 SCT250 02/02 A3022 RMK AC1CI1 SLP251
CYEG;2004-09-26 14:00;METAR CYEG 261400Z 25002KT 15SM FEW100 BKN250 02/02 A3024 RMK AC1CI2 SLP257
CYEG;2004-09-26 15:00;METAR CYEG 261500Z 00000KT 15SM FEW100 BKN270 05/05 A3025 RMK AC1CI1 SLP263
CYEG;2004-09-26 16:00;METAR CYEG 261600Z 26004KT 15SM FEW100 BKN270 08/07 A3026 RMK AC1CI1 FEW ACC ASOCTD DIST S SLP266 ASOCTD DIST S SLP266
CYEG;2004-09-26 17:00;METAR CYEG 261700Z 00000KT 15SM FEW100 FEW150 BKN270 10/07 A3027 RMK AC1AS1CI2 TR AS SLP268 AS SLP268
CYEG;2004-09-26 18:00;METAR CYEG 261800Z 29002KT 15SM FEW100 FEW210 BKN270 12/07 A3027 RMK AC1CI1CI1 TR AC SLP270 AC SLP270
CYEG;2004-09-26 19:00;METAR CYEG 261900Z 22003KT 15SM FEW030 FEW210 BKN270 14/07 A3028 RMK CU1CI1CI1 SLP271 SLP271
CYEG;2004-09-26 20:00;METAR CYEG 262000Z 19003KT 15SM FEW036 FEW100 FEW170 SCT240 16/06 A3027 RMK CU1AC1AC1CI1 SLP267
CYEG;2004-09-26 21:00;METAR CYEG 262100Z 00000KT 15SM FEW052 FEW100 SCT240 17/05 A3026 RMK CU2AC1CI1 SLP263
CYEG;2004-09-26 22:00;METAR CYEG 262200Z 01004KT 15SM SCT052 SCT100 17/04 A3026 RMK CU3AC1
CYEG;2004-09-26 23:00;METAR CYEG 262300Z 00000KT 15SM FEW052 FEW100 17/04 A3024 RMK CU2AC1
CYEG;2004-09-27 00:00;METAR CYEG 270000Z 09002KT 15SM FEW050 15/04 A3025 RMK CU1 SLP263
CYEG;2004-09-27 01:00;METAR CYEG 270100Z 12005KT 15SM FEW050 12/05 A3026 RMK SC1 SLP265
CYEG;2004-09-27 02:00;METAR CYEG 270200Z 20005KT 15SM FEW050 10/04 A3027 RMK SC1 SLP269
CYEG;2004-09-27 03:00;METAR CYEG 270300Z 16004KT 15SM FEW050 06/03 A3028 RMK SC1 SLP279
CYEG;2004-09-27 05:00;METAR CYEG 270500Z 17005KT 15SM SKC 06/03 A3028 RMK SLP279
CYEG;2004-09-27 06:00;METAR CYEG 270600Z 18007KT 15SM SKC 05/02 A3028 RMK SLP275
CYEG;2004-09-27 07:00;METAR CYEG 270700Z 17006KT 15SM SKC 06/03 A3029 RMK SLP276
CYEG;2004-09-27 08:00;METAR CYEG 270800Z 17007KT 15SM SKC 04/02 A3028 RMK SLP275
CYEG;2004-09-27 09:00;METAR CYEG 270900Z 17007KT 15SM SKC 05/03 A3028 RMK SLP270
CYEG;2004-09-27 10:00;METAR CYEG 271000Z 17007KT 15SM SKC 04/02 A3027 RMK SLP266
CYEG;2004-09-27 11:00;METAR CYEG 271100Z 17009KT 15SM FEW250 05/02 A3026 RMK CI0 SLP264
CYEG;2004-09-27 12:00;METAR CYEG 271200Z 16009KT 15SM FEW250 05/03 A3025 RMK CI1 SLP261
CYEG;2004-09-27 13:00;METAR CYEG 271300Z 17006KT 15SM FEW250 04/02 A3024 RMK CI1 SLP257
CYEG;2004-09-27 14:00;METAR CYEG 271400Z 16010KT 15SM SCT250 05/02 A3022 RMK CI1 SLP251
CYEG;2004-09-27 15:00;METAR CYEG 271500Z 16012G17KT 15SM SCT300 07/03 A3020 RMK CI1 SLP249
CYEG;2004-09-27 16:00;METAR CYEG 271600Z 17013G18KT 15SM BKN300 11/04 A3018 RMK CI1 SLP243
CYEG;2004-09-27 17:00;METAR CYEG 271700Z 17015G22KT 15SM BKN300 14/04 A3016 RMK CI2 SLP236
CYEG;2004-09-27 18:00;METAR CYEG 271800Z 17018G24KT 15SM BKN300 17/05 A3014 RMK CI2 SLP222
CYEG;2004-09-27 19:00;METAR CYEG 271900Z 17015G24KT 15SM BKN300 18/07 A3011 RMK CI3 SLP212
CYEG;2004-09-27 20:00;METAR CYEG 272000Z 19016G25KT 15SM BKN300 20/07 A3009 RMK CI1 SLP207
CYEG;2004-09-27 23:00;METAR CYEG 272300Z 20008KT 15SM FEW300 22/07 A3003 RMK CI0 SLP180
CYEG;2004-09-28 00:00;METAR CYEG 280000Z 22006KT 15SM FEW300 21/07 A3002 RMK CI1 SLP174
CYEG;2004-09-28 01:00;METAR CYEG 280100Z 21003KT 15SM SKC 19/05 A3000 RMK SLP168
CYEG;2004-09-28 02:00;METAR CYEG 280200Z 19003KT 15SM SKC 11/04 A2998 RMK SLP164
CYEG;2004-09-28 03:00;METAR CYEG 280300Z 21002KT 15SM SKC 07/04 A2999 RMK SLP175
CYEG;2004-09-28 04:00;METAR CYEG 280400Z 19002KT 15SM SKC 07/05 A2998 RMK SLP173
CYEG;2004-09-28 05:00;METAR CYEG 280500Z 19004KT 15SM SKC 05/03 A2997 RMK SLP171
CYEG;2004-09-28 06:00;METAR CYEG 280600Z 00000KT 15SM SKC 04/03 A2996 RMK SLP159
CYEG;2004-09-28 07:00;METAR CYEG 280700Z 19004KT 15SM SKC 03/02 A2995 RMK SLP157
CYEG;2004-09-28 08:00;METAR CYEG 280800Z 20003KT 15SM SKC 04/03 A2995 RMK SLP156
CYEG;2004-09-28 09:00;METAR CYEG 280900Z 25002KT 15SM SKC 03/02 A2996 RMK SLP159
CYEG;2004-09-28 10:00;METAR CYEG 281000Z 00000KT 15SM SKC 02/02 A2997 RMK SLP161
CYEG;2004-09-28 11:00;METAR CYEG 281100Z CCA 29002KT 15SM SKC 01/M00 A2998 RMK SLP165
CYEG;2004-09-28 12:00;METAR CYEG 281200Z 00000KT 15SM SKC 01/00 A2998 RMK SLP166
CYEG;2004-09-28 13:00;METAR CYEG 281300Z 21003KT 15SM FEW120 FEW300 02/01 A2999 RMK AC1CI1 TR CLD SLP167
CYEG;2004-09-28 14:00;METAR CYEG 281400Z 25002KT 15SM FEW120 FEW300 01/01 A2999 RMK AC1CI1 TR CLD SLP169
CYEG;2004-09-28 15:00;METAR CYEG 281500Z 29002KT 15SM FEW300 07/04 A3000 RMK CI0 SLP179
CYEG;2004-09-28 16:00;METAR CYEG 281600Z 27004KT 15SM FEW300 12/07 A3001 RMK CI0 SLP184
CYEG;2004-09-28 17:00;METAR CYEG 281700Z 28004KT 15SM FEW300 15/07 A3002 RMK CI0 SLP186
CYEG;2004-09-28 18:00;METAR CYEG 281800Z 32005KT 15SM FEW300 17/07 A3002 RMK CI1 SLP178
CYEG;2004-09-28 19:00;METAR CYEG 281900Z 34008KT 15SM FEW300 19/05 A3001 RMK CI1 SLP175
CYEG;2004-09-28 20:00;METAR CYEG 282000Z 33007KT 15SM FEW300 19/05 A2999 RMK CI1 SLP171
CYEG;2004-09-28 21:00;METAR CYEG 282100Z 32010G15KT 15SM FEW060 19/04 A2999 RMK CU1 SLP168
CYEG;2004-09-28 22:00;METAR CYEG 282200Z 32010G15KT 15SM FEW060 19/04 A2999 RMK CU1 SLP168
CYEG;2004-09-28 23:00;METAR CYEG 282300Z 34011KT 15SM FEW100 18/03 A2999 RMK AC1 TR AC LENT DIST SW-W SLP168 SLP168
CYEG;2004-09-29 00:00;METAR CYEG 290000Z 32006KT 15SM FEW100 FEW270 17/01 A3000 RMK AC1CI1 AC LENT ASOCTD W SLP174 ASOCTD W SLP174
CYEG;2004-09-29 01:00;METAR CYEG 290100Z 32004KT 15SM FEW100 14/01 A3000 RMK AC2 FEW AC LENT NE SLP176
CYEG;2004-09-29 02:00;METAR CYEG 290200Z 32007KT 15SM FEW100 10/00 A3003 RMK AC2 SLP185
CYEG;2004-09-29 03:00;METAR CYEG 290300Z 35006KT 15SM SCT120 BKN160 09/02 A3005 RMK AC3AC2 SLP195
CYEG;2004-09-29 04:00;METAR CYEG 290400Z 35004KT 15SM BKN130 OVC170 10/02 A3008 RMK AC4AC3 SLP203
CYEG;2004-09-29 05:00;METAR CYEG 290500Z 35007KT 15SM OVC120 11/00 A3009 RMK AC8 VIRGA SLP207
CYEG;2004-09-29 06:00;METAR CYEG 290600Z 35006KT 15SM FEW090 OVC120 10/01 A3010 RMK AC2AC6 VIRGA SLP204
CYEG;2004-09-29 07:00;METAR CYEG 290700Z 36006KT 15SM OVC110 09/01 A3011 RMK AC8 VIRGA SLP206
CYEG;2004-09-29 08:00;METAR CYEG 290800Z 34005KT 15SM OVC120 08/02 A3012 RMK AC8 VIRGA SLP210
CYEG;2004-09-29 09:00;METAR CYEG 290900Z 32004KT 15SM SCT090 OVC120 08/02 A3013 RMK AC4AC4 VIRGA SLP213
CYEG;2004-09-29 10:00;METAR CYEG 291000Z 36002KT 15SM SCT060 OVC090 08/M01 A3013 RMK SC4AC4 XTNSV VIRGA SLP213
CYEG;2004-09-29 11:00;METAR CYEG 291100Z 34003KT 15SM OVC070 07/01 A3013 RMK AC8 XTNSV VIRGA SLP214
CYEG;2004-09-29 12:00;METAR CYEG 291200Z 00000KT 15SM SCT070 OVC090 06/01 A3012 RMK AC4AC4 XTNSV
CYEG;2004-09-29 13:00;METAR CYEG 291300Z 29003KT 15SM BKN080 06/01 A3013 RMK AC7 VIRGA SLP215
CYEG;2004-09-29 14:00;METAR CYEG 291400Z 18002KT 15SM BKN075 06/00 A3012 RMK AC7 VIRGA SLP212
CYEG;2004-09-29 15:00;METAR CYEG 291500Z 18002KT 15SM BKN060 07/02 A3011 RMK SC7 VIRGA SLP217
CYEG;2004-09-29 16:00;METAR CYEG 291600Z 18005KT 15SM -SHRA BKN045 08/03 A3011 RMK SC7 SLP217
CYEG;2004-09-29 17:00;METAR CYEG 291700Z 16009KT 15SM -RA BKN030 BKN050 08/02 A3010 RMK SC5SC2
CYEG;2004-09-29 18:00;METAR CYEG 291800Z 13003KT 15SM -RA BKN034 OVC050 08/03 A3009 RMK SC5SC3 SLP209
CYEG;2004-09-29 19:00;METAR CYEG 291900Z 09004KT 15SM -RA SCT034 OVC072 07/04 A3008 RMK SC3AS5 SLP205
CYEG;2004-09-29 20:00;METAR CYEG 292000Z 10006KT 15SM -RA FEW034 BKN075 07/04 A3005 RMK SC2AS5 SLP194
CYEG;2004-09-29 21:00;METAR CYEG 292100Z 13008KT 15SM FEW034 BKN077 BKN250 09/04 A3001 RMK SC1AC5CI0 SLP181 SLP181
CYEG;2004-09-29 22:00;METAR CYEG 292200Z 14008KT 15SM FEW034 BKN057 BKN077 09/02 A3000 RMK SC1SC5AC1 SLP177 SLP177
CYEG;2004-09-29 23:00;METAR CYEG 292300Z 15008KT 15SM FEW034 BKN051 BKN250 10/02 A2998 RMK SC1SC6CI0 SLP172 SLP172
CYEG;2004-09-30 00:00;METAR CYEG 300000Z 18008KT 15SM BKN046 BKN250 09/01 A2999 RMK SC6CI0 SLP173
CYEG;2004-09-30 01:00;METAR CYEG 300100Z 15005KT 15SM BKN040 08/01 A2998 RMK SC6 SLP170
CYEG;2004-09-30 02:00;METAR CYEG 300200Z 15005KT 15SM FEW040 FEW250 05/01 A2997 RMK SC1CI1 SLP169
CYEG;2004-09-30 03:00;METAR CYEG 300300Z 16006KT 15SM FEW250 05/01 A2997 RMK CI1 SLP173
CYEG;2004-09-30 04:00;METAR CYEG 300400Z 17006KT 15SM FEW250 03/00 A2996 RMK CI0 SLP169
CYEG;2004-09-30 05:00;METAR CYEG 300500Z 20005KT 15SM SKC 01/M00 A2996 RMK SLP168
CYEG;2004-09-30 06:00;METAR CYEG 300600Z 19004KT 15SM FEW040 FEW250 00/M01 A2996 RMK SC1CI0 SLP170
CYEG;2004-09-30 07:00;METAR CYEG 300700Z 19006KT 15SM FEW250 01/M00 A2994 RMK CI0 SLP164
CYEG;2004-09-30 08:00;METAR CYEG 300800Z 21002KT 15SM SCT240 M01/M02 A2994 RMK CI2 SLP163
CYEG;2004-09-30 09:00;METAR CYEG 300900Z 26005KT 15SM BKN240 01/01 A2993 RMK CS2 HALO SLP158
CYEG;2004-09-30 10:00;METAR CYEG 301000Z 29003KT 15SM OVC230 02/01 A2992 RMK CS5 HALO SLP157
CYEG;2004-09-30 11:00;METAR CYEG 301100Z 28006KT 15SM BKN170 OVC230 03/02 A2993 RMK AS5CS2 SLP158
CYEG;2004-09-30 12:00;METAR CYEG 301200Z 28006KT 15SM BKN180 OVC230 04/02 A2993 RMK AC6CS2 SLP157
CYEG;2004-09-30 13:00;METAR CYEG 301300Z 28004KT 15SM FEW090 BKN180 OVC230 04/01 A2996 RMK AC1AC5CS1 SLP166 SLP166
CYEG;2004-09-30 14:00;METAR CYEG 301400Z 27008KT 15SM SCT090 BKN160 03/01 A2998 RMK AC3AC2 VIRGA N SLP171 SLP171
CYEG;2004-09-30 15:00;METAR CYEG 301500Z 26009KT 15SM BKN079 BKN100 BKN160 04/01 A2999 RMK AC6AC1AC1 VIRGA N SLP180 VIRGA N SLP180
CYEG;2004-09-30 16:00;METAR CYEG 301600Z 32014KT 15SM FEW079 BKN110 07/01 A3004 RMK AC2AC2 VIRGA NE WSHFT GRADU SLP196 WSHFT GRADU SLP196 CU2AC1CI0 G30 PST HR SLP215 PST HR SLP238
CYEG;2004-09-30 19:00;METAR CYEG 301900Z 35023G30KT 15SM BKN040 05/M05 A3019 RMK CU6 SLP251
CYEG;2004-09-30 20:00;METAR CYEG 302000Z 35022G27KT 15SM FEW040 BKN065 04/M04 A3023 RMK CU2SC2 SLP264
CYEG;2004-09-30 21:00;METAR CYEG 302100Z 35019G25KT 15SM FEW045 SCT065 05/M07 A3024 RMK CU2SC1 SLP271
CYEG;2004-09-30 22:00;METAR CYEG 302200Z 36016G24KT 15SM FEW060 FEW250 04/M10 A3026 RMK CU2CI1 SLP277
CYEG;2004-09-30 23:00;METAR CYEG 302300Z 33014KT 15SM FEW060 FEW250 04/M09 A3027 RMK CU2CI0 SLP280
CYEG;2004-10-01 00:00;METAR CYEG 010000Z 36014KT 15SM FEW060 FEW250 04/M11 A3028 RMK CU1CI0 SLP281
CYEG;2004-10-01 02:00;METAR CYEG 010200Z 01005KT 15SM FEW250 M02/M10 A3029 RMK CI0 SLP286
CYEG;2004-10-01 04:00;METAR CYEG 010400Z 18003KT 15SM FEW250 M07/M11 A3030 RMK CI0 SLP296
CYEG;2004-10-01 05:00;METAR CYEG 010500Z 21004KT 15SM SKC M08/M10 A3030 RMK SLP295
CYEG;2004-10-01 06:00;METAR CYEG 010600Z 19006KT 15SM SKC M07/M10 A3029 RMK SLP295
CYEG;2004-10-01 07:00;METAR CYEG 010700Z 18005KT 15SM SKC M06/M11 A3027 RMK SLP289
CYEG;2004-10-01 08:00;METAR CYEG 010800Z 17007KT 15SM SKC M07/M10 A3025 RMK SLP282
CYEG;2004-10-01 09:00;METAR CYEG 010900Z 17008KT 15SM SKC M07/M09 A3023 RMK SLP274
CYEG;2004-10-01 10:00;METAR CYEG 011000Z 18006KT 15SM FEW250 M08/M10 A3021 RMK CI0 SLP266
CYEG;2004-10-01 11:00;METAR CYEG 011100Z 17005KT 15SM FEW250 M06/M09 A3017 RMK CI1 SLP256
CYEG;2004-10-01 12:00;METAR CYEG 011200Z 17005KT 15SM FEW250 M06/M09 A3015 RMK CI1 SLP248
CYEG;2004-10-01 13:00;METAR CYEG 011300Z 18006KT 15SM FEW250 M07/M09 A3013 RMK CI1 SLP241
CYEG;2004-10-01 14:00;METAR CYEG 011400Z 17006KT 15SM FEW250 M08/M09 A3012 RMK CI0 SLP236
CYEG;2004-10-01 15:00;METAR CYEG 011500Z 23002KT 15SM FEW250 M03/M06 A3011 RMK CI0 SLP236
CYEG;2004-10-01 16:00;METAR CYEG 011600Z 27002KT 15SM FEW250 M00/M04 A3009 RMK CI0 SLP232
CYEG;2004-10-01 17:00;METAR CYEG 011700Z 27008KT 15SM FEW250 05/M02 A3008 RMK CI1 SLP228
CYEG;2004-10-01 18:00;METAR CYEG 011800Z 26008KT 15SM FEW250 08/M02 A3007 RMK CI1 SLP214
CYEG;2004-10-01 19:00;METAR CYEG 011900Z 28005KT 15SM FEW250 10/M03 A3004 RMK CI0 SLP206
CYEG;2004-10-01 20:00;METAR CYEG 012000Z 27005KT 15SM FEW250 12/M04 A3002 RMK CI0 SLP198
CYEG;2004-10-01 21:00;METAR CYEG 012100Z 28005KT 15SM FEW250 13/M03 A2999 RMK CI0 SLP184
CYEG;2004-10-01 22:00;METAR CYEG 012200Z 27005KT 15SM FEW250 14/M03 A2997 RMK CI0 SLP177
CYEG;2004-10-01 23:00;METAR CYEG 012300Z 25003KT 15SM FEW250 14/M03 A2996 RMK CI1 SLP173
CYEG;2004-10-02 00:00;METAR CYEG 020000Z 00000KT 15SM FEW250 14/M03 A2995 RMK CI1 SLP168
CYEG;2004-10-02 01:00;METAR CYEG 020100Z 17004KT 15SM FEW250 09/M03 A2994 RMK CI1 SLP163
CYEG;2004-10-02 02:00;METAR CYEG 020200Z 18007KT 15SM FEW250 07/M02 A2993 RMK CI1 SLP161
CYEG;2004-10-02 03:00;METAR CYEG 020300Z 18006KT 15SM BKN250 05/M02 A2992 RMK CI1 SLP165
CYEG;2004-10-02 04:00;METAR CYEG 020400Z 19007KT 15SM BKN250 04/M02 A2993 RMK CI1 SLP167
CYEG;2004-10-02 05:00;METAR CYEG 020500Z 18005KT 15SM SCT250 04/M02 A2994 RMK CI1 SLP170
CYEG;2004-10-02 06:00;METAR CYEG 020600Z 19003KT 15SM FEW250 M00/M04 A2995 RMK CI0 SLP167
CYEG;2004-10-02 07:00;METAR CYEG 020700Z 19004KT 15SM FEW250 02/M03 A2995 RMK CI0 SLP167
CYEG;2004-10-02 08:00;METAR CYEG 020800Z 19005KT 15SM FEW250 02/M03 A2995 RMK CI0 SLP168
CYEG;2004-10-02 09:00;METAR CYEG 020900Z 22004KT 15SM SKC M01/M04 A2996 RMK SLP166
CYEG;2004-10-02 10:00;METAR CYEG 021000Z 27003KT 15SM FEW250 03/M01 A2996 RMK CI0 SLP168
CYEG;2004-10-02 11:00;METAR CYEG 021100Z 27003KT 15SM FEW250 04/M00 A2997 RMK CI0 SLP170
CYEG;2004-10-02 12:00;METAR CYEG 021200Z 26007KT 15SM FEW250 04/00 A2997 RMK CI0 SLP166
CYEG;2004-10-02 13:00;METAR CYEG 021300Z 00000KT 15SM FEW250 03/M01 A2998 RMK CI0 SLP168
CYEG;2004-10-02 14:00;METAR CYEG 021400Z 25003KT 15SM FEW120 SCT250 04/M01 A2998 RMK AC1CI1 TR AC N SLP168 SLP168
CYEG;2004-10-02 15:00;METAR CYEG 021500Z 25004KT 15SM FEW120 BKN250 06/01 A2999 RMK AC1CI1 TR AC N SLP179 SLP179
CYEG;2004-10-02 16:00;METAR CYEG 021600Z 27007KT 15SM FEW120 BKN250 11/01 A3000 RMK AC1CI1 TR AC N SLP182 SLP182
CYEG;2004-10-02 17:00;METAR CYEG 021700Z 27009KT 15SM FEW120 BKN250 14/02 A3000 RMK AC1CI1 TR AC N SLP183 SLP183
CYEG;2004-10-02 18:00;METAR CYEG 021800Z 29011KT 15SM FEW120 BKN250 16/03 A2999 RMK AC1CI2 SLP174
CYEG;2004-10-02 19:00;METAR CYEG 021900Z 30013KT 15SM FEW120 OVC280 18/03 A2999 RMK AC1CI2 SLP175
CYEG;2004-10-02 20:00;METAR CYEG 022000Z 30010KT 15SM FEW120 OVC280 19/03 A2999 RMK AC1CI2 SLP173
CYEG;2004-10-02 21:00;METAR CYEG 022100Z 28015G22KT 15SM FEW065 FEW120 OVC280 19/03 A2999 RMK CU1AC1CI2 SLP174
CYEG;2004-10-02 22:00;METAR CYEG 022200Z 31011KT 15SM FEW065 FEW120 BKN280 20/04 A3000 RMK CU1AC1CI2 SLP176 SLP176
CYEG;2004-10-02 23:00;METAR CYEG 022300Z 32017KT 15SM FEW065 FEW120 BKN280 19/03 A3001 RMK CU1AC1CI1 SLP179
CYEG;2004-10-03 00:00;METAR CYEG 030000Z 36018KT 15SM FEW065 FEW120 BKN280 17/04 A3003 RMK SC1AC1CI1 SLP183 SLP183 SLP198
CYEG;2004-10-03 02:00;METAR CYEG 030200Z 36014KT 15SM SCT100 BKN140 BKN280 11/04 A3013 RMK AC2AC2CI0 SLP213 SLP213
CYEG;2004-10-03 03:00;METAR CYEG 030300Z 02013KT 15SM BKN100 BKN140 10/04 A3016 RMK AC5AC2 SLP233
CYEG;2004-10-03 04:00;METAR CYEG 030400Z 35010KT 15SM BKN110 OVC150 08/04 A3020 RMK AC5AC3 SLP246
CYEG;2004-10-03 05:00;METAR CYEG 030500Z 35008KT 15SM BKN120 OVC150 07/03 A3023 RMK AC6AC2 SLP256
CYEG;2004-10-03 06:00;METAR CYEG 030600Z 04010KT 15SM BKN015 OVC120 05/02 A3027 RMK SC6AC2 SLP265
CYEG;2004-10-03 07:00;METAR CYEG 030700Z 03008KT 15SM OVC014 04/01 A3028 RMK SC8 SLP270
CYEG;2004-10-03 08:00;METAR CYEG 030800Z 02006KT 15SM OVC014 04/01 A3030 RMK SC8 SLP276
CYEG;2004-10-03 09:00;METAR CYEG 030900Z 05004KT 15SM OVC017 04/00 A3031 RMK SC8 SLP280
CYEG;2004-10-03 10:00;METAR CYEG 031000Z 06008KT 15SM OVC017 03/M00 A3032 RMK SC8 SLP282
CYEG;2004-10-03 11:00;METAR CYEG 031100Z 05008KT 15SM OVC015 02/M01 A3033 RMK SC8 SLP284
CYEG;2004-10-03 12:00;METAR CYEG 031200Z 06006KT 15SM OVC013 02/M02 A3034 RMK SC8 SLP293
CYEG;2004-10-03 13:00;METAR CYEG 031300Z 07006KT 15SM OVC015 02/M03 A3035 RMK SC8 SLP296
CYEG;2004-10-03 14:00;METAR CYEG 031400Z 08004KT 15SM BKN017 02/M03 A3036 RMK SC7 SLP300
CYEG;2004-10-03 15:00;METAR CYEG 031500Z 11006KT 15SM OVC015 02/M03 A3037 RMK SC7 SLP308
CYEG;2004-10-03 16:00;METAR CYEG 031600Z 10005KT 15SM OVC016 02/M03 A3037 RMK SC7 SLP309
CYEG;2004-10-03 17:00;METAR CYEG 031700Z 14007KT 15SM FEW008 OVC015 02/M02 A3037 RMK SF1SC8 TR SF SLP309
CYEG;2004-10-03 18:00;METAR CYEG 031800Z 13007KT 15SM SCT013 BKN015 03/M02 A3037 RMK SC3SC4 SLP313
CYEG;2004-10-03 19:00;METAR CYEG 031900Z 13007KT 15SM FEW015 BKN021 04/M01 A3035 RMK SC2SC5 SLP307
CYEG;2004-10-03 21:00;METAR CYEG 032100Z 13010KT 15SM SCT023 OVC028 05/M01 A3031 RMK SC4SC4 SLP292
CYEG;2004-10-03 22:00;METAR CYEG 032200Z 14009KT 15SM OVC027 06/00 A3029 RMK SC8 SLP284
CYEG;2004-10-03 23:00;METAR CYEG 032300Z 13009KT 15SM OVC025 07/01 A3026 RMK SC8 SLP276
CYEG;2004-10-04 00:00;METAR CYEG 040000Z 13010KT 15SM OVC025 07/01 A3024 RMK SC8 SLP267
CYEG;2004-10-04 01:00;METAR CYEG 040100Z 14011KT 15SM OVC024 07/02 A3022 RMK SC7 SLP261
CYEG;2004-10-04 02:00;METAR CYEG 040200Z 16006KT 15SM SCT025 05/01 A3020 RMK SC2 SLP253
CYEG;2004-10-04 03:00;METAR CYEG 040300Z 17007KT 15SM FEW022 04/02 A3017 RMK SC1 SLP247
CYEG;2004-10-04 04:00;METAR CYEG 040400Z 16008KT 15SM FEW022 04/02 A3015 RMK SC1 SLP240
CYEG;2004-10-04 05:00;METAR CYEG 040500Z 17008KT 15SM SKC 04/02 A3012 RMK SLP229
CYEG;2004-10-04 06:00;METAR CYEG 040600Z 17009KT 15SM SKC 03/02 A3008 RMK SLP215
CYEG;2004-10-04 07:00;METAR CYEG 040700Z 17005KT 12SM SKC 02/01 A3006 RMK SLP208
CYEG;2004-10-04 08:00;METAR CYEG 040800Z 17005KT 10SM SKC 02/01 A3003 RMK SLP200
CYEG;2004-10-04 09:00;METAR CYEG 040900Z 15004KT 12SM SKC 01/00 A3001 RMK SLP188
CYEG;2004-10-04 10:00;METAR CYEG 041000Z 33002KT 12SM FEW250 M01/M01 A3000 RMK CI1 SLP186
CYEG;2004-10-04 11:00;METAR CYEG 041100Z 19003KT 4SM BR SCT250 M03/M04 A2999 RMK CI1 FROIN SLP183
CYEG;2004-10-04 12:00;METAR CYEG 041200Z 19007KT 6SM BR FEW001 BKN250 M01/M02 A2997 RMK ST1CI1 FROIN SLP178 SLP178
CYEG;2004-10-04 13:00;METAR CYEG 041300Z 19006KT 7SM FEW250 M01/M01 A2996 RMK CI1 BR FROIN SLP174
CYEG;2004-10-04 14:00;METAR CYEG 041400Z 19003KT 6SM BR FEW250 M01/M01 A2995 RMK CI1 FROIN SLP171
CYEG;2004-10-04 15:00;METAR CYEG 041500Z 00000KT 10SM FEW250 02/01 A2995 RMK CI1 BR TR CI SLP169
CYEG;2004-10-04 16:00;METAR CYEG 041600Z 25002KT 15SM FEW250 09/05 A2995 RMK CI1 SLP169
CYEG;2004-10-04 17:00;METAR CYEG 041700Z 25006KT 15SM FEW250 16/04 A2993 RMK CI0 SLP164
CYEG;2004-10-04 18:00;METAR CYEG 041800Z 26007KT 15SM FEW250 18/03 A2992 RMK CI0 SLP146
CYEG;2004-10-04 19:00;METAR CYEG 041900Z 27007KT 15SM FEW250 21/03 A2991 RMK CI1 SLP143
CYEG;2004-10-04 20:00;METAR CYEG 042000Z 26008KT 15SM BKN250 24/01 A2988 RMK CI2 SLP134
CYEG;2004-10-04 21:00;METAR CYEG 042100Z 27007KT 15SM BKN250 24/M01 A2987 RMK CI2 SLP125
CYEG;2004-10-04 22:00;METAR CYEG 042200Z 27008KT 15SM BKN250 24/00 A2985 RMK CI2 SLP120
CYEG;2004-10-04 23:00;METAR CYEG 042300Z 26004KT 15SM BKN250 21/01 A2985 RMK CI3 SLP120
CYEG;2004-10-05 00:00;METAR CYEG 050000Z 18002KT 15SM BKN250 16/02 A2984 RMK CI5 SLP123
CYEG;2004-10-05 01:00;METAR CYEG 050100Z 18006KT 15SM BKN250 14/02 A2982 RMK CI5 SLP118
CYEG;2004-10-05 02:00;METAR CYEG 050200Z 18003KT 15SM BKN250 11/01 A2982 RMK CI5 LCL D DUE HARVESTING OPS SW-W SLP117 OPS SW-W SLP117
CYEG;2004-10-05 03:00;METAR CYEG 050300Z 18004KT 15SM BKN250 07/00 A2982 RMK CI2 LCL D SE-S DUE HARVESTING OPS SLP122
CYEG;2004-10-05 04:00;METAR CYEG 050400Z 18004KT 15SM BKN250 07/M00 A2982 RMK CI2 SLP121
CYEG;2004-10-05 05:00;METAR CYEG 050500Z 00000KT 15SM BKN250 04/00 A2982 RMK CI4 SLP121
CYEG;2004-10-05 06:00;METAR CYEG 050600Z 00000KT 15SM BKN250 03/M01 A2982 RMK CI5 SLP109
CYEG;2004-10-05 07:00;METAR CYEG 050700Z 18004KT 15SM BKN300 03/M01 A2982 RMK CI2 SLP109
CYEG;2004-10-05 08:00;METAR CYEG 050800Z 19004KT 15SM BKN300 00/M03 A2983 RMK CI2 SLP113
CYEG;2004-10-05 09:00;METAR CYEG 050900Z 22003KT 15SM BKN300 03/M01 A2983 RMK CI2 SLP109
CYEG;2004-10-05 10:00;METAR CYEG 051000Z 00000KT 15SM BKN300 00/M02 A2984 RMK CI2 SLP113
CYEG;2004-10-05 11:00;METAR CYEG 051100Z 20002KT 15SM BKN300 M02/M04 A2985 RMK CI2 SLP116
CYEG;2004-10-05 12:00;METAR CYEG 051200Z 21003KT 15SM BKN300 M01/M02 A2985 RMK CI1 SLP125
CYEG;2004-10-05 13:00;METAR CYEG 051300Z 09002KT 15SM BKN300 M01/M03 A2984 RMK CI1 SLP123
CYEG;2004-10-05 14:00;METAR CYEG 051400Z 18004KT 15SM FEW240 BKN300 M02/M04 A2984 RMK CI1CI2 SLP123
CYEG;2004-10-05 15:00;METAR CYEG 051500Z 00000KT 15SM BKN270 05/02 A2984 RMK CI2 SLP125
CYEG;2004-10-05 16:00;METAR CYEG 051600Z 17003KT 15SM SCT270 10/03 A2983 RMK CI1 SLP123
CYEG;2004-10-05 17:00;METAR CYEG 051700Z 17005KT 15SM FEW270 15/03 A2981 RMK CI0 SLP117
CYEG;2004-10-05 18:00;METAR CYEG 051800Z 15007KT 15SM FEW270 19/02 A2980 RMK CI0 SLP103
CYEG;2004-10-05 19:00;METAR CYEG 051900Z 18007KT 15SM FEW270 21/02 A2978 RMK CI1 TR CI SLP098
CYEG;2004-10-05 21:00;METAR CYEG 052100Z 17012KT 15SM SKC 24/M01 A2973 RMK SLP076
CYEG;2004-10-05 22:00;METAR CYEG 052200Z 19012KT 15SM FEW240 24/M01 A2970 RMK CI1 TR CI SLP065
CYEG;2004-10-05 23:00;METAR CYEG 052300Z 21008KT 15SM FEW240 24/M03 A2968 RMK CI1 SLP058
CYEG;2004-10-06 00:00;METAR CYEG 060000Z 17005KT 15SM FEW240 22/M02 A2966 RMK CI1 SLP055
CYEG;2004-10-06 01:00;METAR CYEG 060100Z 15008KT 15SM FEW140 FEW240 14/M01 A2963 RMK AC1CI0 SLP045
CYEG;2004-10-06 02:00;METAR CYEG 060200Z 17005KT 15SM FEW140 FEW240 13/M02 A2961 RMK AC1CI0 SLP040
CYEG;2004-10-06 04:00;METAR CYEG 060400Z 18009KT 15SM FEW140 FEW240 09/M01 A2960 RMK AC1CI0 SLP042
CYEG;2004-10-06 05:00;METAR CYEG 060500Z 18008KT 15SM BKN250 07/M01 A2960 RMK CI1 SLP044
CYEG;2004-10-06 06:00;METAR CYEG 060600Z 18008KT 15SM FEW140 BKN190 BKN250 11/M01 A2960 RMK AC2AS2CI1 SLP028 SLP028
CYEG;2004-10-06 07:00;METAR CYEG 060700Z 18006KT 15SM SCT150 BKN230 10/M01 A2960 RMK AC2CI2 SLP027
CYEG;2004-10-06 08:00;METAR CYEG 060800Z 18009KT 15SM FEW130 FEW170 SCT230 08/M01 A2959 RMK AC1AC1CI1 TR LWR AC SLP026 TR LWR AC SLP026
CYEG;2004-10-06 09:00;METAR CYEG 060900Z 17006KT 15SM BKN270 06/M01 A2958 RMK CI1 SLP023
CYEG;2004-10-06 10:00;METAR CYEG 061000Z 19003KT 15SM BKN270 04/M01 A2958 RMK CI2 SLP021
CYEG;2004-10-06 11:00;METAR CYEG 061100Z 18005KT 15SM FEW190 BKN270 06/M01 A2958 RMK AC1CI2 TR AC SLP020
CYEG;2004-10-06 12:00;METAR CYEG 061200Z 19004KT 15SM FEW190 05/M01 A2957 RMK AC2 SLP019
CYEG;2004-10-06 13:00;METAR CYEG 061300Z 19004KT 15SM FEW190 BKN270 04/M01 A2956 RMK AC2CI1 SLP018
CYEG;2004-10-06 14:00;METAR CYEG 061400Z 07004KT 15SM FEW120 SCT180 BKN270 04/M00 A2958 RMK AC1AC2CI1 SLP025 SLP025
CYEG;2004-10-06 15:00;METAR CYEG 061500Z 02003KT 15SM FEW120 SCT160 BKN270 06/02 A2961 RMK AC1AC2CI2 TR LWR AC SLP047 LWR AC SLP047
CYEG;2004-10-06 16:00;METAR CYEG 061600Z 00000KT 15SM BKN120 BKN160 BKN270 11/04 A2964 RMK AC5AC1CI1 VIRGA N SLP055 VIRGA N SLP055
CYEG;2004-10-06 17:00;METAR CYEG 061700Z 30006KT 15SM BKN110 BKN160 12/03 A2967 RMK AC6AC1 VIRGA NE E-SE SLP066 E-SE SLP066 E QUADS SLP060
CYEG;2004-10-06 19:00;METAR CYEG 061900Z 02009KT 15SM BKN110 BKN270 14/04 A2969 RMK AC7CI1 VIRGA W N-E TR CI SLP062 TR CI SLP062
CYEG;2004-10-06 20:00;METAR CYEG 062000Z 02006KT 15SM BKN100 BKN270 14/04 A2967 RMK AC7CI1 VIRGA W N E QUADS TR CI SLP058 QUADS TR CI SLP058
CYEG;2004-10-06 21:00;METAR CYEG 062100Z 00000KT 15SM -SHRA BKN094 OVC270 12/07 A2968 RMK AC7CI1 SLP067
CYEG;2004-10-06 22:00;METAR CYEG 062200Z 23003KT 15SM -SHRA BKN071 BKN100 BKN160 12/08 A2970 RMK AC5AC2AC1 SLP071
CYEG;2004-10-06 23:00;METAR CYEG 062300Z 26002KT 15SM FEW050 SCT070 BKN120 BKN250 13/08 A2968 RMK SC1AC2AC3CI0 ACC ASOCTD SHRA NE SE SLP066
CYEG;2004-10-07 00:00;METAR CYEG 070000Z 19002KT 15SM FEW050 FEW070 SCT120 BKN250 12/08 A2968 RMK SC1ACC1AC2CI2 SLP067
CYEG;2004-10-07 01:00;METAR CYEG 070100Z 19004KT 15SM FEW050 SCT120 BKN170 BKN250 10/06 A2968 RMK SC2AC1AC1CI2 VIRGA S TCU EMBDD SLP066
CYEG;2004-10-07 02:00;METAR CYEG 070200Z 20003KT 15SM FEW050 FEW140 SCT240 05/04 A2969 RMK SC1AC1CI1 SLP070 SLP070
CYEG;2004-10-07 03:00;METAR CYEG 070300Z 20006KT 15SM FEW090 SCT130 07/04 A2970 RMK AC2AC1 SLP077
CYEG;2004-10-07 04:00;METAR CYEG 070400Z 17002KT 15SM FEW090 04/03 A2972 RMK AC1 SLP083
CYEG;2004-10-07 05:00;METAR CYEG 070500Z 18008KT 15SM SKC 05/03 A2971 RMK SLP082
CYEG;2004-10-07 06:00;METAR CYEG 070600Z 18006KT 15SM FEW150 02/01 A2973 RMK AC2 SLP086
CYEG;2004-10-07 07:00;METAR CYEG 070700Z 23006KT 15SM BKN150 05/03 A2973 RMK AC3 SLP087
CYEG;2004-10-07 08:00;METAR CYEG 070800Z 25007KT 15SM FEW150 BKN250 04/02 A2975 RMK AC2CI1 SLP093
CYEG;2004-10-07 09:00;METAR CYEG 070900Z 28006KT 15SM FEW150 SCT250 04/01 A2978 RMK AC1CI0 SLP102
CYEG;2004-10-07 10:00;METAR CYEG 071000Z 25005KT 15SM FEW150 SCT250 03/M01 A2979 RMK AC1CI0 SLP106
CYEG;2004-10-07 11:00;METAR CYEG 071100Z 19002KT 15SM FEW150 SCT250 02/M02 A2981 RMK AC1CI1 SLP111
CYEG;2004-10-07 12:00;METAR CYEG 071200Z 22004KT 15SM FEW150 SCT250 02/M02 A2982 RMK AC1CI0 SLP116
CYEG;2004-10-07 13:00;METAR CYEG 071300Z 23004KT 15SM FEW150 BKN250 02/M02 A2984 RMK AC2CI1 SLP123
CYEG;2004-10-07 14:00;METAR CYEG 071400Z 33002KT 15SM FEW090 FEW150 BKN240 01/M03 A2986 RMK ACC1AC1CI2 SLP129 SLP129
CYEG;2004-10-07 15:00;METAR CYEG 071500Z 19003KT 15SM FEW090 FEW160 BKN240 03/M01 A2990 RMK ACC1AC1CI2 VIRGA S SLP148 VIRGA S SLP148
CYEG;2004-10-07 16:00;METAR CYEG 071600Z 00000KT 15SM FEW090 FEW160 BKN250 06/02 A2991 RMK ACC1AC1CI2 VIRGA S QUAD SLP152 VIRGA S QUAD SLP152
CYEG;2004-10-07 17:00;METAR CYEG 071700Z 22005KT 15SM FEW030 FEW100 FEW160 SCT250 10/02 A2993 RMK CU1ACC1AC1CI1 TR CU VIRGA S-SE SLP158
CYEG;2004-10-07 18:00;METAR CYEG 071800Z 29006KT 15SM FEW040 FEW100 FEW160 12/02 A2994 RMK CU1ACC1AC1 VIRGA E-SE SLP160 VIRGA E-SE SLP160
CYEG;2004-10-07 19:00;METAR CYEG 071900Z 28008KT 15SM FEW055 FEW100 FEW150 SCT270 14/00 A2994 RMK CU1ACC1AC1CI0 VIRGA S-SE SLP159
CYEG;2004-10-07 20:00;METAR CYEG 072000Z 24008KT 15SM FEW060 SCT140 SCT270 15/00 A2994 RMK CU2AC1CI0 VIRGA N-E SLP158 VIRGA N-E SLP158
CYEG;2004-10-07 21:00;METAR CYEG 072100Z 29009KT 15SM FEW065 FEW140 SCT270 16/M01 A2994 RMK CU2AC1CI0 FEW TCU ASOCTD VIRGA W S SLP154 FEW TCU ASOCTD VIRGA W S SLP154
CYEG;2004-10-07 22:00;METAR CYEG 072200Z 29014KT 15SM FEW070 16/M02 A2994 RMK CU1 VIRGA SE SLP154
CYEG;2004-10-07 23:00;METAR CYEG 072300Z 30013KT 15SM FEW070 FEW270 16/M03 A2995 RMK CU1CI1 SLP155
CYEG;2004-10-08 00:00;METAR CYEG 080000Z 30006KT 15SM FEW070 FEW270 14/M04 A2996 RMK CU1CI0 TR CU SLP165
CYEG;2004-10-08 01:00;METAR CYEG 080100Z 00000KT 15SM FEW120 FEW250 08/M04 A2996 RMK AC1CI0
CYEG;2004-10-08 02:00;METAR CYEG 080200Z 19003KT 15SM FEW120 BKN250 02/M05 A2997 RMK AC1CI1 SLP168
CYEG;2004-10-08 03:00;METAR CYEG 080300Z 20006KT 15SM SCT250 03/M03 A2998 RMK CI1 SLP178
CYEG;2004-10-08 04:00;METAR CYEG 080400Z 18009KT 15SM FEW250 02/M04 A2998 RMK CI0 SLP179
CYEG;2004-10-08 05:00;METAR CYEG 080500Z 00000KT 15SM FEW250 02/M04 A2998 RMK CI0 SLP178
CYEG;2004-10-08 06:00;METAR CYEG 080600Z 18003KT 15SM FEW250 00/M04 A2998 RMK CI1 SLP174
CYEG;2004-10-08 07:00;METAR CYEG 080700Z 14004KT 15SM FEW250 01/M03 A2998 RMK CI0 SLP173
CYEG;2004-10-08 08:00;METAR CYEG 080800Z 14007KT 15SM SCT240 02/M02 A2996 RMK CI1 SLP166
CYEG;2004-10-08 09:00;METAR CYEG 080900Z 13005KT 15SM SCT240 01/M02 A2995 RMK CI0 SLP159
CYEG;2004-10-08 10:00;METAR CYEG 081000Z 13008KT 15SM SCT240 01/M02 A2993 RMK CI0 SLP152
CYEG;2004-10-08 11:00;METAR CYEG 081100Z 13008KT 15SM BKN250 M00/M02 A2991 RMK CI1 SLP147
CYEG;2004-10-08 12:00;METAR CYEG 081200Z 14007KT 15SM BKN250 00/M02 A2989 RMK CI3 SLP143
CYEG;2004-10-08 13:00;METAR CYEG 081300Z 14009KT 15SM FEW180 BKN250 02/M01 A2986 RMK AC1CI3 SLP133
CYEG;2004-10-08 14:00;METAR CYEG 081400Z 14008KT 15SM BKN180 BKN250 02/M02 A2984 RMK AC2CI1 SLP126
CYEG;2004-10-08 15:00;METAR CYEG 081500Z 14006KT 15SM BKN180 BKN250 04/M01 A2983 RMK AC3CI2 SLP125
CYEG;2004-10-08 16:00;METAR CYEG 081600Z 15007KT 15SM SCT180 OVC250 05/M01 A2981 RMK AC3CI2 SLP121
CYEG;2004-10-08 17:00;METAR CYEG 081700Z 15005KT 15SM FEW180 OVC250 08/00 A2979 RMK AC2CI2 SLP113
CYEG;2004-10-08 18:00;METAR CYEG 081800Z 16009KT 15SM FEW180 OVC250 10/00 A2977 RMK AC2CI2 SLP101
CYEG;2004-10-08 19:00;METAR CYEG 081900Z 16010KT 15SM SCT180 BKN250 12/01 A2975 RMK AC3CI2 SLP095
CYEG;2004-10-08 20:00;METAR CYEG 082000Z 13012KT 15SM SCT180 OVC250 15/02 A2970 RMK AC3CI2 SLP082
CYEG;2004-10-08 21:00;METAR CYEG 082100Z 15011KT 15SM FEW180 OVC250 16/02 A2969 RMK AC2CI2 SLP068
CYEG;2004-10-08 22:00;METAR CYEG 082200Z 13009KT 15SM FEW180 BKN250 17/02 A2965 RMK AC2CI2 SLP058
CYEG;2004-10-08 23:00;METAR CYEG 082300Z 13007KT 15SM FEW180 BKN250 17/02 A2964 RMK AC2CI1 SLP053
CYEG;2004-10-09 00:00;METAR CYEG 090000Z 10010KT 15SM SCT180 OVC250 14/02 A2961 RMK AC4CI2 SLP046
CYEG;2004-10-09 01:00;METAR CYEG 090100Z 11008KT 15SM BKN180 OVC250 13/02 A2959 RMK AC4CI2 SLP039
CYEG;2004-10-09 02:00;METAR CYEG 090200Z 12007KT 15SM BKN170 BKN250 12/02 A2957 RMK AC6CI2 SLP033
CYEG;2004-10-09 03:00;METAR CYEG 090300Z 14008KT 15SM OVC170 11/03 A2955 RMK AC8 SLP022
CYEG;2004-10-09 04:00;METAR CYEG 090400Z 16006KT 15SM BKN170 OVC210 16/03 A2952 RMK AC7CI1 SLP014
CYEG;2004-10-09 05:00;METAR CYEG 090500Z 19010KT 15SM OVC180 16/04 A2950 RMK AC8 SLP008
CYEG;2004-10-09 06:00;METAR CYEG 090600Z 18006KT 15SM OVC170 15/04 A2949 RMK AC8 SLP992
CYEG;2004-10-09 07:00;METAR CYEG 090700Z 17007KT 15SM OVC150 13/04 A2948 RMK AC8 SLP991
CYEG;2004-10-09 08:00;METAR CYEG 090800Z 16006KT 15SM OVC150 14/04 A2947 RMK AC8 SLP988
CYEG;2004-10-09 09:00;METAR CYEG 090900Z 08004KT 15SM BKN130 OVC210 10/04 A2946 RMK AC7CI1 SLP984
CYEG;2004-10-09 10:00;METAR CYEG 091000Z 06002KT 15SM SCT130 OVC210 08/04 A2946 RMK AC4CI4
CYEG;2004-10-09 11:00;METAR CYEG 091100Z 35003KT 15SM SCT150 OVC210 07/04 A2948 RMK AC4CI4 SLP988
CYEG;2004-10-09 12:00;METAR CYEG 091200Z 30006KT 15SM BKN130 OVC210 09/04 A2950 RMK AC7CI1 SLP998
CYEG;2004-10-09 13:00;METAR CYEG 091300Z 33008KT 15SM BKN120 OVC210 09/03 A2952 RMK AC6CI2 SLP007
CYEG;2004-10-09 14:00;METAR CYEG 091400Z 32009KT 15SM SCT120 OVC240 08/03 A2954 RMK AC4CI1 SLP013
CYEG;2004-10-09 15:00;METAR CYEG 091500Z 31009KT 15SM BKN110 OVC240 08/03 A2955 RMK AC5CI2 VIRGA W SLP020 SLP020
CYEG;2004-10-09 16:00;METAR CYEG 091600Z 29014KT 15SM BKN100 BKN240 09/04 A2959 RMK AC5CI2 VIRGA NW SLP033
CYEG;2004-10-09 17:00;METAR CYEG 091700Z 30013G18KT 15SM SCT100 OVC240 09/04 A2962 RMK AC2CI6 VIRGA N SLP042 SLP042 RMK SC1AC2AC4CI1 VIRGA N SLP040 SC1AC2AC4CI1 SLP040
CYEG;2004-10-09 19:00;METAR CYEG 091900Z 30009KT 15SM FEW030 BKN064 BKN110 09/05 A2965 RMK SC1SC5AC2 VIRGA SLP050 VIRGA SLP050
CYEG;2004-10-09 20:00;METAR CYEG 092000Z 29007KT 15SM FEW060 BKN079 BKN110 09/05 A2967 RMK SC1AC5AC2 VIRGA S SLP054 VIRGA S SLP054
CYEG;2004-10-09 21:00;METAR CYEG 092100Z 28008KT 15SM BKN090 BKN110 09/06 A2967 RMK AC6AC1 VIRGA S SLP061 SLP061
CYEG;2004-10-09 22:00;METAR CYEG 092200Z 26013KT 15SM -SHRA BKN080 BKN110 10/06 A2970 RMK AC6AC1 SLP071
CYEG;2004-10-09 23:00;METAR CYEG 092300Z 26007KT 15SM BKN074 BKN110 10/06 A2970 RMK AC6AC1 VIRGA SLP072
CYEG;2004-10-10 00:00;METAR CYEG 100000Z 26011KT 15SM BKN080 BKN110 10/06 A2972 RMK AC5AC2 VIRGA SLP080
CYEG;2004-10-10 01:00;METAR CYEG 100100Z 25008KT 15SM SCT080 BKN130 09/05 A2975 RMK ACC3AC4 VIRGA SLP089
CYEG;2004-10-10 02:00;METAR CYEG 100200Z 24007KT 15SM FEW080 SCT120 BKN180 07/04 A2978 RMK ACC2AC2AC3 SLP097 SLP097
CYEG;2004-10-10 03:00;METAR CYEG 100300Z 25009KT 15SM BKN180 OVC240 07/04 A2980 RMK AC6CI2 SLP108
CYEG;2004-10-10 04:00;METAR CYEG 100400Z 23006KT 15SM FEW180 BKN220 05/03 A2981 RMK AC2CI3 SLP112
CYEG;2004-10-10 05:00;METAR CYEG 100500Z 18005KT 15SM FEW180 03/02 A2982 RMK AC2 SLP115
CYEG;2004-10-10 06:00;METAR CYEG 100600Z 19005KT 15SM FEW180 02/01 A2983 RMK AC1 SLP125
CYEG;2004-10-10 08:00;METAR CYEG 100800Z 21002KT 15SM SCT100 03/01 A2987 RMK AC2 SLP136
CYEG;2004-10-10 09:00;METAR CYEG 100900Z 21004KT 15SM SCT091 BKN120 02/01 A2989 RMK AC3AC2 SLP143
CYEG;2004-10-10 10:00;METAR CYEG 101000Z 18004KT 15SM BKN088 BKN120 04/02 A2990 RMK AC5AC2 SLP146
CYEG;2004-10-10 11:00;METAR CYEG 101100Z 24007KT 15SM FEW090 BKN140 03/01 A2991 RMK AC1AC4 SLP151
CYEG;2004-10-10 12:00;METAR CYEG 101200Z 24004KT 15SM SCT110 04/01 A2993 RMK AC3 SLP156
CYEG;2004-10-10 13:00;METAR CYEG 101300Z 25003KT 15SM FEW095 SCT110 03/00 A2995 RMK AC1AC3 VIRGA SLP163
CYEG;2004-10-10 14:00;METAR CYEG 101400Z 22004KT 15SM FEW095 BKN120 04/00 A2996 RMK ACC1AC3 VIRGA SLP167
CYEG;2004-10-10 15:00;METAR CYEG 101500Z 21004KT 15SM FEW088 BKN120 06/02 A2999 RMK ACC2AC4 VIRGA SW + N SLP178 N SLP178
CYEG;2004-10-10 16:00;METAR CYEG 101600Z 23004KT 15SM FEW088 BKN120 09/03 A3001 RMK ACC2AC2 VIRGA SLP183
CYEG;2004-10-10 17:00;METAR CYEG 101700Z 26007KT 15SM FEW088 SCT120 14/02 A3002 RMK AC1AC1 SLP185
CYEG;2004-10-10 18:00;METAR CYEG 101800Z 28005KT 15SM SCT100 SCT250 15/00 A3001 RMK AC2CI1 ACC ASOCTD SLP180 SLP180
CYEG;2004-10-10 19:00;METAR CYEG 101900Z 27006KT 15SM FEW100 SCT250 16/M01 A3001 RMK ACC1CI1
CYEG;2004-10-10 20:00;METAR CYEG 102000Z 24010KT 15SM FEW070 FEW100 SCT250 16/M02 A3000 RMK CU1AC1CI1 TR CU SLP177 TR CU SLP177
CYEG;2004-10-10 21:00;METAR CYEG 102100Z 25007KT 15SM FEW076 FEW100 FEW250 18/M01 A2999 RMK CU1AC1CI1 TR CU SLP172 TR CU SLP172
CYEG;2004-10-10 22:00;METAR CYEG 102200Z 23006KT 15SM FEW076 SCT250 18/M02 A2998 RMK CU2CI1 SLP169
CYEG;2004-10-10 23:00;METAR CYEG 102300Z 22006KT 15SM FEW080 SCT250 17/M02 A2998 RMK CU2CI0 SLP168
CYEG;2004-10-11 00:00;METAR CYEG 110000Z 22005KT 15SM FEW080 BKN250 16/M02 A2997 RMK AC1CI1 SLP164
CYEG;2004-10-11 01:00;METAR CYEG 110100Z 16005KT 15SM FEW250 11/M03 A2996 RMK CI2 SLP162
CYEG;2004-10-11 02:00;METAR CYEG 110200Z 16007KT 15SM FEW080 FEW250 12/M03 A2996 RMK AC1CI1 TR AC SLP162
CYEG;2004-10-11 03:00;METAR CYEG 110300Z 18010KT 15SM FEW250 06/M02 A2996 RMK CI1 SLP167
CYEG;2004-10-11 04:00;METAR CYEG 110400Z 17010KT 15SM BKN210 08/M02 A2995 RMK CI3 SLP164
CYEG;2004-10-11 05:00;METAR CYEG 110500Z 18008KT 15SM BKN160 OVC210 09/M01 A2993 RMK AS5CI2 VIRGA SLP159
CYEG;2004-10-11 07:00;METAR CYEG 110700Z 18005KT 15SM BKN130 OVC220 08/M00 A2994 RMK AS6CI1 VIRGA SLP151
CYEG;2004-10-11 08:00;METAR CYEG 110800Z 19006KT 15SM BKN130 OVC220 08/M00 A2994 RMK AS6CI2 VIRGA
CYEG;2004-10-11 09:00;METAR CYEG 110900Z 19006KT 15SM FEW100 BKN140 BKN210 06/M00 A2994 RMK AC2AC2CI2 SLP150
CYEG;2004-10-11 10:00;METAR CYEG 111000Z 18008KT 15SM FEW100 BKN160 BKN210 06/M00 A2992 RMK AC1AC2CI2 SLP145 SLP145
CYEG;2004-10-11 11:00;METAR CYEG 111100Z 18007KT 15SM FEW100 SCT160 BKN240 05/M01 A2992 RMK AC2AC1CI2 SLP144 SLP144
CYEG;2004-10-11 12:00;METAR CYEG 111200Z 18007KT 15SM FEW110 BKN240 03/M01 A2992 RMK AC2CI2 SLP148
CYEG;2004-10-11 13:00;METAR CYEG 111300Z 18007KT 15SM FEW110 BKN240 03/M01 A2992 RMK AC2CI2 SLP149
CYEG;2004-10-11 14:00;METAR CYEG 111400Z 17004KT 15SM BKN120 BKN240 04/M00 A2994 RMK AC6CI1 FEW ACC ASOCTD DIST W SLP153 ASOCTD DIST W SLP153
CYEG;2004-10-11 15:00;METAR CYEG 111500Z 18004KT 15SM FEW090 BKN120 BKN240 06/01 A2994 RMK AC1AC4CI1 SLP160 SLP160
CYEG;2004-10-11 16:00;METAR CYEG 111600Z 21004KT 15SM BKN100 BKN240 09/02 A2996 RMK AC4CI2 SLP167
CYEG;2004-10-11 17:00;METAR CYEG 111700Z 26007KT 15SM BKN090 BKN250 15/03 A2996 RMK AC5CI2 SLP166
CYEG;2004-10-11 18:00;METAR CYEG 111800Z 30008KT 15SM BKN100 BKN250 17/02 A2995 RMK AC4CI1 SLP153
CYEG;2004-10-11 19:00;METAR CYEG 111900Z 30008KT 15SM FEW100 BKN270 17/02 A2996 RMK AC2CS2 HALO SLP154
CYEG;2004-10-11 20:00;METAR CYEG 112000Z 29006KT 15SM FEW060 FEW100 SCT220 BKN270 17/02 A2995 RMK CU1AC1CS2CI4 TR CU SLP152
CYEG;2004-10-11 21:00;METAR CYEG 112100Z 26006KT 15SM FEW070 FEW100 BKN170 OVC270 17/02 A2994 RMK CU1AC1AS2CI5 SLP151
CYEG;2004-10-11 22:00;METAR CYEG 112200Z 33004KT 15SM BKN100 BKN170 OVC250 16/04 A2994 RMK AC5AS2CI1 SLP150
CYEG;2004-10-11 23:00;METAR CYEG 112300Z 02002KT 15SM BKN095 BKN170 OVC250 16/03 A2992 RMK AC6AS1CI1 SLP146 SLP146
CYEG;2004-10-12 00:00;METAR CYEG 120000Z 05003KT 15SM BKN090 BKN150 OVC250 14/03 A2992 RMK AC6AS1CI1 SLP149 SLP149
CYEG;2004-10-12 01:00;METAR CYEG 120100Z 07006KT 15SM BKN087 BKN150 OVC250 13/04 A2991 RMK AC6AS1CI1 SLP147 SLP147
CYEG;2004-10-12 02:00;METAR CYEG 120200Z 10006KT 15SM FEW085 BKN100 11/04 A2991 RMK AC2AC5 SLP146
CYEG;2004-10-12 03:00;METAR CYEG 120300Z 12003KT 15SM BKN088 OVC250 11/04 A2991 RMK AC6CI1 SLP148
CYEG;2004-10-12 04:00;METAR CYEG 120400Z 32006KT 15SM OVC078 09/04 A2993 RMK AC8 SLP152
CYEG;2004-10-12 05:00;METAR CYEG 120500Z 02002KT 15SM FEW070 BKN095 BKN250 08/03 A2993 RMK AC2AC3CI1 SLP153 SLP153
CYEG;2004-10-12 06:00;METAR CYEG 120600Z 09004KT 15SM SCT072 BKN095 BKN250 05/02 A2993 RMK AC3AC2CI1 SLP148
CYEG;2004-10-12 07:00;METAR CYEG 120700Z 26004KT 15SM FEW064 BKN086 BKN250 06/03 A2994 RMK SC2AC3CI0 VIRGA SLP152 VIRGA SLP152
CYEG;2004-10-12 08:00;METAR CYEG 120800Z 35011KT 15SM -SHRA BKN064 OVC085 08/06 A3000 RMK SC6AC2 PRESRR SLP170 SLP170
CYEG;2004-10-12 09:00;METAR CYEG 120900Z 03007KT 15SM -SHRA BKN055 OVC080 08/07 A3003 RMK SC5AC3 SLP180
CYEG;2004-10-12 10:00;METAR CYEG 121000Z 29002KT 15SM -SHRA BKN058 07/07 A3004 RMK SC6 SLP184
CYEG;2004-10-12 11:00;METAR CYEG 121100Z 27004KT 4SM -SHRA BR SCT007 OVC033 07/07 A3007 RMK SF3SC5 SLP193 SLP193
CYEG;2004-10-12 12:00;METAR CYEG 121200Z 28005KT 15SM SCT009 OVC016 07/07 A3010 RMK SF4SC4 SLP207
CYEG;2004-10-12 13:00;METAR CYEG 121300Z CCA 33007KT 15SM -SHRA BKN006 OVC028 08/08 A3014 RMK SF6SC2 SLP219
CYEG;2004-10-12 14:00;METAR CYEG 121400Z 32004KT 15SM FEW004 BKN025 BKN040 07/07 A3018 RMK CF2SC3SC2 SH/LO CLD E-SE-S SLP232 SH/LO CLD E-SE-S SLP232
CYEG;2004-10-12 15:00;METAR CYEG 121500Z 32006KT 15SM -SHRA FEW005 BKN017 BKN048 07/07 A3021 RMK CF2SC3SC2 HVIER SH/VIS LWR SE-S SLP250
CYEG;2004-10-12 16:00;METAR CYEG 121600Z 33008KT 15SM FEW008 SCT030 BKN060 08/07 A3025 RMK CF2SC1SC1 SLP260 SLP260
CYEG;2004-10-12 17:00;METAR CYEG 121700Z 34012KT 15SM BKN014 BKN063 09/07 A3028 RMK SC5SC1 CU ASOCTD SLP270 SLP270
CYEG;2004-10-12 18:00;METAR CYEG 121800Z 34012KT 15SM FEW016 FEW060 FEW240 10/06 A3031 RMK CU2SC1CI1 TR CI SLP284 CI SLP284
CYEG;2004-10-12 19:00;METAR CYEG 121900Z 33009G15KT 15SM FEW025 FEW060 10/05 A3033 RMK CU2SC1 SLP290
CYEG;2004-10-12 20:00;METAR CYEG 122000Z 31010KT 15SM SCT033 12/06 A3034 RMK CU3 SLP293
CYEG;2004-10-12 21:00;METAR CYEG 122100Z 36009KT 15SM SCT035 13/04 A3035 RMK CU3 SLP294
CYEG;2004-10-12 22:00;METAR CYEG 122200Z 34011KT 15SM FEW035 FEW250 11/02 A3037 RMK CU1CI1 SLP300
CYEG;2004-10-12 23:00;METAR CYEG 122300Z 34009KT 15SM FEW035 BKN250 11/01 A3038 RMK CU1CI1 SLP305
CYEG;2004-10-13 00:00;METAR CYEG 130000Z 36005KT 15SM FEW035 BKN250 09/01 A3038 RMK SC1CI1 SLP309
CYEG;2004-10-13 01:00;METAR CYEG 130100Z 05003KT 15SM FEW220 BKN280 08/00 A3037 RMK CI1CI1 SLP305
CYEG;2004-10-13 02:00;METAR CYEG 130200Z 15002KT 15SM FEW250 02/M02 A3038 RMK CI1 SLP308
CYEG;2004-10-13 03:00;METAR CYEG 130300Z 00000KT 15SM SCT230 00/M02 A3038 RMK CI2 SLP317
CYEG;2004-10-13 04:00;METAR CYEG 130400Z 16004KT 15SM SCT230 M01/M03 A3037 RMK CI2 SLP314
CYEG;2004-10-13 05:00;METAR CYEG 130500Z 17007KT 15SM BKN230 01/M02 A3037 RMK CI2 SLP312
CYEG;2004-10-13 06:00;METAR CYEG 130600Z 17008KT 15SM BKN210 02/M01 A3035 RMK CI3 SLP304
CYEG;2004-10-13 07:00;METAR CYEG 130700Z 16008KT 15SM FEW180 BKN210 03/M00 A3033 RMK AC1CI2 SLP297
CYEG;2004-10-13 08:00;METAR CYEG 130800Z 17010KT 15SM SCT160 BKN210 04/00 A3030 RMK AC3CI2 SLP288
CYEG;2004-10-13 09:00;METAR CYEG 130900Z 18006KT 15SM SCT160 BKN210 03/M00 A3028 RMK AC3CI2 SLP275
CYEG;2004-10-13 10:00;METAR CYEG 131000Z 17011KT 15SM BKN120 OVC210 04/01 A3024 RMK AC5CI2 SLP261
CYEG;2004-10-13 11:00;METAR CYEG 131100Z 18011KT 15SM OVC090 05/02 A3021 RMK AC8 SLP252
CYEG;2004-10-13 12:00;METAR CYEG 131200Z 18012KT 15SM OVC080 06/03 A3016 RMK AC8 VIRGA SLP233
CYEG;2004-10-13 13:00;METAR CYEG 131300Z 19009KT 15SM -SHRA OVC062 07/04 A3012 RMK SC8 SLP221
CYEG;2004-10-13 14:00;METAR CYEG 131400Z 17007KT 15SM -SHRA BKN048 BKN075 OVC160 07/05 A3009 RMK SC6AC1AS1 ACC EMBD SLP211
CYEG;2004-10-13 15:00;METAR CYEG 131500Z 18009KT 15SM -SHRA BKN057 BKN080 BKN160 07/06 A3005 RMK SC6AC1AS1 ACC EMBD SLP204
CYEG;2004-10-13 16:00;METAR CYEG 131600Z 19010KT 15SM FEW055 BKN074 BKN150 BKN230 08/07 A3002 RMK SC2AC4AS1CI1 SH E-SE VIRGA W SLP194
CYEG;2004-10-13 17:00;METAR CYEG 131700Z 20007KT 15SM FEW075 BKN160 BKN230 11/07 A2999 RMK AC2AC2CI2 SLP185 SLP185
CYEG;2004-10-13 18:00;METAR CYEG 131800Z 22006KT 15SM FEW075 BKN130 BKN180 OVC230 14/09 A2997 RMK AC1AC2AC1CI2 SLP167
CYEG;2004-10-13 19:00;METAR CYEG 131900Z 29010KT 15SM FEW075 BKN090 BKN150 OVC230 18/10 A2995 RMK AC1AC4AC1CI2 WSHFT GRDL SLP161
CYEG;2004-10-13 20:00;METAR CYEG 132000Z 28007KT 15SM FEW075 SCT090 BKN150 OVC230 19/10 A2992 RMK AC1AC2AC2CI2 SLP150
CYEG;2004-10-13 21:00;METAR CYEG 132100Z 31009KT 15SM FEW062 FEW090 BKN180 OVC230 21/10 A2991 RMK CU2AC1AC2CI1 SLP142
CYEG;2004-10-13 22:00;METAR CYEG 132200Z 31017KT 15SM FEW062 FEW130 BKN170 OVC230 21/10 A2989 RMK CU2AC1AC2CI2 SLP136
CYEG;2004-10-13 23:00;METAR CYEG 132300Z 31010G15KT 15SM FEW062 BKN120 BKN170 OVC230 20/10 A2988 RMK CU1AC4AC2CI1 SLP131 CU1AC4AC2CI1 SLP131
CYEG;2004-10-14 00:00;METAR CYEG 140000Z 28006KT 15SM FEW062 FEW120 BKN190 OVC250 19/10 A2986 RMK SC1AC2AC2CI1 SLP122
CYEG;2004-10-14 01:00;METAR CYEG 140100Z 29012KT 15SM SCT063 BKN150 BKN190 BKN250 19/09 A2984 RMK SC3AC1AC2CI1 SLP114
CYEG;2004-10-14 02:00;METAR CYEG 140200Z 29015G22KT 15SM BKN070 BKN150 BKN200 20/09 A2983 RMK AC5AC1CI0 SLP111 SLP111
CYEG;2004-10-14 03:00;METAR CYEG 140300Z 28015KT 15SM FEW070 SCT150 SCT200 18/09 A2981 RMK AC1AC2CI0 SLP104 SLP104
CYEG;2004-10-14 04:00;METAR CYEG 140400Z 29018G28KT 15SM FEW070 SCT150 SCT200 18/08 A2982 RMK AC1AC2CI0 SLP106 SLP106
CYEG;2004-10-14 05:00;METAR CYEG 140500Z 29014G19KT 15SM FEW150 SCT200 17/09 A2983 RMK AC2CI0 SLP112
CYEG;2004-10-14 06:00;METAR CYEG 140600Z 31013KT 15SM FEW150 BKN200 15/08 A2986 RMK AC2CI2 SLP118
CYEG;2004-10-14 07:00;METAR CYEG 140700Z 31015KT 15SM SCT170 BKN250 16/06 A2989 RMK AC2CI1 G24 PST HR SLP128 SLP128
CYEG;2004-10-14 08:00;METAR CYEG 140800Z 30011G16KT 15SM FEW170 SCT250 15/05 A2991 RMK AC2CI1 SLP132
CYEG;2004-10-14 09:00;METAR CYEG 140900Z 31009KT 15SM SCT170 BKN250 14/05 A2993 RMK AC3CI1 SLP137
CYEG;2004-10-14 10:00;METAR CYEG 141000Z 31011KT 15SM FEW120 BKN170 OVC250 14/05 A2995 RMK AC1AC4CI2 SLP142 SLP142
CYEG;2004-10-14 11:00;METAR CYEG 141100Z 34011G16KT 15SM FEW055 BKN170 13/00 A2996 RMK SC2AC3 SLP148
CYEG;2004-10-14 12:00;METAR CYEG 141200Z 32005KT 15SM FEW055 SCT170 BKN250 09/M02 A2998 RMK SC2AC2CI0 SLP160 SLP160
CYEG;2004-10-14 13:00;METAR CYEG 141300Z 31002KT 15SM FEW055 SCT170 BKN200 06/M02 A2999 RMK SC2AC2CI0 SLP162 SLP162
CYEG;2004-10-14 14:00;METAR CYEG 141400Z 29006KT 15SM FEW055 BKN180 BKN230 09/M00 A2999 RMK SC1AC5CI0 TR SC SLP163 TR SC SLP163
CYEG;2004-10-14 15:00;METAR CYEG 141500Z 31006KT 15SM BKN180 BKN240 09/01 A3000 RMK AC5CI1 SLP169
CYEG;2004-10-14 16:00;METAR CYEG 141600Z 31006KT 15SM FEW130 BKN180 BKN230 10/02 A3001 RMK AC2AS4CI1 SLP172 SLP172
CYEG;2004-10-14 17:00;METAR CYEG 141700Z 31007KT 15SM FEW110 BKN150 BKN230 11/M01 A3001 RMK AC2AS4CI2 SLP170 SLP170
CYEG;2004-10-14 18:00;METAR CYEG 141800Z 32011KT 15SM SCT085 BKN140 BKN230 12/M01 A3002 RMK AC2AS4CI1 SLP174 SLP174
CYEG;2004-10-14 19:00;METAR CYEG 141900Z 32011G16KT 15SM FEW085 BKN110 BKN230 12/M02 A3001 RMK AC2AS4CI1 SLP171
CYEG;2004-10-14 21:00;METAR CYEG 142100Z 29010G15KT 15SM FEW055 BKN090 BKN230 12/M01 A2998 RMK CU1AC5CI1 TR CU SLP162
CYEG;2004-10-14 22:00;METAR CYEG 142200Z 29010KT 15SM FEW055 BKN095 12/M02 A2997 RMK CU1AC5 SLP159
CYEG;2004-10-14 23:00;METAR CYEG 142300Z 30011KT 15SM FEW055 BKN095 BKN150 12/M02 A2997 RMK CU1AC4AC1 VIRGA W+N SLP158 VIRGA W+N SLP158
CYEG;2004-10-15 00:00;METAR CYEG 150000Z 30005KT 15SM FEW055 SCT095 10/M02 A2996 RMK SC1AC2 VIRGA NW-N SLP162 SLP162
CYEG;2004-10-15 01:00;METAR CYEG 150100Z 32004KT 15SM FEW070 SCT120 07/M02 A2995 RMK AC1AS1 VIRGA W-NW SLP158 SLP158
CYEG;2004-10-15 02:00;METAR CYEG 150200Z 35007KT 15SM SCT070 BKN120 08/M01 A2997 RMK AC3AC3 VIRGA N SLP164 SLP164
CYEG;2004-10-15 03:00;METAR CYEG 150300Z 31005KT 15SM FEW070 BKN120 08/M02 A2998 RMK AC2AC2 SLP169
CYEG;2004-10-15 04:00;METAR CYEG 150400Z 33007KT 15SM FEW070 BKN110 08/M02 A3000 RMK AC2AC6 SLP175
CYEG;2004-10-15 05:00;METAR CYEG 150500Z 32009KT 15SM FEW090 OVC110 07/M02 A3002 RMK AC2AC6 SLP183
CYEG;2004-10-15 06:00;METAR CYEG 150600Z 36007KT 15SM SCT090 OVC150 06/M02 A3004 RMK AC3AC5 SLP191
CYEG;2004-10-15 07:00;METAR CYEG 150700Z 01004KT 15SM SCT090 OVC150 03/M01 A3005 RMK AC3AC5 SLP193
CYEG;2004-10-15 08:00;METAR CYEG 150800Z 27003KT 15SM SCT070 BKN150 00/M02 A3006 RMK AC3AC2 SLP197
CYEG;2004-10-15 09:00;METAR CYEG 150900Z 07003KT 15SM BKN053 BKN080 02/M00 A3005 RMK SC5AC2 SLP198
CYEG;2004-10-15 12:00;METAR CYEG 151200Z 00000KT 15SM SCT045 BKN070 M02/M03 A3005 RMK SC3AC2 SLP202
CYEG;2004-10-15 13:00;METAR CYEG 151300Z 16002KT 15SM FEW045 FEW070 M05/M05 A3003 RMK SC1AC2 FROIN SLP197 W QUAD FROIN TR CI SLP193
CYEG;2004-10-15 15:00;METAR CYEG 151500Z 19002KT 15SM FEW070 SCT250 M04/M05 A3001 RMK AC1CI1 TR AC SLP193
CYEG;2004-10-15 16:00;METAR CYEG 151600Z 13006KT 15SM FEW080 BKN250 02/01 A3000 RMK AC1CI2 TR AC SLP188
CYEG;2004-10-15 17:00;METAR CYEG 151700Z 12008KT 15SM FEW050 FEW090 BKN250 04/00 A2997 RMK SC1AC1CI3 TR SC AC SLP181 SC AC SLP181
CYEG;2004-10-15 18:00;METAR CYEG 151800Z 15008KT 15SM FEW020 OVC240 05/00 A2995 RMK CU1CS4 TR CU SLP166
CYEG;2004-10-15 19:00;METAR CYEG 151900Z 13008KT 15SM FEW025 FEW180 OVC240 06/00 A2992 RMK CU1AS1CS3 SLP157 SLP157
CYEG;2004-10-15 20:00;METAR CYEG 152000Z 14010KT 15SM FEW030 SCT170 OVC240 07/00 A2989 RMK CU1AS2CS4 SLP147 SLP147
CYEG;2004-10-15 21:00;METAR CYEG 152100Z 15009KT 15SM FEW030 SCT140 OVC240 07/00 A2985 RMK CU2AS2CS4 SLP133 SLP133
CYEG;2004-10-15 22:00;METAR CYEG 152200Z 14011G16KT 15SM FEW030 SCT097 OVC240 07/00 A2982 RMK CU1AS3CS3 SLP122 SLP122
CYEG;2004-10-16 00:00;METAR CYEG 160000Z 15009KT 15SM FEW030 BKN130 OVC220 07/M01 A2976 RMK SC1AS4CS3 SLP104 SLP104
CYEG;2004-10-16 01:00;METAR CYEG 160100Z 13006KT 15SM BKN038 OVC130 06/00 A2974 RMK SC5AS3 SLP100
CYEG;2004-10-16 02:00;METAR CYEG 160200Z 10011KT 12SM -SHRA OVC029 05/01 A2972 RMK SC8 SLP092
CYEG;2004-10-16 03:00;METAR CYEG 160300Z 11013KT 15SM -SHRA BKN028 OVC045 04/01 A2969 RMK SC5SC3 SLP084
CYEG;2004-10-16 04:00;METAR CYEG 160400Z 11012G17KT 15SM -SHRA OVC034 04/01 A2966 RMK SC8 SLP077
CYEG;2004-10-16 05:00;METAR CYEG 160500Z 11017G22KT 12SM -SHRA OVC033 03/01 A2965 RMK SC8 SLP072
CYEG;2004-10-16 06:00;METAR CYEG 160600Z 11016G21KT 12SM -RASN OVC023 01/00 A2964 RMK SC8 SLP061
CYEG;2004-10-16 07:00;METAR CYEG 160700Z 11013KT 2SM R30/6000FT -SN OVC021 01/M00 A2962 RMK SC8 SLP057
CYEG;2004-10-16 08:00;METAR CYEG 160800Z 11015KT 1 1/2SM R30/P6000FT -SN FEW007 BKN017 OVC022 00/M00 A2961 RMK SF2SC5SC1 SLP054 A2961 RMK SF2SC5SC1 SLP054
CYEG;2004-10-16 09:00;METAR CYEG 160900Z 11014G21KT 1 1/2SM R30/P6000FT -SN FEW007 BKN015 OVC020 M00/M01 A2961 RMK SF2SC4SC2 /S01/ SLP050
CYEG;2004-10-16 10:00;METAR CYEG 161000Z 12011KT 1 1/2SM R30/4000FT R02/P6000FT -SN SCT008 OVC015 M00/M01 A2962 RMK SF4SC4 SLP053
CYEG;2004-10-16 11:00;METAR CYEG 161100Z 11007KT 1 1/2SM R12/4500FT R02/P6000FT -SN SCT009 OVC015 M01/M01 A2962 RMK SF4SC4 /S02/ SLP054
CYEG;2004-10-16 12:00;METAR CYEG 161200Z 07005KT 1 1/2SM R12/5500FT -SN SCT007 BKN012 OVC017 M01/M01 A2964 RMK SF3SC4SC1 /S06/ SLP062 A2964 RMK SF3SC4SC1 /S06/ SLP062
CYEG;2004-10-16 13:00;METAR CYEG 161300Z 07011KT 2 1/2SM -SN FEW009 BKN015 OVC023 M01/M01 A2963 RMK SF2SC4SC2 SLP060 SF2SC4SC2 SLP060
CYEG;2004-10-16 14:00;METAR CYEG 161400Z 05011KT 1 1/2SM R12/4000FT R30/5000FT -SN SCT007 OVC019 M01/M01 A2965 RMK SN2SF2SC4 SLP065 OVC047 M01/M02 A2965 RMK SN2SF1SC2SC3 WND G TO 20 PST HR /S01/ SLP070
CYEG;2004-10-16 16:00;METAR CYEG 161600Z 04010KT 1 1/2SM R12/3500FT R02/5500FT -SN SCT007 BKN015 OVC032 M02/M02 A2969 RMK SN2SF2SC2SC2 /S02/ SLP080 M02/M02 A2969 RMK SN2SF2SC2SC2 /S02/ SLP080
CYEG;2004-10-16 17:00;METAR CYEG 161700Z 05010G15KT 1 1/2SM R12/4000FT R02/5500FT -SN SCT007 OVC018 M01/M02 A2970 RMK SN2SF2SC4 /S03/ VIS OCNL 1 SLP085 M01/M02 A2970 RMK SN2SF2SC4 /S03/ VIS OCNL 1 SLP085
CYEG;2004-10-16 18:00;METAR CYEG 161800Z 06012KT 2SM -SN SCT008 BKN014 OVC018 M01/M01 A2971 RMK SF3SC3SC2 /S04/ SLP092
CYEG;2004-10-16 19:00;METAR CYEG 161900Z 06013KT 1SM R30/5000FT -SN BKN008 OVC014 M01/M01 A2972 RMK SN4SF2SC2 /S01/ SLP095 SN4SF2SC2 /S01/ SLP095
CYEG;2004-10-16 20:00;METAR CYEG 162000Z 06009KT 1 1/4SM -SN BKN007 OVC016 M01/M01 A2974 RMK SN3SF2SC2 /S02/ SLP100 /S02/ SLP100
CYEG;2004-10-16 21:00;METAR CYEG 162100Z 07010KT 1SM R30/4000FT R12/6000FT -SN BKN007 OVC021 M01/M02 A2976 RMK SN5SF2SC2 VIS OCNL 3/4 /S03/ SLP110 A2976 RMK SN5SF2SC2 VIS OCNL 3/4 /S03/ SLP110
CYEG;2004-10-16 22:00;METAR CYEG 162200Z 07013KT 2SM -SN SCT009 BKN017 OVC022 M01/M02 A2978 RMK SF3SC2SC2 /S04/ SLP118 A2982 RMK SN2SF2SC3SC1 SLP128
CYEG;2004-10-17 00:00;METAR CYEG 170000Z 09012KT 1SM R12/5500FT -SN BKN009 OVC020 M03/M03 A2984 RMK SN4SF2SC2 SLP139 SN4SF2SC2 SLP139
CYEG;2004-10-17 01:00;METAR CYEG 170100Z 08010KT 1 1/2SM -SN SCT009 OVC027 M03/M04 A2987 RMK SN2SF2SC4 SLP148 SLP148
CYEG;2004-10-17 02:00;METAR CYEG 170200Z 05006KT 3SM -SN SCT008 BKN014 OVC027 M03/M03 A2988 RMK SF4SC3SC1 SLP153
CYEG;2004-10-17 03:00;METAR CYEG 170300Z 08007KT 3SM -SN FEW008 BKN013 OVC027 M04/M04 A2990 RMK SF2SC3SC2 /S01/ SLP162
CYEG;2004-10-17 04:00;METAR CYEG 170400Z 07004KT 12SM -SN FEW009 BKN020 OVC040 M04/M05 A2991 RMK SF1SC5SC2 SLP165
CYEG;2004-10-17 05:00;METAR CYEG 170500Z 09002KT 15SM FEW020 M07/M07 A2991 RMK SC2 SLP165
CYEG;2004-10-17 06:00;METAR CYEG 170600Z 34003KT 15SM -SN OVC013 M08/M09 A2993 RMK SC8 SLP177
CYEG;2004-10-17 07:00;METAR CYEG 170700Z 00000KT 15SM -SN FEW015 BKN020 OVC027 M06/M06 A2995 RMK SC2SC4SC2 SLP182
CYEG;2004-10-17 08:00;METAR CYEG 170800Z 07006KT 15SM -SN OVC017 M04/M05 A2993 RMK SC8 SLP177
CYEG;2004-10-17 09:00;METAR CYEG 170900Z 17002KT 15SM -SN OVC020 M05/M06 A2995 RMK SC8 SLP179
CYEG;2004-10-17 10:00;METAR CYEG 171000Z 22003KT 15SM -SN FEW016 OVC023 M05/M06 A2995 RMK SF2SC6 SLP181
CYEG;2004-10-17 11:00;METAR CYEG 171100Z 00000KT 15SM -SN FEW016 BKN022 OVC040 M05/M06 A2995 RMK SF2SC5SC1 SLP181
CYEG;2004-10-17 12:00;METAR CYEG 171200Z 03002KT 15SM -SN SCT016 OVC022 M05/M06 A2994 RMK SC4SC4 SLP179
CYEG;2004-10-17 13:00;METAR CYEG 171300Z 13003KT 15SM -SN FEW009 OVC013 M05/M06 A2994 RMK SF2SC6 SLP177
CYEG;2004-10-17 14:00;METAR CYEG 171400Z 18003KT 10SM -SN SCT008 OVC013 M05/M06 A2994 RMK SF3SC5
CYEG;2004-10-17 15:00;METAR CYEG 171500Z 14004KT 10SM -SN SCT008 OVC018 M05/M06 A2994 RMK SF3SC5 SLP178
CYEG;2004-10-17 16:00;METAR CYEG 171600Z 14003KT 10SM -SN FEW008 BKN020 OVC036 M05/M06 A2993 RMK SF2SC5SC1 SLP175
CYEG;2004-10-17 17:00;METAR CYEG 171700Z 12007KT 7SM -SN FEW008 OVC038 M05/M06 A2991 RMK SF2SC6 SLP170
CYEG;2004-10-17 18:00;METAR CYEG 171800Z 12008KT 10SM -SN FEW008 BKN022 OVC038 M05/M06 A2990 RMK SF1SC4SC2 SLP171
CYEG;2004-10-17 19:00;METAR CYEG 171900Z 11008KT 10SM -SN SCT022 OVC047 M05/M06 A2988 RMK SC4SC3 SLP164
CYEG;2004-10-17 20:00;METAR CYEG 172000Z 12009KT 10SM -SN FEW022 OVC047 M05/M07 A2986 RMK SC2SC6 SLP157
CYEG;2004-10-17 21:00;METAR CYEG 172100Z 10010KT 10SM -SN FEW015 OVC043 M05/M07 A2984 RMK SC2SC6 SLP146
CYEG;2004-10-17 22:00;METAR CYEG 172200Z 12012KT 10SM -SN FEW015 OVC042 M05/M07 A2982 RMK SC2SC6 SLP139
CYEG;2004-10-17 23:00;METAR CYEG 172300Z 11011KT 10SM -SN BKN013 OVC042 M05/M06 A2980 RMK SC5SC3 SLP133
CYEG;2004-10-18 00:00;METAR CYEG 180000Z 12014KT 10SM -SN BKN013 OVC030 M05/M07 A2978 RMK SC5SC3 SLP126
CYEG;2004-10-18 01:00;METAR CYEG 180100Z 12012KT 15SM BKN011 OVC030 M05/M07 A2977 RMK SC6SC2 SLP122
CYEG;2004-10-18 02:00;METAR CYEG 180200Z 12014KT 15SM -SN BKN012 OVC030 M05/M07 A2975 RMK SC6SC2 SLP116
CYEG;2004-10-18 03:00;METAR CYEG 180300Z 12012KT 5SM -SN BKN012 OVC030 M05/M07 A2973 RMK SC7SC1 SLP109
CYEG;2004-10-18 04:00;METAR CYEG 180400Z 11010KT 3SM -SN BKN011 OVC029 M05/M06 A2971 RMK SC7SC1 SLP102
CYEG;2004-10-18 05:00;METAR CYEG 180500Z 11011KT 3SM -SN BKN014 OVC082 M05/M06 A2969 RMK SC6AC2 SLP095
CYEG;2004-10-18 06:00;METAR CYEG 180600Z 10010KT 2SM -SN BKN011 OVC025 M05/M06 A2967 RMK SC6SC2 /S01/ SLP086 SLP086
CYEG;2004-10-18 07:00;METAR CYEG 180700Z 09010KT 2SM -SN BKN013 OVC026 M05/M06 A2964 RMK SC6SC2 SLP078
CYEG;2004-10-18 08:00;METAR CYEG 180800Z 09010KT 6SM -SN FEW010 SCT015 OVC027 M04/M06 A2962 RMK SF1SF4SC4 SLP072
CYEG;2004-10-18 09:00;METAR CYEG 180900Z 09012KT 10SM -SN FEW010 SCT020 OVC071 M04/M05 A2959 RMK SF1SF3AC5 SLP060 SF1SF2SC3SC2 /S01/ SLP055
CYEG;2004-10-18 11:00;METAR CYEG 181100Z 10011KT 15SM BKN011 OVC025 M03/M05 A2956 RMK SC6SC2 SLP050
CYEG;2004-10-18 12:00;METAR CYEG 181200Z 10011KT 15SM BKN011 OVC020 M03/M05 A2955 RMK SC6SC2 SLP044
CYEG;2004-10-18 13:00;METAR CYEG 181300Z 10011KT 6SM -SN BKN009 OVC020 M03/M04 A2954 RMK SC7SC1 SLP042
CYEG;2004-10-18 14:00;METAR CYEG 181400Z 10011KT 15SM -SN OVC009 M03/M04 A2954 RMK ST8 SLP040
CYEG;2004-10-18 15:00;METAR CYEG 181500Z 10012KT 10SM -SN OVC009 M03/M04 A2953 RMK ST8 SLP039
CYEG;2004-10-18 16:00;METAR CYEG 181600Z 11011KT 3SM -SN OVC007 M03/M03 A2953 RMK ST8 SLP039
CYEG;2004-10-18 17:00;METAR CYEG 181700Z 11010KT 6SM -SN BKN009 OVC020 M02/M03 A2955 RMK SF6SC2 SLP043
CYEG;2004-10-18 18:00;METAR CYEG 181800Z 11010KT 12SM -SN SCT007 BKN028 OVC053 M02/M04 A2954 RMK SF3SC3SC2 SLP041
CYEG;2004-10-18 19:00;METAR CYEG 181900Z 11011KT 6SM -SN FEW007 BKN013 OVC027 M02/M04 A2955 RMK SF2SC3SC3 SLP043
CYEG;2004-10-18 20:00;METAR CYEG 182000Z 11010KT 1/2SM R30/1600FT SN VV005 M03/M03 A2956 RMK SN8 SLP046
CYEG;2004-10-18 21:00;METAR CYEG 182100Z 09007KT 2SM -SN FEW005 SCT016 OVC045 M02/M03 A2957
CYEG;2004-10-18 22:00;METAR CYEG 182200Z 09005KT 1 1/2SM -SN SCT005 OVC028 M02/M03 A2958 RMK SF3SC5 SLP053 SLP053
CYEG;2004-10-18 23:00;METAR CYEG 182300Z 06007KT 5/8SM R30/4500FT -SN VV005 M03/M03 A2960 RMK SN8 SLP058
CYEG;2004-10-19 00:00;METAR CYEG 190000Z 06008KT 5/8SM R30/3500FT -SN VV005 M03/M03 A2961 /S05/ SLP064
CYEG;2004-10-19 01:00;METAR CYEG 190100Z 07007KT 3/4SM R30/P6000FT -SN VV005 M03/M04 A2963 RMK SN8 /S01/ SLP069 /S01/ SLP069
CYEG;2004-10-19 02:00;METAR CYEG 190200Z 06006KT 1SM R30/P6000FT -SN OVC009 M03/M04 A2965 RMK SC8 SLP075
CYEG;2004-10-19 03:00;METAR CYEG 190300Z 05005KT 2 1/2SM -SN FEW006 OVC013 M04/M04 A2966 RMK SF2SC6 SLP081 SLP081
CYEG;2004-10-19 04:00;METAR CYEG 190400Z 01004KT 4SM -SN FEW006 OVC030 M04/M05 A2968 RMK SF2SC6 /S02/ SLP087 SLP087
CYEG;2004-10-19 05:00;METAR CYEG 190500Z 01003KT 8SM -SN FEW006 SCT017 BKN030 M06/M06 A2970 RMK SF1SC2SC2 SLP092
CYEG;2004-10-19 06:00;METAR CYEG 190600Z 36003KT 1/8SM R30/1800FT R02/2000FT -SN FZFG BKN006 OVC020 M09/M09 A2971 RMK FG5SF1SC2 /S04/ SLP102 M09/M09 A2971 RMK FG5SF1SC2 /S04/ SLP102
CYEG;2004-10-19 07:00;METAR CYEG 190700Z 34003KT 1SM R30/P6000FT -SN BR FEW001 FEW006 BKN025 OVC030 M06/M07 A2972 RMK ST1SF2SC5SC1 SLP105 M06/M07 A2972 RMK ST1SF2SC5SC1 SLP105
CYEG;2004-10-19 08:00;METAR CYEG 190800Z 28002KT 3SM -SN BR FEW002 FEW006 SCT011 OVC020 M05/M05 A2974 RMK ST1SF1SC2SC4 SLP112 RMK ST1SF1SC2SC4 SLP112
CYEG;2004-10-19 09:00;METAR CYEG 190900Z 31004KT 5SM -SN BKN005 OVC010 M05/M05 A2978 RMK ST6SC2 SLP122
CYEG;2004-10-19 10:00;METAR CYEG 191000Z 33006KT 4SM -SN FEW003 SCT013 BKN018 OVC030 M05/M06 A2979 RMK SF2SC2SC4SC1 SLP126 SF2SC2SC4SC1 SLP126
CYEG;2004-10-19 11:00;METAR CYEG 191100Z 32005KT 12SM FEW003 BKN013 OVC030 M05/M06 A2981 RMK SF2SC3SC2 SLP132 SLP132
CYEG;2004-10-19 12:00;METAR CYEG 191200Z 33008KT 12SM -SN BKN009 OVC030 M05/M06 A2984 RMK SC6SC2 SLP145
CYEG;2004-10-19 13:00;METAR CYEG 191300Z 33004KT 15SM FEW005 BKN007 OVC024 M05/M06 A2984 RMK SF1SF6SC2 SLP146 SLP146
CYEG;2004-10-19 14:00;METAR CYEG 191400Z 32005KT 15SM SCT006 BKN015 OVC020 M05/M05 A2987 RMK SF3SC2SC3 SLP154 SLP154
CYEG;2004-10-19 15:00;METAR CYEG 191500Z 35009KT 15SM VCSH BKN010 OVC020 M05/M06 A2989 RMK SF5SC3 SN NE SLP162 SLP162
CYEG;2004-10-19 16:00;METAR CYEG 191600Z 32008KT 15SM BKN010 OVC020 M05/M06 A2990 RMK SF6SC2 SLP165
CYEG;2004-10-19 17:00;METAR CYEG 191700Z 36004KT 15SM VCSH BKN012 OVC018 M05/M06 A2991 RMK SF5SC3 SHSN SE SLP170 SE SLP170
CYEG;2004-10-19 18:00;METAR CYEG 191800Z 35006KT 15SM FEW012 OVC018 M05/M07 A2993 RMK SC2SC6 VIRGA SE SLP180 SLP180
CYEG;2004-10-19 19:00;METAR CYEG 191900Z 36004KT 15SM FEW012 OVC018 M05/M07 A2993 RMK SC2SC6 SLP181
CYEG;2004-10-19 20:00;METAR CYEG 192000Z 02004KT 15SM FEW012 OVC020 M05/M07 A2993 RMK SC2SC6 SLP179
CYEG;2004-10-19 21:00;METAR CYEG 192100Z 01003KT 15SM -SN FEW012 OVC021 M04/M07 A2993 RMK SC2SC6 SLP177
CYEG;2004-10-19 22:00;METAR CYEG 192200Z 01003KT 15SM -SN FEW012 OVC021 M04/M06 A2993 RMK SC2SC6 SLP175
CYEG;2004-10-19 23:00;METAR CYEG 192300Z 02003KT 15SM -SN FEW012 OVC020 M05/M07 A2993 RMK SC2SC6
CYEG;2004-10-20 00:00;METAR CYEG 200000Z 36005KT 15SM -SN OVC022 M05/M07 A2993 RMK SC8 SLP177
CYEG;2004-10-20 01:00;METAR CYEG 200100Z 06005KT 15SM BKN028 OVC150 M06/M07 A2992 RMK SC6AC2 SLP175
CYEG;2004-10-20 02:00;METAR CYEG 200200Z 09005KT 15SM BKN022 OVC130 M06/M08 A2992 RMK SC6AC2
CYEG;2004-10-20 03:00;METAR CYEG 200300Z 09005KT 15SM BKN021 BKN028 OVC130 M06/M07 A2992 RMK SC5SC2AC1 SLP173 SLP173
CYEG;2004-10-20 04:00;METAR CYEG 200400Z 13004KT 15SM BKN018 OVC030 M07/M08 A2991 RMK SC6SC2 SLP172
CYEG;2004-10-20 05:00;METAR CYEG 200500Z 15004KT 15SM BKN023 OVC072 M06/M07 A2991 RMK SC6AC2 SLP171
CYEG;2004-10-20 06:00;METAR CYEG 200600Z 14005KT 12SM -SN OVC026 M06/M07 A2989 RMK SC8 SLP162
CYEG;2004-10-20 07:00;METAR CYEG 200700Z 15006KT 15SM -SN OVC023 M05/M07 A2986 RMK SC8 SLP154
CYEG;2004-10-20 08:00;METAR CYEG 200800Z 15008KT 15SM -SN OVC020 M05/M07 A2984 RMK SC8 S- INTMT SLP148
CYEG;2004-10-20 09:00;METAR CYEG 200900Z 13008KT 15SM FEW020 OVC030 M05/M07 A2983 RMK SC2SC6 SLP141
CYEG;2004-10-20 10:00;METAR CYEG 201000Z 14008KT 15SM SCT022 OVC028 M05/M07 A2980 RMK SC3SC5 SLP134
CYEG;2004-10-20 11:00;METAR CYEG 201100Z 14008KT 15SM FEW015 OVC024 M05/M06 A2978 RMK SC1SC7 SLP128
CYEG;2004-10-20 12:00;METAR CYEG 201200Z 15009KT 12SM FEW015 OVC021 M05/M06 A2978 RMK SC1SC7 SLP126
CYEG;2004-10-20 13:00;METAR CYEG 201300Z 16007KT 12SM OVC019 M05/M06 A2977 RMK SC8 SLP121
CYEG;2004-10-20 14:00;METAR CYEG 201400Z 16009KT 12SM OVC020 M04/M06 A2976 RMK SC8 BR VIRGA ALQDS SLP118
CYEG;2004-10-20 15:00;METAR CYEG 201500Z 16007KT 10SM OVC018 M04/M06 A2976 RMK SC8 BR VIRGA ALQDS
CYEG;2004-10-20 16:00;METAR CYEG 201600Z 16009KT 6SM BR FEW014 OVC018 M04/M05 A2975 RMK SC2SC6 VIRGA SLP115 SLP115
CYEG;2004-10-20 17:00;METAR CYEG 201700Z 17006KT 4SM -SG BR FEW006 BKN011 OVC019 M04/M05 A2975 RMK SF2ST5SC2 SLP115 SF2ST5SC2 SLP115
CYEG;2004-10-20 18:00;METAR CYEG 201800Z 16009KT 4SM -SG BR FEW006 BKN012 OVC017 M04/M05 A2973 RMK SF2ST3SC2 SLP106 SF2ST3SC2 SLP106
CYEG;2004-10-20 19:00;METAR CYEG 201900Z 16007KT 5SM -SG BR SCT008 OVC013 M03/M04 A2972 RMK SF3ST5 SLP104 SLP104
CYEG;2004-10-20 20:00;METAR CYEG 202000Z 16006KT 4SM -SG BR BKN008 OVC016 M03/M04 A2971 RMK ST6SC2 SLP100 SLP100
CYEG;2004-10-20 21:00;METAR CYEG 202100Z 17005KT 4SM -SG BR BKN007 OVC016 M03/M04 A2970 RMK ST6SC2 SLP097 SLP097
CYEG;2004-10-20 22:00;METAR CYEG 202200Z 15005KT 5SM -SG BR BKN009 OVC015 M03/M04 A2970 RMK ST6SC2 SLP095 SLP095
CYEG;2004-10-20 23:00;METAR CYEG 202300Z 14006KT 10SM OVC013 M02/M04 A2970 RMK SC8 SLP095
CYEG;2004-10-21 00:00;METAR CYEG 210000Z 14007KT 10SM OVC014 M03/M04 A2970 RMK SC8 BR SLP095
CYEG;2004-10-21 01:00;METAR CYEG 210100Z 14004KT 10SM OVC012 M03/M04 A2971 RMK SC8 BR SLP099
CYEG;2004-10-21 02:00;METAR CYEG 210200Z 11006KT 10SM OVC012 M03/M04 A2972 RMK SC8 VIRGA BR SLP101
CYEG;2004-10-21 03:00;METAR CYEG 210300Z 11010KT 10SM -SG OVC012 M03/M04 A2971 RMK ST8 BR VIS LWR N-NE SLP099 SLP099
CYEG;2004-10-21 04:00;METAR CYEG 210400Z 11007KT 12SM OVC013 M03/M04 A2972 RMK SC8 SLP101
CYEG;2004-10-21 05:00;METAR CYEG 210500Z 11007KT 10SM BKN005 OVC013 M03/M04 A2973 RMK SF2SC6 BR SLP106
CYEG;2004-10-21 06:00;METAR CYEG 210600Z 11007KT 5SM BR BKN005 OVC011 M04/M04 A2974 RMK SF5SC3 SLP108
CYEG;2004-10-21 07:00;METAR CYEG 210700Z 10006KT 3SM -FZDZ BR OVC005 M04/M04 A2974 RMK SF8 CIG VRBL 4-7 SLP108
CYEG;2004-10-21 08:00;METAR CYEG 210800Z 10006KT 1 3/4SM R12/5500FT -FZDZ BR OVC003 M04/M04 A2974 RMK FG2SF6 SLP109 FG2SF6 SLP109
CYEG;2004-10-21 09:00;METAR CYEG 210900Z 11005KT 2 1/2SM -FZDZ BR OVC003 M04/M04 A2975 RMK FG2SF6 CIG VRBL 2-4 SLP112 VRBL 2-4 SLP112
CYEG;2004-10-21 10:00;METAR CYEG 211000Z 08003KT 2 1/2SM -FZDZ BR BKN003 OVC014 M04/M04 A2976 RMK FG2SF6SC1 SLP115
CYEG;2004-10-21 11:00;METAR CYEG 211100Z 08004KT 3SM -FZDZ BR BKN004 OVC012 M04/M04 A2977 RMK SF7SC1 CIG VRBL 3-5 SLP118 CIG VRBL 3-5 SLP118
CYEG;2004-10-21 12:00;METAR CYEG 211200Z 04002KT 2 1/2SM -SG -FZDZ BR BKN004 OVC014 M04/M04 A2978 RMK FG2SF6SC1 CIG VRBL 3-7 SG- INTMT SLP122 FG2SF6SC1 CIG VRBL 3-7 SG- INTMT SLP122
CYEG;2004-10-21 14:00;METAR CYEG 211400Z 34004KT 8SM FEW004 OVC013 M03/M05 A2980 RMK SF2SC6 VIRGA BR SLP128 SLP128
CYEG;2004-10-21 15:00;METAR CYEG 211500Z 32005KT 8SM -SN FEW004 OVC015 M04/M05 A2982 RMK SF1SC7 BR SLP135 SLP135
CYEG;2004-10-21 16:00;METAR CYEG 211600Z 33006KT 6SM -SN BR OVC013 M04/M05 A2982 RMK SC8 SLP136
CYEG;2004-10-21 17:00;METAR CYEG 211700Z 32004KT 4SM -SN BR FEW005 OVC016 M04/M05 A2983 RMK SF2SC6 SLP138
CYEG;2004-10-21 18:00;METAR CYEG 211800Z 33005KT 3SM -SN BR FEW007 OVC027 M04/M05 A2982 RMK SF2SC6 SLP137 SLP137
CYEG;2004-10-21 19:00;METAR CYEG 211900Z 33004KT 6SM -SN BR OVC033 M03/M05 A2982 RMK SC8 SLP137
CYEG;2004-10-21 20:00;METAR CYEG 212000Z 35003KT 10SM -SN FEW014 OVC026 M03/M05 A2981 RMK SC2SC6 BR SLP132 SLP132
CYEG;2004-10-21 21:00;METAR CYEG 212100Z 35002KT 12SM -SN FEW014 OVC022 M03/M06 A2979 RMK SC2SC6 SLP127
CYEG;2004-10-21 22:00;METAR CYEG 212200Z 34002KT 12SM -SN FEW015 OVC021 M04/M06 A2978 RMK SC2SC6 SLP124
CYEG;2004-10-21 23:00;METAR CYEG 212300Z 36003KT 12SM OVC020 M04/M06 A2979 RMK SC8 BR SLP125
CYEG;2004-10-22 00:00;METAR CYEG 220000Z 00000KT 12SM OVC021 M04/M06 A2978 RMK SC8 BR SLP124
CYEG;2004-10-22 01:00;METAR CYEG 220100Z 00000KT 12SM OVC024 M04/M06 A2978 RMK SC8 BR SLP122
CYEG;2004-10-22 02:00;METAR CYEG 220200Z 19002KT 12SM FEW011 OVC023 M04/M06 A2977 RMK SF1SC7 BR SLP120
CYEG;2004-10-22 03:00;METAR CYEG 220300Z 18003KT 12SM OVC023 M04/M06 A2977 RMK SC8 BR SLP119
CYEG;2004-10-22 04:00;METAR CYEG 220400Z 16004KT 10SM OVC019 M04/M06 A2974 RMK SC8 BR SLP110
CYEG;2004-10-22 05:00;METAR CYEG 220500Z 15006KT 10SM OVC017 M04/M06 A2971 RMK SC8 BR SLP101
CYEG;2004-10-22 06:00;METAR CYEG 220600Z 15005KT 10SM FEW014 OVC019 M04/M06 A2969 RMK SC2SC6 BR SLP092
CYEG;2004-10-22 07:00;METAR CYEG 220700Z 14006KT 10SM OVC022 M04/M06 A2967 RMK SC8 BR SLP085
CYEG;2004-10-22 08:00;METAR CYEG 220800Z 15005KT 12SM OVC022 M05/M06 A2964 RMK SC7 SLP078
CYEG;2004-10-22 09:00;METAR CYEG 220900Z 13007KT 15SM FEW017 OVC028 M06/M08 A2961 RMK SC2SC3 SLP065
CYEG;2004-10-22 10:00;METAR CYEG 221000Z 14007KT 15SM BKN026 M07/M08 A2960 RMK SC6 SLP062
CYEG;2004-10-22 11:00;METAR CYEG 221100Z 13009KT 12SM OVC029 M06/M07 A2958 RMK SC6 SLP055
CYEG;2004-10-22 12:00;METAR CYEG 221200Z 14008KT 10SM OVC022 M04/M05 A2956 RMK SC8 BR SLP046
CYEG;2004-10-22 13:00;METAR CYEG 221300Z 14010KT 12SM OVC015 M03/M05 A2953 RMK SC8 SLP039
CYEG;2004-10-22 14:00;METAR CYEG 221400Z 14012KT 12SM OVC011 M03/M05 A2951 RMK SC8 VIRGA BR SLP032
CYEG;2004-10-22 15:00;METAR CYEG 221500Z 14013KT 10SM -SG OVC009 M03/M04 A2950 RMK ST8 BR SLP026
CYEG;2004-10-22 16:00;METAR CYEG 221600Z 14011KT 12SM -SG OVC009 M03/M04 A2947 RMK ST8 BR SLP017
CYEG;2004-10-22 17:00;METAR CYEG 221700Z 14012KT 12SM OVC011 M02/M04 A2945 RMK ST8 BR SLP011
CYEG;2004-10-22 18:00;METAR CYEG 221800Z 13014KT 12SM FEW008 OVC011 M02/M03 A2943 RMK SF2ST6 BR SLP001
CYEG;2004-10-22 19:00;METAR CYEG 221900Z 13011KT 10SM FEW008 OVC012 M02/M03 A2941 RMK SF1ST7 BR SLP995
CYEG;2004-10-22 20:00;METAR CYEG 222000Z 13009KT 10SM OVC012 M01/M03 A2939 RMK ST8 BR SLP989
CYEG;2004-10-22 21:00;METAR CYEG 222100Z 14010KT 12SM OVC011 M01/M02 A2938 RMK ST7 BR SLP985
CYEG;2004-10-22 22:00;METAR CYEG 222200Z 13009KT 12SM BKN011 OVC040 M01/M02 A2938 RMK ST7SC1 BR SLP985
CYEG;2004-10-22 23:00;METAR CYEG 222300Z 14011KT 10SM BKN012 OVC040 M01/M02 A2939 RMK ST7SC1 BR SLP987
CYEG;2004-10-23 00:00;METAR CYEG 230000Z 13007KT 12SM BKN012 OVC050 M01/M03 A2940 RMK SC6SC2 BR SLP990
CYEG;2004-10-23 01:00;METAR CYEG 230100Z 12006KT 12SM FEW015 BKN066 OVC085 M02/M03 A2940 RMK SC2AC5AC2 BR SLP990 BR SLP990
CYEG;2004-10-23 02:00;METAR CYEG 230200Z 13007KT 15SM SCT066 OVC093 M02/M03 A2939 RMK AC3AC4 SLP986
CYEG;2004-10-23 03:00;METAR CYEG 230300Z 16004KT 12SM FEW058 FEW066 BKN092 M05/M06 A2940 RMK SC1AC2AC2 BR SLP994 BR SLP994
CYEG;2004-10-23 04:00;METAR CYEG 230400Z 18005KT 12SM BKN094 M04/M05 A2941 RMK AC7 BR SLP996
CYEG;2004-10-23 05:00;METAR CYEG 230500Z 17004KT 8SM FEW092 M06/M07 A2941 RMK AC2 BR SLP995
CYEG;2004-10-23 06:00;METAR CYEG 230600Z 16004KT 4SM BR FEW090 M07/M08 A2942 RMK AC1 SLP999
CYEG;2004-10-23 07:00;METAR CYEG 230700Z 17002KT 3/8SM R30/1600FT R02/1800FT FZFG VV005 M07/M08 A2943 RMK FG8 FROIN SLP002 RMK FG8 FROIN SLP002
CYEG;2004-10-23 08:00;METAR CYEG 230800Z 00000KT 3/8SM R30/1400FT R02/1600FT FZFG VV005 M07/M07 A2945 RMK FG8 SLP008 RMK FG8 SLP008
CYEG;2004-10-23 09:00;METAR CYEG 230900Z 21002KT 4SM BR OVC005 M07/M08 A2947 RMK ST8 FROIN SLP017
CYEG;2004-10-23 10:00;METAR CYEG 231000Z 25005KT 1/4SM R30/1400FT R02/1100FT FZFG VV004 M06/M06 A2949 RMK FG8 SLP024 RMK FG8 SLP024
CYEG;2004-10-23 11:00;METAR CYEG 231100Z 00000KT 1/4SM R02/1600FT R30/1600FT FZFG VV005 M05/M05 A2949 RMK FG8 SLP023 RMK FG8 SLP023 RMK FG2AC6 FROIN SLP028 FG2CI6 FROIN SLP028
CYEG;2004-10-23 14:00;METAR CYEG 231400Z 27003KT 3SM BR FEW100 SCT250 M06/M06 A2955 RMK AC2CI0 SLP042
CYEG;2004-10-23 15:00;METAR CYEG 231500Z 31003KT 5SM BR OVC013 M06/M06 A2956 RMK ST7 SLP051
CYEG;2004-10-23 16:00;METAR CYEG 231600Z 32004KT 8SM OVC013 M03/M03 A2958 RMK ST8 BR SLP056
CYEG;2004-10-23 17:00;METAR CYEG 231700Z 31006KT 6SM BR BKN019 M02/M02 A2960 RMK SC7 SLP062
CYEG;2004-10-23 18:00;METAR CYEG 231800Z 29008KT 10SM FEW010 BKN024 M02/M02 A2961 RMK SF1SC6 BR SLP067
CYEG;2004-10-23 20:00;METAR CYEG 232000Z 32005KT 12SM FEW010 BKN030 BKN100 M01/M02 A2962 RMK BR SLP068
CYEG;2004-10-23 21:00;METAR CYEG 232100Z 29005KT 12SM FEW015 BKN029 BKN250 M00/M02 A2962 RMK SC1SC4CI1 BR SLP068
CYEG;2004-10-23 22:00;METAR CYEG 232200Z 27003KT 12SM FEW015 BKN029 BKN250 M00/M02 A2963 RMK SF1SC6CI1 BR TR SF SLP071 BR TR SF SLP071
CYEG;2004-10-23 23:00;METAR CYEG 232300Z 25005KT 10SM FEW015 BKN030 M00/M02 A2964 RMK SF1SC6 BR SLP074
CYEG;2004-10-24 00:00;METAR CYEG 240000Z 21003KT 10SM BKN024 BKN250 M01/M02 A2964 RMK SC6CI1 BR SLP077
CYEG;2004-10-24 01:00;METAR CYEG 240100Z 23002KT 8SM -SN BKN016 BKN090 M02/M03 A2965 RMK SC5AC2 SLP079
CYEG;2004-10-24 02:00;METAR CYEG 240200Z 33002KT 10SM FEW013 SCT025 BKN039 BKN093 M04/M05 A2966 RMK SF1SC2SC2AC1 BR SLP081 SF1SC2SC2AC1 BR SLP081
CYEG;2004-10-24 03:00;METAR CYEG 240300Z 00000KT 3SM -SN OVC029 M04/M04 A2966 RMK SC7 SLP083
CYEG;2004-10-24 04:00;METAR CYEG 240400Z 00000KT 6SM -SN FEW016 BKN024 OVC049 M03/M04 A2967 RMK SC2SC3SC2 /S01/ SLP087
CYEG;2004-10-24 05:00;METAR CYEG 240500Z 34006KT 3/4SM R30/3000FT R02/4000FT -SN VV014 M02/M03 A2968 RESN RMK SN8 /S02/ SLP089 RESN RMK SN8 /S02/ SLP089
CYEG;2004-10-24 06:00;METAR CYEG 240600Z 35006KT 10SM -SN FEW008 SCT018 BKN048 OVC070 M04/M05 A2969 RMK SF2SC2SC3AC1 /S04/ SLP090 SF2SC2SC3AC1 /S04/ SLP090
CYEG;2004-10-24 07:00;METAR CYEG 240700Z 30002KT 15SM BKN014 OVC042 M04/M05 A2970 RMK SC6SC2 SLP092
CYEG;2004-10-24 08:00;METAR CYEG 240800Z 34004KT 15SM OVC013 M04/M06 A2970 RMK SC8 SLP093
CYEG;2004-10-24 09:00;METAR CYEG 240900Z 31005KT 15SM OVC012 M04/M06 A2971 RMK SC8 SLP097
CYEG;2004-10-24 10:00;METAR CYEG 241000Z 27003KT 15SM OVC014 M05/M06 A2972 RMK SC8 SLP099
CYEG;2004-10-24 11:00;METAR CYEG 241100Z 23002KT 15SM FEW014 BKN170 M10/M10 A2971 RMK SC2AC4 SLP098
CYEG;2004-10-24 12:00;METAR CYEG 241200Z 20003KT 15SM FEW130 SCT170 M10/M11 A2972 RMK AC1AS2 SLP105
CYEG;2004-10-24 13:00;METAR CYEG 241300Z 20005KT 15SM FEW013 SCT170 M12/M12 A2972 RMK SF1AS2 VIRGA BR SLP103 AC1AC6CI1 SLP102
CYEG;2004-10-24 16:00;METAR CYEG 241600Z 17005KT 8SM FEW015 FEW070 BKN130 BKN250 M08/M08 A2970 RMK SF1AC1AC6CS1 VIRGA BR TR SF TR LWR AC SLP100 SF1AC1AC6CS1 VIRGA BR TR SF TR LWR AC SLP100
CYEG;2004-10-24 17:00;METAR CYEG 241700Z 17007KT 8SM FEW030 BKN130 M06/M07 A2969 RMK SC1AC7 VIRGA BR SLP096 SLP096
CYEG;2004-10-24 18:00;METAR CYEG 241800Z 17007KT 8SM BKN130 BKN160 M05/M06 A2967 RMK AC6AS1 VIRGA BR SLP087 SLP087
CYEG;2004-10-24 19:00;METAR CYEG 241900Z 18005KT 8SM FEW030TCU BKN076 BKN130 M03/M04 A2967 RMK TCU1AC5AC2 TCU+SHSN NW-N VIRGA ALQDS BR SLP087
CYEG;2004-10-24 20:00;METAR CYEG 242000Z 00000KT 12SM FEW030 BKN075 M01/M03 A2966 RMK SC1AC4 VIRGA ALQDS SLP084 ALQDS SLP084
CYEG;2004-10-24 21:00;METAR CYEG 242100Z 00000KT 12SM FEW030 BKN079 BKN250 M02/M04 A2966 RMK SC1AC6CI1 VIRGA SLP080 VIRGA SLP080
CYEG;2004-10-24 22:00;METAR CYEG 242200Z 00000KT 12SM FEW030 BKN076 BKN250 M01/M03 A2966 RMK SC1AC5CI1 VIRGA SLP080
CYEG;2004-10-25 01:00;METAR CYEG 250100Z 00000KT 1 1/2SM R12/P6000FT BR FEW075 FEW250 M10/M11 A2968 RMK FG1AC1CI1 ROOF VIS 12 TR CI SLP094 FG1AC1CI1 ROOF VIS 12 TR CI SLP094 A2968 RMK FG3 VIS E 1 FROIN SLP095 RMK FG3 VIS E 1 FROIN TR CI SLP095
CYEG;2004-10-25 03:00;METAR CYEG 250300Z 18007KT 3SM BR FEW075 SCT250 M09/M09 A2969 RMK AC2CI1 VIS NW QUAD 1 FROIN SLP100 QUAD 1 FROIN SLP100
CYEG;2004-10-25 04:00;METAR CYEG 250400Z 18007KT 4SM BR FEW075 SCT250 M09/M10 A2969 RMK AC1CI1 VIS NW-N 2 FROIN SLP100 2 FROIN SLP100
CYEG;2004-10-25 05:00;METAR CYEG 250500Z 17006KT 4SM BR FEW075 SCT250 M09/M10 A2967 RMK AC1CI2 VIS NW-N 11/2 FROIN SLP096 11/2 FROIN SLP096
CYEG;2004-10-25 06:00;METAR CYEG 250600Z 17005KT 5SM BR BKN250 M08/M08 A2967 RMK CI3 VIS NW-N 2 FROIN SLP089 SLP089
CYEG;2004-10-25 07:00;METAR CYEG 250700Z 18005KT 4SM BR BKN250 M09/M09 A2966 RMK CI2 VIS NW-N 2 VIS NE-E-SE 8 FROIN SLP088 NE-E-SE 8 FROIN SLP088
CYEG;2004-10-25 08:00;METAR CYEG 250800Z 19004KT 6SM BR SCT250 M12/M13 A2966 RMK CI2 VIS NW 21/2 FROIN SLP088 SLP088
CYEG;2004-10-25 09:00;METAR CYEG 250900Z 18005KT 8SM FEW250 M10/M11 A2967 RMK CI1 VIS NW-N 3 FROIN BR SLP088
CYEG;2004-10-25 10:00;METAR CYEG 251000Z 18005KT 8SM FEW250 M12/M14 A2967 RMK CI1 VIS NW-N 3
CYEG;2004-10-25 11:00;METAR CYEG 251100Z 17002KT 10SM FEW250 M13/M13 A2967 RMK CI1 BR SLP088
CYEG;2004-10-25 12:00;METAR CYEG 251200Z 17003KT 15SM SKC M14/M16 A2967 RMK SLP093
CYEG;2004-10-25 13:00;METAR CYEG 251300Z 18002KT 15SM FEW250 M13/M14 A2967 RMK CI1 SLP095
CYEG;2004-10-25 14:00;METAR CYEG 251400Z 17005KT 15SM FEW250 M13/M14 A2968 RMK CI1 SLP098
CYEG;2004-10-25 15:00;METAR CYEG 251500Z 17004KT 15SM FEW250 M12/M13 A2969 RMK CI1 SLP103
CYEG;2004-10-25 16:00;METAR CYEG 251600Z 15004KT 15SM FEW250 M10/M11 A2969 RMK CI1 SLP103
CYEG;2004-10-25 17:00;METAR CYEG 251700Z 17005KT 15SM FEW250 M07/M08 A2971 RMK CI1 SLP110
CYEG;2004-10-25 18:00;METAR CYEG 251800Z 14004KT 15SM FEW250 M04/M07 A2971 RMK CI0 SLP104
CYEG;2004-10-25 19:00;METAR CYEG 251900Z 13005KT 15SM SCT250 M02/M06 A2971 RMK CI0 SLP104
CYEG;2004-10-25 20:00;METAR CYEG 252000Z 12009KT 15SM FEW250 M02/M05 A2970 RMK CI1 SLP100
CYEG;2004-10-25 21:00;METAR CYEG 252100Z 13007KT 15SM FEW250 M01/M05 A2971 RMK CI1 SLP102
CYEG;2004-10-25 22:00;METAR CYEG 252200Z 15008KT 15SM FEW250 00/M06 A2971 RMK CI1 SLP103
CYEG;2004-10-25 23:00;METAR CYEG 252300Z 14006KT 15SM FEW250 M02/M07 A2973 RMK CI1 SLP109
CYEG;2004-10-26 00:00;METAR CYEG 260000Z 13008KT 15SM FEW250 M05/M08 A2974 RMK CI1 SLP120
CYEG;2004-10-26 01:00;METAR CYEG 260100Z 12009KT 15SM FEW250 M07/M09 A2975 RMK CI1 SLP122
CYEG;2004-10-26 02:00;METAR CYEG 260200Z 13010KT 15SM SKC M07/M09 A2976 RMK SLP126
CYEG;2004-10-26 03:00;METAR CYEG 260300Z 13008KT 15SM SKC M06/M09 A2977 RMK SLP131
CYEG;2004-10-26 04:00;METAR CYEG 260400Z 14006KT 15SM SKC M06/M08 A2978 RMK SLP134
CYEG;2004-10-26 05:00;METAR CYEG 260500Z 13006KT 15SM SKC M05/M08 A2979 RMK SLP137
CYEG;2004-10-26 06:00;METAR CYEG 260600Z 13008KT 15SM SKC M08/M10 A2980 RMK SLP135
CYEG;2004-10-26 07:00;METAR CYEG 260700Z 13009KT 15SM SKC M07/M09 A2981 RMK SLP136
CYEG;2004-10-26 08:00;METAR CYEG 260800Z 14005KT 15SM FEW250 M08/M09 A2981 RMK CI1 SLP137
CYEG;2004-10-26 09:00;METAR CYEG 260900Z 14010KT 15SM FEW250 M07/M09 A2982 RMK CI1 SLP139
CYEG;2004-10-26 10:00;METAR CYEG 261000Z 13009KT 15SM FEW250 M08/M10 A2983 RMK CI1 SLP142
CYEG;2004-10-26 11:00;METAR CYEG 261100Z 13012KT 15SM FEW250 M09/M11 A2983 RMK CI1 SLP141
CYEG;2004-10-26 12:00;METAR CYEG 261200Z 13012KT 15SM FEW250 M09/M11 A2984 RMK CI1 SLP149
CYEG;2004-10-26 13:00;METAR CYEG 261300Z 13011KT 15SM SCT250 M09/M11 A2985 RMK CI2 SLP152
CYEG;2004-10-26 14:00;METAR CYEG 261400Z 13007KT 15SM SCT180 BKN250 M10/M11 A2986 RMK AC2CI0 SLP155
CYEG;2004-10-26 15:00;METAR CYEG 261500Z 14006KT 15SM BKN150 BKN250 M09/M10 A2988 RMK AC2CI0 SLP164
CYEG;2004-10-26 16:00;METAR CYEG 261600Z 13008KT 15SM FEW150 BKN250 M07/M09 A2989 RMK AC1CI0 SLP167
CYEG;2004-10-26 17:00;METAR CYEG 261700Z 00000KT 15SM FEW150 BKN250 M05/M08 A2990 RMK AC1CI1 SLP172
CYEG;2004-10-26 18:00;METAR CYEG 261800Z 11007KT 15SM FEW150 BKN250 M05/M08 A2990 RMK AC1CI1 SLP169
CYEG;2004-10-26 19:00;METAR CYEG 261900Z 12008KT 15SM FEW150 SCT220 BKN270 M04/M08 A2989 RMK AC1CI1CS0 SLP168 SLP168
CYEG;2004-10-26 20:00;METAR CYEG 262000Z 12006KT 15SM SCT220 BKN270 M04/M07 A2988 RMK CI1CS0 SLP162
CYEG;2004-10-26 21:00;METAR CYEG 262100Z 12007KT 15SM BKN250 M03/M06 A2987 RMK CI1 CC ASOCTD SLP157
CYEG;2004-10-26 22:00;METAR CYEG 262200Z 14008KT 15SM BKN250 M03/M07 A2987 RMK CI1 CC ASOCTD SLP156
CYEG;2004-10-26 23:00;METAR CYEG 262300Z 13008KT 15SM FEW170 BKN250 M04/M07 A2986 RMK AC0CI1 SLP154
CYEG;2004-10-27 00:00;METAR CYEG 270000Z 14007KT 15SM FEW100 FEW170 SCT250 M05/M08 A2987 RMK AC1AC0CI0 SLP159 SLP159
CYEG;2004-10-27 01:00;METAR CYEG 270100Z 15002KT 15SM FEW150 SCT250 M09/M11 A2987 RMK AC1CI1 SLP161
CYEG;2004-10-27 02:00;METAR CYEG 270200Z 16003KT 15SM FEW150 M10/M11 A2988 RMK AC1 SLP162
CYEG;2004-10-27 03:00;METAR CYEG 270300Z 18006KT 15SM SKC M09/M10 A2989 RMK SLP169
CYEG;2004-10-27 04:00;METAR CYEG 270400Z 17004KT 15SM SKC M12/M13 A2989 RMK FROIN SLP170
CYEG;2004-10-27 05:00;METAR CYEG 270500Z 18006KT 15SM SKC M10/M11 A2988 RMK FROIN SLP166
CYEG;2004-10-27 06:00;METAR CYEG 270600Z 23004KT 15SM SKC M13/M14 A2988 RMK FROIN SLP169
CYEG;2004-10-27 07:00;METAR CYEG 270700Z 23004KT 6SM BR SKC M12/M13 A2988 RMK FROIN SLP167
CYEG;2004-10-27 08:00;METAR CYEG 270800Z 19002KT 3SM BR FEW001 M13/M14 A2987 RMK SF1 FROIN TR SF OVR ARPT SLP166 ARPT SLP166
CYEG;2004-10-27 09:00;METAR CYEG 270900Z 26002KT 1/4SM R30/1200FT FZFG SKC M15/M16 A2987 RMK FG6 SLP165
CYEG;2004-10-27 10:00;METAR CYEG 271000Z 22002KT 1/4SM R30/1600FT FZFG SKC M13/M13 A2987 RMK FG7
CYEG;2004-10-27 11:00;METAR CYEG 271100Z 20002KT 1/4SM R30/4000FT R02/1800FT FZFG SKC M12/M13 A2987 RMK FG7 SLP164 FG7 SLP164
CYEG;2004-10-27 12:00;METAR CYEG 271200Z 18003KT 1/2SM R30/2600FT FZFG SKC M13/M14 A2987 RMK FG7
CYEG;2004-10-27 13:00;METAR CYEG 271300Z 18003KT 1/4SM R30/1100FT FZFG VV001 M11/M11 A2988 RMK FG8 SLP166 SLP166 FROIN SLP167
CYEG;2004-10-27 15:00;METAR CYEG 271500Z 19003KT 3/8SM R30/1100FT FZFG VV003 M08/M08 A2987 RMK FG8 FROIN SLP163 FROIN SLP163
CYEG;2004-10-27 16:00;METAR CYEG 271600Z 24004KT 3/8SM R30/0900FT FZFG VV003 M06/M07 A2986 RMK FG8 FROIN SLP160 FROIN SLP160
CYEG;2004-10-27 17:00;METAR CYEG 271700Z 18003KT 1/2SM R30/1400FT FZFG VV005 M10/M10 A2986 RMK FG8 SLP160 SLP160
CYEG;2004-10-27 18:00;METAR CYEG 271800Z 18002KT 6SM BR FEW003 M08/M08 A2985 RMK SF1 SLP161
CYEG;2004-10-27 19:00;METAR CYEG 271900Z 00000KT 10SM SKC M05/M05 A2984 RMK BR SLP157
CYEG;2004-10-27 20:00;METAR CYEG 272000Z 00000KT 10SM FEW220 M04/M04 A2981 RMK CI1 BR TR CI SLP147
CYEG;2004-10-27 21:00;METAR CYEG 272100Z 11003KT 12SM SKC M03/M04 A2979 RMK BR SLP136
CYEG;2004-10-27 22:00;METAR CYEG 272200Z 12005KT 12SM SKC M02/M05 A2977 RMK BR SLP129
CYEG;2004-10-27 23:00;METAR CYEG 272300Z 15004KT 12SM SKC M01/M04 A2975 RMK HZ SLP122
CYEG;2004-10-28 00:00;METAR CYEG 280000Z 14005KT 12SM SKC M05/M07 A2972 RMK SLP113
CYEG;2004-10-28 01:00;METAR CYEG 280100Z 16003KT 15SM FEW250 M06/M07 A2971 RMK CI1 TR CI SLP108
CYEG;2004-10-28 02:00;METAR CYEG 280200Z 18005KT 15SM SKC M06/M07 A2970 RMK SLP105
CYEG;2004-10-28 03:00;METAR CYEG 280300Z 00000KT 12SM SKC M07/M08 A2970 RMK SLP101
CYEG;2004-10-28 04:00;METAR CYEG 280400Z 00000KT 7SM SKC M08/M08 A2969 RMK BR SLP099
CYEG;2004-10-28 05:00;METAR CYEG 280500Z 17003KT 7SM SKC M10/M11 A2969 RMK BR FROIN SLP098
CYEG;2004-10-28 06:00;METAR CYEG 280600Z 16005KT 7SM SKC M09/M10 A2968 RMK BR SLP098
CYEG;2004-10-28 07:00;METAR CYEG 280700Z 17005KT 8SM SKC M09/M09 A2968 RMK BR SLP098
CYEG;2004-10-28 08:00;METAR CYEG 280800Z 18004KT 6SM BR SKC M12/M12 A2968 RMK FROIN SLP097
CYEG;2004-10-28 09:00;METAR CYEG 280900Z 18005KT 6SM BR SKC M11/M12 A2968 RMK SLP096
CYEG;2004-10-28 10:00;METAR CYEG 281000Z 18005KT 5SM BR SKC M10/M11 A2969 RMK FROIN SLP097
CYEG;2004-10-28 11:00;METAR CYEG 281100Z 18004KT 5SM FU FEW140 M12/M12 A2969 RMK AC1 BR SLP098
CYEG;2004-10-28 12:00;METAR CYEG 281200Z 21003KT 7SM BKN060 M10/M10 A2970 RMK SC4 FU SLP104
CYEG;2004-10-28 13:00;METAR CYEG 281300Z 20003KT 8SM SCT060 M07/M07 A2971 RMK SC2 FU FROIN SLP107
CYEG;2004-10-28 14:00;METAR CYEG 281400Z 22003KT 12SM FEW060 BKN092 M04/M04 A2972 RMK SC1AC6 FROIN SLP110 SLP110
CYEG;2004-10-28 15:00;METAR CYEG 281500Z 28003KT 15SM BKN098 M02/M02 A2974 RMK AC7 SLP110
CYEG;2004-10-28 16:00;METAR CYEG 281600Z 27002KT 15SM BKN094 M00/M02 A2975 RMK AC7 SLP115
CYEG;2004-10-28 17:00;METAR CYEG 281700Z 26003KT 15SM SCT061 BKN090 01/M01 A2975 RMK SC3AC4 SLP114
CYEG;2004-10-28 18:00;METAR CYEG 281800Z 29004KT 15SM FEW060 BKN100 02/M01 A2976 RMK SC2AC5 SLP115
CYEG;2004-10-28 19:00;METAR CYEG 281900Z 27002KT 15SM FEW060 BKN100 BKN130 02/M01 A2976 RMK SC1AC5AC1 SLP116 SLP116
CYEG;2004-10-28 20:00;METAR CYEG 282000Z 27004KT 15SM BKN100 BKN130 02/M01 A2976 RMK AC6AC1
CYEG;2004-10-28 21:00;METAR CYEG 282100Z 28004KT 15SM BKN093 03/M01 A2976 RMK AC7 SLP116
CYEG;2004-10-28 22:00;METAR CYEG 282200Z 25003KT 15SM BKN110 BKN240 02/M01 A2975 RMK AC6CI1
CYEG;2004-10-28 23:00;METAR CYEG 282300Z 24004KT 15SM BKN110 OVC240 02/M00 A2976 RMK AC7CI0
CYEG;2004-10-29 00:00;METAR CYEG 290000Z 24002KT 15SM BKN110 BKN240 02/M00 A2977 RMK AC6CI1 SLP118
CYEG;2004-10-29 01:00;METAR CYEG 290100Z 25002KT 15SM SCT120 BKN220 01/M01 A2977 RMK AC2CI3 SLP121
CYEG;2004-10-29 02:00;METAR CYEG 290200Z 26002KT 15SM FEW140 BKN240 M01/M02 A2978 RMK AC2CI2 SLP124
CYEG;2004-10-29 03:00;METAR CYEG 290300Z 26002KT 15SM BKN200 M01/M02 A2980 RMK CI3 SLP126
CYEG;2004-10-29 04:00;METAR CYEG 290400Z 24003KT 15SM FEW200 M03/M04 A2981 RMK CI1 SLP128
CYEG;2004-10-29 05:00;METAR CYEG 290500Z 24003KT 15SM FEW200 M04/M05 A2983 RMK CI0 SLP134
CYEG;2004-10-29 06:00;METAR CYEG 290600Z CCA 23003KT 1/4SM R30/3500FT R02/1400FT FZFG FEW200 M05/M06 A2984 RMK FG1CI1 SLP139 A2984 RMK FG1CI1 SLP139
CYEG;2004-10-29 07:00;METAR CYEG 290700Z 23003KT 1/4SM R30/1100FT R02/2000FT FZFG BKN200 M06/M06 A2984 RMK FG1CI2 FROIN SLP140 RMK FG1CI2 FROIN SLP140 A2985 RMK FG1CI2 VIS E QUAD 3/4 SM FROIN SLP143 RMK FG1CI2 VIS E QUAD 3/4 SM SLP143
CYEG;2004-10-29 09:00;METAR CYEG 290900Z 25005KT 3SM R30/4000FT R02/4000FT BR BKN200 M03/M03 A2986 RMK CI2 VIS N-NE 11/2 SM SLP144 CI2 VIS N-NE 11/2 SM SLP144
CYEG;2004-10-29 10:00;METAR CYEG 291000Z 24003KT 4SM R30/2200FT BR FEW200 M03/M03 A2985 RMK CI1 SLP142 A2986 RMK FG1CI1 VIS NE-E 1 SM FROIN SLP143
CYEG;2004-10-29 12:00;METAR CYEG 291200Z 22003KT 1/4SM R30/1200FT R02/2000FT FZFG SKC M06/M06 A2986 RMK FG2 VIR E 1/2 SM FROIN SLP148 FG2 VIR E 1/2 SM FROIN SLP148
CYEG;2004-10-29 13:00;METAR CYEG 291300Z 19005KT 1/2SM R30/P6000FT R02/P6000FT FZFG SKC M05/M05 A2985 RMK FG1 VIS E-SE 3 SW-NW-N 1/4 SM SLP144 RMK FG1 VIS E-SE 3 SW-NW-N 1/4 SM SLP144
CYEG;2004-10-29 14:00;METAR CYEG 291400Z 19005KT 3SM BR FEW150 M06/M06 A2983 RMK FG1AC1 VIS SW-W-N-NE 1 SM TR AC FROIN SLP139 SM TR AC FROIN SLP139
CYEG;2004-10-29 15:00;METAR CYEG 291500Z 19002KT 3SM R02/5500FT BR SKC M09/M09 A2984 RMK VIS W- N 1 S-SE 6 SM FROIN SLP147 S-SE 6 SM FROIN SLP147
CYEG;2004-10-29 16:00;METAR CYEG 291600Z 18003KT 8SM SKC M06/M06 A2984 RMK BR SLP146
CYEG;2004-10-29 17:00;METAR CYEG 291700Z 18003KT 12SM FEW250 M03/M04 A2982 RMK CI1 BR SLP141
CYEG;2004-10-29 18:00;METAR CYEG 291800Z 16003KT 15SM FEW250 00/M01 A2978 RMK CI0 SLP120
CYEG;2004-10-29 19:00;METAR CYEG 291900Z 17006KT 15SM SCT250 01/M01 A2977 RMK CI2 SLP118
CYEG;2004-10-29 20:00;METAR CYEG 292000Z 16009KT 15SM BKN250 02/M02 A2973 RMK CI2 SLP106
CYEG;2004-10-29 21:00;METAR CYEG 292100Z 17008KT 15SM BKN250 03/M01 A2970 RMK CI3 SLP090
CYEG;2004-10-29 22:00;METAR CYEG 292200Z 15011KT 15SM BKN250 03/M01 A2967 RMK CI6 SLP080
CYEG;2004-10-29 23:00;METAR CYEG 292300Z 16011KT 15SM SCT200 BKN240 03/M01 A2964 RMK CI3CI2 SLP071
CYEG;2004-10-30 00:00;METAR CYEG 300000Z 16012KT 15SM SCT200 BKN240 03/M01 A2960 RMK CI2CI4 SLP056
CYEG;2004-10-30 01:00;METAR CYEG 300100Z 17009KT 15SM FEW180 BKN210 03/M01 A2959 RMK AC2CI5 SLP053
CYEG;2004-10-30 02:00;METAR CYEG 300200Z 17009KT 15SM FEW180 BKN220 02/M01 A2957 RMK AC2CI5 SLP046
CYEG;2004-10-30 03:00;METAR CYEG 300300Z 20004KT 15SM BKN150 OVC220 02/M01 A2953 RMK AC5CI3 SLP038
CYEG;2004-10-30 04:00;METAR CYEG 300400Z 16007KT 15SM OVC120 02/M01 A2949 RMK AC8 SLP025
CYEG;2004-10-30 05:00;METAR CYEG 300500Z 18008KT 15SM FEW120 M01/M03 A2948 RMK AC2 SLP021
CYEG;2004-10-30 06:00;METAR CYEG 300600Z 18007KT 15SM FEW120 M01/M03 A2945 RMK AC1 AURBO SLP004
CYEG;2004-10-30 07:00;METAR CYEG 300700Z 18004KT 15SM SKC M02/M04 A2943 RMK AURBO SLP996
CYEG;2004-10-30 08:00;METAR CYEG 300800Z 16004KT 15SM FEW100 FEW250 M04/M06 A2940 RMK AC1CI0 SLP988
CYEG;2004-10-30 09:00;METAR CYEG 300900Z 18002KT 15SM BKN150 BKN220 M04/M06 A2940 RMK AS5CI1 SLP987
CYEG;2004-10-30 10:00;METAR CYEG 301000Z 18002KT 15SM SCT150 BKN230 M04/M06 A2940 RMK AC3CI2 SLP985
CYEG;2004-10-30 11:00;METAR CYEG 301100Z 17002KT 15SM BKN140 OVC220 M05/M06 A2939 RMK AC6CI2 SLP983
CYEG;2004-10-30 12:00;METAR CYEG 301200Z 00000KT 15SM BKN085 OVC140 M04/M06 A2938 RMK AC6AC2 SLP977
CYEG;2004-10-30 13:00;METAR CYEG 301300Z 21003KT 15SM BKN080 OVC120 M02/M04 A2937 RMK AC5AC2 SLP974
CYEG;2004-10-30 14:00;METAR CYEG 301400Z 00000KT 15SM FEW080 BKN130 BKN220 M02/M04 A2937 RMK AC2AS2CI2 VIRGA E-SE SLP976 VIRGA E-SE SLP976
CYEG;2004-10-30 15:00;METAR CYEG 301500Z 18004KT 15SM FEW035 BKN090 BKN120 BKN220 M02/M04 A2938 RMK SC1AC5AS1CI1 TR SC VIRGA NW-N-NE-SE SLP980 SC1AC5AS1CI1 TR SC VIRGA NW-N-NE-SE SLP980
CYEG;2004-10-30 16:00;METAR CYEG 301600Z 00000KT 15SM BKN080 BKN130 BKN220 M03/M04 A2941 RMK AC5AS1CI1 VIRGA N QUAD SLP989 VIRGA N QUAD SLP989
CYEG;2004-10-30 17:00;METAR CYEG 301700Z 00000KT 15SM SCT046 BKN063 BKN120 OVC220 M00/M03 A2942 RMK SC3SC2AS2CI1 VIRGA ALQDS SLP991 SC3SC2AS2CI1 VIRGA ALQDS SLP991
CYEG;2004-10-30 18:00;METAR CYEG 301800Z 26003KT 15SM SCT040 BKN070 BKN110 BKN220 02/M02 A2942 RMK SC3AC2AS1CI1 VIRGA ALQDS SLP992 SC3AC2AS1CI1 VIRGA ALQDS SLP992
CYEG;2004-10-30 19:00;METAR CYEG 301900Z 00000KT 15SM SCT035 BKN090 BKN220 04/M01 A2942 RMK SC3AC2CI1 VIRGA ALQDS SLP992 VIRGA ALQDS SLP992
CYEG;2004-10-30 20:00;METAR CYEG 302000Z 26004KT 15SM FEW035 SCT090 BKN220 04/M01 A2943 RMK SC1AC2CI1 SLP995 SLP995
CYEG;2004-10-30 21:00;METAR CYEG 302100Z 29009KT 15SM VCSH FEW036 BKN070 BKN110 BKN220 04/M00 A2945 RMK SC2AC2AC1CI1 ACC EMBD SH/VIRGA SW-W-NW SLP004 SC2AC2AC1CI1 ACC EMBD SH/VIRGA SW-W-NW SLP004 VIRGA ALQDS SH SW-W SLP014
CYEG;2004-10-30 23:00;METAR CYEG 302300Z 30009KT 7SM -SHRASN FEW012 BKN036 OVC060 01/00 A2952 RMK CF1SC6SC2 VIS S 15 CVCTV CLD EMBD SLP025
CYEG;2004-10-31 00:00;METAR CYEG 310000Z 26005KT 15SM BKN040 BKN060 OVC090 01/M00 A2954 RMK SC6SC2AC1 CVCTV CLD EMBD SH DIST N+S VIRGA ALQDS SLP034 CVCTV CLD EMBD SH DIST N+S VIRGA ALQDS SLP034
CYEG;2004-10-31 01:00;METAR CYEG 310100Z 27007KT 15SM SCT060 BKN110 BKN160 02/M01 A2957 RMK SC3AC2AS2 VIRGA/SH NE-SE SLP043 VIRGA/SH NE-SE SLP043
CYEG;2004-10-31 02:00;METAR CYEG 310200Z 24006KT 15SM FEW060 SCT120 BKN180 00/M02 A2958 RMK SC2AC2AC2 SLP048 SLP048
CYEG;2004-10-31 03:00;METAR CYEG 310300Z 25005KT 15SM OVC120 00/M02 A2959 RMK AS8 SLP053
CYEG;2004-10-31 04:00;METAR CYEG 310400Z 20003KT 15SM OVC120 M01/M02 A2960 RMK AS6 SLP056
CYEG;2004-10-31 05:00;METAR CYEG 310500Z 21005KT 15SM BKN120 M02/M03 A2962 RMK AS4 SLP062
CYEG;2004-10-31 06:00;METAR CYEG 310600Z 21004KT 15SM FEW120 M03/M05 A2964 RMK AS0 SLP066
CYEG;2004-10-31 07:00;METAR CYEG 310700Z 21004KT 15SM SKC M03/M05 A2965 RMK SLP070
CYEG;2004-10-31 08:00;METAR CYEG 310800Z 24005KT 15SM SKC M04/M06 A2966 RMK SLP073
CYEG;2004-10-31 09:00;METAR CYEG 310900Z 23005KT 15SM SKC M05/M07 A2967 RMK SLP080
CYEG;2004-10-31 10:00;METAR CYEG 311000Z 22002KT 15SM SKC M04/M07 A2969 RMK SLP084
CYEG;2004-10-31 11:00;METAR CYEG 311100Z 20003KT 15SM FEW100 M06/M09 A2970 RMK AC1 SLP089
CYEG;2004-10-31 12:00;METAR CYEG 311200Z 23003KT 15SM SCT090 M04/M08 A2972 RMK AC4 SLP099
CYEG;2004-10-31 13:00;METAR CYEG 311300Z 25007KT 15SM BKN086 M02/M06 A2974 RMK AC6 SLP105
CYEG;2004-10-31 14:00;METAR CYEG 311400Z 26006KT 15SM FEW090 SCT150 M03/M07 A2976 RMK AC2AS1 VIRGA SLP110 SLP110
CYEG;2004-10-31 15:00;METAR CYEG 311500Z 26008KT 15SM FEW075 BKN210 M03/M07 A2978 RMK AS2CI1 SLP118
CYEG;2004-10-31 16:00;METAR CYEG 311600Z 26006KT 15SM FEW075 BKN210 M02/M07 A2980 RMK AS1CI1 SLP125
CYEG;2004-10-31 17:00;METAR CYEG 311700Z 27003KT 15SM FEW035 FEW210 M02/M07 A2982 RMK SC1CI1 SLP132
CYEG;2004-10-31 18:00;METAR CYEG 311800Z 28004KT 15SM FEW035 FEW210 00/M06 A2984 RMK CU1CI1 TCU ASOCTD S SLP140 S SLP140
CYEG;2004-10-31 19:00;METAR CYEG 311900Z 26005KT 15SM FEW035TCU FEW210 02/M05 A2985 RMK TCU1CI1 TCU/VIRGA S SLP143
CYEG;2004-10-31 20:00;METAR CYEG 312000Z 26006KT 15SM FEW035TCU FEW130 SCT210 02/M04 A2986 RMK TCU1AS1CI1 TR TCU DIST SW SLP146
CYEG;2004-10-31 21:00;METAR CYEG 312100Z 26004KT 15SM FEW035TCU FEW130 BKN230 03/M04 A2987 RMK TCU1AS1CI1 CB ASOCTD DIST S-SW SLP149
CYEG;2004-10-31 22:00;METAR CYEG 312200Z 26004KT 15SM FEW035TCU FEW110 BKN230 03/M05 A2988 RMK TCU1AS2CI1 CB/SH/VIRGA ASOCTD DIST SW SLP153
CYEG;2004-10-31 23:00;METAR CYEG 312300Z 26006KT 15SM FEW035TCU BKN150 BKN230 00/M05 A2990 RMK TCU1AC4CI1 SH/VIRGA S-SW SLP159 TCU1AC4CI0 SH/VIRGA S+SW SLP171
CYEG;2004-11-01 01:00;METAR CYEG 010100Z 30006KT 15SM FEW035TCU BKN150 BKN230 M00/M07 A2997 RMK TCU1AC2CI0 VIRGA S + W SLP184
CYEG;2004-11-01 02:00;METAR CYEG 010200Z 26004KT 15SM FEW130 SCT170 M02/M07 A2999 RMK AC1AC2 SLP192
CYEG;2004-11-01 03:00;METAR CYEG 010300Z 25006KT 15SM FEW080 BKN110 M03/M07 A3002 RMK AC1AC4 SLP207
CYEG;2004-11-01 04:00;METAR CYEG 010400Z 24006KT 15SM FEW070 FEW110 M05/M08 A3005 RMK AC1AC1 SLP214
CYEG;2004-11-01 05:00;METAR CYEG 010500Z 25008KT 15SM FEW060 FEW110 FEW220 M04/M08 A3008 RMK SC1AC1CI0 SLP224 SLP224
CYEG;2004-11-01 06:00;METAR CYEG 010600Z 27006KT 15SM FEW060 FEW110 M05/M09 A3010 RMK SC0AC1 SLP232
CYEG;2004-11-01 07:00;METAR CYEG 010700Z 24007KT 15SM SKC M07/M11 A3012 RMK SLP238
CYEG;2004-11-01 08:00;METAR CYEG 010800Z 25006KT 15SM SKC M07/M11 A3014 RMK SLP244
CYEG;2004-11-01 09:00;METAR CYEG 010900Z 24006KT 15SM SKC M08/M11 A3016 RMK SLP251
CYEG;2004-11-01 10:00;METAR CYEG 011000Z 24004KT 15SM SKC M07/M11 A3016 RMK SLP253
CYEG;2004-11-01 11:00;METAR CYEG 011100Z 21005KT 15SM SKC M08/M11 A3017 RMK SLP256
CYEG;2004-11-01 12:00;METAR CYEG 011200Z 21005KT 15SM SKC M08/M12 A3017 RMK SLP259
CYEG;2004-11-01 13:00;METAR CYEG 011300Z 18007KT 15SM FEW250 M08/M12 A3017 RMK CI1 SLP258
CYEG;2004-11-01 14:00;METAR CYEG 011400Z 17008KT 15SM FEW250 M08/M12 A3016 RMK CI1 SLP256
CYEG;2004-11-01 15:00;METAR CYEG 011500Z 17008KT 15SM SCT250 M08/M12 A3014 RMK CI0 SLP251
CYEG;2004-11-01 16:00;METAR CYEG 011600Z 17007KT 15SM SCT250 M07/M11 A3013 RMK CI0 SLP246
CYEG;2004-11-01 17:00;METAR CYEG 011700Z 17010KT 15SM BKN250 M04/M09 A3009 RMK CI2 SLP236
CYEG;2004-11-01 18:00;METAR CYEG 011800Z 17009KT 15SM BKN250 M03/M09 A3006 RMK CI2 SLP219
CYEG;2004-11-01 19:00;METAR CYEG 011900Z 17011KT 15SM BKN250 M02/M09 A3002 RMK CI2 SLP208
CYEG;2004-11-01 20:00;METAR CYEG 012000Z 16009KT 15SM OVC250 M01/M08 A2998 RMK CI6 SLP195
CYEG;2004-11-01 21:00;METAR CYEG 012100Z 16011KT 15SM FEW150 OVC220 M01/M07 A2995 RMK AC2CI6 SLP182
CYEG;2004-11-01 22:00;METAR CYEG 012200Z 16009KT 15SM SCT150 OVC220 M00/M06 A2992 RMK AS4CI3 SLP172
CYEG;2004-11-01 23:00;METAR CYEG 012300Z 14010KT 15SM FEW150 BKN220 00/M05 A2988 RMK AC2CI2 SLP160
CYEG;2004-11-02 00:00;METAR CYEG 020000Z 16008KT 15SM FEW150 BKN220 M01/M06 A2987 RMK AC2CI1 SLP154
CYEG;2004-11-02 01:00;METAR CYEG 020100Z 16008KT 15SM FEW100 SCT150 BKN220 M01/M06 A2983 RMK AC2AC1CI1 SLP141 SLP141
CYEG;2004-11-02 02:00;METAR CYEG 020200Z 17008KT 15SM FEW100 SCT220 M02/M06 A2982 RMK AC2CI1 SLP140
CYEG;2004-11-02 03:00;METAR CYEG 020300Z 16007KT 15SM FEW100 BKN220 M01/M06 A2980 RMK AC1CI2 SLP130
CYEG;2004-11-02 04:00;METAR CYEG 020400Z 18004KT 15SM FEW100 OVC220 M04/M07 A2980 RMK AC2CI4
CYEG;2004-11-02 05:00;METAR CYEG 020500Z 17005KT 15SM FEW100 BKN220 M04/M07 A2979 RMK AC1CI2 SLP128
CYEG;2004-11-02 06:00;METAR CYEG 020600Z 19006KT 15SM BKN200 M05/M08 A2979 RMK CI2 SLP127
CYEG;2004-11-02 07:00;METAR CYEG 020700Z 19003KT 15SM SCT180 OVC250 M05/M08 A2978 RMK AS3CI3 SLP123
CYEG;2004-11-02 08:00;METAR CYEG 020800Z 18006KT 15SM FEW090 BKN170 OVC250 M04/M07 A2978 RMK AC1AS4CS1 SLP123
CYEG;2004-11-02 09:00;METAR CYEG 020900Z 19003KT 15SM BKN150 OVC250 M04/M07 A2977 RMK AS5CS2 SLP118
CYEG;2004-11-02 10:00;METAR CYEG 021000Z 18005KT 15SM BKN150 OVC250 M03/M06 A2976 RMK AS5CS1 SLP113
CYEG;2004-11-02 11:00;METAR CYEG 021100Z 18005KT 15SM BKN120 OVC250 M02/M06 A2975 RMK AS6CS1 SLP110
CYEG;2004-11-02 12:00;METAR CYEG 021200Z 20006KT 15SM BKN100 OVC250 M01/M05 A2976 RMK AS6CS1
CYEG;2004-11-02 13:00;METAR CYEG 021300Z 18005KT 15SM BKN068 OVC250 M01/M04 A2976 RMK AS6CS1
CYEG;2004-11-02 14:00;METAR CYEG 021400Z 28002KT 15SM FEW040 BKN075 BKN250 M02/M04 A2975 RMK SC1AS7CS1 SLP108 SLP108
CYEG;2004-11-02 15:00;METAR CYEG 021500Z 19005KT 15SM BKN070 BKN250 M01/M04 A2975 RMK AC5CI1 ACC ASOCTD N SLP109 N SLP109
CYEG;2004-11-02 16:00;METAR CYEG 021600Z 21004KT 15SM SCT070 BKN250 M02/M05 A2975 RMK AC2CI2 SLP109
CYEG;2004-11-02 17:00;METAR CYEG 021700Z 22004KT 15SM FEW070 BKN080 BKN230 M01/M05 A2976 RMK AC2AS2CS2 SLP110
CYEG;2004-11-02 18:00;METAR CYEG 021800Z 23003KT 15SM FEW070 BKN080 BKN230 02/M03 A2975 RMK AC2AS2CS2 SLP109
CYEG;2004-11-02 19:00;METAR CYEG 021900Z 26007KT 15SM FEW070 BKN120 BKN230 03/M03 A2975 RMK AC2AS4CS1 SLP109
CYEG;2004-11-02 20:00;METAR CYEG 022000Z 25007KT 15SM BKN070 BKN120 03/M02 A2975 RMK AC5AS2 SLP107
CYEG;2004-11-02 21:00;METAR CYEG 022100Z 22002KT 15SM SCT070 BKN110 03/M02 A2973 RMK AC4AS3 SLP098
CYEG;2004-11-02 22:00;METAR CYEG 022200Z 19003KT 15SM SCT070 BKN100 03/M02 A2973 RMK AC3AS4
CYEG;2004-11-02 23:00;METAR CYEG 022300Z 19002KT 15SM BKN100 BKN120 03/M02 A2973 RMK AC5AS2 SLP100
CYEG;2004-11-03 00:00;METAR CYEG 030000Z 19006KT 15SM BKN100 BKN120 02/M02 A2973 RMK AC3AS2 SLP098
CYEG;2004-11-03 01:00;METAR CYEG 030100Z 18004KT 15SM SCT100 BKN120 02/M03 A2974 RMK AC3AS4 SLP102
CYEG;2004-11-03 02:00;METAR CYEG 030200Z 23008KT 15SM BKN100 BKN120 02/M03 A2976 RMK AC5AS2 VIRGA W SLP107 SLP107
CYEG;2004-11-03 03:00;METAR CYEG 030300Z 26008KT 15SM SCT110 BKN230 02/M04 A2978 RMK AC2CS0 SLP116
CYEG;2004-11-03 04:00;METAR CYEG 030400Z 26008KT 15SM FEW130 BKN230 01/M05 A2982 RMK AC1CS0 SLP129
CYEG;2004-11-03 05:00;METAR CYEG 030500Z 27007KT 15SM FEW150 FEW250 M01/M07 A2984 RMK AC1CI0 SLP136
CYEG;2004-11-03 06:00;METAR CYEG 030600Z 27006KT 15SM FEW150 FEW250 M01/M07 A2987 RMK AC1CI1 SLP147
CYEG;2004-11-03 07:00;METAR CYEG 030700Z 28006KT 15SM FEW150 FEW250 M00/M07 A2989 RMK AC1CI0 SLP154
CYEG;2004-11-03 08:00;METAR CYEG 030800Z 27008KT 15SM FEW150 FEW250 M04/M09 A2993 RMK AC1CI0 SLP165
CYEG;2004-11-03 09:00;METAR CYEG 030900Z 27006KT 15SM SCT150 BKN250 M05/M09 A2995 RMK AC2CI0 SLP176
CYEG;2004-11-03 10:00;METAR CYEG 031000Z 27008KT 15SM BKN150 BKN250 M04/M09 A2997 RMK AC2CI1 SLP182
CYEG;2004-11-03 11:00;METAR CYEG 031100Z 21005KT 15SM FEW150 SCT250 M06/M10 A2998 RMK AC0CI0 SLP186
CYEG;2004-11-03 12:00;METAR CYEG 031200Z 21002KT 15SM FEW150 M05/M09 A3000 RMK AC0 SLP195
CYEG;2004-11-03 13:00;METAR CYEG 031300Z 22004KT 15SM SKC M08/M12 A3001 RMK SLP199
CYEG;2004-11-03 14:00;METAR CYEG 031400Z 20006KT 15SM FEW250 M07/M11 A3002 RMK CI0 SLP201
CYEG;2004-11-03 15:00;METAR CYEG 031500Z 18006KT 15SM FEW150 SCT250 M07/M11 A3003 RMK AC1CI1 SLP207
CYEG;2004-11-03 16:00;METAR CYEG 031600Z 23002KT 15SM SCT080 BKN250 M04/M08 A3004 RMK AC4CI2 SLP211
CYEG;2004-11-03 17:00;METAR CYEG 031700Z 21004KT 15SM SCT090 BKN250 M03/M07 A3004 RMK AC4CI2 VIRGA SLP212 SLP212
CYEG;2004-11-03 18:00;METAR CYEG 031800Z 27008KT 15SM SCT090 BKN250 M00/M07 A3006 RMK AC4CI1
CYEG;2004-11-03 19:00;METAR CYEG 031900Z 27009KT 15SM FEW050 BKN075 02/M06 A3006 RMK SC1AC6 VIRGA E SLP214 SLP214
CYEG;2004-11-03 20:00;METAR CYEG 032000Z 27008KT 15SM BKN080 BKN250 02/M07 A3007 RMK AC5CI0 VIRGA SLP215
CYEG;2004-11-03 21:00;METAR CYEG 032100Z 29008KT 15SM BKN070 BKN250 04/M05 A3007 RMK AC6CI0 SLP218
CYEG;2004-11-03 22:00;METAR CYEG 032200Z 33006KT 15SM SCT070 SCT250 04/M04 A3008 RMK AC2CI0 SLP219
CYEG;2004-11-03 23:00;METAR CYEG 032300Z 00000KT 15SM FEW070 BKN250 02/M04 A3008 RMK AC1CI1 SLP221
CYEG;2004-11-04 00:00;METAR CYEG 040000Z 18007KT 15SM FEW070 BKN210 M00/M05 A3008 RMK AC1CI1 SLP224
CYEG;2004-11-04 01:00;METAR CYEG 040100Z 18008KT 15SM FEW070 FEW210 M02/M06 A3008 RMK AC1CI1 SLP223
CYEG;2004-11-04 02:00;METAR CYEG 040200Z 18008KT 15SM FEW210 M03/M07 A3007 RMK CI1 SLP222
CYEG;2004-11-04 03:00;METAR CYEG 040300Z 19010KT 15SM FEW080 FEW210 M02/M07 A3007 RMK AC1CI1
CYEG;2004-11-04 04:00;METAR CYEG 040400Z 23010KT 15SM FEW240 M02/M08 A3005 RMK CI1 SLP219
CYEG;2004-11-04 05:00;METAR CYEG 040500Z 22010KT 15SM FEW240 M01/M07 A3003 RMK CI1 SLP212
CYEG;2004-11-04 06:00;METAR CYEG 040600Z 22010KT 15SM SCT240 M00/M07 A3002 RMK CI2 SLP198
CYEG;2004-11-04 07:00;METAR CYEG 040700Z 23007KT 15SM SCT240 M00/M07 A3001 RMK CI2 SLP196
CYEG;2004-11-04 08:00;METAR CYEG 040800Z 22010KT 15SM SCT250 01/M07 A2998 RMK CI1 SLP187
CYEG;2004-11-04 09:00;METAR CYEG 040900Z 21009KT 15SM BKN250 01/M07 A2997 RMK CI2 SLP177
CYEG;2004-11-04 10:00;METAR CYEG 041000Z 18009KT 15SM BKN250 M00/M07 A2994 RMK CI3 SLP167
CYEG;2004-11-04 11:00;METAR CYEG 041100Z 19011KT 15SM BKN240 00/M06 A2991 RMK CI5 SLP159
CYEG;2004-11-04 12:00;METAR CYEG 041200Z 19009KT 15SM FEW120 BKN240 00/M06 A2989 RMK AC1CI3 TR AC SLP154
CYEG;2004-11-04 13:00;METAR CYEG 041300Z 18008KT 15SM SCT180 OVC240 00/M06 A2988 RMK AS3CI3 SLP151
CYEG;2004-11-04 14:00;METAR CYEG 041400Z 18008KT 15SM BKN180 01/M04 A2986 RMK AS6 SLP144
CYEG;2004-11-04 15:00;METAR CYEG 041500Z 17007KT 15SM BKN180 OVC240 02/M04 A2985 RMK AC6CS2 SLP142
CYEG;2004-11-04 16:00;METAR CYEG 041600Z 18007KT 15SM FEW150 BKN180 OVC220 02/M03 A2984 RMK AC2AS4CS2 SLP137 SLP137
CYEG;2004-11-04 17:00;METAR CYEG 041700Z 20007KT 15SM FEW030 FEW160 OVC220 04/M04 A2982 RMK CU1AC2CS5 TR CU SLP132 TR CU SLP132
CYEG;2004-11-04 18:00;METAR CYEG 041800Z 23008KT 15SM SCT160 OVC210 06/M03 A2981 RMK AC3CS4 SLP121
CYEG;2004-11-04 19:00;METAR CYEG 041900Z 24011KT 15SM FEW160 BKN210 OVC250 07/M03 A2979 RMK AC2CS2CS3 SLP116 SLP116
CYEG;2004-11-04 20:00;METAR CYEG 042000Z 24011KT 15SM FEW160 BKN200 OVC250 07/M02 A2977 RMK AC2CI2CS3 SLP109 SLP109
CYEG;2004-11-04 21:00;METAR CYEG 042100Z 25012KT 15SM FEW160 SCT200 OVC250 07/M02 A2976 RMK AC1CI2CS3 SLP100 SLP100
CYEG;2004-11-04 22:00;METAR CYEG 042200Z 25012KT 15SM FEW160 BKN190 OVC250 07/M02 A2975 RMK AC1AS5CS2 SLP099 SLP099
CYEG;2004-11-04 23:00;METAR CYEG 042300Z 24008KT 15SM FEW150 BKN180 OVC250 06/M02 A2976 RMK AC2AS5CS1 SLP100
CYEG;2004-11-05 00:00;METAR CYEG 050000Z 23010KT 15SM SCT140 BKN170 OVC250 05/M02 A2974 RMK AC2AS2CS2 SLP097 SLP097
CYEG;2004-11-05 01:00;METAR CYEG 050100Z 24009KT 15SM FEW130 BKN150 BKN250 05/M02 A2972 RMK AC2AS4CI1 SLP092 SLP092
CYEG;2004-11-05 02:00;METAR CYEG 050200Z 23008KT 15SM FEW150 BKN250 04/M02 A2971 RMK AC2CI1 SLP088
CYEG;2004-11-05 03:00;METAR CYEG 050300Z 22003KT 15SM FEW150 BKN250 03/M03 A2970 RMK AC1CI2 SLP085
CYEG;2004-11-05 04:00;METAR CYEG 050400Z 20005KT 15SM FEW150 BKN250 03/M03 A2968 RMK AC1CI2 SLP077
CYEG;2004-11-05 05:00;METAR CYEG 050500Z 23005KT 15SM FEW140 BKN250 03/M03 A2967 RMK AC2CI2 SLP075
CYEG;2004-11-05 06:00;METAR CYEG 050600Z 22009KT 15SM SCT160 BKN250 03/M03 A2964 RMK AC2CI2 SLP061
CYEG;2004-11-05 07:00;METAR CYEG 050700Z 23006KT 15SM SCT150 BKN250 03/M04 A2963 RMK AC2CI1 SLP056
CYEG;2004-11-05 08:00;METAR CYEG 050800Z 21003KT 15SM FEW150 BKN250 03/M04 A2963 RMK AC2CI2 SLP055
CYEG;2004-11-05 09:00;METAR CYEG 050900Z 18006KT 15SM SCT140 BKN250 01/M04 A2962 RMK AC3CI2 SLP052
CYEG;2004-11-05 10:00;METAR CYEG 051000Z 19006KT 15SM SCT140 BKN250 01/M04 A2961 RMK AC2CI2 SLP050
CYEG;2004-11-05 11:00;METAR CYEG 051100Z 19008KT 15SM SCT120 BKN250 03/M03 A2960 RMK AC2CI2 SLP048
CYEG;2004-11-05 12:00;METAR CYEG 051200Z 20006KT 15SM FEW110 BKN250 01/M04 A2959 RMK AC2CI1 SLP045
CYEG;2004-11-05 13:00;METAR CYEG 051300Z 20006KT 15SM FEW093 BKN110 02/M03 A2960 RMK AC2AC3
CYEG;2004-11-05 14:00;METAR CYEG 051400Z 18005KT 15SM SCT097 BKN130 03/M02 A2959 RMK AC4AC2 SLP046
CYEG;2004-11-05 16:00;METAR CYEG 051600Z 16005KT 15SM SCT085 BKN096 BKN250 03/M01 A2959 RMK AC3AC2CI1 SLP045
CYEG;2004-11-05 17:00;METAR CYEG 051700Z 18009KT 15SM SCT090 BKN100 BKN250 04/M00 A2958 RMK AC3AC3CI1 SLP042 SLP042
CYEG;2004-11-05 18:00;METAR CYEG 051800Z 13007KT 15SM BKN100 BKN130 BKN250 04/M00 A2955 RMK AC5AC2CI0 SLP032 SLP032
CYEG;2004-11-05 19:00;METAR CYEG 051900Z 16003KT 15SM FEW080 BKN100 BKN250 04/00 A2952 RMK AC2AC4CI1 SLP023 SLP023
CYEG;2004-11-05 20:00;METAR CYEG 052000Z 00000KT 15SM FEW080 BKN110 04/00 A2952 RMK AC2AS5 SLP021
CYEG;2004-11-05 21:00;METAR CYEG 052100Z 10005KT 15SM SCT080 BKN110 04/00 A2949 RMK AC3AS4 SLP010
CYEG;2004-11-05 22:00;METAR CYEG 052200Z 02003KT 15SM BKN080 BKN110 04/01 A2950 RMK AC5AS2 VIRGA N-E SLP015 SLP015
CYEG;2004-11-05 23:00;METAR CYEG 052300Z 18005KT 15SM SCT080 BKN110 BKN210 04/00 A2948 RMK AC2AC2CI1 SLP008 SLP008
CYEG;2004-11-06 01:00;METAR CYEG 060100Z 36004KT 15SM FEW080 BKN100 BKN210 01/M00 A2951 RMK AC2AC2CI2 SLP018 SLP018
CYEG;2004-11-06 02:00;METAR CYEG 060200Z 19006KT 15SM FEW080 BKN100 BKN240 02/00 A2951 RMK AC2AC4CI2 VIRGA SLP018 VIRGA SLP018
CYEG;2004-11-06 03:00;METAR CYEG 060300Z 17004KT 15SM FEW080 SCT140 BKN220 02/00 A2950 RMK AC2AC2CI2 SLP016 SLP016
CYEG;2004-11-06 04:00;METAR CYEG 060400Z 21008KT 15SM FEW120 BKN170 BKN220 03/00 A2952 RMK AC2AC2CI2 SLP022 SLP022 SLP063
CYEG;2004-11-06 07:00;METAR CYEG 060700Z 28004KT 15SM OVC040 02/01 A2967 RMK SC8 SLP072
CYEG;2004-11-06 08:00;METAR CYEG 060800Z 31008KT 15SM OVC048 03/01 A2970 RMK SC8 VIRGA SLP082
CYEG;2004-11-06 09:00;METAR CYEG 060900Z 32013G20KT 15SM SCT045 OVC064 03/M00 A2975 RMK SC3SC5 VIRGA SLP099 SLP099
CYEG;2004-11-06 10:00;METAR CYEG 061000Z 29012KT 15SM -RASN FEW057 OVC070 02/M00 A2979 RMK SC2AC6 SLP112
CYEG;2004-11-06 11:00;METAR CYEG 061100Z 28009KT 15SM VCSH FEW062 OVC082 02/M01 A2982 RMK SC2AC6 SHSN N SLP122 SLP122
CYEG;2004-11-06 12:00;METAR CYEG 061200Z 30010KT 15SM FEW060 OVC089 02/M02 A2985 RMK SC2AC5 VIRGA N SLP138 SLP138
CYEG;2004-11-06 13:00;METAR CYEG 061300Z 30011KT 15SM FEW015 FEW060 OVC090 01/M02 A2989 RMK SF1SC2AC6 VIRGA SLP149 VIRGA SLP149
CYEG;2004-11-06 14:00;METAR CYEG 061400Z 30008KT 15SM FEW015 BKN100 01/M02 A2993 RMK SC1AC6 SLP161
CYEG;2004-11-06 15:00;METAR CYEG 061500Z 31009KT 15SM FEW015 BKN090 BKN110 00/M03 A2995 RMK SC1AC6AC2 TR SC SLP171 TR SC SLP171
CYEG;2004-11-06 16:00;METAR CYEG 061600Z 32006KT 15SM FEW028 BKN088 BKN110 00/M03 A3000 RMK SC2AC3AC1 CU EMBD VIRGA SW SLP188 CU EMBD VIRGA SW SLP188
CYEG;2004-11-06 17:00;METAR CYEG 061700Z 32007KT 15SM FEW027 BKN086 M00/M04 A3003 RMK SC2AC4 CU EMBD VIRGA S SLP197 VIRGA S SLP197
CYEG;2004-11-06 18:00;METAR CYEG 061800Z 30009KT 15SM FEW027 BKN086 M00/M04 A3005 RMK SC2AC5 CU+ACC EMBD VIRGA SW SLP207 EMBD VIRGA SW SLP207
CYEG;2004-11-06 19:00;METAR CYEG 061900Z 28006KT 15SM FEW027 BKN084 M00/M04 A3005 RMK SC1AC4 CU ASOCTD SLP209 SLP209
CYEG;2004-11-06 20:00;METAR CYEG 062000Z 27006KT 15SM FEW027 BKN084 M00/M05 A3006 RMK CU1AC4 ACC EMBD SLP212 SLP212
CYEG;2004-11-06 21:00;METAR CYEG 062100Z 29008KT 15SM FEW045 SCT084 BKN250 01/M05 A3008 RMK CU2AC1CS2 SLP215 SLP215
CYEG;2004-11-06 22:00;METAR CYEG 062200Z 29004KT 15SM FEW025 FEW050 FEW085 BKN250 00/M05 A3008 RMK CF1SC1AC1CS2 SLP218 CF1SC1AC1CS2 SLP218
CYEG;2004-11-06 23:00;METAR CYEG 062300Z 29003KT 15SM FEW040 FEW085 SCT180 BKN250 M01/M06 A3010 RMK SC1AC1AS1CS2 SLP223 SC1AC1AS1CS2 SLP223
CYEG;2004-11-07 00:00;METAR CYEG 070000Z 28005KT 15SM FEW040 FEW085 SCT180 SCT250 M03/M07 A3013 RMK SC1AC1AS1CI0 SLP237 SC1AC1AS1CI0 SLP237
CYEG;2004-11-07 01:00;METAR CYEG 070100Z 29004KT 15SM FEW040 FEW085 FEW180 SCT250 M04/M08 A3015 RMK SC1AC1AS1CI0 SLP244 SC1AC1AS1CI0 SLP244
CYEG;2004-11-07 02:00;METAR CYEG 070200Z 31003KT 15SM FEW085 SCT250 M04/M08 A3017 RMK AC2CI0 SLP250
CYEG;2004-11-07 03:00;METAR CYEG 070300Z 00000KT 15SM FEW050 FEW085 SCT240 M06/M08 A3018 RMK SC1AC2CI0 SLP260 SLP260
CYEG;2004-11-07 04:00;METAR CYEG 070400Z 22003KT 15SM BKN058 BKN240 M05/M07 A3020 RMK SC7CI1 VIRGA SLP266 SLP266
CYEG;2004-11-07 05:00;METAR CYEG 070500Z 21003KT 15SM BKN055 M04/M07 A3021 RMK SC7 SLP270
CYEG;2004-11-07 06:00;METAR CYEG 070600Z 20003KT 15SM BKN058 M04/M07 A3023 RMK SC6 SLP275
CYEG;2004-11-07 07:00;METAR CYEG 070700Z 19005KT 15SM BKN057 M04/M07 A3023 RMK SC6 SLP275
CYEG;2004-11-07 08:00;METAR CYEG 070800Z 16002KT 15SM BKN057 M05/M07 A3022 RMK SC6 SLP274
CYEG;2004-11-07 09:00;METAR CYEG 070900Z 18005KT 15SM BKN052 M05/M07 A3023 RMK SC6 SLP277
CYEG;2004-11-07 10:00;METAR CYEG 071000Z 18003KT 15SM BKN052 M07/M09 A3023 RMK SC5 SLP276
CYEG;2004-11-07 11:00;METAR CYEG 071100Z 16002KT 15SM BKN050 M06/M08 A3024 RMK SC7 SLP279
CYEG;2004-11-07 12:00;METAR CYEG 071200Z 14005KT 15SM BKN050 M05/M07 A3024 RMK SC7 SLP282
CYEG;2004-11-07 13:00;METAR CYEG 071300Z 12005KT 15SM BKN054 BKN240 M05/M08 A3023 RMK SC7CI1 SLP280
CYEG;2004-11-07 14:00;METAR CYEG 071400Z 12007KT 15SM BKN054 M04/M07 A3023 RMK SC5 SLP278
CYEG;2004-11-07 15:00;METAR CYEG 071500Z 11008KT 15SM BKN044 BKN160 OVC220 M04/M08 A3021 RMK SC5AS2CI1 SLP276 SLP276
CYEG;2004-11-07 16:00;METAR CYEG 071600Z 11011KT 15SM BKN048 OVC120 M03/M07 A3021 RMK SC7AS1 SLP273
CYEG;2004-11-07 17:00;METAR CYEG 071700Z 12013KT 15SM BKN045 OVC120 M02/M07 A3018 RMK SC6AS2 SLP265
CYEG;2004-11-07 18:00;METAR CYEG 071800Z 12013KT 15SM FEW045 OVC130 M01/M06 A3015 RMK SC2AS6 SLP251
CYEG;2004-11-07 19:00;METAR CYEG 071900Z 12015KT 15SM FEW045 OVC110 M01/M05 A3013 RMK SC2AS6 SLP243
CYEG;2004-11-07 20:00;METAR CYEG 072000Z 11016KT 15SM BKN050 OVC090 M02/M05 A3011 RMK SC5AS3 SLP237
CYEG;2004-11-07 21:00;METAR CYEG 072100Z 11014KT 1 1/2SM R30/6000FT R12/P6000FT -SN DRSN OVC008 M02/M04 A3010 RMK SN3SF5 SLP232 A3010 RMK SN3SF5 SLP232
CYEG;2004-11-07 22:00;METAR CYEG 072200Z 10014KT 1SM R30/P6000FT R12/6000FT -SN DRSN OVC007 M02/M04 A3009 RMK SN6SF2 VSBY VRBL 3/4-11/2 SLP231 A3009 RMK SN6SF2 VSBY VRBL 3/4-11/2 SLP231
CYEG;2004-11-07 23:00;METAR CYEG 072300Z 11017KT 1 1/2SM -SN DRSN OVC009 M02/M04 A3010 RMK SN3SF5 /S01/ SLP233 SLP233
CYEG;2004-11-08 00:00;METAR CYEG 080000Z 12015KT 5SM -SN DRSN FEW009 BKN022 OVC062 M02/M04 A3010 RMK SF2SC2SC4 SLP235 SF2SC2SC4 SLP235
CYEG;2004-11-08 01:00;METAR CYEG 080100Z 13015KT 15SM -SN DRSN SCT009 OVC034 M02/M04 A3011 RMK SF2SC6 PCP VRY LGT SLP238 PCP VRY LGT SLP238
CYEG;2004-11-08 02:00;METAR CYEG 080200Z 13015KT 12SM -SN DRSN SCT008 OVC026 M02/M04 A3011 RMK SF2SC6 PCP VRY LGT SLP237 PCP VRY LGT SLP237
CYEG;2004-11-08 03:00;METAR CYEG 080300Z 13014KT 15SM -SN DRSN SCT008 OVC027 M02/M04 A3011 RMK SF2SC6 SLP237 SLP237
CYEG;2004-11-08 04:00;METAR CYEG 080400Z 13014KT 15SM FEW008 OVC027 M03/M04 A3009 RMK SF2SC6 SLP232
CYEG;2004-11-08 05:00;METAR CYEG 080500Z 13017KT 15SM SCT008 OVC029 M03/M04 A3008 RMK SF3SC5 SLP228
CYEG;2004-11-08 06:00;METAR CYEG 080600Z 14016G21KT 15SM BKN010 OVC030 M03/M04 A3006 RMK SF6SC2 SLP218
CYEG;2004-11-08 07:00;METAR CYEG 080700Z 14016KT 15SM -SN BKN008 OVC030 M03/M04 A3003 RMK SF7SC1 SLP207
CYEG;2004-11-08 08:00;METAR CYEG 080800Z 14013G18KT 15SM -SN OVC008 M02/M04 A3001 RMK SC8 SLP200
CYEG;2004-11-08 09:00;METAR CYEG 080900Z 15013G18KT 15SM -SN OVC009 M02/M04 A2996 RMK SC8 PRESFR SLP184
CYEG;2004-11-08 10:00;METAR CYEG 081000Z 14015KT 15SM FEW005 BKN009 OVC016 M02/M04 A2996 RMK SF1SF5SC2 SLP182 SLP182
CYEG;2004-11-08 11:00;METAR CYEG 081100Z 14013KT 15SM BKN009 OVC015 M02/M03 A2993 RMK SF7SC1 SLP172
CYEG;2004-11-08 12:00;METAR CYEG 081200Z 15013KT 15SM OVC009 M02/M03 A2990 RMK SC8 SLP162
CYEG;2004-11-08 13:00;METAR CYEG 081300Z 15011G17KT 15SM OVC007 M02/M02 A2988 RMK SC8 SLP156
CYEG;2004-11-08 14:00;METAR CYEG 081400Z 15009KT 15SM OVC007 M01/M02 A2987 RMK SC8 SLP152
CYEG;2004-11-08 15:00;METAR CYEG 081500Z 16007KT 12SM OVC006 M01/M02 A2985 RMK ST8 SLP143
CYEG;2004-11-08 16:00;METAR CYEG 081600Z 17005KT 10SM OVC006 M01/M02 A2984 RMK ST8 BR SLP142
CYEG;2004-11-08 17:00;METAR CYEG 081700Z 14007KT 10SM OVC006 M01/M02 A2982 RMK ST8 BR SLP135
CYEG;2004-11-08 19:00;METAR CYEG 081900Z 12006KT 12SM BKN007 BKN110 M00/M02 A2980 RMK ST3AC4 SLP126
CYEG;2004-11-08 20:00;METAR CYEG 082000Z 09003KT 12SM SCT008 BKN120 M00/M02 A2980 RMK SF2AC5
CYEG;2004-11-08 22:00;METAR CYEG 082200Z 13005KT 12SM FEW009 BKN120 OVC250 M00/M02 A2977 RMK ST1AC6CI1 SLP114 SLP114
CYEG;2004-11-08 23:00;METAR CYEG 082300Z 16004KT 12SM BKN120 BKN250 M00/M02 A2976 RMK AC5CI1 SLP111
CYEG;2004-11-09 00:00;METAR CYEG 090000Z 13003KT 12SM BKN120 BKN250 M00/M02 A2977 RMK AC5CI1 SLP115
CYEG;2004-11-09 01:00;METAR CYEG 090100Z 00000KT 12SM BKN110 BKN170 OVC250 M00/M02 A2978 RMK AC5AC1CI1 SLP117 SLP117
CYEG;2004-11-09 02:00;METAR CYEG 090200Z 05003KT 12SM BKN110 BKN250 M01/M02 A2977 RMK AC5CI1
CYEG;2004-11-09 03:00;METAR CYEG 090300Z 11002KT 15SM FEW040 BKN110 BKN250 M01/M02 A2975 RMK SC2AC3CI1 SLP107 SLP107
CYEG;2004-11-09 04:00;METAR CYEG 090400Z 18003KT 15SM FEW040 BKN110 BKN250 M01/M02 A2978 RMK SC2AC4CI1 SLP116 SLP116
CYEG;2004-11-09 05:00;METAR CYEG 090500Z 32003KT 15SM FEW040 BKN096 OVC250 M00/M01 A2980 RMK SC2AC5CI1 SLP122 SLP122
CYEG;2004-11-09 06:00;METAR CYEG 090600Z 00000KT 15SM -SHRA BKN040 OVC095 00/M01 A2981 RMK SC6AC2 SLP127
CYEG;2004-11-09 07:00;METAR CYEG 090700Z 20004KT 12SM -SHRA BKN060 OVC095 00/M00 A2982 RMK SC6AC2 SLP131
CYEG;2004-11-09 09:00;METAR CYEG 090900Z 28006KT 6SM -SHRA BR FEW020 BKN052 OVC095 02/02 A2986 RMK SC1SC6AC1 SLP143 SC1SC6AC1 SLP143
CYEG;2004-11-09 10:00;METAR CYEG 091000Z 28006KT 8SM -SHRA FEW015 BKN050 OVC093 03/03 A2988 RMK SF1SC4AC3 BR SLP147
CYEG;2004-11-09 11:00;METAR CYEG 091100Z 28008KT 15SM -SHRA FEW020 SCT050 OVC100 03/03 A2991 RMK SF1SC3AC4 SLP157
CYEG;2004-11-09 12:00;METAR CYEG 091200Z 31007KT 15SM -SHRA FEW010 SCT030 OVC110 03/03 A2993 RMK SF1SC3AC4 SLP166
CYEG;2004-11-09 13:00;METAR CYEG 091300Z 32005KT 15SM FEW030 OVC100 03/02 A2997 RMK SC2AC6 SLP177
CYEG;2004-11-09 14:00;METAR CYEG 091400Z 35010KT 15SM FEW005 BKN014 OVC030 02/00 A2999 RMK SF1SF6SC2 SLP185 SLP185
CYEG;2004-11-09 15:00;METAR CYEG 091500Z 33005KT 15SM FEW005 FEW015 SCT090 BKN150 BKN250 01/M00 A3002 RMK CF1SC1AC2AS2CI2 TR CF SLP201 RMK CF1SC1AC2AS2CI2 TR CF SLP201
CYEG;2004-11-09 16:00;METAR CYEG 091600Z 29004KT 15SM FEW015 BKN170 OVC230 01/M00 A3004 RMK SC1AS2CI2 SLP206 SLP206
CYEG;2004-11-09 17:00;METAR CYEG 091700Z 30003KT 15SM FEW015 BKN180 OVC220 01/M00 A3006 RMK SC1AS4CS1 HALO SLP213 HALO SLP213
CYEG;2004-11-09 18:00;METAR CYEG 091800Z 27003KT 15SM FEW015 FEW095 BKN170 OVC220 02/M00 A3008 RMK SC2AC1AS2CS2 SLP217 SC2AC1AS2CS2 SLP217
CYEG;2004-11-09 19:00;METAR CYEG 091900Z 19004KT 15SM FEW017 FEW095 BKN210 03/M02 A3008 RMK SC1AC1CS3 HALO SLP219 HALO SLP219
CYEG;2004-11-09 20:00;METAR CYEG 092000Z 23006KT 15SM FEW090 BKN230 04/01 A3008 RMK AC1CI2 ACC ASOCTD S SLP219 SLP219
CYEG;2004-11-09 21:00;METAR CYEG 092100Z 27007KT 15SM FEW045 BKN240 04/01 A3008 RMK SC1CI2 SLP216
CYEG;2004-11-09 22:00;METAR CYEG 092200Z 28004KT 15SM FEW045 BKN250 04/01 A3010 RMK SC1CI2 SLP220
CYEG;2004-11-09 23:00;METAR CYEG 092300Z 30007KT 15SM FEW035 SCT250 03/M01 A3012 RMK SC1CI1 SLP228
CYEG;2004-11-10 00:00;METAR CYEG 100000Z 33006KT 15SM FEW035 FEW250 02/M02 A3015 RMK SC1CI1 SLP241
CYEG;2004-11-10 01:00;METAR CYEG 100100Z 32005KT 15SM FEW035 FEW250 M00/M04 A3020 RMK SC1CI0 SLP254
CYEG;2004-11-10 02:00;METAR CYEG 100200Z 32006KT 15SM SKC M00/M05 A3023 RMK AURBO SLP265
CYEG;2004-11-10 04:00;METAR CYEG 100400Z 34007KT 15SM FEW100 M02/M07 A3030 RMK AC1 AURBO SLP297
CYEG;2004-11-10 05:00;METAR CYEG 100500Z 34005KT 15SM BKN068 BKN250 M01/M06 A3033 RMK AC6CI1 SLP306
CYEG;2004-11-10 07:00;METAR CYEG 100700Z 34006KT 15SM BKN071 BKN250 M02/M08 A3038 RMK AC6CI0 AURBO SLP321 SLP321
CYEG;2004-11-10 08:00;METAR CYEG 100800Z 32004KT 15SM BKN071 BKN250 M03/M08 A3040 RMK AC5CI1 AURBO SLP329 SLP329
CYEG;2004-11-10 10:00;METAR CYEG 101000Z 29004KT 15SM FEW070 M04/M09 A3045 RMK AC1 AURBO SLP346
CYEG;2004-11-10 11:00;METAR CYEG 101100Z 24003KT 15SM FEW070 M07/M10 A3045 RMK AC1 AURBO SLP347
CYEG;2004-11-10 12:00;METAR CYEG 101200Z 23006KT 15SM SKC M07/M10 A3046 RMK AURBO SLP355
CYEG;2004-11-10 13:00;METAR CYEG 101300Z 22005KT 15SM SKC M07/M10 A3046 RMK AURBO SLP357
CYEG;2004-11-10 14:00;METAR CYEG 101400Z 19004KT 15SM FEW080 FEW250 M08/M10 A3046 RMK AC1CI1 FROIN SLP357 SLP357
CYEG;2004-11-10 15:00;METAR CYEG 101500Z 18006KT 15SM FEW080 BKN240 M07/M09 A3046 RMK AC1CI2 TR AC SLP358 SLP358
CYEG;2004-11-10 16:00;METAR CYEG 101600Z 18006KT 15SM BKN240 M06/M09 A3046 RMK CI3 SLP359
CYEG;2004-11-10 17:00;METAR CYEG 101700Z 18006KT 15SM BKN250 M03/M06 A3046 RMK CI3 SLP358
CYEG;2004-11-10 18:00;METAR CYEG 101800Z 18009KT 15SM FEW250 M00/M07 A3045 RMK CI1 SLP348
CYEG;2004-11-10 19:00;METAR CYEG 101900Z 18012KT 15SM BKN250 00/M07 A3041 RMK CI2 SLP338
CYEG;2004-11-10 20:00;METAR CYEG 102000Z 17012KT 15SM BKN250 01/M08 A3038 RMK CI2 SLP328
CYEG;2004-11-10 21:00;METAR CYEG 102100Z 17010KT 15SM FEW090 BKN250 01/M06 A3035 RMK AC1CI2 TR AC
CYEG;2004-11-10 22:00;METAR CYEG 102200Z 16008KT 15SM FEW090 SCT250 01/M06 A3033 RMK AC1CI2 TR AC SLP308
CYEG;2004-11-10 23:00;METAR CYEG 102300Z 15007KT 15SM FEW090 BKN250 00/M06 A3031 RMK AC1CI2 TR AC SLP302
CYEG;2004-11-11 00:00;METAR CYEG 110000Z 15007KT 15SM BKN250 M01/M06 A3029 RMK CI2 SLP299
CYEG;2004-11-11 01:00;METAR CYEG 110100Z 15005KT 15SM BKN250 M02/M05 A3027 RMK CI3 SLP294
CYEG;2004-11-11 02:00;METAR CYEG 110200Z 16006KT 15SM BKN250 M03/M05 A3026 RMK CI3 SLP290
CYEG;2004-11-11 03:00;METAR CYEG 110300Z 18007KT 15SM BKN250 M03/M04 A3024 RMK CI5 SLP284
CYEG;2004-11-11 04:00;METAR CYEG 110400Z 19006KT 15SM BKN250 M02/M04 A3022 RMK CI5 SLP279
CYEG;2004-11-11 05:00;METAR CYEG 110500Z 18005KT 15SM BKN250 M03/M04 A3021 RMK CI3 SLP276
CYEG;2004-11-11 06:00;METAR CYEG 110600Z 18005KT 15SM BKN250 M05/M06 A3021 RMK CI3 SLP270
CYEG;2004-11-11 07:00;METAR CYEG 110700Z 18006KT 15SM BKN250 M05/M06 A3021 RMK CI3 SLP268
CYEG;2004-11-11 08:00;METAR CYEG 110800Z 21003KT 15SM BKN250 M06/M07 A3019 RMK CI5 SLP264
CYEG;2004-11-11 09:00;METAR CYEG 110900Z 25004KT 15SM SCT250 M06/M07 A3019 RMK CI2 FROIN SLP264
CYEG;2004-11-11 10:00;METAR CYEG 111000Z 25004KT 15SM SCT250 M04/M05 A3019 RMK CI2 SLP263
CYEG;2004-11-11 11:00;METAR CYEG 111100Z 24005KT 15SM SCT250 M04/M05 A3018 RMK CI2 SLP261
CYEG;2004-11-11 12:00;METAR CYEG 111200Z 25003KT 15SM SCT250 M04/M06 A3018 RMK CI2 SLP260
CYEG;2004-11-11 13:00;METAR CYEG 111300Z 28004KT 15SM SCT250 M04/M06 A3019 RMK CI2 SLP263
CYEG;2004-11-11 14:00;METAR CYEG 111400Z 24006KT 15SM FEW250 M06/M07 A3018 RMK CI2 FROIN SLP260
CYEG;2004-11-11 16:00;METAR CYEG 111600Z 26004KT 15SM BKN250 M03/M06 A3019 RMK CI3 SLP266
CYEG;2004-11-11 17:00;METAR CYEG 111700Z 27005KT 15SM BKN250 M01/M05 A3021 RMK CI3 SLP270
CYEG;2004-11-11 18:00;METAR CYEG 111800Z 27004KT 15SM BKN250 M01/M04 A3020 RMK CI2 SLP267
CYEG;2004-11-11 19:00;METAR CYEG 111900Z 26004KT 15SM SCT250 01/M04 A3019 RMK CI2 SLP264
CYEG;2004-11-11 20:00;METAR CYEG 112000Z 30004KT 15SM SCT250 02/M03 A3020 RMK CI2 SLP265
CYEG;2004-11-11 21:00;METAR CYEG 112100Z 29004KT 15SM FEW250 03/M03 A3019 RMK CI1 SLP262
CYEG;2004-11-11 22:00;METAR CYEG 112200Z 26003KT 15SM FEW250 04/M02 A3018 RMK CI1 SLP259
CYEG;2004-11-11 23:00;METAR CYEG 112300Z 00000KT 15SM FEW250 03/M04 A3018 RMK CI1 SLP258
CYEG;2004-11-12 00:00;METAR CYEG 120000Z 00000KT 15SM FEW250 M01/M06 A3017 RMK CI1 SLP257
CYEG;2004-11-12 01:00;METAR CYEG 120100Z 19004KT 15SM FEW250 M03/M06 A3017 RMK CI0 SLP257
CYEG;2004-11-12 02:00;METAR CYEG 120200Z 18005KT 15SM FEW250 M04/M06 A3017 RMK CI0 SLP256
CYEG;2004-11-12 03:00;METAR CYEG 120300Z 18004KT 15SM SKC M05/M08 A3017 RMK AURBO SLP260
CYEG;2004-11-12 04:00;METAR CYEG 120400Z 18006KT 15SM SKC M05/M08 A3016 RMK SLP258
CYEG;2004-11-12 05:00;METAR CYEG 120500Z 18009KT 15SM SKC M03/M08 A3015 RMK SLP255
CYEG;2004-11-12 06:00;METAR CYEG 120600Z 14002KT 15SM SKC M05/M09 A3016 RMK SLP252
CYEG;2004-11-12 07:00;METAR CYEG 120700Z 18008KT 15SM SKC M05/M08 A3015 RMK SLP251
CYEG;2004-11-12 08:00;METAR CYEG 120800Z 19005KT 15SM SKC M06/M09 A3014 RMK SLP246
CYEG;2004-11-12 09:00;METAR CYEG 120900Z 17005KT 15SM SKC M05/M08 A3013 RMK SLP237
CYEG;2004-11-12 10:00;METAR CYEG 121000Z 19004KT 15SM SKC M07/M09 A3012 RMK SLP234
CYEG;2004-11-12 11:00;METAR CYEG 121100Z 18007KT 15SM SKC M06/M09 A3011 RMK SLP231
CYEG;2004-11-12 12:00;METAR CYEG 121200Z 18006KT 15SM SKC M06/M09 A3010 RMK SLP235
CYEG;2004-11-12 13:00;METAR CYEG 121300Z 17003KT 15SM SKC M08/M10 A3009 RMK SLP232
CYEG;2004-11-12 14:00;METAR CYEG 121400Z 18007KT 15SM SKC M07/M09 A3008 RMK SLP227
CYEG;2004-11-12 15:00;METAR CYEG 121500Z 19004KT 15SM FEW250 M09/M10 A3007 RMK CI1 SLP230
CYEG;2004-11-12 16:00;METAR CYEG 121600Z 14004KT 15SM SKC M06/M08 A3007 RMK SLP229
CYEG;2004-11-12 17:00;METAR CYEG 121700Z 17004KT 15SM SKC M01/M05 A3006 RMK SLP226
CYEG;2004-11-12 18:00;METAR CYEG 121800Z 18006KT 15SM SKC 01/M03 A3004 RMK SLP210
CYEG;2004-11-12 19:00;METAR CYEG 121900Z 16003KT 15SM SKC 03/M01 A3002 RMK SLP204
CYEG;2004-11-12 20:00;METAR CYEG 122000Z 14005KT 15SM SKC 05/M01 A2999 RMK SLP195
CYEG;2004-11-12 21:00;METAR CYEG 122100Z 14005KT 15SM SKC 05/M01 A2996 RMK SLP178
CYEG;2004-11-12 22:00;METAR CYEG 122200Z 15009KT 15SM SKC 05/M02 A2992 RMK SLP167
CYEG;2004-11-12 23:00;METAR CYEG 122300Z 15006KT 15SM FEW250 04/M02 A2990 RMK CI1 SLP161
CYEG;2004-11-13 00:00;METAR CYEG 130000Z 14007KT 15SM FEW250 M00/M03 A2989 RMK CI1 SLP159
CYEG;2004-11-13 01:00;METAR CYEG 130100Z 13005KT 15SM FEW250 M03/M05 A2988 RMK CI1 SLP156
CYEG;2004-11-13 02:00;METAR CYEG 130200Z 13006KT 15SM SKC M03/M05 A2987 RMK SLP155
CYEG;2004-11-13 03:00;METAR CYEG 130300Z 11006KT 15SM SKC M04/M06 A2987 RMK SLP159
CYEG;2004-11-13 04:00;METAR CYEG 130400Z 14007KT 15SM SKC M04/M06 A2986 RMK SLP157
CYEG;2004-11-13 05:00;METAR CYEG 130500Z 19005KT 15SM SKC M03/M06 A2985 RMK SLP154
CYEG;2004-11-13 06:00;METAR CYEG 130600Z 20004KT 15SM SKC M04/M06 A2986 RMK SLP147
CYEG;2004-11-13 07:00;METAR CYEG 130700Z 18002KT 15SM SCT250 M03/M05 A2986 RMK CI2 SLP148
CYEG;2004-11-13 08:00;METAR CYEG 130800Z 19003KT 15SM BKN250 M04/M06 A2987 RMK CI3 SLP149
CYEG;2004-11-13 09:00;METAR CYEG 130900Z 23003KT 15SM SCT250 M06/M07 A2988 RMK CI1 SLP153
CYEG;2004-11-13 10:00;METAR CYEG 131000Z 22004KT 15SM FEW250 M05/M07 A2990 RMK CI0 SLP158
CYEG;2004-11-13 11:00;METAR CYEG 131100Z 23002KT 15SM FEW250 M03/M06 A2990 RMK CI0 SLP160
CYEG;2004-11-13 12:00;METAR CYEG 131200Z 27004KT 15SM FEW250 M03/M07 A2992 RMK CI0 FROIN SLP167
CYEG;2004-11-13 13:00;METAR CYEG 131300Z 30003KT 15SM SKC M05/M08 A2993 RMK SLP169
CYEG;2004-11-13 14:00;METAR CYEG 131400Z 28005KT 15SM SCT250 M03/M08 A2995 RMK CI0 SLP176
CYEG;2004-11-13 15:00;METAR CYEG 131500Z 00000KT 15SM BKN250 M04/M08 A2996 RMK CI2 SLP184
CYEG;2004-11-13 16:00;METAR CYEG 131600Z 00000KT 15SM BKN250 M03/M06 A2998 RMK CI2 SLP190
CYEG;2004-11-13 17:00;METAR CYEG 131700Z 23003KT 15SM BKN250 M00/M05 A2999 RMK CI2 SLP194
CYEG;2004-11-13 18:00;METAR CYEG 131800Z 33003KT 15SM FEW150 BKN250 02/M04 A3000 RMK AC1CI2 TR AC W SLP194 SLP194
CYEG;2004-11-13 19:00;METAR CYEG 131900Z 29004KT 15SM FEW120 BKN250 03/M05 A3001 RMK AC1CI1 SLP197
CYEG;2004-11-13 20:00;METAR CYEG 132000Z 00000KT 15SM FEW120 BKN250 05/M05 A3001 RMK AC1CI1 SLP196
CYEG;2004-11-13 21:00;METAR CYEG 132100Z 00000KT 15SM FEW120 BKN250 05/M04 A3002 RMK AC1CI1 SLP202
CYEG;2004-11-13 22:00;METAR CYEG 132200Z 00000KT 15SM FEW100 BKN250 06/M04 A3004 RMK AC1CI1 SLP206
CYEG;2004-11-13 23:00;METAR CYEG 132300Z 09002KT 15SM FEW090 BKN250 02/M03 A3005 RMK AC2CI1 SLP209
CYEG;2004-11-14 00:00;METAR CYEG 140000Z 20002KT 15SM FEW090 FEW150 SCT250 M01/M04 A3007 RMK AC1AC1CI0 SLP220 SLP220
CYEG;2004-11-14 01:00;METAR CYEG 140100Z 18002KT 15SM FEW090 SCT150 BKN210 M03/M05 A3008 RMK AC1AC2CI2 SLP222 SLP222
CYEG;2004-11-14 02:00;METAR CYEG 140200Z 18006KT 15SM SCT150 BKN210 M02/M04 A3008 RMK AC2CI2 SLP223
CYEG;2004-11-14 04:00;METAR CYEG 140400Z 18007KT 15SM SCT250 M01/M05 A3007 RMK CI1 SLP221
CYEG;2004-11-14 05:00;METAR CYEG 140500Z 19005KT 15SM FEW250 M02/M05 A3008 RMK CI1 SLP226
CYEG;2004-11-14 06:00;METAR CYEG 140600Z 17002KT 15SM SKC M05/M06 A3009 RMK SLP228
CYEG;2004-11-14 07:00;METAR CYEG 140700Z 16005KT 15SM SKC M01/M05 A3007 RMK SLP219
CYEG;2004-11-14 08:00;METAR CYEG 140800Z 17008KT 15SM SKC 01/M04 A3005 RMK SLP213
CYEG;2004-11-14 09:00;METAR CYEG 140900Z 18005KT 15SM SKC M02/M05 A3006 RMK SLP211
CYEG;2004-11-14 10:00;METAR CYEG 141000Z 14008KT 15SM FEW250 M02/M06 A3004 RMK CI1 SLP203
CYEG;2004-11-14 11:00;METAR CYEG 141100Z 14009KT 15SM BKN240 00/M04 A3002 RMK CI2 SLP196
CYEG;2004-11-14 12:00;METAR CYEG 141200Z 13005KT 15SM OVC240 M03/M06 A3002 RMK CI8 SLP201
CYEG;2004-11-14 13:00;METAR CYEG 141300Z 14009KT 15SM OVC220 M01/M06 A3001 RMK CI8 SLP198
CYEG;2004-11-14 14:00;METAR CYEG 141400Z 13009KT 15SM BKN220 M02/M06 A2996 RMK CI6 SLP182
CYEG;2004-11-14 15:00;METAR CYEG 141500Z 14012KT 15SM FEW190 OVC240 M00/M06 A2993 RMK AC1CI4 SLP168
CYEG;2004-11-14 16:00;METAR CYEG 141600Z 16011KT 15SM FEW190 SCT210 OVC270 00/M05 A2990 RMK AC1CI1CI4 SLP160 SLP160
CYEG;2004-11-14 17:00;METAR CYEG 141700Z 17011KT 15SM FEW180 SCT210 OVC270 01/M04 A2989 RMK AC1CI1CI6 SLP158
CYEG;2004-11-14 18:00;METAR CYEG 141800Z 17008KT 15SM FEW180 BKN210 OVC270 03/M03 A2986 RMK AC1CI4CI3 SLP146 SLP146
CYEG;2004-11-14 19:00;METAR CYEG 141900Z 16010KT 15SM FEW150 BKN210 OVC270 03/M02 A2981 RMK AC1CI2CI6 SLP131 SLP131
CYEG;2004-11-14 20:00;METAR CYEG 142000Z 15009KT 15SM FEW130 BKN210 OVC270 04/M01 A2977 RMK AC1CI2CI6 SLP118 SLP118
CYEG;2004-11-14 21:00;METAR CYEG 142100Z 17006KT 15SM FEW130 BKN200 OVC270 05/M02 A2976 RMK AC1CI5CI2 SLP107 SLP107 SLP095
CYEG;2004-11-14 23:00;METAR CYEG 142300Z 16008KT 15SM FEW130 BKN170 OVC270 04/M01 A2972 RMK AC2AS2CI5 SLP094 SLP094
CYEG;2004-11-15 00:00;METAR CYEG 150000Z 16009KT 15SM FEW130 SCT170 OVC270 03/M02 A2970 RMK AC1AS2CI2 SLP089 SLP089
CYEG;2004-11-15 01:00;METAR CYEG 150100Z 15008KT 15SM FEW130 OVC270 03/M02 A2969 RMK AC2CI4 SLP086
CYEG;2004-11-15 02:00;METAR CYEG 150200Z 14009KT 15SM FEW140 OVC240 01/M02 A2967 RMK AC2CI6 SLP080
CYEG;2004-11-15 03:00;METAR CYEG 150300Z 14007KT 15SM SCT140 OVC250 01/M02 A2964 RMK AS3CS2 SLP069
CYEG;2004-11-15 04:00;METAR CYEG 150400Z 14008KT 15SM FEW140 SCT170 OVC250 02/M01 A2962 RMK AC1AS2CI5 SLP060 SLP060
CYEG;2004-11-15 05:00;METAR CYEG 150500Z 17011KT 15SM BKN120 OVC250 04/M01 A2960 RMK AC5CI2 SLP056
CYEG;2004-11-15 06:00;METAR CYEG 150600Z 17007KT 15SM BKN150 OVC250 05/M01 A2958 RMK AC6CI2 SLP040
CYEG;2004-11-15 07:00;METAR CYEG 150700Z 16009KT 15SM BKN150 OVC250 06/00 A2956 RMK AC6CI2 SLP034
CYEG;2004-11-15 08:00;METAR CYEG 150800Z 15006KT 15SM BKN150 OVC250 06/01 A2953 RMK AC6CI2 SLP026
CYEG;2004-11-15 09:00;METAR CYEG 150900Z 17007KT 15SM BKN170 OVC250 07/01 A2952 RMK AC6CI2 SLP015
CYEG;2004-11-15 10:00;METAR CYEG 151000Z 19008KT 15SM BKN170 OVC250 08/02 A2950 RMK AC6CI2 SLP010
CYEG;2004-11-15 11:00;METAR CYEG 151100Z 00000KT 15SM BKN170 OVC250 08/02 A2950 RMK AC6CI2 SLP008
CYEG;2004-11-15 12:00;METAR CYEG 151200Z 16003KT 15SM SCT170 BKN250 06/02 A2949 RMK AC2CI1 SLP006
CYEG;2004-11-15 13:00;METAR CYEG 151300Z 21008KT 15SM BKN170 BKN250 09/02 A2947 RMK AC3CI1 SLP000
CYEG;2004-11-15 14:00;METAR CYEG 151400Z 19012G17KT 15SM SCT150 BKN250 09/02 A2945 RMK AC2CI2 SLP994
CYEG;2004-11-15 16:00;METAR CYEG 151600Z 19009KT 15SM FEW030 FEW140 BKN300 11/03 A2943 RMK CF1AC1CI6 SLP985 SLP985
CYEG;2004-11-15 17:00;METAR CYEG 151700Z 20011G18KT 15SM FEW030 FEW140 SCT220 BKN300 12/03 A2941 RMK CF1AC2CI1CI4 SLP979 CF1AC2CI1CI4 SLP979
CYEG;2004-11-15 18:00;METAR CYEG 151800Z 19017KT 15SM FEW033 FEW140 SCT220 BKN300 12/03 A2940 RMK CF1AC1CI1CI5 SLP970
CYEG;2004-11-15 19:00;METAR CYEG 151900Z 19006KT 15SM FEW035 FEW140 SCT210 BKN300 11/04 A2938 RMK CF1AC1CI1CI5 SLP965
CYEG;2004-11-15 20:00;METAR CYEG 152000Z 18012KT 15SM FEW035 FEW140 SCT230 BKN300 13/04 A2936 RMK CF1AC1CI1CI5 SLP956
CYEG;2004-11-15 21:00;METAR CYEG 152100Z 18013KT 15SM FEW035 FEW095 SCT140 BKN300 13/05 A2935 RMK CF1AC1AC1CI5 SLP950
CYEG;2004-11-15 22:00;METAR CYEG 152200Z 20009KT 15SM FEW035 FEW095 SCT230 BKN300 13/04 A2937 RMK CU1AC2CI1CI5 SLP956
CYEG;2004-11-15 23:00;METAR CYEG 152300Z 28007KT 15SM FEW035 FEW095 SCT230 BKN330 11/03 A2941 RMK CU1AC2CI1CI4 SLP970
CYEG;2004-11-15 23:58;SPECI CYEG 152358Z 31016G22KT 15SM -SHRA FEW035 BKN095 BKN240 BKN330 RMK SC1AC4CI1CI1 SH N-OVHD-SW SC1AC4CI1CI1 SH N-OVHD-SW
CYEG;2004-11-16 00:00;METAR CYEG 160000Z 31017G22KT 15SM -SHRA FEW035 BKN095 BKN240 BKN330 10/02 A2950 RMK SC1AC4CI1CI1 PRESRR SH N-OVHD-SW SLP004 RMK SC1AC4CI1CI1 PRESRR SH N-OVHD-SW SLP004
CYEG;2004-11-16 00:20;SPECI CYEG 160020Z 32027G34KT 15SM FEW035 BKN090 BKN240 RMK SC1AC5CI1 SH N-NE VIRGA SW PRESRR VIRGA SW PRESRR
CYEG;2004-11-16 01:00;METAR CYEG 160100Z 32013G19KT 15SM FEW080 BKN130 BKN240 06/02 A2962 RMK ACC2AC2CI1 PRESRR VIRGA N-E-S SLP041
CYEG;2004-11-16 02:00;METAR CYEG 160200Z 28009KT 15SM FEW063 BKN130 04/00 A2965 RMK SC2AC2 SLP051
CYEG;2004-11-16 03:00;METAR CYEG 160300Z 27005KT 15SM BKN092 02/M00 A2969 RMK AC2 SLP075
CYEG;2004-11-16 04:00;METAR CYEG 160400Z 26007KT 15SM FEW090 00/M01 A2973 RMK AC1 SLP088
CYEG;2004-11-16 05:00;METAR CYEG 160500Z 25006KT 15SM BKN110 BKN250 01/M01 A2976 RMK AC5CI0 SLP096
CYEG;2004-11-16 06:00;METAR CYEG 160600Z 27005KT 15SM SCT110 BKN250 03/M02 A2978 RMK AC2CI0 SLP103
CYEG;2004-11-16 07:00;METAR CYEG 160700Z 27007KT 15SM FEW090 01/M03 A2981 RMK AC2 SLP112
CYEG;2004-11-16 08:00;METAR CYEG 160800Z 24006KT 15SM FEW090 M00/M04 A2983 RMK AC0 SLP118
CYEG;2004-11-16 09:00;METAR CYEG 160900Z 22004KT 15SM FEW090 00/M04 A2985 RMK AC1 SLP129
CYEG;2004-11-16 10:00;METAR CYEG 161000Z 17005KT 15SM FEW090 M01/M04 A2987 RMK AC1 SLP135
CYEG;2004-11-16 11:00;METAR CYEG 161100Z 19007KT 15SM FEW090 FEW250 M01/M05 A2988 RMK AC1CI0 SLP139
CYEG;2004-11-16 12:00;METAR CYEG 161200Z 19007KT 15SM FEW090 M02/M05 A2990 RMK AC1 SLP150
CYEG;2004-11-16 13:00;METAR CYEG 161300Z 18007KT 15SM FEW090 FEW250 M03/M05 A2991 RMK AC1CI0 FROIN SLP153 SLP153
CYEG;2004-11-16 14:00;METAR CYEG 161400Z 18008KT 15SM FEW090 FEW250 M01/M04 A2991 RMK AC1CI1 TR CI SLP155 SLP155
CYEG;2004-11-16 15:00;METAR CYEG 161500Z 18006KT 15SM FEW090 M02/M04 A2992 RMK AC1 SLP165
CYEG;2004-11-16 16:00;METAR CYEG 161600Z 18005KT 15SM FEW090 FEW220 M01/M03 A2994 RMK AC1CI1 SLP169
CYEG;2004-11-16 17:00;METAR CYEG 161700Z 18006KT 15SM FEW090 FEW140 FEW220 03/M01 A2994 RMK AC1AC1CI1 SLP171 SLP171
CYEG;2004-11-16 18:00;METAR CYEG 161800Z 18007KT 15SM FEW090 FEW140 SCT220 06/M01 A2993 RMK AC1AC1CI1 SLP162 SLP162
CYEG;2004-11-16 19:00;METAR CYEG 161900Z 20009KT 15SM FEW140 FEW180 SCT220 07/M01 A2991 RMK AC1AC1CI1 SLP155
CYEG;2004-11-16 20:00;METAR CYEG 162000Z 20008KT 15SM FEW170 FEW240 08/M02 A2990 RMK AC1CI1 SLP152
CYEG;2004-11-16 21:00;METAR CYEG 162100Z 18007KT 15SM FEW170 FEW240 08/M01 A2987 RMK AC1CI1 SLP141
CYEG;2004-11-16 22:00;METAR CYEG 162200Z 16007KT 15SM FEW240 08/M01 A2986 RMK CI1 SLP137
CYEG;2004-11-16 23:00;METAR CYEG 162300Z 17006KT 15SM SCT240 04/M01 A2984 RMK CI2 SLP131
CYEG;2004-11-17 00:00;METAR CYEG 170000Z 15008KT 15SM BKN230 04/M03 A2982 RMK CI2 SLP129
CYEG;2004-11-17 01:00;METAR CYEG 170100Z 17008KT 15SM BKN250 01/M03 A2981 RMK CI2 SLP126
CYEG;2004-11-17 02:00;METAR CYEG 170200Z 16006KT 15SM SCT220 00/M03 A2980 RMK CI1 SLP121
CYEG;2004-11-17 03:00;METAR CYEG 170300Z 14005KT 15SM SCT220 M02/M04 A2978 RMK CI1 SLP119
CYEG;2004-11-17 04:00;METAR CYEG 170400Z 18008KT 15SM FEW220 M01/M03 A2976 RMK CI1 SLP112
CYEG;2004-11-17 05:00;METAR CYEG 170500Z 18008KT 15SM FEW220 M03/M05 A2977 RMK CI1 SLP115
CYEG;2004-11-17 07:00;METAR CYEG 170700Z 18004KT 15SM SCT120 SCT180 BKN250 M02/M04 A2977 RMK AC1AC1CI1 SLP108 SLP108
CYEG;2004-11-17 08:00;METAR CYEG 170800Z 22003KT 15SM BKN140 BKN250 M02/M04 A2977 RMK AC5CI0 FROIN SLP110 SLP110
CYEG;2004-11-17 09:00;METAR CYEG 170900Z 24004KT 15SM FEW090 BKN110 OVC250 M00/M04 A2980 RMK AC1AC6CI2 SLP116 SLP116
CYEG;2004-11-17 10:00;METAR CYEG 171000Z 27009KT 15SM BKN090 BKN250 02/M04 A2983 RMK AC6CI1 VIRGA SLP126
CYEG;2004-11-17 11:00;METAR CYEG 171100Z 25008KT 15SM FEW090 BKN160 BKN250 01/M04 A2985 RMK AC1AC2CI0 SLP133 SLP133
CYEG;2004-11-17 12:00;METAR CYEG 171200Z 26009KT 15SM BKN100 BKN250 01/M05 A2988 RMK AC2CI0 VIRGA N SLP147 SLP147
CYEG;2004-11-17 13:00;METAR CYEG 171300Z 26011KT 15SM FEW100 SCT250 00/M05 A2992 RMK AC1CI0 SLP159
CYEG;2004-11-17 14:00;METAR CYEG 171400Z 27009KT 15SM SCT150 SCT250 01/M05 A2994 RMK AC1CI0 SLP166
CYEG;2004-11-17 15:00;METAR CYEG 171500Z 26011KT 15SM FEW090 FEW150 00/M06 A2998 RMK AC1AC1 SLP187
CYEG;2004-11-17 16:00;METAR CYEG 171600Z 25013KT 15SM FEW090 01/M06 A3002 RMK AC1 SLP198
CYEG;2004-11-17 17:00;METAR CYEG 171700Z 26015KT 15SM FEW090 FEW150 03/M05 A3005 RMK AC1AC1 TR CLD SLP208 SLP208
CYEG;2004-11-17 18:00;METAR CYEG 171800Z 27011KT 15SM FEW090 FEW150 04/M04 A3008 RMK AC1AC1 TR CLD SLP216 SLP216
CYEG;2004-11-17 19:00;METAR CYEG 171900Z 27015G20KT 15SM FEW150 06/M06 A3008 RMK AC1 SLP219
CYEG;2004-11-17 20:00;METAR CYEG 172000Z 27014KT 15SM FEW150 06/M07 A3010 RMK AC1 SLP223
CYEG;2004-11-17 21:00;METAR CYEG 172100Z 27013G19KT 15SM FEW150 06/M08 A3011 RMK AC1 SLP226
CYEG;2004-11-17 22:00;METAR CYEG 172200Z 26007KT 15SM FEW150 FEW250 06/M07 A3011 RMK AC1CI1 TR CI SLP226
CYEG;2004-11-17 23:00;METAR CYEG 172300Z 22002KT 15SM FEW150 FEW250 03/M07 A3011 RMK AC1CI0
CYEG;2004-11-18 00:00;METAR CYEG 180000Z 23003KT 15SM FEW150 FEW250 M01/M08 A3013 RMK AC1CI0 SLP238
CYEG;2004-11-18 01:00;METAR CYEG 180100Z 19008KT 15SM FEW150 SCT250 M02/M08 A3014 RMK AC1CI1 SLP241
CYEG;2004-11-18 02:00;METAR CYEG 180200Z 20005KT 15SM SCT240 M02/M09 A3014 RMK CI2 SLP240
CYEG;2004-11-18 03:00;METAR CYEG 180300Z 20006KT 15SM FEW240 M03/M09 A3014 RMK CI1 SLP242
CYEG;2004-11-18 04:00;METAR CYEG 180400Z 18006KT 15SM FEW240 M03/M10 A3013 RMK CI1 SLP239
CYEG;2004-11-18 05:00;METAR CYEG 180500Z 19006KT 15SM FEW240 M03/M10 A3011 RMK CI1 SLP234
CYEG;2004-11-18 06:00;METAR CYEG 180600Z 17004KT 15SM FEW240 M05/M10 A3010 RMK CI1 SLP229
CYEG;2004-11-18 07:00;METAR CYEG 180700Z 17002KT 15SM SCT240 M04/M10 A3009 RMK CI2 SLP225
CYEG;2004-11-18 08:00;METAR CYEG 180800Z 14006KT 15SM FEW240 M07/M10 A3008 RMK CI1 SLP220
CYEG;2004-11-18 09:00;METAR CYEG 180900Z 11005KT 15SM FEW220 M06/M09 A3005 RMK CI2 SLP209
CYEG;2004-11-18 10:00;METAR CYEG 181000Z 14005KT 15SM FEW120 SCT240 M05/M09 A3003 RMK AC1CI1 SLP204
CYEG;2004-11-18 11:00;METAR CYEG 181100Z 12006KT 15SM FEW120 SCT230 M06/M09 A3000 RMK AC1CI2 SLP192
CYEG;2004-11-18 12:00;METAR CYEG 181200Z 11009KT 15SM FEW120 SCT210 M05/M09 A2996 RMK AC1CI2 SLP184
CYEG;2004-11-18 13:00;METAR CYEG 181300Z 14006KT 15SM FEW120 FEW240 M06/M09 A2993 RMK AC1CI1 TR AC SLP175 SLP175
CYEG;2004-11-18 14:00;METAR CYEG 181400Z 13007KT 15SM SCT240 M06/M09 A2990 RMK CI2 SLP167
CYEG;2004-11-18 15:00;METAR CYEG 181500Z 12005KT 15SM BKN120 BKN180 OVC240 M04/M08 A2989 RMK AC4AC2CI1 SLP159 SLP159
CYEG;2004-11-18 16:00;METAR CYEG 181600Z 11005KT 15SM BKN120 OVC240 M04/M07 A2986 RMK AC6CI1 VIRGA SLP152 SLP152
CYEG;2004-11-18 17:00;METAR CYEG 181700Z 11003KT 15SM BKN120 BKN180 M03/M06 A2984 RMK AC6AC2 VIRGA SLP146 SLP146
CYEG;2004-11-18 18:00;METAR CYEG 181800Z 16004KT 15SM FEW100 BKN150 BKN180 M02/M06 A2984 RMK AC2AC2AC2 VIRGA S SLP143 VIRGA S SLP143
CYEG;2004-11-18 19:00;METAR CYEG 181900Z 26004KT 15SM BKN100 BKN180 M02/M05 A2983 RMK AC6AC1 VIRGA S SLP141 SLP141
CYEG;2004-11-18 20:00;METAR CYEG 182000Z 30004KT 15SM BKN100 BKN180 M01/M04 A2981 RMK AC6AC1 VIRGA SLP135 SLP135
CYEG;2004-11-18 21:00;METAR CYEG 182100Z 30005KT 15SM FEW060 BKN100 BKN180 M01/M05 A2979 RMK SC1AC4AC2 VIRGA SLP127 VIRGA SLP127
CYEG;2004-11-18 22:00;METAR CYEG 182200Z 29004KT 15SM FEW060 BKN100 BKN120 BKN180 M01/M05 A2981 RMK SC1AC3AC2AC1 VIRGA E QUAD SLP131 SC1AC3AC2AC1 VIRGA E QUAD SLP131
CYEG;2004-11-18 23:00;METAR CYEG 182300Z 29003KT 15SM FEW060 SCT100 BKN120 BKN180 M01/M05 A2981 RMK SC1AC2AC2AS1 VIRGA S+SW SLP133 SC1AC2AC2AS1 VIRGA S+SW SLP133
CYEG;2004-11-19 00:00;METAR CYEG 190000Z 32002KT 15SM FEW060 BKN120 BKN180 M02/M06 A2983 RMK SC1AC3AS3 SLP142 SLP142
CYEG;2004-11-19 01:00;METAR CYEG 190100Z 29005KT 15SM SCT120 BKN180 M03/M06 A2985 RMK AC2AS4 SLP147
CYEG;2004-11-19 02:00;METAR CYEG 190200Z 34004KT 15SM SCT180 BKN230 M04/M07 A2986 RMK AS2CI2 SLP151
CYEG;2004-11-19 03:00;METAR CYEG 190300Z 33002KT 15SM FEW180 SCT240 M04/M08 A2989 RMK AS1CI1 SLP161
CYEG;2004-11-19 04:00;METAR CYEG 190400Z 24004KT 15SM FEW090 FEW240 M05/M09 A2991 RMK AC1CI1 SLP169
CYEG;2004-11-19 05:00;METAR CYEG 190500Z 29007KT 15SM FEW090 FEW140 SCT250 M04/M08 A2993 RMK AC1AC1CI1 SLP174 SLP174
CYEG;2004-11-19 06:00;METAR CYEG 190600Z 29006KT 15SM FEW090 FEW150 M04/M08 A2995 RMK AC1AC1 SLP180
CYEG;2004-11-19 07:00;METAR CYEG 190700Z 29003KT 15SM FEW080 FEW150 M05/M08 A2997 RMK AC1AC1 SLP188
CYEG;2004-11-19 08:00;METAR CYEG 190800Z 28003KT 15SM FEW150 SCT230 M05/M07 A3000 RMK AC1CI1 SLP196
CYEG;2004-11-19 09:00;METAR CYEG 190900Z 32004KT 15SM FEW130 BKN230 M05/M07 A3003 RMK AC2CI2 SLP207
CYEG;2004-11-19 10:00;METAR CYEG 191000Z 30005KT 15SM BKN046 BKN120 M03/M05 A3005 RMK SC6AC1 SLP215
CYEG;2004-11-19 11:00;METAR CYEG 191100Z 28006KT 15SM BKN048 M02/M05 A3007 RMK SC7 SLP220
CYEG;2004-11-19 12:00;METAR CYEG 191200Z 32008KT 15SM BKN034 OVC050 M02/M04 A3010 RMK SC5SC3 SLP232
CYEG;2004-11-19 13:00;METAR CYEG 191300Z 30005KT 15SM FEW025 BKN061 BKN200 M02/M04 A3013 RMK SC2SC3CI1 SLP241 SLP241
CYEG;2004-11-19 14:00;METAR CYEG 191400Z 27003KT 15SM FEW060 SCT120 BKN200 M05/M06 A3015 RMK SC2AC2CI1 SLP248 SLP248
CYEG;2004-11-19 15:00;METAR CYEG 191500Z 27005KT 15SM FEW060 FEW120 SCT200 M05/M06 A3017 RMK SC1AC1CI2 SLP260 SLP260
CYEG;2004-11-19 16:00;METAR CYEG 191600Z 28005KT 15SM FEW120 FEW200 M03/M05 A3018 RMK AC1CI0 SLP262
CYEG;2004-11-19 17:00;METAR CYEG 191700Z 26005KT 15SM FEW120 FEW200 M02/M04 A3018 RMK AC1CI1
CYEG;2004-11-19 18:00;METAR CYEG 191800Z 28010KT 15SM FEW060 M01/M03 A3018 RMK SC1 SLP260
CYEG;2004-11-19 19:00;METAR CYEG 191900Z 29011KT 15SM FEW014 00/M03 A3017 RMK CF1 SLP256
CYEG;2004-11-19 20:00;METAR CYEG 192000Z 28007KT 15SM FEW018 FEW200 01/M03 A3015 RMK CF1CI1 SLP249
CYEG;2004-11-19 21:00;METAR CYEG 192100Z 28008KT 15SM FEW024 FEW200 01/M04 A3013 RMK CF1CI1
CYEG;2004-11-19 22:00;METAR CYEG 192200Z 29007KT 15SM FEW028 FEW200 02/M05 A3012 RMK CU1CI1 TR CU SLP238
CYEG;2004-11-19 23:00;METAR CYEG 192300Z 29004KT 15SM FEW200 00/M06 A3012 RMK CI1 SLP238
CYEG;2004-11-20 00:00;METAR CYEG 200000Z 23003KT 15SM FEW250 M04/M08 A3012 RMK CI1 SLP240
CYEG;2004-11-20 01:00;METAR CYEG 200100Z 21004KT 15SM BKN220 M06/M08 A3013 RMK CI2 SLP243
CYEG;2004-11-20 02:00;METAR CYEG 200200Z 25003KT 15SM BKN220 M07/M09 A3014 RMK CI2 SLP246
CYEG;2004-11-20 03:00;METAR CYEG 200300Z 22005KT 15SM FEW100 BKN220 M06/M09 A3015 RMK AC1CI1 SLP253
CYEG;2004-11-20 04:00;METAR CYEG 200400Z 26005KT 15SM SCT220 M07/M10 A3015 RMK CI1 SLP256
CYEG;2004-11-20 05:00;METAR CYEG 200500Z 29005KT 15SM FEW090 SCT150 BKN220 M05/M08 A3016 RMK AC1AC2CI2 SLP258 SLP258
CYEG;2004-11-20 06:00;METAR CYEG 200600Z 29006KT 15SM FEW100 SCT160 BKN220 M03/M07 A3017 RMK AC1AC2CI1 SLP254 SLP254
CYEG;2004-11-20 07:00;METAR CYEG 200700Z 26006KT 15SM BKN150 BKN220 M06/M09 A3018 RMK AS3CI1 SLP256
CYEG;2004-11-20 08:00;METAR CYEG 200800Z 27005KT 15SM FEW150 SCT220 M07/M09 A3018 RMK AC1CI2 SLP257
CYEG;2004-11-20 09:00;METAR CYEG 200900Z 29007KT 15SM FEW150 M04/M07 A3020 RMK AC1 SLP262
CYEG;2004-11-20 10:00;METAR CYEG 201000Z 29009KT 15SM SCT076 BKN150 M03/M06 A3020 RMK AC4AS1 SLP263
CYEG;2004-11-20 11:00;METAR CYEG 201100Z 29008KT 15SM SKC M03/M06 A3020 RMK SLP264
CYEG;2004-11-20 12:00;METAR CYEG 201200Z 28006KT 15SM SKC M04/M07 A3020 RMK AURBO SLP268
CYEG;2004-11-20 13:00;METAR CYEG 201300Z 25006KT 15SM SKC M07/M09 A3019 RMK SLP266
CYEG;2004-11-20 14:00;METAR CYEG 201400Z 28004KT 15SM SKC M05/M07 A3020 RMK SLP268
CYEG;2004-11-20 15:00;METAR CYEG 201500Z 23003KT 15SM FEW250 M06/M08 A3019 RMK CI0 SLP270
CYEG;2004-11-20 16:00;METAR CYEG 201600Z 23005KT 15SM FEW120 FEW250 M05/M08 A3018 RMK AC1CI0 SLP265
CYEG;2004-11-20 17:00;METAR CYEG 201700Z 26007KT 15SM FEW180 BKN220 M02/M05 A3018 RMK AC1CI2
CYEG;2004-11-20 18:00;METAR CYEG 201800Z 25008KT 15SM FEW180 BKN220 M01/M05 A3015 RMK AC1CS2 HALO SLP248
CYEG;2004-11-20 19:00;METAR CYEG 201900Z 24007KT 15SM BKN170 BKN220 01/M05 A3012 RMK AC5CI1 SLP239
CYEG;2004-11-20 20:00;METAR CYEG 202000Z 22005KT 15SM BKN170 BKN220 02/M06 A3009 RMK AC6CI1 SLP229
CYEG;2004-11-20 21:00;METAR CYEG 202100Z 22007KT 15SM BKN150 BKN220 02/M05 A3006 RMK AC5CI1 SLP215
CYEG;2004-11-20 22:00;METAR CYEG 202200Z 22006KT 15SM BKN120 OVC220 02/M05 A3004 RMK AC3CI1 SLP208
CYEG;2004-11-20 23:00;METAR CYEG 202300Z 22005KT 15SM FEW052 BKN120 OVC220 02/M05 A3002 RMK SC2AC5CI0 SLP202 SLP202
CYEG;2004-11-21 00:00;METAR CYEG 210000Z 23007KT 15SM BKN052 OVC090 01/M05 A3000 RMK SC5AC2 SLP196
CYEG;2004-11-21 01:00;METAR CYEG 210100Z 27009KT 15SM -SHSN OVC044 01/M02 A3000 RMK SC8 SLP196
CYEG;2004-11-21 02:00;METAR CYEG 210200Z 26010KT 15SM -SHSN BKN044 OVC076 01/M01 A3001 RMK SC6AC2 SLP197
CYEG;2004-11-21 03:00;METAR CYEG 210300Z 22004KT 15SM FEW045 BKN071 OVC190 M00/M01 A2997 RMK SC2AC5AC2 SLP188 SLP188
CYEG;2004-11-21 04:00;METAR CYEG 210400Z 22005KT 15SM -SHSN BKN040 OVC070 01/M00 A2995 RMK SC6AC2 SLP182
CYEG;2004-11-21 05:00;METAR CYEG 210500Z 27005KT 15SM VCSH OVC050 01/M00 A2996 RMK SC8 SHSN N SLP186
CYEG;2004-11-21 06:00;METAR CYEG 210600Z 21005KT 15SM SCT050 BKN120 OVC210 00/M01 A2994 RMK SC4AS2CI0 SLP173 SLP173
CYEG;2004-11-21 07:00;METAR CYEG 210700Z 18005KT 15SM FEW060 BKN100 BKN220 M01/M02 A2992 RMK SC2AC2CI0 SLP166
CYEG;2004-11-21 08:00;METAR CYEG 210800Z 19005KT 15SM OVC051 00/M01 A2990 RMK SC8 SLP161
CYEG;2004-11-21 09:00;METAR CYEG 210900Z 17004KT 15SM OVC047 00/M01 A2988 RMK SC8 SLP149
CYEG;2004-11-21 10:00;METAR CYEG 211000Z 24004KT 15SM BKN042 02/M01 A2986 RMK SC7 SLP142
CYEG;2004-11-21 11:00;METAR CYEG 211100Z 23006KT 15SM SCT045 BKN063 02/M01 A2984 RMK SC3SC4 SLP135
CYEG;2004-11-21 12:00;METAR CYEG 211200Z 18007KT 15SM FEW045 OVC058 02/M00 A2981 RMK SC2SC6 SLP123
CYEG;2004-11-21 13:00;METAR CYEG 211300Z 20006KT 15SM FEW060 FEW090 BKN240 02/M01 A2979 RMK SC1AC2CI3 SLP118 SLP118
CYEG;2004-11-21 14:00;METAR CYEG 211400Z 19009KT 15SM BKN070 BKN240 02/M01 A2976 RMK AC6CI1 SLP108
CYEG;2004-11-21 15:00;METAR CYEG 211500Z 19006KT 15SM BKN080 OVC130 02/M01 A2975 RMK AC6AS1 SLP104
CYEG;2004-11-21 16:00;METAR CYEG 211600Z 19005KT 15SM SCT080 BKN110 OVC180 03/M01 A2973 RMK AC3AC3AS2 SLP098 SLP098
CYEG;2004-11-21 17:00;METAR CYEG 211700Z 20007KT 15SM BKN070 OVC110 04/M01 A2971 RMK AC6AC2 SLP091
CYEG;2004-11-21 18:00;METAR CYEG 211800Z 19008KT 15SM BKN068 OVC110 04/M01 A2968 RMK AC5AC3 VIRGA NE-SE SLP078 SLP078
CYEG;2004-11-21 19:00;METAR CYEG 211900Z 20007KT 15SM BKN090 OVC150 06/M01 A2965 RMK AC6AS2 VIRGA NE SLP067 SLP067
CYEG;2004-11-21 20:00;METAR CYEG 212000Z 23006KT 15SM BKN067 BKN120 OVC180 06/M01 A2963 RMK AC6AC2AS1 VIRGA NE-SW SLP061 VIRGA NE-SW SLP061
CYEG;2004-11-21 21:00;METAR CYEG 212100Z 23008KT 15SM BKN095 BKN130 07/M01 A2961 RMK AC6AS1 VIRGA E SLP051 SLP051
CYEG;2004-11-21 22:00;METAR CYEG 212200Z 24007KT 15SM BKN095 BKN120 OVC230 07/M02 A2958 RMK AC6AC1CI1 VIRGA E-SE SLP043 VIRGA E-SE SLP043
CYEG;2004-11-21 23:00;METAR CYEG 212300Z 25009KT 15SM FEW055 FEW095 BKN120 BKN240 07/M02 A2958 RMK SC1AC2AC3CI1 SLP042 SC1AC2AC3CI1 SLP042
CYEG;2004-11-22 00:00;METAR CYEG 220000Z 27005KT 15SM BKN120 BKN180 BKN240 05/M02 A2958 RMK AC5AS1CI1 SLP041 SLP041
CYEG;2004-11-22 01:00;METAR CYEG 220100Z 25004KT 15SM SCT090 BKN120 04/M02 A2957 RMK AC2AC5 SLP038
CYEG;2004-11-22 01:25;SPECI CYEG 220125Z 24005KT 15SM -SHRA SCT084 OVC110 RMK ACC3AC5
CYEG;2004-11-22 02:00;METAR CYEG 220200Z 29010G15KT 15SM FEW063 BKN084 OVC110 08/M02 A2957 RMK SC2AC4AC2 ACC EMBD OCNL RW- SLP037
CYEG;2004-11-22 02:12;SPECI CYEG 220212Z 30009KT 15SM VCSH FEW055 BKN084 OVC110 RMK SC2AC4AC2 ACC EMBD SH NE SH NE
CYEG;2004-11-22 03:00;METAR CYEG 220300Z 34008KT 15SM BKN085 BKN110 07/M01 A2959 RMK AC5AC1 SLP043
CYEG;2004-11-22 04:00;METAR CYEG 220400Z 30014KT 15SM BKN062 BKN110 06/M01 A2961 RMK SC5AC2 SLP049
CYEG;2004-11-22 05:00;METAR CYEG 220500Z 29010G15KT 15SM BKN083 BKN110 05/M01 A2962 RMK AC5AC1 SLP051
CYEG;2004-11-22 06:00;METAR CYEG 220600Z 29013KT 15SM FEW040 SCT080 BKN110 04/M02 A2965 RMK SC1AC2AC1 SLP063 SLP063
CYEG;2004-11-22 07:00;METAR CYEG 220700Z 30013G18KT 15SM BKN031 OVC090 04/M02 A2968 RMK SC6AC1 SLP072
CYEG;2004-11-22 07:13;SPECI CYEG 220713Z 31014KT 15SM -SHRA BKN027 OVC090 RMK SC7AC1
CYEG;2004-11-22 07:26;SPECI CYEG 220726Z 35019G25KT 10SM -SHRAGS OVC017 RMK SC8 PRESRR SLP089 SLP089
CYEG;2004-11-22 08:33;SPECI CYEG 220833Z 34013G20KT 15SM -SHRA BKN014 OVC090 RMK SC6AC2 PRESRR
CYEG;2004-11-22 08:47;SPECI CYEG 220847Z 34014KT 15SM VCSH BKN014 OVC030 RMK SC6SC2 PRESRR SHRA NW CIG RAG RAG
CYEG;2004-11-22 09:49;SPECI CYEG 220949Z 34019KT 15SM FEW008 BKN027 OVC073 RMK SF2SC5AC2 VIRGA
CYEG;2004-11-22 10:00;METAR CYEG 221000Z 34016G24KT 15SM FEW008 BKN027 OVC073 M01/M06 A2983 RMK SF2SC3AC3 SLP128
CYEG;2004-11-22 11:00;METAR CYEG 221100Z 33015G20KT 15SM FEW008 SCT025 BKN091 M02/M06 A2989 RMK SF1SC2AC3 SLP145
CYEG;2004-11-22 12:00;METAR CYEG 221200Z 32012KT 15SM FEW025 SCT160 BKN250 M03/M07 A2992 RMK SC1AC2CI0 SLP163 SLP163
CYEG;2004-11-22 13:00;METAR CYEG 221300Z 32016G24KT 15SM BKN034 BKN090 M02/M08 A2995 RMK SC6AC1 SLP170
CYEG;2004-11-22 14:00;METAR CYEG 221400Z 32015G22KT 15SM BKN035 BKN090 BKN250 M03/M08 A2998 RMK SC3AC1CI0 SLP182
CYEG;2004-11-22 15:00;METAR CYEG 221500Z 31010G17KT 15SM FEW036 SCT250 M04/M08 A3001 RMK SC2CI0 SLP192
CYEG;2004-11-22 16:00;METAR CYEG 221600Z 31012KT 15SM BKN034 M03/M08 A3004 RMK SC6 SLP201
CYEG;2004-11-22 17:00;METAR CYEG 221700Z 31012G18KT 15SM FEW034 M03/M08 A3005 RMK SC2 SLP206
CYEG;2004-11-22 18:00;METAR CYEG 221800Z 32013KT 15SM FEW029 M02/M08 A3007 RMK SC2 SLP214
CYEG;2004-11-22 19:00;METAR CYEG 221900Z 32012G19KT 15SM FEW031 FEW220 M01/M09 A3006 RMK CF1CI1 TR CI SLP212 SLP212
CYEG;2004-11-22 20:00;METAR CYEG 222000Z 32013KT 15SM FEW031 FEW200 M01/M10 A3006 RMK CF1CI1 TR CF SLP211 SLP211
CYEG;2004-11-22 21:00;METAR CYEG 222100Z 32012KT 15SM FEW030 SCT220 M01/M11 A3005 RMK CF1CI1 TR CF SLP212
CYEG;2004-11-22 22:00;METAR CYEG 222200Z 31007KT 15SM FEW030 FEW220 M01/M11 A3004 RMK CF1CI1 TR CF SLP208 SLP208
CYEG;2004-11-22 23:00;METAR CYEG 222300Z 29003KT 15SM FEW240 M02/M10 A3003 RMK CI1 SLP205
CYEG;2004-11-23 00:00;METAR CYEG 230000Z 24004KT 15SM FEW240 M06/M11 A3002 RMK CI1 SLP208
CYEG;2004-11-23 01:00;METAR CYEG 230100Z 19005KT 15SM FEW240 M08/M12 A3003 RMK CI1 SLP211
CYEG;2004-11-23 02:00;METAR CYEG 230200Z 20006KT 15SM FEW240 M09/M12 A3000 RMK CI1 SLP200
CYEG;2004-11-23 03:00;METAR CYEG 230300Z 19004KT 15SM BKN210 M09/M12 A3000 RMK CI1 SLP202
CYEG;2004-11-23 04:00;METAR CYEG 230400Z 18007KT 15SM FEW150 BKN210 M08/M11 A3000 RMK AC1CI1 SLP202
CYEG;2004-11-23 05:00;METAR CYEG 230500Z 18008KT 15SM BKN060 BKN090 M07/M10 A2997 RMK SC5AC2 SLP194
CYEG;2004-11-23 06:00;METAR CYEG 230600Z 20006KT 15SM BKN075 BKN100 M05/M08 A2995 RMK AC6AC2 SLP182
CYEG;2004-11-23 07:00;METAR CYEG 230700Z 21005KT 15SM FEW030 BKN078 OVC100 M04/M08 A2995 RMK SC1AC6AC2 VIRGA SLP180 VIRGA SLP180
CYEG;2004-11-23 07:13;SPECI CYEG 230713Z 22004KT 15SM -SN BKN080 OVC100 RMK AC6AC2
CYEG;2004-11-23 08:00;METAR CYEG 230800Z 24005KT 12SM -SN BKN088 OVC150 M04/M07 A2995 RMK AC6AC2 SLP180
CYEG;2004-11-23 09:05;SPECI CYEG 230905Z 26010KT 2SM -SN BKN008 OVC040 RMK SC6SC2
CYEG;2004-11-23 09:00;METAR CYEG 230900Z 26009KT 15SM -SN BKN040 OVC090 M03/M06 A2995 RMK SC6AC2 SLP177
CYEG;2004-11-23 09:09;SPECI CYEG 230909Z 26009KT 1/2SM R12/4500FT SN BKN008 OVC026 RMK SN3SC2SC2
CYEG;2004-11-23 09:15;SPECI CYEG 230915Z 25007KT 15SM -SN SCT008 BKN041 RESN RMK SF3SC4
CYEG;2004-11-23 10:00;METAR CYEG 231000Z 24009KT 15SM -SN FEW030 OVC089 M03/M06 A2993 RESN RMK SC1AC8 SLP172 SLP172
CYEG;2004-11-23 11:00;METAR CYEG 231100Z 26010KT 15SM -SN FEW030 OVC082 M03/M06 A2992 RMK SC1AC8 SLP170
CYEG;2004-11-23 11:32;SPECI CYEG 231132Z 27008KT 15SM OVC075 RMK AC8
CYEG;2004-11-23 12:00;METAR CYEG 231200Z 27007KT 15SM OVC078 M03/M06 A2993 RMK AC8 SLP177
CYEG;2004-11-23 13:00;METAR CYEG 231300Z 28006KT 15SM BKN073 M03/M05 A2994 RMK AC7 SLP179
CYEG;2004-11-23 14:00;METAR CYEG 231400Z 27005KT 15SM FEW020 BKN074 BKN250 M03/M06 A2994 RMK CF1AC6CI0 SLP178 SLP178
CYEG;2004-11-23 15:00;METAR CYEG 231500Z 26005KT 15SM BKN065 M04/M05 A2995 RMK SC7 VIRGA E SLP185
CYEG;2004-11-23 16:00;METAR CYEG 231600Z 28006KT 15SM BKN067 M03/M05 A2995 RMK AC7 VIRGA W E SE
CYEG;2004-11-23 17:00;METAR CYEG 231700Z 28004KT 15SM FEW015 BKN067 M02/M05 A2995 RMK CF1AC7 TR CF SLP186 SLP186
CYEG;2004-11-23 19:00;METAR CYEG 231900Z 32005KT 15SM FEW015 BKN067 M01/M05 A2995 RMK CU1AC7 TR CU SLP180
CYEG;2004-11-23 20:00;METAR CYEG 232000Z 30003KT 15SM FEW020 BKN065 M01/M06 A2994 RMK CU1SC7 VIRGA N TR CU SLP178 CU SLP178
CYEG;2004-11-23 21:00;METAR CYEG 232100Z 26004KT 15SM FEW020 BKN065 BKN250 M01/M05 A2994 RMK CU1SC7CI1 TR CU CI SLP174 TR CU CI SLP174
CYEG;2004-11-23 22:00;METAR CYEG 232200Z 26004KT 15SM FEW020 BKN065 BKN250 M01/M05 A2992 RMK CU1SC6CI1 TR CU SLP167 TR CU SLP167
CYEG;2004-11-23 23:00;METAR CYEG 232300Z 22002KT 15SM BKN067 BKN250 M01/M05 A2990 RMK AC5CI1 SLP163 TR SC SLP166
CYEG;2004-11-24 01:00;METAR CYEG 240100Z 17002KT 15SM BKN061 BKN130 BKN250 M05/M07 A2989 RMK SC5AC2CI0 SLP162 SLP162
CYEG;2004-11-24 02:00;METAR CYEG 240200Z 14003KT 15SM FEW060 SCT120 BKN250 M06/M07 A2988 RMK SC2AC2CI1 SLP156 SLP156
CYEG;2004-11-24 03:00;METAR CYEG 240300Z 18006KT 15SM FEW060 BKN100 BKN250 M05/M08 A2987 RMK SC1AC2CS0 HALO SLP154 HALO SLP154
CYEG;2004-11-24 04:00;METAR CYEG 240400Z 18006KT 15SM FEW060 SCT150 BKN250 M06/M09 A2985 RMK SC1AC1CS2 SLP148 SLP148
CYEG;2004-11-24 05:00;METAR CYEG 240500Z 18006KT 15SM SCT150 OVC250 M05/M08 A2983 RMK AC2CS2 SLP141
CYEG;2004-11-24 06:00;METAR CYEG 240600Z 17006KT 15SM SCT140 BKN250 M05/M08 A2979 RMK AC2CS2 SLP126
CYEG;2004-11-24 07:00;METAR CYEG 240700Z 17008KT 15SM FEW050 SCT150 BKN250 M07/M08 A2977 RMK SC1AC1CS1 SLP119 SLP119
CYEG;2004-11-24 08:00;METAR CYEG 240800Z 17007KT 15SM FEW050 FEW150 BKN250 M06/M09 A2976 RMK SC1AC1CS1 TR SC SLP115 TR SC SLP115
CYEG;2004-11-24 09:00;METAR CYEG 240900Z 16007KT 15SM FEW050 BKN150 OVC250 M05/M08 A2973 RMK SC1AC2CS2 SLP105 SLP105
CYEG;2004-11-24 10:00;METAR CYEG 241000Z 17006KT 15SM FEW100 BKN150 OVC250 M05/M07 A2972 RMK AC2AS4CS2 SLP101 SLP101
CYEG;2004-11-24 11:00;METAR CYEG 241100Z 17005KT 15SM -SN OVC070 M04/M06 A2970 RMK AC8 SLP093
CYEG;2004-11-24 11:25;SPECI CYEG 241125Z 16005KT 15SM OVC065 RMK SC8
CYEG;2004-11-24 12:00;METAR CYEG 241200Z 15005KT 15SM OVC054 M04/M06 A2967 RMK SC8 SLP085
CYEG;2004-11-24 13:00;METAR CYEG 241300Z 15004KT 15SM OVC035 M04/M06 A2965 RMK SC8 VIRGA S SLP078
CYEG;2004-11-24 14:00;METAR CYEG 241400Z 17006KT 15SM FEW020 BKN048 OVC080 M04/M06 A2963 RMK SC1SC6AC2 VIRGA S SLP071 VIRGA S SLP071
CYEG;2004-11-24 14:14;SPECI CYEG 241414Z 17005KT 15SM -SN BKN050 BKN080 RMK SC6AC1
CYEG;2004-11-24 14:34;SPECI CYEG 241434Z 15004KT 15SM VCSH BKN050 BKN110 RMK SC6AC1 PCPN NE
CYEG;2004-11-24 15:00;METAR CYEG 241500Z 13005KT 15SM BKN050 BKN110 OVC220 M04/M06 A2961 RMK SC6AC1CI1 VIRGA N-NE-SE SLP066 VIRGA N-NE-SE SLP066
CYEG;2004-11-24 16:00;METAR CYEG 241600Z 16004KT 15SM -SN BKN037 BKN068 OVC100 M03/M05 A2959 RMK SC6AC2AS1 PCPN VRY LGT SLP061
CYEG;2004-11-24 17:00;METAR CYEG 241700Z 14007KT 15SM -SN BKN033 BKN058 OVC100 M02/M05 A2957 RMK SC6SC2AS1 PCPN VRY LGT S- INTMT SLP053
CYEG;2004-11-24 17:27;SPECI CYEG 241727Z 15003KT 15SM VCSH BKN032 BKN055 OVC100 RMK SC6SC2AS1 VIRGA/PCPN N-NE-SE
CYEG;2004-11-24 18:00;METAR CYEG 241800Z 17007KT 15SM SCT035 BKN060 OVC100 M01/M04 A2955 RMK SC3SC3AS2 VIRGA NE SLP042 VIRGA NE SLP042
CYEG;2004-11-24 19:00;METAR CYEG 241900Z 17006KT 15SM FEW035 SCT080 OVC130 M00/M04 A2952 RMK SC1AC3AS4 SLP035 SLP035
CYEG;2004-11-24 20:00;METAR CYEG 242000Z 17006KT 15SM BKN064 OVC090 00/M04 A2951 RMK SC6AC2 SLP030
CYEG;2004-11-24 21:00;METAR CYEG 242100Z 17006KT 15SM BKN070 BKN140 OVC250 01/M03 A2949 RMK AC6AC2CI1 SLP018 SLP018
CYEG;2004-11-24 22:00;METAR CYEG 242200Z 18005KT 15SM BKN063 BKN140 BKN250 02/M02 A2946 RMK SC6AC1CI1 VIRGA N SLP011 VIRGA N SLP011
CYEG;2004-11-24 23:00;METAR CYEG 242300Z 18005KT 15SM BKN056 02/M02 A2945 RMK SC7 VIRGA ALQDS SLP006
CYEG;2004-11-25 00:00;METAR CYEG 250000Z 18005KT 15SM BKN052 BKN090 01/M02 A2945 RMK SC6AC1 VIRGA ALQDS SLP004 SLP004
CYEG;2004-11-25 01:00;METAR CYEG 250100Z 20005KT 15SM BKN054 OVC100 02/M02 A2944 RMK SC6AC2 VIRGA OVRHD SLP001 SLP001
CYEG;2004-11-25 02:00;METAR CYEG 250200Z 20003KT 15SM FEW050 OVC085 02/M02 A2944 RMK SC2AC6 SLP000
CYEG;2004-11-25 02:15;SPECI CYEG 250215Z 21003KT 15SM -SHRA BKN043 OVC080 RMK SC5AC3 PCPN VRY LGT
CYEG;2004-11-25 02:49;SPECI CYEG 250249Z 24006KT 15SM FEW035 OVC085 RMK SC2AC6 VIRGA
CYEG;2004-11-25 03:00;METAR CYEG 250300Z 23007KT 15SM FEW035 OVC087 01/M02 A2944 RMK SC2AC6 VIRGA
CYEG;2004-11-25 03:38;SPECI CYEG 250338Z 23005KT 15SM -SHRA BKN055 OVC087 RMK SC5AC3 PCPN VRY
CYEG;2004-11-25 04:00;METAR CYEG 250400Z 22006KT 15SM -SHRA BKN053 OVC087 02/M01 A2944 RMK SC6AC2
CYEG;2004-11-25 04:16;SPECI CYEG 250416Z 23006KT 15SM BKN053 OVC090 RMK SC6AC2
CYEG;2004-11-25 05:00;METAR CYEG 250500Z 24005KT 15SM BKN053 BKN090 OVC130 03/M01 A2944 RMK SC5AC2AC1 SLP001
CYEG;2004-11-25 06:00;METAR CYEG 250600Z 27007KT 15SM -SHRA FEW053 BKN062 BKN080 04/M01 A2944 RMK SC2SC3AC2 SLP997
CYEG;2004-11-25 06:48;SPECI CYEG 250648Z 27007KT 15SM FEW060 SCT075 RMK SC1AC2 VIRGA NE
CYEG;2004-11-25 07:00;METAR CYEG 250700Z 27004KT 15SM FEW075 02/M01 A2945 RMK AC2 SLP998
CYEG;2004-11-25 08:00;METAR CYEG 250800Z 23005KT 15SM FEW075 M01/M03 A2945 RMK AC1 AURBO SLP000
CYEG;2004-11-25 09:00;METAR CYEG 250900Z 22003KT 15SM FEW075 M03/M05 A2946 RMK AC1 SLP007
CYEG;2004-11-25 10:00;METAR CYEG 251000Z 25005KT 15SM BKN079 M01/M04 A2947 RMK AC4 SLP011
CYEG;2004-11-25 11:00;METAR CYEG 251100Z 31008KT 15SM FEW080 SCT120 01/M02 A2947 RMK AC1AC2 VIRGA N SLP012 SLP012
CYEG;2004-11-25 12:00;METAR CYEG 251200Z 25007KT 15SM -SHSN FEW060 BKN080 00/M02 A2950 RMK SC2AC5 SLP017
CYEG;2004-11-25 12:24;SPECI CYEG 251224Z 27009KT 15SM VCSH BKN060 BKN080 RMK SC5AC2 VIRGA PCPN SE-SW
CYEG;2004-11-25 13:00;METAR CYEG 251300Z 28010G17KT 15SM SCT060 BKN090 BKN120 03/M03 A2953 RMK SC3AC2AC1 VIRGA SLP026
CYEG;2004-11-25 14:00;METAR CYEG 251400Z 28009KT 15SM SCT090 BKN120 02/M04 A2954 RMK AC3AC3 SLP031
CYEG;2004-11-25 15:00;METAR CYEG 251500Z 28012G17KT 15SM FEW090 FEW120 01/M05 A2955 RMK AC1AC2 SLP036
CYEG;2004-11-25 16:00;METAR CYEG 251600Z 29013KT 15SM FEW120 00/M05 A2958 RMK AC1 SLP043
CYEG;2004-11-25 17:00;METAR CYEG 251700Z 29010KT 15SM FEW020 FEW120 01/M03 A2960 RMK CF1AC1 SLP050
CYEG;2004-11-25 18:00;METAR CYEG 251800Z 30008KT 15SM FEW020 FEW120 02/M04 A2961 RMK CF1AC1 SLP053
CYEG;2004-11-25 19:00;METAR CYEG 251900Z 29006KT 15SM FEW120 03/M04 A2961 RMK AC1 SLP052
CYEG;2004-11-25 20:00;METAR CYEG 252000Z 28007KT 15SM FEW120 03/M05 A2959 RMK AC1 SLP047
CYEG;2004-11-25 21:00;METAR CYEG 252100Z 28005KT 15SM FEW120 04/M06 A2958 RMK AC1 SLP048
CYEG;2004-11-25 22:00;METAR CYEG 252200Z 24006KT 15SM FEW120 FEW250 03/M05 A2958 RMK AC1CI1 SLP045
CYEG;2004-11-25 23:00;METAR CYEG 252300Z 21004KT 15SM FEW250 01/M06 A2957 RMK CI0 SLP044
CYEG;2004-11-26 00:00;METAR CYEG 260000Z 19008KT 15SM FEW240 M03/M08 A2957 RMK CI0 SLP047
CYEG;2004-11-26 01:00;METAR CYEG 260100Z 19007KT 15SM FEW240 M05/M09 A2957 RMK CI1 SLP046
CYEG;2004-11-26 02:00;METAR CYEG 260200Z 19007KT 15SM FEW240 M06/M10 A2957 RMK CI0 SLP045
CYEG;2004-11-26 03:00;METAR CYEG 260300Z 19008KT 15SM FEW180 M06/M10 A2956 RMK AC0 SLP045
CYEG;2004-11-26 04:00;METAR CYEG 260400Z 00000KT 15SM BKN180 M07/M11 A2958 RMK AC2 SLP050
CYEG;2004-11-26 05:00;METAR CYEG 260500Z 26003KT 15SM FEW120 BKN190 M07/M12 A2960 RMK AC2AC1 SLP058
CYEG;2004-11-26 06:00;METAR CYEG 260600Z 27003KT 15SM FEW120 BKN190 BKN220 M07/M12 A2961 RMK AC2AC1CI1 VIRGA NW-NE SLP063 VIRGA NW-NE SLP063
CYEG;2004-11-26 07:00;METAR CYEG 260700Z 29005KT 15SM SCT120 OVC150 M02/M09 A2964 RMK AC3AS2 VIRGA SLP070 SLP070
CYEG;2004-11-26 08:00;METAR CYEG 260800Z 27005KT 15SM SCT120 OVC150 M04/M10 A2965 RMK AC3AS2 VIRGA SLP076 SLP076
CYEG;2004-11-26 09:00;METAR CYEG 260900Z 24005KT 15SM FEW120 BKN150 BKN210 M05/M10 A2967 RMK AC2AC2CI2 VIRGA SLP080 VIRGA SLP080
CYEG;2004-11-26 10:00;METAR CYEG 261000Z 26007KT 15SM BKN160 BKN210 M05/M10 A2969 RMK AC2CI2 SLP084
CYEG;2004-11-26 11:00;METAR CYEG 261100Z 25007KT 15SM SCT091 BKN210 M06/M11 A2970 RMK AC4CI1 SLP087
CYEG;2004-11-26 12:00;METAR CYEG 261200Z 27006KT 15SM BKN080 BKN130 BKN210 M04/M09 A2971 RMK AC4AC1CI0 SLP098 SLP098
CYEG;2004-11-26 13:00;METAR CYEG 261300Z 29005KT 15SM FEW080 BKN090 OVC130 M03/M08 A2972 RMK AC2AC5AC1 VIRGA PCPN NE SLP103 VIRGA PCPN NE SLP103
CYEG;2004-11-26 14:00;METAR CYEG 261400Z 30009G21KT 15SM FEW080 BKN110 BKN210 M02/M07 A2974 RMK AC2AC2CI1 VIRGA N+S SLP108
CYEG;2004-11-26 15:00;METAR CYEG 261500Z 27005KT 15SM BKN070 BKN210 M02/M06 A2976 RMK AC6CI1 VIRGA SLP116 SLP116
CYEG;2004-11-26 16:00;METAR CYEG 261600Z 28006KT 15SM BKN085 BKN210 M02/M06 A2977 RMK AC4CI0 VIRGA SLP121 SLP121
CYEG;2004-11-26 17:00;METAR CYEG 261700Z 29009KT 15SM SCT095 BKN210 M00/M06 A2979 RMK AC2CI1 VIRGA N SLP125 SLP125
CYEG;2004-11-26 18:00;METAR CYEG 261800Z 28008KT 15SM FEW095 FEW210 01/M06 A2980 RMK AC1CI0 VIRGA NE SLP128 SLP128
CYEG;2004-11-26 19:00;METAR CYEG 261900Z 30013KT 15SM FEW095 FEW210 02/M08 A2980 RMK AC1CI0 VIRGA
CYEG;2004-11-26 20:00;METAR CYEG 262000Z 30015KT 15SM FEW095 FEW210 02/M09 A2979 RMK AC1CI0
CYEG;2004-11-26 21:00;METAR CYEG 262100Z 30009G19KT 15SM FEW050 FEW100 FEW250 02/M10 A2979 RMK CU1AC1CI1 TR CU/AC SLP122
CYEG;2004-11-26 22:00;METAR CYEG 262200Z 30010KT 15SM FEW100 BKN250 02/M10 A2979 RMK AC1CI1 SLP123
CYEG;2004-11-26 23:00;METAR CYEG 262300Z 00000KT 15SM BKN070 BKN250 M00/M10 A2980 RMK AC3CI1 SLP126
CYEG;2004-11-27 00:00;METAR CYEG 270000Z 19004KT 15SM BKN070 BKN250 M01/M10 A2980 RMK AC4CI1 SLP129
CYEG;2004-11-27 01:00;METAR CYEG 270100Z 21004KT 15SM BKN070 BKN250 M02/M10 A2979 RMK AC6CI1 SLP126
CYEG;2004-11-27 02:00;METAR CYEG 270200Z 18005KT 15SM OVC078 M02/M09 A2979 RMK AC7 SLP126
CYEG;2004-11-27 03:00;METAR CYEG 270300Z 21004KT 15SM OVC080 M02/M09 A2979 RMK AC8 VIRGA SLP122
CYEG;2004-11-27 04:00;METAR CYEG 270400Z 21004KT 15SM BKN086 M02/M09 A2978 RMK AC7 SLP120
CYEG;2004-11-27 05:00;METAR CYEG 270500Z 26006KT 15SM OVC083 M02/M09 A2978 RMK AC8 SLP120
CYEG;2004-11-27 06:00;METAR CYEG 270600Z 25004KT 15SM BKN069 OVC088 M02/M09 A2978 RMK AC6AC2 SLP119
CYEG;2004-11-27 07:00;METAR CYEG 270700Z 26004KT 15SM SCT069 OVC092 M02/M10 A2979 RMK AC3AC4 SLP121
CYEG;2004-11-27 08:00;METAR CYEG 270800Z 27005KT 15SM OVC080 M02/M10 A2980 RMK AC8 VIRGA SLP124
CYEG;2004-11-27 09:00;METAR CYEG 270900Z 26008KT 15SM VCSH OVC033 M01/M09 A2981 RMK SC7 SHSN N
CYEG;2004-11-27 10:00;METAR CYEG 271000Z 27007KT 15SM FEW035 OVC100 M00/M08 A2982 RMK SC2AC6 SLP128
CYEG;2004-11-27 11:00;METAR CYEG 271100Z 27006KT 15SM BKN094 M03/M08 A2983 RMK AC5 SLP130
CYEG;2004-11-27 12:00;METAR CYEG 271200Z 26007KT 15SM BKN068 BKN180 M04/M07 A2982 RMK AC5AC2 SLP135
CYEG;2004-11-27 13:00;METAR CYEG 271300Z 29005KT 15SM OVC063 M02/M07 A2983 RMK SC8 SLP137
CYEG;2004-11-27 14:00;METAR CYEG 271400Z 29005KT 15SM OVC067 M02/M07 A2984 RMK AC8 VIRGA SLP140
CYEG;2004-11-27 15:00;METAR CYEG 271500Z 28004KT 15SM OVC070 M02/M07 A2985 RMK AC8 VIRGA SLP145
CYEG;2004-11-27 16:00;METAR CYEG 271600Z 29007KT 15SM FEW060 BKN075 M02/M07 A2987 RMK SC1AC7 SLP149
CYEG;2004-11-27 17:00;METAR CYEG 271700Z 32006KT 15SM FEW060 BKN080 M01/M06 A2989 RMK SC1AC6 SLP156
CYEG;2004-11-27 18:00;METAR CYEG 271800Z 31008KT 15SM FEW060 BKN082 M01/M07 A2990 RMK SC1AC7 SLP162
CYEG;2004-11-27 19:00;METAR CYEG 271900Z 31006KT 15SM FEW060 BKN078 M00/M06 A2991 RMK SC1AC7 SLP164
CYEG;2004-11-27 20:00;METAR CYEG 272000Z 31009KT 15SM FEW060 BKN085 M01/M07 A2992 RMK SC1AC6 CU ASOCTD SLP166 SLP166
CYEG;2004-11-27 21:00;METAR CYEG 272100Z 32009KT 15SM FEW060 FEW085 BKN250 00/M07 A2992 RMK SC1AC2CI2 CU ASOCTD SLP165 CU ASOCTD SLP165
CYEG;2004-11-27 22:00;METAR CYEG 272200Z 31007KT 15SM FEW060 BKN082 BKN250 M00/M07 A2993 RMK SC1AC5CI0 SLP169 SLP169
CYEG;2004-11-27 23:00;METAR CYEG 272300Z 30007KT 15SM FEW080 FEW250 M02/M07 A2994 RMK AC1CI0 SLP172
CYHZ;2004-08-15 00:00;METAR CYHZ 150000Z 22007KT 15SM FEW030 FEW250 21/20 A3011 RMK SC1CI1 SLP197
CYHZ;2004-08-15 01:00;METAR CYHZ 150100Z 21008KT 15SM FEW250 20/19 A3013 RMK CI0 SLP203
CYHZ;2004-08-15 02:00;METAR CYHZ 150200Z 24007KT 15SM SKC 21/19 A3015 RMK SLP209
CYHZ;2004-08-15 03:00;METAR CYHZ 150300Z 26007KT 15SM SKC 21/19 A3016 RMK SLP211
CYHZ;2004-08-15 04:00;METAR CYHZ 150400Z 28003KT 15SM SKC 20/19 A3016 RMK SLP212
CYHZ;2004-08-15 05:00;METAR CYHZ 150500Z 29006KT 15SM SKC 19/18 A3017 RMK SLP216
CYHZ;2004-08-15 06:00;METAR CYHZ 150600Z 27005KT 10SM SKC 19/18 A3018 RMK SLP220
CYHZ;2004-08-15 07:00;METAR CYHZ 150700Z 30005KT 10SM SKC 18/17 A3020 RMK SLP226
CYHZ;2004-08-15 08:00;METAR CYHZ 150800Z 27003KT 10SM FEW240 18/17 A3020 RMK CI1 SLP227
CYHZ;2004-08-15 09:00;METAR CYHZ 150900Z 28005KT 10SM FEW070 BKN240 17/16 A3022 RMK AC1CI3 SLP235
CYHZ;2004-08-15 10:00;METAR CYHZ 151000Z 29003KT 20SM FEW190 FEW250 18/16 A3024 RMK AC1CI0 SLP241
CYHZ;2004-08-15 11:00;METAR CYHZ 151100Z 30007KT 20SM FEW190 19/16 A3025 RMK AC2 SLP245
CYHZ;2004-08-15 12:00;METAR CYHZ 151200Z 30006KT 20SM SCT190 20/17 A3028 RMK AC3 SLP252
CYHZ;2004-08-15 13:00;METAR CYHZ 151300Z 34006KT 20SM SCT190 21/17 A3028 RMK AC2 SLP253
CYHZ;2004-08-15 14:00;METAR CYHZ 151400Z 31004KT 20SM FEW025 FEW190 23/16 A3029 RMK CU1AC2 SLP256
CYHZ;2004-08-15 15:00;METAR CYHZ 151500Z 33006KT 20SM FEW028 FEW160 FEW240 24/17 A3029 RMK CU1AC2CI0 SLP256
CYHZ;2004-08-15 16:00;METAR CYHZ 151600Z 31008KT 20SM FEW035 BKN110 BKN160 25/16 A3028 RMK CU1AC5AC1 SLP255 SLP255
CYHZ;2004-08-15 17:00;METAR CYHZ 151700Z 33005KT 20SM FEW043 BKN110 BKN160 25/15 A3027 RMK CU1AC6AC1 SLP251 SLP251
CYHZ;2004-08-15 18:00;METAR CYHZ 151800Z 31007KT 20SM FEW040 BKN100 BKN160 26/15 A3027 RMK SC2AC5AC1 SLP251
CYHZ;2004-08-15 19:00;METAR CYHZ 151900Z 34009KT 20SM FEW035 SCT060 BKN085 25/16 A3027 RMK SC2SC2AC4 SLP251
CYHZ;2004-08-15 20:00;METAR CYHZ 152000Z 31005KT 20SM FEW035 SCT060 BKN080 24/15 A3027 RMK SC1SC2AC4 SLP250 SLP250
CYHZ;2004-08-15 21:00;METAR CYHZ 152100Z 34007KT 15SM FEW030 FEW060 BKN075 BKN110 23/16 A3027 RMK SC1SC1AC3AC1 SLP250
CYHZ;2004-08-15 22:00;METAR CYHZ 152200Z 32005KT 15SM FEW030 FEW060 BKN085 22/15 A3026 RMK SC1SC1AC5 SLP247 SLP247
CYHZ;2004-08-15 23:00;METAR CYHZ 152300Z 33004KT 15SM BKN065 21/15 A3027 RMK SC7 SLP251
CYHZ;2004-08-16 00:00;METAR CYHZ 160000Z 32010KT 15SM OVC059 20/13 A3031 RMK SC8 SLP262
CYHZ;2004-08-16 01:00;METAR CYHZ 160100Z 34010KT 15SM OVC052 17/15 A3031 RMK SC8 SLP263
CYHZ;2004-08-16 02:00;METAR CYHZ 160200Z 36004KT 15SM OVC050 16/15 A3030 RMK SC8 SLP259
CYHZ;2004-08-16 03:00;METAR CYHZ 160300Z 05005KT 10SM OVC045 16/15 A3029 RMK SC8 SLP257
CYHZ;2004-08-16 04:00;METAR CYHZ 160400Z 11005KT 10SM OVC036 16/16 A3028 RMK SC8 SLP254
CYHZ;2004-08-16 05:00;METAR CYHZ 160500Z 13005KT 10SM -SHRA SCT021 OVC030 16/16 A3028 RMK SC4SC4 SLP254
CYHZ;2004-08-16 06:00;METAR CYHZ 160600Z 08003KT 15SM BKN030 OVC072 16/16 A3026 RMK SC7AC1 SLP246
CYHZ;2004-08-16 07:00;METAR CYHZ 160700Z 09002KT 10SM OVC027 17/16 A3025 RMK SC8 SLP243
CYHZ;2004-08-16 08:00;METAR CYHZ 160800Z 35003KT 10SM OVC027 16/16 A3024 RMK SC8 SLP240
CYHZ;2004-08-16 09:00;METAR CYHZ 160900Z 06002KT 10SM BKN030 OVC070 16/16 A3024 RMK SC7AC1 SLP240
CYHZ;2004-08-16 10:00;METAR CYHZ 161000Z 12003KT 10SM FEW015 BKN035 BKN070 17/16 A3025 RMK SF1SC6AC1 SLP243 SLP243
CYHZ;2004-08-16 11:00;METAR CYHZ 161100Z 10003KT 5SM BR FEW004 OVC050 17/16 A3025 RMK SF2SC6
CYHZ;2004-08-16 12:00;METAR CYHZ 161200Z 05006KT 5SM BR SCT004 BKN017 OVC050 17/16 A3024 RMK SF4SC2SC2 SLP241 SLP241
CYHZ;2004-08-16 13:00;METAR CYHZ 161300Z 34003KT 10SM BKN008 OVC015 18/17 A3025 RMK SF6SC2
CYHZ;2004-08-16 14:00;METAR CYHZ 161400Z 35006KT 15SM BKN008 OVC030 18/17 A3025 RMK SF5SC3
CYHZ;2004-08-16 15:00;METAR CYHZ 161500Z 36006KT 15SM BKN010 OVC030 20/16 A3023 RMK SF6SC2 CIG RAG SLP239 SLP239
CYHZ;2004-08-16 16:00;METAR CYHZ 161600Z 04006KT 15SM BKN022 OVC032 21/17 A3021 RMK SC6SC2 SLP230
CYHZ;2004-08-16 17:00;METAR CYHZ 161700Z 03004KT 15SM FEW020 BKN032 BKN280 22/17 A3019 RMK CU2CU3CC2 SLP226 SLP226
CYHZ;2004-08-16 18:00;METAR CYHZ 161800Z 06004KT 15SM SCT032 BKN100 BKN280 22/17 A3017 RMK CU3AC2CC2 TCU ASOCT SLP216 TCU ASOCT SLP216
CYHZ;2004-08-16 19:00;METAR CYHZ 161900Z 05002KT 15SM BKN038 BKN100 BKN280 23/17 A3016 RMK CU5AC2CC1 TCU ASOCT SLP214 TCU ASOCT SLP214
CYHZ;2004-08-16 20:00;METAR CYHZ 162000Z 05006KT 15SM BKN044 OVC100 22/17 A3016 RMK CU7AC1 SLP214
CYHZ;2004-08-16 21:00;METAR CYHZ 162100Z 02004KT 15SM OVC039 22/17 A3015 RMK CU8 SLP211
CYHZ;2004-08-16 22:00;METAR CYHZ 162200Z 08005KT 15SM OVC042 22/17 A3014 RMK CU8 SLP207
CYHZ;2004-08-16 23:00;METAR CYHZ 162300Z 17004KT 15SM BKN031 OVC100 20/18 A3014 RMK CU7AC1 SLP208
CYHZ;2004-08-17 00:00;METAR CYHZ 170000Z 18003KT 15SM OVC024 20/18 A3013 RMK SC8 SLP205
CYHZ;2004-08-17 01:00;METAR CYHZ 170100Z 34003KT 15SM -SHRA OVC100 19/17 A3013 RMK AC8 SLP205
CYHZ;2004-08-17 02:00;METAR CYHZ 170200Z 35004KT 10SM -SHRA FEW020 OVC062 17/16 A3013 RMK SC2SC6 SLP205
CYHZ;2004-08-17 03:00;METAR CYHZ 170300Z 02006KT 8SM -SHRA BKN055 OVC110 17/16 A3011 RMK SC7AC1 SLP197
CYHZ;2004-08-17 04:00;METAR CYHZ 170400Z 03006KT 10SM -SHRA BKN053 OVC110 17/16 A3009 RMK SC6AC2 SLP190
CYHZ;2004-08-17 05:00;METAR CYHZ 170500Z 05007KT 10SM -SHRA BKN049 BKN080 OVC110 16/15 A3005 RMK SC6AC2AC1 SLP178
CYHZ;2004-08-17 06:00;METAR CYHZ 170600Z 05007KT 10SM -SHRA BKN043 OVC080 15/14 A3002 RMK SC7AC1 SLP167
CYHZ;2004-08-17 07:00;METAR CYHZ 170700Z 01009KT 6SM -SHRA BR SCT001 OVC044 15/15 A3001 RMK SF4SC4 SLP161 SLP161
CYHZ;2004-08-17 09:00;METAR CYHZ 170900Z 35013KT 3SM -SHRA BR BKN001 OVC044 13/13 A3000 RMK SF7SC1 RERA /R12/ SLP160 /R12/ SLP160
CYHZ;2004-08-17 10:00;METAR CYHZ 171000Z 35010G21KT 1 1/2SM RA BR BKN002 OVC031 13/13 A3005 RMK SF6SC2 SLP174 SLP174
CYHZ;2004-08-17 11:00;METAR CYHZ 171100Z 03015KT 2 1/2SM -RA BR SCT002 BKN009 OVC026 12/12 A2995 RMK SF3SC2SC2 PRESFR /R28/ PK WIND 02 G31 SLP141 SF3SC2SC2 PRESFR /R28/ PK WIND 02 G31 SLP141 SLP139
CYHZ;2004-08-17 13:00;METAR CYHZ 171300Z 35012KT 15SM BKN008 BKN027 14/13 A2997 RMK SF6SC2 SLP149
CYHZ;2004-08-17 14:00;METAR CYHZ 171400Z 36017KT 15SM BKN017 BKN120 17/14 A2997 RMK SC5AC2 SLP148
CYHZ;2004-08-17 15:00;METAR CYHZ 171500Z 35011G20KT 15SM SCT018 BKN120 17/14 A2997 RMK SC4AC2 SLP150
CYHZ;2004-08-17 16:00;METAR CYHZ 171600Z 01011G20KT 15SM FEW018 FEW120 19/14 A2995 RMK CF2AC1 SLP142
CYHZ;2004-08-17 17:00;METAR CYHZ 171700Z 36014KT 15SM FEW018 FEW120 20/13 A2994 RMK CF1AC1 SLP140
CYHZ;2004-08-17 18:00;METAR CYHZ 171800Z 35007KT 15SM FEW036 21/15 A2994 RMK SC2 SLP138
CYHZ;2004-08-17 19:00;METAR CYHZ 171900Z 33013KT 15SM FEW036 22/15 A2994 RMK SC2 SLP138
CYHZ;2004-08-17 20:00;METAR CYHZ 172000Z 33010G16KT 15SM FEW034 21/15 A2995 RMK CU2 SLP142
CYHZ;2004-08-17 21:00;METAR CYHZ 172100Z 33008KT 15SM FEW034 21/15 A2996 RMK SC2 SLP144
CYHZ;2004-08-17 22:00;METAR CYHZ 172200Z 34006KT 15SM FEW034 21/16 A2996 RMK SC1 SLP146
CYHZ;2004-08-17 23:00;METAR CYHZ 172300Z 33006KT 15SM FEW032 FEW250 20/16 A2997 RMK SC1CI1
CYHZ;2004-08-18 00:00;METAR CYHZ 180000Z 35003KT 15SM FEW250 18/16 A3000 RMK CI1 SLP160
CYHZ;2004-08-18 01:00;METAR CYHZ 180100Z 36003KT 15SM FEW250 18/15 A3001 RMK CI1 SLP162
CYHZ;2004-08-18 02:00;METAR CYHZ 180200Z 00000KT 15SM SKC 17/15 A3000 RMK SLP161
CYHZ;2004-08-18 03:00;METAR CYHZ 180300Z 22002KT 15SM SKC 16/15 A3000 RMK SLP161
CYHZ;2004-08-18 05:00;METAR CYHZ 180500Z 23003KT 15SM SKC 16/15 A3000 RMK SLP160
CYHZ;2004-08-18 06:00;METAR CYHZ 180600Z 28003KT 15SM SKC 16/14 A3000 RMK SLP160
CYHZ;2004-08-18 07:00;METAR CYHZ 180700Z 00000KT 15SM SKC 15/14 A3000 RMK SLP158
CYHZ;2004-08-18 08:00;METAR CYHZ 180800Z 22003KT 15SM FEW280 15/14 A3000 RMK CI1 SLP160
CYHZ;2004-08-18 09:00;METAR CYHZ 180900Z 24002KT 15SM FEW280 15/13 A3001 RMK CI1 SLP161
CYHZ;2004-08-18 10:00;METAR CYHZ 181000Z 20004KT 15SM SCT280 16/14 A3002 RMK CI1 SLP165
CYHZ;2004-08-18 11:00;METAR CYHZ 181100Z 00000KT 15SM FEW280 17/15 A3003 RMK CI1 SLP168
CYHZ;2004-08-18 12:00;METAR CYHZ 181200Z 00000KT 15SM SKC 19/16 A3004 RMK SLP171
CYHZ;2004-08-18 13:00;METAR CYHZ 181300Z 25003KT 15SM FEW020 21/16 A3004 RMK CF1 SLP173
CYHZ;2004-08-18 14:00;METAR CYHZ 181400Z 27006KT 15SM FEW030 23/17 A3004 RMK CF1 SLP172
CYHZ;2004-08-18 15:00;METAR CYHZ 181500Z 27006KT 15SM FEW035 25/15 A3004 RMK CU2 SLP172
CYHZ;2004-08-18 16:00;METAR CYHZ 181600Z 24008KT 15SM SCT055 BKN090 25/14 A3003 RMK CU4AC2 SLP168
CYHZ;2004-08-18 17:00;METAR CYHZ 181700Z 28005KT 15SM BKN055 25/14 A3002 RMK CU6 SLP166
CYHZ;2004-08-18 18:00;METAR CYHZ 181800Z 32006KT 12SM BKN052TCU 20/17 A3002 RMK TCU6 VIS LWR N SLP167
CYHZ;2004-08-18 19:00;METAR CYHZ 181900Z 04006KT 12SM BKN048TCU 21/18 A3002 RMK TCU6 SHS N QUAD SLP165
CYHZ;2004-08-18 20:00;METAR CYHZ 182000Z 08006KT 15SM SCT048TCU BKN100 24/17 A3002 RMK TCU3AC2
CYHZ;2004-08-18 21:00;METAR CYHZ 182100Z 21011KT 15SM SCT050TCU BKN280 24/16 A3002 RMK TCU3CI1
CYHZ;2004-08-18 22:00;METAR CYHZ 182200Z 21008KT 15SM FEW050 SCT100 BKN280 22/15 A3002 RMK CU2AC2CI2 SLP167
CYHZ;2004-08-18 23:00;METAR CYHZ 182300Z 22007KT 15SM FEW050 FEW100 BKN280 20/15 A3003 RMK CU1AC2CI2 SLP169 SLP169
CYHZ;2004-08-19 00:00;METAR CYHZ 190000Z 22004KT 15SM FEW040 FEW100 BKN200 19/15 A3005 RMK CU1AC2CI1 SLP174 SLP174
CYHZ;2004-08-19 01:00;METAR CYHZ 190100Z 23004KT 12SM FEW040 FEW100 SCT200 18/15 A3006 RMK SC1AC1CI1 SLP180 SLP180
CYHZ;2004-08-19 02:00;METAR CYHZ 190200Z 25004KT 15SM SKC 17/14 A3008 RMK SLP185
CYHZ;2004-08-19 03:00;METAR CYHZ 190300Z 22007KT 15SM SKC 16/14 A3008 RMK SLP186
CYHZ;2004-08-19 04:00;METAR CYHZ 190400Z 22004KT 15SM SKC 16/14 A3008 RMK SLP185
CYHZ;2004-08-19 05:00;METAR CYHZ 190500Z 24005KT 15SM SKC 16/14 A3008 RMK SLP184
CYHZ;2004-08-19 06:00;METAR CYHZ 190600Z 24004KT 15SM SKC 15/14 A3008 RMK SLP187
CYHZ;2004-08-19 07:00;METAR CYHZ 190700Z 22007KT 15SM SKC 14/14 A3009 RMK SLP189
CYHZ;2004-08-19 08:00;METAR CYHZ 190800Z 20005KT 1/2SM R15/P6000FT/N FG SKC 14/14 A3008 RMK FG6 SLP188
CYHZ;2004-08-19 09:00;METAR CYHZ 190900Z 20004KT 1/2SM R15/P6000FT/N FG SKC 14/14 A3010 RMK FG7 SLP192
CYHZ;2004-08-19 10:00;METAR CYHZ 191000Z 20009KT 1/4SM R15/1800V3500FT/N FG VV001 14/14 A3010 RMK FG8 RVR RWY 24 1200 1 MINUTE MEAN SLP193 RVR RWY 24 1200 1 MINUTE MEAN SLP193
CYHZ;2004-08-19 11:00;METAR CYHZ 191100Z 20008KT 1/2SM R15/P6000FT/N FG VV002 15/14 A3011 RMK FG8 SLP197
CYHZ;2004-08-19 12:00;METAR CYHZ 191200Z 22011KT 15SM FEW003 16/15 A3013 RMK SF1 SLP202
CYHZ;2004-08-19 13:00;METAR CYHZ 191300Z 21011KT 15SM FEW003 19/14 A3012 RMK SF1 SLP201
CYHZ;2004-08-19 14:00;METAR CYHZ 191400Z 21015KT 15SM FEW020 FEW280 20/15 A3013 RMK CU1CI1 SLP202
CYHZ;2004-08-19 15:00;METAR CYHZ 191500Z 22010G16KT 15SM FEW020 FEW280 21/15 A3012 RMK CU1CI0 SLP201
CYHZ;2004-08-19 16:00;METAR CYHZ 191600Z 20012G18KT 15SM FEW032 BKN280 22/14 A3011 RMK CU1CI0 SLP195
CYHZ;2004-08-19 17:00;METAR CYHZ 191700Z 21015KT 15SM FEW028 FEW280 23/15 A3010 RMK CU1CI0
CYHZ;2004-08-19 18:00;METAR CYHZ 191800Z 19013G18KT 15SM FEW030 SCT250 23/15 A3008 RMK CU1CI1 SLP186
CYHZ;2004-08-19 19:00;METAR CYHZ 191900Z 21018KT 15SM FEW030 SCT250 23/15 A3008 RMK CF1CI1
CYHZ;2004-08-19 20:00;METAR CYHZ 192000Z 20016G21KT 15SM FEW030 FEW250 22/15 A3007 RMK CF1CI1 SLP182
CYHZ;2004-08-19 21:00;METAR CYHZ 192100Z 21016G21KT 15SM FEW030 FEW250 22/15 A3007 RMK CF1CI1 SLP183
CYHZ;2004-08-19 22:00;METAR CYHZ 192200Z 19011G16KT 15SM FEW030 FEW250 21/15 A3006 RMK CF1CI1 SLP181
CYHZ;2004-08-19 23:00;METAR CYHZ 192300Z 18012G17KT 15SM SCT022 BKN250 19/15 A3007 RMK SF3CI1
CYHZ;2004-08-20 00:00;METAR CYHZ 200000Z 18011KT 15SM SCT016 BKN030 OVC250 18/16 A3008 RMK SF4SC3CI1 SLP185 SLP185
CYHZ;2004-08-20 01:00;METAR CYHZ 200100Z 17012KT 15SM BKN016 OVC030 18/16 A3007 RMK SC6SC2 SLP183
CYHZ;2004-08-20 02:00;METAR CYHZ 200200Z 18010KT 15SM OVC013 18/17 A3007 RMK SC8 SLP183
CYHZ;2004-08-20 03:00;METAR CYHZ 200300Z 18011KT 12SM OVC009 19/17 A3006 RMK SF8 SLP180
CYHZ;2004-08-20 04:00;METAR CYHZ 200400Z 18010KT 12SM OVC006 19/18 A3005 RMK ST8 SLP174
CYHZ;2004-08-20 05:00;METAR CYHZ 200500Z 18009KT 10SM OVC005 19/18 A3003 RMK ST8 VIS W 6 SLP168
CYHZ;2004-08-20 06:00;METAR CYHZ 200600Z 20015KT 3SM BR OVC003 19/19 A3003 RMK ST8 SLP168
CYHZ;2004-08-20 07:00;METAR CYHZ 200700Z 19013KT 2SM +TSRA BR BKN003 OVC030CB 19/19 A3002 RMK SF5CB3 LTGIC CB OVRHD SLP164 LTGIC CB OVRHD SLP164
CYHZ;2004-08-20 08:00;METAR CYHZ 200800Z 18013KT 2SM BR OVC002 19/19 A2999 RETSRA RMK SF8 VIS N 6 SLP156
CYHZ;2004-08-20 09:00;METAR CYHZ 200900Z 19016KT 1/2SM R15/2000V3000FT/N R24/2400FT FG VV001 19/18 A2999 RMK FG8 RVR RWY24 1 MINUTE MEAN SLP157 A2999 RMK FG8 RVR RWY24 1 MINUTE MEAN SLP157
CYHZ;2004-08-20 10:00;METAR CYHZ 201000Z 20012KT 1/4SM R15/2400FT/D R24/1600FT FG VV001 18/18 A3000 RMK FG8 RVR24 1 MINUTE MEAN SLP158 FG8 RVR24 1 MINUTE MEAN SLP158
CYHZ;2004-08-20 11:00;METAR CYHZ 201100Z 20012KT 3/8SM R15/2600FT/D R24/2200FT FG VV001 18/18 A3000 RMK FG8 RVR24 1 MINUTE MEAN SLP160 FG8 RVR24 1 MINUTE MEAN SLP160
CYHZ;2004-08-20 12:00;METAR CYHZ 201200Z 20015KT 1/2SM R15/5500FT/D R24/4000FT FG VV001 19/19 A3001 RMK FG8 RVR24 1 MINUTE MEAN SLP162 FG8 RVR24 1 MINUTE MEAN SLP162
CYHZ;2004-08-20 13:00;METAR CYHZ 201300Z 21011KT 1/2SM R15/P6000FT/U R24/3000FT FG VV001 19/19 A3001 RMK FG8 RVR24 1 MINUTE MEAN SLP163 RMK FG8 RVR24 1 MINUTE MEAN SLP163
CYHZ;2004-08-20 14:00;METAR CYHZ 201400Z 22010KT 1/2SM R15/P6000FT/U R24/5500FT FG VV001 20/19 A3002 RMK FG8 RVR24 1 MINUTE MEAN SLP166 RMK FG8 RVR24 1 MINUTE MEAN SLP166
CYHZ;2004-08-20 15:00;METAR CYHZ 201500Z 23009KT 2SM BR OVC003 20/19 A3002 RMK FG3ST5 SLP167
CYHZ;2004-08-20 16:00;METAR CYHZ 201600Z 23006KT 7SM BKN007 OVC015 22/20 A3003 RMK SC6SC2 OBS TAKEN +11 SLP168 SLP168
CYHZ;2004-08-20 17:00;METAR CYHZ 201700Z 22009G15KT 6SM HZ BKN010 23/20 A3002 RMK SC7 SLP166
CYHZ;2004-08-20 18:00;METAR CYHZ 201800Z 23009KT 10SM BKN018 BKN250 24/20 A3001 RMK SC5CI0 HAZY SLP162
CYHZ;2004-08-20 19:00;METAR CYHZ 201900Z 22010KT 10SM FEW020 BKN250 25/20 A3000 RMK CU1CI0 SLP157
CYHZ;2004-08-20 20:00;METAR CYHZ 202000Z 21010G17KT 10SM FEW025 BKN250 25/20 A2999 RMK CF1CI1 HAZY SLP156
CYHZ;2004-08-20 21:00;METAR CYHZ 202100Z 20012KT 6SM HZ BKN250 23/20 A2999 RMK CI2 SLP155
CYHZ;2004-08-20 23:00;METAR CYHZ 202300Z 18010KT 3SM HZ BKN250 19/18 A3000 RMK HZ2CI2 SLP157 SLP156
CYHZ;2004-08-21 03:00;METAR CYHZ 210300Z 19011KT 1 1/2SM BR VV001 18/18 A2998 RMK FG8 SLP151 SLP149
CYHZ;2004-08-21 05:00;METAR CYHZ 210500Z 18008KT 1/4SM R15/1800FT/N FG VV001 18/18 A2996 RMK FG8 SLP147 FG8 SLP143 RMK FG8 RVR24 3500FT 1 MINUTE MEAN SLP143 RMK FG8 RVR24 2000FT 1 MINUTE MEAN SLP143 SLP143 FG8 RVR24 3500FT 1 MINUTE MEAN SLP143 FG8 RVR24 2000FT 1 MINUTE MEAN SLP143 RMK FG8 SLP141 FG8 SLP141 A2995 RMK FG8 RVR24 1400FT 1 MINUTE MEAN SLP141 RMK FG8 RVR24 1400FT 1 MINUTE MEAN SLP141 FG8 RVR24 1000FT 1 MINUTE MEAN SLP141 RVR24 1000FT 1 MINUTE MEAN SLP141
CYHZ;2004-08-21 09:00;METAR CYHZ 210900Z 20006KT 1/8SM R15/1600FT/N FG VV001 18/17 A2996 RMK FG8 RVR24 1400FT 1 MINUTE MEAN SLP144 1400FT 1 MINUTE MEAN SLP144
CYHZ;2004-08-21 10:00;METAR CYHZ 211000Z 19009KT 1/8SM R15/2400V3500FT/U R24/1800FT FG VV001 17/17 A2996 RMK FG8 RVR RWY24 1 MINUTE MEAN SLP145 A2996 RMK FG8 RVR RWY24 1 MINUTE MEAN SLP145
CYHZ;2004-08-21 11:00;METAR CYHZ 211100Z 20007KT 1/8SM R15/3000FT/N R24/2000FT FG VV001 17/17 A2996 RMK FG8 RVR RWY24 1 MINUTE MEAN SLP146 FG8 RVR RWY24 1 MINUTE MEAN SLP146
CYHZ;2004-08-21 12:00;METAR CYHZ 211200Z 19007KT 1/8SM R15/2400V3500FT/D R24/1600FT FG VV001 18/18 A2996 RMK FG8 RVR RWY24 1 MINUTE MEAN SLP145
CYHZ;2004-08-21 13:00;METAR CYHZ 211300Z 18007KT 1/4SM R15/2600V5500FT/U R24/2000FT FG VV001 18/18 A2996 RMK FG8 RVR RWY24 1 MINUTE MEAN SLP147 A2996 RMK FG8 RVR RWY24 1 MINUTE MEAN SLP147
CYHZ;2004-08-21 14:00;METAR CYHZ 211400Z 22008KT 3/4SM R15/P6000FT/U BR VV002 18/18 A2996 RMK FG8 SLP146
CYHZ;2004-08-21 15:00;METAR CYHZ 211500Z 18013KT 1 1/2SM BR OVC002 19/18 A2995 RMK SF8 SLP141
CYHZ;2004-08-21 16:00;METAR CYHZ 211600Z 19015G20KT 2SM BR BKN003 OVC008 20/18 A2993 RMK SF6SC2 SLP136
CYHZ;2004-08-21 17:00;METAR CYHZ 211700Z 19015G21KT 6SM BR BKN003 OVC007 20/18 A2991 RMK SF6SC2 SLP130
CYHZ;2004-08-21 18:00;METAR CYHZ 211800Z 20015KT 8SM FEW003 BKN007 OVC250 22/19 A2990 RMK CF2SC5CI1 SLP123 SLP123
CYHZ;2004-08-21 19:00;METAR CYHZ 211900Z 20016G22KT 10SM FEW010 BKN038 BKN220 22/19 A2987 RMK CF1SC4CI2 HAZY SLP116 HAZY SLP116
CYHZ;2004-08-21 20:00;METAR CYHZ 212000Z 20019G24KT 12SM BKN006 OVC050 22/20 A2985 RMK SC7SC1 SLP109
CYHZ;2004-08-21 21:00;METAR CYHZ 212100Z 21022G27KT 8SM OVC004 21/20 A2984 RMK SF8 SLP104 VV002 20/20 A2982 RMK FG8 RVR RWY 24 1 MINUTE MEAN SLP098 20/20 A2982 RMK FG8 RVR RWY 24 1 MINUTE MEAN SLP098 RMK FG8 SLP096 A2981 RMK FG8 RVR RWY 24 6000 FT...RVR R24 1 MINUTE MEAN SLP096 FG8 SLP096 RMK FG8 RVR RWY 24 6000 FT...RVR R24 1 MINUTE MEAN SLP096 RMK FG8 SLP096 FG8 SLP096
CYHZ;2004-08-22 01:00;METAR CYHZ 220100Z 21025G31KT 4SM BR OVC002 20/19 A2981 RMK ST8 SLP095
CYHZ;2004-08-22 02:00;METAR CYHZ 220200Z 21021G27KT 4SM BR OVC002 20/19 A2981 RMK ST8 SLP096
CYHZ;2004-08-22 03:00;METAR CYHZ 220300Z 21017G24KT 3SM BR OVC001 20/19 A2981 RMK ST8 VSBY HIER N SLP094
CYHZ;2004-08-22 04:00;METAR CYHZ 220400Z 20017KT 3/4SM R15/P6000FT/N BR VV001 19/19 A2980 RMK FG8 RVR 24 P6000FT 1 MINUTE MEAN SLP091 24 P6000FT 1 MINUTE MEAN SLP091
CYHZ;2004-08-22 05:00;METAR CYHZ 220500Z 21017KT 1/2SM R15/P6000FT/D FG VV001 19/19 A2978 RMK FG8 RVR 24 4500 FT 1 MINUTE MEAN SLP086 24 4500 FT 1 MINUTE MEAN SLP086
CYHZ;2004-08-22 06:00;METAR CYHZ 220600Z 21013KT 1/2SM R15/3500V6000FT/N FG VV001 19/18 A2978 RMK FG8 SLP082 SLP082
CYHZ;2004-08-22 07:00;METAR CYHZ 220700Z 22015KT 1/2SM R15/P6000FT/N FG VV001 19/18 A2978 RMK FG8 RETS RVR 24 5500 FT 1 MINUTE MEAN SLP084 RVR 24 5500 FT 1 MINUTE MEAN SLP084
CYHZ;2004-08-22 08:00;METAR CYHZ 220800Z 23009KT 4SM -RA BR OVC003 18/18 A2979 RMK ST8 SLP088
CYHZ;2004-08-22 09:00;METAR CYHZ 220900Z 23007KT 4SM -RA BR BKN002 OVC070 18/18 A2980 RMK ST7AC1 SLP090
CYHZ;2004-08-22 10:00;METAR CYHZ 221000Z 31011G16KT 6SM -RA BR OVC005 17/16 A2985 RMK ST8 SLP107
CYHZ;2004-08-22 11:00;METAR CYHZ 221100Z CCA 32008KT 1 1/4SM -RADZ BR OVC002 16/16 A2987 RMK FG1SF7 VIS HIER W RVR 24 1 MINUTE MEAN SLP115 HIER W RVR 24 1 MINUTE MEAN SLP115
CYHZ;2004-08-22 12:00;METAR CYHZ 221200Z 32011KT 3SM BR OVC004 16/16 A2989 RMK ST8 SLP120 SLP131
CYHZ;2004-08-22 14:00;METAR CYHZ 221400Z 33008KT 10SM FEW004 OVC008 17/16 A2994 RMK SF2SC6 SLP137
CYHZ;2004-08-22 15:00;METAR CYHZ 221500Z 31008KT 15SM FEW005 BKN011 OVC017 18/15 A2996 RMK SF1SC6SC1 SLP144 SLP144
CYHZ;2004-08-22 16:00;METAR CYHZ 221600Z 30006KT 15SM FEW014 BKN021 18/15 A2997 RMK SC1SC6 TCU ASOCT SLP149 SLP149
CYHZ;2004-08-22 17:00;METAR CYHZ 221700Z 33006KT 20SM FEW020 BKN220 19/14 A2998 RMK CU2CI5 SLP152
CYHZ;2004-08-22 18:00;METAR CYHZ 221800Z 32008KT 15SM FEW025 BKN260 19/13 A2998 RMK CU1CI4 SLP151
CYHZ;2004-08-22 19:00;METAR CYHZ 221900Z 34006KT 15SM FEW030 BKN260 20/13 A2997 RMK CU1CI3 SLP150
CYHZ;2004-08-22 20:00;METAR CYHZ 222000Z 35005KT 15SM FEW030 FEW070 SCT260 20/12 A2998 RMK CU1AC1CI2 SLP153 SLP153
CYHZ;2004-08-22 21:00;METAR CYHZ 222100Z 33006KT 15SM FEW030 FEW070 SCT260 21/12 A2999 RMK CU1AC1CI1 SLP155 SLP155
CYHZ;2004-08-22 22:00;METAR CYHZ 222200Z 33007KT 15SM FEW030 FEW070 SCT260 20/12 A3000 RMK CU1AC1CI1 SLP158 SLP158
CYHZ;2004-08-22 23:00;METAR CYHZ 222300Z 35003KT 15SM FEW030 FEW260 19/12 A3001 RMK CU1CI1 SLP161
CYHZ;2004-08-23 00:00;METAR CYHZ 230000Z 01003KT 15SM FEW030 FEW260 18/11 A3003 RMK CU1CI2 SLP170
CYHZ;2004-08-23 01:00;METAR CYHZ 230100Z 34003KT 15SM FEW260 17/11 A3004 RMK CI1 SLP173
CYHZ;2004-08-23 02:00;METAR CYHZ 230200Z 00000KT 15SM SKC 16/10 A3005 RMK SLP177
CYHZ;2004-08-23 03:00;METAR CYHZ 230300Z 00000KT 15SM SKC 14/11 A3005 RMK SLP175
CYHZ;2004-08-23 04:00;METAR CYHZ 230400Z 34003KT 15SM SKC 13/11 A3004 RMK SLP173
CYHZ;2004-08-23 05:00;METAR CYHZ 230500Z 05002KT 15SM SKC 14/12 A3002 RMK SLP168
CYHZ;2004-08-23 06:00;METAR CYHZ 230600Z 07003KT 15SM SKC 13/12 A3002 RMK SLP166
CYHZ;2004-08-23 07:00;METAR CYHZ 230700Z 11006KT 15SM MIFG SKC 13/11 A3001 RMK SLP162
CYHZ;2004-08-23 08:00;METAR CYHZ 230800Z 00000KT 15SM R15/3000VP6000FT/D MIFG FEW240 11/11 A3000 RMK CI1 SLP161 CI1 SLP161
CYHZ;2004-08-23 09:00;METAR CYHZ 230900Z 12007KT 15SM MIFG FEW240 13/12 A3001 RMK CI1 SLP162
CYHZ;2004-08-23 10:00;METAR CYHZ 231000Z 14005KT 5/8SM R15/P6000FT/N R24/3000V6000FT BR BKN020 13/13 A3002 RMK FG5SC1 RVR 24 ONE MINUTE MEAN SLP166 A3002 RMK FG5SC1 RVR 24 ONE MINUTE MEAN SLP166
CYHZ;2004-08-23 11:00;METAR CYHZ 231100Z 14005KT 3SM BR BKN020 14/14 A3002 RMK FG2SC4 VIS LWR SE SLP167
CYHZ;2004-08-23 12:00;METAR CYHZ 231200Z 15006KT 3SM BR BKN002 16/15 A3001 RMK SF3 SLP162
CYHZ;2004-08-23 13:00;METAR CYHZ 231300Z 15007KT 10SM SCT012 19/14 A3001 RMK CF3 SLP162
CYHZ;2004-08-23 14:00;METAR CYHZ 231400Z 18008KT 12SM SCT020 20/14 A3001 RMK SC4 SLP164
CYHZ;2004-08-23 15:00;METAR CYHZ 231500Z 22006KT 15SM SCT025 SCT250 21/15 A3001 RMK SC3CI0 SLP162
CYHZ;2004-08-23 16:00;METAR CYHZ 231600Z 16010KT 15SM FEW030 SCT250 22/15 A2998 RMK SC2CI1 SLP154
CYHZ;2004-08-23 17:00;METAR CYHZ 231700Z 17008KT 15SM FEW030 BKN250 23/15 A2996 RMK SC2CI1 SLP146
CYHZ;2004-08-23 18:00;METAR CYHZ 231800Z 17007G15KT 20SM FEW030 SCT250 23/16 A2994 RMK SC1CI0 SLP139
CYHZ;2004-08-23 19:00;METAR CYHZ 231900Z 17009KT 20SM FEW030 FEW250 23/15 A2992 RMK SC1CI0 SLP133
CYHZ;2004-08-23 20:00;METAR CYHZ 232000Z 17011KT 20SM FEW030 23/16 A2992 RMK SC1 SLP133
CYHZ;2004-08-23 21:00;METAR CYHZ 232100Z 16010KT 20SM FEW030 22/16 A2991 RMK SC1 SLP130
CYHZ;2004-08-23 22:00;METAR CYHZ 232200Z 17008KT 20SM FEW030 21/17 A2991 RMK SC1 SLP129
CYHZ;2004-08-23 23:00;METAR CYHZ 232300Z 17009KT 15SM FEW030 19/17 A2992 RMK SC1 SLP132
CYHZ;2004-08-24 00:00;METAR CYHZ 240000Z 19007KT 15SM VCFG FEW012 18/17 A2994 RMK SF2 SLP138
CYHZ;2004-08-24 01:00;METAR CYHZ 240100Z 20007KT 15SM SKC 17/16 A2994 RMK SLP139
CYHZ;2004-08-24 02:00;METAR CYHZ 240200Z 23004KT 15SM BKN004 16/16 A2996 RMK SF6 SLP144
CYHZ;2004-08-24 03:00;METAR CYHZ 240300Z 24005KT 12SM SKC 16/15 A2996 RMK SLP146
CYHZ;2004-08-24 04:00;METAR CYHZ 240400Z 25005KT 8SM SKC 15/14 A2996 RMK SLP146
CYHZ;2004-08-24 05:00;METAR CYHZ 240500Z 22003KT 1/8SM R15/0900V5500FT/D FG VV001 14/14 A2996 RMK FG8 RVR 24 1100 FT 1 MINUTE MEAN SLP146 RVR 24 1100 FT 1 MINUTE MEAN SLP146
CYHZ;2004-08-24 06:00;METAR CYHZ 240600Z 26005KT 15SM MIFG SKC 14/13 A2996 RMK SLP144
CYHZ;2004-08-24 07:00;METAR CYHZ 240700Z 27006KT 15SM MIFG SKC 14/13 A2995 RMK SLP141
CYHZ;2004-08-24 08:00;METAR CYHZ 240800Z 28006KT 15SM SKC 13/13 A2994 RMK SLP140
CYHZ;2004-08-24 09:00;METAR CYHZ 240900Z 31006KT 15SM MIFG BKN064 BKN250 14/13 A2996 RMK SC5CS0 SLP145
CYHZ;2004-08-24 10:00;METAR CYHZ 241000Z 34007KT 15SM FEW010 BKN068 BKN100 14/13 A2998 RMK SF1AC4AC2 SLP151 SLP151
CYHZ;2004-08-24 11:00;METAR CYHZ 241100Z 34008KT 15SM FEW012 BKN072 14/14 A2999 RMK SF1AC6 SLP157
CYHZ;2004-08-24 12:00;METAR CYHZ 241200Z 34010KT 15SM FEW010 BKN062 16/14 A3001 RMK SF2SC4 SLP163
CYHZ;2004-08-24 13:00;METAR CYHZ 241300Z 32012KT 15SM FEW015 SCT050 17/13 A3002 RMK SC1SC2 SLP167
CYHZ;2004-08-24 14:00;METAR CYHZ 241400Z 33009KT 15SM FEW050 18/13 A3003 RMK SC2 SLP169
CYHZ;2004-08-24 15:00;METAR CYHZ 241500Z 30012KT 15SM FEW050 19/12 A3002 RMK SC2 SLP168
CYHZ;2004-08-24 17:00;METAR CYHZ 241700Z 33010KT 15SM FEW050 20/10 A3004 RMK SC1 SLP173
CYHZ;2004-08-24 18:00;METAR CYHZ 241800Z 32013KT 20SM FEW050 21/09 A3004 RMK SC1 SLP173
CYHZ;2004-08-24 19:00;METAR CYHZ 241900Z 32010G15KT 20SM FEW050 21/10 A3004 RMK SC1 SLP174
CYHZ;2004-08-24 20:00;METAR CYHZ 242000Z 33013G18KT 20SM FEW050 20/11 A3005 RMK SC1 SLP177
CYHZ;2004-08-24 21:00;METAR CYHZ 242100Z 35012G18KT 20SM FEW040 20/11 A3007 RMK SC2 SLP182
CYHZ;2004-08-24 22:00;METAR CYHZ 242200Z 34012G18KT 20SM SCT040 19/12 A3009 RMK SC3 SLP189
CYHZ;2004-08-24 23:00;METAR CYHZ 242300Z 01006KT 20SM FEW040 FEW250 17/12 A3011 RMK SC1CI2 SLP195
CYHZ;2004-08-25 00:00;METAR CYHZ 250000Z 36005KT 20SM FEW040 SCT250 15/12 A3015 RMK SC2CI2 SLP211
CYHZ;2004-08-25 01:00;METAR CYHZ 250100Z 34010KT 20SM FEW030 BKN250 14/12 A3017 RMK SC1CI0 SLP219
CYHZ;2004-08-25 02:00;METAR CYHZ 250200Z 34006KT 20SM SCT250 13/12 A3018 RMK CI1 SLP220
CYHZ;2004-08-25 03:00;METAR CYHZ 250300Z 36003KT 20SM FEW250 13/11 A3017 RMK CI0 SLP218
CYHZ;2004-08-25 04:00;METAR CYHZ 250400Z 35004KT 20SM SCT210 13/11 A3019 RMK CI1 SLP223
CYHZ;2004-08-25 05:00;METAR CYHZ 250500Z 34006KT 20SM FEW220 12/11 A3019 RMK CI0 SLP225
CYHZ;2004-08-25 06:00;METAR CYHZ 250600Z 34006KT 20SM FEW180 12/11 A3019 RMK AC1 SLP226
CYHZ;2004-08-25 07:00;METAR CYHZ 250700Z 31005KT 15SM FEW040 SCT180 12/11 A3021 RMK SC2AC0 SLP230
CYHZ;2004-08-25 08:00;METAR CYHZ 250800Z 31006KT 15SM FEW040 FEW180 12/11 A3022 RMK SC1AC1 SLP233
CYHZ;2004-08-25 09:00;METAR CYHZ 250900Z 31005KT 15SM FEW040 11/11 A3024 RMK SC2 SLP241
CYHZ;2004-08-25 10:00;METAR CYHZ 251000Z 29007KT 20SM FEW035 11/10 A3026 RMK SC1 SLP249
CYHZ;2004-08-25 11:00;METAR CYHZ 251100Z 34007KT 20SM FEW035 13/11 A3027 RMK SC1 SLP252
CYHZ;2004-08-25 12:00;METAR CYHZ 251200Z 32011KT 20SM FEW035 15/12 A3028 RMK SC1 SLP257
CYHZ;2004-08-25 13:00;METAR CYHZ 251300Z 34013KT 20SM SCT020 16/12 A3028 RMK CU4 SLP257
CYHZ;2004-08-25 14:00;METAR CYHZ 251400Z 01013G18KT 20SM SCT030 18/11 A3028 RMK CU4 SLP257
CYHZ;2004-08-25 15:00;METAR CYHZ 251500Z 35012KT 20SM SCT033 19/12 A3028 RMK CU3 SLP257
CYHZ;2004-08-25 16:00;METAR CYHZ 251600Z 34014KT 20SM FEW040 19/11 A3029 RMK CU2 SLP258
CYHZ;2004-08-25 17:00;METAR CYHZ 251700Z 35012G18KT 20SM FEW040 FEW270 20/10 A3029 RMK CF2CI0 SLP258
CYHZ;2004-08-25 18:00;METAR CYHZ 251800Z 34013G18KT 20SM FEW040 FEW270 21/11 A3029 RMK SC1CI1 SLP259
CYHZ;2004-08-25 19:00;METAR CYHZ 251900Z 36010G15KT 20SM FEW040 FEW270 21/11 A3029 RMK SC1CI1
CYHZ;2004-08-25 20:00;METAR CYHZ 252000Z 35007G15KT 20SM FEW040 FEW270 20/11 A3030 RMK SC1CI1 SLP260
CYHZ;2004-08-25 21:00;METAR CYHZ 252100Z 36010KT 20SM FEW040 BKN270 20/11 A3030 RMK SC1CI1 SLP262
CYHZ;2004-08-25 22:00;METAR CYHZ 252200Z 03007KT 20SM FEW040 BKN270 19/10 A3032 RMK SC1CI2 SLP268
CYHZ;2004-08-25 23:00;METAR CYHZ 252300Z 03006KT 20SM FEW040 BKN270 17/11 A3033 RMK SC1CI2 SLP271
CYHZ;2004-08-26 00:00;METAR CYHZ 260000Z 04005KT 15SM BKN270 15/10 A3034 RMK CI1 SLP274
CYHZ;2004-08-26 01:00;METAR CYHZ 260100Z 03005KT 15SM SCT270 15/10 A3035 RMK CI1 SLP280
CYHZ;2004-08-26 02:00;METAR CYHZ 260200Z 02004KT 15SM FEW270 13/10 A3037 RMK CI1 SLP284
CYHZ;2004-08-26 03:00;METAR CYHZ 260300Z 35004KT 15SM FEW270 12/10 A3035 RMK CI1 SLP280
CYHZ;2004-08-26 04:00;METAR CYHZ 260400Z 04002KT 15SM FEW270 12/10 A3035 RMK CI1 SLP278
CYHZ;2004-08-26 05:00;METAR CYHZ 260500Z 00000KT 15SM SKC 11/10 A3035 RMK SLP278
CYHZ;2004-08-26 06:00;METAR CYHZ 260600Z 30003KT 15SM SKC 10/10 A3034 RMK SLP277
CYHZ;2004-08-26 07:00;METAR CYHZ 260700Z 32003KT 15SM SKC 11/10 A3035 RMK SLP278
CYHZ;2004-08-26 08:00;METAR CYHZ 260800Z 00000KT 15SM R15/3500VP6000FT/D MIFG SKC 10/10 A3034 RMK SLP275
CYHZ;2004-08-26 09:00;METAR CYHZ 260900Z 00000KT 15SM MIFG FEW270 10/09 A3034 RMK CI1 SLP274
CYHZ;2004-08-26 10:00;METAR CYHZ 261000Z 00000KT 15SM R15/0600V1800FT/U MIFG FEW080 FEW270 09/09 A3036 RMK AC1CI1 FOG OVR RWYS SLP281 RMK AC1CI1 FOG OVR RWYS SLP281
CYHZ;2004-08-26 11:00;METAR CYHZ 261100Z 32004KT 15SM VCFG FEW270 11/10 A3037 RMK CI2 FOG OVR LAKE W SLP284 SLP284
CYHZ;2004-08-26 12:00;METAR CYHZ 261200Z 33002KT 20SM VCFG FEW270 13/12 A3037 RMK CI1 FOG OVR LAKE W SLP286 SLP286
CYHZ;2004-08-26 13:00;METAR CYHZ 261300Z 33004KT 20SM FEW020 FEW270 15/12 A3037 RMK SC1CI1 SLP287
CYHZ;2004-08-26 14:00;METAR CYHZ 261400Z 35005KT 20SM FEW025 FEW270 17/11 A3036 RMK SC1CI1
CYHZ;2004-08-26 15:00;METAR CYHZ 261500Z 34005KT 20SM FEW028 BKN270 18/11 A3034 RMK SC1CI2 SLP276
CYHZ;2004-08-26 16:00;METAR CYHZ 261600Z 00000KT 20SM FEW035 OVC270 20/10 A3031 RMK SC1CI3 SLP267
CYHZ;2004-08-26 17:00;METAR CYHZ 261700Z 10003KT 20SM FEW035 OVC270 21/11 A3029 RMK SC1CI3 SLP260
CYHZ;2004-08-26 18:00;METAR CYHZ 261800Z 36002KT 20SM FEW040 BKN270 21/11 A3027 RMK CF1CI3 SLP251
CYHZ;2004-08-26 19:00;METAR CYHZ 261900Z 30004KT 20SM FEW040 BKN270 23/12 A3026 RMK SC1CI3 SLP249
CYHZ;2004-08-26 20:00;METAR CYHZ 262000Z 17011KT 20SM FEW040 BKN270 21/13 A3025 RMK SC1CI2 SLP245
CYHZ;2004-08-26 21:00;METAR CYHZ 262100Z 20010KT 20SM FEW040 BKN270 21/13 A3025 RMK SC1CI2 SLP244
CYHZ;2004-08-26 22:00;METAR CYHZ 262200Z 22012KT 20SM FEW040 BKN270 19/12 A3024 RMK SC1CI2 SLP243
CYHZ;2004-08-26 23:00;METAR CYHZ 262300Z 23008KT 20SM BKN270 17/11 A3025 RMK CI2 SLP247
CYHZ;2004-08-27 00:00;METAR CYHZ 270000Z 23007KT 20SM BKN270 16/12 A3027 RMK CI2 SLP251
CYHZ;2004-08-27 01:00;METAR CYHZ 270100Z 21004KT 20SM BKN270 16/13 A3026 RMK CI3 SLP250
CYHZ;2004-08-27 02:00;METAR CYHZ 270200Z 19003KT 20SM BKN270 15/13 A3025 RMK CI3 SLP245
CYHZ;2004-08-27 03:00;METAR CYHZ 270300Z 23002KT 20SM SCT270 13/12 A3023 RMK CI2 SLP238
CYHZ;2004-08-27 04:00;METAR CYHZ 270400Z 28005KT 20SM SCT270 13/13 A3022 RMK CI2 SLP234
CYHZ;2004-08-27 05:00;METAR CYHZ 270500Z 28004KT 15SM BKN270 13/12 A3021 RMK CI2 SLP230
CYHZ;2004-08-27 06:00;METAR CYHZ 270600Z 00000KT 15SM FEW270 13/12 A3020 RMK CI1 SLP228
CYHZ;2004-08-27 07:00;METAR CYHZ 270700Z 28004KT 15SM FEW270 13/10 A3018 RMK CI1 SLP222
CYHZ;2004-08-27 08:00;METAR CYHZ 270800Z 28005KT 15SM SKC 12/10 A3018 RMK SLP220
CYHZ;2004-08-27 09:00;METAR CYHZ 270900Z 28004KT 15SM SCT250 12/09 A3017 RMK CI1 SLP218
CYHZ;2004-08-27 10:00;METAR CYHZ 271000Z 25003KT 20SM SCT250 12/09 A3018 RMK CI0 SLP221
CYHZ;2004-08-27 11:00;METAR CYHZ 271100Z 00000KT 20SM BKN250 14/09 A3018 RMK CI1 SLP222
CYHZ;2004-08-27 12:00;METAR CYHZ 271200Z 21004KT 20SM SCT250 15/11 A3018 RMK CI0 SLP221
CYHZ;2004-08-27 13:00;METAR CYHZ 271300Z 26006KT 20SM SCT250 17/10 A3017 RMK CI1 SLP217
CYHZ;2004-08-27 14:00;METAR CYHZ 271400Z 23005KT 20SM FEW250 19/10 A3016 RMK CI0 SLP213
CYHZ;2004-08-27 15:00;METAR CYHZ 271500Z 20008KT 20SM FEW250 21/10 A3013 RMK CI1 SLP205
CYHZ;2004-08-27 16:00;METAR CYHZ 271600Z 20009KT 20SM FEW250 22/11 A3011 RMK CI1 SLP196
CYHZ;2004-08-27 17:00;METAR CYHZ 271700Z 20004G15KT 20SM FEW250 23/12 A3009 RMK CI0 SLP189
CYHZ;2004-08-27 18:00;METAR CYHZ 271800Z 21007KT 20SM FEW250 24/14 A3006 RMK CI0 SLP178
CYHZ;2004-08-27 19:00;METAR CYHZ 271900Z 22010KT 20SM SCT250 24/15 A3005 RMK CI1 SLP174
CYHZ;2004-08-27 20:00;METAR CYHZ 272000Z 22014KT 20SM FEW100 SCT250 22/14 A3002 RMK AC2CI1 SLP167
CYHZ;2004-08-27 21:00;METAR CYHZ 272100Z 21010G15KT 20SM FEW100 SCT250 21/13 A3001 RMK AC2CI0 SLP164
CYHZ;2004-08-27 22:00;METAR CYHZ 272200Z 21009KT 20SM FEW100 SCT250 20/14 A3001 RMK AC2CI0 SLP163
CYHZ;2004-08-27 23:00;METAR CYHZ 272300Z 20004KT 20SM SCT100 SCT250 18/14 A3001 RMK AC3CI1
CYHZ;2004-08-28 00:00;METAR CYHZ 280000Z 19005KT 15SM FEW100 SCT210 17/14 A3000 RMK AC1CC4 SLP159
CYHZ;2004-08-28 01:00;METAR CYHZ 280100Z 18005KT 15SM FEW100 FEW200 16/15 A2999 RMK AC1CC2 SLP155
CYHZ;2004-08-28 02:00;METAR CYHZ 280200Z 23006KT 15SM SCT200 16/15 A2999 RMK CC3 SLP157
CYHZ;2004-08-28 03:00;METAR CYHZ 280300Z 26005KT 15SM BKN250 16/15 A2997 RMK CI6 SLP149
CYHZ;2004-08-28 04:00;METAR CYHZ 280400Z 26010KT 4SM BR OVC005 16/15 A2997 RMK SF8 SLP148
CYHZ;2004-08-28 05:00;METAR CYHZ 280500Z 25007KT 3SM BR OVC007 17/16 A2995 RMK SF8 SLP142
CYHZ;2004-08-28 06:00;METAR CYHZ 280600Z 23005KT 2SM BR OVC005 17/16 A2994 RMK SF8 SLP137
CYHZ;2004-08-28 07:00;METAR CYHZ 280700Z 20006KT 1 1/2SM BR OVC003 17/16 A2992 RMK SF8 SLP131
CYHZ;2004-08-28 08:00;METAR CYHZ 280800Z 19006KT 1 1/2SM BR BKN002 OVC014 17/16 A2991 RMK SF5SC3 SLP127
CYHZ;2004-08-28 09:00;METAR CYHZ 280900Z 19006KT 1 1/2SM BR OVC002 17/16 A2990 RMK FG2SF6 SLP123
CYHZ;2004-08-28 10:00;METAR CYHZ 281000Z 21006KT 1SM R15/P6000FT/N BR VV002 17/16 A2989 RMK FG8 SLP122
CYHZ;2004-08-28 11:00;METAR CYHZ 281100Z 21007KT 1/2SM R15/P6000FT/U R24/4000FT FG VV001 17/17 A2988 RMK FG8 RWY 24 RVR 1 MINUTE MEAN SLP118 RMK FG8 RWY 24 RVR 1 MINUTE MEAN SLP118
CYHZ;2004-08-28 12:00;METAR CYHZ 281200Z 23008KT 1SM R15/P6000FT/N R24/P6000FT BR VV002 18/17 A2987 RMK FG8 RVR RWY 24 1 MINUTE MEAN SLP117 FG8 RVR RWY 24 1 MINUTE MEAN SLP117
CYHZ;2004-08-28 13:00;METAR CYHZ 281300Z 22007KT 3SM BR BKN005 19/18 A2987 RMK FG2SF6 SLP117
CYHZ;2004-08-28 14:00;METAR CYHZ 281400Z 20007KT 5SM HZ BKN008 22/19 A2987 RMK SF6 SLP114
CYHZ;2004-08-28 15:00;METAR CYHZ 281500Z 22010KT 6SM HZ FEW015 24/19 A2985 RMK SF2 SLP108
CYHZ;2004-08-28 16:00;METAR CYHZ 281600Z 25009KT 6SM HZ FEW020 26/20 A2983 RMK SF2 SLP101
CYHZ;2004-08-28 17:00;METAR CYHZ 281700Z 21011KT 8SM FEW025 BKN250 27/21 A2982 RMK CU2CI1 HAZY SLP097
CYHZ;2004-08-28 18:00;METAR CYHZ 281800Z 24012G17KT 8SM SCT030 SCT350 28/21 A2981 RMK CU3CI1 HAZY SLP092
CYHZ;2004-08-28 19:00;METAR CYHZ 281900Z 24011G16KT 8SM SCT030 28/21 A2980 RMK CU4 HAZY SLP090
CYHZ;2004-08-28 20:00;METAR CYHZ 282000Z 25009KT 8SM BKN030 28/21 A2979 RMK CU6 HAZY SLP088
CYHZ;2004-08-28 21:00;METAR CYHZ 282100Z 23010KT 8SM SCT040 27/21 A2980 RMK CU4 HAZY SLP091
CYHZ;2004-08-28 22:00;METAR CYHZ 282200Z 23008KT 10SM FEW040 26/21 A2980 RMK CU1 HAZY SLP091
CYHZ;2004-08-28 23:00;METAR CYHZ 282300Z 21008KT 10SM FEW350 24/20 A2981 RMK CI1 HAZY SLP093
CYHZ;2004-08-29 00:00;METAR CYHZ 290000Z 23006KT 10SM SKC 23/20 A2982 RMK HAZY SLP098
CYHZ;2004-08-29 01:00;METAR CYHZ 290100Z 23008KT 12SM SKC 23/19 A2984 RMK HAZY SLP103
CYHZ;2004-08-29 02:00;METAR CYHZ 290200Z 23008KT 8SM SKC 22/19 A2985 RMK HAZY SLP106
CYHZ;2004-08-29 03:00;METAR CYHZ 290300Z 25009KT 8SM SKC 22/20 A2985 RMK HAZY SLP107
CYHZ;2004-08-29 04:00;METAR CYHZ 290400Z 27004KT 8SM SKC 21/19 A2986 RMK HAZY SLP110
CYHZ;2004-08-29 05:00;METAR CYHZ 290500Z 27005KT 8SM SKC 21/19 A2988 RMK HAZY SLP116
CYHZ;2004-08-29 06:00;METAR CYHZ 290600Z 30006KT 8SM SKC 20/19 A2989 RMK HAZY SLP120
CYHZ;2004-08-29 07:00;METAR CYHZ 290700Z 31005KT 8SM SKC 19/18 A2990 RMK SLP124
CYHZ;2004-08-29 08:00;METAR CYHZ 290800Z 33007KT 8SM SKC 18/18 A2992 RMK HAZY SLP129
CYHZ;2004-08-29 09:00;METAR CYHZ 290900Z 32009KT 8SM SKC 18/17 A2995 RMK HAZY SLP140
CYHZ;2004-08-29 10:00;METAR CYHZ 291000Z 34009KT 12SM FEW120 18/16 A2997 RMK AC1 HAZY SLP148
CYHZ;2004-08-29 11:00;METAR CYHZ 291100Z 33008KT 12SM FEW120 18/16 A2999 RMK AC1 HAZY SLP154
CYHZ;2004-08-29 12:00;METAR CYHZ 291200Z 35010KT 15SM FEW120 19/16 A3000 RMK AC2 SLP159
CYHZ;2004-08-29 13:00;METAR CYHZ 291300Z 36008KT 15SM FEW040 SCT120 BKN300 21/16 A3001 RMK SC1AC4CI0 SC TR SLP162 TR SLP162
CYHZ;2004-08-29 14:00;METAR CYHZ 291400Z 02008KT 15SM FEW040 FEW120 FEW300 22/17 A3003 RMK SC1AC2CI0 SC TR SLP168 TR SLP168
CYHZ;2004-08-29 15:00;METAR CYHZ 291500Z 02006KT 15SM FEW040 SCT090 BKN300 22/17 A3004 RMK SC1AC4CI0 SC TR SLP172 TR SLP172
CYHZ;2004-08-29 16:00;METAR CYHZ 291600Z 35006KT 15SM FEW040 FEW090 SCT300 23/17 A3005 RMK SC1AC2CI1 SC TR SLP173 TR SLP173
CYHZ;2004-08-29 17:00;METAR CYHZ 291700Z 36004KT 15SM FEW030 SCT090 BKN300 25/17 A3005 RMK CU1AC2CI1 SLP175 SLP175
CYHZ;2004-08-29 18:00;METAR CYHZ 291800Z 36006KT 15SM FEW035 FEW090 BKN200 26/18 A3005 RMK CU2AC1CC2 SLP174 SLP174
CYHZ;2004-08-29 19:00;METAR CYHZ 291900Z 02006KT 15SM FEW035 SCT120 BKN200 25/17 A3005 RMK CU2AC2CC1 SLP175
CYHZ;2004-08-29 20:00;METAR CYHZ 292000Z 03010KT 15SM FEW035 BKN110 BKN200 24/16 A3005 RMK SC1AC4CC2 SLP176 SLP176
CYHZ;2004-08-29 21:00;METAR CYHZ 292100Z 04006KT 15SM FEW040 BKN110 OVC200 24/16 A3006 RMK SC1AC5CC2 SLP179 SLP179
CYHZ;2004-08-29 22:00;METAR CYHZ 292200Z 05005KT 15SM FEW050 BKN120 BKN200 23/16 A3007 RMK SC2AC2CC1 SLP182 SLP182
CYHZ;2004-08-29 23:00;METAR CYHZ 292300Z 16005KT 15SM FEW040 BKN075 BKN120 22/17 A3009 RMK SC1AC4AC1 SLP188 SLP188
CYHZ;2004-08-30 00:00;METAR CYHZ 300000Z 16006KT 15SM SCT045 BKN120 20/16 A3011 RMK SC3AC2 SLP194
CYHZ;2004-08-30 01:00;METAR CYHZ 300100Z 15006KT 15SM FEW040 SCT060 19/17 A3011 RMK SC1SC3 SLP196
CYHZ;2004-08-30 02:00;METAR CYHZ 300200Z 15009KT 6SM BR FEW015 FEW100 18/17 A3011 RMK SC1AC1
CYHZ;2004-08-30 03:00;METAR CYHZ 300300Z 14011KT 6SM BR FEW045 BKN096 18/17 A3010 RMK SC2AC2 SLP193
CYHZ;2004-08-30 04:00;METAR CYHZ 300400Z 15009KT 6SM BR FEW007 BKN096 18/17 A3011 RMK SF1AC6
CYHZ;2004-08-30 05:00;METAR CYHZ 300500Z 15013KT 1SM R15/P6000FT/N BR VV002 18/18 A3010 RMK FG8 SLP191
CYHZ;2004-08-30 06:00;METAR CYHZ 300600Z 16012KT 1/4SM R15/3000FT/N FG VV001 18/18 A3009 RMK FG8 SLP188
CYHZ;2004-08-30 07:00;METAR CYHZ 300700Z 17009KT 1/4SM R15/2200FT/N FG VV001 18/18 A3008 RMK FG8 RVR RWY 24 1600 1 MINUTE MEAN SLP185 RWY 24 1600 1 MINUTE MEAN SLP185
CYHZ;2004-08-30 08:00;METAR CYHZ 300800Z 20009KT 4SM BR OVC003 19/18 A3008 RMK FG1SF7 VSBY 1 W SLP186
CYHZ;2004-08-30 09:00;METAR CYHZ 300900Z 20009KT 10SM BKN002 OVC020 19/18 A3008 RMK SF6SC2 SLP187 FG8 RVR 24 2400 FT 1 MINUTE MEAN SLP190 RVR 24 2400 FT 1 MINUTE MEAN SLP190
CYHZ;2004-08-30 11:00;METAR CYHZ 301100Z 20010G15KT 1/4SM R15/P6000FT/U FG VV001 19/18 A3010 RMK FG8 RVR 24 2800 FT 1 MINUTE MEAN SLP191 RVR 24 2800 FT 1 MINUTE MEAN SLP191
CYHZ;2004-08-30 12:00;METAR CYHZ 301200Z 21011KT 3/4SM R15/P6000FT/D BR VV001 19/19 A3010 RMK FG8 RVR 24 P6000 FT 1 MINUTE MEAN SLP193 24 P6000 FT 1 MINUTE MEAN SLP193
CYHZ;2004-08-30 13:00;METAR CYHZ 301300Z 23012KT 15SM BKN006 21/19 A3011 RMK SC7 SLP196
CYHZ;2004-08-30 14:00;METAR CYHZ 301400Z 24012G17KT 15SM FEW012 FEW250 24/18 A3012 RMK SF1CI1 SLP198
CYHZ;2004-08-30 15:00;METAR CYHZ 301500Z 24012G19KT 15SM FEW026 FEW250 25/19 A3011 RMK SC2CI1 SLP197
CYHZ;2004-08-30 16:00;METAR CYHZ 301600Z 24012G17KT 15SM FEW028 SCT250 27/20 A3011 RMK SC2CI2
CYHZ;2004-08-30 17:00;METAR CYHZ 301700Z 24016G27KT 15SM FEW038 SCT250 27/20 A3011 RMK SC2CI2
CYHZ;2004-08-30 18:00;METAR CYHZ 301800Z 23014G20KT 20SM FEW035 SCT270 27/20 A3011 RMK CU2CI1 SLP195
CYHZ;2004-08-30 19:00;METAR CYHZ 301900Z 22017KT 20SM FEW040 SCT270 27/21 A3011 RMK CU2CI1
CYHZ;2004-08-30 20:00;METAR CYHZ 302000Z 21013KT 20SM FEW040 FEW270 27/21 A3011 RMK CU1CI1
CYHZ;2004-08-30 21:00;METAR CYHZ 302100Z 21014KT 20SM FEW040 FEW270 26/20 A3012 RMK SC1CI1 SLP199
CYHZ;2004-08-30 22:00;METAR CYHZ 302200Z 24009G16KT 10SM FEW040 FEW270 26/20 A3013 RMK SC1CI1 SLP203
CYHZ;2004-08-30 23:00;METAR CYHZ 302300Z 21009KT 10SM SCT140 BKN270 23/20 A3015 RMK AC4CI1 SLP208
CYHZ;2004-08-31 00:00;METAR CYHZ 310000Z 20008KT 10SM SCT140 BKN270 22/19 A3017 RMK AC4CI1 SLP217
CYHZ;2004-08-31 01:00;METAR CYHZ 310100Z 20006KT 10SM SCT025 BKN140 21/19 A3017 RMK SC3AC2 SLP218
CYHZ;2004-08-31 02:00;METAR CYHZ 310200Z 18005KT 15SM FEW270 20/18 A3018 RMK CI1 SLP219
CYHZ;2004-08-31 03:00;METAR CYHZ 310300Z 14006KT 15SM FEW030 20/18 A3017 RMK SC2 SLP215
CYHZ;2004-08-31 04:00;METAR CYHZ 310400Z 17005KT 6SM BR OVC031 19/19 A3017 RMK SC7 SLP216 SLP214
CYHZ;2004-08-31 06:00;METAR CYHZ 310600Z 15006KT 3/4SM R15/4000VP6000FT/D BR VV001 19/19 A3015 RMK FG8 SLP207 SLP207 FG8 SLP200 SLP200
CYHZ;2004-08-31 08:00;METAR CYHZ 310800Z 18007KT 2SM BR OVC002 20/20 A3010 RMK FG2SF6 SLP192
CYHZ;2004-08-31 09:00;METAR CYHZ 310900Z 16010KT 1 1/2SM -SHRA BR BKN005 OVC025 20/20 A3010 RMK FG2SF5SC1 SLP190 FG8 RETS RVR RWY24 P6000 FT RVR RWY 24 1 MINUTE MEAN SLP190 RETS RVR RWY24 P6000 FT RVR RWY 24 1 MINUTE MEAN SLP190 RVR RWY 24 2200 FT RVR RWY 24 1 MINUTE MEAN SLP181 FG8 RVR RWY 24 2600 FT RVR RWY24 1 MINUTE MEAN SLP176 RVR RWY 24 2600 FT RVR RWY24 1 MINUTE MEAN SLP176
CYHZ;2004-08-31 13:00;METAR CYHZ 311300Z 20015KT 1/2SM R15/3500VP6000FT/D -SHRA FG VV001 21/21 A3004 RMK FG8 RVR RWY 24 3500 FT RVR RWY 24 1 MINUTE MEAN SLP171 RMK FG8 RVR RWY 24 3500 FT RVR RWY 24 1 MINUTE MEAN SLP171 A3002 RMK FG8 RVR RWY 24 5500 FT RVR RWY 24 1 MINUTE MEAN SLP164 RMK FG8 RVR RWY 24 5500 FT RVR RWY 24 1 MINUTE MEAN SLP164
CYHZ;2004-08-31 15:00;METAR CYHZ 311500Z 21018G26KT 1SM R15/P6000FT/N -SHRA BR OVC003 22/22 A2999 RMK FG5SF3 SLP153 FG5SF3 SLP153
CYHZ;2004-08-31 16:00;METAR CYHZ 311600Z 21021G30KT 15SM OVC013 23/21 A2996 RMK SC8 SLP143
CYHZ;2004-08-31 17:00;METAR CYHZ 311700Z 21021G30KT 8SM BKN009 BKN019 21/20 A2994 RMK SF6SC2 SLP139
CYHZ;2004-08-31 18:00;METAR CYHZ 311800Z 21024G30KT 8SM -SHRA BKN005 OVC010 21/19 A2992 RMK SC6SC2 SLP130 SLP130 SLP118
CYHZ;2004-08-31 20:00;METAR CYHZ 312000Z 22021G31KT 8SM BKN003 OVC015 20/19 A2987 RMK SC7SC1 SLP116
CYHZ;2004-08-31 21:00;METAR CYHZ 312100Z 21018G25KT 6SM -SHRA OVC003 19/19 A2987 RMK SC8 SLP115
CYHZ;2004-08-31 22:00;METAR CYHZ 312200Z 23012G18KT 3SM -SHRA BR OVC002 19/19 A2989 RMK ST8 SLP121
CYHZ;2004-08-31 23:00;METAR CYHZ 312300Z 22010KT 6SM BR OVC002 19/19 A2989 RMK SF8 VIS S QUAD 1 SLP122
CYHZ;2004-09-01 00:00;METAR CYHZ 010000Z 22007KT 1 1/2SM -SHRA BR OVC002 19/19 A2992 RMK SF8 VIS N QUAD 10 SLP130 10 SLP130
CYHZ;2004-09-01 01:00;METAR CYHZ 010100Z 26006KT 6SM BR OVC003 19/19 A2992 RMK SF8 CIG VRB 2-4 SLP132
CYHZ;2004-09-01 02:00;METAR CYHZ 010200Z 22008KT 2 1/2SM BR OVC002 19/19 A2991 RMK SF8 CIG RAG SLP129
CYHZ;2004-09-01 03:00;METAR CYHZ 010300Z 25007KT 1/8SM R15/4000VP6000FT/D R24/P6000FT FG VV001 19/19 A2990 RMK FG8 RVR RWY 24 1 MINUTE MEAN SLP123 A2990 RMK FG8 RVR RWY 24 1 MINUTE MEAN SLP123
CYHZ;2004-09-01 04:00;METAR CYHZ 010400Z 27002KT 1/4SM R15/1800FT/N FG VV001 19/18 A2987 RMK FG8 SLP116
CYHZ;2004-09-01 05:00;METAR CYHZ 010500Z 28002KT 2 1/2SM BR OVC004 19/19 A2985 RMK SF8 SLP109
CYHZ;2004-09-01 06:00;METAR CYHZ 010600Z 32005KT 3/4SM R15/P6000FT/D BR VV002 19/19 A2985 RMK FG8 SLP108
CYHZ;2004-09-01 07:00;METAR CYHZ 010700Z 35010KT 3SM -SHRA BR OVC003 18/18 A2983 RMK FG2SF6 SLP100
CYHZ;2004-09-01 08:00;METAR CYHZ 010800Z 34012KT 3/4SM R15/4500VP6000FT/U BR VV001 17/17 A2982 RMK FG8 SLP097 SLP097
CYHZ;2004-09-01 09:00;METAR CYHZ 010900Z 34012KT 1 3/4SM BR OVC002 16/16 A2981 RMK FG4SF4 SLP094
CYHZ;2004-09-01 10:00;METAR CYHZ 011000Z 33012KT 3SM BR OVC003 16/16 A2982 RMK SF8 SLP098
CYHZ;2004-09-01 11:00;METAR CYHZ 011100Z 33013G18KT 10SM OVC004 16/16 A2984 RMK SF8 SLP104
CYHZ;2004-09-01 12:00;METAR CYHZ 011200Z 33015KT 15SM BKN010 16/15 A2986 RMK SC7 SLP112
CYHZ;2004-09-01 13:00;METAR CYHZ 011300Z 34017G24KT 15SM BKN016 16/14 A2988 RMK SC6 SLP118
CYHZ;2004-09-01 14:00;METAR CYHZ 011400Z 32012KT 15SM SCT020 18/15 A2988 RMK CF2 SLP119
CYHZ;2004-09-01 15:00;METAR CYHZ 011500Z 32013KT 15SM FEW025 20/14 A2989 RMK CF2 SLP120
CYHZ;2004-09-01 16:00;METAR CYHZ 011600Z 29010G16KT 20SM FEW025 21/14 A2989 RMK CF2 SLP122
CYHZ;2004-09-01 17:00;METAR CYHZ 011700Z 30016KT 20SM FEW025 22/14 A2990 RMK CF2 SLP123
CYHZ;2004-09-01 18:00;METAR CYHZ 011800Z 31014G19KT 20SM FEW047 22/12 A2990 RMK CU2 SLP124
CYHZ;2004-09-01 19:00;METAR CYHZ 011900Z 31014KT 20SM SCT051 23/12 A2990 RMK CU3 SLP124
CYHZ;2004-09-01 20:00;METAR CYHZ 012000Z 30015KT 20SM FEW050 22/13 A2990 RMK CU2 SLP125
CYHZ;2004-09-01 21:00;METAR CYHZ 012100Z 30012G18KT 20SM FEW045 22/13 A2990 RMK CU1 SLP126
CYHZ;2004-09-01 22:00;METAR CYHZ 012200Z 28007KT 20SM FEW045 21/13 A2990 RMK CU1 SLP126
CYHZ;2004-09-01 23:00;METAR CYHZ 012300Z 27005KT 20SM FEW040 19/13 A2993 RMK SC1 SLP134
CYHZ;2004-09-02 00:00;METAR CYHZ 020000Z 31017G27KT 20SM SCT038 BKN084 19/13 A2997 RMK SC4AC1 SLP149
CYHZ;2004-09-02 01:00;METAR CYHZ 020100Z 32009KT 20SM SCT085 17/12 A2999 RMK AC3 SLP154
CYHZ;2004-09-02 02:00;METAR CYHZ 020200Z 31007KT 20SM FEW080 15/13 A3000 RMK AC2 SLP159
CYHZ;2004-09-02 03:00;METAR CYHZ 020300Z 31010KT 20SM FEW022 FEW080 15/13 A3001 RMK SC1AC1 SLP162
CYHZ;2004-09-02 04:00;METAR CYHZ 020400Z 32012G17KT 15SM FEW020 FEW060 14/11 A3003 RMK SC1SC1 SLP168
CYHZ;2004-09-02 05:00;METAR CYHZ 020500Z 32013KT 15SM FEW060 14/10 A3005 RMK SC1 SLP174
CYHZ;2004-09-02 06:00;METAR CYHZ 020600Z 31009KT 15SM FEW060 12/09 A3005 RMK SC1 SLP178
CYHZ;2004-09-02 07:00;METAR CYHZ 020700Z 32007KT 20SM FEW060 11/08 A3007 RMK SC1 SLP183
CYHZ;2004-09-02 08:00;METAR CYHZ 020800Z 32008KT 20SM SKC 11/08 A3008 RMK SLP188
CYHZ;2004-09-02 09:00;METAR CYHZ 020900Z 32006KT 20SM FEW250 10/08 A3010 RMK CI1 SLP195
CYHZ;2004-09-02 10:00;METAR CYHZ 021000Z 32006KT 20SM FEW250 10/07 A3012 RMK CI1 SLP202
CYHZ;2004-09-02 11:00;METAR CYHZ 021100Z 31005KT 15SM FEW250 11/07 A3015 RMK CI1 SLP211
CYHZ;2004-09-02 13:00;METAR CYHZ 021300Z 33011KT 15SM FEW040 14/08 A3017 RMK CF0 SLP218
CYHZ;2004-09-02 14:00;METAR CYHZ 021400Z 33013KT 15SM FEW040 15/06 A3018 RMK CF1 SLP220
CYHZ;2004-09-02 15:00;METAR CYHZ 021500Z 29012G18KT 15SM FEW043 16/05 A3018 RMK CF0 SLP222
CYHZ;2004-09-02 16:00;METAR CYHZ 021600Z 34014KT 15SM FEW040 16/05 A3019 RMK CF0 SLP223
CYHZ;2004-09-02 17:00;METAR CYHZ 021700Z 34010G18KT 15SM FEW040 17/05 A3019 RMK CF0 SLP223
CYHZ;2004-09-02 18:00;METAR CYHZ 021800Z 35012KT 15SM FEW048 FEW300 17/06 A3019 RMK CU1CI0 TR CU SLP224
CYHZ;2004-09-02 19:00;METAR CYHZ 021900Z 30008KT 15SM FEW045 FEW300 17/05 A3019 RMK CU1CI0 TR CU
CYHZ;2004-09-02 20:00;METAR CYHZ 022000Z 32010G17KT 15SM FEW045 FEW300 17/06 A3019 RMK CU1CI0 SLP226
CYHZ;2004-09-02 21:00;METAR CYHZ 022100Z 31008KT 15SM FEW040 FEW300 17/04 A3020 RMK CU1CI0 SLP229
CYHZ;2004-09-02 22:00;METAR CYHZ 022200Z 30008KT 15SM FEW040 FEW300 15/06 A3021 RMK SC1CI0 SLP232
CYHZ;2004-09-02 23:00;METAR CYHZ 022300Z 32007KT 15SM FEW300 13/06 A3021 RMK CI0 SLP231
CYHZ;2004-09-03 00:00;METAR CYHZ 030000Z 29005KT 15SM FEW300 11/07 A3022 RMK CI0 SLP237
CYHZ;2004-09-03 01:00;METAR CYHZ 030100Z 29007KT 15SM FEW300 11/07 A3023 RMK CI0 SLP240
CYHZ;2004-09-03 02:00;METAR CYHZ 030200Z 29007KT 15SM FEW270 10/06 A3024 RMK CI1 SLP243
CYHZ;2004-09-03 03:00;METAR CYHZ 030300Z 29006KT 15SM SCT240 10/06 A3023 RMK CI2 SLP240
CYHZ;2004-09-03 04:00;METAR CYHZ 030400Z 29005KT 15SM FEW240 09/06 A3023 RMK CI0 SLP240
CYHZ;2004-09-03 05:00;METAR CYHZ 030500Z 29006KT 15SM FEW240 09/06 A3025 RMK CI0 SLP244
CYHZ;2004-09-03 06:00;METAR CYHZ 030600Z 27005KT 15SM SKC 09/06 A3024 RMK SLP241
CYHZ;2004-09-03 07:00;METAR CYHZ 030700Z 27006KT 15SM SKC 09/06 A3023 RMK SLP240
CYHZ;2004-09-03 09:00;METAR CYHZ 030900Z 27005KT 15SM FEW250 09/06 A3024 RMK CI1 SLP241
CYHZ;2004-09-03 10:00;METAR CYHZ 031000Z 29005KT 20SM SCT150 SCT250 09/06 A3025 RMK AC3CI0 SLP244
CYHZ;2004-09-03 11:00;METAR CYHZ 031100Z 28004KT 20SM FEW150 FEW250 10/07 A3024 RMK AC2CI0 SLP241
CYHZ;2004-09-03 12:00;METAR CYHZ 031200Z 25003KT 20SM SCT160 SCT250 13/07 A3022 RMK AC3CI0 SLP237
CYHZ;2004-09-03 13:00;METAR CYHZ 031300Z 24008KT 20SM FEW160 SCT250 15/08 A3022 RMK AC1CI0 SLP235
CYHZ;2004-09-03 14:00;METAR CYHZ 031400Z 25007KT 20SM FEW030 FEW160 SCT250 17/09 A3020 RMK SC2AC1CI0 SLP230 SLP230
CYHZ;2004-09-03 15:00;METAR CYHZ 031500Z 23012G18KT 20SM BKN037 18/10 A3018 RMK SC6 SLP220
CYHZ;2004-09-03 16:00;METAR CYHZ 031600Z 24014G20KT 20SM BKN037 19/11 A3015 RMK SC6 SLP210
CYHZ;2004-09-03 17:00;METAR CYHZ 031700Z 24013G19KT 20SM BKN046 19/11 A3012 RMK SC5 SLP202
CYHZ;2004-09-03 18:00;METAR CYHZ 031800Z 22016KT 20SM BKN035 BKN250 20/12 A3010 RMK SC5CI1 SLP193
CYHZ;2004-09-03 19:00;METAR CYHZ 031900Z 22017KT 20SM SCT035 BKN250 20/12 A3008 RMK SC3CI0 SLP186
CYHZ;2004-09-03 20:00;METAR CYHZ 032000Z 20016G21KT 20SM FEW030 BKN250 20/13 A3006 RMK SC2CI0 SLP181
CYHZ;2004-09-03 21:00;METAR CYHZ 032100Z 20015G20KT 20SM FEW025 SCT140 BKN250 19/12 A3005 RMK SC2AC2CI0 SLP177 SLP177
CYHZ;2004-09-03 22:00;METAR CYHZ 032200Z 21016KT 20SM FEW025 SCT180 BKN250 18/12 A3004 RMK SC1AC2CI0 SLP173 SLP173
CYHZ;2004-09-03 23:00;METAR CYHZ 032300Z 21016G21KT 15SM FEW025 SCT180 BKN250 16/11 A3004 RMK SC1AC2CI0 SLP174 SLP174
CYHZ;2004-09-04 00:00;METAR CYHZ 040000Z 22011KT 15SM FEW080 FEW180 SCT250 16/12 A3005 RMK AC1AC2CI0 SLP176 SLP176
CYHZ;2004-09-04 01:00;METAR CYHZ 040100Z 24014KT 15SM FEW080 SCT170 BKN250 15/11 A3004 RMK AC1AC2CI0 SLP175 SLP175
CYHZ;2004-09-04 02:00;METAR CYHZ 040200Z 23014KT 15SM BKN068 BKN160 15/11 A3002 RMK AC5AC2 SLP168
CYHZ;2004-09-04 03:00;METAR CYHZ 040300Z 24013KT 15SM BKN062 OVC150 15/12 A3001 RMK SC6AC2 SLP163
CYHZ;2004-09-04 04:00;METAR CYHZ 040400Z 24011KT 15SM BKN068 BKN090 15/12 A3000 RMK AC5AC1 SLP159
CYHZ;2004-09-04 05:00;METAR CYHZ 040500Z 23009KT 15SM SCT070 BKN120 15/13 A2998 RMK AC3AC2 SLP153
CYHZ;2004-09-04 06:00;METAR CYHZ 040600Z 24012KT 15SM FEW070 BKN140 15/13 A2998 RMK AC2AC5 SLP151
CYHZ;2004-09-04 07:00;METAR CYHZ 040700Z 23007KT 15SM -SHRA SCT050 OVC120 15/13 A2997 RMK SC3AC5 SLP148
CYHZ;2004-09-04 08:00;METAR CYHZ 040800Z 21006KT 15SM FEW050 OVC075 15/13 A2996 RMK SC2AC6 SLP147
CYHZ;2004-09-04 09:00;METAR CYHZ 040900Z 25006KT 15SM BKN060 OVC075 15/14 A2996 RMK SC6AC2
CYHZ;2004-09-04 10:00;METAR CYHZ 041000Z 22003KT 8SM SCT010 OVC050 15/14 A2996 RMK SC3SC5 SLP147
CYHZ;2004-09-04 11:00;METAR CYHZ 041100Z 27006KT 3SM R15/4000VP6000FT/D -SHRA BKN005TCU OVC015 15/14 A2997 RMK TCU6SC2 SLP149 A2997 RMK TCU6SC2 SLP149
CYHZ;2004-09-04 12:00;METAR CYHZ 041200Z 21002KT 1SM R15/P6000FT/N -SHRA BR OVC003 15/15 A2996 RMK FG3NS5 SLP148 FG3NS5 SLP148
CYHZ;2004-09-04 13:00;METAR CYHZ 041300Z 34006KT 1SM R15/P6000FT/N BR OVC002 16/15 A2998 RMK FG4ST4 SLP153
CYHZ;2004-09-04 14:00;METAR CYHZ 041400Z 35010KT 2SM BR OVC005 15/15 A3001 RMK FG2ST6 SLP162
CYHZ;2004-09-04 15:00;METAR CYHZ 041500Z 02015KT 8SM -SHRA OVC005 14/14 A3003 RMK SC8 SLP169
CYHZ;2004-09-04 16:00;METAR CYHZ 041600Z 02011G16KT 15SM BKN015 OVC045 15/14 A3004 RMK SC6SC2 SLP174
CYHZ;2004-09-04 17:00;METAR CYHZ 041700Z 01013G18KT 15SM BKN015 BKN110 15/13 A3005 RMK SC6AC1 SLP178
CYHZ;2004-09-04 18:00;METAR CYHZ 041800Z 02011G16KT 15SM BKN019 15/12 A3008 RMK SC7 SLP186
CYHZ;2004-09-04 19:00;METAR CYHZ 041900Z 01010G20KT 15SM BKN025 BKN040 16/11 A3010 RMK SC6SC1 SLP193
CYHZ;2004-09-04 20:00;METAR CYHZ 042000Z 36014G25KT 15SM BKN028 BKN250 15/10 A3011 RMK SC5CI0 SLP199
CYHZ;2004-09-04 21:00;METAR CYHZ 042100Z 36010G18KT 15SM SCT040 SCT220 14/08 A3014 RMK SC3CI0 SLP209
CYHZ;2004-09-04 22:00;METAR CYHZ 042200Z 02010KT 15SM SCT035 BKN220 15/09 A3016 RMK CU3CI1 SLP215
CYHZ;2004-09-04 23:00;METAR CYHZ 042300Z 36011KT 15SM FEW035 BKN220 13/09 A3018 RMK CU2CI2 SLP222
CYHZ;2004-09-05 00:00;METAR CYHZ 050000Z 01010G15KT 15SM FEW030 SCT220 12/09 A3023 RMK CU2CI0 SLP238
CYHZ;2004-09-05 01:00;METAR CYHZ 050100Z 36010KT 15SM FEW025 FEW220 11/09 A3025 RMK CU1CI0 SLP245
CYHZ;2004-09-05 02:00;METAR CYHZ 050200Z 36006KT 15SM BKN220 10/09 A3026 RMK CI3 SLP248
CYHZ;2004-09-05 03:00;METAR CYHZ 050300Z 34006KT 15SM FEW220 10/09 A3027 RMK CI1 SLP254
CYHZ;2004-09-05 04:00;METAR CYHZ 050400Z 34006KT 15SM FEW220 09/08 A3027 RMK CI1 SLP253
CYHZ;2004-09-05 05:00;METAR CYHZ 050500Z 34006KT 15SM FEW030 FEW220 08/07 A3028 RMK SC1CI1 SLP256
CYHZ;2004-09-05 06:00;METAR CYHZ 050600Z 35008KT 15SM SCT045 08/08 A3028 RMK SC3 SLP257
CYHZ;2004-09-05 07:00;METAR CYHZ 050700Z 36006KT 15SM FEW050 08/07 A3029 RMK SC2 SLP260
CYHZ;2004-09-05 08:00;METAR CYHZ 050800Z 36003KT 15SM FEW050 08/07 A3031 RMK SC1 SLP267
CYHZ;2004-09-05 09:00;METAR CYHZ 050900Z 36002KT 15SM FEW050 08/07 A3033 RMK SC1 SLP274
CYHZ;2004-09-05 10:00;METAR CYHZ 051000Z 36004KT 15SM FEW050 FEW300 08/07 A3037 RMK CU1CI1 SLP285
CYHZ;2004-09-05 11:00;METAR CYHZ 051100Z 35005KT 15SM FEW045 FEW300 09/08 A3040 RMK SC1CI1 SLP295
CYHZ;2004-09-05 12:00;METAR CYHZ 051200Z 35005KT 15SM FEW045 FEW200 FEW300 11/09 A3041 RMK SC1CI1CI1 SLP302 SLP302
CYHZ;2004-09-05 13:00;METAR CYHZ 051300Z 04011KT 15SM SCT030 SCT300 13/09 A3043 RMK CU3CI1 SLP307
CYHZ;2004-09-05 14:00;METAR CYHZ 051400Z 03012G17KT 15SM SCT035 15/07 A3043 RMK CU4 SLP309
CYHZ;2004-09-05 15:00;METAR CYHZ 051500Z 36009G15KT 15SM BKN035 14/08 A3043 RMK SC6 SLP308
CYHZ;2004-09-05 16:00;METAR CYHZ 051600Z 36010G15KT 15SM BKN040 BKN300 15/06 A3043 RMK SC5CI1 SLP306
CYHZ;2004-09-05 17:00;METAR CYHZ 051700Z 04011KT 15SM BKN045 BKN300 16/06 A3041 RMK SC5CI1
CYHZ;2004-09-05 18:00;METAR CYHZ 051800Z 03005KT 15SM BKN050 BKN300 16/07 A3041 RMK SC5CI1 SLP300
CYHZ;2004-09-05 19:00;METAR CYHZ 051900Z 35009KT 15SM BKN050 16/07 A3041 RMK SC6 SLP302
CYHZ;2004-09-05 20:00;METAR CYHZ 052000Z 36011KT 15SM BKN052 16/07 A3042 RMK SC6 SLP305
CYHZ;2004-09-05 21:00;METAR CYHZ 052100Z 03006KT 15SM BKN050 BKN250 16/07 A3042 RMK SC5CI1 SLP305
CYHZ;2004-09-05 22:00;METAR CYHZ 052200Z 03004KT 15SM FEW050 BKN250 15/07 A3043 RMK SC2CI1 SLP309
CYHZ;2004-09-05 23:00;METAR CYHZ 052300Z 02005KT 15SM FEW050 SCT250 13/07 A3045 RMK SC1CI1 SLP314
CYHZ;2004-09-06 00:00;METAR CYHZ 060000Z 04003KT 15SM FEW050 SCT250 13/07 A3046 RMK SC1CI1 SLP318
CYHZ;2004-09-06 01:00;METAR CYHZ 060100Z 07004KT 15SM SCT250 12/06 A3046 RMK CI1 SLP318
CYHZ;2004-09-06 02:00;METAR CYHZ 060200Z 10004KT 15SM SKC 11/06 A3046 RMK SLP318
CYHZ;2004-09-06 03:00;METAR CYHZ 060300Z 11004KT 15SM SKC 11/06 A3046 RMK SLP316
CYHZ;2004-09-06 04:00;METAR CYHZ 060400Z 00000KT 15SM SKC 10/06 A3046 RMK SLP317
CYHZ;2004-09-06 05:00;METAR CYHZ 060500Z 20004KT 15SM FEW280 11/06 A3044 RMK CI1 SLP312
CYHZ;2004-09-06 06:00;METAR CYHZ 060600Z 18004KT 15SM SCT280 11/06 A3043 RMK CI3 SLP305
CYHZ;2004-09-06 07:00;METAR CYHZ 060700Z 18004KT 15SM SCT280 10/06 A3042 RMK CI3 SLP303
CYHZ;2004-09-06 08:00;METAR CYHZ 060800Z 00000KT 15SM FEW180 SCT280 08/06 A3043 RMK AC2CI2 SLP306
CYHZ;2004-09-06 09:00;METAR CYHZ 060900Z 21004KT 15SM FEW180 SCT280 10/07 A3043 RMK AC2CI2 SLP305
CYHZ;2004-09-06 11:00;METAR CYHZ 061100Z 26005KT 15SM MIFG FEW150 FEW280 11/07 A3044 RMK AC1CI0
CYHZ;2004-09-06 12:00;METAR CYHZ 061200Z 26005KT 15SM FEW280 13/08 A3043 RMK CI0 SLP307
CYHZ;2004-09-06 13:00;METAR CYHZ 061300Z 25006KT 15SM FEW030 FEW280 14/08 A3043 RMK CU1CI0 TR CU
CYHZ;2004-09-06 14:00;METAR CYHZ 061400Z 26009KT 15SM FEW030 FEW280 16/08 A3042 RMK CU1CI1 TR CU SLP303
CYHZ;2004-09-06 15:00;METAR CYHZ 061500Z 22011KT 15SM FEW030 FEW280 17/08 A3040 RMK CU2CI1 SLP297
CYHZ;2004-09-06 16:00;METAR CYHZ 061600Z 21013KT 15SM FEW040 FEW280 18/08 A3037 RMK CU2CI0 SLP287
CYHZ;2004-09-06 17:00;METAR CYHZ 061700Z 24009G16KT 15SM FEW040 BKN280 19/08 A3036 RMK CU1CI2 TR CU SLP282 SLP282
CYHZ;2004-09-06 18:00;METAR CYHZ 061800Z 20014G20KT 15SM FEW040 BKN280 19/08 A3034 RMK CU1CI2 SLP276
CYHZ;2004-09-06 19:00;METAR CYHZ 061900Z 21014G21KT 15SM FEW040 BKN280 19/10 A3032 RMK SC1CI4 TR SC SLP270 SLP270
CYHZ;2004-09-06 20:00;METAR CYHZ 062000Z 22016G21KT 15SM FEW040 BKN280 17/10 A3031 RMK SC1CI2 TR SC SLP267 SLP267
CYHZ;2004-09-06 21:00;METAR CYHZ 062100Z 21015KT 15SM FEW040 OVC280 16/10 A3031 RMK SC1CI4 TR SC SLP265
CYHZ;2004-09-06 22:00;METAR CYHZ 062200Z 21014KT 15SM FEW040 OVC280 15/10 A3029 RMK SC1CI3 TR SC SLP260
CYHZ;2004-09-06 23:00;METAR CYHZ 062300Z 21011KT 15SM BKN280 14/10 A3028 RMK CI2 SLP258
CYHZ;2004-09-07 00:00;METAR CYHZ 070000Z 22010KT 15SM BKN280 13/10 A3028 RMK CI2 SLP257
CYHZ;2004-09-07 01:00;METAR CYHZ 070100Z 22009KT 15SM SKC 13/10 A3027 RMK SLP253
CYHZ;2004-09-07 02:00;METAR CYHZ 070200Z 23009KT 15SM SKC 13/10 A3026 RMK SLP250
CYHZ;2004-09-07 03:00;METAR CYHZ 070300Z 23009KT 15SM SKC 12/10 A3026 RMK SLP248
CYHZ;2004-09-07 04:00;METAR CYHZ 070400Z 22008KT 15SM SKC 12/10 A3025 RMK SLP244
CYHZ;2004-09-07 05:00;METAR CYHZ 070500Z 22010KT 15SM SKC 12/10 A3024 RMK SLP241
CYHZ;2004-09-07 06:00;METAR CYHZ 070600Z 22010KT 15SM SKC 11/10 A3023 RMK SLP237
CYHZ;2004-09-07 07:00;METAR CYHZ 070700Z 21006KT 15SM SKC 11/10 A3022 RMK SLP235
CYHZ;2004-09-07 08:00;METAR CYHZ 070800Z 21007KT 15SM SKC 11/10 A3022 RMK SLP234
CYHZ;2004-09-07 09:00;METAR CYHZ 070900Z 23008KT 15SM FEW280 11/10 A3022 RMK CI1 SLP234
CYHZ;2004-09-07 10:00;METAR CYHZ 071000Z 21006KT 20SM FEW170 SCT280 11/10 A3022 RMK AC1CI2 SLP235
CYHZ;2004-09-07 11:00;METAR CYHZ 071100Z 20007KT 20SM BKN280 12/11 A3021 RMK CI2 SLP233
CYHZ;2004-09-07 12:00;METAR CYHZ 071200Z 23009KT 20SM FEW005 BKN280 14/12 A3022 RMK SF1CI2 SLP234
CYHZ;2004-09-07 13:00;METAR CYHZ 071300Z 23009KT 20SM FEW005 BKN280 16/13 A3020 RMK SF1CI4 SLP229
CYHZ;2004-09-07 14:00;METAR CYHZ 071400Z 25011G17KT 20SM FEW010 BKN280 19/11 A3019 RMK SC1CI4 SLP225
CYHZ;2004-09-07 15:00;METAR CYHZ 071500Z 25011KT 20SM BKN280 20/10 A3019 RMK CI3 SLP223
CYHZ;2004-09-07 16:00;METAR CYHZ 071600Z 21013KT 20SM BKN280 21/10 A3017 RMK CI3 SLP217
CYHZ;2004-09-07 17:00;METAR CYHZ 071700Z 20013KT 20SM BKN280 22/10 A3016 RMK CI2 SLP216
CYHZ;2004-09-07 18:00;METAR CYHZ 071800Z 23010G17KT 15SM BKN280 22/10 A3015 RMK CI2 SLP209
CYHZ;2004-09-07 19:00;METAR CYHZ 071900Z 22012KT 15SM BKN280 23/12 A3014 RMK CI2 SLP206
CYHZ;2004-09-07 20:00;METAR CYHZ 072000Z 19013KT 15SM BKN280 22/11 A3013 RMK CI2 SLP203
CYHZ;2004-09-07 21:00;METAR CYHZ 072100Z 20015KT 15SM BKN280 20/12 A3013 RMK CI2 SLP203
CYHZ;2004-09-07 22:00;METAR CYHZ 072200Z 20012KT 15SM SCT280 19/13 A3013 RMK CI2 SLP205
CYHZ;2004-09-07 23:00;METAR CYHZ 072300Z 19010KT 15SM FEW080 SCT280 17/13 A3014 RMK AC1CI1 SLP207
CYHZ;2004-09-08 00:00;METAR CYHZ 080000Z 20009KT 15SM SKC 16/13 A3015 RMK SLP211
CYHZ;2004-09-08 01:00;METAR CYHZ 080100Z 20009KT 15SM SKC 15/13 A3015 RMK SLP211
CYHZ;2004-09-08 02:00;METAR CYHZ 080200Z 23013KT 15SM SKC 17/14 A3015 RMK SLP211
CYHZ;2004-09-08 03:00;METAR CYHZ 080300Z 23012G17KT 15SM SKC 17/14 A3015 RMK SLP209
CYHZ;2004-09-08 04:00;METAR CYHZ 080400Z 21013KT 15SM SKC 16/14 A3013 RMK SLP205
CYHZ;2004-09-08 05:00;METAR CYHZ 080500Z 21010G15KT 15SM SKC 16/13 A3013 RMK SLP205
CYHZ;2004-09-08 06:00;METAR CYHZ 080600Z 22011KT 15SM SCT035 16/13 A3014 RMK SC4 SLP208
CYHZ;2004-09-08 07:00;METAR CYHZ 080700Z 21012KT 12SM BKN004 BKN035 16/14 A3013 RMK SF5SC2 SLP205
CYHZ;2004-09-08 08:00;METAR CYHZ 080800Z 23008KT 15SM SCT014 16/14 A3014 RMK SC4 SLP207
CYHZ;2004-09-08 09:00;METAR CYHZ 080900Z 22008KT 15SM SCT015 BKN033 16/15 A3014 RMK SC4SC2 SLP208
CYHZ;2004-09-08 10:00;METAR CYHZ 081000Z 23011KT 10SM OVC006 17/16 A3016 RMK SF8 SLP212
CYHZ;2004-09-08 11:00;METAR CYHZ 081100Z 22009KT 15SM BKN014 BKN250 18/16 A3017 RMK SC5CI1 SLP217
CYHZ;2004-09-08 12:00;METAR CYHZ 081200Z 22013G18KT 15SM SCT009 SCT030 BKN070 BKN250 19/17 A3018 RMK SF3SC1AC1CI0 SLP219 SF3SC1AC1CI0 SLP219
CYHZ;2004-09-08 13:00;METAR CYHZ 081300Z 24010G17KT 15SM BKN011 OVC030 21/18 A3019 RMK SC6SC2 SLP222
CYHZ;2004-09-08 14:00;METAR CYHZ 081400Z 23014KT 15SM BKN013 OVC250 21/18 A3019 RMK SC7CI0 SLP223
CYHZ;2004-09-08 15:00;METAR CYHZ 081500Z 24011G17KT 15SM OVC014 22/18 A3020 RMK SC8 SLP226
CYHZ;2004-09-08 16:00;METAR CYHZ 081600Z 23013G19KT 15SM OVC025 23/19 A3020 RMK SC8 SLP226
CYHZ;2004-09-08 17:00;METAR CYHZ 081700Z 23011G16KT 15SM BKN022 BKN250 23/19 A3020 RMK SC6CI1 SLP226
CYHZ;2004-09-08 18:00;METAR CYHZ 081800Z 22012KT 15SM SCT022 BKN120 25/19 A3019 RMK CU3AC2
CYHZ;2004-09-08 19:00;METAR CYHZ 081900Z 21015G20KT 15SM FEW012 BKN022 BKN070 24/19 A3019 RMK CF2SC4AC1 SHWRS W-NW SLP224 SHWRS W-NW SLP224
CYHZ;2004-09-08 20:00;METAR CYHZ 082000Z 23014G19KT 6SM -SHRA BR SCT012 BKN030 OVC050 21/19 A3020 RMK SC3SC3SC2 VIS LWR S-SE SLP228 SC3SC3SC2 VIS LWR S-SE SLP228
CYHZ;2004-09-08 21:00;METAR CYHZ 082100Z 24012G17KT 15SM FEW015 BKN043 OVC070 21/19 A3021 RMK CF2SC5AC2 SLP230 SLP230
CYHZ;2004-09-08 22:00;METAR CYHZ 082200Z 25010KT 15SM -SHRA BKN012 OVC040 20/19 A3024 RMK SC5SC3 SLP239
CYHZ;2004-09-08 23:00;METAR CYHZ 082300Z 28006KT 1 1/2SM -RADZ BR FEW003 BKN007 OVC020 19/19 A3025 RMK SF2SF5SC1 SLP244 SF2SF5SC1 SLP244 RMK SF2SC3SC2 SLP250 SF2SC3SC2 SLP250 FG8 SLP256 SLP256 SF1ST7 SLP258 SLP258 17/17 A3031 RMK SF2ST6 SLP262 A3031 RMK SF2ST6 SLP262 SF6ST2 SLP266 SLP266 SLP265
CYHZ;2004-09-09 07:00;METAR CYHZ 090700Z 07005KT 2SM BR OVC002 16/16 A3032 RMK ST8 SLP268
CYHZ;2004-09-09 08:00;METAR CYHZ 090800Z 08005KT 3SM BR OVC002 16/15 A3033 RMK ST8 SLP271
CYHZ;2004-09-09 09:00;METAR CYHZ 090900Z 10008KT 1 1/2SM BR VV003 15/15 A3034 RMK FG8 SLP273
CYHZ;2004-09-09 10:00;METAR CYHZ 091000Z 07006KT 1 1/2SM BR OVC002 15/15 A3034 RMK FG3ST5 SLP276
CYHZ;2004-09-09 11:00;METAR CYHZ 091100Z 09007KT 8SM BKN004 OVC033 15/15 A3035 RMK SC7SC1 VIS LWR N SLP279 SLP279
CYHZ;2004-09-09 12:00;METAR CYHZ 091200Z 09007KT 10SM BKN004 OVC078 15/15 A3035 RMK SC6AC1 SLP280
CYHZ;2004-09-09 14:00;METAR CYHZ 091400Z 09004KT 10SM BKN003 OVC031 16/16 A3036 RMK SC7SC1 SLP281 SLP272 SF7SC1 CIG RAG SLP270 CIG RAG SLP270 CIG RAG SLP262 RAG SLP262
CYHZ;2004-09-09 19:00;METAR CYHZ 091900Z 12009KT 1SM R15/P6000FT/N BR VV002 18/18 A3029 RMK FG8 SLP257
CYHZ;2004-09-09 20:00;METAR CYHZ 092000Z 13008KT 1/8SM R15/5000FT/N FG VV001 19/18 A3027 RMK FG8 SLP252
CYHZ;2004-09-09 21:00;METAR CYHZ 092100Z 13007KT 1/8SM R15/3000FT/N FG VV001 19/18 A3025 RMK FG8 SLP246
CYHZ;2004-09-09 22:00;METAR CYHZ 092200Z 15010G15KT 3SM BR OVC004 19/19 A3024 RMK SF8 CIG RAG SLP241
CYHZ;2004-09-09 23:00;METAR CYHZ 092300Z 16010KT 8SM BKN004 BKN100 19/18 A3022 RMK SF6AC2 CIG RAG SLP233
CYHZ;2004-09-10 00:00;METAR CYHZ 100000Z 16016KT 12SM FEW004 SCT025 BKN160 19/18 A3020 RMK SF2SC2AC4 SLP228 SLP228
CYHZ;2004-09-10 01:00;METAR CYHZ 100100Z 17015G27KT 10SM BKN005 OVC022 19/18 A3017 RMK SF6SC2 SLP219
CYHZ;2004-09-10 02:00;METAR CYHZ 100200Z 17017KT 3SM BR OVC001 20/19 A3016 RMK ST8 SLP214
CYHZ;2004-09-10 04:00;METAR CYHZ 100400Z 19018KT 4SM BR BKN002 OVC005 20/20 A3012 RMK SF6SC2 SLP200
CYHZ;2004-09-10 05:00;METAR CYHZ 100500Z 19016G25KT 10SM BKN006 OVC014 21/20 A3009 RMK SC6SC2 SLP190
CYHZ;2004-09-10 06:00;METAR CYHZ 100600Z 19019G29KT 12SM FEW006 BKN014 OVC035 22/20 A3008 RMK SC1SC6SC2 SLP185 SLP185
CYHZ;2004-09-10 07:00;METAR CYHZ 100700Z 19018G28KT 15SM OVC027 21/19 A3006 RMK SC8 SLP178
CYHZ;2004-09-10 08:00;METAR CYHZ 100800Z 19019G30KT 2SM -SHRA BR OVC005 21/20 A3002 RMK ST8 SLP166
CYHZ;2004-09-10 09:00;METAR CYHZ 100900Z 22023G29KT 2SM -SHRA BR OVC004 20/19 A3001 RMK ST8 SLP163
CYHZ;2004-09-10 11:00;METAR CYHZ 101100Z 21021G32KT 1 1/2SM RA BR OVC002 20/19 A3001 RMK ST8 SLP161 SLP157
CYHZ;2004-09-10 13:00;METAR CYHZ 101300Z 20025G30KT 2SM -SHRA BR OVC003 20/20 A2999 RMK ST8 SLP154
CYHZ;2004-09-10 17:00;METAR CYHZ 101700Z 22028G34KT 1SM R15/P6000FT/N -SHRA BR BKN001 OVC005 21/20 A2988 RMK SF5SC3 CIG VRBL 1-7 SLP119 A2988 RMK SF5SC3 CIG VRBL 1-7 SLP119
CYHZ;2004-09-10 18:00;METAR CYHZ 101800Z 21019G29KT 10SM SCT002 OVC004 20/19 A2987 RMK SF3SF5 SLP114
CYHZ;2004-09-10 19:00;METAR CYHZ 101900Z 20017KT 8SM SCT002 OVC004 20/19 A2986 RMK SF3SF5 SLP110
CYHZ;2004-09-10 20:00;METAR CYHZ 102000Z 20016KT 12SM BKN006 20/18 A2984 RMK SF7 SLP103
CYHZ;2004-09-10 21:00;METAR CYHZ 102100Z 20016KT 6SM BR OVC003 18/18 A2983 RMK SF8 SLP101
CYHZ;2004-09-10 22:00;METAR CYHZ 102200Z 19008KT 1 1/4SM BR OVC002 18/17 A2984 RMK ST8 SLP103
CYHZ;2004-09-10 23:00;METAR CYHZ 102300Z 21010KT 2SM BR BKN002 OVC030 17/16 A2985 RMK SF6SC2 SLP107
CYHZ;2004-09-11 00:00;METAR CYHZ 110000Z 21009KT 10SM FEW002 OVC025 17/16 A2987 RMK SF2SC6 SLP113
CYHZ;2004-09-11 01:00;METAR CYHZ 110100Z 23006KT 10SM SCT020 OVC025 16/16 A2988 RMK SC3SC5 SLP118
CYHZ;2004-09-11 02:00;METAR CYHZ 110200Z 31013KT 1 1/2SM DZ BR BKN003 OVC020 15/15 A2991 RMK FG2SF6SC1 SLP127 SLP127
CYHZ;2004-09-11 04:00;METAR CYHZ 110400Z 35010G16KT 15SM SCT012 OVC037 15/14 A2994 RMK SF3SC5 SLP140
CYHZ;2004-09-11 05:00;METAR CYHZ 110500Z 35012G18KT 15SM BKN009 OVC035 14/13 A2997 RMK SF5SC3 SLP150
CYHZ;2004-09-11 06:00;METAR CYHZ 110600Z 35012KT 15SM BKN012 OVC060 14/13 A2999 RMK SC6SC2 SLP157
CYHZ;2004-09-11 07:00;METAR CYHZ 110700Z 35014KT 15SM BKN010 OVC060 14/13 A3000 RMK SC6SC2 SLP161
CYHZ;2004-09-11 08:00;METAR CYHZ 110800Z 36017KT 15SM BKN011 OVC060 14/13 A3002 RMK SC6SC2 SLP166
CYHZ;2004-09-11 09:00;METAR CYHZ 110900Z 35014KT 15SM BKN012 OVC060 14/12 A3006 RMK SC7SC1 SLP181
CYHZ;2004-09-11 10:00;METAR CYHZ 111000Z 36013G18KT 15SM FEW015 SCT060 13/12 A3008 RMK SF2SC2 SLP188
CYHZ;2004-09-11 11:00;METAR CYHZ 111100Z 35011KT 15SM FEW060 FEW250 13/11 A3011 RMK SC1CI1 SLP197
CYHZ;2004-09-11 12:00;METAR CYHZ 111200Z 36012KT 15SM FEW085 SCT250 15/12 A3015 RMK AC2CI2 SLP210
CYHZ;2004-09-11 13:00;METAR CYHZ 111300Z 02014G20KT 15SM FEW085 BKN250 17/11 A3016 RMK AC1CI2 SLP216
CYHZ;2004-09-11 14:00;METAR CYHZ 111400Z 01014G24KT 15SM FEW080 BKN250 18/10 A3018 RMK AC1CI2 SLP221
CYHZ;2004-09-11 15:00;METAR CYHZ 111500Z 02017G24KT 15SM FEW080 BKN250 19/11 A3018 RMK AC1CI2 SLP220
CYHZ;2004-09-11 16:00;METAR CYHZ 111600Z 02014KT 15SM FEW030 BKN250 20/11 A3019 RMK SC1CI2 SLP224
CYHZ;2004-09-11 17:00;METAR CYHZ 111700Z 03014G19KT 15SM FEW035 BKN250 20/11 A3020 RMK SC1CI2 SLP228
CYHZ;2004-09-11 18:00;METAR CYHZ 111800Z 02014G21KT 15SM FEW035 BKN280 21/11 A3021 RMK CU1CI3 TR CU SLP230 SLP230
CYHZ;2004-09-11 19:00;METAR CYHZ 111900Z 01012G17KT 15SM FEW035 BKN280 21/12 A3021 RMK CU1CI2 SLP231
CYHZ;2004-09-11 20:00;METAR CYHZ 112000Z 01009G17KT 15SM FEW035 FEW280 20/12 A3021 RMK SC1CI1
CYHZ;2004-09-11 21:00;METAR CYHZ 112100Z 04008KT 15SM FEW035 SCT280 20/12 A3022 RMK SC1CI2 SLP233
CYHZ;2004-09-11 22:00;METAR CYHZ 112200Z 04005KT 15SM FEW035 SCT280 18/09 A3023 RMK SC1CI2 SLP238
CYHZ;2004-09-11 23:00;METAR CYHZ 112300Z 03004KT 15SM SCT280 16/09 A3024 RMK CI2 SLP241
CYHZ;2004-09-12 00:00;METAR CYHZ 120000Z 05005KT 15SM FEW280 14/10 A3026 RMK CI1 SLP250
CYHZ;2004-09-12 01:00;METAR CYHZ 120100Z 06005KT 15SM FEW280 13/08 A3026 RMK CI1 SLP250
CYHZ;2004-09-12 02:00;METAR CYHZ 120200Z 07005KT 15SM SKC 13/08 A3027 RMK SLP252
CYHZ;2004-09-12 03:00;METAR CYHZ 120300Z 06004KT 15SM SKC 12/09 A3027 RMK SLP251
CYHZ;2004-09-12 04:00;METAR CYHZ 120400Z 05006KT 15SM SKC 12/08 A3026 RMK SLP249
CYHZ;2004-09-12 05:00;METAR CYHZ 120500Z 05003KT 15SM SKC 11/08 A3025 RMK SLP246
CYHZ;2004-09-12 06:00;METAR CYHZ 120600Z 05002KT 15SM SKC 10/08 A3024 RMK SLP242
CYHZ;2004-09-12 07:00;METAR CYHZ 120700Z 00000KT 15SM FEW270 10/08 A3023 RMK CI0 SLP239
CYHZ;2004-09-12 08:00;METAR CYHZ 120800Z 36002KT 15SM SCT270 10/08 A3022 RMK CI2 SLP236
CYHZ;2004-09-12 09:00;METAR CYHZ 120900Z 00000KT 10SM VCFG BKN250 09/08 A3022 RMK CI2 SLP236
CYHZ;2004-09-12 10:00;METAR CYHZ 121000Z 00000KT 10SM R15/3500VP6000FT/U VCFG BKN250 09/09 A3022 RMK CI2 SLP237 CI2 SLP237
CYHZ;2004-09-12 11:00;METAR CYHZ 121100Z 00000KT 10SM VCFG FEW014 BKN250 10/09 A3022 RMK SC2CI5 SLP237
CYHZ;2004-09-12 12:00;METAR CYHZ 121200Z 34002KT 10SM VCFG BKN014 OVC250 10/10 A3022 RMK SC6CI2 SLP236
CYHZ;2004-09-12 13:00;METAR CYHZ 121300Z 19002KT 15SM VCFG SCT014 BKN200 15/13 A3022 RMK SC2CI4
CYHZ;2004-09-12 14:00;METAR CYHZ 121400Z 32002KT 15SM FEW014 FEW140 OVC250 15/13 A3021 RMK SC2AC1CI5 SLP231 SLP231
CYHZ;2004-09-12 15:00;METAR CYHZ 121500Z 26005KT 15SM FEW014 SCT180 OVC250 17/13 A3020 RMK SC2AC2CI4 SLP228 SLP228
CYHZ;2004-09-12 16:00;METAR CYHZ 121600Z 21004KT 15SM FEW020 FEW160 BKN250 18/12 A3018 RMK SC1AC1CI6 SLP223 SLP223
CYHZ;2004-09-12 17:00;METAR CYHZ 121700Z 26006KT 15SM FEW025 BKN250 19/12 A3016 RMK SC1CI6 SLP217
CYHZ;2004-09-12 18:00;METAR CYHZ 121800Z 26006KT 15SM FEW030 BKN250 19/11 A3013 RMK CU1CI4 SLP206
CYHZ;2004-09-12 19:00;METAR CYHZ 121900Z 20005KT 15SM FEW035 BKN280 20/12 A3011 RMK CU1CI2 SLP196
CYHZ;2004-09-12 20:00;METAR CYHZ 122000Z 20009KT 15SM FEW035 SCT280 20/12 A3010 RMK CU1CI1 SLP195
CYHZ;2004-09-12 21:00;METAR CYHZ 122100Z 22010KT 15SM FEW035 FEW280 20/13 A3009 RMK SC1CI1 SLP191
CYHZ;2004-09-12 22:00;METAR CYHZ 122200Z 20011KT 15SM FEW030 FEW280 18/14 A3008 RMK SC1CI1 SLP187
CYHZ;2004-09-12 23:00;METAR CYHZ 122300Z 21010KT 15SM FEW030 FEW280 16/13 A3007 RMK SC1CI1 SLP185
CYHZ;2004-09-13 00:00;METAR CYHZ 130000Z 21012KT 15SM SKC 15/13 A3008 RMK SLP187
CYHZ;2004-09-13 01:00;METAR CYHZ 130100Z 22008KT 15SM SKC 14/13 A3008 RMK SLP187
CYHZ;2004-09-13 02:00;METAR CYHZ 130200Z 22007KT 15SM SKC 13/13 A3008 RMK SLP186
CYHZ;2004-09-13 03:00;METAR CYHZ 130300Z 22006KT 15SM SKC 13/12 A3006 RMK SLP182
CYHZ;2004-09-13 04:00;METAR CYHZ 130400Z 23006KT 15SM SKC 12/11 A3006 RMK SLP181
CYHZ;2004-09-13 05:00;METAR CYHZ 130500Z 24009KT 15SM SKC 13/09 A3006 RMK SLP180
CYHZ;2004-09-13 06:00;METAR CYHZ 130600Z 23008KT 15SM SKC 13/09 A3004 RMK SLP173
CYHZ;2004-09-13 07:00;METAR CYHZ 130700Z 24009KT 15SM FEW260 12/09 A3003 RMK CI0 SLP171
CYHZ;2004-09-13 08:00;METAR CYHZ 130800Z 23006KT 15SM FEW260 11/09 A3003 RMK CI0 SLP171
CYHZ;2004-09-13 09:00;METAR CYHZ 130900Z 21006KT 15SM FEW090 BKN260 11/09 A3001 RMK AC1CI2 SLP163
CYHZ;2004-09-13 10:00;METAR CYHZ 131000Z 26005KT 15SM BKN120 12/09 A3003 RMK AC5 SLP169
CYHZ;2004-09-13 11:00;METAR CYHZ 131100Z 28004KT 15SM BKN120 BKN290 13/10 A3004 RMK AC5CI1 SLP173
CYHZ;2004-09-13 12:00;METAR CYHZ 131200Z 31008KT 15SM BKN120 BKN290 13/11 A3004 RMK AC5CI1 SLP175
CYHZ;2004-09-13 13:00;METAR CYHZ 131300Z 32011KT 15SM BKN013 BKN120 BKN290 15/12 A3005 RMK SC4AC1CI1 SLP177 SLP177
CYHZ;2004-09-13 14:00;METAR CYHZ 131400Z 32010G15KT 15SM BKN020 BKN120 17/12 A3004 RMK SC5AC2
CYHZ;2004-09-13 15:00;METAR CYHZ 131500Z 30014G19KT 15SM BKN030 BKN290 17/12 A3003 RMK CU5CI1 SLP170
CYHZ;2004-09-13 16:00;METAR CYHZ 131600Z 27015G22KT 15SM FEW020 BKN300 19/09 A3003 RMK SC2CI2 SLP169
CYHZ;2004-09-13 18:00;METAR CYHZ 131800Z 31014KT 15SM FEW030 SCT300 18/07 A3002 RMK SC1CI1 SLP168
CYHZ;2004-09-13 19:00;METAR CYHZ 131900Z 31013G18KT 20SM FEW030 FEW300 17/07 A3003 RMK SC1CI1 SLP171
CYHZ;2004-09-13 20:00;METAR CYHZ 132000Z 31015G21KT 20SM BKN040 BKN300 16/07 A3005 RMK SC5CI1 SLP178
CYHZ;2004-09-13 21:00;METAR CYHZ 132100Z 34012G17KT 20SM BKN045 BKN300 15/06 A3009 RMK SC5CI1 SLP190
CYHZ;2004-09-13 22:00;METAR CYHZ 132200Z 36014G20KT 15SM FEW045 FEW300 13/06 A3012 RMK SC1CI1 SLP201
CYHZ;2004-09-13 23:00;METAR CYHZ 132300Z 35010G17KT 15SM FEW045 11/05 A3015 RMK SC2 SLP212
CYHZ;2004-09-14 00:00;METAR CYHZ 140000Z 34009KT 15SM FEW045 10/05 A3018 RMK SC2 SLP221
CYHZ;2004-09-14 01:00;METAR CYHZ 140100Z 34008KT 15SM BKN040 10/06 A3019 RMK SC6 SLP226
CYHZ;2004-09-14 02:00;METAR CYHZ 140200Z 32008KT 15SM BKN037 10/06 A3021 RMK SC7 SLP231
CYHZ;2004-09-14 03:00;METAR CYHZ 140300Z 33008KT 15SM BKN038 10/06 A3021 RMK SC7 SLP232
CYHZ;2004-09-14 04:00;METAR CYHZ 140400Z 33007KT 15SM BKN040 10/06 A3022 RMK SC7 SLP235
CYHZ;2004-09-14 05:00;METAR CYHZ 140500Z 33009KT 15SM BKN040 10/06 A3023 RMK SC6 SLP238
CYHZ;2004-09-14 06:00;METAR CYHZ 140600Z 33008KT 15SM BKN037 09/05 A3023 RMK SC5 SLP238
CYHZ;2004-09-14 07:00;METAR CYHZ 140700Z 33007KT 15SM SCT040 08/05 A3024 RMK SC3 SLP242
CYHZ;2004-09-14 08:00;METAR CYHZ 140800Z 33007KT 15SM FEW040 08/05 A3025 RMK SC2 SLP247
CYHZ;2004-09-14 09:00;METAR CYHZ 140900Z 33005KT 15SM SCT040 07/05 A3027 RMK SC3 SLP253
CYHZ;2004-09-14 10:00;METAR CYHZ 141000Z 34006KT 15SM FEW040 FEW080 07/04 A3030 RMK SC1AC1 SLP264
CYHZ;2004-09-14 11:00;METAR CYHZ 141100Z 34009KT 15SM BKN037 09/06 A3032 RMK SC5 SLP271
CYHZ;2004-09-14 12:00;METAR CYHZ 141200Z 34006KT 15SM BKN035 10/07 A3034 RMK SC6 SLP278
CYHZ;2004-09-14 13:00;METAR CYHZ 141300Z 01011G16KT 15SM FEW030 12/05 A3035 RMK CU2 SLP282
CYHZ;2004-09-14 14:00;METAR CYHZ 141400Z 05010G18KT 15SM FEW030 13/05 A3037 RMK CU2 SLP287
CYHZ;2004-09-14 15:00;METAR CYHZ 141500Z 03008G16KT 15SM FEW035 14/06 A3037 RMK CU1 SLP286
CYHZ;2004-09-14 16:00;METAR CYHZ 141600Z 36007KT 15SM FEW035 14/06 A3036 RMK CU1 SLP283
CYHZ;2004-09-14 17:00;METAR CYHZ 141700Z 02004KT 15SM FEW040 15/05 A3035 RMK CF1 SLP280
CYHZ;2004-09-14 18:00;METAR CYHZ 141800Z 02005KT 15SM FEW040 FEW280 16/05 A3034 RMK SC1CI1 SLP278
CYHZ;2004-09-14 19:00;METAR CYHZ 141900Z 01010KT 15SM FEW040 SCT280 16/06 A3035 RMK SC1CI1 SLP279
CYHZ;2004-09-14 20:00;METAR CYHZ 142000Z 35006KT 15SM FEW040 FEW280 16/06 A3034 RMK SC1CI1
CYHZ;2004-09-14 21:00;METAR CYHZ 142100Z 33005KT 15SM FEW280 16/07 A3035 RMK CI1 SLP279
CYHZ;2004-09-14 22:00;METAR CYHZ 142200Z 35003KT 15SM FEW280 15/06 A3034 RMK CI1 SLP278
CYHZ;2004-09-14 23:00;METAR CYHZ 142300Z 00000KT 15SM FEW280 14/07 A3035 RMK CI1 SLP281
CYHZ;2004-09-15 00:00;METAR CYHZ 150000Z 28004KT 15SM FEW280 12/08 A3037 RMK CI1 SLP288
CYHZ;2004-09-15 01:00;METAR CYHZ 150100Z 22008KT 15SM SKC 11/08 A3037 RMK SLP288
CYHZ;2004-09-15 02:00;METAR CYHZ 150200Z 22004KT 15SM SKC 10/08 A3037 RMK SLP288
CYHZ;2004-09-15 03:00;METAR CYHZ 150300Z 22007KT 15SM SKC 10/08 A3037 RMK SLP285
CYHZ;2004-09-15 04:00;METAR CYHZ 150400Z 21007KT 15SM SKC 09/08 A3036 RMK SLP282
CYHZ;2004-09-15 05:00;METAR CYHZ 150500Z 21008KT 15SM SKC 09/07 A3035 RMK SLP280
CYHZ;2004-09-15 06:00;METAR CYHZ 150600Z 21005KT 15SM SKC 08/07 A3034 RMK SLP278
CYHZ;2004-09-15 07:00;METAR CYHZ 150700Z 22007KT 15SM SKC 08/07 A3034 RMK SLP277
CYHZ;2004-09-15 08:00;METAR CYHZ 150800Z 21007KT 15SM SKC 08/06 A3034 RMK SLP275
CYHZ;2004-09-15 09:00;METAR CYHZ 150900Z 23006KT 15SM SKC 08/05 A3034 RMK SLP277
CYHZ;2004-09-15 10:00;METAR CYHZ 151000Z 24007KT 20SM SKC 08/04 A3034 RMK SLP278
CYHZ;2004-09-15 11:00;METAR CYHZ 151100Z 25005KT 20SM SKC 09/04 A3035 RMK SLP281
CYHZ;2004-09-15 12:00;METAR CYHZ 151200Z 24009KT 20SM SKC 12/04 A3034 RMK SLP278
CYHZ;2004-09-15 13:00;METAR CYHZ 151300Z 25009KT 20SM SKC 14/06 A3034 RMK SLP276
CYHZ;2004-09-15 14:00;METAR CYHZ 151400Z 22007KT 20SM FEW280 16/05 A3033 RMK CI0 SLP272
CYHZ;2004-09-15 15:00;METAR CYHZ 151500Z 23007KT 20SM FEW280 18/06 A3033 RMK CI0 SLP272
CYHZ;2004-09-15 16:00;METAR CYHZ 151600Z 24008KT 20SM FEW280 19/07 A3031 RMK CI0 SLP265
CYHZ;2004-09-15 17:00;METAR CYHZ 151700Z 28003KT 20SM FEW280 21/08 A3029 RMK CI0 SLP259
CYHZ;2004-09-15 18:00;METAR CYHZ 151800Z 21009KT 20SM FEW280 21/09 A3026 RMK CI0 SLP250
CYHZ;2004-09-15 19:00;METAR CYHZ 151900Z 22010G17KT 20SM FEW280 21/09 A3025 RMK CI0 SLP244
CYHZ;2004-09-15 20:00;METAR CYHZ 152000Z 21013KT 20SM FEW280 20/10 A3023 RMK CI1 SLP239
CYHZ;2004-09-15 21:00;METAR CYHZ 152100Z 21013KT 20SM SCT280 18/10 A3022 RMK CI1 SLP236
CYHZ;2004-09-15 22:00;METAR CYHZ 152200Z 20010KT 20SM SCT280 15/10 A3023 RMK CI1 SLP240
CYHZ;2004-09-15 23:00;METAR CYHZ 152300Z 19011KT 20SM FEW250 14/11 A3023 RMK CI0 SLP240
CYHZ;2004-09-16 00:00;METAR CYHZ 160000Z 20010KT 20SM FEW250 13/11 A3024 RMK CI0 SLP243
CYHZ;2004-09-16 01:00;METAR CYHZ 160100Z 22010KT 20SM FEW250 13/11 A3024 RMK CI0 SLP242
CYHZ;2004-09-16 02:00;METAR CYHZ 160200Z 21009KT 15SM SKC 12/11 A3024 RMK SLP241
CYHZ;2004-09-16 03:00;METAR CYHZ 160300Z 21006KT 15SM SKC 11/10 A3023 RMK SLP238
CYHZ;2004-09-16 04:00;METAR CYHZ 160400Z 23007KT 15SM SKC 11/09 A3021 RMK SLP233
CYHZ;2004-09-16 05:00;METAR CYHZ 160500Z 23008KT 12SM SKC 10/09 A3020 RMK SLP229
CYHZ;2004-09-16 06:00;METAR CYHZ 160600Z 23012G17KT 6SM BR BKN002 10/09 A3019 RMK SF5 VIS LWR S SLP223
CYHZ;2004-09-16 07:00;METAR CYHZ 160700Z 23011KT 8SM BKN003 09/09 A3018 RMK SF3 SLP220
CYHZ;2004-09-16 08:00;METAR CYHZ 160800Z 24008KT 8SM BKN005 10/10 A3018 RMK SF6 SLP221
CYHZ;2004-09-16 09:00;METAR CYHZ 160900Z 25009KT 8SM BKN006 12/11 A3017 RMK SF6 SLP218
CYHZ;2004-09-16 10:00;METAR CYHZ 161000Z 25008KT 15SM OVC005 13/12 A3017 RMK SF8 SLP218
CYHZ;2004-09-16 11:00;METAR CYHZ 161100Z 23010KT 15SM FEW006 SCT120 BKN220 13/12 A3016 RMK SF2AC1CI1 SLP216 SLP216
CYHZ;2004-09-16 12:00;METAR CYHZ 161200Z 23009KT 15SM BKN007 BKN120 BKN220 15/13 A3017 RMK SF3AC2CI1 SLP217 SLP217
CYHZ;2004-09-16 13:00;METAR CYHZ 161300Z 24009KT 15SM FEW008 FEW140 BKN220 16/14 A3016 RMK CF1AC1CC3 SLP216
CYHZ;2004-09-16 14:00;METAR CYHZ 161400Z 23010G16KT 15SM FEW010 FEW150 BKN210 19/14 A3016 RMK CF1AC1CC3 SLP214 SLP214
CYHZ;2004-09-16 15:00;METAR CYHZ 161500Z 25014G19KT 15SM FEW015 FEW150 BKN220 21/12 A3015 RMK CU1AC1CI2 CC ASOCTD SLP212 CC ASOCTD SLP212
CYHZ;2004-09-16 16:00;METAR CYHZ 161600Z 25014G19KT 15SM FEW020 BKN220 22/11 A3013 RMK CU1CI2 SLP206
CYHZ;2004-09-16 17:00;METAR CYHZ 161700Z 22010G15KT 15SM FEW020 BKN220 21/14 A3011 RMK CU1CI2 SLP198
CYHZ;2004-09-16 18:00;METAR CYHZ 161800Z 23012G17KT 20SM FEW030 FEW150 BKN220 23/15 A3009 RMK CU1AC2CI1 SLP190 SLP190
CYHZ;2004-09-16 19:00;METAR CYHZ 161900Z 22013KT 20SM FEW030 FEW180 BKN230 21/16 A3008 RMK CU1AC2CI1 SLP187 SLP187
CYHZ;2004-09-16 20:00;METAR CYHZ 162000Z 22014G20KT 20SM FEW028 SCT180 BKN230 21/16 A3008 RMK CU2AC2CI0 SLP187
CYHZ;2004-09-16 21:00;METAR CYHZ 162100Z 23015G20KT 20SM BKN020 20/16 A3007 RMK SC7 SLP184
CYHZ;2004-09-16 22:00;METAR CYHZ 162200Z 22012G17KT 15SM BKN018 BKN029 19/16 A3007 RMK SC5SC2 SLP183
CYHZ;2004-09-16 23:00;METAR CYHZ 162300Z 21011KT 15SM BKN010 18/16 A3007 RMK SC7 SLP182
CYHZ;2004-09-17 00:00;METAR CYHZ 170000Z 21013G20KT 15SM BKN010 OVC018 18/17 A3007 RMK SC6SC2 SLP182
CYHZ;2004-09-17 01:00;METAR CYHZ 170100Z 21013KT 15SM SCT010 OVC038 17/16 A3007 RMK SF4SC4
CYHZ;2004-09-17 02:00;METAR CYHZ 170200Z 21015KT 10SM BKN005 BKN040 17/16 A3006 RMK SF6SC2 SLP180
CYHZ;2004-09-17 03:00;METAR CYHZ 170300Z 22015KT 8SM BKN005 OVC040 17/16 A3005 RMK SF6SC2 SLP175
CYHZ;2004-09-17 04:00;METAR CYHZ 170400Z 21012KT 10SM OVC005 17/16 A3005 RMK ST8 SLP174
CYHZ;2004-09-17 05:00;METAR CYHZ 170500Z 20012KT 1 1/2SM BR OVC002 17/17 A3004 RMK FG3SF5 SLP172
CYHZ;2004-09-17 06:00;METAR CYHZ 170600Z 20011KT 1/2SM R15/P6000FT/D R24/3000FT FG VV001 17/17 A3003 RMK FG8 RVR 24 ONE MINUTE MEAN SLP169 RMK FG8 RVR 24 ONE MINUTE MEAN SLP169 17/17 A3002 RMK FG8 RVR 24 ONE MINUTE MEAN SLP166 A3002 RMK FG8 RVR 24 ONE MINUTE MEAN SLP166
CYHZ;2004-09-17 08:00;METAR CYHZ 170800Z 19008KT 3SM BR BKN002 OVC013 17/17 A3002 RMK FG2SF3SC2 SLP165
CYHZ;2004-09-17 09:00;METAR CYHZ 170900Z 18007KT 3SM BR SCT002 BKN013 OVC030 17/17 A3002 RMK FG1SF2SC3SC2 SLP164
CYHZ;2004-09-17 10:00;METAR CYHZ 171000Z 17007KT 2SM BR VV002 17/17 A3001 RMK FG8 SLP162
CYHZ;2004-09-17 11:00;METAR CYHZ 171100Z 17010KT 1 1/4SM BR VV002 17/17 A3000 RMK FG8 VIS LWR E-SW RVR R24 P6000 SLP160 R24 P6000 SLP160 FG8 RVR 24 P6000 1 MIN MEAN SLP160 RVR 24 P6000 1 MIN MEAN SLP160
CYHZ;2004-09-17 13:00;METAR CYHZ 171300Z 17007KT 3/8SM R15/2200FT/D R24/2000FT/D FG VV001 18/18 A3000 RMK FG8 RVR24 1 MIN MEAN SLP159 RMK FG8 RVR24 1 MIN MEAN SLP159
CYHZ;2004-09-17 14:00;METAR CYHZ 171400Z 18011KT 1/2SM R15/4000VP6000FT/U R24/3500FT FG VV001 19/19 A2998 RMK FG8 SLP153 A2998 RMK FG8 SLP153
CYHZ;2004-09-17 15:00;METAR CYHZ 171500Z 19010KT 1 1/4SM BR VV002 19/19 A2996 RMK FG8 SLP146
CYHZ;2004-09-17 16:00;METAR CYHZ 171600Z 18008KT 2SM BR VV002 20/19 A2996 RMK FG8 VIS W-N 8NM SLP144
CYHZ;2004-09-17 17:00;METAR CYHZ 171700Z 17008KT 10SM OVC003 20/19 A2993 RMK SF8 SLP136
CYHZ;2004-09-17 18:00;METAR CYHZ 171800Z 18010G16KT 12SM SCT005 BKN011 21/19 A2992 RMK SF3SC4 SLP133
CYHZ;2004-09-17 19:00;METAR CYHZ 171900Z 21012KT 12SM BKN005 OVC011 19/18 A2992 RMK SF7SC1 SLP131
CYHZ;2004-09-17 20:00;METAR CYHZ 172000Z 21012KT 15SM OVC006 19/17 A2992 RMK SF8 SLP131
CYHZ;2004-09-17 21:00;METAR CYHZ 172100Z 20012KT 10SM OVC006 18/17 A2991 RMK SF8 SLP129
CYHZ;2004-09-17 22:00;METAR CYHZ 172200Z 21010KT 8SM OVC003 18/17 A2991 RMK SF8 SLP130
CYHZ;2004-09-17 23:00;METAR CYHZ 172300Z 19010KT 4SM BR OVC002 17/17 A2992 RMK SF8 SLP131
CYHZ;2004-09-18 00:00;METAR CYHZ 180000Z 20008KT 12SM OVC003 17/16 A2993 RMK SF8 SLP135
CYHZ;2004-09-18 01:00;METAR CYHZ 180100Z 21011KT 12SM SCT003 BKN220 17/17 A2993 RMK SF3CI2 SLP136
CYHZ;2004-09-18 03:00;METAR CYHZ 180300Z 21012KT 3SM BR OVC002 17/16 A2993 RMK FG2SF6 VIS LWR S SLP134
CYHZ;2004-09-18 04:00;METAR CYHZ 180400Z 22008KT 2SM BR OVC002 17/17 A2993 RMK FG2SF6 SLP134
CYHZ;2004-09-18 05:00;METAR CYHZ 180500Z 21011KT 1SM R15/P6000FT/N BR OVC002 17/17 A2993 RMK FG5SF3 SLP135 SLP135
CYHZ;2004-09-18 06:00;METAR CYHZ 180600Z 20007KT 3/8SM R15/3000FT/N R24/1800FT FG VV001 15/15 A2993 RMK FG8 RVR 24 ONE MINUTE MEAN SLP137 FG8 RVR 24 ONE MINUTE MEAN SLP137
CYHZ;2004-09-18 07:00;METAR CYHZ 180700Z 20007KT 3/8SM R15/2800FT/N R24/2000FT FG VV001 15/15 A2992 RMK FG8 RVR 24 ONE MINUTE MEAN SLP133 FG8 RVR 24 ONE MINUTE MEAN SLP133
CYHZ;2004-09-18 08:00;METAR CYHZ 180800Z 21003KT 1/2SM R15/4000FT/N R24/2200FT FG VV001 15/15 A2993 RMK FG8 RVR 24 ONE MINUTE MEAN SLP134 FG8 RVR 24 ONE MINUTE MEAN SLP134
CYHZ;2004-09-18 09:00;METAR CYHZ 180900Z 19005KT 1/2SM R15/3500VP6000FT/N R24/2000FT FG VV001 15/15 A2992 RMK FG8 RVR 24 ONE MINUTE MEAN SLP131 A2992 RMK FG8 RVR 24 ONE MINUTE MEAN SLP131
CYHZ;2004-09-18 10:00;METAR CYHZ 181000Z 16004KT 1/4SM R15/P6000FT/D FG VV001 16/16 A2993 RMK FG8 RVR RWY24 1600V2800FT 1 MINUTE MEAN SLP134 RWY24 1600V2800FT 1 MINUTE MEAN SLP134
CYHZ;2004-09-18 11:00;METAR CYHZ 181100Z 18004KT 3/8SM R15/4000VP6000FT/U R24/1800V2000FT/N FG VV001 16/16 A2993 RMK FG8 RVR RWY24 1 MINUTE MEAN SLP136 16/16 A2993 RMK FG8 RVR RWY24 1 MINUTE MEAN SLP136
CYHZ;2004-09-18 12:00;METAR CYHZ 181200Z 18003KT 1/4SM R15/2400FT/N R24/1400V1600FT/D FG VV001 A2993 RMK FG8 RVR RWY24 1 MINUTE MEAN SLP136
CYHZ;2004-09-18 13:00;METAR CYHZ 181300Z 22002KT 1/4SM R15/4000VP6000FT/D R24/2800VP6000FT/U -DZ FG VV001 16/16 A2994 RMK FG8 RVR RWY24 1 MINUTE MEAN SLP138 VV001 16/16 A2994 RMK FG8 RVR RWY24 1 MINUTE MEAN SLP138 VV001 16/16 A2994 RMK FG8 RVR RWY24 1 MINUTE MEAN SLP140 16/16 A2994 RMK FG8 RVR RWY24 1 MINUTE MEAN SLP140 VV001 16/16 A2993 RMK FG8 RVR RWY24 1 MINUTE MEAN SLP137 16/16 A2993 RMK FG8 RVR RWY24 1 MINUTE MEAN SLP137 17/17 A2992 RMK FG8 RVR RWY24 1 MINUTE MEAN SLP133 A2992 RMK FG8 RVR RWY24 1 MINUTE MEAN SLP133
CYHZ;2004-09-18 17:00;METAR CYHZ 181700Z 01009KT 1/4SM R15/P6000FT/N R24/2800V5500FT FG VV001 15/15 A2991 RMK FG8 RVR RWY24 1 MINUTE MEAN SLP130 A2991 RMK FG8 RVR RWY24 1 MINUTE MEAN SLP130
CYHZ;2004-09-18 18:00;METAR CYHZ 181800Z 02009KT 1/2SM R15/P6000FT/U FG VV001 15/15 A2990 RMK FG8 SLP128
CYHZ;2004-09-18 19:00;METAR CYHZ 181900Z 06008KT 1SM R15/P6000FT/U -SHRA BR VV001 15/15 A2987 RMK FG8 SLP118 SLP118
CYHZ;2004-09-18 20:00;METAR CYHZ 182000Z 05006KT 1 1/2SM -SHRA BR VV001 15/15 A2985 RMK FG8 SLP110
CYHZ;2004-09-18 21:00;METAR CYHZ 182100Z 04007KT 1 1/2SM -SHRA BR VV001 15/15 A2980 RMK FG8 SLP092
CYHZ;2004-09-18 22:00;METAR CYHZ 182200Z 36012G24KT 1 1/2SM -SHRA BR OVC002 13/13 A2984 RMK SF8 RERA SLP105 SLP105
CYHZ;2004-09-18 23:00;METAR CYHZ 182300Z 02016KT 3SM -SHRA BR OVC004 12/12 A2982 RMK SF8 SLP100
CYHZ;2004-09-19 00:00;METAR CYHZ 190000Z 33014G24KT 2SM SHRA BR OVC003 11/11 A2988 RMK SF8 SLP120
CYHZ;2004-09-19 01:00;METAR CYHZ 190100Z 02016G26KT 2SM SHRA BR BKN003 OVC040 11/11 A2984 RMK SF6SC2 SLP107 SLP107
CYHZ;2004-09-19 02:00;METAR CYHZ 190200Z 35012KT 12SM -RA OVC003 11/11 A2983 RMK SF8 CIG VRB 2-4 SLP102
CYHZ;2004-09-19 03:00;METAR CYHZ 190300Z 35014G21KT 15SM -RA OVC005 11/10 A2984 RMK SF8 CIG VRB 3-7 SLP107
CYHZ;2004-09-19 04:00;METAR CYHZ 190400Z 35014G20KT 15SM OVC005 10/10 A2984 RMK SF8 CIG VRB 3-7
CYHZ;2004-09-19 05:00;METAR CYHZ 190500Z 35013G19KT 15SM OVC005 10/10 A2983 RMK SF8 CIG VRB 3-7 SLP103
CYHZ;2004-09-19 06:00;METAR CYHZ 190600Z 34009KT 15SM OVC005 10/10 A2984 RMK SF8 SLP107
CYHZ;2004-09-19 07:00;METAR CYHZ 190700Z 34011KT 15SM OVC003 10/10 A2984 RMK SF8 CIG VRB 2-4 SLP106
CYHZ;2004-09-19 08:00;METAR CYHZ 190800Z 35012KT 2SM BR OVC001 10/10 A2982 RMK FG2ST6 SLP100
CYHZ;2004-09-19 09:00;METAR CYHZ 190900Z 36010G17KT 12SM OVC005 10/10 A2983 RMK SF8 CIG VRB 3-7 SLP104
CYHZ;2004-09-19 09:24;SPECI CYHZ 190924Z 01008G16KT 10SM SCT005 OVC010 RMK SF3SC5
CYHZ;2004-09-19 10:00;METAR CYHZ 191000Z 36011KT 10SM OVC010 10/10 A2985 RMK SC8 SLP110
CYHZ;2004-09-19 11:00;METAR CYHZ 191100Z 36011KT 10SM OVC007 10/10 A2985 RMK SC8 SLP109
CYHZ;2004-09-19 12:00;METAR CYHZ 191200Z 35013KT 10SM OVC007 10/10 A2986 RMK SC8 SLP115
CYHZ;2004-09-19 13:00;METAR CYHZ 191300Z 36012KT 10SM OVC009 11/10 A2987 RMK SC8 SLP118
CYHZ;2004-09-19 15:00;METAR CYHZ 191500Z 36012G19KT 10SM OVC012 11/10 A2985 RMK SC8 SLP112
CYHZ;2004-09-19 16:00;METAR CYHZ 191600Z 36013G22KT 10SM OVC010 11/10 A2986 RMK SC8 SLP114
CYHZ;2004-09-19 17:00;METAR CYHZ 191700Z 36012KT 10SM OVC010 12/11 A2985 RMK SC8 SLP112 SF4SC4 VSBY NE 2 SLP121 VSBY NE 2 SLP121
CYHZ;2004-09-19 19:00;METAR CYHZ 191900Z 36017G25KT 10SM SCT008 OVC015 13/12 A2984 RMK SF3SC5
CYHZ;2004-09-19 20:00;METAR CYHZ 192000Z 36020G25KT 10SM -RA FEW008 OVC015 13/10 A2985 RMK SF2SC6 SLP110
CYHZ;2004-09-19 21:00;METAR CYHZ 192100Z 36017G26KT 15SM FEW015 BKN025 12/10 A2985 RMK SC2SC5 SLP111 VSBY E-NE 2 SLP116 E-NE 2 SLP116
CYHZ;2004-09-19 23:00;METAR CYHZ 192300Z 35018G28KT 3SM -RA BR BKN007 OVC012 10/10 A2988 RMK SF6SC2 SLP122 SLP122 SF6SC2 SLP126 SLP126
CYHZ;2004-09-20 01:00;METAR CYHZ 200100Z 35019G27KT 10SM FEW007 BKN012 OVC020 10/09 A2989 RMK SF2SC4SC2 SLP125 SLP125
CYHZ;2004-09-20 02:00;METAR CYHZ 200200Z 36022G30KT 20SM OVC015 10/08 A2990 RMK SC7 SLP127
CYHZ;2004-09-20 03:00;METAR CYHZ 200300Z 35020G27KT 20SM OVC015 09/08 A2990 RMK SC7 SLP128
CYHZ;2004-09-20 04:00;METAR CYHZ 200400Z 35021G31KT 20SM BKN015 09/07 A2989 RMK SC7 SLP124
CYHZ;2004-09-20 05:00;METAR CYHZ 200500Z 35022G31KT 20SM BKN015 09/07 A2990 RMK SC7 SLP126
CYHZ;2004-09-20 06:00;METAR CYHZ 200600Z 35020G31KT 15SM OVC015 09/07 A2988 RMK SC7 SLP122
CYHZ;2004-09-20 07:00;METAR CYHZ 200700Z 36024G34KT 20SM BKN015 BKN045 09/06 A2988 RMK SC6SC1 SLP120
CYHZ;2004-09-20 08:00;METAR CYHZ 200800Z 35017G27KT 15SM OVC015 09/06 A2988 RMK SC8 SLP121
CYHZ;2004-09-20 09:00;METAR CYHZ 200900Z 34015G29KT 15SM OVC017 09/06 A2989 RMK SC8 SLP123
CYHZ;2004-09-20 10:00;METAR CYHZ 201000Z 34017G31KT 12SM OVC017 09/06 A2991 RMK SC8 SLP130
CYHZ;2004-09-20 11:00;METAR CYHZ 201100Z 35021G28KT 15SM OVC020 09/06 A2993 RMK SC8 SLP137
CYHZ;2004-09-20 12:00;METAR CYHZ 201200Z 35021G30KT 15SM SCT020 BKN250 10/06 A2995 RMK SC4CI2 SLP146
CYHZ;2004-09-20 13:00;METAR CYHZ 201300Z 32019G25KT 15SM BKN020 BKN250 10/06 A2996 RMK SC6CI1 SLP148
CYHZ;2004-09-20 14:00;METAR CYHZ 201400Z 34022G29KT 15SM SCT028 BKN250 11/05 A2996 RMK SC4CI2 SLP149
CYHZ;2004-09-20 15:00;METAR CYHZ 201500Z 34021G33KT 15SM FEW030 BKN250 11/03 A2996 RMK SC2CI2
CYHZ;2004-09-20 16:00;METAR CYHZ 201600Z 35022G33KT 15SM FEW030 SCT250 13/04 A2994 RMK SC2CI2 SLP143
CYHZ;2004-09-20 17:00;METAR CYHZ 201700Z 34022G30KT 15SM FEW035 FEW250 13/03 A2993 RMK SC1CI1 SLP137
CYHZ;2004-09-20 18:00;METAR CYHZ 201800Z 34023G33KT 15SM FEW030 FEW250 14/02 A2991 RMK CF1CI1 SLP132
CYHZ;2004-09-20 19:00;METAR CYHZ 201900Z 34025G33KT 15SM FEW030 FEW250 13/01 A2993 RMK CF1CI1 SLP136
CYHZ;2004-09-20 20:00;METAR CYHZ 202000Z 35022G34KT 15SM FEW030 FEW250 13/01 A2993 RMK CF1CI1 SLP139
CYHZ;2004-09-20 21:00;METAR CYHZ 202100Z 34020G31KT 15SM FEW030 FEW220 12/M00 A2993 RMK CF1CI1
CYHZ;2004-09-20 22:00;METAR CYHZ 202200Z 34017G25KT 15SM FEW220 11/M00 A2995 RMK CI1 SLP145
CYHZ;2004-09-20 23:00;METAR CYHZ 202300Z 34010KT 15SM FEW210 09/M01 A2997 RMK CI1 SLP150
CYHZ;2004-09-21 00:00;METAR CYHZ 210000Z 34008KT 15SM FEW210 08/02 A2998 RMK CI1 SLP155
CYHZ;2004-09-21 01:00;METAR CYHZ 210100Z 34007KT 15SM SKC 07/03 A2999 RMK SLP158
CYHZ;2004-09-21 02:00;METAR CYHZ 210200Z 31006KT 15SM SKC 07/03 A2999 RMK SLP158
CYHZ;2004-09-21 03:00;METAR CYHZ 210300Z 31010KT 15SM SKC 07/03 A2998 RMK SLP154
CYHZ;2004-09-21 04:00;METAR CYHZ 210400Z 32010KT 15SM SKC 08/03 A2997 RMK SLP152
CYHZ;2004-09-21 05:00;METAR CYHZ 210500Z 29005KT 15SM SKC 07/03 A2996 RMK SLP150
CYHZ;2004-09-21 06:00;METAR CYHZ 210600Z 31008KT 15SM SKC 08/04 A2996 RMK SLP146
CYHZ;2004-09-21 07:00;METAR CYHZ 210700Z 31009KT 20SM SKC 08/05 A2994 RMK SLP141
CYHZ;2004-09-21 08:00;METAR CYHZ 210800Z 31010KT 20SM SKC 08/05 A2995 RMK SLP143
CYHZ;2004-09-21 09:00;METAR CYHZ 210900Z 32012KT 20SM SKC 07/05 A2995 RMK SLP145
CYHZ;2004-09-21 10:00;METAR CYHZ 211000Z 34014KT 15SM FEW040 FEW250 07/06 A2996 RMK SC1CI1 SLP148
CYHZ;2004-09-21 11:00;METAR CYHZ 211100Z 33014KT 15SM FEW040 08/06 A2998 RMK SC1 SLP154
CYHZ;2004-09-21 12:00;METAR CYHZ 211200Z 34016KT 15SM FEW040 10/06 A2999 RMK SC1 SLP157
CYHZ;2004-09-21 13:00;METAR CYHZ 211300Z 34019G25KT 15SM BKN042 11/06 A3001 RMK SC7 SLP164
CYHZ;2004-09-21 14:00;METAR CYHZ 211400Z 36018G27KT 15SM BKN044 11/04 A3002 RMK SC7 SLP168
CYHZ;2004-09-21 15:00;METAR CYHZ 211500Z 35020G30KT 15SM BKN042 11/04 A3000 RMK SC6 SLP162
CYHZ;2004-09-21 16:00;METAR CYHZ 211600Z 36020G28KT 15SM BKN043 13/03 A3000 RMK SC5 SLP161
CYHZ;2004-09-21 17:00;METAR CYHZ 211700Z 35020G28KT 15SM SCT042 12/04 A2999 RMK SC3 SLP159
CYHZ;2004-09-21 18:00;METAR CYHZ 211800Z 35017G30KT 15SM SCT040 12/03 A2999 RMK SC4 SLP160
CYHZ;2004-09-21 19:00;METAR CYHZ 211900Z 36022G31KT 15SM SCT039 11/03 A3000 RMK SC4 SLP162
CYHZ;2004-09-21 20:00;METAR CYHZ 212000Z 35023G30KT 15SM SCT035 11/03 A3002 RMK SC3 SLP167
CYHZ;2004-09-21 21:00;METAR CYHZ 212100Z 34019G28KT 15SM FEW035 FEW120 11/02 A3002 RMK SC2AC1 SLP170
CYHZ;2004-09-21 22:00;METAR CYHZ 212200Z 36013KT 15SM FEW035 FEW250 09/03 A3004 RMK SC1CI0 SLP174
CYHZ;2004-09-21 23:00;METAR CYHZ 212300Z 36006KT 15SM FEW250 08/03 A3005 RMK CI1 SLP178
CYHZ;2004-09-22 00:00;METAR CYHZ 220000Z 36003KT 15SM SKC 07/03 A3006 RMK SLP184
CYHZ;2004-09-22 01:00;METAR CYHZ 220100Z 33006KT 15SM FEW025 06/04 A3006 RMK SC2 SLP184
CYHZ;2004-09-22 02:00;METAR CYHZ 220200Z 35006KT 20SM SKC 06/04 A3007 RMK SLP185
CYHZ;2004-09-22 03:00;METAR CYHZ 220300Z 30005KT 20SM SKC 04/03 A3007 RMK SLP187
CYHZ;2004-09-22 04:00;METAR CYHZ 220400Z 27005KT 20SM SKC 04/04 A3007 RMK SLP186
CYHZ;2004-09-22 05:00;METAR CYHZ 220500Z 27005KT 20SM SKC 04/04 A3008 RMK SLP188
CYHZ;2004-09-22 06:00;METAR CYHZ 220600Z 30009KT 20SM SKC 04/04 A3008 RMK SLP188
CYHZ;2004-09-22 07:00;METAR CYHZ 220700Z 33004KT 20SM SKC 04/03 A3007 RMK SLP186
CYHZ;2004-09-22 08:00;METAR CYHZ 220800Z 32007KT 20SM SKC 04/03 A3005 RMK SLP181
CYHZ;2004-09-22 09:00;METAR CYHZ 220900Z 32003KT 20SM SKC 03/03 A3006 RMK SLP182
CYHZ;2004-09-22 10:00;METAR CYHZ 221000Z 31004KT 20SM FEW120 FEW250 03/03 A3005 RMK AC1CI1 SLP180
CYHZ;2004-09-22 11:00;METAR CYHZ 221100Z 27004KT 20SM FEW250 05/04 A3006 RMK CI1 SLP182
CYHZ;2004-09-22 12:00;METAR CYHZ 221200Z 28005KT 20SM FEW250 07/05 A3006 RMK CI1 SLP183
CYHZ;2004-09-22 13:00;METAR CYHZ 221300Z 31011KT 20SM SCT250 10/04 A3007 RMK CI1 SLP186
CYHZ;2004-09-22 14:00;METAR CYHZ 221400Z 29008KT 20SM SCT250 11/03 A3006 RMK CI1 SLP182
CYHZ;2004-09-22 15:00;METAR CYHZ 221500Z 26005KT 20SM SCT250 12/03 A3002 RMK CI1 SLP171
CYHZ;2004-09-22 16:00;METAR CYHZ 221600Z 30008KT 20SM BKN250 14/02 A3001 RMK CC5 SLP167
CYHZ;2004-09-22 17:00;METAR CYHZ 221700Z 27008KT 20SM FEW130 BKN250 15/01 A3000 RMK AC1CC4 SLP162
CYHZ;2004-09-22 18:00;METAR CYHZ 221800Z 31010KT 15SM BKN140 BKN250 16/02 A2997 RMK AC5CI1 SLP152
CYHZ;2004-09-22 19:00;METAR CYHZ 221900Z 31006KT 15SM FEW140 BKN170 BKN250 15/04 A2995 RMK AC2AC3CI2 SLP144 SLP144
CYHZ;2004-09-22 20:00;METAR CYHZ 222000Z 25006KT 15SM FEW050 BKN110 BKN250 14/08 A2994 RMK SC2AC4CI2 SLP142 SLP142
CYHZ;2004-09-22 21:00;METAR CYHZ 222100Z 21008KT 15SM FEW030 BKN140 BKN250 14/08 A2990 RMK SC2AC4CI1 SLP129 SLP129
CYHZ;2004-09-22 22:00;METAR CYHZ 222200Z 20005KT 15SM -SHRA FEW030 BKN130 BKN250 13/09 A2988 RMK SC2AC3CI1 SLP122
CYHZ;2004-09-22 23:00;METAR CYHZ 222300Z 24006KT 15SM BKN060 BKN140 OVC250 13/09 A2987 RMK SC5AC2CI1 SLP120 SLP120
CYHZ;2004-09-23 00:00;METAR CYHZ 230000Z 25007KT 15SM FEW020 OVC035 14/09 A2986 RMK SC2SC6 SLP115
CYHZ;2004-09-23 01:00;METAR CYHZ 230100Z 26007KT 6SM -SHRA BR FEW015 OVC022 12/11 A2984 RMK SC2SC6 SLP106 SLP106
CYHZ;2004-09-23 02:00;METAR CYHZ 230200Z 28005KT 6SM -SHRA BR OVC008 12/12 A2982 RMK SF8 SLP101 SLP101
CYHZ;2004-09-23 04:00;METAR CYHZ 230400Z 32012KT 15SM SCT010 OVC015 14/13 A2981 RMK SF4SC4 SLP098
CYHZ;2004-09-23 05:00;METAR CYHZ 230500Z 32010G15KT 15SM OVC011 14/14 A2983 RMK SC8 SLP103
CYHZ;2004-09-23 06:00;METAR CYHZ 230600Z 34015G20KT 15SM OVC014 14/13 A2984 RMK SC8 SLP105
CYHZ;2004-09-23 07:00;METAR CYHZ 230700Z 35013G18KT 15SM OVC016 14/12 A2987 RMK SC8 SLP114
CYHZ;2004-09-23 08:00;METAR CYHZ 230800Z 35015G20KT 15SM OVC025 14/11 A2987 RMK SC8 SLP117
CYHZ;2004-09-23 09:00;METAR CYHZ 230900Z 36012G19KT 20SM FEW030 13/11 A2989 RMK SC2 SLP123
CYHZ;2004-09-23 10:00;METAR CYHZ 231000Z 35010KT 15SM SCT040 12/10 A2993 RMK SC3 SLP136
CYHZ;2004-09-23 11:00;METAR CYHZ 231100Z 35012KT 15SM BKN018 12/10 A2996 RMK SC6 SLP148
CYHZ;2004-09-23 12:00;METAR CYHZ 231200Z 35018G25KT 15SM BKN019 12/09 A3000 RMK SC7 SLP160
CYHZ;2004-09-23 13:00;METAR CYHZ 231300Z 35017KT 15SM BKN025 12/08 A3002 RMK SC6 SLP169
CYHZ;2004-09-23 14:00;METAR CYHZ 231400Z 01016G21KT 15SM BKN029 12/07 A3005 RMK SC6 SLP176
CYHZ;2004-09-23 15:00;METAR CYHZ 231500Z 36018KT 15SM BKN032 13/06 A3004 RMK SC5 SLP174
CYHZ;2004-09-23 16:00;METAR CYHZ 231600Z 36019G24KT 15SM BKN034 14/06 A3005 RMK SC5 SLP178
CYHZ;2004-09-23 18:00;METAR CYHZ 231800Z 34017G25KT 15SM BKN030 OVC040 11/06 A3009 RMK SC6SC1 SLP193
CYHZ;2004-09-23 19:00;METAR CYHZ 231900Z 35022G27KT 15SM BKN028 OVC040 11/07 A3010 RMK SC6SC2 SLP195
CYHZ;2004-09-23 20:00;METAR CYHZ 232000Z 36015G22KT 15SM OVC028 11/07 A3011 RMK SC7 SLP200
CYHZ;2004-09-23 21:00;METAR CYHZ 232100Z 36013G26KT 15SM OVC025 11/06 A3012 RMK SC7 SLP202
CYHZ;2004-09-23 22:00;METAR CYHZ 232200Z 36014KT 15SM BKN029 10/06 A3014 RMK SC7 SLP210
CYHZ;2004-09-23 23:00;METAR CYHZ 232300Z 36010G16KT 15SM FEW029 09/06 A3016 RMK SC1 SLP215
CYHZ;2004-09-24 00:00;METAR CYHZ 240000Z 36008KT 15SM SKC 08/06 A3017 RMK SLP221
CYHZ;2004-09-24 01:00;METAR CYHZ 240100Z 34005KT 15SM SKC 07/06 A3019 RMK SLP226
CYHZ;2004-09-24 02:00;METAR CYHZ 240200Z 35003KT 15SM SKC 07/05 A3019 RMK SLP228
CYHZ;2004-09-24 03:00;METAR CYHZ 240300Z 34005KT 15SM SKC 06/05 A3020 RMK SLP229
CYHZ;2004-09-24 04:00;METAR CYHZ 240400Z 33006KT 15SM SKC 05/05 A3022 RMK SLP236
CYHZ;2004-09-24 05:00;METAR CYHZ 240500Z 35003KT 15SM SKC 06/05 A3021 RMK SLP233
CYHZ;2004-09-24 06:00;METAR CYHZ 240600Z 31003KT 15SM SKC 05/05 A3022 RMK SLP236
CYHZ;2004-09-24 07:00;METAR CYHZ 240700Z 32008KT 15SM SKC 05/05 A3022 RMK SLP236
CYHZ;2004-09-24 08:00;METAR CYHZ 240800Z 35005KT 15SM SKC 05/05 A3022 RMK SLP237
CYHZ;2004-09-24 09:00;METAR CYHZ 240900Z 35007KT 15SM MIFG SKC 05/05 A3023 RMK SLP242
CYHZ;2004-09-24 10:00;METAR CYHZ 241000Z 36004KT 15SM MIFG FEW250 05/05 A3023 RMK CI1 SLP241
CYHZ;2004-09-24 11:00;METAR CYHZ 241100Z 33007KT 15SM BCFG SKC 06/06 A3024 RMK SLP245
CYHZ;2004-09-24 12:00;METAR CYHZ 241200Z 32006KT 15SM FEW010 FEW250 08/08 A3025 RMK SF0CI0 TR SF SLP246
CYHZ;2004-09-24 13:00;METAR CYHZ 241300Z 33006KT 15SM FEW020 FEW250 11/09 A3025 RMK SC1CI0 SLP249
CYHZ;2004-09-24 14:00;METAR CYHZ 241400Z 32009KT 15SM FEW018 FEW250 12/09 A3024 RMK SC1CI0 SLP245
CYHZ;2004-09-24 15:00;METAR CYHZ 241500Z 32011KT 15SM FEW025 FEW250 14/07 A3022 RMK SC1CI1 SLP238
CYHZ;2004-09-24 16:00;METAR CYHZ 241600Z 33008G16KT 15SM FEW028 FEW250 15/07 A3021 RMK SC1CI1 SLP232
CYHZ;2004-09-24 17:00;METAR CYHZ 241700Z 32009KT 15SM FEW028 FEW250 16/08 A3019 RMK SC1CI1 SLP227
CYHZ;2004-09-24 18:00;METAR CYHZ 241800Z 32008KT 15SM FEW028 FEW250 17/08 A3017 RMK SC1CI1 SLP220
CYHZ;2004-09-24 19:00;METAR CYHZ 241900Z 32006KT 15SM FEW250 17/08 A3016 RMK CI1 SLP217
CYHZ;2004-09-24 20:00;METAR CYHZ 242000Z 31007KT 15SM FEW250 18/07 A3015 RMK CI0 SLP211
CYHZ;2004-09-24 21:00;METAR CYHZ 242100Z 31004KT 15SM FEW160 FEW250 17/07 A3014 RMK AC1CI0 SLP210
CYHZ;2004-09-24 22:00;METAR CYHZ 242200Z 31004KT 15SM FEW150 FEW250 15/08 A3013 RMK AC1CI0 SLP207
CYHZ;2004-09-24 23:00;METAR CYHZ 242300Z 24005KT 15SM FEW150 13/08 A3014 RMK AC1 SLP209
CYHZ;2004-09-25 00:00;METAR CYHZ 250000Z 21006KT 15SM SKC 12/09 A3014 RMK SLP209
CYHZ;2004-09-25 01:00;METAR CYHZ 250100Z 24005KT 15SM SKC 11/10 A3014 RMK SLP210
CYHZ;2004-09-25 02:00;METAR CYHZ 250200Z 22005KT 20SM SKC 11/10 A3014 RMK SLP210
CYHZ;2004-09-25 03:00;METAR CYHZ 250300Z 24003KT 20SM SKC 10/09 A3013 RMK SLP206
CYHZ;2004-09-25 04:00;METAR CYHZ 250400Z 27004KT 20SM SKC 11/08 A3013 RMK SLP204
CYHZ;2004-09-25 05:00;METAR CYHZ 250500Z 27005KT 20SM SKC 11/08 A3012 RMK SLP203
CYHZ;2004-09-25 06:00;METAR CYHZ 250600Z 25005KT 20SM SKC 11/07 A3011 RMK SLP196
CYHZ;2004-09-25 07:00;METAR CYHZ 250700Z 22005KT 20SM SKC 11/07 A3009 RMK SLP191
CYHZ;2004-09-25 08:00;METAR CYHZ 250800Z 22005KT 20SM SKC 10/07 A3009 RMK SLP191
CYHZ;2004-09-25 09:00;METAR CYHZ 250900Z 19005KT 20SM SKC 09/07 A3008 RMK SLP189
CYHZ;2004-09-25 10:00;METAR CYHZ 251000Z 21006KT 15SM FEW250 10/07 A3009 RMK CI1 SLP190
CYHZ;2004-09-25 11:00;METAR CYHZ 251100Z 22007KT 15SM FEW250 11/08 A3008 RMK CI1 SLP189
CYHZ;2004-09-25 12:00;METAR CYHZ 251200Z 23005KT 15SM FEW250 13/09 A3008 RMK CI1 SLP190
CYHZ;2004-09-25 13:00;METAR CYHZ 251300Z 22004KT 15SM FEW250 17/11 A3008 RMK CI1 SLP187
CYHZ;2004-09-25 14:00;METAR CYHZ 251400Z 26003KT 15SM BKN250 19/12 A3007 RMK CI2 SLP184
CYHZ;2004-09-25 15:00;METAR CYHZ 251500Z 22006KT 15SM BKN250 21/12 A3005 RMK CI2 SLP175
CYHZ;2004-09-25 16:00;METAR CYHZ 251600Z 22013KT 15SM SCT250 23/10 A3003 RMK CI2 SLP169
CYHZ;2004-09-25 17:00;METAR CYHZ 251700Z 22012KT 15SM FEW250 23/09 A3000 RMK CI1 SLP160
CYHZ;2004-09-25 18:00;METAR CYHZ 251800Z 22013G18KT 15SM BKN250 23/09 A2999 RMK CI3 SLP154
CYHZ;2004-09-25 19:00;METAR CYHZ 251900Z 21012KT 15SM FEW170 BKN250 23/12 A2997 RMK AC1CI2 SLP148
CYHZ;2004-09-25 20:00;METAR CYHZ 252000Z 21013KT 15SM FEW170 BKN250 21/13 A2996 RMK AC2CI2 CC ASOCTD SLP146 SLP146
CYHZ;2004-09-25 21:00;METAR CYHZ 252100Z 21011KT 15SM FEW170 BKN240 19/14 A2996 RMK AC2CI3 CC ASOCTD SLP147 SLP147
CYHZ;2004-09-25 22:00;METAR CYHZ 252200Z 19011KT 15SM FEW170 BKN230 17/14 A2995 RMK AC2CI4 SLP143
CYHZ;2004-09-25 23:00;METAR CYHZ 252300Z 20009KT 15SM FEW170 BKN210 16/14 A2995 RMK AC2CI5 SLP142
CYHZ;2004-09-26 00:00;METAR CYHZ 260000Z 21009KT 15SM FEW170 OVC220 16/13 A2994 RMK AC2CI6 SLP140
CYHZ;2004-09-26 01:00;METAR CYHZ 260100Z 21010KT 15SM FEW170 OVC210 16/14 A2993 RMK AC2CI6 SLP136
CYHZ;2004-09-26 02:00;METAR CYHZ 260200Z 22013KT 15SM OVC190 15/14 A2992 RMK AC8 SLP133
CYHZ;2004-09-26 03:00;METAR CYHZ 260300Z 22012G17KT 15SM OVC170 15/12 A2990 RMK AC8 SLP124
CYHZ;2004-09-26 04:00;METAR CYHZ 260400Z 21009G15KT 15SM SCT150 BKN280 14/10 A2990 RMK AC4CI2 SLP124
CYHZ;2004-09-26 05:00;METAR CYHZ 260500Z 21010G15KT 15SM FEW180 FEW250 13/10 A2988 RMK AC1CI2 SLP119
CYHZ;2004-09-26 06:00;METAR CYHZ 260600Z 22010KT 15SM OVC008 13/11 A2986 RMK ST8 SLP111
CYHZ;2004-09-26 07:00;METAR CYHZ 260700Z 25008KT 15SM OVC007 13/12 A2985 RMK ST8 SLP109
CYHZ;2004-09-26 08:00;METAR CYHZ 260800Z 23006KT 15SM BKN010 OVC082 14/13 A2984 RMK SF6AC2 SLP106
CYHZ;2004-09-26 09:00;METAR CYHZ 260900Z 25007KT 12SM -SHRA OVC010 14/13 A2984 RMK SF8 SLP105
CYHZ;2004-09-26 10:00;METAR CYHZ 261000Z 25005KT 15SM BKN012 OVC080 14/13 A2984 RMK SF7AC1 SLP107
CYHZ;2004-09-26 11:00;METAR CYHZ 261100Z 29004KT 15SM BKN012 14/14 A2986 RMK SF7 SLP111
CYHZ;2004-09-26 12:00;METAR CYHZ 261200Z 31007KT 15SM BKN008 BKN015 15/14 A2987 RMK SF6SC2 SLP115
CYHZ;2004-09-26 13:00;METAR CYHZ 261300Z 35011KT 15SM BKN012 BKN140 16/14 A2988 RMK SC5AC1
CYHZ;2004-09-26 14:00;METAR CYHZ 261400Z 33013KT 15SM BKN015 16/13 A2989 RMK SC7 SLP122
CYHZ;2004-09-26 15:00;METAR CYHZ 261500Z 34011G16KT 15SM BKN035 16/13 A2990 RMK SC7 SLP127
CYHZ;2004-09-26 16:00;METAR CYHZ 261600Z 34013KT 15SM BKN022 17/11 A2991 RMK SC5 SLP128
CYHZ;2004-09-26 17:00;METAR CYHZ 261700Z 32013KT 15SM SCT030 18/11 A2990 RMK SC4 SLP126
CYHZ;2004-09-26 18:00;METAR CYHZ 261800Z 31014KT 15SM FEW030 18/09 A2990 RMK SC2 SLP128
CYHZ;2004-09-26 19:00;METAR CYHZ 261900Z 32011G19KT 15SM FEW030 18/09 A2991 RMK SC2 SLP129
CYHZ;2004-09-26 20:00;METAR CYHZ 262000Z 32013KT 15SM FEW030 18/08 A2992 RMK SC1 SLP134
CYHZ;2004-09-26 21:00;METAR CYHZ 262100Z 32008KT 15SM SKC 17/08 A2994 RMK SLP139
CYHZ;2004-09-26 22:00;METAR CYHZ 262200Z 29006KT 15SM SKC 15/08 A2996 RMK SLP146
CYHZ;2004-09-26 23:00;METAR CYHZ 262300Z 29006KT 15SM FEW250 13/09 A2999 RMK CI1 SLP155
CYHZ;2004-09-27 00:00;METAR CYHZ 270000Z 31008KT 15SM SKC 13/09 A3001 RMK SLP163
CYHZ;2004-09-27 01:00;METAR CYHZ 270100Z 29005KT 15SM SKC 12/08 A3003 RMK SLP171
CYHZ;2004-09-27 02:00;METAR CYHZ 270200Z 29007KT 15SM FEW280 11/07 A3005 RMK CI1 SLP176
CYHZ;2004-09-27 03:00;METAR CYHZ 270300Z 31006KT 15SM FEW280 11/07 A3005 RMK CI1 SLP177
CYHZ;2004-09-27 05:00;METAR CYHZ 270500Z 30008KT 15SM SKC 09/07 A3006 RMK SLP181
CYHZ;2004-09-27 06:00;METAR CYHZ 270600Z 27007KT 15SM SKC 10/07 A3006 RMK SLP180
CYHZ;2004-09-27 07:00;METAR CYHZ 270700Z 28006KT 15SM SKC 11/07 A3006 RMK SLP182
CYHZ;2004-09-27 08:00;METAR CYHZ 270800Z 29007KT 15SM SKC 11/07 A3007 RMK SLP185
CYHZ;2004-09-27 09:00;METAR CYHZ 270900Z 28004KT 15SM SKC 11/07 A3008 RMK SLP188
CYHZ;2004-09-27 10:00;METAR CYHZ 271000Z 20004KT 15SM FEW250 11/07 A3010 RMK CI1 SLP193
CYHZ;2004-09-27 11:00;METAR CYHZ 271100Z 26004KT 15SM FEW250 11/07 A3012 RMK CI1 SLP201
CYHZ;2004-09-27 12:00;METAR CYHZ 271200Z 20004KT 15SM FEW250 13/09 A3014 RMK CI1 SLP208
CYHZ;2004-09-27 13:00;METAR CYHZ 271300Z 29002KT 15SM FEW030 FEW250 15/08 A3016 RMK SC1CI1 SLP214
CYHZ;2004-09-27 14:00;METAR CYHZ 271400Z 33003KT 15SM FEW030 FEW250 17/10 A3016 RMK SC1CI1 SLP215
CYHZ;2004-09-27 15:00;METAR CYHZ 271500Z 24004KT 15SM FEW030 FEW250 19/10 A3015 RMK SC1CI1 SLP211
CYHZ;2004-09-27 16:00;METAR CYHZ 271600Z 27005KT 15SM FEW030 FEW250 21/10 A3014 RMK SC1CI1 SLP208
CYHZ;2004-09-27 17:00;METAR CYHZ 271700Z 24006KT 15SM FEW030 FEW250 22/10 A3013 RMK SC1CI1 SLP203
CYHZ;2004-09-27 18:00;METAR CYHZ 271800Z 22006KT 15SM FEW045 FEW250 22/10 A3012 RMK SC1CI1 SLP201
CYHZ;2004-09-27 19:00;METAR CYHZ 271900Z 22011KT 15SM FEW045 FEW250 22/10 A3011 RMK SC1CI1 SLP199
CYHZ;2004-09-27 20:00;METAR CYHZ 272000Z 21012KT 15SM FEW045 21/10 A3011 RMK SC1 SLP199
CYHZ;2004-09-27 23:00;METAR CYHZ 272300Z 19011KT 15SM FEW250 16/11 A3013 RMK CI1 SLP205
CYHZ;2004-09-28 00:00;METAR CYHZ 280000Z 20010KT 15SM SKC 15/11 A3014 RMK SLP207
CYHZ;2004-09-28 01:00;METAR CYHZ 280100Z 22008KT 15SM SKC 14/12 A3014 RMK SLP208
CYHZ;2004-09-28 02:00;METAR CYHZ 280200Z 23008KT 15SM BKN280 14/11 A3014 RMK CI0 SLP208
CYHZ;2004-09-28 03:00;METAR CYHZ 280300Z 22007KT 15SM FEW280 13/11 A3013 RMK CI0 SLP204
CYHZ;2004-09-28 04:00;METAR CYHZ 280400Z 21008KT 15SM FEW280 13/11 A3012 RMK CI0 SLP202
CYHZ;2004-09-28 05:00;METAR CYHZ 280500Z 20008KT 15SM SKC 12/11 A3011 RMK SLP199
CYHZ;2004-09-28 06:00;METAR CYHZ 280600Z 21007KT 15SM SKC 11/10 A3011 RMK SLP196
CYHZ;2004-09-28 07:00;METAR CYHZ 280700Z 20010KT 15SM SKC 11/10 A3010 RMK SLP192
CYHZ;2004-09-28 08:00;METAR CYHZ 280800Z 20009KT 15SM SKC 11/10 A3009 RMK SLP191
CYHZ;2004-09-28 09:00;METAR CYHZ 280900Z 19007KT 15SM BKN002 12/11 A3009 RMK SF6 SLP189
CYHZ;2004-09-28 10:00;METAR CYHZ 281000Z 19008KT 1/4SM R15/P6000FT/D FG VV001 11/11 A3008 RMK FG8 RVR RWY 24 2200 FT RVR RWY 24 1 MINUTE MEAN SLP186 RWY 24 2200 FT RVR RWY 24 1 MINUTE MEAN SLP186
CYHZ;2004-09-28 11:00;METAR CYHZ 281100Z 20007KT 1/4SM R15/2400V5000FT/D FG VV001 12/12 A3007 RMK FG8 RVR RWY 24 2200 FT RVR RWY 24 1 MINUTE MEAN SLP184
CYHZ;2004-09-28 12:00;METAR CYHZ 281200Z 22010KT 6SM BR BKN005 13/13 A3007 RMK SF7 SLP184
CYHZ;2004-09-28 13:00;METAR CYHZ 281300Z 22013KT 15SM SCT012 BKN160 15/13 A3006 RMK SC3AC2 SLP182
CYHZ;2004-09-28 14:00;METAR CYHZ 281400Z 20013KT 15SM FEW015 SCT160 BKN250 17/11 A3003 RMK CF1AC2CI2 SLP171 SLP171
CYHZ;2004-09-28 15:00;METAR CYHZ 281500Z 19014G19KT 15SM FEW025 FEW150 BKN250 18/12 A3000 RMK CU1AC2CI5 SLP161 SLP161
CYHZ;2004-09-28 16:00;METAR CYHZ 281600Z 20015KT 15SM SCT050 BKN150 OVC250 18/12 A2999 RMK SC3AC2CS3 SLP155 SLP155
CYHZ;2004-09-28 17:00;METAR CYHZ 281700Z 18011G19KT 15SM OVC018 17/14 A2996 RMK SC8 SLP147
CYHZ;2004-09-28 18:00;METAR CYHZ 281800Z 20013G20KT 15SM OVC012 18/15 A2993 RMK SC8 SLP138
CYHZ;2004-09-28 19:00;METAR CYHZ 281900Z 21014KT 12SM OVC007 17/16 A2992 RMK ST8 SLP134
CYHZ;2004-09-28 20:00;METAR CYHZ 282000Z 21010KT 4SM -RA BR BKN008 OVC090 17/16 A2990 RMK ST5AS3 SLP128
CYHZ;2004-09-28 21:00;METAR CYHZ 282100Z 21004KT 3SM -RA BR FEW003 BKN020 OVC080 17/16 A2989 RMK SF2ST5AS2 SLP124
CYHZ;2004-09-28 22:00;METAR CYHZ 282200Z 18006KT 3SM -RA BR FEW003 OVC090 16/16 A2988 RMK SF2AS6 SLP121
CYHZ;2004-09-28 23:00;METAR CYHZ 282300Z 19005KT 3SM -RA BR FEW003 OVC090 16/15 A2987 RMK SF2AS6 SLP118
CYHZ;2004-09-29 00:00;METAR CYHZ 290000Z 25004KT 4SM -RA BR FEW020 SCT070 OVC100 15/15 A2987 RMK SC1AC2AS5 SLP118
CYHZ;2004-09-29 01:00;METAR CYHZ 290100Z 23003KT 4SM BR FEW020 BKN028 OVC060 15/15 A2987 RMK SC2SC3SC3 VIS HIER NE SLP115 VIS HIER NE SLP115
CYHZ;2004-09-29 02:00;METAR CYHZ 290200Z 33011KT 1 1/2SM BR BKN003 OVC015 15/15 A2988 RMK SF6SC2 SLP119
CYHZ;2004-09-29 03:00;METAR CYHZ 290300Z 34018KT 1 1/2SM BR BKN002 OVC005 13/13 A2989 RMK SF6SF2 SLP123
CYHZ;2004-09-29 04:00;METAR CYHZ 290400Z 36007KT 15SM FEW003 SCT015 BKN200 11/11 A2990 RMK SF1SC2CI3 SLP125 SLP125
CYHZ;2004-09-29 05:00;METAR CYHZ 290500Z 34005KT 15SM FEW015 OVC220 11/10 A2991 RMK SC2CS4 SLP130
CYHZ;2004-09-29 06:00;METAR CYHZ 290600Z 36004KT 15SM FEW020 BKN250 10/10 A2992 RMK SC1CI3 SLP132
CYHZ;2004-09-29 07:00;METAR CYHZ 290700Z 35007KT 15SM SCT015 BKN250 10/09 A2993 RMK SC3CI2 SLP138
CYHZ;2004-09-29 08:00;METAR CYHZ 290800Z 01004KT 15SM FEW015 BKN250 09/09 A2994 RMK SC2CI2 SLP139
CYHZ;2004-09-29 09:00;METAR CYHZ 290900Z 35007KT 15SM FEW015 BKN250 09/08 A2994 RMK SC1CI2 SLP142
CYHZ;2004-09-29 10:00;METAR CYHZ 291000Z 36007KT 15SM VCFG FEW015 BKN250 08/08 A2996 RMK SC2CI1 FOG OVR LAKE SLP149 LAKE SLP149
CYHZ;2004-09-29 11:00;METAR CYHZ 291100Z 35005KT 15SM FEW008 FEW020 SCT120 BKN250 09/09 A2999 RMK SF1SC2AC2CS2 SLP159
CYHZ;2004-09-29 12:00;METAR CYHZ 291200Z 34003KT 15SM FEW008 SCT015 BKN250 09/09 A3002 RMK SF1SC3CS2 SLP168 SLP168
CYHZ;2004-09-29 13:00;METAR CYHZ 291300Z 02005KT 15SM FEW004 BKN011 BKN022 BKN250 10/10 A3004 RMK SF2SC2SC1CS1 SLP173
CYHZ;2004-09-29 14:00;METAR CYHZ 291400Z 03008KT 15SM SCT008 BKN012 OVC250 12/10 A3003 RMK SF3SC2CI1 SLP170 SLP170
CYHZ;2004-09-29 15:00;METAR CYHZ 291500Z 01010KT 15SM BKN020 BKN250 12/09 A3000 RMK SC5CI1 SLP161
CYHZ;2004-09-29 16:00;METAR CYHZ 291600Z 03009KT 15SM SCT024 BKN250 13/08 A3000 RMK SC3CI1
CYHZ;2004-09-29 17:00;METAR CYHZ 291700Z 05009KT 15SM FEW024 OVC250 13/08 A2999 RMK SC2CS3 SLP157
CYHZ;2004-09-29 18:00;METAR CYHZ 291800Z 05006KT 20SM SCT025 OVC260 14/08 A2999 RMK SC3CS5 SLP158
CYHZ;2004-09-29 19:00;METAR CYHZ 291900Z 06004KT 20SM SCT033 OVC260 14/08 A2999 RMK SC3CS5 SLP159
CYHZ;2004-09-29 20:00;METAR CYHZ 292000Z 09005KT 20SM FEW035 OVC230 14/09 A2997 RMK SC2CS6 SLP152
CYHZ;2004-09-29 21:00;METAR CYHZ 292100Z 07006KT 20SM FEW030 OVC230 13/09 A2998 RMK SC2CS6 SLP153
CYHZ;2004-09-29 22:00;METAR CYHZ 292200Z 08005KT 20SM FEW030 OVC220 12/09 A2997 RMK SC2CS6 SLP150
CYHZ;2004-09-29 23:00;METAR CYHZ 292300Z 11004KT 20SM FEW030 OVC210 11/10 A2997 RMK SC2CS6
CYHZ;2004-09-30 00:00;METAR CYHZ 300000Z 05004KT 20SM OVC180 11/10 A2996 RMK CS8 SLP148
CYHZ;2004-09-30 01:00;METAR CYHZ 300100Z 07004KT 20SM OVC170 10/08 A2995 RMK AS8 SLP145
CYHZ;2004-09-30 02:00;METAR CYHZ 300200Z 05008KT 15SM OVC140 10/08 A2995 RMK AS8 SLP145
CYHZ;2004-09-30 03:00;METAR CYHZ 300300Z 06008KT 15SM OVC110 10/08 A2994 RMK AS8 SLP142
CYHZ;2004-09-30 04:00;METAR CYHZ 300400Z 02007KT 15SM SCT015 OVC090 10/06 A2994 RMK SC3AS5 SLP141
CYHZ;2004-09-30 05:00;METAR CYHZ 300500Z 05010KT 15SM -SHRA FEW015 OVC080 10/08 A2993 RMK SC2AS6 SLP138
CYHZ;2004-09-30 06:00;METAR CYHZ 300600Z 03006KT 15SM -SHRA BKN050 OVC100 09/09 A2990 RMK SC5AC3 SLP129
CYHZ;2004-09-30 07:00;METAR CYHZ 300700Z 02008KT 15SM -SHRA FEW010 SCT050 OVC100 09/09 A2988 RMK SF2SC1AC5 SLP122
CYHZ;2004-09-30 08:00;METAR CYHZ 300800Z 02008KT 15SM -SHRA SCT002 BKN060 OVC100 09/08 A2989 RMK SF3SC2AC3 SLP123
CYHZ;2004-09-30 09:00;METAR CYHZ 300900Z 03009KT 15SM -SHRA FEW002 SCT060 OVC100 09/09 A2990 RMK SF2SC2AC5 SLP126
CYHZ;2004-09-30 10:00;METAR CYHZ 301000Z 04006KT 15SM -SHRA FEW005 FEW015 OVC100 09/08 A2989 RMK SF2SC1AC6 SLP125
CYHZ;2004-09-30 11:00;METAR CYHZ 301100Z 03009KT 15SM FEW020 FEW075 OVC120 09/09 A2990 RMK CF1AC2AC6 SLP129
CYHZ;2004-09-30 12:00;METAR CYHZ 301200Z 03010G15KT 15SM FEW080 OVC130 09/08 A2990 RMK AC2AC5
CYHZ;2004-09-30 13:00;METAR CYHZ 301300Z 02009KT 15SM FEW010 FEW080 BKN120 10/08 A2992 RMK SF1AC1AC6 SLP135 SLP135
CYHZ;2004-09-30 14:00;METAR CYHZ 301400Z 04008G15KT 15SM FEW015 FEW080 BKN160 12/08 A2992 RMK CF1AC1AC5 SLP133 SLP133
CYHZ;2004-09-30 15:00;METAR CYHZ 301500Z 02009KT 15SM FEW015 BKN160 BKN250 13/09 A2991 RMK CF1AC4CI1 SLP131 SLP131
CYHZ;2004-09-30 16:00;METAR CYHZ 301600Z 03010KT 15SM FEW020 SCT160 BKN250 14/09 A2991 RMK CU1AC2CI1 SLP130 SLP130
CYHZ;2004-09-30 17:00;METAR CYHZ 301700Z 02010G19KT 15SM FEW100 FEW160 FEW250 16/06 A2990 RMK AC1AC1CI1 SLP126 SLP126
CYHZ;2004-09-30 18:00;METAR CYHZ 301800Z 36012G18KT 20SM FEW210 17/07 A2990 RMK CI2 SLP127
CYHZ;2004-09-30 19:00;METAR CYHZ 301900Z 35014G19KT 20SM FEW210 17/09 A2992 RMK CI2 SLP134
CYHZ;2004-09-30 20:00;METAR CYHZ 302000Z 36013KT 20SM FEW210 15/08 A2992 RMK CI2 SLP133
CYHZ;2004-09-30 21:00;METAR CYHZ 302100Z 36010KT 20SM BKN230 14/08 A2992 RMK CI5 SLP135
CYHZ;2004-09-30 22:00;METAR CYHZ 302200Z 35008KT 20SM FEW230 13/08 A2996 RMK CI2 PRESRR SLP147
CYHZ;2004-09-30 23:00;METAR CYHZ 302300Z 35009KT 20SM FEW230 11/07 A2998 RMK CI1 SLP154
CYHZ;2004-10-01 00:00;METAR CYHZ 010000Z 35008KT 20SM FEW230 10/07 A2999 RMK CI1 SLP159
CYHZ;2004-10-01 01:00;METAR CYHZ 010100Z 34008KT 20SM SKC 09/07 A3001 RMK SLP164
CYHZ;2004-10-01 02:00;METAR CYHZ 010200Z 34009KT 20SM SKC 08/06 A3001 RMK SLP166
CYHZ;2004-10-01 03:00;METAR CYHZ 010300Z 33007KT 20SM SKC 08/06 A3002 RMK SLP170
CYHZ;2004-10-01 04:00;METAR CYHZ 010400Z 35007KT 20SM SKC 09/06 A3003 RMK SLP172
CYHZ;2004-10-01 05:00;METAR CYHZ 010500Z 36006KT 20SM SKC 08/06 A3005 RMK SLP178
CYHZ;2004-10-01 06:00;METAR CYHZ 010600Z 02004KT 20SM SKC 08/07 A3006 RMK SLP180
CYHZ;2004-10-01 07:00;METAR CYHZ 010700Z 35003KT 20SM SKC 07/06 A3007 RMK SLP184
CYHZ;2004-10-01 08:00;METAR CYHZ 010800Z 35003KT 20SM FEW250 08/06 A3008 RMK CI1 SLP188
CYHZ;2004-10-01 09:00;METAR CYHZ 010900Z 35002KT 20SM FEW250 07/05 A3009 RMK CI1 SLP193
CYHZ;2004-10-01 10:00;METAR CYHZ 011000Z 01003KT 15SM FEW170 FEW250 07/06 A3011 RMK AC1CI1 SLP200
CYHZ;2004-10-01 11:00;METAR CYHZ 011100Z 03004KT 15SM FEW170 09/05 A3012 RMK AC2 SLP203
CYHZ;2004-10-01 12:00;METAR CYHZ 011200Z 35004KT 15SM FEW170 10/07 A3014 RMK AC2 SLP210
CYHZ;2004-10-01 13:00;METAR CYHZ 011300Z 32006KT 15SM FEW170 10/08 A3016 RMK AC2 SLP218
CYHZ;2004-10-01 14:00;METAR CYHZ 011400Z 01004KT 15SM FEW160 FEW250 13/08 A3017 RMK AC2CI1 SLP221
CYHZ;2004-10-01 15:00;METAR CYHZ 011500Z 33005KT 15SM SCT160 BKN250 16/09 A3017 RMK AC4CI0 SLP218
CYHZ;2004-10-01 16:00;METAR CYHZ 011600Z 02004KT 15SM SCT160 BKN250 18/09 A3017 RMK AC3CI1
CYHZ;2004-10-01 17:00;METAR CYHZ 011700Z 35005KT 15SM FEW040 FEW120 BKN160 BKN200 17/07 A3016 RMK CU1AC2AC3CI1 TR CU SLP217
CYHZ;2004-10-01 18:00;METAR CYHZ 011800Z 32005KT 15SM FEW040 SCT160 BKN250 19/08 A3016 RMK SC1AC2CI1 SLP217 SLP217
CYHZ;2004-10-01 19:00;METAR CYHZ 011900Z 33006KT 15SM FEW040 FEW160 BKN250 19/08 A3016 RMK SC1AC2CI2 SLP216 SLP216
CYHZ;2004-10-01 20:00;METAR CYHZ 012000Z 34006KT 15SM FEW040 SCT160 BKN250 17/09 A3017 RMK SC1AC3CI1 SLP220 SLP220
CYHZ;2004-10-01 21:00;METAR CYHZ 012100Z 28004KT 15SM FEW080 SCT160 BKN250 17/10 A3019 RMK AC1AC2CI1 SLP225 SLP225
CYHZ;2004-10-01 22:00;METAR CYHZ 012200Z 34003KT 15SM FEW160 BKN250 15/10 A3020 RMK AC2CI2 SLP229
CYHZ;2004-10-01 23:00;METAR CYHZ 012300Z 02004KT 15SM SCT240 14/09 A3022 RMK CI2 SLP235
CYHZ;2004-10-02 00:00;METAR CYHZ 020000Z 36005KT 15SM FEW170 FEW240 13/09 A3024 RMK AC1CI0 SLP244
CYHZ;2004-10-02 01:00;METAR CYHZ 020100Z 00000KT 15SM FEW240 12/09 A3025 RMK CS0 SLP246
CYHZ;2004-10-02 02:00;METAR CYHZ 020200Z 03003KT 20SM FEW220 11/10 A3026 RMK CI0 SLP249
CYHZ;2004-10-02 03:00;METAR CYHZ 020300Z 05003KT 20SM FEW220 11/09 A3026 RMK CI0 SLP250
CYHZ;2004-10-02 04:00;METAR CYHZ 020400Z 02003KT 20SM FEW220 10/09 A3027 RMK CI0 SLP251
CYHZ;2004-10-02 05:00;METAR CYHZ 020500Z 35004KT 20SM FEW220 08/08 A3028 RMK CI0 SLP257
CYHZ;2004-10-02 06:00;METAR CYHZ 020600Z 00000KT 1/4SM R15/1200V1800FT/N FG SKC 08/08 A3029 RMK FG5 SLP258 SLP258
CYHZ;2004-10-02 07:00;METAR CYHZ 020700Z 36004KT 1/4SM R15/1800VP6000FT/D FG SKC 08/08 A3029 RMK FG3 SLP258
CYHZ;2004-10-02 08:00;METAR CYHZ 020800Z 03004KT 1/4SM R15/1200FT/N FG SKC 07/07 A3029 RMK FG3 SLP260
CYHZ;2004-10-02 09:00;METAR CYHZ 020900Z 04004KT 1/4SM R15/1600V2600FT/D FG SKC 06/06 A3030 RMK FG3 SLP262 SLP262
CYHZ;2004-10-02 10:00;METAR CYHZ 021000Z 03004KT 1/8SM R15/1100FT/N FG SKC 06/06 A3031 RMK FG2 RVR RWY 24 1000 FT....RVR RWY 24 1 MINUTE MEAN SLP265 24 1000 FT....RVR RWY 24 1 MINUTE MEAN SLP265
CYHZ;2004-10-02 11:00;METAR CYHZ 021100Z 00000KT 1/4SM R15/3500FT/U FG VV001 07/07 A3032 RMK FG8 RVR RWY 24 P6000...RVR 24 1 MINUTE MEAN SLP271 RWY 24 P6000...RVR 24 1 MINUTE MEAN SLP271
CYHZ;2004-10-02 12:00;METAR CYHZ 021200Z 33004KT 1 1/4SM R15/1800V4000FT/D BR BKN006 BKN010 07/07 A3033 RMK FG2SC5SC1 SLP275 RMK FG2SC5SC1 SLP275
CYHZ;2004-10-02 13:00;METAR CYHZ 021300Z 11006KT 1SM R15/P6000FT/N BR OVC004 10/10 A3034 RMK FG4ST4 SLP277 SLP277
CYHZ;2004-10-02 14:00;METAR CYHZ 021400Z 14004KT 2SM BR BKN006 12/11 A3033 RMK SC7 SLP275
CYHZ;2004-10-02 15:00;METAR CYHZ 021500Z 10004KT 15SM BKN018 15/11 A3032 RMK SC6 SLP270
CYHZ;2004-10-02 16:00;METAR CYHZ 021600Z 13008KT 15SM BKN028 16/10 A3031 RMK SC6 SLP267
CYHZ;2004-10-02 17:00;METAR CYHZ 021700Z 13006KT 15SM SCT030 16/10 A3029 RMK SC4 SLP261
CYHZ;2004-10-02 18:00;METAR CYHZ 021800Z 16010KT 15SM FEW030 16/09 A3028 RMK CU2 SLP257
CYHZ;2004-10-02 19:00;METAR CYHZ 021900Z 15009KT 15SM FEW030 16/09 A3027 RMK CU1 SLP254
CYHZ;2004-10-02 20:00;METAR CYHZ 022000Z 18009KT 15SM FEW028 14/09 A3028 RMK CU1 SLP255
CYHZ;2004-10-02 21:00;METAR CYHZ 022100Z 14008KT 15SM FEW026 FEW260 14/10 A3027 RMK CU1CI1 SLP253
CYHZ;2004-10-02 22:00;METAR CYHZ 022200Z 17007KT 15SM FEW022 FEW260 11/09 A3027 RMK CU1CI1
CYHZ;2004-10-02 23:00;METAR CYHZ 022300Z 17005KT 15SM FEW011 FEW260 10/09 A3026 RMK CF1CI1 SLP251
CYHZ;2004-10-03 00:00;METAR CYHZ 030000Z 15006KT 10SM FEW010 09/09 A3025 RMK SC1 SLP249
CYHZ;2004-10-03 01:00;METAR CYHZ 030100Z 16007KT 8SM MIFG FEW010 FEW260 08/08 A3025 RMK SC1CI1 SLP248
CYHZ;2004-10-03 02:00;METAR CYHZ 030200Z 16007KT 8SM MIFG FEW010 SCT260 09/08 A3024 RMK SC2CI0 SLP244
CYHZ;2004-10-03 03:00;METAR CYHZ 030300Z 17008KT 8SM MIFG FEW015 SCT260 10/09 A3023 RMK SC1CI1 SLP241
CYHZ;2004-10-03 04:00;METAR CYHZ 030400Z 17007KT 12SM MIFG FEW015 FEW260 09/09 A3023 RMK SC1CI0 SLP239
CYHZ;2004-10-03 05:00;METAR CYHZ 030500Z 17008KT 12SM BKN250 09/09 A3022 RMK CI1 SLP235
CYHZ;2004-10-03 06:00;METAR CYHZ 030600Z 17009KT 12SM BKN018 BKN250 10/09 A3020 RMK SC5CI0 SLP230
CYHZ;2004-10-03 07:00;METAR CYHZ 030700Z 16008KT 10SM BKN250 09/09 A3019 RMK CI2 SLP224
CYHZ;2004-10-03 08:00;METAR CYHZ 030800Z 16006KT 10SM OVC014 10/09 A3018 RMK SC6 SLP222
CYHZ;2004-10-03 09:00;METAR CYHZ 030900Z 15007KT 10SM OVC014 09/09 A3018 RMK SC6 SLP221
CYHZ;2004-10-03 10:00;METAR CYHZ 031000Z 16009KT 15SM SCT014 BKN200 09/09 A3018 RMK SC3CI2 SLP223
CYHZ;2004-10-03 11:00;METAR CYHZ 031100Z 17009KT 15SM FEW014 BKN200 11/10 A3019 RMK SC1CI4 SLP224
CYHZ;2004-10-03 12:00;METAR CYHZ 031200Z 16007KT 15SM FEW050 BKN190 12/11 A3019 RMK SC2CI3 SLP225
CYHZ;2004-10-03 13:00;METAR CYHZ 031300Z 17009KT 15SM BKN008 BKN014 OVC040 14/12 A3020 RMK SF6SC2SC1 SLP229 SLP229
CYHZ;2004-10-03 14:00;METAR CYHZ 031400Z 18006KT 15SM BKN009 OVC016 14/12 A3020 RMK SF5SC3
CYHZ;2004-10-03 15:00;METAR CYHZ 031500Z 16007KT 15SM FEW010 OVC016 15/13 A3019 RMK SC2SC6 SLP227
CYHZ;2004-10-03 16:00;METAR CYHZ 031600Z 16007KT 15SM BKN009 OVC017 15/13 A3019 RMK SC6SC2
CYHZ;2004-10-03 17:00;METAR CYHZ 031700Z 16009KT 8SM -SHRA SCT007 OVC025 14/13 A3018 RMK SC4SC4 SLP221
CYHZ;2004-10-03 18:00;METAR CYHZ 031800Z 15007KT 6SM -SHRA BKN004 OVC024 14/13 A3018 RMK SF6SC2 SLP222
CYHZ;2004-10-03 19:00;METAR CYHZ 031900Z 15009KT 6SM BR BKN002 OVC005 13/13 A3017 RMK SF6SF2 SLP220
CYHZ;2004-10-03 21:00;METAR CYHZ 032100Z 15007KT 3SM BR OVC002 14/13 A3018 RMK SF8 SLP221
CYHZ;2004-10-03 22:00;METAR CYHZ 032200Z 15009KT 1SM R15/P6000FT/U R24/P6000FT BR OVC001 13/13 A3018 RMK FG2ST6 RVR RWY24 1 MINUTE MEAN SLP222 RMK FG2ST6 RVR RWY24 1 MINUTE MEAN SLP222
CYHZ;2004-10-03 23:00;METAR CYHZ 032300Z 14009KT 1SM R15/P6000FT/N R24/P6000FT BR OVC002 13/13 A3018 RMK FG2ST6 RVR RWY24 1 MINUTE MEAN SLP223 RMK FG2ST6 RVR RWY24 1 MINUTE MEAN SLP223
CYHZ;2004-10-04 00:00;METAR CYHZ 040000Z 15008KT 1 1/2SM BR OVC003 13/13 A3019 RMK SF8 SLP227
CYHZ;2004-10-04 01:00;METAR CYHZ 040100Z 15009KT 1 1/4SM BR OVC002 13/13 A3019 RMK SF8 SLP227
CYHZ;2004-10-04 02:00;METAR CYHZ 040200Z 15009KT 1 1/4SM BR OVC002 13/13 A3019 RMK SF8 SLP227 SLP225 SLP223 SLP221
CYHZ;2004-10-04 06:00;METAR CYHZ 040600Z 15011KT 4SM BR OVC003 13/13 A3018 RMK SF8 SLP221
CYHZ;2004-10-04 07:00;METAR CYHZ 040700Z 14010KT 10SM BKN003 OVC030 12/12 A3017 RMK SF6SC2 SLP219
CYHZ;2004-10-04 08:00;METAR CYHZ 040800Z 14010KT 12SM FEW003 BKN045 12/11 A3016 RMK SF2SC5 SLP217
CYHZ;2004-10-04 09:00;METAR CYHZ 040900Z 13010KT 12SM BKN004 OVC040 12/11 A3016 RMK SF6SC2
CYHZ;2004-10-04 10:00;METAR CYHZ 041000Z 13012G19KT 6SM BR OVC003 13/12 A3017 RMK SF8 SLP218
CYHZ;2004-10-04 12:00;METAR CYHZ 041200Z 14013KT 1 1/2SM -SHRA BR OVC003 13/13 A3018 RMK SF8
CYHZ;2004-10-04 13:00;METAR CYHZ 041300Z 13013KT 3SM BR BKN004 OVC008 13/13 A3019 RMK SF6SF2
CYHZ;2004-10-04 14:00;METAR CYHZ 041400Z 14016KT 10SM BKN006 OVC010 14/14 A3018 RMK SF6SC2 SLP222
CYHZ;2004-10-04 15:00;METAR CYHZ 041500Z 14017KT 10SM BKN008 OVC012 14/13 A3017 RMK SF6SC2 SLP220
CYHZ;2004-10-04 16:00;METAR CYHZ 041600Z 13014KT 15SM BKN010 BKN040 15/13 A3016 RMK SC6SC2 SLP214
CYHZ;2004-10-04 17:00;METAR CYHZ 041700Z 14016KT 15SM OVC010 14/13 A3015 RMK SC8 SLP212
CYHZ;2004-10-04 18:00;METAR CYHZ 041800Z 14014G19KT 15SM OVC010 15/13 A3013 RMK SC8 SLP203
CYHZ;2004-10-04 19:00;METAR CYHZ 041900Z 13012G17KT 15SM BKN008 OVC012 15/13 A3011 RMK SC6SC2 SLP197
CYHZ;2004-10-04 20:00;METAR CYHZ 042000Z 14015KT 15SM BKN008 BKN012 15/13 A3010 RMK SC6SC2 SLP194
CYHZ;2004-10-04 21:00;METAR CYHZ 042100Z 15013KT 15SM BKN008 BKN012 14/13 A3010 RMK SC5SC2 SLP193
CYHZ;2004-10-04 22:00;METAR CYHZ 042200Z 15012KT 15SM BKN009 BKN012 BKN025 14/13 A3009 RMK SC5SC2SC1 SLP192 SLP192
CYHZ;2004-10-04 23:00;METAR CYHZ 042300Z 13010KT 15SM BKN008 OVC016 14/13 A3008 RMK SC5SC3 SLP188
CYHZ;2004-10-05 00:00;METAR CYHZ 050000Z 13010G16KT 12SM BKN004 OVC010 14/13 A3007 RMK SF5SC3 SLP185
CYHZ;2004-10-05 01:00;METAR CYHZ 050100Z 13010KT 15SM BKN004 BKN015 OVC070 14/13 A3005 RMK SF5SC2AC2 SLP178 SLP178 SLP170 SLP165
CYHZ;2004-10-05 04:00;METAR CYHZ 050400Z 14013KT 1 1/2SM BR OVC002 14/14 A3000 RMK SF8 SLP160
CYHZ;2004-10-05 05:00;METAR CYHZ 050500Z 14009KT 1 1/2SM -SHRA BR OVC002 14/14 A2999 RMK SF8 SLP158
CYHZ;2004-10-05 06:00;METAR CYHZ 050600Z 15011KT 5/8SM R15/P6000FT/U -SHRA BR VV002 14/14 A2997 RMK FG8 SLP150 SLP150
CYHZ;2004-10-05 07:00;METAR CYHZ 050700Z 15007KT 4SM -SHRA BR OVC002 14/14 A2995 RMK SF8 SLP142
CYHZ;2004-10-05 08:00;METAR CYHZ 050800Z 14006KT 1 1/2SM -SHRA BR VV002 15/15 A2993 RMK FG8 SLP138
CYHZ;2004-10-05 09:00;METAR CYHZ 050900Z 14005KT 1 1/2SM -SHRA BR BKN004 OVC010 15/15 A2993 RMK SF6SC2 SLP135 SLP135
CYHZ;2004-10-05 10:00;METAR CYHZ 051000Z 29006KT 1SM R15/2600VP6000FT/D -SHRA BR VV002 14/14 A2993 RMK FG8 RERA SLP136 FG8 RERA SLP136
CYHZ;2004-10-05 11:00;METAR CYHZ 051100Z 33008KT 1SM R15/P6000FT/N -SHRA BR OVC004 13/13 A2994 RMK FG5SF3 SLP140 FG5SF3 SLP140 SLP140
CYHZ;2004-10-05 14:00;METAR CYHZ 051400Z 32011KT 1 1/2SM BR OVC003 13/13 A2993 RMK SF8 SLP137
CYHZ;2004-10-05 15:00;METAR CYHZ 051500Z 31014G19KT 6SM BR SCT004 BKN008 13/12 A2994 RMK SF3SC4
CYHZ;2004-10-05 16:00;METAR CYHZ 051600Z 34011KT 15SM FEW006 OVC010 13/11 A2994 RMK SF2SC6 SLP141
CYHZ;2004-10-05 17:00;METAR CYHZ 051700Z 32014KT 15SM FEW008 OVC015 12/11 A2995 RMK SF2SC6 SLP143
CYHZ;2004-10-05 18:00;METAR CYHZ 051800Z 33016KT 15SM BKN020 OVC035 13/10 A2996 RMK SC7SC1 SLP146
CYHZ;2004-10-05 19:00;METAR CYHZ 051900Z 32016KT 15SM VCSH SCT015 BKN024 13/10 A2998 RMK SC3SC4 SLP154
CYHZ;2004-10-05 20:00;METAR CYHZ 052000Z 32013KT 15SM SCT020 13/09 A3000 RMK SC4 SLP160
CYHZ;2004-10-05 21:00;METAR CYHZ 052100Z 31012G18KT 15SM BKN019 11/08 A3003 RMK SC6 SLP171
CYHZ;2004-10-05 22:00;METAR CYHZ 052200Z 29010KT 15SM SCT020 09/07 A3006 RMK SC4 SLP181
CYHZ;2004-10-05 23:00;METAR CYHZ 052300Z 31007KT 15SM FEW025 08/07 A3009 RMK SC1 SLP190
CYHZ;2004-10-06 00:00;METAR CYHZ 060000Z 33006KT 15SM FEW030 07/05 A3012 RMK SC1 SLP202
CYHZ;2004-10-06 01:00;METAR CYHZ 060100Z 32008KT 15SM FEW030 06/03 A3014 RMK SC1 SLP209
CYHZ;2004-10-06 02:00;METAR CYHZ 060200Z 34006KT 15SM SKC 05/02 A3017 RMK SLP221
CYHZ;2004-10-06 04:00;METAR CYHZ 060400Z 32010KT 15SM SKC 04/M00 A3022 RMK SLP236
CYHZ;2004-10-06 05:00;METAR CYHZ 060500Z 32009KT 15SM SKC 03/M01 A3024 RMK SLP244
CYHZ;2004-10-06 06:00;METAR CYHZ 060600Z 32006KT 15SM SKC 02/M01 A3025 RMK SLP247
CYHZ;2004-10-06 07:00;METAR CYHZ 060700Z 32008KT 15SM SKC 01/M01 A3025 RMK SLP249
CYHZ;2004-10-06 08:00;METAR CYHZ 060800Z 33009KT 15SM SKC 00/M02 A3026 RMK SLP251
CYHZ;2004-10-06 09:00;METAR CYHZ 060900Z 32006KT 15SM SKC M00/M02 A3028 RMK SLP257
CYHZ;2004-10-06 10:00;METAR CYHZ 061000Z 29004KT 15SM SKC M00/M03 A3030 RMK SLP264
CYHZ;2004-10-06 11:00;METAR CYHZ 061100Z 28005KT 15SM SKC 00/M01 A3031 RMK SLP268
CYHZ;2004-10-06 12:00;METAR CYHZ 061200Z 28005KT 15SM SKC 02/M01 A3032 RMK SLP273
CYHZ;2004-10-06 13:00;METAR CYHZ 061300Z 32005KT 15SM FEW020 FEW250 03/M01 A3034 RMK CF1CI1 SLP278
CYHZ;2004-10-06 14:00;METAR CYHZ 061400Z 29005KT 15SM FEW020 FEW250 05/M02 A3033 RMK CF1CI1 SLP277
CYHZ;2004-10-06 15:00;METAR CYHZ 061500Z 31007KT 15SM FEW250 06/M01 A3032 RMK CI1 SLP272
CYHZ;2004-10-06 16:00;METAR CYHZ 061600Z 31006KT 15SM BKN250 08/M01 A3031 RMK CI2 SLP267
CYHZ;2004-10-06 17:00;METAR CYHZ 061700Z 24005KT 15SM BKN250 09/M00 A3029 RMK CI2 SLP262
CYHZ;2004-10-06 18:00;METAR CYHZ 061800Z 30006KT 15SM BKN250 10/M01 A3029 RMK CI4 SLP261
CYHZ;2004-10-06 19:00;METAR CYHZ 061900Z 27005KT 15SM FEW140 BKN250 10/M01 A3028 RMK AC2CI2 SLP259
CYHZ;2004-10-06 20:00;METAR CYHZ 062000Z 29006KT 15SM FEW120 SCT250 10/M00 A3028 RMK AC1CI1 SLP257
CYHZ;2004-10-06 21:00;METAR CYHZ 062100Z 36004KT 15SM FEW120 SCT250 09/00 A3027 RMK AC2CI1 SLP256
CYHZ;2004-10-06 22:00;METAR CYHZ 062200Z 33004KT 15SM SCT100 SCT250 08/01 A3028 RMK AC2CI1
CYHZ;2004-10-06 23:00;METAR CYHZ 062300Z 26002KT 15SM FEW100 SCT250 06/02 A3030 RMK AC2CI1 SLP264
CYHZ;2004-10-07 00:00;METAR CYHZ 070000Z 01002KT 15SM BKN140 06/02 A3030 RMK AC4 SLP266
CYHZ;2004-10-07 01:00;METAR CYHZ 070100Z 00000KT 15SM BKN100 06/02 A3029 RMK AC4 SLP264
CYHZ;2004-10-07 02:00;METAR CYHZ 070200Z 28003KT 15SM BKN089 06/04 A3030 RMK AC7 SLP267
CYHZ;2004-10-07 03:00;METAR CYHZ 070300Z 24004KT 15SM BKN100 06/02 A3029 RMK AC6 SLP263
CYHZ;2004-10-07 04:00;METAR CYHZ 070400Z 27003KT 15SM FEW094 05/01 A3029 RMK AC2 SLP263
CYHZ;2004-10-07 05:00;METAR CYHZ 070500Z 24005KT 15SM FEW081 05/01 A3029 RMK AC2 SLP261
CYHZ;2004-10-07 06:00;METAR CYHZ 070600Z 23008KT 15SM FEW084 04/02 A3028 RMK AC1 SLP257
CYHZ;2004-10-07 07:00;METAR CYHZ 070700Z 21006KT 15SM SKC 03/02 A3027 RMK SLP256
CYHZ;2004-10-07 08:00;METAR CYHZ 070800Z 21006KT 15SM FEW250 04/02 A3027 RMK CI0 SLP256
CYHZ;2004-10-07 09:00;METAR CYHZ 070900Z 25003KT 15SM SKC 04/03 A3027 RMK SLP256
CYHZ;2004-10-07 10:00;METAR CYHZ 071000Z 23006KT 20SM FEW270 04/03 A3028 RMK CI0 SLP260
CYHZ;2004-10-07 11:00;METAR CYHZ 071100Z 25007KT 20SM BKN270 05/04 A3031 RMK CI3 SLP269
CYHZ;2004-10-07 12:00;METAR CYHZ 071200Z 28006KT 20SM OVC270 07/05 A3034 RMK CI3 SLP277
CYHZ;2004-10-07 13:00;METAR CYHZ 071300Z 30007KT 20SM BKN270 10/07 A3035 RMK CI2 SLP282
CYHZ;2004-10-07 14:00;METAR CYHZ 071400Z 32008KT 20SM FEW035 BKN270 12/08 A3035 RMK CF1CI2 SLP283
CYHZ;2004-10-07 15:00;METAR CYHZ 071500Z 29006KT 20SM FEW035 BKN270 13/08 A3035 RMK CF1CI2 SLP281
CYHZ;2004-10-07 16:00;METAR CYHZ 071600Z 29006KT 20SM FEW030 BKN270 15/08 A3034 RMK CU2CI1 SLP279
CYHZ;2004-10-07 17:00;METAR CYHZ 071700Z 31011KT 20SM FEW035 SCT270 15/07 A3033 RMK CU2CI1 SLP275
CYHZ;2004-10-07 18:00;METAR CYHZ 071800Z 32005KT 15SM FEW030 FEW270 16/06 A3033 RMK CU2CI1 SLP274
CYHZ;2004-10-07 19:00;METAR CYHZ 071900Z 28006KT 15SM FEW030 FEW270 16/05 A3033 RMK SC1CI1 SLP273
CYHZ;2004-10-07 20:00;METAR CYHZ 072000Z 30008KT 15SM FEW030 FEW270 16/05 A3034 RMK SC1CI1 SLP276
CYHZ;2004-10-07 21:00;METAR CYHZ 072100Z 33005KT 15SM FEW030 FEW270 14/06 A3034 RMK SC1CI1 SC TR
CYHZ;2004-10-07 22:00;METAR CYHZ 072200Z 34003KT 15SM FEW270 13/06 A3036 RMK CI1 SLP283
CYHZ;2004-10-07 23:00;METAR CYHZ 072300Z 00000KT 15SM FEW270 11/06 A3037 RMK CI0 SLP289
CYHZ;2004-10-08 00:00;METAR CYHZ 080000Z 20005KT 15SM FEW270 11/09 A3038 RMK CI0 SLP291
CYHZ;2004-10-08 01:00;METAR CYHZ 080100Z 21005KT 15SM SKC 11/10 A3039 RMK SLP293
CYHZ;2004-10-08 02:00;METAR CYHZ 080200Z 21005KT 15SM SKC 10/10 A3039 RMK SLP294
CYHZ;2004-10-08 03:00;METAR CYHZ 080300Z 20005KT 15SM SKC 10/10 A3039 RMK SLP294
CYHZ;2004-10-08 04:00;METAR CYHZ 080400Z 24005KT 15SM SKC 11/08 A3039 RMK SLP295
CYHZ;2004-10-08 05:00;METAR CYHZ 080500Z 24005KT 15SM FEW110 11/05 A3040 RMK AC1 SLP298
CYHZ;2004-10-08 06:00;METAR CYHZ 080600Z 22004KT 15SM SKC 09/05 A3039 RMK SLP294
CYHZ;2004-10-08 07:00;METAR CYHZ 080700Z 20004KT 15SM FEW110 09/05 A3039 RMK AC1 SLP292
CYHZ;2004-10-08 08:00;METAR CYHZ 080800Z 20004KT 15SM FEW110 09/05 A3038 RMK AC1 SLP291
CYHZ;2004-10-08 09:00;METAR CYHZ 080900Z 19004KT 15SM SKC 08/05 A3039 RMK SLP293
CYHZ;2004-10-08 10:00;METAR CYHZ 081000Z 20005KT 15SM MIFG FEW250 08/05 A3039 RMK CI0 SLP293
CYHZ;2004-10-08 11:00;METAR CYHZ 081100Z 20009KT 15SM FEW250 09/06 A3039 RMK CI0 SLP295
CYHZ;2004-10-08 12:00;METAR CYHZ 081200Z 22011KT 15SM FEW250 10/06 A3040 RMK CI1 SLP298
CYHZ;2004-10-08 13:00;METAR CYHZ 081300Z 24006KT 15SM FEW250 13/06 A3041 RMK CI1 SLP302
CYHZ;2004-10-08 14:00;METAR CYHZ 081400Z 24014KT 15SM FEW250 15/06 A3040 RMK CI1 SLP299
CYHZ;2004-10-08 15:00;METAR CYHZ 081500Z 16011G17KT 15SM FEW250 17/06 A3040 RMK CI2 SLP295
CYHZ;2004-10-08 16:00;METAR CYHZ 081600Z 21015KT 15SM SCT250 18/07 A3037 RMK CI2 SLP288
CYHZ;2004-10-08 17:00;METAR CYHZ 081700Z 23011KT 15SM BKN250 18/07 A3035 RMK CI3 SLP280
CYHZ;2004-10-08 18:00;METAR CYHZ 081800Z 23011G16KT 15SM FEW280 19/08 A3033 RMK CI2 SLP273
CYHZ;2004-10-08 19:00;METAR CYHZ 081900Z 22013KT 15SM BKN280 19/08 A3032 RMK CI3 SLP268
CYHZ;2004-10-08 20:00;METAR CYHZ 082000Z 21014KT 15SM BKN280 18/10 A3031 RMK CI2 SLP267
CYHZ;2004-10-08 21:00;METAR CYHZ 082100Z 20010KT 15SM BKN280 17/11 A3031 RMK CI1 SLP266
CYHZ;2004-10-08 22:00;METAR CYHZ 082200Z 19010KT 15SM BKN280 14/11 A3031 RMK CI1 SLP266
CYHZ;2004-10-08 23:00;METAR CYHZ 082300Z 19011KT 15SM BKN280 13/10 A3031 RMK CI1 SLP268
CYHZ;2004-10-09 00:00;METAR CYHZ 090000Z 21008KT 15SM FEW280 13/10 A3032 RMK CI1 SLP271
CYHZ;2004-10-09 01:00;METAR CYHZ 090100Z 22008KT 15SM FEW280 12/10 A3032 RMK CI1 SLP269
CYHZ;2004-10-09 02:00;METAR CYHZ 090200Z 22010KT 15SM FEW280 11/09 A3033 RMK CI1 SLP272
CYHZ;2004-10-09 03:00;METAR CYHZ 090300Z 21010KT 15SM SKC 11/09 A3031 RMK SLP266
CYHZ;2004-10-09 04:00;METAR CYHZ 090400Z 22010KT 15SM SKC 10/08 A3032 RMK SLP268
CYHZ;2004-10-09 05:00;METAR CYHZ 090500Z 22007KT 15SM SKC 10/07 A3032 RMK SLP268
CYHZ;2004-10-09 06:00;METAR CYHZ 090600Z 20007KT 15SM SKC 09/07 A3031 RMK SLP264
CYHZ;2004-10-09 07:00;METAR CYHZ 090700Z 20008KT 15SM FEW280 09/07 A3029 RMK CI1 SLP260
CYHZ;2004-10-09 08:00;METAR CYHZ 090800Z 21007KT 15SM FEW280 09/07 A3028 RMK CI1 SLP257
CYHZ;2004-10-09 09:00;METAR CYHZ 090900Z 21010KT 15SM FEW280 10/09 A3028 RMK CI1 SLP257
CYHZ;2004-10-09 10:00;METAR CYHZ 091000Z 21010KT 4SM BR FEW001 FEW280 10/09 A3028 RMK SF1CI1 SLP255
CYHZ;2004-10-09 11:00;METAR CYHZ 091100Z 21010KT 1/4SM R15/P6000FT/N FG VV001 10/10 A3028 RMK FG8 RVR R24 1400 RVR R24 1 MINUTE MEAN SLP255 R24 1400 RVR R24 1 MINUTE MEAN SLP255
CYHZ;2004-10-09 12:00;METAR CYHZ 091200Z 22013KT 1 1/4SM BR BKN001 11/11 A3029 RMK SF7 SLP259
CYHZ;2004-10-09 13:00;METAR CYHZ 091300Z 22013KT 10SM BKN002 12/12 A3028 RMK SF7 SLP258
CYHZ;2004-10-09 14:00;METAR CYHZ 091400Z 22013KT 15SM SCT010 BKN280 14/12 A3027 RMK SF3CI2 SLP254
CYHZ;2004-10-09 15:00;METAR CYHZ 091500Z 21013G19KT 15SM FEW020 BKN270 16/11 A3026 RMK CU1CI2 SLP249
CYHZ;2004-10-09 16:00;METAR CYHZ 091600Z 21014G20KT 15SM FEW025 BKN270 18/10 A3024 RMK CU1CI2 TR CU SLP241 SLP241
CYHZ;2004-10-09 17:00;METAR CYHZ 091700Z 21017KT 15SM FEW025 BKN270 18/08 A3022 RMK CU1CI2 TR CU SLP235
CYHZ;2004-10-09 18:00;METAR CYHZ 091800Z 20015G21KT 15SM BKN270 19/09 A3020 RMK CI2 SLP228
CYHZ;2004-10-09 19:00;METAR CYHZ 091900Z 19012G17KT 15SM OVC270 18/10 A3019 RMK CI2 SLP224
CYHZ;2004-10-09 20:00;METAR CYHZ 092000Z 20018KT 15SM FEW010 OVC270 17/11 A3018 RMK CF1CI2 SLP221
CYHZ;2004-10-09 21:00;METAR CYHZ 092100Z 20011G17KT 15SM FEW015 BKN270 16/12 A3017 RMK SC1CI2 SLP220
CYHZ;2004-10-09 22:00;METAR CYHZ 092200Z 19012KT 15SM FEW010 OVC270 15/13 A3018 RMK SF1CI1
CYHZ;2004-10-09 23:00;METAR CYHZ 092300Z 19010KT 15SM BKN009 OVC270 14/13 A3018 RMK SF3CI2
CYHZ;2004-10-10 00:00;METAR CYHZ 100000Z 20010KT 10SM OVC007 14/13 A3018 RMK SF8 SLP222
CYHZ;2004-10-10 01:00;METAR CYHZ 100100Z 19009KT 15SM BKN006 OVC270 14/13 A3018 RMK SF4CI1 SLP222
CYHZ;2004-10-10 02:00;METAR CYHZ 100200Z 21011KT 15SM OVC005 14/14 A3017 RMK SF8 SLP220
CYHZ;2004-10-10 03:00;METAR CYHZ 100300Z 21013G18KT 15SM OVC005 15/14 A3016 RMK SF8 SLP216
CYHZ;2004-10-10 04:00;METAR CYHZ 100400Z 20010G16KT 15SM OVC005 15/14 A3015 RMK SF8 SLP211
CYHZ;2004-10-10 05:00;METAR CYHZ 100500Z 20009KT 10SM OVC004 15/14 A3014 RMK SF8 SLP208
CYHZ;2004-10-10 06:00;METAR CYHZ 100600Z 18009KT 8SM OVC002 15/15 A3012 RMK SF8 SLP200
CYHZ;2004-10-10 07:00;METAR CYHZ 100700Z 17010KT 1SM R15/P6000FT/N BR VV001 15/15 A3011 RMK FG8 SLP195
CYHZ;2004-10-10 08:00;METAR CYHZ 100800Z 17009KT 1SM R15/P6000FT/N BR VV001 15/15 A3009 RMK FG8 SLP191
CYHZ;2004-10-10 09:00;METAR CYHZ 100900Z 17008KT 2SM -SHRA BR OVC003 16/15 A3008 RMK SF8 SLP186
CYHZ;2004-10-10 10:00;METAR CYHZ 101000Z 18012KT 10SM FEW006 SCT010 SCT065 15/15 A3006 RMK SF2SC1SC1 SLP181 SLP181
CYHZ;2004-10-10 11:00;METAR CYHZ 101100Z 18009KT 15SM FEW008 BKN048 15/15 A3006 RMK SF1SC6
CYHZ;2004-10-10 12:00;METAR CYHZ 101200Z 18010KT 15SM FEW028 BKN057 16/13 A3007 RMK SC2SC6 SLP184
CYHZ;2004-10-10 13:00;METAR CYHZ 101300Z 19011KT 15SM FEW030 BKN070 BKN250 18/13 A3006 RMK SC2AC4CS1 SLP180 SLP180
CYHZ;2004-10-10 14:00;METAR CYHZ 101400Z 19013KT 15SM FEW030 BKN250 19/13 A3005 RMK SC2CS4 SLP177
CYHZ;2004-10-10 15:00;METAR CYHZ 101500Z 18018G25KT 15SM SCT049 BKN070 BKN250 20/12 A3004 RMK SC3AC2CS2 SLP174 SLP174
CYHZ;2004-10-10 16:00;METAR CYHZ 101600Z 18016G24KT 15SM BKN044 OVC250 20/12 A3002 RMK SC6CS2 SLP165
CYHZ;2004-10-10 17:00;METAR CYHZ 101700Z 16015KT 15SM BKN040 OVC250 19/13 A2999 RMK SC5CS2 SLP157
CYHZ;2004-10-10 18:00;METAR CYHZ 101800Z 19012G21KT 15SM SCT045 OVC250 18/14 A2998 RMK SC3CS4 SLP153
CYHZ;2004-10-10 19:00;METAR CYHZ 101900Z 18015KT 15SM FEW020 SCT045 OVC250 18/15 A2994 RMK CF1SC2CS4 SLP139 SLP139
CYHZ;2004-10-10 20:00;METAR CYHZ 102000Z 19009KT 15SM BKN013 BKN030 OVC250 17/15 A2994 RMK SC5SC2CS1 SLP139
CYHZ;2004-10-10 21:00;METAR CYHZ 102100Z 17010KT 12SM BKN012 OVC030 16/15 A2992 RMK SC5SC3 SLP133
CYHZ;2004-10-10 22:00;METAR CYHZ 102200Z 16006KT 12SM SCT008 BKN035 OVC065 16/15 A2993 RMK SF3SC3SC2 SLP135 SLP135
CYHZ;2004-10-10 23:00;METAR CYHZ 102300Z 14005KT 12SM BKN009 OVC040 15/14 A2992 RMK SF5SC3 SLP131
CYHZ;2004-10-11 00:00;METAR CYHZ 110000Z 13004KT 12SM FEW008 SCT040 OVC060 15/14 A2989 RMK SF2SC2SC4 SLP123 SLP123
CYHZ;2004-10-11 01:00;METAR CYHZ 110100Z 04003KT 15SM FEW008 SCT040 BKN060 OVC190 15/14 A2989 RMK SF2SC2SC4CI1 SLP123
CYHZ;2004-10-11 02:00;METAR CYHZ 110200Z 06004KT 12SM BKN008 OVC030 15/14 A2988 RMK SF6SC2 SLP118
CYHZ;2004-10-11 03:00;METAR CYHZ 110300Z 01003KT 12SM OVC006 14/14 A2986 RMK SF8 SLP111
CYHZ;2004-10-11 04:00;METAR CYHZ 110400Z 03004KT 8SM OVC005 14/14 A2984 RMK SF8 VIS LWR S SLP104
CYHZ;2004-10-11 05:00;METAR CYHZ 110500Z 05004KT 1 1/2SM BR OVC003 14/14 A2984 RMK SF8 CIG RAG SLP104
CYHZ;2004-10-11 06:00;METAR CYHZ 110600Z 03004KT 2 1/2SM BR OVC003 14/14 A2982 RMK SF8 SLP098
CYHZ;2004-10-11 07:00;METAR CYHZ 110700Z 35008KT 2 1/2SM BR OVC002 14/14 A2980 RMK SF8 SLP093
CYHZ;2004-10-11 08:00;METAR CYHZ 110800Z 01009KT 4SM BR BKN002 OVC010 14/14 A2978 RMK SF6SC2 SLP085
CYHZ;2004-10-11 09:00;METAR CYHZ 110900Z 01008KT 8SM BKN002 OVC007 14/14 A2978 RMK SF6SF2 SLP085
CYHZ;2004-10-11 10:00;METAR CYHZ 111000Z 02011G16KT 3SM BR OVC002 14/13 A2977 RMK ST8 SLP081
CYHZ;2004-10-11 11:00;METAR CYHZ 111100Z 01009G17KT 8SM BKN004 OVC010 14/14 A2978 RMK SF6SC2
CYHZ;2004-10-11 12:00;METAR CYHZ 111200Z 01010KT 12SM BKN008 OVC014 14/14 A2981 RMK SF5SC3 SLP097
CYHZ;2004-10-11 13:00;METAR CYHZ 111300Z 01015KT 15SM BKN012 BKN040 15/13 A2977 RMK SC6SC2 SLP083
CYHZ;2004-10-11 14:00;METAR CYHZ 111400Z 02019G26KT 15SM FEW012 SCT020 OVC039 16/13 A2972 RMK SF1SC2SC5 SLP067 SLP067
CYHZ;2004-10-11 15:00;METAR CYHZ 111500Z 02014G21KT 15SM OVC024 16/12 A2972 RMK SC8 SLP066
CYHZ;2004-10-11 16:00;METAR CYHZ 111600Z 01022G27KT 8SM -SHRA OVC020 15/12 A2968 RMK SC8 SLP051
CYHZ;2004-10-11 17:00;METAR CYHZ 111700Z 01017G34KT 10SM -SHRA OVC014 15/12 A2963 RMK SC8 SLP035
CYHZ;2004-10-11 18:00;METAR CYHZ 111800Z 02022G29KT 1SM R15/5000FT/N -SHRA BR SCT005 OVC012 13/13 A2960 RMK FG2SF2SC4 SLP026 RMK FG2SF2SC4 SLP026
CYHZ;2004-10-11 19:00;METAR CYHZ 111900Z 02022G29KT 2 1/2SM -SHRA BR BKN006 OVC015 13/12 A2959 RMK SF5SC3 SLP020 SF5SC3 SLP020
CYHZ;2004-10-11 20:00;METAR CYHZ 112000Z 02018G26KT 2SM -SHRA BR BKN005 OVC015 12/12 A2956 RMK SF6SC2 SLP012 SLP012
CYHZ;2004-10-11 21:00;METAR CYHZ 112100Z 01018G27KT 2 1/2SM -SHRA BR BKN005 OVC015 12/12 A2952 RMK SF6SC2 SLP996 SF6SC2 SLP996
CYHZ;2004-10-11 22:00;METAR CYHZ 112200Z 36021G29KT 3SM -SHRA BR BKN004 OVC012 12/12 A2947 RMK SF6SC2 SLP980 SLP980
CYHZ;2004-10-11 23:00;METAR CYHZ 112300Z 01019G31KT 5SM -SHRA BR BKN004 OVC015 12/12 A2943 RMK SF6SC2 SLP966 SLP966
CYHZ;2004-10-12 00:00;METAR CYHZ 120000Z 02022KT 1 1/2SM -SHRA BR OVC004 12/12 A2938 RMK SF8 SLP949
CYHZ;2004-10-12 01:00;METAR CYHZ 120100Z 01024G34KT 2SM -SHRA BR OVC004 12/12 A2929 RMK SF8 PRESFR SLP920 SLP920
CYHZ;2004-10-12 02:00;METAR CYHZ 120200Z 03019G29KT 4SM -SHRA BR BKN004 OVC010 13/13 A2924
CYHZ;2004-10-12 03:00;METAR CYHZ 120300Z 03022G30KT 4SM -SHRA BR BKN004 OVC009 13/13 A2918
CYHZ;2004-10-12 04:00;METAR CYHZ 120400Z 04021G31KT 3SM -SHRA BR BKN005 OVC009 14/14 A2915 RMK SF6SF2 CIG RAG SLP872 CIG RAG SLP872
CYHZ;2004-10-12 05:00;METAR CYHZ 120500Z 05017G22KT 3SM -RA BR BKN005 OVC009 14/14 A2916 RMK SF6SF2 CIG RAG SLP876 RAG SLP876 SF6SF2 CIG RAG SLP882 CIG RAG SLP882 SF6SF2 SLP883 SLP883 SF6SC2 SLP881 SLP881 CIG RAG SLP876 SLP876
CYHZ;2004-10-12 10:00;METAR CYHZ 121000Z 04016KT 1 1/2SM -RA BR BKN004 OVC018 15/15 A2913 RMK SF7SC1 SLP866 SLP866
CYHZ;2004-10-12 11:00;METAR CYHZ 121100Z 09012G17KT 1SM R15/5000FT/D -RA BR OVC005 16/16 A2913 RMK SF8 SLP867 SLP867
CYHZ;2004-10-12 12:00;METAR CYHZ 121200Z 12016KT 15SM BKN010 OVC020 14/14 A2916 RMK SF6SC2 SLP877
CYHZ;2004-10-12 13:00;METAR CYHZ 121300Z 11012G18KT 10SM -RA OVC007 14/13 A2918 RMK SF8 SLP883
CYHZ;2004-10-12 14:00;METAR CYHZ 121400Z 11014G24KT 15SM SCT010 BKN030 OVC078 14/13 A2918 RMK SF3SC2AC3 SLP883
CYHZ;2004-10-12 15:00;METAR CYHZ 121500Z 10019G24KT 15SM BKN022 BKN280 15/12 A2917 RMK SC6CI1 SLP879
CYHZ;2004-10-12 16:00;METAR CYHZ 121600Z 10018G25KT 15SM BKN020 BKN080 15/11 A2915 RMK SC7AC1 SLP872
CYHZ;2004-10-12 17:00;METAR CYHZ 121700Z 08015G26KT 15SM -RA OVC018 14/12 A2912 RMK SC8 SLP861
CYHZ;2004-10-12 18:00;METAR CYHZ 121800Z 08018G24KT 4SM -SHRA BR BKN013 OVC025 14/12 A2909 RMK SC6SC2 SLP850 SLP850
CYHZ;2004-10-12 19:00;METAR CYHZ 121900Z 07014G21KT 1 1/2SM R15/6000FT/N -SHRA BR OVC008 13/12 A2907 RMK SF8 SLP846 RMK SF8 SLP846
CYHZ;2004-10-12 20:00;METAR CYHZ 122000Z 08013G18KT 1 1/2SM -RA BR OVC008 13/13 A2906 RMK SF8 SLP841
CYHZ;2004-10-12 21:00;METAR CYHZ 122100Z 09010G16KT 4SM -RA BR BKN007 OVC018 13/12 A2906 RMK SF6SC2 SLP841
CYHZ;2004-10-12 22:00;METAR CYHZ 122200Z 08009KT 2SM -RA BR OVC007 13/12 A2906 RMK SF8 SLP842
CYHZ;2004-10-12 23:00;METAR CYHZ 122300Z 05010KT 2SM -RA BR BKN006 OVC015 13/12 A2905 RMK SF7SC1 SLP838
CYHZ;2004-10-13 00:00;METAR CYHZ 130000Z 02014KT 2SM -RA BR OVC006 12/12 A2904 RMK SF8 SLP833
CYHZ;2004-10-13 01:00;METAR CYHZ 130100Z 36015KT 1 1/2SM -RA BR OVC002 12/12 A2902 RMK SF8 SLP827
CYHZ;2004-10-13 02:00;METAR CYHZ 130200Z 32016G21KT 3/4SM R15/4000VP6000FT/D -RA BR VV002 12/12 A2902 RMK FG8 SLP829 RMK FG8 SLP829
CYHZ;2004-10-13 03:00;METAR CYHZ 130300Z 29010G16KT 1 3/4SM -RADZ BR OVC003 12/12 A2907 RMK SF8 SLP845
CYHZ;2004-10-13 04:00;METAR CYHZ 130400Z 25012G17KT 3SM -RADZ BR BKN003 OVC006 12/12 A2912 RMK SF6SF2 SLP860 SLP860
CYHZ;2004-10-13 05:00;METAR CYHZ 130500Z 26014KT 3SM -RADZ BR OVC005 12/12 A2916 RMK SF8 CIG RAG SLP874
CYHZ;2004-10-13 06:00;METAR CYHZ 130600Z 25013G18KT 8SM OVC004 11/11 A2919 RMK SF8 SLP886
CYHZ;2004-10-13 07:00;METAR CYHZ 130700Z 26013G20KT 10SM OVC005 10/10 A2922 RMK SF8 SLP895
CYHZ;2004-10-13 08:00;METAR CYHZ 130800Z 26014KT 12SM OVC006 10/09 A2925 RMK SF8 SLP907
CYHZ;2004-10-13 09:00;METAR CYHZ 130900Z 25008G18KT 12SM OVC007 10/09 A2928 RMK SF8 SLP918
CYHZ;2004-10-13 10:00;METAR CYHZ 131000Z 25010KT 12SM OVC008 09/09 A2932 RMK SF8 SLP929
CYHZ;2004-10-13 11:00;METAR CYHZ 131100Z 26011KT 15SM OVC009 09/09 A2935 RMK SF8 SLP939
CYHZ;2004-10-13 12:00;METAR CYHZ 131200Z 26010KT 12SM OVC007 10/09 A2938 RMK SF8 SLP951
CYHZ;2004-10-13 13:00;METAR CYHZ 131300Z 27013KT 15SM OVC007 10/09 A2941 RMK SF8 SLP960
CYHZ;2004-10-13 14:00;METAR CYHZ 131400Z 29010KT 15SM OVC008 10/09 A2943 RMK SF8 SLP967
CYHZ;2004-10-13 15:00;METAR CYHZ 131500Z 27009KT 15SM BKN009 11/10 A2944 RMK SF7 SLP972
CYHZ;2004-10-13 16:00;METAR CYHZ 131600Z 27010KT 15SM OVC010 11/09 A2946 RMK SC8 SLP977
CYHZ;2004-10-13 17:00;METAR CYHZ 131700Z 28010KT 15SM OVC010 12/10 A2946 RMK SC8 SLP979
CYHZ;2004-10-13 18:00;METAR CYHZ 131800Z 28009KT 15SM OVC010 11/10 A2948 RMK SC8 SLP985
CYHZ;2004-10-13 19:00;METAR CYHZ 131900Z 31008KT 15SM OVC010 11/09 A2951 RMK SC8 SLP993
CYHZ;2004-10-13 20:00;METAR CYHZ 132000Z 31010KT 15SM OVC008 11/09 A2952 RMK SC8 SLP998
CYHZ;2004-10-13 21:00;METAR CYHZ 132100Z 30007KT 15SM BKN013 BKN030 11/09 A2955 RMK SC5SC2 SLP007
CYHZ;2004-10-13 22:00;METAR CYHZ 132200Z 31007KT 15SM OVC011 10/09 A2957 RMK SC8 SLP016
CYHZ;2004-10-13 23:00;METAR CYHZ 132300Z 29007KT 15SM OVC010 10/09 A2960 RMK SC8 SLP025
CYHZ;2004-10-14 00:00;METAR CYHZ 140000Z 27005KT 15SM FEW012 OVC018 10/09 A2961 RMK SC2SC6 SLP029
CYHZ;2004-10-14 01:00;METAR CYHZ 140100Z 29006KT 15SM BKN008 OVC018 10/09 A2962 RMK SC6SC2 SLP034
CYHZ;2004-10-14 02:00;METAR CYHZ 140200Z 27006KT 15SM FEW008 OVC018 10/09 A2963 RMK SF2SC6 SLP037
CYHZ;2004-10-14 03:00;METAR CYHZ 140300Z 25007KT 15SM SCT018 BKN029 10/09 A2964 RMK SC3SC4 SLP041
CYHZ;2004-10-14 04:00;METAR CYHZ 140400Z 24007KT 15SM OVC022 10/09 A2966 RMK SC8 SLP045
CYHZ;2004-10-14 05:00;METAR CYHZ 140500Z 24005KT 15SM OVC018 10/09 A2967 RMK SC8 SLP049
CYHZ;2004-10-14 06:00;METAR CYHZ 140600Z 25005KT 15SM OVC017 10/09 A2967 RMK SC8 SLP050
CYHZ;2004-10-14 07:00;METAR CYHZ 140700Z 26006KT 15SM OVC018 10/09 A2967 RMK SC8 SLP051
CYHZ;2004-10-14 08:00;METAR CYHZ 140800Z 25005KT 15SM OVC016 10/09 A2968 RMK SC8 SLP054
CYHZ;2004-10-14 09:00;METAR CYHZ 140900Z 26005KT 15SM OVC016 10/09 A2970 RMK SC8 SLP061
CYHZ;2004-10-14 10:00;METAR CYHZ 141000Z 27005KT 15SM OVC013 10/08 A2971 RMK SC8 SLP064
CYHZ;2004-10-14 11:00;METAR CYHZ 141100Z 28003KT 15SM FEW015 FEW250 09/07 A2974 RMK SC1CI0 SLP073
CYHZ;2004-10-14 12:00;METAR CYHZ 141200Z 00000KT 15SM FEW015 FEW070 FEW250 10/08 A2976 RMK SC1AC1CI1 SLP079 SLP079
CYHZ;2004-10-14 13:00;METAR CYHZ 141300Z 22004KT 15SM FEW014 FEW100 FEW250 12/08 A2977 RMK SC1AC1CI1 SLP082 SLP082
CYHZ;2004-10-14 14:00;METAR CYHZ 141400Z 30004KT 15SM FEW018 SCT250 13/08 A2977 RMK SC1CI1
CYHZ;2004-10-14 15:00;METAR CYHZ 141500Z 23002KT 15SM FEW020 FEW100 BKN250 14/09 A2978 RMK SC1AC1CI3 SLP085 SLP085
CYHZ;2004-10-14 16:00;METAR CYHZ 141600Z 19002KT 15SM FEW020 FEW100 OVC250 14/09 A2978 RMK SC1AC2CI3 SLP085
CYHZ;2004-10-14 17:00;METAR CYHZ 141700Z 21006KT 15SM FEW020 SCT180 OVC250 15/09 A2979 RMK SC1AC2CI4 SLP089 SLP089
CYHZ;2004-10-14 18:00;METAR CYHZ 141800Z 26007KT 15SM FEW020 BKN210 16/10 A2979 RMK SC1CI6 SLP090
CYHZ;2004-10-14 21:00;METAR CYHZ 142100Z 09003KT 15SM BKN017 BKN250 15/10 A2981 RMK AC6CI0
CYHZ;2004-10-14 22:00;METAR CYHZ 142200Z 14007KT 15SM BKN160 BKN250 13/10 A2982 RMK AC6CI0 SLP100
CYHZ;2004-10-14 23:00;METAR CYHZ 142300Z 15007KT 15SM BKN170 12/10 A2984 RMK AC7 SLP107
CYHZ;2004-10-15 00:00;METAR CYHZ 150000Z 12006KT 15SM FEW160 11/10 A2984 RMK AC2 SLP106
CYHZ;2004-10-15 01:00;METAR CYHZ 150100Z 15007KT 15SM FEW160 10/10 A2985 RMK AC1 SLP112
CYHZ;2004-10-15 02:00;METAR CYHZ 150200Z 12006KT 2SM BR FEW007 FEW160 10/10 A2986 RMK SF1AC1 SLP114
CYHZ;2004-10-15 03:00;METAR CYHZ 150300Z 12008KT 1/4SM R15/4000VP6000FT/D FG VV001 10/10 A2986 RMK FG8 SLP113 SLP113
CYHZ;2004-10-15 04:00;METAR CYHZ 150400Z 12005KT 1/8SM R15/2400FT/N FG VV001 09/09 A2987 RMK FG8 SLP116
CYHZ;2004-10-15 05:00;METAR CYHZ 150500Z 12007KT 1/8SM R15/2000FT/U FG VV001 11/11 A2987 RMK FG8 SLP115
CYHZ;2004-10-15 06:00;METAR CYHZ 150600Z 11011KT 1/4SM R15/4000VP6000FT/U FG VV001 11/11 A2985 RMK FG8 SLP111 SLP111
CYHZ;2004-10-15 07:00;METAR CYHZ 150700Z 11011KT 1 1/2SM BR VV002 11/11 A2984 RMK FG8 SLP107
CYHZ;2004-10-15 08:00;METAR CYHZ 150800Z 11011G16KT 6SM -SHRA BR SCT002 OVC071 11/11 A2983 RMK SF3AC5 SLP103 SLP103
CYHZ;2004-10-15 09:00;METAR CYHZ 150900Z 10011G17KT 6SM -RA BR FEW002 BKN022 OVC070 11/11 A2983 RMK SF2SC4AC2 SLP103 SF2SC4AC2 SLP103
CYHZ;2004-10-15 12:00;METAR CYHZ 151200Z 11013G19KT 1 1/2SM -RA BR OVC002 13/13 A2981 RMK FG3ST5 SLP097
CYHZ;2004-10-15 13:00;METAR CYHZ 151300Z 11015G20KT 2SM -SHRA BR OVC003 13/13 A2981 RMK FG1ST7 SLP096
CYHZ;2004-10-15 14:00;METAR CYHZ 151400Z 11010G16KT 2SM -SHRA BR OVC003 14/14 A2981 RMK FG2ST6 SLP095
CYHZ;2004-10-15 15:00;METAR CYHZ 151500Z 11012G18KT 1SM R15/4500VP6000FT/U SHRA BR OVC003 15/15 A2980 RMK FG2NS6 CIG RAG /R18/ SLP092 RMK FG2NS6 CIG RAG /R18/ SLP092
CYHZ;2004-10-15 16:00;METAR CYHZ 151600Z 12013KT 1SM R15/P6000FT/N SHRA BR BKN004 OVC010 16/15 A2978 RMK FG2SF5NS2 CIG RAG SLP087 RMK FG2SF5NS2 CIG RAG SLP087
CYHZ;2004-10-15 17:00;METAR CYHZ 151700Z 13011G17KT 0SM R15/2200FT/N FG VV000 16/16 A2977 RMK FG8 /R29/ SLP082 SLP082 FG8 SLP082
CYHZ;2004-10-15 19:00;METAR CYHZ 151900Z 14010G15KT 1/8SM R15/6000FT/D -SHRA FG VV001 16/16 A2977 RMK FG8 SLP082 FG8 SLP083 SLP083
CYHZ;2004-10-15 21:00;METAR CYHZ 152100Z 13011KT 1/8SM R15/P6000FT/D DZ FG VV001 16/16 A2976 RMK FG8 SLP080 SLP080
CYHZ;2004-10-15 22:00;METAR CYHZ 152200Z 14011KT 1/4SM R15/P6000FT/D FG VV001 15/15 A2978 RMK FG8 SLP086 FG8 SLP089 SLP089 FG8 SLP091 SLP091 FG8 SLP094 SLP094 FG8 SLP090 SLP090 FG8 SLP088 SLP088 FG8 SLP084 SLP084 FG8 SLP078 SLP078
CYHZ;2004-10-16 09:00;METAR CYHZ 160900Z 13010G16KT 1/4SM R15/3000FT/N FG VV001 16/16 A2969 RMK FG8 SLP054 SLP054
CYHZ;2004-10-16 10:00;METAR CYHZ 161000Z 14012G18KT 0SM R15/1600FT/N FG VV000 16/16 A2968 RMK FG8 SLP051
CYHZ;2004-10-16 11:00;METAR CYHZ 161100Z 14010G16KT 0SM R15/1400FT/N FG VV000 16/16 A2966 RMK FG8 SLP045
CYHZ;2004-10-16 12:00;METAR CYHZ 161200Z 14014G19KT 0SM R15/1400FT/N FG VV000 17/17 A2963 RMK FG8 SLP036
CYHZ;2004-10-16 14:00;METAR CYHZ 161400Z 16023G29KT 2SM -SHRA BR OVC004 18/18 A2958 RMK ST8 CIG RAG SLP017 SLP017
CYHZ;2004-10-16 15:00;METAR CYHZ 161500Z 17028G37KT 1 1/4SM SHRA BR BKN004 OVC007 18/18 A2957 RMK FG2SF5NS1 SLP012
CYHZ;2004-10-16 16:00;METAR CYHZ 161600Z 18022G33KT 1 1/2SM SHRA BR BKN005 OVC015TCU 17/17 A2954 RMK FG2SF5TCU1 CIG RAG SLP003 FG2SF5TCU1 CIG RAG SLP003
CYHZ;2004-10-16 17:00;METAR CYHZ 161700Z 18019G25KT 5SM BR OVC004 17/17 A2953 RERA RMK FG1ST7 CIG RAG SLP000 SLP000
CYHZ;2004-10-16 18:00;METAR CYHZ 161800Z 19021G31KT 10SM BKN012 16/15 A2952 RMK SC7 RA NW QUAD SLP997
CYHZ;2004-10-16 19:00;METAR CYHZ 161900Z 19016G21KT 10SM OVC010 16/15 A2959 RMK SC8 PRESRR SLP020
CYHZ;2004-10-16 20:00;METAR CYHZ 162000Z 19013KT 10SM BKN010 16/15 A2961 RMK SC6 CIG VRB 700-1300 SLP027
CYHZ;2004-10-16 21:00;METAR CYHZ 162100Z 20019G24KT 10SM OVC009 15/13 A2965 RMK SC7 SLP042
CYHZ;2004-10-16 22:00;METAR CYHZ 162200Z 17008KT 15SM FEW008 13/12 A2966 RMK SC2 SLP043
CYHZ;2004-10-16 23:00;METAR CYHZ 162300Z 18011KT 15SM FEW008 13/12 A2968 RMK SC2 SLP051
CYHZ;2004-10-17 00:00;METAR CYHZ 170000Z 19012G24KT 15SM SCT018 13/11 A2971 RMK SC2 SLP062
CYHZ;2004-10-17 01:00;METAR CYHZ 170100Z 18007KT 15SM FEW015 12/11 A2973 RMK SC1 SLP068
CYHZ;2004-10-17 02:00;METAR CYHZ 170200Z 18008KT 12SM SKC 11/10 A2974 RMK SLP072
CYHZ;2004-10-17 03:00;METAR CYHZ 170300Z 20007KT 12SM SKC 11/10 A2975 RMK SLP077
CYHZ;2004-10-17 04:00;METAR CYHZ 170400Z 14005KT 10SM MIFG FEW020 09/09 A2975 RMK ST0 SLP076
CYHZ;2004-10-17 05:00;METAR CYHZ 170500Z 14008KT 6SM BR FEW020 FEW068 10/10 A2975 RMK ST0AC2 SLP075
CYHZ;2004-10-17 06:00;METAR CYHZ 170600Z 16007KT 2SM BR BKN073 10/10 A2976 RMK FG2AC6 SLP080
CYHZ;2004-10-17 07:00;METAR CYHZ 170700Z 14007KT 2SM BR SKC 11/11 A2975 RMK FG6 SLP077
CYHZ;2004-10-17 08:00;METAR CYHZ 170800Z 17006KT 3SM BR OVC046 11/11 A2978 RMK SC8 SLP084 SF4SC4 SLP078 SLP078 FG2SF2SC4 SLP079 SLP079
CYHZ;2004-10-17 12:00;METAR CYHZ 171200Z 13009KT 6SM BR FEW020 BKN250 13/12 A2975 RMK SC2CI2 SLP076
CYHZ;2004-10-17 13:00;METAR CYHZ 171300Z 16011G16KT 10SM SCT013 BKN019 OVC030 13/12 A2977 RMK SC3SC2SC2 SLP082 SLP082
CYHZ;2004-10-17 14:00;METAR CYHZ 171400Z 17011KT 4SM -SHRA BR BKN004 OVC012 14/13 A2974 RMK SF6SC2 SLP072 SLP072
CYHZ;2004-10-17 15:00;METAR CYHZ 171500Z 17013G19KT 3SM -SHRA BR BKN003 OVC006 14/14 A2973 RMK SF6SF2 CIG RAG SLP069 CIG RAG SLP069
CYHZ;2004-10-17 16:00;METAR CYHZ 171600Z 18014G21KT 10SM BKN004 OVC030 15/14 A2971 RMK SF6SC2 CIG RAG SLP062 SLP062
CYHZ;2004-10-17 17:00;METAR CYHZ 171700Z 21017G27KT 12SM -SHRA SCT012 BKN024TCU 15/12 A2970 RMK SF3TCU3 SLP059 SLP059
CYHZ;2004-10-17 18:00;METAR CYHZ 171800Z 21021G28KT 15SM FEW024 16/10 A2970 RMK CU2 SLP058
CYHZ;2004-10-17 19:00;METAR CYHZ 171900Z 20018G25KT 15SM FEW028 16/08 A2971 RMK CU2 SLP061
CYHZ;2004-10-17 20:00;METAR CYHZ 172000Z 22016KT 15SM FEW028 15/08 A2970 RMK CF1 SLP060
CYHZ;2004-10-17 21:00;METAR CYHZ 172100Z 20010G18KT 15SM FEW028 FEW100 13/07 A2973 RMK CU1AC1 SLP070
CYHZ;2004-10-17 22:00;METAR CYHZ 172200Z 18007KT 15SM FEW200 11/08 A2974 RMK CI1 SLP072
CYHZ;2004-10-17 23:00;METAR CYHZ 172300Z 19006KT 15SM FEW200 10/08 A2976 RMK CI1 SLP081
CYHZ;2004-10-18 00:00;METAR CYHZ 180000Z 20007KT 15SM SKC 09/06 A2978 RMK SLP087
CYHZ;2004-10-18 01:00;METAR CYHZ 180100Z 20007KT 15SM SKC 08/05 A2980 RMK SLP094
CYHZ;2004-10-18 02:00;METAR CYHZ 180200Z 21008KT 15SM SKC 08/05 A2981 RMK SLP098
CYHZ;2004-10-18 03:00;METAR CYHZ 180300Z 19005KT 15SM BKN060 07/06 A2981 RMK SC6 SLP098
CYHZ;2004-10-18 04:00;METAR CYHZ 180400Z 19007KT 15SM FEW060 BKN190 08/06 A2981 RMK SC2CI4 SLP098
CYHZ;2004-10-18 05:00;METAR CYHZ 180500Z 18007KT 15SM BKN180 07/06 A2982 RMK CS2 SLP101
CYHZ;2004-10-18 06:00;METAR CYHZ 180600Z 17007KT 15SM FEW050 07/05 A2984 RMK SC1 SLP106
CYHZ;2004-10-18 07:00;METAR CYHZ 180700Z 17005KT 15SM FEW068 07/05 A2984 RMK AC2 SLP105
CYHZ;2004-10-18 08:00;METAR CYHZ 180800Z 19006KT 15SM FEW030 BKN060 08/06 A2985 RMK SC2SC5 SLP110
CYHZ;2004-10-18 09:00;METAR CYHZ 180900Z 17005KT 15SM FEW030 OVC071 08/06 A2986 RMK SC1AC7 SLP114
CYHZ;2004-10-18 10:00;METAR CYHZ 181000Z 18005KT 15SM BKN057 BKN070 09/07 A2987 RMK SC5AC2 SLP117
CYHZ;2004-10-18 11:00;METAR CYHZ 181100Z 21004KT 15SM FEW055 FEW250 08/07 A2988 RMK SC2CI0 SLP121
CYHZ;2004-10-18 12:00;METAR CYHZ 181200Z 22009KT 15SM FEW070 FEW250 10/06 A2990 RMK AC2CI0 SLP128
CYHZ;2004-10-18 13:00;METAR CYHZ 181300Z 24009KT 15SM FEW080 SCT250 11/05 A2992 RMK AC2CI0 SLP134
CYHZ;2004-10-18 14:00;METAR CYHZ 181400Z 23010KT 20SM FEW032 SCT087 BKN250 12/04 A2993 RMK CU1AC3CI0 SLP137 SLP137
CYHZ;2004-10-18 15:00;METAR CYHZ 181500Z 23017KT 20SM FEW044 FEW090 BKN250 13/04 A2993 RMK CU2AC1CI0 SLP139 SLP139
CYHZ;2004-10-18 16:00;METAR CYHZ 181600Z 25006KT 20SM SCT035 BKN075 12/06 A2993 RMK CU3AC4
CYHZ;2004-10-18 17:00;METAR CYHZ 181700Z 25012G17KT 20SM FEW033 BKN085 13/04 A2992 RMK CU2AC3 SLP133
CYHZ;2004-10-18 19:00;METAR CYHZ 181900Z 23006KT 15SM FEW042 BKN075 BKN200 12/05 A2994 RMK CU2AC2CI1 SHWRS VCNTY SLP142 SHWRS VCNTY SLP142
CYHZ;2004-10-18 20:00;METAR CYHZ 182000Z 26005KT 15SM FEW040 BKN070 BKN200 12/05 A2996 RMK CU2AC2CI1 VIRGA SLP150 VIRGA SLP150
CYHZ;2004-10-18 21:00;METAR CYHZ 182100Z 32006KT 15SM SCT040 BKN068 BKN250 11/06 A2999 RMK CU3AC2CI1 SLP160 SLP160
CYHZ;2004-10-18 22:00;METAR CYHZ 182200Z 35003KT 15SM SCT065 09/06 A3000 RMK SC2 SLP163
CYHZ;2004-10-18 23:00;METAR CYHZ 182300Z 34003KT 15SM SCT055 08/06 A3001 RMK SC2 SLP164
CYHZ;2004-10-19 00:00;METAR CYHZ 190000Z 29006KT 15SM SKC 07/03 A3003 RMK SLP173
CYHZ;2004-10-19 01:00;METAR CYHZ 190100Z 28004KT 15SM SKC 07/02 A3006 RMK SLP184
CYHZ;2004-10-19 02:00;METAR CYHZ 190200Z 27004KT 15SM SKC 06/02 A3007 RMK SLP185
CYHZ;2004-10-19 03:00;METAR CYHZ 190300Z 27004KT 15SM SKC 06/03 A3008 RMK SLP189
CYHZ;2004-10-19 04:00;METAR CYHZ 190400Z 28006KT 15SM SKC 05/03 A3008 RMK SLP191
CYHZ;2004-10-19 05:00;METAR CYHZ 190500Z 30004KT 15SM SKC 05/03 A3010 RMK SLP195
CYHZ;2004-10-19 06:00;METAR CYHZ 190600Z 29004KT 15SM SKC 05/04 A3011 RMK SLP198
CYHZ;2004-10-19 07:00;METAR CYHZ 190700Z 28005KT 15SM SKC 04/03 A3010 RMK SLP196
CYHZ;2004-10-19 08:00;METAR CYHZ 190800Z 29005KT 15SM SKC 04/03 A3010 RMK SLP197
CYHZ;2004-10-19 09:00;METAR CYHZ 190900Z 27005KT 15SM SKC 04/03 A3011 RMK SLP200
CYHZ;2004-10-19 10:00;METAR CYHZ 191000Z 27007KT 15SM FEW300 05/04 A3012 RMK CI0 SLP204
CYHZ;2004-10-19 11:00;METAR CYHZ 191100Z 26003KT 15SM FEW300 05/04 A3014 RMK CI0 SLP211
CYHZ;2004-10-19 12:00;METAR CYHZ 191200Z 31004KT 15SM FEW300 05/05 A3016 RMK CI0 SLP219
CYHZ;2004-10-19 13:00;METAR CYHZ 191300Z 30006KT 15SM FEW030 FEW300 08/06 A3017 RMK CF0CI0 SLP221
CYHZ;2004-10-19 14:00;METAR CYHZ 191400Z 32006KT 15SM FEW030 09/06 A3018 RMK CU1 SLP223
CYHZ;2004-10-19 15:00;METAR CYHZ 191500Z 32007KT 15SM SCT038 10/04 A3018 RMK CU4 SLP223
CYHZ;2004-10-19 16:00;METAR CYHZ 191600Z 31005KT 15SM SCT033 11/03 A3016 RMK CU4 SLP219
CYHZ;2004-10-19 17:00;METAR CYHZ 191700Z 31006KT 15SM SCT035 12/04 A3015 RMK CU3 SLP215
CYHZ;2004-10-19 18:00;METAR CYHZ 191800Z 33011KT 15SM BKN040 11/04 A3016 RMK SC5 SLP215
CYHZ;2004-10-19 19:00;METAR CYHZ 191900Z 34009KT 15SM SCT040 SCT250 12/03 A3016 RMK CU3CI0 SLP218
CYHZ;2004-10-19 20:00;METAR CYHZ 192000Z 33009KT 15SM FEW040 SCT250 11/03 A3018 RMK CU2CI1 SLP224
CYHZ;2004-10-19 21:00;METAR CYHZ 192100Z 32007KT 15SM FEW040 FEW250 10/03 A3021 RMK CU1CI1 SLP234
CYHZ;2004-10-19 22:00;METAR CYHZ 192200Z 34005KT 15SM FEW040 FEW250 08/03 A3022 RMK SC1CI1 SLP236
CYHZ;2004-10-19 23:00;METAR CYHZ 192300Z 33003KT 15SM FEW040 FEW250 07/04 A3022 RMK SC1CI1 SLP239
CYHZ;2004-10-20 00:00;METAR CYHZ 200000Z 33003KT 15SM FEW250 06/04 A3022 RMK CI1 SLP239
CYHZ;2004-10-20 01:00;METAR CYHZ 200100Z 36004KT 15SM FEW250 06/04 A3022 RMK CI1 SLP238
CYHZ;2004-10-20 02:00;METAR CYHZ 200200Z 36002KT 15SM FEW250 05/03 A3022 RMK CI1 SLP238
CYHZ;2004-10-20 03:00;METAR CYHZ 200300Z 32005KT 15SM FEW250 04/04 A3022 RMK CI1 SLP236
CYHZ;2004-10-20 04:00;METAR CYHZ 200400Z 34004KT 15SM FEW250 05/04 A3022 RMK CI1 SLP239
CYHZ;2004-10-20 05:00;METAR CYHZ 200500Z 32004KT 15SM FEW250 04/03 A3023 RMK CI2 SLP240
CYHZ;2004-10-20 06:00;METAR CYHZ 200600Z 34004KT 15SM FEW250 03/03 A3022 RMK CI2 SLP239
CYHZ;2004-10-20 07:00;METAR CYHZ 200700Z 33005KT 15SM SKC 03/03 A3020 RMK SLP232
CYHZ;2004-10-20 08:00;METAR CYHZ 200800Z 33005KT 15SM SKC 03/03 A3020 RMK SLP232
CYHZ;2004-10-20 09:00;METAR CYHZ 200900Z 35005KT 15SM SKC 03/02 A3020 RMK SLP232
CYHZ;2004-10-20 10:00;METAR CYHZ 201000Z 36004KT 15SM FEW180 03/02 A3020 RMK AC1 SLP231
CYHZ;2004-10-20 11:00;METAR CYHZ 201100Z 36004KT 20SM MIFG SKC 02/02 A3019 RMK FROIN SLP228
CYHZ;2004-10-20 12:00;METAR CYHZ 201200Z 32002KT 2SM BR SCT002 03/03 A3020 RMK SF4 SLP233
CYHZ;2004-10-20 13:00;METAR CYHZ 201300Z 35002KT 15SM VCFG FEW002 05/04 A3021 RMK SF2 VSB NE-E 2 SLP234
CYHZ;2004-10-20 14:00;METAR CYHZ 201400Z 01008KT 20SM FEW010 07/05 A3021 RMK CU1 SLP234
CYHZ;2004-10-20 15:00;METAR CYHZ 201500Z 36011KT 20SM SCT030 09/03 A3020 RMK CU4 SLP231
CYHZ;2004-10-20 16:00;METAR CYHZ 201600Z 02012G17KT 20SM SCT032 10/02 A3018 RMK CU4 SLP225
CYHZ;2004-10-20 17:00;METAR CYHZ 201700Z 02010G15KT 15SM BKN032 09/02 A3018 RMK CU5 SLP223
CYHZ;2004-10-20 18:00;METAR CYHZ 201800Z 03009G15KT 15SM BKN037 09/01 A3017 RMK SC7 SLP222
CYHZ;2004-10-20 19:00;METAR CYHZ 201900Z 04008KT 15SM BKN036 08/02 A3017 RMK SC5 SLP222
CYHZ;2004-10-20 20:00;METAR CYHZ 202000Z 02013KT 15SM BKN035 08/02 A3017 RMK SC6 SLP222
CYHZ;2004-10-20 21:00;METAR CYHZ 202100Z 36012KT 15SM BKN035 08/01 A3019 RMK SC7 SLP229
CYHZ;2004-10-20 22:00;METAR CYHZ 202200Z 36006KT 15SM BKN029 07/02 A3019 RMK SC7 SLP230
CYHZ;2004-10-20 23:00;METAR CYHZ 202300Z 01008KT 15SM OVC025 07/02 A3019 RMK SC8 SLP228
CYHZ;2004-10-21 00:00;METAR CYHZ 210000Z 01011KT 15SM OVC023 06/03 A3019 RMK SC8 SLP228
CYHZ;2004-10-21 01:00;METAR CYHZ 210100Z 02012KT 15SM OVC021 06/02 A3018 RMK SC8 SLP226
CYHZ;2004-10-21 02:00;METAR CYHZ 210200Z 01011G16KT 15SM OVC019 06/02 A3017 RMK SC8 SLP223
CYHZ;2004-10-21 03:00;METAR CYHZ 210300Z 02010KT 15SM OVC022 06/02 A3017 RMK SC8 SLP222
CYHZ;2004-10-21 04:00;METAR CYHZ 210400Z 01008KT 15SM OVC021 06/02 A3017 RMK SC8 SLP222
CYHZ;2004-10-21 05:00;METAR CYHZ 210500Z 02008KT 15SM OVC021 06/02 A3018 RMK SC8 SLP224
CYHZ;2004-10-21 06:00;METAR CYHZ 210600Z 01007KT 15SM OVC022 06/02 A3019 RMK SC8 SLP227
CYHZ;2004-10-21 07:00;METAR CYHZ 210700Z 35004KT 15SM OVC024 05/02 A3018 RMK SC8 SLP225
CYHZ;2004-10-21 08:00;METAR CYHZ 210800Z 35006KT 15SM OVC027 05/02 A3018 RMK SC8 SLP225
CYHZ;2004-10-21 09:00;METAR CYHZ 210900Z 36010G15KT 15SM OVC026 05/01 A3018 RMK SC8 SLP225
CYHZ;2004-10-21 10:00;METAR CYHZ 211000Z 01012KT 15SM OVC025 06/01 A3019 RMK SC8 SLP227
CYHZ;2004-10-21 11:00;METAR CYHZ 211100Z 36008KT 15SM OVC023 06/02 A3019 RMK SC8 SLP229
CYHZ;2004-10-21 12:00;METAR CYHZ 211200Z 36009KT 15SM BKN023 06/03 A3020 RMK SC7 SLP231
CYHZ;2004-10-21 13:00;METAR CYHZ 211300Z 36009KT 15SM BKN020 07/04 A3020 RMK SC7 SLP232
CYHZ;2004-10-21 14:00;METAR CYHZ 211400Z 36012KT 15SM OVC016 07/04 A3020 RMK SC8 SLP232
CYHZ;2004-10-21 15:00;METAR CYHZ 211500Z 02009KT 15SM BKN020 08/05 A3019 RMK SC7 SLP228
CYHZ;2004-10-21 16:00;METAR CYHZ 211600Z 04010KT 15SM BKN025 10/05 A3018 RMK SC7 SLP225
CYHZ;2004-10-21 17:00;METAR CYHZ 211700Z 36008KT 15SM BKN030 11/06 A3017 RMK SC6 SLP221
CYHZ;2004-10-21 18:00;METAR CYHZ 211800Z 01008KT 15SM OVC035 11/06 A3017 RMK SC8 SLP222
CYHZ;2004-10-21 19:00;METAR CYHZ 211900Z 35007KT 15SM SCT020 OVC035 10/07 A3018 RMK SC3SC5 SLP224
CYHZ;2004-10-21 20:00;METAR CYHZ 212000Z 36005KT 15SM FEW020 OVC040 10/07 A3019 RMK SC2SC6 SLP228
CYHZ;2004-10-21 21:00;METAR CYHZ 212100Z 01007KT 15SM SCT020 BKN045 10/07 A3021 RMK SC3SC4 SLP234
CYHZ;2004-10-21 22:00;METAR CYHZ 212200Z 04009KT 15SM FEW020 BKN045 09/05 A3023 RMK SC2SC4 SLP241
CYHZ;2004-10-21 23:00;METAR CYHZ 212300Z 02007KT 15SM FEW020 OVC045 08/05 A3025 RMK SC2SC6 SLP246
CYHZ;2004-10-22 00:00;METAR CYHZ 220000Z 03005KT 15SM FEW020 BKN045 07/05 A3026 RMK SC2SC4 SLP251
CYHZ;2004-10-22 01:00;METAR CYHZ 220100Z 33006KT 15SM SCT045 06/04 A3026 RMK SC4 SLP253
CYHZ;2004-10-22 02:00;METAR CYHZ 220200Z 36005KT 15SM BKN039 06/05 A3027 RMK SC6 SLP254
CYHZ;2004-10-22 03:00;METAR CYHZ 220300Z 35007KT 15SM FEW010 BKN041 06/05 A3026 RMK SF2SC6 SLP252
CYHZ;2004-10-22 05:00;METAR CYHZ 220500Z 01008KT 8SM OVC004 06/06 A3027 RMK SF8 SLP253
CYHZ;2004-10-22 06:00;METAR CYHZ 220600Z 01009KT 8SM OVC004 06/06 A3027 RMK SF8 SLP254
CYHZ;2004-10-22 07:00;METAR CYHZ 220700Z 02011KT 10SM OVC004 06/06 A3027 RMK SF8 SLP254
CYHZ;2004-10-22 08:00;METAR CYHZ 220800Z 02007KT 10SM OVC004 06/05 A3028 RMK SF8 SLP257
CYHZ;2004-10-22 09:00;METAR CYHZ 220900Z 02008KT 15SM SCT007 BKN043 05/05 A3029 RMK SF3SC3 SLP262
CYHZ;2004-10-22 10:00;METAR CYHZ 221000Z 01006KT 10SM FEW005 BKN040 05/04 A3029 RMK SF2SC5
CYHZ;2004-10-22 11:00;METAR CYHZ 221100Z 02005KT 12SM FEW005 FEW040 SCT080 SCT250 04/04 A3031 RMK SF1SC2AC1CI0 SLP268
CYHZ;2004-10-22 12:00;METAR CYHZ 221200Z 02008KT 12SM FEW010 FEW040 FEW080 SCT250 05/05 A3032 RMK SF1SC1AC1CI0 SLP271
CYHZ;2004-10-22 13:00;METAR CYHZ 221300Z 03008KT 15SM FEW015 FEW040 BKN250 07/05 A3034 RMK CF1SC1CI1 SLP277 SLP277
CYHZ;2004-10-22 14:00;METAR CYHZ 221400Z 01010KT 15SM SCT025 BKN250 09/05 A3033 RMK SC3CI1 SLP274
CYHZ;2004-10-22 15:00;METAR CYHZ 221500Z 04008G15KT 15SM SCT030 BKN250 10/04 A3032 RMK SC4CI1 SLP270
CYHZ;2004-10-22 16:00;METAR CYHZ 221600Z 02009G15KT 15SM FEW030 BKN040 BKN250 10/03 A3031 RMK SC2SC2CI1 SLP268 SLP268
CYHZ;2004-10-22 17:00;METAR CYHZ 221700Z 05007KT 15SM FEW030 BKN045 BKN250 10/02 A3030 RMK SC2SC3CI1 SLP265 SLP265
CYHZ;2004-10-22 18:00;METAR CYHZ 221800Z 05010KT 15SM BKN042 10/03 A3030 RMK SC7 SLP263
CYHZ;2004-10-22 19:00;METAR CYHZ 221900Z 05010G15KT 15SM BKN040 10/02 A3029 RMK SC7 SLP262
CYHZ;2004-10-22 20:00;METAR CYHZ 222000Z 06007G17KT 15SM BKN040 09/01 A3029 RMK SC7 SLP260
CYHZ;2004-10-22 21:00;METAR CYHZ 222100Z 05007KT 15SM BKN040 09/03 A3029 RMK SC7 SLP261
CYHZ;2004-10-22 22:00;METAR CYHZ 222200Z 05008KT 15SM BKN038 08/02 A3032 RMK SC7 SLP271
CYHZ;2004-10-22 23:00;METAR CYHZ 222300Z 05007KT 15SM BKN045 08/02 A3033 RMK SC7 SLP274
CYHZ;2004-10-23 00:00;METAR CYHZ 230000Z 07010KT 15SM BKN038 07/02 A3033 RMK SC7 SLP275
CYHZ;2004-10-23 01:00;METAR CYHZ 230100Z 02004KT 15SM OVC038 07/02 A3031 RMK SC8 SLP270
CYHZ;2004-10-23 02:00;METAR CYHZ 230200Z 03006KT 15SM OVC039 07/02 A3031 RMK SC8 SLP269
CYHZ;2004-10-23 03:00;METAR CYHZ 230300Z 03005KT 15SM OVC036 07/02 A3031 RMK SC8 SLP269
CYHZ;2004-10-23 04:00;METAR CYHZ 230400Z 03006KT 15SM OVC037 07/02 A3030 RMK SC8 SLP264
CYHZ;2004-10-23 05:00;METAR CYHZ 230500Z 03006KT 15SM OVC038 07/03 A3029 RMK SC8 SLP261
CYHZ;2004-10-23 06:00;METAR CYHZ 230600Z 03006KT 15SM OVC037 06/03 A3028 RMK SC8 SLP258
CYHZ;2004-10-23 07:00;METAR CYHZ 230700Z 03007KT 15SM OVC036 06/04 A3026 RMK SC8 SLP251
CYHZ;2004-10-23 08:00;METAR CYHZ 230800Z 02006KT 15SM OVC034 06/04 A3026 RMK SC8 SLP251
CYHZ;2004-10-23 09:00;METAR CYHZ 230900Z 04005KT 15SM OVC034 06/05 A3027 RMK SC8 SLP253
CYHZ;2004-10-23 10:00;METAR CYHZ 231000Z 01005KT 15SM FEW030 06/05 A3027 RMK SC2 SLP254
CYHZ;2004-10-23 11:00;METAR CYHZ 231100Z 03006KT 15SM SCT034 05/04 A3028 RMK SC4 SLP258
CYHZ;2004-10-23 12:00;METAR CYHZ 231200Z 03009KT 15SM BKN032 06/04 A3026 RMK SC6 SLP251
CYHZ;2004-10-23 13:00;METAR CYHZ 231300Z 04012KT 15SM BKN031 07/04 A3026 RMK SC6 SLP253
CYHZ;2004-10-23 14:00;METAR CYHZ 231400Z 06010G17KT 15SM BKN031 08/04 A3026 RMK SC6 SLP253
CYHZ;2004-10-23 15:00;METAR CYHZ 231500Z 06014KT 15SM SCT030 BKN250 09/04 A3024 RMK SC3CI1 SLP244
CYHZ;2004-10-23 16:00;METAR CYHZ 231600Z 05011G20KT 15SM SCT030 BKN250 10/04 A3021 RMK SC3CI1 SLP233
CYHZ;2004-10-23 17:00;METAR CYHZ 231700Z 04015G20KT 15SM SCT030 BKN250 11/04 A3019 RMK SC4CI1 SLP227
CYHZ;2004-10-23 18:00;METAR CYHZ 231800Z 06013G19KT 15SM SCT032 SCT280 11/04 A3018 RMK SC3CI1 SLP224
CYHZ;2004-10-23 19:00;METAR CYHZ 231900Z 03013KT 15SM BKN035 11/04 A3019 RMK SC6 SLP226
CYHZ;2004-10-23 20:00;METAR CYHZ 232000Z 04011KT 15SM BKN040 10/04 A3020 RMK SC7 SLP229
CYHZ;2004-10-23 21:00;METAR CYHZ 232100Z 03010G15KT 15SM FEW032 BKN280 09/03 A3018 RMK SC2CI1
CYHZ;2004-10-23 22:00;METAR CYHZ 232200Z 02007KT 15SM BKN036 08/04 A3019 RMK SC5 SLP226
CYHZ;2004-10-23 23:00;METAR CYHZ 232300Z 03009KT 15SM FEW030 07/04 A3018 RMK SC1 SLP224
CYHZ;2004-10-24 00:00;METAR CYHZ 240000Z 09005KT 15SM BKN020 OVC030 06/04 A3019 RMK SC5SC3 SLP228
CYHZ;2004-10-24 01:00;METAR CYHZ 240100Z 09009KT 15SM FEW030 06/04 A3018 RMK SC1 SLP225
CYHZ;2004-10-24 02:00;METAR CYHZ 240200Z 06007KT 20SM FEW030 FEW130 05/03 A3016 RMK SC1AC1 SLP219
CYHZ;2004-10-24 03:00;METAR CYHZ 240300Z 04006KT 20SM OVC017 04/03 A3015 RMK SC8 SLP214
CYHZ;2004-10-24 04:00;METAR CYHZ 240400Z 05004KT 20SM OVC018 05/03 A3014 RMK SC8 SLP211
CYHZ;2004-10-24 05:00;METAR CYHZ 240500Z 05007KT 20SM OVC016 06/04 A3012 RMK SC8 SLP205
CYHZ;2004-10-24 06:00;METAR CYHZ 240600Z 05010KT 20SM OVC016 06/04 A3011 RMK SC8 SLP199
CYHZ;2004-10-24 07:00;METAR CYHZ 240700Z 05009KT 20SM OVC016 06/04 A3011 RMK SC8 SLP199
CYHZ;2004-10-24 08:00;METAR CYHZ 240800Z 04011KT 20SM OVC017 06/04 A3010 RMK SC8 SLP195
CYHZ;2004-10-24 09:00;METAR CYHZ 240900Z 04011KT 20SM OVC015 06/04 A3009 RMK SC8 SLP193
CYHZ;2004-10-24 10:00;METAR CYHZ 241000Z 06011KT 15SM OVC015 06/04 A3010 RMK SC8 SLP196
CYHZ;2004-10-24 11:00;METAR CYHZ 241100Z 05010G15KT 15SM OVC018 06/04 A3011 RMK SC8 SLP199 SLP199 SLP194
CYHZ;2004-10-24 14:00;METAR CYHZ 241400Z 07012G18KT 15SM OVC018 07/04 A3009 RMK SC8 SLP193
CYHZ;2004-10-24 15:00;METAR CYHZ 241500Z 06011G17KT 15SM OVC018 08/04 A3008 RMK SC8 SLP190
CYHZ;2004-10-24 16:00;METAR CYHZ 241600Z 07014KT 15SM OVC020 08/04 A3007 RMK SC8 SLP186
CYHZ;2004-10-24 17:00;METAR CYHZ 241700Z 06011G17KT 15SM OVC022 08/05 A3005 RMK SC8 SLP182
CYHZ;2004-10-24 18:00;METAR CYHZ 241800Z 05008KT 15SM OVC024 09/04 A3004 RMK SC8 SLP177
CYHZ;2004-10-24 19:00;METAR CYHZ 241900Z 04010G15KT 15SM OVC022 09/05 A3004 RMK SC8 SLP176
CYHZ;2004-10-24 20:00;METAR CYHZ 242000Z 07009KT 15SM OVC025 09/04 A3004 RMK SC8 SLP175
CYHZ;2004-10-24 21:00;METAR CYHZ 242100Z 07011KT 15SM OVC027 08/04 A3004 RMK SC8 SLP175
CYHZ;2004-10-24 22:00;METAR CYHZ 242200Z 07009KT 15SM OVC027 08/04 A3005 RMK SC8 SLP178
CYHZ;2004-10-24 23:00;METAR CYHZ 242300Z 07007KT 15SM OVC025 08/04 A3005 RMK SC8 SLP178
CYHZ;2004-10-25 00:00;METAR CYHZ 250000Z 07006KT 15SM OVC022 08/04 A3005 RMK SC8 SLP180
CYHZ;2004-10-25 01:00;METAR CYHZ 250100Z 06009KT 15SM OVC019 07/04 A3005 RMK SC8 SLP179
CYHZ;2004-10-25 02:00;METAR CYHZ 250200Z 06008KT 15SM OVC020 07/04 A3005 RMK SC8 SLP179
CYHZ;2004-10-25 03:00;METAR CYHZ 250300Z 07008KT 15SM OVC018 07/04 A3004 RMK SC8 SLP176
CYHZ;2004-10-25 04:00;METAR CYHZ 250400Z 06005KT 15SM OVC018 07/04 A3004 RMK SC8 SLP175
CYHZ;2004-10-25 05:00;METAR CYHZ 250500Z 05006KT 15SM OVC016 06/04 A3003 RMK SC8 SLP174
CYHZ;2004-10-25 06:00;METAR CYHZ 250600Z 05007KT 15SM OVC016 06/04 A3002 RMK SC8 SLP171
CYHZ;2004-10-25 07:00;METAR CYHZ 250700Z 03006KT 15SM OVC016 06/04 A3002 RMK SC8 SLP170
CYHZ;2004-10-25 08:00;METAR CYHZ 250800Z 02007KT 15SM OVC017 06/04 A3002 RMK SC8 SLP170
CYHZ;2004-10-25 09:00;METAR CYHZ 250900Z 03007KT 15SM OVC016 06/04 A3002 RMK SC8 SLP171
CYHZ;2004-10-25 10:00;METAR CYHZ 251000Z 03006KT 15SM OVC016 06/04 A3003 RMK SC8 SLP173
CYHZ;2004-10-25 11:00;METAR CYHZ 251100Z 03005KT 15SM OVC018 06/04 A3003 RMK SC8 SLP173
CYHZ;2004-10-25 12:00;METAR CYHZ 251200Z 03007KT 15SM OVC017 06/04 A3005 RMK SC8 SLP178
CYHZ;2004-10-25 13:00;METAR CYHZ 251300Z 04007KT 15SM OVC016 07/04 A3005 RMK SC8 SLP180
CYHZ;2004-10-25 14:00;METAR CYHZ 251400Z 06010KT 15SM OVC017 08/04 A3006 RMK SC8 SLP183
CYHZ;2004-10-25 15:00;METAR CYHZ 251500Z 05009KT 15SM BKN020 08/04 A3005 RMK SC7 SLP181
CYHZ;2004-10-25 16:00;METAR CYHZ 251600Z 07011KT 20SM FEW025 BKN250 09/04 A3004 RMK SC2CI2 SLP176
CYHZ;2004-10-25 17:00;METAR CYHZ 251700Z 06007KT 20SM FEW100 BKN250 12/05 A3003 RMK AC2CI2 SLP172
CYHZ;2004-10-25 18:00;METAR CYHZ 251800Z 07006KT 20SM FEW120 BKN250 12/05 A3001 RMK AC2CI1 SLP166
CYHZ;2004-10-25 19:00;METAR CYHZ 251900Z 02007KT 20SM FEW120 BKN240 14/05 A3000 RMK AC2CC3 SLP163
CYHZ;2004-10-25 20:00;METAR CYHZ 252000Z 04006KT 20SM FEW120 BKN240 13/05 A3001 RMK AC2CC2 SLP164
CYHZ;2004-10-25 21:00;METAR CYHZ 252100Z 12004KT 20SM FEW120 BKN240 12/05 A3002 RMK AC2CC2 SLP168
CYHZ;2004-10-25 22:00;METAR CYHZ 252200Z 14003KT 15SM BKN220 09/07 A3003 RMK CC4 SLP172
CYHZ;2004-10-25 23:00;METAR CYHZ 252300Z 07005KT 15SM FEW150 BKN220 09/06 A3004 RMK AC2CC3 SLP175
CYHZ;2004-10-26 00:00;METAR CYHZ 260000Z 11005KT 15SM FEW150 BKN240 08/06 A3004 RMK AC2CC2 SLP176
CYHZ;2004-10-26 01:00;METAR CYHZ 260100Z 09004KT 15SM FEW150 BKN230 07/06 A3003 RMK AC2CC2 SLP174
CYHZ;2004-10-26 02:00;METAR CYHZ 260200Z 09005KT 20SM FEW020 FEW220 BKN250 07/06 A3003 RMK SC1CC1CI2 SLP172 SLP172
CYHZ;2004-10-26 03:00;METAR CYHZ 260300Z 07004KT 20SM FEW015 SCT250 07/06 A3002 RMK SC2CI0 SLP171
CYHZ;2004-10-26 04:00;METAR CYHZ 260400Z 09006KT 20SM BKN015 06/05 A3002 RMK SC7 SLP168
CYHZ;2004-10-26 05:00;METAR CYHZ 260500Z 06004KT 20SM OVC015 07/06 A3002 RMK SC8 SLP171
CYHZ;2004-10-26 06:00;METAR CYHZ 260600Z 03005KT 20SM OVC018 06/06 A3003 RMK SC8 SLP173
CYHZ;2004-10-26 07:00;METAR CYHZ 260700Z 03005KT 20SM OVC020 06/05 A3002 RMK SC8 SLP169
CYHZ;2004-10-26 08:00;METAR CYHZ 260800Z 04007KT 20SM BKN019 06/05 A3001 RMK SC7 SLP166
CYHZ;2004-10-26 09:00;METAR CYHZ 260900Z 03007KT 20SM BKN018 05/05 A3001 RMK SC7 SLP165
CYHZ;2004-10-26 10:00;METAR CYHZ 261000Z 02006KT 15SM BKN018 05/04 A3002 RMK SC7 SLP169
CYHZ;2004-10-26 11:00;METAR CYHZ 261100Z 02007KT 15SM BKN017 05/04 A3004 RMK SC6 SLP175
CYHZ;2004-10-26 12:00;METAR CYHZ 261200Z 02006KT 15SM BKN016 06/04 A3005 RMK SC7 SLP180
CYHZ;2004-10-26 13:00;METAR CYHZ 261300Z 05007KT 15SM FEW010 BKN020 07/05 A3005 RMK SC2SC6 SLP179
CYHZ;2004-10-26 14:00;METAR CYHZ 261400Z 07009KT 15SM FEW010 BKN018 09/06 A3004 RMK SC1SC6 SLP177
CYHZ;2004-10-26 15:00;METAR CYHZ 261500Z 06011KT 15SM FEW013 BKN020 10/07 A3005 RMK SC2SC5 SLP178
CYHZ;2004-10-26 16:00;METAR CYHZ 261600Z 08011KT 15SM BKN020 BKN180 11/06 A3003 RMK SC6AC1 SLP173
CYHZ;2004-10-26 17:00;METAR CYHZ 261700Z 10009KT 15SM BKN020 BKN180 11/06 A3003 RMK SC6AC1
CYHZ;2004-10-26 18:00;METAR CYHZ 261800Z 09010KT 15SM OVC021 10/06 A3002 RMK SC8 SLP171
CYHZ;2004-10-26 19:00;METAR CYHZ 261900Z 07011KT 15SM OVC020 10/06 A3002 RMK SC8 SLP169
CYHZ;2004-10-26 20:00;METAR CYHZ 262000Z 08012KT 15SM OVC018 10/06 A3002 RMK SC8 SLP171
CYHZ;2004-10-26 21:00;METAR CYHZ 262100Z 08007KT 15SM OVC018 09/06 A3003 RMK SC8 SLP172
CYHZ;2004-10-26 22:00;METAR CYHZ 262200Z 06008KT 15SM OVC017 09/07 A3002 RMK SC8 SLP168
CYHZ;2004-10-26 23:00;METAR CYHZ 262300Z 03007KT 15SM OVC019 09/07 A3002 RMK SC8 SLP168
CYHZ;2004-10-27 00:00;METAR CYHZ 270000Z 03006KT 15SM OVC021 08/07 A3001 RMK SC8 SLP167
CYHZ;2004-10-27 01:00;METAR CYHZ 270100Z 02005KT 15SM OVC023 08/07 A3002 RMK SC8 SLP171
CYHZ;2004-10-27 02:00;METAR CYHZ 270200Z 03006KT 20SM OVC026 08/06 A3002 RMK SC8 SLP169
CYHZ;2004-10-27 03:00;METAR CYHZ 270300Z 01005KT 20SM FEW025 OVC130 08/06 A3001 RMK SC2AS6 SLP165
CYHZ;2004-10-27 04:00;METAR CYHZ 270400Z 35007KT 20SM OVC031 07/06 A3001 RMK SC8 SLP164
CYHZ;2004-10-27 05:00;METAR CYHZ 270500Z 36005KT 20SM OVC025 08/06 A3001 RMK SC8 SLP165
CYHZ;2004-10-27 06:00;METAR CYHZ 270600Z 02007KT 20SM OVC030 08/06 A3000 RMK SC8 SLP161
CYHZ;2004-10-27 07:00;METAR CYHZ 270700Z 01007KT 20SM OVC030 08/06 A2999 RMK SC8 SLP158
CYHZ;2004-10-27 08:00;METAR CYHZ 270800Z 02007KT 20SM BKN030 OVC130 08/06 A2998 RMK SC6AS2 SLP156
CYHZ;2004-10-27 09:00;METAR CYHZ 270900Z 36006KT 20SM FEW030 BKN180 07/07 A2999 RMK SC2AC4 SLP159
CYHZ;2004-10-27 10:00;METAR CYHZ 271000Z 01006KT 20SM SCT180 BKN250 07/06 A2998 RMK AC3CI0 SLP154
CYHZ;2004-10-27 11:00;METAR CYHZ 271100Z 36008KT 15SM SCT005 BKN250 07/06 A2998 RMK SF3CI1
CYHZ;2004-10-27 12:00;METAR CYHZ 271200Z 04007KT 15SM BKN007 OVC250 08/07 A2999 RMK SF6CI2 SLP160
CYHZ;2004-10-27 13:00;METAR CYHZ 271300Z 36013KT 15SM BKN009 BKN025 BKN250 10/08 A2999 RMK SF5SC2CI1 SLP161 SLP161
CYHZ;2004-10-27 14:00;METAR CYHZ 271400Z 01012KT 15SM OVC012 10/08 A3000 RMK SC8 SLP163
CYHZ;2004-10-27 15:00;METAR CYHZ 271500Z 01014KT 15SM SCT014 OVC025 10/07 A2998 RMK SC3SC5
CYHZ;2004-10-27 16:00;METAR CYHZ 271600Z 36015KT 20SM BKN026 11/07 A2997 RMK SC7 SLP151
CYHZ;2004-10-27 17:00;METAR CYHZ 271700Z 02011G16KT 20SM OVC028 11/07 A2996 RMK SC8 SLP147
CYHZ;2004-10-27 18:00;METAR CYHZ 271800Z 01013KT 15SM BKN026 OVC250 11/06 A2996 RMK SC7CI1 SLP148
CYHZ;2004-10-27 19:00;METAR CYHZ 271900Z 35011KT 15SM OVC026 11/06 A2997 RMK SC8 SLP152
CYHZ;2004-10-27 20:00;METAR CYHZ 272000Z 36012KT 15SM BKN031 11/06 A2997 RMK SC7 SLP153
CYHZ;2004-10-27 21:00;METAR CYHZ 272100Z 36012G17KT 15SM OVC036 10/06 A2999 RMK SC8 SLP157
CYHZ;2004-10-27 22:00;METAR CYHZ 272200Z 01012KT 15SM OVC034 10/06 A2999 RMK SC8 SLP160
CYHZ;2004-10-27 23:00;METAR CYHZ 272300Z 01008KT 15SM OVC035 09/06 A3001 RMK SC8 SLP164
CYHZ;2004-10-28 00:00;METAR CYHZ 280000Z 34014KT 15SM BKN039 09/06 A3000 RMK SC7 SLP161 SLP163
CYHZ;2004-10-28 02:00;METAR CYHZ 280200Z 36013G18KT 15SM BKN012 OVC035 08/06 A3001 RMK SC5SC3 SLP164
CYHZ;2004-10-28 03:00;METAR CYHZ 280300Z 01011G16KT 15SM OVC039 08/04 A3001 RMK SC8 SLP164
CYHZ;2004-10-28 04:00;METAR CYHZ 280400Z 35014G21KT 15SM BKN044 07/04 A3001 RMK SC7 SLP164
CYHZ;2004-10-28 05:00;METAR CYHZ 280500Z 36011G16KT 15SM BKN040 BKN180 06/04 A3001 RMK SC5AC2 SLP165
CYHZ;2004-10-28 06:00;METAR CYHZ 280600Z 35009KT 15SM OVC026 07/04 A3001 RMK SC8 SLP166
CYHZ;2004-10-28 07:00;METAR CYHZ 280700Z 35014KT 15SM OVC022 07/04 A3000 RMK SC8 SLP161
CYHZ;2004-10-28 08:00;METAR CYHZ 280800Z 35012G19KT 15SM OVC025 06/04 A3001 RMK SC8 SLP164
CYHZ;2004-10-28 09:00;METAR CYHZ 280900Z 34014G19KT 15SM OVC030 06/04 A3001 RMK SC8 SLP166
CYHZ;2004-10-28 10:00;METAR CYHZ 281000Z 34013KT 15SM -SHRA SCT013 OVC025 06/05 A3002 RMK SC3SC5 SLP171
CYHZ;2004-10-28 11:00;METAR CYHZ 281100Z 34016G25KT 15SM BKN020 05/04 A3004 RMK SC5 SLP175
CYHZ;2004-10-28 12:00;METAR CYHZ 281200Z 34018KT 15SM FEW030 05/03 A3006 RMK SC2 SLP182
CYHZ;2004-10-28 13:00;METAR CYHZ 281300Z 34016G21KT 15SM FEW020 BKN032 06/02 A3007 RMK SC2SC5 SLP185
CYHZ;2004-10-28 14:00;METAR CYHZ 281400Z 36022G31KT 15SM BKN032 06/M00 A3007 RMK SC6 SLP187
CYHZ;2004-10-28 15:00;METAR CYHZ 281500Z 35021G30KT 15SM FEW035 08/M01 A3007 RMK SC2 PK GST PST HR 34 SLP185
CYHZ;2004-10-28 16:00;METAR CYHZ 281600Z 35019G31KT 15SM FEW038 08/M01 A3006 RMK CU2 SLP182
CYHZ;2004-10-28 17:00;METAR CYHZ 281700Z 01023G31KT 15SM SCT040 08/M01 A3005 RMK CU3 PK GST PST HR 36 SLP179 SLP179
CYHZ;2004-10-28 18:00;METAR CYHZ 281800Z 35022G31KT 15SM SCT041 08/M01 A3004 RMK CU4 SLP177
CYHZ;2004-10-28 19:00;METAR CYHZ 281900Z 35020G34KT 15SM SCT040 08/M02 A3006 RMK CU4 SLP182
CYHZ;2004-10-28 20:00;METAR CYHZ 282000Z 35019G29KT 15SM BKN042 06/M03 A3007 RMK CU6 SLP186
CYHZ;2004-10-28 21:00;METAR CYHZ 282100Z 36018G25KT 15SM BKN044 06/M03 A3008 RMK CU6 SLP189
CYHZ;2004-10-28 22:00;METAR CYHZ 282200Z 34017G24KT 15SM BKN043 05/M03 A3008 RMK SC7 SLP192
CYHZ;2004-10-28 23:00;METAR CYHZ 282300Z 35013G18KT 15SM BKN042 05/M03 A3010 RMK SC7 SLP197
CYHZ;2004-10-29 00:00;METAR CYHZ 290000Z 33010KT 15SM BKN040 05/M02 A3010 RMK SC7 SLP198
CYHZ;2004-10-29 01:00;METAR CYHZ 290100Z 35008KT 15SM BKN038 05/M02 A3011 RMK SC7 SLP202
CYHZ;2004-10-29 02:00;METAR CYHZ 290200Z 34007KT 15SM FEW039 04/02 A3011 RMK SC2 SLP199
CYHZ;2004-10-29 03:00;METAR CYHZ 290300Z 31006KT 15SM SKC 02/M02 A3010 RMK SLP197
CYHZ;2004-10-29 04:00;METAR CYHZ 290400Z 32006KT 15SM SKC 01/M02 A3010 RMK SLP196
CYHZ;2004-10-29 05:00;METAR CYHZ 290500Z 29004KT 15SM SKC 01/M02 A3009 RMK SLP194
CYHZ;2004-10-29 06:00;METAR CYHZ 290600Z 29006KT 15SM FEW035 01/M01 A3008 RMK SC2 SLP191
CYHZ;2004-10-29 07:00;METAR CYHZ 290700Z 28005KT 15SM FEW035 00/M02 A3007 RMK SC2 SLP186
CYHZ;2004-10-29 08:00;METAR CYHZ 290800Z 27006KT 15SM SCT180 00/M02 A3007 RMK AC3 SLP186
CYHZ;2004-10-29 09:00;METAR CYHZ 290900Z 27005KT 15SM SCT170 01/M01 A3007 RMK AC2 SLP188
CYHZ;2004-10-29 10:00;METAR CYHZ 291000Z 28006KT 15SM BKN160 00/M01 A3006 RMK AC4 SLP184
CYHZ;2004-10-29 11:00;METAR CYHZ 291100Z 28005KT 15SM FEW040 SCT160 BKN280 00/M01 A3005 RMK SC1AC4CI2 SLP180 SLP180
CYHZ;2004-10-29 12:00;METAR CYHZ 291200Z 27006KT 15SM FEW035 SCT140 OVC280 01/M00 A3005 RMK SC1AC3CI2 SLP183 SLP183
CYHZ;2004-10-29 13:00;METAR CYHZ 291300Z 27005KT 15SM FEW030 SCT120 OVC280 03/01 A3005 RMK SC2AC2CI2 SLP182 SLP182
CYHZ;2004-10-29 14:00;METAR CYHZ 291400Z 32008KT 15SM FEW025 SCT120 OVC280 05/M01 A3004 RMK CU2AC2CI2 SLP178 SLP178
CYHZ;2004-10-29 15:00;METAR CYHZ 291500Z 31007KT 15SM SCT030 BKN120 OVC280 05/M01 A3002 RMK SC3AC2CI2 SLP172 SLP172
CYHZ;2004-10-29 16:00;METAR CYHZ 291600Z 31009KT 15SM FEW030 BKN100 OVC250 05/M02 A3001 RMK SC2AC4CI2 SLP166 SLP166
CYHZ;2004-10-29 17:00;METAR CYHZ 291700Z 31007KT 15SM FEW030 BKN080 OVC250 05/M03 A2998 RMK SC2AS5CI2 SLP158 SLP158
CYHZ;2004-10-29 18:00;METAR CYHZ 291800Z 30009KT 15SM FEW030 BKN080 OVC250 05/M04 A2997 RMK SC1AS6CI1 SLP153 SLP153
CYHZ;2004-10-29 19:00;METAR CYHZ 291900Z 32008KT 15SM FEW030 BKN090 OVC250 05/M04 A2997 RMK SC1AS4CI1 SLP153
CYHZ;2004-10-29 20:00;METAR CYHZ 292000Z 32009KT 15SM FEW030 SCT090 BKN250 05/M04 A2996 RMK SC1AS2CI0 SLP152 SLP152
CYHZ;2004-10-29 21:00;METAR CYHZ 292100Z 32007KT 15SM FEW030 FEW100 FEW250 04/M04 A2998 RMK SC1AC1CI0 SLP158
CYHZ;2004-10-29 22:00;METAR CYHZ 292200Z 30006KT 15SM FEW030 FEW100 02/M03 A2998 RMK SC1AC1
CYHZ;2004-10-29 23:00;METAR CYHZ 292300Z 29004KT 15SM FEW030 02/M03 A2998 RMK SC1 SLP159
CYHZ;2004-10-30 00:00;METAR CYHZ 300000Z 31004KT 20SM FEW030 01/M03 A2998 RMK SC1 SLP159
CYHZ;2004-10-30 01:00;METAR CYHZ 300100Z 29004KT 20SM FEW030 01/M03 A2998 RMK SC1 SLP158
CYHZ;2004-10-30 02:00;METAR CYHZ 300200Z 30005KT 20SM SKC 00/M03 A2998 RMK SLP159
CYHZ;2004-10-30 03:00;METAR CYHZ 300300Z 02003KT 20SM SKC 00/M03 A2998 RMK SLP157
CYHZ;2004-10-30 04:00;METAR CYHZ 300400Z 00000KT 20SM SKC M00/M03 A2998 RMK SLP156
CYHZ;2004-10-30 05:00;METAR CYHZ 300500Z 00000KT 20SM SKC M01/M04 A2997 RMK SLP155
CYHZ;2004-10-30 06:00;METAR CYHZ 300600Z 27004KT 20SM SKC M02/M03 A2998 RMK SLP157
CYHZ;2004-10-30 07:00;METAR CYHZ 300700Z 26003KT 20SM SKC 00/M03 A2997 RMK SLP155
CYHZ;2004-10-30 08:00;METAR CYHZ 300800Z 26006KT 20SM SKC 00/M03 A2996 RMK SLP152
CYHZ;2004-10-30 09:00;METAR CYHZ 300900Z 25005KT 20SM SKC 01/M04 A2996 RMK SLP151
CYHZ;2004-10-30 10:00;METAR CYHZ 301000Z 25005KT 20SM SKC 00/M03 A2997 RMK SLP154
CYHZ;2004-10-30 11:00;METAR CYHZ 301100Z 24004KT 20SM FEW260 M00/M03 A2999 RMK CI1 SLP159
CYHZ;2004-10-30 12:00;METAR CYHZ 301200Z 25006KT 20SM FEW260 02/M03 A2999 RMK CI1 SLP161
CYHZ;2004-10-30 13:00;METAR CYHZ 301300Z 27005KT 20SM FEW260 04/M01 A2999 RMK CI1 SLP161
CYHZ;2004-10-30 14:00;METAR CYHZ 301400Z 28007KT 20SM FEW260 06/M00 A2998 RMK CI1 SLP159
CYHZ;2004-10-30 15:00;METAR CYHZ 301500Z 28009KT 20SM FEW260 07/M02 A2999 RMK CI1 SLP159
CYHZ;2004-10-30 16:00;METAR CYHZ 301600Z 32009KT 20SM FEW260 09/M02 A2997 RMK CI0 SLP153
CYHZ;2004-10-30 17:00;METAR CYHZ 301700Z 30008KT 20SM FEW260 10/M02 A2995 RMK CI0 SLP147
CYHZ;2004-10-30 18:00;METAR CYHZ 301800Z 29007KT 20SM FEW260 10/02 A2994 RMK CI1 SLP144
CYHZ;2004-10-30 19:00;METAR CYHZ 301900Z 31009KT 15SM FEW260 10/M04 A2994 RMK CI1 SLP143
CYHZ;2004-10-30 20:00;METAR CYHZ 302000Z 31005KT 15SM FEW260 10/M04 A2994 RMK CC1 SLP143
CYHZ;2004-10-30 21:00;METAR CYHZ 302100Z 00000KT 15SM FEW260 08/M03 A2993 RMK CI1 SLP140
CYHZ;2004-10-30 22:00;METAR CYHZ 302200Z 22003KT 15SM FEW260 07/M01 A2995 RMK CI1 SLP145
CYHZ;2004-10-30 23:00;METAR CYHZ 302300Z 20005KT 15SM SKC 06/01 A2994 RMK SLP143
CYHZ;2004-10-31 00:00;METAR CYHZ 310000Z 23007KT 15SM SKC 06/02 A2994 RMK SLP143
CYHZ;2004-10-31 01:00;METAR CYHZ 310100Z 20006KT 15SM FEW260 05/02 A2994 RMK CI0 SLP144
CYHZ;2004-10-31 02:00;METAR CYHZ 310200Z 20007KT 15SM FEW260 05/02 A2993 RMK CI0 SLP141
CYHZ;2004-10-31 03:00;METAR CYHZ 310300Z 21008KT 15SM FEW260 04/02 A2992 RMK CI0 SLP137
CYHZ;2004-10-31 04:00;METAR CYHZ 310400Z 19006KT 15SM FEW260 04/03 A2990 RMK CI0 SLP130
CYHZ;2004-10-31 05:00;METAR CYHZ 310500Z 19006KT 15SM BKN057 04/02 A2988 RMK SC6 SLP123
CYHZ;2004-10-31 06:00;METAR CYHZ 310600Z 18009KT 15SM OVC043 06/04 A2987 RMK SC8 SLP119
CYHZ;2004-10-31 07:00;METAR CYHZ 310700Z 18011KT 15SM OVC030 07/04 A2985 RMK SC8 SLP113
CYHZ;2004-10-31 08:00;METAR CYHZ 310800Z 18010KT 15SM BKN023 OVC030 08/05 A2984 RMK SC6SC2 SLP107
CYHZ;2004-10-31 09:00;METAR CYHZ 310900Z 18013KT 8SM -SHRA BKN023 BKN032 OVC071 08/07 A2982 RMK SC6SC2AC1 SLP101
CYHZ;2004-10-31 10:00;METAR CYHZ 311000Z 18016KT 10SM -SHRA FEW020 SCT071 OVC091 08/07 A2978 RMK SC2AC1AC5 SLP088
CYHZ;2004-10-31 11:00;METAR CYHZ 311100Z 17016G24KT 2SM -SHRA BR BKN004 OVC015 09/09 A2975 RMK SF6SC2 SLP079 SLP079 RMK FG8 SLP074 SLP074
CYHZ;2004-10-31 13:00;METAR CYHZ 311300Z 18016G21KT 1SM R15/P6000FT/N -SHRA BR BKN003 OVC006 11/10 A2972 RMK SF6SF2 SLP068 A2972 RMK SF6SF2 SLP068
CYHZ;2004-10-31 14:00;METAR CYHZ 311400Z 18014G20KT 1SM R15/P6000FT/N -SHRA BR BKN003 OVC006 11/11 A2970 RMK SF5SF3 SLP060 A2970 RMK SF5SF3 SLP060 SF5SF3 SLP044 SLP044 FG8 SLP029 SLP029 A2957 RMK FG8 RVR RWY 24 1 MINUTE MEAN SLP018 RMK FG8 RVR RWY 24 1 MINUTE MEAN SLP018 FG8 SLP010 SLP010 A2954 RMK FG8 RVR RWY 24 1 MINUTE MEAN SLP004 RMK FG8 RVR RWY 24 1 MINUTE MEAN SLP004 14/14 A2951 RMK FG6SF2 RVR RWY 24 1 MINUTE MEAN SLP996 A2951 RMK FG6SF2 RVR RWY 24 1 MINUTE MEAN SLP996
CYHZ;2004-10-31 21:00;METAR CYHZ 312100Z 21014KT 1/8SM R15/4000V5500FT/U R24/3000FT FG VV001 13/13 A2952 RMK FG8 RVR RWY 24 1 MINUTE MEAN SLP997 A2952 RMK FG8 RVR RWY 24 1 MINUTE MEAN SLP997
CYHZ;2004-10-31 22:00;METAR CYHZ 312200Z 21010KT 1/4SM R15/P6000FT/U R24/6000FT FG VV001 13/13 A2952 RMK FG8 RVR RWY 24 1 MINUTE MEAN SLP999 RMK FG8 RVR RWY 24 1 MINUTE MEAN SLP999
CYHZ;2004-10-31 23:00;METAR CYHZ 312300Z 22011KT 4SM BR SCT002 OVC005 13/13 A2951 RMK SF3SF5 SLP996
CYHZ;2004-11-01 00:00;METAR CYHZ 010000Z 24012KT 6SM BR BKN006 BKN028 13/13 A2952 RMK SF5SC2 SLP998
CYHZ;2004-11-01 01:00;METAR CYHZ 010100Z 27012KT 10SM BKN020 OVC028 12/11 A2953 RMK SC6SC2 SLP002
CYHZ;2004-11-01 02:00;METAR CYHZ 010200Z 27010KT 15SM BKN014 11/10 A2955 RMK SC5 SLP007
CYHZ;2004-11-01 03:00;METAR CYHZ 010300Z 28007KT 15SM FEW050 10/09 A2955 RMK SC1 SLP008
CYHZ;2004-11-01 04:00;METAR CYHZ 010400Z 25011KT 15SM BKN067 09/09 A2956 RMK AC5 SLP013
CYHZ;2004-11-01 05:00;METAR CYHZ 010500Z 25010KT 15SM OVC072 09/09 A2956 RMK AC8 SLP012
CYHZ;2004-11-01 06:00;METAR CYHZ 010600Z 23009KT 15SM OVC063 10/09 A2956 RMK SC8 SLP012
CYHZ;2004-11-01 07:00;METAR CYHZ 010700Z 25010KT 15SM BKN065 10/09 A2956 RMK SC7 SLP013
CYHZ;2004-11-01 08:00;METAR CYHZ 010800Z 25008KT 15SM FEW065 09/08 A2957 RMK SC2 SLP015
CYHZ;2004-11-01 09:00;METAR CYHZ 010900Z 25006KT 15SM FEW075 09/08 A2957 RMK AC1 SLP017
CYHZ;2004-11-01 10:00;METAR CYHZ 011000Z 25010KT 15SM FEW075 FEW100 09/08 A2958 RMK AC1AC1 SLP018
CYHZ;2004-11-01 11:00;METAR CYHZ 011100Z 25006KT 15SM BKN060 BKN260 08/07 A2959 RMK SC4CI1 SLP022
CYHZ;2004-11-01 12:00;METAR CYHZ 011200Z 26007KT 15SM SCT060 BKN090 09/08 A2960 RMK SC3AC4 SLP025
CYHZ;2004-11-01 13:00;METAR CYHZ 011300Z 30010KT 15SM FEW030 SCT060 BKN098 10/08 A2960 RMK SC1SC2AC4 SLP027 SLP027
CYHZ;2004-11-01 14:00;METAR CYHZ 011400Z 30011KT 15SM FEW030 BKN140 10/08 A2960 RMK SC2AC6 SLP026
CYHZ;2004-11-01 15:00;METAR CYHZ 011500Z 31015G20KT 15SM BKN017 11/08 A2961 RMK SC7 SLP031
CYHZ;2004-11-01 16:00;METAR CYHZ 011600Z 30012G18KT 15SM OVC015 11/08 A2961 RMK SC8 SLP031
CYHZ;2004-11-01 17:00;METAR CYHZ 011700Z 33020G26KT 15SM -RA OVC010 10/08 A2963 RMK SC8 SLP035
CYHZ;2004-11-01 18:00;METAR CYHZ 011800Z 34022G30KT 15SM OVC015 09/06 A2964 RMK SC8 SLP040
CYHZ;2004-11-01 19:00;METAR CYHZ 011900Z 35012G25KT 15SM -SHRA OVC015 08/05 A2968 RMK SC8 SLP054
CYHZ;2004-11-01 20:00;METAR CYHZ 012000Z 34019KT 15SM -SHRA OVC013 06/05 A2972 RMK SC8 SLP067
CYHZ;2004-11-01 21:00;METAR CYHZ 012100Z 33016G24KT 15SM OVC014 06/03 A2975 RMK SC8 SLP076
CYHZ;2004-11-01 22:00;METAR CYHZ 012200Z 34018G25KT 4SM -SHRA BR SCT008 OVC012 05/04 A2978 RMK SF3SC5 SLP087 SLP087
CYHZ;2004-11-01 23:00;METAR CYHZ 012300Z 34021G29KT 15SM -SHRA OVC013 05/03 A2980 RMK SC8 SLP094
CYHZ;2004-11-02 01:00;METAR CYHZ 020100Z 34020G30KT 15SM OVC012 04/02 A2981 RMK SC8 SLP097
CYHZ;2004-11-02 02:00;METAR CYHZ 020200Z 35026G36KT 15SM OVC012 04/03 A2981 RMK SC8 SLP099
CYHZ;2004-11-02 03:00;METAR CYHZ 020300Z 35018G29KT 15SM OVC011 05/03 A2983 RMK SC8 SLP104
CYHZ;2004-11-02 04:00;METAR CYHZ 020400Z 36023G30KT 15SM OVC009 05/04 A2984 RMK SC8 SLP107
CYHZ;2004-11-02 05:00;METAR CYHZ 020500Z 35016G22KT 15SM OVC008 05/04 A2989 RMK SC8 SLP124
CYHZ;2004-11-02 06:00;METAR CYHZ 020600Z 36014G24KT 15SM OVC008 06/05 A2991 RMK SC8 SLP132
CYHZ;2004-11-02 09:00;METAR CYHZ 020900Z 35012KT 15SM OVC006 05/05 A3001 RMK SF8 CIG VRBL 4-8 SLP167
CYHZ;2004-11-02 10:00;METAR CYHZ 021000Z 36014G19KT 15SM FEW008 OVC013 05/05 A3001 RMK SF2SC6 SLP168
CYHZ;2004-11-02 11:00;METAR CYHZ 021100Z 35013G19KT 15SM FEW008 BKN013 OVC017 05/05 A3003 RMK SF1SC6SC2 SLP175 SLP175
CYHZ;2004-11-02 12:00;METAR CYHZ 021200Z 36010G17KT 15SM FEW008 OVC013 05/05 A3006 RMK SF2SC6 SLP184
CYHZ;2004-11-02 13:00;METAR CYHZ 021300Z 36012KT 15SM FEW008 BKN014 06/04 A3007 RMK SF2SC6 SLP187
CYHZ;2004-11-02 14:00;METAR CYHZ 021400Z 01011G18KT 15SM OVC019 06/04 A3007 RMK SC8 SLP187
CYHZ;2004-11-02 15:00;METAR CYHZ 021500Z 36017KT 15SM BKN019 07/03 A3008 RMK SC7 SLP189
CYHZ;2004-11-02 16:00;METAR CYHZ 021600Z 36012KT 15SM OVC021 07/03 A3008 RMK SC8 SLP190
CYHZ;2004-11-02 17:00;METAR CYHZ 021700Z 01011G16KT 15SM BKN025 07/03 A3006 RMK SC7 SLP183
CYHZ;2004-11-02 18:00;METAR CYHZ 021800Z 03008KT 15SM BKN023 07/03 A3007 RMK SC7 SLP187
CYHZ;2004-11-02 19:00;METAR CYHZ 021900Z 35009KT 15SM OVC023 06/03 A3008 RMK SC8 SLP189
CYHZ;2004-11-02 20:00;METAR CYHZ 022000Z 02007KT 15SM OVC023 06/02 A3007 RMK SC8 SLP186
CYHZ;2004-11-02 21:00;METAR CYHZ 022100Z 02006KT 15SM OVC023 06/03 A3007 RMK SC8 SLP188
CYHZ;2004-11-02 22:00;METAR CYHZ 022200Z 03004KT 15SM OVC022 05/02 A3007 RMK SC8 SLP187
CYHZ;2004-11-02 23:00;METAR CYHZ 022300Z 04002KT 15SM OVC025 05/02 A3004 RMK SC8 SLP176
CYHZ;2004-11-03 00:00;METAR CYHZ 030000Z 09002KT 15SM OVC023 05/02 A3001 RMK SC8 SLP166
CYHZ;2004-11-03 01:00;METAR CYHZ 030100Z 00000KT 15SM OVC023 05/01 A3001 RMK SC8 SLP166
CYHZ;2004-11-03 02:00;METAR CYHZ 030200Z 17002KT 15SM OVC021 05/01 A2998 RMK SC8 SLP158
CYHZ;2004-11-03 03:00;METAR CYHZ 030300Z 18002KT 15SM OVC023 05/01 A2995 RMK SC8 SLP147
CYHZ;2004-11-03 04:00;METAR CYHZ 030400Z 18002KT 15SM -RA OVC019 05/02 A2993 RMK SC8 SLP141
CYHZ;2004-11-03 05:00;METAR CYHZ 030500Z 15004KT 15SM -RA OVC024 04/03 A2989 RMK SC8 SLP127
CYHZ;2004-11-03 06:00;METAR CYHZ 030600Z 14006KT 15SM -RA OVC020 04/03 A2985 RMK SC8 SLP114
CYHZ;2004-11-03 07:00;METAR CYHZ 030700Z 16004KT 12SM -RA OVC010 04/04 A2982 RMK NS8 SLP104
CYHZ;2004-11-03 08:00;METAR CYHZ 030800Z 00000KT 12SM -RA BKN008 OVC010 04/04 A2981 RMK SF6NS2 SLP098
CYHZ;2004-11-03 09:00;METAR CYHZ 030900Z 16005KT 7SM -RA BKN007 OVC044 04/04 A2977 RMK SF6SC2 SLP085
CYHZ;2004-11-03 10:00;METAR CYHZ 031000Z 16005KT 3/4SM R15/P6000FT/U -RA BR OVC002 04/04 A2973 RMK NS8 SLP073 SLP073
CYHZ;2004-11-03 11:00;METAR CYHZ 031100Z 13007KT 1/4SM R15/4500FT/D -RA FG VV001 04/04 A2968 RMK FG8 SLP055 SLP055
CYHZ;2004-11-03 12:00;METAR CYHZ 031200Z 17004KT 1/2SM R15/P6000FT/N -RA FG VV001 05/05 A2967 RMK FG8 SLP051 SLP051
CYHZ;2004-11-03 13:00;METAR CYHZ 031300Z 20003KT 3/4SM R15/P6000FT/D -RA BR OVC005 06/06 A2963 RMK FG6ST2 SLP038 FG6ST2 SLP038
CYHZ;2004-11-03 14:00;METAR CYHZ 031400Z 22004KT 2SM -RA BR BKN005 OVC035 06/06 A2958 RMK SF7SC1 SLP023
CYHZ;2004-11-03 15:00;METAR CYHZ 031500Z 25003KT 2SM -RA BR BKN003 OVC030 06/06 A2954 RMK SF6SC2 SLP008
CYHZ;2004-11-03 16:00;METAR CYHZ 031600Z 26004KT 2SM -RA BR BKN005 OVC031 07/07 A2949 RMK SF5SC3 SLP992
CYHZ;2004-11-03 17:00;METAR CYHZ 031700Z 27004KT 2SM -RA BR SCT005 OVC032 07/07 A2946 RMK SF4SC4 SLP981
CYHZ;2004-11-03 18:00;METAR CYHZ 031800Z 30009KT 3SM -RA BR SCT005 OVC020 07/07 A2945 RMK SF4SC4 SLP976
CYHZ;2004-11-03 19:00;METAR CYHZ 031900Z 33024G29KT 7SM -SHRA FEW005 BKN009 OVC030 05/04 A2947 RMK SF2SF4SC2 SLP984 SF2SF4SC2 SLP984
CYHZ;2004-11-03 20:00;METAR CYHZ 032000Z 33021G31KT 9SM -SHRA FEW004 BKN009 OVC050 04/03 A2950 RMK SF2SF4SC2 SLP992 SF2SF4SC2 SLP992
CYHZ;2004-11-03 21:00;METAR CYHZ 032100Z 33017G26KT 12SM FEW005 BKN009 BKN040 03/02 A2953 RMK SF2SF3SC2 OCNL SHRA- SLP005 OCNL SHRA- SLP005
CYHZ;2004-11-03 22:00;METAR CYHZ 032200Z 32024G35KT 12SM FEW008 BKN020 BKN050 03/01 A2955 RMK SF2SC2SC2 SLP011 SLP011
CYHZ;2004-11-03 23:00;METAR CYHZ 032300Z 33023G34KT 12SM FEW010 BKN023 BKN050 03/M00 A2958 RMK SF2SC3SC1 SLP021
CYHZ;2004-11-04 00:00;METAR CYHZ 040000Z 33026G37KT 15SM SCT020 BKN040 03/M01 A2961 RMK SC3SC3 SLP031
CYHZ;2004-11-04 01:00;METAR CYHZ 040100Z 33019G34KT 15SM BKN028 02/M02 A2966 RMK SC6 SLP048
CYHZ;2004-11-04 02:00;METAR CYHZ 040200Z 32022G34KT 15SM SCT031 01/M03 A2967 RMK SC3 SLP053
CYHZ;2004-11-04 03:00;METAR CYHZ 040300Z 32025G34KT 15SM FEW040 02/M03 A2968 RMK SC2 SLP056
CYHZ;2004-11-04 04:00;METAR CYHZ 040400Z 33025G35KT 15SM BKN034 02/M03 A2969 RMK SC5 SLP058
CYHZ;2004-11-04 05:00;METAR CYHZ 040500Z 32030G39KT 15SM BKN041 02/M04 A2971 RMK SC5 SLP065
CYHZ;2004-11-04 06:00;METAR CYHZ 040600Z 34024G34KT 15SM BKN035 02/M04 A2975 RMK SC5 SLP080
CYHZ;2004-11-04 07:00;METAR CYHZ 040700Z 32020G33KT 15SM BKN037 01/M05 A2978 RMK SC6 SLP087
CYHZ;2004-11-04 08:00;METAR CYHZ 040800Z 32023KT 15SM BKN038 01/M05 A2981 RMK SC5 SLP097
CYHZ;2004-11-04 09:00;METAR CYHZ 040900Z 33019G26KT 15SM BKN036 01/M05 A2981 RMK SC5 SLP100
CYHZ;2004-11-04 10:00;METAR CYHZ 041000Z 32017G22KT 15SM BKN034 01/M05 A2983 RMK SC5 SLP108
CYHZ;2004-11-04 11:00;METAR CYHZ 041100Z 32020G26KT 15SM BKN034 01/M05 A2986 RMK SC6 SLP116
CYHZ;2004-11-04 12:00;METAR CYHZ 041200Z 32020G29KT 15SM BKN035 01/M05 A2988 RMK SC6 SLP124
CYHZ;2004-11-04 13:00;METAR CYHZ 041300Z 32024G34KT 15SM BKN035 02/M04 A2986 RMK SC6 SLP118
CYHZ;2004-11-04 14:00;METAR CYHZ 041400Z 33023G28KT 15SM SCT035 03/M04 A2986 RMK SC4 SLP117
CYHZ;2004-11-04 15:00;METAR CYHZ 041500Z 34022G31KT 15SM BKN032 03/M04 A2987 RMK SC5 SLP122
CYHZ;2004-11-04 16:00;METAR CYHZ 041600Z 35018G25KT 15SM SCT030 04/M04 A2987 RMK SC3 SLP119
CYHZ;2004-11-04 17:00;METAR CYHZ 041700Z 32011G16KT 15SM FEW030 04/M04 A2987 RMK SC2 SLP122
CYHZ;2004-11-04 18:00;METAR CYHZ 041800Z 34015KT 15SM FEW030 05/M04 A2988 RMK SC2 SLP125
CYHZ;2004-11-04 19:00;METAR CYHZ 041900Z 31014KT 20SM FEW037 FEW330 05/M04 A2992 RMK CU1CI1 SLP136
CYHZ;2004-11-04 20:00;METAR CYHZ 042000Z 33013KT 20SM FEW035 04/M05 A2989 RMK CU1 SLP126
CYHZ;2004-11-04 21:00;METAR CYHZ 042100Z 33006KT 20SM FEW035 FEW330 02/M05 A2991 RMK SC1CI1 SLP133
CYHZ;2004-11-04 22:00;METAR CYHZ 042200Z 29005KT 20SM FEW330 01/M04 A2990 RMK CI1 SLP132
CYHZ;2004-11-04 23:00;METAR CYHZ 042300Z 25004KT 20SM SKC 01/M04 A2990 RMK SLP131
CYHZ;2004-11-05 00:00;METAR CYHZ 050000Z 10006KT 20SM FEW330 00/M04 A2988 RMK CI0 SLP124
CYHZ;2004-11-05 01:00;METAR CYHZ 050100Z 13005KT 20SM BKN250 00/M04 A2985 RMK CI1 SLP115
CYHZ;2004-11-05 02:00;METAR CYHZ 050200Z 16005KT 20SM BKN230 M00/M04 A2985 RMK CI2 SLP115
CYHZ;2004-11-05 03:00;METAR CYHZ 050300Z 13007KT 15SM BKN220 M00/M03 A2980 RMK CI2 SLP097
CYHZ;2004-11-05 04:00;METAR CYHZ 050400Z 13007KT 15SM OVC210 M01/M03 A2977 RMK CI3 SLP087
CYHZ;2004-11-05 05:00;METAR CYHZ 050500Z 13006KT 15SM OVC180 M01/M03 A2976 RMK AC6 SLP085
CYHZ;2004-11-05 06:00;METAR CYHZ 050600Z 13008KT 15SM OVC160 M00/M03 A2973 RMK AS8 MOON DMLY VISBL SLP074 SLP074
CYHZ;2004-11-05 07:00;METAR CYHZ 050700Z 13008KT 15SM OVC150 01/M01 A2968 RMK AS8 SLP057
CYHZ;2004-11-05 08:00;METAR CYHZ 050800Z 11009KT 15SM BKN130 01/M00 A2962 RMK AS6 SLP037
CYHZ;2004-11-05 09:00;METAR CYHZ 050900Z 14009KT 15SM FEW030 OVC110 03/01 A2958 RMK SC2AS6 SLP022
CYHZ;2004-11-05 10:00;METAR CYHZ 051000Z 16012KT 12SM -SHRA BKN021 OVC080 05/03 A2953 RMK SC6AC2 SLP004
CYHZ;2004-11-05 11:00;METAR CYHZ 051100Z 15016G25KT 3SM -RA BR FEW006 BKN020 OVC068 05/04 A2943 RMK SF2SC5AC2 RERA PRESFR SLP970 SF2SC5AC2 RERA PRESFR SLP970
CYHZ;2004-11-05 12:00;METAR CYHZ 051200Z 14021G34KT 8SM -RA SCT009 BKN022 OVC075 05/04 A2934 RMK SF3SC3AC2 PRESFR SLP941
CYHZ;2004-11-05 13:00;METAR CYHZ 051300Z 14026G35KT 2SM -RA BR BKN004 OVC012 07/06 A2925 RMK SF7SF1 CIG RAG PRESFR SLP909 RAG PRESFR SLP909
CYHZ;2004-11-05 14:00;METAR CYHZ 051400Z 14029G40KT 3/4SM R15/5500FT/D -RA BR BKN005 OVC011 07/07 A2916 RMK SF7SF1 CIG RAG PRESFR SLP879 RMK SF8 RERA CIG RAG PRESFR SLP843
CYHZ;2004-11-05 16:00;METAR CYHZ 051600Z 17023G35KT 1 1/2SM -RA BR OVC004 11/11 A2898 RMK SF8 CIG RAG PRESFR SLP817 PRESFR SLP817
CYHZ;2004-11-05 17:00;METAR CYHZ 051700Z 21026G33KT 12SM SCT010 BKN014 BKN030 11/10 A2898 RMK SF3SC2SC2 SLP817 SLP817
CYHZ;2004-11-05 18:00;METAR CYHZ 051800Z 23021G35KT 10SM -SHRA BKN016 OVC030 09/08 A2898 RMK SC5SC3 SLP818 SLP818
CYHZ;2004-11-05 19:00;METAR CYHZ 051900Z 24022G38KT 12SM -SHRA SCT018 BKN026 BKN048 08/05 A2901 RMK SC3SC2SC2 SLP826 SC3SC2SC2 SLP826
CYHZ;2004-11-05 20:00;METAR CYHZ 052000Z 24019G25KT 15SM FEW024 SCT090 07/03 A2904 RMK SC2SC2 SLP839
CYHZ;2004-11-05 21:00;METAR CYHZ 052100Z 23014G21KT 10SM -SHRA SCT010 OVC034 06/04 A2906 RMK SC3SC5 SLP845 SLP845
CYHZ;2004-11-05 22:00;METAR CYHZ 052200Z 22019G26KT 6SM -SHRA BKN016 OVC030 05/04 A2906 RMK SC5SC3 SLP845
CYHZ;2004-11-05 23:00;METAR CYHZ 052300Z 24018G26KT 10SM FEW069 04/02 A2909 RMK AC2 SLP854
CYHZ;2004-11-06 00:00;METAR CYHZ 060000Z 23018G24KT 10SM FEW090 04/02 A2910 RMK AC2 SLP859
CYHZ;2004-11-06 01:00;METAR CYHZ 060100Z 23021G29KT 10SM FEW063 05/01 A2912 RMK SC2 SLP863
CYHZ;2004-11-06 02:00;METAR CYHZ 060200Z 23022G30KT 15SM SKC 04/00 A2913 RMK SLP867
CYHZ;2004-11-06 03:00;METAR CYHZ 060300Z 23025G32KT 15SM BKN060 05/M00 A2913 RMK SC6 SLP869
CYHZ;2004-11-06 04:00;METAR CYHZ 060400Z 25022G31KT 15SM -SHRA SCT024 OVC047 04/00 A2917 RMK SC3SC5 SLP882 SLP882
CYHZ;2004-11-06 05:00;METAR CYHZ 060500Z 24013G27KT 10SM -SHRA FEW013 OVC022 03/02 A2922 RMK SF2SC6 PRESRR SLP896 PRESRR SLP896
CYHZ;2004-11-06 06:00;METAR CYHZ 060600Z 25017G24KT 15SM -SHRA FEW013 SCT022 BKN054 02/01 A2926 RMK SF2SC2SC3 SLP911 SF2SC2SC3 SLP911
CYHZ;2004-11-06 07:00;METAR CYHZ 060700Z 25013G18KT 15SM -SHRA SCT015 OVC027 03/01 A2929 RMK SF3SC4 SLP922 SLP922
CYHZ;2004-11-06 08:00;METAR CYHZ 060800Z 25012G21KT 6SM -SHRA BR FEW008 BKN015 OVC040 02/02 A2932 RMK SF2SC6SC1 SLP933 SF2SC6SC1 SLP933
CYHZ;2004-11-06 09:00;METAR CYHZ 060900Z 25017G28KT 15SM -SHRA FEW015 OVC052 03/01 A2936 RMK SF1SC7 SLP946 SLP946
CYHZ;2004-11-06 10:00;METAR CYHZ 061000Z 26019G29KT 15SM FEW015 BKN056 03/00 A2940 RMK SF1SC7 SLP959
CYHZ;2004-11-06 11:00;METAR CYHZ 061100Z 25017G25KT 15SM FEW010 BKN060 03/M00 A2943 RMK SF1SC4 SLP971
CYHZ;2004-11-06 12:00;METAR CYHZ 061200Z 25017G24KT 15SM BKN042 03/M01 A2947 RMK SC7 PRESRR SLP983
CYHZ;2004-11-06 13:00;METAR CYHZ 061300Z 26019G25KT 15SM BKN040 04/M02 A2949 RMK SC7 SLP992
CYHZ;2004-11-06 14:00;METAR CYHZ 061400Z 24021G27KT 15SM BKN040 04/M03 A2952 RMK SC7 SLP000
CYHZ;2004-11-06 15:00;METAR CYHZ 061500Z 26015G26KT 15SM BKN035 05/M02 A2953 RMK SC6 SLP004
CYHZ;2004-11-06 16:00;METAR CYHZ 061600Z 26016G28KT 20SM SCT040 SCT260 06/M03 A2951 RMK CU3CI1 SLP997
CYHZ;2004-11-06 17:00;METAR CYHZ 061700Z 27019G28KT 20SM FEW040 FEW260 08/M03 A2951 RMK CU2CI1
CYHZ;2004-11-06 18:00;METAR CYHZ 061800Z 25020G31KT 20SM FEW045 FEW260 08/M01 A2951 RMK CU2CI1 SLP996
CYHZ;2004-11-06 19:00;METAR CYHZ 061900Z 25016G29KT 15SM FEW050 FEW250 08/00 A2952 RMK CU2CI1 SLP999
CYHZ;2004-11-06 20:00;METAR CYHZ 062000Z 24011KT 15SM BKN045 08/01 A2952 RMK SC6 SLP002
CYHZ;2004-11-06 21:00;METAR CYHZ 062100Z 23016G22KT 15SM BKN041 08/02 A2952 RMK SC6 SLP999
CYHZ;2004-11-06 22:00;METAR CYHZ 062200Z 22015G22KT 15SM SCT045 08/02 A2952 RMK SC4 SLP001
CYHZ;2004-11-06 23:00;METAR CYHZ 062300Z 22015G20KT 15SM SCT040 BKN094 08/03 A2952 RMK SC3AC2 SLP002
CYHZ;2004-11-07 00:00;METAR CYHZ 070000Z 22018KT 15SM FEW040 SCT090 08/03 A2952 RMK SC2AC2 SLP000
CYHZ;2004-11-07 01:00;METAR CYHZ 070100Z 22017G22KT 15SM FEW025 BKN090 07/04 A2953 RMK SC2AC2 SLP003
CYHZ;2004-11-07 02:00;METAR CYHZ 070200Z 21018KT 15SM FEW025 SCT090 BKN160 07/04 A2952 RMK SC2AC2AC2 SLP002 SLP002
CYHZ;2004-11-07 03:00;METAR CYHZ 070300Z 22019G26KT 15SM FEW025 BKN085 BKN160 08/04 A2952 RMK SC1AC4AC2 SLP999 SLP999
CYHZ;2004-11-07 04:00;METAR CYHZ 070400Z 22017G26KT 15SM FEW025 BKN073 BKN160 08/05 A2952 RMK SC1AC4AC1 LTGIC DIST N SLP000 LTGIC DIST N SLP000
CYHZ;2004-11-07 05:00;METAR CYHZ 070500Z 22018KT 15SM FEW070 SCT250 08/05 A2953 RMK AC2CI0 LTGIC DIST N SLP003
CYHZ;2004-11-07 06:00;METAR CYHZ 070600Z 25010KT 15SM BKN024 OVC045 08/04 A2958 RMK SC6SC1 SLP020
CYHZ;2004-11-07 07:00;METAR CYHZ 070700Z 26015G21KT 15SM FEW025 BKN100 08/04 A2959 RMK SC1AC5 SLP024
CYHZ;2004-11-07 08:00;METAR CYHZ 070800Z 28013G21KT 15SM FEW100 07/02 A2963 RMK AC1 SLP038
CYHZ;2004-11-07 09:00;METAR CYHZ 070900Z 29013G22KT 15SM SKC 05/M02 A2968 RMK SLP055
CYHZ;2004-11-07 10:00;METAR CYHZ 071000Z 29010G17KT 15SM FEW100 FEW210 04/M02 A2973 RMK AC1CI1 PRESRR SLP072 SLP072
CYHZ;2004-11-07 11:00;METAR CYHZ 071100Z 29010KT 15SM FEW040 FEW100 FEW210 03/M02 A2980 RMK SC1AC1CI0 SC TR PRESRR SLP093 SC TR PRESRR SLP093
CYHZ;2004-11-07 12:00;METAR CYHZ 071200Z 29011KT 15SM FEW100 03/M02 A2984 RMK AC1 SLP109
CYHZ;2004-11-07 13:00;METAR CYHZ 071300Z 26012KT 15SM FEW030 FEW100 FEW220 04/M02 A2987 RMK SC1AC1CI1 SLP120 SLP120
CYHZ;2004-11-07 14:00;METAR CYHZ 071400Z 29011KT 15SM FEW030 FEW220 06/M02 A2990 RMK SC1CI0 SLP129
CYHZ;2004-11-07 15:00;METAR CYHZ 071500Z 28004KT 15SM FEW030 FEW100 FEW220 06/M02 A2991 RMK SC1AC1CI1 SC TR SLP131 SC TR SLP131
CYHZ;2004-11-07 16:00;METAR CYHZ 071600Z 23002KT 15SM FEW030 FEW120 SCT220 08/M03 A2988 RMK SC1AC2CI1 SLP123 SLP123
CYHZ;2004-11-07 17:00;METAR CYHZ 071700Z 21011KT 15SM SCT120 BKN220 09/M03 A2989 RMK AC3CI1 AS ASOCTD SLP124 SLP124
CYHZ;2004-11-07 18:00;METAR CYHZ 071800Z 18013KT 15SM FEW080 BKN130 OVC220 08/M02 A2989 RMK AC2AS4CI1 SLP125 SLP125
CYHZ;2004-11-07 19:00;METAR CYHZ 071900Z 18012KT 15SM BKN090 BKN220 07/00 A2989 RMK AC6CI1 SLP126
CYHZ;2004-11-07 20:00;METAR CYHZ 072000Z 17011KT 15SM FEW090 BKN120 07/01 A2989 RMK AC2AS6
CYHZ;2004-11-07 21:00;METAR CYHZ 072100Z 16008KT 15SM BKN120 07/02 A2988 RMK AS7 SLP122
CYHZ;2004-11-07 22:00;METAR CYHZ 072200Z 15011KT 15SM OVC140 07/04 A2987 RMK AS8 SLP121
CYHZ;2004-11-07 23:00;METAR CYHZ 072300Z 15012KT 15SM OVC140 07/04 A2986 RMK AS8 SLP116
CYHZ;2004-11-08 00:00;METAR CYHZ 080000Z 16013KT 15SM FEW012 OVC130 08/06 A2984 RMK SC2AS6 SLP107
CYHZ;2004-11-08 01:00;METAR CYHZ 080100Z 17013KT 15SM BKN008 OVC130 09/08 A2979 RMK SF6AS2 SLP092
CYHZ;2004-11-08 02:00;METAR CYHZ 080200Z 18012G18KT 15SM SCT015 BKN130 10/09 A2980 RMK SC3AS4 SLP095
CYHZ;2004-11-08 03:00;METAR CYHZ 080300Z 19016G21KT 15SM FEW014 SCT150 10/09 A2978 RMK SC2AC1 SLP086
CYHZ;2004-11-08 04:00;METAR CYHZ 080400Z 19013KT 15SM FEW015 FEW150 10/09 A2976 RMK SC1AC1 AURBO SLP081
CYHZ;2004-11-08 05:00;METAR CYHZ 080500Z 19016KT 15SM BKN013 11/10 A2974 RMK SC7 SLP073
CYHZ;2004-11-08 06:00;METAR CYHZ 080600Z 20017KT 15SM BKN015 11/10 A2972 RMK SC7 SLP066
CYHZ;2004-11-08 07:00;METAR CYHZ 080700Z 21018G25KT 15SM BKN013 OVC150 12/10 A2970 RMK SC6AS2 SLP060
CYHZ;2004-11-08 08:00;METAR CYHZ 080800Z 21017KT 15SM BKN015 OVC150 12/10 A2969 RMK SC7AS1 SLP055
CYHZ;2004-11-08 09:00;METAR CYHZ 080900Z 22017G22KT 15SM SCT015 OVC120 11/10 A2966 RMK SC3AS5 SLP047
CYHZ;2004-11-08 10:00;METAR CYHZ 081000Z 21012G18KT 15SM BKN012 OVC150 11/10 A2962 RMK SC7AS1 SLP033
CYHZ;2004-11-08 11:00;METAR CYHZ 081100Z 21014KT 10SM BKN010 OVC015 11/10 A2961 RMK SF6SC2 CIG RAG SLP029 SLP029
CYHZ;2004-11-08 12:00;METAR CYHZ 081200Z 21014KT 8SM BKN007 OVC012 11/10 A2960 RMK SF6SF2 SLP025
CYHZ;2004-11-08 13:00;METAR CYHZ 081300Z 22012G17KT 10SM BKN007 OVC012 11/10 A2959 RMK SF6SF2 SLP024
CYHZ;2004-11-08 14:00;METAR CYHZ 081400Z 22018KT 8SM BKN007 OVC015 11/10 A2958 RMK SF6SF2 SLP021
CYHZ;2004-11-08 15:00;METAR CYHZ 081500Z 31016G22KT 12SM -SHRA BKN008 OVC012 07/06 A2960 RMK SF6SF2 SLP026 SLP026
CYHZ;2004-11-08 16:00;METAR CYHZ 081600Z 33016KT 2SM -SHRA BR BKN003 OVC008 05/05 A2961 RMK SF5SC3 SLP030 SLP030
CYHZ;2004-11-08 17:00;METAR CYHZ 081700Z 33015KT 12SM -SHRASN BKN005 OVC010 02/02 A2966 RMK SF5SC3 SLP048 SLP048
CYHZ;2004-11-08 18:00;METAR CYHZ 081800Z 33013KT 12SM -SHRA BKN008 OVC012 02/02 A2968 RMK SF7SC1
CYHZ;2004-11-08 19:00;METAR CYHZ 081900Z 32017G22KT 15SM FEW008 BKN030 BKN090 02/01 A2974 RMK SF2SC3AC1 PRESRR SLP073 PRESRR SLP073
CYHZ;2004-11-08 20:00;METAR CYHZ 082000Z 31013G18KT 15SM FEW018 FEW150 BKN250 02/M01 A2978 RMK SC2AC1CI0 SLP088
CYHZ;2004-11-08 21:00;METAR CYHZ 082100Z 30010G16KT 15SM FEW020 BKN240 01/M01 A2982 RMK SC1CI2 SLP101
CYHZ;2004-11-08 22:00;METAR CYHZ 082200Z 30010KT 15SM FEW020 BKN240 00/M03 A2987 RMK SC1CI2 PRESRR SLP117 SLP117
CYHZ;2004-11-08 23:00;METAR CYHZ 082300Z 30007KT 15SM FEW040 BKN230 00/M03 A2990 RMK SC2CI2 SLP130
CYHZ;2004-11-09 00:00;METAR CYHZ 090000Z 31007KT 15SM FEW230 00/M04 A2992 RMK CI1 SLP135
CYHZ;2004-11-09 01:00;METAR CYHZ 090100Z 30007KT 15SM FEW230 00/M05 A2995 RMK CI1 SLP146
CYHZ;2004-11-09 02:00;METAR CYHZ 090200Z 31007KT 15SM SKC M00/M05 A2998 RMK SLP155
CYHZ;2004-11-09 03:00;METAR CYHZ 090300Z 32006KT 15SM FEW250 M01/M05 A3000 RMK CI1 SLP163
CYHZ;2004-11-09 04:00;METAR CYHZ 090400Z 33005KT 15SM FEW250 M02/M06 A3001 RMK CI1 SLP166
CYHZ;2004-11-09 05:00;METAR CYHZ 090500Z 31005KT 15SM FEW250 M02/M06 A3002 RMK CI1 SLP171
CYHZ;2004-11-09 06:00;METAR CYHZ 090600Z 29005KT 15SM FEW250 M02/M06 A3004 RMK CI1 SLP180
CYHZ;2004-11-09 07:00;METAR CYHZ 090700Z 29004KT 15SM SKC M03/M06 A3006 RMK SLP187
CYHZ;2004-11-09 08:00;METAR CYHZ 090800Z 27004KT 15SM FEW250 M03/M06 A3008 RMK CI1 SLP191
CYHZ;2004-11-09 09:00;METAR CYHZ 090900Z 27003KT 15SM SKC M03/M06 A3009 RMK SLP195
CYHZ;2004-11-09 10:00;METAR CYHZ 091000Z 25004KT 15SM FEW250 M04/M06 A3011 RMK CI1 SLP202
CYHZ;2004-11-09 11:00;METAR CYHZ 091100Z 27004KT 15SM FEW035 M04/M06 A3013 RMK SC1 SLP208
CYHZ;2004-11-09 12:00;METAR CYHZ 091200Z 29005KT 15SM FEW035 M03/M05 A3015 RMK SC1 SLP216
CYHZ;2004-11-09 13:00;METAR CYHZ 091300Z 30006KT 15SM FEW035 M02/M04 A3016 RMK CU2 SLP219
CYHZ;2004-11-09 14:00;METAR CYHZ 091400Z 32011KT 15SM BKN030 M00/M05 A3016 RMK SC6 SLP220
CYHZ;2004-11-09 15:00;METAR CYHZ 091500Z 32009KT 15SM BKN030 00/M06 A3016 RMK SC5 SLP221
CYHZ;2004-11-09 16:00;METAR CYHZ 091600Z 32013KT 15SM BKN036 02/M05 A3015 RMK SC6 SLP217
CYHZ;2004-11-09 17:00;METAR CYHZ 091700Z 31009G17KT 15SM BKN040 02/M07 A3016 RMK SC5 SHSN W-N SLP219
CYHZ;2004-11-09 18:00;METAR CYHZ 091800Z 32008G16KT 15SM BKN040 02/M06 A3016 RMK SC5 SHSN W-N SLP221
CYHZ;2004-11-09 19:00;METAR CYHZ 091900Z 33012KT 15SM VCSH BKN035 00/M07 A3016 RMK CU5 SLP220
CYHZ;2004-11-09 20:00;METAR CYHZ 092000Z 33012KT 15SM -SHSN BKN047 00/M08 A3018 RMK CU5 SLP226
CYHZ;2004-11-09 21:00;METAR CYHZ 092100Z 32009G16KT 15SM -SHSN BKN056 M01/M07 A3020 RMK SC6 SLP235
CYHZ;2004-11-09 22:00;METAR CYHZ 092200Z 35007KT 15SM BKN050 M01/M07 A3023 RMK SC5 SLP244
CYHZ;2004-11-09 23:00;METAR CYHZ 092300Z 35005KT 15SM BKN058 M02/M08 A3025 RMK SC4 SLP250
CYHZ;2004-11-10 00:00;METAR CYHZ 100000Z 32004KT 15SM BKN058 M02/M08 A3027 RMK SC5 SLP257
CYHZ;2004-11-10 01:00;METAR CYHZ 100100Z 34008KT 15SM BKN060 M02/M08 A3028 RMK SC6 SLP262
CYHZ;2004-11-10 02:00;METAR CYHZ 100200Z 33008KT 15SM SCT058 M02/M09 A3030 RMK SC3 SLP267
CYHZ;2004-11-10 03:00;METAR CYHZ 100300Z 31008KT 15SM FEW060 M03/M09 A3030 RMK SC1 SLP268
CYHZ;2004-11-10 04:00;METAR CYHZ 100400Z 35004KT 20SM FEW050 M04/M08 A3031 RMK SC1 AURBO SLP270
CYHZ;2004-11-10 05:00;METAR CYHZ 100500Z 32007KT 20SM FEW050 M04/M08 A3031 RMK SC1 SLP270
CYHZ;2004-11-10 06:00;METAR CYHZ 100600Z 34006KT 20SM FEW250 M05/M08 A3032 RMK CI1 SLP275
CYHZ;2004-11-10 07:00;METAR CYHZ 100700Z 30004KT 20SM SKC M05/M08 A3032 RMK AURBO SLP276
CYHZ;2004-11-10 08:00;METAR CYHZ 100800Z 31007KT 20SM SKC M05/M08 A3033 RMK AURBO SLP278
CYHZ;2004-11-10 09:00;METAR CYHZ 100900Z 32006KT 20SM SKC M06/M07 A3034 RMK SLP283
CYHZ;2004-11-10 10:00;METAR CYHZ 101000Z 32007KT 20SM SKC M05/M07 A3037 RMK SLP291
CYHZ;2004-11-10 11:00;METAR CYHZ 101100Z 32009G16KT 15SM FEW040 M06/M08 A3038 RMK SC1 SLP297
CYHZ;2004-11-10 12:00;METAR CYHZ 101200Z 33008KT 15SM FEW040 M05/M08 A3040 RMK SC1 SLP304
CYHZ;2004-11-10 13:00;METAR CYHZ 101300Z 33009KT 15SM FEW030 M03/M07 A3042 RMK SC1 SLP309
CYHZ;2004-11-10 14:00;METAR CYHZ 101400Z 33013KT 15SM FEW030 M02/M08 A3043 RMK CU1 SLP314
CYHZ;2004-11-10 15:00;METAR CYHZ 101500Z 32011G18KT 15SM FEW035 M00/M10 A3044 RMK CU1 SLP317
CYHZ;2004-11-10 16:00;METAR CYHZ 101600Z 33011G18KT 15SM FEW040 01/M11 A3043 RMK CU1 SLP311
CYHZ;2004-11-10 17:00;METAR CYHZ 101700Z 31013KT 15SM FEW040 01/M10 A3042 RMK CU2 SLP309
CYHZ;2004-11-10 18:00;METAR CYHZ 101800Z 31012G19KT 15SM FEW040 01/M11 A3042 RMK SC1 SLP309
CYHZ;2004-11-10 19:00;METAR CYHZ 101900Z 32012KT 15SM FEW045 01/M11 A3043 RMK CU1 SLP312
CYHZ;2004-11-10 20:00;METAR CYHZ 102000Z 35006KT 15SM FEW045 00/M12 A3044 RMK CU1 SLP317
CYHZ;2004-11-10 21:00;METAR CYHZ 102100Z 33003KT 15SM FEW045 FEW090 M01/M11 A3045 RMK CU1AC1 SLP320
CYHZ;2004-11-10 22:00;METAR CYHZ 102200Z 34002KT 15SM SKC M02/M11 A3046 RMK SLP323
CYHZ;2004-11-10 23:00;METAR CYHZ 102300Z 27002KT 15SM SKC M02/M10 A3047 RMK SLP326
CYHZ;2004-11-11 00:00;METAR CYHZ 110000Z 21004KT 15SM SKC M03/M09 A3047 RMK SLP328
CYHZ;2004-11-11 01:00;METAR CYHZ 110100Z 24002KT 15SM SKC M03/M10 A3048 RMK OBS TAKEN +07 SLP331
CYHZ;2004-11-11 02:00;METAR CYHZ 110200Z 18004KT 20SM SKC M03/M09 A3047 RMK OBS TAKEN +29 SLP327
CYHZ;2004-11-11 03:00;METAR CYHZ 110300Z 20003KT 20SM SKC M03/M10 A3046 RMK SLP323
CYHZ;2004-11-11 04:00;METAR CYHZ 110400Z 20003KT 20SM SKC M03/M09 A3046 RMK AURBO SLP321
CYHZ;2004-11-11 05:00;METAR CYHZ 110500Z 16006KT 20SM SKC M05/M10 A3044 RMK SLP315
CYHZ;2004-11-11 06:00;METAR CYHZ 110600Z 17006KT 20SM SKC M05/M09 A3043 RMK SLP312
CYHZ;2004-11-11 07:00;METAR CYHZ 110700Z 18004KT 20SM SKC M05/M10 A3041 RMK SLP305
CYHZ;2004-11-11 08:00;METAR CYHZ 110800Z 20005KT 20SM SKC M03/M09 A3041 RMK SLP306
CYHZ;2004-11-11 09:00;METAR CYHZ 110900Z 20008KT 20SM SKC M02/M08 A3040 RMK SLP302
CYHZ;2004-11-11 10:00;METAR CYHZ 111000Z 16007KT 20SM BKN060 BKN070 M03/M07 A3039 RMK SC5AC1 SLP298
CYHZ;2004-11-11 11:00;METAR CYHZ 111100Z 17003KT 15SM FEW026 BKN070 BKN140 BKN220 M02/M06 A3038 RMK SC2AC2AC1CI0 SLP296 SC2AC2AC1CI0 SLP296
CYHZ;2004-11-11 12:00;METAR CYHZ 111200Z 18006KT 15SM FEW025 FEW140 BKN220 M00/M04 A3037 RMK SC1AC2CI0 SLP293 SLP293
CYHZ;2004-11-11 13:00;METAR CYHZ 111300Z 17006KT 15SM FEW027 SCT140 BKN220 01/M02 A3036 RMK SC2AC1CI0 SLP287 SLP287
CYHZ;2004-11-11 14:00;METAR CYHZ 111400Z 20011KT 15SM FEW027 SCT220 05/M00 A3034 RMK SC2CI0 SLP283
CYHZ;2004-11-11 15:00;METAR CYHZ 111500Z 20019G25KT 15SM BKN029 BKN220 06/00 A3032 RMK SC6CI0 SLP275
CYHZ;2004-11-11 16:00;METAR CYHZ 111600Z 20014G26KT 15SM BKN028 07/01 A3029 RMK SC7 SLP265
CYHZ;2004-11-11 17:00;METAR CYHZ 111700Z 19016G22KT 15SM OVC026 07/02 A3027 RMK SC8 SLP257
CYHZ;2004-11-11 18:00;METAR CYHZ 111800Z 20016G21KT 15SM OVC022 07/02 A3025 RMK SC8 SLP250
CYHZ;2004-11-11 19:00;METAR CYHZ 111900Z 19016G22KT 15SM OVC022 07/03 A3022 RMK SC8 SLP242
CYHZ;2004-11-11 20:00;METAR CYHZ 112000Z 20016G22KT 15SM OVC023 07/02 A3023 RMK SC8 SLP243
CYHZ;2004-11-11 21:00;METAR CYHZ 112100Z 19013G21KT 15SM BKN017 OVC023 07/04 A3021 RMK SF6SC2 SLP237
CYHZ;2004-11-11 22:00;METAR CYHZ 112200Z 20010G16KT 15SM BKN016 OVC025 07/05 A3022 RMK SF6SC2 SLP240
CYHZ;2004-11-11 23:00;METAR CYHZ 112300Z 20011KT 15SM BKN014 OVC021 07/05 A3020 RMK SC6SC2 SLP234
CYHZ;2004-11-12 00:00;METAR CYHZ 120000Z 21011KT 15SM BKN014 OVC020 08/06 A3019 RMK SF6SC2 SLP229
CYHZ;2004-11-12 01:00;METAR CYHZ 120100Z 23011KT 15SM OVC016 08/06 A3021 RMK SC8 SLP236
CYHZ;2004-11-12 02:00;METAR CYHZ 120200Z 21007KT 15SM SCT016 OVC022 08/06 A3020 RMK SF3SC5 SLP231
CYHZ;2004-11-12 03:00;METAR CYHZ 120300Z 23008KT 15SM OVC018 08/06 A3020 RMK SC8 SLP230
CYHZ;2004-11-12 04:00;METAR CYHZ 120400Z 22006KT 15SM OVC023 08/06 A3019 RMK SC8 SLP229
CYHZ;2004-11-12 05:00;METAR CYHZ 120500Z 23006KT 15SM OVC023 08/06 A3020 RMK SC8 SLP230
CYHZ;2004-11-12 06:00;METAR CYHZ 120600Z 26005KT 15SM OVC021 08/06 A3021 RMK SC8 SLP234
CYHZ;2004-11-12 07:00;METAR CYHZ 120700Z 29004KT 15SM BKN016 OVC024 07/06 A3022 RMK SC5SC3 SLP237
CYHZ;2004-11-12 08:00;METAR CYHZ 120800Z 34008KT 15SM OVC013 07/06 A3022 RMK SC8 SLP239 S SLP254 SLP254
CYHZ;2004-11-12 10:00;METAR CYHZ 121000Z 02013KT 15SM OVC013 03/01 A3029 RMK SC8 SLP261
CYHZ;2004-11-12 11:00;METAR CYHZ 121100Z 01010KT 15SM OVC019 02/M02 A3031 RMK SC8 SLP270
CYHZ;2004-11-12 12:00;METAR CYHZ 121200Z 01013G18KT 15SM OVC019 02/M03 A3033 RMK SC8 SLP275
CYHZ;2004-11-12 13:00;METAR CYHZ 121300Z 01012G20KT 15SM BKN021 OVC028 02/M04 A3034 RMK SC6SC2 SLP281
CYHZ;2004-11-12 14:00;METAR CYHZ 121400Z 01010G16KT 15SM OVC024 02/M04 A3036 RMK SC8 SLP285
CYHZ;2004-11-12 15:00;METAR CYHZ 121500Z 36013KT 15SM BKN026 OVC036 03/M03 A3037 RMK SC6SC2 SLP289
CYHZ;2004-11-12 16:00;METAR CYHZ 121600Z 36011KT 15SM SCT026 BKN038 03/M03 A3037 RMK SC3SC4 SLP288
CYHZ;2004-11-12 17:00;METAR CYHZ 121700Z 01009KT 15SM SCT032 BKN039 04/M02 A3036 RMK SC3SC4 SLP286
CYHZ;2004-11-12 18:00;METAR CYHZ 121800Z 02010KT 15SM SCT035 SCT075 BKN250 04/M02 A3036 RMK SC3AC1CI0 SLP284 SLP284
CYHZ;2004-11-12 19:00;METAR CYHZ 121900Z 05006KT 15SM BKN033 BKN075 BKN250 04/M02 A3035 RMK SC5AC1CI0 SLP282 SLP282
CYHZ;2004-11-12 20:00;METAR CYHZ 122000Z 36004KT 15SM BKN029 BKN250 04/M01 A3037 RMK SC6CI1
CYHZ;2004-11-12 21:00;METAR CYHZ 122100Z 36004KT 15SM BKN035 BKN100 OVC250 04/M01 A3037 RMK SC5AC2CI1 SLP291 SLP291
CYHZ;2004-11-12 22:00;METAR CYHZ 122200Z 04003KT 15SM FEW035 BKN100 BKN240 03/M01 A3040 RMK SC2AC2CI1 SLP298 SLP298
CYHZ;2004-11-12 23:00;METAR CYHZ 122300Z 06004KT 15SM OVC024 03/M01 A3042 RMK SC8 SLP305
CYHZ;2004-11-13 00:00;METAR CYHZ 130000Z 05008KT 15SM OVC030 02/M01 A3042 RMK SC8 SLP307
CYHZ;2004-11-13 01:00;METAR CYHZ 130100Z 05006KT 15SM BKN030 OVC120 02/M02 A3043 RMK SC5AC3 SLP310
CYHZ;2004-11-13 02:00;METAR CYHZ 130200Z 04006KT 15SM BKN030 BKN085 BKN120 01/M03 A3044 RMK SC5AC1AC1 SLP314 SLP314
CYHZ;2004-11-13 03:00;METAR CYHZ 130300Z 05005KT 20SM SCT130 00/M03 A3044 RMK AC3 SLP314
CYHZ;2004-11-13 04:00;METAR CYHZ 130400Z 03005KT 20SM BKN130 00/M03 A3045 RMK AC6 SLP319
CYHZ;2004-11-13 05:00;METAR CYHZ 130500Z 01003KT 20SM FEW070 BKN130 M00/M03 A3045 RMK AC1AC4 SLP317
CYHZ;2004-11-13 06:00;METAR CYHZ 130600Z 02005KT 20SM FEW130 M01/M03 A3044 RMK AC2 SLP315
CYHZ;2004-11-13 07:00;METAR CYHZ 130700Z 03005KT 20SM FEW100 M01/M03 A3044 RMK AC2 SLP314
CYHZ;2004-11-13 08:00;METAR CYHZ 130800Z 02004KT 20SM FEW100 M01/M03 A3043 RMK AC1 SLP312
CYHZ;2004-11-13 09:00;METAR CYHZ 130900Z 36004KT 20SM FEW100 M01/M03 A3044 RMK AC1 SLP315
CYHZ;2004-11-13 10:00;METAR CYHZ 131000Z 02004KT 20SM FEW030 FEW100 BKN240 M01/M03 A3043 RMK SC1AC1CS1 SLP312 SLP312
CYHZ;2004-11-13 11:00;METAR CYHZ 131100Z 03008KT 15SM FEW050 OVC080 M01/M03 A3044 RMK SC2AS6
CYHZ;2004-11-13 12:00;METAR CYHZ 131200Z 03005KT 15SM SCT050 OVC080 M01/M03 A3044 RMK SC3AS5 SLP315
CYHZ;2004-11-13 13:00;METAR CYHZ 131300Z 04006KT 15SM -SN FEW050 OVC070 M00/M02 A3041 RMK SC2AS6 SLP306
CYHZ;2004-11-13 14:00;METAR CYHZ 131400Z 04006KT 15SM -SN FEW015 OVC050 01/M02 A3043 RMK SF1NS7
CYHZ;2004-11-13 15:00;METAR CYHZ 131500Z 05009KT 10SM -SN OVC045 01/M02 A3040 RMK NS8 SLP302 SLP294
CYHZ;2004-11-13 17:00;METAR CYHZ 131700Z 04007KT 1/2SM R15/4000FT/N SN VV004 M00/M00 A3037 RMK SN8 /S04/ SLP290 /S04/ SLP290
CYHZ;2004-11-13 18:00;METAR CYHZ 131800Z 04009KT 1/2SM R15/3500V5500FT/U SN VV005 M00/M00 A3034 RMK SN8 /S07/ SLP283 /S07/ SLP283
CYHZ;2004-11-13 19:00;METAR CYHZ 131900Z 03010KT 1/2SM R15/3000V4500FT/D SN VV004 M00/M01 A3031 RMK SN8 /SO3/ SLP272 /SO3/ SLP272
CYHZ;2004-11-13 20:00;METAR CYHZ 132000Z 03010KT 3/4SM R15/P6000FT/D -SN OVC005 M00/M00 A3032 RMK NS8 RESN /S04/ SLP275 RESN /S04/ SLP275
CYHZ;2004-11-13 21:00;METAR CYHZ 132100Z 03009G16KT 5/8SM R15/P6000FT/D -SN OVC004 M00/M00 A3030 RMK NS8 SLP269 NS8 SLP269
CYHZ;2004-11-13 22:00;METAR CYHZ 132200Z 03012G18KT 3/4SM R15/P6000FT/N -SN OVC003 M00/M00 A3029 RMK NS8 /S07/ SLP265 NS8 /S07/ SLP265
CYHZ;2004-11-13 23:00;METAR CYHZ 132300Z 03015KT 3/4SM R15/P6000FT/U -SN OVC003 M00/M00 A3028 RMK NS8 /S08/ SLP260 /S08/ SLP260
CYHZ;2004-11-14 00:00;METAR CYHZ 140000Z 03018KT 5/8SM R15/3000FT/N -SN OVC003 M00/M00 A3024 RMK NS8 /S09/ SLP248 /S09/ SLP248
CYHZ;2004-11-14 01:00;METAR CYHZ 140100Z 03016G22KT 3/4SM R15/3500FT/D -SN OVC004 M00/M00 A3022 RMK NS8 /S01/ SLP242 /S01/ SLP242
CYHZ;2004-11-14 02:00;METAR CYHZ 140200Z 03015G22KT 3/4SM R15/5000FT/D -SN OVC003 M00/M00 A3020 RMK NS8 /S02/ SLP234 /S02/ SLP234
CYHZ;2004-11-14 03:00;METAR CYHZ 140300Z 03014G21KT 1SM R15/1400V4000FT/D -SN VV003 M00/M00 A3017 RMK SN8 SLP224 SN8 SLP224
CYHZ;2004-11-14 04:00;METAR CYHZ 140400Z 02018KT 1SM R15/1200V1800FT/U -SN OVC004 M00/M00 A3015 RMK NS8 CIG VRB 3-5 VSBY VRBL 3/4-11/4 /S05/ SLP216 CIG VRB 3-5 VSBY VRBL 3/4-11/4 /S05/ SLP216
CYHZ;2004-11-14 05:00;METAR CYHZ 140500Z 02019G26KT 1SM R15/1600FT/N -SN OVC004 M00/M00 A3013 RMK NS8 CIG VRB 3-5 VSBY VRBL 3/4-11/4 /S07/ SLP208 CIG VRB 3-5 VSBY VRBL 3/4-11/4 /S07/ SLP208
CYHZ;2004-11-14 06:00;METAR CYHZ 140600Z 02021G31KT 3/4SM -SN DRSN VV003 00/00 A3011 RMK SN8 CIG VRB 2-4 VSBY VRBL 1/2-1 /S09/ SLP201 2-4 VSBY VRBL 1/2-1 /S09/ SLP201
CYHZ;2004-11-14 07:00;METAR CYHZ 140700Z 03024G34KT 3/4SM R15/1600V3500FT/U -SN DRSN VV003 00/00 A3007 RMK SN8 CIG VRB 2-4 VSBY VRBL 1/2-1 /S01/ SLP189 RMK SN8 CIG VRB 2-4 VSBY VRBL 1/2-1 /S01/ SLP189
CYHZ;2004-11-14 08:00;METAR CYHZ 140800Z 03021G30KT 1 1/2SM R15/1400V3500FT/D -SN DRSN OVC004 00/00 A3003 RMK NS8 SLP177 A3003 RMK NS8 SLP177
CYHZ;2004-11-14 09:00;METAR CYHZ 140900Z 02024G32KT 2SM -PLSN DRSN OVC006 00/00 A3002 RMK SF8 SLP173
CYHZ;2004-11-14 10:00;METAR CYHZ 141000Z 02021G33KT 2 1/2SM R15/4000VP6000FT/D -PLSN DRSN BKN005 OVC010 00/00 A2999 RMK SF6NS2 SLP161 00/00 A2999 RMK SF6NS2 SLP161
CYHZ;2004-11-14 11:00;METAR CYHZ 141100Z 01023G31KT 1 1/2SM R15/5000FT/U -SNPL BKN003 OVC012 00/00 A2998 RMK SF6NS2 DRSN RVR15 4000V6000 SLP159 A2998 RMK SF6NS2 DRSN RVR15 4000V6000 SLP159
CYHZ;2004-11-14 12:00;METAR CYHZ 141200Z 01023G33KT 1/4SM R15/3000FT/D SNPL FG VV003 00/00 A2999 RMK SN8 DRSN /S06/ SLP161 SN8 DRSN /S06/ SLP161
CYHZ;2004-11-14 13:00;METAR CYHZ 141300Z 01024G35KT 1/4SM SNPL FG VV008 00/00 A2998 RMK SN8 DRSN /S01/ SLP159 SLP159
CYHZ;2004-11-14 14:00;METAR CYHZ 141400Z 01026G34KT 1/4SM R15/2800V4500FT/D SNPL FG VV004 00/00 A2998 RMK SN8 DRSN /S02/ SLP158 RMK SN8 DRSN /S02/ SLP158
CYHZ;2004-11-14 15:00;METAR CYHZ 141500Z 01024G33KT 1/4SM R15/2800FT/N SNPL FG VV003 00/00 A2997 RMK SN8 DRSN /S02/ SLP154 SN8 DRSN /S02/ SLP154 RMK SN8 DRSN /S01/ SLP149
CYHZ;2004-11-14 17:00;METAR CYHZ 141700Z 01026G33KT 1SM R15/P6000FT/D -SNPL BR VV008 00/00 A2993 RMK SN8 DRSN /S01/ SLP141 SN8 DRSN /S01/ SLP141
CYHZ;2004-11-14 18:00;METAR CYHZ 141800Z 01025G38KT 1 1/2SM -SG BR OVC005 00/00 A2992 RMK SF8 SLP137
CYHZ;2004-11-14 19:00;METAR CYHZ 141900Z 01026G38KT 2 1/2SM -RA BR OVC007 00/00 A2992 RMK SF8 SLP139
CYHZ;2004-11-14 20:00;METAR CYHZ 142000Z 36025G36KT 4SM -SHRA BR BKN006 OVC012 01/01 A2993 RMK SF6SC2 SLP143 SLP143
CYHZ;2004-11-14 21:00;METAR CYHZ 142100Z 36022G33KT 12SM BKN008 OVC015 01/01 A2996 RMK SF6SC2 SLP150
CYHZ;2004-11-14 22:00;METAR CYHZ 142200Z 36021G34KT 12SM BKN010 OVC030 01/01 A2997 RMK SC6SC2 SLP156
CYHZ;2004-11-14 23:00;METAR CYHZ 142300Z 36022G30KT 12SM -SHRA BKN010 OVC030 02/01 A2999 RMK SC7SC1 SLP163 SLP163
CYHZ;2004-11-15 00:00;METAR CYHZ 150000Z 36021G31KT 2SM -SHRASN BKN006 OVC015 01/01 A3001 RMK SF6SC2 SLP168 SLP168
CYHZ;2004-11-15 01:00;METAR CYHZ 150100Z 36020G28KT 2SM R15/3500V5500FT/U -SHRASN BKN006 OVC015 01/01 A3003 RMK SF5SC3 SLP174 A3003 RMK SF5SC3 SLP174
CYHZ;2004-11-15 02:00;METAR CYHZ 150200Z 36021G28KT 2 1/2SM -SHRASN BKN006 OVC015 01/01 A3003 RMK SF6SC2 SLP175
CYHZ;2004-11-15 03:00;METAR CYHZ 150300Z 36019G27KT 2 1/2SM -SHRASN BKN006 OVC015 01/01 A3003 RMK SF6SC2 SLP174
CYHZ;2004-11-15 04:00;METAR CYHZ 150400Z 36021G26KT 1 1/2SM -SHRASN BKN004 OVC014 01/01 A3003 RMK SF6SC2 SLP176
CYHZ;2004-11-15 05:00;METAR CYHZ 150500Z 36018G26KT 1 1/4SM -SHSN BKN003 OVC014 01/01 A3004 RMK SF7SC1 CIG RAG SLP178 CIG RAG SLP178
CYHZ;2004-11-15 06:00;METAR CYHZ 150600Z 36021G28KT 1 1/4SM -SHRASN OVC008 01/01 A3005 RMK SF8 CIG RAG SLP183 SLP183
CYHZ;2004-11-15 07:00;METAR CYHZ 150700Z 36019G29KT 1 1/4SM -SHRASN BKN009 OVC011 01/01 A3005 RMK SF6SC2 SLP184
CYHZ;2004-11-15 08:00;METAR CYHZ 150800Z 36022KT 1 1/4SM -SHRASN BKN007 OVC011 01/01 A3006 RMK SF6SC2 SLP187 SLP187
CYHZ;2004-11-15 09:00;METAR CYHZ 150900Z 36021G29KT 1 1/4SM -SHRASN BKN007 OVC011 01/01 A3008 RMK SF6SC2 SLP193
CYHZ;2004-11-15 10:00;METAR CYHZ 151000Z 36017G25KT 3SM -SHSN BKN007 OVC010 01/01 A3009 RMK SF6SC2 CIG RAG SLP197 RAG SLP197
CYHZ;2004-11-15 11:00;METAR CYHZ 151100Z 36020G27KT 8SM OVC008 01/01 A3011 RMK SF8 SLP202
CYHZ;2004-11-15 12:00;METAR CYHZ 151200Z 36020G26KT 8SM BKN009 BKN012 01/01 A3012 RMK SF6SF2 SLP207
CYHZ;2004-11-15 13:00;METAR CYHZ 151300Z 36021G29KT 4SM -SHSN BKN009 BKN015 01/01 A3013 RMK SF6SF2 SLP211 SLP211
CYHZ;2004-11-15 14:00;METAR CYHZ 151400Z 36015G27KT 3/4SM R15/P6000FT/N -SN OVC006 00/00 A3014 RMK SN2SF6 SLP214 SN2SF6 SLP214
CYHZ;2004-11-15 15:00;METAR CYHZ 151500Z 36018G24KT 10SM BKN010 OVC015 01/01 A3014 RMK SF6SC2 SLP212 SLP206
CYHZ;2004-11-15 17:00;METAR CYHZ 151700Z 36016G24KT 3/4SM R15/P6000FT/D -SHSN BKN005 OVC010 01/01 A3012 RMK SF6SF2 SLP206 RMK SF6SF2 SLP206
CYHZ;2004-11-15 18:00;METAR CYHZ 151800Z 35017KT 3/4SM R15/P6000FT/N -SHSN BKN007 OVC012 01/01
CYHZ;2004-11-15 19:00;METAR CYHZ 151900Z 36015G21KT 6SM -SHSN SCT007 OVC013 01/01 A3012 RMK SF3SC5 SLP205 SLP205
CYHZ;2004-11-15 20:00;METAR CYHZ 152000Z 36015KT 2SM -SHSN SCT007 OVC012 01/01 A3012 RMK SF3SC5
CYHZ;2004-11-15 21:00;METAR CYHZ 152100Z 35011G18KT 3/4SM R15/P6000FT/U -SHSN BKN003 OVC012 01/01 A3012 RMK SF6SC2 SLP207 RMK SF6SC2 SLP207
CYHZ;2004-11-15 22:00;METAR CYHZ 152200Z 35018G25KT 6SM -SHSN BKN006 OVC016 01/01 A3013 RMK SF6SC2 SLP209 SLP209
CYHZ;2004-11-15 23:00;METAR CYHZ 152300Z 36020KT 12SM FEW006 OVC018 00/00 A3013 RMK SF2SC6
CYHZ;2004-11-16 00:00;METAR CYHZ 160000Z 35016KT 15SM OVC016 00/00 A3013 RMK SC8 SLP209
CYHZ;2004-11-16 01:00;METAR CYHZ 160100Z 35014KT 12SM OVC016 00/00 A3013 RMK SC8 SLP208
CYHZ;2004-11-16 02:00;METAR CYHZ 160200Z 35018G24KT 12SM -SHSN SCT008 OVC016 00/00 A3012 RMK SF3SC5 SLP205 SLP205
CYHZ;2004-11-16 03:00;METAR CYHZ 160300Z 35019G24KT 12SM SCT008 BKN015 OVC030 00/00 A3011 RMK SF3SC3SC2 OCNL SW- SLP202 OCNL SW- SLP202
CYHZ;2004-11-16 04:00;METAR CYHZ 160400Z 35017G25KT 15SM BKN016 OVC030 00/00 A3011 RMK SC5SC3 SLP202
CYHZ;2004-11-16 05:00;METAR CYHZ 160500Z 35015G24KT 15SM BKN020 BKN040 00/00 A3011 RMK SC5SC2 SLP201
CYHZ;2004-11-16 06:00;METAR CYHZ 160600Z 34017G22KT 15SM BKN026 00/00 A3009 RMK SC7 SLP196
CYHZ;2004-11-16 07:00;METAR CYHZ 160700Z 34018G25KT 15SM OVC026 00/00 A3009 RMK SC8 SLP197
CYHZ;2004-11-16 08:00;METAR CYHZ 160800Z 35020G26KT 15SM OVC024 00/00 A3009 RMK SC8 SLP195
CYHZ;2004-11-16 09:00;METAR CYHZ 160900Z 35018G26KT 15SM OVC025 00/00 A3008 RMK SC8 SLP193
CYHZ;2004-11-16 10:00;METAR CYHZ 161000Z 35019G25KT 15SM BKN026 M00/M00 A3008 RMK SC7 SLP192
CYHZ;2004-11-16 11:00;METAR CYHZ 161100Z 36025G31KT 15SM BKN024 01/M00 A3008 RMK SC7 SLP193
CYHZ;2004-11-16 12:00;METAR CYHZ 161200Z 35021G29KT 15SM BKN024 M00/M02 A3009 RMK SC7 SLP195
CYHZ;2004-11-16 13:00;METAR CYHZ 161300Z 36017G27KT 15SM OVC025 00/M01 A3009 RMK SC8 SLP196
CYHZ;2004-11-16 14:00;METAR CYHZ 161400Z 36019G28KT 15SM OVC024 00/M01 A3010 RMK SC8 SLP198
CYHZ;2004-11-16 16:00;METAR CYHZ 161600Z 36020G29KT 15SM OVC023 00/M03 A3007 RMK SC8 SLP190
CYHZ;2004-11-16 17:00;METAR CYHZ 161700Z 35019G32KT 15SM OVC021 M00/M04 A3006 RMK SC8 SLP187
CYHZ;2004-11-16 18:00;METAR CYHZ 161800Z 34022G29KT 15SM OVC021 M00/M04 A3005 RMK SC8 SLP184
CYHZ;2004-11-16 19:00;METAR CYHZ 161900Z 35019G33KT 15SM OVC024 00/M04 A3005 RMK SC8 SLP182
CYHZ;2004-11-16 20:00;METAR CYHZ 162000Z 35022G29KT 15SM OVC024 M00/M04 A3005 RMK SC8 SLP183
CYHZ;2004-11-16 21:00;METAR CYHZ 162100Z 35021G31KT 15SM OVC022 M00/M03 A3006 RMK SC8 SLP185
CYHZ;2004-11-16 22:00;METAR CYHZ 162200Z 35019G29KT 15SM OVC024 M00/M04 A3006 RMK SC8 SLP185
CYHZ;2004-11-16 23:00;METAR CYHZ 162300Z 01025G39KT 15SM OVC023 M01/M05 A3007 RMK SC8 SLP189
CYHZ;2004-11-17 00:00;METAR CYHZ 170000Z 35023G35KT 15SM OVC023 M01/M04 A3007 RMK SC8 SLP190
CYHZ;2004-11-17 01:00;METAR CYHZ 170100Z 35019G32KT 15SM OVC022 M01/M05 A3007 RMK SC8 SLP190
CYHZ;2004-11-17 02:00;METAR CYHZ 170200Z 36025G35KT 15SM OVC022 M01/M05 A3007 RMK SC8 SLP190
CYHZ;2004-11-17 03:00;METAR CYHZ 170300Z 35020G27KT 15SM OVC024 M01/M05 A3006 RMK SC8 SLP186
CYHZ;2004-11-17 04:00;METAR CYHZ 170400Z 33023G28KT 15SM OVC022 M01/M05 A3005 RMK SC8 SLP183
CYHZ;2004-11-17 05:00;METAR CYHZ 170500Z 35020G27KT 15SM OVC024 M01/M05 A3004 RMK SC8 SLP180
CYHZ;2004-11-17 06:00;METAR CYHZ 170600Z 34020G28KT 15SM OVC022 M01/M05 A3006 RMK SC8 SLP185
CYHZ;2004-11-17 07:00;METAR CYHZ 170700Z 34020G25KT 15SM OVC020 M02/M05 A3006 RMK SC8 SLP186
CYHZ;2004-11-17 08:00;METAR CYHZ 170800Z 34019G24KT 15SM OVC020 M02/M05 A3006 RMK SC8 SLP185
CYHZ;2004-11-17 09:00;METAR CYHZ 170900Z 34016G27KT 15SM OVC020 M02/M05 A3005 RMK SC8 SLP183
CYHZ;2004-11-17 10:00;METAR CYHZ 171000Z 34018G25KT 15SM OVC018 M02/M05 A3004 RMK SC8 SLP180
CYHZ;2004-11-17 11:00;METAR CYHZ 171100Z 34018G24KT 15SM OVC019 M02/M05 A3005 RMK SC8 SLP183
CYHZ;2004-11-17 12:00;METAR CYHZ 171200Z 34017G24KT 15SM OVC014 M02/M04 A3006 RMK SC8 SLP187
CYHZ;2004-11-17 13:00;METAR CYHZ 171300Z 34016G25KT 15SM OVC012 M02/M04 A3007 RMK SC8 SLP189
CYHZ;2004-11-17 14:00;METAR CYHZ 171400Z 34018G24KT 15SM BKN014 OVC020 M01/M04 A3007 RMK SC7SC1 SLP190
CYHZ;2004-11-17 15:00;METAR CYHZ 171500Z 32016KT 15SM OVC017 M00/M03 A3007 RMK SC8 SLP188
CYHZ;2004-11-17 16:00;METAR CYHZ 171600Z 34016G22KT 15SM OVC016 00/M03 A3005 RMK SC8 SLP181
CYHZ;2004-11-17 17:00;METAR CYHZ 171700Z 33020KT 15SM OVC015 00/M03 A3003 RMK SC8 SLP175
CYHZ;2004-11-17 18:00;METAR CYHZ 171800Z 34017G25KT 15SM OVC015 OVC210 00/M03 A3002 RMK SC7CI1 SLP174
CYHZ;2004-11-17 19:00;METAR CYHZ 171900Z 35020G25KT 15SM BKN018 01/M03 A3003 RMK SC7 SLP176
CYHZ;2004-11-17 20:00;METAR CYHZ 172000Z 34018G25KT 15SM BKN017 00/M02 A3004 RMK SC6 SLP178
CYHZ;2004-11-17 21:00;METAR CYHZ 172100Z 34017KT 15SM BKN016 M00/M02 A3005 RMK SC7 SLP182
CYHZ;2004-11-17 22:00;METAR CYHZ 172200Z 34016KT 15SM BKN023 M00/M02 A3005 RMK SC6 SLP183
CYHZ;2004-11-17 23:00;METAR CYHZ 172300Z 34017G22KT 15SM FEW012 BKN018 BKN200 M00/M02 A3006 RMK SC2SC3CI1 SLP185
CYHZ;2004-11-18 00:00;METAR CYHZ 180000Z 34018G28KT 12SM -SHSN BKN020 M01/M02 A3005 RMK SC7 SLP184
CYHZ;2004-11-18 01:00;METAR CYHZ 180100Z 34014G19KT 15SM -SHSN OVC018 M00/M02 A3006 RMK SC8 SLP187
CYHZ;2004-11-18 02:00;METAR CYHZ 180200Z 35017G24KT 15SM OVC017 M00/M02 A3006 RMK SC8 SLP185
CYHZ;2004-11-18 03:00;METAR CYHZ 180300Z 34017KT 15SM OVC015 00/M03 A3005 RMK SC8 SLP183
CYHZ;2004-11-18 04:00;METAR CYHZ 180400Z 35018G24KT 15SM OVC017 00/M03 A3005 RMK SC8 SLP181
CYHZ;2004-11-18 05:00;METAR CYHZ 180500Z 34014G20KT 15SM OVC016 M00/M03 A3003 RMK SC8 SLP177
CYHZ;2004-11-18 06:00;METAR CYHZ 180600Z 34013KT 15SM OVC016 M00/M03 A3002 RMK SC8 SLP171
CYHZ;2004-11-18 07:00;METAR CYHZ 180700Z 34016KT 15SM OVC015 M00/M02 A3002 RMK SC8 SLP171
CYHZ;2004-11-18 08:00;METAR CYHZ 180800Z 34016KT 15SM OVC015 M00/M02 A3002 RMK SC8 SLP171
CYHZ;2004-11-18 09:00;METAR CYHZ 180900Z 33009KT 15SM OVC019 M00/M03 A3002 RMK SC8 SLP171
CYHZ;2004-11-18 10:00;METAR CYHZ 181000Z 33013KT 15SM OVC021 M01/M03 A3002 RMK SC8 SLP171
CYHZ;2004-11-18 11:00;METAR CYHZ 181100Z 32011G17KT 15SM BKN020 M01/M03 A3002 RMK SC6 SLP173
CYHZ;2004-11-18 12:00;METAR CYHZ 181200Z 34009KT 15SM BKN019 M00/M03 A3004 RMK SC7 SLP179
CYHZ;2004-11-18 13:00;METAR CYHZ 181300Z 34014KT 15SM BKN017 00/M02 A3004 RMK SC7 SLP180
CYHZ;2004-11-18 14:00;METAR CYHZ 181400Z 34012G17KT 15SM BKN017 01/M02 A3004 RMK SC7 SLP180
CYHZ;2004-11-18 15:00;METAR CYHZ 181500Z 34015KT 15SM BKN018 BKN100 02/M02 A3004 RMK SC5AC1 SLP177
CYHZ;2004-11-18 16:00;METAR CYHZ 181600Z 34014KT 15SM FEW018 FEW120 FEW300 03/M02 A3001 RMK SC1AC1CI1 SLP168 SLP168
CYHZ;2004-11-18 17:00;METAR CYHZ 181700Z 32009KT 15SM FEW018 FEW120 SCT300 03/M02 A3001 RMK SC1AC1CI1 SLP167 SLP167
CYHZ;2004-11-18 18:00;METAR CYHZ 181800Z 34011G17KT 15SM FEW020 FEW110 04/M03 A3000 RMK SC1AC1 SLP166
CYHZ;2004-11-18 19:00;METAR CYHZ 181900Z 32010KT 15SM FEW020 FEW110 04/M03 A2999 RMK SC1AC1 SLP163
CYHZ;2004-11-18 20:00;METAR CYHZ 182000Z 32009KT 15SM FEW110 FEW250 03/M03 A3000 RMK AC1CI1 SLP164
CYHZ;2004-11-18 21:00;METAR CYHZ 182100Z 33005KT 15SM FEW110 FEW250 02/M04 A3001 RMK AC1CI1
CYHZ;2004-11-18 22:00;METAR CYHZ 182200Z 32005KT 15SM FEW250 01/M04 A3001 RMK CI1 SLP168
CYHZ;2004-11-18 23:00;METAR CYHZ 182300Z 29004KT 15SM FEW250 M01/M04 A3002 RMK CI1 SLP173
CYHZ;2004-11-19 00:00;METAR CYHZ 190000Z 27004KT 15SM SKC M01/M05 A3002 RMK SLP173
CYHZ;2004-11-19 01:00;METAR CYHZ 190100Z 28004KT 15SM FEW250 M01/M05 A3002 RMK CI1 SLP174
CYHZ;2004-11-19 02:00;METAR CYHZ 190200Z 29005KT 15SM FEW250 M02/M06 A3002 RMK CI1 SLP172
CYHZ;2004-11-19 03:00;METAR CYHZ 190300Z 29003KT 15SM FEW250 M02/M06 A3001 RMK CI2 SLP169
CYHZ;2004-11-19 04:00;METAR CYHZ 190400Z 30004KT 15SM BKN050 M01/M05 A3000 RMK SC6 SLP167
CYHZ;2004-11-19 05:00;METAR CYHZ 190500Z 00000KT 15SM OVC049 M01/M04 A2999 RMK SC8 SLP163
CYHZ;2004-11-19 06:00;METAR CYHZ 190600Z 27004KT 15SM OVC044 M00/M04 A2999 RMK SC8 SLP160
CYHZ;2004-11-19 07:00;METAR CYHZ 190700Z 21005KT 15SM OVC046 01/M03 A2997 RMK SC8 SLP155
CYHZ;2004-11-19 08:00;METAR CYHZ 190800Z 23005KT 15SM SCT011 OVC047 00/M03 A2997 RMK SF3SC5 SLP155
CYHZ;2004-11-19 09:00;METAR CYHZ 190900Z 20004KT 15SM BKN009 OVC032 01/M02 A2996 RMK SF5SC3 SLP152
CYHZ;2004-11-19 10:00;METAR CYHZ 191000Z 19005KT 15SM FEW009 OVC048 01/M02 A2996 RMK SF2SC6 SLP150
CYHZ;2004-11-19 11:00;METAR CYHZ 191100Z 21005KT 15SM OVC040 02/M00 A2996 RMK SC8 SLP151
CYHZ;2004-11-19 12:00;METAR CYHZ 191200Z 20007KT 15SM OVC038 02/00 A2995 RMK SC8 SLP149
CYHZ;2004-11-19 13:00;METAR CYHZ 191300Z 21008KT 15SM OVC046 02/00 A2993 RMK SC8 SLP142
CYHZ;2004-11-19 14:00;METAR CYHZ 191400Z 22005KT 15SM -SHRA OVC037 04/01 A2993 RMK SC8 SLP140
CYHZ;2004-11-19 15:00;METAR CYHZ 191500Z 21008KT 15SM OVC026 04/02 A2991 RMK SC8 SLP134
CYHZ;2004-11-19 16:00;METAR CYHZ 191600Z 22009KT 15SM OVC024 04/02 A2988 RMK SC8 SLP126
CYHZ;2004-11-19 17:00;METAR CYHZ 191700Z 25007KT 15SM FEW018 BKN058 06/03 A2986 RMK SC2SC6 SLP118
CYHZ;2004-11-19 18:00;METAR CYHZ 191800Z 27006KT 15SM BKN019 BKN050 06/04 A2985 RMK SC6SC2 SLP114
CYHZ;2004-11-19 19:00;METAR CYHZ 191900Z 30008KT 15SM BKN026 BKN050 06/03 A2985 RMK SC5SC2 SLP113
CYHZ;2004-11-19 20:00;METAR CYHZ 192000Z 30010KT 15SM BKN041 06/03 A2985 RMK SC7 SLP113
CYHZ;2004-11-19 21:00;METAR CYHZ 192100Z 29008KT 15SM OVC040 05/02 A2986 RMK SC8 SLP118
CYHZ;2004-11-19 22:00;METAR CYHZ 192200Z 32008KT 15SM OVC046 05/01 A2987 RMK SC8 SLP122
CYHZ;2004-11-19 23:00;METAR CYHZ 192300Z 30004KT 15SM SCT054 04/M01 A2988 RMK SC3 SLP124
CYHZ;2004-11-20 00:00;METAR CYHZ 200000Z 30008KT 15SM OVC057 04/M02 A2988 RMK SC8 SLP124
CYHZ;2004-11-20 01:00;METAR CYHZ 200100Z 25008KT 15SM OVC063 04/M02 A2988 RMK SC8 SLP124
CYHZ;2004-11-20 02:00;METAR CYHZ 200200Z 26006KT 15SM OVC061 03/M02 A2988 RMK SC8 SLP124
CYHZ;2004-11-20 03:00;METAR CYHZ 200300Z 29009KT 15SM SCT040 OVC060 03/M01 A2988 RMK SC3SC5 SLP123
CYHZ;2004-11-20 04:00;METAR CYHZ 200400Z 29006KT 15SM OVC058 04/M01 A2988 RMK SC8 SLP125
CYHZ;2004-11-20 05:00;METAR CYHZ 200500Z 29012KT 15SM OVC050 04/M01 A2989 RMK SC8 SLP126
CYHZ;2004-11-20 06:00;METAR CYHZ 200600Z 30011KT 15SM OVC050 04/M02 A2989 RMK SC8 SLP126
CYHZ;2004-11-20 07:00;METAR CYHZ 200700Z 32012KT 15SM OVC049 04/M02 A2990 RMK SC8 SLP130
CYHZ;2004-11-20 08:00;METAR CYHZ 200800Z 31012G19KT 15SM BKN045 03/M03 A2990 RMK SC7 SLP128
CYHZ;2004-11-20 09:00;METAR CYHZ 200900Z 31011G17KT 15SM OVC040 03/M03 A2991 RMK SC8 SLP132
CYHZ;2004-11-20 10:00;METAR CYHZ 201000Z 32011G17KT 15SM OVC036 03/M03 A2992 RMK SC8 SLP136
CYHZ;2004-11-20 11:00;METAR CYHZ 201100Z 33014G19KT 15SM BKN036 03/M03 A2994 RMK SC7 SLP143
CYHZ;2004-11-20 12:00;METAR CYHZ 201200Z 32017KT 15SM BKN028 BKN058 02/M03 A2995 RMK SC5SC2 SLP148
CYHZ;2004-11-20 13:00;METAR CYHZ 201300Z 34020G25KT 15SM FEW028 BKN042 02/M03 A2996 RMK SC1SC5 SLP152
CYHZ;2004-11-20 14:00;METAR CYHZ 201400Z 33020G25KT 15SM BKN028 03/M02 A2999 RMK SC7 SLP160
CYHZ;2004-11-20 15:00;METAR CYHZ 201500Z 33019G27KT 15SM BKN026 04/M02 A3000 RMK SC6 SLP163
CYHZ;2004-11-20 16:00;METAR CYHZ 201600Z 34018G25KT 15SM BKN026 04/M02 A3000 RMK SC5 SLP164
CYHZ;2004-11-20 17:00;METAR CYHZ 201700Z 35019KT 15SM BKN028 04/M02 A3001 RMK SC6 SLP167
CYHZ;2004-11-20 18:00;METAR CYHZ 201800Z 34017G22KT 15SM BKN026 04/M02 A3002 RMK SC6 SLP170
CYHZ;2004-11-20 19:00;METAR CYHZ 201900Z 34022G28KT 20SM BKN030 03/M02 A3005 RMK SC6 SLP179
CYHZ;2004-11-20 20:00;METAR CYHZ 202000Z 33018G24KT 20SM BKN030 03/M02 A3008 RMK SC6 SLP190
CYHZ;2004-11-20 21:00;METAR CYHZ 202100Z 33014KT 20SM BKN033 03/M01 A3011 RMK SC6 SLP201
CYHZ;2004-11-20 22:00;METAR CYHZ 202200Z 34013G18KT 20SM FEW030 02/M01 A3011 RMK SC1 SLP203
CYHZ;2004-11-20 23:00;METAR CYHZ 202300Z 33015KT 20SM FEW030 02/M01 A3013 RMK SC1 SLP210
CYHZ;2004-11-21 00:00;METAR CYHZ 210000Z 34013G19KT 20SM OVC015 02/M00 A3016 RMK SC7 SLP220
CYHZ;2004-11-21 01:00;METAR CYHZ 210100Z 33014KT 20SM BKN015 02/00 A3017 RMK SC6 SLP222
CYHZ;2004-11-21 02:00;METAR CYHZ 210200Z 35016KT 20SM SCT015 02/01 A3016 RMK SC3 SLP220
CYHZ;2004-11-21 03:00;METAR CYHZ 210300Z 36012KT 15SM FEW008 BKN012 02/01 A3017 RMK SF2SC3 SLP222
CYHZ;2004-11-21 04:00;METAR CYHZ 210400Z 36005KT 15SM FEW010 BKN017 01/01 A3019 RMK SF2SC3 SLP230
CYHZ;2004-11-21 05:00;METAR CYHZ 210500Z 34005KT 15SM SCT017 01/01 A3020 RMK SC4 SLP231
CYHZ;2004-11-21 06:00;METAR CYHZ 210600Z 31006KT 15SM FEW020 01/00 A3021 RMK SC2 SLP237
CYHZ;2004-11-21 07:00;METAR CYHZ 210700Z 32006KT 15SM BKN017 01/01 A3023 RMK SC7 SLP242
CYHZ;2004-11-21 08:00;METAR CYHZ 210800Z 32009KT 15SM BKN018 01/01 A3022 RMK SC6 SLP240
CYHZ;2004-11-21 09:00;METAR CYHZ 210900Z 34008KT 15SM BKN016 02/01 A3023 RMK SC6 SLP243
CYHZ;2004-11-21 10:00;METAR CYHZ 211000Z 35011KT 15SM BKN015 02/01 A3024 RMK SC7 SLP246
CYHZ;2004-11-21 11:00;METAR CYHZ 211100Z 36008KT 15SM BKN016 12/01 A3025 RMK SC7 SLP250
CYHZ;2004-11-21 12:00;METAR CYHZ 211200Z 32006KT 15SM BKN016 02/01 A3026 RMK SC7 SLP252
CYHZ;2004-11-21 13:00;METAR CYHZ 211300Z 36006KT 15SM BKN016 03/01 A3027 RMK SC7 SLP256
CYHZ;2004-11-21 14:00;METAR CYHZ 211400Z 36006KT 15SM BKN016 03/00 A3027 RMK SC7 SLP255
CYHZ;2004-11-21 15:00;METAR CYHZ 211500Z 01008KT 15SM BKN015 03/M00 A3026 RMK SC7 SLP252
CYHZ;2004-11-21 16:00;METAR CYHZ 211600Z 01006KT 15SM BKN016 BKN250 04/M00 A3025 RMK SC6CI0 SLP250
CYHZ;2004-11-21 17:00;METAR CYHZ 211700Z 33006KT 15SM BKN018 BKN250 04/M00 A3024 RMK SC6CI0 SLP245
CYHZ;2004-11-21 18:00;METAR CYHZ 211800Z 01007KT 15SM FEW018 BKN250 05/M00 A3022 RMK SC2CI2 SLP241
CYHZ;2004-11-21 19:00;METAR CYHZ 211900Z 02006KT 20SM FEW020 BKN250 04/M00 A3021 RMK SC1CI1 SLP236
CYHZ;2004-11-21 20:00;METAR CYHZ 212000Z 36003KT 20SM FEW020 FEW150 BKN250 04/M00 A3020 RMK SC1AC1CI1 SLP234 SLP234
CYHZ;2004-11-21 21:00;METAR CYHZ 212100Z 07002KT 20SM FEW150 BKN250 03/M00 A3020 RMK AC2CI0
CYHZ;2004-11-21 22:00;METAR CYHZ 212200Z 00000KT 20SM FEW160 BKN250 02/M01 A3020 RMK AC2CI0
CYHZ;2004-11-21 23:00;METAR CYHZ 212300Z 00000KT 20SM SCT170 BKN250 01/M01 A3021 RMK AC3CI0
CYHZ;2004-11-22 00:00;METAR CYHZ 220000Z 00000KT 20SM SCT180 BKN250 01/M01 A3018 RMK AC4CI0 SLP226
CYHZ;2004-11-22 01:00;METAR CYHZ 220100Z 00000KT 20SM FEW170 BKN250 01/M01 A3019 RMK AC2CI0 SLP231
CYHZ;2004-11-22 02:00;METAR CYHZ 220200Z 21005KT 20SM FEW170 BKN250 00/M01 A3019 RMK AC2CI0 SLP229
CYHZ;2004-11-22 03:00;METAR CYHZ 220300Z 21004KT 15SM FEW250 01/M01 A3017 RMK CI2 SLP222
CYHZ;2004-11-22 04:00;METAR CYHZ 220400Z 21004KT 15SM BKN100 01/M00 A3016 RMK AC7 SLP221
CYHZ;2004-11-22 05:00;METAR CYHZ 220500Z 22006KT 15SM OVC080 01/M00 A3015 RMK AC8 SLP216
CYHZ;2004-11-22 06:00;METAR CYHZ 220600Z 20004KT 15SM OVC068 01/M00 A3014 RMK AC8 SLP212
CYHZ;2004-11-22 07:00;METAR CYHZ 220700Z 23008KT 15SM OVC060 02/00 A3014 RMK SC8 SLP211
CYHZ;2004-11-22 08:00;METAR CYHZ 220800Z 23009KT 15SM OVC050 02/01 A3012 RMK SC8 SLP204
CYHZ;2004-11-22 09:00;METAR CYHZ 220900Z 21006KT 15SM OVC045 02/01 A3010 RMK SC8 SLP199
CYHZ;2004-11-22 10:00;METAR CYHZ 221000Z 22006KT 15SM OVC040 02/01 A3009 RMK SC8 SLP196
CYHZ;2004-11-22 11:00;METAR CYHZ 221100Z 21006KT 15SM OVC032 02/01 A3009 RMK SC8 SLP195
CYHZ;2004-11-22 12:00;METAR CYHZ 221200Z 21009KT 15SM OVC040 02/02 A3010 RMK SC8 SLP198
CYHZ;2004-11-22 13:00;METAR CYHZ 221300Z 20007KT 15SM OVC032 03/02 A3009 RMK SC8 SLP195
CYHZ;2004-11-22 14:00;METAR CYHZ 221400Z 21010KT 15SM -SHRA OVC031 03/03 A3008 RMK SC8 SLP192
CYHZ;2004-11-22 15:00;METAR CYHZ 221500Z 22012KT 15SM FEW015 SCT030 OVC050 04/03 A3006 RMK SC1SC2SC5 SLP185 SLP185
CYHZ;2004-11-22 16:00;METAR CYHZ 221600Z 22009KT 12SM -SHRA BKN015 OVC028 04/04 A3004 RMK SC5SC3 SLP178
CYHZ;2004-11-22 17:00;METAR CYHZ 221700Z 20010KT 12SM -SHRA SCT006 OVC012 04/04 A3002 RMK SF3SC5 SLP170
CYHZ;2004-11-22 17:14;SPECI CYHZ 221714Z 20012KT 10SM OVC004 RMK SF8
CYHZ;2004-11-22 17:46;SPECI CYHZ 221746Z 21011KT 8SM -RADZ OVC004 RMK SF8
CYHZ;2004-11-22 18:00;METAR CYHZ 221800Z 21012KT 8SM -RADZ OVC004 05/04 A2999 RMK SF8 SLP162
CYHZ;2004-11-22 19:00;METAR CYHZ 221900Z 21010KT 2 1/2SM -RADZ BR OVC003 05/05 A2998 RMK SF8 SLP158
CYHZ;2004-11-22 20:00;METAR CYHZ 222000Z 22008KT 2 1/2SM -RADZ BR OVC003 05/05 A2998 RMK SF8
CYHZ;2004-11-22 20:23;SPECI CYHZ 222023Z 25008KT 10SM OVC005 RMK SF8 VIS LWR S
CYHZ;2004-11-22 21:00;METAR CYHZ 222100Z 24006KT 12SM BKN005 OVC045 05/04 A2997 RMK SF6SC2 SLP155
CYHZ;2004-11-22 21:32;SPECI CYHZ 222132Z 23005KT 15SM FEW005 OVC049 RMK SF2SC6
CYHZ;2004-11-22 22:00;METAR CYHZ 222200Z 24004KT 15SM OVC050 04/04 A2998 RMK SC8 SLP157
CYHZ;2004-11-22 23:00;METAR CYHZ 222300Z 26005KT 15SM OVC052 04/04 A2999 RMK SC8 SLP159
CYHZ;2004-11-23 00:00;METAR CYHZ 230000Z 28005KT 15SM -SHRA OVC035 03/03 A2999 RMK SC8 SLP162
CYHZ;2004-11-23 01:00;METAR CYHZ 230100Z 26003KT 15SM -SHRA SCT035 OVC062 03/02 A2998 RMK SC3SC5 SLP156
CYHZ;2004-11-23 02:00;METAR CYHZ 230200Z 25005KT 15SM FEW060 BKN080 03/02 A2997 RMK SC2AC5 SLP155
CYHZ;2004-11-23 03:00;METAR CYHZ 230300Z 27004KT 15SM SCT080 02/01 A2997 RMK AC3 SLP155
CYHZ;2004-11-23 04:00;METAR CYHZ 230400Z 27003KT 15SM FEW080 02/01 A2997 RMK AC1 SLP154
CYHZ;2004-11-23 05:00;METAR CYHZ 230500Z 26006KT 15SM SKC 02/01 A2997 RMK SLP155
CYHZ;2004-11-23 06:00;METAR CYHZ 230600Z 26005KT 15SM SKC 01/00 A2997 RMK SLP155
CYHZ;2004-11-23 07:00;METAR CYHZ 230700Z 28005KT 15SM SCT250 01/M00 A2999 RMK CI2 SLP160
CYHZ;2004-11-23 08:00;METAR CYHZ 230800Z 29005KT 15SM SCT250 00/M01 A2999 RMK CI2 SLP162
CYHZ;2004-11-23 09:00;METAR CYHZ 230900Z 31005KT 15SM FEW250 00/M01 A3001 RMK CI0 SLP167
CYHZ;2004-11-23 10:00;METAR CYHZ 231000Z 31006KT 15SM FEW250 M01/M02 A3002 RMK CI2 SLP172
CYHZ;2004-11-23 11:00;METAR CYHZ 231100Z 31006KT 15SM FEW200 M01/M02 A3005 RMK CI2 SLP182
CYHZ;2004-11-23 12:00;METAR CYHZ 231200Z 30005KT 15SM FEW200 M01/M02 A3007 RMK CI1 SLP189
CYHZ;2004-11-23 13:00;METAR CYHZ 231300Z 30006KT 15SM FEW200 M00/M02 A3009 RMK CI1 SLP195
CYHZ;2004-11-23 14:00;METAR CYHZ 231400Z 31006KT 15SM FEW200 01/M03 A3010 RMK CI1 SLP198
CYHZ;2004-11-23 15:00;METAR CYHZ 231500Z 32006KT 15SM FEW200 02/M03 A3010 RMK CI1 SLP199
CYHZ;2004-11-23 16:00;METAR CYHZ 231600Z 28006KT 15SM FEW020 FEW200 02/M04 A3009 RMK CF1CI1 SLP195
CYHZ;2004-11-23 17:00;METAR CYHZ 231700Z 31007KT 15SM FEW025 03/M05 A3008 RMK CU2 SLP192
CYHZ;2004-11-23 18:00;METAR CYHZ 231800Z 33010G16KT 15SM FEW035 04/M05 A3008 RMK CU1 SLP193
CYHZ;2004-11-23 19:00;METAR CYHZ 231900Z 32009KT 20SM FEW035 FEW250 03/M06 A3010 RMK CU1CI0 SLP197
CYHZ;2004-11-23 20:00;METAR CYHZ 232000Z 33007KT 20SM FEW250 03/M06 A3011 RMK CI1 SLP203
CYHZ;2004-11-23 21:00;METAR CYHZ 232100Z 33006KT 20SM SKC 01/M06 A3012 RMK SLP206
CYHZ;2004-11-23 22:00;METAR CYHZ 232200Z 00000KT 20SM SKC M00/M06 A3013 RMK SLP211
CYHZ;2004-11-23 23:00;METAR CYHZ 232300Z 00000KT 20SM SKC M01/M05 A3016 RMK SLP219
CYHZ;2004-11-24 00:00;METAR CYHZ 240000Z 00000KT 20SM SKC M01/M05 A3018 RMK SLP228
CYHZ;2004-11-24 01:00;METAR CYHZ 240100Z 00000KT 20SM SKC M02/M05 A3019 RMK SLP230
CYHZ;2004-11-24 02:00;METAR CYHZ 240200Z 18003KT 20SM SKC M01/M05 A3020 RMK SLP234
CYHZ;2004-11-24 03:00;METAR CYHZ 240300Z 18003KT 15SM SKC M01/M05 A3021 RMK SLP237
CYHZ;2004-11-24 04:00;METAR CYHZ 240400Z 17005KT 15SM SKC M00/M05 A3021 RMK SLP237
CYHZ;2004-11-24 05:00;METAR CYHZ 240500Z 18005KT 15SM SKC M00/M05 A3021 RMK SLP238
CYHZ;2004-11-24 06:00;METAR CYHZ 240600Z 20004KT 15SM SKC M01/M05 A3021 RMK SLP237
CYHZ;2004-11-24 07:00;METAR CYHZ 240700Z 20005KT 15SM SKC M01/M04 A3022 RMK SLP239
CYHZ;2004-11-24 08:00;METAR CYHZ 240800Z 21006KT 15SM SKC M01/M04 A3023 RMK SLP242
CYHZ;2004-11-24 09:00;METAR CYHZ 240900Z 20006KT 15SM SKC M01/M03 A3022 RMK SLP241
CYHZ;2004-11-24 10:00;METAR CYHZ 241000Z 18005KT 15SM SKC M00/M03 A3023 RMK SLP245
CYHZ;2004-11-24 11:00;METAR CYHZ 241100Z 20005KT 15SM FEW220 00/M03 A3024 RMK CI1 SLP247
CYHZ;2004-11-24 13:00;METAR CYHZ 241300Z 17007KT 15SM FEW100 FEW220 00/M03 A3026 RMK AC1CI0 SLP254
CYHZ;2004-11-24 14:00;METAR CYHZ 241400Z 20008KT 15SM FEW100 FEW220 04/M00 A3027 RMK AC1CI0 SLP256
CYHZ;2004-11-24 15:00;METAR CYHZ 241500Z 20012G17KT 15SM BKN250 06/M01 A3025 RMK CI1 SLP250
CYHZ;2004-11-24 16:00;METAR CYHZ 241600Z 22009KT 15SM FEW030 BKN250 06/M00 A3024 RMK CU1CI1 TR CU SLP245
CYHZ;2004-11-24 17:00;METAR CYHZ 241700Z 21013KT 15SM FEW025 SCT210 OVC280 06/00 A3022 RMK CU1CI2CI1 TR CU SLP238 CU SLP238
CYHZ;2004-11-24 18:00;METAR CYHZ 241800Z 18010G15KT 15SM FEW025 OVC250 06/00 A3020 RMK CU1CS4 TR CU SLP234 SLP234
CYHZ;2004-11-24 19:00;METAR CYHZ 241900Z 20012G18KT 15SM FEW025 OVC250 06/M00 A3021 RMK CU1CI4 SLP237
CYHZ;2004-11-24 20:00;METAR CYHZ 242000Z 19011KT 15SM FEW022 OVC250 05/M00 A3022 RMK CU1CI4 CONTRAILS SLP238 SLP238
CYHZ;2004-11-24 21:00;METAR CYHZ 242100Z 17008KT 15SM SCT120 OVC250 04/00 A3022 RMK AC3CI1
CYHZ;2004-11-24 22:00;METAR CYHZ 242200Z 17010KT 15SM FEW120 OVC220 03/00 A3020 RMK AC1CI6 SLP232
CYHZ;2004-11-24 23:00;METAR CYHZ 242300Z 17011KT 15SM OVC220 03/00 A3018 RMK CI6 SLP226
CYHZ;2004-11-25 00:00;METAR CYHZ 250000Z 18009KT 15SM FEW018 OVC200 04/01 A3020 RMK SF1CI6 SLP233
CYHZ;2004-11-25 01:00;METAR CYHZ 250100Z 16011KT 15SM OVC180 04/02 A3015 RMK CI6 SLP217
CYHZ;2004-11-25 02:00;METAR CYHZ 250200Z 16012KT 15SM OVC150 04/02 A3013 RMK AS8 SLP210
CYHZ;2004-11-25 03:00;METAR CYHZ 250300Z 16015G21KT 15SM OVC160 04/02 A3009 RMK AS8 SLP195
CYHZ;2004-11-25 03:39;SPECI CYHZ 250339Z 15014KT 15SM FEW009 OVC150 RMK SF2AC6
CYHZ;2004-11-25 04:00;METAR CYHZ 250400Z 15016KT 15SM FEW008 OVC140 04/03 A3005 RMK SF2AC6 SLP181
CYHZ;2004-11-25 05:00;METAR CYHZ 250500Z 16018KT 15SM FEW008 OVC100 05/04 A3001 RMK SF1AC7 SLP166
CYHZ;2004-11-25 05:25;SPECI CYHZ 250525Z 15017G24KT 15SM -SHRA FEW007 OVC073 RMK SF1AC7
CYHZ;2004-11-25 06:00;METAR CYHZ 250600Z 15017KT 10SM -SHRA FEW007 OVC072 05/04 A2997 RMK SF1AC7 SLP153
CYHZ;2004-11-25 07:00;METAR CYHZ 250700Z 15018KT 10SM -RA FEW007 OVC071 06/05 A2990 RMK SF1AC7 PRESFR SLP130 SLP130
CYHZ;2004-11-25 07:50;SPECI CYHZ 250750Z 15021G28KT 2SM -RA BR BKN013 OVC040 RMK SF6SC2
CYHZ;2004-11-25 08:00;METAR CYHZ 250800Z 15024G30KT 2SM -RA BR OVC011 06/06 A2983 RMK SF8 PRESFR SLP106
CYHZ;2004-11-25 08:07;SPECI CYHZ 250807Z 15020G31KT 1 1/2SM RA BR OVC007 RMK SF8
CYHZ;2004-11-25 08:20;SPECI CYHZ 250820Z 14021G28KT 1 1/2SM RA BR OVC004 RMK SF8
CYHZ;2004-11-25 09:00;METAR CYHZ 250900Z 14024G33KT 1 1/2SM RA BR OVC004 07/07 A2977 RMK SF8 SLP085
CYHZ;2004-11-25 09:30;SPECI CYHZ 250930Z 14022G28KT 1 1/2SM -RA BR OVC003 RMK SF8 RERA
CYHZ;2004-11-25 10:00;METAR CYHZ 251000Z 15017G24KT 2SM -RA BR OVC004 08/08 A2974 RMK SF8 RERA /R10/ SLP074 SLP074
CYHZ;2004-11-25 11:00;METAR CYHZ 251100Z 17021G29KT 1SM R15/3000VP6000FT/U -RA BR OVC002 11/10 A2970 RMK SF8 SLP061 RMK SF8 SLP061
CYHZ;2004-11-25 12:00;METAR CYHZ 251200Z 17017G22KT 1SM R15/2800VP6000FT/U R24/P6000FT -RA BR VV002 11/11 A2966 RMK FG8 RVR RWY24 1 MINUTE MEAN SLP048
CYHZ;2004-11-25 12:09;SPECI CYHZ 251209Z 18015KT 3/8SM R15/2800VP6000FT/D R24/1600FT -RA FG VV001 RMK FG8 RVR RWY24 1 MINUTE MEAN 11/11 A2966 RMK FG8 RVR RWY24 1 MINUTE MEAN SLP048 FG8 RVR RWY24 1 MINUTE MEAN
CYHZ;2004-11-25 13:00;METAR CYHZ 251300Z 18015KT 1/4SM R15/1200FT/N R24/0900FT -RA FG VV001 12/12 A2963 RMK FG8 RVR RWY24 1 MINUTE MEAN SLP036 RMK FG8 RVR RWY24 1 MINUTE MEAN SLP036
CYHZ;2004-11-25 13:27;SPECI CYHZ 251327Z 19016G26KT 1SM R15/P6000FT/U R24/P6000FT -RA BR OVC002 RMK SF8 RVR RWY24 1 MINUTE MEAN RVR RWY24 1 MINUTE MEAN
CYHZ;2004-11-25 13:39;SPECI CYHZ 251339Z 18017G25KT 2SM RA BR BKN003 OVC008 RMK SF6SF2 VIS W 10 VIS E 1 CIG RAG CIG RAG
CYHZ;2004-11-25 14:00;METAR CYHZ 251400Z 19016KT 1 1/4SM RA BR BKN003 OVC008 13/12 A2961 RMK SF7SF1 CIG RAG SLP031 RAG SLP031
CYHZ;2004-11-25 14:22;SPECI CYHZ 251422Z 21020G29KT 3SM -RA BR BKN003 OVC005 RERA RMK SF6SF2 CIG RAG
CYHZ;2004-11-25 15:00;METAR CYHZ 251500Z 21022G28KT 4SM RA BR BKN005 OVC010 14/13 A2959 RMK SF6SF2 CIG RAG SLP023 RAG SLP023
CYHZ;2004-11-25 15:13;SPECI CYHZ 251513Z 21022G29KT 3/4SM R15/4500VP6000FT/U R24/P6000FT RA BR VV002 RERA RMK FG8 RVR RWY24 1 MINUTE MEAN RERA RMK FG8 RVR RWY24 1 MINUTE MEAN
CYHZ;2004-11-25 16:00;METAR CYHZ 251600Z 22015KT 1/2SM R15/4000VP6000FT/U R24/5000FT +RA FG OVC004 14/14 A2957 RMK NS8 /R19/ RVR RWY24 1 MINUTE MEAN SLP016 14/14 A2957 RMK NS8 /R19/ RVR RWY24 1 MINUTE MEAN SLP016
CYHZ;2004-11-25 16:32;SPECI CYHZ 251632Z 20020G27KT 1 1/4SM -RA BR OVC003 RERA RMK NS8 RIG RAG
CYHZ;2004-11-25 17:00;METAR CYHZ 251700Z 20021G28KT 1/2SM R15/4000VP6000FT/D R24/4500FT -RA FG VV002 13/13 A2954 RERA RMK FG8 RVR RWY24 1 MINUTE MEAN SLP007 13/13 A2954 RERA RMK FG8 RVR RWY24 1 MINUTE MEAN SLP007
CYHZ;2004-11-25 18:00;METAR CYHZ 251800Z 21024G33KT 2 1/2SM RA BR OVC005 14/13 A2955 RERA RMK NS8 /R31/ SLP007 SLP007
CYHZ;2004-11-25 18:30;SPECI CYHZ 251830Z 21022G33KT 3SM -RA BR OVC003 RERA RMK NS8
CYHZ;2004-11-25 19:00;METAR CYHZ 251900Z 20018G27KT 3SM R15/4000VP6000FT/D -RA BR OVC003 14/14 A2953 RERA RMK NS8 SLP002 RERA RMK NS8 SLP002
CYHZ;2004-11-25 20:00;METAR CYHZ 252000Z 20025G34KT 1/2SM R15/3000FT/U R24/4000FT -RA FG VV002 14/14 A2951 RERA RMK FG8 RVR RWY 24 1 MINUTE MEAN SLP996 A2951 RERA RMK FG8 RVR RWY 24 1 MINUTE MEAN SLP996
CYHZ;2004-11-25 20:10;SPECI CYHZ 252010Z 20028G37KT 1 1/2SM R15/3500VP6000FT/U RA BR BKN004 OVC010 RMK SF5NS3 SF5NS3
CYHZ;2004-11-25 20:24;SPECI CYHZ 252024Z 19021G31KT 10SM -RA SCT006 OVC015 RERA RMK SF3NS5
CYHZ;2004-11-25 21:00;METAR CYHZ 252100Z 20025G31KT 3SM -RA BR BKN004 OVC009 15/14 A2949 SF6NS2 SLP989
CYHZ;2004-11-25 22:00;METAR CYHZ 252200Z 20031G40KT 4SM +RA BR FEW004 OVC008 15/15 A2946 RMK SF2NS6 /R11/ PK GST PST HR 46 SLP978 /R11/ PK GST PST HR 46 SLP978
CYHZ;2004-11-25 22:40;SPECI CYHZ 252240Z 18022G32KT 3SM -RA BR OVC010 RERA RMK NS8
CYHZ;2004-11-25 23:00;METAR CYHZ 252300Z 18028G35KT 3SM -RA BR BKN004 OVC010 15/15 A2939 SF6NS2 PRESFR SLP955
CYHZ;2004-11-26 00:00;METAR CYHZ 260000Z 19030G40KT 3SM -RA BR BKN004 OVC010 15/15 A2936 SF6NS2 /R24/ PK GST PST 50 SLP944
CYHZ;2004-11-26 01:00;METAR CYHZ 260100Z 19032G44KT 4SM -RA BR BKN004 OVC010 15/15 A2933 RMK SF6NS2 PK GST PST HR 52 SLP934 GST PST HR 52 SLP934
CYHZ;2004-11-26 02:00;METAR CYHZ 260200Z 18027G41KT 4SM -RA BR BKN009 OVC017 15/14 A2931 SF6NS2 SLP925
CYHZ;2004-11-26 02:30;SPECI CYHZ 260230Z 18022G34KT 10SM -RA FEW009 OVC060 RMK SF2SC6
CYHZ;2004-11-26 02:46;SPECI CYHZ 260246Z 18025G35KT 2SM RA BR BKN007 OVC030 RMK SF7SC1
CYHZ;2004-11-26 03:00;METAR CYHZ 260300Z 18029G36KT 2SM -RA BR OVC005 14/14 A2924 RMK SF8 OCNL R PRESFR SLP902 SLP902
CYHZ;2004-11-26 04:00;METAR CYHZ 260400Z 19032G48KT 1 1/2SM -RA BR OVC004 14/14 A2920 RMK SF8 RERA /R10/ SLP889 /R10/ SLP889
CYHZ;2004-11-26 05:00;METAR CYHZ 260500Z 20028G40KT 1 1/2SM -RA BR OVC004 13/13 A2922 RMK SF8 SLP894
CYHZ;2004-11-26 06:00;METAR CYHZ 260600Z 20033G42KT 2SM -RA BR OVC006 12/12 A2923 RMK SF8 SLP898
CYHZ;2004-11-26 07:00;METAR CYHZ 260700Z 21025G34KT 4SM BR OVC006 11/10 A2925 RMK SF8 SLP904
CYHZ;2004-11-26 08:00;METAR CYHZ 260800Z 20021G29KT 5SM BR OVC006 10/09 A2927 RMK SF8 CIG RAG SLP913
CYHZ;2004-11-26 09:00;METAR CYHZ 260900Z 22018G25KT 10SM OVC008 OVC013 09/08 A2931 RMK SF6SC2 SLP928
CYHZ;2004-11-26 09:36;SPECI CYHZ 260936Z 25015G26KT 15SM FEW008 BKN012 BKN042 RMK SF2SF3SC2
CYHZ;2004-11-26 10:00;METAR CYHZ 261000Z 25017G22KT 15SM BKN010 OVC042 07/05 A2938 RMK SF6SC2 PRESRR SLP949 SLP949
CYHZ;2004-11-26 11:00;METAR CYHZ 261100Z 27015G24KT 15SM OVC015 04/02 A2945 RMK SC8 PRESRR SLP972
CYHZ;2004-11-26 13:00;METAR CYHZ 261300Z 27016KT 12SM -SHSN BKN024 02/M01 A2954 RMK SC7 SLP006
CYHZ;2004-11-26 14:00;METAR CYHZ 261400Z 28015G28KT 15SM -SHSN BKN030 02/M02 A2957 RMK SC7 SLP015
CYHZ;2004-11-26 14:40;SPECI CYHZ 261440Z 30016G26KT 15SM BKN018 RMK SC7
CYHZ;2004-11-26 15:00;METAR CYHZ 261500Z 29020G27KT 15SM OVC021 00/M04 A2961 RMK SC8 SLP030
CYHZ;2004-11-26 16:00;METAR CYHZ 261600Z 28014G22KT 15SM BKN025 00/M04 A2965 RMK SC6 SLP043
CYHZ;2004-11-26 17:00;METAR CYHZ 261700Z 27016G25KT 15SM SCT030 00/M06 A2966 RMK SC3 SLP047
CYHZ;2004-11-26 18:00;METAR CYHZ 261800Z 29013G19KT 15SM FEW030 01/M06 A2969 RMK SC2 SLP058
CYHZ;2004-11-26 19:00;METAR CYHZ 261900Z 27012G19KT 15SM FEW032 00/M08 A2973 RMK SC2 SLP070
CYHZ;2004-11-26 20:00;METAR CYHZ 262000Z 27015G24KT 15SM FEW034 M01/M08 A2977 RMK SC2 SLP085
CYHZ;2004-11-26 21:00;METAR CYHZ 262100Z 29018KT 15SM BKN038 M01/M08 A2981 RMK SC5 SLP100
CYHZ;2004-11-26 22:00;METAR CYHZ 262200Z 28012G21KT 15SM FEW038 M01/M07 A2985 RMK SC1 SLP113
CYHZ;2004-11-26 23:00;METAR CYHZ 262300Z 26010G15KT 15SM SKC M02/M07 A2989 RMK SLP126
CYHZ;2004-11-27 00:00;METAR CYHZ 270000Z 27010KT 15SM FEW036 M02/M07 A2993 RMK SC1 SLP141
CYHZ;2004-11-27 01:00;METAR CYHZ 270100Z 29006KT 15SM FEW036 M02/M07 A2997 RMK SC1 SLP154
CYHZ;2004-11-27 02:00;METAR CYHZ 270200Z 27007KT 15SM SKC M02/M08 A2999 RMK SLP162
CYHZ;2004-11-27 03:00;METAR CYHZ 270300Z 26006KT 15SM SKC M03/M08 A3002 RMK SLP171
CYHZ;2004-11-27 04:00;METAR CYHZ 270400Z 25006KT 15SM SKC M03/M08 A3004 RMK SLP179
CYHZ;2004-11-27 05:00;METAR CYHZ 270500Z 24008KT 15SM SKC M03/M07 A3006 RMK SLP187
CYHZ;2004-11-27 06:00;METAR CYHZ 270600Z 26008KT 15SM FEW032 M03/M07 A3010 RMK SC1 SLP199
CYHZ;2004-11-27 07:00;METAR CYHZ 270700Z 24007KT 15SM SKC M04/M07 A3014 RMK SLP213
CYHZ;2004-11-27 08:00;METAR CYHZ 270800Z 25009KT 15SM SKC M03/M07 A3017 RMK SLP223
CYHZ;2004-11-27 09:00;METAR CYHZ 270900Z 25008KT 15SM SKC M03/M07 A3020 RMK SLP234
CYHZ;2004-11-27 10:00;METAR CYHZ 271000Z 25010KT 15SM FEW030 M03/M07 A3023 RMK SC1 SLP244
CYHZ;2004-11-27 11:00;METAR CYHZ 271100Z 26006KT 15SM FEW030 M04/M07 A3027 RMK SC1 SLP259
CYHZ;2004-11-27 12:00;METAR CYHZ 271200Z 24009KT 15SM FEW030 M04/M07 A3031 RMK SC1 SLP272
CYHZ;2004-11-27 13:00;METAR CYHZ 271300Z 26010KT 15SM SKC M03/M07 A3034 RMK SLP282
CYHZ;2004-11-27 14:00;METAR CYHZ 271400Z 26009G15KT 15SM SKC M01/M07 A3036 RMK SLP289
CYHZ;2004-11-27 15:00;METAR CYHZ 271500Z 27012G17KT 15SM SKC 00/M08 A3037 RMK SLP293
CYHZ;2004-11-27 16:00;METAR CYHZ 271600Z 29011G17KT 15SM SKC 01/M08 A3037 RMK SLP292
CYHZ;2004-11-27 17:00;METAR CYHZ 271700Z 27010G17KT 15SM SKC 02/M08 A3038 RMK SLP296
CYHZ;2004-11-27 18:00;METAR CYHZ 271800Z 30009KT 15SM SKC 03/M08 A3040 RMK SLP301
CYHZ;2004-11-27 19:00;METAR CYHZ 271900Z 28009KT 15SM FEW250 03/M08 A3042 RMK CI0 SLP307
CYHZ;2004-11-27 20:00;METAR CYHZ 272000Z 28006KT 15SM FEW250 02/M08 A3045 RMK CI0 CONTRAILS SLP317
CYHZ;2004-11-27 21:00;METAR CYHZ 272100Z 29002KT 15SM FEW250 01/M08 A3047 RMK CI0 SLP325
CYHZ;2004-11-27 22:00;METAR CYHZ 272200Z 30003KT 15SM FEW250 M00/M07 A3049 RMK CI0 SLP334
CYHZ;2004-11-27 23:00;METAR CYHZ 272300Z 29004KT 15SM SKC M01/M07 A3052 RMK SLP344
