CYVR;2005-01-01 00:00;METAR CYVR 010000Z 33007KT 20SM FEW011 SCT220 04/00 A2960 RMK SC1CI1 SLP025=

CYVR;2005-01-01 01:00;METAR CYVR 010100Z 33007KT 20SM FEW012 BKN220 04/00 A2962 RMK SC2CI1 SLP029=

CYVR;2005-01-01 02:00;METAR CYVR 010200Z 12008KT 20SM FEW012 SCT220 03/M01 A2962 RMK SC2CI1 SLP029=

CYVR;2005-01-01 03:00;METAR CYVR 010300Z 11004KT 20SM FEW011 SCT220 01/M03 A2962 RMK SC2CI1 SLP030=

CYVR;2005-01-01 04:00;METAR CYVR 010400Z 11004KT 15SM BKN015 BKN220 01/M03 A2963 RMK SC5CI1 SLP034=

CYVR;2005-01-01 04:33;SPECI CYVR 010433Z 15005KT 12SM BKN014 BKN085 RMK SC6AC1=

CYVR;2005-01-01 04:52;SPECI CYVR 010452Z 13006KT 15SM SCT014 SCT080 BKN240 RMK SC3AC1CI0=

CYVR;2005-01-01 05:00;METAR CYVR 010500Z 13005KT 15SM FEW014 SCT090 BKN240 01/M03 A2964 RMK SC2AC1CI1 SLP038=

CYVR;2005-01-01 06:00;METAR CYVR 010600Z 10006KT 15SM FEW015 SCT085 BKN120 00/M04 A2965 RMK SC2AC2AC2 SLP040=

CYVR;2005-01-01 07:00;METAR CYVR 010700Z 08002KT 15SM FEW015 SCT085 BKN130 BKN220 00/M03 A2965 RMK SC2AC2AC2CI1 SLP039=

CYVR;2005-01-01 09:00;METAR CYVR 010900Z 09004KT 15SM FEW016 BKN060 OVC080 01/M03 A2965 RMK SC2SC4AC2 SLP041=

CYVR;2005-01-01 10:00;METAR CYVR 011000Z 11007KT 15SM FEW016 BKN040 OVC080 01/M04 A2967 RMK SC2SC4AC2 SLP048=

CYVR;2005-01-01 11:00;METAR CYVR 011100Z 06004KT 12SM FEW015 SCT040 OVC055 01/M04 A2970 RMK SC2SC2SC4 SLP056=

CYVR;2005-01-01 11:39;SPECI CYVR 011139Z 36004KT 10SM -SN FEW015 BKN035 OVC060 RMK SC2SC3SC3=

CYVR;2005-01-01 12:00;METAR CYVR 011200Z 36003KT 8SM -SN FEW014 BKN030 OVC050 01/M04 A2970 RMK SC2SC4SC2 PCPN VRY LGT SLP059=

CYVR;2005-01-01 13:00;METAR CYVR 011300Z 13005KT 6SM -SN FEW015 BKN020 OVC040 01/M04 A2972 RMK SC1SC5SC2 SLP065=

CYVR;2005-01-01 14:00;METAR CYVR 011400Z 15002KT 5SM -SN FEW015 BKN021 OVC050 00/M02 A2974 RMK SC1SC6SC2 SLP072=

CYVR;2005-01-01 14:32;SPECI CYVR 011432Z 14002KT 4SM -SN BKN014 OVC025 RMK SC5SC3=

CYVR;2005-01-01 15:00;METAR CYVR 011500Z 00000KT 4SM -SN BKN014 BKN025 OVC050 00/M02 A2976 RMK SC5SC2SC2 SLP079=

CYVR;2005-01-01 16:00;METAR CYVR 011600Z 00000KT 3SM -SN SCT014 OVC050 00/M02 A2978 RMK SC3SC5 SLP086=

CYVR;2005-01-01 16:39;SPECI CYVR 011639Z 00000KT 3SM -SN SCT004 BKN016 OVC050 RMK SF3SC2SC2=

CYVR;2005-01-01 17:00;METAR CYVR 011700Z 14002KT 3SM -SN SCT004 BKN016 OVC050 01/M01 A2981 RMK SF3SC3SC2 SLP096=

CYVR;2005-01-01 17:43;SPECI CYVR 011743Z 23003KT 4SM BR FEW004 SCT016 BKN050 OVC080 RMK SF2SC2SC3AC2=

CYVR;2005-01-01 18:00;METAR CYVR 011800Z 20003KT 5SM BR FEW004 SCT024 OVC050 01/M01 A2984 RMK SF1SC3SC4 SLP105=

CYVR;2005-01-01 19:18;SPECI CYVR 011918Z 25006KT 15SM FEW005 SCT022 OVC052 RMK SF1SC2SC5=

CYVR;2005-01-01 20:00;METAR CYVR 012000Z 32002KT 15SM FEW005 SCT022 OVC058 04/M00 A2985 RMK SF1SC2SC5 INTMT -RA SLP110=

CYVR;2005-01-01 20:15;SPECI CYVR 012015Z 32002KT 15SM -RA FEW012 SCT022 OVC055 RMK SC1SC2SC5=

CYVR;2005-01-01 20:55;SPECI CYVR 012055Z 32003KT 15SM FEW012 BKN055 BKN080 RMK SC1SC4AC0=

CYVR;2005-01-01 21:00;METAR CYVR 012100Z 32003KT 20SM FEW012 BKN055 BKN080 04/01 A2985 RMK SC1SC2AC1 SLP108=

CYVR;2005-01-01 23:00;METAR CYVR 012300Z 00000KT 20SM FEW020 BKN075 04/M01 A2987 RMK SC1AC2 SLP115=

CYVR;2005-01-02 00:00;METAR CYVR 020000Z 13004KT 20SM FEW020 BKN075 03/M01 A2990 RMK SC1AC4 SLP125=

CYVR;2005-01-02 01:00;METAR CYVR 020100Z 09005KT 15SM FEW020 BKN080 02/M01 A2993 RMK SC1AC5 SLP135=

CYVR;2005-01-02 02:00;METAR CYVR 020200Z 12006KT 15SM FEW012 OVC090 02/M02 A2994 RMK SC1AC6 SLP140=

CYVR;2005-01-02 03:00;METAR CYVR 020300Z 13009KT 15SM FEW012 BKN090 02/M04 A2997 RMK SC1AC6 SLP148=

CYVR;2005-01-02 04:00;METAR CYVR 020400Z 09008KT 15SM FEW012 BKN100 00/M04 A2999 RMK SC1AC6 SLP156=

CYVR;2005-01-02 05:00;METAR CYVR 020500Z 09005KT 15SM FEW018 BKN090 01/M03 A3001 RMK SC1AC6 SLP162=

CYVR;2005-01-02 06:00;METAR CYVR 020600Z 10003KT 15SM FEW020 BKN100 01/M04 A3003 RMK SC1AC6 SLP170=

CYVR;2005-01-02 07:00;METAR CYVR 020700Z 13002KT 15SM FEW020 BKN100 01/M04 A3005 RMK SC1AC6 SLP177=

CYVR;2005-01-02 08:00;METAR CYVR 020800Z 11004KT 15SM BKN100 00/M04 A3007 RMK AC6 SLP183=

CYVR;2005-01-02 09:00;METAR CYVR 020900Z 09004KT 15SM SCT110 M00/M05 A3008 RMK AC3 SLP186=

CYVR;2005-01-02 12:00;METAR CYVR 021200Z 09005KT 15SM FEW100 M03/M06 A3013 RMK AC2 SLP203=

CYVR;2005-01-02 13:00;METAR CYVR 021300Z 09004KT 15SM FEW100 M03/M07 A3014 RMK AC2 SLP207=

CYVR;2005-01-02 14:00;METAR CYVR 021400Z 10006KT 20SM SKC M03/M07 A3015 RMK SLP210=

CYVR;2005-01-02 15:00;METAR CYVR 021500Z 08004KT 20SM SKC M03/M06 A3017 RMK SLP217=

CYVR;2005-01-02 16:00;METAR CYVR 021600Z 10006KT 30SM FEW020 M04/M07 A3018 RMK SC1 SLP221=

CYVR;2005-01-02 17:00;METAR CYVR 021700Z 10006KT 30SM FEW020 M03/M06 A3021 RMK SC1 SLP229=

CYVR;2005-01-02 18:00;METAR CYVR 021800Z 10006KT 30SM FEW020 M01/M06 A3023 RMK SC1 SLP236=

CYVR;2005-01-02 19:00;METAR CYVR 021900Z 10004KT 30SM FEW020 01/M05 A3023 RMK SC1 SLP236=

CYVR;2005-01-02 20:00;METAR CYVR 022000Z 14002KT 30SM SKC 03/M05 A3022 RMK SLP233=

CYVR;2005-01-02 21:00;METAR CYVR 022100Z 24003KT 30SM SKC 03/M03 A3021 RMK SLP231=

CYVR;2005-01-02 22:00;METAR CYVR 022200Z 22005KT 30SM SKC 03/M02 A3021 RMK SLP229=

CYVR;2005-01-02 23:00;METAR CYVR 022300Z 25006KT 30SM SKC 03/M01 A3021 RMK SLP229=

CYVR;2005-01-03 00:00;METAR CYVR 030000Z 29005KT 30SM SKC 03/00 A3021 RMK SLP230=

CYVR;2005-01-03 01:00;METAR CYVR 030100Z 30006KT 30SM SKC 01/M01 A3021 RMK SLP231=

CYVR;2005-01-03 03:00;METAR CYVR 030300Z 07008KT 20SM SKC M01/M03 A3023 RMK SLP238=

CYVR;2005-01-03 04:00;METAR CYVR 030400Z 11007KT 20SM SKC M01/M04 A3024 RMK SLP242=

CYVR;2005-01-03 05:00;METAR CYVR 030500Z 09005KT 20SM SKC M02/M05 A3025 RMK SLP245=

CYVR;2005-01-03 06:00;METAR CYVR 030600Z 00000KT 20SM SKC M01/M06 A3026 RMK SLP248=

CYVR;2005-01-03 07:00;METAR CYVR 030700Z 10003KT 20SM SKC M02/M06 A3027 RMK SLP252=

CYVR;2005-01-03 08:00;METAR CYVR 030800Z 12005KT 20SM SKC M02/M06 A3027 RMK SLP252=

CYVR;2005-01-03 09:00;METAR CYVR 030900Z 09007KT 20SM SKC M04/M07 A3027 RMK SLP250=

CYVR;2005-01-03 10:00;METAR CYVR 031000Z 11005KT 20SM SKC M03/M07 A3027 RMK SLP250=

CYVR;2005-01-03 11:00;METAR CYVR 031100Z 09006KT 20SM SKC M04/M07 A3027 RMK SLP250=

CYVR;2005-01-03 12:00;METAR CYVR 031200Z 09005KT 20SM SKC M04/M07 A3027 RMK SLP249=

CYVR;2005-01-03 13:00;METAR CYVR 031300Z 10004KT 20SM SKC M04/M07 A3026 RMK SLP246=

CYVR;2005-01-03 14:00;METAR CYVR 031400Z 09007KT 20SM SKC M06/M07 A3026 RMK SLP246=

CYVR;2005-01-03 15:00;METAR CYVR 031500Z 09005KT 20SM SKC M05/M06 A3026 RMK SLP247=

CYVR;2005-01-03 16:00;METAR CYVR 031600Z 10006KT 30SM FEW050 M05/M07 A3027 RMK SC1 SLP250=

CYVR;2005-01-03 17:00;METAR CYVR 031700Z 09004KT 30SM FEW045 M04/M06 A3027 RMK SC1 SLP249=

CYVR;2005-01-03 18:00;METAR CYVR 031800Z 11005KT 30SM FEW045 M01/M05 A3027 RMK SC1 SLP250=

CYVR;2005-01-03 19:00;METAR CYVR 031900Z 11004KT 30SM FEW045 00/M04 A3027 RMK SC1 SLP249=

CYVR;2005-01-03 20:00;METAR CYVR 032000Z 16002KT 30SM FEW045 02/M04 A3025 RMK SC1 SLP245=

CYVR;2005-01-03 21:00;METAR CYVR 032100Z 31009KT 30SM FEW035 02/M03 A3024 RMK SC1 SLP239=

CYVR;2005-01-03 22:00;METAR CYVR 032200Z 28007KT 30SM FEW035 03/M00 A3022 RMK SC1 SLP235=

CYVR;2005-01-03 23:00;METAR CYVR 032300Z 29006KT 30SM FEW030 03/M00 A3022 RMK CF1 SLP233=

CYVR;2005-01-04 00:00;METAR CYVR 040000Z 31010KT 30SM FEW030 01/M01 A3021 RMK CF1 SLP231=

CYVR;2005-01-04 01:00;METAR CYVR 040100Z 31009KT 30SM FEW030 00/M03 A3022 RMK CF1 SLP232=

CYVR;2005-01-04 02:00;METAR CYVR 040200Z 34008KT 20SM SKC 01/M04 A3021 RMK SLP231=

CYVR;2005-01-04 03:00;METAR CYVR 040300Z 08006KT 20SM SKC M01/M03 A3022 RMK SLP233=

CYVR;2005-01-04 04:00;METAR CYVR 040400Z 07002KT 20SM SKC M01/M04 A3023 RMK SLP237=

CYVR;2005-01-04 05:00;METAR CYVR 040500Z 00000KT 20SM SKC M01/M05 A3024 RMK SLP242=

CYVR;2005-01-04 06:00;METAR CYVR 040600Z 04002KT 20SM SKC M03/M05 A3025 RMK SLP245=

CYVR;2005-01-04 07:00;METAR CYVR 040700Z 00000KT 20SM SKC M03/M04 A3026 RMK SLP246=

CYVR;2005-01-04 08:00;METAR CYVR 040800Z 00000KT 20SM SKC M03/M04 A3025 RMK SLP243=

CYVR;2005-01-04 09:00;METAR CYVR 040900Z 10004KT 20SM SKC M04/M05 A3025 RMK SLP243=

CYVR;2005-01-04 10:00;METAR CYVR 041000Z 10005KT 20SM SKC M04/M05 A3025 RMK SLP244=

CYVR;2005-01-04 11:00;METAR CYVR 041100Z 09004KT 20SM SKC M05/M06 A3026 RMK SLP248=

CYVR;2005-01-04 12:00;METAR CYVR 041200Z 09005KT 20SM SKC M05/M06 A3025 RMK SLP245=

CYVR;2005-01-04 13:00;METAR CYVR 041300Z 11004KT 20SM SKC M04/M06 A3025 RMK SLP244=

CYVR;2005-01-04 15:00;METAR CYVR 041500Z 00000KT 20SM SKC M04/M05 A3027 RMK FROIN SLP251=

CYVR;2005-01-04 16:00;METAR CYVR 041600Z 09003KT 20SM SKC M04/M06 A3027 RMK FROIN SLP249=

CYVR;2005-01-04 17:00;METAR CYVR 041700Z 00000KT 20SM FEW180 M04/M06 A3028 RMK AC1 FROIN SLP253=

CYVR;2005-01-04 18:00;METAR CYVR 041800Z 00000KT 20SM FEW180 M01/M04 A3028 RMK AC1 SLP253=

CYVR;2005-01-04 20:00;METAR CYVR 042000Z 23003KT 30SM FEW080 02/M06 A3024 RMK AC1 TR AC SLP241=

CYVR;2005-01-04 21:00;METAR CYVR 042100Z 29005KT 30SM SKC 02/M05 A3023 RMK SLP237=

CYVR;2005-01-04 22:00;METAR CYVR 042200Z 30011KT 30SM SKC 03/M01 A3022 RMK SLP234=

CYVR;2005-01-04 23:00;METAR CYVR 042300Z 30010KT 30SM SKC 03/M01 A3021 RMK SLP231=

CYVR;2005-01-05 00:00;METAR CYVR 050000Z 29009KT 30SM SKC 01/M01 A3020 RMK SLP226=

CYVR;2005-01-05 01:00;METAR CYVR 050100Z 29009KT 30SM SKC 00/M01 A3020 RMK SLP227=

CYVR;2005-01-05 02:00;METAR CYVR 050200Z 32008KT 30SM FEW220 M00/M04 A3020 RMK CI1 TR CI SLP226=

CYVR;2005-01-05 03:00;METAR CYVR 050300Z 36005KT 30SM SKC M00/M06 A3020 RMK SLP227=

CYVR;2005-01-05 04:00;METAR CYVR 050400Z 04002KT 30SM SKC M01/M04 A3020 RMK SLP228=

CYVR;2005-01-05 05:00;METAR CYVR 050500Z 01003KT 30SM FEW220 M02/M03 A3022 RMK CI0 SLP232=

CYVR;2005-01-05 06:00;METAR CYVR 050600Z 00000KT 30SM FEW220 M02/M03 A3021 RMK CI0 FROIN SLP231=

CYVR;2005-01-05 07:00;METAR CYVR 050700Z 10005KT 20SM FEW220 M03/M04 A3022 RMK CI0 SLP233=

CYVR;2005-01-05 08:00;METAR CYVR 050800Z 09005KT 20SM FEW220 M03/M04 A3023 RMK CI0 SLP238=

CYVR;2005-01-05 09:00;METAR CYVR 050900Z 04002KT 20SM SKC M04/M05 A3023 RMK SLP238=

CYVR;2005-01-05 10:00;METAR CYVR 051000Z 09002KT 20SM SKC M05/M05 A3024 RMK SLP239=

CYVR;2005-01-05 11:00;METAR CYVR 051100Z 09004KT 20SM SKC M04/M05 A3024 RMK SLP240=

CYVR;2005-01-05 12:00;METAR CYVR 051200Z 08006KT 20SM SKC M05/M05 A3024 RMK SLP242=

CYVR;2005-01-05 15:00;METAR CYVR 051500Z 11006KT 20SM SKC M05/M06 A3024 RMK FROIN SLP240=

CYVR;2005-01-05 18:00;METAR CYVR 051800Z 10007KT 20SM FEW220 M01/M05 A3029 RMK CI1 SLP256=

CYVR;2005-01-05 21:00;METAR CYVR 052100Z 11003KT 30SM FEW220 03/M04 A3026 RMK CI1 SLP248=

CYVR;2005-01-05 22:00;METAR CYVR 052200Z 13002KT 30SM FEW230 03/M04 A3025 RMK CC1 SLP244=

CYVR;2005-01-05 23:00;METAR CYVR 052300Z 23003KT 30SM BKN230 03/M06 A3024 RMK CC3 SLP241=

CYVR;2005-01-06 00:00;METAR CYVR 060000Z 10004KT 30SM FEW220 BKN240 02/M06 A3024 RMK CI1CC3 SLP240=

CYVR;2005-01-06 01:00;METAR CYVR 060100Z 14004KT 20SM FEW220 BKN240 02/M07 A3023 RMK CI1CC2 SLP237=

CYVR;2005-01-06 02:00;METAR CYVR 060200Z 08004KT 20SM FEW220 BKN240 M00/M06 A3022 RMK CI1CC2 SLP234=

CYVR;2005-01-06 03:00;METAR CYVR 060300Z 09004KT 20SM SCT220 00/M06 A3022 RMK CI1 SLP232=

CYVR;2005-01-06 04:00;METAR CYVR 060400Z 09005KT 20SM FEW220 M01/M06 A3021 RMK CI1 SLP231=

CYVR;2005-01-06 05:00;METAR CYVR 060500Z 10005KT 20SM FEW220 M02/M06 A3020 RMK CI1 SLP227=

CYVR;2005-01-06 06:00;METAR CYVR 060600Z 07005KT 20SM FEW220 M03/M05 A3019 RMK CI1 SLP225=

CYVR;2005-01-06 07:00;METAR CYVR 060700Z 09005KT 20SM FEW220 M03/M06 A3017 RMK CI1 SLP217=

CYVR;2005-01-06 08:00;METAR CYVR 060800Z 10005KT 20SM SCT050 M02/M05 A3015 RMK SC3 SLP211=

CYVR;2005-01-06 09:00;METAR CYVR 060900Z 10003KT 20SM BKN033 M02/M05 A3013 RMK SC5 SLP203=

CYVR;2005-01-06 10:00;METAR CYVR 061000Z 08004KT 20SM FEW035 M02/M05 A3012 RMK SC2 SLP199=

CYVR;2005-01-06 11:00;METAR CYVR 061100Z 08005KT 20SM FEW035 BKN061 M03/M05 A3010 RMK SC2SC2 SLP193=

CYVR;2005-01-06 12:00;METAR CYVR 061200Z 11004KT 20SM SCT020 BKN062 M01/M04 A3007 RMK SC3SC4 SLP184=

CYVR;2005-01-06 13:38;SPECI CYVR 061338Z 07007KT 10SM -SN BKN016 OVC040 RMK SC6SC2=

CYVR;2005-01-06 13:52;SPECI CYVR 061352Z 08010KT 2 1/2SM -SN OVC012 RMK SC8=

CYVR;2005-01-06 14:00;METAR CYVR 061400Z 09009KT 2SM -SN OVC012 M00/M01 A2999 RMK SC8 SLP157=

CYVR;2005-01-06 15:00;METAR CYVR 061500Z 06009KT 1 3/4SM -SN OVC010 M00/M00 A2996 RMK SC8 SLP144=

CYVR;2005-01-06 15:51;SPECI CYVR 061551Z 07011KT 3/4SM -SN OVC010 RMK SN3SC5=

CYVR;2005-01-06 16:00;METAR CYVR 061600Z 06008KT 3/4SM -SN OVC010 M00/M00 A2993 RMK SN3SC5 SLP134=

CYVR;2005-01-06 16:42;SPECI CYVR 061642Z 08010KT 1SM -SN OVC009 RMK SN2SC6=

CYVR;2005-01-06 17:45;SPECI CYVR 061745Z 07010KT 3/4SM -SN OVC008 RMK SN2SC6=

CYVR;2005-01-06 18:00;METAR CYVR 061800Z 09010KT 3/4SM -SN OVC010 M00/M00 A2989 RMK SC8 /S02/ SLP121=

CYVR;2005-01-06 18:08;SPECI CYVR 061808Z 08008KT 1SM -SN OVC010 RMK SC8=

CYVR;2005-01-06 18:13;SPECI CYVR 061813Z 06010KT 3/4SM -SN OVC009 RMK SC8=

CYVR;2005-01-06 19:00;METAR CYVR 061900Z 07008KT 1/2SM SN OVC010 00/00 A2987 RMK SC8 /S01/ SLP114=

CYVR;2005-01-06 19:52;SPECI CYVR 061952Z 07010KT 3/4SM -SN OVC014 RMK SC8=

CYVR;2005-01-06 20:00;METAR CYVR 062000Z 08010KT 3/4SM -SN OVC014 00/00 A2983 RMK SC8 SLP100=

CYVR;2005-01-06 20:13;SPECI CYVR 062013Z 07009KT 1SM -SN OVC014 RMK SC8=

CYVR;2005-01-06 20:28;SPECI CYVR 062028Z 08010KT 1 1/2SM -SN SCT014 OVC022 RMK SC4SC4=

CYVR;2005-01-06 20:50;SPECI CYVR 062050Z 08009KT 3SM -SN BKN014 OVC025 RMK SC6SC2=

CYVR;2005-01-06 21:00;METAR CYVR 062100Z 08009KT 3SM -SN BKN014 OVC025 00/00 A2979 RMK SC6SC2 SLP089=

CYVR;2005-01-06 22:00;METAR CYVR 062200Z 07010KT 5SM -SN OVC014 01/01 A2977 RMK SC8 SLP082=

CYVR;2005-01-06 22:27;SPECI CYVR 062227Z 08006KT 5SM -SN BKN015 OVC026 RMK SC6SC2=

CYVR;2005-01-06 22:45;SPECI CYVR 062245Z 08006KT 5SM -SN BKN013 OVC026 RMK SC6SC2=

CYVR;2005-01-07 00:00;METAR CYVR 070000Z 08007KT 5SM -SN BKN014 OVC047 01/01 A2973 RMK SC6SC2 PCPN VRY LGT SLP069=

CYVR;2005-01-07 00:20;SPECI CYVR 070020Z 07006KT 10SM BKN016 OVC033 RMK SC6SC2=

CYVR;2005-01-07 01:00;METAR CYVR 070100Z 09006KT 15SM -RA SCT016 OVC082 01/00 A2970 RMK SC3AC5 PCPN VRY LGT SLP059=

CYVR;2005-01-07 01:53;SPECI CYVR 070153Z 07007KT 15SM BKN022 OVC035 RMK SC6SC2=

CYVR;2005-01-07 02:00;METAR CYVR 070200Z 07007KT 15SM BKN024 OVC035 01/01 A2968 RMK SC6SC2 SLP052=

CYVR;2005-01-07 03:00;METAR CYVR 070300Z 04004KT 12SM BKN029 OVC080 01/00 A2966 RMK SC6AC2 SLP044=

CYVR;2005-01-07 03:26;SPECI CYVR 070326Z 10007KT 12SM -SN BKN038 OVC080 RMK SC7AC1=

CYVR;2005-01-07 05:00;METAR CYVR 070500Z 09006KT 15SM BKN033 OVC052 01/00 A2963 RMK SC6SC2 SLP035=

CYVR;2005-01-07 06:00;METAR CYVR 070600Z 08009KT 15SM BKN034 OVC051 01/00 A2962 RMK SC6SC2 SLP030=

CYVR;2005-01-07 06:49;SPECI CYVR 070649Z 31005KT 10SM -SN BKN024 OVC041 RMK SC6SC2=

CYVR;2005-01-07 07:00;METAR CYVR 070700Z 32003KT 10SM -SN BKN027 OVC040 01/M00 A2962 RMK SC6SC2 SLP032=

CYVR;2005-01-07 08:00;METAR CYVR 070800Z 30003KT 10SM -SN SCT027 OVC047 01/00 A2961 RMK SC4SC4 SLP027=

CYVR;2005-01-07 09:00;METAR CYVR 070900Z 28003KT 10SM -SN OVC050 01/00 A2960 RMK SC8 SLP022=

CYVR;2005-01-07 10:00;METAR CYVR 071000Z 21002KT 10SM -SN SCT039 OVC055 01/01 A2959 RMK SC3SC5 SLP019=

CYVR;2005-01-07 11:00;METAR CYVR 071100Z 24002KT 10SM -SN OVC049 01/M01 A2957 RMK SC8 SLP015=

CYVR;2005-01-07 12:00;METAR CYVR 071200Z 25004KT 10SM OVC057 01/M01 A2956 RMK SC8 SLP009=

CYVR;2005-01-07 13:26;SPECI CYVR 071326Z 25007KT 10SM -SN BKN023 OVC039 RMK SC5SC3=

CYVR;2005-01-07 14:00;METAR CYVR 071400Z 09004KT 3/4SM -SN FEW008 OVC023 M00/M00 A2952 RMK SC2SC6 SLP996=

CYVR;2005-01-07 14:37;SPECI CYVR 071437Z 06006KT 1/2SM SN BKN010 OVC020 RMK SC6SC2=

CYVR;2005-01-07 14:46;SPECI CYVR 071446Z 07007KT 1SM -SN OVC010 RMK SN3SC5=

CYVR;2005-01-07 14:56;SPECI CYVR 071456Z 07007KT 1 1/2SM -SN BKN025 OVC040 RMK SN2SC3SC2=

CYVR;2005-01-07 15:00;METAR CYVR 071500Z 07007KT 2 1/4SM -SN BKN023 OVC040 M00/M01 A2951 RESN RMK SN2SC3SC2 /S02/ SLP993=

CYVR;2005-01-07 15:15;SPECI CYVR 071515Z 07006KT 1 1/2SM -SN BKN012 OVC040 RMK SN2SC3SC2=

CYVR;2005-01-07 15:29;SPECI CYVR 071529Z 09003KT 3/4SM -SN BKN012 OVC040 RMK SN2SC3SC2=

CYVR;2005-01-07 16:00;METAR CYVR 071600Z 11004KT 1 1/4SM -SN BKN014 OVC030 M01/M01 A2949 RMK SC6SC2 SLP986=

CYVR;2005-01-07 16:39;SPECI CYVR 071639Z 11005KT 1/2SM SN BKN014 OVC040 RMK SN2SC3SC2=

CYVR;2005-01-07 18:00;METAR CYVR 071800Z 07009KT 1/2SM SN SCT005 OVC012 M01/M01 A2947 RMK SC4SC4 SLP979=

CYVR;2005-01-07 18:10;SPECI CYVR 071810Z 06009KT 3/4SM -SN FEW005 BKN011 OVC024 RMK SC2SC4SC2=

CYVR;2005-01-07 18:23;SPECI CYVR 071823Z 06010KT 1SM -SN FEW005 BKN015 OVC024 RMK SC2SC4SC2=

CYVR;2005-01-07 18:26;SPECI CYVR 071826Z 06008KT 1 1/2SM -SN SCT015 BKN024 OVC040 RMK SC3SC3SC2=

CYVR;2005-01-07 19:00;METAR CYVR 071900Z 07005KT 2 1/4SM -SN BKN023 OVC038 M00/M02 A2943 RESN RMK SC6SC2 /S01/ SLP967=

CYVR;2005-01-07 19:32;SPECI CYVR 071932Z 00000KT 1 1/4SM -SN BKN014 OVC034 RMK SC6SC2=

CYVR;2005-01-07 19:38;SPECI CYVR 071938Z 00000KT 3/4SM -SN FEW007 OVC014 RMK SC2SC6=

CYVR;2005-01-07 19:40;SPECI CYVR 071940Z 22002KT 1/2SM SN OVC013 RMK SN2SC6=

CYVR;2005-01-07 19:49;SPECI CYVR 071949Z 18002KT 3/4SM -SN OVC013 RMK SN2SC6=

CYVR;2005-01-07 20:06;SPECI CYVR 072006Z 10002KT 3/8SM SN OVC013 RMK SN2SC6=

CYVR;2005-01-07 20:31;SPECI CYVR 072031Z 11002KT 1/2SM SN OVC013 RMK SN2SC6=

CYVR;2005-01-07 20:39;SPECI CYVR 072039Z 00000KT 1/2SM SN BKN009 OVC020 RMK SN2SC4SC2=

CYVR;2005-01-07 20:50;SPECI CYVR 072050Z 00000KT 3/4SM -SN BKN009 OVC020 RMK SN2SC4SC2=

CYVR;2005-01-07 21:00;METAR CYVR 072100Z 00000KT 3/4SM -SN OVC015 M01/M01 A2936 RESN RMK SN3SC5 /S03/ SLP943=

CYVR;2005-01-07 21:13;SPECI CYVR 072113Z 35002KT 1SM -SN OVC014 RMK SN2SC6=

CYVR;2005-01-07 21:23;SPECI CYVR 072123Z 00000KT 1 1/2SM -SN OVC014 RMK SN2SC6=

CYVR;2005-01-07 21:44;SPECI CYVR 072144Z 00000KT 3SM -SN OVC016 RMK SC8 VIS HIER NE - E QUADS 10 SM=

CYVR;2005-01-07 22:00;METAR CYVR 072200Z 21002KT 12SM -SN SCT016 OVC041 M00/M01 A2931 RMK SC3SC5 /S04/ VIS LWR NW - N QUAD 4 SM SLP926=

CYVR;2005-01-07 22:39;SPECI CYVR 072239Z 25003KT 15SM FEW015 BKN033 OVC045 RMK SC2SC4SC2 VIS LWR N QUAD 10 SM=

CYVR;2005-01-07 22:44;SPECI CYVR 072244Z 25003KT 15SM -SHSN FEW015 BKN033 OVC045 RMK SC2SC4SC2 VIS LWR N QUAD 10 SM=

CYVR;2005-01-07 23:00;METAR CYVR 072300Z 24003KT 12SM -SHSN FEW015 SCT025 OVC037 M00/M01 A2928 RMK SC2SC2SC4 PCPN VRY LGT SLP915=

CYVR;2005-01-08 00:00;METAR CYVR 080000Z 26004KT 15SM -SHSN FEW015 BKN041 OVC055 M00/M01 A2926 RMK SC1SC5SC2 VIS N NW 6 PCPN VRY LGT SLP907=

CYVR;2005-01-08 00:27;SPECI CYVR 080027Z 27005KT 15SM FEW015 BKN043 OVC058 RMK SC1SC6SC2=

CYVR;2005-01-08 01:00;METAR CYVR 080100Z 27005KT 15SM BKN047 OVC062 00/M01 A2922 RMK SC6SC2 SLP894=

CYVR;2005-01-08 02:00;METAR CYVR 080200Z 16005KT 15SM FEW045 SCT082 OVC140 01/M02 A2919 RMK SC2AC2AS4 SLP886=

CYVR;2005-01-08 03:00;METAR CYVR 080300Z 00000KT 15SM SCT041 OVC100 M00/M04 A2918 RMK SC4AS4 SLP881=

CYVR;2005-01-08 04:00;METAR CYVR 080400Z 10003KT 15SM BKN064 OVC085 00/M03 A2918 RMK SC6AC2 SLP880=

CYVR;2005-01-08 05:00;METAR CYVR 080500Z 07004KT 15SM BKN044 OVC064 01/M02 A2918 RMK SC6SC2 SLP880=

CYVR;2005-01-08 06:00;METAR CYVR 080600Z 04008KT 15SM BKN030 OVC060 02/M05 A2918 RMK SC6SC2 SLP883=

CYVR;2005-01-08 07:00;METAR CYVR 080700Z 01004KT 15SM BKN024 OVC032 01/M04 A2920 RMK SC5SC3 SLP889=

CYVR;2005-01-08 07:13;SPECI CYVR 080713Z 34006KT 15SM -SHSN SCT018 OVC035 RMK SC4SC4=

CYVR;2005-01-08 07:47;SPECI CYVR 080747Z 01005KT 2 1/2SM -SHSN BKN013 OVC026 RMK SC5SC3=

CYVR;2005-01-08 08:00;METAR CYVR 080800Z 01004KT 2 1/2SM -SHSN BKN011 OVC028 00/M02 A2923 RMK SC5SC3 SLP900=

CYVR;2005-01-08 08:31;SPECI CYVR 080831Z 06008KT 1 1/2SM -SN OVC018 RMK SN5SC3=

CYVR;2005-01-08 09:00;METAR CYVR 080900Z 07008KT 1SM -SN OVC011 M01/M01 A2925 RMK SN6SC2 /S01/ SLP906=

CYVR;2005-01-08 09:28;SPECI CYVR 080928Z 08010KT 3/4SM -SN OVC014 RMK SN5SC3=

CYVR;2005-01-08 10:00;METAR CYVR 081000Z 07010KT 3/4SM -SN OVC014 M01/M01 A2926 RMK SN5SC3 SLP910=

CYVR;2005-01-08 11:00;METAR CYVR 081100Z 09007KT 3/4SM -SN OVC012 M01/M01 A2929 RMK SN3SC5 SLP919=

CYVR;2005-01-08 11:14;SPECI CYVR 081114Z 09007KT 1 1/2SM -SN BKN014 OVC033 RMK SC5SC3=

CYVR;2005-01-08 12:46;SPECI CYVR 081246Z 07008KT 4SM -SN SCT014 BKN022 OVC044 RMK SC3SC2SC2=

CYVR;2005-01-08 13:00;METAR CYVR 081300Z 07007KT 4SM -SN SCT018 OVC043 M01/M02 A2932 RMK SC4SC4 SLP930=

CYVR;2005-01-08 14:00;METAR CYVR 081400Z 07009KT 4SM -SN SCT022 OVC044 M01/M02 A2934 RMK SC4SC4 SLP935=

CYVR;2005-01-08 15:00;METAR CYVR 081500Z 08006KT 4SM -SHSN SCT020 OVC040 M01/M02 A2936 RMK SC3SC5 SLP942=

CYVR;2005-01-08 15:11;SPECI CYVR 081511Z 10007KT 1 1/2SM -SHSN OVC020 RMK SN3SC5=

CYVR;2005-01-08 15:47;SPECI CYVR 081547Z 08009KT 1 1/4SM -SHSN SCT008 OVC022 RMK SN2SF2SC4=

CYVR;2005-01-08 16:14;SPECI CYVR 081614Z 07008KT 1SM -SN SCT008 OVC021 RMK SN3SF1SC4=

CYVR;2005-01-08 16:26;SPECI CYVR 081626Z 08006KT 3SM -SN SCT006 BKN022 OVC040 RMK SF3SC2SC2=

CYVR;2005-01-08 17:00;METAR CYVR 081700Z 07007KT 8SM -SHSN FEW007 SCT020 OVC039 M01/M02 A2941 RMK SF2SC2SC4 SLP959=

CYVR;2005-01-08 17:37;SPECI CYVR 081737Z 05010KT 10SM FEW008 SCT020 OVC040 RMK SF2SC2SC5=

CYVR;2005-01-08 18:00;METAR CYVR 081800Z 09008KT 15SM FEW008 FEW020 OVC041 M00/M02 A2943 RMK SF1SC2SC6 SLP966=

CYVR;2005-01-08 19:00;METAR CYVR 081900Z 09005KT 15SM FEW007 FEW025 BKN040 OVC050 00/M02 A2944 RMK SF1SC2SC2SC3 SLP970=

CYVR;2005-01-08 20:29;SPECI CYVR 082029Z 11005KT 12SM -SHSN FEW007 FEW025 OVC049 RMK SF1SC2SC6=

CYVR;2005-01-08 21:40;SPECI CYVR 082140Z 09007KT 2 1/2SM -SHSN FEW007 FEW025 OVC041 RMK SF1SC2SC6=

CYVR;2005-01-08 22:03;SPECI CYVR 082203Z 34003KT 1SM -SHSN SCT007 OVC019 RMK SN3SF1SC4=

CYVR;2005-01-08 22:09;SPECI CYVR 082209Z 08003KT 1/2SM SHSN OVC014 RMK SN4SC4=

CYVR;2005-01-08 22:15;SPECI CYVR 082215Z 09002KT 1SM -SHSN BKN013 OVC030 RMK SN3SF2SC3=

CYVR;2005-01-08 22:47;SPECI CYVR 082247Z 06012G17KT 4SM -SHSN SCT015 OVC042 RMK SF3SC5=

CYVR;2005-01-09 01:00;METAR CYVR 090100Z 28002KT 7SM -SHSN SCT020 OVC059 M00/M01 A2955 RMK SC3SC5 SLP006=

CYVR;2005-01-09 02:00;METAR CYVR 090200Z 00000KT 15SM FEW030 OVC071 00/M01 A2956 RMK SF2AC6 SLP011=

CYVR;2005-01-09 03:00;METAR CYVR 090300Z 10006KT 15SM FEW012 BKN065 OVC085 00/M02 A2959 RMK SF1SC6AC2 SLP021=

CYVR;2005-01-09 03:24;SPECI CYVR 090324Z 10005KT 15SM -SHSN SCT065 OVC080 RMK SC3AC5=

CYVR;2005-01-09 04:00;METAR CYVR 090400Z 11006KT 15SM SCT065 OVC080 00/M03 A2961 RMK SC3AC4 SLP028=

CYVR;2005-01-09 07:00;METAR CYVR 090700Z 00000KT 20SM FEW110 M02/M05 A2968 RMK AC1 SLP051=

CYVR;2005-01-09 09:00;METAR CYVR 090900Z 00000KT 20SM FEW110 M05/M06 A2972 RMK AC1 SLP065=

CYVR;2005-01-09 10:00;METAR CYVR 091000Z 09002KT 15SM BKN100 M03/M05 A2975 RMK AC2 SLP075=

CYVR;2005-01-09 12:00;METAR CYVR 091200Z 11005KT 15SM FEW100 M02/M06 A2979 RMK AC1 SLP087=

CYVR;2005-01-09 13:00;METAR CYVR 091300Z 07005KT 15SM FEW100 M04/M08 A2981 RMK AC1 SLP095=

CYVR;2005-01-09 14:00;METAR CYVR 091400Z 05003KT 15SM FEW015 FEW210 M04/M09 A2984 RMK SF1CI0 SLP104=

CYVR;2005-01-09 15:00;METAR CYVR 091500Z 10003KT 20SM FEW210 M05/M08 A2987 RMK CI1 SLP114=

CYVR;2005-01-09 16:00;METAR CYVR 091600Z 12004KT 20SM FEW020 FEW090 M05/M08 A2991 RMK SF1AC1 SLP127=

CYVR;2005-01-09 17:00;METAR CYVR 091700Z 10005KT 20SM FEW020 FEW090 FEW210 M07/M10 A2995 RMK SC1AC1CI1 SLP141=

CYVR;2005-01-09 18:00;METAR CYVR 091800Z 07002KT 20SM FEW090 SCT210 M05/M08 A2997 RMK AC2CI1 SLP150=

CYVR;2005-01-09 21:00;METAR CYVR 092100Z 14005KT 30SM SCT056 BKN090 BKN210 00/M08 A2999 RMK SC3AC2CI1 SLP157=

CYVR;2005-01-09 22:00;METAR CYVR 092200Z 17005KT 30SM SCT048 BKN090 00/M06 A2999 RMK SC4AC3 SLP157=

CYVR;2005-01-09 23:00;METAR CYVR 092300Z 16002KT 30SM BKN048 BKN090 00/M07 A3001 RMK SC6AC2 SLP163=

CYVR;2005-01-10 00:00;METAR CYVR 100000Z 36002KT 30SM BKN052 BKN090 00/M06 A3002 RMK SC6AC1 SLP165=

CYVR;2005-01-10 01:00;METAR CYVR 100100Z 00000KT 20SM BKN051 BKN090 00/M07 A3002 RMK SC6AC1 SLP167=

CYVR;2005-01-10 03:00;METAR CYVR 100300Z 14003KT 15SM BKN048 00/M07 A3004 RMK SC7 SLP174=

CYVR;2005-01-10 04:00;METAR CYVR 100400Z 09003KT 15SM BKN045 M01/M05 A3005 RMK SC7 SLP176=

CYVR;2005-01-10 06:00;METAR CYVR 100600Z 16002KT 15SM FEW042 BKN060 M02/M06 A3007 RMK SC2SC4 SLP183=

CYVR;2005-01-10 10:00;METAR CYVR 101000Z 08002KT 15SM BKN050 M01/M06 A3009 RMK SC7 SLP188=

CYVR;2005-01-10 12:00;METAR CYVR 101200Z 15002KT 15SM BKN060 M01/M06 A3009 RMK SC6 SLP189=

CYVR;2005-01-10 13:00;METAR CYVR 101300Z 12004KT 15SM BKN060 M02/M06 A3009 RMK SC6 SLP188=

CYVR;2005-01-10 14:00;METAR CYVR 101400Z 10004KT 15SM BKN055 M01/M06 A3008 RMK SC7 SLP185=

CYVR;2005-01-10 15:00;METAR CYVR 101500Z 02002KT 15SM BKN056 M02/M06 A3009 RMK SC7 SLP189=

CYVR;2005-01-10 16:00;METAR CYVR 101600Z 10004KT 15SM FEW040 BKN060 M02/M06 A3009 RMK SC1SC6 SLP191=

CYVR;2005-01-10 17:00;METAR CYVR 101700Z 28003KT 15SM FEW040 BKN061 M01/M06 A3011 RMK SC1SC6 SLP195=

CYVR;2005-01-10 18:00;METAR CYVR 101800Z 10005KT 15SM FEW040 BKN062 M02/M06 A3011 RMK SC1SC6 SLP196=

CYVR;2005-01-10 19:00;METAR CYVR 101900Z 10006KT 15SM FEW040 BKN064 M01/M06 A3011 RMK SC1SC6 SLP195=

CYVR;2005-01-10 20:00;METAR CYVR 102000Z 11004KT 15SM SCT060 01/M06 A3009 RMK SC4 SLP190=

CYVR;2005-01-10 21:00;METAR CYVR 102100Z 31002KT 15SM FEW060 01/M06 A3007 RMK SC2 SLP182=

CYVR;2005-01-10 22:00;METAR CYVR 102200Z 35010KT 15SM FEW040 FEW060 00/M06 A3005 RMK SC1SC1 SLP175=

CYVR;2005-01-10 23:00;METAR CYVR 102300Z 30007KT 15SM FEW055 00/M05 A3004 RMK SC1 SLP172=

CYVR;2005-01-11 00:00;METAR CYVR 110000Z 30005KT 15SM FEW055 M00/M04 A3003 RMK SC1 SLP169=

CYVR;2005-01-11 01:00;METAR CYVR 110100Z 31009KT 15SM FEW050 M01/M04 A3001 RMK SC1 SLP164=

CYVR;2005-01-11 04:00;METAR CYVR 110400Z 36005KT 15SM FEW050 M03/M05 A2998 RMK SC1 SLP152=

CYVR;2005-01-11 05:00;METAR CYVR 110500Z 10004KT 15SM FEW050 M02/M04 A2997 RMK SC1 SLP150=

CYVR;2005-01-11 06:00;METAR CYVR 110600Z 09006KT 15SM FEW050 M04/M06 A2997 RMK SC1 SLP148=

CYVR;2005-01-11 09:00;METAR CYVR 110900Z 11008KT 20SM SKC M07/M09 A2994 RMK SLP138=

CYVR;2005-01-11 10:00;METAR CYVR 111000Z 09005KT 15SM SKC M06/M08 A2994 RMK SLP138=

CYVR;2005-01-11 12:00;METAR CYVR 111200Z 10005KT 15SM SKC M07/M09 A2993 RMK SLP135=

CYVR;2005-01-11 13:00;METAR CYVR 111300Z 09005KT 15SM FEW022 M07/M08 A2992 RMK SC1 SLP132=

CYVR;2005-01-11 14:00;METAR CYVR 111400Z 09008KT 15SM BKN022 M07/M08 A2992 RMK SC6 SLP132=

CYVR;2005-01-11 15:00;METAR CYVR 111500Z 10008KT 15SM FEW016 BKN025 M05/M07 A2992 RMK SC1SC6 SLP132=

CYVR;2005-01-11 16:00;METAR CYVR 111600Z 11007KT 15SM BKN019 BKN027 M04/M07 A2993 RMK SC5SC2 SLP136=

CYVR;2005-01-11 18:00;METAR CYVR 111800Z 10009KT 15SM BKN018 BKN024 M03/M06 A2995 RMK SC6SC2 SLP142=

CYVR;2005-01-11 21:00;METAR CYVR 112100Z 08009KT 15SM BKN021 BKN045 OVC070 M01/M05 A2993 RMK SC5SC2AC2 SLP134=

CYVR;2005-01-11 22:00;METAR CYVR 112200Z 08011KT 15SM BKN020 BKN050 OVC075 M01/M04 A2991 RMK SC5SC1AC2 SLP129=

CYVR;2005-01-11 23:43;SPECI CYVR 112343Z 08012KT 10SM -RA BKN022 BKN048 OVC070 RMK SC5SC2AC2=

CYVR;2005-01-11 23:50;SPECI CYVR 112350Z 08013KT 8SM -RASN BKN020 BKN050 OVC070 RMK SC5SC2AC1=

CYVR;2005-01-12 00:00;METAR CYVR 120000Z 08013KT 8SM -SN BKN019 BKN053 OVC070 M00/M02 A2988 RMK SC5SC2AC1 SLP120=

CYVR;2005-01-12 00:20;SPECI CYVR 120020Z 06012G17KT 8SM BKN022 BKN055 BKN070 RMK SC5SC2AC1 VIS HIER S - SW=

CYVR;2005-01-12 00:50;SPECI CYVR 120050Z 07013G18KT 8SM -RA BKN021 BKN043 OVC057 RMK SC5SC2SC1=

CYVR;2005-01-12 01:00;METAR CYVR 120100Z 07011G18KT 8SM -RA BKN020 BKN043 BKN055 M00/M02 A2988 RMK SC6SC1SC1 SLP117=

CYVR;2005-01-12 01:38;SPECI CYVR 120138Z 08013KT 8SM BKN022 BKN050 BKN078 RMK SC5SC1AC2=

CYVR;2005-01-12 04:00;METAR CYVR 120400Z 07005KT 7SM BKN016 OVC035 01/00 A2982 RMK SC6SC2 SLP099=

CYVR;2005-01-12 07:00;METAR CYVR 120700Z 04006KT 10SM FEW012 FEW035 BKN075 01/00 A2980 RMK SF1SC1AC0 SLP091=

CYVR;2005-01-12 11:00;METAR CYVR 121100Z 22003KT 10SM BKN075 M00/M00 A2985 RMK AC2 SLP110=

CYVR;2005-01-12 12:00;METAR CYVR 121200Z 26014KT 8SM BKN080 03/03 A2987 RMK AC2 SLP116=

CYVR;2005-01-12 13:00;METAR CYVR 121300Z 27020KT 8SM FEW012 BKN080 04/02 A2989 RMK SF1AC2 SLP122=

CYVR;2005-01-12 15:00;METAR CYVR 121500Z 29022G30KT 15SM BKN040 BKN075 03/M01 A2993 RMK SC5AC2 SLP136=

CYVR;2005-01-12 16:00;METAR CYVR 121600Z 28022G28KT 20SM BKN040 BKN071 03/M01 A2996 RMK SC5AC2 SLP144=

CYVR;2005-01-12 17:00;METAR CYVR 121700Z 28023G28KT 20SM BKN044 BKN070 03/M02 A2998 RMK SC6AC1 SLP154=

CYVR;2005-01-12 18:00;METAR CYVR 121800Z 28025KT 20SM SCT044 BKN068 03/M03 A3002 RMK SC4AC2 SLP166=

CYVR;2005-01-12 19:00;METAR CYVR 121900Z 29026KT 20SM SCT045 BKN210 03/M04 A3005 RMK SC4CC2 SLP176=

CYVR;2005-01-12 20:00;METAR CYVR 122000Z 29026G31KT 20SM BKN053 03/M05 A3006 RMK SC6 SLP178=

CYVR;2005-01-12 21:00;METAR CYVR 122100Z 29022G27KT 20SM SCT051 03/M03 A3005 RMK SC4 SLP177=

CYVR;2005-01-12 22:00;METAR CYVR 122200Z 28025KT 20SM SCT050 03/M04 A3005 RMK SC3 SLP177=

CYVR;2005-01-12 23:00;METAR CYVR 122300Z 28023G29KT 20SM FEW045 SCT210 03/M04 A3006 RMK SC2CC1 SLP181=

CYVR;2005-01-13 00:00;METAR CYVR 130000Z 28022G27KT 20SM SCT050 BKN200 03/M04 A3009 RMK SC4CC1 SLP191=

CYVR;2005-01-13 01:00;METAR CYVR 130100Z 29022KT 20SM SCT042 BKN200 02/M04 A3011 RMK SC4CI1 SLP197=

CYVR;2005-01-13 04:00;METAR CYVR 130400Z 29019KT 20SM BKN057 02/M05 A3018 RMK SC6 SLP219=

CYVR;2005-01-13 06:00;METAR CYVR 130600Z 28015KT 20SM BKN052 03/M06 A3020 RMK SC5 SLP228=

CYVR;2005-01-13 07:00;METAR CYVR 130700Z 28015KT 20SM BKN052 02/M05 A3022 RMK SC6 SLP234=

CYVR;2005-01-13 10:00;METAR CYVR 131000Z 29014KT 20SM BKN045 01/M06 A3027 RMK SC5 SLP250=

CYVR;2005-01-13 11:00;METAR CYVR 131100Z 29014KT 20SM BKN047 00/M06 A3029 RMK SC4 SLP256=

CYVR;2005-01-13 12:00;METAR CYVR 131200Z 29014KT 20SM BKN045 00/M06 A3031 RMK SC4 SLP264=

CYVR;2005-01-13 13:00;METAR CYVR 131300Z 28016KT 20SM SCT045 00/M06 A3032 RMK SC2 SLP269=

CYVR;2005-01-13 15:00;METAR CYVR 131500Z 33006KT 20SM BKN039 M01/M06 A3035 RMK SC5 SLP276=

CYVR;2005-01-13 16:00;METAR CYVR 131600Z 36007KT 30SM SCT043 M04/M07 A3036 RMK SC3 SLP282=

CYVR;2005-01-13 18:00;METAR CYVR 131800Z 10005KT 30SM BKN050 M02/M06 A3040 RMK SC5 SLP296=

CYVR;2005-01-13 19:00;METAR CYVR 131900Z 09002KT 30SM BKN047 M00/M06 A3041 RMK SC5 SLP298=

CYVR;2005-01-13 20:00;METAR CYVR 132000Z 00000KT 30SM BKN042 M00/M05 A3040 RMK SC5 SLP294=

CYVR;2005-01-13 21:00;METAR CYVR 132100Z 29005KT 30SM BKN043 00/M06 A3039 RMK SC5 SLP292=

CYVR;2005-01-13 22:00;METAR CYVR 132200Z 30005KT 30SM BKN040 00/M06 A3039 RMK SC5 SLP291=

CYVR;2005-01-14 00:00;METAR CYVR 140000Z 30004KT 30SM BKN042 M02/M07 A3041 RMK SC5 SLP299=

CYVR;2005-01-14 01:00;METAR CYVR 140100Z 11003KT 30SM SCT040 M02/M07 A3043 RMK SC3 SLP304=

CYVR;2005-01-14 02:00;METAR CYVR 140200Z 09006KT 30SM SCT040 M04/M07 A3043 RMK SC2 SLP305=

CYVR;2005-01-14 04:00;METAR CYVR 140400Z 11005KT 20SM SKC M04/M08 A3045 RMK SLP313=

CYVR;2005-01-14 05:00;METAR CYVR 140500Z 11004KT 20SM SKC M04/M08 A3046 RMK SLP315=

CYVR;2005-01-14 06:00;METAR CYVR 140600Z 09004KT 20SM SKC M04/M09 A3047 RMK SLP319=

CYVR;2005-01-14 08:00;METAR CYVR 140800Z 09006KT 20SM SKC M08/M11 A3050 RMK SLP327=

CYVR;2005-01-14 12:00;METAR CYVR 141200Z 09005KT 20SM SKC M08/M11 A3053 RMK SLP339=

CYVR;2005-01-14 13:00;METAR CYVR 141300Z 10006KT 20SM SKC M08/M11 A3053 RMK SLP339=

CYVR;2005-01-14 14:00;METAR CYVR 141400Z 09006KT 20SM SKC M09/M12 A3053 RMK SLP338=

CYVR;2005-01-14 15:00;METAR CYVR 141500Z 09004KT 20SM FEW220 M09/M13 A3053 RMK CI1 SLP339=

CYVR;2005-01-14 16:00;METAR CYVR 141600Z 08004KT 20SM FEW220 M08/M11 A3053 RMK CI1 SLP339=

CYVR;2005-01-14 17:00;METAR CYVR 141700Z 10005KT 20SM FEW220 M08/M11 A3054 RMK CI1 SLP344=

CYVR;2005-01-14 18:00;METAR CYVR 141800Z 11002KT 20SM SCT220 M05/M10 A3055 RMK CI1 SLP345=

CYVR;2005-01-14 20:00;METAR CYVR 142000Z 15003KT 20SM SCT220 M01/M08 A3054 RMK CI1 SLP343=

CYVR;2005-01-14 21:00;METAR CYVR 142100Z 22004KT 20SM BKN220 M02/M07 A3051 RMK CI2 SLP334=

CYVR;2005-01-14 22:00;METAR CYVR 142200Z 31002KT 20SM BKN220 M02/M07 A3049 RMK CI2 SLP325=

CYVR;2005-01-15 00:00;METAR CYVR 150000Z 28003KT 20SM FEW220 M01/M08 A3048 RMK CI1 SLP323=

CYVR;2005-01-15 04:00;METAR CYVR 150400Z 11006KT 20SM SKC M05/M08 A3050 RMK SLP328=

CYVR;2005-01-15 05:00;METAR CYVR 150500Z 10007KT 20SM SKC M06/M13 A3050 RMK SLP330=

CYVR;2005-01-15 07:00;METAR CYVR 150700Z 00000KT 20SM SKC M05/M13 A3052 RMK SLP335=

CYVR;2005-01-15 11:00;METAR CYVR 151100Z 09006KT 20SM SKC M08/M13 A3050 RMK SLP330=

CYVR;2005-01-15 12:00;METAR CYVR 151200Z 09008KT 20SM SKC M09/M14 A3049 RMK SLP326=

CYVR;2005-01-15 13:00;METAR CYVR 151300Z 10008KT 20SM SKC M09/M13 A3048 RMK SLP323=

CYVR;2005-01-15 14:00;METAR CYVR 151400Z 10008KT 20SM SKC M08/M13 A3047 RMK SLP319=

CYVR;2005-01-15 16:00;METAR CYVR 151600Z 10008KT 30SM SCT240 M08/M13 A3045 RMK CS2 SLP311=

CYVR;2005-01-15 17:00;METAR CYVR 151700Z 09007KT 30SM BKN240 M08/M13 A3045 RMK CS2 SLP313=

CYVR;2005-01-15 18:00;METAR CYVR 151800Z 10008KT 30SM FEW140 OVC200 M06/M11 A3045 RMK AS2CS2 SLP312=

CYVR;2005-01-15 19:00;METAR CYVR 151900Z 11005KT 30SM FEW140 OVC220 M05/M10 A3045 RMK AS2CS4 SLP311=

CYVR;2005-01-15 20:00;METAR CYVR 152000Z 10005KT 30SM BKN160 OVC220 M04/M09 A3042 RMK AS6CS2 SLP302=

CYVR;2005-01-15 22:00;METAR CYVR 152200Z 00000KT 30SM OVC100 M02/M08 A3037 RMK AS8 SLP284=

CYVR;2005-01-15 23:00;METAR CYVR 152300Z 00000KT 30SM BKN053 OVC085 M02/M07 A3036 RMK SC5AS3 SLP281=

CYVR;2005-01-16 00:00;METAR CYVR 160000Z 09004KT 15SM OVC049 M01/M07 A3037 RMK SC8 SLP283=

CYVR;2005-01-16 01:14;SPECI CYVR 160114Z 08004KT 5SM -SN FEW015 OVC034 RMK SC2SC6=

CYVR;2005-01-16 01:31;SPECI CYVR 160131Z 07004KT 2SM -SN OVC032 RMK SN2SC6=

CYVR;2005-01-16 01:48;SPECI CYVR 160148Z 10003KT 1 1/4SM -SN VV004 RMK SN8=

CYVR;2005-01-16 02:36;SPECI CYVR 160236Z 09003KT 3/4SM -SN VV004 RMK SN8=

CYVR;2005-01-16 02:51;SPECI CYVR 160251Z 09006KT 1SM -SN VV004 RMK SN8=

CYVR;2005-01-16 03:14;SPECI CYVR 160314Z 08006KT 1 1/2SM -SN VV004 RMK SN8=

CYVR;2005-01-16 03:22;SPECI CYVR 160322Z 07008KT 2 1/4SM -SN BKN012 OVC030 RMK SN4SC2SC2=

CYVR;2005-01-16 03:40;SPECI CYVR 160340Z 07006KT 1 1/4SM -SN VV006 RMK SN8=

CYVR;2005-01-16 03:43;SPECI CYVR 160343Z 07005KT 1 1/4SM -SN OVC011 RMK SN6SC2=

CYVR;2005-01-16 03:51;SPECI CYVR 160351Z 09005KT 3/4SM -SN OVC010 RMK SN6SC2=

CYVR;2005-01-16 03:54;SPECI CYVR 160354Z 10004KT 3/4SM -SN VV007 RMK SN8=

CYVR;2005-01-16 04:00;METAR CYVR 160400Z 10005KT 3/4SM -SN OVC011 M03/M03 A3031 RMK SN6SC2 /S02/ SLP264=

CYVR;2005-01-16 04:08;SPECI CYVR 160408Z 09005KT 1SM -SN OVC009 RMK SN6SC2=

CYVR;2005-01-16 04:20;SPECI CYVR 160420Z 12005KT 3/4SM -SN OVC010 RMK SN6SC2=

CYVR;2005-01-16 04:23;SPECI CYVR 160423Z 11005KT 1SM -SN OVC013 RMK SN6SC2=

CYVR;2005-01-16 04:50;SPECI CYVR 160450Z 11006KT 1 1/2SM -SN BKN013 OVC024 RMK SN4SC2SC2=

CYVR;2005-01-16 05:00;METAR CYVR 160500Z 10006KT 2 1/4SM -SN BKN020 OVC032 M03/M03 A3029 RMK SN4SC2SC2 /S03/ SLP256=

CYVR;2005-01-16 05:12;SPECI CYVR 160512Z 09008KT 2 1/2SM -SN BKN022 OVC037 RMK SN2SC4SC2=

CYVR;2005-01-16 05:21;SPECI CYVR 160521Z 10009KT 2 1/2SM -FZRA BKN024 OVC037 RMK SC6SC2=

CYVR;2005-01-16 05:42;SPECI CYVR 160542Z 09010KT 3SM -FZRA SCT024 OVC037 RMK SC4SC4=

CYVR;2005-01-16 06:00;METAR CYVR 160600Z 09008KT 3SM -FZRA FEW018 BKN025 OVC037 M01/M02 A3027 RMK SC2SC3SC2 SLP251=

CYVR;2005-01-16 06:23;SPECI CYVR 160623Z 07007KT 2 1/2SM -FZDZ FEW015 OVC025 RMK SF2ST6=

CYVR;2005-01-16 07:00;METAR CYVR 160700Z 01003KT 2 1/2SM -FZDZ FEW018 OVC027 M00/M01 A3026 RMK SF2ST6 SLP246=

CYVR;2005-01-16 07:07;SPECI CYVR 160707Z 02003KT 2 1/2SM -FZRA FEW009 BKN021 OVC032 RMK SF2SC4SC2=

CYVR;2005-01-16 07:56;SPECI CYVR 160756Z 08006KT 2 1/2SM -RA FEW015 OVC025 RMK SF2SC6=

CYVR;2005-01-16 08:53;SPECI CYVR 160853Z 11007KT 2 1/2SM -RA BKN007 OVC026 RMK SC5SC3=

CYVR;2005-01-16 09:22;SPECI CYVR 160922Z 09008KT 2 1/2SM -RA SCT007 OVC027 RMK SC4SC4=

CYVR;2005-01-16 11:00;METAR CYVR 161100Z 10009KT 2 1/2SM -RA FEW015 OVC024 01/01 A3023 RMK SF2SC6 SLP238=

CYVR;2005-01-16 12:00;METAR CYVR 161200Z 09008KT 2 1/2SM -RA OVC024 01/01 A3024 RMK SC8 SLP240=

CYVR;2005-01-16 12:09;SPECI CYVR 161209Z 08007KT 3SM -RA OVC019 RMK SC8=

CYVR;2005-01-16 12:21;SPECI CYVR 161221Z 09008KT 2 1/2SM -RA OVC019 RMK SC8=

CYVR;2005-01-16 13:00;METAR CYVR 161300Z 08008KT 2 1/2SM -RA OVC017 02/02 A3024 RMK SC8 SLP240=

CYVR;2005-01-16 13:13;SPECI CYVR 161313Z 07009KT 2 1/2SM -RA OVC015 RMK SC8=

CYVR;2005-01-16 13:26;SPECI CYVR 161326Z 11004KT 2 1/2SM -RA BKN004 OVC014 RMK SC5SC3=

CYVR;2005-01-16 13:38;SPECI CYVR 161338Z 08007KT 2 1/2SM -RA SCT004 OVC015 RMK SC3SC5=

CYVR;2005-01-16 14:00;METAR CYVR 161400Z 09005KT 2 1/2SM -RA FEW008 OVC016 01/01 A3027 RMK SF2SC6 SLP249=

CYVR;2005-01-16 14:34;SPECI CYVR 161434Z 09006KT 1 1/2SM -RA BR FEW004 OVC011 RMK SF2SC6=

CYVR;2005-01-16 16:00;METAR CYVR 161600Z 07008KT 1 1/2SM -RA BR SCT004 OVC010 02/02 A3029 RMK SF3SC5 SLP257=

CYVR;2005-01-16 16:47;SPECI CYVR 161647Z 07007KT 3SM BR OVC011 RMK SC8=

CYVR;2005-01-16 17:00;METAR CYVR 161700Z 08006KT 4SM BR OVC010 02/02 A3031 RMK SC8 SLP265=

CYVR;2005-01-16 18:00;METAR CYVR 161800Z 10005KT 4SM BR OVC011 02/02 A3033 RMK SC8 SLP270=

CYVR;2005-01-16 19:00;METAR CYVR 161900Z 11007KT 10SM OVC012 02/02 A3034 RMK SC8 SLP275=

CYVR;2005-01-16 20:00;METAR CYVR 162000Z 10006KT 8SM FEW006 OVC011 02/02 A3033 RMK SF2SC6 SLP272=

CYVR;2005-01-16 20:29;SPECI CYVR 162029Z 10005KT 2SM -DZ BR FEW005 OVC011 RMK SF2SC6=

CYVR;2005-01-16 21:00;METAR CYVR 162100Z 09004KT 1 1/2SM -DZ BR SCT005 OVC011 03/03 A3034 RMK SF2SC6 SLP275=

CYVR;2005-01-16 22:00;METAR CYVR 162200Z 10005KT 2 1/2SM -DZ BR SCT005 OVC011 03/03 A3033 RMK SF2SC6 SLP272=

CYVR;2005-01-17 00:00;METAR CYVR 170000Z 10007KT 2 1/2SM -DZ BR FEW005 OVC011 02/02 A3033 RMK SF2ST6 SLP271=

CYVR;2005-01-17 00:10;SPECI CYVR 170010Z 09007KT 2 1/2SM -RA BR FEW005 OVC010 RMK SF2SC6=

CYVR;2005-01-17 01:00;METAR CYVR 170100Z 11004KT 2SM -RA FEW005 OVC011 02/02 A3033 RMK SF2SC6 PCPN VRY LGT SLP271=

CYVR;2005-01-17 01:54;SPECI CYVR 170154Z 09006KT 4SM BR OVC010 RMK SC8=

CYVR;2005-01-17 03:00;METAR CYVR 170300Z 11005KT 6SM BR OVC010 03/03 A3031 RMK SC8 SLP265=

CYVR;2005-01-17 04:00;METAR CYVR 170400Z 10005KT 3SM BR SCT006 OVC015 03/03 A3030 RMK SF3SC5 SLP262=

CYVR;2005-01-17 04:09;SPECI CYVR 170409Z 10009KT 1SM -DZ BR BKN006 OVC013 RMK SF6SC2=

CYVR;2005-01-17 04:46;SPECI CYVR 170446Z 08007KT 4SM -DZ BR FEW006 BKN013 OVC023 RMK SF2SF3SC2=

CYVR;2005-01-17 05:00;METAR CYVR 170500Z 10006KT 8SM FEW006 SCT013 OVC021 03/03 A3027 RMK SF2SF2SC4 SLP250=

CYVR;2005-01-17 06:51;SPECI CYVR 170651Z 08008KT 10SM -RA FEW008 OVC017 RMK SF2SC6=

CYVR;2005-01-17 09:00;METAR CYVR 170900Z 10007KT 4SM -RA BR FEW012 OVC023 03/03 A3017 RMK SF2SC6 SLP215=

CYVR;2005-01-17 10:00;METAR CYVR 171000Z 09008KT 4SM -RA BR FEW014 OVC023 04/04 A3012 RMK SC2SC6 SLP201=

CYVR;2005-01-17 12:00;METAR CYVR 171200Z 08012KT 5SM -RA BR OVC028 05/05 A3005 RMK SC8 SLP177=

CYVR;2005-01-17 14:00;METAR CYVR 171400Z 10011KT 4SM -RA FEW008 OVC017 06/06 A3000 RMK SF2SC6 SLP159=

CYVR;2005-01-17 14:15;SPECI CYVR 171415Z 10011KT 3SM RA BR FEW007 OVC017 RMK SF2SC6=

CYVR;2005-01-17 16:30;SPECI CYVR 171630Z 09015KT 3SM -RA BR OVC012 RMK SC8=

CYVR;2005-01-17 17:00;METAR CYVR 171700Z 09013KT 2SM -RA BR OVC010 08/08 A2997 RERA RMK SC8 SLP149=

CYVR;2005-01-17 17:21;SPECI CYVR 171721Z 11013KT 1 1/2SM -RA BR SCT004 OVC009 RMK SF3SC5=

CYVR;2005-01-17 20:00;METAR CYVR 172000Z 10016G22KT 2 1/2SM RA BR SCT004 OVC008 08/08 A2991 RMK SF4SC4 SLP128=

CYVR;2005-01-17 21:00;METAR CYVR 172100Z 10014KT 2SM RA BR SCT004 OVC008 09/09 A2989 RMK SF3SC5 /R10/ SLP121=

CYVR;2005-01-17 23:00;METAR CYVR 172300Z 12016KT 2SM -RA BR FEW004 BKN008 OVC028 09/09 A2982 RMK SF2SC5SC2 SLP097=

CYVR;2005-01-18 00:00;METAR CYVR 180000Z 13013G18KT 2SM -RA BR FEW004 BKN007 OVC024 09/09 A2982 RMK SF2SC5SC2 SLP097=

CYVR;2005-01-18 00:51;SPECI CYVR 180051Z 13014G19KT 4SM -RA BR FEW004 BKN009 OVC024 RMK SF2SC3SC3=

CYVR;2005-01-18 01:45;SPECI CYVR 180145Z 11013KT 5SM -RA BR BKN005 OVC024 RMK SF5SC3=

CYVR;2005-01-18 02:29;SPECI CYVR 180229Z 12011KT 8SM FEW004 SCT022 OVC042 RMK SF2SC2SC5=

CYVR;2005-01-18 02:51;SPECI CYVR 180251Z 11008KT 6SM -RA SCT004 BKN022 OVC042 RMK SF3SC2SC3=

CYVR;2005-01-18 04:00;METAR CYVR 180400Z 07003KT 6SM -RA FEW005 SCT024 BKN041 OVC060 09/09 A2986 RMK SF2SC2SC3SC1 SLP111=

CYVR;2005-01-18 04:19;SPECI CYVR 180419Z 10004KT 6SM -RA BKN005 BKN025 OVC040 RMK SF5SC2SC2=

CYVR;2005-01-18 06:00;METAR CYVR 180600Z 07008KT 3SM -RA BR FEW004 BKN006 BKN014 OVC050 09/09 A2993 RMK SF2SF4SC1SC2 SLP134=

CYVR;2005-01-18 06:42;SPECI CYVR 180642Z 07007KT 4SM -RA BR FEW003 SCT007 BKN017 OVC042 RMK SF2SF2SC2SC2=

CYVR;2005-01-18 07:00;METAR CYVR 180700Z 08007KT 4SM -RA BR FEW006 SCT020 BKN040 OVC050 09/09 A2995 RMK SF2SC2SC2SC2 PCPN VRY LGT SLP142=

CYVR;2005-01-18 07:29;SPECI CYVR 180729Z 07007KT 4SM -RA BR BKN006 BKN018 OVC045 RMK SF5SC1SC2=

CYVR;2005-01-18 08:00;METAR CYVR 180800Z 07007KT 4SM -RA BR FEW004 BKN006 BKN015 OVC040 09/09 A2999 RMK SF2SF4SC1SC2 SLP156=

CYVR;2005-01-18 08:24;SPECI CYVR 180824Z 07007KT 2 1/2SM -RA BR FEW003 BKN006 OVC017 RMK SF2SF5SC2=

CYVR;2005-01-18 10:07;SPECI CYVR 181007Z 08007KT 3SM BR FEW002 BKN006 BKN012 OVC065 RMK SF2SF3SC1SC2=

CYVR;2005-01-18 10:54;SPECI CYVR 181054Z 09009KT 4SM -RA BR FEW003 SCT007 BKN025 OVC069 RMK SF2SF2SC2AC2=

CYVR;2005-01-18 12:00;METAR CYVR 181200Z 10010KT 4SM -RA BR SCT004 BKN030 OVC070 10/10 A3004 RMK SF3SC3AC2 SLP171=

CYVR;2005-01-18 13:00;METAR CYVR 181300Z 09010KT 4SM -RA BR SCT005 BKN021 OVC040 10/10 A3002 RMK SF3SC2SC2 SLP167=

CYVR;2005-01-18 14:13;SPECI CYVR 181413Z 07006KT 3SM -RA BR FEW003 BKN006 BKN011 OVC017 RMK SF2SF3SC2SC2=

CYVR;2005-01-18 15:00;METAR CYVR 181500Z 09007KT 2SM RA BR SCT003 BKN006 OVC017 10/10 A3003 RMK SF3SC3SC2 SLP169=

CYVR;2005-01-18 16:17;SPECI CYVR 181617Z 07009KT 2 1/2SM RA BR FEW004 BKN012 OVC026 RMK SF2SF5SC2=

CYVR;2005-01-18 16:40;SPECI CYVR 181640Z 07007KT 1 1/2SM RA BR FEW003 BKN008 OVC017 RMK SF2SC4SC2=

CYVR;2005-01-18 17:00;METAR CYVR 181700Z 10011KT 1 1/2SM +RA FEW004 BKN009 OVC022 10/10 A3004 RMK SF2SC2SC3 SLP174=

CYVR;2005-01-18 18:00;METAR CYVR 181800Z 08011KT 2 1/2SM -RA BR SCT004 BKN008 OVC060 10/10 A3004 RERA RMK SF2SC4SC2 /R22/ SLP174=

CYVR;2005-01-18 18:16;SPECI CYVR 181816Z 09012KT 4SM -RA BR FEW004 BKN008 OVC060 RMK SF2SC4SC2=

CYVR;2005-01-18 18:54;SPECI CYVR 181854Z 09012KT 4SM BR OVC007 RMK SC8=

CYVR;2005-01-18 19:00;METAR CYVR 181900Z 09012KT 4SM BR OVC006 10/10 A3006 RMK SC8 SLP181=

CYVR;2005-01-18 19:25;SPECI CYVR 181925Z 10011KT 3SM -RA BR OVC006 RMK SC8=

CYVR;2005-01-18 20:41;SPECI CYVR 182041Z 11010KT 2 1/2SM +RA BR FEW003 BKN008 OVC040 RMK SF2SC4SC2=

CYVR;2005-01-18 21:00;METAR CYVR 182100Z 11007KT 3SM RA BR FEW003 BKN008 OVC022 11/11 A3004 RERA RMK SF2SC3SC2 SLP172=

CYVR;2005-01-18 21:16;SPECI CYVR 182116Z 11010KT 3SM -RA BR FEW004 SCT008 OVC024 RMK SF2SC2SC5=

CYVR;2005-01-18 22:00;METAR CYVR 182200Z 09005KT 3SM -RA BR FEW004 SCT008 OVC023 11/10 A3002 RERA RMK SF2SC2SC5 SLP165=

CYVR;2005-01-18 23:00;METAR CYVR 182300Z 07007KT 4SM -RA BR FEW004 FEW008 OVC024 11/11 A3000 RMK SF2SC1SC6 SLP160=

CYVR;2005-01-19 00:00;METAR CYVR 190000Z 08004KT 5SM -RA BR FEW005 BKN028 OVC045 11/11 A3001 RMK SF2SC3SC3 SLP163=

CYVR;2005-01-19 01:00;METAR CYVR 190100Z 13010KT 8SM -RA FEW005 BKN026 OVC045 11/11 A3002 RMK SF1SC6SC2 SLP167=

CYVR;2005-01-19 02:00;METAR CYVR 190200Z 12012KT 6SM -RA FEW005 OVC028 11/11 A3003 RMK SF1SC7 SLP169=

CYVR;2005-01-19 04:00;METAR CYVR 190400Z 10010KT 4SM -RA BR FEW006 BKN021 OVC048 11/11 A3004 RMK SF1SC6SC1 SLP173=

CYVR;2005-01-19 05:00;METAR CYVR 190500Z 11009KT 3SM +RA BR FEW007 OVC026 11/11 A3004 RMK SF2SC6 /R10/ SLP173=

CYVR;2005-01-19 06:00;METAR CYVR 190600Z 07006KT 3SM RA BR FEW007 OVC023 11/11 A3004 RMK SF2SC6 SLP174=

CYVR;2005-01-19 07:37;SPECI CYVR 190737Z 07005KT 2 1/2SM +RA BR FEW007 BKN014 OVC029 RMK SF1SC6SC2=

CYVR;2005-01-19 10:00;METAR CYVR 191000Z 09009KT 2SM -RA BR FEW005 SCT015 BKN021 OVC040 11/11 A3003 RERA RMK SF2SC2SC3SC1 SLP168=

CYVR;2005-01-19 10:39;SPECI CYVR 191039Z 10012KT 4SM BR FEW006 BKN022 OVC043 RMK SF1SC4SC3=

CYVR;2005-01-19 10:52;SPECI CYVR 191052Z 10012KT 4SM -RA BR FEW006 SCT023 BKN030 OVC044 RMK SF1SC2SC2SC2=

CYVR;2005-01-19 11:00;METAR CYVR 191100Z 09011KT 4SM -RA BR FEW006 SCT023 BKN030 OVC044 11/11 A3002 RMK SF1SC2SC2SC2 SLP166=

CYVR;2005-01-19 12:00;METAR CYVR 191200Z 11012KT 6SM -RA FEW006 BKN046 OVC090 11/11 A3001 RMK SF1SC4AC3 PCPN VRY LGT SLP161=

CYVR;2005-01-19 12:08;SPECI CYVR 191208Z 11013KT 8SM FEW006 BKN049 BKN090 OVC110 RMK SF1SC4AC2AC2=

CYVR;2005-01-19 13:00;METAR CYVR 191300Z 10010G15KT 10SM FEW006 SCT050 OVC086 11/10 A3001 RMK SF1SC3AC4 SLP164=

CYVR;2005-01-19 13:25;SPECI CYVR 191325Z 08012KT 10SM -RA FEW006 SCT050 OVC079 RMK SF1SC3AC4=

CYVR;2005-01-19 14:00;METAR CYVR 191400Z 10010KT 10SM FEW006 SCT055 OVC100 12/11 A3000 RMK SF1SC2AC5 SLP160=

CYVR;2005-01-19 15:00;METAR CYVR 191500Z 09010KT 10SM FEW006 FEW045 OVC090 12/11 A2999 RMK SF1SC2AC6 SLP157=

CYVR;2005-01-19 16:00;METAR CYVR 191600Z 09013KT 12SM FEW007 OVC110 12/11 A2998 RMK SF2AC6 SLP153=

CYVR;2005-01-19 17:13;SPECI CYVR 191713Z 11012KT 10SM -RA FEW012 BKN055 OVC100 RMK SC1SC4AC3=

CYVR;2005-01-19 17:52;SPECI CYVR 191752Z 09012KT 8SM BKN050 OVC100 RMK SC6AC2=

CYVR;2005-01-19 18:00;METAR CYVR 191800Z 09011G17KT 12SM FEW012 BKN050 OVC100 13/11 A2996 RMK SF1SC6AC2 VIS NW-NE 6 SLP146=

CYVR;2005-01-19 19:00;METAR CYVR 191900Z 14009G22KT 10SM FEW012 SCT050 OVC120 14/11 A2998 RMK SC1SC2AC5 SLP151=

CYVR;2005-01-19 22:00;METAR CYVR 192200Z 13005KT 20SM -SHRA OVC050 14/10 A2994 RMK SC8 VIS NW-NE 5 -RA INTMT SLP140=

CYVR;2005-01-19 22:49;SPECI CYVR 192249Z 16005KT 2 1/2SM RA BR FEW006 OVC038 RMK SF1SC7=

CYVR;2005-01-19 23:56;SPECI CYVR 192356Z 08010KT 15SM FEW006 BKN035 OVC080 RMK SF1SC6AS2=

CYVR;2005-01-20 00:00;METAR CYVR 200000Z 08010KT 15SM FEW006 BKN035 OVC080 12/11 A3001 RMK SF1SC6AS2 SLP161=

CYVR;2005-01-20 01:48;SPECI CYVR 200148Z 09009KT 8SM -RA FEW008 SCT040 OVC080 RMK SF1SC2AS5=

CYVR;2005-01-20 04:00;METAR CYVR 200400Z 10011KT 8SM -RA FEW025 SCT065 OVC089 11/10 A3002 RMK SC2SC2AS4 SLP166=

CYVR;2005-01-20 05:00;METAR CYVR 200500Z 10011KT 8SM -RA SCT011 BKN055 OVC073 11/11 A3002 RMK SC3SC3AS2 SLP167=

CYVR;2005-01-20 06:29;SPECI CYVR 200629Z 09009KT 3SM -RA BR BKN005 OVC032 RMK SC5SC3=

CYVR;2005-01-20 07:00;METAR CYVR 200700Z 09008KT 3SM -RA BR BKN006 BKN032 OVC074 11/11 A3004 RMK SC5SC2AS1 SLP171=

CYVR;2005-01-20 07:37;SPECI CYVR 200737Z 09010KT 3SM -RA BR SCT006 BKN053 OVC085 RMK SC3SC3AS2=

CYVR;2005-01-20 09:00;METAR CYVR 200900Z 09011KT 8SM -RA FEW006 SCT028 OVC058 11/11 A2999 RMK CF2SC2SC5 SLP157=

CYVR;2005-01-20 10:00;METAR CYVR 201000Z 09010KT 3SM -RA BR FEW005 BKN034 OVC082 10/10 A2998 RMK CF2SC3AS3 SLP151=

CYVR;2005-01-20 11:40;SPECI CYVR 201140Z 07012KT 8SM BKN029 BKN064 OVC091 RMK SC5SC2AS2=

CYVR;2005-01-20 12:00;METAR CYVR 201200Z 09008KT 10SM BKN037 BKN053 OVC087 10/10 A2996 RMK SC5SC2AS2 SLP146=

CYVR;2005-01-20 13:00;METAR CYVR 201300Z 07006KT 10SM FEW034 BKN063 OVC090 10/10 A2993 RMK SC2SC3AS2 SLP136=

CYVR;2005-01-20 13:23;SPECI CYVR 201323Z 08010KT 10SM -RA FEW031 BKN061 OVC090 RMK SC2SC6AS1=

CYVR;2005-01-20 15:00;METAR CYVR 201500Z 09008KT 15SM FEW030 BKN060 OVC072 10/10 A2990 RMK SC1SC5AC2 SLP125=

CYVR;2005-01-20 15:46;SPECI CYVR 201546Z 09008KT 10SM -RA FEW030 SCT065 OVC078 RMK SC1SC3AC4=

CYVR;2005-01-20 16:00;METAR CYVR 201600Z 08006KT 10SM -RA FEW030 BKN061 OVC072 10/09 A2990 RMK SC1SC6AC2 VIS LWR NW QUAD 5 SM SLP124=

CYVR;2005-01-20 16:07;SPECI CYVR 201607Z 09007KT 6SM -RA BR BKN061 OVC072 RMK SC6AC2 VIS LWR NW QUAD 5 SM=

CYVR;2005-01-20 18:00;METAR CYVR 201800Z 09013KT 5SM -RA BR BKN061 OVC080 10/10 A2989 RMK SC6AC2 SLP123=

CYVR;2005-01-20 19:00;METAR CYVR 201900Z 08011KT 5SM -RA BR SCT040 BKN050 OVC062 11/10 A2990 RMK SC3SC2SC2 SLP124=

CYVR;2005-01-20 19:16;SPECI CYVR 201916Z 09007KT 3SM -RA BR SCT015 OVC035 RMK SC4SC4=

CYVR;2005-01-20 19:18;SPECI CYVR 201918Z 09007KT 2 1/2SM -RA BR SCT017 BKN035 OVC045 RMK SC3SC2SC2=

CYVR;2005-01-20 19:52;SPECI CYVR 201952Z 11012KT 1 1/4SM -RA BR SCT016 OVC037 RMK SC4SC4=

CYVR;2005-01-20 20:04;SPECI CYVR 202004Z 13011KT 1 1/2SM -RA BR SCT016 OVC034 RMK SC3SC5=

CYVR;2005-01-20 20:20;SPECI CYVR 202020Z 12011KT 3SM -RA BR SCT016 OVC034 RMK SC3SC5=

CYVR;2005-01-20 21:29;SPECI CYVR 202129Z 11006KT 7SM FEW008 BKN064 OVC080 RMK SF2SC6AC1=

CYVR;2005-01-20 21:44;SPECI CYVR 202144Z 11006KT 7SM BKN007 OVC064 RMK SC6SC2=

CYVR;2005-01-20 22:00;METAR CYVR 202200Z 13004KT 7SM SCT007 BKN067 OVC080 11/11 A2991 RMK SC3AC2AC2 SLP127=

CYVR;2005-01-21 00:00;METAR CYVR 210000Z 10006KT 12SM FEW007 BKN051 OVC070 11/10 A2993 RMK SF2SC4AC2 SLP136=

CYVR;2005-01-21 01:00;METAR CYVR 210100Z 09008KT 15SM FEW007 BKN051 OVC080 10/10 A2995 RMK SC2SC5AC1 SLP142=

CYVR;2005-01-21 04:00;METAR CYVR 210400Z 09008KT 15SM FEW015 OVC048 09/09 A3001 RMK SC2SC6 SLP163=

CYVR;2005-01-21 04:48;SPECI CYVR 210448Z 10007KT 15SM FEW004 OVC046 RMK ST2SC6 VIS N 4=

CYVR;2005-01-21 05:00;METAR CYVR 210500Z 11008KT 3SM BR SCT003 OVC041 10/10 A3002 RMK ST4SC4 SLP167=

CYVR;2005-01-21 06:34;SPECI CYVR 210634Z 08005KT 15SM BKN009 OVC045 RMK SC6SC2=

CYVR;2005-01-21 07:37;SPECI CYVR 210737Z 09004KT 12SM SCT009 BKN022 OVC035 RMK SC3SC3SC2=

CYVR;2005-01-21 08:00;METAR CYVR 210800Z 09006KT 8SM SCT009 BKN023 OVC035 11/10 A3005 RMK SC3SC3SC2 SLP177=

CYVR;2005-01-21 08:22;SPECI CYVR 210822Z 09007KT 2SM -DZ BR BKN010 OVC016 RMK ST6SC2=

CYVR;2005-01-21 08:50;SPECI CYVR 210850Z 08006KT 2SM -DZ BR FEW003 BKN011 OVC023 RMK ST2ST4SC2=

CYVR;2005-01-21 09:00;METAR CYVR 210900Z 07006KT 2SM -DZ BR SCT002 BKN011 OVC028 10/10 A3006 RMK SF3ST3SC2 SLP179=

CYVR;2005-01-21 09:46;SPECI CYVR 210946Z 07008KT 4SM BR FEW002 SCT010 OVC026 RMK SF2ST2SC4 VIS N 2=

CYVR;2005-01-21 11:48;SPECI CYVR 211148Z 09005KT 10SM BKN015 OVC028 RMK SC6SC2=

CYVR;2005-01-21 12:00;METAR CYVR 211200Z 09004KT 10SM BKN016 OVC027 10/10 A3006 RMK SC6SC2 SLP180=

CYVR;2005-01-21 13:00;METAR CYVR 211300Z 09005KT 12SM BKN019 OVC038 10/10 A3006 RMK SC6SC2 SLP180=

CYVR;2005-01-21 13:28;SPECI CYVR 211328Z 10006KT 12SM -DZ BKN017 OVC024 RMK ST6SC2=

CYVR;2005-01-21 14:00;METAR CYVR 211400Z 10006KT 2SM -DZ BR FEW009 BKN016 OVC028 10/10 A3006 RMK ST2ST5SC2 SLP180=

CYVR;2005-01-21 14:38;SPECI CYVR 211438Z 10004KT 6SM BR FEW011 BKN022 OVC040 RMK ST2SC5SC1=

CYVR;2005-01-21 15:00;METAR CYVR 211500Z 11006KT 12SM -DZ FEW011 BKN017 OVC025 10/10 A3005 RMK ST2ST5SC2 SLP177=

CYVR;2005-01-21 15:46;SPECI CYVR 211546Z 11006KT 6SM -DZ BR OVC016 RMK ST8=

CYVR;2005-01-21 15:47;SPECI CYVR 211547Z 11007KT 3SM -DZ BR BKN016 OVC025 RMK ST6ST2=

CYVR;2005-01-21 15:48;SPECI CYVR 211548Z 11007KT 2 1/2SM -DZ BR BKN016 OVC025 RMK ST6ST2=

CYVR;2005-01-21 16:00;METAR CYVR 211600Z 11008KT 2 1/4SM -DZ BR BKN016 OVC023 10/09 A3006 RMK ST6ST2 SLP178=

CYVR;2005-01-21 16:47;SPECI CYVR 211647Z 09004KT 3SM -DZ BR FEW015 BKN018 OVC022 RMK SF2ST4SC2=

CYVR;2005-01-21 17:00;METAR CYVR 211700Z 09003KT 4SM -DZ BR FEW015 BKN018 OVC022 10/10 A3006 RMK SF2ST4SC2 SLP180=

CYVR;2005-01-21 17:24;SPECI CYVR 211724Z 09005KT 7SM -DZ FEW015 OVC021 RMK SF2SC6=

CYVR;2005-01-21 18:21;SPECI CYVR 211821Z 09005KT 6SM -DZ BR BKN018 OVC025 RMK ST6SC2=

CYVR;2005-01-21 18:35;SPECI CYVR 211835Z 08004KT 7SM -DZ BKN018 OVC025 RMK ST5SC3=

CYVR;2005-01-21 18:46;SPECI CYVR 211846Z 06006KT 10SM BKN018 OVC025 RMK ST5SC3=

CYVR;2005-01-21 19:00;METAR CYVR 211900Z 08007KT 15SM SCT018 BKN025 OVC030 11/11 A3005 RMK ST3SC3SC2 SLP175=

CYVR;2005-01-21 20:00;METAR CYVR 212000Z 11007KT 15SM OVC028 12/11 A3004 RMK SC8 SLP173=

CYVR;2005-01-21 21:00;METAR CYVR 212100Z 09005KT 15SM OVC036 12/11 A3002 RMK SC8 SLP165=

CYVR;2005-01-21 22:00;METAR CYVR 212200Z 09007KT 15SM SCT036 BKN082 BKN220 13/11 A2999 RMK SC3AC3CI1 SLP155=

CYVR;2005-01-22 00:00;METAR CYVR 220000Z 00000KT 15SM FEW036 OVC085 09/08 A2997 RMK SC2AC5 SLP149=

CYVR;2005-01-22 04:00;METAR CYVR 220400Z 12006KT 15SM BKN082 OVC120 12/10 A2995 RMK AC5AC3 SLP142=

CYVR;2005-01-22 04:22;SPECI CYVR 220422Z 09007KT 12SM -RA BKN067 OVC091 RMK AC5AS3=

CYVR;2005-01-22 05:00;METAR CYVR 220500Z 11011KT 12SM -RA BKN070 OVC100 11/10 A2993 RMK AC5AS3 SLP134=

CYVR;2005-01-22 06:00;METAR CYVR 220600Z 10008KT 12SM -RA SCT067 OVC082 11/10 A2993 RMK AC3AC5 SLP136=

CYVR;2005-01-22 08:00;METAR CYVR 220800Z 11007KT 12SM -RA OVC075 11/10 A2991 RMK AC8 SLP130=

CYVR;2005-01-22 11:00;METAR CYVR 221100Z 07009KT 8SM -RA OVC037 12/11 A2993 RMK SC8 SLP137=

CYVR;2005-01-22 12:00;METAR CYVR 221200Z 08012KT 8SM -RA BKN029 OVC048 12/11 A2992 RMK SC6SC2 SLP132=

CYVR;2005-01-22 13:00;METAR CYVR 221300Z 08012KT 4SM -RA BR BKN021 OVC044 11/11 A2991 RMK SC6SC2 SLP128=

CYVR;2005-01-22 14:00;METAR CYVR 221400Z 08016KT 6SM -RA BR BKN035 OVC051 11/10 A2990 RMK SC6SC2 SLP126=

CYVR;2005-01-22 15:00;METAR CYVR 221500Z 08013G18KT 6SM -RA BR FEW035 OVC045 11/10 A2991 RMK SC2SC6 SLP127=

CYVR;2005-01-22 16:00;METAR CYVR 221600Z 08014KT 4SM -RA BR SCT035 OVC045 11/10 A2991 RMK SC3SC5 SLP130=

CYVR;2005-01-22 18:00;METAR CYVR 221800Z 09017KT 3SM -RA BR FEW025 BKN030 OVC049 11/10 A2994 RMK SF2SC5SC2 /R10/ SLP139=

CYVR;2005-01-22 18:11;SPECI CYVR 221811Z 09016G21KT 4SM -RA BR FEW025 BKN033 OVC050 RMK SC2SC4SC2=

CYVR;2005-01-22 19:20;SPECI CYVR 221920Z 08010KT 2 1/2SM -RA BR BKN033 OVC050 RMK SC5SC3=

CYVR;2005-01-22 19:53;SPECI CYVR 221953Z 08012KT 3SM -RA BR SCT017 BKN035 OVC045 RMK SC3SC3SC2=

CYVR;2005-01-22 20:45;SPECI CYVR 222045Z 08011KT 3SM -RA BR FEW020 BKN032 OVC040 RMK SC2SC4SC2=

CYVR;2005-01-22 20:46;SPECI CYVR 222046Z 08011KT 2 1/2SM -RA BR FEW020 BKN032 OVC040 RMK SC2SC4SC2=

CYVR;2005-01-22 21:00;METAR CYVR 222100Z 08013KT 2 1/2SM -RA BR FEW010 BKN015 OVC039 11/11 A2995 RMK SF2SC4SC2 SLP142=

CYVR;2005-01-22 22:00;METAR CYVR 222200Z 09011KT 1 1/2SM -RA BR SCT010 BKN016 OVC035 11/11 A2995 RMK SF3SC3SC2 SLP143=

CYVR;2005-01-22 22:35;SPECI CYVR 222235Z 09012KT 3SM -RA BR BKN017 BKN025 OVC040 RMK SC5SC2SC1=

CYVR;2005-01-22 23:00;METAR CYVR 222300Z 10013KT 3SM -RA BR BKN017 BKN031 OVC040 11/11 A2995 RMK SC5SC2SC1 SLP141=

CYVR;2005-01-22 23:28;SPECI CYVR 222328Z 10013KT 3SM -RA BR FEW017 SCT022 OVC034 RMK SC2SC2SC4=

CYVR;2005-01-22 23:41;SPECI CYVR 222341Z 10014G20KT 2 1/2SM -RA BR FEW011 BKN016 OVC022 RMK SF2SC5SC2=

CYVR;2005-01-23 00:00;METAR CYVR 230000Z 10013KT 3SM -RA BR SCT013 BKN017 OVC028 11/11 A2996 RMK SF3SC3SC2 /R10/ SLP144=

CYVR;2005-01-23 00:21;SPECI CYVR 230021Z 09012KT 2 1/2SM -RA BR FEW011 BKN017 OVC025 RMK SF2SC3SC2=

CYVR;2005-01-23 00:33;SPECI CYVR 230033Z 09013KT 3SM -RA BR SCT010 BKN017 OVC025 RMK SF4SC2SC2=

CYVR;2005-01-23 00:48;SPECI CYVR 230048Z 09012KT 2 1/2SM -RA BR SCT013 BKN017 OVC027 RMK SF3SC2SC2=

CYVR;2005-01-23 01:27;SPECI CYVR 230127Z 09009KT 3SM -RA BR FEW013 BKN018 OVC025 RMK SF2SC3SC2=

CYVR;2005-01-23 01:51;SPECI CYVR 230151Z 09010KT 3SM -RA BR BKN013 OVC020 RMK SC5SC3=

CYVR;2005-01-23 02:28;SPECI CYVR 230228Z 09011KT 3SM -RA BR FEW013 BKN045 OVC055 RMK SF2SC3SC2=

CYVR;2005-01-23 02:31;SPECI CYVR 230231Z 09010KT 7SM -RA FEW013 BKN045 OVC055 RMK SF2SC3SC2=

CYVR;2005-01-23 04:00;METAR CYVR 230400Z 06008KT 8SM -RA BKN031 BKN042 OVC060 11/11 A2997 RMK SC6SC2SC1 SLP150=

CYVR;2005-01-23 06:32;SPECI CYVR 230632Z 07006KT 10SM FEW013 BKN023 OVC045 RMK SC2SC3SC2=

CYVR;2005-01-23 07:26;SPECI CYVR 230726Z 07007KT 10SM -RA FEW017 BKN034 OVC060 RMK SC2SC5SC2=

CYVR;2005-01-23 07:47;SPECI CYVR 230747Z 07007KT 10SM FEW017 OVC031 RMK SC2SC6=

CYVR;2005-01-23 08:07;SPECI CYVR 230807Z 05007KT 12SM -RA FEW015 OVC030 RMK SC2SC6=

CYVR;2005-01-23 08:22;SPECI CYVR 230822Z 08008KT 12SM FEW015 BKN029 OVC049 RMK SC2SC4SC2=

CYVR;2005-01-23 09:00;METAR CYVR 230900Z 06010KT 12SM FEW029 BKN044 OVC100 12/11 A3001 RMK SC2SC3AS3 SLP161=

CYVR;2005-01-23 10:00;METAR CYVR 231000Z 07008KT 12SM SCT040 BKN095 OVC120 12/11 A3000 RMK SC3AC2AS2 SLP160=

CYVR;2005-01-23 11:00;METAR CYVR 231100Z 08009KT 15SM SCT050 BKN090 OVC120 12/11 A2999 RMK SC3AC2AS2 SLP156=

CYVR;2005-01-23 12:00;METAR CYVR 231200Z 09006KT 15SM BKN060 OVC110 12/10 A2998 RMK SC5AC3 SLP154=

CYVR;2005-01-23 13:00;METAR CYVR 231300Z 09002KT 15SM SCT062 OVC100 12/10 A3000 RMK SC3AC5 SLP158=

CYVR;2005-01-23 15:00;METAR CYVR 231500Z 07004KT 15SM -SHRA FEW060 OVC072 12/10 A3000 RMK SC2AC6 SLP158=

CYVR;2005-01-23 16:00;METAR CYVR 231600Z 04006KT 15SM -SHRA FEW040 BKN061 OVC072 12/10 A3001 RMK SC2SC4AC2 SLP161=

CYVR;2005-01-23 17:00;METAR CYVR 231700Z 06006KT 15SM -SHRA FEW042 SCT060 OVC080 12/10 A3001 RMK SF2SC2AC4 PCPN VRY LGT SLP163=

CYVR;2005-01-23 18:00;METAR CYVR 231800Z 07007KT 15SM -SHRA FEW040 BKN072 OVC090 12/10 A3002 RMK CF1AC5AC2 SLP165=

CYVR;2005-01-23 19:43;SPECI CYVR 231943Z 06008KT 15SM FEW080 BKN100 OVC120 RMK AC2AS4AS2=

CYVR;2005-01-23 22:00;METAR CYVR 232200Z 09007KT 30SM -SHRA FEW040 BKN065 OVC120 14/11 A2999 RMK CF1SC5AS2 SLP155=

CYVR;2005-01-23 23:00;METAR CYVR 232300Z 04005KT 30SM -SHRA BKN064 OVC120 14/11 A2999 RMK SC6AS2 PCPN VRY LGT SLP156=

CYVR;2005-01-24 01:23;SPECI CYVR 240123Z 07008KT 20SM BKN058 OVC090 RMK SC6AS2=

CYVR;2005-01-24 01:37;SPECI CYVR 240137Z 04008KT 20SM -SHRA BKN058 OVC090 RMK SC6AS2=

CYVR;2005-01-24 04:00;METAR CYVR 240400Z 08006KT 20SM SCT050 BKN100 OVC150 12/09 A2996 RMK SC3AC2AS2 SLP147=

CYVR;2005-01-24 07:00;METAR CYVR 240700Z 12005KT 20SM BKN100 OVC140 11/09 A2996 RMK AC6AS2 SLP145=

CYVR;2005-01-24 11:00;METAR CYVR 241100Z 10009KT 20SM BKN110 OVC150 10/09 A2996 RMK AC6AS2 SLP146=

CYVR;2005-01-24 12:00;METAR CYVR 241200Z 08004KT 20SM FEW050 BKN110 OVC220 10/09 A2997 RMK SC2AC4CS2 SLP150=

CYVR;2005-01-24 13:00;METAR CYVR 241300Z 09004KT 20SM FEW050 BKN110 OVC160 10/09 A2997 RMK SC2AC4AS2 SLP150=

CYVR;2005-01-24 14:00;METAR CYVR 241400Z 11011KT 20SM FEW050 BKN110 OVC160 10/09 A2997 RMK SC2AC4AS2 SLP150=

CYVR;2005-01-24 15:00;METAR CYVR 241500Z 06005KT 15SM BKN062 BKN110 BKN160 11/09 A2999 RMK SC5AC2AC1 SLP155=

CYVR;2005-01-24 16:00;METAR CYVR 241600Z 01002KT 15SM FEW045 BKN063 BKN120 BKN160 12/09 A3000 RMK SC1SC5AC1AC1 SLP160=

CYVR;2005-01-24 17:00;METAR CYVR 241700Z 00000KT 15SM FEW040 BKN055 OVC110 11/09 A3002 RMK SC1SC6AC1 SLP166=

CYVR;2005-01-24 18:00;METAR CYVR 241800Z 00000KT 15SM FEW035 BKN053 OVC100 10/09 A3004 RMK SC1SC6AC1 SLP171=

CYVR;2005-01-24 18:37;SPECI CYVR 241837Z 00000KT 15SM -RA BKN042 OVC055 RMK SC6SC2=

CYVR;2005-01-24 19:00;METAR CYVR 241900Z 00000KT 15SM SCT041 OVC057 11/09 A3004 RMK SC4SC4 SLP171=

CYVR;2005-01-24 23:00;METAR CYVR 242300Z 00000KT 15SM FEW055 BKN100 OVC180 11/09 A3001 RMK SC2AC3CS2 SLP162=

CYVR;2005-01-25 00:00;METAR CYVR 250000Z 29002KT 15SM FEW050 BKN093 OVC160 09/08 A3001 RMK SC2AC4AC2 SLP163=

CYVR;2005-01-25 02:00;METAR CYVR 250200Z 00000KT 12SM -SHRA FEW052 BKN080 OVC150 10/09 A3001 RMK SC2AC4AC2 SLP164=

CYVR;2005-01-25 03:00;METAR CYVR 250300Z 00000KT 15SM -SHRA FEW050 BKN080 OVC140 10/09 A3002 RMK SC2AC5AC2 SLP167=

CYVR;2005-01-25 03:21;SPECI CYVR 250321Z 24003KT 15SM FEW050 SCT080 OVC140 RMK SC2AC2AC5=

CYVR;2005-01-25 04:00;METAR CYVR 250400Z 32003KT 15SM FEW050 SCT080 OVC130 09/08 A3003 RMK SC1AC2AC5 SLP169=

CYVR;2005-01-25 05:00;METAR CYVR 250500Z 20003KT 15SM FEW050 OVC120 09/08 A3003 RMK SC1AC7 SLP170=

CYVR;2005-01-25 06:00;METAR CYVR 250600Z 36003KT 15SM FEW050 BKN120 08/08 A3004 RMK SC2AC4 SLP171=

CYVR;2005-01-25 07:00;METAR CYVR 250700Z 35003KT 15SM FEW070 BKN140 08/08 A3004 RMK AC1AC2 SLP172=

CYVR;2005-01-25 09:00;METAR CYVR 250900Z 36003KT 15SM MIFG SCT140 07/07 A3003 RMK AC2 SLP168=

CYVR;2005-01-25 10:00;METAR CYVR 251000Z 00000KT 15SM BKN080 07/07 A3002 RMK AC5 SLP167=

CYVR;2005-01-25 11:00;METAR CYVR 251100Z 29002KT 12SM MIFG SCT080 05/05 A3002 RMK AC2 VIS SE-SW 11/2 DUE FG SLP167=

CYVR;2005-01-25 12:00;METAR CYVR 251200Z 31003KT 12SM MIFG SCT080 06/06 A3002 RMK AC2 VIS SE-SW 2 SLP165=

CYVR;2005-01-25 13:00;METAR CYVR 251300Z 02002KT 15SM BKN080 05/05 A3001 RMK AC6 SLP162=

CYVR;2005-01-25 14:00;METAR CYVR 251400Z 00000KT 15SM MIFG FEW090 SCT210 06/06 A3000 RMK AC2CI0 SLP160=

CYVR;2005-01-25 15:00;METAR CYVR 251500Z 07003KT 15SM MIFG FEW090 BKN230 05/05 A2999 RMK AC2CI1 SLP157=

CYVR;2005-01-25 16:00;METAR CYVR 251600Z 00000KT 15SM BKN089 BKN230 07/07 A2999 RMK AC6CI1 SLP157=

CYVR;2005-01-25 16:40;SPECI CYVR 251640Z 00000KT 15SM -SHRA FEW060 BKN090 BKN220 RMK SC1AC5CI1 PCPN VRY LGT=

CYVR;2005-01-25 17:00;METAR CYVR 251700Z 01002KT 15SM FEW055 BKN093 OVC220 07/07 A2999 RMK SC1AC6CI1 SLP157=

CYVR;2005-01-25 18:00;METAR CYVR 251800Z 24002KT 15SM FEW055 BKN089 BKN100 BKN220 08/08 A3000 RMK SC1AC5AC1CI1 SLP159=

CYVR;2005-01-25 19:00;METAR CYVR 251900Z 31002KT 15SM FEW050 BKN085 BKN120 BKN220 09/08 A2999 RMK SC1AC4AC2CI1 SLP157=

CYVR;2005-01-25 21:00;METAR CYVR 252100Z 31005KT 15SM FEW100 BKN130 10/09 A2994 RMK AC2AC2 SLP138=

CYVR;2005-01-25 22:00;METAR CYVR 252200Z 28009KT 15SM SCT080 BKN140 BKN220 10/08 A2991 RMK AC3AC3CI0 SLP129=

CYVR;2005-01-25 23:00;METAR CYVR 252300Z 28012KT 15SM SCT085 BKN130 BKN220 09/08 A2989 RMK AC3AC3CI0 SLP123=

CYVR;2005-01-26 00:00;METAR CYVR 260000Z 30010KT 15SM FEW002 FEW085 BKN140 BKN220 08/08 A2988 RMK SF1AC2AC2CI0 LO CLD NW - N SLP119=

CYVR;2005-01-26 00:23;SPECI CYVR 260023Z 32009KT 15SM PRFG SCT002 SCT080 BKN140 RMK SF2AC2AC2 VIS NW - N 1 DUE FG BNK=

CYVR;2005-01-26 00:31;SPECI CYVR 260031Z 32010KT 1SM BR SCT002 BKN080 BKN140 RMK FG2SF2AC1AC1 VIS HIER NE=

CYVR;2005-01-26 00:46;SPECI CYVR 260046Z 31008KT 3SM BR BKN003 BKN080 BKN140 RMK FG2SF2AC1AC2 VIS NW 1 HIER NE 10=

CYVR;2005-01-26 00:54;SPECI CYVR 260054Z 30007KT 1SM BR BKN003 BKN080 BKN140 RMK FG2SF2AC1AC1 VIS E 3=

CYVR;2005-01-26 01:03;SPECI CYVR 260103Z 31007KT 1/2SM FG BKN003 BKN140 RMK FG4SF2AC1=

CYVR;2005-01-26 01:09;SPECI CYVR 260109Z 27007KT 1/4SM FG VV003 RMK FG8=

CYVR;2005-01-26 01:17;SPECI CYVR 260117Z 27010KT 3/4SM BR BKN003 BKN007 OVC100 RMK FG5SF2SF1AC1=

CYVR;2005-01-26 01:23;SPECI CYVR 260123Z 27011KT 8SM BCFG SCT003 BKN080 BKN150 RMK SF3AC2AC1=

CYVR;2005-01-26 01:53;SPECI CYVR 260153Z 29013KT 2SM BR BKN003 BKN230 RMK FG3SF2CI1=

CYVR;2005-01-26 02:22;SPECI CYVR 260222Z 32009KT 1SM BR BKN003 BKN220 RMK FG4SF2CI1=

CYVR;2005-01-26 02:48;SPECI CYVR 260248Z 32008KT 8SM BCFG FEW003 BKN080 BKN220 RMK SF2AC4CI0=

CYVR;2005-01-26 03:00;METAR CYVR 260300Z 31006KT 15SM FEW003 BKN140 BKN220 07/07 A2986 RMK SF1AC5CI1 SLP111=

CYVR;2005-01-26 04:00;METAR CYVR 260400Z 30008KT 12SM FEW003 BKN130 07/07 A2985 RMK SF2AC4 VIS SE-SW 3 SLP110=

CYVR;2005-01-26 04:34;SPECI CYVR 260434Z 30005KT 1SM BR BKN120 RMK FG4AC3 VIS N-E 8=

CYVR;2005-01-26 05:00;METAR CYVR 260500Z 30006KT 2SM BR OVC140 07/07 A2985 RMK FG3AC3 SLP107=

CYVR;2005-01-26 05:44;SPECI CYVR 260544Z 30005KT 8SM FEW003 OVC130 RMK SF2AC4=

CYVR;2005-01-26 06:00;METAR CYVR 260600Z 30005KT 12SM FEW002 BKN130 BKN180 07/07 A2985 RMK ST2AC3AC1 SLP107=

CYVR;2005-01-26 06:41;SPECI CYVR 260641Z 32004KT 1 1/2SM BR BKN130 RMK FG3AC2 VIS N-E 8=

CYVR;2005-01-26 07:00;METAR CYVR 260700Z 29002KT 12SM MIFG FEW002 BKN180 07/07 A2984 RMK ST1AC4 SLP105=

CYVR;2005-01-26 08:00;METAR CYVR 260800Z 34004KT 12SM MIFG SCT100 BKN180 06/06 A2984 RMK AC3AC2 SLP104=

CYVR;2005-01-26 10:00;METAR CYVR 261000Z 36004KT 15SM BKN090 07/07 A2982 RMK AC7 SLP099=

CYVR;2005-01-26 12:00;METAR CYVR 261200Z 07002KT 15SM BKN085 07/07 A2980 RMK AC7 SLP091=

CYVR;2005-01-26 13:00;METAR CYVR 261300Z 25002KT 15SM SCT080 BKN110 07/07 A2980 RMK AC3AC1 SLP090=

CYVR;2005-01-26 14:00;METAR CYVR 261400Z 00000KT 15SM MIFG FEW080 BKN130 06/06 A2977 RMK AC2AC2 SLP081=

CYVR;2005-01-26 15:00;METAR CYVR 261500Z 00000KT 15SM FEW009 SCT080 BKN120 07/07 A2977 RMK SF1AC2AC2 TR SF SLP080=

CYVR;2005-01-26 16:00;METAR CYVR 261600Z 11002KT 15SM FEW009 SCT070 BKN090 BKN120 07/06 A2976 RMK SF1AC2AC2AC1 SLP079=

CYVR;2005-01-26 17:00;METAR CYVR 261700Z 16002KT 15SM FEW012 SCT070 BKN100 08/08 A2977 RMK SF1AC2AC3 SLP081=

CYVR;2005-01-26 20:18;SPECI CYVR 262018Z 16003KT 10SM -RA FEW030 BKN069 OVC085 RMK SF1AC6AC1=

CYVR;2005-01-26 21:00;METAR CYVR 262100Z 22004KT 8SM -RA FEW030 BKN069 OVC090 11/09 A2977 RMK SF1AC6AC2 SLP082=

CYVR;2005-01-26 22:00;METAR CYVR 262200Z 36002KT 4SM -RA BR BKN068 OVC090 09/09 A2976 RMK AC6AC2 SLP079=

CYVR;2005-01-26 23:00;METAR CYVR 262300Z 14003KT 6SM -RA SCT055 BKN067 OVC090 10/09 A2977 RMK SC3AC3AC2 SLP081=

CYVR;2005-01-27 00:00;METAR CYVR 270000Z 11003KT 8SM -RA SCT049 BKN060 OVC080 10/09 A2978 RMK SC3SC4AC1 SLP083=

CYVR;2005-01-27 01:00;METAR CYVR 270100Z 08011KT 10SM -RA BKN046 BKN060 OVC080 10/09 A2978 RMK SC5SC2AC2 SLP083=

CYVR;2005-01-27 01:17;SPECI CYVR 270117Z 08008KT 10SM BKN048 BKN065 OVC080 RMK SC5SC2AC2=

CYVR;2005-01-27 03:00;METAR CYVR 270300Z 10007KT 12SM -RA BKN035 OVC070 10/09 A2979 RMK SC6AC2 SLP087=

CYVR;2005-01-27 04:00;METAR CYVR 270400Z 14003KT 6SM -RA BKN027 OVC070 10/09 A2980 RMK SC6AC2 SLP092=

CYVR;2005-01-27 05:00;METAR CYVR 270500Z 08007KT 10SM -RA SCT032 OVC068 10/09 A2981 RMK SC3AC5 SLP094=

CYVR;2005-01-27 05:42;SPECI CYVR 270542Z 07007KT 12SM FEW035 OVC058 RMK SC2SC6=

CYVR;2005-01-27 06:00;METAR CYVR 270600Z 06007KT 15SM FEW035 OVC058 10/09 A2982 RMK SC2SC6 SLP097=

CYVR;2005-01-27 09:00;METAR CYVR 270900Z 10007KT 12SM BKN045 BKN065 09/08 A2985 RMK SC5SC2 SLP110=

CYVR;2005-01-27 09:23;SPECI CYVR 270923Z 10009KT 8SM -RA BKN045 BKN060 RMK SC5SC2=

CYVR;2005-01-27 10:00;METAR CYVR 271000Z 07006KT 10SM SCT050 BKN090 08/07 A2985 RMK SC3AC2 SLP108=

CYVR;2005-01-27 11:00;METAR CYVR 271100Z 09006KT 10SM FEW020 BKN045 BKN080 08/08 A2986 RMK SC1SC4AC1 SLP112=

CYVR;2005-01-27 12:00;METAR CYVR 271200Z 09007KT 10SM FEW020 BKN045 BKN092 07/07 A2987 RMK SC1SC4AC1 SLP114=

CYVR;2005-01-27 13:00;METAR CYVR 271300Z 07006KT 10SM FEW040 BKN090 BKN210 07/07 A2988 RMK SC1AC4CI1 SLP117=

CYVR;2005-01-27 15:00;METAR CYVR 271500Z 09006KT 10SM BKN021 OVC030 08/08 A2989 RMK SC6SC2 SLP122=

CYVR;2005-01-27 16:00;METAR CYVR 271600Z 11006KT 10SM BKN022 OVC035 09/08 A2990 RMK SC6SC2 SLP125=

CYVR;2005-01-27 19:00;METAR CYVR 271900Z 14007KT 15SM OVC048 10/08 A2994 RMK SC8 SLP139=

CYVR;2005-01-27 20:00;METAR CYVR 272000Z 12005KT 15SM FEW025 OVC051 10/08 A2993 RMK SF1SC7 SLP137=

CYVR;2005-01-28 18:27;SPECI CYVR 281827Z 30008KT 1/8SM FG BKN220 RMK FG5CI2=

CYVR;2005-01-28 19:00;METAR CYVR 281900Z 29007KT 1/8SM FG OVC220 05/05 A2982 RMK FG6CI1 SLP098=

CYVR;2005-01-28 20:22;SPECI CYVR 282022Z 27008KT 0SM FG SKC RMK FG7=

CYVR;2005-01-28 20:54;SPECI CYVR 282054Z 27012KT 1/4SM FG OVC220 RMK FG5CI1=

CYVR;2005-01-28 21:00;METAR CYVR 282100Z 27011KT 1/4SM FG OVC220 05/05 A2980 RMK FG6CI1 SLP093=

CYVR;2005-01-28 21:17;SPECI CYVR 282117Z 29009KT 1/8SM FG SKC RMK FG7=

CYVR;2005-01-28 21:47;SPECI CYVR 282147Z 29010KT 0SM FG VV002 RMK FG8=

CYVR;2005-01-28 22:00;METAR CYVR 282200Z 29010KT 0SM FG VV002 06/06 A2981 RMK FG8 SLP094=

CYVR;2005-01-28 22:09;SPECI CYVR 282209Z 29010KT 1/4SM FG VV002 RMK FG8=

CYVR;2005-01-28 22:18;SPECI CYVR 282218Z 29010KT 5/8SM BR OVC075 RMK FG6AC2=

CYVR;2005-01-28 22:43;SPECI CYVR 282243Z 29011KT 3/4SM BR OVC080 RMK FG6AC2=

CYVR;2005-01-28 22:51;SPECI CYVR 282251Z 29009KT 2SM BR OVC085 RMK FG5AC2 VIS NW 5/8=

CYVR;2005-01-28 23:00;METAR CYVR 282300Z 29008KT 3SM BR FEW004 BKN085 OVC220 06/06 A2982 RMK FG2SF1AC3CS1 VIS W 1 SLP097=

CYVR;2005-01-28 23:17;SPECI CYVR 282317Z 28007KT 1 1/2SM BR OVC085 RMK FG5AC3 VIS W 5/8=

CYVR;2005-01-28 23:25;SPECI CYVR 282325Z 27007KT 1/2SM FG VV002 RMK FG8=

CYVR;2005-01-28 23:35;SPECI CYVR 282335Z 26006KT 3/8SM FG VV002 RMK FG8=

CYVR;2005-01-28 23:45;SPECI CYVR 282345Z 27006KT 3/4SM BR VV002 RMK FG8=

CYVR;2005-01-28 23:50;SPECI CYVR 282350Z 27005KT 2SM BR OVC090 RMK FG5AC3 VIS E 1=

CYVR;2005-01-29 00:00;METAR CYVR 290000Z 28006KT 2SM BR BKN078 OVC220 06/06 A2984 RMK FG2AC4CS2 SLP104=

CYVR;2005-01-29 00:17;SPECI CYVR 290017Z 33005KT 3SM BR FEW002 BKN070 OVC090 RMK FG2SF1AC4AC2 VIS W 15=

CYVR;2005-01-29 01:44;SPECI CYVR 290144Z 28004KT 15SM -SHRA SCT045 OVC061 RMK SC3SC5 PCPN VRY LGT=

CYVR;2005-01-29 04:00;METAR CYVR 290400Z 01006KT 15SM -SHRA FEW040 OVC049 08/08 A2990 RMK SC2SC6 SLP126=

CYVR;2005-01-29 05:00;METAR CYVR 290500Z 19004KT 15SM -SHRA FEW040 OVC051 08/07 A2993 RMK SC2SC6 SLP137=

CYVR;2005-01-29 06:00;METAR CYVR 290600Z 09004KT 15SM -SHRA FEW048 OVC054 07/07 A2996 RMK SC2SC6 PCPN VRY LGT SLP144=

CYVR;2005-01-29 07:00;METAR CYVR 290700Z 18004KT 15SM -SHRA BKN042 OVC050 08/07 A2999 RMK SC6SC2 SLP156=

CYVR;2005-01-29 08:00;METAR CYVR 290800Z 09004KT 15SM -SHRA FEW008 OVC064 07/07 A3001 RMK SC2SC6 SLP163=

CYVR;2005-01-29 08:30;SPECI CYVR 290830Z 04002KT 15SM FEW045 OVC062 RMK SC2SC6=

CYVR;2005-01-29 09:00;METAR CYVR 290900Z 08008KT 15SM OVC064 08/07 A3002 RMK SC8 SLP167=

CYVR;2005-01-29 10:00;METAR CYVR 291000Z 06004KT 15SM BKN067 OVC120 08/07 A3005 RMK AC6AC2 SLP176=

CYVR;2005-01-29 12:00;METAR CYVR 291200Z 07004KT 15SM FEW035 OVC120 07/06 A3008 RMK SC2AC6 SLP186=

CYVR;2005-01-29 13:00;METAR CYVR 291300Z 07005KT 15SM SCT028 OVC120 07/06 A3009 RMK SC3AC5 SLP190=

CYVR;2005-01-29 14:00;METAR CYVR 291400Z 00000KT 15SM FEW035 OVC120 07/06 A3012 RMK SC2AC6 SLP200=

CYVR;2005-01-29 16:00;METAR CYVR 291600Z 20004KT 15SM BKN030 OVC100 07/07 A3017 RMK SC5AC3 SLP216=

CYVR;2005-01-29 17:00;METAR CYVR 291700Z 11004KT 15SM BKN034 OVC100 08/07 A3019 RMK SC6AC2 SLP224=

CYVR;2005-01-29 18:18;SPECI CYVR 291818Z 13007KT 8SM FEW006 BKN016 OVC035 RMK SC2SC4SC2=

CYVR;2005-01-29 20:00;METAR CYVR 292000Z 10006KT 8SM SCT008 OVC018 08/07 A3025 RMK SC3SC5 SLP244=

CYVR;2005-01-29 20:29;SPECI CYVR 292029Z 09006KT 8SM BKN008 OVC019 RMK SC5SC3=

CYVR;2005-01-29 21:00;METAR CYVR 292100Z 08008KT 8SM BKN008 BKN018 OVC090 09/08 A3024 RMK SC5SC2AC1 SLP242=

CYVR;2005-01-29 21:53;SPECI CYVR 292153Z 08007KT 8SM BKN011 BKN035 OVC070 RMK SC5SC2AC2=

CYVR;2005-01-29 22:00;METAR CYVR 292200Z 09007KT 8SM BKN011 BKN020 OVC070 09/08 A3026 RMK SC5SC2AC2 SLP247=

CYVR;2005-01-29 22:56;SPECI CYVR 292256Z 10009KT 8SM FEW013 BKN055 OVC085 RMK SC2SC5AC2=

CYVR;2005-01-29 23:00;METAR CYVR 292300Z 10009KT 8SM FEW013 SCT055 OVC082 09/07 A3026 RMK SC2SC2AC4 SLP248=

CYVR;2005-01-29 23:46;SPECI CYVR 292346Z 08007KT 8SM -SHRA FEW018 BKN040 OVC080 RMK SC2SC4AC2=

CYVR;2005-01-30 01:00;METAR CYVR 300100Z 09010KT 8SM -SHRA FEW020 BKN055 OVC080 08/07 A3029 RMK SC1SC6AC2 SLP256=

CYVR;2005-01-30 03:00;METAR CYVR 300300Z 08008KT 12SM -SHRA FEW035 OVC042 08/07 A3032 RMK SC2SC6 VIS HIER NE QUAD 15 SM SLP267=

CYVR;2005-01-30 04:00;METAR CYVR 300400Z 09008KT 12SM -SHRA FEW030 BKN039 OVC045 08/08 A3033 RMK SF2SC6SC1 SLP271=

CYVR;2005-01-30 05:00;METAR CYVR 300500Z 09008KT 15SM -SHRA FEW035 BKN047 OVC054 08/07 A3034 RMK SF2SC5SC2 SLP273=

CYVR;2005-01-30 07:00;METAR CYVR 300700Z 08006KT 15SM FEW020 BKN028 OVC045 08/07 A3035 RMK SC2SC6SC1 SLP279=

CYVR;2005-01-30 07:13;SPECI CYVR 300713Z 08007KT 15SM -SHRA BKN022 OVC045 RMK SC5SC3 VIS LWR N QUAD 12 SM=

CYVR;2005-01-30 10:00;METAR CYVR 301000Z 08006KT 8SM -SHRA FEW020 BKN030 OVC041 08/07 A3037 RMK SF2SC4SC2 VIS LWR N QUAD 5 SM SLP283=

CYVR;2005-01-30 11:44;SPECI CYVR 301144Z 08006KT 6SM -SHRA BR BKN034 OVC045 RMK SC5SC3 VIS N QUAD 3 SM=

CYVR;2005-01-30 12:00;METAR CYVR 301200Z 09006KT 4SM -SHRA BR SCT027 OVC040 07/07 A3036 RMK SC3SC5 VIS N QUAD 3 SM SLP280=

CYVR;2005-01-30 13:00;METAR CYVR 301300Z 07008KT 6SM -RA BR FEW030 SCT045 OVC060 08/07 A3035 RMK SF2SC2SC5 SLP278=

CYVR;2005-01-30 14:00;METAR CYVR 301400Z 08008KT 6SM -RA BR OVC045 08/07 A3035 RMK SC8 SLP277=

CYVR;2005-01-30 15:00;METAR CYVR 301500Z 07007KT 4SM -RA BR OVC041 07/07 A3036 RMK SC8 SLP280=

CYVR;2005-01-30 16:00;METAR CYVR 301600Z 07007KT 3SM -RA BR SCT017 OVC038 07/07 A3036 RMK SC3SC5 SLP280=

CYVR;2005-01-30 17:00;METAR CYVR 301700Z 08008KT 8SM -RA SCT018 OVC048 08/08 A3036 RMK SC3SC5 SLP282=

CYVR;2005-01-30 18:00;METAR CYVR 301800Z 09008KT 4SM -RA BR BKN021 OVC050 08/08 A3037 RMK SC6SC2 SLP283=

CYVR;2005-01-30 18:47;SPECI CYVR 301847Z 09007KT 1 1/2SM -RA BR OVC015 RMK SC8=

CYVR;2005-01-30 19:00;METAR CYVR 301900Z 09007KT 2SM -RA BR OVC017 08/08 A3037 RMK SC8 SLP286=

CYVR;2005-01-30 19:08;SPECI CYVR 301908Z 07008KT 2 1/4SM -RA BR FEW007 BKN012 OVC021 RMK CF2SC6SC1=

CYVR;2005-01-30 19:29;SPECI CYVR 301929Z 06008KT 2 1/4SM -RA BR SCT012 BKN021 OVC035 RMK SC3SC4SC1=

CYVR;2005-01-30 20:36;SPECI CYVR 302036Z 07009KT 2 1/4SM -RA BR SCT007 BKN015 OVC030 RMK SC3SC4SC1=

CYVR;2005-01-30 21:00;METAR CYVR 302100Z 07009KT 1 3/4SM -RA BR SCT006 OVC017 08/08 A3035 RMK SC3SC5 SLP278=

CYVR;2005-01-30 21:52;SPECI CYVR 302152Z 07008KT 4SM -RA BR FEW006 OVC012 RMK SC2SC6=

CYVR;2005-01-30 22:00;METAR CYVR 302200Z 07008KT 6SM -RA BR FEW008 BKN014 OVC022 08/08 A3033 RMK SC2SC5SC2 SLP272=

CYVR;2005-01-30 23:00;METAR CYVR 302300Z 07009KT 2SM -RA BR FEW007 BKN011 OVC020 08/08 A3032 RMK SC2SC5SC1 SLP269=

CYVR;2005-01-31 00:00;METAR CYVR 310000Z 07008KT 2 1/2SM -RA BR OVC012 08/08 A3031 RMK SC8 PCPN VRY LGT SLP264=

CYVR;2005-01-31 01:45;SPECI CYVR 310145Z 07008KT 8SM FEW008 OVC012 RMK SC2SC6=

CYVR;2005-01-31 02:12;SPECI CYVR 310212Z 07009KT 10SM -RA BKN012 OVC020 RMK SC5SC3=

CYVR;2005-01-31 02:33;SPECI CYVR 310233Z 09006KT 10SM -SHRA SCT012 OVC020 RMK SC3SC5=

CYVR;2005-01-31 02:39;SPECI CYVR 310239Z 07009KT 6SM -DZ SCT012 OVC020 RMK SC3SC5=

CYVR;2005-01-31 02:41;SPECI CYVR 310241Z 07009KT 4SM -DZ BR SCT012 OVC021 RMK SC3SC5 VIS LWR N QUAD 3 SM=

CYVR;2005-01-31 02:44;SPECI CYVR 310244Z 07008KT 3SM -DZ BR SCT013 OVC017 RMK ST4SC4 VIS LWR N QUAD 21/2 SM=

CYVR;2005-01-31 02:55;SPECI CYVR 310255Z 07009KT 2 1/2SM -DZ BR SCT013 OVC018 RMK ST4SC4=

CYVR;2005-01-31 03:24;SPECI CYVR 310324Z 07008KT 3SM -DZ BR SCT012 OVC019 RMK ST3SC5 VIS N QUAD 21/2 SM=

CYVR;2005-01-31 03:37;SPECI CYVR 310337Z 07008KT 6SM -DZ BR FEW009 BKN014 OVC029 RMK ST2ST3SC2=

CYVR;2005-01-31 03:39;SPECI CYVR 310339Z 06007KT 8SM -DZ SCT014 BKN018 OVC029 RMK ST3ST2SC2=

CYVR;2005-01-31 03:47;SPECI CYVR 310347Z 07008KT 8SM -RA SCT014 BKN022 OVC029 RMK SF3SC2SC2=

CYVR;2005-01-31 04:00;METAR CYVR 310400Z 06007KT 6SM -RA BR FEW014 BKN025 OVC035 08/08 A3026 RMK SF2SC4SC2 SLP247=

CYVR;2005-01-31 04:23;SPECI CYVR 310423Z 06009KT 7SM -RA FEW025 BKN031 OVC039 RMK SC2SC3SC2=

CYVR;2005-01-31 04:26;SPECI CYVR 310426Z 06009KT 6SM -RA BR FEW025 BKN031 OVC040 RMK SC2SC3SC2 VIS N QUAD 4 SM=

CYVR;2005-01-31 05:51;SPECI CYVR 310551Z 08005KT 15SM FEW033 OVC050 RMK SC2SC6=

CYVR;2005-01-31 07:00;METAR CYVR 310700Z 08007KT 20SM SCT035 OVC041 08/08 A3021 RMK SC3SC5 SLP231=

CYVR;2005-01-31 08:35;SPECI CYVR 310835Z 09011KT 15SM -SHRA SCT035 OVC074 RMK SC3AC5=

CYVR;2005-01-31 09:00;METAR CYVR 310900Z 09011KT 15SM -SHRA FEW035 BKN055 OVC067 08/08 A3017 RMK SC2SC3AC2 SLP217=

CYVR;2005-01-31 10:00;METAR CYVR 311000Z 10012KT 15SM -SHRA BKN037 OVC049 08/08 A3016 RMK SC6SC2 SLP214=

CYVR;2005-01-31 10:03;SPECI CYVR 311003Z 11012KT 15SM BKN038 OVC048 RMK SC6SC2=

CYVR;2005-01-31 11:00;METAR CYVR 311100Z 12010G15KT 15SM FEW040 BKN048 OVC055 09/07 A3016 RMK SC2SC3SC2 SLP212=

CYVR;2005-01-31 12:00;METAR CYVR 311200Z 13013KT 15SM FEW020 OVC038 09/07 A3015 RMK SC2SC6 SLP210=

CYVR;2005-01-31 13:00;METAR CYVR 311300Z 15016KT 15SM FEW020 OVC064 10/07 A3015 RMK SC2SC5 SLP210=

CYVR;2005-01-31 14:00;METAR CYVR 311400Z 15018KT 15SM FEW020 BKN041 OVC065 10/07 A3014 RMK SC2SC4SC2 SLP207=

CYVR;2005-01-31 15:00;METAR CYVR 311500Z 15015KT 15SM FEW035 OVC053 10/07 A3017 RMK SC2SC6 SLP216=

CYVR;2005-01-31 16:00;METAR CYVR 311600Z 17012KT 20SM FEW035 FEW050 BKN120 10/06 A3019 RMK SC2SC1AC2 SLP222=

CYVR;2005-01-31 17:00;METAR CYVR 311700Z 18012KT 20SM FEW035 SCT050 BKN110 BKN220 10/05 A3023 RMK SC2SC2AC2CI1 SLP237=

CYVR;2005-01-31 18:00;METAR CYVR 311800Z 20012KT 20SM SCT037 BKN063 BKN110 10/05 A3026 RMK SC4SC2AC2 SLP246=

CYVR;2005-01-31 21:00;METAR CYVR 312100Z 20009G19KT 20SM FEW040 BKN220 11/04 A3032 RMK SC2CI2 SLP268=

CYVR;2005-01-31 22:00;METAR CYVR 312200Z 20008KT 20SM FEW040 BKN220 12/04 A3032 RMK SC2CI2 SLP267=

CYVR;2005-02-01 00:00;METAR CYVR 010000Z 19005KT 20SM FEW040 SCT060 BKN220 11/04 A3037 RMK SC1SC1CS2 SLP284=

CYVR;2005-02-01 02:00;METAR CYVR 010200Z 13007KT 15SM FEW040 SCT081 OVC140 10/04 A3039 RMK SC1AC2AC4 SLP292=

CYVR;2005-02-01 03:00;METAR CYVR 010300Z 14005KT 20SM FEW040 BKN130 OVC150 09/04 A3040 RMK SC2AC3AC2 SLP296=

CYVR;2005-02-01 04:00;METAR CYVR 010400Z 00000KT 20SM FEW040 OVC190 08/05 A3043 RMK SC2AC6 SLP304=

CYVR;2005-02-01 05:00;METAR CYVR 010500Z 09006KT 20SM FEW040 BKN150 OVC170 07/05 A3045 RMK SC1AC5AC2 SLP310=

CYVR;2005-02-01 06:00;METAR CYVR 010600Z 18003KT 20SM FEW040 OVC140 08/04 A3043 RMK SC2AS6 SLP305=

CYVR;2005-02-01 09:00;METAR CYVR 010900Z 08006KT 15SM FEW040 SCT120 05/04 A3043 RMK SC1AS2 SLP306=

CYVR;2005-02-01 10:00;METAR CYVR 011000Z 10009KT 15SM FEW040 BKN110 07/06 A3043 RMK SC2AC5 SLP305=

CYVR;2005-02-01 11:00;METAR CYVR 011100Z 09009KT 15SM SCT060 OVC074 06/05 A3044 RMK SC3AC4 SLP308=

CYVR;2005-02-01 13:00;METAR CYVR 011300Z 08007KT 15SM OVC068 07/06 A3046 RMK AC8 SLP316=

CYVR;2005-02-01 14:00;METAR CYVR 011400Z 09008KT 15SM OVC073 07/06 A3047 RMK AC8 SLP317=

CYVR;2005-02-01 15:00;METAR CYVR 011500Z 09010KT 15SM FEW040 OVC057 07/07 A3048 RMK SC2SC5 SLP321=

CYVR;2005-02-01 16:00;METAR CYVR 011600Z 09011KT 7SM SCT050 OVC065 08/06 A3049 RMK SC3SC4 SLP325=

CYVR;2005-02-01 17:00;METAR CYVR 011700Z 10008KT 7SM -RA BKN017 OVC040 08/06 A3050 RMK SC6SC2 SLP329=

CYVR;2005-02-01 17:25;SPECI CYVR 011725Z 10010KT 8SM FEW017 OVC042 RMK SF2SC6=

CYVR;2005-02-01 18:00;METAR CYVR 011800Z 09011KT 10SM FEW016 OVC046 09/07 A3050 RMK SF2SC4 SLP328=

CYVR;2005-02-01 21:00;METAR CYVR 012100Z 09007KT 20SM FEW040 BKN120 BKN210 11/06 A3041 RMK SC1AC2CI0 SLP298=

CYVR;2005-02-01 22:00;METAR CYVR 012200Z 09004KT 20SM FEW110 BKN140 12/04 A3040 RMK AC1AC3 SLP294=

CYVR;2005-02-01 23:00;METAR CYVR 012300Z 11006KT 20SM FEW085 OVC130 11/03 A3039 RMK AC2AC6 SLP290=

CYVR;2005-02-02 00:00;METAR CYVR 020000Z 13005KT 20SM BKN085 OVC130 11/03 A3039 RMK AC6AC2 SLP292=

CYVR;2005-02-02 03:00;METAR CYVR 020300Z 08004KT 15SM BKN064 OVC075 10/05 A3037 RMK SC6AC2 SLP283=

CYVR;2005-02-02 04:00;METAR CYVR 020400Z 06004KT 15SM -RA BKN056 OVC065 10/05 A3037 RMK SC5SC3 SLP286=

CYVR;2005-02-02 04:27;SPECI CYVR 020427Z 05006KT 15SM BKN055 OVC065 RMK SC6SC2=

CYVR;2005-02-02 04:35;SPECI CYVR 020435Z 05008KT 12SM -RA OVC055 RMK SC8=

CYVR;2005-02-02 06:00;METAR CYVR 020600Z 11003KT 15SM BKN056 BKN065 OVC090 09/06 A3039 RMK SC6SC2AC1 SLP291=

CYVR;2005-02-02 07:00;METAR CYVR 020700Z 09006KT 15SM SCT039 OVC053 08/06 A3039 RMK SC3SC5 SLP292=

CYVR;2005-02-02 08:00;METAR CYVR 020800Z 08007KT 15SM SCT035 OVC049 08/06 A3039 RMK SC4SC4 SLP292=

CYVR;2005-02-02 10:00;METAR CYVR 021000Z 09008KT 15SM BKN034 BKN045 OVC065 08/06 A3040 RMK SC6SC2SC1 SLP293=

CYVR;2005-02-02 11:00;METAR CYVR 021100Z 09006KT 15SM SCT035 BKN053 BKN065 07/05 A3040 RMK SC4SC2SC2 SLP295=

CYVR;2005-02-02 12:00;METAR CYVR 021200Z 09013KT 15SM BKN026 OVC035 08/06 A3040 RMK SC5SC3 SLP295=

CYVR;2005-02-02 13:00;METAR CYVR 021300Z 08008KT 10SM FEW010 SCT017 OVC025 08/07 A3041 RMK SF2SC2SC4 SLP298=

CYVR;2005-02-02 16:00;METAR CYVR 021600Z 08008KT 15SM OVC025 09/07 A3039 RMK SC8 SLP291=

CYVR;2005-02-02 17:00;METAR CYVR 021700Z 07006KT 20SM BKN023 09/06 A3040 RMK SC7 SLP295=

CYVR;2005-02-02 18:00;METAR CYVR 021800Z 08009KT 20SM BKN025 10/07 A3041 RMK SC7 SLP298=

CYVR;2005-02-02 19:00;METAR CYVR 021900Z 10006KT 20SM OVC032 11/07 A3042 RMK SC8 SLP302=

CYVR;2005-02-02 20:00;METAR CYVR 022000Z 06008KT 20SM OVC032 11/07 A3042 RMK SC8 SLP300=

CYVR;2005-02-02 21:00;METAR CYVR 022100Z 12007KT 20SM OVC030 12/07 A3042 RMK SC8 SLP301=

CYVR;2005-02-02 22:00;METAR CYVR 022200Z 10009KT 20SM BKN030 13/06 A3039 RMK SC5 SLP291=

CYVR;2005-02-02 23:00;METAR CYVR 022300Z 10008KT 20SM BKN035 13/05 A3038 RMK SC5 SLP289=

CYVR;2005-02-03 00:00;METAR CYVR 030000Z 08007KT 20SM BKN035 12/06 A3037 RMK SC5 SLP284=

CYVR;2005-02-03 02:00;METAR CYVR 030200Z 04003KT 15SM SCT040 10/07 A3036 RMK SC2 SLP280=

CYVR;2005-02-03 04:00;METAR CYVR 030400Z 09005KT 15SM SCT050 BKN210 08/06 A3035 RMK SC3CI1 SLP277=

CYVR;2005-02-03 07:00;METAR CYVR 030700Z 10009KT 15SM BKN040 08/07 A3032 RMK SC6 SLP269=

CYVR;2005-02-03 09:00;METAR CYVR 030900Z 10007KT 15SM BKN040 BKN210 08/07 A3029 RMK SC6CI0 SLP258=

CYVR;2005-02-03 10:00;METAR CYVR 031000Z 13009KT 15SM SCT042 BKN240 08/07 A3029 RMK SC3CI1 SLP258=

CYVR;2005-02-03 12:00;METAR CYVR 031200Z 11008KT 15SM BKN039 BKN055 BKN240 08/07 A3030 RMK SC5SC1CI1 SLP260=

CYVR;2005-02-03 13:00;METAR CYVR 031300Z 11009KT 15SM SCT038 BKN060 BKN240 08/07 A3029 RMK SC3SC2CI2 SLP257=

CYVR;2005-02-03 15:00;METAR CYVR 031500Z 11009KT 10SM SCT030 BKN060 BKN240 08/07 A3029 RMK SC3SC2CI0 SLP258=

CYVR;2005-02-03 16:00;METAR CYVR 031600Z 09007KT 15SM FEW030 BKN070 BKN120 BKN240 08/07 A3029 RMK SC1AC2AC2CI0 SLP256=

CYVR;2005-02-03 17:00;METAR CYVR 031700Z 09007KT 15SM FEW030 BKN065 OVC240 09/07 A3029 RMK SC1SC5CI1 SLP257=

CYVR;2005-02-03 17:40;SPECI CYVR 031740Z 08008KT 12SM -SHRA FEW030 FEW040 OVC062 RMK SC1SC2SC5=

CYVR;2005-02-03 18:00;METAR CYVR 031800Z 08008KT 12SM -SHRA FEW030 BKN042 OVC062 09/08 A3029 RMK SC1SC4SC2 SLP257=

CYVR;2005-02-03 18:05;SPECI CYVR 031805Z 09008KT 12SM FEW030 BKN042 OVC062 RMK SC1SC4SC2=

CYVR;2005-02-03 19:00;METAR CYVR 031900Z 10008KT 12SM BKN045 OVC060 10/07 A3029 RMK SC6SC2 SLP256=

CYVR;2005-02-03 22:00;METAR CYVR 032200Z 09008KT 15SM FEW015 BKN045 OVC065 10/08 A3022 RMK SF1SC4SC3 SLP235=

CYVR;2005-02-03 23:00;METAR CYVR 032300Z 09006KT 15SM FEW024 BKN060 OVC100 10/08 A3022 RMK SC2SC5AC2 SLP234=

CYVR;2005-02-04 00:00;METAR CYVR 040000Z 08006KT 15SM FEW024 FEW060 OVC130 10/08 A3020 RMK SC2SC1AC6 SLP227=

CYVR;2005-02-04 01:27;SPECI CYVR 040127Z 09008KT 15SM -SHRA FEW024 SCT045 OVC120 RMK SC2SC2AC4=

CYVR;2005-02-04 01:42;SPECI CYVR 040142Z 12002KT 15SM SCT045 OVC120 RMK SC2AC6=

CYVR;2005-02-04 02:00;METAR CYVR 040200Z 08005KT 15SM FEW045 OVC090 09/08 A3015 RMK SC2AC6 SLP210=

CYVR;2005-02-04 03:15;SPECI CYVR 040315Z 11009KT 12SM -SHRA SCT025 BKN055 BKN090 OVC110 RMK SC3SC2AC2AC1=

CYVR;2005-02-04 03:45;SPECI CYVR 040345Z 09005KT 15SM SCT025 BKN055 OVC110 RMK SC3SC2AC3=

CYVR;2005-02-04 04:00;METAR CYVR 040400Z 10004KT 15SM FEW025 SCT060 BKN110 OVC130 09/08 A3013 RMK SC2SC2AC2AC2 SLP202=

CYVR;2005-02-04 08:00;METAR CYVR 040800Z 15006KT 4SM -RA SCT009 BKN029 OVC050 09/08 A3003 RMK SC3SC2SC2 SLP170=

CYVR;2005-02-04 10:00;METAR CYVR 041000Z 27005KT 5SM -RA BR FEW020 OVC046 07/07 A2997 RMK SC2SC6 SLP150=

CYVR;2005-02-04 11:10;SPECI CYVR 041110Z 29004KT 3SM -RA BR FEW002 SCT008 OVC025 RMK SF1SF3SC4 CIG AND VIS LWR W=

CYVR;2005-02-04 11:23;SPECI CYVR 041123Z 29003KT 3SM RA BR FEW002 BKN009 OVC030 RMK SF1SF4SC3=

CYVR;2005-02-04 11:37;SPECI CYVR 041137Z 28004KT 1SM RA BR SCT002 BKN007 OVC015 RMK FG2SF2SF3SC2 VIS E 3=

CYVR;2005-02-04 11:52;SPECI CYVR 041152Z 29005KT 2SM -RA BR FEW002 BKN008 OVC020 RMK SF2SF4SC2=

CYVR;2005-02-04 12:32;SPECI CYVR 041232Z 29006KT 3SM -RA BR FEW002 SCT007 BKN015 OVC031 RMK SF2SF2SC2SC2=

CYVR;2005-02-04 13:00;METAR CYVR 041300Z 30006KT 3SM RA BR FEW003 FEW008 BKN015 OVC031 06/06 A2992 RMK SF1SF2SC3SC2 SLP133=

CYVR;2005-02-04 14:00;METAR CYVR 041400Z 27004KT 3SM RA BR SCT005 BKN017 OVC035 06/06 A2991 RMK SF4SC2SC2 SLP128=

CYVR;2005-02-04 15:00;METAR CYVR 041500Z 27005KT 3SM -RA BR SCT003 OVC022 06/06 A2990 RERA RMK SF2SC6 SLP124=

CYVR;2005-02-04 16:00;METAR CYVR 041600Z 25006KT 3SM -RA BR FEW003 SCT007 OVC022 06/06 A2989 RMK SF2SF2SC5 SLP121=

CYVR;2005-02-04 16:47;SPECI CYVR 041647Z 24007KT 3SM -RA BR FEW003 BKN007 OVC022 RMK SF2SF4SC2=

CYVR;2005-02-04 17:00;METAR CYVR 041700Z 23007KT 3SM -RA BR FEW003 BKN008 OVC022 06/06 A2988 RMK SF2SC3SC3 SLP120=

CYVR;2005-02-04 17:51;SPECI CYVR 041751Z 26006KT 4SM -RA BR FEW003 FEW007 OVC024 RMK SF2SC1SC6=

CYVR;2005-02-04 20:17;SPECI CYVR 042017Z 23006KT 7SM FEW006 BKN034 BKN075 RMK SF1SC5AC1=

CYVR;2005-02-04 21:00;METAR CYVR 042100Z 26008KT 7SM -RA SCT014 OVC028 08/06 A2989 RMK SC3SC5 -RA INTMT SLP121=

CYVR;2005-02-04 22:00;METAR CYVR 042200Z 27013G18KT 8SM -RA SCT014 OVC028 06/05 A2989 RMK SC3SC5 SLP123=

CYVR;2005-02-04 22:44;SPECI CYVR 042244Z 25020G25KT 8SM FEW005 FEW026 BKN060 OVC090 RMK SF1SC2SC2AC2=

CYVR;2005-02-05 00:00;METAR CYVR 050000Z 27023G31KT 15SM FEW008 FEW045 SCT085 SCT210 07/05 A2990 RMK SC1SC1AC1CI0 SLP125=

CYVR;2005-02-05 02:00;METAR CYVR 050200Z 25011KT 15SM FEW035 BKN065 07/05 A2994 RMK SC1SC2 SLP140=

CYVR;2005-02-05 03:00;METAR CYVR 050300Z 27017KT 15SM FEW011 FEW035 BKN070 06/05 A2995 RMK SC1SC2AC2 SLP143=

CYVR;2005-02-05 04:00;METAR CYVR 050400Z 27016KT 15SM FEW035 SCT070 06/04 A2998 RMK SC2AC1 SLP152=

CYVR;2005-02-05 05:00;METAR CYVR 050500Z 29013G20KT 15SM FEW035 BKN075 06/03 A3000 RMK SC2AC3 VIRGA SLP160=

CYVR;2005-02-05 06:00;METAR CYVR 050600Z 28021KT 15SM FEW040 BKN070 BKN085 06/02 A3003 RMK SC2AC3AC1 SLP170=

CYVR;2005-02-05 09:00;METAR CYVR 050900Z 26021KT 15SM FEW040 BKN075 05/02 A3006 RMK SC2AC5 SLP180=

CYVR;2005-02-05 10:00;METAR CYVR 051000Z 25016G21KT 15SM FEW035 SCT070 BKN090 05/03 A3008 RMK SC2AC2AC3 SLP185=

CYVR;2005-02-05 12:00;METAR CYVR 051200Z 27020G25KT 20SM FEW030 FEW090 05/02 A3010 RMK SC1AC2 SLP192=

CYVR;2005-02-05 13:00;METAR CYVR 051300Z 28017KT 20SM FEW030 FEW090 04/M00 A3010 RMK SC1AC1 SLP194=

CYVR;2005-02-05 14:00;METAR CYVR 051400Z 27013G18KT 20SM FEW080 04/M01 A3011 RMK AC1 SLP197=

CYVR;2005-02-05 16:00;METAR CYVR 051600Z 27013KT 20SM FEW040 BKN220 04/M01 A3014 RMK SC1CI1 TR SC SLP205=

CYVR;2005-02-05 17:00;METAR CYVR 051700Z 26009KT 30SM FEW040 SCT220 05/01 A3014 RMK SC1CI1 TR SC SLP206=

CYVR;2005-02-05 18:00;METAR CYVR 051800Z 24009KT 30SM FEW040 BKN220 06/02 A3015 RMK SC1CI1 SLP209=

CYVR;2005-02-05 19:00;METAR CYVR 051900Z 25008G16KT 30SM FEW035 FEW040 BKN200 06/02 A3016 RMK CF1SC1CS1 TR CF SLP212=

CYVR;2005-02-05 21:00;METAR CYVR 052100Z 26010KT 30SM FEW040 BKN200 06/01 A3012 RMK CU1CS1 SLP201=

CYVR;2005-02-05 22:00;METAR CYVR 052200Z 26008KT 30SM FEW040 BKN200 06/00 A3011 RMK CU1CI1 SLP196=

CYVR;2005-02-06 00:00;METAR CYVR 060000Z 22004KT 30SM FEW040 SCT140 OVC200 06/M01 A3008 RMK SC1AC2CI2 SLP187=

CYVR;2005-02-06 01:00;METAR CYVR 060100Z 17003KT 30SM FEW040 BKN120 OVC150 06/M01 A3008 RMK CF1AC4AC2 SLP186=

CYVR;2005-02-06 02:00;METAR CYVR 060200Z 13003KT 30SM FEW040 BKN120 OVC150 05/M01 A3007 RMK CF1AC4AC1 SLP184=

CYVR;2005-02-06 04:00;METAR CYVR 060400Z 09009KT 30SM SCT044 BKN080 OVC110 04/01 A3005 RMK SC3AC3AS2 SLP175=

CYVR;2005-02-06 05:00;METAR CYVR 060500Z 10008KT 20SM BKN059 OVC080 04/01 A3004 RMK SC5AC3 SLP171=

CYVR;2005-02-06 06:00;METAR CYVR 060600Z 09009KT 20SM FEW025 BKN059 OVC087 04/00 A3002 RMK SC2SC3AC3 SLP165=

CYVR;2005-02-06 07:00;METAR CYVR 060700Z 09009KT 20SM FEW030 BKN057 OVC080 04/01 A3000 RMK SC2SC3AC2 SLP160=

CYVR;2005-02-06 08:27;SPECI CYVR 060827Z 09013KT 15SM -RA BKN031 OVC050 RMK SC5SC3=

CYVR;2005-02-06 11:54;SPECI CYVR 061154Z 07014G19KT 12SM BKN031 OVC050 RMK SC6SC2=

CYVR;2005-02-06 12:00;METAR CYVR 061200Z 07015KT 12SM BKN031 OVC050 03/01 A2988 RMK SC6SC2 SLP118=

CYVR;2005-02-06 13:00;METAR CYVR 061300Z 12011G16KT 15SM BKN035 OVC064 03/01 A2985 RMK SC5SC3 SLP108=

CYVR;2005-02-06 13:52;SPECI CYVR 061352Z 12010G19KT 15SM -SHRA BKN021 OVC042 RMK SC5SC3=

CYVR;2005-02-06 14:42;SPECI CYVR 061442Z 10017G25KT 12SM -SHRA BKN011 OVC024 RMK SC5SC3=

CYVR;2005-02-06 14:51;SPECI CYVR 061451Z 10015G20KT 12SM -SHRA BKN015 OVC024 RMK SC5SC3=

CYVR;2005-02-06 15:00;METAR CYVR 061500Z 09018KT 12SM -SHRA FEW011 BKN015 OVC021 03/01 A2982 RMK SC2SC3SC2 SLP097=

CYVR;2005-02-06 15:42;SPECI CYVR 061542Z 07016KT 6SM -SHRA BR SCT011 BKN015 OVC020 RMK SC3SC3SC2=

CYVR;2005-02-06 16:00;METAR CYVR 061600Z 08014G19KT 6SM -SHRA BR SCT012 BKN015 OVC021 02/01 A2980 RMK SC3SC3SC2 SLP090=

CYVR;2005-02-06 16:29;SPECI CYVR 061629Z 08016KT 4SM -SHRA BR FEW008 BKN012 OVC020 RMK SC2SC4SC2=

CYVR;2005-02-06 16:43;SPECI CYVR 061643Z 08012KT 3SM -SHRA BR BKN008 BKN012 OVC020 RMK SC5SC2SC1=

CYVR;2005-02-06 17:00;METAR CYVR 061700Z 08014KT 2 1/2SM -RASN BKN007 OVC012 01/01 A2980 RMK SC6SC2 SLP091=

CYVR;2005-02-06 17:20;SPECI CYVR 061720Z 08014KT 3SM -RASN BKN010 OVC017 RMK SC6SC2=

CYVR;2005-02-06 17:35;SPECI CYVR 061735Z 08013KT 5SM -RA BR SCT010 OVC017 RMK SC3SC5=

CYVR;2005-02-06 17:39;SPECI CYVR 061739Z 08012KT 7SM -RA SCT010 BKN017 OVC021 RMK SC3SC3SC2=

CYVR;2005-02-06 17:51;SPECI CYVR 061751Z 08013KT 10SM -RA BKN012 BKN017 OVC021 RMK SC5SC2SC2=

CYVR;2005-02-06 18:46;SPECI CYVR 061846Z 09012G17KT 6SM -RA BR FEW010 BKN013 OVC025 RMK SC2SC3SC2=

CYVR;2005-02-06 19:00;METAR CYVR 061900Z 09013KT 6SM -RA BR BKN016 OVC025 03/02 A2980 RMK SC6SC2 SLP093=

CYVR;2005-02-06 21:00;METAR CYVR 062100Z 08007KT 4SM -RA BR SCT012 BKN016 OVC025 03/02 A2982 RMK SC3SC3SC2 SLP099=

CYVR;2005-02-06 21:30;SPECI CYVR 062130Z 09006KT 7SM -RA FEW012 BKN017 OVC025 RMK SC2SC4SC2=

CYVR;2005-02-06 22:00;METAR CYVR 062200Z 09005KT 6SM -RA BR FEW013 BKN018 OVC028 04/03 A2984 RMK SF2SC4SC2 SLP104=

CYVR;2005-02-06 22:13;SPECI CYVR 062213Z 07005KT 7SM -RA FEW013 BKN018 OVC025 RMK SF2SC4SC2=

CYVR;2005-02-07 00:00;METAR CYVR 070000Z 12004KT 15SM -RA FEW018 BKN031 OVC050 04/03 A2988 RMK SF2SC4SC2 SLP118=

CYVR;2005-02-07 01:18;SPECI CYVR 070118Z 28006KT 15SM FEW020 SCT040 OVC077 RMK SF2SC2AC3=

CYVR;2005-02-07 03:00;METAR CYVR 070300Z 32007KT 15SM FEW025 SCT075 OVC091 04/03 A2995 RMK SC2AC2AC4 SLP142=

CYVR;2005-02-07 04:00;METAR CYVR 070400Z 35002KT 15SM FEW025 SCT075 OVC095 04/03 A2997 RMK SC2AC2AC5 SLP150=

CYVR;2005-02-07 06:00;METAR CYVR 070600Z 03003KT 15SM FEW070 SCT095 03/02 A3002 RMK AC2AC2 SLP167=

CYVR;2005-02-07 07:00;METAR CYVR 070700Z 08004KT 15SM FEW070 SCT095 02/01 A3004 RMK AC2AC2 SLP173=

CYVR;2005-02-07 09:00;METAR CYVR 070900Z 00000KT 15SM FEW090 01/M01 A3007 RMK AC2 SLP184=

CYVR;2005-02-07 10:00;METAR CYVR 071000Z 04002KT 15SM FEW090 00/M01 A3009 RMK AC1 SLP191=

CYVR;2005-02-07 11:00;METAR CYVR 071100Z 08002KT 15SM FEW090 01/M01 A3011 RMK AC1 SLP197=

CYVR;2005-02-07 12:00;METAR CYVR 071200Z 35002KT 15SM FEW100 M02/M03 A3012 RMK AC1 FROIN SLP200=

CYVR;2005-02-07 15:00;METAR CYVR 071500Z 08002KT 20SM SCT100 BKN220 00/M02 A3016 RMK AC2CI1 FROIN SLP212=

CYVR;2005-02-07 16:00;METAR CYVR 071600Z 00000KT 30SM SCT120 BKN150 OVC220 M01/M02 A3018 RMK AC2AS2CI1 FROIN SLP219=

CYVR;2005-02-07 17:00;METAR CYVR 071700Z 34004KT 30SM FEW120 BKN160 BKN220 01/M02 A3020 RMK AC2AS2CI1 CONTRAILS SLP226=

CYVR;2005-02-07 21:00;METAR CYVR 072100Z 27006KT 30SM FEW030 SCT140 BKN220 05/M02 A3022 RMK CF1AC2CI1 TR CF SLP233=

CYVR;2005-02-07 22:00;METAR CYVR 072200Z 27006KT 30SM FEW035 FEW150 06/01 A3021 RMK CF1AC1 TR CF SLP231=

CYVR;2005-02-07 23:00;METAR CYVR 072300Z 28005KT 30SM FEW035 FEW150 05/01 A3022 RMK CF1AS1 TR CF TR AS SLP232=

CYVR;2005-02-08 00:00;METAR CYVR 080000Z 27007KT 30SM FEW035 FEW190 05/01 A3023 RMK CF1AC1 TR CF SLP236=

CYVR;2005-02-08 02:00;METAR CYVR 080200Z 27002KT 30SM FEW220 04/01 A3022 RMK CI1 SLP235=

CYVR;2005-02-08 03:00;METAR CYVR 080300Z 03002KT 30SM FEW220 02/00 A3024 RMK CI1 SLP240=

CYVR;2005-02-08 04:00;METAR CYVR 080400Z 02002KT 30SM FEW220 02/00 A3024 RMK CI1 SLP241=

CYVR;2005-02-08 06:00;METAR CYVR 080600Z 02003KT 30SM FEW220 00/M01 A3027 RMK CI1 SLP249=

CYVR;2005-02-08 08:00;METAR CYVR 080800Z 00000KT 20SM SCT240 01/M01 A3028 RMK CI2 SLP253=

CYVR;2005-02-08 09:00;METAR CYVR 080900Z 00000KT 20SM SCT240 01/M00 A3028 RMK CI2 SLP255=

CYVR;2005-02-08 10:00;METAR CYVR 081000Z 00000KT 20SM FEW240 M01/M02 A3028 RMK CI1 FROIN SLP254=

CYVR;2005-02-08 11:00;METAR CYVR 081100Z 00000KT 20SM FEW240 M00/M01 A3028 RMK CI1 SLP254=

CYVR;2005-02-08 12:00;METAR CYVR 081200Z 11003KT 20SM FEW240 M00/M01 A3027 RMK CI1 SLP252=

CYVR;2005-02-08 13:00;METAR CYVR 081300Z 09004KT 20SM FEW240 M01/M02 A3027 RMK CI1 SLP252=

CYVR;2005-02-08 14:00;METAR CYVR 081400Z 00000KT 15SM FEW240 M01/M02 A3029 RMK CI1 SLP256=

CYVR;2005-02-08 15:00;METAR CYVR 081500Z 10005KT 20SM FEW240 M01/M01 A3029 RMK CI1 FROIN SLP256=

CYVR;2005-02-08 16:00;METAR CYVR 081600Z 07003KT 30SM FEW240 M01/M02 A3030 RMK CI1 FROIN SLP262=

CYVR;2005-02-08 17:00;METAR CYVR 081700Z 12002KT 30SM FEW060 FEW240 02/M00 A3031 RMK SC1CI1 TR SC SLP264=

CYVR;2005-02-08 20:00;METAR CYVR 082000Z 27003KT 30SM FEW060 05/00 A3031 RMK SC1 TR SC SLP265=

CYVR;2005-02-08 21:00;METAR CYVR 082100Z 28008KT 30SM FEW045 05/02 A3031 RMK CF1 CONTRAILS TR CF SLP263=

CYVR;2005-02-08 22:00;METAR CYVR 082200Z 29004KT 30SM FEW120 05/02 A3030 RMK AS1 TR AS SLP259=

CYVR;2005-02-09 00:00;METAR CYVR 090000Z 28003KT 30SM FEW120 05/02 A3030 RMK AS1 HZ CONTRAILS SLP261=

CYVR;2005-02-09 03:00;METAR CYVR 090300Z 35003KT 30SM FEW240 02/01 A3028 RMK CI1 SLP255=

CYVR;2005-02-09 05:00;METAR CYVR 090500Z 00000KT 20SM SCT240 01/M00 A3029 RMK CI2 SLP256=

CYVR;2005-02-09 06:00;METAR CYVR 090600Z 09002KT 20SM BKN220 02/01 A3028 RMK CI2 SLP255=

CYVR;2005-02-09 07:00;METAR CYVR 090700Z 08002KT 20SM BKN220 01/00 A3028 RMK CI3 SLP253=

CYVR;2005-02-09 08:00;METAR CYVR 090800Z 10004KT 20SM BKN170 OVC220 01/00 A3027 RMK AC5CI2 SLP250=

CYVR;2005-02-09 09:00;METAR CYVR 090900Z 31002KT 20SM FEW200 M01/M02 A3029 RMK CI1 SLP257=

CYVR;2005-02-09 10:00;METAR CYVR 091000Z 00000KT 20SM FEW200 M00/M01 A3028 RMK CI1 SLP254=

CYVR;2005-02-09 11:00;METAR CYVR 091100Z 36004KT 20SM BKN180 01/M00 A3029 RMK AS3 SLP256=

CYVR;2005-02-09 12:00;METAR CYVR 091200Z 34002KT 20SM FEW170 SCT240 02/00 A3028 RMK AC2CI1 SLP254=

CYVR;2005-02-09 13:00;METAR CYVR 091300Z 06002KT 20SM SCT170 BKN240 00/M00 A3028 RMK AC3CI0 SLP253=

CYVR;2005-02-09 16:00;METAR CYVR 091600Z 09002KT 20SM FEW030 SCT090 BKN140 01/00 A3030 RMK SC1AC2AC1 SLP262=

CYVR;2005-02-09 17:00;METAR CYVR 091700Z 09002KT 20SM FEW030 BKN090 02/01 A3032 RMK SC1AC5 SLP266=

CYVR;2005-02-09 17:35;SPECI CYVR 091735Z 12002KT 20SM FEW009 FEW030 BKN090 RMK SF1SC1AC2 TR SF=

CYVR;2005-02-09 18:00;METAR CYVR 091800Z 11002KT 20SM FEW011 FEW030 FEW090 05/02 A3032 RMK SF1SC1AC2 TR SF SLP268=

CYVR;2005-02-09 21:00;METAR CYVR 092100Z 25007KT 20SM FEW020 FEW220 06/03 A3031 RMK CF1CI1 SLP263=

CYVR;2005-02-09 22:00;METAR CYVR 092200Z 28005KT 20SM FEW020 FEW240 06/04 A3030 RMK CF1CI1 SLP260=

CYVR;2005-02-09 23:00;METAR CYVR 092300Z 29004KT 30SM FEW240 06/03 A3029 RMK CI1 SLP258=

CYVR;2005-02-10 00:00;METAR CYVR 100000Z 29003KT 30SM FEW240 06/03 A3030 RMK CI1 SLP261=

CYVR;2005-02-10 01:00;METAR CYVR 100100Z 00000KT 30SM SCT240 05/02 A3030 RMK CI2 SLP261=

CYVR;2005-02-10 03:00;METAR CYVR 100300Z 00000KT 20SM FEW240 04/03 A3032 RMK CI2 SLP267=

CYVR;2005-02-10 04:00;METAR CYVR 100400Z 00000KT 20SM FEW240 02/02 A3032 RMK CI1 SLP268=

CYVR;2005-02-10 05:00;METAR CYVR 100500Z 11002KT 20SM FEW220 02/02 A3032 RMK CI1 SLP268=

CYVR;2005-02-10 06:00;METAR CYVR 100600Z 07004KT 15SM MIFG FEW025 FEW220 02/02 A3033 RMK SC1CI0 SLP270=

CYVR;2005-02-10 07:00;METAR CYVR 100700Z 10004KT 15SM FEW220 01/00 A3035 RMK CI1 SLP276=

CYVR;2005-02-10 08:00;METAR CYVR 100800Z 09006KT 15SM FEW220 00/00 A3034 RMK CI1 SLP274=

CYVR;2005-02-10 09:00;METAR CYVR 100900Z 08003KT 15SM FEW220 00/M00 A3035 RMK CI1 SLP277=

CYVR;2005-02-10 10:00;METAR CYVR 101000Z 09003KT 15SM FEW220 02/01 A3034 RMK CI1 SLP274=

CYVR;2005-02-10 11:00;METAR CYVR 101100Z 22002KT 15SM SCT220 00/M00 A3034 RMK CI1 SLP275=

CYVR;2005-02-10 12:00;METAR CYVR 101200Z 11002KT 15SM SCT220 M01/M02 A3032 RMK CI1 SLP269=

CYVR;2005-02-10 13:00;METAR CYVR 101300Z 14005KT 15SM FEW220 M00/M01 A3032 RMK CI1 SLP266=

CYVR;2005-02-10 15:00;METAR CYVR 101500Z 10006KT 15SM FEW100 SCT220 M01/M01 A3030 RMK AC1CI1 FROIN SLP260=

CYVR;2005-02-10 16:00;METAR CYVR 101600Z 01003KT 20SM FEW011 FEW120 BKN230 00/M00 A3030 RMK SF1AC1CI1 SLP259=

CYVR;2005-02-10 18:00;METAR CYVR 101800Z 36002KT 30SM FEW030 SCT150 BKN200 03/01 A3029 RMK SF1AC2CI2 SLP258=

CYVR;2005-02-10 19:00;METAR CYVR 101900Z 00000KT 30SM FEW040 SCT150 BKN210 05/02 A3029 RMK SF1AC2CI3 SLP256=

CYVR;2005-02-10 20:00;METAR CYVR 102000Z 23003KT 30SM FEW060 FEW150 BKN220 05/02 A3026 RMK SC1AC2CI3 SLP248=

CYVR;2005-02-10 21:00;METAR CYVR 102100Z 26003KT 30SM FEW150 BKN220 07/01 A3022 RMK AC1CI2 SLP232=

CYVR;2005-02-10 22:00;METAR CYVR 102200Z 26005KT 30SM FEW150 BKN220 06/01 A3018 RMK AC1CI2 SLP220=

CYVR;2005-02-10 23:00;METAR CYVR 102300Z 28005KT 30SM FEW140 BKN220 06/01 A3016 RMK AC1CI6 SLP213=

CYVR;2005-02-11 00:00;METAR CYVR 110000Z 29003KT 30SM FEW140 BKN210 05/03 A3014 RMK AC1CI6 SLP206=

CYVR;2005-02-11 02:00;METAR CYVR 110200Z 30006KT 20SM FEW150 BKN200 04/02 A3009 RMK AC2CI4 SLP188=

CYVR;2005-02-11 04:00;METAR CYVR 110400Z 31007KT 15SM BKN230 04/03 A3007 RMK CI3 SLP183=

CYVR;2005-02-11 05:00;METAR CYVR 110500Z 28005KT 15SM BKN230 03/02 A3005 RMK CI2 SLP177=

CYVR;2005-02-11 09:00;METAR CYVR 110900Z 00000KT 15SM SCT220 03/01 A2999 RMK CI2 SLP155=

CYVR;2005-02-11 10:00;METAR CYVR 111000Z 09004KT 15SM FEW220 01/00 A2997 RMK CI1 SLP150=

CYVR;2005-02-11 11:00;METAR CYVR 111100Z 10003KT 15SM MIFG FEW220 M00/M00 A2995 RMK CI1 SLP142=

CYVR;2005-02-11 12:00;METAR CYVR 111200Z 07004KT 15SM FEW220 M01/M01 A2992 RMK CI1 SLP133=

CYVR;2005-02-11 13:00;METAR CYVR 111300Z 10006KT 15SM FEW220 M02/M02 A2991 RMK CI1 SLP127=

CYVR;2005-02-11 14:00;METAR CYVR 111400Z 07002KT 15SM MIFG FEW220 M01/M01 A2988 RMK CI1 FROIN SLP120=

CYVR;2005-02-11 15:00;METAR CYVR 111500Z 16002KT 30SM MIFG FEW220 M01/M01 A2987 RMK CI1 SLP115=

CYVR;2005-02-11 16:00;METAR CYVR 111600Z 10002KT 30SM FEW110 SCT240 M01/M01 A2986 RMK AC1CI1 SLP113=

CYVR;2005-02-11 18:00;METAR CYVR 111800Z 14002KT 30SM FEW240 05/02 A2986 RMK CI1 SLP111=

CYVR;2005-02-11 19:00;METAR CYVR 111900Z 18002KT 30SM FEW240 07/02 A2985 RMK CI0 SLP109=

CYVR;2005-02-11 21:00;METAR CYVR 112100Z 10006KT 30SM SKC 11/M01 A2979 RMK SLP088=

CYVR;2005-02-11 22:00;METAR CYVR 112200Z 12006KT 30SM FEW240 12/M00 A2976 RMK CI1 SLP079=

CYVR;2005-02-11 23:00;METAR CYVR 112300Z 23004KT 30SM SCT230 09/03 A2975 RMK CI2 SLP074=

CYVR;2005-02-12 00:00;METAR CYVR 120000Z 11003KT 30SM SCT220 12/02 A2974 RMK CI1 SLP072=

CYVR;2005-02-12 01:00;METAR CYVR 120100Z 08004KT 30SM FEW150 BKN200 10/02 A2972 RMK AC1CC3 SLP063=

CYVR;2005-02-12 03:00;METAR CYVR 120300Z 00000KT 20SM BKN150 05/03 A2972 RMK AC3 SLP063=

CYVR;2005-02-12 04:00;METAR CYVR 120400Z 00000KT 20SM BKN160 05/03 A2972 RMK AC2 SLP066=

CYVR;2005-02-12 05:00;METAR CYVR 120500Z 09004KT 20SM SCT170 BKN220 05/02 A2974 RMK AC3CI0 SLP070=

CYVR;2005-02-12 06:00;METAR CYVR 120600Z 08006KT 20SM FEW120 SCT180 BKN220 05/02 A2974 RMK AC2AC1CI1 SLP072=

CYVR;2005-02-12 07:00;METAR CYVR 120700Z 09007KT 20SM BKN095 05/02 A2976 RMK AC6 SLP078=

CYVR;2005-02-12 08:41;SPECI CYVR 120841Z 09003KT 15SM -RA FEW048 OVC070 RMK SC2AC6=

CYVR;2005-02-12 09:00;METAR CYVR 120900Z 08003KT 15SM OVC058 06/02 A2979 RMK SC8 SLP087=

CYVR;2005-02-12 11:00;METAR CYVR 121100Z 09004KT 12SM -RA OVC041 05/03 A2979 RMK SC8 SLP087=

CYVR;2005-02-12 12:00;METAR CYVR 121200Z 06007KT 10SM -RA OVC040 05/04 A2978 RMK SC8 SLP085=

CYVR;2005-02-12 13:00;METAR CYVR 121300Z 09008KT 10SM -RA OVC045 05/04 A2978 RMK SC8 SLP085=

CYVR;2005-02-12 14:00;METAR CYVR 121400Z 08005KT 8SM -RA OVC036 05/05 A2979 RMK SC8 SLP087=

CYVR;2005-02-12 15:00;METAR CYVR 121500Z 08008KT 8SM -RA OVC035 06/05 A2979 RMK SC8 SLP089=

CYVR;2005-02-12 16:00;METAR CYVR 121600Z 07008KT 8SM -RA FEW011 BKN035 BKN050 OVC090 06/06 A2980 RMK SF1SC5SC2AC1 VIS W 20 SLP090=

CYVR;2005-02-12 16:14;SPECI CYVR 121614Z 09007KT 8SM FEW011 BKN034 BKN050 OVC100 RMK SF2SC5SC1AC1 VIS S - W 20=

CYVR;2005-02-12 17:00;METAR CYVR 121700Z 08008KT 15SM FEW010 BKN036 BKN050 OVC100 07/06 A2981 RMK SF1SC5SC1AC1 VIS N - SE 8 SLP094=

CYVR;2005-02-12 17:18;SPECI CYVR 121718Z 08007KT 8SM SCT009 BKN035 OVC050 RMK SF3SC3SC1 VIS HIER S - W=

CYVR;2005-02-12 17:25;SPECI CYVR 121725Z 07007KT 8SM BKN009 BKN035 OVC050 RMK SF5SC2SC1 VIS HIER S - W=

CYVR;2005-02-12 18:00;METAR CYVR 121800Z 10008KT 5SM BR BKN008 BKN012 OVC040 07/07 A2982 RMK SF6SC2SC1 VIS HIER SW SLP099=

CYVR;2005-02-12 18:15;SPECI CYVR 121815Z 12007KT 6SM BR SCT007 SCT012 OVC041 RMK SF3SC1SC4=

CYVR;2005-02-12 21:00;METAR CYVR 122100Z 20006KT 15SM FEW020 BKN049 BKN120 09/04 A2984 RMK CU2SC4AC1 SLP104=

CYVR;2005-02-12 22:00;METAR CYVR 122200Z 21006KT 20SM FEW020TCU SCT048 BKN110 BKN200 09/04 A2984 RMK TCU1SC2AC2CI1 SLP106=

CYVR;2005-02-13 00:00;METAR CYVR 130000Z 00000KT 20SM FEW025 SCT055 BKN210 10/03 A2986 RMK CU2SC2CI1 SLP111=

CYVR;2005-02-13 03:00;METAR CYVR 130300Z 23008KT 15SM SCT062 BKN220 06/02 A2989 RMK SC2CI1 SLP123=

CYVR;2005-02-13 04:00;METAR CYVR 130400Z 21006KT 15SM FEW055 SCT085 06/02 A2991 RMK SC1AC1 SLP127=

CYVR;2005-02-13 05:00;METAR CYVR 130500Z 23008KT 15SM FEW045 FEW085 05/01 A2991 RMK SC1AC0 SLP129=

CYVR;2005-02-13 07:00;METAR CYVR 130700Z 29007KT 15SM BKN055 04/02 A2995 RMK SC2 SLP141=

CYVR;2005-02-13 08:00;METAR CYVR 130800Z 28011KT 15SM FEW015 BKN150 04/02 A2995 RMK SF1AC2 SLP143=

CYVR;2005-02-13 10:00;METAR CYVR 131000Z 28009KT 15SM FEW060 BKN140 04/02 A2997 RMK SC2AC3 SLP150=

CYVR;2005-02-13 12:00;METAR CYVR 131200Z 27012KT 10SM BKN050 BKN140 04/01 A2999 RMK SC5AC2 SLP155=

CYVR;2005-02-13 13:00;METAR CYVR 131300Z 27014G19KT 12SM BKN050 BKN140 04/01 A3000 RMK SC5AC2 SLP159=

CYVR;2005-02-13 14:00;METAR CYVR 131400Z 27015KT 15SM FEW052 04/00 A3001 RMK SC2 SLP163=

CYVR;2005-02-13 15:00;METAR CYVR 131500Z 27017KT 20SM FEW060 FEW220 04/M00 A3002 RMK SC1CI1 SLP167=

CYVR;2005-02-13 16:00;METAR CYVR 131600Z 27014G19KT 20SM FEW040 FEW220 04/M02 A3005 RMK SC1CI1 TR SC SLP175=

CYVR;2005-02-13 17:00;METAR CYVR 131700Z 28014KT 20SM FEW040 FEW220 05/M00 A3007 RMK SC1CI1 SLP182=

CYVR;2005-02-13 19:00;METAR CYVR 131900Z 26012KT 20SM FEW040 SCT220 06/02 A3010 RMK SC2CI1 SLP194=

CYVR;2005-02-13 21:00;METAR CYVR 132100Z 22007KT 20SM SCT040 BKN220 07/01 A3010 RMK SC3CI1 SLP193=

CYVR;2005-02-13 22:00;METAR CYVR 132200Z 24005KT 20SM FEW040 BKN220 07/M01 A3009 RMK SC2CI2 TCU EMBD SLP188=

CYVR;2005-02-14 00:00;METAR CYVR 140000Z 22004KT 20SM FEW040 BKN100 BKN200 07/M04 A3009 RMK SC2AC3CI1 SLP188=

CYVR;2005-02-14 01:00;METAR CYVR 140100Z 22004KT 20SM FEW040 FEW090 SCT200 06/M02 A3009 RMK SC2AC1CI1 SLP188=

CYVR;2005-02-14 02:00;METAR CYVR 140200Z 20003KT 20SM FEW045 SCT090 SCT200 06/M02 A3008 RMK SC2AC2CI1 SLP187=

CYVR;2005-02-14 03:00;METAR CYVR 140300Z 36003KT 20SM FEW045 FEW090 03/M01 A3009 RMK SC1AC2 SLP189=

CYVR;2005-02-14 04:00;METAR CYVR 140400Z 34004KT 30SM FEW060 SCT120 02/M02 A3010 RMK SC2AC0 SLP192=

CYVR;2005-02-14 05:00;METAR CYVR 140500Z 35002KT 30SM FEW045 FEW110 03/M02 A3011 RMK SC2AC0 SLP195=

CYVR;2005-02-14 06:00;METAR CYVR 140600Z 25003KT 30SM FEW025 FEW120 03/M01 A3011 RMK SC2AC1 SLP196=

CYVR;2005-02-14 09:15;SPECI CYVR 140915Z 25003KT 2SM SHPL BKN002 OVC005CB RMK SF5CB3=

CYVR;2005-02-14 09:28;SPECI CYVR 140928Z 30004KT 4SM -SHRAPL BKN003 BKN013CB RMK SF5CB2 CB NW CIG+VIS LWR NW=

CYVR;2005-02-14 09:39;SPECI CYVR 140939Z 30015G21KT 20SM -SHRA SCT002 BKN016CB RMK SF4CB2=

CYVR;2005-02-14 09:53;SPECI CYVR 140953Z 29018G24KT 20SM FEW002 SCT020CB BKN035 BKN120 RMK SF2CB2SC2AC1=

CYVR;2005-02-14 10:37;SPECI CYVR 141037Z 29011G16KT 20SM FEW008 BKN038TCU BKN061 RMK CF2TCU2SC1=

CYVR;2005-02-15 09:00;METAR CYVR 150900Z 09002KT 20SM SKC M00/M01 A3038 RMK SLP288=

CYVR;2005-02-15 10:00;METAR CYVR 151000Z 36004KT 20SM SKC M01/M02 A3038 RMK SLP288=

CYVR;2005-02-15 12:00;METAR CYVR 151200Z 00000KT 20SM SKC M00/M02 A3038 RMK FROIN SLP289=

CYVR;2005-02-15 13:00;METAR CYVR 151300Z 14002KT 20SM SKC M00/M02 A3038 RMK FROIN SLP288=

CYVR;2005-02-15 15:00;METAR CYVR 151500Z 09004KT 20SM BKN034 M00/M01 A3040 RMK SC6 SLP295=

CYVR;2005-02-15 16:00;METAR CYVR 151600Z 03005KT 20SM FEW035 M01/M02 A3042 RMK SC2 SLP300=

CYVR;2005-02-15 17:00;METAR CYVR 151700Z 09004KT 20SM BKN037 01/M01 A3044 RMK SC6 SLP308=

CYVR;2005-02-15 18:00;METAR CYVR 151800Z 19002KT 20SM FEW035 03/M01 A3043 RMK SC2 SLP306=

CYVR;2005-02-15 19:00;METAR CYVR 151900Z 27004KT 20SM FEW035 04/M00 A3044 RMK SC2 SLP307=

CYVR;2005-02-15 20:00;METAR CYVR 152000Z 28006KT 20SM FEW035 04/00 A3043 RMK SC1 SLP304=

CYVR;2005-02-15 21:00;METAR CYVR 152100Z 29008KT 20SM FEW035 04/M02 A3041 RMK SC1 TR SC SLP299=

CYVR;2005-02-15 22:00;METAR CYVR 152200Z 29012KT 20SM SKC 05/02 A3040 RMK SLP296=

CYVR;2005-02-15 23:00;METAR CYVR 152300Z 29011KT 20SM SKC 05/00 A3039 RMK SLP292=

CYVR;2005-02-16 00:00;METAR CYVR 160000Z 30011KT 20SM SKC 05/02 A3039 RMK SLP290=

CYVR;2005-02-16 01:00;METAR CYVR 160100Z 31012KT 20SM SKC 04/01 A3037 RMK SLP286=

CYVR;2005-02-16 03:00;METAR CYVR 160300Z 31004KT 20SM SKC 03/M00 A3038 RMK SLP288=

CYVR;2005-02-16 04:00;METAR CYVR 160400Z 35004KT 20SM SKC 02/M01 A3038 RMK SLP288=

CYVR;2005-02-16 05:00;METAR CYVR 160500Z 36003KT 20SM SKC 02/M02 A3039 RMK SLP291=

CYVR;2005-02-16 06:00;METAR CYVR 160600Z 29002KT 20SM SKC 02/M01 A3039 RMK SLP291=

CYVR;2005-02-16 08:00;METAR CYVR 160800Z 12006KT 20SM SKC 00/M02 A3040 RMK SLP294=

CYVR;2005-02-16 09:00;METAR CYVR 160900Z 00000KT 20SM SKC M00/M03 A3040 RMK SLP295=

CYVR;2005-02-16 10:00;METAR CYVR 161000Z 02004KT 20SM SKC M02/M04 A3039 RMK FROIN SLP292=

CYVR;2005-02-16 13:00;METAR CYVR 161300Z 11003KT 20SM SKC M01/M03 A3039 RMK FROIN SLP290=

CYVR;2005-02-16 14:00;METAR CYVR 161400Z 05003KT 20SM SKC M03/M04 A3039 RMK FROIN SLP290=

CYVR;2005-02-16 15:00;METAR CYVR 161500Z 00000KT 20SM FEW240 M02/M03 A3037 RMK CI1 SLP284=

CYVR;2005-02-16 16:00;METAR CYVR 161600Z 00000KT 20SM FEW240 M01/M03 A3038 RMK CI0 SLP289=

CYVR;2005-02-16 17:00;METAR CYVR 161700Z 08004KT 20SM FEW240 01/M01 A3039 RMK CI0 SLP290=

CYVR;2005-02-16 18:00;METAR CYVR 161800Z 10002KT 20SM FEW240 04/M01 A3039 RMK CS0 SLP290=

CYVR;2005-02-16 19:00;METAR CYVR 161900Z 00000KT 20SM FEW240 05/M02 A3038 RMK CS1 TR CS SLP289=

CYVR;2005-02-16 21:00;METAR CYVR 162100Z 29005KT 20SM FEW240 06/M00 A3035 RMK CS0 SLP279=

CYVR;2005-02-16 22:00;METAR CYVR 162200Z 26004KT 20SM FEW240 07/00 A3033 RMK CS1 TR CS SLP270=

CYVR;2005-02-17 00:00;METAR CYVR 170000Z 29004KT 20SM FEW240 06/M01 A3030 RMK CS0 SLP261=

CYVR;2005-02-17 01:00;METAR CYVR 170100Z 31005KT 20SM SCT240 04/00 A3029 RMK CS0 SLP258=

CYVR;2005-02-17 02:00;METAR CYVR 170200Z 31005KT 20SM FEW240 02/M00 A3029 RMK CS0 SLP256=

CYVR;2005-02-17 04:00;METAR CYVR 170400Z 34003KT 20SM SKC 02/M00 A3029 RMK SLP256=

CYVR;2005-02-17 06:00;METAR CYVR 170600Z 00000KT 20SM SKC 00/M02 A3029 RMK SLP256=

CYVR;2005-02-17 10:00;METAR CYVR 171000Z 34003KT 20SM SKC 00/M02 A3027 RMK FROIN SLP250=

CYVR;2005-02-17 12:00;METAR CYVR 171200Z 10006KT 20SM SKC M03/M03 A3025 RMK FROIN SLP244=

CYVR;2005-02-17 13:00;METAR CYVR 171300Z 09003KT 20SM SKC M01/M02 A3025 RMK FROIN SLP244=

CYVR;2005-02-17 14:00;METAR CYVR 171400Z 01002KT 20SM SKC M02/M03 A3025 RMK FROIN SLP243=

CYVR;2005-02-17 15:00;METAR CYVR 171500Z 02004KT 30SM SKC M01/M02 A3025 RMK SLP243=

CYVR;2005-02-17 16:00;METAR CYVR 171600Z 00000KT 30SM SKC M00/M02 A3026 RMK SLP246=

CYVR;2005-02-17 18:00;METAR CYVR 171800Z 27004KT 30SM SKC 04/02 A3025 RMK SLP243=

CYVR;2005-02-17 21:00;METAR CYVR 172100Z 29010KT 30SM SKC 06/03 A3021 RMK SLP231=

CYVR;2005-02-17 22:00;METAR CYVR 172200Z 30009KT 30SM SKC 07/03 A3019 RMK SLP223=

CYVR;2005-02-17 23:00;METAR CYVR 172300Z 30008KT 30SM SKC 07/04 A3017 RMK SLP217=

CYVR;2005-02-18 00:00;METAR CYVR 180000Z 28006KT 30SM FEW220 07/03 A3015 RMK CI1 SLP210=

CYVR;2005-02-18 04:00;METAR CYVR 180400Z 00000KT 20SM FEW220 04/03 A3011 RMK CI1 SLP198=

CYVR;2005-02-18 05:00;METAR CYVR 180500Z 00000KT 20SM MIFG FEW220 03/02 A3010 RMK CI2 SLP193=

CYVR;2005-02-18 06:00;METAR CYVR 180600Z 32004KT 20SM MIFG SCT240 02/02 A3010 RMK CI2 SLP194=

CYVR;2005-02-18 07:00;METAR CYVR 180700Z 34003KT 20SM BKN240 01/01 A3010 RMK CI2 SLP193=

CYVR;2005-02-18 10:00;METAR CYVR 181000Z 10002KT 20SM FEW240 M01/M01 A3007 RMK CI1 SLP183=

CYVR;2005-02-18 11:00;METAR CYVR 181100Z 00000KT 20SM FEW240 M00/M00 A3005 RMK CI0 SLP176=

CYVR;2005-02-18 12:00;METAR CYVR 181200Z 10003KT 20SM FEW240 M01/M02 A3004 RMK CI0 FROIN SLP171=

CYVR;2005-02-18 13:00;METAR CYVR 181300Z 00000KT 20SM FEW240 M01/M02 A3003 RMK CI0 SLP168=

CYVR;2005-02-18 14:00;METAR CYVR 181400Z 09002KT 20SM FEW240 M01/M02 A3001 RMK CI1 SLP162=

CYVR;2005-02-18 16:00;METAR CYVR 181600Z 17002KT 30SM BKN240 01/M00 A2999 RMK CI2 SLP157=

CYVR;2005-02-18 17:00;METAR CYVR 181700Z 09004KT 30SM BKN240 01/M00 A2998 RMK CI2 SLP153=

CYVR;2005-02-18 19:00;METAR CYVR 181900Z 09003KT 30SM FEW240 06/M00 A2995 RMK CI1 SLP141=

CYVR;2005-02-18 20:00;METAR CYVR 182000Z 14002KT 30SM FEW240 08/M00 A2992 RMK CI1 SLP133=

CYVR;2005-02-18 21:00;METAR CYVR 182100Z 27008KT 30SM FEW240 06/03 A2989 RMK CI1 SLP123=

CYVR;2005-02-18 22:00;METAR CYVR 182200Z 29007KT 30SM FEW240 06/01 A2986 RMK CI0 SLP111=

CYVR;2005-02-19 00:00;METAR CYVR 190000Z 29004KT 30SM FEW240 07/00 A2981 RMK CI0 SLP096=

CYVR;2005-02-19 01:00;METAR CYVR 190100Z 25006KT 30SM SKC 05/03 A2978 RMK SLP085=

CYVR;2005-02-19 03:00;METAR CYVR 190300Z 03004KT 30SM SKC 03/02 A2975 RMK SLP075=

CYVR;2005-02-19 04:00;METAR CYVR 190400Z 00000KT 30SM SKC 03/02 A2973 RMK SLP068=

CYVR;2005-02-19 08:00;METAR CYVR 190800Z 08002KT 30SM SKC 01/00 A2972 RMK SLP063=

CYVR;2005-02-19 10:00;METAR CYVR 191000Z 00000KT 30SM SKC M00/M01 A2973 RMK SLP067=

CYVR;2005-02-19 12:00;METAR CYVR 191200Z 01005KT 30SM SKC M01/M02 A2972 RMK FROIN SLP066=

CYVR;2005-02-19 14:00;METAR CYVR 191400Z 00000KT 30SM FEW020 M02/M03 A2973 RMK SC1 FROIN SLP068=

CYVR;2005-02-19 15:00;METAR CYVR 191500Z 09003KT 30SM FEW090 M01/M02 A2974 RMK AC1 SLP072=

CYVR;2005-02-19 16:00;METAR CYVR 191600Z 11006KT 30SM FEW090 M01/M02 A2976 RMK AC1 SLP079=

CYVR;2005-02-19 17:00;METAR CYVR 191700Z 10004KT 30SM SCT090 02/M00 A2978 RMK AC1 SLP084=

CYVR;2005-02-19 18:00;METAR CYVR 191800Z 00000KT 30SM BKN090 04/01 A2978 RMK AC3 SLP085=

CYVR;2005-02-19 19:00;METAR CYVR 191900Z 23006KT 30SM FEW090 05/01 A2979 RMK AC0 SLP087=

CYVR;2005-02-19 20:00;METAR CYVR 192000Z 29010KT 30SM FEW035 06/03 A2978 RMK CF1 SLP085=

CYVR;2005-02-19 21:00;METAR CYVR 192100Z 29013KT 30SM FEW040 07/03 A2978 RMK CF1 SLP085=

CYVR;2005-02-19 22:00;METAR CYVR 192200Z 29011KT 30SM FEW040 FEW240 07/03 A2978 RMK CF1CI0 SLP084=

CYVR;2005-02-20 00:00;METAR CYVR 200000Z 30010KT 30SM FEW060 FEW200 07/01 A2978 RMK SC1CI0 SLP086=

CYVR;2005-02-20 02:00;METAR CYVR 200200Z 32006KT 30SM FEW065 04/01 A2980 RMK SC1 SC TR SLP093=

CYVR;2005-02-20 09:00;METAR CYVR 200900Z 14003KT 30SM SKC 03/M05 A2990 RMK SLP124=

CYVR;2005-02-20 10:00;METAR CYVR 201000Z 08003KT 30SM SKC 02/M06 A2990 RMK SLP125=

CYVR;2005-02-20 12:00;METAR CYVR 201200Z 00000KT 30SM SKC M02/M05 A2992 RMK FROIN SLP132=

CYVR;2005-02-20 13:00;METAR CYVR 201300Z 00000KT 30SM SKC M02/M06 A2993 RMK SLP136=

CYVR;2005-02-20 14:00;METAR CYVR 201400Z 11005KT 30SM SKC M00/M05 A2994 RMK SLP140=

CYVR;2005-02-20 15:00;METAR CYVR 201500Z 23003KT 30SM SKC M02/M06 A2996 RMK SLP146=

CYVR;2005-02-20 16:00;METAR CYVR 201600Z 10002KT 30SM SKC M00/M05 A2998 RMK SLP151=

CYVR;2005-02-20 17:00;METAR CYVR 201700Z 27002KT 30SM SKC 04/M03 A2999 RMK SLP156=

CYVR;2005-02-20 18:00;METAR CYVR 201800Z 31008KT 30SM SKC 06/M01 A2999 RMK SLP157=

CYVR;2005-02-20 19:00;METAR CYVR 201900Z 32010KT 30SM SKC 08/M03 A3000 RMK SLP160=

CYVR;2005-02-20 20:00;METAR CYVR 202000Z 28010KT 30SM SKC 07/M01 A3001 RMK SLP163=

CYVR;2005-02-20 21:00;METAR CYVR 202100Z 28010KT 30SM SKC 08/02 A3000 RMK SLP160=

CYVR;2005-02-20 22:00;METAR CYVR 202200Z 28010KT 30SM FEW220 08/02 A3000 RMK CI1 SLP160=

CYVR;2005-02-20 23:00;METAR CYVR 202300Z 28006KT 30SM FEW220 08/03 A3001 RMK CI1 SLP161=

CYVR;2005-02-21 00:00;METAR CYVR 210000Z 28007KT 30SM FEW220 08/01 A3001 RMK CI0 SLP162=

CYVR;2005-02-21 01:00;METAR CYVR 210100Z 30004KT 30SM FEW220 06/02 A3001 RMK CI0 SLP162=

CYVR;2005-02-21 02:00;METAR CYVR 210200Z 00000KT 30SM FEW220 05/03 A3002 RMK CI0 SLP165=

CYVR;2005-02-21 03:00;METAR CYVR 210300Z 00000KT 30SM FEW220 05/03 A3003 RMK CI0 SLP169=

CYVR;2005-02-21 04:00;METAR CYVR 210400Z 26004KT 30SM FEW220 02/M00 A3004 RMK CI0 SLP173=

CYVR;2005-02-21 05:00;METAR CYVR 210500Z 08002KT 30SM FEW210 02/01 A3006 RMK CI1 SLP180=

CYVR;2005-02-21 06:00;METAR CYVR 210600Z 02002KT 30SM FEW210 01/00 A3008 RMK CI0 SLP187=

CYVR;2005-02-21 10:00;METAR CYVR 211000Z 09003KT 30SM FEW220 M02/M04 A3015 RMK CI1 SLP209=

CYVR;2005-02-21 11:00;METAR CYVR 211100Z 00000KT 30SM FEW220 M01/M02 A3015 RMK CI1 SLP211=

CYVR;2005-02-21 12:00;METAR CYVR 211200Z 00000KT 30SM FEW220 M02/M04 A3015 RMK CI1 SLP210=

CYVR;2005-02-21 13:00;METAR CYVR 211300Z 00000KT 30SM FEW220 M02/M04 A3016 RMK CI0 SLP212=

CYVR;2005-02-21 14:00;METAR CYVR 211400Z 13002KT 30SM FEW220 M02/M04 A3016 RMK CI0 SLP214=

CYVR;2005-02-21 16:00;METAR CYVR 211600Z 12002KT 30SM FEW240 M01/M04 A3018 RMK CI0 FROIN SLP219=

CYVR;2005-02-21 18:00;METAR CYVR 211800Z 00000KT 30SM SKC 05/M01 A3019 RMK SLP222=

CYVR;2005-02-21 19:00;METAR CYVR 211900Z 28009KT 30SM SKC 06/M01 A3019 RMK SLP222=

CYVR;2005-02-23 00:00;METAR CYVR 230000Z 29006KT 30SM OVC220 07/04 A3021 RMK CI3 SLP229=

CYVR;2005-02-23 01:00;METAR CYVR 230100Z 29005KT 30SM OVC220 06/04 A3019 RMK CI2 SLP225=

CYVR;2005-02-23 02:00;METAR CYVR 230200Z 31004KT 30SM BKN220 05/04 A3020 RMK CI1 SLP226=

CYVR;2005-02-23 04:00;METAR CYVR 230400Z 31002KT 30SM FEW220 04/02 A3020 RMK CI1 SLP227=

CYVR;2005-02-23 05:00;METAR CYVR 230500Z 00000KT 30SM FEW220 04/03 A3021 RMK CI1 SLP229=

CYVR;2005-02-23 06:00;METAR CYVR 230600Z 00000KT 20SM SKC 03/03 A3021 RMK SLP230=

CYVR;2005-02-23 07:00;METAR CYVR 230700Z 35003KT 20SM SKC 02/M00 A3021 RMK SLP231=

CYVR;2005-02-23 08:00;METAR CYVR 230800Z 00000KT 20SM SKC 02/M00 A3021 RMK SLP230=

CYVR;2005-02-23 10:00;METAR CYVR 231000Z 00000KT 20SM SKC 00/M00 A3021 RMK SLP230=

CYVR;2005-02-23 11:00;METAR CYVR 231100Z 29002KT 20SM SKC M01/M02 A3020 RMK SLP227=

CYVR;2005-02-23 12:00;METAR CYVR 231200Z 10004KT 20SM SKC M01/M02 A3020 RMK SLP227=

CYVR;2005-02-23 13:00;METAR CYVR 231300Z 08003KT 20SM FEW220 M01/M02 A3020 RMK CI1 SLP227=

CYVR;2005-02-23 14:00;METAR CYVR 231400Z 08002KT 20SM FEW220 M01/M01 A3020 RMK CI1 FROIN SLP227=

CYVR;2005-02-23 15:00;METAR CYVR 231500Z 11003KT 20SM FEW220 M01/M01 A3019 RMK CI1 FROIN VIS LWR NW SLP225=

CYVR;2005-02-23 16:00;METAR CYVR 231600Z 11002KT 20SM FEW220 00/M01 A3020 RMK CI1 SLP228=

CYVR;2005-02-23 17:00;METAR CYVR 231700Z 00000KT 20SM FEW220 04/02 A3021 RMK CI0 SLP229=

CYVR;2005-02-23 18:00;METAR CYVR 231800Z 30003KT 30SM FEW220 06/04 A3020 RMK CI0 SLP226=

CYVR;2005-02-23 19:00;METAR CYVR 231900Z 29006KT 30SM FEW220 07/04 A3019 RMK CI0 SLP223=

CYVR;2005-02-23 20:00;METAR CYVR 232000Z 29008KT 30SM FEW220 08/05 A3018 RMK CI0 SLP220=

CYVR;2005-02-23 22:00;METAR CYVR 232200Z 28006KT 30SM FEW220 08/05 A3014 RMK CI0 HZ SLP206=

CYVR;2005-02-24 00:00;METAR CYVR 240000Z 30005KT 30SM FEW220 09/02 A3011 RMK CI0 HZ SLP195=

CYVR;2005-02-24 01:00;METAR CYVR 240100Z 34002KT 30SM FEW220 09/00 A3009 RMK CI0 HZ SLP188=

CYVR;2005-02-24 03:00;METAR CYVR 240300Z 33004KT 30SM SKC 05/04 A3009 RMK SLP188=

CYVR;2005-02-24 04:00;METAR CYVR 240400Z 01004KT 30SM FEW220 05/03 A3009 RMK CI1 SLP188=

CYVR;2005-02-24 06:00;METAR CYVR 240600Z 33004KT 30SM FEW220 03/03 A3010 RMK CI1 SLP194=

CYVR;2005-02-24 10:00;METAR CYVR 241000Z 09003KT 20SM SKC 01/M01 A3011 RMK SLP196=

CYVR;2005-02-24 11:00;METAR CYVR 241100Z 00000KT 20SM SKC 01/M01 A3011 RMK SLP195=

CYVR;2005-02-24 12:00;METAR CYVR 241200Z 00000KT 15SM SKC 01/M01 A3011 RMK SLP195=

CYVR;2005-02-24 13:00;METAR CYVR 241300Z 02002KT 20SM SKC M01/M02 A3012 RMK SLP199=

CYVR;2005-02-24 15:00;METAR CYVR 241500Z 09002KT 20SM FEW220 01/M01 A3012 RMK CI0 VIS LWR NW SLP201=

CYVR;2005-02-24 16:00;METAR CYVR 241600Z 24005KT 20SM FEW220 01/M00 A3014 RMK CI0 SLP206=

CYVR;2005-02-24 18:00;METAR CYVR 241800Z 00000KT 30SM SKC 09/01 A3015 RMK SLP211=

CYVR;2005-02-24 22:00;METAR CYVR 242200Z 28004KT 30SM SKC 11/02 A3010 RMK HZ SLP194=

CYVR;2005-02-24 23:00;METAR CYVR 242300Z 28005KT 30SM SKC 10/03 A3009 RMK HZ SLP190=

CYVR;2005-02-25 00:00;METAR CYVR 250000Z 26003KT 30SM SKC 10/03 A3008 RMK HZ SLP187=

CYVR;2005-02-25 02:00;METAR CYVR 250200Z 32004KT 20SM FEW150 07/01 A3007 RMK AS1 HZ SLP183=

CYVR;2005-02-25 03:00;METAR CYVR 250300Z 34003KT 20SM FEW150 07/01 A3007 RMK AS1 SLP184=

CYVR;2005-02-25 04:00;METAR CYVR 250400Z 36002KT 20SM SKC 06/01 A3007 RMK SLP184=

CYVR;2005-02-25 05:00;METAR CYVR 250500Z 00000KT 20SM SKC 06/01 A3007 RMK SLP184=

CYVR;2005-02-25 06:00;METAR CYVR 250600Z 09004KT 20SM SKC 05/00 A3007 RMK SLP184=

CYVR;2005-02-25 09:00;METAR CYVR 250900Z 08004KT 20SM BKN100 05/03 A3008 RMK AC5 SLP186=

CYVR;2005-02-25 10:00;METAR CYVR 251000Z 08002KT 15SM BKN100 03/01 A3009 RMK AC6 SLP188=

CYVR;2005-02-25 11:00;METAR CYVR 251100Z 09005KT 15SM BKN100 03/00 A3008 RMK AC6 SLP186=

CYVR;2005-02-25 12:00;METAR CYVR 251200Z 10009KT 15SM BKN100 03/00 A3007 RMK AC7 SLP184=

CYVR;2005-02-25 13:00;METAR CYVR 251300Z 11007KT 15SM SCT082 OVC100 06/02 A3008 RMK AC3AC5 SLP185=

CYVR;2005-02-25 14:00;METAR CYVR 251400Z 09005KT 15SM SCT080 BKN110 04/01 A3008 RMK AC3AC4 SLP186=

CYVR;2005-02-25 15:00;METAR CYVR 251500Z 09007KT 20SM FEW080 BKN110 04/01 A3008 RMK AC2AC5 SLP186=

CYVR;2005-02-25 16:00;METAR CYVR 251600Z 08008KT 20SM SCT085 BKN220 05/01 A3010 RMK AC3CI1 SLP192=

CYVR;2005-02-25 17:00;METAR CYVR 251700Z 09009KT 20SM SCT012 BKN085 07/04 A3011 RMK SC4AC2 SLP196=

CYVR;2005-02-25 18:00;METAR CYVR 251800Z 10009KT 20SM BKN011 08/05 A3011 RMK SC7 SLP197=

CYVR;2005-02-25 19:00;METAR CYVR 251900Z 11008KT 12SM OVC014 09/06 A3011 RMK SC8 SLP198=

CYVR;2005-02-25 22:00;METAR CYVR 252200Z 15009KT 20SM FEW018 10/06 A3007 RMK CU2 SLP183=

CYVR;2005-02-26 00:00;METAR CYVR 260000Z 16005KT 20SM SCT220 10/05 A3005 RMK CI3 SLP177=

CYVR;2005-02-26 03:00;METAR CYVR 260300Z 13002KT 12SM SCT220 07/05 A3004 RMK CI2 SLP174=

CYVR;2005-02-26 04:00;METAR CYVR 260400Z 00000KT 12SM SCT220 06/04 A3005 RMK CI2 SLP175=

CYVR;2005-02-26 11:00;METAR CYVR 261100Z 00000KT 15SM MIFG SCT220 02/01 A3004 RMK CI2 SLP172=

CYVR;2005-02-26 12:00;METAR CYVR 261200Z 00000KT 10SM MIFG SCT220 01/01 A3003 RMK CI2 VIS NE-SE 11/2 SLP169=

CYVR;2005-02-26 12:11;SPECI CYVR 261211Z 00000KT 2SM BR SCT220 RMK FG3CI0=

CYVR;2005-02-26 12:23;SPECI CYVR 261223Z 00000KT 12SM MIFG FEW220 RMK CI2 VIS E-SE 11/2=

CYVR;2005-02-26 14:45;SPECI CYVR 261445Z 00000KT 1/2SM FG BKN220 RMK FG4CI0=

CYVR;2005-02-26 15:00;METAR CYVR 261500Z 00000KT 1/2SM FG SKC 01/01 A3003 RMK FG5 SLP170=

CYVR;2005-02-26 15:23;SPECI CYVR 261523Z 35003KT 1/4SM FG SKC RMK FG7=

CYVR;2005-02-26 15:38;SPECI CYVR 261538Z 00000KT 1/8SM FG VV001 RMK FG8=

CYVR;2005-02-26 16:00;METAR CYVR 261600Z 00000KT 0SM FG VV001 02/02 A3005 RMK FG8 SLP175=

CYVR;2005-02-26 18:00;METAR CYVR 261800Z 29003KT 0SM FG VV001 04/04 A3005 RMK FG8 SLP175=

CYVR;2005-02-26 19:00;METAR CYVR 261900Z 29005KT 1/8SM FG VV001 05/05 A3004 RMK FG8 SLP173=

CYVR;2005-02-26 19:44;SPECI CYVR 261944Z 29006KT 3/8SM FG VV001 RMK FG8=

CYVR;2005-02-26 20:17;SPECI CYVR 262017Z 31007KT 1SM BR OVC003 RMK FG6SF2=

CYVR;2005-02-26 20:33;SPECI CYVR 262033Z 31005KT 1/2SM FG OVC002 RMK FG7SF1=

CYVR;2005-02-26 21:00;METAR CYVR 262100Z 29007KT 1/2SM FG OVC002 06/06 A3000 RMK FG6SF2 SLP160=

CYVR;2005-02-26 21:51;SPECI CYVR 262151Z 31008KT 2SM BR BKN003 RMK FG3SF4=

CYVR;2005-02-26 22:00;METAR CYVR 262200Z 29007KT 2SM BR BKN003 06/06 A2998 RMK FG2SF5 SLP152=

CYVR;2005-02-26 22:23;SPECI CYVR 262223Z 29008KT 1/2SM FG BKN003 RMK FG4SF3=

CYVR;2005-02-26 23:00;METAR CYVR 262300Z 29009KT 1/2SM FG VV001 05/05 A2997 RMK FG8 SLP148=

CYVR;2005-02-26 23:41;SPECI CYVR 262341Z 29010KT 3/8SM FG VV001 RMK FG8=

CYVR;2005-02-27 00:00;METAR CYVR 270000Z 31008KT 1/4SM FG VV001 05/05 A2996 RMK FG8 SLP145=

CYVR;2005-02-27 00:36;SPECI CYVR 270036Z 30008KT 1/8SM FG VV001 RMK FG8=

CYVR;2005-02-27 01:00;METAR CYVR 270100Z 29009KT 1/8SM FG VV001 05/05 A2995 RMK FG8 SLP142=

CYVR;2005-02-27 02:00;METAR CYVR 270200Z 29007KT 1/8SM FG VV001 05/05 A2994 RMK FG8 SLP140=

CYVR;2005-02-27 04:00;METAR CYVR 270400Z 31006KT 1/8SM FG VV001 05/05 A2995 RMK FG8 SLP143=

CYVR;2005-02-27 06:00;METAR CYVR 270600Z 36002KT 1/8SM FG VV001 04/04 A2998 RMK FG8 SLP152=

CYVR;2005-02-27 10:00;METAR CYVR 271000Z 02003KT 1/8SM FG VV001 04/04 A3002 RMK FG8 SLP166=

CYVR;2005-02-27 12:00;METAR CYVR 271200Z 11003KT 1/4SM FG SKC 01/01 A3002 RMK FG6 SLP166=

CYVR;2005-02-27 12:19;SPECI CYVR 271219Z 11005KT 1/2SM FG SKC RMK FG6=

CYVR;2005-02-27 13:00;METAR CYVR 271300Z 16003KT 1/4SM FG SKC 01/01 A3003 RMK FG6 SLP168=

CYVR;2005-02-27 14:00;METAR CYVR 271400Z 00000KT 1/4SM FG VV001 01/01 A3003 RMK FG8 SLP168=

CYVR;2005-02-27 14:48;SPECI CYVR 271448Z 34002KT 1/8SM FG VV001 RMK FG8=

CYVR;2005-02-27 15:00;METAR CYVR 271500Z 01002KT 1/8SM FG VV001 01/01 A3003 RMK FG8 SLP169=

CYVR;2005-02-27 15:53;SPECI CYVR 271553Z 36003KT 1/4SM FG SKC RMK FG6=

CYVR;2005-02-27 16:00;METAR CYVR 271600Z 36003KT 1/2SM FG SKC 01/01 A3001 RMK FG6 SLP163=

CYVR;2005-02-27 16:30;SPECI CYVR 271630Z 25003KT 1/4SM FG BKN002 RMK FG6CF1=

CYVR;2005-02-27 17:23;SPECI CYVR 271723Z 27004KT 1/4SM FG VV001 RMK FG8=

CYVR;2005-02-27 18:38;SPECI CYVR 271838Z 26006KT 1/4SM FG OVC002 RMK FG6SF1=

CYVR;2005-02-27 19:00;METAR CYVR 271900Z 29008KT 1/2SM FG OVC002 04/04 A3001 RMK FG6SF1 SLP162=

CYVR;2005-02-27 19:14;SPECI CYVR 271914Z 29006KT 3/4SM BR BKN003 RMK FG5SF1=

CYVR;2005-02-27 19:25;SPECI CYVR 271925Z 31005KT 1 1/2SM BR BKN003 RMK FG5SF2=

CYVR;2005-02-27 19:33;SPECI CYVR 271933Z 30004KT 1/2SM FG BKN002 RMK FG6SF1 VIS NE - E 4=

CYVR;2005-02-27 19:44;SPECI CYVR 271944Z 30004KT 3/4SM BR BKN002 RMK FG6SF1 VIS NE - E 6=

CYVR;2005-02-27 20:43;SPECI CYVR 272043Z 31004KT 1SM BR BKN003 RMK FG5SF2 VIS N - NE 15=

CYVR;2005-02-27 20:54;SPECI CYVR 272054Z 27004KT 3SM BR BKN004 RMK FG4SF1 VIS S - W 3/4=

CYVR;2005-02-27 22:00;METAR CYVR 272200Z 29007KT 1 1/2SM BR BKN004 BKN120 06/06 A2995 RMK FG4SF1AC1 VIS N - E 15 SLP141=

CYVR;2005-02-27 22:30;SPECI CYVR 272230Z 29009KT 3SM BR FEW002 SCT004 BKN120 RMK SF2SF2AC1 VIS N - E 15=

CYVR;2005-02-27 22:38;SPECI CYVR 272238Z 30008KT 15SM PRFG FEW002 FEW005 SCT120 RMK SF1SF1AC1 VIS SE - SW 1 DUE FG BNK=

CYVR;2005-02-27 23:00;METAR CYVR 272300Z 30009KT 20SM FEW007 FEW120 FEW240 08/07 A2993 RMK SF1AC1CI0 SLP135=

CYVR;2005-02-28 01:00;METAR CYVR 280100Z 29008KT 15SM VCFG FEW004 SCT240 06/06 A2990 RMK SF1CI2 VIS S - W LWR SLP125=

CYVR;2005-02-28 01:35;SPECI CYVR 280135Z 32009KT 15SM PRFG FEW004 SCT240 RMK SF1CI2 VIS SW - NW 3/4 DUE FG BNK=

CYVR;2005-02-28 01:56;SPECI CYVR 280156Z 29009KT 3/4SM BR BKN003 BKN240 RMK FG3SF2CI1=

CYVR;2005-02-28 02:32;SPECI CYVR 280232Z 28005KT 1SM BR BKN240 RMK FG3CI0 VIS NW-NE 12=

CYVR;2005-02-28 03:00;METAR CYVR 280300Z 32006KT 1SM BR BKN210 05/05 A2987 RMK FG3CI1 VIS NW-NE 12 SLP114=

CYVR;2005-02-28 03:18;SPECI CYVR 280318Z 30006KT 1/2SM FG BKN210 RMK FG6CI0=

CYVR;2005-02-28 03:36;SPECI CYVR 280336Z 27006KT 1/2SM FG VV001 RMK FG8 VSBY VRBL 3/4-1=

CYVR;2005-02-28 03:52;SPECI CYVR 280352Z 28008KT 2SM BR SCT210 RMK FG2CI0 VIS NW-NE 15=

CYVR;2005-02-28 04:00;METAR CYVR 280400Z 29007KT 1SM BR VV001 05/05 A2986 RMK FG8 VSBY VRBL 1/4-13/4 SLP111=

CYVR;2005-02-28 04:16;SPECI CYVR 280416Z 30006KT 12SM MIFG SCT210 RMK CI2=

CYVR;2005-02-28 05:00;METAR CYVR 280500Z 28009KT 1 1/2SM BR BKN210 05/05 A2987 RMK FG2CI1 VIS NW-NE 12 SLP114=

CYVR;2005-02-28 05:11;SPECI CYVR 280511Z 29005KT 1/2SM FG VV001 RMK FG8 VSBY VRBL 1/8-3/4=

CYVR;2005-02-28 06:00;METAR CYVR 280600Z 34006KT 1/4SM FG VV001 05/05 A2987 RMK FG8 SLP114=

CYVR;2005-02-28 07:31;SPECI CYVR 280731Z 00000KT 15SM MIFG FEW210 RMK CI1=

CYVR;2005-02-28 09:00;METAR CYVR 280900Z 23002KT 12SM SCT001 SCT140 03/03 A2985 RMK SF3AC0 VIS=

CYVR;2005-02-28 10:00;METAR CYVR 281000Z 31002KT 12SM MIFG SCT140 03/03 A2984 RMK AC3 VIS SE-SW 2 SLP106=

CYVR;2005-02-28 11:00;METAR CYVR 281100Z 33005KT 1/4SM FG VV001 04/04 A2982 RMK FG8 SLP099=

CYVR;2005-02-28 12:00;METAR CYVR 281200Z 19002KT 1/4SM FG VV001 05/05 A2982 RMK FG8 SLP097=

CYVR;2005-02-28 12:07;SPECI CYVR 281207Z 18002KT 1SM BR BKN095 RMK FG2AC2 VSBY VRBL 1/4-13/4 VSBY NW-NE 12=

CYVR;2005-02-28 13:00;METAR CYVR 281300Z 28005KT 1SM BR OVC095 05/05 A2982 RMK FG4AC4 VSBY=

CYVR;2005-02-28 14:00;METAR CYVR 281400Z 31007KT 2SM BR FEW003 BKN085 05/05 A2983 RMK SF2AC4 VIS NW-NE 12 SLP100=

CYVR;2005-02-28 14:14;SPECI CYVR 281414Z 32006KT 10SM BKN085 RMK AC7=

CYVR;2005-02-28 16:00;METAR CYVR 281600Z 08003KT 15SM FEW040 BKN080 OVC120 06/06 A2985 RMK SC2AC6AC1 SLP110=

CYVR;2005-02-28 18:20;SPECI CYVR 281820Z 09010KT 10SM -SHRA FEW040 BKN060 BKN070 OVC100 RMK SC2SC3AC2AC1=

CYVR;2005-02-28 19:00;METAR CYVR 281900Z 09012KT 8SM -SHRA FEW040 BKN051 OVC070 08/07 A2993 RMK SC2SC4AC2 SLP134=

CYVR;2005-02-28 20:00;METAR CYVR 282000Z 09007KT 8SM -RA SCT018 BKN025 OVC040 09/08 A2993 RMK SF3SC3SC2 SLP135=

CYVR;2005-02-28 20:25;SPECI CYVR 282025Z 08009KT 10SM SCT017 BKN028 OVC040 RMK SF3SC2SC2 VIS LWR NW=

CYVR;2005-02-28 20:43;SPECI CYVR 282043Z 07008KT 8SM -RA FEW017 BKN025 BKN035 OVC060 RMK SF2SC2SC1SC2=

CYVR;2005-02-28 21:00;METAR CYVR 282100Z 08008KT 10SM -RA FEW017 SCT025 BKN040 OVC060 10/08 A2992 RMK SF2SC2SC2SC2 SLP132=

CYVR;2005-02-28 22:00;METAR CYVR 282200Z 07011KT 12SM FEW015 SCT025 BKN060 OVC090 11/08 A2991 RMK SF2SC2SC2AC2 SLP128=

CYVR;2005-02-28 23:00;METAR CYVR 282300Z 05007KT 15SM FEW015 FEW025 BKN045 OVC060 11/08 A2991 RMK SF1SC2SC4SC2 SLP128=

CYVR;2005-03-01 00:00;METAR CYVR 010000Z 06007KT 15SM FEW025 SCT040 BKN050 BKN080 12/08 A2990 RMK SC2SC2SC2AC2 SLP126=

CYVR;2005-03-01 01:00;METAR CYVR 010100Z 09009KT 15SM FEW030 BKN040 BKN060 11/07 A2991 RMK SC2SC3SC2 SLP127=

CYVR;2005-03-01 02:54;SPECI CYVR 010254Z 13013G18KT 12SM -SHRA FEW030 SCT045 BKN085 RMK SC1SC2AC4=

CYVR;2005-03-01 03:00;METAR CYVR 010300Z 12014KT 10SM -SHRA FEW030 BKN055 OVC080 10/07 A2994 RMK SC2SC4AC2 SLP140=

CYVR;2005-03-01 04:00;METAR CYVR 010400Z 11009KT 12SM FEW030 BKN050 BKN080 09/07 A2996 RMK SC2SC4AC2 INTMT -RA SLP144=

CYVR;2005-03-01 04:16;SPECI CYVR 010416Z 11007KT 10SM -SHRA FEW030 OVC050 RMK SC2SC6=

CYVR;2005-03-01 04:32;SPECI CYVR 010432Z 09010KT 12SM FEW030 BKN050 BKN080 RMK SC2SC4AC2=

CYVR;2005-03-01 05:11;SPECI CYVR 010511Z 09008KT 12SM -SHRA FEW030 BKN050 OVC080 RMK SC2SC4AC2=

CYVR;2005-03-01 06:00;METAR CYVR 010600Z 09010KT 12SM -SHRA FEW030 BKN050 OVC080 08/08 A2998 RMK SC1SC6AC2 SLP152=

CYVR;2005-03-01 06:14;SPECI CYVR 010614Z 09009KT 12SM FEW030 BKN050 OVC080 RMK SC1SC6AC2=

CYVR;2005-03-01 08:08;SPECI CYVR 010808Z 10010KT 12SM -RA BKN045 OVC090 RMK SC6AC2=

CYVR;2005-03-01 09:00;METAR CYVR 010900Z 10009KT 10SM -RA BKN045 OVC085 08/08 A2999 RMK SC6AC2 SLP155=

CYVR;2005-03-01 10:00;METAR CYVR 011000Z 10013KT 10SM -RA BKN045 OVC075 09/07 A2998 RMK SC6AC2 -RA INTMT SLP153=

CYVR;2005-03-01 12:00;METAR CYVR 011200Z 10011KT 8SM -RA BKN022 OVC045 08/07 A2998 RMK SC6SC2 SLP153=

CYVR;2005-03-01 14:00;METAR CYVR 011400Z 08010KT 8SM -RA BKN022 OVC040 08/07 A2998 RMK SC6SC2 SLP153=

CYVR;2005-03-01 16:00;METAR CYVR 011600Z 08010KT 5SM -RA BR BKN023 OVC037 08/07 A2998 RERA RMK SC7SC1 SLP151=

CYVR;2005-03-01 17:00;METAR CYVR 011700Z 07010KT 8SM -RA OVC024 08/07 A2998 RMK SC8 SLP153=

CYVR;2005-03-01 18:00;METAR CYVR 011800Z 06010G15KT 10SM -RA OVC031 08/07 A2998 RMK SC8 SLP151=

CYVR;2005-03-01 19:00;METAR CYVR 011900Z 07009KT 12SM -RA SCT031 BKN059 OVC070 09/07 A2996 RMK SC4SC2AC2 PCPN VRY LGT SLP147=

CYVR;2005-03-01 20:00;METAR CYVR 012000Z 05011KT 12SM -RA BKN036 OVC063 09/07 A2995 RMK SC5SC3 SLP141=

CYVR;2005-03-01 20:38;SPECI CYVR 012038Z 04010G15KT 12SM SCT040 BKN061 OVC090 RMK SC3SC2AC2=

CYVR;2005-03-02 00:00;METAR CYVR 020000Z 28003KT 20SM FEW040 OVC120 12/07 A2986 RMK SC2AC6 SLP113=

CYVR;2005-03-02 03:00;METAR CYVR 020300Z 09006KT 20SM FEW120 SCT180 OVC210 09/06 A2985 RMK AC1AS2CS1 SLP108=

CYVR;2005-03-02 04:00;METAR CYVR 020400Z 08004KT 20SM FEW140 BKN170 OVC210 07/05 A2985 RMK AC2AS2CS1 SLP108=

CYVR;2005-03-02 06:00;METAR CYVR 020600Z 10003KT 20SM FEW050 SCT075 OVC110 08/06 A2985 RMK SC2AC2AC3 SLP110=

CYVR;2005-03-02 06:48;SPECI CYVR 020648Z 23003KT 20SM -SHRA SCT055 BKN075 OVC110 RMK SC3AC3AC2=

CYVR;2005-03-02 07:00;METAR CYVR 020700Z 23006KT 15SM -SHRA SCT055 BKN078 OVC110 08/07 A2987 RMK SC3AC3AC2 SLP116=

CYVR;2005-03-02 08:55;SPECI CYVR 020855Z 04002KT 15SM MIFG SCT160 RMK AC2=

CYVR;2005-03-02 09:00;METAR CYVR 020900Z 02003KT 15SM MIFG FEW120 SCT160 06/06 A2988 RMK AC1AC1 SLP120=

CYVR;2005-03-02 10:00;METAR CYVR 021000Z 06007KT 15SM FEW045 BKN100 OVC120 08/07 A2988 RMK SC1AC5AC1 SLP120=

CYVR;2005-03-02 11:00;METAR CYVR 021100Z 09008KT 15SM FEW045 SCT095 SCT220 07/06 A2989 RMK SC1AC2CI1 SLP122=

CYVR;2005-03-02 12:00;METAR CYVR 021200Z 09011KT 15SM FEW045 SCT095 07/06 A2990 RMK SC1AC2 SLP125=

CYVR;2005-03-02 13:00;METAR CYVR 021300Z 09007KT 15SM -SHRA FEW045 OVC110 08/06 A2992 RMK SC2AC6 SLP132=

CYVR;2005-03-02 14:00;METAR CYVR 021400Z 10005KT 15SM -SHRA FEW040 BKN110 OVC160 08/06 A2993 RMK SC2AC5AC2 PCPN VRY LGT SLP136=

CYVR;2005-03-02 14:38;SPECI CYVR 021438Z 09007KT 15SM FEW034 BKN100 OVC140 RMK SC2AC2AC2=

CYVR;2005-03-02 15:00;METAR CYVR 021500Z 09007KT 15SM FEW035 BKN096 OVC110 08/06 A2996 RMK SC2AC3AS2 SLP144=

CYVR;2005-03-02 15:28;SPECI CYVR 021528Z 09007KT 15SM -SHRA FEW035 BKN060 OVC092 RMK SC2SC4AC2=

CYVR;2005-03-02 15:50;SPECI CYVR 021550Z 09009KT 15SM FEW035 BKN061 OVC090 RMK SC2SC3AS2=

CYVR;2005-03-02 16:00;METAR CYVR 021600Z 09010KT 15SM SCT038 BKN064 OVC095 10/07 A2997 RMK SC3SC2AS1 SLP149=

CYVR;2005-03-02 17:00;METAR CYVR 021700Z 11011KT 15SM BKN026 OVC075 10/07 A3000 RMK SC5AC3 SLP158=

CYVR;2005-03-02 19:00;METAR CYVR 021900Z 13009KT 15SM SCT017 OVC052 11/08 A3004 RMK SC4SC4 SLP173=

CYVR;2005-03-02 19:08;SPECI CYVR 021908Z 13008KT 15SM -SHRA SCT017 OVC056 RMK SC4SC4 PCPN VRY LGT=

CYVR;2005-03-02 19:50;SPECI CYVR 021950Z 11009KT 15SM SCT017 BKN058 OVC080 RMK SC3SC3AC2=

CYVR;2005-03-02 21:00;METAR CYVR 022100Z 11009KT 15SM SCT018 BKN060 OVC086 12/09 A3006 RMK SC3SC2AC2 SLP180=

CYVR;2005-03-02 21:55;SPECI CYVR 022155Z 14008KT 15SM -SHRA FEW020 BKN040 OVC057 RMK SC2SC4SC2=

CYVR;2005-03-02 22:00;METAR CYVR 022200Z 12007KT 15SM -SHRA FEW020 BKN040 OVC057 11/08 A3007 RMK SC2SC4SC2 SLP182=

CYVR;2005-03-03 00:00;METAR CYVR 030000Z 12006KT 15SM FEW030 BKN065 OVC100 12/07 A3007 RMK SC2SC4AC2 SLP182=

CYVR;2005-03-03 00:43;SPECI CYVR 030043Z 13008KT 15SM -SHRA FEW030 BKN049 OVC064 RMK SC2SC5SC2=

CYVR;2005-03-03 01:27;SPECI CYVR 030127Z 13004KT 15SM FEW025 BKN043 OVC060 RMK SC2SC5SC2=

CYVR;2005-03-03 02:16;SPECI CYVR 030216Z 00000KT 12SM -SHRA SCT027 OVC045 RMK SC4SC4=

CYVR;2005-03-03 03:00;METAR CYVR 030300Z 10006KT 15SM -SHRA SCT025 OVC045 10/08 A3010 RMK SC3SC4 VIS LWR N QUAD 12 SM PCPN VRY LGT SLP193=

CYVR;2005-03-03 04:00;METAR CYVR 030400Z 08006KT 15SM -SHRA FEW025 SCT045 OVC062 10/09 A3010 RMK SC2SC2SC4 VIS LWR NW QUAD 12 SM SLP193=

CYVR;2005-03-03 06:33;SPECI CYVR 030633Z 06005KT 15SM -SHRA FEW025 BKN037 OVC060 RMK SC2SC4SC1=

CYVR;2005-03-03 07:03;SPECI CYVR 030703Z 08005KT 6SM -SHRA FEW025 BKN032 OVC040 RMK SC2SC4SC2 VIS LWR N QUAD 4 SM=

CYVR;2005-03-03 07:06;SPECI CYVR 030706Z 08006KT 6SM -SHRA BR FEW023 BKN029 OVC040 RMK SC2SC4SC2 VIS LWR N QUAD 3 SM=

CYVR;2005-03-03 07:16;SPECI CYVR 030716Z 07009KT 10SM -SHRA FEW023 BKN029 OVC040 RMK SC2SC4SC2=

CYVR;2005-03-03 08:00;METAR CYVR 030800Z 03006KT 15SM FEW025 SCT040 BKN055 09/08 A3013 RMK SC2SC2SC3 SLP203=

CYVR;2005-03-03 10:00;METAR CYVR 031000Z 09007KT 15SM FEW025 BKN055 07/07 A3012 RMK SC2SC2 SLP200=

CYVR;2005-03-03 11:00;METAR CYVR 031100Z 10004KT 15SM FEW025 OVC053 07/06 A3011 RMK SC2SC2 SLP198=

CYVR;2005-03-03 12:00;METAR CYVR 031200Z 10005KT 15SM FEW040 06/05 A3010 RMK SC2 SLP194=

CYVR;2005-03-03 14:00;METAR CYVR 031400Z 09006KT 15SM MIFG FEW040 05/05 A3007 RMK SC1 SLP182=

CYVR;2005-03-03 15:00;METAR CYVR 031500Z 12006KT 15SM MIFG FEW040 BKN210 06/06 A3006 RMK SC1CI2 SLP180=

CYVR;2005-03-03 16:00;METAR CYVR 031600Z 04002KT 20SM FEW040 BKN210 07/07 A3006 RMK SC1CI2 TR SC SLP179=

CYVR;2005-03-03 17:00;METAR CYVR 031700Z 21003KT 20SM BKN210 08/07 A3006 RMK CI2 SLP179=

CYVR;2005-03-03 18:00;METAR CYVR 031800Z 23004KT 20SM FEW030 FEW090 BKN210 10/07 A3005 RMK CF1AC1CS1 SLP177=

CYVR;2005-03-03 19:00;METAR CYVR 031900Z 27004KT 20SM FEW090 BKN210 11/08 A3004 RMK AC2CS2 SLP174=

CYVR;2005-03-03 20:00;METAR CYVR 032000Z 25007KT 20SM FEW030 OVC210 10/08 A3004 RMK CF1CI2 TR CF SLP171=

CYVR;2005-03-03 22:00;METAR CYVR 032200Z 27008KT 20SM FEW030 OVC210 10/08 A3000 RMK CU1CI3 SLP158=

CYVR;2005-03-04 00:00;METAR CYVR 040000Z 31003KT 20SM BKN210 13/08 A2996 RMK CI3 SLP147=

CYVR;2005-03-04 01:00;METAR CYVR 040100Z 31005KT 20SM BKN210 10/08 A2996 RMK CI3 SLP145=

CYVR;2005-03-04 03:00;METAR CYVR 040300Z 30002KT 20SM SCT210 09/07 A2995 RMK CI2 SLP142=

CYVR;2005-03-04 04:00;METAR CYVR 040400Z 31006KT 20SM FEW210 07/06 A2996 RMK CI1 SLP144=

CYVR;2005-03-04 05:00;METAR CYVR 040500Z 00000KT 20SM FEW210 08/06 A2997 RMK CI0 SLP148=

CYVR;2005-03-04 06:00;METAR CYVR 040600Z 20004KT 20SM FEW150 FEW210 08/05 A2998 RMK AC1CI0 SLP153=

CYVR;2005-03-04 07:00;METAR CYVR 040700Z 06002KT 20SM FEW085 SCT210 07/05 A3000 RMK AC1CI1 SLP159=

CYVR;2005-03-04 10:00;METAR CYVR 041000Z 12003KT 20SM FEW140 07/04 A3004 RMK AC1 SLP172=

CYVR;2005-03-04 11:00;METAR CYVR 041100Z 09007KT 20SM FEW140 05/03 A3004 RMK AC1 SLP173=

CYVR;2005-03-04 12:00;METAR CYVR 041200Z 08007KT 20SM BKN140 04/03 A3005 RMK AC2 SLP177=

CYVR;2005-03-04 13:00;METAR CYVR 041300Z 09008KT 20SM FEW140 04/03 A3006 RMK AC1 SLP181=

CYVR;2005-03-04 14:00;METAR CYVR 041400Z 09004KT 20SM BKN090 06/04 A3009 RMK AC6 SLP188=

CYVR;2005-03-04 15:00;METAR CYVR 041500Z 09008KT 20SM OVC095 06/05 A3011 RMK AC8 SLP195=

CYVR;2005-03-04 16:00;METAR CYVR 041600Z 11005KT 20SM OVC089 08/05 A3014 RMK AC8 SLP205=

CYVR;2005-03-04 17:00;METAR CYVR 041700Z 09006KT 20SM BKN078 OVC085 10/06 A3015 RMK AC5AS2 SLP211=

CYVR;2005-03-04 18:00;METAR CYVR 041800Z 11006KT 20SM FEW040 BKN067 OVC084 11/06 A3017 RMK SC1AC5AS2 SLP218=

CYVR;2005-03-04 18:31;SPECI CYVR 041831Z 11005KT 15SM -SHRA BKN055 OVC084 RMK SC5AC3=

CYVR;2005-03-04 19:00;METAR CYVR 041900Z 10007KT 15SM BKN062 OVC080 11/07 A3019 RMK SC6AC2 SLP223=

CYVR;2005-03-04 20:00;METAR CYVR 042000Z 10010KT 15SM BKN064 OVC080 11/06 A3020 RMK SC7AC1 SLP228=

CYVR;2005-03-04 22:00;METAR CYVR 042200Z 10008KT 15SM BKN055 OVC080 12/08 A3021 RMK SC6AC2 SHRA DIST NE SLP229=

CYVR;2005-03-04 23:00;METAR CYVR 042300Z 10009KT 15SM BKN056 OVC088 13/07 A3020 RMK SC6AC2 SLP226=

CYVR;2005-03-05 01:00;METAR CYVR 050100Z 10006KT 15SM BKN056 OVC088 12/08 A3021 RMK SC6AC2 SLP231=

CYVR;2005-03-05 04:00;METAR CYVR 050400Z 12003KT 15SM FEW060 FEW210 10/06 A3024 RMK SC1CI0 SLP242=

CYVR;2005-03-05 05:00;METAR CYVR 050500Z 09005KT 15SM SCT032 BKN210 09/07 A3025 RMK SC3CI0 SLP245=

CYVR;2005-03-05 06:00;METAR CYVR 050600Z 13003KT 15SM FEW035 FEW210 08/06 A3026 RMK SC2CI0 SLP247=

CYVR;2005-03-05 10:00;METAR CYVR 051000Z 09006KT 15SM BKN047 07/06 A3028 RMK SC6 SLP254=

CYVR;2005-03-05 11:00;METAR CYVR 051100Z 10005KT 15SM OVC047 08/07 A3028 RMK SC6 SLP253=

CYVR;2005-03-05 12:00;METAR CYVR 051200Z 10008KT 15SM BKN090 08/06 A3026 RMK AC5 SLP246=

CYVR;2005-03-05 13:00;METAR CYVR 051300Z 11007KT 15SM FEW090 06/06 A3025 RMK AC2 SLP244=

CYVR;2005-03-05 14:48;SPECI CYVR 051448Z 11006KT 10SM FEW004 SCT032 OVC090 RMK SF2SC2AC3 VIS SW-NW 3=

CYVR;2005-03-05 15:00;METAR CYVR 051500Z 11007KT 10SM FEW004 BKN032 OVC090 07/07 A3025 RMK SF2SC3AC2 VIS SW-NW 3 SLP245=

CYVR;2005-03-05 16:00;METAR CYVR 051600Z 11006KT 10SM FEW004 FEW032 OVC090 08/07 A3027 RMK SF2SC1AC5 SLP250=

CYVR;2005-03-05 17:00;METAR CYVR 051700Z 10011KT 12SM FEW004 FEW032 OVC085 08/08 A3026 RMK SF2SC1AC6 SLP247=

CYVR;2005-03-05 19:14;SPECI CYVR 051914Z 12009KT 12SM -SHRA FEW011 FEW034 OVC080 RMK SF2SC1AC6=

CYVR;2005-03-05 21:00;METAR CYVR 052100Z 11011KT 15SM FEW012 OVC075 11/08 A3026 RMK SF1AC7 SLP248=

CYVR;2005-03-05 22:00;METAR CYVR 052200Z 11015KT 15SM FEW032 BKN075 OVC110 12/08 A3023 RMK SC1AC6AC1 SLP236=

CYVR;2005-03-05 23:00;METAR CYVR 052300Z 10012G20KT 15SM BKN055 12/08 A3020 RMK SC7 SLP227=

CYVR;2005-03-06 00:00;METAR CYVR 060000Z 13011KT 12SM OVC050 12/07 A3019 RMK SC8 SLP223=

CYVR;2005-03-06 04:00;METAR CYVR 060400Z 08005KT 15SM SCT045 10/05 A3025 RMK SC3 SLP245=

CYVR;2005-03-06 08:00;METAR CYVR 060800Z 09006KT 15SM SCT040 06/05 A3028 RMK SC3 SLP255=

CYVR;2005-03-06 11:00;METAR CYVR 061100Z 09004KT 15SM FEW040 05/05 A3030 RMK SC2 SLP262=

CYVR;2005-03-06 12:00;METAR CYVR 061200Z 09002KT 15SM MIFG FEW040 04/04 A3030 RMK SC2 SLP260=

CYVR;2005-03-06 13:00;METAR CYVR 061300Z 09002KT 15SM MIFG FEW040 FEW210 05/05 A3031 RMK SC2CI0 SLP263=

CYVR;2005-03-06 14:00;METAR CYVR 061400Z 03002KT 15SM FEW035 SCT160 05/05 A3032 RMK SC2AC2 SLP266=

CYVR;2005-03-06 15:00;METAR CYVR 061500Z 11003KT 15SM FEW035 BKN150 07/06 A3032 RMK SC2AC4 SLP267=

CYVR;2005-03-06 16:00;METAR CYVR 061600Z 10006KT 15SM FEW040 BKN140 07/07 A3032 RMK SC1AC5 SLP269=

CYVR;2005-03-06 19:00;METAR CYVR 061900Z 29003KT 20SM FEW040 OVC090 12/08 A3033 RMK SC2AC6 SLP270=

CYVR;2005-03-06 20:00;METAR CYVR 062000Z 24004KT 15SM FEW040 OVC080 11/08 A3032 RMK SC2AS6 SLP267=

CYVR;2005-03-06 22:00;METAR CYVR 062200Z 24002KT 15SM FEW040 OVC060 11/09 A3027 RMK SC1SC7 SLP251=

CYVR;2005-03-06 22:51;SPECI CYVR 062251Z 29005KT 15SM -SHRA FEW040 OVC060 RMK SF1SC7=

CYVR;2005-03-06 23:21;SPECI CYVR 062321Z 32008KT 15SM OVC048 RMK SC8=

CYVR;2005-03-06 23:33;SPECI CYVR 062333Z 33009KT 10SM -SHRA OVC046 RMK SC8=

CYVR;2005-03-07 00:00;METAR CYVR 070000Z 33007KT 10SM -SHRA OVC048 12/09 A3024 RMK SC8 PCPN VRY LGT SLP242=

CYVR;2005-03-07 00:40;SPECI CYVR 070040Z 31007KT 15SM OVC050 RMK SC8=

CYVR;2005-03-07 01:00;METAR CYVR 070100Z 33006KT 12SM OVC050 13/08 A3023 RMK SC8 SLP237=

CYVR;2005-03-07 02:51;SPECI CYVR 070251Z 20004KT 15SM -RA SCT035 OVC047 RMK SC4SC4=

CYVR;2005-03-07 03:00;METAR CYVR 070300Z 24002KT 15SM -RA SCT035 BKN045 OVC060 11/08 A3023 RMK SC3SC4SC1 SLP237=

CYVR;2005-03-07 03:16;SPECI CYVR 070316Z 15002KT 15SM SCT035 BKN043 OVC060 RMK SC3SC4SC1=

CYVR;2005-03-07 04:23;SPECI CYVR 070423Z 04007KT 12SM -RA SCT034 OVC043 RMK SC3SC5=

CYVR;2005-03-07 05:00;METAR CYVR 070500Z 03006KT 12SM -RA SCT030 BKN044 OVC060 11/09 A3022 RMK SC3SC4SC1 SLP233=

CYVR;2005-03-07 05:39;SPECI CYVR 070539Z 09004KT 12SM SCT030 OVC044 RMK SC3SC5=

CYVR;2005-03-07 06:00;METAR CYVR 070600Z 09005KT 12SM SCT030 OVC046 11/09 A3022 RMK SC3SC5 SLP233=

CYVR;2005-03-07 06:44;SPECI CYVR 070644Z 10004KT 10SM -SHRA SCT030 OVC042 RMK SC3SC5=

CYVR;2005-03-07 08:00;METAR CYVR 070800Z 10006KT 12SM BKN034 BKN045 OVC060 10/10 A3020 RMK SC5SC2SC1 SLP226=

CYVR;2005-03-07 09:30;SPECI CYVR 070930Z 11004KT 10SM -SHRA BKN028 OVC042 RMK SC6SC2=

CYVR;2005-03-07 10:00;METAR CYVR 071000Z 11006KT 6SM -SHRA BKN027 OVC040 10/10 A3019 RMK SC6SC2 SLP222=

CYVR;2005-03-07 10:25;SPECI CYVR 071025Z 09006KT 8SM BKN027 OVC040 RMK SC6SC2=

CYVR;2005-03-07 11:00;METAR CYVR 071100Z 10006KT 6SM BR BKN022 OVC035 10/10 A3018 RMK SC6SC2 SLP219=

CYVR;2005-03-07 12:00;METAR CYVR 071200Z 10006KT 10SM SCT023 BKN040 OVC075 10/09 A3019 RMK SC3SC2AC2 SLP222=

CYVR;2005-03-07 12:29;SPECI CYVR 071229Z 13007KT 8SM -SHRA FEW020 BKN040 OVC060 RMK SC2SC2SC3=

CYVR;2005-03-07 13:00;METAR CYVR 071300Z 11005KT 8SM -SHRA FEW020 SCT045 BKN060 OVC080 10/09 A3020 RMK SC2SC2SC2AC2 SLP227=

CYVR;2005-03-07 13:17;SPECI CYVR 071317Z 06005KT 10SM FEW020 FEW045 SCT060 BKN085 RMK SC2SC1SC2AC3=

CYVR;2005-03-07 14:00;METAR CYVR 071400Z 08004KT 15SM FEW020 FEW040 BKN085 BKN240 09/09 A3023 RMK SC2SC1AC2CI1 SLP236=

CYVR;2005-03-07 15:00;METAR CYVR 071500Z 10005KT 12SM FEW018 FEW080 BKN210 09/09 A3022 RMK SC1AC2CI2 SLP232=

CYVR;2005-03-07 16:00;METAR CYVR 071600Z 10005KT 15SM FEW050 BKN210 10/09 A3023 RMK SC1CI3 SLP236=

CYVR;2005-03-07 17:00;METAR CYVR 071700Z 10008KT 12SM FEW040 FEW210 12/10 A3022 RMK SC1CI0 SLP234=

CYVR;2005-03-07 17:50;SPECI CYVR 071750Z 10005KT 8SM FEW007 SCT210 RMK SF1CI0=

CYVR;2005-03-07 22:00;METAR CYVR 072200Z 26008KT 10SM FEW022TCU SCT220 12/10 A3026 RMK TCU1CI2 TCU DIST NE SLP247=

CYVR;2005-03-07 23:00;METAR CYVR 072300Z 26004KT 12SM FEW022 BKN150 BKN220 12/10 A3026 RMK CU1AS5CI0 SLP247=

CYVR;2005-03-08 00:00;METAR CYVR 080000Z 31004KT 12SM FEW022 SCT150 BKN220 12/10 A3025 RMK CU1AS2CI1 SLP244=

CYVR;2005-03-08 03:00;METAR CYVR 080300Z 02003KT 15SM FEW020 FEW040 BKN220 10/08 A3024 RMK SC1SC1CI2 SLP242=

CYVR;2005-03-08 04:00;METAR CYVR 080400Z 11002KT 15SM FEW020 FEW040 SCT220 10/09 A3025 RMK SC1SC1CI1 SLP244=

CYVR;2005-03-08 06:00;METAR CYVR 080600Z 07004KT 15SM FEW020 SCT240 09/08 A3027 RMK SC1CI1 SLP252=

CYVR;2005-03-08 07:00;METAR CYVR 080700Z 07005KT 15SM FEW035 SCT240 08/07 A3027 RMK SC2CI1 SLP251=

CYVR;2005-03-08 08:00;METAR CYVR 080800Z 13004KT 15SM FEW035 SCT160 BKN240 10/09 A3028 RMK SC2AC2CI1 SLP253=

CYVR;2005-03-08 10:00;METAR CYVR 081000Z 09007KT 15SM FEW035 SCT150 08/08 A3027 RMK SC2AC2 SLP250=

CYVR;2005-03-08 11:00;METAR CYVR 081100Z 10007KT 15SM BKN032 BKN150 09/08 A3026 RMK SC5AC1 SLP248=

CYVR;2005-03-08 12:00;METAR CYVR 081200Z 13004KT 15SM BKN033 BKN045 OVC150 10/09 A3026 RMK SC6SC1AC1 SLP248=

CYVR;2005-03-08 13:00;METAR CYVR 081300Z 11004KT 15SM BKN034 BKN050 OVC090 10/09 A3026 RMK SC5SC2AC1 SLP248=

CYVR;2005-03-08 14:00;METAR CYVR 081400Z 10006KT 15SM SCT030 BKN050 BKN075 10/08 A3025 RMK SC4SC2AC2 SLP243=

CYVR;2005-03-08 15:00;METAR CYVR 081500Z 11006KT 15SM OVC028 10/08 A3024 RMK SC8 SLP242=

CYVR;2005-03-08 16:00;METAR CYVR 081600Z 09009KT 15SM OVC028 10/09 A3024 RMK SC8 SLP241=

CYVR;2005-03-08 17:00;METAR CYVR 081700Z 14005KT 15SM BKN030 OVC050 11/08 A3026 RMK SC6SC2 SH=

CYVR;2005-03-08 17:14;SPECI CYVR 081714Z 12004KT 8SM -SHRA BKN030 OVC045 RMK SC6SC2=

CYVR;2005-03-08 18:00;METAR CYVR 081800Z 08007KT 7SM -SHRA BKN030 OVC050 11/09 A3025 RMK SC6SC2 SLP245=

CYVR;2005-03-08 20:00;METAR CYVR 082000Z 09008KT 4SM -SHRA BR SCT014 OVC040 12/12 A3026 RMK SF3SC5 SLP246=

CYVR;2005-03-08 20:21;SPECI CYVR 082021Z 08008KT 10SM SCT012 OVC036 RMK SF3SC5=

CYVR;2005-03-08 21:00;METAR CYVR 082100Z 07009KT 8SM FEW012 OVC030 13/11 A3024 RMK SC2SC6 SLP242=

CYVR;2005-03-08 21:10;SPECI CYVR 082110Z 07008KT 6SM -SHRA FEW015 OVC032 RMK SC2SC6=

CYVR;2005-03-08 21:38;SPECI CYVR 082138Z 07007KT 12SM SCT016 OVC028 RMK SC3SC5=

CYVR;2005-03-08 22:00;METAR CYVR 082200Z 08008KT 12SM BKN016 OVC030 13/11 A3022 RMK SC5SC3 SLP234=

CYVR;2005-03-08 23:00;METAR CYVR 082300Z 08008KT 6SM -SHRA SCT011 OVC028 13/11 A3021 RMK SC3SC5 SLP231=

CYVR;2005-03-08 23:38;SPECI CYVR 082338Z 08009KT 10SM FEW012 BKN028 OVC050 RMK SF2SC3SC2=

CYVR;2005-03-08 23:56;SPECI CYVR 082356Z 08010KT 8SM -SHRA FEW010 BKN028 OVC048 RMK SF2SC4SC2=

CYVR;2005-03-09 00:00;METAR CYVR 090000Z 08010KT 8SM -SHRA FEW010 SCT028 OVC048 13/12 A3019 RMK SF2SC2SC5 SLP225=

CYVR;2005-03-09 00:49;SPECI CYVR 090049Z 08009KT 10SM FEW012 FEW026 OVC050 RMK SF1SC2SC6=

CYVR;2005-03-09 03:00;METAR CYVR 090300Z 09006KT 12SM FEW015 BKN050 BKN100 OVC150 12/11 A3017 RMK SC1SC4AC2AC1 SLP217=

CYVR;2005-03-09 04:00;METAR CYVR 090400Z 10004KT 15SM FEW020 BKN055 BKN080 OVC100 12/11 A3019 RMK SC1SC4AC2AC2 SLP223=

CYVR;2005-03-09 04:22;SPECI CYVR 090422Z 12003KT 12SM -SHRA FEW020 BKN050 BKN075 OVC090 RMK SC1SC4AC2AC2=

CYVR;2005-03-09 05:00;METAR CYVR 090500Z 06004KT 12SM -SHRA FEW020 BKN055 OVC080 12/11 A3019 RMK SC1SC6AC2 SLP222=

CYVR;2005-03-09 07:00;METAR CYVR 090700Z 16004KT 5SM -RA BR FEW025 BKN055 OVC070 12/11 A3021 RMK SC2SC3AC2 SLP231=

CYVR;2005-03-09 07:41;SPECI CYVR 090741Z 27002KT 4SM -RA BR FEW009 OVC018 RMK SF2SC6=

CYVR;2005-03-09 07:47;SPECI CYVR 090747Z 27005KT 4SM -RA BR FEW002 SCT009 OVC015 RMK SF2SF2SC5 CIG AND VIS LWR NE=

CYVR;2005-03-09 08:05;SPECI CYVR 090805Z 29004KT 3SM -RA BR BKN002 BKN009 OVC013 RMK FG2SF3SF1SC2 VIS W - N 3/4=

CYVR;2005-03-09 08:15;SPECI CYVR 090815Z 32004KT 1SM -RA BR BKN002 BKN008 OVC013 RMK FG3SF2SF2SC1=

CYVR;2005-03-09 09:17;SPECI CYVR 090917Z 07005KT 2SM -RA BR BKN003 BKN010 OVC020 RMK FG2SF3SF1SC2=

CYVR;2005-03-09 09:27;SPECI CYVR 090927Z 08005KT 2SM -RA BR SCT002 BKN019 OVC070 RMK SF3SC2AC2=

CYVR;2005-03-09 09:44;SPECI CYVR 090944Z 09006KT 2SM -RA BR SCT002 BKN009 BKN020 OVC070 RMK SF3SF2SC1AC2=

CYVR;2005-03-09 10:00;METAR CYVR 091000Z 07010KT 2SM -RA BR SCT002 BKN006 BKN020 OVC070 11/11 A3021 RMK SF3SF2SC2AC2 SLP231=

CYVR;2005-03-09 10:09;SPECI CYVR 091009Z 09007KT 3SM -RA BR FEW002 SCT006 BKN020 OVC070 RMK SF2SF2SC2AC2=

CYVR;2005-03-09 11:00;METAR CYVR 091100Z 14006KT 3SM -RA BR FEW004 BKN016 OVC070 11/11 A3019 RMK SF2SC5AC2 SLP222=

CYVR;2005-03-09 11:22;SPECI CYVR 091122Z 14006KT 2SM -RA BR SCT002 BKN006 OVC020 RMK SF3SF2SC2=

CYVR;2005-03-09 11:40;SPECI CYVR 091140Z 23002KT 1SM -RA BR BKN002 OVC006 RMK SF5SF3=

CYVR;2005-03-09 11:52;SPECI CYVR 091152Z 02002KT 3/4SM BR VV003 RMK FG8=

CYVR;2005-03-09 12:00;METAR CYVR 091200Z 36003KT 3/4SM BR VV004 11/11 A3022 RMK FG8 SLP235=

CYVR;2005-03-09 12:16;SPECI CYVR 091216Z 00000KT 1SM BR OVC004 RMK FG4ST4=

CYVR;2005-03-09 12:45;SPECI CYVR 091245Z 30003KT 3/4SM BR OVC005 RMK FG4ST4=

CYVR;2005-03-09 13:00;METAR CYVR 091300Z 28006KT 3/4SM BR VV004 10/10 A3024 RMK FG8 SLP241=

CYVR;2005-03-09 13:22;SPECI CYVR 091322Z 29006KT 1SM BR OVC003 RMK FG5ST3 VIS NE - E 2=

CYVR;2005-03-09 13:35;SPECI CYVR 091335Z 22004KT 3/4SM -RA BR BKN004 OVC018 RMK FG4SF2SC2 VIS NE - E 2=

CYVR;2005-03-09 13:50;SPECI CYVR 091350Z 31004KT 1/2SM FG VV004 RMK FG8=

CYVR;2005-03-09 14:30;SPECI CYVR 091430Z 00000KT 1/2SM FG OVC006 RMK FG6SC2=

CYVR;2005-03-09 15:00;METAR CYVR 091500Z 00000KT 3/4SM BR BKN009 OVC016 10/10 A3025 RMK SC6SC2 SLP244=

CYVR;2005-03-09 15:05;SPECI CYVR 091505Z 00000KT 1SM BR BKN009 OVC016 RMK SC6SC2=

CYVR;2005-03-09 15:08;SPECI CYVR 091508Z 00000KT 1 1/2SM BR BKN008 OVC016 RMK SC6SC2=

CYVR;2005-03-09 15:24;SPECI CYVR 091524Z 00000KT 3SM BR BKN008 OVC016 RMK SC6SC2 VIS LWR E QUAD 21/2 SM=

CYVR;2005-03-09 15:40;SPECI CYVR 091540Z 00000KT 1 1/2SM BR BKN008 OVC016 RMK SC6SC2=

CYVR;2005-03-09 15:41;SPECI CYVR 091541Z 00000KT 3/4SM BR BKN008 OVC016 RMK SC6SC2=

CYVR;2005-03-09 15:43;SPECI CYVR 091543Z 28006KT 1/2SM FG BKN004 OVC013 RMK FG2SC4SC2=

CYVR;2005-03-09 15:44;SPECI CYVR 091544Z 28006KT 3/8SM FG BKN004 OVC013 RMK FG2SC4SC2=

CYVR;2005-03-09 15:47;SPECI CYVR 091547Z 29007KT 1/2SM FG SCT004 OVC016 RMK SC3SC5=

CYVR;2005-03-09 15:48;SPECI CYVR 091548Z 29007KT 1SM BR SCT004 OVC016 RMK SC3SC5=

CYVR;2005-03-09 15:49;SPECI CYVR 091549Z 28007KT 1 1/2SM BR SCT006 OVC016 RMK SC3SC5=

CYVR;2005-03-09 16:00;METAR CYVR 091600Z 29009KT 2 1/4SM BR SCT002 OVC016 10/10 A3029 RMK ST3SC5 VIS NE 3 SM SLP256=

CYVR;2005-03-09 16:16;SPECI CYVR 091616Z 31008KT 2 1/4SM BR SCT002 OVC008 RMK SC4SC4 VIS W - NW 11/2 SM=

CYVR;2005-03-09 16:31;SPECI CYVR 091631Z 32006KT 2SM BR FEW002 SCT010 OVC045 RMK SF2SC2SC2=

CYVR;2005-03-09 17:00;METAR CYVR 091700Z 31004KT 2 1/4SM BR FEW002 SCT010 OVC045 10/10 A3029 RMK SF2SC2SC3 VIS W 11/2 SM SLP256=

CYVR;2005-03-09 17:21;SPECI CYVR 091721Z 31005KT 3SM BR FEW003 SCT012 OVC060 RMK SF2SC2SC3=

CYVR;2005-03-09 17:41;SPECI CYVR 091741Z 30008KT 7SM FEW003 SCT012 OVC180 RMK SF2SC2AC3 F OVR WTR N QUAD VIS 5 SM=

CYVR;2005-03-09 18:00;METAR CYVR 091800Z 29008KT 12SM SCT007 OVC180 11/10 A3031 RMK SC2AC5 SLP265=

CYVR;2005-03-09 19:00;METAR CYVR 091900Z 29008KT 15SM FEW010 SCT160 BKN220 11/11 A3032 RMK SC2AC2CI1 SLP268=

CYVR;2005-03-09 21:00;METAR CYVR 092100Z 29007KT 15SM FEW025 FEW220 12/11 A3031 RMK SC2CI0 SLP264=

CYVR;2005-03-09 22:00;METAR CYVR 092200Z 29006KT 15SM FEW025 SCT220 14/12 A3030 RMK SC1CI0 SLP262=

CYVR;2005-03-10 00:00;METAR CYVR 100000Z 29005KT 15SM FEW025 BKN220 12/10 A3031 RMK SC1CI1 SLP264=

CYVR;2005-03-10 04:00;METAR CYVR 100400Z 01004KT 15SM FEW017 FEW210 10/09 A3031 RMK ST1CI0 SLP265=

CYVR;2005-03-10 06:00;METAR CYVR 100600Z 19003KT 15SM SKC 10/09 A3034 RMK SLP274=

CYVR;2005-03-10 08:00;METAR CYVR 100800Z 05002KT 12SM MIFG SKC 07/07 A3035 RMK VIS N - NW 2 SLP279=

CYVR;2005-03-10 09:00;METAR CYVR 100900Z 36004KT 15SM MIFG FEW210 08/08 A3037 RMK CI2 SLP286=

CYVR;2005-03-10 10:00;METAR CYVR 101000Z 30002KT 15SM MIFG SCT210 07/07 A3040 RMK CI2 SLP293=

CYVR;2005-03-10 11:00;METAR CYVR 101100Z 00000KT 15SM MIFG SCT210 07/07 A3040 RMK CI2 SLP294=

CYVR;2005-03-10 11:48;SPECI CYVR 101148Z 00000KT 15SM MIFG BKN014 RMK SC5=

CYVR;2005-03-10 12:00;METAR CYVR 101200Z 10003KT 15SM BKN014 OVC027 08/08 A3039 RMK SC5SC3 SLP292=

CYVR;2005-03-10 15:00;METAR CYVR 101500Z 23003KT 8SM PRFG FEW015 BKN220 07/07 A3039 RMK SC2CI1 VIS W - NW 11/4 SM VIS NE 10 SM SLP291=

CYVR;2005-03-10 15:06;SPECI CYVR 101506Z 26003KT 6SM BR FEW015 BKN220 RMK SC2CI1 VIS W - NW 3/4 SM=

CYVR;2005-03-10 15:07;SPECI CYVR 101507Z 26003KT 3SM BR FEW015 BKN220 RMK SC2CI1 VIS W - NW 3/4 SM=

CYVR;2005-03-10 15:08;SPECI CYVR 101508Z 27003KT 2 1/2SM BR FEW015 BKN220 RMK SC2CI1 VIS W - NW 3/4 SM=

CYVR;2005-03-10 15:10;SPECI CYVR 101510Z 27003KT 1 1/4SM BR FEW015 BKN220 RMK SC2CI1=

CYVR;2005-03-10 15:11;SPECI CYVR 101511Z 27004KT 3/4SM BR FEW015 BKN220 RMK SC1CI1=

CYVR;2005-03-10 15:12;SPECI CYVR 101512Z 27004KT 1/2SM FG FEW015 BKN220 RMK SC1CI1=

CYVR;2005-03-10 15:14;SPECI CYVR 101514Z 27003KT 3/4SM BR FEW020 BKN220 RMK SC1CI2=

CYVR;2005-03-10 15:15;SPECI CYVR 101515Z 27003KT 1SM BR FEW020 BKN220 RMK SC1CI2=

CYVR;2005-03-10 15:16;SPECI CYVR 101516Z 27003KT 1 1/2SM BR FEW020 BKN220 RMK SC1CI2=

CYVR;2005-03-10 15:22;SPECI CYVR 101522Z 27003KT 3SM BR FEW020 BKN220 RMK SC1CI2 VIS NE 2 SM=

CYVR;2005-03-10 15:24;SPECI CYVR 101524Z 27003KT 7SM PRFG FEW020 BKN220 RMK SC1CI2 VIS NE 2 SM=

CYVR;2005-03-10 16:00;METAR CYVR 101600Z 07003KT 15SM PRFG FEW020 OVC220 08/08 A3038 RMK SC1CI2 VIS NE - E QUAD LWR 2 SM SLP287=

CYVR;2005-03-10 18:00;METAR CYVR 101800Z 26006KT 15SM FEW020 SCT220 12/11 A3040 RMK ST1CI1 SLP293=

CYVR;2005-03-10 19:00;METAR CYVR 101900Z 27002KT 15SM FEW040 BKN220 13/10 A3039 RMK SC1CI1 SLP291=

CYVR;2005-03-10 20:00;METAR CYVR 102000Z 27005KT 15SM FEW100 OVC220 14/09 A3038 RMK AC1CI1 SLP287=

CYVR;2005-03-10 21:00;METAR CYVR 102100Z 31007KT 20SM FEW040 SCT100 OVC220 14/10 A3036 RMK CF1AC1CI2 TR CF SLP282=

CYVR;2005-03-10 22:00;METAR CYVR 102200Z 28008KT 20SM FEW040 FEW100 BKN220 14/10 A3035 RMK SC0AC1CI1 SLP278=

CYVR;2005-03-11 00:00;METAR CYVR 110000Z 29010KT 20SM FEW100 SCT150 BKN220 13/10 A3034 RMK AC1AC1CI1 SLP274=

CYVR;2005-03-11 02:00;METAR CYVR 110200Z 30003KT 20SM SCT150 BKN220 10/09 A3030 RMK AC2CI1 SLP260=

CYVR;2005-03-11 04:00;METAR CYVR 110400Z 32004KT 20SM BKN230 10/09 A3028 RMK CI3 SLP254=

CYVR;2005-03-11 06:00;METAR CYVR 110600Z 32005KT 20SM BKN230 10/09 A3027 RMK CI3 SLP251=

CYVR;2005-03-11 07:00;METAR CYVR 110700Z 29007KT 20SM BKN220 09/08 A3027 RMK CI4 SLP251=

CYVR;2005-03-11 09:00;METAR CYVR 110900Z 12005KT 12SM FEW080 BKN220 09/08 A3023 RMK AC2CI2 SLP238=

CYVR;2005-03-11 10:00;METAR CYVR 111000Z 19002KT 15SM SCT220 09/08 A3025 RMK CI2 SLP243=

CYVR;2005-03-11 11:00;METAR CYVR 111100Z 08004KT 15SM SCT220 07/07 A3022 RMK CI2 SLP234=

CYVR;2005-03-11 12:00;METAR CYVR 111200Z 11006KT 15SM FEW100 SCT220 08/07 A3021 RMK AC2CI2 VIS LWR N SLP229=

CYVR;2005-03-11 13:00;METAR CYVR 111300Z 09004KT 15SM SCT062 BKN100 BKN220 08/08 A3020 RMK SC3AC2CI2 VIS LWR N SLP227=

CYVR;2005-03-11 14:00;METAR CYVR 111400Z 08003KT 15SM OVC064 09/08 A3019 RMK SC8 VIS LWR N SLP222=

CYVR;2005-03-11 16:00;METAR CYVR 111600Z 30007KT 15SM PRFG OVC055 10/09 A3020 RMK SC8 VIS LWR N SLP228=

CYVR;2005-03-11 16:05;SPECI CYVR 111605Z 29005KT 12SM -SHRA OVC053 RMK SC8 PCPN VRY LGT=

CYVR;2005-03-11 17:00;METAR CYVR 111700Z 30006KT 15SM BKN038 OVC100 11/10 A3021 RMK SC6AC2 SLP230=

CYVR;2005-03-11 18:00;METAR CYVR 111800Z 30009KT 12SM FEW010 OVC039 11/10 A3021 RMK SC2SC6 SLP229=

CYVR;2005-03-11 19:00;METAR CYVR 111900Z 30013KT 8SM BKN005 OVC039 11/10 A3021 RMK SC5SC3 VIS NW LWR 5 SM SLP229=

CYVR;2005-03-11 19:05;SPECI CYVR 111905Z 29012KT 10SM SCT005 OVC041 RMK SC4SC4 VIS LWR NW 5 SM=

CYVR;2005-03-11 19:31;SPECI CYVR 111931Z 30012KT 10SM BKN004 BKN025 OVC040 RMK SC5SC2SC2 VIS LWR NW 5 SM=

CYVR;2005-03-11 20:00;METAR CYVR 112000Z 30011KT 10SM SCT004 BKN029 OVC040 11/10 A3021 RMK SC4SC2SC2 SLP231=

CYVR;2005-03-11 20:12;SPECI CYVR 112012Z 30013KT 10SM BKN004 OVC040 RMK SC5SC3=

CYVR;2005-03-11 20:28;SPECI CYVR 112028Z 30013KT 10SM SCT004 BKN010 OVC040 RMK SC3SC3SC2=

CYVR;2005-03-11 21:00;METAR CYVR 112100Z 29016KT 15SM FEW004 SCT012 OVC043 11/10 A3019 RMK SF2SC2SC5 SLP225=

CYVR;2005-03-11 22:00;METAR CYVR 112200Z 28015KT 15SM FEW020 BKN031 BKN045 11/09 A3019 RMK SF1SC6SC1 SLP223=

CYVR;2005-03-11 23:00;METAR CYVR 112300Z 28012G19KT 20SM FEW025 SCT061 BKN150 BKN220 12/09 A3017 RMK SF1SC1AC1CI1 SLP218=

CYVR;2005-03-12 00:00;METAR CYVR 120000Z 28019KT 20SM FEW025 SCT150 BKN210 11/08 A3015 RMK SC1AC2CI2 SLP211=

CYVR;2005-03-12 01:00;METAR CYVR 120100Z 30011G17KT 20SM FEW035 SCT210 BKN230 11/08 A3014 RMK SC1CC2CI1 SLP208=

CYVR;2005-03-12 02:00;METAR CYVR 120200Z 30011G16KT 20SM FEW035 BKN230 10/08 A3014 RMK SC1CI1 SLP207=

CYVR;2005-03-12 04:00;METAR CYVR 120400Z 30016KT 20SM FEW015 SCT025 10/08 A3015 RMK SC1SC2 SLP210=

CYVR;2005-03-12 05:00;METAR CYVR 120500Z 29014KT 15SM OVC029 10/08 A3017 RMK SC8 SLP217=

CYVR;2005-03-12 06:00;METAR CYVR 120600Z 31011KT 15SM OVC031 10/08 A3020 RMK SC8 SLP227=

CYVR;2005-03-12 07:00;METAR CYVR 120700Z 32006KT 15SM OVC020 10/08 A3022 RMK SC7 SLP235=

CYVR;2005-03-12 12:00;METAR CYVR 121200Z 30015G20KT 15SM FEW030 08/06 A3030 RMK SC2 SLP260=

CYVR;2005-03-12 13:00;METAR CYVR 121300Z 30017KT 15SM FEW030 FEW220 08/06 A3031 RMK SC1CI1 SLP265=

CYVR;2005-03-12 14:00;METAR CYVR 121400Z 31014KT 15SM FEW017 08/07 A3034 RMK SC1 VIS LWR NE SLP273=

CYVR;2005-03-12 15:00;METAR CYVR 121500Z 32012KT 15SM FEW020 07/06 A3036 RMK SC2 VIS LWR NE-E SLP280=

CYVR;2005-03-12 15:47;SPECI CYVR 121547Z 02003KT 15SM BKN011 RMK SF6=

CYVR;2005-03-12 16:00;METAR CYVR 121600Z 34002KT 20SM BKN011 09/07 A3038 RMK SF4 SLP288=

CYVR;2005-03-12 18:00;METAR CYVR 121800Z 28008KT 30SM FEW015 10/08 A3042 RMK SF2 SLP302=

CYVR;2005-03-12 19:00;METAR CYVR 121900Z 28009KT 30SM FEW020 10/07 A3043 RMK SF1 SLP305=

CYVR;2005-03-12 22:00;METAR CYVR 122200Z 31009KT 30SM FEW045 12/07 A3040 RMK SF1 SLP296=

CYVR;2005-03-13 00:00;METAR CYVR 130000Z 28006KT 30SM SKC 12/08 A3039 RMK SLP291=

CYVR;2005-03-13 01:00;METAR CYVR 130100Z 27003KT 30SM SKC 11/07 A3038 RMK SLP288=

CYVR;2005-03-13 03:00;METAR CYVR 130300Z 27002KT 30SM SKC 08/07 A3039 RMK SLP291=

CYVR;2005-03-13 04:00;METAR CYVR 130400Z 00000KT 30SM SKC 07/06 A3038 RMK SLP288=

CYVR;2005-03-13 06:00;METAR CYVR 130600Z 31003KT 20SM MIFG SKC 06/06 A3039 RMK SLP292=

CYVR;2005-03-13 10:00;METAR CYVR 131000Z 00000KT 15SM SKC 05/04 A3039 RMK SLP292=

CYVR;2005-03-13 12:00;METAR CYVR 131200Z 07003KT 15SM SKC 04/03 A3041 RMK SLP297=

CYVR;2005-03-13 15:00;METAR CYVR 131500Z 00000KT 30SM SKC 03/03 A3045 RMK SLP312=

CYVR;2005-03-13 16:00;METAR CYVR 131600Z 00000KT 30SM SKC 05/03 A3046 RMK SLP315=

CYVR;2005-03-13 17:00;METAR CYVR 131700Z 27004KT 30SM SKC 09/05 A3047 RMK SLP319=

CYVR;2005-03-13 18:00;METAR CYVR 131800Z 28003KT 30SM SKC 10/07 A3048 RMK SLP321=

CYVR;2005-03-13 20:00;METAR CYVR 132000Z 26006KT 30SM SKC 11/06 A3046 RMK SLP315=

CYVR;2005-03-13 21:00;METAR CYVR 132100Z 29007KT 30SM SKC 12/07 A3044 RMK SLP309=

CYVR;2005-03-13 23:00;METAR CYVR 132300Z 30005KT 30SM FEW220 14/06 A3040 RMK CI0 SLP295=

CYVR;2005-03-14 00:00;METAR CYVR 140000Z 29005KT 30SM FEW230 14/06 A3038 RMK CI1 SLP289=

CYVR;2005-03-14 01:00;METAR CYVR 140100Z 31004KT 30SM FEW230 13/03 A3037 RMK CI1 SLP283=

CYVR;2005-03-14 03:00;METAR CYVR 140300Z 00000KT 30SM FEW230 08/04 A3036 RMK CI1 SLP280=

CYVR;2005-03-14 04:00;METAR CYVR 140400Z 00000KT 20SM FEW230 09/07 A3035 RMK CI1 SLP279=

CYVR;2005-03-14 05:00;METAR CYVR 140500Z 31003KT 20SM FEW220 07/05 A3036 RMK CI0 SLP280=

CYVR;2005-03-14 07:00;METAR CYVR 140700Z 16002KT 20SM FEW220 08/04 A3035 RMK CI1 SLP279=

CYVR;2005-03-14 08:00;METAR CYVR 140800Z 14002KT 20SM FEW220 06/04 A3035 RMK CI0 SLP278=

CYVR;2005-03-14 09:00;METAR CYVR 140900Z 31003KT 20SM FEW220 05/03 A3035 RMK CI1 SLP277=

CYVR;2005-03-14 10:00;METAR CYVR 141000Z 01002KT 20SM FEW220 05/03 A3033 RMK CI1 SLP272=

CYVR;2005-03-14 12:00;METAR CYVR 141200Z 09002KT 15SM BKN220 05/02 A3031 RMK CI2 SLP264=

CYVR;2005-03-14 13:00;METAR CYVR 141300Z 10006KT 15SM BKN200 04/02 A3030 RMK CI2 SLP262=

CYVR;2005-03-14 14:00;METAR CYVR 141400Z 07002KT 15SM BKN200 04/02 A3030 RMK CI6 SLP260=

CYVR;2005-03-14 15:00;METAR CYVR 141500Z 09002KT 20SM SCT150 BKN200 05/02 A3030 RMK AC3CI2 SLP259=

CYVR;2005-03-14 16:00;METAR CYVR 141600Z 09003KT 20SM SCT150 BKN210 07/04 A3029 RMK AC4CI2 SLP258=

CYVR;2005-03-14 17:00;METAR CYVR 141700Z 10004KT 30SM SCT150 BKN230 10/03 A3029 RMK AC4CI2 SLP257=

CYVR;2005-03-14 18:00;METAR CYVR 141800Z 17004KT 30SM FEW160 BKN240 11/02 A3027 RMK AC2CI2 SLP251=

CYVR;2005-03-14 19:00;METAR CYVR 141900Z 16007KT 30SM FEW160 SCT240 12/02 A3025 RMK AC1CI2 SLP244=

CYVR;2005-03-14 21:00;METAR CYVR 142100Z 26009KT 30SM BKN230 12/08 A3020 RMK CI3 SLP227=

CYVR;2005-03-14 22:00;METAR CYVR 142200Z 27006KT 30SM SCT210 11/07 A3017 RMK CI2 SLP216=

CYVR;2005-03-14 23:00;METAR CYVR 142300Z 27005KT 30SM FEW210 11/08 A3014 RMK CI1 SLP208=

CYVR;2005-03-15 00:00;METAR CYVR 150000Z 26004KT 30SM FEW210 11/07 A3011 RMK CI2 SLP198=

CYVR;2005-03-15 01:00;METAR CYVR 150100Z 27003KT 30SM SCT210 11/07 A3009 RMK CI2 SLP191=

CYVR;2005-03-15 04:00;METAR CYVR 150400Z 00000KT 20SM MIFG FEW210 07/05 A3006 RMK CI0 SLP181=

CYVR;2005-03-15 07:00;METAR CYVR 150700Z 08002KT 20SM BKN220 07/04 A3005 RMK CI6 SLP175=

CYVR;2005-03-15 09:00;METAR CYVR 150900Z 00000KT 15SM OVC160 07/04 A3004 RMK AS7 SLP171=

CYVR;2005-03-15 10:00;METAR CYVR 151000Z 11002KT 15SM BKN160 06/04 A3003 RMK AS6 SLP168=

CYVR;2005-03-15 11:00;METAR CYVR 151100Z 00000KT 15SM FEW160 06/03 A3002 RMK AS2 SLP165=

CYVR;2005-03-15 12:00;METAR CYVR 151200Z 09004KT 15SM FEW160 SCT210 04/02 A3001 RMK AC2CI0 SLP164=

CYVR;2005-03-15 14:00;METAR CYVR 151400Z 09008KT 8SM BKN004 BKN160 06/05 A3002 RMK SF5AC1 SLP167=

CYVR;2005-03-15 14:35;SPECI CYVR 151435Z 09005KT 10SM BKN007 BKN160 BKN200 RMK SF5AC1CI1=

CYVR;2005-03-15 14:50;SPECI CYVR 151450Z 09009KT 8SM FEW006 SCT009 BKN160 BKN200 RMK SF2SF2AC1CI2=

CYVR;2005-03-15 15:00;METAR CYVR 151500Z 09008KT 8SM FEW005 SCT008 BKN160 BKN210 06/05 A3002 RMK SF2SF2AC1CI2 SLP167=

CYVR;2005-03-15 15:05;SPECI CYVR 151505Z 10008KT 8SM FEW005 BKN008 BKN160 OVC210 RMK SF2SF4AC1CI1=

CYVR;2005-03-15 15:44;SPECI CYVR 151544Z 10008KT 8SM FEW007 BKN010 OVC160 RMK SF2SC3AC2=

CYVR;2005-03-15 16:00;METAR CYVR 151600Z 10008KT 8SM FEW006 BKN010 OVC150 08/06 A3003 RMK SF2SC4AC2 SLP169=

CYVR;2005-03-15 17:00;METAR CYVR 151700Z 13010KT 10SM FEW009 BKN015 OVC025 08/06 A3004 RMK SC2SC5SC1 VIS SW 20 SLP174=

CYVR;2005-03-15 18:00;METAR CYVR 151800Z 16011KT 12SM SCT018 BKN025 OVC100 08/05 A3004 RMK SC3SC3AC1 SLP174=

CYVR;2005-03-15 22:00;METAR CYVR 152200Z 13008KT 15SM SCT030 BKN240 11/05 A3002 RMK SC3CI1 SLP166=

CYVR;2005-03-16 00:00;METAR CYVR 160000Z 11013G18KT 15SM FEW035 SCT240 11/05 A2998 RMK CU1CI1 SLP153=

CYVR;2005-03-16 01:00;METAR CYVR 160100Z 13013KT 15SM FEW035 SCT230 11/05 A2997 RMK SC1CI1 SLP148=

CYVR;2005-03-16 02:00;METAR CYVR 160200Z 11010KT 15SM FEW035 FEW230 10/05 A2995 RMK SC1CI1 SLP142=

CYVR;2005-03-16 04:00;METAR CYVR 160400Z 10010KT 15SM FEW030 FEW210 08/05 A2992 RMK SC1CI1 SLP132=

CYVR;2005-03-16 07:00;METAR CYVR 160700Z 08007KT 15SM SCT160 BKN210 07/04 A2988 RMK AC3CI2 SLP119=

CYVR;2005-03-16 10:00;METAR CYVR 161000Z 10012KT 10SM FEW011 OVC100 08/05 A2979 RMK SF2AC6 SLP089=

CYVR;2005-03-16 11:00;METAR CYVR 161100Z 07007KT 10SM FEW012 OVC085 08/05 A2977 RMK SF2AC6 SLP081=

CYVR;2005-03-16 12:00;METAR CYVR 161200Z 11008KT 12SM FEW012 OVC080 09/04 A2974 RMK SF2AC6 SLP071=

CYVR;2005-03-16 13:00;METAR CYVR 161300Z 12009KT 12SM FEW012 OVC058 08/04 A2971 RMK SF1SC7 SLP061=

CYVR;2005-03-16 14:00;METAR CYVR 161400Z 13009KT 12SM OVC048 09/01 A2967 RMK SC8 SLP049=

CYVR;2005-03-16 14:47;SPECI CYVR 161447Z 09010KT 12SM -SHRA BKN039 OVC050 RMK SC7SC1=

CYVR;2005-03-16 15:00;METAR CYVR 161500Z 09011KT 12SM -SHRA BKN040 OVC055 08/04 A2965 RMK SC6SC2 SLP039=

CYVR;2005-03-16 16:00;METAR CYVR 161600Z 09009KT 8SM -SHRA BKN037 OVC050 07/05 A2962 RMK SC6SC2 SLP031=

CYVR;2005-03-16 16:32;SPECI CYVR 161632Z 08008KT 2 1/2SM -SHRA BR FEW018 OVC032 RMK SF2SC6=

CYVR;2005-03-16 16:41;SPECI CYVR 161641Z 10011KT 3SM -SHRA BR FEW017 OVC034 RMK SF2SC6=

CYVR;2005-03-16 17:00;METAR CYVR 161700Z 08012G19KT 5SM -SHRA BR FEW019 OVC040 07/05 A2961 RMK SF2SC6 SLP026=

CYVR;2005-03-16 17:51;SPECI CYVR 161751Z 08014KT 10SM FEW020 BKN031 OVC050 RMK SF2SC6SC1=

CYVR;2005-03-16 18:00;METAR CYVR 161800Z 09013KT 10SM FEW021 BKN031 OVC050 07/06 A2958 RMK SF2SC6SC1 SLP018=

CYVR;2005-03-16 18:29;SPECI CYVR 161829Z 08013G18KT 10SM -SHRA FEW018 BKN030 OVC050 RMK SF2SC5SC2=

CYVR;2005-03-16 18:50;SPECI CYVR 161850Z 07013KT 10SM FEW009 BKN018 BKN030 OVC055 RMK SF2SC2SC2SC1=

CYVR;2005-03-16 19:00;METAR CYVR 161900Z 07013KT 10SM SCT007 BKN019 OVC031 07/06 A2955 RMK SF3SC2SC2 SLP007=

CYVR;2005-03-16 19:11;SPECI CYVR 161911Z 08011G17KT 10SM FEW007 BKN011 BKN020 OVC030 RMK SF2SC2SC2SC2=

CYVR;2005-03-16 19:29;SPECI CYVR 161929Z 09011KT 8SM -SHRA FEW007 BKN012 BKN022 OVC030 RMK SF2SC2SC2SC1=

CYVR;2005-03-16 20:00;METAR CYVR 162000Z 09013KT 10SM -SHRA FEW007 SCT013 BKN025 OVC035 08/07 A2953 RMK SF2SC2SC3SC2 SLP001=

CYVR;2005-03-16 20:18;SPECI CYVR 162018Z 05009KT 10SM FEW011 BKN018 BKN030 RMK SF2SC3SC2 VIS S - W 20=

CYVR;2005-03-16 21:00;METAR CYVR 162100Z 05006KT 20SM FEW018 SCT030 BKN070 BKN120 09/06 A2953 RMK SF2SC2AC2AC1 TCU EMBD SLP000=

CYVR;2005-03-16 21:38;SPECI CYVR 162138Z 04011G18KT 20SM FEW022TCU SCT030 BKN100 RMK TCU2SC2AC2 CB EMBD NW - NE=

CYVR;2005-03-16 22:00;METAR CYVR 162200Z 04008KT 20SM FEW020TCU SCT035 BKN090 08/06 A2955 RMK TCU2SC2AC2 CB EMBD W - NW SLP006=

CYVR;2005-03-16 22:26;SPECI CYVR 162226Z 02007KT 15SM -SHRA FEW009 SCT015TCU BKN035 RMK SF1TCU2SC4 CB EMBD=

CYVR;2005-03-16 22:29;SPECI CYVR 162229Z 03007KT 15SM -SHRAGR FEW009 SCT015TCU BKN028CB RMK SF1TCU2CB4 HAIL DIAM 0.5 MM=

CYVR;2005-03-16 22:44;SPECI CYVR 162244Z 27016G21KT 10SM -SHRA FEW008 FEW014TCU BKN029CB RMK SF2TCU1CB5 WSHFT=

CYVR;2005-03-16 23:00;METAR CYVR 162300Z 30014G20KT 15SM FEW010 FEW020TCU SCT030CB BKN060 07/06 A2959 RMK SF1TCU1CB2SC3 CB E SLP021=

CYVR;2005-03-17 00:00;METAR CYVR 170000Z 29016KT 15SM FEW013 BKN030 07/05 A2961 RMK CU2SC5 CB EMBD E SLP026=

CYVR;2005-03-17 02:00;METAR CYVR 170200Z 31009KT 20SM FEW014 FEW030 07/04 A2965 RMK SF1SC1 SLP042=

CYVR;2005-03-17 04:00;METAR CYVR 170400Z 04005KT 15SM BKN022 05/04 A2973 RMK SC6 SLP068=

CYVR;2005-03-17 05:00;METAR CYVR 170500Z 09007KT 15SM SCT018 05/04 A2975 RMK SC2 SLP076=

CYVR;2005-03-17 06:00;METAR CYVR 170600Z 11006KT 15SM BKN018 05/05 A2979 RMK SC7 SLP089=

CYVR;2005-03-17 09:00;METAR CYVR 170900Z 08005KT 12SM BKN026 06/04 A2988 RMK SC6 SLP117=

CYVR;2005-03-17 10:00;METAR CYVR 171000Z 09002KT 12SM BKN026 06/04 A2990 RMK SC7 SLP124=

CYVR;2005-03-17 11:00;METAR CYVR 171100Z 07006KT 15SM BKN030 06/04 A2991 RMK SC7 SLP129=

CYVR;2005-03-17 12:00;METAR CYVR 171200Z 06006KT 15SM BKN035 06/04 A2992 RMK SC7 SLP132=

CYVR;2005-03-17 13:00;METAR CYVR 171300Z 17005KT 15SM BKN035 06/04 A2993 RMK SC6 SLP137=

CYVR;2005-03-17 15:00;METAR CYVR 171500Z 09005KT 15SM FEW016 BKN041 04/03 A2996 RMK SF1SC4 SLP147=

CYVR;2005-03-17 16:00;METAR CYVR 171600Z 09008KT 15SM FEW027 BKN039 06/04 A2998 RMK SC2SC4 SLP154=

CYVR;2005-03-17 17:00;METAR CYVR 171700Z 08004KT 15SM BKN017 OVC035 07/03 A3001 RMK SC5SC3 VIS NE 8 SLP161=

CYVR;2005-03-17 18:00;METAR CYVR 171800Z 07005KT 12SM BKN016 OVC038 07/04 A3001 RMK SC6SC2 VIS NE 8 SLP164=

CYVR;2005-03-17 19:00;METAR CYVR 171900Z 09004KT 12SM SCT016 OVC049 08/05 A3001 RMK SC3SC5 BINOVC SLP162=

CYVR;2005-03-17 20:00;METAR CYVR 172000Z 12006KT 12SM SCT018TCU BKN050 10/05 A2999 RMK TCU3SC2 SLP157=

CYVR;2005-03-17 21:00;METAR CYVR 172100Z 23007KT 12SM SCT018TCU BKN052 10/03 A2999 RMK TCU3SC4 SLP155=

CYVR;2005-03-17 22:00;METAR CYVR 172200Z 21008KT 12SM FEW024TCU BKN057 10/05 A2997 RMK TCU2SC2 VIS NW LWR SLP148=

CYVR;2005-03-17 23:00;METAR CYVR 172300Z 22007KT 12SM FEW030TCU BKN052 09/04 A2996 RMK TCU2SC2 SLP146=

CYVR;2005-03-18 00:00;METAR CYVR 180000Z 20007KT 15SM FEW034TCU BKN060 10/04 A2995 RMK TCU1SC6 SLP143=

CYVR;2005-03-18 02:00;METAR CYVR 180200Z 19003KT 15SM FEW035TCU BKN059 BKN080 09/04 A2993 RMK TCU1SC6AC1 SLP135=

CYVR;2005-03-18 04:00;METAR CYVR 180400Z 17004KT 15SM BKN030 OVC050 09/04 A2991 RMK SC5SC2 SLP128=

CYVR;2005-03-18 04:30;SPECI CYVR 180430Z 11004KT 15SM SCT024 OVC055 RMK SC3SC4=

CYVR;2005-03-18 07:00;METAR CYVR 180700Z 09005KT 15SM FEW035 BKN090 06/05 A2985 RMK SC2AC2 SLP110=

CYVR;2005-03-18 09:00;METAR CYVR 180900Z 09005KT 15SM FEW030 OVC097 06/05 A2984 RMK SC2AC5 SLP104=

CYVR;2005-03-18 10:00;METAR CYVR 181000Z 09005KT 15SM SCT035 BKN080 OVC100 06/05 A2983 RMK SC3AC2AC2 SLP102=

CYVR;2005-03-18 11:00;METAR CYVR 181100Z 10006KT 15SM SCT030 OVC072 06/04 A2981 RMK SC3AC5 SLP095=

CYVR;2005-03-18 12:00;METAR CYVR 181200Z 36002KT 15SM BKN036 OVC075 06/05 A2980 RMK SC6AC2 SLP090=

CYVR;2005-03-18 12:05;SPECI CYVR 181205Z 36002KT 15SM -SHRA BKN036 OVC075 RMK SC6AC2 PCPN VRY LGT=

CYVR;2005-03-18 13:00;METAR CYVR 181300Z 34003KT 15SM BKN036 OVC075 06/05 A2979 RMK SC6AC2 SLP087=

CYVR;2005-03-18 14:24;SPECI CYVR 181424Z 03004KT 15SM SCT030 OVC085 RMK SC3AC3=

CYVR;2005-03-18 15:00;METAR CYVR 181500Z 08005KT 10SM BKN015 BKN085 06/05 A2977 RMK SC5AC2 SLP082=

CYVR;2005-03-18 15:37;SPECI CYVR 181537Z 08003KT 10SM SCT012 BKN042 OVC100 RMK SC4SC2AC2=

CYVR;2005-03-18 16:00;METAR CYVR 181600Z 09006KT 8SM SCT013 OVC044 06/05 A2977 RMK SC4SC4 SLP080=

CYVR;2005-03-18 16:50;SPECI CYVR 181650Z 09005KT 8SM BKN010 OVC040 RMK SC6SC2=

CYVR;2005-03-18 17:00;METAR CYVR 181700Z 10005KT 8SM BKN010 BKN020 OVC040 07/05 A2976 RMK SC5SC2SC1 SLP078=

CYVR;2005-03-18 18:00;METAR CYVR 181800Z 09006KT 8SM OVC010 07/05 A2975 RMK SC8 SLP076=

CYVR;2005-03-18 18:37;SPECI CYVR 181837Z 11005KT 8SM BKN013 OVC025 RMK SC5SC3=

CYVR;2005-03-18 19:17;SPECI CYVR 181917Z 23004KT 8SM -SHRA BKN009 OVC025 RMK SC7SC1=

CYVR;2005-03-18 20:27;SPECI CYVR 182027Z 29003KT 8SM SCT009 OVC027 RMK SC4SC4=

CYVR;2005-03-18 23:00;METAR CYVR 182300Z 12006KT 10SM BKN019 BKN040 OVC080 08/05 A2971 RMK SC5SC2AC2 SLP060=

CYVR;2005-03-19 03:00;METAR CYVR 190300Z 10011KT 15SM FEW040 06/04 A2965 RMK SC2 SLP041=

CYVR;2005-03-19 04:00;METAR CYVR 190400Z 09009KT 15SM FEW040 OVC075 06/04 A2964 RMK SC2AC6 SLP038=

CYVR;2005-03-19 07:00;METAR CYVR 190700Z 11009KT 15SM -SHRA SCT040 BKN057 OVC070 06/04 A2962 RMK SC3SC2AC2 SLP029=

CYVR;2005-03-19 09:00;METAR CYVR 190900Z 08005KT 12SM -SHRA FEW015 OVC031 05/04 A2959 RMK SC2SC6 SLP020=

CYVR;2005-03-19 10:00;METAR CYVR 191000Z 08003KT 15SM -SHRA OVC027 05/03 A2958 RMK SC8 SLP016=

CYVR;2005-03-19 11:00;METAR CYVR 191100Z 13003KT 15SM -SHRA OVC024 05/04 A2956 RMK SC8 VIS N LWR 12 SM SLP011=

CYVR;2005-03-19 12:00;METAR CYVR 191200Z 04004KT 15SM -SHRA BKN027 OVC035 05/04 A2953 RMK SC6SC2 PCPN VRY LGT SLP999=

CYVR;2005-03-19 13:00;METAR CYVR 191300Z 07004KT 15SM -SHRA SCT027 OVC048 05/04 A2952 RMK SC3SC5 SLP995=

CYVR;2005-03-19 14:00;METAR CYVR 191400Z 07003KT 15SM -SHRA SCT033 OVC044 05/04 A2949 RMK SC4SC4 SLP988=

CYVR;2005-03-19 14:30;SPECI CYVR 191430Z 08004KT 15SM SCT044 OVC077 RMK SC3AC4=

CYVR;2005-03-19 16:00;METAR CYVR 191600Z 08004KT 15SM OVC051 05/04 A2947 RMK SC8 SLP978=

CYVR;2005-03-19 20:00;METAR CYVR 192000Z 09013G18KT 15SM BKN046 OVC220 09/03 A2938 RMK SC6CI2 SLP950=

CYVR;2005-03-19 20:53;SPECI CYVR 192053Z 09005KT 15SM -SHRA BKN035 OVC050 RMK SC7SC1=

CYVR;2005-03-19 22:00;METAR CYVR 192200Z 11006KT 6SM -RA BR OVC030 07/04 A2933 RMK SC8 SLP931=

CYVR;2005-03-20 00:00;METAR CYVR 200000Z 03005KT 10SM -RA FEW017 OVC040 08/06 A2925 RMK CF1SC7 PCPN VRY LGT SLP906=

CYVR;2005-03-20 01:12;SPECI CYVR 200112Z 09008KT 8SM -RA SCT012 OVC035 RMK SC3SC5=

CYVR;2005-03-20 02:00;METAR CYVR 200200Z 08004KT 5SM -RA BR SCT012 OVC028 06/05 A2920 RMK SC3SC5 SLP889=

CYVR;2005-03-20 03:00;METAR CYVR 200300Z 09003KT 6SM -RA BR FEW012 OVC028 06/06 A2919 RMK SC2SC6 VIS NW - N LWR 4 SM SLP884=

CYVR;2005-03-20 04:00;METAR CYVR 200400Z 09006KT 5SM -RA BR FEW015 OVC028 06/06 A2917 RMK SC2SC6 SLP877=

CYVR;2005-03-20 04:27;SPECI CYVR 200427Z 09005KT 7SM -RA FEW015 OVC028 RMK SC2SC6 VIS N LWR 5 SM=

CYVR;2005-03-20 05:00;METAR CYVR 200500Z 10007KT 7SM -RA OVC028 07/06 A2915 RMK SC8 VIS N LWR 5 SM SLP871=

CYVR;2005-03-20 05:43;SPECI CYVR 200543Z 10007KT 6SM -RA BR OVC026 RMK SC8 VIS N LWR 4 SM=

CYVR;2005-03-20 06:13;SPECI CYVR 200613Z 07007KT 7SM -RA OVC029 RMK SC8=

CYVR;2005-03-20 07:00;METAR CYVR 200700Z 07008KT 10SM -SHRA OVC025 08/07 A2914 RMK SC8 SLP867=

CYVR;2005-03-20 09:00;METAR CYVR 200900Z 14015G28KT 15SM -SHRA SCT027 OVC070 11/08 A2916 RMK SC4AC4 SLP874=

CYVR;2005-03-20 10:00;METAR CYVR 201000Z 12015G21KT 15SM -SHRA FEW025 OVC066 11/08 A2918 RMK SC2AC6 VIS N LWR 12 SM SLP880=

CYVR;2005-03-20 13:00;METAR CYVR 201300Z 14017G25KT 15SM -SHRA FEW025 BKN050 OVC065 10/07 A2918 RMK SC2SC5SC2 SLP881=

CYVR;2005-03-20 14:00;METAR CYVR 201400Z 16019G25KT 12SM -RA SCT022 OVC030 10/08 A2923 RMK SC3SC5 SLP900=

CYVR;2005-03-20 14:08;SPECI CYVR 201408Z 18019G29KT 6SM -RA BR BKN022 OVC030 RMK SC5SC3=

CYVR;2005-03-20 14:14;SPECI CYVR 201414Z 18016G29KT 8SM -RA BKN022 OVC030 RMK SC5SC3=

CYVR;2005-03-20 14:40;SPECI CYVR 201440Z 19013G18KT 10SM PRFG SCT033 OVC077 RMK SC4AC4=

CYVR;2005-03-20 15:00;METAR CYVR 201500Z 18012KT 12SM SCT029 OVC081 09/05 A2929 RMK SC3AC5 SLP919=

CYVR;2005-03-20 16:36;SPECI CYVR 201636Z 11012KT 15SM -RA SCT038 BKN050 OVC078 RMK SC3SC2AC2=

CYVR;2005-03-20 17:00;METAR CYVR 201700Z 11013KT 8SM -RA BKN032 OVC048 08/06 A2939 RMK SC5SC3 VIS N LWR SLP954=

CYVR;2005-03-20 18:21;SPECI CYVR 201821Z 08008KT 6SM -RA BR FEW009 OVC031 RMK CF2SC6=

CYVR;2005-03-20 19:25;SPECI CYVR 201925Z 09011KT 6SM -RA BR BKN012 OVC020 RMK SC5SC3=

CYVR;2005-03-20 19:48;SPECI CYVR 201948Z 09014KT 6SM -RA BR SCT013 BKN022 OVC036 RMK SC3SC4SC1=

CYVR;2005-03-20 22:00;METAR CYVR 202200Z 15016G24KT 12SM -RA BKN035 OVC048 11/07 A2934 RMK SC5SC3 VIS LWR NW SLP936=

CYVR;2005-03-20 23:00;METAR CYVR 202300Z 15018G28KT 15SM -SHRA BKN037 OVC048 12/06 A2934 RMK SC6SC2 PCPN VRY LGT SLP934=

CYVR;2005-03-21 00:00;METAR CYVR 210000Z 20014KT 6SM -SHRA BR OVC034 10/08 A2937 RMK SC8 SLP945=

CYVR;2005-03-21 00:15;SPECI CYVR 210015Z 23015KT 6SM -SHRA BR SCT012 BKN022 OVC038 RMK SC3SC4SC1=

CYVR;2005-03-21 02:17;SPECI CYVR 210217Z 14006KT 12SM BKN034 BKN054 RMK SC5SC2=

CYVR;2005-03-21 02:48;SPECI CYVR 210248Z 14003KT 15SM -SHRA SCT034 BKN058 BKN100 RMK SC3SC2AC2=

CYVR;2005-03-21 03:00;METAR CYVR 210300Z 00000KT 15SM -SHRA FEW035 BKN061 BKN100 07/05 A2949 RMK SC2SC4AC1 SLP987=

CYVR;2005-03-21 03:17;SPECI CYVR 210317Z 20002KT 15SM FEW035 SCT060 BKN075 BKN100 RMK SC2SC2AC2AC1=

CYVR;2005-03-21 05:00;METAR CYVR 210500Z 19014KT 15SM FEW035 SCT080 OVC240 07/01 A2962 RMK SC2AC2CI2 PRESRR SLP032=

CYVR;2005-03-21 07:00;METAR CYVR 210700Z 17008KT 15SM FEW035 SCT120 07/01 A2973 RMK SC1AC1 SLP068=

CYVR;2005-03-21 09:00;METAR CYVR 210900Z 20017KT 15SM FEW035 SCT100 BKN170 06/M00 A2978 RMK SC2AC2AC2 SLP086=

CYVR;2005-03-21 10:00;METAR CYVR 211000Z 18011KT 15SM FEW035 SCT150 06/M00 A2983 RMK SC1AC1 SLP100=

CYVR;2005-03-21 12:00;METAR CYVR 211200Z 18012G17KT 15SM FEW030 BKN065 OVC080 06/01 A2986 RMK SC2SC5AC1 SLP113=

CYVR;2005-03-21 14:24;SPECI CYVR 211424Z 18006KT 15SM -SHRA BKN035 OVC067 RMK SC6AC2=

CYVR;2005-03-21 14:39;SPECI CYVR 211439Z 18004KT 8SM BKN050 BKN100 RMK SC5AC0=

CYVR;2005-03-21 16:00;METAR CYVR 211600Z 19007KT 12SM FEW035 SCT080 06/01 A3001 RMK SC1AC2 SLP161=

CYVR;2005-03-21 17:00;METAR CYVR 211700Z 18006KT 12SM FEW018 FEW035 BKN065 07/01 A3004 RMK SF1SC1SC1 SLP173=

CYVR;2005-03-21 18:00;METAR CYVR 211800Z 18007KT 12SM SCT022 SCT050 BKN080 07/02 A3006 RMK SC3SC1AC1 SLP181=

CYVR;2005-03-21 19:00;METAR CYVR 211900Z 16013KT 12SM SCT024 SCT045 BKN080 09/02 A3008 RMK CU3SC1AC1 TCU EMBD N-NE SLP187=

CYVR;2005-03-21 21:00;METAR CYVR 212100Z 14010G16KT 12SM FEW026TCU BKN120 09/02 A3010 RMK TCU2AC1 SH N SLP193=

CYVR;2005-03-21 22:00;METAR CYVR 212200Z 16006KT 15SM FEW030 BKN120 09/02 A3010 RMK CU2AC1 SLP192=

CYVR;2005-03-21 23:00;METAR CYVR 212300Z 13005KT 15SM SCT035 BKN110 09/01 A3009 RMK SC4AC2 SLP191=

CYVR;2005-03-22 00:36;SPECI CYVR 220036Z 12002KT 15SM SCT040 BKN100 RMK SC3AC2 SH N=

CYVR;2005-03-22 01:00;METAR CYVR 220100Z 01005KT 12SM FEW030TCU FEW060 BKN100 08/02 A3009 RMK TCU2SC1AC1 SH N SLP190=

CYVR;2005-03-22 04:00;METAR CYVR 220400Z 08006KT 20SM FEW030 FEW090 04/03 A3010 RMK SC1AC1 SLP193=

CYVR;2005-03-22 05:00;METAR CYVR 220500Z 07005KT 20SM FEW030 FEW100 04/03 A3010 RMK SC2AC1 SLP193=

CYVR;2005-03-22 06:00;METAR CYVR 220600Z 04006KT 20SM FEW030 FEW100 04/02 A3010 RMK SC2AC1 SLP192=

CYVR;2005-03-22 08:00;METAR CYVR 220800Z 00000KT 15SM FEW030 04/01 A3007 RMK SC1 SLP182=

CYVR;2005-03-22 09:00;METAR CYVR 220900Z 00000KT 15SM FEW030 02/00 A3005 RMK SC1 SLP175=

CYVR;2005-03-22 10:00;METAR CYVR 221000Z 00000KT 15SM SKC 02/00 A3002 RMK SLP167=

CYVR;2005-03-22 11:00;METAR CYVR 221100Z 00000KT 15SM SKC 02/00 A3000 RMK SLP159=

CYVR;2005-03-22 12:00;METAR CYVR 221200Z 00000KT 20SM SKC 01/M01 A2998 RMK SLP152=

CYVR;2005-03-22 13:00;METAR CYVR 221300Z 00000KT 20SM SKC 01/M01 A2997 RMK SLP148=

CYVR;2005-03-22 15:00;METAR CYVR 221500Z 04002KT 30SM SKC 01/M01 A2995 RMK SLP141=

CYVR;2005-03-22 16:00;METAR CYVR 221600Z 00000KT 30SM SKC 04/02 A2994 RMK SLP138=

CYVR;2005-03-22 17:00;METAR CYVR 221700Z 31005KT 30SM FEW020 07/01 A2992 RMK SF1 SF TR SLP132=

CYVR;2005-03-22 21:00;METAR CYVR 222100Z 29018G25KT 30SM FEW080 09/05 A2984 RMK AC1 SLP105=

CYVR;2005-03-22 22:00;METAR CYVR 222200Z 30021KT 30SM FEW080 10/05 A2981 RMK AC1 SLP096=

CYVR;2005-03-22 23:00;METAR CYVR 222300Z 29018G24KT 30SM FEW080 10/05 A2980 RMK AC1 SLP090=

CYVR;2005-03-23 00:00;METAR CYVR 230000Z 28017KT 30SM FEW085 11/04 A2978 RMK AC1 SLP086=

CYVR;2005-03-23 01:00;METAR CYVR 230100Z 29012G18KT 30SM FEW080 11/03 A2977 RMK AC1 SLP081=

CYVR;2005-03-23 02:00;METAR CYVR 230200Z 30005KT 30SM FEW080 12/M05 A2977 RMK AC0 SLP081=

CYVR;2005-03-23 04:00;METAR CYVR 230400Z 04005KT 30SM FEW050 08/M04 A2977 RMK SC1 SLP082=

CYVR;2005-03-23 08:00;METAR CYVR 230800Z 02006KT 30SM FEW050 05/M03 A2978 RMK SC1 SLP084=

CYVR;2005-03-23 09:00;METAR CYVR 230900Z 02006KT 30SM FEW050 05/M04 A2978 RMK SC1 SLP084=

CYVR;2005-03-23 10:00;METAR CYVR 231000Z 04005KT 30SM FEW050 05/M05 A2978 RMK SC1 SLP085=

CYVR;2005-03-23 11:00;METAR CYVR 231100Z 04006KT 30SM FEW050 04/M05 A2978 RMK SC1 SLP083=

CYVR;2005-03-23 12:00;METAR CYVR 231200Z 07003KT 30SM SKC 05/M06 A2978 RMK SLP083=

CYVR;2005-03-23 13:00;METAR CYVR 231300Z 00000KT 30SM SKC 03/M05 A2978 RMK SLP084=

CYVR;2005-03-23 14:00;METAR CYVR 231400Z 00000KT 30SM FEW040 02/M05 A2978 RMK SC1 SLP085=

CYVR;2005-03-23 15:00;METAR CYVR 231500Z 10003KT 30SM SKC 04/M04 A2979 RMK SLP087=

CYVR;2005-03-23 16:00;METAR CYVR 231600Z 00000KT 30SM SKC 08/04 A2979 RMK SLP089=

CYVR;2005-03-23 17:00;METAR CYVR 231700Z 24004KT 30SM SKC 10/M04 A2980 RMK SLP090=

CYVR;2005-03-23 18:00;METAR CYVR 231800Z 26007KT 30SM SKC 10/M04 A2980 RMK SLP092=

CYVR;2005-03-23 19:00;METAR CYVR 231900Z 22010KT 30SM FEW060 10/M02 A2980 RMK CF1 SLP093=

CYVR;2005-03-23 20:00;METAR CYVR 232000Z 29015KT 30SM FEW070 10/03 A2980 RMK AC1 SLP092=

CYVR;2005-03-23 21:00;METAR CYVR 232100Z 29016KT 30SM FEW080 10/03 A2980 RMK AC1 SLP090=

CYVR;2005-03-23 22:00;METAR CYVR 232200Z 30013KT 30SM FEW080 10/M00 A2979 RMK AC1 SLP089=

CYVR;2005-03-23 23:00;METAR CYVR 232300Z 30013KT 30SM FEW080 10/M01 A2980 RMK AC1 SLP091=

CYVR;2005-03-24 00:00;METAR CYVR 240000Z 30011KT 30SM FEW080 11/M00 A2980 RMK AC1 SLP091=

CYVR;2005-03-24 02:00;METAR CYVR 240200Z 30006KT 30SM FEW075 08/01 A2982 RMK AC2 SLP097=

CYVR;2005-03-24 04:00;METAR CYVR 240400Z 11008KT 30SM FEW080 08/M03 A2985 RMK AC2 SLP107=

CYVR;2005-03-24 06:00;METAR CYVR 240600Z 05004KT 30SM FEW080 06/M05 A2989 RMK AC2 SLP122=

CYVR;2005-03-24 10:00;METAR CYVR 241000Z 10003KT 30SM FEW070 SCT100 05/M04 A2995 RMK AC2AC2 SLP141=

CYVR;2005-03-24 12:00;METAR CYVR 241200Z 36003KT 20SM SCT060 BKN090 04/M02 A2998 RMK SC3AC3 SLP152=

CYVR;2005-03-24 13:00;METAR CYVR 241300Z 35003KT 20SM BKN060 BKN100 04/M02 A3000 RMK SC5AC2 SLP160=

CYVR;2005-03-24 14:00;METAR CYVR 241400Z 02003KT 20SM SCT060 BKN110 05/M03 A3001 RMK SC3AC3 SLP164=

CYVR;2005-03-24 15:00;METAR CYVR 241500Z 04002KT 30SM FEW070 BKN110 05/M02 A3003 RMK AC1AC3 SLP168=

CYVR;2005-03-24 16:00;METAR CYVR 241600Z 08006KT 30SM BKN058 BKN110 07/M03 A3004 RMK SC6AC1 SLP173=

CYVR;2005-03-24 17:00;METAR CYVR 241700Z 09006KT 30SM BKN050 07/M01 A3005 RMK SC7 SLP177=

CYVR;2005-03-24 18:00;METAR CYVR 241800Z 10004KT 30SM SCT045 BKN075 09/00 A3006 RMK SC3AC4 SLP179=

CYVR;2005-03-24 19:00;METAR CYVR 241900Z 11005KT 30SM FEW040 BKN075 10/00 A3006 RMK SC2AC5 SLP180=

CYVR;2005-03-24 21:00;METAR CYVR 242100Z 26006KT 30SM FEW055 BKN080 11/01 A3006 RMK CU1AC2 SLP178=

CYVR;2005-03-24 22:00;METAR CYVR 242200Z 27008KT 30SM FEW055 BKN080 10/02 A3006 RMK CU1AC2 SLP178=

CYVR;2005-03-25 00:00;METAR CYVR 250000Z 30005KT 30SM FEW055 SCT100 11/03 A3005 RMK CU1AC2 SLP176=

CYVR;2005-03-25 03:00;METAR CYVR 250300Z 32002KT 30SM FEW050 FEW100 09/00 A3006 RMK SC1AC1 SLP178=

CYVR;2005-03-25 04:00;METAR CYVR 250400Z 36002KT 30SM FEW050 FEW100 08/01 A3007 RMK SC1AC1 SLP182=

CYVR;2005-03-25 05:00;METAR CYVR 250500Z 04004KT 30SM FEW050 FEW100 07/00 A3008 RMK SC1AC1 SLP185=

CYVR;2005-03-25 08:00;METAR CYVR 250800Z 10007KT 20SM FEW100 FEW220 04/00 A3010 RMK AC1CI0 SLP193=

CYVR;2005-03-25 09:00;METAR CYVR 250900Z 10006KT 20SM FEW100 05/01 A3012 RMK AC1 SLP199=

CYVR;2005-03-25 10:00;METAR CYVR 251000Z 08005KT 15SM FEW011 SCT100 03/00 A3013 RMK SF1AC2 SLP202=

CYVR;2005-03-25 11:00;METAR CYVR 251100Z 07006KT 15SM FEW060 BKN100 04/01 A3013 RMK SC2AC4 SLP204=

CYVR;2005-03-25 12:00;METAR CYVR 251200Z 10006KT 15SM SCT060 BKN080 05/02 A3013 RMK SC3AC4 SLP203=

CYVR;2005-03-25 14:25;SPECI CYVR 251425Z 08008KT 15SM BKN012 BKN050 BKN100 RMK SF5SC1AC1=

CYVR;2005-03-25 14:40;SPECI CYVR 251440Z 09010KT 15SM SCT012 BKN015 OVC100 RMK SC4SC2AC1=

CYVR;2005-03-25 16:00;METAR CYVR 251600Z 09010KT 15SM SCT017 BKN022 OVC057 07/04 A3017 RMK SC3SC3SC1 SLP218=

CYVR;2005-03-25 17:00;METAR CYVR 251700Z 10009KT 15SM BKN021 OVC040 08/04 A3018 RMK SC6SC2 SLP221=

CYVR;2005-03-25 18:00;METAR CYVR 251800Z 13008KT 15SM BKN021 OVC065 09/05 A3019 RMK SC6SC2 SLP224=

CYVR;2005-03-25 19:00;METAR CYVR 251900Z 12012KT 15SM BKN022 BKN065 09/05 A3018 RMK SC5SC1 SLP220=

CYVR;2005-03-25 21:00;METAR CYVR 252100Z 15013KT 15SM BKN027 11/04 A3017 RMK SC4 SLP217=

CYVR;2005-03-25 22:00;METAR CYVR 252200Z 14012G19KT 15SM SCT027 BKN200 12/03 A3014 RMK CU3CS1 SLP207=

CYVR;2005-03-25 23:00;METAR CYVR 252300Z 15010KT 15SM FEW040 OVC220 11/03 A3016 RMK CU2CS5 TCU ASCOT SLP212=

CYVR;2005-03-26 00:00;METAR CYVR 260000Z 13011KT 15SM FEW040 SCT100 OVC190 11/02 A3014 RMK SC2AS2AS4 SLP205=

CYVR;2005-03-26 01:00;METAR CYVR 260100Z 11009KT 15SM FEW040 SCT190 OVC220 11/02 A3011 RMK SC1AS3CS4 SLP196=

CYVR;2005-03-26 03:00;METAR CYVR 260300Z 09009KT 15SM FEW057 BKN078 OVC140 09/03 A3008 RMK SC2AC3AS3 SLP187=

CYVR;2005-03-26 05:00;METAR CYVR 260500Z 08012KT 15SM BKN054 OVC120 09/04 A3005 RMK SC5AS3 SLP175=

CYVR;2005-03-26 07:27;SPECI CYVR 260727Z 10017KT 12SM -SHRA BKN036 OVC054 RMK SC6SC2=

CYVR;2005-03-26 10:00;METAR CYVR 261000Z 08022G27KT 4SM -RA OVC032 07/05 A2992 RMK SC8 SLP132=

CYVR;2005-03-26 12:00;METAR CYVR 261200Z 09018G24KT 3SM RA BR OVC028 06/05 A2982 RMK SC8 PRESFR /R12/ SLP097=

CYVR;2005-03-26 14:00;METAR CYVR 261400Z 09012G17KT 8SM RA OVC031 06/05 A2972 RMK SC8 SLP064=

CYVR;2005-03-26 14:42;SPECI CYVR 261442Z 08016KT 6SM RA BR FEW012 BKN018 OVC030 RMK SF2SC6SC1=

CYVR;2005-03-26 14:51;SPECI CYVR 261451Z 08012G19KT 8SM RA FEW012 BKN018 OVC030 RMK SF2SC6SC1=

CYVR;2005-03-26 15:00;METAR CYVR 261500Z 08014G20KT 6SM RA BR BKN017 OVC023 06/06 A2971 RMK SC6SC2 SLP060=

CYVR;2005-03-26 15:09;SPECI CYVR 261509Z 08015KT 6SM RA BR BKN015 OVC023 RMK SC6SC2=

CYVR;2005-03-26 15:42;SPECI CYVR 261542Z 09015KT 5SM RA BR BKN014 OVC020 RMK SC6SC2=

CYVR;2005-03-26 16:00;METAR CYVR 261600Z 10014KT 5SM RA BR BKN013 OVC018 07/07 A2970 RMK SC6SC2 /R14/ SLP058=

CYVR;2005-03-26 17:53;SPECI CYVR 261753Z 12015G20KT 8SM -RA BKN014 OVC030 RMK SC6SC2=

CYVR;2005-03-26 19:00;METAR CYVR 261900Z 13012G17KT 15SM SCT016 OVC024 10/08 A2970 RMK SC3SC5 VIS N 12 SM SLP056=

CYVR;2005-03-26 20:00;METAR CYVR 262000Z 14015KT 15SM FEW016 FEW025 BKN180 BKN220 11/09 A2969 RMK SC1SC1AS3CI1 SLP055=

CYVR;2005-03-26 21:00;METAR CYVR 262100Z 15018G24KT 15SM FEW020 FEW040 SCT180 SCT220 11/09 A2970 RMK SF1SC1AS1CI1 SLP059=

CYVR;2005-03-26 22:00;METAR CYVR 262200Z 15020G25KT 15SM SCT025 BKN057 11/08 A2970 RMK SC3SC3 SLP058=

CYVR;2005-03-26 23:00;METAR CYVR 262300Z 14022G28KT 15SM FEW025 BKN061 11/09 A2969 RMK SC2SC4 SLP055=

CYVR;2005-03-27 00:00;METAR CYVR 270000Z 14015G22KT 15SM FEW025 BKN068 BKN220 11/09 A2970 RMK SC2AC4CI1 SLP056=

CYVR;2005-03-27 04:00;METAR CYVR 270400Z 13015G21KT 15SM SCT008 OVC067 09/08 A2972 RMK SC3AC5 SLP065=

CYVR;2005-03-27 04:37;SPECI CYVR 270437Z 13014KT 15SM BKN007 BKN070 RMK SC6AC2=

CYVR;2005-03-27 05:27;SPECI CYVR 270527Z 14016KT 15SM SCT007 BKN069 BKN200 RMK SC3AC2CI0=

CYVR;2005-03-27 06:00;METAR CYVR 270600Z 13012KT 15SM FEW009 SCT070 BKN200 09/08 A2972 RMK SC2AC2CI2 SLP065=

CYVR;2005-03-27 08:00;METAR CYVR 270800Z 11007KT 15SM BKN015 OVC069 09/08 A2970 RMK SC6AC2 SLP059=

CYVR;2005-03-27 08:42;SPECI CYVR 270842Z 10008KT 15SM -SHRA SCT015 OVC071 RMK SC3AC5=

CYVR;2005-03-27 10:00;METAR CYVR 271000Z 10004KT 8SM -SHRA OVC019 08/08 A2965 RMK SC8 SLP040=

CYVR;2005-03-27 12:00;METAR CYVR 271200Z 04006KT 8SM -RA OVC017 08/08 A2957 RMK SC8 SLP015=

CYVR;2005-03-27 13:00;METAR CYVR 271300Z 10004KT 8SM -RA OVC015 08/08 A2959 RMK SC8 SLP019=

CYVR;2005-03-27 13:15;SPECI CYVR 271315Z 09005KT 8SM -RA OVC013 RMK SC8=

CYVR;2005-03-27 13:42;SPECI CYVR 271342Z 09008KT 6SM -RA BR FEW006 OVC011 RMK SF2SC6=

CYVR;2005-03-27 14:00;METAR CYVR 271400Z 09008KT 5SM -RA BR FEW007 OVC013 08/08 A2958 RMK SF2SC6 SLP017=

CYVR;2005-03-27 14:42;SPECI CYVR 271442Z 09009KT 5SM -RA BR SCT010 OVC019 RMK SC4SC4=

CYVR;2005-03-27 15:00;METAR CYVR 271500Z 08008KT 7SM -RA FEW012 OVC020 08/08 A2957 RMK SF2SC6 SLP015=

CYVR;2005-03-27 16:00;METAR CYVR 271600Z 08007KT 15SM -SHRA FEW015 OVC023 09/08 A2956 RMK SF1SC6 SLP010=

CYVR;2005-03-27 21:19;SPECI CYVR 272119Z 30003KT 15SM -SHRA FEW011 BKN016 OVC030 RMK SF2SC5SC2=

CYVR;2005-03-27 21:33;SPECI CYVR 272133Z 31005KT 15SM FEW011 BKN014 OVC030 RMK SF2SC5SC2=

CYVR;2005-03-27 22:00;METAR CYVR 272200Z 00000KT 15SM FEW011 BKN014 OVC030 10/08 A2951 RMK SF2SC4SC2 SLP992=

CYVR;2005-03-27 22:02;SPECI CYVR 272202Z 34002KT 15SM SCT014 BKN018 BKN030 RMK SC4SC2SC2=

CYVR;2005-03-27 22:35;SPECI CYVR 272235Z 26006KT 15SM BKN015 OVC030 RMK SC5SC2=

CYVR;2005-03-28 00:00;METAR CYVR 280000Z 23002KT 15SM FEW020 BKN031 BKN080 10/08 A2948 RMK CU2SC4AC1 SLP984=

CYVR;2005-03-28 02:00;METAR CYVR 280200Z 17006KT 15SM BKN022 OVC038 10/07 A2947 RMK SC6SC2 SLP980=

CYVR;2005-03-28 03:23;SPECI CYVR 280323Z 16007KT 15SM -SHRA FEW015 BKN033 OVC150 RMK SC2SC3AC2=

CYVR;2005-03-28 03:45;SPECI CYVR 280345Z 15009KT 15SM FEW015 BKN031 OVC060 RMK SC1SC4SC2=

CYVR;2005-03-28 04:00;METAR CYVR 280400Z 15008KT 15SM SCT030 BKN058 OVC140 09/08 A2946 RMK SC3SC3AC1 SLP975=

CYVR;2005-03-28 06:09;METAR CYVR NIL=

CYVR;2005-03-28 08:00;METAR CYVR 280800Z 25007KT 15SM BKN036 OVC055 08/05 A2949 RMK SC6SC2 SLP985=

CYVR;2005-03-28 09:00;METAR CYVR 280900Z 22005KT 15SM FEW032 BKN056 08/04 A2949 RMK SC2SC4 SLP987=

CYVR;2005-03-28 12:00;METAR CYVR 281200Z 12005KT 15SM FEW030 OVC100 06/04 A2949 RMK SC2AS5 SLP987=

CYVR;2005-03-28 14:10;SPECI CYVR 281410Z 11007KT 15SM -SHRA BKN033 OVC050 RMK SC6SC2=

CYVR;2005-03-28 15:26;SPECI CYVR 281526Z 11005KT 6SM -SHRA BR FEW025 OVC030 RMK SF2SC6=

CYVR;2005-03-28 15:34;SPECI CYVR 281534Z 11004KT 8SM -SHRA SCT025 OVC030 RMK SF3SC5 VIS N 6 SM=

CYVR;2005-03-28 16:00;METAR CYVR 281600Z 18004KT 7SM -SHRA FEW025 OVC030 07/06 A2950 RMK SF2SC6 VIS NW - NE LWR 5 SM SLP991=

CYVR;2005-03-28 16:10;SPECI CYVR 281610Z 16006KT 6SM -SHRA BR SCT015 OVC030 RMK SF4SC4 VIS N 4 SM=

CYVR;2005-03-28 16:30;SPECI CYVR 281630Z 12005KT 7SM -SHRA FEW015 OVC030 RMK SF2SC6=

CYVR;2005-03-28 17:00;METAR CYVR 281700Z 12010KT 15SM -SHRA BKN017 OVC030 06/05 A2951 RMK SC5SC2 VIS NE QUAD LWR 7 SM SLP992=

CYVR;2005-03-28 17:37;SPECI CYVR 281737Z 13011KT 15SM FEW017 BKN070 OVC100 RMK SC2AC4AC1=

CYVR;2005-03-28 18:00;METAR CYVR 281800Z 10009KT 15SM FEW015 SCT070 BKN100 06/05 A2951 RMK SC2AC2AC3 MAMMA SLP994=

CYVR;2005-03-28 19:00;METAR CYVR 281900Z 09011KT 15SM SCT023 BKN070 08/06 A2953 RMK SC3AC2 SLP000=

CYVR;2005-03-28 21:00;METAR CYVR 282100Z 19011G22KT 15SM FEW025 BKN089 BKN220 11/02 A2954 RMK SC2AC2CI1 SLP002=

CYVR;2005-03-28 23:00;METAR CYVR 282300Z 18011KT 15SM FEW030 SCT035 BKN160 BKN220 11/01 A2954 RMK CF1SC2AC2CI2 SLP004=

CYVR;2005-03-28 23:44;SPECI CYVR 282344Z 14017KT 15SM -SHRA FEW035 BKN053 BKN150 RMK SC2SC2AC2=

CYVR;2005-03-29 00:00;METAR CYVR 290000Z 14019G24KT 15SM -SHRA FEW030 BKN036 BKN059 08/05 A2954 RMK SC1SC5SC2 SLP005=

CYVR;2005-03-29 00:19;SPECI CYVR 290019Z 14013KT 15SM FEW035 BKN059 BKN220 RMK SC2SC2CI1=

CYVR;2005-03-29 01:00;METAR CYVR 290100Z 14013G19KT 15SM SCT035 BKN059 BKN150 08/05 A2954 RMK SC3SC2AC1 SLP004=

CYVR;2005-03-29 02:09;SPECI CYVR 290209Z 14013KT 15SM -SHRA BKN037 OVC080 RMK SC5AC2 PCPN VRY LGT=

CYVR;2005-03-29 02:38;SPECI CYVR 290238Z 13010G15KT 15SM FEW025 BKN051 OVC080 RMK CF1SC5AC1=

CYVR;2005-03-29 03:00;METAR CYVR 290300Z 13013KT 15SM FEW030 BKN056 OVC200 08/05 A2952 RMK SC2SC4CI1 SLP997=

CYVR;2005-03-29 04:00;METAR CYVR 290400Z 13010KT 15SM SCT025 BKN049 OVC090 08/04 A2952 RMK SC3SC3AC2 SLP996=

CYVR;2005-03-29 05:00;METAR CYVR 290500Z 16011KT 15SM SCT040 BKN075 OVC090 08/03 A2952 RMK SC3AC3AS2 SLP996=

CYVR;2005-03-29 06:00;METAR CYVR 290600Z 13012KT 15SM SCT031 BKN053 OVC090 08/05 A2951 RMK SC3SC3AC2 SLP992=

CYVR;2005-03-29 06:12;SPECI CYVR 290612Z 14011KT 12SM -SHRA BKN035 OVC051 RMK SC5SC3=

CYVR;2005-03-29 07:00;METAR CYVR 290700Z 13010G15KT 12SM -RA SCT015 OVC031 07/05 A2949 RMK SC4SC4 SLP987=

CYVR;2005-03-29 08:00;METAR CYVR 290800Z 12012KT 8SM -RA BKN028 OVC047 07/05 A2946 RMK SC5SC3 SLP977=

CYVR;2005-03-29 09:00;METAR CYVR 290900Z 12015G24KT 8SM -RA SCT015 BKN026 OVC044 07/05 A2945 RMK SC3SC4SC1 SLP973=

CYVR;2005-03-29 09:44;SPECI CYVR 290944Z 09012G17KT 6SM -RA BR SCT012 OVC020 RMK SC3SC5=

CYVR;2005-03-29 10:00;METAR CYVR 291000Z 09013KT 8SM -RA SCT012 OVC021 05/05 A2944 RMK SC3SC5 SLP970=

CYVR;2005-03-29 12:00;METAR CYVR 291200Z 09013KT 8SM -RA OVC014 04/04 A2944 RMK SC8 /R10/ SLP970=

CYVR;2005-03-29 13:20;SPECI CYVR 291320Z 08013KT 10SM BKN011 OVC029 RMK SC6SC2=

CYVR;2005-03-29 13:40;SPECI CYVR 291340Z 07012KT 12SM FEW011 BKN017 OVC029 RMK SC2SC6SC1=

CYVR;2005-03-29 15:00;METAR CYVR 291500Z 06012KT 12SM SCT012 BKN022 OVC074 05/04 A2949 RMK SF3SC3AC2 SLP985=

CYVR;2005-03-29 16:00;METAR CYVR 291600Z 08010KT 10SM -SHRA BKN013 OVC026 05/05 A2952 RMK SF5SC3 SLP995=

CYVR;2005-03-29 17:00;METAR CYVR 291700Z 14004KT 6SM -SHRA SCT007 OVC018 06/05 A2955 RMK SF3SC5 SLP006=

CYVR;2005-03-29 18:00;METAR CYVR 291800Z 15004KT 8SM -SHRA FEW007 BKN017 OVC029 06/04 A2958 RMK SF2SC4SC2 SLP016=

CYVR;2005-03-29 18:45;SPECI CYVR 291845Z 09004KT 10SM FEW008 BKN019 OVC037 RMK SF2SC4SC2=

CYVR;2005-03-29 21:00;METAR CYVR 292100Z 27005KT 30SM FEW012 SCT031 BKN120 10/06 A2966 RMK SF1SC2AC1 TCU ASOCTD SLP044=

CYVR;2005-03-29 22:00;METAR CYVR 292200Z 24009KT 30SM SCT033 BKN130 09/05 A2969 RMK CU3AC1 SLP053=

CYVR;2005-03-29 23:00;METAR CYVR 292300Z 25011KT 30SM FEW032 SCT130 09/05 A2971 RMK CU2AC2 SLP061=

CYVR;2005-03-30 00:00;METAR CYVR 300000Z 28018KT 30SM FEW030 BKN120 10/05 A2973 RMK CU2AC3 SLP069=

CYVR;2005-03-30 01:00;METAR CYVR 300100Z 28016KT 30SM FEW030 SCT120 09/05 A2976 RMK SC2AC2 SLP078=

CYVR;2005-03-30 04:00;METAR CYVR 300400Z 26017G26KT 15SM FEW032 BKN100 08/05 A2986 RMK SC2AC4 SLP112=

CYVR;2005-03-30 05:00;METAR CYVR 300500Z 25021KT 15SM FEW035 SCT110 08/05 A2989 RMK SC1AC2 SLP122=

CYVR;2005-03-30 08:00;METAR CYVR 300800Z 28018KT 20SM BKN090 08/02 A2998 RMK AC3 SLP154=

CYVR;2005-03-30 10:00;METAR CYVR 301000Z 28017KT 15SM FEW100 SCT140 BKN220 07/02 A3005 RMK AC2AC2CI1 SLP175=

CYVR;2005-03-30 12:00;METAR CYVR 301200Z 28015KT 15SM FEW080 BKN140 BKN220 07/03 A3011 RMK AC2AC4CI1 SLP195=

CYVR;2005-03-30 13:00;METAR CYVR 301300Z 29014KT 20SM FEW080 SCT140 BKN220 06/02 A3013 RMK AC1AC2CI1 SLP202=

CYVR;2005-03-30 14:00;METAR CYVR 301400Z 29016KT 20SM FEW140 BKN220 06/02 A3016 RMK AC1CI0 SLP214=

CYVR;2005-03-30 15:00;METAR CYVR 301500Z 28014KT 30SM FEW040 SCT150 SCT220 07/01 A3019 RMK SC1AC2CI0 SLP224=

CYVR;2005-03-30 16:00;METAR CYVR 301600Z 27012KT 30SM FEW040 FEW150 08/02 A3022 RMK CF1AC2 SLP233=

CYVR;2005-03-30 17:00;METAR CYVR 301700Z 26012KT 30SM FEW040 FEW150 09/03 A3025 RMK CU1AC1 SLP243=

CYVR;2005-03-30 18:00;METAR CYVR 301800Z 24013KT 30SM FEW045 FEW220 09/04 A3027 RMK CU1CI0 SLP249=

CYVR;2005-03-30 19:00;METAR CYVR 301900Z 23009KT 30SM FEW045 FEW240 10/03 A3028 RMK CU1CI0 SLP255=

CYVR;2005-03-30 22:00;METAR CYVR 302200Z 22004KT 30SM FEW040 FEW240 12/M02 A3032 RMK CU2CI0 SLP268=

CYVR;2005-03-30 23:00;METAR CYVR 302300Z 23005KT 30SM FEW050 SCT075 12/M02 A3032 RMK CU2AC2 SLP268=

CYVR;2005-03-31 00:00;METAR CYVR 310000Z 16011KT 30SM FEW050 SCT070 11/M01 A3033 RMK CU2AC2 SLP270=

CYVR;2005-03-31 01:00;METAR CYVR 310100Z 14011KT 30SM FEW050 SCT075 11/00 A3033 RMK CU2AC2 SLP272=

CYVR;2005-03-31 03:00;METAR CYVR 310300Z 14006KT 20SM BKN058 OVC080 10/03 A3035 RMK SC6AC2 SLP278=

CYVR;2005-03-31 04:00;METAR CYVR 310400Z 10008KT 15SM FEW058 BKN210 08/04 A3036 RMK SC2CI1 SLP282=

CYVR;2005-03-31 05:00;METAR CYVR 310500Z 08007KT 15SM FEW060 BKN210 09/03 A3037 RMK SC2CS4 SLP285=

CYVR;2005-03-31 06:00;METAR CYVR 310600Z 09004KT 15SM BKN060 BKN210 09/03 A3037 RMK SC6CS2 SLP286=

CYVR;2005-03-31 08:00;METAR CYVR 310800Z 08010KT 15SM FEW060 BKN090 08/03 A3035 RMK SC2AC6 SLP279=

CYVR;2005-03-31 10:00;METAR CYVR 311000Z 09010KT 15SM SCT065 BKN090 08/03 A3033 RMK SC3AC3 SLP272=

CYVR;2005-03-31 11:00;METAR CYVR 311100Z 10010KT 15SM -RA SCT032 OVC060 08/03 A3033 RMK SC3SC5 SLP271=

CYVR;2005-03-31 12:00;METAR CYVR 311200Z 09010KT 10SM -RA BKN030 OVC060 07/04 A3032 RMK SC6SC2 PCPN VRY LGT SLP269=

CYVR;2005-03-31 13:00;METAR CYVR 311300Z 09010KT 10SM -RA BKN032 OVC060 07/04 A3032 RMK SC6SC2 SLP267=

CYVR;2005-03-31 14:00;METAR CYVR 311400Z 09011KT 12SM -RA SCT035 OVC080 07/05 A3032 RMK SC3AC5 SLP267=

CYVR;2005-03-31 16:00;METAR CYVR 311600Z 09011KT 10SM -RA FEW030 BKN040 OVC070 07/05 A3031 RMK SC2SC4AC2 SLP263=

CYVR;2005-03-31 17:00;METAR CYVR 311700Z 09012G18KT 10SM -RA BKN033 OVC050 07/06 A3030 RMK SC6SC2 SLP260=

CYVR;2005-03-31 18:00;METAR CYVR 311800Z 08011KT 10SM -RA SCT030 OVC041 08/06 A3029 RMK SC4SC4 SLP256=

CYVR;2005-03-31 22:00;METAR CYVR 312200Z 06011KT 8SM -RA FEW015 OVC033 08/07 A3023 RMK SF2SC6 SLP236=

CYVR;2005-04-01 00:00;METAR CYVR 010000Z 06010G15KT 8SM -RA FEW012 FEW020 OVC035 08/07 A3018 RMK SF1SF2SC6 SLP219=

CYVR;2005-04-01 01:00;METAR CYVR 010100Z 07013KT 12SM -RA FEW010 BKN035 OVC050 07/06 A3013 RMK SF2SC4SC2 SLP203=

CYVR;2005-04-01 03:00;METAR CYVR 010300Z 08018KT 10SM -RA FEW011 BKN038 OVC052 07/06 A3007 RMK SF2SC5SC2 SLP183=

CYVR;2005-04-01 05:00;METAR CYVR 010500Z 09020G26KT 10SM -RA FEW030 OVC060 07/06 A3001 RMK SC2SC6 SLP163=

CYVR;2005-04-01 10:00;METAR CYVR 011000Z 10011KT 10SM -RA FEW024 OVC045 09/08 A2986 RMK SC2SC6 SLP113=

CYVR;2005-04-01 11:00;METAR CYVR 011100Z 13017G27KT 10SM -RA FEW018 OVC045 09/07 A2983 RMK SC2SC6 SLP100=

CYVR;2005-04-01 12:00;METAR CYVR 011200Z 17014KT 10SM -RA FEW022 OVC035 09/08 A2985 RMK SC2SC6 SLP108=

CYVR;2005-04-01 13:00;METAR CYVR 011300Z 20017G24KT 10SM -RA FEW035 OVC050 09/07 A2986 RMK SC2SC6 SLP113=

CYVR;2005-04-01 13:07;SPECI CYVR 011307Z 21016G21KT 12SM FEW035 BKN050 OVC090 RMK SC2SC4AC2=

CYVR;2005-04-01 16:00;METAR CYVR 011600Z 20009G17KT 20SM FEW035 SCT060 SCT120 09/04 A2998 RMK SC2SC2AC1 SLP153=

CYVR;2005-04-01 17:00;METAR CYVR 011700Z 19015KT 15SM FEW035 SCT060 BKN110 BKN240 09/04 A3000 RMK CU1SC2AC2CI0 TCU EMBD N SLP159=

CYVR;2005-04-01 18:00;METAR CYVR 011800Z 20014KT 15SM FEW035 SCT060 BKN120 BKN240 09/03 A3002 RMK CU1SC2AC2CI0 TCU EMBD SLP167=

CYVR;2005-04-01 21:00;METAR CYVR 012100Z 20008KT 15SM FEW040 FEW050TCU BKN075 BKN140 10/02 A3002 RMK CU1TCU2AC3AC1 SLP166=

CYVR;2005-04-01 21:21;SPECI CYVR 012121Z 20018KT 15SM -SHRA SCT035 SCT050TCU BKN070 BKN140 RMK SC3TCU1AC2AC1=

CYVR;2005-04-01 21:54;SPECI CYVR 012154Z 21010KT 15SM FEW040 SCT050CB BKN075 BKN140 RMK SC2CB1AC2AC2 CB / SHS NE=

CYVR;2005-04-01 22:00;METAR CYVR 012200Z 22010KT 15SM FEW040 SCT050CB BKN075 BKN130 10/02 A3001 RMK SC2CB1AC2AC2 SHS NE SLP163=

CYVR;2005-04-01 23:00;METAR CYVR 012300Z 21012G17KT 20SM VCSH FEW025 BKN041 BKN080 OVC140 08/03 A3001 RMK SF2SC4AC1AC1 TCU EMBD / VIS LWR N - NE DUE SHS SLP163=

CYVR;2005-04-01 23:21;SPECI CYVR 012321Z 22018KT 15SM -SHRA FEW025 BKN041 OVC080 RMK SF2SC4AC2 TCU EMBD=

CYVR;2005-04-02 00:00;METAR CYVR 020000Z 23017KT 8SM -SHRA SCT025 OVC042 07/04 A3002 RMK SF3SC5 TCU EMBD SLP166=

CYVR;2005-04-02 00:49;SPECI CYVR 020049Z 19010KT 10SM FEW025 BKN045 BKN070 RMK SF2SC4AC2 VIS HIER W=

CYVR;2005-04-02 04:00;METAR CYVR 020400Z 22011G18KT 12SM FEW025 BKN050 06/03 A3006 RMK SC1SC5 SLP179=

CYVR;2005-04-02 06:00;METAR CYVR 020600Z 22008KT 12SM FEW025 FEW045 SCT220 06/03 A3010 RMK SC1SC1CI0 SLP192=

CYVR;2005-04-02 10:00;METAR CYVR 021000Z 08005KT 12SM FEW050 BKN110 04/02 A3010 RMK SC2AC5 SLP194=

CYVR;2005-04-02 11:00;METAR CYVR 021100Z 09006KT 12SM FEW045 BKN110 04/02 A3009 RMK SC2AC6 SLP191=

CYVR;2005-04-02 12:00;METAR CYVR 021200Z 08006KT 12SM BKN060 04/03 A3009 RMK SC7 SLP190=

CYVR;2005-04-02 12:44;SPECI CYVR 021244Z 08010KT 10SM -RA OVC022 RMK SC8=

CYVR;2005-04-02 13:00;METAR CYVR 021300Z 11008KT 8SM -RA OVC022 04/03 A3009 RMK SC8 SLP188=

CYVR;2005-04-02 14:00;METAR CYVR 021400Z 08007KT 6SM -RA FEW012 OVC024 04/03 A3007 RMK SF2SC6 SLP184=

CYVR;2005-04-02 14:40;SPECI CYVR 021440Z 07008KT 6SM -RA BR BKN013 OVC025 RMK SC6SC2=

CYVR;2005-04-02 15:00;METAR CYVR 021500Z 06009KT 8SM -RA OVC014 05/04 A3006 RMK SC8 PCPN VRY LGT SLP180=

CYVR;2005-04-02 15:28;SPECI CYVR 021528Z 06008KT 8SM -RA SCT015 OVC028 RMK SC4SC4=

CYVR;2005-04-02 16:00;METAR CYVR 021600Z 07013KT 6SM -RA BR BKN017 OVC028 04/03 A3005 RMK SC5SC3 SLP176=

CYVR;2005-04-02 18:00;METAR CYVR 021800Z 09011KT 8SM -RA BKN027 OVC040 06/04 A3003 RMK SC6SC2 SLP168=

CYVR;2005-04-02 20:56;SPECI CYVR 022056Z 09013KT 10SM BKN028 OVC040 RMK SC5SC3=

CYVR;2005-04-02 21:00;METAR CYVR 022100Z 09014KT 12SM BKN028 OVC039 08/05 A2995 RMK SC5SC3 SLP143=

CYVR;2005-04-02 21:17;SPECI CYVR 022117Z 08012G17KT 12SM -RA BKN031 OVC042 RMK SC5SC3=

CYVR;2005-04-02 22:00;METAR CYVR 022200Z 07013KT 12SM -RA BKN033 OVC045 08/05 A2992 RMK SC6SC2 PCPN VRY LGT SLP131=

CYVR;2005-04-02 23:00;METAR CYVR 022300Z 08013G18KT 12SM -RA BKN033 OVC047 08/05 A2989 RMK SC5SC3 SLP121=

CYVR;2005-04-03 00:00;METAR CYVR 030000Z 08015G20KT 12SM -RA SCT036 OVC050 08/05 A2986 RMK SC4SC4 SLP111=

CYVR;2005-04-03 01:12;SPECI CYVR 030112Z 08016G21KT 12SM -RA BKN039 OVC056 RMK SC5SC3=

CYVR;2005-04-03 02:11;SPECI CYVR 030211Z 08012KT 12SM SCT044 OVC068 RMK SC3AC5=

CYVR;2005-04-03 03:21;SPECI CYVR 030321Z 09012KT 15SM -SHRA FEW040 BKN060 OVC087 RMK SC2SC4AC2=

CYVR;2005-04-03 04:00;METAR CYVR 030400Z 09014G20KT 15SM -SHRA FEW040 BKN055 OVC087 08/04 A2975 RMK SC2SC4AC2 PCPN VRY LGT SLP075=

CYVR;2005-04-03 05:00;METAR CYVR 030500Z 09016G21KT 15SM -SHRA BKN032 OVC055 07/05 A2974 RMK SC6SC2 SLP071=

CYVR;2005-04-03 08:00;METAR CYVR 030800Z 09015KT 15SM FEW035 BKN045 OVC090 07/04 A2967 RMK SC2SC4AC2 SLP046=

CYVR;2005-04-03 10:00;METAR CYVR 031000Z 09019KT 15SM SCT035 OVC081 07/04 A2961 RMK SC4AC4 SLP027=

CYVR;2005-04-03 11:47;SPECI CYVR 031147Z 10013G18KT 15SM -SHRA BKN032 OVC040 RMK SC5SC3=

CYVR;2005-04-03 12:00;METAR CYVR 031200Z 09015G21KT 15SM -SHRA BKN033 OVC045 07/05 A2958 RMK SC6SC2 SLP016=

CYVR;2005-04-03 13:00;METAR CYVR 031300Z 09011KT 15SM -SHRA BKN038 OVC045 07/05 A2958 RMK SC5SC3 VIS N 12 SM SLP016=

CYVR;2005-04-03 14:00;METAR CYVR 031400Z 10008KT 8SM -SHRA OVC036 07/05 A2957 RMK SC8 SLP014=

CYVR;2005-04-03 15:00;METAR CYVR 031500Z 10010KT 7SM -RA BKN031 OVC040 07/06 A2957 RMK SC6SC2 SLP014=

CYVR;2005-04-03 16:00;METAR CYVR 031600Z 11014KT 6SM -RA BR OVC018 07/06 A2957 RMK SC8 SLP014=

CYVR;2005-04-03 17:53;SPECI CYVR 031753Z 15011G18KT 5SM -RA BR FEW009 BKN027 OVC040 RMK SC2SC4SC2=

CYVR;2005-04-03 18:00;METAR CYVR 031800Z 16014KT 6SM -RA BR FEW009 BKN028 OVC040 07/06 A2960 RMK SC2SC6SC1 SLP022=

CYVR;2005-04-03 19:00;METAR CYVR 031900Z 13013G18KT 8SM -RA FEW011 BKN030 OVC043 07/06 A2962 RMK SC1SC6SC1 SLP029=

CYVR;2005-04-03 19:52;SPECI CYVR 031952Z 11010KT 10SM FEW011 SCT030 OVC042 RMK SC1SC3SC4=

CYVR;2005-04-03 20:36;SPECI CYVR 032036Z 13010KT 15SM -SHRA FEW011 BKN025 OVC043 RMK SC2SC3SC3 VIS NE 6=

CYVR;2005-04-03 21:00;METAR CYVR 032100Z 13009KT 15SM -SHRA SCT011 BKN026 OVC049 08/07 A2962 RMK SC4SC2SC2 VIS NE 8 SLP031=

CYVR;2005-04-03 21:26;SPECI CYVR 032126Z 11010KT 15SM FEW011 SCT024 BKN044 OVC140 RMK SC2SC2SC3AC1=

CYVR;2005-04-03 23:00;METAR CYVR 032300Z 12007KT 15SM SCT017 BKN045 BKN100 10/07 A2962 RMK SC3SC2AC2 SLP032=

CYVR;2005-04-04 00:00;METAR CYVR 040000Z 09014KT 15SM SCT023 BKN041 BKN100 08/06 A2964 RMK SC3SC2AC1 SLP038=

CYVR;2005-04-04 04:00;METAR CYVR 040400Z 08011KT 15SM FEW030 SCT040 BKN140 06/05 A2969 RMK SC2SC1AC1 SLP053=

CYVR;2005-04-04 06:00;METAR CYVR 040600Z 10007KT 15SM FEW030 SCT040 BKN061 05/04 A2973 RMK SC1SC2SC1 SLP069=

CYVR;2005-04-04 07:00;METAR CYVR 040700Z 09007KT 15SM FEW030 FEW060 SCT080 04/03 A2975 RMK SC1SC1AC1 SLP074=

CYVR;2005-04-04 08:00;METAR CYVR 040800Z 09005KT 15SM FEW030 03/03 A2977 RMK SC1 SLP080=

CYVR;2005-04-04 10:00;METAR CYVR 041000Z 26004KT 15SM FEW030 04/04 A2981 RMK SC2 SLP094=

CYVR;2005-04-04 12:00;METAR CYVR 041200Z 08004KT 15SM FEW030 BKN110 03/03 A2985 RMK SC1AC5 SLP108=

CYVR;2005-04-04 13:00;METAR CYVR 041300Z 00000KT 15SM FEW030 BKN062 04/03 A2988 RMK SC1SC3 SLP117=

CYVR;2005-04-04 14:00;METAR CYVR 041400Z 01007KT 15SM FEW040 BKN061 BKN120 04/03 A2991 RMK SC2SC3AC1 SLP127=

CYVR;2005-04-04 15:00;METAR CYVR 041500Z 00000KT 15SM FEW041 SCT064 05/04 A2993 RMK SC2SC2 SLP137=

CYVR;2005-04-04 16:00;METAR CYVR 041600Z 29004KT 15SM FEW036TCU SCT060 07/04 A2997 RMK TCU2SC2 SLP148=

CYVR;2005-04-04 17:00;METAR CYVR 041700Z 29006KT 15SM FEW029 SCT041 08/04 A2999 RMK SC2SC2 SLP157=

CYVR;2005-04-04 18:00;METAR CYVR 041800Z 22005KT 15SM FEW027TCU SCT040 09/02 A3003 RMK TCU2SC1 SLP168=

CYVR;2005-04-04 19:00;METAR CYVR 041900Z 19006KT 15SM FEW034TCU 09/01 A3005 RMK TCU2 SLP177=

CYVR;2005-04-04 21:00;METAR CYVR 042100Z 22005KT 15SM FEW040 11/M02 A3009 RMK SC2 SLP188=

CYVR;2005-04-04 22:00;METAR CYVR 042200Z 22007KT 15SM SCT040 11/M01 A3009 RMK SC3 CU ASOCTD SLP189=

CYVR;2005-04-05 00:00;METAR CYVR 050000Z 18005KT 15SM SCT044 BKN080 12/M00 A3010 RMK SC4AC1 TCU EMBD SLP193=

CYVR;2005-04-05 02:00;METAR CYVR 050200Z 16010KT 15SM FEW045 SCT080 BKN200 10/03 A3012 RMK SC1AC1CI1 SH DIST NE SLP200=

CYVR;2005-04-05 03:00;METAR CYVR 050300Z 14010KT 15SM FEW037 SCT080 BKN220 09/03 A3014 RMK SC1AC1CI0 SH DIST N SLP206=

CYVR;2005-04-05 04:00;METAR CYVR 050400Z 14007KT 15SM FEW037 BKN070 BKN220 08/03 A3015 RMK SC1AC4CI1 SLP211=

CYVR;2005-04-05 05:00;METAR CYVR 050500Z 14007KT 15SM FEW035 SCT058 SCT065 BKN210 08/03 A3017 RMK SC1SC2SC1CI1 SLP218=

CYVR;2005-04-05 08:00;METAR CYVR 050800Z 09006KT 15SM SCT045 OVC170 06/03 A3017 RMK SC3AC3 SLP215=

CYVR;2005-04-05 11:00;METAR CYVR 051100Z 09013KT 15SM FEW040 BKN095 OVC120 06/03 A3015 RMK SC1AC4AC2 SLP211=

CYVR;2005-04-05 16:00;METAR CYVR 051600Z 09016G21KT 15SM FEW064 OVC078 08/01 A3014 RMK SC2AC6 SLP206=

CYVR;2005-04-05 17:00;METAR CYVR 051700Z 09019G25KT 15SM SCT053 BKN080 OVC130 10/01 A3013 RMK SC3AC2AS2 VIRGA N SLP204=

CYVR;2005-04-05 18:00;METAR CYVR 051800Z 09021G27KT 15SM BKN048 OVC080 10/02 A3015 RMK SC6AC2 VIRGA N SLP211=

CYVR;2005-04-05 18:41;SPECI CYVR 051841Z 11024KT 10SM -SHRA BKN045 OVC080 RMK SC6AC2=

CYVR;2005-04-05 21:00;METAR CYVR 052100Z 09016G21KT 4SM -RA SCT021 OVC033 07/06 A3018 RMK SC3SC5 SLP219=

CYVR;2005-04-05 22:00;METAR CYVR 052200Z 09013G18KT 4SM -RA BR BKN024 OVC037 07/06 A3017 RMK SC6SC2 SLP218=

CYVR;2005-04-05 23:00;METAR CYVR 052300Z 06013G18KT 5SM -RA BR BKN025 OVC040 07/06 A3016 RMK SC5SC3 SLP213=

CYVR;2005-04-06 00:00;METAR CYVR 060000Z 05019G25KT 8SM -RA SCT025 OVC041 07/06 A3015 RMK SC4SC4 SLP209=

CYVR;2005-04-06 01:32;SPECI CYVR 060132Z 05017KT 7SM -RA SCT024 OVC043 RMK SC3SC5 VIS NE HIER=

CYVR;2005-04-06 02:00;METAR CYVR 060200Z 05014KT 7SM -RA FEW024 OVC044 07/06 A3013 RMK CF2SC6 VIS NE HIER SLP204=

CYVR;2005-04-06 03:11;SPECI CYVR 060311Z 08011KT 7SM -RA SCT025 OVC047 RMK CF4SC4=

CYVR;2005-04-06 04:00;METAR CYVR 060400Z 09011KT 8SM -RA BKN027 OVC048 07/06 A3014 RMK SC5SC3 SLP206=

CYVR;2005-04-06 05:00;METAR CYVR 060500Z 09013G19KT 10SM -RA BKN023 OVC048 08/07 A3014 RMK SC6SC2 SLP207=

CYVR;2005-04-06 08:00;METAR CYVR 060800Z 09009KT 12SM -RA FEW035 OVC055 07/06 A3010 RMK SC2SC6 SLP192=

CYVR;2005-04-06 10:00;METAR CYVR 061000Z 07008G15KT 12SM -RA BKN047 OVC065 07/06 A3008 RMK SC6SC2 SLP185=

CYVR;2005-04-06 11:00;METAR CYVR 061100Z 06010KT 12SM -RA SCT045 OVC060 08/07 A3006 RMK SC4SC4 SLP180=

CYVR;2005-04-06 12:00;METAR CYVR 061200Z 06013KT 15SM -RA FEW045 BKN068 OVC085 08/07 A3002 RMK SC2AC5AC2 SLP167=

CYVR;2005-04-06 13:00;METAR CYVR 061300Z 09007KT 15SM FEW060 BKN100 OVC120 08/07 A3001 RMK SC2AC5AC2 SLP161=

CYVR;2005-04-06 14:00;METAR CYVR 061400Z 10006KT 20SM OVC140 08/06 A2999 RMK AC8 SLP155=

CYVR;2005-04-06 15:00;METAR CYVR 061500Z 11003KT 20SM OVC120 08/07 A2998 RMK AC7 SLP151=

CYVR;2005-04-06 16:00;METAR CYVR 061600Z 12006KT 20SM BKN090 OVC120 09/07 A2998 RMK AC6AS2 SLP154=

CYVR;2005-04-06 19:00;METAR CYVR 061900Z 33005KT 30SM BKN110 OVC140 11/08 A2996 RMK AC6AS2 SLP146=

CYVR;2005-04-06 21:00;METAR CYVR 062100Z 30004KT 20SM OVC120 12/09 A2992 RMK AC8 SLP132=

CYVR;2005-04-06 22:00;METAR CYVR 062200Z 12005KT 20SM OVC140 14/09 A2989 RMK AC8 SLP123=

CYVR;2005-04-06 23:00;METAR CYVR 062300Z 10006KT 20SM OVC140 14/09 A2986 RMK AC8 SLP113=

CYVR;2005-04-07 06:11;SPECI CYVR 070611Z 03005KT 15SM -RA FEW040 BKN075 OVC090 RMK SC2AC4AC2=

CYVR;2005-04-07 14:17;SPECI CYVR 071417Z 04004KT 15SM -RA BKN055 OVC090 RMK SC6AC2=

CYVR;2005-04-07 17:48;SPECI CYVR 071748Z 11003KT 4SM -RA FEW004 SCT020 OVC040 RMK SF2SC2SC5=

CYVR;2005-04-07 22:49;SPECI CYVR 072249Z 14005KT 20SM FEW010 SCT042 BKN070 OVC210 RMK SC2SC2AC2CS2=

CYVR;2005-04-07 23:40;SPECI CYVR 072340Z 16005KT 12SM FEW008 FEW020 BKN038 BKN120 RMK SF1SC2SC4AC1 TCU EMBD N-NE=

CYVR;2005-04-08 09:00;METAR CYVR 080900Z 13004KT 20SM FEW025 05/01 A2976 RMK SF2 SLP079=

CYVR;2005-04-08 10:00;METAR CYVR 081000Z 03005KT 20SM SCT025 04/01 A2977 RMK SC3 SLP080=

CYVR;2005-04-08 12:00;METAR CYVR 081200Z 07006KT 20SM FEW070 02/01 A2976 RMK AC2 SLP077=

CYVR;2005-04-08 13:00;METAR CYVR 081300Z 08008KT 20SM FEW040 FEW070 FEW240 03/02 A2976 RMK SC1AC1CI0 SLP078=

CYVR;2005-04-08 14:00;METAR CYVR 081400Z 08006KT 30SM FEW040 FEW070 BKN240 03/02 A2976 RMK SC1AC1CI1 SLP078=

CYVR;2005-04-08 15:00;METAR CYVR 081500Z 09005KT 30SM FEW040 BKN240 05/03 A2977 RMK SC1CI2 SLP080=

CYVR;2005-04-08 16:00;METAR CYVR 081600Z 09005KT 30SM FEW040 BKN240 07/03 A2976 RMK SC1CI2 SLP077=

CYVR;2005-04-08 17:00;METAR CYVR 081700Z 17002KT 30SM FEW040 SCT240 08/02 A2975 RMK CU1CI1 SLP073=

CYVR;2005-04-08 18:00;METAR CYVR 081800Z 28007KT 30SM SCT032 SCT240 09/04 A2975 RMK CU3CI0 SLP074=

CYVR;2005-04-08 19:00;METAR CYVR 081900Z 29010KT 30SM FEW040 FEW240 09/05 A2975 RMK CU2CI0 SLP075=

CYVR;2005-04-08 20:00;METAR CYVR 082000Z 28011KT 30SM FEW040 FEW240 09/03 A2975 RMK CU1CI1 SLP075=

CYVR;2005-04-08 21:00;METAR CYVR 082100Z 28016KT 30SM FEW040 FEW240 09/04 A2976 RMK CU1CI1 SLP077=

CYVR;2005-04-08 22:00;METAR CYVR 082200Z 28019KT 30SM FEW040 SCT240 10/05 A2977 RMK CU1CI0 SLP081=

CYVR;2005-04-08 23:00;METAR CYVR 082300Z 28020G25KT 30SM FEW040 FEW240 10/03 A2978 RMK CU1CI0 SLP083=

CYVR;2005-04-09 00:00;METAR CYVR 090000Z 28020KT 30SM FEW050 SCT240 10/04 A2978 RMK SC1CI1 SLP085=

CYVR;2005-04-09 03:00;METAR CYVR 090300Z 27014KT 30SM FEW040 SCT220 09/02 A2982 RMK SC1CI2 SLP097=

CYVR;2005-04-09 06:00;METAR CYVR 090600Z 34006KT 30SM FEW040 SCT230 07/04 A2988 RMK SC1CI2 SLP118=

CYVR;2005-04-09 08:00;METAR CYVR 090800Z 24002KT 30SM FEW040 BKN240 06/03 A2993 RMK SC1CI2 SLP136=

CYVR;2005-04-09 09:00;METAR CYVR 090900Z 00000KT 20SM FEW040 BKN240 05/03 A2996 RMK SC1CI2 SLP145=

CYVR;2005-04-09 10:00;METAR CYVR 091000Z 00000KT 20SM FEW040 SCT240 04/02 A2997 RMK SC1CI1 SLP150=

CYVR;2005-04-09 11:00;METAR CYVR 091100Z 08004KT 20SM FEW040 FEW240 03/01 A3000 RMK SC1CI1 SLP159=

CYVR;2005-04-09 12:00;METAR CYVR 091200Z 05003KT 20SM FEW040 FEW240 04/02 A3001 RMK SC1CI1 SLP163=

CYVR;2005-04-09 13:00;METAR CYVR 091300Z 00000KT 30SM FEW040 FEW240 04/02 A3004 RMK SC1CI1 SLP173=

CYVR;2005-04-09 14:00;METAR CYVR 091400Z 09002KT 30SM SCT030 BKN240 03/02 A3006 RMK SC1CI1 SLP179=

CYVR;2005-04-09 16:00;METAR CYVR 091600Z 08003KT 20SM SCT024 BKN220 07/04 A3010 RMK SC2CI1 SLP194=

CYVR;2005-04-09 18:00;METAR CYVR 091800Z 11003KT 20SM FEW020 SCT200 BKN240 10/05 A3014 RMK CF2CC1CI0 SLP207=

CYVR;2005-04-09 21:00;METAR CYVR 092100Z 23005KT 30SM FEW040 SCT220 12/03 A3016 RMK CU2CI0 SLP212=

CYVR;2005-04-09 22:00;METAR CYVR 092200Z 22005KT 30SM FEW040 FEW220 12/02 A3016 RMK CU2CI0 SLP213=

CYVR;2005-04-09 23:00;METAR CYVR 092300Z 23007KT 20SM SCT040 SCT220 13/04 A3016 RMK CU3CI0 SLP213=

CYVR;2005-04-10 00:00;METAR CYVR 100000Z 19007KT 30SM FEW040 FEW090 SCT220 13/03 A3016 RMK CU1AC1CI0 SLP213=

CYVR;2005-04-10 06:00;METAR CYVR 100600Z 27006KT 20SM FEW050 BKN075 08/04 A3023 RMK SC2AC3 SLP236=

CYVR;2005-04-10 10:00;METAR CYVR 101000Z 08005KT 20SM FEW080 FEW110 04/02 A3025 RMK AC1AC2 SLP245=

CYVR;2005-04-10 12:00;METAR CYVR 101200Z 09010KT 20SM SCT050 BKN080 05/04 A3024 RMK SC3AC2 SLP240=

CYVR;2005-04-10 13:00;METAR CYVR 101300Z 10008KT 20SM BKN045 BKN060 06/04 A3024 RMK SC5SC2 SLP239=

CYVR;2005-04-10 14:00;METAR CYVR 101400Z 09010KT 20SM BKN060 07/04 A3023 RMK SC6 SLP237=

CYVR;2005-04-10 15:00;METAR CYVR 101500Z 08010KT 20SM OVC052 07/04 A3022 RMK SC7 SLP235=

CYVR;2005-04-10 17:00;METAR CYVR 101700Z 11012KT 20SM BKN051 OVC083 09/04 A3022 RMK SC6AC2 SLP232=

CYVR;2005-04-10 18:00;METAR CYVR 101800Z 10015KT 20SM BKN050 OVC082 09/04 A3019 RMK SC5AC3 SLP224=

CYVR;2005-04-10 21:00;METAR CYVR 102100Z 11013KT 30SM OVC044 11/03 A3011 RMK SC8 SLP197=

CYVR;2005-04-10 22:00;METAR CYVR 102200Z 13012KT 20SM OVC048 11/04 A3009 RMK SC8 SLP188=

CYVR;2005-04-10 23:45;SPECI CYVR 102345Z 14006KT 10SM -RA FEW025 OVC041 RMK CF2SC6=

CYVR;2005-04-11 00:00;METAR CYVR 110000Z 13007KT 8SM -RA FEW023 OVC042 10/05 A3001 RMK CF2SC6 SLP164=

CYVR;2005-04-11 03:00;METAR CYVR 110300Z 07015KT 5SM -RA BR OVC040 08/07 A2991 RMK SC8 SLP129=

CYVR;2005-04-11 04:00;METAR CYVR 110400Z 09015G20KT 5SM -RA BR SCT030 OVC041 08/07 A2989 RMK SC3SC5 SLP122=

CYVR;2005-04-11 05:00;METAR CYVR 110500Z 08014G20KT 5SM -RA BR FEW020 BKN033 OVC040 08/07 A2987 RMK SC2SC3SC2 SLP115=

CYVR;2005-04-11 10:00;METAR CYVR 111000Z 10015KT 8SM -RA FEW010 SCT017 OVC042 07/07 A2975 RMK SF2SC2SC4 SLP073=

CYVR;2005-04-11 10:15;SPECI CYVR 111015Z 11012KT 12SM FEW010 BKN015 OVC040 RMK SF2SC3SC2=

CYVR;2005-04-11 10:50;SPECI CYVR 111050Z 17009KT 10SM -RA SCT015 OVC044 RMK SC3SC5=

CYVR;2005-04-11 11:46;SPECI CYVR 111146Z 21013G18KT 12SM FEW022 SCT045 OVC090 RMK SC2SC2AC5=

CYVR;2005-04-11 12:00;METAR CYVR 111200Z 22017KT 12SM SCT040 BKN100 08/05 A2980 RMK SC3AC2 SLP091=

CYVR;2005-04-11 13:00;METAR CYVR 111300Z 21019G25KT 15SM SCT036 SCT090 07/04 A2984 RMK SC3AC1 SLP105=

CYVR;2005-04-11 14:00;METAR CYVR 111400Z 22016KT 20SM FEW035 07/03 A2988 RMK SC1 SLP120=

CYVR;2005-04-11 15:00;METAR CYVR 111500Z 21014G20KT 20SM FEW035 07/02 A2992 RMK SC1 SLP131=

CYVR;2005-04-11 16:00;METAR CYVR 111600Z 20013KT 20SM FEW035 08/02 A2995 RMK SC1 SLP141=

CYVR;2005-04-11 17:00;METAR CYVR 111700Z 18013KT 20SM FEW035 FEW220 09/01 A2997 RMK SC1CI1 TCU ASOCT SLP149=

CYVR;2005-04-11 18:00;METAR CYVR 111800Z 19011KT 20SM FEW040 BKN062 BKN085 10/00 A2998 RMK CU1SC2AC1 SLP152=

CYVR;2005-04-11 20:00;METAR CYVR 112000Z 20007KT 20SM FEW030 SCT080 10/03 A3000 RMK CU1AC1 SLP158=

CYVR;2005-04-11 21:00;METAR CYVR 112100Z 19011KT 20SM FEW035 BKN085 BKN200 11/03 A2999 RMK CF2AC2CI1 SLP157=

CYVR;2005-04-11 22:00;METAR CYVR 112200Z 18009G16KT 20SM FEW040 SCT085 SCT220 09/03 A2999 RMK SC1AC1CI1 TCU ASOCT SLP156=

CYVR;2005-04-12 00:00;METAR CYVR 120000Z 18016KT 20SM BKN031 BKN200 08/02 A2999 RMK SC5CI2 SHS=

CYVR;2005-04-12 00:39;SPECI CYVR 120039Z 11012KT 15SM SCT031 BKN130 BKN200 RMK SC2AC1CI1 SHS DIST NE - E QUAD=

CYVR;2005-04-12 03:00;METAR CYVR 120300Z 17013KT 15SM -SHRA FEW021 BKN035 BKN120 OVC240 07/04 A2997 RMK SC2SC4AC2CI0 SLP148=

CYVR;2005-04-12 03:23;SPECI CYVR 120323Z 13006KT 15SM FEW035 SCT090 OVC210 RMK SC2AC2CI2=

CYVR;2005-04-12 04:00;METAR CYVR 120400Z 11007KT 15SM FEW040 SCT150 OVC210 06/03 A2997 RMK SC2AC2CI3 SLP150=

CYVR;2005-04-12 06:00;METAR CYVR 120600Z 11015KT 15SM FEW040 SCT080 OVC160 05/03 A2998 RMK SC2AC2AC3 SLP154=

CYVR;2005-04-12 06:44;SPECI CYVR 120644Z 09013KT 15SM BKN013 OVC034 RMK SC5SC3=

CYVR;2005-04-12 08:00;METAR CYVR 120800Z 09012KT 15SM FEW045 SCT100 03/02 A2998 RMK SC2AC2 SLP154=

CYVR;2005-04-12 10:00;METAR CYVR 121000Z 09008KT 15SM FEW030 SCT045 SCT210 02/02 A2995 RMK SC2SC2CI1 SLP143=

CYVR;2005-04-12 11:00;METAR CYVR 121100Z 06007KT 15SM SCT045 BKN200 02/01 A2993 RMK SC3CI2 SLP134=

CYVR;2005-04-12 12:00;METAR CYVR 121200Z 06008KT 15SM FEW020 BKN045 OVC200 05/02 A2990 RMK SC1SC6CI1 SLP125=

CYVR;2005-04-12 14:00;METAR CYVR 121400Z 08006KT 15SM SCT042 OVC230 03/02 A2986 RMK SC2CI3 SLP113=

CYVR;2005-04-12 15:00;METAR CYVR 121500Z 10008KT 15SM FEW040 OVC170 04/03 A2985 RMK SC1AC6 SLP108=

CYVR;2005-04-12 16:00;METAR CYVR 121600Z 10011KT 15SM OVC170 05/03 A2983 RMK AC7 SLP103=

CYVR;2005-04-12 18:00;METAR CYVR 121800Z 10014KT 30SM OVC140 08/04 A2981 RMK AC7 SLP095=

CYVR;2005-04-12 19:00;METAR CYVR 121900Z 09013KT 30SM FEW085 OVC100 08/03 A2981 RMK AC1AC7 SLP095=

CYVR;2005-04-12 19:57;SPECI CYVR 121957Z 11015G22KT 15SM -SHRA FEW033 OVC045 RMK SC2SC6=

CYVR;2005-04-12 20:00;METAR CYVR 122000Z 12014G21KT 15SM -SHRA SCT025 OVC038 08/01 A2983 RMK SC3SC5 SHS DIST N QUAD NE QUAD SLP101=

CYVR;2005-04-12 20:48;SPECI CYVR 122048Z 08012G18KT 15SM SCT030 OVC040 RMK SC3SC5=

CYVR;2005-04-12 21:00;METAR CYVR 122100Z 10014KT 15SM -SHRA FEW030 OVC043 08/02 A2984 RMK SC2SC6 SLP105=

CYVR;2005-04-12 21:49;SPECI CYVR 122149Z 13017G24KT 6SM -SHRA BKN031 OVC045 RMK SC6SC2=

CYVR;2005-04-12 22:00;METAR CYVR 122200Z 09017KT 6SM -SHRA BKN030 OVC040 06/04 A2985 RMK SC6SC2 SLP110=

CYVR;2005-04-12 22:08;SPECI CYVR 122208Z 08012G18KT 7SM -SHRA SCT030 OVC045 RMK SC3SC5=

CYVR;2005-04-12 23:00;METAR CYVR 122300Z 13012G17KT 15SM BKN032 OVC045 09/04 A2986 RMK SC6SC2 SLP113=

CYVR;2005-04-12 23:57;SPECI CYVR 122357Z 13020KT 15SM -SHRA SCT033 OVC040 RMK SC3SC5=

CYVR;2005-04-13 00:00;METAR CYVR 130000Z 13018KT 15SM -SHRA FEW033 OVC040 09/04 A2987 RMK SC2SC6 SLP115=

CYVR;2005-04-13 00:26;SPECI CYVR 130026Z 25004KT 6SM -SHRA FEW015 OVC020 RMK SC2SC6 VIS N QUAD LWR 3 SM=

CYVR;2005-04-13 00:35;SPECI CYVR 130035Z 25004KT 6SM -TSRA FEW015CB OVC020 RMK CB2SC6 CB NE=

CYVR;2005-04-13 00:50;SPECI CYVR 130050Z 02005KT 7SM SCT020CB SCT041 BKN055 BKN220 RMK CB3SC1SC2CI1 VIS S - W QUAD HIER 15 SM CB N - NE QUAD=

CYVR;2005-04-13 01:00;METAR CYVR 130100Z 02003KT 15SM FEW020 SCT035CB BKN065 OVC140 08/04 A2988 RMK CF1CB3SC2AC2 CB N - NE QUAD SHS DIST NE SLP119=

CYVR;2005-04-13 02:00;METAR CYVR 130200Z 09010KT 15SM BKN036 BKN060 OVC090 07/04 A2991 RMK SC5SC2AC2 SLP130=

CYVR;2005-04-13 04:00;METAR CYVR 130400Z 09012KT 15SM SCT041 BKN120 BKN210 05/04 A2996 RMK SC4AC1CI1 SLP144=

CYVR;2005-04-13 07:00;METAR CYVR 130700Z 08009KT 15SM SCT024 04/03 A2999 RMK SC3 SLP156=

CYVR;2005-04-13 10:00;METAR CYVR 131000Z 07009KT 15SM FEW041 OVC064 05/03 A2999 RMK SC2SC6 SLP157=

CYVR;2005-04-13 12:00;METAR CYVR 131200Z 08007KT 12SM -SHRA BKN037 OVC050 05/03 A3000 RMK SC5SC2 SLP159=

CYVR;2005-04-13 12:32;SPECI CYVR 131232Z 08009KT 15SM OVC042 RMK SC8=

CYVR;2005-04-13 13:00;METAR CYVR 131300Z 10009KT 12SM OVC041 05/03 A3001 RMK SC8 SLP164=

CYVR;2005-04-13 14:00;METAR CYVR 131400Z 10011KT 15SM FEW037 OVC041 05/03 A3003 RMK CF1SC6 SHS=

CYVR;2005-04-13 15:00;METAR CYVR 131500Z 08010KT 15SM BKN030 OVC040 05/04 A3005 RMK SC6SC2 SHS=

CYVR;2005-04-13 16:00;METAR CYVR 131600Z 08014KT 15SM BKN035 07/04 A3005 RMK SC6 SLP177=

CYVR;2005-04-13 19:00;METAR CYVR 131900Z 11010KT 15SM BKN038 10/03 A3006 RMK SC6 SLP181=

CYVR;2005-04-13 20:00;METAR CYVR 132000Z 12010KT 20SM BKN045 BKN056 10/03 A3007 RMK SC5SC2 SLP182=

CYVR;2005-04-13 21:00;METAR CYVR 132100Z 15008KT 20SM FEW040 BKN065 BKN220 12/02 A3007 RMK SC2SC1CI1 SHS DIST N QUAD TCU ASOCT SLP184=

CYVR;2005-04-14 00:00;METAR CYVR 140000Z 30004KT 20SM SCT038 BKN095 BKN220 11/03 A3010 RMK SC2AC2CI2 SHS DIST NE QUAD SLP192=

CYVR;2005-04-14 02:00;METAR CYVR 140200Z 31009KT 20SM BKN050 BKN220 08/06 A3011 RMK SC5CI2 SLP197=

CYVR;2005-04-14 04:00;METAR CYVR 140400Z 28004KT 20SM SCT038 BKN071 BKN120 07/05 A3013 RMK SC3AC2AC1 SLP204=

CYVR;2005-04-14 05:00;METAR CYVR 140500Z 31003KT 20SM SCT042 SCT080 06/04 A3014 RMK SC3AC1 SLP205=

CYVR;2005-04-14 06:00;METAR CYVR 140600Z 00000KT 15SM FEW040 BKN200 07/05 A3015 RMK SC2CI1 SLP210=

CYVR;2005-04-14 07:00;METAR CYVR 140700Z 00000KT 15SM OVC071 07/05 A3017 RMK AC8 SLP215=

CYVR;2005-04-14 09:00;METAR CYVR 140900Z 10002KT 15SM OVC061 07/04 A3018 RMK SC8 SLP221=

CYVR;2005-04-14 10:00;METAR CYVR 141000Z 10004KT 15SM FEW014 OVC071 06/04 A3019 RMK SC2AC6 SLP225=

CYVR;2005-04-14 12:00;METAR CYVR 141200Z 09002KT 15SM FEW012 BKN040 06/04 A3023 RMK SC2SC5 SLP236=

CYVR;2005-04-14 13:00;METAR CYVR 141300Z 07003KT 15SM SCT042 BKN060 05/04 A3024 RMK SC3SC2 SLP242=

CYVR;2005-04-14 14:00;METAR CYVR 141400Z 11002KT 20SM FEW014 BKN038 BKN060 06/04 A3026 RMK SF2SC2SC1 SLP248=

CYVR;2005-04-14 16:00;METAR CYVR 141600Z 22004KT 20SM FEW020TCU SCT040 BKN055 08/03 A3029 RMK TCU2SC2SC3 SLP258=

CYVR;2005-04-14 17:00;METAR CYVR 141700Z 22004KT 30SM FEW025TCU FEW040 FEW060 SCT220 09/03 A3030 RMK TCU1CU1SC1CI0 SLP260=

CYVR;2005-04-14 19:00;METAR CYVR 141900Z 20009KT 30SM FEW040TCU FEW090 SCT220 11/03 A3031 RMK TCU2AC1CI1 SLP264=

CYVR;2005-04-14 20:00;METAR CYVR 142000Z 19012G17KT 30SM FEW040TCU SCT090 BKN220 11/03 A3030 RMK TCU2AC2CI0 SLP261=

CYVR;2005-04-14 23:00;METAR CYVR 142300Z 18013KT 30SM FEW040TCU BKN240 11/03 A3029 RMK TCU2CI1 SLP256=

CYVR;2005-04-15 00:00;METAR CYVR 150000Z 19011KT 30SM FEW040TCU FEW080 BKN240 11/01 A3027 RMK TCU1AC1CI1 SLP251=

CYVR;2005-04-15 02:00;METAR CYVR 150200Z 16008KT 30SM FEW040 BKN080 BKN220 11/01 A3024 RMK SC2AC1CI0 SLP241=

CYVR;2005-04-15 04:00;METAR CYVR 150400Z 15005KT 20SM SCT055 BKN220 10/03 A3024 RMK SC3CI0 SLP240=

CYVR;2005-04-15 05:00;METAR CYVR 150500Z 09009KT 20SM BKN060 BKN220 08/04 A3023 RMK SC4CI0 SLP238=

CYVR;2005-04-15 06:00;METAR CYVR 150600Z 09010KT 15SM FEW045 BKN070 BKN220 08/04 A3022 RMK SC2AC3CI0 SLP235=

CYVR;2005-04-15 09:00;METAR CYVR 150900Z 09012KT 15SM FEW045 OVC065 07/03 A3018 RMK SC1SC7 SLP221=

CYVR;2005-04-15 10:00;METAR CYVR 151000Z 10011KT 12SM -RA FEW035 OVC045 08/03 A3017 RMK SC2SC6 SLP215=

CYVR;2005-04-15 12:00;METAR CYVR 151200Z 08015KT 8SM -RA SCT045 OVC070 07/04 A3013 RMK SC3AC5 PCPN VRY LGT SLP204=

CYVR;2005-04-15 13:00;METAR CYVR 151300Z 07019KT 8SM -RA SCT024 OVC045 07/04 A3013 RMK SC3SC5 SLP203=

CYVR;2005-04-15 14:00;METAR CYVR 151400Z 09017G22KT 10SM -RA FEW015 BKN032 OVC045 06/04 A3012 RMK SF2SC3SC3 SLP200=

CYVR;2005-04-15 15:00;METAR CYVR 151500Z 09016G24KT 10SM -RA FEW015 BKN024 OVC040 06/04 A3012 RMK SF2SC5SC2 SLP200=

CYVR;2005-04-15 16:00;METAR CYVR 151600Z 08016KT 6SM -RA FEW015 BKN025 OVC035 06/05 A3011 RMK SF2SC4SC2 SLP197=

CYVR;2005-04-15 17:00;METAR CYVR 151700Z 08014G20KT 10SM -RA FEW020 BKN029 OVC040 07/05 A3011 RMK SF2SC5SC2 SLP195=

CYVR;2005-04-15 21:00;METAR CYVR 152100Z 07014KT 8SM -RA SCT020 BKN027 OVC040 07/06 A3008 RMK SF3SC3SC2 SLP187=

CYVR;2005-04-15 22:00;METAR CYVR 152200Z 07012G18KT 8SM -RA BKN018 BKN030 OVC040 07/06 A3007 RMK SC5SC2SC2 SLP182=

CYVR;2005-04-16 00:00;METAR CYVR 160000Z 07013KT 8SM -RA BKN017 OVC030 07/06 A3002 RMK SC6SC2 SLP167=

CYVR;2005-04-16 03:00;METAR CYVR 160300Z 08013KT 10SM -RA OVC017 07/06 A2994 RMK SC8 SLP140=

CYVR;2005-04-16 04:00;METAR CYVR 160400Z 09010G15KT 10SM -RA BKN018 OVC030 07/06 A2992 RMK SC6SC2 SLP133=

CYVR;2005-04-16 06:00;METAR CYVR 160600Z 09009KT 10SM -RA FEW018 BKN026 OVC060 07/06 A2986 RMK SC2SC5SC2 SLP112=

CYVR;2005-04-16 07:00;METAR CYVR 160700Z 08011KT 8SM -RA BKN024 OVC060 07/07 A2982 RMK SC6SC2 SLP097=

CYVR;2005-04-16 09:00;METAR CYVR 160900Z 10013KT 10SM -RA OVC024 08/07 A2976 RMK SC8 SLP077=

CYVR;2005-04-16 10:00;METAR CYVR 161000Z 09016KT 10SM -RA BKN024 OVC032 07/07 A2973 RMK SC6SC2 SLP069=

CYVR;2005-04-16 11:00;METAR CYVR 161100Z 09013KT 10SM -RA BKN018 OVC050 08/07 A2971 RMK SC6SC2 SLP062=

CYVR;2005-04-16 12:00;METAR CYVR 161200Z 10014KT 10SM -RA BKN012 OVC024 08/08 A2969 RMK SC6SC2 SLP055=

CYVR;2005-04-16 13:16;SPECI CYVR 161316Z 18009KT 8SM -RA FEW008 FEW014 OVC055 RMK SF1SC2SC6=

CYVR;2005-04-16 14:00;METAR CYVR 161400Z 20013KT 10SM -RA FEW007 FEW015 BKN052 OVC070 10/09 A2972 RMK SF1SF1SC5AC2 SLP063=

CYVR;2005-04-16 16:00;METAR CYVR 161600Z 22010KT 15SM -RA FEW010 BKN045 BKN070 09/06 A2975 RMK SF1SC4AC2 VIS SW - W 30 SLP074=

CYVR;2005-04-16 16:10;SPECI CYVR 161610Z 23012KT 15SM FEW010 BKN050 BKN080 RMK SF1SC4AC2 VIS SW - W 30=

CYVR;2005-04-16 17:00;METAR CYVR 161700Z 19009KT 20SM FEW015 SCT050 BKN100 09/06 A2978 RMK SF1SC3AC2 SLP085=

CYVR;2005-04-16 18:00;METAR CYVR 161800Z 17005KT 20SM FEW025 SCT060 BKN150 10/05 A2983 RMK SF1SC3AC2 SLP100=

CYVR;2005-04-16 22:00;METAR CYVR 162200Z 20010KT 20SM FEW035TCU BKN085 BKN240 11/04 A2990 RMK TCU2AC2CI0 SHS NE SLP125=

CYVR;2005-04-17 01:00;METAR CYVR 170100Z 22011KT 20SM FEW040TCU FEW070 SCT110 BKN230 11/03 A2994 RMK TCU2AC1AC1CI1 SLP139=

CYVR;2005-04-17 01:14;SPECI CYVR 170114Z 19009G16KT 20SM -SHRA FEW030CB FEW040TCU SCT070 BKN230 RMK CB1TCU2AC1CI1=

CYVR;2005-04-17 01:31;SPECI CYVR 170131Z 21007KT 20SM FEW030CB FEW070 SCT230 RMK CB2AC1CI0 CB NE=

CYVR;2005-04-17 04:00;METAR CYVR 170400Z 14004KT 20SM FEW045 SCT070 BKN230 10/03 A2996 RMK SC1AC2CI0 SLP146=

CYVR;2005-04-17 05:00;METAR CYVR 170500Z 09004KT 20SM FEW080 SCT220 08/03 A2996 RMK AC2CI0 SLP146=

CYVR;2005-04-17 06:00;METAR CYVR 170600Z 06005KT 20SM BKN080 07/05 A2996 RMK AC6 SLP147=

CYVR;2005-04-17 07:00;METAR CYVR 170700Z 09008KT 20SM BKN070 07/05 A2996 RMK AC6 SLP146=

CYVR;2005-04-17 09:00;METAR CYVR 170900Z 09008KT 20SM BKN080 07/05 A2996 RMK AC6 SLP146=

CYVR;2005-04-17 12:00;METAR CYVR 171200Z 10008KT 15SM BKN060 BKN080 07/04 A2995 RMK SC6AC2 SLP143=

CYVR;2005-04-17 13:00;METAR CYVR 171300Z 09011KT 15SM FEW045 OVC080 07/05 A2995 RMK SC2AC6 SLP142=

CYVR;2005-04-17 14:00;METAR CYVR 171400Z 09011KT 15SM SCT019 BKN065 OVC080 07/05 A2996 RMK SC3SC2AC2 SLP147=

CYVR;2005-04-17 14:34;SPECI CYVR 171434Z 09010KT 12SM -SHRA SCT019 BKN060 OVC080 RMK SC4SC2AC2=

CYVR;2005-04-17 15:00;METAR CYVR 171500Z 10010KT 12SM -SHRA SCT020 BKN051 OVC080 07/05 A2998 RMK SC3SC2AC2 SLP151=

CYVR;2005-04-17 16:00;METAR CYVR 171600Z 10007KT 10SM -SHRA FEW022 BKN045 BKN060 OVC080 08/06 A2999 RMK SC2SC3SC2AC1 SLP155=

CYVR;2005-04-17 17:00;METAR CYVR 171700Z 11010KT 10SM -SHRA FEW020 BKN045 BKN060 OVC080 08/07 A3000 RMK CF2SC4SC2AC1 SLP159=

CYVR;2005-04-17 18:00;METAR CYVR 171800Z 09007KT 12SM -SHRA SCT018 BKN040 BKN080 OVC220 09/07 A3001 RMK SC4SC2AC2CI0 TCU EMBD SLP162=

CYVR;2005-04-17 18:41;SPECI CYVR 171841Z 16008KT 15SM SCT018 BKN035 BKN060 BKN080 RMK CU3CU2SC2AC1 TCU ASOCTD=

CYVR;2005-04-17 19:00;METAR CYVR 171900Z 16006KT 15SM FEW020TCU SCT035 BKN050 BKN090 10/07 A3001 RMK TCU2CU2SC2AC2 SLP164=

CYVR;2005-04-17 20:00;METAR CYVR 172000Z 13009KT 20SM SCT030TCU BKN040 BKN120 BKN230 11/06 A3001 RMK TCU3CU2AC1CI1 SLP164=

CYVR;2005-04-17 21:00;METAR CYVR 172100Z 11006KT 20SM SCT032TCU BKN110 BKN230 11/05 A3001 RMK TCU3AC2CI1 SLP163=

CYVR;2005-04-17 22:00;METAR CYVR 172200Z 18010KT 20SM -SHRA FEW035TCU BKN100 BKN230 12/04 A3002 RMK TCU2AC3CI1 CB TOPS E SLP165=

CYVR;2005-04-17 22:23;SPECI CYVR 172223Z 17009KT 20SM VCSH FEW035TCU SCT110 BKN230 RMK TCU2AC1CI1=

CYVR;2005-04-17 23:00;METAR CYVR 172300Z 17007KT 20SM FEW035 FEW045CB SCT130 BKN230 12/05 A3001 RMK CU2CB1AC1CI1 CB S SLP164=

CYVR;2005-04-18 00:00;METAR CYVR 180000Z 15005KT 20SM FEW035TCU FEW045CB BKN070 BKN230 12/05 A3002 RMK TCU2CB1AC2CI1 SLP166=

CYVR;2005-04-18 03:00;METAR CYVR 180300Z 23006KT 20SM FEW035CB SCT130 BKN220 10/06 A3004 RMK CB2AC2CI0 CB N-NE SLP173=

CYVR;2005-04-18 04:00;METAR CYVR 180400Z 25005KT 20SM FEW035 BKN075 BKN220 10/05 A3007 RMK SC2AC3CI0 SLP182=

CYVR;2005-04-18 06:00;METAR CYVR 180600Z 00000KT 15SM -SHRA BKN045 OVC085 09/04 A3010 RMK SC5AC2 PCPN VRY LGT SLP194=

CYVR;2005-04-18 06:36;SPECI CYVR 180636Z 07006KT 15SM SCT045 BKN075 BKN085 RMK SC4AC2AC1=

CYVR;2005-04-18 07:00;METAR CYVR 180700Z 07008KT 15SM BKN045 OVC085 08/05 A3012 RMK SC5AC2 SLP199=

CYVR;2005-04-18 10:00;METAR CYVR 181000Z 07005KT 15SM OVC050 07/05 A3017 RMK SC7 SLP215=

CYVR;2005-04-18 12:00;METAR CYVR 181200Z 05005KT 15SM SCT018 BKN050 07/05 A3021 RMK SC3SC2 SLP230=

CYVR;2005-04-18 13:00;METAR CYVR 181300Z 04005KT 15SM FEW018 BKN050 07/05 A3023 RMK SC2SC5 SLP237=

CYVR;2005-04-18 14:00;METAR CYVR 181400Z 02006KT 15SM SCT050 06/04 A3025 RMK SC3 SLP245=

CYVR;2005-04-18 15:00;METAR CYVR 181500Z 02004KT 15SM FEW050 08/04 A3027 RMK SC2 SLP251=

CYVR;2005-04-18 16:00;METAR CYVR 181600Z 00000KT 20SM FEW020 FEW045 10/05 A3029 RMK SC1SC2 SLP257=

CYVR;2005-04-18 17:00;METAR CYVR 181700Z 27007KT 20SM BKN023 BKN040 10/06 A3031 RMK SC5SC1 SLP263=

CYVR;2005-04-18 21:00;METAR CYVR 182100Z 30008KT 20SM FEW040 11/08 A3032 RMK SC2 SLP266=

CYVR;2005-04-18 22:00;METAR CYVR 182200Z 29013KT 20SM FEW040 12/07 A3031 RMK SC2 SLP265=

CYVR;2005-04-19 00:00;METAR CYVR 190000Z 29016KT 20SM FEW040 12/07 A3030 RMK SC1 SLP259=

CYVR;2005-04-19 02:00;METAR CYVR 190200Z 30014KT 30SM FEW040 12/05 A3027 RMK CF1 SLP252=

CYVR;2005-04-19 04:00;METAR CYVR 190400Z 31013KT 30SM FEW220 10/07 A3028 RMK CI1 SLP255=

CYVR;2005-04-19 06:00;METAR CYVR 190600Z 04002KT 20SM FEW220 10/06 A3030 RMK CI1 SLP261=

CYVR;2005-04-19 07:00;METAR CYVR 190700Z 02002KT 20SM FEW220 08/05 A3031 RMK CI1 SLP265=

CYVR;2005-04-19 08:00;METAR CYVR 190800Z 06002KT 20SM FEW220 07/05 A3032 RMK CI1 SLP267=

CYVR;2005-04-19 09:00;METAR CYVR 190900Z 03005KT 20SM FEW220 07/05 A3032 RMK CI1 SLP266=

CYVR;2005-04-19 10:00;METAR CYVR 191000Z 06005KT 20SM SKC 06/04 A3031 RMK SLP265=

CYVR;2005-04-19 11:00;METAR CYVR 191100Z 36004KT 20SM SKC 06/04 A3032 RMK SLP268=

CYVR;2005-04-19 12:00;METAR CYVR 191200Z 00000KT 20SM FEW220 06/04 A3033 RMK CI1 SLP270=

CYVR;2005-04-19 15:00;METAR CYVR 191500Z 31007KT 20SM SKC 08/06 A3033 RMK SLP270=

CYVR;2005-04-19 16:00;METAR CYVR 191600Z 29008KT 30SM SKC 11/07 A3032 RMK SLP269=

CYVR;2005-04-19 17:00;METAR CYVR 191700Z 30010KT 30SM SKC 11/06 A3032 RMK SLP268=

CYVR;2005-04-19 18:00;METAR CYVR 191800Z 29012KT 30SM FEW230 11/08 A3031 RMK CI1 TR CI SLP263=

CYVR;2005-04-19 19:00;METAR CYVR 191900Z 29013KT 30SM SKC 12/08 A3028 RMK SLP254=

CYVR;2005-04-19 22:00;METAR CYVR 192200Z 30015KT 30SM SKC 13/09 A3021 RMK SLP229=

CYVR;2005-04-19 23:00;METAR CYVR 192300Z 30014KT 30SM FEW230 14/09 A3018 RMK CI1 SLP220=

CYVR;2005-04-20 00:00;METAR CYVR 200000Z 30018KT 30SM FEW230 13/08 A3015 RMK CI1 TR CI SLP210=

CYVR;2005-04-20 01:00;METAR CYVR 200100Z 30013G18KT 30SM FEW230 13/08 A3013 RMK CI1 SLP204=

CYVR;2005-04-20 04:00;METAR CYVR 200400Z 30017KT 30SM FEW180 FEW230 11/07 A3008 RMK AC1CI1 TR AC SLP185=

CYVR;2005-04-20 05:00;METAR CYVR 200500Z 33006KT 30SM FEW230 10/07 A3009 RMK CI1 SLP189=

CYVR;2005-04-20 09:00;METAR CYVR 200900Z 00000KT 20SM SKC 08/05 A3011 RMK SLP197=

CYVR;2005-04-20 10:00;METAR CYVR 201000Z 00000KT 20SM FEW230 06/05 A3010 RMK CI0 SLP193=

CYVR;2005-04-20 12:00;METAR CYVR 201200Z 09002KT 20SM FEW230 06/05 A3010 RMK CI1 SLP192=

CYVR;2005-04-20 13:00;METAR CYVR 201300Z 32002KT 20SM FEW180 FEW230 07/05 A3009 RMK AC1CI0 SLP190=

CYVR;2005-04-20 14:00;METAR CYVR 201400Z 33005KT 30SM FEW180 SCT230 08/05 A3008 RMK AC1CI0 SLP187=

CYVR;2005-04-20 15:00;METAR CYVR 201500Z 00000KT 30SM FEW180 SCT230 09/06 A3009 RMK AC1CI1 SLP188=

CYVR;2005-04-20 16:00;METAR CYVR 201600Z 29011KT 30SM FEW170 BKN230 11/09 A3008 RMK AC1CI2 SLP185=

CYVR;2005-04-20 17:00;METAR CYVR 201700Z 30011KT 30SM FEW170 BKN230 12/09 A3007 RMK AC1CI2 SLP184=

CYVR;2005-04-20 19:00;METAR CYVR 201900Z 29011KT 30SM FEW220 13/10 A3006 RMK CI1 SLP179=

CYVR;2005-04-20 21:00;METAR CYVR 202100Z 29009KT 30SM FEW220 15/09 A3002 RMK CI2 SLP166=

CYVR;2005-04-20 22:00;METAR CYVR 202200Z 29008KT 30SM SCT220 15/10 A3001 RMK CI2 SLP162=

CYVR;2005-04-21 00:00;METAR CYVR 210000Z 21008KT 30SM BKN220 15/09 A2999 RMK CI3 SLP156=

CYVR;2005-04-21 01:00;METAR CYVR 210100Z 22007KT 30SM BKN220 15/09 A2999 RMK CI3 SLP156=

CYVR;2005-04-21 04:00;METAR CYVR 210400Z 09009KT 30SM BKN240 12/08 A3003 RMK CI2 SLP168=

CYVR;2005-04-21 06:00;METAR CYVR 210600Z 11007KT 20SM OVC130 12/09 A3006 RMK AC6 SLP180=

CYVR;2005-04-21 07:00;METAR CYVR 210700Z 11008KT 20SM FEW140 BKN240 12/09 A3007 RMK AC1CI2 SLP184=

CYVR;2005-04-21 08:00;METAR CYVR 210800Z 09008KT 20SM SCT140 BKN240 11/09 A3009 RMK AC1CI2 SLP188=

CYVR;2005-04-21 10:00;METAR CYVR 211000Z 10010KT 20SM SCT140 BKN240 11/07 A3012 RMK AC2CI1 SLP199=

CYVR;2005-04-21 11:00;METAR CYVR 211100Z 09011KT 20SM FEW140 FEW240 11/07 A3013 RMK AC0CI1 TR AC SLP203=

CYVR;2005-04-21 12:00;METAR CYVR 211200Z 11009KT 20SM FEW140 SCT240 10/07 A3015 RMK AC1CI1 SLP209=

CYVR;2005-04-21 13:00;METAR CYVR 211300Z 09010KT 20SM SCT140 BKN240 09/07 A3017 RMK AC2CI1 SLP218=

CYVR;2005-04-21 14:00;METAR CYVR 211400Z 10008KT 20SM BKN130 BKN240 10/08 A3020 RMK AC6CI0 SLP226=

CYVR;2005-04-21 15:00;METAR CYVR 211500Z 11008KT 20SM BKN140 BKN240 11/09 A3022 RMK AC6CI0 SLP232=

CYVR;2005-04-21 16:00;METAR CYVR 211600Z 13007KT 20SM BKN140 BKN240 12/09 A3023 RMK AC5CI0 SLP237=

CYVR;2005-04-21 17:00;METAR CYVR 211700Z 14008KT 20SM FEW140 BKN240 13/09 A3024 RMK AC2CI1 SLP242=

CYVR;2005-04-21 18:00;METAR CYVR 211800Z 16008KT 20SM FEW050 BKN220 13/09 A3026 RMK SC1CI2 SLP246=

CYVR;2005-04-21 20:00;METAR CYVR 212000Z 24008KT 20SM BKN220 14/12 A3024 RMK CI2 SLP241=

CYVR;2005-04-21 21:00;METAR CYVR 212100Z 22008KT 20SM BKN220 14/11 A3024 RMK CI2 SLP239=

CYVR;2005-04-21 22:00;METAR CYVR 212200Z 24007KT 20SM BKN220 15/11 A3023 RMK CI2 SLP236=

CYVR;2005-04-22 00:00;METAR CYVR 220000Z 28005KT 20SM BKN220 14/11 A3021 RMK CI2 SLP229=

CYVR;2005-04-22 02:00;METAR CYVR 220200Z 27004KT 20SM BKN240 14/10 A3019 RMK CI1 SLP222=

CYVR;2005-04-22 03:00;METAR CYVR 220300Z 21002KT 20SM FEW220 BKN240 12/10 A3019 RMK CI1CI1 SLP225=

CYVR;2005-04-22 04:00;METAR CYVR 220400Z 00000KT 20SM SCT220 13/09 A3021 RMK CI1 SLP230=

CYVR;2005-04-22 05:00;METAR CYVR 220500Z 10003KT 20SM SCT220 12/09 A3022 RMK CI1 SLP233=

CYVR;2005-04-22 06:00;METAR CYVR 220600Z 09005KT 20SM SCT220 11/10 A3022 RMK CI2 SLP235=

CYVR;2005-04-22 09:00;METAR CYVR 220900Z 10004KT 20SM SCT160 BKN220 11/09 A3022 RMK AC2CI1 SLP233=

CYVR;2005-04-22 10:00;METAR CYVR 221000Z 00000KT 20SM FEW220 11/09 A3021 RMK CI1 SLP230=

CYVR;2005-04-22 12:00;METAR CYVR 221200Z 00000KT 20SM FEW220 09/08 A3020 RMK CI0 SLP227=

CYVR;2005-04-22 12:15;SPECI CYVR 221215Z 32003KT 20SM MIFG FEW220 RMK CI1=

CYVR;2005-04-22 13:00;METAR CYVR 221300Z 36004KT 20SM FEW220 09/08 A3019 RMK CI0 SLP223=

CYVR;2005-04-22 14:00;METAR CYVR 221400Z 00000KT 20SM SCT220 10/09 A3019 RMK CI2 SLP223=

CYVR;2005-04-22 16:00;METAR CYVR 221600Z 33003KT 20SM FEW220 13/10 A3016 RMK CI0 SLP213=

CYVR;2005-04-22 17:00;METAR CYVR 221700Z 30006KT 20SM FEW100 FEW230 16/10 A3014 RMK AC1CI0 SLP207=

CYVR;2005-04-22 18:00;METAR CYVR 221800Z 29007KT 20SM FEW090 15/10 A3013 RMK AC1 TR AC SLP202=

CYVR;2005-04-22 19:00;METAR CYVR 221900Z 28008KT 20SM FEW090 FEW230 15/12 A3010 RMK AC1CI1 TR AC TR CI SLP193=

CYVR;2005-04-22 21:00;METAR CYVR 222100Z 26005KT 20SM FEW100 FEW230 17/12 A3002 RMK AC1CI1 TR AC TR CI SLP167=

CYVR;2005-04-22 22:00;METAR CYVR 222200Z 29006KT 20SM FEW040 FEW230 17/12 A3000 RMK CU1CI1 SLP158=

CYVR;2005-04-22 23:00;METAR CYVR 222300Z 28006KT 20SM FEW040 FEW230 18/12 A2996 RMK CU1CI1 SLP144=

CYVR;2005-04-23 00:00;METAR CYVR 230000Z 31008KT 20SM SKC 18/12 A2993 RMK SLP134=

CYVR;2005-04-23 01:00;METAR CYVR 230100Z 27008KT 20SM SKC 18/11 A2989 RMK SLP123=

CYVR;2005-04-23 05:00;METAR CYVR 230500Z 00000KT 30SM FEW240 14/12 A2982 RMK CI1 SLP098=

CYVR;2005-04-23 06:00;METAR CYVR 230600Z 19003KT 30SM FEW240 14/11 A2982 RMK CI1 SLP097=

CYVR;2005-04-23 07:00;METAR CYVR 230700Z 00000KT 20SM FEW240 12/11 A2982 RMK CI1 SLP098=

CYVR;2005-04-23 08:00;METAR CYVR 230800Z 00000KT 20SM FEW240 12/10 A2981 RMK CI1 SLP096=

CYVR;2005-04-23 09:00;METAR CYVR 230900Z 33002KT 20SM FEW240 13/09 A2980 RMK CI2 SLP092=

CYVR;2005-04-23 10:00;METAR CYVR 231000Z 00000KT 20SM BKN240 12/07 A2979 RMK CI4 SLP088=

CYVR;2005-04-23 12:00;METAR CYVR 231200Z 33004KT 20SM BKN240 11/09 A2978 RMK CI2 SLP086=

CYVR;2005-04-23 13:00;METAR CYVR 231300Z 29007KT 20SM SCT220 12/09 A2977 RMK CI2 SLP080=

CYVR;2005-04-23 14:00;METAR CYVR 231400Z 26005KT 20SM FEW180 BKN220 12/11 A2978 RMK AC1CI2 SLP085=

CYVR;2005-04-23 15:00;METAR CYVR 231500Z 30008KT 20SM BKN220 13/12 A2979 RMK CI3 SLP088=

CYVR;2005-04-23 16:00;METAR CYVR 231600Z 30010KT 20SM BKN220 14/12 A2979 RMK CI3 SLP088=

CYVR;2005-04-23 22:00;METAR CYVR 232200Z 30014KT 20SM FEW060 FEW140 BKN220 19/12 A2976 RMK CU1AC2CI3 SLP078=

CYVR;2005-04-23 23:00;METAR CYVR 232300Z 30011G16KT 20SM FEW060 BKN160 BKN220 18/12 A2974 RMK CU1AC4CI2 SLP070=

CYVR;2005-04-24 00:00;METAR CYVR 240000Z 30012G17KT 20SM FEW060 BKN150 BKN220 18/12 A2971 RMK CU1AC5CI1 SLP062=

CYVR;2005-04-24 01:57;SPECI CYVR 240157Z 16010G16KT 20SM FEW060 BKN140 BKN220 RMK SC2AC2CI1 WSHFT / TCU EMBD NE=

CYVR;2005-04-24 03:52;SPECI CYVR 240352Z 13011G20KT 20SM -SHRA FEW060 BKN130 BKN230 RMK SC2AC3CI1=

CYVR;2005-04-24 04:00;METAR CYVR 240400Z 17008G17KT 20SM -SHRA FEW060 BKN100 BKN210 16/10 A2978 RMK SC2AC3CI1 SLP084=

CYVR;2005-04-24 04:27;SPECI CYVR 240427Z 10017KT 20SM FEW060 SCT090 BKN130 BKN240 RMK SC2AC2AC2CI1=

CYVR;2005-04-24 05:26;SPECI CYVR 240526Z 11016KT 20SM -SHRA FEW060 FEW080 BKN130 BKN240 RMK SC1AC2AC2CI0=

CYVR;2005-04-24 05:50;SPECI CYVR 240550Z 11016G21KT 20SM FEW060 FEW080 BKN140 BKN240 RMK SC1AC2AC2CI1=

CYVR;2005-04-24 06:00;METAR CYVR 240600Z 11019KT 20SM FEW060 FEW080 BKN130 BKN240 14/10 A2987 RMK SC1AC2AC2CI1 SLP116=

CYVR;2005-04-24 07:00;METAR CYVR 240700Z 09018KT 20SM FEW060 SCT100 BKN140 BKN240 13/10 A2990 RMK SC1AC2AC2CI2 SLP125=

CYVR;2005-04-24 10:00;METAR CYVR 241000Z 12014KT 15SM SCT045 BKN060 BKN160 13/10 A2993 RMK SC3SC2AC2 SLP135=

CYVR;2005-04-24 11:00;METAR CYVR 241100Z 14012KT 15SM BKN043 BKN070 13/10 A2994 RMK SC6AC1 SLP139=

CYVR;2005-04-24 12:00;METAR CYVR 241200Z 11008KT 15SM BKN040 BKN070 12/10 A2996 RMK SC6AC1 SLP144=

CYVR;2005-04-24 14:00;METAR CYVR 241400Z 10006KT 15SM OVC036 12/10 A2997 RMK SC8 SLP150=

CYVR;2005-04-24 15:00;METAR CYVR 241500Z 12008KT 15SM OVC040 13/10 A2998 RMK SC8 SLP151=

CYVR;2005-04-24 16:00;METAR CYVR 241600Z 11005KT 15SM FEW018 OVC037 14/10 A2999 RMK CF2SC6 SLP156=

CYVR;2005-04-24 17:00;METAR CYVR 241700Z 08006KT 15SM FEW028 OVC036 15/10 A2999 RMK CU1SC6 SLP155=

CYVR;2005-04-24 18:00;METAR CYVR 241800Z 13002KT 15SM FEW018 SCT036 BKN240 17/11 A2999 RMK CU1SC2CS2 SLP157=

CYVR;2005-04-24 19:00;METAR CYVR 241900Z 24009KT 15SM BKN032 BKN240 16/13 A3000 RMK SC5CS1 SLP158=

CYVR;2005-04-24 20:00;METAR CYVR 242000Z 25009KT 15SM FEW032 SCT240 15/13 A2999 RMK SC2CI1 SLP156=

CYVR;2005-04-24 21:00;METAR CYVR 242100Z 26007KT 15SM FEW036 FEW100 FEW240 16/13 A2998 RMK SC1AC1CI1 SLP154=

CYVR;2005-04-24 22:00;METAR CYVR 242200Z 25009KT 15SM FEW040 FEW240 17/12 A2997 RMK SC1CI1 SLP150=

CYVR;2005-04-25 00:00;METAR CYVR 250000Z 28010KT 15SM FEW044 SCT240 16/11 A2994 RMK SC1CI1 SLP139=

CYVR;2005-04-25 01:00;METAR CYVR 250100Z 29010KT 15SM FEW044 OVC240 15/12 A2993 RMK SC1CI2 TR SC SLP136=

CYVR;2005-04-25 03:00;METAR CYVR 250300Z 30010KT 20SM FEW100 BKN240 14/11 A2992 RMK AC1CI2 SLP131=

CYVR;2005-04-25 05:00;METAR CYVR 250500Z 31010G15KT 20SM BKN240 13/11 A2993 RMK CI2 SLP137=

CYVR;2005-04-25 07:00;METAR CYVR 250700Z 34007KT 20SM BKN240 12/10 A2995 RMK CI2 SLP141=

CYVR;2005-04-25 10:00;METAR CYVR 251000Z 07006KT 15SM BKN240 12/10 A2999 RMK CI2 SLP157=

CYVR;2005-04-25 11:00;METAR CYVR 251100Z 10006KT 15SM BKN240 11/09 A3001 RMK CI2 SLP164=

CYVR;2005-04-25 12:00;METAR CYVR 251200Z 09006KT 15SM SCT240 10/09 A3004 RMK CI2 SLP171=

CYVR;2005-04-25 14:00;METAR CYVR 251400Z 10006KT 20SM BKN240 11/09 A3006 RMK CI1 SLP181=

CYVR;2005-04-25 15:00;METAR CYVR 251500Z 09006KT 20SM BKN240 13/09 A3008 RMK CI2 SLP186=

CYVR;2005-04-25 16:00;METAR CYVR 251600Z 10008KT 20SM BKN240 15/10 A3008 RMK CI1 SLP187=

CYVR;2005-04-25 17:00;METAR CYVR 251700Z 13005KT 20SM BKN240 16/10 A3009 RMK CI1 SLP188=

CYVR;2005-04-25 18:00;METAR CYVR 251800Z 15005KT 20SM BKN240 16/10 A3009 RMK CI1 SLP189=

CYVR;2005-04-25 20:00;METAR CYVR 252000Z 27006KT 15SM FEW240 16/13 A3008 RMK CI1 HZ SLP187=

CYVR;2005-04-25 21:00;METAR CYVR 252100Z 28007KT 15SM FEW240 17/12 A3007 RMK CI0 HZ SLP184=

CYVR;2005-04-25 23:00;METAR CYVR 252300Z 26008KT 15SM FEW240 18/11 A3003 RMK CI0 HZ SLP170=

CYVR;2005-04-26 00:00;METAR CYVR 260000Z 24009KT 20SM FEW240 17/12 A3002 RMK CI0 HZ SLP166=

CYVR;2005-04-26 02:00;METAR CYVR 260200Z 21006KT 20SM FEW240 17/11 A3000 RMK CI1 SLP160=

CYVR;2005-04-26 03:00;METAR CYVR 260300Z 18005KT 20SM FEW240 17/10 A3001 RMK CI1 SLP162=

CYVR;2005-04-26 04:00;METAR CYVR 260400Z 14005KT 20SM FEW240 15/11 A3003 RMK CI1 SLP168=

CYVR;2005-04-26 06:00;METAR CYVR 260600Z 10009KT 20SM FEW240 12/10 A3005 RMK CI0 SLP176=

CYVR;2005-04-26 09:00;METAR CYVR 260900Z 11006KT 20SM FEW240 13/10 A3007 RMK CI1 SLP183=

CYVR;2005-04-26 10:00;METAR CYVR 261000Z 10007KT 20SM FEW240 10/08 A3007 RMK CI1 SLP183=

CYVR;2005-04-26 12:00;METAR CYVR 261200Z 09006KT 20SM FEW240 10/08 A3008 RMK CI1 SLP186=

CYVR;2005-04-26 13:00;METAR CYVR 261300Z 09003KT 20SM FEW240 10/08 A3009 RMK CI1 SLP188=

CYVR;2005-04-26 14:00;METAR CYVR 261400Z 09005KT 20SM FEW240 11/09 A3009 RMK CI0 HZ SLP190=

CYVR;2005-04-26 15:00;METAR CYVR 261500Z 11006KT 20SM FEW240 13/10 A3010 RMK CI1 HZ TR CI SLP193=

CYVR;2005-04-26 16:00;METAR CYVR 261600Z 09005KT 15SM FEW240 15/10 A3010 RMK CI1 HZ TR CI SLP194=

CYVR;2005-04-26 17:00;METAR CYVR 261700Z 13005KT 15SM SKC 16/11 A3010 RMK HZ CONTRAILS SLP192=

CYVR;2005-04-26 18:00;METAR CYVR 261800Z 23007KT 15SM FEW240 17/11 A3009 RMK CI0 HZ SLP190=

CYVR;2005-04-26 20:00;METAR CYVR 262000Z 24008KT 15SM FEW040 FEW240 18/13 A3007 RMK CU1CI0 HZ TR CU SLP184=

CYVR;2005-04-26 21:00;METAR CYVR 262100Z 22009KT 15SM FEW040 18/13 A3006 RMK CU1 HZ SLP178=

CYVR;2005-04-26 22:00;METAR CYVR 262200Z 22007KT 15SM FEW040 19/14 A3004 RMK CU1 HZ TR CU SLP174=

CYVR;2005-04-27 00:00;METAR CYVR 270000Z 22009KT 15SM BKN240 20/13 A3001 RMK CI1 HZ SLP161=

CYVR;2005-04-27 01:00;METAR CYVR 270100Z 21008KT 15SM BKN240 19/11 A2999 RMK CI1 HZ SLP157=

CYVR;2005-04-27 04:00;METAR CYVR 270400Z 10008KT 15SM SCT240 15/11 A2997 RMK CI1 SLP149=

CYVR;2005-04-27 05:00;METAR CYVR 270500Z 09007KT 15SM FEW240 13/11 A2997 RMK CI1 SLP150=

CYVR;2005-04-27 06:00;METAR CYVR 270600Z 12007KT 15SM FEW240 13/10 A2997 RMK CI1 SLP149=

CYVR;2005-04-27 07:00;METAR CYVR 270700Z 09009KT 15SM SCT240 13/10 A2997 RMK CI1 SLP149=

CYVR;2005-04-27 08:00;METAR CYVR 270800Z 09006KT 15SM FEW240 12/10 A2997 RMK CI1 SLP150=

CYVR;2005-04-27 10:00;METAR CYVR 271000Z 11003KT 15SM FEW240 12/10 A2996 RMK CI0 SLP144=

CYVR;2005-04-27 11:00;METAR CYVR 271100Z 12004KT 15SM FEW220 12/10 A2995 RMK CI0 SLP141=

CYVR;2005-04-27 12:00;METAR CYVR 271200Z 14002KT 15SM FEW220 13/10 A2994 RMK CI0 SLP139=

CYVR;2005-04-27 13:00;METAR CYVR 271300Z 34003KT 15SM SCT220 11/09 A2994 RMK CI1 SLP139=

CYVR;2005-04-27 14:00;METAR CYVR 271400Z 27003KT 15SM PRFG BKN240 11/10 A2994 RMK CI1 SLP138=

CYVR;2005-04-27 15:00;METAR CYVR 271500Z 30007KT 15SM BKN240 13/12 A2993 RMK CI1 SLP137=

CYVR;2005-04-27 16:00;METAR CYVR 271600Z 30007KT 15SM BKN230 14/13 A2993 RMK CI1 SLP137=

CYVR;2005-04-27 17:00;METAR CYVR 271700Z 28007KT 15SM BKN230 15/13 A2993 RMK CI1 SLP136=

CYVR;2005-04-27 18:00;METAR CYVR 271800Z 29008KT 20SM BKN220 16/13 A2993 RMK CI1 SLP134=

CYVR;2005-04-27 20:00;METAR CYVR 272000Z 31012KT 20SM FEW040 BKN220 18/14 A2989 RMK CF1CI1 TR CF SLP121=

CYVR;2005-04-27 22:00;METAR CYVR 272200Z 30013KT 20SM FEW040 BKN220 20/12 A2986 RMK CF1CI1 TR CF SLP111=

CYVR;2005-04-28 00:00;METAR CYVR 280000Z 27011KT 30SM BKN220 19/13 A2983 RMK CI1 SLP101=

CYVR;2005-04-28 01:00;METAR CYVR 280100Z 31010KT 30SM BKN220 19/12 A2982 RMK CI1 SLP099=

CYVR;2005-04-28 04:00;METAR CYVR 280400Z 35003KT 30SM SCT220 15/09 A2981 RMK CI1 SLP096=

CYVR;2005-04-28 06:00;METAR CYVR 280600Z 02006KT 20SM FEW220 15/02 A2983 RMK CI1 SLP100=

CYVR;2005-04-28 07:00;METAR CYVR 280700Z 01005KT 20SM FEW100 FEW220 16/M01 A2984 RMK AC1CI1 SLP104=

CYVR;2005-04-28 08:00;METAR CYVR 280800Z 03005KT 20SM FEW100 FEW220 16/M01 A2985 RMK AC1CI1 SLP107=

CYVR;2005-04-28 09:00;METAR CYVR 280900Z 09003KT 20SM FEW083 SCT220 14/M01 A2985 RMK AC2CI1 SLP110=

CYVR;2005-04-28 10:00;METAR CYVR 281000Z 10005KT 20SM SCT090 SCT220 13/M01 A2986 RMK AC3CI1 SLP112=

CYVR;2005-04-28 12:00;METAR CYVR 281200Z 21003KT 20SM BKN094 BKN220 13/00 A2988 RMK AC6CI0 SLP119=

CYVR;2005-04-28 13:00;METAR CYVR 281300Z 01003KT 20SM SCT096 BKN220 11/02 A2989 RMK AC4CI0 SLP123=

CYVR;2005-04-28 14:00;METAR CYVR 281400Z 00000KT 20SM SCT100 BKN220 12/02 A2991 RMK AC2CI1 SLP127=

CYVR;2005-04-28 15:00;METAR CYVR 281500Z 35002KT 30SM FEW100 FEW220 16/01 A2991 RMK AC1CI0 SLP129=

CYVR;2005-04-28 16:00;METAR CYVR 281600Z 20002KT 30SM FEW100 FEW220 17/01 A2992 RMK AC0CI0 SLP133=

CYVR;2005-04-28 17:00;METAR CYVR 281700Z 23008KT 30SM FEW100 FEW220 18/01 A2992 RMK AC1CI1 TR AC TR CI SLP133=

CYVR;2005-04-28 20:00;METAR CYVR 282000Z 24009KT 30SM FEW040 SCT140 SCT220 19/05 A2991 RMK CU1AC1CI1 SLP129=

CYVR;2005-04-28 22:00;METAR CYVR 282200Z 27008KT 30SM FEW040 BKN190 BKN220 18/09 A2991 RMK SC1AC4CI1 SLP127=

CYVR;2005-04-28 23:00;METAR CYVR 282300Z 27007KT 30SM FEW040 BKN180 BKN220 18/09 A2990 RMK SC1AC5CI1 SLP125=

CYVR;2005-04-29 00:00;METAR CYVR 290000Z 26006KT 30SM FEW040 BKN180 BKN220 19/07 A2989 RMK CF1AC4CI1 SLP123=

CYVR;2005-04-29 01:00;METAR CYVR 290100Z 26003KT 30SM FEW040 BKN220 18/05 A2989 RMK CF1CI4 SLP123=

CYVR;2005-04-29 02:00;METAR CYVR 290200Z 00000KT 30SM FEW040 OVC220 18/01 A2989 RMK CU1CI2 SLP123=

CYVR;2005-04-29 04:00;METAR CYVR 290400Z 02003KT 30SM BKN240 16/01 A2991 RMK CI4 SLP127=

CYVR;2005-04-29 05:00;METAR CYVR 290500Z 12002KT 30SM BKN240 16/03 A2992 RMK CI3 SLP132=

CYVR;2005-04-29 07:00;METAR CYVR 290700Z 07006KT 20SM SCT240 11/04 A2995 RMK CI2 SLP143=

CYVR;2005-04-29 10:00;METAR CYVR 291000Z 08006KT 20SM BKN240 10/05 A2999 RMK CI2 SLP155=

CYVR;2005-04-29 11:00;METAR CYVR 291100Z 10005KT 20SM BKN240 11/06 A3001 RMK CI2 SLP162=

CYVR;2005-04-29 12:00;METAR CYVR 291200Z 08003KT 20SM FEW120 BKN240 10/06 A3002 RMK AC2CI1 SLP166=

CYVR;2005-04-29 19:00;METAR CYVR 291900Z 23009KT 30SM FEW040 FEW120 OVC240 15/05 A3007 RMK CF1AC1CS2 TR CF SLP184=

CYVR;2005-04-29 20:00;METAR CYVR 292000Z 25007KT 30SM FEW040 FEW120 OVC240 16/07 A3007 RMK CF1AC1CS2 TR CF SLP184=

CYVR;2005-04-29 21:00;METAR CYVR 292100Z 23008G17KT 30SM FEW040 FEW120 OVC230 17/03 A3007 RMK CU1AC1CS2 TR CU TR AC SLP182=

CYVR;2005-04-29 22:00;METAR CYVR 292200Z 25007KT 30SM FEW040 FEW120 BKN230 18/06 A3006 RMK CU1AC1CI2 TR CU TR AC SLP180=

CYVR;2005-04-29 23:00;METAR CYVR 292300Z 24006KT 30SM FEW040 FEW120 SCT200 BKN230 18/10 A3006 RMK CU1AC1CI1CS1 TR CU TR AC SLP179=

CYVR;2005-04-30 03:00;METAR CYVR 300300Z 13007KT 15SM FEW040 FEW150 OVC240 14/08 A3008 RMK SC1AC2CS1 SLP186=

CYVR;2005-04-30 04:00;METAR CYVR 300400Z 12008KT 15SM FEW040 BKN150 OVC240 13/09 A3010 RMK SC1AC5CS2 SLP193=

CYVR;2005-04-30 05:00;METAR CYVR 300500Z 10009KT 15SM BKN160 BKN240 12/09 A3011 RMK AC5CS1 SLP196=

CYVR;2005-04-30 09:00;METAR CYVR 300900Z 10007KT 15SM FEW030 FEW060 BKN140 11/08 A3014 RMK SC1SC1AC3 SLP206=

CYVR;2005-04-30 10:00;METAR CYVR 301000Z 09008KT 15SM FEW030 SCT060 BKN140 11/08 A3014 RMK SC1SC2AC2 SLP205=

CYVR;2005-04-30 11:00;METAR CYVR 301100Z 09006KT 15SM FEW027 SCT100 BKN140 11/08 A3014 RMK SC2AC2AC2 SLP207=

CYVR;2005-04-30 12:00;METAR CYVR 301200Z 00000KT 15SM BKN028 BKN065 OVC090 12/08 A3014 RMK SC5SC2AC2 SLP207=

CYVR;2005-04-30 13:00;METAR CYVR 301300Z 13006KT 15SM SCT030 BKN058 OVC100 12/08 A3015 RMK SC3SC4AC1 SLP209=

CYVR;2005-04-30 13:44;SPECI CYVR 301344Z 14006KT 15SM -SHRA FEW025 SCT060 BKN070 OVC100 RMK SC2SC2AC3AC1=

CYVR;2005-04-30 14:16;SPECI CYVR 301416Z 13005KT 15SM SCT025 BKN060 BKN070 OVC100 RMK SC3SC2AC2AC1=

CYVR;2005-04-30 15:00;METAR CYVR 301500Z 12007KT 15SM FEW020 BKN030 BKN060 OVC090 12/09 A3016 RMK SF1SC4SC2AC2 SLP213=

CYVR;2005-04-30 16:00;METAR CYVR 301600Z 12012KT 12SM FEW016 BKN032 BKN050 OVC080 12/09 A3016 RMK CF1SC5SC2AC1 SLP214=

CYVR;2005-04-30 17:00;METAR CYVR 301700Z 10009KT 12SM FEW016 SCT030 BKN050 OVC080 13/09 A3017 RMK CF1SC3SC3AC1 SLP215=

CYVR;2005-04-30 18:00;METAR CYVR 301800Z 10012KT 12SM FEW017 SCT030 BKN050 OVC080 13/09 A3017 RMK CF1CU2SC4AC1 SLP216=

CYVR;2005-04-30 19:00;METAR CYVR 301900Z 09009KT 12SM FEW016 SCT040 BKN060 OVC080 13/10 A3018 RMK CU1CU2SC3AC2 SLP219=

CYVR;2005-04-30 21:00;METAR CYVR 302100Z 12009KT 15SM SCT022 BKN050 BKN090 15/10 A3017 RMK SC3SC2AC2 SLP217=

CYVR;2005-04-30 22:00;METAR CYVR 302200Z 08009KT 15SM SCT025 BKN060 BKN090 15/09 A3016 RMK SC3SC2AC1 SLP214=

CYVR;2005-05-01 00:00;METAR CYVR 010000Z 24007KT 15SM FEW025 BKN040 BKN100 15/09 A3014 RMK SC2SC5AC1 SLP206=

CYVR;2005-05-01 02:00;METAR CYVR 010200Z 29007KT 15SM OVC043 14/10 A3013 RMK SC8 SLP204=

CYVR;2005-05-01 03:00;METAR CYVR 010300Z 31004KT 15SM OVC052 13/10 A3013 RMK SC6 SLP203=

CYVR;2005-05-01 04:00;METAR CYVR 010400Z 34003KT 15SM OVC047 13/09 A3013 RMK SC8 SLP204=

CYVR;2005-05-01 05:00;METAR CYVR 010500Z 31005KT 15SM BKN053 OVC100 13/09 A3014 RMK SC6AC2 SLP205=

CYVR;2005-05-01 06:00;METAR CYVR 010600Z 32005KT 15SM FEW050 11/09 A3013 RMK SC2 SLP203=

CYVR;2005-05-01 10:00;METAR CYVR 011000Z 35003KT 15SM BKN077 BKN110 10/08 A3011 RMK AC5AC2 SLP198=

CYVR;2005-05-01 11:00;METAR CYVR 011100Z 00000KT 15SM BKN083 BKN100 11/08 A3012 RMK AC5AC1 SLP200=

CYVR;2005-05-01 12:00;METAR CYVR 011200Z 00000KT 15SM BKN082 BKN110 10/08 A3012 RMK AC6AC2 SLP200=

CYVR;2005-05-01 13:00;METAR CYVR 011300Z 12004KT 15SM BKN085 BKN110 10/08 A3012 RMK AC6AC2 SLP201=

CYVR;2005-05-01 14:00;METAR CYVR 011400Z 10004KT 15SM BKN074 BKN240 10/08 A3013 RMK AC5CI1 SLP203=

CYVR;2005-05-01 15:00;METAR CYVR 011500Z 11004KT 15SM FEW015 SCT075 BKN220 11/09 A3013 RMK CF1AC2CI1 SLP204=

CYVR;2005-05-01 16:00;METAR CYVR 011600Z 00000KT 15SM FEW070 SCT100 BKN220 14/09 A3014 RMK AC2AC2CI1 SLP206=

CYVR;2005-05-01 19:00;METAR CYVR 011900Z 29011KT 20SM FEW060 FEW090 BKN220 15/11 A3013 RMK SC1AC2CI1 SLP204=

CYVR;2005-05-01 21:00;METAR CYVR 012100Z 30011KT 20SM FEW050 FEW090 BKN240 16/11 A3012 RMK CU1AC1CI2 SLP199=

CYVR;2005-05-01 22:00;METAR CYVR 012200Z 30010KT 20SM FEW050 FEW090 BKN240 17/11 A3011 RMK CU1AC2CI2 SLP198=

CYVR;2005-05-02 00:00;METAR CYVR 020000Z 31010KT 20SM FEW050 FEW080 BKN240 17/10 A3008 RMK CU1AC2CI3 SLP187=

CYVR;2005-05-02 01:00;METAR CYVR 020100Z 30008KT 20SM FEW050 FEW080 BKN240 16/11 A3007 RMK CU1AC1CI3 SLP182=

CYVR;2005-05-02 03:00;METAR CYVR 020300Z 30007KT 30SM FEW110 BKN240 14/11 A3005 RMK AC2CI3 SLP176=

CYVR;2005-05-02 04:00;METAR CYVR 020400Z 32006KT 30SM OVC220 13/11 A3005 RMK CI7 SLP176=

CYVR;2005-05-02 05:00;METAR CYVR 020500Z 29007KT 30SM OVC230 13/11 A3005 RMK CI8 SLP177=

CYVR;2005-05-02 08:00;METAR CYVR 020800Z 00000KT 30SM BKN170 13/12 A3004 RMK AC6 SLP173=

CYVR;2005-05-02 10:00;METAR CYVR 021000Z 27006KT 30SM BKN100 13/11 A3005 RMK AC7 SLP175=

CYVR;2005-05-02 12:00;METAR CYVR 021200Z 30010KT 30SM BKN100 BKN200 13/11 A3006 RMK AC6CI1 SLP178=

CYVR;2005-05-02 16:00;METAR CYVR 021600Z 30011KT 12SM SCT060 BKN090 OVC130 14/11 A3008 RMK SC3AC2AS2 SLP187=

CYVR;2005-05-02 17:00;METAR CYVR 021700Z 28009KT 12SM SCT016 BKN060 OVC080 14/11 A3009 RMK SF3SC2AS2 SLP189=

CYVR;2005-05-02 17:31;SPECI CYVR 021731Z 28010KT 12SM -SHRA SCT015 OVC070 RMK SF4AS4=

CYVR;2005-05-02 18:00;METAR CYVR 021800Z 29009KT 12SM -SHRA FEW015 BKN040 OVC070 14/11 A3009 RMK SF2SC2AS3 SLP190=

CYVR;2005-05-02 19:00;METAR CYVR 021900Z 30011G16KT 8SM -SHRA FEW017 SCT040 OVC071 13/12 A3009 RMK SF2SC2AS4 SLP191=

CYVR;2005-05-02 20:00;METAR CYVR 022000Z 30011KT 8SM -SHRA FEW017 SCT030 OVC070 13/12 A3010 RMK SF2SC2AS5 SLP193=

CYVR;2005-05-02 21:00;METAR CYVR 022100Z 29013KT 6SM -SHRA SCT018 BKN030 OVC070 13/12 A3011 RMK SF3SC3AS2 SLP196=

CYVR;2005-05-02 22:00;METAR CYVR 022200Z 29011KT 6SM -SHRA SCT017 BKN035 OVC055 13/12 A3011 RMK SF3SC2SC2 SLP197=

CYVR;2005-05-03 00:00;METAR CYVR 030000Z 31007KT 8SM -RA FEW005 FEW017 BKN035 OVC070 13/12 A3010 RMK SF1SF2SC3AS2 SLP193=

CYVR;2005-05-03 01:47;SPECI CYVR 030147Z 00000KT 10SM FEW008 BKN042 OVC081 RMK SF1SC5AC2=

CYVR;2005-05-03 03:00;METAR CYVR 030300Z 20004KT 10SM FEW012 BKN037 OVC078 13/11 A3008 RMK SF1SC5AC2 SLP185=

CYVR;2005-05-03 03:11;SPECI CYVR 030311Z 23004KT 10SM FEW012 BKN037 OVC078 RMK SF1SC5AC2=

CYVR;2005-05-03 03:28;SPECI CYVR 030328Z 26006KT 10SM FEW012 BKN038 OVC072 RMK SF1SC5AC2=

CYVR;2005-05-03 04:00;METAR CYVR 030400Z 21002KT 12SM FEW012 SCT037 OVC078 12/11 A3009 RMK SC2SC2AC4 SLP188=

CYVR;2005-05-03 05:00;METAR CYVR 030500Z 00000KT 12SM SCT031 BKN055 OVC075 12/11 A3009 RMK SC3SC2AC2 SLP189=

CYVR;2005-05-03 05:51;SPECI CYVR 030551Z 00000KT 10SM SCT009 BKN026 OVC074 RMK SC3SC3AC2=

CYVR;2005-05-03 07:00;METAR CYVR 030700Z 00000KT 10SM SCT009 BKN016 OVC026 12/11 A3008 RMK SC3SC2SC2 SLP187=

CYVR;2005-05-03 09:00;METAR CYVR 030900Z 00000KT 10SM SCT008 OVC016 12/11 A3008 RMK SC3SC5 SLP185=

CYVR;2005-05-03 10:00;METAR CYVR 031000Z 00000KT 10SM SCT008 OVC015 12/11 A3008 RMK SC3SC5 SLP185=

CYVR;2005-05-03 11:00;METAR CYVR 031100Z 16003KT 10SM SCT008 OVC015 12/10 A3007 RMK SC3SC5 SLP183=

CYVR;2005-05-03 12:00;METAR CYVR 031200Z 17003KT 10SM FEW008 OVC016 12/10 A3007 RMK SC2SC6 SLP183=

CYVR;2005-05-03 13:00;METAR CYVR 031300Z 14002KT 8SM FEW008 OVC015 12/10 A3007 RMK SC2SC6 SLP182=

CYVR;2005-05-03 14:00;METAR CYVR 031400Z 11003KT 8SM SCT006 BKN015 OVC022 11/10 A3007 RMK SF3SC3SC2 SLP183=

CYVR;2005-05-03 15:00;METAR CYVR 031500Z 16003KT 8SM FEW007 BKN014 OVC025 12/10 A3008 RMK SF2SC5SC1 SLP185=

CYVR;2005-05-03 16:00;METAR CYVR 031600Z 17003KT 6SM BR SCT008 BKN014 OVC025 12/11 A3008 RMK SF4SC3SC1 SLP187=

CYVR;2005-05-03 19:00;METAR CYVR 031900Z 23006KT 8SM FEW009 BKN018 BKN030 BKN045 14/11 A3008 RMK SF2SC3SC2SC1 SLP186=

CYVR;2005-05-04 15:12;SPECI CYVR 041512Z 10006KT 10SM -RA BKN040 OVC073 RMK SC5AC3=

CYVR;2005-05-04 16:42;SPECI CYVR 041642Z 13006KT 10SM BKN023 OVC061 RMK SC5SC3=

CYVR;2005-05-04 17:13;SPECI CYVR 041713Z 12007KT 10SM -RA SCT020 OVC055 RMK SC3SC5=

CYVR;2005-05-04 18:37;SPECI CYVR 041837Z 12006KT 10SM FEW018 BKN039 OVC055 RMK SC2SC4SC2=

CYVR;2005-05-04 18:55;SPECI CYVR 041855Z 14008KT 10SM -SHRA FEW018 OVC039 RMK SC2SC6=

CYVR;2005-05-04 19:54;SPECI CYVR 041954Z 11006KT 2 1/2SM -SHRA BR FEW014 OVC030 RMK SC2SC6=

CYVR;2005-05-04 20:19;SPECI CYVR 042019Z 07006KT 8SM -DZ FEW008 OVC029 RMK SF2SC6=

CYVR;2005-05-04 20:45;SPECI CYVR 042045Z 07006KT 8SM FEW008 OVC029 RMK SF2SC6=

CYVR;2005-05-04 21:32;SPECI CYVR 042132Z 09006KT 12SM FEW008 OVC029 RMK SF2SC6=

CYVR;2005-05-05 01:00;METAR CYVR 050100Z 27010KT 15SM BKN029 OVC040 14/12 A2997 RMK SC6SC2 SLP149=

CYVR;2005-05-05 03:00;METAR CYVR 050300Z 30007KT 15SM FEW030 SCT065 BKN077 14/12 A2996 RMK SC1SC2AC2 SLP144=

CYVR;2005-05-05 04:00;METAR CYVR 050400Z 29005KT 15SM BKN070 13/12 A2997 RMK AC7 SLP148=

CYVR;2005-05-05 07:00;METAR CYVR 050700Z 30007KT 15SM SCT065 BKN095 13/12 A2998 RMK SC2AC1 SLP153=

CYVR;2005-05-05 10:00;METAR CYVR 051000Z 35004KT 15SM FEW065 11/10 A2996 RMK SC1 SLP146=

CYVR;2005-05-05 11:00;METAR CYVR 051100Z 31004KT 15SM FEW065 11/10 A2996 RMK SC1 SLP145=

CYVR;2005-05-05 12:00;METAR CYVR 051200Z 35002KT 15SM FEW065 SCT220 10/09 A2996 RMK SC1CI1 SLP144=

CYVR;2005-05-05 13:00;METAR CYVR 051300Z 30008KT 15SM FEW065 BKN230 11/10 A2995 RMK SC1CS4 SLP141=

CYVR;2005-05-05 13:54;SPECI CYVR 051354Z 33007KT 15SM SCT008 OVC210 RMK SC3CI2 VIS W 8=

CYVR;2005-05-05 14:00;METAR CYVR 051400Z 31007KT 15SM BKN008 OVC210 12/11 A2995 RMK SC6CI2 VIS W 8 SLP142=

CYVR;2005-05-05 14:27;SPECI CYVR 051427Z 30010KT 15SM SCT006 OVC210 RMK SC3CI2=

CYVR;2005-05-05 15:00;METAR CYVR 051500Z 30011KT 15SM FEW008 OVC210 13/11 A2994 RMK SC1CI3 SLP140=

CYVR;2005-05-05 16:00;METAR CYVR 051600Z 30012KT 15SM FEW035 OVC220 14/11 A2993 RMK SC1CI2 SLP136=

CYVR;2005-05-05 17:00;METAR CYVR 051700Z 30014KT 15SM FEW040 OVC240 14/12 A2992 RMK SC1CS2 SLP132=

CYVR;2005-05-05 17:42;SPECI CYVR 051742Z 30014KT 15SM FEW008 FEW040 BKN240 RMK CF1SC1CS2=

CYVR;2005-05-05 18:00;METAR CYVR 051800Z 29014KT 15SM SCT008 SCT040 OVC240 15/12 A2991 RMK SC3SC1CS1 SLP129=

CYVR;2005-05-05 19:00;METAR CYVR 051900Z 29017KT 15SM FEW009 FEW040TCU BKN240 16/13 A2988 RMK SC1TCU1CS2 SLP117=

CYVR;2005-05-05 20:00;METAR CYVR 052000Z 30015KT 15SM FEW040TCU FEW220 16/13 A2987 RMK TCU1CI0 SLP116=

CYVR;2005-05-05 21:00;METAR CYVR 052100Z 29014KT 15SM FEW040TCU 17/13 A2985 RMK TCU1 SLP110=

CYVR;2005-05-05 22:00;METAR CYVR 052200Z 30015KT 15SM FEW040TCU FEW220 18/13 A2983 RMK TCU1CS1 SLP102=

CYVR;2005-05-06 00:00;METAR CYVR 060000Z 30011KT 15SM FEW040TCU 18/12 A2979 RMK TCU1 SLP087=

CYVR;2005-05-06 03:00;METAR CYVR 060300Z 29009KT 20SM FEW040 FEW220 15/11 A2974 RMK CU1CI1 TR CU SLP070=

CYVR;2005-05-06 05:00;METAR CYVR 060500Z 30007KT 20SM FEW220 14/10 A2975 RMK CI1 SLP073=

CYVR;2005-05-06 07:00;METAR CYVR 060700Z 00000KT 20SM FEW220 14/09 A2975 RMK CI1 SLP074=

CYVR;2005-05-06 10:00;METAR CYVR 061000Z 10007KT 15SM SKC 10/09 A2974 RMK SLP070=

CYVR;2005-05-06 11:00;METAR CYVR 061100Z 07004KT 15SM SKC 10/09 A2974 RMK SLP070=

CYVR;2005-05-06 12:00;METAR CYVR 061200Z 34005KT 15SM FEW220 10/09 A2974 RMK CI1 SLP070=

CYVR;2005-05-06 13:00;METAR CYVR 061300Z 00000KT 15SM SCT075 10/08 A2975 RMK AC2 SLP074=

CYVR;2005-05-06 14:00;METAR CYVR 061400Z 00000KT 15SM BKN064 BKN160 11/09 A2975 RMK SC6AC1 SLP075=

CYVR;2005-05-06 15:00;METAR CYVR 061500Z 10002KT 15SM SCT060 BKN091 13/10 A2976 RMK SC3AC3 SLP077=

CYVR;2005-05-06 16:00;METAR CYVR 061600Z 11003KT 15SM BKN058 OVC090 13/10 A2976 RMK SC5AC2 SLP078=

CYVR;2005-05-06 18:00;METAR CYVR 061800Z 09006KT 10SM BKN015 BKN080 15/11 A2976 RMK SC5AC2 SLP079=

CYVR;2005-05-06 18:44;SPECI CYVR 061844Z 09005KT 12SM SCT015 BKN086 RMK SC4AC1=

CYVR;2005-05-06 19:00;METAR CYVR 061900Z 24008KT 12SM SCT019 BKN085 17/11 A2977 RMK SC4AC2 SLP081=

CYVR;2005-05-06 21:00;METAR CYVR 062100Z 14005KT 15SM FEW030 SCT085 18/09 A2977 RMK SC2AC1 SLP081=

CYVR;2005-05-06 22:00;METAR CYVR 062200Z 12012KT 15SM FEW035TCU FEW080 19/10 A2978 RMK TCU2AC1 SLP083=

CYVR;2005-05-07 00:00;METAR CYVR 070000Z 14010G15KT 15SM FEW040TCU SCT080 18/09 A2978 RMK TCU1AC2 SLP084=

CYVR;2005-05-07 03:00;METAR CYVR 070300Z 09010KT 20SM FEW040 15/09 A2979 RMK SC1 SLP088=

CYVR;2005-05-07 04:00;METAR CYVR 070400Z 09009KT 20SM FEW040 13/08 A2981 RMK CF1 TR CF SLP095=

CYVR;2005-05-07 05:00;METAR CYVR 070500Z 09009KT 15SM FEW040 12/06 A2983 RMK SC1 TR SC SLP102=

CYVR;2005-05-07 07:00;METAR CYVR 070700Z 10011KT 15SM SKC 11/05 A2986 RMK SLP113=

CYVR;2005-05-07 10:00;METAR CYVR 071000Z 10010KT 15SM BKN055 10/05 A2991 RMK SC6 SLP127=

CYVR;2005-05-07 11:00;METAR CYVR 071100Z 11008KT 15SM FEW040 BKN065 10/06 A2992 RMK SC2SC2 SLP133=

CYVR;2005-05-07 12:00;METAR CYVR 071200Z 10009KT 15SM BKN045 OVC065 10/06 A2993 RMK SC6SC2 SLP136=

CYVR;2005-05-07 13:00;METAR CYVR 071300Z 10009KT 15SM FEW037 BKN045 11/06 A2995 RMK SC2SC3 SLP141=

CYVR;2005-05-07 14:00;METAR CYVR 071400Z 10009KT 15SM BKN035 OVC060 11/07 A2996 RMK SC7SC1 SLP146=

CYVR;2005-05-07 16:00;METAR CYVR 071600Z 09006KT 15SM FEW020 OVC036 12/07 A2997 RMK CU1SC7 SLP150=

CYVR;2005-05-07 17:00;METAR CYVR 071700Z 13007KT 15SM FEW024 BKN035 OVC053 13/07 A2998 RMK CU1SC6SC1 SLP152=

CYVR;2005-05-07 19:00;METAR CYVR 071900Z 12004KT 15SM BKN032 OVC058 14/07 A2998 RMK SC6SC2 SLP152=

CYVR;2005-05-07 21:00;METAR CYVR 072100Z 14011KT 15SM FEW036 SCT110 OVC230 15/07 A2997 RMK SC2AC1CS2 SLP149=

CYVR;2005-05-08 00:00;METAR CYVR 080000Z 17006KT 15SM FEW040 SCT160 OVC220 15/07 A2994 RMK SC1AC2CS5 SLP138=

CYVR;2005-05-08 03:00;METAR CYVR 080300Z 13006KT 15SM FEW040 SCT180 OVC230 14/07 A2991 RMK CU1AC1CI2 TR CU SLP127=

CYVR;2005-05-08 04:00;METAR CYVR 080400Z 12005KT 15SM SCT190 OVC230 13/06 A2991 RMK AC2CI2 SLP128=

CYVR;2005-05-08 05:00;METAR CYVR 080500Z 12003KT 15SM SCT190 OVC230 12/06 A2991 RMK AC2CI1 SLP129=

CYVR;2005-05-08 07:00;METAR CYVR 080700Z 00000KT 15SM SCT160 BKN180 12/07 A2990 RMK AC2AC2 SLP124=

CYVR;2005-05-08 08:00;METAR CYVR 080800Z 00000KT 15SM SCT180 OVC230 12/07 A2989 RMK AC2CI2 SLP123=

CYVR;2005-05-08 10:00;METAR CYVR 081000Z 02002KT 15SM BKN190 OVC230 10/06 A2986 RMK AC5CI1 SLP113=

CYVR;2005-05-08 11:00;METAR CYVR 081100Z 00000KT 15SM SCT070 BKN180 OVC230 10/06 A2985 RMK AC3AC2CI1 SLP110=

CYVR;2005-05-08 12:00;METAR CYVR 081200Z 05003KT 15SM SCT180 OVC230 10/07 A2984 RMK AC3CS5 SLP106=

CYVR;2005-05-08 15:00;METAR CYVR 081500Z 00000KT 15SM FEW080 FEW180 OVC230 12/08 A2985 RMK AC1AS2CS2 SLP108=

CYVR;2005-05-08 16:00;METAR CYVR 081600Z 22002KT 15SM FEW080 OVC220 13/10 A2985 RMK AC2CS2 SLP108=

CYVR;2005-05-08 18:00;METAR CYVR 081800Z 24005KT 15SM BKN100 OVC230 14/09 A2985 RMK AC5CS3 SLP107=

CYVR;2005-05-08 18:37;SPECI CYVR 081837Z 25006KT 15SM -SHRA FEW050 BKN084 OVC230 RMK SC1AC6CS2=

CYVR;2005-05-08 19:00;METAR CYVR 081900Z 26007KT 15SM -SHRA FEW040 BKN086 OVC210 13/10 A2985 RMK SC2AC6CS1 SLP108=

CYVR;2005-05-08 20:00;METAR CYVR 082000Z 30004KT 8SM -SHRA SCT055 BKN078 OVC150 14/10 A2985 RMK SC3AC3AS2 PCPN VRY LGT SLP108=

CYVR;2005-05-08 21:00;METAR CYVR 082100Z 30005KT 12SM -SHRA FEW015 SCT050 OVC073 14/10 A2985 RMK SC1SC2AC5 SLP107=

CYVR;2005-05-08 21:51;SPECI CYVR 082151Z 35003KT 12SM FEW015 SCT050 OVC072 RMK SC1SC2AC5=

CYVR;2005-05-08 22:00;METAR CYVR 082200Z 02004KT 15SM FEW015 SCT050 OVC072 15/11 A2983 RMK SC1SC2AC5 SLP103=

CYVR;2005-05-09 00:00;METAR CYVR 090000Z 28010KT 15SM OVC073 15/11 A2980 RMK AC8 SLP093=

CYVR;2005-05-09 04:00;METAR CYVR 090400Z 29011KT 15SM SCT079 BKN150 13/11 A2978 RMK AC3AC3 SLP084=

CYVR;2005-05-09 04:45;SPECI CYVR 090445Z 28008KT 15SM -SHRA BKN070 BKN140 RMK AC6AC1=

CYVR;2005-05-09 05:00;METAR CYVR 090500Z 29006KT 15SM -SHRA FEW050 BKN070 OVC140 13/11 A2980 RMK SC2AC3AC2 SLP091=

CYVR;2005-05-09 06:00;METAR CYVR 090600Z 28010G15KT 10SM -RA FEW020 BKN068 OVC100 13/12 A2978 RMK SF1AC6AC2 SLP085=

CYVR;2005-05-09 09:00;METAR CYVR 090900Z 30011G16KT 8SM -RA FEW006 BKN070 OVC110 13/12 A2974 RMK SF1AC6AC2 SLP071=

CYVR;2005-05-09 10:00;METAR CYVR 091000Z 31010KT 6SM -RA SCT007 BKN070 OVC110 13/12 A2973 RMK SF3AC3AC2 SLP069=

CYVR;2005-05-09 10:04;SPECI CYVR 091004Z 31010KT 6SM -RA BKN007 OVC070 RMK SF5AC3=

CYVR;2005-05-09 11:40;SPECI CYVR 091140Z 31012KT 6SM -RA FEW007 SCT012 BKN060 OVC090 RMK SF2SF2SC3AC2=

CYVR;2005-05-09 12:00;METAR CYVR 091200Z 30010KT 8SM -RA FEW006 FEW012 BKN070 OVC090 12/12 A2969 RMK SF2SF1AC3AC2 SLP054=

CYVR;2005-05-09 12:44;SPECI CYVR 091244Z 30011KT 10SM FEW006 FEW015 BKN071 OVC090 RMK SF2SF1AC4AC2=

CYVR;2005-05-09 13:00;METAR CYVR 091300Z 29012KT 12SM -SHRA FEW006 FEW015 BKN070 OVC084 12/11 A2968 RMK SF2SF1AC4AC2 SLP052=

CYVR;2005-05-09 13:43;SPECI CYVR 091343Z 30019KT 12SM FEW006 FEW015 BKN077 OVC120 RMK SF2SF1AC3AC2=

CYVR;2005-05-09 15:00;METAR CYVR 091500Z 31014KT 12SM FEW008 FEW015 BKN081 OVC110 13/12 A2967 RMK SF2SC1AC3AC2 SLP047=

CYVR;2005-05-09 16:00;METAR CYVR 091600Z 30016KT 12SM FEW008 BKN079 OVC120 13/12 A2967 RMK SF2AC3AC2 SLP048=

CYVR;2005-05-09 17:00;METAR CYVR 091700Z 30016KT 15SM FEW008 SCT015 BKN071 BKN120 15/13 A2966 RMK CF2SC1AC2AC2 SLP045=

CYVR;2005-05-09 18:00;METAR CYVR 091800Z 30023G28KT 15SM FEW011 BKN074 OVC120 14/12 A2963 RMK CF2AC4AC2 SLP035=

CYVR;2005-05-09 18:35;SPECI CYVR 091835Z 30017KT 15SM FEW008 BKN077 OVC120 RMK SC2AC2AC2=

CYVR;2005-05-09 21:00;METAR CYVR 092100Z 30020KT 15SM FEW045 BKN120 OVC200 15/12 A2962 RMK SC2AC3CI2 SLP032=

CYVR;2005-05-09 22:00;METAR CYVR 092200Z 30018KT 15SM FEW045 BKN100 OVC200 15/12 A2962 RMK SC2AC4CI2 SLP032=

CYVR;2005-05-09 23:00;METAR CYVR 092300Z 30014G19KT 15SM SCT055 OVC100 15/12 A2962 RMK SC3AC5 SLP029=

CYVR;2005-05-10 00:00;METAR CYVR 100000Z 31012KT 15SM SCT055 OVC089 15/12 A2961 RMK SC3AC5 SLP028=

CYVR;2005-05-10 01:25;SPECI CYVR 100125Z 32010KT 15SM -SHRA SCT050 OVC084 RMK SC3AC5=

CYVR;2005-05-10 02:00;METAR CYVR 100200Z 31009G16KT 20SM -SHRA SCT050 BKN084 BKN100 16/12 A2961 RMK SC3AC2AC2 SLP027=

CYVR;2005-05-10 02:28;SPECI CYVR 100228Z 31008KT 20SM FEW050 BKN080 BKN100 RMK SC2AC2AC1=

CYVR;2005-05-10 04:00;METAR CYVR 100400Z 19006KT 20SM FEW050 BKN080 BKN100 16/12 A2964 RMK SC2AC3AC2 SLP038=

CYVR;2005-05-10 05:00;METAR CYVR 100500Z 16003KT 20SM FEW040 BKN081 BKN100 15/11 A2967 RMK SC1AC4AC2 SLP047=

CYVR;2005-05-10 07:00;METAR CYVR 100700Z 08011KT 20SM FEW040 BKN085 BKN110 13/11 A2971 RMK SC1AC4AC2 SLP060=

CYVR;2005-05-10 09:00;METAR CYVR 100900Z 10006KT 15SM FEW040 BKN090 BKN110 13/11 A2974 RMK SC1AC4AC2 SLP070=

CYVR;2005-05-10 10:00;METAR CYVR 101000Z 12007KT 12SM FEW012 BKN090 BKN120 14/11 A2975 RMK SF2AC4AC1 SLP075=

CYVR;2005-05-10 10:11;SPECI CYVR 101011Z 12008KT 12SM BKN011 BKN090 BKN120 RMK SF5AC2AC1=

CYVR;2005-05-10 11:00;METAR CYVR 101100Z 12009KT 10SM BKN010 BKN090 OVC130 14/12 A2978 RMK SF6AC2AC1 SLP085=

CYVR;2005-05-10 11:33;SPECI CYVR 101133Z 12010KT 12SM SCT010 BKN090 BKN140 RMK SF3AC2AC1=

CYVR;2005-05-10 12:00;METAR CYVR 101200Z 10009KT 12SM FEW010 BKN100 BKN140 13/12 A2981 RMK SF2AC2AC2 SLP094=

CYVR;2005-05-10 13:00;METAR CYVR 101300Z 11008KT 10SM SCT009 BKN020 OVC100 13/12 A2983 RMK SF4SC2AC2 SLP102=

CYVR;2005-05-10 13:07;SPECI CYVR 101307Z 11008KT 8SM FEW007 BKN009 OVC100 RMK SF2SF5AC2=

CYVR;2005-05-10 15:33;SPECI CYVR 101533Z 12011KT 10SM SCT009 BKN015 OVC040 RMK SC3SC4SC1=

CYVR;2005-05-10 16:00;METAR CYVR 101600Z 14010KT 10SM SCT009 OVC015 14/11 A2991 RMK SC3SC5 SLP130=

CYVR;2005-05-10 16:48;SPECI CYVR 101648Z 12010KT 10SM BKN009 OVC015 RMK SC6SC2=

CYVR;2005-05-10 17:00;METAR CYVR 101700Z 13009KT 10SM BKN009 OVC015 14/11 A2994 RMK SC6SC2 SLP138=

CYVR;2005-05-10 17:40;SPECI CYVR 101740Z 11009KT 10SM BKN011 OVC019 RMK SC6SC2=

CYVR;2005-05-10 21:00;METAR CYVR 102100Z 15006KT 15SM FEW020 FEW040 BKN110 18/11 A3001 RMK SC1SC2AC4 SLP162=

CYVR;2005-05-10 22:00;METAR CYVR 102200Z 21005KT 15SM FEW040 BKN110 19/12 A3002 RMK SC2AC3 SLP165=

CYVR;2005-05-11 00:00;METAR CYVR 110000Z 14006KT 15SM FEW040 FEW100 20/11 A3004 RMK SC1AC2 SLP172=

CYVR;2005-05-11 03:00;METAR CYVR 110300Z 14010KT 20SM FEW040 BKN100 18/10 A3008 RMK SC2AC2 SLP186=

CYVR;2005-05-11 06:00;METAR CYVR 110600Z 10008KT 20SM FEW040 SCT100 BKN220 15/11 A3012 RMK SC2AC2CI1 SLP201=

CYVR;2005-05-11 07:00;METAR CYVR 110700Z 11008KT 20SM FEW040 SCT100 BKN220 14/11 A3013 RMK SC1AC2CI1 SLP204=

CYVR;2005-05-11 09:00;METAR CYVR 110900Z 12009KT 15SM FEW025 SCT050 BKN070 BKN100 13/10 A3016 RMK SC2SC2AC2AC1 SLP212=

CYVR;2005-05-11 10:00;METAR CYVR 111000Z 11008KT 15SM FEW040 BKN080 BKN100 13/10 A3017 RMK SC2AC3AC1 SLP216=

CYVR;2005-05-11 11:00;METAR CYVR 111100Z 10009KT 15SM FEW040 SCT080 BKN100 13/10 A3017 RMK SC2AC2AC2 SLP217=

CYVR;2005-05-11 12:00;METAR CYVR 111200Z 10009KT 15SM FEW020 BKN040 BKN090 13/10 A3018 RMK SF1SC5AC1 SLP220=

CYVR;2005-05-11 13:00;METAR CYVR 111300Z 12008KT 15SM FEW020 BKN040 BKN090 13/10 A3018 RMK SF1SC6AC1 SLP221=

CYVR;2005-05-11 14:00;METAR CYVR 111400Z 10007KT 15SM SCT035 12/09 A3019 RMK SC3 SLP223=

CYVR;2005-05-11 16:00;METAR CYVR 111600Z 14009KT 15SM OVC033 14/09 A3020 RMK SC7 SLP228=

CYVR;2005-05-11 17:00;METAR CYVR 111700Z 14005KT 15SM FEW030 BKN033 16/10 A3020 RMK CF2SC4 SLP227=

CYVR;2005-05-11 18:00;METAR CYVR 111800Z 16004KT 15SM FEW030 BKN033 16/09 A3019 RMK CU2SC5 SLP225=

CYVR;2005-05-11 21:00;METAR CYVR 112100Z 16005KT 15SM FEW030 FEW035 FEW220 18/10 A3016 RMK CF1SC1CI1 TR CF SLP214=

CYVR;2005-05-11 22:00;METAR CYVR 112200Z 18007KT 20SM FEW030 FEW035 18/10 A3015 RMK CF1SC1 TR CF SLP209=

CYVR;2005-05-12 02:00;METAR CYVR 120200Z 20007KT 20SM FEW035 BKN220 17/09 A3010 RMK SC1CI1 SLP192=

CYVR;2005-05-12 03:00;METAR CYVR 120300Z 16007KT 20SM FEW040 BKN220 16/09 A3010 RMK SC1CI1 SLP192=

CYVR;2005-05-12 04:00;METAR CYVR 120400Z 13005KT 20SM FEW080 BKN220 15/09 A3010 RMK AC1CI1 SLP194=

CYVR;2005-05-12 05:00;METAR CYVR 120500Z 10010KT 20SM FEW080 SCT220 12/09 A3011 RMK AC1CI1 SLP195=

CYVR;2005-05-12 06:00;METAR CYVR 120600Z 10009KT 20SM SCT220 12/09 A3010 RMK CI1 SLP194=

CYVR;2005-05-12 08:00;METAR CYVR 120800Z 10008KT 20SM SCT220 11/08 A3010 RMK CI1 SLP193=

CYVR;2005-05-12 09:00;METAR CYVR 120900Z 09007KT 20SM SCT220 10/08 A3009 RMK CI1 SLP190=

CYVR;2005-05-12 10:00;METAR CYVR 121000Z 10005KT 20SM FEW220 10/08 A3009 RMK CI1 SLP189=

CYVR;2005-05-12 11:00;METAR CYVR 121100Z 10007KT 20SM FEW220 10/08 A3009 RMK CI1 SLP188=

CYVR;2005-05-12 12:00;METAR CYVR 121200Z 11005KT 20SM FEW040 SCT220 10/08 A3008 RMK SC2CI1 VIS LWR NE SLP187=

CYVR;2005-05-12 13:00;METAR CYVR 121300Z 09005KT 20SM BKN040 BKN220 11/09 A3009 RMK SC5CI1 SLP190=

CYVR;2005-05-12 14:00;METAR CYVR 121400Z 10006KT 20SM BKN046 BKN120 12/09 A3009 RMK SC6AC1 SLP191=

CYVR;2005-05-12 15:00;METAR CYVR 121500Z 13006KT 20SM BKN047 BKN120 13/09 A3010 RMK SC6AC1 SLP192=

CYVR;2005-05-12 16:00;METAR CYVR 121600Z 12004KT 15SM BKN049 OVC120 14/10 A3010 RMK SC6AC1 SLP193=

CYVR;2005-05-12 17:00;METAR CYVR 121700Z 12005KT 15SM OVC049 14/10 A3010 RMK SC8 SLP193=

CYVR;2005-05-12 18:00;METAR CYVR 121800Z 16006KT 15SM OVC049 14/10 A3010 RMK SC8 SLP193=

CYVR;2005-05-12 19:00;METAR CYVR 121900Z 13004KT 15SM OVC050 15/10 A3009 RMK SC8 SLP190=

CYVR;2005-05-12 20:00;METAR CYVR 122000Z 14004KT 15SM FEW035 OVC050 16/10 A3008 RMK CU1SC7 SLP187=

CYVR;2005-05-12 21:00;METAR CYVR 122100Z 21007KT 15SM FEW035 OVC050 17/10 A3008 RMK CU1SC6 SLP186=

CYVR;2005-05-12 22:00;METAR CYVR 122200Z 22007KT 15SM FEW035 OVC050 18/10 A3007 RMK CU1SC4 SLP184=

CYVR;2005-05-13 00:00;METAR CYVR 130000Z 20006KT 15SM FEW035 SCT050 OVC190 17/09 A3007 RMK CF1SC2AS4 SLP182=

CYVR;2005-05-13 03:00;METAR CYVR 130300Z 14007KT 15SM FEW080 FEW120 SCT170 OVC220 16/09 A3006 RMK AC2AC1AS1CI1 SLP178=

CYVR;2005-05-13 04:00;METAR CYVR 130400Z 12003KT 15SM BKN050 OVC220 15/09 A3007 RMK SC2CI1 SLP184=

CYVR;2005-05-13 08:00;METAR CYVR 130800Z 10008KT 15SM FEW055 SCT240 12/09 A3009 RMK SC2CI1 SLP189=

CYVR;2005-05-13 09:00;METAR CYVR 130900Z 10007KT 15SM FEW055 BKN240 12/09 A3009 RMK SC2CI2 SLP189=

CYVR;2005-05-13 10:00;METAR CYVR 131000Z 10008KT 15SM BKN050 11/08 A3008 RMK SC4 SLP187=

CYVR;2005-05-13 12:00;METAR CYVR 131200Z 10006KT 15SM BKN050 12/09 A3008 RMK SC5 SLP186=

CYVR;2005-05-13 13:00;METAR CYVR 131300Z 10007KT 15SM BKN055 BKN140 12/09 A3008 RMK SC5AC1 SLP186=

CYVR;2005-05-13 14:00;METAR CYVR 131400Z 11004KT 15SM FEW050 BKN160 BKN220 13/10 A3009 RMK SC1AC2CI1 SLP188=

CYVR;2005-05-13 15:00;METAR CYVR 131500Z 06005KT 15SM FEW040 SCT140 BKN160 15/10 A3008 RMK CF1AC2AC3 SLP186=

CYVR;2005-05-13 16:00;METAR CYVR 131600Z 10006KT 15SM FEW040 SCT100 BKN130 17/10 A3007 RMK CU1AC2AC3 TR CU SLP184=

CYVR;2005-05-13 17:00;METAR CYVR 131700Z 23007KT 15SM FEW040 SCT110 BKN130 16/12 A3007 RMK CU1AC2AC2 TR CU SLP182=

CYVR;2005-05-13 18:00;METAR CYVR 131800Z 27007KT 15SM FEW040 OVC110 15/12 A3006 RMK CU1AC6 SLP181=

CYVR;2005-05-13 20:44;SPECI CYVR 132044Z 27006KT 15SM -SHRA BKN087 OVC100 RMK AS5AS3 PCPN VRY LGT=

CYVR;2005-05-13 21:00;METAR CYVR 132100Z 25005KT 15SM -SHRA BKN087 OVC100 16/13 A3003 RMK AS6AC2 PCPN VRY LGT SLP170=

CYVR;2005-05-13 22:00;METAR CYVR 132200Z 29003KT 15SM -RA BKN090 OVC100 16/12 A3002 RMK AS6AS2 PCPN VRY LGT SLP166=

CYVR;2005-05-13 22:41;SPECI CYVR 132241Z 32002KT 15SM FEW040 SCT080 BKN100 OVC120 RMK CU1AC3AS2AS2 TR CU=

CYVR;2005-05-13 23:56;SPECI CYVR 132356Z 30005KT 15SM -RA SCT085 BKN110 OVC130 RMK AC3AS2AS2=

CYVR;2005-05-14 00:00;METAR CYVR 140000Z 32005KT 15SM -RA SCT085 BKN110 OVC130 18/13 A2997 RMK AS3AS3AS2 SLP150=

CYVR;2005-05-14 00:27;SPECI CYVR 140027Z 34004KT 15SM SCT085 BKN110 OVC130 RMK AS3AS2AS2=

CYVR;2005-05-14 01:30;SPECI CYVR 140130Z 23007KT 15SM -RA BKN094 OVC120 RMK AC5AS2 PCPN VRY LGT=

CYVR;2005-05-14 01:45;SPECI CYVR 140145Z 22007KT 15SM BKN097 OVC120 RMK AC6AS2=

CYVR;2005-05-14 03:00;METAR CYVR 140300Z 02003KT 15SM OVC100 17/11 A2993 RMK AC8 SLP137=

CYVR;2005-05-14 04:00;METAR CYVR 140400Z 19003KT 15SM BKN100 OVC140 17/11 A2994 RMK AC7AS1 SLP139=

CYVR;2005-05-14 06:00;METAR CYVR 140600Z 09004KT 15SM BKN100 OVC150 17/12 A2993 RMK AC6AS2 SLP137=

CYVR;2005-05-14 12:00;METAR CYVR 141200Z 10007KT 3SM -RA BR SCT031 OVC044 14/13 A2997 RMK SC3SC5 SLP150=

CYVR;2005-05-14 12:52;SPECI CYVR 141252Z 09009KT 2 1/2SM -RA BR FEW029 SCT045 OVC055 RMK SC2SC2SC4=

CYVR;2005-05-14 12:55;SPECI CYVR 141255Z 10009KT 2 1/2SM BR FEW029 SCT045 OVC052 RMK SC2SC2SC4=

CYVR;2005-05-14 13:31;SPECI CYVR 141331Z 09008KT 3SM BR FEW030 OVC059 RMK SC2SC6=

CYVR;2005-05-14 13:33;SPECI CYVR 141333Z 10007KT 5SM BR FEW030 OVC059 RMK SC2SC6=

CYVR;2005-05-14 13:38;SPECI CYVR 141338Z 09005KT 5SM -SHRA BR FEW012 SCT037 OVC059 RMK SF2SC2SC4=

CYVR;2005-05-14 14:16;SPECI CYVR 141416Z 09007KT 7SM BKN013 OVC047 RMK SC5SC3=

CYVR;2005-05-14 14:35;SPECI CYVR 141435Z 10007KT 6SM BR BKN011 OVC045 RMK SC5SC3=

CYVR;2005-05-14 14:47;SPECI CYVR 141447Z 10007KT 6SM BR BKN015 OVC045 RMK SC6SC2=

CYVR;2005-05-14 15:00;METAR CYVR 141500Z 10006KT 6SM BR FEW015 BKN018 OVC045 15/14 A3000 RMK SC2SC3SC2 SLP158=

CYVR;2005-05-14 15:15;SPECI CYVR 141515Z 11006KT 7SM FEW015 BKN019 OVC048 RMK SF2SC4SC2=

CYVR;2005-05-14 16:00;METAR CYVR 141600Z 13006KT 10SM SCT015 BKN048 OVC070 16/14 A3001 RMK CF3SC4AC1 SLP161=

CYVR;2005-05-14 16:07;SPECI CYVR 141607Z 12008KT 10SM BKN012 BKN016 OVC045 RMK SC5SC2SC2=

CYVR;2005-05-14 17:00;METAR CYVR 141700Z 09007KT 12SM SCT012 BKN016 OVC025 16/14 A3001 RMK SC3SC3SC2 SLP164=

CYVR;2005-05-14 18:00;METAR CYVR 141800Z 11008KT 15SM FEW011 BKN017 BKN090 18/14 A3002 RMK CF2SC4AC1 SLP165=

CYVR;2005-05-14 21:00;METAR CYVR 142100Z 11012G17KT 15SM FEW030 BKN061 OVC085 19/13 A3000 RMK CF2SC5AC1 SLP160=

CYVR;2005-05-14 22:00;METAR CYVR 142200Z 11012KT 15SM FEW030 FEW035 BKN076 OVC090 20/13 A2999 RMK CF1SC1AC5AC2 SLP155=

CYVR;2005-05-15 00:00;METAR CYVR 150000Z 13007KT 15SM FEW035 BKN082 OVC100 20/13 A2995 RMK SC2AC5AC2 SLP142=

CYVR;2005-05-15 00:29;SPECI CYVR 150029Z 19004KT 15SM -SHRA FEW035 BKN047 OVC080 RMK SC2SC5AC2 PCPN VRY LGT=

CYVR;2005-05-15 01:14;SPECI CYVR 150114Z 30007KT 15SM BKN047 OVC120 RMK SC6AC2=

CYVR;2005-05-15 02:00;METAR CYVR 150200Z 32004KT 15SM SCT035 BKN049 OVC110 18/15 A2992 RMK SC3SC3AC2 SLP131=

CYVR;2005-05-15 05:26;SPECI CYVR 150526Z 08005KT 15SM -SHRA FEW040 BKN078 OVC100 RMK SC2AC4AS2=

CYVR;2005-05-15 05:46;SPECI CYVR 150546Z 08005KT 15SM FEW040 BKN090 OVC110 RMK SC2AC3AS2=

CYVR;2005-05-15 06:00;METAR CYVR 150600Z 09004KT 15SM FEW040 BKN088 OVC120 17/14 A2985 RMK SC2AC4AS2 SLP109=

CYVR;2005-05-15 10:00;METAR CYVR 151000Z 22010G18KT 10SM -SHRA SCT016 OVC029 15/13 A2979 RMK SC3SC5 SLP088=

CYVR;2005-05-15 11:42;SPECI CYVR 151142Z 07006KT 12SM -SHRA BKN038 OVC082 RMK SC5AC3=

CYVR;2005-05-15 12:00;METAR CYVR 151200Z 08005KT 12SM -RA SCT035 BKN044 OVC100 15/14 A2974 RMK SC3SC3AC2 SLP071=

CYVR;2005-05-15 13:00;METAR CYVR 151300Z 08008KT 8SM -RA FEW035 OVC090 15/14 A2973 RMK SC2AC6 PCPN VRY LGT SLP067=

CYVR;2005-05-15 13:37;SPECI CYVR 151337Z 08008KT 6SM -RA BR FEW008 BKN032 OVC090 RMK SF1SC5AC2=

CYVR;2005-05-15 15:18;SPECI CYVR 151518Z 11012KT 7SM SHRA BKN016 OVC032 RMK SC5SC3=

CYVR;2005-05-15 15:21;SPECI CYVR 151521Z 11012KT 6SM -SHRA BR BKN016 OVC032 RMK SC5SC3 VIS N QUAD 3 SM=

CYVR;2005-05-15 15:26;SPECI CYVR 151526Z 11012KT 8SM -SHRA BKN015 OVC032 RMK SC5SC3 VIS N QUAD 4 SM=

CYVR;2005-05-15 15:29;SPECI CYVR 151529Z 11008G16KT 5SM SHRA BR BKN015 OVC032 RMK SC5SC3=

CYVR;2005-05-15 15:30;SPECI CYVR 151530Z 12008G16KT 3SM SHRA BR BKN015 OVC032 RMK SC5SC3=

CYVR;2005-05-15 15:31;SPECI CYVR 151531Z 13007G15KT 2 1/2SM SHRA BR BKN015 OVC032 RMK SC5SC3=

CYVR;2005-05-15 15:36;SPECI CYVR 151536Z 12009KT 3SM SHRA BR SCT008 BKN014 OVC025 RMK SC3SC3SC2=

CYVR;2005-05-15 15:48;SPECI CYVR 151548Z 18014KT 3SM SHRA BR SCT005 BKN009 OVC025 RMK SC3SC3SC2=

CYVR;2005-05-15 15:54;SPECI CYVR 151554Z 19010G18KT 4SM SHRA BR FEW005 BKN012 OVC025 RMK SC2SC3SC2 VIS N QUAD LWR 3 SM=

CYVR;2005-05-15 16:00;METAR CYVR 151600Z 20011G17KT 4SM -SHRA BR SCT007 BKN015 OVC020 14/13 A2971 RERA RMK SF3SC3SC2 VIS N QUAD 3 SM SLP062=

CYVR;2005-05-15 16:02;SPECI CYVR 151602Z 19010KT 2 1/2SM -SHRA BR FEW007 BKN016 OVC028 RMK SF2SC4SC2=

CYVR;2005-05-15 16:27;SPECI CYVR 151627Z 13009KT 3SM -SHRA BR FEW016 BKN027 OVC035 RMK SC2SC4SC2 VIS HIER S - W QUAD 6 SM=

CYVR;2005-05-15 16:29;SPECI CYVR 151629Z 13008KT 6SM -SHRA BR FEW016 BKN027 OVC035 RMK SC2SC4SC2 VIS N - E QUAD LWR 3 SM=

CYVR;2005-05-15 16:38;SPECI CYVR 151638Z 14006KT 8SM -SHRA FEW016 BKN027 OVC062 RMK SC2SC3SC2 VIS N - E QUAD LWR 5 SM=

CYVR;2005-05-15 17:00;METAR CYVR 151700Z 11007KT 12SM SCT025 BKN060 OVC075 15/14 A2970 RMK SC3SC3AC2 VIS N QUAD 8 SM SLP058=

CYVR;2005-05-15 18:00;METAR CYVR 151800Z 13004KT 15SM SCT025 BKN078 OVC100 16/15 A2971 RMK SC2AC2AC2 SLP061=

CYVR;2005-05-15 19:26;SPECI CYVR 151926Z 18005KT 15SM -SHRA FEW020 BKN063 OVC085 RMK SC2SC4AC2 PCPN VRY LGT=

CYVR;2005-05-15 19:47;SPECI CYVR 151947Z 20005KT 15SM FEW020 BKN075 OVC085 RMK SC2AC4AC2=

CYVR;2005-05-15 22:00;METAR CYVR 152200Z 23004KT 15SM FEW025 BKN064 OVC085 17/11 A2973 RMK SF1SC5AC2 SLP069=

CYVR;2005-05-15 23:00;METAR CYVR 152300Z 22007KT 15SM FEW025 BKN031 OVC058 17/11 A2973 RMK SF1SC5SC2 SLP069=

CYVR;2005-05-15 23:38;SPECI CYVR 152338Z 18007KT 15SM -SHRA FEW025 BKN044 OVC055 RMK SF1SC5SC2 PCPN VRY LGT=

CYVR;2005-05-16 00:38;SPECI CYVR 160038Z 14010KT 15SM FEW025 SCT060 OVC071 RMK SF1SC2AC5=

CYVR;2005-05-16 00:48;SPECI CYVR 160048Z 16007KT 15SM -SHRA FEW025 SCT060 OVC071 RMK SF1SC2AC5=

CYVR;2005-05-16 01:35;SPECI CYVR 160135Z 12004KT 15SM FEW008 BKN067 OVC078 RMK SC1AC6AS2=

CYVR;2005-05-16 04:00;METAR CYVR 160400Z 11008KT 15SM FEW035 BKN067 BKN092 OVC200 13/12 A2969 RMK SC1AC6AC1CI0 SLP053=

CYVR;2005-05-16 05:00;METAR CYVR 160500Z 12006KT 15SM SCT067 BKN083 13/11 A2969 RMK AC4AC3 SLP053=

CYVR;2005-05-16 07:00;METAR CYVR 160700Z 13006KT 15SM SCT100 BKN160 13/09 A2969 RMK AC3AC2 SLP055=

CYVR;2005-05-16 10:00;METAR CYVR 161000Z 09009KT 15SM SCT074 SCT090 10/09 A2969 RMK AC3AC1 SLP054=

CYVR;2005-05-16 12:00;METAR CYVR 161200Z 09007KT 15SM SCT067 BKN150 09/08 A2969 RMK AC3AC2 SLP054=

CYVR;2005-05-16 13:00;METAR CYVR 161300Z 09008KT 15SM BKN073 OVC120 10/08 A2969 RMK AC7AC1 SLP054=

CYVR;2005-05-16 14:00;METAR CYVR 161400Z 09006KT 15SM FEW040 BKN067 BKN120 11/10 A2968 RMK SC2AC5AC1 SLP052=

CYVR;2005-05-16 15:00;METAR CYVR 161500Z 10008KT 15SM BKN040 BKN065 BKN120 12/10 A2968 RMK SC5SC2AC1 VIS LWR NE - E SLP052=

CYVR;2005-05-16 16:00;METAR CYVR 161600Z 10008KT 15SM FEW020 BKN041 BKN070 OVC120 12/10 A2969 RMK SF1SC5AC1AC1 SLP054=

CYVR;2005-05-16 16:08;SPECI CYVR 161608Z 10009KT 12SM -SHRA FEW009 FEW020 BKN041 BKN070 OVC120 RMK SF1SF1SC4AC1AC1=

CYVR;2005-05-16 16:42;SPECI CYVR 161642Z 10007KT 15SM FEW010 FEW020 BKN035 BKN070 RMK SF1SF1SC5AC1=

CYVR;2005-05-16 17:18;SPECI CYVR 161718Z 11007KT 10SM -SHRA FEW012 BKN036 BKN045 OVC070 RMK SF2SC3SC2AC1=

CYVR;2005-05-16 17:32;SPECI CYVR 161732Z 14004KT 5SM -SHRA FEW011 BKN035 OVC045 RMK SF2SC4SC2 TCU EMBD / VIS LWR W=

CYVR;2005-05-16 18:00;METAR CYVR 161800Z 20003KT 6SM -SHRA FEW011 BKN035 OVC045 12/10 A2969 RMK SF2SC4SC2 TCU EMBD SLP054=

CYVR;2005-05-16 18:24;SPECI CYVR 161824Z 23005KT 8SM FEW010 SCT035 BKN045 OVC070 RMK SF2SC2SC2AC2=

CYVR;2005-05-16 19:00;METAR CYVR 161900Z 26005KT 10SM FEW010 BKN036 BKN045 OVC070 12/10 A2968 RMK SF2SC3SC2AC1 VIS LWR NE SLP052=

CYVR;2005-05-16 19:56;SPECI CYVR 161956Z 31004KT 10SM -SHRA SCT014 BKN035 OVC045 RMK CU3SC3SC2=

CYVR;2005-05-16 20:00;METAR CYVR 162000Z 31004KT 10SM -SHRA SCT014 BKN035 OVC045 13/10 A2968 RMK CU3SC3SC2 SLP052=

CYVR;2005-05-16 21:00;METAR CYVR 162100Z 26003KT 8SM -SHRA SCT013 BKN035 OVC050 12/10 A2970 RMK CU4SC2SC1 SLP057=

CYVR;2005-05-16 22:00;METAR CYVR 162200Z 26004KT 8SM -SHRA SCT012TCU BKN035 BKN050 14/11 A2970 RMK TCU3SC2SC2 SLP057=

CYVR;2005-05-16 22:27;SPECI CYVR 162227Z 29008KT 12SM FEW012TCU SCT035 BKN050 BKN070 RMK TCU2SC2SC2AC1=

CYVR;2005-05-17 00:00;METAR CYVR 170000Z 25004KT 15SM FEW013TCU FEW040 SCT080 15/09 A2969 RMK TCU2SC1AC2 SLP055=

CYVR;2005-05-17 02:00;METAR CYVR 170200Z 22006KT 15SM FEW015TCU SCT035 BKN071 13/08 A2970 RMK TCU2SC2AC2 SLP056=

CYVR;2005-05-17 03:00;METAR CYVR 170300Z 22003KT 15SM FEW020TCU FEW035 SCT080 13/08 A2969 RMK TCU1SC2AC2 SLP054=

CYVR;2005-05-17 05:00;METAR CYVR 170500Z 14002KT 15SM SCT055 OVC071 13/09 A2971 RMK SC3AC4 SLP062=

CYVR;2005-05-17 07:00;METAR CYVR 170700Z 09004KT 15SM FEW040 FEW070 10/08 A2971 RMK SC1AC2 SLP060=

CYVR;2005-05-17 10:00;METAR CYVR 171000Z 08003KT 15SM BKN037 08/06 A2973 RMK SC5 SLP067=

CYVR;2005-05-17 11:00;METAR CYVR 171100Z 09006KT 15SM BKN042 08/06 A2974 RMK SC6 SLP071=

CYVR;2005-05-17 12:00;METAR CYVR 171200Z 10010KT 15SM FEW022 BKN044 BKN220 08/07 A2974 RMK SC2SC3CI0 SLP071=

CYVR;2005-05-17 15:00;METAR CYVR 171500Z 08011KT 20SM FEW017 FEW030 BKN060 BKN230 10/08 A2974 RMK CF1CU1SC3CI0 SLP072=

CYVR;2005-05-17 16:00;METAR CYVR 171600Z 11011KT 20SM FEW030 BKN061 BKN230 12/08 A2974 RMK CU2SC3CI1 SLP070=

CYVR;2005-05-17 17:00;METAR CYVR 171700Z 10011G16KT 20SM FEW020 SCT035 BKN060 13/08 A2972 RMK CF1CU2SC2 TCU ASOCTD SLP065=

CYVR;2005-05-17 18:00;METAR CYVR 171800Z 13011G17KT 20SM SCT035TCU BKN060 13/07 A2971 RMK TCU4SC2 SLP061=

CYVR;2005-05-17 19:00;METAR CYVR 171900Z 13015G20KT 20SM SCT035TCU BKN060 14/07 A2970 RMK TCU3SC2 SLP059=

CYVR;2005-05-17 21:00;METAR CYVR 172100Z 09008G16KT 20SM SCT040 BKN070 BKN230 15/07 A2967 RMK CU3AC2CI1 TCU ASOCTD SLP048=

CYVR;2005-05-17 22:00;METAR CYVR 172200Z 13014KT 20SM SCT040 BKN120 BKN230 17/07 A2965 RMK CU3AC2CI1 TCU ASOCTD SLP040=

CYVR;2005-05-18 00:00;METAR CYVR 180000Z 13008KT 20SM FEW040 BKN090 15/06 A2962 RMK SC2AS5 SLP030=

CYVR;2005-05-18 03:00;METAR CYVR 180300Z 06008KT 20SM FEW090 BKN120 BKN140 14/07 A2956 RMK AC1AC2AC1 SLP011=

CYVR;2005-05-18 04:00;METAR CYVR 180400Z 07009KT 20SM FEW090 BKN110 13/07 A2953 RMK AC1AC3 SLP000=

CYVR;2005-05-18 05:00;METAR CYVR 180500Z 10008KT 20SM BKN091 BKN210 12/08 A2951 RMK AC5CI1 SLP994=

CYVR;2005-05-18 06:00;METAR CYVR 180600Z 10008KT 20SM SCT065 BKN091 OVC120 11/07 A2950 RMK SC3AC2AC1 SLP989=

CYVR;2005-05-18 07:00;METAR CYVR 180700Z 09011KT 15SM -SHRA BKN065 BKN077 OVC110 12/07 A2949 RMK SC6AC1AC1 PCPN VRY LGT SLP985=

CYVR;2005-05-18 10:00;METAR CYVR 181000Z 06014KT 12SM -RA BKN047 OVC055 11/09 A2945 RERA RMK SC6SC2 SLP973=

CYVR;2005-05-18 11:00;METAR CYVR 181100Z 06015KT 12SM -RA SCT050 OVC063 11/09 A2943 RMK SC3SC5 SLP967=

CYVR;2005-05-18 12:00;METAR CYVR 181200Z 06017KT 15SM -RA BKN063 OVC100 11/09 A2941 RMK SC5AC3 VIS N QUAD LWR 12 SM SLP959=

CYVR;2005-05-18 13:00;METAR CYVR 181300Z 08015G21KT 15SM -SHRA FEW040 BKN065 OVC080 12/08 A2938 RMK CF1SC5AC2 SLP949=

CYVR;2005-05-18 14:00;METAR CYVR 181400Z 08010KT 12SM -RA FEW040 BKN062 OVC080 11/10 A2938 RMK SF1SC6AC1 SLP949=

CYVR;2005-05-18 15:00;METAR CYVR 181500Z 09013KT 15SM FEW040 BKN055 OVC080 11/09 A2939 RMK SF1SC6AC2 SLP954=

CYVR;2005-05-18 16:00;METAR CYVR 181600Z 08012KT 15SM -SHRA FEW040 BKN057 OVC080 11/09 A2939 RMK SF1SC6AC1 SLP951=

CYVR;2005-05-18 16:20;SPECI CYVR 181620Z 08012KT 15SM FEW030 BKN048 OVC070 RMK SF1SC6AC1=

CYVR;2005-05-18 17:00;METAR CYVR 181700Z 10008G16KT 15SM FEW035 BKN048 OVC070 13/10 A2939 RMK SC1SC6AC1 SLP951=

CYVR;2005-05-18 18:40;SPECI CYVR 181840Z 09015G20KT 15SM -SHRA FEW025 BKN038 OVC060 RMK SC1SC6SC1=

CYVR;2005-05-18 19:00;METAR CYVR 181900Z 09014KT 15SM -SHRA FEW025 BKN033 BKN045 OVC060 12/10 A2944 RMK SC1SC5SC2SC1 VIS LWR NW - N SLP970=

CYVR;2005-05-18 19:33;SPECI CYVR 181933Z 09014KT 15SM FEW025 BKN038 BKN060 BKN090 RMK SC1SC4SC1AC1=

CYVR;2005-05-18 22:00;METAR CYVR 182200Z 12011G16KT 15SM FEW030 SCT040 SCT080 17/11 A2949 RMK SC2SC2AC1 TCU EMBD SLP985=

CYVR;2005-05-19 00:00;METAR CYVR 190000Z 07010G15KT 15SM SCT040 BKN110 BKN200 17/10 A2947 RMK CU3AS3CI1 TCU ASOCTD SLP980=

CYVR;2005-05-19 00:12;SPECI CYVR 190012Z 09012KT 15SM SCT040 BKN100 RMK CU3AS4 CB ASOCTD / LTGIC DIST SW=

CYVR;2005-05-19 00:22;SPECI CYVR 190022Z 10015KT 15SM -SHRA SCT040 BKN060 BKN100 RMK CU3SC2AS2 CB EMBD / OCNL LTGIC DIST SW=

CYVR;2005-05-19 01:29;SPECI CYVR 190129Z 11013KT 15SM FEW040 SCT060 SCT090 RMK CU2SC1AC1 TCU ASOCTD=

CYVR;2005-05-19 03:35;SPECI CYVR 190335Z 13010KT 15SM FEW035 SCT070 BKN110 OVC220 RMK SC2AC2AC2CI0=

CYVR;2005-05-19 04:00;METAR CYVR 190400Z 13014KT 15SM SCT035 BKN044 OVC092 14/10 A2953 RMK SC3SC3AC2 SLP000=

CYVR;2005-05-19 06:22;SPECI CYVR 190622Z 14012G19KT 8SM -SHRA SCT023 BKN034 OVC055 RMK SC3SC4SC1=

CYVR;2005-05-19 07:00;METAR CYVR 190700Z 15009KT 12SM -SHRA SCT020 OVC041 12/10 A2961 RMK SC4SC4 PCPN VRY LGT SLP027=

CYVR;2005-05-19 07:27;SPECI CYVR 190727Z 15007KT 12SM FEW016 BKN031 OVC080 RMK SC2SC3AC2 CB EMBD LTGIC DIST NW=

CYVR;2005-05-19 08:00;METAR CYVR 190800Z 15012KT 12SM FEW016 SCT030 BKN063 OVC110 12/10 A2964 RMK SC2SC2SC2AC1 SLP036=

CYVR;2005-05-19 10:00;METAR CYVR 191000Z 14009KT 15SM FEW020 BKN068 OVC090 12/10 A2969 RMK SC2AC5AC2 SLP054=

CYVR;2005-05-19 11:00;METAR CYVR 191100Z 13009KT 12SM FEW025 BKN074 OVC100 12/10 A2970 RMK SC2AC5AC2 SLP058=

CYVR;2005-05-19 12:00;METAR CYVR 191200Z 16010G16KT 12SM -SHRA FEW025 BKN072 OVC100 12/10 A2972 RMK SC2AC5AC2 SLP065=

CYVR;2005-05-19 13:00;METAR CYVR 191300Z 13010KT 12SM FEW020 BKN059 BKN086 BKN220 12/09 A2973 RMK SC2SC3AC1CI1 SLP068=

CYVR;2005-05-19 14:00;METAR CYVR 191400Z 13010KT 15SM FEW020 SCT050 BKN080 12/09 A2975 RMK SC2SC2AC3 TCU EMBD SLP076=

CYVR;2005-05-19 14:53;SPECI CYVR 191453Z 13013KT 15SM -SHRA FEW020 SCT050 BKN070 RMK SC2SC2AC3 TCU EMBD=

CYVR;2005-05-19 15:00;METAR CYVR 191500Z 13012G17KT 15SM -SHRA FEW020 SCT050 BKN075 12/09 A2977 RMK SC2SC2AC3 TCU EMBD SLP082=

CYVR;2005-05-19 15:19;SPECI CYVR 191519Z 13016KT 15SM FEW020 SCT050 BKN080 RMK SC2SC2AC3 TCU EMBD=

CYVR;2005-05-19 16:00;METAR CYVR 191600Z 14011G17KT 15SM FEW025TCU SCT060 BKN080 13/09 A2978 RMK TCU2SC2AC3 SLP086=

CYVR;2005-05-19 16:50;SPECI CYVR 191650Z 16015KT 12SM -SHRA SCT025 BKN060 BKN075 RMK CU3SC2AC2=

CYVR;2005-05-19 17:00;METAR CYVR 191700Z 17013G19KT 10SM -SHRA SCT025 BKN050 OVC070 13/09 A2981 RMK CU3SC2AC2 TCU ASOCTD SLP096=

CYVR;2005-05-19 17:46;SPECI CYVR 191746Z 18009KT 12SM SCT025 BKN055 BKN080 RMK CU3SC2AC2 TCU ASOCTD=

CYVR;2005-05-19 18:00;METAR CYVR 191800Z 16009KT 15SM SCT025 BKN050 BKN080 14/10 A2983 RMK CU3SC2AC2 TCU ASOCTD SLP100=

CYVR;2005-05-19 19:00;METAR CYVR 191900Z 17019KT 15SM SCT028 SCT040TCU BKN060 OVC080 14/09 A2984 RMK CU3TCU1SC2AC2 SLP106=

CYVR;2005-05-19 19:12;SPECI CYVR 191912Z 18016KT 15SM -SHRA BKN030 BKN040TCU OVC080 RMK SC5TCU2AC2=

CYVR;2005-05-19 19:45;SPECI CYVR 191945Z 18012KT 10SM BKN030 BKN050TCU OVC080 RMK SC5TCU2AC2=

CYVR;2005-05-19 20:55;SPECI CYVR 192055Z 18015KT 15SM -SHRA SCT030TCU BKN050 BKN080 RMK TCU3SC2AC2=

CYVR;2005-05-19 21:00;METAR CYVR 192100Z 18014G20KT 15SM -SHRA SCT030TCU BKN050 BKN080 14/07 A2988 RMK TCU3SC2AC2 CB EMBD N SLP120=

CYVR;2005-05-19 21:25;SPECI CYVR 192125Z 16008KT 15SM FEW030TCU SCT045 BKN070 BKN230 RMK TCU2SC2AC2CI0 CB EMBD=

CYVR;2005-05-19 22:00;METAR CYVR 192200Z 17011G16KT 15SM FEW035TCU FEW045 BKN070 BKN110 15/06 A2990 RMK TCU2SC1AC2AC1 CB EMBD SLP125=

CYVR;2005-05-19 23:00;METAR CYVR 192300Z 16014KT 20SM FEW040TCU FEW060CB SCT110 17/07 A2991 RMK TCU2CB1AC2 SLP130=

CYVR;2005-05-19 23:39;SPECI CYVR 192339Z 19006KT 15SM -SHRA FEW040TCU BKN060CB BKN100 RMK TCU2CB2AC2=

CYVR;2005-05-20 00:00;METAR CYVR 200000Z 15008KT 15SM -SHRA FEW040TCU BKN058CB BKN100 15/08 A2993 RMK TCU2CB2AC2 VIS LWR SW - NW SLP134=

CYVR;2005-05-20 00:44;SPECI CYVR 200044Z 15003KT 15SM FEW040TCU SCT060CB BKN080 BKN110 RMK TCU2CB2AC2AC2=

CYVR;2005-05-20 01:00;METAR CYVR 200100Z 15003KT 15SM VCSH FEW040TCU SCT060CB BKN080 BKN120 15/10 A2992 RMK TCU2CB2AC2AC1 SLP132=

CYVR;2005-05-20 01:54;SPECI CYVR 200154Z 18010KT 15SM -SHRA FEW040CB BKN054 OVC080 RMK CB1SC5AC2=

CYVR;2005-05-20 02:35;SPECI CYVR 200235Z 15003KT 15SM FEW035TCU FEW040CB SCT050 OVC140 RMK TCU1CB1SC2AC3 VIRGA SHS DIST N - NE QUAD=

CYVR;2005-05-20 03:15;SPECI CYVR 200315Z 02004KT 15SM -SHRA FEW035TCU FEW040CB BKN055 OVC077 RMK TCU1CB1SC4AC2=

CYVR;2005-05-20 04:07;SPECI CYVR 200407Z 02004KT 15SM -TSRA FEW035TCU SCT040CB BKN055 OVC080 RMK TCU1CB2SC3AC2 LTGIC SW QUAD=

CYVR;2005-05-20 04:34;SPECI CYVR 200434Z 23002KT 15SM -TSRA FEW035TCU BKN047CB OVC063 RMK TCU2CB5SC2 FRQ LTGIC/LTGCC=

CYVR;2005-05-20 04:51;SPECI CYVR 200451Z 21004G15KT 10SM TSRA FEW016TCU BKN035CB OVC063 RMK TCU2CB5SC2 FRQ LTGIC/LTGCC=

CYVR;2005-05-20 05:00;METAR CYVR 200500Z 27007KT 15SM -TSRA FEW030TCU BKN042CB OVC060 11/09 A2998 RERA RMK TCU2CB4SC2 FRQ LTGIC/LTGCC VIS LWR N QUAD 10 SM SLP152=

CYVR;2005-05-20 07:08;SPECI CYVR 200708Z 09008KT 15SM -SHRA BKN024 BKN035CB OVC070 RMK SC6CB1AC2=

CYVR;2005-05-20 14:22;SPECI CYVR 201422Z 10008KT 15SM -SHRA FEW025 BKN043 OVC072 RMK SC2SC3AC3=

CYVR;2005-05-20 14:52;SPECI CYVR 201452Z 09006KT 15SM BKN036 OVC072 RMK SC5AC3 SH DIST N=

CYVR;2005-05-20 21:43;SPECI CYVR 202143Z 22009KT 15SM SCT034TCU SCT100 OVC220 RMK TCU3AC1CI1 TWR REP LTG DIST E=

CYVR;2005-05-21 02:10;SPECI CYVR 210210Z 20002KT 15SM -SHRA FEW035 FEW040TCU BKN054 OVC080 RMK CF1TCU1SC4AC2=

CYVR;2005-05-21 02:30;SPECI CYVR 210230Z 21005KT 15SM FEW035 SCT054 BKN100 BKN220 RMK CF1SC2AC2CI1 TR CF=

CYVR;2005-05-21 09:42;SPECI CYVR 210942Z 09004KT 15SM -SHRA FEW045 BKN054 RMK SC2SC4=

CYVR;2005-05-21 11:49;SPECI CYVR 211149Z 16007KT 15SM FEW040 BKN058 RMK SC2SC5=

CYVR;2005-05-21 15:22;SPECI CYVR 211522Z 13007KT 15SM FEW014 SCT018TCU BKN059 RMK CF1TCU2SC4=

CYVR;2005-05-21 16:00;METAR CYVR 211600Z 13010KT 15SM BKN022 BKN030 BKN069 OVC220 13/08 A3017 RMK SC5SC1AC2CS0 SLP216=

CYVR;2005-05-21 17:00;METAR CYVR 211700Z 11013KT 15SM BKN022 BKN048 OVC220 13/08 A3017 RMK SC5SC2CS1 SLP215=

CYVR;2005-05-21 17:16;SPECI CYVR 211716Z 12015KT 15SM BKN023 BKN044 OVC220 RMK SC6SC2CS1 TWR REP WATERSPOUT 1 M S OF BOWEN ISLD=

CYVR;2005-05-21 18:00;METAR CYVR 211800Z 12014G20KT 15SM FEW025TCU BKN051 OVC220 14/08 A3015 RMK TCU2SC5CS1 SLP209=

CYVR;2005-05-21 21:00;METAR CYVR 212100Z 13014KT 15SM SCT040 OVC140 16/07 A3006 RMK SC4AS3 SLP179=

CYVR;2005-05-21 22:00;METAR CYVR 212200Z 14010G15KT 15SM FEW040 BKN090 OVC140 17/07 A3003 RMK SC2AC3AS2 SLP168=

CYVR;2005-05-22 00:00;METAR CYVR 220000Z 16015KT 15SM BKN058 OVC090 16/06 A2998 RMK SC7AC1 SLP152=

CYVR;2005-05-22 00:08;SPECI CYVR 220008Z 16023G31KT 15SM -SHRA BKN048 OVC090 RMK SC7AC1=

CYVR;2005-05-22 00:32;SPECI CYVR 220032Z 11016KT 15SM SCT048 BKN100 OVC150 RMK SC3AC4AS1 SH DIST N NE=

CYVR;2005-05-22 01:00;METAR CYVR 220100Z 08015G21KT 15SM BKN058 OVC071 15/05 A2993 RMK SC6AC2 SLP137=

CYVR;2005-05-22 01:14;SPECI CYVR 220114Z 10017KT 15SM -SHRA BKN052 OVC065 RMK SC6SC2=

CYVR;2005-05-22 02:00;METAR CYVR 220200Z 11014G20KT 6SM -SHRA BR FEW020 BKN046 OVC062 14/07 A2993 RMK SF2SC5SC2 SLP136=

CYVR;2005-05-22 03:00;METAR CYVR 220300Z 10017KT 10SM SCT028 BKN052 OVC060 13/12 A2993 RMK SF3SC3SC2 SLP134=

CYVR;2005-05-22 04:00;METAR CYVR 220400Z 10014G19KT 8SM -SHRA FEW028 BKN050 OVC061 12/09 A2991 RMK SF2SC4SC2 SLP130=

CYVR;2005-05-22 04:29;SPECI CYVR 220429Z 11014G19KT 10SM FEW025 BKN051 OVC083 RMK SF2SC4AC2=

CYVR;2005-05-22 05:00;METAR CYVR 220500Z 13014G19KT 10SM FEW025 OVC038 12/09 A2993 RMK SF2SC6 SLP134=

CYVR;2005-05-22 05:28;SPECI CYVR 220528Z 14014KT 3SM -SHRA BR FEW018 OVC037 RMK SF2SC6=

CYVR;2005-05-22 06:00;METAR CYVR 220600Z 15013G18KT 3SM -SHRA BR FEW017 OVC037 11/09 A2993 RMK SF2SC6 SLP136=

CYVR;2005-05-22 06:12;SPECI CYVR 220612Z 19010G15KT 2SM SHRA BR BKN011 OVC023TCU RMK SF6TCU2=

CYVR;2005-05-22 06:30;SPECI CYVR 220630Z 16011G17KT 4SM -SHRA BR SCT015 OVC023 RMK SF3SC5=

CYVR;2005-05-22 08:00;METAR CYVR 220800Z 10008KT 20SM BKN037 BKN100 11/09 A2993 RMK SC5AC2 SLP136=

CYVR;2005-05-22 10:00;METAR CYVR 221000Z 13008KT 20SM FEW035 OVC075 11/08 A2996 RMK SC2AC6 SLP145=

CYVR;2005-05-22 10:50;SPECI CYVR 221050Z 14012G19KT 10SM -SHRA FEW035 OVC056 RMK SC2SC6=

CYVR;2005-05-22 11:00;METAR CYVR 221100Z 13014KT 10SM -SHRA FEW035 OVC056 11/08 A2997 RMK SC2SC6 SLP150=

CYVR;2005-05-22 12:00;METAR CYVR 221200Z 15013G20KT 10SM -SHRA FEW035 OVC051 11/08 A2997 RMK SC2SC6 SLP150=

CYVR;2005-05-22 13:00;METAR CYVR 221300Z 15011KT 8SM -SHRA FEW035 OVC052 11/08 A3000 RMK SC2SC6 SLP158=

CYVR;2005-05-22 13:50;SPECI CYVR 221350Z 13013KT 10SM FEW018 SCT035 OVC056 RMK SC1SC2SC5=

CYVR;2005-05-22 14:00;METAR CYVR 221400Z 14014G19KT 10SM FEW020 SCT035 OVC057 11/08 A3000 RMK SC1SC2SC5 SLP160=

CYVR;2005-05-22 15:17;SPECI CYVR 221517Z 14019G25KT 8SM -SHRA FEW030 OVC050 RMK SC2SC6=

CYVR;2005-05-22 16:00;METAR CYVR 221600Z 14014G22KT 10SM FEW030 OVC048 11/08 A3003 RMK SC1SC7 SLP169=

CYVR;2005-05-22 17:00;METAR CYVR 221700Z 13016G21KT 10SM FEW030 OVC045 12/08 A3004 RMK SC1SC7 SLP173=

CYVR;2005-05-22 17:12;SPECI CYVR 221712Z 15014G21KT 8SM -SHRA FEW030 OVC044 RMK SC1SC7=

CYVR;2005-05-22 18:00;METAR CYVR 221800Z 14015KT 6SM -SHRA BR FEW030 OVC045 12/08 A3006 RMK SC2SC6 SLP180=

CYVR;2005-05-22 18:45;SPECI CYVR 221845Z 13016KT 10SM FEW030 BKN050 BKN100 RMK SC1SC5AC2=

CYVR;2005-05-22 19:00;METAR CYVR 221900Z 13017KT 12SM FEW030 BKN054 BKN082 13/09 A3007 RMK SC1SC4AC2 SLP182=

CYVR;2005-05-22 19:28;SPECI CYVR 221928Z 14013G19KT 12SM -SHRA FEW024 BKN057 OVC090 RMK SC2SC3AC2=

CYVR;2005-05-22 19:48;SPECI CYVR 221948Z 14013G20KT 12SM FEW024 BKN053 OVC092 RMK SC2SC5AC2=

CYVR;2005-05-22 20:00;METAR CYVR 222000Z 14013G20KT 12SM FEW024 OVC052 12/08 A3009 RMK SC1SC7 SLP188=

CYVR;2005-05-22 20:07;SPECI CYVR 222007Z 14013KT 12SM -SHRA FEW025 OVC055 RMK SC1SC7=

CYVR;2005-05-22 20:35;SPECI CYVR 222035Z 17010G18KT 12SM FEW025 BKN051 OVC090 RMK SC1SC6AC1=

CYVR;2005-05-22 20:48;SPECI CYVR 222048Z 17013G19KT 12SM -SHRA FEW025 BKN050 OVC090 RMK SC2SC6AC1=

CYVR;2005-05-22 21:00;METAR CYVR 222100Z 18008KT 10SM -SHRA FEW030 OVC052 12/07 A3011 RMK SC1SC7 SLP197=

CYVR;2005-05-22 21:25;SPECI CYVR 222125Z 14008KT 12SM FEW030 BKN052 OVC080 RMK SC2SC5AC2=

CYVR;2005-05-22 22:00;METAR CYVR 222200Z 15012G18KT 15SM FEW030 BKN055 BKN077 13/08 A3011 RMK SC1SC6AC1 SLP198=

CYVR;2005-05-22 23:00;METAR CYVR 222300Z 18016G21KT 15SM FEW030 BKN060 OVC090 13/06 A3012 RMK SC2SC6AC1 SLP200=

CYVR;2005-05-23 00:00;METAR CYVR 230000Z 19012G17KT 15SM FEW035 BKN049 BKN100 13/07 A3013 RMK SC2SC4AC1 SLP203=

CYVR;2005-05-23 01:00;METAR CYVR 230100Z 18010G15KT 15SM FEW035 BKN061 BKN090 13/07 A3014 RMK SC2SC4AC1 SLP205=

CYVR;2005-05-23 02:00;METAR CYVR 230200Z 18010G16KT 15SM FEW035 SCT053 BKN110 13/07 A3015 RMK SC2SC2AC3 SHS DIST NW QUAD / NE QUAD SLP210=

CYVR;2005-05-23 04:00;METAR CYVR 230400Z 17009KT 15SM FEW035 SCT045 OVC095 12/06 A3017 RMK SC2SC1AC4 VIRGA SHS DIST NW QUAD / NE QUAD SLP215=

CYVR;2005-05-23 04:19;SPECI CYVR 230419Z 18008KT 12SM -SHRA FEW035 BKN043 OVC090 RMK SC2SC4AC2=

CYVR;2005-05-23 05:29;SPECI CYVR 230529Z 16006KT 15SM FEW035 SCT060 OVC076 RMK SC2SC2AC4=

CYVR;2005-05-23 05:40;SPECI CYVR 230540Z 16007KT 15SM -SHRA FEW035 SCT060 OVC075 RMK SC2SC2AC4=

CYVR;2005-05-23 06:00;METAR CYVR 230600Z 17006KT 15SM -SHRA FEW035 BKN060 OVC075 12/07 A3020 RMK SC2SC3AC2 SLP226=

CYVR;2005-05-23 09:00;METAR CYVR 230900Z 09006KT 15SM -SHRA FEW035 SCT060 OVC110 10/08 A3022 RMK SC2SC2AC3 PCPN VRY LGT SLP232=

CYVR;2005-05-23 10:00;METAR CYVR 231000Z 10005KT 15SM -SHRA FEW035 BKN061 OVC100 10/08 A3022 RMK SC2SC2AC3 SLP235=

CYVR;2005-05-23 12:00;METAR CYVR 231200Z 09005KT 15SM -SHRA SCT041 OVC051 09/08 A3024 RMK SC3SC5 PCPN VRY LGT SLP240=

CYVR;2005-05-23 13:00;METAR CYVR 231300Z 09007KT 15SM -SHRA BKN026 OVC035 09/08 A3024 RMK SC5SC3 PCPN VRY LGT SLP242=

CYVR;2005-05-23 14:00;METAR CYVR 231400Z 14007KT 15SM -SHRA FEW016 BKN026 OVC040 10/08 A3025 RMK SC1SC6SC1 PCPN VRY LGT SLP245=

CYVR;2005-05-23 14:18;SPECI CYVR 231418Z 14005KT 15SM FEW020 BKN026 OVC040 RMK SC1SC6SC1=

CYVR;2005-05-23 15:00;METAR CYVR 231500Z 12006KT 15SM FEW020 BKN032 OVC060 11/08 A3026 RMK SC1SC4SC2 SLP248=

CYVR;2005-05-23 16:00;METAR CYVR 231600Z 14009KT 15SM FEW015TCU OVC049 12/08 A3026 RMK TCU2SC5 SLP248=

CYVR;2005-05-23 17:00;METAR CYVR 231700Z 12006KT 15SM BKN019 BKN047 OVC090 12/08 A3027 RMK SC5SC2AC1 SLP250=

CYVR;2005-05-23 17:34;SPECI CYVR 231734Z 10007KT 15SM -SHRA SCT017 BKN042 OVC060 RMK SC3SC4SC1 VIS LWR N=

CYVR;2005-05-23 18:00;METAR CYVR 231800Z 13009KT 15SM -SHRA BKN018 BKN036 OVC060 12/09 A3027 RMK SC5SC2SC1 PCPN VRY LGT SLP251=

CYVR;2005-05-23 19:00;METAR CYVR 231900Z 14007KT 15SM -SHRA SCT023 SCT034TCU BKN041 12/08 A3027 RMK SC3TCU1SC3 PCPN VRY LGT SLP251=

CYVR;2005-05-23 19:23;SPECI CYVR 231923Z 15007KT 15SM BKN022 BKN035 RMK SC5SC2 TCU EMBD=

CYVR;2005-05-23 20:00;METAR CYVR 232000Z 17005KT 15SM SCT031TCU BKN059 14/08 A3027 RMK TCU4SC2 SLP249=

CYVR;2005-05-23 21:00;METAR CYVR 232100Z 24002KT 15SM BKN026TCU BKN044 14/08 A3027 RMK TCU5SC2 SLP249=

CYVR;2005-05-23 22:00;METAR CYVR 232200Z 25008KT 15SM BKN029TCU BKN056 16/10 A3026 RMK TCU6SC1 CB TOP W SLP246=

CYVR;2005-05-23 23:00;METAR CYVR 232300Z 27006KT 15SM SCT035TCU SCT220 15/09 A3025 RMK TCU3CI0 CB TOPS W SLP245=

CYVR;2005-05-24 00:00;METAR CYVR 240000Z 28008KT 15SM FEW037TCU SCT220 15/08 A3025 RMK TCU2CI0 CB TOPS W AND N SLP244=

CYVR;2005-05-24 01:00;METAR CYVR 240100Z 27008KT 15SM FEW037TCU FEW090 FEW220 14/08 A3025 RMK TCU1AC1CI1 TR AC CB TOPS W AND ENE SLP243=

CYVR;2005-05-24 02:00;METAR CYVR 240200Z 27010KT 20SM FEW035TCU FEW090 FEW220 14/08 A3024 RMK TCU1AC1CI1 TR AC CB TOPS SW - W QUAD SLP242=

CYVR;2005-05-24 04:00;METAR CYVR 240400Z 28009KT 20SM FEW035 FEW120 FEW220 12/07 A3025 RMK CF1AC1CI1 TR CF CB TOP DIST NE QUAD SLP245=

CYVR;2005-05-24 05:00;METAR CYVR 240500Z 28011KT 20SM FEW150 12/09 A3026 RMK AC1 SLP248=

CYVR;2005-05-24 07:00;METAR CYVR 240700Z 29014G19KT 15SM FEW035 11/09 A3028 RMK CF0 SLP253=

CYVR;2005-05-24 08:34;SPECI CYVR 240834Z 29012G17KT 15SM BKN013 RMK SC5=

CYVR;2005-05-24 08:44;SPECI CYVR 240844Z 32010G15KT 15SM SCT013 RMK SC2=

CYVR;2005-05-24 10:00;METAR CYVR 241000Z 02003KT 15SM FEW035 08/07 A3030 RMK SF1 SLP259=

CYVR;2005-05-24 11:00;METAR CYVR 241100Z 01003KT 15SM SCT035 08/07 A3031 RMK SC2 SLP263=

CYVR;2005-05-24 12:00;METAR CYVR 241200Z 00000KT 15SM FEW035 08/07 A3031 RMK SC2 SLP265=

CYVR;2005-05-24 13:00;METAR CYVR 241300Z 07004KT 15SM SCT022 08/07 A3033 RMK SC2 SLP270=

CYVR;2005-05-24 14:00;METAR CYVR 241400Z 00000KT 15SM BKN022 10/08 A3034 RMK SC6 SLP275=

CYVR;2005-05-24 15:00;METAR CYVR 241500Z 27003KT 15SM FEW012 BKN019 12/08 A3035 RMK CF1SC6 SLP278=

CYVR;2005-05-24 16:00;METAR CYVR 241600Z 27007KT 15SM FEW012 BKN021 11/08 A3036 RMK CF1SC6 SLP282=

CYVR;2005-05-24 17:00;METAR CYVR 241700Z 30006KT 20SM FEW011 BKN020 12/09 A3037 RMK CF1SC4 SLP285=

CYVR;2005-05-24 20:00;METAR CYVR 242000Z 27008KT 20SM FEW030 15/11 A3038 RMK CU2 TCU ASOCTD SLP289=

CYVR;2005-05-24 21:00;METAR CYVR 242100Z 30009KT 20SM FEW035TCU FEW220 15/10 A3038 RMK TCU1CI1 SLP287=

CYVR;2005-05-24 22:00;METAR CYVR 242200Z 27009KT 20SM FEW035TCU FEW220 16/10 A3037 RMK TCU1CI1 SLP285=

CYVR;2005-05-24 23:00;METAR CYVR 242300Z 28010KT 20SM FEW040TCU FEW220 16/10 A3036 RMK TCU1CI1 SLP281=

CYVR;2005-05-25 00:00;METAR CYVR 250000Z 28010KT 20SM FEW045TCU 17/10 A3035 RMK TCU1 SLP278=

CYVR;2005-05-25 02:00;METAR CYVR 250200Z 28006KT 20SM FEW045 FEW220 15/10 A3033 RMK CU1CI1 SLP270=

CYVR;2005-05-25 04:00;METAR CYVR 250400Z 28006KT 30SM FEW040 FEW230 13/09 A3032 RMK CU1CI0 SLP269=

CYVR;2005-05-25 05:00;METAR CYVR 250500Z 26003KT 30SM FEW220 14/10 A3034 RMK CI0 SLP274=

CYVR;2005-05-25 07:00;METAR CYVR 250700Z 10005KT 30SM FEW220 11/09 A3035 RMK CI0 SLP278=

CYVR;2005-05-25 10:00;METAR CYVR 251000Z 36002KT 20SM FEW015 FEW220 10/08 A3037 RMK SF1CI0 SLP284=

CYVR;2005-05-25 12:00;METAR CYVR 251200Z 02004KT 20SM FEW220 09/07 A3036 RMK CI1 SLP282=

CYVR;2005-05-25 13:00;METAR CYVR 251300Z 00000KT 30SM FEW220 10/08 A3036 RMK CI1 SLP282=

CYVR;2005-05-25 15:00;METAR CYVR 251500Z 30009KT 30SM FEW220 13/10 A3037 RMK CI2 SLP283=

CYVR;2005-05-25 16:00;METAR CYVR 251600Z 30011KT 30SM FEW220 14/11 A3036 RMK CI2 SLP282=

CYVR;2005-05-25 17:00;METAR CYVR 251700Z 29015KT 30SM SCT220 15/11 A3035 RMK CI2 SLP279=

CYVR;2005-05-25 18:00;METAR CYVR 251800Z 30014KT 30SM SCT220 15/11 A3034 RMK CI4 SLP274=

CYVR;2005-05-25 19:00;METAR CYVR 251900Z 30013KT 30SM BKN220 16/11 A3032 RMK CI3 SLP268=

CYVR;2005-05-25 20:00;METAR CYVR 252000Z 31014KT 30SM SCT240 18/12 A3030 RMK CI2 SLP262=

CYVR;2005-05-25 21:00;METAR CYVR 252100Z 30013KT 30SM SCT240 18/12 A3028 RMK CI3 SLP253=

CYVR;2005-05-25 22:00;METAR CYVR 252200Z 30015KT 30SM FEW240 19/13 A3025 RMK CI2 SLP245=

CYVR;2005-05-25 23:00;METAR CYVR 252300Z 30016KT 30SM FEW240 19/11 A3023 RMK CI1 SLP238=

CYVR;2005-05-26 00:00;METAR CYVR 260000Z 31014KT 30SM FEW240 19/13 A3020 RMK CI1 SLP228=

CYVR;2005-05-26 01:00;METAR CYVR 260100Z 31013KT 30SM FEW240 19/12 A3018 RMK CI1 SLP220=

CYVR;2005-05-26 02:00;METAR CYVR 260200Z 30010G15KT 30SM FEW240 18/12 A3016 RMK CI1 SLP213=

CYVR;2005-05-26 03:00;METAR CYVR 260300Z 31011KT 30SM FEW240 18/11 A3014 RMK CI0 SLP208=

CYVR;2005-05-26 04:00;METAR CYVR 260400Z 31013KT 30SM FEW240 16/11 A3014 RMK CI0 SLP205=

CYVR;2005-05-26 05:00;METAR CYVR 260500Z 31007KT 30SM FEW240 15/11 A3013 RMK CI0 SLP203=

CYVR;2005-05-26 06:00;METAR CYVR 260600Z 32007KT 30SM FEW240 14/10 A3013 RMK CI0 SLP202=

CYVR;2005-05-26 07:00;METAR CYVR 260700Z 27003KT 30SM SKC 15/11 A3013 RMK SLP202=

CYVR;2005-05-26 08:00;METAR CYVR 260800Z 30003KT 30SM SKC 14/10 A3013 RMK SLP204=

CYVR;2005-05-26 09:00;METAR CYVR 260900Z 34003KT 30SM SKC 13/09 A3013 RMK SLP204=

CYVR;2005-05-26 10:00;METAR CYVR 261000Z 36003KT 30SM SKC 12/08 A3013 RMK SLP203=

CYVR;2005-05-26 11:00;METAR CYVR 261100Z 00000KT 30SM SKC 13/09 A3013 RMK SLP202=

CYVR;2005-05-26 12:00;METAR CYVR 261200Z 34004KT 30SM SKC 12/08 A3011 RMK SLP198=

CYVR;2005-05-26 13:00;METAR CYVR 261300Z 05002KT 30SM SKC 12/08 A3012 RMK SLP199=

CYVR;2005-05-26 14:00;METAR CYVR 261400Z 29005KT 30SM SKC 14/09 A3012 RMK SLP201=

CYVR;2005-05-26 15:00;METAR CYVR 261500Z 30007KT 30SM SKC 16/11 A3012 RMK SLP200=

CYVR;2005-05-26 16:00;METAR CYVR 261600Z 29009KT 30SM SKC 18/11 A3011 RMK SLP197=

CYVR;2005-05-26 17:00;METAR CYVR 261700Z 30008KT 30SM FEW220 19/12 A3010 RMK CI1 SLP193=

CYVR;2005-05-26 18:00;METAR CYVR 261800Z 29010KT 30SM FEW220 20/12 A3009 RMK CI1 SLP191=

CYVR;2005-05-26 19:00;METAR CYVR 261900Z 30011KT 30SM FEW220 20/12 A3009 RMK CI1 SLP188=

CYVR;2005-05-26 20:00;METAR CYVR 262000Z 30012KT 30SM FEW240 22/13 A3007 RMK CI1 SLP182=

CYVR;2005-05-26 21:00;METAR CYVR 262100Z 31010KT 30SM FEW240 22/12 A3005 RMK CI1 SLP175=

CYVR;2005-05-26 22:00;METAR CYVR 262200Z 30011KT 30SM FEW240 23/12 A3003 RMK CI1 SLP169=

CYVR;2005-05-26 23:00;METAR CYVR 262300Z 30011KT 30SM FEW240 24/11 A3001 RMK CI1 SLP162=

CYVR;2005-05-27 00:00;METAR CYVR 270000Z 30011KT 30SM FEW240 24/10 A2999 RMK CI1 SLP155=

CYVR;2005-05-27 01:00;METAR CYVR 270100Z 31009KT 30SM FEW240 24/11 A2997 RMK CI1 SLP148=

CYVR;2005-05-27 02:00;METAR CYVR 270200Z 30008KT 30SM FEW240 23/11 A2996 RMK CI1 SLP144=

CYVR;2005-05-27 03:00;METAR CYVR 270300Z 32007KT 30SM FEW240 20/11 A2994 RMK CI1 SLP138=

CYVR;2005-05-27 04:00;METAR CYVR 270400Z 30007KT 30SM FEW240 17/14 A2994 RMK CI1 SLP139=

CYVR;2005-05-27 05:00;METAR CYVR 270500Z 32007KT 30SM FEW240 17/13 A2994 RMK CI1 SLP139=

CYVR;2005-05-27 06:00;METAR CYVR 270600Z 29006KT 30SM FEW240 16/13 A2994 RMK CI1 SLP140=

CYVR;2005-05-27 07:00;METAR CYVR 270700Z 31005KT 30SM SKC 17/12 A2995 RMK SLP141=

CYVR;2005-05-27 09:00;METAR CYVR 270900Z 00000KT 30SM SKC 16/11 A2995 RMK SLP143=

CYVR;2005-05-27 10:00;METAR CYVR 271000Z 36003KT 30SM SKC 15/10 A2995 RMK SLP142=

CYVR;2005-05-27 11:00;METAR CYVR 271100Z 34003KT 30SM SKC 15/08 A2995 RMK SLP141=

CYVR;2005-05-27 12:00;METAR CYVR 271200Z 20003KT 30SM SKC 15/09 A2995 RMK SLP143=

CYVR;2005-05-27 13:00;METAR CYVR 271300Z 34006KT 30SM SKC 14/09 A2996 RMK SLP146=

CYVR;2005-05-27 14:00;METAR CYVR 271400Z 30007KT 30SM SKC 16/11 A2996 RMK SLP145=

CYVR;2005-05-27 15:00;METAR CYVR 271500Z 32007KT 30SM FEW230 18/12 A2995 RMK CI1 SLP143=

CYVR;2005-05-27 16:00;METAR CYVR 271600Z 30011G17KT 30SM FEW230 20/10 A2995 RMK CI1 SLP141=

CYVR;2005-05-27 17:00;METAR CYVR 271700Z 29008KT 30SM FEW230 20/12 A2994 RMK CI1 SLP139=

CYVR;2005-05-27 18:00;METAR CYVR 271800Z 29011KT 30SM FEW230 19/13 A2993 RMK CI1 SLP136=

CYVR;2005-05-27 19:00;METAR CYVR 271900Z 30009KT 30SM FEW230 21/12 A2992 RMK CI1 SLP132=

CYVR;2005-05-27 20:00;METAR CYVR 272000Z 30009KT 30SM FEW230 22/13 A2990 RMK CI1 SLP125=

CYVR;2005-05-27 21:00;METAR CYVR 272100Z 29009KT 30SM FEW230 23/14 A2988 RMK CI1 SLP119=

CYVR;2005-05-27 22:00;METAR CYVR 272200Z 30009KT 30SM FEW240 24/14 A2986 RMK CI1 SLP113=

CYVR;2005-05-27 23:00;METAR CYVR 272300Z 29008KT 30SM FEW240 25/16 A2984 RMK CI1 SLP105=

CYVR;2005-05-28 00:00;METAR CYVR 280000Z 31008KT 30SM FEW240 25/14 A2981 RMK CI1 SLP095=

CYVR;2005-05-28 01:00;METAR CYVR 280100Z 29007KT 30SM FEW240 25/14 A2979 RMK CI1 SLP087=

CYVR;2005-05-28 02:00;METAR CYVR 280200Z 30008KT 30SM FEW240 23/14 A2977 RMK CI0 SLP080=

CYVR;2005-05-28 03:00;METAR CYVR 280300Z 27006KT 30SM SKC 21/13 A2976 RMK SLP078=

CYVR;2005-05-28 04:00;METAR CYVR 280400Z 27003KT 30SM SKC 18/14 A2975 RMK SLP075=

CYVR;2005-05-28 05:00;METAR CYVR 280500Z 30003KT 30SM SKC 18/12 A2975 RMK SLP075=

CYVR;2005-05-28 06:00;METAR CYVR 280600Z 28002KT 30SM SKC 19/13 A2975 RMK SLP075=

CYVR;2005-05-28 07:00;METAR CYVR 280700Z 26002KT 30SM SKC 18/13 A2975 RMK SLP076=

CYVR;2005-05-28 08:00;METAR CYVR 280800Z 36003KT 30SM SKC 16/13 A2976 RMK SLP077=

CYVR;2005-05-28 09:00;METAR CYVR 280900Z 00000KT 30SM SKC 16/13 A2976 RMK SLP078=

CYVR;2005-05-28 10:00;METAR CYVR 281000Z 30002KT 30SM SKC 16/11 A2978 RMK SLP083=

CYVR;2005-05-28 11:00;METAR CYVR 281100Z 28003KT 30SM SKC 17/12 A2978 RMK SLP084=

CYVR;2005-05-28 12:00;METAR CYVR 281200Z 29005KT 30SM SKC 15/09 A2978 RMK SLP086=

CYVR;2005-05-28 13:00;METAR CYVR 281300Z 32006KT 30SM FEW240 15/11 A2978 RMK CI1 SLP084=

CYVR;2005-05-28 14:00;METAR CYVR 281400Z 29003KT 30SM FEW240 17/14 A2979 RMK CI0 SLP089=

CYVR;2005-05-28 15:00;METAR CYVR 281500Z 30010KT 30SM FEW240 18/15 A2980 RMK CI0 SLP092=

CYVR;2005-05-28 16:00;METAR CYVR 281600Z 29008KT 30SM SKC 19/14 A2980 RMK SLP093=

CYVR;2005-05-28 17:00;METAR CYVR 281700Z 28008KT 30SM SKC 20/15 A2980 RMK SLP092=

CYVR;2005-05-28 18:00;METAR CYVR 281800Z 29009KT 30SM SKC 20/15 A2979 RMK SLP089=

CYVR;2005-05-28 19:00;METAR CYVR 281900Z 29008KT 30SM SKC 21/16 A2978 RMK SLP086=

CYVR;2005-05-28 20:00;METAR CYVR 282000Z 30009KT 30SM SKC 22/15 A2977 RMK SLP082=

CYVR;2005-05-28 21:00;METAR CYVR 282100Z 29007KT 30SM SKC 23/15 A2976 RMK SLP079=

CYVR;2005-05-28 22:00;METAR CYVR 282200Z 30005KT 30SM SKC 24/15 A2975 RMK SLP076=

CYVR;2005-05-28 23:00;METAR CYVR 282300Z 26006KT 30SM FEW220 23/12 A2974 RMK CI0 SLP072=

CYVR;2005-05-29 00:00;METAR CYVR 290000Z 30007KT 30SM FEW050 FEW220 23/14 A2973 RMK CU0CI0 SLP067=

CYVR;2005-05-29 01:00;METAR CYVR 290100Z 24006KT 30SM FEW050TCU FEW220 23/14 A2971 RMK TCU0CI0 SLP061=

CYVR;2005-05-29 02:00;METAR CYVR 290200Z 19002KT 30SM FEW220 23/12 A2971 RMK CI1 TCU TOP E SLP060=

CYVR;2005-05-29 03:00;METAR CYVR 290300Z 19006KT 30SM FEW220 23/12 A2971 RMK CI1 TCU TOPS E SLP060=

CYVR;2005-05-29 04:00;METAR CYVR 290400Z 12009KT 30SM FEW220 22/11 A2972 RMK CI1 SLP064=

CYVR;2005-05-29 05:00;METAR CYVR 290500Z 10011KT 30SM FEW220 18/12 A2975 RMK CI1 SLP073=

CYVR;2005-05-29 06:00;METAR CYVR 290600Z 11010KT 20SM SKC 17/12 A2976 RMK SLP078=

CYVR;2005-05-29 07:00;METAR CYVR 290700Z 09010KT 20SM SKC 15/12 A2978 RMK SLP085=

CYVR;2005-05-29 08:00;METAR CYVR 290800Z 14011KT 20SM SKC 17/11 A2980 RMK SLP093=

CYVR;2005-05-29 09:00;METAR CYVR 290900Z 11018KT 20SM SKC 15/11 A2983 RMK SLP100=

CYVR;2005-05-29 10:00;METAR CYVR 291000Z 11012G17KT 20SM SKC 16/11 A2985 RMK SLP107=

CYVR;2005-05-29 11:00;METAR CYVR 291100Z 10013KT 20SM FEW220 15/11 A2987 RMK CI1 SLP115=

CYVR;2005-05-29 12:00;METAR CYVR 291200Z 10013G18KT 20SM FEW020 FEW220 15/11 A2988 RMK SC1CI1 SLP120=

CYVR;2005-05-29 13:00;METAR CYVR 291300Z 10014KT 20SM SCT017 SCT220 14/11 A2991 RMK SC3CI1 SLP127=

CYVR;2005-05-29 14:00;METAR CYVR 291400Z 11014KT 20SM FEW017 FEW220 15/11 A2992 RMK SC1CI0 SLP133=

CYVR;2005-05-29 15:00;METAR CYVR 291500Z 11014KT 20SM FEW015 FEW020 SCT220 16/12 A2994 RMK CF1SC1CI1 SLP140=

CYVR;2005-05-29 16:00;METAR CYVR 291600Z 12012G17KT 20SM BKN017 BKN220 16/11 A2996 RMK SC5CI1 SLP145=

CYVR;2005-05-29 17:00;METAR CYVR 291700Z 12013KT 20SM SCT017 BKN220 17/12 A2996 RMK SC2CI1 SLP145=

CYVR;2005-05-29 18:00;METAR CYVR 291800Z 12013KT 20SM BKN021 BKN220 17/11 A2996 RMK SC5CI0 SLP145=

CYVR;2005-05-29 19:00;METAR CYVR 291900Z 13010KT 20SM BKN021 18/12 A2996 RMK SC6 SLP146=

CYVR;2005-05-29 22:00;METAR CYVR 292200Z 13008KT 15SM FEW020 FEW220 19/12 A2994 RMK CF1CI1 SLP140=

CYVR;2005-05-29 23:00;METAR CYVR 292300Z 15006KT 15SM FEW025 FEW220 20/13 A2993 RMK CF1CI1 SLP137=

CYVR;2005-05-30 00:00;METAR CYVR 300000Z 19007KT 15SM FEW025 FEW220 20/12 A2993 RMK CU1CI1 SLP135=

CYVR;2005-05-30 01:00;METAR CYVR 300100Z 17008KT 15SM FEW025 FEW030 FEW220 20/12 A2993 RMK CF1SC1CI1 TR CF SLP135=

CYVR;2005-05-30 03:00;METAR CYVR 300300Z 10009KT 15SM FEW030 SCT220 18/12 A2996 RMK SC1CI1 SLP144=

CYVR;2005-05-30 04:00;METAR CYVR 300400Z 10012KT 15SM FEW030 BKN220 16/12 A2996 RMK SC1CI2 SLP145=

CYVR;2005-05-30 05:00;METAR CYVR 300500Z 09012KT 15SM FEW030 BKN220 15/11 A2997 RMK SC1CI1 SLP149=

CYVR;2005-05-30 06:00;METAR CYVR 300600Z 12012KT 15SM FEW030 SCT220 16/11 A2998 RMK SC1CI1 SLP152=

CYVR;2005-05-30 07:00;METAR CYVR 300700Z 10009KT 15SM FEW040 SCT220 14/11 A2998 RMK SC1CI1 SLP154=

CYVR;2005-05-30 08:00;METAR CYVR 300800Z 10010KT 15SM FEW040 SCT220 14/11 A2999 RMK SC1CI1 SLP157=

CYVR;2005-05-30 10:00;METAR CYVR 301000Z 10007KT 15SM FEW040 BKN220 13/11 A3001 RMK SC1CI2 SLP164=

CYVR;2005-05-30 11:00;METAR CYVR 301100Z 09008KT 15SM FEW040 FEW100 BKN220 13/11 A3001 RMK SC1AC1CI2 SLP164=

CYVR;2005-05-30 13:00;METAR CYVR 301300Z 11011KT 12SM BKN047 OVC100 14/11 A3004 RMK SC7AC1 SLP173=

CYVR;2005-05-30 14:00;METAR CYVR 301400Z 11008KT 15SM SCT053 BKN100 14/11 A3005 RMK SC3AC1 SLP176=

CYVR;2005-05-30 14:48;SPECI CYVR 301448Z 11013KT 15SM BKN014 OVC050 RMK SC5SC2=

CYVR;2005-05-30 15:00;METAR CYVR 301500Z 11010KT 15SM BKN012 OVC050 14/11 A3006 RMK SC6SC2 SLP178=

CYVR;2005-05-30 15:41;SPECI CYVR 301541Z 13006KT 15SM SCT012 BKN018 RMK SC4SC2=

CYVR;2005-05-30 16:00;METAR CYVR 301600Z 14009KT 15SM SCT012 OVC018 15/11 A3006 RMK SC3SC5 VIS N QUAD 12 SM SLP181=

CYVR;2005-05-30 17:00;METAR CYVR 301700Z 14007KT 15SM SCT018 OVC025 16/12 A3007 RMK SC3SC5 SLP182=

CYVR;2005-05-30 18:00;METAR CYVR 301800Z 11008KT 15SM FEW018 OVC025 17/12 A3007 RMK CU2SC6 SLP182=

CYVR;2005-05-30 19:00;METAR CYVR 301900Z 13009KT 15SM FEW020 BKN025 18/12 A3006 RMK CU2SC3 SLP181=

CYVR;2005-05-30 20:00;METAR CYVR 302000Z 11008KT 15SM FEW020 OVC026 18/12 A3006 RMK SC2SC6 SLP180=

CYVR;2005-05-30 21:00;METAR CYVR 302100Z 17005KT 15SM FEW020 SCT025 BKN054 OVC220 19/11 A3006 RMK CF1SC2SC2CI2 SLP180=

CYVR;2005-05-30 22:00;METAR CYVR 302200Z 13006KT 15SM FEW025 BKN029 OVC220 19/12 A3004 RMK CU2SC5CI1 SLP174=

CYVR;2005-05-30 23:00;METAR CYVR 302300Z 13006KT 15SM FEW025 SCT055 BKN220 19/12 A3003 RMK CU1SC2CI1 SLP169=

CYVR;2005-05-31 00:00;METAR CYVR 310000Z 16008KT 15SM FEW025 FEW030 BKN220 19/13 A3002 RMK CU2SC1CI1 SLP166=

CYVR;2005-05-31 01:00;METAR CYVR 310100Z 15008KT 15SM FEW025 SCT065 BKN220 19/12 A3001 RMK CU1SC2CI1 SLP162=

CYVR;2005-05-31 02:00;METAR CYVR 310200Z 12008KT 15SM FEW025 BKN062 18/12 A3001 RMK SC2SC5 SLP161=

CYVR;2005-05-31 03:00;METAR CYVR 310300Z 14007KT 15SM FEW035 BKN057 BKN076 17/11 A3001 RMK SC1SC6AC1 SLP162=

CYVR;2005-05-31 04:00;METAR CYVR 310400Z 10008KT 15SM FEW040 BKN059 BKN076 16/11 A3001 RMK SC1SC5AC1 SLP161=

CYVR;2005-05-31 06:00;METAR CYVR 310600Z 11009KT 15SM BKN047 16/10 A3000 RMK SC6 SLP159=

CYVR;2005-05-31 08:00;METAR CYVR 310800Z 12014KT 15SM BKN052 OVC075 14/09 A2998 RMK SC6AC2 SLP153=

CYVR;2005-05-31 09:00;METAR CYVR 310900Z 10013KT 15SM BKN051 OVC072 13/09 A2998 RMK SC6AC2 SLP153=

CYVR;2005-05-31 10:00;METAR CYVR 311000Z 11012KT 15SM BKN029 OVC069 13/09 A2998 RMK SC6AC2 SLP154=

CYVR;2005-05-31 11:00;METAR CYVR 311100Z 11012KT 15SM BKN044 OVC100 13/09 A2998 RMK SC6AC2 SLP154=

CYVR;2005-05-31 12:00;METAR CYVR 311200Z 09014KT 15SM BKN048 OVC100 13/09 A2998 RMK SC6AC2 SLP152=

CYVR;2005-05-31 13:00;METAR CYVR 311300Z 10009KT 12SM -SHRA BKN036 BKN052 OVC100 13/10 A2999 RMK SC5SC2AC2 SLP156=

CYVR;2005-05-31 14:00;METAR CYVR 311400Z 10013KT 8SM -RA FEW035 BKN059 OVC100 12/10 A2998 RMK SC2SC3AC2 SLP154=

CYVR;2005-05-31 14:24;SPECI CYVR 311424Z 11009KT 6SM -RA BR BKN013 BKN021 OVC035 RMK SC5SC2SC2 VIS N QUAD 4 SM=

CYVR;2005-05-31 14:32;SPECI CYVR 311432Z 11009KT 5SM -RA BR BKN006 BKN012 OVC020 RMK SC5SC2SC2 VIS N QUAD 4 SM=

CYVR;2005-05-31 14:46;SPECI CYVR 311446Z 14011KT 5SM -RA BR SCT006 BKN013 OVC020 RMK SC4SC2SC2=

CYVR;2005-05-31 15:00;METAR CYVR 311500Z 15009KT 6SM -RA BR SCT008 SCT013 OVC019 12/11 A2998 RMK SC3SC1SC4 RAG VIS N QUAD 4 SM SLP154=

CYVR;2005-05-31 15:06;SPECI CYVR 311506Z 15008KT 5SM -RA BR SCT007 BKN014 OVC019 RMK SC3SC3SC2 VIS N QUAD 4 SM=

CYVR;2005-05-31 15:23;SPECI CYVR 311523Z 17007KT 5SM -RA BR BKN008 BKN014 OVC019 RMK SC5SC2SC1 VIS N QUAD 4 SM=

CYVR;2005-05-31 15:38;SPECI CYVR 311538Z 18007KT 6SM -RA BR SCT008 BKN014 OVC019 RMK SC4SC2SC2=

CYVR;2005-05-31 15:45;SPECI CYVR 311545Z 18007KT 6SM -RA BR SCT008 BKN016 OVC021 RMK SC3SC3SC2=

CYVR;2005-05-31 16:00;METAR CYVR 311600Z 18008KT 6SM -RA BR FEW008 BKN016 OVC020 13/11 A2998 RMK SC2SC3SC2 VIS N - NE QUAD 4 SM SLP153=

CYVR;2005-05-31 16:12;SPECI CYVR 311612Z 20009KT 7SM -RA VCFG FEW008 SCT016 BKN035 OVC050 RMK SF2SC2SC3SC2 VIS N - NE QUAD 5 SM=

CYVR;2005-05-31 17:00;METAR CYVR 311700Z 20012KT 10SM -RA FEW015 BKN044 OVC055 13/12 A2998 RMK SF2SC4SC2 SLP154=

CYVR;2005-05-31 18:00;METAR CYVR 311800Z 19009KT 12SM -RA SCT010 BKN041 OVC055 14/11 A2999 RMK CF3SC2SC2 SLP156=

CYVR;2005-05-31 19:00;METAR CYVR 311900Z 19007KT 12SM -RA FEW010 BKN049 OVC056 14/11 A2999 RMK CF2SC4SC2 PCPN VRY LGT SLP156=

CYVR;2005-05-31 19:27;SPECI CYVR 311927Z 18008KT 12SM FEW015 OVC055 RMK CF2SC6=

CYVR;2005-05-31 19:37;SPECI CYVR 311937Z 18007KT 15SM -SHRA FEW015 OVC055 RMK CF2SC6 PCPN VRY LGT / VIS N QUAD 12 SM=

CYVR;2005-05-31 20:00;METAR CYVR 312000Z 18007KT 15SM -SHRA FEW020 SCT055 OVC062 15/11 A2998 RMK CU2SC2SC4 PCPN VRY LGT SLP154=

CYVR;2005-05-31 22:00;METAR CYVR 312200Z 14007KT 15SM -SHRA BKN013 OVC041 15/12 A2998 RMK SC5SC3 PCPN VRY LGT SLP154=

CYVR;2005-05-31 22:16;SPECI CYVR 312216Z 15007KT 6SM -SHRA BKN015 OVC037 RMK SC5SC3 VIS NE QUAD LWR 3 SM=

CYVR;2005-05-31 22:17;SPECI CYVR 312217Z 15007KT 5SM -SHRA BR BKN013 OVC037 RMK SC5SC3 VIS NE QUAD LWR 3 SM=

CYVR;2005-05-31 22:23;SPECI CYVR 312223Z 15005KT 6SM -SHRA VCFG FEW012 BKN016 OVC044 RMK SC2SC3SC2 VIS NE QUAD LWR 3 SM=

CYVR;2005-05-31 23:00;METAR CYVR 312300Z 12004KT 10SM -SHRA SCT016 BKN029 OVC045 14/12 A2998 RERA RMK SC3SC3SC2 VIS LWR NE QUAD 7 SM SLP152=

CYVR;2005-05-31 23:20;SPECI CYVR 312320Z 12003KT 15SM FEW013 BKN019 BKN045 RMK CF1SC5SC2=

CYVR;2005-05-31 23:53;SPECI CYVR 312353Z 08007KT 15SM FEW015 SCT019 BKN045 BKN082 RMK CF1SC3SC2AC1=

CYVR;2005-06-01 00:00;METAR CYVR 010000Z 07006KT 15SM FEW015 SCT020 SCT045 BKN075 15/13 A2996 RMK CF2SC2SC1AC3 SLP147=

CYVR;2005-06-01 00:25;SPECI CYVR 010025Z 06005KT 15SM -SHRA FEW015 SCT025 BKN075 RMK CF1SC2AC2=

CYVR;2005-06-01 01:00;METAR CYVR 010100Z 07006KT 15SM -SHRA FEW025 FEW040CB BKN073 16/13 A2994 RMK CF2CB1AC3 CB DIST NE QUAD / PCPN VRY LGT SLP140=

CYVR;2005-06-01 01:05;SPECI CYVR 010105Z 08006KT 15SM FEW025 FEW040CB BKN077 RMK CF2CB1AC3=

CYVR;2005-06-01 02:00;METAR CYVR 010200Z 11003KT 15SM FEW035 SCT053 BKN110 17/12 A2993 RMK SC2SC2AC2 SLP136=

CYVR;2005-06-01 03:00;METAR CYVR 010300Z 09006KT 15SM BKN042 BKN077 OVC100 16/12 A2993 RMK SC5AC1AC1 SLP136=

CYVR;2005-06-01 03:41;SPECI CYVR 010341Z 20005KT 15SM -SHRA SCT040 BKN059 OVC078 RMK SC3SC3AC2=

CYVR;2005-06-01 04:00;METAR CYVR 010400Z 25003KT 8SM -SHRA BKN038 BKN060 16/11 A2993 RMK SC6SC2 SLP136=

CYVR;2005-06-01 05:00;METAR CYVR 010500Z 16007KT 8SM -RA BKN034 OVC067 14/12 A2994 RMK SC5AC3 SLP140=

CYVR;2005-06-01 05:32;SPECI CYVR 010532Z 00000KT 10SM SCT037 BKN057 OVC090 RMK SC3SC2AC2=

CYVR;2005-06-01 05:41;SPECI CYVR 010541Z 06002KT 10SM -SHRA SCT037 BKN063 OVC082 RMK SC3SC2AC2=

CYVR;2005-06-01 06:00;METAR CYVR 010600Z 04002KT 10SM -SHRA SCT037 BKN071 OVC088 13/11 A2994 RMK SC4AC2AC2 PCPN VRY LGT SLP140=

CYVR;2005-06-01 06:37;SPECI CYVR 010637Z 09003KT 10SM -SHRA FEW030 BKN047 OVC072 RMK CF2SC4AC2 PCPN VRY LGT CB EMBD DIST LTNG NW=

CYVR;2005-06-01 06:53;SPECI CYVR 010653Z 15002KT 12SM FEW020 BKN048 OVC070 RMK CF2SC4AC2 CB EMBD DIST LTNG W=

CYVR;2005-06-01 07:36;SPECI CYVR 010736Z 31013KT 12SM -SHRA SCT010 BKN044 OVC075 RMK SC3SC4AC1=

CYVR;2005-06-01 09:00;METAR CYVR 010900Z 34002KT 8SM -SHRA SCT014 OVC041 12/11 A2995 RMK SC4SC4 SLP142=

CYVR;2005-06-01 10:00;METAR CYVR 011000Z 28010KT 12SM -RA FEW011 SCT025 BKN056 OVC079 13/11 A2995 RMK SC2SC1SC3AC2 SLP143=

CYVR;2005-06-01 11:00;METAR CYVR 011100Z 21007KT 12SM -RA SCT031 BKN043 OVC061 13/10 A2995 RMK SC3SC3SC2 SLP142=

CYVR;2005-06-01 11:22;SPECI CYVR 011122Z 22008KT 12SM SCT022 BKN064 OVC090 RMK SC3SC2AC2=

CYVR;2005-06-01 12:00;METAR CYVR 011200Z 21009KT 15SM SCT022 BKN061 OVC100 13/10 A2995 RMK SC3SC3AC2 SLP142=

CYVR;2005-06-01 13:00;METAR CYVR 011300Z 18006KT 15SM SCT019 BKN054 OVC100 13/11 A2995 RMK SC4SC2AC2 SLP142=

CYVR;2005-06-01 14:00;METAR CYVR 011400Z 20007KT 20SM SCT018 BKN040 BKN060 BKN100 13/11 A2995 RMK SC3SC2SC2AC1 SLP143=

CYVR;2005-06-01 15:00;METAR CYVR 011500Z 25011KT 20SM FEW020TCU SCT040 BKN060 15/12 A2996 RMK TCU2SC2SC2 SLP145=

CYVR;2005-06-01 16:00;METAR CYVR 011600Z 28012KT 20SM FEW020TCU BKN067 15/12 A2996 RMK TCU2AC3 SLP147=

CYVR;2005-06-01 17:00;METAR CYVR 011700Z 28013KT 20SM FEW020 BKN061 16/12 A2998 RMK CU2SC2 SLP151=

CYVR;2005-06-01 18:00;METAR CYVR 011800Z 26017KT 20SM FEW020TCU SCT060 BKN080 16/12 A2998 RMK TCU2SC2AC1 SLP152=

CYVR;2005-06-01 19:00;METAR CYVR 011900Z 25013KT 30SM FEW025TCU SCT080 17/12 A2999 RMK TCU2AC2 SLP156=

CYVR;2005-06-01 20:00;METAR CYVR 012000Z 25011G16KT 30SM FEW030TCU SCT080 SCT120 18/13 A3000 RMK TCU2AC2AC1 SLP158=

CYVR;2005-06-01 21:00;METAR CYVR 012100Z 23010G16KT 30SM FEW030TCU FEW080 SCT120 17/10 A3000 RMK TCU2AC1AC1 SLP158=

CYVR;2005-06-01 22:00;METAR CYVR 012200Z 21009G18KT 30SM FEW030 FEW100 SCT240 18/10 A3000 RMK CU2AC1CI1 TCU ASOCTD SLP159=

CYVR;2005-06-01 23:00;METAR CYVR 012300Z 21007KT 30SM FEW035 FEW080 SCT240 18/10 A3001 RMK CU2AC1CI1 TCU ASOCTD SLP161=

CYVR;2005-06-02 00:00;METAR CYVR 020000Z 23007KT 30SM FEW035 SCT060 BKN240 18/10 A3001 RMK CU2SC2CI2 SLP161=

CYVR;2005-06-02 01:00;METAR CYVR 020100Z 26008KT 30SM FEW035 SCT070 BKN240 17/10 A3001 RMK CU2AC2CI2 SLP163=

CYVR;2005-06-02 02:00;METAR CYVR 020200Z 27012KT 30SM FEW035 SCT075 BKN240 16/12 A3001 RMK CU2AC2CI2 SLP164=

CYVR;2005-06-02 03:00;METAR CYVR 020300Z 27011KT 30SM FEW035 SCT075 BKN240 16/11 A3001 RMK CU1AC2CI2 SLP164=

CYVR;2005-06-02 04:00;METAR CYVR 020400Z 29013KT 30SM FEW035 SCT080 BKN240 15/10 A3002 RMK CF1AC2CI3 SLP165=

CYVR;2005-06-02 05:00;METAR CYVR 020500Z 29014KT 30SM FEW035 BKN080 BKN240 15/11 A3003 RMK CF1AC4CI2 SLP168=

CYVR;2005-06-02 06:00;METAR CYVR 020600Z 29014KT 30SM FEW040 BKN085 BKN240 15/11 A3003 RMK SC1AC4CI1 SLP168=

CYVR;2005-06-02 07:00;METAR CYVR 020700Z 29014KT 30SM SCT050 BKN085 BKN240 15/11 A3004 RMK SC3AC2CI1 SLP171=

CYVR;2005-06-02 09:00;METAR CYVR 020900Z 29012KT 20SM FEW030 BKN081 14/11 A3004 RMK CF1AC6 SLP172=

CYVR;2005-06-02 11:00;METAR CYVR 021100Z 28013KT 20SM BKN077 14/11 A3004 RMK AC7 SLP172=

CYVR;2005-06-02 12:00;METAR CYVR 021200Z 28013KT 20SM FEW025 BKN076 14/11 A3004 RMK SF1AC6 SLP171=

CYVR;2005-06-02 13:00;METAR CYVR 021300Z 29011KT 20SM FEW025 BKN082 BKN140 14/11 A3004 RMK SF2AC3AC2 SLP171=

CYVR;2005-06-02 14:00;METAR CYVR 021400Z 28011KT 20SM FEW011 FEW025 BKN080 BKN150 14/10 A3003 RMK CF1SC1AC3AC1 SLP170=

CYVR;2005-06-02 15:00;METAR CYVR 021500Z 30008KT 20SM SCT018 BKN080 BKN210 14/11 A3004 RMK CU4AC2CI1 SLP172=

CYVR;2005-06-02 16:00;METAR CYVR 021600Z 29007KT 20SM BKN017 BKN055 BKN220 15/11 A3004 RMK SC5SC1CI0 TCU EMBD SLP174=

CYVR;2005-06-02 17:00;METAR CYVR 021700Z 27011KT 20SM BKN016 BKN055 BKN220 15/11 A3004 RMK SC5SC1CI0 TCU EMBD SLP173=

CYVR;2005-06-02 17:51;SPECI CYVR 021751Z 27011KT 20SM FEW018TCU BKN057 BKN220 RMK TCU2SC3CI0=

CYVR;2005-06-02 18:00;METAR CYVR 021800Z 28010KT 20SM FEW019TCU BKN057 BKN240 16/12 A3004 RMK TCU2SC3CI1 SLP173=

CYVR;2005-06-02 19:00;METAR CYVR 021900Z 28007KT 20SM FEW020TCU BKN057 BKN240 16/11 A3004 RMK TCU2SC3CI1 SLP172=

CYVR;2005-06-02 20:00;METAR CYVR 022000Z 27007KT 20SM FEW025 FEW070 BKN240 17/12 A3004 RMK CU2AC1CI1 SLP171=

CYVR;2005-06-02 22:00;METAR CYVR 022200Z 29005KT 30SM FEW025 FEW080 BKN240 18/11 A3003 RMK CU1AC1CI1 SLP170=

CYVR;2005-06-02 23:00;METAR CYVR 022300Z 26005KT 30SM FEW040 BKN080 BKN240 17/12 A3003 RMK CU2AC3CI1 SLP169=

CYVR;2005-06-03 00:00;METAR CYVR 030000Z 25004KT 30SM FEW040 BKN075 BKN240 17/11 A3002 RMK CU2AC4CI1 TCU ASOCTD SLP165=

CYVR;2005-06-03 01:00;METAR CYVR 030100Z 23004KT 20SM FEW045TCU BKN075 BKN240 16/11 A3001 RMK TCU2AC4CI1 SLP163=

CYVR;2005-06-03 02:00;METAR CYVR 030200Z 23003KT 20SM FEW040 BKN076 16/11 A3001 RMK CF2AC6 SLP162=

CYVR;2005-06-03 03:00;METAR CYVR 030300Z 27002KT 20SM FEW045 BKN076 16/10 A3000 RMK CF1AC6 SLP160=

CYVR;2005-06-03 04:00;METAR CYVR 030400Z 00000KT 20SM FEW050 BKN079 OVC240 16/11 A3000 RMK CF1AC6CS1 SLP159=

CYVR;2005-06-03 05:00;METAR CYVR 030500Z 00000KT 20SM FEW050 BKN081 OVC240 16/10 A3000 RMK CF1AC6CS2 SLP160=

CYVR;2005-06-03 06:00;METAR CYVR 030600Z 14003KT 20SM BKN060 BKN085 16/11 A3000 RMK SC5AC2 SLP160=

CYVR;2005-06-03 07:00;METAR CYVR 030700Z 13004KT 20SM FEW055 BKN083 16/11 A3000 RMK SC2AC5 SLP159=

CYVR;2005-06-03 08:00;METAR CYVR 030800Z 08006KT 20SM SCT050 OVC083 15/11 A3000 RMK SC3AC5 SLP158=

CYVR;2005-06-03 09:00;METAR CYVR 030900Z 09008KT 20SM SCT042 OVC082 14/11 A2999 RMK SC4AC4 SLP157=

CYVR;2005-06-03 10:00;METAR CYVR 031000Z 10008KT 20SM BKN043 OVC080 14/11 A3000 RMK SC6AC2 SLP159=

CYVR;2005-06-03 11:00;METAR CYVR 031100Z 10011KT 20SM BKN043 OVC050 13/10 A3000 RMK SC6SC2 SLP159=

CYVR;2005-06-03 12:00;METAR CYVR 031200Z 10008KT 20SM SCT034 OVC045 13/10 A3001 RMK SC3SC5 SLP161=

CYVR;2005-06-03 13:00;METAR CYVR 031300Z 11009KT 12SM FEW012 SCT032 OVC043 13/10 A3001 RMK SF1SC2SC5 VIRGA SLP161=

CYVR;2005-06-03 15:00;METAR CYVR 031500Z 10012KT 15SM FEW016 BKN026 BKN050 13/10 A3001 RMK SF2SC5SC1 VIS HIER SW SLP163=

CYVR;2005-06-03 16:00;METAR CYVR 031600Z 12012KT 15SM FEW015 BKN025 BKN050 13/10 A3002 RMK SC2SC5SC1 SLP166=

CYVR;2005-06-03 16:44;SPECI CYVR 031644Z 10010KT 15SM -SHRA FEW015 BKN023 BKN050 OVC080 RMK SF1SC5SC1AC1 VIS NE - E 5=

CYVR;2005-06-03 17:00;METAR CYVR 031700Z 10010KT 15SM -SHRA FEW015 BKN023 BKN050 OVC080 12/10 A3002 RMK SF1SC5SC1AC1 VIS LWR NW - NE SLP167=

CYVR;2005-06-03 17:35;SPECI CYVR 031735Z 11011KT 15SM FEW015 BKN022 BKN050 BKN090 RMK SF1SC4SC2AC1 VIS LWR NW - NE=

CYVR;2005-06-03 18:00;METAR CYVR 031800Z 10010KT 15SM FEW017 BKN025 BKN045 BKN090 14/10 A3002 RMK SF1SC4SC2AC1 SLP167=

CYVR;2005-06-03 19:00;METAR CYVR 031900Z 10009KT 15SM FEW016 BKN025 BKN040 BKN090 15/10 A3003 RMK CU2SC4SC1AC1 SLP168=

CYVR;2005-06-03 20:00;METAR CYVR 032000Z 14008KT 20SM FEW018 SCT025 BKN040 BKN090 17/09 A3002 RMK CU2CU2SC2AC2 SLP167=

CYVR;2005-06-03 21:00;METAR CYVR 032100Z 10010KT 20SM SCT025 BKN040 BKN100 16/09 A3003 RMK CU3SC2AC2 SLP169=

CYVR;2005-06-03 22:00;METAR CYVR 032200Z 12010KT 20SM FEW025 BKN045 BKN080 16/09 A3003 RMK CU2SC4AC2 SLP168=

CYVR;2005-06-03 23:00;METAR CYVR 032300Z 11013KT 20SM FEW025 SCT040 BKN055 BKN080 17/09 A3002 RMK CU1SC2SC2AC2 SLP167=

CYVR;2005-06-04 00:00;METAR CYVR 040000Z 14010KT 20SM FEW030 SCT040 BKN059 BKN080 17/08 A3002 RMK CU1SC2SC2AC1 SLP165=

CYVR;2005-06-04 01:00;METAR CYVR 040100Z 12013KT 20SM FEW035 BKN060 BKN080 16/07 A3001 RMK CU2SC4AC1 SLP163=

CYVR;2005-06-04 02:00;METAR CYVR 040200Z 14012KT 20SM FEW035 SCT060 BKN210 16/07 A3001 RMK CU2SC2CI2 SLP163=

CYVR;2005-06-04 03:00;METAR CYVR 040300Z 12013KT 20SM FEW035 SCT060 BKN210 15/07 A3001 RMK CU1SC2CI2 SLP161=

CYVR;2005-06-04 04:00;METAR CYVR 040400Z 11013KT 20SM FEW035 BKN060 BKN210 15/07 A3001 RMK CF1SC5CI1 SLP163=

CYVR;2005-06-04 05:00;METAR CYVR 040500Z 10015KT 20SM FEW030 SCT070 BKN220 14/08 A3002 RMK CF1AC3CI1 SLP166=

CYVR;2005-06-04 06:00;METAR CYVR 040600Z 11008KT 20SM SCT070 SCT220 12/07 A3002 RMK AC3CI1 SLP165=

CYVR;2005-06-04 07:00;METAR CYVR 040700Z 09009KT 20SM FEW080 SCT220 11/07 A3002 RMK AC2CI1 SLP167=

CYVR;2005-06-04 08:00;METAR CYVR 040800Z 10010KT 20SM SCT082 12/07 A3002 RMK AC3 SLP166=

CYVR;2005-06-04 09:00;METAR CYVR 040900Z 09010KT 20SM SCT082 11/07 A3002 RMK AC3 SLP166=

CYVR;2005-06-04 10:00;METAR CYVR 041000Z 08010KT 20SM BKN045 BKN080 11/08 A3002 RMK SC5AC1 SLP166=

CYVR;2005-06-04 11:00;METAR CYVR 041100Z 09008KT 20SM BKN048 BKN060 11/08 A3002 RMK SC6SC1 SLP165=

CYVR;2005-06-04 12:00;METAR CYVR 041200Z 08008KT 15SM SCT052 BKN077 11/08 A3001 RMK SC4AC2 SLP162=

CYVR;2005-06-04 13:00;METAR CYVR 041300Z 09009KT 20SM FEW030 BKN056 BKN220 11/08 A3001 RMK CF1SC5CI2 SLP163=

CYVR;2005-06-04 14:00;METAR CYVR 041400Z 10008KT 20SM FEW040 BKN055 BKN220 13/09 A3001 RMK SF1SC4CI1 SLP162=

CYVR;2005-06-04 15:00;METAR CYVR 041500Z 09007KT 20SM FEW030 FEW040 SCT055 BKN220 13/09 A3000 RMK SF1SF1SC2CI1 SLP160=

CYVR;2005-06-04 16:00;METAR CYVR 041600Z 09010KT 20SM FEW020 FEW040 BKN060 BKN220 15/10 A2999 RMK CU2CU1SC2CI1 SLP157=

CYVR;2005-06-04 17:00;METAR CYVR 041700Z 11009KT 20SM FEW025 SCT040TCU SCT080 BKN220 15/09 A2998 RMK CU2TCU2AC1CI1 SLP153=

CYVR;2005-06-04 18:00;METAR CYVR 041800Z 13009KT 20SM FEW035 SCT100 BKN220 16/08 A2998 RMK CU2AC1CS1 TCU ASOCTD SLP151=

CYVR;2005-06-04 19:00;METAR CYVR 041900Z 17007KT 20SM FEW035TCU SCT120 BKN220 16/08 A2996 RMK TCU2AC2CS1 SLP146=

CYVR;2005-06-04 20:00;METAR CYVR 042000Z 20009KT 20SM FEW035TCU FEW120 BKN230 17/08 A2995 RMK TCU2AC1CS2 SLP141=

CYVR;2005-06-04 21:00;METAR CYVR 042100Z 19010KT 20SM FEW040TCU FEW120 BKN230 18/07 A2993 RMK TCU2AC1CS2 SLP136=

CYVR;2005-06-04 22:00;METAR CYVR 042200Z 21012KT 20SM FEW040 BKN240 18/08 A2992 RMK CU2CS3 SLP131=

CYVR;2005-06-04 23:00;METAR CYVR 042300Z 20009KT 20SM FEW040 BKN240 18/07 A2990 RMK CU2CS2 SLP125=

CYVR;2005-06-05 00:00;METAR CYVR 050000Z 20010G16KT 20SM FEW040 BKN240 18/07 A2988 RMK CU2CS2 SLP118=

CYVR;2005-06-05 01:00;METAR CYVR 050100Z 20012KT 20SM FEW040 SCT080 BKN220 18/07 A2985 RMK CU2AC2CS2 SLP110=

CYVR;2005-06-05 02:00;METAR CYVR 050200Z 20009KT 20SM FEW045 SCT080 BKN220 17/07 A2984 RMK CU1AC2CC1 SLP105=

CYVR;2005-06-05 03:00;METAR CYVR 050300Z 19004KT 20SM FEW045 SCT080 BKN220 16/06 A2983 RMK CU1AC3CC1 SLP101=

CYVR;2005-06-05 04:00;METAR CYVR 050400Z 15005KT 20SM FEW045 SCT089 BKN220 16/06 A2982 RMK CU1AC3CC1 SLP099=

CYVR;2005-06-05 05:00;METAR CYVR 050500Z 13005KT 20SM FEW083 SCT220 15/07 A2982 RMK AC2CC1 SLP098=

CYVR;2005-06-05 06:00;METAR CYVR 050600Z 10005KT 20SM FEW083 SCT220 12/07 A2981 RMK AC2CI1 SLP095=

CYVR;2005-06-05 07:00;METAR CYVR 050700Z 10005KT 20SM FEW085 SCT220 12/08 A2980 RMK AC2CI1 SLP091=

CYVR;2005-06-05 08:00;METAR CYVR 050800Z 11007KT 20SM FEW085 SCT210 12/08 A2979 RMK AC2CI2 SLP089=

CYVR;2005-06-05 09:00;METAR CYVR 050900Z 13008KT 20SM FEW160 BKN210 13/08 A2978 RMK AC2CI3 SLP084=

CYVR;2005-06-05 10:00;METAR CYVR 051000Z 07005KT 20SM FEW100 BKN200 11/08 A2977 RMK AC2CI4 SLP082=

CYVR;2005-06-05 11:00;METAR CYVR 051100Z 09006KT 20SM SCT100 BKN200 12/08 A2977 RMK AC4CI2 SLP080=

CYVR;2005-06-05 12:00;METAR CYVR 051200Z 11006KT 20SM BKN100 OVC220 11/08 A2975 RMK AC6CS2 SLP075=

CYVR;2005-06-05 13:00;METAR CYVR 051300Z 09005KT 20SM FEW030 BKN110 OVC220 11/08 A2975 RMK CU1AC6CS2 SLP075=

CYVR;2005-06-05 14:00;METAR CYVR 051400Z 10005KT 15SM BKN054 OVC110 12/09 A2975 RMK SC5AC3 SLP073=

CYVR;2005-06-05 15:00;METAR CYVR 051500Z 06006KT 15SM BKN056 OVC095 13/09 A2974 RMK SC5AC3 SLP072=

CYVR;2005-06-05 16:00;METAR CYVR 051600Z 10003KT 15SM FEW018 BKN043 OVC095 13/09 A2976 RMK SC2SC2AC3 SLP078=

CYVR;2005-06-05 17:00;METAR CYVR 051700Z 31003KT 15SM BKN026 OVC044 13/09 A2975 RMK SC6SC2 SLP074=

CYVR;2005-06-05 17:52;SPECI CYVR 051752Z 27005KT 10SM -SHRA BKN018 OVC043 RMK SC6SC2=

CYVR;2005-06-05 18:00;METAR CYVR 051800Z 27007KT 10SM -SHRA BKN024 OVC047 13/09 A2976 RMK SC5SC3 SLP077=

CYVR;2005-06-05 19:00;METAR CYVR 051900Z 32004KT 8SM -RA BKN019 OVC054 13/10 A2976 RMK SC6SC2 SLP079=

CYVR;2005-06-05 20:00;METAR CYVR 052000Z 28003KT 8SM -RA BKN017 OVC051 13/10 A2978 RMK SC7SC1 SLP085=

CYVR;2005-06-05 21:00;METAR CYVR 052100Z 15011G16KT 8SM -RA SCT016 BKN039 OVC050 11/09 A2979 RMK SC3SC3SC2 SLP089=

CYVR;2005-06-05 23:00;METAR CYVR 052300Z 13008KT 8SM -RA FEW012 SCT035 OVC052 12/09 A2981 RMK CF2SC2SC4 SLP094=

CYVR;2005-06-05 23:42;SPECI CYVR 052342Z 13012KT 10SM FEW015 BKN026 OVC050 RMK CF2SC5SC2=

CYVR;2005-06-06 00:00;METAR CYVR 060000Z 12012KT 10SM FEW018 SCT030 BKN062 OVC090 13/08 A2981 RMK SC2SC2SC2AC2 SLP096=

CYVR;2005-06-06 01:00;METAR CYVR 060100Z 13011KT 10SM FEW020 FEW030 BKN056 OVC090 13/07 A2981 RMK SC1SC2SC2AC3 SLP094=

CYVR;2005-06-06 02:00;METAR CYVR 060200Z 08008KT 15SM FEW025 FEW055 BKN075 BKN160 OVC220 13/09 A2981 RMK SF1SC2AC2AC1CI1 TR SF SLP095=

CYVR;2005-06-06 03:00;METAR CYVR 060300Z 07010KT 15SM FEW025 SCT068 BKN160 BKN220 12/09 A2981 RMK SC1AC2AC1CI1 SLP095=

CYVR;2005-06-06 04:00;METAR CYVR 060400Z 08008KT 15SM FEW035 SCT067 BKN160 BKN220 12/09 A2981 RMK SC1AC2AC1CI1 SLP096=

CYVR;2005-06-06 05:00;METAR CYVR 060500Z 08005KT 15SM SCT035 BKN060 OVC160 11/08 A2983 RMK SC3SC2AC1 SLP101=

CYVR;2005-06-06 06:00;METAR CYVR 060600Z 10007KT 15SM FEW035 SCT067 OVC086 11/08 A2983 RMK SC2AC2AC3 SLP103=

CYVR;2005-06-06 07:00;METAR CYVR 060700Z 09008KT 15SM FEW035 OVC087 11/08 A2984 RMK SC2AC5 SLP104=

CYVR;2005-06-06 08:00;METAR CYVR 060800Z 09005KT 15SM FEW035 BKN066 10/08 A2984 RMK SC2AC2 SLP104=

CYVR;2005-06-06 09:00;METAR CYVR 060900Z 10006KT 15SM FEW035 BKN089 09/08 A2984 RMK SC2AC3 SLP106=

CYVR;2005-06-06 10:00;METAR CYVR 061000Z 09006KT 15SM FEW035 BKN058 OVC088 10/08 A2985 RMK SC2SC3AC2 SLP109=

CYVR;2005-06-06 11:00;METAR CYVR 061100Z 10005KT 15SM FEW035 BKN055 OVC080 11/08 A2985 RMK SC2SC3AC2 SLP110=

CYVR;2005-06-06 12:00;METAR CYVR 061200Z 09004KT 15SM FEW035 SCT056 BKN083 10/08 A2986 RMK SC1SC2AC3 SLP113=

CYVR;2005-06-06 13:00;METAR CYVR 061300Z 05005KT 15SM FEW035 BKN056 10/08 A2987 RMK SC2SC2 SLP116=

CYVR;2005-06-06 14:00;METAR CYVR 061400Z 03004KT 15SM BKN041 BKN080 12/09 A2988 RMK SC6AC1 TCU TOPS W SLP118=

CYVR;2005-06-06 15:00;METAR CYVR 061500Z 10005KT 15SM FEW027 SCT047 14/09 A2988 RMK CU1SC3 TCU TOPS W AND NW SLP119=

CYVR;2005-06-06 16:00;METAR CYVR 061600Z 10007KT 20SM BKN030 BKN050 15/08 A2989 RMK SC5SC2 SLP122=

CYVR;2005-06-06 17:00;METAR CYVR 061700Z 11004KT 20SM BKN035 BKN050 BKN230 15/07 A2989 RMK SC6SC1CI1 TCU EMBD SLP122=

CYVR;2005-06-06 18:00;METAR CYVR 061800Z 17005KT 20SM BKN038 BKN230 16/08 A2990 RMK SC6CI1 TCU EMBD SLP125=

CYVR;2005-06-06 20:00;METAR CYVR 062000Z 26010KT 20SM BKN036 BKN230 15/08 A2992 RMK SC5CI1 TCU EMBD SLP132=

CYVR;2005-06-06 21:00;METAR CYVR 062100Z 25010KT 20SM FEW040 SCT090 SCT230 16/09 A2992 RMK SC2AC1CI1 TCU EMBD SLP133=

CYVR;2005-06-06 22:00;METAR CYVR 062200Z 25009G15KT 20SM FEW040 SCT230 17/07 A2992 RMK SC2CI1 SLP133=

CYVR;2005-06-06 23:00;METAR CYVR 062300Z 28010KT 20SM FEW045 BKN220 16/07 A2991 RMK SC1CI2 TCU EMBD SLP129=

CYVR;2005-06-07 00:00;METAR CYVR 070000Z 28008KT 20SM FEW045 BKN220 17/07 A2991 RMK SC1CI2 TCU EMBD SLP130=

CYVR;2005-06-07 01:00;METAR CYVR 070100Z 28006KT 20SM FEW045 BKN220 17/06 A2991 RMK SC1CI2 SLP128=

CYVR;2005-06-07 02:00;METAR CYVR 070200Z 23004KT 30SM FEW045TCU FEW050 BKN220 17/05 A2992 RMK TCU1SC1CI2 TR SC SLP131=

CYVR;2005-06-07 04:00;METAR CYVR 070400Z 00000KT 30SM FEW045 FEW160 FEW220 15/07 A2993 RMK SC1AC1CI1 TR SC SLP137=

CYVR;2005-06-07 05:00;METAR CYVR 070500Z 18004KT 30SM FEW045 FEW220 15/08 A2994 RMK SC1CI1 TR SC SLP139=

CYVR;2005-06-07 06:00;METAR CYVR 070600Z 10005KT 30SM FEW180 12/06 A2996 RMK AC2 SLP144=

CYVR;2005-06-07 07:00;METAR CYVR 070700Z 11005KT 30SM SCT170 13/08 A2995 RMK AC2 SLP143=

CYVR;2005-06-07 08:00;METAR CYVR 070800Z 09005KT 30SM FEW170 12/08 A2995 RMK AC1 SLP142=

CYVR;2005-06-07 09:00;METAR CYVR 070900Z 09005KT 20SM FEW170 SCT240 10/06 A2995 RMK AC2CI1 SLP141=

CYVR;2005-06-07 10:00;METAR CYVR 071000Z 07005KT 20SM FEW120 SCT220 11/07 A2995 RMK AC1CI1 SLP143=

CYVR;2005-06-07 11:00;METAR CYVR 071100Z 08004KT 20SM SCT220 11/07 A2995 RMK CI3 SLP142=

CYVR;2005-06-07 12:00;METAR CYVR 071200Z 04004KT 20SM FEW120 BKN220 10/07 A2995 RMK AC1CI2 SLP142=

CYVR;2005-06-07 13:00;METAR CYVR 071300Z 06005KT 20SM FEW120 BKN220 10/07 A2994 RMK AC1CI2 SLP139=

CYVR;2005-06-07 14:00;METAR CYVR 071400Z 09004KT 20SM FEW100 OVC180 12/09 A2994 RMK AC1AS4 SLP138=

CYVR;2005-06-07 15:00;METAR CYVR 071500Z 14003KT 20SM FEW090 BKN180 13/09 A2993 RMK AC1AS2 SLP134=

CYVR;2005-06-07 16:00;METAR CYVR 071600Z 10003KT 20SM FEW018 FEW035 OVC220 14/09 A2993 RMK CU1SC2CS4 SLP135=

CYVR;2005-06-07 17:00;METAR CYVR 071700Z 16004KT 12SM BKN018 BKN035 OVC220 14/09 A2993 RMK SC5SC2CS2 SLP134=

CYVR;2005-06-07 18:00;METAR CYVR 071800Z 15002KT 12SM BKN018 BKN035 OVC190 14/09 A2992 RMK SC6SC2AS1 SLP133=

CYVR;2005-06-07 19:00;METAR CYVR 071900Z 23003KT 12SM SCT020 BKN038 OVC120 15/10 A2992 RMK SC3SC3AS2 SLP131=

CYVR;2005-06-07 20:00;METAR CYVR 072000Z 25003KT 10SM BKN028 OVC110 16/10 A2991 RMK SC5AC3 SLP129=

CYVR;2005-06-07 21:00;METAR CYVR 072100Z 24006KT 10SM SCT022 BKN036 OVC100 15/10 A2991 RMK SC3SC2AC3 SLP129=

CYVR;2005-06-07 22:00;METAR CYVR 072200Z 24006KT 10SM BKN023 BKN080 OVC110 16/10 A2991 RMK SC5AC2AC2 SLP127=

CYVR;2005-06-07 23:00;METAR CYVR 072300Z 19006G15KT 12SM FEW025 BKN081 OVC100 16/09 A2990 RMK SC2AC4AC2 SLP125=

CYVR;2005-06-08 00:00;METAR CYVR 080000Z 13007KT 12SM SCT025 BKN038 OVC079 16/09 A2991 RMK SC3SC2AC2 SLP127=

CYVR;2005-06-08 00:07;SPECI CYVR 080007Z 13008KT 12SM -RA SCT025 BKN040 OVC079 RMK SC3SC2AC2=

CYVR;2005-06-08 00:25;SPECI CYVR 080025Z 12004KT 12SM SCT025 OVC089 RMK SC3AC5=

CYVR;2005-06-08 01:00;METAR CYVR 080100Z 11007KT 12SM FEW030 BKN055 OVC080 15/10 A2989 RMK SC2SC3AC2 SLP123=

CYVR;2005-06-08 01:28;SPECI CYVR 080128Z 12011KT 12SM -RA SCT038 BKN052 OVC090 RMK SC3SC3AC2=

CYVR;2005-06-08 02:00;METAR CYVR 080200Z 11011KT 12SM -RA SCT035 BKN061 OVC080 14/11 A2990 RMK SC3SC2AC2 PCPN VRY LGT SLP126=

CYVR;2005-06-08 03:00;METAR CYVR 080300Z 11013KT 10SM -RA FEW035 SCT048 BKN063 OVC080 13/11 A2990 RMK SC2SC2SC3AC2 SLP125=

CYVR;2005-06-08 04:00;METAR CYVR 080400Z 10010KT 8SM -RA VCFG FEW035 BKN043 OVC057 12/11 A2990 RMK SC2SC3SC2 SLP125=

CYVR;2005-06-08 05:00;METAR CYVR 080500Z 10009KT 8SM -RA FEW030 BKN042 OVC061 12/11 A2991 RMK SC2SC4SC2 SLP129=

CYVR;2005-06-08 06:00;METAR CYVR 080600Z 09010KT 8SM -RA FEW010 OVC042 12/11 A2991 RMK SC2SC6 SLP129=

CYVR;2005-06-08 07:00;METAR CYVR 080700Z 09010KT 8SM -RA SCT010 OVC035 12/10 A2991 RMK SC3SC5 SLP128=

CYVR;2005-06-08 08:00;METAR CYVR 080800Z 10009KT 8SM -RA VCFG FEW010 SCT016 OVC028 11/10 A2991 RMK SF2SC2SC4 VIS LWR N QUAD 4 SM SLP128=

CYVR;2005-06-08 08:23;SPECI CYVR 080823Z 10009KT 8SM -RA VCFG SCT007 BKN011 OVC028 RMK SF3SC3SC2 VIS LWR N QUAD 4 SM=

CYVR;2005-06-08 09:00;METAR CYVR 080900Z 09008KT 8SM -RA VCFG FEW007 SCT014 OVC029 11/10 A2991 RMK SF2SC2SC4 VIS LWR N QUAD 4 SM SLP128=

CYVR;2005-06-08 09:26;SPECI CYVR 080926Z 09008KT 8SM -RA FEW007 BKN013 OVC028 RMK SF2SC4SC2=

CYVR;2005-06-08 10:00;METAR CYVR 081000Z 09008KT 8SM -RA VCFG FEW007 BKN014 OVC028 11/10 A2991 RMK SF2SC3SC2 SLP130=

CYVR;2005-06-08 10:54;SPECI CYVR 081054Z 09008KT 6SM -RA BR FEW007 BKN012 OVC028 RMK SF2SC4SC2=

CYVR;2005-06-08 11:00;METAR CYVR 081100Z 09008KT 6SM -RA BR FEW007 BKN014 OVC020 11/10 A2991 RMK SF2SC5SC2 VIS LWR N QUAD 3 SM SLP130=

CYVR;2005-06-08 12:00;METAR CYVR 081200Z 09008KT 7SM -RA VCFG FEW008 BKN013 OVC020 11/10 A2991 RMK SF2SC5SC2 VIS N QUAD 5 SM SLP129=

CYVR;2005-06-08 13:00;METAR CYVR 081300Z 10007KT 10SM -RA FEW009 BKN012 OVC020 11/10 A2991 RMK SF2SC4SC2 SLP129=

CYVR;2005-06-08 13:41;SPECI CYVR 081341Z 10007KT 8SM -RA FEW005 BKN009 OVC015 RMK SF2SC5SC1 PCPN VRY LGT=

CYVR;2005-06-08 14:00;METAR CYVR 081400Z 10008KT 8SM -RA FEW006 OVC009 11/10 A2991 RMK SF2SC6 PCPN VRY LGT SLP130=

CYVR;2005-06-08 14:12;SPECI CYVR 081412Z 11008KT 8SM -RA FEW006 OVC011 RMK SF2SC6 PCPN VRY LGT=

CYVR;2005-06-08 15:00;METAR CYVR 081500Z 10008KT 8SM -RA FEW006 BKN011 OVC015 11/10 A2992 RMK SF2SC4SC2 SLP131=

CYVR;2005-06-08 16:00;METAR CYVR 081600Z 10007KT 8SM -RA FEW005 OVC012 11/10 A2992 RMK SF2SC6 SLP132=

CYVR;2005-06-08 18:00;METAR CYVR 081800Z 11009KT 10SM -RA FEW008 BKN012 OVC020 12/10 A2993 RMK SF2SC3SC3 PCPN VRY LGT SLP134=

CYVR;2005-06-08 18:28;SPECI CYVR 081828Z 09008KT 10SM FEW008 BKN011 OVC024 RMK SF2SC3SC3=

CYVR;2005-06-08 18:56;SPECI CYVR 081856Z 09007KT 10SM -RA FEW008 BKN011 OVC023 RMK SF2SC3SC2=

CYVR;2005-06-08 19:00;METAR CYVR 081900Z 09007KT 8SM -RA FEW008 BKN012 OVC022 12/11 A2994 RMK SF2SC3SC2 SLP138=

CYVR;2005-06-08 21:00;METAR CYVR 082100Z 15004KT 6SM -RA BR SCT005 OVC010 12/11 A2996 RMK SF3SC5 SLP145=

CYVR;2005-06-08 21:28;SPECI CYVR 082128Z 16005KT 6SM -RA BR FEW005 OVC008 RMK SF2SC6=

CYVR;2005-06-08 22:00;METAR CYVR 082200Z 09006KT 8SM -RA FEW005 BKN009 OVC015 12/11 A2996 RMK SF2SC4SC2 SLP145=

CYVR;2005-06-08 23:00;METAR CYVR 082300Z 11007KT 8SM -RA FEW005 BKN009 OVC015 12/11 A2996 RMK SF2SC5SC2 PCPN VRY LGT SLP147=

CYVR;2005-06-08 23:18;SPECI CYVR 082318Z 13007KT 10SM FEW007 BKN011 OVC022 RMK SF2SC3SC3=

CYVR;2005-06-09 00:00;METAR CYVR 090000Z 14006KT 10SM FEW008 BKN012 OVC025 13/11 A2997 RMK SF2SC3SC2 SLP148=

CYVR;2005-06-09 01:00;METAR CYVR 090100Z 13006KT 10SM SCT011 BKN024 OVC050 13/11 A2997 RMK SC3SC3SC2 SLP149=

CYVR;2005-06-09 02:00;METAR CYVR 090200Z 12007KT 12SM FEW011 SCT016 OVC032 13/11 A2997 RMK SC2SC2SC4 SLP148=

CYVR;2005-06-09 03:00;METAR CYVR 090300Z 11007KT 12SM FEW010 BKN022 OVC065 13/10 A2997 RMK SC2SC3SC2 SLP148=

CYVR;2005-06-09 04:00;METAR CYVR 090400Z 11006KT 12SM FEW015 SCT022 OVC090 12/10 A2996 RMK SC2SC2AC3 SLP145=

CYVR;2005-06-09 05:00;METAR CYVR 090500Z 18002KT 15SM FEW020 BKN090 13/10 A2996 RMK SC2AC3 VIS LWR N QUAD 12 SM SLP147=

CYVR;2005-06-09 06:00;METAR CYVR 090600Z 00000KT 15SM FEW020 FEW090 12/10 A2996 RMK SC2AC1 VIS LWR N QUAD 12 SM SLP147=

CYVR;2005-06-09 06:37;SPECI CYVR 090637Z 00000KT 15SM MIFG FEW020 FEW040 RMK SC1SC1=

CYVR;2005-06-09 07:00;METAR CYVR 090700Z 00000KT 15SM MIFG FEW020 FEW040 11/09 A2997 RMK SC1SC1 SLP149=

CYVR;2005-06-09 08:00;METAR CYVR 090800Z 00000KT 15SM MIFG FEW020 FEW080 10/09 A2997 RMK SC2AC1 VIS N QUAD 12 SM SLP149=

CYVR;2005-06-09 09:00;METAR CYVR 090900Z 00000KT 15SM MIFG FEW080 10/09 A2997 RMK AC2 SLP149=

CYVR;2005-06-09 10:00;METAR CYVR 091000Z 09004KT 12SM MIFG OVC075 10/09 A2997 RMK AC6 SLP150=

CYVR;2005-06-09 10:33;SPECI CYVR 091033Z 10003KT 15SM OVC074 RMK AC6=

CYVR;2005-06-09 11:00;METAR CYVR 091100Z 00000KT 15SM OVC075 11/10 A2997 RMK AC6 SLP148=

CYVR;2005-06-09 12:00;METAR CYVR 091200Z 35003KT 15SM OVC075 11/10 A2996 RMK AC7 SLP146=

CYVR;2005-06-09 13:00;METAR CYVR 091300Z 00000KT 15SM OVC074 11/10 A2996 RMK AC7 SLP147=

CYVR;2005-06-09 14:00;METAR CYVR 091400Z 00000KT 15SM BKN073 13/10 A2996 RMK AC7 SLP146=

CYVR;2005-06-09 15:00;METAR CYVR 091500Z 00000KT 20SM FEW012 BKN073 13/11 A2996 RMK CF1AC6 SLP147=

CYVR;2005-06-09 16:00;METAR CYVR 091600Z 22004KT 20SM FEW012 BKN073 14/10 A2996 RMK CF1AC6 SLP147=

CYVR;2005-06-09 17:00;METAR CYVR 091700Z 24007KT 12SM FEW023 OVC073 14/11 A2997 RMK CU2AC6 SLP149=

CYVR;2005-06-09 18:00;METAR CYVR 091800Z 25004KT 12SM FEW022 BKN072 15/11 A2997 RMK CU2AC5 SLP148=

CYVR;2005-06-09 19:00;METAR CYVR 091900Z 26006KT 12SM SCT026 BKN074 15/12 A2997 RMK CU3AC4 SLP150=

CYVR;2005-06-09 20:00;METAR CYVR 092000Z 24004KT 12SM FEW026 BKN080 16/12 A2997 RMK CU2AC5 SLP148=

CYVR;2005-06-09 21:00;METAR CYVR 092100Z 23006KT 12SM FEW025 BKN078 BKN210 17/13 A2996 RMK CU2AC4CC2 SLP146=

CYVR;2005-06-09 22:00;METAR CYVR 092200Z 26006KT 12SM FEW030 BKN076 BKN210 18/13 A2996 RMK CU2AC5CC1 TCU ASOCT SLP146=

CYVR;2005-06-10 00:00;METAR CYVR 100000Z 25005KT 12SM FEW040TCU BKN077 17/12 A2996 RMK TCU1AC6 SLP147=

CYVR;2005-06-10 01:00;METAR CYVR 100100Z 00000KT 12SM FEW040TCU BKN080 17/11 A2995 RMK TCU1AC6 SLP143=

CYVR;2005-06-10 02:00;METAR CYVR 100200Z 00000KT 15SM FEW040TCU BKN077 16/11 A2995 RMK TCU1AC6 SLP142=

CYVR;2005-06-10 03:00;METAR CYVR 100300Z 32002KT 20SM FEW040 BKN074 BKN150 16/11 A2994 RMK SC1AC6AC1 SLP140=

CYVR;2005-06-10 04:00;METAR CYVR 100400Z 00000KT 20SM FEW040 BKN076 BKN150 16/10 A2993 RMK SC1AC6AC1 SLP135=

CYVR;2005-06-10 05:00;METAR CYVR 100500Z 00000KT 15SM FEW045 SCT075 BKN140 16/10 A2993 RMK SC1AC3AC1 SLP136=

CYVR;2005-06-10 06:00;METAR CYVR 100600Z 00000KT 15SM FEW045 SCT075 BKN140 15/10 A2993 RMK SC1AC2AC1 SLP136=

CYVR;2005-06-10 07:00;METAR CYVR 100700Z 05003KT 15SM FEW060 SCT140 BKN240 14/11 A2993 RMK SC1AC2CI2 SLP136=

CYVR;2005-06-10 08:00;METAR CYVR 100800Z 07004KT 15SM FEW070 SCT160 BKN240 14/10 A2993 RMK AC1AC3CI2 SLP134=

CYVR;2005-06-10 09:00;METAR CYVR 100900Z 12005KT 15SM FEW070 SCT150 SCT240 14/10 A2992 RMK AC1AC2CI1 SLP133=

CYVR;2005-06-10 10:00;METAR CYVR 101000Z 08006KT 15SM FEW070 BKN140 12/10 A2991 RMK AC2AC5 SLP130=

CYVR;2005-06-10 11:00;METAR CYVR 101100Z 09004KT 15SM FEW110 BKN140 12/10 A2991 RMK AC2AC4 SLP128=

CYVR;2005-06-10 12:00;METAR CYVR 101200Z 12004KT 20SM BKN110 BKN140 12/10 A2991 RMK AC5AC1 SLP127=

CYVR;2005-06-10 13:00;METAR CYVR 101300Z 15002KT 20SM FEW056 SCT110 BKN160 13/11 A2991 RMK SC2AC2AC2 SLP130=

CYVR;2005-06-10 14:00;METAR CYVR 101400Z 10007KT 20SM FEW045 BKN110 14/11 A2991 RMK SC2AC5 SLP129=

CYVR;2005-06-10 15:00;METAR CYVR 101500Z 13008KT 20SM SCT055 BKN110 14/10 A2993 RMK SC4AC3 SLP134=

CYVR;2005-06-10 16:00;METAR CYVR 101600Z 12010KT 20SM FEW040 SCT055 BKN092 14/09 A2993 RMK CU2SC2AC2 SLP136=

CYVR;2005-06-10 17:00;METAR CYVR 101700Z 12008KT 20SM FEW035TCU BKN057 BKN160 15/09 A2993 RMK TCU2SC3AC1 SLP136=

CYVR;2005-06-10 18:00;METAR CYVR 101800Z 15005KT 20SM FEW035TCU SCT089 BKN170 17/09 A2994 RMK TCU2AC2AC2 SLP139=

CYVR;2005-06-10 19:00;METAR CYVR 101900Z 17007KT 20SM FEW040TCU BKN110 17/08 A2995 RMK TCU1AC6 SLP141=

CYVR;2005-06-10 20:00;METAR CYVR 102000Z 19006KT 20SM FEW040TCU BKN090 17/09 A2994 RMK TCU1AC6 SLP140=

CYVR;2005-06-10 21:00;METAR CYVR 102100Z 23005KT 20SM FEW045TCU BKN083 BKN170 18/08 A2994 RMK TCU1AC6AC1 SLP138=

CYVR;2005-06-10 22:00;METAR CYVR 102200Z 21006KT 20SM FEW045 SCT085 BKN170 19/09 A2992 RMK CU1AC3AC1 SLP133=

CYVR;2005-06-10 23:00;METAR CYVR 102300Z 22007KT 20SM FEW045 SCT110 BKN170 19/09 A2992 RMK CU1AC2AC2 SLP131=

CYVR;2005-06-11 00:00;METAR CYVR 110000Z 26005KT 20SM FEW050 SCT100 BKN210 19/09 A2991 RMK CU1AC3CC1 SLP127=

CYVR;2005-06-11 01:00;METAR CYVR 110100Z 25007KT 20SM FEW050 FEW100 SCT210 18/10 A2990 RMK CU1AC2CC1 SLP124=

CYVR;2005-06-11 02:00;METAR CYVR 110200Z 23006KT 20SM FEW050 FEW100 SCT220 18/09 A2989 RMK CU1AC2CC1 SLP123=

CYVR;2005-06-11 03:00;METAR CYVR 110300Z 22004KT 20SM FEW050 SCT085 BKN200 17/08 A2989 RMK CU1AC2CC1 SLP121=

CYVR;2005-06-11 04:00;METAR CYVR 110400Z 20005KT 20SM FEW040 BKN085 17/08 A2989 RMK SC1AC5 SLP122=

CYVR;2005-06-11 06:00;METAR CYVR 110600Z 21002KT 15SM FEW045 BKN075 16/10 A2989 RMK SC1AC6 SLP123=

CYVR;2005-06-11 07:00;METAR CYVR 110700Z 00000KT 15SM FEW045 BKN070 BKN090 15/10 A2988 RMK SC1AC5AC1 SLP120=

CYVR;2005-06-11 08:00;METAR CYVR 110800Z 09005KT 15SM FEW045 BKN070 BKN100 14/11 A2988 RMK SC1AC5AC1 SLP117=

CYVR;2005-06-11 09:00;METAR CYVR 110900Z 12007KT 15SM -SHRA FEW040 SCT055 BKN075 14/11 A2988 RMK SC1SC2AC4 SLP118=

CYVR;2005-06-11 09:40;SPECI CYVR 110940Z 14005KT 15SM FEW040 BKN054 BKN075 RMK SC1SC4AC2=

CYVR;2005-06-11 10:00;METAR CYVR 111000Z 13002KT 15SM FEW040 BKN053 BKN075 14/11 A2987 RMK SC1SC5AC2 SLP115=

CYVR;2005-06-11 10:31;SPECI CYVR 111031Z 15003KT 12SM -SHRA BKN043 BKN055 OVC075 RMK SC5SC2AC2=

CYVR;2005-06-11 11:00;METAR CYVR 111100Z 11004KT 12SM -SHRA BKN042 BKN055 OVC075 13/11 A2986 RMK SC6SC2AC1 SLP111=

CYVR;2005-06-11 12:00;METAR CYVR 111200Z 09008KT 6SM -SHRA FEW030 BKN041 OVC055 13/11 A2985 RMK SC2SC4SC2 SLP108=

CYVR;2005-06-11 12:46;SPECI CYVR 111246Z 11008KT 8SM -SHRA FEW004 FEW015 SCT030 OVC042 RMK CF1SF1SC2SC4=

CYVR;2005-06-11 13:00;METAR CYVR 111300Z 11007KT 6SM -SHRA FEW005 SCT015 BKN030 OVC042 13/11 A2985 RMK SF2SF2SC3SC2 SLP110=

CYVR;2005-06-11 13:08;SPECI CYVR 111308Z 11008KT 6SM -SHRA FEW005 BKN011 BKN030 OVC042 RMK SF2SF2SC2SC2=

CYVR;2005-06-11 14:00;METAR CYVR 111400Z 09008KT 10SM -SHRA FEW005 BKN012 BKN025 13/11 A2986 RMK SF2SC3SC2 PCPN VRY LGT SLP111=

CYVR;2005-06-11 14:20;SPECI CYVR 111420Z 10008KT 10SM FEW005 BKN016 BKN025 RMK SF2SC3SC2=

CYVR;2005-06-11 15:00;METAR CYVR 111500Z 09010KT 10SM FEW005 OVC014 13/11 A2986 RMK SF2SC6 SLP112=

CYVR;2005-06-11 15:49;SPECI CYVR 111549Z 22011KT 10SM -SHRA FEW005 BKN014 OVC028 RMK SF2SC5SC2=

CYVR;2005-06-11 16:00;METAR CYVR 111600Z 23013KT 12SM -SHRA FEW005 BKN017 OVC030 13/11 A2987 RMK SF1SC5SC2 SLP115=

CYVR;2005-06-11 17:00;METAR CYVR 111700Z 23005KT 12SM -SHRA FEW006 BKN020 BKN050 13/12 A2988 RMK SF1SC6SC1 VIS N 3 SLP119=

CYVR;2005-06-11 17:43;SPECI CYVR 111743Z 28004KT 12SM FEW005 BKN021 BKN050 RMK CF1SC6SC1=

CYVR;2005-06-11 18:00;METAR CYVR 111800Z 27002KT 12SM FEW008 BKN030 BKN045 14/11 A2989 RMK CF2SC5SC1 SLP122=

CYVR;2005-06-11 19:00;METAR CYVR 111900Z 23004KT 15SM FEW008 BKN032 BKN053 16/12 A2990 RMK CF1SC4SC2 CIG RAG SLP125=

CYVR;2005-06-11 21:00;METAR CYVR 112100Z 30011KT 15SM SCT035TCU BKN055 BKN220 17/12 A2990 RMK TCU3SC2CI2 SLP126=

CYVR;2005-06-11 23:00;METAR CYVR 112300Z 30009KT 20SM SCT040TCU BKN075 16/10 A2991 RMK TCU3AC2 SH DIST NE-E SLP128=

CYVR;2005-06-12 00:00;METAR CYVR 120000Z 28009KT 20SM SCT045TCU BKN075 16/09 A2991 RMK TCU3AC3 SLP129=

CYVR;2005-06-12 01:00;METAR CYVR 120100Z 27008KT 20SM FEW045 BKN062TCU 14/10 A2991 RMK CF2TCU5 VIRGA SLP129=

CYVR;2005-06-12 01:15;SPECI CYVR 120115Z 24006KT 20SM -SHRA FEW045 BKN054TCU BKN080 RMK CF1TCU6AC1=

CYVR;2005-06-12 01:50;SPECI CYVR 120150Z 27014KT 20SM FEW041 BKN054TCU BKN095 RMK CF1TCU5AC1 SH DIST E=

CYVR;2005-06-12 02:00;METAR CYVR 120200Z 27014KT 20SM FEW040 BKN052TCU BKN097 14/10 A2992 RMK CF2TCU4AC2 SH DIST E SLP132=

CYVR;2005-06-12 03:00;METAR CYVR 120300Z 29022G27KT 20SM FEW041 BKN062 13/10 A2994 RMK SC2SC5 SLP138=

CYVR;2005-06-12 03:52;SPECI CYVR 120352Z 29013KT 30SM -SHRA FEW035 SCT042 BKN059TCU RMK CF2SC2TCU3 CB E=

CYVR;2005-06-12 04:00;METAR CYVR 120400Z 29013KT 30SM FEW035 BKN057TCU BKN085 12/08 A2994 RMK CF2TCU2AC2 VIRGA CB+SH E SLP138=

CYVR;2005-06-12 05:00;METAR CYVR 120500Z 27015KT 30SM FEW020 SCT042TCU BKN074 12/09 A2994 RMK CF1TCU2AC2 SLP140=

CYVR;2005-06-12 06:00;METAR CYVR 120600Z 27015KT 30SM FEW041 SCT075 BKN160 13/07 A2995 RMK SC2AC2AC2 SLP143=

CYVR;2005-06-12 07:00;METAR CYVR 120700Z 25010KT 15SM -SHRA BKN051 OVC075 13/09 A2997 RMK SC6AC2 SLP149=

CYVR;2005-06-12 07:33;SPECI CYVR 120733Z 27010KT 20SM BKN042 OVC070 RMK SC7AC1=

CYVR;2005-06-12 08:00;METAR CYVR 120800Z 26009KT 15SM OVC039 13/09 A2997 RMK SC8 SLP150=

CYVR;2005-06-12 09:00;METAR CYVR 120900Z 25013KT 15SM FEW015 OVC045 13/09 A2997 RMK SF2SC6 SLP150=

CYVR;2005-06-12 10:00;METAR CYVR 121000Z 26012KT 20SM FEW040 BKN072 12/08 A2998 RMK SC2AC3 SLP153=

CYVR;2005-06-12 11:00;METAR CYVR 121100Z 27015KT 20SM FEW040 BKN067 13/07 A2999 RMK SC2AC3 SLP155=

CYVR;2005-06-12 12:00;METAR CYVR 121200Z 29012KT 20SM FEW040 BKN067 12/07 A3000 RMK SC2AC5 SLP158=

CYVR;2005-06-12 13:00;METAR CYVR 121300Z 28012KT 30SM BKN064 13/08 A3001 RMK SC6 SLP164=

CYVR;2005-06-12 14:00;METAR CYVR 121400Z 29016KT 20SM FEW025 BKN064 13/07 A3003 RMK CF1SC6 SLP168=

CYVR;2005-06-12 15:00;METAR CYVR 121500Z 28011KT 20SM FEW025 FEW051 OVC062 13/08 A3005 RMK CF1CU2SC6 SLP176=

CYVR;2005-06-12 16:00;METAR CYVR 121600Z 27008KT 20SM FEW020 FEW045 OVC064 14/09 A3006 RMK CF1CU2SC6 SLP180=

CYVR;2005-06-12 17:00;METAR CYVR 121700Z 29005KT 20SM FEW040TCU OVC064 14/09 A3007 RMK TCU2SC6 SLP183=

CYVR;2005-06-12 18:00;METAR CYVR 121800Z 22005KT 20SM SCT040TCU BKN065 14/08 A3008 RMK TCU3SC4 SLP187=

CYVR;2005-06-12 19:00;METAR CYVR 121900Z 23004KT 20SM SCT034TCU BKN065 15/09 A3009 RMK TCU4SC3 SH DIST E SLP191=

CYVR;2005-06-12 21:00;METAR CYVR 122100Z 09008KT 20SM SCT042TCU BKN070 16/09 A3009 RMK TCU3AC4 SLP191=

CYVR;2005-06-12 22:00;METAR CYVR 122200Z 14007KT 20SM FEW040TCU BKN073 17/07 A3009 RMK TCU2AC5 SLP191=

CYVR;2005-06-12 23:00;METAR CYVR 122300Z 13009KT 20SM FEW045TCU BKN076 BKN220 17/07 A3009 RMK TCU2AC3CI2 SLP188=

CYVR;2005-06-13 00:00;METAR CYVR 130000Z 15008KT 20SM FEW045TCU SCT075 OVC220 17/07 A3007 RMK TCU2AC2CS4 SLP183=

CYVR;2005-06-13 01:00;METAR CYVR 130100Z 12011KT 20SM FEW050 FEW075 BKN210 16/06 A3005 RMK CU1AC2CS5 SLP177=

CYVR;2005-06-13 02:00;METAR CYVR 130200Z 13009KT 20SM FEW050 BKN075 BKN210 16/06 A3005 RMK CU1AC4CS2 SLP175=

CYVR;2005-06-13 03:00;METAR CYVR 130300Z 10007KT 20SM FEW050 BKN072 BKN210 15/06 A3005 RMK SC1AC6CS1 SLP176=

CYVR;2005-06-13 03:31;SPECI CYVR 130331Z 10007KT 15SM -SHRA FEW045 BKN069 RMK SC1AC6=

CYVR;2005-06-13 04:00;METAR CYVR 130400Z 11011KT 15SM -SHRA FEW038 OVC062 14/09 A3004 RMK SF1SC6 SLP172=

CYVR;2005-06-13 05:00;METAR CYVR 130500Z 20004KT 15SM -SHRA SCT040 OVC055 13/10 A3003 RMK SF3SC5 SLP168=

CYVR;2005-06-13 06:00;METAR CYVR 130600Z 18002KT 15SM -SHRA SCT040 BKN056 OVC070 13/09 A3001 RMK SC3SC4AC1 SLP164=

CYVR;2005-06-13 07:00;METAR CYVR 130700Z 05008KT 15SM -SHRA SCT040 BKN058 OVC070 13/10 A3000 RMK SC3SC4AC1 SLP160=

CYVR;2005-06-13 09:00;METAR CYVR 130900Z 09010KT 12SM -SHRA FEW040 OVC060 12/09 A2998 RMK SC2SC6 SLP153=

CYVR;2005-06-13 09:20;SPECI CYVR 130920Z 10010KT 12SM FEW020 FEW040 OVC061 RMK SF1SC2SC6=

CYVR;2005-06-13 10:00;METAR CYVR 131000Z 09010KT 12SM SCT025 SCT040 OVC060 12/09 A2998 RMK SC3SC1SC4 SLP153=

CYVR;2005-06-13 11:00;METAR CYVR 131100Z 10013KT 12SM FEW025 SCT040 OVC057 12/10 A2998 RMK SC2SC2SC5 SLP151=

CYVR;2005-06-13 11:54;SPECI CYVR 131154Z 13014KT 10SM -SHRA SCT025 OVC045 RMK SC3SC5=

CYVR;2005-06-13 12:00;METAR CYVR 131200Z 13014KT 10SM -SHRA SCT025 BKN048 OVC075 13/10 A2998 RMK SC3SC4AC1 SLP153=

CYVR;2005-06-13 12:36;SPECI CYVR 131236Z 13009G15KT 12SM SCT019 BKN045 BKN080 RMK SC3SC2AC2=

CYVR;2005-06-13 13:00;METAR CYVR 131300Z 14010KT 15SM FEW020 SCT048 BKN080 12/10 A3000 RMK SC2SC2AC2 SLP158=

CYVR;2005-06-13 14:00;METAR CYVR 131400Z 14013KT 15SM FEW025 SCT045 BKN078 13/10 A3001 RMK SC2SC2AC2 SLP161=

CYVR;2005-06-13 15:00;METAR CYVR 131500Z 14011KT 15SM FEW025 FEW045 BKN070 14/10 A3001 RMK SC2SC1AC2 SLP164=

CYVR;2005-06-13 16:00;METAR CYVR 131600Z 16013KT 15SM FEW020 FEW025 SCT045 BKN074 14/09 A3003 RMK CF1SC2SC2AC2 TR CF SLP168=

CYVR;2005-06-13 16:41;SPECI CYVR 131641Z 18013G18KT 15SM -SHRA FEW025 FEW040 BKN065 BKN070 RMK CF1SC1SC4AC1 TR CF=

CYVR;2005-06-13 17:00;METAR CYVR 131700Z 17013G18KT 15SM FEW025 FEW040 BKN065 BKN070 16/10 A3004 RMK CF1SC1SC4AC1 TR CF SLP173=

CYVR;2005-06-13 18:00;METAR CYVR 131800Z 18012G17KT 15SM FEW025 FEW030 BKN065 BKN070 15/09 A3006 RMK CF1SC1SC4AC2 TR CF SLP179=

CYVR;2005-06-13 19:00;METAR CYVR 131900Z 20013KT 15SM FEW025 FEW030 SCT065 BKN088 16/09 A3007 RMK CF1SC1SC2AC2 TR CF SLP183=

CYVR;2005-06-13 20:00;METAR CYVR 132000Z 19012KT 15SM FEW025 FEW030 BKN088 17/09 A3009 RMK CU1SC1AC2 SLP189=

CYVR;2005-06-13 21:00;METAR CYVR 132100Z 21012KT 15SM FEW035 FEW040 SCT090 18/08 A3010 RMK CU1SC2AC1 TR CU SLP192=

CYVR;2005-06-13 22:00;METAR CYVR 132200Z 18011G18KT 20SM FEW035 FEW040 SCT090 18/08 A3010 RMK CF1CU1AC2 TR CF SLP193=

CYVR;2005-06-13 23:00;METAR CYVR 132300Z 19014KT 30SM FEW035 FEW040 SCT090 18/07 A3011 RMK CU1SC1AC1 TR SC SLP195=

CYVR;2005-06-14 01:00;METAR CYVR 140100Z 21012KT 30SM FEW035 FEW080 18/07 A3010 RMK CU1AC1 SLP194=

CYVR;2005-06-14 02:00;METAR CYVR 140200Z 20012KT 30SM FEW040TCU FEW060 SCT220 17/06 A3009 RMK TCU2SC1CI1 SLP191=

CYVR;2005-06-14 03:00;METAR CYVR 140300Z 21007KT 30SM FEW040TCU FEW060 SCT220 17/06 A3009 RMK TCU2SC1CI1 SLP190=

CYVR;2005-06-14 04:00;METAR CYVR 140400Z 21010KT 30SM FEW050 FEW220 15/07 A3009 RMK SC2CI1 SLP188=

CYVR;2005-06-14 05:00;METAR CYVR 140500Z 21008KT 30SM FEW050 SCT220 15/07 A3009 RMK SC1CI2 SLP189=

CYVR;2005-06-14 07:00;METAR CYVR 140700Z 02002KT 20SM FEW050 SCT220 12/07 A3008 RMK SC1CI2 SLP185=

CYVR;2005-06-14 08:00;METAR CYVR 140800Z 09004KT 20SM FEW050 BKN220 12/07 A3006 RMK SC1CI2 SLP181=

CYVR;2005-06-14 09:00;METAR CYVR 140900Z 07003KT 20SM FEW050 BKN220 11/07 A3005 RMK SC2CI2 SLP177=

CYVR;2005-06-14 10:00;METAR CYVR 141000Z 06004KT 20SM FEW070 BKN220 11/08 A3004 RMK AC2CI1 SLP173=

CYVR;2005-06-14 11:00;METAR CYVR 141100Z 04005KT 20SM BKN071 BKN210 11/08 A3002 RMK AC6CI1 SLP167=

CYVR;2005-06-14 12:00;METAR CYVR 141200Z 07005KT 20SM BKN068 BKN210 10/07 A3000 RMK AC6CI1 SLP159=

CYVR;2005-06-14 13:00;METAR CYVR 141300Z 04004KT 20SM SCT063 BKN200 11/07 A2998 RMK SC4CI1 SLP154=

CYVR;2005-06-14 14:00;METAR CYVR 141400Z 07004KT 30SM SCT064 BKN075 BKN220 12/07 A2998 RMK SC2AC1CI1 SLP153=

CYVR;2005-06-14 15:00;METAR CYVR 141500Z 07002KT 30SM FEW040 BKN076 13/08 A2998 RMK SC1AC6 SLP152=

CYVR;2005-06-14 16:00;METAR CYVR 141600Z 19002KT 20SM FEW035 OVC078 13/08 A2997 RMK SC2AC6 SLP149=

CYVR;2005-06-14 16:57;SPECI CYVR 141657Z 25003KT 20SM -SHRA SCT019 BKN028 OVC075 RMK SC3SC2AC2=

CYVR;2005-06-14 17:00;METAR CYVR 141700Z 26004KT 20SM -SHRA FEW019 SCT028 BKN075 BKN090 14/09 A2996 RMK SC2SC2AC2AC2 PCPN VRY LGT SLP147=

CYVR;2005-06-14 17:36;SPECI CYVR 141736Z 29004KT 20SM FEW030 BKN067 BKN095 RMK CU1AC4AC1=

CYVR;2005-06-14 19:00;METAR CYVR 141900Z 27007KT 20SM FEW035 FEW040TCU BKN090 16/10 A2994 RMK CU1TCU2AC1 SLP140=

CYVR;2005-06-14 20:00;METAR CYVR 142000Z 28007KT 20SM FEW040TCU FEW090 16/10 A2994 RMK TCU2AC1 SLP139=

CYVR;2005-06-14 22:00;METAR CYVR 142200Z 30007KT 20SM FEW035TCU FEW040CB FEW090 SCT220 16/09 A2993 RMK TCU1CB1AC1CI1 CB DIST NE QUAD SLP135=

CYVR;2005-06-14 23:00;METAR CYVR 142300Z 27005KT 20SM FEW040 FEW045TCU SCT085 BKN220 16/08 A2993 RMK CU1TCU1AC1CI1 SHS DIST NE QUAD SLP136=

CYVR;2005-06-15 00:00;METAR CYVR 150000Z 25007KT 20SM FEW040 FEW090 SCT220 17/08 A2993 RMK CU1AC1CI1 TCU ASOCT SLP136=

CYVR;2005-06-15 01:47;SPECI CYVR 150147Z 26011KT 20SM TS FEW040CB BKN064 BKN070 RMK CB1SC5AC1 LTGCG NE SHRA DIST NE=

CYVR;2005-06-15 02:00;METAR CYVR 150200Z 27008KT 20SM TS FEW035TCU FEW045CB BKN064 BKN084 14/09 A2994 RMK TCU1CB1SC5AC1 SHRA DIST NE SLP138=

CYVR;2005-06-15 03:00;METAR CYVR 150300Z 29002KT 20SM SCT040 BKN063 14/08 A2994 RETS RMK SC3SC4 SHRA DIST NE SLP139=

CYVR;2005-06-15 04:00;METAR CYVR 150400Z 28003KT 20SM SCT040 BKN064 14/08 A2995 RMK SC3SC4 SLP141=

CYVR;2005-06-15 05:00;METAR CYVR 150500Z 00000KT 20SM FEW040 BKN061 BKN082 14/08 A2996 RMK SC2SC4AC1 SLP145=

CYVR;2005-06-15 06:00;METAR CYVR 150600Z 00000KT 20SM FEW040 BKN069 14/08 A2996 RMK SC2AC4 SLP146=

CYVR;2005-06-15 07:00;METAR CYVR 150700Z 11004KT 20SM SCT035 BKN064 12/08 A2997 RMK SC3SC3 SLP148=

CYVR;2005-06-15 08:00;METAR CYVR 150800Z 25005KT 20SM SCT035 BKN068 14/08 A2996 RMK SC3AC3 SLP147=

CYVR;2005-06-15 09:00;METAR CYVR 150900Z 27010KT 20SM BKN063 13/08 A2997 RMK SC7 SLP150=

CYVR;2005-06-15 10:00;METAR CYVR 151000Z 24005KT 20SM FEW023 BKN056 13/08 A2998 RMK SC2SC5 SLP154=

CYVR;2005-06-15 11:00;METAR CYVR 151100Z 06007KT 20SM FEW025 BKN061 12/08 A2999 RMK SC2SC5 SLP157=

CYVR;2005-06-15 11:22;SPECI CYVR 151122Z 06008KT 20SM -RA FEW025 BKN056 RMK SC2SC5=

CYVR;2005-06-15 11:36;SPECI CYVR 151136Z 07007KT 20SM FEW030 BKN061 RMK SC2SC5=

CYVR;2005-06-15 12:00;METAR CYVR 151200Z 08009KT 20SM FEW035 BKN060 BKN072 11/08 A3000 RMK SC2SC4AC1 SLP159=

CYVR;2005-06-15 13:00;METAR CYVR 151300Z 10009KT 20SM FEW042 BKN067 10/08 A3001 RMK SC2AC4 SLP164=

CYVR;2005-06-15 14:00;METAR CYVR 151400Z 09009KT 20SM FEW035TCU FEW045 BKN057 BKN070 11/08 A3002 RMK TCU1SC2SC2AC1 SLP167=

CYVR;2005-06-15 15:00;METAR CYVR 151500Z 09010KT 20SM FEW035CB BKN057 BKN070 12/08 A3003 RMK CB1SC4AC1 CB W QUAD SLP169=

CYVR;2005-06-15 17:00;METAR CYVR 151700Z 10009KT 20SM FEW030 FEW040TCU BKN067 14/09 A3003 RMK CU1TCU1AC3 SLP170=

CYVR;2005-06-15 18:00;METAR CYVR 151800Z 13006KT 20SM SCT028TCU BKN070 15/08 A3003 RMK TCU3AC1 SLP169=

CYVR;2005-06-15 19:00;METAR CYVR 151900Z 23005KT 20SM BKN037 BKN070 16/08 A3003 RMK CU3AC1 TCU ASOCT SLP169=

CYVR;2005-06-15 20:00;METAR CYVR 152000Z 24007KT 30SM SCT040 16/08 A3001 RMK CU3 TCU ASOCT SLP161=

CYVR;2005-06-15 22:00;METAR CYVR 152200Z 26008KT 30SM FEW040 FEW220 17/09 A2998 RMK CU2CI0 CONTRAILS SLP151=

CYVR;2005-06-15 23:00;METAR CYVR 152300Z 25006KT 30SM FEW040 FEW220 17/08 A2996 RMK CU1CI1 SLP146=

CYVR;2005-06-16 00:00;METAR CYVR 160000Z 29006KT 30SM FEW040 BKN220 17/07 A2993 RMK CU1CI1 CONTRAILS SLP135=

CYVR;2005-06-16 01:00;METAR CYVR 160100Z 30007KT 30SM FEW040 BKN200 17/08 A2990 RMK CU1CI2 SLP124=

CYVR;2005-06-16 02:00;METAR CYVR 160200Z 31008KT 30SM FEW170 BKN220 17/08 A2986 RMK AC1CI2 SLP112=

CYVR;2005-06-16 03:00;METAR CYVR 160300Z 31007KT 30SM SCT150 OVC220 16/09 A2984 RMK AC2CS2 SLP105=

CYVR;2005-06-16 04:00;METAR CYVR 160400Z 31008KT 30SM SCT140 OVC220 15/09 A2983 RMK AC3CS2 SLP100=

CYVR;2005-06-16 05:00;METAR CYVR 160500Z 31008KT 30SM FEW120 BKN150 OVC220 15/09 A2982 RMK AC2AS2CI1 SLP097=

CYVR;2005-06-16 06:00;METAR CYVR 160600Z 36003KT 30SM FEW120 BKN150 15/09 A2980 RMK AC2AS2 SLP091=

CYVR;2005-06-16 07:00;METAR CYVR 160700Z 36003KT 20SM FEW120 BKN160 14/09 A2978 RMK AC2AS2 SLP085=

CYVR;2005-06-16 08:00;METAR CYVR 160800Z 36004KT 20SM FEW120 BKN170 14/08 A2977 RMK AC1AS2 SLP080=

CYVR;2005-06-16 09:00;METAR CYVR 160900Z 03005KT 20SM FEW120 BKN170 14/09 A2975 RMK AC2AS3 SLP075=

CYVR;2005-06-16 10:00;METAR CYVR 161000Z 00000KT 15SM FEW050 SCT090 OVC140 15/09 A2974 RMK SC1AC2AS3 SLP071=

CYVR;2005-06-16 11:00;METAR CYVR 161100Z 03004KT 15SM FEW050 BKN091 OVC140 14/09 A2972 RMK SC1AC4AS3 SLP065=

CYVR;2005-06-16 13:00;METAR CYVR 161300Z 03006KT 15SM FEW050 BKN084 OVC140 15/09 A2972 RMK SC2AC5AS2 SLP065=

CYVR;2005-06-16 13:41;SPECI CYVR 161341Z 05003KT 15SM -RA FEW050 BKN074 OVC140 15/ RMK SC1AS4AS3=

CYVR;2005-06-16 14:00;METAR CYVR 161400Z 02010KT 15SM -RA FEW050 OVC076 15/08 A2969 RMK SF1AS7 PCPN VRY LGT SLP054=

CYVR;2005-06-16 14:18;SPECI CYVR 161418Z 03011KT 15SM FEW050 SCT075 OVC088 16/ RMK SF1AS2AS5=

CYVR;2005-06-16 15:00;METAR CYVR 161500Z 07009KT 30SM FEW050 SCT075 OVC087 17/08 A2968 RMK CF1AS2AS5 SLP050=

CYVR;2005-06-16 16:00;METAR CYVR 161600Z 25009KT 30SM FEW050 SCT070 OVC130 17/09 A2968 RMK CF1AS2AS2 SLP050=

CYVR;2005-06-16 17:00;METAR CYVR 161700Z 30014KT 30SM FEW050 BKN090 OVC120 16/12 A2966 RMK CF1AS4AS2 SLP044=

CYVR;2005-06-16 18:00;METAR CYVR 161800Z 30013KT 30SM FEW090 OVC150 17/13 A2965 RMK AS2AS6 SLP039=

CYVR;2005-06-16 19:00;METAR CYVR 161900Z 27014KT 30SM FEW040 OVC150 17/12 A2963 RMK CF1AS8 TR CF SLP035=

CYVR;2005-06-16 20:00;METAR CYVR 162000Z 29019KT 30SM FEW090 BKN150 OVC220 17/13 A2963 RMK AC1AS5CI2 SLP033=

CYVR;2005-06-16 21:00;METAR CYVR 162100Z 29017KT 30SM FEW090 BKN130 OVC220 18/13 A2962 RMK AC1AS5CI1 TR AC SLP032=

CYVR;2005-06-16 22:00;METAR CYVR 162200Z 31017KT 30SM FEW040 FEW090 BKN130 OVC220 18/13 A2960 RMK CF1AC2AS2CI1 SLP025=

CYVR;2005-06-16 23:00;METAR CYVR 162300Z 30016KT 30SM FEW045 BKN110 OVC220 17/12 A2960 RMK CF1AC5CI2 SLP025=

CYVR;2005-06-17 00:00;METAR CYVR 170000Z 30014G19KT 30SM SCT110 BKN130 OVC150 17/11 A2959 RMK AC3AC2AC2 SLP020=

CYVR;2005-06-17 01:00;METAR CYVR 170100Z 31015KT 30SM BKN110 OVC130 18/12 A2957 RMK AC6AC2 SLP014=

CYVR;2005-06-17 02:00;METAR CYVR 170200Z 29014KT 30SM BKN100 OVC130 17/12 A2958 RMK AC6AC2 SLP016=

CYVR;2005-06-17 03:00;METAR CYVR 170300Z 30011KT 30SM BKN100 OVC130 17/13 A2958 RMK AC6AC2 SLP018=

CYVR;2005-06-17 04:00;METAR CYVR 170400Z 30011KT 30SM BKN100 OVC130 17/13 A2958 RMK AC5AC3 SLP016=

CYVR;2005-06-17 05:00;METAR CYVR 170500Z 30012KT 30SM BKN100 OVC150 16/13 A2957 RMK AC6AC2 SLP013=

CYVR;2005-06-17 06:00;METAR CYVR 170600Z 31004KT 30SM BKN090 OVC150 16/13 A2956 RMK AC6AC2 SLP010=

CYVR;2005-06-17 07:32;SPECI CYVR 170732Z 18008KT 20SM -RA OVC082 RMK AC8=

CYVR;2005-06-17 09:00;METAR CYVR 170900Z 19004KT 12SM -RA SCT044 OVC077 14/12 A2957 RMK SC3AC5 SLP015=

CYVR;2005-06-17 10:31;SPECI CYVR 171031Z 14004KT 6SM -RA BR FEW006 OVC022 RERA RMK SF2SC6=

CYVR;2005-06-17 11:00;METAR CYVR 171100Z 19003KT 8SM -RA FEW006 BKN019 OVC044 14/13 A2960 RMK SF2SC5SC1 SLP022=

CYVR;2005-06-17 12:00;METAR CYVR 171200Z 16007KT 4SM -RA BR FEW007 OVC019 14/13 A2962 RMK SF2SC6 SLP030=

CYVR;2005-06-17 13:00;METAR CYVR 171300Z 11004KT 6SM -RA BR FEW007 SCT018 OVC061 14/13 A2962 RMK SF2SC2SC4 SLP030=

CYVR;2005-06-17 14:00;METAR CYVR 171400Z 12009KT 5SM -SHRA BR FEW007 SCT017 BKN032 OVC060 13/12 A2963 RMK SF2SC2SC3SC1 SLP033=

CYVR;2005-06-17 15:00;METAR CYVR 171500Z 10009KT 10SM -SHRA FEW006 SCT017 BKN029 OVC060 13/12 A2962 RMK SF2SC2SC2SC2 VIS LWR N - NE SLP032=

CYVR;2005-06-17 15:32;SPECI CYVR 171532Z 10006KT 10SM FEW006 SCT018 BKN030 OVC060 RMK SF2SC2SC3SC2=

CYVR;2005-06-17 16:00;METAR CYVR 171600Z 11007KT 10SM -SHRA FEW006 SCT017 BKN028 OVC050 13/12 A2963 RMK SF2SC2SC3SC2 SLP035=

CYVR;2005-06-17 16:09;SPECI CYVR 171609Z 09008KT 10SM -SHRA FEW006 SCT015 BKN026 OVC050 RMK SF2SC2SC3SC1 VIS W - NW 2=

CYVR;2005-06-17 17:00;METAR CYVR 171700Z 10009KT 10SM FEW006 SCT017 BKN024 BKN030 OVC060 14/12 A2964 RMK SF2SC2SC2SC2SC1 SLP038=

CYVR;2005-06-17 17:16;SPECI CYVR 171716Z 10012KT 10SM FEW006 BKN010 BKN025 OVC050 14/ RMK SF2SC2SC2SC2=

CYVR;2005-06-17 17:44;SPECI CYVR 171744Z 09010KT 10SM FEW006 SCT012 BKN024 OVC050 14/ RMK SF2SC2SC2SC2=

CYVR;2005-06-17 18:00;METAR CYVR 171800Z 09009KT 10SM FEW006 SCT013 BKN024 OVC050 14/12 A2964 RMK SF2SC2SC2SC2 SLP037=

CYVR;2005-06-17 19:00;METAR CYVR 171900Z 13011KT 10SM FEW005 SCT011 BKN020 OVC050 14/12 A2966 RMK SF2SC2SC2SC2 SLP043=

CYVR;2005-06-17 19:25;SPECI CYVR 171925Z 15012G17KT 8SM -RA FEW005 BKN009 BKN020 OVC050 13/ RMK SF2SC3SC2SC1=

CYVR;2005-06-17 19:51;SPECI CYVR 171951Z 15008KT 8SM -RA FEW006 BKN012 BKN020 OVC050 13/ RMK SF2SC3SC2SC1=

CYVR;2005-06-17 20:00;METAR CYVR 172000Z 15007KT 8SM -RA FEW006 BKN011 BKN020 OVC050 13/12 A2967 RMK SF2SC3SC2SC1 SLP047=

CYVR;2005-06-17 20:16;SPECI CYVR 172016Z 14009KT 10SM FEW007 BKN015 BKN025 OVC050 13/ RMK SF2SC3SC2SC1=

CYVR;2005-06-17 21:00;METAR CYVR 172100Z 14005KT 10SM FEW007 BKN014 BKN025 OVC050 14/11 A2967 RMK SF2SC3SC2SC1 SLP048=

CYVR;2005-06-17 21:29;SPECI CYVR 172129Z 11006KT 10SM FEW008 SCT015 BKN030 OVC060 14/ RMK SF2SC2SC2SC2=

CYVR;2005-06-17 22:00;METAR CYVR 172200Z 11008KT 15SM FEW008 SCT014 BKN030 OVC060 14/12 A2969 RMK SF2CU2SC3SC2 SLP054=

CYVR;2005-06-17 23:00;METAR CYVR 172300Z 13006KT 15SM FEW008 SCT015 BKN035 OVC060 14/11 A2970 RMK SF2SC2SC2SC2 SLP057=

CYVR;2005-06-18 00:00;METAR CYVR 180000Z 09006KT 15SM FEW008 SCT018 BKN055 BKN080 15/12 A2970 RMK SF1SC2SC2AC2 SLP056=

CYVR;2005-06-18 01:00;METAR CYVR 180100Z 09007KT 15SM FEW008 FEW020 BKN070 BKN120 15/12 A2970 RMK SF1SC2AC3AC2 SLP058=

CYVR;2005-06-18 02:00;METAR CYVR 180200Z 07004KT 15SM FEW008 FEW080 BKN120 15/11 A2970 RMK SF1AC2AC5 SLP059=

CYVR;2005-06-18 03:00;METAR CYVR 180300Z 12004KT 15SM FEW006 SCT080 BKN120 15/11 A2972 RMK SF1AC2AC4 SLP063=

CYVR;2005-06-18 04:00;METAR CYVR 180400Z 09003KT 15SM FEW015 SCT073 BKN120 14/11 A2972 RMK SF1AC3AC3 SLP063=

CYVR;2005-06-18 05:00;METAR CYVR 180500Z 09004KT 15SM BKN046 BKN075 BKN120 14/11 A2974 RMK SC5AC1AC2 SLP070=

CYVR;2005-06-18 06:00;METAR CYVR 180600Z 10004KT 15SM SCT034 BKN050 BKN075 14/11 A2974 RMK SC4SC2AC2 SLP070=

CYVR;2005-06-18 07:00;METAR CYVR 180700Z 10004KT 15SM BKN035 BKN046 14/12 A2974 RMK SC5SC2 SLP071=

CYVR;2005-06-18 08:00;METAR CYVR 180800Z 10003KT 15SM BKN038 BKN120 13/12 A2975 RMK SC6AC2 SLP073=

CYVR;2005-06-18 09:00;METAR CYVR 180900Z 11003KT 15SM BKN044 BKN120 14/12 A2975 RMK SC5AC2 SLP075=

CYVR;2005-06-18 10:00;METAR CYVR 181000Z 08004KT 15SM FEW045 BKN120 BKN180 13/12 A2975 RMK SC2AC3AC2 SLP075=

CYVR;2005-06-18 11:00;METAR CYVR 181100Z 09004KT 15SM FEW045 BKN078 BKN120 13/12 A2976 RMK SC1AC5AC2 SLP078=

CYVR;2005-06-18 12:00;METAR CYVR 181200Z 11005KT 15SM FEW030 SCT079 OVC110 13/12 A2977 RMK SF1AC3AC4 SLP080=

CYVR;2005-06-18 13:00;METAR CYVR 181300Z 09002KT 15SM FEW030 BKN078 OVC110 13/12 A2977 RMK SF1AC6AC2 SLP080=

CYVR;2005-06-18 13:36;SPECI CYVR 181336Z 08004KT 15SM -SHRA FEW020 FEW030 BKN063 OVC080 13/ RMK SF1SF1SC4AC2=

CYVR;2005-06-18 14:00;METAR CYVR 181400Z 09005KT 15SM -SHRA FEW020 SCT060 OVC075 14/12 A2978 RMK SF2SC2AC5 SLP086=

CYVR;2005-06-18 15:00;METAR CYVR 181500Z 09006KT 10SM -SHRA FEW020 SCT050 OVC080 14/12 A2979 RMK SF2SC2AC5 SLP089=

CYVR;2005-06-18 15:30;SPECI CYVR 181530Z 11006KT 10SM -SHRA FEW007 FEW020 BKN050 OVC080 14/ RMK SF1SF1SC3AC3=

CYVR;2005-06-18 16:00;METAR CYVR 181600Z 12006KT 8SM -SHRA FEW007 SCT020 BKN040 OVC055 14/13 A2981 RMK SF2SF2SC3SC2 SLP094=

CYVR;2005-06-18 18:00;METAR CYVR 181800Z 13005KT 12SM -RA FEW012 SCT060 OVC085 17/13 A2982 RMK CU2SC2AS3 SLP099=

CYVR;2005-06-18 18:10;SPECI CYVR 181810Z 11005KT 12SM FEW016 SCT060 OVC085 17/ RMK CU2SC2AS3=

CYVR;2005-06-18 19:36;SPECI CYVR 181936Z 24007KT 12SM -SHRA SCT020 BKN040 OVC080 17/ RMK CU4SC2AS2 TCU ASOCTD=

CYVR;2005-06-18 20:00;METAR CYVR 182000Z 12004KT 12SM -SHRA SCT020 BKN040 BKN080 OVC140 16/13 A2985 RMK CU3SC2AS1AS2 TCU ASOCTD SLP109=

CYVR;2005-06-18 21:00;METAR CYVR 182100Z 24005KT 12SM SCT021 BKN040 BKN070 OVC140 16/13 A2986 RMK CU3SC2AC1AS2 SLP112=

CYVR;2005-06-18 22:00;METAR CYVR 182200Z 24003KT 15SM SCT032 BKN050 BKN080 OVC160 17/12 A2987 RMK CU3SC2AS2AS1 SLP116=

CYVR;2005-06-18 23:00;METAR CYVR 182300Z 25004KT 15SM FEW030 SCT050 OVC080 17/12 A2988 RMK CU2SC2AS4 SLP119=

CYVR;2005-06-19 00:00;METAR CYVR 190000Z 24004KT 15SM FEW030 SCT050 OVC085 17/10 A2989 RMK CU2SC1AC5 SLP121=

CYVR;2005-06-19 01:00;METAR CYVR 190100Z 27004KT 15SM FEW030 SCT050 BKN080 BKN160 17/12 A2989 RMK SC2SC2AC2AC2 SLP123=

CYVR;2005-06-19 02:00;METAR CYVR 190200Z 25005KT 15SM FEW030 SCT080 OVC160 16/12 A2989 RMK SF1AC3AC4 SLP123=

CYVR;2005-06-19 04:00;METAR CYVR 190400Z 29002KT 15SM FEW030 FEW080 BKN120 15/12 A2991 RMK SF1AC2AS5 SLP130=

CYVR;2005-06-19 05:00;METAR CYVR 190500Z 30002KT 15SM FEW035 FEW085 BKN130 15/12 A2993 RMK SF1AC2AS5 SLP135=

CYVR;2005-06-19 06:00;METAR CYVR 190600Z 36003KT 15SM FEW040 BKN084 15/11 A2995 RMK CF1AC6 SLP141=

CYVR;2005-06-19 07:00;METAR CYVR 190700Z 01002KT 15SM BKN100 15/12 A2995 RMK AC7 SLP143=

CYVR;2005-06-19 08:00;METAR CYVR 190800Z 04004KT 15SM BKN091 15/12 A2993 RMK AC7 SLP136=

CYVR;2005-06-19 09:00;METAR CYVR 190900Z 05003KT 15SM SCT069 BKN090 14/12 A2996 RMK AC4AC3 SLP145=

CYVR;2005-06-19 10:00;METAR CYVR 191000Z 09005KT 15SM BKN062 BKN090 15/12 A2997 RMK SC5AC2 SLP148=

CYVR;2005-06-19 11:00;METAR CYVR 191100Z 11003KT 15SM SCT063 BKN074 15/12 A2998 RMK SC4AC3 SLP153=

CYVR;2005-06-19 12:00;METAR CYVR 191200Z 10003KT 15SM SCT062 OVC130 14/12 A2999 RMK SC3AC5 SLP155=

CYVR;2005-06-19 13:00;METAR CYVR 191300Z 04002KT 15SM BKN062 OVC130 14/12 A3000 RMK SC6AC2 SLP158=

CYVR;2005-06-19 14:00;METAR CYVR 191400Z 09003KT 15SM FEW040 BKN060 BKN100 15/12 A3001 RMK SF1SC5AC2 SLP162=

CYVR;2005-06-19 15:00;METAR CYVR 191500Z 11002KT 15SM FEW040 BKN061 BKN100 BKN130 15/12 A3003 RMK SF1SC5AC1AC1 SLP168=

CYVR;2005-06-19 16:00;METAR CYVR 191600Z 13002KT 15SM FEW040 BKN062 OVC130 16/12 A3004 RMK SF1SC6AC2 FU NE SLP174=

CYVR;2005-06-19 17:00;METAR CYVR 191700Z 17002KT 15SM FEW025 BKN055 BKN090 BKN130 17/13 A3005 RMK SF1SC4AC2AC1 FU NE SLP177=

CYVR;2005-06-19 18:00;METAR CYVR 191800Z 27003KT 15SM FEW040 SCT055 BKN070 BKN130 18/12 A3006 RMK CF1CU2AC2AC2 SLP179=

CYVR;2005-06-19 19:00;METAR CYVR 191900Z 25004KT 15SM FEW040 SCT070 BKN100 19/14 A3006 RMK CU2AC2AC2 SLP179=

CYVR;2005-06-19 21:00;METAR CYVR 192100Z 30009KT 15SM FEW030 FEW040TCU BKN075 BKN160 18/13 A3007 RMK CU1TCU2AC3AC1 SLP183=

CYVR;2005-06-19 22:00;METAR CYVR 192200Z 31010KT 20SM FEW040TCU SCT080 SCT160 21/14 A3007 RMK TCU1AC2AC1 SLP183=

CYVR;2005-06-19 23:00;METAR CYVR 192300Z 28009KT 20SM FEW045 FEW080 21/13 A3007 RMK CU1AC2 SLP182=

CYVR;2005-06-20 00:00;METAR CYVR 200000Z 28010KT 20SM FEW045 FEW080 FEW210 19/13 A3007 RMK CU1AC1CI0 SLP182=

CYVR;2005-06-20 04:00;METAR CYVR 200400Z 31010KT 20SM FEW040 FEW230 17/14 A3005 RMK CF1CI1 SLP176=

CYVR;2005-06-20 05:00;METAR CYVR 200500Z 31010KT 20SM FEW230 17/14 A3004 RMK CI1 SLP174=

CYVR;2005-06-20 06:00;METAR CYVR 200600Z 31009KT 20SM FEW230 16/14 A3006 RMK CI1 SLP179=

CYVR;2005-06-20 07:00;METAR CYVR 200700Z 31006KT 20SM FEW230 15/14 A3006 RMK CI2 SLP180=

CYVR;2005-06-20 09:00;METAR CYVR 200900Z 36002KT 20SM FEW230 15/12 A3006 RMK CI1 SLP181=

CYVR;2005-06-20 10:00;METAR CYVR 201000Z 00000KT 20SM FEW230 15/11 A3006 RMK CI1 SLP178=

CYVR;2005-06-20 11:00;METAR CYVR 201100Z 00000KT 20SM FEW180 FEW230 14/11 A3005 RMK AC1CI1 SLP177=

CYVR;2005-06-20 12:00;METAR CYVR 201200Z 26007KT 20SM FEW180 SCT230 14/11 A3005 RMK AC1CI2 SLP177=

CYVR;2005-06-20 13:00;METAR CYVR 201300Z 34008KT 20SM BKN230 13/11 A3005 RMK CI3 SLP177=

CYVR;2005-06-20 14:00;METAR CYVR 201400Z 01006KT 30SM BKN240 16/12 A3006 RMK CI2 SLP181=

CYVR;2005-06-20 15:00;METAR CYVR 201500Z 34009KT 30SM BKN250 17/12 A3006 RMK CI3 SLP178=

CYVR;2005-06-20 16:00;METAR CYVR 201600Z 31012KT 30SM BKN250 18/13 A3005 RMK CI3 SLP177=

CYVR;2005-06-20 17:00;METAR CYVR 201700Z 31012KT 30SM BKN250 19/14 A3005 RMK CI3 SLP176=

CYVR;2005-06-20 18:00;METAR CYVR 201800Z 30013KT 30SM BKN250 19/14 A3004 RMK CI4 SLP174=

CYVR;2005-06-20 19:00;METAR CYVR 201900Z 30013KT 30SM FEW050 BKN250 20/15 A3004 RMK SC1CI3 SLP172=

CYVR;2005-06-20 20:00;METAR CYVR 202000Z 30013KT 30SM FEW050 BKN250 20/15 A3003 RMK SC1CI3 SLP169=

CYVR;2005-06-20 21:00;METAR CYVR 202100Z 30015KT 30SM FEW050 FEW250 21/15 A3001 RMK CU1CI2 SLP162=

CYVR;2005-06-20 22:00;METAR CYVR 202200Z 31014KT 30SM FEW050 FEW250 22/15 A2999 RMK CU1CI1 SLP156=

CYVR;2005-06-20 23:00;METAR CYVR 202300Z 30014KT 30SM FEW050 FEW250 22/16 A2998 RMK CU1CI1 SLP154=

CYVR;2005-06-21 00:00;METAR CYVR 210000Z 30012KT 30SM FEW050 FEW250 21/16 A2997 RMK CU1CI1 SLP149=

CYVR;2005-06-21 01:00;METAR CYVR 210100Z 31011KT 30SM FEW050 FEW250 21/16 A2996 RMK CU1CI1 SLP144=

CYVR;2005-06-21 02:00;METAR CYVR 210200Z 32009KT 30SM FEW050 FEW250 20/15 A2994 RMK CU1CI1 SLP139=

CYVR;2005-06-21 03:00;METAR CYVR 210300Z 31009KT 30SM FEW220 20/14 A2994 RMK CI1 SLP138=

CYVR;2005-06-21 04:00;METAR CYVR 210400Z 30012KT 30SM FEW220 18/14 A2993 RMK CI1 SLP136=

CYVR;2005-06-21 05:00;METAR CYVR 210500Z 30012KT 30SM FEW220 17/14 A2994 RMK CI1 SLP139=

CYVR;2005-06-21 06:00;METAR CYVR 210600Z 32007KT 30SM FEW220 17/14 A2995 RMK CI1 SLP141=

CYVR;2005-06-21 07:00;METAR CYVR 210700Z 32006KT 20SM SCT160 16/13 A2994 RMK AC3 SLP139=

CYVR;2005-06-21 08:00;METAR CYVR 210800Z 28002KT 20SM BKN170 17/13 A2994 RMK AC5 SLP138=

CYVR;2005-06-21 09:00;METAR CYVR 210900Z 28002KT 20SM BKN170 17/13 A2992 RMK AC6 SLP132=

CYVR;2005-06-21 10:00;METAR CYVR 211000Z 31006KT 20SM SCT170 17/11 A2991 RMK AC3 SLP127=

CYVR;2005-06-21 12:00;METAR CYVR 211200Z 32013KT 20SM FEW150 17/14 A2993 RMK AC2 SLP135=

CYVR;2005-06-21 13:00;METAR CYVR 211300Z 33005KT 20SM FEW150 SCT230 16/12 A2993 RMK AC2CI1 SLP134=

CYVR;2005-06-21 14:00;METAR CYVR 211400Z 01006KT 20SM SCT130 SCT180 BKN220 19/11 A2990 RMK AC3AC1CI1 SLP126=

CYVR;2005-06-21 15:00;METAR CYVR 211500Z 14009KT 20SM FEW120 FEW220 20/12 A2991 RMK AC1CI1 SLP129=

CYVR;2005-06-21 16:00;METAR CYVR 211600Z 31004KT 30SM FEW170 SCT220 20/13 A2991 RMK AC2CI1 SLP127=

CYVR;2005-06-21 17:00;METAR CYVR 211700Z 30015KT 30SM SCT160 BKN210 19/15 A2989 RMK AC3CI2 SLP121=

CYVR;2005-06-21 18:00;METAR CYVR 211800Z 32014KT 30SM BKN160 BKN220 19/16 A2985 RMK AC5CI1 SLP110=

CYVR;2005-06-21 19:00;METAR CYVR 211900Z 31014KT 30SM BKN160 BKN220 21/16 A2985 RMK AC5CI1 SLP109=

CYVR;2005-06-21 21:00;METAR CYVR 212100Z 32012KT 30SM FEW060 BKN140 OVC220 21/15 A2981 RMK SC2AC5CS2 SLP095=

CYVR;2005-06-21 22:00;METAR CYVR 212200Z 25007KT 30SM FEW060 BKN140 OVC220 20/15 A2980 RMK SC2AC5CS2 SLP092=

CYVR;2005-06-21 23:00;METAR CYVR 212300Z 34007KT 30SM FEW050 BKN130 OVC230 20/15 A2977 RMK SC2AC5CS2 SLP081=

CYVR;2005-06-22 00:00;METAR CYVR 220000Z 21013KT 20SM FEW050 BKN120 OVC220 20/14 A2982 RMK SC2AC5CS1 SLP099=

CYVR;2005-06-22 01:00;METAR CYVR 220100Z 15016G22KT 10SM -RA FEW040 BKN074 OVC120 19/14 A2989 RMK SC1AC6AS2 PRESRR SLP122=

CYVR;2005-06-22 01:46;SPECI CYVR 220146Z 11008KT 6SM -RA FEW041 BKN061 OVC090 17/ RMK SF2SC4AC2=

CYVR;2005-06-22 01:55;SPECI CYVR 220155Z 08010KT 6SM -RA BR FEW041 BKN061 OVC081 17/ RMK SF2SC4AC2=

CYVR;2005-06-22 02:00;METAR CYVR 220200Z 08014KT 6SM -RA BR FEW042 BKN060 OVC090 17/15 A2994 RMK SF2SC5AC2 SLP138=

CYVR;2005-06-22 02:19;SPECI CYVR 220219Z 04011G16KT 6SM -RA BR FEW026 BKN061 OVC080 17/ RMK SC2SC5AC1 VIS LWR N QUAD 4 SM=

CYVR;2005-06-22 02:49;SPECI CYVR 220249Z 15011KT 7SM -RA FEW030 SCT061 OVC080 17/ RMK SF2SC2AC4 VIS NE QUAD 10 SM=

CYVR;2005-06-22 03:00;METAR CYVR 220300Z 13015KT 12SM -RA FEW030 SCT060 OVC081 17/15 A2994 RMK SF1SC2AC5 VIS E QUAD HIER 15 SM SLP139=

CYVR;2005-06-22 03:26;SPECI CYVR 220326Z 11011KT 15SM SCT045 BKN073 OVC080 17/ RMK SC3AC2AC2=

CYVR;2005-06-22 04:00;METAR CYVR 220400Z 13011KT 15SM FEW015 SCT045 OVC080 17/15 A2994 RMK SC1SC2AC5 SLP139=

CYVR;2005-06-22 04:52;SPECI CYVR 220452Z 12008KT 15SM -RA SCT018 SCT045 OVC080 17/ RMK SC3SC1AC4 PCPN VRY LGT=

CYVR;2005-06-22 05:00;METAR CYVR 220500Z 13009KT 12SM -RA SCT013 BKN049 OVC069 17/15 A2995 RMK SC4SC2AC2 SLP142=

CYVR;2005-06-22 06:00;METAR CYVR 220600Z 13008KT 15SM -RA FEW025 SCT060 OVC085 16/14 A2995 RMK SC2SC2AC4 SLP141=

CYVR;2005-06-22 09:00;METAR CYVR 220900Z 09006KT 10SM -RA FEW045 OVC090 15/14 A2994 RMK SC2AC6 SLP140=

CYVR;2005-06-22 10:00;METAR CYVR 221000Z 12007KT 15SM BKN090 BKN110 15/14 A2995 RMK AC5AC2 SLP141=

CYVR;2005-06-22 12:00;METAR CYVR 221200Z 13007KT 15SM FEW025 SCT045 OVC110 14/13 A2998 RMK SC2SC2AC5 SLP151=

CYVR;2005-06-22 13:00;METAR CYVR 221300Z 10007KT 15SM FEW015 SCT035 OVC090 14/13 A2999 RMK SF1SC3AC4 SLP156=

CYVR;2005-06-22 14:00;METAR CYVR 221400Z 11007KT 15SM FEW015 SCT045 OVC100 15/13 A3000 RMK SC1SC2AC5 SLP160=

CYVR;2005-06-22 15:00;METAR CYVR 221500Z 13008KT 15SM FEW015 BKN046 OVC100 15/13 A3001 RMK SC1SC4AC3 SLP164=

CYVR;2005-06-22 15:27;SPECI CYVR 221527Z 14010KT 15SM FEW009 BKN043 OVC090 15/ RMK SF1SC5AC2=

CYVR;2005-06-22 16:00;METAR CYVR 221600Z 14008KT 15SM FEW009 BKN043 OVC100 15/12 A3003 RMK SF1SC6AC2 SLP170=

CYVR;2005-06-22 17:00;METAR CYVR 221700Z 15009KT 15SM FEW009 BKN046 BKN100 16/13 A3003 RMK SF1SC5AC2 SLP169=

CYVR;2005-06-22 18:00;METAR CYVR 221800Z 15008KT 15SM FEW015 BKN036 OVC090 17/12 A3004 RMK SC2SC3AC2 SLP173=

CYVR;2005-06-22 19:00;METAR CYVR 221900Z 16013KT 15SM FEW025 BKN036 OVC080 17/13 A3005 RMK SC2SC5AC1 SLP175=

CYVR;2005-06-22 20:00;METAR CYVR 222000Z 17012KT 15SM FEW020 OVC032 17/13 A3005 RMK SC2SC6 SLP176=

CYVR;2005-06-22 21:00;METAR CYVR 222100Z 16010KT 15SM FEW018 BKN046 BKN080 18/13 A3006 RMK SC2SC4AC1 SLP179=

CYVR;2005-06-22 22:00;METAR CYVR 222200Z 15010KT 20SM SCT035 BKN064 19/12 A3006 RMK SC3SC3 SLP178=

CYVR;2005-06-23 00:00;METAR CYVR 230000Z 17011KT 20SM SCT037 20/12 A3005 RMK SC3 SLP176=

CYVR;2005-06-23 02:00;METAR CYVR 230200Z 16012KT 20SM FEW035 FEW080 19/10 A3006 RMK SC1AC0 SLP179=

CYVR;2005-06-23 03:00;METAR CYVR 230300Z 14009KT 20SM FEW038 FEW080 18/10 A3007 RMK SC1AC1 SLP182=

CYVR;2005-06-23 04:00;METAR CYVR 230400Z 10007KT 20SM FEW040 BKN080 17/10 A3008 RMK SC1AC2 SLP185=

CYVR;2005-06-23 05:00;METAR CYVR 230500Z 10010KT 20SM FEW040 SCT085 15/10 A3009 RMK SC1AC2 SLP191=

CYVR;2005-06-23 06:00;METAR CYVR 230600Z 10012KT 20SM BKN086 14/10 A3010 RMK AC2 SLP194=

CYVR;2005-06-23 07:00;METAR CYVR 230700Z 10009KT 20SM SCT087 14/09 A3011 RMK AC2 SLP197=

CYVR;2005-06-23 08:00;METAR CYVR 230800Z 11008KT 20SM FEW085 13/09 A3012 RMK AC2 SLP201=

CYVR;2005-06-23 09:00;METAR CYVR 230900Z 10009KT 20SM FEW085 FEW220 13/09 A3013 RMK AC2CI0 SLP204=

CYVR;2005-06-23 10:00;METAR CYVR 231000Z 09008KT 20SM BKN064 BKN085 13/10 A3014 RMK SC6AC1 SLP206=

CYVR;2005-06-23 11:00;METAR CYVR 231100Z 10009KT 20SM BKN064 13/10 A3014 RMK SC6 SLP206=

CYVR;2005-06-23 12:00;METAR CYVR 231200Z 10007KT 20SM BKN064 13/10 A3015 RMK SC6 SLP210=

CYVR;2005-06-23 13:00;METAR CYVR 231300Z 10008KT 20SM BKN063 13/10 A3016 RMK SC6 SLP214=

CYVR;2005-06-23 14:00;METAR CYVR 231400Z 09009KT 15SM BKN066 BKN220 14/10 A3016 RMK AC6CI1 SLP214=

CYVR;2005-06-23 15:00;METAR CYVR 231500Z 10005KT 15SM FEW030 FEW074 FEW220 15/10 A3016 RMK SC1AC1CI1 TR SC SLP214=

CYVR;2005-06-23 16:00;METAR CYVR 231600Z 09003KT 15SM SCT030 SCT060 BKN220 16/11 A3018 RMK CU3SC1CI0 SLP219=

CYVR;2005-06-23 17:00;METAR CYVR 231700Z 12006KT 15SM BKN021 BKN040 16/11 A3017 RMK SC6SC1 SLP218=

CYVR;2005-06-23 18:00;METAR CYVR 231800Z 25002KT 15SM SCT020 OVC036 17/11 A3017 RMK SC3SC5 BINOVC W SLP216=

CYVR;2005-06-23 19:00;METAR CYVR 231900Z 27007KT 15SM BKN028 BKN220 17/12 A3016 RMK SC5CI0 SLP212=

CYVR;2005-06-23 20:00;METAR CYVR 232000Z 25007KT 15SM SCT030 SCT220 17/13 A3015 RMK SC3CI0 SLP210=

CYVR;2005-06-23 21:00;METAR CYVR 232100Z 24006KT 15SM FEW030 SCT220 18/13 A3013 RMK SC2CI0 SLP204=

CYVR;2005-06-23 22:00;METAR CYVR 232200Z 26006G15KT 15SM FEW040 BKN220 19/12 A3012 RMK SC2CI0 SLP199=

CYVR;2005-06-23 23:00;METAR CYVR 232300Z 27007KT 15SM FEW040 BKN220 19/13 A3011 RMK SC1CI0 SLP195=

CYVR;2005-06-24 00:00;METAR CYVR 240000Z 26007KT 15SM FEW040 BKN220 19/13 A3009 RMK SC1CI1 SLP190=

CYVR;2005-06-24 01:00;METAR CYVR 240100Z 25008KT 15SM FEW040 BKN220 19/12 A3007 RMK SC1CI2 SLP184=

CYVR;2005-06-24 03:00;METAR CYVR 240300Z 24003KT 20SM FEW100 OVC220 18/11 A3005 RMK AC1CI3 SLP177=

CYVR;2005-06-24 04:00;METAR CYVR 240400Z 28003KT 20SM FEW100 OVC220 17/11 A3005 RMK AC1CI3=

CYVR;2005-06-24 05:00;METAR CYVR 240500Z 00000KT 20SM FEW100 OVC220 16/10 A3005 RMK AC1CI2 SLP176=

CYVR;2005-06-24 06:00;METAR CYVR 240600Z 15003KT 20SM BKN150 OVC220 17/12 A3004 RMK AC5CI1 SLP173=

CYVR;2005-06-24 09:00;METAR CYVR 240900Z 11006KT 20SM SCT150 BKN220 14/12 A3002 RMK AC2CI1 SLP166=

CYVR;2005-06-24 10:00;METAR CYVR 241000Z 09005KT 20SM SCT180 BKN240 14/11 A3001 RMK AC2CI2 SLP163=

CYVR;2005-06-24 11:00;METAR CYVR 241100Z 12003KT 20SM FEW180 SCT240 14/11 A3001 RMK AC2CI1 SLP163=

CYVR;2005-06-24 12:00;METAR CYVR 241200Z 09005KT 20SM FEW180 FEW240 13/10 A3001 RMK AC1CI1 SLP161=

CYVR;2005-06-24 13:00;METAR CYVR 241300Z 13003KT 20SM FEW180 FEW240 14/11 A3001 RMK AC0CI1 SLP162=

CYVR;2005-06-24 14:00;METAR CYVR 241400Z 12004KT 20SM BKN240 16/11 A3001 RMK CI3 SLP161=

CYVR;2005-06-24 15:00;METAR CYVR 241500Z 12005KT 20SM BKN240 17/11 A3001 RMK CI3 SLP161=

CYVR;2005-06-24 16:00;METAR CYVR 241600Z 12002KT 20SM FEW100 OVC220 18/11 A3000 RMK AC1CI4 SLP160=

CYVR;2005-06-24 17:00;METAR CYVR 241700Z 24008KT 20SM FEW030 FEW120 OVC230 19/12 A2999 RMK CU1AC1CI5 TR CU SLP156=

CYVR;2005-06-24 18:00;METAR CYVR 241800Z 23010KT 20SM FEW120 OVC230 20/13 A2998 RMK AC2CI3 SLP151=

CYVR;2005-06-24 19:00;METAR CYVR 241900Z 22011KT 20SM FEW035 SCT120 BKN230 21/13 A2997 RMK SC1AC2CI2 SLP149=

CYVR;2005-06-24 20:00;METAR CYVR 242000Z 22006KT 20SM FEW035 SCT120 OVC230 21/11 A2995 RMK SC1AC2CI2 SLP142=

CYVR;2005-06-24 21:00;METAR CYVR 242100Z 21007KT 20SM FEW040 BKN087 OVC230 22/10 A2994 RMK SC1AC6CI1 SLP140=

CYVR;2005-06-24 22:00;METAR CYVR 242200Z 22008KT 20SM FEW040 BKN082 OVC210 22/10 A2993 RMK SC2AC5CI2 SLP136=

CYVR;2005-06-24 23:00;METAR CYVR 242300Z 21008KT 20SM SCT065 BKN091 OVC210 22/11 A2991 RMK SC3AC4CI0 SLP130=

CYVR;2005-06-25 00:00;METAR CYVR 250000Z 31011G16KT 20SM BKN062 BKN090 20/14 A2991 RMK SC6AC1 SLP130=

CYVR;2005-06-25 01:00;METAR CYVR 250100Z 31006KT 20SM -RA BKN055 BKN076 OVC210 17/14 A2990 RMK SC5AC2CI0 SLP125=

CYVR;2005-06-25 01:22;SPECI CYVR 250122Z 32003KT 20SM BKN060 BKN080 18/ RMK SC6AC2=

CYVR;2005-06-25 02:00;METAR CYVR 250200Z 30004KT 20SM FEW060 FEW080 20/13 A2988 RMK SC1AC1 SLP120=

CYVR;2005-06-25 03:00;METAR CYVR 250300Z 29004KT 20SM FEW060 FEW080 19/12 A2988 RMK SC0AC1 SLP118=

CYVR;2005-06-25 04:00;METAR CYVR 250400Z 30003KT 20SM FEW060 FEW120 17/12 A2988 RMK SC1AC2 TR SC SLP119=

CYVR;2005-06-25 05:00;METAR CYVR 250500Z 32004KT 20SM FEW080 SCT120 16/12 A2990 RMK AC1AC1 SLP124=

CYVR;2005-06-25 06:00;METAR CYVR 250600Z 28004KT 20SM BKN080 17/13 A2990 RMK AC3 SLP124=

CYVR;2005-06-25 07:00;METAR CYVR 250700Z 30012KT 20SM FEW014 BKN090 BKN110 17/14 A2990 RMK SF2AC3AC1 SLP125=

CYVR;2005-06-25 07:21;SPECI CYVR 250721Z 30009KT 15SM -RA SCT011 BKN110 17/ RMK SC3AC3=

CYVR;2005-06-25 08:00;METAR CYVR 250800Z 30012KT 15SM SCT015 BKN110 16/14 A2989 RMK SC2AC2 SLP121=

CYVR;2005-06-25 10:00;METAR CYVR 251000Z 32004KT 15SM BKN012 BKN055 16/14 A2987 RMK SC5SC1 SLP116=

CYVR;2005-06-25 10:14;SPECI CYVR 251014Z 36002KT 15SM SCT013 BKN055 16/ RMK SC4SC0=

CYVR;2005-06-25 11:00;METAR CYVR 251100Z 09006KT 15SM FEW015 SCT110 14/12 A2990 RMK SC2AC1 SLP124=

CYVR;2005-06-25 12:00;METAR CYVR 251200Z 07007KT 15SM BKN016 OVC110 15/13 A2991 RMK SC5AC1 SLP128=

CYVR;2005-06-25 12:34;SPECI CYVR 251234Z 04005KT 15SM OVC014 15/ RMK SC7=

CYVR;2005-06-25 12:49;SPECI CYVR 251249Z 04006KT 15SM OVC016 15/ RMK SC7=

CYVR;2005-06-25 12:56;SPECI CYVR 251256Z 04006KT 15SM BKN009 OVC017 15/ RMK SC5SC2=

CYVR;2005-06-25 13:00;METAR CYVR 251300Z 05005KT 15SM BKN009 OVC017 15/13 A2992 RMK SC5SC2 SLP133=

CYVR;2005-06-25 13:15;SPECI CYVR 251315Z 08005KT 15SM BKN011 OVC017 15/ RMK SC6SC2=

CYVR;2005-06-25 14:00;METAR CYVR 251400Z 09004KT 15SM BKN014 OVC022 15/12 A2993 RMK SC6SC2 SLP135=

CYVR;2005-06-25 15:00;METAR CYVR 251500Z 09003KT 15SM BKN011 BKN020 15/13 A2993 RMK SC6SC2 SLP136=

CYVR;2005-06-25 15:40;SPECI CYVR 251540Z 00000KT 15SM SCT012 BKN027 16/ RMK SC4SC3=

CYVR;2005-06-25 16:00;METAR CYVR 251600Z 10003KT 15SM FEW012 BKN027 16/13 A2993 RMK SC2SC5 SLP137=

CYVR;2005-06-25 17:00;METAR CYVR 251700Z 29009KT 12SM SCT012 BKN027 17/14 A2994 RMK SC4SC3 SLP138=

CYVR;2005-06-25 18:00;METAR CYVR 251800Z 29007KT 12SM FEW015 SCT027 BKN060 18/14 A2993 RMK CF1CU3SC1 SLP137=

CYVR;2005-06-25 19:00;METAR CYVR 251900Z 27007KT 15SM SCT030 BKN060 18/15 A2994 RMK CU4SC1 TCU ASOCT SLP138=

CYVR;2005-06-25 21:00;METAR CYVR 252100Z 25007KT 15SM FEW035TCU FEW220 20/15 A2993 RMK TCU2CI1 SLP134=

CYVR;2005-06-25 22:00;METAR CYVR 252200Z 24008KT 20SM FEW040TCU FEW220 21/14 A2992 RMK TCU2CI1 SLP131=

CYVR;2005-06-26 00:00;METAR CYVR 260000Z 26005KT 20SM FEW050TCU FEW230 21/14 A2989 RMK TCU1CI1 SLP123=

CYVR;2005-06-26 01:00;METAR CYVR 260100Z 25006KT 20SM FEW055TCU FEW230 21/14 A2987 RMK TCU1CI1 SLP116=

CYVR;2005-06-26 02:00;METAR CYVR 260200Z 23005KT 30SM FEW050TCU FEW230 21/14 A2986 RMK TCU1CI1 SLP112=

CYVR;2005-06-26 03:00;METAR CYVR 260300Z 21005KT 30SM FEW050TCU FEW220 20/13 A2985 RMK TCU1CI1 SLP109=

CYVR;2005-06-26 04:00;METAR CYVR 260400Z 19003KT 30SM FEW050 FEW220 19/12 A2985 RMK SC1CI1 SLP109=

CYVR;2005-06-26 05:00;METAR CYVR 260500Z 14002KT 30SM FEW045 FEW220 19/12 A2986 RMK SC1CI1 SLP111=

CYVR;2005-06-26 06:00;METAR CYVR 260600Z 10010KT 30SM FEW220 16/12 A2987 RMK CI2 SLP114=

CYVR;2005-06-26 08:00;METAR CYVR 260800Z 10007KT 20SM FEW220 15/12 A2986 RMK CI1 SLP111=

CYVR;2005-06-26 10:00;METAR CYVR 261000Z 11007KT 20SM FEW060 SCT220 15/11 A2985 RMK SC1CI2 SLP107=

CYVR;2005-06-26 11:00;METAR CYVR 261100Z 10008KT 20SM FEW060 SCT230 14/11 A2984 RMK SC2CI1 SLP106=

CYVR;2005-06-26 12:00;METAR CYVR 261200Z 11007KT 20SM FEW068 SCT240 14/11 A2984 RMK AC1CI2 SLP105=

CYVR;2005-06-26 13:00;METAR CYVR 261300Z 12009KT 20SM FEW070 BKN240 14/11 A2983 RMK AC2CI2 SLP103=

CYVR;2005-06-26 14:00;METAR CYVR 261400Z 11010KT 20SM FEW055 SCT090 OVC240 14/11 A2984 RMK CU2AC2CS4 SLP104=

CYVR;2005-06-26 15:00;METAR CYVR 261500Z 12010KT 20SM FEW050 BKN090 OVC230 15/12 A2984 RMK CU2AC3CS2 SLP104=

CYVR;2005-06-26 16:00;METAR CYVR 261600Z 13012KT 20SM SCT052 BKN090 OVC230 16/12 A2984 RMK CU3AC2CS2 SLP104=

CYVR;2005-06-26 17:00;METAR CYVR 261700Z 11012KT 20SM FEW040 BKN091 OVC230 16/12 A2984 RMK SC1AC4CS3 SLP105=

CYVR;2005-06-26 18:00;METAR CYVR 261800Z 12011G16KT 20SM BKN046 OVC090 17/12 A2984 RMK SC5AC3 SLP104=

CYVR;2005-06-26 19:00;METAR CYVR 261900Z 14013KT 20SM FEW050 BKN085 OVC230 17/12 A2983 RMK SC2AC3CS3 SLP103=

CYVR;2005-06-26 20:00;METAR CYVR 262000Z 14009KT 20SM FEW040 BKN082 OVC230 17/11 A2983 RMK SC1AC5CS2 SLP103=

CYVR;2005-06-26 21:00;METAR CYVR 262100Z 14010KT 20SM FEW030 BKN083 OVC230 17/11 A2982 RMK SC1AC4CS3 SLP099=

CYVR;2005-06-26 22:00;METAR CYVR 262200Z 11008KT 20SM FEW030 BKN086 OVC220 18/12 A2982 RMK CU1AC4CS3 SLP099=

CYVR;2005-06-26 23:00;METAR CYVR 262300Z 13007KT 20SM FEW030 SCT085 OVC130 18/11 A2982 RMK CU1AC3AC4 SLP098=

CYVR;2005-06-27 00:00;METAR CYVR 270000Z 14008KT 20SM FEW030 FEW085 OVC130 18/12 A2982 RMK SC2AC1AC6 SLP099=

CYVR;2005-06-27 01:00;METAR CYVR 270100Z 13007KT 20SM FEW030 BKN084 OVC130 18/12 A2982 RMK SC1AC4AC3 SLP099=

CYVR;2005-06-27 02:00;METAR CYVR 270200Z 10006KT 20SM FEW030 BKN080 OVC120 17/12 A2982 RMK SC1AC5AC2 SLP099=

CYVR;2005-06-27 03:00;METAR CYVR 270300Z 11008KT 20SM FEW030 BKN080 OVC110 17/12 A2983 RMK SC1AC4AC3 SLP100=

CYVR;2005-06-27 03:21;SPECI CYVR 270321Z 11007KT 20SM -SHRA FEW030 BKN085 OVC120 16/ RMK SC1AC6AC2=

CYVR;2005-06-27 04:00;METAR CYVR 270400Z 12007KT 15SM -SHRA FEW030 BKN085 OVC120 15/12 A2983 RMK SC1AC5AC2 SLP101=

CYVR;2005-06-27 04:20;SPECI CYVR 270420Z 10006KT 15SM FEW035 BKN085 OVC110 15/ RMK SC1AC5AC2=

CYVR;2005-06-27 05:00;METAR CYVR 270500Z 11009KT 15SM FEW030 BKN045 OVC090 15/12 A2984 RMK SC1SC4AC3 SLP104=

CYVR;2005-06-27 05:39;SPECI CYVR 270539Z 14009KT 15SM -SHRA FEW030 SCT045 BKN090 OVC110 15/ RMK SC1SC3AC2AC2=

CYVR;2005-06-27 06:00;METAR CYVR 270600Z 14006KT 15SM -SHRA FEW030 SCT045 BKN075 OVC100 15/12 A2984 RMK SC1SC3AC2AC2 SLP105=

CYVR;2005-06-27 07:00;METAR CYVR 270700Z 11008KT 10SM -SHRA FEW007 FEW030 BKN045 OVC065 14/12 A2984 RMK SF1SC1SC3SC3 SLP106=

CYVR;2005-06-27 08:00;METAR CYVR 270800Z 11004KT 10SM -RA FEW009 SCT040 OVC090 14/12 A2984 RMK SF1SC3AC4 SLP105=

CYVR;2005-06-27 10:00;METAR CYVR 271000Z 11002KT 10SM -RA FEW009 FEW020 BKN070 OVC090 14/12 A2983 RMK SF1SC2AC2AC3 SLP100=

CYVR;2005-06-27 11:00;METAR CYVR 271100Z 14003KT 10SM -RA FEW009 FEW020 OVC081 14/12 A2983 RMK SF1SC2AC6 SLP101=

CYVR;2005-06-27 12:00;METAR CYVR 271200Z 14003KT 12SM FEW009 FEW020 BKN070 OVC090 14/12 A2983 RMK SF1SC2AC3AC2 SLP100=

CYVR;2005-06-27 13:00;METAR CYVR 271300Z 17002KT 12SM FEW009 FEW020 BKN048 OVC090 14/12 A2983 RMK SF1SC2SC3AC2 SLP102=

CYVR;2005-06-27 13:46;SPECI CYVR 271346Z 00000KT 10SM -SHRA FEW008 BKN047 OVC090 14/ RMK SF1SC6AC2=

CYVR;2005-06-27 14:00;METAR CYVR 271400Z 18002KT 10SM -SHRA FEW009 BKN046 OVC090 14/13 A2983 RMK SF2SC6AC1 PCPN VRY LGT SLP103=

CYVR;2005-06-27 15:00;METAR CYVR 271500Z 17003KT 8SM -SHRA SCT016 BKN028 OVC045 14/13 A2984 RMK SF4SC2SC2 PCPN VRY LGT SLP105=

CYVR;2005-06-27 16:26;SPECI CYVR 271626Z 17004KT 6SM BR BKN016 OVC027 15/ RMK SF5SC3=

CYVR;2005-06-27 17:00;METAR CYVR 271700Z 18004KT 6SM BR FEW008 BKN016 OVC025 15/13 A2984 RMK SF2SC4SC2 SLP106=

CYVR;2005-06-27 17:25;SPECI CYVR 271725Z 17006KT 6SM BR BKN009 OVC016 15/ RMK SC6SC2=

CYVR;2005-06-27 18:00;METAR CYVR 271800Z 17005KT 6SM BR BKN008 OVC015 15/13 A2985 RMK SC6SC2 SLP107=

CYVR;2005-06-27 18:15;SPECI CYVR 271815Z 17006KT 6SM -SHRA BR BKN007 OVC015 15/ RMK SC6SC2 PCPN VRY LGT=

CYVR;2005-06-27 20:00;METAR CYVR 272000Z 14008KT 6SM -SHRA BR BKN009 OVC015 15/13 A2986 RMK SC7SC1 SLP113=

CYVR;2005-06-27 21:00;METAR CYVR 272100Z 10007KT 6SM BR SCT009 OVC013 16/14 A2987 RMK SC4SC4 SLP114=

CYVR;2005-06-27 22:00;METAR CYVR 272200Z 11007KT 10SM FEW009 OVC014 17/14 A2987 RMK SC2SC6 SLP116=

CYVR;2005-06-27 22:53;SPECI CYVR 272253Z 14007KT 10SM BKN012 BKN025 17/ RMK SC6SC2 SML BRK=

CYVR;2005-06-27 23:36;SPECI CYVR 272336Z 13008KT 10SM SCT012 BKN026 18/ RMK SC3SC4=

CYVR;2005-06-28 00:00;METAR CYVR 280000Z 14007KT 10SM BKN016 BKN025 18/14 A2988 RMK SC5SC2 TCU EMBD SLP118=

CYVR;2005-06-28 02:00;METAR CYVR 280200Z 11007KT 20SM FEW012 FEW029 SCT090 18/13 A2988 RMK SF1SC2AC2 VIS LWR N - NE SLP120=

CYVR;2005-06-28 03:00;METAR CYVR 280300Z 11010KT 30SM FEW012 FEW030 SCT090 17/13 A2989 RMK SF1SC2AC2 VIS N - E 10 SLP123=

CYVR;2005-06-28 04:00;METAR CYVR 280400Z 11006KT 30SM FEW014 FEW030 BKN100 17/13 A2990 RMK SF1SC1AC4 VIS N - E 15 SLP126=

CYVR;2005-06-28 05:00;METAR CYVR 280500Z 11005KT 20SM FEW014 FEW030 BKN100 16/13 A2992 RMK SF1SC1AC5 SLP133=

CYVR;2005-06-28 06:00;METAR CYVR 280600Z 12005KT 20SM FEW015 FEW030 BKN110 16/13 A2993 RMK SC1SC1AC5 SLP136=

CYVR;2005-06-28 07:00;METAR CYVR 280700Z 11005KT 20SM FEW015 SCT050 BKN100 16/13 A2993 RMK SC1SC3AC3 SLP137=

CYVR;2005-06-28 08:00;METAR CYVR 280800Z 11004KT 15SM FEW015 BKN049 BKN090 16/13 A2994 RMK SC2SC5AC1 SLP139=

CYVR;2005-06-28 09:00;METAR CYVR 280900Z 11007KT 15SM FEW015 BKN046 BKN090 15/13 A2994 RMK SC2SC5AC1 SLP140=

CYVR;2005-06-28 10:00;METAR CYVR 281000Z 11006KT 15SM FEW015 BKN033 BKN050 BKN090 15/12 A2996 RMK SC1SC4SC2AC1 SLP145=

CYVR;2005-06-28 11:00;METAR CYVR 281100Z 12005KT 15SM FEW015 BKN034 BKN050 BKN090 15/11 A2996 RMK SC1SC5SC1AC1 SLP147=

CYVR;2005-06-28 12:00;METAR CYVR 281200Z 13007KT 15SM FEW015 BKN035 BKN050 OVC090 15/11 A2998 RMK SC1SC6SC1AC1 SLP152=

CYVR;2005-06-28 13:00;METAR CYVR 281300Z 10004KT 20SM FEW015 BKN036 BKN050 14/12 A2999 RMK SC1SC6SC1 SLP156=

CYVR;2005-06-28 14:00;METAR CYVR 281400Z 14006KT 20SM FEW015 BKN035 OVC050 15/11 A3001 RMK SF1SC6SC1 SLP163=

CYVR;2005-06-28 15:00;METAR CYVR 281500Z 10005KT 20SM FEW015 BKN033 BKN050 15/12 A3002 RMK SC1SC6SC1 SLP166=

CYVR;2005-06-28 16:00;METAR CYVR 281600Z 12007KT 20SM FEW018 BKN034 BKN050 16/12 A3003 RMK SC1SC6SC1 SLP168=

CYVR;2005-06-28 17:00;METAR CYVR 281700Z 10003KT 20SM FEW018 BKN032 BKN050 17/12 A3004 RMK CU2SC5SC1 SLP171=

CYVR;2005-06-28 18:00;METAR CYVR 281800Z 14006KT 20SM FEW020 BKN032 BKN050 18/13 A3004 RMK CU2SC4SC1 SLP174=

CYVR;2005-06-28 19:00;METAR CYVR 281900Z 13007KT 20SM SCT022 BKN035 BKN100 19/13 A3005 RMK CU3SC3AC1 SLP176=

CYVR;2005-06-28 20:00;METAR CYVR 282000Z 23010G15KT 15SM SCT023 BKN045 BKN100 19/13 A3006 RMK CU3SC3AC1 SLP179=

CYVR;2005-06-28 21:00;METAR CYVR 282100Z 12007KT 15SM FEW025 SCT045 BKN100 20/13 A3007 RMK CU2SC2AC3 SLP182=

CYVR;2005-06-28 22:00;METAR CYVR 282200Z 15006KT 15SM FEW040 BKN100 20/13 A3007 RMK SC2AC2 SLP184=

CYVR;2005-06-28 23:00;METAR CYVR 282300Z 14008KT 15SM FEW040 SCT100 BKN230 20/13 A3008 RMK SC1AC3CI1 SLP185=

CYVR;2005-06-29 00:00;METAR CYVR 290000Z 14009KT 15SM FEW040 FEW100 SCT230 20/14 A3008 RMK SC1AC2CI2 SLP185=

CYVR;2005-06-29 01:00;METAR CYVR 290100Z 14009KT 15SM FEW035 SCT100 BKN240 19/13 A3008 RMK SC1AC2CI2 SLP185=

CYVR;2005-06-29 02:00;METAR CYVR 290200Z 14011KT 20SM FEW030 SCT050 BKN090 BKN240 19/13 A3009 RMK SC2SC2AC2CI1 SLP188=

CYVR;2005-06-29 03:00;METAR CYVR 290300Z 14010KT 20SM FEW035 SCT050 BKN100 BKN240 18/13 A3009 RMK SC2SC2AC2CI1 SLP190=

CYVR;2005-06-29 04:00;METAR CYVR 290400Z 13010KT 20SM BKN039 BKN060 BKN100 17/13 A3010 RMK SC5SC1AC1 SLP192=

CYVR;2005-06-29 05:00;METAR CYVR 290500Z 14009KT 20SM BKN041 BKN060 BKN110 17/13 A3011 RMK SC6SC1AC1 SLP195=

CYVR;2005-06-29 06:00;METAR CYVR 290600Z 10007KT 20SM BKN040 BKN055 BKN110 16/13 A3011 RMK SC6SC1AC1 SLP198=

CYVR;2005-06-29 07:00;METAR CYVR 290700Z 11009KT 15SM BKN034 BKN050 BKN100 16/13 A3013 RMK SC6SC1AC1 SLP202=

CYVR;2005-06-29 10:00;METAR CYVR 291000Z 10010KT 15SM FEW035 BKN050 BKN080 15/12 A3012 RMK SC2SC2AC2 SLP201=

CYVR;2005-06-29 11:00;METAR CYVR 291100Z 10012KT 15SM FEW035 BKN053 BKN090 16/12 A3013 RMK SC2SC4AC2 SLP203=

CYVR;2005-06-29 12:00;METAR CYVR 291200Z 10010KT 15SM FEW009 FEW030 BKN053 OVC075 15/12 A3014 RMK CF1SC2SC5AC1 SLP205=

CYVR;2005-06-29 13:00;METAR CYVR 291300Z 12014KT 15SM FEW011 BKN053 BKN075 OVC160 15/12 A3014 RMK SF1SC6AC1AC1 SLP208=

CYVR;2005-06-29 14:00;METAR CYVR 291400Z 13012KT 15SM FEW015 SCT055 BKN067 OVC090 15/12 A3015 RMK CF1SC2AC3AC2 SLP209=

CYVR;2005-06-29 14:19;SPECI CYVR 291419Z 11013KT 15SM -RA FEW015 BKN051 BKN070 OVC090 15/ RMK CU1SC4AC2AC1 PCPN VRY LGT=

CYVR;2005-06-29 14:35;SPECI CYVR 291435Z 10011KT 15SM FEW015 BKN050 BKN070 OVC090 16/ RMK CU1SC4AC2AC1=

CYVR;2005-06-29 15:00;METAR CYVR 291500Z 10009KT 15SM FEW015 BKN050 OVC090 15/12 A3016 RMK CF1SC5AC2 SLP212=

CYVR;2005-06-29 15:53;SPECI CYVR 291553Z 11011KT 15SM -RA BKN019 OVC048 16/ RMK SC5SC3 PCPN VRY LGT=

CYVR;2005-06-29 16:00;METAR CYVR 291600Z 12011KT 15SM -RA FEW015 SCT019 OVC044 16/12 A3015 RMK CF1SC3SC4 PCPN VRY LGT SLP211=

CYVR;2005-06-29 16:26;SPECI CYVR 291626Z 12011KT 15SM FEW015 SCT020 OVC044 16/ RMK CF1SC2SC5=

CYVR;2005-06-29 17:00;METAR CYVR 291700Z 13010G16KT 15SM -RA FEW015 BKN023 OVC045 16/12 A3015 RMK SC2SC4SC2 SLP211=

CYVR;2005-06-29 17:24;SPECI CYVR 291724Z 13012KT 15SM FEW015 BKN027 OVC045 16/ RMK SC1SC5SC2=

CYVR;2005-06-29 18:00;METAR CYVR 291800Z 13012KT 15SM FEW023 BKN027 OVC040 16/12 A3016 RMK SC2SC4SC2 SLP213=

CYVR;2005-06-29 19:00;METAR CYVR 291900Z 11011KT 20SM SCT025 BKN039 OVC090 17/12 A3016 RMK SC3SC3AC2 SLP213=

CYVR;2005-06-30 12:53;SPECI CYVR 301253Z 11007KT 8SM FEW007 SCT045 BKN072 15/ RMK SC2SC2AC2=

CYVR;2005-06-30 14:06;SPECI CYVR 301406Z 13007KT 12SM -RA FEW010 BKN038 OVC055 16/ RMK SC1SC6SC2=

CYVR;2005-06-30 14:14;SPECI CYVR 301414Z 13008KT 6SM -RA BR FEW010 BKN025 OVC045 16/ RMK SC1SC6SC2 VIS N QUAD 3 SM=

CYVR;2005-06-30 14:16;SPECI CYVR 301416Z 13008KT 3SM -RA BR FEW010 BKN025 OVC045 16/ RMK SC1SC6SC2 VIS N QUAD 2 SM=

CYVR;2005-06-30 14:17;SPECI CYVR 301417Z 13008KT 2 1/2SM -RA BR FEW010 BKN025 OVC045 16/ RMK SC1SC6SC2=

CYVR;2005-06-30 14:31;SPECI CYVR 301431Z 14007KT 3SM -RA BR FEW004 BKN020 OVC045 16/ RMK SF1SC6SC2=

CYVR;2005-06-30 15:08;SPECI CYVR 301508Z 12005KT 7SM FEW010 SCT025 OVC045 16/ RMK SF2SC2SC5=

CYVR;2005-07-01 01:00;METAR CYVR 010100Z 14010KT 20SM FEW040 FEW100 SCT220 23/13 A2998 RMK CU1AC1CI1 CONTRAILS / TR AC SLP151=

CYVR;2005-07-01 02:00;METAR CYVR 010200Z 15008KT 20SM FEW040TCU FEW100 SCT220 22/12 A2997 RMK TCU1AC1CI1 SLP148=

CYVR;2005-07-01 03:00;METAR CYVR 010300Z 15005KT 20SM FEW040TCU FEW100 FEW220 22/11 A2996 RMK TCU1AC1CI0 TR AC SLP146=

CYVR;2005-07-01 04:00;METAR CYVR 010400Z 11007KT 20SM FEW040TCU FEW100 18/12 A2996 RMK TCU1AC1 SLP147=

CYVR;2005-07-01 05:00;METAR CYVR 010500Z 11008KT 20SM FEW040 FEW220 16/11 A2998 RMK SC1CS0 SLP151=

CYVR;2005-07-01 06:00;METAR CYVR 010600Z 09010KT 20SM FEW050 FEW220 15/11 A2998 RMK SC1CS0 SLP153=

CYVR;2005-07-01 08:00;METAR CYVR 010800Z 10009KT 20SM FEW050 13/10 A3000 RMK SC1 SLP158=

CYVR;2005-07-01 09:00;METAR CYVR 010900Z 10008KT 20SM FEW050 13/10 A3001 RMK SC1 SLP162=

CYVR;2005-07-01 10:00;METAR CYVR 011000Z 09010KT 20SM FEW050 13/09 A3001 RMK SC1 SLP164=

CYVR;2005-07-01 11:00;METAR CYVR 011100Z 10008KT 20SM FEW050 12/09 A3002 RMK SC2 SLP165=

CYVR;2005-07-01 12:00;METAR CYVR 011200Z 10013KT 20SM SCT040 BKN100 12/09 A3002 RMK SC4AC2 SLP167=

CYVR;2005-07-01 13:00;METAR CYVR 011300Z 09011KT 20SM SCT040 BKN100 12/10 A3003 RMK SC4AC2 SLP170=

CYVR;2005-07-01 14:00;METAR CYVR 011400Z 11011KT 20SM FEW015 OVC023 14/10 A3004 RMK SF1SC7 SLP173=

CYVR;2005-07-01 14:36;SPECI CYVR 011436Z 10012G17KT 15SM FEW012 BKN015 OVC025 14/ RMK SF1SC5SC2=

CYVR;2005-07-01 14:43;SPECI CYVR 011443Z 10013KT 15SM FEW012 BKN016 OVC025 14/ RMK SF1SC4SC3=

CYVR;2005-07-01 15:00;METAR CYVR 011500Z 10011KT 15SM FEW012 BKN016 OVC025 14/10 A3005 RMK SF1SC4SC2 SLP175=

CYVR;2005-07-01 16:00;METAR CYVR 011600Z 11011KT 15SM FEW013 BKN017 OVC025 15/11 A3006 RMK SF1SC4SC2 SLP178=

CYVR;2005-07-01 17:00;METAR CYVR 011700Z 12012KT 15SM SCT015 BKN090 15/10 A3006 RMK SC3AC3 SLP180=

CYVR;2005-07-01 18:00;METAR CYVR 011800Z 11012KT 15SM FEW017 SCT025 BKN090 17/10 A3006 RMK SF1SC2AC4 SLP181=

CYVR;2005-07-01 19:00;METAR CYVR 011900Z 11012KT 15SM FEW025 BKN040 BKN090 17/10 A3007 RMK SC2SC3AC2 SLP182=

CYVR;2005-07-01 20:00;METAR CYVR 012000Z 12012KT 15SM FEW025 BKN038 OVC090 17/11 A3007 RMK SC2SC4AC2 SLP183=

CYVR;2005-07-01 21:00;METAR CYVR 012100Z 13009G15KT 15SM FEW025 BKN039 OVC090 18/11 A3006 RMK CU2SC4AC2 SLP181=

CYVR;2005-07-01 22:00;METAR CYVR 012200Z 11010KT 15SM FEW025 BKN044 BKN090 17/11 A3006 RMK CU1SC5AC2 SLP181=

CYVR;2005-07-01 23:00;METAR CYVR 012300Z 10009KT 15SM FEW025 OVC039 16/11 A3006 RMK SC2SC6 SLP179=

CYVR;2005-07-02 00:00;METAR CYVR 020000Z 10009KT 15SM FEW025 SCT040 OVC069 17/11 A3005 RMK SC2SC2AC4 SLP177=

CYVR;2005-07-02 01:00;METAR CYVR 020100Z 09009KT 15SM SCT039 OVC066 17/12 A3004 RMK SC3AC4 SLP172=

CYVR;2005-07-02 02:00;METAR CYVR 020200Z 08008KT 15SM SCT035 BKN066 OVC084 17/12 A3002 RMK SC3AC2AC2 SLP167=

CYVR;2005-07-02 03:00;METAR CYVR 020300Z 09008KT 15SM FEW037 BKN067 OVC084 17/12 A3001 RMK SC2AC5AC1 SLP164=

CYVR;2005-07-02 04:00;METAR CYVR 020400Z 10007KT 15SM FEW040 BKN067 BKN092 OVC220 16/12 A3000 RMK SC2AC4AC1CI0 SLP160=

CYVR;2005-07-02 05:00;METAR CYVR 020500Z 12007KT 15SM FEW040 BKN066 BKN088 16/11 A3001 RMK SC1AC5AC2 SLP161=

CYVR;2005-07-02 06:00;METAR CYVR 020600Z 10007KT 15SM FEW040 BKN066 BKN088 14/11 A3000 RMK SC1AC6AC1 SLP158=

CYVR;2005-07-02 07:00;METAR CYVR 020700Z 09006KT 15SM BKN059 OVC081 14/11 A2999 RMK SC6AC1 SLP155=

CYVR;2005-07-02 08:00;METAR CYVR 020800Z 10005KT 15SM SCT062 BKN078 14/11 A2999 RMK SC4AC3 SLP155=

CYVR;2005-07-02 09:00;METAR CYVR 020900Z 11006KT 15SM OVC071 14/12 A2998 RMK AC8 SLP152=

CYVR;2005-07-02 10:00;METAR CYVR 021000Z 12005KT 15SM FEW040 OVC075 14/11 A2998 RMK SC2AC6 SLP153=

CYVR;2005-07-02 11:00;METAR CYVR 021100Z 10005KT 15SM SCT053 OVC074 14/11 A2998 RMK SC3AC5 SLP151=

CYVR;2005-07-02 12:00;METAR CYVR 021200Z 10002KT 15SM SCT045 OVC076 14/11 A2998 RMK SC3AC5 SLP154=

CYVR;2005-07-02 13:00;METAR CYVR 021300Z 32002KT 15SM SCT012 BKN024 OVC052 15/12 A2999 RMK SC3SC2SC2 SLP155=

CYVR;2005-07-02 13:13;SPECI CYVR 021313Z 31004KT 12SM -RA FEW012 SCT025 OVC062 15/ RMK SC2SC2SC4 VIS N LWR=

CYVR;2005-07-02 13:39;SPECI CYVR 021339Z 29012G18KT 12SM FEW012 BKN025 OVC062 15/ RMK SC2SC2SC2=

CYVR;2005-07-02 14:00;METAR CYVR 021400Z 28017KT 15SM FEW015 BKN025 OVC060 15/12 A3000 RMK SC1SC5SC2 VIS N LWR 12 SM SLP160=

CYVR;2005-07-02 15:00;METAR CYVR 021500Z 28016KT 15SM FEW025 BKN065 BKN085 15/12 A3002 RMK SC1SC4AC2 SLP165=

CYVR;2005-07-02 16:00;METAR CYVR 021600Z 29015KT 15SM FEW025 SCT065 BKN083 17/12 A3002 RMK SC1SC2AC1 SLP167=

CYVR;2005-07-02 17:00;METAR CYVR 021700Z 27017KT 15SM FEW025 SCT060 BKN085 16/11 A3004 RMK SC2SC2AC1 SLP172=

CYVR;2005-07-02 18:00;METAR CYVR 021800Z 27013KT 15SM FEW025 SCT040 BKN085 17/12 A3005 RMK SC1CU2AC2 SLP175=

CYVR;2005-07-02 19:00;METAR CYVR 021900Z 26013KT 20SM FEW025 FEW030 BKN089 18/12 A3006 RMK CU1SC1AC3 SLP180=

CYVR;2005-07-02 21:00;METAR CYVR 022100Z 22012KT 20SM FEW030 FEW040 FEW120 19/09 A3008 RMK CU1SC1AC1 TR CU SLP185=

CYVR;2005-07-02 22:00;METAR CYVR 022200Z 20010G17KT 20SM FEW040 FEW220 20/09 A3008 RMK SC1CI1 SLP186=

CYVR;2005-07-02 23:00;METAR CYVR 022300Z 19006KT 20SM FEW040 FEW120 FEW220 20/09 A3008 RMK CU1AC1CI1 TR CU SLP187=

CYVR;2005-07-03 00:00;METAR CYVR 030000Z 21008KT 20SM FEW100 FEW220 20/09 A3007 RMK AC2CI0 SLP184=

CYVR;2005-07-03 01:00;METAR CYVR 030100Z 20008KT 30SM FEW040 SCT100 SCT220 20/09 A3007 RMK CU1AC1CI1 TR CU SLP184=

CYVR;2005-07-03 02:00;METAR CYVR 030200Z 16006KT 30SM FEW040 FEW090 BKN220 20/09 A3007 RMK SC1AC2CI1 SLP182=

CYVR;2005-07-03 04:00;METAR CYVR 030400Z 12007KT 30SM FEW060 BKN220 18/09 A3008 RMK SC1CI1 SLP185=

CYVR;2005-07-03 05:00;METAR CYVR 030500Z 10009KT 30SM FEW060 BKN220 15/10 A3009 RMK SC1CI1 SLP188=

CYVR;2005-07-03 06:00;METAR CYVR 030600Z 11009KT 20SM FEW050 FEW090 BKN220 15/11 A3009 RMK SC2AC1CI1 SLP188=

CYVR;2005-07-03 07:00;METAR CYVR 030700Z 09007KT 20SM FEW090 SCT220 14/11 A3009 RMK AC2CI1 SLP188=

CYVR;2005-07-03 09:00;METAR CYVR 030900Z 10009KT 20SM SCT066 13/09 A3008 RMK AC3 SLP187=

CYVR;2005-07-03 10:00;METAR CYVR 031000Z 11006KT 20SM SCT066 12/09 A3008 RMK AC3 SLP186=

CYVR;2005-07-03 11:00;METAR CYVR 031100Z 10007KT 20SM FEW075 SCT240 12/10 A3008 RMK AC2CI1 SLP187=

CYVR;2005-07-03 12:00;METAR CYVR 031200Z 10009KT 20SM FEW070 SCT240 12/09 A3009 RMK AC1CI1 SLP188=

CYVR;2005-07-03 13:00;METAR CYVR 031300Z 09007KT 20SM FEW070 SCT240 12/09 A3009 RMK AC1CI1 SLP189=

CYVR;2005-07-03 14:00;METAR CYVR 031400Z 10007KT 20SM FEW070 SCT240 14/10 A3009 RMK AC1CI1 SLP190=

CYVR;2005-07-03 15:00;METAR CYVR 031500Z 12011KT 30SM FEW045 SCT240 15/10 A3009 RMK CF1CI2 SLP191=

CYVR;2005-07-03 16:00;METAR CYVR 031600Z 11009KT 30SM FEW045 SCT240 17/10 A3010 RMK CU1CI1 SLP192=

CYVR;2005-07-03 17:00;METAR CYVR 031700Z 12008KT 30SM FEW045 FEW080 BKN240 18/11 A3010 RMK CU1AC1CI2 SLP194=

CYVR;2005-07-03 18:00;METAR CYVR 031800Z 12007KT 30SM FEW045 FEW120 BKN240 19/12 A3010 RMK CU1AC1CI3 SLP193=

CYVR;2005-07-03 19:00;METAR CYVR 031900Z 13010KT 20SM FEW045 BKN150 BKN240 19/11 A3009 RMK CU1AC4CI1 SLP191=

CYVR;2005-07-03 20:00;METAR CYVR 032000Z 12010KT 20SM FEW045 SCT120 BKN150 BKN240 20/11 A3010 RMK CU1AC2AS2CI1 SLP192=

CYVR;2005-07-03 21:00;METAR CYVR 032100Z 18009KT 20SM FEW045 FEW110 SCT150 BKN240 21/10 A3009 RMK CU1AC2AC1CI2 SLP190=

CYVR;2005-07-03 22:00;METAR CYVR 032200Z 13008KT 30SM FEW045 FEW100 SCT150 BKN240 21/10 A3008 RMK CU1AC2AC1CI2 SLP186=

CYVR;2005-07-03 23:00;METAR CYVR 032300Z 17009KT 30SM FEW050 SCT100 SCT150 BKN240 23/10 A3008 RMK CU1AC2AC1CI2 SLP185=

CYVR;2005-07-04 00:00;METAR CYVR 040000Z 16004KT 30SM FEW050 SCT100 BKN140 BKN240 22/09 A3006 RMK CU1AC2AC2CI1 SLP181=

CYVR;2005-07-04 01:00;METAR CYVR 040100Z 21008KT 30SM FEW050 BKN110 BKN140 BKN240 22/09 A3006 RMK CU1AC4AC1CI1 SLP179=

CYVR;2005-07-04 02:00;METAR CYVR 040200Z 21006KT 30SM FEW045 OVC100 22/08 A3006 RMK SC1AC7 SLP178=

CYVR;2005-07-04 03:00;METAR CYVR 040300Z 19004KT 30SM OVC100 21/08 A3006 RMK AC8 SLP179=

CYVR;2005-07-04 04:00;METAR CYVR 040400Z 33003KT 30SM OVC100 20/10 A3006 RMK AC8 SLP178=

CYVR;2005-07-04 05:00;METAR CYVR 040500Z 00000KT 30SM BKN100 OVC150 20/10 A3006 RMK AC5AC3 SLP179=

CYVR;2005-07-04 06:00;METAR CYVR 040600Z 17003KT 30SM BKN100 OVC140 19/10 A3006 RMK AC4AC4 SLP181=

CYVR;2005-07-04 07:00;METAR CYVR 040700Z 00000KT 30SM SCT100 BKN140 18/10 A3007 RMK AC3AC3 SLP184=

CYVR;2005-07-04 08:00;METAR CYVR 040800Z 12005KT 30SM SCT100 BKN140 18/10 A3007 RMK AC3AC3 SLP184=

CYVR;2005-07-04 09:00;METAR CYVR 040900Z 11005KT 30SM OVC110 17/11 A3007 RMK AC8 SLP183=

CYVR;2005-07-04 10:00;METAR CYVR 041000Z 14005KT 30SM OVC100 17/11 A3007 RMK AC8 SLP183=

CYVR;2005-07-04 11:00;METAR CYVR 041100Z 09003KT 30SM OVC100 16/11 A3007 RMK AC8 SLP184=

CYVR;2005-07-04 12:00;METAR CYVR 041200Z 10007KT 30SM OVC093 15/12 A3008 RMK AC8 SLP187=

CYVR;2005-07-04 13:00;METAR CYVR 041300Z 11007KT 30SM FEW045 OVC093 15/11 A3009 RMK SF1AC7 SLP189=

CYVR;2005-07-04 14:00;METAR CYVR 041400Z 10007KT 20SM SCT050 BKN091 OVC120 16/12 A3010 RMK SF3AC4AC1 SLP192=

CYVR;2005-07-04 15:00;METAR CYVR 041500Z 13011KT 20SM SCT050 BKN090 OVC130 17/12 A3011 RMK SF3AC4AC1 SLP197=

CYVR;2005-07-04 16:00;METAR CYVR 041600Z 10007KT 20SM FEW050 BKN090 OVC140 17/12 A3012 RMK SF2AC5AC1 SLP201=

CYVR;2005-07-04 17:00;METAR CYVR 041700Z 12009KT 20SM FEW050 BKN086 OVC140 17/11 A3014 RMK SF2AC5AC1 SLP205=

CYVR;2005-07-04 18:00;METAR CYVR 041800Z 14008KT 20SM FEW045 BKN083 OVC140 19/12 A3014 RMK SC1AC6AC1 SLP205=

CYVR;2005-07-04 19:00;METAR CYVR 041900Z 19005KT 20SM FEW045 BKN082 BKN120 BKN160 21/12 A3013 RMK SC1AC4AC2AC1 SLP204=

CYVR;2005-07-04 20:00;METAR CYVR 042000Z 15006KT 20SM FEW045 BKN080 BKN120 BKN160 20/12 A3013 RMK SC1AC4AC2AC1 SLP204=

CYVR;2005-07-04 20:34;SPECI CYVR 042034Z 22003KT 15SM -SHRA FEW045 BKN075 OVC120 20/ RMK SC1AC6AC1=

CYVR;2005-07-04 21:00;METAR CYVR 042100Z 23005KT 15SM -SHRA FEW045 BKN078 BKN090 OVC120 21/13 A3013 RMK SC1AC4AC2AC1 SLP203=

CYVR;2005-07-04 21:09;SPECI CYVR 042109Z 00000KT 15SM FEW045 BKN080 BKN120 OVC220 21/ RMK SC1AC5AC2CI1=

CYVR;2005-07-04 22:00;METAR CYVR 042200Z 26007KT 15SM FEW045 BKN070 BKN120 OVC220 20/14 A3012 RMK SC1AC5AC2CI1 SLP201=

CYVR;2005-07-04 22:45;SPECI CYVR 042245Z 31005KT 15SM -SHRA FEW050 BKN075 OVC120 19/ RMK SC1AC6AC2=

CYVR;2005-07-04 23:00;METAR CYVR 042300Z 29002KT 15SM -SHRA FEW050 BKN070 OVC120 19/13 A3012 RMK SC1AC6AC2 SLP199=

CYVR;2005-07-04 23:18;SPECI CYVR 042318Z 24003KT 15SM FEW050 BKN064 OVC110 20/ RMK SC1SC6AC2=

CYVR;2005-07-05 00:00;METAR CYVR 050000Z 27003KT 15SM FEW050 BKN067 OVC110 19/13 A3011 RMK SC1AC6AC2 SLP195=

CYVR;2005-07-05 01:00;METAR CYVR 050100Z 28005KT 15SM FEW050 BKN070 OVC100 19/14 A3009 RMK SC1AC6AC2 SLP189=

CYVR;2005-07-05 02:00;METAR CYVR 050200Z 27005KT 15SM BKN077 OVC110 19/15 A3008 RMK AC5AC2 SLP185=

CYVR;2005-07-05 03:00;METAR CYVR 050300Z 32003KT 15SM SCT077 BKN110 OVC220 20/14 A3006 RMK AC4AC0CI2 SLP180=

CYVR;2005-07-05 04:00;METAR CYVR 050400Z 32004KT 15SM SCT077 BKN100 OVC220 19/13 A3006 RMK AC3AC1CI2 SLP178=

CYVR;2005-07-05 05:00;METAR CYVR 050500Z 28005KT 15SM SCT070 SCT100 OVC220 18/14 A3006 RMK AC3AC1CI2 SLP180=

CYVR;2005-07-05 06:00;METAR CYVR 050600Z 27008KT 15SM SCT080 BKN100 BKN220 17/14 A3005 RMK AC4AC1CI1 SLP175=

CYVR;2005-07-05 07:00;METAR CYVR 050700Z 31009KT 15SM BKN080 17/15 A3004 RMK AC6 SLP173=

CYVR;2005-07-05 08:00;METAR CYVR 050800Z 35002KT 15SM BKN096 OVC130 17/14 A3003 RMK AC5AC1 SLP169=

CYVR;2005-07-05 09:00;METAR CYVR 050900Z 10005KT 15SM BKN092 BKN130 16/13 A3002 RMK AC6AC1 SLP165=

CYVR;2005-07-05 10:00;METAR CYVR 051000Z 10005KT 15SM BKN094 15/13 A3001 RMK AC6 SLP163=

CYVR;2005-07-05 11:00;METAR CYVR 051100Z 11004KT 15SM BKN099 15/13 A3000 RMK AC7 SLP159=

CYVR;2005-07-05 12:00;METAR CYVR 051200Z 10006KT 15SM BKN084 BKN100 15/12 A3000 RMK AC6AC1 SLP160=

CYVR;2005-07-05 13:00;METAR CYVR 051300Z 11008KT 15SM OVC082 15/13 A3000 RMK AC7 SLP158=

CYVR;2005-07-05 14:00;METAR CYVR 051400Z 10009KT 15SM BKN085 BKN150 16/13 A2999 RMK AC6AC2 SLP157=

CYVR;2005-07-05 15:00;METAR CYVR 051500Z 11010KT 15SM BKN087 BKN150 17/12 A2999 RMK AC6AC2 SLP156=

CYVR;2005-07-05 16:00;METAR CYVR 051600Z 11011KT 15SM FEW030 BKN085 OVC150 17/13 A2999 RMK SF1AC6AC1 SLP156=

CYVR;2005-07-05 17:00;METAR CYVR 051700Z 11010KT 15SM FEW030 BKN086 BKN150 OVC220 19/13 A2999 RMK SF1AC5AC1CS2 SLP155=

CYVR;2005-07-05 18:00;METAR CYVR 051800Z 11014KT 15SM SCT080 BKN120 BKN150 OVC220 19/13 A2996 RMK AC3AC2AC1CS2 SLP147=

CYVR;2005-07-05 18:48;SPECI CYVR 051848Z 12012KT 12SM -SHRA FEW050 BKN080 OVC100 19/ RMK SF1AC5AC2=

CYVR;2005-07-05 19:00;METAR CYVR 051900Z 11012KT 12SM -SHRA FEW050 BKN081 BKN100 OVC150 19/14 A2995 RMK SF1AC4AC2AC1 SLP143=

CYVR;2005-07-05 20:00;METAR CYVR 052000Z 17007KT 6SM -RA SCT050 BKN063 OVC080 18/14 A2997 RMK SC3SC3AC2 SLP148=

CYVR;2005-07-05 21:00;METAR CYVR 052100Z 14005KT 5SM RA BKN043 OVC060 17/14 A2997 RMK SC5SC3 SLP148=

CYVR;2005-07-05 22:00;METAR CYVR 052200Z 10005KT 5SM -RA BKN041 OVC050 17/14 A2996 RMK SC7SC1 RERA SLP144=

CYVR;2005-07-05 23:00;METAR CYVR 052300Z 08009KT 5SM -RA BKN042 OVC050 17/15 A2995 RMK SC7SC1 SLP142=

CYVR;2005-07-06 00:00;METAR CYVR 060000Z 07008KT 5SM -RA FEW011 BKN038 OVC050 17/15 A2993 RMK SF1SC6SC1 SLP134=

CYVR;2005-07-06 00:41;SPECI CYVR 060041Z 09009KT 5SM -RA BKN011 BKN037 OVC050 17/ RMK SF5SC2SC1=

CYVR;2005-07-06 01:00;METAR CYVR 060100Z 08012KT 5SM -RA BKN012 BKN038 OVC050 17/15 A2990 RMK SF5SC2SC1 SLP125=

CYVR;2005-07-06 01:07;SPECI CYVR 060107Z 09008KT 5SM -RA SCT012 BKN041 OVC060 16/ RMK SF3SC3SC2=

CYVR;2005-07-06 02:00;METAR CYVR 060200Z 09012KT 7SM -RA FEW012 SCT045 OVC070 16/15 A2985 RMK SF2SC2AC4 SLP110=

CYVR;2005-07-06 02:18;SPECI CYVR 060218Z 07009KT 10SM -RA FEW012 BKN051 OVC070 RMK SF2SC4AC2=

CYVR;2005-07-06 03:00;METAR CYVR 060300Z 08009KT 10SM SCT029 BKN063 OVC072 17/15 A2983 RMK SC4SC2AC2 SLP101=

CYVR;2005-07-06 03:17;SPECI CYVR 060317Z 10008KT 3SM -RA BR FEW011 BKN020 OVC061 17/ RMK SF2SC5SC2=

CYVR;2005-07-06 03:43;SPECI CYVR 060343Z 10006KT 10SM BKN019 OVC060 17/ RMK SC6SC2=

CYVR;2005-07-06 04:21;SPECI CYVR 060421Z 13005KT 2 1/2SM -SHRA BR OVC018 16/ RMK SC8=

CYVR;2005-07-06 05:00;METAR CYVR 060500Z 09005KT 3SM -RA BR SCT010 BKN015 OVC062 16/15 A2981 RMK SC3SC3SC2 /R10/ RERA SLP094=

CYVR;2005-07-06 05:19;SPECI CYVR 060519Z 10005KT 8SM -RA SCT007 BKN015 OVC037 16/ RMK SC3SC2SC2=

CYVR;2005-07-06 06:00;METAR CYVR 060600Z 12005KT 8SM -RA SCT005 OVC028 16/15 A2982 RMK SC4SC4 VIS N 21/2 SLP097=

CYVR;2005-07-06 07:51;SPECI CYVR 060751Z 10007KT 10SM FEW007 SCT025 OVC086 16/ RMK SC2SC2AC4=

CYVR;2005-07-06 08:00;METAR CYVR 060800Z 10007KT 10SM SCT005 BKN024 OVC092 16/15 A2978 RMK SC4SC3AC1 SLP086=

CYVR;2005-07-06 09:00;METAR CYVR 060900Z 12007KT 10SM FEW005 SCT011 OVC075 16/15 A2979 RMK SC2SC2AC4 SLP089=

CYVR;2005-07-06 10:00;METAR CYVR 061000Z 11007KT 10SM FEW005 SCT020 OVC075 16/15 A2980 RMK SC2SC2AC4 VIS N 6 SLP091=

CYVR;2005-07-06 11:00;METAR CYVR 061100Z 09010KT 10SM SCT004 OVC016 16/14 A2980 RMK SC4SC4 SLP092=

CYVR;2005-07-06 12:00;METAR CYVR 061200Z 14007KT 10SM FEW006 SCT020 OVC077 16/14 A2982 RMK SC2SC2AC4 SLP097=

CYVR;2005-07-06 13:00;METAR CYVR 061300Z 13004KT 12SM FEW007 BKN057 OVC073 16/14 A2984 RMK SC2SC5AC2 SLP106=

CYVR;2005-07-06 15:00;METAR CYVR 061500Z 25012KT 20SM FEW020 FEW060 SCT120 17/13 A2988 RMK CU1SC2AC2 SLP118=

CYVR;2005-07-06 16:00;METAR CYVR 061600Z 23005KT 20SM FEW020TCU SCT068 SCT150 17/11 A2990 RMK TCU1AC2AC1 SLP124=

CYVR;2005-07-06 17:00;METAR CYVR 061700Z 24010KT 30SM FEW030 SCT070 SCT240 18/12 A2991 RMK CU1AC2CI1 SLP130=

CYVR;2005-07-06 18:00;METAR CYVR 061800Z 24010KT 30SM FEW040 BKN090 BKN240 19/11 A2993 RMK CU1AC4CI1 TCU ASOCTD N SLP136=

CYVR;2005-07-06 19:00;METAR CYVR 061900Z 22010KT 20SM FEW040 BKN085 BKN240 19/12 A2995 RMK CU1AC6CI1 SLP141=

CYVR;2005-07-06 20:00;METAR CYVR 062000Z 20011KT 20SM FEW045 BKN080 BKN240 19/11 A2996 RMK CU1AC6CI1 TCU ASOCTD SLP146=

CYVR;2005-07-06 21:00;METAR CYVR 062100Z 17007KT 20SM FEW045 BKN088 BKN240 19/11 A2996 RMK CU1AC6CI1 SLP146=

CYVR;2005-07-06 22:00;METAR CYVR 062200Z 17006KT 20SM FEW045 BKN075 BKN090 19/11 A2997 RMK CU1AC4AC2 SLP148=

CYVR;2005-07-06 23:00;METAR CYVR 062300Z 18008KT 30SM FEW040 SCT060 BKN080 BKN240 20/11 A2997 RMK CU2SC1AC2CI1 TCU SLP148=

CYVR;2005-07-07 00:00;METAR CYVR 070000Z 20006KT 30SM FEW040TCU BKN060 BKN080 BKN240 19/09 A2998 RMK TCU2SC3AC1CI1 SLP151=

CYVR;2005-07-07 01:00;METAR CYVR 070100Z 17010KT 20SM FEW040 SCT060 BKN075 BKN240 18/12 A2998 RMK CU2SC2AC3CI1 SLP151=

CYVR;2005-07-07 02:00;METAR CYVR 070200Z 14004KT 20SM FEW040 FEW060 BKN070 BKN090 18/12 A2998 RMK CU1SC2AC4AC1 SLP153=

CYVR;2005-07-07 03:00;METAR CYVR 070300Z 19006KT 20SM FEW040 BKN070 BKN090 BKN220 18/12 A2999 RMK SC1AC2AC1CC1 LENT / TR SC SLP157=

CYVR;2005-07-07 04:00;METAR CYVR 070400Z 15005KT 20SM FEW040 BKN070 17/11 A3000 RMK SF1AC5 SLP159=

CYVR;2005-07-07 05:00;METAR CYVR 070500Z 14006KT 20SM FEW035 OVC069 16/11 A3001 RMK SC1AC6 SLP163=

CYVR;2005-07-07 06:00;METAR CYVR 070600Z 09004KT 20SM FEW035 OVC078 15/11 A3001 RMK SC1AC6 SLP163=

CYVR;2005-07-07 07:00;METAR CYVR 070700Z 09002KT 20SM FEW070 15/11 A3001 RMK AC1 SLP163=

CYVR;2005-07-07 08:00;METAR CYVR 070800Z 11005KT 15SM FEW070 SCT230 13/10 A3002 RMK AC1CI1 SLP166=

CYVR;2005-07-07 09:00;METAR CYVR 070900Z 10008KT 15SM FEW070 SCT230 12/10 A3002 RMK AC1CI2 SLP167=

CYVR;2005-07-07 10:00;METAR CYVR 071000Z 09009KT 15SM FEW070 FEW230 12/10 A3002 RMK AC1CI1 SLP166=

CYVR;2005-07-07 11:00;METAR CYVR 071100Z 09008KT 15SM FEW070 FEW230 12/10 A3003 RMK AC1CI1 SLP169=

CYVR;2005-07-07 12:00;METAR CYVR 071200Z 11008KT 15SM FEW150 FEW230 12/10 A3004 RMK AC1CI1 SLP172=

CYVR;2005-07-07 13:00;METAR CYVR 071300Z 09008KT 20SM FEW150 SCT230 13/10 A3004 RMK AC1CI1 SLP174=

CYVR;2005-07-07 14:00;METAR CYVR 071400Z 10008KT 20SM FEW060 SCT150 OVC240 13/10 A3005 RMK SC1AC2CI2 SLP177=

CYVR;2005-07-07 15:00;METAR CYVR 071500Z 10012KT 20SM FEW050 FEW120 SCT230 15/11 A3005 RMK SC1AC1CI1 SLP175=

CYVR;2005-07-07 16:00;METAR CYVR 071600Z 13010KT 20SM FEW030 FEW050 FEW120 BKN230 16/11 A3004 RMK CU1SC1AC1CI1 SLP173=

CYVR;2005-07-07 17:00;METAR CYVR 071700Z 12008KT 20SM FEW020 FEW040 SCT120 OVC230 17/10 A3004 RMK CU2SC1AC1CI1 SLP171=

CYVR;2005-07-07 18:00;METAR CYVR 071800Z 11010KT 20SM FEW030 BKN140 OVC230 19/10 A3002 RMK SC2AC2CI2 SLP167=

CYVR;2005-07-07 19:00;METAR CYVR 071900Z 15008KT 20SM FEW035 FEW140 OVC200 19/09 A3002 RMK SC2AC1CS4 SLP167=

CYVR;2005-07-07 21:00;METAR CYVR 072100Z 15006KT 20SM FEW040 SCT140 OVC200 19/09 A2998 RMK SC2AC2CS4 SLP153=

CYVR;2005-07-07 22:00;METAR CYVR 072200Z 15007KT 20SM FEW040 SCT100 OVC180 19/10 A2996 RMK SC1AC2AS5 SLP147=

CYVR;2005-07-07 23:00;METAR CYVR 072300Z 22003KT 20SM FEW040 SCT100 OVC200 20/10 A2994 RMK SC1AC2CS2 SLP140=

CYVR;2005-07-08 00:00;METAR CYVR 080000Z 23007KT 20SM FEW040 BKN150 OVC210 20/08 A2991 RMK SC1AC3CI2 SLP130=

CYVR;2005-07-08 01:00;METAR CYVR 080100Z 24007KT 20SM BKN160 OVC210 20/10 A2990 RMK AC6CS2 SLP124=

CYVR;2005-07-08 03:00;METAR CYVR 080300Z 16004KT 20SM BKN130 BKN170 OVC210 19/10 A2986 RMK AC5AC2CS2 SLP112=

CYVR;2005-07-08 04:00;METAR CYVR 080400Z 12002KT 20SM SCT070 BKN130 OVC210 19/09 A2986 RMK AC3AC2CS3 SLP111=

CYVR;2005-07-08 05:00;METAR CYVR 080500Z 21006KT 20SM BKN060 OVC130 18/09 A2987 RMK SC6AC2 SLP114=

CYVR;2005-07-08 06:00;METAR CYVR 080600Z 15005KT 20SM OVC049 18/10 A2986 RMK SC8 SLP111=

CYVR;2005-07-08 06:31;SPECI CYVR 080631Z 11006KT 15SM -RA SCT048 OVC080 17/ RMK SC4AC4=

CYVR;2005-07-08 07:00;METAR CYVR 080700Z 11007KT 15SM -RA SCT045 OVC100 16/12 A2984 RMK SC4AC4 SLP106=

CYVR;2005-07-08 08:00;METAR CYVR 080800Z 12006KT 15SM -RA FEW045 SCT065 OVC076 15/12 A2984 RMK SC2SC2AC4 VIS N QUAD LWR 12 SM SLP105=

CYVR;2005-07-08 09:00;METAR CYVR 080900Z 13006KT 10SM -RA FEW045 BKN059 OVC075 14/12 A2985 RMK SC2SC4AC2 VIS N QUAD LWR 6 SM SLP108=

CYVR;2005-07-08 10:00;METAR CYVR 081000Z 10011KT 8SM -RA OVC060 14/12 A2984 RMK SC8 VIS N QUAD LWR 6 SM SLP104=

CYVR;2005-07-08 11:00;METAR CYVR 081100Z 08012KT 10SM -RA OVC059 13/12 A2982 RMK SC8 VIS N LWR SLP097=

CYVR;2005-07-08 12:00;METAR CYVR 081200Z 09012KT 12SM -RA OVC058 14/12 A2980 RMK SC8 SLP093=

CYVR;2005-07-08 14:00;METAR CYVR 081400Z 19012KT 5SM -RA BR BKN021 OVC045 14/12 A2979 RMK SC6SC2 SLP087=

CYVR;2005-07-08 15:00;METAR CYVR 081500Z 13016KT 5SM -RA BR BKN019 OVC045 14/12 A2978 RMK SC6SC2 SLP086=

CYVR;2005-07-08 16:00;METAR CYVR 081600Z 15011G17KT 10SM OVC021 14/12 A2978 RMK SC8 SLP086=

CYVR;2005-07-08 17:00;METAR CYVR 081700Z 15018KT 10SM -RA SCT018 OVC036 14/12 A2979 RMK SC4SC4 SLP088=

CYVR;2005-07-08 18:00;METAR CYVR 081800Z 15018KT 10SM -RA FEW018 BKN033 OVC056 14/12 A2979 RMK SC2SC4SC2 SLP089=

CYVR;2005-07-08 18:50;SPECI CYVR 081850Z 14012KT 10SM FEW017 SCT035 OVC059 15/ RMK SC2SC2SC5=

CYVR;2005-07-08 18:56;SPECI CYVR 081856Z 15014KT 10SM -RA FEW017 SCT035 OVC061 15/ RMK SC2SC2SC5=

CYVR;2005-07-08 19:00;METAR CYVR 081900Z 15013KT 10SM -RA FEW017 SCT035 OVC061 15/13 A2981 RMK SC2SC2SC5 SLP096=

CYVR;2005-07-08 19:19;SPECI CYVR 081919Z 14012KT 10SM FEW017 SCT035 OVC068 16/ RMK SC2SC2AC5=

CYVR;2005-07-08 20:00;METAR CYVR 082000Z 14011KT 10SM FEW015 BKN037 BKN074 OVC220 16/13 A2983 RMK SC2SC2AC2CI0 SLP100=

CYVR;2005-07-08 21:00;METAR CYVR 082100Z 16013G18KT 12SM FEW015 BKN090 OVC220 17/14 A2983 RMK SC2AC4CI1 SLP100=

CYVR;2005-07-08 22:00;METAR CYVR 082200Z 14012G19KT 15SM FEW016 SCT065 BKN092 OVC220 19/15 A2984 RMK SC2SC1AC2CI2 SLP106=

CYVR;2005-07-08 23:00;METAR CYVR 082300Z 14013KT 15SM FEW016 FEW050 BKN160 BKN220 19/13 A2984 RMK SC2SC1AC2CI1 SLP106=

CYVR;2005-07-09 00:00;METAR CYVR 090000Z 16011KT 15SM FEW020 SCT050 BKN180 19/14 A2985 RMK SC2SC1AC2 SLP107=

CYVR;2005-07-09 01:00;METAR CYVR 090100Z 14011KT 15SM FEW025TCU SCT060 18/13 A2985 RMK TCU2SC2 SLP108=

CYVR;2005-07-09 02:00;METAR CYVR 090200Z 17008KT 20SM FEW025 FEW070 18/12 A2985 RMK SC1AC1 TCU EMBD SLP109=

CYVR;2005-07-09 03:00;METAR CYVR 090300Z 15008KT 20SM FEW025TCU FEW060 SCT087 18/12 A2985 RMK TCU1SC1AC1 SLP110=

CYVR;2005-07-09 04:00;METAR CYVR 090400Z 15008KT 20SM FEW025TCU FEW060 FEW090 16/12 A2986 RMK TCU1SC1AC1 SLP112=

CYVR;2005-07-09 06:00;METAR CYVR 090600Z 13006KT 20SM FEW025 SCT084 14/11 A2989 RMK SC1AC2 SLP121=

CYVR;2005-07-09 07:00;METAR CYVR 090700Z 10008KT 15SM FEW030 BKN065 OVC075 14/12 A2989 RMK SC1SC6AC1 SLP122=

CYVR;2005-07-09 08:00;METAR CYVR 090800Z 09007KT 15SM FEW035 BKN064 14/11 A2989 RMK SC1SC6 SLP122=

CYVR;2005-07-09 09:00;METAR CYVR 090900Z 09002KT 15SM FEW065 FEW083 14/10 A2989 RMK SC1AC1 SLP123=

CYVR;2005-07-09 10:00;METAR CYVR 091000Z 09005KT 15SM FEW083 12/10 A2990 RMK AC1 SLP126=

CYVR;2005-07-09 11:00;METAR CYVR 091100Z 10004KT 15SM FEW025 SCT060 BKN100 13/11 A2991 RMK SC1SC2AC2 SLP128=

CYVR;2005-07-09 12:00;METAR CYVR 091200Z 11005KT 15SM SCT100 12/10 A2991 RMK AC2 SLP130=

CYVR;2005-07-09 13:00;METAR CYVR 091300Z 11008KT 20SM FEW020 BKN079 13/10 A2993 RMK SC1AC4 SLP134=

CYVR;2005-07-09 14:00;METAR CYVR 091400Z 13010KT 15SM FEW015 BKN084 15/11 A2993 RMK SC1AC4 SLP137=

CYVR;2005-07-09 15:00;METAR CYVR 091500Z 10008KT 20SM SCT035 BKN077 15/11 A2995 RMK SC3AC2 SLP142=

CYVR;2005-07-09 16:00;METAR CYVR 091600Z 12007KT 20SM SCT015 BKN045 BKN080 15/11 A2996 RMK SC3SC2AC2 SLP144=

CYVR;2005-07-09 17:00;METAR CYVR 091700Z 13009KT 20SM FEW015 SCT055TCU BKN095 17/12 A2996 RMK SC2TCU2AC3 SLP145=

CYVR;2005-07-09 18:00;METAR CYVR 091800Z 14008KT 20SM FEW028 SCT055TCU BKN087 18/11 A2996 RMK SC2TCU2AC3 SLP145=

CYVR;2005-07-09 20:00;METAR CYVR 092000Z 20009G16KT 20SM SCT031TCU BKN079 18/10 A2996 RMK TCU3AC4 SLP144=

CYVR;2005-07-09 21:00;METAR CYVR 092100Z 22005KT 20SM FEW035TCU BKN087 19/11 A2995 RMK TCU2AC4 SLP143=

CYVR;2005-07-09 22:00;METAR CYVR 092200Z 17006KT 20SM FEW035TCU SCT087 20/10 A2994 RMK TCU2AC2 SLP140=

CYVR;2005-07-09 23:00;METAR CYVR 092300Z 22010G15KT 20SM FEW040TCU BKN082 21/11 A2994 RMK TCU2AC3 SLP138=

CYVR;2005-07-10 00:00;METAR CYVR 100000Z 21007KT 20SM FEW040TCU BKN130 20/09 A2993 RMK TCU2AC5 SLP136=

CYVR;2005-07-10 02:00;METAR CYVR 100200Z 27003KT 30SM FEW045TCU BKN100 BKN240 19/11 A2992 RMK TCU2AC2CI2 SLP132=

CYVR;2005-07-10 03:00;METAR CYVR 100300Z 27003KT 30SM FEW040TCU SCT100 BKN240 19/10 A2992 RMK TCU1AC2CI0 SLP133=

CYVR;2005-07-10 04:00;METAR CYVR 100400Z 29004KT 30SM FEW040TCU SCT100 17/09 A2992 RMK TCU1AC2 SLP132=

CYVR;2005-07-10 05:00;METAR CYVR 100500Z 05005KT 30SM FEW040 SCT090 16/10 A2993 RMK SC1AC1 SLP134=

CYVR;2005-07-10 07:00;METAR CYVR 100700Z 00000KT 30SM FEW090 14/10 A2992 RMK AC1 SLP131=

CYVR;2005-07-10 08:00;METAR CYVR 100800Z 03003KT 30SM FEW090 14/09 A2991 RMK AC1 SLP129=

CYVR;2005-07-10 09:00;METAR CYVR 100900Z 00000KT 30SM FEW090 13/09 A2991 RMK AC1 SLP128=

CYVR;2005-07-10 10:00;METAR CYVR 101000Z 00000KT 30SM SKC 13/09 A2992 RMK SLP131=

CYVR;2005-07-10 11:00;METAR CYVR 101100Z 11005KT 30SM FEW210 13/09 A2993 RMK CI1 SLP134=

CYVR;2005-07-10 12:00;METAR CYVR 101200Z 02003KT 30SM SKC 12/09 A2993 RMK SLP136=

CYVR;2005-07-10 13:00;METAR CYVR 101300Z 09002KT 30SM SKC 12/08 A2994 RMK SLP138=

CYVR;2005-07-10 14:00;METAR CYVR 101400Z 09003KT 30SM FEW100 FEW210 15/10 A2994 RMK AC1CI1 SLP140=

CYVR;2005-07-10 15:00;METAR CYVR 101500Z 28002KT 30SM FEW040 FEW210 16/10 A2995 RMK CU1CI1 TR CU SLP142=

CYVR;2005-07-10 16:00;METAR CYVR 101600Z 30005KT 30SM FEW040 SCT210 16/11 A2995 RMK SC1CI1 SLP142=

CYVR;2005-07-10 17:00;METAR CYVR 101700Z 31005KT 30SM FEW040 SCT210 16/11 A2995 RMK SC1CI1 SLP141=

CYVR;2005-07-10 18:00;METAR CYVR 101800Z 26006KT 30SM FEW040 FEW240 17/12 A2995 RMK SC1CI1 SLP141=

CYVR;2005-07-10 19:00;METAR CYVR 101900Z 29007KT 30SM FEW040TCU FEW240 18/13 A2995 RMK TCU1CI1 SLP141=

CYVR;2005-07-10 20:00;METAR CYVR 102000Z 28007KT 30SM FEW040 BKN120 BKN240 18/13 A2994 RMK SC1AC1CI1 SLP140=

CYVR;2005-07-10 21:00;METAR CYVR 102100Z 25008G16KT 30SM FEW040TCU OVC170 19/13 A2994 RMK TCU1AC2 SLP138=

CYVR;2005-07-10 22:00;METAR CYVR 102200Z 26006KT 30SM FEW040 BKN160 OVC220 19/14 A2993 RMK SC1AC4CI2 SLP136=

CYVR;2005-07-10 23:00;METAR CYVR 102300Z 21008KT 20SM FEW040 OVC120 20/12 A2993 RMK SC2AC6 TCU TOPS W SLP137=

CYVR;2005-07-11 00:00;METAR CYVR 110000Z 19006KT 20SM FEW040 OVC120 20/11 A2994 RMK SC2AC6 SLP138=

CYVR;2005-07-11 00:41;SPECI CYVR 110041Z 16006KT 20SM -RA FEW040 BKN056 OVC096 20/ RMK SC2SC3AC2=

CYVR;2005-07-11 01:00;METAR CYVR 110100Z 17004KT 20SM -RA SCT050 OVC076 20/13 A2994 RMK SC3AC5 SLP139=

CYVR;2005-07-11 02:48;SPECI CYVR 110248Z 10007KT 15SM FEW035 BKN057 OVC080 18/ RMK SF1SC5AC2=

CYVR;2005-07-11 03:00;METAR CYVR 110300Z 09007KT 15SM FEW035 BKN058 OVC080 18/11 A2996 RMK SF1SC5AC2 SLP144=

CYVR;2005-07-11 04:00;METAR CYVR 110400Z 08008KT 20SM BKN040 BKN060 OVC090 18/11 A2996 RMK SC5SC1AC2 SLP146=

CYVR;2005-07-11 04:55;SPECI CYVR 110455Z 11012KT 15SM -SHRA SCT040 BKN065 OVC090 17/ RMK SC3SC3AC2=

CYVR;2005-07-11 05:00;METAR CYVR 110500Z 12012KT 15SM -SHRA SCT040 BKN064 OVC090 17/12 A2997 RMK SC3SC3AC2 SLP149=

CYVR;2005-07-11 06:00;METAR CYVR 110600Z 09010KT 15SM -SHRA BKN026 OVC030 16/12 A2998 RMK SC6SC2 PCPN VRY LGT SLP151=

CYVR;2005-07-11 06:18;SPECI CYVR 110618Z 08012KT 15SM SCT026 BKN045 OVC080 16/ RMK SC3SC2AC2=

CYVR;2005-07-11 07:00;METAR CYVR 110700Z 09008KT 15SM BKN021 OVC045 16/13 A2998 RMK SC6SC2 SLP152=

CYVR;2005-07-11 08:00;METAR CYVR 110800Z 07006KT 15SM BKN021 OVC040 16/13 A2998 RMK SC6SC2 SLP153=

CYVR;2005-07-11 09:00;METAR CYVR 110900Z 09006KT 15SM FEW021 SCT040 BKN085 15/12 A2997 RMK SC2SC1AC2 SLP149=

CYVR;2005-07-11 10:00;METAR CYVR 111000Z 07006KT 15SM BKN021 OVC045 15/12 A2997 RMK SC6SC1 SLP149=

CYVR;2005-07-11 11:00;METAR CYVR 111100Z 08006KT 15SM FEW025 SCT045 BKN220 16/12 A2996 RMK SC1SC2CI1 SLP146=

CYVR;2005-07-11 12:00;METAR CYVR 111200Z 11005KT 15SM BKN025 OVC080 16/13 A2997 RMK SC6AC2 SLP148=

CYVR;2005-07-11 13:00;METAR CYVR 111300Z 11006KT 15SM -SHRA BKN035 OVC080 15/13 A2997 RMK SC6AC2 SLP148=

CYVR;2005-07-11 14:00;METAR CYVR 111400Z 09010KT 15SM BKN037 OVC080 15/13 A2996 RMK SC6AC2 SLP146=

CYVR;2005-07-11 14:42;SPECI CYVR 111442Z 11012KT 8SM -SHRA BKN036 OVC075 15/ RMK SC6AC2=

CYVR;2005-07-11 15:00;METAR CYVR 111500Z 09010KT 10SM -SHRA BKN036 OVC075 15/13 A2997 RMK SC7AC1 SLP148=

CYVR;2005-07-11 15:52;SPECI CYVR 111552Z 08013KT 15SM FEW015 BKN036 OVC075 16/ RMK SF1SC6AC1=

CYVR;2005-07-11 16:00;METAR CYVR 111600Z 09008KT 15SM FEW012 BKN036 OVC070 16/14 A2998 RMK SF1SC6AC1 SLP151=

CYVR;2005-07-11 16:15;SPECI CYVR 111615Z 08011KT 10SM -SHRA FEW012 BKN038 OVC070 16/ RMK SF1SC6AC1=

CYVR;2005-07-11 16:42;SPECI CYVR 111642Z 09008KT 12SM FEW012 BKN041 OVC070 17/ RMK SF1SC6AC1=

CYVR;2005-07-11 17:00;METAR CYVR 111700Z 08010KT 15SM FEW014 BKN037 OVC050 17/13 A2997 RMK SF1SC6SC1 SLP150=

CYVR;2005-07-11 18:00;METAR CYVR 111800Z 10010KT 15SM BKN036 OVC050 18/14 A2997 RMK SC7SC1 SLP150=

CYVR;2005-07-11 20:00;METAR CYVR 112000Z 15013KT 15SM BKN033 BKN090 20/14 A2999 RMK SC6AC2 SLP156=

CYVR;2005-07-11 21:00;METAR CYVR 112100Z 12012KT 15SM BKN032 BKN100 21/14 A2999 RMK CU5AC2 SLP156=

CYVR;2005-07-11 22:00;METAR CYVR 112200Z 15009KT 15SM BKN035 BKN100 21/14 A2999 RMK CU6AC2 SLP156=

CYVR;2005-07-11 23:00;METAR CYVR 112300Z 25007KT 15SM BKN040 BKN100 20/15 A2999 RMK CU6AC1 SLP157=

CYVR;2005-07-12 00:00;METAR CYVR 120000Z 31004KT 15SM FEW030 BKN053 BKN100 19/14 A2999 RMK SC2SC5AC1 SLP156=

CYVR;2005-07-12 01:00;METAR CYVR 120100Z 02003KT 15SM FEW030 BKN052 BKN080 20/14 A2999 RMK SF1SC6AC1 SLP157=

CYVR;2005-07-12 02:00;METAR CYVR 120200Z 25005KT 20SM FEW030 SCT050 BKN070 BKN090 20/14 A2999 RMK SC1SC2AC2AC2 SLP157=

CYVR;2005-07-12 03:00;METAR CYVR 120300Z 31002KT 20SM FEW030 BKN051 BKN070 BKN090 20/14 A3000 RMK SC1SC4AC2AC1 SHS NW SLP160=

CYVR;2005-07-12 04:00;METAR CYVR 120400Z 23006KT 15SM -SHRA FEW030 BKN046 BKN070 19/14 A3002 RMK SC1SC6AC1 SLP165=

CYVR;2005-07-12 04:39;SPECI CYVR 120439Z 23008KT 10SM -SHRA FEW008 FEW030 BKN038 OVC050 17/ RMK SF1SC2SC5SC1=

CYVR;2005-07-12 05:00;METAR CYVR 120500Z 22003KT 10SM -SHRA FEW008 FEW030 BKN040 OVC050 17/14 A3004 RMK SF1SC2SC5SC1 SLP171=

CYVR;2005-07-12 05:10;SPECI CYVR 120510Z 21005KT 10SM FEW012 FEW030 BKN039 BKN050 17/ RMK SF1SC2SC4SC1=

CYVR;2005-07-12 06:00;METAR CYVR 120600Z 23005KT 15SM FEW015 FEW030 BKN040 BKN050 17/13 A3004 RMK SF1SC2SC3SC2 SLP173=

CYVR;2005-07-12 06:14;SPECI CYVR 120614Z 28004KT 15SM -SHRA FEW015 FEW030 BKN040 OVC050 17/ RMK SF1SC2SC5SC1=

CYVR;2005-07-12 07:00;METAR CYVR 120700Z 36004KT 15SM FEW019 FEW030 BKN044 OVC055 16/13 A3005 RMK SF1SC2SC5SC1 SLP176=

CYVR;2005-07-12 08:00;METAR CYVR 120800Z 09003KT 12SM -SHRA FEW019 BKN041 OVC050 15/13 A3006 RMK SF1SC6SC1 SLP181=

CYVR;2005-07-12 09:00;METAR CYVR 120900Z 07002KT 10SM -SHRA FEW020 BKN039 OVC050 15/13 A3006 RMK SC1SC6SC2 SLP181=

CYVR;2005-07-12 10:00;METAR CYVR 121000Z 04004KT 10SM FEW017 BKN038 OVC050 15/13 A3007 RMK SC1SC6SC1 SLP184=

CYVR;2005-07-12 10:13;SPECI CYVR 121013Z 06005KT 10SM -SHRA FEW018 BKN040 OVC060 15/ RMK SC1SC6SC1=

CYVR;2005-07-12 11:37;SPECI CYVR 121137Z 09004KT 10SM FEW025 BKN051 OVC070 15/ RMK SC1SC5AC2=

CYVR;2005-07-12 12:00;METAR CYVR 121200Z 09004KT 15SM FEW025 BKN049 OVC090 15/13 A3009 RMK SC1SC6AC2 SLP189=

CYVR;2005-07-12 13:00;METAR CYVR 121300Z 11006KT 15SM FEW030 SCT051 BKN090 15/13 A3010 RMK SC1SC3AC3 SLP194=

CYVR;2005-07-12 14:00;METAR CYVR 121400Z 09009KT 15SM FEW030 BKN061 BKN085 15/13 A3012 RMK SC1SC4AC2 SLP199=

CYVR;2005-07-12 15:00;METAR CYVR 121500Z 10007KT 15SM FEW025 BKN060 BKN085 16/14 A3013 RMK SF1SC4AC2 SLP204=

CYVR;2005-07-12 16:00;METAR CYVR 121600Z 12007KT 15SM FEW025 BKN077 18/13 A3014 RMK CU1AC5 SLP208=

CYVR;2005-07-12 17:00;METAR CYVR 121700Z 09002KT 20SM FEW025 BKN077 19/13 A3016 RMK CU2AC2 TCU ASOCT SLP212=

CYVR;2005-07-12 18:00;METAR CYVR 121800Z 13005KT 20SM SCT030 BKN078 19/12 A3017 RMK CU4AC2 TCU ASOCT SLP215=

CYVR;2005-07-12 20:00;METAR CYVR 122000Z 22009KT 20SM FEW035TCU BKN078 22/13 A3017 RMK TCU2AC3 SLP216=

CYVR;2005-07-12 21:00;METAR CYVR 122100Z 23008G15KT 20SM FEW040TCU BKN085 21/12 A3018 RMK TCU2AC4 SLP220=

CYVR;2005-07-12 22:00;METAR CYVR 122200Z 21010KT 20SM FEW040TCU BKN083 22/12 A3018 RMK TCU2AC3 SLP220=

CYVR;2005-07-13 00:00;METAR CYVR 130000Z 22009G15KT 20SM FEW050TCU SCT085 22/12 A3017 RMK TCU1AC2 SLP217=

CYVR;2005-07-13 01:00;METAR CYVR 130100Z 22007KT 20SM FEW055TCU SCT100 21/12 A3017 RMK TCU1AC3 SLP217=

CYVR;2005-07-13 02:00;METAR CYVR 130200Z 23006KT 20SM FEW050TCU SCT090 21/12 A3017 RMK TCU1AC3 SLP215=

CYVR;2005-07-13 03:00;METAR CYVR 130300Z 20002KT 20SM FEW050TCU SCT070 BKN090 20/12 A3017 RMK TCU1AC2AC2 SLP215=

CYVR;2005-07-13 04:00;METAR CYVR 130400Z 22003KT 20SM FEW050TCU SCT075 BKN090 19/12 A3017 RMK TCU1AC3AC2 SLP216=

CYVR;2005-07-13 06:00;METAR CYVR 130600Z 28003KT 15SM SCT050 BKN070 BKN090 18/13 A3018 RMK SC3AC2AC1 SLP220=

CYVR;2005-07-13 07:00;METAR CYVR 130700Z 28005KT 15SM SCT050 SCT070 BKN100 18/14 A3018 RMK SC3AC1AC1 SLP219=

CYVR;2005-07-13 09:00;METAR CYVR 130900Z 26007KT 15SM SCT045 BKN080 18/13 A3018 RMK SC4AC2 SLP220=

CYVR;2005-07-13 10:00;METAR CYVR 131000Z 30011KT 15SM SCT045 BKN070 BKN100 17/13 A3019 RMK SC4AC2AC1 SLP222=

CYVR;2005-07-13 11:00;METAR CYVR 131100Z 29009KT 15SM FEW040 BKN050 BKN080 17/13 A3019 RMK SC2SC3AC2 SLP223=

CYVR;2005-07-13 12:00;METAR CYVR 131200Z 29012KT 15SM BKN053 BKN080 16/13 A3020 RMK SC5AC2 SLP227=

CYVR;2005-07-13 13:00;METAR CYVR 131300Z 30012KT 20SM FEW012 BKN065 BKN090 16/14 A3022 RMK SF1SC4AC1 SLP232=

CYVR;2005-07-13 14:00;METAR CYVR 131400Z 29011KT 20SM BKN011 BKN090 17/14 A3022 RMK SC6AC2 SLP234=

CYVR;2005-07-13 15:00;METAR CYVR 131500Z 28014KT 20SM BKN012 BKN090 17/15 A3023 RMK SC6AC1 SLP238=

CYVR;2005-07-13 16:00;METAR CYVR 131600Z 29010KT 20SM BKN011 17/14 A3024 RMK SC6 SLP241=

CYVR;2005-07-13 17:00;METAR CYVR 131700Z 29010KT 20SM BKN013 18/15 A3025 RMK SC7 SLP245=

CYVR;2005-07-13 18:00;METAR CYVR 131800Z 28010KT 20SM BKN016 18/15 A3027 RMK SC7 SLP252=

CYVR;2005-07-13 18:48;SPECI CYVR 131848Z 28009KT 20SM FEW016 SCT100 19/ RMK SC2AC1 TCU ASOCT=

CYVR;2005-07-13 20:00;METAR CYVR 132000Z 28005KT 20SM FEW025TCU SCT100 20/14 A3028 RMK TCU2AC1 SLP255=

CYVR;2005-07-13 21:00;METAR CYVR 132100Z 23005KT 20SM FEW030TCU FEW100 21/15 A3028 RMK TCU2AC1 SLP255=

CYVR;2005-07-13 22:00;METAR CYVR 132200Z 25006KT 20SM FEW035TCU FEW100 20/14 A3028 RMK TCU2AC1 SLP254=

CYVR;2005-07-13 23:00;METAR CYVR 132300Z 21008KT 20SM FEW040TCU FEW100 FEW230 21/13 A3027 RMK TCU1AC1CI1 SLP252=

CYVR;2005-07-14 00:00;METAR CYVR 140000Z 21008KT 20SM FEW045TCU SCT220 22/13 A3027 RMK TCU1CI2 SLP249=

CYVR;2005-07-14 02:00;METAR CYVR 140200Z 20005KT 30SM FEW050 SCT220 22/13 A3024 RMK CU1CI2 SLP240=

CYVR;2005-07-14 03:00;METAR CYVR 140300Z 20006KT 30SM FEW050 FEW230 21/12 A3025 RMK CU1CI1 SLP243=

CYVR;2005-07-14 04:00;METAR CYVR 140400Z 17006KT 30SM FEW050 FEW230 20/12 A3025 RMK SC1CI1 SLP243=

CYVR;2005-07-14 05:00;METAR CYVR 140500Z 11004KT 30SM FEW045 FEW220 18/13 A3025 RMK SC1CI1 SLP245=

CYVR;2005-07-14 06:00;METAR CYVR 140600Z 08004KT 30SM FEW045 FEW220 18/13 A3025 RMK SC1CI1 SLP245=

CYVR;2005-07-14 09:00;METAR CYVR 140900Z 13007KT 30SM FEW045 FEW220 16/13 A3025 RMK SC1CI0 SLP243=

CYVR;2005-07-14 10:00;METAR CYVR 141000Z 13006KT 20SM FEW045 FEW220 15/12 A3025 RMK SC1CI0 SLP243=

CYVR;2005-07-14 11:00;METAR CYVR 141100Z 10004KT 20SM FEW220 14/12 A3025 RMK CI1 SLP243=

CYVR;2005-07-14 12:00;METAR CYVR 141200Z 14002KT 30SM FEW220 15/12 A3025 RMK CI1 SLP243=

CYVR;2005-07-14 13:00;METAR CYVR 141300Z 00000KT 20SM FEW080 SCT220 15/12 A3025 RMK AC1CI1 SLP243=

CYVR;2005-07-14 14:00;METAR CYVR 141400Z 15002KT 20SM FEW015 FEW080 BKN220 15/12 A3025 RMK SF1AC1CI4 SLP244=

CYVR;2005-07-14 15:00;METAR CYVR 141500Z 14003KT 20SM FEW025 BKN220 16/12 A3025 RMK SC1CI3 SLP243=

CYVR;2005-07-14 16:00;METAR CYVR 141600Z 00000KT 20SM FEW030 BKN220 19/12 A3024 RMK CU1CI2 SLP242=

CYVR;2005-07-14 17:00;METAR CYVR 141700Z 25005KT 20SM FEW030 FEW120 BKN220 18/14 A3024 RMK CU2AC1CI2 SLP239=

CYVR;2005-07-14 18:00;METAR CYVR 141800Z 27006KT 20SM FEW035 BKN220 19/14 A3023 RMK CU2CI4 SLP237=

CYVR;2005-07-14 19:00;METAR CYVR 141900Z 28008KT 20SM FEW040 BKN220 19/14 A3022 RMK CU2CI3 SLP234=

CYVR;2005-07-14 20:00;METAR CYVR 142000Z 29008KT 20SM FEW040 BKN220 20/15 A3020 RMK CU1CI5 SLP227=

CYVR;2005-07-14 21:00;METAR CYVR 142100Z 29009KT 20SM FEW045 FEW120 BKN220 20/15 A3019 RMK CU1AC1CI3 SLP223=

CYVR;2005-07-14 22:00;METAR CYVR 142200Z 28006KT 20SM FEW050 FEW120 BKN220 20/15 A3016 RMK CU1AC1CI3 SLP214=

CYVR;2005-07-14 23:00;METAR CYVR 142300Z 25008KT 20SM FEW050 FEW130 SCT220 20/15 A3014 RMK CU1AC1CI2 SLP207=

CYVR;2005-07-15 00:00;METAR CYVR 150000Z 29005KT 20SM FEW050 BKN220 21/14 A3011 RMK CU1CI5 SLP197=

CYVR;2005-07-15 01:00;METAR CYVR 150100Z 28006KT 20SM FEW055 BKN220 21/14 A3008 RMK CU1CI5 SLP186=

CYVR;2005-07-15 02:00;METAR CYVR 150200Z 28008KT 30SM FEW050 BKN240 20/14 A3006 RMK CU1CI3 SLP179=

CYVR;2005-07-15 03:00;METAR CYVR 150300Z 31007KT 30SM FEW100 BKN240 20/14 A3004 RMK AC1CI2 SLP173=

CYVR;2005-07-15 04:00;METAR CYVR 150400Z 31009KT 30SM FEW150 BKN240 19/13 A3002 RMK AC1CI2 SLP167=

CYVR;2005-07-15 05:00;METAR CYVR 150500Z 31009KT 30SM FEW150 SCT240 19/14 A3002 RMK AC1CI2 SLP165=

CYVR;2005-07-15 06:00;METAR CYVR 150600Z 30010KT 30SM FEW140 SCT240 18/14 A3001 RMK AC1CI2 SLP161=

CYVR;2005-07-15 07:00;METAR CYVR 150700Z 31007KT 30SM FEW140 SCT240 18/14 A2999 RMK AC1CI1 SLP156=

CYVR;2005-07-15 08:00;METAR CYVR 150800Z 31008KT 30SM FEW140 BKN240 18/15 A2998 RMK AC1CI2 SLP152=

CYVR;2005-07-15 09:00;METAR CYVR 150900Z 30008KT 30SM BKN230 18/15 A2998 RMK CI2 SLP151=

CYVR;2005-07-15 10:00;METAR CYVR 151000Z 32006KT 30SM BKN220 17/14 A2996 RMK CI3 SLP147=

CYVR;2005-07-15 11:00;METAR CYVR 151100Z 32008KT 20SM SCT160 BKN220 18/15 A2996 RMK AC3CI2 SLP146=

CYVR;2005-07-15 12:00;METAR CYVR 151200Z 32011KT 20SM FEW080 BKN140 BKN220 18/15 A2996 RMK AC2AC4CI2 SLP144=

CYVR;2005-07-15 13:00;METAR CYVR 151300Z 30009KT 30SM FEW050 FEW080 BKN130 BKN220 18/15 A2997 RMK SC1AC2AC4CI1 SLP149=

CYVR;2005-07-15 13:28;SPECI CYVR 151328Z 33007KT 20SM -SHRA FEW050 FEW070 BKN100 BKN150 18/ RMK SC1AC2AC3AC2=

CYVR;2005-07-15 14:00;METAR CYVR 151400Z 32002KT 12SM -SHRA FEW040 BKN060 OVC090 17/15 A2996 RMK SC2SC3AC2 SLP147=

CYVR;2005-07-15 15:00;METAR CYVR 151500Z 18004KT 15SM -SHRA FEW020 SCT060 BKN100 OVC150 17/14 A2997 RMK SF1SC2AC3AC2 SLP148=

CYVR;2005-07-15 16:00;METAR CYVR 151600Z 01003KT 10SM -SHRA FEW012 SCT050 OVC110 18/15 A2998 RMK SF2SC2AC5 SLP154=

CYVR;2005-07-15 17:00;METAR CYVR 151700Z 32011KT 10SM -SHRA SCT010 BKN050 OVC090 17/15 A2999 RMK SF4SC2AC2 SLP155=

CYVR;2005-07-15 18:00;METAR CYVR 151800Z 33007KT 12SM -SHRA FEW011 BKN060 OVC090 17/15 A2999 RMK SF2SC3AC2 SLP156=

CYVR;2005-07-15 19:00;METAR CYVR 151900Z 07003KT 12SM -SHRA FEW012 BKN055 OVC085 18/16 A2998 RMK SF2SC3AC3 SLP153=

CYVR;2005-07-15 19:26;SPECI CYVR 151926Z 13003KT 15SM FEW012 SCT055 BKN067 OVC075 19/ RMK SF1SC2AC2AC3=

CYVR;2005-07-15 20:00;METAR CYVR 152000Z 24005KT 15SM FEW015 BKN055 OVC085 19/15 A2998 RMK SC2SC3AC2 SLP154=

CYVR;2005-07-15 20:13;SPECI CYVR 152013Z 24005KT 15SM -SHRA SCT014 BKN055 OVC085 18/ RMK SC4SC2AC2=

CYVR;2005-07-15 20:53;SPECI CYVR 152053Z 23005KT 15SM SCT016 BKN055 OVC085 18/ RMK SC4SC2AC2=

CYVR;2005-07-15 21:00;METAR CYVR 152100Z 24005KT 15SM BKN017 BKN055 OVC087 18/15 A2998 RMK SC5SC2AC2 SLP153=

CYVR;2005-07-15 21:27;SPECI CYVR 152127Z 23005KT 15SM BKN014 OVC045 18/ RMK SC6SC2=

CYVR;2005-07-15 21:42;SPECI CYVR 152142Z 21004KT 15SM BKN016 OVC045 18/ RMK SC6SC2=

CYVR;2005-07-15 22:00;METAR CYVR 152200Z 17004KT 15SM SCT017 BKN075 OVC085 19/15 A2999 RMK SC3AC3AC2 SLP155=

CYVR;2005-07-15 23:00;METAR CYVR 152300Z 15007KT 12SM BKN021 OVC070 19/16 A2998 RMK SC6AC2 SLP154=

CYVR;2005-07-16 00:00;METAR CYVR 160000Z 12009KT 15SM FEW017 OVC076 19/15 A2998 RMK SC2AC6 SLP152=

CYVR;2005-07-16 01:00;METAR CYVR 160100Z 11009KT 15SM FEW017 BKN066 OVC075 18/14 A2997 RMK SC2AC3AC2 SLP149=

CYVR;2005-07-16 02:00;METAR CYVR 160200Z 13009KT 15SM FEW017 FEW034 OVC064 18/13 A2996 RMK SC1SC2SC6 SLP147=

CYVR;2005-07-16 03:00;METAR CYVR 160300Z 13009KT 15SM FEW017 SCT040 OVC065 17/13 A2996 RMK SC1SC2SC5 SLP144=

CYVR;2005-07-16 04:00;METAR CYVR 160400Z 13007KT 15SM FEW017 FEW036 BKN068 OVC080 17/13 A2995 RMK SC1SC2AC4AC2 SLP141=

CYVR;2005-07-16 05:00;METAR CYVR 160500Z 10010KT 15SM FEW017 BKN056 OVC080 16/14 A2995 RMK SC1SC6AC2 SLP143=

CYVR;2005-07-16 06:00;METAR CYVR 160600Z 10009KT 15SM FEW015 BKN037 OVC061 16/13 A2995 RMK SC1SC4SC3 SLP143=

CYVR;2005-07-16 09:00;METAR CYVR 160900Z 09008KT 15SM FEW030 BKN046 OVC067 15/13 A2995 RMK SC2SC3AC2 SLP142=

CYVR;2005-07-16 10:00;METAR CYVR 161000Z 10008KT 15SM FEW030 BKN044 OVC068 15/12 A2995 RMK SC2SC3AC2 SLP143=

CYVR;2005-07-16 11:00;METAR CYVR 161100Z 08007KT 15SM FEW030 BKN041 OVC068 15/12 A2995 RMK SC2SC5AC1 SLP143=

CYVR;2005-07-16 12:00;METAR CYVR 161200Z 10005KT 15SM SCT037 OVC067 15/12 A2996 RMK SC3AC5 SLP145=

CYVR;2005-07-16 13:00;METAR CYVR 161300Z 09003KT 10SM -RA BKN018 OVC042 15/12 A2997 RMK SC6SC2 SLP149=

CYVR;2005-07-16 14:00;METAR CYVR 161400Z 15002KT 8SM -RA BKN015 BKN020 OVC040 15/12 A2998 RMK SF5SC2SC2 PCPN VRY LGT SLP151=

CYVR;2005-07-16 14:08;SPECI CYVR 161408Z 10003KT 8SM -SHRA FEW008 BKN014 BKN025 OVC040 15/ RMK CF1SF4SC2SC2=

CYVR;2005-07-16 15:00;METAR CYVR 161500Z 14003KT 6SM -SHRA FEW009 BKN015 OVC040 15/13 A3000 RMK SF1SC5SC2 SLP158=

CYVR;2005-07-16 15:29;SPECI CYVR 161529Z 10005KT 8SM -SHRA FEW007 BKN010 BKN040 15/ RMK SF1SC5SC2 VIS SW - W 20=

CYVR;2005-07-16 16:00;METAR CYVR 161600Z 10007KT 10SM FEW007 BKN011 BKN040 BKN080 15/13 A3001 RMK SF1SC5SC1AC1 VIS SW - W 30 SLP161=

CYVR;2005-07-16 16:25;SPECI CYVR 161625Z 10007KT 10SM -SHRA FEW007 BKN011 BKN040 15/ RMK SF1SC6SC1 VIS SW - W 30=

CYVR;2005-07-16 16:52;SPECI CYVR 161652Z 29011KT 10SM FEW007 BKN018 BKN040 16/ RMK SF1SC4SC2 VIS S - W 30=

CYVR;2005-07-16 17:00;METAR CYVR 161700Z 29011G16KT 10SM FEW007 BKN019 BKN040 17/15 A3003 RMK SF1SC4SC2 VIS S - W 30 SLP168=

CYVR;2005-07-16 18:00;METAR CYVR 161800Z 07004KT 10SM FEW010 SCT017 BKN029 BKN040 17/14 A3006 RMK SF1SC2SC2SC1 TCU EMBD / VIS HIER W SLP178=

CYVR;2005-07-16 19:00;METAR CYVR 161900Z 31008KT 15SM FEW018 BKN028 18/14 A3008 RMK SC2SC3 VIS HIER S - W SLP187=

CYVR;2005-07-16 20:00;METAR CYVR 162000Z 29007KT 20SM FEW019 BKN029 19/14 A3009 RMK SC2CU3 SLP188=

CYVR;2005-07-16 21:00;METAR CYVR 162100Z 25005KT 20SM SCT029 19/14 A3010 RMK CU3 SLP193=

CYVR;2005-07-16 22:00;METAR CYVR 162200Z 26005KT 20SM FEW035 20/14 A3011 RMK CU2 SLP197=

CYVR;2005-07-16 23:00;METAR CYVR 162300Z 27005KT 20SM FEW040 21/14 A3012 RMK CU2 SLP199=

CYVR;2005-07-17 00:00;METAR CYVR 170000Z 25006KT 20SM FEW040 20/14 A3011 RMK CU2 SLP198=

CYVR;2005-07-17 03:00;METAR CYVR 170300Z 25002KT 30SM FEW040 FEW240 19/13 A3013 RMK SC1CI1 SLP202=

CYVR;2005-07-17 04:00;METAR CYVR 170400Z 24003KT 30SM FEW240 18/13 A3013 RMK CI1 SLP204=

CYVR;2005-07-17 05:00;METAR CYVR 170500Z 00000KT 20SM FEW040 FEW200 18/13 A3015 RMK SC1CI1 TR SC SLP209=

CYVR;2005-07-17 06:00;METAR CYVR 170600Z 10003KT 20SM FEW200 17/12 A3015 RMK CI1 SLP210=

CYVR;2005-07-17 07:00;METAR CYVR 170700Z 10003KT 20SM FEW200 16/12 A3015 RMK CI1 SLP211=

CYVR;2005-07-17 08:00;METAR CYVR 170800Z 01003KT 20SM FEW200 16/13 A3016 RMK CI1 SLP213=

CYVR;2005-07-17 09:00;METAR CYVR 170900Z 02004KT 20SM FEW200 16/13 A3016 RMK CI1 SLP214=

CYVR;2005-07-17 10:00;METAR CYVR 171000Z 00000KT 20SM FEW210 16/13 A3016 RMK CI1 SLP213=

CYVR;2005-07-17 11:00;METAR CYVR 171100Z 00000KT 20SM FEW210 15/12 A3016 RMK CI1 SLP212=

CYVR;2005-07-17 12:00;METAR CYVR 171200Z 18002KT 20SM FEW210 15/13 A3016 RMK CI1 SLP213=

CYVR;2005-07-17 13:00;METAR CYVR 171300Z 34004KT 20SM FEW040 15/12 A3017 RMK SC1 TR SC SLP217=

CYVR;2005-07-17 14:00;METAR CYVR 171400Z 30009KT 20SM FEW025 17/15 A3017 RMK CF1 SLP215=

CYVR;2005-07-17 15:00;METAR CYVR 171500Z 31010KT 30SM FEW025 18/15 A3016 RMK CF1 TR CF SLP214=

CYVR;2005-07-17 16:00;METAR CYVR 171600Z 31012G17KT 30SM FEW025 FEW210 18/15 A3016 RMK CF1CI1 SLP214=

CYVR;2005-07-17 17:00;METAR CYVR 171700Z 30015KT 30SM FEW025 20/16 A3017 RMK CF0 SLP215=

CYVR;2005-07-17 18:00;METAR CYVR 171800Z 31014KT 30SM FEW025 19/15 A3015 RMK CF0 SLP210=

CYVR;2005-07-17 19:00;METAR CYVR 171900Z 31013KT 30SM FEW025 20/16 A3014 RMK CF0 SLP206=

CYVR;2005-07-17 20:00;METAR CYVR 172000Z 30013KT 30SM FEW025 20/16 A3012 RMK CF1 TR CF SLP201=

CYVR;2005-07-17 21:00;METAR CYVR 172100Z 31012KT 30SM FEW035 21/16 A3011 RMK CF1 TR CF SLP196=

CYVR;2005-07-17 22:00;METAR CYVR 172200Z 31012KT 30SM FEW040 22/16 A3009 RMK CF1 TR CF SLP191=

CYVR;2005-07-18 00:00;METAR CYVR 180000Z 29009KT 30SM SKC 23/16 A3005 RMK SLP176=

CYVR;2005-07-18 03:00;METAR CYVR 180300Z 31007KT 30SM SKC 21/16 A2998 RMK SLP154=

CYVR;2005-07-18 04:00;METAR CYVR 180400Z 30006KT 30SM SKC 20/16 A2997 RMK SLP150=

CYVR;2005-07-18 05:00;METAR CYVR 180500Z 30004KT 30SM SKC 19/15 A2997 RMK SLP149=

CYVR;2005-07-18 06:00;METAR CYVR 180600Z 30007KT 30SM SKC 19/15 A2996 RMK SLP146=

CYVR;2005-07-18 07:00;METAR CYVR 180700Z 27007KT 30SM SKC 20/15 A2996 RMK SLP145=

CYVR;2005-07-18 08:00;METAR CYVR 180800Z 30005KT 30SM SKC 17/14 A2996 RMK SLP145=

CYVR;2005-07-18 10:00;METAR CYVR 181000Z 35002KT 30SM SKC 18/15 A2994 RMK SLP140=

CYVR;2005-07-18 11:00;METAR CYVR 181100Z 36003KT 30SM SKC 17/15 A2994 RMK SLP138=

CYVR;2005-07-18 12:00;METAR CYVR 181200Z 35003KT 30SM SKC 17/14 A2994 RMK SLP138=

CYVR;2005-07-18 13:00;METAR CYVR 181300Z 33005KT 30SM SKC 16/14 A2993 RMK SLP137=

CYVR;2005-07-18 14:00;METAR CYVR 181400Z 31008KT 30SM SKC 18/15 A2993 RMK SLP137=

CYVR;2005-07-18 15:00;METAR CYVR 181500Z 31012KT 30SM SKC 19/15 A2993 RMK SLP136=

CYVR;2005-07-18 16:00;METAR CYVR 181600Z 30014KT 30SM SKC 19/14 A2993 RMK SLP135=

CYVR;2005-07-18 17:00;METAR CYVR 181700Z 31014KT 30SM SKC 20/15 A2993 RMK SLP135=

CYVR;2005-07-18 18:00;METAR CYVR 181800Z 30014KT 30SM SKC 20/15 A2993 RMK SLP135=

CYVR;2005-07-18 19:00;METAR CYVR 181900Z 29013KT 30SM FEW040 21/15 A2993 RMK CF1 TR CF SLP134=

CYVR;2005-07-18 20:00;METAR CYVR 182000Z 29012KT 30SM FEW040 22/15 A2991 RMK SC0 SLP130=

CYVR;2005-07-18 21:00;METAR CYVR 182100Z 28009KT 30SM FEW040 22/15 A2991 RMK CU0 SLP127=

CYVR;2005-07-18 22:00;METAR CYVR 182200Z 27012KT 30SM FEW040 22/14 A2990 RMK CU0 SLP124=

CYVR;2005-07-18 23:00;METAR CYVR 182300Z 28009KT 30SM FEW040 22/14 A2988 RMK CF0 SLP119=

CYVR;2005-07-19 00:00;METAR CYVR 190000Z 27008KT 30SM FEW040 22/15 A2986 RMK CU1 SLP112=

CYVR;2005-07-19 01:00;METAR CYVR 190100Z 29011G16KT 30SM FEW040 22/13 A2985 RMK SC1 TR SC SLP108=

CYVR;2005-07-19 02:00;METAR CYVR 190200Z 29014KT 30SM FEW040 22/13 A2984 RMK SC1 TR SC SLP105=

CYVR;2005-07-19 04:00;METAR CYVR 190400Z 29017G24KT 30SM FEW040 20/12 A2982 RMK SC1 TR SC SLP097=

CYVR;2005-07-19 05:00;METAR CYVR 190500Z 29020KT 30SM FEW040 19/13 A2982 RMK SC1 TR SC SLP098=

CYVR;2005-07-19 06:00;METAR CYVR 190600Z 29016G22KT 30SM SKC 19/14 A2982 RMK SLP099=

CYVR;2005-07-19 07:00;METAR CYVR 190700Z 30015G20KT 30SM SKC 18/14 A2983 RMK SLP100=

CYVR;2005-07-19 08:00;METAR CYVR 190800Z 30020G26KT 30SM SKC 18/12 A2982 RMK SLP099=

CYVR;2005-07-19 09:00;METAR CYVR 190900Z 29022G28KT 30SM SKC 17/11 A2983 RMK SLP101=

CYVR;2005-07-19 10:00;METAR CYVR 191000Z 30021G27KT 30SM FEW068 16/11 A2983 RMK AC1 SLP103=

CYVR;2005-07-19 11:00;METAR CYVR 191100Z 31018KT 30SM FEW068 16/11 A2984 RMK AC1 SLP106=

CYVR;2005-07-19 12:00;METAR CYVR 191200Z 30015KT 30SM FEW068 15/11 A2985 RMK AC2 SLP110=

CYVR;2005-07-19 13:00;METAR CYVR 191300Z 31014KT 30SM FEW070 15/11 A2986 RMK AC2 SLP113=

CYVR;2005-07-19 14:00;METAR CYVR 191400Z 30013KT 30SM FEW040 FEW070 16/12 A2988 RMK SF1AC1 SLP120=

CYVR;2005-07-19 15:00;METAR CYVR 191500Z 30012KT 30SM FEW040 SCT070 16/12 A2990 RMK SF1AC2 SLP124=

CYVR;2005-07-19 16:00;METAR CYVR 191600Z 30012KT 20SM FEW020 SCT070 SCT240 17/12 A2991 RMK SC2AC2CI0 SLP127=

CYVR;2005-07-19 16:47;SPECI CYVR 191647Z 30012KT 20SM SCT020 SCT070 BKN240 18/ RMK SC3AC1CI0 LO CLD E=

CYVR;2005-07-19 17:00;METAR CYVR 191700Z 29012KT 20SM SCT022 SCT070 BKN240 17/12 A2992 RMK SC3AC1CI0 LO CLD LYR E SLP131=

CYVR;2005-07-19 18:00;METAR CYVR 191800Z 30011KT 20SM SCT019 SCT240 18/12 A2993 RMK SC3CI0 LO CLD LYR E SLP135=

CYVR;2005-07-19 19:00;METAR CYVR 191900Z 30007KT 20SM FEW020 FEW070 SCT240 18/12 A2993 RMK SC2AC1CI0 SLP136=

CYVR;2005-07-19 20:00;METAR CYVR 192000Z 29006KT 20SM FEW040 FEW080 19/13 A2993 RMK CU2AC1 SLP136=

CYVR;2005-07-19 21:00;METAR CYVR 192100Z 26008KT 20SM FEW045 19/13 A2993 RMK CU1 SLP137=

CYVR;2005-07-19 22:00;METAR CYVR 192200Z 28007KT 20SM FEW045 20/13 A2993 RMK CU1 SLP137=

CYVR;2005-07-20 00:00;METAR CYVR 200000Z 25005KT 30SM FEW050 21/13 A2993 RMK CU1 SLP136=

CYVR;2005-07-20 01:00;METAR CYVR 200100Z 26004KT 30SM FEW050 21/11 A2993 RMK CU1 SLP134=

CYVR;2005-07-20 02:00;METAR CYVR 200200Z 26003KT 30SM FEW055 21/12 A2991 RMK CU1 SLP129=

CYVR;2005-07-20 03:00;METAR CYVR 200300Z 30002KT 30SM FEW055 20/11 A2991 RMK CU1 SLP130=

CYVR;2005-07-20 04:00;METAR CYVR 200400Z 30002KT 30SM FEW080 19/12 A2992 RMK AC1 SLP131=

CYVR;2005-07-20 05:00;METAR CYVR 200500Z 00000KT 30SM FEW080 19/11 A2993 RMK AC1 SLP134=

CYVR;2005-07-20 06:00;METAR CYVR 200600Z 15002KT 30SM FEW080 18/12 A2993 RMK AC1 SLP135=

CYVR;2005-07-20 07:00;METAR CYVR 200700Z 09002KT 20SM FEW080 17/12 A2993 RMK AC1 SLP136=

CYVR;2005-07-20 08:00;METAR CYVR 200800Z 08002KT 20SM FEW055 17/11 A2994 RMK SC2 SLP138=

CYVR;2005-07-20 09:00;METAR CYVR 200900Z 14005KT 20SM FEW055 17/12 A2994 RMK SC2 SLP138=

CYVR;2005-07-20 10:00;METAR CYVR 201000Z 15005KT 20SM FEW055 16/11 A2995 RMK SC1 SLP141=

CYVR;2005-07-20 11:00;METAR CYVR 201100Z 13004KT 20SM FEW055 15/11 A2995 RMK SC2 SLP143=

CYVR;2005-07-20 12:00;METAR CYVR 201200Z 13006KT 20SM SCT060 15/11 A2996 RMK SC3 SLP146=

CYVR;2005-07-20 13:00;METAR CYVR 201300Z 11006KT 20SM FEW060 SCT220 14/11 A2998 RMK SC2CI1 SLP151=

CYVR;2005-07-20 14:00;METAR CYVR 201400Z 11005KT 20SM FEW060 SCT240 16/12 A2999 RMK SC2CI1 SLP157=

CYVR;2005-07-20 15:00;METAR CYVR 201500Z 10005KT 20SM FEW020 BKN061 BKN240 16/12 A3001 RMK SC1SC4CI0 SLP162=

CYVR;2005-07-20 17:00;METAR CYVR 201700Z 26007KT 15SM FEW018 BKN060 BKN240 18/13 A3003 RMK CU2SC2CI0 SLP169=

CYVR;2005-07-20 18:00;METAR CYVR 201800Z 25006KT 15SM FEW021 SCT060 19/13 A3004 RMK CU2SC1 SLP172=

CYVR;2005-07-20 19:00;METAR CYVR 201900Z 27006KT 15SM FEW025 SCT220 19/13 A3005 RMK CU2CI1 SLP176=

CYVR;2005-07-20 20:00;METAR CYVR 202000Z 25007KT 20SM FEW050 FEW240 20/13 A3006 RMK CU1CI0 SLP179=

CYVR;2005-07-20 21:00;METAR CYVR 202100Z 25007KT 20SM FEW050 FEW240 20/13 A3006 RMK CU1CI0 SLP180=

CYVR;2005-07-20 22:00;METAR CYVR 202200Z 25006KT 20SM FEW050 20/12 A3006 RMK CU1 SLP180=

CYVR;2005-07-20 23:00;METAR CYVR 202300Z 25007KT 20SM FEW050 20/12 A3006 RMK CU1 SLP180=

CYVR;2005-07-21 00:00;METAR CYVR 210000Z 26006KT 20SM FEW050 20/13 A3006 RMK CU1 SLP180=

CYVR;2005-07-21 01:00;METAR CYVR 210100Z 26005KT 30SM FEW050 FEW240 20/13 A3005 RMK CU1CI0 SLP177=

CYVR;2005-07-21 02:00;METAR CYVR 210200Z 28005KT 30SM FEW050 SCT240 20/12 A3005 RMK CU1CI2 SLP176=

CYVR;2005-07-21 04:00;METAR CYVR 210400Z 30006KT 30SM FEW160 FEW240 17/11 A3005 RMK AC1CI2 SLP176=

CYVR;2005-07-21 05:00;METAR CYVR 210500Z 28003KT 20SM FEW240 18/10 A3005 RMK CI2 SLP176=

CYVR;2005-07-21 06:00;METAR CYVR 210600Z 35002KT 20SM FEW240 17/11 A3006 RMK CI2 SLP178=

CYVR;2005-07-21 07:00;METAR CYVR 210700Z 35002KT 20SM FEW240 17/12 A3006 RMK CI1 SLP179=

CYVR;2005-07-21 09:00;METAR CYVR 210900Z 00000KT 20SM FEW230 16/12 A3006 RMK CI1 SLP178=

CYVR;2005-07-21 10:00;METAR CYVR 211000Z 00000KT 20SM FEW230 15/12 A3005 RMK CI1 SLP175=

CYVR;2005-07-21 11:00;METAR CYVR 211100Z 00000KT 20SM FEW230 15/11 A3005 RMK CI1 SLP177=

CYVR;2005-07-21 12:00;METAR CYVR 211200Z 03003KT 20SM FEW230 15/11 A3006 RMK CI1 SLP179=

CYVR;2005-07-21 13:00;METAR CYVR 211300Z 34002KT 20SM FEW230 14/11 A3005 RMK CI1 SLP176=

CYVR;2005-07-21 14:00;METAR CYVR 211400Z 30012KT 20SM FEW240 16/12 A3005 RMK CI1 SLP175=

CYVR;2005-07-21 15:00;METAR CYVR 211500Z 30016KT 30SM SKC 17/14 A3004 RMK SLP174=

CYVR;2005-07-21 16:00;METAR CYVR 211600Z 31015KT 30SM SKC 18/15 A3004 RMK SLP173=

CYVR;2005-07-21 17:00;METAR CYVR 211700Z 30014KT 30SM SKC 18/14 A3003 RMK SLP168=

CYVR;2005-07-21 18:00;METAR CYVR 211800Z 31015KT 30SM SKC 19/15 A3002 RMK SLP165=

CYVR;2005-07-21 19:00;METAR CYVR 211900Z 30015KT 30SM SKC 20/15 A3000 RMK SLP159=

CYVR;2005-07-21 20:00;METAR CYVR 212000Z 31014KT 30SM SKC 21/16 A2998 RMK SLP153=

CYVR;2005-07-21 21:00;METAR CYVR 212100Z 31014KT 30SM SKC 22/15 A2996 RMK SLP145=

CYVR;2005-07-21 23:00;METAR CYVR 212300Z 30013KT 30SM SKC 23/16 A2991 RMK SLP127=

CYVR;2005-07-22 00:00;METAR CYVR 220000Z 30012KT 30SM SKC 22/15 A2988 RMK SLP119=

CYVR;2005-07-22 01:00;METAR CYVR 220100Z 31010KT 30SM SKC 21/15 A2985 RMK SLP110=

CYVR;2005-07-22 02:00;METAR CYVR 220200Z 31010KT 30SM FEW240 22/14 A2984 RMK CI1 SLP105=

CYVR;2005-07-22 03:00;METAR CYVR 220300Z 31010KT 30SM FEW240 21/14 A2983 RMK CI2 SLP102=

CYVR;2005-07-22 04:00;METAR CYVR 220400Z 31004KT 30SM FEW240 19/14 A2983 RMK CI2 SLP101=

CYVR;2005-07-22 05:00;METAR CYVR 220500Z 32007KT 30SM FEW240 18/14 A2983 RMK CI2 SLP103=

CYVR;2005-07-22 06:00;METAR CYVR 220600Z 26005KT 20SM FEW240 19/14 A2984 RMK CI2 SLP106=

CYVR;2005-07-22 07:00;METAR CYVR 220700Z 26002KT 20SM SCT240 19/14 A2984 RMK CI3 SLP105=

CYVR;2005-07-22 08:00;METAR CYVR 220800Z 31003KT 20SM BKN240 18/13 A2983 RMK CI3 SLP103=

CYVR;2005-07-22 09:00;METAR CYVR 220900Z 12003KT 20SM BKN240 17/13 A2983 RMK CI3 SLP100=

CYVR;2005-07-22 10:00;METAR CYVR 221000Z 07004KT 20SM SCT240 16/13 A2982 RMK CI4 SLP099=

CYVR;2005-07-22 11:00;METAR CYVR 221100Z 32009KT 20SM BKN240 17/15 A2982 RMK CI6 SLP098=

CYVR;2005-07-22 12:00;METAR CYVR 221200Z 32007KT 20SM BKN210 17/15 A2981 RMK CI6 SLP096=

CYVR;2005-07-22 13:00;METAR CYVR 221300Z 30009KT 20SM BKN210 17/15 A2982 RMK CI7 SLP099=

CYVR;2005-07-22 14:00;METAR CYVR 221400Z 31008KT 20SM FEW160 BKN200 17/15 A2983 RMK AC2CI5 SLP101=

CYVR;2005-07-22 15:00;METAR CYVR 221500Z 31007KT 20SM FEW140 OVC180 17/14 A2985 RMK AC2AC5 SLP109=

CYVR;2005-07-22 16:00;METAR CYVR 221600Z 33006KT 20SM FEW140 SCT180 OVC200 17/15 A2986 RMK AC2AC2CI3 SLP113=

CYVR;2005-07-22 17:00;METAR CYVR 221700Z 22004KT 20SM FEW100 SCT180 OVC200 19/15 A2990 RMK AC2AC2CS3 SLP126=

CYVR;2005-07-22 18:00;METAR CYVR 221800Z 24002KT 20SM FEW090 SCT150 BKN210 20/15 A2991 RMK AC2AC2CS3 SLP128=

CYVR;2005-07-22 19:00;METAR CYVR 221900Z 17005KT 20SM FEW090 SCT150 BKN230 20/15 A2992 RMK AC2AC2CS4 SLP131=

CYVR;2005-07-22 20:00;METAR CYVR 222000Z 11007KT 20SM FEW090 SCT140 BKN230 21/15 A2993 RMK AC2AC2CS4 SLP136=

CYVR;2005-07-22 21:00;METAR CYVR 222100Z 11011KT 30SM FEW120 BKN240 22/15 A2994 RMK AC2CS4 SLP138=

CYVR;2005-07-22 22:00;METAR CYVR 222200Z 12015KT 30SM FEW060 SCT240 24/15 A2994 RMK SC1CI2 SLP138=

CYVR;2005-07-22 23:00;METAR CYVR 222300Z 14015KT 30SM FEW050 SCT240 23/14 A2994 RMK CU1CI2 SLP140=

CYVR;2005-07-23 00:00;METAR CYVR 230000Z 13015G24KT 30SM FEW050 SCT240 24/15 A2995 RMK CU1CI2 SLP143=

CYVR;2005-07-23 01:00;METAR CYVR 230100Z 13013G19KT 30SM FEW050 FEW240 23/15 A2995 RMK CU1CI1 SLP143=

CYVR;2005-07-23 02:00;METAR CYVR 230200Z 13009KT 30SM FEW050TCU FEW170 23/12 A2997 RMK TCU1AC1 SLP148=

CYVR;2005-07-23 03:00;METAR CYVR 230300Z 13009KT 30SM FEW050TCU FEW170 21/12 A2998 RMK TCU1AC1 SLP151=

CYVR;2005-07-23 04:00;METAR CYVR 230400Z 11010KT 30SM FEW050 FEW170 20/12 A2999 RMK CU1AC1 SLP156=

CYVR;2005-07-23 05:00;METAR CYVR 230500Z 10009KT 20SM FEW045 FEW170 17/12 A3003 RMK CU1AC1 SLP168=

CYVR;2005-07-23 07:00;METAR CYVR 230700Z 10013KT 20SM FEW160 15/12 A3007 RMK AC1 SLP184=

CYVR;2005-07-23 08:00;METAR CYVR 230800Z 10010KT 20SM FEW045 15/11 A3009 RMK SC2 SLP191=

CYVR;2005-07-23 09:00;METAR CYVR 230900Z 11012KT 20SM FEW030 FEW045 14/11 A3011 RMK SC1SC2 SLP197=

CYVR;2005-07-23 10:00;METAR CYVR 231000Z 11014KT 20SM BKN030 15/11 A3012 RMK SC5 SLP200=

CYVR;2005-07-23 11:00;METAR CYVR 231100Z 11013KT 20SM BKN032 15/11 A3014 RMK SC6 SLP206=

CYVR;2005-07-23 12:00;METAR CYVR 231200Z 11013KT 20SM BKN030 15/11 A3015 RMK SC7 SLP210=

CYVR;2005-07-23 13:00;METAR CYVR 231300Z 11012KT 20SM BKN028 15/11 A3017 RMK SC7 SLP215=

CYVR;2005-07-23 14:00;METAR CYVR 231400Z 11013KT 12SM OVC021 15/12 A3018 RMK SC8 SLP220=

CYVR;2005-07-23 15:00;METAR CYVR 231500Z 10012KT 12SM OVC022 15/12 A3020 RMK SC8 SLP226=

CYVR;2005-07-23 16:00;METAR CYVR 231600Z 10011KT 12SM OVC022 15/12 A3021 RMK SC8 SLP229=

CYVR;2005-07-23 18:00;METAR CYVR 231800Z 12007KT 12SM BKN020 OVC033 17/12 A3022 RMK SC6SC2 SLP232=

CYVR;2005-07-23 19:00;METAR CYVR 231900Z 11005KT 12SM SCT022 OVC035 19/13 A3022 RMK SC4SC4 SLP232=

CYVR;2005-07-23 20:00;METAR CYVR 232000Z 16003KT 12SM BKN030 BKN050 19/13 A3021 RMK SC6SC1 SLP230=

CYVR;2005-07-23 21:00;METAR CYVR 232100Z 24007KT 20SM BKN037 21/13 A3020 RMK SC5 SLP227=

CYVR;2005-07-23 22:00;METAR CYVR 232200Z 24006KT 20SM SCT035 22/14 A3018 RMK SC3 SLP221=

CYVR;2005-07-23 23:00;METAR CYVR 232300Z 21008KT 20SM FEW040 21/14 A3017 RMK SC2 SLP217=

CYVR;2005-07-24 00:00;METAR CYVR 240000Z 25008KT 20SM FEW040 21/14 A3016 RMK SC2 SLP214=

CYVR;2005-07-24 01:00;METAR CYVR 240100Z 24006KT 20SM FEW040 FEW090 20/13 A3016 RMK SC1AC1 TR AC SLP214=

CYVR;2005-07-24 02:00;METAR CYVR 240200Z 21006KT 30SM FEW040 FEW100 20/12 A3013 RMK SC1AC1 SLP204=

CYVR;2005-07-24 03:00;METAR CYVR 240300Z 20006G15KT 30SM FEW040 19/12 A3013 RMK SC1 SLP204=

CYVR;2005-07-24 04:00;METAR CYVR 240400Z 29002KT 30SM FEW055 17/13 A3013 RMK SC1 SLP203=

CYVR;2005-07-24 06:00;METAR CYVR 240600Z 00000KT 30SM FEW055 17/15 A3013 RMK SC1 SLP204=

CYVR;2005-07-24 09:00;METAR CYVR 240900Z 11005KT 30SM SKC 14/12 A3013 RMK SLP204=

CYVR;2005-07-24 10:00;METAR CYVR 241000Z 09004KT 30SM SKC 13/12 A3014 RMK SLP205=

CYVR;2005-07-24 11:00;METAR CYVR 241100Z 03004KT 30SM FEW090 14/12 A3014 RMK AC1 TR AC SLP207=

CYVR;2005-07-24 12:00;METAR CYVR 241200Z 09002KT 30SM SKC 13/12 A3015 RMK SLP210=

CYVR;2005-07-24 13:00;METAR CYVR 241300Z 00000KT 30SM SKC 13/12 A3016 RMK SLP213=

CYVR;2005-07-24 14:00;METAR CYVR 241400Z 09003KT 20SM SKC 16/13 A3017 RMK SLP217=

CYVR;2005-07-24 15:00;METAR CYVR 241500Z 14002KT 20SM FEW050 17/12 A3018 RMK SC1 TR SC SLP220=

CYVR;2005-07-24 16:00;METAR CYVR 241600Z 28007KT 20SM FEW040 18/13 A3018 RMK CU1 TR CU SLP219=

CYVR;2005-07-24 17:00;METAR CYVR 241700Z 29012KT 20SM FEW030 18/14 A3017 RMK CU1 SLP218=

CYVR;2005-07-24 18:00;METAR CYVR 241800Z 30014KT 20SM FEW040 FEW220 18/14 A3017 RMK SC1CI1 SLP218=

CYVR;2005-07-24 19:00;METAR CYVR 241900Z 29016KT 20SM FEW040 BKN220 19/14 A3017 RMK SC1CI1 SLP216=

CYVR;2005-07-24 20:00;METAR CYVR 242000Z 29015KT 20SM FEW040 BKN220 20/14 A3016 RMK SC1CI1 SLP212=

CYVR;2005-07-24 21:00;METAR CYVR 242100Z 30014KT 20SM FEW040 BKN240 21/15 A3015 RMK SC1CI1 SLP210=

CYVR;2005-07-24 22:00;METAR CYVR 242200Z 30014KT 20SM FEW040 BKN230 21/13 A3014 RMK SC1CI1 SLP207=

CYVR;2005-07-24 23:00;METAR CYVR 242300Z 30011KT 20SM FEW040 BKN230 22/15 A3013 RMK SC1CI1 TR SC SLP204=

CYVR;2005-07-25 00:00;METAR CYVR 250000Z 30012KT 20SM FEW040 BKN230 21/15 A3012 RMK SC1CI2 TR SC SLP200=

CYVR;2005-07-25 01:00;METAR CYVR 250100Z 30011KT 20SM FEW040 BKN210 22/14 A3011 RMK SC1CI2 TR SC SLP197=

CYVR;2005-07-25 03:00;METAR CYVR 250300Z 30006KT 30SM BKN220 20/14 A3010 RMK CI1 SLP194=

CYVR;2005-07-25 04:00;METAR CYVR 250400Z 29007KT 30SM SCT220 18/15 A3010 RMK CI1 SLP193=

CYVR;2005-07-25 05:00;METAR CYVR 250500Z 29007KT 20SM FEW220 17/13 A3011 RMK CI1 SLP196=

CYVR;2005-07-25 06:00;METAR CYVR 250600Z 22004KT 20SM SKC 18/14 A3012 RMK SLP199=

CYVR;2005-07-25 07:00;METAR CYVR 250700Z 23006KT 20SM SKC 18/14 A3012 RMK SLP200=

CYVR;2005-07-25 08:00;METAR CYVR 250800Z 29006KT 30SM SKC 17/14 A3013 RMK SLP202=

CYVR;2005-07-25 09:00;METAR CYVR 250900Z 09006KT 20SM SKC 15/12 A3013 RMK SLP202=

CYVR;2005-07-25 10:00;METAR CYVR 251000Z 32004KT 20SM SKC 15/13 A3015 RMK SLP209=

CYVR;2005-07-25 11:00;METAR CYVR 251100Z 36002KT 20SM SKC 15/12 A3016 RMK SLP214=

CYVR;2005-07-25 12:00;METAR CYVR 251200Z 08002KT 20SM SKC 13/12 A3017 RMK SLP218=

CYVR;2005-07-25 13:00;METAR CYVR 251300Z 00000KT 20SM SKC 13/12 A3019 RMK SLP222=

CYVR;2005-07-25 14:00;METAR CYVR 251400Z 34002KT 20SM SKC 16/12 A3020 RMK SLP226=

CYVR;2005-07-25 15:00;METAR CYVR 251500Z 31003KT 20SM SKC 18/12 A3021 RMK SLP231=

CYVR;2005-07-25 16:00;METAR CYVR 251600Z 28008KT 20SM SKC 18/14 A3023 RMK SLP236=

CYVR;2005-07-25 17:00;METAR CYVR 251700Z 31009KT 30SM SKC 19/14 A3022 RMK SLP234=

CYVR;2005-07-25 18:00;METAR CYVR 251800Z 29012KT 30SM SKC 20/14 A3023 RMK SLP236=

CYVR;2005-07-25 19:00;METAR CYVR 251900Z 29011KT 30SM FEW040 FEW230 20/14 A3023 RMK SC1CI0 TR SC SLP237=

CYVR;2005-07-25 21:00;METAR CYVR 252100Z 29009KT 30SM FEW040 FEW230 21/15 A3022 RMK SC1CI0 SLP233=

CYVR;2005-07-25 22:00;METAR CYVR 252200Z 29009KT 30SM FEW040 22/14 A3020 RMK SC1 TR SC SLP228=

CYVR;2005-07-25 23:00;METAR CYVR 252300Z 27010KT 30SM FEW040 21/15 A3019 RMK SC1 TR SC SLP224=

CYVR;2005-07-26 00:00;METAR CYVR 260000Z 29009KT 30SM FEW040 21/15 A3018 RMK SC1 TR SC SLP220=

CYVR;2005-07-26 01:00;METAR CYVR 260100Z 28007KT 30SM FEW230 21/15 A3017 RMK CI0 SLP217=

CYVR;2005-07-26 03:00;METAR CYVR 260300Z 26005KT 30SM FEW230 20/15 A3016 RMK CI0 SLP214=

CYVR;2005-07-26 04:00;METAR CYVR 260400Z 27004KT 30SM FEW230 19/15 A3016 RMK CI0 SLP213=

CYVR;2005-07-26 05:00;METAR CYVR 260500Z 19004KT 30SM FEW230 19/15 A3017 RMK CI1 TR CI SLP216=

CYVR;2005-07-26 06:00;METAR CYVR 260600Z 21002KT 30SM SKC 19/15 A3017 RMK SLP217=

CYVR;2005-07-26 07:00;METAR CYVR 260700Z 25004KT 30SM SKC 18/15 A3017 RMK SLP217=

CYVR;2005-07-26 08:00;METAR CYVR 260800Z 17006KT 30SM SKC 17/14 A3018 RMK SLP220=

CYVR;2005-07-26 09:00;METAR CYVR 260900Z 10007KT 30SM SKC 14/13 A3017 RMK SLP217=

CYVR;2005-07-26 10:00;METAR CYVR 261000Z 06002KT 30SM SKC 15/14 A3017 RMK SLP216=

CYVR;2005-07-26 11:00;METAR CYVR 261100Z 01002KT 30SM SKC 15/14 A3018 RMK SLP219=

CYVR;2005-07-26 12:00;METAR CYVR 261200Z 36002KT 30SM SKC 14/13 A3019 RMK SLP222=

CYVR;2005-07-26 13:00;METAR CYVR 261300Z 32004KT 30SM FEW230 15/13 A3019 RMK CI1 SLP225=

CYVR;2005-07-26 14:00;METAR CYVR 261400Z 32006KT 30SM FEW230 16/14 A3020 RMK CI1 TR CI SLP227=

CYVR;2005-07-26 15:00;METAR CYVR 261500Z 31010KT 30SM FEW230 17/15 A3021 RMK CI1 TR CI SLP230=

CYVR;2005-07-26 16:00;METAR CYVR 261600Z 30009KT 30SM FEW230 19/15 A3021 RMK CI0 SLP231=

CYVR;2005-07-26 17:00;METAR CYVR 261700Z 31012KT 30SM FEW230 19/15 A3020 RMK CI0 SLP227=

CYVR;2005-07-26 18:00;METAR CYVR 261800Z 30011KT 30SM FEW230 20/15 A3019 RMK CI1 SLP224=

CYVR;2005-07-26 19:00;METAR CYVR 261900Z 31010KT 30SM FEW230 20/15 A3019 RMK CI1 SLP223=

CYVR;2005-07-26 20:00;METAR CYVR 262000Z 29006KT 30SM FEW230 21/15 A3017 RMK CI1 SLP218=

CYVR;2005-07-26 21:00;METAR CYVR 262100Z 30008KT 30SM FEW230 22/16 A3016 RMK CI1 SLP214=

CYVR;2005-07-26 22:00;METAR CYVR 262200Z 29008KT 30SM SCT230 22/14 A3015 RMK CI1 SLP209=

CYVR;2005-07-26 23:00;METAR CYVR 262300Z 29009KT 30SM BKN230 22/15 A3013 RMK CI1 SLP202=

CYVR;2005-07-27 00:00;METAR CYVR 270000Z 25007KT 30SM FEW150 FEW230 22/15 A3011 RMK AC1CI0 SLP195=

CYVR;2005-07-27 01:00;METAR CYVR 270100Z 23003KT 30SM FEW150 FEW230 22/15 A3009 RMK AC1CI0 TR AC SLP188=

CYVR;2005-07-27 02:00;METAR CYVR 270200Z 26004KT 30SM FEW150 FEW230 22/15 A3007 RMK AC1CI0 TR AC SLP183=

CYVR;2005-07-27 06:00;METAR CYVR 270600Z 25007KT 30SM FEW230 20/12 A3006 RMK CI0 SLP178=

CYVR;2005-07-27 07:00;METAR CYVR 270700Z 26008KT 30SM FEW230 20/13 A3005 RMK CI0 SLP177=

CYVR;2005-07-27 08:00;METAR CYVR 270800Z 01002KT 30SM SKC 17/13 A3005 RMK SLP177=

CYVR;2005-07-27 09:00;METAR CYVR 270900Z 05003KT 30SM SKC 17/13 A3005 RMK SLP177=

CYVR;2005-07-27 10:00;METAR CYVR 271000Z 00000KT 30SM SKC 17/13 A3005 RMK SLP177=

CYVR;2005-07-27 11:00;METAR CYVR 271100Z 06002KT 30SM SKC 16/13 A3005 RMK SLP177=

CYVR;2005-07-27 12:00;METAR CYVR 271200Z 32002KT 30SM SKC 15/13 A3006 RMK SLP178=

CYVR;2005-07-27 13:00;METAR CYVR 271300Z 36003KT 30SM SKC 15/13 A3006 RMK SLP180=

CYVR;2005-07-27 14:00;METAR CYVR 271400Z 31003KT 30SM FEW240 17/15 A3006 RMK CI1 SLP181=

CYVR;2005-07-27 15:00;METAR CYVR 271500Z 31007KT 30SM SKC 19/16 A3006 RMK SLP180=

CYVR;2005-07-27 16:00;METAR CYVR 271600Z 32011KT 30SM SKC 19/15 A3006 RMK SLP181=

CYVR;2005-07-27 17:00;METAR CYVR 271700Z 31013KT 30SM SKC 20/15 A3006 RMK SLP178=

CYVR;2005-07-27 18:00;METAR CYVR 271800Z 30013KT 20SM SKC 21/15 A3005 RMK SLP177=

CYVR;2005-07-27 19:00;METAR CYVR 271900Z 31013KT 20SM SKC 21/15 A3004 RMK SLP173=

CYVR;2005-07-27 20:00;METAR CYVR 272000Z 30014KT 20SM SKC 22/15 A3003 RMK SLP168=

CYVR;2005-07-27 21:00;METAR CYVR 272100Z 31010KT 20SM SKC 23/15 A3001 RMK SLP164=

CYVR;2005-07-27 22:00;METAR CYVR 272200Z 31011KT 20SM SKC 23/15 A2999 RMK SLP157=

CYVR;2005-07-27 23:00;METAR CYVR 272300Z 31009KT 20SM FEW040 FEW180 24/15 A2998 RMK CU1AC1 SLP151=

CYVR;2005-07-28 00:00;METAR CYVR 280000Z 30008KT 20SM FEW180 25/16 A2996 RMK AC1 SLP144=

CYVR;2005-07-28 01:00;METAR CYVR 280100Z 28005KT 20SM FEW070 FEW180 24/16 A2993 RMK AC1AC1 SLP136=

CYVR;2005-07-28 02:00;METAR CYVR 280200Z 24005KT 30SM FEW120 23/15 A2992 RMK AC1 SLP131=

CYVR;2005-07-28 03:00;METAR CYVR 280300Z 22003KT 30SM FEW120 23/14 A2991 RMK AC1 SLP128=

CYVR;2005-07-28 04:00;METAR CYVR 280400Z 20003KT 30SM FEW120 22/14 A2991 RMK AC1 SLP127=

CYVR;2005-07-28 05:00;METAR CYVR 280500Z 09002KT 30SM FEW120 21/14 A2991 RMK AC1 SLP128=

CYVR;2005-07-28 06:00;METAR CYVR 280600Z 00000KT 30SM FEW120 21/14 A2991 RMK AC1 SLP128=

CYVR;2005-07-28 07:00;METAR CYVR 280700Z 18002KT 30SM FEW100 21/14 A2991 RMK AC1 SLP127=

CYVR;2005-07-28 08:00;METAR CYVR 280800Z 10003KT 30SM SKC 18/14 A2991 RMK SLP127=

CYVR;2005-07-28 09:00;METAR CYVR 280900Z 09003KT 30SM SKC 18/15 A2990 RMK SLP125=

CYVR;2005-07-28 10:00;METAR CYVR 281000Z 08002KT 30SM SKC 18/15 A2990 RMK SLP126=

CYVR;2005-07-28 11:00;METAR CYVR 281100Z 00000KT 30SM SKC 17/14 A2990 RMK SLP126=

CYVR;2005-07-28 12:00;METAR CYVR 281200Z 00000KT 30SM FEW080 17/15 A2991 RMK AC1 SLP129=

CYVR;2005-07-28 13:00;METAR CYVR 281300Z 29007KT 30SM FEW200 16/15 A2992 RMK CI1 SLP131=

CYVR;2005-07-28 14:00;METAR CYVR 281400Z 00000KT 30SM FEW210 18/16 A2993 RMK CI1 SLP136=

CYVR;2005-07-28 15:00;METAR CYVR 281500Z 31007KT 30SM FEW210 19/16 A2994 RMK CI2 SLP140=

CYVR;2005-07-28 16:00;METAR CYVR 281600Z 31007KT 30SM SCT220 20/17 A2995 RMK CI2 SLP142=

CYVR;2005-07-28 17:00;METAR CYVR 281700Z 28007KT 30SM FEW220 21/17 A2996 RMK CI2 SLP144=

CYVR;2005-07-28 18:00;METAR CYVR 281800Z 29009KT 30SM FEW040 FEW220 21/16 A2996 RMK CU1CI1 SLP145=

CYVR;2005-07-28 19:00;METAR CYVR 281900Z 26006KT 30SM FEW045 FEW220 21/16 A2996 RMK CU1CI1 SLP146=

CYVR;2005-07-28 20:00;METAR CYVR 282000Z 24006KT 20SM FEW050 FEW220 22/16 A2996 RMK CU1CI1 SLP146=

CYVR;2005-07-28 21:00;METAR CYVR 282100Z 22006KT 20SM FEW050 FEW220 23/16 A2996 RMK CU1CI1 SLP145=

CYVR;2005-07-28 22:00;METAR CYVR 282200Z 23007G16KT 20SM FEW050TCU FEW220 25/15 A2995 RMK TCU1CI1 SLP143=

CYVR;2005-07-28 23:00;METAR CYVR 282300Z 22009KT 20SM FEW055TCU 26/16 A2994 RMK TCU1 SLP138=

CYVR;2005-07-29 00:00;METAR CYVR 290000Z 22009KT 20SM FEW055TCU FEW220 26/15 A2992 RMK TCU1CI1 SLP133=

CYVR;2005-07-29 01:00;METAR CYVR 290100Z 17006KT 20SM FEW060TCU FEW220 25/14 A2991 RMK TCU1CI1 SLP130=

CYVR;2005-07-29 02:00;METAR CYVR 290200Z 12008KT 30SM FEW060 FEW220 25/14 A2991 RMK CU1CI1 SLP128=

CYVR;2005-07-29 03:00;METAR CYVR 290300Z 10008KT 30SM FEW050 22/15 A2991 RMK CU1 SLP130=

CYVR;2005-07-29 04:00;METAR CYVR 290400Z 10010KT 30SM FEW220 20/14 A2992 RMK CI1 SLP132=

CYVR;2005-07-29 05:00;METAR CYVR 290500Z 10010KT 30SM FEW220 18/13 A2993 RMK CI1 SLP135=

CYVR;2005-07-29 06:00;METAR CYVR 290600Z 11013KT 30SM FEW220 18/13 A2993 RMK CI1 SLP136=

CYVR;2005-07-29 09:00;METAR CYVR 290900Z 13008KT 30SM SKC 17/11 A2995 RMK SLP143=

CYVR;2005-07-29 10:00;METAR CYVR 291000Z 11006KT 30SM SKC 16/10 A2996 RMK SLP145=

CYVR;2005-07-29 12:00;METAR CYVR 291200Z 10008KT 30SM FEW100 14/11 A2998 RMK AC1 SLP154=

CYVR;2005-07-29 13:00;METAR CYVR 291300Z 10007KT 30SM FEW100 FEW240 14/10 A3000 RMK AC1CI0 SLP160=

CYVR;2005-07-29 14:00;METAR CYVR 291400Z 09007KT 30SM FEW100 FEW240 15/11 A3002 RMK AC1CI1 SLP166=

CYVR;2005-07-29 15:00;METAR CYVR 291500Z 10010KT 20SM FEW030 FEW120 17/12 A3003 RMK CU1AC1 SLP169=

CYVR;2005-07-29 16:00;METAR CYVR 291600Z 11009KT 20SM FEW035 FEW130 18/13 A3004 RMK CU1AC1 SLP171=

CYVR;2005-07-29 17:00;METAR CYVR 291700Z 13011KT 20SM FEW040 FEW150 19/13 A3004 RMK CU1AC1 SLP173=

CYVR;2005-07-29 18:00;METAR CYVR 291800Z 12008KT 20SM FEW045 FEW220 20/13 A3004 RMK CU1CI2 SLP174=

CYVR;2005-07-29 19:00;METAR CYVR 291900Z 13005KT 20SM FEW050 FEW220 22/14 A3005 RMK CU1CI2 TCU ASOCT SLP175=

CYVR;2005-07-29 21:00;METAR CYVR 292100Z 11007KT 20SM FEW055 BKN220 25/13 A3004 RMK CU1CI2 SLP172=

CYVR;2005-07-29 22:00;METAR CYVR 292200Z 16010KT 20SM FEW055 FEW120 BKN220 25/12 A3004 RMK CU1AC2CI3 SLP171=

CYVR;2005-07-29 23:00;METAR CYVR 292300Z 15010G15KT 20SM FEW060 FEW130 BKN220 25/11 A3001 RMK CU1AC2CC2 SLP164=

CYVR;2005-07-30 00:00;METAR CYVR 300000Z 14007KT 20SM FEW060 FEW140 BKN220 25/10 A3001 RMK CU1AC1CC4 SLP163=

CYVR;2005-07-30 01:00;METAR CYVR 300100Z 14006KT 20SM FEW060 FEW140 BKN220 25/12 A3001 RMK CU1AC1CC2 SLP161=

CYVR;2005-07-30 02:00;METAR CYVR 300200Z 13005KT 30SM FEW060 FEW090 SCT220 25/11 A3000 RMK SC1AC1CI1 SLP158=

CYVR;2005-07-30 03:00;METAR CYVR 300300Z 10008KT 30SM FEW100 FEW240 22/11 A3000 RMK AC1CI1 SLP158=

CYVR;2005-07-30 04:00;METAR CYVR 300400Z 10010KT 30SM FEW180 SCT240 21/11 A2999 RMK AC2CI1 SLP157=

CYVR;2005-07-30 05:00;METAR CYVR 300500Z 10010KT 30SM FEW100 FEW180 19/12 A3001 RMK AC1AC2 SLP161=

CYVR;2005-07-30 07:00;METAR CYVR 300700Z 09010KT 30SM FEW160 19/13 A3001 RMK AC2 SLP162=

CYVR;2005-07-30 08:00;METAR CYVR 300800Z 09010KT 30SM FEW160 19/12 A3002 RMK AC2 SLP165=

CYVR;2005-07-30 09:00;METAR CYVR 300900Z 09010KT 30SM FEW090 17/13 A3003 RMK AC1 SLP169=

CYVR;2005-07-30 10:00;METAR CYVR 301000Z 09010KT 30SM FEW090 16/13 A3003 RMK AC1 SLP170=

CYVR;2005-07-30 11:00;METAR CYVR 301100Z 11010KT 30SM FEW080 16/13 A3004 RMK AC1 SLP174=

CYVR;2005-07-30 12:00;METAR CYVR 301200Z 11008KT 30SM FEW080 16/13 A3005 RMK AC2 SLP177=

CYVR;2005-07-30 13:00;METAR CYVR 301300Z 11009KT 30SM FEW080 BKN170 16/13 A3006 RMK AC1AC4 SLP180=

CYVR;2005-07-30 14:00;METAR CYVR 301400Z 11008KT 30SM SCT068 BKN170 17/13 A3007 RMK AC2AC2 SLP183=

CYVR;2005-07-30 15:00;METAR CYVR 301500Z 11012KT 30SM FEW070 FEW170 18/14 A3009 RMK AC1AC1 SLP188=

CYVR;2005-07-30 16:00;METAR CYVR 301600Z 12009KT 30SM FEW045 FEW160 19/14 A3009 RMK CU1AC2 SLP190=

CYVR;2005-07-30 17:00;METAR CYVR 301700Z 11008KT 30SM FEW045 FEW100 BKN190 21/14 A3009 RMK SC1AC2AC2 SLP188=

CYVR;2005-07-30 18:00;METAR CYVR 301800Z 13006KT 30SM FEW045 BKN180 BKN240 22/15 A3009 RMK SC1AC2CI2 SLP189=

CYVR;2005-07-30 19:00;METAR CYVR 301900Z 16005KT 30SM FEW040 SCT190 BKN240 24/13 A3008 RMK SC1AC2CI2 SLP185=

CYVR;2005-07-30 20:00;METAR CYVR 302000Z 23008KT 30SM FEW040 SCT180 BKN240 25/14 A3006 RMK SC1AC2CI2 SLP180=

CYVR;2005-07-30 21:00;METAR CYVR 302100Z 22010KT 30SM FEW040 BKN180 25/14 A3005 RMK SC1AC4 SLP175=

CYVR;2005-07-30 22:00;METAR CYVR 302200Z 16007KT 30SM FEW040 BKN170 BKN220 25/14 A3004 RMK SC1AC5CI1 SLP172=

CYVR;2005-07-30 23:00;METAR CYVR 302300Z 20008KT 30SM FEW045 BKN170 BKN220 25/13 A3003 RMK SC1AC5CI1 SLP170=

CYVR;2005-07-31 00:00;METAR CYVR 310000Z 18008KT 30SM FEW050 BKN160 BKN220 24/14 A3002 RMK SC1AC5CI1 SLP167=

CYVR;2005-07-31 01:00;METAR CYVR 310100Z 18006KT 30SM FEW050 SCT180 BKN230 24/14 A3001 RMK SC1AC3CI2 SLP164=

CYVR;2005-07-31 02:00;METAR CYVR 310200Z 14005KT 30SM FEW050 SCT180 BKN230 24/14 A3001 RMK SC1AC2CI2 SLP164=

CYVR;2005-07-31 03:00;METAR CYVR 310300Z 15004KT 30SM FEW050 SCT180 BKN230 23/15 A3001 RMK SC1AC3CI2 SLP162=

CYVR;2005-07-31 04:00;METAR CYVR 310400Z 11005KT 30SM FEW050 SCT180 BKN230 20/14 A3001 RMK SC1AC2CI2 SLP164=

CYVR;2005-07-31 05:00;METAR CYVR 310500Z 11008KT 30SM FEW050 SCT170 BKN230 20/14 A3002 RMK SC1AC2CI1 SLP166=

CYVR;2005-07-31 06:00;METAR CYVR 310600Z 10008KT 30SM FEW050 FEW170 BKN230 20/15 A3003 RMK SC1AC2CI1 SLP168=

CYVR;2005-07-31 07:00;METAR CYVR 310700Z 10007KT 30SM FEW050 FEW170 BKN220 19/15 A3003 RMK SC1AC2CI1 SLP168=

CYVR;2005-07-31 09:00;METAR CYVR 310900Z 12009KT 20SM FEW050 BKN170 19/15 A3003 RMK SC1AC5 SLP168=

CYVR;2005-07-31 10:00;METAR CYVR 311000Z 11006KT 20SM FEW050 BKN140 17/15 A3002 RMK SC1AC5 SLP167=

CYVR;2005-07-31 11:00;METAR CYVR 311100Z 10008KT 20SM FEW050 BKN150 17/14 A3003 RMK SC1AC4 SLP169=

CYVR;2005-07-31 12:00;METAR CYVR 311200Z 11009KT 20SM SCT150 BKN240 17/15 A3004 RMK AC3CI1 SLP171=

CYVR;2005-07-31 13:00;METAR CYVR 311300Z 12009KT 20SM FEW150 SCT190 BKN240 17/15 A3005 RMK AC2AC1CI1 SLP175=

CYVR;2005-07-31 14:00;METAR CYVR 311400Z 11008KT 30SM FEW150 BKN170 BKN240 17/15 A3005 RMK AC2AC2CI1 SLP176=

CYVR;2005-07-31 15:00;METAR CYVR 311500Z 11010KT 30SM SCT070 BKN170 BKN230 19/14 A3006 RMK AC3AC1CI2 SLP178=

CYVR;2005-07-31 16:00;METAR CYVR 311600Z 10013KT 30SM FEW070 BKN150 BKN230 20/13 A3005 RMK AC2AC2CI1 SLP176=

CYVR;2005-07-31 17:00;METAR CYVR 311700Z 12011KT 30SM FEW040 FEW070 BKN140 BKN230 21/14 A3004 RMK CF1AC2AC3CI1 TR CF SLP172=

CYVR;2005-07-31 18:00;METAR CYVR 311800Z 13010KT 30SM FEW070 SCT140 BKN230 23/14 A3003 RMK AC2AC2CI2 SLP169=

CYVR;2005-07-31 19:00;METAR CYVR 311900Z 16005KT 30SM FEW140 SCT230 24/14 A3001 RMK AC1CI1 SLP164=

CYVR;2005-07-31 19:29;SPECI CYVR 311929Z 16005KT 30SM FEW040 FEW140 SCT220 25/ RMK CF1AC1CI1=

CYVR;2005-07-31 20:00;METAR CYVR 312000Z 22005KT 30SM FEW040 FEW140 SCT230 26/13 A2999 RMK CF1AC1CI1 TR CF SLP157=

CYVR;2005-07-31 21:00;METAR CYVR 312100Z 22009KT 30SM FEW040 FEW140 SCT230 27/15 A2998 RMK CU1AC1CI0 CONTRAILS SLP151=

CYVR;2005-07-31 22:00;METAR CYVR 312200Z 13007KT 30SM FEW040 FEW140 28/14 A2996 RMK CU1AC1 SLP145=

CYVR;2005-07-31 23:00;METAR CYVR 312300Z 13005KT 30SM FEW040 FEW140 29/13 A2993 RMK CU1AC1 SLP137=

CYVR;2005-08-01 00:00;METAR CYVR 010000Z 20008KT 30SM FEW040 FEW140 28/13 A2991 RMK CU1AC1 TR AC SLP130=

CYVR;2005-08-01 01:00;METAR CYVR 010100Z 17007KT 30SM FEW040 FEW140 27/14 A2989 RMK CU0AC0 SLP123=

CYVR;2005-08-01 03:00;METAR CYVR 010300Z 18004KT 30SM BKN085 BKN210 25/14 A2989 RMK AC6CI1 SLP123=

CYVR;2005-08-01 04:00;METAR CYVR 010400Z 20005KT 30SM BKN085 BKN210 24/14 A2990 RMK AC6CI1 SLP126=

CYVR;2005-08-01 05:00;METAR CYVR 010500Z 18003KT 30SM BKN080 BKN210 23/15 A2992 RMK AC6CI1 SLP132=

CYVR;2005-08-01 06:00;METAR CYVR 010600Z 21007KT 30SM BKN080 BKN170 23/15 A2992 RMK AC6AC1 SLP131=

CYVR;2005-08-01 07:00;METAR CYVR 010700Z 22009KT 20SM BKN100 OVC170 22/15 A2993 RMK AC5AC3 SLP135=

CYVR;2005-08-01 08:00;METAR CYVR 010800Z 25016KT 20SM -RA BKN088 OVC150 21/16 A2993 RMK AC6AC2 SLP137=

CYVR;2005-08-01 08:13;SPECI CYVR 010813Z 23014KT 20SM BKN084 OVC150 21/ RMK AC6AC2=

CYVR;2005-08-01 09:00;METAR CYVR 010900Z 22012KT 20SM BKN075 OVC120 20/16 A2995 RMK AC6AC2 SLP141=

CYVR;2005-08-01 09:47;SPECI CYVR 010947Z 29010KT 20SM -RA OVC073 20/ RMK AC8=

CYVR;2005-08-01 09:54;SPECI CYVR 010954Z 29011KT 20SM OVC073 20/ RMK AC8=

CYVR;2005-08-01 10:00;METAR CYVR 011000Z 28012KT 20SM FEW040 OVC075 20/15 A2997 RMK SC2AC6 SLP149=

CYVR;2005-08-01 11:00;METAR CYVR 011100Z 32004KT 20SM FEW040 BKN080 BKN200 19/14 A2998 RMK SC1AC6CI1 SLP152=

CYVR;2005-08-01 12:00;METAR CYVR 011200Z 28009KT 20SM FEW030 BKN090 OVC200 19/14 A2999 RMK SC2AC3CI3 SLP157=

CYVR;2005-08-01 13:00;METAR CYVR 011300Z 28016KT 20SM FEW040 SCT090 OVC200 18/14 A3001 RMK SC1AC3CI2 SLP163=

CYVR;2005-08-01 14:00;METAR CYVR 011400Z 28022KT 20SM FEW030 FEW090 BKN200 17/13 A3004 RMK SC1AC1CI4 SLP171=

CYVR;2005-08-01 15:00;METAR CYVR 011500Z 28018G24KT 20SM FEW030 FEW090 BKN200 17/13 A3005 RMK SC1AC1CI2 SLP177=

CYVR;2005-08-01 16:00;METAR CYVR 011600Z 28022G27KT 20SM FEW030 FEW090 BKN200 18/13 A3006 RMK SC1AC1CI2 SLP180=

CYVR;2005-08-01 17:00;METAR CYVR 011700Z 28022G29KT 20SM FEW030 BKN200 18/12 A3007 RMK SC1CI3 SLP182=

CYVR;2005-08-01 18:00;METAR CYVR 011800Z 28019G25KT 30SM FEW040 FEW200 20/12 A3008 RMK CU1CI1 SLP187=

CYVR;2005-08-01 19:00;METAR CYVR 011900Z 29019KT 30SM FEW040 FEW200 20/11 A3009 RMK CU1CI1 SLP190=

CYVR;2005-08-01 20:00;METAR CYVR 012000Z 28016KT 30SM FEW040 FEW200 20/10 A3010 RMK CU1CI1 SLP193=

CYVR;2005-08-01 21:00;METAR CYVR 012100Z 30014KT 30SM FEW040 FEW150 22/11 A3010 RMK CU1AS1 TR AS SLP193=

CYVR;2005-08-01 22:00;METAR CYVR 012200Z 27010KT 30SM FEW040 FEW150 21/11 A3010 RMK CU1AS1 TR AS SLP194=

CYVR;2005-08-01 23:00;METAR CYVR 012300Z 26013KT 30SM FEW040 SCT240 21/11 A3009 RMK CU1CI0 SLP191=

CYVR;2005-08-02 00:00;METAR CYVR 020000Z 25013KT 30SM FEW040 FEW240 21/12 A3009 RMK CU1CI0 SLP189=

CYVR;2005-08-02 01:00;METAR CYVR 020100Z 24012KT 30SM FEW040 FEW240 21/12 A3008 RMK CU0CI0 SLP185=

CYVR;2005-08-02 03:00;METAR CYVR 020300Z 27014KT 30SM FEW040 FEW240 20/12 A3007 RMK CU1CI0 TR CU SLP184=

CYVR;2005-08-02 04:00;METAR CYVR 020400Z 28017KT 30SM FEW040 SCT240 19/12 A3007 RMK SC1CI0 TR SC SLP183=

CYVR;2005-08-02 05:00;METAR CYVR 020500Z 28018KT 30SM FEW050 SCT240 19/12 A3007 RMK SC1CI0 TR SC SLP184=

CYVR;2005-08-02 06:00;METAR CYVR 020600Z 28015G21KT 30SM FEW050 FEW240 18/13 A3008 RMK SC1CI0 TR SC SLP187=

CYVR;2005-08-02 09:00;METAR CYVR 020900Z 31021G26KT 20SM FEW210 17/12 A3010 RMK CI0 SLP193=

CYVR;2005-08-02 10:00;METAR CYVR 021000Z 31019KT 30SM FEW210 16/12 A3011 RMK CI0 SLP198=

CYVR;2005-08-02 11:00;METAR CYVR 021100Z 31020KT 20SM FEW210 15/12 A3013 RMK CI0 SLP202=

CYVR;2005-08-02 12:00;METAR CYVR 021200Z 31014KT 20SM FEW210 15/12 A3013 RMK CI0 SLP203=

CYVR;2005-08-02 13:00;METAR CYVR 021300Z 31011KT 20SM SCT220 15/12 A3014 RMK CI0 SLP207=

CYVR;2005-08-02 14:00;METAR CYVR 021400Z 36003KT 20SM FEW220 16/12 A3016 RMK CI0 SLP212=

CYVR;2005-08-02 15:00;METAR CYVR 021500Z 31004KT 20SM FEW230 17/12 A3017 RMK CI0 SLP216=

CYVR;2005-08-02 16:00;METAR CYVR 021600Z 33003KT 20SM FEW040 FEW220 18/12 A3018 RMK CF0CI0 SLP220=

CYVR;2005-08-02 17:00;METAR CYVR 021700Z 31012KT 20SM FEW040 FEW220 18/12 A3018 RMK CU0CI0 SLP221=

CYVR;2005-08-02 18:00;METAR CYVR 021800Z 31014KT 30SM FEW040 19/13 A3019 RMK CU1 SLP222=

CYVR;2005-08-02 19:00;METAR CYVR 021900Z 30014KT 30SM FEW040 FEW220 19/12 A3018 RMK CU0CI0 SLP221=

CYVR;2005-08-02 20:00;METAR CYVR 022000Z 30014KT 30SM FEW040 20/13 A3018 RMK CU0 SLP219=

CYVR;2005-08-02 21:00;METAR CYVR 022100Z 31013KT 30SM FEW040 SCT220 20/12 A3017 RMK CU0CI0 SLP215=

CYVR;2005-08-02 22:00;METAR CYVR 022200Z 29011KT 30SM FEW040 SCT220 21/13 A3016 RMK CU0CI0 SLP212=

CYVR;2005-08-02 23:00;METAR CYVR 022300Z 29012KT 30SM FEW040 SCT220 21/13 A3014 RMK CU0CI0 SLP208=

CYVR;2005-08-03 00:00;METAR CYVR 030000Z 30011KT 30SM FEW040 SCT220 21/13 A3013 RMK CU0CI0 SLP203=

CYVR;2005-08-03 01:00;METAR CYVR 030100Z 31013KT 30SM FEW040 FEW220 21/12 A3012 RMK CU0CI0 SLP199=

CYVR;2005-08-03 02:00;METAR CYVR 030200Z 31011KT 30SM FEW220 20/13 A3011 RMK CI0 SLP196=

CYVR;2005-08-03 03:00;METAR CYVR 030300Z 31010KT 30SM SKC 19/13 A3011 RMK SLP195=

CYVR;2005-08-03 04:00;METAR CYVR 030400Z 32009KT 30SM FEW220 18/13 A3011 RMK CI1 SLP195=

CYVR;2005-08-03 05:00;METAR CYVR 030500Z 31008KT 30SM FEW220 17/13 A3011 RMK CI1 SLP198=

CYVR;2005-08-03 06:00;METAR CYVR 030600Z 27008KT 30SM SKC 18/12 A3012 RMK SLP199=

CYVR;2005-08-03 09:00;METAR CYVR 030900Z 01003KT 30SM SKC 15/11 A3014 RMK SLP207=

CYVR;2005-08-03 10:00;METAR CYVR 031000Z 02003KT 30SM SKC 14/11 A3015 RMK SLP211=

CYVR;2005-08-03 12:00;METAR CYVR 031200Z 00000KT 30SM FEW220 14/10 A3016 RMK CI1 SLP213=

CYVR;2005-08-03 13:00;METAR CYVR 031300Z 00000KT 30SM FEW220 15/11 A3017 RMK CI0 SLP217=

CYVR;2005-08-03 14:00;METAR CYVR 031400Z 00000KT 30SM FEW220 16/12 A3018 RMK CI0 SLP220=

CYVR;2005-08-03 15:00;METAR CYVR 031500Z 21004KT 30SM FEW220 18/11 A3018 RMK CI0 SLP221=

CYVR;2005-08-03 16:00;METAR CYVR 031600Z 30009KT 30SM FEW220 19/14 A3019 RMK CI0 SLP224=

CYVR;2005-08-03 17:00;METAR CYVR 031700Z 31008KT 30SM FEW220 19/14 A3019 RMK CI0 SLP223=

CYVR;2005-08-03 18:00;METAR CYVR 031800Z 29011KT 30SM FEW220 20/14 A3019 RMK CI0 SLP223=

CYVR;2005-08-03 19:00;METAR CYVR 031900Z 29007KT 30SM SCT220 22/14 A3018 RMK CI0 SLP219=

CYVR;2005-08-03 20:00;METAR CYVR 032000Z 30008KT 30SM SCT220 22/14 A3017 RMK CI0 CONTRAILS SLP216=

CYVR;2005-08-03 21:00;METAR CYVR 032100Z 29008KT 30SM SCT220 22/14 A3016 RMK CI0 SLP213=

CYVR;2005-08-03 22:00;METAR CYVR 032200Z 29009KT 30SM BKN220 23/14 A3014 RMK CI0 CONTRAILS SLP208=

CYVR;2005-08-03 23:00;METAR CYVR 032300Z 29006KT 30SM BKN220 23/13 A3013 RMK CI1 SLP202=

CYVR;2005-08-04 00:00;METAR CYVR 040000Z 29007KT 30SM BKN220 22/15 A3011 RMK CI1 SLP196=

CYVR;2005-08-04 01:00;METAR CYVR 040100Z 30006KT 30SM BKN220 23/15 A3009 RMK CI2 SLP191=

CYVR;2005-08-04 02:00;METAR CYVR 040200Z 30007KT 30SM BKN220 22/14 A3008 RMK CI2 SLP185=

CYVR;2005-08-04 03:00;METAR CYVR 040300Z 29008KT 30SM OVC200 21/16 A3006 RMK CI2 SLP181=

CYVR;2005-08-04 04:00;METAR CYVR 040400Z 30009KT 30SM SCT200 19/15 A3006 RMK CI1 SLP181=

CYVR;2005-08-04 05:00;METAR CYVR 040500Z 31006KT 30SM SCT200 18/16 A3007 RMK CI1 SLP182=

CYVR;2005-08-04 06:00;METAR CYVR 040600Z 35007KT 30SM SCT200 19/15 A3007 RMK CI1 SLP183=

CYVR;2005-08-04 07:00;METAR CYVR 040700Z 00000KT 30SM FEW220 19/15 A3007 RMK CI2 SLP183=

CYVR;2005-08-04 08:00;METAR CYVR 040800Z 36003KT 30SM FEW220 17/14 A3007 RMK CI1 SLP182=

CYVR;2005-08-04 10:00;METAR CYVR 041000Z 14002KT 30SM SKC 18/15 A3008 RMK SLP185=

CYVR;2005-08-04 11:00;METAR CYVR 041100Z 07002KT 30SM FEW220 16/14 A3008 RMK CI1 SLP185=

CYVR;2005-08-04 12:00;METAR CYVR 041200Z 01004KT 30SM FEW100 FEW220 16/13 A3007 RMK AC1CI0 SLP183=

CYVR;2005-08-04 13:00;METAR CYVR 041300Z 35002KT 20SM FEW100 SCT220 16/11 A3008 RMK AC2CI1 SLP185=

CYVR;2005-08-04 14:00;METAR CYVR 041400Z 32002KT 20SM FEW090 SCT240 16/13 A3008 RMK AC1CI2 SLP186=

CYVR;2005-08-04 15:00;METAR CYVR 041500Z 32005KT 20SM FEW120 SCT240 19/15 A3008 RMK AC1CI2 SLP187=

CYVR;2005-08-04 16:00;METAR CYVR 041600Z 30010KT 20SM FEW140 BKN240 20/16 A3009 RMK AC1CI2 SLP190=

CYVR;2005-08-04 17:00;METAR CYVR 041700Z 29008KT 30SM FEW150 BKN240 22/14 A3008 RMK AC1CI2 SLP187=

CYVR;2005-08-04 18:00;METAR CYVR 041800Z 29013KT 30SM BKN240 22/15 A3008 RMK CI2 SLP187=

CYVR;2005-08-04 19:00;METAR CYVR 041900Z 30012KT 30SM SCT240 23/14 A3008 RMK CI2 SLP185=

CYVR;2005-08-04 20:00;METAR CYVR 042000Z 30010KT 30SM FEW240 24/15 A3007 RMK CI1 SLP182=

CYVR;2005-08-04 21:00;METAR CYVR 042100Z 30007KT 30SM FEW240 25/13 A3005 RMK CI1 SLP177=

CYVR;2005-08-04 22:00;METAR CYVR 042200Z 30008KT 30SM FEW240 26/15 A3004 RMK CI1 SLP174=

CYVR;2005-08-04 23:00;METAR CYVR 042300Z 29007KT 30SM FEW240 26/16 A3003 RMK CI1 SLP168=

CYVR;2005-08-05 00:00;METAR CYVR 050000Z 30009KT 30SM SCT240 25/14 A3002 RMK CI1 SLP165=

CYVR;2005-08-05 01:00;METAR CYVR 050100Z 30007KT 30SM SCT240 25/14 A3000 RMK CI2 SLP159=

CYVR;2005-08-05 02:00;METAR CYVR 050200Z 29006KT 30SM SCT240 24/15 A2999 RMK CI2 SLP157=

CYVR;2005-08-05 03:00;METAR CYVR 050300Z 00000KT 30SM SCT240 22/16 A2999 RMK CI2 SLP155=

CYVR;2005-08-05 04:00;METAR CYVR 050400Z 27002KT 30SM FEW240 21/15 A2999 RMK CI2 SLP157=

CYVR;2005-08-05 05:00;METAR CYVR 050500Z 18005KT 30SM FEW240 21/15 A3001 RMK CI2 SLP162=

CYVR;2005-08-05 06:00;METAR CYVR 050600Z 20004KT 20SM FEW240 20/14 A3001 RMK CI2 SLP164=

CYVR;2005-08-05 09:00;METAR CYVR 050900Z 11003KT 20SM FEW230 17/15 A3004 RMK CI1 SLP174=

CYVR;2005-08-05 10:00;METAR CYVR 051000Z 10004KT 20SM FEW230 16/14 A3005 RMK CI1 SLP176=

CYVR;2005-08-05 11:00;METAR CYVR 051100Z 11005KT 20SM FEW230 16/14 A3006 RMK CI1 SLP179=

CYVR;2005-08-05 12:00;METAR CYVR 051200Z 10008KT 20SM FEW230 15/14 A3006 RMK CI1 SLP181=

CYVR;2005-08-05 13:00;METAR CYVR 051300Z 10008KT 20SM FEW230 15/13 A3008 RMK CI1 SLP187=

CYVR;2005-08-05 14:00;METAR CYVR 051400Z 10008KT 30SM SKC 17/12 A3009 RMK SLP190=

CYVR;2005-08-05 15:00;METAR CYVR 051500Z 11006KT 30SM SKC 19/13 A3010 RMK SLP194=

CYVR;2005-08-05 16:00;METAR CYVR 051600Z 11003KT 30SM SKC 20/14 A3011 RMK SLP196=

CYVR;2005-08-05 17:00;METAR CYVR 051700Z 12003KT 30SM FEW250 22/14 A3011 RMK CI1 SLP197=

CYVR;2005-08-05 18:00;METAR CYVR 051800Z 10004KT 30SM FEW250 24/14 A3011 RMK CI1 SLP195=

CYVR;2005-08-05 19:00;METAR CYVR 051900Z 28005KT 30SM FEW250 23/16 A3010 RMK CI1 SLP194=

CYVR;2005-08-05 20:00;METAR CYVR 052000Z 24006KT 30SM FEW250 24/17 A3009 RMK CI0 SLP191=

CYVR;2005-08-05 21:00;METAR CYVR 052100Z 26006KT 30SM FEW250 23/17 A3009 RMK CI1 SLP188=

CYVR;2005-08-05 22:00;METAR CYVR 052200Z 25006KT 30SM FEW250 24/17 A3008 RMK CI1 SLP185=

CYVR;2005-08-05 23:00;METAR CYVR 052300Z 25006KT 30SM FEW240 25/17 A3006 RMK CI1 SLP180=

CYVR;2005-08-06 00:00;METAR CYVR 060000Z 29005KT 30SM FEW240 24/15 A3005 RMK CI1 SLP175=

CYVR;2005-08-06 04:00;METAR CYVR 060400Z 00000KT 30SM FEW240 21/16 A3001 RMK CI1 SLP162=

CYVR;2005-08-06 05:00;METAR CYVR 060500Z 27002KT 20SM FEW240 19/18 A3002 RMK CI1 SLP165=

CYVR;2005-08-06 06:00;METAR CYVR 060600Z 00000KT 20SM FEW240 20/18 A3002 RMK CI1 SLP167=

CYVR;2005-08-06 09:00;METAR CYVR 060900Z 30003KT 20SM FEW230 17/16 A3004 RMK CI1 SLP171=

CYVR;2005-08-06 10:00;METAR CYVR 061000Z 07005KT 20SM FEW230 17/15 A3004 RMK CI2 SLP171=

CYVR;2005-08-06 11:00;METAR CYVR 061100Z 00000KT 20SM FEW230 17/15 A3004 RMK CI2 SLP174=

CYVR;2005-08-06 12:00;METAR CYVR 061200Z 32009KT 20SM FEW230 17/16 A3005 RMK CI2 SLP176=

CYVR;2005-08-06 13:00;METAR CYVR 061300Z 33005KT 20SM SCT012 BKN230 17/16 A3006 RMK SC3CI3 SLP179=

CYVR;2005-08-06 14:00;METAR CYVR 061400Z 31010KT 20SM BKN013 BKN230 18/16 A3007 RMK SC5CI2 SLP182=

CYVR;2005-08-06 15:00;METAR CYVR 061500Z 31010KT 20SM BKN013 BKN230 18/16 A3008 RMK SC6CI2 SLP185=

CYVR;2005-08-06 16:00;METAR CYVR 061600Z 32008KT 20SM BKN013 BKN230 19/16 A3008 RMK SC6CI1 SLP187=

CYVR;2005-08-06 17:00;METAR CYVR 061700Z 29008KT 20SM BKN013 BKN230 19/16 A3009 RMK SC6CI1 SLP188=

CYVR;2005-08-06 18:00;METAR CYVR 061800Z 29008KT 20SM SCT015 19/16 A3009 RMK SC3 SLP189=

CYVR;2005-08-06 19:00;METAR CYVR 061900Z 30007KT 20SM FEW015 21/16 A3009 RMK SC2 SLP189=

CYVR;2005-08-06 20:00;METAR CYVR 062000Z 30007KT 20SM FEW015 21/16 A3008 RMK SC1 SLP185=

CYVR;2005-08-06 21:00;METAR CYVR 062100Z 26008KT 30SM FEW060 21/16 A3007 RMK CU1 SLP183=

CYVR;2005-08-06 22:00;METAR CYVR 062200Z 28009KT 30SM FEW065 21/15 A3006 RMK CU1 SLP181=

CYVR;2005-08-06 23:00;METAR CYVR 062300Z 28008KT 30SM FEW065 22/15 A3006 RMK CU1 SLP179=

CYVR;2005-08-07 00:00;METAR CYVR 070000Z 27008KT 30SM FEW065 22/15 A3005 RMK CU1 SLP175=

CYVR;2005-08-07 01:00;METAR CYVR 070100Z 25007KT 30SM FEW065 22/15 A3004 RMK CU1 SLP172=

CYVR;2005-08-07 02:00;METAR CYVR 070200Z 23004KT 30SM FEW060 22/15 A3002 RMK CU1 SLP167=

CYVR;2005-08-07 03:00;METAR CYVR 070300Z 00000KT 30SM FEW060 21/15 A3002 RMK CU1 SLP166=

CYVR;2005-08-07 04:00;METAR CYVR 070400Z 00000KT 30SM FEW060 21/14 A3002 RMK CU1 SLP167=

CYVR;2005-08-07 05:00;METAR CYVR 070500Z 17004KT 30SM FEW060 20/14 A3003 RMK CU1 SLP169=

CYVR;2005-08-07 06:00;METAR CYVR 070600Z 13004KT 20SM SKC 20/15 A3003 RMK SLP168=

CYVR;2005-08-07 07:00;METAR CYVR 070700Z 14002KT 20SM SKC 18/15 A3003 RMK SLP168=

CYVR;2005-08-07 08:00;METAR CYVR 070800Z 11005KT 20SM SKC 17/15 A3003 RMK SLP168=

CYVR;2005-08-07 09:00;METAR CYVR 070900Z 10004KT 20SM SKC 16/14 A3002 RMK SLP167=

CYVR;2005-08-07 11:00;METAR CYVR 071100Z 08006KT 20SM SKC 16/14 A3003 RMK SLP170=

CYVR;2005-08-07 12:00;METAR CYVR 071200Z 09004KT 20SM SKC 15/14 A3003 RMK SLP170=

CYVR;2005-08-07 13:00;METAR CYVR 071300Z 36002KT 20SM FEW160 16/14 A3004 RMK AC1 SLP174=

CYVR;2005-08-07 14:00;METAR CYVR 071400Z 15003KT 25SM FEW160 17/15 A3006 RMK AC1 SLP178=

CYVR;2005-08-07 15:00;METAR CYVR 071500Z 34004KT 20SM FEW160 18/15 A3006 RMK AC1 SLP178=

CYVR;2005-08-07 16:00;METAR CYVR 071600Z 31008KT 20SM FEW045 19/16 A3006 RMK CU1 SLP179=

CYVR;2005-08-07 17:00;METAR CYVR 071700Z 30009KT 20SM FEW045 20/15 A3006 RMK CU1 SLP179=

CYVR;2005-08-07 18:00;METAR CYVR 071800Z 30010KT 20SM FEW045 20/15 A3005 RMK CU1 SLP177=

CYVR;2005-08-07 19:00;METAR CYVR 071900Z 29009KT 20SM FEW045 21/15 A3005 RMK CU1 SLP177=

CYVR;2005-08-07 20:00;METAR CYVR 072000Z 28008KT 20SM FEW045 FEW230 22/16 A3005 RMK CU1CI1 SLP175=

CYVR;2005-08-07 21:00;METAR CYVR 072100Z 29008KT 25SM FEW050 FEW230 21/15 A3003 RMK CU1CI1 TCU EMBD N SLP170=

CYVR;2005-08-07 22:00;METAR CYVR 072200Z 29008KT 25SM FEW050 FEW230 21/15 A3003 RMK CU1CI1 TCU EMBD SLP168=

CYVR;2005-08-07 23:00;METAR CYVR 072300Z 29007KT 25SM FEW055 FEW230 23/15 A3001 RMK CU1CI2 TCU EMBD SLP162=

CYVR;2005-08-08 00:00;METAR CYVR 080000Z 29005KT 25SM FEW055 FEW230 22/14 A3000 RMK CU1CI2 SLP158=

CYVR;2005-08-08 01:00;METAR CYVR 080100Z 29005KT 25SM FEW055 FEW230 22/15 A2998 RMK CU1CI1 TCU EMBD SLP152=

CYVR;2005-08-08 03:00;METAR CYVR 080300Z 22003KT 20SM FEW230 20/16 A2996 RMK CI2 SLP147=

CYVR;2005-08-08 04:00;METAR CYVR 080400Z 00000KT 20SM FEW230 20/14 A2996 RMK CI1 SLP147=

CYVR;2005-08-08 05:00;METAR CYVR 080500Z 20004KT 20SM FEW220 21/14 A2996 RMK CI1 SLP147=

CYVR;2005-08-08 06:00;METAR CYVR 080600Z 16003KT 20SM FEW220 20/15 A2997 RMK CI1 SLP148=

CYVR;2005-08-08 09:00;METAR CYVR 080900Z 15004KT 20SM SKC 18/15 A2997 RMK SLP150=

CYVR;2005-08-08 10:00;METAR CYVR 081000Z 10005KT 20SM SKC 15/14 A2997 RMK SLP149=

CYVR;2005-08-08 11:00;METAR CYVR 081100Z 08006KT 20SM SKC 16/15 A2997 RMK SLP150=

CYVR;2005-08-08 12:00;METAR CYVR 081200Z 07003KT 20SM SKC 15/14 A2998 RMK SLP153=

CYVR;2005-08-08 13:00;METAR CYVR 081300Z 36003KT 20SM FEW035 FEW220 15/13 A2999 RMK SF1CI1 SLP157=

CYVR;2005-08-08 14:00;METAR CYVR 081400Z 00000KT 15SM FEW016 17/15 A3000 RMK SC2 SLP158=

CYVR;2005-08-08 15:00;METAR CYVR 081500Z 31009KT 15SM SKC 18/16 A3000 RMK SLP159=

CYVR;2005-08-08 16:00;METAR CYVR 081600Z 31009KT 15SM SKC 19/16 A3001 RMK SLP162=

CYVR;2005-08-08 17:00;METAR CYVR 081700Z 30012KT 15SM SKC 20/16 A3001 RMK SLP162=

CYVR;2005-08-08 18:00;METAR CYVR 081800Z 30012KT 20SM SKC 21/16 A3000 RMK SLP160=

CYVR;2005-08-08 19:00;METAR CYVR 081900Z 30012KT 20SM SKC 21/15 A2999 RMK SLP157=

CYVR;2005-08-08 20:00;METAR CYVR 082000Z 30009KT 20SM FEW045 22/15 A2998 RMK CU1 TR CU SLP153=

CYVR;2005-08-08 21:00;METAR CYVR 082100Z 30010KT 20SM FEW045 22/15 A2997 RMK CU1 TR CU SLP149=

CYVR;2005-08-08 22:00;METAR CYVR 082200Z 26007KT 20SM FEW045 22/14 A2996 RMK CU1 TR CU SLP145=

CYVR;2005-08-08 23:00;METAR CYVR 082300Z 29007KT 20SM FEW045 23/16 A2995 RMK CU1 TR CU SLP141=

CYVR;2005-08-09 00:00;METAR CYVR 090000Z 29005KT 20SM FEW045 23/15 A2994 RMK CU1 TR CU SLP139=

CYVR;2005-08-09 01:00;METAR CYVR 090100Z 25005KT 20SM FEW045 22/15 A2993 RMK CU1 TR CU SLP136=

CYVR;2005-08-09 03:00;METAR CYVR 090300Z 23004KT 30SM SKC 22/15 A2992 RMK HZ SLP132=

CYVR;2005-08-09 04:00;METAR CYVR 090400Z 00000KT 30SM SKC 21/14 A2993 RMK SLP135=

CYVR;2005-08-09 06:00;METAR CYVR 090600Z 10007KT 20SM SKC 18/15 A2995 RMK SLP141=

CYVR;2005-08-09 07:00;METAR CYVR 090700Z 11006KT 20SM SKC 18/14 A2995 RMK SLP143=

CYVR;2005-08-09 08:00;METAR CYVR 090800Z 13007KT 20SM SKC 19/14 A2996 RMK SLP146=

CYVR;2005-08-09 09:00;METAR CYVR 090900Z 09005KT 20SM SKC 17/14 A2997 RMK SLP148=

CYVR;2005-08-09 10:00;METAR CYVR 091000Z 10004KT 20SM SKC 16/14 A2997 RMK SLP149=

CYVR;2005-08-09 11:00;METAR CYVR 091100Z 14002KT 20SM SKC 17/15 A2998 RMK SLP152=

CYVR;2005-08-09 12:00;METAR CYVR 091200Z 00000KT 20SM SKC 16/15 A2998 RMK SLP154=

CYVR;2005-08-09 13:00;METAR CYVR 091300Z 13002KT 20SM SKC 15/14 A3000 RMK SLP158=

CYVR;2005-08-09 14:00;METAR CYVR 091400Z 14002KT 20SM SKC 17/15 A3001 RMK SLP162=

CYVR;2005-08-09 15:00;METAR CYVR 091500Z 14005KT 20SM SKC 17/13 A3002 RMK SLP165=

CYVR;2005-08-09 16:00;METAR CYVR 091600Z 17002KT 20SM FEW100 18/14 A3002 RMK AC1 TR AC SLP166=

CYVR;2005-08-09 17:00;METAR CYVR 091700Z 16003KT 20SM FEW120 20/14 A3002 RMK AC1 SLP166=

CYVR;2005-08-09 18:00;METAR CYVR 091800Z 21007KT 20SM FEW120 22/14 A3002 RMK AC1 TR AC SLP167=

CYVR;2005-08-09 19:00;METAR CYVR 091900Z 24009KT 20SM FEW060 22/15 A3002 RMK CU1 TR CU SLP167=

CYVR;2005-08-09 20:00;METAR CYVR 092000Z 24008KT 20SM FEW050 23/14 A3001 RMK CU1 TR CU SLP164=

CYVR;2005-08-09 22:00;METAR CYVR 092200Z 24008KT 20SM FEW050 24/15 A3000 RMK CU1 TR CU SLP160=

CYVR;2005-08-09 23:00;METAR CYVR 092300Z 22006KT 20SM FEW050TCU 24/15 A2999 RMK TCU1 TR TCU SLP155=

CYVR;2005-08-10 00:00;METAR CYVR 100000Z 22005KT 20SM FEW050TCU 25/14 A2998 RMK TCU1 SLP152=

CYVR;2005-08-10 01:00;METAR CYVR 100100Z 22004KT 20SM SKC 25/14 A2997 RMK TCU TOPS N SLP148=

CYVR;2005-08-10 02:00;METAR CYVR 100200Z 16006KT 20SM FEW050TCU 24/15 A2996 RMK TCU1 HZ / TCU TOPS N SLP146=

CYVR;2005-08-10 03:00;METAR CYVR 100300Z 14006KT 20SM SKC 22/14 A2996 RMK HZ / TCU TOPS N SLP147=

CYVR;2005-08-10 04:00;METAR CYVR 100400Z 10008KT 20SM SKC 19/14 A2998 RMK HZ SLP151=

CYVR;2005-08-10 05:00;METAR CYVR 100500Z 11007KT 20SM FEW080 19/14 A2998 RMK AS0 SLP154=

CYVR;2005-08-10 06:00;METAR CYVR 100600Z 12004KT 20SM SKC 19/14 A2998 RMK SLP154=

CYVR;2005-08-10 07:00;METAR CYVR 100700Z 13008KT 20SM SKC 19/13 A2999 RMK SLP157=

CYVR;2005-08-10 09:00;METAR CYVR 100900Z 10009KT 20SM SKC 17/13 A3001 RMK SLP164=

CYVR;2005-08-10 10:00;METAR CYVR 101000Z 10009KT 20SM SKC 16/13 A3002 RMK SLP166=

CYVR;2005-08-10 11:00;METAR CYVR 101100Z 12010KT 20SM SKC 16/13 A3004 RMK SLP171=

CYVR;2005-08-10 12:00;METAR CYVR 101200Z 11011KT 20SM FEW050 15/13 A3005 RMK SC1 SLP175=

CYVR;2005-08-10 13:00;METAR CYVR 101300Z 12011KT 20SM FEW040 15/13 A3006 RMK SC1 SLP180=

CYVR;2005-08-10 14:00;METAR CYVR 101400Z 12010G15KT 15SM SCT011 BKN016 15/14 A3008 RMK SC3SC3 SLP186=

CYVR;2005-08-10 14:14;SPECI CYVR 101414Z 11009KT 15SM BKN009 OVC016 15/ RMK SC6SC2=

CYVR;2005-08-10 15:00;METAR CYVR 101500Z 11016KT 12SM BKN009 OVC015 15/13 A3009 RMK SC7SC1 SLP190=

CYVR;2005-08-10 15:28;SPECI CYVR 101528Z 12013KT 12SM BKN010 OVC015 16/ RMK SC7SC1=

CYVR;2005-08-10 16:00;METAR CYVR 101600Z 12011G16KT 15SM OVC014 16/13 A3010 RMK SC7 SLP192=

CYVR;2005-08-10 16:53;SPECI CYVR 101653Z 12015KT 15SM OVC015 17/ RMK SC8=

CYVR;2005-08-10 17:00;METAR CYVR 101700Z 14014G19KT 15SM OVC015 17/13 A3010 RMK SC7 SLP194=

CYVR;2005-08-10 18:00;METAR CYVR 101800Z 14010KT 15SM BKN017 BKN090 18/13 A3011 RMK SC6AC1 SLP197=

CYVR;2005-08-10 20:00;METAR CYVR 102000Z 13010G15KT 15SM BKN024 21/13 A3011 RMK SC6 SLP197=

CYVR;2005-08-10 21:00;METAR CYVR 102100Z 13009G16KT 15SM BKN024 20/13 A3011 RMK SC6 SLP196=

CYVR;2005-08-10 22:00;METAR CYVR 102200Z 15011G17KT 15SM BKN026 20/13 A3011 RMK SC6 SLP195=

CYVR;2005-08-10 23:00;METAR CYVR 102300Z 12010G17KT 15SM SCT026 20/13 A3010 RMK SC3 SLP193=

CYVR;2005-08-11 00:00;METAR CYVR 110000Z 15010G15KT 15SM FEW030 20/13 A3011 RMK SC2 TCU TOPS N SLP196=

CYVR;2005-08-11 01:00;METAR CYVR 110100Z 14013KT 15SM FEW030 20/12 A3010 RMK SC1 SLP193=

CYVR;2005-08-11 03:00;METAR CYVR 110300Z 14014KT 15SM FEW040 FEW180 FEW220 18/12 A3011 RMK SC1AC0CI0 SLP197=

CYVR;2005-08-11 04:00;METAR CYVR 110400Z 13011KT 15SM FEW040 SCT100 18/12 A3012 RMK SC1AC2 SLP200=

CYVR;2005-08-11 05:00;METAR CYVR 110500Z 10009KT 15SM FEW040 SCT100 17/13 A3013 RMK SC1AC1 SLP204=

CYVR;2005-08-11 06:00;METAR CYVR 110600Z 10010KT 15SM FEW040 FEW090 16/12 A3014 RMK SC1AC2 SLP206=

CYVR;2005-08-11 09:00;METAR CYVR 110900Z 09008KT 15SM FEW030 FEW095 15/12 A3016 RMK SC1AC1 SLP212=

CYVR;2005-08-11 10:00;METAR CYVR 111000Z 10006KT 15SM FEW030 SCT095 15/12 A3016 RMK SC1AC2 SLP214=

CYVR;2005-08-11 11:00;METAR CYVR 111100Z 11005KT 15SM BKN034 OVC095 15/13 A3017 RMK SC5AC2 SLP215=

CYVR;2005-08-11 12:00;METAR CYVR 111200Z 09005KT 15SM OVC034 16/13 A3017 RMK SC7 SLP216=

CYVR;2005-08-11 13:00;METAR CYVR 111300Z 12006KT 15SM OVC034 16/12 A3017 RMK SC8 SLP218=

CYVR;2005-08-11 14:00;METAR CYVR 111400Z 12005KT 15SM OVC033 17/12 A3018 RMK SC8 SLP219=

CYVR;2005-08-11 15:00;METAR CYVR 111500Z 19002KT 15SM OVC032 17/12 A3019 RMK SC8 SLP222=

CYVR;2005-08-11 16:00;METAR CYVR 111600Z 20002KT 15SM OVC034 17/12 A3019 RMK SC8 SLP222=

CYVR;2005-08-11 17:00;METAR CYVR 111700Z 23002KT 15SM OVC030 19/13 A3019 RMK SC8 SLP222=

CYVR;2005-08-11 18:00;METAR CYVR 111800Z 26004KT 15SM OVC033 19/14 A3019 RMK SC8 SLP223=

CYVR;2005-08-11 19:00;METAR CYVR 111900Z 27006KT 15SM FEW020 OVC035 19/14 A3018 RMK SC1SC7 SLP221=

CYVR;2005-08-11 20:00;METAR CYVR 112000Z 24007KT 15SM FEW020 FEW035 20/14 A3017 RMK SC1SC2 SLP218=

CYVR;2005-08-11 21:00;METAR CYVR 112100Z 26007KT 15SM FEW035 21/14 A3016 RMK SC1 SLP212=

CYVR;2005-08-11 22:00;METAR CYVR 112200Z 22007KT 15SM FEW035 21/14 A3014 RMK SC1 SLP208=

CYVR;2005-08-11 23:00;METAR CYVR 112300Z 22006KT 15SM SKC 21/14 A3013 RMK SLP204=

CYVR;2005-08-12 00:00;METAR CYVR 120000Z 23007KT 15SM SKC 22/14 A3012 RMK SLP200=

CYVR;2005-08-12 01:00;METAR CYVR 120100Z 22006KT 20SM SKC 22/14 A3011 RMK SLP197=

CYVR;2005-08-12 02:00;METAR CYVR 120200Z 19008KT 20SM FEW240 22/14 A3011 RMK CI0 HZ SLP195=

CYVR;2005-08-12 04:00;METAR CYVR 120400Z 12005KT 15SM FEW150 FEW240 18/14 A3012 RMK AS0CI0 HZ SLP201=

CYVR;2005-08-12 05:00;METAR CYVR 120500Z 09005KT 15SM FEW150 17/14 A3013 RMK AS0 SLP203=

CYVR;2005-08-12 06:00;METAR CYVR 120600Z 10007KT 15SM SKC 16/13 A3013 RMK SLP202=

CYVR;2005-08-12 08:00;METAR CYVR 120800Z 10003KT 15SM SKC 17/14 A3014 RMK SLP205=

CYVR;2005-08-12 09:00;METAR CYVR 120900Z 08004KT 15SM SKC 16/13 A3013 RMK SLP203=

CYVR;2005-08-12 10:00;METAR CYVR 121000Z 11003KT 15SM SKC 17/14 A3013 RMK SLP202=

CYVR;2005-08-12 13:00;METAR CYVR 121300Z 00000KT 15SM FEW240 15/13 A3014 RMK CI1 SLP206=

CYVR;2005-08-12 14:00;METAR CYVR 121400Z 00000KT 15SM FEW240 16/14 A3015 RMK CI1 SLP209=

CYVR;2005-08-12 15:00;METAR CYVR 121500Z 22002KT 15SM FEW240 18/15 A3015 RMK CI1 SLP210=

CYVR;2005-08-12 16:00;METAR CYVR 121600Z 29004KT 15SM FEW020 FEW240 19/15 A3015 RMK CU1CI2 SLP210=

CYVR;2005-08-12 16:43;SPECI CYVR 121643Z 26006KT 15SM BKN012 RMK CU5=

CYVR;2005-08-12 17:00;METAR CYVR 121700Z 26005KT 15SM BKN012 19/15 A3014 RMK CU5 SLP208=

CYVR;2005-08-12 17:35;SPECI CYVR 121735Z 23006KT 15SM FEW012 SCT230 RMK CU2CI2=

CYVR;2005-08-12 18:00;METAR CYVR 121800Z 24006KT 15SM FEW012 SCT230 20/16 A3014 RMK CU2CI2 SLP205=

CYVR;2005-08-12 19:00;METAR CYVR 121900Z 25007KT 15SM FEW012 FEW230 20/16 A3012 RMK CU1CI2 SLP199=

CYVR;2005-08-12 20:00;METAR CYVR 122000Z 29006KT 15SM FEW230 21/15 A3010 RMK CI2 SLP193=

CYVR;2005-08-12 21:00;METAR CYVR 122100Z 29005KT 15SM SCT230 22/13 A3008 RMK CI3 SLP187=

CYVR;2005-08-12 22:00;METAR CYVR 122200Z 25004KT 15SM FEW230 22/16 A3006 RMK CI2 SLP178=

CYVR;2005-08-12 23:00;METAR CYVR 122300Z 23006KT 15SM FEW230 22/16 A3003 RMK CI2 SLP170=

CYVR;2005-08-13 00:00;METAR CYVR 130000Z 23005KT 20SM FEW230 23/16 A3001 RMK CI2 SLP163=

CYVR;2005-08-13 01:00;METAR CYVR 130100Z 22006KT 20SM FEW230 22/16 A3000 RMK CI1 SLP158=

CYVR;2005-08-13 02:00;METAR CYVR 130200Z 24004KT 20SM BKN230 21/16 A2999 RMK CI1 SLP155=

CYVR;2005-08-13 03:00;METAR CYVR 130300Z 00000KT 20SM SCT220 BKN240 21/16 A2998 RMK CC1CI0 SLP154=

CYVR;2005-08-13 04:00;METAR CYVR 130400Z 00000KT 20SM FEW150 SCT240 21/15 A2999 RMK AS1CI0 SLP157=

CYVR;2005-08-13 06:00;METAR CYVR 130600Z 10007KT 20SM FEW240 18/15 A3001 RMK CI1 SLP164=

CYVR;2005-08-13 07:00;METAR CYVR 130700Z 12005KT 15SM FEW240 18/15 A3002 RMK CI1 TR CI SLP165=

CYVR;2005-08-13 09:00;METAR CYVR 130900Z 13004KT 15SM SKC 18/15 A3004 RMK SLP173=

CYVR;2005-08-13 10:00;METAR CYVR 131000Z 10002KT 15SM SKC 17/15 A3005 RMK SLP176=

CYVR;2005-08-13 11:00;METAR CYVR 131100Z 07005KT 15SM SKC 16/15 A3005 RMK SLP176=

CYVR;2005-08-13 12:00;METAR CYVR 131200Z 11005KT 15SM SKC 17/15 A3005 RMK SLP175=

CYVR;2005-08-13 13:00;METAR CYVR 131300Z 11003KT 15SM SKC 15/14 A3006 RMK SLP180=

CYVR;2005-08-13 14:00;METAR CYVR 131400Z 10004KT 15SM SKC 16/15 A3007 RMK SLP183=

CYVR;2005-08-13 15:00;METAR CYVR 131500Z 10002KT 15SM SKC 18/15 A3008 RMK SLP185=

CYVR;2005-08-13 16:00;METAR CYVR 131600Z 17002KT 15SM SKC 20/14 A3008 RMK SLP185=

CYVR;2005-08-13 17:00;METAR CYVR 131700Z 24006KT 15SM SKC 22/15 A3007 RMK SLP184=

CYVR;2005-08-13 18:00;METAR CYVR 131800Z 26006KT 15SM SKC 22/16 A3007 RMK SLP183=

CYVR;2005-08-13 19:00;METAR CYVR 131900Z 24006G15KT 15SM FEW020 23/15 A3006 RMK CF1 TR CF SLP181=

CYVR;2005-08-13 21:00;METAR CYVR 132100Z 25007G16KT 15SM FEW040 24/15 A3003 RMK CU1 SLP170=

CYVR;2005-08-13 22:00;METAR CYVR 132200Z 23006KT 15SM FEW040 25/15 A3001 RMK CU1 SLP164=

CYVR;2005-08-13 23:00;METAR CYVR 132300Z 25005KT 20SM FEW040 25/16 A2999 RMK CU1 SLP156=

CYVR;2005-08-14 00:00;METAR CYVR 140000Z 29005KT 20SM FEW040 26/16 A2997 RMK CU1 SLP148=

CYVR;2005-08-14 01:00;METAR CYVR 140100Z 29005KT 20SM FEW045 25/17 A2995 RMK CU1 SLP141=

CYVR;2005-08-14 03:00;METAR CYVR 140300Z 23004KT 30SM SKC 23/16 A2993 RMK SLP134=

CYVR;2005-08-14 04:00;METAR CYVR 140400Z 00000KT 30SM FEW240 22/17 A2993 RMK CI1 SLP134=

CYVR;2005-08-14 05:00;METAR CYVR 140500Z 00000KT 30SM FEW240 21/16 A2993 RMK CI1 SLP136=

CYVR;2005-08-14 06:00;METAR CYVR 140600Z 02003KT 30SM FEW240 20/17 A2993 RMK CI1 SLP136=

CYVR;2005-08-14 07:00;METAR CYVR 140700Z 11003KT 30SM FEW220 19/16 A2994 RMK CI1 SLP138=

CYVR;2005-08-14 08:00;METAR CYVR 140800Z 09002KT 30SM SKC 19/16 A2994 RMK SLP138=

CYVR;2005-08-14 09:00;METAR CYVR 140900Z 09003KT 30SM SKC 19/16 A2994 RMK SLP139=

CYVR;2005-08-14 10:00;METAR CYVR 141000Z 12004KT 30SM SKC 18/15 A2994 RMK SLP140=

CYVR;2005-08-14 11:00;METAR CYVR 141100Z 11004KT 30SM FEW240 16/15 A2995 RMK CI1 SLP141=

CYVR;2005-08-14 12:00;METAR CYVR 141200Z 00000KT 30SM FEW240 17/16 A2995 RMK CI1 SLP141=

CYVR;2005-08-14 13:00;METAR CYVR 141300Z 00000KT 15SM FEW240 17/16 A2995 RMK CI1 SLP143=

CYVR;2005-08-14 14:00;METAR CYVR 141400Z 00000KT 15SM SKC 18/16 A2996 RMK HZ SLP145=

CYVR;2005-08-14 15:00;METAR CYVR 141500Z 00000KT 15SM SKC 20/16 A2996 RMK HZ SLP146=

CYVR;2005-08-14 16:00;METAR CYVR 141600Z 18002KT 15SM FEW230 21/16 A2996 RMK CI1 HZ SLP147=

CYVR;2005-08-14 17:00;METAR CYVR 141700Z 25003KT 15SM FEW240 23/16 A2996 RMK CI1 HZ CONTRAILS SLP146=

CYVR;2005-08-14 18:00;METAR CYVR 141800Z 25006KT 15SM FEW240 23/16 A2996 RMK CI1 HZ SLP145=

CYVR;2005-08-14 19:41;SPECI CYVR 141941Z 28005KT 15SM FEW240 25/ RMK CI2=

CYVR;2005-08-14 20:00;METAR CYVR 142000Z 27006KT 15SM FEW050 FEW240 25/16 A2993 RMK CU1CI1 HZ CONTRAILS SLP137=

CYVR;2005-08-14 21:00;METAR CYVR 142100Z 26005KT 20SM FEW050 FEW240 25/15 A2992 RMK CU1CI2 HZ CONTRAILS SLP133=

CYVR;2005-08-14 22:00;METAR CYVR 142200Z 25006KT 20SM FEW055 FEW240 26/15 A2991 RMK CU1CI2 HZ CONTRAILS SLP128=

CYVR;2005-08-14 23:00;METAR CYVR 142300Z 24005KT 20SM FEW055 SCT240 26/15 A2990 RMK CU1CI2 TCU ASST N HZ CONTRAILS SLP124=

CYVR;2005-08-15 00:00;METAR CYVR 150000Z 25004KT 20SM FEW060TCU SCT240 26/15 A2988 RMK TCU1CI2 HZ CONTRAILS SLP118=

CYVR;2005-08-15 01:00;METAR CYVR 150100Z 23004KT 20SM FEW060 SCT240 26/17 A2987 RMK CU1CI3 TR CU HZ CONTRAILS SLP115=

CYVR;2005-08-15 03:00;METAR CYVR 150300Z 21004KT 20SM FEW090 BKN220 24/14 A2985 RMK AC1CI2 SLP110=

CYVR;2005-08-15 04:00;METAR CYVR 150400Z 00000KT 20SM FEW090 BKN220 23/14 A2985 RMK AC1CI1 TR AC SLP109=

CYVR;2005-08-15 05:00;METAR CYVR 150500Z 07003KT 20SM SCT220 21/16 A2986 RMK CI1 SLP111=

CYVR;2005-08-15 06:00;METAR CYVR 150600Z 11005KT 20SM SCT220 20/16 A2986 RMK CI1 SLP113=

CYVR;2005-08-15 07:00;METAR CYVR 150700Z 10004KT 20SM SCT220 19/16 A2987 RMK CI1 SLP115=

CYVR;2005-08-15 08:00;METAR CYVR 150800Z 10006KT 20SM FEW220 18/16 A2988 RMK CI1 SLP117=

CYVR;2005-08-15 09:00;METAR CYVR 150900Z 00000KT 20SM FEW220 19/16 A2989 RMK CI1 SLP123=

CYVR;2005-08-15 10:00;METAR CYVR 151000Z 13002KT 20SM FEW220 18/15 A2989 RMK CI1 SLP123=

CYVR;2005-08-15 11:00;METAR CYVR 151100Z 10006KT 15SM FEW220 17/15 A2990 RMK CI1 SLP125=

CYVR;2005-08-15 12:00;METAR CYVR 151200Z 13003KT 20SM BKN220 17/14 A2991 RMK CI2 SLP129=

CYVR;2005-08-15 13:00;METAR CYVR 151300Z 10006KT 20SM FEW090 BKN240 16/15 A2992 RMK AC2CI1 SLP133=

CYVR;2005-08-15 14:00;METAR CYVR 151400Z 09006KT 20SM SCT090 BKN240 17/15 A2993 RMK AC3CI1 SLP137=

CYVR;2005-08-15 15:00;METAR CYVR 151500Z 11007KT 20SM BKN090 BKN230 18/15 A2994 RMK AC3CI1 SLP140=

CYVR;2005-08-15 16:00;METAR CYVR 151600Z 13005KT 20SM SCT090 BKN230 20/15 A2995 RMK AC3CI1 SLP142=

CYVR;2005-08-15 17:00;METAR CYVR 151700Z 12004KT 20SM SCT090 SCT230 22/15 A2996 RMK AC2CI1 SLP145=

CYVR;2005-08-15 18:00;METAR CYVR 151800Z 14006KT 20SM SCT090 SCT230 23/15 A2995 RMK AC3CI1 SLP142=

CYVR;2005-08-15 19:00;METAR CYVR 151900Z 15002KT 20SM SCT090 SCT230 25/15 A2995 RMK AC3CI0 SLP141=

CYVR;2005-08-15 20:00;METAR CYVR 152000Z 25007KT 20SM FEW055 SCT090 SCT230 23/18 A2995 RMK CU1AC3CI1 TR CU SLP142=

CYVR;2005-08-15 21:00;METAR CYVR 152100Z 26005KT 20SM FEW055 SCT090 BKN230 23/17 A2994 RMK CU1AC2CI2 TR CU SLP140=

CYVR;2005-08-15 22:00;METAR CYVR 152200Z 25005KT 20SM FEW060 SCT090 BKN230 24/18 A2993 RMK CU1AC2CI1 SLP137=

CYVR;2005-08-15 23:00;METAR CYVR 152300Z 27007KT 20SM FEW060 FEW090 BKN230 24/17 A2993 RMK CU1AC2CI2 SLP135=

CYVR;2005-08-16 00:00;METAR CYVR 160000Z 28005KT 20SM FEW060 FEW090 SCT230 24/17 A2992 RMK CU1AC1CI2 SLP132=

CYVR;2005-08-16 03:00;METAR CYVR 160300Z 24004KT 20SM BKN090 OVC220 22/17 A2991 RMK AC5CI1 SLP127=

CYVR;2005-08-16 04:00;METAR CYVR 160400Z 28003KT 20SM OVC090 21/18 A2991 RMK AC4 SLP130=

CYVR;2005-08-16 05:00;METAR CYVR 160500Z 18003KT 20SM BKN080 21/18 A2992 RMK AC6 SLP131=

CYVR;2005-08-16 06:00;METAR CYVR 160600Z 20004KT 15SM BKN100 21/18 A2992 RMK AC4 SLP133=

CYVR;2005-08-16 07:00;METAR CYVR 160700Z 19002KT 15SM SCT100 BKN240 20/18 A2993 RMK AC2CI1 SLP136=

CYVR;2005-08-16 08:00;METAR CYVR 160800Z 00000KT 15SM FEW220 18/17 A2994 RMK CI1 SLP138=

CYVR;2005-08-16 10:00;METAR CYVR 161000Z 29011KT 15SM FEW220 17/16 A2995 RMK CI1 SLP143=

CYVR;2005-08-16 11:00;METAR CYVR 161100Z 29014KT 15SM BKN016 OVC220 19/16 A2996 RMK SC7CI1 SLP146=

CYVR;2005-08-16 12:00;METAR CYVR 161200Z 29013KT 15SM BKN016 BKN220 18/16 A2997 RMK SC6CI1 SLP150=

CYVR;2005-08-16 13:00;METAR CYVR 161300Z 29008KT 15SM BKN018 BKN150 18/16 A2998 RMK SC6AC1 SLP151=

CYVR;2005-08-16 14:00;METAR CYVR 161400Z 30006KT 15SM BKN020 19/16 A3000 RMK SC7 SLP158=

CYVR;2005-08-16 15:00;METAR CYVR 161500Z 28007KT 15SM FEW016 BKN023 19/16 A3001 RMK SC2SC2 SLP163=

CYVR;2005-08-16 15:42;SPECI CYVR 161542Z 12004KT 15SM BKN015 BKN023 17/ RMK SC5SC2=

CYVR;2005-08-16 16:00;METAR CYVR 161600Z 14008G16KT 15SM BKN013 OVC023 17/14 A3002 RMK SC5SC2 SLP166=

CYVR;2005-08-16 16:26;SPECI CYVR 161626Z 14005KT 15SM BKN015 OVC023 18/ RMK SC5SC2=

CYVR;2005-08-16 17:00;METAR CYVR 161700Z 13005KT 15SM SCT015 OVC020 18/15 A3003 RMK SC3SC4 SLP169=

CYVR;2005-08-16 18:00;METAR CYVR 161800Z 17007KT 15SM BKN023 OVC180 19/15 A3003 RMK SC6AC1 SLP168=

CYVR;2005-08-16 19:00;METAR CYVR 161900Z 12009KT 15SM BKN024 20/14 A3003 RMK SC6 SLP168=

CYVR;2005-08-16 20:00;METAR CYVR 162000Z 13010KT 15SM SCT025 BKN150 OVC240 20/14 A3003 RMK SC2AC1CS2 SLP169=

CYVR;2005-08-16 21:00;METAR CYVR 162100Z 13007KT 15SM FEW025 BKN180 OVC240 21/15 A3003 RMK SC2AC2CS1 SLP169=

CYVR;2005-08-16 22:00;METAR CYVR 162200Z 13009KT 15SM FEW025 BKN190 OVC240 20/14 A3002 RMK CU1AC4CS2 SLP167=

CYVR;2005-08-16 23:00;METAR CYVR 162300Z 16010KT 15SM FEW025 FEW180 BKN200 OVC220 20/14 A3002 RMK CF1AC1CC1CS2 SLP165=

CYVR;2005-08-17 00:00;METAR CYVR 170000Z 13008KT 15SM BKN170 BKN220 20/14 A3000 RMK AC2CI2 SLP160=

CYVR;2005-08-17 01:00;METAR CYVR 170100Z 16009G15KT 15SM BKN130 OVC170 19/14 A2998 RMK AC5AC2 SLP154=

CYVR;2005-08-17 02:00;METAR CYVR 170200Z 12009KT 15SM BKN054 OVC140 19/14 A2997 RMK SC6AC2 SLP150=

CYVR;2005-08-17 03:00;METAR CYVR 170300Z 12017KT 15SM BKN056 OVC088 19/14 A2996 RMK SC5AC3 SLP144=

CYVR;2005-08-17 04:00;METAR CYVR 170400Z 10010KT 15SM BKN026 OVC053 18/14 A2997 RMK SC5SC3 SLP150=

CYVR;2005-08-17 04:08;SPECI CYVR 170408Z 10013KT 10SM -RA SCT026 OVC047 17/ RMK SC4SC4=

CYVR;2005-08-17 05:00;METAR CYVR 170500Z 12012KT 10SM -RA SCT024 OVC052 16/15 A2994 RMK SC3SC5 SLP140=

CYVR;2005-08-17 06:00;METAR CYVR 170600Z 09008KT 10SM -RA SCT022 OVC036 15/15 A2995 RMK SC4SC4 SLP142=

CYVR;2005-08-17 06:28;SPECI CYVR 170628Z 10010KT 10SM -RA SCT006 BKN031 OVC064 15/ RMK SF3SC3SC2=

CYVR;2005-08-17 07:00;METAR CYVR 170700Z 11009KT 6SM RA BR FEW005 BKN028 OVC050 15/15 A2993 RMK SF2SC5SC1 SLP136=

CYVR;2005-08-17 07:25;SPECI CYVR 170725Z 10009KT 10SM -RA BKN005 OVC034 15/ RMK SC6SC2=

CYVR;2005-08-17 08:00;METAR CYVR 170800Z 11006KT 10SM -RA BKN007 OVC039 15/15 A2994 RMK SC5SC3 SLP139=

CYVR;2005-08-17 09:00;METAR CYVR 170900Z 11008KT 10SM -RA BKN005 BKN035 OVC100 15/15 A2992 RMK SC5SC2AC1 PCPN VRY LGT SLP132=

CYVR;2005-08-17 10:00;METAR CYVR 171000Z 10006KT 10SM RA SCT006 BKN031 OVC090 15/14 A2992 RMK SC3SC2AC2 SLP132=

CYVR;2005-08-17 11:00;METAR CYVR 171100Z 06007KT 8SM RA FEW005 OVC018 15/14 A2993 RMK SC2SC6 SLP134=

CYVR;2005-08-17 12:00;METAR CYVR 171200Z 10006KT 10SM -RA FEW006 SCT025 BKN097 OVC210 14/14 A2990 RMK CF2SC2AC4CI1 PCPN VRY LGT SLP126=

CYVR;2005-08-17 12:27;SPECI CYVR 171227Z 09007KT 12SM FEW005 SCT030 BKN092 OVC210 15/ RMK CF2SC1AC4CI1=

CYVR;2005-08-17 13:00;METAR CYVR 171300Z 10005KT 12SM FEW005 SCT025 BKN090 OVC120 15/14 A2991 RMK CF2SC2AC3AC2 SLP127=

CYVR;2005-08-17 14:00;METAR CYVR 171400Z 09006KT 15SM FEW005 SCT025 BKN110 15/14 A2992 RMK SC1SC2AC2 SLP131=

CYVR;2005-08-17 15:00;METAR CYVR 171500Z 12006KT 15SM FEW005 SCT015 BKN058 OVC110 16/15 A2992 RMK CF1SC2SC2AC2 SLP133=

CYVR;2005-08-17 15:42;SPECI CYVR 171542Z 12005KT 15SM FEW005 BKN008 BKN015 BKN060 16/ RMK CF1SC4SC1SC1=

CYVR;2005-08-17 16:00;METAR CYVR 171600Z 09003KT 15SM BKN008 OVC025 16/15 A2993 RMK SC6SC2 SLP134=

CYVR;2005-08-17 17:00;METAR CYVR 171700Z 16002KT 15SM FEW008 BKN013 18/15 A2992 RMK CF1SC4 SLP133=

CYVR;2005-08-17 17:06;SPECI CYVR 171706Z 14002KT 15SM SCT015 BKN060 18/ RMK SC3SC1=

CYVR;2005-08-17 18:00;METAR CYVR 171800Z 10002KT 15SM BKN024 BKN060 19/15 A2993 RMK SC6SC1 SLP135=

CYVR;2005-08-17 19:00;METAR CYVR 171900Z 23002KT 15SM BKN026 OVC060 19/15 A2994 RMK SC6SC1 SLP139=

CYVR;2005-08-17 20:00;METAR CYVR 172000Z 28006KT 15SM FEW015 BKN029 OVC060 19/15 A2995 RMK CF1SC6SC1 SLP143=

CYVR;2005-08-17 21:00;METAR CYVR 172100Z 27005KT 15SM FEW022 BKN028 BKN060 20/16 A2995 RMK CU2SC3SC1 SLP141=

CYVR;2005-08-17 22:00;METAR CYVR 172200Z 25008KT 15SM FEW025 FEW031 21/16 A2994 RMK CF1SC2 SLP140=

CYVR;2005-08-17 23:00;METAR CYVR 172300Z 27006KT 15SM FEW025 FEW035 21/16 A2993 RMK CU1SC1 SLP137=

CYVR;2005-08-18 00:00;METAR CYVR 180000Z 23006KT 15SM FEW035 21/16 A2993 RMK SC2 SLP135=

CYVR;2005-08-18 04:00;METAR CYVR 180400Z 14006KT 15SM FEW040 19/15 A2993 RMK SC1 SLP137=

CYVR;2005-08-18 05:00;METAR CYVR 180500Z 09005KT 15SM FEW040 FEW110 17/15 A2995 RMK SC2AC1 SLP141=

CYVR;2005-08-18 06:00;METAR CYVR 180600Z 09005KT 15SM FEW040 FEW110 17/15 A2996 RMK SC1AC2 SLP144=

CYVR;2005-08-18 07:00;METAR CYVR 180700Z 09005KT 15SM BKN024 17/16 A2996 RMK SC6 SLP145=

CYVR;2005-08-18 08:00;METAR CYVR 180800Z 08006KT 15SM BKN040 BKN100 18/15 A2997 RMK SC6AC1 SLP148=

CYVR;2005-08-18 09:00;METAR CYVR 180900Z 09004KT 15SM BKN036 18/15 A2997 RMK SC7 SLP148=

CYVR;2005-08-18 10:00;METAR CYVR 181000Z 11002KT 15SM BKN041 OVC110 18/16 A2997 RMK SC7AC1 SLP148=

CYVR;2005-08-18 11:00;METAR CYVR 181100Z 00000KT 15SM SCT040 17/16 A2997 RMK SC3 SLP149=

CYVR;2005-08-18 12:00;METAR CYVR 181200Z 00000KT 15SM FEW040 16/15 A2997 RMK SC2 SLP149=

CYVR;2005-08-18 13:00;METAR CYVR 181300Z 15004KT 15SM FEW030 17/15 A2998 RMK SC2 SLP151=

CYVR;2005-08-18 14:00;METAR CYVR 181400Z 16002KT 15SM FEW011 BKN030 17/15 A2998 RMK SC2SC1 SLP153=

CYVR;2005-08-18 14:34;SPECI CYVR 181434Z 22003KT 15SM BKN013 BKN018 17/ RMK SC5SC2=

CYVR;2005-08-18 14:54;SPECI CYVR 181454Z 15002KT 15SM BKN016 17/ RMK SC7=

CYVR;2005-08-18 15:00;METAR CYVR 181500Z 18002KT 15SM BKN017 OVC030 17/15 A2999 RMK SC6SC1 SLP157=

CYVR;2005-08-18 16:00;METAR CYVR 181600Z 27004KT 15SM FEW012 BKN016 19/16 A2999 RMK CF1SC6 SLP157=

CYVR;2005-08-18 17:00;METAR CYVR 181700Z 27005KT 15SM BKN017 20/16 A2999 RMK SC3 SLP157=

CYVR;2005-08-18 17:29;SPECI CYVR 181729Z 28005KT 15SM FEW012 SCT018 20/ RMK CU2SC2=

CYVR;2005-08-18 18:00;METAR CYVR 181800Z 28006KT 20SM FEW015 SCT020 21/16 A2999 RMK SC1CU2 SLP157=

CYVR;2005-08-18 19:00;METAR CYVR 181900Z 24007KT 20SM FEW015 SCT025 SCT220 21/17 A2998 RMK SC1CU2CI0 SLP154=

CYVR;2005-08-18 20:00;METAR CYVR 182000Z 26007KT 20SM FEW015 SCT035 SCT220 22/17 A2998 RMK SC1CU2CI0 SLP151=

CYVR;2005-08-18 21:00;METAR CYVR 182100Z 25007KT 30SM FEW035 FEW220 22/16 A2997 RMK CU1CI0 SLP149=

CYVR;2005-08-18 22:00;METAR CYVR 182200Z 25006KT 30SM FEW040 FEW220 22/16 A2996 RMK CU1CI0 SLP147=

CYVR;2005-08-18 23:00;METAR CYVR 182300Z 27004KT 30SM FEW040 FEW220 22/16 A2994 RMK CU1CI0 SLP139=

CYVR;2005-08-19 00:00;METAR CYVR 190000Z 28006KT 30SM FEW040 FEW220 22/16 A2992 RMK CU1CI0 SLP133=

CYVR;2005-08-19 01:00;METAR CYVR 190100Z 29004KT 30SM FEW040 FEW220 22/15 A2991 RMK CU0CI0 SLP128=

CYVR;2005-08-19 02:00;METAR CYVR 190200Z 32004KT 30SM SCT220 22/16 A2989 RMK CI0 SLP122=

CYVR;2005-08-19 03:00;METAR CYVR 190300Z 30002KT 30SM BKN220 20/15 A2989 RMK CI0 SLP121=

CYVR;2005-08-19 04:00;METAR CYVR 190400Z 31004KT 20SM FEW100 SCT220 18/16 A2989 RMK AC1CI0 TR AC SLP123=

CYVR;2005-08-19 05:00;METAR CYVR 190500Z 04002KT 20SM SCT220 19/16 A2990 RMK CI0 SLP126=

CYVR;2005-08-19 06:00;METAR CYVR 190600Z 00000KT 20SM SCT220 19/17 A2990 RMK CI1 SLP126=

CYVR;2005-08-19 08:00;METAR CYVR 190800Z 01002KT 20SM FEW220 17/14 A2992 RMK CI0 SLP131=

CYVR;2005-08-19 10:00;METAR CYVR 191000Z 11004KT 20SM FEW240 16/15 A2992 RMK CI0 SLP132=

CYVR;2005-08-19 11:00;METAR CYVR 191100Z 10005KT 20SM FEW240 15/13 A2992 RMK CI0 SLP133=

CYVR;2005-08-19 12:00;METAR CYVR 191200Z 10003KT 20SM FEW240 15/14 A2992 RMK CI0 SLP133=

CYVR;2005-08-19 13:00;METAR CYVR 191300Z 00000KT 15SM FEW240 15/15 A2992 RMK CI0 VIS LWR W SLP133=

CYVR;2005-08-19 14:00;METAR CYVR 191400Z 01002KT 15SM FEW240 16/14 A2993 RMK CI0 SLP137=

CYVR;2005-08-19 15:00;METAR CYVR 191500Z 11002KT 15SM SCT240 18/15 A2994 RMK CI1 SLP139=

CYVR;2005-08-19 16:00;METAR CYVR 191600Z 12004KT 15SM SCT240 19/14 A2994 RMK CI1 SLP139=

CYVR;2005-08-19 17:00;METAR CYVR 191700Z 13006KT 15SM BKN240 21/12 A2994 RMK CI1 SLP140=

CYVR;2005-08-19 18:00;METAR CYVR 191800Z 12004KT 20SM FEW180 BKN240 23/12 A2994 RMK AS1CI1 SLP139=

CYVR;2005-08-19 19:00;METAR CYVR 191900Z 15007KT 30SM BKN240 23/12 A2993 RMK CI2 SLP136=

CYVR;2005-08-19 20:00;METAR CYVR 192000Z 16007KT 30SM FEW040 BKN240 24/12 A2992 RMK CU1CI2 TR CU SLP133=

CYVR;2005-08-19 21:00;METAR CYVR 192100Z 24006KT 30SM FEW040 BKN240 25/13 A2991 RMK CU1CI2 TR CU SLP130=

CYVR;2005-08-19 23:00;METAR CYVR 192300Z 24009KT 30SM SCT180 BKN240 27/13 A2989 RMK AC2CI1 SLP123=

CYVR;2005-08-20 00:00;METAR CYVR 200000Z 22008KT 30SM SCT180 BKN220 OVC240 26/14 A2989 RMK AC2CC3CI0 SLP121=

CYVR;2005-08-20 01:00;METAR CYVR 200100Z 23008KT 30SM FEW180 BKN220 OVC240 26/14 A2988 RMK AC2CC3CI1 SLP117=

CYVR;2005-08-20 02:00;METAR CYVR 200200Z 20004KT 30SM OVC220 24/12 A2987 RMK CI5 SLP115=

CYVR;2005-08-20 03:00;METAR CYVR 200300Z 16002KT 20SM FEW160 OVC220 23/12 A2988 RMK AS2CI4 SLP118=

CYVR;2005-08-20 04:00;METAR CYVR 200400Z 36003KT 20SM FEW100 FEW160 OVC220 22/11 A2989 RMK AC1AS2CI2 SLP121=

CYVR;2005-08-20 05:00;METAR CYVR 200500Z 11010KT 20SM BKN220 18/15 A2990 RMK CI3 SLP124=

CYVR;2005-08-20 06:00;METAR CYVR 200600Z 10006KT 20SM FEW110 BKN210 18/15 A2991 RMK AC2CI2 SLP127=

CYVR;2005-08-20 07:00;METAR CYVR 200700Z 10006KT 20SM FEW100 BKN210 18/14 A2991 RMK AC1CI2 SLP130=

CYVR;2005-08-20 08:00;METAR CYVR 200800Z 11008KT 20SM SCT100 BKN210 17/14 A2992 RMK AC3CI1 SLP133=

CYVR;2005-08-20 09:00;METAR CYVR 200900Z 10007KT 20SM FEW140 BKN240 17/14 A2993 RMK AC2CS2 SLP135=

CYVR;2005-08-20 10:00;METAR CYVR 201000Z 10006KT 20SM SCT150 BKN240 16/14 A2993 RMK AC4CS2 SLP136=

CYVR;2005-08-20 11:00;METAR CYVR 201100Z 13006KT 20SM SCT180 BKN240 17/15 A2994 RMK AC4CS2 SLP140=

CYVR;2005-08-20 12:00;METAR CYVR 201200Z 14004KT 20SM BKN180 OVC240 17/15 A2996 RMK AC6CS1 SLP147=

CYVR;2005-08-20 13:00;METAR CYVR 201300Z 11009KT 20SM BKN180 15/14 A2998 RMK AC6 VIS LWR W SLP151=

CYVR;2005-08-20 14:00;METAR CYVR 201400Z 11008KT 20SM BKN180 15/14 A2999 RMK AC7 SLP155=

CYVR;2005-08-20 15:00;METAR CYVR 201500Z 13011KT 20SM BKN180 BKN240 16/13 A3000 RMK AC6CC1 SLP160=

CYVR;2005-08-20 16:00;METAR CYVR 201600Z 12008KT 20SM BKN180 BKN240 17/14 A3002 RMK AC6CC1 SLP165=

CYVR;2005-08-20 17:00;METAR CYVR 201700Z 12009KT 20SM SCT180 SCT240 20/15 A3003 RMK AC3CC1 SLP168=

CYVR;2005-08-20 18:00;METAR CYVR 201800Z 14010KT 20SM FEW180 SCT210 SCT240 21/14 A3003 RMK AC2CC1CI1 CONTRAILS SLP168=

CYVR;2005-08-20 20:00;METAR CYVR 202000Z 17005KT 30SM FEW060 FEW180 SCT240 23/14 A3003 RMK CU1AC1CI2 SLP168=

CYVR;2005-08-20 21:00;METAR CYVR 202100Z 21006KT 30SM FEW060 FEW180 FEW240 24/13 A3002 RMK CU1AC1CI1 SLP167=

CYVR;2005-08-20 21:22;SPECI CYVR 202122Z 17004KT 30SM FEW060 FEW180 FEW240 25/ RMK CU1AC1CI1=

CYVR;2005-08-20 22:00;METAR CYVR 202200Z 19004KT 30SM FEW060 FEW240 26/14 A3001 RMK CU1CC2 CONTRAILS SLP161=

CYVR;2005-08-20 23:00;METAR CYVR 202300Z 14006KT 30SM FEW060 SCT240 26/13 A3000 RMK CU1CC2 SLP159=

CYVR;2005-08-21 00:00;METAR CYVR 210000Z 26011KT 30SM FEW060 SCT240 26/16 A2999 RMK CU1CC2 SLP156=

CYVR;2005-08-21 01:00;METAR CYVR 210100Z 24007KT 30SM FEW240 22/14 A2999 RMK CC1 SLP155=

CYVR;2005-08-21 02:00;METAR CYVR 210200Z 29006KT 30SM FEW120 FEW240 21/17 A2998 RMK AC1CI1 SLP153=

CYVR;2005-08-21 03:00;METAR CYVR 210300Z 29003KT 30SM FEW140 FEW240 19/15 A2998 RMK AC1CI0 SLP154=

CYVR;2005-08-21 04:00;METAR CYVR 210400Z 29004KT 30SM FEW150 FEW240 19/16 A2999 RMK AC1CI0 SLP157=

CYVR;2005-08-21 05:00;METAR CYVR 210500Z 29005KT 30SM FEW150 19/17 A3000 RMK AC1 SLP159=

CYVR;2005-08-21 06:00;METAR CYVR 210600Z 31008KT 30SM FEW150 18/17 A3001 RMK AC1 SLP162=

CYVR;2005-08-21 08:00;METAR CYVR 210800Z 10007KT 20SM FEW016 SCT150 16/15 A3002 RMK SF1AC2 SLP166=

CYVR;2005-08-21 08:17;SPECI CYVR 210817Z 10009KT 20SM FEW007 SCT150 16/ RMK SF2AC2=

CYVR;2005-08-21 08:28;SPECI CYVR 210828Z 10008KT 15SM SCT007 BKN050 BKN150 17/ RMK SF3SC2AC1=

CYVR;2005-08-21 09:00;METAR CYVR 210900Z 10004KT 15SM SCT007 SCT120 16/15 A3003 RMK SF3AC1 SLP169=

CYVR;2005-08-21 10:00;METAR CYVR 211000Z 09007KT 15SM SCT006 BKN120 16/15 A3004 RMK SF3AC1 SLP172=

CYVR;2005-08-21 11:00;METAR CYVR 211100Z 10009KT 15SM FEW007 SCT120 16/14 A3004 RMK SF2AC1 SLP172=

CYVR;2005-08-21 12:00;METAR CYVR 211200Z 11006KT 20SM FEW008 FEW240 15/13 A3005 RMK SF1CI0 SLP176=

CYVR;2005-08-21 12:38;SPECI CYVR 211238Z 12007KT 20SM FEW090 FEW220 15/ RMK AC1CI0=

CYVR;2005-08-21 13:00;METAR CYVR 211300Z 11007KT 20SM FEW090 FEW220 14/12 A3006 RMK AC1CI0 SLP178=

CYVR;2005-08-21 14:00;METAR CYVR 211400Z 11006KT 20SM FEW090 FEW220 15/13 A3007 RMK AC2CI1 SLP182=

CYVR;2005-08-21 14:37;SPECI CYVR 211437Z 11009KT 20SM SCT010 SCT090 BKN220 15/ RMK SC3AC1CI1=

CYVR;2005-08-21 15:00;METAR CYVR 211500Z 11010KT 20SM FEW010 FEW090 SCT220 16/14 A3008 RMK SC2AC1CI1 SLP186=

CYVR;2005-08-21 15:22;SPECI CYVR 211522Z 11011KT 20SM FEW090 FEW220 17/ RMK AC1CI2=

CYVR;2005-08-21 16:00;METAR CYVR 211600Z 11011KT 20SM FEW090 FEW220 18/14 A3009 RMK AC1CI2 SLP189=

CYVR;2005-08-21 17:00;METAR CYVR 211700Z 12012KT 25SM FEW090 FEW220 20/14 A3009 RMK AC1CI2 SLP189=

CYVR;2005-08-21 18:00;METAR CYVR 211800Z 14013KT 25SM FEW030 FEW220 20/13 A3009 RMK CU1CI2 SLP191=

CYVR;2005-08-21 19:00;METAR CYVR 211900Z 14010G15KT 30SM FEW035 FEW220 21/13 A3009 RMK CU1CI2 SLP189=

CYVR;2005-08-21 20:00;METAR CYVR 212000Z 16008G15KT 30SM FEW035 SCT220 21/13 A3009 RMK CU2CI2 SLP189=

CYVR;2005-08-21 21:00;METAR CYVR 212100Z 14005KT 30SM FEW035 SCT220 22/13 A3009 RMK CU2CI2 TCU EMBD W SLP188=

CYVR;2005-08-21 22:00;METAR CYVR 212200Z 14005KT 30SM FEW040 SCT220 23/13 A3007 RMK CU2CI2 TCU EMBD CONTRAILS SLP183=

CYVR;2005-08-21 23:00;METAR CYVR 212300Z 23009G15KT 30SM FEW040 BKN220 23/14 A3006 RMK CU2CI2 TCU EMBD SLP181=

CYVR;2005-08-22 00:00;METAR CYVR 220000Z 28007KT 30SM FEW050 SCT190 BKN220 21/14 A3006 RMK CU2AC2CI2 TCU EMBD SLP181=

CYVR;2005-08-22 02:00;METAR CYVR 220200Z 29009KT 30SM FEW060 SCT100 BKN220 20/16 A3005 RMK SC1AC2CI3 SLP175=

CYVR;2005-08-22 03:00;METAR CYVR 220300Z 30014KT 20SM FEW060 SCT110 BKN200 19/16 A3004 RMK SC1AC2CI2 SLP172=

CYVR;2005-08-22 04:00;METAR CYVR 220400Z 30016KT 20SM FEW025 SCT120 BKN220 19/17 A3005 RMK SC1AC2CI3 SLP175=

CYVR;2005-08-22 05:00;METAR CYVR 220500Z 29016G22KT 20SM FEW025 SCT120 BKN230 19/17 A3005 RMK SC1AC3CI3 SLP177=

CYVR;2005-08-22 06:00;METAR CYVR 220600Z 30019G25KT 20SM FEW025 SCT110 BKN220 19/16 A3006 RMK SC1AC2CI4 SLP181=

CYVR;2005-08-22 07:00;METAR CYVR 220700Z 29017G22KT 20SM FEW030 SCT110 BKN220 18/16 A3006 RMK SC1AC2CI4 SLP180=

CYVR;2005-08-22 08:00;METAR CYVR 220800Z 30018G24KT 20SM FEW030 SCT100 BKN210 18/15 A3006 RMK SC1AC2CI4 SLP181=

CYVR;2005-08-22 09:00;METAR CYVR 220900Z 30017KT 20SM FEW020 SCT100 BKN220 18/15 A3007 RMK SC1AC2CI2 SLP182=

CYVR;2005-08-22 10:00;METAR CYVR 221000Z 30016KT 20SM SCT019 BKN100 BKN220 18/16 A3006 RMK SC4AC1CI2 SLP180=

CYVR;2005-08-22 11:00;METAR CYVR 221100Z 31014KT 15SM BKN021 BKN090 18/16 A3006 RMK SC6AC1 SLP181=

CYVR;2005-08-22 12:00;METAR CYVR 221200Z 30015KT 15SM SCT015 BKN021 BKN080 18/15 A3008 RMK SC3SC3AC1 SLP185=

CYVR;2005-08-22 13:00;METAR CYVR 221300Z 31011G17KT 15SM SCT020 BKN033 BKN080 17/15 A3008 RMK SC3SC2AC1 SLP187=

CYVR;2005-08-22 14:00;METAR CYVR 221400Z 30014KT 15SM BKN018 BKN080 17/15 A3009 RMK SC6AC1 SLP190=

CYVR;2005-08-22 15:00;METAR CYVR 221500Z 30012KT 15SM BKN022 BKN080 17/15 A3009 RMK SC6AC1 SLP190=

CYVR;2005-08-22 16:00;METAR CYVR 221600Z 30010KT 15SM SCT016 BKN022 BKN080 18/15 A3009 RMK SC3SC3AC1 SLP189=

CYVR;2005-08-22 17:00;METAR CYVR 221700Z 30012KT 15SM BKN020 BKN080 18/14 A3010 RMK SC5AC1 SLP192=

CYVR;2005-08-22 18:00;METAR CYVR 221800Z 29011KT 15SM FEW016 FEW080 SCT230 19/15 A3010 RMK CU1AC2CI2 SLP192=

CYVR;2005-08-22 19:00;METAR CYVR 221900Z 28011KT 15SM FEW016TCU FEW080 SCT230 20/15 A3009 RMK TCU2AC1CI2 SLP189=

CYVR;2005-08-22 20:00;METAR CYVR 222000Z 30011KT 20SM FEW030TCU SCT230 20/15 A3008 RMK TCU2CI2 SLP186=

CYVR;2005-08-22 21:00;METAR CYVR 222100Z 28014KT 25SM FEW040TCU BKN230 20/15 A3008 RMK TCU2CI2 CONTRAILS SLP185=

CYVR;2005-08-22 22:00;METAR CYVR 222200Z 30013KT 25SM FEW040TCU BKN230 21/14 A3007 RMK TCU2CI2 CONTRAILS SLP182=

CYVR;2005-08-22 23:00;METAR CYVR 222300Z 28011KT 25SM FEW040TCU BKN230 21/14 A3005 RMK TCU2CI2 CONTRAILS SLP176=

CYVR;2005-08-23 00:00;METAR CYVR 230000Z 29012KT 25SM FEW040TCU SCT230 21/13 A3004 RMK TCU2CI2 CONTRAILS SLP172=

CYVR;2005-08-23 02:00;METAR CYVR 230200Z 28005KT 20SM FEW040 SCT160 BKN240 20/13 A3001 RMK SC1AC2CI1 SLP164=

CYVR;2005-08-23 03:00;METAR CYVR 230300Z 27003KT 20SM FEW045 FEW150 BKN240 18/14 A3001 RMK SC1AC2CI1 SLP162=

CYVR;2005-08-23 04:00;METAR CYVR 230400Z 23004KT 20SM FEW045 FEW140 BKN240 19/14 A3001 RMK SC1AC2CI2 SLP162=

CYVR;2005-08-23 05:00;METAR CYVR 230500Z 26011KT 20SM FEW050 FEW075 SCT140 BKN240 19/14 A3001 RMK SC1AC2AC1CI1 SLP161=

CYVR;2005-08-23 06:00;METAR CYVR 230600Z 25013KT 20SM FEW050 FEW075 SCT140 BKN240 19/13 A3000 RMK SC1AC2AC1CI1 SLP159=

CYVR;2005-08-23 07:00;METAR CYVR 230700Z 27010KT 20SM FEW060 FEW075 SCT140 BKN240 16/14 A3000 RMK SC1AC2AC1CI1 SLP159=

CYVR;2005-08-23 09:00;METAR CYVR 230900Z 08006KT 20SM FEW060 FEW075 SCT140 SCT240 14/13 A2998 RMK SC1AC1AC2CI0 SLP154=

CYVR;2005-08-23 10:00;METAR CYVR 231000Z 33004KT 20SM SCT060 SCT100 BKN240 14/12 A2998 RMK SC3AC1CI0 SLP154=

CYVR;2005-08-23 11:00;METAR CYVR 231100Z 33009KT 20SM FEW025 FEW060 SCT100 BKN240 15/12 A2998 RMK SF1SC2AC1CI1 SLP152=

CYVR;2005-08-23 12:00;METAR CYVR 231200Z 31007KT 20SM FEW025 FEW070 SCT150 BKN240 15/12 A2998 RMK SF2AC1AC2CI1 SLP152=

CYVR;2005-08-23 13:00;METAR CYVR 231300Z 30011G16KT 20SM SCT028 SCT070 BKN150 15/12 A2998 RMK SC3AC1AC1 SLP151=

CYVR;2005-08-23 14:00;METAR CYVR 231400Z 32006KT 20SM SCT020 SCT070 15/12 A2999 RMK SC3AC1 SLP155=

CYVR;2005-08-23 15:00;METAR CYVR 231500Z 10007KT 20SM FEW020 SCT070 15/12 A2999 RMK SC2AC2 SLP155=

CYVR;2005-08-23 16:00;METAR CYVR 231600Z 09004KT 20SM FEW020 FEW070 17/13 A3000 RMK SC2AC1 SLP159=

CYVR;2005-08-23 17:00;METAR CYVR 231700Z 30008KT 20SM SCT035 SCT220 18/13 A3001 RMK SC3CI1 SLP164=

CYVR;2005-08-23 18:00;METAR CYVR 231800Z 31010KT 20SM FEW035 SCT070 19/13 A3001 RMK SC2AC1 SLP164=

CYVR;2005-08-23 19:00;METAR CYVR 231900Z 29013KT 20SM FEW035 19/13 A3002 RMK SC2 SLP165=

CYVR;2005-08-23 21:00;METAR CYVR 232100Z 28012KT 20SM FEW035TCU SCT045 20/13 A3002 RMK TCU2SC2 SLP167=

CYVR;2005-08-23 22:00;METAR CYVR 232200Z 30005KT 25SM FEW035TCU 21/12 A3002 RMK TCU2 SLP165=

CYVR;2005-08-23 23:00;METAR CYVR 232300Z 23006KT 25SM FEW035TCU 22/11 A3000 RMK TCU2 SLP160=

CYVR;2005-08-24 00:00;METAR CYVR 240000Z 24007KT 25SM FEW040TCU 22/09 A2999 RMK TCU2 SLP156=

CYVR;2005-08-24 02:00;METAR CYVR 240200Z 20008KT 30SM FEW050 FEW240 20/12 A2998 RMK SC1CI1 SLP153=

CYVR;2005-08-24 03:00;METAR CYVR 240300Z 18005KT 30SM FEW045 19/13 A2999 RMK SC1 SLP155=

CYVR;2005-08-24 04:00;METAR CYVR 240400Z 13005KT 30SM FEW045 18/13 A3001 RMK SC1 SLP161=

CYVR;2005-08-24 05:00;METAR CYVR 240500Z 10009KT 30SM FEW045 16/13 A3002 RMK SC1 SLP165=

CYVR;2005-08-24 07:00;METAR CYVR 240700Z 09005KT 30SM FEW045 15/11 A3003 RMK SC1 SLP170=

CYVR;2005-08-24 09:00;METAR CYVR 240900Z 06003KT 20SM FEW045 14/12 A3004 RMK SC1 SLP171=

CYVR;2005-08-24 10:00;METAR CYVR 241000Z 08003KT 20SM SKC 14/12 A3004 RMK SLP174=

CYVR;2005-08-24 11:00;METAR CYVR 241100Z 00000KT 20SM FEW040 14/11 A3005 RMK SC1 SLP177=

CYVR;2005-08-24 12:00;METAR CYVR 241200Z 00000KT 20SM FEW050 14/11 A3005 RMK SC1 SLP177=

CYVR;2005-08-24 14:00;METAR CYVR 241400Z 10002KT 20SM FEW240 14/11 A3006 RMK CI0 SLP180=

CYVR;2005-08-24 15:00;METAR CYVR 241500Z 00000KT 20SM FEW240 16/12 A3007 RMK CI0 SLP182=

CYVR;2005-08-24 16:00;METAR CYVR 241600Z 23004KT 20SM FEW240 17/13 A3007 RMK CI0 SLP183=

CYVR;2005-08-24 18:00;METAR CYVR 241800Z 30008KT 20SM SKC 19/13 A3007 RMK SLP182=

CYVR;2005-08-24 19:00;METAR CYVR 241900Z 27008KT 20SM FEW040 19/14 A3006 RMK CU1 TR CU SLP179=

CYVR;2005-08-24 20:00;METAR CYVR 242000Z 28006KT 20SM FEW040 20/14 A3004 RMK CU1 TR CU SLP174=

CYVR;2005-08-24 21:00;METAR CYVR 242100Z 29007KT 20SM FEW040 21/14 A3003 RMK CU1 SLP170=

CYVR;2005-08-24 22:00;METAR CYVR 242200Z 29008KT 20SM FEW040 22/15 A3002 RMK CU1 TR CU SLP166=

CYVR;2005-08-24 23:00;METAR CYVR 242300Z 26005KT 20SM FEW040 21/14 A3001 RMK CU1 TR CU SLP162=

CYVR;2005-08-25 00:00;METAR CYVR 250000Z 25005KT 20SM SKC 22/13 A3000 RMK SLP159=

CYVR;2005-08-25 01:00;METAR CYVR 250100Z 31005KT 20SM SKC 21/14 A2998 RMK SLP152=

CYVR;2005-08-25 03:00;METAR CYVR 250300Z 31006KT 30SM SKC 18/14 A2996 RMK SLP144=

CYVR;2005-08-25 04:00;METAR CYVR 250400Z 31007KT 30SM SKC 17/15 A2995 RMK SLP143=

CYVR;2005-08-25 05:00;METAR CYVR 250500Z 36004KT 30SM SKC 18/14 A2996 RMK SLP144=

CYVR;2005-08-25 06:00;METAR CYVR 250600Z 13004KT 30SM SKC 18/14 A2996 RMK SLP146=

CYVR;2005-08-25 09:00;METAR CYVR 250900Z 02003KT 20SM SKC 15/11 A2998 RMK SLP154=

CYVR;2005-08-25 10:00;METAR CYVR 251000Z 36003KT 20SM SKC 15/10 A2999 RMK SLP156=

CYVR;2005-08-25 11:00;METAR CYVR 251100Z 00000KT 20SM SKC 15/10 A3000 RMK SLP158=

CYVR;2005-08-25 12:00;METAR CYVR 251200Z 30003KT 20SM SKC 14/10 A3000 RMK SLP158=

CYVR;2005-08-25 13:00;METAR CYVR 251300Z 00000KT 20SM FEW240 14/11 A3000 RMK CI0 SLP159=

CYVR;2005-08-25 14:00;METAR CYVR 251400Z 10006KT 20SM BKN240 14/11 A3002 RMK CI4 SLP165=

CYVR;2005-08-25 15:00;METAR CYVR 251500Z 12004KT 20SM BKN220 16/14 A3002 RMK CI2 SLP165=

CYVR;2005-08-25 16:00;METAR CYVR 251600Z 00000KT 20SM BKN220 19/13 A3003 RMK CI2 SLP168=

CYVR;2005-08-25 17:00;METAR CYVR 251700Z 30006KT 20SM BKN220 20/14 A3003 RMK CI2 SLP169=

CYVR;2005-08-25 18:00;METAR CYVR 251800Z 28007KT 20SM SCT220 21/13 A3003 RMK CI1 SLP169=

CYVR;2005-08-25 19:00;METAR CYVR 251900Z 29009KT 20SM SCT220 22/13 A3002 RMK CI1 SLP167=

CYVR;2005-08-25 20:00;METAR CYVR 252000Z 29008KT 20SM BKN220 23/14 A3001 RMK CI2 SLP164=

CYVR;2005-08-25 21:00;METAR CYVR 252100Z 30008KT 20SM BKN220 22/13 A3000 RMK CI4 SLP160=

CYVR;2005-08-25 22:00;METAR CYVR 252200Z 29008KT 20SM BKN220 24/14 A2999 RMK CI4 SLP156=

CYVR;2005-08-25 23:00;METAR CYVR 252300Z 30006KT 20SM BKN220 22/13 A2997 RMK CI4 SLP150=

CYVR;2005-08-26 00:00;METAR CYVR 260000Z 29004KT 20SM BKN220 25/14 A2996 RMK CI4 SLP145=

CYVR;2005-08-26 01:00;METAR CYVR 260100Z 29006KT 20SM SCT220 23/15 A2994 RMK CI3 SLP140=

CYVR;2005-08-26 02:00;METAR CYVR 260200Z 27004KT 30SM FEW240 22/15 A2993 RMK CI1 SLP137=

CYVR;2005-08-26 03:00;METAR CYVR 260300Z 28004KT 30SM FEW240 20/16 A2993 RMK CI1 CONTRAILS SLP135=

CYVR;2005-08-26 05:00;METAR CYVR 260500Z 00000KT 20SM FEW240 19/16 A2994 RMK CI1 SLP138=

CYVR;2005-08-26 05:33;SPECI CYVR 260533Z 00000KT 20SM MIFG FEW220 18/ RMK CI0=

CYVR;2005-08-26 06:00;METAR CYVR 260600Z 00000KT 20SM MIFG FEW220 17/16 A2994 RMK CI0 SLP139=

CYVR;2005-08-26 07:00;METAR CYVR 260700Z 03002KT 20SM MIFG FEW220 16/15 A2994 RMK CI0 SLP138=

CYVR;2005-08-26 07:36;SPECI CYVR 260736Z 35003KT 20SM FEW220 16/ RMK CI0=

CYVR;2005-08-26 08:48;SPECI CYVR 260848Z 16002KT 20SM MIFG FEW220 16/ RMK CI0=

CYVR;2005-08-26 09:00;METAR CYVR 260900Z 14002KT 20SM MIFG FEW220 16/15 A2995 RMK CI0 SLP143=

CYVR;2005-08-26 10:00;METAR CYVR 261000Z 00000KT 20SM FEW220 15/13 A2996 RMK CI0 SLP147=

CYVR;2005-08-26 11:00;METAR CYVR 261100Z 09002KT 20SM FEW220 15/12 A2997 RMK CI0 SLP150=

CYVR;2005-08-26 12:00;METAR CYVR 261200Z 09002KT 20SM SCT220 14/11 A2998 RMK CI2 SLP151=

CYVR;2005-08-26 13:00;METAR CYVR 261300Z 00000KT 20SM FEW220 14/11 A2998 RMK CI1 SLP153=

CYVR;2005-08-26 16:00;METAR CYVR 261600Z 16002KT 20SM FEW220 19/13 A3001 RMK CI2 SLP162=

CYVR;2005-08-26 17:00;METAR CYVR 261700Z 23005KT 20SM BKN220 21/12 A3001 RMK CI4 SLP163=

CYVR;2005-08-26 18:00;METAR CYVR 261800Z 25005KT 20SM FEW140 BKN220 21/13 A3002 RMK AC1CI2 SLP165=

CYVR;2005-08-26 20:00;METAR CYVR 262000Z 26005KT 20SM FEW210 23/14 A3002 RMK CI2 SLP165=

CYVR;2005-08-26 21:00;METAR CYVR 262100Z 24007KT 20SM FEW140 BKN210 23/15 A3001 RMK AC2CI2 SLP164=

CYVR;2005-08-26 22:00;METAR CYVR 262200Z 25006KT 20SM BKN150 BKN210 22/16 A3001 RMK AC3CI1 SLP161=

CYVR;2005-08-26 23:00;METAR CYVR 262300Z 23007KT 20SM FEW060 BKN150 BKN210 26/11 A3000 RMK SC1AC2CI1 SLP158=

CYVR;2005-08-27 00:00;METAR CYVR 270000Z 22007KT 20SM FEW060 SCT150 26/12 A2998 RMK SC1AC2 SLP153=

CYVR;2005-08-27 01:00;METAR CYVR 270100Z 31003KT 20SM FEW060 FEW150 26/12 A2997 RMK SC1AC1 SLP150=

CYVR;2005-08-27 02:00;METAR CYVR 270200Z 33005KT 30SM FEW060 FEW150 FEW220 22/16 A2997 RMK CF1AC1CC0 TR CF SLP150=

CYVR;2005-08-27 03:00;METAR CYVR 270300Z 00000KT 30SM FEW150 22/11 A2997 RMK AC1 SLP148=

CYVR;2005-08-27 04:00;METAR CYVR 270400Z 11008KT 30SM FEW150 18/11 A2997 RMK AC0 SLP150=

CYVR;2005-08-27 05:00;METAR CYVR 270500Z 11007KT 20SM SKC 18/11 A2998 RMK SLP152=

CYVR;2005-08-27 06:00;METAR CYVR 270600Z 11010KT 20SM SKC 17/12 A2999 RMK SLP155=

CYVR;2005-08-27 07:00;METAR CYVR 270700Z 14011KT 20SM SKC 17/13 A2999 RMK SLP156=

CYVR;2005-08-27 08:00;METAR CYVR 270800Z 12010KT 20SM FEW150 16/12 A2999 RMK AC1 SLP157=

CYVR;2005-08-27 10:00;METAR CYVR 271000Z 10007KT 20SM FEW150 14/12 A3000 RMK AC0 SLP158=

CYVR;2005-08-27 11:00;METAR CYVR 271100Z 10010KT 20SM FEW150 14/12 A3000 RMK AC0 SLP158=

CYVR;2005-08-27 12:00;METAR CYVR 271200Z 10009KT 20SM BKN015 15/13 A3001 RMK ST6 SLP161=

CYVR;2005-08-27 12:08;SPECI CYVR 271208Z 10011KT 15SM BKN011 15/ RMK ST6=

CYVR;2005-08-27 13:00;METAR CYVR 271300Z 10011KT 15SM OVC009 15/13 A3001 RMK SC7 SLP161=

CYVR;2005-08-27 14:00;METAR CYVR 271400Z 10013KT 12SM OVC009 15/14 A3002 RMK SC8 SLP165=

CYVR;2005-08-27 15:00;METAR CYVR 271500Z 11013KT 12SM OVC009 16/14 A3003 RMK SC8 SLP169=

CYVR;2005-08-27 15:51;SPECI CYVR 271551Z 10013KT 15SM OVC011 16/ RMK SC8=

CYVR;2005-08-27 16:00;METAR CYVR 271600Z 11013G19KT 15SM OVC013 17/14 A3003 RMK SC8 SLP169=

CYVR;2005-08-27 16:44;SPECI CYVR 271644Z 11013KT 15SM OVC016 18/ RMK SC8=

CYVR;2005-08-27 17:00;METAR CYVR 271700Z 11015KT 15SM BKN017 BKN120 18/14 A3003 RMK SC6AC1 SLP170=

CYVR;2005-08-27 18:00;METAR CYVR 271800Z 12016KT 20SM FEW020 BKN140 19/14 A3003 RMK SC2AC2 SLP169=

CYVR;2005-08-27 19:00;METAR CYVR 271900Z 14015KT 20SM FEW020 SCT045 BKN140 20/14 A3003 RMK CU2SC1AC2 SLP169=

CYVR;2005-08-27 20:00;METAR CYVR 272000Z 15013G19KT 20SM FEW025 FEW045 BKN120 22/14 A3002 RMK CU2SC1AC2 SLP165=

CYVR;2005-08-27 21:00;METAR CYVR 272100Z 14012G17KT 20SM FEW045 SCT110 22/13 A3001 RMK SC1AC3 SLP163=

CYVR;2005-08-27 22:00;METAR CYVR 272200Z 15013KT 20SM BKN110 22/13 A2999 RMK AC6 SLP157=

CYVR;2005-08-27 23:00;METAR CYVR 272300Z 14008KT 20SM FEW045 BKN100 22/13 A2998 RMK CU1AC6 TR CU SLP152=

CYVR;2005-08-28 00:00;METAR CYVR 280000Z 12008KT 20SM BKN110 22/13 A2996 RMK AC6 SLP147=

CYVR;2005-08-28 01:00;METAR CYVR 280100Z 13008KT 20SM BKN090 22/13 A2995 RMK AC7 SLP142=

CYVR;2005-08-28 03:00;METAR CYVR 280300Z 13011KT 30SM BKN083 20/13 A2993 RMK AC6 SLP137=

CYVR;2005-08-28 04:00;METAR CYVR 280400Z 10009KT 20SM BKN083 BKN100 19/13 A2993 RMK AC5AC1 SLP136=

CYVR;2005-08-28 05:00;METAR CYVR 280500Z 11011KT 20SM BKN085 BKN180 19/13 A2992 RMK AC5AC1 SLP131=

CYVR;2005-08-28 06:00;METAR CYVR 280600Z 10011KT 20SM SCT085 BKN180 19/13 A2991 RMK AC3AC3 SLP127=

CYVR;2005-08-28 08:00;METAR CYVR 280800Z 11007KT 20SM SCT080 BKN180 18/13 A2989 RMK AC4AC2 SLP121=

CYVR;2005-08-28 09:00;METAR CYVR 280900Z 11007KT 20SM SCT055 BKN080 BKN180 18/13 A2989 RMK SC3AC2AC2 SLP122=

CYVR;2005-08-28 10:00;METAR CYVR 281000Z 11008KT 20SM BKN060 BKN160 19/13 A2988 RMK SC5AC2 SLP118=

CYVR;2005-08-28 11:00;METAR CYVR 281100Z 13008KT 20SM OVC043 18/13 A2988 RMK SC7 SLP117=

CYVR;2005-08-28 11:20;SPECI CYVR 281120Z 13009KT 15SM -SHRA OVC041 18/ RMK SC7=

CYVR;2005-08-28 12:00;METAR CYVR 281200Z 13007KT 15SM -SHRA BKN041 OVC060 18/14 A2987 RMK SC6SC2 SLP115=

CYVR;2005-08-28 12:25;SPECI CYVR 281225Z 13005KT 15SM SCT041 OVC060 18/ RMK SC3SC4=

CYVR;2005-08-28 12:55;SPECI CYVR 281255Z 12007KT 15SM -SHRA FEW041 OVC070 17/ RMK SC2AC5=

CYVR;2005-08-28 13:00;METAR CYVR 281300Z 12005KT 15SM -SHRA FEW040 SCT050 OVC070 17/14 A2988 RMK SC2SC2AC5 SLP117=

CYVR;2005-08-28 13:20;SPECI CYVR 281320Z 11008KT 15SM FEW040 BKN050 OVC070 17/ RMK SC2SC5AC2=

CYVR;2005-08-28 14:00;METAR CYVR 281400Z 10010KT 15SM SCT040 BKN050 BKN070 17/14 A2988 RMK SC3SC2AC2 SLP119=

CYVR;2005-08-28 14:28;SPECI CYVR 281428Z 11009KT 15SM -SHRA FEW040 BKN050 BKN070 17/ RMK SC2SC2AC2 -SHRA VRY LIGHT=

CYVR;2005-08-28 15:00;METAR CYVR 281500Z 11006KT 15SM -SHRA FEW035 BKN050 BKN075 16/15 A2990 RMK SC2SC4AC2 SLP124=

CYVR;2005-08-28 16:00;METAR CYVR 281600Z 11007KT 15SM -SHRA FEW035 BKN055 BKN075 17/16 A2989 RMK SC2SC3AC2 -SHRA VRY LGT SLP123=

CYVR;2005-08-28 16:10;SPECI CYVR 281610Z 10008KT 15SM FEW035 BKN050 BKN075 17/ RMK SC2SC4AC2=

CYVR;2005-08-28 17:00;METAR CYVR 281700Z 10006KT 15SM FEW050 BKN075 18/16 A2990 RMK SC2AC6 TCU EMBD SLP126=

CYVR;2005-08-28 18:00;METAR CYVR 281800Z 13006KT 15SM SCT050 OVC070 19/15 A2991 RMK SC4AC4 TCU EMBD SLP127=

CYVR;2005-08-28 19:00;METAR CYVR 281900Z 13010KT 15SM FEW050 BKN070 19/15 A2991 RMK SC2AC3 TCU EMBD SLP129=

CYVR;2005-08-28 20:00;METAR CYVR 282000Z 14009KT 20SM FEW050 BKN075 20/14 A2991 RMK SC2AC2 TCU EMBD SLP127=

CYVR;2005-08-28 21:00;METAR CYVR 282100Z 11010G15KT 20SM FEW035TCU FEW050 SCT075 22/13 A2988 RMK TCU1SC1AC2 TCU EMBD SLP119=

CYVR;2005-08-28 22:00;METAR CYVR 282200Z 09014KT 25SM FEW035TCU BKN160 22/14 A2987 RMK TCU2AC5 SLP115=

CYVR;2005-08-28 22:50;SPECI CYVR 282250Z 18009G16KT 25SM FEW035TCU SCT050 OVC160 20/ RMK TCU2SC2AC4=

CYVR;2005-08-28 22:54;SPECI CYVR 282254Z 18009G16KT 25SM -SHRA FEW035TCU SCT050 OVC160 20/ RMK TCU2SC2AC4=

CYVR;2005-08-28 23:00;METAR CYVR 282300Z 19010KT 25SM -SHRA FEW030TCU SCT050 OVC160 19/15 A2987 RMK TCU2SC2AC4 SLP116=

CYVR;2005-08-29 00:00;METAR CYVR 290000Z 19007KT 25SM -SHRA FEW030TCU SCT040 OVC160 19/14 A2986 RMK TCU2SC2AC4 -SHRA VRL LGT SLP113=

CYVR;2005-08-29 01:00;METAR CYVR 290100Z 19006KT 20SM FEW030 OVC075 18/14 A2986 RMK SC2AC6 SLP113=

CYVR;2005-08-29 01:07;SPECI CYVR 290107Z 18004KT 20SM -SHRA FEW030 OVC075 18/ RMK SC2AC6=

CYVR;2005-08-29 02:00;METAR CYVR 290200Z 09004KT 15SM -SHRA FEW015 FEW030 BKN080 BKN100 18/14 A2984 RMK SF1SC2AC3AC2 SLP104=

CYVR;2005-08-29 02:23;SPECI CYVR 290223Z 04007KT 20SM FEW015 FEW035 BKN080 BKN100 18/ RMK SF1SC2AC3AC1=

CYVR;2005-08-29 03:00;METAR CYVR 290300Z 13006KT 20SM FEW011 FEW040 BKN082 BKN110 17/15 A2984 RMK SF1SC1AC4AC1 SHS NE SLP106=

CYVR;2005-08-29 04:00;METAR CYVR 290400Z 17008KT 20SM FEW012 SCT020 SCT055 BKN075 BKN110 17/14 A2986 RMK SF1SC2SC1AC2AC1 SLP111=

CYVR;2005-08-29 05:00;METAR CYVR 290500Z 16005KT 20SM FEW017 SCT060 BKN075 16/12 A2985 RMK SC2SC2AC2 SLP109=

CYVR;2005-08-29 06:00;METAR CYVR 290600Z 15004KT 20SM FEW020 FEW040 SCT060 15/13 A2985 RMK SC1SC2SC2 SLP108=

CYVR;2005-08-29 07:00;METAR CYVR 290700Z 11002KT 15SM FEW020 FEW040 SCT055 14/13 A2985 RMK SF1SC2SC2 SLP108=

CYVR;2005-08-29 08:00;METAR CYVR 290800Z 08005KT 15SM FEW018 SCT040 BKN055 14/13 A2985 RMK SF1SC2SC3 SLP108=

CYVR;2005-08-29 10:00;METAR CYVR 291000Z 00000KT 15SM FEW017 FEW035 SCT060 13/13 A2985 RMK SF1SC2SC1 SLP108=

CYVR;2005-08-29 11:00;METAR CYVR 291100Z 13003KT 15SM FEW017 FEW060 12/12 A2986 RMK SF1SC2 SLP111=

CYVR;2005-08-29 12:00;METAR CYVR 291200Z 11005KT 15SM FEW012 FEW050 12/12 A2986 RMK SF1SC1 SLP112=

CYVR;2005-08-29 13:00;METAR CYVR 291300Z 10005KT 12SM FEW011 SCT018 BKN090 12/12 A2987 RMK SF2SC2AC2 SLP114=

CYVR;2005-08-29 13:49;SPECI CYVR 291349Z 10004KT 12SM -SHRA FEW011 SCT018 BKN090 13/ RMK SF2SC2AC2=

CYVR;2005-08-29 14:00;METAR CYVR 291400Z 00000KT 12SM SHRA FEW012 SCT018 BKN090 13/13 A2988 RMK SF2SC2AC2 SLP119=

CYVR;2005-08-29 14:01;SPECI CYVR 291401Z 00000KT 12SM SHRA FEW012 SCT018 SCT050CB BKN090 13/ RMK SF2SC2CB1AC2 TWR RPT FUNNAL CLOUD W FM CB=

CYVR;2005-08-29 14:09;SPECI CYVR 291409Z 14006KT 11SM +SHRA FEW012 SCT018 SCT050CB BKN090 14/ RMK SF2SC2CB1AC2 CB W=

CYVR;2005-08-29 14:33;SPECI CYVR 291433Z 28009KT 13SM FEW015 SCT020 SCT050CB BKN090 15/ RMK SF2SC2CB1AC2=

CYVR;2005-08-29 15:00;METAR CYVR 291500Z 29006KT 13SM FEW040 SCT050CB BKN090 15/14 A2990 RMK SC2CB1AC2 SLP124=

CYVR;2005-08-29 16:00;METAR CYVR 291600Z 25009KT 15SM SCT018 BKN085 15/14 A2991 RMK SC4AC2 SLP129=

CYVR;2005-08-29 17:00;METAR CYVR 291700Z 25011KT 15SM FEW015 SCT018 BKN090 19/14 A2993 RMK SF1SC3AC3 SLP135=

CYVR;2005-08-29 18:00;METAR CYVR 291800Z 26010KT 15SM FEW040TCU SCT060 BKN090 BKN220 17/14 A2994 RMK TCU1SC2AC2CC2 SLP138=

CYVR;2005-08-29 19:00;METAR CYVR 291900Z 25012KT 20SM FEW040TCU SCT060 BKN090 18/14 A2995 RMK TCU2SC2AC2 SLP142=

CYVR;2005-08-29 20:00;METAR CYVR 292000Z 25011KT 20SM FEW040TCU FEW060 SCT095 BKN220 19/13 A2996 RMK TCU2SC1AC1CI2 SLP145=

CYVR;2005-08-29 21:00;METAR CYVR 292100Z 23009KT 25SM FEW040TCU SCT220 19/13 A2997 RMK TCU2CI2 SLP149=

CYVR;2005-08-29 22:00;METAR CYVR 292200Z 23009G17KT 25SM FEW040TCU SCT220 20/11 A2998 RMK TCU2CI2 SLP151=

CYVR;2005-08-29 23:00;METAR CYVR 292300Z 21010KT 25SM FEW040TCU FEW090 SCT220 20/11 A2998 RMK TCU2AC1CI1 SLP152=

CYVR;2005-08-30 00:00;METAR CYVR 300000Z 20010G16KT 25SM FEW040TCU FEW090 SCT220 20/12 A2999 RMK TCU2AC1CI2 SLP157=

CYVR;2005-08-30 03:00;METAR CYVR 300300Z 18004KT 30SM FEW040 FEW080 SCT240 18/12 A3004 RMK SC1AC2CI1 SLP171=

CYVR;2005-08-30 04:00;METAR CYVR 300400Z 12006KT 30SM FEW040 FEW080 BKN240 16/12 A3005 RMK SC1AC2CI2 SLP177=

CYVR;2005-08-30 05:00;METAR CYVR 300500Z 10007KT 20SM FEW040 FEW075 BKN220 15/13 A3007 RMK SC1AC2CI2 SLP182=

CYVR;2005-08-30 06:00;METAR CYVR 300600Z 10006KT 20SM FEW040 FEW075 BKN210 15/13 A3008 RMK SC1AC2CI2 SLP186=

CYVR;2005-08-30 07:00;METAR CYVR 300700Z 10006KT 20SM FEW040 FEW080 BKN200 15/13 A3009 RMK SC1AC2CI3 SLP188=

CYVR;2005-08-30 08:00;METAR CYVR 300800Z 10009KT 20SM FEW040 BKN075 BKN200 15/13 A3010 RMK SC1AC6CI1 SLP193=

CYVR;2005-08-30 09:00;METAR CYVR 300900Z 09007KT 20SM FEW040 FEW060 BKN082 BKN160 15/13 A3010 RMK SC1SC1AC5AC1 SLP194=

CYVR;2005-08-30 10:00;METAR CYVR 301000Z 09008KT 20SM FEW040 SCT070 BKN080 BKN160 15/13 A3011 RMK SC2AC2AC3AC1 SLP197=

CYVR;2005-08-30 11:00;METAR CYVR 301100Z 11010KT 20SM FEW040 SCT075 BKN110 BKN160 15/13 A3011 RMK SC2AC2AC2AC1 SLP198=

CYVR;2005-08-30 12:00;METAR CYVR 301200Z 11009KT 20SM FEW012 BKN070 BKN120 15/13 A3013 RMK SF2AC4AC1 SLP202=

CYVR;2005-08-30 13:00;METAR CYVR 301300Z 10010KT 20SM SCT012 BKN080 BKN120 14/13 A3013 RMK SF3AC2AC2 SLP204=

CYVR;2005-08-30 13:18;SPECI CYVR 301318Z 09008KT 15SM BKN012 BKN080 BKN120 14/ RMK SF5AC2AC1=

CYVR;2005-08-30 14:00;METAR CYVR 301400Z 09008KT 15SM BKN012 BKN110 14/13 A3015 RMK SF5AC2 SLP211=

CYVR;2005-08-30 15:53;SPECI CYVR 301553Z 10011KT 15SM -SHRA FEW012 BKN070 OVC110 15/ RMK SF2AC3AC2=

CYVR;2005-08-30 16:00;METAR CYVR 301600Z 10012KT 15SM -SHRA FEW012 BKN070 OVC110 15/13 A3017 RMK SF2AC3AC2 SLP216=

CYVR;2005-08-30 17:00;METAR CYVR 301700Z 10010KT 15SM -SHRA FEW012 SCT035 OVC070 16/14 A3018 RMK SF2SC2AC4 SLP221=

CYVR;2005-08-30 17:20;SPECI CYVR 301720Z 12006KT 15SM FEW012 BKN040 OVC070 16/ RMK SF2SC3AC3=

CYVR;2005-08-30 17:52;SPECI CYVR 301752Z 12008KT 15SM -SHRA FEW012 BKN040 OVC070 16/ RMK SF2SC3AC3=

CYVR;2005-08-30 18:00;METAR CYVR 301800Z 14007KT 15SM -SHRA FEW012 BKN040 OVC070 16/13 A3019 RMK SF2SC3AC3 SLP225=

CYVR;2005-08-30 18:11;SPECI CYVR 301811Z 13008KT 15SM FEW012 BKN040 OVC070 17/ RMK SF2SC4AC2=

CYVR;2005-08-30 18:19;SPECI CYVR 301819Z 13008KT 15SM -SHRA FEW012 BKN040 OVC070 17/ RMK SF2SC4AC2 SHRA VRY LGT=

CYVR;2005-08-30 19:00;METAR CYVR 301900Z 16009KT 15SM SCT040 OVC070 17/13 A3020 RMK SC4AC4 SLP227=

CYVR;2005-08-30 19:41;SPECI CYVR 301941Z 18008KT 15SM -SHRA SCT035 OVC070 17/ RMK SC4AC4=

CYVR;2005-08-30 20:00;METAR CYVR 302000Z 18010KT 15SM BKN035 OVC070 16/13 A3021 RMK SC5AC3 TCU ASOCTD SLP230=

CYVR;2005-08-30 20:52;SPECI CYVR 302052Z 15008KT 15SM -DZ FEW020 OVC035 16/ RMK SF2SC6=

CYVR;2005-08-30 21:00;METAR CYVR 302100Z 14010KT 15SM -DZ FEW020 OVC035 16/14 A3022 RMK SF2SC6 SLP234=

CYVR;2005-08-30 21:05;SPECI CYVR 302105Z 14009KT 15SM -SHRA FEW020 OVC035 16/ RMK SF2SC6=

CYVR;2005-08-30 21:44;SPECI CYVR 302144Z 14008KT 3SM -SHRA FEW020 OVC035 15/ RMK SF2SC6=

CYVR;2005-08-30 21:54;SPECI CYVR 302154Z 13008KT 2 1/2SM -SHRA BR SCT012 OVC035 15/ RMK SF3SC5=

CYVR;2005-08-30 22:00;METAR CYVR 302200Z 12008KT 2SM -SHRA BR SCT012 OVC030 15/14 A3022 RMK SF3SC5 SLP234=

CYVR;2005-08-30 22:25;SPECI CYVR 302225Z 13010KT 3SM -SHRA BR SCT010 OVC030 15/ RMK SF4SC4=

CYVR;2005-08-30 22:45;SPECI CYVR 302245Z 12008KT 5SM BR SCT010 OVC030 15/ RMK SF4SC4=

CYVR;2005-08-30 23:00;METAR CYVR 302300Z 11010KT 10SM SCT010 OVC040 15/15 A3022 RMK SF4SC4 SLP233=

CYVR;2005-08-31 00:00;METAR CYVR 310000Z 12009KT 10SM SCT010 OVC030 16/14 A3022 RMK SF3SC5 SLP232=

CYVR;2005-08-31 00:44;SPECI CYVR 310044Z 12008KT 10SM -SHRA SCT012 OVC040 16/ RMK SF3SC5=

CYVR;2005-08-31 01:00;METAR CYVR 310100Z 11009KT 10SM -SHRA FEW010 OVC040 16/14 A3022 RMK SF2SC6 SLP232=

CYVR;2005-08-31 02:00;METAR CYVR 310200Z 10007KT 10SM FEW011 BKN031 OVC070 15/14 A3021 RMK SF2SC6AC1 SLP230=

CYVR;2005-08-31 02:35;SPECI CYVR 310235Z 10007KT 10SM -SHRA FEW012 BKN032 OVC055 15/ RMK SF2SC6SC1=

CYVR;2005-08-31 03:00;METAR CYVR 310300Z 10008KT 10SM -SHRA FEW014 SCT030 OVC048 15/14 A3021 RMK SF1SC3SC4 SLP230=

CYVR;2005-08-31 03:31;SPECI CYVR 310331Z 09009KT 12SM FEW015 BKN031 BKN045 15/ RMK SF1SC4SC2=

CYVR;2005-08-31 04:00;METAR CYVR 310400Z 09008KT 12SM FEW015 BKN031 BKN043 15/14 A3022 RMK SF1SC5SC2 SLP233=

CYVR;2005-08-31 05:00;METAR CYVR 310500Z 09009KT 12SM FEW015 BKN035 BKN055 15/14 A3022 RMK SF1SC4SC2 SLP233=

CYVR;2005-08-31 07:00;METAR CYVR 310700Z 09009KT 12SM FEW015 BKN030 BKN054 15/14 A3023 RMK SF1SC4SC2 SLP236=

CYVR;2005-08-31 10:00;METAR CYVR 311000Z 10007KT 15SM FEW017 SCT030 BKN048 15/14 A3022 RMK SC2SC2SC3 SLP234=

CYVR;2005-08-31 11:00;METAR CYVR 311100Z 10008KT 15SM SCT010 SCT030 BKN054 15/14 A3021 RMK SC3SC1SC3 SLP231=

CYVR;2005-08-31 12:00;METAR CYVR 311200Z 11005KT 15SM SCT011 SCT030 BKN060 15/14 A3022 RMK SC3SC1SC3 SLP232=

CYVR;2005-08-31 13:00;METAR CYVR 311300Z 13005KT 10SM SCT010 BKN032 BKN060 15/14 A3021 RMK SC4SC2SC1 SLP231=

CYVR;2005-08-31 13:22;SPECI CYVR 311322Z 10004KT 10SM BKN011 BKN033 OVC055 15/ RMK SF5SC2SC1=

CYVR;2005-08-31 13:55;SPECI CYVR 311355Z 09005KT 10SM BKN009 BKN033 15/ RMK SF6SC1=

CYVR;2005-08-31 14:00;METAR CYVR 311400Z 09003KT 10SM BKN009 BKN033 15/14 A3022 RMK SF6SC1 SLP232=

CYVR;2005-08-31 14:34;SPECI CYVR 311434Z 10004KT 10SM BKN011 BKN033 16/ RMK SF6SC1=

CYVR;2005-08-31 15:00;METAR CYVR 311500Z 12006KT 10SM BKN012 BKN033 16/14 A3021 RMK SF6SC1 SLP230=

CYVR;2005-08-31 16:00;METAR CYVR 311600Z 11004KT 10SM BKN010 OVC035 16/14 A3021 RMK SF6SC2 SLP230=

CYVR;2005-08-31 17:00;METAR CYVR 311700Z 15002KT 10SM BKN014 OVC035 16/14 A3022 RMK SF7SC1 SLP232=

CYVR;2005-08-31 18:00;METAR CYVR 311800Z 23005KT 10SM BKN014 BKN035 17/14 A3022 RMK SF5SC2 SLP232=

CYVR;2005-08-31 18:25;SPECI CYVR 311825Z 24003KT 10SM BKN035 BKN220 18/ RMK SC5CI1 TCU ASOCTD=

CYVR;2005-08-31 19:00;METAR CYVR 311900Z 22005KT 10SM BKN035 BKN220 18/14 A3021 RMK SC5CI2 TCU ASOCTD SLP229=

CYVR;2005-08-31 21:00;METAR CYVR 312100Z 22009KT 15SM FEW030 SCT220 SCT250 20/14 A3019 RMK SC2CI1CC1 TCU ASOCTD CONTRAILS SLP224=

CYVR;2005-08-31 22:00;METAR CYVR 312200Z 25009KT 15SM FEW030 FEW220 SCT250 21/14 A3018 RMK SC2CI1CC2 TCU ASOCTD CONTRAILS SLP220=

CYVR;2005-08-31 23:00;METAR CYVR 312300Z 26007KT 20SM FEW030 SCT220 BKN250 20/14 A3017 RMK SC2CI2CC2 TCU ASOCTD CONTRAILS SLP215=

CYVR;2005-09-01 00:00;METAR CYVR 010000Z 23005KT 15SM FEW030 FEW080 SCT220 20/14 A3015 RMK SC2AC1CI2 TCU ASOCTD CONTRAILS SLP209=

CYVR;2005-09-01 01:00;METAR CYVR 010100Z 26003KT 20SM FEW035 BKN075 19/13 A3014 RMK SC2AC5 TCU ASOCTD SLP206=

CYVR;2005-09-01 03:00;METAR CYVR 010300Z 31003KT 20SM FEW040 SCT060 BKN075 18/12 A3012 RMK SC2SC2AC2 SLP201=

CYVR;2005-09-01 04:00;METAR CYVR 010400Z 00000KT 20SM FEW040 SCT080 SCT120 18/11 A3012 RMK SC1AC2AC1 SLP200=

CYVR;2005-09-01 05:00;METAR CYVR 010500Z 34002KT 20SM FEW040 SCT050 SCT100 17/11 A3012 RMK SC2SC2AC1 SLP199=

CYVR;2005-09-01 06:00;METAR CYVR 010600Z 18002KT 20SM FEW040 FEW060 SCT090 17/12 A3011 RMK SC1SC2AC2 SLP196=

CYVR;2005-09-01 07:00;METAR CYVR 010700Z 09002KT 20SM FEW040 SCT070 BKN120 17/13 A3010 RMK SC2AC2AC2 SLP194=

CYVR;2005-09-01 10:00;METAR CYVR 011000Z 12003KT 20SM FEW050 BKN120 15/14 A3009 RMK SC2AC4 SLP188=

CYVR;2005-09-01 11:00;METAR CYVR 011100Z 12003KT 20SM FEW040 SCT120 15/14 A3008 RMK SC2AC2 SLP186=

CYVR;2005-09-01 12:00;METAR CYVR 011200Z 11004KT 20SM FEW040 BKN110 15/14 A3007 RMK SC1AC5 SLP182=

CYVR;2005-09-01 13:00;METAR CYVR 011300Z 12003KT 20SM FEW035 FEW100 SCT240 15/13 A3006 RMK SC1AC2CI1 SLP181=

CYVR;2005-09-01 14:00;METAR CYVR 011400Z 10005KT 20SM FEW110 BKN240 14/13 A3006 RMK AC2CI2 SLP180=

CYVR;2005-09-01 16:00;METAR CYVR 011600Z 11004KT 20SM FEW090 SCT220 BKN240 17/13 A3006 RMK AC1CC1CI1 SLP178=

CYVR;2005-09-01 17:00;METAR CYVR 011700Z 13005KT 20SM FEW040 SCT180 BKN220 BKN240 19/13 A3004 RMK CU1AC1CC1CI1 TR CU SLP174=

CYVR;2005-09-01 20:00;METAR CYVR 012000Z 25007KT 15SM FEW040 BKN190 OVC240 21/15 A3000 RMK CU1AS4CI1 SLP158=

CYVR;2005-09-01 21:00;METAR CYVR 012100Z 25005KT 15SM FEW040 SCT190 BKN240 21/14 A2998 RMK CU1AS2CI2 SLP153=

CYVR;2005-09-01 22:00;METAR CYVR 012200Z 25004KT 15SM FEW040 SCT180 OVC240 21/14 A2997 RMK CU1AS3CI2 TR CU SLP148=

CYVR;2005-09-01 23:00;METAR CYVR 012300Z 26004KT 15SM FEW090 BKN190 OVC210 20/15 A2994 RMK AC1AS4CS2 SLP140=

CYVR;2005-09-02 00:00;METAR CYVR 020000Z 28005KT 15SM FEW090 BKN180 OVC210 20/14 A2993 RMK AC1AS5CS1 SLP135=

CYVR;2005-09-02 01:00;METAR CYVR 020100Z 31004KT 20SM FEW090 BKN190 OVC210 19/15 A2992 RMK AC1AS5CI2 SLP132=

CYVR;2005-09-02 02:00;METAR CYVR 020200Z 31004KT 20SM SCT120 OVC220 18/14 A2990 RMK AC3CI4 SLP125=

CYVR;2005-09-02 03:00;METAR CYVR 020300Z 32005KT 20SM FEW120 SCT180 OVC210 18/14 A2989 RMK AC2AS2CI4 SLP121=

CYVR;2005-09-02 04:00;METAR CYVR 020400Z 32005KT 20SM FEW120 SCT180 OVC220 17/15 A2988 RMK AC2AS2CI4 SLP120=

CYVR;2005-09-02 05:00;METAR CYVR 020500Z 00000KT 20SM SCT180 BKN220 18/13 A2988 RMK AS3CI3 SLP118=

CYVR;2005-09-02 06:00;METAR CYVR 020600Z 00000KT 20SM FEW120 SCT180 OVC220 18/14 A2987 RMK AC1AS2CI4 SLP116=

CYVR;2005-09-02 07:00;METAR CYVR 020700Z 23003KT 15SM BKN070 OVC220 18/14 A2987 RMK AC5CI3 SLP115=

CYVR;2005-09-02 08:00;METAR CYVR 020800Z 11003KT 15SM BKN062 BKN170 OVC220 17/14 A2987 RMK SC5AS1CI2 SLP116=

CYVR;2005-09-02 09:00;METAR CYVR 020900Z 14004KT 15SM BKN060 BKN180 OVC220 16/13 A2988 RMK SC5AS1CI2 SLP119=

CYVR;2005-09-02 10:00;METAR CYVR 021000Z 12005KT 15SM BKN062 BKN160 OVC220 16/14 A2988 RMK SC6AS2CI1 SLP117=

CYVR;2005-09-02 11:00;METAR CYVR 021100Z 10009KT 15SM BKN055 OVC140 15/14 A2988 RMK SC6AC2 SLP117=

CYVR;2005-09-02 12:00;METAR CYVR 021200Z 12006KT 15SM BKN059 BKN084 OVC140 15/13 A2988 RMK SC6AC2AC1 SLP119=

CYVR;2005-09-02 13:00;METAR CYVR 021300Z 11006KT 15SM BKN059 OVC071 15/13 A2989 RMK SC6AC2 SLP122=

CYVR;2005-09-02 16:00;METAR CYVR 021600Z 09007KT 15SM FEW012 BKN056 BKN083 16/14 A2993 RMK SC1SC4AC1 SLP136=

CYVR;2005-09-02 17:00;METAR CYVR 021700Z 09007KT 15SM SCT012 BKN054 OVC080 17/14 A2995 RMK SC3SC2AC2 SLP141=

CYVR;2005-09-02 18:00;METAR CYVR 021800Z 10008KT 15SM FEW015 SCT040 BKN080 19/15 A2995 RMK SC1SC1AC1 SLP143=

CYVR;2005-09-02 20:00;METAR CYVR 022000Z 11003KT 20SM FEW025 SCT055 BKN220 19/13 A2995 RMK CU1CU2CI1 SLP142=

CYVR;2005-09-02 21:00;METAR CYVR 022100Z 10003KT 20SM FEW035 SCT220 20/12 A2996 RMK CU2CI1 CONTRAILS SLP144=

CYVR;2005-09-02 22:00;METAR CYVR 022200Z 12011KT 20SM FEW040 SCT220 21/11 A2995 RMK CU2CI1 SLP142=

CYVR;2005-09-02 23:00;METAR CYVR 022300Z 14010KT 20SM FEW040 FEW220 22/11 A2995 RMK CU1CI0 CONTRAILS SLP141=

CYVR;2005-09-03 00:00;METAR CYVR 030000Z 16009KT 30SM FEW045 FEW220 22/10 A2993 RMK CU1CI0 CONTRAILS SLP137=

CYVR;2005-09-03 01:00;METAR CYVR 030100Z 14012KT 30SM FEW045 SCT220 21/11 A2993 RMK CU1CI0 CONTRAILS SLP137=

CYVR;2005-09-03 02:00;METAR CYVR 030200Z 14010KT 30SM FEW045 OVC220 20/11 A2993 RMK SC1CI1 SLP135=

CYVR;2005-09-03 03:00;METAR CYVR 030300Z 11006KT 30SM FEW045 FEW068 BKN220 17/11 A2993 RMK SC1AC2CI1 SLP136=

CYVR;2005-09-03 04:00;METAR CYVR 030400Z 10009KT 20SM BKN062 BKN074 16/12 A2994 RMK SC5AC2 SLP139=

CYVR;2005-09-03 05:00;METAR CYVR 030500Z 09007KT 20SM FEW064 15/11 A2994 RMK SC2 SLP140=

CYVR;2005-09-03 06:00;METAR CYVR 030600Z 11010KT 20SM FEW064 16/11 A2993 RMK SC2 SLP137=

CYVR;2005-09-03 07:00;METAR CYVR 030700Z 09007KT 15SM FEW065 14/10 A2994 RMK SC2 SLP139=

CYVR;2005-09-03 08:00;METAR CYVR 030800Z 09006KT 15SM FEW065 BKN130 14/10 A2994 RMK SC2AC4 SLP139=

CYVR;2005-09-03 09:00;METAR CYVR 030900Z 10006KT 15SM FEW060 OVC140 14/11 A2995 RMK SC2AC5 SLP143=

CYVR;2005-09-03 10:00;METAR CYVR 031000Z 07007KT 15SM SCT065 BKN120 14/11 A2995 RMK SC3AC3 SLP141=

CYVR;2005-09-03 11:00;METAR CYVR 031100Z 09007KT 15SM FEW064 BKN100 15/11 A2995 RMK SC2AC4 SLP143=

CYVR;2005-09-03 12:00;METAR CYVR 031200Z 09004KT 15SM FEW064 BKN100 14/11 A2996 RMK SC2AC4 SLP145=

CYVR;2005-09-03 13:00;METAR CYVR 031300Z 08007KT 15SM FEW050 BKN088 BKN110 13/10 A2996 RMK SC1AC6AC1 SLP147=

CYVR;2005-09-03 15:00;METAR CYVR 031500Z 10009KT 15SM -SHRA BKN022 BKN090 14/12 A2999 RMK SC5AC1 SLP156=

CYVR;2005-09-03 15:23;SPECI CYVR 031523Z 09009KT 15SM SCT014 BKN018 BKN090 14/ RMK SC3SC2AC1=

CYVR;2005-09-03 15:50;SPECI CYVR 031550Z 10009KT 15SM SCT012 BKN014 BKN090 14/ RMK SC3SC2AC2=

CYVR;2005-09-03 16:00;METAR CYVR 031600Z 10010KT 15SM SCT012 BKN014 BKN070 15/12 A2999 RMK SC3SC2AC1 SLP157=

CYVR;2005-09-03 16:27;SPECI CYVR 031627Z 11011KT 15SM SCT014 BKN070 16/ RMK SC3AC1=

CYVR;2005-09-03 19:00;METAR CYVR 031900Z 14008G16KT 15SM FEW035 BKN090 19/12 A3002 RMK SC2AC1 SLP166=

CYVR;2005-09-03 21:00;METAR CYVR 032100Z 17013G18KT 20SM SCT035 BKN090 21/10 A3001 RMK CU2AC2 SLP163=

CYVR;2005-09-03 22:00;METAR CYVR 032200Z 18010KT 20SM BKN045 BKN090 20/09 A3001 RMK CU5AC1 SLP163=

CYVR;2005-09-03 22:42;SPECI CYVR 032242Z 20008G15KT 15SM -SHRA FEW045 BKN058 19/ RMK CU1SC6 SHRS DIST NW QUAD=

CYVR;2005-09-03 23:00;METAR CYVR 032300Z 20009KT 15SM -SHRA FEW045 BKN060 17/13 A3002 RMK CU1SC6 SLP167=

CYVR;2005-09-04 00:00;METAR CYVR 040000Z 27002KT 15SM -SHRA SCT045 BKN078 17/13 A3002 RMK SC3AC3 SLP166=

CYVR;2005-09-04 00:14;SPECI CYVR 040014Z 00000KT 15SM FEW045 BKN078 17/ RMK SC2AC6=

CYVR;2005-09-04 01:00;METAR CYVR 040100Z 02003KT 15SM FEW045 SCT064 BKN088 17/13 A3002 RMK SF1SC2AC3 SLP165=

CYVR;2005-09-04 03:00;METAR CYVR 040300Z 06005KT 15SM FEW050 SCT090 OVC140 16/12 A3001 RMK SC2AC2AS3 SLP163=

CYVR;2005-09-04 04:00;METAR CYVR 040400Z 08004KT 15SM BKN078 OVC140 16/12 A3002 RMK AC6AS2 SLP167=

CYVR;2005-09-04 05:00;METAR CYVR 040500Z 07007KT 15SM FEW050 FEW085 OVC170 15/12 A3002 RMK SC1AC2AC6 SLP165=

CYVR;2005-09-04 06:00;METAR CYVR 040600Z 07004KT 15SM FEW050 FEW085 BKN150 15/12 A3002 RMK SC1AC2AC5 SLP166=

CYVR;2005-09-04 08:00;METAR CYVR 040800Z 08005KT 15SM FEW050 BKN150 14/12 A3001 RMK SC2AC6 SLP164=

CYVR;2005-09-04 09:00;METAR CYVR 040900Z 07005KT 15SM FEW050 BKN140 OVC200 14/12 A3002 RMK SC2AC5CI2 SLP165=

CYVR;2005-09-04 10:00;METAR CYVR 041000Z 09006KT 15SM FEW050 OVC160 14/12 A3001 RMK SC2AC6 SLP163=

CYVR;2005-09-04 11:00;METAR CYVR 041100Z 09007KT 15SM FEW050 FEW080 OVC170 13/11 A3001 RMK SC2AC1AC6 SLP164=

CYVR;2005-09-04 12:00;METAR CYVR 041200Z 09006KT 15SM FEW050 OVC160 13/11 A3001 RMK SC2AC6 SLP164=

CYVR;2005-09-04 12:50;SPECI CYVR 041250Z 09005KT 15SM TS FEW035CB BKN050 OVC130 13/ RMK CB2SC2AC3 LTGIC DIST N=

CYVR;2005-09-04 13:16;SPECI CYVR 041316Z 09007KT 15SM SCT020 BKN050 OVC130 13/ RMK SC3SC2AC2=

CYVR;2005-09-04 14:00;METAR CYVR 041400Z 09009KT 10SM -SHRA FEW030 BKN045 OVC075 13/11 A3004 RMK SC2SC4AC2 SLP171=

CYVR;2005-09-04 15:00;METAR CYVR 041500Z 08008KT 15SM FEW045 BKN087 OVC100 13/12 A3005 RMK SF2AC5AC2 SLP176=

CYVR;2005-09-04 16:00;METAR CYVR 041600Z 09010KT 15SM -SHRA FEW025 SCT045 BKN060 BKN220 14/12 A3006 RMK SC2SC2SC1CI0 SLP179=

CYVR;2005-09-04 16:16;SPECI CYVR 041616Z 10010KT 15SM FEW025 FEW045 BKN085 OVC220 15/ RMK SF1SC2AC2CI0=

CYVR;2005-09-04 17:00;METAR CYVR 041700Z 11009KT 15SM FEW020 SCT025 OVC100 15/12 A3007 RMK CU2SC2AC3 SLP184=

CYVR;2005-09-04 18:00;METAR CYVR 041800Z 18006KT 15SM BKN027 OVC100 16/11 A3008 RMK CU6AC2 SLP186=

CYVR;2005-09-04 18:15;SPECI CYVR 041815Z 21007KT 15SM -SHRA SCT025 BKN048 OVC060 16/ RMK CU4SC2SC1=

CYVR;2005-09-04 19:00;METAR CYVR 041900Z 31003KT 15SM -SHRA BKN018 OVC060 16/13 A3009 RMK SC5SC2 PCPN VRY LGT SLP189=

CYVR;2005-09-04 19:18;SPECI CYVR 041918Z 00000KT 15SM SCT018 BKN060 16/ RMK SC4SC3=

CYVR;2005-09-04 20:00;METAR CYVR 042000Z 22005KT 15SM FEW020 OVC060 17/11 A3009 RMK CF2SC5 SLP190=

CYVR;2005-09-04 21:00;METAR CYVR 042100Z 20006KT 15SM FEW025 BKN059 19/12 A3010 RMK CF2SC5 SLP192=

CYVR;2005-09-04 22:00;METAR CYVR 042200Z 25005KT 15SM FEW025TCU FEW090 SCT190 17/12 A3011 RMK TCU2AC0AC1 SLP195=

CYVR;2005-09-05 00:00;METAR CYVR 050000Z 25006KT 15SM FEW025 FEW030 SCT085 BKN190 18/12 A3012 RMK CF1CU1AC2AC1 TR CF SLP199=

CYVR;2005-09-05 01:00;METAR CYVR 050100Z 29005KT 20SM FEW030TCU FEW035CB SCT090 16/12 A3012 RMK TCU1CB1AC2 SLP200=

CYVR;2005-09-05 03:00;METAR CYVR 050300Z 31005KT 20SM FEW040 FEW078 14/11 A3014 RMK SC1AC2 SLP206=

CYVR;2005-09-05 04:00;METAR CYVR 050400Z 35002KT 20SM FEW040 FEW080 14/11 A3016 RMK SC1AC1 SLP213=

CYVR;2005-09-05 06:00;METAR CYVR 050600Z 07004KT 20SM FEW080 13/11 A3017 RMK AC1 SLP217=

CYVR;2005-09-05 07:00;METAR CYVR 050700Z 07004KT 15SM FEW080 13/11 A3018 RMK AC2 SLP220=

CYVR;2005-09-05 08:00;METAR CYVR 050800Z 09003KT 15SM FEW080 12/11 A3019 RMK AC2 SLP223=

CYVR;2005-09-05 09:00;METAR CYVR 050900Z 08004KT 15SM FEW080 11/11 A3019 RMK AC2 SLP224=

CYVR;2005-09-05 10:00;METAR CYVR 051000Z 09004KT 15SM FEW035 FEW080 11/10 A3020 RMK SC1AC1 SLP227=

CYVR;2005-09-05 11:00;METAR CYVR 051100Z 09002KT 15SM FEW035 FEW080 11/10 A3020 RMK SC1AC1 SLP227=

CYVR;2005-09-05 12:00;METAR CYVR 051200Z 11005KT 15SM BKN016 BKN035 11/10 A3021 RMK SC3SC1 SLP231=

CYVR;2005-09-05 13:00;METAR CYVR 051300Z 08003KT 15SM FEW016 SCT040 10/10 A3022 RMK SC2SC1 SLP232=

CYVR;2005-09-05 14:00;METAR CYVR 051400Z 09004KT 15SM SCT036 SCT260 11/10 A3022 RMK SC3CC1 SLP235=

CYVR;2005-09-05 15:00;METAR CYVR 051500Z 01002KT 15SM SCT040 BKN220 13/11 A3024 RMK SC3CI1 SLP240=

CYVR;2005-09-05 16:00;METAR CYVR 051600Z 10003KT 15SM FEW040 BKN220 15/11 A3024 RMK SC2CI2 TCU ASOCTD CONTRAILS SLP242=

CYVR;2005-09-05 17:00;METAR CYVR 051700Z 30004KT 15SM FEW040 SCT220 16/11 A3025 RMK SC2CI2 TCU ASOCTD CONTRAILS SLP243=

CYVR;2005-09-05 18:00;METAR CYVR 051800Z 24006KT 15SM FEW040 SCT220 16/12 A3025 RMK SC2CI2 TCU ASOCTD CONTRAILS SLP244=

CYVR;2005-09-05 19:00;METAR CYVR 051900Z 27008KT 20SM FEW040 BKN220 16/12 A3025 RMK SC2CI2 TCU ASOCTD CONTRAILS SLP244=

CYVR;2005-09-05 20:00;METAR CYVR 052000Z 24007KT 20SM FEW040 SCT220 18/12 A3024 RMK SC2CI2 TCU ASOCTD CONTRAILS SLP241=

CYVR;2005-09-05 21:00;METAR CYVR 052100Z 26008KT 20SM FEW040 SCT220 17/12 A3023 RMK SC2CI2 TCU ASOCTD SLP238=

CYVR;2005-09-05 22:00;METAR CYVR 052200Z 30008KT 20SM FEW040 SCT220 18/11 A3022 RMK SC2CI2 SLP232=

CYVR;2005-09-06 00:00;METAR CYVR 060000Z 29007KT 20SM FEW040 SCT220 18/10 A3019 RMK SC2CI2 SLP225=

CYVR;2005-09-06 02:00;METAR CYVR 060200Z 28006KT 30SM FEW040 FEW220 17/11 A3017 RMK CU1CI1 SLP216=

CYVR;2005-09-06 03:00;METAR CYVR 060300Z 27005KT 30SM FEW210 16/11 A3017 RMK CI2 SLP215=

CYVR;2005-09-06 04:00;METAR CYVR 060400Z 00000KT 30SM FEW210 16/11 A3017 RMK CI2 SLP217=

CYVR;2005-09-06 05:00;METAR CYVR 060500Z 03002KT 30SM FEW220 15/11 A3017 RMK CI2 SLP216=

CYVR;2005-09-06 06:00;METAR CYVR 060600Z 12004KT 30SM FEW220 15/12 A3017 RMK CI2 SLP215=

CYVR;2005-09-06 07:00;METAR CYVR 060700Z 14004KT 30SM FEW220 14/12 A3017 RMK CI1 SLP216=

CYVR;2005-09-06 08:00;METAR CYVR 060800Z 09003KT 30SM FEW220 12/10 A3017 RMK CI1 SLP215=

CYVR;2005-09-06 09:00;METAR CYVR 060900Z 03004KT 30SM FEW220 12/10 A3017 RMK CI1 SLP216=

CYVR;2005-09-06 11:00;METAR CYVR 061100Z 05003KT 30SM FEW220 12/10 A3017 RMK CI1 SLP217=

CYVR;2005-09-06 12:00;METAR CYVR 061200Z 03002KT 20SM FEW220 11/10 A3017 RMK CI1 SLP218=

CYVR;2005-09-06 13:00;METAR CYVR 061300Z 12003KT 30SM FEW220 12/10 A3017 RMK CI1 SLP218=

CYVR;2005-09-06 14:00;METAR CYVR 061400Z 02004KT 30SM FEW040 FEW220 11/10 A3019 RMK SC1CI2 SLP223=

CYVR;2005-09-06 15:00;METAR CYVR 061500Z 10004KT 20SM FEW030 FEW220 13/11 A3019 RMK SC1CI2 SLP224=

CYVR;2005-09-06 16:00;METAR CYVR 061600Z 19002KT 20SM FEW030 FEW220 15/11 A3019 RMK SC1CI2 SLP225=

CYVR;2005-09-06 17:00;METAR CYVR 061700Z 29009KT 25SM FEW030 FEW220 17/10 A3020 RMK SC1CI2 SLP226=

CYVR;2005-09-06 18:00;METAR CYVR 061800Z 30009KT 25SM FEW030 FEW220 18/11 A3020 RMK SC1CI2 SLP226=

CYVR;2005-09-06 19:00;METAR CYVR 061900Z 29011KT 30SM FEW030 FEW220 18/13 A3019 RMK SC1CI2 SLP225=

CYVR;2005-09-06 21:00;METAR CYVR 062100Z 29008KT 30SM FEW030 FEW220 19/12 A3019 RMK SC1CI2 SLP222=

CYVR;2005-09-06 22:00;METAR CYVR 062200Z 31010KT 30SM FEW040 FEW220 20/13 A3018 RMK SC1CI2 SLP220=

CYVR;2005-09-07 00:00;METAR CYVR 070000Z 28012KT 30SM FEW040 FEW220 20/13 A3015 RMK CU1CI1 SLP211=

CYVR;2005-09-07 02:00;METAR CYVR 070200Z 29008KT 30SM FEW220 18/14 A3012 RMK CI1 SLP201=

CYVR;2005-09-07 03:00;METAR CYVR 070300Z 30006KT 30SM FEW220 16/14 A3012 RMK CI1 SLP199=

CYVR;2005-09-07 04:00;METAR CYVR 070400Z 30006KT 30SM FEW220 16/13 A3013 RMK CI1 SLP204=

CYVR;2005-09-07 05:00;METAR CYVR 070500Z 31005KT 30SM FEW220 15/13 A3013 RMK CI1 SLP203=

CYVR;2005-09-07 06:00;METAR CYVR 070600Z 00000KT 30SM FEW230 16/14 A3014 RMK CI1 SLP206=

CYVR;2005-09-07 07:00;METAR CYVR 070700Z 00000KT 30SM FEW220 15/13 A3014 RMK CI1 SLP207=

CYVR;2005-09-07 10:00;METAR CYVR 071000Z 02003KT 30SM FEW220 12/10 A3015 RMK CI1 SLP211=

CYVR;2005-09-07 11:00;METAR CYVR 071100Z 00000KT 30SM SKC 12/10 A3015 RMK SLP210=

CYVR;2005-09-07 12:00;METAR CYVR 071200Z 02003KT 30SM FEW210 12/10 A3017 RMK CI2 SLP216=

CYVR;2005-09-07 13:00;METAR CYVR 071300Z 01002KT 30SM BKN200 12/10 A3017 RMK CI5 SLP217=

CYVR;2005-09-07 14:00;METAR CYVR 071400Z 15002KT 30SM BKN190 BKN250 13/11 A3018 RMK AC5CI2=

CYVR;2005-09-07 15:00;METAR CYVR 071500Z 12003KT 25SM BKN190 BKN250 13/11 A3019 RMK AC5CI2=

CYVR;2005-09-07 16:00;METAR CYVR 071600Z 09005KT 20SM FEW190 BKN250 16/12 A3020 RMK AC2CI3=

CYVR;2005-09-07 17:00;METAR CYVR 071700Z 11005KT 20SM FEW190 SCT250 18/11 A3020 RMK AC1CI2=

CYVR;2005-09-07 18:00;METAR CYVR 071800Z 24004KT 20SM FEW190 FEW250 20/11 A3020 RMK AC1CI2=

CYVR;2005-09-07 19:00;METAR CYVR 071900Z 29006KT 20SM FEW035 SCT250 19/13 A3019 RMK SC1CI2=

CYVR;2005-09-07 20:00;METAR CYVR 072000Z 26008KT 20SM FEW240 19/13 A3018 RMK CI2 HAZE CONTRAILS SLP220=

CYVR;2005-09-07 21:00;METAR CYVR 072100Z 23007KT 20SM FEW040 SCT240 20/14 A3017 RMK CU1CI2=

CYVR;2005-09-07 22:00;METAR CYVR 072200Z 26008KT 25SM FEW040 SCT230 19/14 A3016 RMK CU1CI2=

CYVR;2005-09-07 23:00;METAR CYVR 072300Z 25007KT 25SM FEW040 SCT230 20/13 A3014 RMK CU1CI2 CONTRAILS SLP206=

CYVR;2005-09-08 00:00;METAR CYVR 080000Z 23007KT 25SM FEW040 FEW230 20/13 A3012 RMK CU1CI2 CONTRAILS SLP199=

CYVR;2005-09-08 01:00;METAR CYVR 080100Z 27006KT 30SM FEW040 FEW230 19/13 A3011 RMK CU1CI2 CONTRAILS SLP197=

CYVR;2005-09-08 03:00;METAR CYVR 080300Z 25004KT 30SM FEW220 18/14 A3009 RMK CI1 SLP191=

CYVR;2005-09-08 04:00;METAR CYVR 080400Z 23006KT 30SM FEW220 17/13 A3009 RMK CI1 SLP190=

CYVR;2005-09-08 05:00;METAR CYVR 080500Z 13005KT 30SM FEW220 17/14 A3009 RMK CI1 SLP188=

CYVR;2005-09-08 06:00;METAR CYVR 080600Z 00000KT 30SM FEW220 15/13 A3008 RMK CI1 SLP187=

CYVR;2005-09-08 07:00;METAR CYVR 080700Z 10006KT 30SM FEW220 14/13 A3008 RMK CI1 SLP187=

CYVR;2005-09-08 10:00;METAR CYVR 081000Z 09003KT 30SM FEW220 14/12 A3006 RMK CI1 SLP180=

CYVR;2005-09-08 11:00;METAR CYVR 081100Z 00000KT 30SM FEW220 14/12 A3005 RMK CI1 SLP176=

CYVR;2005-09-08 12:00;METAR CYVR 081200Z 36002KT 30SM FEW220 13/12 A3004 RMK CI1 SLP173=

CYVR;2005-09-08 13:00;METAR CYVR 081300Z 14002KT 30SM FEW220 14/12 A3004 RMK CI2 SLP173=

CYVR;2005-09-08 14:00;METAR CYVR 081400Z 08002KT 20SM SCT020 SCT090 BKN220 14/12 A3004 RMK SC3AC1CC1 HAZE CONTRAILS SLP172=

CYVR;2005-09-08 15:00;METAR CYVR 081500Z 12004KT 20SM SCT020 BKN220 14/13 A3003 RMK SC4CC2=

CYVR;2005-09-08 16:00;METAR CYVR 081600Z 11007KT 20SM SCT025 BKN220 16/12 A3003 RMK SC4CI2=

CYVR;2005-09-08 17:00;METAR CYVR 081700Z 00000KT 20SM FEW020 SCT220 19/13 A3002 RMK SC2CI1=

CYVR;2005-09-08 18:00;METAR CYVR 081800Z 25006KT 20SM FEW020 FEW220 19/14 A3000 RMK SC2CI1 SLP159=

CYVR;2005-09-08 19:00;METAR CYVR 081900Z 29006KT 20SM FEW020 SCT070 SCT220 20/14 A2998 RMK SC2AC2CI1 SLP152=

CYVR;2005-09-08 20:00;METAR CYVR 082000Z 29007KT 30SM FEW020 SCT070 BKN220 19/14 A2996 RMK SC2AC2CI1 CONTRAILS SLP144=

CYVR;2005-09-08 21:00;METAR CYVR 082100Z 28008KT 30SM FEW020 SCT070 20/16 A2993 RMK SC2AC2 CONTRAILS SLP137=

CYVR;2005-09-08 22:00;METAR CYVR 082200Z 28009KT 30SM FEW020 FEW070 21/14 A2990 RMK SC2AC1 TCU ASOCTD SLP126=

CYVR;2005-09-09 00:00;METAR CYVR 090000Z 23009KT 30SM FEW020 SCT070 21/14 A2985 RMK SC2AC1 TCU ASOCTD CONTRAILS SLP107=

CYVR;2005-09-09 01:00;METAR CYVR 090100Z 27012KT 30SM FEW020 SCT055 20/14 A2983 RMK SC2SC2 TCU ASOCTD CONTRAILS SLP100=

CYVR;2005-09-09 05:00;METAR CYVR 090500Z 29030G35KT 15SM -SHRA BKN059 BKN100 16/10 A2977 RMK SC6AC2 SLP082=

CYVR;2005-09-09 05:29;SPECI CYVR 090529Z 29028G39KT 20SM BKN059 BKN110 16/ RMK SC5AC1=

CYVR;2005-09-09 06:00;METAR CYVR 090600Z 29034G42KT 20SM BKN060 BKN110 16/09 A2975 RMK SC5AC1 SLP076=

CYVR;2005-09-09 07:00;METAR CYVR 090700Z 29033G39KT 20SM SCT060 BKN120 16/09 A2975 RMK SC4AC1 SLP074=

CYVR;2005-09-09 09:00;METAR CYVR 090900Z 29025G32KT 20SM FEW060 FEW120 SCT220 14/10 A2973 RMK SC1AC1CI1 SLP069=

CYVR;2005-09-09 10:00;METAR CYVR 091000Z 29027G34KT 20SM FEW060 FEW120 14/10 A2973 RMK SC2AC1 SLP067=

CYVR;2005-09-09 11:00;METAR CYVR 091100Z 35005KT 20SM FEW070 SCT150 13/10 A2974 RMK AC2AC2 SLP071=

CYVR;2005-09-09 12:00;METAR CYVR 091200Z 12005KT 20SM FEW050 BKN070 BKN150 14/10 A2975 RMK SC2AC3AC1 SLP076=

CYVR;2005-09-09 13:00;METAR CYVR 091300Z 30012KT 20SM FEW050 SCT070 BKN150 13/10 A2978 RMK SC2AC2AC2 SLP084=

CYVR;2005-09-09 14:00;METAR CYVR 091400Z 31014KT 20SM FEW030 BKN088 BKN120 OVC200 13/10 A2979 RMK SC1AC5AC1CI1 SLP088=

CYVR;2005-09-09 16:00;METAR CYVR 091600Z 31011KT 20SM FEW030 BKN084 BKN120 14/11 A2980 RMK SC1AC5AC2 SLP090=

CYVR;2005-09-09 17:00;METAR CYVR 091700Z 31009G15KT 20SM SCT018 SCT035 BKN120 BKN200 14/11 A2981 RMK SC3SC1AC1CI2 SLP094=

CYVR;2005-09-09 18:00;METAR CYVR 091800Z 29012KT 20SM SCT018 BKN050 16/11 A2981 RMK SC3SC2 SLP094=

CYVR;2005-09-09 19:00;METAR CYVR 091900Z 29013KT 20SM SCT019 SCT050 BKN200 16/11 A2981 RMK SC3SC1CI2 SLP094=

CYVR;2005-09-09 20:00;METAR CYVR 092000Z 30013KT 20SM FEW030 BKN200 17/10 A2980 RMK SC2CI3 SLP091=

CYVR;2005-09-09 21:00;METAR CYVR 092100Z 29008KT 20SM FEW040 BKN100 BKN210 17/10 A2980 RMK SC2AC2CI2 SLP093=

CYVR;2005-09-09 22:00;METAR CYVR 092200Z 28008KT 20SM FEW040 BKN110 17/10 A2980 RMK SC2AC4 SLP090=

CYVR;2005-09-09 23:00;METAR CYVR 092300Z 25008KT 20SM SCT040 BKN110 18/10 A2979 RMK SC3AC4 SLP087=

CYVR;2005-09-10 00:00;METAR CYVR 100000Z 29003KT 20SM FEW040 BKN100 BKN210 17/11 A2978 RMK SC2AC3CI2 SLP084=

CYVR;2005-09-10 01:00;METAR CYVR 100100Z 19003KT 20SM FEW030 SCT045 OVC100 18/09 A2978 RMK SC2SC2AC4 SLP083=

CYVR;2005-09-10 02:00;METAR CYVR 100200Z 12006KT 20SM SCT030 BKN045 BKN120 16/11 A2978 RMK SC3SC3AC1 SLP085=

CYVR;2005-09-10 03:00;METAR CYVR 100300Z 13006KT 20SM SCT040 BKN120 16/11 A2979 RMK SC3AC4 SLP088=

CYVR;2005-09-10 04:00;METAR CYVR 100400Z 11011KT 20SM FEW040 BKN130 15/12 A2979 RMK SC2AC5 SLP088=

CYVR;2005-09-10 05:00;METAR CYVR 100500Z 09010KT 20SM FEW160 14/10 A2978 RMK AC2 SLP086=

CYVR;2005-09-10 06:00;METAR CYVR 100600Z 09011KT 20SM SCT160 14/11 A2979 RMK AC4 SLP089=

CYVR;2005-09-10 09:00;METAR CYVR 100900Z 10006KT 20SM BKN140 12/11 A2981 RMK AC7 SLP096=

CYVR;2005-09-10 10:00;METAR CYVR 101000Z 12004KT 20SM SCT160 13/11 A2983 RMK AC3 SLP100=

CYVR;2005-09-10 11:00;METAR CYVR 101100Z 12006KT 20SM SCT160 12/10 A2983 RMK AC3 SLP102=

CYVR;2005-09-10 12:00;METAR CYVR 101200Z 00000KT 20SM SCT190 13/11 A2984 RMK AC3 SLP104=

CYVR;2005-09-10 13:00;METAR CYVR 101300Z 09003KT 20SM BKN100 12/11 A2985 RMK AC7 SLP109=

CYVR;2005-09-10 14:00;METAR CYVR 101400Z 09004KT 20SM OVC094 13/10 A2986 RMK AC8 SLP112=

CYVR;2005-09-10 15:00;METAR CYVR 101500Z 12003KT 20SM OVC087 14/11 A2987 RMK AC8 SLP114=

CYVR;2005-09-10 16:00;METAR CYVR 101600Z 18002KT 20SM FEW050 OVC088 14/11 A2988 RMK SC2AC6 SLP120=

CYVR;2005-09-10 17:00;METAR CYVR 101700Z 24003KT 20SM BKN110 15/11 A2989 RMK AC6 SLP122=

CYVR;2005-09-10 18:00;METAR CYVR 101800Z 22005KT 20SM FEW045 BKN083 17/11 A2990 RMK SC1AC5 SLP125=

CYVR;2005-09-10 19:00;METAR CYVR 101900Z 23006KT 20SM FEW045 FEW080 BKN220 17/12 A2991 RMK SC1AC2CI2 SLP127=

CYVR;2005-09-10 20:00;METAR CYVR 102000Z 25008KT 20SM FEW045 BKN100 BKN200 17/12 A2991 RMK SC1AC3CI2 SLP127=

CYVR;2005-09-10 22:00;METAR CYVR 102200Z 30006KT 20SM FEW045 BKN097 17/13 A2992 RMK SC2AC5 SLP131=

CYVR;2005-09-10 23:00;METAR CYVR 102300Z 27004KT 20SM FEW050 BKN110 BKN180 19/12 A2992 RMK SC2AC3AC2 SLP133=

CYVR;2005-09-11 00:00;METAR CYVR 110000Z 31006KT 20SM FEW050 SCT120 BKN200 18/11 A2993 RMK SC2AC1CS4 SLP134=

CYVR;2005-09-11 01:00;METAR CYVR 110100Z 31004KT 20SM FEW050 BKN100 BKN200 18/11 A2993 RMK SC2AC2CS2 SLP137=

CYVR;2005-09-11 02:00;METAR CYVR 110200Z 29003KT 30SM FEW060 SCT100 BKN210 17/11 A2994 RMK SC2AC2CS4 SLP138=

CYVR;2005-09-11 03:00;METAR CYVR 110300Z 28004KT 30SM FEW055 BKN097 BKN200 15/12 A2995 RMK SC2AC3CS2 SLP142=

CYVR;2005-09-11 04:00;METAR CYVR 110400Z 26004KT 30SM FEW090 BKN220 15/13 A2995 RMK AC2CI4 SLP143=

CYVR;2005-09-11 05:00;METAR CYVR 110500Z 33005KT 30SM FEW097 BKN150 15/12 A2996 RMK AC2AC5 SLP144=

CYVR;2005-09-11 06:00;METAR CYVR 110600Z 04002KT 30SM FEW090 BKN140 15/12 A2996 RMK AC2AC4 SLP144=

CYVR;2005-09-11 07:00;METAR CYVR 110700Z 03002KT 30SM OVC098 16/12 A2996 RMK AC8 SLP146=

CYVR;2005-09-11 09:00;METAR CYVR 110900Z 09003KT 30SM BKN110 15/12 A2998 RMK AC6 SLP153=

CYVR;2005-09-11 10:00;METAR CYVR 111000Z 09007KT 30SM OVC110 15/13 A2998 RMK AC8 SLP153=

CYVR;2005-09-11 11:00;METAR CYVR 111100Z 09007KT 30SM OVC110 15/11 A2999 RMK AC8 SLP155=

CYVR;2005-09-11 12:00;METAR CYVR 111200Z 11006KT 30SM OVC110 15/10 A2999 RMK AC8 SLP156=

CYVR;2005-09-11 13:00;METAR CYVR 111300Z 09004KT 30SM BKN140 14/10 A2999 RMK AC6 SLP156=

CYVR;2005-09-11 14:00;METAR CYVR 111400Z 08007KT 30SM SCT140 SCT200 13/10 A2999 RMK AC3CS0 SLP156=

CYVR;2005-09-11 15:00;METAR CYVR 111500Z 11007KT 30SM FEW140 14/11 A3000 RMK AC1 SLP159=

CYVR;2005-09-11 16:00;METAR CYVR 111600Z 11008KT 30SM FEW140 16/11 A3001 RMK AC1 SLP162=

CYVR;2005-09-11 17:00;METAR CYVR 111700Z 11009KT 30SM FEW140 17/11 A3001 RMK AC1 SLP162=

CYVR;2005-09-11 18:00;METAR CYVR 111800Z 11010KT 30SM FEW040 FEW140 18/12 A3001 RMK SC1AC1 TR SC SLP163=

CYVR;2005-09-11 19:00;METAR CYVR 111900Z 11011KT 30SM FEW040 FEW140 18/11 A3001 RMK SC1AC1 TR SC CU ASOCT SLP162=

CYVR;2005-09-11 20:00;METAR CYVR 112000Z 12009G16KT 30SM FEW040 FEW140 19/10 A3000 RMK SC1AC1 SLP158=

CYVR;2005-09-11 21:00;METAR CYVR 112100Z 11008KT 30SM FEW040 FEW200 20/10 A3000 RMK SC1CI1 SLP159=

CYVR;2005-09-11 22:00;METAR CYVR 112200Z 17008KT 30SM FEW040 FEW200 20/10 A3000 RMK SC1CI1 SLP158=

CYVR;2005-09-11 23:00;METAR CYVR 112300Z 14011KT 30SM FEW040 SCT120 20/10 A2998 RMK SC1AC2 SLP153=

CYVR;2005-09-12 00:00;METAR CYVR 120000Z 17009KT 30SM FEW040 SCT140 BKN210 19/10 A2998 RMK SC1AC3CI2 TR SC SLP154=

CYVR;2005-09-12 01:00;METAR CYVR 120100Z 12008KT 30SM BKN150 OVC180 19/10 A2999 RMK AC5AC3 SLP157=

CYVR;2005-09-12 03:00;METAR CYVR 120300Z 11010KT 30SM SCT080 BKN150 BKN180 17/11 A3000 RMK AC3AC2AC2 FU E DRFTG N SLP160=

CYVR;2005-09-12 04:00;METAR CYVR 120400Z 10010KT 20SM FEW030 SCT080 BKN140 BKN180 17/12 A3000 RMK SC1AC2AC2AC1 FU E - NE SLP160=

CYVR;2005-09-12 05:00;METAR CYVR 120500Z 09011KT 20SM FEW025 SCT080 BKN130 BKN180 16/11 A3001 RMK SC1AC2AC2AC1 FU N - E SLP163=

CYVR;2005-09-12 07:00;METAR CYVR 120700Z 11011KT 20SM FEW025 SCT090 BKN120 17/11 A3002 RMK SC1AC2AC4 FU N - E SLP166=

CYVR;2005-09-12 07:14;SPECI CYVR 120714Z 11008KT 20SM -SHRA FEW025 SCT090 BKN120 OVC150 16/ RMK SC1AC2AC3AC1=

CYVR;2005-09-12 07:32;SPECI CYVR 120732Z 10009KT 20SM FEW025 SCT090 BKN120 OVC150 16/ RMK SC1AC2AC3AC1=

CYVR;2005-09-12 08:00;METAR CYVR 120800Z 12010KT 20SM FEW025 SCT090 BKN110 OVC150 16/11 A3002 RMK SC1AC3AC2AC1 SLP165=

CYVR;2005-09-12 09:00;METAR CYVR 120900Z 11008KT 15SM FEW020 SCT090 OVC140 16/11 A3002 RMK SC1AC3AC4 FU SLP166=

CYVR;2005-09-12 10:00;METAR CYVR 121000Z 11007KT 15SM FEW020 FEW090 OVC150 15/11 A3002 RMK SC1AC2AC6 FU SLP167=

CYVR;2005-09-12 11:00;METAR CYVR 121100Z 12007KT 15SM FEW020 BKN110 OVC150 15/11 A3003 RMK SC1AC4AC2 FU SLP168=

CYVR;2005-09-12 12:00;METAR CYVR 121200Z 13005KT 15SM FEW020 BKN110 BKN150 15/11 A3004 RMK SC1AC4AC2 SLP171=

CYVR;2005-09-12 13:00;METAR CYVR 121300Z 13004KT 15SM FEW015 SCT100 BKN150 14/11 A3003 RMK SC1AC2AC2 FU SLP170=

CYVR;2005-09-12 14:00;METAR CYVR 121400Z 12007KT 15SM FEW015 BKN087 BKN140 14/11 A3004 RMK SC1AC4AC1 FU SLP174=

CYVR;2005-09-12 16:00;METAR CYVR 121600Z 11009KT 12SM FEW015 BKN100 OVC140 16/12 A3006 RMK SC2AC3AC2 FU VIS LWR NW SLP181=

CYVR;2005-09-12 17:00;METAR CYVR 121700Z 13008KT 10SM FEW015 BKN130 16/12 A3007 RMK SC2AC5 FU VIS LWR N NW SLP184=

CYVR;2005-09-12 18:00;METAR CYVR 121800Z 11008KT 12SM FEW020 BKN140 16/12 A3008 RMK FU2SC1AC5 VIS N 4 SLP185=

CYVR;2005-09-12 20:00;METAR CYVR 122000Z 16006KT 15SM SCT030 BKN084 BKN140 19/11 A3007 RMK SC3AC2AC1 SLP184=

CYVR;2005-09-12 21:00;METAR CYVR 122100Z 23010KT 15SM BKN036 BKN090 19/11 A3007 RMK SC6AC1 SLP184=

CYVR;2005-09-12 22:00;METAR CYVR 122200Z 24009G17KT 15SM FEW015 SCT036 20/11 A3007 RMK SC1SC3 SLP183=

CYVR;2005-09-12 23:00;METAR CYVR 122300Z 26006KT 15SM FEW015 FEW034 17/12 A3007 RMK SC1SC1 SLP184=

CYVR;2005-09-13 00:00;METAR CYVR 130000Z 28004KT 15SM FEW015 17/12 A3007 RMK SC1 FU SLP183=

CYVR;2005-09-13 01:00;METAR CYVR 130100Z 30004KT 15SM BKN015 17/12 A3006 RMK SC2 FU SLP180=

CYVR;2005-09-13 03:00;METAR CYVR 130300Z 33002KT 20SM FEW020 FEW240 16/11 A3007 RMK FU2CI0 SLP184=

CYVR;2005-09-13 04:00;METAR CYVR 130400Z 23003KT 20SM FEW020 FEW240 16/12 A3009 RMK FU1CI1 SLP188=

CYVR;2005-09-13 05:00;METAR CYVR 130500Z 00000KT 20SM FEW020 FEW240 15/12 A3009 RMK FU1CI1 SLP189=

CYVR;2005-09-13 06:00;METAR CYVR 130600Z 00000KT 20SM FEW020 FEW240 14/11 A3009 RMK FU1CI1 SLP191=

CYVR;2005-09-13 07:00;METAR CYVR 130700Z 06002KT 20SM FEW025 FEW240 14/12 A3009 RMK FU1CI0 SLP191=

CYVR;2005-09-13 08:00;METAR CYVR 130800Z 06002KT 20SM FEW025 13/11 A3010 RMK FU1 SLP194=

CYVR;2005-09-13 09:00;METAR CYVR 130900Z 00000KT 20SM FEW025 13/11 A3011 RMK FU1 SLP197=

CYVR;2005-09-13 10:00;METAR CYVR 131000Z 14002KT 15SM FEW025 12/11 A3011 RMK FU1 SLP195=

CYVR;2005-09-13 11:00;METAR CYVR 131100Z 00000KT 15SM SCT020 12/11 A3011 RMK FU2 SLP195=

CYVR;2005-09-13 12:00;METAR CYVR 131200Z 01002KT 10SM SCT020 11/10 A3010 RMK FU2 SLP193=

CYVR;2005-09-13 13:00;METAR CYVR 131300Z 02002KT 10SM MIFG SCT020 11/11 A3010 RMK FU2 SLP193=

CYVR;2005-09-13 14:00;METAR CYVR 131400Z 10004KT 10SM MIFG FEW220 10/10 A3010 RMK CI1 SLP194=

CYVR;2005-09-13 15:00;METAR CYVR 131500Z 13004KT 10SM MIFG FEW220 13/12 A3011 RMK CI1 FU SLP196=

CYVR;2005-09-13 15:09;SPECI CYVR 131509Z 11003KT 2 1/2SM FU MIFG FEW220 13/ RMK CI1=

CYVR;2005-09-13 15:13;SPECI CYVR 131513Z 12003KT 1SM FU MIFG BKN220 13/ RMK FU5CI1=

CYVR;2005-09-13 15:15;SPECI CYVR 131515Z 12004KT 1/2SM FU MIFG BKN220 13/ RMK FU5CI1=

CYVR;2005-09-13 15:20;SPECI CYVR 131520Z 12002KT 1/4SM FU MIFG BKN220 13/ RMK FU6CI1=

CYVR;2005-09-13 16:00;METAR CYVR 131600Z 15003KT 1/4SM FU SKC 14/13 A3011 RMK FU7 SLP198=

CYVR;2005-09-13 16:09;SPECI CYVR 131609Z 16003KT 1/2SM FU SKC 15/ RMK FU7=

CYVR;2005-09-13 16:16;SPECI CYVR 131616Z 16002KT 1SM FU SKC 15/ RMK FU7=

CYVR;2005-09-13 16:22;SPECI CYVR 131622Z 19002KT 1 1/2SM FU SKC 15/ RMK FU7=

CYVR;2005-09-13 17:00;METAR CYVR 131700Z 18002KT 2SM FU BKN020 16/13 A3012 RMK FU5CU1 SLP199=

CYVR;2005-09-13 17:42;SPECI CYVR 131742Z 22005KT 3SM FU BKN020 17/ RMK FU3CU3=

CYVR;2005-09-13 18:00;METAR CYVR 131800Z 26004KT 6SM FU BKN020 17/13 A3012 RMK FU2CU4 SLP199=

CYVR;2005-09-13 19:00;METAR CYVR 131900Z 25006KT 7SM FEW020 18/14 A3011 RMK CU2 FU SLP198=

CYVR;2005-09-13 21:00;METAR CYVR 132100Z 24005KT 10SM FEW030 FEW220 19/13 A3010 RMK SC2CI1 FU CONTRAILS SLP193=

CYVR;2005-09-13 22:00;METAR CYVR 132200Z 23006KT 15SM FEW035 SCT220 19/13 A3009 RMK SC2CC2 FU TCU ASOCTD CONTRAILS SLP188=

CYVR;2005-09-13 23:00;METAR CYVR 132300Z 23007KT 15SM FEW035 BKN210 19/13 A3007 RMK SC2CC4 FU TCU ASOCTD SLP183=

CYVR;2005-09-14 00:00;METAR CYVR 140000Z 23006KT 15SM FEW035 SCT120 BKN210 19/13 A3006 RMK SC1AC2CC2 FU SLP180=

CYVR;2005-09-14 01:00;METAR CYVR 140100Z 25002KT 15SM FEW035 SCT160 BKN220 19/11 A3005 RMK SC1AC3CC2 FU SLP177=

CYVR;2005-09-14 02:00;METAR CYVR 140200Z 27002KT 15SM FEW040 FEW090 SCT140 BKN240 18/13 A3004 RMK SC2AC1AC1CI1 FU SLP174=

CYVR;2005-09-14 03:00;METAR CYVR 140300Z 00000KT 15SM FEW050 SCT080 BKN240 17/12 A3004 RMK SC1AC2CI1 FU SLP174=

CYVR;2005-09-14 04:00;METAR CYVR 140400Z 32002KT 15SM FEW050 SCT130 BKN220 17/12 A3005 RMK SC1AC2CI0 FU SLP175=

CYVR;2005-09-14 05:00;METAR CYVR 140500Z 00000KT 15SM FEW050 SCT080 BKN220 16/12 A3004 RMK SC1AC2CI1 FU SLP174=

CYVR;2005-09-14 06:00;METAR CYVR 140600Z 00000KT 15SM FEW050 BKN080 BKN220 16/12 A3004 RMK SC1AC4CI0 FU SLP174=

CYVR;2005-09-14 07:00;METAR CYVR 140700Z 00000KT 15SM SCT070 BKN090 BKN180 16/12 A3004 RMK AC3AC2AC1 FU SLP173=

CYVR;2005-09-14 08:00;METAR CYVR 140800Z 14002KT 15SM SCT070 BKN085 15/12 A3003 RMK AC3AC2 FU SLP170=

CYVR;2005-09-14 09:00;METAR CYVR 140900Z 14002KT 15SM SCT060 BKN085 16/12 A3004 RMK SC3AC3 FU SLP171=

CYVR;2005-09-14 10:00;METAR CYVR 141000Z 10006KT 15SM FEW060 SCT090 13/11 A3003 RMK SC2AC2 SLP168=

CYVR;2005-09-14 11:00;METAR CYVR 141100Z 12004KT 15SM FEW060 SCT085 14/12 A3002 RMK SC2AC2 FU SLP167=

CYVR;2005-09-14 12:00;METAR CYVR 141200Z 10004KT 15SM BKN062 BKN085 14/12 A3003 RMK SC5AC2 FU SLP168=

CYVR;2005-09-14 13:00;METAR CYVR 141300Z 11006KT 15SM SCT060 BKN085 14/13 A3003 RMK SC4AC2 FU SLP168=

CYVR;2005-09-14 14:00;METAR CYVR 141400Z 11006KT 15SM SCT060 OVC085 14/12 A3003 RMK SC3AC5 FU SLP169=

CYVR;2005-09-14 15:00;METAR CYVR 141500Z 11007KT 10SM SCT060 OVC085 14/12 A3004 RMK SC4AC4 FU SLP171=

CYVR;2005-09-14 16:00;METAR CYVR 141600Z 11009KT 4SM FU FEW010 SCT055 OVC085 14/12 A3002 RMK SF1SC3AC4 SLP166=

CYVR;2005-09-14 17:00;METAR CYVR 141700Z 11009KT 4SM FU FEW010 SCT065 OVC085 14/13 A3004 RMK SF1SC3AC4 SLP174=

CYVR;2005-09-14 18:00;METAR CYVR 141800Z 13008KT 4SM FU FEW010 SCT065 OVC090 16/13 A3005 RMK SF1SC2AC5 SLP175=

CYVR;2005-09-14 19:00;METAR CYVR 141900Z 14008KT 3SM FU SCT060 OVC095 17/13 A3005 RMK SC4AC4 SLP175=

CYVR;2005-09-14 20:00;METAR CYVR 142000Z 11007KT 4SM FU SCT060 BKN100 18/12 A3004 RMK SC3AC4 SLP173=

CYVR;2005-09-14 21:00;METAR CYVR 142100Z 13007KT 10SM SCT050 BKN095 19/12 A3003 RMK SC3AC4 FU SLP170=

CYVR;2005-09-14 23:00;METAR CYVR 142300Z 15010KT 10SM FEW050 SCT100 BKN210 19/11 A3001 RMK SC2AC2CC2 FU SLP164=

CYVR;2005-09-15 00:00;METAR CYVR 150000Z 18010KT 10SM FEW070 BKN100 BKN210 19/11 A3001 RMK AC2AC2CC2 FU SLP163=

CYVR;2005-09-15 01:00;METAR CYVR 150100Z 14006KT 15SM SCT055 BKN100 18/12 A3000 RMK SC4AC3 FU SLP160=

CYVR;2005-09-15 02:00;METAR CYVR 150200Z 11005KT 15SM BKN048 BKN100 17/12 A2999 RMK SC5AC2 FU SLP157=

CYVR;2005-09-15 03:00;METAR CYVR 150300Z 11007KT 15SM SCT046 BKN090 BKN170 17/12 A3000 RMK SC4AC2AC2 FU SLP158=

CYVR;2005-09-15 04:00;METAR CYVR 150400Z 10005KT 15SM BKN040 BKN090 BKN170 16/13 A3001 RMK SC5AC2AC1 FU SLP161=

CYVR;2005-09-15 06:00;METAR CYVR 150600Z 10003KT 15SM BKN040 BKN090 BKN170 14/12 A3001 RMK SC5AC2AC1 FU SLP163=

CYVR;2005-09-15 09:00;METAR CYVR 150900Z 32003KT 10SM FEW012 FEW020 SCT040 BKN100 14/12 A3002 RMK SC2SC1SC2AC2 FU SLP166=

CYVR;2005-09-15 10:00;METAR CYVR 151000Z 31008KT 12SM FEW012 BKN020 BKN040 BKN100 15/12 A3002 RMK SC2SC3SC1AC2 FU SLP165=

CYVR;2005-09-15 11:00;METAR CYVR 151100Z 30008KT 15SM FEW015 SCT045 BKN080 13/11 A3002 RMK SC2SC2AC2 FU SLP166=

CYVR;2005-09-15 12:00;METAR CYVR 151200Z 30007KT 15SM FEW015 SCT050 BKN070 14/11 A3002 RMK SC2SC2AC2 FU SLP167=

CYVR;2005-09-15 13:00;METAR CYVR 151300Z 29007KT 15SM FEW015 SCT055 BKN070 14/11 A3003 RMK SC1SC3AC2 SLP168=

CYVR;2005-09-15 14:00;METAR CYVR 151400Z 29008KT 15SM FEW015 SCT055 BKN075 14/11 A3004 RMK SC1SC2AC4 FU SLP173=

CYVR;2005-09-15 15:00;METAR CYVR 151500Z 28007KT 10SM FEW020 SCT055 BKN075 14/11 A3005 RMK SC2SC2AC3 FU SLP176=

CYVR;2005-09-15 16:00;METAR CYVR 151600Z 29009KT 10SM FEW017 SCT055 BKN080 15/10 A3006 RMK SC2SC2AC3 FU SLP178=

CYVR;2005-09-15 17:00;METAR CYVR 151700Z 31006KT 10SM FEW017 SCT055 BKN080 16/10 A3006 RMK SC2SC2AC4 FU SLP180=

CYVR;2005-09-15 18:00;METAR CYVR 151800Z 27004KT 10SM FEW015 BKN045 OVC080 15/11 A3007 RMK SC2SC4AC2 FU SLP182=

CYVR;2005-09-15 19:00;METAR CYVR 151900Z 29002KT 10SM FEW015 BKN045 OVC085 15/10 A3006 RMK SC2SC4AC2 FU SLP179=

CYVR;2005-09-15 20:00;METAR CYVR 152000Z 30003KT 15SM FEW015 BKN050 OVC080 15/11 A3006 RMK SC2SC3AC2 FU SLP178=

CYVR;2005-09-15 21:00;METAR CYVR 152100Z 30004KT 15SM FEW020 BKN055 OVC080 16/11 A3006 RMK SC2SC4AC2 FU SLP179=

CYVR;2005-09-15 22:00;METAR CYVR 152200Z 32003KT 15SM FEW020 BKN050 BKN220 17/11 A3005 RMK SC2SC2CC2 FU TCU ASOCTD SLP175=

CYVR;2005-09-15 23:00;METAR CYVR 152300Z 27002KT 15SM FEW020 BKN085 17/11 A3004 RMK SC2AC5 FU TCU ASOCTD SLP172=

CYVR;2005-09-16 00:00;METAR CYVR 160000Z 25004KT 15SM FEW020 BKN080 BKN220 16/11 A3004 RMK SC2AC2CI2 FU TCU ASOCTD SLP171=

CYVR;2005-09-16 01:00;METAR CYVR 160100Z 27002KT 15SM FEW035 BKN090 BKN220 16/11 A3003 RMK SC2AC2CI2 FU TCU ASOCTD SLP169=

CYVR;2005-09-16 04:00;METAR CYVR 160400Z 10005KT 15SM -SHRA FEW030 SCT060 BKN085 OVC130 15/10 A3002 RMK SC2SC2AC2AC2 PCPN VRY LGT SLP165=

CYVR;2005-09-16 04:21;SPECI CYVR 160421Z 09003KT 15SM FEW030 BKN060 BKN085 OVC130 15/ RMK SC2SC2AC2AC1=

CYVR;2005-09-16 05:00;METAR CYVR 160500Z 11006KT 15SM FEW030 SCT060 BKN070 OVC120 15/10 A3002 RMK SC2SC2AC3AC1 SLP165=

CYVR;2005-09-16 06:00;METAR CYVR 160600Z 11003KT 15SM FEW030 SCT055 BKN080 OVC110 15/10 A3001 RMK SC2SC2AC3AC1 SLP164=

CYVR;2005-09-16 07:00;METAR CYVR 160700Z 16002KT 15SM -SHRA FEW030 SCT060 BKN080 OVC100 15/10 A3001 RMK SC2SC2AC2AC2 SLP163=

CYVR;2005-09-16 08:00;METAR CYVR 160800Z 00000KT 15SM -SHRA FEW030 BKN065 OVC090 14/11 A3001 RMK SC2SC4AC2 SLP163=

CYVR;2005-09-16 09:00;METAR CYVR 160900Z 00000KT 15SM -SHRA FEW030 BKN080 OVC100 14/11 A3000 RMK SC2AC3AC2 SLP160=

CYVR;2005-09-16 10:00;METAR CYVR 161000Z 18002KT 15SM -SHRA FEW030 BKN070 OVC130 14/12 A3000 RMK SC2AC3AC2 SLP159=

CYVR;2005-09-16 12:00;METAR CYVR 161200Z 00000KT 10SM -SHRA FEW015 SCT030 BKN055 OVC080 13/12 A3000 RMK SC2SC2SC2AC2 SLP159=

CYVR;2005-09-16 13:00;METAR CYVR 161300Z 08002KT 10SM -SHRA FEW007 SCT030 BKN055 OVC070 13/12 A3000 RMK SF2SC2SC2AC2 SLP160=

CYVR;2005-09-16 14:00;METAR CYVR 161400Z 19002KT 4SM -SHRA FEW007 SCT030 SCT055 OVC075 13/12 A3001 RMK SF2SC2SC1AC4 SLP162=

CYVR;2005-09-16 15:00;METAR CYVR 161500Z 00000KT 4SM -SHRA FEW007 FEW030 SCT055 OVC065 12/11 A3001 RMK SF2SC1SC2SC4 SLP163=

CYVR;2005-09-16 16:28;SPECI CYVR 161628Z 24004KT 4SM -SHRA BKN010 BKN030 OVC055 13/ RMK SF5SC2SC2=

CYVR;2005-09-16 17:00;METAR CYVR 161700Z 32006KT 4SM -SHRA BKN015 BKN030 OVC055 14/13 A3002 RMK SF6SC2SC1 SLP166=

CYVR;2005-09-16 18:00;METAR CYVR 161800Z 32010KT 4SM -SHRA BKN020 OVC035 14/13 A3003 RMK SF6SC2 SLP168=

CYVR;2005-09-16 20:00;METAR CYVR 162000Z 30010KT 10SM FEW015 SCT030 OVC065 14/13 A3003 RMK SF2SC2SC5 RERA SLP169=

CYVR;2005-09-16 21:00;METAR CYVR 162100Z 29011KT 10SM -SHRA SCT010 SCT030 OVC070 14/13 A3003 RMK SF3SC1AC4 RERA SLP169=

CYVR;2005-09-16 21:15;SPECI CYVR 162115Z 29010KT 10SM FEW010 SCT030 OVC070 14/ RMK SF2SC2AC5 RERA=

CYVR;2005-09-16 22:00;METAR CYVR 162200Z 30008KT 10SM SCT030 OVC065 14/12 A3003 RMK SC3SC5 RERA SLP169=

CYVR;2005-09-16 23:00;METAR CYVR 162300Z 30005KT 10SM FEW030 OVC070 15/12 A3003 RMK SC2AC6 RERA SLP169=

CYVR;2005-09-17 00:00;METAR CYVR 170000Z 29002KT 15SM SCT030 BKN070 15/14 A3003 RMK SC3AC4 TCU ASOCTD SLP170=

CYVR;2005-09-17 01:00;METAR CYVR 170100Z 22002KT 15SM FEW010 FEW030 BKN070 15/11 A3003 RMK ST1SC2AC5 TCU ASOCTD SLP170=

CYVR;2005-09-17 02:00;METAR CYVR 170200Z 18002KT 20SM FEW015 FEW030 BKN080 15/11 A3003 RMK SF1SC1AC5 SLP170=

CYVR;2005-09-17 03:00;METAR CYVR 170300Z 16004KT 20SM FEW015 FEW030 BKN088 14/12 A3004 RMK SF1SC2AC4 SLP174=

CYVR;2005-09-17 04:00;METAR CYVR 170400Z 15004KT 20SM FEW015 FEW030 BKN090 14/12 A3005 RMK SF1SC2AC4 SLP177=

CYVR;2005-09-17 06:00;METAR CYVR 170600Z 10004KT 20SM FEW015 SCT090 12/10 A3006 RMK SF1AC3 SLP180=

CYVR;2005-09-17 07:00;METAR CYVR 170700Z 09004KT 20SM FEW015 SCT090 11/11 A3006 RMK SF1AC2 SLP180=

CYVR;2005-09-17 09:00;METAR CYVR 170900Z 10003KT 15SM FEW015 SCT040 BKN090 11/11 A3007 RMK SF1SC2AC2 SLP182=

CYVR;2005-09-17 10:00;METAR CYVR 171000Z 11005KT 15SM FEW015 BKN038 BKN090 12/11 A3007 RMK SF1SC4AC1 SLP184=

CYVR;2005-09-17 12:00;METAR CYVR 171200Z 12004KT 15SM FEW015 BKN047 12/11 A3008 RMK SF1SC5 SLP187=

CYVR;2005-09-17 13:00;METAR CYVR 171300Z 09004KT 10SM FEW012 BKN038 BKN080 12/12 A3009 RMK SF2SC5AC1 SLP190=

CYVR;2005-09-17 14:00;METAR CYVR 171400Z 11004KT 12SM FEW012 OVC036 13/12 A3011 RMK SF2SC6 SLP195=

CYVR;2005-09-17 15:00;METAR CYVR 171500Z 11006KT 12SM FEW015 OVC035 13/12 A3011 RMK SC2SC6 SLP198=

CYVR;2005-09-17 16:00;METAR CYVR 171600Z 14005KT 12SM SCT033 OVC038 13/11 A3012 RMK SC3SC5 SLP201=

CYVR;2005-09-17 17:00;METAR CYVR 171700Z 10004KT 12SM FEW033 OVC040 14/12 A3013 RMK SC2SC5 SLP204=

CYVR;2005-09-17 19:00;METAR CYVR 171900Z 14006KT 15SM FEW045 OVC052 16/10 A3015 RMK SC2SC5 SLP210=

CYVR;2005-09-17 20:00;METAR CYVR 172000Z 17008KT 15SM FEW035 BKN055 18/11 A3015 RMK SC2SC3 SLP210=

CYVR;2005-09-17 21:00;METAR CYVR 172100Z 17004KT 15SM FEW035 BKN055 18/10 A3014 RMK SC2SC1 SLP208=

CYVR;2005-09-17 22:00;METAR CYVR 172200Z 22005KT 15SM FEW035 SCT055 19/11 A3013 RMK SC2SC1 SLP204=

CYVR;2005-09-17 23:00;METAR CYVR 172300Z 24006KT 15SM FEW035 18/12 A3013 RMK SC2 SLP204=

CYVR;2005-09-18 01:00;METAR CYVR 180100Z 22006KT 15SM FEW040 18/10 A3012 RMK SC1 SLP200=

CYVR;2005-09-18 02:00;METAR CYVR 180200Z 19005KT 15SM FEW035 FEW055 16/11 A3012 RMK SC1SC1 SLP200=

CYVR;2005-09-18 03:00;METAR CYVR 180300Z 15003KT 15SM FEW040 FEW060 15/11 A3012 RMK SC1SC1 SLP201=

CYVR;2005-09-18 04:00;METAR CYVR 180400Z 09005KT 15SM FEW040 FEW060 13/11 A3014 RMK SC1SC1 SLP205=

CYVR;2005-09-18 06:00;METAR CYVR 180600Z 09006KT 15SM BKN057 12/11 A3013 RMK SC6 SLP202=

CYVR;2005-09-18 08:00;METAR CYVR 180800Z 10007KT 15SM BKN061 12/10 A3013 RMK SC6 SLP202=

CYVR;2005-09-18 09:00;METAR CYVR 180900Z 10008KT 15SM SCT061 13/10 A3012 RMK SC4 SLP200=

CYVR;2005-09-18 10:00;METAR CYVR 181000Z 11006KT 15SM SCT060 11/09 A3011 RMK SC3 SLP198=

CYVR;2005-09-18 11:00;METAR CYVR 181100Z 10006KT 15SM SCT060 10/09 A3011 RMK SC3 SLP196=

CYVR;2005-09-18 12:00;METAR CYVR 181200Z 09006KT 15SM BKN064 11/10 A3010 RMK SC6 SLP194=

CYVR;2005-09-18 13:00;METAR CYVR 181300Z 10006KT 15SM SCT064 10/09 A3010 RMK SC4 SLP193=

CYVR;2005-09-18 14:00;METAR CYVR 181400Z 09005KT 15SM FEW065 FEW220 10/09 A3011 RMK SC2CC0 SLP198=

CYVR;2005-09-18 15:00;METAR CYVR 181500Z 13007KT 15SM SCT065 BKN079 13/11 A3013 RMK SC3AC2 SLP202=

CYVR;2005-09-18 16:00;METAR CYVR 181600Z 10007KT 15SM FEW060 BKN077 13/11 A3013 RMK SC2AC4 SLP202=

CYVR;2005-09-18 17:00;METAR CYVR 181700Z 13009G16KT 15SM FEW040 SCT077 15/11 A3012 RMK SC1AC2 SLP199=

CYVR;2005-09-18 18:00;METAR CYVR 181800Z 14009KT 15SM FEW035 BKN077 16/11 A3012 RMK CU1AC2 SLP199=

CYVR;2005-09-18 19:00;METAR CYVR 181900Z 15006KT 15SM FEW035 FEW075 FEW220 17/10 A3013 RMK CU1AC1CC1 SLP202=

CYVR;2005-09-18 20:00;METAR CYVR 182000Z 13008KT 15SM FEW035 FEW075 FEW220 18/10 A3012 RMK CU1AC1CC0 SLP200=

CYVR;2005-09-18 21:00;METAR CYVR 182100Z 16006KT 20SM FEW035 FEW075 FEW220 19/10 A3011 RMK CU1AC0CC0 SLP197=

CYVR;2005-09-18 22:00;METAR CYVR 182200Z 17006KT 30SM FEW035 FEW075 BKN200 19/10 A3009 RMK CU1AC1CC4 TR AC SLP191=

CYVR;2005-09-19 00:00;METAR CYVR 190000Z 18006KT 30SM FEW040 SCT200 BKN240 20/10 A3008 RMK CU1CC2CI2 SLP186=

CYVR;2005-09-19 01:00;METAR CYVR 190100Z 16005KT 30SM FEW040 SCT180 BKN220 18/09 A3006 RMK CU1AC1CI2 SLP180=

CYVR;2005-09-19 03:00;METAR CYVR 190300Z 10008KT 20SM FEW059 BKN080 OVC230 14/10 A3005 RMK SC2AC2CI0 SLP177=

CYVR;2005-09-19 04:00;METAR CYVR 190400Z 12008KT 20SM FEW060 SCT080 BKN210 14/10 A3005 RMK SC1AC2CI0 SLP177=

CYVR;2005-09-19 05:00;METAR CYVR 190500Z 11010KT 20SM FEW080 BKN220 14/10 A3005 RMK AC2CI1 SLP177=

CYVR;2005-09-19 07:00;METAR CYVR 190700Z 10009KT 20SM BKN093 13/10 A3004 RMK AC7 SLP174=

CYVR;2005-09-19 08:00;METAR CYVR 190800Z 10009KT 20SM BKN084 14/10 A3005 RMK AC7 SLP177=

CYVR;2005-09-19 09:00;METAR CYVR 190900Z 11009KT 20SM OVC069 14/10 A3005 RMK AC8 SLP175=

CYVR;2005-09-19 10:00;METAR CYVR 191000Z 09009KT 20SM OVC066 13/10 A3004 RMK AC8 SLP174=

CYVR;2005-09-19 11:00;METAR CYVR 191100Z 09008KT 20SM OVC058 13/11 A3005 RMK SC8 SLP176=

CYVR;2005-09-19 12:00;METAR CYVR 191200Z 10009KT 20SM BKN047 OVC080 13/11 A3005 RMK SC6AC2 SLP176=

CYVR;2005-09-19 12:21;SPECI CYVR 191221Z 11011KT 15SM -SHRA BKN058 OVC100 13/ RMK SC6AC2=

CYVR;2005-09-19 12:40;SPECI CYVR 191240Z 11009KT 15SM BKN044 OVC100 13/ RMK SC6AC2=

CYVR;2005-09-19 13:00;METAR CYVR 191300Z 10010KT 15SM BKN039 OVC100 12/11 A3006 RMK SC6AC2 SLP181=

CYVR;2005-09-19 14:00;METAR CYVR 191400Z 10012KT 15SM BKN037 BKN070 12/11 A3007 RMK SC3AC1 SLP182=

CYVR;2005-09-19 15:00;METAR CYVR 191500Z 10010KT 15SM FEW037 BKN057 OVC070 13/11 A3009 RMK SC2SC3AC2 SLP188=

CYVR;2005-09-19 16:00;METAR CYVR 191600Z 09011KT 15SM FEW037 BKN057 OVC070 13/11 A3009 RMK SC2SC3AC2 SLP190=

CYVR;2005-09-19 17:00;METAR CYVR 191700Z 10012KT 15SM -SHRA BKN035 OVC055 14/12 A3011 RMK SC6SC2 PCPN VRY LGT SLP195=

CYVR;2005-09-19 17:42;SPECI CYVR 191742Z 10013KT 15SM BKN035 OVC070 14/ RMK SC6AC2=

CYVR;2005-09-19 18:00;METAR CYVR 191800Z 10013KT 15SM BKN029 OVC035 14/12 A3011 RMK SC5SC3 SLP197=

CYVR;2005-09-19 20:00;METAR CYVR 192000Z 10008KT 15SM FEW016 BKN035 BKN070 16/12 A3013 RMK SC2SC3AC1 SLP202=

CYVR;2005-09-19 21:00;METAR CYVR 192100Z 04004KT 15SM FEW020 BKN064 BKN200 17/12 A3013 RMK SC2SC2CC1 SLP203=

CYVR;2005-09-19 22:00;METAR CYVR 192200Z 30003KT 15SM SCT025 BKN070 20/11 A3014 RMK CU2AC1 SLP205=

CYVR;2005-09-19 23:00;METAR CYVR 192300Z 24007KT 15SM FEW030 FEW070 19/11 A3014 RMK CU1AC1 TCU ASCOT SLP205=

CYVR;2005-09-20 00:00;METAR CYVR 200000Z 25007KT 15SM FEW035 BKN095 17/12 A3014 RMK SC1AC3 SLP206=

CYVR;2005-09-20 01:00;METAR CYVR 200100Z 27003KT 15SM FEW040 BKN095 17/11 A3014 RMK SC1AC3 SLP205=

CYVR;2005-09-20 02:00;METAR CYVR 200200Z 29004KT 15SM BKN092 16/11 A3013 RMK AC7 SLP204=

CYVR;2005-09-20 03:00;METAR CYVR 200300Z 31002KT 15SM SCT064 BKN089 15/12 A3015 RMK SC3AC4 SLP209=

CYVR;2005-09-20 04:00;METAR CYVR 200400Z 31004KT 15SM SCT060 BKN089 14/12 A3016 RMK SC3AC4 SLP213=

CYVR;2005-09-20 05:00;METAR CYVR 200500Z 02003KT 15SM SCT088 14/11 A3017 RMK AC4 SLP216=

CYVR;2005-09-20 06:00;METAR CYVR 200600Z 36002KT 15SM SCT057 BKN090 14/11 A3017 RMK SC3AC4 SLP218=

CYVR;2005-09-20 07:00;METAR CYVR 200700Z 00000KT 15SM FEW060 BKN180 13/11 A3017 RMK SC2AC2 SLP218=

CYVR;2005-09-20 08:00;METAR CYVR 200800Z 00000KT 15SM FEW060 SCT180 13/10 A3018 RMK SC1AC2 SLP220=

CYVR;2005-09-20 09:00;METAR CYVR 200900Z 00000KT 15SM FEW015 BKN076 12/10 A3019 RMK SC2AC6 SLP223=

CYVR;2005-09-20 10:00;METAR CYVR 201000Z 08002KT 15SM FEW015 BKN072 12/10 A3019 RMK SC2AC3 SLP222=

CYVR;2005-09-20 11:00;METAR CYVR 201100Z 28004KT 15SM SCT070 11/09 A3019 RMK AC3 SLP224=

CYVR;2005-09-20 12:00;METAR CYVR 201200Z 28007KT 15SM SCT060 10/09 A3020 RMK SC3 SLP227=

CYVR;2005-09-20 13:00;METAR CYVR 201300Z 09003KT 15SM FEW060 SCT150 09/08 A3021 RMK SC2AC1 SLP231=

CYVR;2005-09-20 14:00;METAR CYVR 201400Z 03002KT 15SM MIFG FEW015 BKN073 11/10 A3023 RMK SF1AC3 VIS LWR NE - E QUAD 10 SM SLP237=

CYVR;2005-09-20 14:24;SPECI CYVR 201424Z 00000KT 15SM FEW015 BKN073 11/ RMK SC2AC2=

CYVR;2005-09-20 15:00;METAR CYVR 201500Z 00000KT 15SM SCT015 BKN073 11/10 A3024 RMK SC2AC2 SLP242=

CYVR;2005-09-20 16:00;METAR CYVR 201600Z 29010KT 15SM FEW015 FEW025 13/11 A3026 RMK SC1CU1 SLP246=

CYVR;2005-09-20 17:00;METAR CYVR 201700Z 32008KT 15SM FEW015 FEW025 14/10 A3027 RMK SF1CU1 SLP251=

CYVR;2005-09-20 18:00;METAR CYVR 201800Z 31005KT 15SM FEW018 15/11 A3028 RMK CU2 SLP253=

CYVR;2005-09-20 19:00;METAR CYVR 201900Z 28006KT 15SM FEW015 SCT025 15/11 A3029 RMK CF1CU1 SLP257=

CYVR;2005-09-20 20:00;METAR CYVR 202000Z 27008KT 20SM FEW020 FEW025 17/12 A3029 RMK CF1SC1 TR CF SLP256=

CYVR;2005-09-20 21:00;METAR CYVR 202100Z 25009KT 20SM FEW030 FEW035 17/11 A3028 RMK CF1SC1 TR CF SLP253=

CYVR;2005-09-20 22:00;METAR CYVR 202200Z 27013KT 30SM FEW040 18/10 A3027 RMK CU1 SLP249=

CYVR;2005-09-20 23:00;METAR CYVR 202300Z 26007KT 30SM FEW040 18/08 A3026 RMK CU1 SLP246=

CYVR;2005-09-21 00:00;METAR CYVR 210000Z 25009KT 30SM FEW040 18/08 A3025 RMK CU1 SLP243=

CYVR;2005-09-21 03:00;METAR CYVR 210300Z 28014KT 30SM FEW050 14/10 A3025 RMK SC1 SLP245=

CYVR;2005-09-21 04:00;METAR CYVR 210400Z 28015KT 30SM FEW050 14/10 A3026 RMK SC1 SLP246=

CYVR;2005-09-21 05:00;METAR CYVR 210500Z 29018KT 30SM FEW050 14/11 A3026 RMK SC1 SLP246=

CYVR;2005-09-21 06:00;METAR CYVR 210600Z 30018KT 30SM FEW050 14/11 A3027 RMK SC1 SLP251=

CYVR;2005-09-21 07:00;METAR CYVR 210700Z 01004KT 20SM FEW060 12/08 A3028 RMK SC1 SLP255=

CYVR;2005-09-21 09:00;METAR CYVR 210900Z 09003KT 20SM SKC 09/07 A3029 RMK SLP258=

CYVR;2005-09-21 10:00;METAR CYVR 211000Z 08005KT 20SM SKC 10/08 A3029 RMK SLP256=

CYVR;2005-09-21 11:00;METAR CYVR 211100Z 00000KT 20SM SKC 09/08 A3029 RMK SLP257=

CYVR;2005-09-21 12:00;METAR CYVR 211200Z 12002KT 20SM SKC 09/08 A3029 RMK SLP257=

CYVR;2005-09-21 13:00;METAR CYVR 211300Z 11002KT 20SM FEW050 09/08 A3030 RMK SC1 SLP259=

CYVR;2005-09-21 13:37;SPECI CYVR 211337Z 00000KT 20SM MIFG FEW050 08/ RMK SF1=

CYVR;2005-09-21 13:55;SPECI CYVR 211355Z 00000KT 20SM FEW050 08/ RMK SF1=

CYVR;2005-09-21 14:00;METAR CYVR 211400Z 00000KT 30SM FEW022 FEW050 FEW220 09/07 A3030 RMK SF1SF1CI0 TR SF SLP260=

CYVR;2005-09-21 16:00;METAR CYVR 211600Z 00000KT 30SM FEW024 SCT220 12/08 A3030 RMK SC1CI1 TR SC SLP259=

CYVR;2005-09-21 17:00;METAR CYVR 211700Z 30007KT 30SM FEW025 BKN220 14/09 A3029 RMK SC1CI1 SLP256=

CYVR;2005-09-21 18:00;METAR CYVR 211800Z 29011KT 30SM FEW035 FEW180 BKN240 15/07 A3028 RMK CF1AC1CI1 TR CF SLP253=

CYVR;2005-09-21 20:00;METAR CYVR 212000Z 29012KT 30SM FEW040 SCT190 BKN240 15/09 A3026 RMK CF0AC1CI1 SLP246=

CYVR;2005-09-21 21:00;METAR CYVR 212100Z 29011KT 30SM FEW040 FEW190 BKN240 15/10 A3024 RMK CU0AC1CI1 SLP239=

CYVR;2005-09-21 22:00;METAR CYVR 212200Z 32011KT 30SM FEW040 SCT190 BKN220 17/10 A3021 RMK CU0AC1CI1 SLP230=

CYVR;2005-09-21 23:00;METAR CYVR 212300Z 29018KT 30SM FEW040 SCT190 BKN240 16/10 A3019 RMK CU0AC1CI1 SLP222=

CYVR;2005-09-22 00:00;METAR CYVR 220000Z 29008KT 30SM FEW040 BKN240 15/10 A3017 RMK CU1CI1 SLP216=

CYVR;2005-09-22 01:00;METAR CYVR 220100Z 28010KT 30SM FEW040 SCT240 15/11 A3015 RMK CU0CI2 SLP211=

CYVR;2005-09-22 02:00;METAR CYVR 220200Z 28009KT 30SM FEW040 SCT240 13/10 A3014 RMK CU1CI2 SLP205=

CYVR;2005-09-22 03:00;METAR CYVR 220300Z 29012KT 20SM FEW040 SCT240 14/09 A3014 RMK CU1CI2 SLP205=

CYVR;2005-09-22 04:00;METAR CYVR 220400Z 28008KT 20SM FEW040 SCT240 13/09 A3014 RMK CU1CI2 SLP206=

CYVR;2005-09-22 05:00;METAR CYVR 220500Z 27011KT 20SM SCT240 13/09 A3014 RMK CI3 SLP205=

CYVR;2005-09-22 06:00;METAR CYVR 220600Z 27011KT 20SM FEW240 13/09 A3014 RMK CI2 SLP205=

CYVR;2005-09-22 07:00;METAR CYVR 220700Z 28008KT 20SM FEW240 13/10 A3013 RMK CI2 SLP204=

CYVR;2005-09-22 08:00;METAR CYVR 220800Z 36005KT 15SM FEW240 11/07 A3013 RMK CI2 SLP203=

CYVR;2005-09-22 09:00;METAR CYVR 220900Z 02003KT 15SM FEW240 09/08 A3014 RMK CI2 SLP206=

CYVR;2005-09-22 10:00;METAR CYVR 221000Z 03003KT 15SM FEW240 09/07 A3014 RMK CI2 SLP207=

CYVR;2005-09-22 11:00;METAR CYVR 221100Z 04004KT 15SM FEW240 08/07 A3014 RMK CI2 SLP208=

CYVR;2005-09-22 12:00;METAR CYVR 221200Z 00000KT 15SM FEW150 08/06 A3015 RMK AC2 SLP209=

CYVR;2005-09-22 13:00;METAR CYVR 221300Z 08006KT 15SM FEW150 07/05 A3014 RMK AC2 SLP208=

CYVR;2005-09-22 14:00;METAR CYVR 221400Z 00000KT 20SM FEW035 FEW150 08/05 A3016 RMK SF1AC1 SLP212=

CYVR;2005-09-22 15:00;METAR CYVR 221500Z 06002KT 20SM SCT029 SCT220 09/07 A3017 RMK SC3CI0 SLP216=

CYVR;2005-09-22 16:00;METAR CYVR 221600Z 34003KT 20SM BKN032 11/07 A3018 RMK SC5 SLP220=

CYVR;2005-09-22 17:00;METAR CYVR 221700Z 32003KT 20SM FEW029 BKN034 12/07 A3019 RMK CF1SC4 SLP225=

CYVR;2005-09-22 18:00;METAR CYVR 221800Z 28007KT 30SM FEW030 FEW035 14/09 A3019 RMK CU1SC1 SLP225=

CYVR;2005-09-22 19:00;METAR CYVR 221900Z 29007KT 30SM FEW035 FEW040 14/09 A3019 RMK CF1CU1 SLP223=

CYVR;2005-09-22 20:00;METAR CYVR 222000Z 28010KT 30SM FEW035 FEW040 14/09 A3018 RMK CF1CU1 SLP219=

CYVR;2005-09-22 21:00;METAR CYVR 222100Z 28008KT 30SM FEW040 FEW100 14/09 A3016 RMK CU1AC0 TCU ASOCT SLP214=

CYVR;2005-09-22 23:00;METAR CYVR 222300Z 31009KT 30SM FEW040 FEW100 15/10 A3013 RMK CU1AC1 TCU ASOCT SLP203=

CYVR;2005-09-23 00:00;METAR CYVR 230000Z 30008KT 30SM FEW040 15/09 A3011 RMK CU1 TCU ASOCT SLP196=

CYVR;2005-09-23 01:00;METAR CYVR 230100Z 31008KT 30SM FEW040 14/10 A3010 RMK CU1 SLP193=

CYVR;2005-09-23 02:00;METAR CYVR 230200Z 31003KT 30SM FEW040 FEW100 13/10 A3010 RMK CU2AC1 SLP192=

CYVR;2005-09-23 03:00;METAR CYVR 230300Z 31008KT 30SM FEW040 FEW100 12/10 A3010 RMK CU1AC1 SLP192=

CYVR;2005-09-23 04:00;METAR CYVR 230400Z 31008KT 30SM FEW100 12/10 A3010 RMK AC1 SLP194=

CYVR;2005-09-23 05:00;METAR CYVR 230500Z 31010KT 30SM FEW220 12/10 A3008 RMK CI1 SLP186=

CYVR;2005-09-23 07:00;METAR CYVR 230700Z 09003KT 30SM FEW220 11/08 A3012 RMK CI1 SLP199=

CYVR;2005-09-23 08:00;METAR CYVR 230800Z 28002KT 30SM FEW220 10/07 A3012 RMK CI1 SLP199=

CYVR;2005-09-23 09:00;METAR CYVR 230900Z 01002KT 30SM FEW220 09/06 A3012 RMK CI1 SLP201=

CYVR;2005-09-23 10:00;METAR CYVR 231000Z 01003KT 30SM FEW220 08/06 A3011 RMK CI1 SLP198=

CYVR;2005-09-23 11:00;METAR CYVR 231100Z 35004KT 30SM FEW220 08/06 A3011 RMK CI1 SLP198=

CYVR;2005-09-23 12:00;METAR CYVR 231200Z 31011KT 20SM FEW220 08/06 A3011 RMK CI1 SLP198=

CYVR;2005-09-23 13:00;METAR CYVR 231300Z 31010KT 20SM FEW220 09/08 A3012 RMK CI1 SLP201=

CYVR;2005-09-23 14:00;METAR CYVR 231400Z 31011KT 30SM FEW020 FEW220 09/07 A3013 RMK SC1CI0 SLP203=

CYVR;2005-09-23 16:00;METAR CYVR 231600Z 32013G18KT 30SM FEW020 12/10 A3014 RMK SC1 SLP208=

CYVR;2005-09-23 17:00;METAR CYVR 231700Z 31015KT 30SM FEW020 13/09 A3015 RMK CU1 SLP210=

CYVR;2005-09-23 18:00;METAR CYVR 231800Z 31015KT 30SM FEW020 14/10 A3015 RMK CU1 SLP209=

CYVR;2005-09-23 19:00;METAR CYVR 231900Z 30016KT 30SM FEW020 14/09 A3014 RMK CU1 SLP206=

CYVR;2005-09-23 21:00;METAR CYVR 232100Z 30014KT 30SM FEW025 FEW220 15/10 A3013 RMK CU1CI0 SLP202=

CYVR;2005-09-23 22:00;METAR CYVR 232200Z 30016KT 30SM FEW035 FEW220 16/11 A3011 RMK CU1CI0 SLP198=

CYVR;2005-09-23 23:00;METAR CYVR 232300Z 29014KT 30SM FEW035 FEW240 16/11 A3009 RMK CU1CI0 SLP191=

CYVR;2005-09-24 00:00;METAR CYVR 240000Z 30013KT 30SM FEW040 SCT230 15/10 A3008 RMK CU1CI2 SLP185=

CYVR;2005-09-24 01:00;METAR CYVR 240100Z 30010KT 30SM FEW230 15/10 A3007 RMK CI1 SLP184=

CYVR;2005-09-24 02:00;METAR CYVR 240200Z 30008KT 30SM FEW230 13/10 A3007 RMK CI2 SLP183=

CYVR;2005-09-24 03:00;METAR CYVR 240300Z 31008KT 20SM FEW230 13/10 A3007 RMK CI1 SLP183=

CYVR;2005-09-24 04:00;METAR CYVR 240400Z 32009KT 20SM FEW230 13/11 A3008 RMK CI1 SLP186=

CYVR;2005-09-24 05:00;METAR CYVR 240500Z 31009KT 20SM FEW230 13/10 A3009 RMK CI1 SLP188=

CYVR;2005-09-24 06:00;METAR CYVR 240600Z 31008KT 20SM FEW230 11/10 A3009 RMK CI1 SLP188=

CYVR;2005-09-24 08:00;METAR CYVR 240800Z 30002KT 20SM FEW230 11/09 A3012 RMK CI1 SLP199=

CYVR;2005-09-24 09:00;METAR CYVR 240900Z 33004KT 20SM FEW230 09/08 A3013 RMK CI1 SLP202=

CYVR;2005-09-24 10:00;METAR CYVR 241000Z 36003KT 20SM FEW230 09/07 A3014 RMK CI1 SLP205=

CYVR;2005-09-24 11:00;METAR CYVR 241100Z 04003KT 20SM FEW230 08/06 A3013 RMK CI1 SLP204=

CYVR;2005-09-24 12:00;METAR CYVR 241200Z 00000KT 20SM FEW230 08/06 A3014 RMK CI1 SLP205=

CYVR;2005-09-24 13:00;METAR CYVR 241300Z 03002KT 30SM FEW230 07/05 A3015 RMK CI1 SLP209=

CYVR;2005-09-24 14:00;METAR CYVR 241400Z 35003KT 30SM FEW230 08/06 A3016 RMK CI1 SLP214=

CYVR;2005-09-24 15:00;METAR CYVR 241500Z 36005KT 30SM FEW230 10/07 A3017 RMK CI1 SLP216=

CYVR;2005-09-24 16:00;METAR CYVR 241600Z 34005KT 30SM FEW020 FEW230 12/09 A3018 RMK SC1CI0 TR SC SLP220=

CYVR;2005-09-24 17:00;METAR CYVR 241700Z 31009KT 30SM FEW240 13/09 A3019 RMK CI0 SLP223=

CYVR;2005-09-24 18:00;METAR CYVR 241800Z 30010KT 30SM FEW240 14/10 A3018 RMK CI1 SLP220=

CYVR;2005-09-24 19:00;METAR CYVR 241900Z 30016KT 30SM FEW240 15/11 A3018 RMK CI1 SLP221=

CYVR;2005-09-24 21:00;METAR CYVR 242100Z 30014KT 30SM FEW240 16/11 A3017 RMK CI1 SLP216=

CYVR;2005-09-24 22:00;METAR CYVR 242200Z 30014KT 30SM FEW240 16/11 A3015 RMK CI1 SLP209=

CYVR;2005-09-24 23:00;METAR CYVR 242300Z 30011KT 30SM FEW240 16/11 A3014 RMK CI1 SLP207=

CYVR;2005-09-25 00:00;METAR CYVR 250000Z 29006KT 30SM FEW240 16/09 A3013 RMK CI1 SLP202=

CYVR;2005-09-25 01:00;METAR CYVR 250100Z 24004KT 30SM BKN240 15/10 A3013 RMK CI2 SLP203=

CYVR;2005-09-25 03:00;METAR CYVR 250300Z 27002KT 30SM FEW230 14/11 A3013 RMK CI2 HZ SLP203=

CYVR;2005-09-25 04:00;METAR CYVR 250400Z 22003KT 30SM FEW240 14/11 A3014 RMK CI1 SLP206=

CYVR;2005-09-25 05:00;METAR CYVR 250500Z 29003KT 30SM FEW240 12/09 A3014 RMK CI1 SLP206=

CYVR;2005-09-25 06:00;METAR CYVR 250600Z 07002KT 30SM FEW240 11/09 A3014 RMK CI1 SLP208=

CYVR;2005-09-25 08:00;METAR CYVR 250800Z 09007KT 20SM FEW240 09/08 A3015 RMK CI1 SLP211=

CYVR;2005-09-25 09:00;METAR CYVR 250900Z 36004KT 20SM FEW240 10/09 A3016 RMK CI1 SLP213=

CYVR;2005-09-25 10:00;METAR CYVR 251000Z 03004KT 20SM FEW240 09/08 A3016 RMK CI1 SLP214=

CYVR;2005-09-25 10:37;SPECI CYVR 251037Z 36004KT 20SM MIFG FEW240 09/ RMK CI1=

CYVR;2005-09-25 11:00;METAR CYVR 251100Z 01003KT 20SM MIFG FEW240 09/09 A3017 RMK CI1 SLP215=

CYVR;2005-09-25 12:00;METAR CYVR 251200Z 00000KT 20SM MIFG FEW240 09/08 A3017 RMK CI1 SLP216=

CYVR;2005-09-25 13:00;METAR CYVR 251300Z 01003KT 20SM SKC 07/07 A3017 RMK SLP217=

CYVR;2005-09-25 14:00;METAR CYVR 251400Z 03003KT 15SM FEW015 08/08 A3019 RMK SC2 SLP222=

CYVR;2005-09-25 15:00;METAR CYVR 251500Z 02004KT 15SM BKN016 10/09 A3019 RMK SC7 SLP225=

CYVR;2005-09-25 16:00;METAR CYVR 251600Z 36002KT 15SM BKN018 12/09 A3021 RMK SC6 SLP229=

CYVR;2005-09-25 16:34;SPECI CYVR 251634Z 00000KT 20SM BKN020 13/ RMK SC4=

CYVR;2005-09-25 17:00;METAR CYVR 251700Z 29003KT 20SM BKN020 13/09 A3021 RMK SC6 SLP230=

CYVR;2005-09-25 18:00;METAR CYVR 251800Z 27004KT 20SM SCT020 15/09 A3022 RMK SC3 SLP232=

CYVR;2005-09-25 19:00;METAR CYVR 251900Z 24007KT 20SM FEW030 16/10 A3021 RMK SC2 SLP230=

CYVR;2005-09-25 20:00;METAR CYVR 252000Z 27008KT 20SM FEW030 16/10 A3021 RMK CU1 SLP229=

CYVR;2005-09-25 21:00;METAR CYVR 252100Z 30005KT 20SM FEW030 FEW240 17/10 A3019 RMK SC1CI0 TR SC SLP224=

CYVR;2005-09-25 22:00;METAR CYVR 252200Z 26007KT 20SM FEW240 16/10 A3019 RMK CI1 SLP222=

CYVR;2005-09-25 23:00;METAR CYVR 252300Z 26008KT 20SM BKN240 16/10 A3018 RMK CI1 SLP219=

CYVR;2005-09-26 00:00;METAR CYVR 260000Z 27005KT 20SM BKN220 16/10 A3017 RMK CI1 SLP215=

CYVR;2005-09-26 01:00;METAR CYVR 260100Z 28003KT 20SM BKN220 15/11 A3015 RMK CI2 SLP210=

CYVR;2005-09-26 02:00;METAR CYVR 260200Z 31004KT 30SM BKN240 13/10 A3015 RMK CI1 SLP209=

CYVR;2005-09-26 03:00;METAR CYVR 260300Z 30003KT 30SM SCT240 13/10 A3014 RMK CI2 SLP206=

CYVR;2005-09-26 04:00;METAR CYVR 260400Z 33004KT 30SM SCT240 11/09 A3014 RMK CI2 SLP206=

CYVR;2005-09-26 05:00;METAR CYVR 260500Z 32004KT 30SM SCT240 12/09 A3014 RMK CI2 SLP207=

CYVR;2005-09-26 06:00;METAR CYVR 260600Z 36002KT 30SM SCT240 11/09 A3013 RMK CI2 SLP204=

CYVR;2005-09-26 09:00;METAR CYVR 260900Z 00000KT 30SM SCT230 11/09 A3011 RMK CI2 SLP196=

CYVR;2005-09-26 10:00;METAR CYVR 261000Z 00000KT 20SM FEW230 10/09 A3010 RMK CI2 SLP193=

CYVR;2005-09-26 12:00;METAR CYVR 261200Z 00000KT 20SM SCT220 10/09 A3007 RMK CI2 SLP183=

CYVR;2005-09-26 13:00;METAR CYVR 261300Z 01002KT 20SM FEW220 09/08 A3006 RMK CI2 SLP179=

CYVR;2005-09-26 14:00;METAR CYVR 261400Z 36002KT 20SM MIFG FEW220 09/08 A3006 RMK CI2 SLP180=

CYVR;2005-09-26 15:00;METAR CYVR 261500Z 00000KT 20SM FEW220 10/08 A3006 RMK CI1 SLP181=

CYVR;2005-09-26 16:00;METAR CYVR 261600Z 10003KT 30SM BKN210 13/09 A3006 RMK CI1 SLP178=

CYVR;2005-09-26 17:00;METAR CYVR 261700Z 12004KT 30SM BKN210 14/10 A3005 RMK CI2 SLP176=

CYVR;2005-09-26 18:00;METAR CYVR 261800Z 13002KT 30SM BKN210 16/10 A3006 RMK CI2 SLP178=

CYVR;2005-09-26 19:00;METAR CYVR 261900Z 23006KT 30SM FEW140 BKN210 18/10 A3003 RMK AC1CI2 SLP169=

CYVR;2005-09-26 20:00;METAR CYVR 262000Z 22008KT 30SM FEW140 FEW210 19/10 A3001 RMK AC1CI1 SLP164=

CYVR;2005-09-26 21:00;METAR CYVR 262100Z 22010KT 30SM FEW140 FEW210 19/10 A3001 RMK AC1CI1 SLP161=

CYVR;2005-09-26 22:00;METAR CYVR 262200Z 28006G15KT 30SM FEW140 FEW210 20/10 A2999 RMK AC1CI2 SLP156=

CYVR;2005-09-26 23:00;METAR CYVR 262300Z 27008KT 30SM FEW045 SCT080 17/11 A2999 RMK SC1AC3 SLP155=

CYVR;2005-09-27 00:00;METAR CYVR 270000Z 25005KT 30SM FEW045 FEW070 17/11 A2998 RMK SC2AC1 SLP154=

CYVR;2005-09-27 01:00;METAR CYVR 270100Z 29005KT 30SM FEW040 FEW070 FEW220 16/11 A2998 RMK SC1AC1CI0 SLP153=

CYVR;2005-09-27 02:00;METAR CYVR 270200Z 31007KT 30SM FEW040 FEW070 SCT240 14/11 A2998 RMK SC1AC1CI1 SLP154=

CYVR;2005-09-27 03:00;METAR CYVR 270300Z 29006KT 30SM FEW040 FEW080 FEW240 13/11 A2999 RMK SC1AC1CI0 SLP157=

CYVR;2005-09-27 04:00;METAR CYVR 270400Z 30006KT 30SM FEW070 FEW240 13/12 A3000 RMK AC1CI1 SLP160=

CYVR;2005-09-27 06:00;METAR CYVR 270600Z 30011KT 20SM FEW080 FEW240 13/11 A3002 RMK AC1CI1 SLP166=

CYVR;2005-09-27 08:00;METAR CYVR 270800Z 31012KT 20SM FEW220 12/11 A3004 RMK CI1 SLP174=

CYVR;2005-09-27 09:00;METAR CYVR 270900Z 30012KT 20SM FEW220 12/10 A3006 RMK CI1 SLP180=

CYVR;2005-09-27 10:00;METAR CYVR 271000Z 30013KT 20SM FEW220 12/10 A3007 RMK CI1 SLP183=

CYVR;2005-09-27 11:00;METAR CYVR 271100Z 31016KT 20SM SCT059 12/10 A3009 RMK SC4 SLP188=

CYVR;2005-09-27 12:00;METAR CYVR 271200Z 31013KT 20SM SCT060 11/10 A3010 RMK SC3 SLP192=

CYVR;2005-09-27 13:00;METAR CYVR 271300Z 32009KT 20SM FEW018 FEW060 SCT220 11/10 A3011 RMK SC1SC1CI1 SLP198=

CYVR;2005-09-27 14:00;METAR CYVR 271400Z 32010KT 15SM BKN015 BKN070 11/10 A3014 RMK SC6AC1 SLP205=

CYVR;2005-09-27 15:00;METAR CYVR 271500Z 30009KT 20SM FEW015 FEW090 11/10 A3016 RMK SC1AC1 SLP212=

CYVR;2005-09-27 16:00;METAR CYVR 271600Z 32010KT 20SM FEW012 13/11 A3017 RMK SC1 CU ASOCTD SLP217=

CYVR;2005-09-27 17:00;METAR CYVR 271700Z 31009KT 20SM FEW012 14/11 A3019 RMK SC1 CU ASOCTD SLP224=

CYVR;2005-09-27 18:00;METAR CYVR 271800Z 30010KT 20SM FEW030 15/11 A3020 RMK SC1 SLP228=

CYVR;2005-09-27 20:00;METAR CYVR 272000Z 31010KT 20SM FEW030 16/10 A3022 RMK SC1 SLP234=

CYVR;2005-09-27 21:00;METAR CYVR 272100Z 29008KT 20SM FEW030 16/10 A3022 RMK SC1 SLP234=

CYVR;2005-09-27 23:00;METAR CYVR 272300Z 29006KT 20SM FEW040 17/11 A3022 RMK SC1 TR SC SLP234=

CYVR;2005-09-28 00:00;METAR CYVR 280000Z 30003KT 20SM FEW040 FEW230 16/11 A3022 RMK SC1CI0 TR SC SLP233=

CYVR;2005-09-28 01:00;METAR CYVR 280100Z 24005KT 20SM FEW230 15/12 A3022 RMK CI0 SLP235=

CYVR;2005-09-28 02:00;METAR CYVR 280200Z 23003KT 30SM FEW240 14/11 A3023 RMK CI1 SLP238=

CYVR;2005-09-28 03:00;METAR CYVR 280300Z 29002KT 30SM FEW240 13/12 A3025 RMK CI1 SLP244=

CYVR;2005-09-28 04:00;METAR CYVR 280400Z 09004KT 30SM FEW240 11/10 A3026 RMK CI1 SLP247=

CYVR;2005-09-28 05:00;METAR CYVR 280500Z 09006KT 30SM FEW240 11/10 A3027 RMK CI1 SLP251=

CYVR;2005-09-28 06:00;METAR CYVR 280600Z 11007KT 30SM FEW240 10/09 A3027 RMK CI1 SLP251=

CYVR;2005-09-28 07:00;METAR CYVR 280700Z 09006KT 30SM FEW240 11/10 A3027 RMK CI1 SLP252=

CYVR;2005-09-28 08:00;METAR CYVR 280800Z 11005KT 30SM FEW240 10/09 A3027 RMK CI1 SLP251=

CYVR;2005-09-28 09:00;METAR CYVR 280900Z 11009KT 20SM FEW220 11/10 A3027 RMK CI1 SLP251=

CYVR;2005-09-28 10:00;METAR CYVR 281000Z 10007KT 20SM FEW220 09/08 A3027 RMK CI1 SLP250=

CYVR;2005-09-28 11:00;METAR CYVR 281100Z 09007KT 20SM FEW220 09/08 A3027 RMK CI1 SLP249=

CYVR;2005-09-28 12:00;METAR CYVR 281200Z 11008KT 20SM FEW220 10/09 A3026 RMK CI1 SLP248=

CYVR;2005-09-28 13:00;METAR CYVR 281300Z 10009KT 20SM FEW220 09/08 A3026 RMK CI1 SLP248=

CYVR;2005-09-28 14:00;METAR CYVR 281400Z 11009KT 20SM BKN220 09/09 A3026 RMK CI2 VIS LWR W SLP248=

CYVR;2005-09-28 15:00;METAR CYVR 281500Z 10009KT 15SM FEW070 BKN220 11/10 A3027 RMK AC1CI2 TR AC SLP249=

CYVR;2005-09-28 16:00;METAR CYVR 281600Z 10008KT 12SM FEW070 BKN220 13/11 A3027 RMK AC2CI1 SLP249=

CYVR;2005-09-28 17:00;METAR CYVR 281700Z 11009KT 15SM FEW040 FEW070 SCT150 OVC220 14/10 A3026 RMK SC1AC2AC1CI2 SLP247=

CYVR;2005-09-28 18:00;METAR CYVR 281800Z 13012G18KT 15SM FEW040 BKN072 OVC220 16/11 A3025 RMK SC2AC5CI1 VIS LWR W SLP243=

CYVR;2005-09-28 19:00;METAR CYVR 281900Z 12010KT 15SM FEW040 BKN070 BKN150 OVC220 15/10 A3024 RMK SC2AC5AC1CI1 VIS LWR W SLP241=

CYVR;2005-09-28 19:45;SPECI CYVR 281945Z 13013KT 10SM -SHRA FEW035 SCT064 OVC110 15/ RMK SC2SC2AC5=

CYVR;2005-09-28 20:00;METAR CYVR 282000Z 12008KT 10SM -SHRA FEW035 SCT064 OVC110 14/11 A3023 RMK SC2SC2AC5 SLP238=

CYVR;2005-09-28 21:00;METAR CYVR 282100Z 11011KT 10SM -SHRA FEW035 OVC098 14/12 A3023 RMK SC2AC6 SLP236=

CYVR;2005-09-28 21:39;SPECI CYVR 282139Z 11010KT 10SM FEW035 OVC071 14/ RMK SC2AC6=

CYVR;2005-09-28 22:00;METAR CYVR 282200Z 11010KT 12SM FEW035 OVC078 14/11 A3022 RMK SC2AC6 SLP233=

CYVR;2005-09-28 22:49;SPECI CYVR 282249Z 10011KT 12SM -SHRA FEW040 BKN073 OVC140 14/ RMK SC2AC6AS1=

CYVR;2005-09-28 23:00;METAR CYVR 282300Z 11008KT 12SM -SHRA FEW055 BKN072 OVC120 14/11 A3019 RMK SC2AC5AS1 SLP225=

CYVR;2005-09-28 23:50;SPECI CYVR 282350Z 11010KT 10SM BKN054 BKN075 OVC120 15/ RMK SC5AC2AS1=

CYVR;2005-09-29 00:00;METAR CYVR 290000Z 09007KT 10SM BKN053 OVC075 15/11 A3018 RMK SC5AC3 SLP220=

CYVR;2005-09-29 00:23;SPECI CYVR 290023Z 09004KT 4SM -SHRA BR FEW015 OVC050 15/ RMK ST2SC6=

CYVR;2005-09-29 01:00;METAR CYVR 290100Z 12006KT 6SM -SHRA BR FEW015 OVC046 14/12 A3015 RMK SF2SC6 SLP211=

CYVR;2005-09-29 02:00;METAR CYVR 290200Z 09010KT 5SM -SHRA BR FEW015 BKN050 OVC070 14/13 A3014 RMK SF2SC6AC1 SLP207=

CYVR;2005-09-29 03:00;METAR CYVR 290300Z 06011KT 6SM -SHRA BR FEW015 BKN042 OVC070 13/12 A3013 RMK SF2SC6AC1 SLP204=

CYVR;2005-09-29 04:00;METAR CYVR 290400Z 08009KT 6SM -RA BR FEW015 OVC040 12/11 A3012 RMK SF2SC6 SLP199=

CYVR;2005-09-29 05:00;METAR CYVR 290500Z 08010KT 5SM -RA BR FEW015 BKN037 OVC050 12/11 A3010 RMK SF2SC5SC2 SLP193=

CYVR;2005-09-29 06:00;METAR CYVR 290600Z 09010KT 5SM -RA BR FEW015 BKN037 OVC050 12/12 A3008 RMK SF2SC6SC1 SLP186=

CYVR;2005-09-29 08:00;METAR CYVR 290800Z 09013KT 5SM -RA BR FEW012 BKN037 OVC060 12/12 A3004 RMK SF2SC3SC2 SLP173=

CYVR;2005-09-29 09:00;METAR CYVR 290900Z 10009KT 5SM -RA BR FEW013 BKN038 OVC060 12/11 A3004 RMK SF2SC6SC1 SLP171=

CYVR;2005-09-29 10:00;METAR CYVR 291000Z 10012KT 4SM -RA BR FEW007 BKN025 OVC040 11/11 A3001 RMK SF2SC4SC2 SLP161=

CYVR;2005-09-29 11:52;SPECI CYVR 291152Z 10011KT 3SM -RA BR BKN009 BKN015 OVC030 12/ RMK SF5SC2SC1=

CYVR;2005-09-29 12:00;METAR CYVR 291200Z 11009KT 4SM -RA BR BKN009 BKN014 OVC030 12/11 A2996 RMK SF5SC2SC1 SLP147=

CYVR;2005-09-29 12:22;SPECI CYVR 291222Z 10011G16KT 4SM -RA BR SCT008 BKN015 OVC030 12/ RMK SF4SC2SC2=

CYVR;2005-09-29 13:00;METAR CYVR 291300Z 11013KT 3SM -RA BR SCT007 BKN014 OVC025 12/12 A2993 RMK SF4SC3SC1 SLP135=

CYVR;2005-09-29 13:50;SPECI CYVR 291350Z 10012KT 2 1/2SM -RA BR SCT006 BKN012 OVC018 12/ RMK SF4SC3SC1=

CYVR;2005-09-29 14:00;METAR CYVR 291400Z 09011KT 2SM -RA BR SCT007 BKN013 OVC018 12/12 A2989 RMK SF3SC4SC1 SLP122=

CYVR;2005-09-29 14:17;SPECI CYVR 291417Z 10012KT 1 1/4SM -RA BR SCT007 BKN013 OVC018 12/ RMK SF4SC3SC1=

CYVR;2005-09-29 14:32;SPECI CYVR 291432Z 11014KT 1 1/2SM -RA BR SCT005 BKN013 OVC018 12/ RMK SF4SC3SC1=

CYVR;2005-09-29 15:00;METAR CYVR 291500Z 09010KT 2 1/2SM -RA BR SCT005 BKN013 OVC018 12/12 A2987 RMK SF3SC4SC1 SLP115=

CYVR;2005-09-29 15:11;SPECI CYVR 291511Z 09011KT 3SM -RA BR SCT006 BKN013 OVC018 12/ RMK SF3SC3SC2 VIS LWR N QUAD 2 SM=

CYVR;2005-09-29 15:34;SPECI CYVR 291534Z 10012KT 5SM -RA BR FEW007 BKN015 OVC018 13/ RMK SF2SC5SC1=

CYVR;2005-09-29 17:00;METAR CYVR 291700Z 12011G17KT 8SM FEW015 BKN021 OVC030 14/13 A2980 RMK SF2SC5SC2 SLP092=

CYVR;2005-09-29 17:06;SPECI CYVR 291706Z 11010KT 7SM -RA FEW015 BKN021 OVC030 14/ RMK SF2SC5SC2=

CYVR;2005-09-29 17:10;SPECI CYVR 291710Z 11010KT 6SM -RA BR FEW015 BKN021 OVC030 14/ RMK SF2SC5SC2=

CYVR;2005-09-29 17:15;SPECI CYVR 291715Z 11010KT 3SM -RA BR FEW015 BKN021 OVC030 14/ RMK SF2SC5SC2=

CYVR;2005-09-29 18:00;METAR CYVR 291800Z 11010KT 3SM -RA BR FEW015 SCT025 OVC041 14/13 A2979 RMK SF2SC2SC5 SLP087=

CYVR;2005-09-29 19:00;METAR CYVR 291900Z 13013KT 3SM -RA BR FEW025 BKN032 OVC038 14/14 A2976 RMK SF2SC4SC2 SLP078=

CYVR;2005-09-29 19:43;SPECI CYVR 291943Z 13013KT 7SM -RA FEW015 SCT030 OVC054 14/ RMK SF2SC2SC5=

CYVR;2005-09-29 20:00;METAR CYVR 292000Z 13013G21KT 10SM -RA FEW020 BKN051 OVC077 14/14 A2974 RMK SF2SC4AC2 VIS LWR N QUAD 7SM SLP072=

CYVR;2005-09-29 20:13;SPECI CYVR 292013Z 14012KT 10SM FEW020 BKN051 OVC079 14/ RMK SF2SC3AC2=

CYVR;2005-09-29 20:48;SPECI CYVR 292048Z 13008KT 6SM -RA BR FEW020 BKN041 OVC055 15/ RMK SF2SC3SC2=

CYVR;2005-09-29 21:00;METAR CYVR 292100Z 13009KT 8SM -RA FEW009 FEW025 BKN042 OVC050 15/14 A2972 RMK SF2SC1SC5SC1 VIS LWR N QUAD 5 SM SLP065=

CYVR;2005-09-29 21:30;SPECI CYVR 292130Z 11006KT 6SM -RA BR BKN012 OVC041 16/ RMK SC5SC3 VIS LWR N QUAD 4 SM=

CYVR;2005-09-29 21:38;SPECI CYVR 292138Z 13010KT 8SM -RA SCT012 OVC039 16/ RMK SC3SC4=

CYVR;2005-09-29 22:21;SPECI CYVR 292221Z 15013KT 12SM FEW015 SCT050 OVC072 16/ RMK SF2SC2AC3=

CYVR;2005-09-29 23:00;METAR CYVR 292300Z 11005KT 15SM FEW015 FEW050 OVC065 16/15 A2971 RMK SF1SC2SC6 VIS LWR N QUAD 12 SM SLP060=

CYVR;2005-09-29 23:34;SPECI CYVR 292334Z 09005KT 15SM BKN009 OVC052 16/ RMK SC5SC3=

CYVR;2005-09-29 23:43;SPECI CYVR 292343Z 12004KT 15SM BKN011 OVC052 17/ RMK SC5SC3=

CYVR;2005-09-30 00:00;METAR CYVR 300000Z 15004KT 15SM BKN011 OVC065 16/15 A2972 RMK SC6SC2 SLP063=

CYVR;2005-09-30 00:15;SPECI CYVR 300015Z 00000KT 15SM -SHRA SCT011 OVC052 16/ RMK SC4SC4=

CYVR;2005-09-30 00:34;SPECI CYVR 300034Z 36003KT 15SM BKN011 OVC048 17/ RMK SC5SC2=

CYVR;2005-09-30 01:00;METAR CYVR 300100Z 14005KT 15SM SCT011 OVC048 16/15 A2972 RMK SC4SC3 SLP064=

CYVR;2005-09-30 02:00;METAR CYVR 300200Z 14008KT 15SM FEW011 SCT047 BKN100 16/15 A2972 RMK SF2SC2AC3 SLP064=

CYVR;2005-09-30 03:00;METAR CYVR 300300Z 00000KT 10SM FEW011 SCT047 BKN110 16/14 A2973 RMK SF2SC2AC2 SLP068=

CYVR;2005-09-30 04:00;METAR CYVR 300400Z 08007KT 10SM SCT110 14/14 A2975 RMK AC4 SLP073=

CYVR;2005-09-30 05:00;METAR CYVR 300500Z 19005KT 10SM FEW110 SCT240 15/13 A2975 RMK AC2CC2 SLP075=

CYVR;2005-09-30 06:00;METAR CYVR 300600Z 27006KT 10SM FEW100 SCT240 14/12 A2976 RMK AC2CC2 SLP077=

CYVR;2005-09-30 07:00;METAR CYVR 300700Z 28012G17KT 10SM FEW040 SCT240 13/12 A2977 RMK CF1CC3 SLP082=

CYVR;2005-09-30 09:00;METAR CYVR 300900Z 28018KT 15SM FEW040 BKN230 13/10 A2980 RMK SC2CC4 SLP092=

CYVR;2005-09-30 10:00;METAR CYVR 301000Z 28020G25KT 15SM FEW040 BKN220 13/10 A2980 RMK SC2CC5 SLP093=

CYVR;2005-09-30 11:00;METAR CYVR 301100Z 28018KT 15SM FEW070 SCT230 13/10 A2981 RMK AC1CC3 SLP095=

CYVR;2005-09-30 12:00;METAR CYVR 301200Z 27019G24KT 15SM FEW060 SCT230 12/09 A2982 RMK SC2CC2 SLP099=

CYVR;2005-09-30 14:00;METAR CYVR 301400Z 29012G18KT 15SM FEW010 SCT150 OVC230 11/09 A2983 RMK SF1AC2CI2 SLP103=

CYVR;2005-09-30 15:00;METAR CYVR 301500Z 29009KT 15SM FEW010 SCT150 OVC230 11/09 A2984 RMK SF1AC2CI2 SLP106=

CYVR;2005-09-30 16:00;METAR CYVR 301600Z 30008KT 15SM FEW015 FEW040 SCT180 BKN230 12/10 A2985 RMK SC1SC1AC1CI2 CONTRAILS SLP110=

CYVR;2005-09-30 17:00;METAR CYVR 301700Z 30008KT 15SM FEW015 SCT180 OVC240 12/10 A2985 RMK SF1AS2CS3 SLP110=

CYVR;2005-09-30 18:00;METAR CYVR 301800Z 28008KT 15SM FEW015 BKN160 OVC240 13/10 A2985 RMK SF2AS4CS2 SLP110=

CYVR;2005-09-30 19:00;METAR CYVR 301900Z 25004KT 15SM FEW015 BKN180 OVC240 13/10 A2984 RMK SF1AS4CS2 SLP104=

CYVR;2005-09-30 20:00;METAR CYVR 302000Z 27003KT 15SM FEW020 BKN190 OVC220 13/10 A2983 RMK SF1AS4CS2 SLP100=

CYVR;2005-09-30 21:00;METAR CYVR 302100Z 26003KT 15SM FEW025 BKN180 BKN220 13/10 A2981 RMK SC1AS4CS2 SLP094=

CYVR;2005-09-30 22:00;METAR CYVR 302200Z 25004KT 15SM FEW025 BKN180 BKN220 13/10 A2979 RMK SF1AS5CS1 SLP087=

CYVR;2005-10-01 00:00;METAR CYVR 010000Z 28004KT 20SM FEW035 SCT220 14/09 A2973 RMK SC1CI1 SLP069=

CYVR;2005-10-01 01:00;METAR CYVR 010100Z 22004KT 20SM FEW040 SCT240 14/08 A2972 RMK SC1CI1 SLP066=

CYVR;2005-10-01 02:00;METAR CYVR 010200Z 21004KT 20SM FEW040 FEW240 12/09 A2972 RMK SC1CC2 HZ SLP063=

CYVR;2005-10-01 03:00;METAR CYVR 010300Z 18005KT 20SM FEW040 FEW240 12/09 A2972 RMK SC2CC1 SLP066=

CYVR;2005-10-01 04:00;METAR CYVR 010400Z 03002KT 20SM FEW040 10/08 A2972 RMK SC1 SLP065=

CYVR;2005-10-01 06:00;METAR CYVR 010600Z 07004KT 15SM FEW040 SCT240 10/08 A2972 RMK SC1CC2 SLP065=

CYVR;2005-10-01 07:00;METAR CYVR 010700Z 08004KT 15SM BKN065 09/08 A2973 RMK SC6 SLP067=

CYVR;2005-10-01 09:00;METAR CYVR 010900Z 10005KT 15SM FEW100 SCT240 08/08 A2973 RMK AC2CC2 SLP068=

CYVR;2005-10-01 10:00;METAR CYVR 011000Z 09004KT 15SM FEW035 BKN080 09/08 A2973 RMK SC2AC3 SLP067=

CYVR;2005-10-01 11:00;METAR CYVR 011100Z 09003KT 15SM FEW055 SCT080 09/08 A2972 RMK SC2AC2 SLP066=

CYVR;2005-10-01 12:00;METAR CYVR 011200Z 10004KT 10SM FEW035 SCT055 BKN080 10/09 A2973 RMK SC2SC2AC2 SLP067=

CYVR;2005-10-01 13:00;METAR CYVR 011300Z 10005KT 10SM FEW016 BKN055 10/09 A2972 RMK SC2SC3 SLP066=

CYVR;2005-10-01 13:34;SPECI CYVR 011334Z 09004KT 10SM SCT009 BKN055 10/ RMK SC3SC4=

CYVR;2005-10-01 13:39;SPECI CYVR 011339Z 08004KT 10SM BKN009 OVC055 10/ RMK SC5SC2 VIS N QUAD LWR 8 SM=

CYVR;2005-10-01 14:00;METAR CYVR 011400Z 06002KT 10SM BKN009 OVC050 10/09 A2972 RMK SC6SC2 SLP066=

CYVR;2005-10-01 14:25;SPECI CYVR 011425Z 07003KT 15SM SCT009 BKN050 BKN240 10/ RMK SC3SC1CI1=

CYVR;2005-10-01 14:37;SPECI CYVR 011437Z 00000KT 15SM BKN009 OVC050 10/ RMK SC6SC1=

CYVR;2005-10-01 15:00;METAR CYVR 011500Z 01003KT 15SM BKN009 OVC050 10/09 A2973 RMK SC6SC1 SLP068=

CYVR;2005-10-01 16:00;METAR CYVR 011600Z 00000KT 15SM BKN012 BKN050 11/09 A2974 RMK SC5SC2 SLP072=

CYVR;2005-10-01 16:32;SPECI CYVR 011632Z 34003KT 15SM BKN012 BKN220 12/ RMK SC3CI1=

CYVR;2005-10-01 17:00;METAR CYVR 011700Z 00000KT 15SM SCT013 BKN025 12/10 A2975 RMK SF2SC1 SLP075=

CYVR;2005-10-01 18:00;METAR CYVR 011800Z 24003KT 15SM FEW015 SCT020 12/09 A2976 RMK CF1CU2 TCU ASOCT SLP078=

CYVR;2005-10-01 19:00;METAR CYVR 011900Z 25007G15KT 15SM FEW015 SCT025TCU 14/10 A2977 RMK CF1TCU2 SLP080=

CYVR;2005-10-01 20:00;METAR CYVR 012000Z 24007KT 20SM FEW015 FEW025TCU 15/09 A2976 RMK CF1TCU2 TR CF SLP079=

CYVR;2005-10-01 21:00;METAR CYVR 012100Z 25007KT 20SM FEW020 FEW035TCU FEW220 15/08 A2976 RMK CF1TCU2CI1 TR CF / TR CI SLP078=

CYVR;2005-10-01 22:00;METAR CYVR 012200Z 27005KT 30SM FEW030 FEW035TCU FEW040CB SCT220 14/08 A2977 RMK CU1TCU1CB1CI1 CB DIST W QUAD/ NE QUAD / E QUAD / TR CU SLP080=

CYVR;2005-10-01 23:00;METAR CYVR 012300Z 21006KT 30SM FEW035 FEW040 SCT220 14/08 A2977 RMK CF1CU1CI1 TR CF SLP080=

CYVR;2005-10-02 00:00;METAR CYVR 020000Z 22007KT 30SM FEW033 FEW040CB FEW090 SCT220 15/07 A2978 RMK CU1CB1AC1CI1 CB DIST W QUAD / SW QUAD SLP083=

CYVR;2005-10-02 01:00;METAR CYVR 020100Z 16004KT 30SM FEW040 FEW045CB SCT100 BKN220 14/07 A2978 RMK CU1CB1AC1CI1 CB DIST SW - W QUAD/ SHRS DIST NE QUAD / TR CU SLP083=

CYVR;2005-10-02 03:00;METAR CYVR 020300Z 09005KT 30SM FEW075 11/08 A2979 RMK AC2 SLP089=

CYVR;2005-10-02 04:00;METAR CYVR 020400Z 09006KT 20SM SCT070 BKN080 11/09 A2981 RMK AC3AC2 SLP094=

CYVR;2005-10-02 05:00;METAR CYVR 020500Z 10009KT 20SM SCT045 BKN080 11/08 A2981 RMK SC3AC2 SLP095=

CYVR;2005-10-02 06:00;METAR CYVR 020600Z 09010KT 20SM FEW050 SCT080 11/08 A2982 RMK SC2AC2 SLP097=

CYVR;2005-10-02 07:00;METAR CYVR 020700Z 09011KT 20SM FEW050 FEW080 10/08 A2982 RMK SC1AC1 SLP097=

CYVR;2005-10-02 09:00;METAR CYVR 020900Z 10010KT 15SM FEW015 FEW050 SCT080 10/08 A2984 RMK SC2SC1AC1 VIS N QUAD LWR 10 SLP106=

CYVR;2005-10-02 10:00;METAR CYVR 021000Z 12009KT 10SM FEW015 SCT030 BKN080 10/08 A2984 RMK SC1SC2AC2 SLP106=

CYVR;2005-10-02 11:00;METAR CYVR 021100Z 09009KT 10SM FEW015 FEW055 SCT230 09/07 A2983 RMK SC1SC2CI1 SLP103=

CYVR;2005-10-02 12:00;METAR CYVR 021200Z 10008KT 15SM FEW045 BKN075 BKN230 10/07 A2983 RMK SC2AC3CI1 SLP102=

CYVR;2005-10-02 12:50;SPECI CYVR 021250Z 11007KT 15SM -SHRA FEW050 SCT075 10/ RMK SC2AC2=

CYVR;2005-10-02 13:00;METAR CYVR 021300Z 11007KT 15SM -SHRA FEW050 SCT075 09/08 A2983 RMK SC2AC2 SLP101=

CYVR;2005-10-02 14:00;METAR CYVR 021400Z 08009KT 15SM FEW030 BKN033 OVC063 10/08 A2981 RMK SF1SC4SC2 SLP096=

CYVR;2005-10-02 15:00;METAR CYVR 021500Z 10008KT 15SM FEW030 BKN033 OVC065 10/08 A2981 RMK SF1SC4SC2 SLP095=

CYVR;2005-10-02 16:00;METAR CYVR 021600Z 10010KT 15SM SCT033 BKN058 OVC065 11/08 A2981 RMK SC3SC2SC2 SLP094=

CYVR;2005-10-02 17:00;METAR CYVR 021700Z 09015KT 15SM SCT033 BKN048 OVC065 12/08 A2980 RMK SC3SC3SC1 SLP091=

CYVR;2005-10-02 18:00;METAR CYVR 021800Z 10015KT 15SM BKN047 OVC120 13/07 A2979 RMK SC6AC2 SLP088=

CYVR;2005-10-02 19:00;METAR CYVR 021900Z 09014KT 15SM BKN047 OVC070 13/07 A2979 RMK SC6AC2 SLP087=

CYVR;2005-10-02 19:14;SPECI CYVR 021914Z 09014KT 15SM -SHRA BKN047 OVC070 13/ RMK SC6AC2=

CYVR;2005-10-02 20:00;METAR CYVR 022000Z 09010G16KT 15SM -SHRA FEW045 OVC051 12/08 A2979 RMK SC2SC6 SLP087=

CYVR;2005-10-02 21:00;METAR CYVR 022100Z 13011G21KT 12SM -RA SCT045 OVC051 12/09 A2981 RMK SC3SC5 SLP095=

CYVR;2005-10-02 22:00;METAR CYVR 022200Z 09013KT 10SM -RA BKN047 OVC055 11/10 A2981 RMK SC6SC2 SLP094=

CYVR;2005-10-02 23:00;METAR CYVR 022300Z 10012KT 10SM -RA BKN034 OVC045 11/10 A2980 RMK SC5SC3 VIS LWR N QUAD 8 SM SLP093=

CYVR;2005-10-03 00:00;METAR CYVR 030000Z 09010KT 15SM -RA FEW027 BKN034 OVC045 11/10 A2981 RMK SC2SC5SC1 PCPN VRY LGT SLP095=

CYVR;2005-10-03 01:00;METAR CYVR 030100Z 09014KT 15SM -RA FEW020 BKN025 OVC035 10/10 A2981 RMK SC2SC4SC2 PCPN VRY LGT SLP095=

CYVR;2005-10-03 01:19;SPECI CYVR 030119Z 09011KT 15SM FEW020 BKN025 OVC033 10/ RMK SC2SC5SC1=

CYVR;2005-10-03 01:38;SPECI CYVR 030138Z 09010G15KT 15SM -SHRA FEW020 BKN025 OVC033 10/ RMK SF2SC6SC1=

CYVR;2005-10-03 02:00;METAR CYVR 030200Z 10012KT 10SM -SHRA FEW020 OVC025 10/09 A2981 RMK SF2SC6 SLP095=

CYVR;2005-10-03 02:14;SPECI CYVR 030214Z 09012KT 11SM SHRA FEW020 BKN025 OVC050 10/ RMK SF2SC5SC1 VIS LWR N QUAD 6=

CYVR;2005-10-03 03:00;METAR CYVR 030300Z 09008KT 8SM SHRA FEW015 BKN025 OVC046 10/09 A2982 RMK SF2SC4SC2 SLP098=

CYVR;2005-10-03 04:00;METAR CYVR 030400Z 09011KT 10SM SCT014 BKN025 OVC046 10/09 A2983 RMK SF4SC2SC2 SLP100=

CYVR;2005-10-03 05:00;METAR CYVR 030500Z 10011KT 15SM SCT020 OVC060 10/09 A2984 RMK SC4SC4 SLP106=

CYVR;2005-10-03 06:00;METAR CYVR 030600Z 10010KT 15SM SCT009 BKN025 OVC060 10/09 A2986 RMK SF4SC2SC2 SLP111=

CYVR;2005-10-03 07:00;METAR CYVR 030700Z 09011KT 15SM -SHRA FEW012 SCT020 BKN080 OVC140 10/09 A2987 RMK SF2SC2AC2AC2 SLP115=

CYVR;2005-10-03 08:00;METAR CYVR 030800Z 10010KT 15SM -SHRA FEW020 BKN060 BKN140 10/09 A2988 RMK SF2SC4AC2 SHRA VRY LGT SLP117=

CYVR;2005-10-03 08:17;SPECI CYVR 030817Z 10009KT 15SM FEW020 BKN050 09/ RMK SC2SC3=

CYVR;2005-10-03 09:00;METAR CYVR 030900Z 09006KT 15SM FEW020 BKN050 BKN077 09/09 A2989 RMK SC2SC3AC2 SLP122=

CYVR;2005-10-03 10:00;METAR CYVR 031000Z 09009KT 15SM FEW014 SCT030 BKN050 BKN090 09/09 A2990 RMK SF2SC2SC2AC1 SLP126=

CYVR;2005-10-03 10:30;SPECI CYVR 031030Z 10010KT 15SM -SHRA FEW015 BKN045 BKN060 09/ RMK SF2SC4SC2=

CYVR;2005-10-03 10:54;SPECI CYVR 031054Z 09010KT 15SM FEW020 SCT050 BKN090 09/ RMK SF2SC2AC2=

CYVR;2005-10-03 11:00;METAR CYVR 031100Z 10008KT 15SM FEW020 SCT050 BKN090 09/08 A2991 RMK SF2SC2AC2 SLP128=

CYVR;2005-10-03 12:00;METAR CYVR 031200Z 10007KT 15SM -SHRA FEW020 FEW050 BKN100 08/07 A2991 RMK SF1SC2AC3 SHRA VRY LGT SLP130=

CYVR;2005-10-03 12:18;SPECI CYVR 031218Z 09007KT 15SM FEW020 FEW050 BKN100 08/ RMK SF1SC1AC4=

CYVR;2005-10-03 13:00;METAR CYVR 031300Z 07003KT 15SM FEW020 FEW060 BKN090 07/07 A2993 RMK SF1SC1AC4 SLP135=

CYVR;2005-10-03 14:00;METAR CYVR 031400Z 11005KT 15SM SCT021 BKN060 BKN090 08/08 A2994 RMK SC3SC2AC1 SLP139=

CYVR;2005-10-03 15:00;METAR CYVR 031500Z 08003KT 15SM BKN023 BKN060 BKN090 09/09 A2996 RMK SC5SC2AC1 SLP145=

CYVR;2005-10-03 16:00;METAR CYVR 031600Z 07003KT 15SM SCT025 BKN060 BKN090 11/09 A2997 RMK SC4SC2AC1 SLP150=

CYVR;2005-10-03 17:00;METAR CYVR 031700Z 16004KT 15SM BKN029 BKN060 11/09 A2999 RMK SC6SC1 TCU EMBD SLP155=

CYVR;2005-10-03 18:00;METAR CYVR 031800Z 27005KT 20SM FEW029 SCT080 13/08 A2999 RMK CU2AC1 TCU ASOCTD SLP156=

CYVR;2005-10-03 19:00;METAR CYVR 031900Z 30007KT 20SM SCT027TCU SCT080 13/09 A3000 RMK TCU3AC1 SLP158=

CYVR;2005-10-03 20:00;METAR CYVR 032000Z 30006KT 20SM FEW020 SCT040TCU BKN080 13/08 A3001 RMK CU2TCU2AC2 SLP161=

CYVR;2005-10-03 21:00;METAR CYVR 032100Z 30009KT 20SM FEW040TCU SCT070 14/09 A3001 RMK TCU2AC1 SLP162=

CYVR;2005-10-03 23:00;METAR CYVR 032300Z 29009KT 30SM FEW040 FEW220 13/09 A3003 RMK CU1CI0 TCU ASOCTD SLP168=

CYVR;2005-10-04 00:00;METAR CYVR 040000Z 29007KT 30SM FEW040 FEW220 13/08 A3004 RMK CU1CI1 TCU ASOCTD SLP171=

CYVR;2005-10-04 01:00;METAR CYVR 040100Z 30008KT 30SM FEW040 FEW220 12/08 A3005 RMK CU1CI1 SLP176=

CYVR;2005-10-04 02:00;METAR CYVR 040200Z 30008KT 30SM FEW220 10/07 A3006 RMK CI1 SLP180=

CYVR;2005-10-04 03:00;METAR CYVR 040300Z 30007KT 30SM FEW220 10/07 A3008 RMK CI1 SLP185=

CYVR;2005-10-04 04:00;METAR CYVR 040400Z 30007KT 30SM FEW220 09/07 A3009 RMK CI2 SLP190=

CYVR;2005-10-04 05:00;METAR CYVR 040500Z 11003KT 30SM FEW210 09/08 A3011 RMK CI2 SLP198=

CYVR;2005-10-04 06:00;METAR CYVR 040600Z 09002KT 30SM FEW210 09/07 A3014 RMK CI1 SLP205=

CYVR;2005-10-04 07:00;METAR CYVR 040700Z 04004KT 20SM FEW210 09/07 A3015 RMK CI1 SLP211=

CYVR;2005-10-04 08:00;METAR CYVR 040800Z 03003KT 20SM FEW210 08/07 A3018 RMK CI1 SLP219=

CYVR;2005-10-04 09:00;METAR CYVR 040900Z 09003KT 20SM FEW210 07/06 A3019 RMK CI1 SLP223=

CYVR;2005-10-04 10:00;METAR CYVR 041000Z 09005KT 20SM FEW210 06/06 A3021 RMK CI1 SLP230=

CYVR;2005-10-04 11:00;METAR CYVR 041100Z 07002KT 20SM FEW210 06/06 A3022 RMK CI1 SLP234=

CYVR;2005-10-04 12:00;METAR CYVR 041200Z 00000KT 20SM FEW210 06/06 A3023 RMK CI1 SLP238=

CYVR;2005-10-04 13:00;METAR CYVR 041300Z 04003KT 20SM BKN015 07/06 A3025 RMK SC7 SLP245=

CYVR;2005-10-04 13:07;SPECI CYVR 041307Z 05005KT 20SM BKN013 07/ RMK SC6=

CYVR;2005-10-04 13:40;SPECI CYVR 041340Z 07004KT 20SM SCT012 BKN220 07/ RMK SF4CI0=

CYVR;2005-10-04 14:00;METAR CYVR 041400Z 09005KT 15SM FEW012 SCT220 06/05 A3026 RMK SF2CI1 LO CLD OVR GASTR SLP246=

CYVR;2005-10-04 15:00;METAR CYVR 041500Z 09005KT 20SM FEW012 FEW040 SCT220 06/06 A3027 RMK SF2SC1CI1 LO CLD OVR GASTR SLP251=

CYVR;2005-10-04 16:00;METAR CYVR 041600Z 09007KT 20SM FEW013 BKN045 BKN220 08/07 A3028 RMK SF2SC2CI0 SLP255=

CYVR;2005-10-04 17:00;METAR CYVR 041700Z 09007KT 20SM FEW014 SCT035 BKN047 BKN210 10/08 A3029 RMK SF2SC2SC2CI0 SLP256=

CYVR;2005-10-04 18:00;METAR CYVR 041800Z 12008KT 20SM FEW015 FEW035 BKN050 BKN220 11/08 A3029 RMK SF2SC1SC4CI0 SLP257=

CYVR;2005-10-04 19:00;METAR CYVR 041900Z 15005KT 20SM FEW015 FEW035 BKN050 BKN220 13/08 A3029 RMK SF1SC1SC4CI1 SLP256=

CYVR;2005-10-04 20:00;METAR CYVR 042000Z 15005KT 20SM FEW015 FEW040 BKN052 BKN220 14/08 A3029 RMK SF2SC1SC3CI0 SLP256=

CYVR;2005-10-04 21:00;METAR CYVR 042100Z 13008KT 20SM FEW017 FEW045 BKN220 15/08 A3027 RMK CF1CU2CI1 SLP250=

CYVR;2005-10-04 22:00;METAR CYVR 042200Z 14005KT 20SM FEW045 BKN220 15/07 A3025 RMK CU2CI2 SLP245=

CYVR;2005-10-04 23:00;METAR CYVR 042300Z 12005KT 20SM FEW045 BKN200 15/08 A3024 RMK CU1CI4 SLP240=

CYVR;2005-10-05 00:00;METAR CYVR 050000Z 15005KT 20SM FEW045 BKN200 15/07 A3024 RMK CU1CI3 SLP239=

CYVR;2005-10-05 01:00;METAR CYVR 050100Z 20002KT 20SM FEW050 SCT150 BKN200 14/08 A3023 RMK CF1AC3CI2 SLP236=

CYVR;2005-10-05 03:00;METAR CYVR 050300Z 09005KT 20SM SCT100 OVC150 12/08 A3022 RMK AC3AS5 SLP233=

CYVR;2005-10-05 04:00;METAR CYVR 050400Z 07007KT 20SM SCT100 OVC140 12/08 A3022 RMK AC4AS4 SLP234=

CYVR;2005-10-05 05:00;METAR CYVR 050500Z 08007KT 20SM FEW040 SCT100 OVC130 13/08 A3022 RMK CF1AC3AS4 SLP234=

CYVR;2005-10-05 06:00;METAR CYVR 050600Z 10006KT 20SM FEW040 BKN090 OVC120 11/08 A3022 RMK SC2AC4AS2 SLP234=

CYVR;2005-10-05 07:00;METAR CYVR 050700Z 10010KT 20SM FEW050 BKN090 OVC110 12/08 A3021 RMK SC2AC4AS2 SLP231=

CYVR;2005-10-05 08:00;METAR CYVR 050800Z 09009KT 20SM BKN067 OVC089 12/08 A3021 RMK AC5AC3 SLP231=

CYVR;2005-10-05 09:00;METAR CYVR 050900Z 09005KT 20SM BKN071 OVC092 11/08 A3021 RMK AC6AC2 SLP229=

CYVR;2005-10-05 10:00;METAR CYVR 051000Z 11007KT 20SM FEW040 BKN076 OVC100 12/09 A3020 RMK SC2AC5AC2 SLP227=

CYVR;2005-10-05 11:00;METAR CYVR 051100Z 09006KT 20SM FEW040 BKN072 OVC097 11/08 A3019 RMK SC2AC4AC2 SLP223=

CYVR;2005-10-05 11:41;SPECI CYVR 051141Z 08008KT 20SM -SHRA FEW040 BKN064 OVC085 11/ RMK SC2SC4AC2=

CYVR;2005-10-05 12:00;METAR CYVR 051200Z 11007KT 12SM -SHRA FEW040 BKN063 OVC080 11/09 A3018 RMK SC2SC5AC1 SLP219=

CYVR;2005-10-05 12:46;SPECI CYVR 051246Z 09007KT 15SM FEW040 BKN063 OVC093 11/ RMK SC2SC3AC3=

CYVR;2005-10-05 13:00;METAR CYVR 051300Z 09006KT 15SM FEW040 BKN064 OVC087 11/09 A3017 RMK SC2SC3AC3 SLP216=

CYVR;2005-10-05 13:40;SPECI CYVR 051340Z 11007KT 15SM -SHRA FEW040 BKN065 BKN090 11/ RMK SF2SC4AC2=

CYVR;2005-10-05 14:00;METAR CYVR 051400Z 11007KT 15SM -SHRA FEW040 BKN062 BKN090 11/09 A3018 RMK CF2SC5AC1 SLP219=

CYVR;2005-10-05 15:00;METAR CYVR 051500Z 12006KT 15SM -SHRA FEW040 SCT060 BKN085 11/10 A3018 RMK CF2SC2AC3 SLP220=

CYVR;2005-10-05 16:00;METAR CYVR 051600Z 09006KT 15SM -SHRA FEW040 SCT061 OVC084 12/10 A3018 RMK CF1SC3AC4 SLP221=

CYVR;2005-10-05 17:00;METAR CYVR 051700Z 08006KT 15SM VCSH BKN065 OVC085 12/10 A3018 RMK SC5AC2 SLP220=

CYVR;2005-10-05 18:00;METAR CYVR 051800Z 09006KT 15SM FEW040 BKN062 OVC090 14/10 A3018 RMK SF1SC5AC2 SLP221=

CYVR;2005-10-05 18:47;SPECI CYVR 051847Z 11004KT 15SM -SHRA FEW050 BKN064 OVC080 14/ RMK SF1SC6AC2=

CYVR;2005-10-05 21:00;METAR CYVR 052100Z 12006KT 15SM -SHRA FEW040 BKN063 OVC090 16/08 A3019 RMK SF1SC6AC2 SLP222=

CYVR;2005-10-05 21:24;SPECI CYVR 052124Z 10002KT 15SM FEW040 BKN058 OVC080 16/ RMK SF1SC6AC2=

CYVR;2005-10-05 21:48;SPECI CYVR 052148Z 09003KT 15SM -SHRA FEW040 BKN052 OVC080 16/ RMK SF1SC6AC1=

CYVR;2005-10-05 23:00;METAR CYVR 052300Z 04008KT 15SM -SHRA BKN056 OVC080 16/09 A3016 RMK SC6AC2 SLP214=

CYVR;2005-10-05 23:23;SPECI CYVR 052323Z 04007KT 15SM BKN053 OVC080 15/ RMK SC6AC2=

CYVR;2005-10-06 00:00;METAR CYVR 060000Z 07005KT 15SM BKN053 OVC080 15/09 A3016 RMK SC6AC2 SLP212=

CYVR;2005-10-06 00:20;SPECI CYVR 060020Z 04003KT 15SM -SHRA BKN052 OVC080 15/ RMK SC6AC2=

CYVR;2005-10-06 01:00;METAR CYVR 060100Z 04005KT 15SM -SHRA BKN049 OVC080 15/09 A3015 RMK SC6AC2 SLP210=

CYVR;2005-10-06 01:16;SPECI CYVR 060116Z 08005KT 15SM BKN052 OVC080 15/ RMK SC6AC2=

CYVR;2005-10-06 02:00;METAR CYVR 060200Z 00000KT 15SM OVC047 14/09 A3015 RMK SC8 SLP210=

CYVR;2005-10-06 04:00;METAR CYVR 060400Z 04005KT 15SM BKN050 OVC080 14/09 A3014 RMK SC7AC1 SLP206=

CYVR;2005-10-06 05:00;METAR CYVR 060500Z 01005KT 15SM BKN054 OVC078 13/09 A3012 RMK SC6AC2 SLP201=

CYVR;2005-10-06 06:00;METAR CYVR 060600Z 04003KT 15SM BKN048 OVC078 13/09 A3011 RMK SC5AC2 SLP197=

CYVR;2005-10-06 09:00;METAR CYVR 060900Z 13003KT 15SM FEW020 OVC057 13/09 A3008 RMK SC2SC6 SLP185=

CYVR;2005-10-06 09:55;SPECI CYVR 060955Z 09005KT 15SM -SHRA FEW020 BKN058 OVC090 12/ RMK SC1SC6AC1=

CYVR;2005-10-06 10:00;METAR CYVR 061000Z 09005KT 15SM -SHRA FEW020 BKN058 OVC090 12/10 A3006 RMK SC1SC6AC1 SLP181=

CYVR;2005-10-06 11:00;METAR CYVR 061100Z 12004KT 15SM BKN049 OVC091 12/10 A3005 RMK SC6AC2 SLP175=

CYVR;2005-10-06 11:23;SPECI CYVR 061123Z 11006KT 15SM -SHRA BKN050 OVC086 12/ RMK SC6AC2=

CYVR;2005-10-06 12:00;METAR CYVR 061200Z 12003KT 15SM -SHRA BKN050 OVC087 12/10 A3004 RMK SC6AC2 SLP171=

CYVR;2005-10-06 13:00;METAR CYVR 061300Z 10004KT 12SM -RA BKN045 OVC081 12/11 A3003 RMK SC6AC2 SLP170=

CYVR;2005-10-06 14:00;METAR CYVR 061400Z 08007KT 10SM -RA FEW020 BKN039 OVC090 11/11 A3001 RMK SF2SC4AC2 SLP164=

CYVR;2005-10-06 15:00;METAR CYVR 061500Z 11007KT 10SM -RA FEW015 BKN037 OVC080 12/11 A3001 RMK SF2SC6AC1 SLP161=

CYVR;2005-10-06 16:00;METAR CYVR 061600Z 10007KT 8SM -RA FEW015 BKN039 OVC065 12/11 A2999 RMK SF1SC4SC3 SLP155=

CYVR;2005-10-06 17:00;METAR CYVR 061700Z 11005KT 10SM -RA FEW017 BKN034 OVC060 12/11 A2998 RMK SF1SC6SC2 SLP153=

CYVR;2005-10-06 18:00;METAR CYVR 061800Z 08006KT 10SM -RA FEW017 BKN036 OVC060 12/12 A2997 RMK SF1SC6SC1 SLP148=

CYVR;2005-10-06 19:00;METAR CYVR 061900Z 09006KT 8SM -RA FEW020 BKN039 OVC055 13/12 A2995 RMK CF1SC6SC1 SLP141=

CYVR;2005-10-06 21:00;METAR CYVR 062100Z 10008KT 4SM -RA BR FEW012 BKN035 OVC045 13/12 A2991 RMK CF1SC6SC2 SLP128=

CYVR;2005-10-06 22:00;METAR CYVR 062200Z 09009KT 5SM -RA BR FEW011 BKN034 OVC045 13/12 A2988 RMK SF1SC6SC2 SLP119=

CYVR;2005-10-06 22:18;SPECI CYVR 062218Z 11009KT 5SM -RA BR SCT012 BKN034 OVC045 13/ RMK SF3SC3SC2 CIG + VIS LWR W=

CYVR;2005-10-06 22:28;SPECI CYVR 062228Z 11010KT 4SM -RA BR FEW006 SCT012 OVC029 13/ RMK SF2SF2SC4=

CYVR;2005-10-06 22:41;SPECI CYVR 062241Z 12010KT 4SM -RA BR FEW007 BKN012 OVC028 13/ RMK SF2SF4SC2=

CYVR;2005-10-06 23:00;METAR CYVR 062300Z 12010KT 5SM -RA BR FEW007 BKN013 BKN029 OVC060 13/12 A2986 RMK SF2SF4SC2SC1 SLP112=

CYVR;2005-10-06 23:34;SPECI CYVR 062334Z 13011KT 5SM -RA BR SCT006 BKN009 BKN028 OVC060 13/ RMK SF3SF2SC2SC1=

CYVR;2005-10-07 00:00;METAR CYVR 070000Z 13011KT 5SM -RA BR FEW006 BKN010 BKN029 OVC060 12/12 A2984 RMK SF2SF2SC2SC2 /R10/ SLP106=

CYVR;2005-10-07 00:24;SPECI CYVR 070024Z 13010KT 5SM -RA BR FEW005 SCT010 BKN028 OVC065 12/ RMK SF2SF2SC2SC2=

CYVR;2005-10-07 01:00;METAR CYVR 070100Z 13010KT 5SM -RA BR FEW006 SCT011 BKN030 OVC070 12/12 A2982 RMK SF2SF2SC2AC2 SLP099=

CYVR;2005-10-07 02:00;METAR CYVR 070200Z 15011KT 5SM -RA BR FEW006 SCT011 OVC044 13/12 A2981 RMK SF2SF2SC5 SLP094=

CYVR;2005-10-07 02:46;SPECI CYVR 070246Z 15012KT 5SM -RA BR BKN007 OVC047 13/ RMK SF6SC2=

CYVR;2005-10-07 03:00;METAR CYVR 070300Z 16010KT 6SM -RA BR BKN007 BKN045 OVC077 12/12 A2979 RMK SF5SC2AC1 SLP088=

CYVR;2005-10-07 03:13;SPECI CYVR 070313Z 17011KT 8SM -RA SCT007 BKN042 OVC078 12/ RMK SF3SC3AC2=

CYVR;2005-10-07 04:00;METAR CYVR 070400Z 18009KT 12SM -RA FEW007 BKN046 OVC090 12/11 A2978 RMK SF2SC5AC2 PCPN VRY LGT SLP085=

CYVR;2005-10-07 04:17;SPECI CYVR 070417Z 19009KT 12SM FEW007 BKN050 OVC094 12/ RMK SF2SC6AC1=

CYVR;2005-10-07 05:00;METAR CYVR 070500Z 18008KT 12SM FEW007 BKN051 OVC091 13/11 A2979 RMK SF1SC6AC2 SLP087=

CYVR;2005-10-07 05:19;SPECI CYVR 070519Z 18007KT 12SM -RA FEW007 BKN045 OVC078 13/ RMK SF1SC5AC2=

CYVR;2005-10-07 06:00;METAR CYVR 070600Z 11004KT 12SM -RA FEW011 BKN048 OVC078 12/11 A2980 RMK CF1SC6AC2 SLP091=

CYVR;2005-10-07 07:37;SPECI CYVR 070737Z 09003KT 10SM FEW011 BKN044 BKN077 12/ RMK CF1SC5AC2=

CYVR;2005-10-07 09:00;METAR CYVR 070900Z 09004KT 15SM BKN062 BKN098 11/10 A2982 RMK SC5AC2 SLP098=

CYVR;2005-10-07 10:00;METAR CYVR 071000Z 03005KT 15SM BKN049 OVC084 11/10 A2983 RMK SC6AC2 SLP103=

CYVR;2005-10-07 11:00;METAR CYVR 071100Z 18003KT 15SM BKN045 OVC075 12/10 A2984 RMK SC6AC2 SLP106=

CYVR;2005-10-07 12:00;METAR CYVR 071200Z 08004KT 15SM FEW044 FEW077 10/10 A2985 RMK SC1AC2 SLP108=

CYVR;2005-10-07 13:00;METAR CYVR 071300Z 30005KT 8SM BKN005 BKN040 10/10 A2987 RMK SC6SC2 SLP115=

CYVR;2005-10-07 13:14;SPECI CYVR 071314Z 30005KT 8SM BKN004 OVC007 11/ RMK ST6SC2=

CYVR;2005-10-07 13:22;SPECI CYVR 071322Z 31005KT 7SM BKN003 OVC007 11/ RMK ST7SC1=

CYVR;2005-10-07 13:44;SPECI CYVR 071344Z 08002KT 15SM SCT004 BKN040 11/ RMK ST3SC1 VIS LWR N QUAD 6 SM=

CYVR;2005-10-07 14:00;METAR CYVR 071400Z 00000KT 10SM SCT003 BKN040 BKN090 10/10 A2988 RMK ST3SC1AC0 VIS LWR N QUAD 6 SM SLP119=

CYVR;2005-10-07 14:08;SPECI CYVR 071408Z 27004KT 10SM BCFG SCT003 BKN040 BKN090 11/ RMK ST3SC1AC1 VIS N QUAD 4 SM=

CYVR;2005-10-07 15:45;SPECI CYVR 071545Z 10003KT 12SM SCT006 BKN090 12/ RMK ST3AC2 VIS NE QUAD LWR=

CYVR;2005-10-07 16:00;METAR CYVR 071600Z 11002KT 12SM BCFG SCT005 BKN090 12/11 A2991 RMK ST3AC2 VIS N - NE QUAD LWR 6 SM SLP127=

CYVR;2005-10-07 17:00;METAR CYVR 071700Z 09007KT 6SM BR BKN005 OVC065 12/12 A2991 RMK ST5SC2 VIS N QUAD LWR 3 SM SLP130=

CYVR;2005-10-07 17:23;SPECI CYVR 071723Z 09005KT 12SM SCT005 BKN060 13/ RMK ST3SC1 F BNK N OVR WTR VIS LWR 5 SM=

CYVR;2005-10-07 18:00;METAR CYVR 071800Z 12006KT 15SM FEW005 SCT040 BKN065 13/11 A2992 RMK ST2SC2SC1 SLP132=

CYVR;2005-10-07 20:00;METAR CYVR 072000Z 16004KT 15SM FEW025 SCT040 BKN071 16/10 A2991 RMK CU2SC2AC2 SLP129=

CYVR;2005-10-07 21:00;METAR CYVR 072100Z 16007KT 15SM FEW025 FEW040 BKN071 16/10 A2991 RMK CU1SC2AC2 SLP127=

CYVR;2005-10-07 22:00;METAR CYVR 072200Z 16008KT 15SM FEW030 SCT070 15/10 A2990 RMK CU2AC1 SLP125=

CYVR;2005-10-07 23:00;METAR CYVR 072300Z 17008KT 15SM FEW025 FEW035 SCT070 BKN085 15/10 A2990 RMK CF1SC2AC1AC0 TCU EMBD SLP124=

CYVR;2005-10-08 00:00;METAR CYVR 080000Z 18007KT 15SM FEW035 SCT085 15/10 A2989 RMK SC2AC1 TCU EMBD SLP122=

CYVR;2005-10-08 01:00;METAR CYVR 080100Z 15006KT 15SM FEW030 FEW035 FEW085 14/10 A2988 RMK SF1SC1AC1 TR SF / TCU EMBD SLP119=

CYVR;2005-10-08 02:00;METAR CYVR 080200Z 10008KT 15SM FEW025 SCT035 BKN085 12/10 A2989 RMK SC1SC3AC2 TCU EMBD SLP121=

CYVR;2005-10-08 03:00;METAR CYVR 080300Z 09006KT 15SM FEW035 FEW090 SCT120 12/10 A2989 RMK SC1AC2AC2 SLP123=

CYVR;2005-10-08 04:00;METAR CYVR 080400Z 08006KT 15SM FEW030 SCT065 BKN090 12/10 A2989 RMK SC2SC2AC2 SLP122=

CYVR;2005-10-08 05:00;METAR CYVR 080500Z 10009KT 15SM FEW065 SCT085 11/09 A2989 RMK SC2AC2 SLP123=

CYVR;2005-10-08 06:00;METAR CYVR 080600Z 09008KT 15SM FEW060 SCT080 11/09 A2989 RMK SC2AC2 SLP122=

CYVR;2005-10-08 07:00;METAR CYVR 080700Z 10008KT 15SM SCT060 SCT080 10/09 A2989 RMK SC3AC1 SLP121=

CYVR;2005-10-08 08:00;METAR CYVR 080800Z 09010KT 10SM FEW060 BKN075 BKN230 11/09 A2989 RMK SC2AC3CI2 SLP121=

CYVR;2005-10-08 09:00;METAR CYVR 080900Z 10007KT 10SM FEW060 FEW075 09/08 A2988 RMK SC1AC2 SLP119=

CYVR;2005-10-08 09:22;SPECI CYVR 080922Z 10009KT 10SM BKN013 BKN060 10/ RMK SC5SC2=

CYVR;2005-10-08 10:00;METAR CYVR 081000Z 09007KT 10SM BKN013 BKN060 11/10 A2988 RMK SC6SC2 SLP120=

CYVR;2005-10-08 11:00;METAR CYVR 081100Z 10007KT 10SM BKN011 OVC060 11/10 A2988 RMK SC6SC2 SLP117=

CYVR;2005-10-08 12:00;METAR CYVR 081200Z 10005KT 10SM SCT013 SCT025 BKN070 10/09 A2987 RMK SC3SC1AC2 SLP116=

CYVR;2005-10-08 13:00;METAR CYVR 081300Z 10007KT 15SM FEW013 SCT025 BKN031 10/09 A2987 RMK SC1SC3SC3 VIS N QUAD LWR 10 SLP116=

CYVR;2005-10-08 14:00;METAR CYVR 081400Z 10007KT 15SM FEW015 BKN031 OVC100 10/09 A2987 RMK SC2SC6AC1 VIS N QUAD 12 SM SLP115=

CYVR;2005-10-08 15:00;METAR CYVR 081500Z 12005KT 15SM BKN025 OVC030 11/09 A2987 RMK SC6SC2 SLP116=

CYVR;2005-10-08 17:00;METAR CYVR 081700Z 11007KT 15SM BKN019 OVC030 12/09 A2988 RMK SC6SC2 SLP117=

CYVR;2005-10-08 18:00;METAR CYVR 081800Z 11008KT 15SM FEW015 BKN027 OVC043 13/10 A2987 RMK CF1SC6SC2 SLP115=

CYVR;2005-10-08 19:00;METAR CYVR 081900Z 14010KT 15SM SCT016 BKN025 OVC040 13/09 A2986 RMK SC3SC3SC2 SLP112=

CYVR;2005-10-08 19:55;SPECI CYVR 081955Z 13008KT 15SM -SHRA SCT014 BKN025 OVC040 13/ RMK SC3SC3SC2=

CYVR;2005-10-08 20:00;METAR CYVR 082000Z 13008KT 15SM -SHRA SCT014 BKN025 OVC037 13/10 A2985 RMK SC3SC3SC2 PCPN VRY LGT SLP110=

CYVR;2005-10-08 20:19;SPECI CYVR 082019Z 13012KT 15SM FEW015 BKN025 OVC034 13/ RMK SC2SC4SC2=

CYVR;2005-10-08 22:00;METAR CYVR 082200Z 13006KT 15SM SCT030 BKN130 14/09 A2984 RMK SC3AC3 SLP106=

CYVR;2005-10-08 23:00;METAR CYVR 082300Z 11007KT 15SM FEW030 FEW043 BKN130 BKN220 14/09 A2985 RMK CF1SC2AC2CI1 SLP109=

CYVR;2005-10-09 00:00;METAR CYVR 090000Z 08008KT 15SM FEW035 SCT130 BKN170 14/09 A2985 RMK SC1AC2AC2 SLP107=

CYVR;2005-10-09 01:00;METAR CYVR 090100Z 07006KT 15SM FEW035 SCT140 BKN230 14/09 A2984 RMK SC1AC2CI1 SLP106=

CYVR;2005-10-09 02:00;METAR CYVR 090200Z 07007KT 15SM FEW035 SCT140 BKN230 13/09 A2986 RMK SC2AC2CI3 HZ SLP111=

CYVR;2005-10-09 03:00;METAR CYVR 090300Z 08007KT 15SM FEW035 FEW130 SCT240 12/09 A2986 RMK SC1AC2CI2 SLP113=

CYVR;2005-10-09 04:00;METAR CYVR 090400Z 11011KT 15SM FEW040 SCT130 12/09 A2988 RMK SC2AC2 SLP117=

CYVR;2005-10-09 05:00;METAR CYVR 090500Z 09008KT 15SM FEW040 BKN095 BKN240 11/09 A2991 RMK SC2AC3CI2 SLP129=

CYVR;2005-10-09 06:00;METAR CYVR 090600Z 09007KT 15SM FEW060 BKN100 BKN240 11/09 A2993 RMK SC1AC6CI1 SLP134=

CYVR;2005-10-09 08:00;METAR CYVR 090800Z 08006KT 15SM BKN065 BKN100 11/09 A2994 RMK SC6AC2 SLP140=

CYVR;2005-10-09 09:00;METAR CYVR 090900Z 07004KT 15SM BKN070 OVC100 12/09 A2996 RMK AC6AC2 SLP146=

CYVR;2005-10-09 10:00;METAR CYVR 091000Z 11007KT 15SM FEW035 BKN060 OVC100 11/09 A2998 RMK SC2SC3AC2 SLP152=

CYVR;2005-10-09 11:00;METAR CYVR 091100Z 09007KT 15SM SCT040 BKN055 OVC100 11/09 A3000 RMK SC3SC2AC2 SLP160=

CYVR;2005-10-09 12:00;METAR CYVR 091200Z 11006KT 15SM BKN045 BKN060 OVC100 11/09 A3003 RMK SC5SC2AC2 SLP169=

CYVR;2005-10-09 13:00;METAR CYVR 091300Z 11008KT 15SM SCT050 BKN060 BKN100 11/09 A3005 RMK SC4SC2AC2 SLP176=

CYVR;2005-10-09 14:00;METAR CYVR 091400Z 10007KT 15SM FEW035 OVC046 11/09 A3007 RMK SC2SC5 SLP184=

CYVR;2005-10-09 15:00;METAR CYVR 091500Z 11007KT 15SM FEW035 BKN048 11/09 A3009 RMK SC2SC5 SLP190=

CYVR;2005-10-09 16:00;METAR CYVR 091600Z 08008KT 15SM SCT035 OVC045 12/09 A3011 RMK SC4SC3 SLP197=

CYVR;2005-10-09 17:00;METAR CYVR 091700Z 09008KT 15SM BKN033 OVC045 13/09 A3013 RMK SC5SC2 SLP204=

CYVR;2005-10-09 18:00;METAR CYVR 091800Z 09010KT 15SM SCT027 OVC033 14/09 A3014 RMK SC3SC4 SLP207=

CYVR;2005-10-09 19:00;METAR CYVR 091900Z 10013KT 15SM -RA BKN030 OVC035 14/09 A3015 RMK SC6SC2 SLP211=

CYVR;2005-10-09 19:13;SPECI CYVR 091913Z 11012KT 15SM BKN026 OVC035 14/ RMK SC5SC3=

CYVR;2005-10-09 20:00;METAR CYVR 092000Z 09006KT 15SM BKN027 OVC035 14/09 A3016 RMK SC5SC3 SLP214=

CYVR;2005-10-09 21:00;METAR CYVR 092100Z 11009KT 15SM FEW027 OVC033 15/09 A3016 RMK SC2SC6 SLP212=

CYVR;2005-10-09 22:00;METAR CYVR 092200Z 14009KT 15SM BKN028 OVC035 15/09 A3017 RMK SC5SC3 SLP217=

CYVR;2005-10-09 23:00;METAR CYVR 092300Z 13010KT 15SM BKN028 OVC035 15/10 A3017 RMK SC6SC2 SLP217=

CYVR;2005-10-10 00:00;METAR CYVR 100000Z 09009KT 15SM OVC028 14/10 A3018 RMK SC8 SLP219=

CYVR;2005-10-10 01:00;METAR CYVR 100100Z 08007KT 15SM FEW030 SCT045 BKN077 OVC100 14/10 A3018 RMK SF1SC2AC2AC2 SLP219=

CYVR;2005-10-10 02:00;METAR CYVR 100200Z 09009KT 10SM -SHRA FEW030 BKN045 BKN070 OVC100 14/10 A3017 RMK SC2SC3AC2AC2 SLP218=

CYVR;2005-10-10 03:00;METAR CYVR 100300Z 09006KT 7SM -SHRA FEW030 BKN050 OVC060 13/11 A3019 RMK SC2SC4SC2 SLP223=

CYVR;2005-10-10 03:38;SPECI CYVR 100338Z 08009KT 10SM FEW030 BKN055 OVC100 13/ RMK SC2SC5AC2=

CYVR;2005-10-10 04:00;METAR CYVR 100400Z 08009KT 10SM FEW040 BKN055 BKN100 13/12 A3018 RMK SC2SC3AC2 SLP220=

CYVR;2005-10-10 05:00;METAR CYVR 100500Z 09007KT 10SM SCT050 BKN060 BKN100 13/12 A3018 RMK SC3SC2AC2 SLP219=

CYVR;2005-10-10 06:00;METAR CYVR 100600Z 09003KT 10SM FEW030 BKN060 BKN100 13/12 A3017 RMK SC1SC5AC2 SLP218=

CYVR;2005-10-10 07:00;METAR CYVR 100700Z 11006KT 10SM FEW060 SCT090 BKN110 13/12 A3015 RMK SC2AC2AC2 SLP211=

CYVR;2005-10-10 09:00;METAR CYVR 100900Z 10007KT 10SM FEW030 FEW090 BKN110 12/11 A3011 RMK SC2AC1AC3 SLP196=

CYVR;2005-10-10 10:00;METAR CYVR 101000Z 10005KT 10SM FEW030 FEW090 BKN110 12/11 A3009 RMK SC2AC1AC3 SLP190=

CYVR;2005-10-10 11:00;METAR CYVR 101100Z 09003KT 15SM FEW040 FEW090 BKN130 12/11 A3006 RMK SC1AC2AC5 SLP180=

CYVR;2005-10-10 12:00;METAR CYVR 101200Z 10006KT 15SM FEW040 BKN130 BKN240 12/11 A3004 RMK SC1AC4CI1 SLP173=

CYVR;2005-10-10 13:00;METAR CYVR 101300Z 11009KT 15SM FEW040 BKN100 OVC130 12/11 A3000 RMK SC2AC5AC2 SLP158=

CYVR;2005-10-10 13:56;SPECI CYVR 101356Z 12008KT 12SM -RA FEW040 OVC088 13/ RMK SC2AC6=

CYVR;2005-10-10 14:00;METAR CYVR 101400Z 13007KT 12SM -RA FEW040 OVC087 13/11 A2999 RMK SC2AC6 SLP156=

CYVR;2005-10-10 15:00;METAR CYVR 101500Z 09003KT 15SM -RA FEW040 OVC082 12/11 A2999 RMK SC2AC6 SLP155=

CYVR;2005-10-10 16:00;METAR CYVR 101600Z 08008KT 8SM -RA FEW045 OVC079 12/12 A2999 RMK SC2AC6 SLP155=

CYVR;2005-10-10 17:00;METAR CYVR 101700Z 08007KT 12SM -RA FEW035 OVC068 13/12 A2998 RMK SC2AC6 SLP153=

CYVR;2005-10-10 17:22;SPECI CYVR 101722Z 08005KT 6SM -RA BR FEW035 OVC063 13/ RMK SC2SC6=

CYVR;2005-10-10 18:00;METAR CYVR 101800Z 09009KT 6SM -RA BR FEW035 OVC059 12/12 A2999 RMK SC2SC6 SLP155=

CYVR;2005-10-10 18:34;SPECI CYVR 101834Z 09011KT 3SM -RA BR OVC046 12/ RMK SC8=

CYVR;2005-10-10 19:00;METAR CYVR 101900Z 09013KT 6SM -RA BR FEW035 OVC045 12/12 A2998 RMK SF2SC6 SLP154=

CYVR;2005-10-10 19:09;SPECI CYVR 101909Z 10011KT 8SM -RA FEW035 OVC044 12/ RMK SF2SC6=

CYVR;2005-10-10 20:19;SPECI CYVR 102019Z 09011KT 12SM -SHRA BKN013 OVC035 12/ RMK SC5SC3=

CYVR;2005-10-10 20:25;SPECI CYVR 102025Z 09008KT 12SM -SHRA SCT013 OVC037 12/ RMK SC4SC4=

CYVR;2005-10-10 21:00;METAR CYVR 102100Z 12009KT 6SM -SHRA BR SCT013 OVC031 13/12 A2999 RMK SC3SC5 PCPN VRY LGT SLP156=

CYVR;2005-10-10 21:12;SPECI CYVR 102112Z 13008KT 3SM -SHRA BR FEW011 OVC031 13/ RMK SC2SC6 VIS N QUAD 21/2 SM=

CYVR;2005-10-10 21:21;SPECI CYVR 102121Z 12010KT 2 1/2SM -SHRA BR FEW011 SCT020 OVC030 13/ RMK SC2SC2SC4=

CYVR;2005-10-10 21:46;SPECI CYVR 102146Z 12011KT 3SM -SHRA BR FEW015 BKN030 OVC045 13/ RMK SF2SC3SC2=

CYVR;2005-10-10 22:12;SPECI CYVR 102212Z 12009KT 10SM FEW015 SCT025 BKN045 OVC055 13/ RMK SF2SC2SC2SC2=

CYVR;2005-10-10 23:00;METAR CYVR 102300Z 15009KT 15SM FEW015 BKN025 BKN053 15/13 A2999 RMK SF2SC3SC2 VIS N QUAD 12 SM SLP155=

CYVR;2005-10-11 01:00;METAR CYVR 110100Z 14005KT 15SM FEW015 BKN029 BKN110 BKN230 14/12 A3000 RMK SC2SC3AS2CI1 SLP160=

CYVR;2005-10-11 02:00;METAR CYVR 110200Z 10006KT 10SM FEW015 SCT030 BKN060 13/11 A3001 RMK SC2SC2SC3 SLP163=

CYVR;2005-10-11 02:44;SPECI CYVR 110244Z 12007KT 6SM -SHRA FEW015 FEW030 BKN060 12/ RMK SC1SC2SC5=

CYVR;2005-10-11 03:00;METAR CYVR 110300Z 11006KT 7SM -SHRA FEW030 BKN055 OVC110 12/11 A3001 RMK SC2SC5AC2 SLP164=

CYVR;2005-10-11 03:17;SPECI CYVR 110317Z 09004KT 10SM FEW030 BKN060 BKN110 12/ RMK SC2SC5AC1=

CYVR;2005-10-11 04:00;METAR CYVR 110400Z 11005KT 10SM FEW030 SCT040 BKN070 BKN110 12/11 A3002 RMK SC2SC2AC2AC2 SLP165=

CYVR;2005-10-11 05:00;METAR CYVR 110500Z 11005KT 10SM FEW030 FEW050 BKN060 11/11 A3004 RMK SC1SC2SC3 SLP171=

CYVR;2005-10-11 07:00;METAR CYVR 110700Z 08002KT 15SM MIFG FEW030 FEW060 10/10 A3006 RMK SC1SC2 SLP178=

CYVR;2005-10-11 08:00;METAR CYVR 110800Z 00000KT 15SM MIFG FEW030 FEW060 09/09 A3007 RMK SC1SC1 VIS LWR N QUAD 10 SLP184=

CYVR;2005-10-11 08:13;SPECI CYVR 110813Z 00000KT 3SM BR FEW030 FEW060 08/ RMK SC1SC1=

CYVR;2005-10-11 08:16;SPECI CYVR 110816Z 00000KT 1/2SM FG SKC 08/ RMK FG4=

CYVR;2005-10-11 08:34;SPECI CYVR 110834Z 00000KT 1/4SM FG SKC 08/ RMK FG2 VIS N QUAD 3 / TOWER VIS 10 / TD 7.7=

CYVR;2005-10-11 09:00;METAR CYVR 110900Z 03004KT 1/4SM FG SKC 07/07 A3009 RMK FG5 ROOF VIS 4 SLP189=

CYVR;2005-10-11 10:00;METAR CYVR 111000Z 00000KT 3/4SM BR SKC 07/07 A3010 RMK FG7 SLP194=

CYVR;2005-10-11 10:07;SPECI CYVR 111007Z 00000KT 1SM BR SKC 08/ RMK FG7=

CYVR;2005-10-11 10:14;SPECI CYVR 111014Z 02002KT 2SM BR SKC 09/ RMK FG7=

CYVR;2005-10-11 10:24;SPECI CYVR 111024Z 15002KT 1SM BR SKC 09/ RMK FG6=

CYVR;2005-10-11 10:51;SPECI CYVR 111051Z 13002KT 1/8SM FG SKC 08/ RMK FG7=

CYVR;2005-10-11 11:00;METAR CYVR 111100Z 11003KT 1/8SM FG BKN017 08/08 A3011 RMK FG3SC3 SLP198=

CYVR;2005-10-11 11:37;SPECI CYVR 111137Z 15002KT 1/2SM FG SKC 09/ RMK FG7=

CYVR;2005-10-11 12:00;METAR CYVR 111200Z 15004KT 1/2SM FG SCT011 BKN015 09/09 A3013 RMK FG2SF2SC3 SLP203=

CYVR;2005-10-11 12:06;SPECI CYVR 111206Z 17003KT 5SM BR BKN013 10/ RMK SC6 VIS LWR N QUAD 1 SM=

CYVR;2005-10-11 13:00;METAR CYVR 111300Z 10005KT 5SM BR SCT010 BKN017 09/09 A3014 RMK SF3SC4 VIS LWR N - E QUAD 2 SM SLP207=

CYVR;2005-10-11 13:43;SPECI CYVR 111343Z 07003KT 1/2SM FG SCT010 BKN019 08/ RMK SF3SC2=

CYVR;2005-10-11 13:54;SPECI CYVR 111354Z 06005KT 1 1/4SM BR FEW007 BKN019 08/ RMK FG1SF2SC4=

CYVR;2005-10-11 14:00;METAR CYVR 111400Z 04002KT 2SM BR SCT007 OVC018 09/09 A3017 RMK SF3SC3 SLP215=

CYVR;2005-10-11 14:29;SPECI CYVR 111429Z 31003KT 5SM BR FEW007 BKN019 09/ RMK SF2SC5 VIS N 10=

CYVR;2005-10-11 15:42;SPECI CYVR 111542Z 35002KT 10SM FEW011 FEW020 10/ RMK CF1SC2=

CYVR;2005-10-11 16:00;METAR CYVR 111600Z 36002KT 12SM FEW011 FEW020 11/10 A3019 RMK CF1SC2 SLP224=

CYVR;2005-10-11 17:43;SPECI CYVR 111743Z 12005KT 8SM SCT009 OVC021 12/ RMK SC4SC3=

CYVR;2005-10-11 18:00;METAR CYVR 111800Z 14004KT 8SM FEW009 BKN020 13/10 A3021 RMK SC2SC2 SLP229=

CYVR;2005-10-11 19:00;METAR CYVR 111900Z 27006KT 8SM BKN019 12/10 A3021 RMK SC6 SLP230=

CYVR;2005-10-11 21:00;METAR CYVR 112100Z 25006KT 12SM FEW020 SCT200 13/10 A3020 RMK SC2CI0 SLP227=

CYVR;2005-10-11 22:00;METAR CYVR 112200Z 26005KT 12SM FEW025 FEW200 13/10 A3021 RMK SC2CI0 TCU EMBD SLP230=

CYVR;2005-10-11 23:00;METAR CYVR 112300Z 26003KT 12SM FEW030 FEW150 SCT220 14/10 A3018 RMK SC1AC1CI0 SLP220=

CYVR;2005-10-12 00:00;METAR CYVR 120000Z 25003KT 15SM FEW035 FEW120 BKN240 13/10 A3019 RMK SC1AC1CS2 SLP224=

CYVR;2005-10-12 01:00;METAR CYVR 120100Z 21002KT 15SM FEW160 OVC240 12/10 A3019 RMK AC2CS2 SLP223=

CYVR;2005-10-12 02:00;METAR CYVR 120200Z 09002KT 15SM FEW011 SCT150 BKN240 12/09 A3017 RMK CF1AC2CI1 SLP216=

CYVR;2005-10-12 04:00;METAR CYVR 120400Z 07003KT 15SM FEW010 BKN140 BKN220 11/09 A3019 RMK SF2AC3CI1 SLP222=

CYVR;2005-10-12 05:00;METAR CYVR 120500Z 11008KT 15SM FEW010 SCT050 BKN120 11/10 A3018 RMK SF1SC2AC3 SLP219=

CYVR;2005-10-12 06:00;METAR CYVR 120600Z 10006KT 15SM FEW010 SCT050 OVC130 11/08 A3017 RMK SF1SC2AC4 SLP218=

CYVR;2005-10-12 07:00;METAR CYVR 120700Z 09004KT 15SM FEW011 FEW060 SCT080 OVC120 11/09 A3018 RMK SF1SC2AC2AC3 SLP220=

CYVR;2005-10-12 08:00;METAR CYVR 120800Z 10006KT 15SM FEW011 BKN058 OVC080 11/10 A3017 RMK SF1SC6AC2 SLP217=

CYVR;2005-10-12 10:00;METAR CYVR 121000Z 10007KT 15SM FEW012 SCT050 OVC100 11/09 A3014 RMK SF1SC3AC4 SLP208=

CYVR;2005-10-12 11:00;METAR CYVR 121100Z 08005KT 15SM FEW012 BKN045 OVC100 11/09 A3014 RMK SF1SC5AC2 SLP206=

CYVR;2005-10-12 12:00;METAR CYVR 121200Z 10007KT 15SM FEW012 BKN045 BKN060 OVC100 11/09 A3012 RMK SF1SC4SC2AC2 SLP200=

CYVR;2005-10-12 13:00;METAR CYVR 121300Z 08005KT 15SM FEW015 BKN045 OVC100 11/08 A3010 RMK SF1SC4AC3 SLP192=

CYVR;2005-10-12 14:00;METAR CYVR 121400Z 09006KT 15SM SCT040 OVC089 10/09 A3008 RMK SC3AC5 SLP187=

CYVR;2005-10-12 15:00;METAR CYVR 121500Z 13007KT 15SM SCT040 OVC095 11/09 A3009 RMK SC3AC5 SLP188=

CYVR;2005-10-12 16:00;METAR CYVR 121600Z 10006KT 15SM FEW040 OVC092 11/09 A3008 RMK SC2AC6 SLP187=

CYVR;2005-10-12 17:00;METAR CYVR 121700Z 10008KT 15SM FEW040 BKN091 OVC120 11/09 A3006 RMK SC2AC5AC2 SLP180=

CYVR;2005-10-12 18:00;METAR CYVR 121800Z 09009KT 15SM FEW040 BKN096 OVC120 12/09 A3006 RMK SC1AC6AC1 SLP181=

CYVR;2005-10-12 19:00;METAR CYVR 121900Z 10012KT 15SM FEW040 OVC110 13/09 A3006 RMK SC1AC7 SLP178=

CYVR;2005-10-13 00:40;SPECI CYVR 130040Z 08016G22KT 10SM SCT030 OVC049 11/ RMK SC4SC4=

CYVR;2005-10-13 01:27;SPECI CYVR 130127Z 09012KT 2 1/2SM -RA BR FEW025 OVC044 10/ RMK SC2SC6=

CYVR;2005-10-13 05:31;SPECI CYVR 130531Z 08012G17KT 10SM BKN019 BKN030 OVC040 10/ RMK SC5SC2SC2=

CYVR;2005-10-13 06:28;SPECI CYVR 130628Z 09015KT 8SM BKN015 BKN025 OVC040 10/ RMK SC5SC2SC1=

CYVR;2005-10-13 16:13;SPECI CYVR 131613Z 11009KT 10SM SCT007 BKN017 OVC080 12/ RMK SC3SC4AC1=

CYVR;2005-10-14 01:00;METAR CYVR 140100Z 00000KT 15SM FEW035 BKN071 OVC220 14/10 A3010 RMK SC2AC4CI1 SLP194=

CYVR;2005-10-14 02:00;METAR CYVR 140200Z 10004KT 15SM FEW020 SCT050 BKN070 BKN220 12/10 A3010 RMK SC1SC2AC2CI1 SLP192=

CYVR;2005-10-14 03:00;METAR CYVR 140300Z 11005KT 15SM FEW018 SCT070 BKN200 11/10 A3010 RMK SF2AC1CI2 SLP192=

CYVR;2005-10-14 04:00;METAR CYVR 140400Z 07004KT 15SM FEW021 SCT050 SCT070 BKN160 12/10 A3009 RMK SF2SC2AC1AC2 SLP191=

CYVR;2005-10-14 05:00;METAR CYVR 140500Z 08006KT 15SM FEW020 SCT075 BKN160 BKN200 12/10 A3008 RMK SF2AC2AC2CI2 SLP187=

CYVR;2005-10-14 06:00;METAR CYVR 140600Z 08006KT 15SM FEW020 SCT070 BKN140 BKN200 12/10 A3007 RMK SF2AC2AC2CI1 SLP183=

CYVR;2005-10-14 09:00;METAR CYVR 140900Z 12006KT 15SM FEW020 SCT075 BKN110 12/09 A2996 RMK SC2AC2AC3 SLP146=

CYVR;2005-10-14 10:00;METAR CYVR 141000Z 27003KT 15SM -SHRA FEW020 BKN050 OVC070 11/09 A2995 RMK SC2SC5AC2 SLP141=

CYVR;2005-10-14 11:00;METAR CYVR 141100Z 09003KT 10SM -RA FEW020 SCT055 OVC071 11/09 A2992 RMK SC2SC2AC4 SLP133=

CYVR;2005-10-14 12:00;METAR CYVR 141200Z 05003KT 10SM -RA FEW020 BKN059 OVC078 11/09 A2990 RMK SC2SC5AC2 SLP124=

CYVR;2005-10-14 13:00;METAR CYVR 141300Z 18005KT 10SM -RA FEW020 BKN060 OVC075 11/10 A2990 RMK SC2SC6AC1 SLP126=

CYVR;2005-10-14 14:00;METAR CYVR 141400Z 04007KT 10SM -RA FEW020 BKN063 OVC091 11/10 A2983 RMK SC2SC6AC1 PRESFR SLP102=

CYVR;2005-10-14 15:00;METAR CYVR 141500Z 07006KT 10SM -RA BKN061 OVC090 11/10 A2979 RMK SC6AC2 SLP089=

CYVR;2005-10-14 16:00;METAR CYVR 141600Z 08007KT 12SM -SHRA FEW040 BKN059 OVC090 11/10 A2974 RMK SC1SC6AC1 SLP071=

CYVR;2005-10-14 16:28;SPECI CYVR 141628Z 10011KT 15SM FEW040 BKN052 OVC085 12/ RMK SC1SC6AC2=

CYVR;2005-10-14 17:00;METAR CYVR 141700Z 00000KT 15SM -SHRA BKN051 OVC085 12/10 A2972 RMK SC7AC1 SLP063=

CYVR;2005-10-14 17:50;SPECI CYVR 141750Z 23005KT 15SM BKN056 OVC085 12/ RMK SC6AC2=

CYVR;2005-10-14 18:00;METAR CYVR 141800Z 24004KT 15SM BKN056 OVC085 12/10 A2972 RMK SC6AC2 SLP063=

CYVR;2005-10-14 20:00;METAR CYVR 142000Z 10007KT 15SM BKN053 OVC089 13/10 A2964 RMK SC6AC2 SLP037=

CYVR;2005-10-14 21:00;METAR CYVR 142100Z 11007KT 15SM BKN056 OVC087 14/11 A2961 RMK SC6AC2 SLP026=

CYVR;2005-10-14 22:00;METAR CYVR 142200Z 10008KT 15SM BKN053 OVC091 14/11 A2957 RMK SC6AC2 SLP014=

CYVR;2005-10-14 23:00;METAR CYVR 142300Z 30007KT 15SM BKN052 BKN088 OVC110 14/11 A2957 RMK SC5AC2AC1 SLP012=

CYVR;2005-10-15 00:00;METAR CYVR 150000Z 36002KT 15SM SCT050 BKN080 OVC120 13/11 A2954 RMK SC3AC2AC2 SLP003=

CYVR;2005-10-15 01:31;SPECI CYVR 150131Z 22005KT 15SM -SHRA SCT045 BKN090 OVC150 13/ RMK SC4AC3AC1=

CYVR;2005-10-15 02:00;METAR CYVR 150200Z 25009G15KT 10SM -RA BKN035 BKN050 OVC090 13/11 A2959 RMK SC6SC2AC1 SLP020=

CYVR;2005-10-15 03:00;METAR CYVR 150300Z 03007KT 10SM -RA BKN039 OVC060 13/12 A2959 RMK SC6SC2 SLP019=

CYVR;2005-10-15 04:00;METAR CYVR 150400Z 06007KT 8SM -RA BKN038 BKN065 OVC080 13/12 A2959 RMK SC5SC2AC1 SLP020=

CYVR;2005-10-15 05:00;METAR CYVR 150500Z 08009KT 10SM -RA BKN041 BKN070 OVC090 13/13 A2958 RMK SC5AC2AC2 SLP018=

CYVR;2005-10-15 06:00;METAR CYVR 150600Z 11013KT 10SM -RA FEW023 SCT040 BKN065 OVC090 13/13 A2960 RMK SC2SC2SC2AC2 SLP023=

CYVR;2005-10-15 07:00;METAR CYVR 150700Z 13016KT 8SM -RA FEW012 BKN025 OVC040 13/12 A2961 RMK SF2SC5SC2 SLP028=

CYVR;2005-10-15 07:41;SPECI CYVR 150741Z 14013G18KT 6SM -RA BR FEW008 BKN024 OVC050 12/ RMK SF2SC6SC1=

CYVR;2005-10-15 09:00;METAR CYVR 150900Z 14010KT 6SM -RA BR SCT007 BKN021 OVC040 12/12 A2965 RMK SF4SC3SC1 SLP040=

CYVR;2005-10-15 11:00;METAR CYVR 151100Z 11006KT 8SM -RA FEW006 SCT025 OVC060 12/12 A2966 RMK SF2SC2SC4 RERA SLP043=

CYVR;2005-10-15 12:00;METAR CYVR 151200Z 10010KT 8SM -RA FEW007 SCT020 BKN060 OVC075 12/12 A2966 RMK SF2SC2SC3AC2 SLP045=

CYVR;2005-10-15 13:00;METAR CYVR 151300Z 10007KT 8SM -RA FEW007 SCT025 OVC060 12/11 A2968 RMK SF2SC2SC5 SLP051=

CYVR;2005-10-15 14:00;METAR CYVR 151400Z 06005KT 8SM -RA SCT008 BKN025 BKN060 12/11 A2971 RMK SF4SC2SC2 SLP062=

CYVR;2005-10-15 14:24;SPECI CYVR 151424Z 08004KT 8SM -RA BKN010 BKN060 12/ RMK SF5SC2=

CYVR;2005-10-15 14:45;SPECI CYVR 151445Z 07003KT 8SM -RA SCT010 BKN060 BKN075 12/ RMK SF3SC2AC2=

CYVR;2005-10-15 15:00;METAR CYVR 151500Z 02004KT 8SM -RA SCT010 SCT060 BKN075 12/11 A2973 RMK SF3SC1AC2 SLP068=

CYVR;2005-10-15 15:35;SPECI CYVR 151535Z 04006KT 10SM FEW010 FEW060 SCT075 SCT240 12/ RMK SF1SC1AC2CC1 TCU ASOCTD=

CYVR;2005-10-15 16:00;METAR CYVR 151600Z 04005KT 15SM FEW060 SCT075 BKN240 13/12 A2977 RMK SC2AC2CC2 TCU ASOCTD SLP080=

CYVR;2005-10-15 17:00;METAR CYVR 151700Z 08004KT 15SM FEW010 FEW060 FEW075 SCT240 14/12 A2979 RMK SF1SC1AC1CI2 SLP089=

CYVR;2005-10-15 18:00;METAR CYVR 151800Z 00000KT 15SM FEW010 SCT020 BKN075 BKN240 14/10 A2983 RMK SF1SC3AC1CI1 TCU ASOCTD SLP100=

CYVR;2005-10-15 19:00;METAR CYVR 151900Z 22003KT 30SM FEW010 SCT025 SCT075 BKN110 15/11 A2984 RMK SF1SC2AC1AC1 TCU ASOCTD SLP105=

CYVR;2005-10-15 21:00;METAR CYVR 152100Z 29006KT 30SM FEW025 SCT075 SCT110 15/11 A2988 RMK SC2AC1AC1 TCU ASOCTD SLP119=

CYVR;2005-10-15 22:00;METAR CYVR 152200Z 29006KT 30SM FEW030CB SCT075 15/11 A2990 RMK CB2AC1 CB N - NE QUADS SLP124=

CYVR;2005-10-15 23:00;METAR CYVR 152300Z 26003KT 30SM FEW025CB SCT075 SCT240 15/11 A2991 RMK CB2AC1CI1 CB N - E QUADS / SHRA DIST NE SLP129=

CYVR;2005-10-16 00:00;METAR CYVR 160000Z 00000KT 30SM FEW030CB FEW075 BKN240 14/10 A2992 RMK CB2AC1CI2 CB NW - NE QUADS / SHRA DIST NE SLP133=

CYVR;2005-10-16 01:00;METAR CYVR 160100Z 22002KT 30SM FEW025 SCT075 SCT110 BKN240 13/10 A2994 RMK SC2AC2AC1CI3 SLP140=

CYVR;2005-10-16 02:00;METAR CYVR 160200Z 00000KT 20SM BKN080 BKN240 12/10 A2996 RMK AC5CI1 SLP145=

CYVR;2005-10-16 03:00;METAR CYVR 160300Z 04002KT 20SM SCT080 BKN240 13/10 A2997 RMK AC3CI1 SLP149=

CYVR;2005-10-16 04:00;METAR CYVR 160400Z 13006KT 20SM BKN046 BKN080 13/11 A2997 RMK SC6AC2 SLP150=

CYVR;2005-10-16 04:23;SPECI CYVR 160423Z 11008KT 15SM -RA BKN046 OVC060 13/ RMK SC5SC2=

CYVR;2005-10-16 05:00;METAR CYVR 160500Z 09005KT 15SM BKN039 OVC046 13/11 A2998 RMK SC6SC2 SLP153=

CYVR;2005-10-16 06:00;METAR CYVR 160600Z 11008KT 15SM FEW045 BKN095 OVC120 12/11 A2999 RMK SC2AC3AC2 SLP156=

CYVR;2005-10-16 07:00;METAR CYVR 160700Z 10008KT 15SM FEW035 BKN080 OVC120 12/11 A3000 RMK SC2AC3AC2 SLP159=

CYVR;2005-10-16 08:00;METAR CYVR 160800Z 10008KT 15SM FEW035 SCT083 OVC110 11/11 A3000 RMK SC2AC2AC3 SLP160=

CYVR;2005-10-16 09:00;METAR CYVR 160900Z 11007KT 15SM FEW035 OVC100 12/11 A3002 RMK SC2AC5 SLP166=

CYVR;2005-10-16 10:00;METAR CYVR 161000Z 14004KT 15SM FEW040 BKN095 11/10 A3004 RMK SC2AC5 SLP171=

CYVR;2005-10-16 11:00;METAR CYVR 161100Z 20004KT 15SM FEW035 OVC091 12/10 A3004 RMK SC2AC6 SLP173=

CYVR;2005-10-16 12:00;METAR CYVR 161200Z 26005KT 15SM FEW040 OVC091 12/10 A3006 RMK SC2AC5 SLP180=

CYVR;2005-10-16 13:00;METAR CYVR 161300Z 23005KT 15SM FEW040 OVC073 12/07 A3006 RMK SC2AC6 SLP180=

CYVR;2005-10-16 14:00;METAR CYVR 161400Z 22009KT 15SM -SHRA FEW040 OVC065 11/08 A3009 RMK SC2SC6 SLP190=

CYVR;2005-10-16 15:00;METAR CYVR 161500Z 16004KT 10SM -SHRA FEW010 FEW040 OVC050 11/09 A3010 RMK SF1SC2SC6 SLP192=

CYVR;2005-10-16 16:00;METAR CYVR 161600Z 10010KT 7SM RA FEW010 OVC040 10/09 A3010 RMK SF2SC6 SLP193=

CYVR;2005-10-16 17:00;METAR CYVR 161700Z 09010KT 6SM RA FEW010 OVC033 10/10 A3011 RMK SF2SC6 SLP195=

CYVR;2005-10-16 17:11;SPECI CYVR 161711Z 10011KT 6SM RA BKN010 OVC033 10/ RMK SC6SC2=

CYVR;2005-10-16 17:33;SPECI CYVR 161733Z 10010KT 6SM RA BKN009 OVC033 10/ RMK SC6SC2=

CYVR;2005-10-16 18:20;SPECI CYVR 161820Z 11011KT 3SM RA BKN009 OVC033 10/ RMK SC6SC2=

CYVR;2005-10-16 18:28;SPECI CYVR 161828Z 11011KT 2 1/4SM RA BKN007 OVC033 10/ RMK SC6SC2=

CYVR;2005-10-16 18:49;SPECI CYVR 161849Z 13008KT 3SM RA BKN007 OVC033 11/ RMK SC6SC2=

CYVR;2005-10-16 21:00;METAR CYVR 162100Z 09009KT 4SM -RA BKN008 OVC020 11/10 A3009 RMK SC6SC2 SLP188=

CYVR;2005-10-16 21:05;SPECI CYVR 162105Z 09009KT 2SM -RA BKN008 OVC020 11/ RMK SC6SC2=

CYVR;2005-10-16 22:00;METAR CYVR 162200Z 11010KT 1 1/2SM -RA BKN008 OVC025 11/11 A3006 RMK SC6SC2 /R10/ SLP179=

CYVR;2005-10-16 22:29;SPECI CYVR 162229Z 10010KT 7SM SCT010 OVC025 12/ RMK SC4SC4=

CYVR;2005-10-16 22:37;SPECI CYVR 162237Z 10009KT 4SM -RA SCT010 OVC025 12/ RMK SC3SC5=

CYVR;2005-10-16 23:00;METAR CYVR 162300Z 09007KT 2SM -RA SCT010 OVC022 12/11 A3007 RMK SC3SC5 SLP182=

CYVR;2005-10-16 23:19;SPECI CYVR 162319Z 09010KT 1SM RA SCT010 OVC020 11/ RMK SC3SC5=

CYVR;2005-10-17 00:54;SPECI CYVR 170054Z 09011KT 7SM FEW010 BKN024 12/ RMK SC2SC5 SHRA N/ VIS LWR N QUAD 4=

CYVR;2005-10-17 01:00;METAR CYVR 170100Z 10011KT 7SM FEW010 BKN024 12/11 A3004 RMK SC2SC5 SHRA N / VIS LWR N QUAD 4 SLP172=

CYVR;2005-10-17 01:39;SPECI CYVR 170139Z 11012KT 7SM BKN008 OVC017 12/ RMK SC5SC3=

CYVR;2005-10-17 02:00;METAR CYVR 170200Z 11012KT 12SM BKN008 OVC018 12/11 A3004 RMK SC6SC2 SLP171=

CYVR;2005-10-17 02:32;SPECI CYVR 170232Z 11012KT 12SM SCT008 OVC019 12/ RMK SC4SC4=

CYVR;2005-10-17 03:00;METAR CYVR 170300Z 12010G16KT 12SM FEW008 OVC020 12/11 A3001 RMK SF2SC6 SLP162=

CYVR;2005-10-17 04:00;METAR CYVR 170400Z 13009KT 12SM FEW008 BKN020 OVC040 13/11 A2999 RMK SF2SC3SC3 SLP155=

CYVR;2005-10-17 05:00;METAR CYVR 170500Z 14011G16KT 15SM FEW020 SCT035 OVC047 13/12 A2997 RMK SF2SC2SC3 VIS N QUAD 12SM SLP148=

CYVR;2005-10-17 06:00;METAR CYVR 170600Z 15013KT 15SM FEW020 BKN047 OVC060 14/12 A2997 RMK SF2SC4SC2 VIS N QUAD 12 SM SLP148=

CYVR;2005-10-17 08:00;METAR CYVR 170800Z 15016KT 15SM FEW020 FEW040 OVC055 14/12 A2995 RMK SF2SC1SC6 VIS N QUAD 12 SM SLP141=

CYVR;2005-10-17 09:00;METAR CYVR 170900Z 14012KT 15SM FEW014 SCT020 OVC062 14/12 A2994 RMK SF2SC1SC4 SLP138=

CYVR;2005-10-17 09:11;SPECI CYVR 170911Z 15010G15KT 15SM -RA FEW014 SCT020 OVC061 14/ RMK SF2SC2SC5=

CYVR;2005-10-17 10:00;METAR CYVR 171000Z 14010KT 12SM -SHRA SCT010 OVC054 14/12 A2993 RMK SC3SC5 SLP134=

CYVR;2005-10-17 11:00;METAR CYVR 171100Z 17006G15KT 12SM -RA FEW010 BKN045 OVC053 13/13 A2993 RMK SC2SC3SC2 VIS N QUAD 8 SM SLP134=

CYVR;2005-10-17 12:20;SPECI CYVR 171220Z 24008G15KT 12SM -RA BKN008 BKN012 OVC030 13/ RMK SC5SC2SC2 VIS N QUAD 8 SM=

CYVR;2005-10-17 12:32;SPECI CYVR 171232Z 29009KT 12SM -RA BKN004 BKN008 OVC030 13/ RMK SC5SC2SC2 VIS N QUAD 8 SM=

CYVR;2005-10-17 12:37;SPECI CYVR 171237Z 28008KT 12SM -RA SCT004 BKN008 OVC020 12/ RMK SC3SC3SC2 VIS N QUAD 8 SM=

CYVR;2005-10-17 12:50;SPECI CYVR 171250Z 27007KT 12SM -RA SCT003 BKN007 OVC015 12/ RMK SC3SC2SC2=

CYVR;2005-10-17 13:00;METAR CYVR 171300Z 26008KT 10SM -RA SCT004 BKN008 OVC014 12/11 A2994 RMK SF4SC3SC1 VIS N QUAD 8 SM SLP138=

CYVR;2005-10-17 13:54;SPECI CYVR 171354Z 28010KT 7SM FEW003 SCT008 OVC050 12/ RMK SF2SC2SC4=

CYVR;2005-10-17 14:00;METAR CYVR 171400Z 27010KT 7SM FEW003 SCT008 OVC050 12/11 A2994 RMK SF2SC2SC4 SLP138=

CYVR;2005-10-17 14:15;SPECI CYVR 171415Z 29010KT 7SM -RA SCT003 OVC050 12/ RMK SF4SC4 VIS N QUAD 5 SM=

CYVR;2005-10-17 14:24;SPECI CYVR 171424Z 30009KT 7SM -RA BKN004 OVC012 12/ RMK SF6SC2 VIS N QUAD 4SM=

CYVR;2005-10-17 15:00;METAR CYVR 171500Z 29007KT 6SM -RA BKN005 OVC012 12/11 A2996 RMK SF6SC2 VIS N QUAD 4SM SLP146=

CYVR;2005-10-17 15:33;SPECI CYVR 171533Z 27008KT 10SM -RA FEW004 SCT009 OVC050 12/ RMK SF2SF2SC4=

CYVR;2005-10-17 16:00;METAR CYVR 171600Z 28009KT 15SM -RA FEW005 SCT009 OVC050 12/12 A2996 RMK SF2SF2SC4 VIS N QUAD 10 SM SLP146=

CYVR;2005-10-17 16:37;SPECI CYVR 171637Z 28011KT 15SM FEW005 SCT009 OVC035 12/ RMK SF2SF2SC4=

CYVR;2005-10-17 17:00;METAR CYVR 171700Z 28009KT 15SM FEW005 SCT009 OVC050 12/12 A2997 RMK SF2SF2SC5 VIS N QUAD 10SM SLP150=

CYVR;2005-10-17 17:38;SPECI CYVR 171738Z 31008KT 6SM -RA FEW005 OVC033 13/ RMK SF2SC6=

CYVR;2005-10-17 18:00;METAR CYVR 171800Z 29007KT 6SM -RA FEW005 OVC045 12/12 A2998 RMK SF2SC6 SLP152=

CYVR;2005-10-17 19:00;METAR CYVR 171900Z 24005KT 8SM -RA FEW005 OVC019 12/11 A2998 RMK SF2SC6 VIS N QUAD 4 SLP151=

CYVR;2005-10-17 19:40;SPECI CYVR 171940Z 28005KT 3SM -RA FEW005 OVC029 12/ RMK SF2SC6=

CYVR;2005-10-17 20:00;METAR CYVR 172000Z 30005KT 2SM -RA BR FEW005 OVC028 11/11 A2997 RMK SF2SC6 SLP150=

CYVR;2005-10-17 20:35;SPECI CYVR 172035Z 29004KT 1SM -RA BR SCT003 OVC030 11/ RMK SF4SC4=

CYVR;2005-10-17 20:44;SPECI CYVR 172044Z 26005KT 2 1/2SM -RA BR SCT003 OVC030 11/ RMK SF4SC4=

CYVR;2005-10-17 21:00;METAR CYVR 172100Z 27004KT 4SM -RA BR SCT003 OVC028 11/11 A2996 RMK SF3SC5 SLP147=

CYVR;2005-10-17 22:21;SPECI CYVR 172221Z 27004KT 7SM -RA SCT005 BKN008 OVC025 12/ RMK SF3SF4SC1=

CYVR;2005-10-17 23:00;METAR CYVR 172300Z 27005KT 7SM -RA FEW004 BKN009 OVC025 11/11 A2995 RMK SF2SF2SC3 VIS N QUAD 4 SLP142=

CYVR;2005-10-17 23:22;SPECI CYVR 172322Z 26005KT 5SM -RA FEW004 SCT009 OVC025 11/ RMK SF2SF2SC4=

CYVR;2005-10-17 23:50;SPECI CYVR 172350Z 25004KT 15SM FEW004 BKN025 OVC070 12/ RMK SF2SC5AC1 VIS N QUAD 10=

CYVR;2005-10-18 00:00;METAR CYVR 180000Z 25006KT 15SM FEW004 BKN030 OVC070 11/11 A2995 RMK SF2SC5AC1 VIS N QUAD 10 SLP142=

CYVR;2005-10-18 00:20;SPECI CYVR 180020Z 25006KT 15SM -RA SCT004 BKN031 OVC070 11/ RMK SF3SC3AC2 VIS N QUAD 10 SM=

CYVR;2005-10-18 00:52;SPECI CYVR 180052Z 26004KT 15SM SCT008 BKN031 OVC070 11/ RMK SF3SC3AC2 VIS N QUAD 10 SM=

CYVR;2005-10-18 01:05;SPECI CYVR 180105Z 27004KT 15SM -SHRA SCT010 BKN043 OVC070 11/ RMK SF3SC3AC2 VIS N QUAD 10 SM=

CYVR;2005-10-18 01:15;SPECI CYVR 180115Z 27005KT 15SM -SHRA BKN010 BKN047 OVC070 11/ RMK SF5SC2AC2 VIS N QUAD 10 SM=

CYVR;2005-10-18 01:21;SPECI CYVR 180121Z 29004KT 15SM -SHRA FEW010 BKN047 OVC096 11/ RMK SF2SC4AC2 VIS N QUAD 10 SM=

CYVR;2005-10-18 01:49;SPECI CYVR 180149Z 27003KT 15SM BKN006 BKN047 OVC095 11/ RMK SC5SC2AC1 VIS N QUAD 12SM=

CYVR;2005-10-18 02:00;METAR CYVR 180200Z 27004KT 15SM BKN007 BKN045 OVC095 11/11 A2996 RMK SC5SC2AC1 SLP145=

CYVR;2005-10-18 04:00;METAR CYVR 180400Z 29003KT 15SM SCT007 OVC160 11/10 A2997 RMK SF2AC6 SLP148=

CYVR;2005-10-18 04:10;SPECI CYVR 180410Z 31003KT 15SM SCT007 BKN010 OVC150 11/ RMK SF3SC3AC2=

CYVR;2005-10-18 04:29;SPECI CYVR 180429Z 31003KT 15SM BKN008 BKN010 OVC150 11/ RMK SF5SC2AC2=

CYVR;2005-10-18 04:53;SPECI CYVR 180453Z 36002KT 15SM FEW008 SCT010 BKN170 11/ RMK SF2SC2AC2=

CYVR;2005-10-18 05:00;METAR CYVR 180500Z 00000KT 15SM FEW010 SCT180 11/10 A2996 RMK SC2AC2 SLP147=

CYVR;2005-10-18 05:38;SPECI CYVR 180538Z 33003KT 15SM MIFG FEW010 SCT180 10/ RMK SC2AC1=

CYVR;2005-10-18 05:46;SPECI CYVR 180546Z 34003KT 15SM MIFG BKN008 10/ RMK SF6=

CYVR;2005-10-18 06:00;METAR CYVR 180600Z 02002KT 12SM MIFG BKN008 10/10 A2998 RMK ST7 SLP151=

CYVR;2005-10-18 06:25;SPECI CYVR 180625Z 00000KT 15SM OVC008 11/ RMK ST8 VIS N QUAD LWR 12 SM=

CYVR;2005-10-18 07:00;METAR CYVR 180700Z 09002KT 15SM OVC009 11/11 A2998 RMK ST7 VIS N QUAD LWR 12 SM SLP151=

CYVR;2005-10-18 07:30;SPECI CYVR 180730Z 00000KT 15SM SCT008 OVC016 11/ RMK SF4SC3=

CYVR;2005-10-18 08:00;METAR CYVR 180800Z 00000KT 15SM FEW008 OVC017 11/11 A2998 RMK SF2SC6 VIS N QUAD LWR 12SM SLP153=

CYVR;2005-10-18 09:00;METAR CYVR 180900Z 30007KT 15SM OVC017 11/11 A2999 RMK ST7 SLP156=

CYVR;2005-10-18 10:00;METAR CYVR 181000Z 34005KT 15SM FEW008 BKN018 11/11 A2999 RMK SF1ST6 SLP156=

CYVR;2005-10-18 13:00;METAR CYVR 181300Z 36005KT 15SM SCT018 10/09 A2997 RMK SC3 SLP150=

CYVR;2005-10-18 14:00;METAR CYVR 181400Z 36002KT 15SM BKN016 10/09 A2998 RMK SC6 SLP151=

CYVR;2005-10-18 14:54;SPECI CYVR 181454Z 31010KT 15SM SCT016 BKN240 09/ RMK SC3CI2=

CYVR;2005-10-18 15:00;METAR CYVR 181500Z 30008KT 15SM SCT016 BKN240 09/09 A2997 RMK SC3CI2 SLP148=

CYVR;2005-10-18 16:00;METAR CYVR 181600Z 33008KT 30SM FEW016 FEW090 SCT240 10/09 A2996 RMK SC2AC1CI1 SLP145=

CYVR;2005-10-18 17:00;METAR CYVR 181700Z 32016G21KT 30SM FEW016 FEW090 SCT240 12/09 A2995 RMK SC1AC1CI1 SLP142=

CYVR;2005-10-18 18:00;METAR CYVR 181800Z 32015KT 30SM FEW016 FEW090 FEW240 13/09 A2994 RMK SC1AC1CI1 SLP138=

CYVR;2005-10-18 19:00;METAR CYVR 181900Z 32012G18KT 30SM FEW016 FEW090 SCT240 14/10 A2991 RMK SF1AC2CI2 SLP127=

CYVR;2005-10-18 20:00;METAR CYVR 182000Z 30012KT 30SM FEW016 FEW090 SCT230 13/10 A2988 RMK SF1AC2CI2 SLP120=

CYVR;2005-10-18 21:00;METAR CYVR 182100Z 29016KT 30SM FEW016 SCT090 BKN210 13/10 A2987 RMK SF1AC2CI2 SLP116=

CYVR;2005-10-18 22:00;METAR CYVR 182200Z 30015KT 30SM FEW016 SCT090 BKN210 12/10 A2986 RMK SF1AC2CI2 SLP111=

CYVR;2005-10-18 23:00;METAR CYVR 182300Z 31012KT 30SM FEW016 SCT090 BKN200 12/11 A2984 RMK SF1AC3CI3 SLP104=

CYVR;2005-10-19 00:00;METAR CYVR 190000Z 30013KT 30SM FEW016 SCT090 BKN150 12/10 A2982 RMK SF1AC3AC3 SLP099=

CYVR;2005-10-19 01:00;METAR CYVR 190100Z 30011KT 30SM FEW016 SCT090 BKN150 11/10 A2981 RMK SF1AC2AC4 SLP094=

CYVR;2005-10-19 02:00;METAR CYVR 190200Z 31012KT 20SM FEW090 BKN160 BKN220 11/10 A2980 RMK AC2AC3CI1 SLP090=

CYVR;2005-10-19 03:00;METAR CYVR 190300Z 30011KT 20SM BKN120 BKN160 11/10 A2980 RMK AC6AC2 SLP092=

CYVR;2005-10-19 03:15;SPECI CYVR 190315Z 30011KT 15SM -RA BKN098 OVC120 11/ RMK AC6AC2=

CYVR;2005-10-19 04:00;METAR CYVR 190400Z 31010KT 15SM -SHRA BKN098 OVC110 12/11 A2979 RMK AC6AC2 SLP089=

CYVR;2005-10-19 04:52;SPECI CYVR 190452Z 31011KT 15SM SCT095 OVC130 11/ RMK AC3AC4=

CYVR;2005-10-19 05:00;METAR CYVR 190500Z 31009KT 15SM SCT095 OVC130 11/11 A2980 RMK AC3AC4 SLP091=

CYVR;2005-10-19 05:14;SPECI CYVR 190514Z 34009KT 15SM -SHRA BKN098 OVC120 11/ RMK AC6AC2=

CYVR;2005-10-19 06:00;METAR CYVR 190600Z 36003KT 15SM -SHRA OVC100 12/10 A2978 RMK AC7 PCPN VRY LGT SLP086=

CYVR;2005-10-19 06:07;SPECI CYVR 190607Z 28003KT 15SM OVC098 12/ RMK AC7=

CYVR;2005-10-19 06:18;SPECI CYVR 190618Z 26007KT 15SM -SHRA OVC098 11/ RMK AC7=

CYVR;2005-10-19 07:00;METAR CYVR 190700Z 30008KT 15SM -SHRA OVC100 11/11 A2980 RMK AC7 PCPN VRY LGT SLP093=

CYVR;2005-10-19 08:29;SPECI CYVR 190829Z 00000KT 15SM BKN040 BKN060 OVC100 12/ RMK SC5SC2AC1=

CYVR;2005-10-19 08:45;SPECI CYVR 190845Z 27004KT 15SM -SHRA BKN040 OVC060 12/ RMK SC5SC2=

CYVR;2005-10-19 09:00;METAR CYVR 190900Z 28005KT 15SM -SHRA BKN039 OVC060 11/11 A2981 RMK SC6SC2 SLP094=

CYVR;2005-10-19 10:00;METAR CYVR 191000Z 03003KT 15SM -SHRA BKN022 OVC040 12/11 A2981 RMK SC6SC2 SLP096=

CYVR;2005-10-19 11:00;METAR CYVR 191100Z 09012KT 12SM -RA FEW025 BKN063 OVC075 12/11 A2980 RMK SC2SC4AC2 SLP092=

CYVR;2005-10-19 12:00;METAR CYVR 191200Z 13006KT 12SM -RA BKN009 OVC025 12/11 A2981 RMK SC5SC3 PCPN VRY LGT SLP096=

CYVR;2005-10-19 12:44;SPECI CYVR 191244Z 14004KT 12SM -RA BKN004 OVC009 12/ RMK SC5SC3=

CYVR;2005-10-19 12:49;SPECI CYVR 191249Z 14004KT 12SM -SHRA SCT004 OVC008 11/ RMK SC4SC4 PCPN VRY LGT=

CYVR;2005-10-19 13:00;METAR CYVR 191300Z 14005KT 12SM -SHRA SCT004 OVC008 11/11 A2982 RMK SC3SC5 VIS N QUAD LWR 8 SM SLP098=

CYVR;2005-10-19 13:14;SPECI CYVR 191314Z 11005KT 12SM -SHRA SCT008 OVC080 11/ RMK SC3AC4=

CYVR;2005-10-19 13:41;SPECI CYVR 191341Z 12004KT 10SM -SHRA FEW007 BKN012 BKN045 OVC080 11/ RMK SF2SF3SC2AC2=

CYVR;2005-10-19 14:00;METAR CYVR 191400Z 11004KT 10SM -SHRA FEW007 SCT014 BKN044 OVC080 11/11 A2982 RMK SF2SF2SC3AC1 SLP099=

CYVR;2005-10-19 14:08;SPECI CYVR 191408Z 13007KT 8SM -RA FEW006 BKN011 BKN041 OVC060 11/ RMK SF2SF4SC2SC1=

CYVR;2005-10-19 14:24;SPECI CYVR 191424Z 13006KT 8SM -RA FEW006 BKN018 OVC045 11/ RMK SF2SF4SC2=

CYVR;2005-10-19 14:36;SPECI CYVR 191436Z 14005KT 5SM -RA BR SCT007 BKN013 BKN020 OVC040 11/ RMK SF4SF2SF1SC2=

CYVR;2005-10-19 14:51;SPECI CYVR 191451Z 13006KT 2 1/2SM -RA BR BKN007 BKN015 OVC025 11/ RMK SF6SF1SC1=

CYVR;2005-10-19 15:00;METAR CYVR 191500Z 12006KT 2SM -RA BR BKN007 BKN015 OVC030 11/11 A2983 RMK SF6SF2SC1 SLP102=

CYVR;2005-10-19 15:16;SPECI CYVR 191516Z 10005KT 1 1/2SM -RA BR BKN004 BKN008 OVC015 11/ RMK SF5SF2SF1=

CYVR;2005-10-19 15:21;SPECI CYVR 191521Z 11006KT 1 1/2SM -RA BR FEW004 SCT008 BKN015 BKN025 OVC040 11/ RMK SF2SF2SF1SC2SC2=

CYVR;2005-10-19 15:52;SPECI CYVR 191552Z 12010KT 1 1/2SM -RA BR FEW004 BKN007 BKN015 OVC025 11/ RMK SF2SF3SF2SC1=

CYVR;2005-10-19 16:00;METAR CYVR 191600Z 11009KT 1 1/2SM -RA BR SCT004 BKN007 BKN015 OVC025 11/11 A2984 RMK SF4SF2SF2SC1 SLP105=

CYVR;2005-10-19 16:18;SPECI CYVR 191618Z 11009KT 2SM -RA BR FEW004 SCT008 BKN015 BKN030 OVC040 12/ RMK SF2SF1SF2SC2SC1=

CYVR;2005-10-19 16:26;SPECI CYVR 191626Z 11009KT 3SM -RA BR FEW004 FEW009 SCT016 OVC042 12/ RMK SF2SF1SF2SC4=

CYVR;2005-10-19 16:37;SPECI CYVR 191637Z 13009KT 4SM -RA BR SCT005 BKN010 BKN017 OVC045 12/ RMK SF3SF2SF2SC2=

CYVR;2005-10-19 16:50;SPECI CYVR 191650Z 13009KT 4SM -RA BR FEW005 SCT009 SCT017 OVC049 12/ RMK SF2SF2SF1SC4=

CYVR;2005-10-19 17:00;METAR CYVR 191700Z 12008KT 5SM -RA BR FEW005 FEW009 SCT020 OVC051 12/12 A2985 RMK SF2SF1SC2SC4 SLP109=

CYVR;2005-10-19 17:27;SPECI CYVR 191727Z 10008KT 5SM -RA BR BKN006 BKN011 BKN020 OVC053 12/ RMK SF5SF1SC1SC2=

CYVR;2005-10-19 18:00;METAR CYVR 191800Z 10009KT 5SM -RA BR BKN006 BKN020 BKN060 OVC075 12/12 A2986 RMK SF5SC1SC2AC1 SLP113=

CYVR;2005-10-19 19:00;METAR CYVR 191900Z 10007KT 5SM -RA BR SCT006 BKN015 OVC053 13/12 A2988 RMK SF4SF2SC2 PCPN VRY LGT SLP117=

CYVR;2005-10-19 20:00;METAR CYVR 192000Z 14008KT 4SM -RA BR SCT007 BKN022 OVC040 13/13 A2988 RMK SF4SC2SC2 SLP119=

CYVR;2005-10-19 21:00;METAR CYVR 192100Z 15008KT 5SM -RA BR FEW008 SCT017 BKN040 OVC057 14/13 A2988 RMK SF2SF1SC2SC2 SLP120=

CYVR;2005-10-19 22:00;METAR CYVR 192200Z 16013KT 6SM -RA BR FEW008 SCT018 BKN050 OVC075 13/13 A2990 RMK SF2SF2SC3AC2 SLP124=

CYVR;2005-10-19 22:29;SPECI CYVR 192229Z 14010G16KT 8SM FEW008 FEW012 BKN050 OVC065 13/ RMK SF2SF1SC3SC2=

CYVR;2005-10-20 00:00;METAR CYVR 200000Z 11005KT 6SM -SHRA BR SCT009 BKN027 OVC050 13/12 A2992 RMK SF3SC3SC2 SLP133=

CYVR;2005-10-20 00:17;SPECI CYVR 200017Z 16006KT 4SM -SHRA BR FEW006 BKN010 OVC028 13/ RMK SF2SC4SC2=

CYVR;2005-10-20 00:55;SPECI CYVR 200055Z 27009KT 5SM BR FEW006 BKN012 OVC030 13/ RMK SF2SC3SC2=

CYVR;2005-10-20 01:00;METAR CYVR 200100Z 27007KT 5SM BR FEW006 BKN011 OVC027 12/12 A2993 RMK SF2SC3SC2 SLP136=

CYVR;2005-10-20 01:38;SPECI CYVR 200138Z 29013KT 5SM BR BKN008 BKN012 OVC025 11/ RMK SC5SC2SC1=

CYVR;2005-10-20 02:00;METAR CYVR 200200Z 29013KT 6SM BR FEW006 BKN009 OVC020 11/10 A2996 RMK SF2SC5SC1 SLP144=

CYVR;2005-10-20 02:16;SPECI CYVR 200216Z 29014KT 10SM SCT006 BKN015 OVC030 11/ RMK SF3SC4SC1=

CYVR;2005-10-20 03:00;METAR CYVR 200300Z 29017KT 12SM FEW015 BKN023 OVC040 11/10 A2998 RMK SC2SC5SC1 SLP151=

CYVR;2005-10-20 04:00;METAR CYVR 200400Z 28011KT 12SM SCT016 BKN034 OVC040 11/10 A3000 RMK SC3SC3SC2 SLP159=

CYVR;2005-10-20 06:00;METAR CYVR 200600Z 27012G19KT 12SM FEW014 FEW045 BKN220 10/09 A3004 RMK SC1SC2CS2 SLP171=

CYVR;2005-10-20 08:00;METAR CYVR 200800Z 32004KT 15SM FEW016 BKN061 08/07 A3009 RMK SC1SC5 SLP190=

CYVR;2005-10-20 09:00;METAR CYVR 200900Z 09003KT 15SM BKN016 BKN060 09/08 A3011 RMK SC5SC2 SLP195=

CYVR;2005-10-20 10:00;METAR CYVR 201000Z 10005KT 15SM FEW016 BKN051 07/07 A3012 RMK SC2SC4 SLP200=

CYVR;2005-10-20 11:00;METAR CYVR 201100Z 14003KT 15SM FEW020 OVC054 08/08 A3014 RMK SC2SC6 SLP207=

CYVR;2005-10-20 12:00;METAR CYVR 201200Z 08004KT 15SM SCT029 OVC064 09/08 A3015 RMK SC3SC5 SLP210=

CYVR;2005-10-20 13:00;METAR CYVR 201300Z 10004KT 15SM BKN038 OVC068 09/08 A3015 RMK SC5AC3 SLP211=

CYVR;2005-10-20 14:00;METAR CYVR 201400Z 11003KT 15SM FEW015 SCT035 BKN065 09/09 A3018 RMK SF2SC2SC2 VIS LWR NW - N DUE LO CLD SLP220=

CYVR;2005-10-20 15:00;METAR CYVR 201500Z 10007KT 15SM FEW012 FEW030 BKN068 10/09 A3019 RMK CF1SC2AC3 SLP223=

CYVR;2005-10-20 16:00;METAR CYVR 201600Z 11008KT 15SM FEW015 FEW030 BKN067 BKN240 10/09 A3021 RMK CF1SC2AC2CI1 SLP230=

CYVR;2005-10-20 17:00;METAR CYVR 201700Z 11007KT 15SM FEW025 BKN067 BKN240 12/09 A3023 RMK CU1AC4CI1 SLP237=

CYVR;2005-10-20 18:00;METAR CYVR 201800Z 11010KT 15SM FEW025 SCT068 BKN220 12/08 A3024 RMK CU2AC2CI2 SLP240=

CYVR;2005-10-20 19:00;METAR CYVR 201900Z 12009KT 15SM FEW030 FEW070 BKN220 13/08 A3024 RMK CU1AC2CI1 SLP239=

CYVR;2005-10-20 20:00;METAR CYVR 202000Z 11007KT 20SM FEW030 FEW070 BKN210 14/07 A3024 RMK CU1AC1CI2 SLP241=

CYVR;2005-10-20 21:00;METAR CYVR 202100Z 16007KT 20SM FEW030 FEW080 BKN200 13/07 A3024 RMK CU1AC1CS4 SLP241=

CYVR;2005-10-20 22:00;METAR CYVR 202200Z 22006KT 20SM FEW040 FEW080 BKN200 14/06 A3024 RMK SC1AC1CI5 SLP242=

CYVR;2005-10-20 23:00;METAR CYVR 202300Z 22006KT 20SM FEW040 SCT160 OVC200 13/05 A3024 RMK SF1AC2CS4 SLP241=

CYVR;2005-10-21 00:00;METAR CYVR 210000Z 21002KT 20SM FEW050 BKN150 OVC200 13/07 A3024 RMK SF1AS4CS2 SLP241=

CYVR;2005-10-21 01:00;METAR CYVR 210100Z 00000KT 20SM FEW050 FEW090 OVC140 12/07 A3023 RMK SF1AC2AS5 SLP237=

CYVR;2005-10-21 03:00;METAR CYVR 210300Z 01003KT 20SM SCT057 BKN120 OVC230 11/07 A3024 RMK SC3AC3CI2 SLP240=

CYVR;2005-10-21 04:00;METAR CYVR 210400Z 05005KT 20SM SCT057 BKN100 OVC230 12/09 A3024 RMK SC3AC3CI2 SLP240=

CYVR;2005-10-21 05:00;METAR CYVR 210500Z 08005KT 20SM FEW060 SCT091 OVC120 12/09 A3024 RMK SC2AC2AS5 SLP240=

CYVR;2005-10-21 06:00;METAR CYVR 210600Z 08005KT 20SM FEW060 SCT090 OVC110 11/09 A3024 RMK SC2AC2AS5 SLP239=

CYVR;2005-10-21 07:00;METAR CYVR 210700Z 07006KT 15SM FEW064 OVC083 11/09 A3024 RMK SC2AS6 SLP239=

CYVR;2005-10-21 09:00;METAR CYVR 210900Z 09002KT 15SM SCT071 OVC091 11/09 A3024 RMK AC3AS5 SLP239=

CYVR;2005-10-21 10:00;METAR CYVR 211000Z 07006KT 15SM FEW040 BKN069 OVC090 11/09 A3022 RMK SC2AC4AS2 SLP234=

CYVR;2005-10-21 11:00;METAR CYVR 211100Z 26002KT 15SM FEW040 BKN071 OVC092 11/08 A3022 RMK SC2AC3AS3 SLP234=

CYVR;2005-10-21 12:00;METAR CYVR 211200Z 28002KT 15SM FEW040 BKN074 OVC100 11/09 A3022 RMK SC2AC5AS2 SLP234=

CYVR;2005-10-21 13:00;METAR CYVR 211300Z 00000KT 15SM FEW040 BKN079 OVC100 11/09 A3021 RMK SC2AC5AS2 SLP231=

CYVR;2005-10-21 14:00;METAR CYVR 211400Z 28002KT 15SM FEW040 BKN082 BKN110 11/09 A3021 RMK SC2AC5AC1 SLP231=

CYVR;2005-10-21 15:00;METAR CYVR 211500Z 00000KT 20SM FEW050 BKN080 BKN170 11/09 A3021 RMK SC1AC4AC2 SLP229=

CYVR;2005-10-21 16:00;METAR CYVR 211600Z 00000KT 20SM FEW050 BKN081 BKN170 11/09 A3020 RMK SC1AC4AC2 SLP228=

CYVR;2005-10-21 17:00;METAR CYVR 211700Z 26003KT 30SM FEW080 BKN170 BKN240 12/09 A3020 RMK AC2AC4CI0 SLP228=

CYVR;2005-10-21 18:00;METAR CYVR 211800Z 26002KT 30SM FEW080 SCT160 BKN240 13/10 A3018 RMK AC2AC2CI1 SLP221=

CYVR;2005-10-21 21:00;METAR CYVR 212100Z 25004KT 30SM FEW070 BKN090 BKN210 15/10 A3012 RMK AC2AC3CI1 SLP200=

CYVR;2005-10-21 22:00;METAR CYVR 212200Z 25004KT 30SM FEW070 BKN100 BKN210 14/09 A3009 RMK AC2AC4CI1 SLP191=

CYVR;2005-10-21 23:00;METAR CYVR 212300Z 27004KT 30SM FEW080 BKN110 BKN220 14/10 A3008 RMK AC2AC4CI1 SLP186=

CYVR;2005-10-22 00:00;METAR CYVR 220000Z 27003KT 30SM BKN100 BKN130 BKN220 14/10 A3006 RMK AC5AC1CI1 SLP179=

CYVR;2005-10-22 01:00;METAR CYVR 220100Z 00000KT 30SM SCT100 BKN140 BKN220 14/10 A3004 RMK AC3AC2CI1 SLP173=

CYVR;2005-10-22 02:00;METAR CYVR 220200Z 31006KT 20SM SCT100 BKN130 12/10 A3002 RMK AC3AC2 SLP167=

CYVR;2005-10-22 03:00;METAR CYVR 220300Z 33004KT 20SM BKN120 12/10 A3002 RMK AC6 SLP167=

CYVR;2005-10-22 04:00;METAR CYVR 220400Z 34003KT 20SM BKN130 12/10 A3001 RMK AC5 SLP164=

CYVR;2005-10-22 05:00;METAR CYVR 220500Z 04003KT 20SM SCT130 10/09 A3001 RMK AC3 SLP161=

CYVR;2005-10-22 06:00;METAR CYVR 220600Z 32005KT 20SM SCT130 11/09 A3001 RMK AC3 SLP161=

CYVR;2005-10-22 07:00;METAR CYVR 220700Z 02002KT 20SM BKN120 10/08 A3000 RMK AC4 SLP160=

CYVR;2005-10-22 08:00;METAR CYVR 220800Z 08002KT 20SM BKN110 10/08 A2999 RMK AC6 SLP157=

CYVR;2005-10-22 09:00;METAR CYVR 220900Z 08002KT 20SM OVC110 10/08 A2999 RMK AC6 SLP155=

CYVR;2005-10-22 10:00;METAR CYVR 221000Z 08003KT 20SM OVC110 11/09 A2998 RMK AC7 SLP153=

CYVR;2005-10-22 11:00;METAR CYVR 221100Z 10007KT 20SM BKN110 11/09 A2997 RMK AC7 SLP149=

CYVR;2005-10-22 12:00;METAR CYVR 221200Z 21004KT 20SM BKN098 11/09 A2996 RMK AC7 SLP145=

CYVR;2005-10-22 13:00;METAR CYVR 221300Z 36002KT 20SM FEW040 FEW100 11/08 A2996 RMK SC1AC2 SLP146=

CYVR;2005-10-22 14:00;METAR CYVR 221400Z 09003KT 30SM FEW090 SCT240 11/08 A2996 RMK AC1CI2 SLP144=

CYVR;2005-10-22 15:00;METAR CYVR 221500Z 10005KT 30SM FEW050 FEW100 SCT240 10/08 A2996 RMK SC1AC1CI1 SLP145=

CYVR;2005-10-22 16:00;METAR CYVR 221600Z 23002KT 30SM FEW050 FEW100 SCT240 12/09 A2998 RMK SC1AC1CI1 SLP154=

CYVR;2005-10-22 17:00;METAR CYVR 221700Z 09004KT 30SM FEW090 SCT220 14/10 A2998 RMK AC1CI2 SLP151=

CYVR;2005-10-22 18:00;METAR CYVR 221800Z 11005KT 30SM FEW090 BKN210 16/10 A2998 RMK AC2CI2 SLP152=

CYVR;2005-10-22 20:00;METAR CYVR 222000Z 12009KT 20SM SCT090 BKN200 18/10 A2997 RMK AC4CI2 SLP149=

CYVR;2005-10-22 21:00;METAR CYVR 222100Z 14006KT 20SM SCT090 BKN140 BKN230 18/10 A2996 RMK AC3AC2CI1 SLP145=

CYVR;2005-10-22 22:00;METAR CYVR 222200Z 22009KT 20SM FEW050 SCT090 BKN180 BKN240 16/11 A2997 RMK SC2AC2AC2CI2 SLP148=

CYVR;2005-10-22 23:00;METAR CYVR 222300Z 31004KT 20SM SCT045 BKN090 BKN210 14/11 A2996 RMK SC4AC2CI1 SLP145=

CYVR;2005-10-23 00:00;METAR CYVR 230000Z 28005KT 20SM SCT055 BKN090 BKN220 14/10 A2996 RMK SC4AC2CI1 VIRGA SLP144=

CYVR;2005-10-23 01:00;METAR CYVR 230100Z 30007KT 20SM SCT060 BKN090 BKN220 13/11 A2996 RMK SC4AC2CI1 SHS NW SLP144=

CYVR;2005-10-23 03:00;METAR CYVR 230300Z 28012KT 20SM BKN055 OVC090 12/11 A2996 RMK SC6AC2 SLP146=

CYVR;2005-10-23 04:00;METAR CYVR 230400Z 29009KT 20SM BKN055 OVC090 13/12 A2995 RMK SC7AC1 SLP143=

CYVR;2005-10-23 05:00;METAR CYVR 230500Z 29005KT 20SM BKN053 OVC090 12/11 A2996 RMK SC7AC1 SLP147=

CYVR;2005-10-23 05:50;SPECI CYVR 230550Z 29010KT 20SM FEW003 OVC051 12/ RMK SF2SC6=

CYVR;2005-10-23 06:00;METAR CYVR 230600Z 29012KT 20SM FEW003 OVC050 12/11 A2998 RMK SF2SC6 SLP151=

CYVR;2005-10-23 06:28;SPECI CYVR 230628Z 30009KT 12SM -SHRA FEW004 OVC053 12/ RMK SF2SC6=

CYVR;2005-10-23 07:00;METAR CYVR 230700Z 31006KT 12SM -SHRA SCT005 OVC051 12/12 A2998 RMK SF3SC5 SLP152=

CYVR;2005-10-23 08:00;METAR CYVR 230800Z 31006KT 12SM -SHRA FEW005 BKN032 OVC054 12/12 A2998 RMK SF2SC3SC3 PCPN VRY LGT SLP152=

CYVR;2005-10-23 09:00;METAR CYVR 230900Z 29002KT 12SM -SHRA FEW007 BKN035 OVC055 12/12 A2998 RMK SF2SC5SC2 SLP152=

CYVR;2005-10-23 10:00;METAR CYVR 231000Z 25002KT 4SM -SHRA BR SCT004 OVC037 12/11 A2998 RMK ST4SC4 SLP153=

CYVR;2005-10-23 11:00;METAR CYVR 231100Z 00000KT 4SM -SHRA BR SCT004 OVC040 11/11 A2998 RMK ST3SC5 SLP152=

CYVR;2005-10-23 12:00;METAR CYVR 231200Z 27005KT 4SM -SHRA BR FEW004 BKN037 OVC051 11/11 A2998 RMK ST2SC6SC1 PCPN VRY LGT SLP153=

CYVR;2005-10-23 12:22;SPECI CYVR 231222Z 25003KT 6SM BR FEW005 BKN036 OVC047 11/ RMK ST2SC6SC1=

CYVR;2005-10-23 13:00;METAR CYVR 231300Z 27005KT 5SM BR SCT004 OVC041 11/11 A2999 RMK ST4SC4 SLP155=

CYVR;2005-10-23 13:18;SPECI CYVR 231318Z 27005KT 3SM BR BKN002 OVC045 11/ RMK ST5SC3=

CYVR;2005-10-23 13:27;SPECI CYVR 231327Z 27004KT 4SM -DZ BR SCT003 OVC045 11/ RMK ST4SC4=

CYVR;2005-10-23 13:45;SPECI CYVR 231345Z 27005KT 5SM BR FEW002 SCT045 BKN072 11/ RMK ST2SC2AC2=

CYVR;2005-10-23 14:00;METAR CYVR 231400Z 27006KT 6SM BR FEW003 BKN032 BKN071 11/11 A2999 RMK ST2SC2AC2 SLP155=

CYVR;2005-10-23 14:46;SPECI CYVR 231446Z 29004KT 3SM BR SCT002 BKN012 OVC040 11/ RMK ST4ST2SC2=

CYVR;2005-10-23 15:00;METAR CYVR 231500Z 27003KT 2SM BR BKN003 OVC006 11/11 A2999 RMK ST6ST2 SLP156=

CYVR;2005-10-23 15:37;SPECI CYVR 231537Z 28005KT 2SM BR OVC004 11/ RMK FG3ST5=

CYVR;2005-10-23 16:00;METAR CYVR 231600Z 27005KT 2 1/2SM BR OVC004 11/11 A3000 RMK FG3ST5 SLP160=

CYVR;2005-10-23 16:22;SPECI CYVR 231622Z 28007KT 1SM BR OVC003 11/ RMK FG6ST2=

CYVR;2005-10-23 17:00;METAR CYVR 231700Z 29006KT 3SM BR OVC004 11/11 A3001 RMK FG6ST2 SLP162=

CYVR;2005-10-23 17:47;SPECI CYVR 231747Z 30006KT 3SM BR SCT002 OVC008 11/ RMK ST3ST5=

CYVR;2005-10-23 18:00;METAR CYVR 231800Z 29008KT 3SM BR FEW002 BKN005 OVC031 11/11 A3001 RMK ST2ST4SC2 SLP162=

CYVR;2005-10-23 18:49;SPECI CYVR 231849Z 29004KT 6SM BR BKN006 OVC032 12/ RMK ST6SC2=

CYVR;2005-10-23 19:00;METAR CYVR 231900Z 28004KT 7SM BKN006 OVC032 12/11 A3002 RMK ST5SC3 SLP165=

CYVR;2005-10-23 19:32;SPECI CYVR 231932Z 26004KT 8SM SCT006 OVC032 11/ RMK ST3SC5=

CYVR;2005-10-23 20:00;METAR CYVR 232000Z 28003KT 8SM SCT007 OVC031 12/11 A3001 RMK ST3SC5 SLP162=

CYVR;2005-10-23 21:00;METAR CYVR 232100Z 30009KT 8SM SCT007 OVC029 12/11 A3001 RMK ST3SC5 SLP162=

CYVR;2005-10-23 22:00;METAR CYVR 232200Z 00000KT 10SM FEW007 OVC026 12/11 A3001 RMK SF2SC6 SLP161=

CYVR;2005-10-23 23:00;METAR CYVR 232300Z 00000KT 15SM FEW008 OVC021 11/11 A3001 RMK SF2SC6 SLP162=

CYVR;2005-10-24 00:00;METAR CYVR 240000Z 24003KT 15SM FEW011 OVC022 12/10 A3001 RMK SF2SC6 SLP162=

CYVR;2005-10-24 01:00;METAR CYVR 240100Z 19003KT 30SM FEW011 BKN022 OVC045 12/11 A3001 RMK SF2SF4SC2 SLP161=

CYVR;2005-10-24 03:00;METAR CYVR 240300Z 16004KT 15SM FEW012 FEW020 FEW050 11/10 A3001 RMK SF1SC1SC1 VIS LWR N - E DUE LO CLD SLP162=

CYVR;2005-10-24 04:00;METAR CYVR 240400Z 09004KT 15SM MIFG FEW009 FEW020 SCT060 10/09 A3002 RMK SF1SC1SC1 VIS LWR N - E SLP166=

CYVR;2005-10-24 05:00;METAR CYVR 240500Z 09004KT 6SM BR BKN006 BKN022 08/08 A3002 RMK SF5SC1 CIG + VIS HIER W SLP167=

CYVR;2005-10-24 06:00;METAR CYVR 240600Z 09002KT 6SM BR BKN006 BKN020 OVC060 10/10 A3004 RMK ST6SC1SC1 SLP171=

CYVR;2005-10-24 07:00;METAR CYVR 240700Z 11005KT 5SM BR BKN005 OVC020 10/10 A3004 RMK ST6SC1 SLP174=

CYVR;2005-10-24 07:47;SPECI CYVR 240747Z 13005KT 8SM SCT005 SCT020 10/ RMK SF3SC1=

CYVR;2005-10-24 08:00;METAR CYVR 240800Z 14004KT 10SM SCT005 SCT020 10/10 A3005 RMK SF3SC1 SLP176=

CYVR;2005-10-24 08:19;SPECI CYVR 240819Z 14003KT 6SM BR SCT005 BKN009 BKN020 10/ RMK SF3SF2SC1=

CYVR;2005-10-24 09:00;METAR CYVR 240900Z 11005KT 6SM BR FEW005 BKN011 OVC020 10/10 A3006 RMK SF2ST4SC1 SLP179=

CYVR;2005-10-24 10:00;METAR CYVR 241000Z 09004KT 6SM BR FEW005 BKN012 OVC130 10/10 A3006 RMK SF2ST2AC2 SLP179=

CYVR;2005-10-24 11:00;METAR CYVR 241100Z 10006KT 8SM FEW007 SCT012 OVC140 10/10 A3006 RMK SF2SF2AC3 SLP181=

CYVR;2005-10-24 12:00;METAR CYVR 241200Z 12004KT 8SM FEW007 SCT014 OVC150 10/10 A3008 RMK SF2SF2AC3 SLP186=

CYVR;2005-10-24 13:00;METAR CYVR 241300Z 11005KT 8SM FEW007 SCT015 BKN150 10/10 A3008 RMK SF2SF2AC4 SLP186=

CYVR;2005-10-24 14:00;METAR CYVR 241400Z 12005KT 12SM PRFG FEW015 BKN140 10/09 A3006 RMK SF1AC6 VIS N QUAD 8 SM SLP181=

CYVR;2005-10-24 15:00;METAR CYVR 241500Z 11005KT 15SM PRFG BKN140 09/09 A3007 RMK AC5 SLP184=

CYVR;2005-10-24 16:00;METAR CYVR 241600Z 11005KT 15SM BKN130 10/10 A3008 RMK AC5 SLP187=

CYVR;2005-10-24 17:00;METAR CYVR 241700Z 10007KT 20SM FEW035 BKN130 12/10 A3009 RMK SC1AC5 SLP188=

CYVR;2005-10-24 18:00;METAR CYVR 241800Z 10010KT 20SM FEW040 BKN130 13/09 A3008 RMK SC1AC6 SLP186=

CYVR;2005-10-24 21:00;METAR CYVR 242100Z 27007KT 20SM FEW040 FEW130 13/11 A3004 RMK SC1AC1 CONTRAILS SLP172=

CYVR;2005-10-24 22:00;METAR CYVR 242200Z 27005KT 20SM FEW040 FEW130 13/11 A3001 RMK SC1AC1 TR SC SLP164=

CYVR;2005-10-25 00:00;METAR CYVR 250000Z 26006KT 20SM FEW130 13/10 A2997 RMK AC1 SLP149=

CYVR;2005-10-25 01:00;METAR CYVR 250100Z 34004KT 20SM FEW130 11/09 A2996 RMK AS1 SLP145=

CYVR;2005-10-25 02:00;METAR CYVR 250200Z 35002KT 20SM FEW140 10/09 A2995 RMK AC1 SLP142=

CYVR;2005-10-25 03:00;METAR CYVR 250300Z 00000KT 20SM MIFG FEW140 10/09 A2994 RMK AC1 SLP139=

CYVR;2005-10-25 04:00;METAR CYVR 250400Z 00000KT 20SM MIFG FEW140 FEW230 09/08 A2994 RMK AC1CI0 SLP140=

CYVR;2005-10-25 06:00;METAR CYVR 250600Z 10003KT 15SM FEW040 SCT130 10/09 A2995 RMK SC2AC1 SLP141=

CYVR;2005-10-25 07:00;METAR CYVR 250700Z 10007KT 15SM BKN034 10/09 A2993 RMK SC5 SLP135=

CYVR;2005-10-25 08:00;METAR CYVR 250800Z 11007KT 15SM BKN030 11/10 A2992 RMK SC6 SLP133=

CYVR;2005-10-25 09:00;METAR CYVR 250900Z 08010KT 15SM FEW015 BKN029 11/10 A2990 RMK SF1SC5 SLP126=

CYVR;2005-10-25 10:00;METAR CYVR 251000Z 09008KT 15SM FEW015 BKN033 11/10 A2989 RMK SF1SC5 SLP122=

CYVR;2005-10-25 11:00;METAR CYVR 251100Z 09007KT 15SM FEW015 BKN027 11/09 A2986 RMK SF1SC5 SLP113=

CYVR;2005-10-25 12:00;METAR CYVR 251200Z 11005KT 15SM FEW015 SCT035 10/08 A2985 RMK SF1SC3 SLP107=

CYVR;2005-10-25 13:00;METAR CYVR 251300Z 11007KT 15SM FEW015 BKN031 10/09 A2983 RMK SF1SC4 SLP102=

CYVR;2005-10-25 14:00;METAR CYVR 251400Z 10008KT 15SM FEW015 OVC028 11/09 A2982 RMK SF1SC6 SLP098=

CYVR;2005-10-25 15:00;METAR CYVR 251500Z 11007KT 15SM FEW015 OVC027 10/09 A2981 RMK SF1SC6 SLP094=

CYVR;2005-10-25 16:00;METAR CYVR 251600Z 11006KT 15SM OVC026 11/09 A2980 RMK SC7 SLP091=

CYVR;2005-10-25 17:00;METAR CYVR 251700Z 11005KT 15SM OVC023 12/10 A2980 RMK SC7 SLP091=

CYVR;2005-10-25 18:00;METAR CYVR 251800Z 10008KT 15SM OVC020 14/10 A2979 RMK SC8 SLP087=

CYVR;2005-10-25 19:00;METAR CYVR 251900Z 10009KT 15SM OVC020 14/11 A2976 RMK SC7 SLP079=

CYVR;2005-10-25 20:00;METAR CYVR 252000Z 12011KT 15SM OVC021 15/11 A2974 RMK SC7 SLP071=

CYVR;2005-10-25 21:00;METAR CYVR 252100Z 11011KT 15SM FEW020 SCT040 OVC200 16/11 A2972 RMK CF2SC2CS3 SLP064=

CYVR;2005-10-25 22:00;METAR CYVR 252200Z 11010KT 15SM FEW040 FEW070 OVC210 16/11 A2970 RMK CF1AC1CS6 LENT SLP057=

CYVR;2005-10-25 23:00;METAR CYVR 252300Z 10013KT 15SM FEW040 FEW070 OVC170 15/11 A2968 RMK CF1AC1AC6 SLP050=

CYVR;2005-10-26 00:00;METAR CYVR 260000Z 11010KT 15SM FEW040 SCT070 OVC140 15/09 A2967 RMK CF1AC2AC5 SLP048=

CYVR;2005-10-26 01:00;METAR CYVR 260100Z 13012KT 15SM -RA FEW040 BKN083 OVC110 15/08 A2967 RMK SC1AC5AC2 SLP047=

CYVR;2005-10-26 02:00;METAR CYVR 260200Z 13008KT 15SM -RA FEW040 BKN060 OVC083 13/10 A2968 RMK SC2SC3AC2 SLP051=

CYVR;2005-10-26 03:00;METAR CYVR 260300Z 14008KT 10SM -RA BKN045 OVC075 13/10 A2968 RMK SC5AC3 SLP050=

CYVR;2005-10-26 03:25;SPECI CYVR 260325Z 15014G22KT 10SM SCT045 BKN075 OVC130 13/ RMK SC3AC2AC2=

CYVR;2005-10-26 05:00;METAR CYVR 260500Z 18012G17KT 10SM FEW016CB SCT045 OVC070 11/09 A2974 RMK CB2SC2AC4 LTNG IC NW SLP072=

CYVR;2005-10-26 06:00;METAR CYVR 260600Z 26008G15KT 15SM FEW016 FEW045 FEW070 10/07 A2981 RMK SF1SC1AC1 SLP095=

CYVR;2005-10-26 08:00;METAR CYVR 260800Z 30009KT 15SM SCT040 09/06 A2994 RMK SC3 SLP140=

CYVR;2005-10-26 10:00;METAR CYVR 261000Z 31006KT 20SM FEW240 07/05 A2998 RMK CI1 SLP152=

CYVR;2005-10-26 11:00;METAR CYVR 261100Z 14005KT 20SM FEW240 08/06 A3000 RMK CI1 SLP158=

CYVR;2005-10-26 12:00;METAR CYVR 261200Z 16004KT 20SM SKC 07/06 A3002 RMK SLP165=

CYVR;2005-10-26 13:00;METAR CYVR 261300Z 10005KT 15SM FEW020 FEW220 05/04 A3004 RMK SC1CI1 SLP171=

CYVR;2005-10-26 14:00;METAR CYVR 261400Z 08005KT 15SM FEW020 FEW040 FEW220 05/04 A3005 RMK ST1SC1CI1 SLP175=

CYVR;2005-10-26 15:00;METAR CYVR 261500Z 09004KT 15SM FEW020 FEW040 SCT200 04/04 A3006 RMK SF1SC1CI1 SLP180=

CYVR;2005-10-26 16:00;METAR CYVR 261600Z 10006KT 15SM FEW030 FEW070 SCT210 06/05 A3008 RMK SC1AC1CI1 SLP185=

CYVR;2005-10-26 17:00;METAR CYVR 261700Z 09009KT 15SM FEW030 FEW070 FEW210 09/07 A3009 RMK SC1AC1CI1 SLP191=

CYVR;2005-10-26 18:00;METAR CYVR 261800Z 10010KT 15SM FEW040 FEW073 SCT220 11/08 A3010 RMK SC1AC1CI1 SLP192=

CYVR;2005-10-26 19:00;METAR CYVR 261900Z 12008KT 20SM FEW040 BKN071 BKN220 10/06 A3010 RMK SC2AC3CI1 SLP194=

CYVR;2005-10-26 21:00;METAR CYVR 262100Z 14003KT 20SM FEW035 FEW070 BKN220 12/05 A3007 RMK CU2AC1CI2 SLP184=

CYVR;2005-10-26 22:00;METAR CYVR 262200Z 17004KT 15SM FEW035 FEW070 BKN220 12/06 A3006 RMK CU1AC1CI3 SLP179=

CYVR;2005-10-26 23:00;METAR CYVR 262300Z 09004KT 20SM SCT035 SCT070 BKN220 12/06 A3005 RMK SC3AC1CI1 SLP177=

CYVR;2005-10-27 00:00;METAR CYVR 270000Z 17003KT 20SM FEW070 BKN220 12/05 A3005 RMK AC2CI2 SLP175=

CYVR;2005-10-27 01:00;METAR CYVR 270100Z 14005KT 20SM SCT070 BKN220 11/06 A3004 RMK AC2CI2 SLP173=

CYVR;2005-10-27 02:00;METAR CYVR 270200Z 13003KT 20SM FEW070 BKN220 10/05 A3004 RMK AC2CI2 SLP172=

CYVR;2005-10-27 03:00;METAR CYVR 270300Z 04004KT 20SM FEW220 08/05 A3005 RMK CI2 SLP175=

CYVR;2005-10-27 04:00;METAR CYVR 270400Z 07007KT 20SM FEW070 SCT240 07/05 A3005 RMK AC1CI1 SLP175=

CYVR;2005-10-27 06:00;METAR CYVR 270600Z 09007KT 20SM BKN070 08/06 A3004 RMK AC6 SLP172=

CYVR;2005-10-27 07:00;METAR CYVR 270700Z 09007KT 20SM FEW070 06/04 A3003 RMK AC2 SLP168=

CYVR;2005-10-27 08:00;METAR CYVR 270800Z 08006KT 20SM FEW070 FEW220 06/03 A3001 RMK AC1CI1 SLP162=

CYVR;2005-10-27 09:00;METAR CYVR 270900Z 09006KT 15SM FEW220 05/03 A2999 RMK CI1 SLP155=

CYVR;2005-10-27 11:00;METAR CYVR 271100Z 07007KT 15SM FEW040 04/02 A2996 RMK SC1 SLP147=

CYVR;2005-10-27 12:00;METAR CYVR 271200Z 11005KT 15SM FEW040 05/03 A2995 RMK SC1 SLP142=

CYVR;2005-10-27 13:00;METAR CYVR 271300Z 09006KT 15SM FEW040 04/02 A2993 RMK SC1 SLP137=

CYVR;2005-10-27 14:00;METAR CYVR 271400Z 12004KT 15SM SKC 05/03 A2993 RMK SLP135=

CYVR;2005-10-27 15:00;METAR CYVR 271500Z 11004KT 15SM FEW040 FEW220 04/03 A2991 RMK SC1CI1 SLP130=

CYVR;2005-10-27 16:00;METAR CYVR 271600Z 11005KT 20SM BKN220 06/04 A2991 RMK CI5 SLP128=

CYVR;2005-10-27 18:00;METAR CYVR 271800Z 11008KT 20SM BKN220 10/05 A2988 RMK CI6 SLP117=

CYVR;2005-10-27 19:00;METAR CYVR NIL=

CYVR;2005-10-27 21:00;METAR CYVR 272100Z 11010KT 20SM FEW040 BKN210 12/04 A2979 RMK SC1CI6 SLP087=

CYVR;2005-10-27 22:00;METAR CYVR 272200Z 09011KT 20SM FEW040 OVC210 13/04 A2976 RMK SC1CI6 SLP077=

CYVR;2005-10-28 00:00;METAR CYVR 280000Z 10012KT 20SM SCT160 OVC210 12/04 A2971 RMK AC3CI4 SLP062=

CYVR;2005-10-28 01:00;METAR CYVR 280100Z 10011KT 20SM FEW040 BKN140 OVC210 12/05 A2969 RMK SC1AC4CI3 SLP053=

CYVR;2005-10-28 02:00;METAR CYVR 280200Z 09008KT 20SM FEW040 SCT070 BKN120 OVC210 11/05 A2966 RMK SC1AC3AC3CI1 SLP045=

CYVR;2005-10-28 03:00;METAR CYVR 280300Z 11014KT 20SM FEW040 SCT070 OVC120 12/04 A2964 RMK SC2AC2AC4 SLP036=

CYVR;2005-10-28 04:00;METAR CYVR 280400Z 09016KT 20SM -SHRA FEW040 BKN090 OVC120 11/04 A2963 RMK SC2AC5AC2 SHRA VRY LGT SLP033=

CYVR;2005-10-28 04:09;SPECI CYVR 280409Z 10014G19KT 20SM FEW040 BKN090 OVC120 11/ RMK SC2AC5AC2=

CYVR;2005-10-28 05:00;METAR CYVR 280500Z 11012G17KT 20SM FEW040 BKN090 OVC120 12/03 A2961 RMK SC1AC5AC2 SLP028=

CYVR;2005-10-28 06:00;METAR CYVR 280600Z 11013KT 20SM FEW040 BKN070 OVC120 12/03 A2961 RMK SC2AC3AC3 SLP027=

CYVR;2005-10-28 08:00;METAR CYVR 280800Z 10018KT 20SM BKN055 OVC150 11/04 A2958 RMK SC6AC2 SLP017=

CYVR;2005-10-28 09:00;METAR CYVR 280900Z 09022KT 20SM BKN070 OVC150 11/05 A2957 RMK AC5AC3 SLP013=

CYVR;2005-10-28 09:14;SPECI CYVR 280914Z 09021KT 20SM -SHRA BKN070 OVC150 10/ RMK AC6AC2=

CYVR;2005-10-28 10:00;METAR CYVR 281000Z 11014G19KT 10SM -RA BKN050 OVC150 09/07 A2961 RMK SC6AC2 SLP027=

CYVR;2005-10-28 11:00;METAR CYVR 281100Z 11011KT 10SM -RA OVC040 09/07 A2962 RMK SC8 SLP030=

CYVR;2005-10-28 11:54;SPECI CYVR 281154Z 15006KT 6SM +RA OVC022 09/ RMK SC8 VIS LWR N QUAD 3=

CYVR;2005-10-28 12:00;METAR CYVR 281200Z 12011KT 4SM +RA OVC017 09/08 A2965 RMK SC8 SLP039=

CYVR;2005-10-28 12:24;SPECI CYVR 281224Z 10011KT 10SM -RA SCT017 OVC055 09/ RMK SC3SC5=

CYVR;2005-10-28 12:38;SPECI CYVR 281238Z 10009KT 10SM FEW017 BKN056 OVC150 09/ RMK SC2SC4AC2=

CYVR;2005-10-28 13:00;METAR CYVR 281300Z 09006KT 10SM FEW017 BKN060 OVC150 09/08 A2966 RMK SC2SC4AC2 SLP044=

CYVR;2005-10-28 14:00;METAR CYVR 281400Z 09007KT 12SM FEW020 SCT070 BKN210 08/07 A2969 RMK SC1AC3CI0 SLP054=

CYVR;2005-10-28 15:00;METAR CYVR 281500Z 12012KT 12SM FEW018 BKN072 BKN210 09/08 A2971 RMK SC2AC5CI0 SLP062=

CYVR;2005-10-28 16:00;METAR CYVR 281600Z 11014KT 12SM SCT015 BKN069 OVC120 09/08 A2974 RMK SC3AC3AC2 SLP072=

CYVR;2005-10-28 17:00;METAR CYVR 281700Z 10016KT 12SM FEW016 SCT070 OVC140 10/08 A2975 RMK SC2AC2AC5 SLP076=

CYVR;2005-10-28 18:00;METAR CYVR 281800Z 11014KT 12SM SCT018 BKN067 OVC140 11/08 A2977 RMK SC3AC3AC2 SLP080=

CYVR;2005-10-28 19:00;METAR CYVR 281900Z 13017G22KT 12SM SCT019 OVC078 12/08 A2978 RMK SC4AC4 SLP084=

CYVR;2005-10-28 20:00;METAR CYVR 282000Z 13017G22KT 15SM SCT021 BKN079 OVC140 12/07 A2978 RMK SC3AC4AC1 SLP084=

CYVR;2005-10-28 21:00;METAR CYVR 282100Z 14016KT 15SM -RA SCT018 OVC047 12/07 A2978 RMK SC3SC5 SLP084=

CYVR;2005-10-28 22:00;METAR CYVR 282200Z 15011KT 8SM -RA SCT016 OVC044 11/08 A2979 RMK SC3SC5 SLP089=

CYVR;2005-10-28 22:41;SPECI CYVR 282241Z 15012G19KT 12SM SCT020 OVC046 12/ RMK SC3SC5=

CYVR;2005-10-28 22:52;SPECI CYVR 282252Z 16013KT 10SM -RA SCT020 OVC049 12/ RMK SC3SC5=

CYVR;2005-10-28 23:00;METAR CYVR 282300Z 16014KT 10SM -RA SCT020 OVC051 11/08 A2980 RMK SC3SC5 SLP091=

CYVR;2005-10-28 23:39;SPECI CYVR 282339Z 17012KT 15SM FEW020 OVC052 11/ RMK SC2SC6=

CYVR;2005-10-28 23:47;SPECI CYVR 282347Z 17012KT 12SM -SHRA FEW020 BKN048 OVC064 11/ RMK SC2SC6SC1=

CYVR;2005-10-29 00:00;METAR CYVR 290000Z 17014G19KT 15SM -SHRA FEW020 BKN045 OVC064 11/08 A2981 RMK SC2SC5SC2 SLP094=

CYVR;2005-10-29 01:00;METAR CYVR 290100Z 15016G21KT 15SM -SHRA FEW020 BKN049 OVC071 11/08 A2982 RMK SC2SC4AC2 SLP097=

CYVR;2005-10-29 01:25;SPECI CYVR 290125Z 15016KT 15SM FEW020 BKN053 OVC072 11/ RMK SC2SC5AC2=

CYVR;2005-10-29 01:38;SPECI CYVR 290138Z 17016KT 15SM -SHRA FEW020 BKN053 BKN068 11/ RMK SC2SC4AC2 SHRA VRY LGT=

CYVR;2005-10-29 02:00;METAR CYVR 290200Z 15012KT 15SM -SHRA FEW020 SCT050 BKN073 BKN090 10/07 A2984 RMK SC2SC2AC3AC1 SLP106=

CYVR;2005-10-29 02:10;SPECI CYVR 290210Z 16013KT 10SM FEW020 SCT060 BKN073 11/ RMK SC2SC2AC3=

CYVR;2005-10-29 02:19;SPECI CYVR 290219Z 16014KT 10SM -SHRA FEW020 SCT053 BKN072 11/ RMK SC2SC2AC4=

CYVR;2005-10-29 02:50;SPECI CYVR 290250Z 17013G18KT 10SM FEW020 BKN066 OVC075 11/ RMK SC2AC3AC2=

CYVR;2005-10-29 03:00;METAR CYVR 290300Z 17012G18KT 10SM FEW020 BKN060 OVC075 11/07 A2987 RMK SC2SC3AC2 SLP114=

CYVR;2005-10-29 04:00;METAR CYVR 290400Z 17014KT 15SM FEW020 OVC070 11/07 A2989 RMK SC2AC6 SLP121=

CYVR;2005-10-29 05:00;METAR CYVR 290500Z 18013G19KT 15SM -SHRA FEW020 OVC068 11/07 A2990 RMK SC2AC6 SLP126=

CYVR;2005-10-29 06:00;METAR CYVR 290600Z 16013KT 15SM -SHRA FEW020 BKN040 OVC100 10/08 A2993 RMK SC2SC5AC2 SLP136=

CYVR;2005-10-29 06:19;SPECI CYVR 290619Z 16011G17KT 15SM FEW020 SCT040 OVC100 10/ RMK SC2SC2AC4=

CYVR;2005-10-29 06:42;SPECI CYVR 290642Z 16013KT 15SM -SHRA FEW020 BKN064 OVC100 10/ RMK SC2SC3AC3=

CYVR;2005-10-29 06:55;SPECI CYVR 290655Z 16010KT 15SM FEW020 SCT064 BKN095 09/ RMK SC2SC2AC3=

CYVR;2005-10-29 07:49;SPECI CYVR 290749Z 15009KT 15SM -SHRA FEW020 BKN060 OVC095 10/ RMK SC2SC4AC2=

CYVR;2005-10-29 08:00;METAR CYVR 290800Z 16010KT 15SM -SHRA FEW020 BKN060 OVC095 10/07 A2996 RMK SC2SC4AC2 SLP147=

CYVR;2005-10-29 09:00;METAR CYVR 290900Z 11007KT 10SM -RA FEW020 BKN050 OVC095 09/08 A2998 RMK SC2SC6AC1 SLP154=

CYVR;2005-10-29 09:25;SPECI CYVR 290925Z 13008KT 10SM FEW020 BKN050 OVC095 09/ RMK SC2SC5AC2=

CYVR;2005-10-29 09:50;SPECI CYVR 290950Z 09008KT 10SM -SHRA FEW020 BKN058 OVC090 09/ RMK SC2SC5AC2=

CYVR;2005-10-29 10:00;METAR CYVR 291000Z 10009KT 10SM -SHRA FEW020 BKN058 OVC090 09/08 A2999 RMK SC2SC5AC2 SLP157=

CYVR;2005-10-29 11:45;SPECI CYVR 291145Z 12006KT 15SM FEW020 SCT050 OVC140 08/ RMK SC2SC2AC4=

CYVR;2005-10-29 12:00;METAR CYVR 291200Z 09004KT 15SM FEW020 SCT050 BKN130 08/08 A3001 RMK SC2SC2AC3 SLP162=

CYVR;2005-10-29 13:00;METAR CYVR 291300Z 16004KT 15SM -SHRA FEW020 SCT045 BKN080 BKN120 09/07 A3002 RMK SC2SC2AC2AC2 SHRA VRY LGT SLP165=

CYVR;2005-10-29 13:14;SPECI CYVR 291314Z 09003KT 15SM FEW020 SCT045 BKN100 09/ RMK SC2SC2AC3=

CYVR;2005-10-29 14:00;METAR CYVR 291400Z 09004KT 15SM FEW020 BKN071 BKN160 07/07 A3004 RMK SC1AC4AC2 SLP171=

CYVR;2005-10-29 15:00;METAR CYVR 291500Z 09004KT 15SM FEW020 BKN072 BKN160 07/06 A3005 RMK SC1AC4AC2 SLP177=

CYVR;2005-10-29 16:00;METAR CYVR 291600Z 09005KT 15SM FEW018 BKN059 BKN140 07/07 A3009 RMK SC1SC5AC1 SLP189=

CYVR;2005-10-29 17:00;METAR CYVR 291700Z 11006KT 15SM FEW018 SCT059 BKN110 09/08 A3010 RMK SC1SC3AC2 SLP194=

CYVR;2005-10-29 18:00;METAR CYVR 291800Z 13003KT 15SM FEW018 BKN051 BKN100 11/08 A3013 RMK SC2SC4AC2 SLP202=

CYVR;2005-10-29 19:00;METAR CYVR 291900Z 23005KT 15SM SCT024 BKN052 BKN110 12/07 A3014 RMK SC3SC2AC2 SLP207=

CYVR;2005-10-29 20:00;METAR CYVR 292000Z 21005KT 20SM FEW024 BKN095 BKN120 12/07 A3015 RMK SC1AC4AC1 SLP209=

CYVR;2005-10-29 21:00;METAR CYVR 292100Z 18003KT 20SM FEW025TCU SCT090 BKN130 12/05 A3016 RMK TCU2AC2AC2 SLP212=

CYVR;2005-10-29 22:00;METAR CYVR 292200Z 20008G15KT 20SM FEW029 BKN110 13/07 A3015 RMK SC2AC3 TCU EMBD SLP211=

CYVR;2005-10-29 23:00;METAR CYVR 292300Z 19008KT 20SM FEW030 FEW100 12/06 A3017 RMK SC2AC1 SLP216=

CYVR;2005-10-30 00:00;METAR CYVR 300000Z 18006KT 20SM FEW035TCU FEW060 11/06 A3018 RMK TCU2SC1 SLP220=

CYVR;2005-10-30 02:00;METAR CYVR 300200Z 11006KT 30SM FEW035 FEW240 07/05 A3020 RMK SC1CI1 SLP226=

CYVR;2005-10-30 04:00;METAR CYVR 300400Z 08005KT 30SM FEW140 FEW240 06/05 A3023 RMK AC1CI0 SLP237=

CYVR;2005-10-30 05:00;METAR CYVR 300500Z 11004KT 30SM FEW140 FEW220 06/05 A3025 RMK AC1CI1 SLP243=

CYVR;2005-10-30 06:00;METAR CYVR 300600Z 09006KT 30SM FEW090 FEW220 06/05 A3026 RMK AC1CI1 SLP248=

CYVR;2005-10-30 07:00;METAR CYVR 300700Z 08007KT 30SM FEW070 FEW220 05/04 A3027 RMK AC2CI0 SLP250=

CYVR;2005-10-30 08:00;METAR CYVR 300800Z 09005KT 30SM FEW065 BKN085 05/05 A3028 RMK SC2AC2 SLP253=

CYVR;2005-10-30 09:00;METAR CYVR 300900Z 09007KT 20SM BKN061 07/06 A3028 RMK SC5 SLP255=

CYVR;2005-10-30 10:00;METAR CYVR 301000Z 10007KT 20SM OVC060 07/06 A3029 RMK SC7 SLP257=

CYVR;2005-10-30 11:43;SPECI CYVR 301143Z 11008KT 15SM -SHRA OVC023 08/ RMK SC8=

CYVR;2005-10-30 12:00;METAR CYVR 301200Z 12008KT 10SM -SHRA OVC021 08/07 A3028 RMK SC8 SLP253=

CYVR;2005-10-30 13:00;METAR CYVR 301300Z 09009KT 10SM -SHRA OVC021 08/07 A3028 RMK SC8 SLP253=

CYVR;2005-10-30 14:00;METAR CYVR 301400Z 09009KT 10SM -SHRA OVC010 08/07 A3028 RMK SC8 SLP254=

CYVR;2005-10-30 15:00;METAR CYVR 301500Z 10009KT 6SM -SHRA BR BKN022 OVC055 08/08 A3029 RMK SC7SC1 SLP257=

CYVR;2005-10-30 16:00;METAR CYVR 301600Z 09010KT 10SM -SHRA OVC023 08/08 A3030 RMK SC8 SLP259=

CYVR;2005-10-30 17:00;METAR CYVR 301700Z 09012KT 10SM -RA BKN024 OVC050 08/08 A3030 RMK SC6SC2 SLP261=

CYVR;2005-10-30 18:00;METAR CYVR 301800Z 10012KT 8SM -RA BKN026 OVC055 09/08 A3030 RMK SC6SC2 SLP262=

CYVR;2005-10-30 19:00;METAR CYVR 301900Z 09011KT 10SM -RA BKN031 OVC056 09/08 A3030 RMK SC6SC2 SLP262=

CYVR;2005-10-30 20:00;METAR CYVR 302000Z 09012KT 10SM -RA SCT030 BKN061 OVC075 09/08 A3029 RMK SC3SC3AC2 SLP257=

CYVR;2005-10-30 21:00;METAR CYVR 302100Z 09013KT 10SM -RA SCT024 BKN053 OVC075 09/08 A3028 RMK SC3SC4AC1 SLP255=

CYVR;2005-10-30 22:00;METAR CYVR 302200Z 09011G16KT 10SM -RA FEW024 OVC059 10/08 A3026 RMK SC2SC6 PCPN VRY LGT SLP248=

CYVR;2005-10-31 00:00;METAR CYVR 310000Z 09013KT 10SM -RA SCT027 OVC060 09/08 A3023 RMK SC3SC5 SLP237=

CYVR;2005-10-31 01:00;METAR CYVR 310100Z 09012G17KT 5SM -RA BR BKN031 OVC057 09/08 A3020 RMK SC6SC2 SLP228=

CYVR;2005-10-31 02:00;METAR CYVR 310200Z 09014G19KT 6SM -RA BR BKN033 OVC051 09/08 A3019 RMK SC6SC2 SLP223=

CYVR;2005-10-31 03:00;METAR CYVR 310300Z 09017KT 10SM -RA BKN036 OVC055 09/08 A3016 RMK SC6SC2 VIS N QUAD 8 SLP214=

CYVR;2005-10-31 04:00;METAR CYVR 310400Z 09018KT 10SM -RA BKN032 OVC050 09/08 A3013 RMK SC6SC2 VIS LWR N QUAD 8 SM SLP204=

CYVR;2005-10-31 05:54;SPECI CYVR 310554Z 09017KT 6SM -RA BR BKN026 OVC035 09/ RMK SC6SC2=

CYVR;2005-10-31 06:00;METAR CYVR 310600Z 10016KT 6SM -RA BR BKN023 OVC035 09/08 A3009 RMK SC6SC2 VIS N QUAD 4 SM SLP188=

CYVR;2005-10-31 07:00;METAR CYVR 310700Z 12021G27KT 6SM -RA BR FEW015 BKN022 OVC030 10/09 A3004 RMK SC2SC4SC2 VIS N QUAD 4 SM SLP174=

CYVR;2005-10-31 07:21;SPECI CYVR 310721Z 13022G30KT 8SM -RA FEW016 BKN025 OVC031 10/ RMK SC2SC3SC2 VIS N QUAD 6 SM=

CYVR;2005-10-31 08:00;METAR CYVR 310800Z 13023G28KT 8SM -RA FEW013 BKN019 OVC030 10/08 A3000 RMK SC2SC5SC1 SLP160=

CYVR;2005-10-31 09:00;METAR CYVR 310900Z 12021G32KT 8SM -RA FEW015 BKN021 OVC030 10/08 A2996 RMK SC2SC5SC2 SLP147=

CYVR;2005-10-31 10:00;METAR CYVR 311000Z 11018G26KT 6SM -RA FEW013 OVC018 09/08 A2996 RMK SC2SC6 SLP144=

CYVR;2005-10-31 11:56;SPECI CYVR 311156Z 09012KT 10SM SCT014 OVC020 09/ RMK SC3SC5=

CYVR;2005-10-31 12:00;METAR CYVR 311200Z 09011KT 12SM SCT014 OVC020 09/08 A2991 RMK SC3SC5 SLP127=

CYVR;2005-10-31 13:00;METAR CYVR 311300Z 17017G22KT 15SM FEW025 BKN060 OVC220 10/08 A2991 RMK SC2SC2CS2 SLP127=

CYVR;2005-10-31 14:00;METAR CYVR 311400Z 17012G18KT 15SM FEW020 SCT060 OVC210 10/09 A2992 RMK SC2SC2CS3 SLP133=

CYVR;2005-10-31 15:00;METAR CYVR 311500Z 18014KT 15SM FEW020 SCT070 BKN200 OVC240 11/09 A2995 RMK SC2AC2CS2CC2 SLP142=

CYVR;2005-10-31 16:00;METAR CYVR 311600Z 19012KT 20SM FEW020 SCT070 OVC200 11/09 A2999 RMK SC2AC2CS4 SLP156=

CYVR;2005-10-31 17:00;METAR CYVR 311700Z 09003KT 15SM FEW020 SCT070 OVC230 11/09 A3002 RMK SC2AC2CC5 SLP166=

CYVR;2005-10-31 18:00;METAR CYVR 311800Z 14003KT 15SM FEW020 SCT070 OVC200 12/09 A3006 RMK SC2AC2CC4 SLP178=

CYVR;2005-10-31 19:00;METAR CYVR 311900Z 15004KT 15SM FEW020 SCT070 OVC200 12/08 A3008 RMK SC2AC2CC4 SLP186=

CYVR;2005-10-31 20:27;SPECI CYVR 312027Z 19006KT 15SM -SHRA FEW020 BKN060 OVC090 12/ RMK SC2SC3AC2=

CYVR;2005-10-31 21:00;METAR CYVR 312100Z 19011KT 15SM -SHRA FEW020 BKN054 OVC090 12/08 A3009 RMK SC2SC5AC2 SLP190=

CYVR;2005-10-31 21:06;SPECI CYVR 312106Z 19011KT 15SM FEW020 BKN054 OVC090 12/ RMK SC2SC5AC2=

CYVR;2005-10-31 22:00;METAR CYVR 312200Z 18011KT 15SM FEW020 SCT065 BKN090 OVC140 12/08 A3009 RMK SC2SC2AC3AC2 SLP191=

CYVR;2005-10-31 22:54;SPECI CYVR 312254Z 19012KT 15SM -SHRA FEW020 FEW028 BKN065 OVC140 12/ RMK SC2SF1SC4AC2=

CYVR;2005-11-01 00:00;METAR CYVR 010000Z 17008KT 10SM -SHRA FEW020 BKN055 BKN140 11/09 A3010 RMK SC2SC4AC2 SLP194=

CYVR;2005-11-01 00:16;SPECI CYVR 010016Z 17007KT 15SM FEW020 BKN060 BKN140 11/ RMK SC2SC4AC2=

CYVR;2005-11-01 01:00;METAR CYVR 010100Z 14006KT 15SM FEW020 SCT060 BKN090 OVC120 11/09 A3009 RMK SC2SC2AC2AC2 SLP190=

CYVR;2005-11-01 02:00;METAR CYVR 010200Z 15007KT 15SM FEW020 BKN060 OVC110 11/09 A3010 RMK SC2SC3AC3 SLP193=

CYVR;2005-11-01 02:33;SPECI CYVR 010233Z 18008KT 15SM -SHRA FEW020 SCT060 OVC110 11/ RMK SC2SC2AC4 PCPN VRY LGT=

CYVR;2005-11-01 03:00;METAR CYVR 010300Z 15007KT 15SM FEW020 FEW060 OVC100 11/08 A3010 RMK SC2SC1AC5 SLP192=

CYVR;2005-11-01 03:19;SPECI CYVR 010319Z 16009KT 15SM -SHRA FEW020 SCT090 OVC110 11/ RMK SC2AC2AC5 PCPN VRY LGT=

CYVR;2005-11-01 03:41;SPECI CYVR 010341Z 15006KT 15SM FEW020 SCT075 OVC110 11/ RMK SC2AC2AC5=

CYVR;2005-11-01 04:00;METAR CYVR 010400Z 13005KT 15SM FEW030 SCT055 OVC100 10/07 A3009 RMK SC2SC1AC5 SLP191=

CYVR;2005-11-01 06:00;METAR CYVR 010600Z 09006KT 15SM FEW030 FEW060 OVC120 09/08 A3010 RMK SC1SC1AC6 SLP193=

CYVR;2005-11-01 08:00;METAR CYVR 010800Z 10010KT 15SM FEW075 OVC110 09/08 A3008 RMK AC2AC6 SLP185=

CYVR;2005-11-01 09:00;METAR CYVR 010900Z 11009KT 15SM -SHRA BKN053 OVC072 09/08 A3005 RMK SC6AC2 SLP177=

CYVR;2005-11-01 10:00;METAR CYVR 011000Z 10009KT 15SM -SHRA FEW035 BKN045 OVC052 09/08 A3003 RMK SC2SC2SC3 SLP168=

CYVR;2005-11-01 11:00;METAR CYVR 011100Z 10007KT 12SM -SHRA FEW010 BKN043 OVC050 09/08 A3000 RMK SC2SC5SC2 SLP159=

CYVR;2005-11-01 11:48;SPECI CYVR 011148Z 12004KT 12SM -SHRA BKN011 OVC045 09/ RMK SC6SC2=

CYVR;2005-11-01 12:00;METAR CYVR 011200Z 14002KT 15SM -SHRA FEW005 BKN011 OVC045 09/08 A2998 RMK SC2SC4SC2 SLP152=

CYVR;2005-11-01 12:39;SPECI CYVR 011239Z 10007KT 8SM -SHRA BKN009 OVC020 08/ RMK SC6SC2 VIS N QUAD 5 SM=

CYVR;2005-11-01 12:48;SPECI CYVR 011248Z 09008KT 6SM -RA BR BKN011 OVC027 08/ RMK SC6SC2 VIS N QUAD 4 SM=

CYVR;2005-11-01 13:00;METAR CYVR 011300Z 09006KT 6SM -RA BR BKN011 OVC025 08/08 A2994 RERA RMK SC6SC2 VIS N QUAD 4 SM SLP138=

CYVR;2005-11-01 14:00;METAR CYVR 011400Z 04005KT 6SM -RA SCT011 OVC017 08/07 A2991 RMK SC3SC5 SLP129=

CYVR;2005-11-01 14:16;SPECI CYVR 011416Z 02008KT 4SM +RA BKN007 OVC017 08/ RMK SC5SC3 VIS N QUAD 3 SM=

CYVR;2005-11-01 14:19;SPECI CYVR 011419Z 02008KT 4SM +RA SCT007 BKN012 OVC017 08/ RMK SC4SC3SC1 VIS N QUAD 3 SM=

CYVR;2005-11-01 14:32;SPECI CYVR 011432Z 06005KT 4SM +RA FEW007 SCT012 BKN017 OVC025 07/ RMK SC2SC2SC2SC2=

CYVR;2005-11-01 15:00;METAR CYVR 011500Z 09007KT 5SM -RA FEW007 SCT012 BKN025 OVC033 07/06 A2989 RMK SC2SC2SC2SC2 RERA SLP123=

CYVR;2005-11-01 15:12;SPECI CYVR 011512Z 07007KT 7SM -RA FEW007 SCT012 BKN025 OVC033 07/ RMK SC2SC2SC2SC2 /R10/=

CYVR;2005-11-01 19:00;METAR CYVR 011900Z 00000KT 12SM -RA FEW007 BKN023 OVC033 08/07 A2983 RMK SC2SC5SC2 SLP100=

CYVR;2005-11-01 20:00;METAR CYVR 012000Z 00000KT 15SM -RA FEW009 BKN020 OVC030 08/07 A2981 RMK SC2SC3SC3 SLP094=

CYVR;2005-11-01 20:35;SPECI CYVR 012035Z 18003KT 15SM FEW009 SCT018 OVC044 08/ RMK SC2SC2SC4=

CYVR;2005-11-01 21:00;METAR CYVR 012100Z 27005KT 15SM -SHRA FEW007 FEW018 OVC041 08/07 A2982 RMK SC1SC2SC6 SLP097=

CYVR;2005-11-01 22:00;METAR CYVR 012200Z 25004KT 12SM -RA FEW009 FEW018 OVC033 08/07 A2983 RMK SC1SC1SC6 SLP101=

CYVR;2005-11-01 22:26;SPECI CYVR 012226Z 25003KT 15SM FEW007 FEW018 SCT035 OVC075 08/ RMK SC1SC2SC2AC4=

CYVR;2005-11-01 22:30;SPECI CYVR 012230Z 24002KT 15SM -SHRA FEW007 FEW018 SCT035 OVC070 08/ RMK SC1SC2SC2AC4=

CYVR;2005-11-01 23:00;METAR CYVR 012300Z 17003KT 15SM -SHRA FEW009 FEW018 BKN065 08/07 A2983 RMK SC1SF1SC6 SLP101=

CYVR;2005-11-01 23:21;SPECI CYVR 012321Z 20003KT 15SM FEW009 FEW018 SCT065 BKN110 BKN180 08/ RMK SF1SC1SC2AC2AC1=

CYVR;2005-11-02 00:00;METAR CYVR 020000Z 18004KT 15SM FEW009 FEW018 BKN045 BKN110 08/07 A2985 RMK SF1SC2SC2AC1 SLP108=

CYVR;2005-11-02 01:00;METAR CYVR 020100Z 12005KT 15SM FEW009 FEW018 SCT034 BKN050 08/07 A2985 RMK SF1SC2SC2SC2 SLP110=

CYVR;2005-11-02 02:00;METAR CYVR 020200Z 09007KT 15SM FEW018 FEW080 SCT110 07/06 A2988 RMK SC1AC1AC2 SLP118=

CYVR;2005-11-02 03:00;METAR CYVR 020300Z 09005KT 15SM FEW020 FEW080 BKN100 06/06 A2989 RMK SC1AC1AC3 SLP123=

CYVR;2005-11-02 04:00;METAR CYVR 020400Z 09005KT 15SM -SHRA FEW020 SCT045 OVC083 08/07 A2991 RMK SC2SC2AC3 PCPN VRY LGT SLP128=

CYVR;2005-11-02 06:00;METAR CYVR 020600Z 11007KT 10SM -RA SCT010 OVC019 08/08 A2992 RMK SC3SC5 VIS N QUAD 6 SM SLP131=

CYVR;2005-11-02 06:51;SPECI CYVR 020651Z 11012KT 6SM -RA BR FEW010 BKN014 OVC022 08/ RMK SC2SC5SC2 VIS N QUAD 4 SM=

CYVR;2005-11-02 07:07;SPECI CYVR 020707Z 09011KT 6SM -RA BR FEW008 SCT014 OVC019 08/ RMK SC2SC2SC4=

CYVR;2005-11-02 07:52;SPECI CYVR 020752Z 09011KT 8SM -RA FEW008 BKN014 OVC019 08/ RMK SC2SC3SC3=

CYVR;2005-11-02 08:00;METAR CYVR 020800Z 09011KT 10SM -RA FEW009 BKN014 OVC020 08/07 A2990 RMK SC2SC5SC2 VIS N QUAD 6 SM SLP126=

CYVR;2005-11-02 08:15;SPECI CYVR 020815Z 10010KT 10SM -SHRA FEW010 BKN016 OVC022 08/ RMK SC2SC5SC2=

CYVR;2005-11-02 10:00;METAR CYVR 021000Z 11007KT 15SM FEW014 SCT024 OVC046 08/07 A2991 RMK SF2SC2SC4 SLP127=

CYVR;2005-11-02 11:00;METAR CYVR 021100Z 12007KT 15SM FEW020 FEW043 08/07 A2989 RMK SF1SC1 SLP122=

CYVR;2005-11-02 12:00;METAR CYVR 021200Z 16010KT 15SM FEW020 BKN064 08/07 A2990 RMK SC2SC3 SLP125=

CYVR;2005-11-02 13:00;METAR CYVR 021300Z 13007KT 15SM FEW009 OVC046 09/07 A2991 RMK SC2SC6 SLP130=

CYVR;2005-11-02 13:45;SPECI CYVR 021345Z 14006KT 15SM -SHRA FEW015 OVC045 09/ RMK SC2SC4 PCPN VRY LGT=

CYVR;2005-11-02 14:00;METAR CYVR 021400Z 15009KT 15SM -SHRA SCT014 BKN025 OVC046 09/07 A2992 RMK SC4SC2SC1 SLP131=

CYVR;2005-11-02 14:42;SPECI CYVR 021442Z 16007KT 15SM FEW014 SCT045 BKN120 08/ RMK SC2SC2AC2=

CYVR;2005-11-02 15:00;METAR CYVR 021500Z 14007KT 15SM FEW014 FEW045 BKN120 08/07 A2991 RMK SC2SC1AC2 SLP129=

CYVR;2005-11-02 16:00;METAR CYVR 021600Z 12004KT 15SM FEW014 FEW040 SCT120 BKN220 08/07 A2992 RMK SC1SC1AC2CI1 SLP133=

CYVR;2005-11-02 16:34;SPECI CYVR 021634Z 13006KT 15SM -SHRA FEW014 BKN059 BKN110 09/ RMK SC2SC2AC2=

CYVR;2005-11-02 17:00;METAR CYVR 021700Z 15007KT 15SM -SHRA FEW014 BKN063 OVC080 09/07 A2992 RMK SC2SC3AC2 SLP133=

CYVR;2005-11-02 18:00;METAR CYVR 021800Z 17010KT 10SM -SHRA SCT014 OVC035 09/08 A2992 RMK SC3SC5 SLP133=

CYVR;2005-11-02 19:23;SPECI CYVR 021923Z 13011KT 10SM SCT009 OVC042 09/ RMK SC4SC4=

CYVR;2005-11-02 21:00;METAR CYVR 022100Z 13008KT 15SM FEW009 SCT015 BKN056 OVC075 10/07 A2986 RMK SC2SC2SC2AC2 SLP111=

CYVR;2005-11-02 22:00;METAR CYVR 022200Z 14010KT 15SM FEW009 SCT017 BKN045 OVC085 10/07 A2983 RMK SC2SC2SC2AC2 SLP102=

CYVR;2005-11-02 23:00;METAR CYVR 022300Z 14012KT 15SM FEW009 BKN060 BKN085 10/07 A2982 RMK SC2SC3AC2 TCU ASOCT SLP098=

CYVR;2005-11-03 00:00;METAR CYVR 030000Z 14008KT 15SM FEW009 BKN047 BKN100 OVC140 10/08 A2980 RMK SC2SC5AC1AC1 SLP093=

CYVR;2005-11-03 00:06;SPECI CYVR 030006Z 14010KT 15SM -SHRA FEW009 BKN047 BKN100 OVC140 10/ RMK SC2SC5AC1AC1=

CYVR;2005-11-03 01:00;METAR CYVR 030100Z 14007KT 10SM -SHRA FEW009 SCT027 BKN050 09/08 A2980 RMK SC2SC2SC3 SLP090=

CYVR;2005-11-03 02:00;METAR CYVR 030200Z 19010G15KT 4SM +RA SCT007 OVC036 08/07 A2980 RMK SC4SC4 SLP092=

CYVR;2005-11-03 02:39;SPECI CYVR 030239Z 08003KT 7SM -RA FEW007 OVC040 07/ RMK SF2SC6=

CYVR;2005-11-03 02:47;SPECI CYVR 030247Z 08005KT 7SM -RA FEW007 OVC040 07/ RMK SF2SC6 TWR REP LTG DIST E - SE QUADS=

CYVR;2005-11-03 04:00;METAR CYVR 030400Z 07005KT 15SM -SHRA FEW040 SCT055 OVC061 07/06 A2977 RMK SC2SC2SC4 SLP081=

CYVR;2005-11-03 05:19;SPECI CYVR 030519Z 07008KT 15SM -SHRA FEW040 BKN063 OVC090 07/ RMK SC2SC4AC2 PCPN VRY LGT=

CYVR;2005-11-03 06:00;METAR CYVR 030600Z 09011KT 15SM -SHRA FEW040 SCT063 OVC083 07/06 A2975 RMK SC1SC2AC5 SLP073=

CYVR;2005-11-03 06:16;SPECI CYVR 030616Z 09009KT 15SM FEW040 SCT047 OVC140 07/ RMK SC2SC2AC3=

CYVR;2005-11-03 08:00;METAR CYVR 030800Z 09008KT 15SM FEW020 FEW040 OVC140 06/05 A2973 RMK SF2SF1AC4 SLP068=

CYVR;2005-11-03 09:00;METAR CYVR 030900Z 09011KT 15SM -SHRA BKN017 OVC044 07/06 A2971 RMK SC6SC2 SLP062=

CYVR;2005-11-03 10:00;METAR CYVR 031000Z 09011KT 15SM SCT017 BKN031 OVC055 07/06 A2969 RMK SC3SC2SC2 SLP053=

CYVR;2005-11-03 12:00;METAR CYVR 031200Z 09014KT 15SM SCT018 OVC031 07/06 A2962 RMK SC3SC4 SLP032=

CYVR;2005-11-03 13:00;METAR CYVR 031300Z 10015G20KT 15SM FEW018 OVC033 07/06 A2960 RMK SC2SC6 SLP025=

CYVR;2005-11-03 14:00;METAR CYVR 031400Z 10018G25KT 15SM FEW018 SCT025 OVC035 08/06 A2957 RMK SC2SC2SC4 SLP012=

CYVR;2005-11-03 14:25;SPECI CYVR 031425Z 10019G24KT 15SM -SHRA FEW018 OVC036 08/ RMK SC2SC6 PCPN VRY LGT=

CYVR;2005-11-03 15:00;METAR CYVR 031500Z 09021G26KT 15SM -SHRA SCT018 OVC036 08/06 A2952 RMK SC3SC5 SLP997=

CYVR;2005-11-03 16:00;METAR CYVR 031600Z 09020G27KT 15SM -SHRA SCT018 OVC036 08/05 A2947 RMK SC3SC5 SLP979=

CYVR;2005-11-03 19:00;METAR CYVR 031900Z 11015G21KT 6SM -SHRA FEW018 OVC036 08/06 A2936 RMK SC2SC6 VIS LWR N QUAD 5 SLP941=

CYVR;2005-11-03 20:00;METAR CYVR 032000Z 09018KT 7SM -SHRA FEW018 OVC036 07/06 A2934 RMK SC2SC6 VIS N QUAD LWR 4 SLP937=

CYVR;2005-11-03 21:00;METAR CYVR 032100Z 09007KT 6SM -RA FEW016 OVC021 07/07 A2935 RMK SC2SC6 VIS LWR N QUAD 4 SLP938=

CYVR;2005-11-03 21:38;SPECI CYVR 032138Z 10013G21KT 10SM SCT016 BKN020 08/ RMK SC3SC4=

CYVR;2005-11-03 22:09;SPECI CYVR 032209Z 13017G26KT 10SM -SHRA SCT016 BKN020 BKN040 09/ RMK SC3SC3SC1=

CYVR;2005-11-03 23:45;SPECI CYVR 032345Z 16018G26KT 15SM FEW014 SCT025 BKN047 BKN110 09/ RMK SC2SC2SC2AC2=

CYVR;2005-11-04 00:00;METAR CYVR 040000Z 17020G25KT 15SM FEW016 BKN047 BKN110 09/08 A2936 RMK SC2SC2AC2 SLP941=

CYVR;2005-11-04 01:00;METAR CYVR 040100Z 16011KT 15SM FEW018 SCT040 BKN090 09/08 A2938 RMK SC2SC2AC2 TCU ASOCTD SLP950=

CYVR;2005-11-04 03:00;METAR CYVR 040300Z 21013G19KT 15SM FEW020 BKN060 OVC067 10/06 A2945 RMK SC2SC4AC2 SLP973=

CYVR;2005-11-04 04:14;SPECI CYVR 040414Z 25021KT 15SM -SHRA FEW020 BKN058 OVC074 10/ RMK SC2SC5AC2 TWR REP LTGCG DIST SE QUAD=

CYVR;2005-11-04 05:00;METAR CYVR 040500Z 26016KT 15SM FEW020 BKN055 OVC074 09/04 A2954 RMK SC1SC5AC2 SLP003=

CYVR;2005-11-04 05:38;SPECI CYVR 040538Z 25013KT 15SM -SHRA FEW020 OVC061 09/ RMK SC2SC6=

CYVR;2005-11-04 06:00;METAR CYVR 040600Z 25013KT 15SM FEW020 BKN061 09/03 A2958 RMK SC1SC5 SLP017=

CYVR;2005-11-04 07:00;METAR CYVR 040700Z 25011KT 15SM FEW040 FEW070 08/03 A2962 RMK SC1AC0 SLP030=

CYVR;2005-11-04 08:00;METAR CYVR 040800Z 23007KT 15SM FEW040 FEW220 08/03 A2965 RMK SF1CI1 TR CI SLP041=

CYVR;2005-11-04 10:00;METAR CYVR 041000Z 11005KT 15SM FEW045 BKN100 OVC130 06/03 A2970 RMK SC1AC4AC2 SLP058=

CYVR;2005-11-04 10:50;SPECI CYVR 041050Z 12007KT 15SM -SHRA BKN038 OVC060 07/ RMK SC6SC2=

CYVR;2005-11-04 12:00;METAR CYVR 041200Z 11007KT 15SM -RA BKN041 OVC055 07/05 A2972 RMK SC5SC3 VIS LWR N QUAD 12 SM SLP064=

CYVR;2005-11-04 12:51;SPECI CYVR 041251Z 17009KT 15SM FEW040 SCT055 BKN087 OVC120 07/ RMK SC2SC2AC3AC1=

CYVR;2005-11-04 13:00;METAR CYVR 041300Z 17010KT 15SM FEW040 FEW055 SCT087 OVC150 07/04 A2972 RMK SC2SC1AC2AC3 SLP065=

CYVR;2005-11-04 14:00;METAR CYVR 041400Z 09005KT 15SM FEW015 SCT040 OVC064 07/04 A2973 RMK SC2SC2SC5 SLP067=

CYVR;2005-11-04 15:00;METAR CYVR 041500Z 15008KT 15SM FEW020 SCT040 BKN058 OVC080 08/05 A2972 RMK SC2SC2SC4AC1 SHS NW - N SLP065=

CYVR;2005-11-04 15:06;SPECI CYVR 041506Z 15009KT 15SM -SHRA FEW020 SCT040 BKN055 OVC080 08/ RMK SC2SC2SC4AC1=

CYVR;2005-11-04 16:00;METAR CYVR 041600Z 13013KT 15SM -SHRA FEW020 BKN038 BKN060 OVC080 08/06 A2972 RMK SF2SC4SC2AC1 SLP063=

CYVR;2005-11-04 17:00;METAR CYVR 041700Z 14015G24KT 12SM -SHRA FEW016 BKN042 BKN060 OVC080 08/06 A2970 RMK SF2SC4SC1AC1 SLP056=

CYVR;2005-11-04 18:00;METAR CYVR 041800Z 14018G26KT 10SM -SHRA FEW015 BKN030 OVC045 08/06 A2968 RMK SF2SC4SC2 SLP051=

CYVR;2005-11-04 19:00;METAR CYVR 041900Z 13017G24KT 6SM -SHRA BR FEW012 BKN022 OVC030 08/06 A2966 RMK SF2SC4SC2 SLP045=

CYVR;2005-11-04 19:49;SPECI CYVR 041949Z 16016G22KT 12SM FEW017 BKN025 OVC040 08/ RMK SF2SC4SC2=

CYVR;2005-11-04 21:00;METAR CYVR 042100Z 18016G25KT 12SM FEW015 SCT025 BKN039 BKN060 08/06 A2965 RMK SF2SC2SC3SC1 SLP040=

CYVR;2005-11-04 21:08;SPECI CYVR 042108Z 17021G27KT 12SM -SHRA FEW015 SCT025 BKN038 BKN060 08/ RMK SF2SC2SC3SC1=

CYVR;2005-11-04 21:26;SPECI CYVR 042126Z 17020G25KT 12SM FEW015 SCT024 BKN040 BKN090 08/ RMK SF2SC2SC2AC2=

CYVR;2005-11-04 22:00;METAR CYVR 042200Z 18021G26KT 15SM FEW015 SCT030 BKN100 BKN150 09/05 A2966 RMK SC2SC2AC2AC1 SLP043=

CYVR;2005-11-04 23:00;METAR CYVR 042300Z 20012G18KT 15SM FEW015 SCT030 BKN110 BKN160 09/05 A2966 RMK SC2SC2AC2AC1 TCU EMBD SLP045=

CYVR;2005-11-05 00:00;METAR CYVR 050000Z 22011G16KT 15SM FEW016 SCT035 BKN090 BKN150 09/04 A2969 RMK SC2SC2AC2AC1 TCU EMBD SLP055=

CYVR;2005-11-05 01:00;METAR CYVR 050100Z 21009KT 20SM FEW015 FEW035TCU SCT092 08/04 A2971 RMK SF1TCU1AC2 SLP061=

CYVR;2005-11-05 02:00;METAR CYVR 050200Z 22011KT 20SM FEW020 FEW040 SCT090 08/04 A2973 RMK SC1SC2AC1 SLP069=

CYVR;2005-11-05 03:00;METAR CYVR 050300Z 22012KT 15SM FEW020 BKN061 BKN130 08/04 A2975 RMK SC1SC5AC1 SLP076=

CYVR;2005-11-05 04:00;METAR CYVR 050400Z 21007KT 15SM FEW020 BKN057 BKN130 08/04 A2977 RMK SC1SC5AC1 SLP082=

CYVR;2005-11-05 05:00;METAR CYVR 050500Z 21006KT 15SM FEW056 BKN160 07/04 A2979 RMK SC2AC1 SLP088=

CYVR;2005-11-05 06:00;METAR CYVR 050600Z 18005KT 15SM FEW055 BKN160 05/03 A2981 RMK SC2AC1 SLP094=

CYVR;2005-11-05 08:00;METAR CYVR 050800Z 09005KT 15SM FEW050 BKN140 03/03 A2985 RMK SC2AC4 SLP107=

CYVR;2005-11-05 09:00;METAR CYVR 050900Z 08009KT 15SM FEW090 BKN120 03/02 A2985 RMK AC2AC4 SLP109=

CYVR;2005-11-05 10:00;METAR CYVR 051000Z 09004KT 15SM FEW040 OVC100 04/03 A2986 RMK SC2AC6 SLP112=

CYVR;2005-11-05 10:37;SPECI CYVR 051037Z 12005KT 10SM -RA BKN044 OVC061 05/ RMK SC5SC3=

CYVR;2005-11-05 11:00;METAR CYVR 051100Z 12004KT 10SM -RA BKN034 OVC060 05/04 A2987 RMK SC6SC2 SLP114=

CYVR;2005-11-05 11:45;SPECI CYVR 051145Z 16010KT 15SM SCT033 BKN057 OVC120 07/ RMK SC3SC3AC2=

CYVR;2005-11-05 12:00;METAR CYVR 051200Z 16008KT 10SM SCT033 BKN054 OVC100 07/04 A2986 RMK SC3SC3AC2 SLP112=

CYVR;2005-11-05 13:00;METAR CYVR 051300Z 16007KT 12SM SCT021 OVC063 07/04 A2985 RMK SC3SC3 SLP107=

CYVR;2005-11-05 14:00;METAR CYVR 051400Z 15008KT 12SM FEW015 SCT064 OVC200 07/05 A2984 RMK SC2SC2CI4 SLP106=

CYVR;2005-11-05 15:00;METAR CYVR 051500Z 11006KT 20SM FEW016 FEW060 BKN120 OVC200 05/04 A2984 RMK SC2SC1AC4CI2 VIS LWR NW - N DUE LO CLD SLP105=

CYVR;2005-11-05 16:00;METAR CYVR 051600Z 11008KT 15SM FEW017 FEW050 BKN120 OVC150 06/05 A2984 RMK SC2SC1AC5AC1 TCU EMBD N SLP105=

CYVR;2005-11-05 17:00;METAR CYVR 051700Z 14012KT 15SM FEW018 SCT050 BKN110 OVC160 08/06 A2983 RMK SC2SC2AC4AC1 SLP100=

CYVR;2005-11-05 18:00;METAR CYVR 051800Z 15009KT 15SM FEW015 BKN055 OVC080 08/06 A2980 RMK SC2SC3AC3 SLP092=

CYVR;2005-11-05 18:55;SPECI CYVR 051855Z 14008KT 12SM -RA FEW014 BKN041 OVC055 08/ RMK SC2SC4SC2 PCPN VRY LGT=

CYVR;2005-11-05 19:00;METAR CYVR 051900Z 14008KT 12SM -RA FEW014 BKN040 OVC055 08/06 A2978 RMK SC2SC4SC2 SLP086=

CYVR;2005-11-05 20:00;METAR CYVR 052000Z 12014KT 12SM -RA BKN016 BKN040 OVC050 08/05 A2975 RMK SC5SC2SC1 SLP075=

CYVR;2005-11-05 21:00;METAR CYVR 052100Z 12016G25KT 8SM -RA FEW016 BKN025 OVC035 07/05 A2970 RMK SC2SC4SC2 SLP057=

CYVR;2005-11-05 22:00;METAR CYVR 052200Z 09011G16KT 5SM -RA BR FEW017 BKN027 OVC039 06/06 A2964 RMK SC2SC5SC1 PRESFR SLP037=

CYVR;2005-11-05 23:00;METAR CYVR 052300Z 08014KT 8SM -RA FEW018 BKN028 OVC040 06/05 A2958 RMK SC2SC4SC2 PRESFR SLP016=

CYVR;2005-11-06 00:00;METAR CYVR 060000Z 09010KT 8SM -RA SCT020 OVC035 06/05 A2953 RMK SC3SC5 SLP000=

CYVR;2005-11-06 03:00;METAR CYVR 060300Z 32002KT 8SM -RA FEW020 OVC030 06/05 A2942 RMK SC2SC6 SLP964=

CYVR;2005-11-06 04:00;METAR CYVR 060400Z 33004KT 8SM -RA BKN027 OVC042 06/05 A2942 RMK SC5SC3 SLP963=

CYVR;2005-11-06 05:00;METAR CYVR 060500Z 30012KT 8SM -RA BKN029 BKN044 OVC120 06/05 A2944 RMK SC5SC2AC1 SLP969=

CYVR;2005-11-06 06:00;METAR CYVR 060600Z 29016KT 8SM -RA FEW015 BKN024 OVC044 06/05 A2946 RMK SC2SC4SC2 SLP977=

CYVR;2005-11-06 09:00;METAR CYVR 060900Z 27010KT 8SM -RA BKN021 OVC044 06/05 A2956 RMK SC6SC2 PCPN VRY LGT SLP010=

CYVR;2005-11-06 10:00;METAR CYVR 061000Z 26012KT 10SM -RA BKN018 BKN059 OVC100 07/05 A2960 RMK SC5SC2AC1 PCPN VRY LGT SLP024=

CYVR;2005-11-06 10:27;SPECI CYVR 061027Z 27012KT 10SM FEW016 BKN042 OVC100 06/ RMK SC2SC2AC2=

CYVR;2005-11-06 11:00;METAR CYVR 061100Z 27011KT 12SM FEW015 BKN040 BKN060 06/05 A2963 RMK SC2SC3SC1 SLP035=

CYVR;2005-11-06 12:00;METAR CYVR 061200Z 29009KT 12SM BKN030 OVC064 06/05 A2966 RMK SC5SC3 SLP044=

CYVR;2005-11-06 13:00;METAR CYVR 061300Z 27006KT 12SM FEW015 BKN030 OVC059 06/04 A2969 RMK SC1SC5SC2 SLP055=

CYVR;2005-11-06 14:00;METAR CYVR 061400Z 21008KT 12SM SCT022 BKN059 06/05 A2972 RMK SC3SC2 SLP064=

CYVR;2005-11-06 15:00;METAR CYVR 061500Z 15005KT 20SM FEW025 FEW060 05/04 A2973 RMK SC2SC1 TCU EMBD / SHS NE SLP069=

CYVR;2005-11-06 16:00;METAR CYVR 061600Z 12004KT 20SM FEW027 FEW060 SCT100 06/05 A2976 RMK SC2SC1AC1 TCU EMBD N OVR MTS SLP077=

CYVR;2005-11-06 17:00;METAR CYVR 061700Z 13004KT 20SM FEW030 FEW090 SCT130 06/04 A2977 RMK SC1AC2AC1 TCU EMBD N OVR MTS SLP081=

CYVR;2005-11-06 18:00;METAR CYVR 061800Z 08005KT 20SM FEW030 SCT100 BKN130 08/05 A2978 RMK CU1AC2AC2 TCU ASOCTD SLP086=

CYVR;2005-11-06 20:00;METAR CYVR 062000Z 13004KT 20SM FEW028TCU SCT070 BKN100 BKN150 09/04 A2980 RMK TCU2AC2AC1AC1 SLP090=

CYVR;2005-11-06 21:00;METAR CYVR 062100Z 17006KT 20SM FEW030TCU SCT060 BKN080 10/03 A2979 RMK TCU2SC2AC2 SLP089=

CYVR;2005-11-06 22:00;METAR CYVR 062200Z 19010KT 20SM FEW032TCU SCT080 BKN130 10/04 A2979 RMK TCU2AC2AC2 SLP088=

CYVR;2005-11-07 00:00;METAR CYVR 070000Z 15011KT 20SM FEW030CB SCT070 BKN120 08/05 A2980 RMK CB1AC2AC2 CB / SHS E - SE SLP092=

CYVR;2005-11-07 01:00;METAR CYVR 070100Z 13008KT 20SM FEW030TCU FEW060 BKN120 BKN160 07/04 A2981 RMK TCU2SC1AC2AC2 CB ASOCTD NE - SE SLP094=

CYVR;2005-11-07 02:00;METAR CYVR 070200Z 09008KT 20SM FEW035 SCT080 BKN120 06/04 A2982 RMK SC2AC2AC2 TCU EMBD SLP098=

CYVR;2005-11-07 04:00;METAR CYVR 070400Z 10012KT 20SM BKN048 BKN090 05/04 A2982 RMK SC6AC2 SLP099=

CYVR;2005-11-07 05:00;METAR CYVR 070500Z 08012KT 20SM SCT051 BKN073 05/04 A2982 RMK SC4AC3 SLP099=

CYVR;2005-11-07 06:00;METAR CYVR 070600Z 10014KT 20SM BKN018 OVC110 05/04 A2983 RMK SC6AC2 SLP101=

CYVR;2005-11-07 07:00;METAR CYVR 070700Z 09012KT 20SM FEW020 BKN058 OVC120 05/04 A2983 RMK SC2SC5AC2 SLP102=

CYVR;2005-11-07 07:28;SPECI CYVR 070728Z 10013KT 8SM -RA BKN027 OVC046 05/ RMK SC6SC2=

CYVR;2005-11-07 08:33;SPECI CYVR 070833Z 10011KT 15SM FEW020 SCT040 OVC078 05/ RMK SC2SC2AC4=

CYVR;2005-11-07 09:00;METAR CYVR 070900Z 11010KT 15SM FEW020 BKN033 OVC086 05/04 A2983 RMK SC2SC2AC3 SLP101=

CYVR;2005-11-07 09:26;SPECI CYVR 070926Z 10010KT 10SM -RA FEW020 BKN034 OVC059 05/ RMK SC2SC6SC1=

CYVR;2005-11-07 10:00;METAR CYVR 071000Z 11010KT 8SM -RA BKN022 OVC038 05/04 A2983 RMK SC6SC2 SLP101=

CYVR;2005-11-07 11:00;METAR CYVR 071100Z 11007KT 8SM -RA SCT020 OVC038 06/05 A2983 RMK SC4SC4 SLP102=

CYVR;2005-11-07 11:48;SPECI CYVR 071148Z 09004KT 12SM BKN033 OVC060 06/ RMK SC6SC2=

CYVR;2005-11-07 12:00;METAR CYVR 071200Z 09004KT 15SM BKN029 OVC058 06/05 A2983 RMK SC6SC2 SLP102=

CYVR;2005-11-07 13:00;METAR CYVR 071300Z 17009KT 15SM FEW024 BKN061 BKN090 07/05 A2984 RMK SC2SC3AC2 SLP104=

CYVR;2005-11-07 14:00;METAR CYVR 071400Z 18004KT 15SM FEW020 FEW060 SCT090 BKN120 07/04 A2985 RMK SC2SC1AC2AC2 SLP108=

CYVR;2005-11-07 16:00;METAR CYVR 071600Z 25006KT 30SM FEW030 FEW080 BKN140 06/03 A2986 RMK SC2AC1AC2 TCU EMBD / VIS E 15 SLP113=

CYVR;2005-11-07 18:00;METAR CYVR 071800Z 24005KT 30SM FEW030TCU FEW080 SCT110 08/03 A2990 RMK TCU2AC1AC1 VIS E 15 SLP126=

CYVR;2005-11-07 20:00;METAR CYVR 072000Z 25005KT 30SM FEW035TCU FEW170 09/03 A2993 RMK TCU1AC1 CB ASOCTD NE SLP134=

CYVR;2005-11-07 21:00;METAR CYVR 072100Z 30004KT 30SM FEW040TCU FEW200 09/04 A2993 RMK TCU1CI1 CB ASOCTD NE SLP135=

CYVR;2005-11-07 23:00;METAR CYVR 072300Z 25002KT 30SM FEW040 BKN130 08/03 A2995 RMK CU2AC2 TCU ASOCTD SLP142=

CYVR;2005-11-08 00:00;METAR CYVR 080000Z 00000KT 30SM FEW040 SCT120 BKN210 08/01 A2996 RMK CU1AC2CI1 TCU ASOCTD SLP145=

CYVR;2005-11-08 02:24;SPECI CYVR 080224Z 16004KT 15SM -SHRA FEW040 BKN055 BKN080 08/ RMK SC2SC3AC2=

CYVR;2005-11-08 02:46;SPECI CYVR 080246Z 14005KT 15SM FEW040 BKN052 OVC091 08/ RMK SC1SC6AC2=

CYVR;2005-11-08 03:00;METAR CYVR 080300Z 12004KT 15SM FEW045 BKN062 OVC090 07/02 A3000 RMK SC1SC6AC2 SLP158=

CYVR;2005-11-08 04:00;METAR CYVR 080400Z 08006KT 15SM BKN044 BKN091 07/03 A3001 RMK SC5AC2 SLP163=

CYVR;2005-11-08 05:00;METAR CYVR 080500Z 10007KT 15SM SCT045 OVC150 05/03 A3004 RMK SC3AC2 SLP171=

CYVR;2005-11-08 06:00;METAR CYVR 080600Z 09008KT 15SM FEW030 BKN044 OVC100 06/04 A3005 RMK SC1SC6AC2 SLP175=

CYVR;2005-11-08 06:17;SPECI CYVR 080617Z 11008KT 15SM -RA SCT024 BKN038 OVC091 06/ RMK SC3SC3AC2=

CYVR;2005-11-08 07:00;METAR CYVR 080700Z 14005KT 12SM -RA BKN031 OVC067 07/05 A3004 RMK SC6AC2 SLP174=

CYVR;2005-11-08 08:00;METAR CYVR 080800Z 13010KT 10SM -RA FEW020 OVC031 07/05 A3004 RMK SC2SC6 SLP174=

CYVR;2005-11-08 10:00;METAR CYVR 081000Z 10006KT 8SM -RA SCT012 OVC027 06/05 A3007 RMK SC3SC5 SLP183=

CYVR;2005-11-08 11:00;METAR CYVR 081100Z 08006KT 8SM -RA SCT013 OVC024 06/05 A3008 RMK SC3SC5 SLP187=

CYVR;2005-11-08 12:00;METAR CYVR 081200Z 09007KT 8SM -RA BKN015 OVC022 06/05 A3009 RMK SC6SC2 SLP191=

CYVR;2005-11-08 13:00;METAR CYVR 081300Z 06009KT 12SM BKN018 OVC031 05/05 A3011 RMK SC5SC3 SLP196=

CYVR;2005-11-08 15:00;METAR CYVR 081500Z 07008KT 12SM SCT013 OVC023 06/05 A3015 RMK SC3SC5 SLP211=

CYVR;2005-11-08 15:08;SPECI CYVR 081508Z 07010KT 10SM -RA BKN012 OVC024 06/ RMK SC5SC3=

CYVR;2005-11-08 16:00;METAR CYVR 081600Z 09011KT 5SM -RA BR BKN011 BKN020 OVC035 05/05 A3017 RMK SC6SC1SC1 SLP217=

CYVR;2005-11-08 16:22;SPECI CYVR 081622Z 09010KT 5SM -RA BR FEW008 BKN011 OVC025 05/ RMK SF2SC6SC1=

CYVR;2005-11-08 16:47;SPECI CYVR 081647Z 09011KT 5SM -RA BR BKN008 BKN012 OVC030 05/ RMK SF5SC2SC1=

CYVR;2005-11-08 17:00;METAR CYVR 081700Z 08012KT 5SM -RA BR BKN008 BKN012 OVC030 06/05 A3019 RMK SF5SC2SC1 SLP225=

CYVR;2005-11-08 18:00;METAR CYVR 081800Z 09010KT 5SM -RA BR BKN007 BKN012 OVC030 06/06 A3021 RMK SF6SC2SC1 SLP230=

CYVR;2005-11-08 19:00;METAR CYVR 081900Z 10007KT 5SM -RA BR BKN009 BKN014 OVC025 07/07 A3023 RMK SF5SC2SC1 SLP236=

CYVR;2005-11-08 19:28;SPECI CYVR 081928Z 13010KT 4SM -RA BR SCT008 BKN012 OVC025 07/ RMK SF4SC3SC1=

CYVR;2005-11-08 20:00;METAR CYVR 082000Z 11009KT 5SM -RA BR FEW007 SCT014 OVC027 07/06 A3024 RMK SF2SC2SC4 VIS HIER S - W SLP241=

CYVR;2005-11-08 21:00;METAR CYVR 082100Z 08008KT 8SM -RA FEW008 SCT013 BKN028 OVC040 07/06 A3026 RMK SF2SC2SC3SC1 VIS HIER SW SLP246=

CYVR;2005-11-08 22:00;METAR CYVR 082200Z 08010KT 6SM -RA BR FEW008 SCT014 BKN023 OVC035 07/06 A3026 RMK SF2SC2SC4SC1 VIS HIER S - SW SLP246=

CYVR;2005-11-08 22:36;SPECI CYVR 082236Z 08011KT 6SM -RA BR FEW008 BKN014 OVC025 07/ RMK SF2SC3SC2=

CYVR;2005-11-08 23:00;METAR CYVR 082300Z 09008KT 10SM -RA FEW008 SCT015 BKN025 OVC035 06/06 A3025 RMK SF2SC2SC3SC1 SLP244=

CYVR;2005-11-08 23:43;SPECI CYVR 082343Z 09009KT 12SM FEW007 SCT016 BKN025 OVC040 07/ RMK CF1SC2SC2SC2=

CYVR;2005-11-09 00:00;METAR CYVR 090000Z 09009KT 12SM FEW007 SCT014 BKN023 OVC040 07/06 A3025 RMK CF1SC2SC2SC2 CIG + VIS HIER W SLP244=

CYVR;2005-11-09 01:00;METAR CYVR 090100Z 07009KT 12SM FEW011 SCT015 BKN035 OVC050 07/06 A3026 RMK SF2SC2SC3SC2 SLP246=

CYVR;2005-11-09 02:00;METAR CYVR 090200Z 08010KT 12SM FEW012 SCT020 OVC040 07/06 A3026 RMK SF2SC2SC5 SLP247=

CYVR;2005-11-09 03:00;METAR CYVR 090300Z 09007KT 12SM FEW020 BKN048 BKN060 OVC110 07/05 A3025 RMK SC2SC3SC2AC1 SLP243=

CYVR;2005-11-09 04:00;METAR CYVR 090400Z 07008KT 10SM FEW020 SCT060 BKN100 06/05 A3024 RMK SC2SC2AC2 SLP240=

CYVR;2005-11-09 05:00;METAR CYVR 090500Z 08007KT 10SM FEW020 OVC060 07/05 A3023 RMK SC2SC6 SLP236=

CYVR;2005-11-09 07:00;METAR CYVR 090700Z 08005KT 13SM FEW020 OVC077 06/05 A3021 RMK SC1AC7 SLP229=

CYVR;2005-11-09 07:34;SPECI CYVR 090734Z 11005KT 15SM -SHRA OVC080 06/ RMK AC8 SHRA VRY LGT=

CYVR;2005-11-09 08:00;METAR CYVR 090800Z 10006KT 15SM -SHRA SCT080 OVC100 06/05 A3020 RMK AC4AC4 SHRA VRY LGT SLP227=

CYVR;2005-11-09 08:10;SPECI CYVR 090810Z 12006KT 15SM SCT070 OVC100 06/ RMK AC4AC4=

CYVR;2005-11-09 09:28;SPECI CYVR 090928Z 10006KT 13SM -SHRA SCT060 OVC085 06/ RMK SC4AC4=

CYVR;2005-11-09 10:26;SPECI CYVR 091026Z 09008KT 8SM SCT065 OVC085 06/ RMK SC4AC4=

CYVR;2005-11-09 11:00;METAR CYVR 091100Z 11008KT 10SM BKN070 OVC090 06/06 A3015 RMK AC6AC2 SLP209=

CYVR;2005-11-09 11:31;SPECI CYVR 091131Z 09006KT 10SM -SHRA BKN060 OVC090 06/ RMK SC6AC2=

CYVR;2005-11-09 12:00;METAR CYVR 091200Z 09009KT 10SM -SHRA BKN060 OVC090 06/06 A3013 RMK SC6AC2 SLP202=

CYVR;2005-11-09 12:24;SPECI CYVR 091224Z 10006KT 10SM BKN062 OVC090 06/ RMK SC6AC2=

CYVR;2005-11-09 12:40;SPECI CYVR 091240Z 09005KT 10SM -SHRA BKN065 OVC090 06/ RMK SC7AC1 SHRA VRY LGT=

CYVR;2005-11-09 13:00;METAR CYVR 091300Z 09007KT 10SM -SHRA BKN065 OVC090 06/06 A3013 RMK SC7AC1 SHRA VRY LGT SLP202=

CYVR;2005-11-09 13:33;SPECI CYVR 091333Z 09007KT 10SM BKN057 OVC090 06/ RMK SC7AC1=

CYVR;2005-11-09 14:00;METAR CYVR 091400Z 07006KT 10SM OVC055 07/06 A3012 RMK SC8 SLP200=

CYVR;2005-11-09 14:09;SPECI CYVR 091409Z 07006KT 10SM -SHRA OVC055 07/ RMK SC8=

CYVR;2005-11-09 16:00;METAR CYVR 091600Z 06008KT 15SM -SHRA BKN044 OVC055 07/06 A3011 RMK SC6SC2 SLP197=

CYVR;2005-11-09 17:00;METAR CYVR 091700Z 11008KT 15SM -SHRA BKN036 OVC050 09/04 A3011 RMK SC6SC2 SLP196=

CYVR;2005-11-09 17:54;SPECI CYVR 091754Z 11007KT 15SM BKN033 OVC048 09/ RMK SC6SC2=

CYVR;2005-11-09 18:00;METAR CYVR 091800Z 10006KT 15SM SCT033 OVC048 09/05 A3012 RMK SC4SC4 SLP201=

CYVR;2005-11-09 19:12;SPECI CYVR 091912Z 10007KT 15SM -SHRA BKN035 OVC045 10/ RMK SC6SC2=

CYVR;2005-11-09 20:00;METAR CYVR 092000Z 08007KT 15SM -SHRA BKN036 OVC045 10/05 A3010 RMK SC6SC2 SLP194=

CYVR;2005-11-09 21:00;METAR CYVR 092100Z 08008KT 15SM BKN036 OVC045 10/05 A3009 RMK SC6SC2 SLP188=

CYVR;2005-11-09 21:03;SPECI CYVR 092103Z 10010G16KT 15SM -SHRA BKN036 OVC045 10/ RMK SC6SC2=

CYVR;2005-11-09 22:00;METAR CYVR 092200Z 10015G21KT 15SM -SHRA OVC034 10/04 A3009 RMK SC8 PCPN VRY LGT SLP188=

CYVR;2005-11-09 22:39;SPECI CYVR 092239Z 06013KT 15SM OVC035 09/ RMK SC8=

CYVR;2005-11-09 23:00;METAR CYVR 092300Z 07012G17KT 15SM OVC037 09/05 A3008 RMK SC8 SLP185=

CYVR;2005-11-09 23:28;SPECI CYVR 092328Z 06014G19KT 15SM -SHRA OVC035 09/ RMK SC8=

CYVR;2005-11-10 00:00;METAR CYVR 100000Z 07017KT 15SM OVC034 08/06 A3006 RMK SC8 SLP179=

CYVR;2005-11-10 01:00;METAR CYVR 100100Z 06014KT 15SM OVC033 08/06 A3004 RMK SC8 SLP171=

CYVR;2005-11-10 02:00;METAR CYVR 100200Z 06011KT 15SM OVC034 08/06 A3002 RMK SC8 SLP165=

CYVR;2005-11-10 04:00;METAR CYVR 100400Z 09007KT 15SM OVC031 08/07 A2998 RMK SC8 SLP153=

CYVR;2005-11-10 05:00;METAR CYVR 100500Z 06013KT 15SM OVC030 10/06 A2997 RMK SC8 SLP148=

CYVR;2005-11-10 05:31;SPECI CYVR 100531Z 06011KT 15SM -SHRA OVC034 09/ RMK SC8 SHRA VRY LGT=

CYVR;2005-11-10 05:42;SPECI CYVR 100542Z 05010KT 15SM OVC034 09/ RMK SC8=

CYVR;2005-11-10 06:00;METAR CYVR 100600Z 05010KT 15SM OVC033 09/07 A2996 RMK SC8 SLP146=

CYVR;2005-11-10 09:00;METAR CYVR 100900Z 10011KT 15SM FEW035 FEW070 SCT130 07/06 A2990 RMK SC2AC1AC1 SLP126=

CYVR;2005-11-10 10:00;METAR CYVR 101000Z 11013KT 15SM FEW035 FEW070 FEW130 08/07 A2986 RMK SC1AC1AC1 SLP113=

CYVR;2005-11-10 11:00;METAR CYVR 101100Z 10010KT 15SM FEW035 FEW130 BKN240 08/07 A2983 RMK SC1AC2CC2 SLP101=

CYVR;2005-11-10 12:00;METAR CYVR 101200Z 11014KT 15SM FEW035 SCT060 BKN230 09/07 A2980 RMK SC1SC2CC1 SLP093=

CYVR;2005-11-10 13:00;METAR CYVR 101300Z 09014KT 15SM SCT060 BKN090 OVC180 09/07 A2980 RMK SC3AC2AC2 SLP090=

CYVR;2005-11-10 14:00;METAR CYVR 101400Z 10012G18KT 12SM -SHRA BKN050 OVC090 09/07 A2977 RMK SC6AC2 SLP080=

CYVR;2005-11-10 15:00;METAR CYVR 101500Z 09015KT 12SM -SHRA BKN039 OVC050 10/08 A2975 RMK SC6SC2 VIS N QUAD LWR 8 SM SLP075=

CYVR;2005-11-10 15:20;SPECI CYVR 101520Z 11018KT 6SM -SHRA BR OVC039 10/ RMK SC8 VIS N QUAD 3 SM=

CYVR;2005-11-10 15:30;SPECI CYVR 101530Z 12018KT 3SM -SHRA BR OVC039 10/ RMK SC8=

CYVR;2005-11-10 15:40;SPECI CYVR 101540Z 13016KT 2 1/2SM -SHRA BR OVC039 10/ RMK SC8=

CYVR;2005-11-10 16:00;METAR CYVR 101600Z 12019G24KT 3SM -RA BR OVC041 10/08 A2974 RMK SC8 SLP070=

CYVR;2005-11-10 16:03;SPECI CYVR 101603Z 13016G24KT 7SM -RA FEW035 OVC041 10/ RMK SC2SC6=

CYVR;2005-11-10 17:00;METAR CYVR 101700Z 14016KT 7SM -RA BKN038 OVC050 10/08 A2974 RMK SC6SC2 SLP071=

CYVR;2005-11-10 17:14;SPECI CYVR 101714Z 14015G21KT 5SM RA BR BKN030 OVC040 10/ RMK SC6SC2=

CYVR;2005-11-10 17:45;SPECI CYVR 101745Z 16013G21KT 3SM -RA BR BKN030 OVC040 10/ RMK SC6SC2=

CYVR;2005-11-10 18:00;METAR CYVR 101800Z 16014G20KT 3SM -RA BR FEW019 BKN024 OVC041 10/09 A2977 RERA RMK SF1SC4SC3 SLP080=

CYVR;2005-11-10 18:10;SPECI CYVR 101810Z 16015G20KT 7SM -RA FEW019 BKN041 OVC062 10/ RMK SF2SC4SC2=

CYVR;2005-11-10 19:00;METAR CYVR 101900Z 15008KT 12SM -RA FEW020 SCT040 OVC052 10/09 A2977 RMK SF1SC2SC5 SLP080=

CYVR;2005-11-10 20:00;METAR CYVR 102000Z 01007KT 8SM -SHRA FEW020 OVC039 10/09 A2978 RMK SF2SC6 SLP085=

CYVR;2005-11-10 20:37;SPECI CYVR 102037Z 13008KT 15SM FEW020 SCT040 BKN060 OVC100 10/ RMK SF1SC2SC3AC1=

CYVR;2005-11-10 21:00;METAR CYVR 102100Z 12008KT 15SM FEW020 SCT040 OVC065 11/10 A2978 RMK SF2SC2SC4 SLP083=

CYVR;2005-11-10 22:00;METAR CYVR 102200Z 19006KT 15SM FEW020 SCT030 OVC053 11/10 A2978 RMK SF2SC2SC4 SLP083=

CYVR;2005-11-10 22:19;SPECI CYVR 102219Z 23013KT 15SM -SHRA FEW020 BKN034 OVC053 11/ RMK SF2SC3SC2=

CYVR;2005-11-10 23:00;METAR CYVR 102300Z 21011G16KT 15SM FEW020 SCT050 12/08 A2980 RMK SC1SC2 SLP090=

CYVR;2005-11-11 00:00;METAR CYVR 110000Z 31013KT 20SM FEW040 FEW055 09/07 A2983 RMK SC1SC2 SLP101=

CYVR;2005-11-11 02:00;METAR CYVR 110200Z 22002KT 20SM FEW040 SCT095 BKN240 08/04 A2988 RMK SC1AC2CC1 SLP119=

CYVR;2005-11-11 03:00;METAR CYVR 110300Z 26006KT 20SM FEW040 SCT095 BKN250 08/04 A2991 RMK SC1AC2CC2 SLP127=

CYVR;2005-11-11 04:00;METAR CYVR 110400Z 23009G18KT 20SM FEW040 FEW095 BKN230 08/04 A2992 RMK SC1AC1CC3 SLP131=

CYVR;2005-11-11 05:00;METAR CYVR 110500Z 18002KT 20SM FEW040 FEW080 BKN230 07/04 A2993 RMK SC1AC1CC3 SLP136=

CYVR;2005-11-11 07:00;METAR CYVR 110700Z 10004KT 20SM FEW040 SCT100 BKN200 05/04 A2995 RMK SC1AC2CC2 SLP141=

CYVR;2005-11-11 09:00;METAR CYVR 110900Z 11003KT 20SM FEW030 FEW100 SCT200 04/03 A2996 RMK SC1AC2CC1 SLP145=

CYVR;2005-11-11 10:00;METAR CYVR 111000Z 08004KT 15SM FEW030 SCT100 SCT200 04/03 A2995 RMK SC1AC2CC1 SLP143=

CYVR;2005-11-11 11:00;METAR CYVR 111100Z 07009KT 15SM FEW030 SCT055 BKN110 05/04 A2995 RMK SC1SC3AC3 SLP143=

CYVR;2005-11-11 11:19;SPECI CYVR 111119Z 05007KT 15SM -SHRA FEW030 BKN060 BKN110 06/ RMK SC1SC4AC2 SHRA VRY LGT=

CYVR;2005-11-11 11:46;SPECI CYVR 111146Z 04005KT 15SM FEW030 SCT060 BKN090 BKN130 05/ RMK SC1SC2AC2AC2=

CYVR;2005-11-11 12:00;METAR CYVR 111200Z 09005KT 15SM FEW060 SCT090 BKN130 05/04 A2993 RMK SC2AC2AC3 SLP136=

CYVR;2005-11-11 12:43;SPECI CYVR 111243Z 10008KT 15SM -SHRA FEW020 SCT062 BKN090 OVC120 05/ RMK SC1SC3AC2AC2 SHRA VRY LGT=

CYVR;2005-11-11 13:00;METAR CYVR 111300Z 11009KT 15SM FEW030 BKN060 BKN120 06/05 A2992 RMK SC2SC3AC2 SLP131=

CYVR;2005-11-11 13:17;SPECI CYVR 111317Z 13003KT 15SM -SHRA FEW030 BKN055 BKN120 07/ RMK SC2SC4AC2 SHRA VRY LGT=

CYVR;2005-11-11 15:00;METAR CYVR 111500Z 14009KT 15SM -SHRA SCT020 BKN066 OVC088 06/05 A2989 RMK SC3AC3AC2 SLP122=

CYVR;2005-11-11 16:00;METAR CYVR 111600Z 16011KT 15SM -SHRA BKN019 OVC055 07/06 A2988 RMK SC5SC3 SLP120=

CYVR;2005-11-11 17:00;METAR CYVR 111700Z 14009KT 12SM -SHRA FEW015 BKN034 OVC055 07/06 A2987 RMK SF1SC6SC2 SLP116=

CYVR;2005-11-11 18:00;METAR CYVR 111800Z 14011KT 12SM -SHRA FEW017 BKN036 OVC048 07/06 A2984 RMK SF1SC6SC2 SLP106=

CYVR;2005-11-11 19:00;METAR CYVR 111900Z 14008KT 8SM -SHRA FEW018 SCT024 OVC034 07/06 A2984 RMK SC2SC2SC4 SLP106=

CYVR;2005-11-11 19:11;SPECI CYVR 111911Z 14007KT 6SM -SHRA BR FEW018 SCT024 OVC034 07/ RMK SC2SC2SC4=

CYVR;2005-11-11 20:19;SPECI CYVR 112019Z 15009G16KT 15SM FEW018 SCT035 BKN075 08/ RMK SC2SC2AC3=

CYVR;2005-11-11 21:00;METAR CYVR 112100Z 18011KT 15SM FEW018 BKN041 OVC055 07/05 A2982 RMK SC2SC4SC2 SLP098=

CYVR;2005-11-11 21:26;SPECI CYVR 112126Z 18010G16KT 15SM -SHRA FEW015 BKN040 OVC060 07/ RMK SF2SC4SC2=

CYVR;2005-11-11 22:00;METAR CYVR 112200Z 21016KT 12SM -SHRA FEW015 BKN027 OVC040 07/04 A2981 RMK SF2SC4SC2 SLP096=

CYVR;2005-11-11 22:33;SPECI CYVR 112233Z 18011G16KT 15SM FEW015 SCT030 OVC085 07/ RMK SF2SC2AC5=

CYVR;2005-11-11 23:00;METAR CYVR 112300Z 20010KT 15SM FEW020 SCT065 BKN110 07/05 A2980 RMK SC2SC2AC4 SLP093=

CYVR;2005-11-12 00:00;METAR CYVR 120000Z 16006KT 20SM FEW020 FEW060 BKN110 07/04 A2982 RMK SC1SC1AC6 SLP099=

CYVR;2005-11-12 01:00;METAR CYVR 120100Z 21014KT 20SM FEW020 FEW060 OVC130 07/04 A2984 RMK SC1SC1AC6 SLP104=

CYVR;2005-11-12 02:00;METAR CYVR 120200Z 20011G16KT 15SM FEW020 FEW110 SCT140 07/03 A2985 RMK SC2AC1AC1 SLP110=

CYVR;2005-11-12 03:00;METAR CYVR 120300Z 22010G17KT 15SM FEW020 FEW075 SCT140 06/03 A2988 RMK SC1AC2AC2 SLP118=

CYVR;2005-11-12 04:00;METAR CYVR 120400Z 22009KT 15SM FEW020 FEW075 FEW140 06/03 A2990 RMK SC1AC1AC1 SLP125=

CYVR;2005-11-12 05:00;METAR CYVR 120500Z 22009KT 15SM FEW020 FEW050 FEW075 SCT140 04/02 A2993 RMK SC1SC1AC1AC1 SLP135=

CYVR;2005-11-12 06:00;METAR CYVR 120600Z 12003KT 15SM FEW020 FEW050 FEW075 03/01 A2996 RMK SC1SC1AC1 SLP145=

CYVR;2005-11-12 06:51;SPECI CYVR 120651Z 09006KT 15SM FEW020 01/ RMK SC1=

CYVR;2005-11-12 07:11;SPECI CYVR 120711Z 09007KT 15SM FEW020 02/ RMK SC1=

CYVR;2005-11-12 08:00;METAR CYVR 120800Z 10007KT 15SM FEW020 FEW050 03/02 A3001 RMK SC1SC1 SLP163=

CYVR;2005-11-12 08:16;SPECI CYVR 120816Z 10007KT 15SM FEW020 FEW050 01/ RMK SC1SC1=

CYVR;2005-11-12 09:00;METAR CYVR 120900Z 09006KT 15SM FEW020 FEW100 01/01 A3004 RMK SC1AC1 SLP172=

CYVR;2005-11-12 10:00;METAR CYVR 121000Z 09007KT 15SM SCT070 01/01 A3007 RMK AC3 SLP182=

CYVR;2005-11-12 11:00;METAR CYVR 121100Z 09006KT 15SM FEW030 FEW070 02/01 A3009 RMK SC1AC1 SLP190=

CYVR;2005-11-12 12:00;METAR CYVR 121200Z 09005KT 15SM FEW025 BKN075 01/01 A3011 RMK SC2AC3 SLP197=

CYVR;2005-11-12 13:00;METAR CYVR 121300Z 09005KT 15SM FEW040 SCT080 BKN120 02/02 A3012 RMK SC2AC2AC2 SLP201=

CYVR;2005-11-12 13:39;SPECI CYVR 121339Z 10006KT 15SM -SHRA FEW030 BKN066 BKN120 02/ RMK SC2AC3AC2 PCPN VRY LGT=

CYVR;2005-11-12 13:55;SPECI CYVR 121355Z 10006KT 15SM FEW030 BKN066 BKN120 03/ RMK SC2AC3AC2=

CYVR;2005-11-12 14:00;METAR CYVR 121400Z 09007KT 15SM FEW030 BKN064 BKN095 03/02 A3013 RMK SC2SC3AC2 SLP204=

CYVR;2005-11-12 14:45;SPECI CYVR 121445Z 11006KT 10SM -SHRA FEW026 BKN038 OVC067 04/ RMK SC2SC6AC1=

CYVR;2005-11-12 15:00;METAR CYVR 121500Z 09006KT 10SM -SHRA FEW026 BKN037 OVC067 04/04 A3015 RMK SC2SC6AC1 SLP210=

CYVR;2005-11-12 16:00;METAR CYVR 121600Z 14007KT 8SM -RA SCT010 BKN018 OVC032 06/05 A3017 RMK SC3SC4SC1 SLP218=

CYVR;2005-11-12 16:32;SPECI CYVR 121632Z 14009G15KT 10SM FEW011 SCT026 OVC054 06/ RMK SC2SC2SC4=

CYVR;2005-11-12 17:00;METAR CYVR 121700Z 14010KT 10SM -SHRA FEW013 SCT027 OVC041 06/05 A3019 RMK SC2SC2SC4 SLP225=

CYVR;2005-11-12 19:00;METAR CYVR 121900Z 16014G19KT 10SM -SHRA SCT016 OVC039 07/05 A3022 RMK SC4SC4 SLP234=

CYVR;2005-11-12 20:00;METAR CYVR 122000Z 16011G18KT 12SM -SHRA SCT015 OVC035 07/04 A3022 RMK SC4SC4 SLP232=

CYVR;2005-11-12 21:00;METAR CYVR 122100Z 16013KT 12SM FEW015 SCT035 OVC054 08/05 A3021 RMK SC2SC2SC4 SLP230=

CYVR;2005-11-12 21:33;SPECI CYVR 122133Z 16012G17KT 8SM -SHRA FEW015 SCT026 OVC038 07/ RMK SC2SC2SC4=

CYVR;2005-11-12 22:00;METAR CYVR 122200Z 16011KT 8SM -SHRA FEW015 SCT028 OVC042 07/05 A3021 RMK SC2SC2SC4 SLP230=

CYVR;2005-11-12 23:00;METAR CYVR 122300Z 15008KT 12SM -SHRA FEW028 SCT040 OVC060 07/06 A3020 RMK SC2SC2SC5 SLP228=

CYVR;2005-11-13 00:00;METAR CYVR 130000Z 16008KT 12SM -SHRA FEW017 BKN039 OVC060 07/05 A3020 RMK SC2SC3SC3 SLP226=

CYVR;2005-11-13 00:25;SPECI CYVR 130025Z 13007KT 12SM FEW017 SCT040 OVC100 07/ RMK SC2SC2AS4=

CYVR;2005-11-13 01:00;METAR CYVR 130100Z 13008KT 12SM FEW027 SCT042 OVC075 07/05 A3019 RMK SC2SC2AC4 SLP223=

CYVR;2005-11-13 01:31;SPECI CYVR 130131Z 13007KT 12SM -SHRA FEW024 BKN049 OVC076 07/ RMK SC2SC3AC2=

CYVR;2005-11-13 02:00;METAR CYVR 130200Z 14007KT 12SM -SHRA FEW020 BKN032 OVC055 07/05 A3018 RMK SC2SC6SC1 SLP220=

CYVR;2005-11-13 03:00;METAR CYVR 130300Z 11004KT 10SM -RA FEW016 BKN033 OVC040 06/04 A3017 RMK SF2SC3SC2 SLP215=

CYVR;2005-11-13 04:00;METAR CYVR 130400Z 09007KT 8SM -RA BKN017 BKN035 OVC045 06/05 A3015 RMK SF5SC2SC1 SLP209=

CYVR;2005-11-13 05:00;METAR CYVR 130500Z 08012KT 8SM -RA SCT015 BKN031 OVC055 06/05 A3012 RMK SF4SC3SC1 SLP200=

CYVR;2005-11-13 06:00;METAR CYVR 130600Z 08014KT 10SM -RA FEW015 BKN028 OVC060 06/05 A3009 RMK SF2SC5SC1 SLP188=

CYVR;2005-11-13 07:00;METAR CYVR 130700Z 08011KT 12SM -RA FEW015 BKN031 OVC060 06/04 A3005 RMK SF2SC6SC1 SLP176=

CYVR;2005-11-13 08:00;METAR CYVR 130800Z 09014G19KT 10SM -RA FEW015 BKN027 OVC070 06/04 A3002 RMK SF2SC6AC1 SLP166=

CYVR;2005-11-13 10:00;METAR CYVR 131000Z 07011G19KT 10SM -RA FEW015 BKN028 OVC050 05/04 A2994 RMK SF1SC6SC1 SLP139=

CYVR;2005-11-13 11:00;METAR CYVR 131100Z 07008G16KT 8SM -RA FEW015 BKN026 OVC050 05/04 A2992 RMK SF1SC6SC1 SLP132=

CYVR;2005-11-13 12:00;METAR CYVR 131200Z 08011KT 8SM -RA FEW012 BKN023 OVC040 05/04 A2989 RMK SF1SC6SC1 SLP123=

CYVR;2005-11-13 13:00;METAR CYVR 131300Z 05007KT 8SM -RA FEW011 BKN021 OVC030 05/04 A2989 RMK SF1SC6SC2 SLP121=

CYVR;2005-11-13 14:00;METAR CYVR 131400Z 03006KT 8SM -RA FEW011 BKN028 BKN040 OVC120 05/04 A2989 RMK SF1SC5SC2AC1 SLP121=

CYVR;2005-11-13 15:00;METAR CYVR 131500Z 01003KT 5SM -RA BR FEW011 BKN022 OVC037 05/04 A2989 RMK SF1SC6SC2 SLP123=

CYVR;2005-11-13 16:00;METAR CYVR 131600Z 00000KT 10SM -RA FEW020 BKN039 OVC071 05/05 A2991 RMK SC2SC5AC1 SLP129=

CYVR;2005-11-13 16:36;SPECI CYVR 131636Z 09004KT 12SM FEW040 SCT072 05/ RMK SC2AC2=

CYVR;2005-11-13 17:00;METAR CYVR 131700Z 09005KT 15SM FEW022 SCT033 BKN081 06/05 A2992 RMK SC2SC2AC2 SLP132=

CYVR;2005-11-13 18:00;METAR CYVR 131800Z 13002KT 15SM FEW015 BKN022 OVC040 06/05 A2994 RMK SC2SC6SC1 SLP139=

CYVR;2005-11-13 18:31;SPECI CYVR 131831Z 18002KT 15SM SCT008 OVC019 06/ RMK SC4SC4=

CYVR;2005-11-13 18:42;SPECI CYVR 131842Z 18002KT 12SM FEW004 BKN007 OVC018 07/ RMK SF2SC4SC2=

CYVR;2005-11-13 19:00;METAR CYVR 131900Z 23007KT 12SM FEW004 BKN008 OVC018 07/06 A2997 RMK SF2SC5SC2 SLP148=

CYVR;2005-11-13 19:52;SPECI CYVR 131952Z 21005KT 12SM SCT007 BKN011 OVC020 07/ RMK SC3SC4SC1=

CYVR;2005-11-13 20:32;SPECI CYVR 132032Z 25004KT 12SM SCT011 BKN024 OVC033 07/ RMK SC3SC4SC1=

CYVR;2005-11-13 21:00;METAR CYVR 132100Z 22005KT 12SM SCT011 OVC033 07/06 A2999 RMK SC3SC5 SLP157=

CYVR;2005-11-13 21:53;SPECI CYVR 132153Z 23005KT 12SM -RA SCT011 BKN018 OVC034 07/ RMK SC3SC3SC2=

CYVR;2005-11-13 22:00;METAR CYVR 132200Z 23006KT 12SM -RA SCT011 BKN021 OVC039 07/06 A3001 RMK SC3SC4SC1 SLP162=

CYVR;2005-11-13 23:00;METAR CYVR 132300Z 25007KT 12SM -RA FEW011 SCT025 OVC042 07/06 A3002 RMK SC1SC2SC4 SLP166=

CYVR;2005-11-13 23:16;SPECI CYVR 132316Z 25007KT 12SM SCT014 BKN039 OVC060 07/ RMK SC3SC4SC1=

CYVR;2005-11-14 00:00;METAR CYVR 140000Z 25008KT 15SM FEW012 SCT035 BKN060 07/06 A3004 RMK SC2SC2SC3 SLP174=

CYVR;2005-11-14 00:32;SPECI CYVR 140032Z 28009KT 15SM -RA SCT011 BKN039 OVC060 07/ RMK SC3SC3SC2=

CYVR;2005-11-14 01:00;METAR CYVR 140100Z 27012KT 15SM -RA PRFG FEW011 BKN043 OVC056 07/06 A3006 RMK SC2SC6SC1 VIS LWR N - NE SLP180=

CYVR;2005-11-14 01:47;SPECI CYVR 140147Z 28013KT 15SM FEW013 BKN044 OVC060 07/ RMK SC2SC6SC1=

CYVR;2005-11-14 02:00;METAR CYVR 140200Z 28017G22KT 15SM -SHRA FEW013 BKN043 OVC060 07/05 A3008 RMK SC2SC6SC1 SLP185=

CYVR;2005-11-14 03:00;METAR CYVR 140300Z 28017KT 15SM -SHRA FEW012 BKN048 OVC060 07/05 A3009 RMK SC2SC5SC2 SLP188=

CYVR;2005-11-14 03:29;SPECI CYVR 140329Z 27018KT 15SM FEW011 BKN052 OVC070 07/ RMK SF1SC6AC2=

CYVR;2005-11-14 04:00;METAR CYVR 140400Z 27018G24KT 15SM FEW010 BKN058 OVC070 07/05 A3010 RMK SF1SC6AC1 SLP194=

CYVR;2005-11-14 05:00;METAR CYVR 140500Z 27020G25KT 15SM FEW010 SCT055 OVC070 07/03 A3012 RMK SF1SC2AC5 SLP201=

CYVR;2005-11-14 06:00;METAR CYVR 140600Z 27019G25KT 15SM FEW012 FEW050 BKN080 07/04 A3015 RMK SF1SC2AC5 SLP210=

CYVR;2005-11-14 07:00;METAR CYVR 140700Z 29021G26KT 20SM FEW020 SCT080 SCT220 06/04 A3017 RMK SC1AC2CI1 SLP218=

CYVR;2005-11-14 08:00;METAR CYVR 140800Z 29022KT 20SM FEW020 FEW090 SCT220 06/03 A3019 RMK SC1AC2CI1 SLP224=

CYVR;2005-11-14 09:00;METAR CYVR 140900Z 29021KT 20SM FEW020 FEW080 SCT220 06/03 A3021 RMK SC1AC1CI2 SLP231=

CYVR;2005-11-14 10:00;METAR CYVR 141000Z 30021G26KT 20SM FEW100 SCT220 06/03 A3025 RMK AC1CI2 SLP244=

CYVR;2005-11-14 11:00;METAR CYVR 141100Z 30021G26KT 20SM FEW100 FEW220 06/03 A3027 RMK AC1CI1 SLP251=

CYVR;2005-11-14 12:00;METAR CYVR 141200Z 32015G24KT 20SM FEW020 FEW220 05/03 A3030 RMK SF1CI2 SLP260=

CYVR;2005-11-14 13:00;METAR CYVR 141300Z 32012KT 20SM FEW220 04/03 A3033 RMK CI2 SLP271=

CYVR;2005-11-14 14:00;METAR CYVR 141400Z 00000KT 30SM FEW220 03/01 A3037 RMK CI1 SLP284=

CYVR;2005-11-14 14:27;SPECI CYVR 141427Z 02007KT 30SM FEW220 02/ RMK CI1=

CYVR;2005-11-14 16:00;METAR CYVR 141600Z 35002KT 30SM FEW030 FEW220 02/01 A3046 RMK SC1CI1 SLP314=

CYVR;2005-11-14 19:00;METAR CYVR 141900Z 30004KT 30SM FEW025 SCT220 07/03 A3055 RMK SC2CI0 SLP344=

CYVR;2005-11-14 21:00;METAR CYVR 142100Z 26006KT 30SM FEW025 FEW220 07/03 A3056 RMK SC2CI1 SLP349=

CYVR;2005-11-14 22:00;METAR CYVR 142200Z 29006KT 30SM FEW030 08/03 A3056 RMK SC1 SLP350=

CYVR;2005-11-14 23:00;METAR CYVR 142300Z 30005KT 30SM FEW030 07/02 A3058 RMK SC1 TR SC SLP354=

CYVR;2005-11-15 00:00;METAR CYVR 150000Z 32004KT 30SM FEW070 06/02 A3059 RMK AC1 SLP359=

CYVR;2005-11-15 01:00;METAR CYVR 150100Z 32004KT 30SM BKN140 04/01 A3059 RMK AC5 SLP360=

CYVR;2005-11-15 03:00;METAR CYVR 150300Z 04003KT 30SM BKN130 06/02 A3062 RMK AC6 SLP369=

CYVR;2005-11-15 04:00;METAR CYVR 150400Z 11004KT 30SM BKN120 05/02 A3061 RMK AC6 SLP364=

CYVR;2005-11-15 06:00;METAR CYVR 150600Z 11006KT 20SM BKN120 04/02 A3063 RMK AC6 SLP372=

CYVR;2005-11-15 07:00;METAR CYVR 150700Z 01002KT 20SM SCT090 BKN120 04/02 A3065 RMK AC4AC2 SLP379=

CYVR;2005-11-15 08:00;METAR CYVR 150800Z 09005KT 20SM SCT090 BKN210 03/01 A3064 RMK AC4CI2 SLP375=

CYVR;2005-11-15 09:00;METAR CYVR 150900Z 11006KT 20SM SCT080 BKN130 BKN210 03/01 A3063 RMK AC3AC2CI1 SLP373=

CYVR;2005-11-15 10:00;METAR CYVR 151000Z 09003KT 20SM BKN090 BKN130 04/02 A3064 RMK AC6AC1 SLP375=

CYVR;2005-11-15 11:00;METAR CYVR 151100Z 10005KT 20SM BKN090 OVC120 04/02 A3063 RMK AC7AC1 SLP372=

CYVR;2005-11-15 12:00;METAR CYVR 151200Z 10004KT 20SM BKN090 OVC110 04/02 A3063 RMK AC7AC1 SLP372=

CYVR;2005-11-15 13:00;METAR CYVR 151300Z 09005KT 20SM BKN080 OVC110 04/02 A3062 RMK AC7AC1 SLP369=

CYVR;2005-11-15 14:00;METAR CYVR 151400Z 11006KT 15SM FEW020 BKN070 OVC100 04/02 A3061 RMK SF1AC6AC1 SLP367=

CYVR;2005-11-15 15:00;METAR CYVR 151500Z 10008KT 15SM FEW020 OVC069 04/02 A3061 RMK SC2AC6 SLP366=

CYVR;2005-11-15 16:00;METAR CYVR 151600Z 08007KT 15SM FEW020 BKN059 OVC074 04/02 A3061 RMK SC2SC5AC2 SLP367=

CYVR;2005-11-15 17:00;METAR CYVR 151700Z 09005KT 15SM -SHRA FEW020 BKN045 OVC075 05/03 A3061 RMK SC1SC6AC1 SLP365=

CYVR;2005-11-15 18:00;METAR CYVR 151800Z 10004KT 12SM -SHRA SCT028 OVC044 06/03 A3061 RMK SC3SC5 SLP367=

CYVR;2005-11-15 18:33;SPECI CYVR 151833Z 09005KT 12SM BKN028 OVC051 06/ RMK SC5SC3=

CYVR;2005-11-15 19:00;METAR CYVR 151900Z 08007KT 15SM FEW025 BKN048 OVC061 06/03 A3060 RMK SC2SC4SC2 SLP362=

CYVR;2005-11-15 20:00;METAR CYVR 152000Z 07006KT 15SM FEW025 OVC048 06/02 A3060 RMK SC1SC7 SLP361=

CYVR;2005-11-15 20:47;SPECI CYVR 152047Z 06007KT 15SM -SHRA FEW025 BKN047 OVC064 06/ RMK SC2SC6SC1=

CYVR;2005-11-15 21:00;METAR CYVR 152100Z 07010KT 15SM FEW028 BKN045 OVC060 06/02 A3058 RMK SC2SC6SC1 OCNL -SHRA SLP355=

CYVR;2005-11-15 21:32;SPECI CYVR 152132Z 07006KT 15SM FEW028 BKN044 OVC060 06/ RMK SC1SC6SC1=

CYVR;2005-11-15 22:00;METAR CYVR 152200Z 06007KT 15SM FEW030 OVC043 06/03 A3057 RMK SC1SC7 SLP353=

CYVR;2005-11-15 23:35;SPECI CYVR 152335Z 05011KT 15SM -SHRA FEW025 OVC041 06/ RMK SC2SC6 VIS LWR N=

CYVR;2005-11-16 00:00;METAR CYVR 160000Z 05011KT 15SM -SHRA FEW025 OVC044 06/04 A3056 RMK SC2SC6 VIS LWR N N-E SLP349=

CYVR;2005-11-16 01:00;METAR CYVR 160100Z 05008KT 12SM -RA BKN036 OVC062 06/04 A3056 RMK SC6SC2 SLP348=

CYVR;2005-11-16 01:44;SPECI CYVR 160144Z 05007KT 15SM SCT035 OVC053 05/ RMK SC4SC4=

CYVR;2005-11-16 02:00;METAR CYVR 160200Z 05005KT 15SM FEW035 BKN054 OVC070 06/04 A3055 RMK SC2SC6AC1 SLP345=

CYVR;2005-11-16 02:17;SPECI CYVR 160217Z 06006KT 15SM -RA FEW035 OVC051 06/ RMK SC2SC6=

CYVR;2005-11-16 02:44;SPECI CYVR 160244Z 05008KT 15SM BKN038 BKN050 OVC120 06/ RMK SC5SC2AC1=

CYVR;2005-11-16 03:00;METAR CYVR 160300Z 06006KT 15SM BKN039 BKN050 OVC100 06/04 A3054 RMK SC6SC2AC1 SLP341=

CYVR;2005-11-16 04:00;METAR CYVR 160400Z 05005KT 15SM BKN039 BKN055 OVC100 06/04 A3054 RMK SC6SC1AC1 SLP342=

CYVR;2005-11-16 04:29;SPECI CYVR 160429Z 07006KT 15SM -SHRA BKN038 OVC055 06/ RMK SC6SC2=

CYVR;2005-11-16 05:00;METAR CYVR 160500Z 08006KT 15SM -SHRA BKN041 OVC050 06/04 A3053 RMK SC6SC2 SLP338=

CYVR;2005-11-16 06:00;METAR CYVR 160600Z 05008KT 15SM -SHRA BKN041 OVC050 06/04 A3052 RMK SC6SC2 SLP335=

CYVR;2005-11-16 06:24;SPECI CYVR 160624Z 05007KT 15SM BKN040 OVC050 06/ RMK SC6SC2=

CYVR;2005-11-16 07:00;METAR CYVR 160700Z 06006KT 15SM -SHRA BKN033 OVC045 06/04 A3052 RMK SC6SC2 SLP335=

CYVR;2005-11-16 08:00;METAR CYVR 160800Z 19004KT 12SM -SHRA BKN033 OVC040 07/04 A3052 RMK SC6SC2 SLP335=

CYVR;2005-11-16 09:00;METAR CYVR 160900Z 00000KT 10SM -SHRA BKN029 OVC040 06/05 A3051 RMK SC6SC2 SLP332=

CYVR;2005-11-16 10:00;METAR CYVR 161000Z 00000KT 10SM -SHRA BKN031 BKN050 OVC070 06/05 A3050 RMK SC6SC1AC1 SLP328=

CYVR;2005-11-16 11:00;METAR CYVR 161100Z 00000KT 8SM -RA BKN027 BKN050 OVC080 05/05 A3049 RMK SC6SC1AC1 SLP324=

CYVR;2005-11-16 12:00;METAR CYVR 161200Z 17003KT 8SM -RA BKN028 BKN060 OVC120 05/05 A3046 RMK SC5SC2AC2 SLP314=

CYVR;2005-11-16 13:00;METAR CYVR 161300Z 00000KT 4SM -RA BR FEW012 BKN023 OVC040 05/05 A3048 RMK SF1SC6SC1 SLP320=

CYVR;2005-11-16 13:16;SPECI CYVR 161316Z 00000KT 5SM -RADZ BR FEW004 BKN025 BKN050 OVC070 05/ RMK SF1SC5SC2AC1=

CYVR;2005-11-16 13:41;SPECI CYVR 161341Z 00000KT 8SM -DZ FEW005 BKN035 BKN050 OVC070 05/ RMK SF2SC5SC1AC1=

CYVR;2005-11-16 14:00;METAR CYVR 161400Z 00000KT 6SM -RA BR FEW005 BKN022 BKN035 OVC050 06/05 A3047 RMK SF2SC3SC2SC1 SLP317=

CYVR;2005-11-16 14:38;SPECI CYVR 161438Z 11002KT 6SM -SHRA BR FEW005 BKN022 BKN035 OVC050 05/ RMK SF2SC3SC2SC1=

CYVR;2005-11-16 14:55;SPECI CYVR 161455Z 00000KT 6SM BR FEW005 SCT021 BKN027 OVC035 05/ RMK SF2SC2SC2SC3=

CYVR;2005-11-16 16:00;METAR CYVR 161600Z 13003KT 15SM FEW005 SCT021 OVC030 06/05 A3047 RMK SC2SC2SC4 SLP319=

CYVR;2005-11-16 17:00;METAR CYVR 161700Z 00000KT 10SM FEW007 SCT015 BKN021 OVC035 06/05 A3048 RMK SC2SC2SC2SC2 SLP323=

CYVR;2005-11-16 18:00;METAR CYVR 161800Z 29002KT 7SM SCT006 BKN021 OVC030 06/06 A3049 RMK SC4SC2SC2 SLP324=

CYVR;2005-11-16 19:00;METAR CYVR 161900Z 28003KT 7SM FEW007 SCT021 OVC041 07/06 A3049 RMK SC2SC2SC4 SLP324=

CYVR;2005-11-16 21:00;METAR CYVR 162100Z 32005KT 15SM FEW006 SCT019 BKN030 08/05 A3048 RMK SC2SC2SC3 SLP320=

CYVR;2005-11-16 22:00;METAR CYVR 162200Z 31006KT 10SM FEW007 BKN019 OVC030 07/05 A3047 RMK SC2SC5SC2 SLP317=

CYVR;2005-11-16 23:00;METAR CYVR 162300Z 31004KT 15SM FEW007 BKN021 OVC030 07/05 A3047 RMK SC2SC5SC2 SLP319=

CYVR;2005-11-17 00:00;METAR CYVR 170000Z 31005KT 15SM FEW007 SCT021 OVC030 07/05 A3047 RMK SC2SC2SC4 SLP319=

CYVR;2005-11-17 01:00;METAR CYVR 170100Z 31007KT 15SM FEW007 SCT021 OVC031 07/06 A3047 RMK SC1SC3SC4 SLP319=

CYVR;2005-11-17 02:00;METAR CYVR 170200Z 34005KT 12SM FEW007 SCT021 OVC030 07/06 A3048 RMK SC2SC2SC4 SLP321=

CYVR;2005-11-17 03:00;METAR CYVR 170300Z 35002KT 12SM FEW007 OVC030 07/05 A3049 RMK SC2SC6 SLP324=

CYVR;2005-11-17 04:00;METAR CYVR 170400Z 31004KT 15SM FEW010 SCT023 OVC031 07/06 A3050 RMK SC2SC2SC5 VIS LWR N QUAD 12SM SLP327=

CYVR;2005-11-17 05:00;METAR CYVR 170500Z 34005KT 15SM FEW010 BKN026 OVC031 07/06 A3050 RMK SC1SC5SC2 VIS N QUAD 12SM SLP330=

CYVR;2005-11-17 06:00;METAR CYVR 170600Z 36002KT 15SM FEW010 OVC027 07/05 A3051 RMK SC1SC7 VIS N QUAD 12 SM SLP332=

CYVR;2005-11-17 09:00;METAR CYVR 170900Z 00000KT 15SM OVC031 07/06 A3052 RMK SC8 SLP335=

CYVR;2005-11-17 10:00;METAR CYVR 171000Z 08004KT 15SM OVC031 07/06 A3053 RMK SC8 SLP339=

CYVR;2005-11-17 11:00;METAR CYVR 171100Z 00000KT 15SM OVC032 07/05 A3053 RMK SC8 SLP338=

CYVR;2005-11-17 12:00;METAR CYVR 171200Z 28003KT 15SM OVC032 07/06 A3053 RMK SC8 SLP337=

CYVR;2005-11-17 13:00;METAR CYVR 171300Z 00000KT 15SM OVC034 07/05 A3053 RMK SC8 SLP338=

CYVR;2005-11-17 14:00;METAR CYVR 171400Z 01002KT 15SM OVC034 07/05 A3051 RMK SC8 SLP333=

CYVR;2005-11-17 15:00;METAR CYVR 171500Z 32004KT 15SM SCT034 SCT220 07/05 A3051 RMK SC3CI0 SLP333=

CYVR;2005-11-17 16:00;METAR CYVR 171600Z 32004KT 20SM BKN032 06/04 A3053 RMK SC4 SLP339=

CYVR;2005-11-17 17:00;METAR CYVR 171700Z 35007KT 30SM BKN030 07/05 A3053 RMK SC3 SLP339=

CYVR;2005-11-17 18:00;METAR CYVR 171800Z 31004KT 30SM FEW030 FEW220 09/05 A3053 RMK SC1CI2 SLP339=

CYVR;2005-11-17 19:00;METAR CYVR 171900Z 31007KT 30SM FEW030 FEW220 09/05 A3053 RMK SC1CI2 SLP338=

CYVR;2005-11-17 20:00;METAR CYVR 172000Z 30010KT 30SM FEW030 SCT220 09/06 A3052 RMK SC1CI2 SLP334=

CYVR;2005-11-17 21:00;METAR CYVR 172100Z 31008KT 30SM FEW025 SCT220 09/06 A3050 RMK SC1CI2 SLP328=

CYVR;2005-11-17 22:00;METAR CYVR 172200Z 30012KT 30SM FEW020 BKN220 09/07 A3050 RMK SC1CI3 SLP327=

CYVR;2005-11-17 23:00;METAR CYVR 172300Z 30010G15KT 30SM FEW020 BKN220 08/07 A3049 RMK SC1CI4 SLP324=

CYVR;2005-11-18 00:00;METAR CYVR 180000Z 30008KT 30SM FEW030 BKN190 08/06 A3048 RMK SC1AC4 SLP321=

CYVR;2005-11-18 01:00;METAR CYVR 180100Z 31007KT 30SM SCT190 06/05 A3048 RMK AC3 SLP320=

CYVR;2005-11-18 02:00;METAR CYVR 180200Z 30009KT 30SM SCT190 06/06 A3048 RMK AC2 SLP322=

CYVR;2005-11-18 03:00;METAR CYVR 180300Z 31009KT 20SM BKN190 07/06 A3048 RMK AC2 SLP323=

CYVR;2005-11-18 04:00;METAR CYVR 180400Z 31006KT 20SM FEW190 SCT240 05/05 A3047 RMK AC2CI1 SLP318=

CYVR;2005-11-18 05:00;METAR CYVR 180500Z 30006KT 20SM FEW190 SCT240 06/05 A3047 RMK AC1CI1 TWR REP MIFG NE SLP317=

CYVR;2005-11-18 06:00;METAR CYVR 180600Z 31004KT 20SM BKN095 OVC240 06/06 A3047 RMK AC5CI1 SLP319=

CYVR;2005-11-18 07:00;METAR CYVR 180700Z 30004KT 20SM BKN085 OVC240 07/06 A3047 RMK AC4CI1 SLP317=

CYVR;2005-11-18 08:53;SPECI CYVR 180853Z 32004KT 15SM MIFG SCT080 OVC240 04/ RMK AC3CI2=

CYVR;2005-11-18 09:00;METAR CYVR 180900Z 34002KT 15SM MIFG FEW080 OVC240 04/04 A3045 RMK AC2CI2 SLP311=

CYVR;2005-11-18 11:00;METAR CYVR 181100Z 00000KT 15SM MIFG FEW085 OVC240 05/05 A3043 RMK AC2CS5 SLP306=

CYVR;2005-11-18 12:00;METAR CYVR 181200Z 27003KT 15SM MIFG FEW085 OVC240 04/04 A3043 RMK AC2CS5 SLP303=

CYVR;2005-11-18 13:00;METAR CYVR 181300Z 36003KT 15SM FEW085 OVC230 05/05 A3043 RMK AC2CS5 SLP303=

CYVR;2005-11-18 14:00;METAR CYVR 181400Z 35002KT 15SM FEW035 OVC240 05/05 A3042 RMK ST2CI5 SLP302=

CYVR;2005-11-18 14:33;SPECI CYVR 181433Z 30004KT 15SM BKN008 OVC240 04/ RMK ST5CS2=

CYVR;2005-11-18 15:00;METAR CYVR 181500Z 33004KT 15SM BKN009 BKN240 06/06 A3043 RMK SC5CI1 SLP305=

CYVR;2005-11-18 15:23;SPECI CYVR 181523Z 32006KT 15SM SCT009 OVC230 07/ RMK SC4CS4=

CYVR;2005-11-18 16:00;METAR CYVR 181600Z 31007KT 20SM SCT009 OVC210 07/06 A3043 RMK SC3CS5 SLP306=

CYVR;2005-11-18 17:00;METAR CYVR 181700Z 32005KT 15SM SCT008 OVC210 08/07 A3044 RMK SC4CS4 VIS LWR E QUAD 7 SLP308=

CYVR;2005-11-18 17:26;SPECI CYVR 181726Z 08004KT 15SM BKN010 OVC210 07/ RMK SC6CS2 VIS N - E QUADS LWR 5=

CYVR;2005-11-18 18:00;METAR CYVR 181800Z 10005KT 7SM BKN008 OVC210 07/06 A3045 RMK SC6CS2 VIS LWR N - E 4 SLP311=

CYVR;2005-11-18 18:35;SPECI CYVR 181835Z 13004KT 10SM BKN010 OVC210 08/ RMK SC6CS2 VIS LWR N-E 5=

CYVR;2005-11-18 19:00;METAR CYVR 181900Z 11003KT 10SM BKN010 OVC210 08/07 A3045 RMK SC6CS2 VIS LWR N-E 5 SLP312=

CYVR;2005-11-18 19:14;SPECI CYVR 181914Z 11003KT 10SM BKN009 BKN210 08/ RMK SC6CS2=

CYVR;2005-11-18 19:53;SPECI CYVR 181953Z 12002KT 10SM BKN010 BKN210 08/ RMK SC6CS1=

CYVR;2005-11-18 20:00;METAR CYVR 182000Z 10003KT 10SM BKN010 BKN210 08/07 A3044 RMK SC6CS1 SLP309=

CYVR;2005-11-18 20:54;SPECI CYVR 182054Z 23004KT 10SM SCT010 BKN190 08/ RMK SC4AC3=

CYVR;2005-11-18 21:00;METAR CYVR 182100Z 23004KT 10SM SCT010 BKN190 08/07 A3044 RMK SC4AC3 SLP308=

CYVR;2005-11-18 22:00;METAR CYVR 182200Z 27003KT 15SM FEW008 BKN200 09/07 A3042 RMK SF1CI2 SLP302=

CYVR;2005-11-18 23:00;METAR CYVR 182300Z 30006KT 15SM FEW008 BKN200 08/07 A3042 RMK SF1CI3 FU SLP301=

CYVR;2005-11-19 00:00;METAR CYVR 190000Z 31006KT 20SM SCT200 08/07 A3041 RMK CI2 FU SLP299=

CYVR;2005-11-19 01:00;METAR CYVR 190100Z 33005KT 20SM FEW210 06/05 A3042 RMK CI2 FU SLP300=

CYVR;2005-11-19 02:00;METAR CYVR 190200Z 00000KT 20SM FEW210 07/06 A3042 RMK CI1 SLP301=

CYVR;2005-11-19 03:00;METAR CYVR 190300Z 00000KT 20SM BKN210 07/06 A3042 RMK CI1 TWR REP MIFG NE QUAD SLP301=

CYVR;2005-11-19 03:14;SPECI CYVR 190314Z 00000KT 20SM MIFG SCT210 07/ RMK CI1=

CYVR;2005-11-19 04:00;METAR CYVR 190400Z 32005KT 20SM MIFG FEW210 06/05 A3042 RMK CI1 SLP301=

CYVR;2005-11-19 06:00;METAR CYVR 190600Z 29002KT 20SM MIFG SKC 05/05 A3040 RMK SLP294=

CYVR;2005-11-19 09:00;METAR CYVR 190900Z 31006KT 20SM MIFG SKC 05/05 A3037 RMK SLP286=

CYVR;2005-11-19 10:09;SPECI CYVR 191009Z 31006KT 6SM BR BKN002 06/ RMK ST5 VIS NE - SE QUAD VIS 15 SM=

CYVR;2005-11-19 10:11;SPECI CYVR 191011Z 31008KT 3SM BR OVC001 06/ RMK ST6=

CYVR;2005-11-19 10:18;SPECI CYVR 191018Z 30011KT 2SM BR SKC 06/ RMK FG7=

CYVR;2005-11-19 10:19;SPECI CYVR 191019Z 30011KT 1 1/4SM BR SKC 06/ RMK FG7=

CYVR;2005-11-19 10:21;SPECI CYVR 191021Z 30012KT 3/4SM BR SKC 06/ RMK FG7=

CYVR;2005-11-19 10:22;SPECI CYVR 191022Z 30011KT 1/2SM FG SKC 06/ RMK FG7=

CYVR;2005-11-19 10:26;SPECI CYVR 191026Z 30011KT 1/4SM FG SKC 06/ RMK FG7=

CYVR;2005-11-19 11:00;METAR CYVR 191100Z 30012KT 1/4SM FG SKC 06/06 A3035 RMK FG7 SLP279=

CYVR;2005-11-19 11:10;SPECI CYVR 191110Z 30011KT 1/2SM FG SKC 06/ RMK FG7=

CYVR;2005-11-19 12:00;METAR CYVR 191200Z 31009KT 1/4SM FG SKC 06/06 A3035 RMK FG7 SLP276=

CYVR;2005-11-19 12:35;SPECI CYVR 191235Z 32008KT 1/2SM FG SKC 06/ RMK FG5=

CYVR;2005-11-19 12:37;SPECI CYVR 191237Z 32007KT 3/4SM BR SKC 07/ RMK FG5=

CYVR;2005-11-19 13:00;METAR CYVR 191300Z 32010KT 1SM BR BKN002 07/07 A3033 RMK ST6 SLP272=

CYVR;2005-11-19 13:08;SPECI CYVR 191308Z 34008KT 3/4SM BR BKN003 07/ RMK ST7=

CYVR;2005-11-19 13:33;SPECI CYVR 191333Z 00000KT 1/4SM FG SKC 06/ RMK FG7=

CYVR;2005-11-19 14:00;METAR CYVR 191400Z 33003KT 1/8SM FG SKC 06/06 A3033 RMK FG7 SLP272=

CYVR;2005-11-19 14:31;SPECI CYVR 191431Z 34003KT 1/4SM FG VV002 06/ RMK FG8=

CYVR;2005-11-19 14:32;SPECI CYVR 191432Z 34003KT 1/2SM FG VV002 06/ RMK FG8=

CYVR;2005-11-19 15:00;METAR CYVR 191500Z 33004KT 1/2SM FG VV002 06/06 A3034 RMK FG8 SLP273=

CYVR;2005-11-19 15:24;SPECI CYVR 191524Z 01002KT 1/4SM FG VV001 06/ RMK FG8=

CYVR;2005-11-19 15:47;SPECI CYVR 191547Z 00000KT 0SM FG VV001 06/ RMK FG8=

CYVR;2005-11-19 16:00;METAR CYVR 191600Z 09002KT 0SM FG VV001 05/05 A3033 RMK FG8 SLP272=

CYVR;2005-11-19 17:00;METAR CYVR 191700Z 00000KT 0SM FG VV001 06/06 A3034 RMK FG8 SLP275=

CYVR;2005-11-19 18:07;SPECI CYVR 191807Z 32004KT 0SM FG BKN002 07/ RMK ST7=

CYVR;2005-11-19 18:12;SPECI CYVR 191812Z 32004KT 1SM BR BKN002 07/ RMK ST7=

CYVR;2005-11-19 18:14;SPECI CYVR 191814Z 31003KT 2SM BR BKN002 07/ RMK ST7=

CYVR;2005-11-19 18:19;SPECI CYVR 191819Z 31003KT 2SM BR BKN003 07/ RMK ST7=

CYVR;2005-11-19 19:00;METAR CYVR 191900Z 00000KT 2SM BR BKN003 07/07 A3032 RMK ST7 SLP267=

CYVR;2005-11-19 19:47;SPECI CYVR 191947Z 27006KT 3SM BR OVC004 08/ RMK ST8=

CYVR;2005-11-19 20:10;SPECI CYVR 192010Z 34002KT 1 1/2SM BR OVC003 07/ RMK ST8=

CYVR;2005-11-19 20:18;SPECI CYVR 192018Z 27003KT 2SM BR OVC002 07/ RMK ST8=

CYVR;2005-11-19 20:38;SPECI CYVR 192038Z 30005KT 2SM BR OVC003 07/ RMK ST8=

CYVR;2005-11-19 21:00;METAR CYVR 192100Z 29004KT 1 1/4SM BR OVC002 07/07 A3032 RMK ST8 SLP267=

CYVR;2005-11-19 21:10;SPECI CYVR 192110Z 31004KT 1/2SM FG OVC002 07/ RMK ST8=

CYVR;2005-11-19 21:12;SPECI CYVR 192112Z 32003KT 1/2SM FG VV002 07/ RMK FG8=

CYVR;2005-11-19 21:22;SPECI CYVR 192122Z 32003KT 1/4SM FG VV002 07/ RMK FG8=

CYVR;2005-11-19 22:00;METAR CYVR 192200Z 30005KT 1/8SM FG VV002 07/07 A3031 RMK FG8 SLP263=

CYVR;2005-11-19 23:21;SPECI CYVR 192321Z 31005KT 1/8SM FG VV002 07/ RMK FG8=

CYVR;2005-11-20 00:00;METAR CYVR 200000Z 30006KT 1/8SM FG VV001 07/07 A3030 RMK FG8 SLP260=

CYVR;2005-11-20 01:00;METAR CYVR 200100Z 29004KT 0SM FG VV001 06/06 A3030 RMK FG8 SLP259=

CYVR;2005-11-20 01:36;SPECI CYVR 200136Z 31010KT 1/2SM FG VV002 07/ RMK FG8=

CYVR;2005-11-20 02:00;METAR CYVR 200200Z 29005KT 1/2SM FG VV002 07/07 A3031 RMK FG8 SLP264=

CYVR;2005-11-20 02:14;SPECI CYVR 200214Z 00000KT 3/8SM FG VV002 07/ RMK FG8=

CYVR;2005-11-20 03:00;METAR CYVR 200300Z 30004KT 3/8SM FG VV002 07/07 A3031 RMK FG8 SLP265=

CYVR;2005-11-20 04:00;METAR CYVR 200400Z 31003KT 1/4SM FG VV002 06/06 A3032 RMK FG8 SLP266=

CYVR;2005-11-20 05:34;SPECI CYVR 200534Z 32004KT 1/2SM FG VV002 07/ RMK FG8=

CYVR;2005-11-20 06:00;METAR CYVR 200600Z 32004KT 1/4SM FG VV002 06/06 A3034 RMK FG8 SLP275=

CYVR;2005-11-20 07:00;METAR CYVR 200700Z 35005KT 1/4SM FG VV002 06/06 A3035 RMK FG8 SLP278=

CYVR;2005-11-20 08:00;METAR CYVR 200800Z 34002KT 1/4SM FG VV002 06/06 A3035 RMK FG8 SLP278=

CYVR;2005-11-20 10:00;METAR CYVR 201000Z 00000KT 1/4SM FG VV002 06/06 A3035 RMK FG8 SLP279=

CYVR;2005-11-20 10:38;SPECI CYVR 201038Z 30002KT 1/2SM FG VV002 06/ RMK FG8=

CYVR;2005-11-20 11:00;METAR CYVR 201100Z 32003KT 1/2SM FG VV002 06/06 A3035 RMK FG8 SLP276=

CYVR;2005-11-20 11:14;SPECI CYVR 201114Z 30005KT 3/4SM BR OVC003 06/ RMK ST8=

CYVR;2005-11-20 11:25;SPECI CYVR 201125Z 32004KT 1/2SM FG VV002 06/ RMK FG8=

CYVR;2005-11-20 12:00;METAR CYVR 201200Z 35003KT 1/2SM FG VV002 06/06 A3034 RMK FG8 SLP275=

CYVR;2005-11-20 13:00;METAR CYVR 201300Z 00000KT 1/2SM FG VV002 06/06 A3035 RMK FG8 SLP277=

CYVR;2005-11-20 13:48;SPECI CYVR 201348Z 04003KT 1/4SM FG VV002 05/ RMK FG8=

CYVR;2005-11-20 14:00;METAR CYVR 201400Z 04003KT 1/4SM FG VV002 05/05 A3035 RMK FG8 SLP276=

CYVR;2005-11-20 15:00;METAR CYVR 201500Z 09003KT 1/4SM FG VV002 05/05 A3034 RMK FG8 SLP275=

CYVR;2005-11-20 15:20;SPECI CYVR 201520Z 00000KT 1/8SM FG VV002 05/ RMK FG8=

CYVR;2005-11-20 16:00;METAR CYVR 201600Z 00000KT 1/8SM FG VV002 05/05 A3036 RMK FG8 BLN DSAPR 300 FT SLP280=

CYVR;2005-11-20 17:00;METAR CYVR 201700Z 00000KT 1/8SM FG VV002 05/05 A3036 RMK FG8 SLP282=

CYVR;2005-11-20 18:00;METAR CYVR 201800Z 00000KT 1/8SM FG VV002 05/05 A3037 RMK FG8 SLP284=

CYVR;2005-11-20 20:28;SPECI CYVR 202028Z 28004KT 1/4SM FG VV002 06/ RMK FG8=

CYVR;2005-11-20 21:00;METAR CYVR 202100Z 32004KT 3/8SM FG VV002 06/06 A3035 RMK FG8 SLP277=

CYVR;2005-11-20 21:33;SPECI CYVR 202133Z 30005KT 1/2SM FG VV002 06/ RMK FG8=

CYVR;2005-11-20 21:41;SPECI CYVR 202141Z 30006KT 1/4SM FG VV002 06/ RMK FG8=

CYVR;2005-11-20 22:00;METAR CYVR 202200Z 31004KT 3/8SM FG VV002 06/06 A3033 RMK FG8 SLP272=

CYVR;2005-11-20 22:27;SPECI CYVR 202227Z 31006KT 3/4SM BR VV002 06/ RMK FG8=

CYVR;2005-11-20 22:40;SPECI CYVR 202240Z 30006KT 1/2SM FG VV002 06/ RMK FG8=

CYVR;2005-11-20 22:54;SPECI CYVR 202254Z 32005KT 1/4SM FG VV002 06/ RMK FG8=

CYVR;2005-11-20 23:00;METAR CYVR 202300Z 30004KT 1/4SM FG VV002 06/06 A3033 RMK FG8 SLP272=

CYVR;2005-11-20 23:56;SPECI CYVR 202356Z 32003KT 1/8SM FG VV002 06/ RMK FG8=

CYVR;2005-11-21 00:00;METAR CYVR 210000Z 32005KT 1/8SM FG VV002 06/06 A3033 RMK FG8 SLP271=

CYVR;2005-11-21 01:00;METAR CYVR 210100Z 28004KT 1/8SM FG VV002 06/06 A3034 RMK FG8 SLP274=

CYVR;2005-11-21 01:36;SPECI CYVR 210136Z 00000KT 1/4SM FG VV002 06/ RMK FG8=

CYVR;2005-11-21 02:00;METAR CYVR 210200Z 35003KT 3/8SM FG VV002 06/06 A3035 RMK FG8 SLP278=

CYVR;2005-11-21 03:00;METAR CYVR 210300Z 36003KT 3/8SM FG VV002 06/06 A3036 RMK FG8 SLP281=

CYVR;2005-11-21 03:32;SPECI CYVR 210332Z 35002KT 1/4SM FG VV002 06/ RMK FG8=

CYVR;2005-11-21 04:00;METAR CYVR 210400Z 29002KT 1/4SM FG VV002 06/06 A3036 RMK FG8 SLP282=

CYVR;2005-11-21 05:00;METAR CYVR 210500Z 32004KT 1/4SM FG VV002 05/05 A3037 RMK FG8 SLP283=

CYVR;2005-11-21 06:00;METAR CYVR 210600Z 08002KT 1/4SM FG VV002 05/05 A3037 RMK FG8 SLP284=

CYVR;2005-11-21 08:00;METAR CYVR 210800Z 00000KT 1/4SM FG VV002 05/05 A3037 RMK FG8 SLP284=

CYVR;2005-11-21 09:00;METAR CYVR 210900Z 00000KT 1/8SM FG VV002 05/05 A3038 RMK FG8 SLP287=

CYVR;2005-11-21 10:00;METAR CYVR 211000Z 34003KT 1/8SM FG VV002 05/05 A3038 RMK FG8 SLP289=

CYVR;2005-11-21 11:00;METAR CYVR 211100Z 36003KT 3/8SM FG VV002 05/05 A3038 RMK FG8 SLP289=

CYVR;2005-11-21 12:00;METAR CYVR 211200Z 30002KT 3/8SM FG VV002 05/05 A3037 RMK FG8 SLP283=

CYVR;2005-11-21 12:06;SPECI CYVR 211206Z 22002KT 1/4SM FG VV002 05/ RMK FG8=

CYVR;2005-11-21 13:00;METAR CYVR 211300Z 00000KT 1/8SM FG VV002 05/05 A3037 RMK FG8 SLP283=

CYVR;2005-11-21 14:00;METAR CYVR 211400Z 00000KT 1/8SM FG VV002 05/05 A3036 RMK FG8 SLP281=

CYVR;2005-11-21 15:00;METAR CYVR 211500Z 35004KT 1/8SM FG VV002 05/05 A3037 RMK FG8 SLP284=

CYVR;2005-11-21 15:17;SPECI CYVR 211517Z 33003KT 3/8SM FG VV002 05/ RMK FG8=

CYVR;2005-11-21 15:44;SPECI CYVR 211544Z 29004KT 1 1/4SM BR VV003 05/ RMK FG8=

CYVR;2005-11-21 16:00;METAR CYVR 211600Z 30003KT 1 1/4SM BR VV003 05/05 A3037 RMK FG8 SLP285=

CYVR;2005-11-21 16:35;SPECI CYVR 211635Z 35002KT 2SM BR OVC005 05/ RMK FG7ST1 VIS E 11/2=

CYVR;2005-11-21 17:00;METAR CYVR 211700Z 34003KT 2SM BR OVC004 05/05 A3038 RMK FG6ST2 SLP287=

CYVR;2005-11-21 18:00;METAR CYVR 211800Z 34004KT 2SM BR OVC004 05/05 A3038 RMK FG6ST2 SLP287=

CYVR;2005-11-21 19:00;METAR CYVR 211900Z 00000KT 1 1/2SM BR OVC004 06/06 A3038 RMK FG7ST1 SLP288=

CYVR;2005-11-21 21:00;METAR CYVR 212100Z 27003KT 2 1/2SM BR OVC004 06/06 A3035 RMK FG6ST2 SLP277=

CYVR;2005-11-21 21:52;SPECI CYVR 212152Z 36002KT 3/4SM BR VV003 06/ RMK FG8=

CYVR;2005-11-21 22:00;METAR CYVR 212200Z 00000KT 1SM BR VV003 06/06 A3034 RMK FG8 SLP273=

CYVR;2005-11-21 22:26;SPECI CYVR 212226Z 00000KT 3/4SM BR VV003 06/ RMK FG8=

CYVR;2005-11-21 22:55;SPECI CYVR 212255Z 00000KT 3/8SM FG VV002 06/ RMK FG8=

CYVR;2005-11-21 23:00;METAR CYVR 212300Z 00000KT 3/8SM FG VV002 06/06 A3032 RMK FG8 SLP269=

CYVR;2005-11-22 00:00;METAR CYVR 220000Z 31003KT 1/4SM FG VV002 06/06 A3032 RMK FG8 SLP268=

CYVR;2005-11-22 00:11;SPECI CYVR 220011Z 31004KT 1/8SM FG VV001 05/ RMK FG8=

CYVR;2005-11-22 01:00;METAR CYVR 220100Z 35004KT 1/4SM FG VV002 05/05 A3031 RMK FG8 SLP265=

CYVR;2005-11-22 01:21;SPECI CYVR 220121Z 36003KT 3/8SM FG VV002 05/ RMK FG8=

CYVR;2005-11-22 02:00;METAR CYVR 220200Z 34002KT 3/8SM FG VV002 05/05 A3031 RMK FG8 SLP263=

CYVR;2005-11-22 03:00;METAR CYVR 220300Z 00000KT 3/8SM FG VV002 05/05 A3030 RMK FG8 SLP261=

CYVR;2005-11-22 03:28;SPECI CYVR 220328Z 32002KT 1/4SM FG VV002 05/ RMK FG8=

CYVR;2005-11-22 04:00;METAR CYVR 220400Z 36004KT 1/4SM FG VV002 05/05 A3030 RMK FG8 SLP259=

CYVR;2005-11-22 04:46;SPECI CYVR 220446Z 30003KT 1/8SM FG VV002 05/ RMK FG8=

CYVR;2005-11-22 05:00;METAR CYVR 220500Z 27002KT 1/8SM FG VV002 05/05 A3030 RMK FG8 SLP259=

CYVR;2005-11-22 06:00;METAR CYVR 220600Z 00000KT 1/8SM FG VV002 05/05 A3030 RMK FG8 SLP260=

CYVR;2005-11-22 07:00;METAR CYVR 220700Z 34002KT 1/4SM FG VV002 05/05 A3030 RMK FG8 SLP261=

CYVR;2005-11-22 08:00;METAR CYVR 220800Z 30005KT 1/4SM FG VV002 05/05 A3030 RMK FG8 SLP260=

CYVR;2005-11-22 09:00;METAR CYVR 220900Z 34003KT 1/4SM FG VV002 05/05 A3029 RMK FG8 SLP256=

CYVR;2005-11-22 10:00;METAR CYVR 221000Z 02003KT 1/4SM FG VV002 05/05 A3029 RMK FG8 SLP256=

CYVR;2005-11-22 11:00;METAR CYVR 221100Z 00000KT 1/4SM FG VV002 05/05 A3027 RMK FG8 SLP252=

CYVR;2005-11-22 12:00;METAR CYVR 221200Z 29003KT 1/4SM FG VV002 05/05 A3026 RMK FG8 SLP248=

CYVR;2005-11-22 13:00;METAR CYVR 221300Z 10002KT 1/4SM FG VV002 05/05 A3026 RMK FG8 SLP247=

CYVR;2005-11-22 13:47;SPECI CYVR 221347Z 00000KT 3/8SM FG VV002 04/ RMK FG8=

CYVR;2005-11-22 14:00;METAR CYVR 221400Z 01002KT 1/4SM FG VV002 04/04 A3025 RMK FG8 SLP245=

CYVR;2005-11-22 15:00;METAR CYVR 221500Z 00000KT 1/4SM FG VV002 04/04 A3025 RMK FG8 SLP243=

CYVR;2005-11-22 15:08;SPECI CYVR 221508Z 03002KT 1/8SM FG VV002 04/ RMK FG8=

CYVR;2005-11-22 16:00;METAR CYVR 221600Z 00000KT 1/8SM FG VV002 04/04 A3026 RMK FG8 SLP247=

CYVR;2005-11-22 16:26;SPECI CYVR 221626Z 00000KT 1/4SM FG VV002 05/ RMK FG8=

CYVR;2005-11-22 16:37;SPECI CYVR 221637Z 00000KT 1/2SM FG VV002 05/ RMK FG8=

CYVR;2005-11-22 16:51;SPECI CYVR 221651Z 35003KT 1SM BR VV002 05/ RMK FG8 BLN DSAPRD 500 FT VIS E 1/2=

CYVR;2005-11-22 17:00;METAR CYVR 221700Z 35002KT 1 1/4SM BR VV003 05/05 A3025 RMK FG8 VIS 3/4 E SLP244=

CYVR;2005-11-22 17:41;SPECI CYVR 221741Z 30002KT 1SM BR VV002 05/ RMK FG8=

CYVR;2005-11-22 18:00;METAR CYVR 221800Z 34004KT 1SM BR VV002 05/05 A3025 RMK FG8 SLP243=

CYVR;2005-11-22 18:54;SPECI CYVR 221854Z 29003KT 1 1/4SM BR VV003 05/ RMK FG8=

CYVR;2005-11-22 21:07;SPECI CYVR 222107Z 29005KT 5/8SM BR VV002 05/ RMK FG8=

CYVR;2005-11-22 21:55;SPECI CYVR 222155Z 30007KT 3/8SM FG VV002 05/ RMK FG8=

CYVR;2005-11-22 22:22;SPECI CYVR 222222Z 31002KT 1/2SM FG VV002 05/ RMK FG8=

CYVR;2005-11-22 22:43;SPECI CYVR 222243Z 33002KT 3/4SM BR VV002 05/ RMK FG8=

CYVR;2005-11-22 23:35;SPECI CYVR 222335Z 29004KT 3/8SM FG VV002 05/ RMK FG8=

CYVR;2005-11-23 03:51;SPECI CYVR 230351Z 00000KT 1/4SM FG VV002 04/ RMK FG8=

CYVR;2005-11-23 08:46;SPECI CYVR 230846Z 14003KT 3/8SM FG VV002 03/ RMK FG8=

CYVR;2005-11-23 14:57;SPECI CYVR 231457Z 07004KT 1/8SM FG VV001 03/ RMK FG8=

CYVR;2005-11-23 17:09;SPECI CYVR 231709Z 09003KT 1/2SM FG VV003 03/ RMK FG8=

CYVR;2005-11-23 17:17;SPECI CYVR 231717Z 12003KT 3/4SM BR OVC005 03/ RMK FG6ST2=

CYVR;2005-11-23 17:32;SPECI CYVR 231732Z 07002KT 1 1/2SM BR BKN005 03/ RMK FG5ST2=

CYVR;2005-11-23 18:49;SPECI CYVR 231849Z 01002KT 4SM BR BKN006 05/ RMK SC3 CF ASOCTD=

CYVR;2005-11-24 01:25;SPECI CYVR 240125Z 01003KT 12SM PRFG BKN007 BKN100 04/ RMK SC6AC1 VIS N 8=

CYVR;2005-11-24 03:09;SPECI CYVR 240309Z 36002KT 3/4SM BR OVC003 04/ RMK ST8 VIS S HIER 3=

CYVR;2005-11-24 03:21;SPECI CYVR 240321Z 00000KT 1/2SM FG VV003 04/ RMK FG8=

CYVR;2005-11-24 03:31;SPECI CYVR 240331Z 02003KT 3/8SM FG VV002 04/ RMK FG8=

CYVR;2005-11-24 06:05;SPECI CYVR 240605Z 18003KT 1/8SM FG VV001 04/ RMK FG8=

CYVR;2005-11-24 07:00;METAR CYVR 240700Z 25002KT 1/8SM FG VV001 04/04 A3004 RMK FG8 SLP172=

CYVR;2005-11-24 07:37;SPECI CYVR 240737Z 27002KT 1/4SM FG VV002 04/ RMK FG8=

CYVR;2005-11-24 08:10;SPECI CYVR 240810Z 29002KT 1/4SM FG VV002 03/ RMK FG8=

CYVR;2005-11-24 09:00;METAR CYVR 240900Z 00000KT 1/4SM FG VV002 03/03 A3001 RMK FG8 SLP164=

CYVR;2005-11-24 09:18;SPECI CYVR 240918Z 00000KT 1/8SM FG VV002 04/ RMK FG8=

CYVR;2005-11-24 09:44;SPECI CYVR 240944Z 00000KT 1/4SM FG VV002 04/ RMK FG8=

CYVR;2005-11-24 11:00;METAR CYVR 241100Z 00000KT 1/4SM FG VV002 03/03 A2999 RMK FG8 SLP157=

CYVR;2005-11-24 12:00;METAR CYVR 241200Z 10003KT 1/4SM FG VV002 03/03 A2997 RMK FG8 SLP149=

CYVR;2005-11-24 12:20;SPECI CYVR 241220Z 00000KT 1/8SM FG VV002 03/ RMK FG8=

CYVR;2005-11-24 12:41;SPECI CYVR 241241Z 00000KT 1/8SM FG VV002 02/ RMK FG8=

CYVR;2005-11-24 13:00;METAR CYVR 241300Z 22002KT 1/8SM FG VV002 02/02 A2998 RMK FG8 SLP152=

CYVR;2005-11-24 14:00;METAR CYVR 241400Z 11004KT 1/8SM FG VV002 02/02 A2994 RMK FG8 SLP139=

CYVR;2005-11-24 14:41;SPECI CYVR 241441Z 09003KT 1/4SM FG OVC090 02/ RMK FG7AC0=

CYVR;2005-11-24 15:00;METAR CYVR 241500Z 13003KT 3/8SM FG BKN090 02/02 A2991 RMK FG3AC4 SLP129=

CYVR;2005-11-24 15:22;SPECI CYVR 241522Z 15003KT 3/4SM BR BKN100 02/ RMK FG3AC4=

CYVR;2005-11-24 15:44;SPECI CYVR 241544Z 11004KT 2SM BR SCT100 SCT150 BKN240 01/ RMK FG1AC2AC1CI2=

CYVR;2005-11-24 16:00;METAR CYVR 241600Z 11003KT 1SM BR BKN110 BKN240 01/01 A2990 RMK FG2AC4CI1 VIS N 1/4 VIS SW 2 SLP125=

CYVR;2005-11-24 16:37;SPECI CYVR 241637Z 09003KT 2SM BR SCT110 BKN240 01/ RMK FG1AC2CI2 VIS N 15=

CYVR;2005-11-24 17:00;METAR CYVR 241700Z 22002KT 6SM BR FEW005 SCT110 BKN240 02/02 A2992 RMK SF1AC2CI2 VIS N 15 SLP133=

CYVR;2005-11-24 18:00;METAR CYVR 241800Z 07006KT 8SM FEW100 SCT140 BKN220 04/04 A2991 RMK AC2AC2CI2 VIS N 15 SLP130=

CYVR;2005-11-24 19:00;METAR CYVR 241900Z 16002KT 12SM FEW040 SCT100 BKN230 07/04 A2992 RMK SC2AC2CI2 SLP131=

CYVR;2005-11-24 20:00;METAR CYVR 242000Z 11005KT 15SM SCT040 BKN120 OVC230 07/04 A2990 RMK SC3AC4CI1 SLP125=

CYVR;2005-11-24 21:00;METAR CYVR 242100Z 15005KT 15SM SCT040 OVC110 07/03 A2990 RMK SC4AC4 SLP126=

CYVR;2005-11-24 22:00;METAR CYVR 242200Z 09003KT 15SM OVC062 07/04 A2991 RMK SC8 SLP127=

CYVR;2005-11-24 22:18;SPECI CYVR 242218Z 08004KT 15SM -RA OVC061 07/ RMK SC8=

CYVR;2005-11-24 23:00;METAR CYVR 242300Z 29003KT 12SM -RA OVC059 07/05 A2994 RMK SC8 SLP138=

CYVR;2005-11-24 23:48;SPECI CYVR 242348Z 35008KT 15SM SCT060 BKN150 BKN220 08/ RMK SC4AC2CI1=

CYVR;2005-11-25 00:00;METAR CYVR 250000Z 04010KT 15SM SCT060 BKN150 OVC220 08/06 A2989 RMK SC4AC2CI0 SLP121=

CYVR;2005-11-25 02:08;SPECI CYVR 250208Z 11010KT 15SM -RA FEW040 BKN051 OVC090 09/ RMK SC1SC6AC1=

CYVR;2005-11-25 02:14;SPECI CYVR 250214Z 10011KT 15SM BKN047 BKN062 08/ RMK SC5SC2=

CYVR;2005-11-25 03:00;METAR CYVR 250300Z 10012G18KT 15SM BKN041 OVC062 09/06 A2990 RMK SC5SC3 SLP125=

CYVR;2005-11-25 03:12;SPECI CYVR 250312Z 10013KT 12SM -SHRA BKN039 OVC060 09/ RMK SC5SC3=

CYVR;2005-11-25 03:24;SPECI CYVR 250324Z 09011KT 12SM FEW020 BKN040 OVC060 09/ RMK SC2SC3SC3=

CYVR;2005-11-25 04:00;METAR CYVR 250400Z 08010KT 10SM BKN021 OVC060 09/07 A2989 RMK SC6SC2 SLP123=

CYVR;2005-11-25 05:00;METAR CYVR 250500Z 10014KT 10SM BKN018 OVC060 10/06 A2990 RMK SC7SC1 SLP124=

CYVR;2005-11-25 05:45;SPECI CYVR 250545Z 14007KT 10SM -SHRA BKN024 OVC060 10/ RMK SC6SC2=

CYVR;2005-11-25 05:54;SPECI CYVR 250554Z 11009KT 10SM BKN020 OVC060 10/ RMK SC6SC2=

CYVR;2005-11-25 06:00;METAR CYVR 250600Z 11011KT 10SM BKN020 OVC060 10/07 A2990 RMK SC6SC2 SLP126=

CYVR;2005-11-25 06:25;SPECI CYVR 250625Z 11010KT 10SM -SHRA OVC016 10/ RMK SC8=

CYVR;2005-11-25 06:35;SPECI CYVR 250635Z 12011KT 10SM OVC016 10/ RMK SC8=

CYVR;2005-11-25 07:29;SPECI CYVR 250729Z 14006KT 5SM SHRA OVC015 09/ RMK SC8=

CYVR;2005-11-25 07:35;SPECI CYVR 250735Z 13005KT 4SM SHRA OVC014 09/ RMK SC8=

CYVR;2005-11-25 08:00;METAR CYVR 250800Z 10010KT 4SM -SHRA BR SCT015 OVC037 09/08 A2988 RMK SC4SC4 SLP120=

CYVR;2005-11-25 08:29;SPECI CYVR 250829Z 08010KT 7SM -SHRA SCT012 OVC035 09/ RMK SC4SC4=

CYVR;2005-11-25 08:54;SPECI CYVR 250854Z 09007KT 7SM -SHRA BKN013 OVC035 09/ RMK SC5SC3=

CYVR;2005-11-25 09:00;METAR CYVR 250900Z 10006KT 7SM -SHRA BKN012 OVC035 09/08 A2987 RMK SC6SC2 SLP115=

CYVR;2005-11-25 09:12;SPECI CYVR 250912Z 09006KT 7SM -SHRA BKN009 OVC035 09/ RMK SC6SC2=

CYVR;2005-11-25 09:33;SPECI CYVR 250933Z 10007KT 7SM -SHRA BKN010 OVC035 08/ RMK SC6SC2=

CYVR;2005-11-25 09:53;SPECI CYVR 250953Z 08007KT 7SM BKN011 OVC035 08/ RMK SC6SC2=

CYVR;2005-11-25 10:39;SPECI CYVR 251039Z 08007KT 7SM BKN010 OVC035 09/ RMK SC7SC1=

CYVR;2005-11-25 10:48;SPECI CYVR 251048Z 07006KT 7SM -SHRA BKN010 OVC035 09/ RMK SC7SC1 PCPN VRY LGT=

CYVR;2005-11-25 11:00;METAR CYVR 251100Z 08007KT 7SM -SHRA BKN011 OVC035 09/08 A2980 RMK SC7SC1 PCPN VRY LGT SLP093=

CYVR;2005-11-25 12:00;METAR CYVR 251200Z 09005KT 7SM -SHRA BKN010 OVC035 09/09 A2977 RMK SC6SC2 SLP080=

CYVR;2005-11-25 13:00;METAR CYVR 251300Z 11008KT 7SM -SHRA BKN011 OVC035 09/09 A2973 RMK SC6SC2 PCPN VRY LGT SLP069=

CYVR;2005-11-25 13:27;SPECI CYVR 251327Z 08008KT 7SM -SHRA SCT011 OVC055 09/ RMK SC4SC4=

CYVR;2005-11-25 14:00;METAR CYVR 251400Z 36004KT 7SM -SHRA FEW011 SCT055 OVC075 09/09 A2970 RMK SC2SC2AC4 SLP058=

CYVR;2005-11-25 15:00;METAR CYVR 251500Z 00000KT 12SM -SHRA FEW011 SCT055 BKN077 OVC091 09/09 A2967 RMK SC2SC2AC4AC1 PCPN VRY LGT SLP049=

CYVR;2005-11-25 15:40;SPECI CYVR 251540Z 31005KT 15SM FEW017 SCT050 OVC075 08/ RMK SC2SC2AC4=

CYVR;2005-11-25 16:00;METAR CYVR 251600Z 30004KT 15SM FEW017 FEW050 OVC072 08/08 A2966 RMK SC1SC2AC6 SLP043=

CYVR;2005-11-25 16:43;SPECI CYVR 251643Z 31009KT 15SM -SHRA FEW017 BKN057 OVC073 09/ RMK SC1SC4AC3=

CYVR;2005-11-25 17:21;SPECI CYVR 251721Z 28012KT 3SM -SHRA BR SCT004 OVC015 08/ RMK ST4SC4=

CYVR;2005-11-25 17:31;SPECI CYVR 251731Z 29014KT 2SM -SHRA BR OVC003 08/ RMK ST8=

CYVR;2005-11-25 17:53;SPECI CYVR 251753Z 29013KT 2 1/4SM -SHRA BR SCT003 OVC024 09/ RMK ST4SC4=

CYVR;2005-11-25 18:00;METAR CYVR 251800Z 29011KT 2 1/2SM -SHRA BR SCT004 OVC017 09/09 A2965 RMK ST4SC4 SLP042=

CYVR;2005-11-25 18:16;SPECI CYVR 251816Z 29012G17KT 2 1/2SM -SHRA BR BKN004 OVC016 09/ RMK ST6SC2=

CYVR;2005-11-25 19:00;METAR CYVR 251900Z 27016KT 2 1/2SM -SHRA BR BKN004 OVC018 08/08 A2965 RMK ST7SC1 SLP040=

CYVR;2005-11-25 19:33;SPECI CYVR 251933Z 29017KT 3SM -SHRA BR SCT005 BKN031 OVC048 09/ RMK SF3SC3SC2=

CYVR;2005-11-25 19:55;SPECI CYVR 251955Z 28018G25KT 4SM -SHRA BR BKN004 BKN029 OVC044 09/ RMK SF5SC2SC1=

CYVR;2005-11-25 20:00;METAR CYVR 252000Z 28020G25KT 4SM -SHRA BR BKN004 BKN027 OVC047 08/08 A2965 RMK SF5SC2SC2 SLP039=

CYVR;2005-11-25 20:36;SPECI CYVR 252036Z 28020G29KT 6SM -SHRA BR SCT005 BKN029 OVC042 09/ RMK SF3SC2SC3 PCPN VRY LGT=

CYVR;2005-11-25 21:00;METAR CYVR 252100Z 28022G27KT 7SM -RA FEW005 BKN036 OVC049 09/08 A2965 RMK SF2SC3SC2 SLP041=

CYVR;2005-11-25 21:41;SPECI CYVR 252141Z 28020G28KT 12SM FEW011 FEW025 BKN054 OVC100 09/ RMK SF1CF1SC6AC1=

CYVR;2005-11-25 23:00;METAR CYVR 252300Z 28023G31KT 15SM FEW018 SCT050 OVC088 09/06 A2968 RMK SC1SC2AC5 BINOVC N SLP051=

CYVR;2005-11-26 00:00;METAR CYVR 260000Z 28018G25KT 15SM FEW020 FEW050 BKN088 OVC140 09/05 A2972 RMK SC1SC2AC3AC1 SLP064=

CYVR;2005-11-26 01:00;METAR CYVR 260100Z 28017KT 15SM FEW050 SCT085 BKN150 08/05 A2976 RMK SC2AC2AC2 SLP077=

CYVR;2005-11-26 03:00;METAR CYVR 260300Z 28017G24KT 15SM SCT047 BKN080 BKN170 08/04 A2982 RMK SC3AC2AC1 SLP098=

CYVR;2005-11-26 03:51;SPECI CYVR 260351Z 26014G27KT 15SM -SHRA BKN048 BKN090 08/ RMK SC5AC2=

CYVR;2005-11-26 04:00;METAR CYVR 260400Z 27014KT 15SM -SHRA BKN044 OVC090 07/03 A2985 RMK SC6AC2 SLP109=

CYVR;2005-11-26 04:14;SPECI CYVR 260414Z 27016KT 15SM BKN044 OVC062 07/ RMK SC6SC2=

CYVR;2005-11-26 04:36;SPECI CYVR 260436Z 27018G24KT 15SM -SHRA OVC067 07/ RMK AC8=

CYVR;2005-11-26 05:00;METAR CYVR 260500Z 28016G24KT 15SM -SHRA FEW020 BKN050 OVC060 07/03 A2987 RMK SC1SC5SC3 PCPN VRY LGT SLP116=

CYVR;2005-11-26 05:11;SPECI CYVR 260511Z 28019KT 15SM FEW020 BKN056 OVC074 07/ RMK SC1SC5AC2=

CYVR;2005-11-26 05:55;SPECI CYVR 260555Z 27016KT 15SM -SHRA BKN058 OVC074 07/ RMK SC5AC3 PCPN VRY LGT=

CYVR;2005-11-26 06:00;METAR CYVR 260600Z 27017KT 15SM -SHRA BKN058 OVC074 07/03 A2990 RMK SC5AC3 PCPN VRY LGT SLP126=

CYVR;2005-11-26 06:21;SPECI CYVR 260621Z 27014KT 15SM BKN074 OVC085 07/ RMK AC5AC3=

CYVR;2005-11-26 07:00;METAR CYVR 260700Z 29017KT 15SM BKN060 BKN075 07/03 A2993 RMK SC5AC2 SLP136=

CYVR;2005-11-26 08:00;METAR CYVR 260800Z 27017KT 15SM SCT060 BKN120 07/03 A2995 RMK SC3AC2 SLP143=

CYVR;2005-11-26 11:00;METAR CYVR 261100Z 28019G24KT 15SM FEW065 FEW120 06/00 A3001 RMK SC2AC1 SLP164=

CYVR;2005-11-26 12:00;METAR CYVR 261200Z 29021G28KT 15SM FEW065 FEW120 05/00 A3003 RMK SC1AC2 SLP170=

CYVR;2005-11-26 13:00;METAR CYVR 261300Z 29019G26KT 15SM FEW065 FEW120 05/M00 A3005 RMK SC1AC1 SLP175=

CYVR;2005-11-26 14:00;METAR CYVR 261400Z 30020G25KT 15SM FEW120 05/M00 A3006 RMK AC1 SLP179=

CYVR;2005-11-26 15:00;METAR CYVR 261500Z 29020G28KT 15SM FEW120 05/M01 A3009 RMK AC1 TCU TOPS SE SLP188=

CYVR;2005-11-26 16:00;METAR CYVR 261600Z 29019G25KT 20SM FEW040 FEW120 04/M01 A3010 RMK SC1AC1 TR SC TCU TOPS SE SLP194=

CYVR;2005-11-26 17:00;METAR CYVR 261700Z 28022KT 20SM FEW040 FEW120 05/M00 A3012 RMK SC1AC1 TR SC SLP201=

CYVR;2005-11-26 18:00;METAR CYVR 261800Z 28018KT 20SM FEW040 FEW120 06/M01 A3015 RMK SC1AC1 SLP209=

CYVR;2005-11-26 19:00;METAR CYVR 261900Z 28016G21KT 20SM FEW040 FEW140 07/00 A3017 RMK SC1AC1 CU ASOCTD SLP216=

CYVR;2005-11-26 20:00;METAR CYVR 262000Z 27015KT 20SM FEW040 FEW120 07/00 A3018 RMK SC1AC1 SLP221=

CYVR;2005-11-26 21:00;METAR CYVR 262100Z 26011G16KT 20SM FEW040 FEW210 07/00 A3019 RMK SC1CI1 TR CI SLP224=

CYVR;2005-11-26 22:00;METAR CYVR 262200Z 24011KT 20SM FEW040 FEW210 07/00 A3021 RMK SC1CI1 SLP230=

CYVR;2005-11-26 23:00;METAR CYVR 262300Z 18004KT 20SM FEW050 FEW210 07/M00 A3022 RMK SC1CI1 TR CI SLP232=

CYVR;2005-11-27 00:00;METAR CYVR 270000Z 00000KT 20SM FEW050 FEW220 06/M02 A3023 RMK SC1CI1 SLP237=

CYVR;2005-11-27 01:00;METAR CYVR 270100Z 11007KT 20SM FEW050 FEW220 03/M01 A3024 RMK SC1CI1 SLP239=

CYVR;2005-11-27 04:00;METAR CYVR 270400Z 08010KT 20SM FEW050 BKN180 01/M02 A3022 RMK SC1AC2 SLP235=

CYVR;2005-11-27 05:00;METAR CYVR 270500Z 09009KT 15SM SCT072 BKN180 03/00 A3023 RMK AC3AC2 SLP237=

CYVR;2005-11-27 06:00;METAR CYVR 270600Z 09010KT 15SM FEW035 BKN068 OVC180 04/01 A3023 RMK SC1AC6AC2 SLP237=

CYVR;2005-11-27 07:00;METAR CYVR 270700Z 07007KT 15SM FEW035 BKN065 OVC100 04/01 A3024 RMK SC1SC6AC2 SLP240=

CYVR;2005-11-27 08:29;SPECI CYVR 270829Z 09008KT 15SM -SHRA FEW035 BKN065 OVC085 04/ RMK SC1SC6AC2 PCPN VRY LGT=

CYVR;2005-11-27 08:50;SPECI CYVR 270850Z 08009KT 15SM FEW035 BKN055 OVC075 04/ RMK SC1SC6AC1=

CYVR;2005-11-27 09:00;METAR CYVR 270900Z 08011KT 15SM -SHRA FEW030 BKN055 OVC075 04/00 A3024 RMK SC1SC6AC2 PCPN VRY LGT SLP240=

CYVR;2005-11-27 10:00;METAR CYVR 271000Z 07010KT 15SM -SHRA BKN030 OVC055 04/01 A3024 RMK SC5SC3 PCPN VRY LGT SLP242=

CYVR;2005-11-27 11:00;METAR CYVR 271100Z 07012KT 15SM -SHRA BKN035 OVC055 04/01 A3025 RMK SC6SC2 PCPN VRY LGT SLP245=

CYVR;2005-11-27 12:00;METAR CYVR 271200Z 09012KT 15SM -SHRA SCT030 OVC065 03/01 A3025 RMK SC4SC4 PCPN VRY LGT SLP243=

CYVR;2005-11-27 13:00;METAR CYVR 271300Z 12006KT 15SM -SHRA FEW015 BKN028 OVC065 04/01 A3026 RMK SC2SC5SC1 SLP247=

CYVR;2005-11-27 14:22;SPECI CYVR 271422Z 09005KT 12SM -SHRA BKN014 BKN030 OVC055 03/ RMK SC5SC2SC2=

CYVR;2005-11-27 15:00;METAR CYVR 271500Z 08003KT 10SM -SHRA BKN010 OVC015 02/01 A3030 RMK SF5SF3 SLP261=

CYVR;2005-11-27 15:35;SPECI CYVR 271535Z 08005KT 8SM -SHRA SCT010 OVC015 02/ RMK SF4SF4=

CYVR;2005-11-27 16:00;METAR CYVR 271600Z 09004KT 8SM -SHRA SCT011 OVC017 02/01 A3031 RMK SF3SF5 PCPN VRY LGT SLP264=

CYVR;2005-11-27 17:00;METAR CYVR 271700Z 07006KT 15SM SCT015 BKN054 02/02 A3032 RMK SF3SC4 SLP266=

CYVR;2005-11-27 18:00;METAR CYVR 271800Z 08005KT 15SM SCT018 BKN052 04/02 A3035 RMK SF3SC4 SLP276=

CYVR;2005-11-27 19:00;METAR CYVR 271900Z 10004KT 15SM FEW015 BKN028 OVC043 04/02 A3035 RMK SF2SC4SC2 SLP279=

CYVR;2005-11-27 20:00;METAR CYVR 272000Z 11004KT 15SM FEW014 SCT021 BKN035 04/02 A3036 RMK SF2SC2SC2 SLP280=

CYVR;2005-11-27 21:00;METAR CYVR 272100Z 18004KT 15SM FEW019 BKN032 05/02 A3036 RMK CF2CU2 SLP280=

CYVR;2005-11-27 22:00;METAR CYVR 272200Z 23006KT 15SM FEW016 BKN029 05/02 A3036 RMK CF2CU3 SLP281=

CYVR;2005-11-27 23:00;METAR CYVR 272300Z 21004KT 15SM FEW015 BKN021 04/01 A3037 RMK CF2CU3 SLP284=

CYVR;2005-11-28 00:00;METAR CYVR 280000Z 14004KT 20SM FEW020 FEW041 04/01 A3038 RMK CF1CU2 SLP287=

CYVR;2005-11-28 01:00;METAR CYVR 280100Z 09005KT 20SM FEW038 02/00 A3039 RMK SC2 SLP290=

CYVR;2005-11-28 02:00;METAR CYVR 280200Z 09005KT 30SM FEW035 01/M00 A3039 RMK SC2 SLP291=

CYVR;2005-11-28 03:00;METAR CYVR 280300Z 08006KT 20SM FEW035 01/M00 A3039 RMK SC1 SLP290=

CYVR;2005-11-28 04:00;METAR CYVR 280400Z 07006KT 15SM FEW035 00/M01 A3039 RMK SC1 SLP292=

CYVR;2005-11-28 05:00;METAR CYVR 280500Z 10005KT 15SM FEW019 01/00 A3039 RMK SC2 SLP292=

CYVR;2005-11-28 06:00;METAR CYVR 280600Z 10004KT 15SM BKN020 00/M01 A3039 RMK SC5 FROIN SLP290=

CYVR;2005-11-28 07:00;METAR CYVR 280700Z 09004KT 15SM BKN023 00/M01 A3038 RMK SC6 SLP289=

CYVR;2005-11-28 08:00;METAR CYVR 280800Z 08006KT 15SM SCT023 00/M01 A3037 RMK SC3 SLP284=

CYVR;2005-11-28 09:00;METAR CYVR 280900Z 08008KT 15SM FEW030 M01/M01 A3035 RMK SC2 SLP277=

CYVR;2005-11-28 10:00;METAR CYVR 281000Z 08009KT 15SM FEW030 M01/M02 A3033 RMK SC1 SLP271=

CYVR;2005-11-28 11:00;METAR CYVR 281100Z 11007KT 15SM FEW035 M01/M02 A3032 RMK SC1 FROIN SLP268=

CYVR;2005-11-28 12:00;METAR CYVR 281200Z 08008KT 15SM FEW035 M01/M02 A3030 RMK SC1 FROIN SLP262=

CYVR;2005-11-28 13:00;METAR CYVR 281300Z 09010KT 15SM SKC M00/M01 A3029 RMK FROIN SLP257=

CYVR;2005-11-28 15:00;METAR CYVR 281500Z 09008KT 20SM SCT200 M00/M02 A3022 RMK CI2 FROIN SLP233=

CYVR;2005-11-28 16:00;METAR CYVR 281600Z 10010KT 30SM FEW170 SCT210 M00/M02 A3019 RMK AC2CI1 SLP222=

CYVR;2005-11-28 17:00;METAR CYVR 281700Z 09011KT 30SM SCT170 BKN200 01/M02 A3015 RMK AC3CI2 SLP211=

CYVR;2005-11-28 18:00;METAR CYVR 281800Z 09009KT 30SM BKN160 BKN200 01/M02 A3013 RMK AC5CI2 SLP203=

CYVR;2005-11-28 19:00;METAR CYVR 281900Z 11008KT 30SM BKN160 BKN210 02/M02 A3010 RMK AC6CI2 SLP193=

CYVR;2005-11-28 20:00;METAR CYVR 282000Z 11008KT 30SM BKN160 BKN200 03/M02 A3006 RMK AC6CI2 SLP179=

CYVR;2005-11-28 21:00;METAR CYVR 282100Z 10006KT 30SM BKN150 BKN200 04/M02 A3002 RMK AC6CI2 SLP166=

CYVR;2005-11-28 23:00;METAR CYVR 282300Z 10010KT 30SM BKN140 BKN180 04/M02 A2991 RMK AC6AC1 SLP130=

CYVR;2005-11-29 00:00;METAR CYVR 290000Z 10007KT 30SM BKN100 BKN140 OVC180 03/M02 A2987 RMK AC5AC2AC2 SLP116=

CYVR;2005-11-29 01:00;METAR CYVR 290100Z 09013KT 20SM BKN100 OVC150 04/M04 A2983 RMK AC6AC2 SLP100=

CYVR;2005-11-29 04:00;METAR CYVR 290400Z 13009KT 15SM FEW018 BKN054 OVC079 05/M06 A2974 RMK SC2SC4AC2 VIRGA SLP072=

CYVR;2005-11-29 05:00;METAR CYVR 290500Z 11022G27KT 15SM BKN029 OVC057 05/M04 A2972 RMK SC6SC2 VIRGA SLP065=

CYVR;2005-11-29 05:38;SPECI CYVR 290538Z 11015G26KT 12SM -RA BKN021 OVC041 03/ RMK SC6SC2=

CYVR;2005-11-29 05:50;SPECI CYVR 290550Z 09018G24KT 10SM -RASN SCT014 OVC024 03/ RMK SC3SC5=

CYVR;2005-11-29 06:00;METAR CYVR 290600Z 10012G21KT 10SM -SN SCT014 OVC023 03/M01 A2971 RMK SC3SC5 SLP061=

CYVR;2005-11-29 06:16;SPECI CYVR 290616Z 09012KT 10SM -SN SCT012 OVC021 02/ RMK SC3SC5=

CYVR;2005-11-29 06:23;SPECI CYVR 290623Z 08011G16KT 10SM -RASN SCT012 OVC020 02/ RMK SC3SC5 SN VRY LGT=

CYVR;2005-11-29 07:00;METAR CYVR 290700Z 09008KT 8SM -RASN SCT011 OVC019 01/00 A2970 RMK SC3SC5 VIS N 6 SLP058=

CYVR;2005-11-29 08:00;METAR CYVR 290800Z 11005KT 3SM -RASN SCT010 OVC023 00/00 A2970 RMK SC3SC5 SLP057=

CYVR;2005-11-29 08:36;SPECI CYVR 290836Z 09007KT 4SM -SN FEW003 SCT011 OVC022 00/ RMK SF2SC2SC5=

CYVR;2005-11-29 09:00;METAR CYVR 290900Z 10006KT 4SM -SN FEW003 SCT014 OVC028 00/00 A2970 RMK SF2SC2SC4 SLP057=

CYVR;2005-11-29 10:00;METAR CYVR 291000Z 10007KT 4SM -SN FEW003 SCT011 OVC022 00/00 A2970 RMK SF2SC2SC4 SLP058=

CYVR;2005-11-29 11:00;METAR CYVR 291100Z 10006KT 6SM -SN FEW004 SCT011 OVC026 01/00 A2972 RMK SF2SC2SC4 SLP063=

CYVR;2005-11-29 12:00;METAR CYVR 291200Z 09004KT 6SM -SN SCT005 OVC027 01/00 A2973 RMK SF4SC4 SLP069=

CYVR;2005-11-29 13:00;METAR CYVR 291300Z 07010KT 10SM -SN FEW005 SCT010 OVC024 01/00 A2974 RMK SF2SC2SC4 SN VRY LGT SLP071=

CYVR;2005-11-29 13:12;SPECI CYVR 291312Z 07011KT 10SM FEW005 BKN011 OVC024 01/ RMK SF2SC4SC2=

CYVR;2005-11-29 13:47;SPECI CYVR 291347Z 08011G18KT 10SM -RA BKN009 OVC021 01/ RMK SC6SC2 PCPN VRY LGT=

CYVR;2005-11-29 14:00;METAR CYVR 291400Z 09010G18KT 10SM -RA BKN011 OVC022 01/01 A2973 RMK SC6SC2 PCPN VRY LGT SLP069=

CYVR;2005-11-29 14:12;SPECI CYVR 291412Z 08012KT 10SM -RASN SCT011 OVC016 01/ RMK SC3SC5=

CYVR;2005-11-29 14:53;SPECI CYVR 291453Z 07011KT 3SM -RASN FEW008 OVC012 01/ RMK SF2SC6=

CYVR;2005-11-29 15:00;METAR CYVR 291500Z 06010KT 1 1/2SM -RASN SCT007 OVC011 01/00 A2973 RMK SF3SC5 SLP069=

CYVR;2005-11-29 15:10;SPECI CYVR 291510Z 05010KT 3SM -RASN BKN009 OVC014 01/ RMK SC5SC3=

CYVR;2005-11-29 15:23;SPECI CYVR 291523Z 04012KT 8SM -RA BKN009 OVC016 01/ RMK SF6SC2=

CYVR;2005-11-29 15:52;SPECI CYVR 291552Z 09016G22KT 10SM -RA FEW008 BKN018 OVC025 01/ RMK SC2SC5SC1=

CYVR;2005-11-29 16:00;METAR CYVR 291600Z 09014G21KT 10SM -RA FEW008 BKN017 OVC025 01/01 A2973 RMK SC2SC4SC2 SLP068=

CYVR;2005-11-29 16:40;SPECI CYVR 291640Z 16006KT 8SM -RASN SCT006 BKN009 OVC020 02/ RMK SC3SC3SC2 VIS W - NW 2=

CYVR;2005-11-29 16:48;SPECI CYVR 291648Z 12007KT 1 1/4SM -SN OVC010 01/ RMK SN5SC3 VIS NE - E 2=

CYVR;2005-11-29 17:00;METAR CYVR 291700Z 14008KT 1 1/4SM -RASN BKN009 OVC016 02/00 A2975 RMK SN5SC2SC1 SLP075=

CYVR;2005-11-29 17:13;SPECI CYVR 291713Z 12007KT 10SM -RASN SCT008 BKN014 OVC025 01/ RMK SF3SC4SC1 TCU EMBD / VIS N - SE 2=

CYVR;2005-11-29 17:26;SPECI CYVR 291726Z 11007KT 10SM FEW008 BKN013 OVC025 01/ RMK SF2SC4SC2 TCU EMBD / VIS N - E 5=

CYVR;2005-11-29 18:00;METAR CYVR 291800Z 10011KT 10SM FEW010 BKN018 OVC025 01/01 A2977 RMK SF2SC4SC2 TCU EMBD SLP080=

CYVR;2005-11-29 18:12;SPECI CYVR 291812Z 08008KT 10SM BKN011 BKN018 OVC030 02/ RMK SC5SC2SC1 TCU EMBD=

CYVR;2005-11-29 19:00;METAR CYVR 291900Z 09009KT 10SM SCT010 BKN016 OVC030 01/01 A2978 RMK SC4SC2SC2 SLP084=

CYVR;2005-11-29 19:24;SPECI CYVR 291924Z 09009KT 10SM -SHRA FEW008 FEW011 BKN017 OVC030 01/ RMK SF1SC2SC5SC1=

CYVR;2005-11-29 20:00;METAR CYVR 292000Z 31009KT 8SM -SHRA SCT008 SCT012 BKN015 OVC030 02/01 A2980 RMK SF3SC1SC3SC1 TCU EMBD SLP090=

CYVR;2005-11-29 20:11;SPECI CYVR 292011Z 33005KT 8SM -SHRA BKN007 BKN014 OVC030 01/ RMK SC5SC2SC1 VIS W 4=

CYVR;2005-11-29 20:18;SPECI CYVR 292018Z 34005KT 8SM -SHRASN BKN007 BKN015 OVC030 01/ RMK SC6SC2SC1 VIS SW - NW 1 1/2=

CYVR;2005-11-29 20:52;SPECI CYVR 292052Z 34005KT 8SM -SHRA BKN007 BKN015 OVC025 02/ RMK SC6SC2SC1 VIS NW - N 5=

CYVR;2005-11-29 21:00;METAR CYVR 292100Z 34006KT 8SM -SHRA BKN007 BKN011 OVC022 02/01 A2981 RMK SC5SC2SC1 SLP095=

CYVR;2005-11-29 21:26;SPECI CYVR 292126Z 04005KT 8SM -SHRA SCT008 BKN014 BKN030 02/ RMK SC3SC3SC1=

CYVR;2005-11-29 21:40;SPECI CYVR 292140Z 04007KT 8SM FEW008 BKN015 BKN030 02/ RMK SC2SC3SC2 TCU EMBD=

CYVR;2005-11-29 22:00;METAR CYVR 292200Z 07005KT 8SM FEW008 BKN015 BKN030 02/02 A2982 RMK SC2SC4SC2 SLP099=

CYVR;2005-11-29 23:00;METAR CYVR 292300Z 06003KT 10SM SCT009 BKN018 BKN045 03/02 A2985 RMK SC3SC2SC2 SLP107=

CYVR;2005-11-30 00:00;METAR CYVR 300000Z 05002KT 10SM SCT010 BKN018 BKN050 03/02 A2988 RMK SC3SC3SC1 SLP117=

CYVR;2005-11-30 01:00;METAR CYVR 300100Z 13003KT 12SM FEW010 SCT019 BKN030 BKN060 02/01 A2990 RMK SC1SC2SC2SC2 SLP125=

CYVR;2005-11-30 02:00;METAR CYVR 300200Z 17004KT 12SM FEW009 BKN020 BKN070 03/02 A2992 RMK SC2SC5AC1 SLP131=

CYVR;2005-11-30 03:00;METAR CYVR 300300Z 12005KT 12SM FEW020 BKN041 OVC086 02/02 A2994 RMK SC2SC6AC1 SLP139=

CYVR;2005-11-30 03:22;SPECI CYVR 300322Z 11005KT 12SM -SHGS BKN016 BKN027 OVC042 02/ RMK SC5SC2SC2=

CYVR;2005-11-30 03:27;SPECI CYVR 300327Z 11005KT 12SM -RA BKN015 BKN025 OVC041 02/ RMK SC5SC2SC2=

CYVR;2005-11-30 04:00;METAR CYVR 300400Z 10003KT 10SM -RA SCT016 BKN031 OVC044 02/01 A2996 RMK SC3SC3SC2 SLP146=

CYVR;2005-11-30 04:42;SPECI CYVR 300442Z 11004KT 12SM SCT016 BKN033 OVC100 02/ RMK SC3SC3AC2=

CYVR;2005-11-30 05:00;METAR CYVR 300500Z 08005KT 12SM SCT016 BKN032 OVC100 02/01 A2998 RMK SC3SC3AC2 SLP151=

CYVR;2005-11-30 06:00;METAR CYVR 300600Z 12004KT 12SM BKN035 BKN110 02/01 A3000 RMK SC5AC2 SLP158=

CYVR;2005-11-30 07:00;METAR CYVR 300700Z 11004KT 12SM FEW018 BKN042 OVC095 01/01 A3002 RMK SC1SC6AC2 VIS N LWR SLP165=

CYVR;2005-11-30 07:52;SPECI CYVR 300752Z 12004KT 10SM -RA BKN015 OVC055 01/ RMK SC5SC3=

CYVR;2005-11-30 10:00;METAR CYVR 301000Z 08003KT 12SM FEW018 SCT060 BKN091 01/01 A3006 RMK SC1SC2AC2 SLP180=

CYVR;2005-11-30 12:00;METAR CYVR 301200Z 09005KT 8SM FEW006 SCT040 OVC085 00/00 A3009 RMK SF2SC2AC5 FROIN SLP191=

CYVR;2005-11-30 13:00;METAR CYVR 301300Z 09006KT 8SM FEW005 BKN036 OVC060 01/00 A3011 RMK SF2SC3SC2 VIS N 6 FROIN SLP197=

CYVR;2005-11-30 14:00;METAR CYVR 301400Z 11005KT 10SM PRFG SCT042 BKN055 OVC083 01/01 A3012 RMK SC3SC3AC2 VIS N LWR SLP199=

CYVR;2005-11-30 15:00;METAR CYVR 301500Z 11007KT 8SM FEW015 SCT050 BKN082 01/00 A3013 RMK SC2SC2AC2 VIS NW - NE 3 SLP203=

CYVR;2005-11-30 15:06;SPECI CYVR 301506Z 11007KT 6SM BR FEW004 FEW015 SCT050 BKN082 01/ RMK SF2SC1SC2AC2 VIS W - NE 3=

CYVR;2005-11-30 16:00;METAR CYVR 301600Z 09006KT 5SM BR FEW005 FEW040 BKN075 00/M00 A3014 RMK SF2CU1AC2 SLP205=

CYVR;2005-11-30 18:00;METAR CYVR 301800Z 10008KT 10SM FEW009 FEW045 SCT075 02/01 A3015 RMK SF1SC2AC2 VIS NW - E 6 SLP211=

CYVR;2005-11-30 19:00;METAR CYVR 301900Z 07009KT 10SM FEW009 FEW040 SCT075 03/02 A3014 RMK SF1CU1AC2 TCU ASOCTD W SLP207=

CYVR;2005-11-30 20:00;METAR CYVR 302000Z 09007KT 10SM FEW008 FEW020 SCT035TCU 03/02 A3015 RMK SF2SC1TCU2 SLP210=

CYVR;2005-11-30 21:00;METAR CYVR 302100Z 11006KT 12SM FEW010 SCT014 SCT035TCU 04/02 A3014 RMK SF1SC2TCU1 SLP205=

CYVR;2005-11-30 22:00;METAR CYVR 302200Z 12006KT 15SM FEW014 SCT030TCU SCT070 04/02 A3012 RMK CU2TCU1AC1 SLP201=

CYVR;2005-11-30 23:00;METAR CYVR 302300Z 12007KT 15SM FEW020TCU FEW070 03/01 A3013 RMK TCU1AC2 SLP203=

CYVR;2005-12-01 00:00;METAR CYVR 010000Z 09007KT 15SM FEW020TCU BKN070 02/01 A3012 RMK TCU1AC4 SLP199=

CYVR;2005-12-01 01:00;METAR CYVR 010100Z 11005KT 15SM FEW025 BKN070 02/01 A3011 RMK CU1AC5 TCU ASOCTD SLP196=

CYVR;2005-12-01 02:00;METAR CYVR 010200Z 07007KT 15SM FEW030 BKN069 01/00 A3009 RMK SC1AC5 SLP189=

CYVR;2005-12-01 03:00;METAR CYVR 010300Z 07006KT 15SM OVC069 02/01 A3009 RMK AC8 SLP188=

CYVR;2005-12-01 05:00;METAR CYVR 010500Z 05006KT 15SM BKN066 02/M02 A3004 RMK AC6 SLP172=

CYVR;2005-12-01 06:00;METAR CYVR 010600Z 09007KT 15SM BKN064 01/M02 A3002 RMK SC6 SLP165=

CYVR;2005-12-01 07:00;METAR CYVR 010700Z 07008KT 15SM BKN064 M00/M02 A3000 RMK SC5 SLP160=

CYVR;2005-12-01 08:00;METAR CYVR 010800Z 08007KT 15SM SCT064 M01/M03 A2998 RMK SC3 SLP151=

CYVR;2005-12-01 09:00;METAR CYVR 010900Z 00000KT 15SM SCT064 M00/M03 A2996 RMK SC3 SLP146=

CYVR;2005-12-01 11:00;METAR CYVR 011100Z 00000KT 15SM FEW064 M01/M04 A2990 RMK SC2 SLP126=

CYVR;2005-12-01 12:00;METAR CYVR 011200Z 10003KT 15SM FEW064 M01/M05 A2986 RMK SC2 SLP113=

CYVR;2005-12-01 13:00;METAR CYVR 011300Z 12002KT 15SM FEW060 SCT210 M00/M05 A2982 RMK SC1CI1 SLP097=

CYVR;2005-12-01 14:00;METAR CYVR 011400Z 13003KT 15SM FEW060 SCT200 M03/M06 A2978 RMK SC1CI1 SLP085=

CYVR;2005-12-01 15:00;METAR CYVR 011500Z 14005KT 20SM FEW060 BKN190 M01/M04 A2974 RMK SC1AC4 SLP071=

CYVR;2005-12-01 16:00;METAR CYVR 011600Z 10005KT 30SM OVC140 M01/M04 A2972 RMK AC7 SLP063=

CYVR;2005-12-01 17:00;METAR CYVR 011700Z 11003KT 30SM OVC150 M00/M03 A2968 RMK AC8 SLP051=

CYVR;2005-12-01 18:00;METAR CYVR 011800Z 14002KT 30SM OVC150 M00/M03 A2965 RMK AC8 SLP040=

CYVR;2005-12-01 19:00;METAR CYVR 011900Z 19003KT 30SM OVC150 01/M03 A2961 RMK AC8 SLP026=

CYVR;2005-12-01 20:00;METAR CYVR 012000Z 17005KT 30SM OVC120 01/M03 A2959 RMK AC8 SLP020=

CYVR;2005-12-01 21:00;METAR CYVR 012100Z 25007KT 30SM BKN050 OVC110 02/M02 A2957 RMK SC5AC3 SLP015=

CYVR;2005-12-01 22:00;METAR CYVR 012200Z 31009KT 30SM BKN041 OVC055 03/M03 A2957 RMK SC5SC3 SLP013=

CYVR;2005-12-01 22:52;SPECI CYVR 012252Z 23002KT 20SM -SN FEW018 OVC032 02/ RMK SF2SC6=

CYVR;2005-12-01 23:00;METAR CYVR 012300Z 35003KT 15SM -SN FEW017 OVC032 02/M03 A2956 RMK SF2SC6 SLP011=

CYVR;2005-12-01 23:42;SPECI CYVR 012342Z 18004KT 15SM FEW018 OVC040 01/ RMK SF2SC6=

CYVR;2005-12-02 00:00;METAR CYVR 020000Z 19004KT 15SM FEW018 OVC042 01/M01 A2955 RMK SF1SC7 SLP006=

CYVR;2005-12-02 01:00;METAR CYVR 020100Z 31005KT 15SM SCT020 OVC043 02/M02 A2954 RMK SC3SC5 SLP005=

CYVR;2005-12-02 01:20;SPECI CYVR 020120Z 33008KT 10SM -SN FEW015 OVC028 01/ RMK SF2SC6=

CYVR;2005-12-02 03:00;METAR CYVR 020300Z 11003KT 10SM -SN SCT023 OVC041 01/M02 A2954 RMK SC4SC4 SLP005=

CYVR;2005-12-02 04:00;METAR CYVR 020400Z 12004KT 7SM -SN BKN024 OVC055 00/M01 A2954 RMK SC6SC2 SLP004=

CYVR;2005-12-02 05:00;METAR CYVR 020500Z 13003KT 8SM -SN BKN024 OVC041 00/M00 A2955 RMK SC6SC2 SLP007=

CYVR;2005-12-02 06:00;METAR CYVR 020600Z 12005KT 8SM -SN FEW011 SCT024 OVC042 00/M00 A2955 RMK CF1SC2SC5 SLP008=

CYVR;2005-12-02 09:00;METAR CYVR 020900Z 14003KT 12SM SCT028 OVC041 01/M00 A2960 RMK SC3SC5 SLP024=

CYVR;2005-12-02 10:00;METAR CYVR 021000Z 11004KT 12SM SCT025 OVC043 00/M00 A2962 RMK SC3SC5 SLP029=

CYVR;2005-12-02 11:00;METAR CYVR 021100Z 08002KT 12SM SCT025 OVC042 M00/M01 A2964 RMK SC4SC4 SLP036=

CYVR;2005-12-02 12:00;METAR CYVR 021200Z 11005KT 12SM FEW025 BKN043 OVC130 M00/M01 A2965 RMK SC2SC3AC3 SLP042=

CYVR;2005-12-02 13:00;METAR CYVR 021300Z 14004KT 12SM FEW030 SCT040 OVC100 00/M01 A2967 RMK SC2SC2AC5 SLP047=

CYVR;2005-12-02 14:00;METAR CYVR 021400Z 10006KT 10SM BKN035 OVC090 M01/M02 A2969 RMK SC5AC3 SLP053=

CYVR;2005-12-02 14:44;SPECI CYVR 021444Z 11006KT 10SM -SN BKN034 OVC054 M01/ RMK SC5SC3=

CYVR;2005-12-02 15:00;METAR CYVR 021500Z 10006KT 8SM -SN SCT034 OVC055 M00/M01 A2971 RMK SC4SC4 SLP060=

CYVR;2005-12-02 15:21;SPECI CYVR 021521Z 11007KT 4SM -SN SCT034 OVC055 M00/ RMK SC3SC5=

CYVR;2005-12-02 15:39;SPECI CYVR 021539Z 11007KT 3SM -SN FEW012 BKN035 OVC057 M00/ RMK SC2SC2SC3=

CYVR;2005-12-02 15:46;SPECI CYVR 021546Z 11006KT 2SM -SN FEW012 BKN043 OVC057 M00/ RMK SC2SC3SC3=

CYVR;2005-12-02 16:00;METAR CYVR 021600Z 10005KT 5SM -SN FEW012 SCT020 OVC040 M00/M01 A2973 RMK SC1SC3SC4 SLP067=

CYVR;2005-12-02 17:00;METAR CYVR 021700Z 10006KT 10SM -SN FEW012 BKN027 OVC040 00/M01 A2976 RMK SC2SC5SC2 SLP077=

CYVR;2005-12-02 18:00;METAR CYVR 021800Z 10005KT 8SM -SN FEW012 BKN025 OVC035 00/M01 A2978 RMK SC2SC3SC3 SLP086=

CYVR;2005-12-02 19:00;METAR CYVR 021900Z 11005KT 8SM -SN FEW012 BKN025 OVC035 01/M01 A2980 RMK SC2SC5SC2 PCPN VRY LGT SLP092=

CYVR;2005-12-02 21:00;METAR CYVR 022100Z 10005KT 10SM -SN FEW012 SCT020 OVC040 01/M01 A2982 RMK SC2SC2SC4 PCPN VRY LGT SLP099=

CYVR;2005-12-02 22:00;METAR CYVR 022200Z 08005KT 10SM -SN FEW012 BKN019 OVC040 02/M01 A2984 RMK SC2SC5SC2 PCPN VRY LGT SLP104=

CYVR;2005-12-02 22:37;SPECI CYVR 022237Z 10004KT 10SM FEW012 BKN020 OVC040 02/ RMK SC2SC5SC2=

CYVR;2005-12-02 23:00;METAR CYVR 022300Z 10006KT 10SM FEW012 BKN020 OVC040 02/M00 A2986 RMK SC2SC4SC2 SLP111=

CYVR;2005-12-03 00:00;METAR CYVR 030000Z 10005KT 10SM FEW012 OVC021 01/M01 A2988 RMK SC2SC6 SLP117=

CYVR;2005-12-03 01:00;METAR CYVR 030100Z 11005KT 10SM FEW024 BKN040 OVC060 01/M01 A2990 RMK SC2SC2SC3 SLP125=

CYVR;2005-12-03 02:00;METAR CYVR 030200Z 10004KT 15SM BKN020 BKN060 01/M01 A2991 RMK SC5SC2 SLP129=

CYVR;2005-12-03 03:00;METAR CYVR 030300Z 09004KT 15SM BKN023 BKN060 00/M01 A2993 RMK SC5SC1 SLP136=

CYVR;2005-12-03 04:00;METAR CYVR 030400Z 05003KT 15SM SCT023 BKN060 BKN140 00/M01 A2995 RMK SC2SC1AC1 SLP141=

CYVR;2005-12-03 05:00;METAR CYVR 030500Z 10004KT 15SM FEW023 SCT060 BKN150 00/M01 A2996 RMK SC2SC2AC2 SLP147=

CYVR;2005-12-03 06:00;METAR CYVR 030600Z 12003KT 15SM FEW020 BKN061 OVC130 01/M01 A2998 RMK SC2SC4AC1 SLP154=

CYVR;2005-12-03 07:00;METAR CYVR 030700Z 07002KT 15SM FEW020 BKN061 OVC140 01/M01 A3001 RMK SC1SC5AC1 SLP162=

CYVR;2005-12-03 09:00;METAR CYVR 030900Z 11002KT 15SM FEW020 SCT060 BKN150 00/M01 A3004 RMK SC1SC2AS2 SLP171=

CYVR;2005-12-03 10:00;METAR CYVR 031000Z 09003KT 15SM FEW040 FEW060 OVC150 M00/M01 A3006 RMK SC2SC1AS3 SLP178=

CYVR;2005-12-03 11:00;METAR CYVR 031100Z 12003KT 15SM FEW040 BKN060 OVC150 M00/M01 A3008 RMK SC2SC3AS1 SLP187=

CYVR;2005-12-03 12:00;METAR CYVR 031200Z 09002KT 15SM FEW035 OVC057 M00/M01 A3010 RMK SC2SC5 SLP193=

CYVR;2005-12-03 13:00;METAR CYVR 031300Z 00000KT 15SM FEW035 BKN055 OVC140 00/M00 A3011 RMK SC2SC4AS1 SLP198=

CYVR;2005-12-03 14:00;METAR CYVR 031400Z 00000KT 15SM FEW035 BKN051 BKN150 M00/M01 A3013 RMK SC2SC3AS1 SLP203=

CYVR;2005-12-03 15:00;METAR CYVR 031500Z 00000KT 15SM FEW040 BKN120 00/M02 A3016 RMK SC2AC2 SLP213=

CYVR;2005-12-03 16:00;METAR CYVR 031600Z 12002KT 20SM SCT040 BKN050 BKN120 M00/M02 A3019 RMK SC3SC2AC1 FROIN SLP224=

CYVR;2005-12-03 18:00;METAR CYVR 031800Z 11003KT 20SM FEW022 BKN045 01/M00 A3025 RMK SC2SC5 SLP245=

CYVR;2005-12-03 19:00;METAR CYVR 031900Z 10004KT 20SM FEW025 BKN045 02/00 A3028 RMK SC2SC5 SLP253=

CYVR;2005-12-03 21:00;METAR CYVR 032100Z 12002KT 20SM FEW025 BKN045 03/00 A3031 RMK SC2SC4 SLP263=

CYVR;2005-12-03 22:00;METAR CYVR 032200Z 13002KT 20SM FEW025 BKN040 03/M00 A3032 RMK SC2SC3 SLP267=

CYVR;2005-12-03 23:47;SPECI CYVR 032347Z 10003KT 20SM FEW025 FEW040 FEW220 02/ RMK SC1SC1CI1=

CYVR;2005-12-04 00:00;METAR CYVR 040000Z 12003KT 20SM FEW025 FEW040 FEW220 02/M01 A3036 RMK SC1SC1CI1 SLP281=

CYVR;2005-12-04 01:00;METAR CYVR 040100Z 10005KT 15SM FEW025 FEW040 00/M02 A3038 RMK SC1SC2 SLP288=

CYVR;2005-12-04 02:00;METAR CYVR 040200Z 10006KT 15SM BKN043 M00/M01 A3040 RMK SC7 SLP294=

CYVR;2005-12-04 03:00;METAR CYVR 040300Z 09005KT 15SM OVC042 00/M01 A3043 RMK SC7 SLP303=

CYVR;2005-12-04 04:00;METAR CYVR 040400Z 11006KT 15SM OVC039 00/M01 A3044 RMK SC7 SLP308=

CYVR;2005-12-04 06:00;METAR CYVR 040600Z 09004KT 15SM SCT045 BKN230 M01/M02 A3048 RMK SC2CI1 SLP320=

CYVR;2005-12-04 08:00;METAR CYVR 040800Z 09004KT 15SM SCT045 BKN180 M02/M02 A3050 RMK SC2AC1 SLP329=

CYVR;2005-12-04 09:00;METAR CYVR 040900Z 09005KT 15SM BKN045 BKN180 M01/M02 A3051 RMK SC5AC0 SLP332=

CYVR;2005-12-04 10:00;METAR CYVR 041000Z 09004KT 15SM BKN039 M00/M01 A3052 RMK SC6 FROIN SLP336=

CYVR;2005-12-04 11:00;METAR CYVR 041100Z 09006KT 15SM OVC041 M00/M01 A3053 RMK SC7 SLP340=

CYVR;2005-12-04 12:00;METAR CYVR 041200Z 10004KT 15SM SCT036 OVC042 M00/M01 A3054 RMK SC3SC4 SLP342=

CYVR;2005-12-04 13:00;METAR CYVR 041300Z 09005KT 15SM OVC035 00/M01 A3054 RMK SC7 SLP342=

CYVR;2005-12-04 14:00;METAR CYVR 041400Z 09005KT 15SM BKN036 OVC076 00/M01 A3055 RMK SC5AC2 SLP344=

CYVR;2005-12-04 15:00;METAR CYVR 041500Z 09005KT 15SM BKN027 OVC040 00/M01 A3055 RMK SC5SC3 SLP345=

CYVR;2005-12-04 15:31;SPECI CYVR 041531Z 10008KT 15SM -SN BKN027 OVC040 01/ RMK SC6SC2 PCPN VRY LGT=

CYVR;2005-12-04 15:49;SPECI CYVR 041549Z 10008KT 5SM -SN BKN026 OVC040 01/ RMK SC6SC2=

CYVR;2005-12-04 16:00;METAR CYVR 041600Z 09008KT 2 1/2SM -SN BKN026 OVC040 01/M01 A3056 RMK SC7SC1 SLP347=

CYVR;2005-12-04 16:09;SPECI CYVR 041609Z 09008KT 4SM -SN BKN025 OVC040 01/ RMK SC7SC1=

CYVR;2005-12-04 16:43;SPECI CYVR 041643Z 09010KT 2 1/2SM -SN BKN017 OVC022 01/ RMK SC5SC3=

CYVR;2005-12-04 17:00;METAR CYVR 041700Z 09010KT 4SM -SN BKN017 OVC020 01/M00 A3057 RMK SC6SC2 SLP352=

CYVR;2005-12-04 17:08;SPECI CYVR 041708Z 09012KT 2SM -SN BKN018 OVC022 01/ RMK SC6SC2=

CYVR;2005-12-04 17:36;SPECI CYVR 041736Z 09011KT 4SM -SN SCT018 OVC025 01/ RMK SC3SC5=

CYVR;2005-12-04 17:46;SPECI CYVR 041746Z 09011KT 1 1/2SM -SN SCT018 OVC023 01/ RMK SC3SC5=

CYVR;2005-12-04 18:00;METAR CYVR 041800Z 09008KT 1 1/4SM -SN FEW018 OVC023 00/M00 A3058 RMK SC2SC6 SLP355=

CYVR;2005-12-04 18:18;SPECI CYVR 041818Z 08008KT 3/4SM -SN SCT017 OVC023 00/ RMK SC4SC4=

CYVR;2005-12-04 18:39;SPECI CYVR 041839Z 09009KT 1 1/4SM -SN SCT017 OVC026 00/ RMK SC4SC4=

CYVR;2005-12-04 19:00;METAR CYVR 041900Z 08008KT 1 1/2SM -SN SCT017 OVC027 01/00 A3058 RMK SC4SC4 SLP354=

CYVR;2005-12-04 19:42;SPECI CYVR 041942Z 09010KT 3SM -SN SCT019 OVC027 01/ RMK SC4SC4=

CYVR;2005-12-04 20:13;SPECI CYVR 042013Z 09010KT 2 1/2SM -SN FEW019 OVC027 01/ RMK SC2SC6=

CYVR;2005-12-04 21:00;METAR CYVR 042100Z 08011KT 2SM -SN SCT019 OVC023 01/00 A3056 RMK SC4SC4 SLP348=

CYVR;2005-12-04 21:41;SPECI CYVR 042141Z 08009KT 1 1/4SM -SN SCT015 OVC020 01/ RMK SC3SC5=

CYVR;2005-12-04 23:00;METAR CYVR 042300Z 08010KT 2SM -SN SCT015 OVC023 01/01 A3055 RMK SC3SC5 SLP346=

CYVR;2005-12-04 23:36;SPECI CYVR 042336Z 09009KT 4SM -SN SCT017 OVC025 01/ RMK SC3SC5=

CYVR;2005-12-04 23:55;SPECI CYVR 042355Z 08008KT 5SM -SHRA FEW017 OVC023 01/ RMK SC2SC6=

CYVR;2005-12-05 00:00;METAR CYVR 050000Z 08010KT 5SM -SHRA FEW017 OVC023 01/01 A3055 RMK SC2SC6 SLP344=

CYVR;2005-12-05 02:26;SPECI CYVR 050226Z 07009KT 4SM -DZ BR OVC024 02/ RMK SC8=

CYVR;2005-12-05 03:00;METAR CYVR 050300Z 06010KT 4SM -DZ BR OVC023 02/01 A3053 RMK SC8 VIS LWR N QUAD 3 SM SLP337=

CYVR;2005-12-05 03:16;SPECI CYVR 050316Z 06011KT 6SM -DZ OVC023 02/ RMK SC8 VIS LWR N QUAD 3 SM=

CYVR;2005-12-05 03:50;SPECI CYVR 050350Z 06011KT 7SM -DZ OVC019 02/ RMK SC8 PCPN VRY LGT=

CYVR;2005-12-05 04:00;METAR CYVR 050400Z 07011KT 8SM -DZ BKN019 OVC023 02/01 A3051 RMK SC6SC2 PCPN VRY LGT SLP333=

CYVR;2005-12-05 04:10;SPECI CYVR 050410Z 06010KT 10SM BKN019 OVC023 02/ RMK SC6SC2=

CYVR;2005-12-05 04:44;SPECI CYVR 050444Z 06008KT 10SM -DZ OVC019 02/ RMK SC8 PCPN VRY LGT=

CYVR;2005-12-05 05:55;SPECI CYVR 050555Z 06009KT 12SM BKN017 OVC020 02/ RMK SC6SC2=

CYVR;2005-12-05 06:00;METAR CYVR 050600Z 07008KT 12SM BKN017 OVC020 02/02 A3051 RMK SC6SC2 SLP332=

CYVR;2005-12-05 06:48;SPECI CYVR 050648Z 05010KT 12SM OVC015 02/ RMK SC8=

CYVR;2005-12-05 07:14;SPECI CYVR 050714Z 06008KT 15SM -DZ OVC015 02/ RMK SC8 VIS N QUAD 12 SM=

CYVR;2005-12-05 08:00;METAR CYVR 050800Z 08006KT 15SM BKN011 OVC015 02/02 A3052 RMK SC6SC2 SLP334=

CYVR;2005-12-05 10:00;METAR CYVR 051000Z 08008KT 15SM -DZ BKN010 OVC013 03/02 A3049 RMK SC6SC2 PCPN VRY LGT SLP326=

CYVR;2005-12-05 11:00;METAR CYVR 051100Z 07007KT 15SM OVC009 03/02 A3049 RMK SC8 SLP324=

CYVR;2005-12-05 12:00;METAR CYVR 051200Z 07005KT 15SM OVC008 03/02 A3047 RMK SC8 SLP318=

CYVR;2005-12-05 13:00;METAR CYVR 051300Z 09006KT 15SM OVC008 03/02 A3045 RMK SC8 VIS N QUAD 10 SM SLP313=

CYVR;2005-12-05 14:00;METAR CYVR 051400Z 08004KT 15SM OVC008 03/02 A3045 RMK SC8 VIS N QUAD 10 SM SLP311=

CYVR;2005-12-05 14:56;SPECI CYVR 051456Z 04003KT 12SM OVC010 03/ RMK SC8=

CYVR;2005-12-05 15:00;METAR CYVR 051500Z 03003KT 12SM BKN010 OVC014 03/02 A3045 RMK SC6SC2 SLP311=

CYVR;2005-12-05 16:00;METAR CYVR 051600Z 00000KT 4SM BR BKN010 OVC014 04/03 A3044 RMK SC7SC1 SLP308=

CYVR;2005-12-05 16:53;SPECI CYVR 051653Z 19002KT 7SM BKN009 OVC060 04/ RMK SC6SC2=

CYVR;2005-12-05 17:00;METAR CYVR 051700Z 00000KT 7SM BKN008 OVC065 04/03 A3044 RMK SC6SC2 SLP308=

CYVR;2005-12-05 17:24;SPECI CYVR 051724Z 00000KT 7SM FEW008 SCT017 OVC071 04/ RMK SC2SC2AC4=

CYVR;2005-12-05 18:00;METAR CYVR 051800Z 23006KT 7SM FEW008 SCT015 OVC070 04/03 A3045 RMK SC2SC2AC5 SLP310=

CYVR;2005-12-05 18:11;SPECI CYVR 051811Z 24005KT 7SM FEW008 BKN012 BKN070 04/ RMK SC2SC2AC2=

CYVR;2005-12-05 19:00;METAR CYVR 051900Z 24007KT 7SM BKN009 OVC070 05/04 A3044 RMK SC7AC1 SLP308=

CYVR;2005-12-05 19:55;SPECI CYVR 051955Z 23006KT 7SM -SHRA BKN008 OVC014 05/ RMK SC6SC2=

CYVR;2005-12-05 20:00;METAR CYVR 052000Z 23005KT 7SM -SHRA BKN008 OVC014 05/04 A3043 RMK SC6SC2 PCPN VRY LGT SLP306=

CYVR;2005-12-05 20:19;SPECI CYVR 052019Z 22004KT 15SM -SHRA BKN010 OVC015 05/ RMK SC6SC2 SHRA VRY LGT / VIS LWR N WUAD 7=

CYVR;2005-12-05 20:30;SPECI CYVR 052030Z 23005KT 15SM BKN011 OVC015 05/ RMK SC7SC1 VIS LWR N QUAD 7=

CYVR;2005-12-05 20:52;SPECI CYVR 052052Z 23005KT 15SM -SHRA BKN010 OVC015 05/ RMK SC7SC1 PCPN VRY LGT=

CYVR;2005-12-05 21:00;METAR CYVR 052100Z 24006KT 15SM -SHRA BKN010 OVC015 05/04 A3042 RMK SC7SC1 PCPN VRY LGT / VIS LWR N QUAD 7 SLP300=

CYVR;2005-12-05 21:13;SPECI CYVR 052113Z 22007KT 10SM BKN010 OVC015 05/ RMK SC7SC1=

CYVR;2005-12-05 22:00;METAR CYVR 052200Z 23004KT 15SM -SHRA OVC010 05/04 A3042 RMK SC8 VIS N QUAD 4 SLP300=

CYVR;2005-12-05 23:00;METAR CYVR 052300Z 25003KT 10SM -SHRA BKN010 OVC015 05/04 A3041 RMK SC7SC1 PCPN VRY LGT / VIS N QUAD 4 SLP299=

CYVR;2005-12-05 23:25;SPECI CYVR 052325Z 28003KT 10SM -SHRA SCT010 OVC015 05/ RMK SC4SC4 PCPN VRY LGT / VIS N QUAD 3=

CYVR;2005-12-05 23:48;SPECI CYVR 052348Z 05003KT 4SM -SHRA BR BKN009 OVC015 05/ RMK SC6SC2=

CYVR;2005-12-06 00:00;METAR CYVR 060000Z 08008KT 2SM -SHRA BR SCT009 OVC014 04/04 A3042 RMK SC4SC4 SLP302=

CYVR;2005-12-06 00:18;SPECI CYVR 060018Z 09008KT 2SM -SHRA BR BKN007 OVC013 04/ RMK SC6SC2=

CYVR;2005-12-06 00:37;SPECI CYVR 060037Z 11006KT 3SM -SHRA BR BKN008 OVC013 04/ RMK SC6SC2=

CYVR;2005-12-06 00:55;SPECI CYVR 060055Z 11005KT 3SM -DZ BR BKN009 OVC015 04/ RMK SC6SC2=

CYVR;2005-12-06 01:00;METAR CYVR 060100Z 10006KT 3SM -DZ BR BKN009 OVC013 04/04 A3042 RMK SC6SC2 SLP301=

CYVR;2005-12-06 02:00;METAR CYVR 060200Z 09007KT 3SM -DZ BR SCT004 OVC009 04/04 A3042 RMK SC3SC5 SLP302=

CYVR;2005-12-06 02:17;SPECI CYVR 060217Z 09005KT 2 1/2SM -DZ BR SCT004 OVC010 04/ RMK SC3SC5 PCPN VRY LGT=

CYVR;2005-12-06 02:51;SPECI CYVR 060251Z 09006KT 2 1/2SM -DZ BR BKN005 OVC010 04/ RMK ST5SC3 VIS N QUAD 2 SM=

CYVR;2005-12-06 03:00;METAR CYVR 060300Z 10006KT 2 1/2SM -DZ BR SCT005 OVC009 04/04 A3043 RMK ST3SC5 SLP303=

CYVR;2005-12-06 03:51;SPECI CYVR 060351Z 10007KT 2 1/2SM -DZ BR BKN004 OVC008 04/ RMK ST5SC3=

CYVR;2005-12-06 04:00;METAR CYVR 060400Z 09007KT 2 1/2SM -DZ BR BKN003 OVC008 04/04 A3043 RMK ST5SC3 VIS N QUAD 2 SM SLP305=

CYVR;2005-12-06 04:07;SPECI CYVR 060407Z 09006KT 2SM -DZ BR BKN004 OVC008 04/ RMK ST5SC3=

CYVR;2005-12-06 04:16;SPECI CYVR 060416Z 11006KT 2SM -DZ BR SCT004 OVC007 04/ RMK ST4SC4 VIS N QUAD 11/2 SM=

CYVR;2005-12-06 05:00;METAR CYVR 060500Z 09005KT 2SM -DZ BR FEW004 SCT007 OVC011 04/04 A3043 RMK ST2SC2SC4 VIS N QUAD 11/2 SM SLP305=

CYVR;2005-12-06 05:08;SPECI CYVR 060508Z 11005KT 2SM -DZ BR BKN004 OVC010 04/ RMK ST5SC3=

CYVR;2005-12-06 05:17;SPECI CYVR 060517Z 09007KT 2SM -DZ BR SCT004 OVC010 04/ RMK ST4SC4=

CYVR;2005-12-06 05:40;SPECI CYVR 060540Z 10006KT 3SM -DZ BR SCT004 OVC011 04/ RMK ST4SC4=

CYVR;2005-12-06 05:50;SPECI CYVR 060550Z 10005KT 4SM BR FEW004 OVC012 04/ RMK ST2SC6=

CYVR;2005-12-06 06:00;METAR CYVR 060600Z 10006KT 5SM -DZ BR FEW004 OVC013 04/04 A3043 RMK SF2SC6 SLP305=

CYVR;2005-12-06 06:25;SPECI CYVR 060625Z 10006KT 7SM FEW004 SCT013 OVC029 04/ RMK SF2SC2SC4=

CYVR;2005-12-06 07:00;METAR CYVR 060700Z 07005KT 8SM FEW004 BKN012 OVC025 04/03 A3043 RMK SF2SC3SC3 SLP306=

CYVR;2005-12-06 07:34;SPECI CYVR 060734Z 11007KT 10SM FEW004 BKN016 OVC022 04/ RMK SF2SC5SC2=

CYVR;2005-12-06 08:00;METAR CYVR 060800Z 11006KT 15SM FEW004 SCT016 OVC036 04/03 A3044 RMK SF2SC2SC4 SLP308=

CYVR;2005-12-06 10:00;METAR CYVR 061000Z 00000KT 15SM FEW004 OVC043 04/03 A3044 RMK SF2SC6 SLP309=

CYVR;2005-12-06 11:00;METAR CYVR 061100Z 09003KT 15SM OVC052 03/02 A3044 RMK SC7 SLP308=

CYVR;2005-12-06 12:00;METAR CYVR 061200Z 10002KT 15SM SCT045 02/02 A3043 RMK SC3 SLP305=

CYVR;2005-12-06 13:00;METAR CYVR 061300Z 00000KT 15SM BKN051 02/02 A3043 RMK SC6 SLP304=

CYVR;2005-12-06 14:00;METAR CYVR 061400Z 00000KT 15SM FEW010 BKN052 01/01 A3042 RMK SC2SC4 VIS N QUAD 12 SM SLP302=

CYVR;2005-12-06 15:00;METAR CYVR 061500Z 11006KT 15SM FEW010 OVC052 02/02 A3043 RMK SC1SC7 SLP303=

CYVR;2005-12-06 16:00;METAR CYVR 061600Z 11004KT 15SM PRFG OVC051 03/02 A3041 RMK SC8 FOG BANK N SLP299=

CYVR;2005-12-06 20:00;METAR CYVR 062000Z 07002KT 15SM FEW015 SCT054 OVC220 05/03 A3040 RMK SC1SC3CI2 SLP295=

CYVR;2005-12-06 21:00;METAR CYVR 062100Z 33002KT 15SM SCT013 BKN054 OVC220 06/03 A3038 RMK SC3SC3CI2 SLP287=

CYVR;2005-12-06 22:00;METAR CYVR 062200Z 29002KT 15SM SCT015 BKN054 OVC220 05/04 A3037 RMK SC4SC3CI1 SLP285=

CYVR;2005-12-06 23:00;METAR CYVR 062300Z 22003KT 15SM SCT015 BKN054 OVC210 05/03 A3037 RMK SC3SC2CI2 SLP284=

CYVR;2005-12-07 00:00;METAR CYVR 070000Z 22002KT 15SM FEW013 SCT055 OVC240 04/03 A3036 RMK SC2SC2CI3 SLP281=

CYVR;2005-12-07 01:00;METAR CYVR 070100Z 19002KT 15SM SCT011 BKN055 OVC240 04/03 A3036 RMK SC3SC2CI3 SLP280=

CYVR;2005-12-07 03:00;METAR CYVR 070300Z 11003KT 15SM FEW010 BKN240 03/02 A3033 RMK SF1CI6 SLP271=

CYVR;2005-12-07 03:56;SPECI CYVR 070356Z 10003KT 15SM PRFG FEW010 BKN240 02/ RMK SF2CI2 F BNK N OVR WTR=

CYVR;2005-12-07 04:00;METAR CYVR 070400Z 09004KT 15SM PRFG FEW010 BKN240 02/02 A3032 RMK SF2CI2 F BNK N OVR WTR SLP267=

CYVR;2005-12-07 05:00;METAR CYVR 070500Z 00000KT 15SM MIFG FEW008 BKN230 03/03 A3031 RMK SF2CI2 F BNK N SLP264=

CYVR;2005-12-07 06:52;SPECI CYVR 070652Z 00000KT 15SM PRFG FEW010 BKN210 01/ RMK SF1CI4 F BNK N=

CYVR;2005-12-07 07:00;METAR CYVR 070700Z 00000KT 15SM PRFG FEW180 BKN210 02/02 A3030 RMK AC2CS3 F BNK N SLP261=

CYVR;2005-12-07 07:06;SPECI CYVR 070706Z 00000KT 15SM MIFG FEW180 BKN210 02/ RMK AC2CS3=

CYVR;2005-12-07 08:00;METAR CYVR 070800Z 17003KT 15SM PRFG FEW180 BKN210 02/02 A3029 RMK AC1CS5 F BNK N SLP258=

CYVR;2005-12-07 08:23;SPECI CYVR 070823Z 12002KT 15SM MIFG FEW180 BKN210 02/ RMK AC1CS5=

CYVR;2005-12-07 09:23;SPECI CYVR 070923Z 19004KT 15SM PRFG FEW180 BKN220 02/ RMK AC2CS4 F BNK N=

CYVR;2005-12-07 10:00;METAR CYVR 071000Z 09002KT 15SM PRFG SCT190 BKN220 02/01 A3027 RMK AC3CS2 SLP252=

CYVR;2005-12-07 10:08;SPECI CYVR 071008Z 11002KT 15SM SCT190 BKN210 02/ RMK AC3CS2=

CYVR;2005-12-07 11:00;METAR CYVR 071100Z 05005KT 15SM SCT180 BKN230 01/00 A3028 RMK AC3CS1 F BNK N OVR WTR SLP253=

CYVR;2005-12-07 12:00;METAR CYVR 071200Z 09003KT 15SM BKN170 BKN230 01/01 A3027 RMK AC5CS1 SLP252=

CYVR;2005-12-07 13:00;METAR CYVR 071300Z 11002KT 15SM BKN170 02/01 A3027 RMK AC6 SLP249=

CYVR;2005-12-07 14:00;METAR CYVR 071400Z 05003KT 15SM BKN110 OVC130 01/01 A3027 RMK AC5AC2 SLP249=

CYVR;2005-12-07 15:00;METAR CYVR 071500Z 16004KT 15SM FEW016 BKN110 OVC170 02/01 A3026 RMK SC2AC5AC2 SLP247=

CYVR;2005-12-07 16:00;METAR CYVR 071600Z 12006KT 15SM FEW015 OVC110 02/01 A3027 RMK SC2AC6 SLP249=

CYVR;2005-12-07 17:00;METAR CYVR 071700Z 13004KT 15SM FEW015 BKN069 OVC110 02/01 A3027 RMK SC2AC3AC2 SLP251=

CYVR;2005-12-07 18:00;METAR CYVR 071800Z 11003KT 15SM FEW067 BKN110 OVC180 03/02 A3028 RMK AC2AC6AC1 SLP254=

CYVR;2005-12-07 19:00;METAR CYVR 071900Z 10003KT 15SM FEW067 BKN110 04/02 A3027 RMK AC2AC4 SLP251=

CYVR;2005-12-07 21:00;METAR CYVR 072100Z 14003KT 15SM FEW070 BKN093 OVC210 04/02 A3025 RMK AC2AC5CI1 SLP243=

CYVR;2005-12-07 22:00;METAR CYVR 072200Z 10003KT 15SM FEW050 FEW080 BKN100 04/02 A3024 RMK SC1AC2AC4 SLP239=

CYVR;2005-12-07 23:00;METAR CYVR 072300Z 16003KT 12SM FEW050 OVC078 04/02 A3024 RMK SC2AC6 SLP240=

CYVR;2005-12-08 00:00;METAR CYVR 080000Z 00000KT 12SM BKN073 OVC100 04/02 A3024 RMK AC6AC2 SLP239=

CYVR;2005-12-08 01:00;METAR CYVR 080100Z 00000KT 15SM BKN077 OVC110 04/01 A3024 RMK AC6AC2 SLP242=

CYVR;2005-12-08 02:00;METAR CYVR 080200Z 14002KT 15SM FEW060 OVC075 04/01 A3024 RMK SC2AC6 SLP240=

CYVR;2005-12-08 03:00;METAR CYVR 080300Z 15003KT 15SM FEW025 OVC068 04/01 A3024 RMK SC2AC6 SLP239=

CYVR;2005-12-08 04:00;METAR CYVR 080400Z 13005KT 15SM SCT064 03/00 A3026 RMK SC2 SLP246=

CYVR;2005-12-08 05:00;METAR CYVR 080500Z 20002KT 15SM BKN014 BKN065 01/M01 A3027 RMK SC3SC1 SLP251=

CYVR;2005-12-08 05:37;SPECI CYVR 080537Z 00000KT 15SM BKN015 OVC065 02/ RMK SC6SC1=

CYVR;2005-12-08 06:00;METAR CYVR 080600Z 00000KT 15SM SCT015 SCT065 02/M00 A3027 RMK SC2SC1 SLP251=

CYVR;2005-12-08 09:00;METAR CYVR 080900Z 00000KT 15SM SCT015 BKN018 01/00 A3031 RMK SC3SC2 SLP263=

CYVR;2005-12-08 10:00;METAR CYVR 081000Z 12005KT 15SM SCT020 BKN045 01/01 A3031 RMK SC3SC3 SLP263=

CYVR;2005-12-08 11:00;METAR CYVR 081100Z 10007KT 15SM BKN019 01/00 A3032 RMK SC6 SLP266=

CYVR;2005-12-08 11:54;SPECI CYVR 081154Z 08003KT 15SM PRFG OVC019 01/ RMK SC8 F BNK N OVR WTR=

CYVR;2005-12-08 12:00;METAR CYVR 081200Z 09004KT 15SM PRFG OVC018 01/00 A3032 RMK SC8 F BNK N OVR WTR SLP267=

CYVR;2005-12-08 13:00;METAR CYVR 081300Z 09004KT 12SM PRFG OVC017 00/00 A3032 RMK SC8 F BNK N VIS N QUAD LWR 1 SM SLP267=

CYVR;2005-12-08 14:00;METAR CYVR 081400Z 09004KT 12SM MIFG FEW017 M00/M00 A3032 RMK SC2 F BNK N VIS LWR 1 SM SLP269=

CYVR;2005-12-08 14:09;SPECI CYVR 081409Z 08003KT 6SM BR FEW017 M01/ RMK SC2 VIS NW - NE QUAD LWR 1 SM=

CYVR;2005-12-08 14:53;SPECI CYVR 081453Z 09004KT 2SM BR SCT018 M01/ RMK FG2SC2 VIS N 3/4=

CYVR;2005-12-08 15:00;METAR CYVR 081500Z 09004KT 1SM BR SKC M01/M01 A3033 RMK FG7 VIS N 1/2 SLP272=

CYVR;2005-12-08 15:32;SPECI CYVR 081532Z 08003KT 1/2SM FZFG SKC M00/ RMK FG7 VIS N 1/4=

CYVR;2005-12-08 15:54;SPECI CYVR 081554Z 12004KT 1/4SM FZFG SKC M00/ RMK FG7=

CYVR;2005-12-08 16:00;METAR CYVR 081600Z 12004KT 1/4SM FZFG VV003 00/M00 A3034 RMK FG8 BLN DSAPRD 500 FT SLP275=

CYVR;2005-12-08 16:16;SPECI CYVR 081616Z 11005KT 1/8SM FZFG SKC M00/ RMK FG7=

CYVR;2005-12-08 16:27;SPECI CYVR 081627Z 10005KT 1/8SM FZFG OVC007 00/ RMK FG7SF1=

CYVR;2005-12-08 16:36;SPECI CYVR 081636Z 09004KT 1/4SM FZFG BKN007 OVC020 00/ RMK FG5SF2SC1 VIS N 1/8=

CYVR;2005-12-08 17:00;METAR CYVR 081700Z 11004KT 1/4SM FG OVC007 00/00 A3037 RMK FG6SF2 VIS N 1/8 SLP284=

CYVR;2005-12-08 18:00;METAR CYVR 081800Z 11006KT 1/4SM FG BKN007 OVC020 00/00 A3038 RMK FG5SF1SC2 VIS N 1/8 SLP287=

CYVR;2005-12-08 18:54;SPECI CYVR 081854Z 11006KT 3/4SM BR BKN007 OVC021 01/ RMK FG4SF1SC2 VIS N 3/8=

CYVR;2005-12-08 19:00;METAR CYVR 081900Z 10006KT 3/4SM BR OVC020 01/01 A3039 RMK FG5SC2 VIS N 3/8 SLP290=

CYVR;2005-12-08 19:17;SPECI CYVR 081917Z 10006KT 1SM BR BKN006 OVC020 01/ RMK FG4SF2SC2=

CYVR;2005-12-08 19:52;SPECI CYVR 081952Z 10005KT 2SM BR BKN006 OVC019 02/ RMK FG4ST2SC2=

CYVR;2005-12-08 20:00;METAR CYVR 082000Z 10005KT 2 1/2SM BR BKN006 OVC020 02/02 A3038 RMK FG2ST2SC2 SLP289=

CYVR;2005-12-08 20:31;SPECI CYVR 082031Z 13005KT 3SM BR FEW005 SCT020 OVC240 03/ RMK FG1SF1SC2CI1 VIS N 2=

CYVR;2005-12-08 21:00;METAR CYVR 082100Z 11003KT 4SM BR FEW006 BKN020 OVC240 03/02 A3037 RMK SF2SC4CI1 VIS N 21/2 SLP286=

CYVR;2005-12-08 22:00;METAR CYVR 082200Z 13007KT 7SM FEW020 FEW200 BKN240 04/02 A3037 RMK SC2CC1CI1 SLP283=

CYVR;2005-12-08 23:00;METAR CYVR 082300Z 00000KT 12SM FEW020 BKN140 OVC210 04/02 A3037 RMK SC2AC3CI2 VIS N LWR SLP284=

CYVR;2005-12-09 00:00;METAR CYVR 090000Z 00000KT 12SM FEW020 SCT100 BKN200 OVC240 04/02 A3038 RMK SC1AC2CC2CI2 VIS N LWR SLP287=

CYVR;2005-12-09 01:00;METAR CYVR 090100Z 10004KT 10SM FEW020 SCT100 BKN200 OVC240 02/01 A3038 RMK SC1AC2CC2CI2 SLP288=

CYVR;2005-12-09 02:00;METAR CYVR 090200Z 11004KT 12SM PRFG FEW020 SCT100 OVC240 02/01 A3040 RMK SC1AC2CI5 FG BANK N VIS 6 SLP295=

CYVR;2005-12-09 02:45;SPECI CYVR 090245Z 10007KT 6SM BR SCT085 OVC140 02/ RMK AC3AC2 VIS LWR N QUAD 3 SM=

CYVR;2005-12-09 03:00;METAR CYVR 090300Z 10009KT 6SM BR SCT085 BKN130 OVC140 02/01 A3038 RMK AC3AC3AC2 VIS LWR N QUAD 3 SM SLP287=

CYVR;2005-12-09 03:15;SPECI CYVR 090315Z 10006KT 8SM PRFG FEW085 BKN130 OVC140 02/ RMK AC2AC2AC1 F BNK NW - NE OVR WTR=

CYVR;2005-12-09 03:23;SPECI CYVR 090323Z 11006KT 6SM BR FEW085 SCT130 OVC160 02/ RMK AC2AC2AC2 VIS N QUAD 3 SM=

CYVR;2005-12-09 03:47;SPECI CYVR 090347Z 10005KT 8SM PRFG SCT085 OVC130 02/ RMK AC3AC3 VIS LWR NW - NE 4 SM=

CYVR;2005-12-09 05:00;METAR CYVR 090500Z 10007KT 15SM PRFG FEW085 OVC120 02/01 A3039 RMK AC2AC5 SLP290=

CYVR;2005-12-09 05:51;SPECI CYVR 090551Z 11005KT 15SM FEW067 BKN120 02/ RMK AC2AC2=

CYVR;2005-12-09 06:00;METAR CYVR 090600Z 12004KT 15SM FEW067 BKN120 BKN190 02/01 A3041 RMK AC2AC3AC1 SLP299=

CYVR;2005-12-09 09:00;METAR CYVR 090900Z 00000KT 15SM PRFG FEW100 01/00 A3045 RMK AC1 SLP310=

CYVR;2005-12-09 10:00;METAR CYVR 091000Z 04002KT 15SM MIFG FEW100 00/00 A3045 RMK AC1 SLP310=

CYVR;2005-12-09 11:00;METAR CYVR 091100Z 08004KT 15SM MIFG FEW100 00/00 A3044 RMK AC1 SLP308=

CYVR;2005-12-09 11:22;SPECI CYVR 091122Z 08003KT 15SM PRFG FEW100 M00/ RMK AC1 F BNK N=

CYVR;2005-12-09 12:00;METAR CYVR 091200Z 05002KT 15SM MIFG SCT100 00/00 A3046 RMK AC2 SLP315=

CYVR;2005-12-09 13:00;METAR CYVR 091300Z 00000KT 15SM MIFG BKN100 01/00 A3047 RMK AC4 SLP319=

CYVR;2005-12-09 15:00;METAR CYVR 091500Z 00000KT 15SM FEW100 FEW220 M01/M01 A3049 RMK AC1CI1 SLP326=

CYVR;2005-12-09 16:00;METAR CYVR 091600Z 14002KT 15SM MIFG FEW100 FEW220 M00/M01 A3050 RMK AC1CI1 SLP330=

CYVR;2005-12-09 17:00;METAR CYVR 091700Z 08002KT 15SM FEW100 OVC220 M00/M00 A3052 RMK AC1CI1 SLP334=

CYVR;2005-12-09 18:00;METAR CYVR 091800Z 00000KT 15SM SCT100 OVC210 03/02 A3053 RMK AC4CI1 SLP339=

CYVR;2005-12-09 20:00;METAR CYVR 092000Z 31009KT 20SM SCT120 BKN200 BKN230 06/02 A3051 RMK AC3CC1CI1 SLP331=

CYVR;2005-12-09 21:00;METAR CYVR 092100Z 29006KT 20SM FEW120 FEW200 BKN240 05/03 A3051 RMK AC1CC1CI5 SLP331=

CYVR;2005-12-09 22:00;METAR CYVR 092200Z 30006KT 20SM FEW120 BKN180 OVC240 05/03 A3051 RMK AC2AC2CI2 SLP331=

CYVR;2005-12-09 23:00;METAR CYVR 092300Z 29008KT 20SM SCT180 OVC240 05/03 A3051 RMK AC4CI3 SLP331=

CYVR;2005-12-10 00:00;METAR CYVR 100000Z 28006KT 20SM FEW080 SCT170 OVC220 05/03 A3049 RMK AC2AC2CI2 SLP326=

CYVR;2005-12-10 01:00;METAR CYVR 100100Z 31006KT 20SM FEW080 BKN160 OVC220 04/03 A3049 RMK AC2AC3CI2 SLP326=

CYVR;2005-12-10 02:00;METAR CYVR 100200Z 34003KT 20SM FEW080 BKN190 OVC240 03/03 A3049 RMK AC2AC4CI2 SLP325=

CYVR;2005-12-10 03:00;METAR CYVR 100300Z 00000KT 20SM FEW080 FEW150 BKN240 04/02 A3049 RMK AC2AC1CI4 SLP326=

CYVR;2005-12-10 04:00;METAR CYVR 100400Z 01002KT 20SM FEW090 FEW150 BKN240 03/02 A3049 RMK AC2AC1CI4 SLP324=

CYVR;2005-12-10 06:00;METAR CYVR 100600Z 08004KT 20SM FEW100 BKN210 02/01 A3049 RMK AC2CI3 SLP326=

CYVR;2005-12-10 09:00;METAR CYVR 100900Z 08002KT 15SM FEW060 FEW080 BKN220 02/02 A3050 RMK SC1AC2CI5 SLP329=

CYVR;2005-12-10 10:00;METAR CYVR 101000Z 00000KT 15SM FEW050 FEW080 BKN210 02/01 A3050 RMK SC1AC1CI6 SLP328=

CYVR;2005-12-10 12:00;METAR CYVR 101200Z 00000KT 15SM MIFG FEW070 BKN220 01/01 A3048 RMK AC1CI6 SLP322=

CYVR;2005-12-10 13:00;METAR CYVR 101300Z 00000KT 15SM MIFG FEW070 FEW160 BKN240 01/01 A3047 RMK AC1AC1CI6 VIS LWR NE SLP319=

CYVR;2005-12-10 14:00;METAR CYVR 101400Z 20003KT 15SM MIFG FEW150 OVC240 02/02 A3046 RMK AC2CI6 VIS LWR NE - E SLP316=

CYVR;2005-12-10 15:00;METAR CYVR 101500Z 00000KT 15SM MIFG FEW070 OVC190 01/01 A3045 RMK AC2AC6 SLP312=

CYVR;2005-12-10 16:00;METAR CYVR 101600Z 14002KT 15SM FEW070 OVC190 02/02 A3044 RMK AC2AC6 SLP308=

CYVR;2005-12-10 17:00;METAR CYVR 101700Z 11003KT 30SM BKN190 02/01 A3044 RMK AC6 SLP307=

CYVR;2005-12-10 18:00;METAR CYVR 101800Z 11003KT 30SM BKN190 03/03 A3043 RMK AC6 SLP303=

CYVR;2005-12-10 19:00;METAR CYVR 101900Z 00000KT 30SM FEW180 BKN210 05/03 A3041 RMK AC2CI1 SLP298=

CYVR;2005-12-10 20:00;METAR CYVR 102000Z 30003KT 30SM FEW180 BKN210 06/05 A3039 RMK AC2CI1 SLP291=

CYVR;2005-12-10 21:00;METAR CYVR 102100Z 30007KT 30SM FEW180 BKN220 06/05 A3037 RMK AC1CI2 SLP284=

CYVR;2005-12-10 22:00;METAR CYVR 102200Z 30008KT 30SM FEW050 BKN220 06/05 A3035 RMK SC1CI2 SLP277=

CYVR;2005-12-11 00:00;METAR CYVR 110000Z 31006KT 30SM FEW070 OVC220 05/04 A3032 RMK AC1CI1 SLP267=

CYVR;2005-12-11 01:00;METAR CYVR 110100Z 32004KT 30SM BKN240 04/03 A3030 RMK CI1 SLP262=

CYVR;2005-12-11 02:00;METAR CYVR 110200Z 33004KT 30SM FEW240 03/03 A3029 RMK CI0 SLP258=

CYVR;2005-12-11 03:00;METAR CYVR 110300Z 32002KT 30SM MIFG FEW240 02/02 A3029 RMK CI1 SLP256=

CYVR;2005-12-11 03:12;SPECI CYVR 110312Z 32003KT 30SM MIFG FEW240 01/ RMK CI1=

CYVR;2005-12-11 04:00;METAR CYVR 110400Z 00000KT 20SM MIFG FEW090 FEW210 02/02 A3028 RMK AC1CI1 SLP253=

CYVR;2005-12-11 05:00;METAR CYVR 110500Z 00000KT 15SM MIFG BKN004 BKN210 01/01 A3027 RMK SC5CI1 SLP249=

CYVR;2005-12-11 05:22;SPECI CYVR 110522Z 00000KT 6SM BR OVC003 02/ RMK SC8 VIS LWR N=

CYVR;2005-12-11 05:27;SPECI CYVR 110527Z 00000KT 3SM BR OVC003 02/ RMK FG3SC5=

CYVR;2005-12-11 05:33;SPECI CYVR 110533Z 31004KT 4SM BR MIFG OVC003 02/ RMK SC8=

CYVR;2005-12-11 05:41;SPECI CYVR 110541Z 32003KT 1/4SM FG VV002 02/ RMK FG8=

CYVR;2005-12-11 05:42;SPECI CYVR 110542Z 32004KT 3SM BR BKN002 OVC005 03/ RMK SC5SC3=

CYVR;2005-12-11 05:43;SPECI CYVR 110543Z 32004KT 1 1/2SM BR BKN002 OVC005 03/ RMK SC5SC3=

CYVR;2005-12-11 05:45;SPECI CYVR 110545Z 32004KT 1SM BR BKN002 OVC005 03/ RMK SC5SC3=

CYVR;2005-12-11 05:46;SPECI CYVR 110546Z 33004KT 3/4SM BR BKN002 OVC005 02/ RMK SC5SC3=

CYVR;2005-12-11 05:47;SPECI CYVR 110547Z 33004KT 1/2SM FG BKN002 OVC005 02/ RMK SC5SC3=

CYVR;2005-12-11 06:00;METAR CYVR 110600Z 30003KT 1/4SM FG VV002 02/02 A3027 RMK FG8 SLP249=

CYVR;2005-12-11 06:04;SPECI CYVR 110604Z 30004KT 1/8SM FG VV001 02/ RMK FG8=

CYVR;2005-12-11 06:37;SPECI CYVR 110637Z 33004KT 1/8SM -DZ FG VV001 02/ RMK FG8=

CYVR;2005-12-11 08:00;METAR CYVR 110800Z 34002KT 1/8SM -DZ FG VV001 03/03 A3025 RMK FG8 SLP243=

CYVR;2005-12-11 09:00;METAR CYVR 110900Z 00000KT 1/8SM -DZ FG VV001 03/03 A3024 RMK FG8 SLP241=

CYVR;2005-12-11 09:34;SPECI CYVR 110934Z 06002KT 1/8SM -DZ FG VV001 02/ RMK FG8=

CYVR;2005-12-11 09:46;SPECI CYVR 110946Z 00000KT 1/4SM -DZ FG VV002 02/ RMK FG8=

CYVR;2005-12-11 09:55;SPECI CYVR 110955Z 00000KT 1/8SM -DZ FG VV002 02/ RMK FG8=

CYVR;2005-12-11 10:00;METAR CYVR 111000Z 09003KT 1/8SM -DZ FG VV002 02/02 A3024 RMK FG8 SLP240=

CYVR;2005-12-11 10:12;SPECI CYVR 111012Z 11002KT 1/8SM -DZ FG VV001 02/ RMK FG8=

CYVR;2005-12-11 11:00;METAR CYVR 111100Z 11004KT 1/8SM -DZ FG VV001 01/01 A3023 RMK FG8 SLP236=

CYVR;2005-12-11 12:00;METAR CYVR 111200Z 10003KT 1/8SM -DZ FG VV001 01/01 A3021 RMK FG8 SLP231=

CYVR;2005-12-11 13:00;METAR CYVR 111300Z 00000KT 1/8SM -DZ FG VV001 02/02 A3020 RMK FG8 SLP227=

CYVR;2005-12-11 14:00;METAR CYVR 111400Z 32002KT 1/8SM -DZ FG VV001 02/02 A3019 RMK FG8 PCPN VRY LGT SLP225=

CYVR;2005-12-11 14:21;SPECI CYVR 111421Z 00000KT 1/8SM FG VV001 02/ RMK FG8=

CYVR;2005-12-11 15:00;METAR CYVR 111500Z 36002KT 1/8SM FG VV001 03/03 A3019 RMK FG8 SLP224=

CYVR;2005-12-11 16:00;METAR CYVR 111600Z 11003KT 1/8SM FG VV001 02/02 A3019 RMK FG8 SLP223=

CYVR;2005-12-11 17:00;METAR CYVR 111700Z 10007KT 1/8SM FZFG VV001 M00/M01 A3019 RMK FG8 SLP224=

CYVR;2005-12-11 17:10;SPECI CYVR 111710Z 09007KT 1/4SM FZFG VV001 M00/ RMK FG8=

CYVR;2005-12-11 19:45;SPECI CYVR 111945Z 00000KT 1/4SM FG SKC 02/ RMK FG6=

CYVR;2005-12-11 20:00;METAR CYVR 112000Z 20002KT 1/2SM FG VV003 02/02 A3019 RMK FG8 SLP225=

CYVR;2005-12-11 20:30;SPECI CYVR 112030Z 35003KT 1SM BR BKN005 02/ RMK FG5ST2=

CYVR;2005-12-11 21:00;METAR CYVR 112100Z 03003KT 1SM BR BKN004 03/03 A3018 RMK FG6ST1 SLP220=

CYVR;2005-12-11 21:30;SPECI CYVR 112130Z 09004KT 3SM BR SCT004 BKN220 03/ RMK FG3ST1CI1=

CYVR;2005-12-11 21:44;SPECI CYVR 112144Z 11003KT 15SM SCT003 BKN220 03/ RMK ST3CI1 VIS LWR W-NW=

CYVR;2005-12-11 22:00;METAR CYVR 112200Z 12004KT 20SM FEW009 BKN220 04/04 A3017 RMK ST2CI2 SLP216=

CYVR;2005-12-12 00:00;METAR CYVR 120000Z 14009KT 30SM FEW090 BKN240 04/03 A3016 RMK AC1CI2 SLP212=

CYVR;2005-12-12 02:00;METAR CYVR 120200Z 36004KT 30SM FEW240 02/02 A3018 RMK CI2 SLP220=

CYVR;2005-12-12 02:55;SPECI CYVR 120255Z 34004KT 12SM BKN012 BKN240 02/ RMK SC5CI2=

CYVR;2005-12-12 03:00;METAR CYVR 120300Z 35003KT 12SM BKN012 BKN240 02/02 A3019 RMK SC5CI2 SLP223=

CYVR;2005-12-12 03:53;SPECI CYVR 120353Z 02004KT 12SM MIFG SCT012 BKN240 02/ RMK SC4CI2=

CYVR;2005-12-12 04:00;METAR CYVR 120400Z 02004KT 12SM MIFG SCT013 BKN240 02/01 A3019 RMK SC4CI2 SLP223=

CYVR;2005-12-12 05:00;METAR CYVR 120500Z 09002KT 8SM MIFG SCT015 BKN220 01/01 A3019 RMK SC4CI3 SLP223=

CYVR;2005-12-12 05:30;SPECI CYVR 120530Z 02003KT 8SM BKN017 OVC220 02/ RMK SC6CI2 BR=

CYVR;2005-12-12 06:00;METAR CYVR 120600Z 03002KT 8SM BKN017 OVC220 02/02 A3019 RMK SC7CI1 BR SLP225=

CYVR;2005-12-12 07:00;METAR CYVR 120700Z 12003KT 8SM BKN016 OVC220 02/02 A3019 RMK SC7CI1 BR SLP223=

CYVR;2005-12-12 07:55;SPECI CYVR 120755Z 11005KT 6SM BR BKN016 OVC220 03/ RMK SC7CI1=

CYVR;2005-12-12 08:47;SPECI CYVR 120847Z 11004KT 5SM BR BKN015 OVC220 02/ RMK SC7CI1=

CYVR;2005-12-12 09:34;SPECI CYVR 120934Z 11003KT 4SM BR OVC017 03/ RMK SC8=

CYVR;2005-12-12 10:00;METAR CYVR 121000Z 09003KT 4SM BR OVC017 03/03 A3017 RMK SC8 SLP216=

CYVR;2005-12-12 11:00;METAR CYVR 121100Z 11005KT 4SM BR OVC019 03/03 A3016 RMK SC8 SLP213=

CYVR;2005-12-12 12:00;METAR CYVR 121200Z 12005KT 4SM BR OVC016 03/03 A3014 RMK SC8 SLP207=

CYVR;2005-12-12 13:00;METAR CYVR 121300Z 11005KT 4SM BR OVC018 03/03 A3014 RMK SC8 SLP205=

CYVR;2005-12-12 14:45;SPECI CYVR 121445Z 12005KT 6SM -DZ BR OVC015 03/ RMK SC8=

CYVR;2005-12-12 15:00;METAR CYVR 121500Z 12005KT 6SM -DZ BR OVC016 03/02 A3014 RMK SC8 SLP206=

CYVR;2005-12-12 15:18;SPECI CYVR 121518Z 09004KT 4SM -DZ BR SCT014 OVC017 03/ RMK ST4SC4=

CYVR;2005-12-12 15:54;SPECI CYVR 121554Z 13005KT 3SM -DZ BR FEW014 OVC016 03/ RMK ST2SC6=

CYVR;2005-12-12 16:00;METAR CYVR 121600Z 12005KT 3SM -DZ BR OVC016 03/02 A3013 RMK SC8 SLP204=

CYVR;2005-12-12 16:09;SPECI CYVR 121609Z 11005KT 2 1/2SM -DZ BR BKN013 OVC016 03/ RMK SC5SC3=

CYVR;2005-12-12 17:00;METAR CYVR 121700Z 11006KT 2 1/4SM -DZ BR FEW010 OVC013 03/02 A3014 RMK ST2SC6 SLP205=

CYVR;2005-12-12 17:54;SPECI CYVR 121754Z 10007KT 3SM -DZ BR FEW005 OVC013 03/ RMK SF2SC6=

CYVR;2005-12-12 18:00;METAR CYVR 121800Z 10007KT 4SM -DZ BR FEW005 OVC013 03/03 A3014 RMK SF2SC6 SLP208=

CYVR;2005-12-12 19:00;METAR CYVR 121900Z 11008KT 4SM -DZ BR FEW006 OVC012 03/03 A3014 RMK ST2SC6 SLP206=

CYVR;2005-12-12 19:24;SPECI CYVR 121924Z 12007KT 3SM -DZ BR FEW006 OVC011 03/ RMK ST2SC6=

CYVR;2005-12-12 19:56;SPECI CYVR 121956Z 10006KT 3SM BR BKN008 OVC012 04/ RMK ST5SC3=

CYVR;2005-12-12 20:05;SPECI CYVR 122005Z 10006KT 2 1/2SM BR FEW007 OVC010 04/ RMK ST2SC6=

CYVR;2005-12-12 20:32;SPECI CYVR 122032Z 12004KT 2 1/2SM -RA BR FEW007 OVC010 04/ RMK ST2SC6=

CYVR;2005-12-12 20:40;SPECI CYVR 122040Z 12004KT 2 1/2SM -SHRA BR SCT005 OVC009 04/ RMK ST3SC5=

CYVR;2005-12-12 21:00;METAR CYVR 122100Z 12002KT 2 1/2SM -SHRA BR SCT006 BKN013 OVC018 04/03 A3013 RMK ST3SC3SC2 PCPN VRY LGT SLP203=

CYVR;2005-12-12 22:00;METAR CYVR 122200Z 16002KT 2 1/2SM -SHRA BR SCT009 OVC017 04/04 A3012 RMK SC4SC4 PCPN VRY LGT SLP201=

CYVR;2005-12-12 22:16;SPECI CYVR 122216Z 19002KT 2 1/2SM BR FEW009 BKN015 OVC018 04/ RMK SF2SC4SC2=

CYVR;2005-12-12 22:25;SPECI CYVR 122225Z 22003KT 2 1/2SM -SHRA BR FEW009 BKN014 OVC018 04/ RMK SF2SC4SC2=

CYVR;2005-12-12 22:34;SPECI CYVR 122234Z 22003KT 4SM -SHRA BR FEW009 BKN012 OVC016 04/ RMK SF2SC4SC2 VIS N QUAD 3=

CYVR;2005-12-12 22:56;SPECI CYVR 122256Z 22003KT 5SM -SHRA BR BKN007 OVC013 04/ RMK SC6SC2=

CYVR;2005-12-12 23:00;METAR CYVR 122300Z 21003KT 5SM -SHRA BR BKN007 OVC013 04/04 A3013 RMK SC6SC2 SLP203=

CYVR;2005-12-12 23:05;SPECI CYVR 122305Z 20003KT 5SM BR SCT007 OVC013 04/ RMK SC4SC4=

CYVR;2005-12-13 00:00;METAR CYVR 130000Z 24008KT 8SM PRFG FEW008 BKN015 OVC110 04/04 A3013 RMK SF2SC4AC1 F BNK NW - NE QUAD VIS 3 SM SLP202=

CYVR;2005-12-13 00:30;SPECI CYVR 130030Z 28008KT 12SM FEW008 OVC015 05/ RMK SF2SC5=

CYVR;2005-12-13 01:00;METAR CYVR 130100Z 29012KT 15SM SCT017 BKN023 05/04 A3012 RMK SF3SC4 SLP200=

CYVR;2005-12-13 02:00;METAR CYVR 130200Z 29016KT 15SM BKN022 05/04 A3012 RMK SC4 SLP200=

CYVR;2005-12-13 03:00;METAR CYVR 130300Z 32010KT 15SM BKN022 05/04 A3012 RMK SC6 SLP201=

CYVR;2005-12-13 04:00;METAR CYVR 130400Z 34007KT 15SM FEW018 04/02 A3013 RMK SC2 SLP204=

CYVR;2005-12-13 05:00;METAR CYVR 130500Z 04003KT 15SM BKN021 BKN120 03/02 A3016 RMK SC6AC2 SLP212=

CYVR;2005-12-13 06:00;METAR CYVR 130600Z 00000KT 15SM BKN023 04/03 A3018 RMK SC7 BR SLP221=

CYVR;2005-12-13 08:48;SPECI CYVR 130848Z 04005KT 15SM BKN030 01/ RMK SC7=

CYVR;2005-12-13 08:49;SPECI CYVR 130849Z 04005KT 15SM SCT030 02/ RMK SC3=

CYVR;2005-12-13 09:00;METAR CYVR 130900Z 05005KT 15SM FEW030 01/00 A3024 RMK SC2 SLP240=

CYVR;2005-12-13 10:00;METAR CYVR 131000Z 00000KT 15SM FEW030 FEW120 01/00 A3025 RMK SC1AC2 SLP245=

CYVR;2005-12-13 10:46;SPECI CYVR 131046Z 00000KT 15SM MIFG BKN037 M00/ RMK SC6=

CYVR;2005-12-13 11:00;METAR CYVR 131100Z 26002KT 15SM MIFG BKN035 00/M00 A3028 RMK SC6 FROIN SLP253=

CYVR;2005-12-13 11:45;SPECI CYVR 131145Z 09007KT 15SM BKN033 01/ RMK SC7=

CYVR;2005-12-13 12:00;METAR CYVR 131200Z 09004KT 15SM BKN033 01/01 A3029 RMK SC7 FROIN SLP257=

CYVR;2005-12-13 13:00;METAR CYVR 131300Z 09002KT 15SM OVC032 02/01 A3030 RMK SC8 SLP261=

CYVR;2005-12-13 14:00;METAR CYVR 131400Z 11003KT 15SM FEW018 OVC030 02/01 A3032 RMK ST1SC7 SLP267=

CYVR;2005-12-13 14:40;SPECI CYVR 131440Z 11006KT 15SM -SHRA FEW019 OVC031 02/ RMK SC2SC6=

CYVR;2005-12-13 14:53;SPECI CYVR 131453Z 11006KT 15SM -DZ FEW033 OVC040 02/ RMK SC2SC6 PCPN VRY LGT=

CYVR;2005-12-13 15:00;METAR CYVR 131500Z 00000KT 15SM -DZ SCT020 OVC035 02/02 A3033 RMK SC3SC5 PCPN VRY LGT SLP271=

CYVR;2005-12-13 15:18;SPECI CYVR 131518Z 00000KT 15SM SCT020 OVC040 03/ RMK SC3SC5=

CYVR;2005-12-13 16:00;METAR CYVR 131600Z 09003KT 15SM SCT020 OVC038 02/02 A3035 RMK SC3SC5 SLP277=

CYVR;2005-12-13 17:00;METAR CYVR 131700Z 11002KT 15SM FEW020 OVC038 03/02 A3037 RMK SC2SC5 SLP284=

CYVR;2005-12-13 19:00;METAR CYVR 131900Z 10005KT 15SM FEW020 OVC044 05/03 A3040 RMK SC2SC5 SLP295=

CYVR;2005-12-13 21:00;METAR CYVR 132100Z 00000KT 15SM FEW025 SCT045 06/03 A3040 RMK CU2SC1 SLP295=

CYVR;2005-12-13 22:00;METAR CYVR 132200Z 28005KT 15SM FEW025 SCT045 06/03 A3040 RMK CU2SC1 SLP295=

CYVR;2005-12-13 23:00;METAR CYVR 132300Z 31003KT 15SM FEW021 FEW040 SCT220 05/02 A3041 RMK CF1SC1CI1 SLP297=

CYVR;2005-12-14 00:00;METAR CYVR 140000Z 27003KT 15SM FEW025 FEW035 04/01 A3041 RMK CF1SC1 SLP299=

CYVR;2005-12-14 01:00;METAR CYVR 140100Z 30003KT 15SM FEW025 FEW220 04/02 A3042 RMK SC2CI0 SLP301=

CYVR;2005-12-14 02:00;METAR CYVR 140200Z 00000KT 15SM FEW025 FEW220 03/01 A3042 RMK SC1CI1 SLP300=

CYVR;2005-12-14 03:00;METAR CYVR 140300Z 09003KT 15SM FEW220 02/01 A3042 RMK CI1 SLP302=

CYVR;2005-12-14 03:21;SPECI CYVR 140321Z 08003KT 15SM MIFG FEW220 02/ RMK CI1=

CYVR;2005-12-14 04:00;METAR CYVR 140400Z 08002KT 15SM MIFG FEW220 02/01 A3042 RMK CI1 SLP302=

CYVR;2005-12-14 05:00;METAR CYVR 140500Z 01002KT 15SM MIFG FEW220 01/01 A3043 RMK CI1 SLP306=

CYVR;2005-12-14 06:00;METAR CYVR 140600Z 35002KT 15SM MIFG FEW220 01/00 A3045 RMK CI1 SLP310=

CYVR;2005-12-14 07:00;METAR CYVR 140700Z 00000KT 15SM MIFG FEW220 M00/M00 A3045 RMK CI1 FROIN SLP313=

CYVR;2005-12-14 09:00;METAR CYVR 140900Z 09002KT 15SM MIFG FEW220 M00/M01 A3045 RMK CI1 FROIN SLP312=

CYVR;2005-12-14 10:39;SPECI CYVR 141039Z 00000KT 15SM SCT045 M02/ RMK SC3=

CYVR;2005-12-14 11:00;METAR CYVR 141100Z 13002KT 15SM BKN046 M01/M02 A3046 RMK SC4 FROIN SLP314=

CYVR;2005-12-14 12:00;METAR CYVR 141200Z 09002KT 15SM FEW045 BKN250 00/M02 A3045 RMK SC2CS2 FROIN SLP311=

CYVR;2005-12-14 14:00;METAR CYVR 141400Z 02002KT 15SM MIFG BKN250 M02/M02 A3044 RMK CS2 FROIN SLP309=

CYVR;2005-12-14 14:21;SPECI CYVR 141421Z 02003KT 15SM BKN250 M02/ RMK CS2=

CYVR;2005-12-14 15:00;METAR CYVR 141500Z 36002KT 15SM SCT250 M01/M02 A3043 RMK CS3 FROIN SLP306=

CYVR;2005-12-14 16:00;METAR CYVR 141600Z 00000KT 30SM SCT095 M02/M03 A3043 RMK AS3 FROIN SLP303=

CYVR;2005-12-14 17:00;METAR CYVR 141700Z 14003KT 20SM FEW100 OVC220 00/M01 A3043 RMK AC1CI2 TR AC SLP306=

CYVR;2005-12-14 18:00;METAR CYVR 141800Z 16003KT 20SM FEW100 OVC220 02/M01 A3044 RMK AC1CI3 TR AC SLP307=

CYVR;2005-12-14 19:00;METAR CYVR 141900Z 16004KT 20SM FEW150 OVC240 03/M00 A3043 RMK AS2CI2 SLP305=

CYVR;2005-12-14 21:00;METAR CYVR 142100Z 20004KT 20SM FEW120 SCT180 OVC240 05/M01 A3040 RMK AC2AS2CS2 SLP294=

CYVR;2005-12-14 22:00;METAR CYVR 142200Z 00000KT 20SM FEW170 OVC230 05/M01 A3038 RMK AC2CS2 SLP289=

CYVR;2005-12-14 23:00;METAR CYVR 142300Z 28006KT 20SM FEW150 BKN210 04/M02 A3037 RMK AC1CI2 SLP286=

CYVR;2005-12-15 00:00;METAR CYVR 150000Z 36006KT 20SM FEW150 BKN210 04/M00 A3037 RMK AC1CI1 SLP284=

CYVR;2005-12-15 01:00;METAR CYVR 150100Z 36004KT 20SM FEW160 SCT210 02/M02 A3037 RMK AC1CI1 SLP284=

CYVR;2005-12-15 02:00;METAR CYVR 150200Z 36003KT 20SM FEW140 FEW200 01/M03 A3036 RMK AC1CI1 SLP280=

CYVR;2005-12-15 05:00;METAR CYVR 150500Z 00000KT 20SM FEW140 FEW210 00/M01 A3034 RMK AC1CI1 SLP275=

CYVR;2005-12-15 06:00;METAR CYVR 150600Z 07002KT 20SM FEW220 M01/M02 A3034 RMK CI1 SLP275=

CYVR;2005-12-15 07:00;METAR CYVR 150700Z 18002KT 20SM FEW220 M00/M01 A3033 RMK CI1 SLP272=

CYVR;2005-12-15 08:00;METAR CYVR 150800Z 11005KT 20SM FEW220 M02/M03 A3032 RMK CI1 SLP269=

CYVR;2005-12-15 09:00;METAR CYVR 150900Z 09004KT 15SM FEW220 M03/M04 A3032 RMK CI1 FROIN SLP267=

CYVR;2005-12-15 10:00;METAR CYVR 151000Z 10002KT 15SM MIFG FEW210 M02/M02 A3031 RMK CI2 SLP265=

CYVR;2005-12-15 13:00;METAR CYVR 151300Z 12005KT 15SM MIFG SCT160 BKN220 M01/M02 A3029 RMK AC3CI3 SLP257=

CYVR;2005-12-15 14:00;METAR CYVR 151400Z 11006KT 15SM SCT160 BKN210 M02/M03 A3028 RMK AC3CI1 SLP254=

CYVR;2005-12-15 15:00;METAR CYVR 151500Z 11006KT 15SM BKN160 OVC210 M02/M03 A3027 RMK AS4CI2 SLP249=

CYVR;2005-12-15 16:00;METAR CYVR 151600Z 09003KT 15SM FEW120 BKN140 OVC210 M01/M02 A3026 RMK AC1AS3CI2 SLP247=

CYVR;2005-12-15 17:00;METAR CYVR 151700Z 09003KT 20SM FEW140 BKN210 M01/M02 A3026 RMK AS2CS2 SLP247=

CYVR;2005-12-17 01:00;METAR CYVR 170100Z 00000KT 20SM FEW220 03/01 A3000 RMK CI1 SLP158=

CYVR;2005-12-17 04:00;METAR CYVR 170400Z 08003KT 20SM SKC 01/M00 A3000 RMK SLP158=

CYVR;2005-12-17 05:00;METAR CYVR 170500Z 11004KT 20SM FEW220 02/00 A2999 RMK CI1 SLP157=

CYVR;2005-12-17 06:00;METAR CYVR 170600Z 00000KT 20SM FEW200 01/00 A2999 RMK CI1 SLP157=

CYVR;2005-12-17 07:00;METAR CYVR 170700Z 10002KT 20SM FEW200 M00/M01 A3000 RMK CI1 SLP158=

CYVR;2005-12-17 08:00;METAR CYVR 170800Z 36002KT 20SM FEW210 M01/M02 A2999 RMK CI1 SLP157=

CYVR;2005-12-17 09:00;METAR CYVR 170900Z 00000KT 15SM MIFG FEW210 M01/M02 A2999 RMK CI1 SLP156=

CYVR;2005-12-17 10:00;METAR CYVR 171000Z 00000KT 15SM MIFG FEW200 M01/M01 A3000 RMK CI1 SLP160=

CYVR;2005-12-17 11:00;METAR CYVR 171100Z 00000KT 15SM MIFG SKC M02/M02 A3001 RMK SLP163=

CYVR;2005-12-17 12:00;METAR CYVR 171200Z 08003KT 15SM MIFG SKC M02/M02 A3002 RMK SLP166=

CYVR;2005-12-17 14:00;METAR CYVR 171400Z 10006KT 15SM SKC M02/M03 A3004 RMK SLP174=

CYVR;2005-12-17 15:00;METAR CYVR 171500Z 10005KT 15SM SKC M02/M02 A3005 RMK SLP176=

CYVR;2005-12-17 16:00;METAR CYVR 171600Z 08004KT 15SM SKC M03/M04 A3006 RMK VIS LWR NW SLP179=

CYVR;2005-12-17 17:00;METAR CYVR 171700Z 09003KT 15SM SKC M01/M01 A3008 RMK SLP187=

CYVR;2005-12-17 18:00;METAR CYVR 171800Z 00000KT 15SM SKC 02/00 A3011 RMK SLP195=

CYVR;2005-12-17 19:00;METAR CYVR 171900Z 00000KT 20SM SKC 05/02 A3011 RMK SLP198=

CYVR;2005-12-17 20:00;METAR CYVR 172000Z 07004KT 20SM SKC 06/M01 A3011 RMK SLP196=

CYVR;2005-12-17 21:00;METAR CYVR 172100Z 11007KT 20SM SKC 06/M02 A3010 RMK SLP194=

CYVR;2005-12-17 22:00;METAR CYVR 172200Z 13004KT 20SM SKC 07/M01 A3009 RMK SLP190=

CYVR;2005-12-17 23:00;METAR CYVR 172300Z 11005KT 20SM SKC 06/M01 A3009 RMK SLP189=

CYVR;2005-12-18 00:00;METAR CYVR 180000Z 14002KT 20SM SKC 06/M03 A3009 RMK SLP189=

CYVR;2005-12-18 01:00;METAR CYVR 180100Z 36004KT 20SM SKC 03/M03 A3009 RMK SLP191=

CYVR;2005-12-18 02:00;METAR CYVR 180200Z 36002KT 20SM SKC 01/M02 A3009 RMK SLP191=

CYVR;2005-12-18 03:00;METAR CYVR 180300Z 11002KT 20SM SKC 02/M02 A3009 RMK SLP191=

CYVR;2005-12-18 04:00;METAR CYVR 180400Z 11004KT 20SM SKC M00/M02 A3010 RMK SLP193=

CYVR;2005-12-18 05:00;METAR CYVR 180500Z 11005KT 20SM SKC M01/M02 A3011 RMK SLP198=

CYVR;2005-12-18 06:00;METAR CYVR 180600Z 04002KT 20SM SKC M02/M03 A3013 RMK SLP204=

CYVR;2005-12-18 07:00;METAR CYVR 180700Z 00000KT 20SM MIFG SKC M02/M02 A3014 RMK SLP208=

CYVR;2005-12-18 09:00;METAR CYVR 180900Z 10004KT 20SM MIFG SKC M02/M03 A3014 RMK SLP207=

CYVR;2005-12-18 10:00;METAR CYVR 181000Z 00000KT 20SM MIFG SKC M03/M04 A3015 RMK SLP209=

CYVR;2005-12-18 11:00;METAR CYVR 181100Z 08002KT 20SM MIFG SKC M03/M04 A3014 RMK SLP207=

CYVR;2005-12-18 13:00;METAR CYVR 181300Z 08004KT 15SM SKC M04/M05 A3012 RMK SLP200=

CYVR;2005-12-18 14:00;METAR CYVR 181400Z 09003KT 15SM SKC M04/M05 A3011 RMK SLP196=

CYVR;2005-12-18 14:34;SPECI CYVR 181434Z 08002KT 15SM MIFG SKC M05/=

CYVR;2005-12-18 16:00;METAR CYVR 181600Z 11002KT 15SM MIFG SKC M04/M04 A3009 RMK FROIN SLP191=

CYVR;2005-12-18 17:00;METAR CYVR 181700Z 00000KT 30SM SKC M02/M04 A3009 RMK FROIN SLP190=

CYVR;2005-12-18 18:00;METAR CYVR 181800Z 00000KT 30SM SKC 00/M02 A3009 RMK SLP191=

CYVR;2005-12-18 19:00;METAR CYVR 181900Z 14002KT 30SM SKC 03/M02 A3009 RMK SLP190=

CYVR;2005-12-18 20:00;METAR CYVR 182000Z 00000KT 30SM SKC 04/M02 A3008 RMK SLP186=

CYVR;2005-12-18 22:00;METAR CYVR 182200Z 32007KT 30SM SKC 04/01 A3002 RMK SLP167=

CYVR;2005-12-18 23:00;METAR CYVR 182300Z 29007KT 30SM SKC 04/01 A3001 RMK SLP161=

CYVR;2005-12-19 00:00;METAR CYVR 190000Z 31007KT 30SM SKC 02/00 A2999 RMK SLP157=

CYVR;2005-12-19 02:00;METAR CYVR 190200Z 36005KT 20SM SKC 01/M01 A2996 RMK SLP147=

CYVR;2005-12-19 03:00;METAR CYVR 190300Z 00000KT 20SM SKC 00/M01 A2997 RMK SLP148=

CYVR;2005-12-19 04:00;METAR CYVR 190400Z 12002KT 20SM SKC M01/M02 A2997 RMK FROIN SLP148=

CYVR;2005-12-19 04:10;SPECI CYVR 190410Z 00000KT 20SM MIFG SKC M01/=

CYVR;2005-12-19 06:00;METAR CYVR 190600Z 08002KT 20SM SCT090 M03/M04 A2997 RMK AC3 FROIN SLP149=

CYVR;2005-12-19 07:00;METAR CYVR 190700Z 00000KT 15SM BKN081 M01/M02 A2998 RMK AC6 FROIN SLP151=

CYVR;2005-12-19 08:00;METAR CYVR 190800Z 09003KT 15SM BKN080 M00/M02 A3000 RMK AC6 FROIN SLP158=

CYVR;2005-12-19 09:00;METAR CYVR 190900Z 04002KT 15SM BKN070 00/M01 A3000 RMK AC7 SLP160=

CYVR;2005-12-19 10:00;METAR CYVR 191000Z 10005KT 15SM BKN046 BKN058 01/M01 A3001 RMK SC6SC2 SLP162=

CYVR;2005-12-19 11:00;METAR CYVR 191100Z 10003KT 15SM BKN045 OVC060 02/M03 A2998 RMK SC5SC2 SLP153=

CYVR;2005-12-19 12:00;METAR CYVR 191200Z 04004KT 15SM BKN045 OVC060 02/M02 A2997 RMK SC6SC2 SLP148=

CYVR;2005-12-19 13:00;METAR CYVR 191300Z 06003KT 15SM BKN056 02/M03 A2994 RMK SC6 SLP140=

CYVR;2005-12-19 14:00;METAR CYVR 191400Z 08004KT 15SM BKN055 03/M03 A2996 RMK SC6 SLP144=

CYVR;2005-12-19 15:00;METAR CYVR 191500Z 09003KT 15SM BKN050 03/M03 A2994 RMK SC7 SLP138=

CYVR;2005-12-19 15:23;SPECI CYVR 191523Z 08004KT 15SM -RA BKN046 03/ RMK SC7=

CYVR;2005-12-19 16:00;METAR CYVR 191600Z 10005KT 15SM -RA OVC046 03/M02 A2993 RMK SC8 SLP137=

CYVR;2005-12-19 17:00;METAR CYVR 191700Z 35005KT 10SM -RA OVC041 03/M01 A2996 RMK SC8 PCPN VRY LGT SLP146=

CYVR;2005-12-19 18:00;METAR CYVR 191800Z 02002KT 15SM -RA OVC040 04/01 A2997 RMK SC8 PCPN VRY LGT SLP148=

CYVR;2005-12-19 19:00;METAR CYVR 191900Z 13004KT 15SM -RA OVC050 04/02 A2998 RMK SC8 PCPN VRY LGT SLP153=

CYVR;2005-12-19 20:00;METAR CYVR 192000Z 27003KT 15SM -RA FEW020 SCT040 OVC050 04/02 A3000 RMK SC1SC3SC4 PCPN VRY LGT SLP158=

CYVR;2005-12-19 20:54;SPECI CYVR 192054Z 00000KT 15SM FEW013 OVC041 04/ RMK SC2SC6=

CYVR;2005-12-19 21:00;METAR CYVR 192100Z 00000KT 15SM -RA FEW013 OVC041 04/03 A3000 RMK SC2SC6 PCPN VRY LGT SLP159=

CYVR;2005-12-19 21:15;SPECI CYVR 192115Z 06002KT 15SM FEW013 OVC040 04/ RMK SC2SC6=

CYVR;2005-12-19 21:25;SPECI CYVR 192125Z 07004KT 15SM -RA FEW013 OVC038 04/ RMK SC2SC6 PCPN VRY LGT=

CYVR;2005-12-19 22:00;METAR CYVR 192200Z 00000KT 8SM -RA FEW013 OVC036 05/04 A3000 RMK SC2SC6 PCPN VRY LGT SLP159=

CYVR;2005-12-19 22:13;SPECI CYVR 192213Z 05002KT 6SM -RA FEW013 OVC036 05/ RMK SC2SC6 PCPN VRY LGT=

CYVR;2005-12-19 23:00;METAR CYVR 192300Z 00000KT 15SM -RA FEW013 OVC036 05/04 A3002 RMK SC2SC6 BR / VIS LWR N 6 SM / PCPN VRY LGT SLP165=

CYVR;2005-12-19 23:35;SPECI CYVR 192335Z 09004KT 15SM FEW013 OVC034 05/ RMK SC2SC6 BR / VIS LWR N 7 SM=

CYVR;2005-12-20 00:00;METAR CYVR 200000Z 11004KT 15SM FEW013 OVC034 05/05 A3003 RMK SC2SC6 SLP169=

CYVR;2005-12-20 00:34;SPECI CYVR 200034Z 00000KT 15SM -RA FEW013 OVC032 05/ RMK SC2SC6 PCPN VRY LGT=

CYVR;2005-12-20 01:00;METAR CYVR 200100Z 03002KT 10SM -RA FEW013 OVC032 05/04 A3005 RMK SC2SC6 PCPN VRY LGT SLP177=

CYVR;2005-12-20 01:15;SPECI CYVR 200115Z 34002KT 15SM OVC032 05/ RMK SC8=

CYVR;2005-12-20 02:00;METAR CYVR 200200Z 34006KT 15SM FEW008 OVC032 05/04 A3006 RMK SC2SC6 SLP180=

CYVR;2005-12-20 02:45;SPECI CYVR 200245Z 17003KT 15SM BKN009 OVC032 05/ RMK SC5SC3=

CYVR;2005-12-20 03:00;METAR CYVR 200300Z 16002KT 15SM BKN010 OVC031 05/04 A3007 RMK SC5SC3 SLP183=

CYVR;2005-12-20 03:03;SPECI CYVR 200303Z 18003KT 15SM SCT010 OVC031 05/ RMK SC4SC4=

CYVR;2005-12-20 04:00;METAR CYVR 200400Z 26002KT 15SM FEW010 OVC030 05/04 A3009 RMK SF2SC6 VIS NE QUAD HIER 20 SM SLP188=

CYVR;2005-12-20 04:42;SPECI CYVR 200442Z 00000KT 15SM -SHRA OVC030 05/ RMK SC8 VIS N QUAD 12 SM=

CYVR;2005-12-20 05:00;METAR CYVR 200500Z 00000KT 15SM -SHRA OVC030 05/04 A3008 RMK SC8 VIS N QUAD 10 SM SLP185=

CYVR;2005-12-20 06:00;METAR CYVR 200600Z 09005KT 15SM -SHRA FEW010 OVC028 06/05 A3006 RMK SF2SC6 VIS N QUAD 10 SM SLP181=

CYVR;2005-12-20 07:00;METAR CYVR 200700Z 11005KT 15SM -RA FEW010 OVC025 06/06 A3005 RMK SF2SC6 VIS N QUAD 10 SM SLP177=

CYVR;2005-12-20 08:00;METAR CYVR 200800Z 13005KT 15SM -RA FEW007 OVC029 07/07 A3004 RMK SF2SC6 VIS N QUAD 8 SM SLP172=

CYVR;2005-12-20 09:00;METAR CYVR 200900Z 09005KT 15SM -RA FEW005 OVC025 06/06 A3002 RMK SC2SC6 SLP166=

CYVR;2005-12-20 10:00;METAR CYVR 201000Z 14005KT 15SM -SHRA BKN008 OVC030 07/06 A3000 RMK SC5SC3 SLP159=

CYVR;2005-12-20 10:23;SPECI CYVR 201023Z 11004KT 15SM -SHRA SCT008 OVC036 06/ RMK SC4SC4=

CYVR;2005-12-20 11:00;METAR CYVR 201100Z 11005KT 15SM -SHRA FEW008 BKN035 OVC080 07/07 A2997 RMK SF2SC4AC2 SLP150=

CYVR;2005-12-20 12:00;METAR CYVR 201200Z 09005KT 15SM -SHRA BKN076 OVC085 07/07 A2993 RMK AC6AC2 SLP135=

CYVR;2005-12-20 12:57;SPECI CYVR 201257Z 25009KT 12SM -SHRA PRFG SCT004 OVC075 07/ RMK SC4AC4 F BNK N OVR WTR=

CYVR;2005-12-20 13:00;METAR CYVR 201300Z 25009KT 10SM -SHRA PRFG BKN004 OVC075 07/06 A2993 RMK SC6AC2 F BNK NW - NE OVR WTR SLP134=

CYVR;2005-12-20 13:26;SPECI CYVR 201326Z 32003KT 3SM -SHRA BR BKN004 OVC075 06/ RMK SC6AC2 VIS N QUAD LWR 2 SM=

CYVR;2005-12-20 14:00;METAR CYVR 201400Z 03003KT 6SM -SHRA BR OVC004 06/06 A2988 RMK SC8 VIS N QUAD LWR 2 SM SLP120=

CYVR;2005-12-20 14:44;SPECI CYVR 201444Z 18004KT 4SM -RA BR SCT004 OVC008 06/ RMK SC4SC4 VIS N QUAD LWR 2=

CYVR;2005-12-20 15:00;METAR CYVR 201500Z 10005KT 3SM -RA BR FEW004 OVC009 07/06 A2991 RMK SC2SC6 SLP127=

CYVR;2005-12-20 15:10;SPECI CYVR 201510Z 12008KT 5SM -RA BR FEW004 SCT010 OVC047 07/ RMK SC1SC3SC4=

CYVR;2005-12-20 16:00;METAR CYVR 201600Z 07008KT 5SM -RA BR FEW010 SCT040 OVC060 07/06 A2991 RMK SC1SC3SC4 SLP129=

CYVR;2005-12-20 16:19;SPECI CYVR 201619Z 08009KT 15SM -RA FEW004 OVC056 07/ RMK ST1SC7 PCPN VRY LGT / VIS LWR N 8=

CYVR;2005-12-20 17:24;SPECI CYVR 201724Z 13002KT 15SM FEW004 SCT010 OVC059 08/ RMK ST1SC2SC5 VIS LWR N 7 SM=

CYVR;2005-12-20 17:40;SPECI CYVR 201740Z 14006KT 15SM -RA FEW004 SCT015 OVC065 08/ RMK ST1SC3SC4 PCPN VRT LGT=

CYVR;2005-12-20 18:00;METAR CYVR 201800Z 08007KT 15SM -RA FEW004 FEW015 BKN046 OVC074 08/08 A2992 RMK ST1SC2SC3AC2 VIS LWR N 7 SM SLP132=

CYVR;2005-12-20 18:44;SPECI CYVR 201844Z 09008KT 6SM -RA BR FEW004 SCT040 OVC065 09/ RMK ST2SC2SC4=

CYVR;2005-12-20 19:00;METAR CYVR 201900Z 10008KT 7SM -RA FEW004 SCT040 OVC060 09/08 A2991 RMK ST2SC2SC4 BR SLP128=

CYVR;2005-12-20 19:45;SPECI CYVR 201945Z 08006KT 3SM RA BR FEW004 OVC036 09/ RMK ST2SC6=

CYVR;2005-12-20 20:00;METAR CYVR 202000Z 08008KT 4SM RA BR FEW004 SCT030 OVC053 10/09 A2990 RMK ST1SC3SC4 SLP125=

CYVR;2005-12-20 20:55;SPECI CYVR 202055Z 08008KT 15SM FEW004 FEW020 SCT040 BKN078 11/ RMK ST1SC2SC2AC3 BR=

CYVR;2005-12-20 21:00;METAR CYVR 202100Z 08008KT 15SM FEW004 FEW020 SCT040 BKN080 11/10 A2989 RMK ST1SC2SC2AC3 BR SLP121=

CYVR;2005-12-20 21:45;SPECI CYVR 202145Z 11009KT 15SM -RA FEW020 SCT050 BKN080 12/ RMK SC2SC2AC3=

CYVR;2005-12-20 22:00;METAR CYVR 202200Z 11014KT 15SM -RA SCT030 BKN080 12/10 A2988 RMK SC3AC4 BR SLP119=

CYVR;2005-12-20 22:07;SPECI CYVR 202207Z 11014KT 15SM FEW030 BKN084 BKN110 12/ RMK SC2AC2AC2=

CYVR;2005-12-20 22:40;SPECI CYVR 202240Z 09009KT 15SM -RA FEW030 BKN049 BKN110 11/ RMK SC2SC2AC2 PCPN VRY LGT=

CYVR;2005-12-20 23:00;METAR CYVR 202300Z 09007KT 10SM -RA SCT030 BKN050 OVC080 11/10 A2991 RMK SC3SC3AC2 BR SLP128=

CYVR;2005-12-20 23:10;SPECI CYVR 202310Z 10009KT 6SM -RA BR SCT030 OVC050 11/ RMK SC3SC5=

CYVR;2005-12-21 00:00;METAR CYVR 210000Z 10014KT 7SM -RA SCT018 BKN036 OVC080 10/09 A2991 RMK SC3SC2AC2 BR SLP130=

CYVR;2005-12-21 00:48;SPECI CYVR 210048Z 13008KT 3SM +RA BR SCT014 OVC020 10/ RMK SC4SC4=

CYVR;2005-12-21 00:56;SPECI CYVR 210056Z 13009KT 2SM +RA BR BKN011 OVC020 10/ RMK SC5SC3=

CYVR;2005-12-21 01:00;METAR CYVR 210100Z 13011KT 2SM +RA BR BKN011 OVC020 10/09 A2995 RMK SC5SC3 SLP142=

CYVR;2005-12-21 01:26;SPECI CYVR 210126Z 14012KT 10SM -RA FEW011 BKN065 OVC085 10/ RMK SC2SC3AC2=

CYVR;2005-12-21 01:55;SPECI CYVR 210155Z 09009G15KT 10SM FEW011 BKN060 OVC080 10/ RMK SC2SC5AC2=

CYVR;2005-12-21 02:00;METAR CYVR 210200Z 11009G15KT 10SM FEW011 BKN060 OVC080 10/09 A2993 RMK SC2SC5AC2 SLP136=

CYVR;2005-12-21 03:00;METAR CYVR 210300Z 07010KT 15SM FEW010 BKN051 OVC120 10/09 A2994 RMK SC2SC3AC2 VIS N QUAD 10 SM SLP139=

CYVR;2005-12-21 03:41;SPECI CYVR 210341Z 11014KT 15SM -SHRA FEW010 BKN052 OVC080 10/ RMK SC1SC4AC2 VIS N QUAD 10 SM=

CYVR;2005-12-21 04:00;METAR CYVR 210400Z 11013G18KT 12SM -SHRA FEW010 BKN055 OVC073 10/09 A2995 RMK SC2SC3AC3 VIS N QUAD 8 SM SLP142=

CYVR;2005-12-21 05:00;METAR CYVR 210500Z 10011KT 15SM -SHRA FEW015 BKN056 OVC080 10/09 A2997 RMK SC2SC4AC2 SLP148=

CYVR;2005-12-21 05:50;SPECI CYVR 210550Z 10011KT 15SM BKN014 OVC055 10/ RMK SC5SC3 VIS N QUAD 12 SM=

CYVR;2005-12-21 06:00;METAR CYVR 210600Z 11011KT 15SM BKN015 OVC057 10/09 A2998 RMK SC6SC2 SLP151=

CYVR;2005-12-21 06:09;SPECI CYVR 210609Z 11008KT 15SM -SHRA BKN015 OVC055 10/ RMK SC6SC2=

CYVR;2005-12-21 06:16;SPECI CYVR 210616Z 10010KT 15SM -SHRA SCT015 OVC058 10/ RMK SC4SC4=

CYVR;2005-12-21 06:39;SPECI CYVR 210639Z 09011KT 15SM FEW015 BKN058 OVC080 10/ RMK SC2SC2AC2=

CYVR;2005-12-21 06:44;SPECI CYVR 210644Z 10011KT 15SM -SHRA FEW015 BKN058 OVC080 10/ RMK SC2SC2AC2=

CYVR;2005-12-21 07:00;METAR CYVR 210700Z 10011KT 15SM -SHRA FEW015 BKN056 OVC074 10/09 A2998 RMK SC2SC5AC1 SLP151=

CYVR;2005-12-21 08:00;METAR CYVR 210800Z 11011KT 15SM -SHRA FEW015 SCT060 OVC067 10/09 A2998 RMK SC2SC2AC3 SLP152=

CYVR;2005-12-21 09:00;METAR CYVR 210900Z 10009KT 15SM FEW015 OVC057 10/09 A2998 RMK SC2SC6 SLP152=

CYVR;2005-12-21 10:00;METAR CYVR 211000Z 09008KT 15SM FEW015 BKN057 OVC220 09/09 A2997 RMK SC2SC3CI2 SLP148=

CYVR;2005-12-21 11:00;METAR CYVR 211100Z 08006KT 15SM -SHRA FEW015 OVC057 10/09 A2995 RMK SC2SC6 SLP141=

CYVR;2005-12-21 13:00;METAR CYVR 211300Z 08008KT 15SM FEW015 BKN042 OVC070 10/09 A2989 RMK SC2SC4AC2 SLP121=

CYVR;2005-12-21 14:00;METAR CYVR 211400Z 08006KT 15SM BKN033 OVC070 10/09 A2986 RMK SC6AC2 SLP111=

CYVR;2005-12-21 14:38;SPECI CYVR 211438Z 08007KT 15SM -SHRA OVC033 10/ RMK SC7=

CYVR;2005-12-21 15:00;METAR CYVR 211500Z 09005KT 15SM OVC034 10/09 A2984 RMK SC8 SLP104=

CYVR;2005-12-21 15:04;SPECI CYVR 211504Z 12005KT 15SM -SHRA OVC036 10/ RMK SC8 PCPN VRY LGT=

CYVR;2005-12-21 16:00;METAR CYVR 211600Z 12009KT 15SM -SHRA OVC028 11/09 A2983 RMK SC8 PCPN VRY LGT SLP101=

CYVR;2005-12-21 16:23;SPECI CYVR 211623Z 10010KT 15SM -RA SCT032 OVC060 10/ RMK SC3SC5 VIS LWR N 10 SM=

CYVR;2005-12-21 18:00;METAR CYVR 211800Z 09002KT 15SM -RA SCT020 OVC065 11/09 A2978 RMK SC3SC5 BR SLP086=

CYVR;2005-12-21 19:00;METAR CYVR 211900Z 09014KT 15SM -RA FEW020 BKN037 BKN065 11/09 A2974 RMK SC2SC3SC2 SLP072=

CYVR;2005-12-21 19:29;SPECI CYVR 211929Z 11011G16KT 20SM FEW025 BKN047 BKN065 11/ RMK SC2SC2SC2=

CYVR;2005-12-21 19:47;SPECI CYVR 211947Z 11014KT 20SM -SHRA FEW025 SCT040 BKN091 12/ RMK SC2SC2AC3 PCPN VRY LGT=

CYVR;2005-12-21 20:00;METAR CYVR 212000Z 10012G17KT 20SM -SHRA FEW025 BKN042 BKN091 12/09 A2970 RMK SC2SC5AC1 SLP059=

CYVR;2005-12-21 21:00;METAR CYVR 212100Z 11011KT 15SM -SHRA FEW020 BKN038 12/09 A2969 RMK SC2SC6 PCPN VRY LGT SLP055=

CYVR;2005-12-21 21:55;SPECI CYVR 212155Z 10013KT 20SM BKN038 12/ RMK SC7=

CYVR;2005-12-21 22:00;METAR CYVR 212200Z 10012KT 20SM BKN038 12/10 A2965 RMK SC7 SLP039=

CYVR;2005-12-21 22:22;SPECI CYVR 212222Z 10015KT 20SM -SHRA BKN032 12/ RMK SC7 PCPN VRY LGT=

CYVR;2005-12-21 22:53;SPECI CYVR 212253Z 11015KT 15SM SCT032 OVC061 11/ RMK SC3SC5=

CYVR;2005-12-21 23:00;METAR CYVR 212300Z 11014G19KT 15SM -SHRA SCT032 OVC061 11/09 A2962 RMK SC3SC5 SLP030=

CYVR;2005-12-21 23:39;SPECI CYVR 212339Z 09013KT 15SM FEW020 BKN038 OVC050 11/ RMK SC2SC5SC2=

CYVR;2005-12-22 00:00;METAR CYVR 220000Z 10016KT 20SM FEW015 BKN029 OVC050 12/09 A2960 RMK SC2SC6SC1 SLP023=

CYVR;2005-12-22 00:26;SPECI CYVR 220026Z 11013KT 15SM -SHRA FEW015 BKN030 OVC070 11/ RMK SC1SC6AC1=

CYVR;2005-12-22 01:00;METAR CYVR 220100Z 10009G15KT 8SM SHRA OVC027 11/09 A2958 RMK SC8 BR SLP017=

CYVR;2005-12-22 03:00;METAR CYVR 220300Z 12013G18KT 10SM SCT027 OVC065 11/09 A2957 RMK SC3SC5 SLP012=

CYVR;2005-12-22 03:07;SPECI CYVR 220307Z 14014KT 10SM -SHRA SCT024 OVC065 11/ RMK SC4SC4 PCPN VRY LGT=

CYVR;2005-12-22 03:55;SPECI CYVR 220355Z 11009KT 15SM SCT024 BKN070 OVC089 11/ RMK SF3AC3AC1=

CYVR;2005-12-22 04:00;METAR CYVR 220400Z 10011KT 15SM FEW025 SCT070 OVC092 11/09 A2957 RMK SF2AC2AC3 SLP014=

CYVR;2005-12-22 04:05;SPECI CYVR 220405Z 10010KT 15SM -SHRA FEW025 SCT070 OVC092 11/ RMK SF2AC2AC3 PCPN VRY LGT=

CYVR;2005-12-22 05:00;METAR CYVR 220500Z 12010KT 15SM -SHRA FEW025 BKN065 OVC170 10/09 A2957 RMK SC2SC4AC2 VIS N QUAD 12 SM SLP014=

CYVR;2005-12-22 05:26;SPECI CYVR 220526Z 16010G15KT 15SM FEW030 BKN065 OVC170 11/ RMK SF2SC3AC2=

CYVR;2005-12-22 06:00;METAR CYVR 220600Z 14013KT 15SM SCT030 BKN071 OVC080 11/09 A2957 RMK SC3AC3AC2 SLP013=

CYVR;2005-12-22 08:00;METAR CYVR 220800Z 14014KT 15SM FEW025 BKN058 OVC066 11/09 A2957 RMK SF2SC5AC2 SLP014=

CYVR;2005-12-22 08:48;SPECI CYVR 220848Z 14014KT 15SM -SHRA FEW025 BKN060 OVC080 11/ RMK SF2SC5AC2=

CYVR;2005-12-22 09:00;METAR CYVR 220900Z 14017KT 15SM -SHRA FEW025 BKN065 OVC080 11/09 A2958 RMK SF2SC5AC2 SLP017=

CYVR;2005-12-22 10:00;METAR CYVR 221000Z 13013KT 15SM -SHRA FEW025 OVC059 10/09 A2958 RERA RMK SF2SC6 SLP018=

CYVR;2005-12-22 11:00;METAR CYVR 221100Z 13008KT 12SM -SHRA FEW025 OVC055 10/09 A2958 RMK SF2SC6 SLP018=

CYVR;2005-12-22 11:20;SPECI CYVR 221120Z 11010KT 6SM SHRA SCT033 OVC055 10/ RMK SC3SC5 VIS N QUAD LWR 3 SM=

CYVR;2005-12-22 11:48;SPECI CYVR 221148Z 11011KT 10SM -SHRA SCT033 OVC055 10/ RMK SC3SC5=

CYVR;2005-12-22 12:00;METAR CYVR 221200Z 13009KT 15SM -SHRA FEW035 BKN062 OVC070 10/09 A2956 RERA RMK SC2SC4AC2 VIS N QUAD 10 SM SLP011=

CYVR;2005-12-22 13:00;METAR CYVR 221300Z 11010G15KT 15SM -SHRA FEW020 SCT035 OVC061 10/09 A2954 RMK SF2SC2SC5 SLP005=

CYVR;2005-12-22 14:00;METAR CYVR 221400Z 12013KT 15SM -SHRA FEW020 OVC062 10/09 A2953 RMK SC2SC6 SLP999=

CYVR;2005-12-22 14:53;SPECI CYVR 221453Z 11011G16KT 12SM FEW017 BKN059 OVC070 10/ RMK SF2SC5AC2=

CYVR;2005-12-22 15:00;METAR CYVR 221500Z 11012KT 12SM FEW017 BKN059 OVC070 10/09 A2950 RMK SF2SC6AC1 SLP990=

CYVR;2005-12-22 15:24;SPECI CYVR 221524Z 09012KT 10SM -SHRA FEW018 BKN059 OVC080 10/ RMK SF2SC5AC1=

CYVR;2005-12-22 16:00;METAR CYVR 221600Z 10015KT 8SM -SHRA FEW015 BKN026 OVC060 10/09 A2947 RMK SF1SC5SC2 SLP979=

CYVR;2005-12-22 17:00;METAR CYVR 221700Z 13021G28KT 8SM -RA FEW015 BKN029 BKN055 OVC070 11/09 A2946 RMK SF1SC6SC1AC1 SLP976=

CYVR;2005-12-22 17:12;SPECI CYVR 221712Z 12022G29KT 10SM FEW015 SCT028 BKN055 BKN070 10/ RMK SF1SC3SC2AC2=

CYVR;2005-12-22 17:29;SPECI CYVR 221729Z 11019G25KT 12SM -SHRA FEW016 SCT025 BKN058 BKN074 11/ RMK SF1SC3SC2AC2=

CYVR;2005-12-22 18:00;METAR CYVR 221800Z 10014G19KT 15SM -SHRA FEW017 BKN030 BKN060 BKN075 10/09 A2946 RMK SF1SC5SC1AC1 SLP975=

CYVR;2005-12-22 19:00;METAR CYVR 221900Z 15024G31KT 15SM -SHRA FEW016 BKN032 BKN050 OVC070 11/08 A2947 RMK SF1SC4SC2AC1 SLP981=

CYVR;2005-12-22 19:19;SPECI CYVR 221919Z 15020G25KT 15SM FEW015 SCT030 BKN050 BKN090 12/ RMK SF1SC2SC2AC2=

CYVR;2005-12-22 20:00;METAR CYVR 222000Z 14013G20KT 15SM FEW015 SCT055 BKN080 BKN150 13/09 A2950 RMK SF1SC2AC2AC1 SLP990=

CYVR;2005-12-22 21:00;METAR CYVR 222100Z 16013G18KT 15SM FEW020 FEW050 BKN090 BKN120 13/08 A2952 RMK SF1SC2AC2AC1 SLP997=

CYVR;2005-12-22 22:00;METAR CYVR 222200Z 15011G16KT 20SM FEW020 SCT080 BKN140 BKN180 13/08 A2952 RMK SC1AC2AC2AC2 SLP996=

CYVR;2005-12-22 23:00;METAR CYVR 222300Z 13009KT 15SM FEW020 SCT050 BKN072 12/08 A2953 RMK SC1SC2AC4 SHS W SLP001=

CYVR;2005-12-22 23:11;SPECI CYVR 222311Z 12007KT 12SM -SHRA FEW020 BKN055 BKN070 12/ RMK SC1SC5AC2=

CYVR;2005-12-22 23:25;SPECI CYVR 222325Z 11008KT 12SM FEW020 BKN055 BKN070 BKN120 11/ RMK SC1SC4AC2AC1=

CYVR;2005-12-23 00:00;METAR CYVR 230000Z 14012KT 15SM FEW020 BKN060 BKN070 BKN120 12/08 A2955 RMK SC1SC4AC2AC1 SLP006=

CYVR;2005-12-23 00:52;SPECI CYVR 230052Z 13011KT 12SM -SHRA FEW020 BKN059 BKN070 11/ RMK SC2SC5AC1=

CYVR;2005-12-23 01:00;METAR CYVR 230100Z 14011KT 10SM -SHRA FEW020 BKN059 BKN070 BKN140 11/08 A2956 RMK SC2SC4AC1AC1 SLP011=

CYVR;2005-12-23 01:40;SPECI CYVR 230140Z 17012KT 12SM FEW020 BKN045 BKN070 OVC140 10/ RMK SC2SC3AC2AC2=

CYVR;2005-12-23 02:00;METAR CYVR 230200Z 19015G20KT 12SM FEW020 SCT035 BKN050 OVC080 11/08 A2960 RMK SC2SC2SC2AC2 TWR RPTS LTG DIST SE SLP023=

CYVR;2005-12-23 02:13;SPECI CYVR 230213Z 21015G22KT 10SM -SHRA FEW020 SCT035 BKN050 OVC070 10/ RMK SC2SC2SC2AC2=

CYVR;2005-12-23 02:44;SPECI CYVR 230244Z 24008KT 10SM FEW020 SCT050 OVC073 10/ RMK SC2SC2AC4=

CYVR;2005-12-23 03:00;METAR CYVR 230300Z 23005KT 12SM FEW020 SCT054 BKN077 OVC130 09/07 A2964 RMK SC2SC2AC3AC1 SLP037=

CYVR;2005-12-23 04:00;METAR CYVR 230400Z 18004KT 15SM FEW020 SCT062 BKN091 OVC120 09/07 A2969 RMK SC1SC2AC3AC2 SLP055=

CYVR;2005-12-23 05:54;SPECI CYVR 230554Z 14008KT 12SM -SHRA FEW020 BKN061 OVC096 10/ RMK SC2SC4AC2=

CYVR;2005-12-23 06:00;METAR CYVR 230600Z 11006KT 12SM -SHRA FEW020 BKN063 OVC096 10/07 A2981 RMK SC2SC4AC2 SLP094=

CYVR;2005-12-23 06:19;SPECI CYVR 230619Z 10005KT 15SM FEW035 BKN057 OVC100 10/ RMK SC2SC4AC2=

CYVR;2005-12-23 07:00;METAR CYVR 230700Z 15013KT 15SM FEW035 BKN059 OVC095 10/08 A2985 RMK SC2SC4AC2 SLP108=

CYVR;2005-12-23 10:00;METAR CYVR 231000Z 18011KT 15SM FEW030 BKN062 OVC240 10/07 A2999 RMK SC1SC5CI2 SLP156=

CYVR;2005-12-23 11:00;METAR CYVR 231100Z 18010KT 15SM FEW030 SCT058 OVC230 10/06 A3004 RMK SC1SC3CI3 SLP171=

CYVR;2005-12-23 12:00;METAR CYVR 231200Z 16004KT 15SM FEW030 SCT061 OVC210 10/06 A3007 RMK SC1SC3CI3 SLP183=

CYVR;2005-12-23 13:00;METAR CYVR 231300Z 05004KT 15SM FEW030 BKN052 OVC210 11/06 A3011 RMK SC1SC4CI3 SLP195=

CYVR;2005-12-23 14:00;METAR CYVR 231400Z 08008KT 15SM SCT050 BKN081 OVC150 09/07 A3013 RMK SC3AC3AC2 SLP204=

CYVR;2005-12-23 15:00;METAR CYVR 231500Z 10009KT 12SM SCT050 BKN080 OVC110 09/08 A3014 RMK SC3AC2AC3 SLP207=

CYVR;2005-12-23 16:00;METAR CYVR 231600Z 09007KT 15SM FEW012 BKN049 OVC120 09/08 A3015 RMK SF1SC5AC2 SLP211=

CYVR;2005-12-23 17:00;METAR CYVR 231700Z 09007KT 15SM FEW013 SCT060 BKN150 09/08 A3016 RMK SF1SC3AC2 SLP214=

CYVR;2005-12-23 18:00;METAR CYVR 231800Z 07007KT 12SM FEW025 SCT150 BKN200 10/08 A3017 RMK CU1AC3CI2 SLP218=

CYVR;2005-12-23 19:00;METAR CYVR 231900Z 08007KT 12SM BKN021 BKN140 OVC200 11/08 A3014 RMK SF6AC1CI2 SLP208=

CYVR;2005-12-23 20:00;METAR CYVR 232000Z 08009KT 12SM BKN021 BKN150 OVC200 12/09 A3012 RMK SC6AC1CI1 SLP199=

CYVR;2005-12-23 21:00;METAR CYVR 232100Z 08008KT 12SM SCT020 BKN030 OVC130 12/09 A3010 RMK SC3SC4AC1 SLP192=

CYVR;2005-12-23 22:00;METAR CYVR 232200Z 11010KT 15SM SCT020 BKN036 OVC080 11/08 A3006 RMK SC3SC4AC1 SLP181=

CYVR;2005-12-23 23:00;METAR CYVR 232300Z 11014G19KT 5SM -RA BR FEW020 BKN035 OVC050 10/09 A3003 RMK SC2SC3SC3 SLP170=

CYVR;2005-12-24 00:00;METAR CYVR 240000Z 09015KT 5SM -RA BR FEW020 BKN051 OVC070 10/09 A3001 RMK CF1SC5AC2 SLP161=

CYVR;2005-12-24 02:00;METAR CYVR 240200Z 09011KT 10SM -RA FEW025 OVC047 09/08 A2995 RMK SF2SC6 SLP142=

CYVR;2005-12-24 03:00;METAR CYVR 240300Z 09008KT 10SM -RA BKN030 OVC054 09/08 A2994 RMK SC6SC2 SLP140=

CYVR;2005-12-24 04:00;METAR CYVR 240400Z 08010KT 8SM -RA FEW014 BKN022 OVC034 09/08 A2996 RMK SF2SC4SC2 SLP146=

CYVR;2005-12-24 05:00;METAR CYVR 240500Z 08012KT 10SM -RA BKN016 OVC038 09/08 A2997 RMK SC5SC3 SLP150=

CYVR;2005-12-24 05:39;SPECI CYVR 240539Z 09013G18KT 10SM -RA SCT008 BKN015 OVC035 09/ RMK SF3SC3SC2=

CYVR;2005-12-24 05:51;SPECI CYVR 240551Z 09012KT 8SM -RA BKN007 OVC016 09/ RMK SF5SC3=

CYVR;2005-12-24 06:17;SPECI CYVR 240617Z 10011KT 3SM -DZ BR BKN008 OVC015 09/ RMK SF6SC2=

CYVR;2005-12-24 07:00;METAR CYVR 240700Z 07013G18KT 3SM -DZ BR BKN008 OVC015 09/09 A2997 RMK SF5SC3 SLP149=

CYVR;2005-12-24 08:00;METAR CYVR 240800Z 08011G17KT 3SM -DZ BR BKN008 OVC015 10/09 A2994 RMK SF6SC2 SLP139=

CYVR;2005-12-24 08:22;SPECI CYVR 240822Z 09008KT 3SM -RA BR SCT008 OVC015 10/ RMK SF3SC5=

CYVR;2005-12-24 09:50;SPECI CYVR 240950Z 07010KT 3SM -RA BR BKN009 OVC015 09/ RMK SF6SC2=

CYVR;2005-12-24 10:00;METAR CYVR 241000Z 07011KT 3SM RA BR BKN008 OVC015 09/09 A2993 RMK SF6SC2 SLP135=

CYVR;2005-12-24 11:00;METAR CYVR 241100Z 10012KT 3SM RA BR BKN008 OVC012 10/09 A2991 RMK SF5SC3 SLP128=

CYVR;2005-12-24 12:00;METAR CYVR 241200Z 09012KT 3SM -RA BR BKN009 BKN018 OVC041 10/09 A2990 RMK SF5SC2SC1 SLP124=

CYVR;2005-12-24 13:00;METAR CYVR 241300Z 10011KT 4SM -RA BR BKN007 BKN018 OVC050 10/10 A2987 RMK SF5SC2SC1 SLP115=

CYVR;2005-12-24 14:00;METAR CYVR 241400Z 09012G18KT 5SM -RA BR BKN008 BKN017 OVC044 11/10 A2982 RMK SF5SC2SC1 SLP099=

CYVR;2005-12-24 14:47;SPECI CYVR 241447Z 10016KT 8SM -RA SCT006 BKN012 OVC036 11/ RMK SF3SC2SC2=

CYVR;2005-12-24 15:00;METAR CYVR 241500Z 10013KT 8SM SCT007 BKN011 OVC036 11/10 A2982 RMK SF3SC2SC3 SLP098=

CYVR;2005-12-24 15:10;SPECI CYVR 241510Z 12013KT 8SM SCT007 SCT012 OVC035 12/ RMK SF3SC1SC4=

CYVR;2005-12-24 16:00;METAR CYVR 241600Z 13017G22KT 12SM FEW008 FEW013 BKN035 OVC050 13/11 A2982 RMK SF2SC1SC5SC1 SLP099=

CYVR;2005-12-24 16:50;SPECI CYVR 241650Z 12016G21KT 10SM -RA FEW009 FEW015 BKN033 OVC050 13/ RMK SF2SC1SC4SC2=

CYVR;2005-12-24 17:00;METAR CYVR 241700Z 12014G19KT 6SM -RA BR FEW009 FEW015 BKN034 OVC050 13/11 A2983 RMK SF2SF1SC5SC1 VIS HIER W SLP100=

CYVR;2005-12-24 17:19;SPECI CYVR 241719Z 12014KT 2 1/2SM -RA BR FEW009 FEW015 OVC033 13/ RMK SF1SF2SC6=

CYVR;2005-12-24 17:34;SPECI CYVR 241734Z 12014KT 4SM -RA BR FEW009 FEW016 BKN032 OVC045 13/ RMK SF1SF1SC6SC1=

CYVR;2005-12-24 18:00;METAR CYVR 241800Z 12016KT 10SM -RA SCT007 BKN033 OVC045 13/12 A2983 RMK SF3SC4SC1 VIS NE - E 5 SLP103=

CYVR;2005-12-24 19:00;METAR CYVR 241900Z 13016KT 10SM -RA FEW007 SCT013 BKN033 OVC045 14/12 A2984 RMK SF2SF2SC3SC2 VIS LWR N - NE SLP106=

CYVR;2005-12-24 19:31;SPECI CYVR 241931Z 13013KT 12SM FEW008 FEW015 BKN041 OVC070 14/ RMK SF1SF2SC5AC1=

CYVR;2005-12-24 20:00;METAR CYVR 242000Z 14014KT 20SM FEW009 BKN037 BKN050 OVC070 14/12 A2984 RMK SF2SC5SC1AC1 VIS LWR N - NE SLP104=

CYVR;2005-12-24 21:00;METAR CYVR 242100Z 12014G19KT 20SM FEW011 BKN041 BKN060 OVC070 14/12 A2980 RMK SC2SC4SC2AC1 SLP092=

CYVR;2005-12-24 22:00;METAR CYVR 242200Z 11015KT 20SM FEW012 BKN040 OVC060 14/12 A2978 RMK SC2SC5SC2 SLP083=

CYVR;2005-12-24 22:07;SPECI CYVR 242207Z 11014KT 15SM -SHRA FEW012 BKN038 OVC060 14/ RMK SC2SC6SC1 VIS HIER W=

CYVR;2005-12-24 23:00;METAR CYVR 242300Z 11013G20KT 8SM -SHRA FEW012 BKN039 OVC055 13/12 A2978 RMK SC2SC6SC1 VIS HIER W SLP083=

CYVR;2005-12-24 23:16;SPECI CYVR 242316Z 11012G18KT 12SM FEW012 BKN038 OVC060 13/ RMK SC2SC5SC2=

CYVR;2005-12-25 01:00;METAR CYVR 250100Z 11012KT 15SM FEW015 BKN041 BKN060 OVC090 13/12 A2974 RMK SC2SC4SC2AC1 SLP071=

CYVR;2005-12-25 02:00;METAR CYVR 250200Z 10009KT 15SM FEW015 BKN040 BKN060 OVC080 13/11 A2972 RMK SC2SC4SC2AC1 SLP066=

CYVR;2005-12-25 02:10;SPECI CYVR 250210Z 11010KT 15SM -SHRA FEW015 BKN044 OVC060 13/ RMK SC2SC5SC2=

CYVR;2005-12-25 04:00;METAR CYVR 250400Z 09009KT 10SM -SHRA FEW015 BKN039 OVC069 13/12 A2968 RMK SC2SC4AC2 SLP051=

CYVR;2005-12-25 05:00;METAR CYVR 250500Z 09008KT 15SM SCT024 BKN044 OVC074 13/11 A2965 RMK SC3SC3AC2 SLP040=

CYVR;2005-12-25 06:00;METAR CYVR 250600Z 10008KT 15SM FEW024 SCT044 OVC076 13/11 A2961 RMK SC2SC2AC5 SLP028=

CYVR;2005-12-25 07:00;METAR CYVR 250700Z 09003KT 15SM BKN022 BKN080 OVC140 13/11 A2960 RMK SC5AC2AC1 SLP024=

CYVR;2005-12-25 07:07;SPECI CYVR 250707Z 14004KT 15SM -SHRA SCT022 BKN075 OVC140 13/ RMK SC4AC3AC1=

CYVR;2005-12-25 09:00;METAR CYVR 250900Z 13010KT 8SM SHRA SCT024 OVC059 13/11 A2954 RMK SC4SC4 SLP003=

CYVR;2005-12-25 09:50;SPECI CYVR 250950Z 09010KT 15SM FEW025 BKN060 OVC110 12/ RMK SC2SC2AC3=

CYVR;2005-12-25 10:00;METAR CYVR 251000Z 10009KT 15SM FEW020 SCT060 OVC100 12/11 A2949 RERA RMK SC2SC2AC4 SLP985=

CYVR;2005-12-25 10:23;SPECI CYVR 251023Z 12010G15KT 12SM -SHRA FEW020 BKN074 OVC100 13/ RMK SC2AC5AC2=

CYVR;2005-12-25 10:55;SPECI CYVR 251055Z 11006KT 15SM FEW020 BKN069 OVC100 12/ RMK SC2AC5AC2=

CYVR;2005-12-25 11:00;METAR CYVR 251100Z 15002KT 15SM SCT015 BKN059 OVC074 13/11 A2948 RMK SC3SC2AC2 SLP984=

CYVR;2005-12-25 11:39;SPECI CYVR 251139Z 11007KT 15SM BKN013 OVC059 12/ RMK SC6SC2=

CYVR;2005-12-25 12:00;METAR CYVR 251200Z 10010KT 15SM BKN013 BKN060 OVC085 12/11 A2944 RMK SC5SC2AC2 SLP971=

CYVR;2005-12-25 12:29;SPECI CYVR 251229Z 10013KT 15SM -SHRA SCT014 OVC079 13/ RMK SC3AC5=

CYVR;2005-12-25 12:53;SPECI CYVR 251253Z 11013KT 15SM SCT016 OVC063 13/ RMK SC4SC4=

CYVR;2005-12-25 13:00;METAR CYVR 251300Z 12014KT 15SM -SHRA SCT016 BKN056 OVC078 13/11 A2943 RMK SC4SC3AC1 SLP965=

CYVR;2005-12-25 14:00;METAR CYVR 251400Z 13015KT 12SM -RA FEW017 BKN049 OVC079 12/10 A2942 RMK SC2SC3AC2 SLP964=

CYVR;2005-12-25 16:00;METAR CYVR 251600Z 15009KT 8SM -SHRA BKN020 OVC041 12/10 A2944 RMK SC6SC2 SLP971=

CYVR;2005-12-25 16:07;SPECI CYVR 251607Z 16006KT 6SM -SHRA BR OVC020 12/ RMK SC8 VIS NW - NE QUAD LWR VIS 3 SM=

CYVR;2005-12-25 16:09;SPECI CYVR 251609Z 16006KT 3SM -SHRA BR OVC020 12/ RMK SC8=

CYVR;2005-12-25 16:17;SPECI CYVR 251617Z 17007KT 2 1/2SM -SHRA BR BKN016 OVC021 11/ RMK SC6SC2=

CYVR;2005-12-25 16:35;SPECI CYVR 251635Z 16017KT 3SM -SHRA BR FEW009 SCT016 OVC021 11/ RMK SC2SC2SC4=

CYVR;2005-12-25 16:43;SPECI CYVR 251643Z 16017G22KT 7SM -SHRA FEW009 SCT016 OVC021 11/ RMK SC2SC2SC4=

CYVR;2005-12-25 17:00;METAR CYVR 251700Z 16015G20KT 15SM -RA FEW016 SCT040 BKN070 11/10 A2948 RMK SF1SC2AC4 SLP984=

CYVR;2005-12-25 17:33;SPECI CYVR 251733Z 18018G24KT 15SM FEW015 FEW070 BKN095 12/ RMK SF2AC1AC5=

CYVR;2005-12-25 18:00;METAR CYVR 251800Z 19018G25KT 15SM FEW015 SCT070 BKN140 12/07 A2955 RMK SF2AC2AC3 PRESRR SLP006=

CYVR;2005-12-25 19:00;METAR CYVR 251900Z 18010KT 15SM FEW025 SCT095 OVC140 11/08 A2961 RMK SC2AC2AC3 PRESRR SLP026=

CYVR;2005-12-25 20:00;METAR CYVR 252000Z 16013KT 15SM FEW035 SCT090 BKN140 12/07 A2963 RMK SC2AC2AC2 SLP035=

CYVR;2005-12-25 21:00;METAR CYVR 252100Z 11009KT 15SM FEW030 SCT130 BKN150 11/09 A2964 RMK SC2AC2AC3 SLP036=

CYVR;2005-12-25 22:00;METAR CYVR 252200Z 09008KT 15SM FEW035 FEW095 BKN140 10/08 A2963 RMK SC2AC1AC4 SLP035=

CYVR;2005-12-25 22:45;SPECI CYVR 252245Z 09014KT 15SM -SHRA FEW035 SCT100 BKN140 10/ RMK SC2AC2AC3=

CYVR;2005-12-25 23:17;SPECI CYVR 252317Z 11013KT 15SM -SHRA FEW025 FEW035 OVC140 10/ RMK SF1SC2AC5 PCPN VRY LGT=

CYVR;2005-12-26 00:00;METAR CYVR 260000Z 12011KT 15SM -SHRA FEW025 FEW040 OVC140 10/07 A2962 RMK SC1SC2AC6 SLP031=

CYVR;2005-12-26 00:08;SPECI CYVR 260008Z 12011KT 15SM FEW025 FEW035 OVC140 10/ RMK SC1SC2AC6=

CYVR;2005-12-26 00:16;SPECI CYVR 260016Z 12010KT 15SM -SHRA FEW025 FEW035 OVC140 10/ RMK SC1SC2AC6 PCPN VRY LGT=

CYVR;2005-12-26 01:00;METAR CYVR 260100Z 10010KT 15SM FEW035 BKN085 OVC140 10/07 A2961 RMK SC2AC5AC2 SLP026=

CYVR;2005-12-26 01:16;SPECI CYVR 260116Z 10010KT 15SM -SHRA SCT022 BKN085 OVC130 10/ RMK SC3AC3AC2 PCPN VRY LGT=

CYVR;2005-12-26 02:00;METAR CYVR 260200Z 10008KT 15SM BKN022 OVC085 10/07 A2959 RMK SC6AC2 SLP020=

CYVR;2005-12-26 02:15;SPECI CYVR 260215Z 10010KT 15SM -SHRA BKN023 OVC085 10/ RMK SC6AC2 PCPN VRY LGT=

CYVR;2005-12-26 04:00;METAR CYVR 260400Z 08010KT 12SM -SHRA FEW025 BKN036 OVC058 10/08 A2957 RMK SC2SC3SC2 SLP015=

CYVR;2005-12-26 06:00;METAR CYVR 260600Z 09014KT 12SM -RA BKN035 OVC056 10/07 A2956 RMK SC6SC2 SLP010=

CYVR;2005-12-26 06:17;SPECI CYVR 260617Z 09015KT 15SM BKN039 OVC052 10/ RMK SC6SC2=

CYVR;2005-12-26 08:00;METAR CYVR 260800Z 08013KT 15SM SCT041 BKN057 OVC110 10/07 A2953 RMK SC3SC3AC2 SLP999=

CYVR;2005-12-26 09:00;METAR CYVR 260900Z 10013KT 15SM SCT042 SCT060 OVC100 09/07 A2951 RMK SC3SC1AC4 SLP992=

CYVR;2005-12-26 09:35;SPECI CYVR 260935Z 10011G16KT 15SM -RA SCT042 BKN071 OVC100 09/ RMK SC3AC3AC2=

CYVR;2005-12-26 10:35;SPECI CYVR 261035Z 09012KT 15SM SCT046 BKN081 OVC100 09/ RMK SC3AC3AC2=

CYVR;2005-12-26 10:54;SPECI CYVR 261054Z 09012KT 15SM -SHRA BKN047 OVC080 09/ RMK SC5AC3=

CYVR;2005-12-26 11:00;METAR CYVR 261100Z 09009KT 15SM -SHRA BKN045 BKN082 OVC100 09/07 A2949 RMK SC5AC2AC1 SLP985=

CYVR;2005-12-26 11:38;SPECI CYVR 261138Z 10010KT 15SM BKN041 BKN080 OVC100 09/ RMK SC6AC2AC1=

CYVR;2005-12-26 12:00;METAR CYVR 261200Z 10013KT 15SM BKN043 OVC080 09/07 A2946 RMK SC6AC2 SLP977=

CYVR;2005-12-26 13:00;METAR CYVR 261300Z 10013KT 15SM BKN044 OVC085 10/07 A2945 RMK SC6AC2 SLP972=

CYVR;2005-12-26 14:00;METAR CYVR 261400Z 12009KT 15SM BKN040 OVC085 10/07 A2947 RMK SC6AC2 SLP978=

CYVR;2005-12-26 14:22;SPECI CYVR 261422Z 14007KT 15SM -SHRA BKN040 OVC080 10/ RMK SC6AC2=

CYVR;2005-12-26 14:47;SPECI CYVR 261447Z 11007KT 15SM OVC041 10/ RMK SC8=

CYVR;2005-12-26 15:56;SPECI CYVR 261556Z 09010KT 15SM -SHRA FEW025 BKN040 OVC080 09/ RMK SC2SC5AC2=

CYVR;2005-12-26 16:00;METAR CYVR 261600Z 09011KT 15SM -SHRA FEW025 BKN033 OVC040 09/07 A2949 RMK SC2SC5SC2 SLP987=

CYVR;2005-12-26 17:00;METAR CYVR 261700Z 12012G18KT 15SM -SHRA BKN022 OVC030 09/08 A2954 RMK SC6SC2 SLP002=

CYVR;2005-12-26 18:00;METAR CYVR 261800Z 11009KT 15SM -RA BKN020 OVC041 09/08 A2957 RMK SC6SC2 SLP015=

CYVR;2005-12-26 19:00;METAR CYVR 261900Z 13012KT 15SM -SHRA FEW020 SCT040 BKN083 10/09 A2959 RMK SC2SC2AC4 SLP021=

CYVR;2005-12-26 19:17;SPECI CYVR 261917Z 13010KT 15SM FEW020 FEW040 BKN085 10/ RMK SF1SC2AC5=

CYVR;2005-12-26 20:00;METAR CYVR 262000Z 14007KT 15SM FEW025 SCT040 BKN090 11/09 A2962 RMK SF1SC2AC3 SLP032=

CYVR;2005-12-26 22:00;METAR CYVR 262200Z 16011KT 15SM FEW020 FEW040 BKN085 BKN100 11/07 A2970 RMK SF1SC2AC3AC2 SLP057=

CYVR;2005-12-26 23:00;METAR CYVR 262300Z 13009KT 15SM FEW020 FEW040 BKN088 11/06 A2973 RMK SF1SC2AC4 LENT SLP067=

CYVR;2005-12-27 00:00;METAR CYVR 270000Z 16007KT 20SM FEW020 BKN085 11/06 A2976 RMK SC2AC5=

CYVR;2005-12-27 03:00;METAR CYVR 270300Z 10010KT 15SM FEW035 FEW081 08/06 A2982 RMK SC2AC1 SLP099=

CYVR;2005-12-27 03:43;SPECI CYVR 270343Z 11010KT 15SM SCT008 BKN034 07/ RMK SC4SC1=

CYVR;2005-12-27 04:00;METAR CYVR 270400Z 09009KT 15SM FEW008 SCT210 07/06 A2982 RMK SC2CI1 SLP099=

CYVR;2005-12-27 05:00;METAR CYVR 270500Z 10012KT 12SM FEW008 BKN033 08/06 A2983 RMK SC2SC4 SLP101=

CYVR;2005-12-27 08:00;METAR CYVR 270800Z 09013KT 15SM FEW030 SCT042 OVC095 09/05 A2977 RMK SC2SC2AC4 SLP081=

CYVR;2005-12-27 08:19;SPECI CYVR 270819Z 09014KT 15SM -SHRA FEW030 BKN044 OVC068 09/ RMK SC2SC5AC2=

CYVR;2005-12-27 09:00;METAR CYVR 270900Z 10016G24KT 8SM -SHRA FEW030 OVC053 08/05 A2975 RMK SC1SC7 SLP073=

CYVR;2005-12-27 09:23;SPECI CYVR 270923Z 09016KT 15SM -RA FEW030 OVC042 08/ RMK SC1SC7=

CYVR;2005-12-27 10:00;METAR CYVR 271000Z 09020KT 15SM -RA OVC040 08/06 A2971 RMK SC8 SLP061=

CYVR;2005-12-27 10:53;SPECI CYVR 271053Z 09019G25KT 6SM RA BR OVC034 08/ RMK SC8=

CYVR;2005-12-27 11:26;SPECI CYVR 271126Z 10016G22KT 6SM RA BR OVC034 07/ RMK SC8=

CYVR;2005-12-27 12:00;METAR CYVR 271200Z 09015G20KT 6SM RA BR OVC031 07/06 A2967 RMK SC8 SLP047=

CYVR;2005-12-27 13:00;METAR CYVR 271300Z 09015KT 8SM -RA OVC033 07/06 A2965 RMK SC8 BR SLP042=

CYVR;2005-12-27 14:00;METAR CYVR 271400Z 09013G18KT 8SM -RA OVC025 07/06 A2965 RMK SC8 BR SLP042=

CYVR;2005-12-27 15:00;METAR CYVR 271500Z 12012G17KT 8SM -RA SCT025 OVC031 08/06 A2969 RMK SC4SC4 SLP053=

CYVR;2005-12-27 15:12;SPECI CYVR 271512Z 12015KT 6SM -RA BR OVC026 08/ RMK SC8=

CYVR;2005-12-27 15:22;SPECI CYVR 271522Z 12011G16KT 8SM -RA SCT021 OVC027 08/ RMK SC3SC5=

CYVR;2005-12-27 16:00;METAR CYVR 271600Z 11013KT 15SM -SHRA SCT025 OVC042 08/06 A2971 RMK SC3SC5 SLP061=

CYVR;2005-12-27 16:25;SPECI CYVR 271625Z 11008KT 15SM FEW020 OVC042 08/ RMK SC2SC6=

CYVR;2005-12-27 17:00;METAR CYVR 271700Z 14008KT 15SM FEW020 BKN052 BKN065 09/06 A2975 RMK SC2SC4SC2 SLP073=

CYVR;2005-12-27 18:00;METAR CYVR 271800Z 12009KT 20SM FEW020 SCT065 BKN170 BKN220 09/07 A2978 RMK SC2SC2AC2CI1 SLP084=

CYVR;2005-12-27 19:00;METAR CYVR 271900Z 14010G15KT 20SM FEW020 SCT060 BKN170 10/07 A2980 RMK SC2SC2AC3 SLP092=

CYVR;2005-12-27 20:00;METAR CYVR 272000Z 13009KT 20SM FEW020 SCT085 BKN130 10/07 A2982 RMK SC2AC2AC2 SLP098=

CYVR;2005-12-27 21:00;METAR CYVR 272100Z 13009G17KT 20SM FEW020 FEW085 OVC100 10/07 A2984 RMK SC2AC1AC6 VIS N QUAD 15 SM SLP105=

CYVR;2005-12-27 21:26;SPECI CYVR 272126Z 16012KT 15SM -SHRA FEW020 BKN068 OVC110 10/ RMK SC2AC5AC1=

CYVR;2005-12-27 22:00;METAR CYVR 272200Z 09007KT 12SM -SHRA FEW020 BKN044 OVC065 09/07 A2986 RMK SC2SC4SC2 SLP111=

CYVR;2005-12-27 23:00;METAR CYVR 272300Z 12007KT 15SM FEW020 BKN044 BKN065 09/08 A2988 RMK SC2SC3SC1 SLP120=

CYVR;2005-12-27 23:09;SPECI CYVR 272309Z 12009KT 15SM -SHRA FEW020 BKN044 OVC065 09/ RMK SC2SC3SC1=

CYVR;2005-12-27 23:34;SPECI CYVR 272334Z 12009KT 15SM FEW020 SCT050 BKN085 09/ RMK SC2SC1AC1=

CYVR;2005-12-27 23:42;SPECI CYVR 272342Z 11008KT 15SM -SHRA FEW020 SCT050 OVC220 09/ RMK SC1SC1CI1=

CYVR;2005-12-28 00:00;METAR CYVR 280000Z 11008KT 20SM FEW020 SCT056 BKN220 08/07 A2990 RMK SC1SC1CI1 SLP124=

CYVR;2005-12-28 01:00;METAR CYVR 280100Z 10007KT 15SM FEW020 BKN067 OVC220 08/07 A2991 RMK SC2AC3CI0 SLP128=

CYVR;2005-12-28 02:00;METAR CYVR 280200Z 07007KT 15SM FEW020 FEW042 FEW070 07/06 A2990 RMK SC1SC1AC0 SLP125=

CYVR;2005-12-28 04:00;METAR CYVR 280400Z 03008KT 12SM FEW020 FEW042 07/05 A2986 RMK SC2SC1 SLP112=

CYVR;2005-12-28 05:00;METAR CYVR 280500Z 08008KT 15SM FEW020 BKN240 07/05 A2983 RMK SC2CI1 SLP103=

CYVR;2005-12-28 06:00;METAR CYVR 280600Z 09010KT 15SM FEW020 BKN240 06/05 A2983 RMK SC2CI2 SLP100=

CYVR;2005-12-28 08:00;METAR CYVR 280800Z 09005KT 15SM FEW020 BKN190 06/05 A2977 RMK SC1AS6 SLP081=

CYVR;2005-12-28 11:00;METAR CYVR 281100Z 10010KT 15SM OVC190 06/04 A2962 RMK AS8 SLP031=

CYVR;2005-12-28 12:00;METAR CYVR 281200Z 09007KT 15SM OVC140 06/04 A2963 RMK AS8 SLP033=

CYVR;2005-12-28 13:00;METAR CYVR 281300Z 09010KT 15SM OVC090 07/04 A2959 RMK AS8 PRESFR SLP020=

CYVR;2005-12-28 13:34;SPECI CYVR 281334Z 10008KT 15SM -SHRA OVC055 07/ RMK SC8 PCPN VRY LGT=

CYVR;2005-12-28 14:36;SPECI CYVR 281436Z 10011KT 15SM -RA OVC054 07/ RMK SC8=

CYVR;2005-12-28 15:00;METAR CYVR 281500Z 08014KT 15SM -RA OVC050 07/04 A2949 RMK SC8 PRESFR SLP988=

CYVR;2005-12-28 16:00;METAR CYVR 281600Z 10012KT 12SM -RA OVC044 06/05 A2945 RMK SC8 VIS N QUAD 8 SM SLP974=

CYVR;2005-12-28 17:00;METAR CYVR 281700Z 10011KT 8SM -RA OVC039 07/06 A2943 RMK SC8 SLP965=

CYVR;2005-12-28 18:00;METAR CYVR 281800Z 11010G16KT 12SM -RA OVC041 07/06 A2942 RMK SC8 SLP962=

CYVR;2005-12-28 19:00;METAR CYVR 281900Z 15009KT 8SM -RA BKN030 OVC041 08/06 A2947 RMK SC6SC2 SLP980=

CYVR;2005-12-28 21:00;METAR CYVR 282100Z 14009KT 15SM FEW015 FEW035 SCT050 BKN130 BKN220 09/07 A2959 RMK SF1SC2SC2AC2CI2 PRESRR SLP020=

CYVR;2005-12-28 22:00;METAR CYVR 282200Z 20012KT 20SM FEW020 FEW065 11/05 A2962 RMK SC1SC1 SLP031=

CYVR;2005-12-28 23:00;METAR CYVR 282300Z 21011KT 20SM FEW020 FEW055 11/05 A2967 RMK SC2SC1 SLP047=

CYVR;2005-12-29 00:00;METAR CYVR 290000Z 23006KT 20SM FEW025 FEW070 FEW220 09/04 A2971 RMK SC1AC1CI0 SLP061=

CYVR;2005-12-29 01:00;METAR CYVR 290100Z 12007KT 20SM FEW035 SCT080 BKN140 08/04 A2974 RMK SC1AC2AC1 SLP070=

CYVR;2005-12-29 02:00;METAR CYVR 290200Z 20007KT 20SM FEW040 SCT080 BKN140 09/04 A2976 RMK SC1AC1AC2 SLP079=

CYVR;2005-12-29 03:23;SPECI CYVR 290323Z 17003KT 15SM -SHRA SCT040 BKN067 OVC085 08/ RMK SC3AC3AC1=

CYVR;2005-12-29 04:31;SPECI CYVR 290431Z 15004KT 10SM -RA SCT035 OVC053 08/ RMK SC3SC5=

CYVR;2005-12-29 05:00;METAR CYVR 290500Z 15004KT 10SM -RA SCT035 BKN048 OVC080 08/05 A2988 RMK SC3SC3AC2 PCPN VRY LGT SLP117=

CYVR;2005-12-29 05:24;SPECI CYVR 290524Z 17004KT 15SM FEW040 BKN080 BKN160 08/ RMK SC2AC2AC2=

CYVR;2005-12-29 06:00;METAR CYVR 290600Z 16002KT 15SM FEW040 SCT080 BKN160 07/05 A2990 RMK SC2AC2AC4 SLP126=

CYVR;2005-12-29 07:00;METAR CYVR 290700Z 10006KT 15SM FEW045 FEW100 SCT210 05/04 A2993 RMK SC2AC1CI1 SLP137=

CYVR;2005-12-29 09:00;METAR CYVR 290900Z 10005KT 15SM FEW045 FEW110 SCT220 03/02 A2998 RMK SC1AC1CI1 SLP153=

CYVR;2005-12-29 10:00;METAR CYVR 291000Z 10007KT 15SM FEW045 FEW085 SCT160 03/02 A3000 RMK SC1AC1AC2 SLP160=

CYVR;2005-12-29 11:00;METAR CYVR 291100Z 10007KT 15SM FEW045 SCT090 BKN130 03/03 A3002 RMK SC1AC2AC2 SLP166=

CYVR;2005-12-29 12:00;METAR CYVR 291200Z 10009KT 15SM FEW045 BKN075 BKN130 04/03 A3003 RMK SC2AC3AC2 SLP170=

CYVR;2005-12-29 12:39;SPECI CYVR 291239Z 09007KT 12SM -SHRA SCT018 OVC060 05/ RMK SC3SC5 PCPN VRY LGT=

CYVR;2005-12-29 13:00;METAR CYVR 291300Z 10007KT 12SM -SHRA FEW016 SCT060 BKN076 05/04 A3003 RMK SC2SC2AC3 PCPN VRY LGT SLP170=

CYVR;2005-12-29 13:11;SPECI CYVR 291311Z 10007KT 12SM FEW010 SCT015 BKN060 BKN076 05/ RMK SC2SC2SC2AC1=

CYVR;2005-12-29 14:00;METAR CYVR 291400Z 08006KT 12SM FEW015 SCT032 BKN056 BKN092 05/04 A3004 RMK SC2SC2SC2AC2 SLP172=

CYVR;2005-12-29 14:20;SPECI CYVR 291420Z 09009KT 12SM -SHRA FEW015 FEW035 BKN045 BKN065 06/ RMK SC1SC2SC2SC2 PCPN VRY LGT=

CYVR;2005-12-29 15:00;METAR CYVR 291500Z 11008KT 12SM -SHRA FEW010 BKN045 OVC060 07/06 A3004 RMK SF2SC3SC2 SLP171=

CYVR;2005-12-29 15:19;SPECI CYVR 291519Z 10008KT 12SM -SHRA BKN011 BKN044 BKN083 06/ RMK SF5SC2AC1 PCPN VRY LGT=

CYVR;2005-12-29 15:27;SPECI CYVR 291527Z 10008KT 12SM -SHRA SCT010 BKN044 BKN083 BKN120 06/ RMK SF4SC2AC1AC1 PCPN VRY LGT=

CYVR;2005-12-29 16:00;METAR CYVR 291600Z 10007KT 15SM FEW010 FEW017 BKN045 BKN065 06/05 A3004 RMK SF1SC2SC3SC2 SLP172=

CYVR;2005-12-29 17:00;METAR CYVR 291700Z 10004KT 15SM FEW014 BKN022 BKN055 07/05 A3005 RMK SC2SC4SC2 SLP175=

CYVR;2005-12-29 18:00;METAR CYVR 291800Z 10011KT 15SM FEW010 BKN025 OVC045 07/05 A3002 RMK SC2SC3SC2 SLP166=

CYVR;2005-12-29 19:00;METAR CYVR 291900Z 10009KT 15SM BKN025 07/05 A3000 RMK SC6 SLP159=

CYVR;2005-12-29 20:00;METAR CYVR 292000Z 09013KT 20SM FEW025 FEW030 BKN180 OVC220 08/05 A2996 RMK CF1SC2AC2CC2 SLP146=

CYVR;2005-12-29 21:00;METAR CYVR 292100Z 10012KT 20SM SCT024 BKN030 OVC170 08/05 A2993 RMK SC3SC4AC1 SLP136=

CYVR;2005-12-29 22:00;METAR CYVR 292200Z 10012KT 20SM SCT020 OVC025 08/05 A2989 RMK SC3SC5 SLP121=

CYVR;2005-12-29 23:00;METAR CYVR 292300Z 10012KT 20SM FEW025 BKN035 OVC047 08/05 A2986 RMK CF2SC4SC2 SLP113=

CYVR;2005-12-30 00:00;METAR CYVR 300000Z 10012G18KT 20SM FEW025 OVC031 08/04 A2981 RMK SC2SC6 SLP096=

CYVR;2005-12-30 01:00;METAR CYVR 300100Z 09017G22KT 15SM FEW030 BKN035 OVC050 08/04 A2975 RMK SC2SC5SC2 PRESFR SLP076=

CYVR;2005-12-30 02:00;METAR CYVR 300200Z 09020G25KT 15SM BKN036 OVC130 08/03 A2970 RMK SC6AC2 PRESFR SLP058=

CYVR;2005-12-30 02:31;SPECI CYVR 300231Z 09017KT 15SM -SHRA SCT035 BKN066 OVC130 08/ RMK SC3AC3AC2=

CYVR;2005-12-30 03:00;METAR CYVR 300300Z 11017G24KT 15SM -SHRA SCT025 BKN035 OVC065 08/03 A2967 RMK SC3SC3SC2 SLP046=

CYVR;2005-12-30 03:53;SPECI CYVR 300353Z 11019KT 8SM -RA SCT025 OVC035 07/ RMK SC3SC5=

CYVR;2005-12-30 04:00;METAR CYVR 300400Z 10018G26KT 8SM -RA SCT025 OVC035 07/04 A2962 RMK SC3SC5 SLP030=

CYVR;2005-12-30 05:00;METAR CYVR 300500Z 10018G24KT 8SM -RA SCT025 OVC036 07/04 A2956 RMK SC3SC5 PRESFR SLP010=

CYVR;2005-12-30 06:00;METAR CYVR 300600Z 09018KT 8SM -RA SCT025 OVC040 06/04 A2949 RMK SC3SC5 PRESFR SLP988=

CYVR;2005-12-30 09:00;METAR CYVR 300900Z 09014KT 8SM -RA FEW025 OVC040 06/04 A2939 RMK SC2SC6 SLP953=

CYVR;2005-12-30 10:00;METAR CYVR 301000Z 09014KT 8SM -RA FEW028 OVC036 06/04 A2938 RMK SC2SC6 SLP950=

CYVR;2005-12-30 11:00;METAR CYVR 301100Z 08014KT 8SM -RA FEW025 BKN032 OVC130 06/05 A2937 RMK SC2SC5AC1 SLP946=

CYVR;2005-12-30 12:00;METAR CYVR 301200Z 08012KT 8SM -RA SCT025 OVC037 06/05 A2936 RMK SC4SC4 SLP942=

CYVR;2005-12-30 13:00;METAR CYVR 301300Z 09006KT 8SM -RA FEW020 OVC027 06/05 A2936 RMK SC2SC6 SLP942=

CYVR;2005-12-30 14:00;METAR CYVR 301400Z 08012KT 8SM -RA FEW023 OVC030 06/05 A2934 RMK SF2SC6 SLP937=

CYVR;2005-12-30 14:50;SPECI CYVR 301450Z 06005KT 8SM -RA FEW007 OVC018 06/ RMK SF2SC6=

CYVR;2005-12-30 15:00;METAR CYVR 301500Z 07009KT 8SM -RA FEW008 OVC021 06/05 A2934 RMK SF2SC6 SLP936=

CYVR;2005-12-30 16:00;METAR CYVR 301600Z 08006KT 8SM -RA FEW008 OVC022 06/05 A2933 RMK SF2SC6 SLP933=

CYVR;2005-12-30 17:00;METAR CYVR 301700Z 07006KT 8SM -RA FEW008 OVC025 06/05 A2933 RMK SF1SC7 SLP933=

CYVR;2005-12-30 17:32;SPECI CYVR 301732Z 08009KT 10SM FEW009 OVC028 06/ RMK SF1SC7=

CYVR;2005-12-30 18:00;METAR CYVR 301800Z 08008KT 12SM OVC032 07/06 A2933 RMK SC8 SLP932=

CYVR;2005-12-30 19:00;METAR CYVR 301900Z 09008KT 15SM OVC029 07/06 A2931 RMK SC8 SLP927=

CYVR;2005-12-30 20:00;METAR CYVR 302000Z 12006KT 15SM OVC029 07/06 A2928 RMK SC8 SLP915=

CYVR;2005-12-30 20:46;SPECI CYVR 302046Z 14005KT 12SM -RA OVC028 07/ RMK SC8=

CYVR;2005-12-30 21:00;METAR CYVR 302100Z 09003KT 12SM -RA OVC028 07/06 A2926 RMK SC8 SLP907=

CYVR;2005-12-30 21:48;SPECI CYVR 302148Z 08004KT 8SM BKN030 OVC050 08/ RMK SC6SC1=

CYVR;2005-12-30 22:00;METAR CYVR 302200Z 03004KT 10SM BKN030 OVC050 08/07 A2921 RMK SC6SC1 SLP892=

CYVR;2005-12-30 23:00;METAR CYVR 302300Z 33006KT 15SM OVC031 08/07 A2919 RMK SC8 WND ESTD SLP886=

CYVR;2005-12-30 23:40;SPECI CYVR 302340Z 21004KT 15SM FEW007 OVC037 08/ RMK SF2SC6=

CYVR;2005-12-31 01:00;METAR CYVR 310100Z 22004KT 12SM SCT008 BKN017 OVC040 07/06 A2919 RMK SF3SC2SC2 WND ESTD VIS N 8 SLP884=

CYVR;2005-12-31 01:37;SPECI CYVR 310137Z 00000KT 12SM -RA SCT008 BKN021 OVC039 07/ RMK SF3SC2SC2 WND ESTD=

CYVR;2005-12-31 02:00;METAR CYVR 310200Z 08006KT 12SM -RA FEW008 SCT025 OVC036 07/06 A2918 RMK SF2SC2SC4 WND ESTD SLP880=

CYVR;2005-12-31 03:00;METAR CYVR 310300Z 09009KT 12SM -RA FEW009 SCT025 OVC040 07/06 A2916 RMK SF2SC2SC4 SLP876=

CYVR;2005-12-31 04:00;METAR CYVR 310400Z 09011KT 15SM FEW009 FEW030 BKN058 BKN075 07/06 A2914 RMK SF1SC1SC5AC1 WND ESTD SLP869=

CYVR;2005-12-31 04:44;SPECI CYVR 310444Z 09010KT 15SM -RA FEW009 SCT030 BKN042 OVC060 07/ RMK SF1SC2SC4SC1 WND ESTD=

CYVR;2005-12-31 05:00;METAR CYVR 310500Z 09008KT 12SM -RA FEW009 SCT030 BKN041 OVC060 07/06 A2915 RMK SF1SC2SC4SC1 WND ESTD SLP870=

CYVR;2005-12-31 06:00;METAR CYVR 310600Z 09011KT 12SM -RA FEW010 SCT035 BKN050 OVC100 07/06 A2915 RMK SF2SC2SC2AC2 WND ESTD SLP870=

CYVR;2005-12-31 07:00;METAR CYVR 310700Z 09010KT 10SM -RA FEW010 BKN027 OVC050 07/06 A2915 RMK SF2SC5SC2 WND ESTD SLP872=

CYVR;2005-12-31 09:10;SPECI CYVR 310910Z 09012KT 10SM FEW005 BKN015 OVC030 07/ RMK SF2SC5SC1 WND ESTD=

CYVR;2005-12-31 10:00;METAR CYVR 311000Z 09012KT 12SM FEW005 BKN016 OVC060 07/06 A2915 RMK SF1SC6SC2 WND ESTD SLP872=

CYVR;2005-12-31 10:25;SPECI CYVR 311025Z 09015KT 10SM -RA FEW007 BKN016 OVC050 07/ RMK SF1SC6SC2 WND ESTD=

CYVR;2005-12-31 11:00;METAR CYVR 311100Z 09015KT 8SM -RA FEW007 BKN017 BKN030 OVC060 07/06 A2915 RMK SF1SC5SC2SC1 WND ESTD SLP871=

CYVR;2005-12-31 12:00;METAR CYVR 311200Z 09010KT 10SM -RA FEW008 BKN018 BKN030 OVC050 07/06 A2915 RMK SF1SC5SC2SC1 WND ESTD SLP871=

CYVR;2005-12-31 16:00;METAR CYVR 311600Z 09010KT 15SM -RA FEW010 BKN026 OVC041 07/06 A2919 RMK SF1SC6SC2 WND ESTD VIS N 8 SLP884=

CYVR;2005-12-31 16:40;SPECI CYVR 311640Z 09012KT 15SM FEW009 BKN028 BKN040 OVC055 07/ RMK SF2SC4SC2SC1 WND ESTD=

CYVR;2005-12-31 16:53;SPECI CYVR 311653Z 09012KT 15SM -RA FEW009 BKN023 OVC044 07/ RMK SF2SC5SC2 WND ESTD=

CYVR;2005-12-31 17:00;METAR CYVR 311700Z 09010KT 15SM -RA FEW009 BKN022 OVC047 07/06 A2920 RMK SF2SC5SC2 WND ESTD SLP888=

CYVR;2005-12-31 17:15;SPECI CYVR 311715Z 09009KT 15SM FEW009 BKN021 OVC042 07/ RMK SF2SC5SC2=

CYVR;2005-12-31 17:39;SPECI CYVR 311739Z 09012KT 12SM -SHRA FEW008 BKN012 OVC020 07/ RMK SF2SC4SC2 WND ESTD=

CYVR;2005-12-31 17:53;SPECI CYVR 311753Z 09010KT 10SM -SHRA BKN009 BKN017 OVC043 07/ RMK SC5SC2SC1 WND ESTD VIS N 5=

CYVR;2005-12-31 18:00;METAR CYVR 311800Z 09010KT 8SM -SHRA BKN009 BKN017 OVC040 07/07 A2921 RMK SC6SC2SC1 WND ESTD VIS N 5 SLP890=

CYVR;2005-12-31 18:35;SPECI CYVR 311835Z 09010KT 10SM BKN009 OVC018 08/ RMK SC6SC2 WND ESTD=

CYVR;2005-12-31 19:00;METAR CYVR 311900Z 09012KT 12SM BKN008 OVC014 08/07 A2920 RMK SC6SC2 WND=

CYVR;2005-12-31 19:52;SPECI CYVR 311952Z 09009KT 10SM -SHRA SCT008 BKN011 OVC015 08/ RMK SC3SC4SC1=

CYVR;2005-12-31 20:29;SPECI CYVR 312029Z 08010KT 12SM FEW008 BKN012 OVC020 08/ RMK SC2SC6SC1=

CYVR;2005-12-31 21:00;METAR CYVR 312100Z 09007KT 12SM FEW009 BKN014 OVC020 09/07 A2918 RMK SC2SC6SC1 SLP883=

CYVR;2005-12-31 21:12;SPECI CYVR 312112Z 09007KT 12SM FEW009 BKN015 OVC020 09/ RMK SC1SC6SC1=

CYVR;2005-12-31 21:55;SPECI CYVR 312155Z 11006KT 12SM FEW009 BKN016 OVC025 08/ RMK SC1SC6SC1=

CYVR;2005-12-31 22:00;METAR CYVR 312200Z 10008KT 15SM FEW009 BKN016 OVC027 08/07 A2918 RMK SC1SC6SC1 SLP883=

