CYXE;2007-01-01 01:00;CYXE 010100Z 20006KT 15SM SCT250 M11/M14 A3006 RMK CI1 SLP227

CYXE;2007-01-01 02:00;CYXE 010200Z 21006KT 15SM SCT250 M13/M15 A3006 RMK CI0 SLP227

CYXE;2007-01-01 03:00;CYXE 010300Z 20007KT 15SM FEW250 M13/M15 A3005 RMK CI0 SLP222

CYXE;2007-01-01 04:00;CYXE 010400Z 20006KT 15SM FEW250 M13/M15 A3004 RMK CI0 SLP218

CYXE;2007-01-01 05:00;CYXE 010500Z 20003KT 15SM FEW250 M14/M15 A3003 RMK CI0 SLP215

CYXE;2007-01-01 06:00;CYXE 010600Z 20004KT 15SM SKC M14/M15 A3002 RMK SLP211

CYXE;2007-01-01 07:00;CYXE 010700Z 19008KT 15SM FEW250 M15/M16 A3001 RMK CI1 SLP208

CYXE;2007-01-01 08:00;CYXE 010800Z 21006KT 15SM SKC M15/M16 A3002 RMK SLP209

CYXE;2007-01-01 09:00;CYXE 010900Z 19003KT 15SM SKC M16/M17 A3001 RMK SLP208

CYXE;2007-01-01 10:00;CYXE 011000Z 20006KT 15SM SKC M16/M17 A3000 RMK SLP205

CYXE;2007-01-01 11:00;CYXE 011100Z 21008KT 15SM FEW250 M16/M17 A2999 RMK CI0 SLP200

CYXE;2007-01-01 12:00;CYXE 011200Z 19006KT 15SM SCT250 M17/M18 A2998 RMK CI1 SLP199

CYXE;2007-01-01 13:00;CYXE 011300Z 19007KT 15SM FEW250 M17/M18 A2996 RMK CI1 SLP194

CYXE;2007-01-01 14:00;CYXE 011400Z 20008KT 15SM FEW250 M18/M19 A2995 RMK CI1 SLP191

CYXE;2007-01-01 15:00;CYXE 011500Z 21009KT 15SM SKC M17/M18 A2995 RMK SLP189

CYXE;2007-01-01 16:00;CYXE 011600Z 21009KT 15SM SKC M16/M18 A2994 RMK SLP186

CYXE;2007-01-01 17:00;CYXE 011700Z 21010KT 15SM SKC M15/M17 A2993 RMK SLP183

CYXE;2007-01-01 18:00;CYXE 011800Z 21009KT 15SM FEW250 M13/M16 A2991 RMK CI1 SLP172

CYXE;2007-01-01 19:00;CYXE 011900Z 21011KT 15SM FEW250 M11/M14 A2987 RMK CI1 SLP161

CYXE;2007-01-01 20:00;CYXE 012000Z 22011KT 15SM SCT250 M10/M14 A2986 RMK CI1 SLP156

CYXE;2007-01-01 21:00;CYXE 012100Z 21013KT 15SM FEW250 M09/M13 A2982 RMK CI1 SLP140

CYXE;2007-01-01 22:00;CYXE 012200Z 20010KT 15SM FEW250 M08/M12 A2979 RMK CI1 SLP132

CYXE;2007-01-01 23:00;CYXE 012300Z 20008KT 15SM FEW250 M09/M12 A2978 RMK CI1 SLP128

CYXE;2007-01-02 00:00;CYXE 020000Z 18011KT 15SM FEW250 M10/M13 A2975 RMK CI1 SLP116

CYXE;2007-01-02 01:00;CYXE 020100Z 17013KT 15SM FEW250 M10/M12 A2969 RMK CI1 SLP098

CYXE;2007-01-02 02:00;CYXE 020200Z 19014KT 15SM FEW250 M08/M11 A2966 RMK CI1 SLP087

CYXE;2007-01-02 03:00;CYXE 020300Z 18014KT 15SM SCT250 M07/M11 A2963 RMK CI1 SLP074

CYXE;2007-01-02 04:00;CYXE 020400Z 19012G17KT 15SM SCT100 OVC250 M06/M10 A2961 RMK AS2CI3 SLP069

CYXE;2007-01-02 05:00;CYXE 020500Z 19010KT 15SM BKN100 OVC250 M06/M10 A2958 RMK AS4CI4 SLP059

CYXE;2007-01-02 06:00;CYXE 020600Z 21009KT 15SM BKN100 OVC250 M06/M09 A2957 RMK AS4CI4 SLP050

CYXE;2007-01-02 07:00;CYXE 020700Z 22010KT 15SM SCT100 OVC250 M06/M08 A2956 RMK AS2CS5 SLP047

CYXE;2007-01-02 08:00;CYXE 020800Z 21009KT 15SM OVC250 M07/M08 A2955 RMK CS8 SLP043

CYXE;2007-01-02 09:00;CYXE 020900Z 21008KT 15SM OVC250 M06/M08 A2953 RMK CS8 SLP035

CYXE;2007-01-02 10:00;CYXE 021000Z 22010KT 15SM OVC250 M05/M06 A2954 RMK CS8 SLP036

CYXE;2007-01-02 11:00;CYXE 021100Z 23011KT 15SM OVC250 M03/M05 A2953 RMK CS8 SLP035

CYXE;2007-01-02 12:00;CYXE 021200Z 23010KT 15SM SCT086 OVC250 M02/M04 A2953 RMK AC4CS4 SLP031

CYXE;2007-01-02 13:00;CYXE 021300Z 23004KT 15SM SCT082 OVC250 M03/M04 A2952 RMK AC4CS4 SLP028

CYXE;2007-01-02 14:00;CYXE 021400Z 22009KT 15SM OVC082 M02/M04 A2951 RMK AC8 SLP026

CYXE;2007-01-02 15:00;CYXE 021500Z 19008KT 15SM BKN095 OVC250 M02/M04 A2947 RMK AC6CI2 SLP011

CYXE;2007-01-02 16:00;CYXE 021600Z 21009KT 15SM BKN095 BKN250 M01/M03 A2948 RMK AC6CI1 SLP013

CYXE;2007-01-02 17:00;CYXE 021700Z 22005KT 15SM FEW095 FEW250 M02/M04 A2947 RMK AC1CI1 SLP011

CYXE;2007-01-02 18:00;CYXE 021800Z 23008KT 15SM FEW100 FEW250 M03/M05 A2947 RMK AC1CI1 SLP009

CYXE;2007-01-02 19:00;CYXE 021900Z 22006KT 15SM FEW250 M03/M05 A2945 RMK CI1 SLP003

CYXE;2007-01-02 20:00;CYXE 022000Z 23008KT 15SM FEW220 M03/M06 A2943 RMK CI2 SLP996

CYXE;2007-01-02 21:00;CYXE 022100Z 24002KT 15SM BKN095 BKN250 M04/M06 A2942 RMK AC6CI1 SLP993

CYXE;2007-01-02 22:00;CYXE 022200Z 21005KT 15SM SCT100 OVC250 M03/M05 A2940 RMK AC4CI3 SLP987

CYXE;2007-01-02 23:00;CYXE 022300Z 19012KT 15SM FEW100 OVC250 M01/M03 A2937 RMK AC2CI6 SLP977

CYXE;2007-01-03 00:00;CYXE 030000Z 20011KT 15SM FEW100 OVC250 00/M02 A2935 RMK AC2CI6 SLP965

CYXE;2007-01-03 01:00;CYXE 030100Z 18007KT 15SM FEW100 OVC250 M00/M02 A2928 RMK AC1CI7 PRESFR SLP943

CYXE;2007-01-03 02:00;CYXE 030200Z 19010KT 15SM FEW100 OVC250 02/M01 A2925 RMK AC2CI6 SLP933

CYXE;2007-01-03 03:00;CYXE 030300Z 18013KT 15SM SCT090 OVC250 03/M00 A2921 RMK AC3CI5 SLP913

CYXE;2007-01-03 04:00;CYXE 030400Z 19014KT 15SM SCT100 OVC250 03/M00 A2916 RMK AC3CI5 SLP897

CYXE;2007-01-03 05:00;CYXE 030500Z 20012KT 15SM SCT100 OVC250 04/00 A2914 RMK AC4CI4 SLP890

CYXE;2007-01-03 06:00;CYXE 030600Z 22015KT 15SM SCT100 OVC250 04/00 A2912 RMK AC3CI4 SLP882

CYXE;2007-01-03 07:00;CYXE 030700Z 21014KT 15SM FEW100 OVC250 04/M00 A2912 RMK AC2CS6 SLP882

CYXE;2007-01-03 08:00;CYXE 030800Z 21012KT 15SM BKN130 OVC290 04/00 A2913 RMK AC5CS3 SLP887

CYXE;2007-01-03 09:00;CYXE 030900Z 24009KT 15SM BKN130 03/M00 A2914 RMK AC6 SLP891

CYXE;2007-01-03 10:00;CYXE 031000Z 26015KT 15SM FEW130 04/00 A2914 RMK AC2 SLP891

CYXE;2007-01-03 11:00;CYXE 031100Z 21011KT 15SM SCT130 02/M01 A2912 RMK AC2 SLP885

CYXE;2007-01-03 12:00;CYXE 031200Z 22012KT 15SM FEW130 SCT290 01/M01 A2912 RMK AC2CI0 SLP882

CYXE;2007-01-03 13:00;CYXE 031300Z 25010KT 15SM BKN088 01/M00 A2913 RMK AC6 SLP886

CYXE;2007-01-03 13:27;CYXE 031327Z 29007KT 15SM -RA BKN058 OVC073 01/ RMK SC6AC2

CYXE;2007-01-03 14:00;CYXE 031400Z 23010KT 15SM -RA OVC038 02/M00 A2915 RMK SC8 SLP891

CYXE;2007-01-03 14:47;CYXE 031447Z 23018KT 15SM VCSH OVC025 03/ RMK SC7

CYXE;2007-01-03 15:00;CYXE 031500Z 23014G21KT 15SM BKN025 BKN100 02/00 A2913 RMK SC5AC2 SLP884

CYXE;2007-01-03 16:00;CYXE 031600Z 24016KT 15SM SCT095 01/M01 A2916 RMK AC3 SLP895

CYXE;2007-01-03 17:00;CYXE 031700Z 24016KT 15SM FEW100 BKN250 01/M02 A2917 RMK AC2CI2 SLP896

CYXE;2007-01-03 18:00;CYXE 031800Z 24015KT 15SM FEW100 SCT200 01/M02 A2915 RMK AC1CI2 SLP892

CYXE;2007-01-03 19:00;CYXE 031900Z 24017KT 15SM FEW100 FEW240 02/M02 A2914 RMK AC1CI1 SLP888

CYXE;2007-01-03 20:00;CYXE 032000Z 23017KT 15SM FEW100 FEW240 02/M02 A2913 RMK AC1CI2 SLP885

CYXE;2007-01-03 21:00;CYXE 032100Z 26018KT 15SM SCT220 04/M02 A2913 RMK CI2 SLP882

CYXE;2007-01-03 22:00;CYXE 032200Z 26017KT 15SM FEW100 FEW220 03/M02 A2914 RMK AC1CI1 SLP886

CYXE;2007-01-03 23:00;CYXE 032300Z 27016KT 15SM FEW100 BKN250 03/M03 A2915 RMK AC1CI0 SLP891

CYXE;2007-01-04 00:00;CYXE 040000Z 27017KT 15SM FEW100 SCT250 03/M03 A2916 RMK AC1CI1 SLP897

CYXE;2007-01-04 01:00;CYXE 040100Z 27017KT 15SM FEW100 SCT250 02/M03 A2917 RMK AC1CI1 SLP900

CYXE;2007-01-04 02:00;CYXE 040200Z 27014KT 15SM FEW030 SCT250 01/M03 A2917 RMK SC1CI1 SLP900

CYXE;2007-01-04 03:00;CYXE 040300Z 29019G24KT 15SM SCT030 02/M02 A2918 RMK SC2 SLP901

CYXE;2007-01-04 04:00;CYXE 040400Z 30021G26KT 15SM BKN023 02/M01 A2919 RMK SC6 SLP904

CYXE;2007-01-04 05:00;CYXE 040500Z 30017KT 15SM BKN017 01/M01 A2921 RMK SC6 SLP911

CYXE;2007-01-04 05:21;CYXE 040521Z 30015G21KT 15SM OVC013 01/ RMK SC8

CYXE;2007-01-04 06:00;CYXE 040600Z 30017KT 15SM OVC015 01/M00 A2922 RMK SC7 SLP918

CYXE;2007-01-04 06:25;CYXE 040625Z 30018KT 15SM SCT013 BKN045 01/ RMK SC3SC4

CYXE;2007-01-04 07:00;CYXE 040700Z 30017KT 15SM SCT013 OVC043 01/M00 A2924 RMK SC4SC3 SLP923

CYXE;2007-01-04 07:51;CYXE 040751Z 30015KT 15SM BKN013 OVC045 01/ RMK SC6SC2

CYXE;2007-01-04 08:00;CYXE 040800Z 30015KT 15SM BKN013 OVC045 01/M00 A2925 RMK SC6SC2 SLP927

CYXE;2007-01-04 08:29;CYXE 040829Z 30015KT 10SM -RASN BKN013 OVC045 01/ RMK SC7SC1

CYXE;2007-01-04 08:43;CYXE 040843Z 30017KT 15SM -RA BKN013 OVC045 01/ RMK SC7SC1

CYXE;2007-01-04 09:00;CYXE 040900Z 30020G25KT 15SM BKN013 BKN045 OVC090 01/M01 A2926 RMK SC6SC2AC1 SLP930

CYXE;2007-01-04 09:46;CYXE 040946Z 31015KT 15SM FEW015 SCT050 BKN090 RMK SC2SC2AC2

CYXE;2007-01-04 10:00;CYXE 041000Z 30013KT 15SM FEW015 BKN050 BKN090 M00/M02 A2929 RMK SC2SC2AC2 SLP939

CYXE;2007-01-04 11:00;CYXE 041100Z 30015KT 15SM BKN017 OVC095 00/M01 A2930 RMK SC6AC2 SLP943

CYXE;2007-01-04 12:00;CYXE 041200Z CCA 31013KT 15SM OVC017 01/M02 A2932 RMK SC8 SLP949

CYXE;2007-01-04 13:00;CYXE 041300Z 32012KT 15SM OVC018 00/M02 A2933 RMK SC8 SLP955

CYXE;2007-01-04 14:00;CYXE 041400Z 32017G22KT 15SM OVC019 01/M02 A2934 RMK SC8 SLP958

CYXE;2007-01-04 15:00;CYXE 041500Z 31011KT 15SM OVC019 00/M01 A2936 RMK SC8 SLP965

CYXE;2007-01-04 16:00;CYXE 041600Z 30012KT 15SM OVC012 00/M02 A2938 RMK SC8 SLP973

CYXE;2007-01-04 17:00;CYXE 041700Z 30012KT 15SM OVC012 M00/M02 A2940 RMK SC8 SLP979

CYXE;2007-01-04 18:00;CYXE 041800Z 31012KT 15SM OVC010 M01/M02 A2941 RMK SC7 SLP981

CYXE;2007-01-04 18:07;CYXE 041807Z 32012KT 15SM OVC009 M01/ RMK SC8

CYXE;2007-01-04 19:00;CYXE 041900Z 30013KT 15SM OVC007 M01/M03 A2941 RMK SC8 SLP983

CYXE;2007-01-04 19:26;CYXE 041926Z 28014KT 15SM OVC004 M02/ RMK SC7

CYXE;2007-01-04 20:00;CYXE 042000Z 29013KT 15SM BKN004 M03/M04 A2942 RMK SC7 SLP986

CYXE;2007-01-04 21:00;CYXE 042100Z 29013KT 15SM BKN005 M03/M04 A2942 RMK SC7 SLP989

CYXE;2007-01-04 21:36;CYXE 042136Z 29010KT 15SM BKN004 M03/ RMK SC7

CYXE;2007-01-04 22:00;CYXE 042200Z 28012KT 15SM BKN003 M03/M03 A2944 RMK ST7 SLP995

CYXE;2007-01-04 23:00;CYXE 042300Z 27006KT 15SM SCT004 M04/M05 A2946 RMK SF4 SLP000

CYXE;2007-01-05 00:00;CYXE 050000Z 26008KT 15SM FEW090 M07/M08 A2947 RMK AC1 SLP009

CYXE;2007-01-05 01:00;CYXE 050100Z 22002KT 15SM SKC M09/M10 A2948 RMK SLP011

CYXE;2007-01-05 02:00;CYXE 050200Z 26008KT 15SM SKC M10/M11 A2949 RMK SLP014

CYXE;2007-01-05 03:00;CYXE 050300Z 26005KT 15SM SKC M10/M12 A2950 RMK SLP020

CYXE;2007-01-05 04:00;CYXE 050400Z 26007KT 15SM FEW090 M11/M13 A2951 RMK AC1 SLP024

CYXE;2007-01-05 05:00;CYXE 050500Z 24005KT 15SM FEW110 M11/M12 A2953 RMK AC2 SLP030

CYXE;2007-01-05 06:00;CYXE 050600Z 30005KT 15SM FEW110 SCT250 M11/M12 A2955 RMK AC2CI0 SLP039

CYXE;2007-01-05 07:00;CYXE 050700Z 31008KT 15SM FEW110 BKN250 M09/M11 A2956 RMK AC2CI2 SLP043

CYXE;2007-01-05 08:00;CYXE 050800Z 30007KT 15SM FEW110 SCT250 M08/M11 A2958 RMK AC1CI1 SLP048

CYXE;2007-01-05 09:00;CYXE 050900Z 31009KT 15SM FEW110 FEW250 M08/M11 A2961 RMK AC1CI1 SLP060

CYXE;2007-01-05 10:00;CYXE 051000Z 31014KT 15SM FEW095 FEW250 M08/M11 A2963 RMK AC1CI1 SLP067

CYXE;2007-01-05 11:00;CYXE 051100Z 31012KT 15SM FEW250 M08/M11 A2967 RMK CI1 SLP077

CYXE;2007-01-05 12:00;CYXE 051200Z 31011KT 15SM SKC M09/M12 A2969 RMK SLP091

CYXE;2007-01-05 13:00;CYXE 051300Z 31007KT 15SM SKC M11/M14 A2972 RMK SLP101

CYXE;2007-01-05 14:00;CYXE 051400Z 30006KT 15SM SKC M11/M14 A2974 RMK SLP107

CYXE;2007-01-05 15:00;CYXE 051500Z 27011KT 15SM SKC M12/M15 A2977 RMK SLP121

CYXE;2007-01-05 16:00;CYXE 051600Z 24009KT 15SM SKC M15/M17 A2979 RMK SLP129

CYXE;2007-01-05 17:00;CYXE 051700Z 24010KT 15SM FEW250 M14/M16 A2980 RMK CI1 SLP131

CYXE;2007-01-05 18:00;CYXE 051800Z 23010KT 15SM FEW250 M12/M15 A2980 RMK CI1 SLP133

CYXE;2007-01-05 19:00;CYXE 051900Z 24011KT 15SM FEW120 M10/M14 A2978 RMK AC1 SLP126

CYXE;2007-01-05 20:00;CYXE 052000Z 24010KT 15SM FEW120 M09/M13 A2976 RMK AC1 SLP119

CYXE;2007-01-05 21:00;CYXE 052100Z 23008KT 15SM BKN075 M09/M12 A2975 RMK AC5 SLP111

CYXE;2007-01-05 22:00;CYXE 052200Z 23008KT 15SM SCT050 M08/M11 A2974 RMK SC3 SLP107

CYXE;2007-01-05 23:00;CYXE 052300Z 21007KT 15SM SCT052 M07/M11 A2972 RMK SC3 SLP103

CYXE;2007-01-06 00:00;CYXE 060000Z 20008KT 15SM SCT064 M08/M11 A2970 RMK SC3 SLP094

CYXE;2007-01-06 01:00;CYXE 060100Z 21009KT 15SM SKC M08/M11 A2967 RMK SLP084

CYXE;2007-01-06 02:00;CYXE 060200Z 21012KT 15SM SKC M07/M11 A2963 RMK SLP071

CYXE;2007-01-06 03:00;CYXE 060300Z 21012KT 15SM SKC M07/M11 A2959 RMK SLP056

CYXE;2007-01-06 04:00;CYXE 060400Z 20007KT 15SM SKC M10/M12 A2955 RMK SLP044

CYXE;2007-01-06 05:00;CYXE 060500Z 19009KT 15SM SKC M10/M12 A2951 RMK SLP032

CYXE;2007-01-06 06:00;CYXE 060600Z 19010KT 15SM SKC M09/M12 A2947 RMK SLP018

CYXE;2007-01-06 07:00;CYXE 060700Z 19010KT 15SM SKC M09/M12 A2943 RMK SLP005

CYXE;2007-01-06 08:00;CYXE 060800Z 19010KT 15SM SKC M09/M12 A2940 RMK SLP994

CYXE;2007-01-06 09:00;CYXE 060900Z 19008KT 15SM BKN250 M09/M12 A2936 RMK CI4 SLP976

CYXE;2007-01-06 10:00;CYXE 061000Z 19007KT 15SM OVC250 M08/M11 A2931 RMK CI6 SLP960

CYXE;2007-01-06 11:00;CYXE 061100Z 19007KT 15SM SCT110 OVC250 M08/M11 A2928 RMK AC3CI4 SLP953

CYXE;2007-01-06 12:00;CYXE 061200Z 19007KT 15SM BKN070 OVC250 M07/M10 A2926 RMK AC6CI2 SLP940

CYXE;2007-01-06 13:00;CYXE 061300Z 18004KT 15SM BKN060 OVC250 M06/M09 A2924 RMK SC6CI2 SLP934

CYXE;2007-01-06 14:00;CYXE 061400Z 17005KT 15SM BKN063 OVC250 M07/M09 A2922 RMK SC5CI2 SLP927

CYXE;2007-01-06 15:00;CYXE 061500Z 00000KT 15SM BKN080 OVC250 M06/M08 A2921 RMK AC6CI2 SLP922

CYXE;2007-01-06 16:00;CYXE 061600Z 20004KT 15SM BKN070 OVC250 M06/M08 A2921 RMK AC6CI2 SLP924

CYXE;2007-01-06 17:00;CYXE 061700Z 21002KT 15SM BKN070 OVC250 M06/M08 A2923 RMK AC6CI2 SLP930

CYXE;2007-01-06 18:00;CYXE 061800Z 31005KT 15SM SCT080 OVC250 M07/M08 A2926 RMK AC4CI4 SLP941

CYXE;2007-01-06 19:00;CYXE 061900Z 34005KT 15SM SCT080 OVC250 M07/M09 A2928 RMK AC2CI4 SLP948

CYXE;2007-01-06 20:00;CYXE 062000Z 32008KT 15SM OVC074 M06/M09 A2933 RMK AC8 SLP964

CYXE;2007-01-06 20:09;CYXE 062009Z 31011KT 15SM BKN014 OVC070 M06/ RMK SC5AC3

CYXE;2007-01-06 20:18;CYXE 062018Z 31015KT 5SM -SN BKN014 OVC070 M06/ RMK SC6AC2

CYXE;2007-01-06 20:22;CYXE 062022Z 31017KT 1SM R09/P6000FT/N -SN DRSN VV014 M06/ RMK SN8

CYXE;2007-01-06 20:33;CYXE 062033Z 31018KT 3/4SM R09/3500VP6000FT/D -SN DRSN VV014 M06/ RMK SN8

CYXE;2007-01-06 20:41;CYXE 062041Z 31017KT 1/2SM R09/3500FT/N SN DRSN VV010 M06/ RMK SN8

CYXE;2007-01-06 20:49;CYXE 062049Z 31018KT 1SM R09/3000V5500FT/U -SN DRSN VV014 M06/ RESN RMK SN8

CYXE;2007-01-06 21:00;CYXE 062100Z 31018KT 1 1/2SM -SN DRSN BKN014 OVC070 M06/M07 A2939 RESN RMK SC6AC2 PRESRR SLP985

CYXE;2007-01-06 21:17;CYXE 062117Z 31017KT 3/4SM R09/P6000FT/D -SN DRSN VV008 M06/ RMK SN8

CYXE;2007-01-06 22:00;CYXE 062200Z 32019KT 3/4SM R09/5500FT/U -SN DRSN VV006 M06/M08 A2944 RMK SN8 SLP003

CYXE;2007-01-06 22:26;CYXE 062226Z 31014KT 3SM -SN DRSN OVC007 M06/ RMK SF8

CYXE;2007-01-06 23:00;CYXE 062300Z 31018KT 2SM -SN DRSN OVC039 M05/M06 A2950 RMK SN2SC6 VIS VRB 1-3 PRESRR SLP023

CYXE;2007-01-06 23:39;CYXE 062339Z 31020KT 4SM -SN DRSN SCT051 OVC090 M05/ RMK SC4AC4

CYXE;2007-01-07 00:00;CYXE 070000Z 32021KT 6SM -SN DRSN FEW055 BKN090 M05/M06 A2955 RMK SC2AC2 SLP040

CYXE;2007-01-07 01:00;CYXE 070100Z 32024KT 3SM BLSN FEW026 BKN075 M04/M06 A2961 RMK SC2AC3 SLP058

CYXE;2007-01-07 01:40;CYXE 070140Z 32018KT 10SM SCT082 M04/ RMK AC3

CYXE;2007-01-07 02:00;CYXE 070200Z 32018KT 15SM DRSN SCT084 M05/M07 A2968 RMK AC2 PRESRR SLP079

CYXE;2007-01-07 03:00;CYXE 070300Z 31016KT 15SM DRSN FEW028 M05/M08 A2972 RMK SC2 SLP099

CYXE;2007-01-07 04:00;CYXE 070400Z 31015KT 15SM SKC M06/M09 A2977 RMK SLP113

CYXE;2007-01-07 05:00;CYXE 070500Z 31013KT 15SM FEW090 M07/M09 A2981 RMK AC2 SLP127

CYXE;2007-01-07 06:00;CYXE 070600Z 31012KT 15SM FEW090 M07/M10 A2985 RMK AC1 SLP144

CYXE;2007-01-07 07:00;CYXE 070700Z 28009KT 15SM FEW040 M09/M11 A2986 RMK SC1 SLP148

CYXE;2007-01-07 08:00;CYXE 070800Z 26009KT 15SM SKC M11/M13 A2988 RMK SLP152

CYXE;2007-01-07 09:00;CYXE 070900Z 25007KT 15SM SKC M14/M15 A2990 RMK SLP165

CYXE;2007-01-07 10:00;CYXE 071000Z 27007KT 15SM SKC M15/M16 A2991 RMK SLP167

CYXE;2007-01-07 11:00;CYXE 071100Z 24007KT 15SM SKC M16/M17 A2992 RMK SLP171

CYXE;2007-01-07 12:00;CYXE 071200Z 25009KT 15SM SKC M16/M17 A2991 RMK SLP169

CYXE;2007-01-07 13:00;CYXE 071300Z 26009KT 15SM SKC M16/M17 A2989 RMK SLP161

CYXE;2007-01-07 14:00;CYXE 071400Z 24012KT 15SM SKC M15/M17 A2987 RMK SLP156

CYXE;2007-01-07 15:00;CYXE 071500Z 23009KT 15SM SKC M17/M19 A2985 RMK SLP149

CYXE;2007-01-07 16:00;CYXE 071600Z 21007KT 15SM FEW250 M14/M16 A2984 RMK CI1 SLP147

CYXE;2007-01-07 17:00;CYXE 071700Z 21006KT 15SM BKN250 M14/M16 A2981 RMK CI2 SLP136

CYXE;2007-01-07 18:00;CYXE 071800Z 22008KT 15SM OVC250 M13/M16 A2977 RMK CI2 SLP121

CYXE;2007-01-07 19:00;CYXE 071900Z 20005KT 15SM OVC250 M10/M15 A2972 RMK CI2 SLP104

CYXE;2007-01-07 20:00;CYXE 072000Z 14006KT 15SM SCT110 OVC250 M09/M14 A2965 RMK AS3CI4 SLP081

CYXE;2007-01-07 21:00;CYXE 072100Z 15004KT 15SM BKN110 OVC250 M08/M12 A2962 RMK AS7CI1 SLP070

CYXE;2007-01-07 22:00;CYXE 072200Z 17006KT 15SM BKN094 OVC250 M08/M12 A2961 RMK AS6CI2 SLP067

CYXE;2007-01-07 23:00;CYXE 072300Z 14007KT 15SM BKN059 OVC100 M09/M12 A2959 RMK SC5AS3 SLP060

CYXE;2007-01-08 00:00;CYXE 080000Z 12006KT 15SM OVC059 M09/M12 A2956 RMK SC8 SLP052

CYXE;2007-01-08 01:00;CYXE 080100Z 14008KT 15SM OVC049 M08/M11 A2955 RMK SC8 SLP046

CYXE;2007-01-08 02:00;CYXE 080200Z 12004KT 15SM BKN043 OVC090 M09/M11 A2954 RMK SC6AS2 SLP044

CYXE;2007-01-08 02:21;CYXE 080221Z 11003KT 15SM SCT007 BKN051 OVC090 M09/ RMK ST3SC3AS2

CYXE;2007-01-08 03:00;CYXE 080300Z 15003KT 15SM FEW007 BKN053 OVC090 M09/M11 A2954 RMK SF2SC3AS3 SLP045

CYXE;2007-01-08 04:00;CYXE 080400Z 09004KT 15SM FEW016 OVC045 M09/M11 A2955 RMK SF2SC6 SLP047

CYXE;2007-01-08 04:36;CYXE 080436Z 10006KT 15SM -SN BKN014 OVC060 M08/ RMK SC5SC3

CYXE;2007-01-08 05:00;CYXE 080500Z 11006KT 15SM -SN FEW007 BKN014 OVC060 M08/M10 A2954 RMK SF2SC4SC2 SLP044

CYXE;2007-01-08 05:46;CYXE 080546Z 13003KT 15SM -SN BKN006 OVC018 M07/ RMK ST6SC2

CYXE;2007-01-08 06:00;CYXE 080600Z 13003KT 3SM -SN BKN006 OVC018 M07/M09 A2954 RMK ST6SC2 SLP040

CYXE;2007-01-08 06:19;CYXE 080619Z 12003KT 5SM -SN SCT006 OVC045 M07/ RMK ST3SC4

CYXE;2007-01-08 07:00;CYXE 080700Z 13003KT 2SM -SN VV015 M07/M08 A2955 RMK SN8 SLP042

CYXE;2007-01-08 07:18;CYXE 080718Z 13002KT 5SM -SN OVC030 M07/ RMK SC7

CYXE;2007-01-08 08:00;CYXE 080800Z CCA 15002KT 5SM -SN OVC025 M07/M08 A2955 RMK SC8 /S01/ SLP044

CYXE;2007-01-08 09:00;CYXE 080900Z 23003KT 3SM -SN OVC034 M07/M08 A2958 RMK SC8 SLP052

CYXE;2007-01-08 09:34;CYXE 080934Z 24003KT 1 1/2SM -SN VV010 M07/ RMK SN8

CYXE;2007-01-08 09:43;CYXE 080943Z 26005KT 3SM -SN OVC030 M07/ RMK SC8

CYXE;2007-01-08 10:00;CYXE 081000Z 26004KT 3SM -SN FEW015 OVC030 M07/M08 A2961 RMK SC2SC6 /S02/ SLP061

CYXE;2007-01-08 11:00;CYXE 081100Z 28006KT 5SM -SN BKN015 OVC030 M07/M08 A2963 RMK SC6SC2 SLP069

CYXE;2007-01-08 12:00;CYXE 081200Z 29010KT 15SM -SN FEW015 BKN050 M08/M09 A2967 RMK SC1SC4 SLP084

CYXE;2007-01-08 12:11;CYXE 081211Z 29010KT 15SM BKN055 M08/ RMK SC6

CYXE;2007-01-08 13:00;CYXE 081300Z 30013KT 15SM DRSN SCT050 BKN090 M08/M09 A2972 RMK SC3AC3 SLP098

CYXE;2007-01-08 14:00;CYXE 081400Z 32022KT 15SM DRSN SCT023 BKN091 M06/M08 A2976 RMK SC3AC3 OCNL BLSN SLP111

CYXE;2007-01-08 14:15;CYXE 081415Z CCA 32019G28KT 10SM -SN DRSN BKN023 OVC090 M06/ RMK SC6AC2 OCNL BLSN

CYXE;2007-01-08 15:00;CYXE 081500Z 32021G26KT 4SM -SN BLSN OVC023 M06/M08 A2980 RMK SC8 SLP126

CYXE;2007-01-08 15:31;CYXE 081531Z 32019KT 2 1/2SM -SN BLSN OVC029 M06/ RMK SC8

CYXE;2007-01-08 15:37;CYXE 081537Z 32020KT 1 1/2SM -SN BLSN OVC029 M06/ RMK SC8

CYXE;2007-01-08 16:00;CYXE 081600Z 33021KT 1 1/2SM -SN BLSN OVC026 M06/M08 A2986 RMK SC8 /S01/ SLP148

CYXE;2007-01-08 16:18;CYXE 081618Z 34021KT 3SM -SN BLSN OVC026 M06/ RMK SC8

CYXE;2007-01-08 17:00;CYXE 081700Z 33017G24KT 15SM -SN DRSN OVC024 M06/M08 A2993 RMK SC8 PRESRR SLP168

CYXE;2007-01-08 17:38;CYXE 081738Z 32020KT 2 1/2SM -SN DRSN OVC020 M07/ RMK SC8 OCNL BLSN

CYXE;2007-01-08 17:53;CYXE 081753Z 33020G25KT 1SM R09/P6000FT/D -SN BLSN OVC020 M07/ RMK SC8

CYXE;2007-01-08 18:00;CYXE 081800Z 33019G24KT 3/4SM R09/3000VP6000FT/D -SN BLSN OVC020 M07/M08 A2999 RMK SN2SC6 VIS VRB 1/2-1 SLP193

CYXE;2007-01-08 18:10;CYXE 081810Z 33018KT 1/2SM R09/3500V5000FT/N -SN BLSN VV008 M07/ RMK SN8 VIS VRB 1/4-3/4

CYXE;2007-01-08 18:37;CYXE 081837Z 33019KT 3/4SM R09/P6000FT/D -SN BLSN OVC018 M07/ RMK SN2SC6

CYXE;2007-01-08 18:44;CYXE 081844Z 33020KT 1 1/2SM -SN BLSN OVC018 M07/ RMK SC8

CYXE;2007-01-08 19:00;CYXE 081900Z 33019KT 1 1/2SM -SN BLSN OVC018 M07/M08 A3004 RMK SC8 SLP207

CYXE;2007-01-08 19:27;CYXE 081927Z 34018G25KT 1SM R09/P6000FT/D -SN BLSN OVC022 M07/ RMK SN1SC7 VIS VRB 3/4-11/4

CYXE;2007-01-08 20:00;CYXE 082000Z 34019KT 1SM R09/P6000FT/U -SN BLSN SCT010 OVC022 M07/M08 A3008 RMK SN1SF2SC6 VIS VRB 3/4-11/4 SLP222

CYXE;2007-01-08 20:16;CYXE 082016Z 34015KT 1 1/2SM -SN DRSN FEW008 OVC022 M07/ RMK SF1SC7 OCNL BLSN

CYXE;2007-01-08 20:36;CYXE 082036Z 34017KT 3SM -SN DRSN BKN015 OVC090 M07/ RMK SC6AS2

CYXE;2007-01-08 20:53;CYXE 082053Z 34015G21KT 2SM -SN DRSN BKN015 OVC090 M07/ RMK SC6AS2 OCNL BLSN

CYXE;2007-01-08 21:00;CYXE 082100Z 35019KT 2SM -SN DRSN BKN014 OVC250 M07/M09 A3014 RMK SC6CI1 OCNL BLSN /S01/ SLP243

CYXE;2007-01-08 21:09;CYXE 082109Z 35017KT 8SM DRSN SCT015 OVC250 M08/ RMK SC3CI2 OCNL BLSN

CYXE;2007-01-08 22:00;CYXE 082200Z 35010G15KT 15SM FEW015 BKN035 OVC250 M08/M11 A3021 RMK SF2SC2CI1 PRESRR SLP265

CYXE;2007-01-08 23:00;CYXE 082300Z 33011KT 15SM DRSN FEW015 BKN079 M09/M13 A3025 RMK SC2AC1 SLP277

CYXE;2007-01-09 00:00;CYXE 090000Z 29004KT 15SM SKC M12/M15 A3027 RMK SLP292

CYXE;2007-01-09 01:00;CYXE 090100Z 30011KT 15SM SKC M14/M16 A3028 RMK SLP296

CYXE;2007-01-09 02:00;CYXE 090200Z 22006KT 15SM SKC M14/M16 A3029 RMK SLP299

CYXE;2007-01-09 03:00;CYXE 090300Z 25010KT 15SM SKC M16/M17 A3029 RMK SLP299

CYXE;2007-01-09 04:00;CYXE 090400Z 24011KT 15SM SKC M17/M18 A3027 RMK SLP294

CYXE;2007-01-09 05:00;CYXE 090500Z 23009KT 15SM SKC M17/M18 A3026 RMK SLP289

CYXE;2007-01-09 06:00;CYXE 090600Z 21007KT 15SM SKC M15/M17 A3024 RMK SLP282

CYXE;2007-01-09 07:00;CYXE 090700Z 20008KT 15SM SKC M16/M17 A3021 RMK SLP275

CYXE;2007-01-09 08:00;CYXE 090800Z 21007KT 15SM BKN250 M17/M18 A3020 RMK CI0 SLP270

CYXE;2007-01-09 09:00;CYXE 090900Z 19006KT 15SM OVC250 M17/M18 A3018 RMK CI1 SLP264

CYXE;2007-01-09 10:00;CYXE 091000Z 21007KT 15SM OVC250 M16/M17 A3016 RMK CI2 SLP257

CYXE;2007-01-09 11:00;CYXE 091100Z 21005KT 15SM OVC250 M15/M17 A3014 RMK CI2 SLP250

CYXE;2007-01-09 12:00;CYXE 091200Z 19005KT 15SM BKN250 M15/M17 A3011 RMK CI1 SLP242

CYXE;2007-01-09 13:00;CYXE 091300Z 19003KT 15SM BKN250 M15/M17 A3010 RMK CI1 SLP239

CYXE;2007-01-09 14:00;CYXE 091400Z 18006KT 15SM BKN250 M16/M17 A3008 RMK CI1 SLP233

CYXE;2007-01-09 15:00;CYXE 091500Z 19004KT 15SM BKN250 M16/M17 A3008 RMK CI2 SLP233

CYXE;2007-01-09 16:00;CYXE 091600Z 19004KT 15SM BKN250 M17/M18 A3007 RMK CI2 SLP231

CYXE;2007-01-09 17:00;CYXE 091700Z 16003KT 15SM BKN250 M15/M16 A3005 RMK CI2 SLP225

CYXE;2007-01-09 18:00;CYXE 091800Z 00000KT 15SM BKN250 M17/M20 A3003 RMK CI2 SLP219

CYXE;2007-01-09 19:00;CYXE 091900Z 07006KT 15SM FEW100 BKN250 M16/M17 A3000 RMK AC1CI1 SLP208

CYXE;2007-01-09 20:00;CYXE 092000Z 07006KT 15SM FEW094 OVC250 M14/M16 A2997 RMK AC2CI2 SLP200

CYXE;2007-01-09 21:00;CYXE 092100Z 07006KT 15SM SCT092 OVC250 M14/M16 A2993 RMK AC3CI3 SLP183

CYXE;2007-01-09 22:00;CYXE 092200Z 08007KT 15SM BKN090 OVC250 M11/M15 A2993 RMK AC5CI3 SLP181

CYXE;2007-01-09 23:00;CYXE 092300Z 10012KT 15SM OVC078 M10/M14 A2989 RMK AS8 SLP168

CYXE;2007-01-10 00:00;CYXE 100000Z 12010KT 15SM OVC081 M10/M14 A2986 RMK AS8 SLP155

CYXE;2007-01-10 01:00;CYXE 100100Z 12012G17KT 15SM OVC070 M11/M15 A2983 RMK AC8 SLP146

CYXE;2007-01-10 02:00;CYXE 100200Z 12017KT 15SM OVC054 M09/M14 A2977 RMK SC8 PRESFR SLP126

CYXE;2007-01-10 03:00;CYXE 100300Z 12018KT 15SM OVC043 M09/M14 A2973 RMK SC8 SLP110

CYXE;2007-01-10 03:51;CYXE 100351Z 12018KT 6SM -SN OVC026 M09/ RMK SC8

CYXE;2007-01-10 04:00;CYXE 100400Z 12017G24KT 2SM -SN OVC016 M09/M12 A2969 RMK SC8 SLP097

CYXE;2007-01-10 04:08;CYXE 100408Z 11019KT 1 1/2SM -SN BLSN VV011 M09/ RMK SN8

CYXE;2007-01-10 05:00;CYXE 100500Z 11019KT 1SM R09/P6000FT/U -SN BLSN VV011 M09/M10 A2964 RMK SN8 SLP080

CYXE;2007-01-10 05:09;CYXE 100509Z 12020G25KT 3/4SM R09/P6000FT/D -SN BLSN VV006 M09/ RMK SN8

CYXE;2007-01-10 05:18;CYXE 100518Z 11019G26KT 1/2SM R09/3000V6000FT/D -SN BLSN VV004 RMK SN8

CYXE;2007-01-10 05:19;CYXE 100519Z 11019G26KT 1/2SM R09/3000V6000FT/D -SN BLSN VV004 M09/ RMK SN8

CYXE;2007-01-10 05:50;CYXE 100550Z 11021G26KT 1/2SM R09/4500VP6000FT/N -SN BLSN VV003 M08/ RMK SN8

CYXE;2007-01-10 06:00;CYXE 100600Z 10022KT 1/2SM R09/5500FT/U -SN BLSN VV004 M09/M10 A2960 RMK SN8 /S02/ SLP066

CYXE;2007-01-10 06:13;CYXE 100613Z 11020G26KT 3/4SM R09/P6000FT/U -SN BLSN VV004 M09/ RMK SN8

CYXE;2007-01-10 07:00;CYXE 100700Z 10023G28KT 3/4SM R09/P6000FT/U -SN BLSN VV005 M08/M10 A2955 RMK SN8 /S01/ SLP050

CYXE;2007-01-10 08:00;CYXE 100800Z 09030KT 3/4SM R09/3500V5500FT/D -SN BLSN VV008 M09/M10 A2947 RMK SN8 /S02/ PRESFR SLP025

CYXE;2007-01-10 08:32;CYXE 100832Z 10028G34KT 1/2SM R09/3000V5500FT/D -SN BLSN VV006 M09/ RMK SN8

CYXE;2007-01-10 09:00;CYXE 100900Z 10027KT 1/2SM R09/2200V4000FT/U -SN BLSN VV005 M09/M11 A2946 RMK SN8 /S04/ SLP014

CYXE;2007-01-10 09:18;CYXE 100918Z 10026G31KT 3/4SM R09/3000V5000FT/N -SN BLSN VV009 M09/ RMK SN8

CYXE;2007-01-10 10:00;CYXE 101000Z 10025KT 3/4SM R09/5000FT/N -SN BLSN OVC017 M10/M11 A2945 RMK SC8 /S05/ SLP012

CYXE;2007-01-10 11:00;CYXE 101100Z 10028G34KT 3/4SM R09/4000V5500FT/N -SN BLSN OVC017 M10/M12 A2942 RMK SC8 SLP002

CYXE;2007-01-10 12:00;CYXE 101200Z 09028G34KT 3/4SM R09/3000V6000FT/D -SN BLSN OVC018 M10/M12 A2940 RMK SC8 SLP993

CYXE;2007-01-10 13:00;CYXE 101300Z 09028G35KT 1/2SM R09/2400V5000FT/D -SN BLSN VV005 M10/M12 A2940 RMK SN8 /S01/ SLP992

CYXE;2007-01-10 13:06;CYXE 101306Z 09031G38KT 3/8SM R09/2200FT/D -SN BLSN VV004 M10/ RMK SN8

CYXE;2007-01-10 13:26;CYXE 101326Z 09028G38KT 1/4SM R09/1400V2800FT/U -SN +BLSN VV004 M10/ RMK SN8

CYXE;2007-01-10 14:00;CYXE 101400Z CCA 08030G37KT 1/8SM SN +BLSN VV001 M12/M13 A2938 RMK SN8 /S01/ SLP988

CYXE;2007-01-10 15:00;CYXE 101500Z 08034KT 0SM SN +BLSN VV001 M14/M15 A2939 RMK SN8 SLP991

CYXE;2007-01-10 16:00;CYXE 101600Z 07030G46KT 0SM SN +BLSN VV001 M14/M15 A2940 RMK BLSN8 /S03/ SLP994

CYXE;2007-01-10 17:00;CYXE 101700Z 07033G41KT 0SM R09/0600FT/N -SN +BLSN VV001 M16/M17 A2941 RMK BLSN8 SLP997

CYXE;2007-01-10 18:00;CYXE 101800Z 06034G42KT 0SM R09/0300FT/N SN +BLSN VV001 M16/M18 A2944 RMK BLSN8 /S04/ SLP010

CYXE;2007-01-10 19:00;CYXE 101900Z 06036KT 0SM R09/M0300V0400FT/N SN +BLSN VV001 M17/M18 A2948 RMK BLSN8 /S01/ SLP024

CYXE;2007-01-10 20:00;CYXE 102000Z 05038KT 0SM R09/0300FT/N SN +BLSN VV001 M19/M20 A2951 RMK BLSN8 /S02/ SLP034

CYXE;2007-01-10 21:00;CYXE 102100Z 06033G42KT 0SM R09/M0300V0400FT/N SN +BLSN VV001 M19/M20 A2955 RMK BLSN8 /S03/ SLP050

CYXE;2007-01-10 22:00;CYXE 102200Z 05035KT 0SM R09/0400FT/N SN +BLSN VV001 M19/M20 A2963 RMK BLSN8 /S04/ SLP075

CYXE;2007-01-10 23:00;CYXE 102300Z 04031G38KT 0SM R09/0400V0700FT/N -SN +BLSN VV001 M19/M21 A2971 RMK BLSN8 PRESRR SLP100

CYXE;2007-01-11 00:00;CYXE 110000Z 04027G35KT 0SM R09/0600V1100FT/N -SN +BLSN VV001 M20/M22 A2980 RMK BLSN8 PRESRR /S05/ SLP136

CYXE;2007-01-11 01:00;CYXE 110100Z 03027G34KT 1/8SM R09/1100FT/N -SN +BLSN VV001 M20/M23 A2987 RMK BLSN8 PRESRR SLP159

CYXE;2007-01-11 02:00;CYXE 110200Z 03029G34KT 1/8SM R09/1400V2000FT/N -SN +BLSN VV001 M20/M24 A2992 RMK BLSN8 /S01/ SLP176

CYXE;2007-01-11 03:00;CYXE 110300Z 03023G33KT 1/4SM R09/1600V2800FT/U -SN +BLSN VV002 M20/M23 A2999 RMK BLSN8 SLP205

CYXE;2007-01-11 04:00;CYXE 110400Z 04025G30KT 1/4SM R09/3000FT/D -SN +BLSN VV005 M20/M23 A3003 RMK BLSN8 SLP219

CYXE;2007-01-11 04:41;CYXE 110441Z 03021G28KT 1SM R09/2400V4500FT/U -SN BLSN VV009 M20/ RMK BLSN8

CYXE;2007-01-11 05:00;CYXE 110500Z 02022G27KT 1/2SM R09/2800FT/U -SN BLSN VV009 M21/M24 A3008 RMK BLSN8 SLP234

CYXE;2007-01-11 05:20;CYXE 110520Z 01019G25KT 1SM R09/3000VP6000FT/U -SN BLSN VV009 RMK BLSN8

CYXE;2007-01-11 06:00;CYXE 110600Z 01023G28KT 1SM R09/5000FT/N -SN BLSN VV011 M22/M25 A3013 RMK BLSN8 SLP257

CYXE;2007-01-11 07:00;CYXE 110700Z 36022KT 1SM R09/4500VP6000FT/U BLSN OVC045 M23/M26 A3017 RMK BLSN4SC4 SLP268

CYXE;2007-01-11 08:00;CYXE 110800Z 01021G27KT 1SM R09/2800V4500FT/N BLSN OVC081 M24/M28 A3020 RMK BLSN4AC4 SLP278

CYXE;2007-01-11 09:00;CYXE 110900Z 01019G24KT 1 1/2SM BLSN OVC083 M26/M30 A3025 RMK BLSN2AC6 SLP302

CYXE;2007-01-11 09:12;CYXE 110912Z 01016G21KT 3SM BLSN BKN089 M26/ RMK BLSN1AC3

CYXE;2007-01-11 10:00;CYXE 111000Z 01016KT 10SM FEW091 M26/M30 A3031 RMK AC1 PRESRR SLP322

CYXE;2007-01-11 11:00;CYXE 111100Z 36013KT 15SM DRSN SKC M27/M32 A3033 RMK SLP327

CYXE;2007-01-11 13:00;CYXE 111300Z 35013KT 15SM SKC M29/M33 A3038 RMK SLP349

CYXE;2007-01-11 14:00;CYXE 111400Z 36006KT 15SM SKC M30/M35 A3040 RMK SLP356

CYXE;2007-01-11 15:00;CYXE 111500Z 36009KT 15SM FEW250 M30/M35 A3041 RMK CI1 SLP362

CYXE;2007-01-11 16:00;CYXE 111600Z 32011KT 15SM FEW250 M32/M37 A3043 RMK CI1 SLP370

CYXE;2007-01-11 17:00;CYXE 111700Z 34006KT 15SM FEW250 M31/M35 A3045 RMK CI1 SLP376

CYXE;2007-01-11 18:00;CYXE 111800Z 32003KT 15SM FEW250 M30/M34 A3047 RMK CI1 SLP383

CYXE;2007-01-11 19:00;CYXE 111900Z 32005KT 15SM FEW250 M29/M34 A3046 RMK CI1 SLP379

CYXE;2007-01-11 20:00;CYXE 112000Z 29006KT 15SM SKC M28/M33 A3045 RMK SLP376

CYXE;2007-01-11 21:00;CYXE 112100Z 27004KT 15SM SKC M28/M32 A3045 RMK SLP377

CYXE;2007-01-11 22:00;CYXE 112200Z 29005KT 15SM FEW250 M28/M33 A3045 RMK CI0 SLP377

CYXE;2007-01-11 23:00;CYXE 112300Z 31004KT 15SM FEW250 M29/M34 A3046 RMK CI1 SLP381

CYXE;2007-01-12 00:00;CYXE 120000Z 24003KT 15SM FEW090 FEW250 M30/M35 A3046 RMK AC1CI1 SLP385

CYXE;2007-01-12 01:00;CYXE 120100Z 23005KT 15SM SKC M31/M36 A3046 RMK SLP384

CYXE;2007-01-12 02:00;CYXE 120200Z 23004KT 15SM FEW092 M31/M35 A3045 RMK AC1 SLP382

CYXE;2007-01-12 03:00;CYXE 120300Z 22004KT 15SM FEW092 M32/M36 A3044 RMK AC1 SLP381

CYXE;2007-01-12 04:00;CYXE 120400Z 22009KT 15SM FEW007 M34/M38 A3043 RMK SF1 SLP379

CYXE;2007-01-12 05:00;CYXE 120500Z 22007KT 15SM FEW007 M33/M37 A3043 RMK SF1 SF TR OVR CITY SLP376

CYXE;2007-01-12 06:00;CYXE 120600Z 19006KT 15SM SKC M33/M37 A3042 RMK SLP374

CYXE;2007-01-12 07:00;CYXE 120700Z 20006KT 15SM FEW007 M32/M37 A3039 RMK ST1 SLP367

CYXE;2007-01-12 08:00;CYXE 120800Z 19008KT 15SM SKC M32/M37 A3036 RMK SLP356

CYXE;2007-01-12 09:00;CYXE 120900Z 19007KT 15SM SKC M31/M35 A3034 RMK SLP344

CYXE;2007-01-12 10:00;CYXE 121000Z 19008KT 15SM SKC M30/M35 A3032 RMK SLP339

CYXE;2007-01-12 11:00;CYXE 121100Z 18008KT 15SM SKC M30/M34 A3030 RMK SLP332

CYXE;2007-01-12 12:00;CYXE 121200Z 18010KT 15SM SKC M30/M34 A3028 RMK SLP325

CYXE;2007-01-12 13:00;CYXE 121300Z 18011KT 15SM SKC M29/M33 A3026 RMK SLP319

CYXE;2007-01-12 14:00;CYXE 121400Z 18007KT 15SM SKC M29/M33 A3025 RMK SLP315

CYXE;2007-01-12 15:00;CYXE 121500Z 19012KT 15SM FEW100 FEW250 M29/M33 A3023 RMK AC1CI0 SLP308

CYXE;2007-01-12 16:00;CYXE 121600Z 21010KT 15SM FEW100 FEW250 M28/M33 A3023 RMK AC1CI1 SLP307

CYXE;2007-01-12 17:00;CYXE 121700Z 21011KT 15SM FEW100 FEW250 M26/M31 A3023 RMK AC1CI1 SLP306

CYXE;2007-01-12 18:00;CYXE 121800Z 22010KT 15SM FEW082 SCT250 M25/M30 A3022 RMK AC1CI2 SLP302

CYXE;2007-01-12 19:00;CYXE 121900Z 23011KT 15SM FEW067 FEW095 SCT250 M23/M28 A3020 RMK AC1AC1CI2 SLP295

CYXE;2007-01-12 20:00;CYXE 122000Z 24009KT 15SM FEW092 BKN250 M22/M26 A3019 RMK AC1CI2 SLP292

CYXE;2007-01-12 21:00;CYXE 122100Z 22009KT 15SM FEW044 FEW091 SCT250 M21/M25 A3017 RMK SC1AC1CI2 SLP281

CYXE;2007-01-12 22:00;CYXE 122200Z 24009KT 15SM FEW090 FEW250 M21/M25 A3019 RMK AC1CI0 SLP286

CYXE;2007-01-12 23:00;CYXE 122300Z 23007KT 15SM SCT061 M21/M25 A3019 RMK SC2 SLP288

CYXE;2007-01-13 00:00;CYXE 130000Z 23009KT 15SM SKC M22/M26 A3018 RMK SLP284

CYXE;2007-01-13 01:00;CYXE 130100Z 22008KT 15SM SKC M24/M28 A3018 RMK SLP284

CYXE;2007-01-13 02:00;CYXE 130200Z 21007KT 15SM SKC M24/M27 A3017 RMK SLP280

CYXE;2007-01-13 03:00;CYXE 130300Z 24009KT 15SM SKC M24/M28 A3017 RMK SLP280

CYXE;2007-01-13 04:00;CYXE 130400Z 21006KT 15SM SKC M24/M27 A3016 RMK SLP277

CYXE;2007-01-13 05:00;CYXE 130500Z 23008KT 15SM SKC M24/M28 A3016 RMK SLP276

CYXE;2007-01-13 06:00;CYXE 130600Z 21007KT 15SM SKC M23/M28 A3014 RMK SLP268

CYXE;2007-01-13 07:00;CYXE 130700Z 22009KT 15SM SKC M24/M27 A3012 RMK SLP262

CYXE;2007-01-13 08:00;CYXE 130800Z 22009KT 15SM SKC M23/M27 A3010 RMK SLP255

CYXE;2007-01-13 09:00;CYXE 130900Z 22009KT 15SM SKC M23/M27 A3009 RMK SLP247

CYXE;2007-01-13 10:00;CYXE 131000Z 23011KT 15SM SKC M22/M26 A3008 RMK SLP243

CYXE;2007-01-13 11:00;CYXE 131100Z 22011KT 15SM SCT086 M20/M23 A3008 RMK AC3 SLP243

CYXE;2007-01-13 12:00;CYXE 131200Z 23011KT 15SM SCT086 M19/M22 A3008 RMK AC3 SLP239

CYXE;2007-01-13 13:00;CYXE 131300Z 25009KT 15SM BKN091 M17/M21 A3008 RMK AC7 SLP239

CYXE;2007-01-13 14:00;CYXE 131400Z 27007KT 15SM OVC075 M17/M20 A3008 RMK AC8 SLP242

CYXE;2007-01-13 15:00;CYXE 131500Z 31004KT 15SM FEW053 SCT070 BKN250 M18/M21 A3010 RMK SC1AC1CI2 SLP249

CYXE;2007-01-13 15:50;CYXE 131550Z 35008KT 4SM -SN OVC048 M17/ RMK SC6

CYXE;2007-01-13 16:00;CYXE 131600Z 36010KT 1 1/2SM -SN OVC031 M16/M19 A3014 RMK SN3SC5 SLP262

CYXE;2007-01-13 17:00;CYXE 131700Z 02018KT 1 1/2SM -SN BLSN BKN029 BKN088 OVC250 M15/M18 A3019 RMK SC5AC1CI1 VIS S 3 SLP277

CYXE;2007-01-13 17:25;CYXE 131725Z 02017KT 10SM DRSN BKN036 OVC080 M17/ REBLSN RMK SC5AC2

CYXE;2007-01-13 17:49;CYXE 131749Z 03018KT 1 1/2SM -SN BLSN BKN036 OVC094 M17/ RMK SC5AC2

CYXE;2007-01-13 18:00;CYXE 131800Z 02015G20KT 1 1/2SM -SN BLSN BKN045 OVC094 M17/M20 A3024 RMK SC5AC2 SLP294

CYXE;2007-01-13 18:28;CYXE 131828Z 02018KT 4SM -SN BLSN FEW034 OVC079 M17/ RMK SC2AS6

CYXE;2007-01-13 19:00;CYXE 131900Z 02016KT 15SM DRSN OVC079 M18/M22 A3026 REBLSN RMK AS6 SLP301

CYXE;2007-01-13 20:00;CYXE 132000Z 02015G21KT 15SM DRSN FEW048 OVC250 M18/M23 A3029 RMK SC2CI2 SLP312

CYXE;2007-01-13 21:00;CYXE 132100Z 01015KT 15SM FEW073 OVC250 M19/M23 A3032 RMK AC2CI2 SLP324

CYXE;2007-01-13 22:00;CYXE 132200Z 01016KT 15SM DRSN FEW075 OVC250 M20/M25 A3035 RMK AC2CI3 SLP335

CYXE;2007-01-13 23:00;CYXE 132300Z 01014KT 15SM DRSN FEW075 OVC250 M21/M26 A3039 RMK AC1CI4 SLP346

CYXE;2007-01-14 00:00;CYXE 140000Z 01014KT 15SM OVC250 M23/M27 A3041 RMK CI3 SLP356

CYXE;2007-01-14 01:00;CYXE 140100Z 01014KT 15SM DRSN OVC250 M24/M28 A3044 RMK CI2 SLP366

CYXE;2007-01-14 02:00;CYXE 140200Z 02015KT 15SM DRSN FEW100 OVC250 M24/M29 A3047 RMK AC2CI2 SLP373

CYXE;2007-01-14 03:00;CYXE 140300Z 02013KT 15SM DRSN FEW100 OVC250 M25/M30 A3049 RMK AC1CI2 SLP383

CYXE;2007-01-14 04:00;CYXE 140400Z 02011KT 15SM OVC250 M26/M31 A3050 RMK CI2 SLP388

CYXE;2007-01-14 05:00;CYXE 140500Z 02006KT 15SM BKN250 M27/M32 A3052 RMK CI1 SLP395

CYXE;2007-01-14 06:00;CYXE 140600Z 04002KT 15SM SKC M30/M35 A3053 RMK SLP402

CYXE;2007-01-14 07:00;CYXE 140700Z 28002KT 15SM FEW250 M31/M35 A3055 RMK CI1 SLP406

CYXE;2007-01-14 08:00;CYXE 140800Z 31002KT 15SM SKC M31/M36 A3054 RMK SLP404

CYXE;2007-01-14 09:00;CYXE 140900Z 35003KT 15SM SKC M31/M36 A3054 RMK SLP408

CYXE;2007-01-14 10:00;CYXE 141000Z 00000KT 15SM SKC M31/M35 A3055 RMK SLP411

CYXE;2007-01-14 11:00;CYXE 141100Z 00000KT 15SM SKC M31/M35 A3056 RMK SLP413

CYXE;2007-01-14 12:00;CYXE 141200Z 00000KT 15SM FEW010 FEW250 M32/M36 A3056 RMK SF1CI0 SLP417

CYXE;2007-01-14 13:00;CYXE 141300Z 00000KT 15SM FEW250 M32/M37 A3055 RMK CI0 SLP412

CYXE;2007-01-14 14:00;CYXE 141400Z 19003KT 15SM FEW250 M30/M35 A3053 RMK CI0 SLP408

CYXE;2007-01-14 15:00;CYXE 141500Z 20004KT 15SM BKN250 M31/M35 A3054 RMK CI4 SLP411

CYXE;2007-01-14 16:00;CYXE 141600Z 22003KT 15SM BKN250 M32/M36 A3054 RMK CI2 SLP411

CYXE;2007-01-14 17:00;CYXE 141700Z 18006KT 15SM BKN250 M29/M33 A3054 RMK CI3 SLP411

CYXE;2007-01-14 18:00;CYXE 141800Z 18004KT 15SM FEW250 M27/M32 A3053 RMK CI0 SLP407

CYXE;2007-01-14 19:00;CYXE 141900Z 20005KT 15SM SKC M25/M30 A3050 RMK SLP398

CYXE;2007-01-14 20:00;CYXE 142000Z 19005KT 15SM SKC M24/M29 A3047 RMK SLP389

CYXE;2007-01-14 21:00;CYXE 142100Z 21007KT 15SM SKC M23/M28 A3045 RMK SLP378

CYXE;2007-01-14 22:00;CYXE 142200Z 19006KT 15SM SKC M22/M27 A3043 RMK SLP373

CYXE;2007-01-14 23:00;CYXE 142300Z 19005KT 15SM SKC M23/M28 A3043 RMK SLP370

CYXE;2007-01-15 00:00;CYXE 150000Z 18006KT 15SM SKC M24/M29 A3042 RMK SLP370

CYXE;2007-01-15 01:00;CYXE 150100Z 18007KT 15SM SKC M25/M29 A3040 RMK SLP363

CYXE;2007-01-15 02:00;CYXE 150200Z 18008KT 15SM SKC M24/M29 A3039 RMK SLP358

CYXE;2007-01-15 03:00;CYXE 150300Z 19008KT 15SM SKC M24/M29 A3037 RMK SLP351

CYXE;2007-01-15 04:00;CYXE 150400Z 19009KT 15SM SKC M24/M29 A3034 RMK SLP343

CYXE;2007-01-15 05:00;CYXE 150500Z 20007KT 15SM SKC M25/M29 A3034 RMK SLP341

CYXE;2007-01-15 06:00;CYXE 150600Z 19007KT 15SM SKC M25/M29 A3033 RMK SLP334

CYXE;2007-01-15 07:00;CYXE 150700Z 19006KT 15SM BKN043 M24/M28 A3031 RMK SC6 SLP330

CYXE;2007-01-15 08:00;CYXE 150800Z 19007KT 15SM -SN OVC041 M23/M28 A3030 RMK SC8 SLP326

CYXE;2007-01-15 09:00;CYXE 150900Z 19004KT 15SM -SN OVC039 M22/M27 A3029 RMK SC8 SLP317

CYXE;2007-01-15 10:00;CYXE 151000Z 18005KT 15SM -SN OVC039 M22/M26 A3029 RMK SC8 SLP315

CYXE;2007-01-15 11:00;CYXE 151100Z 19006KT 15SM -SN OVC039 M21/M25 A3030 RMK SC8 SLP318

CYXE;2007-01-15 11:41;CYXE 151141Z 19004KT 15SM BKN039 M22/ RMK SC5

CYXE;2007-01-15 12:00;CYXE 151200Z 19003KT 15SM SCT039 M22/M26 A3029 RMK SC3 SLP316

CYXE;2007-01-15 13:00;CYXE 151300Z 18005KT 15SM FEW039 M24/M28 A3029 RMK SC1 SLP316

CYXE;2007-01-15 14:00;CYXE 151400Z 19005KT 15SM SKC M23/M27 A3029 RMK SLP316

CYXE;2007-01-15 15:00;CYXE 151500Z 18004KT 15SM SKC M24/M29 A3029 RMK SLP318

CYXE;2007-01-15 16:00;CYXE 151600Z 19006KT 15SM SKC M24/M28 A3029 RMK SLP318

CYXE;2007-01-15 17:00;CYXE 151700Z 20006KT 15SM SKC M23/M27 A3029 RMK HZ OVR CITY SLP318

CYXE;2007-01-15 18:00;CYXE 151800Z 22005KT 15SM SKC M21/M26 A3029 RMK HZ OVR CITY SLP316

CYXE;2007-01-15 19:00;CYXE 151900Z 19004KT 15SM SKC M20/M25 A3027 RMK SLP311

CYXE;2007-01-15 20:00;CYXE 152000Z 18005KT 15SM SKC M19/M23 A3023 RMK SLP298

CYXE;2007-01-15 21:00;CYXE 152100Z 18006KT 15SM SKC M17/M22 A3023 RMK SLP293

CYXE;2007-01-15 22:00;CYXE 152200Z 18006KT 15SM FEW100 SCT250 M16/M21 A3021 RMK AC1CI0 SLP287

CYXE;2007-01-15 23:00;CYXE 152300Z 17008KT 15SM FEW100 BKN250 M17/M22 A3021 RMK AC1CI1 SLP285

CYXE;2007-01-16 00:00;CYXE 160000Z 18006KT 15SM FEW100 BKN230 M18/M22 A3020 RMK AC1CI1 SLP282

CYXE;2007-01-16 01:00;CYXE 160100Z 17009KT 15SM BKN091 OVC230 M17/M21 A3017 RMK AC5CI1 SLP270

CYXE;2007-01-16 02:00;CYXE 160200Z 17007KT 15SM BKN082 M17/M21 A3015 RMK AC7 SLP264

CYXE;2007-01-16 03:00;CYXE 160300Z 18010KT 15SM OVC075 M15/M19 A3012 RMK AC8 SLP254

CYXE;2007-01-16 04:00;CYXE 160400Z 18011KT 15SM BKN050 OVC075 M14/M18 A3008 RMK SC7AC1 SLP241

CYXE;2007-01-16 05:00;CYXE 160500Z 19010KT 15SM OVC032 M13/M17 A3006 RMK SC8 SLP235

CYXE;2007-01-16 05:22;CYXE 160522Z 19009KT 15SM -SN OVC032 M13/ RMK SC8

CYXE;2007-01-16 06:00;CYXE 160600Z 19011KT 15SM -SN OVC032 M12/M16 A3004 RMK SC8 SLP221

CYXE;2007-01-16 06:25;CYXE 160625Z 18011KT 15SM OVC032 M12/ RMK SC8

CYXE;2007-01-16 07:00;CYXE 160700Z 19009KT 15SM OVC040 M11/M14 A3002 RMK SC8 SLP214

CYXE;2007-01-16 08:00;CYXE 160800Z 19011KT 15SM OVC071 M11/M13 A2998 RMK AC8 SLP203

CYXE;2007-01-16 09:00;CYXE 160900Z 20012KT 15SM OVC091 M09/M12 A2994 RMK AC8 SLP183

CYXE;2007-01-16 10:00;CYXE 161000Z 16003KT 15SM OVC088 M09/M11 A2995 RMK AC8 SLP185

CYXE;2007-01-16 11:00;CYXE 161100Z 19011KT 15SM OVC110 M08/M11 A2991 RMK AC8 SLP174

CYXE;2007-01-16 12:00;CYXE 161200Z 21011KT 15SM OVC110 M08/M10 A2990 RMK AC8 SLP169

CYXE;2007-01-16 13:00;CYXE 161300Z 21008KT 15SM OVC250 M08/M10 A2990 RMK CI6 SLP169

CYXE;2007-01-16 14:00;CYXE 161400Z 22009KT 15SM OVC250 M07/M10 A2990 RMK CI5 SLP167

CYXE;2007-01-16 15:00;CYXE 161500Z 22009KT 15SM FEW100 BKN250 M08/M10 A2989 RMK AC2CI2 SLP163

CYXE;2007-01-16 16:00;CYXE 161600Z 23007KT 15SM SCT093 BKN250 M08/M10 A2989 RMK AC3CI2 SLP164

CYXE;2007-01-16 17:00;CYXE 161700Z 22008KT 15SM FEW093 SCT250 M09/M11 A2990 RMK AC1CI2 SLP165

CYXE;2007-01-16 18:00;CYXE 161800Z 23008KT 15SM FEW093 FEW250 M08/M10 A2990 RMK AC1CI0 SLP163

CYXE;2007-01-16 19:00;CYXE 161900Z 24009KT 15SM FEW093 BKN250 M07/M10 A2989 RMK AC1CI2 SLP162

CYXE;2007-01-16 20:00;CYXE 162000Z 23009KT 15SM BKN250 M06/M09 A2988 RMK CI3 SLP158

CYXE;2007-01-16 21:00;CYXE 162100Z 24010KT 15SM BKN250 M05/M08 A2987 RMK CI2 SLP152

CYXE;2007-01-16 22:00;CYXE 162200Z 23008KT 15SM FEW080 BKN250 M05/M08 A2988 RMK AC1CI3 SLP153

CYXE;2007-01-16 23:00;CYXE 162300Z 23009KT 15SM FEW080 OVC250 M06/M08 A2988 RMK AC2CI4 SLP155

CYXE;2007-01-17 00:00;CYXE 170000Z 22010KT 15SM FEW082 OVC250 M07/M09 A2989 RMK AC2CI4 SLP159

CYXE;2007-01-17 01:00;CYXE 170100Z 24009KT 15SM BKN082 OVC250 M06/M09 A2988 RMK AC5CI3 SLP155

CYXE;2007-01-17 02:00;CYXE 170200Z 24010KT 15SM SCT063 SCT082 OVC230 M07/M09 A2988 RMK SC3AC1CI4 SLP155

CYXE;2007-01-17 03:00;CYXE 170300Z 23008KT 15SM OVC063 M06/M08 A2987 RMK SC8 SLP151

CYXE;2007-01-17 04:00;CYXE 170400Z 22007KT 15SM BKN066 OVC250 M05/M08 A2986 RMK AC6CI2 SLP147

CYXE;2007-01-17 05:00;CYXE 170500Z 21008KT 15SM OVC066 M05/M08 A2985 RMK AC8 SLP144

CYXE;2007-01-17 06:00;CYXE 170600Z 23008KT 15SM OVC066 M05/M08 A2985 RMK AC8 SLP142

CYXE;2007-01-17 07:00;CYXE 170700Z 24006KT 15SM OVC058 M05/M07 A2985 RMK SC8 SLP143

CYXE;2007-01-17 08:00;CYXE 170800Z 22009KT 15SM OVC067 M04/M07 A2986 RMK AC8 SLP144

CYXE;2007-01-17 09:00;CYXE 170900Z 24007KT 15SM OVC060 M04/M07 A2986 RMK SC8 SLP142

CYXE;2007-01-17 10:00;CYXE 171000Z 26008KT 15SM OVC071 M04/M07 A2986 RMK AC8 SLP143

CYXE;2007-01-17 11:00;CYXE 171100Z 28008KT 15SM OVC080 M04/M07 A2986 RMK AC8 SLP143

CYXE;2007-01-17 12:00;CYXE 171200Z 28009KT 15SM BKN096 M05/M08 A2986 RMK AC6 SLP146

CYXE;2007-01-17 13:00;CYXE 171300Z 27008KT 15SM SCT091 M07/M09 A2988 RMK AC2 SLP151

CYXE;2007-01-17 14:00;CYXE 171400Z 29009KT 15SM SCT091 BKN250 M05/M09 A2988 RMK AC3CI2 SLP153

CYXE;2007-01-17 15:00;CYXE 171500Z 30014KT 15SM SCT110 BKN250 M05/M09 A2988 RMK AC2CI2 SLP152

CYXE;2007-01-17 16:00;CYXE 171600Z 30014KT 15SM FEW120 FEW250 M07/M11 A2989 RMK AC1CI0 SLP155

CYXE;2007-01-17 17:00;CYXE 171700Z 31011KT 15SM FEW120 FEW250 M07/M11 A2991 RMK AC1CI1 SLP163

CYXE;2007-01-17 18:00;CYXE 171800Z 30013KT 15SM FEW120 FEW250 M07/M11 A2992 RMK AC1CI1 SLP167

CYXE;2007-01-17 19:00;CYXE 171900Z 31015KT 15SM FEW250 M07/M11 A2991 RMK CI1 SLP165

CYXE;2007-01-17 20:00;CYXE 172000Z 30014KT 15SM FEW100 FEW250 M06/M10 A2992 RMK AC1CI1 SLP166

CYXE;2007-01-17 21:00;CYXE 172100Z 30015KT 15SM FEW100 FEW250 M06/M10 A2992 RMK AC1CI1 SLP164

CYXE;2007-01-17 22:00;CYXE 172200Z 30013KT 15SM FEW100 M06/M10 A2993 RMK AC1 SLP168

CYXE;2007-01-17 23:00;CYXE 172300Z 30010KT 15SM FEW100 M07/M10 A2995 RMK AC1 SLP175

CYXE;2007-01-18 00:00;CYXE 180000Z 30009KT 15SM FEW100 M09/M12 A2998 RMK AC2 SLP186

CYXE;2007-01-18 01:00;CYXE 180100Z 28011KT 15SM FEW100 M09/M12 A2999 RMK AC1 SLP192

CYXE;2007-01-18 02:00;CYXE 180200Z 29012KT 15SM FEW100 M11/M13 A3001 RMK AC1 SLP197

CYXE;2007-01-18 03:00;CYXE 180300Z 30011KT 15SM BKN031 M09/M12 A3002 RMK SC7 SLP201

CYXE;2007-01-18 03:42;CYXE 180342Z 30011KT 15SM -SN OVC031 M08/ RMK SC8

CYXE;2007-01-18 04:00;CYXE 180400Z 30011KT 15SM -SN OVC031 M08/M11 A3002 RMK SC8 SLP203

CYXE;2007-01-18 05:00;CYXE 180500Z 30012KT 15SM -SN OVC029 M08/M10 A3003 RMK SC8 SLP205

CYXE;2007-01-18 06:00;CYXE 180600Z 30012KT 15SM -SN OVC029 M08/M10 A3004 RMK SC8 SLP210

CYXE;2007-01-18 07:00;CYXE 180700Z 31010KT 15SM -SN OVC029 M07/M10 A3005 RMK SC8 SLP214

CYXE;2007-01-18 08:00;CYXE 180800Z 31009KT 15SM -SN OVC029 M09/M12 A3007 RMK SC8 SLP218

CYXE;2007-01-18 08:14;CYXE 180814Z 31009KT 15SM BKN029 M09/ RMK SC3

CYXE;2007-01-18 09:00;CYXE 180900Z 30009KT 15SM FEW029 FEW087 M11/M14 A3008 RMK SC1AC1 SLP224

CYXE;2007-01-18 10:00;CYXE 181000Z 36005KT 15SM BKN085 M12/M14 A3009 RMK AC6 SLP228

CYXE;2007-01-18 11:00;CYXE 181100Z 31008KT 15SM OVC082 M11/M13 A3011 RMK AC8 SLP233

CYXE;2007-01-18 12:00;CYXE 181200Z 30007KT 15SM SCT082 M14/M15 A3011 RMK AC2 SLP239

CYXE;2007-01-18 13:00;CYXE 181300Z 30008KT 15SM SKC M16/M18 A3012 RMK SLP241

CYXE;2007-01-18 14:00;CYXE 181400Z 26007KT 15SM FEW080 M18/M19 A3014 RMK AC1 SLP247

CYXE;2007-01-18 15:00;CYXE 181500Z 26007KT 15SM FEW080 M18/M19 A3013 RMK AC1 SLP250

CYXE;2007-01-18 16:00;CYXE 181600Z 25008KT 15SM FEW080 M19/M20 A3013 RMK AC1 SLP249

CYXE;2007-01-18 17:00;CYXE 181700Z 26004KT 15SM FEW080 M16/M18 A3013 RMK AC1 SLP250

CYXE;2007-01-18 18:00;CYXE 181800Z 22008KT 15SM FEW080 FEW250 M15/M17 A3012 RMK AC1CI0 SLP243

CYXE;2007-01-18 19:00;CYXE 181900Z 23008KT 15SM FEW050 M14/M17 A3011 RMK SC2 SLP239

CYXE;2007-01-18 20:00;CYXE 182000Z 23010KT 15SM BKN055 M13/M16 A3010 RMK SC7 SLP236

CYXE;2007-01-18 21:00;CYXE 182100Z 23010KT 15SM BKN057 OVC090 M12/M15 A3009 RMK SC6AC1 SLP232

CYXE;2007-01-18 22:00;CYXE 182200Z 22008KT 15SM BKN050 BKN087 M11/M14 A3006 RMK SC5AC2 SLP224

CYXE;2007-01-18 23:00;CYXE 182300Z 20008KT 15SM BKN047 BKN087 M10/M14 A3006 RMK SC6AC2 SLP222

CYXE;2007-01-19 00:00;CYXE 190000Z 19008KT 15SM FEW047 SCT087 M11/M15 A3004 RMK SC2AC2 SLP216

CYXE;2007-01-19 01:00;CYXE 190100Z 21008KT 15SM SCT087 M12/M15 A3004 RMK AC4 SLP217

CYXE;2007-01-19 02:00;CYXE 190200Z 22007KT 15SM BKN050 M12/M14 A3005 RMK SC7 SLP219

CYXE;2007-01-19 03:00;CYXE 190300Z 23009KT 15SM OVC055 M11/M11 A3004 RMK SC8 SLP220

CYXE;2007-01-19 04:00;CYXE 190400Z 23008KT 15SM OVC051 M10/M13 A3003 RMK SC8 SLP217

CYXE;2007-01-19 05:00;CYXE 190500Z 24008KT 15SM BKN058 M11/M13 A3003 RMK SC7 SLP215

CYXE;2007-01-19 06:00;CYXE 190600Z 23008KT 15SM FEW058 M15/M16 A3003 RMK SC2 SLP217

CYXE;2007-01-19 07:00;CYXE 190700Z 24009KT 15SM SKC M16/M17 A3005 RMK SLP223

CYXE;2007-01-19 08:00;CYXE 190800Z 24005KT 15SM SKC M18/M20 A3005 RMK SLP223

CYXE;2007-01-19 09:00;CYXE 190900Z 22006KT 15SM SKC M18/M21 A3005 RMK SLP225

CYXE;2007-01-19 10:00;CYXE 191000Z 21006KT 15SM SKC M17/M21 A3005 RMK SLP224

CYXE;2007-01-19 11:00;CYXE 191100Z 19003KT 15SM SKC M18/M21 A3005 RMK SLP224

CYXE;2007-01-19 12:00;CYXE 191200Z 20005KT 15SM SKC M18/M21 A3005 RMK SLP222

CYXE;2007-01-19 13:00;CYXE 191300Z 21007KT 15SM SKC M19/M22 A3005 RMK SLP224

CYXE;2007-01-19 14:00;CYXE 191400Z 20006KT 15SM SKC M20/M23 A3006 RMK SLP225

CYXE;2007-01-19 15:00;CYXE 191500Z 19006KT 15SM FEW250 M20/M23 A3005 RMK CI1 SLP222

CYXE;2007-01-19 16:00;CYXE 191600Z 15005KT 15SM FEW250 M19/M22 A3003 RMK CI1 SLP216

CYXE;2007-01-19 17:00;CYXE 191700Z 19005KT 15SM SCT250 M17/M21 A3003 RMK CI2 SLP215

CYXE;2007-01-19 18:00;CYXE 191800Z 19004KT 15SM SCT140 BKN250 M15/M19 A3002 RMK AC2CI2 SLP212

CYXE;2007-01-19 19:00;CYXE 191900Z 21006KT 15SM FEW110 BKN250 M14/M18 A3001 RMK AC2CI2 SLP209

CYXE;2007-01-19 20:00;CYXE 192000Z 18005KT 15SM FEW120 BKN250 M13/M17 A2999 RMK AC1CI2 SLP202

CYXE;2007-01-19 21:00;CYXE 192100Z CCA 16004KT 15SM FEW120 BKN250 M11/M18 A2995 RMK AC1CI3 SLP188

CYXE;2007-01-19 22:00;CYXE 192200Z 11005KT 15SM FEW120 OVC250 M12/M15 A2992 RMK AC2CI6 SLP180

CYXE;2007-01-19 23:00;CYXE 192300Z 13007KT 15SM BKN120 OVC250 M12/M15 A2990 RMK AC6CI2 SLP174

CYXE;2007-01-20 00:00;CYXE 200000Z 13007KT 15SM BKN120 OVC250 M11/M14 A2988 RMK AC6CI2 SLP165

CYXE;2007-01-20 01:00;CYXE 200100Z 13005KT 15SM OVC086 M10/M13 A2986 RMK AC8 SLP159

CYXE;2007-01-20 02:00;CYXE 200200Z 16003KT 15SM OVC067 M10/M13 A2986 RMK AC8 SLP158

CYXE;2007-01-20 03:00;CYXE 200300Z 15004KT 15SM OVC054 M10/M13 A2984 RMK SC8 SLP149

CYXE;2007-01-20 04:00;CYXE 200400Z 23004KT 15SM OVC064 M10/M12 A2982 RMK SC8 SLP145

CYXE;2007-01-20 05:00;CYXE 200500Z 00000KT 15SM SCT057 M11/M13 A2983 RMK SC4 SLP147

CYXE;2007-01-20 06:00;CYXE 200600Z 22003KT 15SM FEW060 M12/M14 A2982 RMK SC2 SLP144

CYXE;2007-01-20 07:00;CYXE 200700Z 19002KT 15SM BKN052 M13/M14 A2982 RMK SC6 SLP142

CYXE;2007-01-20 08:00;CYXE 200800Z 23005KT 15SM FEW050 M14/M15 A2982 RMK SC2 SLP144

CYXE;2007-01-20 09:00;CYXE 200900Z 26005KT 15SM SKC M15/M16 A2983 RMK SLP146

CYXE;2007-01-20 10:00;CYXE 201000Z 26005KT 15SM SKC M16/M17 A2985 RMK SLP150

CYXE;2007-01-20 11:00;CYXE 201100Z 27007KT 15SM SKC M17/M18 A2985 RMK SLP150

CYXE;2007-01-20 12:00;CYXE 201200Z 27008KT 15SM SKC M18/M19 A2984 RMK SLP150

CYXE;2007-01-20 13:00;CYXE 201300Z 27008KT 15SM SKC M18/M20 A2986 RMK SLP155

CYXE;2007-01-20 14:00;CYXE 201400Z 25007KT 15SM SKC M18/M19 A2986 RMK SLP158

CYXE;2007-01-20 15:00;CYXE 201500Z 27004KT 15SM FEW100 M18/M21 A2987 RMK AC1 SLP161

CYXE;2007-01-20 16:00;CYXE 201600Z 29003KT 15SM FEW100 SCT260 M17/M19 A2988 RMK AC1CI1 SLP163

CYXE;2007-01-20 17:00;CYXE 201700Z 24005KT 15SM FEW100 BKN260 M17/M20 A2990 RMK AC1CI1 SLP169

CYXE;2007-01-20 18:00;CYXE 201800Z 31002KT 15SM FEW091 BKN260 M14/M16 A2991 RMK AC2CI1 SLP172

CYXE;2007-01-20 19:00;CYXE 201900Z 24005KT 15SM FEW091 BKN260 M12/M12 A2991 RMK AC2CI2 SLP174

CYXE;2007-01-20 20:00;CYXE 202000Z 27005KT 15SM SCT091 BKN260 M12/M13 A2992 RMK AC2CI2 SLP176

CYXE;2007-01-20 21:00;CYXE 202100Z 27006KT 15SM SCT086 OVC260 M11/M12 A2993 RMK AC3CI2 SLP178

CYXE;2007-01-20 22:00;CYXE 202200Z 23005KT 15SM SCT094 OVC260 M11/M13 A2995 RMK AS2CI5 SLP183

CYXE;2007-01-20 23:00;CYXE 202300Z 23008KT 15SM BKN098 OVC260 M10/M12 A2996 RMK AS4CI4 SLP188

CYXE;2007-01-21 00:00;CYXE 210000Z 21006KT 6SM BR FEW098 OVC260 M11/M12 A2998 RMK AC2CI3 SLP197

CYXE;2007-01-21 01:00;CYXE 210100Z 22004KT 8SM BKN260 M12/M13 A2999 RMK CI2 BR SLP200

CYXE;2007-01-21 02:00;CYXE 210200Z 22007KT 10SM FEW260 M13/M15 A3002 RMK CI1 BR SLP209

CYXE;2007-01-21 03:00;CYXE 210300Z 23008KT 8SM FEW260 M15/M16 A3003 RMK CI1 BR SLP219

CYXE;2007-01-21 04:00;CYXE 210400Z 22006KT 10SM FEW260 M13/M14 A3004 RMK CI0 BR SLP222

CYXE;2007-01-21 05:00;CYXE 210500Z 24009KT 15SM FEW260 M15/M16 A3004 RMK CI0 SLP223

CYXE;2007-01-21 06:00;CYXE 210600Z 24009KT 15SM FEW260 M15/M16 A3006 RMK CI0 SLP226

CYXE;2007-01-21 07:00;CYXE 210700Z 25010KT 15SM FEW250 M14/M15 A3007 RMK CI1 SLP229

CYXE;2007-01-21 08:00;CYXE 210800Z 24008KT 15SM BKN250 M13/M14 A3007 RMK CI5 SLP230

CYXE;2007-01-21 09:00;CYXE 210900Z 24008KT 15SM SCT100 BKN250 M13/M14 A3008 RMK AC3CI2 SLP227

CYXE;2007-01-21 10:00;CYXE 211000Z 22009KT 15SM FEW100 SCT250 M14/M16 A3009 RMK AC1CI1 SLP232

CYXE;2007-01-21 11:00;CYXE 211100Z 23008KT 15SM FEW095 BKN250 M14/M15 A3008 RMK AC2CI2 SLP230

CYXE;2007-01-21 12:00;CYXE 211200Z 26007KT 15SM FEW095 SCT250 M15/M16 A3008 RMK AC1CI1 SLP231

CYXE;2007-01-21 13:00;CYXE 211300Z 22008KT 15SM FEW095 SCT250 M13/M15 A3008 RMK AC2CI0 SLP232

CYXE;2007-01-21 14:00;CYXE 211400Z 23008KT 15SM FEW095 SCT250 M15/M16 A3009 RMK AC1CI1 SLP234

CYXE;2007-01-21 15:00;CYXE 211500Z 22009KT 15SM FEW095 M16/M17 A3008 RMK AC1 SLP233

CYXE;2007-01-21 16:00;CYXE 211600Z 23010KT 15SM SKC M15/M17 A3007 RMK SLP230

CYXE;2007-01-21 17:00;CYXE 211700Z 23009KT 8SM SKC M14/M15 A3008 RMK BR SLP234

CYXE;2007-01-21 18:00;CYXE 211800Z 23011KT 10SM SKC M12/M14 A3007 RMK BR SLP228

CYXE;2007-01-21 19:00;CYXE 211900Z 23012KT 10SM FEW250 M11/M13 A3005 RMK CI1 BR SLP222

CYXE;2007-01-21 20:00;CYXE 212000Z 25008KT 15SM SCT250 M10/M12 A3002 RMK CI1 SLP212

CYXE;2007-01-21 21:00;CYXE 212100Z 22012KT 10SM SCT093 BKN250 M09/M12 A3001 RMK AC3CI3 BR SLP203

CYXE;2007-01-21 22:00;CYXE 212200Z 22010KT 15SM BKN093 OVC250 M09/M11 A3000 RMK AS4CI4 SLP200

CYXE;2007-01-21 23:00;CYXE 212300Z 22010KT 15SM OVC093 M08/M10 A2998 RMK AS8 SLP194

CYXE;2007-01-22 00:00;CYXE 220000Z 22010KT 15SM OVC120 M08/M10 A2996 RMK AS8 SLP189

CYXE;2007-01-22 01:00;CYXE 220100Z 21007KT 15SM OVC120 M08/M10 A2995 RMK AS8 SLP185

CYXE;2007-01-22 02:00;CYXE 220200Z 22008KT 15SM OVC220 M08/M10 A2992 RMK CI5 SLP176

CYXE;2007-01-22 03:00;CYXE 220300Z 23011KT 15SM OVC150 M08/M09 A2989 RMK AS8 SLP163

CYXE;2007-01-22 04:00;CYXE 220400Z 22009KT 8SM OVC120 M08/M09 A2987 RMK AC8 BR SLP158

CYXE;2007-01-22 05:00;CYXE 220500Z 22007KT 6SM BR OVC150 M08/M09 A2984 RMK AS8 SLP148

CYXE;2007-01-22 06:00;CYXE 220600Z 19008KT 12SM SCT090 M08/M10 A2981 RMK AS2 BR SLP135

CYXE;2007-01-22 07:00;CYXE 220700Z 21011KT 15SM BKN085 M08/M10 A2978 RMK AC5 SLP125

CYXE;2007-01-22 08:00;CYXE 220800Z 22010KT 15SM SCT080 M10/M11 A2976 RMK AC3 SLP117

CYXE;2007-01-22 09:00;CYXE 220900Z 24008KT 15SM FEW080 FEW250 M12/M13 A2977 RMK AC1CI0 SLP120

CYXE;2007-01-22 10:00;CYXE 221000Z 23009KT 15SM FEW250 M13/M14 A2977 RMK CI0 SLP120

CYXE;2007-01-22 11:00;CYXE 221100Z 24009KT 15SM FEW100 M13/M15 A2977 RMK AC1 SLP120

CYXE;2007-01-22 12:00;CYXE 221200Z 25010KT 15SM BKN100 M12/M14 A2976 RMK AC6 SLP116

CYXE;2007-01-22 13:00;CYXE 221300Z 25008KT 15SM BKN110 M10/M12 A2976 RMK AC6 SLP116

CYXE;2007-01-22 14:00;CYXE 221400Z 26009KT 15SM BKN092 M09/M12 A2976 RMK AC7 SLP116

CYXE;2007-01-22 15:00;CYXE 221500Z 25007KT 15SM BKN086 M09/M11 A2977 RMK AC7 SLP116

CYXE;2007-01-22 16:00;CYXE 221600Z 27009KT 15SM BKN070 M08/M10 A2977 RMK AC7 SLP118

CYXE;2007-01-22 17:00;CYXE 221700Z 30003KT 15SM OVC070 M06/M08 A2978 RMK AC8 SLP120

CYXE;2007-01-22 18:00;CYXE 221800Z 25005KT 15SM OVC066 M06/M08 A2979 RMK AC8 SLP122

CYXE;2007-01-22 19:00;CYXE 221900Z 28004KT 15SM OVC061 M04/M07 A2978 RMK SC8 SLP119

CYXE;2007-01-22 20:00;CYXE 222000Z 31005KT 15SM BKN061 OVC094 M04/M07 A2977 RMK SC6AC2 SLP117

CYXE;2007-01-22 21:00;CYXE 222100Z 00000KT 15SM SCT065 BKN094 OVC250 M03/M07 A2975 RMK SC3AC3CI1 SLP109

CYXE;2007-01-22 22:00;CYXE 222200Z 24002KT 15SM BKN039 BKN081 OVC250 M03/M07 A2976 RMK SC5AC2CI1 SLP112

CYXE;2007-01-22 23:00;CYXE 222300Z 08003KT 15SM SCT038 OVC073 M04/M07 A2975 RMK SC3AC5 SLP109

CYXE;2007-01-22 23:46;CYXE 222346Z 14004KT 15SM -SN OVC034 M03/ RMK SC8

CYXE;2007-01-23 00:00;CYXE 230000Z 00000KT 15SM -SN OVC034 M03/M06 A2976 RMK SC8 SLP114

CYXE;2007-01-23 00:37;CYXE 230037Z 13003KT 1 1/2SM -SN OVC017 M04/ RMK SN3SC5

CYXE;2007-01-23 01:00;CYXE 230100Z 11005KT 2SM -SN OVC015 M04/M05 A2976 RMK SN3SC5 SLP114

CYXE;2007-01-23 01:25;CYXE 230125Z 12006KT 3SM -SN OVC020 M04/ RMK SN2SC6

CYXE;2007-01-23 02:00;CYXE 230200Z 14006KT 4SM -SN OVC031 M04/M05 A2975 RMK SC8 SLP110

CYXE;2007-01-23 03:00;CYXE 230300Z 13006KT 4SM -SN BKN033 OVC080 M04/M05 A2975 RMK SC7AC1 SLP110

CYXE;2007-01-23 04:00;CYXE 230400Z 15006KT 6SM -SN OVC043 M04/M05 A2976 RMK SC8 SLP113

CYXE;2007-01-23 05:00;CYXE 230500Z 17004KT 6SM BR OVC049 M04/M05 A2976 RMK SC8 SLP113

CYXE;2007-01-23 06:00;CYXE 230600Z 18003KT 15SM BKN040 BKN095 M04/M06 A2975 RMK SC5AC1 SLP108

CYXE;2007-01-23 07:00;CYXE 230700Z 18003KT 10SM BKN045 BKN070 M05/M06 A2975 RMK SC5AC2 BR SLP108

CYXE;2007-01-23 07:55;CYXE 230755Z 00000KT 6SM -SN BR OVC020 M05/ RMK SC8

CYXE;2007-01-23 08:00;CYXE 230800Z 00000KT 6SM -SN BR BKN020 OVC045 M04/M06 A2979 RMK SC6SC2 SLP119

CYXE;2007-01-23 08:24;CYXE 230824Z 20003KT 12SM SCT020 OVC050 M04/ RMK SC3SC5

CYXE;2007-01-23 09:00;CYXE 230900Z 17004KT 12SM BKN053 OVC085 M04/M05 A2977 RMK SC6AC2 SLP112

CYXE;2007-01-23 10:00;CYXE 231000Z 21007KT 15SM OVC053 M04/M05 A2979 RMK SC7 SLP118

CYXE;2007-01-23 11:00;CYXE 231100Z 22009KT 15SM BKN065 BKN095 M05/M06 A2978 RMK SC5AC2 SLP116

CYXE;2007-01-23 12:00;CYXE 231200Z 24008KT 15SM BKN065 M04/M05 A2979 RMK SC6 SLP117

CYXE;2007-01-23 13:00;CYXE 231300Z 26007KT 15SM SCT065 M06/M08 A2981 RMK SC3 SLP124

CYXE;2007-01-23 14:00;CYXE 231400Z 27009KT 15SM SCT065 M07/M08 A2983 RMK SC3 SLP130

CYXE;2007-01-23 15:00;CYXE 231500Z 00000KT 15SM FEW065 SCT250 M06/M07 A2984 RMK SC2CI0 SLP136

CYXE;2007-01-23 16:00;CYXE 231600Z 25007KT 15SM BKN025 M05/M05 A2987 RMK SC7 SLP148

CYXE;2007-01-23 17:00;CYXE 231700Z 29005KT 15SM BKN025 M02/M04 A2990 RMK SC7 SLP155

CYXE;2007-01-23 18:00;CYXE 231800Z 31011KT 15SM BKN025 M02/M04 A2993 RMK SC6 SLP165

CYXE;2007-01-23 19:00;CYXE 231900Z 30010KT 15SM FEW025 FEW250 M02/M04 A2993 RMK SC2CI0 SLP167

CYXE;2007-01-23 20:00;CYXE 232000Z 31008KT 15SM SCT250 M02/M04 A2994 RMK CI1 SLP170

CYXE;2007-01-23 21:00;CYXE 232100Z 30008KT 15SM FEW025 SCT250 M02/M05 A2995 RMK SC1CI1 SLP174

CYXE;2007-01-23 22:00;CYXE 232200Z 27005KT 15SM FEW025 BKN250 M04/M06 A2996 RMK SC1CI1 SLP177

CYXE;2007-01-23 23:00;CYXE 232300Z 27007KT 15SM BKN250 M06/M07 A2998 RMK CI2 SLP183

CYXE;2007-01-24 00:00;CYXE 240000Z 27007KT 15SM OVC250 M06/M08 A3000 RMK CI2 SLP192

CYXE;2007-01-24 01:00;CYXE 240100Z 26008KT 15SM OVC250 M08/M09 A3000 RMK CI2 SLP193

CYXE;2007-01-24 02:00;CYXE 240200Z 26009KT 15SM BKN250 M08/M09 A3002 RMK CI2 SLP198

CYXE;2007-01-24 03:00;CYXE 240300Z 29007KT 15SM FEW250 M08/M09 A3003 RMK CI1 SLP207

CYXE;2007-01-24 04:00;CYXE 240400Z 29003KT 10SM SCT001 M09/M10 A3005 RMK ST3 SLP211

CYXE;2007-01-24 05:00;CYXE 240500Z 27008KT 15SM SKC M10/M12 A3007 RMK SLP217

CYXE;2007-01-24 06:00;CYXE 240600Z 25004KT 10SM SCT001 M10/M11 A3008 RMK SF1 BR SLP222

CYXE;2007-01-24 07:00;CYXE 240700Z 25005KT 15SM FEW001 M11/M12 A3010 RMK SF1 SLP229

CYXE;2007-01-24 08:00;CYXE 240800Z 25005KT 12SM FEW001 M12/M13 A3011 RMK SF1 BR SLP231

CYXE;2007-01-24 09:00;CYXE 240900Z 26004KT 12SM FEW001 M11/M12 A3011 RMK SF1 BR VIS LWR NW-N SLP233

CYXE;2007-01-24 09:36;CYXE 240936Z 00000KT 1/4SM R09/1200VP6000FT/D FZFG SCT001 M12/ RMK SF2

CYXE;2007-01-24 10:00;CYXE 241000Z 27003KT 1/8SM R09/0800FT/N FZFG SKC M12/M13 A3012 RMK FG6 SLP234

CYXE;2007-01-24 11:00;CYXE 241100Z 00000KT 1/8SM R09/1600FT/N FZFG SKC M14/M15 A3012 RMK FG6 TWR OBS SLP236

CYXE;2007-01-24 11:17;CYXE 241117Z 00000KT 1/8SM R09/1200FT/N FZFG VV001 M15/ RMK FG8 TWR OBS

CYXE;2007-01-24 12:00;CYXE 241200Z 00000KT 1/8SM R09/1200V2200FT/U FZFG VV001 M13/M14 A3013 RMK FG8 SLP245

CYXE;2007-01-24 13:00;CYXE 241300Z 00000KT 1/8SM R09/2200V4000FT/U FZFG VV001 M13/M14 A3014 RMK FG8 SLP247

CYXE;2007-01-24 13:13;CYXE 241313Z 00000KT 1/4SM R09/1800V3000FT/D FZFG SKC M14/ RMK FG6

CYXE;2007-01-24 13:50;CYXE 241350Z 16003KT 2SM R09/1000V2200FT/U BR SKC M12/ RMK FG6

CYXE;2007-01-24 14:00;CYXE 241400Z 19003KT 1 1/2SM R09/2200FT/N BR BKN005 M12/M13 A3013 RMK FG3SF2 SLP245

CYXE;2007-01-24 14:08;CYXE 241408Z 20003KT 1/4SM R09/1400VP6000FT/D FZFG VV001 M12/ RMK FG8

CYXE;2007-01-24 14:48;CYXE 241448Z 00000KT 1/4SM R09/2200VP6000FT/D FZFG OVC028 M13/ RMK FG6SC2

CYXE;2007-01-24 15:00;CYXE 241500Z 00000KT 1/4SM R09/2400FT/N FZFG OVC028 M13/M14 A3014 RMK FG6SC2 SLP247

CYXE;2007-01-24 15:08;CYXE 241508Z 00000KT 1/8SM R09/1000VP6000FT/D FZFG OVC028 M13/ RMK FG6SC2 RIME ICG ON INDCR

CYXE;2007-01-24 15:42;CYXE 241542Z 00000KT 3/8SM R09/0800FT/N FZFG OVC028 M12/ RMK FG3SC5

CYXE;2007-01-24 15:47;CYXE 241547Z 00000KT 1SM R09/0800V1200FT/N BR BKN028 M12/ RMK FG2SC6 VIS W 3/8

CYXE;2007-01-24 16:00;CYXE 241600Z 00000KT 3/4SM R09/1100VP6000FT/U BR BKN028 M12/M12 A3014 RMK FG2SC6 SLP249

CYXE;2007-01-24 16:11;CYXE 241611Z 00000KT 1SM R09/P6000FT/D BR BKN028 BKN090 M12/ RMK FG1SC6AC1

CYXE;2007-01-24 16:38;CYXE 241638Z 00000KT 1 1/2SM BR BKN028 BKN090 M12/ RMK SC6AC1

CYXE;2007-01-24 17:00;CYXE 241700Z 00000KT 2 1/2SM BR BKN030 BKN090 BKN250 M10/M10 A3014 RMK SC5AC2CI0 SLP247

CYXE;2007-01-24 17:17;CYXE 241717Z 12006KT 3SM BR BKN020 BKN090 M09/ RMK SC6AC2

CYXE;2007-01-24 18:00;CYXE 241800Z 13005KT 5SM BR BKN025 BKN090 M09/M09 A3015 RMK SC6AC2 SLP251

CYXE;2007-01-24 19:00;CYXE 241900Z 13004KT 10SM OVC071 M07/M07 A3015 RMK AC8 BR SLP251

CYXE;2007-01-24 20:00;CYXE 242000Z 12006KT 8SM OVC071 M06/M06 A3012 RMK AC8 BR SLP242

CYXE;2007-01-24 21:00;CYXE 242100Z 14004KT 15SM BKN067 OVC250 M06/M06 A3011 RMK AC6CI1 SLP236

CYXE;2007-01-24 22:00;CYXE 242200Z 12008KT 15SM BKN073 BKN280 M05/M06 A3009 RMK AC6CI1 SLP230

CYXE;2007-01-24 23:00;CYXE 242300Z 14004KT 15SM BKN066 OVC280 M05/M06 A3010 RMK AC5CI3 SLP232

CYXE;2007-01-25 00:00;CYXE 250000Z 14007KT 15SM OVC089 M05/M06 A3008 RMK AC8 SLP225

CYXE;2007-01-25 01:00;CYXE 250100Z 16008KT 15SM BKN089 OVC250 M04/M05 A3006 RMK AC6CI2 SLP219

CYXE;2007-01-25 02:00;CYXE 250200Z 17006KT 15SM BKN097 M04/M05 A3006 RMK AC7 SLP218

CYXE;2007-01-25 03:00;CYXE 250300Z 18008KT 15SM BKN097 M02/M04 A3003 RMK AC6 SLP207

CYXE;2007-01-25 04:00;CYXE 250400Z 19007KT 15SM FEW097 M03/M05 A3002 RMK AC2 SLP202

CYXE;2007-01-25 05:00;CYXE 250500Z 18007KT 15SM FEW097 SCT250 M04/M05 A3000 RMK AC1CI0 SLP197

CYXE;2007-01-25 06:00;CYXE 250600Z 18008KT 15SM BKN250 M04/M05 A2999 RMK CI1 SLP190

CYXE;2007-01-25 07:00;CYXE 250700Z 19008KT 10SM SCT250 M04/M06 A2996 RMK CI1 BR SLP182

CYXE;2007-01-25 08:00;CYXE 250800Z 20008KT 10SM SCT250 M05/M06 A2995 RMK CI1 BR SLP177

CYXE;2007-01-25 09:00;CYXE 250900Z 20008KT 10SM SCT250 M06/M06 A2993 RMK CI1 BR SLP170

CYXE;2007-01-25 10:00;CYXE 251000Z 23011KT 10SM SCT250 M06/M07 A2993 RMK CI2 BR SLP169

CYXE;2007-01-25 11:00;CYXE 251100Z 22011KT 10SM SCT250 M06/M08 A2990 RMK CI1 BR SLP160

CYXE;2007-01-25 12:00;CYXE 251200Z 19006KT 10SM SCT250 M06/M07 A2987 RMK CI1 BR SLP147

CYXE;2007-01-25 13:00;CYXE 251300Z 20009KT 15SM BKN210 M05/M06 A2984 RMK CI6 SLP138

CYXE;2007-01-25 14:00;CYXE 251400Z 20007KT 15SM OVC200 M04/M05 A2981 RMK CI8 SLP129

CYXE;2007-01-25 15:00;CYXE 251500Z 21009KT 15SM SCT150 BKN250 M04/M06 A2979 RMK AC2CI2 SLP119

CYXE;2007-01-25 16:00;CYXE 251600Z 21012KT 15SM FEW120 FEW250 M02/M05 A2975 RMK AC1CI0 SLP106

CYXE;2007-01-25 17:00;CYXE 251700Z 23010G15KT 15SM FEW110 FEW250 M01/M05 A2972 RMK AC1CI0 SLP095

CYXE;2007-01-25 18:00;CYXE 251800Z 24015KT 15SM FEW250 M01/M04 A2970 RMK CI1 SLP087

CYXE;2007-01-25 19:00;CYXE 251900Z 24010KT 15SM FEW250 M01/M04 A2968 RMK CI1 SLP078

CYXE;2007-01-25 20:00;CYXE 252000Z 27011KT 15SM FEW110 FEW250 00/M03 A2967 RMK AC1CI1 SLP076

CYXE;2007-01-25 21:00;CYXE 252100Z 28010KT 15SM FEW250 01/M04 A2966 RMK CI1 SLP073

CYXE;2007-01-25 22:00;CYXE 252200Z 28007KT 15SM SKC 01/M04 A2967 RMK SLP074

CYXE;2007-01-25 23:00;CYXE 252300Z 23008KT 15SM SKC M03/M06 A2967 RMK SLP074

CYXE;2007-01-26 00:00;CYXE 260000Z 25007KT 15SM SKC M04/M07 A2968 RMK SLP082

CYXE;2007-01-26 01:00;CYXE 260100Z 30008KT 15SM SKC M04/M06 A2969 RMK SLP086

CYXE;2007-01-26 02:00;CYXE 260200Z 31011KT 15SM SKC M03/M07 A2970 RMK SLP089

CYXE;2007-01-26 03:00;CYXE 260300Z 32012KT 15SM SKC M03/M06 A2971 RMK SLP091

CYXE;2007-01-26 04:00;CYXE 260400Z 31012KT 15SM SCT100 M03/M06 A2973 RMK AC1 SLP097

CYXE;2007-01-26 05:00;CYXE 260500Z 30019KT 15SM BKN098 00/M05 A2976 RMK AC2 SLP105

CYXE;2007-01-26 06:00;CYXE 260600Z 30018KT 15SM BKN086 M01/M05 A2978 RMK AC4 SLP112

CYXE;2007-01-26 07:00;CYXE 260700Z 31015G21KT 15SM SCT090 M02/M07 A2981 RMK AC2 SLP123

CYXE;2007-01-26 08:00;CYXE 260800Z 30014KT 15SM FEW090 M04/M09 A2983 RMK AC1 SLP129

CYXE;2007-01-26 09:00;CYXE 260900Z 30015KT 15SM FEW040 M06/M10 A2985 RMK SC1 SLP136

CYXE;2007-01-26 10:00;CYXE 261000Z 31018KT 15SM FEW040 M05/M09 A2986 RMK SC1 SLP139

CYXE;2007-01-26 11:00;CYXE 261100Z 31014KT 15SM DRSN FEW040 M06/M10 A2987 RMK SC1 SLP145

CYXE;2007-01-26 12:00;CYXE 261200Z 31012KT 15SM FEW040 M07/M11 A2988 RMK SC1 SLP153

CYXE;2007-01-26 13:00;CYXE 261300Z 30017KT 15SM DRSN BKN090 M06/M10 A2988 RMK AC2 SLP152

CYXE;2007-01-26 14:00;CYXE 261400Z 30013KT 15SM DRSN OVC050 M06/M09 A2989 RMK SC7 SLP155

CYXE;2007-01-26 15:00;CYXE 261500Z 30016KT 15SM DRSN BKN070 OVC200 M06/M10 A2989 RMK AC6CI1 SLP155

CYXE;2007-01-26 16:00;CYXE 261600Z 30019G26KT 15SM DRSN OVC054 M06/M09 A2989 RMK SC8 SLP155

CYXE;2007-01-26 16:20;CYXE 261620Z 30020KT 5SM -SN DRSN SCT038 OVC054 M06/ RMK SC3SC5

CYXE;2007-01-26 16:31;CYXE 261631Z 30019G24KT 1 1/2SM -SN DRSN OVC038 M07/ RMK SC8

CYXE;2007-01-26 16:39;CYXE 261639Z 30017KT 3/4SM R09/3000VP6000FT/D -SN BLSN OVC020 M07/ RMK SN6SC2

CYXE;2007-01-26 16:49;CYXE 261649Z 31015KT 1 1/2SM -SN BLSN OVC020 M07/ RMK BLSN2SC6

CYXE;2007-01-26 17:00;CYXE 261700Z 31017KT 2SM R09/4500VP6000FT/D -SN BLSN OVC020 M07/M08 A2990 RMK SC8 SLP159

CYXE;2007-01-26 17:16;CYXE 261716Z 31015KT 4SM -SN DRSN FEW012 OVC022 M06/ REBLSN RMK SC1SC7

CYXE;2007-01-26 17:49;CYXE 261749Z 32016KT 15SM DRSN BKN055 OVC070 M06/ REBLSN RMK SC6AC2

CYXE;2007-01-26 18:00;CYXE 261800Z 32018KT 15SM DRSN FEW038 BKN055 OVC070 M06/M09 A2993 RMK SC2SC6AC1 SLP165

CYXE;2007-01-26 18:10;CYXE 261810Z 35019KT 2SM -SN BLSN OVC027 M06/ RMK BLSN2SC6

CYXE;2007-01-26 18:22;CYXE 261822Z 36019G24KT 1/8SM R09/2800VP6000FT/D +SN +BLSN VV004 M07/ RMK SN8

CYXE;2007-01-26 18:30;CYXE 261830Z 01016G26KT 5/8SM R09/2400V5500FT/U -SN BLSN VV004 M08/ RMK SN8

CYXE;2007-01-26 18:38;CYXE 261838Z 01017G22KT 3SM R09/4500VP6000FT/U -SN BLSN BKN057 OVC076 M08/ RMK SC6AC1

CYXE;2007-01-26 19:00;CYXE 261900Z 01018KT 4SM BLSN SCT022 BKN038 OVC220 M08/M11 A2996 RMK SC4SC2CI1 SLP176

CYXE;2007-01-26 20:00;CYXE 262000Z 36015G20KT 15SM DRSN FEW049 BKN077 OVC220 M08/M12 A2999 REBLSN RMK SC2AC2CI2 SLP184

CYXE;2007-01-26 21:00;CYXE 262100Z 33013KT 15SM FEW070 BKN087 BKN220 M09/M13 A3002 RMK AC2AC1CI1 SLP201

CYXE;2007-01-26 22:00;CYXE 262200Z 34018KT 15SM DRSN FEW070 M10/M14 A3005 RMK AC1 SLP212

CYXE;2007-01-26 23:00;CYXE 262300Z 34018KT 15SM DRSN BKN045 M10/M14 A3010 RMK SC6 SLP227

CYXE;2007-01-27 00:00;CYXE 270000Z 35017KT 15SM DRSN OVC030 M10/M14 A3015 RMK SC7 SLP248

CYXE;2007-01-27 01:00;CYXE 270100Z 35015G21KT 15SM -SN DRSN OVC040 M11/M14 A3020 RMK SC8 SLP264

CYXE;2007-01-27 02:00;CYXE 270200Z 36015KT 15SM DRSN FEW050 M13/M16 A3024 RMK SC2 SLP279

CYXE;2007-01-27 03:00;CYXE 270300Z 36017KT 15SM DRSN FEW090 M14/M17 A3028 RMK AC1 SLP296

CYXE;2007-01-27 04:00;CYXE 270400Z 35012KT 15SM BKN040 M14/M17 A3032 RMK SC6 IC SLP308

CYXE;2007-01-27 04:44;CYXE 270444Z 36017KT 15SM DRSN FEW050 M15/ RMK SC2

CYXE;2007-01-27 05:00;CYXE 270500Z 35016KT 15SM DRSN FEW030 M15/M18 A3034 RMK SC1 SLP314

CYXE;2007-01-27 06:00;CYXE 270600Z 33013KT 15SM SCT033 M16/M18 A3038 RMK SC3 SLP330

CYXE;2007-01-27 07:00;CYXE 270700Z 34013KT 15SM FEW033 M16/M19 A3039 RMK SC1 SLP335

CYXE;2007-01-27 08:00;CYXE 270800Z 32009KT 15SM SKC M18/M21 A3040 RMK SLP338

CYXE;2007-01-27 09:00;CYXE 270900Z 32009KT 15SM SKC M20/M22 A3041 RMK SLP346

CYXE;2007-01-27 10:00;CYXE 271000Z 32009KT 15SM SKC M21/M22 A3044 RMK SLP357

CYXE;2007-01-27 11:00;CYXE 271100Z 32009KT 15SM SKC M21/M22 A3046 RMK SLP361

CYXE;2007-01-27 12:00;CYXE 271200Z 30006KT 15SM SKC M24/M28 A3045 RMK SLP365

CYXE;2007-01-27 13:00;CYXE 271300Z 35009KT 15SM SKC M24/M27 A3045 RMK SLP364

CYXE;2007-01-27 14:00;CYXE 271400Z 33007KT 15SM SKC M23/M27 A3045 RMK SLP364

CYXE;2007-01-27 15:00;CYXE 271500Z 29005KT 15SM SCT091 SCT250 M24/M27 A3044 RMK AC1CI0 SLP363

CYXE;2007-01-27 16:00;CYXE 271600Z 24005KT 15SM FEW092 SCT250 M25/M28 A3044 RMK AC1CI0 SLP364

CYXE;2007-01-27 17:00;CYXE 271700Z 23004KT 15SM FEW092 FEW250 M23/M26 A3043 RMK AC1CI0 SLP359

CYXE;2007-01-27 18:00;CYXE 271800Z 26003KT 15SM SCT250 M21/M24 A3044 RMK CI1 SLP361

CYXE;2007-01-27 19:00;CYXE 271900Z 27005KT 15SM FEW090 BKN250 M19/M23 A3042 RMK AC1CI1 SLP354

CYXE;2007-01-27 20:00;CYXE 272000Z 25005KT 15SM FEW090 BKN250 M18/M22 A3039 RMK AC1CI1 SLP345

CYXE;2007-01-27 21:00;CYXE 272100Z 22006KT 15SM BKN250 M17/M21 A3034 RMK CI2 SLP329

CYXE;2007-01-27 22:00;CYXE 272200Z 19005KT 15SM OVC250 M16/M21 A3032 RMK CI5 SLP320

CYXE;2007-01-27 23:00;CYXE 272300Z 19006KT 15SM BKN250 M16/M21 A3028 RMK CI2 SLP308

CYXE;2007-01-28 00:00;CYXE 280000Z 17007KT 15SM BKN250 M17/M22 A3024 RMK CI3 SLP296

CYXE;2007-01-28 01:00;CYXE 280100Z 18012KT 15SM FEW090 SCT250 M17/M21 A3021 RMK AC1CI1 SLP285

CYXE;2007-01-28 02:00;CYXE 280200Z 18008KT 15SM BKN100 OVC250 M17/M21 A3016 RMK AC6CI1 SLP271

CYXE;2007-01-28 03:00;CYXE 280300Z 19011KT 15SM BKN100 OVC250 M17/M20 A3012 RMK AC6CI1 SLP253

CYXE;2007-01-28 04:00;CYXE 280400Z 19012KT 15SM OVC095 M16/M19 A3006 RMK AC8 SLP236

CYXE;2007-01-28 05:00;CYXE 280500Z 19011KT 15SM OVC100 M15/M18 A3003 RMK AC8 SLP226

CYXE;2007-01-28 06:00;CYXE 280600Z 19011KT 15SM OVC097 M13/M17 A2998 RMK AC8 SLP203

CYXE;2007-01-28 07:00;CYXE 280700Z 18011KT 15SM OVC097 M13/M16 A2992 RMK AC8 SLP183

CYXE;2007-01-28 08:00;CYXE 280800Z 20009KT 15SM OVC049 M12/M13 A2988 RMK SC8 SLP170

CYXE;2007-01-28 09:00;CYXE 280900Z 22007KT 15SM OVC040 M12/M14 A2987 RMK SC8 SLP161

CYXE;2007-01-28 10:00;CYXE 281000Z 22006KT 15SM OVC051 M12/M14 A2984 RMK SC8 SLP151

CYXE;2007-01-28 11:00;CYXE 281100Z 30009KT 15SM BKN076 M10/M13 A2983 RMK AC6 SLP147

CYXE;2007-01-28 12:00;CYXE 281200Z 31013KT 15SM FEW080 SCT250 M11/M14 A2986 RMK AC2CI0 SLP156

CYXE;2007-01-28 13:00;CYXE 281300Z 32016KT 15SM DRSN FEW053 FEW093 M12/M15 A2988 RMK SC1AC2 SLP164

CYXE;2007-01-28 14:00;CYXE 281400Z 31015G20KT 15SM FEW093 M11/M15 A2989 RMK AC1 SLP165

CYXE;2007-01-28 15:00;CYXE 281500Z 31013KT 15SM FEW093 M10/M14 A2989 RMK AC1 SLP167

CYXE;2007-01-28 16:00;CYXE 281600Z 32020KT 15SM SKC M09/M12 A2990 RMK SLP168

CYXE;2007-01-28 17:00;CYXE 281700Z 31021G26KT 15SM DRSN SKC M07/M11 A2990 RMK SLP168

CYXE;2007-01-28 18:00;CYXE 281800Z 30023G28KT 15SM FEW090 M06/M10 A2991 RMK AC1 SLP168

CYXE;2007-01-28 19:00;CYXE 281900Z 31023KT 15SM FEW047 M06/M09 A2990 RMK SC2 SLP165

CYXE;2007-01-28 20:00;CYXE 282000Z 31020G26KT 15SM DRSN SCT036 BKN079 M05/M09 A2990 RMK SC2AC4 SLP163

CYXE;2007-01-28 21:00;CYXE 282100Z 31021G28KT 15SM DRSN FEW038 BKN079 M05/M08 A2989 RMK SC2AC3 SLP159

CYXE;2007-01-28 22:00;CYXE 282200Z 32019G28KT 15SM DRSN BKN030 OVC085 M04/M07 A2990 RMK SC5AS2 OCNL BLSN SLP164

CYXE;2007-01-28 22:53;CYXE 282253Z 34021G29KT 1/4SM R09/2600VP6000FT/D -SN +BLSN VV010 M05/ RMK SN8

CYXE;2007-01-28 23:00;CYXE 282300Z 35020G29KT 1/4SM R09/2000VP6000FT/D -SN +BLSN OVC020 M05/M06 A2993 RMK SN3SC5 SLP172

CYXE;2007-01-28 23:08;CYXE 282308Z 35021G26KT 3/4SM R09/4500VP6000FT/U -SN BLSN OVC018 M05/ RMK SN2SC5

CYXE;2007-01-28 23:21;CYXE 282321Z 35021G28KT 3/4SM R09/P6000FT/D -SN BLSN SCT020 OVC040 M06/ RMK SN2SC2SC4 TWR VIS 10

CYXE;2007-01-28 23:31;CYXE 282331Z 35022KT 3SM -SN BLSN SCT020 OVC040 M06/ RMK SN2SC2SC3 TWR VIS 10

CYXE;2007-01-28 23:38;CYXE 282338Z 34024G30KT 4SM DRSN FEW020 BKN040 M06/ REBLSN RMK SN1SC2SC5 OCNL BLSN

CYXE;2007-01-29 00:00;CYXE 290000Z 34022G31KT 6SM -SN FEW012 BKN042 M06/M10 A2995 REBLSN RMK SN1SC2SC5 VIS W-N 1/2 OCNL BLSN SLP181

CYXE;2007-01-29 01:00;CYXE 290100Z 34022G27KT 10SM DRSN OVC040 M06/M11 A2999 RMK SC8 OCNL BLSN SLP191

CYXE;2007-01-29 02:00;CYXE 290200Z 35024G30KT 3SM -SN DRSN OVC030 M07/M11 A3001 RMK SN2SC6 OCNL BLSN SLP198

CYXE;2007-01-29 02:29;CYXE 290229Z 36022G30KT 1/2SM R09/2600VP6000FT/D SN DRSN VV012 M08/ RMK SN8 OCNL BLSN

CYXE;2007-01-29 03:00;CYXE 290300Z 36024G29KT 3/4SM R09/2000V5000FT/D -SN DRSN VV012 M09/M11 A3005 RMK SN8 TWR VIS 2 OCNL BLSN SLP215

CYXE;2007-01-29 03:30;CYXE 290330Z 36024KT 1SM R09/2800VP6000FT/U -SN DRSN SCT020 BKN040 M10/ RMK SC3SC2 OCNL BLSN TWR VIS 6

CYXE;2007-01-29 04:00;CYXE 290400Z 36021G28KT 6SM -SN DRSN FEW020 OVC035 M11/M14 A3009 RMK SC2SC5 OCNL BLSN SLP229

CYXE;2007-01-29 04:18;CYXE 290418Z 02019KT 1 1/2SM -SN DRSN OVC030 M12/ RMK SN3SC4 OCNL BLSN TWR VIS 4 MOON VIS

CYXE;2007-01-29 04:49;CYXE 290449Z 01020G28KT 8SM -SN DRSN BKN040 M13/ RMK SC6 OCNL BLSN TWR OBS

CYXE;2007-01-29 05:00;CYXE 290500Z CCA 01020G26KT 8SM -SN DRSN BKN040 M13/M15 RMK SC6 OCNL BLSN TWR OBS -VIA YEG FIC- ALTM MISG

CYXE;2007-01-29 05:48;CYXE 290548Z CCA 01018KT 15SM DRSN SCT040 BKN100 M14/ RMK SC3AC3 IC OCNL BLSN -VIA YEG FIC-

CYXE;2007-01-29 06:00;CYXE 290600Z CCA 01018KT 15SM DRSN BKN016 M14/M17 A3016 RMK SC2 IC -VIA YEG FIC- SLP253

CYXE;2007-01-29 07:00;CYXE 290700Z CCA 01013KT 15SM DRSN FEW087 M16/M18 A3020 RMK AC2 -VIA YEG FIC- SLP266

CYXE;2007-01-29 08:00;CYXE 290800Z CCA 01006KT 15SM SKC M17/M19 A3022 RMK -VIA YEG FIC- SLP273

CYXE;2007-01-29 09:00;CYXE 290900Z CCA 35011KT 15SM SKC M18/M20 A3023 RMK -VIA YEG FIC- SLP280

CYXE;2007-01-29 10:00;CYXE 291000Z CCA 34006KT 15SM SKC M19/M21 A3026 RMK -VIA YEG FIC- SLP288

CYXE;2007-01-29 11:00;CYXE 291100Z CCA 01007KT 15SM SKC M19/M21 A3027 RMK -VIA YEG FIC-

CYXE;2007-01-29 12:00;CYXE 291200Z CCA 34005KT 15SM SKC M21/M24 A3030 RMK -VIA YEG FIC- SLP307

CYXE;2007-01-29 13:00;CYXE 291300Z 34002KT 15SM SKC M22/M25 A3033 RMK -VIA YEG FIC-

CYXE;2007-01-29 14:00;CYXE 291400Z 34010KT 15SM FEW092 FEW250 M22/M26 A3033 RMK AC1CI0 SLP318

CYXE;2007-01-29 15:00;CYXE 291500Z 34005KT 15SM SKC M23/M27 A3035 RMK SLP327

CYXE;2007-01-29 16:00;CYXE 291600Z 28006KT 15SM SKC M24/M26 A3037 RMK SLP335

CYXE;2007-01-29 17:00;CYXE 291700Z 32005KT 15SM SKC M22/M26 A3039 RMK SLP340

CYXE;2007-01-29 18:00;CYXE 291800Z 31005KT 15SM SKC M20/M24 A3041 RMK SLP351

CYXE;2007-01-29 19:00;CYXE 291900Z 32005KT 15SM SKC M19/M24 A3041 RMK SLP350

CYXE;2007-01-29 20:00;CYXE 292000Z 32005KT 15SM SKC M18/M23 A3040 RMK SLP348

CYXE;2007-01-29 21:00;CYXE 292100Z 30006KT 15SM SKC M17/M22 A3041 RMK SLP351

CYXE;2007-01-29 22:00;CYXE 292200Z 29005KT 15SM SKC M17/M22 A3040 RMK SLP348

CYXE;2007-01-29 23:00;CYXE 292300Z 27005KT 15SM SKC M18/M23 A3039 RMK SLP345

CYXE;2007-01-30 00:00;CYXE 300000Z 27002KT 15SM SKC M20/M25 A3039 RMK SLP347

CYXE;2007-01-30 01:00;CYXE 300100Z 26003KT 15SM SKC M20/M24 A3039 RMK SLP348

CYXE;2007-01-30 02:00;CYXE 300200Z 24005KT 15SM SKC M22/M25 A3038 RMK SLP345

CYXE;2007-01-30 03:00;CYXE 300300Z 21007KT 15SM SKC M24/M27 A3036 RMK SLP343

CYXE;2007-01-30 04:00;CYXE 300400Z 21009KT 15SM SKC M23/M26 A3034 RMK SLP337

CYXE;2007-01-30 05:00;CYXE 300500Z 21008KT 15SM SKC M21/M25 A3031 RMK SLP327

CYXE;2007-01-30 05:29;CYXE 300529Z 22007KT 15SM FEW008 M22/ RMK SF1

CYXE;2007-01-30 06:00;CYXE 300600Z 21007KT 15SM FEW008 BKN250 M22/M25 A3028 RMK SF1CI1 SLP311

CYXE;2007-01-30 07:00;CYXE 300700Z 22011KT 15SM FEW008 BKN250 M22/M25 A3026 RMK SF1CI1 SLP303

CYXE;2007-01-30 08:00;CYXE 300800Z 22010KT 15SM FEW090 OVC250 M20/M24 A3022 RMK AC1CS2 SLP292

CYXE;2007-01-30 09:00;CYXE 300900Z 22012KT 15SM OVC088 M18/M22 A3018 RMK AS6 SLP272

CYXE;2007-01-30 10:00;CYXE 301000Z 20007KT 15SM OVC250 M18/M21 A3012 RMK CS6 SLP253

CYXE;2007-01-30 12:00;CYXE 301200Z 18010KT 15SM SCT093 OVC250 M17/M20 A3001 RMK AS4CI4 PRESFR SLP215

CYXE;2007-01-30 12:47;CYXE 301247Z 20006KT 1 1/2SM -SN DRSN OVC061 M16/ RMK SN2SC6

CYXE;2007-01-30 12:52;CYXE 301252Z 20006KT 3/4SM R09/P6000FT/D -SN DRSN VV006 M16/ RMK SN8

CYXE;2007-01-30 13:00;CYXE 301300Z 20006KT 3/4SM R09/P6000FT/D -SN DRSN VV005 M16/M19 A2996 RMK SN8 SLP198

CYXE;2007-01-30 13:10;CYXE 301310Z 22009KT 5/8SM R09/P6000FT/U -SN DRSN VV004 M14/ RMK SN8

CYXE;2007-01-30 13:31;CYXE 301331Z 23016KT 1 1/2SM -SN DRSN OVC061 M12/ RMK SN6SC2

CYXE;2007-01-30 14:00;CYXE 301400Z 23015KT 1 1/2SM -SN DRSN OVC055 M12/M13 A2991 RMK SN5SC3 SLP181

CYXE;2007-01-30 15:00;CYXE 301500Z 24011KT 1 1/2SM -SN DRSN OVC055 M11/M13 A2987 RMK SN5SC3 SLP166

CYXE;2007-01-30 15:22;CYXE 301522Z 24010KT 1SM R09/4000VP6000FT/N -SN DRSN OVC055 M11/ RMK SN6SC2

CYXE;2007-01-30 16:00;CYXE 301600Z 27009KT 1 1/2SM -SN DRSN OVC018 M10/M11 A2986 RMK SN6SC2 SLP161

CYXE;2007-01-30 17:00;CYXE 301700Z 32017KT 1SM R09/P6000FT/N -SN DRSN OVC017 M08/M09 A2986 RMK SN6SC2 SLP163

CYXE;2007-01-30 18:00;CYXE 301800Z 32016KT 2SM -SN DRSN SCT031 OVC100 M08/M09 A2986 RMK SN2SC2AS2 SLP158

CYXE;2007-01-30 19:00;CYXE 301900Z 32018KT 2SM -SN DRSN BKN026 OVC100 M07/M09 A2985 RMK SN2SC3AS2 SLP155

CYXE;2007-01-30 19:26;CYXE 301926Z 32018KT 3/4SM R09/P6000FT/U -SN DRSN OVC040 M07/ RMK SN5SC3

CYXE;2007-01-30 20:00;CYXE 302000Z 32018KT 3/4SM R09/P6000FT/N -SN DRSN OVC044 M07/M08 A2985 RMK SN5SC3 SLP153

CYXE;2007-01-30 20:11;CYXE 302011Z 32018KT 1 1/2SM -SN DRSN OVC044 M07/ RMK SN3SC3

CYXE;2007-01-30 21:00;CYXE 302100Z 33014KT 1 1/2SM -SN DRSN OVC042 M07/M08 A2984 RMK SN3SC4 SLP148

CYXE;2007-01-30 22:00;CYXE 302200Z 35013KT 3SM -SN DRSN BKN100 M07/M08 A2985 RMK AC6 SLP151

CYXE;2007-01-30 23:00;CYXE 302300Z 36021KT 2SM -SN BLSN SCT030 OVC120 M08/M10 A2986 RMK SC3AC4 SLP155

CYXE;2007-01-30 23:10;CYXE 302310Z 35023KT 1 1/2SM -SN BLSN SCT030 OVC120 M08/ RMK SC3AC5

CYXE;2007-01-30 23:21;CYXE 302321Z 36025G30KT 3/4SM R09/3000VP6000FT/D -SN BLSN OVC030 M08/ RMK SN3SC5

CYXE;2007-01-31 00:00;CYXE 310000Z 36021KT 1SM R09/P6000FT/N -SN BLSN OVC030 M08/M10 A2989 RMK SN2SC6 SLP164

CYXE;2007-01-31 01:00;CYXE 310100Z 36024KT 1 1/2SM -SN BLSN OVC030 M09/M10 A2992 RMK SC7 SLP176

CYXE;2007-01-31 01:25;CYXE 310125Z 01021KT 2SM -SN BLSN BKN016 M10/ RMK SC6

CYXE;2007-01-31 02:00;CYXE 310200Z 02016G24KT 3SM -SN DRSN SCT015 M10/M11 A2997 RMK SC2 SLP192

CYXE;2007-01-31 02:31;CYXE 310231Z 01019G24KT 1 1/2SM -SN DRSN OVC015 M11/ RMK SC7

CYXE;2007-01-31 03:00;CYXE 310300Z 02020G25KT 3SM -SN DRSN FEW015 BKN030 M11/M13 A3003 RMK SC2SC4 SLP209

CYXE;2007-01-31 03:43;CYXE 310343Z 03023KT 3SM BLSN FEW015 BKN060 M12/ RMK SC2SC2

CYXE;2007-01-31 04:00;CYXE 310400Z 03020KT 5SM BLSN SCT060 M13/M15 A3006 RMK SC2 SLP221

CYXE;2007-01-31 05:00;CYXE 310500Z 02020KT 15SM DRSN FEW060 M15/M17 A3011 RMK SC1 SLP235

CYXE;2007-01-31 06:00;CYXE 310600Z 01016KT 15SM SKC M15/M18 A3014 RMK SLP248

CYXE;2007-01-31 07:00;CYXE 310700Z 02013KT 15SM SKC M16/M18 A3013 RMK SLP246

CYXE;2007-01-31 08:00;CYXE 310800Z 35007KT 15SM SKC M17/M19 A3014 RMK SLP248

CYXE;2007-01-31 09:00;CYXE 310900Z 36011KT 15SM SKC M19/M20 A3015 RMK SLP254

CYXE;2007-01-31 10:00;CYXE 311000Z 32006KT 15SM SKC M20/M21 A3015 RMK SLP255

CYXE;2007-01-31 11:00;CYXE 311100Z CCA 25004KT 15SM FEW016 BKN260 M22/M23 A3014 RMK SC2CS2 SLP252

CYXE;2007-01-31 11:54;CYXE 311154Z 26006KT 15SM OVC014 M20/ RMK ST8

CYXE;2007-01-31 12:00;CYXE 311200Z 26006KT 15SM OVC014 M20/M21 A3014 RMK ST8 SLP254

CYXE;2007-01-31 13:00;CYXE 311300Z 26005KT 15SM OVC015 M18/M19 A3010 RMK ST8 SLP240

CYXE;2007-01-31 13:33;CYXE 311333Z 23007KT 10SM -SN OVC013 M17/ RMK ST8

CYXE;2007-01-31 14:00;CYXE 311400Z 24005KT 10SM -SN OVC013 M16/M17 A3005 RMK SC8 SLP223

CYXE;2007-01-31 14:16;CYXE 311416Z 25009KT 10SM -SN OVC008 M15/ RMK SC8

CYXE;2007-01-31 14:40;CYXE 311440Z 23009KT 15SM OVC011 M14/ RMK SC8

CYXE;2007-01-31 15:00;CYXE 311500Z 25010KT 8SM -SN OVC010 M14/M15 A3002 RMK SC8 SLP209

CYXE;2007-01-31 16:00;CYXE 311600Z 25010KT 10SM -SN OVC013 M13/M15 A3000 RMK SC8 SLP204

CYXE;2007-01-31 17:00;CYXE 311700Z 26010KT 15SM -SN BKN013 OVC040 M12/M14 A2997 RMK SC6SC2 SLP194

CYXE;2007-01-31 17:38;CYXE 311738Z 26011KT 15SM OVC016 M12/ RMK SC7

CYXE;2007-01-31 18:00;CYXE 311800Z 25012KT 15SM OVC016 M12/M14 A2994 RMK SC7 SLP183

CYXE;2007-01-31 19:00;CYXE 311900Z 27014KT 15SM BKN012 OVC090 M11/M14 A2990 RMK SC6AC2 SLP171

CYXE;2007-01-31 20:00;CYXE 312000Z 28015KT 15SM BKN015 OVC090 M10/M12 A2987 RMK SC5AC2 SLP160

CYXE;2007-01-31 20:32;CYXE 312032Z 28012KT 10SM -SN BKN015 OVC090 M10/ RMK SC6AS2

CYXE;2007-01-31 20:51;CYXE 312051Z 28013KT 2 1/2SM -SN DRSN OVC020 M10/ RMK SC8

CYXE;2007-01-31 21:00;CYXE 312100Z 27012KT 2SM -SN DRSN OVC018 M09/M11 A2983 RMK SC8 SLP146

CYXE;2007-01-31 21:40;CYXE 312140Z 27010KT 1SM R09/P6000FT/N -SN DRSN OVC015 M10/ RMK SN2SC6

CYXE;2007-01-31 22:00;CYXE 312200Z 26010KT 2SM -SN DRSN BKN015 OVC050 M09/M11 A2979 RMK SC6SC2 SLP133

CYXE;2007-01-31 22:13;CYXE 312213Z 25010KT 3SM -SN DRSN SCT015 OVC040 M09/ RMK SC3SC4

CYXE;2007-01-31 23:00;CYXE 312300Z 25008KT 3SM -SN DRSN FEW020 OVC040 M09/M10 A2976 RMK SC2SC6 SLP122

CYXE;2007-01-31 23:06;CYXE 312306Z 25008KT 1 1/2SM -SN DRSN SCT020 OVC040 M09/ RMK SN1SC2SC5

CYXE;2007-02-01 01:00;CYXE 010100Z 31014KT 2SM -SN DRSN BKN020 OVC065 M08/M09 A2973 RMK SC6SC2 SLP111

CYXE;2007-02-01 01:30;CYXE 010130Z 32016KT 4SM -SN DRSN BKN030 OVC080 M08/ RMK SC6AC2

CYXE;2007-02-01 02:00;CYXE 010200Z 32016KT 3SM -SN DRSN OVC030 M08/M09 A2972 RMK SC8 SLP107

CYXE;2007-02-01 03:00;CYXE 010300Z 33015KT 3SM -SN DRSN OVC020 M08/M09 A2972 RMK SC8 SLP103

CYXE;2007-02-01 03:48;CYXE 010348Z 36029KT 1 1/2SM -SN BLSN OVC016 M08/ RMK SN2SC6

CYXE;2007-02-01 04:00;CYXE 010400Z 36024G33KT 1/2SM R09/2800VP6000FT/D BLSN BKN020 M08/M10 A2975 RMK SN3SC4 SLP113

CYXE;2007-02-01 04:04;CYXE 010404Z 36028G33KT 1SM R09/2800VP6000FT/U BLSN BKN020 M09/ RMK SN3SC3

CYXE;2007-02-01 04:19;CYXE 010419Z 01031KT 1/2SM R09/2200V5500FT/D BLSN SCT020 M10/ RMK SN3SC1

CYXE;2007-02-01 04:44;CYXE 010444Z 01028G33KT 1SM R09/3500VP6000FT/U BLSN SCT020 BKN040 M11/ RMK SC3SC2

CYXE;2007-02-01 05:00;CYXE 010500Z 36025G32KT 1 1/2SM R09/3500VP6000FT/N BLSN FEW020 BKN050 M11/M13 A2980 RMK SC2SC3 SLP128

CYXE;2007-02-01 05:19;CYXE 010519Z 01021KT 5SM BLSN SCT050 M12/ RMK SC2

CYXE;2007-02-01 05:35;CYXE 010535Z 01030G35KT 1SM R09/4500VP6000FT/D BLSN SCT050 M13/ RMK SC2

CYXE;2007-02-01 06:00;CYXE 010600Z CCA 36027G33KT 1SM R09/3500VP6000FT/U -SN BKN051 M14/M16 A2985 RMK SC2 SLP150

CYXE;2007-02-01 06:37;CYXE 010637Z 36023KT 3SM BLSN FEW055 M15/ RMK SC2

CYXE;2007-02-01 07:00;CYXE 010700Z CCA 01021G31KT 3SM BLSN FEW027 BKN090 M15/M17 A2989 RMK SC2AC2 SLP165

CYXE;2007-02-01 08:00;CYXE 010800Z 01027KT 3SM BLSN BKN036 M16/M19 A2993 RMK SC6 SLP178

CYXE;2007-02-01 09:00;CYXE 010900Z 01023G29KT 3SM BLSN BKN034 OVC090 M17/M20 A2998 RMK SC5AC2 SLP198

CYXE;2007-02-01 10:00;CYXE 011000Z 01019KT 10SM DRSN FEW034 M19/M22 A3002 RMK SC2 SLP209

CYXE;2007-02-01 11:00;CYXE 011100Z 36016KT 15SM DRSN FEW034 M20/M22 A3004 RMK SC1 SLP218

CYXE;2007-02-01 12:00;CYXE 011200Z 35011KT 15SM FEW067 M22/M24 A3008 RMK AS1 SLP233

CYXE;2007-02-01 13:00;CYXE 011300Z 32014KT 15SM BKN065 M22/M26 A3010 RMK SC2 SLP241

CYXE;2007-02-01 14:00;CYXE 011400Z 31010KT 15SM FEW065 M23/M28 A3014 RMK SC1 SLP252

CYXE;2007-02-01 15:00;CYXE 011500Z 31013KT 15SM SKC M23/M28 A3014 RMK SLP256

CYXE;2007-02-01 16:00;CYXE 011600Z 30013KT 15SM FEW250 M23/M27 A3015 RMK CI1 SLP258

CYXE;2007-02-01 17:00;CYXE 011700Z 30014KT 15SM FEW250 M21/M27 A3016 RMK CI1 SLP260

CYXE;2007-02-01 18:00;CYXE 011800Z 29014KT 15SM BKN250 M21/M26 A3015 RMK CI5 SLP259

CYXE;2007-02-01 19:00;CYXE 011900Z 30018KT 15SM DRSN SCT250 M20/M25 A3012 RMK CI3 OCNL BLSN SLP250

CYXE;2007-02-01 19:51;CYXE 011951Z 30023KT 4SM R09/3500VP6000FT/U BLSN BKN250 M19/ RMK CI3

CYXE;2007-02-01 20:00;CYXE 012000Z 30021G26KT 4SM BLSN BKN250 M19/M25 A3008 RMK CI3 SLP237

CYXE;2007-02-01 20:47;CYXE 012047Z 30025G30KT 1SM R09/P6000FT/N BLSN BKN250 M19/ RMK CI6 TWR VIS 10

CYXE;2007-02-01 21:00;CYXE 012100Z 30024G29KT 1 1/2SM R09/3500VP6000FT/N BLSN BKN250 M18/M24 A3005 RMK CI6 TWR VIS 12 SLP227

CYXE;2007-02-01 21:16;CYXE 012116Z 30022KT 4SM BLSN FEW130 BKN250 M18/ RMK AC1CI3 TWR VIS 12

CYXE;2007-02-01 21:34;CYXE 012134Z 29017G26KT 8SM DRSN FEW120 SCT250 M18/ RMK AC1CI1 OCNL BLSN

CYXE;2007-02-01 22:00;CYXE 012200Z 30021G27KT 5SM BLSN SCT250 M18/M24 A3003 RMK CI3 SLP219

CYXE;2007-02-01 23:00;CYXE 012300Z 29020KT 10SM DRSN BKN250 M18/M23 A2999 RMK CI6 SLP208

CYXE;2007-02-02 00:00;CYXE 020000Z 29024G29KT 10SM DRSN SCT250 M18/M24 A2996 RMK CI2 SLP199

CYXE;2007-02-02 01:00;CYXE 020100Z 29019KT 15SM DRSN SCT250 M18/M25 A2994 RMK CI1 SLP191

CYXE;2007-02-02 02:00;CYXE 020200Z 28015KT 15SM DRSN SCT250 M19/M26 A2991 RMK CI2 SLP182

CYXE;2007-02-02 03:00;CYXE 020300Z 30021KT 15SM DRSN BKN250 M19/M25 A2987 RMK CI2 SLP169

CYXE;2007-02-02 04:00;CYXE 020400Z 30022G27KT 10SM DRSN BKN250 M18/M24 A2984 RMK CI2 SLP160

CYXE;2007-02-02 05:00;CYXE 020500Z 30019KT 15SM DRSN BKN250 M18/M25 A2982 RMK CI2 SLP153

CYXE;2007-02-02 06:00;CYXE 020600Z 31017KT 15SM BKN095 M19/M25 A2980 RMK AC5 SLP142

CYXE;2007-02-02 07:00;CYXE 020700Z 30017KT 15SM OVC082 M19/M25 A2977 RMK AC8 SLP132

CYXE;2007-02-02 08:00;CYXE 020800Z 31015KT 15SM OVC056 M19/M24 A2975 RMK SC8 SLP127

CYXE;2007-02-02 09:00;CYXE 020900Z 32014KT 15SM OVC088 M19/M25 A2974 RMK AC8 SLP121

CYXE;2007-02-02 10:00;CYXE 021000Z 32014KT 15SM OVC082 M19/M25 A2974 RMK AS8 SLP123

CYXE;2007-02-02 11:00;CYXE 021100Z 32014KT 15SM DRSN SCT042 BKN082 M20/M26 A2975 RMK SC4AS2 SLP124

CYXE;2007-02-02 12:00;CYXE 021200Z 32016KT 15SM DRSN FEW036 M21/M27 A2976 RMK SC2 SLP128

CYXE;2007-02-02 13:00;CYXE 021300Z 32012KT 10SM -SN DRSN SCT020 BKN041 M22/M27 A2978 RMK SF2SC3 SLP136

CYXE;2007-02-02 14:00;CYXE 021400Z 32011KT 10SM -SN DRSN SCT020 M23/M28 A2981 RMK SF3 SLP147

CYXE;2007-02-02 14:24;CYXE 021424Z 32010KT 15SM FEW020 M24/ RMK SC1

CYXE;2007-02-02 15:00;CYXE 021500Z 35013KT 15SM SKC M24/M29 A2983 RMK SLP156

CYXE;2007-02-02 16:00;CYXE 021600Z 36012KT 15SM SKC M23/M29 A2986 RMK SLP165

CYXE;2007-02-02 17:00;CYXE 021700Z 36015KT 15SM SKC M23/M28 A2989 RMK SLP175

CYXE;2007-02-02 18:00;CYXE 021800Z 35012KT 15SM SKC M23/M27 A2991 RMK SLP183

CYXE;2007-02-02 19:00;CYXE 021900Z 35014KT 15SM FEW012 M22/M28 A2992 RMK SF1 IC SLP187

CYXE;2007-02-02 20:00;CYXE 022000Z 33017KT 15SM DRSN FEW012 M21/M28 A2993 RMK SF1 IC SLP188

CYXE;2007-02-02 20:08;CYXE 022008Z 33017KT 15SM DRSN SKC M21/

CYXE;2007-02-02 21:00;CYXE 022100Z 33015KT 15SM SKC M21/M28 A2994 RMK SLP191

CYXE;2007-02-02 22:00;CYXE 022200Z 32012KT 15SM DRSN SKC M21/M28 A2995 RMK SLP197

CYXE;2007-02-02 23:00;CYXE 022300Z 31009KT 15SM SKC M22/M28 A2996 RMK SLP200

CYXE;2007-02-03 00:00;CYXE 030000Z 30009KT 15SM SKC M24/M30 A2997 RMK SLP207

CYXE;2007-02-03 01:00;CYXE 030100Z 31009KT 15SM SKC M24/M29 A2999 RMK SLP212

CYXE;2007-02-03 02:00;CYXE 030200Z 33008KT 15SM SKC M26/M31 A2999 RMK SLP213

CYXE;2007-02-03 03:00;CYXE 030300Z 32009KT 15SM SKC M26/M31 A3000 RMK SLP219

CYXE;2007-02-03 04:00;CYXE 030400Z 32011KT 15SM SKC M28/M33 A3000 RMK SLP219

CYXE;2007-02-03 05:00;CYXE 030500Z 32008KT 15SM SKC M27/M32 A2999 RMK SLP218

CYXE;2007-02-03 06:00;CYXE 030600Z 32009KT 15SM SKC M29/M34 A2999 RMK SLP217

CYXE;2007-02-03 07:00;CYXE 030700Z 28010KT 15SM SKC M30/M35 A3000 RMK SLP221

CYXE;2007-02-03 08:00;CYXE 030800Z 30007KT 15SM SKC M30/M35 A3000 RMK SLP222

CYXE;2007-02-03 09:00;CYXE 030900Z 27009KT 15SM SKC M31/M37 A3000 RMK SLP222

CYXE;2007-02-03 10:00;CYXE 031000Z 27008KT 15SM SKC M32/M35 A3000 RMK SLP223

CYXE;2007-02-03 11:00;CYXE 031100Z 27007KT 15SM SKC M32/M36 A2999 RMK SLP220

CYXE;2007-02-03 12:00;CYXE 031200Z 26008KT 15SM SKC M33/M38 A3000 RMK SLP225

CYXE;2007-02-03 13:00;CYXE 031300Z 29008KT 15SM FEW089 M32/M37 A3000 RMK AC2 SLP226

CYXE;2007-02-03 14:00;CYXE 031400Z 28008KT 15SM FEW250 M32/M36 A3000 RMK CI1 SLP227

CYXE;2007-02-03 15:00;CYXE 031500Z 30006KT 15SM BKN120 BKN250 M32/M36 A3001 RMK AC5CI1 SLP230

CYXE;2007-02-03 16:00;CYXE 031600Z 29007KT 15SM FEW037 SCT100 M29/M33 A3003 RMK SC1AC2 SLP235

CYXE;2007-02-03 17:00;CYXE 031700Z 28008KT 15SM FEW250 M27/M32 A3005 RMK CI1 SLP241

CYXE;2007-02-03 18:00;CYXE 031800Z 32010KT 15SM FEW120 M25/M30 A3006 RMK AC1 SLP245

CYXE;2007-02-03 19:00;CYXE 031900Z 30011KT 15SM FEW250 M24/M29 A3008 RMK CI1 SLP250

CYXE;2007-02-03 20:00;CYXE 032000Z 30012KT 15SM FEW090 M23/M28 A3008 RMK AC1 SLP250

CYXE;2007-02-03 21:00;CYXE 032100Z 30014KT 15SM FEW100 M22/M27 A3008 RMK AC1 SLP251

CYXE;2007-02-03 22:00;CYXE 032200Z 29010KT 15SM FEW100 M21/M27 A3009 RMK AC1 SLP253

CYXE;2007-02-03 23:00;CYXE 032300Z 30010KT 15SM FEW080 FEW250 M21/M27 A3011 RMK AC2CI1 SLP260

CYXE;2007-02-04 00:00;CYXE 040000Z 30011KT 15SM BKN064 M21/M26 A3012 RMK SC5 SLP267

CYXE;2007-02-04 01:00;CYXE 040100Z 27006KT 15SM BKN064 M21/M27 A3014 RMK SC6 SLP271

CYXE;2007-02-04 02:00;CYXE 040200Z 27006KT 15SM OVC067 M22/M27 A3015 RMK AC6 SLP275

CYXE;2007-02-04 03:00;CYXE 040300Z 27005KT 15SM FEW067 M25/M29 A3015 RMK AC2 SLP275

CYXE;2007-02-04 04:00;CYXE 040400Z 26008KT 15SM FEW067 M26/M31 A3014 RMK AC1 SLP274

CYXE;2007-02-04 05:00;CYXE 040500Z 21005KT 15SM FEW220 M26/M30 A3013 RMK CI1 SLP271

CYXE;2007-02-04 06:00;CYXE 040600Z 23007KT 15SM FEW110 SCT220 M26/M31 A3016 RMK AC2CI1 SLP276

CYXE;2007-02-04 07:00;CYXE 040700Z 23005KT 15SM FEW120 FEW220 M27/M31 A3014 RMK AC1CI0 SLP270

CYXE;2007-02-04 08:00;CYXE 040800Z 22005KT 15SM FEW220 M27/M31 A3014 RMK CI0 SLP271

CYXE;2007-02-04 09:00;CYXE 040900Z 24006KT 15SM SKC M28/M32 A3016 RMK SLP275

CYXE;2007-02-04 10:00;CYXE 041000Z 22005KT 15SM SKC M29/M33 A3016 RMK SLP274

CYXE;2007-02-04 11:00;CYXE 041100Z 21005KT 15SM FEW120 SCT240 M27/M32 A3015 RMK AC2CI1 SLP273

CYXE;2007-02-04 12:00;CYXE 041200Z 20003KT 15SM FEW120 OVC240 M28/M32 A3017 RMK AC2CI4 SLP278

CYXE;2007-02-04 13:00;CYXE 041300Z 17003KT 15SM BKN100 BKN240 M26/M31 A3015 RMK AC5CI1 SLP271

CYXE;2007-02-04 14:00;CYXE 041400Z 17004KT 15SM BKN074 M26/M30 A3015 RMK AC6 SLP270

CYXE;2007-02-04 15:00;CYXE 041500Z 16004KT 15SM BKN074 M25/M29 A3014 RMK AC6 SLP268

CYXE;2007-02-04 16:00;CYXE 041600Z 13003KT 15SM OVC074 M23/M27 A3017 RMK AC7 SLP277

CYXE;2007-02-04 17:00;CYXE 041700Z 12002KT 15SM OVC074 M22/M25 A3019 RMK AC8 SLP285

CYXE;2007-02-04 18:00;CYXE 041800Z 11009KT 15SM OVC074 M21/M25 A3020 RMK AC8 SLP286

CYXE;2007-02-04 19:00;CYXE 041900Z 10007KT 15SM OVC072 M20/M25 A3021 RMK AC8 SLP290

CYXE;2007-02-04 20:00;CYXE 042000Z 11007KT 15SM OVC069 M19/M24 A3021 RMK AC7 SLP291

CYXE;2007-02-04 21:00;CYXE 042100Z 11008KT 15SM BKN074 BKN250 M19/M24 A3021 RMK AC5CI2 SLP292

CYXE;2007-02-04 22:00;CYXE 042200Z 09007KT 15SM BKN110 OVC250 M19/M24 A3024 RMK AC6CI1 SLP301

CYXE;2007-02-04 23:00;CYXE 042300Z 08009KT 15SM FEW110 SCT250 M20/M24 A3026 RMK AC2CI1 SLP307

CYXE;2007-02-05 00:00;CYXE 050000Z 08008KT 15SM FEW110 BKN250 M21/M26 A3029 RMK AC2CI1 SLP318

CYXE;2007-02-05 01:00;CYXE 050100Z 09007KT 15SM FEW088 SCT250 M23/M27 A3031 RMK AC2CI0 SLP327

CYXE;2007-02-05 02:00;CYXE 050200Z 09006KT 15SM FEW250 M23/M28 A3033 RMK CI0 SLP332

CYXE;2007-02-05 03:00;CYXE 050300Z 11010KT 15SM SKC M22/M26 A3033 RMK SLP330

CYXE;2007-02-05 04:00;CYXE 050400Z 13007KT 15SM OVC110 M21/M26 A3034 RMK AC6 SLP334

CYXE;2007-02-05 05:00;CYXE 050500Z 13007KT 15SM OVC089 M21/M26 A3034 RMK AC8 SLP335

CYXE;2007-02-05 06:00;CYXE 050600Z 14006KT 15SM OVC100 M21/M26 A3035 RMK AC8 SLP334

CYXE;2007-02-05 07:00;CYXE 050700Z 13005KT 15SM OVC090 M21/M26 A3034 RMK AC8 SLP333

CYXE;2007-02-05 08:00;CYXE 050800Z 12007KT 15SM OVC095 M21/M26 A3034 RMK AC7 SLP331

CYXE;2007-02-05 09:00;CYXE 050900Z 14005KT 15SM OVC080 M21/M25 A3034 RMK AC8 SLP328

CYXE;2007-02-05 10:00;CYXE 051000Z 12006KT 15SM OVC070 M20/M25 A3032 RMK AC8 SLP324

CYXE;2007-02-05 11:00;CYXE 051100Z 13007KT 15SM OVC060 M20/M25 A3031 RMK SC8 SLP321

CYXE;2007-02-05 12:00;CYXE 051200Z 12005KT 15SM OVC055 M20/M25 A3030 RMK SC8 SLP319

CYXE;2007-02-05 13:00;CYXE 051300Z 13008KT 15SM OVC055 M21/M25 A3029 RMK SC8 SLP315

CYXE;2007-02-05 14:00;CYXE 051400Z 13006KT 15SM OVC047 M20/M25 A3027 RMK SC8 SLP308

CYXE;2007-02-05 15:00;CYXE 051500Z 13007KT 15SM OVC055 M20/M24 A3025 RMK SC7 SLP300

CYXE;2007-02-05 16:00;CYXE 051600Z 13008KT 15SM OVC062 M19/M24 A3025 RMK SC8 SLP301

CYXE;2007-02-05 17:00;CYXE 051700Z 13010KT 15SM BKN060 OVC090 M19/M23 A3023 RMK SC5AC3 SLP295

CYXE;2007-02-05 18:00;CYXE 051800Z 13009KT 15SM BKN062 OVC100 M18/M23 A3021 RMK SC6AC2 SLP286

CYXE;2007-02-05 19:00;CYXE 051900Z 11011KT 15SM BKN035 OVC060 M18/M22 A3019 RMK SC5SC3 SLP279

CYXE;2007-02-05 20:00;CYXE 052000Z 12012KT 15SM BKN050 OVC080 M17/M22 A3016 RMK SC6AC2 SLP268

CYXE;2007-02-05 21:00;CYXE 052100Z 13011KT 12SM -SN BKN047 OVC090 M17/M21 A3013 RMK SC5AC2 SLP256

CYXE;2007-02-05 21:50;CYXE 052150Z 13011KT 15SM BKN027 OVC095 M16/ RMK SC6AC2

CYXE;2007-02-05 22:00;CYXE 052200Z 12011KT 15SM BKN025 OVC078 M16/M20 A3010 RMK SC6AC2 SLP247

CYXE;2007-02-05 22:45;CYXE 052245Z 12011KT 4SM -SN BKN065 OVC094 M16/ RMK SC7AC1

CYXE;2007-02-05 23:00;CYXE 052300Z 12011KT 3SM -SN FEW025 OVC062 M16/M20 A3007 RMK SC2SC6 SLP235

CYXE;2007-02-05 23:37;CYXE 052337Z 12011KT 1SM R09/P6000FT/N -SN DRSN VV010 M16/ RMK SN8

CYXE;2007-02-06 00:00;CYXE 060000Z 12011KT 1SM R09/P6000FT/U -SN DRSN VV010 M16/M19 A3004 RMK SN8 SLP225

CYXE;2007-02-06 00:29;CYXE 060029Z 11012KT 1 1/2SM -SN DRSN VV015 M16/ RMK SN8

CYXE;2007-02-06 00:43;CYXE 060043Z 11012KT 1 1/2SM -SN DRSN VV008 M16/ RMK SN8

CYXE;2007-02-06 00:48;CYXE 060048Z 11010KT 1SM R09/P6000FT/D -SN DRSN VV007 M16/ RMK SN8

CYXE;2007-02-06 01:00;CYXE 060100Z 11011KT 1SM R09/P6000FT/U -SN DRSN VV006 M16/M19 A3005 RMK SN8 /S01/ SLP227

CYXE;2007-02-06 01:21;CYXE 060121Z 10011KT 1 1/2SM -SN DRSN VV006 M16/ RMK SN8

CYXE;2007-02-06 01:45;CYXE 060145Z 09012KT 5/8SM R09/P6000FT/D -SN DRSN VV004 M16/ RMK SN8

CYXE;2007-02-06 02:00;CYXE 060200Z 09010KT 5/8SM R09/P6000FT/N -SN DRSN VV004 M16/M19 A3003 RMK SN8 SLP221

CYXE;2007-02-06 02:42;CYXE 060242Z 10012KT 5/8SM R09/P6000FT/D -SN DRSN VV003 M15/ RMK SN8

CYXE;2007-02-06 03:00;CYXE 060300Z 10013KT 5/8SM R09/P6000FT/U -SN DRSN VV003 M15/M18 A3001 RMK SN8 /S03/ SLP212

CYXE;2007-02-06 03:17;CYXE 060317Z 08011KT 1 1/2SM -SN DRSN VV004 M16/ RMK SN8

CYXE;2007-02-06 03:29;CYXE 060329Z 08010KT 1SM R09/P6000FT/D -SN DRSN VV004 M16/ RMK SN8

CYXE;2007-02-06 03:38;CYXE 060338Z 07011KT 5/8SM R09/P6000FT/U -SN DRSN VV003 M16/ RMK SN8

CYXE;2007-02-06 04:00;CYXE 060400Z 08011KT 1 1/2SM -SN DRSN VV004 M16/M19 A3000 RMK SN8 /S04/ SLP211

CYXE;2007-02-06 04:29;CYXE 060429Z 08007KT 3SM -SN DRSN VV004 M17/ RMK SN8

CYXE;2007-02-06 04:34;CYXE 060434Z 06008KT 3SM -SN DRSN OVC038 M17/ RMK SN6SC2

CYXE;2007-02-06 04:47;CYXE 060447Z 07010KT 2SM -SN DRSN OVC038 M17/ RMK SN6SC2

CYXE;2007-02-06 05:00;CYXE 060500Z 07010KT 3SM -SN DRSN OVC038 M17/M20 A3002 RMK SN3SC5 SLP217

CYXE;2007-02-06 06:00;CYXE 060600Z 05013KT 12SM -SN DRSN OVC022 M18/M21 A3008 RMK SC8 PRESRR SLP237

CYXE;2007-02-06 07:00;CYXE 060700Z 05015KT 10SM -SN DRSN OVC024 M18/M22 A3011 RMK SC8 SLP247

CYXE;2007-02-06 08:00;CYXE 060800Z 05015KT 12SM -SN DRSN OVC025 M18/M22 A3016 RMK SC8 SLP262

CYXE;2007-02-06 09:00;CYXE 060900Z 03013KT 10SM -SN DRSN OVC030 M19/M23 A3017 RMK SC8 SLP270

CYXE;2007-02-06 10:00;CYXE 061000Z 03016KT 15SM -SN DRSN OVC040 M19/M23 A3021 RMK SC8 SLP282

CYXE;2007-02-06 10:32;CYXE 061032Z 03011G16KT 15SM DRSN OVC040 M20/ RMK SC8 IC

CYXE;2007-02-06 11:00;CYXE 061100Z 02010KT 15SM OVC040 M20/M24 A3026 RMK SC8 SLP296

CYXE;2007-02-06 11:55;CYXE 061155Z 01009KT 15SM BKN042 OVC065 M20/ RMK SC6SC2 IC

CYXE;2007-02-06 12:00;CYXE 061200Z 01009KT 15SM BKN042 OVC065 M20/M24 A3030 RMK SC6SC2 IC SLP312

CYXE;2007-02-06 12:22;CYXE 061222Z 01008KT 15SM -SN BKN042 OVC065 M20/ RMK SC6SC2

CYXE;2007-02-06 13:00;CYXE 061300Z 01006KT 15SM -SN SCT035 BKN062 M20/M24 A3031 RMK SC3SC3 SLP317

CYXE;2007-02-06 13:24;CYXE 061324Z 36005KT 15SM FEW035 SCT060 M21/ RMK SC2SC1 IC

CYXE;2007-02-06 14:00;CYXE 061400Z 35006KT 15SM SCT060 M24/M28 A3033 RMK SC2 SLP323

CYXE;2007-02-06 15:00;CYXE 061500Z 32005KT 15SM BKN044 M24/M27 A3035 RMK SC5 SLP334

CYXE;2007-02-06 16:00;CYXE 061600Z 30004KT 15SM -SN OVC036 M22/M26 A3036 RMK SC7 SLP337

CYXE;2007-02-06 17:00;CYXE 061700Z 30004KT 15SM -SN BKN032 M20/M24 A3038 RMK SC7 SLP343

CYXE;2007-02-06 17:48;CYXE 061748Z 32006KT 15SM BKN030 M19/ RMK SC5

CYXE;2007-02-06 18:00;CYXE 061800Z 32005KT 15SM BKN030 M19/M23 A3039 RMK SC4 SLP346

CYXE;2007-02-06 18:39;CYXE 061839Z 30005KT 10SM -SN BKN015 M18/ RMK SC6

CYXE;2007-02-06 19:00;CYXE 061900Z 32004KT 15SM -SN OVC017 M18/M22 A3040 RMK SC7 SLP349

CYXE;2007-02-06 19:18;CYXE 061918Z 32005KT 15SM BKN030 M18/ RMK SC3

CYXE;2007-02-06 20:00;CYXE 062000Z 36005KT 15SM BKN027 M18/M22 A3039 RMK SC5 SLP346

CYXE;2007-02-06 21:00;CYXE 062100Z 28003KT 15SM BKN015 M17/M22 A3039 RMK SC4 SLP344

CYXE;2007-02-06 22:00;CYXE 062200Z 30005KT 15SM OVC021 M17/M21 A3039 RMK SC7 SLP344

CYXE;2007-02-06 23:00;CYXE 062300Z 30007KT 15SM OVC015 M17/M21 A3039 RMK SC7 SLP345

CYXE;2007-02-07 00:00;CYXE 070000Z 30007KT 15SM BKN016 BKN090 M20/M24 A3039 RMK SC2AC2 SLP348

CYXE;2007-02-07 01:00;CYXE 070100Z 32005KT 15SM FEW016 FEW200 M22/M25 A3039 RMK SC1CI2 SLP349

CYXE;2007-02-07 02:00;CYXE 070200Z 28005KT 15SM FEW200 M23/M26 A3040 RMK CI1 SLP350

CYXE;2007-02-07 03:00;CYXE 070300Z 30006KT 15SM FEW016 M24/M27 A3040 RMK SC1 SLP358

CYXE;2007-02-07 04:00;CYXE 070400Z 32008KT 15SM FEW089 M26/M30 A3041 RMK AC2 SLP360

CYXE;2007-02-07 05:00;CYXE 070500Z 35009KT 15SM FEW220 M29/M33 A3042 RMK CI1 SLP362

CYXE;2007-02-07 06:00;CYXE 070600Z 35007KT 15SM FEW220 M30/M35 A3043 RMK CI1 SLP367

CYXE;2007-02-07 07:00;CYXE 070700Z 32002KT 15SM FEW220 M30/M34 A3044 RMK CI1 SLP371

CYXE;2007-02-07 08:00;CYXE 070800Z 36004KT 15SM SKC M30/M35 A3044 RMK SLP371

CYXE;2007-02-07 09:00;CYXE 070900Z 32003KT 15SM SKC M28/M34 A3044 RMK SLP370

CYXE;2007-02-07 10:00;CYXE 071000Z 36003KT 15SM FEW080 M31/M36 A3045 RMK AC1 SLP373

CYXE;2007-02-07 11:00;CYXE 071100Z 03004KT 15SM BKN016 BKN080 M29/M33 A3045 RMK SC5AC1 SLP372

CYXE;2007-02-07 11:04;CYXE 071104Z 00000KT 15SM SCT016 M29/ RMK SC2

CYXE;2007-02-07 12:00;CYXE 071200Z 05002KT 15SM FEW015 M31/M35 A3045 RMK SC1 IC SLP378

CYXE;2007-02-07 13:00;CYXE 071300Z 33002KT 15SM FEW015 M29/M33 A3047 RMK SC1 IC SLP383

CYXE;2007-02-07 14:00;CYXE 071400Z 35005KT 15SM SCT250 M30/M35 A3047 RMK CI0 SLP384

CYXE;2007-02-07 15:00;CYXE 071500Z 00000KT 15SM BKN250 M30/M34 A3049 RMK CI1 SLP391

CYXE;2007-02-07 16:00;CYXE 071600Z 30002KT 15SM SCT250 M28/M31 A3051 RMK CI1 SLP398

CYXE;2007-02-07 17:00;CYXE 071700Z 32003KT 15SM BKN250 M28/M31 A3051 RMK CI2 SLP399

CYXE;2007-02-07 18:00;CYXE 071800Z 27003KT 15SM BKN250 M27/M31 A3053 RMK CI2 SLP409

CYXE;2007-02-07 19:00;CYXE 071900Z 31002KT 15SM BKN250 M26/M29 A3053 RMK CI2 SLP408

CYXE;2007-02-07 20:00;CYXE 072000Z 31003KT 15SM BKN250 M24/M28 A3053 RMK CI1 SLP410

CYXE;2007-02-07 21:00;CYXE 072100Z 32006KT 15SM BKN250 M24/M28 A3054 RMK CI1 SLP407

CYXE;2007-02-07 22:00;CYXE 072200Z 35003KT 15SM BKN250 M24/M25 A3051 RMK CI2 SLP399

CYXE;2007-02-07 23:00;CYXE 072300Z 30004KT 15SM BKN250 M25/M29 A3051 RMK CI2 SLP398

CYXE;2007-02-08 00:00;CYXE 080000Z 30005KT 15SM BKN250 M26/M31 A3051 RMK CI2 SLP400

CYXE;2007-02-08 01:00;CYXE 080100Z 29006KT 15SM SCT250 M28/M33 A3052 RMK CI1 SLP404

CYXE;2007-02-08 02:00;CYXE 080200Z 30007KT 15SM SKC M27/M32 A3052 RMK SLP403

CYXE;2007-02-08 03:00;CYXE 080300Z 32006KT 15SM SCT087 M28/M33 A3051 RMK AC3 SLP401

CYXE;2007-02-08 04:00;CYXE 080400Z 28004KT 15SM BKN087 M26/M30 A3051 RMK AC4 SLP401

CYXE;2007-02-08 05:00;CYXE 080500Z 27005KT 15SM SCT097 M26/M30 A3050 RMK AC2 SLP399

CYXE;2007-02-08 06:00;CYXE 080600Z 28007KT 15SM SKC M28/M33 A3051 RMK SLP401

CYXE;2007-02-08 07:00;CYXE 080700Z 27007KT 15SM SKC M30/M34 A3050 RMK SLP398

CYXE;2007-02-08 08:00;CYXE 080800Z 31002KT 15SM FEW090 M30/M34 A3049 RMK AC2 SLP394

CYXE;2007-02-08 09:00;CYXE 080900Z 00000KT 15SM FEW250 M29/M33 A3048 RMK CI1 SLP388

CYXE;2007-02-08 09:27;CYXE 080927Z 26002KT 12SM FEW250 M30/ RMK CI1

CYXE;2007-02-08 10:00;CYXE 081000Z 00000KT 12SM FEW250 M30/M34 A3048 RMK CI1 SLP387

CYXE;2007-02-08 11:00;CYXE 081100Z 26003KT 15SM BKN090 M31/M35 A3048 RMK AC2 SLP387

CYXE;2007-02-08 11:42;CYXE 081142Z 28006KT 15SM BKN100 M30/ RMK AC2

CYXE;2007-02-08 12:00;CYXE 081200Z 29005KT 15SM BKN100 M29/M34 A3047 RMK AC4 SLP387

CYXE;2007-02-08 13:00;CYXE 081300Z 29004KT 15SM OVC110 M26/M30 A3048 RMK AC7 SLP388

CYXE;2007-02-08 14:00;CYXE 081400Z 31003KT 15SM BKN110 M25/M29 A3047 RMK AC7 SLP387

CYXE;2007-02-08 15:00;CYXE 081500Z 31004KT 15SM BKN110 M24/M29 A3048 RMK AC7 SLP389

CYXE;2007-02-08 16:00;CYXE 081600Z 36006KT 15SM BKN110 BKN250 M23/M28 A3048 RMK AC5CI1 SLP388

CYXE;2007-02-08 17:00;CYXE 081700Z 36006KT 15SM SCT110 BKN250 M25/M28 A3050 RMK AC3CI2 SLP393

CYXE;2007-02-08 18:00;CYXE 081800Z 28004KT 15SM FEW110 SCT250 M24/M27 A3050 RMK AC1CI0 SLP395

CYXE;2007-02-08 19:00;CYXE 081900Z 29005KT 15SM FEW110 SCT250 M22/M26 A3051 RMK AC1CI1 SLP396

CYXE;2007-02-08 20:00;CYXE 082000Z 31005KT 15SM BKN110 BKN250 M22/M26 A3050 RMK AC5CI1 SLP393

CYXE;2007-02-08 21:00;CYXE 082100Z 31005KT 15SM BKN110 BKN250 M21/M26 A3049 RMK AC6CI1 SLP390

CYXE;2007-02-08 22:00;CYXE 082200Z 29009KT 15SM BKN110 BKN250 M21/M25 A3049 RMK AC5CI1 SLP390

CYXE;2007-02-08 23:00;CYXE 082300Z 30007KT 15SM BKN093 BKN250 M21/M25 A3049 RMK AC5CI1 SLP391

CYXE;2007-02-09 00:00;CYXE 090000Z 30008KT 15SM BKN100 M21/M25 A3050 RMK AC7 SLP394

CYXE;2007-02-09 01:00;CYXE 090100Z 31007KT 15SM BKN100 M21/M26 A3051 RMK AC7 SLP395

CYXE;2007-02-09 02:00;CYXE 090200Z 30003KT 15SM BKN090 M22/M26 A3051 RMK AC5 SLP396

CYXE;2007-02-09 03:00;CYXE 090300Z 30005KT 15SM FEW090 M23/M27 A3051 RMK AC2 SLP393

CYXE;2007-02-09 04:00;CYXE 090400Z 31007KT 15SM FEW090 M25/M29 A3052 RMK AC1 SLP397

CYXE;2007-02-09 05:00;CYXE 090500Z 32007KT 15SM SKC M26/M30 A3053 RMK SLP399

CYXE;2007-02-09 06:00;CYXE 090600Z 31007KT 15SM SKC M28/M33 A3054 RMK SLP407

CYXE;2007-02-09 07:00;CYXE 090700Z 32006KT 15SM SKC M28/M31 A3054 RMK SLP409

CYXE;2007-02-09 08:00;CYXE 090800Z 32006KT 15SM FEW250 M29/M33 A3054 RMK CI1 SLP408

CYXE;2007-02-09 09:00;CYXE 090900Z 34008KT 15SM FEW250 M29/M33 A3054 RMK CI1 SLP405

CYXE;2007-02-09 10:00;CYXE 091000Z 33008KT 15SM SCT250 M29/M33 A3054 RMK CI1 SLP405

CYXE;2007-02-09 11:00;CYXE 091100Z 31006KT 15SM SCT250 M32/M36 A3053 RMK CI1 SLP404

CYXE;2007-02-09 12:00;CYXE 091200Z 32007KT 15SM SCT250 M30/M34 A3053 RMK CI1 SLP403

CYXE;2007-02-09 13:00;CYXE 091300Z 31006KT 15SM BKN250 M30/M35 A3054 RMK CI2 SLP406

CYXE;2007-02-09 14:00;CYXE 091400Z 31007KT 15SM BKN250 M31/M36 A3053 RMK CI2 SLP405

CYXE;2007-02-09 15:00;CYXE 091500Z 30007KT 15SM OVC250 M32/M36 A3055 RMK CI2 SLP413

CYXE;2007-02-09 16:00;CYXE 091600Z 28004KT 15SM OVC250 M30/M35 A3055 RMK CI2 SLP413

CYXE;2007-02-09 17:00;CYXE 091700Z 31005KT 15SM OVC250 M29/M33 A3055 RMK CI3 SLP412

CYXE;2007-02-09 18:00;CYXE 091800Z 32006KT 15SM OVC250 M27/M31 A3054 RMK CI3 SLP410

CYXE;2007-02-09 19:00;CYXE 091900Z 35002KT 15SM BKN250 M26/M30 A3053 RMK CI2 SLP407

CYXE;2007-02-09 20:00;CYXE 092000Z 30004KT 15SM BKN250 M25/M29 A3052 RMK CI2 SLP403

CYXE;2007-02-09 21:00;CYXE 092100Z 30005KT 15SM BKN250 M24/M29 A3051 RMK CI2 SLP397

CYXE;2007-02-09 22:00;CYXE 092200Z 31004KT 15SM BKN250 M23/M29 A3050 RMK CI1 SLP393

CYXE;2007-02-09 23:00;CYXE 092300Z 30003KT 15SM BKN250 M23/M29 A3048 RMK CI1 SLP388

CYXE;2007-02-10 00:00;CYXE 100000Z 27006KT 15SM FEW100 BKN250 M26/M30 A3047 RMK AC1CI1 SLP387

CYXE;2007-02-10 01:00;CYXE 100100Z 27006KT 15SM FEW100 SCT250 M28/M32 A3046 RMK AC2CI0 SLP383

CYXE;2007-02-10 02:00;CYXE 100200Z 27006KT 15SM BKN100 M25/M30 A3045 RMK AC5 SLP379

CYXE;2007-02-10 03:00;CYXE 100300Z 28006KT 15SM BKN100 M24/M28 A3044 RMK AC5 SLP376

CYXE;2007-02-10 04:00;CYXE 100400Z 29007KT 15SM FEW100 FEW250 M25/M30 A3042 RMK AC1CI0 SLP370

CYXE;2007-02-10 05:00;CYXE 100500Z 27006KT 15SM BKN250 M24/M28 A3040 RMK CI1 SLP364

CYXE;2007-02-10 06:00;CYXE 100600Z 25005KT 15SM OVC120 M24/M28 A3039 RMK AC7 SLP356

CYXE;2007-02-10 07:00;CYXE 100700Z 25006KT 15SM BKN100 M26/M30 A3038 RMK AC3 SLP352

CYXE;2007-02-10 08:00;CYXE 100800Z 24004KT 15SM SCT100 M27/M31 A3036 RMK AC2 SLP344

CYXE;2007-02-10 09:00;CYXE 100900Z 24005KT 15SM SCT100 M27/M31 A3034 RMK AC2 SLP336

CYXE;2007-02-10 10:00;CYXE 101000Z 25006KT 15SM SCT120 M27/M32 A3031 RMK AC2 SLP328

CYXE;2007-02-10 11:00;CYXE 101100Z 25005KT 15SM BKN100 M27/M32 A3029 RMK AC3 SLP320

CYXE;2007-02-10 12:00;CYXE 101200Z 26007KT 15SM SCT100 M27/M31 A3026 RMK AC2 SLP311

CYXE;2007-02-10 13:00;CYXE 101300Z 27007KT 15SM FEW100 M28/M32 A3024 RMK AC2 SLP306

CYXE;2007-02-10 14:00;CYXE 101400Z 26006KT 15SM FEW100 BKN250 M28/M32 A3022 RMK AC1CI1 SLP300

CYXE;2007-02-10 15:00;CYXE 101500Z 29009KT 15SM FEW100 OVC250 M27/M31 A3021 RMK AC1CI2 SLP293

CYXE;2007-02-10 16:00;CYXE 101600Z 28004KT 15SM FEW100 OVC250 M25/M29 A3020 RMK AC1CI4 SLP289

CYXE;2007-02-10 17:00;CYXE 101700Z 27003KT 15SM FEW094 OVC250 M24/M28 A3017 RMK AC2CI2 SLP281

CYXE;2007-02-10 18:00;CYXE 101800Z 25002KT 15SM SCT093 OVC250 M22/M26 A3016 RMK AC2CI2 SLP273

CYXE;2007-02-10 19:00;CYXE 101900Z 26006KT 15SM BKN066 OVC250 M20/M24 A3013 RMK AC3CI1 SLP262

CYXE;2007-02-10 20:00;CYXE 102000Z 27006KT 15SM BKN099 OVC250 M19/M24 A3010 RMK AC5CI1 SLP254

CYXE;2007-02-10 21:00;CYXE 102100Z 28006KT 15SM BKN110 M18/M23 A3007 RMK AC6 SLP241

CYXE;2007-02-10 22:00;CYXE 102200Z 25005KT 15SM BKN090 BKN250 M17/M23 A3004 RMK AC6CI1 SLP232

CYXE;2007-02-10 23:00;CYXE 102300Z 23008KT 15SM FEW090 FEW250 M19/M24 A3003 RMK AC1CI1 SLP228

CYXE;2007-02-11 00:00;CYXE 110000Z 24008KT 15SM FEW090 BKN250 M21/M26 A3002 RMK AC2CI2 SLP225

CYXE;2007-02-11 01:00;CYXE 110100Z 25008KT 15SM FEW090 BKN250 M22/M26 A3002 RMK AC1CI2 SLP225

CYXE;2007-02-11 02:00;CYXE 110200Z 27007KT 15SM FEW090 SCT250 M21/M26 A3000 RMK AC1CI1 SLP221

CYXE;2007-02-11 03:00;CYXE 110300Z 29005KT 15SM BKN082 BKN250 M21/M25 A2998 RMK AC6CI1 SLP211

CYXE;2007-02-11 04:00;CYXE 110400Z 29007KT 15SM BKN075 OVC250 M19/M24 A2998 RMK AC6CI1 SLP211

CYXE;2007-02-11 05:00;CYXE 110500Z 27007KT 15SM OVC075 M18/M23 A2998 RMK AC8 SLP211

CYXE;2007-02-11 06:00;CYXE 110600Z 28006KT 15SM OVC074 M18/M22 A2999 RMK AC8 SLP209

CYXE;2007-02-11 07:00;CYXE 110700Z 31003KT 15SM OVC070 M18/M22 A2998 RMK AC8 SLP206

CYXE;2007-02-11 08:00;CYXE 110800Z 30006KT 15SM OVC073 M17/M22 A2999 RMK AC8 SLP211

CYXE;2007-02-11 09:00;CYXE 110900Z 32004KT 15SM OVC052 M18/M22 A2998 RMK SC8 SLP204

CYXE;2007-02-11 10:00;CYXE 111000Z 36005KT 15SM OVC048 M17/M21 A2999 RMK SC8 SLP206

CYXE;2007-02-11 11:00;CYXE 111100Z 34003KT 15SM OVC048 M17/M21 A3000 RMK SC8 SLP210

CYXE;2007-02-11 11:29;CYXE 111129Z 36002KT 10SM -SN OVC023 M17/ RMK SC8

CYXE;2007-02-11 11:42;CYXE 111142Z 02003KT 2SM -SN OVC023 M17/ RMK SC8

CYXE;2007-02-11 12:00;CYXE 111200Z 03002KT 4SM -SN OVC023 M17/M21 A3001 RMK SC8 SLP214

CYXE;2007-02-11 13:00;CYXE 111300Z 01005KT 4SM -SN OVC066 M17/M21 A3003 RMK AC8 SLP220

CYXE;2007-02-11 14:00;CYXE 111400Z 03005KT 15SM -SN BKN032 M19/M22 A3003 RMK SC6 SLP222

CYXE;2007-02-11 15:00;CYXE 111500Z 03003KT 15SM FEW035 BKN088 M20/M24 A3006 RMK SC2AS1 SLP234

CYXE;2007-02-11 16:00;CYXE 111600Z 03006KT 15SM SCT082 BKN250 M20/M24 A3009 RMK AC2CI1 SLP243

CYXE;2007-02-11 17:00;CYXE 111700Z 05007KT 15SM BKN067 BKN250 M18/M23 A3011 RMK AC5CI2 SLP249

CYXE;2007-02-11 18:00;CYXE 111800Z 05006KT 15SM SCT075 BKN250 M18/M23 A3012 RMK AC3CI1 SLP252

CYXE;2007-02-11 19:00;CYXE 111900Z 03005KT 15SM FEW075 BKN250 M18/M23 A3014 RMK AC1CI1 SLP259

CYXE;2007-02-11 20:00;CYXE 112000Z 03006KT 15SM FEW075 BKN250 M17/M22 A3014 RMK AC1CI2 SLP259

CYXE;2007-02-11 21:00;CYXE 112100Z 01008KT 15SM FEW075 BKN250 M18/M22 A3016 RMK AC1CI3 SLP263

CYXE;2007-02-11 22:00;CYXE 112200Z 02006KT 15SM FEW120 SCT250 M18/M23 A3017 RMK AC1CI2 SLP269

CYXE;2007-02-11 23:00;CYXE 112300Z 02005KT 15SM FEW250 M19/M24 A3021 RMK CI1 SLP279

CYXE;2007-02-12 00:00;CYXE 120000Z 04009KT 15SM FEW100 FEW250 M21/M26 A3022 RMK AC1CI1 SLP286

CYXE;2007-02-12 01:00;CYXE 120100Z 05003KT 15SM FEW250 M23/M27 A3024 RMK CI1 SLP294

CYXE;2007-02-12 02:00;CYXE 120200Z 03004KT 15SM FEW250 M25/M29 A3027 RMK CI1 SLP302

CYXE;2007-02-12 03:00;CYXE 120300Z 03005KT 15SM FEW250 M25/M30 A3028 RMK CI1 SLP314

CYXE;2007-02-12 04:00;CYXE 120400Z 02002KT 15SM FEW250 M25/M28 A3031 RMK CI1 SLP323

CYXE;2007-02-12 05:00;CYXE 120500Z 31003KT 15SM FEW250 M28/M32 A3034 RMK CI1 SLP331

CYXE;2007-02-12 06:00;CYXE 120600Z 02006KT 15SM FEW095 OVC250 M26/M31 A3036 RMK AC2CI2 SLP340

CYXE;2007-02-12 07:00;CYXE 120700Z 04006KT 15SM OVC250 M28/M32 A3038 RMK CI2 SLP346

CYXE;2007-02-12 08:00;CYXE 120800Z 07003KT 15SM FEW250 M28/M32 A3040 RMK CI2 SLP352

CYXE;2007-02-12 09:00;CYXE 120900Z 03005KT 15SM SKC M28/M33 A3043 RMK SLP364

CYXE;2007-02-12 10:00;CYXE 121000Z 01003KT 15SM SKC M28/M32 A3043 RMK SLP366

CYXE;2007-02-12 11:00;CYXE 121100Z 01002KT 15SM FEW240 M29/M34 A3045 RMK CI0 SLP372

CYXE;2007-02-12 12:00;CYXE 121200Z 03004KT 15SM SCT240 M29/M34 A3048 RMK CI2 SLP385

CYXE;2007-02-12 13:00;CYXE 121300Z 29002KT 15SM FEW240 M30/M36 A3050 RMK CI1 SLP392

CYXE;2007-02-12 14:00;CYXE 121400Z 35004KT 15SM FEW240 M31/M35 A3052 RMK CI1 SLP398

CYXE;2007-02-12 15:00;CYXE 121500Z 01005KT 15SM BKN250 M32/M37 A3055 RMK CI2 SLP414

CYXE;2007-02-12 16:00;CYXE 121600Z 35002KT 15SM BKN250 M29/M34 A3057 RMK CI2 SLP422

CYXE;2007-02-12 17:00;CYXE 121700Z 01003KT 15SM BKN250 M28/M33 A3059 RMK CI1 SLP428

CYXE;2007-02-12 18:00;CYXE 121800Z 29002KT 15SM BKN250 M26/M32 A3061 RMK CI1 SLP432

CYXE;2007-02-12 19:00;CYXE 121900Z 02003KT 15SM BKN250 M25/M30 A3061 RMK CI1 SLP432

CYXE;2007-02-12 20:00;CYXE 122000Z 35003KT 15SM SCT250 M24/M30 A3061 RMK CI1 SLP433

CYXE;2007-02-12 21:00;CYXE 122100Z 30005KT 15SM FEW250 M24/M30 A3061 RMK CI0 SLP434

CYXE;2007-02-12 22:00;CYXE 122200Z 35005KT 15SM FEW250 M24/M29 A3061 RMK CI0 SLP434

CYXE;2007-02-12 23:00;CYXE 122300Z 30003KT 15SM FEW250 M24/M30 A3064 RMK CI1 SLP441

CYXE;2007-02-13 00:00;CYXE 130000Z 32003KT 15SM SCT095 BKN250 M25/M30 A3064 RMK AC3CI2 SLP443

CYXE;2007-02-13 01:00;CYXE 130100Z 36004KT 15SM SCT015 BKN095 BKN250 M25/M30 A3064 RMK SC3AC2CI1 SLP444

CYXE;2007-02-13 01:14;CYXE 130114Z 34002KT 15SM BKN012 BKN095 M25/ RMK SC6AC1

CYXE;2007-02-13 01:24;CYXE 130124Z 34002KT 15SM BKN023 M24/ RMK SC6

CYXE;2007-02-13 02:00;CYXE 130200Z 29003KT 15SM OVC025 M25/M30 A3065 RMK SC7 SLP447

CYXE;2007-02-13 03:00;CYXE 130300Z 27003KT 15SM OVC025 M25/M30 A3065 RMK SC7 SLP451

CYXE;2007-02-13 04:00;CYXE 130400Z 26002KT 15SM OVC025 M25/M29 A3065 RMK SC8 IC SLP450

CYXE;2007-02-13 04:53;CYXE 130453Z 29002KT 15SM -SN OVC025 M24/ RMK SC8

CYXE;2007-02-13 05:00;CYXE 130500Z 30003KT 15SM -SN OVC024 M24/M29 A3065 RMK SC8 SLP450

CYXE;2007-02-13 06:00;CYXE 130600Z 25003KT 15SM -SN OVC024 M24/M29 A3065 RMK SC8 SLP445

CYXE;2007-02-13 07:00;CYXE 130700Z 28002KT 15SM -SN OVC024 M24/M29 A3065 RMK SC8 SLP446

CYXE;2007-02-13 08:00;CYXE 130800Z 00000KT 15SM -SN OVC024 M24/M29 A3065 RMK SC8 SLP445

CYXE;2007-02-13 09:00;CYXE 130900Z 25003KT 15SM -SN OVC024 M24/M29 A3065 RMK SC8 SLP443

CYXE;2007-02-13 10:00;CYXE 131000Z 28002KT 15SM -SN OVC024 M24/M29 A3065 RMK SC8 SLP442

CYXE;2007-02-13 11:00;CYXE 131100Z 00000KT 15SM -SN OVC024 M24/M29 A3065 RMK SC8 SLP442

CYXE;2007-02-13 12:00;CYXE 131200Z 00000KT 8SM -SN OVC024 M24/M29 A3065 RMK SC8 SLP443

CYXE;2007-02-13 13:00;CYXE 131300Z 00000KT 15SM -SN OVC024 M24/M28 A3065 RMK SC8 SLP443

CYXE;2007-02-13 14:00;CYXE 131400Z 30002KT 15SM -SN OVC022 M24/M29 A3064 RMK SC8 SLP440

CYXE;2007-02-13 15:00;CYXE 131500Z 26003KT 10SM -SN OVC022 M24/M28 A3064 RMK SC8 SLP440

CYXE;2007-02-13 16:00;CYXE 131600Z 00000KT 6SM -SN BR OVC022 M23/M27 A3064 RMK SC8 SLP441

CYXE;2007-02-13 17:00;CYXE 131700Z 26004KT 15SM -SN BKN026 OVC250 M23/M27 A3064 RMK SC6CI2 SLP440

CYXE;2007-02-13 18:00;CYXE 131800Z 29004KT 15SM SCT026 OVC250 M22/M27 A3063 RMK SC3CI1 SLP436

CYXE;2007-02-13 19:00;CYXE 131900Z 26003KT 15SM FEW026 SCT250 M21/M26 A3061 RMK SF1CI0 SLP430

CYXE;2007-02-13 20:00;CYXE 132000Z 28002KT 15SM FEW250 M20/M25 A3061 RMK CI1 SLP427

CYXE;2007-02-13 21:00;CYXE 132100Z 36005KT 15SM FEW250 M20/M25 A3059 RMK CI1 SLP420

CYXE;2007-02-13 22:00;CYXE 132200Z 35004KT 15SM FEW025 FEW250 M21/M26 A3058 RMK SC1CI1 SLP417

CYXE;2007-02-13 23:00;CYXE 132300Z 35003KT 15SM FEW250 M21/M26 A3059 RMK CI0 SLP420

CYXE;2007-02-14 00:00;CYXE 140000Z 36004KT 15SM FEW250 M23/M27 A3059 RMK CI0 SLP420

CYXE;2007-02-14 01:00;CYXE 140100Z 35002KT 15SM SKC M23/M26 A3059 RMK SLP420

CYXE;2007-02-14 02:00;CYXE 140200Z 00000KT 15SM SKC M26/M31 A3059 RMK SLP420

CYXE;2007-02-14 03:00;CYXE 140300Z 00000KT 15SM SKC M25/M29 A3058 RMK SLP419

CYXE;2007-02-14 04:00;CYXE 140400Z 28003KT 15SM SKC M27/M31 A3057 RMK SLP418

CYXE;2007-02-14 05:00;CYXE 140500Z 30003KT 15SM SKC M31/M34 A3057 RMK SLP417

CYXE;2007-02-14 06:00;CYXE 140600Z 29004KT 15SM SKC M30/M35 A3057 RMK SLP419

CYXE;2007-02-14 07:00;CYXE 140700Z 29003KT 15SM SKC M31/M35 A3057 RMK SLP418

CYXE;2007-02-14 08:00;CYXE 140800Z 25003KT 15SM SKC M31/M35 A3057 RMK SLP417

CYXE;2007-02-14 09:00;CYXE 140900Z 23002KT 15SM SKC M29/M33 A3057 RMK SLP415

CYXE;2007-02-14 09:45;CYXE 140945Z 24004KT 15SM FEW008 M31/ RMK SF1 SF N-E-SE

CYXE;2007-02-14 10:00;CYXE 141000Z 23004KT 15SM FEW008 M32/M36 A3056 RMK SF1 SF N-E-SE SLP414

CYXE;2007-02-14 11:00;CYXE 141100Z 23004KT 15SM FEW008 M32/M36 A3055 RMK SF1 SF N-E-SE SLP410

CYXE;2007-02-14 12:00;CYXE 141200Z 20003KT 15SM FEW008 FEW089 M32/M36 A3055 RMK SF1AC1 SF TR OVR CITY SLP413

CYXE;2007-02-14 13:00;CYXE 141300Z 18003KT 6SM BR SCT002 M31/M35 A3054 RMK SF1 SLP411

CYXE;2007-02-14 13:25;CYXE 141325Z 19005KT 6SM BR OVC002 M32/ RMK SF5

CYXE;2007-02-14 14:00;CYXE 141400Z 18004KT 6SM BR BKN002 M32/M37 A3054 RMK SF4 SLP409

CYXE;2007-02-14 15:00;CYXE 141500Z 19005KT 6SM BR SCT002 OVC031 M32/M36 A3053 RMK SF4SC1 SLP408

CYXE;2007-02-14 16:00;CYXE 141600Z 17006KT 3SM BR OVC002 M30/M34 A3051 RMK ST6 SLP400

CYXE;2007-02-14 17:00;CYXE 141700Z 18005KT 5SM BR BKN003 M28/M31 A3049 RMK SF5 SLP395

CYXE;2007-02-14 18:00;CYXE 141800Z 19004KT 10SM SCT003 M26/M30 A3048 RMK SF2 SLP388

CYXE;2007-02-14 19:00;CYXE 141900Z 20006KT 15SM FEW003 M23/M26 A3045 RMK ST2 SLP379

CYXE;2007-02-14 20:00;CYXE 142000Z 19010KT 15SM FEW250 M22/M25 A3041 RMK CI1 SLP368

CYXE;2007-02-14 21:00;CYXE 142100Z 18008KT 15SM BKN250 M20/M24 A3037 RMK CI2 SLP346

CYXE;2007-02-14 22:00;CYXE 142200Z 18010KT 15SM BKN250 M20/M25 A3033 RMK CI2 SLP335

CYXE;2007-02-14 23:00;CYXE 142300Z 18007KT 15SM OVC250 M20/M26 A3031 RMK CI6 SLP329

CYXE;2007-02-15 00:00;CYXE 150000Z 18010KT 15SM OVC250 M20/M25 A3026 RMK CS7 SLP312

CYXE;2007-02-15 01:00;CYXE 150100Z 18012KT 15SM OVC250 M21/M26 A3022 RMK CI5 SLP300

CYXE;2007-02-15 02:00;CYXE 150200Z 17015KT 15SM BKN250 M21/M26 A3018 RMK CI2 SLP286

CYXE;2007-02-15 03:00;CYXE 150300Z 18013KT 15SM BKN250 M20/M25 A3013 RMK CI3 SLP268

CYXE;2007-02-15 04:00;CYXE 150400Z 18016KT 15SM BKN250 M20/M25 A3007 RMK CI3 SLP248

CYXE;2007-02-15 05:00;CYXE 150500Z 18016G21KT 15SM DRSN BKN250 M20/M24 A3003 RMK CI3 SLP233

CYXE;2007-02-15 06:00;CYXE 150600Z 19015KT 15SM DRSN SCT085 BKN250 M19/M24 A2999 RMK AC3CI3 SLP214

CYXE;2007-02-15 07:00;CYXE 150700Z 19017KT 15SM DRSN SCT100 OVC250 M18/M23 A2995 RMK AC4CI4 SLP200

CYXE;2007-02-15 08:00;CYXE 150800Z 19013G18KT 15SM DRSN BKN095 OVC250 M17/M22 A2989 RMK AC6CI2 SLP181

CYXE;2007-02-15 09:00;CYXE 150900Z 19013KT 15SM DRSN OVC070 M15/M20 A2983 RMK AC8 PRESFR SLP150

CYXE;2007-02-15 10:00;CYXE 151000Z 20017G22KT 15SM DRSN OVC085 M13/M18 A2977 RMK AC8 SLP133

CYXE;2007-02-15 11:00;CYXE 151100Z 20015KT 15SM DRSN OVC070 M12/M17 A2975 RMK AC8 SLP126

CYXE;2007-02-15 12:00;CYXE 151200Z 22012KT 15SM DRSN SCT060 BKN080 M11/M16 A2973 RMK SC3AC2 SLP116

CYXE;2007-02-15 13:00;CYXE 151300Z 22018KT 15SM DRSN SCT035 BKN080 M10/M13 A2970 RMK SC4AC3 SLP106

CYXE;2007-02-15 14:00;CYXE 151400Z 22014KT 15SM DRSN SCT042 BKN094 M11/M13 A2970 RMK SC3AC2 SLP105

CYXE;2007-02-15 15:00;CYXE 151500Z 22015KT 15SM FEW042 M11/M13 A2968 RMK SC2 SLP096

CYXE;2007-02-15 16:00;CYXE 151600Z 23011KT 15SM FEW042 M10/M12 A2968 RMK SC2 SLP095

CYXE;2007-02-15 17:00;CYXE 151700Z 22011KT 15SM FEW042 SCT087 M08/M11 A2967 RMK SC1AC1 SLP092

CYXE;2007-02-15 18:00;CYXE 151800Z 23013KT 15SM FEW087 M06/M09 A2965 RMK AC1 SLP082

CYXE;2007-02-15 19:00;CYXE 151900Z 24011KT 15SM FEW087 M05/M07 A2965 RMK AC1 SLP082

CYXE;2007-02-15 20:00;CYXE 152000Z 23008KT 15SM FEW097 M03/M06 A2963 RMK AC1 SLP076

CYXE;2007-02-15 21:00;CYXE 152100Z 24007KT 15SM FEW100 M02/M05 A2960 RMK AC1 SLP060

CYXE;2007-02-15 22:00;CYXE 152200Z 24008KT 15SM FEW250 M02/M05 A2959 RMK CI0 SLP057

CYXE;2007-02-15 23:00;CYXE 152300Z 22012KT 15SM FEW250 M03/M05 A2957 RMK CI0 SLP050

CYXE;2007-02-16 00:00;CYXE 160000Z 23009KT 15SM FEW250 M05/M07 A2954 RMK CI1 SLP039

CYXE;2007-02-16 01:00;CYXE 160100Z 22007KT 10SM SCT250 M06/M08 A2951 RMK CI1 BR SLP030

CYXE;2007-02-16 02:00;CYXE 160200Z 22004KT 15SM FEW250 M07/M08 A2947 RMK CI0 SLP017

CYXE;2007-02-16 03:00;CYXE 160300Z 19007KT 15SM SKC M07/M09 A2946 RMK SLP010

CYXE;2007-02-16 04:00;CYXE 160400Z 21006KT 15SM SCT250 M09/M10 A2946 RMK CI0 SLP010

CYXE;2007-02-16 05:00;CYXE 160500Z 00000KT 15SM SCT250 M10/M11 A2944 RMK CI0 SLP006

CYXE;2007-02-16 06:00;CYXE 160600Z 05003KT 15SM SCT100 BKN250 M10/M11 A2943 RMK AC3CI0 SLP000

CYXE;2007-02-16 07:00;CYXE 160700Z 05002KT 15SM SCT100 OVC250 M11/M12 A2944 RMK AC3CI5 SLP003

CYXE;2007-02-16 08:00;CYXE 160800Z 30002KT 15SM BKN098 OVC250 M11/M12 A2946 RMK AC6CI2 SLP012

CYXE;2007-02-16 09:00;CYXE 160900Z 06003KT 15SM OVC066 M10/M11 A2951 RMK AC8 SLP025

CYXE;2007-02-16 10:00;CYXE 161000Z 03006KT 15SM SCT021 OVC071 M09/M10 A2955 RMK SC3AC5 SLP040

CYXE;2007-02-16 10:39;CYXE 161039Z 05011KT 10SM -SN OVC047 M08/ RMK SC8

CYXE;2007-02-16 11:00;CYXE 161100Z 05010KT 10SM -SN OVC045 M08/M09 A2961 RMK SC8 SLP057

CYXE;2007-02-16 11:34;CYXE 161134Z 05009KT 15SM FEW045 OVC250 M09/ RMK SC2CI6

CYXE;2007-02-16 12:00;CYXE 161200Z 05007KT 15SM BKN048 OVC250 M09/M10 A2965 RMK SC5CI3 SLP076

CYXE;2007-02-16 12:27;CYXE 161227Z 01006KT 10SM -SN BKN050 OVC250 M09/ RMK SC6CI2

CYXE;2007-02-16 13:00;CYXE 161300Z 35006KT 10SM -SN BKN036 OVC250 M09/M11 A2970 RMK SC6CI2 SLP090

CYXE;2007-02-16 13:29;CYXE 161329Z 34006KT 15SM SCT010 BKN036 OVC250 M10/ RMK SF3SC3CI2

CYXE;2007-02-16 14:00;CYXE 161400Z 32006KT 15SM FEW100 BKN250 M11/M12 A2974 RMK AC2CI3 SLP103

CYXE;2007-02-16 15:00;CYXE 161500Z 30006KT 15SM SCT100 OVC250 M12/M13 A2978 RMK AC2CI4 SLP122

CYXE;2007-02-16 16:00;CYXE 161600Z 28005KT 15SM BKN015 OVC250 M12/M13 A2982 RMK SC6CI1 SLP136

CYXE;2007-02-16 17:00;CYXE 161700Z 30006KT 10SM SCT015 BKN250 M10/M11 A2986 RMK SC2CI2 BR SLP148

CYXE;2007-02-16 18:00;CYXE 161800Z 29008KT 15SM OVC250 M08/M10 A2989 RMK CI5 SLP159

CYXE;2007-02-16 19:00;CYXE 161900Z 32008KT 15SM FEW100 OVC250 M07/M09 A2990 RMK AC1CI3 SLP164

CYXE;2007-02-16 20:00;CYXE 162000Z 30007KT 15SM FEW100 OVC250 M06/M09 A2992 RMK AC2CI3 SLP169

CYXE;2007-02-16 21:00;CYXE 162100Z 30008KT 15SM BKN055 BKN100 OVC250 M05/M08 A2993 RMK SC6AC1CI1 SLP172

CYXE;2007-02-16 22:00;CYXE 162200Z 31012KT 15SM BKN052 OVC250 M05/M08 A2995 RMK SC6CI2 SLP179

CYXE;2007-02-16 22:46;CYXE 162246Z 30012KT 3SM -SN DRSN OVC052 M06/ RMK SC8

CYXE;2007-02-16 23:00;CYXE 162300Z 30009KT 3SM -SN DRSN BKN020 OVC050 M06/M07 A2997 RMK SC6SC2 SLP184

CYXE;2007-02-16 23:22;CYXE 162322Z 30010KT 15SM -SN BKN020 OVC050 M05/ RMK SC6SC2

CYXE;2007-02-16 23:32;CYXE 162332Z 30011KT 5SM -SN SCT020 OVC038 M05/ RMK SC3SC5

CYXE;2007-02-17 00:00;CYXE 170000Z 31006KT 3SM -SN SCT025 OVC043 M06/M07 A2998 RMK SC3SC5 SLP190

CYXE;2007-02-17 01:00;CYXE 170100Z 30007KT 4SM -SN OVC035 M06/M07 A3000 RMK SC8 SLP196

CYXE;2007-02-17 02:00;CYXE 170200Z 04006KT 5SM -SN FEW008 OVC022 M07/M08 A3002 RMK SC1SC7 SLP202

CYXE;2007-02-17 02:43;CYXE 170243Z 01004KT 15SM FEW008 OVC031 M07/ RMK SC1SC7

CYXE;2007-02-17 02:53;CYXE 170253Z 36004KT 10SM -SN OVC031 M07/ RMK SC8

CYXE;2007-02-17 03:00;CYXE 170300Z 01004KT 10SM -SN OVC031 M07/M08 A3004 RMK SC8 SLP211

CYXE;2007-02-17 04:00;CYXE 170400Z 03009KT 12SM -SN OVC033 M08/M09 A3005 RMK SC8 SLP216

CYXE;2007-02-17 04:50;CYXE 170450Z 03010KT 15SM OVC018 M08/ RMK SC8

CYXE;2007-02-17 05:00;CYXE 170500Z 03010KT 15SM OVC018 M09/M12 A3008 RMK SC8 SLP225

CYXE;2007-02-17 06:00;CYXE 170600Z 03008KT 15SM SCT018 OVC047 M09/M13 A3011 RMK SF4SC4 SLP234

CYXE;2007-02-17 07:00;CYXE 170700Z 04004KT 15SM OVC023 M10/M13 A3012 RMK SC8 SLP238

CYXE;2007-02-17 08:00;CYXE 170800Z 01005KT 15SM OVC019 M10/M14 A3015 RMK SC8 SLP247

CYXE;2007-02-17 09:00;CYXE 170900Z 02004KT 15SM OVC017 M11/M14 A3015 RMK SC8 SLP246

CYXE;2007-02-17 10:00;CYXE 171000Z 08006KT 15SM OVC017 M11/M15 A3013 RMK SC8 SLP241

CYXE;2007-02-17 11:00;CYXE 171100Z 07004KT 15SM OVC015 M12/M15 A3014 RMK SC8 SLP243

CYXE;2007-02-17 12:00;CYXE 171200Z 08005KT 15SM OVC015 M12/M16 A3014 RMK SC8 SLP247

CYXE;2007-02-17 13:00;CYXE 171300Z 08007KT 15SM SCT013 OVC029 M12/M16 A3013 RMK SF4SC4 SLP244

CYXE;2007-02-17 14:00;CYXE 171400Z 08003KT 15SM FEW027 OVC040 M12/M16 A3012 RMK SC2SC6 SLP240

CYXE;2007-02-17 15:00;CYXE 171500Z 09008KT 15SM BKN026 OVC044 M13/M16 A3010 RMK SC6SC2 SLP234

CYXE;2007-02-17 15:48;CYXE 171548Z 09004KT 15SM -SN OVC024 M12/ RMK SC8

CYXE;2007-02-17 16:00;CYXE 171600Z 09005KT 15SM -SN OVC024 M12/M15 A3010 RMK SC8 SLP233

CYXE;2007-02-17 17:00;CYXE 171700Z 08007KT 15SM OVC018 M12/M15 A3009 RMK SC8 SLP229

CYXE;2007-02-17 18:00;CYXE 171800Z 09006KT 15SM OVC014 M11/M14 A3008 RMK SC8 SLP225

CYXE;2007-02-17 19:00;CYXE 171900Z 12005KT 15SM OVC014 M10/M13 A3006 RMK ST8 SLP221

CYXE;2007-02-17 20:00;CYXE 172000Z 09008KT 15SM OVC010 M10/M13 A3003 RMK ST8 SLP211

CYXE;2007-02-17 21:00;CYXE 172100Z 09011KT 15SM OVC010 M10/M13 A3002 RMK ST8 SLP206

CYXE;2007-02-17 22:00;CYXE 172200Z 09013KT 15SM OVC010 M10/M13 A3001 RMK ST8 SLP204

CYXE;2007-02-17 22:26;CYXE 172226Z 10013KT 15SM OVC009 M10/ RMK ST8

CYXE;2007-02-17 23:00;CYXE 172300Z 10011KT 15SM OVC009 M10/M13 A3000 RMK ST8 SLP199

CYXE;2007-02-18 00:00;CYXE 180000Z 10012KT 15SM OVC010 M10/M13 A2998 RMK ST8 SLP192

CYXE;2007-02-18 01:00;CYXE 180100Z 11012KT 15SM OVC012 M11/M13 A2997 RMK ST8 SLP190

CYXE;2007-02-18 02:00;CYXE 180200Z 11013KT 15SM OVC010 M11/M13 A2995 RMK ST8 SLP185

CYXE;2007-02-18 03:00;CYXE 180300Z 12013KT 15SM OVC010 M11/M13 A2992 RMK ST8 SLP174

CYXE;2007-02-18 03:19;CYXE 180319Z 12012KT 15SM OVC008 M11/ RMK ST8

CYXE;2007-02-18 04:00;CYXE 180400Z 12014KT 15SM OVC009 M11/M13 A2989 RMK ST8 SLP165

CYXE;2007-02-18 05:00;CYXE 180500Z 14013KT 15SM OVC008 M11/M13 A2986 RMK ST8 SLP156

CYXE;2007-02-18 05:15;CYXE 180515Z 12015KT 15SM SCT008 OVC012 M11/ RMK SF3ST5

CYXE;2007-02-18 05:40;CYXE 180540Z 13013KT 15SM BKN015 OVC070 M11/ RMK SC6AC2

CYXE;2007-02-18 05:45;CYXE 180545Z 13014KT 15SM -SN BKN015 OVC070 M11/ RMK SC6AC2

CYXE;2007-02-18 06:00;CYXE 180600Z 14014KT 10SM -SN SCT008 OVC015 M11/M12 A2982 RMK SF4SC4 SLP137

CYXE;2007-02-18 07:00;CYXE 180700Z 12016KT 3SM -SN BKN008 OVC074 M10/M12 A2975 RMK SF5AC3 PRESFR SLP115

CYXE;2007-02-18 08:00;CYXE 180800Z 14012KT 6SM -SN BKN009 OVC084 M09/M11 A2971 RMK SC5AC3 SLP101

CYXE;2007-02-18 08:40;CYXE 180840Z 13012G17KT 15SM FEW009 OVC079 M09/ RMK SF2AC6

CYXE;2007-02-18 09:00;CYXE 180900Z 13014KT 15SM FEW009 OVC079 M09/M10 A2965 RMK SF1AC7 PRESFR SLP077

CYXE;2007-02-18 10:00;CYXE 181000Z 14014KT 15SM FEW009 OVC100 M08/M10 A2959 RMK SF1AC7 SLP059

CYXE;2007-02-18 11:00;CYXE 181100Z CCA 14010KT 15SM OVC100 M08/M10 A2953 RMK AC8 PRESFR SLP039

CYXE;2007-02-18 12:00;CYXE 181200Z 15012KT 15SM OVC100 M08/M09 A2946 RMK AC8 PRESFR SLP014

CYXE;2007-02-18 13:00;CYXE 181300Z 15012KT 15SM OVC100 M07/M09 A2940 RMK AC8 PRESFR SLP992

CYXE;2007-02-18 14:00;CYXE 181400Z 16009KT 15SM BKN100 OVC250 M07/M08 A2933 RMK AC6CI2 SLP972

CYXE;2007-02-18 15:00;CYXE 181500Z 19011KT 15SM BKN090 OVC250 M06/M08 A2930 RMK AC6CI2 SLP956

CYXE;2007-02-18 16:00;CYXE 181600Z 21012G18KT 15SM SCT080 OVC250 M04/M07 A2927 RMK AC2CI5 SLP947

CYXE;2007-02-18 17:00;CYXE 181700Z 25007KT 15SM FEW090 BKN250 M04/M06 A2927 RMK AC2CI4 SLP946

CYXE;2007-02-18 18:00;CYXE 181800Z 31004KT 15SM BKN250 M05/M07 A2927 RMK CI3 SLP946

CYXE;2007-02-18 19:00;CYXE 181900Z 35009KT 15SM FEW090 OVC250 M05/M07 A2926 RMK AC2CI5 SLP943

CYXE;2007-02-18 20:00;CYXE 182000Z 32004KT 15SM BKN090 OVC250 M05/M08 A2927 RMK AS6CI2 SLP945

CYXE;2007-02-18 21:00;CYXE 182100Z 34002KT 15SM BKN095 OVC250 M05/M08 A2927 RMK AS6CI2 SLP944

CYXE;2007-02-18 22:00;CYXE 182200Z 35005KT 15SM OVC084 M06/M08 A2928 RMK AS7 SLP948

CYXE;2007-02-18 23:00;CYXE 182300Z 02002KT 15SM BKN094 OVC250 M06/M08 A2929 RMK AC6CI1 SLP952

CYXE;2007-02-19 00:00;CYXE 190000Z 34003KT 15SM BKN110 OVC250 M07/M08 A2931 RMK AC6CI1 SLP958

CYXE;2007-02-19 01:00;CYXE 190100Z 36003KT 15SM BKN086 OVC250 M08/M09 A2933 RMK AC6CI1 SLP965

CYXE;2007-02-19 01:48;CYXE 190148Z 01003KT 6SM -SN OVC017 M07/ RMK SC8

CYXE;2007-02-19 02:00;CYXE 190200Z 01003KT 3SM -SN OVC017 M07/M09 A2935 RMK SN5SC3 SLP970

CYXE;2007-02-19 03:00;CYXE 190300Z 00000KT 15SM -SN OVC015 M07/M09 A2934 RMK SC8 SLP967

CYXE;2007-02-19 03:12;CYXE 190312Z 00000KT 15SM BKN017 OVC110 M07/ RMK SC6AC2

CYXE;2007-02-19 04:00;CYXE 190400Z 20003KT 15SM BKN029 OVC057 M07/M08 A2933 RMK SC6SC2 SLP965

CYXE;2007-02-19 05:00;CYXE 190500Z 21007KT 15SM FEW098 M07/M09 A2933 RMK AC2 SLP964

CYXE;2007-02-19 06:00;CYXE 190600Z 23008KT 15SM FEW100 M09/M10 A2935 RMK AC2 SLP970

CYXE;2007-02-19 07:00;CYXE 190700Z 29010KT 15SM SKC M07/M08 A2937 RMK SLP978

CYXE;2007-02-19 08:00;CYXE 190800Z 30008KT 15SM SKC M07/M09 A2941 RMK SLP989

CYXE;2007-02-19 09:00;CYXE 190900Z 32013KT 15SM SKC M08/M11 A2943 RMK SLP999

CYXE;2007-02-19 10:00;CYXE 191000Z 30010KT 15SM SKC M10/M13 A2946 RMK SLP007

CYXE;2007-02-19 11:00;CYXE 191100Z 34007KT 15SM FEW250 M13/M15 A2948 RMK CI1 SLP014

CYXE;2007-02-19 12:00;CYXE 191200Z 32008KT 15SM FEW250 M14/M16 A2950 RMK CI1 SLP027

CYXE;2007-02-19 12:25;CYXE 191225Z 31007KT 15SM FEW015 SCT250 M15/ RMK SC2CI1

CYXE;2007-02-19 13:00;CYXE 191300Z 31010KT 15SM FEW015 FEW250 M15/M17 A2952 RMK SC1CI1 SLP035

CYXE;2007-02-19 14:00;CYXE 191400Z 31007KT 15SM BKN080 BKN250 M16/M18 A2953 RMK AC5CI1 SLP038

CYXE;2007-02-19 15:00;CYXE 191500Z 31005KT 15SM BKN070 BKN250 M15/M17 A2953 RMK AC6CI0 SLP038

CYXE;2007-02-19 16:00;CYXE 191600Z 31006KT 15SM BKN063 BKN250 M14/M17 A2955 RMK SC5CI0 SLP043

CYXE;2007-02-19 17:00;CYXE 191700Z 00000KT 15SM SCT060 BKN250 M13/M17 A2954 RMK SC4CI0 SLP042

CYXE;2007-02-19 17:36;CYXE 191736Z 00000KT 12SM -SN SCT030 OVC060 M12/ RMK SC3SC4

CYXE;2007-02-19 18:00;CYXE 191800Z 30002KT 10SM -SN BKN025 OVC060 M13/M16 A2955 RMK SC5SC3 SLP044

CYXE;2007-02-19 18:05;CYXE 191805Z 31002KT 2SM -SHSN VV015 M13/ RMK SN8

CYXE;2007-02-19 18:18;CYXE 191818Z 31002KT 3SM -SHSN BKN025 OVC060 M13/ RMK SC6SC2 CVCTV CLD EMBD

CYXE;2007-02-19 19:00;CYXE 191900Z 22004KT 3SM R09/3500VP6000FT/U -SHSN SCT030 OVC060 M13/M15 A2953 RMK SC3SC4 /S01/ CVCTV CLD EMBD SLP039

CYXE;2007-02-19 20:00;CYXE 192000Z 34003KT 3SM -SHSN BKN027 OVC060 M12/M14 A2950 RMK SC6SC2 CVCTV CLD EMBD SLP031

CYXE;2007-02-19 20:11;CYXE 192011Z 34004KT 1 1/2SM -SHSN BKN027 OVC060 M12/ RMK SC6SC2 VIS VRB 1-2 CVCTV CLD EMBD

CYXE;2007-02-19 20:46;CYXE 192046Z 36005KT 4SM -SHSN BKN027 OVC060 M12/ RMK SC6SC2 CVCTV CLD EMBD

CYXE;2007-02-19 21:00;CYXE 192100Z 02005KT 10SM -SHSN BKN011 OVC027 M12/M14 A2949 RMK SC5SC3 SLP024

CYXE;2007-02-19 21:35;CYXE 192135Z 03004KT 15SM OVC023 M12/ RMK SC8

CYXE;2007-02-19 22:00;CYXE 192200Z 04005KT 15SM OVC021 M12/M14 A2948 RMK SC8 SLP021

CYXE;2007-02-19 23:00;CYXE 192300Z 05006KT 15SM OVC017 M12/M14 A2949 RMK ST8 SLP022

CYXE;2007-02-19 23:45;CYXE 192345Z 05007KT 15SM OVC013 M12/ RMK ST8

CYXE;2007-02-20 00:00;CYXE 200000Z 05006KT 10SM OVC013 M12/M14 A2949 RMK ST8 BR SLP026

CYXE;2007-02-20 00:07;CYXE 200007Z 07006KT 4SM -SN SCT007 OVC011 M12/ RMK SF3ST5

CYXE;2007-02-20 00:35;CYXE 200035Z 06007KT 15SM OVC009 M12/ RMK ST8

CYXE;2007-02-20 01:00;CYXE 200100Z 07007KT 4SM -SN OVC008 M13/M14 A2948 RMK ST8 SLP023

CYXE;2007-02-20 01:35;CYXE 200135Z 14007KT 15SM -SN OVC012 M12/ RMK SC8

CYXE;2007-02-20 01:50;CYXE 200150Z 12005KT 15SM -SN OVC006 M12/ RMK ST8

CYXE;2007-02-20 02:00;CYXE 200200Z 10004KT 15SM -SN OVC007 M12/M13 A2946 RMK ST8 SLP019

CYXE;2007-02-20 03:00;CYXE 200300Z 06005KT 15SM -SN OVC007 M12/M13 A2946 RMK ST8 SLP019

CYXE;2007-02-20 04:00;CYXE 200400Z 08006KT 15SM -SN OVC009 M12/M13 A2946 RMK ST8 SLP016

CYXE;2007-02-20 05:00;CYXE 200500Z 10006KT 15SM -SN OVC007 M11/M12 A2944 RMK ST8 SLP010

CYXE;2007-02-20 06:00;CYXE 200600Z 08007KT 15SM OVC006 M11/M12 A2942 RMK ST8 SLP003

CYXE;2007-02-20 07:00;CYXE 200700Z 09008KT 6SM BR OVC005 M11/M11 A2940 RMK ST8 SLP996

CYXE;2007-02-20 07:02;CYXE 200702Z 09008KT 3SM BR OVC004 M11/ RMK ST8

CYXE;2007-02-20 07:24;CYXE 200724Z 09008KT 2SM BR VV002 M10/ RMK FG8

CYXE;2007-02-20 08:00;CYXE 200800Z 10009KT 3SM BR OVC003 M10/M11 A2937 RMK ST8 SLP987

CYXE;2007-02-20 08:45;CYXE 200845Z 11009KT 1 1/2SM BR VV002 M09/ RMK FG8

CYXE;2007-02-20 09:00;CYXE 200900Z 11010KT 1 1/2SM BR VV002 M09/M10 A2936 RMK FG8 SLP979

CYXE;2007-02-20 10:00;CYXE 201000Z 13010G17KT 1 1/2SM BR VV002 M09/M10 A2934 RMK FG8 SLP973

CYXE;2007-02-20 11:00;CYXE 201100Z 13010KT 2SM BR VV002 M09/M09 A2933 RMK FG8 SLP970

CYXE;2007-02-20 11:54;CYXE 201154Z 11010KT 1 1/4SM BR VV002 M09/ RMK FG8

CYXE;2007-02-20 12:00;CYXE 201200Z 11008KT 1 1/4SM BR VV002 M09/M10 A2932 RMK FG8 SLP965

CYXE;2007-02-20 12:20;CYXE 201220Z 12007KT 2SM BR VV002 M09/ RMK FG8

CYXE;2007-02-20 13:00;CYXE 201300Z 10008KT 3SM BR VV003 M09/M09 A2930 RMK FG8 SLP961

CYXE;2007-02-20 13:27;CYXE 201327Z 11011KT 4SM BR OVC004 M08/ RMK ST8

CYXE;2007-02-20 14:00;CYXE 201400Z 12011KT 4SM BR OVC003 M08/M08 A2929 RMK ST8 SLP957

CYXE;2007-02-20 15:00;CYXE 201500Z 12009KT 4SM BR OVC003 M08/M08 A2928 RMK ST8 SLP951

CYXE;2007-02-20 16:00;CYXE 201600Z 10009KT 3SM BR OVC003 M07/M08 A2929 RMK ST8 SLP954

CYXE;2007-02-20 16:27;CYXE 201627Z 11010KT 3SM -SG DRSN BR OVC003 M07/ RMK ST8

CYXE;2007-02-20 16:42;CYXE 201642Z 10009KT 2SM -SG DRSN BR OVC003 M07/ RMK ST8

CYXE;2007-02-20 17:00;CYXE 201700Z 12009KT 2 1/2SM -SG BR OVC003 M07/M08 A2928 RMK ST8 SLP953

CYXE;2007-02-20 17:16;CYXE 201716Z 12008KT 3SM -SG BR OVC003 M07/ RMK ST8

CYXE;2007-02-20 18:00;CYXE 201800Z 12007KT 4SM -SG BR OVC003 M07/M08 A2929 RMK ST8 SLP955

CYXE;2007-02-20 18:05;CYXE 201805Z 09008KT 5SM BR OVC004 M07/ RMK ST8

CYXE;2007-02-20 18:16;CYXE 201816Z 09007KT 6SM BR OVC005 M07/ RMK ST8

CYXE;2007-02-20 18:31;CYXE 201831Z 12008KT 8SM OVC006 M07/ RMK ST8 BR

CYXE;2007-02-20 19:00;CYXE 201900Z 08008KT 8SM OVC006 M08/M09 A2930 RMK ST8 BR SLP956

CYXE;2007-02-20 20:00;CYXE 202000Z 09007KT 8SM OVC006 M08/M09 A2929 RMK ST8 BR SLP954

CYXE;2007-02-20 21:00;CYXE 202100Z 07008KT 10SM OVC007 M08/M09 A2929 RMK ST8 BR SLP953

CYXE;2007-02-20 21:54;CYXE 202154Z 08009KT 4SM -SG BR OVC006 M08/ RMK ST8

CYXE;2007-02-20 22:00;CYXE 202200Z 08008KT 6SM -SG BR OVC006 M08/M09 A2930 RMK ST8 SLP957

CYXE;2007-02-20 22:14;CYXE 202214Z 08008KT 10SM OVC005 M08/ RMK ST8 BR

CYXE;2007-02-20 22:29;CYXE 202229Z 09008KT 6SM BR OVC006 M08/ RMK ST8

CYXE;2007-02-20 23:00;CYXE 202300Z 09008KT 6SM -SG BR OVC006 M08/M09 A2933 RMK ST8 SLP967

CYXE;2007-02-20 23:30;CYXE 202330Z 08006KT 6SM -SG BR OVC005 M08/ RMK ST8

CYXE;2007-02-20 23:47;CYXE 202347Z 06008KT 4SM R09/4000VP6000FT/U -SG BR OVC002 M08/ RMK SN2ST6 VIS SW-NW-N 1

CYXE;2007-02-21 00:00;CYXE 210000Z 28014KT 15SM FEW090 BKN250 03/01 A2932 RMK AC2CI2 SLP953

CYXE;2007-02-21 00:39;CYXE 210039Z 04012KT 4SM -SG BR OVC006 M08/ RMK ST8

CYXE;2007-02-21 01:00;CYXE 210100Z 05013KT 10SM OVC007 M09/M10 A2934 RMK ST8 BR SLP970

CYXE;2007-02-21 02:00;CYXE 210200Z 05010KT 6SM -SG BR OVC006 M09/M10 A2936 RMK ST8 SLP976

CYXE;2007-02-21 02:30;CYXE 210230Z 05011KT 2SM -SG BR OVC005 M09/ RMK ST8

CYXE;2007-02-21 02:43;CYXE 210243Z 03011KT 3SM -SG BR OVC004 M10/ RMK ST8

CYXE;2007-02-21 03:00;CYXE 210300Z 03011KT 3SM -SG BR OVC006 M10/M11 A2940 RMK ST8 SLP990

CYXE;2007-02-21 04:00;CYXE 210400Z 03011KT 4SM -SN BR OVC005 M11/M12 A2942 RMK ST8 SLP999

CYXE;2007-02-21 05:00;CYXE 210500Z 03011KT 4SM -SN BR OVC005 M11/M12 A2945 RMK ST8 SLP006

CYXE;2007-02-21 05:41;CYXE 210541Z 02012KT 5SM -SN BR OVC006 M11/ RMK ST8

CYXE;2007-02-21 06:00;CYXE 210600Z 03013KT 1 1/2SM -SN VV008 M11/M12 A2947 RMK SN8 SLP016

CYXE;2007-02-21 06:21;CYXE 210621Z 03010KT 1SM R09/4500V5500FT/U -SN VV008 M12/ RMK SN8

CYXE;2007-02-21 06:29;CYXE 210629Z 03013KT 5/8SM R09/2800V6000FT/D -SN VV003 M12/ RMK SN8

CYXE;2007-02-21 06:36;CYXE 210636Z 04009KT 1/2SM R09/2200V5000FT/D SN VV001 M12/ RMK SN8

CYXE;2007-02-21 06:50;CYXE 210650Z 04009KT 1 1/2SM R09/3000V6000FT/U -SN VV005 M12/ RMK SN8

CYXE;2007-02-21 07:00;CYXE 210700Z 03010KT 2SM -SN VV008 M12/M13 A2950 RMK SN8 SLP027

CYXE;2007-02-21 07:18;CYXE 210718Z 03009KT 12SM -SN BKN015 OVC050 M12/ RMK SC6SC2

CYXE;2007-02-21 08:00;CYXE 210800Z 01009KT 15SM BKN015 OVC080 M12/M14 A2954 RMK SC6AC2 SLP039

CYXE;2007-02-21 09:00;CYXE 210900Z 01010KT 15SM FEW015 BKN070 M13/M14 A2958 RMK SC2AC6 SLP054

CYXE;2007-02-21 10:00;CYXE 211000Z 02009KT 15SM OVC080 M13/M15 A2961 RMK AC8 SLP066

CYXE;2007-02-21 11:00;CYXE 211100Z 36006KT 15SM SCT020 OVC080 M14/M15 A2965 RMK SC3AC4 SLP077

CYXE;2007-02-21 11:20;CYXE 211120Z 01006KT 15SM BKN020 OVC085 M13/ RMK SC7AC1

CYXE;2007-02-21 11:47;CYXE 211147Z 02004KT 15SM -SN OVC015 M13/ RMK SC8

CYXE;2007-02-21 12:00;CYXE 211200Z 02004KT 15SM -SN OVC013 M13/M15 A2968 RMK SC8 SLP091

CYXE;2007-02-21 13:00;CYXE 211300Z 00000KT 15SM -SN OVC010 M13/M15 A2971 RMK SC8 SLP100

CYXE;2007-02-21 13:15;CYXE 211315Z 30003KT 15SM -SN OVC009 M13/ RMK SF8

CYXE;2007-02-21 13:47;CYXE 211347Z 27003KT 15SM -SN OVC006 M13/ RMK SF8

CYXE;2007-02-21 14:00;CYXE 211400Z 26003KT 15SM -SN OVC005 M13/M14 A2974 RMK ST8 SLP110

CYXE;2007-02-21 14:41;CYXE 211441Z 24004KT 15SM BKN007 OVC017 M12/ RMK SF7SC1

CYXE;2007-02-21 15:00;CYXE 211500Z 23008KT 15SM BKN007 OVC015 M12/M14 A2977 RMK SF7SC1 SLP123

CYXE;2007-02-21 15:11;CYXE 211511Z 23010KT 15SM SCT007 OVC015 M12/ RMK SF4SC4

CYXE;2007-02-21 15:30;CYXE 211530Z 23008KT 15SM BKN006 OVC017 M12/ RMK ST6SC2

CYXE;2007-02-21 16:00;CYXE 211600Z 21006KT 15SM -SG BKN006 OVC017 M11/M13 A2982 RMK ST6SC2 SLP137

CYXE;2007-02-21 16:06;CYXE 211606Z 21005KT 5SM -SN OVC006 M11/ RMK ST8

CYXE;2007-02-21 16:30;CYXE 211630Z 23008KT 5SM -SN SCT006 OVC024 M11/ RMK ST3SC5

CYXE;2007-02-21 17:00;CYXE 211700Z 24009KT 10SM -SN FEW006 OVC024 M10/M11 A2984 RMK SF1SC7 SLP144

CYXE;2007-02-21 17:46;CYXE 211746Z 25008KT 15SM OVC024 M09/ RMK SC7

CYXE;2007-02-21 18:00;CYXE 211800Z 25009KT 15SM OVC022 M08/M10 A2986 RMK SC7 SLP149

CYXE;2007-02-21 19:00;CYXE 211900Z 25012KT 15SM OVC018 M08/M10 A2988 RMK SC8 SLP156

CYXE;2007-02-21 20:00;CYXE 212000Z 24012KT 15SM OVC016 M08/M10 A2990 RMK SC8 SLP162

CYXE;2007-02-21 20:25;CYXE 212025Z 25011KT 15SM OVC014 M08/ RMK SC8

CYXE;2007-02-21 21:00;CYXE 212100Z 24009KT 15SM OVC014 M07/M09 A2991 RMK SC8 SLP168

CYXE;2007-02-21 22:00;CYXE 212200Z 24007KT 15SM OVC014 M07/M09 A2993 RMK SC8 SLP173

CYXE;2007-02-21 23:00;CYXE 212300Z 32007KT 15SM OVC012 M07/M09 A2995 RMK SC8 SLP179

CYXE;2007-02-22 00:00;CYXE 220000Z 24010KT 15SM FEW094 OVC250 M02/M07 A2985 RMK AC1CI5 SLP141

CYXE;2007-02-22 01:00;CYXE 220100Z 24008KT 15SM FEW091 OVC220 M03/M07 A2984 RMK AC1CI5 SLP138

CYXE;2007-02-22 02:00;CYXE 220200Z 26002KT 15SM OVC012 M08/M09 A3000 RMK SC8 SLP198

CYXE;2007-02-22 03:00;CYXE 220300Z 23005KT 15SM OVC012 M07/M09 A3002 RMK SC8 SLP205

CYXE;2007-02-22 04:00;CYXE 220400Z 24005KT 15SM OVC014 M08/M09 A3003 RMK SC8 SLP210

CYXE;2007-02-22 05:00;CYXE 220500Z 27005KT 15SM SCT013 OVC020 M08/M09 A3005 RMK SF3SC5 SLP215

CYXE;2007-02-22 06:00;CYXE 220600Z 32006KT 15SM OVC019 M08/M09 A3007 RMK SC8 SLP219

CYXE;2007-02-22 07:00;CYXE 220700Z 35005KT 15SM OVC017 M08/M10 A3008 RMK SC8 SLP224

CYXE;2007-02-22 07:06;CYXE 220706Z 05003KT 15SM OVC012 M08/ RMK SC8

CYXE;2007-02-22 08:00;CYXE 220800Z 02004KT 15SM OVC014 M08/M10 A3009 RMK SC8 SLP226

CYXE;2007-02-22 09:00;CYXE 220900Z 05008KT 15SM OVC014 M09/M11 A3009 RMK SC8 SLP227

CYXE;2007-02-22 10:00;CYXE 221000Z 05009KT 15SM OVC014 M10/M12 A3010 RMK SC8 SLP230

CYXE;2007-02-22 11:00;CYXE 221100Z 05012KT 15SM OVC012 M10/M13 A3011 RMK SC8 SLP234

CYXE;2007-02-22 12:00;CYXE 221200Z 06009KT 15SM OVC010 M11/M13 A3012 RMK SC8 SLP240

CYXE;2007-02-22 12:48;CYXE 221248Z 06009KT 15SM -SN OVC010 M11/ RMK SC8

CYXE;2007-02-22 13:00;CYXE 221300Z 06008KT 15SM -SN OVC009 M11/M13 A3013 RMK ST8 SLP242

CYXE;2007-02-22 14:00;CYXE 221400Z 06011KT 6SM -SN OVC004 M12/M14 A3013 RMK ST8 SLP241

CYXE;2007-02-22 14:11;CYXE 221411Z 07012KT 15SM -SN SCT004 OVC008 M12/ RMK SF4ST4

CYXE;2007-02-22 15:00;CYXE 221500Z 06010KT 15SM -SN OVC008 M11/M13 A3014 RMK ST8 -SN INTMT SLP245

CYXE;2007-02-22 16:00;CYXE 221600Z 06012KT 15SM -SN OVC008 M11/M13 A3014 RMK ST8 -SN INTMT SLP247

CYXE;2007-02-22 17:00;CYXE 221700Z 06011KT 15SM -SN OVC008 M11/M13 A3013 RMK ST8 SLP244

CYXE;2007-02-22 18:00;CYXE 221800Z 06011KT 15SM -SN OVC008 M10/M12 A3013 RMK ST8 SLP244

CYXE;2007-02-22 19:00;CYXE 221900Z 10012KT 15SM -SN OVC009 M08/M09 A3013 RMK ST8 SLP242

CYXE;2007-02-22 20:00;CYXE 222000Z 10015KT 15SM -SN OVC009 M08/M09 A3009 RMK ST8 SLP231

CYXE;2007-02-22 21:00;CYXE 222100Z 11012KT 8SM -SN DRSN OVC010 M07/M09 A3008 RMK ST8 SLP223

CYXE;2007-02-22 21:21;CYXE 222121Z 10018KT 8SM -SN DRSN OVC009 M07/ RMK ST8

CYXE;2007-02-22 22:00;CYXE 222200Z 11017KT 10SM -SN DRSN OVC010 M07/M09 A3004 RMK ST8 SLP212

CYXE;2007-02-22 23:00;CYXE 222300Z 10016KT 15SM OVC010 M07/M08 A3003 RMK ST8 SLP208

CYXE;2007-02-23 00:00;CYXE 230000Z 26012KT 15SM FEW087 BKN250 04/M02 A2969 RMK AC2CI2 SLP079

CYXE;2007-02-23 01:00;CYXE 230100Z 26010KT 15SM FEW095 OVC230 03/M02 A2970 RMK AC2CI4 SLP082

CYXE;2007-02-23 02:00;CYXE 230200Z 10017KT 15SM DRSN OVC010 M06/M08 A2998 RMK ST8 SLP190

CYXE;2007-02-23 03:00;CYXE 230300Z 10018KT 15SM DRSN BKN009 M06/M08 A2995 RMK ST6 SLP180

CYXE;2007-02-23 04:00;CYXE 230400Z 09016KT 15SM DRSN BKN010 M07/M08 A2994 RMK SF6 SLP176

CYXE;2007-02-23 05:00;CYXE 230500Z 12011G16KT 15SM BKN012 BKN075 M07/M09 A2993 RMK SF5AC2 SLP175

CYXE;2007-02-23 05:45;CYXE 230545Z 13019KT 15SM -SN OVC033 M07/ RMK SC8

CYXE;2007-02-23 06:00;CYXE 230600Z 12016G21KT 15SM -SN DRSN FEW012 OVC033 M07/M09 A2990 RMK SC2SC6 SLP162

CYXE;2007-02-23 06:30;CYXE 230630Z 13016G22KT 2 1/2SM -SN DRSN OVC015 M07/ RMK SC8

CYXE;2007-02-23 07:00;CYXE 230700Z 12018G25KT 2 1/2SM -SN DRSN OVC015 M07/M08 A2988 RMK SC8 SLP157

CYXE;2007-02-23 07:07;CYXE 230707Z 12018G25KT 2SM -SN BLSN VV015 M07/ RMK SN8

CYXE;2007-02-23 07:37;CYXE 230737Z 11018KT 1SM R09/P6000FT/D -SN DRSN VV012 M07/ REBLSN RMK SN8

CYXE;2007-02-23 08:00;CYXE 230800Z 11021KT 1SM R09/P6000FT/N -SN DRSN VV012 M06/M08 A2985 REBLSN RMK SN8 /S01/ SLP147

CYXE;2007-02-23 08:18;CYXE 230818Z 10021G26KT 1 1/2SM -SN DRSN VV015 M06/ RMK SN8

CYXE;2007-02-23 09:00;CYXE 230900Z 11018G26KT 3SM -SN BLSN OVC015 M06/M07 A2981 RMK SC8 SLP129

CYXE;2007-02-23 09:49;CYXE 230949Z 11019G24KT 2SM -SN BLSN VV015 M06/ RMK SN8

CYXE;2007-02-23 10:00;CYXE 231000Z 11021KT 1 1/2SM -SN BLSN VV015 M06/M07 A2977 RMK SN8 /S02/ SLP115

CYXE;2007-02-23 11:00;CYXE 231100Z 13021G28KT 2SM -SN BLSN SCT011 OVC030 M06/M07 A2976 RMK SC4SC4 SLP113

CYXE;2007-02-23 11:46;CYXE 231146Z 12021G28KT 3SM -SN BLSN SCT030 OVC050 M06/ RMK SC3SC5

CYXE;2007-02-23 12:00;CYXE 231200Z 13025G32KT 4SM -SN BLSN BKN032 OVC050 M06/M07 A2975 RMK SC5SC3 /S03/ SLP108

CYXE;2007-02-23 13:00;CYXE 231300Z 11023G28KT 4SM -SN BLSN SCT012 OVC042 M07/M08 A2973 RMK SC3SC5 SLP102

CYXE;2007-02-23 14:00;CYXE 231400Z 12019G24KT 3SM -SN BLSN SCT010 OVC026 M06/M08 A2972 RMK SC4SC4 SLP098

CYXE;2007-02-23 14:17;CYXE 231417Z 12016G21KT 2SM -SN BLSN SCT010 OVC023 M06/ RMK SC4SC4

CYXE;2007-02-23 14:48;CYXE 231448Z 12019G24KT 2SM -SN BLSN SCT009 OVC033 M05/ RMK SC4SC4

CYXE;2007-02-23 15:00;CYXE 231500Z 12018G24KT 2SM -SN BLSN BKN009 OVC033 M05/M06 A2971 RMK SC5SC3 SLP093

CYXE;2007-02-23 15:37;CYXE 231537Z 13016KT 1 1/2SM -SN BLSN OVC009 M05/ RMK SC8

CYXE;2007-02-23 16:00;CYXE 231600Z 13018G24KT 1 1/2SM -SN BLSN OVC009 M05/M06 A2969 RMK SC8 /S01/ SLP088

CYXE;2007-02-23 16:28;CYXE 231628Z CCA 13021G27KT 3/4SM R09/2200V6000FT/D -SN BLSN OVC009 M05/ RMK SN2SC6 VIS VRB 1/2-1

CYXE;2007-02-23 16:43;CYXE 231643Z 13020G30KT 1/2SM R09/3500V6000FT/U -SN BLSN VV008 M05/ RMK SN8

CYXE;2007-02-23 17:00;CYXE 231700Z 14023G32KT 1/2SM R09/2800V6000FT/U -SN BLSN VV008 M05/M07 A2969 RMK SN8 /S02/ SLP087

CYXE;2007-02-23 17:40;CYXE 231740Z 13018G26KT 3/4SM R09/4000VP6000FT/U -SN BLSN OVC012 M05/ RMK SN2SC6

CYXE;2007-02-23 18:00;CYXE 231800Z 14018G26KT 1SM R09/P6000FT/U -SN BLSN OVC012 M06/M07 A2969 RMK SC8 SLP088

CYXE;2007-02-23 18:26;CYXE 231826Z 13017G22KT 3/4SM R09/P6000FT/U -SN BLSN OVC012 M06/ RMK SN2SC6 VIS VRB 1/2-1

CYXE;2007-02-23 19:00;CYXE 231900Z 13017G22KT 1 1/2SM -SN BLSN OVC012 M06/M07 A2969 RMK SC8 /S01/ SLP087

CYXE;2007-02-23 19:20;CYXE 231920Z 13015KT 2 1/2SM -SN DRSN OVC010 M06/ RMK SC8 OCNL BLSN

CYXE;2007-02-23 20:00;CYXE 232000Z 12015KT 2 1/2SM -SN DRSN OVC009 M06/M07 A2968 RMK SC8 SLP085

CYXE;2007-02-23 20:53;CYXE 232053Z 13012G17KT 3SM -SN DRSN OVC010 M05/ RMK SC8

CYXE;2007-02-23 21:00;CYXE 232100Z 13011G17KT 4SM -SN DRSN OVC010 M05/M07 A2968 RMK SC8 SLP084

CYXE;2007-02-23 21:50;CYXE 232150Z 13014KT 1 1/2SM -SN DRSN VV012 M05/ RMK SN8

CYXE;2007-02-23 22:00;CYXE 232200Z 13012G17KT 1 1/2SM -SN DRSN VV008 M05/M07 A2969 RMK SN8 SLP087

CYXE;2007-02-23 22:37;CYXE 232237Z 12015KT 1SM R09/P6000FT/D -SN DRSN VV007 M05/ RMK SN8

CYXE;2007-02-23 23:00;CYXE 232300Z 12013KT 3/4SM R09/5500FT/N -SN DRSN VV004 M05/M07 A2971 RMK SN8 VIS VRB 1/2-1 SLP094

CYXE;2007-02-23 23:49;CYXE 232349Z 12009KT 1 1/2SM -SN DRSN VV010 M05/ RMK SN8

CYXE;2007-02-24 00:00;CYXE 240000Z 12008KT 1SM R09/P6000FT/D -SN DRSN VV009 M05/M06 A2973 RMK SN8 SLP100

CYXE;2007-02-24 00:12;CYXE 240012Z 12011KT 3/4SM R09/P6000FT/D -SN DRSN VV005 M05/ RMK SN8 VIS VRB 1/2-1

CYXE;2007-02-24 00:37;CYXE 240037Z 12011KT 3SM -SN VV005 M05/ RMK SN8

CYXE;2007-02-24 01:00;CYXE 240100Z 11008KT 6SM -SN BKN010 OVC070 M05/M06 A2975 RMK ST6AC2 SLP107

CYXE;2007-02-24 02:00;CYXE 240200Z 11006KT 6SM -SN SCT010 OVC018 M05/M06 A2977 RMK SF4SC4 SLP112

CYXE;2007-02-24 02:40;CYXE 240240Z 11005KT 6SM -SN OVC010 M05/ RMK ST8

CYXE;2007-02-24 03:00;CYXE 240300Z 10005KT 6SM -SN BKN012 OVC030 M05/M06 A2978 RMK SF5SC3 SLP116

CYXE;2007-02-24 04:00;CYXE 240400Z 07004KT 6SM -SN BKN016 OVC092 M06/M07 A2978 RMK SF5AC2 SLP118

CYXE;2007-02-24 05:00;CYXE 240500Z 03004KT 10SM -SN SCT018 OVC092 M08/M09 A2979 RMK SF4AC4 SLP120

CYXE;2007-02-24 05:46;CYXE 240546Z 33006KT 15SM -SN SCT008 OVC012 M07/ RMK SF3SC5

CYXE;2007-02-24 06:00;CYXE 240600Z 35005KT 15SM SCT008 OVC012 M07/M08 A2981 RMK SF3SC5 SLP128

CYXE;2007-02-24 06:26;CYXE 240626Z 33005KT 10SM BKN007 OVC012 M06/ RMK ST6SC2 BR

CYXE;2007-02-24 07:00;CYXE 240700Z 32007KT 15SM BKN008 OVC017 M07/M08 A2982 RMK ST5SC3 SLP133

CYXE;2007-02-24 07:17;CYXE 240717Z 33007KT 15SM FEW008 OVC019 M07/ RMK SF2SC6

CYXE;2007-02-24 08:00;CYXE 240800Z 31006KT 15SM OVC019 M07/M08 A2985 RMK SC8 SLP141

CYXE;2007-02-24 09:00;CYXE 240900Z 32009KT 15SM OVC019 M07/M09 A2985 RMK SC8 SLP143

CYXE;2007-02-24 10:00;CYXE 241000Z 31008KT 15SM OVC021 M10/M11 A2987 RMK SC8 SLP150

CYXE;2007-02-24 11:00;CYXE 241100Z 31006KT 15SM OVC021 M09/M10 A2990 RMK SC8 SLP157

CYXE;2007-02-24 12:00;CYXE 241200Z 33009KT 15SM OVC017 M08/M10 A2992 RMK SC8 SLP166

CYXE;2007-02-24 13:00;CYXE 241300Z 32008KT 15SM OVC015 M08/M10 A2994 RMK SC8 SLP173

CYXE;2007-02-24 13:21;CYXE 241321Z 33010KT 15SM -SN OVC013 M08/ RMK SC8

CYXE;2007-02-24 14:00;CYXE 241400Z 33008KT 15SM -SN OVC013 M08/M10 A2995 RMK SC8 SLP178

CYXE;2007-02-24 15:00;CYXE 241500Z 31007KT 8SM -SN OVC013 M08/M10 A2998 RMK SC8 SLP186

CYXE;2007-02-24 16:00;CYXE 241600Z 33006KT 5SM -SN OVC013 M08/M10 A2999 RMK SC8 SLP191

CYXE;2007-02-24 17:00;CYXE 241700Z 31003KT 4SM -SN OVC013 M08/M10 A3000 RMK ST8 SLP195

CYXE;2007-02-24 18:00;CYXE 241800Z 36006KT 5SM -SN OVC013 M08/M11 A3000 RMK ST8 SLP195

CYXE;2007-02-24 19:00;CYXE 241900Z 32004KT 6SM -SN OVC013 M08/M11 A2999 RMK ST8 SLP193

CYXE;2007-02-24 20:00;CYXE 242000Z 29005KT 15SM -SN OVC013 M07/M10 A2999 RMK SC8 SLP192

CYXE;2007-02-24 20:37;CYXE 242037Z 33004KT 15SM OVC013 M07/ RMK SC8

CYXE;2007-02-24 21:00;CYXE 242100Z 32003KT 15SM OVC013 M07/M10 A2999 RMK SC8 SLP190

CYXE;2007-02-24 21:51;CYXE 242151Z 33006KT 15SM OVC015 M07/ RMK SC8

CYXE;2007-02-24 22:00;CYXE 242200Z 33006KT 15SM OVC015 M07/M09 A2999 RMK SC8 SLP191

CYXE;2007-02-24 23:00;CYXE 242300Z 34005KT 15SM OVC013 M07/M10 A2999 RMK SC8 SLP190

CYXE;2007-02-25 00:00;CYXE 250000Z 03003KT 15SM OVC011 M08/M10 A2999 RMK SC8 SLP191

CYXE;2007-02-25 01:00;CYXE 250100Z 16002KT 15SM SCT110 OVC280 06/02 A2966 RMK AC2CS6 SLP063

CYXE;2007-02-25 01:17;CYXE 250117Z 00000KT 15SM OVC009 M08/ RMK ST8

CYXE;2007-02-25 02:00;CYXE 250200Z 05006KT 15SM SCT110 OVC280 02/01 A2965 RMK AC2CS4 SLP060

CYXE;2007-02-25 03:00;CYXE 250300Z 16002KT 15SM OVC008 M08/M10 A2999 RMK ST8 SLP194

CYXE;2007-02-25 04:00;CYXE 250400Z 14007KT 15SM SCT055 BKN098 05/02 A2961 RMK SC3AC2 SLP050

CYXE;2007-02-25 05:00;CYXE 250500Z 19003KT 15SM OVC007 M08/M10 A2998 RMK ST8 SLP190

CYXE;2007-02-25 06:00;CYXE 250600Z 14004KT 10SM OVC006 M09/M10 A2997 RMK ST8 BR SLP188

CYXE;2007-02-25 07:00;CYXE 250700Z 18004KT 10SM OVC005 M09/M10 A2997 RMK ST8 BR SLP188

CYXE;2007-02-25 07:33;CYXE 250733Z 14004KT 10SM OVC004 M10/ RMK ST8 BR

CYXE;2007-02-25 08:00;CYXE 250800Z 18003KT 8SM OVC004 M10/M11 A2997 RMK ST8 BR SLP186

CYXE;2007-02-25 08:17;CYXE 250817Z 13005KT 8SM -SN OVC004 M10/ RMK ST8 BR

CYXE;2007-02-25 09:00;CYXE 250900Z 13005KT 6SM -SN BR OVC003 M10/M11 A2996 RMK ST8 SLP184

CYXE;2007-02-25 10:00;CYXE 251000Z 11006KT 3SM -SN BR OVC003 M10/M11 A2996 RMK ST8 SLP183

CYXE;2007-02-25 11:00;CYXE 251100Z 13008KT 3SM -SN BR OVC002 M11/M12 A2995 RMK ST8 SLP180

CYXE;2007-02-25 11:25;CYXE 251125Z 12007KT 4SM -SN BR OVC003 M11/ RMK ST8

CYXE;2007-02-25 12:00;CYXE 251200Z 14005KT 3SM -SN BR OVC003 M11/M12 A2996 RMK ST8 SLP186

CYXE;2007-02-25 12:45;CYXE 251245Z 11005KT 3SM -SN BR OVC004 M11/ RMK ST8

CYXE;2007-02-25 13:00;CYXE 251300Z 10007KT 3SM -SN BR OVC004 M11/M12 A2998 RMK ST8 SLP191

CYXE;2007-02-25 13:48;CYXE 251348Z 13006KT 1SM R09/P6000FT/D -SN BR OVC006 M12/ RMK SN3ST5

CYXE;2007-02-25 14:00;CYXE 251400Z 14007KT 1 1/2SM -SN BR OVC006 M12/M13 A2997 RMK SN2ST6 SLP189

CYXE;2007-02-25 14:15;CYXE 251415Z 10008KT 2SM -SN BR OVC003 M12/ RMK ST8

CYXE;2007-02-25 14:31;CYXE 251431Z 11008KT 1 1/2SM -SN BR OVC003 M12/ RMK ST8

CYXE;2007-02-25 15:00;CYXE 251500Z 13009KT 1 1/2SM -SN BR OVC006 M12/M13 A2998 RMK ST8 SLP192

CYXE;2007-02-25 15:35;CYXE 251535Z 12007KT 1 1/2SM -SN BR OVC010 M11/ RMK SN2ST6

CYXE;2007-02-25 16:00;CYXE 251600Z 14008KT 1 1/2SM -SN BR OVC009 M11/M12 A2998 RMK SN3ST5 SLP191

CYXE;2007-02-25 16:16;CYXE 251616Z 12007KT 1 1/2SM -SN OVC010 M11/ RMK SN2ST6

CYXE;2007-02-25 17:00;CYXE 251700Z 13008KT 2SM -SN OVC010 M11/M12 A2998 RMK SC8 SLP193

CYXE;2007-02-25 17:05;CYXE 251705Z 12007KT 3SM -SN OVC012 M11/ RMK SC8

CYXE;2007-02-25 18:00;CYXE 251800Z 11008KT 3SM -SN OVC012 M11/M12 A2997 RMK SC8 SLP190

CYXE;2007-02-25 19:00;CYXE 251900Z 11008KT 4SM -SN OVC012 M10/M12 A2996 RMK SC8 SLP187

CYXE;2007-02-25 20:00;CYXE 252000Z 10009KT 6SM -SN OVC014 M09/M12 A2995 RMK SC7 SLP181

CYXE;2007-02-25 21:00;CYXE 252100Z 10007KT 15SM -SN OVC014 M09/M12 A2994 RMK SC7 SLP176

CYXE;2007-02-25 22:00;CYXE 252200Z 11010KT 15SM -SN OVC014 M09/M11 A2993 RMK SC7 SLP175

CYXE;2007-02-25 23:00;CYXE 252300Z 09009KT 15SM -SN OVC014 M09/M11 A2994 RMK SC8 SLP178

CYXE;2007-02-26 00:00;CYXE 260000Z 09010KT 15SM -SN OVC012 M09/M11 A2994 RMK SC8 SLP178

CYXE;2007-02-26 00:14;CYXE 260014Z 08009KT 15SM OVC012 M09/ RMK SC8

CYXE;2007-02-26 01:00;CYXE 260100Z 07009KT 15SM OVC012 M09/M11 A2996 RMK SC8 SLP184

CYXE;2007-02-26 02:00;CYXE 260200Z 08008KT 15SM FEW012 SCT080 M11/M13 A2997 RMK SC2AC2 SLP188

CYXE;2007-02-26 03:00;CYXE 260300Z 07006KT 15SM SKC M14/M16 A2997 RMK SLP194

CYXE;2007-02-26 04:00;CYXE 260400Z 03006KT 12SM FEW002 M16/M17 A2998 RMK SF1 BR SLP196

CYXE;2007-02-26 04:55;CYXE 260455Z 00000KT 2SM BR BKN001 M17/ RMK SF5

CYXE;2007-02-26 05:00;CYXE 260500Z 00000KT 1SM R09/P6000FT/D BR BKN001 M19/M20 A2998 RMK SF6 VIS LWR W-N TWR OBS SLP196

CYXE;2007-02-26 05:13;CYXE 260513Z 00000KT 1/2SM R09/3000FT FZFG BKN007 M18/ RMK SF6

CYXE;2007-02-26 05:24;CYXE 260524Z 00000KT 1/4SM R09/2000V3500FT/D FZFG VV001 M18/ RMK FG8

CYXE;2007-02-26 05:38;CYXE 260538Z 01002KT 1/8SM R09/2200FT/N FZFG VV001 M18/ RMK FG8

CYXE;2007-02-26 06:00;CYXE 260600Z 36002KT 1/8SM R09/2400FT/N FZFG VV001 M19/M20 A2998 RMK FG8 SLP200

CYXE;2007-02-26 06:35;CYXE 260635Z 00000KT 1/4SM R09/P6000FT/U FZFG VV001 M19/ RMK FG8

CYXE;2007-02-26 06:54;CYXE 260654Z 08003KT 1/8SM R09/P6000FT/D FZFG VV001 M18/ RMK FG8

CYXE;2007-02-26 07:00;CYXE 260700Z 07004KT 1/8SM R09/3000VP6000FT/D FZFG VV001 M18/M19 A2998 RMK FG8 SLP200

CYXE;2007-02-26 08:00;CYXE 260800Z 04004KT 1/8SM R09/1600V2000FT/N FZFG VV001 M18/M19 A2998 RMK FG8 SLP199

CYXE;2007-02-26 09:00;CYXE 260900Z 06002KT 1/8SM R09/P6000FT/D FZFG VV001 M19/M19 A2999 RMK FG8 SLP199

CYXE;2007-02-26 10:00;CYXE 261000Z 05004KT 1/8SM R09/2600FT/N FZFG VV001 M19/M20 A2998 RMK FG8 SLP198

CYXE;2007-02-26 10:39;CYXE 261039Z 08003KT 1/8SM R09/2800VP6000FT/U FZFG SKC M19/ RMK FG5

CYXE;2007-02-26 11:00;CYXE 261100Z 09004KT 1/4SM R09/4000V5500FT/U FZFG SKC M20/M21 A2998 RMK FG6 SLP197

CYXE;2007-02-26 11:30;CYXE 261130Z 06006KT 1/2SM R09/3500V5000FT/N -SN FZFG BKN001 M20/ RMK FG5SF2 VIS NW 1/4

CYXE;2007-02-26 12:00;CYXE 261200Z 07007KT 1/4SM R09/P6000FT/U -SN FZFG OVC001 M20/M21 A2998 RMK FG5SF2 SLP197

CYXE;2007-02-26 12:05;CYXE 261205Z 07005KT 1/2SM R09/P6000FT/D -SN FZFG OVC002 M20/ RMK FG3SF4 VIS VRB 1/4-3/4

CYXE;2007-02-26 13:00;CYXE 261300Z 06004KT 1SM R09/P6000FT/N -SN BR OVC001 M21/M22 A2998 RMK FG2SF6 SLP199

CYXE;2007-02-26 13:07;CYXE 261307Z 06005KT 3/4SM R09/P6000FT/D -SN BR OVC001 M21/ RMK FG2SF6 VIS VRB 1/2-1

CYXE;2007-02-26 13:14;CYXE 261314Z 06005KT 1/8SM R09/P6000FT/U FZFG VV001 M21/ RMK FG8

CYXE;2007-02-26 13:20;CYXE 261320Z 06005KT 1/2SM R09/P6000FT/U FZFG VV001 M21/ RMK FG8 VIS VRB 1/4-3/4

CYXE;2007-02-26 13:25;CYXE 261325Z 06004KT 3/4SM R09/P6000FT/D BR SKC M21/ RMK FG3 VIS VRB 1/2-1

CYXE;2007-02-26 13:46;CYXE 261346Z 05007KT 3/4SM R09/P6000FT/U BR BKN002 M21/ RMK FG2SF1 VIS VRB 1/2-1

CYXE;2007-02-26 14:00;CYXE 261400Z 04005KT 1 1/2SM BR BKN002 M21/M23 A2998 RMK SF2 SLP199

CYXE;2007-02-26 14:30;CYXE 261430Z 03002KT 1 1/2SM BR FEW002 BKN014 M22/ RMK SF2SC2 IC LVIS NE-S 3/4

CYXE;2007-02-26 14:46;CYXE 261446Z CCA 03002KT 1 1/2SM BR FEW002 OVC014 M21/ RMK SF1SC4 IC VIS S 4 VIS E 3/4 FROIN

CYXE;2007-02-26 15:00;CYXE 261500Z 03002KT 1 1/2SM BR FEW002 OVC014 M21/M23 A2999 RMK SF1SC6 VIS SE-SW 3/4 FROIN SLP205

CYXE;2007-02-26 15:10;CYXE 261510Z 03004KT 1 1/2SM BR OVC014 M20/ RMK FG1SC3 VIS S-W 5/8 FROIN

CYXE;2007-02-26 16:00;CYXE 261600Z 05005KT 1 1/2SM BR FEW003 SCT014 M19/M21 A2999 RMK FG1SF1SC2 IC VIS S 4 VIS SW 5/8 FROIN SLP204

CYXE;2007-02-26 16:16;CYXE 261616Z 05003KT 4SM BR FEW002 FEW012 FEW090 M18/ RMK SF1SC2AC1 IC VIS NE-SE 1 FROIN

CYXE;2007-02-26 17:00;CYXE 261700Z 04005KT 4SM BR FEW009 FEW092 FEW210 M17/M19 A2999 RMK SF1AC1CI1 IC VIS NE-S 1 FROIN SLP204

CYXE;2007-02-26 18:00;CYXE 261800Z 05008KT 4SM BR FEW001 FEW250 M16/M17 A2998 RMK SF1CI1 IC VIS NE-SE 1 FROIN SLP202

CYXE;2007-02-26 19:00;CYXE 261900Z 06009KT 15SM FEW250 M16/M17 A2997 RMK CI1 IC SLP200

CYXE;2007-02-26 20:00;CYXE 262000Z 03006KT 15SM FEW110 FEW250 M15/M16 A2996 RMK AC1CI1 IC SLP196

CYXE;2007-02-26 21:00;CYXE 262100Z 04007KT 15SM FEW250 M15/M16 A2995 RMK CI1 IC SLP191

CYXE;2007-02-26 22:00;CYXE 262200Z 04006KT 15SM FEW250 M14/M15 A2995 RMK CI1 IC SLP189

CYXE;2007-02-26 23:00;CYXE 262300Z 05005KT 15SM FEW250 M14/M15 A2994 RMK CI1 SLP186

CYXE;2007-02-27 00:00;CYXE 270000Z 08004KT 15SM FEW250 M15/M17 A2994 RMK CI1 SLP190

CYXE;2007-02-27 01:00;CYXE 270100Z 23005KT 15SM FEW095 FEW280 05/M01 A3007 RMK AC1CI0 SLP208

CYXE;2007-02-27 02:00;CYXE 270200Z 07003KT 15SM FEW250 M19/M21 A2994 RMK CI1 SLP190

CYXE;2007-02-27 02:32;CYXE 270232Z 36003KT 10SM FEW002 FEW250 RMK SF1CI1 BR VIS LWR N

CYXE;2007-02-27 02:49;CYXE 270249Z 01003KT 8SM FEW250 M22/ RMK CI1 IC

CYXE;2007-02-27 03:00;CYXE 270300Z 04003KT 3SM IC BR SKC M20/M24 A2994 RMK FG2 SLP194

CYXE;2007-02-27 04:00;CYXE 270400Z 05004KT 12SM SKC M21/M24 A2994 RMK IC SLP193

CYXE;2007-02-27 05:00;CYXE 270500Z 03004KT 10SM FEW005 FEW100 M22/M26 A2994 RMK SF1AC1 IC BR SLP193

CYXE;2007-02-27 05:24;CYXE 270524Z 02004KT 10SM BKN020 M21/ RMK SC5 IC

CYXE;2007-02-27 06:00;CYXE 270600Z 03004KT 6SM IC SCT015 OVC019 M20/M23 A2993 RMK SC3SC3 SLP186

CYXE;2007-02-27 06:16;CYXE 270616Z 03004KT 6SM -SN OVC013 M20/ RMK SC8

CYXE;2007-02-27 06:45;CYXE 270645Z 34002KT 6SM -SN FEW013 OVC018 M20/ RMK SC1SC7

CYXE;2007-02-27 07:00;CYXE 270700Z 01002KT 6SM -SN OVC018 M19/M22 A2992 RMK SC8 SLP184

CYXE;2007-02-27 08:00;CYXE 270800Z 00000KT 4SM -SN OVC018 M18/M21 A2991 RMK SC7 SLP181

CYXE;2007-02-27 08:44;CYXE 270844Z 00000KT 6SM -SN OVC014 M18/ RMK SC7

CYXE;2007-02-27 09:00;CYXE 270900Z 05002KT 6SM -SN BKN014 M18/M21 A2990 RMK SC5 SLP173

CYXE;2007-02-27 09:14;CYXE 270914Z 05003KT 10SM -SN SCT014 M18/ RMK SC2

CYXE;2007-02-27 09:39;CYXE 270939Z 07003KT 15SM FEW003 M18/ RMK SF1

CYXE;2007-02-27 10:00;CYXE 271000Z 08004KT 15SM FEW005 M19/M22 A2989 RMK SF1 SLP171

CYXE;2007-02-27 10:06;CYXE 271006Z 10004KT 15SM OVC005 M19/ RMK SF5

CYXE;2007-02-27 10:12;CYXE 271012Z 09002KT 15SM FEW005 M20/ RMK SF1

CYXE;2007-02-27 11:00;CYXE 271100Z 09003KT 4SM BR FEW002 SCT008 SCT110 M20/M23 A2989 RMK SF1SF1AC1 VIS SW-W 1 SLP170

CYXE;2007-02-27 11:15;CYXE 271115Z 08003KT 4SM -SN BR FEW001 FEW008 BKN013 M20/ RMK SF1SF1SC1

CYXE;2007-02-27 11:31;CYXE 271131Z 07004KT 1/2SM R09/P6000FT/N -SN FZFG OVC001 M21/ RMK FG2SF5 VIS E-SW 4

CYXE;2007-02-27 11:42;CYXE 271142Z 07004KT 1/4SM R09/P6000FT/U FZFG SKC M21/ RMK FG6 IC

CYXE;2007-02-27 12:00;CYXE 271200Z 06004KT 1/4SM R09/3000VP6000FT/D FZFG SKC M21/M25 A2988 RMK FG6 IC SLP170

CYXE;2007-02-27 12:01;CYXE 271201Z CCA 06004KT 3/8SM R09/2600V5500FT/D FZFG SKC M21/ RMK FG6 IC TOWER OBS

CYXE;2007-02-27 12:15;CYXE 271215Z 05003KT 1/4SM R09/3500V5500FT/U FZFG SKC M21/ RMK FG6 IC TOWER OBS

CYXE;2007-02-27 12:33;CYXE 271233Z 06002KT 1/2SM R09/3000FT/N FZFG SKC M22/ RMK FG6 IC TOWER OBS

CYXE;2007-02-27 13:00;CYXE 271300Z 03002KT 1/2SM R09/3000FT/N FZFG BKN001 M22/M26 A2988 RMK FG3SF1 IC SLP169

CYXE;2007-02-27 13:33;CYXE 271333Z 03003KT 1/4SM R09/3000FT/D FZFG BKN250 M23/ RMK FG3CI1 IC

CYXE;2007-02-27 14:00;CYXE 271400Z 00000KT 1/2SM R09/3500VP6000FT/D IC FZFG FEW013 BKN250 M23/M27 A2988 RMK FG1SF2CI1 SLP170

CYXE;2007-02-27 14:41;CYXE 271441Z 00000KT 1SM R09/2600VP6000FT/U IC BR FEW013 BKN250 M24/ RMK SF1CI1

CYXE;2007-02-27 15:00;CYXE 271500Z 00000KT 1SM R09/1400FT/N IC BR FEW013 SCT250 M24/M28 A2989 RMK SF1CI1 SLP178

CYXE;2007-02-27 15:15;CYXE 271515Z 00000KT 1SM R09/1600V4000FT/U IC BR FEW002 SCT250 M25/ RMK SF1CI1

CYXE;2007-02-27 15:34;CYXE 271534Z 00000KT 1 1/2SM R09/1400V2800FT/U IC BR FEW002 FEW250 M24/ RMK SF1CI1

CYXE;2007-02-27 15:50;CYXE 271550Z 00000KT 2SM IC BR FEW003 FEW250 M23/ RMK SF1CI1

CYXE;2007-02-27 16:00;CYXE 271600Z 00000KT 1 1/2SM IC PRFG FEW003 FEW250 M23/M27 A2989 RMK SF1CI1 VIS NW-NE 1/2 SLP177

CYXE;2007-02-27 16:05;CYXE 271605Z 00000KT 1/4SM R09/P6000FT/U IC FZFG FEW250 M23/ RMK FG2CI0

CYXE;2007-02-27 16:10;CYXE 271610Z 00000KT 2SM IC PRFG FEW250 M23/ RMK FG1CI0 VIS SE-SW 1/4

CYXE;2007-02-27 16:21;CYXE 271621Z 00000KT 5SM IC BR FEW250 M22/ RMK CI1 VIS SE QUAD 3/4 BCFG

CYXE;2007-02-27 17:00;CYXE 271700Z 28002KT 8SM FEW040 SCT250 M21/M24 A2989 RMK SC1CI1 BR SLP177

CYXE;2007-02-27 18:00;CYXE 271800Z 35003KT 8SM SCT250 M19/M22 A2988 RMK CI1 BR SLP171

CYXE;2007-02-27 19:00;CYXE 271900Z 02002KT 5SM IC BR BKN250 M18/M20 A2989 RMK CI2 SLP173

CYXE;2007-02-27 20:00;CYXE 272000Z 03004KT 8SM BKN250 M16/M19 A2987 RMK CI2 BR SLP168

CYXE;2007-02-27 20:23;CYXE 272023Z 04004KT 8SM FEW008 BKN250 M16/ RMK SF1CI4 BR

CYXE;2007-02-27 21:00;CYXE 272100Z 34003KT 8SM FEW009 BKN250 M16/M18 A2987 RMK SF1CI3 BR SLP163

CYXE;2007-02-27 22:00;CYXE 272200Z 04006KT 12SM FEW006 BKN250 M16/M17 A2987 RMK SF1CI4 IC SLP165

CYXE;2007-02-27 23:00;CYXE 272300Z 05005KT 15SM OVC250 M15/M16 A2988 RMK CI4 IC SLP166

CYXE;2007-02-27 23:12;CYXE 272312Z 04005KT 15SM OVC250 M15/ RMK CI4

CYXE;2007-02-28 00:00;CYXE 280000Z 06007KT 15SM FEW140 BKN250 M15/M17 A2987 RMK AC1CI3 SLP167

CYXE;2007-02-28 01:00;CYXE 280100Z 06006KT 15SM FEW120 BKN250 M18/M19 A2988 RMK AC1CI2 SLP168

CYXE;2007-02-28 02:00;CYXE 280200Z 11020G27KT 15SM BKN055 OVC095 02/M00 A2990 RMK SC6AC2 SLP150

CYXE;2007-02-28 03:00;CYXE 280300Z 08003KT 15SM FEW120 SCT250 M18/M19 A2989 RMK AC1CI1 SLP176

CYXE;2007-02-28 04:00;CYXE 280400Z 06007KT 10SM FEW120 FEW250 M22/M23 A2987 RMK AC1CI1 BR SLP171

CYXE;2007-02-28 04:12;CYXE 280412Z 12016G22KT 10SM -RASN OVC012 02/ RMK SC8

CYXE;2007-02-28 05:00;CYXE 280500Z 09003KT 15SM FEW050 FEW250 M20/M21 A2988 RMK SC1CI1 SLP173

CYXE;2007-02-28 06:00;CYXE 280600Z 08004KT 15SM FEW003 FEW092 M21/M23 A2987 RMK SF1AC1 SLP169

CYXE;2007-02-28 07:00;CYXE 280700Z 08005KT 15SM FEW003 FEW043 SCT072 M21/M25 A2989 RMK SF1SC2AC1 TR SF N SLP173

CYXE;2007-02-28 08:00;CYXE 280800Z 04003KT 15SM FEW003 SCT059 BKN090 M23/M26 A2989 RMK SF1SC2AC1 TR SF N SLP175

CYXE;2007-02-28 09:00;CYXE 280900Z 07005KT 15SM -SN OVC053 M20/M23 A2988 RMK SC8 SLP168

CYXE;2007-02-28 09:35;CYXE 280935Z 05003KT 15SM -SN SCT003 OVC058 M19/ RMK SF3SC5

CYXE;2007-02-28 10:00;CYXE 281000Z 07005KT 15SM -SN FEW002 OVC058 M19/M21 A2988 RMK SF2SC5 SLP168

CYXE;2007-02-28 10:28;CYXE 281028Z 06004KT 6SM -SN BKN003 OVC058 M19/ RMK SF6SC1

CYXE;2007-02-28 10:44;CYXE 281044Z 06003KT 4SM -SN BR OVC002 M19/ RMK SF8

CYXE;2007-02-28 11:00;CYXE 281100Z 07005KT 4SM -SN BR OVC001 M20/M23 A2988 RMK SF7 SLP167

CYXE;2007-02-28 11:13;CYXE 281113Z 07006KT 4SM -SN BR OVC002 M20/ RMK SF7

CYXE;2007-02-28 12:00;CYXE 281200Z 04004KT 4SM -SN BR BKN002 OVC054 M21/M24 A2987 RMK SF5SC1 SLP166

CYXE;2007-02-28 12:01;CYXE 281201Z 05004KT 4SM BR BKN003 OVC054 M21/ RMK SF6SC1 IC

CYXE;2007-02-28 12:28;CYXE 281228Z 07007KT 4SM BR OVC002 M21/ RMK SF8 IC

CYXE;2007-02-28 12:50;CYXE 281250Z 06007KT 1 1/2SM BR OVC002 M21/ RMK SF8 IC VIS W-N 3

CYXE;2007-02-28 13:00;CYXE 281300Z 06007KT 3SM BR OVC002 M21/M24 A2987 RMK SF6 IC VIS N-SE 11/2 SLP165

CYXE;2007-02-28 13:23;CYXE 281323Z 06003KT 3/4SM R09/P6000FT/N BR BKN001 BKN250 M22/ RMK FG2SF2CI0 IC VIS W-NE 2

CYXE;2007-02-28 14:00;CYXE 281400Z 07003KT 3/4SM R09/P6000FT/D IC BR SCT052 OVC250 M22/M26 A2987 RMK SC4CI4 SLP166

CYXE;2007-02-28 14:26;CYXE 281426Z 08004KT 2SM IC BR SCT048 OVC250 M22/ RMK SC4CI4

CYXE;2007-02-28 15:00;CYXE 281500Z 09006KT 2SM IC BR FEW003 SCT048 OVC250 M21/M24 A2987 RMK SF2SC2CI4 SLP169

CYXE;2007-02-28 16:00;CYXE 281600Z 13006KT 1SM R09/3500VP6000FT/D BR BKN003 OVC050 M16/M19 A2986 RMK SF4SC4 VIS VRB 1/2-11/2 SLP166

CYXE;2007-02-28 17:00;CYXE 281700Z 01005KT 2SM BR SCT003 SCT050 OVC250 M18/M20 A2987 RMK SF2SC2CS4 VIS VRB 1-3 SLP167

CYXE;2007-02-28 17:18;CYXE 281718Z 01004KT 6SM BR SCT003 SCT064 OVC250 M17/ RMK SF2SC2CS4

CYXE;2007-02-28 18:00;CYXE 281800Z 03005KT 10SM FEW052 OVC250 M16/M19 A2987 RMK SC2CS6 SLP165

CYXE;2007-02-28 19:00;CYXE 281900Z 04006KT 15SM BKN050 OVC250 M15/M17 A2987 RMK SC5CS3 SLP165

CYXE;2007-02-28 20:00;CYXE 282000Z 04007KT 15SM BKN054 OVC250 M15/M16 A2986 RMK SC6CS2 SLP163

CYXE;2007-02-28 21:00;CYXE 282100Z 04006KT 15SM BKN054 OVC083 M14/M15 A2986 RMK SC6AC2 SLP159

CYXE;2007-02-28 22:00;CYXE 282200Z 05007KT 15SM BKN055 OVC090 M13/M14 A2986 RMK SC6AC2 SLP158

CYXE;2007-02-28 23:00;CYXE 282300Z 06007KT 15SM BKN053 OVC090 M12/M13 A2986 RMK SC6AC2 SLP160

CYXE;2007-03-01 01:00;CYXE 010100Z 06007KT 15SM BKN053 OVC090 M12/M13 A2986 RMK SC5AC3 SLP161

CYXE;2007-03-01 02:00;CYXE 010200Z 05009KT 15SM BKN057 OVC080 M11/M13 A2986 RMK SC6AC2 SLP160

CYXE;2007-03-01 03:00;CYXE 010300Z 31005KT 15SM FEW020 SCT120 OVC300 02/01 A2978 RMK SC2AC2CI3 SLP109

CYXE;2007-03-01 03:05;CYXE 010305Z 06010KT 12SM -SN OVC070 M12/ RMK AC8

CYXE;2007-03-01 03:22;CYXE 010322Z 06009KT 3SM -SN BKN020 OVC070 M12/ RMK SC6AC2

CYXE;2007-03-01 03:42;CYXE 010342Z 06009KT 2SM -SN BKN020 OVC070 M12/ RMK SC6AC2

CYXE;2007-03-01 04:00;CYXE 010400Z 32007KT 15SM FEW020 BKN100 OVC300 01/00 A2978 RMK SC2AC2CI2 SLP109

CYXE;2007-03-01 04:41;CYXE 010441Z 06009KT 2SM -SN OVC050 M11/ RMK SC8

CYXE;2007-03-01 05:00;CYXE 010500Z 05008KT 2SM -SN OVC050 M11/M12 A2985 RMK SC8 SLP157

CYXE;2007-03-01 05:36;CYXE 010536Z 05008KT 3SM -SN OVC050 M11/ RMK SC8

CYXE;2007-03-01 06:00;CYXE 010600Z 05009KT 1 1/2SM -SN OVC022 M11/M12 A2984 RMK SN3SC5 TOWER OBS SLP150

CYXE;2007-03-01 06:14;CYXE 010614Z 05009KT 1 1/2SM -SN VV012 M10/ RMK SN8 TOWER OBS

CYXE;2007-03-01 06:34;CYXE 010634Z 04009KT 1SM R09/P6000FT/D -SN VV012 M10/ RMK SN8 TOWER OBS

CYXE;2007-03-01 07:00;CYXE 010700Z 04008KT 1 1/2SM -SN VV014 M10/M11 A2983 RMK SN8 TOWER OBS SLP146

CYXE;2007-03-01 07:28;CYXE 010728Z 03007KT 1 1/2SM -SN OVC017 M10/ RMK SN5SC3 TOWER OBS

CYXE;2007-03-01 08:00;CYXE 010800Z 03008KT 1 1/2SM -SN OVC017 M10/M11 A2981 RMK SN5SC3 TOWER OBS SLP141

CYXE;2007-03-01 09:00;CYXE 010900Z 03008KT 1 1/2SM -SN OVC027 M10/M11 A2981 RMK SN6SC2 /S01/ TOWER OBS SLP137

CYXE;2007-03-01 10:00;CYXE 011000Z 03007KT 1 1/2SM -SN OVC018 M09/M10 A2981 RMK SN6SC2 TOWER OBS SLP137

CYXE;2007-03-01 10:19;CYXE 011019Z 03008KT 3SM -SN OVC018 M10/ RMK SC6

CYXE;2007-03-01 11:00;CYXE 011100Z 02009KT 4SM -SN OVC027 M10/M11 A2981 RMK SC8 SLP135

CYXE;2007-03-01 12:00;CYXE 011200Z 01008KT 6SM -SN OVC027 M12/M12 A2981 RMK SC6 SLP137

CYXE;2007-03-01 13:00;CYXE 011300Z 36008KT 6SM -SN OVC035 M12/M13 A2982 RMK SC8 SLP140

CYXE;2007-03-01 13:35;CYXE 011335Z 36009KT 1 1/2SM -SN OVC037 M11/ RMK SN2SC6

CYXE;2007-03-01 14:00;CYXE 011400Z 01009KT 2SM -SN BKN031 OVC070 M11/M12 A2983 RMK SN2SC4AC2 VIS VRB 1-3 SLP143

CYXE;2007-03-01 14:16;CYXE 011416Z 36009KT 6SM -SN BKN031 OVC070 M11/ RMK SN2SC4AC2

CYXE;2007-03-01 15:00;CYXE 011500Z 01009KT 6SM -SN SCT024 OVC250 M11/M12 A2984 RMK SC3CI2 SLP146

CYXE;2007-03-01 16:00;CYXE 011600Z 36010KT 15SM FEW041 BKN250 M12/M13 A2984 RMK SC2CI2 SLP147

CYXE;2007-03-01 16:36;CYXE 011636Z 01010KT 15SM FEW041 BKN250 M10/ RMK SC2CI2

CYXE;2007-03-01 17:00;CYXE 011700Z 01011KT 15SM FEW033 BKN250 M11/M12 A2985 RMK SC2CI2 SLP149

CYXE;2007-03-01 17:46;CYXE 011746Z 01011KT 10SM -SN SCT028 OVC250 M09/ RMK SC4CI3

CYXE;2007-03-01 18:00;CYXE 011800Z 01012KT 10SM -SN SCT031 OVC250 M09/M10 A2985 RMK SC4CI3 SLP148

CYXE;2007-03-01 19:00;CYXE 011900Z 36011KT 12SM -SN FEW037 BKN250 M09/M10 A2985 RMK SC2CI2 SLP148

CYXE;2007-03-01 20:00;CYXE 012000Z 36012KT 12SM -SN BKN037 OVC250 M08/M10 A2986 RMK SC5CI3 SLP149

CYXE;2007-03-01 21:00;CYXE 012100Z 36009KT 15SM -SN BKN020 OVC250 M08/M10 A2987 RMK SC6CI2 SLP152

CYXE;2007-03-01 22:00;CYXE 012200Z 36012KT 10SM SCT030 OVC250 M07/M09 A2988 RMK SC3CI4 SLP155

CYXE;2007-03-01 22:13;CYXE 012213Z 36014KT 3SM IC SCT030 OVC250 M07/ RMK SC3CI4

CYXE;2007-03-01 23:00;CYXE 012300Z 35012KT 8SM FEW060 BKN250 M07/M09 A2989 RMK SC2CI4 IC SLP160

CYXE;2007-03-02 00:00;CYXE 020000Z 34011KT 10SM FEW045 BKN250 M07/M09 A2990 RMK SC2CI4 IC SLP166

CYXE;2007-03-02 01:00;CYXE 020100Z 34008KT 4SM IC FEW035 OVC250 M08/M10 A2992 RMK SC2CI5 SLP171

CYXE;2007-03-02 02:00;CYXE 020200Z 31009KT 3SM IC SCT030 OVC250 M10/M11 A2994 RMK SC3CI3 SLP177

CYXE;2007-03-02 02:16;CYXE 020216Z 31010KT 2 1/2SM -SN SCT030 OVC250 M10/ RMK SC4CI3

CYXE;2007-03-02 03:00;CYXE 020300Z 31011KT 2SM -SN FEW020 OVC250 M09/M10 A2995 RMK SC2CI5 SLP181

CYXE;2007-03-02 03:37;CYXE 020337Z 31010KT 3SM -SN SCT030 OVC250 M10/ RMK SC3CI4

CYXE;2007-03-02 04:00;CYXE 020400Z 32012KT 5SM -SN FEW030 BKN250 M10/M11 A2995 RMK SC2CI2 SLP183

CYXE;2007-03-02 05:00;CYXE 020500Z 32011KT 10SM BKN250 M11/M13 A2996 RMK CI2 IC SLP184

CYXE;2007-03-02 06:00;CYXE 020600Z 32010KT 10SM -SN FEW015 BKN079 OVC250 M12/M12 A2998 RMK SC1AC6CI2 SLP191

CYXE;2007-03-02 07:00;CYXE 020700Z 32008KT 6SM -SN OVC060 M12/M13 A2999 RMK SC8 SLP194

CYXE;2007-03-02 08:00;CYXE 020800Z 32012KT 4SM -SN OVC042 M12/M13 A3000 RMK SC8 SLP200

CYXE;2007-03-02 09:00;CYXE 020900Z 32010KT 10SM -SN OVC032 M12/M13 A3002 RMK SC6 SLP205

CYXE;2007-03-02 10:00;CYXE 021000Z 32011KT 6SM -SN OVC056 M12/M13 A3003 RMK SC6 SLP210

CYXE;2007-03-02 11:00;CYXE 021100Z 32011KT 4SM -SN DRSN OVC046 M11/M13 A3006 RMK SC6 SLP217

CYXE;2007-03-02 12:00;CYXE 021200Z 32014KT 3SM -SN DRSN OVC047 M12/M13 A3007 RMK SC7 SLP223

CYXE;2007-03-02 13:00;CYXE 021300Z 32012KT 6SM -SN DRSN OVC015 M13/M14 A3009 RMK SC5 SLP229

CYXE;2007-03-02 14:00;CYXE 021400Z 32012KT 10SM -SN BKN023 OVC085 M13/M15 A3012 RMK SC5AS3 SLP239

CYXE;2007-03-02 15:00;CYXE 021500Z 32011KT 15SM BKN021 OVC094 M14/M16 A3014 RMK SC5AS3 SLP251

CYXE;2007-03-02 16:00;CYXE 021600Z 31010KT 15SM BKN023 BKN095 OVC250 M15/M17 A3017 RMK SC5AS2CI0 SLP259

CYXE;2007-03-02 17:00;CYXE 021700Z 32011KT 15SM SCT023 SCT095 OVC250 M14/M16 A3019 RMK SC3AS1CI0 SLP265

CYXE;2007-03-02 18:00;CYXE 021800Z 31013KT 15SM BKN250 M13/M15 A3021 RMK CI2 SLP273

CYXE;2007-03-02 19:00;CYXE 021900Z 32010KT 15SM SCT250 M11/M13 A3021 RMK CI2 SLP276

CYXE;2007-03-02 20:00;CYXE 022000Z 31011KT 15SM SKC M10/M13 A3022 RMK SLP278

CYXE;2007-03-02 21:00;CYXE 022100Z 31010KT 15SM SKC M09/M12 A3023 RMK SLP280

CYXE;2007-03-02 22:00;CYXE 022200Z 31010KT 15SM FEW250 M09/M12 A3025 RMK CI1 SLP286

CYXE;2007-03-02 23:00;CYXE 022300Z 31009KT 15SM FEW250 M10/M13 A3026 RMK CI1 SLP290

CYXE;2007-03-03 00:00;CYXE 030000Z 31010KT 15SM SKC M11/M14 A3028 RMK SLP296

CYXE;2007-03-03 01:00;CYXE 030100Z 31010KT 15SM FEW250 M13/M15 A3028 RMK CI1 SLP297

CYXE;2007-03-03 02:00;CYXE 030200Z 32008KT 15SM SKC M16/M17 A3028 RMK SLP297

CYXE;2007-03-03 03:00;CYXE 030300Z 30007KT 15SM SKC M18/M19 A3028 RMK SLP304

CYXE;2007-03-03 04:00;CYXE 030400Z 28007KT 15SM SKC M19/M19 A3028 RMK SLP305

CYXE;2007-03-03 05:00;CYXE 030500Z 26006KT 15SM SKC M20/M20 A3029 RMK SLP306

CYXE;2007-03-03 06:00;CYXE 030600Z 22008KT 15SM SKC M21/M22 A3028 RMK SLP306

CYXE;2007-03-03 07:00;CYXE 030700Z 20006KT 15SM SKC M20/M20 A3026 RMK SLP299

CYXE;2007-03-03 08:00;CYXE 030800Z 19005KT 15SM SKC M21/M22 A3025 RMK SLP296

CYXE;2007-03-03 09:00;CYXE 030900Z 19006KT 15SM SKC M21/M22 A3024 RMK SLP289

CYXE;2007-03-03 10:00;CYXE 031000Z 19005KT 15SM SCT002 M22/M23 A3022 RMK SF4 SLP283

CYXE;2007-03-03 10:40;CYXE 031040Z 19006KT 15SM BKN002 M21/ RMK ST6

CYXE;2007-03-03 11:00;CYXE 031100Z 19006KT 15SM BKN002 M21/M22 A3019 RMK ST4 SLP273

CYXE;2007-03-03 11:32;CYXE 031132Z 19005KT 15SM SCT002 M20/ RMK ST2

CYXE;2007-03-03 12:00;CYXE 031200Z 19006KT 15SM BKN002 M20/M21 A3016 RMK ST3 SLP261

CYXE;2007-03-03 13:00;CYXE 031300Z 18005KT 15SM SCT002 BKN250 M19/M20 A3013 RMK SF2CI2 SLP251

CYXE;2007-03-03 14:00;CYXE 031400Z 16008KT 15SM BKN250 M17/M18 A3009 RMK CI3 SLP240

CYXE;2007-03-03 15:00;CYXE 031500Z 18009KT 15SM BKN250 M15/M16 A3006 RMK CI4 SLP229

CYXE;2007-03-03 16:00;CYXE 031600Z 18013KT 15SM OVC250 M13/M14 A3003 RMK CS5 SLP220

CYXE;2007-03-03 17:00;CYXE 031700Z 19011KT 15SM FEW120 BKN250 M12/M14 A2999 RMK AC1CI2 SLP206

CYXE;2007-03-03 18:00;CYXE 031800Z 20014KT 15SM SCT092 OVC250 M10/M13 A2996 RMK AS3CS4 SLP193

CYXE;2007-03-03 19:00;CYXE 031900Z 19011KT 15SM BKN072 BKN250 M07/M11 A2993 RMK AC5CI1 SLP184

CYXE;2007-03-03 20:00;CYXE 032000Z 22015KT 15SM BKN060 BKN090 M05/M09 A2990 RMK SC6AC1 SLP174

CYXE;2007-03-03 21:00;CYXE 032100Z CCA 25014G19KT 15SM DRSN SCT060 BKN085 M05/M08 A2990 RMK SC4AC2 SLP168

CYXE;2007-03-03 22:00;CYXE 032200Z 24013KT 15SM BKN094 M05/M08 A2990 RMK AC6 SLP167

CYXE;2007-03-03 23:00;CYXE 032300Z 24011KT 15SM BKN064 M04/M06 A2990 RMK SC6 SLP170

CYXE;2007-03-04 00:00;CYXE 040000Z 27008KT 15SM BKN080 M02/M06 A2993 RMK AC5 SLP176

CYXE;2007-03-04 01:00;CYXE 040100Z 27009KT 15SM FEW080 M06/M09 A2995 RMK AC1 SLP182

CYXE;2007-03-04 02:00;CYXE 040200Z 26009KT 15SM FEW250 M10/M11 A2996 RMK CI1 SLP186

CYXE;2007-03-04 03:00;CYXE 040300Z 25009KT 15SM SCT250 M11/M12 A2997 RMK CI2 SLP193

CYXE;2007-03-04 04:00;CYXE 040400Z 28004KT 15SM FEW250 M10/M11 A2999 RMK CI2 SLP200

CYXE;2007-03-04 05:00;CYXE 040500Z 24009KT 15SM FEW080 FEW250 M10/M11 A3001 RMK AC1CI1 SLP206

CYXE;2007-03-04 06:00;CYXE 040600Z 24012KT 15SM FEW090 FEW250 M10/M11 A3002 RMK AC1CI1 SLP207

CYXE;2007-03-04 07:00;CYXE 040700Z 28009KT 15SM FEW086 M10/M12 A3005 RMK AC1 SLP215

CYXE;2007-03-04 08:00;CYXE 040800Z 27006KT 15SM SCT089 M11/M11 A3008 RMK AC3 SLP225

CYXE;2007-03-04 09:00;CYXE 040900Z 25006KT 15SM SCT086 M12/M13 A3010 RMK AC3 SLP230

CYXE;2007-03-04 10:00;CYXE 041000Z 03010KT 15SM BKN084 M11/M14 A3011 RMK AC6 SLP235

CYXE;2007-03-04 11:00;CYXE 041100Z 04012KT 15SM BKN085 M13/M16 A3014 RMK AC7 SLP243

CYXE;2007-03-04 12:00;CYXE 041200Z 03014KT 15SM BKN090 M15/M17 A3016 RMK AC7 SLP252

CYXE;2007-03-04 13:00;CYXE 041300Z 04017KT 15SM OVC076 M15/M18 A3019 RMK AC8 SLP261

CYXE;2007-03-04 14:00;CYXE 041400Z 04015KT 15SM DRSN FEW025 OVC070 M16/M19 A3021 RMK SC2AC6 SLP268

CYXE;2007-03-04 14:13;CYXE 041413Z 04016KT 15SM -SN DRSN SCT025 OVC065 M16/ RMK SC4SC4

CYXE;2007-03-04 15:00;CYXE 041500Z 03014KT 15SM -SN DRSN SCT025 OVC060 M17/M19 A3026 RMK SC3SC4 SLP293

CYXE;2007-03-04 16:00;CYXE 041600Z 04011KT 15SM -SN SCT027 BKN082 BKN250 M17/M19 A3028 RMK SC3AC3CI1 SLP300

CYXE;2007-03-04 17:00;CYXE 041700Z 05011KT 10SM -SN DRSN SCT025 BKN085 M17/M19 A3029 RMK SC4AC2 SLP302

CYXE;2007-03-04 17:53;CYXE 041753Z 04011KT 15SM SCT050 OVC085 M16/ RMK SC4AC3

CYXE;2007-03-04 18:00;CYXE 041800Z 04010KT 15SM FEW015 BKN045 OVC085 M17/M19 A3030 RMK SC2SC3AC2 SLP307

CYXE;2007-03-04 19:00;CYXE 041900Z 05008KT 15SM FEW025 BKN045 OVC090 M17/M19 A3033 RMK SC2SC4AC1 SLP317

CYXE;2007-03-04 20:00;CYXE 042000Z 05008KT 15SM BKN045 OVC090 M17/M21 A3033 RMK SC6AC2 SLP317

CYXE;2007-03-04 21:00;CYXE 042100Z 05010KT 15SM OVC043 M17/M21 A3035 RMK SC7 SLP325

CYXE;2007-03-04 22:00;CYXE 042200Z 07011KT 15SM BKN043 M18/M23 A3035 RMK SC7 SLP326

CYXE;2007-03-04 23:00;CYXE 042300Z 07011KT 15SM OVC043 M18/M23 A3036 RMK SC8 SLP330

CYXE;2007-03-05 00:00;CYXE 050000Z 07010KT 15SM OVC043 M18/M23 A3039 RMK SC8 SLP340

CYXE;2007-03-05 01:00;CYXE 050100Z 07010KT 15SM OVC045 M18/M23 A3039 RMK SC8 SLP343

CYXE;2007-03-05 02:00;CYXE 050200Z 07012KT 15SM -SN OVC035 M18/M23 A3040 RMK SC8 SLP346

CYXE;2007-03-05 03:00;CYXE 050300Z 09010KT 15SM -SN OVC037 M18/M23 A3041 RMK SC8 SLP349

CYXE;2007-03-05 04:00;CYXE 050400Z 09011KT 15SM -SN OVC035 M18/M23 A3041 RMK SC8 SLP349

CYXE;2007-03-05 04:12;CYXE 050412Z 09010KT 15SM OVC035 M18/ RMK SC8

CYXE;2007-03-05 05:00;CYXE 050500Z 10010KT 15SM OVC035 M18/M23 A3041 RMK SC8 SLP349

CYXE;2007-03-05 06:00;CYXE 050600Z 13012KT 15SM OVC033 M18/M23 A3039 RMK SC8 SLP344

CYXE;2007-03-05 07:00;CYXE 050700Z 13008KT 15SM OVC025 M18/M24 A3040 RMK SC8 SLP348

CYXE;2007-03-05 08:00;CYXE 050800Z 12009KT 15SM BKN023 OVC081 M18/M24 A3040 RMK SC6AC2 SLP348

CYXE;2007-03-05 09:00;CYXE 050900Z 11010KT 15SM BKN021 OVC092 M18/M24 A3039 RMK SC6AC2 SLP345

CYXE;2007-03-05 10:00;CYXE 051000Z 12010KT 15SM OVC023 M18/M23 A3039 RMK SC8 SLP345

CYXE;2007-03-05 11:00;CYXE 051100Z 10012KT 15SM OVC021 M18/M23 A3039 RMK SC8 SLP343

CYXE;2007-03-05 12:00;CYXE 051200Z 11011KT 15SM OVC021 M18/M23 A3039 RMK SC8 SLP345

CYXE;2007-03-05 12:29;CYXE 051229Z 11011KT 10SM -SN BKN017 OVC094 M18/ RMK SC6AC2

CYXE;2007-03-05 13:00;CYXE 051300Z 11012KT 10SM -SN OVC017 M17/M22 A3038 RMK SC8 SLP342

CYXE;2007-03-05 14:00;CYXE 051400Z 11011KT 10SM -SN OVC013 M17/M22 A3037 RMK SC8 SLP337

CYXE;2007-03-05 15:00;CYXE 051500Z 11013KT 4SM -SN OVC013 M17/M21 A3035 RMK SC8 SLP330

CYXE;2007-03-05 16:00;CYXE 051600Z 12014KT 5SM -SN DRSN OVC015 M16/M20 A3034 RMK SC8 SLP325

CYXE;2007-03-05 17:00;CYXE 051700Z 12011KT 8SM -SN DRSN OVC017 M16/M19 A3034 RMK SC8 SLP328

CYXE;2007-03-05 18:00;CYXE 051800Z 12010G16KT 8SM -SN DRSN OVC017 M15/M18 A3033 RMK SC8 SLP322

CYXE;2007-03-05 19:00;CYXE 051900Z 13014KT 15SM -SN DRSN OVC015 M14/M18 A3032 RMK SC8 SLP317

CYXE;2007-03-05 20:00;CYXE 052000Z 12015KT 15SM -SN DRSN OVC015 M14/M17 A3030 RMK SC8 SLP312

CYXE;2007-03-05 21:00;CYXE 052100Z 12015G21KT 4SM -SN DRSN OVC013 M14/M17 A3029 RMK SC8 SLP306

CYXE;2007-03-05 21:39;CYXE 052139Z 11016KT 2 1/2SM -SN DRSN OVC013 M14/ RMK SC8

CYXE;2007-03-05 21:48;CYXE 052148Z 12015G20KT 1 1/2SM -SN DRSN OVC013 M14/ RMK SN2SC6

CYXE;2007-03-05 22:00;CYXE 052200Z 12016KT 1 1/2SM -SN DRSN OVC013 M14/M16 A3027 RMK SN3ST5 SLP302

CYXE;2007-03-05 22:06;CYXE 052206Z 13016KT 1SM R09/P6000FT/D -SN DRSN OVC013 M14/ RMK SN4ST4

CYXE;2007-03-05 22:21;CYXE 052221Z 12018KT 1SM R09/P6000FT/D -SN DRSN VV008 M14/ RMK SN8

CYXE;2007-03-05 22:39;CYXE 052239Z 12014G19KT 1SM R09/P6000FT/U -SN DRSN OVC014 M14/ RMK SN6ST2

CYXE;2007-03-05 23:00;CYXE 052300Z 12016KT 1 1/2SM -SN DRSN OVC014 M14/M16 A3027 RMK SN3ST5 SLP301

CYXE;2007-03-06 00:00;CYXE 060000Z 13013G18KT 2SM -SN DRSN OVC014 M14/M16 A3025 RMK SN2ST6 SLP294

CYXE;2007-03-06 01:00;CYXE 060100Z 13012KT 2SM -SN DRSN OVC011 M14/M16 A3023 RMK SN2ST6 SLP287

CYXE;2007-03-06 02:00;CYXE 060200Z 13014KT 4SM -SN DRSN OVC011 M14/M16 A3022 RMK SC8 SLP283

CYXE;2007-03-06 03:00;CYXE 060300Z 13010KT 4SM -SN DRSN OVC010 M14/M16 A3021 RMK SC8 SLP277

CYXE;2007-03-06 04:00;CYXE 060400Z 14009KT 4SM -SN DRSN OVC010 M14/M15 A3020 RMK SC8 SLP274

CYXE;2007-03-06 05:00;CYXE 060500Z 11009KT 5SM -SN DRSN OVC010 M14/M16 A3020 RMK SC8 SLP274

CYXE;2007-03-06 06:00;CYXE 060600Z 12007KT 12SM -SN OVC010 M14/M16 A3018 RMK SC8 SLP268

CYXE;2007-03-06 06:37;CYXE 060637Z 11007KT 15SM -SN OVC009 M14/ RMK SC8

CYXE;2007-03-06 07:00;CYXE 060700Z 09008KT 12SM -SN OVC010 M14/M15 A3018 RMK SC8 SLP268

CYXE;2007-03-06 08:00;CYXE 060800Z 08008KT 15SM -SN OVC009 M14/M16 A3019 RMK SC8 SLP271

CYXE;2007-03-06 09:00;CYXE 060900Z 09006KT 10SM -SN OVC008 M14/M15 A3018 RMK SF8 BR SLP266

CYXE;2007-03-06 10:00;CYXE 061000Z 06009KT 8SM -SN OVC008 M14/M16 A3021 RMK SF8 BR SLP277

CYXE;2007-03-06 11:00;CYXE 061100Z 06010KT 15SM -SN OVC009 M15/M17 A3022 RMK SF8 SLP280

CYXE;2007-03-06 11:51;CYXE 061151Z 06007KT 15SM BKN007 OVC015 M15/ RMK SF6SC2

CYXE;2007-03-06 12:00;CYXE 061200Z 07008KT 15SM BKN007 OVC015 M15/M17 A3022 RMK SF6SC2 SLP281

CYXE;2007-03-06 13:00;CYXE 061300Z 05006KT 15SM OVC006 M15/M16 A3024 RMK SF8 SLP288

CYXE;2007-03-06 13:09;CYXE 061309Z 05006KT 12SM -SN OVC006 M15/ RMK SF8

CYXE;2007-03-06 14:00;CYXE 061400Z 05007KT 3SM -SN OVC008 M15/M16 A3027 RMK SF8 SLP297

CYXE;2007-03-06 14:38;CYXE 061438Z 07006KT 2 1/2SM -SN OVC009 M15/ RMK SF8

CYXE;2007-03-06 15:00;CYXE 061500Z 05006KT 2 1/2SM -SN SCT009 OVC015 M15/M17 A3029 RMK SF4SC4 SLP304

CYXE;2007-03-06 15:19;CYXE 061519Z 04006KT 3SM -SN SCT009 OVC015 M15/ RMK SF3SC5

CYXE;2007-03-06 16:00;CYXE 061600Z 04005KT 3SM -SN FEW009 OVC015 M15/M17 A3031 RMK SF2SC6 SLP311

CYXE;2007-03-06 17:00;CYXE 061700Z 07005KT 5SM -SN OVC015 M15/M17 A3030 RMK SC6 SLP310

CYXE;2007-03-06 18:00;CYXE 061800Z 04004KT 8SM -SN SCT024 OVC250 M14/M17 A3031 RMK SC4CI2 SLP313

CYXE;2007-03-06 18:28;CYXE 061828Z 04006KT 8SM -SN FEW013 BKN024 OVC250 M14/ RMK SC1SC5CI2

CYXE;2007-03-06 19:00;CYXE 061900Z 05005KT 8SM -SN FEW013 BKN024 OVC250 M14/M16 A3032 RMK SC1SC6CI1 SLP316

CYXE;2007-03-06 20:00;CYXE 062000Z 07006KT 8SM BKN024 OVC250 M13/M16 A3032 RMK SC5CI0 SLP315

CYXE;2007-03-06 21:00;CYXE 062100Z 07007KT 8SM -SN BKN020 OVC250 M13/M16 A3031 RMK SC5CI0 SLP310

CYXE;2007-03-06 22:00;CYXE 062200Z 10005KT 15SM BKN018 BKN090 OVC250 M13/M15 A3030 RMK SC5AC1CI0 SLP308

CYXE;2007-03-06 22:35;CYXE 062235Z 09006KT 15SM FEW008 BKN016 BKN080 OVC250 M12/ RMK SF2SC3AC2CI1

CYXE;2007-03-06 23:00;CYXE 062300Z 13005KT 15SM FEW008 BKN019 OVC080 M12/M15 A3030 RMK SF1SC6AC1 SLP306

CYXE;2007-03-07 00:00;CYXE 070000Z 13005KT 15SM BKN019 OVC086 M12/M15 A3029 RMK SC6AC2 SLP303

CYXE;2007-03-07 01:00;CYXE 070100Z 15006KT 15SM BKN091 OVC250 M13/M15 A3028 RMK AC6CI1 SLP300

CYXE;2007-03-07 02:00;CYXE 070200Z 14006KT 15SM SCT018 OVC089 M13/M16 A3028 RMK SC3AC5 SLP301

CYXE;2007-03-07 03:00;CYXE 070300Z 14005KT 15SM FEW089 OVC220 M14/M16 A3026 RMK AC2CI4 SLP295

CYXE;2007-03-07 04:00;CYXE 070400Z 15006KT 15SM OVC150 M14/M16 A3026 RMK AC8 SLP294

CYXE;2007-03-07 05:00;CYXE 070500Z 14005KT 15SM FEW090 BKN220 M14/M17 A3024 RMK AC2CI2 SLP289

CYXE;2007-03-07 06:00;CYXE 070600Z 14006KT 15SM FEW095 BKN220 M15/M17 A3020 RMK AC2CI2 SLP273

CYXE;2007-03-07 07:00;CYXE 070700Z 16004KT 15SM SCT220 M15/M17 A3018 RMK CI2 SLP269

CYXE;2007-03-07 08:00;CYXE 070800Z 14003KT 15SM FEW030 SCT220 M15/M17 A3016 RMK SC1CI2 SLP261

CYXE;2007-03-07 09:00;CYXE 070900Z 12007KT 15SM FEW030 BKN220 M15/M17 A3012 RMK SC1CI3 SLP245

CYXE;2007-03-07 10:00;CYXE 071000Z 14005KT 15SM OVC220 M14/M16 A3009 RMK CI6 SLP235

CYXE;2007-03-07 11:00;CYXE 071100Z 16008KT 15SM BKN220 M13/M15 A3004 RMK CI4 SLP220

CYXE;2007-03-07 12:00;CYXE 071200Z 16008KT 15SM FEW015 BKN220 M13/M15 A3001 RMK SF1CI3 SLP206

CYXE;2007-03-07 13:00;CYXE 071300Z 15007KT 15SM FEW015 BKN220 M13/M14 A2998 RMK SF1CI2 SLP196

CYXE;2007-03-07 13:25;CYXE 071325Z 11006KT 15SM SCT007 OVC220 M13/ RMK SF2CI2

CYXE;2007-03-07 14:00;CYXE 071400Z 11008KT 15SM SCT007 OVC220 M14/M15 A2995 RMK SF3CI2 SLP188

CYXE;2007-03-07 15:00;CYXE 071500Z 12007KT 10SM OVC220 M13/M15 A2993 RMK CI6 BR SLP181

CYXE;2007-03-07 16:00;CYXE 071600Z 15007KT 12SM OVC220 M11/M13 A2990 RMK CI6 BR SLP169

CYXE;2007-03-07 17:00;CYXE 071700Z 15007KT 15SM OVC220 M08/M10 A2988 RMK CI4 SLP163

CYXE;2007-03-07 18:00;CYXE 071800Z 16009KT 15SM BKN220 M06/M08 A2985 RMK CI2 SLP146

CYXE;2007-03-07 19:00;CYXE 071900Z 17012KT 15SM BKN220 M03/M06 A2981 RMK CI1 SLP134

CYXE;2007-03-07 20:00;CYXE 072000Z 18014KT 15SM BKN220 M02/M05 A2977 RMK CI1 SLP123

CYXE;2007-03-07 21:00;CYXE 072100Z 17013KT 15SM SCT220 M00/M04 A2973 RMK CI0 SLP102

CYXE;2007-03-07 22:00;CYXE 072200Z 18010KT 15SM FEW220 01/M03 A2971 RMK CI0 SLP096

CYXE;2007-03-07 23:00;CYXE 072300Z 17010KT 15SM FEW220 02/M02 A2967 RMK CI0 SLP084

CYXE;2007-03-08 00:00;CYXE 080000Z 17009KT 15SM FEW220 02/M01 A2964 RMK CI0 SLP070

CYXE;2007-03-08 01:00;CYXE 080100Z 18010KT 15SM FEW100 SCT220 01/M01 A2961 RMK AC1CI1 SLP061

CYXE;2007-03-08 02:00;CYXE 080200Z 17010KT 15SM SCT220 00/M02 A2959 RMK CI1 SLP052

CYXE;2007-03-08 03:00;CYXE 080300Z 18009KT 15SM FEW220 00/M02 A2956 RMK CI1 SLP043

CYXE;2007-03-08 04:00;CYXE 080400Z 17009KT 15SM SKC M00/M02 A2954 RMK SLP035

CYXE;2007-03-08 05:00;CYXE 080500Z 17006KT 15SM SKC 00/M02 A2952 RMK SLP029

CYXE;2007-03-08 06:00;CYXE 080600Z 19005KT 15SM SKC M01/M02 A2950 RMK SLP018

CYXE;2007-03-08 07:00;CYXE 080700Z 20005KT 15SM SKC M02/M04 A2948 RMK SLP011

CYXE;2007-03-08 08:00;CYXE 080800Z 21008KT 15SM SKC M03/M03 A2946 RMK SLP007

CYXE;2007-03-08 09:00;CYXE 080900Z 22010KT 15SM SKC M05/M05 A2946 RMK SLP003

CYXE;2007-03-08 10:00;CYXE 081000Z 23008KT 15SM SCT250 M05/M06 A2945 RMK CI0 SLP000

CYXE;2007-03-08 11:00;CYXE 081100Z 21005KT 15SM FEW090 SCT280 M05/M06 A2944 RMK AC2CI0 SLP998

CYXE;2007-03-08 12:00;CYXE 081200Z 23007KT 15SM FEW280 M05/M06 A2945 RMK CI1 SLP999

CYXE;2007-03-08 13:00;CYXE 081300Z 23007KT 15SM BKN280 M07/M07 A2945 RMK CI2 SLP999

CYXE;2007-03-08 14:00;CYXE 081400Z 25007KT 15SM BKN280 M07/M07 A2945 RMK CI2 SLP999

CYXE;2007-03-08 15:00;CYXE 081500Z 00000KT 15SM BKN280 M06/M06 A2945 RMK CI2 SLP001

CYXE;2007-03-08 16:00;CYXE 081600Z 21008KT 15SM BKN280 M06/M06 A2946 RMK CI2 SLP005

CYXE;2007-03-08 17:00;CYXE 081700Z 26007KT 15SM SCT280 M03/M05 A2947 RMK CI2 SLP007

CYXE;2007-03-08 18:00;CYXE 081800Z 23006KT 15SM FEW280 M01/M03 A2947 RMK CI1 SLP004

CYXE;2007-03-08 19:00;CYXE 081900Z 30003KT 15SM FEW120 FEW280 M01/M03 A2948 RMK AC1CI1 SLP007

CYXE;2007-03-08 20:00;CYXE 082000Z 28009KT 15SM FEW120 FEW280 M01/M03 A2951 RMK AC2CI0 SLP017

CYXE;2007-03-08 21:00;CYXE 082100Z 30015G20KT 15SM BKN100 M01/M03 A2951 RMK AC6 SLP023

CYXE;2007-03-08 22:00;CYXE 082200Z 30017KT 15SM SCT095 OVC250 M00/M03 A2953 RMK AC4CI2 SLP028

CYXE;2007-03-08 23:00;CYXE 082300Z 30017KT 15SM SCT100 OVC250 01/M01 A2957 RMK AC3CI2 SLP040

CYXE;2007-03-09 00:00;CYXE 090000Z 32016KT 15SM FEW052 BKN062 OVC078 02/00 A2959 RMK SC2SC6AC1 SLP046

CYXE;2007-03-09 00:05;CYXE 090005Z 31018KT 15SM -SHRA FEW048 BKN062 OVC078 02/ RMK SC2SC5AC1

CYXE;2007-03-09 00:48;CYXE 090048Z 30017KT 10SM -SHRA BKN022 OVC065 02/ RMK SC6AC2

CYXE;2007-03-09 01:00;CYXE 090100Z 30019KT 6SM -SHRA BKN022 OVC067 02/01 A2963 RMK SC6AC2 SLP061

CYXE;2007-03-09 01:43;CYXE 090143Z 30012KT 15SM BKN022 BKN065 BKN088 02/ RMK SC4SC1AC1

CYXE;2007-03-09 02:00;CYXE 090200Z 30011KT 15SM FEW024 SCT065 BKN088 02/01 A2965 RMK SC2SC2AC2 SLP067

CYXE;2007-03-09 03:00;CYXE 090300Z 29015KT 15SM SCT089 02/00 A2968 RMK AC3 SLP078

CYXE;2007-03-09 03:48;CYXE 090348Z 29011KT 15SM FEW099 01/ RMK AC2

CYXE;2007-03-09 04:00;CYXE 090400Z 29011KT 15SM FEW099 01/M01 A2969 RMK AC1 SLP083

CYXE;2007-03-09 05:00;CYXE 090500Z 27006KT 15SM SKC M01/M03 A2971 RMK SLP087

CYXE;2007-03-09 06:00;CYXE 090600Z 27010KT 15SM SKC M03/M04 A2972 RMK SLP094

CYXE;2007-03-09 07:00;CYXE 090700Z 27010KT 15SM SKC M04/M05 A2973 RMK SLP097

CYXE;2007-03-09 08:00;CYXE 090800Z 27010KT 15SM SKC M04/M05 A2975 RMK SLP101

CYXE;2007-03-09 09:00;CYXE 090900Z 26010KT 15SM SKC M06/M07 A2975 RMK SLP106

CYXE;2007-03-09 10:00;CYXE 091000Z 27006KT 15SM SCT260 M07/M08 A2975 RMK CI0 SLP105

CYXE;2007-03-09 11:00;CYXE 091100Z 27007KT 15SM BKN260 M07/M08 A2975 RMK CI2 SLP106

CYXE;2007-03-09 12:00;CYXE 091200Z 26007KT 15SM BKN260 M08/M09 A2976 RMK CI2 SLP108

CYXE;2007-03-09 13:00;CYXE 091300Z 23008KT 15SM BKN260 M09/M10 A2977 RMK CI2 SLP109

CYXE;2007-03-09 14:00;CYXE 091400Z 22007KT 15SM FEW090 OVC260 M06/M07 A2978 RMK AC2CI4 SLP115

CYXE;2007-03-09 15:00;CYXE 091500Z 21006KT 15SM FEW095 OVC260 M06/M07 A2978 RMK AS2CI5 SLP114

CYXE;2007-03-09 16:00;CYXE 091600Z 19002KT 12SM FEW095 BKN260 M03/M05 A2979 RMK AS1CI2 BR SLP116

CYXE;2007-03-09 17:00;CYXE 091700Z 23008KT 15SM SCT260 M01/M03 A2980 RMK CI1 SLP118

CYXE;2007-03-09 18:00;CYXE 091800Z 22009KT 15SM FEW260 M00/M02 A2981 RMK CI1 SLP123

CYXE;2007-03-09 19:00;CYXE 091900Z 23006KT 15SM SKC 01/M02 A2980 RMK SLP119

CYXE;2007-03-09 20:00;CYXE 092000Z 22005KT 15SM SKC 02/M02 A2979 RMK SLP117

CYXE;2007-03-09 21:00;CYXE 092100Z 24008KT 15SM SKC 02/M01 A2979 RMK SLP118

CYXE;2007-03-09 22:00;CYXE 092200Z 22008KT 15SM SKC 02/M01 A2980 RMK SLP119

CYXE;2007-03-09 23:00;CYXE 092300Z 22008KT 15SM SKC 03/M01 A2981 RMK SLP123

CYXE;2007-03-10 00:00;CYXE 100000Z 22008KT 15SM SKC 02/M01 A2981 RMK SLP126

CYXE;2007-03-10 01:00;CYXE 100100Z 21007KT 15SM SKC 02/M01 A2981 RMK SLP126

CYXE;2007-03-10 02:00;CYXE 100200Z 22008KT 15SM SKC M00/M02 A2982 RMK SLP129

CYXE;2007-03-10 03:00;CYXE 100300Z 22008KT 15SM SKC M02/M04 A2983 RMK SLP133

CYXE;2007-03-10 04:00;CYXE 100400Z 25009KT 15SM SKC M04/M05 A2985 RMK SLP138

CYXE;2007-03-10 05:00;CYXE 100500Z 23008KT 15SM SKC M05/M06 A2986 RMK SLP142

CYXE;2007-03-10 06:00;CYXE 100600Z 22009KT 15SM SKC M05/M06 A2986 RMK SLP140

CYXE;2007-03-10 07:00;CYXE 100700Z 23010KT 15SM SKC M05/M07 A2987 RMK SLP144

CYXE;2007-03-10 08:00;CYXE 100800Z 20006KT 15SM SKC M05/M06 A2988 RMK SLP147

CYXE;2007-03-10 09:00;CYXE 100900Z 21007KT 15SM FEW010 M06/M07 A2989 RMK SC1 SLP152

CYXE;2007-03-10 10:00;CYXE 101000Z 22007KT 15SM FEW010 M07/M08 A2990 RMK SC1 SLP153

CYXE;2007-03-10 11:00;CYXE 101100Z 19006KT 15SM FEW010 M06/M07 A2989 RMK SC1 SLP152

CYXE;2007-03-10 12:00;CYXE 101200Z 19007KT 15SM FEW010 M06/M07 A2990 RMK SF0 SLP154

CYXE;2007-03-10 13:00;CYXE 101300Z 20008KT 15SM FEW010 FEW090 M06/M08 A2990 RMK SF0AC1 SLP155

CYXE;2007-03-10 14:00;CYXE 101400Z 20006KT 15SM FEW090 M05/M07 A2990 RMK AC1 SLP154

CYXE;2007-03-10 15:00;CYXE 101500Z 21008KT 15SM SKC M03/M06 A2991 RMK SLP158

CYXE;2007-03-10 16:00;CYXE 101600Z 22013KT 15SM SKC M03/M05 A2993 RMK SLP164

CYXE;2007-03-10 17:00;CYXE 101700Z 23011KT 15SM SKC M02/M04 A2994 RMK SLP169

CYXE;2007-03-10 18:00;CYXE 101800Z 23008KT 15SM FEW250 M00/M03 A2995 RMK CI0 SLP170

CYXE;2007-03-10 19:00;CYXE 101900Z 26007KT 15SM FEW250 01/M02 A2995 RMK CI1 SLP173

CYXE;2007-03-10 20:00;CYXE 102000Z 26004KT 15SM FEW250 02/M01 A2995 RMK CI1 SLP173

CYXE;2007-03-10 21:00;CYXE 102100Z 23006KT 15SM SCT250 02/M01 A2995 RMK CI2 SLP173

CYXE;2007-03-10 22:00;CYXE 102200Z 22004KT 15SM FEW280 02/M01 A2994 RMK CI1 SLP168

CYXE;2007-03-10 23:00;CYXE 102300Z 24006KT 15SM FEW280 02/M01 A2993 RMK CI1 SLP165

CYXE;2007-03-11 00:00;CYXE 110000Z 23004KT 15SM FEW280 01/M01 A2995 RMK CI1 SLP170

CYXE;2007-03-11 01:00;CYXE 110100Z 20004KT 15SM FEW280 00/M02 A2995 RMK CI1 SLP171

CYXE;2007-03-11 02:00;CYXE 110200Z 24004KT 15SM SKC M00/M02 A2994 RMK SLP167

CYXE;2007-03-11 03:00;CYXE 110300Z 04004KT 15SM SKC M03/M04 A2994 RMK SLP169

CYXE;2007-03-11 04:00;CYXE 110400Z 11004KT 15SM SKC M02/M03 A2993 RMK SLP166

CYXE;2007-03-11 05:00;CYXE 110500Z 12004KT 15SM BKN280 M03/M04 A2991 RMK CI3 SLP160

CYXE;2007-03-11 06:00;CYXE 110600Z 09004KT 15SM BKN280 M03/M04 A2989 RMK CI3 SLP151

CYXE;2007-03-11 07:00;CYXE 110700Z 12005KT 15SM BKN280 M03/M04 A2986 RMK CI3 SLP139

CYXE;2007-03-11 08:00;CYXE 110800Z 09009KT 10SM OVC280 M02/M03 A2981 RMK CI3 BR SLP124

CYXE;2007-03-11 09:00;CYXE 110900Z 14007KT 15SM OVC280 M00/M02 A2980 RMK CI3 SLP115

CYXE;2007-03-11 10:00;CYXE 111000Z 16005KT 15SM SCT100 OVC280 M01/M02 A2976 RMK AC3CI2 SLP104

CYXE;2007-03-11 11:00;CYXE 111100Z 17006KT 15SM SCT100 OVC280 M01/M02 A2975 RMK AC3CI2 SLP100

CYXE;2007-03-11 12:00;CYXE 111200Z 15004KT 15SM SCT100 OVC280 M01/M02 A2975 RMK AC3CI2 SLP101

CYXE;2007-03-11 13:00;CYXE 111300Z 29002KT 15SM SCT100 OVC280 M05/M05 A2977 RMK AC3CI2 SLP106

CYXE;2007-03-11 14:00;CYXE 111400Z 04006KT 15SM FEW100 BKN280 M05/M06 A2977 RMK AC2CI2 SLP108

CYXE;2007-03-11 15:00;CYXE 111500Z 06006KT 15SM FEW091 BKN280 M04/M05 A2978 RMK AC2CI2 SLP115

CYXE;2007-03-11 16:00;CYXE 111600Z 04003KT 15SM FEW090 SCT280 M03/M04 A2979 RMK AC1CI1 SLP119

CYXE;2007-03-11 17:00;CYXE 111700Z 32004KT 15SM OVC280 M02/M04 A2982 RMK CI4 SLP127

CYXE;2007-03-11 18:00;CYXE 111800Z 30007KT 15SM OVC280 M02/M03 A2983 RMK CI5 SLP129

CYXE;2007-03-11 19:00;CYXE 111900Z 34007KT 15SM OVC280 M01/M03 A2985 RMK CI5 SLP136

CYXE;2007-03-11 20:00;CYXE 112000Z 35006KT 15SM OVC280 M01/M02 A2984 RMK CI5 SLP133

CYXE;2007-03-11 21:00;CYXE 112100Z 33005KT 15SM OVC280 M00/M02 A2986 RMK CI5 SLP137

CYXE;2007-03-11 22:00;CYXE 112200Z 35002KT 15SM FEW093 OVC280 00/M02 A2987 RMK AC2CI4 SLP143

CYXE;2007-03-11 23:00;CYXE 112300Z 04006KT 15SM FEW092 OVC280 00/M02 A2988 RMK AC2CI4 SLP145

CYXE;2007-03-12 00:00;CYXE 120000Z 07007KT 15SM FEW092 OVC280 M01/M03 A2987 RMK AC2CI2 SLP144

CYXE;2007-03-12 01:00;CYXE 120100Z 08004KT 15SM BKN280 M02/M04 A2986 RMK CI1 SLP140

CYXE;2007-03-12 02:00;CYXE 120200Z 08005KT 15SM FEW280 M03/M05 A2985 RMK CI1 SLP137

CYXE;2007-03-12 03:00;CYXE 120300Z 11005KT 15SM SKC M03/M03 A2983 RMK SLP132

CYXE;2007-03-12 04:00;CYXE 120400Z 10006KT 15SM SKC M02/M02 A2980 RMK SLP122

CYXE;2007-03-12 05:00;CYXE 120500Z 12010KT 15SM SKC M02/M03 A2975 RMK SLP107

CYXE;2007-03-12 06:00;CYXE 120600Z 13011G16KT 15SM OVC070 M01/M02 A2970 RMK AC8 SLP086

CYXE;2007-03-12 07:00;CYXE 120700Z 13012KT 10SM BKN070 M01/M02 A2965 RMK AC6 BR SLP070

CYXE;2007-03-12 08:00;CYXE 120800Z 13008KT 8SM FEW070 M01/M02 A2959 RMK AC1 PRESFR BR SLP048

CYXE;2007-03-12 09:00;CYXE 120900Z 16005KT 8SM FEW070 00/M01 A2954 RMK AC1 BR SLP028

CYXE;2007-03-12 10:00;CYXE 121000Z 14008KT 15SM SKC 01/M00 A2949 RMK SLP012

CYXE;2007-03-12 11:00;CYXE 121100Z 18004KT 15SM FEW250 01/00 A2945 RMK CI1 SLP999

CYXE;2007-03-12 12:00;CYXE 121200Z 18008KT 15SM SCT250 01/M00 A2942 RMK CI1 SLP988

CYXE;2007-03-12 13:00;CYXE 121300Z 20010KT 15SM BKN250 01/00 A2941 RMK CI2 SLP985

CYXE;2007-03-12 14:00;CYXE 121400Z 19008KT 15SM FEW100 BKN250 01/00 A2938 RMK AC1CI2 SLP974

CYXE;2007-03-12 15:00;CYXE 121500Z 27006KT 15SM FEW100 BKN250 01/01 A2938 RMK AC1CI4 SLP974

CYXE;2007-03-12 16:00;CYXE 121600Z 23012KT 15SM FEW093 BKN220 01/M00 A2936 RMK AC1CI4 SLP967

CYXE;2007-03-12 17:00;CYXE 121700Z 22007KT 15SM BKN220 02/00 A2936 RMK CI4 SLP967

CYXE;2007-03-12 18:00;CYXE 121800Z 25007KT 15SM BKN220 03/01 A2936 RMK CI3 SLP966

CYXE;2007-03-12 19:00;CYXE 121900Z 23011KT 15SM SCT220 03/01 A2937 RMK CI2 SLP967

CYXE;2007-03-12 20:00;CYXE 122000Z 28010KT 15SM FEW220 04/02 A2938 RMK CI2 SLP972

CYXE;2007-03-12 21:00;CYXE 122100Z 26010KT 15SM FEW220 06/02 A2934 RMK CI1 SLP957

CYXE;2007-03-12 22:00;CYXE 122200Z 27012KT 15SM FEW220 05/02 A2935 RMK CI1 SLP959

CYXE;2007-03-12 23:00;CYXE 122300Z 30013KT 15SM FEW220 06/02 A2940 RMK CI1 SLP974

CYXE;2007-03-13 00:00;CYXE 130000Z 32024G30KT 15SM SKC 03/00 A2944 RMK SLP991

CYXE;2007-03-13 01:00;CYXE 130100Z 31015KT 12SM FEW090 02/00 A2951 RMK AC2 ACC EMBD SLP014

CYXE;2007-03-13 02:00;CYXE 130200Z 32015KT 15SM FEW090 02/M00 A2955 RMK AC2 SLP028

CYXE;2007-03-13 03:00;CYXE 130300Z 30019KT 15SM BKN086 02/M00 A2963 RMK AC6 PRESRR SLP056

CYXE;2007-03-13 04:00;CYXE 130400Z 31014G19KT 15SM OVC100 01/M01 A2964 RMK AC8 SLP062

CYXE;2007-03-13 05:00;CYXE 130500Z 30018KT 15SM OVC073 00/M02 A2968 RMK AC8 SLP074

CYXE;2007-03-13 06:00;CYXE 130600Z 30017KT 15SM OVC080 M00/M03 A2971 RMK AC8 SLP085

CYXE;2007-03-13 07:00;CYXE 130700Z 30018KT 15SM OVC080 M01/M04 A2974 RMK AC8 SLP094

CYXE;2007-03-13 08:00;CYXE 130800Z 30018G24KT 15SM BKN090 M01/M05 A2977 RMK AC6 SLP106

CYXE;2007-03-13 09:00;CYXE 130900Z 32016KT 15SM SCT096 BKN220 M02/M06 A2978 RMK AC3CI2 SLP110

CYXE;2007-03-13 10:00;CYXE 131000Z 31013KT 15SM FEW095 BKN220 M03/M07 A2981 RMK AC2CI2 SLP118

CYXE;2007-03-13 11:00;CYXE 131100Z 31012KT 15SM SCT220 M05/M07 A2983 RMK CI1 SLP124

CYXE;2007-03-13 12:00;CYXE 131200Z 30009KT 15SM BKN220 M06/M08 A2985 RMK CI1 SLP135

CYXE;2007-03-13 13:00;CYXE 131300Z 27007KT 15SM FEW090 BKN220 M07/M10 A2986 RMK AC1CI1 SLP139

CYXE;2007-03-13 14:00;CYXE 131400Z 28009KT 15SM FEW090 BKN220 M08/M10 A2986 RMK AC1CI2 SLP140

CYXE;2007-03-13 15:00;CYXE 131500Z 28005KT 15SM SCT220 M08/M10 A2987 RMK CI2 SLP146

CYXE;2007-03-13 16:00;CYXE 131600Z 28007KT 15SM SCT220 M06/M09 A2987 RMK CI1 SLP145

CYXE;2007-03-13 17:00;CYXE 131700Z 26009KT 15SM FEW220 M04/M08 A2986 RMK CI1 SLP143

CYXE;2007-03-13 18:00;CYXE 131800Z 27010G15KT 15SM FEW220 M01/M06 A2986 RMK CI2 SLP137

CYXE;2007-03-13 19:00;CYXE 131900Z 28015G20KT 15SM FEW220 00/M06 A2985 RMK CI2 SLP135

CYXE;2007-03-13 20:00;CYXE 132000Z 28017KT 15SM FEW090 BKN220 01/M05 A2983 RMK AC1CI3 SLP130

CYXE;2007-03-13 21:00;CYXE 132100Z 30021KT 15SM FEW024 FEW090 BKN220 01/M06 A2982 RMK CU1AC1CI3 SLP126

CYXE;2007-03-13 22:00;CYXE 132200Z 28019G24KT 15SM FEW025 BKN220 01/M05 A2983 RMK CU1CI3 SLP127

CYXE;2007-03-13 23:00;CYXE 132300Z 28021G29KT 15SM FEW020 SCT042 BKN220 01/M06 A2984 RMK CU1SC2CI2 SLP131

CYXE;2007-03-14 00:00;CYXE 140000Z 30016G21KT 15SM FEW020 FEW090 FEW220 00/M06 A2986 RMK CU1AC1CI1 SLP140

CYXE;2007-03-14 01:00;CYXE 140100Z 29013KT 15SM FEW080 FEW220 M01/M06 A2987 RMK AC1CI1 SLP144

CYXE;2007-03-14 02:00;CYXE 140200Z 27010KT 15SM FEW220 M03/M07 A2988 RMK CI1 SLP147

CYXE;2007-03-14 03:00;CYXE 140300Z 27010KT 15SM SKC M03/M07 A2990 RMK SLP157

CYXE;2007-03-14 04:00;CYXE 140400Z 28010KT 15SM SKC M04/M07 A2990 RMK SLP160

CYXE;2007-03-14 05:00;CYXE 140500Z 27008KT 15SM SKC M05/M07 A2992 RMK SLP166

CYXE;2007-03-14 06:00;CYXE 140600Z 27007KT 15SM SKC M06/M08 A2993 RMK SLP167

CYXE;2007-03-14 06:34;CYXE 140634Z 01011G16KT 15SM FEW014 M07/ RMK SC1 WND SHFT AT 0631Z

CYXE;2007-03-14 07:00;CYXE 140700Z 01009KT 15SM FEW019 M07/M09 A2998 RMK SC1 SLP181

CYXE;2007-03-14 08:00;CYXE 140800Z 04011KT 15SM SKC M09/M13 A2998 RMK SLP183

CYXE;2007-03-14 09:00;CYXE 140900Z 04011KT 15SM SKC M10/M14 A2999 RMK SLP189

CYXE;2007-03-14 10:00;CYXE 141000Z 05009KT 15SM FEW093 M11/M15 A3001 RMK AC2 SLP194

CYXE;2007-03-14 11:00;CYXE 141100Z 06009KT 15SM SKC M12/M16 A3003 RMK SLP201

CYXE;2007-03-14 12:00;CYXE 141200Z 08011KT 15SM SCT120 M12/M16 A3006 RMK AC3 SLP213

CYXE;2007-03-14 13:00;CYXE 141300Z 09015KT 15SM BKN055 OVC086 M12/M17 A3008 RMK SC6AC2 SLP222

CYXE;2007-03-14 14:00;CYXE 141400Z 09017KT 15SM BKN045 OVC080 M13/M17 A3008 RMK SC6AC2 SLP220

CYXE;2007-03-14 15:00;CYXE 141500Z 08019KT 15SM BKN050 OVC090 M13/M15 A3005 RMK SC5AS3 SLP215

CYXE;2007-03-14 15:51;CYXE 141551Z 08018KT 12SM -SN BKN040 OVC080 M14/ RMK SC7AS1

CYXE;2007-03-14 16:00;CYXE 141600Z 08017KT 15SM -SN BKN035 OVC085 M14/M16 A3006 RMK SC7AS1 SLP216

CYXE;2007-03-14 16:51;CYXE 141651Z 07018KT 2SM -SN DRSN OVC020 M15/ RMK SN5SC3

CYXE;2007-03-14 17:00;CYXE 141700Z 08016KT 4SM R09/4500VP6000FT/U -SN DRSN FEW007 OVC030 M15/M17 A3007 RMK SF1SC7 SLP220

CYXE;2007-03-14 17:18;CYXE 141718Z 07020KT 3SM R09/3500VP6000FT/D -SN DRSN OVC008 M16/ RMK SN3SF5

CYXE;2007-03-14 17:28;CYXE 141728Z 06018KT 1SM R09/3000V5000FT/D -SN DRSN VV005 M16/ RMK SN8

CYXE;2007-03-14 17:47;CYXE 141747Z 06022G27KT 5/8SM R09/1200V2400FT/D -SN DRSN VV005 M17/ RMK SN8 OCNL BLSN

CYXE;2007-03-14 18:00;CYXE 141800Z 06017KT 5/8SM -SN DRSN VV005 M17/M18 A3011 RMK SN8 SLP238

CYXE;2007-03-14 18:14;CYXE 141814Z 07014KT 1SM -SN DRSN VV012 M17/ RMK SN8

CYXE;2007-03-14 18:54;CYXE 141854Z 06020KT 5/8SM -SN DRSN VV006 M17/ RMK SN8 OCNL BLSN

CYXE;2007-03-14 19:00;CYXE 141900Z 07019KT 5/8SM -SN DRSN VV005 M17/M19 A3010 RMK SN8 SLP236

CYXE;2007-03-14 19:44;CYXE 141944Z 08020KT 1/2SM SN DRSN VV005 M17/ RMK SN8 OCNL BLSN

CYXE;2007-03-14 20:00;CYXE 142000Z 08021KT 1/2SM SN DRSN VV003 M17/M18 A3009 RMK SN8 SLP234

CYXE;2007-03-14 20:49;CYXE 142049Z 07019KT 1/2SM SN DRSN VV006 M16/ RMK SN8

CYXE;2007-03-14 21:00;CYXE 142100Z CCA 06018KT 3/4SM -SN DRSN VV009 M17/M19 A3010 RMK SN8 /S01/ SLP239

CYXE;2007-03-14 21:24;CYXE 142124Z 05019KT 1/2SM SN DRSN VV006 M17/ RMK SN8

CYXE;2007-03-14 22:00;CYXE 142200Z 05018KT 1/2SM SN DRSN VV005 M17/M20 A3012 RMK SN8 SLP245

CYXE;2007-03-14 22:27;CYXE 142227Z CCA 05018KT 3/4SM R09/4000VP6000FT/D -SN DRSN VV007 M17/ RMK SN8 RESN

CYXE;2007-03-14 22:28;CYXE 142228Z 05018KT 3/4SM R09/4000VP6000FT/D -SN DRSN VV007 M17/ RMK SN8

CYXE;2007-03-14 23:00;CYXE 142300Z 05016KT 3/4SM R09/4500FT/D -SN DRSN VV005 M17/M20 A3016 RMK SN8 RESN SLP256

CYXE;2007-03-14 23:39;CYXE 142339Z CCA 04015KT 1/2SM SN DRSN VV004 M18/ RMK SN8

CYXE;2007-03-15 00:00;CYXE 150000Z 05015KT 1/2SM SN DRSN VV003 M18/M21 A3019 RMK SN8 /S03/ SLP270

CYXE;2007-03-15 00:17;CYXE 150017Z 05016KT 3/4SM -SN DRSN VV005 M18/ RMK SN8 RESN

CYXE;2007-03-15 00:45;CYXE 150045Z CCA 05015KT 3/4SM -SN DRSN VV008 M18/ RESN RMK SN8

CYXE;2007-03-15 01:00;CYXE 150100Z 05016KT 3/4SM -SN DRSN OVC015 M18/M21 A3022 RMK SN6SC2 RESN /S01/ SLP281

CYXE;2007-03-15 01:32;CYXE 150132Z 04015KT 2SM -SN DRSN OVC020 M17/ RMK SN3SC5

CYXE;2007-03-15 01:42;CYXE 150142Z 05013KT 3SM -SN DRSN OVC020 M17/ RMK SN3SC5

CYXE;2007-03-15 02:00;CYXE 150200Z 04014KT 2 1/2SM -SN DRSN BKN030 M18/M21 A3025 RMK SC6 SLP291

CYXE;2007-03-15 02:16;CYXE 150216Z 05011KT 4SM -SN DRSN BKN030 M18/ RMK SC6

CYXE;2007-03-15 03:00;CYXE 150300Z 05011KT 12SM -SN DRSN SCT030 M19/M24 A3027 RMK SC3 SLP301

CYXE;2007-03-15 03:11;CYXE 150311Z 06009KT 15SM DRSN SCT030 M19/ RMK SC3

CYXE;2007-03-15 04:00;CYXE 150400Z 03006KT 15SM FEW030 M20/M26 A3029 RMK SC2 SLP307

CYXE;2007-03-15 05:00;CYXE 150500Z 34006KT 15SM SKC M24/M28 A3032 RMK SLP316

CYXE;2007-03-15 06:00;CYXE 150600Z 36006KT 15SM SKC M26/M30 A3034 RMK SLP331

CYXE;2007-03-15 07:00;CYXE 150700Z 33007KT 15SM SKC M27/M31 A3035 RMK SLP336

CYXE;2007-03-15 08:00;CYXE 150800Z 32006KT 15SM FEW089 M27/M31 A3038 RMK AC1 SLP343

CYXE;2007-03-15 09:00;CYXE 150900Z 00000KT 15SM SKC M27/M30 A3039 RMK SLP348

CYXE;2007-03-15 10:00;CYXE 151000Z 00000KT 15SM SKC M26/M30 A3038 RMK SLP345

CYXE;2007-03-15 11:00;CYXE 151100Z 27003KT 15SM FEW220 M27/M32 A3039 RMK CI1 SLP351

CYXE;2007-03-15 12:00;CYXE 151200Z 23004KT 15SM FEW220 M26/M30 A3039 RMK CI0 SLP351

CYXE;2007-03-15 13:00;CYXE 151300Z 13002KT 15SM FEW110 BKN220 M26/M29 A3040 RMK AC1CI2 SLP354

CYXE;2007-03-15 14:00;CYXE 151400Z 20003KT 15SM FEW110 BKN250 M26/M29 A3040 RMK AC1CI2 SLP353

CYXE;2007-03-15 15:00;CYXE 151500Z 19005KT 15SM FEW110 M22/M26 A3039 RMK AC1 SLP348

CYXE;2007-03-15 16:00;CYXE 151600Z 18005KT 15SM FEW110 FEW250 M19/M24 A3039 RMK AC1CI0 SLP348

CYXE;2007-03-15 17:00;CYXE 151700Z 22005KT 15SM SCT005 BKN110 BKN250 M16/M22 A3040 RMK SF1AC1CI0 SLP350

CYXE;2007-03-15 17:27;CYXE 151727Z 23007KT 10SM OVC007 M16/ RMK SF6 BR

CYXE;2007-03-15 17:39;CYXE 151739Z 23006KT 10SM -SN OVC006 M15/ RMK SF6

CYXE;2007-03-15 17:45;CYXE 151745Z 23007KT 10SM -SN OVC004 M15/ RMK SF8

CYXE;2007-03-15 18:00;CYXE 151800Z 23006KT 6SM -SN OVC004 M14/M17 A3039 RMK ST8 SLP348

CYXE;2007-03-15 18:16;CYXE 151816Z 23008KT 10SM -SN OVC008 M13/ RMK ST8

CYXE;2007-03-15 19:00;CYXE 151900Z 24012KT 6SM -SN OVC008 M10/M12 A3038 RMK ST8 SLP343

CYXE;2007-03-15 20:00;CYXE 152000Z 23012KT 10SM -SN OVC010 M08/M10 A3035 RMK ST8 SLP336

CYXE;2007-03-15 21:00;CYXE 152100Z 23013KT 15SM BKN012 M07/M09 A3033 RMK SC6 SLP322

CYXE;2007-03-15 21:41;CYXE 152141Z 23012KT 15SM OVC021 M06/ RMK SC8

CYXE;2007-03-15 22:00;CYXE 152200Z 22013KT 15SM OVC018 M06/M09 A3032 RMK SC8 SLP319

CYXE;2007-03-15 23:00;CYXE 152300Z 22012KT 15SM OVC015 M05/M08 A3030 RMK SC8 SLP314

CYXE;2007-03-16 00:00;CYXE 160000Z 23012KT 15SM BKN015 M05/M08 A3029 RMK SC7 SLP306

CYXE;2007-03-16 00:44;CYXE 160044Z 22011KT 15SM SCT015 SCT080 M06/ RMK SC3AC1

CYXE;2007-03-16 01:00;CYXE 160100Z 21010KT 15SM FEW015 M06/M09 A3028 RMK SC2 SLP304

CYXE;2007-03-16 02:00;CYXE 160200Z 21010KT 15SM FEW020 M07/M09 A3028 RMK SC2 SLP302

CYXE;2007-03-16 03:00;CYXE 160300Z 20007KT 15SM SKC M07/M09 A3027 RMK SLP297

CYXE;2007-03-16 04:00;CYXE 160400Z 19005KT 15SM SKC M08/M10 A3025 RMK SLP292

CYXE;2007-03-16 05:00;CYXE 160500Z 20008KT 15SM SKC M09/M10 A3024 RMK SLP288

CYXE;2007-03-16 06:00;CYXE 160600Z 23005KT 15SM FEW010 M11/M12 A3025 RMK SF1 SLP289

CYXE;2007-03-16 07:00;CYXE 160700Z 22004KT 6SM BR SKC M12/M13 A3026 RMK SLP290

CYXE;2007-03-16 08:00;CYXE 160800Z 23007KT 6SM BR FEW089 M14/M14 A3025 RMK AC1 SLP287

CYXE;2007-03-16 09:00;CYXE 160900Z 22005KT 5SM BR SKC M14/M15 A3025 RMK SLP284

CYXE;2007-03-16 10:00;CYXE 161000Z 21003KT 4SM BR SKC M14/M15 A3025 RMK SLP286

CYXE;2007-03-16 10:44;CYXE 161044Z 23002KT 4SM BR SCT002 M14/ RMK SF3

CYXE;2007-03-16 10:47;CYXE 161047Z 22002KT 3SM BR BKN001 M14/ RMK SF5

CYXE;2007-03-16 11:00;CYXE 161100Z 23003KT 2SM BR OVC001 M14/M15 A3025 RMK FG2SF6 VIS SW-NW 1 SLP286

CYXE;2007-03-16 11:01;CYXE 161101Z 24003KT 3/4SM R09/P6000FT/U BR OVC001 M14/ RMK FG5SF3 VIS E 11/2 TOWER OBS

CYXE;2007-03-16 11:12;CYXE 161112Z 00000KT 1/2SM R09/P6000FT/D FZFG VV001 M14/ RMK FG8 TOWER OBS

CYXE;2007-03-16 11:16;CYXE 161116Z 00000KT 1/4SM R09/3000VP6000FT/N FZFG VV001 M15/ RMK FG8 TOWER OBS

CYXE;2007-03-16 11:24;CYXE 161124Z 00000KT 1/8SM R09/0800VP6000FT/D FZFG SKC M15/ RMK FG7 TOWER OBS

CYXE;2007-03-16 12:00;CYXE 161200Z 00000KT 1/8SM R09/1400FT/N FZFG SKC M14/M15 A3024 RMK FG7 TOWER OBS SLP282

CYXE;2007-03-16 12:19;CYXE 161219Z 00000KT 1/8SM R09/1200FT/N FZFG VV001 M14/ RMK FG8 FROIN

CYXE;2007-03-16 13:00;CYXE 161300Z 18002KT 1/8SM R09/1000FT/N FZFG SKC M14/M15 A3024 RMK FG7 FROIN SLP281

CYXE;2007-03-16 14:00;CYXE 161400Z 00000KT 1/8SM R09/0900FT/N FZFG SKC M15/M15 A3023 RMK FG6 FROIN SLP277

CYXE;2007-03-16 14:25;CYXE 161425Z 18002KT 1/4SM R09/0800FT/N FZFG SKC M15/ RMK FG6 FROIN

CYXE;2007-03-16 15:00;CYXE 161500Z 15003KT 1/4SM R09/0900FT/N FZFG BKN250 M13/M13 A3022 RMK FG2CI0 SLP276

CYXE;2007-03-16 15:20;CYXE 161520Z 15003KT 1/2SM R09/0900V1400FT/N FZFG BKN250 M12/ RMK FG2CI2

CYXE;2007-03-16 15:47;CYXE 161547Z 08003KT 1 1/2SM R09/1000V5500FT/U BR BKN250 M11/ RMK FG2CI2

CYXE;2007-03-16 16:00;CYXE 161600Z 05002KT 6SM BR BKN250 M12/M12 A3022 RMK FG1CI2 SLP274

CYXE;2007-03-16 17:00;CYXE 161700Z 05003KT 10SM OVC250 M11/M11 A3021 RMK CI3 SLP272

CYXE;2007-03-16 18:00;CYXE 161800Z 13004KT 15SM FEW091 OVC250 M06/M07 A3019 RMK AC1CI2 SLP262

CYXE;2007-03-16 19:00;CYXE 161900Z 14006KT 15SM FEW091 OVC250 M05/M07 A3017 RMK AC2CI2 SLP255

CYXE;2007-03-16 20:00;CYXE 162000Z 14006KT 15SM OVC300 M02/M06 A3015 RMK CS6 SLP249

CYXE;2007-03-16 21:00;CYXE 162100Z 12006KT 15SM FEW094 OVC300 M02/M05 A3012 RMK AC2CS6 SLP236

CYXE;2007-03-16 22:00;CYXE 162200Z 12007KT 15SM OVC300 M01/M05 A3011 RMK CS6 SLP234

CYXE;2007-03-16 23:00;CYXE 162300Z 12008KT 15SM SCT100 OVC250 M02/M05 A3011 RMK AC4CS2 SLP233

CYXE;2007-03-17 00:00;CYXE 170000Z 14007KT 15SM FEW030 OVC090 M02/M06 A3011 RMK SC2AC6 SLP233

CYXE;2007-03-17 01:00;CYXE 170100Z 13008KT 15SM FEW030 OVC090 M03/M06 A3010 RMK SC2AC6 SLP231

CYXE;2007-03-17 02:00;CYXE 170200Z 13009KT 15SM FEW030 OVC085 M04/M06 A3010 RMK SC2AC6 SLP232

CYXE;2007-03-17 03:00;CYXE 170300Z 16006KT 15SM OVC070 M04/M06 A3011 RMK AC8 SLP235

CYXE;2007-03-17 04:00;CYXE 170400Z 13005KT 15SM OVC085 M04/M07 A3010 RMK AC8 SLP232

CYXE;2007-03-17 05:00;CYXE 170500Z 14005KT 15SM SCT070 OVC090 M04/M06 A3010 RMK AC3AC5 SLP232

CYXE;2007-03-17 06:00;CYXE 170600Z 13007KT 15SM OVC062 M04/M06 A3010 RMK SC8 SLP227

CYXE;2007-03-17 07:00;CYXE 170700Z 11005KT 15SM OVC058 M04/M06 A3009 RMK SC8 SLP224

CYXE;2007-03-17 08:00;CYXE 170800Z 13007KT 15SM OVC056 M03/M05 A3008 RMK SC8 SLP222

CYXE;2007-03-17 09:00;CYXE 170900Z 12006KT 15SM OVC047 M03/M05 A3008 RMK SC8 SLP215

CYXE;2007-03-17 10:00;CYXE 171000Z 12006KT 15SM OVC040 M03/M05 A3007 RMK SC8 SLP214

CYXE;2007-03-17 11:00;CYXE 171100Z 12007KT 15SM OVC038 M03/M05 A3005 RMK SC8 SLP207

CYXE;2007-03-17 12:00;CYXE 171200Z 12006KT 15SM OVC036 M03/M05 A3003 RMK SC8 SLP201

CYXE;2007-03-17 13:00;CYXE 171300Z 12010KT 15SM OVC032 M03/M05 A3001 RMK SC8 SLP193

CYXE;2007-03-17 14:00;CYXE 171400Z 13011KT 15SM OVC030 M03/M05 A2999 RMK SC8 SLP186

CYXE;2007-03-17 15:00;CYXE 171500Z 13012KT 15SM OVC040 M03/M05 A2997 RMK SC8 SLP180

CYXE;2007-03-17 16:00;CYXE 171600Z 13012KT 15SM SCT040 OVC084 M02/M05 A2996 RMK SC4AS4 SLP176

CYXE;2007-03-17 17:00;CYXE 171700Z 14011KT 15SM FEW040 OVC100 M01/M04 A2994 RMK SC2AS6 SLP169

CYXE;2007-03-17 18:00;CYXE 171800Z 14012KT 15SM OVC075 01/M02 A2986 RMK AC8 SLP142

CYXE;2007-03-17 19:00;CYXE 171900Z 15015KT 15SM FEW016 OVC091 01/M01 A2985 RMK SF2AC6 SLP137

CYXE;2007-03-17 20:00;CYXE 172000Z 15015G21KT 15SM SCT015 OVC099 02/M01 A2981 RMK SC4AC4 SLP123

CYXE;2007-03-17 21:00;CYXE 172100Z 14018KT 15SM BKN015 OVC094 02/M01 A2978 RMK SC6AC2 SLP111

CYXE;2007-03-17 22:00;CYXE 172200Z 15012KT 15SM BKN015 OVC090 02/M00 A2977 RMK SC6AC2 SLP107

CYXE;2007-03-17 23:00;CYXE 172300Z 14013G18KT 15SM SCT015 BKN090 02/00 A2973 RMK SC3AC2 SLP096

CYXE;2007-03-18 00:00;CYXE 180000Z 14010KT 15SM FEW015 FEW100 BKN250 02/00 A2972 RMK SC2AC1CI0 SLP089

CYXE;2007-03-18 01:00;CYXE 180100Z 13006KT 15SM FEW015 FEW100 SCT250 02/00 A2971 RMK SC1AC2CI0 SLP088

CYXE;2007-03-18 02:00;CYXE 180200Z 12008KT 15SM SCT100 SCT250 01/M00 A2970 RMK AC3CI0 SLP083

CYXE;2007-03-18 03:00;CYXE 180300Z 12008KT 15SM FEW100 SCT250 01/M01 A2968 RMK AC2CI0 SLP078

CYXE;2007-03-18 04:00;CYXE 180400Z 13009KT 15SM FEW100 FEW250 00/M01 A2966 RMK AC1CI0 SLP071

CYXE;2007-03-18 05:00;CYXE 180500Z 13011KT 15SM SCT250 00/M01 A2964 RMK CI0 SLP066

CYXE;2007-03-18 06:00;CYXE 180600Z 12008KT 10SM SCT250 M00/M01 A2963 RMK CI0 SLP057

CYXE;2007-03-18 07:00;CYXE 180700Z 11007KT 15SM SCT091 M00/M01 A2961 RMK AC2 SLP051

CYXE;2007-03-18 08:00;CYXE 180800Z 09007KT 15SM BKN100 M00/M01 A2960 RMK AC6 SLP050

CYXE;2007-03-18 09:00;CYXE 180900Z 01010KT 15SM OVC086 M01/M02 A2963 RMK AC8 SLP057

CYXE;2007-03-18 10:00;CYXE 181000Z 02010KT 15SM OVC089 M02/M03 A2963 RMK AC8 SLP059

CYXE;2007-03-18 10:50;CYXE 181050Z 04014KT 15SM -RA BKN052 OVC090 M02/ RMK SC5AC3

CYXE;2007-03-18 11:00;CYXE 181100Z 05015KT 15SM -FZRA BKN048 OVC090 M02/M02 A2963 RMK SC6AC2 SLP059

CYXE;2007-03-18 11:48;CYXE 181148Z 05015KT 15SM SCT048 OVC088 M02/ RMK SC4AC4

CYXE;2007-03-18 12:00;CYXE 181200Z 04014KT 15SM FEW043 BKN086 M02/M03 A2965 RMK SC2AC5 SLP066

CYXE;2007-03-18 13:00;CYXE 181300Z 36008KT 15SM SCT027 OVC084 M02/M03 A2969 RMK SC4AC4 SLP080

CYXE;2007-03-18 14:00;CYXE 181400Z 35004KT 12SM BKN035 OVC085 M01/M02 A2972 RMK SC6AC2 BR SLP088

CYXE;2007-03-18 15:00;CYXE 181500Z 30005KT 15SM BKN045 OVC100 M01/M01 A2975 RMK SC7AC1 SLP101

CYXE;2007-03-18 15:25;CYXE 181525Z 32009KT 8SM BKN008 OVC045 M00/ RMK SF6SC2 BR

CYXE;2007-03-18 16:00;CYXE 181600Z 32006KT 10SM SCT008 BKN015 OVC060 00/M00 A2979 RMK SF4SC3SC1 BR SLP113

CYXE;2007-03-18 16:36;CYXE 181636Z 01017KT 8SM OVC008 M00/ RMK SF8 BR

CYXE;2007-03-18 17:00;CYXE 181700Z 01017KT 8SM BKN005 OVC020 M00/M01 A2984 RMK SF7SC1 BR SLP129

CYXE;2007-03-18 17:47;CYXE 181747Z 36015KT 15SM FEW008 BKN012 BKN080 M00/ RMK SF2SC3AC2

CYXE;2007-03-18 18:00;CYXE 181800Z 35018KT 15SM SCT012 BKN082 BKN250 M00/M03 A2988 RMK SC3AC2CI1 SLP145

CYXE;2007-03-18 19:00;CYXE 181900Z 32020KT 15SM FEW090 BKN250 M02/M07 A2992 RMK AC1CI2 SLP157

CYXE;2007-03-18 20:00;CYXE 182000Z 31019G26KT 15SM FEW090 BKN250 M03/M08 A2994 RMK AC1CI2 SLP164

CYXE;2007-03-18 21:00;CYXE 182100Z 30023G28KT 15SM FEW090 FEW250 M04/M09 A2996 RMK AC1CI0 SLP175

CYXE;2007-03-18 22:00;CYXE 182200Z 30018KT 15SM FEW090 FEW250 M04/M08 A2998 RMK AC1CI0 SLP181

CYXE;2007-03-18 23:00;CYXE 182300Z 30019G25KT 15SM FEW090 M05/M10 A3000 RMK AC1 SLP188

CYXE;2007-03-19 00:00;CYXE 190000Z 31020G28KT 15SM FEW090 FEW250 M06/M12 A3003 RMK AC1CI1 SLP201

CYXE;2007-03-19 01:00;CYXE 190100Z 30018KT 15SM FEW090 BKN250 M08/M12 A3006 RMK AC1CI2 SLP212

CYXE;2007-03-19 02:00;CYXE 190200Z 30017KT 15SM FEW250 M09/M14 A3010 RMK CI1 SLP223

CYXE;2007-03-19 03:00;CYXE 190300Z 31014KT 15SM SKC M10/M14 A3013 RMK SLP238

CYXE;2007-03-19 04:00;CYXE 190400Z 33013KT 15SM SKC M12/M15 A3016 RMK SLP247

CYXE;2007-03-19 05:00;CYXE 190500Z 36009KT 15SM SKC M12/M16 A3019 RMK SLP257

CYXE;2007-03-19 06:00;CYXE 190600Z 01009KT 15SM SKC M13/M18 A3022 RMK SLP272

CYXE;2007-03-19 07:00;CYXE 190700Z 01007KT 15SM SKC M15/M19 A3024 RMK SLP277

CYXE;2007-03-19 08:00;CYXE 190800Z 36006KT 15SM SKC M17/M20 A3026 RMK SLP282

CYXE;2007-03-19 09:00;CYXE 190900Z 34004KT 15SM SKC M19/M21 A3027 RMK SLP293

CYXE;2007-03-19 10:00;CYXE 191000Z 03006KT 15SM SKC M17/M21 A3027 RMK SLP295

CYXE;2007-03-19 11:00;CYXE 191100Z 03006KT 15SM SKC M18/M23 A3028 RMK SLP298

CYXE;2007-03-19 12:00;CYXE 191200Z 36005KT 15SM SKC M20/M25 A3031 RMK SLP310

CYXE;2007-03-19 13:00;CYXE 191300Z 03007KT 15SM SKC M20/M24 A3028 RMK SLP300

CYXE;2007-03-19 14:00;CYXE 191400Z 05003KT 15SM FEW090 FEW250 M19/M24 A3029 RMK AC1CI1 SLP304

CYXE;2007-03-19 15:00;CYXE 191500Z 06009KT 15SM FEW095 OVC250 M18/M23 A3028 RMK AC2CS5 SLP301

CYXE;2007-03-19 16:00;CYXE 191600Z 10006KT 15SM BKN095 OVC250 M17/M23 A3029 RMK AC5CS2 SLP303

CYXE;2007-03-19 17:00;CYXE 191700Z 13008KT 15SM FEW090 OVC250 M16/M22 A3026 RMK AC2CS5 SLP293

CYXE;2007-03-19 18:00;CYXE 191800Z 13006KT 15SM FEW085 OVC250 M15/M20 A3023 RMK AC2CS5 SLP285

CYXE;2007-03-19 19:00;CYXE 191900Z 12008KT 15SM SCT065 BKN095 OVC250 M14/M19 A3021 RMK SC3AC4CI1 SLP276

CYXE;2007-03-19 20:00;CYXE 192000Z 12010KT 15SM BKN060 OVC087 M13/M18 A3017 RMK SC6AC2 SLP264

CYXE;2007-03-19 21:00;CYXE 192100Z 12013KT 15SM OVC050 M13/M17 A3012 RMK SC8 SLP250

CYXE;2007-03-19 22:00;CYXE 192200Z 12016KT 15SM OVC044 M12/M16 A3010 RMK SC8 SLP241

CYXE;2007-03-19 23:00;CYXE 192300Z 12016KT 15SM OVC040 M12/M16 A3007 RMK SC8 SLP232

CYXE;2007-03-20 00:00;CYXE 200000Z 12014KT 15SM OVC036 M12/M16 A3004 RMK SC8 SLP222

CYXE;2007-03-20 01:00;CYXE 200100Z 13014KT 15SM OVC032 M12/M16 A3000 RMK SC8 SLP209

CYXE;2007-03-20 02:00;CYXE 200200Z 13014G20KT 15SM OVC032 M11/M14 A2997 RMK SC8 SLP200

CYXE;2007-03-20 03:00;CYXE 200300Z 12016KT 15SM OVC030 M10/M13 A2994 RMK SC8 SLP182

CYXE;2007-03-20 04:00;CYXE 200400Z 13016KT 15SM OVC032 M10/M12 A2988 RMK SC8 SLP165

CYXE;2007-03-20 05:00;CYXE 200500Z 14016G21KT 15SM BKN036 OVC083 M09/M11 A2981 RMK SC6AC2 PRESFR SLP140

CYXE;2007-03-20 06:00;CYXE 200600Z 14016G22KT 15SM BKN083 OVC280 M08/M10 A2976 RMK AC5CI3 SLP118

CYXE;2007-03-20 07:00;CYXE 200700Z 14013KT 15SM OVC088 M07/M10 A2971 RMK AC8 SLP101

CYXE;2007-03-20 08:00;CYXE 200800Z 14011KT 15SM BKN095 OVC280 M06/M08 A2966 RMK AC5CI3 SLP085

CYXE;2007-03-20 09:00;CYXE 200900Z 15012KT 15SM OVC100 M04/M07 A2961 RMK AC8 SLP062

CYXE;2007-03-20 10:00;CYXE 201000Z 16008KT 15SM OVC100 M04/M07 A2957 RMK AC8 SLP049

CYXE;2007-03-20 11:00;CYXE 201100Z 16008KT 15SM OVC100 M04/M07 A2953 RMK AC8 SLP036

CYXE;2007-03-20 12:00;CYXE 201200Z 16008KT 15SM BKN110 M03/M06 A2950 RMK AC4 SLP023

CYXE;2007-03-20 13:00;CYXE 201300Z 11003KT 15SM BKN100 M04/M06 A2948 RMK AC7 SLP018

CYXE;2007-03-20 14:00;CYXE 201400Z 08006KT 15SM BKN100 OVC250 M05/M06 A2947 RMK AC6CI1 SLP014

CYXE;2007-03-20 15:00;CYXE 201500Z 10005KT 15SM BKN090 OVC250 M03/M05 A2945 RMK AC6CI2 SLP005

CYXE;2007-03-20 16:00;CYXE 201600Z 10005KT 15SM SCT100 OVC250 M01/M04 A2943 RMK AC3CI3 SLP998

CYXE;2007-03-20 17:00;CYXE 201700Z 12007KT 15SM SCT095 OVC250 00/M03 A2940 RMK AC2CI4 SLP989

CYXE;2007-03-20 18:00;CYXE 201800Z 12007KT 15SM SCT095 OVC250 02/M01 A2937 RMK AC3CI3 SLP972

CYXE;2007-03-20 19:00;CYXE 201900Z 16007KT 15SM FEW090 OVC250 04/M00 A2936 RMK AC2CI2 SLP970

CYXE;2007-03-20 20:00;CYXE 202000Z 13004KT 15SM FEW100 BKN250 05/00 A2933 RMK AC2CI2 SLP962

CYXE;2007-03-20 21:00;CYXE 202100Z 13003KT 15SM BKN100 OVC250 07/01 A2932 RMK AC5CI2 SLP950

CYXE;2007-03-20 22:00;CYXE 202200Z 08003KT 15SM SCT098 BKN250 05/02 A2932 RMK AC3CI3 SLP950

CYXE;2007-03-20 23:00;CYXE 202300Z 08002KT 15SM SCT090 BKN250 05/02 A2931 RMK AC3CI2 SLP949

CYXE;2007-03-21 01:00;CYXE 210100Z 29017KT 15SM SCT023 BKN090 OVC250 00/M01 A2940 RMK SC4AC2CI2 PRESRR SLP978

CYXE;2007-03-21 01:19;CYXE 210119Z 27022G27KT 15SM OVC014 M01/ RMK SC8

CYXE;2007-03-21 02:18;CYXE 210218Z 31016KT 15SM OVC009 M03/ RMK SC8

CYXE;2007-03-21 03:00;CYXE 210300Z 31015G22KT 15SM BKN008 M04/M06 A2949 RMK SC7 SLP015

CYXE;2007-03-21 04:00;CYXE 210400Z 30012KT 15SM SCT009 M05/M07 A2953 RMK SC4 SLP028

CYXE;2007-03-21 05:00;CYXE 210500Z 30013KT 15SM FEW010 M07/M09 A2955 RMK SC1 SLP035

CYXE;2007-03-21 06:00;CYXE 210600Z 30015KT 15SM BKN075 M08/M10 A2958 RMK AC5 SLP045

CYXE;2007-03-21 07:00;CYXE 210700Z 31014KT 15SM OVC053 M08/M10 A2962 RMK SC7 SLP058

CYXE;2007-03-21 07:10;CYXE 210710Z 31013KT 15SM -SN OVC053 M08/ RMK SC8

CYXE;2007-03-21 07:46;CYXE 210746Z 31015KT 15SM BKN028 OVC050 M08/ RMK SC6SC2

CYXE;2007-03-21 08:00;CYXE 210800Z 31014KT 15SM BKN028 OVC050 M08/M10 A2965 RMK SC6SC2 SLP067

CYXE;2007-03-21 08:36;CYXE 210836Z 32018KT 4SM -SN OVC015 M08/ RMK SN2SC6

CYXE;2007-03-21 09:00;CYXE 210900Z 31012KT 2SM -SN VV005 M08/M10 A2969 RMK SN8 SLP081

CYXE;2007-03-21 10:00;CYXE 211000Z 29009KT 1 1/2SM -SN VV006 M08/M09 A2971 RMK SN8 SLP088

CYXE;2007-03-21 11:00;CYXE 211100Z 29009KT 1 1/2SM -SN VV003 M08/M09 A2973 RMK SN8 SLP093

CYXE;2007-03-21 11:10;CYXE 211110Z 29009KT 3SM -SN VV007 M08/ RMK SN8

CYXE;2007-03-21 11:21;CYXE 211121Z 29010KT 12SM -SN OVC008 M07/ RMK SF8

CYXE;2007-03-21 11:38;CYXE 211138Z 28010KT 12SM -SN OVC011 M07/ RMK SF8

CYXE;2007-03-21 12:00;CYXE 211200Z 27010KT 15SM -SN OVC011 M07/M09 A2977 RMK SF8 SLP109

CYXE;2007-03-21 12:18;CYXE 211218Z 27007KT 15SM SCT011 SCT040 BKN080 M08/ RMK SF3SC1AC3

CYXE;2007-03-21 13:00;CYXE 211300Z 25008KT 15SM SCT080 BKN250 M09/M11 A2979 RMK AC2CI2 SLP116

CYXE;2007-03-21 13:22;CYXE 211322Z 27010KT 15SM BKN015 OVC250 RMK SC6CI1

CYXE;2007-03-21 13:23;CYXE 211323Z CCA 27010KT 15SM BKN015 OVC250 M08/ RMK SC6CI1

CYXE;2007-03-21 14:00;CYXE 211400Z 26009KT 15SM BKN020 BKN250 M07/M09 A2982 RMK SC6CI0 SLP125

CYXE;2007-03-21 15:00;CYXE 211500Z 26007KT 15SM OVC023 M06/M08 A2984 RMK SC8 SLP137

CYXE;2007-03-21 16:00;CYXE 211600Z 29010KT 15SM FEW023 SCT250 M05/M07 A2986 RMK SC2CI0 SLP145

CYXE;2007-03-21 17:00;CYXE 211700Z 30013KT 15SM FEW250 M04/M08 A2987 RMK CI1 SLP148

CYXE;2007-03-21 18:00;CYXE 211800Z 30011KT 15SM FEW080 SCT250 M04/M07 A2988 RMK AC1CI1 SLP152

CYXE;2007-03-21 19:00;CYXE 211900Z 30010KT 15SM FEW250 M03/M07 A2987 RMK CI2 SLP149

CYXE;2007-03-21 20:00;CYXE 212000Z 30011KT 15SM FEW250 M02/M08 A2986 RMK CI1 SLP147

CYXE;2007-03-21 21:00;CYXE 212100Z 30016KT 15SM FEW250 M02/M08 A2986 RMK CI1 SLP145

CYXE;2007-03-21 22:00;CYXE 212200Z 30012KT 15SM FEW030 SCT250 M01/M08 A2986 RMK SC1CI2 SLP145

CYXE;2007-03-21 23:00;CYXE 212300Z 30008KT 15SM FEW030 OVC250 M02/M08 A2986 RMK SC1CI4 SLP145

CYXE;2007-03-22 02:00;CYXE 220200Z 21008KT 15SM FEW091 OVC220 M03/M08 A2982 RMK AC1CI4 SLP130

CYXE;2007-03-22 03:00;CYXE 220300Z 21008KT 15SM SCT220 M04/M09 A2980 RMK CI2 SLP124

CYXE;2007-03-22 04:00;CYXE 220400Z 19007KT 15SM SKC M05/M09 A2979 RMK SLP121

CYXE;2007-03-22 05:00;CYXE 220500Z 19009KT 15SM FEW220 M04/M09 A2976 RMK CI1 SLP112

CYXE;2007-03-22 06:00;CYXE 220600Z 19011KT 15SM FEW220 M04/M08 A2973 RMK CI1 SLP099

CYXE;2007-03-22 07:00;CYXE 220700Z 19013KT 15SM BKN100 BKN220 M03/M07 A2971 RMK AC5CI2 SLP091

CYXE;2007-03-22 08:00;CYXE 220800Z 18011KT 15SM SCT070 BKN095 OVC220 M03/M07 A2970 RMK AC3AC3CI1 SLP090

CYXE;2007-03-22 09:00;CYXE 220900Z 19012KT 15SM OVC070 M02/M06 A2969 RMK AC8 SLP081

CYXE;2007-03-22 10:00;CYXE 221000Z 22011KT 15SM OVC072 M02/M05 A2967 RMK AC8 SLP075

CYXE;2007-03-22 11:00;CYXE 221100Z 24005KT 15SM BKN037 OVC090 M02/M04 A2966 RMK SC5AC3 SLP073

CYXE;2007-03-22 12:00;CYXE 221200Z 22010KT 15SM SCT030 BKN060 BKN080 M02/M05 A2965 RMK SC3SC2AC2 SLP067

CYXE;2007-03-22 13:00;CYXE 221300Z 21010KT 15SM -FZRA BKN050 OVC085 M00/M04 A2963 RMK SC6AC2 SLP060

CYXE;2007-03-22 13:23;CYXE 221323Z 22011KT 15SM BKN050 BKN090 M01/ RMK SC6AC2

CYXE;2007-03-22 14:00;CYXE 221400Z 24010KT 15SM BKN055 BKN090 BKN250 M01/M03 A2965 REFZRA RMK SC5AC2CI0 SLP068

CYXE;2007-03-22 15:00;CYXE 221500Z 23011KT 15SM BKN055 BKN250 M00/M03 A2964 RMK SC5CI0 VIRGA SW SLP067

CYXE;2007-03-22 16:00;CYXE 221600Z 22012KT 15SM FEW055 00/M03 A2964 RMK SC2 SLP065

CYXE;2007-03-22 17:00;CYXE 221700Z 24015KT 15SM BKN080 01/M02 A2966 RMK AC6 SLP071

CYXE;2007-03-22 18:00;CYXE 221800Z 24013KT 15SM BKN065 02/M01 A2967 RMK SC5 SLP073

CYXE;2007-03-22 19:00;CYXE 221900Z 23011KT 15SM SCT075 03/M00 A2966 RMK AC3 SLP070

CYXE;2007-03-22 20:00;CYXE 222000Z 25012KT 15SM FEW075 04/M01 A2966 RMK AC1 SLP072

CYXE;2007-03-22 21:00;CYXE 222100Z 24011KT 15SM FEW250 04/M01 A2966 RMK CI0 SLP069

CYXE;2007-03-22 22:00;CYXE 222200Z 26013KT 15SM FEW250 04/M01 A2967 RMK CI1 SLP072

CYXE;2007-03-22 23:00;CYXE 222300Z 27012KT 15SM BKN250 04/M01 A2967 RMK CI3 SLP072

CYXE;2007-03-23 02:00;CYXE 230200Z 27011KT 15SM FEW095 BKN230 02/M02 A2971 RMK AC1CI4 SLP084

CYXE;2007-03-23 02:47;CYXE 230247Z 22009KT 15SM OVC230 01/ RMK CI3

CYXE;2007-03-23 03:00;CYXE 230300Z 22007KT 15SM OVC230 01/M02 A2972 RMK CI2 SLP091

CYXE;2007-03-23 05:00;CYXE 230500Z 23005KT 15SM FEW088 SCT230 M00/M04 A2972 RMK AC2CI1 SLP089

CYXE;2007-03-23 06:00;CYXE 230600Z 21006KT 15SM FEW088 SCT230 M02/M04 A2972 RMK AC1CI1 SLP091

CYXE;2007-03-23 07:00;CYXE 230700Z 21005KT 15SM SCT100 BKN220 M01/M04 A2973 RMK AC3CI1 SLP092

CYXE;2007-03-23 08:00;CYXE 230800Z 24003KT 15SM BKN098 BKN220 M01/M04 A2973 RMK AC5CI1 SLP093

CYXE;2007-03-23 09:00;CYXE 230900Z 09002KT 15SM BKN100 OVC220 M03/M04 A2974 RMK AC6CI1 SLP097

CYXE;2007-03-23 10:00;CYXE 231000Z 00000KT 15SM BKN100 OVC220 M02/M04 A2975 RMK AC6CI2 SLP098

CYXE;2007-03-23 11:00;CYXE 231100Z 00000KT 15SM BKN100 OVC220 M02/M04 A2976 RMK AC6CI2 SLP102

CYXE;2007-03-23 12:00;CYXE 231200Z 06002KT 15SM OVC100 M02/M04 A2977 RMK AC8 SLP106

CYXE;2007-03-23 13:00;CYXE 231300Z 36002KT 15SM BKN100 OVC250 M03/M04 A2979 RMK AC5CI2 SLP112

CYXE;2007-03-23 14:00;CYXE 231400Z 00000KT 15SM FEW100 BKN250 M03/M05 A2981 RMK AC2CI1 SLP118

CYXE;2007-03-23 15:00;CYXE 231500Z 00000KT 15SM FEW100 BKN250 M01/M03 A2982 RMK AC2CI1 SLP125

CYXE;2007-03-23 16:00;CYXE 231600Z 28005KT 15SM FEW100 SCT250 M00/M03 A2985 RMK AC2CI1 SLP134

CYXE;2007-03-23 17:00;CYXE 231700Z 00000KT 15SM FEW100 FEW250 02/M03 A2986 RMK AC1CI0 SLP138

CYXE;2007-03-23 18:00;CYXE 231800Z 29003KT 15SM FEW250 03/M02 A2987 RMK CI1 SLP142

CYXE;2007-03-23 19:00;CYXE 231900Z 25003KT 15SM FEW250 04/M02 A2987 RMK CI1 SLP140

CYXE;2007-03-23 20:00;CYXE 232000Z 25006KT 15SM SKC 05/M00 A2987 RMK SLP141

CYXE;2007-03-23 21:00;CYXE 232100Z 25006KT 15SM FEW250 05/00 A2988 RMK CI1 SLP142

CYXE;2007-03-23 22:00;CYXE 232200Z 24003KT 15SM FEW250 06/M02 A2987 RMK CI1 SLP140

CYXE;2007-03-23 23:00;CYXE 232300Z 18005KT 15SM FEW250 08/M02 A2984 RMK CI1 SLP129

CYXE;2007-03-24 03:00;CYXE 240300Z 17011KT 15SM OVC230 04/M01 A2976 RMK CI5 SLP102

CYXE;2007-03-24 04:00;CYXE 240400Z 16012KT 15SM OVC230 05/M01 A2973 RMK CI6 SLP093

CYXE;2007-03-24 05:00;CYXE 240500Z 17014KT 15SM OVC230 05/M01 A2970 RMK CI6 SLP082

CYXE;2007-03-24 06:00;CYXE 240600Z 16016G22KT 15SM BKN230 06/M01 A2965 RMK CI2 SLP062

CYXE;2007-03-24 07:00;CYXE 240700Z 18016G22KT 15SM OVC230 05/M01 A2963 RMK CI5 SLP055

CYXE;2007-03-24 08:00;CYXE 240800Z 19017G24KT 15SM SCT230 05/M02 A2960 RMK CI2 SLP044

CYXE;2007-03-24 09:00;CYXE 240900Z 19015G21KT 15SM SCT230 05/M02 A2957 RMK CI2 SLP033

CYXE;2007-03-24 10:00;CYXE 241000Z 19013KT 15SM BKN230 04/M01 A2954 RMK CI2 SLP024

CYXE;2007-03-24 11:00;CYXE 241100Z 20012KT 15SM BKN230 05/M01 A2954 RMK CI2 SLP022

CYXE;2007-03-24 12:00;CYXE 241200Z 22015KT 15SM FEW100 BKN230 04/M00 A2954 RMK AC1CI2 SLP022

CYXE;2007-03-24 13:00;CYXE 241300Z 23013KT 15SM SCT110 BKN230 04/M00 A2957 RMK AC3CI2 SLP031

CYXE;2007-03-24 14:00;CYXE 241400Z 24009KT 15SM SCT110 BKN230 03/M00 A2959 RMK AC3CI2 SLP038

CYXE;2007-03-24 15:00;CYXE 241500Z 23008KT 15SM SCT110 BKN240 02/00 A2958 RMK AC3CI2 SLP036

CYXE;2007-03-24 16:00;CYXE 241600Z 27011KT 15SM BKN110 BKN240 04/01 A2962 RMK AC5CI2 SLP051

CYXE;2007-03-24 17:00;CYXE 241700Z 28006KT 15SM BKN087 04/01 A2963 RMK AC7 SLP054

CYXE;2007-03-24 18:00;CYXE 241800Z 25005KT 15SM FEW087 BKN110 BKN240 05/02 A2962 RMK AC2AC3CI1 SLP050

CYXE;2007-03-24 19:00;CYXE 241900Z 25006KT 15SM BKN110 OVC240 05/02 A2965 RMK AC7CI1 SLP059

CYXE;2007-03-24 20:00;CYXE 242000Z 24004KT 15SM SCT084 BKN110 BKN250 06/03 A2967 RMK AC3AC3CI1 SLP064

CYXE;2007-03-24 21:00;CYXE 242100Z 24003KT 15SM FEW084 SCT110 BKN250 07/03 A2966 RMK AC2AC2CI2 SLP062

CYXE;2007-03-24 22:00;CYXE 242200Z CCA 25004KT 15SM BKN110 BKN280 06/03 A2967 RMK AC4CI2 SLP065

CYXE;2007-03-24 23:00;CYXE 242300Z CCA 25004KT 15SM BKN110 BKN280 06/03 A2967 RMK AC4CI2 SLP065

CYXE;2007-03-25 00:00;CYXE 250000Z 22003KT 15SM SCT110 BKN280 06/02 A2966 RMK AC2CS4 SLP063

CYXE;2007-03-25 03:00;CYXE 250300Z 11004KT 15SM SCT280 02/01 A2963 RMK CS2 SLP054

CYXE;2007-03-25 05:00;CYXE 250500Z 14010KT 15SM FEW055 BKN075 06/03 A2958 RMK SC2AC6 SLP038

CYXE;2007-03-25 06:00;CYXE 250600Z 14013KT 15SM FEW055 BKN070 07/03 A2954 RMK SC2AC6 SLP021

CYXE;2007-03-25 07:00;CYXE 250700Z 14013KT 15SM BKN075 06/02 A2950 RMK AC6 SLP007

CYXE;2007-03-25 08:00;CYXE 250800Z 17013KT 15SM FEW075 BKN250 05/02 A2946 RMK AC2CI0 SLP993

CYXE;2007-03-25 09:00;CYXE 250900Z 16008KT 15SM FEW075 SCT250 04/03 A2943 RMK AC2CI0 SLP983

CYXE;2007-03-25 10:00;CYXE 251000Z 20008KT 15SM FEW250 05/03 A2942 RMK CI1 SLP980

CYXE;2007-03-25 11:00;CYXE 251100Z 21012KT 15SM FEW250 06/03 A2943 RMK CI0 SLP984

CYXE;2007-03-25 12:00;CYXE 251200Z 21012KT 15SM FEW090 FEW250 06/02 A2940 RMK AC1CI1 SLP974

CYXE;2007-03-25 13:00;CYXE 251300Z 22012KT 15SM SCT110 BKN250 06/02 A2940 RMK AC3CI1 SLP973

CYXE;2007-03-25 14:00;CYXE 251400Z 22014KT 15SM FEW110 BKN250 05/02 A2941 RMK AC2CI2 SLP975

CYXE;2007-03-25 15:00;CYXE 251500Z 24012G17KT 15SM SCT084 BKN250 06/03 A2941 RMK AC3CI2 SLP979

CYXE;2007-03-25 16:00;CYXE 251600Z 26010KT 15SM FEW091 BKN250 06/03 A2944 RMK AC2CI2 SLP987

CYXE;2007-03-25 17:00;CYXE 251700Z 29011KT 15SM SCT098 BKN250 05/02 A2946 RMK AC3CI2 SLP996

CYXE;2007-03-25 18:00;CYXE 251800Z 29010KT 15SM FEW091 BKN250 06/02 A2948 RMK AC2CI2 SLP001

CYXE;2007-03-25 19:00;CYXE 251900Z 27009KT 15SM FEW090 BKN250 07/02 A2950 RMK AC2CI2 SLP008

CYXE;2007-03-25 20:00;CYXE 252000Z 29007KT 15SM FEW095 BKN250 07/03 A2955 RMK AC1CI2 SLP022

CYXE;2007-03-25 21:00;CYXE 252100Z 29014KT 15SM FEW100 BKN250 06/01 A2957 RMK AC1CI2 SLP032

CYXE;2007-03-25 22:00;CYXE 252200Z 30012G20KT 15SM FEW089 BKN300 06/01 A2960 RMK AC2CI2 SLP043

CYXE;2007-03-25 23:00;CYXE 252300Z 30009KT 15SM BKN087 BKN300 05/01 A2964 RMK AC5CI1 SLP054

CYXE;2007-03-26 00:00;CYXE 260000Z 30012KT 15SM BKN085 BKN300 04/01 A2965 RMK AC5CI1 SLP061

CYXE;2007-03-26 01:00;CYXE 260100Z 30010KT 15SM BKN085 BKN300 03/01 A2969 RMK AC5CI1 SLP072

CYXE;2007-03-26 03:00;CYXE 260300Z 31009KT 15SM BKN088 02/00 A2974 RMK AC6 SLP093

CYXE;2007-03-26 05:00;CYXE 260500Z 29007KT 15SM BKN088 01/M00 A2982 RMK AC4 SLP118

CYXE;2007-03-26 06:00;CYXE 260600Z 29007KT 15SM FEW090 M00/M01 A2984 RMK AC2 SLP127

CYXE;2007-03-26 07:00;CYXE 260700Z 29007KT 15SM SKC M01/M02 A2986 RMK SLP135

CYXE;2007-03-26 08:00;CYXE 260800Z 29007KT 15SM SKC M01/M02 A2989 RMK SLP143

CYXE;2007-03-26 09:00;CYXE 260900Z 27006KT 15SM FEW250 M02/M03 A2990 RMK CI0 SLP150

CYXE;2007-03-26 10:00;CYXE 261000Z 28006KT 15SM SKC M03/M04 A2991 RMK SLP154

CYXE;2007-03-26 11:00;CYXE 261100Z 26003KT 15SM SKC M03/M04 A2994 RMK SLP162

CYXE;2007-03-26 12:00;CYXE 261200Z 23006KT 15SM SKC M04/M05 A2996 RMK SLP172

CYXE;2007-03-26 13:00;CYXE 261300Z 25006KT 15SM FEW100 M03/M04 A2998 RMK AC1 FROIN SLP179

CYXE;2007-03-26 14:00;CYXE 261400Z 26007KT 15SM FEW100 M02/M03 A2999 RMK AC1 SLP183

CYXE;2007-03-26 15:00;CYXE 261500Z 26005KT 15SM FEW220 00/M01 A3001 RMK CI1 SLP187

CYXE;2007-03-26 16:00;CYXE 261600Z 26005KT 15SM SCT220 02/M01 A3001 RMK CI2 SLP189

CYXE;2007-03-26 17:00;CYXE 261700Z 27004KT 15SM FEW100 SCT220 04/M00 A3003 RMK AC1CI2 SLP196

CYXE;2007-03-26 18:00;CYXE 261800Z 27005KT 15SM FEW100 FEW220 06/00 A3004 RMK AC1CI1 SLP197

CYXE;2007-03-26 19:00;CYXE 261900Z 24008KT 15SM FEW020 FEW100 FEW240 06/01 A3004 RMK CU1AC1CI1 SLP198

CYXE;2007-03-26 20:00;CYXE 262000Z 25007KT 15SM FEW025TCU FEW110 SCT240 07/01 A3005 RMK TCU1AC1CI1 SLP199

CYXE;2007-03-26 21:00;CYXE 262100Z 24007KT 15SM FEW032CB FEW240 08/M00 A3005 RMK CB2CI0 CB SW SLP199

CYXE;2007-03-26 22:00;CYXE 262200Z 23006KT 15SM FEW032TCU SCT100 BKN280 08/00 A3006 RMK TCU1AC2CI2 VIRGA SLP201

CYXE;2007-03-26 23:00;CYXE 262300Z 22007KT 15SM FEW034TCU FEW094 SCT280 09/00 A3006 RMK TCU1AC1CI2 VIRGA E-SW SLP203

CYXE;2007-03-27 00:00;CYXE 270000Z 23006KT 15SM FEW032 SCT280 07/M02 A3007 RMK CU1CI1 SLP207

CYXE;2007-03-27 02:00;CYXE 270200Z 22005KT 15SM FEW095 FEW280 03/M01 A3008 RMK AC1CI0 SLP212

CYXE;2007-03-27 03:00;CYXE 270300Z 26005KT 15SM SKC 01/M02 A3010 RMK SLP220

CYXE;2007-03-27 04:00;CYXE 270400Z 22004KT 15SM SKC 01/M02 A3011 RMK SLP221

CYXE;2007-03-27 05:00;CYXE 270500Z 20005KT 15SM SKC 01/M02 A3012 RMK SLP224

CYXE;2007-03-27 06:00;CYXE 270600Z 10003KT 15SM SKC M01/M02 A3012 RMK SLP225

CYXE;2007-03-27 07:00;CYXE 270700Z 13004KT 15SM SKC M01/M03 A3012 RMK SLP226

CYXE;2007-03-27 08:00;CYXE 270800Z 09005KT 15SM FEW210 M02/M04 A3011 RMK CI0 SLP222

CYXE;2007-03-27 09:00;CYXE 270900Z 11004KT 15SM FEW210 M02/M04 A3012 RMK CI0 SLP222

CYXE;2007-03-27 10:00;CYXE 271000Z 13004KT 15SM BKN210 M02/M04 A3011 RMK CI1 SLP219

CYXE;2007-03-27 11:00;CYXE 271100Z 12005KT 15SM BKN210 M01/M03 A3009 RMK CI1 SLP215

CYXE;2007-03-27 12:00;CYXE 271200Z 12007KT 15SM OVC210 M00/M03 A3008 RMK CI2 SLP210

CYXE;2007-03-27 13:00;CYXE 271300Z 12009KT 15SM FEW140 OVC210 01/M03 A3008 RMK AC2CI2 SLP208

CYXE;2007-03-27 14:00;CYXE 271400Z 13010G16KT 15SM SCT140 OVC210 02/M02 A3006 RMK AC4CI4 SLP204

CYXE;2007-03-27 15:00;CYXE 271500Z 13012KT 15SM BKN092 OVC210 02/M02 A3005 RMK AC6CI2 SLP200

CYXE;2007-03-27 16:00;CYXE 271600Z 14013G19KT 15SM SCT092 OVC210 03/M01 A3006 RMK AC4CI3 SLP203

CYXE;2007-03-27 17:00;CYXE 271700Z 13012KT 15SM FEW015 OVC110 03/M00 A3006 RMK SC1AS7 SLP204

CYXE;2007-03-27 17:47;CYXE 271747Z 12010KT 8SM -RASN BKN018 OVC073 03/ RMK SC6AC2

CYXE;2007-03-27 18:00;CYXE 271800Z 13008KT 6SM -RASN BKN015 OVC073 03/01 A3006 RMK ST7AC1 SLP204

CYXE;2007-03-27 18:36;CYXE 271836Z 14013KT 4SM -RASN BR OVC011 02/ RMK SC8

CYXE;2007-03-27 19:00;CYXE 271900Z 14014G20KT 4SM RASN BR OVC010 02/01 A3006 RMK SF8 SLP205

CYXE;2007-03-27 19:09;CYXE 271909Z 13013G21KT 2SM RASN BR OVC008 02/ RMK SF8

CYXE;2007-03-27 19:17;CYXE 271917Z 13017G22KT 1SM R09/P6000FT/N -RASN BR VV006 01/ RERA RMK SN8

CYXE;2007-03-27 19:31;CYXE 271931Z 12013G18KT 1SM R09/P6000FT/U -RASN OVC005 01/ RERA RMK SN6SF2

CYXE;2007-03-27 19:38;CYXE 271938Z 12014KT 1 1/2SM -SN OVC004 01/ RERA RMK SN2SF6

CYXE;2007-03-27 19:50;CYXE 271950Z 12013G22KT 3SM -RA FEW004 OVC007 01/ RERA RMK SF2SF6

CYXE;2007-03-27 20:00;CYXE 272000Z 12014G19KT 3SM -RASN OVC006 01/01 A3003 RERA RMK SF8 SLP195

CYXE;2007-03-27 20:30;CYXE 272030Z 12020G27KT 1 1/2SM -RASN OVC006 01/ RMK SN3SF5

CYXE;2007-03-27 21:00;CYXE 272100Z 12020G26KT 2SM -RASN OVC006 01/01 A3000 RMK SF8 SLP187

CYXE;2007-03-27 21:08;CYXE 272108Z 11018G25KT 6SM -RA BKN007 OVC096 02/ RMK SF5AS3

CYXE;2007-03-27 21:27;CYXE 272127Z 11019G25KT 15SM SCT008 OVC096 02/ RMK SF3AS5

CYXE;2007-03-27 22:00;CYXE 272200Z 10020G26KT 15SM FEW005 BKN030 OVC080 02/01 A2997 RMK SF2SC5AS2 SLP177

CYXE;2007-03-27 22:35;CYXE 272235Z 11022G28KT 15SM -SHRA FEW055 OVC080 02/ RMK SC2AC6

CYXE;2007-03-27 23:00;CYXE 272300Z 10022KT 15SM -SHRA OVC080 02/00 A2994 RMK AC8 SLP166

CYXE;2007-03-27 23:15;CYXE 272315Z 11022G28KT 15SM OVC075 03/ RMK AC8

CYXE;2007-03-28 01:00;CYXE 280100Z 10021G30KT 15SM BKN052 OVC085 02/M00 A2991 RMK SC6AC2 SLP154

CYXE;2007-03-28 03:00;CYXE 280300Z 11017KT 15SM BKN048 OVC080 02/00 A2990 RMK SC6AC2 SLP149

CYXE;2007-03-28 05:00;CYXE 280500Z 12012G21KT 12SM -RA OVC040 02/00 A2990 RMK SC8 SLP149

CYXE;2007-03-28 05:28;CYXE 280528Z 11011G16KT 15SM BKN050 OVC095 02/ RMK SC6AC2

CYXE;2007-03-28 06:00;CYXE 280600Z 11012KT 15SM FEW019 BKN050 OVC095 03/00 A2991 RMK SC2SC5AC2 SLP153

CYXE;2007-03-28 07:00;CYXE 280700Z 10010KT 15SM FEW016 OVC056 02/01 A2992 RMK SC2SC6 SLP154

CYXE;2007-03-28 08:00;CYXE 280800Z 09005KT 15SM -SN BKN017 OVC060 02/01 A2994 RMK SC6SC2 SLP161

CYXE;2007-03-28 08:11;CYXE 280811Z 08007KT 10SM -RA OVC019 02/ RMK SC8 BR

CYXE;2007-03-28 09:00;CYXE 280900Z 08008KT 15SM -RA OVC022 02/01 A2991 RMK SC8 SLP155

CYXE;2007-03-28 09:28;CYXE 280928Z 08007KT 15SM -RASN OVC017 02/ RMK SC8

CYXE;2007-03-28 10:00;CYXE 281000Z 07006KT 6SM -RASN OVC017 01/01 A2992 RMK SC8 SLP156

CYXE;2007-03-28 10:15;CYXE 281015Z 08007KT 2SM -SN OVC012 01/ RMK SC8

CYXE;2007-03-28 10:21;CYXE 281021Z 08007KT 1 1/2SM -SN BKN008 OVC012 01/ RMK SN3SF2SC2

CYXE;2007-03-28 10:28;CYXE 281028Z 07008KT 1SM R09/P6000FT/D -SN OVC005 01/ RMK SN5SF3

CYXE;2007-03-28 10:43;CYXE 281043Z 08007KT 3/4SM R09/P6000FT/D -SN OVC004 00/ RMK SN5SF3

CYXE;2007-03-28 11:00;CYXE 281100Z 08006KT 1SM R09/P6000FT/N -SN OVC004 00/00 A2992 RMK SN5SC3 SLP157

CYXE;2007-03-28 12:00;CYXE 281200Z 05008KT 1SM R09/P6000FT/U -SN OVC004 00/00 A2994 RMK SN4SF4 /S02/ SLP163

CYXE;2007-03-28 12:43;CYXE 281243Z 05007KT 1 1/2SM -SN VV008 00/ RMK SN8

CYXE;2007-03-28 13:00;CYXE 281300Z 05007KT 1 1/2SM -SN VV009 00/00 A2996 RMK SN8 SLP169

CYXE;2007-03-28 13:18;CYXE 281318Z 05007KT 2 1/2SM -SN OVC010 00/ RMK SF8

CYXE;2007-03-28 13:40;CYXE 281340Z 05007KT 3SM -SN OVC016 00/ RMK SC8

CYXE;2007-03-28 14:00;CYXE 281400Z 05006KT 4SM -RASN OVC020 00/00 A2997 RMK SC8 SLP173

CYXE;2007-03-28 14:27;CYXE 281427Z 02006KT 1 1/2SM -RASN SCT002 OVC013 00/ RMK SF3ST5

CYXE;2007-03-28 14:38;CYXE 281438Z 02005KT 1 1/2SM -RASN OVC002 00/ RMK SN2SF6

CYXE;2007-03-28 15:00;CYXE 281500Z 35006KT 1 1/2SM -RASN OVC003 00/00 A3000 RMK SN4SF4 SLP184

CYXE;2007-03-28 15:15;CYXE 281515Z 34006KT 1SM R09/P6000FT/N -SN VV002 00/ RMK SN8

CYXE;2007-03-28 15:29;CYXE 281529Z 35008KT 3/4SM R09/4500V5500FT/D -SN VV002 00/ RMK SN8

CYXE;2007-03-28 15:48;CYXE 281548Z 35010KT 1SM R09/5500FT/U -SN VV004 00/ RMK SN8

CYXE;2007-03-28 16:00;CYXE 281600Z 35011KT 1SM R09/P6000FT/U -SN VV004 00/00 A3005 RMK SN8 /S02/ SLP200

CYXE;2007-03-28 16:04;CYXE 281604Z 35012KT 1 1/2SM -RASN VV004 00/ RMK SN8

CYXE;2007-03-28 16:16;CYXE 281616Z 35012KT 2SM -RASN OVC005 00/ RMK SN4SF4

CYXE;2007-03-28 16:31;CYXE 281631Z 35013KT 1SM R09/P6000FT/D -RASN VV004 00/ RMK SN8

CYXE;2007-03-28 17:00;CYXE 281700Z 35015KT 1 1/2SM -RASN OVC004 00/00 A3008 RMK SN4SF4 SLP212

CYXE;2007-03-28 17:31;CYXE 281731Z 36015KT 2SM -RASN BKN005 OVC052 01/ RMK SF5SC3

CYXE;2007-03-28 17:49;CYXE 281749Z 35013KT 4SM -RASN OVC006 01/ RMK SF8

CYXE;2007-03-28 18:00;CYXE 281800Z 35014KT 4SM -RASN BKN006 OVC025 01/01 A3012 RMK SF7SC1 SLP224

CYXE;2007-03-28 18:22;CYXE 281822Z 34016KT 6SM -RA BR OVC008 01/ RMK SF8

CYXE;2007-03-28 19:00;CYXE 281900Z 35016G24KT 15SM -RASN BKN009 OVC031 01/01 A3014 RMK SF6SC2 SLP232

CYXE;2007-03-28 19:18;CYXE 281918Z 36016G22KT 15SM -DZ BKN012 OVC031 01/ RMK SF6SC2

CYXE;2007-03-28 20:00;CYXE 282000Z 35017KT 15SM -RA BKN013 OVC043 02/01 A3017 RMK SF5SC3 SLP242

CYXE;2007-03-28 21:00;CYXE 282100Z 35019G25KT 15SM SCT016 OVC049 02/00 A3020 RMK SC4SC4 SLP253

CYXE;2007-03-28 22:00;CYXE 282200Z 35015G22KT 15SM BKN025 BKN045 BKN100 02/01 A3024 RMK SC5SC2AC1 SLP264

CYXE;2007-03-28 23:00;CYXE 282300Z 36017G24KT 15SM FEW023 FEW070 BKN220 03/M00 A3028 RMK SC2AC1CI1 SLP279

CYXE;2007-03-29 00:00;CYXE 290000Z 35016KT 15SM FEW023 SCT240 02/M01 A3032 RMK SC2CI0 SLP293

CYXE;2007-03-29 01:00;CYXE 290100Z 35012KT 15SM FEW025 BKN220 01/M02 A3034 RMK SC1CI2 SLP302

CYXE;2007-03-29 02:00;CYXE 290200Z 35013G18KT 15SM SCT220 01/M03 A3040 RMK CI2 SLP319

CYXE;2007-03-29 03:00;CYXE 290300Z 36008KT 15SM FEW220 M00/M04 A3044 RMK CI0 SLP337

CYXE;2007-03-29 04:00;CYXE 290400Z 36013KT 15SM SKC M01/M05 A3045 RMK SLP340

CYXE;2007-03-29 05:00;CYXE 290500Z 36011KT 15SM SKC M01/M06 A3048 RMK SLP351

CYXE;2007-03-29 06:00;CYXE 290600Z 36009KT 15SM SKC M02/M06 A3051 RMK SLP363

CYXE;2007-03-29 07:00;CYXE 290700Z 01012KT 15SM SKC M02/M06 A3054 RMK SLP371

CYXE;2007-03-29 08:00;CYXE 290800Z 36009KT 15SM SKC M03/M07 A3055 RMK SLP376

CYXE;2007-03-29 09:00;CYXE 290900Z 34007KT 15SM SKC M05/M07 A3058 RMK SLP386

CYXE;2007-03-29 10:00;CYXE 291000Z 33007KT 15SM SKC M05/M08 A3061 RMK SLP395

CYXE;2007-03-29 11:00;CYXE 291100Z 33007KT 15SM SKC M06/M08 A3062 RMK SLP399

CYXE;2007-03-29 12:00;CYXE 291200Z 36006KT 15SM SKC M06/M08 A3062 RMK SLP401

CYXE;2007-03-29 13:00;CYXE 291300Z 34006KT 15SM FEW230 M07/M08 A3064 RMK CI1 SLP409

CYXE;2007-03-29 14:00;CYXE 291400Z 14003KT 15SM FEW230 M05/M08 A3070 RMK CI1 SLP426

CYXE;2007-03-29 15:00;CYXE 291500Z 12008KT 15SM FEW230 M02/M08 A3069 RMK CI1 SLP423

CYXE;2007-03-29 16:00;CYXE 291600Z 14010KT 15SM FEW230 M02/M10 A3070 RMK CI1 SLP428

CYXE;2007-03-29 17:00;CYXE 291700Z 16006KT 15SM FEW230 00/M09 A3070 RMK CI1 SLP427

CYXE;2007-03-29 18:00;CYXE 291800Z 18007KT 15SM FEW230 01/M09 A3069 RMK CI1 SLP422

CYXE;2007-03-29 19:00;CYXE 291900Z 17009KT 15SM FEW230 02/M08 A3070 RMK CI1 SLP426

CYXE;2007-03-29 20:00;CYXE 292000Z 17008KT 15SM SCT230 02/M10 A3071 RMK CI2 SLP429

CYXE;2007-03-29 21:00;CYXE 292100Z 15009G15KT 15SM SCT230 03/M09 A3068 RMK CI2 SLP419

CYXE;2007-03-29 22:00;CYXE 292200Z 16013KT 15SM SCT230 03/M10 A3065 RMK CI2 SLP409

CYXE;2007-03-29 23:00;CYXE 292300Z 16014KT 15SM SCT230 03/M09 A3062 RMK CI2 SLP402

CYXE;2007-03-30 00:00;CYXE 300000Z 16011G16KT 15SM FEW230 03/M08 A3060 RMK CI2 SLP395

CYXE;2007-03-30 01:00;CYXE 300100Z 15010KT 15SM FEW230 02/M09 A3058 RMK CI2 SLP388

CYXE;2007-03-30 02:00;CYXE 300200Z 14009KT 15SM FEW230 M01/M06 A3057 RMK CI2 SLP385

CYXE;2007-03-30 03:00;CYXE 300300Z 16011KT 15SM FEW230 M01/M06 A3056 RMK CI2 SLP380

CYXE;2007-03-30 04:00;CYXE 300400Z 16009KT 15SM FEW230 M02/M05 A3055 RMK CI1 SLP377

CYXE;2007-03-30 05:00;CYXE 300500Z 18014KT 15SM FEW230 M01/M06 A3053 RMK CI0 SLP371

CYXE;2007-03-30 06:00;CYXE 300600Z 18016G21KT 15SM SKC M01/M07 A3052 RMK SLP364

CYXE;2007-03-30 07:00;CYXE 300700Z 19012G18KT 15SM SKC M01/M07 A3051 RMK SLP361

CYXE;2007-03-30 08:00;CYXE 300800Z 18013KT 15SM SKC M02/M06 A3050 RMK SLP358

CYXE;2007-03-30 09:00;CYXE 300900Z 18014KT 15SM FEW140 M02/M07 A3047 RMK AC1 SLP345

CYXE;2007-03-30 10:00;CYXE 301000Z 18014KT 15SM FEW220 M03/M07 A3043 RMK CI0 SLP333

CYXE;2007-03-30 11:00;CYXE 301100Z 17012KT 15SM FEW220 M03/M07 A3040 RMK CI0 SLP323

CYXE;2007-03-30 12:00;CYXE 301200Z 17010KT 15SM FEW220 M04/M08 A3037 RMK CI1 SLP313

CYXE;2007-03-30 13:00;CYXE 301300Z 18010G16KT 15SM BKN220 M04/M08 A3034 RMK CI2 SLP305

CYXE;2007-03-30 14:00;CYXE 301400Z 18012KT 15SM FEW250 M03/M08 A3031 RMK CI0 SLP295

CYXE;2007-03-30 15:00;CYXE 301500Z 18011KT 15SM SCT270 M01/M08 A3028 RMK CI0 SLP283

CYXE;2007-03-30 16:00;CYXE 301600Z 19013KT 15SM SCT280 00/M08 A3025 RMK CI0 SLP275

CYXE;2007-03-30 17:00;CYXE 301700Z 18010KT 15SM SCT290 02/M07 A3023 RMK CI0 SLP268

CYXE;2007-03-30 18:00;CYXE 301800Z 18009KT 15SM FEW300 03/M07 A3020 RMK CI1 SLP254

CYXE;2007-03-30 19:00;CYXE 301900Z 18008KT 15SM FEW300 05/M07 A3017 RMK CI1 SLP244

CYXE;2007-03-30 20:00;CYXE 302000Z 16011KT 15SM FEW300 06/M07 A3014 RMK CI1 SLP234

CYXE;2007-03-30 21:00;CYXE 302100Z 16007KT 15SM FEW300 07/M06 A3010 RMK CI1 SLP219

CYXE;2007-03-30 22:00;CYXE 302200Z 15012KT 15SM FEW300 06/M05 A3007 RMK CI1 SLP207

CYXE;2007-03-30 23:00;CYXE 302300Z 15016KT 15SM FEW300 05/M04 A3003 RMK CI1 SLP196

CYXE;2007-03-31 00:00;CYXE 310000Z 14016KT 15SM BKN300 04/M03 A3001 RMK CI1 SLP190

CYXE;2007-03-31 01:00;CYXE 310100Z 14013G19KT 15SM FEW100 BKN300 03/M02 A2999 RMK AC1CI1 SLP181

CYXE;2007-03-31 01:37;CYXE 310137Z 14007KT 15SM FEW100 BKN300 02/ RMK AC1CI1

CYXE;2007-03-31 02:00;CYXE 310200Z 14011KT 15SM FEW100 BKN300 02/M02 A2999 RMK AC1CI1 SLP183

CYXE;2007-03-31 03:00;CYXE 310300Z 14010KT 15SM FEW090 BKN300 02/M02 A2997 RMK AC1CI2 SLP174

CYXE;2007-03-31 04:00;CYXE 310400Z 16012KT 15SM FEW090 OVC300 01/M01 A2996 RMK AC2CI2 SLP171

CYXE;2007-03-31 05:00;CYXE 310500Z 16008KT 15SM FEW090 OVC300 01/M02 A2993 RMK AC2CI2 SLP163

CYXE;2007-03-31 06:00;CYXE 310600Z 16012KT 15SM SCT010 OVC052 00/M01 A2991 RMK SC3SC4 SLP153

CYXE;2007-03-31 07:00;CYXE 310700Z 16009KT 15SM FEW010 OVC120 01/M01 A2990 RMK SC1AC6 SLP148

CYXE;2007-03-31 08:00;CYXE 310800Z 15006KT 15SM BKN120 00/M01 A2987 RMK AC6 SLP141

CYXE;2007-03-31 09:00;CYXE 310900Z 16007KT 15SM OVC041 01/M01 A2985 RMK SC8 SLP130

CYXE;2007-03-31 10:00;CYXE 311000Z 14005KT 15SM SCT050 OVC077 01/M01 A2982 RMK SC4AC4 SLP121

CYXE;2007-03-31 11:00;CYXE 311100Z 14009KT 15SM FEW050 OVC079 01/M01 A2982 RMK SC1AC7 SLP120

CYXE;2007-03-31 12:00;CYXE 311200Z 17008KT 15SM BKN054 OVC087 00/M01 A2982 RMK SC5AC2 SLP122

CYXE;2007-03-31 13:00;CYXE 311300Z 16006KT 15SM SCT058 BKN110 00/M02 A2981 RMK SC3AC3 SLP118

CYXE;2007-03-31 14:00;CYXE 311400Z 15006KT 15SM FEW053 SCT092 BKN300 01/M01 A2979 RMK SC2AC2CI2 SLP113

CYXE;2007-03-31 15:00;CYXE 311500Z 16007KT 15SM FEW050 BKN091 BKN300 01/M01 A2979 RMK SC2AC2CI2 SLP112

CYXE;2007-03-31 16:00;CYXE 311600Z 16008KT 15SM SCT050 BKN091 BKN300 02/M01 A2977 RMK SC2AC2CI2 SLP104

CYXE;2007-03-31 17:00;CYXE 311700Z 18006KT 15SM FEW016 BKN096 OVC300 04/M00 A2977 RMK SF2AC2CI3 SLP105

CYXE;2007-03-31 18:00;CYXE 311800Z 23003KT 15SM FEW016 BKN098 04/M00 A2977 RMK CF1AC6 SLP104

CYXE;2007-03-31 19:00;CYXE 311900Z 21004KT 15SM BKN100 BKN300 05/00 A2976 RMK AC6CI2 SLP101

CYXE;2007-03-31 20:00;CYXE 312000Z 24003KT 15SM BKN088 BKN300 06/00 A2976 RMK AC6CI2 SLP101

CYXE;2007-03-31 21:00;CYXE 312100Z 30002KT 15SM FEW020 BKN088 BKN300 07/01 A2976 RMK CU1AC2CI2 SLP098

CYXE;2007-03-31 22:00;CYXE 312200Z 01005KT 15SM FEW020 OVC300 07/01 A2975 RMK SC1CI3 SLP097

CYXE;2007-03-31 23:00;CYXE 312300Z 36004KT 15SM FEW020 OVC300 07/01 A2975 RMK SC1CI5 SLP097

CYXE;2007-04-01 05:00;CYXE 010500Z 33006KT 15SM BKN020 OVC100 00/M00 A2978 RMK SC5AC2 SLP110

CYXE;2007-04-01 06:00;CYXE 010600Z 01004KT 6SM BR BKN020 OVC092 M00/M01 A2978 RMK SC5AC2 SLP108

CYXE;2007-04-01 07:00;CYXE 010700Z 02004KT 6SM BR BKN018 OVC092 M00/M00 A2977 RMK SC6AC2 SLP106

CYXE;2007-04-01 08:00;CYXE 010800Z 01004KT 6SM BR BKN043 OVC089 M00/M00 A2978 RMK SC6AC2 SLP108

CYXE;2007-04-01 09:00;CYXE 010900Z 00000KT 6SM BR SCT045 OVC083 M00/M01 A2978 RMK SC3AS4 SLP108

CYXE;2007-04-01 10:00;CYXE 011000Z 28002KT 6SM BR OVC029 00/M00 A2979 RMK SC8 SLP110

CYXE;2007-04-01 11:00;CYXE 011100Z 34004KT 6SM BR OVC029 00/M00 A2979 RMK SC8 SLP109

CYXE;2007-04-01 12:00;CYXE 011200Z 36005KT 6SM BR OVC025 01/00 A2980 RMK SC8 SLP113

CYXE;2007-04-01 12:21;CYXE 011221Z 36005KT 6SM BR OVC013 01/ RMK SC6

CYXE;2007-04-01 12:54;CYXE 011254Z 02006KT 6SM BR OVC009 01/ RMK SF8

CYXE;2007-04-01 13:00;CYXE 011300Z 02005KT 6SM BR OVC009 01/00 A2981 RMK SF8 SLP118

CYXE;2007-04-01 13:22;CYXE 011322Z 03004KT 6SM BR SCT009 OVC016 01/ RMK SF4SC4

CYXE;2007-04-01 14:00;CYXE 011400Z 01007KT 15SM OVC022 01/01 A2983 RMK SC8 SLP122

CYXE;2007-04-01 14:38;CYXE 011438Z 01006KT 10SM BKN009 OVC028 01/ RMK SF5SC3

CYXE;2007-04-01 15:00;CYXE 011500Z 01011KT 15SM BKN010 OVC030 02/00 A2984 RMK SF5SC3 SLP130

CYXE;2007-04-01 16:00;CYXE 011600Z 01011KT 15SM OVC008 02/00 A2985 RMK SC8 SLP133

CYXE;2007-04-01 17:00;CYXE 011700Z 01011G16KT 15SM OVC009 02/00 A2986 RMK SC8 SLP137

CYXE;2007-04-01 18:00;CYXE 011800Z 36012KT 15SM OVC012 02/M00 A2987 RMK SC8 SLP140

CYXE;2007-04-01 19:00;CYXE 011900Z 01014KT 15SM OVC012 02/M01 A2988 RMK SC8 SLP144

CYXE;2007-04-01 20:00;CYXE 012000Z 36012G17KT 15SM OVC016 02/M00 A2989 RMK SC8 SLP147

CYXE;2007-04-01 21:00;CYXE 012100Z 36013KT 15SM OVC016 03/M01 A2990 RMK SC8 SLP150

CYXE;2007-04-01 22:00;CYXE 012200Z 36012KT 15SM BKN016 OVC023 02/M01 A2991 RMK SC6SC2 SLP155

CYXE;2007-04-01 23:00;CYXE 012300Z 36017KT 15SM BKN014 OVC025 01/M01 A2993 RMK SC6SC2 SLP160

CYXE;2007-04-01 23:33;CYXE 012333Z 36015KT 15SM SCT014 OVC025 01/ RMK SC3SC5

CYXE;2007-04-02 00:00;CYXE 020000Z 36014KT 15SM FEW014 BKN030 OVC050 01/M02 A2995 RMK SC2SC5SC2 SLP166

CYXE;2007-04-02 00:48;CYXE 020048Z 01011KT 15SM -SHGS FEW014 OVC030 01/ RMK SF2SC6

CYXE;2007-04-02 01:00;CYXE 020100Z 01011KT 15SM -SN FEW014 OVC025 01/M02 A2996 RMK SF2SC6 SLP172

CYXE;2007-04-02 01:22;CYXE 020122Z 01011KT 15SM FEW014 OVC025 00/ RMK SF1SC8

CYXE;2007-04-02 02:00;CYXE 020200Z 01010KT 15SM OVC025 00/M02 A2998 RMK SC8 SLP176

CYXE;2007-04-02 02:23;CYXE 020223Z 02007KT 15SM -SN OVC025 00/ RMK SC8

CYXE;2007-04-02 03:00;CYXE 020300Z 03012KT 15SM -SN OVC030 00/M02 A2999 RMK SC8 SLP182

CYXE;2007-04-02 04:00;CYXE 020400Z 02011KT 15SM -SN OVC030 M00/M02 A3000 RMK SC8 SLP185

CYXE;2007-04-02 05:00;CYXE 020500Z 03012KT 12SM -SN BKN035 OVC055 M00/M02 A3001 RMK SC6SC2 SLP187

CYXE;2007-04-02 06:00;CYXE 020600Z 02010KT 15SM -SN OVC039 M00/M02 A3002 RMK SC8 SLP192

CYXE;2007-04-02 07:00;CYXE 020700Z 04011KT 15SM -SN SCT040 OVC054 M01/M03 A3003 RMK SC3SC5 SLP196

CYXE;2007-04-02 07:53;CYXE 020753Z 05011G16KT 10SM -SN BKN012 OVC045 M01/ RMK SC6SC2

CYXE;2007-04-02 08:00;CYXE 020800Z 05011G16KT 10SM -SN BKN014 OVC045 M01/M03 A3004 RMK SC6SC2 SLP198

CYXE;2007-04-02 09:00;CYXE 020900Z 05015KT 10SM -SN OVC012 M01/M04 A3005 RMK SC8 SLP202

CYXE;2007-04-02 09:28;CYXE 020928Z 07013KT 15SM -SN OVC008 M02/ RMK SC8

CYXE;2007-04-02 10:00;CYXE 021000Z 07013KT 15SM -SN OVC007 M02/M03 A3007 RMK SF8 SLP209

CYXE;2007-04-02 11:00;CYXE 021100Z 07012KT 15SM -SN OVC009 M02/M04 A3007 RMK SF8 SLP210

CYXE;2007-04-02 11:20;CYXE 021120Z 07011KT 15SM -SN OVC010 M03/ RMK SF8

CYXE;2007-04-02 12:00;CYXE 021200Z 07010KT 15SM -SN OVC012 M03/M06 A3010 RMK SC8 SLP221

CYXE;2007-04-02 13:00;CYXE 021300Z 07013KT 15SM OVC012 M04/M06 A3011 RMK SC8 SLP225

CYXE;2007-04-02 14:00;CYXE 021400Z 07013KT 15SM OVC012 M05/M08 A3013 RMK SC8 SLP233

CYXE;2007-04-02 15:00;CYXE 021500Z 05011KT 15SM OVC014 M05/M09 A3015 RMK SC8 SLP241

CYXE;2007-04-02 15:49;CYXE 021549Z 06013KT 15SM -SN OVC014 M05/ RMK SC8

CYXE;2007-04-02 16:00;CYXE 021600Z 06013KT 15SM -SN OVC014 M05/M09 A3017 RMK SC8 SLP249

CYXE;2007-04-02 16:35;CYXE 021635Z 07013KT 15SM -SN OVC016 M05/ RMK SC8

CYXE;2007-04-02 17:00;CYXE 021700Z 06012KT 10SM -SN BKN016 M05/M09 A3019 RMK SC7 SLP253

CYXE;2007-04-02 18:00;CYXE 021800Z 05013KT 15SM -SN OVC016 M05/M10 A3019 RMK SC8 SLP256

CYXE;2007-04-02 19:00;CYXE 021900Z 05013G18KT 15SM -SN BKN018 M05/M10 A3021 RMK SC7 SLP260

CYXE;2007-04-02 20:00;CYXE 022000Z 06014KT 15SM -SN BKN018 M05/M10 A3022 RMK SC7 SLP264

CYXE;2007-04-02 21:00;CYXE 022100Z 05014KT 15SM -SN BKN020 M05/M10 A3023 RMK SC7 SLP269

CYXE;2007-04-02 22:00;CYXE 022200Z 06010G15KT 10SM -SHSN OVC020 M06/M11 A3025 RMK SC8 CU EMBD SLP276

CYXE;2007-04-02 23:00;CYXE 022300Z 07014KT 8SM -SN OVC020 M06/M11 A3028 RMK SC8 SLP284

CYXE;2007-04-03 00:00;CYXE 030000Z 04013KT 10SM -SN BKN020 BKN080 M06/M11 A3030 RMK SC6AC1 SLP296

CYXE;2007-04-03 01:00;CYXE 030100Z 07014KT 12SM -SN BKN020 BKN080 M07/M11 A3033 RMK SC5AC2 SLP306

CYXE;2007-04-03 02:00;CYXE 030200Z 06015KT 15SM -SN BKN020 BKN080 M07/M11 A3035 RMK SC6AC1 SLP311

CYXE;2007-04-03 02:47;CYXE 030247Z 08010G15KT 15SM SCT020 M08/ RMK SC3

CYXE;2007-04-03 03:00;CYXE 030300Z 09011KT 15SM SCT016 M08/M10 A3038 RMK SC3 SLP324

CYXE;2007-04-03 04:00;CYXE 030400Z 08012KT 15SM FEW016 BKN060 M08/M12 A3039 RMK SC1SC0 SLP329

CYXE;2007-04-03 05:00;CYXE 030500Z 07012G17KT 15SM BKN060 M08/M12 A3039 RMK SC5 SLP330

CYXE;2007-04-03 06:00;CYXE 030600Z 07015KT 15SM FEW032 BKN061 M08/M12 A3041 RMK SF2SC4 SLP335

CYXE;2007-04-03 07:00;CYXE 030700Z 08014KT 15SM FEW027 BKN080 M08/M12 A3042 RMK SF2AC3 SLP338

CYXE;2007-04-03 08:00;CYXE 030800Z 07011KT 15SM BKN078 M09/M12 A3044 RMK AC5 SLP345

CYXE;2007-04-03 09:00;CYXE 030900Z 07015KT 15SM BKN078 M09/M13 A3045 RMK AC3 SLP351

CYXE;2007-04-03 10:00;CYXE 031000Z 08013KT 15SM FEW031 BKN078 M10/M13 A3047 RMK SF1AC2 SLP356

CYXE;2007-04-03 11:00;CYXE 031100Z 07011KT 15SM FEW026 BKN074 M10/M13 A3048 RMK SF2AC3 SLP360

CYXE;2007-04-03 12:00;CYXE 031200Z 07014KT 15SM SCT086 BKN300 M11/M13 A3050 RMK AC2CI1 SLP369

CYXE;2007-04-03 13:00;CYXE 031300Z 07013KT 15SM FEW018 SCT086 BKN300 M11/M14 A3052 RMK SF1AC2CI1 SLP376

CYXE;2007-04-03 13:23;CYXE 031323Z 08010G16KT 15SM FEW008 SCT086 BKN300 M11/ RMK SF1AC2CI1

CYXE;2007-04-03 14:00;CYXE 031400Z 07013KT 15SM FEW008 FEW086 OVC300 M11/M14 A3053 RMK SF1AC1CI1 SLP380

CYXE;2007-04-03 15:00;CYXE 031500Z 08010KT 15SM FEW008 OVC300 M10/M13 A3054 RMK SF1CI2 SLP383

CYXE;2007-04-03 15:51;CYXE 031551Z 06013KT 10SM -SN FEW012 OVC300 M09/ RMK SC2CI1

CYXE;2007-04-03 16:00;CYXE 031600Z 06013KT 10SM -SN SCT012 OVC300 M09/M13 A3055 RMK SC3CI1 SLP385

CYXE;2007-04-03 16:15;CYXE 031615Z 07012KT 15SM -SN FEW006 FEW012 OVC300 M09/ RMK SF1SC2CI1

CYXE;2007-04-03 17:00;CYXE 031700Z 08013KT 15SM -SN SCT011 OVC300 M08/M13 A3055 RMK SF2CI1 SLP387

CYXE;2007-04-03 18:00;CYXE 031800Z 07014KT 15SM -SN FEW013 OVC300 M08/M13 A3055 RMK SC2CI2 SLP387

CYXE;2007-04-03 19:00;CYXE 031900Z 06013KT 15SM -SN SCT017 OVC270 M07/M12 A3055 RMK SC4CI1 SLP387

CYXE;2007-04-03 20:00;CYXE 032000Z 07010KT 15SM -SN BKN015 OVC270 M07/M12 A3057 RMK SC5CI2 SLP392

CYXE;2007-04-03 21:00;CYXE 032100Z 07007KT 15SM BKN021 OVC270 M07/M13 A3057 RMK SC5CI1 SLP391

CYXE;2007-04-03 22:00;CYXE 032200Z 07009G15KT 15SM -SN BKN018 BKN270 M07/M12 A3057 RMK SC5CI0 SLP393

CYXE;2007-04-03 23:00;CYXE 032300Z 08009KT 15SM -SN BKN020 BKN270 M07/M13 A3059 RMK SC6CI0 SLP398

CYXE;2007-04-04 00:00;CYXE 040000Z 09011KT 15SM -SN SCT018 BKN270 M08/M13 A3059 RMK CU3CI0 SLP400

CYXE;2007-04-04 00:50;CYXE 040050Z 08010KT 15SM SCT020 BKN270 M08/ RMK CU3CI0

CYXE;2007-04-04 01:00;CYXE 040100Z 08010KT 15SM SCT020 BKN270 M08/M13 A3059 RMK CU3CI0 SLP400

CYXE;2007-04-04 02:00;CYXE 040200Z 08008KT 15SM SCT020 BKN270 M10/M13 A3059 RMK CU3CI0 SLP402

CYXE;2007-04-04 02:11;CYXE 040211Z 08009KT 15SM -SN SCT011 SCT020 BKN270 M10/ RMK SC3SC1CI0

CYXE;2007-04-04 03:00;CYXE 040300Z 07010KT 15SM FEW013 SCT270 M10/M12 A3061 RMK SC2CI0 SLP408

CYXE;2007-04-04 04:00;CYXE 040400Z 09009KT 15SM FEW013 FEW270 M10/M13 A3061 RMK SC1CI0 SLP410

CYXE;2007-04-04 05:00;CYXE 040500Z 10007KT 15SM FEW270 M11/M13 A3062 RMK CI0 SLP412

CYXE;2007-04-04 06:00;CYXE 040600Z 09006KT 15SM SKC M11/M13 A3062 RMK SLP411

CYXE;2007-04-04 07:00;CYXE 040700Z 09006KT 15SM SKC M11/M14 A3062 RMK SLP412

CYXE;2007-04-04 08:00;CYXE 040800Z 09006KT 15SM SKC M12/M14 A3062 RMK SLP413

CYXE;2007-04-04 09:00;CYXE 040900Z 09005KT 15SM SKC M12/M14 A3062 RMK SLP413

CYXE;2007-04-04 10:00;CYXE 041000Z 09007KT 15SM SKC M11/M14 A3061 RMK SLP410

CYXE;2007-04-04 11:00;CYXE 041100Z 10006KT 15SM SCT076 M11/M14 A3061 RMK AC2 SLP409

CYXE;2007-04-04 12:00;CYXE 041200Z 11008KT 15SM FEW085 SCT300 M11/M14 A3060 RMK AC2CI2 SLP405

CYXE;2007-04-04 13:00;CYXE 041300Z 12008KT 15SM FEW020 BKN086 BKN300 M11/M13 A3061 RMK SC2AC2CI2 SLP407

CYXE;2007-04-04 14:00;CYXE 041400Z 14009KT 15SM -SN BKN028 BKN083 OVC250 M10/M12 A3062 RMK SC3AC2CI1 SLP410

CYXE;2007-04-04 15:00;CYXE 041500Z 14009KT 4SM -SN BKN021 OVC080 M08/M11 A3062 RMK SC2AC3 SLP410

CYXE;2007-04-04 15:32;CYXE 041532Z 12009KT 6SM -SN BKN014 OVC078 M07/ RMK SC6AC1

CYXE;2007-04-04 16:00;CYXE 041600Z 15008KT 6SM -SN BKN014 OVC078 M08/M11 A3061 RMK SC6AC1 SLP409

CYXE;2007-04-04 17:00;CYXE 041700Z 12007KT 10SM -SN BKN018 BKN077 OVC220 M06/M12 A3061 RMK SC6AC1CI0 SLP407

CYXE;2007-04-04 18:00;CYXE 041800Z 13008KT 6SM -SN BKN022 OVC250 M05/M12 A3061 RMK SC7CI0 SLP405

CYXE;2007-04-04 19:00;CYXE 041900Z 10007KT 6SM -SN BKN022 OVC080 M05/M11 A3060 RMK SC6AC1 SLP404

CYXE;2007-04-04 20:00;CYXE 042000Z 10009KT 15SM -SN BKN024 OVC220 M05/M12 A3060 RMK SC6CI0 SLP402

CYXE;2007-04-04 21:00;CYXE 042100Z 10006KT 15SM BKN028 OVC220 M05/M13 A3059 RMK SC6CI0 SLP399

CYXE;2007-04-04 22:00;CYXE 042200Z 08004KT 15SM BKN026 BKN220 M05/M13 A3058 RMK SC6CI0 SLP397

CYXE;2007-04-04 22:49;CYXE 042249Z 09010KT 15SM -SN BKN030 BKN220 M05/ RMK SC6CI0

CYXE;2007-04-04 23:00;CYXE 042300Z 11008KT 15SM -SN BKN030 BKN220 M05/M11 A3057 RMK SC6CI0 SLP394

CYXE;2007-04-05 00:00;CYXE 050000Z 08010KT 15SM -SN BKN027 BKN220 M05/M12 A3057 RMK SC6CI0 SLP393

CYXE;2007-04-05 00:46;CYXE 050046Z 08011KT 15SM SCT027 BKN110 BKN220 M06/ RMK SC3AC1CI0

CYXE;2007-04-05 01:00;CYXE 050100Z 08010KT 15SM FEW028 BKN110 BKN220 M06/M12 A3057 RMK SC2AC2CI0 SLP394

CYXE;2007-04-05 02:00;CYXE 050200Z 08011KT 15SM FEW028 SCT110 BKN220 M07/M12 A3058 RMK SC1AC2CI0 SLP396

CYXE;2007-04-05 03:00;CYXE 050300Z 08013KT 15SM FEW028 FEW110 FEW220 M08/M13 A3059 RMK SC1AC2CI0 SLP400

CYXE;2007-04-05 04:00;CYXE 050400Z 09010KT 15SM FEW110 FEW220 M09/M13 A3060 RMK AC1CI0 SLP403

CYXE;2007-04-05 05:00;CYXE 050500Z 09008KT 15SM FEW220 M10/M14 A3059 RMK CI0 SLP401

CYXE;2007-04-05 06:00;CYXE 050600Z 09006KT 15SM SKC M11/M14 A3060 RMK SLP402

CYXE;2007-04-05 07:00;CYXE 050700Z 07006KT 15SM SCT100 M11/M14 A3061 RMK AC3 SLP404

CYXE;2007-04-05 08:00;CYXE 050800Z 06006KT 15SM SCT100 M11/M13 A3061 RMK AC2 SLP405

CYXE;2007-04-05 09:00;CYXE 050900Z 08007KT 15SM SCT088 M11/M14 A3061 RMK AC3 SLP407

CYXE;2007-04-05 10:00;CYXE 051000Z 08005KT 15SM SCT088 M12/M14 A3061 RMK AC3 SLP407

CYXE;2007-04-05 11:00;CYXE 051100Z 08006KT 15SM SKC M12/M15 A3061 RMK SLP408

CYXE;2007-04-05 12:00;CYXE 051200Z 05006KT 15SM FEW088 M13/M15 A3062 RMK AC2 SLP411

CYXE;2007-04-05 13:00;CYXE 051300Z 06006KT 15SM FEW088 M12/M14 A3063 RMK AC1 SLP415

CYXE;2007-04-05 14:00;CYXE 051400Z 07006KT 15SM FEW090 M10/M14 A3065 RMK AC2 SLP419

CYXE;2007-04-05 15:00;CYXE 051500Z 07008KT 15SM BKN090 M09/M14 A3066 RMK AC4 SLP423

CYXE;2007-04-05 16:00;CYXE 051600Z 07011KT 15SM SCT055 OVC250 M07/M14 A3066 RMK SC3CI3 SLP425

CYXE;2007-04-05 17:00;CYXE 051700Z 06011KT 15SM FEW055 OVC250 M06/M16 A3066 RMK SC2CI4 SLP425

CYXE;2007-04-05 18:00;CYXE 051800Z 05011G16KT 15SM FEW060 OVC250 M05/M16 A3066 RMK SC2CI6 SLP424

CYXE;2007-04-05 19:00;CYXE 051900Z 07011KT 15SM FEW060 OVC250 M05/M18 A3067 RMK SC2CI5 SLP425

CYXE;2007-04-05 20:00;CYXE 052000Z 06011KT 15SM FEW070 OVC250 M04/M17 A3067 RMK AC2CI5 SLP425

CYXE;2007-04-05 21:00;CYXE 052100Z 05010G15KT 15SM FEW250 M04/M17 A3067 RMK CI0 SLP425

CYXE;2007-04-05 22:00;CYXE 052200Z 02007KT 15SM FEW063 FEW250 M04/M16 A3068 RMK CU1CI0 SLP428

CYXE;2007-04-05 23:00;CYXE 052300Z 05008KT 15SM FEW070 FEW250 M04/M16 A3069 RMK CU1CI0 SLP432

CYXE;2007-04-06 00:00;CYXE 060000Z 04008KT 15SM FEW043 FEW090 M04/M15 A3069 RMK SC1AC1 SLP435

CYXE;2007-04-06 01:00;CYXE 060100Z 03006KT 15SM SKC M05/M15 A3070 RMK SLP436

CYXE;2007-04-06 02:00;CYXE 060200Z 36004KT 15SM FEW090 M07/M13 A3070 RMK AC1 SLP437

CYXE;2007-04-06 03:00;CYXE 060300Z 35003KT 15SM SKC M08/M12 A3071 RMK SLP440

CYXE;2007-04-06 04:00;CYXE 060400Z 31004KT 15SM SKC M08/M12 A3072 RMK SLP444

CYXE;2007-04-06 05:00;CYXE 060500Z 32004KT 15SM SKC M09/M11 A3073 RMK SLP447

CYXE;2007-04-06 06:00;CYXE 060600Z 35006KT 15SM SKC M10/M12 A3074 RMK SLP448

CYXE;2007-04-06 07:00;CYXE 060700Z 36006KT 15SM SKC M09/M12 A3074 RMK SLP450

CYXE;2007-04-06 08:00;CYXE 060800Z 01005KT 15SM SKC M10/M13 A3074 RMK SLP451

CYXE;2007-04-06 09:00;CYXE 060900Z 04003KT 15SM SKC M11/M14 A3075 RMK SLP453

CYXE;2007-04-06 10:00;CYXE 061000Z 05005KT 15SM SKC M12/M15 A3075 RMK SLP454

CYXE;2007-04-06 11:00;CYXE 061100Z 04006KT 15SM SKC M13/M15 A3075 RMK SLP455

CYXE;2007-04-06 12:00;CYXE 061200Z 06005KT 15SM SKC M13/M15 A3075 RMK SLP455

CYXE;2007-04-06 13:00;CYXE 061300Z 05005KT 15SM SKC M12/M15 A3075 RMK SLP455

CYXE;2007-04-06 14:00;CYXE 061400Z 05007KT 15SM SKC M10/M13 A3077 RMK SLP460

CYXE;2007-04-06 15:00;CYXE 061500Z 06005KT 15SM SKC M08/M13 A3077 RMK SLP462

CYXE;2007-04-06 16:00;CYXE 061600Z 05007KT 15SM SKC M06/M14 A3078 RMK SLP463

CYXE;2007-04-06 17:00;CYXE 061700Z 04008KT 15SM SKC M05/M15 A3077 RMK SLP460

CYXE;2007-04-06 18:00;CYXE 061800Z 07007KT 15SM SKC M05/M16 A3076 RMK SLP456

CYXE;2007-04-06 19:00;CYXE 061900Z 06011KT 15SM SKC M03/M16 A3075 RMK SLP453

CYXE;2007-04-06 20:00;CYXE 062000Z 06007KT 15SM SKC M04/M17 A3074 RMK SLP449

CYXE;2007-04-06 21:00;CYXE 062100Z 07008KT 15SM SKC M03/M17 A3072 RMK SLP443

CYXE;2007-04-06 22:00;CYXE 062200Z 07008KT 15SM SKC M03/M17 A3070 RMK SLP437

CYXE;2007-04-06 23:00;CYXE 062300Z 06007KT 15SM SKC M03/M16 A3069 RMK SLP434

CYXE;2007-04-07 00:00;CYXE 070000Z 06008KT 15SM SKC M04/M15 A3068 RMK SLP431

CYXE;2007-04-07 01:00;CYXE 070100Z 06008KT 15SM SKC M05/M15 A3067 RMK SLP428

CYXE;2007-04-07 02:00;CYXE 070200Z 08007KT 15SM FEW250 M07/M15 A3065 RMK CI0 SLP422

CYXE;2007-04-07 03:00;CYXE 070300Z 08007KT 15SM FEW250 M09/M15 A3065 RMK CI1 SLP421

CYXE;2007-04-07 04:00;CYXE 070400Z 10006KT 15SM SKC M10/M15 A3064 RMK SLP418

CYXE;2007-04-07 05:00;CYXE 070500Z 13005KT 15SM SKC M10/M15 A3063 RMK SLP415

CYXE;2007-04-07 06:00;CYXE 070600Z 13005KT 15SM SKC M10/M16 A3062 RMK SLP408

CYXE;2007-04-07 07:00;CYXE 070700Z 12004KT 15SM SKC M10/M16 A3061 RMK SLP405

CYXE;2007-04-07 08:00;CYXE 070800Z 12005KT 15SM SKC M11/M15 A3059 RMK SLP399

CYXE;2007-04-07 09:00;CYXE 070900Z 13006KT 15SM SKC M11/M16 A3057 RMK SLP392

CYXE;2007-04-07 10:00;CYXE 071000Z 14004KT 15SM SKC M12/M16 A3055 RMK SLP386

CYXE;2007-04-07 11:00;CYXE 071100Z 13004KT 15SM SKC M12/M16 A3054 RMK SLP383

CYXE;2007-04-07 12:00;CYXE 071200Z 14004KT 15SM FEW240 M12/M15 A3053 RMK CI0 SLP379

CYXE;2007-04-07 13:00;CYXE 071300Z 14003KT 15SM FEW240 M12/M15 A3052 RMK CI0 SLP376

CYXE;2007-04-07 14:00;CYXE 071400Z 13005KT 15SM SKC M09/M13 A3051 RMK SLP371

CYXE;2007-04-07 15:00;CYXE 071500Z 17007KT 15SM SKC M07/M13 A3049 RMK SLP366

CYXE;2007-04-07 16:00;CYXE 071600Z 16009KT 15SM SKC M04/M12 A3047 RMK SLP358

CYXE;2007-04-07 17:00;CYXE 071700Z 14010KT 15SM SKC M02/M15 A3045 RMK SLP353

CYXE;2007-04-07 18:00;CYXE 071800Z 15011KT 15SM SKC M01/M14 A3043 RMK SLP342

CYXE;2007-04-07 19:00;CYXE 071900Z 15009KT 15SM SKC M00/M15 A3041 RMK SLP334

CYXE;2007-04-07 20:00;CYXE 072000Z 16007KT 15SM SKC 00/M14 A3038 RMK SLP325

CYXE;2007-04-07 21:00;CYXE 072100Z 14011KT 15SM SKC 01/M14 A3035 RMK SLP314

CYXE;2007-04-07 22:00;CYXE 072200Z 18010G15KT 15SM FEW240 01/M13 A3033 RMK CI0 SLP305

CYXE;2007-04-07 23:00;CYXE 072300Z 14014KT 15SM FEW240 02/M14 A3030 RMK CI0 SLP295

CYXE;2007-04-08 00:00;CYXE 080000Z 15010G15KT 15SM FEW240 01/M14 A3028 RMK CI0 SLP288

CYXE;2007-04-08 01:00;CYXE 080100Z 17007KT 15SM FEW240 M00/M13 A3026 RMK CI0 SLP282

CYXE;2007-04-08 02:00;CYXE 080200Z 15009KT 15SM FEW090 FEW240 M02/M13 A3024 RMK AC1CI0 SLP277

CYXE;2007-04-08 03:00;CYXE 080300Z 15008KT 15SM FEW090 M02/M13 A3022 RMK AC1 SLP268

CYXE;2007-04-08 04:00;CYXE 080400Z 15010KT 15SM SKC M03/M13 A3021 RMK SLP263

CYXE;2007-04-08 05:00;CYXE 080500Z 14009KT 15SM SKC M04/M13 A3019 RMK SLP257

CYXE;2007-04-08 06:00;CYXE 080600Z 14010KT 15SM SKC M05/M11 A3017 RMK SLP250

CYXE;2007-04-08 07:00;CYXE 080700Z 15009KT 15SM SKC M05/M12 A3016 RMK SLP246

CYXE;2007-04-08 08:00;CYXE 080800Z 16010KT 15SM SKC M05/M12 A3015 RMK SLP241

CYXE;2007-04-08 09:00;CYXE 080900Z 16009KT 15SM FEW250 M05/M12 A3013 RMK CI1 SLP233

CYXE;2007-04-08 10:00;CYXE 081000Z 16008KT 15SM BKN140 M05/M12 A3012 RMK AC6 SLP229

CYXE;2007-04-08 11:00;CYXE 081100Z 17009KT 15SM BKN140 M05/M12 A3010 RMK AC6 SLP224

CYXE;2007-04-08 12:00;CYXE 081200Z 16010KT 15SM BKN140 M04/M12 A3009 RMK AC6 SLP220

CYXE;2007-04-08 13:00;CYXE 081300Z 17010KT 15SM BKN140 M04/M12 A3007 RMK AC6 SLP213

CYXE;2007-04-08 14:00;CYXE 081400Z 17010KT 15SM BKN140 M03/M11 A3006 RMK AC6 SLP209

CYXE;2007-04-08 15:00;CYXE 081500Z 18010G15KT 15SM BKN140 M01/M11 A3005 RMK AC6 SLP206

CYXE;2007-04-08 16:00;CYXE 081600Z 17013KT 15SM BKN140 M00/M11 A3005 RMK AC6 SLP206

CYXE;2007-04-08 17:00;CYXE 081700Z 17014G19KT 15SM BKN140 01/M13 A3004 RMK AC6 SLP202

CYXE;2007-04-08 18:00;CYXE 081800Z 17017KT 15SM BKN120 BKN250 02/M12 A3002 RMK AC5CI0 SLP193

CYXE;2007-04-08 19:00;CYXE 081900Z 16014G19KT 15SM SCT120 BKN250 04/M12 A2999 RMK AC4CI0 SLP186

CYXE;2007-04-08 20:00;CYXE 082000Z 15010G15KT 15SM FEW120 BKN250 04/M12 A2999 RMK AC2CI1 SLP186

CYXE;2007-04-08 21:00;CYXE 082100Z 18013G19KT 15SM BKN250 05/M13 A2996 RMK CI2 SLP174

CYXE;2007-04-08 22:00;CYXE 082200Z 16014KT 15SM BKN280 05/M14 A2995 RMK CI2 SLP168

CYXE;2007-04-08 23:00;CYXE 082300Z 17009KT 15SM SCT300 05/M13 A2994 RMK CI1 SLP165

CYXE;2007-04-09 00:00;CYXE 090000Z 16013G19KT 15SM FEW300 05/M13 A2992 RMK CI1 SLP158

CYXE;2007-04-09 01:00;CYXE 090100Z 14013KT 15SM FEW100 FEW300 03/M13 A2991 RMK AC1CI0 SLP156

CYXE;2007-04-09 02:00;CYXE 090200Z 14009KT 15SM FEW096 FEW300 02/M13 A2990 RMK AC1CI0 SLP151

CYXE;2007-04-09 03:00;CYXE 090300Z 12008KT 15SM FEW098 FEW300 M00/M10 A2990 RMK AC1CI0 SLP152

CYXE;2007-04-09 04:00;CYXE 090400Z 13011KT 15SM SKC M00/M10 A2989 RMK SLP149

CYXE;2007-04-09 05:00;CYXE 090500Z 14012KT 15SM SKC M01/M10 A2988 RMK SLP146

CYXE;2007-04-09 06:00;CYXE 090600Z 14011KT 15SM SKC M01/M10 A2987 RMK SLP140

CYXE;2007-04-09 07:00;CYXE 090700Z 14011KT 15SM BKN250 M02/M10 A2985 RMK CI3 SLP135

CYXE;2007-04-09 08:00;CYXE 090800Z 13010KT 15SM SCT250 M02/M10 A2984 RMK CI1 SLP132

CYXE;2007-04-09 09:00;CYXE 090900Z 14011KT 15SM BKN250 M02/M10 A2983 RMK CI2 SLP127

CYXE;2007-04-09 10:00;CYXE 091000Z 12008KT 15SM BKN250 M03/M09 A2982 RMK CI2 SLP123

CYXE;2007-04-09 11:00;CYXE 091100Z 13008KT 15SM BKN250 M04/M09 A2983 RMK CI3 SLP125

CYXE;2007-04-09 12:00;CYXE 091200Z 13008KT 15SM BKN250 M04/M09 A2981 RMK CI2 SLP122

CYXE;2007-04-09 13:00;CYXE 091300Z 12012KT 15SM FEW140 BKN250 M04/M09 A2981 RMK AC1CI2 SLP122

CYXE;2007-04-09 14:00;CYXE 091400Z 13013KT 15SM FEW140 BKN250 M02/M09 A2980 RMK AC1CI2 SLP117

CYXE;2007-04-09 15:00;CYXE 091500Z 14013G19KT 15SM FEW140 SCT250 M01/M09 A2978 RMK AC1CI1 SLP111

CYXE;2007-04-09 16:00;CYXE 091600Z 13015KT 15SM FEW140 SCT250 02/M08 A2976 RMK AC1CI1 SLP105

CYXE;2007-04-09 17:00;CYXE 091700Z 14018G26KT 15SM FEW140 BKN250 04/M09 A2976 RMK AC1CI2 SLP103

CYXE;2007-04-09 18:00;CYXE 091800Z 15016G27KT 15SM SCT110 BKN250 05/M09 A2974 RMK AC1CI2 SLP096

CYXE;2007-04-09 19:00;CYXE 091900Z 14020G28KT 15SM SCT110 BKN250 05/M10 A2973 RMK AC2CI2 SLP091

CYXE;2007-04-09 20:00;CYXE 092000Z 13018G27KT 15SM BKN110 BKN250 06/M10 A2971 RMK AC3CI2 SLP086

CYXE;2007-04-09 21:00;CYXE 092100Z 15018G24KT 15SM BKN110 BKN250 06/M11 A2970 RMK AC5CI1 SLP082

CYXE;2007-04-09 22:00;CYXE 092200Z 13020G26KT 15SM BKN089 BKN280 05/M12 A2970 RMK AC5CI1 SLP080

CYXE;2007-04-09 23:00;CYXE 092300Z 12017G25KT 15SM BKN089 BKN280 05/M10 A2969 RMK AC6CI1 SLP079

CYXE;2007-04-10 00:00;CYXE 100000Z 12018G24KT 15SM OVC091 04/M10 A2970 RMK AC8 SLP082

CYXE;2007-04-10 01:00;CYXE 100100Z 11015G24KT 15SM BKN086 OVC280 03/M10 A2970 RMK AC5CI1 SLP082

CYXE;2007-04-10 02:00;CYXE 100200Z 10015KT 15SM BKN086 OVC280 02/M09 A2969 RMK AC5CI2 SLP081

CYXE;2007-04-10 03:00;CYXE 100300Z 11016KT 15SM BKN089 02/M09 A2970 RMK AC5 SLP082

CYXE;2007-04-10 04:00;CYXE 100400Z 11018KT 15SM OVC093 01/M09 A2970 RMK AC8 SLP082

CYXE;2007-04-10 05:00;CYXE 100500Z 11018KT 15SM OVC093 00/M07 A2970 RMK AC8 SLP082

CYXE;2007-04-10 06:00;CYXE 100600Z 13021G27KT 15SM OVC093 00/M07 A2970 RMK AC8 SLP079

CYXE;2007-04-10 07:00;CYXE 100700Z 12018G26KT 15SM OVC090 M00/M08 A2970 RMK AC8 SLP079

CYXE;2007-04-10 08:00;CYXE 100800Z 12022KT 15SM BKN080 OVC140 M00/M08 A2970 RMK AC6AC2 SLP079

CYXE;2007-04-10 09:00;CYXE 100900Z 12020G26KT 15SM FEW090 OVC140 M01/M08 A2970 RMK AC2AC6 SLP079

CYXE;2007-04-10 10:00;CYXE 101000Z 12015G21KT 15SM BKN095 OVC140 M01/M07 A2970 RMK AC6AC2 SLP081

CYXE;2007-04-10 11:00;CYXE 101100Z 12016G22KT 15SM OVC078 M01/M07 A2971 RMK AC8 SLP084

CYXE;2007-04-10 12:00;CYXE 101200Z 11016KT 15SM BKN090 M02/M07 A2972 RMK AC6 SLP089

CYXE;2007-04-10 13:00;CYXE 101300Z 11015KT 15SM BKN080 M02/M07 A2974 RMK AC4 SLP096

CYXE;2007-04-10 14:00;CYXE 101400Z 11017KT 15SM BKN073 BKN250 M02/M07 A2976 RMK AC4CI1 SLP102

CYXE;2007-04-10 15:00;CYXE 101500Z 12015G22KT 15SM SCT076 BKN250 M01/M08 A2977 RMK AC3CI2 SLP106

CYXE;2007-04-10 16:00;CYXE 101600Z 11019G25KT 15SM FEW028 SCT068 BKN250 M01/M08 A2978 RMK CF1AC3CI2 SLP111

CYXE;2007-04-10 17:00;CYXE 101700Z 11016G22KT 15SM SCT023 BKN075 OVC250 M01/M08 A2980 RMK SC3AC3CI1 SLP117

CYXE;2007-04-10 17:10;CYXE 101710Z 10017G25KT 15SM -SN SCT023 OVC075 M00/ RMK SC4AC3

CYXE;2007-04-10 18:00;CYXE 101800Z 10018G24KT 15SM -SN BKN029 OVC075 00/M07 A2982 RMK SC6AC2 -SN INTMT SLP125

CYXE;2007-04-10 19:00;CYXE 101900Z 11018G25KT 15SM -SN BKN031 OVC250 01/M08 A2983 RMK SC5CI2 -SN INTMT SLP127

CYXE;2007-04-10 20:00;CYXE 102000Z 09017KT 15SM -SN SCT025 OVC079 02/M07 A2985 RMK SC4AC3 -SN INTMT SLP133

CYXE;2007-04-10 20:44;CYXE 102044Z 12017G25KT 15SM SCT036 BKN079 OVC250 02/ RMK SC3AC3CI1

CYXE;2007-04-10 21:00;CYXE 102100Z 09018KT 15SM SCT034 BKN092 OVC250 02/M07 A2986 RMK SC3AC4CI0 SLP139

CYXE;2007-04-10 22:00;CYXE 102200Z 10016G25KT 15SM SCT015 OVC063 01/M07 A2989 RMK SF4SC4 SLP146

CYXE;2007-04-10 23:00;CYXE 102300Z 09017G26KT 15SM FEW015 BKN032 OVC091 01/M07 A2990 RMK SF2SC5AC2 SLP150

CYXE;2007-04-11 00:00;CYXE 110000Z 10015G22KT 15SM BKN037 BKN091 OVC300 01/M08 A2991 RMK SC5AS2CI0 SLP157

CYXE;2007-04-11 01:00;CYXE 110100Z 11018KT 15SM BKN026 OVC092 00/M09 A2994 RMK SC5AC3 SLP165

CYXE;2007-04-11 02:00;CYXE 110200Z 10012KT 15SM OVC041 00/M08 A2995 RMK SC8 SLP170

CYXE;2007-04-11 02:38;CYXE 110238Z 12014G20KT 15SM -SN OVC030 M00/ RMK SC8

CYXE;2007-04-11 03:00;CYXE 110300Z 12012G18KT 15SM -SN BKN030 OVC080 M01/M07 A2999 RMK SC6AC2 SLP182

CYXE;2007-04-11 04:00;CYXE 110400Z 11012KT 15SM -SN OVC034 M01/M07 A3000 RMK SC8 SLP187

CYXE;2007-04-11 04:38;CYXE 110438Z 12008KT 15SM OVC040 M01/ RMK SC8

CYXE;2007-04-11 05:00;CYXE 110500Z 12009G15KT 15SM OVC043 M01/M07 A3001 RMK SC8 SLP191

CYXE;2007-04-11 06:00;CYXE 110600Z 10009KT 12SM -SN OVC045 M02/M06 A3002 RMK SC8 SLP193

CYXE;2007-04-11 07:00;CYXE 110700Z 09009KT 8SM -SN OVC043 M03/M05 A3002 RMK SC8 SLP195

CYXE;2007-04-11 08:00;CYXE 110800Z 07006KT 12SM -SN OVC036 M03/M05 A3002 RMK SC8 SLP193

CYXE;2007-04-11 08:26;CYXE 110826Z 07005KT 15SM SCT036 M04/ RMK SC4

CYXE;2007-04-11 09:00;CYXE 110900Z 09005KT 15SM SCT036 BKN080 M04/M06 A3002 RMK SC4AC2 SLP195

CYXE;2007-04-11 10:00;CYXE 111000Z 12003KT 15SM SCT035 OVC055 M03/M05 A3003 RMK SC3SC5 SLP196

CYXE;2007-04-11 11:00;CYXE 111100Z 10005KT 15SM SCT035 OVC055 M03/M06 A3003 RMK SC3SC5 SLP198

CYXE;2007-04-11 12:00;CYXE 111200Z 10004KT 15SM OVC032 M03/M06 A3004 RMK SC8 SLP200

CYXE;2007-04-11 13:00;CYXE 111300Z 07003KT 15SM OVC030 M02/M06 A3005 RMK SC8 SLP204

CYXE;2007-04-11 14:00;CYXE 111400Z 12004KT 15SM -SN BKN019 OVC055 M02/M06 A3006 RMK SC6SC2 SLP206

CYXE;2007-04-11 15:00;CYXE 111500Z 15005KT 6SM -SN OVC026 M02/M05 A3006 RMK SC8 SLP207

CYXE;2007-04-11 16:00;CYXE 111600Z 17003KT 3SM -SN OVC018 M01/M05 A3006 RMK SC8 SLP207

CYXE;2007-04-11 16:12;CYXE 111612Z 19004KT 2SM -SN SCT018 OVC070 M00/ RMK SC4AC2 VIS SE 4

CYXE;2007-04-11 16:27;CYXE 111627Z 15005KT 3SM -SN BKN009 OVC070 M00/ RMK SC5AC2

CYXE;2007-04-11 17:00;CYXE 111700Z 18006KT 15SM -SN OVC015 M00/M04 A3006 RMK SC8 SLP207

CYXE;2007-04-11 17:11;CYXE 111711Z 20006KT 15SM OVC015 00/ RMK SC8

CYXE;2007-04-11 17:27;CYXE 111727Z 19003KT 3SM -SN OVC015 M00/ RMK SC8

CYXE;2007-04-11 18:00;CYXE 111800Z 17003KT 15SM -SN OVC015 00/M03 A3005 RMK SC8 SLP204

CYXE;2007-04-11 19:00;CYXE 111900Z 21006KT 3SM -SN OVC019 01/M03 A3004 RMK SC8 VIS SE 11/2 SLP201

CYXE;2007-04-11 19:09;CYXE 111909Z 23006KT 2SM -SN OVC019 01/ RMK SC8

CYXE;2007-04-11 19:38;CYXE 111938Z 24005KT 2SM -SN OVC013 01/ RMK SC8

CYXE;2007-04-11 20:00;CYXE 112000Z 23005KT 1 1/2SM -SN OVC016 01/M02 A3003 RMK SC8 VIS SE 3 SLP198

CYXE;2007-04-11 20:21;CYXE 112021Z 22005KT 1 1/2SM -SN OVC014 01/ RMK SC8

CYXE;2007-04-11 21:00;CYXE 112100Z 24005KT 1 1/2SM -SN OVC014 01/M01 A3002 RMK SN2SC6 SLP195

CYXE;2007-04-11 21:25;CYXE 112125Z 22006KT 2SM -SN OVC012 01/ RMK SC8

CYXE;2007-04-11 22:00;CYXE 112200Z 23005KT 3SM -SN BKN012 OVC044 01/M01 A3001 RMK SF6SC2 SLP192

CYXE;2007-04-11 23:00;CYXE 112300Z 19009KT 2 1/2SM -SN BKN014 OVC048 01/M01 A3000 RMK SF6SC2 VIS VRB 1-4 SLP189

CYXE;2007-04-12 00:00;CYXE 120000Z 20007KT 6SM -SN SCT013 OVC084 01/M02 A3000 RMK SF4AC4 SLP186

CYXE;2007-04-12 01:00;CYXE 120100Z 20007KT 4SM -SN BKN024 OVC071 01/M02 A2998 RMK SC6AC2 SLP181

CYXE;2007-04-12 02:00;CYXE 120200Z 19005KT 6SM -SN OVC024 00/M02 A2997 RMK SC8 SLP178

CYXE;2007-04-12 02:31;CYXE 120231Z 19006KT 15SM FEW024 BKN046 OVC092 00/ RMK SF2SC5AC1

CYXE;2007-04-12 03:00;CYXE 120300Z 18005KT 15SM BKN044 OVC092 00/M02 A2997 RMK SC6AC2 SLP177

CYXE;2007-04-12 04:00;CYXE 120400Z 18006KT 15SM OVC044 M00/M02 A2996 RMK SC8 SLP174

CYXE;2007-04-12 05:00;CYXE 120500Z 19008KT 15SM OVC048 00/M03 A2995 RMK SC8 SLP170

CYXE;2007-04-12 06:00;CYXE 120600Z 20007KT 15SM OVC048 M00/M02 A2994 RMK SC8 SLP164

CYXE;2007-04-12 07:00;CYXE 120700Z 21008KT 15SM -SN OVC024 M00/M02 A2994 RMK SC8 SLP164

CYXE;2007-04-12 07:42;CYXE 120742Z 22008KT 2 1/2SM -SN OVC020 M00/ RMK SN2SC6

CYXE;2007-04-12 08:00;CYXE 120800Z 22009KT 2SM -SN OVC012 M00/M01 A2993 RMK SN3SC5 SLP163

CYXE;2007-04-12 08:15;CYXE 120815Z 23009KT 4SM -SN SCT012 OVC025 M00/ RMK SC3SC5

CYXE;2007-04-12 08:33;CYXE 120833Z 23008KT 2SM -SN OVC025 M00/ RMK SN2SC6

CYXE;2007-04-12 08:44;CYXE 120844Z 23009KT 1 1/2SM -SN VV010 M00/ RMK SN8

CYXE;2007-04-12 09:00;CYXE 120900Z 23009KT 1SM R09/P6000FT/D -SN VV009 M00/M01 A2992 RMK SN8 /S02/ SLP159

CYXE;2007-04-12 09:42;CYXE 120942Z 23012KT 2 1/2SM -SN OVC012 M00/ RMK SN3SC5

CYXE;2007-04-12 10:00;CYXE 121000Z 23011KT 3SM -SN SCT005 OVC012 M01/M01 A2991 RMK SF4SC4 SLP156

CYXE;2007-04-12 11:00;CYXE 121100Z 22012KT 4SM -SN FEW010 OVC026 M01/M01 A2990 RMK SC2SC6 SLP152

CYXE;2007-04-12 11:14;CYXE 121114Z 21012KT 2SM -SN VV013 M01/ RMK SN8

CYXE;2007-04-12 11:37;CYXE 121137Z 21011KT 8SM -SN BKN013 OVC026 M01/ RMK SC5SC3

CYXE;2007-04-12 12:00;CYXE 121200Z 21011KT 10SM -SN SCT013 OVC030 M01/M02 A2989 RMK SC3SC5 SLP148

CYXE;2007-04-12 12:28;CYXE 121228Z 21010KT 15SM FEW013 SCT030 SCT110 OVC250 M01/ RMK SC2SC2AC1CI0

CYXE;2007-04-12 13:00;CYXE 121300Z 22008KT 15SM FEW013 SCT055 BKN250 M02/M03 A2989 RMK SC2SC2CI0 SLP148

CYXE;2007-04-12 14:00;CYXE 121400Z 22010KT 15SM SCT055 BKN110 BKN250 M00/M02 A2989 RMK SC3AC2CI0 SLP148

CYXE;2007-04-12 15:00;CYXE 121500Z 23009KT 15SM BKN081 OVC250 01/M01 A2989 RMK AC5CI1 SLP148

CYXE;2007-04-12 16:00;CYXE 121600Z 24012KT 15SM SCT092 OVC250 02/M01 A2989 RMK AC3CI1 SLP147

CYXE;2007-04-12 17:00;CYXE 121700Z 24011KT 15SM FEW092 BKN250 05/01 A2988 RMK AC2CI2 SLP145

CYXE;2007-04-12 18:00;CYXE 121800Z 25010KT 15SM FEW100 BKN250 08/01 A2987 RMK AC1CI2 SLP138

CYXE;2007-04-12 19:00;CYXE 121900Z 27009KT 15SM FEW044 BKN250 09/M02 A2986 RMK CU1CI2 SLP133

CYXE;2007-04-12 20:00;CYXE 122000Z 27006KT 15SM FEW060 FEW096 OVC250 11/M04 A2984 RMK CU1AC1CI2 SLP128

CYXE;2007-04-12 21:00;CYXE 122100Z 28008KT 15SM -SHRA BKN070TCU BKN084 OVC250 10/M05 A2984 RMK TCU5AC1CI1 VIRGA ALQDS SLP124

CYXE;2007-04-12 22:00;CYXE 122200Z 26012G17KT 15SM FEW038 SCT068TCU BKN099 OVC250 09/M04 A2984 RMK CU2TCU2AC2CI0 VIRGA ALQDS SLP124

CYXE;2007-04-12 23:00;CYXE 122300Z 30008G16KT 15SM SCT052TCU BKN250 09/M04 A2983 RMK TCU3CI1 VIRGA E-S SLP122

CYXE;2007-04-13 00:00;CYXE 130000Z 34012KT 15SM FEW072 BKN250 10/M08 A2983 RMK AC2CI1 SLP123

CYXE;2007-04-13 01:00;CYXE 130100Z 36007KT 15SM FEW072 08/M05 A2985 RMK AC1 SLP127

CYXE;2007-04-13 02:00;CYXE 130200Z 35003KT 15SM FEW070 05/M04 A2986 RMK AC1 SLP130

CYXE;2007-04-13 03:00;CYXE 130300Z 23004KT 15SM FEW070 02/M03 A2987 RMK AC1 SLP139

CYXE;2007-04-13 04:00;CYXE 130400Z 27006KT 15SM SKC 03/M03 A2988 RMK SLP143

CYXE;2007-04-13 05:00;CYXE 130500Z 28006KT 15SM SKC 01/M04 A2989 RMK SLP147

CYXE;2007-04-13 06:00;CYXE 130600Z 27006KT 15SM SKC M01/M04 A2990 RMK SLP147

CYXE;2007-04-13 07:00;CYXE 130700Z 29006KT 15SM SKC M01/M06 A2991 RMK SLP150

CYXE;2007-04-13 08:00;CYXE 130800Z 27006KT 15SM SKC M02/M05 A2992 RMK SLP153

CYXE;2007-04-13 09:00;CYXE 130900Z 23003KT 15SM SKC M03/M06 A2993 RMK SLP157

CYXE;2007-04-13 10:00;CYXE 131000Z 23004KT 15SM SKC M02/M05 A2994 RMK SLP160

CYXE;2007-04-13 11:00;CYXE 131100Z 22005KT 15SM SKC M03/M07 A2994 RMK SLP160

CYXE;2007-04-13 12:00;CYXE 131200Z 19005KT 15SM FEW250 M04/M06 A2995 RMK CI0 SLP163

CYXE;2007-04-13 13:00;CYXE 131300Z 19006KT 15SM FEW120 FEW250 M02/M05 A2996 RMK AC1CI1 SLP168

CYXE;2007-04-13 14:00;CYXE 131400Z 17004KT 15SM FEW120 FEW250 00/M03 A2995 RMK AC1CI0 SLP165

CYXE;2007-04-13 15:00;CYXE 131500Z 20005KT 15SM SCT250 04/M02 A2996 RMK CI1 SLP168

CYXE;2007-04-13 16:00;CYXE 131600Z 18006KT 15SM SCT250 06/M02 A2994 RMK CI1 SLP163

CYXE;2007-04-13 17:00;CYXE 131700Z 21007KT 15SM FEW250 10/M01 A2993 RMK CI1 SLP159

CYXE;2007-04-13 18:00;CYXE 131800Z 21007KT 15SM FEW250 13/M01 A2992 RMK CI0 SLP150

CYXE;2007-04-13 19:00;CYXE 131900Z 19014KT 15SM FEW250 14/M05 A2990 RMK CI1 SLP143

CYXE;2007-04-13 20:00;CYXE 132000Z 19012G17KT 15SM FEW060 SCT250 15/M06 A2988 RMK CU1CI1 SLP137

CYXE;2007-04-13 21:00;CYXE 132100Z 19014KT 15SM FEW065 BKN250 15/M05 A2986 RMK CU1CI1 SLP131

CYXE;2007-04-13 22:00;CYXE 132200Z 18009G16KT 15SM FEW065 SCT250 16/M05 A2984 RMK CU1CI0 SLP123

CYXE;2007-04-13 23:00;CYXE 132300Z 22009G15KT 15SM FEW065 BKN250 16/M04 A2982 RMK CU2CI0 SLP119

CYXE;2007-04-14 00:00;CYXE 140000Z 26008KT 15SM FEW065 FEW250 16/M05 A2981 RMK SC1CI0 SLP115

CYXE;2007-04-14 01:00;CYXE 140100Z 25006KT 15SM SCT250 15/M03 A2981 RMK CI0 SLP113

CYXE;2007-04-14 02:00;CYXE 140200Z 23005KT 15SM SCT250 10/01 A2981 RMK CI1 SLP113

CYXE;2007-04-14 03:00;CYXE 140300Z 19003KT 15SM FEW250 09/M02 A2981 RMK CI0 SLP112

CYXE;2007-04-14 04:00;CYXE 140400Z 18006KT 15SM FEW250 07/M02 A2981 RMK CI0 SLP112

CYXE;2007-04-14 05:00;CYXE 140500Z 16007KT 15SM FEW250 05/M04 A2981 RMK CI0 SLP112

CYXE;2007-04-14 06:00;CYXE 140600Z 18009KT 15SM SKC 03/M04 A2980 RMK SLP108

CYXE;2007-04-14 07:00;CYXE 140700Z 17008KT 15SM SKC 03/M04 A2979 RMK SLP104

CYXE;2007-04-14 08:00;CYXE 140800Z 18007KT 15SM SKC 03/M03 A2979 RMK SLP105

CYXE;2007-04-14 09:00;CYXE 140900Z 18007KT 15SM SKC 02/M04 A2977 RMK SLP098

CYXE;2007-04-14 10:00;CYXE 141000Z 18007KT 15SM SKC 02/M03 A2976 RMK SLP094

CYXE;2007-04-14 11:00;CYXE 141100Z 18008KT 15SM SKC 02/M02 A2975 RMK SLP090

CYXE;2007-04-14 12:00;CYXE 141200Z 17007KT 15SM FEW110 BKN250 02/M02 A2974 RMK AC1CI2 SLP087

CYXE;2007-04-14 13:00;CYXE 141300Z 18009KT 15SM FEW110 BKN250 04/M02 A2973 RMK AC1CI3 SLP084

CYXE;2007-04-14 14:00;CYXE 141400Z 17007KT 15SM FEW110 BKN300 05/M01 A2973 RMK AC1CS2 SLP083

CYXE;2007-04-14 15:00;CYXE 141500Z 18010KT 15SM FEW110 BKN300 07/M00 A2972 RMK AC1CI1 SLP079

CYXE;2007-04-14 16:00;CYXE 141600Z 18010KT 15SM SCT300 09/01 A2970 RMK CI1 SLP074

CYXE;2007-04-14 17:00;CYXE 141700Z 20009KT 15SM FEW300 14/02 A2969 RMK CI1 SLP069

CYXE;2007-04-14 18:00;CYXE 141800Z 18011G16KT 15SM SCT300 16/02 A2967 RMK CI1 SLP062

CYXE;2007-04-14 19:00;CYXE 141900Z 17011G16KT 15SM BKN300 17/03 A2966 RMK CI2 SLP058

CYXE;2007-04-14 20:00;CYXE 142000Z 20010KT 15SM BKN300 19/04 A2965 RMK CI2 SLP056

CYXE;2007-04-14 21:00;CYXE 142100Z 25007KT 15SM BKN300 20/03 A2963 RMK CI3 SLP047

CYXE;2007-04-14 22:00;CYXE 142200Z 25014KT 15SM BKN300 20/02 A2962 RMK CI6 SLP042

CYXE;2007-04-14 23:00;CYXE 142300Z 23010G16KT 15SM OVC300 20/03 A2962 RMK CI6 SLP042

CYXE;2007-04-15 00:00;CYXE 150000Z 24008KT 15SM BKN300 21/02 A2962 RMK CI4 SLP041

CYXE;2007-04-15 01:00;CYXE 150100Z 23005KT 15SM BKN300 18/04 A2961 RMK CI2 SLP039

CYXE;2007-04-15 02:00;CYXE 150200Z 17004KT 15SM BKN300 16/03 A2961 RMK CI2 SLP038

CYXE;2007-04-15 03:00;CYXE 150300Z 18006KT 15SM BKN300 14/02 A2961 RMK CI2 SLP041

CYXE;2007-04-15 04:00;CYXE 150400Z 18008KT 15SM BKN300 11/02 A2962 RMK CI2 SLP042

CYXE;2007-04-15 05:00;CYXE 150500Z 18007KT 15SM BKN300 11/03 A2961 RMK CI2 SLP040

CYXE;2007-04-15 06:00;CYXE 150600Z 19009KT 15SM SCT094 OVC300 11/03 A2960 RMK AC3CI1 SLP033

CYXE;2007-04-15 07:00;CYXE 150700Z 20007KT 15SM SCT090 BKN270 10/03 A2960 RMK AC3CI0 SLP034

CYXE;2007-04-15 08:00;CYXE 150800Z 22007KT 15SM BKN088 09/04 A2961 RMK AC6 SLP036

CYXE;2007-04-15 09:00;CYXE 150900Z 24007KT 15SM -SHRA SCT073 08/04 A2962 RMK AC4 SLP037

CYXE;2007-04-15 09:20;CYXE 150920Z 25007KT 15SM BKN073 07/ RMK AC5

CYXE;2007-04-15 10:00;CYXE 151000Z 27009KT 15SM SCT085 07/04 A2963 RMK AC4 SLP040

CYXE;2007-04-15 11:00;CYXE 151100Z 31010KT 15SM FEW085 OVC250 07/03 A2964 RMK AC2CI2 SLP046

CYXE;2007-04-15 12:00;CYXE 151200Z 31014KT 15SM SCT095 OVC250 06/02 A2970 RMK AC4CI4 PRESRR SLP067

CYXE;2007-04-15 13:00;CYXE 151300Z 32011KT 15SM SCT095 OVC250 06/00 A2975 RMK AC2CI2 SLP082

CYXE;2007-04-15 14:00;CYXE 151400Z 32008KT 15SM SCT095 BKN300 06/M00 A2978 RMK AC2CI2 SLP092

CYXE;2007-04-15 15:00;CYXE 151500Z 34009KT 15SM FEW095 BKN300 10/M00 A2977 RMK AC2CI2 SLP095

CYXE;2007-04-15 16:00;CYXE 151600Z 32018KT 15SM FEW100 OVC300 10/M01 A2981 RMK AC2CI5 SLP105

CYXE;2007-04-15 17:00;CYXE 151700Z 33014KT 15SM FEW100 OVC300 10/M02 A2984 RMK AC2CI6 SLP116

CYXE;2007-04-15 18:00;CYXE 151800Z 33013KT 15SM BKN110 OVC300 11/M03 A2986 RMK AC3CI5 SLP125

CYXE;2007-04-15 19:00;CYXE 151900Z 33014KT 15SM FEW110 BKN300 13/M03 A2988 RMK AC2CI2 SLP132

CYXE;2007-04-15 20:00;CYXE 152000Z 33012G18KT 15SM FEW094 BKN300 13/M03 A2989 RMK AC2CI2 SLP134

CYXE;2007-04-15 21:00;CYXE 152100Z 32012G19KT 15SM BKN090 BKN300 14/M03 A2990 RMK AC3CI2 SLP140

CYXE;2007-04-15 22:00;CYXE 152200Z 34015KT 15SM SCT110 OVC300 13/M04 A2991 RMK AC3CI4 SLP142

CYXE;2007-04-15 23:00;CYXE 152300Z 31013G18KT 15SM SCT110 OVC300 12/M03 A2992 RMK AC3CI5 SLP146

CYXE;2007-04-16 00:00;CYXE 160000Z 31011G17KT 15SM SCT110 OVC300 12/M03 A2994 RMK AC3CI4 SLP155

CYXE;2007-04-16 01:00;CYXE 160100Z 30009KT 15SM FEW100 BKN300 10/M02 A2995 RMK AC2CI4 SLP159

CYXE;2007-04-16 02:00;CYXE 160200Z 31007KT 15SM BKN300 09/M03 A2996 RMK CI5 SLP162

CYXE;2007-04-16 03:00;CYXE 160300Z 27006KT 15SM BKN300 05/M00 A2999 RMK CI1 SLP174

CYXE;2007-04-16 04:00;CYXE 160400Z 28007KT 15SM FEW300 03/M01 A3001 RMK CI0 SLP180

CYXE;2007-04-16 04:15;CYXE 160415Z 27007KT 15SM SKC 02/

CYXE;2007-04-16 05:00;CYXE 160500Z 28009KT 15SM SKC 02/M03 A3003 RMK SLP187

CYXE;2007-04-16 06:00;CYXE 160600Z 30008KT 15SM SKC 01/M04 A3005 RMK SLP194

CYXE;2007-04-16 07:00;CYXE 160700Z 27007KT 15SM SKC 00/M03 A3006 RMK SLP198

CYXE;2007-04-16 08:00;CYXE 160800Z 30006KT 15SM SKC M01/M04 A3007 RMK SLP201

CYXE;2007-04-16 09:00;CYXE 160900Z 27007KT 15SM SKC M01/M03 A3007 RMK SLP202

CYXE;2007-04-16 10:00;CYXE 161000Z 28008KT 15SM SKC M01/M04 A3008 RMK SLP204

CYXE;2007-04-16 11:00;CYXE 161100Z 26007KT 15SM FEW090 FEW230 M02/M04 A3008 RMK AC1CI0 SLP207

CYXE;2007-04-16 12:00;CYXE 161200Z 23007KT 15SM FEW090 FEW230 M03/M04 A3009 RMK AC1CI0 SLP213

CYXE;2007-04-16 13:00;CYXE 161300Z 21004KT 15SM SKC M01/M04 A3011 RMK SLP217

CYXE;2007-04-16 14:00;CYXE 161400Z 21004KT 15SM SKC 02/M03 A3012 RMK SLP221

CYXE;2007-04-16 15:00;CYXE 161500Z 19005KT 15SM SKC 05/M02 A3012 RMK SLP220

CYXE;2007-04-16 16:00;CYXE 161600Z 18005KT 15SM SCT300 08/M02 A3012 RMK CI2 SLP219

CYXE;2007-04-16 17:00;CYXE 161700Z 20008KT 15SM BKN300 11/M03 A3011 RMK CS4 SLP217

CYXE;2007-04-16 18:00;CYXE 161800Z 19009KT 15SM BKN300 13/M05 A3009 RMK CI2 SLP208

CYXE;2007-04-16 19:00;CYXE 161900Z 20011KT 15SM BKN300 14/M04 A3006 RMK CS2 SLP199

CYXE;2007-04-16 20:00;CYXE 162000Z 21007KT 15SM SCT085 OVC300 15/M05 A3003 RMK AC3CS4 SLP190

CYXE;2007-04-16 21:00;CYXE 162100Z 20008G15KT 15SM BKN300 16/M05 A3000 RMK CI2 SLP178

CYXE;2007-04-16 22:00;CYXE 162200Z 18015G20KT 15SM FEW140 BKN300 16/M04 A2997 RMK AC1CI2 SLP168

CYXE;2007-04-16 23:00;CYXE 162300Z 19017KT 15SM SCT300 16/M04 A2993 RMK CI1 SLP155

CYXE;2007-04-17 00:00;CYXE 170000Z 18019KT 15SM BKN300 16/M04 A2990 RMK CI2 SLP142

CYXE;2007-04-17 01:00;CYXE 170100Z 17014KT 15SM BKN300 15/M03 A2987 RMK CI2 SLP134

CYXE;2007-04-17 02:00;CYXE 170200Z 16010KT 15SM OVC300 13/M02 A2986 RMK CI3 SLP130

CYXE;2007-04-17 03:00;CYXE 170300Z 15015KT 15SM OVC300 12/M01 A2986 RMK CI3 SLP128

CYXE;2007-04-17 04:00;CYXE 170400Z 16013G18KT 15SM BKN300 10/M01 A2985 RMK CI3 SLP124

CYXE;2007-04-17 05:00;CYXE 170500Z 17012KT 15SM FEW120 OVC300 11/M02 A2984 RMK AC2CI3 SLP122

CYXE;2007-04-17 06:00;CYXE 170600Z 17017G22KT 15SM FEW110 OVC300 12/M02 A2982 RMK AC2CI2 SLP110

CYXE;2007-04-17 07:00;CYXE 170700Z 18022G30KT 15SM SCT110 OVC300 11/M03 A2979 RMK AC4CI2 SLP100

CYXE;2007-04-17 08:00;CYXE 170800Z 18023G30KT 15SM FEW110 BKN300 11/M03 A2977 RMK AC2CI2 SLP093

CYXE;2007-04-17 09:00;CYXE 170900Z 18022G32KT 15SM FEW100 BKN300 10/M03 A2974 RMK AC2CI2 SLP081

CYXE;2007-04-17 10:00;CYXE 171000Z 19018G26KT 15SM BKN100 OVC300 10/M02 A2974 RMK AC6CI2 SLP080

CYXE;2007-04-17 11:00;CYXE 171100Z 19014G20KT 15SM BKN094 OVC300 09/M02 A2973 RMK AC5CI2 SLP077

CYXE;2007-04-17 12:00;CYXE 171200Z 19014G19KT 15SM BKN094 OVC300 09/M02 A2972 RMK AC6CI2 SLP074

CYXE;2007-04-17 13:00;CYXE 171300Z 18014G19KT 15SM BKN093 BKN300 08/M01 A2970 RMK AC5CI1 SLP070

CYXE;2007-04-17 14:00;CYXE 171400Z 20015KT 15SM FEW100 BKN300 09/M00 A2970 RMK AC2CI1 SLP070

CYXE;2007-04-17 15:00;CYXE 171500Z 22015KT 15SM FEW100 FEW300 13/02 A2972 RMK AC1CI2 SLP075

CYXE;2007-04-17 16:00;CYXE 171600Z 23012G17KT 15SM FEW100 BKN300 12/01 A2974 RMK AC1CI2 SLP082

CYXE;2007-04-17 17:00;CYXE 171700Z 23015KT 15SM BKN300 15/01 A2974 RMK CI3 SLP083

CYXE;2007-04-17 18:00;CYXE 171800Z 24010G15KT 15SM BKN300 17/02 A2976 RMK CI3 SLP086

CYXE;2007-04-17 19:00;CYXE 171900Z 27011KT 15SM FEW110 BKN300 18/01 A2976 RMK AC1CI2 SLP087

CYXE;2007-04-17 20:00;CYXE 172000Z 30013KT 15SM FEW100 OVC300 19/01 A2978 RMK AC1CI2 SLP093

CYXE;2007-04-17 21:00;CYXE 172100Z 31009G15KT 15SM FEW095 OVC300 19/M00 A2979 RMK AC1CI3 SLP097

CYXE;2007-04-17 22:00;CYXE 172200Z 33007KT 15SM SCT075 OVC300 18/M01 A2980 RMK AC3CI4 SLP099

CYXE;2007-04-17 23:00;CYXE 172300Z 35008KT 15SM SCT075 OVC280 18/M01 A2981 RMK AC3CI3 SLP101

CYXE;2007-04-18 00:00;CYXE 180000Z 34006KT 15SM BKN090 OVC280 16/00 A2982 RMK AC5CI2 SLP110

CYXE;2007-04-18 01:00;CYXE 180100Z 36005KT 15SM BKN080 OVC280 15/02 A2983 RMK AC6CI1 SLP114

CYXE;2007-04-18 02:00;CYXE 180200Z 03005KT 15SM BKN075 BKN270 13/03 A2984 RMK AC6CI1 SLP117

CYXE;2007-04-18 03:00;CYXE 180300Z 06005KT 15SM FEW075 BKN270 10/03 A2985 RMK AC2CI2 SLP122

CYXE;2007-04-18 04:00;CYXE 180400Z 04007KT 15SM BKN083 08/04 A2987 RMK AC6 SLP127

CYXE;2007-04-18 05:00;CYXE 180500Z 05006KT 15SM SCT079 08/01 A2986 RMK AC3 SLP126

CYXE;2007-04-18 06:00;CYXE 180600Z 05007KT 15SM BKN081 09/02 A2987 RMK AC5 SLP126

CYXE;2007-04-18 07:00;CYXE 180700Z 06007KT 15SM OVC081 09/02 A2987 RMK AC8 SLP127

CYXE;2007-04-18 08:00;CYXE 180800Z 07009KT 15SM OVC081 08/02 A2986 RMK AC8 SLP124

CYXE;2007-04-18 09:00;CYXE 180900Z 05009KT 15SM BKN089 08/01 A2987 RMK AC7 SLP124

CYXE;2007-04-18 10:00;CYXE 181000Z 04010KT 15SM BKN095 06/01 A2985 RMK AC6 SLP119

CYXE;2007-04-18 11:00;CYXE 181100Z 06012KT 15SM SCT090 06/M00 A2986 RMK AC4 SLP123

CYXE;2007-04-18 12:00;CYXE 181200Z 06011KT 15SM BKN100 OVC300 06/00 A2986 RMK AC6CI2 SLP124

CYXE;2007-04-18 12:41;CYXE 181241Z 06010KT 10SM -RA SCT052 BKN084 OVC300 06/ RMK SC4AC2CI1

CYXE;2007-04-18 13:00;CYXE 181300Z 08010KT 10SM -RA BKN052 OVC084 05/02 A2988 RMK SC6AC2 SLP132

CYXE;2007-04-18 14:00;CYXE 181400Z 06009KT 12SM -RA BKN030 OVC085 05/04 A2987 RMK SC6AC2 SLP128

CYXE;2007-04-18 14:22;CYXE 181422Z CCA 05014KT 15SM SCT040 BKN085 OVC250 06/ RMK SC4AC2CI2

CYXE;2007-04-18 15:00;CYXE 181500Z 07017KT 15SM BKN055 BKN085 OVC250 07/04 A2986 RMK SC5AC2CI1 SLP129

CYXE;2007-04-18 16:00;CYXE 181600Z 06018G24KT 15SM BKN090 BKN250 09/04 A2984 RMK AC6CI1 SLP122

CYXE;2007-04-18 17:00;CYXE 181700Z 06018G24KT 15SM BKN090 BKN250 11/05 A2982 RMK AC5CI2 SLP116

CYXE;2007-04-18 18:00;CYXE 181800Z 07020G26KT 15SM FEW090 BKN250 13/04 A2981 RMK AC2CI2 SLP107

CYXE;2007-04-18 19:00;CYXE 181900Z 06021G26KT 15SM FEW095 BKN250 15/04 A2978 RMK AC2CI4 SLP098

CYXE;2007-04-18 20:00;CYXE 182000Z 08021G26KT 15SM SCT100 OVC250 15/03 A2978 RMK AC3CI3 SLP097

CYXE;2007-04-18 21:00;CYXE 182100Z 07022G28KT 15SM FEW110 OVC250 16/06 A2976 RMK AC2CI5 SLP089

CYXE;2007-04-18 22:00;CYXE 182200Z 08025G30KT 15SM FEW110 OVC250 17/04 A2974 RMK AC2CI4 SLP084

CYXE;2007-04-18 23:00;CYXE 182300Z 08024KT 15SM FEW110 OVC250 18/05 A2972 RMK AC1CI4 SLP078

CYXE;2007-04-19 00:00;CYXE 190000Z 08023G33KT 15SM FEW100 OVC250 16/05 A2972 RMK AC2CI3 SLP076

CYXE;2007-04-19 01:00;CYXE 190100Z 09021KT 15SM FEW100 OVC250 15/04 A2972 RMK AC2CI2 SLP075

CYXE;2007-04-19 02:00;CYXE 190200Z 09020G26KT 15SM BKN080 OVC250 13/03 A2971 RMK AC5CI1 SLP074

CYXE;2007-04-19 03:00;CYXE 190300Z 09019G24KT 15SM VCSH BKN075 BKN250 11/04 A2971 RMK ACC5CI1 CB + LTNG DIST SW SLP074

CYXE;2007-04-19 03:46;CYXE 190346Z 09021G26KT 15SM -SHRA BKN080 OVC250 12/ RMK ACC6CI2 CB EMBD LTNG W

CYXE;2007-04-19 04:00;CYXE 190400Z 10019G26KT 15SM -SHRA BKN064 OVC250 11/04 A2971 RMK SC6CI2 ACC + CB EMBD LTNG W SLP075

CYXE;2007-04-19 04:11;CYXE 190411Z CCA 09022G28KT 15SM VCSH OVC064 12/ RMK SC8 ACC EMBD

CYXE;2007-04-19 05:00;CYXE 190500Z 10019G27KT 15SM OVC066 12/03 A2969 RMK ACC8 CB + LTNG DIST W SLP069

CYXE;2007-04-19 06:00;CYXE 190600Z 12018G28KT 15SM SCT064 BKN097 13/02 A2969 RMK SC4AC2 SLP063

CYXE;2007-04-19 07:00;CYXE 190700Z 12021G27KT 15SM BKN087 12/02 A2970 RMK AC6 SLP067

CYXE;2007-04-19 07:21;CYXE 190721Z 13019G26KT 10SM -SHRA OVC071 12/ RMK AC8 CB EMBDD LTGIC

CYXE;2007-04-19 07:30;CYXE 190730Z 13017G27KT 15SM -TSRA SCT013CB OVC066 10/ RMK CB3AC5 LTGICCG

CYXE;2007-04-19 07:31;CYXE 190731Z 13017G27KT 15SM -TSRA SCT013CB OVC066 10/ RMK CB3AC5 LTGICCG

CYXE;2007-04-19 07:51;CYXE 190751Z 13016G25KT 15SM SCT019 OVC066 RMK SC3AC5 LTG DIST E

CYXE;2007-04-19 08:00;CYXE 190800Z 13018G25KT 15SM FEW019 BKN066 11/03 A2970 RMK SF2AC4 SLP066

CYXE;2007-04-19 09:00;CYXE 190900Z 13017KT 15SM BKN097 10/02 A2969 RMK AC6 SLP063

CYXE;2007-04-19 10:00;CYXE 191000Z 13015G21KT 15SM BKN100 10/02 A2969 RMK AC7 SLP065

CYXE;2007-04-19 11:00;CYXE 191100Z 14019KT 15SM BKN100 09/02 A2970 RMK AC7 SLP067

CYXE;2007-04-19 12:00;CYXE 191200Z 14015G21KT 15SM BKN100 OVC300 09/02 A2972 RMK AC6CI2 SLP075

CYXE;2007-04-19 13:00;CYXE 191300Z 13014KT 15SM SCT100 OVC300 08/02 A2974 RMK AC3CI4 SLP081

CYXE;2007-04-19 14:00;CYXE 191400Z 14016KT 15SM SCT090 OVC300 10/03 A2976 RMK AC2CI5 SLP086

CYXE;2007-04-19 15:00;CYXE 191500Z 14017G24KT 15SM SCT110 OVC260 11/03 A2976 RMK AC2CI5 SLP091

CYXE;2007-04-19 16:00;CYXE 191600Z 13018G24KT 15SM SCT095 OVC250 13/03 A2977 RMK AC2CI4 SLP095

CYXE;2007-04-19 17:00;CYXE 191700Z 13019G24KT 15SM FEW100 OVC250 14/03 A2977 RMK AC1CI3 SLP095

CYXE;2007-04-19 18:00;CYXE 191800Z 14017G26KT 15SM FEW100 OVC250 16/03 A2977 RMK AC1CI3 SLP091

CYXE;2007-04-19 19:00;CYXE 191900Z 12015G25KT 15SM FEW110 BKN250 18/03 A2977 RMK AC1CI3 SLP088

CYXE;2007-04-19 20:00;CYXE 192000Z 12025G30KT 15SM FEW090 BKN250 19/02 A2976 RMK AC1CI2 SLP086

CYXE;2007-04-19 21:00;CYXE 192100Z 12023G29KT 15SM FEW095 BKN250 20/M01 A2976 RMK AC1CI2 SLP085

CYXE;2007-04-19 22:00;CYXE 192200Z 13022G34KT 15SM BKN250 19/M03 A2975 RMK CI2 SLP082

CYXE;2007-04-19 23:00;CYXE 192300Z 12021G29KT 15SM BKN250 18/M03 A2975 RMK CI2 SLP083

CYXE;2007-04-20 00:00;CYXE 200000Z 11020G27KT 15SM BKN250 18/M02 A2976 RMK CI2 SLP088

CYXE;2007-04-20 01:00;CYXE 200100Z 11021G27KT 15SM SCT250 17/M01 A2977 RMK CI1 SLP089

CYXE;2007-04-20 02:00;CYXE 200200Z 11015G20KT 15SM SCT250 15/M00 A2977 RMK CI1 SLP090

CYXE;2007-04-20 03:00;CYXE 200300Z 10015KT 15SM FEW250 12/01 A2978 RMK CI1 SLP096

CYXE;2007-04-20 04:00;CYXE 200400Z 10014G19KT 15SM SKC 11/01 A2977 RMK SLP095

CYXE;2007-04-20 05:00;CYXE 200500Z 11016KT 15SM SKC 10/01 A2977 RMK SLP093

CYXE;2007-04-20 06:00;CYXE 200600Z 10015KT 15SM FEW250 10/01 A2975 RMK CI1 SLP086

CYXE;2007-04-20 07:00;CYXE 200700Z 10014KT 15SM SKC 09/02 A2974 RMK SLP082

CYXE;2007-04-20 08:00;CYXE 200800Z 10015KT 15SM SKC 08/02 A2974 RMK SLP081

CYXE;2007-04-20 09:00;CYXE 200900Z 09011KT 15SM SKC 07/02 A2973 RMK SLP078

CYXE;2007-04-20 10:00;CYXE 201000Z 09009KT 15SM FEW100 06/02 A2972 RMK AC2 SLP076

CYXE;2007-04-20 11:00;CYXE 201100Z 09009KT 15SM SCT071 05/02 A2971 RMK AC3 SLP072

CYXE;2007-04-20 12:00;CYXE 201200Z 08007KT 15SM BKN071 05/02 A2972 RMK AC6 SLP075

CYXE;2007-04-20 13:00;CYXE 201300Z 07011KT 15SM SCT038 BKN073 05/03 A2971 RMK SC3AC2 SLP073

CYXE;2007-04-20 14:00;CYXE 201400Z 08008KT 15SM BKN031 OVC071 06/03 A2970 RMK SC6AC2 SLP071

CYXE;2007-04-20 15:00;CYXE 201500Z 09009KT 15SM VCSH BKN036 OVC062 08/04 A2969 RMK SC6SC2 SLP068

CYXE;2007-04-20 16:00;CYXE 201600Z 08010KT 15SM BKN028 OVC060 09/04 A2968 RMK SC6SC2 SLP066

CYXE;2007-04-20 17:00;CYXE 201700Z 07011KT 15SM BKN024 BKN080 10/04 A2968 RMK SC6AC1 SLP063

CYXE;2007-04-20 18:00;CYXE 201800Z 07013KT 15SM BKN033 BKN050 11/04 A2966 RMK SC6SC2 SLP058

CYXE;2007-04-20 19:00;CYXE 201900Z 02009KT 15SM BKN026 BKN055 10/05 A2965 RMK SC6SC1 SLP054

CYXE;2007-04-20 20:00;CYXE 202000Z 04010KT 15SM BKN022 BKN055 12/05 A2964 RMK SC6SC1 SLP050

CYXE;2007-04-20 21:00;CYXE 202100Z 05010KT 15SM BKN024 OVC090 10/05 A2964 RMK SC7AC1 SLP054

CYXE;2007-04-20 22:00;CYXE 202200Z 03009KT 15SM BKN022 OVC095 10/05 A2965 RMK SC7AC1 SLP055

CYXE;2007-04-20 23:00;CYXE 202300Z 05011KT 15SM BKN020 BKN062 OVC095 10/05 A2964 RMK SC6SC1AC1 SLP054

CYXE;2007-04-21 00:00;CYXE 210000Z 05009KT 15SM BKN020 BKN062 OVC250 10/05 A2964 RMK SC5SC2CI1 SLP055

CYXE;2007-04-21 01:00;CYXE 210100Z 05008KT 15SM OVC015 08/05 A2966 RMK SC8 SLP059

CYXE;2007-04-21 02:00;CYXE 210200Z 05007KT 15SM OVC015 07/05 A2967 RMK SC8 SLP064

CYXE;2007-04-21 03:00;CYXE 210300Z 06005KT 15SM OVC015 07/05 A2969 RMK SC8 SLP071

CYXE;2007-04-21 04:00;CYXE 210400Z 06007KT 15SM OVC020 07/05 A2969 RMK SC8 SLP070

CYXE;2007-04-21 05:00;CYXE 210500Z 05005KT 15SM BKN028 OVC046 06/05 A2968 RMK SC5SC3 SLP068

CYXE;2007-04-21 06:00;CYXE 210600Z 09002KT 15SM BKN025 OVC045 06/04 A2968 RMK SC5SC3 SLP066

CYXE;2007-04-21 07:00;CYXE 210700Z 14002KT 15SM OVC020 06/05 A2968 RMK SC8 SLP065

CYXE;2007-04-21 08:00;CYXE 210800Z 21005KT 15SM BKN012 OVC030 06/05 A2967 RMK SC6SC2 SLP063

CYXE;2007-04-21 09:00;CYXE 210900Z 23007KT 15SM OVC012 06/05 A2968 RMK SC8 SLP065

CYXE;2007-04-21 10:00;CYXE 211000Z 21004KT 15SM OVC009 05/04 A2968 RMK SC8 SLP066

CYXE;2007-04-21 11:00;CYXE 211100Z 22007KT 15SM OVC008 05/04 A2968 RMK SC8 SLP067

CYXE;2007-04-21 12:00;CYXE 211200Z 24006KT 10SM BKN007 OVC034 05/04 A2969 RMK SC6SC2 BR SLP071

CYXE;2007-04-21 13:00;CYXE 211300Z 26004KT 10SM FEW007 BKN014 OVC035 06/05 A2970 RMK SC1SC5SC2 BR SLP075

CYXE;2007-04-21 14:00;CYXE 211400Z 25003KT 15SM BKN012 OVC035 06/05 A2971 RMK SC7SC1 SLP076

CYXE;2007-04-21 14:36;CYXE 211436Z 25005KT 15SM BKN008 OVC035 07/ RMK SC6SC2

CYXE;2007-04-21 15:00;CYXE 211500Z 25005KT 15SM BKN010 OVC035 07/05 A2972 RMK SC6SC2 SLP081

CYXE;2007-04-21 16:00;CYXE 211600Z 23004KT 15SM BKN014 OVC070 08/05 A2973 RMK SC6AC2 SLP086

CYXE;2007-04-21 17:00;CYXE 211700Z 22008KT 15SM BKN014 OVC070 09/05 A2974 RMK SC7AC1 SLP087

CYXE;2007-04-21 17:44;CYXE 211744Z 23008KT 15SM BKN016 OVC030 10/ RMK SC6SC2

CYXE;2007-04-21 18:00;CYXE 211800Z 24007KT 15SM VCSH BKN016 OVC030 10/05 A2973 RMK SC6SC2 SLP085

CYXE;2007-04-21 19:00;CYXE 211900Z 26008KT 15SM BKN015 OVC035 10/06 A2973 RMK SC6SC2 SLP084

CYXE;2007-04-21 20:00;CYXE 212000Z 27006KT 15SM BKN018 OVC035 11/06 A2973 RMK SC5SC2 SLP083

CYXE;2007-04-21 20:29;CYXE 212029Z 27010KT 15SM -SHRA BKN025 OVC055 09/ RMK SC6SC2

CYXE;2007-04-21 21:00;CYXE 212100Z 26005KT 15SM VCSH SCT025 BKN035 10/07 A2972 RMK CU3SC4 SLP082

CYXE;2007-04-21 22:00;CYXE 212200Z 32009KT 15SM VCSH SCT024 BKN044 11/05 A2973 RMK SC4SC3 CU EMBD SLP083

CYXE;2007-04-21 23:00;CYXE 212300Z 02005KT 15SM FEW029 BKN053 OVC250 11/05 A2974 RMK CU2SC5CI1 SLP086

CYXE;2007-04-22 01:00;CYXE 220100Z 35006KT 15SM SCT042 OVC059 11/04 A2976 RMK SC4SC3 SLP093

CYXE;2007-04-22 02:00;CYXE 220200Z 04006KT 15SM BKN039 OVC060 09/05 A2977 RMK SC6SC2 SLP098

CYXE;2007-04-22 03:00;CYXE 220300Z 01003KT 15SM OVC032 08/06 A2979 RMK SC6 SLP104

CYXE;2007-04-22 04:00;CYXE 220400Z 00000KT 15SM FEW071 BKN250 07/06 A2980 RMK AC2CI2 SLP107

CYXE;2007-04-22 05:00;CYXE 220500Z 30003KT 15SM FEW110 FEW250 06/05 A2980 RMK AC2CI1 SLP108

CYXE;2007-04-22 06:00;CYXE 220600Z 28004KT 15SM BKN060 OVC100 06/06 A2981 RMK SC6AC2 SLP111

CYXE;2007-04-22 07:00;CYXE 220700Z 30004KT 15SM BKN040 OVC100 06/06 A2981 RMK SC6AC2 SLP113

CYXE;2007-04-22 08:00;CYXE 220800Z 28006KT 15SM BKN035 OVC055 06/05 A2982 RMK SC6SC2 SLP116

CYXE;2007-04-22 08:32;CYXE 220832Z 28006KT 15SM -DZ BKN035 OVC055 06/ RMK SC6SC2

CYXE;2007-04-22 09:00;CYXE 220900Z 28005KT 15SM -RA BKN030 OVC055 06/06 A2983 RMK SC6SC2 SLP119

CYXE;2007-04-22 10:00;CYXE 221000Z 29005KT 15SM -RA BKN040 OVC060 06/05 A2984 RMK SC6SC2 SLP121

CYXE;2007-04-22 10:18;CYXE 221018Z 30003KT 15SM BKN050 OVC095 05/ RMK SC6AC2

CYXE;2007-04-22 11:00;CYXE 221100Z 30005KT 15SM BKN070 OVC095 04/04 A2985 RMK AC6AC2 SLP124

CYXE;2007-04-22 12:00;CYXE 221200Z 27005KT 15SM SCT035 BKN085 04/04 A2986 RMK SC4AC3 SLP129

CYXE;2007-04-22 13:00;CYXE 221300Z 27005KT 15SM SCT035 BKN065 BKN085 05/05 A2987 RMK SC3SC2AC2 SLP133

CYXE;2007-04-22 14:00;CYXE 221400Z 31005KT 15SM VCSH BKN040 BKN090 06/05 A2988 RMK SC5AC1 SLP136

CYXE;2007-04-22 14:33;CYXE 221433Z 31006KT 15SM SCT006 BKN036 BKN090 06/ RMK SF3SC3AC1

CYXE;2007-04-22 15:00;CYXE 221500Z 31006KT 15SM FEW005 BKN036 BKN090 07/06 A2989 RMK SF2SC5AC1 SLP140

CYXE;2007-04-22 16:00;CYXE 221600Z 29004KT 15SM FEW010 BKN050 09/06 A2990 RMK CU1SC6 SLP144

CYXE;2007-04-22 17:00;CYXE 221700Z 00000KT 15SM SCT022 BKN050 11/05 A2991 RMK CU4SC2 SLP145

CYXE;2007-04-22 18:00;CYXE 221800Z 29005KT 15SM BKN033 OVC055 12/04 A2991 RMK CU6SC2 FEW TCU SLP146

CYXE;2007-04-22 18:08;CYXE 221808Z 31005KT 15SM -SHRA BKN033 BKN055 11/ RMK CU6SC2 TCU EMBD

CYXE;2007-04-22 18:36;CYXE 221836Z 34003KT 15SM BKN035TCU BKN070 12/ RMK TCU5AC2

CYXE;2007-04-22 19:00;CYXE 221900Z 26006KT 15SM VCSH BKN037TCU BKN070 12/04 A2991 RMK TCU6AC2 SLP145

CYXE;2007-04-22 20:00;CYXE 222000Z 04009KT 15SM VCSH BKN040TCU BKN080 11/04 A2992 RMK TCU6AC1 CB SW SLP147

CYXE;2007-04-22 20:18;CYXE 222018Z 24009KT 15SM -SHRA BKN040TCU BKN080 10/ RMK TCU6AC1 CB EMBD

CYXE;2007-04-22 20:53;CYXE 222053Z 24004KT 15SM BKN040TCU BKN080 10/ RMK TCU5AC2

CYXE;2007-04-22 21:00;CYXE 222100Z 24003KT 15SM BKN045TCU BKN080 10/05 A2992 RMK TCU5AC2 SLP149

CYXE;2007-04-22 22:00;CYXE 222200Z 03003KT 15SM FEW045TCU BKN080 14/03 A2991 RMK TCU2AC4 SLP147

CYXE;2007-04-22 23:00;CYXE 222300Z 03007KT 15SM SCT046TCU BKN088 13/03 A2992 RMK TCU3AC2 SH NW SLP149

CYXE;2007-04-23 00:00;CYXE 230000Z 05008KT 15SM SCT048 BKN089 13/04 A2992 RMK CU4AC3 SLP148

CYXE;2007-04-23 01:00;CYXE 230100Z 07009KT 15SM FEW048 BKN073 11/05 A2993 RMK CF2AC5 SLP152

CYXE;2007-04-23 02:00;CYXE 230200Z 09006KT 15SM BKN066 10/05 A2995 RMK AC6 SH N SLP156

CYXE;2007-04-23 03:00;CYXE 230300Z 13004KT 15SM BKN052 09/05 A2996 RMK SC6 SLP162

CYXE;2007-04-23 04:00;CYXE 230400Z 14003KT 15SM BKN050 09/06 A2996 RMK SC6 SLP164

CYXE;2007-04-23 05:00;CYXE 230500Z 15004KT 15SM BKN050 08/06 A2997 RMK SC6 SLP167

CYXE;2007-04-23 06:00;CYXE 230600Z 19003KT 15SM BKN075 07/05 A2999 RMK AC6 SLP169

CYXE;2007-04-23 06:32;CYXE 230632Z 00000KT 15SM -SHRA BKN042 07/ RMK SC7 TCU EMBD

CYXE;2007-04-23 06:51;CYXE 230651Z 00000KT 15SM SCT040 07/ RMK SC4

CYXE;2007-04-23 07:00;CYXE 230700Z 19002KT 15SM SCT040 06/05 A2999 RMK SC4 SLP171

CYXE;2007-04-23 08:00;CYXE 230800Z 14003KT 15SM FEW050 BKN090 05/05 A3000 RMK SC2AC4 BR PTCHS SLP174

CYXE;2007-04-23 09:00;CYXE 230900Z 14003KT 15SM BKN050 BKN070 06/04 A3001 RMK SC5AC1 SLP179

CYXE;2007-04-23 10:00;CYXE 231000Z 00000KT 15SM BKN050 04/04 A3002 RMK SC5 SLP184

CYXE;2007-04-23 11:00;CYXE 231100Z 19002KT 15SM BKN050 04/04 A3003 RMK SC6 SLP186

CYXE;2007-04-23 12:00;CYXE 231200Z 00000KT 10SM R09/3000VP6000FT/U BKN047 BKN080 03/03 A3004 RMK SC5AC1 BR SLP191

CYXE;2007-04-23 13:00;CYXE 231300Z 00000KT 12SM BKN045 BKN070 05/05 A3005 RMK SC5AC2 BR SLP194

CYXE;2007-04-23 14:00;CYXE 231400Z 00000KT 15SM BKN045 BKN070 06/05 A3006 RMK SC6AC2 SLP197

CYXE;2007-04-23 15:00;CYXE 231500Z 28002KT 15SM FEW008 BKN045 BKN070 07/06 A3008 RMK SF1SC6AC1 VIRGA SW SLP204

CYXE;2007-04-23 16:00;CYXE 231600Z 36004KT 15SM FEW012 SCT045 BKN070 BKN250 10/07 A3009 RMK CU2SC2AC1CI0 SLP207

CYXE;2007-04-23 17:00;CYXE 231700Z 07005KT 15SM FEW018 SCT045 BKN070 BKN250 11/06 A3009 RMK CU2SC2AC1CI1 SLP206

CYXE;2007-04-23 18:00;CYXE 231800Z 06007KT 15SM SCT028 BKN050 BKN250 12/05 A3009 RMK CU3SC2CI0 SLP206

CYXE;2007-04-23 19:00;CYXE 231900Z 06007KT 15SM VCSH SCT032 BKN050 BKN250 12/04 A3009 RMK CU4SC2CI0 SLP206

CYXE;2007-04-23 20:00;CYXE 232000Z 00000KT 15SM BKN040 BKN250 14/03 A3009 RMK SC5CI1 SLP206

CYXE;2007-04-23 21:00;CYXE 232100Z 07007KT 15SM SCT040 BKN100 BKN250 14/04 A3009 RMK CU3AC2CI1 SLP204

CYXE;2007-04-23 22:00;CYXE 232200Z 05010KT 15SM SCT045 BKN094 BKN300 13/05 A3010 RMK CU3AC2CI1 SLP207

CYXE;2007-04-23 23:00;CYXE 232300Z 00000KT 15SM FEW022 SCT049 BKN074 13/04 A3010 RMK CF2SC2AC2 SLP207

CYXE;2007-04-24 00:00;CYXE 240000Z 07012KT 15SM FEW044 FEW092 BKN300 13/05 A3010 RMK CU1AC1CI1 SLP211

CYXE;2007-04-24 01:00;CYXE 240100Z 08010KT 15SM FEW044 BKN300 11/05 A3010 RMK SC2CI1 SLP212

CYXE;2007-04-24 02:00;CYXE 240200Z 10011KT 15SM FEW044 SCT300 09/06 A3012 RMK SC1CI2 SLP216

CYXE;2007-04-24 03:00;CYXE 240300Z 08006KT 15SM FEW300 07/05 A3014 RMK CI1 SLP224

CYXE;2007-04-24 04:00;CYXE 240400Z 08006KT 15SM SKC 04/03 A3014 RMK SLP226

CYXE;2007-04-24 05:00;CYXE 240500Z 09006KT 15SM SKC 04/03 A3014 RMK SLP226

CYXE;2007-04-24 06:00;CYXE 240600Z 07006KT 15SM SKC 03/02 A3015 RMK SLP227

CYXE;2007-04-24 06:53;CYXE 240653Z 07006KT 15SM SKC 02/

CYXE;2007-04-24 07:00;CYXE 240700Z 07006KT 15SM SKC 02/02 A3015 RMK SLP227

CYXE;2007-04-24 08:00;CYXE 240800Z 07007KT 15SM SKC 02/01 A3014 RMK SLP226

CYXE;2007-04-24 09:00;CYXE 240900Z 08008KT 15SM SKC 01/M00 A3013 RMK SLP223

CYXE;2007-04-24 10:00;CYXE 241000Z 06005KT 15SM SKC 00/M02 A3013 RMK SLP223

CYXE;2007-04-24 11:00;CYXE 241100Z 08005KT 15SM SKC 00/M02 A3013 RMK SLP223

CYXE;2007-04-24 12:00;CYXE 241200Z 08004KT 15SM FEW120 M00/M02 A3013 RMK AC1 SLP224

CYXE;2007-04-24 13:00;CYXE 241300Z 09005KT 15SM SKC 02/00 A3014 RMK SLP225

CYXE;2007-04-24 14:00;CYXE 241400Z 13006KT 15SM SKC 06/02 A3014 RMK SLP225

CYXE;2007-04-24 15:00;CYXE 241500Z 14006KT 15SM FEW250 08/03 A3013 RMK CI0 SLP221

CYXE;2007-04-24 16:00;CYXE 241600Z 15011KT 15SM FEW040 FEW250 11/04 A3012 RMK SC1CI0 SLP217

CYXE;2007-04-24 17:00;CYXE 241700Z 13011KT 15SM FEW032 FEW250 13/05 A3011 RMK CU1CI0 SLP214

CYXE;2007-04-24 18:00;CYXE 241800Z 17008KT 15SM SCT031 BKN250 15/06 A3008 RMK CU4CI0 SLP204

CYXE;2007-04-24 19:00;CYXE 241900Z 18011KT 15SM BKN035 BKN250 14/05 A3006 RMK CU6CI0 SLP196

CYXE;2007-04-24 20:00;CYXE 242000Z 17010G16KT 15SM BKN050 BKN250 17/04 A3003 RMK CU6CI0 SLP188

CYXE;2007-04-24 21:00;CYXE 242100Z 17012KT 15SM BKN050 BKN250 18/04 A3002 RMK CU6CI0 SLP181

CYXE;2007-04-24 22:00;CYXE 242200Z 18015KT 15SM BKN051 BKN300 17/04 A2999 RMK CU6CI0 SLP173

CYXE;2007-04-24 23:00;CYXE 242300Z 16013G18KT 15SM BKN053 OVC300 17/05 A2998 RMK CU5CS1 SLP167

CYXE;2007-04-25 00:00;CYXE 250000Z 17014KT 15SM FEW057 SCT097 OVC300 17/04 A2994 RMK CF1AC1CS3 SLP154

CYXE;2007-04-25 01:00;CYXE 250100Z 16011G18KT 15SM FEW097 OVC300 17/05 A2990 RMK AC1CS4 SLP144

CYXE;2007-04-25 02:00;CYXE 250200Z 15011KT 15SM SCT093 OVC300 15/05 A2989 RMK AC3CS3 SLP138

CYXE;2007-04-25 03:00;CYXE 250300Z 16011G16KT 15SM SCT093 BKN300 14/05 A2987 RMK AC3CS3 SLP128

CYXE;2007-04-25 04:00;CYXE 250400Z 15013KT 15SM BKN300 13/06 A2985 RMK CS5 SLP121

CYXE;2007-04-25 05:00;CYXE 250500Z 16013G18KT 15SM FEW095 SCT300 13/06 A2983 RMK AC2CS1 SLP114

CYXE;2007-04-25 06:00;CYXE 250600Z 18014G19KT 15SM FEW100 13/05 A2981 RMK AC2 SLP103

CYXE;2007-04-25 07:00;CYXE 250700Z 18015KT 15SM FEW100 12/05 A2978 RMK AC1 SLP095

CYXE;2007-04-25 08:00;CYXE 250800Z 19011KT 15SM SKC 10/05 A2977 RMK SLP090

CYXE;2007-04-25 09:00;CYXE 250900Z 21010KT 15SM FEW250 09/04 A2976 RMK CI1 SLP088

CYXE;2007-04-25 10:00;CYXE 251000Z 22007KT 15SM FEW250 06/03 A2976 RMK CI1 SLP088

CYXE;2007-04-25 11:00;CYXE 251100Z 24006KT 15SM FEW250 04/03 A2977 RMK CI1 SLP089

CYXE;2007-04-25 12:00;CYXE 251200Z 26010KT 15SM FEW250 07/03 A2978 RMK CI1 SLP096

CYXE;2007-04-25 13:00;CYXE 251300Z 30010KT 15SM FEW250 09/04 A2981 RMK CI1 SLP104

CYXE;2007-04-25 14:00;CYXE 251400Z 30011KT 15SM SCT290 11/04 A2983 RMK CI1 SLP111

CYXE;2007-04-25 15:00;CYXE 251500Z 31013G19KT 15SM BKN290 13/05 A2983 RMK CI2 SLP112

CYXE;2007-04-25 16:00;CYXE 251600Z 31014G19KT 15SM BKN290 14/04 A2986 RMK CI2 SLP121

CYXE;2007-04-25 17:00;CYXE 251700Z 32015G21KT 15SM BKN290 16/03 A2987 RMK CI2 SLP123

CYXE;2007-04-25 18:00;CYXE 251800Z 32015G20KT 15SM FEW060 BKN290 17/02 A2987 RMK CF1CI2 SLP124

CYXE;2007-04-25 19:00;CYXE 251900Z 32014KT 15SM FEW060 SCT290 17/03 A2986 RMK CU1CI0 SLP122

CYXE;2007-04-25 20:00;CYXE 252000Z 32014KT 15SM FEW060 FEW120 FEW290 19/02 A2986 RMK CU1AC1CI0 SLP119

CYXE;2007-04-25 21:00;CYXE 252100Z 32012G20KT 15SM FEW070 FEW120 FEW290 19/00 A2985 RMK CU2AC1CI0 SLP117

CYXE;2007-04-25 22:00;CYXE 252200Z 30011G18KT 15SM FEW076 FEW300 18/M03 A2984 RMK CU2CI0 SLP115

CYXE;2007-04-25 23:00;CYXE 252300Z 32009G17KT 15SM FEW080 FEW140 BKN300 18/M04 A2984 RMK CU1AC1CI1 SLP115

CYXE;2007-04-26 00:00;CYXE 260000Z 31011G17KT 15SM FEW130 BKN300 18/M04 A2984 RMK AC2CI2 SLP115

CYXE;2007-04-26 01:00;CYXE 260100Z 32006KT 15SM FEW120 BKN300 15/M02 A2984 RMK AC2CI2 SLP115

CYXE;2007-04-26 02:00;CYXE 260200Z 30005KT 15SM FEW110 BKN300 12/00 A2983 RMK AC2CI2 SLP114

CYXE;2007-04-26 03:00;CYXE 260300Z 32006KT 15SM FEW100 BKN300 10/01 A2983 RMK AC1CI2 SLP114

CYXE;2007-04-26 04:00;CYXE 260400Z 33005KT 15SM SCT300 10/01 A2983 RMK CS2 SLP113

CYXE;2007-04-26 05:00;CYXE 260500Z 35003KT 15SM SCT300 10/01 A2983 RMK CS2 SLP113

CYXE;2007-04-26 06:00;CYXE 260600Z 32002KT 15SM SCT280 09/05 A2983 RMK CI2 SLP113

CYXE;2007-04-26 07:00;CYXE 260700Z 00000KT 15SM BKN250 08/02 A2983 RMK CI2 SLP112

CYXE;2007-04-26 08:00;CYXE 260800Z 18003KT 15SM FEW080 OVC250 07/02 A2983 RMK AC1CI2 SLP113

CYXE;2007-04-26 09:00;CYXE 260900Z 21004KT 15SM FEW096 OVC250 08/01 A2983 RMK AC2CI2 SLP112

CYXE;2007-04-26 10:00;CYXE 261000Z 22007KT 15SM BKN091 OVC250 06/02 A2984 RMK AC6CI2 SLP115

CYXE;2007-04-26 11:00;CYXE 261100Z 26003KT 15SM BKN073 05/03 A2984 RMK AC7 SLP115

CYXE;2007-04-26 12:00;CYXE 261200Z 30002KT 15SM BKN093 06/03 A2984 RMK AC7 SLP118

CYXE;2007-04-26 13:00;CYXE 261300Z 00000KT 15SM BKN088 06/04 A2985 RMK AC7 SLP121

CYXE;2007-04-26 14:00;CYXE 261400Z 07003KT 15SM OVC090 09/02 A2985 RMK AS7 SLP120

CYXE;2007-04-26 15:00;CYXE 261500Z 19009KT 15SM SCT090 OVC140 11/01 A2986 RMK AC3AS4 SLP126

CYXE;2007-04-26 16:00;CYXE 261600Z 24010KT 15SM FEW090 BKN140 BKN290 11/04 A2987 RMK AC2AS2CI2 SLP128

CYXE;2007-04-26 17:00;CYXE 261700Z 23012KT 15SM FEW035 FEW090 BKN290 13/04 A2987 RMK CU1AC1CI2 SLP128

CYXE;2007-04-26 18:00;CYXE 261800Z 24008KT 15SM FEW035 FEW090 BKN290 14/04 A2986 RMK CU2AC1CI1 SLP125

CYXE;2007-04-26 19:00;CYXE 261900Z 24010KT 15SM SCT050 BKN290 16/03 A2986 RMK CU3CI1 SLP122

CYXE;2007-04-26 20:00;CYXE 262000Z 22009KT 15SM BKN055 BKN290 16/01 A2985 RMK CU5CI0 SLP119

CYXE;2007-04-26 21:00;CYXE 262100Z 19012KT 15SM SCT050 SCT290 16/03 A2983 RMK CU3CI0 SLP113

CYXE;2007-04-26 22:00;CYXE 262200Z 22007KT 15SM SCT050 BKN110 16/03 A2982 RMK CU3AC1 SLP111

CYXE;2007-04-26 23:00;CYXE 262300Z 22010KT 15SM SCT060 BKN110 15/02 A2982 RMK CU4AC1 SLP110

CYXE;2007-04-27 00:00;CYXE 270000Z 21009KT 15SM BKN060 BKN110 15/03 A2981 RMK CU5AC1 SLP107

CYXE;2007-04-27 01:00;CYXE 270100Z 23008KT 15SM FEW060 FEW110 14/04 A2981 RMK CU2AC1 SLP107

CYXE;2007-04-27 02:00;CYXE 270200Z 21008KT 15SM FEW060 FEW250 12/03 A2981 RMK SC1CI0 SLP106

CYXE;2007-04-27 03:00;CYXE 270300Z 19007KT 15SM FEW110 FEW250 11/03 A2980 RMK AC1CI0 SLP105

CYXE;2007-04-27 04:00;CYXE 270400Z 18008KT 15SM FEW250 09/03 A2981 RMK CI0 SLP106

CYXE;2007-04-27 05:00;CYXE 270500Z 19008KT 15SM FEW250 08/04 A2980 RMK CI1 SLP104

CYXE;2007-04-27 06:00;CYXE 270600Z 19009KT 15SM FEW092 SCT300 08/04 A2978 RMK AC1CI2 SLP098

CYXE;2007-04-27 07:00;CYXE 270700Z 19009KT 15SM FEW092 BKN300 08/05 A2978 RMK AC2CI1 SLP097

CYXE;2007-04-27 08:00;CYXE 270800Z 20008KT 15SM FEW092 BKN300 07/05 A2977 RMK AC2CS2 SLP095

CYXE;2007-04-27 09:00;CYXE 270900Z 22006KT 15SM SCT089 BKN300 07/05 A2978 RMK AS3CS1 SLP096

CYXE;2007-04-27 10:00;CYXE 271000Z 19006KT 15SM FEW089 BKN300 06/04 A2977 RMK AS2CS2 SLP094

CYXE;2007-04-27 11:00;CYXE 271100Z 19006KT 15SM BKN097 BKN300 06/05 A2977 RMK AC5CI1 SLP092

CYXE;2007-04-27 12:00;CYXE 271200Z 19005KT 15SM BKN097 BKN300 06/05 A2976 RMK AC5CI1 SLP090

CYXE;2007-04-27 13:00;CYXE 271300Z 21005KT 15SM SCT097 SCT300 06/05 A2977 RMK AC2CI1 SLP094

CYXE;2007-04-27 14:00;CYXE 271400Z 21007KT 15SM FEW100 SCT300 08/06 A2979 RMK AC2CI1 SLP099

CYXE;2007-04-27 15:00;CYXE 271500Z 23009KT 15SM FEW100 BKN300 12/06 A2979 RMK AC2CI1 SLP099

CYXE;2007-04-27 16:00;CYXE 271600Z 26006KT 15SM FEW100 SCT300 15/05 A2979 RMK AC1CI0 SLP100

CYXE;2007-04-27 17:00;CYXE 271700Z 28005KT 15SM FEW100 BKN300 16/06 A2980 RMK AC1CI1 SLP102

CYXE;2007-04-27 18:00;CYXE 271800Z 32006KT 15SM FEW050 SCT140 BKN300 17/03 A2980 RMK CU1AC1CI0 SLP102

CYXE;2007-04-27 19:00;CYXE 271900Z 32011G18KT 15SM FEW070 SCT300 19/00 A2979 RMK CU2CI0 SLP100

CYXE;2007-04-27 20:00;CYXE 272000Z 31008G22KT 15SM FEW080 SCT300 18/M02 A2980 RMK CU1CI0 SLP103

CYXE;2007-04-27 21:00;CYXE 272100Z 32014G19KT 15SM FEW080 BKN300 19/M00 A2980 RMK CU2CI0 SLP101

CYXE;2007-04-27 22:00;CYXE 272200Z 32015KT 15SM BKN090 OVC250 18/M00 A2981 RMK CU6CI0 SLP104

CYXE;2007-04-27 23:00;CYXE 272300Z 31012G17KT 15SM BKN090 BKN250 19/M02 A2981 RMK AC6CI0 SLP105

CYXE;2007-04-28 00:00;CYXE 280000Z 32011KT 15SM BKN095 BKN250 19/M01 A2981 RMK CU6CI0 SLP107

CYXE;2007-04-28 01:00;CYXE 280100Z 32009KT 15SM FEW090 BKN250 17/M01 A2982 RMK CU2CI0 SLP108

CYXE;2007-04-28 02:00;CYXE 280200Z 34004KT 15SM FEW090 SCT250 14/02 A2982 RMK AC1CI0 SLP109

CYXE;2007-04-28 03:00;CYXE 280300Z 34002KT 15SM FEW250 13/00 A2982 RMK CI0 SLP110

CYXE;2007-04-28 04:00;CYXE 280400Z 00000KT 15SM FEW250 11/04 A2982 RMK CI1 SLP109

CYXE;2007-04-28 05:00;CYXE 280500Z 13003KT 15SM FEW250 09/03 A2982 RMK CI1 SLP108

CYXE;2007-04-28 06:00;CYXE 280600Z 16005KT 15SM SCT280 08/02 A2981 RMK CI2 SLP104

CYXE;2007-04-28 07:00;CYXE 280700Z 16004KT 15SM SCT100 09/03 A2980 RMK AC4 SLP102

CYXE;2007-04-28 08:00;CYXE 280800Z 14005KT 15SM SCT074 09/02 A2978 RMK AC4 SLP097

CYXE;2007-04-28 09:00;CYXE 280900Z 15004KT 15SM SCT074 BKN300 08/01 A2976 RMK AC3CI0 SLP087

CYXE;2007-04-28 10:00;CYXE 281000Z 08005KT 15SM FEW074 BKN300 06/02 A2974 RMK AC2CS2 SLP080

CYXE;2007-04-28 11:00;CYXE 281100Z 16005KT 15SM FEW074 BKN300 06/02 A2972 RMK AC1CS6 SLP074

CYXE;2007-04-28 12:00;CYXE 281200Z 21006KT 15SM FEW074 OVC300 06/02 A2971 RMK AC1CS6 SLP071

CYXE;2007-04-28 13:00;CYXE 281300Z 23005KT 15SM BKN300 07/04 A2971 RMK CS6 SLP072

CYXE;2007-04-28 14:00;CYXE 281400Z 24010KT 15SM FEW110 BKN300 10/04 A2970 RMK AC1CS5 SLP068

CYXE;2007-04-28 15:00;CYXE 281500Z 24008KT 15SM FEW110 BKN300 13/05 A2969 RMK AC1CI2 SLP064

CYXE;2007-04-28 16:00;CYXE 281600Z 25009KT 15SM FEW110 BKN300 15/04 A2968 RMK AC1CS2 SLP062

CYXE;2007-04-28 17:00;CYXE 281700Z 27011KT 15SM FEW110 FEW300 18/04 A2967 RMK AC1CI0 SLP058

CYXE;2007-04-28 18:00;CYXE 281800Z 29010G15KT 15SM FEW040 FEW110 FEW300 20/02 A2966 RMK SC1AC1CI0 SLP053

CYXE;2007-04-28 19:00;CYXE 281900Z 27014KT 15SM FEW070 FEW110 FEW300 22/03 A2966 RMK CU1AC1CI0 SLP052

CYXE;2007-04-28 20:00;CYXE 282000Z 30018G24KT 15SM FEW085 FEW110 SCT300 22/01 A2967 RMK CU1AC1CI0 SLP054

CYXE;2007-04-28 21:00;CYXE 282100Z 30017G29KT 15SM FEW080 FEW110 SCT300 21/01 A2968 RMK CU2AC1CI0 SLP057

CYXE;2007-04-28 22:00;CYXE 282200Z 32018G24KT 15SM SCT090 BKN100 BKN290 20/00 A2969 RMK CU3AC2CI0 SLP062

CYXE;2007-04-28 23:00;CYXE 282300Z 30026G31KT 15SM FEW095 SCT290 20/M03 A2972 RMK CU2CI0 SLP071

CYXE;2007-04-29 00:00;CYXE 290000Z 30017G29KT 15SM FEW095 SCT290 19/M04 A2975 RMK CU2CI0 SLP086

CYXE;2007-04-29 01:00;CYXE 290100Z 31019G26KT 15SM FEW095 FEW290 17/M03 A2977 RMK CU1CI0 SLP092

CYXE;2007-04-29 02:00;CYXE 290200Z 30016KT 15SM FEW095 FEW290 15/M04 A2980 RMK CU1CI0 SLP102

CYXE;2007-04-29 03:00;CYXE 290300Z 31012KT 40SM FEW095 FEW290 13/M04 A2984 RMK AC1CI0 SLP117

CYXE;2007-04-29 04:00;CYXE 290400Z 31014KT 15SM FEW290 11/M02 A2988 RMK CI1 SLP129

CYXE;2007-04-29 05:00;CYXE 290500Z 31008KT 15SM SKC 09/M02 A2991 RMK SLP140

CYXE;2007-04-29 06:00;CYXE 290600Z 32005KT 15SM SKC 06/M02 A2993 RMK SLP147

CYXE;2007-04-29 07:00;CYXE 290700Z 31006KT 15SM SKC 06/M02 A2995 RMK SLP153

CYXE;2007-04-29 08:00;CYXE 290800Z 31008KT 15SM SCT300 04/M02 A2998 RMK CI0 SLP163

CYXE;2007-04-29 09:00;CYXE 290900Z 31007KT 15SM FEW300 03/M02 A3000 RMK CI0 SLP172

CYXE;2007-04-29 10:00;CYXE 291000Z 30007KT 15SM FEW100 FEW300 01/M03 A3002 RMK AC1CI0 SLP179

CYXE;2007-04-29 11:00;CYXE 291100Z 31008KT 15SM FEW300 02/M02 A3004 RMK CI1 SLP185

CYXE;2007-04-29 12:00;CYXE 291200Z 31008KT 15SM FEW100 SCT300 02/M03 A3006 RMK AC1CI0 SLP193

CYXE;2007-04-29 13:00;CYXE 291300Z 31006KT 15SM FEW100 BKN300 04/M02 A3007 RMK AC1CI1 SLP197

CYXE;2007-04-29 14:00;CYXE 291400Z 32005KT 15SM FEW100 BKN250 08/M02 A3008 RMK AC1CI1 SLP199

CYXE;2007-04-29 15:00;CYXE 291500Z 27004KT 15SM FEW100 BKN250 11/M03 A3008 RMK AC1CI2 SLP197

CYXE;2007-04-29 16:00;CYXE 291600Z 32002KT 15SM FEW100 BKN250 13/M04 A3006 RMK AC1CI1 SLP193

CYXE;2007-04-29 17:00;CYXE 291700Z 27007KT 15SM FEW050 FEW100 BKN250 14/M06 A3006 RMK CU1AC1CI2 SLP191

CYXE;2007-04-29 18:00;CYXE 291800Z 30005KT 15SM FEW050 FEW100 OVC250 15/M04 A3003 RMK CU1AC2CI2 SLP184

CYXE;2007-04-29 19:00;CYXE 291900Z 34005KT 15SM FEW095 OVC220 15/M06 A3000 RMK AC2CI6 SLP175

CYXE;2007-04-29 20:00;CYXE 292000Z 20004KT 15SM SCT083 OVC091 15/M06 A2997 RMK AC3AS5 SLP165

CYXE;2007-04-29 21:00;CYXE 292100Z 22002KT 15SM BKN082 OVC098 15/M06 A2996 RMK AC6AS2 SLP162

CYXE;2007-04-29 22:00;CYXE 292200Z 32006KT 15SM BKN075 OVC100 14/M05 A2996 RMK AC6AC2 SLP161

CYXE;2007-04-29 23:00;CYXE 292300Z 04009KT 15SM BKN080 OVC100 13/M03 A2992 RMK AC6AS2 SLP150

CYXE;2007-04-30 00:00;CYXE 300000Z 06014KT 15SM FEW080 OVC095 13/M02 A2990 RMK AC2AS6 SLP142

CYXE;2007-04-30 01:00;CYXE 300100Z 07016G24KT 15SM FEW080 BKN095 BKN230 12/M01 A2986 RMK AC2AC4CI0 SLP128

CYXE;2007-04-30 02:00;CYXE 300200Z 08014KT 15SM SCT100 BKN230 10/M01 A2982 RMK AS4CI0 SLP116

CYXE;2007-04-30 03:00;CYXE 300300Z 08017G22KT 15SM BKN100 BKN230 10/M01 A2979 RMK AS5CI0 SLP102

CYXE;2007-04-30 04:00;CYXE 300400Z 08014KT 15SM BKN085 10/M01 A2979 RMK AC6 SLP101

CYXE;2007-04-30 05:00;CYXE 300500Z 08014KT 15SM BKN080 BKN100 09/M00 A2977 RMK AC5AC2 SLP093

CYXE;2007-04-30 06:00;CYXE 300600Z 08017KT 15SM SCT079 09/M00 A2972 RMK AC4 SLP078

CYXE;2007-04-30 07:00;CYXE 300700Z 03014KT 15SM FEW081 BKN230 07/01 A2972 RMK AC2CI1 SLP075

CYXE;2007-04-30 08:00;CYXE 300800Z 05014G21KT 15SM FEW083 SCT230 08/01 A2970 RMK AC1CI1 SLP070

CYXE;2007-04-30 09:00;CYXE 300900Z 05013KT 15SM SCT230 08/M00 A2971 RMK CI2 SLP073

CYXE;2007-04-30 10:00;CYXE 301000Z 02021KT 15SM OVC230 07/01 A2974 RMK CI4 SLP084

CYXE;2007-04-30 11:00;CYXE 301100Z 36018G26KT 15SM FEW035 BKN061 OVC250 06/03 A2981 RMK SC2SC4CI2 PRESRR SLP106

CYXE;2007-04-30 12:00;CYXE 301200Z 36020G26KT 15SM OVC012 06/04 A2986 RMK SC7 CIG RAG SLP126

CYXE;2007-04-30 13:00;CYXE 301300Z 36015G21KT 15SM FEW012 OVC033 05/03 A2990 RMK SF2SC6 SLP140

CYXE;2007-04-30 13:32;CYXE 301332Z 35012G18KT 15SM -SHRA BKN010 OVC040 05/ RMK SF6SC2

CYXE;2007-04-30 13:40;CYXE 301340Z 35015KT 15SM -SHRA BKN009 OVC040 05/ RMK SF7SC1

CYXE;2007-04-30 14:00;CYXE 301400Z 34014KT 15SM OVC009 05/03 A2994 RMK SC8 SLP152

CYXE;2007-04-30 14:46;CYXE 301446Z 36012G18KT 15SM BKN010 06/ RMK SC7

CYXE;2007-04-30 15:00;CYXE 301500Z 35013KT 15SM BKN012 06/03 A2995 RMK SC7 SLP161

CYXE;2007-04-30 16:00;CYXE 301600Z 36014KT 15SM BKN017 08/02 A2997 RMK SC7 SLP167

CYXE;2007-04-30 17:00;CYXE 301700Z 35012KT 15SM BKN029 11/02 A2999 RMK CU6 SLP171

CYXE;2007-04-30 18:00;CYXE 301800Z 36011G17KT 15SM BKN033 10/01 A2999 RMK CU6 SLP170

CYXE;2007-04-30 19:00;CYXE 301900Z 32005KT 15SM BKN039 11/01 A2999 RMK CU6 SLP172

CYXE;2007-04-30 20:00;CYXE 302000Z 31003KT 15SM BKN045 BKN300 12/01 A2999 RMK CU6CI2 SLP171

CYXE;2007-04-30 21:00;CYXE 302100Z 01006KT 15SM BKN052 BKN300 13/M02 A2999 RMK CU5CI2 SLP168

CYXE;2007-04-30 22:00;CYXE 302200Z 31004KT 15SM SCT065 BKN300 14/M03 A2998 RMK CU4CI2 SLP166

CYXE;2007-04-30 23:00;CYXE 302300Z 32004KT 15SM SCT065 BKN300 15/M02 A2998 RMK SC4CI1 SLP166

CYXE;2007-05-01 01:00;CYXE 010100Z 30005KT 15SM SCT080 BKN300 11/M02 A2999 RMK AC4CI0 SLP169

CYXE;2007-05-01 02:00;CYXE 010200Z 29003KT 15SM BKN085 BKN300 11/M01 A3000 RMK ACC6CI0 VIRGA SLP174

CYXE;2007-05-01 03:00;CYXE 010300Z 27004KT 15SM SCT085 10/M01 A3001 RMK AC4 SLP181

CYXE;2007-05-01 04:00;CYXE 010400Z 29006KT 15SM BKN090 07/M00 A3003 RMK AC5 SLP187

CYXE;2007-05-01 05:00;CYXE 010500Z 28006KT 15SM BKN090 06/01 A3004 RMK AC5 SLP190

CYXE;2007-05-01 06:00;CYXE 010600Z 26005KT 15SM BKN088 06/01 A3004 RMK AC3 SLP192

CYXE;2007-05-01 07:00;CYXE 010700Z 24005KT 15SM FEW091 04/01 A3005 RMK AC1 SLP193

CYXE;2007-05-01 08:00;CYXE 010800Z 23005KT 15SM FEW250 03/01 A3006 RMK CI0 SLP196

CYXE;2007-05-01 09:00;CYXE 010900Z 21005KT 15SM FEW250 03/M01 A3007 RMK CI0 SLP200

CYXE;2007-05-01 10:00;CYXE 011000Z 21005KT 15SM FEW250 01/M02 A3008 RMK CI0 SLP202

CYXE;2007-05-01 10:23;CYXE 011023Z 21006KT 15SM FEW008 SCT250 01/ RMK SF1CI1 SF E-SE

CYXE;2007-05-01 11:00;CYXE 011100Z 19004KT 15SM FEW100 BKN250 01/M02 A3008 RMK AC1CI2 SLP205

CYXE;2007-05-01 12:00;CYXE 011200Z 21004KT 15SM FEW100 BKN250 00/M02 A3009 RMK AC1CI2 SLP209

CYXE;2007-05-01 13:00;CYXE 011300Z 19004KT 15SM FEW100 BKN250 02/M01 A3010 RMK AC1CI2 SLP211

CYXE;2007-05-01 14:00;CYXE 011400Z 19003KT 15SM BKN300 06/00 A3010 RMK CI2 SLP212

CYXE;2007-05-01 15:00;CYXE 011500Z 18003KT 15SM SCT095 BKN300 09/00 A3010 RMK AC4CI2 SLP210

CYXE;2007-05-01 16:00;CYXE 011600Z 22006KT 15SM BKN094 BKN300 11/M01 A3010 RMK AC6CI2 SLP210

CYXE;2007-05-01 17:00;CYXE 011700Z 23007KT 15SM BKN094 BKN300 13/M01 A3009 RMK AC5CS2 SLP206

CYXE;2007-05-01 18:00;CYXE 011800Z 18007KT 15SM SCT100 BKN300 15/M01 A3008 RMK AS3CS2 SLP200

CYXE;2007-05-01 19:00;CYXE 011900Z 20002KT 15SM SCT100 BKN300 16/M01 A3005 RMK AC2CI2 SLP191

CYXE;2007-05-01 20:00;CYXE 012000Z 20005KT 15SM BKN100 OVC300 16/M02 A3002 RMK AC6CS2 SLP182

CYXE;2007-05-01 21:00;CYXE 012100Z 17007KT 15SM BKN100 OVC300 16/M03 A3002 RMK AC6CS2 SLP180

CYXE;2007-05-01 22:00;CYXE 012200Z 15005KT 15SM BKN087 OVC300 16/M02 A2999 RMK AC7CS1 SLP173

CYXE;2007-05-01 23:00;CYXE 012300Z 11004KT 15SM OVC080 15/M00 A2999 RMK AC8 SLP170

CYXE;2007-05-02 00:00;CYXE 020000Z 08006KT 15SM OVC080 15/00 A2998 RMK AC8 SLP170

CYXE;2007-05-02 01:00;CYXE 020100Z 10009KT 15SM OVC075 15/01 A2996 RMK AC8 SLP163

CYXE;2007-05-02 02:00;CYXE 020200Z 11011KT 15SM BKN080 OVC300 15/M00 A2995 RMK AC7CI1 SLP160

CYXE;2007-05-02 03:00;CYXE 020300Z 11011KT 15SM BKN070 OVC300 14/00 A2995 RMK AC7CI1 SLP154

CYXE;2007-05-02 04:00;CYXE 020400Z 11011KT 15SM BKN080 OVC300 13/01 A2994 RMK AC6CI2 SLP152

CYXE;2007-05-02 05:00;CYXE 020500Z 12010KT 15SM FEW080 OVC300 12/01 A2993 RMK AC2CI2 SLP149

CYXE;2007-05-02 06:00;CYXE 020600Z 12014KT 15SM BKN080 OVC300 12/01 A2992 RMK AC6CI0 SLP143

CYXE;2007-05-02 07:00;CYXE 020700Z 14013G18KT 15SM SCT080 BKN300 12/01 A2991 RMK AC3CI0 SLP139

CYXE;2007-05-02 08:00;CYXE 020800Z 14011KT 15SM BKN110 BKN300 11/01 A2991 RMK AC6CI0 SLP138

CYXE;2007-05-02 09:00;CYXE 020900Z 12012KT 15SM BKN100 BKN300 10/01 A2989 RMK AC6CI0 SLP132

CYXE;2007-05-02 10:00;CYXE 021000Z 13013KT 15SM BKN100 BKN300 10/01 A2987 RMK AC5CI1 SLP127

CYXE;2007-05-02 11:00;CYXE 021100Z 14011G18KT 15SM SCT100 BKN300 09/01 A2986 RMK AC3CI0 SLP124

CYXE;2007-05-02 12:00;CYXE 021200Z 14013G18KT 15SM FEW100 SCT300 09/01 A2985 RMK AC2CI0 SLP120

CYXE;2007-05-02 13:00;CYXE 021300Z 16013KT 15SM FEW100 SCT300 10/01 A2985 RMK AC1CI0 SLP120

CYXE;2007-05-02 14:00;CYXE 021400Z 15019G24KT 15SM FEW100 12/00 A2982 RMK AC2 SLP111

CYXE;2007-05-02 15:00;CYXE 021500Z 15016G26KT 15SM FEW100 SCT250 15/00 A2982 RMK AC1CI2 SLP106

CYXE;2007-05-02 16:00;CYXE 021600Z 15017G28KT 15SM BKN250 17/01 A2980 RMK CI2 SLP100

CYXE;2007-05-02 17:00;CYXE 021700Z 16023G29KT 15SM BKN280 17/01 A2978 RMK CS2 SLP093

CYXE;2007-05-02 18:00;CYXE 021800Z 15017G28KT 15SM OVC300 19/02 A2976 RMK CS4 SLP083

CYXE;2007-05-02 19:00;CYXE 021900Z 15021G29KT 15SM SCT100 OVC300 19/02 A2975 RMK AS3CS5 SLP080

CYXE;2007-05-02 20:00;CYXE 022000Z 16015G30KT 15SM SCT095 OVC300 19/03 A2975 RMK AC4CS4 SLP081

CYXE;2007-05-02 21:00;CYXE 022100Z 17017KT 15SM SCT095 OVC300 20/03 A2974 RMK AC4CS4 SLP080

CYXE;2007-05-02 22:00;CYXE 022200Z 16010G18KT 15SM BKN100 OVC300 20/04 A2973 RMK AC6CS2 SLP077

CYXE;2007-05-02 23:00;CYXE 022300Z 12010G15KT 15SM VCSH BKN100 OVC300 20/03 A2970 RMK ACC6CI2 SLP067

CYXE;2007-05-03 00:00;CYXE 030000Z 14020KT 15SM BKN100 BKN300 21/03 A2967 RMK ACC5CI1 SLP054

CYXE;2007-05-03 01:00;CYXE 030100Z 13019G25KT 15SM SCT090 BKN300 20/02 A2965 RMK ACC4CI1 SLP048

CYXE;2007-05-03 02:00;CYXE 030200Z 12014G21KT 15SM FEW090 SCT300 18/03 A2965 RMK ACC2CI0 SLP048

CYXE;2007-05-03 03:00;CYXE 030300Z 14014G24KT 15SM FEW090 BKN300 17/03 A2964 RMK ACC2CI1 SLP045

CYXE;2007-05-03 04:00;CYXE 030400Z 13017G24KT 15SM BKN300 16/03 A2964 RMK CI3 SLP044

CYXE;2007-05-03 05:00;CYXE 030500Z 13019G26KT 15SM SCT120 OVC300 16/03 A2962 RMK AC3CI2 CB + LTNG DIST SW SLP038

CYXE;2007-05-03 06:00;CYXE 030600Z 16015G21KT 15SM BKN060 OVC090 16/03 A2964 RMK SC6AC2 CB + LTNG ALQDS SLP042

CYXE;2007-05-03 06:16;CYXE 030616Z 17014G22KT 10SM -RA BKN030 OVC060 13/ RMK SC5SC3

CYXE;2007-05-03 06:20;CYXE 030620Z 15013G22KT 12SM -TSRA BKN030CB OVC090 13/ RMK CB5AC3

CYXE;2007-05-03 06:42;CYXE 030642Z 14012G18KT 15SM OVC030 13/ RMK SC8 LTNG DSTNT NE

CYXE;2007-05-03 07:00;CYXE 030700Z 14013G20KT 15SM OVC040 14/05 A2963 RETS RMK SC8 LTNG DIST NE SLP038

CYXE;2007-05-03 08:00;CYXE 030800Z 12012KT 15SM OVC100 13/04 A2961 RMK AC8 LTNG DIST S SLP033

CYXE;2007-05-03 09:00;CYXE 030900Z 13011G16KT 15SM OVC100 13/04 A2961 RMK AC8 SLP031

CYXE;2007-05-03 09:29;CYXE 030929Z 13008KT 15SM -RA OVC050 12/ RMK SC8

CYXE;2007-05-03 10:00;CYXE 031000Z 07010KT 15SM -RA OVC020 11/07 A2955 RMK SC8 SLP014

CYXE;2007-05-03 10:40;CYXE 031040Z 13011G16KT 15SM SCT030 OVC060 11/ RMK SC3SC4

CYXE;2007-05-03 11:00;CYXE 031100Z 13012KT 15SM FEW030 OVC085 11/07 A2957 RMK SC2AC6 SLP019

CYXE;2007-05-03 12:00;CYXE 031200Z 12011KT 15SM BKN090 BKN180 11/08 A2957 RMK AC5AC2 SLP020

CYXE;2007-05-03 13:00;CYXE 031300Z 08010KT 15SM SCT085 BKN180 10/08 A2956 RMK AC3AC1 SLP017

CYXE;2007-05-03 14:00;CYXE 031400Z 11013KT 15SM SCT089 BKN300 13/09 A2957 RMK AC3CI0 SLP020

CYXE;2007-05-03 15:00;CYXE 031500Z 12013KT 15SM SCT098 BKN300 14/09 A2957 RMK AC4CI0 SLP019

CYXE;2007-05-03 16:00;CYXE 031600Z 11011KT 15SM BKN077 BKN300 15/09 A2955 RMK AC5CI1 SLP015

CYXE;2007-05-03 17:00;CYXE 031700Z 12015KT 15SM SCT096 BKN300 16/09 A2954 RMK AC3CI0 SLP010

CYXE;2007-05-03 18:00;CYXE 031800Z 13017KT 15SM BKN087 BKN300 17/09 A2952 RMK AC5CI0 SLP002

CYXE;2007-05-03 19:00;CYXE 031900Z 12017KT 15SM SCT082 BKN300 19/09 A2950 RMK AC3CI1 SLP996

CYXE;2007-05-03 20:00;CYXE 032000Z 13013G19KT 15SM SCT085 BKN300 20/10 A2949 RMK AC3CI1 SLP993

CYXE;2007-05-03 21:00;CYXE 032100Z 10017G22KT 15SM SCT098 BKN300 18/09 A2949 RMK AC3CI0 SLP993

CYXE;2007-05-03 22:00;CYXE 032200Z 12017G24KT 15SM BKN100 BKN300 20/09 A2946 RMK AC5CI0 SLP983

CYXE;2007-05-03 23:00;CYXE 032300Z 09017KT 15SM BKN100 BKN300 20/08 A2944 RMK AC6CI0 SLP976

CYXE;2007-05-04 00:00;CYXE 040000Z 06016KT 15SM SCT100 BKN300 22/09 A2939 RMK AC3CI2 SLP957

CYXE;2007-05-04 01:00;CYXE 040100Z 11013KT 15SM VCSH BKN090 BKN300 24/05 A2937 RMK AC6CI1 SLP950

CYXE;2007-05-04 02:00;CYXE 040200Z 14015G20KT 15SM VCSH BKN090 BKN300 23/05 A2936 RMK AC6CI1 SLP949

CYXE;2007-05-04 03:00;CYXE 040300Z 20013KT 15SM SCT090 BKN300 20/12 A2940 RMK AC4CI2 SLP960

CYXE;2007-05-04 03:17;CYXE 040317Z 19014KT 15SM SCT050CB BKN090 BKN300 19/ RMK CB3AC2CI1 LTGIC E-S

CYXE;2007-05-04 03:26;CYXE 040326Z 20015KT 15SM TS VCSH SCT050CB BKN090 BKN300 18/ RMK CB4AC2CI1 LTGICCG NE-SW

CYXE;2007-05-04 04:00;CYXE 040400Z 20013KT 15SM -SHRA SCT035CB BKN090 BKN300 17/14 A2945 RETS RMK CB3AC3CI0 OCNL LTG NE SLP977

CYXE;2007-05-04 05:00;CYXE 040500Z 19008KT 15SM FEW035CB SCT055 BKN090 BKN300 16/14 A2949 RMK CB1SC2AC3CI0 SLP990

CYXE;2007-05-04 05:16;CYXE 040516Z 20006KT 15SM -RA BKN057 BKN300 16/ RMK SC6CI0

CYXE;2007-05-04 05:30;CYXE 040530Z 21006KT 15SM SCT057 BKN300 15/ RMK SC4CI0

CYXE;2007-05-04 06:00;CYXE 040600Z 20003KT 15SM SCT070 BKN300 14/13 A2946 RMK AC4CI0 SLP984

CYXE;2007-05-04 07:00;CYXE 040700Z 19009KT 15SM BKN015 OVC070 14/13 A2949 RMK SC5SC3 SLP992

CYXE;2007-05-04 08:00;CYXE 040800Z 22009KT 15SM OVC013 11/09 A2950 RMK SC8 SLP996

CYXE;2007-05-04 09:00;CYXE 040900Z 23008KT 15SM FEW009 BKN150 09/08 A2950 RMK SF1AC2 SLP996

CYXE;2007-05-04 09:50;CYXE 040950Z 22006KT 15SM OVC008 09/ RMK SF8

CYXE;2007-05-04 10:00;CYXE 041000Z 23007KT 15SM OVC008 09/08 A2949 RMK SF7 SLP995

CYXE;2007-05-04 11:00;CYXE 041100Z 25002KT 15SM OVC007 09/08 A2949 RMK ST8 SLP993

CYXE;2007-05-04 12:00;CYXE 041200Z 04003KT 10SM BKN007 OVC028 09/08 A2948 RMK ST7SC1 SLP988

CYXE;2007-05-04 12:35;CYXE 041235Z 07005KT 10SM -RA BKN007 OVC028 09/ RMK ST7SC1

CYXE;2007-05-04 13:00;CYXE 041300Z 05005KT 6SM -RA BR BKN007 OVC021 09/09 A2946 RMK ST5SC3 SLP982

CYXE;2007-05-04 13:26;CYXE 041326Z 06007KT 5SM BR SCT007 OVC012 RMK ST3SC5

CYXE;2007-05-04 13:52;CYXE 041352Z 08006KT 5SM BR OVC018 10/ RMK SC8

CYXE;2007-05-04 14:00;CYXE 041400Z 07007KT 5SM BR OVC018 11/10 A2944 RMK SC8 SLP975

CYXE;2007-05-04 14:30;CYXE 041430Z 12012KT 3SM -DZ OVC014 13/ RMK ST8

CYXE;2007-05-04 14:46;CYXE 041446Z 13014G19KT 3SM -DZ BR BKN009 OVC014 14/ RMK SF6SC2

CYXE;2007-05-04 15:00;CYXE 041500Z 13015G20KT 2 1/2SM -RA BR OVC008 14/14 A2942 RMK SF8 SLP968

CYXE;2007-05-04 15:26;CYXE 041526Z 12020G27KT 7SM -RA OVC009 15/ RMK SF8 BR

CYXE;2007-05-04 15:43;CYXE 041543Z 13018G28KT 15SM OVC010 15/ RMK SF8

CYXE;2007-05-04 16:00;CYXE 041600Z 12016G28KT 10SM -DZ OVC012 15/14 A2940 RMK SF8 SLP960

CYXE;2007-05-04 16:23;CYXE 041623Z 19011G21KT 2SM -RA BR OVC007 13/ RMK SF8

CYXE;2007-05-04 17:00;CYXE 041700Z 22008KT 2SM -RA BR SCT005 OVC013 10/10 A2941 RMK SF4SC4 SLP963

CYXE;2007-05-04 17:13;CYXE 041713Z 21007KT 1 1/2SM -RA BR OVC004 10/ RMK ST8

CYXE;2007-05-04 17:44;CYXE 041744Z 20009KT 10SM -DZ BKN007 OVC021 10/ RMK SF7SC1

CYXE;2007-05-04 18:00;CYXE 041800Z 20011KT 8SM -DZ BKN007 OVC021 10/09 A2943 RMK SF6SC2 SLP976

CYXE;2007-05-04 18:18;CYXE 041818Z 20011KT 2 1/2SM -SHRA BR OVC007 09/ RMK SF8

CYXE;2007-05-04 18:31;CYXE 041831Z 19009KT 10SM -SHRA BKN006 OVC021 09/ RMK SF7SC1 BR

CYXE;2007-05-04 19:00;CYXE 041900Z 19012KT 15SM BKN008 OVC028 10/09 A2947 RMK SF7SC1 SLP990

CYXE;2007-05-04 19:50;CYXE 041950Z 21015G22KT 15SM BKN010 11/ RMK SC6

CYXE;2007-05-04 20:00;CYXE 042000Z 20016G22KT 15SM BKN016 10/08 A2951 RMK SC6 SLP002

CYXE;2007-05-04 21:00;CYXE 042100Z 21018G25KT 15SM BKN020 12/07 A2955 RMK SC7 SLP020

CYXE;2007-05-04 22:00;CYXE 042200Z 22018G26KT 15SM BKN028 13/07 A2959 RMK SC7 SLP031

CYXE;2007-05-04 23:00;CYXE 042300Z 22019G26KT 15SM BKN035 15/06 A2962 RMK CU6 SLP041

CYXE;2007-05-05 00:00;CYXE 050000Z 22017KT 15SM BKN040 15/05 A2964 RMK CU6 SLP048

CYXE;2007-05-05 01:00;CYXE 050100Z 22010G16KT 15SM SCT040 15/04 A2966 RMK CU4 SLP056

CYXE;2007-05-05 02:00;CYXE 050200Z 18007KT 15SM FEW035 13/05 A2968 RMK CU2 SLP063

CYXE;2007-05-05 03:00;CYXE 050300Z 14006KT 15SM FEW030 FEW090 SCT300 11/04 A2971 RMK CU1AC1CI1 SLP072

CYXE;2007-05-05 04:00;CYXE 050400Z 20007KT 15SM FEW025 FEW300 10/05 A2974 RMK CU1CI0 SLP081

CYXE;2007-05-05 05:00;CYXE 050500Z 15007KT 15SM FEW300 09/04 A2976 RMK CI0 SLP087

CYXE;2007-05-05 06:00;CYXE 050600Z 17009KT 15SM FEW300 09/02 A2978 RMK CI0 SLP099

CYXE;2007-05-05 07:00;CYXE 050700Z 18009KT 15SM FEW280 07/02 A2980 RMK CI0 SLP105

CYXE;2007-05-05 08:00;CYXE 050800Z 19008KT 15SM FEW280 07/01 A2981 RMK CI0 SLP110

CYXE;2007-05-05 09:00;CYXE 050900Z 18007KT 15SM SKC 04/00 A2983 RMK SLP117

CYXE;2007-05-05 10:00;CYXE 051000Z 19006KT 15SM FEW280 03/M01 A2986 RMK CI1 SLP126

CYXE;2007-05-05 11:00;CYXE 051100Z 20007KT 15SM FEW280 03/M01 A2987 RMK CI1 SLP130

CYXE;2007-05-05 12:00;CYXE 051200Z 20007KT 15SM FEW280 02/M01 A2989 RMK CI0 SLP138

CYXE;2007-05-05 13:00;CYXE 051300Z 22008KT 15SM FEW280 05/M00 A2991 RMK CI1 SLP144

CYXE;2007-05-05 14:00;CYXE 051400Z 23007KT 15SM FEW280 07/01 A2995 RMK CI1 SLP157

CYXE;2007-05-05 15:00;CYXE 051500Z 23008KT 15SM FEW280 10/02 A2997 RMK CI0 SLP163

CYXE;2007-05-05 16:00;CYXE 051600Z 24008KT 15SM FEW060 FEW280 12/03 A2999 RMK CU1CI0 SLP169

CYXE;2007-05-05 17:00;CYXE 051700Z 29005KT 15SM FEW050 14/02 A2999 RMK CU1 SLP171

CYXE;2007-05-05 18:00;CYXE 051800Z 33011KT 15SM FEW050 FEW280 15/03 A2998 RMK CU1CI0 SLP165

CYXE;2007-05-05 19:00;CYXE 051900Z 33006KT 15SM FEW055 FEW280 16/03 A2998 RMK CU1CI0 SLP163

CYXE;2007-05-05 20:00;CYXE 052000Z 28003KT 15SM FEW055 FEW280 16/02 A2996 RMK CU1CI0 SLP159

CYXE;2007-05-05 21:00;CYXE 052100Z 36006KT 15SM FEW055 BKN280 17/02 A2996 RMK CU1CI0 SLP160

CYXE;2007-05-05 22:00;CYXE 052200Z 03002KT 15SM FEW065 BKN280 17/00 A2996 RMK CU2CI0 SLP161

CYXE;2007-05-05 23:00;CYXE 052300Z 10002KT 15SM FEW065 BKN280 18/00 A2996 RMK CU2CI1 SLP160

CYXE;2007-05-06 00:00;CYXE 060000Z 07006KT 15SM FEW060 BKN280 17/02 A2995 RMK CU1CI2 SLP156

CYXE;2007-05-06 01:00;CYXE 060100Z 04004KT 15SM FEW060 SCT120 BKN280 17/02 A2995 RMK CU1AC2CI1 SLP158

CYXE;2007-05-06 02:00;CYXE 060200Z 02004KT 15SM FEW045 SCT120 BKN280 15/04 A2995 RMK SC1AC3CI1 SLP157

CYXE;2007-05-06 03:00;CYXE 060300Z 02003KT 15SM FEW030 FEW120 BKN280 13/04 A2996 RMK SC1AC2CI1 SLP160

CYXE;2007-05-06 04:00;CYXE 060400Z 01005KT 15SM FEW030 FEW120 BKN280 11/04 A2997 RMK SC1AC1CI1 SLP161

CYXE;2007-05-06 05:00;CYXE 060500Z 01005KT 15SM SCT280 09/04 A2996 RMK CI1 SLP158

CYXE;2007-05-06 06:00;CYXE 060600Z 03004KT 15SM SCT280 09/04 A2995 RMK CI0 SLP154

CYXE;2007-05-06 07:00;CYXE 060700Z 04003KT 15SM FEW280 08/03 A2993 RMK CI0 SLP148

CYXE;2007-05-06 08:00;CYXE 060800Z 05003KT 15SM SCT280 06/04 A2992 RMK CI1 SLP146

CYXE;2007-05-06 09:00;CYXE 060900Z 09004KT 15SM SCT280 06/05 A2991 RMK CI1 SLP143

CYXE;2007-05-06 10:00;CYXE 061000Z 05004KT 15SM SCT280 05/04 A2990 RMK CI1 SLP138

CYXE;2007-05-06 11:00;CYXE 061100Z 00000KT 15SM FEW280 05/04 A2990 RMK CI1 BR PTCHS SLP139

CYXE;2007-05-06 12:00;CYXE 061200Z 33004KT 15SM FEW280 04/03 A2991 RMK CI1 BR PTCHS SLP143

CYXE;2007-05-06 13:00;CYXE 061300Z 32004KT 15SM SCT280 06/05 A2992 RMK CI2 SLP145

CYXE;2007-05-06 14:00;CYXE 061400Z 34003KT 15SM FEW280 11/05 A2993 RMK CI0 SLP148

CYXE;2007-05-06 15:00;CYXE 061500Z 30005KT 15SM FEW280 14/06 A2993 RMK CI0 SLP147

CYXE;2007-05-06 16:00;CYXE 061600Z 33003KT 15SM FEW050 FEW280 16/03 A2993 RMK CU1CI0 SLP145

CYXE;2007-05-06 17:00;CYXE 061700Z 35002KT 15SM FEW050 FEW280 17/03 A2992 RMK CU1CI1 TR CU SLP143

CYXE;2007-05-06 18:00;CYXE 061800Z 36005KT 15SM SCT050 SCT280 18/03 A2990 RMK CU3CI0 SLP136

CYXE;2007-05-06 19:00;CYXE 061900Z 34010G15KT 15SM SCT050 BKN280 19/02 A2985 RMK CU4CI0 SLP118

CYXE;2007-05-06 20:00;CYXE 062000Z 32011G17KT 15SM BKN070 BKN280 19/02 A2982 RMK CU6CI0 SLP109

CYXE;2007-05-06 21:00;CYXE 062100Z 31006KT 15SM BKN075 BKN280 18/03 A2982 RMK CU6CI0 SLP109

CYXE;2007-05-06 22:00;CYXE 062200Z 31007KT 15SM FEW076 SCT082 BKN280 20/03 A2981 RMK CU2AC2CI0 SLP108

CYXE;2007-05-06 23:00;CYXE 062300Z 28010G15KT 15SM SCT080 SCT280 20/01 A2981 RMK AC3CI0 SLP106

CYXE;2007-05-07 00:00;CYXE 070000Z 31010KT 15SM FEW087 FEW280 19/M02 A2980 RMK AC1CI1 SLP102

CYXE;2007-05-07 01:00;CYXE 070100Z 30010KT 15SM FEW090 FEW280 18/M02 A2979 RMK AC1CI1 SLP100

CYXE;2007-05-07 02:00;CYXE 070200Z 30007KT 15SM FEW090 16/01 A2979 RMK AC1 SLP100

CYXE;2007-05-07 03:00;CYXE 070300Z 26006KT 15SM FEW090 FEW280 12/04 A2980 RMK AC1CI0 SLP101

CYXE;2007-05-07 04:00;CYXE 070400Z 27007KT 15SM FEW280 10/03 A2981 RMK CI1 SLP105

CYXE;2007-05-07 05:00;CYXE 070500Z 26008KT 15SM SKC 08/02 A2981 RMK SLP107

CYXE;2007-05-07 06:00;CYXE 070600Z 27007KT 15SM SKC 07/03 A2981 RMK SLP107

CYXE;2007-05-07 07:00;CYXE 070700Z 24008KT 15SM SKC 06/02 A2981 RMK SLP105

CYXE;2007-05-07 08:00;CYXE 070800Z 23007KT 15SM SKC 06/03 A2980 RMK SLP103

CYXE;2007-05-07 09:00;CYXE 070900Z 23008KT 15SM SKC 05/02 A2980 RMK SLP103

CYXE;2007-05-07 10:00;CYXE 071000Z 22009KT 15SM SKC 07/01 A2980 RMK SLP102

CYXE;2007-05-07 11:00;CYXE 071100Z 23010KT 15SM FEW120 07/02 A2980 RMK AC1 SLP104

CYXE;2007-05-07 12:00;CYXE 071200Z 24010KT 15SM FEW120 BKN240 08/02 A2982 RMK AC2CI1 SLP108

CYXE;2007-05-07 13:00;CYXE 071300Z 27008KT 15SM FEW120 BKN240 08/03 A2985 RMK AC2CI1 SLP117

CYXE;2007-05-07 14:00;CYXE 071400Z 33011KT 15SM FEW120 SCT240 12/04 A2986 RMK AC1CI1 SLP122

CYXE;2007-05-07 15:00;CYXE 071500Z 32006KT 15SM FEW120 SCT240 15/06 A2988 RMK AC1CI1 SLP129

CYXE;2007-05-07 16:00;CYXE 071600Z 30017KT 15SM BKN300 17/01 A2988 RMK CI2 SLP127

CYXE;2007-05-07 17:00;CYXE 071700Z 30019G27KT 15SM BKN300 19/02 A2986 RMK CI2 SLP123

CYXE;2007-05-07 18:00;CYXE 071800Z 31014G24KT 15SM FEW120 BKN300 19/03 A2988 RMK AC2CI1 SLP130

CYXE;2007-05-07 19:00;CYXE 071900Z 30014G21KT 15SM FEW120 BKN300 19/03 A2988 RMK AC2CI1 SLP130

CYXE;2007-05-07 20:00;CYXE 072000Z 31014G19KT 15SM FEW120 BKN300 20/03 A2989 RMK AC2CI1 SLP131

CYXE;2007-05-07 21:00;CYXE 072100Z 33014G20KT 15SM FEW120 SCT300 20/03 A2988 RMK AC1CI2 SLP131

CYXE;2007-05-07 22:00;CYXE 072200Z 29019G24KT 15SM FEW120 BKN300 20/03 A2988 RMK AC1CI1 ACSL WNW SLP130

CYXE;2007-05-07 23:00;CYXE 072300Z 30014KT 15SM FEW080 FEW087 SCT280 20/03 A2986 RMK AC1AC1CI1 SLP124

CYXE;2007-05-08 00:00;CYXE 080000Z 28015KT 15SM FEW080 FEW280 21/03 A2986 RMK AC1CI0 SLP120

CYXE;2007-05-08 01:00;CYXE 080100Z 30016KT 15SM FEW081 OVC280 20/03 A2985 RMK AC1CI2 SLP116

CYXE;2007-05-08 02:00;CYXE 080200Z 30008KT 15SM BKN280 18/04 A2984 RMK CI2 SLP114

CYXE;2007-05-08 03:00;CYXE 080300Z 30005KT 15SM FEW080 BKN280 14/04 A2985 RMK AC1CI2 SLP117

CYXE;2007-05-08 04:00;CYXE 080400Z 00000KT 15SM FEW080 BKN280 14/04 A2986 RMK AC1CI2 SLP118

CYXE;2007-05-08 05:00;CYXE 080500Z 35003KT 15SM BKN280 13/04 A2986 RMK CI2 SLP118

CYXE;2007-05-08 06:00;CYXE 080600Z 01003KT 15SM BKN280 12/06 A2985 RMK CI2 SLP117

CYXE;2007-05-08 07:00;CYXE 080700Z 17006KT 15SM BKN280 10/06 A2985 RMK CI2 SLP115

CYXE;2007-05-08 08:00;CYXE 080800Z 17004KT 15SM BKN280 11/06 A2984 RMK CI5 SLP112

CYXE;2007-05-08 09:00;CYXE 080900Z 18006KT 15SM BKN280 10/04 A2984 RMK CI5 SLP113

CYXE;2007-05-08 10:00;CYXE 081000Z 10004KT 15SM FEW120 SCT280 09/04 A2983 RMK AC1CI2 SLP110

CYXE;2007-05-08 11:00;CYXE 081100Z 06009KT 15SM FEW120 SCT280 08/04 A2981 RMK AC1CI2 SLP102

CYXE;2007-05-08 12:00;CYXE 081200Z 13004KT 15SM FEW120 FEW280 09/04 A2981 RMK AC1CI0 SLP102

CYXE;2007-05-08 13:00;CYXE 081300Z 17007KT 15SM FEW280 12/05 A2979 RMK CI0 SLP095

CYXE;2007-05-08 14:00;CYXE 081400Z 20004KT 15SM SKC 13/06 A2979 RMK SLP097

CYXE;2007-05-08 15:00;CYXE 081500Z 24006KT 15SM SKC 15/07 A2979 RMK SLP095

CYXE;2007-05-08 16:00;CYXE 081600Z 24004KT 15SM SKC 17/07 A2977 RMK SLP091

CYXE;2007-05-08 17:00;CYXE 081700Z 27005KT 15SM FEW300 19/08 A2977 RMK CI1 SLP090

CYXE;2007-05-08 18:00;CYXE 081800Z 28007KT 15SM FEW300 20/09 A2977 RMK CI1 SLP088

CYXE;2007-05-08 19:00;CYXE 081900Z 31009KT 15SM SKC 22/09 A2977 RMK SLP087

CYXE;2007-05-08 20:00;CYXE 082000Z 33005KT 15SM FEW300 22/08 A2976 RMK CI0 SLP084

CYXE;2007-05-08 21:00;CYXE 082100Z 36003KT 15SM FEW070 FEW300 23/07 A2976 RMK AC1CI1 SLP083

CYXE;2007-05-08 22:00;CYXE 082200Z 31005KT 15SM FEW080 OVC300 22/08 A2976 RMK AC2CI4 SLP084

CYXE;2007-05-08 23:00;CYXE 082300Z 28007KT 15SM FEW080 OVC280 23/06 A2977 RMK AC1CI6 SLP086

CYXE;2007-05-09 00:00;CYXE 090000Z 31005KT 15SM FEW080 BKN093 OVC280 22/06 A2976 RMK AC1AC3CI3 SLP085

CYXE;2007-05-09 01:00;CYXE 090100Z 30002KT 15SM SCT093 OVC280 23/04 A2974 RMK AC2CI2 SLP080

CYXE;2007-05-09 02:00;CYXE 090200Z 08003KT 15SM FEW095 SCT280 20/06 A2972 RMK AC1CI2 SLP074

CYXE;2007-05-09 03:00;CYXE 090300Z 08005KT 15SM BKN280 17/06 A2972 RMK CI3 SLP070

CYXE;2007-05-09 04:00;CYXE 090400Z 11007KT 15SM OVC280 14/05 A2970 RMK CI4 SLP066

CYXE;2007-05-09 05:00;CYXE 090500Z 14008KT 15SM OVC280 15/06 A2969 RMK CI3 SLP062

CYXE;2007-05-09 06:00;CYXE 090600Z 14007KT 15SM BKN280 15/06 A2967 RMK CI2 SLP053

CYXE;2007-05-09 07:00;CYXE 090700Z 15008KT 15SM FEW280 15/06 A2965 RMK CI1 SLP047

CYXE;2007-05-09 08:00;CYXE 090800Z 14014G20KT 15SM FEW280 16/05 A2962 RMK CI1 SLP036

CYXE;2007-05-09 09:00;CYXE 090900Z 16016KT 15SM FEW290 16/06 A2959 RMK CI1 SLP021

CYXE;2007-05-09 10:00;CYXE 091000Z 16014G20KT 15SM SCT110 BKN300 15/06 A2956 RMK AC2CI2 SLP012

CYXE;2007-05-09 11:00;CYXE 091100Z 17011KT 15SM SCT094 BKN300 14/06 A2953 RMK AC3CI1 SLP003

CYXE;2007-05-09 12:00;CYXE 091200Z 20010KT 15SM SCT094 BKN300 13/04 A2953 RMK AC3CI1 SLP003

CYXE;2007-05-09 13:00;CYXE 091300Z 22012KT 15SM FEW094 BKN300 14/04 A2953 RMK AC2CI2 SLP003

CYXE;2007-05-09 14:00;CYXE 091400Z 24011KT 15SM SCT120 BKN300 15/06 A2955 RMK AC3CI0 SLP009

CYXE;2007-05-09 15:00;CYXE 091500Z 28014KT 15SM SCT120 BKN300 19/07 A2955 RMK ACC3CI0 SLP011

CYXE;2007-05-09 16:00;CYXE 091600Z 30019G24KT 15SM FEW120 BKN300 20/08 A2959 RMK AC2CI3 SLP022

CYXE;2007-05-09 17:00;CYXE 091700Z 29019KT 15SM FEW120 BKN300 20/08 A2963 RMK AC2CI3 SLP035

CYXE;2007-05-09 18:00;CYXE 091800Z 31022G27KT 15SM FEW050 FEW120 BKN300 20/06 A2966 RMK SC1AC1CI2 SLP050

CYXE;2007-05-09 19:00;CYXE 091900Z 30024KT 15SM FEW050 FEW120 SCT300 18/07 A2971 RMK SC1AC1CI2 SLP066

CYXE;2007-05-09 20:00;CYXE 092000Z 30019G28KT 15SM SCT045 BKN300 17/07 A2976 RMK CU4CI1 SLP082

CYXE;2007-05-09 21:00;CYXE 092100Z 30024G29KT 15SM BKN033 BKN300 14/06 A2981 RMK SC6CI1 SLP105

CYXE;2007-05-09 22:00;CYXE 092200Z 31022G29KT 15SM BKN033 12/05 A2986 RMK SC6 SLP121

CYXE;2007-05-09 23:00;CYXE 092300Z 34024KT 15SM BKN030 09/03 A2992 RMK SC7 SLP139

CYXE;2007-05-10 00:00;CYXE 100000Z 36020G27KT 15SM BKN030 08/01 A2997 RMK SC5 SLP164

CYXE;2007-05-10 01:00;CYXE 100100Z 01021KT 15SM FEW029 09/00 A3001 RMK SC2 SLP176

CYXE;2007-05-10 02:00;CYXE 100200Z 36018KT 15SM FEW029 08/01 A3005 RMK SC1 SLP190

CYXE;2007-05-10 03:00;CYXE 100300Z 01010KT 15SM FEW029 06/01 A3010 RMK SC1 SLP204

CYXE;2007-05-10 04:00;CYXE 100400Z 36013G19KT 15SM SCT028 05/00 A3013 RMK SC3 SLP216

CYXE;2007-05-10 05:00;CYXE 100500Z 36007KT 15SM FEW027 03/M01 A3016 RMK SC2 SLP223

CYXE;2007-05-10 05:43;CYXE 100543Z 36003KT 15SM FEW027 02/ RMK SC1

CYXE;2007-05-10 06:00;CYXE 100600Z 03002KT 15SM FEW027 02/M01 A3016 RMK SC1 SLP228

CYXE;2007-05-10 07:00;CYXE 100700Z 01005KT 15SM SKC M00/M02 A3017 RMK SLP231

CYXE;2007-05-10 08:00;CYXE 100800Z 32003KT 15SM SKC 01/00 A3020 RMK SLP241

CYXE;2007-05-10 09:00;CYXE 100900Z 32003KT 15SM SKC M00/M01 A3021 RMK SLP251

CYXE;2007-05-10 10:00;CYXE 101000Z 35005KT 15SM SKC M01/M01 A3023 RMK SLP256

CYXE;2007-05-10 10:48;CYXE 101048Z 27002KT 15SM R09/1400V5000FT/D PRFG SKC 00/

CYXE;2007-05-10 11:00;CYXE 101100Z 27003KT 1/2SM R09/1200V2000FT/N FZFG SKC M00/M00 A3024 RMK PRFG SLP261

CYXE;2007-05-10 11:21;CYXE 101121Z 28005KT 1/8SM R09/0800VP6000FT/D FZFG FEW089 M02/ RMK AC1

CYXE;2007-05-10 12:00;CYXE 101200Z 00000KT 15SM R09/0700V4500FT/U PRFG FEW089 M02/M03 A3026 RMK AC1 SLP270

CYXE;2007-05-10 13:00;CYXE 101300Z 00000KT 15SM FEW089 FEW300 02/01 A3026 RMK AC1CI0 SLP272

CYXE;2007-05-10 14:00;CYXE 101400Z 09005KT 15SM SCT300 05/00 A3028 RMK CI0 SLP277

CYXE;2007-05-10 15:00;CYXE 101500Z 00000KT 15SM FEW025 FEW300 06/M01 A3029 RMK SC1CI0 SLP279

CYXE;2007-05-10 16:00;CYXE 101600Z 07003KT 15SM FEW300 09/00 A3029 RMK CI1 SLP278

CYXE;2007-05-10 17:00;CYXE 101700Z 14003KT 15SM SCT300 10/M01 A3028 RMK CI1 SLP276

CYXE;2007-05-10 18:00;CYXE 101800Z 13006KT 15SM FEW045 SCT300 10/M01 A3029 RMK CF1CI1 SLP278

CYXE;2007-05-10 19:00;CYXE 101900Z 15007KT 15SM FEW050 FEW140 SCT300 13/00 A3027 RMK CF1AC2CI0 SLP273

CYXE;2007-05-10 20:00;CYXE 102000Z 09008KT 15SM FEW060 FEW140 BKN300 14/M01 A3026 RMK CF1AC1CI3 SLP268

CYXE;2007-05-10 21:00;CYXE 102100Z 11005KT 15SM FEW060 FEW120 BKN300 14/M02 A3026 RMK SC1AC1CI2 SLP265

CYXE;2007-05-10 22:00;CYXE 102200Z 12004KT 15SM FEW060 SCT120 BKN300 14/M03 A3023 RMK SC1AC2CI2 SLP258

CYXE;2007-05-10 23:00;CYXE 102300Z 14007KT 15SM SCT120 BKN300 14/M04 A3022 RMK AC2CI2 SLP253

CYXE;2007-05-11 00:00;CYXE 110000Z 13004KT 15SM BKN110 OVC300 14/M04 A3021 RMK AC5CI2 SLP250

CYXE;2007-05-11 01:00;CYXE 110100Z CCA 10007KT 15SM BKN085 OVC280 13/M03 A3019 RMK AC6CI2 SHWRS W SLP245

CYXE;2007-05-11 02:00;CYXE 110200Z 10010KT 15SM BKN075 OVC250 13/M03 A3019 RMK AC6CI1 SLP243

CYXE;2007-05-11 03:00;CYXE 110300Z 12010KT 15SM BKN100 OVC250 12/M02 A3020 RMK AC6CI2 SLP244

CYXE;2007-05-11 04:00;CYXE 110400Z 12007KT 15SM BKN085 BKN250 11/M01 A3021 RMK AC5CI2 SLP246

CYXE;2007-05-11 05:00;CYXE 110500Z 12008KT 15SM BKN085 BKN250 11/M01 A3020 RMK AC6CI1 SLP244

CYXE;2007-05-11 06:00;CYXE 110600Z 13009KT 15SM BKN086 11/M01 A3021 RMK AC6 SLP243

CYXE;2007-05-11 07:00;CYXE 110700Z 12008KT 15SM OVC066 10/M00 A3020 RMK AC8 SLP241

CYXE;2007-05-11 08:00;CYXE 110800Z 13007KT 15SM SCT082 09/00 A3020 RMK AC4 SLP240

CYXE;2007-05-11 09:00;CYXE 110900Z 13006KT 15SM SCT082 08/01 A3020 RMK AC4 SLP240

CYXE;2007-05-11 10:00;CYXE 111000Z 12007KT 15SM BKN080 08/01 A3019 RMK AC5 SLP238

CYXE;2007-05-11 11:00;CYXE 111100Z 10005KT 15SM BKN085 06/01 A3019 RMK AC6 SLP237

CYXE;2007-05-11 12:00;CYXE 111200Z 11005KT 15SM BKN062 08/02 A3019 RMK SC6 SLP239

CYXE;2007-05-11 13:00;CYXE 111300Z 13009KT 15SM BKN062 10/04 A3019 RMK SC6 SLP238

CYXE;2007-05-11 14:00;CYXE 111400Z 14010KT 15SM BKN100 11/04 A3019 RMK AC6 SLP238

CYXE;2007-05-11 15:00;CYXE 111500Z 15010G15KT 15SM FEW100 14/05 A3019 RMK AC2 SLP234

CYXE;2007-05-11 16:00;CYXE 111600Z 17015KT 15SM FEW120 15/03 A3018 RMK AC2 SLP231

CYXE;2007-05-11 17:00;CYXE 111700Z 15013G19KT 15SM FEW050 FEW120 FEW300 16/03 A3017 RMK CF1AC1CI0 SLP229

CYXE;2007-05-11 18:00;CYXE 111800Z 16012G20KT 15SM FEW060 17/03 A3016 RMK CU2 SLP224

CYXE;2007-05-11 19:00;CYXE 111900Z 14013KT 15SM FEW060 18/03 A3014 RMK CU2 SLP219

CYXE;2007-05-11 20:00;CYXE 112000Z 16014G19KT 15SM FEW060 18/03 A3014 RMK CU2 SLP217

CYXE;2007-05-11 21:00;CYXE 112100Z 18014G19KT 15SM SCT060 19/04 A3012 RMK CU3 SLP212

CYXE;2007-05-11 22:00;CYXE 112200Z 15010G17KT 15SM SCT055 BKN300 18/04 A3012 RMK CU4CI0 SLP210

CYXE;2007-05-11 23:00;CYXE 112300Z 16014KT 15SM FEW050 SCT300 18/06 A3010 RMK CU2CI0 SLP205

CYXE;2007-05-12 00:00;CYXE 120000Z 14011G17KT 15SM FEW045 17/06 A3011 RMK CU2 SLP208

CYXE;2007-05-12 01:00;CYXE 120100Z 15015KT 15SM SKC 16/06 A3011 RMK SLP209

CYXE;2007-05-12 02:00;CYXE 120200Z 13014G20KT 15SM FEW300 14/06 A3011 RMK CI0 SLP209

CYXE;2007-05-12 03:00;CYXE 120300Z 14012G20KT 15SM FEW090 FEW300 13/06 A3011 RMK AC1CI0 SLP207

CYXE;2007-05-12 04:00;CYXE 120400Z 14017G24KT 15SM FEW090 12/06 A3010 RMK AC1 SLP205

CYXE;2007-05-12 05:00;CYXE 120500Z 14016G24KT 15SM SKC 11/06 A3008 RMK SLP200

CYXE;2007-05-12 06:00;CYXE 120600Z 15017KT 15SM SCT095 10/06 A3009 RMK AC4 SLP200

CYXE;2007-05-12 07:00;CYXE 120700Z 16013G19KT 15SM FEW200 09/06 A3007 RMK CI1 SLP195

CYXE;2007-05-12 08:00;CYXE 120800Z 15012G17KT 15SM FEW092 09/06 A3005 RMK AC2 SLP189

CYXE;2007-05-12 09:00;CYXE 120900Z 13007KT 15SM FEW092 08/06 A3004 RMK AC2 SLP185

CYXE;2007-05-12 10:00;CYXE 121000Z 11006KT 15SM FEW092 07/05 A3003 RMK AC1 SLP179

CYXE;2007-05-12 11:00;CYXE 121100Z 07008KT 15SM FEW098 SCT250 05/05 A3002 RMK AC2CI1 SLP178

CYXE;2007-05-12 12:00;CYXE 121200Z 11007KT 15SM FEW040CB SCT091 OVC250 07/06 A2999 RMK CB1AC2CI1 SLP170

CYXE;2007-05-12 13:00;CYXE 121300Z CCA 13010KT 15SM FEW040TCU SCT091 OVC250 08/06 A2998 RMK TCU1AC3CI1 TCU S SLP165

CYXE;2007-05-12 14:00;CYXE 121400Z CCA 14009KT 15SM VCSH SCT040TCU BKN090 OVC250 10/07 A2995 RMK TCU3AC2CI0 SLP155

CYXE;2007-05-12 14:04;CYXE 121404Z 14007KT 15SM -SHRA SCT040TCU BKN090 OVC250 10/ RMK TCU3AC2CI0

CYXE;2007-05-12 15:00;CYXE 121500Z 17008KT 15SM SCT040 BKN070 BKN250 13/08 A2994 RMK SC3AC2CI0 SLP149

CYXE;2007-05-12 16:00;CYXE 121600Z 17012G19KT 15SM FEW070 BKN300 17/11 A2991 RMK ACC2CI1 SLP140

CYXE;2007-05-12 17:00;CYXE 121700Z 15016G21KT 15SM SCT070 BKN300 20/11 A2990 RMK ACC3CI1 SLP136

CYXE;2007-05-12 18:00;CYXE 121800Z 15019G24KT 15SM SCT070 BKN300 20/12 A2987 RMK AC4CI0 ACC ASOCTD SLP124

CYXE;2007-05-12 19:00;CYXE 121900Z 16017G25KT 15SM FEW040CB FEW070 BKN300 23/12 A2981 RMK CB1AC2CI2 CB W-N PRESFR SLP105

CYXE;2007-05-12 19:22;CYXE 121922Z 18017G24KT 15SM VCSH FEW018 SCT050CB BKN070 BKN300 22/ RMK CF1CB3AC2CI1 LTNG W

CYXE;2007-05-12 20:00;CYXE 122000Z 18011G22KT 15SM -SHRA FEW018 SCT040CB OVC070 22/11 A2979 RMK CF1CB4AC3 LTGICCG SW-N CB MOVG NE SLP097

CYXE;2007-05-12 20:04;CYXE 122004Z 18012KT 15SM -TSRA FEW018 SCT040CB OVC070 22/ RMK CF1CB4AC3 LTGICCG SW-N CB MOVG NE

CYXE;2007-05-12 20:30;CYXE 122030Z 17009KT 6SM TSRA FEW017 BKN030CB OVC070 18/ RMK CF1CB6AC2 OCNL LTNG ALQDS

CYXE;2007-05-12 20:41;CYXE 122041Z 15019G26KT 2 1/2SM +TSRA FEW017 BKN030CB OVC070 17/ RMK CF1CB6AC2 VIS SW 6

CYXE;2007-05-12 21:00;CYXE 122100Z 16021G27KT 8SM TSRA FEW015 BKN030CB 19/11 A2975 RERA RMK CF1CB7 SLP084

CYXE;2007-05-12 21:21;CYXE 122121Z 32031KT 8SM TSRA SCT008 BKN020CB 15/ RMK CF3CB4 /R10/

CYXE;2007-05-12 21:24;CYXE 122124Z 32026G36KT 2SM R09/2400VP6000FT/D TSRAGS SCT008 OVC015CB 12/ RMK CF3CB5 HAIL DIAM 04 MM

CYXE;2007-05-12 21:32;CYXE 122132Z 01018G27KT 8SM TSRA SCT008 BKN015CB 11/ REGR RMK CF3CB4

CYXE;2007-05-12 22:00;CYXE 122200Z 08009KT 15SM BKN060TCU 14/13 A2978 RMK TCU7 CB EMBDD SHRA N-SE RE GR SLP094

CYXE;2007-05-12 22:28;CYXE 122228Z 08013KT 15SM SCT060TCU 16/ RMK TCU3 CB EMBDD N RE TS

CYXE;2007-05-12 23:00;CYXE 122300Z 09013KT 15SM FEW060TCU 18/14 A2977 RMK TCU2 CB EMBDD N RE TS SLP089

CYXE;2007-05-13 00:00;CYXE 130000Z 10013KT 15SM FEW060TCU 20/14 A2975 RMK TCU1 SLP083

CYXE;2007-05-13 01:00;CYXE 130100Z 12011KT 40SM FEW060TCU FEW280 20/12 A2974 RMK TCU1CI0 CB EMBDD N-SE SLP082

CYXE;2007-05-13 02:00;CYXE 130200Z 13013KT 15SM FEW060TCU FEW280 18/12 A2974 RMK TCU1CI0 CB EMBD DIST N - SE SLP081

CYXE;2007-05-13 03:00;CYXE 130300Z 13011KT 15SM FEW060TCU FEW140 FEW280 16/12 A2974 RMK TCU1AC1CI0 CB TOP DIST E + SE SLP080

CYXE;2007-05-13 04:00;CYXE 130400Z 13003KT 15SM FEW140 15/11 A2977 RMK AC1 SLP090

CYXE;2007-05-13 05:00;CYXE 130500Z 36013G18KT 15SM FEW170 13/11 A2979 RMK CI1 SLP096

CYXE;2007-05-13 06:00;CYXE 130600Z 07006KT 15SM FEW210 11/10 A2984 RMK CI0 SLP114

CYXE;2007-05-13 07:00;CYXE 130700Z 34008KT 15SM SCT250 11/11 A2988 RMK CI2 SLP126

CYXE;2007-05-13 08:00;CYXE 130800Z 35013KT 15SM SCT250 12/07 A2988 RMK CI2 SLP127

CYXE;2007-05-13 09:00;CYXE 130900Z 01016KT 15SM SCT250 11/05 A2989 RMK CI0 SLP131

CYXE;2007-05-13 10:00;CYXE 131000Z 01013KT 15SM FEW250 10/03 A2992 RMK CI0 SLP140

CYXE;2007-05-13 11:00;CYXE 131100Z 36009KT 15SM FEW250 09/03 A2995 RMK CI1 SLP151

CYXE;2007-05-13 12:00;CYXE 131200Z 00000KT 15SM FEW120 FEW250 07/03 A3000 RMK AC1CI1 SLP171

CYXE;2007-05-13 13:00;CYXE 131300Z 36007KT 15SM FEW120 SCT250 09/04 A3003 RMK ACC1CI1 SLP178

CYXE;2007-05-13 14:00;CYXE 131400Z 01014KT 15SM FEW120 OVC250 11/01 A3004 RMK AC2CI6 SLP182

CYXE;2007-05-13 15:00;CYXE 131500Z 01013KT 15SM FEW120 OVC250 11/01 A3004 RMK AC2CI6 SLP183

CYXE;2007-05-13 16:00;CYXE 131600Z 03015KT 15SM FEW120 OVC250 13/M00 A3004 RMK AC1CI7 SLP184

CYXE;2007-05-13 17:00;CYXE 131700Z 03012KT 15SM FEW089 OVC250 13/M02 A3006 RMK AC2CI5 SLP190

CYXE;2007-05-13 18:00;CYXE 131800Z 04013KT 15SM FEW082 FEW094 BKN250 15/00 A3005 RMK AC1AC2CI2 SLP187

CYXE;2007-05-13 19:00;CYXE 131900Z 03017KT 15SM BKN094 OVC250 15/M00 A3002 RMK AC6CI2 SLP178

CYXE;2007-05-13 20:00;CYXE 132000Z 01011G16KT 15SM BKN095 OVC250 14/00 A3001 RMK AC6CI1 SLP174

CYXE;2007-05-13 21:00;CYXE 132100Z 05006KT 15SM BKN095 OVC150 15/00 A3003 RMK AC6AS2 SLP180

CYXE;2007-05-13 22:00;CYXE 132200Z 12004KT 15SM BKN095 OVC150 15/M00 A3003 RMK AC6AS2 SLP181

CYXE;2007-05-13 23:00;CYXE 132300Z 22004KT 15SM BKN095 OVC150 15/00 A3003 RMK AC7AS1 SLP182

CYXE;2007-05-14 00:00;CYXE 140000Z 26003KT 15SM BKN090 OVC150 15/03 A3002 RMK AC6AS2 SLP180

CYXE;2007-05-14 01:00;CYXE 140100Z 23002KT 15SM BKN085 14/05 A3002 RMK AC7 SLP180

CYXE;2007-05-14 02:00;CYXE 140200Z 01009KT 15SM BKN085 BKN095 13/03 A3000 RMK AC5AC2 SLP175

CYXE;2007-05-14 03:00;CYXE 140300Z 04008KT 15SM BKN095 12/02 A3002 RMK AC7 SLP177

CYXE;2007-05-14 04:00;CYXE 140400Z 01004KT 15SM BKN085 11/05 A3002 RMK AC7 SLP179

CYXE;2007-05-14 05:00;CYXE 140500Z 25004KT 15SM BKN070 11/06 A3003 RMK AC7 SLP181

CYXE;2007-05-14 06:00;CYXE 140600Z 33002KT 15SM OVC075 11/05 A3003 RMK AC8 SLP180

CYXE;2007-05-14 07:00;CYXE 140700Z 30005KT 15SM OVC090 10/05 A3003 RMK AC8 SLP180

CYXE;2007-05-14 08:00;CYXE 140800Z 02003KT 15SM BKN090 OVC250 09/05 A3003 RMK AC7CI1 SLP181

CYXE;2007-05-14 09:00;CYXE 140900Z 05004KT 15SM BKN090 OVC250 09/04 A3004 RMK AC7CI0 SLP184

CYXE;2007-05-14 10:00;CYXE 141000Z 04002KT 15SM BKN095 OVC250 07/04 A3004 RMK AC6CI1 SLP185

CYXE;2007-05-14 11:00;CYXE 141100Z 35005KT 15SM SCT095 BKN250 07/03 A3005 RMK AC4CI2 SLP188

CYXE;2007-05-14 12:00;CYXE 141200Z 19002KT 15SM BKN250 06/04 A3007 RMK CI5 SLP196

CYXE;2007-05-14 13:00;CYXE 141300Z 26003KT 15SM OVC250 08/05 A3009 RMK CI6 SLP203

CYXE;2007-05-14 14:00;CYXE 141400Z 31003KT 15SM FEW090 OVC250 10/05 A3010 RMK AC2CI4 ACC ASOCTD SLP207

CYXE;2007-05-14 15:00;CYXE 141500Z 00000KT 15SM FEW090 BKN140 BKN250 12/04 A3012 RMK AC2AS2CI2 SLP213

CYXE;2007-05-14 16:00;CYXE 141600Z 30006KT 15SM FEW090 BKN140 OVC250 12/06 A3013 RMK AC2AS4CI1 VIRGA SLP216

CYXE;2007-05-14 17:00;CYXE 141700Z 27009KT 15SM FEW028 BKN084 BKN140 BKN270 13/06 A3015 RMK CU1AC4AS2CI0 TCU/ACC ASOCTD VIRGA SLP221

CYXE;2007-05-14 18:00;CYXE 141800Z 27008KT 15SM FEW036 BKN084 BKN270 14/05 A3014 RMK CU2AC4CI0 VIRGA NW SLP220

CYXE;2007-05-14 18:07;CYXE 141807Z 31006KT 15SM -SHRA SCT036 BKN084 BKN270 14/ RMK CU3AC3CI0 TCU ASOCTD

CYXE;2007-05-14 18:17;CYXE 141817Z 27004KT 15SM SCT030 BKN080 BKN270 14/ RMK CU3AC2CI1

CYXE;2007-05-14 19:00;CYXE 141900Z 27007KT 15SM BKN040 BKN080 BKN270 15/04 A3013 RMK CU5AC2CI0 VIRGA SLP216

CYXE;2007-05-14 20:00;CYXE 142000Z 31010KT 15SM SCT070 BKN080 BKN270 16/M02 A3014 RMK CU4AC2CI0 VIRGA SLP218

CYXE;2007-05-14 21:00;CYXE 142100Z 32014KT 15SM SCT070 BKN085 BKN270 18/M01 A3013 RMK CU3AC2CI0 VIRGA SLP216

CYXE;2007-05-14 22:00;CYXE 142200Z 32012KT 15SM BKN065 BKN270 16/M00 A3014 RMK CU5CI0 SLP217

CYXE;2007-05-14 23:00;CYXE 142300Z 32012KT 15SM SCT070 BKN270 18/M02 A3014 RMK CU4CI0 SLP218

CYXE;2007-05-15 00:00;CYXE 150000Z 33010G19KT 15SM SCT100 SCT270 16/M01 A3015 RMK CU3CI0 SLP223

CYXE;2007-05-15 01:00;CYXE 150100Z 31011KT 15SM FEW100 SCT270 17/M04 A3015 RMK AC2CI0 SLP224

CYXE;2007-05-15 02:00;CYXE 150200Z 32009KT 15SM FEW100 FEW270 14/01 A3016 RMK AC1CI0 SLP226

CYXE;2007-05-15 03:00;CYXE 150300Z 31006KT 15SM FEW100 FEW270 09/01 A3017 RMK AC1CI0 SLP232

CYXE;2007-05-15 04:00;CYXE 150400Z 29006KT 15SM FEW100 FEW270 08/02 A3018 RMK AC1CI0 SLP236

CYXE;2007-05-15 05:00;CYXE 150500Z 30006KT 15SM FEW100 FEW270 07/02 A3019 RMK AC1CI0 SLP238

CYXE;2007-05-15 06:00;CYXE 150600Z 34007KT 15SM FEW100 FEW270 06/01 A3020 RMK AC1CI0 SLP243

CYXE;2007-05-15 07:00;CYXE 150700Z 04003KT 15SM FEW100 06/01 A3022 RMK AC2 SLP248

CYXE;2007-05-15 08:00;CYXE 150800Z 03004KT 15SM BKN100 05/01 A3023 RMK AC5 SLP251

CYXE;2007-05-15 09:00;CYXE 150900Z 02007KT 15SM BKN100 05/02 A3023 RMK AC5 SLP251

CYXE;2007-05-15 10:00;CYXE 151000Z 05008KT 15SM BKN100 BKN250 05/01 A3024 RMK AC5CI1 SLP255

CYXE;2007-05-15 11:00;CYXE 151100Z 04008KT 15SM BKN099 04/01 A3026 RMK AC6 SLP261

CYXE;2007-05-15 12:00;CYXE 151200Z 05008KT 15SM BKN100 04/01 A3027 RMK AC5 SLP267

CYXE;2007-05-15 13:00;CYXE 151300Z 06012KT 15SM FEW100 05/M00 A3029 RMK AC2 SLP272

CYXE;2007-05-15 14:00;CYXE 151400Z 04009KT 15SM FEW100 05/00 A3030 RMK AC1 SLP275

CYXE;2007-05-15 15:00;CYXE 151500Z 07009KT 15SM FEW100 07/01 A3030 RMK AC1 SLP280

CYXE;2007-05-15 16:00;CYXE 151600Z 02008KT 15SM FEW100 08/00 A3030 RMK AC1 SLP280

CYXE;2007-05-15 17:00;CYXE 151700Z 01007KT 15SM SKC 09/00 A3030 RMK SLP280

CYXE;2007-05-15 18:00;CYXE 151800Z 01007KT 15SM SKC 10/M00 A3030 RMK SLP279

CYXE;2007-05-15 19:00;CYXE 151900Z 34008KT 15SM FEW048 FEW280 12/M00 A3029 RMK CU1CI1 SLP275

CYXE;2007-05-15 20:00;CYXE 152000Z 36007KT 15SM FEW091 SCT280 13/M01 A3028 RMK AC1CI1 SLP272

CYXE;2007-05-15 21:00;CYXE 152100Z 29006KT 15SM FEW091 BKN280 15/01 A3026 RMK AC1CI2 SLP264

CYXE;2007-05-15 22:00;CYXE 152200Z 32005KT 15SM FEW100 BKN280 16/00 A3024 RMK AC2CI2 SLP258

CYXE;2007-05-15 23:00;CYXE 152300Z 35012G18KT 15SM FEW100 SCT280 16/M02 A3024 RMK AC1CI0 SLP257

CYXE;2007-05-16 00:00;CYXE 160000Z 01009KT 15SM FEW100 FEW280 16/M04 A3023 RMK AC1CI0 SLP253

CYXE;2007-05-16 01:00;CYXE 160100Z 36009KT 15SM FEW100 FEW280 15/M04 A3023 RMK AC1CI0 SLP252

CYXE;2007-05-16 02:00;CYXE 160200Z 03006KT 15SM FEW140 FEW280 13/00 A3022 RMK AC1CI0 SLP251

CYXE;2007-05-16 03:00;CYXE 160300Z 02005KT 15SM FEW280 11/M00 A3023 RMK CI0 SLP254

CYXE;2007-05-16 04:00;CYXE 160400Z 08004KT 15SM FEW280 10/M01 A3024 RMK CI0 SLP258

CYXE;2007-05-16 05:00;CYXE 160500Z 00000KT 15SM FEW280 08/M01 A3024 RMK CI0 SLP258

CYXE;2007-05-16 06:00;CYXE 160600Z 15004KT 15SM SKC 07/01 A3024 RMK SLP257

CYXE;2007-05-16 07:00;CYXE 160700Z 18005KT 15SM SKC 07/00 A3024 RMK SLP257

CYXE;2007-05-16 08:00;CYXE 160800Z 20005KT 15SM SKC 04/M01 A3024 RMK SLP257

CYXE;2007-05-16 09:00;CYXE 160900Z 00000KT 15SM SKC 04/M02 A3024 RMK SLP256

CYXE;2007-05-16 10:00;CYXE 161000Z 21005KT 15SM SKC 04/M03 A3023 RMK SLP253

CYXE;2007-05-16 11:00;CYXE 161100Z 21002KT 15SM SKC 03/M01 A3023 RMK SLP253

CYXE;2007-05-16 12:00;CYXE 161200Z 18006KT 15SM SKC 02/M01 A3022 RMK SLP250

CYXE;2007-05-16 13:00;CYXE 161300Z 18004KT 15SM SKC 05/01 A3022 RMK SLP251

CYXE;2007-05-16 14:00;CYXE 161400Z 19006KT 15SM SKC 09/01 A3021 RMK SLP246

CYXE;2007-05-16 15:00;CYXE 161500Z 21008KT 15SM FEW280 14/01 A3020 RMK CI0 SLP241

CYXE;2007-05-16 16:00;CYXE 161600Z 20011KT 15SM SCT280 16/M03 A3019 RMK CI0 SLP238

CYXE;2007-05-16 17:00;CYXE 161700Z 19009KT 15SM BKN280 18/M02 A3017 RMK CI1 SLP231

CYXE;2007-05-16 18:00;CYXE 161800Z 21011KT 15SM OVC280 19/M04 A3014 RMK CI2 SLP220

CYXE;2007-05-16 19:00;CYXE 161900Z 19010G15KT 15SM OVC280 19/M05 A3012 RMK CI2 SLP213

CYXE;2007-05-16 20:00;CYXE 162000Z 19013KT 15SM FEW084 OVC280 21/M04 A3008 RMK AC1CI3 SLP201

CYXE;2007-05-16 21:00;CYXE 162100Z 21013G20KT 15SM OVC280 21/M04 A3006 RMK CI4 SLP191

CYXE;2007-05-16 22:00;CYXE 162200Z 19011G16KT 15SM OVC300 21/M03 A3003 RMK CI4 SLP182

CYXE;2007-05-16 23:00;CYXE 162300Z 18013KT 15SM OVC300 21/M02 A3000 RMK CI5 SLP172

CYXE;2007-05-17 00:00;CYXE 170000Z 20015G21KT 15SM OVC300 21/M00 A2997 RMK CI4 SLP161

CYXE;2007-05-17 01:00;CYXE 170100Z 18010G19KT 15SM SCT300 20/01 A2994 RMK CI2 SLP150

CYXE;2007-05-17 02:00;CYXE 170200Z 17012KT 15SM FEW300 19/02 A2991 RMK CI1 SLP141

CYXE;2007-05-17 03:00;CYXE 170300Z 17010KT 15SM FEW300 17/02 A2989 RMK CI1 SLP130

CYXE;2007-05-17 04:00;CYXE 170400Z 17011KT 15SM FEW300 16/02 A2987 RMK CI1 SLP123

CYXE;2007-05-17 05:00;CYXE 170500Z 17011KT 15SM SKC 15/03 A2984 RMK SLP115

CYXE;2007-05-17 06:00;CYXE 170600Z 18015G20KT 15SM SKC 15/03 A2982 RMK SLP103

CYXE;2007-05-17 07:00;CYXE 170700Z 18017KT 15SM SKC 15/04 A2979 RMK SLP095

CYXE;2007-05-17 08:00;CYXE 170800Z 19015KT 15SM SKC 13/04 A2978 RMK SLP091

CYXE;2007-05-17 09:00;CYXE 170900Z 19012G17KT 15SM SKC 13/05 A2975 RMK SLP080

CYXE;2007-05-17 10:00;CYXE 171000Z 19011KT 15SM SKC 12/05 A2974 RMK SLP076

CYXE;2007-05-17 11:00;CYXE 171100Z 19009KT 15SM FEW250 11/05 A2972 RMK CI1 SLP072

CYXE;2007-05-17 12:00;CYXE 171200Z 19006KT 15SM SCT250 10/05 A2972 RMK CI1 SLP073

CYXE;2007-05-17 13:00;CYXE 171300Z 21009KT 15SM SCT250 12/06 A2972 RMK CI1 SLP073

CYXE;2007-05-17 14:00;CYXE 171400Z 25009KT 15SM OVC250 14/08 A2973 RMK CI2 SLP075

CYXE;2007-05-17 15:00;CYXE 171500Z 31006KT 15SM OVC250 17/09 A2974 RMK CI3 SLP077

CYXE;2007-05-17 16:00;CYXE 171600Z 35006KT 15SM FEW091 OVC250 19/10 A2975 RMK AC1CI3 SLP079

CYXE;2007-05-17 17:00;CYXE 171700Z 36009KT 15SM OVC250 22/09 A2976 RMK CI3 SLP082

CYXE;2007-05-17 18:00;CYXE 171800Z 36008KT 15SM OVC250 23/09 A2976 RMK CI2 SLP082

CYXE;2007-05-17 19:00;CYXE 171900Z 05008KT 15SM OVC280 24/08 A2976 RMK CI3 SLP081

CYXE;2007-05-17 20:00;CYXE 172000Z 03005KT 15SM FEW075 OVC280 24/05 A2976 RMK CU1CI3 SLP082

CYXE;2007-05-17 21:00;CYXE 172100Z 05004KT 15SM FEW099 OVC280 24/07 A2977 RMK AC1CI4 SLP084

CYXE;2007-05-17 22:00;CYXE 172200Z 08009KT 15SM FEW093 OVC300 25/06 A2976 RMK AC1CS3 SLP083

CYXE;2007-05-17 23:00;CYXE 172300Z 05006KT 15SM FEW093 OVC300 25/06 A2977 RMK AC1CS4 SLP085

CYXE;2007-05-18 00:00;CYXE 180000Z 04007KT 15SM FEW095 OVC300 23/09 A2977 RMK AC2CS2 SLP087

CYXE;2007-05-18 01:00;CYXE 180100Z 07007KT 15SM FEW095 OVC300 21/08 A2977 RMK AC2CI2 SLP088

CYXE;2007-05-18 02:00;CYXE 180200Z 06007KT 15SM FEW095 OVC300 18/08 A2977 RMK AC2CI2 SLP088

CYXE;2007-05-18 03:00;CYXE 180300Z 08006KT 15SM BKN300 15/07 A2977 RMK CI2 SLP088

CYXE;2007-05-18 04:00;CYXE 180400Z 07008KT 15SM SCT300 14/07 A2977 RMK CI2 SLP089

CYXE;2007-05-18 05:00;CYXE 180500Z 08007KT 15SM SCT300 13/07 A2977 RMK CI1 SLP088

CYXE;2007-05-18 06:00;CYXE 180600Z 07005KT 15SM SCT300 12/06 A2977 RMK CI0 SLP087

CYXE;2007-05-18 07:00;CYXE 180700Z 05012KT 15SM FEW110 BKN280 13/06 A2979 RMK AC1CI1 SLP093

CYXE;2007-05-18 08:00;CYXE 180800Z 07016KT 15SM -SHRA BKN083 13/07 A2981 RMK AC5 SLP101

CYXE;2007-05-18 08:27;CYXE 180827Z 08020G25KT 15SM SCT083 13/ RMK AC3

CYXE;2007-05-18 09:00;CYXE 180900Z 07021G26KT 15SM SCT097 12/06 A2983 RMK AC4 SLP105

CYXE;2007-05-18 10:00;CYXE 181000Z 07017G27KT 15SM -SHRA OVC100 10/05 A2984 RMK AC8 SLP109

CYXE;2007-05-18 10:34;CYXE 181034Z 07021KT 15SM BKN100 09/ RMK AC6

CYXE;2007-05-18 11:00;CYXE 181100Z 07020G25KT 15SM BKN100 OVC280 09/05 A2985 RMK AC5CI2 SLP113

CYXE;2007-05-18 12:00;CYXE 181200Z 05023G30KT 12SM BKN100 OVC280 07/03 A2990 RMK AC6CI1 FU SLP134

CYXE;2007-05-18 13:00;CYXE 181300Z 05024G34KT 12SM SCT100 SCT150 BKN280 06/03 A2990 RMK AC2AC1CI1 FU SLP135

CYXE;2007-05-18 14:00;CYXE 181400Z 07030G37KT 10SM FEW120 SCT280 07/02 A2990 RMK AC2CI1 DU SLP135

CYXE;2007-05-18 15:00;CYXE 181500Z 06027KT 15SM FEW120 SCT270 08/02 A2992 RMK AC2CI0 BLDU SLP145

CYXE;2007-05-18 16:00;CYXE 181600Z 06020G30KT 15SM SCT055 BKN120 OVC270 08/02 A2995 RMK SC4AC2CI0 SLP156

CYXE;2007-05-18 17:00;CYXE 181700Z 05020G29KT 15SM FEW022 OVC055 06/01 A3000 RMK SF2SC6 SLP170

CYXE;2007-05-18 18:00;CYXE 181800Z 05024KT 15SM OVC057 06/01 A3002 RMK SC7 SLP183

CYXE;2007-05-18 19:00;CYXE 181900Z 07022G28KT 15SM FEW022 BKN063 OVC300 08/01 A3004 RMK SF1SC3CS2 SLP189

CYXE;2007-05-18 20:00;CYXE 182000Z 06026KT 15SM FEW022 BKN047 OVC300 07/01 A3007 RMK SF1SC4CI2 SLP199

CYXE;2007-05-18 21:00;CYXE 182100Z 06022G29KT 15SM FEW021 BKN043 OVC300 06/M00 A3010 RMK SF2SC5CI1 SLP208

CYXE;2007-05-18 22:00;CYXE 182200Z 06025KT 15SM FEW015 BKN055 OVC100 04/M01 A3012 RMK SC2SC5AC2 SLP216

CYXE;2007-05-18 23:00;CYXE 182300Z 05021G27KT 15SM FEW015 BKN053 OVC100 04/M01 A3014 RMK SC2SC5AC2 SLP223

CYXE;2007-05-19 00:00;CYXE 190000Z 05022G27KT 15SM SCT015 BKN055 BKN100 03/M01 A3018 RMK SC3SC2AC0 SLP242

CYXE;2007-05-19 01:00;CYXE 190100Z 06020G26KT 15SM FEW015 SCT055 BKN100 02/M02 A3020 RMK SC2SC1AC1 SLP247

CYXE;2007-05-19 02:00;CYXE 190200Z 06018KT 15SM FEW018 BKN037 01/M02 A3022 RMK SC2SC6 SLP256

CYXE;2007-05-19 03:00;CYXE 190300Z 07018KT 15SM FEW018 OVC040 01/M03 A3024 RMK SC2SC6 SLP264

CYXE;2007-05-19 04:00;CYXE 190400Z 07014KT 15SM BKN015 OVC045 00/M03 A3026 RMK SC6SC2 SLP268

CYXE;2007-05-19 04:13;CYXE 190413Z 07012KT 15SM BKN013 OVC045 00/ RMK SC6SC2

CYXE;2007-05-19 05:00;CYXE 190500Z 07014KT 15SM OVC013 00/M02 A3026 RMK SC8 SLP271

CYXE;2007-05-19 06:00;CYXE 190600Z 09013KT 15SM OVC013 01/M02 A3026 RMK SC8 SLP270

CYXE;2007-05-19 06:18;CYXE 190618Z 08010KT 15SM BKN016 OVC060 00/ RMK SC6SC2

CYXE;2007-05-19 07:00;CYXE 190700Z 09010KT 15SM BKN016 OVC060 00/M03 A3027 RMK SC6SC2 SLP275

CYXE;2007-05-19 08:00;CYXE 190800Z 09010KT 15SM OVC016 00/M03 A3027 RMK SC8 SLP274

CYXE;2007-05-19 09:00;CYXE 190900Z 08009KT 15SM OVC014 M00/M03 A3025 RMK SC8 SLP268

CYXE;2007-05-19 10:00;CYXE 191000Z 08008KT 15SM OVC012 M00/M03 A3025 RMK SC8 SLP269

CYXE;2007-05-19 11:00;CYXE 191100Z 09011KT 15SM OVC014 00/M03 A3024 RMK SC8 SLP266

CYXE;2007-05-19 12:00;CYXE 191200Z 09010KT 15SM OVC014 01/M02 A3024 RMK SC8 SLP267

CYXE;2007-05-19 13:00;CYXE 191300Z 12015KT 15SM OVC014 01/M02 A3023 RMK SC8 SLP263

CYXE;2007-05-19 14:00;CYXE 191400Z 12011G16KT 15SM OVC014 02/M01 A3024 RMK SC8 SLP266

CYXE;2007-05-19 15:00;CYXE 191500Z 12011G17KT 15SM OVC014 03/M01 A3023 RMK SC8 SLP262

CYXE;2007-05-19 16:00;CYXE 191600Z 12011G18KT 15SM OVC016 04/M00 A3021 RMK SC8 SLP257

CYXE;2007-05-19 17:00;CYXE 191700Z 11017KT 15SM SCT016 BKN100 06/M00 A3018 RMK SC3AC1 SLP248

CYXE;2007-05-19 18:00;CYXE 191800Z 11017G25KT 15SM FEW016 BKN250 08/00 A3015 RMK SC1CI2 SLP231

CYXE;2007-05-19 19:00;CYXE 191900Z 14013G20KT 15SM FEW016 SCT250 11/02 A3012 RMK SC1CI2 SLP223

CYXE;2007-05-19 20:00;CYXE 192000Z 13017KT 15SM FEW030 SCT250 12/02 A3009 RMK SC1CI2 SLP213

CYXE;2007-05-19 21:00;CYXE 192100Z 14017KT 15SM FEW040 BKN250 12/03 A3006 RMK SC2CS2 SLP200

CYXE;2007-05-19 22:00;CYXE 192200Z 12017KT 15SM OVC040 12/02 A3004 RMK SC8 SLP193

CYXE;2007-05-19 23:00;CYXE 192300Z 15009KT 15SM OVC040 12/03 A3003 RMK SC8 SLP190

CYXE;2007-05-19 23:39;CYXE 192339Z 15012KT 15SM -SHRA OVC040 11/ RMK SC8

CYXE;2007-05-20 00:00;CYXE 200000Z 16013G18KT 8SM -SHRA OVC035 10/06 A3002 RMK SC8 SLP185

CYXE;2007-05-20 01:00;CYXE 200100Z 12015KT 15SM -SHRA FEW025 BKN070 OVC095 10/06 A2995 RMK SC2AC3AC2 SLP163

CYXE;2007-05-20 01:14;CYXE 200114Z 13010G15KT 15SM FEW035 BKN070 OVC095 10/ RMK SC2AC4AC2

CYXE;2007-05-20 02:00;CYXE 200200Z 14010G17KT 15SM BKN060 OVC250 10/06 A2994 RMK SC7CI1 SLP160

CYXE;2007-05-20 03:00;CYXE 200300Z 15011G17KT 15SM SCT050 BKN075 OVC100 09/06 A2994 RMK SC3AC3AC2 SLP158

CYXE;2007-05-20 04:00;CYXE 200400Z 16006KT 15SM BKN028 OVC095 09/06 A2995 RMK SC6AC2 SLP162

CYXE;2007-05-20 05:00;CYXE 200500Z 14009KT 15SM OVC035 09/06 A2991 RMK SC8 SLP150

CYXE;2007-05-20 06:00;CYXE 200600Z 15013G18KT 15SM FEW035 BKN078 08/06 A2989 RMK SF2AC2 SLP139

CYXE;2007-05-20 07:00;CYXE 200700Z 15011G16KT 15SM SCT097 08/05 A2988 RMK AC2 SLP134

CYXE;2007-05-20 08:00;CYXE 200800Z 15011G16KT 15SM BKN091 07/05 A2984 RMK AC3 SLP122

CYXE;2007-05-20 09:00;CYXE 200900Z 15012KT 15SM SCT018 BKN045 07/06 A2984 RMK SC4SC3 SLP120

CYXE;2007-05-20 10:00;CYXE 201000Z 15012G17KT 15SM -RA BKN044 OVC076 08/06 A2981 RMK SC6AC2 SLP111

CYXE;2007-05-20 11:00;CYXE 201100Z 15014KT 10SM -RA BKN040 OVC076 08/07 A2978 RMK SC6AC2 SLP101

CYXE;2007-05-20 11:23;CYXE 201123Z 15013KT 15SM SCT040 BKN100 BKN300 07/ RMK SC3AC2CI1

CYXE;2007-05-20 12:00;CYXE 201200Z 15011KT 15SM FEW012 BKN081 BKN300 07/06 A2978 RMK SF1AC5CI1 SLP099

CYXE;2007-05-20 13:00;CYXE 201300Z 15010G15KT 15SM FEW081 BKN300 08/07 A2976 RMK AC1CI3 SLP092

CYXE;2007-05-20 14:00;CYXE 201400Z 16009G15KT 15SM BKN300 10/08 A2974 RMK CI2 SLP088

CYXE;2007-05-20 15:00;CYXE 201500Z 20011KT 15SM FEW015 BKN300 12/08 A2974 RMK CU2CI2 SLP085

CYXE;2007-05-20 16:00;CYXE 201600Z 20007KT 15SM BKN019 OVC300 13/09 A2974 RMK SC6CI0 SLP084

CYXE;2007-05-20 17:00;CYXE 201700Z 24007KT 15SM BKN021 BKN300 14/09 A2974 RMK SC5CI0 SLP083

CYXE;2007-05-20 18:00;CYXE 201800Z 29009KT 15SM BKN017 OVC300 13/09 A2974 RMK SC7CI0 SLP084

CYXE;2007-05-20 19:00;CYXE 201900Z 31011KT 15SM OVC017 12/08 A2976 RMK SC8 SLP091

CYXE;2007-05-20 20:00;CYXE 202000Z 30012KT 15SM OVC019 11/08 A2977 RMK SC8 SLP093

CYXE;2007-05-20 21:00;CYXE 202100Z 31010KT 15SM OVC019 11/08 A2977 RMK SC8 SLP096

CYXE;2007-05-20 22:00;CYXE 202200Z 34009KT 15SM OVC021 13/09 A2977 RMK SC8 SLP097

CYXE;2007-05-20 23:00;CYXE 202300Z 33009KT 15SM OVC027 13/08 A2977 RMK SC8 SLP094

CYXE;2007-05-21 00:00;CYXE 210000Z 01009KT 15SM BKN027 OVC095 13/08 A2976 RMK SC6AC2 SLP092

CYXE;2007-05-21 01:00;CYXE 210100Z 01009KT 15SM BKN027 OVC070 13/08 A2977 RMK SC6AC2 SLP093

CYXE;2007-05-21 02:00;CYXE 210200Z 03009KT 15SM BKN027 OVC080 12/07 A2977 RMK SC7AC1 SLP095

CYXE;2007-05-21 03:00;CYXE 210300Z 03008KT 15SM BKN025 BKN080 11/07 A2977 RMK SC6AC1 SLP094

CYXE;2007-05-21 04:00;CYXE 210400Z 03007KT 15SM BKN023 BKN080 10/07 A2978 RMK SC6AC1 SLP096

CYXE;2007-05-21 05:00;CYXE 210500Z 05011KT 15SM BKN022 BKN080 10/07 A2977 RMK SC6AC1 SLP092

CYXE;2007-05-21 06:00;CYXE 210600Z 06006KT 15SM BKN028 BKN080 08/07 A2977 RMK SC6AC2 SLP094

CYXE;2007-05-21 07:00;CYXE 210700Z 04008KT 15SM BKN023 OVC093 09/07 A2976 RMK SC6AC2 SLP091

CYXE;2007-05-21 08:00;CYXE 210800Z 04011KT 15SM BKN021 OVC095 08/07 A2973 RMK SC6AC2 SLP081

CYXE;2007-05-21 09:00;CYXE 210900Z 05010KT 15SM OVC010 08/07 A2972 RMK SC8 SLP079

CYXE;2007-05-21 09:14;CYXE 210914Z 05009KT 10SM OVC008 08/ RMK ST8 BR

CYXE;2007-05-21 09:43;CYXE 210943Z 04011KT 10SM OVC007 08/ RMK ST8 BR

CYXE;2007-05-21 10:00;CYXE 211000Z 05011KT 10SM OVC006 08/08 A2972 RMK ST8 BR SLP076

CYXE;2007-05-21 10:41;CYXE 211041Z 04012KT 6SM -DZ OVC005 08/ RMK ST8

CYXE;2007-05-21 11:00;CYXE 211100Z 04012KT 5SM BR OVC005 08/08 A2970 RMK ST8 SLP072

CYXE;2007-05-21 11:25;CYXE 211125Z 04012KT 5SM BR OVC004 08/ RMK ST8

CYXE;2007-05-21 12:00;CYXE 211200Z 04011KT 4SM BR OVC004 08/08 A2970 RMK ST8 SLP072

CYXE;2007-05-21 12:29;CYXE 211229Z 05012G17KT 4SM BR OVC003 08/ RMK ST8

CYXE;2007-05-21 13:00;CYXE 211300Z 05014KT 3SM BR OVC002 08/08 A2970 RMK ST8 SLP071

CYXE;2007-05-21 13:25;CYXE 211325Z 05013KT 2SM BR OVC002 08/ RMK ST8

CYXE;2007-05-21 14:00;CYXE 211400Z 04013KT 2SM -DZ BR OVC002 08/08 A2970 RMK ST8 SLP072

CYXE;2007-05-21 15:00;CYXE 211500Z 05012KT 2SM -DZ BR OVC002 08/08 A2969 RMK ST8 SLP068

CYXE;2007-05-21 16:00;CYXE 211600Z 04015KT 2SM -DZ BR OVC003 08/08 A2969 RMK ST8 SLP069

CYXE;2007-05-21 17:00;CYXE 211700Z 04016KT 2SM -DZ BR OVC003 09/09 A2970 RMK ST8 SLP070

CYXE;2007-05-21 18:00;CYXE 211800Z 04016KT 8SM -DZ OVC005 09/09 A2969 RMK ST8 BR SLP069

CYXE;2007-05-21 18:24;CYXE 211824Z 05015G20KT 15SM OVC007 09/ RMK SF8

CYXE;2007-05-21 19:00;CYXE 211900Z 04018KT 15SM OVC007 09/08 A2969 RMK SF8 SLP069

CYXE;2007-05-21 19:55;CYXE 211955Z 05013G21KT 8SM -DZ OVC007 08/ RMK SF8 BER

CYXE;2007-05-21 19:57;CYXE 211957Z CCA 05013G21KT 8SM -DZ OVC007 08/ RMK SF8 BR

CYXE;2007-05-21 20:00;CYXE 212000Z 04015G21KT 8SM -RA OVC007 08/08 A2970 RMK SF8 BR SLP071

CYXE;2007-05-21 21:00;CYXE 212100Z 04015KT 4SM -RA BR OVC007 09/08 A2970 RMK SF8 SLP074

CYXE;2007-05-21 22:00;CYXE 212200Z 04016KT 6SM -RA BR OVC008 09/09 A2971 RMK SC8 SLP077

CYXE;2007-05-21 23:00;CYXE 212300Z 04015KT 6SM -RA BR OVC008 08/08 A2973 RMK SC8 SLP082

CYXE;2007-05-22 00:00;CYXE 220000Z 03018G24KT 10SM -RA BKN008 OVC020 08/08 A2973 RMK SF6SC2 SLP085

CYXE;2007-05-22 01:00;CYXE 220100Z 04017KT 15SM -RA BKN010 OVC020 08/08 A2974 RMK SF6SC2 SLP088

CYXE;2007-05-22 01:48;CYXE 220148Z 04019KT 15SM BKN011 OVC025 08/ RMK SF6SC2

CYXE;2007-05-22 02:00;CYXE 220200Z 04017G22KT 15SM BKN008 OVC025 08/07 A2975 RMK SF6SC2 SLP091

CYXE;2007-05-22 02:39;CYXE 220239Z 04015G21KT 10SM -RA BKN009 OVC025 08/ RMK SF6SC2

CYXE;2007-05-22 03:00;CYXE 220300Z 04017KT 15SM -RA BKN009 OVC025 08/07 A2976 RMK SF6SC2 SLP092

CYXE;2007-05-22 04:00;CYXE 220400Z 04013G19KT 10SM -RA BKN010 OVC025 07/07 A2979 RMK SF6SC2 SLP102

CYXE;2007-05-22 04:33;CYXE 220433Z 04015KT 2 1/2SM -RA BR OVC007 07/ RMK SF8

CYXE;2007-05-22 05:00;CYXE 220500Z 04012G19KT 4SM -RA BR OVC009 07/07 A2979 RMK SF8 SLP103

CYXE;2007-05-22 06:00;CYXE 220600Z 03015KT 6SM -RA OVC007 07/07 A2979 RMK ST8 SLP106

CYXE;2007-05-22 07:00;CYXE 220700Z 03015KT 10SM -DZ BKN007 OVC058 07/06 A2980 RMK ST7SC1 SLP108

CYXE;2007-05-22 08:00;CYXE 220800Z 03013KT 10SM -DZ BKN006 OVC058 07/06 A2982 RMK ST6SC2 SLP115

CYXE;2007-05-22 08:39;CYXE 220839Z 01012KT 10SM -RA OVC007 07/ RMK ST8

CYXE;2007-05-22 09:00;CYXE 220900Z 01013KT 10SM -RA OVC009 07/07 A2982 RMK ST8 SLP116

CYXE;2007-05-22 09:36;CYXE 220936Z 01014KT 15SM OVC007 07/ RMK SF8

CYXE;2007-05-22 10:00;CYXE 221000Z 01013KT 15SM OVC007 07/06 A2983 RMK SF8 SLP118

CYXE;2007-05-22 10:38;CYXE 221038Z 01013G18KT 10SM -RA OVC009 07/ RMK SF8

CYXE;2007-05-22 11:00;CYXE 221100Z 01013KT 10SM -RA BKN009 OVC021 07/06 A2984 RMK SF6SC2 SLP122

CYXE;2007-05-22 11:15;CYXE 221115Z 01015KT 15SM BKN009 OVC023 07/ RMK SF6SC2

CYXE;2007-05-22 12:00;CYXE 221200Z 01014KT 15SM OVC012 07/06 A2986 RMK SC8 SLP127

CYXE;2007-05-22 12:30;CYXE 221230Z 01013KT 10SM -RA OVC008 07/ RMK ST8

CYXE;2007-05-22 13:00;CYXE 221300Z 01013G18KT 10SM -RA OVC008 07/07 A2986 RMK ST8 SLP130

CYXE;2007-05-22 13:32;CYXE 221332Z 01015KT 15SM OVC011 07/ RMK SC8

CYXE;2007-05-22 14:00;CYXE 221400Z 01014KT 15SM OVC010 07/06 A2987 RMK SC8 SLP133

CYXE;2007-05-22 15:00;CYXE 221500Z 02014G19KT 15SM BKN012 OVC060 08/07 A2988 RMK SC7SC1 SLP136

CYXE;2007-05-22 16:00;CYXE 221600Z 03016KT 15SM BKN014 OVC065 09/06 A2988 RMK SC7SC1 SLP135

CYXE;2007-05-22 17:00;CYXE 221700Z 03016KT 15SM BKN020 OVC040 10/06 A2990 RMK SC7SC1 SLP140

CYXE;2007-05-22 18:00;CYXE 221800Z 03019G24KT 15SM BKN017 OVC040 10/06 A2989 RMK SC7SC1 SLP137

CYXE;2007-05-22 19:00;CYXE 221900Z 02015G20KT 15SM BKN020 OVC045 10/07 A2991 RMK SC7SC1 SLP145

CYXE;2007-05-22 20:00;CYXE 222000Z 03017G22KT 15SM BKN020 OVC045 10/06 A2992 RMK SC7SC1 SLP147

CYXE;2007-05-22 20:47;CYXE 222047Z 01016G21KT 15SM -DZ BKN020 OVC035 09/ RMK SC7SC1

CYXE;2007-05-22 21:00;CYXE 222100Z 02017KT 15SM -DZ SCT015 OVC020 10/07 A2992 RMK SC3SC5 SLP149

CYXE;2007-05-22 21:39;CYXE 222139Z 02015G22KT 15SM FEW015 OVC020 10/ RMK SC2SC6

CYXE;2007-05-22 22:00;CYXE 222200Z 03016KT 15SM BKN020 OVC040 11/07 A2993 RMK SC6SC2 SLP152

CYXE;2007-05-22 23:00;CYXE 222300Z 03014KT 15SM BKN022 BKN040 BKN100 11/07 A2993 RMK SC5SC1AC2 SLP153

CYXE;2007-05-23 00:00;CYXE 230000Z 03017KT 15SM BKN024 BKN100 12/07 A2993 RMK SC5AC2 SLP150

CYXE;2007-05-23 01:00;CYXE 230100Z 03015KT 15SM FEW016 BKN027 BKN100 BKN250 11/07 A2993 RMK CU2SC3AC1CI0 SLP149

CYXE;2007-05-23 02:00;CYXE 230200Z 05014G22KT 15SM FEW016 BKN060 OVC250 11/06 A2994 RMK CU1SC6CI0 SLP154

CYXE;2007-05-23 03:00;CYXE 230300Z 03006KT 15SM FEW015 BKN060 BKN090 10/06 A2995 RMK SC1SC6AC2 SLP158

CYXE;2007-05-23 04:00;CYXE 230400Z 36005KT 15SM BKN059 09/07 A2997 RMK SC7 SLP164

CYXE;2007-05-23 05:00;CYXE 230500Z 35008KT 15SM BKN045 BKN060 10/06 A2997 RMK SC5SC2 SLP163

CYXE;2007-05-23 06:00;CYXE 230600Z 33008KT 15SM BKN036 BKN090 09/07 A2996 RMK SC5AC2 SLP161

CYXE;2007-05-23 07:00;CYXE 230700Z 34010KT 15SM BKN048 OVC090 09/07 A2995 RMK SC6AC2 SLP159

CYXE;2007-05-23 07:37;CYXE 230737Z 36010KT 15SM -RA BKN048 OVC090 09/ RMK SC6AC2

CYXE;2007-05-23 08:00;CYXE 230800Z 36011KT 15SM -RA BKN040 OVC090 09/06 A2995 RMK SC6AC2 SLP158

CYXE;2007-05-23 08:47;CYXE 230847Z 36011KT 15SM SCT050 OVC072 08/ RMK SC4AC4

CYXE;2007-05-23 09:00;CYXE 230900Z 35012KT 15SM SCT050 OVC072 08/06 A2995 RMK SC3AC5 SLP156

CYXE;2007-05-23 10:00;CYXE 231000Z 36013KT 15SM OVC053 08/06 A2995 RMK SC8 SLP158

CYXE;2007-05-23 11:00;CYXE 231100Z 36011KT 15SM SCT060 OVC170 08/05 A2996 RMK SC3AC5 SLP161

CYXE;2007-05-23 12:00;CYXE 231200Z 36011KT 15SM FEW060 OVC170 08/05 A2997 RMK SC1AC7 SLP162

CYXE;2007-05-23 13:00;CYXE 231300Z 01013KT 15SM FEW060 OVC110 08/05 A2997 RMK SC1AS7 SLP163

CYXE;2007-05-23 14:00;CYXE 231400Z 36013KT 15SM OVC095 09/05 A2997 RMK AS8 SLP162

CYXE;2007-05-23 15:00;CYXE 231500Z 02015KT 15SM FEW020 OVC100 10/06 A2997 RMK CF1AS7 SLP164

CYXE;2007-05-23 16:00;CYXE 231600Z 03017KT 15SM OVC023 10/05 A2998 RMK SC8 SLP167

CYXE;2007-05-23 17:00;CYXE 231700Z 05016KT 15SM OVC023 10/06 A2999 RMK SC8 SLP172

CYXE;2007-05-23 18:00;CYXE 231800Z 05018KT 15SM BKN023 OVC065 09/06 A3002 RMK SC6SC2 SLP181

CYXE;2007-05-23 19:00;CYXE 231900Z 05012G18KT 15SM SCT021 OVC063 10/06 A3003 RMK SF4SC4 SLP183

CYXE;2007-05-23 20:00;CYXE 232000Z 04014KT 15SM BKN030 OVC065 11/04 A3003 RMK SC6SC2 SLP183

CYXE;2007-05-23 21:00;CYXE 232100Z 08017G25KT 15SM -RA BKN015 OVC050 08/06 A3004 RMK SC5SC3 SLP190

CYXE;2007-05-23 22:00;CYXE 232200Z 08010G15KT 15SM -RA BKN015 OVC050 09/06 A3006 RMK SC5SC3 SLP196

CYXE;2007-05-23 22:14;CYXE 232214Z 07014KT 15SM FEW015 OVC043 09/ RMK SC2SC6

CYXE;2007-05-23 23:00;CYXE 232300Z 09011KT 15SM -RA FEW015 SCT040 BKN100 09/05 A3007 RMK SC2SC2AC4 SLP199

CYXE;2007-05-24 00:00;CYXE 240000Z 07010KT 15SM FEW010 SCT030 BKN100 BKN250 09/05 A3007 RMK CF2SC2AC3CI1 INTMT -RA SLP200

CYXE;2007-05-24 00:45;CYXE 240045Z 07013KT 15SM SCT014 BKN040 OVC250 08/ RMK SC3SC4CI0

CYXE;2007-05-24 01:00;CYXE 240100Z 06012KT 15SM SCT015 BKN040 OVC250 08/04 A3008 RMK SC3SC2CS1 SLP202

CYXE;2007-05-24 02:00;CYXE 240200Z 05008KT 15SM FEW012 SCT040 BKN120 BKN250 08/04 A3009 RMK SC2SC2AC2CI0 SLP205

CYXE;2007-05-24 03:00;CYXE 240300Z 02003KT 15SM FEW010 FEW040 BKN120 BKN250 07/05 A3009 RMK SC1SC2AC2CI0 SLP208

CYXE;2007-05-24 04:00;CYXE 240400Z 35003KT 15SM FEW015 BKN070 BKN250 06/04 A3009 RMK SC1AC4CI0 SLP208

CYXE;2007-05-24 05:00;CYXE 240500Z 32004KT 15SM FEW045 BKN090 05/04 A3009 RMK SC2AC2 SLP207

CYXE;2007-05-24 06:00;CYXE 240600Z 34005KT 15SM BKN040 BKN250 05/05 A3009 RMK SC6CI1 SLP209

CYXE;2007-05-24 07:00;CYXE 240700Z 32004KT 15SM BKN035 OVC065 06/05 A3010 RMK SC6SC2 SLP211

CYXE;2007-05-24 08:00;CYXE 240800Z 30005KT 15SM BKN033 OVC060 06/05 A3011 RMK SC6SC2 SLP213

CYXE;2007-05-24 08:44;CYXE 240844Z 30005KT 15SM -RA OVC028 06/ RMK SC8

CYXE;2007-05-24 09:00;CYXE 240900Z CCA 30004KT 15SM -RA OVC028 06/05 A3011 RMK SC8 SLP215

CYXE;2007-05-24 10:00;CYXE 241000Z 31004KT 15SM BKN028 BKN060 06/05 A3011 RMK SC6SC2 SLP215

CYXE;2007-05-24 11:00;CYXE 241100Z CCA 00000KT 10SM -RA BKN025 OVC065 06/06 A3011 RMK SC7SC1 SLP215

CYXE;2007-05-24 11:30;CYXE 241130Z 03005KT 15SM VCSH BKN022 OVC055 06/ RMK SC6SC1

CYXE;2007-05-24 11:36;CYXE 241136Z 03003KT 15SM FEW005 BKN022 OVC055 06/ RMK SF1SC6SC1

CYXE;2007-05-24 12:00;CYXE 241200Z 00000KT 15SM FEW005 BKN022 OVC055 06/06 A3012 RMK SF1SC6SC2 SLP219

CYXE;2007-05-24 13:00;CYXE 241300Z 02005KT 15SM FEW015 BKN020 OVC060 07/06 A3013 RMK SC2SC6SC1 SLP221

CYXE;2007-05-24 14:00;CYXE 241400Z 06005KT 15SM FEW015 BKN028 OVC060 07/05 A3013 RMK SC1SC6SC2 SLP222

CYXE;2007-05-24 15:00;CYXE 241500Z 02004KT 15SM FEW015 BKN025 BKN230 08/04 A3014 RMK SC2SC5CI0 SLP224

CYXE;2007-05-24 16:00;CYXE 241600Z 04007KT 15SM BKN021 BKN300 10/04 A3013 RMK SC5CI1 SLP222

CYXE;2007-05-24 18:00;CYXE 241800Z 02012G17KT 15SM BKN033 10/02 A3013 RMK SC6 SLP222

CYXE;2007-05-24 19:00;CYXE 241900Z 03010KT 15SM BKN038 10/02 A3012 RMK SC6 SLP220

CYXE;2007-05-24 20:00;CYXE 242000Z 04008KT 15SM BKN038 10/02 A3013 RMK SC7 SLP222

CYXE;2007-05-24 21:00;CYXE 242100Z 03013KT 15SM BKN038 11/01 A3013 RMK SC7 SLP219

CYXE;2007-05-24 22:00;CYXE 242200Z 04008KT 15SM BKN048 BKN250 12/01 A3012 RMK CU6CI0 SLP218

CYXE;2007-05-24 23:00;CYXE 242300Z 36009KT 15SM SCT050 OVC250 12/01 A3012 RMK CU3CI1 SLP217

CYXE;2007-05-25 00:00;CYXE 250000Z 05005KT 15SM FEW056 OVC250 11/M00 A3013 RMK CU2CI2 SLP220

CYXE;2007-05-25 01:00;CYXE 250100Z 06006KT 15SM FEW059 OVC250 11/M00 A3013 RMK CU2CI2 SLP219

CYXE;2007-05-25 02:00;CYXE 250200Z 09011KT 15SM FEW090 OVC250 10/01 A3013 RMK AC1CI3 SLP221

CYXE;2007-05-25 03:00;CYXE 250300Z 09009KT 15SM OVC250 08/01 A3015 RMK CI2 SLP229

CYXE;2007-05-25 04:00;CYXE 250400Z 09007KT 15SM BKN250 05/01 A3016 RMK CI2 SLP232

CYXE;2007-05-25 05:00;CYXE 250500Z 11006KT 15SM BKN250 04/00 A3017 RMK CI2 SLP235

CYXE;2007-05-25 06:00;CYXE 250600Z 13004KT 15SM FEW250 05/01 A3017 RMK CI1 SLP237

CYXE;2007-05-25 07:00;CYXE 250700Z 16005KT 15SM FEW250 03/01 A3018 RMK CI1 SLP239

CYXE;2007-05-25 08:00;CYXE 250800Z 15004KT 15SM SKC 03/02 A3018 RMK SLP239

CYXE;2007-05-25 09:00;CYXE 250900Z 15003KT 15SM FEW250 03/02 A3018 RMK CI1 SLP238

CYXE;2007-05-25 10:00;CYXE 251000Z 16004KT 15SM FEW250 02/01 A3017 RMK CI1 SLP237

CYXE;2007-05-25 11:00;CYXE 251100Z 17003KT 15SM MIFG FEW250 02/02 A3018 RMK CI1 SLP238

CYXE;2007-05-25 12:00;CYXE 251200Z 17003KT 15SM FEW250 02/01 A3018 RMK CI1 SLP241

CYXE;2007-05-25 13:00;CYXE 251300Z 19003KT 15SM FEW250 04/03 A3020 RMK CI1 SLP246

CYXE;2007-05-25 14:00;CYXE 251400Z 19005KT 15SM FEW250 07/03 A3020 RMK CI0 SLP247

CYXE;2007-05-25 15:00;CYXE 251500Z 21004KT 15SM FEW250 09/04 A3021 RMK CI1 SLP246

CYXE;2007-05-25 16:00;CYXE 251600Z CCA 15003KT 15SM FEW060 FEW250 11/03 A3020 RMK CU1CI1 TR CI SLP244

CYXE;2007-05-25 17:00;CYXE 251700Z 10002KT 15SM SCT045 11/M00 A3019 RMK CU3 SLP242

CYXE;2007-05-25 18:00;CYXE 251800Z 09002KT 15SM SCT047 SCT250 13/01 A3019 RMK CU3CI0 SLP239

CYXE;2007-05-25 19:00;CYXE 251900Z 09004KT 15SM SCT050 BKN250 14/02 A3018 RMK CU4CI0 SLP238

CYXE;2007-05-25 20:00;CYXE 252000Z 00000KT 15SM SCT050 BKN250 13/01 A3018 RMK CU3CI0 SLP236

CYXE;2007-05-25 21:00;CYXE 252100Z 10004KT 15SM FEW060 SCT250 14/M00 A3017 RMK CU2CI0 SLP234

CYXE;2007-05-25 22:00;CYXE 252200Z 12005KT 15SM SCT063 BKN250 15/01 A3017 RMK CU3CI0 SLP232

CYXE;2007-05-25 23:00;CYXE 252300Z 08007KT 15SM SCT063 BKN250 15/00 A3016 RMK CU3CI0 SLP230

CYXE;2007-05-26 00:00;CYXE 260000Z 19002KT 15SM FEW068 BKN250 15/M01 A3016 RMK CU2CI1 SLP231

CYXE;2007-05-26 01:00;CYXE 260100Z 17004KT 15SM FEW068 SCT250 14/M01 A3015 RMK CU1CI1 SLP228

CYXE;2007-05-26 02:00;CYXE 260200Z 17006KT 15SM FEW250 12/01 A3015 RMK CI1 SLP228

CYXE;2007-05-26 03:00;CYXE 260300Z 15003KT 15SM FEW090 11/M01 A3015 RMK AC2 SLP225

CYXE;2007-05-26 04:00;CYXE 260400Z 16005KT 15SM FEW090 FEW250 10/00 A3016 RMK AC1CI1 SLP227

CYXE;2007-05-26 05:00;CYXE 260500Z 18005KT 15SM FEW090 FEW250 08/01 A3016 RMK AC1CI1 SLP227

CYXE;2007-05-26 06:00;CYXE 260600Z 17004KT 15SM FEW090 07/02 A3015 RMK AC1 SLP226

CYXE;2007-05-26 07:00;CYXE 260700Z 16007KT 15SM SKC 06/02 A3015 RMK SLP225

CYXE;2007-05-26 08:00;CYXE 260800Z 17007KT 15SM SKC 05/02 A3014 RMK SLP223

CYXE;2007-05-26 09:00;CYXE 260900Z 16004KT 15SM FEW090 04/01 A3014 RMK AC1 SLP222

CYXE;2007-05-26 10:00;CYXE 261000Z 00000KT 15SM FEW090 03/01 A3013 RMK AC1 SLP221

CYXE;2007-05-26 11:00;CYXE 261100Z 17004KT 15SM FEW090 02/00 A3012 RMK AC1 SLP218

CYXE;2007-05-26 12:00;CYXE 261200Z 16003KT 15SM SKC 04/01 A3012 RMK SLP217

CYXE;2007-05-26 13:00;CYXE 261300Z 17008KT 15SM SKC 07/03 A3012 RMK SLP215

CYXE;2007-05-26 14:00;CYXE 261400Z 18009KT 15SM SKC 09/03 A3011 RMK SLP212

CYXE;2007-05-26 15:00;CYXE 261500Z 17006KT 15SM SKC 13/04 A3009 RMK SLP204

CYXE;2007-05-26 16:00;CYXE 261600Z 15007KT 15SM FEW050 14/01 A3008 RMK CU1 SLP200

CYXE;2007-05-26 17:00;CYXE 261700Z 17009KT 15SM FEW050 15/02 A3007 RMK CU1 SLP196

CYXE;2007-05-26 18:00;CYXE 261800Z 16007KT 15SM FEW060 17/03 A3005 RMK CU1 SLP190

CYXE;2007-05-26 19:00;CYXE 261900Z 18003G15KT 15SM FEW065 17/02 A3003 RMK CU1 SLP184

CYXE;2007-05-26 20:00;CYXE 262000Z 13007KT 15SM FEW065 18/03 A3001 RMK CU2 SLP176

CYXE;2007-05-26 21:00;CYXE 262100Z 13004KT 15SM FEW070 18/02 A2999 RMK CU2 SLP167

CYXE;2007-05-26 22:00;CYXE 262200Z 16002KT 15SM SCT075 SCT250 18/03 A2997 RMK CU3CI0 SLP161

CYXE;2007-05-26 23:00;CYXE 262300Z 18008KT 15SM SCT072 SCT093 BKN250 19/04 A2995 RMK CU3AC1CI0 SLP156

CYXE;2007-05-27 00:00;CYXE 270000Z 16006KT 15SM FEW068 SCT098 SCT250 19/05 A2993 RMK CU2AC1CI0 SLP149

CYXE;2007-05-27 01:00;CYXE 270100Z 21008KT 15SM FEW068 FEW250 19/03 A2992 RMK CU1CI0 SLP144

CYXE;2007-05-27 02:00;CYXE 270200Z 20008KT 15SM FEW098 FEW250 18/03 A2990 RMK AC1CI0 SLP139

CYXE;2007-05-27 03:00;CYXE 270300Z 16006KT 15SM FEW098 FEW250 14/05 A2990 RMK AC1CI0 SLP134

CYXE;2007-05-27 04:00;CYXE 270400Z 16008KT 15SM FEW093 FEW250 14/05 A2989 RMK AC1CI0 SLP133

CYXE;2007-05-27 05:00;CYXE 270500Z 18010KT 15SM FEW250 13/04 A2989 RMK CI1 SLP131

CYXE;2007-05-27 06:00;CYXE 270600Z 19012KT 15SM FEW250 12/04 A2988 RMK CI0 SLP126

CYXE;2007-05-27 07:00;CYXE 270700Z 19011KT 15SM FEW250 11/04 A2987 RMK CI0 SLP123

CYXE;2007-05-27 08:00;CYXE 270800Z 19009KT 15SM FEW250 10/04 A2986 RMK CI0 SLP122

CYXE;2007-05-27 09:00;CYXE 270900Z 19008KT 15SM FEW250 09/04 A2986 RMK CI0 SLP123

CYXE;2007-05-27 10:00;CYXE 271000Z 19009KT 15SM FEW120 FEW250 08/04 A2986 RMK AC1CI0 SLP120

CYXE;2007-05-27 11:00;CYXE 271100Z 19009KT 15SM FEW120 FEW250 08/04 A2985 RMK AC1CI0 SLP118

CYXE;2007-05-27 12:00;CYXE 271200Z 19009KT 15SM FEW120 FEW250 09/04 A2984 RMK AC1CI0 SLP114

CYXE;2007-05-27 13:00;CYXE 271300Z 18011KT 15SM BKN250 11/06 A2983 RMK CI1 SLP110

CYXE;2007-05-27 14:00;CYXE 271400Z 19012KT 15SM FEW120 BKN250 13/07 A2982 RMK AC1CI2 SLP107

CYXE;2007-05-27 15:00;CYXE 271500Z 18012KT 15SM FEW140 BKN250 15/07 A2980 RMK AC1CI2 SLP100

CYXE;2007-05-27 16:00;CYXE 271600Z 17010KT 15SM SCT120 OVC250 18/08 A2979 RMK AC2CI2 SLP098

CYXE;2007-05-27 17:00;CYXE 271700Z 16012KT 15SM FEW140 BKN250 19/06 A2978 RMK AC1CI2 SLP093

CYXE;2007-05-27 18:00;CYXE 271800Z 16014KT 15SM FEW140 BKN250 21/06 A2977 RMK AC1CI2 SLP087

CYXE;2007-05-27 19:00;CYXE 271900Z 15013G20KT 15SM FEW120 BKN250 22/06 A2974 RMK AC1CI2 SLP078

CYXE;2007-05-27 20:00;CYXE 272000Z 17014G21KT 15SM FEW065 SCT095 BKN250 23/07 A2972 RMK CU1AC2CI2 TCU EMBD SLP071

CYXE;2007-05-27 21:00;CYXE 272100Z 15015KT 15SM FEW065 SCT095 BKN250 23/08 A2969 RMK CU1AC2CI1 SLP061

CYXE;2007-05-27 22:00;CYXE 272200Z 19013G20KT 15SM FEW065 SCT095 BKN300 23/08 A2966 RMK CU1AC2CI1 SLP051

CYXE;2007-05-27 23:00;CYXE 272300Z 15014KT 15SM SCT095 BKN300 23/07 A2963 RMK AC3CI2 SLP042

CYXE;2007-05-28 00:00;CYXE 280000Z 20014KT 15SM SCT036 BKN084 OVC300 23/07 A2963 RMK SC3AC3CI2 SLP041

CYXE;2007-05-28 01:00;CYXE 280100Z 15010G20KT 15SM SCT055 BKN077 OVC300 20/09 A2963 RMK SC3AC3CI2 SLP040

CYXE;2007-05-28 02:00;CYXE 280200Z 16008KT 15SM FEW055 BKN090 OVC300 20/09 A2962 RMK SC2AC6CI1 SLP037

CYXE;2007-05-28 03:00;CYXE 280300Z 18010KT 15SM BKN093 OVC300 19/09 A2962 RMK AC6CI2 SLP035

CYXE;2007-05-28 04:00;CYXE 280400Z 17009KT 15SM BKN086 OVC300 19/08 A2961 RMK AC6CI2 SLP032

CYXE;2007-05-28 05:00;CYXE 280500Z 19008KT 15SM BKN100 OVC300 18/08 A2960 RMK AC5CI2 SLP030

CYXE;2007-05-28 06:00;CYXE 280600Z 17008KT 15SM BKN100 OVC300 17/09 A2959 RMK AC6CI2 SLP025

CYXE;2007-05-28 07:00;CYXE 280700Z 17010KT 15SM FEW060 OVC100 17/09 A2958 RMK SC2AC6 SLP019

CYXE;2007-05-28 08:00;CYXE 280800Z 18012KT 15SM FEW060 OVC095 17/10 A2957 RMK SC1AC7 SLP016

CYXE;2007-05-28 09:00;CYXE 280900Z 18011KT 15SM FEW060 OVC089 17/10 A2956 RMK SC2AC6 SLP012

CYXE;2007-05-28 10:00;CYXE 281000Z 14007KT 15SM FEW060 OVC100 16/10 A2955 RMK SC2AC6 SLP009

CYXE;2007-05-28 10:37;CYXE 281037Z 16008KT 15SM -RA FEW065 OVC100 15/ RMK SC2AC6

CYXE;2007-05-28 11:00;CYXE 281100Z 16008KT 15SM -RA FEW065 OVC100 15/11 A2955 RMK SC2AC6 SLP010

CYXE;2007-05-28 11:07;CYXE 281107Z 16006KT 15SM FEW065 OVC100 15/ RMK SC2AC6

CYXE;2007-05-28 11:31;CYXE 281131Z 20005KT 15SM -RA FEW060 OVC100 15/ RMK SC2AC6

CYXE;2007-05-28 12:00;CYXE 281200Z 23011KT 15SM -RA FEW060 OVC100 14/11 A2957 RMK SC2AC6 SLP018

CYXE;2007-05-28 13:00;CYXE 281300Z 28005KT 15SM -RA SCT026 OVC060 13/12 A2958 RMK SC3SC5 SLP020

CYXE;2007-05-28 13:43;CYXE 281343Z 32006KT 15SM BKN075 OVC100 13/ RMK AC5AC3

CYXE;2007-05-28 14:00;CYXE 281400Z 32008KT 15SM VCSH BKN073 OVC100 14/12 A2956 RMK ACC6AC2 SLP014

CYXE;2007-05-28 14:11;CYXE 281411Z 05002KT 15SM -SHRA BKN070 OVC100 14/ RMK ACC7AC1

CYXE;2007-05-28 15:00;CYXE 281500Z 14002KT 15SM -SHRA FEW020 OVC065 14/13 A2958 RMK SC1SC7 ACC EMBD SLP023

CYXE;2007-05-28 16:00;CYXE 281600Z 18005KT 15SM BKN010 OVC065 14/13 A2959 RMK SC5SC2 SLP027

CYXE;2007-05-28 16:24;CYXE 281624Z 17006KT 15SM -SHRA BKN012 OVC060 15/ RMK SC6SC2 ACC EMBD

CYXE;2007-05-28 17:00;CYXE 281700Z 20010KT 15SM -SHRA BKN010 OVC060 14/13 A2960 RMK SC7SC1 ACC EMBD SLP028

CYXE;2007-05-28 17:38;CYXE 281738Z 21008KT 15SM VCSH BKN012 OVC050 15/ RMK SC7SC1

CYXE;2007-05-28 18:00;CYXE 281800Z 23013KT 15SM VCSH BKN012 OVC055 15/13 A2960 RMK CU5SC2 SLP030

CYXE;2007-05-28 18:29;CYXE 281829Z 23009KT 15SM -SHRA BKN013 OVC050 15/ RMK CU6SC2

CYXE;2007-05-28 18:51;CYXE 281851Z 26009KT 15SM VCSH BKN011 OVC050 15/ RMK CU6SC2

CYXE;2007-05-28 19:00;CYXE 281900Z 26007KT 15SM VCSH BKN011 OVC050 15/13 A2960 RMK CU6SC2 SLP030

CYXE;2007-05-28 20:00;CYXE 282000Z 25011KT 15SM BKN015 BKN050 17/13 A2960 RMK CU6SC1 SLP030

CYXE;2007-05-28 21:00;CYXE 282100Z 25012KT 15SM BKN020 16/12 A2961 RMK CU7 SLP032

CYXE;2007-05-28 22:00;CYXE 282200Z 27009KT 15SM BKN023 17/12 A2962 RMK CU7 SLP036

CYXE;2007-05-28 23:00;CYXE 282300Z 25010KT 15SM BKN024 BKN070 17/12 A2961 RMK CU6AC2 SLP034

CYXE;2007-05-29 00:00;CYXE 290000Z 31014KT 15SM SCT010 OVC034 13/12 A2962 RMK SF4SC4 SLP039

CYXE;2007-05-29 00:14;CYXE 290014Z 32012KT 6SM -RA BKN005 OVC016 13/ RMK SF6SC2

CYXE;2007-05-29 00:29;CYXE 290029Z 31012KT 3SM -RA OVC004 13/ RMK SF8

CYXE;2007-05-29 01:00;CYXE 290100Z 30012KT 10SM -RA BKN007 OVC040 13/12 A2963 RMK SF6SC2 SLP041

CYXE;2007-05-29 02:00;CYXE 290200Z 27012KT 3SM -RA OVC008 13/13 A2964 RMK ST8 SLP046

CYXE;2007-05-29 02:36;CYXE 290236Z 31016G25KT 2SM -RA BKN008 OVC041 13/ RMK ST7SC1 VIS VRB 1-3

CYXE;2007-05-29 03:00;CYXE 290300Z 32019KT 2SM -RA OVC008 12/12 A2965 RMK ST8 VIS VRB 1-3 SLP051

CYXE;2007-05-29 04:00;CYXE 290400Z 32017KT 6SM -RA SCT008 OVC032 12/12 A2969 RMK SF4SC4 SLP062

CYXE;2007-05-29 05:00;CYXE 290500Z 33011KT 10SM -RA SCT006 OVC042 13/13 A2970 RMK SF4SC4 SLP066

CYXE;2007-05-29 06:00;CYXE 290600Z 35012KT 10SM SCT009 OVC040 13/12 A2972 RMK SF4SC4 SLP073

CYXE;2007-05-29 06:11;CYXE 290611Z 36015G20KT 10SM BKN009 OVC040 13/ RMK SF6SC2

CYXE;2007-05-29 07:00;CYXE 290700Z 01017G24KT 10SM BKN008 OVC040 12/12 A2974 RMK SF7SC1 SLP081

CYXE;2007-05-29 07:52;CYXE 290752Z 01020G25KT 8SM -DZ BKN008 OVC040 12/ RMK SF6SC2

CYXE;2007-05-29 08:00;CYXE 290800Z 01020G26KT 5SM -RA BKN007 OVC040 12/11 A2977 RMK SF7SC1 SLP091

CYXE;2007-05-29 09:00;CYXE 290900Z 01024G30KT 5SM -RA OVC007 10/09 A2980 RMK SF8 SLP103

CYXE;2007-05-29 09:24;CYXE 290924Z 01025KT 10SM OVC007 RMK SF8

CYXE;2007-05-29 10:00;CYXE 291000Z 01023G29KT 10SM BKN006 OVC040 08/08 A2982 RMK SF6SC2 SLP110

CYXE;2007-05-29 11:00;CYXE 291100Z 01020G26KT 5SM -RA BKN007 OVC040 08/07 A2988 RMK SF7SC1 SLP129

CYXE;2007-05-29 12:00;CYXE 291200Z 02021KT 5SM -RA OVC007 07/07 A2993 RMK ST8 SLP149

CYXE;2007-05-29 12:24;CYXE 291224Z 02021G26KT 3SM -RA OVC007 07/ RMK ST8

CYXE;2007-05-29 13:00;CYXE 291300Z 03020G27KT 5SM -RA BKN007 OVC016 06/ A2995 RMK ST6SC2 SLP156

CYXE;2007-05-29 14:00;CYXE 291400Z 03021KT 3SM -RA BR OVC008 06/05 A2997 RMK ST8 SLP163

CYXE;2007-05-29 15:00;CYXE 291500Z 03019G25KT 3SM RA BR OVC009 05/05 A2999 RMK ST8 SLP171

CYXE;2007-05-29 15:10;CYXE 291510Z 03019KT 3SM -RA BR OVC006 05/ RERA RMK ST8

CYXE;2007-05-29 15:39;CYXE 291539Z 03018G24KT 6SM -RA BR OVC008 05/ RERA RMK ST8

CYXE;2007-05-29 16:00;CYXE 291600Z 02016KT 5SM -RA BR OVC006 05/05 A3001 RERA RMK ST8 SLP179

CYXE;2007-05-29 17:00;CYXE 291700Z 03020G25KT 5SM RA BR OVC007 05/05 A3003 RMK ST8 /R10/ SLP185

CYXE;2007-05-29 18:00;CYXE 291800Z 03019KT 5SM -RA BR OVC008 05/04 A3006 RERA RMK ST8 SLP196

CYXE;2007-05-29 19:00;CYXE 291900Z 03015KT 12SM -RA OVC009 05/05 A3008 RERA RMK ST8 SLP204

CYXE;2007-05-29 19:10;CYXE 291910Z 04018KT 12SM -RA OVC010 05/ RMK ST8

CYXE;2007-05-29 20:00;CYXE 292000Z 03017KT 8SM -RA OVC009 05/05 A3008 RMK ST8 SLP204

CYXE;2007-05-29 21:00;CYXE 292100Z 04014KT 3SM -RA BR OVC007 05/05 A3010 RMK ST8 SLP210

CYXE;2007-05-29 22:00;CYXE 292200Z 04013G18KT 3SM -RA BR OVC006 05/05 A3010 RMK ST8 SLP211

CYXE;2007-05-29 23:00;CYXE 292300Z 05015KT 10SM -RA OVC008 05/05 A3012 RMK ST8 SLP217

CYXE;2007-05-29 23:43;CYXE 292343Z 05015KT 2 1/2SM -RA BR OVC007 05/ RMK ST8

CYXE;2007-05-30 00:00;CYXE 300000Z 05016KT 3SM -RA BR OVC006 05/05 A3012 RMK ST8 SLP221

CYXE;2007-05-30 01:00;CYXE 300100Z 05013KT 3SM -DZ BR OVC008 05/05 A3014 RMK ST8 SLP225

CYXE;2007-05-30 02:00;CYXE 300200Z 05015KT 8SM -DZ BKN008 OVC012 05/05 A3014 RMK ST6SC2 SLP225

CYXE;2007-05-30 03:00;CYXE 300300Z 06012KT 10SM -RA BKN007 OVC015 05/05 A3016 RMK SF6SC2 SLP233

CYXE;2007-05-30 04:00;CYXE 300400Z 05012KT 4SM -RA BR OVC005 05/05 A3017 RMK SF8 SLP236

CYXE;2007-05-30 04:20;CYXE 300420Z 05009KT 6SM -RA BR BKN007 OVC015 04/ RMK SF6SC2

CYXE;2007-05-30 04:41;CYXE 300441Z 05011KT 8SM -RA OVC004 04/ RMK SF8

CYXE;2007-05-30 05:00;CYXE 300500Z 05012KT 8SM -RA BKN006 OVC012 04/04 A3016 RMK SF6ST2 SLP235

CYXE;2007-05-30 05:26;CYXE 300526Z 06010KT 4SM -RA BR OVC006 04/ RMK SF8

CYXE;2007-05-30 05:42;CYXE 300542Z 06011KT 3SM -RA BR BKN003 OVC009 05/ RMK SF6ST2

CYXE;2007-05-30 06:00;CYXE 300600Z 06011G16KT 4SM -DZ BR SCT003 OVC006 04/04 A3017 RMK SF3ST5 SLP239

CYXE;2007-05-30 06:21;CYXE 300621Z 07009KT 4SM -DZ BR OVC004 04/ RMK ST8

CYXE;2007-05-30 07:00;CYXE 300700Z 07011KT 3SM -DZ BR OVC004 04/04 A3018 RMK ST8 SLP241

CYXE;2007-05-30 08:00;CYXE 300800Z 05007KT 3SM -DZ BR OVC004 04/04 A3017 RMK ST8 SLP240

CYXE;2007-05-30 08:51;CYXE 300851Z 06008KT 8SM OVC004 04/ RMK ST8 BR

CYXE;2007-05-30 09:00;CYXE 300900Z 06010KT 10SM OVC005 04/04 A3017 RMK ST8 BR SLP237

CYXE;2007-05-30 10:00;CYXE 301000Z 04009KT 6SM BR OVC005 04/04 A3017 RMK ST8 SLP239

CYXE;2007-05-30 11:00;CYXE 301100Z 05008KT 5SM BR OVC005 04/04 A3018 RMK ST8 SLP241

CYXE;2007-05-30 11:26;CYXE 301126Z 05008KT 6SM BR OVC004 04/ RMK ST8

CYXE;2007-05-30 12:00;CYXE 301200Z 04010KT 10SM OVC005 05/05 A3018 RMK ST8 BR SLP242

CYXE;2007-05-30 13:00;CYXE 301300Z 05009KT 8SM OVC004 05/05 A3019 RMK ST8 BR SLP245

CYXE;2007-05-30 14:00;CYXE 301400Z 06007KT 6SM BR OVC003 05/05 A3019 RMK ST8 SLP245

CYXE;2007-05-30 14:47;CYXE 301447Z 06007KT 10SM OVC004 05/ RMK ST8 BR

CYXE;2007-05-30 15:00;CYXE 301500Z 04007KT 8SM OVC004 06/06 A3019 RMK ST8 BR SLP246

CYXE;2007-05-30 16:00;CYXE 301600Z 02008KT 10SM OVC006 07/06 A3020 RMK ST8 BR SLP247

CYXE;2007-05-30 17:00;CYXE 301700Z 04008KT 10SM BKN007 OVC014 08/07 A3020 RMK ST6SC2 BR SLP248

CYXE;2007-05-30 18:00;CYXE 301800Z 06008KT 10SM OVC009 08/07 A3020 RMK ST8 BR SLP247

CYXE;2007-05-30 18:44;CYXE 301844Z 03007KT 10SM OVC010 09/ RMK ST8 BR

CYXE;2007-05-30 19:00;CYXE 301900Z 06007KT 12SM OVC010 10/08 A3020 RMK ST8 BR SLP246

CYXE;2007-05-30 20:00;CYXE 302000Z 04007KT 12SM OVC012 10/08 A3019 RMK SC8 HZ SLP244

CYXE;2007-05-30 21:00;CYXE 302100Z 05005KT 15SM OVC014 11/09 A3018 RMK SC8 SLP238

CYXE;2007-05-30 22:00;CYXE 302200Z 08003KT 15SM OVC014 13/09 A3017 RMK SC7 SLP235

CYXE;2007-05-30 22:28;CYXE 302228Z 05003KT 15SM OVC016 13/ RMK SC7

CYXE;2007-05-30 23:00;CYXE 302300Z 02003KT 15SM OVC018 13/09 A3016 RMK SC8 SLP231

CYXE;2007-05-31 00:00;CYXE 310000Z 01004KT 15SM BKN020 OVC090 14/10 A3015 RMK SC7AC1 SLP225

CYXE;2007-05-31 01:00;CYXE 310100Z 32004KT 15SM BKN027 OVC085 13/11 A3013 RMK SC6AC2 SLP219

CYXE;2007-05-31 02:00;CYXE 310200Z 31005KT 15SM SCT030 SCT085 OVC250 13/11 A3012 RMK SC3AC1CI3 SLP216

CYXE;2007-05-31 03:00;CYXE 310300Z 31006KT 15SM FEW030 FEW090 BKN250 11/10 A3011 RMK SC2AC1CI2 SLP214

CYXE;2007-05-31 04:00;CYXE 310400Z 32007KT 15SM BKN250 09/09 A3011 RMK CI2 SLP214

CYXE;2007-05-31 05:00;CYXE 310500Z 34007KT 15SM BKN250 08/08 A3010 RMK CI2 SLP210

CYXE;2007-05-31 06:00;CYXE 310600Z 35005KT 15SM BKN250 08/08 A3010 RMK CI3 SLP210

CYXE;2007-05-31 07:00;CYXE 310700Z 34006KT 10SM OVC250 07/07 A3009 RMK CI4 BR SLP208

CYXE;2007-05-31 08:00;CYXE 310800Z 34007KT 10SM OVC250 07/07 A3008 RMK CI3 BR SLP204

CYXE;2007-05-31 09:00;CYXE 310900Z 35006KT 10SM BCFG OVC250 06/06 A3008 RMK CI3 SLP203

CYXE;2007-05-31 10:00;CYXE 311000Z 01005KT 10SM BCFG BKN250 06/06 A3008 RMK CI2 SLP201

CYXE;2007-05-31 11:00;CYXE 311100Z 01006KT 8SM BKN250 06/06 A3008 RMK CI2 BR SLP201

CYXE;2007-05-31 12:00;CYXE 311200Z 03004KT 8SM BKN250 07/07 A3008 RMK CI2 BR SLP199

CYXE;2007-05-31 13:00;CYXE 311300Z 04003KT 15SM BKN250 10/09 A3007 RMK CI2 SLP196

CYXE;2007-05-31 14:00;CYXE 311400Z 04006KT 15SM FEW140 BKN250 13/10 A3006 RMK AC1CI2 SLP194

CYXE;2007-05-31 15:00;CYXE 311500Z 04006KT 15SM BKN250 15/10 A3006 RMK CI2 SLP190

CYXE;2007-05-31 16:00;CYXE 311600Z 03006KT 15SM BKN290 17/10 A3006 RMK CI2 SLP190

CYXE;2007-05-31 17:00;CYXE 311700Z 05011KT 15SM FEW030 BKN290 18/10 A3004 RMK CU1CI2 SLP186

CYXE;2007-05-31 20:00;CYXE 312000Z 05008KT 15SM FEW040 OVC290 21/11 A3000 RMK CU1CI2 SLP171

CYXE;2007-05-31 21:00;CYXE 312100Z 04008G16KT 15SM FEW044 BKN290 21/11 A2999 RMK CU1CI2 SLP167

CYXE;2007-05-31 22:00;CYXE 312200Z 07008G15KT 15SM BKN290 22/09 A2998 RMK CI3 SLP163

CYXE;2007-05-31 23:00;CYXE 312300Z 05009G15KT 15SM FEW100 BKN300 22/09 A2997 RMK AC1CI2 SLP160

CYXE;2007-06-01 01:00;CYXE 010100Z 05007KT 15SM FEW100 BKN300 20/11 A2996 RMK AC1CI2 SLP156

CYXE;2007-06-01 02:00;CYXE 010200Z 03006KT 15SM FEW100 BKN300 18/12 A2996 RMK AC1CI2 SLP157

CYXE;2007-06-01 03:00;CYXE 010300Z 06004KT 15SM FEW100 BKN300 17/11 A2996 RMK AC1CI3 SLP155

CYXE;2007-06-01 04:00;CYXE 010400Z 05003KT 15SM FEW100 BKN300 15/10 A2997 RMK AC1CI2 SLP156

CYXE;2007-06-01 05:00;CYXE 010500Z 03003KT 15SM FEW120 BKN300 13/11 A2996 RMK AC1CI2 SLP155

CYXE;2007-06-01 06:00;CYXE 010600Z 00000KT 15SM FEW100 BKN300 13/11 A2996 RMK AC1CI2 SLP152

CYXE;2007-06-01 07:00;CYXE 010700Z 03003KT 15SM SCT065 BKN100 OVC300 13/11 A2996 RMK SC3AC2CI1 SLP153

CYXE;2007-06-01 08:00;CYXE 010800Z 01002KT 15SM FEW070 SCT300 11/10 A2996 RMK AC2CI0 SLP152

CYXE;2007-06-01 09:00;CYXE 010900Z 30002KT 15SM SCT300 10/09 A2996 RMK CI1 BR PTCHS SLP153

CYXE;2007-06-01 10:00;CYXE 011000Z 01002KT 15SM SCT300 10/10 A2995 RMK CI1 BR PTCHS SLP151

CYXE;2007-06-01 11:00;CYXE 011100Z 04002KT 15SM SCT300 10/09 A2995 RMK CI1 BR PTCHS SLP151

CYXE;2007-06-01 12:00;CYXE 011200Z 00000KT 15SM SCT300 10/10 A2996 RMK CI1 BR PTCHS SLP154

CYXE;2007-06-01 13:00;CYXE 011300Z 34002KT 15SM SCT300 13/11 A2996 RMK CI1 SLP155

CYXE;2007-06-01 14:00;CYXE 011400Z 00000KT 15SM SCT075 BKN300 15/12 A2997 RMK AC4CI0 SLP156

CYXE;2007-06-01 15:00;CYXE 011500Z 01002KT 15SM BKN075 BKN300 17/13 A2997 RMK AC6CI0 SLP155

CYXE;2007-06-01 16:00;CYXE 011600Z 32002KT 15SM BKN075 BKN300 18/13 A2997 RMK AC6CI0 SLP154

CYXE;2007-06-01 17:00;CYXE 011700Z 00000KT 15SM FEW035 SCT075 BKN300 21/12 A2996 RMK CU1AC4CI0 SLP152

CYXE;2007-06-01 18:00;CYXE 011800Z 36003KT 15SM FEW044 FEW075 BKN300 22/11 A2995 RMK CU1AC1CI1 SLP149

CYXE;2007-06-01 19:00;CYXE 011900Z 30003KT 15SM FEW048 SCT120 BKN300 23/11 A2995 RMK CU2AC2CI0 SLP146

CYXE;2007-06-01 20:00;CYXE 012000Z 24006KT 15SM SCT048 SCT300 24/12 A2993 RMK CU3CI0 SLP142

CYXE;2007-06-01 21:00;CYXE 012100Z 35002KT 15SM SCT050 24/12 A2993 RMK CU4 SLP141

CYXE;2007-06-01 22:00;CYXE 012200Z 35002KT 15SM SCT050 23/12 A2992 RMK CU4 SLP137

CYXE;2007-06-01 23:00;CYXE 012300Z 00000KT 15SM FEW060 FEW300 25/11 A2991 RMK CU2CI1 SLP134

CYXE;2007-06-02 00:00;CYXE 020000Z 00000KT 15SM FEW060 25/11 A2990 RMK CU2 SLP130

CYXE;2007-06-02 01:00;CYXE 020100Z 27003KT 15SM FEW070 FEW300 25/09 A2989 RMK AC1CI0 SLP129

CYXE;2007-06-02 02:00;CYXE 020200Z 28004KT 15SM FEW070 FEW300 23/11 A2990 RMK AC1CI1 SLP130

CYXE;2007-06-02 03:00;CYXE 020300Z 25004KT 15SM FEW300 21/12 A2990 RMK CI0 SLP130

CYXE;2007-06-02 04:00;CYXE 020400Z 23005KT 15SM FEW300 18/13 A2991 RMK CI1 SLP132

CYXE;2007-06-02 05:00;CYXE 020500Z 23005KT 15SM FEW300 17/12 A2991 RMK CI1 SLP133

CYXE;2007-06-02 06:00;CYXE 020600Z 24005KT 15SM SKC 15/12 A2991 RMK SLP134

CYXE;2007-06-02 07:00;CYXE 020700Z 24004KT 15SM SKC 15/12 A2991 RMK SLP134

CYXE;2007-06-02 08:00;CYXE 020800Z 21004KT 15SM SKC 13/10 A2992 RMK SLP137

CYXE;2007-06-02 09:00;CYXE 020900Z 23005KT 15SM SKC 13/11 A2993 RMK SLP140

CYXE;2007-06-02 10:00;CYXE 021000Z 25003KT 15SM SKC 11/10 A2993 RMK SLP141

CYXE;2007-06-02 11:00;CYXE 021100Z 22006KT 15SM FEW270 10/09 A2993 RMK CI1 SLP141

CYXE;2007-06-02 12:00;CYXE 021200Z 23004KT 15SM FEW270 11/10 A2994 RMK CI0 SLP145

CYXE;2007-06-02 13:00;CYXE 021300Z 25004KT 15SM FEW270 14/12 A2995 RMK CI0 SLP147

CYXE;2007-06-02 14:00;CYXE 021400Z 25004KT 15SM FEW270 18/12 A2995 RMK CI0 SLP148

CYXE;2007-06-02 15:00;CYXE 021500Z 30006KT 15SM FEW270 21/14 A2995 RMK CI0 SLP146

CYXE;2007-06-02 16:00;CYXE 021600Z 32005KT 15SM SKC 23/15 A2996 RMK SLP148

CYXE;2007-06-02 17:00;CYXE 021700Z 34003KT 15SM FEW270 25/14 A2995 RMK CI1 SLP146

CYXE;2007-06-02 18:00;CYXE 021800Z 28003KT 15SM FEW065 FEW270 26/09 A2995 RMK CU1CI1 SLP144

CYXE;2007-06-02 19:00;CYXE 021900Z 34003KT 15SM FEW080 FEW270 27/12 A2995 RMK CU1CI0 SLP143

CYXE;2007-06-02 20:00;CYXE 022000Z 30006KT 15SM FEW080TCU FEW140 SCT270 27/12 A2994 RMK TCU2AC1CI0 SLP141

CYXE;2007-06-02 21:00;CYXE 022100Z 30005KT 15SM FEW080TCU SCT140 SCT270 28/13 A2993 RMK TCU2AC2CI0 SLP139

CYXE;2007-06-02 22:00;CYXE 022200Z 28007KT 15SM SCT050TCU SCT140 BKN300 27/16 A2993 RMK TCU3AC1CI0 SLP137

CYXE;2007-06-02 23:00;CYXE 022300Z 33007KT 15SM FEW050 SCT140 SCT300 28/13 A2992 RMK CU2AC1CI0 TCU ASOCTD SLP136

CYXE;2007-06-03 00:00;CYXE 030000Z 30007KT 15SM VCSH FEW040 BKN100 BKN300 24/14 A2993 RMK CU2ACC3CI0 TCU EMBDD SLP141

CYXE;2007-06-03 01:00;CYXE 030100Z 06006KT 15SM FEW035 BKN100 BKN140 22/13 A2995 RMK CU2AC3AC1 CVCTV CLD ASOCTD CB E SLP147

CYXE;2007-06-03 02:00;CYXE 030200Z 10003KT 15SM FEW035 BKN100 22/14 A2994 RMK CU2AC4 SLP145

CYXE;2007-06-03 03:00;CYXE 030300Z 14003KT 15SM FEW035 SCT100 BKN300 21/14 A2995 RMK SC2AC2CI0 SLP142

CYXE;2007-06-03 04:00;CYXE 030400Z 19002KT 15SM FEW100 SCT300 21/12 A2995 RMK AC2CI0 SLP145

CYXE;2007-06-03 05:00;CYXE 030500Z 06003KT 15SM FEW100 FEW300 16/13 A2997 RMK AC1CI0 SLP149

CYXE;2007-06-03 06:00;CYXE 030600Z 09002KT 15SM FEW300 14/11 A2997 RMK CI0 SLP151

CYXE;2007-06-03 07:00;CYXE 030700Z 31005KT 15SM SCT300 14/13 A2997 RMK CI1 SLP151

CYXE;2007-06-03 08:00;CYXE 030800Z 29006KT 15SM FEW280 13/12 A2997 RMK CI0 SLP151

CYXE;2007-06-03 09:00;CYXE 030900Z 31004KT 15SM SCT280 14/13 A2997 RMK CI1 SLP152

CYXE;2007-06-03 10:00;CYXE 031000Z 00000KT 15SM SCT280 13/13 A2998 RMK CI1 SLP153

CYXE;2007-06-03 11:00;CYXE 031100Z 23003KT 15SM BKN270 13/13 A2998 RMK CI2 SLP154

CYXE;2007-06-03 12:00;CYXE 031200Z 30006KT 15SM FEW100 BKN270 14/13 A2999 RMK AC1CI1 SLP159

CYXE;2007-06-03 13:00;CYXE 031300Z 33006KT 15SM FEW100 BKN270 18/14 A2998 RMK AC1CI2 SLP158

CYXE;2007-06-03 14:00;CYXE 031400Z 00000KT 15SM FEW100 BKN270 22/15 A2998 RMK AC1CI2 ACC ASOCTD SLP158

CYXE;2007-06-03 15:00;CYXE 031500Z 00000KT 15SM FEW040CB FEW110 BKN270 24/15 A2999 RMK CB1AC2CI2 CB SSW ACC ASOCTD SLP155

CYXE;2007-06-03 16:00;CYXE 031600Z CCA 33008KT 15SM FEW040TCU SCT088 OVC270 24/16 A2999 RMK TCU1AC2CI3 TCU S ACC ASOCTD SLP158

CYXE;2007-06-03 17:00;CYXE 031700Z 33011G17KT 15SM FEW035 SCT090 OVC220 22/15 A3001 RMK CU1AC2CI6 SLP164

CYXE;2007-06-03 17:52;CYXE 031752Z 34009KT 15SM -SHRA SCT067 OVC110 20/ RMK AC3AS5

CYXE;2007-06-03 18:00;CYXE 031800Z 34009KT 15SM -SHRA SCT067 OVC110 20/14 A3003 RMK AC3AS5 SLP177

CYXE;2007-06-03 19:00;CYXE 031900Z 02011KT 15SM -SHRA SCT016 OVC078 18/15 A3003 RMK SC4AC4 SLP176

CYXE;2007-06-03 19:41;CYXE 031941Z 02012KT 15SM SCT016 BKN073 19/ RMK SC3AC4

CYXE;2007-06-03 20:00;CYXE 032000Z 03012KT 15SM FEW039 BKN073 21/16 A3002 RMK SC2AC4 SLP173

CYXE;2007-06-03 21:00;CYXE 032100Z 05012KT 15SM BKN093 BKN300 23/16 A3001 RMK AC4CI1 SLP168

CYXE;2007-06-03 22:00;CYXE 032200Z 04008KT 15SM SCT093 SCT300 23/14 A3001 RMK AC3CI0 SLP167

CYXE;2007-06-03 23:00;CYXE 032300Z 03011KT 15SM FEW095 23/13 A3001 RMK AC1 SLP169

CYXE;2007-06-04 00:00;CYXE 040000Z 03010KT 15SM FEW035 SCT130 22/13 A3002 RMK CU1AC3 SLP171

CYXE;2007-06-04 01:00;CYXE 040100Z 04009KT 15SM FEW030 FEW100 22/13 A3003 RMK SC1AC2 SLP173

CYXE;2007-06-04 02:00;CYXE 040200Z 05007KT 15SM FEW030 FEW100 20/13 A3003 RMK SC1AC1 SLP175

CYXE;2007-06-04 03:00;CYXE 040300Z 06005KT 15SM FEW080 18/13 A3004 RMK AC1 SLP175

CYXE;2007-06-04 04:00;CYXE 040400Z 05002KT 15SM FEW300 17/12 A3005 RMK CI0 SLP180

CYXE;2007-06-04 05:00;CYXE 040500Z 00000KT 15SM FEW300 15/14 A3005 RMK CI0 SLP180

CYXE;2007-06-04 06:00;CYXE 040600Z 32006KT 15SM FEW080 FEW300 13/12 A3007 RMK AC1CI0 SLP189

CYXE;2007-06-04 07:00;CYXE 040700Z 32007KT 15SM FEW080 FEW280 12/12 A3007 RMK AC1CI0 SLP190

CYXE;2007-06-04 08:00;CYXE 040800Z 35007KT 15SM FEW059 11/11 A3007 RMK SC2 SLP190

CYXE;2007-06-04 09:00;CYXE 040900Z 01004KT 15SM FEW064 11/11 A3008 RMK SC2 SLP192

CYXE;2007-06-04 10:00;CYXE 041000Z 02006KT 15SM FEW066 11/11 A3008 RMK AC2 SLP194

CYXE;2007-06-04 11:00;CYXE 041100Z 04007KT 15SM FEW066 09/09 A3009 RMK AC2 SLP198

CYXE;2007-06-04 12:00;CYXE 041200Z 07015KT 15SM FEW070 12/11 A3012 RMK AC2 SLP207

CYXE;2007-06-04 13:00;CYXE 041300Z 08016G24KT 15SM FEW070 12/08 A3014 RMK AC1 SLP215

CYXE;2007-06-04 14:00;CYXE 041400Z 07017KT 15SM FEW070 FEW250 14/07 A3016 RMK AC2CI0 SLP219

CYXE;2007-06-04 15:00;CYXE 041500Z 08015KT 15SM FEW071 SCT250 13/04 A3017 RMK CU2CI0 SLP224

CYXE;2007-06-04 16:00;CYXE 041600Z 09012G17KT 15SM FEW071 FEW250 15/04 A3016 RMK CU1CI0 SLP223

CYXE;2007-06-04 17:00;CYXE 041700Z 06013KT 15SM FEW071 FEW250 17/06 A3016 RMK ACC1CI0 SLP221

CYXE;2007-06-04 18:00;CYXE 041800Z 09006KT 15SM FEW048 FEW090 SCT250 18/06 A3015 RMK CU1ACC1CI0 SLP218

CYXE;2007-06-04 19:00;CYXE 041900Z 07005KT 15SM FEW110 BKN250 18/06 A3013 RMK ACC1CI1 SLP214

CYXE;2007-06-04 20:00;CYXE 042000Z 07009KT 15SM BKN250 19/07 A3012 RMK CI1 SLP211

CYXE;2007-06-04 21:00;CYXE 042100Z 06005KT 15SM BKN250 20/07 A3010 RMK CI2 SLP201

CYXE;2007-06-04 22:00;CYXE 042200Z 04011KT 15SM BKN250 19/07 A3008 RMK CI2 SLP195

CYXE;2007-06-04 23:00;CYXE 042300Z 03007KT 15SM BKN250 20/05 A3006 RMK CI2 SLP189

CYXE;2007-06-05 00:00;CYXE 050000Z 05006KT 15SM BKN250 18/07 A3004 RMK CI2 SLP182

CYXE;2007-06-05 01:00;CYXE 050100Z 09005KT 15SM BKN250 19/04 A3002 RMK CI1 SLP176

CYXE;2007-06-05 02:00;CYXE 050200Z 08004KT 15SM FEW250 16/04 A3001 RMK CI0 SLP171

CYXE;2007-06-05 03:00;CYXE 050300Z 10007KT 15SM FEW250 14/02 A2998 RMK CI0 SLP163

CYXE;2007-06-05 04:00;CYXE 050400Z 11007KT 15SM FEW100 FEW250 11/01 A2998 RMK AC1CI0 SLP161

CYXE;2007-06-05 05:00;CYXE 050500Z 13007KT 15SM FEW250 12/02 A2997 RMK CI0 SLP158

CYXE;2007-06-05 06:00;CYXE 050600Z 14006KT 15SM SKC 11/01 A2995 RMK SLP150

CYXE;2007-06-05 07:00;CYXE 050700Z 16007KT 15SM SKC 11/02 A2993 RMK SLP146

CYXE;2007-06-05 08:00;CYXE 050800Z 18007KT 15SM SKC 10/01 A2991 RMK SLP138

CYXE;2007-06-05 09:00;CYXE 050900Z 16007KT 15SM FEW250 10/01 A2988 RMK CI0 SLP127

CYXE;2007-06-05 10:00;CYXE 051000Z 17006KT 15SM FEW250 08/02 A2985 RMK CI1 SLP116

CYXE;2007-06-05 11:00;CYXE 051100Z 17006KT 15SM FEW100 FEW250 08/02 A2982 RMK AC1CI1 SLP107

CYXE;2007-06-05 12:00;CYXE 051200Z 16004KT 15SM FEW100 FEW250 09/03 A2979 RMK AC1CI1 SLP097

CYXE;2007-06-05 13:00;CYXE 051300Z 17005KT 15SM FEW083 SCT250 13/04 A2976 RMK AC1CI1 SLP087

CYXE;2007-06-05 14:00;CYXE 051400Z 17006KT 15SM OVC300 16/05 A2972 RMK CI2 SLP076

CYXE;2007-06-05 15:00;CYXE 051500Z 18008KT 15SM OVC300 18/06 A2970 RMK CI2 SLP063

CYXE;2007-06-05 16:00;CYXE 051600Z 14008KT 15SM FEW100 OVC300 20/08 A2967 RMK AC1CI2 SLP055

CYXE;2007-06-05 17:00;CYXE 051700Z 16004KT 15SM SCT081 BKN300 22/10 A2963 RMK AC2CI2 SLP042

CYXE;2007-06-05 18:00;CYXE 051800Z 08002KT 15SM SCT081 BKN300 22/11 A2960 RMK AC2CI2 SLP030

CYXE;2007-06-05 19:00;CYXE 051900Z 16004KT 15SM SCT081 BKN300 25/12 A2958 RMK AC2CI2 SLP022

CYXE;2007-06-05 20:00;CYXE 052000Z 17004KT 15SM SCT069 BKN300 25/10 A2955 RMK AC2CI2 SLP013

CYXE;2007-06-05 21:00;CYXE 052100Z 20004KT 15SM SCT072 BKN300 26/11 A2951 RMK AC2CI2 SLP997

CYXE;2007-06-05 22:00;CYXE 052200Z 14004KT 15SM SCT075 BKN300 25/10 A2949 RMK CU3CI2 SLP989

CYXE;2007-06-05 23:00;CYXE 052300Z 14005KT 15SM BKN090 BKN300 26/10 A2946 RMK ACC5CI1 SLP982

CYXE;2007-06-06 00:00;CYXE 060000Z 17005KT 15SM BKN100 BKN300 24/10 A2944 RMK ACC5CI1 SLP974

CYXE;2007-06-06 01:00;CYXE 060100Z 13005KT 15SM SCT090 BKN300 23/10 A2942 RMK ACC3CI0 SLP967

CYXE;2007-06-06 02:00;CYXE 060200Z 10005KT 15SM BKN095 BKN300 22/11 A2941 RMK ACC5CI2 SLP966

CYXE;2007-06-06 03:00;CYXE 060300Z 05024G30KT 15SM BKN085 OVC300 16/07 A2944 RMK ACC6CI2 SLP972

CYXE;2007-06-06 04:00;CYXE 060400Z 07023G30KT 15SM BKN090 BKN300 14/05 A2946 RMK ACC5CI0 SLP980

CYXE;2007-06-06 05:00;CYXE 060500Z 08022KT 15SM SCT090 BKN300 13/07 A2946 RMK ACC4CI2 SLP980

CYXE;2007-06-06 06:00;CYXE 060600Z 08016G21KT 15SM FEW090 OVC280 13/07 A2944 RMK AC2CI6 SLP974

CYXE;2007-06-06 07:00;CYXE 060700Z 08013G18KT 15SM BKN280 13/08 A2945 RMK CI5 SLP976

CYXE;2007-06-06 08:00;CYXE 060800Z 08011G17KT 15SM OVC110 13/09 A2945 RMK AC8 SLP977

CYXE;2007-06-06 09:00;CYXE 060900Z 07013KT 15SM OVC110 13/10 A2945 RMK AC8 SLP973

CYXE;2007-06-06 10:00;CYXE 061000Z 06013G19KT 15SM BKN015 OVC110 12/10 A2943 RMK SC5AC2 SLP969

CYXE;2007-06-06 10:19;CYXE 061019Z 07014G20KT 15SM OVC011 12/ RMK SF8

CYXE;2007-06-06 11:00;CYXE 061100Z 06014G19KT 15SM OVC010 12/10 A2945 RMK SF8 SLP973

CYXE;2007-06-06 12:00;CYXE 061200Z 06018KT 15SM OVC012 11/09 A2946 RMK SF8 SLP978

CYXE;2007-06-06 13:00;CYXE 061300Z 06015G21KT 15SM BKN014 OVC072 11/09 A2946 RMK SF7AC1 SLP981

CYXE;2007-06-06 14:00;CYXE 061400Z 07019G25KT 15SM BKN014 OVC069 11/08 A2947 RMK SC5AC3 SLP983

CYXE;2007-06-06 15:00;CYXE 061500Z 06017KT 15SM -SHRA SCT016 OVC071 08/07 A2949 RMK SC4AC4 SLP997

CYXE;2007-06-06 16:00;CYXE 061600Z 05020G25KT 15SM -SHRA FEW016 OVC073 08/07 A2949 RMK SF1AC7 SLP997

CYXE;2007-06-06 17:00;CYXE 061700Z 05019KT 15SM -SHRA SCT030 OVC075 10/08 A2951 RMK SC3AC5 SLP002

CYXE;2007-06-06 17:22;CYXE 061722Z 05018KT 15SM SCT030 OVC082 10/ RMK SC3AC5

CYXE;2007-06-06 18:00;CYXE 061800Z 06019G24KT 15SM FEW019 OVC082 12/08 A2952 RMK SF2AC6 SLP008

CYXE;2007-06-06 19:00;CYXE 061900Z 06022KT 15SM FEW019 OVC088 13/07 A2954 RMK SF2AC6 SLP013

CYXE;2007-06-06 20:00;CYXE 062000Z 05020G25KT 15SM FEW042 OVC087 13/06 A2955 RMK CU2AC6 SLP018

CYXE;2007-06-06 21:00;CYXE 062100Z 06017KT 15SM FEW042 OVC087 14/04 A2957 RMK CU2AC6 SLP023

CYXE;2007-06-06 22:00;CYXE 062200Z 05015G21KT 15SM FEW090 BKN300 14/03 A2958 RMK AC2CS6 SLP027

CYXE;2007-06-06 23:00;CYXE 062300Z 04016KT 15SM BKN300 14/03 A2959 RMK CS7 SLP028

CYXE;2007-06-07 00:00;CYXE 070000Z 04012G17KT 15SM BKN300 15/03 A2959 RMK CI6 SLP031

CYXE;2007-06-07 01:00;CYXE 070100Z 03014KT 15SM BKN300 15/01 A2960 RMK CI3 SLP033

CYXE;2007-06-07 02:00;CYXE 070200Z 01017KT 15SM BKN300 14/00 A2962 RMK CI3 SLP039

CYXE;2007-06-07 03:00;CYXE 070300Z 01010KT 15SM BKN300 11/01 A2964 RMK CI2 SLP051

CYXE;2007-06-07 04:00;CYXE 070400Z 02008KT 15SM FEW300 07/01 A2966 RMK CI1 SLP058

CYXE;2007-06-07 05:00;CYXE 070500Z 36009KT 15SM FEW300 05/01 A2968 RMK CI0 SLP064

CYXE;2007-06-07 06:00;CYXE 070600Z 01008KT 15SM FEW300 04/00 A2970 RMK CI0 SLP072

CYXE;2007-06-07 07:00;CYXE 070700Z 36008KT 15SM FEW250 03/00 A2970 RMK CI0 SLP074

CYXE;2007-06-07 07:54;CYXE 070754Z 36008KT 15SM SKC 02/

CYXE;2007-06-07 08:00;CYXE 070800Z 36008KT 15SM SKC 02/00 A2971 RMK SLP075

CYXE;2007-06-07 09:00;CYXE 070900Z 34009KT 15SM FEW100 02/00 A2970 RMK AC1 SLP074

CYXE;2007-06-07 10:00;CYXE 071000Z 34008KT 15SM FEW100 FEW250 02/01 A2971 RMK AC1CI0 SLP076

CYXE;2007-06-07 11:00;CYXE 071100Z 33008KT 15SM FEW110 FEW250 02/01 A2972 RMK AC2CI0 SLP081

CYXE;2007-06-07 12:00;CYXE 071200Z 32006KT 15SM FEW110 FEW250 04/02 A2975 RMK AC1CI0 SLP089

CYXE;2007-06-07 13:00;CYXE 071300Z 33007KT 15SM FEW093 07/04 A2976 RMK AC1 SLP092

CYXE;2007-06-07 14:00;CYXE 071400Z 32008KT 15SM FEW100 10/04 A2976 RMK AC1 SLP093

CYXE;2007-06-07 15:00;CYXE 071500Z 33014KT 15SM FEW038 13/03 A2976 RMK CU1 SLP090

CYXE;2007-06-07 16:00;CYXE 071600Z 30011KT 15SM SCT055 13/02 A2975 RMK CU4 SLP086

CYXE;2007-06-07 17:00;CYXE 071700Z 31016G26KT 15SM SCT056 BKN300 13/01 A2974 RMK CU4CI0 SLP084

CYXE;2007-06-07 18:00;CYXE 071800Z 30016KT 15SM SCT064 OVC300 14/00 A2973 RMK CU4CI4 SLP084

CYXE;2007-06-07 19:00;CYXE 071900Z 30016G22KT 10SM FEW069 15/M00 A2973 RMK CU2 FU SLP082

CYXE;2007-06-07 20:00;CYXE 072000Z 32010G19KT 15SM FEW069 16/M00 A2972 RMK CU2 SLP078

CYXE;2007-06-07 21:00;CYXE 072100Z 32014G25KT 15SM FEW070 17/M01 A2970 RMK CU2 SLP071

CYXE;2007-06-07 22:00;CYXE 072200Z 32016G22KT 12SM FEW070 17/M02 A2970 RMK AC1 FU SLP072

CYXE;2007-06-07 23:00;CYXE 072300Z 34016G21KT 12SM FEW080 SCT300 17/M01 A2970 RMK AC1CI0 FU SLP071

CYXE;2007-06-08 00:00;CYXE 080000Z 32016KT 15SM FEW080 17/M00 A2969 RMK AC1 SLP067

CYXE;2007-06-08 01:00;CYXE 080100Z 31011G16KT 15SM FEW080 17/M01 A2969 RMK AC1 SLP067

CYXE;2007-06-08 02:00;CYXE 080200Z 33008KT 15SM FEW080 15/02 A2969 RMK AC1 SLP066

CYXE;2007-06-08 03:00;CYXE 080300Z 32002KT 12SM FEW300 13/02 A2968 RMK CI1 FU SLP060

CYXE;2007-06-08 04:00;CYXE 080400Z 22004KT 15SM SCT300 11/01 A2968 RMK CI1 SLP061

CYXE;2007-06-08 05:00;CYXE 080500Z 21007KT 15SM BKN300 09/02 A2968 RMK CI2 SLP060

CYXE;2007-06-08 06:00;CYXE 080600Z 23006KT 15SM SCT300 08/02 A2967 RMK CI1 SLP058

CYXE;2007-06-08 07:00;CYXE 080700Z 24007KT 15SM FEW300 08/03 A2966 RMK CI0 SLP056

CYXE;2007-06-08 08:00;CYXE 080800Z 25006KT 15SM FEW300 07/03 A2965 RMK CI0 SLP053

CYXE;2007-06-08 09:00;CYXE 080900Z 24008KT 15SM FEW300 06/03 A2965 RMK CI0 SLP053

CYXE;2007-06-08 10:00;CYXE 081000Z 24007KT 15SM FEW100 BKN300 06/03 A2965 RMK AC1CI1 SLP051

CYXE;2007-06-08 11:00;CYXE 081100Z 24008KT 15SM SCT093 BKN300 06/04 A2963 RMK AC3CI1 SLP046

CYXE;2007-06-08 12:00;CYXE 081200Z 25007KT 15SM BKN088 BKN300 09/05 A2963 RMK AC6CI0 SLP045

CYXE;2007-06-08 13:00;CYXE 081300Z 27007KT 15SM BKN085 11/06 A2964 RMK AC5 SLP047

CYXE;2007-06-08 14:00;CYXE 081400Z 29014G19KT 15SM BKN085 16/06 A2964 RMK AC5 SLP046

CYXE;2007-06-08 15:00;CYXE 081500Z 29011KT 15SM BKN085 16/07 A2964 RMK AC5 SLP045

CYXE;2007-06-08 16:00;CYXE 081600Z 31015KT 15SM SCT085 18/07 A2963 RMK AC3 SLP044

CYXE;2007-06-08 17:00;CYXE 081700Z 29016G21KT 15SM FEW048 FEW085 20/08 A2963 RMK CU1AC1 SLP044

CYXE;2007-06-08 18:00;CYXE 081800Z 28013G22KT 15SM SCT056 BKN082 21/07 A2962 RMK CU4AC1 TCU EMBD SLP039

CYXE;2007-06-08 19:00;CYXE 081900Z 30020G26KT 15SM BKN056TCU 22/07 A2962 RMK TCU6 CB EMBD SLP039

CYXE;2007-06-08 20:00;CYXE 082000Z 32018G24KT 15SM BKN055TCU 20/09 A2963 RMK TCU6 SH S SLP041

CYXE;2007-06-08 20:21;CYXE 082021Z 30019G25KT 15SM -SHRA BKN055TCU 19/ RMK TCU6

CYXE;2007-06-08 21:00;CYXE 082100Z 29012G17KT 15SM SCT055TCU 22/08 A2963 RMK TCU4 SLP041

CYXE;2007-06-08 22:00;CYXE 082200Z 32019G25KT 15SM FEW073 BKN094 21/06 A2963 RMK CU2AC3 TCU ASOCTD SLP044

CYXE;2007-06-08 23:00;CYXE 082300Z 30018G26KT 15SM FEW073 BKN082 21/06 A2964 RMK CU2AC3 TCU ASOCTD SLP045

CYXE;2007-06-09 00:00;CYXE 090000Z 31016G24KT 15SM FEW073 SCT096 21/04 A2963 RMK CU2AC2 SLP043

CYXE;2007-06-09 01:00;CYXE 090100Z 29017G24KT 15SM FEW096 21/04 A2964 RMK AC2 SLP045

CYXE;2007-06-09 02:00;CYXE 090200Z 01007KT 15SM FEW086 SCT099 18/08 A2966 RMK AC2AC2 SLP050

CYXE;2007-06-09 03:00;CYXE 090300Z 01004KT 15SM FEW088 FEW099 SCT250 15/09 A2967 RMK AC2AC1CI0 SLP054

CYXE;2007-06-09 04:00;CYXE 090400Z 35007KT 15SM FEW100 SCT250 11/08 A2970 RMK AC2CI0 SLP064

CYXE;2007-06-09 05:00;CYXE 090500Z 29005KT 15SM FEW100 SCT250 10/06 A2972 RMK AC2CI0 SLP069

CYXE;2007-06-09 06:00;CYXE 090600Z 32007KT 15SM FEW100 SCT300 09/07 A2972 RMK AC2CI0 SLP073

CYXE;2007-06-09 07:00;CYXE 090700Z 31006KT 15SM FEW100 08/06 A2973 RMK AC2 SLP074

CYXE;2007-06-09 08:00;CYXE 090800Z 28005KT 15SM FEW100 06/05 A2974 RMK AC2 SLP079

CYXE;2007-06-09 09:00;CYXE 090900Z 32004KT 15SM FEW100 06/05 A2975 RMK AC2 SLP085

CYXE;2007-06-09 10:00;CYXE 091000Z 35004KT 15SM SCT092 SCT300 07/06 A2976 RMK AC2CI0 SLP088

CYXE;2007-06-09 11:00;CYXE 091100Z 00000KT 15SM FEW092 SCT300 06/05 A2977 RMK AC2CI0 SLP092

CYXE;2007-06-09 12:00;CYXE 091200Z 20002KT 15SM SCT089 SCT300 07/07 A2979 RMK AC3CI1 SLP097

CYXE;2007-06-09 13:00;CYXE 091300Z 05007KT 15SM SCT085 SCT300 10/08 A2981 RMK AC3CI0 SLP102

CYXE;2007-06-09 14:00;CYXE 091400Z 07007KT 15SM SCT090 SCT300 12/09 A2981 RMK AC3CI0 SLP103

CYXE;2007-06-09 15:00;CYXE 091500Z 06004KT 15SM SCT085 SCT300 15/08 A2982 RMK AC3CI0 ACC ASOCTD SLP106

CYXE;2007-06-09 16:00;CYXE 091600Z 05005KT 15SM FEW082 SCT300 16/08 A2981 RMK AC2CI0 SLP105

CYXE;2007-06-09 17:00;CYXE 091700Z 01006KT 15SM SCT090 17/08 A2982 RMK AC2 SLP107

CYXE;2007-06-09 18:00;CYXE 091800Z 03002KT 15SM FEW044 FEW083 BKN300 18/07 A2983 RMK CU1AC2CI2 SLP110

CYXE;2007-06-09 19:00;CYXE 091900Z 36005KT 15SM FEW044 BKN090 BKN300 17/06 A2982 RMK CU1AC5CI1 SLP108

CYXE;2007-06-09 20:00;CYXE 092000Z 03007KT 15SM FEW041 BKN088 BKN300 18/07 A2982 RMK CU1AC6CI0 SLP107

CYXE;2007-06-09 21:00;CYXE 092100Z 03010KT 15SM FEW043 OVC082 18/07 A2982 RMK CU1AC8 SLP111

CYXE;2007-06-09 22:00;CYXE 092200Z 04008KT 15SM FEW045 OVC080 16/07 A2981 RMK CU2AC6 SLP108

CYXE;2007-06-09 23:00;CYXE 092300Z 07007KT 15SM BKN082 BKN250 19/07 A2980 RMK AC6CI0 SLP103

CYXE;2007-06-10 00:00;CYXE 100000Z 05009KT 15SM SCT080 BKN250 19/07 A2979 RMK AC4CI0 SLP097

CYXE;2007-06-10 01:00;CYXE 100100Z 04008KT 15SM BKN090 BKN250 17/07 A2978 RMK AC5CI0 SLP096

CYXE;2007-06-10 02:00;CYXE 100200Z 07009KT 15SM BKN100 BKN250 17/07 A2978 RMK AC5CI0 SLP096

CYXE;2007-06-10 03:00;CYXE 100300Z 08008KT 15SM SCT090 BKN150 16/06 A2977 RMK AC3AC3 SLP090

CYXE;2007-06-10 04:00;CYXE 100400Z 07007KT 15SM BKN080 BKN100 14/08 A2978 RMK AC5AC2 SLP093

CYXE;2007-06-10 04:24;CYXE 100424Z 07007KT 15SM -RA BKN075 BKN100 RMK AC6AC2

CYXE;2007-06-10 05:00;CYXE 100500Z 07007KT 15SM -RA OVC075 14/08 A2978 RMK AC8 SLP093

CYXE;2007-06-10 06:00;CYXE 100600Z 07007KT 15SM -RA OVC062 12/09 A2978 RMK SC8 SLP093

CYXE;2007-06-10 07:00;CYXE 100700Z 06007KT 15SM -RA OVC062 11/09 A2977 RMK SC8 SLP091

CYXE;2007-06-10 08:00;CYXE 100800Z 05008KT 15SM OVC062 11/08 A2976 RMK SC8 -RA INTMT SLP085

CYXE;2007-06-10 09:00;CYXE 100900Z 06007KT 15SM BKN064 OVC088 11/09 A2975 RMK SC7AC1 -RA INTMT SLP083

CYXE;2007-06-10 10:00;CYXE 101000Z 06009KT 15SM BKN077 OVC300 11/09 A2974 RMK AC6CI2 SLP079

CYXE;2007-06-10 11:00;CYXE 101100Z 05008KT 15SM SCT094 OVC300 09/08 A2974 RMK AC4CI2 SLP080

CYXE;2007-06-10 12:00;CYXE 101200Z 06009KT 15SM FEW094 OVC300 11/09 A2973 RMK AC2CS6 SLP076

CYXE;2007-06-10 13:00;CYXE 101300Z 07009KT 15SM SCT095 OVC300 12/09 A2973 RMK AC4CS3 SLP075

CYXE;2007-06-10 14:00;CYXE 101400Z 10011KT 15SM FEW059 SCT095 OVC250 14/10 A2973 RMK CF1AC4CI3 SLP076

CYXE;2007-06-10 15:00;CYXE 101500Z 10011KT 15SM BKN050 BKN090 OVC250 15/10 A2973 RMK SC6AC1CI1 SLP074

CYXE;2007-06-10 16:00;CYXE 101600Z 10010KT 15SM SCT060 OVC092 17/11 A2972 RMK SC4AC3 SLP070

CYXE;2007-06-10 17:00;CYXE 101700Z 12012KT 15SM FEW031 BKN090 18/12 A2971 RMK CU2AC4 SLP069

CYXE;2007-06-10 18:00;CYXE 101800Z 12011KT 15SM BKN029 BKN080 17/11 A2971 RMK SC5AC2 SLP069

CYXE;2007-06-10 19:00;CYXE 101900Z 13012KT 15SM VCSH FEW022 BKN064 OVC080 16/12 A2972 RMK CU1SC6AC1 SLP071

CYXE;2007-06-10 20:00;CYXE 102000Z 12010KT 15SM FEW020 OVC050 15/12 A2972 RMK CU1SC7 SLP072

CYXE;2007-06-10 21:00;CYXE 102100Z 10012KT 15SM FEW020 BKN044 17/13 A2972 RMK CU0SC6 SLP072

CYXE;2007-06-10 22:00;CYXE 102200Z 11012KT 15SM SCT020 OVC050 18/13 A2971 RMK CU4SC4 SLP071

CYXE;2007-06-10 23:00;CYXE 102300Z 09012KT 15SM SCT020 BKN050 OVC075 17/13 A2972 RMK CU3SC3AC2 SLP072

CYXE;2007-06-11 00:00;CYXE 110000Z 10014KT 15SM FEW020 BKN060 OVC080 17/13 A2971 RMK CU2SC5AC2 SLP071

CYXE;2007-06-11 01:00;CYXE 110100Z 09014KT 15SM BKN040 OVC080 17/12 A2971 RMK SC6AC2 SLP069

CYXE;2007-06-11 02:00;CYXE 110200Z 09011KT 15SM BKN045 OVC080 16/13 A2971 RMK SC6AC2 SLP071

CYXE;2007-06-11 03:00;CYXE 110300Z 09012KT 15SM BKN048 BKN080 16/13 A2972 RMK SC5AC2 SLP070

CYXE;2007-06-11 04:00;CYXE 110400Z 09012KT 15SM SCT050 BKN080 15/12 A2972 RMK SC3AC1 SLP072

CYXE;2007-06-11 05:00;CYXE 110500Z 10011KT 15SM FEW050 SCT080 15/12 A2972 RMK SC2AC1 SLP072

CYXE;2007-06-11 06:00;CYXE 110600Z 10009KT 15SM FEW050 SCT080 14/13 A2972 RMK SC2AC1 SLP070

CYXE;2007-06-11 07:00;CYXE 110700Z 10007KT 15SM FEW050 SCT080 13/12 A2972 RMK SC2AC0 SLP071

CYXE;2007-06-11 08:00;CYXE 110800Z 10006KT 15SM FEW010 SCT053 BKN100 13/12 A2972 RMK SF1SC2AC2 SLP071

CYXE;2007-06-11 08:45;CYXE 110845Z 10006KT 15SM SCT009 BKN049 13/12 RMK SF3SC1

CYXE;2007-06-11 09:00;CYXE 110900Z 10008KT 15SM FEW006 BKN049 13/12 A2971 RMK SF2SC2 LTGIC DIST NW SLP069

CYXE;2007-06-11 09:48;CYXE 110948Z 09007KT 15SM BKN007 BKN052 OVC300 12/ RMK SF5SC2CI0

CYXE;2007-06-11 10:00;CYXE 111000Z 09006KT 15SM BKN008 OVC052 13/12 A2970 RMK SF6SC2 SLP067

CYXE;2007-06-11 11:00;CYXE 111100Z 09007KT 10SM OVC007 13/12 A2972 RMK ST8 SLP071

CYXE;2007-06-11 12:00;CYXE 111200Z 10009KT 10SM OVC006 14/13 A2972 RMK ST8 BR SLP071

CYXE;2007-06-11 12:31;CYXE 111231Z 12010KT 8SM -SHRA OVC006 14/ RMK ST8 CVCTV CLD EMBD BR

CYXE;2007-06-11 13:00;CYXE 111300Z 11010KT 5SM -SHRA BR OVC005 14/14 A2972 RMK ST8 CVCTV CLD EMBD SLP073

CYXE;2007-06-11 14:00;CYXE 111400Z 11005KT 5SM -SHRA BR OVC005 15/14 A2972 RMK ST8 SLP072

CYXE;2007-06-11 14:51;CYXE 111451Z 14008KT 5SM BR OVC004 15/ RMK ST8

CYXE;2007-06-11 15:00;CYXE 111500Z 14007KT 5SM BR OVC004 15/15 A2973 RMK ST8 SLP075

CYXE;2007-06-11 16:00;CYXE 111600Z 16005KT 5SM -RA OVC004 16/15 A2972 RMK ST8 SLP073

CYXE;2007-06-11 16:41;CYXE 111641Z 13003KT 2 1/2SM -RA BKN005 OVC021 16/ RMK ST6SC2

CYXE;2007-06-11 17:00;CYXE 111700Z 12005KT 2 1/2SM -RA BKN005 OVC035 16/16 A2971 RMK ST6SC2 SLP068

CYXE;2007-06-11 17:27;CYXE 111727Z 10008KT 5SM -RA BKN005 BKN050 BKN130 17/ RMK ST5SC2AC1

CYXE;2007-06-11 17:48;CYXE 111748Z 10009KT 10SM BKN006 BKN050 BKN130 17/ RMK ST5SC2AC1

CYXE;2007-06-11 18:00;CYXE 111800Z 13006KT 10SM BKN006 BKN060 BKN130 18/17 A2969 RMK ST5SC2AC1 SLP060

CYXE;2007-06-11 19:00;CYXE 111900Z 18011KT 15SM FEW006 BKN020 BKN120 19/17 A2969 RMK ST1SC5AC1 SLP061

CYXE;2007-06-11 20:00;CYXE 112000Z 22015KT 15SM BKN020 BKN120 22/16 A2968 RMK CU5AC1 SLP059

CYXE;2007-06-11 21:00;CYXE 112100Z 23016G21KT 15SM FEW040 SCT120 23/13 A2969 RMK CU2AC1 SLP060

CYXE;2007-06-11 22:00;CYXE 112200Z 23015G27KT 15SM FEW047 BKN230 24/12 A2968 RMK CU2CI2 SLP057

CYXE;2007-06-11 23:00;CYXE 112300Z 21013G21KT 15SM SCT059 BKN230 25/10 A2968 RMK CU3CI2 TCU ASOCTD SLP056

CYXE;2007-06-12 00:00;CYXE 120000Z 21016KT 15SM FEW067 BKN230 25/11 A2968 RMK CU2CI2 TCU ASOCTD SLP054

CYXE;2007-06-12 01:00;CYXE 120100Z 23021KT 15SM FEW065TCU SCT230 24/09 A2968 RMK TCU2CI1 CB TOP DIST NW SLP055

CYXE;2007-06-12 02:00;CYXE 120200Z 32010G16KT 15SM FEW067TCU SCT230 19/13 A2971 RMK TCU2CI0 SLP062

CYXE;2007-06-12 03:00;CYXE 120300Z 31004KT 15SM FEW054TCU FEW230 16/12 A2974 RMK TCU2CI0 SLP079

CYXE;2007-06-12 04:00;CYXE 120400Z 00000KT 15SM FEW230 15/12 A2977 RMK CI0 SLP088

CYXE;2007-06-12 05:00;CYXE 120500Z 17004KT 15SM FEW230 14/12 A2977 RMK CI0 SLP090

CYXE;2007-06-12 06:00;CYXE 120600Z 17005KT 15SM FEW230 13/12 A2979 RMK CI0 SLP096

CYXE;2007-06-12 07:00;CYXE 120700Z 18005KT 15SM FEW230 12/11 A2981 RMK CI1 SLP101

CYXE;2007-06-12 08:00;CYXE 120800Z 24004KT 15SM FEW230 11/11 A2980 RMK CI2 SLP099

CYXE;2007-06-12 09:00;CYXE 120900Z 20004KT 15SM FEW230 11/11 A2981 RMK CI0 SLP102

CYXE;2007-06-12 10:00;CYXE 121000Z 00000KT 15SM R09/1600VP6000FT/U MIFG FEW230 08/08 A2981 RMK CI0 SLP102

CYXE;2007-06-12 11:00;CYXE 121100Z 16004KT 15SM SCT230 10/10 A2982 RMK CI2 SLP103

CYXE;2007-06-12 12:00;CYXE 121200Z 20007KT 15SM SCT230 11/10 A2983 RMK CI2 SLP108

CYXE;2007-06-12 13:00;CYXE 121300Z 22007KT 15SM BKN230 12/09 A2986 RMK CI2 SLP115

CYXE;2007-06-12 14:00;CYXE 121400Z 23010KT 15SM SCT230 17/09 A2986 RMK CI2 SLP118

CYXE;2007-06-12 15:00;CYXE 121500Z 20010KT 15SM FEW160 SCT230 17/07 A2987 RMK AC2CI0 SLP121

CYXE;2007-06-12 16:00;CYXE 121600Z 23013G18KT 15SM FEW160 FEW230 21/06 A2986 RMK AC1CI0 SLP119

CYXE;2007-06-12 17:00;CYXE 121700Z 24018KT 15SM SCT160 BKN230 20/05 A2986 RMK AS4CI0 SLP119

CYXE;2007-06-12 18:00;CYXE 121800Z 23015KT 15SM FEW160 FEW230 22/06 A2985 RMK AC1CI0 SLP112

CYXE;2007-06-12 19:00;CYXE 121900Z 23017G24KT 15SM FEW160 FEW230 24/06 A2985 RMK AC1CI1 SLP113

CYXE;2007-06-12 20:00;CYXE 122000Z 23023KT 15SM FEW160 SCT230 24/04 A2984 RMK AC1CI0 SLP110

CYXE;2007-06-12 21:00;CYXE 122100Z 23020G28KT 15SM FEW060 SCT160 BKN230 23/03 A2985 RMK SC2AC2CI0 SLP113

CYXE;2007-06-12 22:00;CYXE 122200Z 23022G30KT 15SM SCT080 BKN160 BKN230 22/03 A2985 RMK CU4AC2CI1 SLP114

CYXE;2007-06-12 23:00;CYXE 122300Z 27018KT 15SM FEW080 20/07 A2987 RMK CU2 SLP121

CYXE;2007-06-13 00:00;CYXE 130000Z 26024G29KT 15SM FEW080 FEW300 19/07 A2988 RMK CU1CI0 SLP127

CYXE;2007-06-13 01:00;CYXE 130100Z 26017KT 15SM FEW052 FEW300 18/08 A2989 RMK CU1CI0 SLP130

CYXE;2007-06-13 02:00;CYXE 130200Z 28023KT 15SM FEW052 FEW300 17/06 A2990 RMK CU1CI0 CB TOP W SLP135

CYXE;2007-06-13 03:00;CYXE 130300Z 28009KT 15SM FEW075 FEW300 14/06 A2990 RMK AC2CI0 SLP131

CYXE;2007-06-13 04:00;CYXE 130400Z 23008KT 15SM FEW075 12/07 A2992 RMK AC1 SLP138

CYXE;2007-06-13 05:00;CYXE 130500Z 23007KT 15SM FEW075 SCT300 10/07 A2993 RMK AC1CI1 SLP141

CYXE;2007-06-13 06:00;CYXE 130600Z 22009KT 15SM FEW075 FEW300 09/07 A2992 RMK AC1CI1 SLP140

CYXE;2007-06-13 07:00;CYXE 130700Z 24013KT 15SM FEW075 SCT300 11/08 A2991 RMK AC1CI1 SLP137

CYXE;2007-06-13 08:00;CYXE 130800Z 23010KT 15SM FEW075 FEW300 10/07 A2992 RMK AC1CI1 SLP141

CYXE;2007-06-13 09:00;CYXE 130900Z 24014KT 15SM FEW075 SCT300 10/06 A2993 RMK AC2CI1 SLP142

CYXE;2007-06-13 10:00;CYXE 131000Z 24013KT 15SM SCT075 SCT300 10/06 A2993 RMK AC2CI0 SLP142

CYXE;2007-06-13 11:00;CYXE 131100Z 24013KT 15SM SCT054 SCT075 10/07 A2994 RMK SC2AC1 SLP145

CYXE;2007-06-13 12:00;CYXE 131200Z 24012KT 15SM FEW049 FEW250 10/07 A2995 RMK SC1CI0 SLP153

CYXE;2007-06-13 13:00;CYXE 131300Z 25013G18KT 15SM FEW300 12/07 A2996 RMK CI0 SLP155

CYXE;2007-06-13 14:00;CYXE 131400Z 26016KT 15SM FEW300 14/08 A2996 RMK CI1 SLP154

CYXE;2007-06-13 15:00;CYXE 131500Z 27015KT 15SM FEW300 16/08 A2996 RMK CI1 SLP155

CYXE;2007-06-13 16:00;CYXE 131600Z 26013G21KT 15SM FEW060 17/08 A2996 RMK CU1 SLP155

CYXE;2007-06-13 17:00;CYXE 131700Z 27015KT 15SM FEW050 18/07 A2996 RMK CU1 SLP154

CYXE;2007-06-13 18:00;CYXE 131800Z 26017G22KT 15SM FEW050 FEW250 19/08 A2995 RMK CU1CI0 SLP153

CYXE;2007-06-13 19:00;CYXE 131900Z 24021KT 15SM SCT050 BKN250 21/07 A2994 RMK CU4CI0 SLP149

CYXE;2007-06-13 20:00;CYXE 132000Z 28016G25KT 15SM BKN060 21/07 A2994 RMK CU6 SLP148

CYXE;2007-06-13 21:00;CYXE 132100Z 26013G24KT 15SM BKN065 22/06 A2992 RMK CU6 SLP140

CYXE;2007-06-13 22:00;CYXE 132200Z 27016G22KT 15SM SCT076 BKN250 22/05 A2992 RMK CU3CI1 SLP139

CYXE;2007-06-13 23:00;CYXE 132300Z 27012G20KT 15SM FEW078 BKN250 22/06 A2991 RMK CU2CI2 SLP136

CYXE;2007-06-14 00:00;CYXE 140000Z 27013G19KT 15SM FEW083 BKN250 22/05 A2991 RMK CU2CI2 SLP135

CYXE;2007-06-14 01:00;CYXE 140100Z 25012KT 15SM FEW085 BKN250 22/04 A2991 RMK CU2CI2 TCU ASOCTD SLP135

CYXE;2007-06-14 02:00;CYXE 140200Z 27008KT 15SM FEW087 FEW110 BKN250 20/04 A2990 RMK CU2AC1CI1 SLP133

CYXE;2007-06-14 03:00;CYXE 140300Z 31006KT 15SM FEW085 FEW120 BKN250 16/07 A2990 RMK AC1AC1CI1 SLP133

CYXE;2007-06-14 04:00;CYXE 140400Z 32003KT 15SM FEW085 FEW120 SCT250 16/06 A2990 RMK AC1AC2CI0 SLP134

CYXE;2007-06-14 05:00;CYXE 140500Z 04009KT 15SM FEW110 FEW250 10/07 A2991 RMK AC1CI0 SLP136

CYXE;2007-06-14 06:00;CYXE 140600Z 08007KT 15SM FEW110 FEW250 11/08 A2992 RMK AC1CI0 SLP140

CYXE;2007-06-14 07:00;CYXE 140700Z 07005KT 15SM FEW110 11/09 A2991 RMK AC1 SLP138

CYXE;2007-06-14 08:00;CYXE 140800Z 07003KT 15SM FEW160 10/08 A2991 RMK AC1 SLP137

CYXE;2007-06-14 09:00;CYXE 140900Z 04002KT 15SM BKN120 10/09 A2991 RMK AS6 SLP137

CYXE;2007-06-14 10:00;CYXE 141000Z 01005KT 15SM BKN070 10/09 A2990 RMK AC6 SLP133

CYXE;2007-06-14 11:00;CYXE 141100Z 34006KT 15SM SCT070 BKN250 09/09 A2990 RMK AC3CI1 SLP132

CYXE;2007-06-14 12:00;CYXE 141200Z 02009KT 15SM FEW100 SCT250 12/09 A2990 RMK AC2CI1 SLP130

CYXE;2007-06-14 13:00;CYXE 141300Z 02011KT 15SM BKN095 BKN250 12/10 A2991 RMK AC5CI1 SLP135

CYXE;2007-06-14 14:00;CYXE 141400Z 04013KT 15SM BKN095 13/09 A2991 RMK ACC6 SLP136

CYXE;2007-06-14 15:00;CYXE 141500Z 03011KT 15SM FEW095 SCT300 15/10 A2991 RMK ACC2CI1 SLP138

CYXE;2007-06-14 16:00;CYXE 141600Z 02013KT 15SM FEW095 SCT300 17/09 A2991 RMK ACC2CI2 SLP137

CYXE;2007-06-14 17:00;CYXE 141700Z 03010KT 15SM FEW095 SCT300 19/10 A2991 RMK AC1CI2 SLP136

CYXE;2007-06-14 18:00;CYXE 141800Z 03010G15KT 15SM FEW095 BKN300 20/09 A2990 RMK ACC1CI1 SLP133

CYXE;2007-06-14 19:00;CYXE 141900Z 04012KT 15SM FEW100 FEW300 21/09 A2989 RMK AC1CI1 SLP129

CYXE;2007-06-14 20:00;CYXE 142000Z 04008G15KT 15SM FEW060 FEW300 22/09 A2987 RMK CU2CI0 SLP123

CYXE;2007-06-14 21:00;CYXE 142100Z 03009KT 15SM SCT060 22/08 A2985 RMK CU3 SLP116

CYXE;2007-06-14 22:00;CYXE 142200Z 35010G16KT 15SM SCT064 SCT076 BKN300 22/09 A2985 RMK CU3AC1CI0 SLP114

CYXE;2007-06-14 23:00;CYXE 142300Z 01012KT 15SM SCT066 BKN300 22/08 A2985 RMK CU3CI1 TCU ASOCTD SLP114

CYXE;2007-06-15 00:00;CYXE 150000Z 36010G15KT 15SM SCT066TCU BKN280 22/09 A2985 RMK TCU3CI2 SLP115

CYXE;2007-06-15 01:00;CYXE 150100Z 36011KT 15SM FEW068TCU FEW075CB BKN091 OVC230 19/08 A2986 RMK TCU2CB1AC2CI1 CB E SLP117

CYXE;2007-06-15 02:00;CYXE 150200Z 36012KT 15SM FEW068TCU SCT096 OVC230 18/08 A2986 RMK TCU1AC2CI2 CB TOP DIST E SLP118

CYXE;2007-06-15 03:00;CYXE 150300Z 36009KT 15SM FEW068TCU SCT090 BKN230 15/08 A2987 RMK TCU2AC2CI1 SLP123

CYXE;2007-06-15 04:00;CYXE 150400Z 36008KT 15SM FEW068TCU SCT090 BKN230 13/07 A2988 RMK TCU1AC2CI1 SLP126

CYXE;2007-06-15 05:00;CYXE 150500Z 35009KT 15SM FEW080 SCT230 11/07 A2988 RMK AC1CI1 SLP126

CYXE;2007-06-15 06:00;CYXE 150600Z 36008KT 15SM FEW061 SCT230 11/07 A2989 RMK SC1CI1 SLP128

CYXE;2007-06-15 07:00;CYXE 150700Z 36009KT 15SM FEW060 SCT250 11/07 A2989 RMK SC2CI1 SLP129

CYXE;2007-06-15 08:00;CYXE 150800Z 35008KT 15SM FEW063 FEW250 09/07 A2990 RMK SC1CI1 SLP132

CYXE;2007-06-15 09:00;CYXE 150900Z 36006KT 15SM FEW075 FEW250 08/07 A2990 RMK AC1CI1 SLP136

CYXE;2007-06-15 10:00;CYXE 151000Z 32009KT 15SM FEW220 07/06 A2991 RMK CI1 SLP139

CYXE;2007-06-15 11:00;CYXE 151100Z 36006KT 15SM FEW220 05/05 A2992 RMK CI1 SLP142

CYXE;2007-06-15 12:00;CYXE 151200Z 33005KT 15SM FEW110 FEW220 08/08 A2994 RMK AC1CI0 SLP148

CYXE;2007-06-15 13:00;CYXE 151300Z 35005KT 15SM FEW100 FEW220 11/09 A2995 RMK AC1CI0 SLP151

CYXE;2007-06-15 14:00;CYXE 151400Z 36004KT 15SM FEW100 13/10 A2996 RMK ACC1 SLP155

CYXE;2007-06-15 15:00;CYXE 151500Z 33003KT 15SM FEW100 15/10 A2997 RMK ACC1 SLP156

CYXE;2007-06-15 16:00;CYXE 151600Z 31007KT 15SM FEW030 FEW100 17/11 A2997 RMK CU1AC1 SLP158

CYXE;2007-06-15 17:00;CYXE 151700Z 30008KT 15SM BKN035 19/10 A2997 RMK CU5 FEW TCU SLP156

CYXE;2007-06-15 18:00;CYXE 151800Z 33008KT 15SM BKN045 19/09 A2997 RMK CU6 FEW TCU SLP156

CYXE;2007-06-15 19:00;CYXE 151900Z 32009KT 15SM BKN050 19/09 A2997 RMK CU6 FEW TCU SLP156

CYXE;2007-06-15 20:00;CYXE 152000Z 03014KT 15SM BKN050 18/10 A2997 RMK CU6 FEW TCU SLP158

CYXE;2007-06-15 21:00;CYXE 152100Z 05010G16KT 15SM BKN050 18/10 A2998 RMK CU6 SLP162

CYXE;2007-06-15 22:00;CYXE 152200Z 36009G18KT 15SM BKN035 BKN100 18/10 A2999 RMK CU5AC1 SLP165

CYXE;2007-06-15 23:00;CYXE 152300Z 34011KT 15SM SCT040 SCT100 19/09 A2999 RMK CU4AC1 SLP165

CYXE;2007-06-16 00:00;CYXE 160000Z 35011KT 15SM SCT040 SCT100 18/08 A2999 RMK CU4AC1 SLP167

CYXE;2007-06-16 01:00;CYXE 160100Z 34011KT 15SM SCT035 SCT290 16/07 A2999 RMK CU3CI0 SLP169

CYXE;2007-06-16 02:00;CYXE 160200Z 01009KT 15SM FEW035 FEW290 15/07 A3000 RMK CU1CI1 SLP171

CYXE;2007-06-16 03:00;CYXE 160300Z 03006KT 15SM FEW035 FEW100 SCT290 12/08 A3000 RMK SC1AC1CI1 SLP171

CYXE;2007-06-16 04:00;CYXE 160400Z 01003KT 10SM FEW025 FEW100 BKN290 10/08 A3003 RMK SC1AC2CI0 BR SLP178

CYXE;2007-06-16 05:00;CYXE 160500Z 02007KT 15SM FEW100 SCT290 07/06 A3003 RMK AC1CI0 SLP179

CYXE;2007-06-16 06:00;CYXE 160600Z 05003KT 15SM FEW100 FEW290 09/06 A3003 RMK AC1CI0 SLP181

CYXE;2007-06-16 07:00;CYXE 160700Z 35003KT 15SM FEW290 08/07 A3004 RMK CI0 SLP182

CYXE;2007-06-16 08:00;CYXE 160800Z 00000KT 15SM FEW290 07/07 A3004 RMK CI0 SLP183

CYXE;2007-06-16 09:00;CYXE 160900Z 33004KT 15SM FEW250 07/06 A3004 RMK CI0 SLP186

CYXE;2007-06-16 10:00;CYXE 161000Z 33005KT 15SM FEW250 06/05 A3004 RMK CI0 SLP186

CYXE;2007-06-16 11:00;CYXE 161100Z 30002KT 15SM FEW060 FEW250 06/06 A3005 RMK CU1CI0 SLP188

CYXE;2007-06-16 12:00;CYXE 161200Z 03004KT 15SM FEW250 07/06 A3005 RMK CI0 SLP188

CYXE;2007-06-16 13:00;CYXE 161300Z 06003KT 15SM FEW250 12/09 A3006 RMK CI1 SLP191

CYXE;2007-06-16 14:00;CYXE 161400Z 07002KT 15SM SKC 16/11 A3007 RMK SLP193

CYXE;2007-06-16 15:00;CYXE 161500Z 11002KT 15SM SCT300 18/08 A3006 RMK CI1 SLP189

CYXE;2007-06-16 16:00;CYXE 161600Z 22003KT 15SM BKN300 19/08 A3006 RMK CI1 SLP189

CYXE;2007-06-16 17:00;CYXE 161700Z 16004KT 15SM FEW050 FEW300 20/08 A3005 RMK CU1CI1 SLP184

CYXE;2007-06-16 18:00;CYXE 161800Z 11007KT 15SM FEW050 BKN300 21/08 A3003 RMK CU2CI1 SLP180

CYXE;2007-06-16 19:00;CYXE 161900Z 13006KT 15SM SCT060 BKN300 22/08 A3003 RMK CU3CI0 SLP177

CYXE;2007-06-16 20:00;CYXE 162000Z 07006KT 15SM SCT065 BKN300 21/07 A3000 RMK CU3CI0 SLP169

CYXE;2007-06-16 21:00;CYXE 162100Z 11006KT 15SM FEW065 BKN300 22/08 A2998 RMK CU2CI4 SLP162

CYXE;2007-06-16 22:00;CYXE 162200Z CCA 13005KT 15SM SCT065 OVC300 22/08 A2997 RMK CU4CI3 TCU EMBD SLP158

CYXE;2007-06-16 23:00;CYXE 162300Z 13008KT 15SM FEW056TCU OVC090 22/07 A2995 RMK TCU1AS6 SLP153

CYXE;2007-06-17 00:00;CYXE 170000Z 14007KT 15SM FEW049 OVC077 21/08 A2994 RMK CU2AC6 SLP147

CYXE;2007-06-17 01:00;CYXE 170100Z 13005KT 15SM FEW044 BKN070 OVC300 20/08 A2993 RMK CU1AC6CI2 SLP144

CYXE;2007-06-17 02:00;CYXE 170200Z 13006KT 15SM BKN086 OVC300 20/07 A2991 RMK AC6CI2 SLP139

CYXE;2007-06-17 03:00;CYXE 170300Z 10006KT 15SM FEW086 BKN300 17/08 A2990 RMK AC1CI5 SLP132

CYXE;2007-06-17 04:00;CYXE 170400Z 08007KT 15SM FEW086 BKN300 15/09 A2990 RMK AC1CI5 SLP132

CYXE;2007-06-17 05:00;CYXE 170500Z 09006KT 15SM FEW086 BKN300 12/08 A2990 RMK AC1CI5 SLP130

CYXE;2007-06-17 06:00;CYXE 170600Z 07007KT 15SM FEW075 OVC300 11/09 A2989 RMK AC2CI4 SLP128

CYXE;2007-06-17 07:00;CYXE 170700Z 07010KT 15SM SCT075 OVC300 13/09 A2986 RMK AC3CI2 SLP118

CYXE;2007-06-17 08:00;CYXE 170800Z 10008KT 15SM BKN070 OVC300 13/10 A2984 RMK AC5CI2 SLP111

CYXE;2007-06-17 08:28;CYXE 170828Z 09009KT 12SM -SHRA OVC070 15/ RMK ACC8 CB + LTNG SW

CYXE;2007-06-17 08:43;CYXE 170843Z 11009KT 12SM -TSRA OVC050CB 15/ RMK CB8 LTGICCG

CYXE;2007-06-17 09:00;CYXE 170900Z 01006KT 10SM -TSRA BKN050CB OVC300 14/12 A2983 RMK CB7CI1 LTGIC SLP105

CYXE;2007-06-17 09:34;CYXE 170934Z 07010KT 15SM VCSH BKN050CB OVC300 14/ RETS RMK CB6CI2 LTGICCG W-N

CYXE;2007-06-17 10:00;CYXE 171000Z 05011KT 15SM VCSH BKN060CB BKN100 OVC300 14/12 A2979 RETS RMK CB5AC2CI2 LTNG NW SLP094

CYXE;2007-06-17 11:00;CYXE 171100Z 07011KT 15SM SCT060CB SCT100 OVC300 13/12 A2977 RMK CB3AC1CS4 SLP087

CYXE;2007-06-17 12:00;CYXE 171200Z 07014KT 15SM FEW070 BKN110 OVC300 14/12 A2974 RMK AC2ACC5CS2 SLP077

CYXE;2007-06-17 13:00;CYXE 171300Z 07010KT 15SM BKN074 OVC110 14/12 A2974 RMK ACC6AC2 SLP076

CYXE;2007-06-17 13:13;CYXE 171313Z 07011KT 15SM -RA OVC075 14/ RMK AC8 ACC EMBD

CYXE;2007-06-17 13:47;CYXE 171347Z 08011KT 15SM OVC065 14/ RMK SC8 ACC EMBD

CYXE;2007-06-17 14:00;CYXE 171400Z 08010KT 15SM OVC065 14/13 A2971 RMK SC8 SLP067

CYXE;2007-06-17 14:35;CYXE 171435Z 07006KT 15SM -RA OVC063 14/ RMK SC8

CYXE;2007-06-17 15:00;CYXE 171500Z 07007KT 15SM -RA OVC050 15/13 A2969 RMK SC8 SLP060

CYXE;2007-06-17 16:00;CYXE 171600Z 06007KT 15SM -RA SCT020 BKN050 OVC090 15/13 A2967 RMK SC3SC3AC2 SLP054

CYXE;2007-06-17 16:40;CYXE 171640Z 07009KT 2 1/2SM -RA BR BKN024 OVC050 15/ RMK SC6SC2

CYXE;2007-06-17 17:00;CYXE 171700Z 09007KT 2SM SHRA BR BKN016 OVC050 14/14 A2966 RMK SC6SC2 CVCTV CLD EMBDD SLP051

CYXE;2007-06-17 17:06;CYXE 171706Z 09005KT 1 1/2SM SHRA BR FEW010 OVC014 14/ RMK SF2SC6 CVCTV CLD EMBD

CYXE;2007-06-17 17:45;CYXE 171745Z 04011KT 1 1/2SM SHRA BR FEW007 OVC012 14/ RMK SF2SC6 CVCTV CLD EMBD

CYXE;2007-06-17 18:00;CYXE 171800Z 05015KT 1 1/2SM TSRA BR FEW007 OVC012 14/13 A2963 RMK SF2SC6 CB EMBD /R10/ SLP043

CYXE;2007-06-17 18:07;CYXE 171807Z 04010G17KT 1 1/4SM TSRA BR SCT004 BKN007 OVC012 13/ RMK SF3SF2SC2 CB EMBD

CYXE;2007-06-17 18:48;CYXE 171848Z 05017KT 2 1/2SM SHRA BR SCT007 BKN015 OVC055 13/ RMK SF4SC2SC2 RETS RERA CB EMBD

CYXE;2007-06-17 19:00;CYXE 171900Z 05014KT 1 1/2SM SHRA BR BKN009 OVC015 14/14 A2960 RMK SF6SC2 RETS RERA CVCTV CLD EMBD /R10/ SLP036

CYXE;2007-06-17 19:44;CYXE 171944Z 04009G16KT 1 1/2SM R09/3000VP6000FT/D +SHRA BR BKN005 OVC012 14/ RMK SF6SC2 CVCTV CLD EMBDD

CYXE;2007-06-17 20:00;CYXE 172000Z 13008KT 4SM SHRA BR BKN003 OVC020 14/14 A2958 RMK SF6SC2 RERA CVCTV CLD EMBD /R21/ SLP027

CYXE;2007-06-17 20:34;CYXE 172034Z 09014KT 4SM SHRA BR BKN004 BKN020 OVC090 15/ RMK SF6SC2AC1 CVCTV CLD EMBDD

CYXE;2007-06-17 20:45;CYXE 172045Z 09015KT 4SM SHRA BR SCT004 BKN008 OVC020 15/ RMK SF4SF2SC2 CVCTV CLD EMBD

CYXE;2007-06-17 21:00;CYXE 172100Z CCA 08008G17KT 2 1/2SM SHRA BR FEW004 BKN008 OVC020 15/15 A2955 RMK SF2SF4SC2 CVCTV CLD EMBD SLP016

CYXE;2007-06-17 21:12;CYXE 172112Z 09009KT 1 1/2SM SHRA BR BKN005 BKN008 OVC020 14/ RMK SF6SF1SC1 CVCTV CLD EMBD

CYXE;2007-06-17 21:30;CYXE 172130Z 08012KT 3/4SM R09/4500VP6000FT/N +SHRA BR BKN005 BKN008 OVC020 14/ RMK SF6SF2SC1 CVCTV CLD EMBD

CYXE;2007-06-17 21:44;CYXE 172144Z 04009KT 1 1/4SM +SHRA BR BKN004 BKN008 OVC020 14/ RMK SF6SF2SC1

CYXE;2007-06-17 22:00;CYXE 172200Z 06013KT 6SM -SHRA BR BKN004 OVC020 15/15 A2951 RMK SF6SC2 CVCTV CLD EMBD SLP002

CYXE;2007-06-17 22:27;CYXE 172227Z 07008KT 10SM BKN004 OVC020 15/ RERA RMK SF7SC1

CYXE;2007-06-17 23:00;CYXE 172300Z 08015KT 10SM BKN008 OVC020 15/15 A2950 RMK SF6SC2 SLP999

CYXE;2007-06-17 23:49;CYXE 172349Z 07012G19KT 15SM BKN013 OVC095 15/ RMK SF7AC1

CYXE;2007-06-18 00:00;CYXE 180000Z CCA 08014KT 15SM OVC010 15/14 A2948 RMK SF8 CVCTV CLD EMBD SLP990

CYXE;2007-06-18 00:25;CYXE 180025Z 08013G21KT 8SM -DZ OVC010 14/ RMK SF8 BR

CYXE;2007-06-18 01:00;CYXE 180100Z 06010G19KT 8SM -DZ OVC004 13/13 A2946 RMK SF8 VIS LWR N BR SLP983

CYXE;2007-06-18 01:21;CYXE 180121Z 05014G22KT 2SM -SHRA BR OVC004 13/ RMK SF8

CYXE;2007-06-18 01:51;CYXE 180151Z 05021G26KT 8SM -TSRA OVC004 13/ RMK SF8 CB EMBD BR

CYXE;2007-06-18 02:00;CYXE 180200Z 05022G28KT 8SM -TSRA OVC006 13/13 A2944 RMK SF8 CB EMBD LTGICCG BR SLP978

CYXE;2007-06-18 02:11;CYXE 180211Z 04022G28KT 3SM TSRA OVC005 12/ RMK SF8 CB EMBD BR

CYXE;2007-06-18 02:19;CYXE 180219Z 04023G29KT 3/4SM R09/5500FT/D +TSRA BR OVC005 12/ RMK SF8 CB EMBD

CYXE;2007-06-18 02:45;CYXE 180245Z 05025G30KT 1 1/2SM +SHRA BR OVC006 12/ RMK SF8 CB EMBD

CYXE;2007-06-18 03:00;CYXE 180300Z 05018G28KT 1SM R09/P6000FT/D +SHRA BR OVC005 12/12 A2943 RMK SF8 CB EMBD RETS /R26/ SLP974

CYXE;2007-06-18 03:48;CYXE 180348Z 05021KT 2SM R09/4500VP6000FT/D +SHRA BR OVC004 12/ RMK SF8 CB EMBD

CYXE;2007-06-18 04:00;CYXE 180400Z 05018G24KT 2SM R09/4000VP6000FT/U +SHRA BR OVC004 12/12 A2941 RMK SF8 CVCTV CLD EMBD SLP969

CYXE;2007-06-18 04:22;CYXE 180422Z 06025KT 4SM SHRA BR OVC008 12/ RMK SF8 CVCTV CLD EMBD

CYXE;2007-06-18 05:00;CYXE 180500Z 05022G27KT 4SM SHRA BR BKN007 OVC035 12/12 A2942 RMK SF6SC2 CVCTV CLD EMBD SLP970

CYXE;2007-06-18 06:00;CYXE 180600Z 03022G27KT 6SM -SHRA BKN009 OVC035 11/11 A2942 RERA RMK ST7SC1 SLP971

CYXE;2007-06-18 06:32;CYXE 180632Z 02024G31KT 6SM -SHRA BKN010 OVC038 11/ RERA RMK ST6SC2

CYXE;2007-06-18 07:00;CYXE 180700Z 01029G34KT 6SM RA BKN012 OVC035 10/10 A2940 RMK ST6SC2 SLP965

CYXE;2007-06-18 07:27;CYXE 180727Z 02028G40KT 6SM RA OVC016 10/ RMK SC8

CYXE;2007-06-18 08:00;CYXE 180800Z 02031G38KT 5SM RA BKN018 OVC040 10/10 A2939 RMK SC6SC2 /R10/ SLP961

CYXE;2007-06-18 09:00;CYXE 180900Z 02033G41KT 15SM -RA SCT015 OVC024 10/09 A2941 RERA RMK SC3SC5 SLP967

CYXE;2007-06-18 10:00;CYXE 181000Z 02029G40KT 6SM -RA SCT013 OVC035 10/09 A2946 RMK SC3SC5 SLP984

CYXE;2007-06-18 10:22;CYXE 181022Z 01029G34KT 4SM RA BR BKN012 OVC035 10/ RMK SC6SC2

CYXE;2007-06-18 11:00;CYXE 181100Z 01031G37KT 5SM RA BR SCT012 OVC030 09/09 A2950 RMK SC4SC4 SLP996

CYXE;2007-06-18 12:00;CYXE 181200Z 01020G30KT 6SM -RA BR FEW012 OVC033 09/08 A2954 RERA RMK SC2SC6 SLP015

CYXE;2007-06-18 13:00;CYXE 181300Z 36014KT 10SM -RA FEW015 OVC030 09/09 A2958 RMK SC2SC6 SLP026

CYXE;2007-06-18 14:00;CYXE 181400Z 34014KT 10SM -RA BKN018 OVC045 10/10 A2960 RMK SC6SC2 SLP034

CYXE;2007-06-18 15:00;CYXE 181500Z 34012G18KT 10SM -RA SCT015 OVC040 10/10 A2961 RMK SC3SC5 SLP040

CYXE;2007-06-18 15:45;CYXE 181545Z 33010KT 12SM FEW014 BKN018 OVC040 10/ RMK SC2SC3SC3

CYXE;2007-06-18 16:00;CYXE 181600Z 32012KT 15SM FEW014 SCT018 BKN040 OVC090 11/10 A2962 RMK SF2SC2SC2AC2 SLP043

CYXE;2007-06-18 17:00;CYXE 181700Z 31011KT 15SM SCT018 BKN035 BKN090 12/10 A2963 RMK SC3SC2AC2 SLP047

CYXE;2007-06-18 18:00;CYXE 181800Z 32011KT 15SM FEW020 BKN080 BKN120 14/11 A2964 RMK SC2AC4AC2 SLP048

CYXE;2007-06-18 19:00;CYXE 181900Z 34012KT 15SM FEW020 SCT085 OVC270 16/10 A2965 RMK SC1AS3CS4 SLP052

CYXE;2007-06-18 20:00;CYXE 182000Z 34015KT 15SM FEW035 FEW080 BKN270 18/08 A2967 RMK CU1AC2CS2 SLP057

CYXE;2007-06-18 21:00;CYXE 182100Z 32013KT 15SM FEW035 SCT090 BKN270 18/09 A2968 RMK CU1AC3CS1 SLP058

CYXE;2007-06-18 22:00;CYXE 182200Z 32014G21KT 15SM FEW035 SCT080 BKN300 19/08 A2968 RMK CU1AC4CI1 ACC EMBD SLP061

CYXE;2007-06-18 23:00;CYXE 182300Z 34009KT 15SM SCT060 BKN300 18/10 A2969 RMK CU2CI2 TCU ASOCTD SLP063

CYXE;2007-06-19 00:00;CYXE 190000Z 33014KT 15SM FEW040TCU SCT300 18/09 A2970 RMK TCU1CI2 CB ASOCTD SLP068

CYXE;2007-06-19 01:00;CYXE 190100Z 34011KT 15SM FEW036 FEW300 17/09 A2971 RMK CU1CI1 CB OBSD SSE SLP071

CYXE;2007-06-19 02:00;CYXE 190200Z 32005KT 15SM FEW020 FEW250 16/11 A2973 RMK CU1CI1 SLP076

CYXE;2007-06-19 03:00;CYXE 190300Z 30004KT 15SM FEW080 FEW250 14/11 A2974 RMK AC1CI0 SLP082

CYXE;2007-06-19 04:00;CYXE 190400Z 27006KT 15SM FEW090 FEW250 12/10 A2976 RMK AC1CI0 SLP088

CYXE;2007-06-19 05:00;CYXE 190500Z 28006KT 15SM FEW084 FEW250 11/10 A2977 RMK AC1CI1 SLP092

CYXE;2007-06-19 06:00;CYXE 190600Z 27006KT 15SM FEW250 10/09 A2978 RMK CI1 SLP096

CYXE;2007-06-19 07:00;CYXE 190700Z 24005KT 15SM FEW250 10/09 A2980 RMK CI1 SLP101

CYXE;2007-06-19 08:00;CYXE 190800Z 22004KT 15SM FEW250 09/08 A2980 RMK CI1 SLP103

CYXE;2007-06-19 09:00;CYXE 190900Z 21005KT 15SM FEW250 08/08 A2981 RMK CI1 SLP104

CYXE;2007-06-19 10:00;CYXE 191000Z 22007KT 15SM SCT250 08/08 A2981 RMK CI1 SLP106

CYXE;2007-06-19 11:00;CYXE 191100Z 21004KT 15SM FEW090 SCT250 08/08 A2982 RMK ACC1CI0 SLP108

CYXE;2007-06-19 12:00;CYXE 191200Z 19005KT 15SM FEW100 BKN250 09/08 A2982 RMK ACC1CI0 SLP109

CYXE;2007-06-19 13:00;CYXE 191300Z 20005KT 15SM BKN250 11/09 A2981 RMK CI1 SLP105

CYXE;2007-06-19 14:00;CYXE 191400Z 22011KT 15SM FEW080 SCT270 13/10 A2980 RMK ACC2CI0 SLP102

CYXE;2007-06-19 15:00;CYXE 191500Z CCA 25012KT 15SM SCT080 BKN110 BKN270 15/12 A2982 RMK ACC3AC2CI0 SH W-N CB N MOVG E SLP106

CYXE;2007-06-19 16:00;CYXE 191600Z CCA 26008KT 15SM FEW015 BKN075 BKN270 15/12 A2981 RMK CF1ACC6CI0 SH DIST N SLP105

CYXE;2007-06-19 17:00;CYXE 191700Z 29010KT 15SM FEW020 BKN070 16/11 A2981 RMK CU1ACC7 VIRGA N SLP105

CYXE;2007-06-19 18:00;CYXE 191800Z 30014KT 15SM VCSH FEW030 BKN060 BKN270 17/09 A2982 RMK CU1SC6CI0 ACC ASOCTD VIRGA SLP108

CYXE;2007-06-19 19:00;CYXE 191900Z 31014G19KT 15SM FEW044 SCT060 BKN080 BKN270 18/08 A2983 RMK CU1SC2AC2CI1 ACC ASOCTD SLP111

CYXE;2007-06-19 20:00;CYXE 192000Z 30020G27KT 15SM FEW048 FEW080 FEW120 SCT270 20/08 A2982 RMK CU1ACC1AC1CI0 SLP109

CYXE;2007-06-19 21:00;CYXE 192100Z 29019G28KT 15SM SCT050 SCT110 SCT270 20/08 A2983 RMK CU3AC1CI0 SLP109

CYXE;2007-06-19 22:00;CYXE 192200Z 30020G28KT 15SM BKN070 BKN250 21/08 A2984 RMK CU5CI0 SLP112

CYXE;2007-06-19 23:00;CYXE 192300Z 30019G24KT 15SM SCT070 SCT250 20/07 A2985 RMK CU3CI0 SLP115

CYXE;2007-06-20 00:00;CYXE 200000Z 31016G24KT 15SM FEW070 FEW270 20/07 A2986 RMK CU2CI0 SLP120

CYXE;2007-06-20 01:00;CYXE 200100Z 32013G20KT 15SM FEW070 FEW270 19/07 A2987 RMK CU1CI0 SLP123

CYXE;2007-06-20 02:00;CYXE 200200Z 32008KT 15SM FEW070 FEW250 17/08 A2988 RMK CU1CI0 SLP127

CYXE;2007-06-20 03:00;CYXE 200300Z 32005KT 15SM FEW120 FEW270 14/10 A2989 RMK CU0CI0 SLP131

CYXE;2007-06-20 04:00;CYXE 200400Z 05008KT 15SM FEW120 FEW270 11/09 A2992 RMK AC1CI1 SLP139

CYXE;2007-06-20 05:00;CYXE 200500Z 09005KT 15SM FEW100 SCT270 12/09 A2992 RMK AC2CI0 SLP140

CYXE;2007-06-20 06:00;CYXE 200600Z 12003KT 15SM FEW100 SCT270 11/09 A2993 RMK AC2CI0 SLP145

CYXE;2007-06-20 07:00;CYXE 200700Z 11006KT 15SM FEW100 FEW270 10/08 A2993 RMK AC1CI0 SLP145

CYXE;2007-06-20 08:00;CYXE 200800Z 15003KT 15SM SCT089 BKN270 11/09 A2995 RMK AC3CI0 SLP151

CYXE;2007-06-20 08:51;CYXE 200851Z 20005KT 15SM -RA BKN049 OVC270 12/ RMK SC6CI0

CYXE;2007-06-20 09:00;CYXE 200900Z 19003KT 15SM -RA BKN049 OVC270 12/09 A2995 RMK SC6CI0 SLP151

CYXE;2007-06-20 09:32;CYXE 200932Z 30002KT 15SM OVC049 11/ RMK SC8

CYXE;2007-06-20 10:00;CYXE 201000Z 36002KT 15SM -SHRA OVC043 11/10 A2998 RMK SC8 CVCTV CLD EMBD SLP159

CYXE;2007-06-20 11:00;CYXE 201100Z 20005KT 15SM -SHRA BKN032 OVC270 11/10 A2997 RMK SC6CI0 SLP157

CYXE;2007-06-20 12:00;CYXE 201200Z 21008KT 15SM -SHRA BKN071 BKN092 OVC270 11/10 A2998 RMK AC5AC2CI0 CVCTV CLD EMBD SLP160

CYXE;2007-06-20 13:00;CYXE 201300Z 21006KT 15SM FEW017 FEW070 OVC270 12/10 A2998 RMK SC1AC2CI2 SLP159

CYXE;2007-06-20 14:00;CYXE 201400Z 20007KT 15SM FEW017 FEW070 BKN270 15/12 A2998 RMK SC1AC2CI1 SLP160

CYXE;2007-06-20 15:00;CYXE 201500Z 26003KT 15SM SCT070 BKN270 16/12 A2998 RMK AC3CI1 SLP161

CYXE;2007-06-20 16:00;CYXE 201600Z 32010KT 15SM SCT070 BKN270 17/12 A2999 RMK AC3CI1 SLP165

CYXE;2007-06-20 17:00;CYXE 201700Z 31007KT 15SM SCT070 BKN270 18/13 A3000 RMK AC3CI0 SLP168

CYXE;2007-06-20 18:00;CYXE 201800Z 33007KT 15SM FEW030 FEW070 BKN270 19/12 A3001 RMK CU1AC1CI0 CONTRAILS SLP171

CYXE;2007-06-20 19:00;CYXE 201900Z 32010KT 15SM FEW034 FEW080 BKN270 20/12 A3001 RMK CU1AC1CI0 CONTRAILS SLP172

CYXE;2007-06-20 20:00;CYXE 202000Z 32008KT 15SM FEW036 SCT270 21/11 A3001 RMK CU1CI0 SLP172

CYXE;2007-06-20 21:00;CYXE 202100Z 34010G15KT 15SM FEW044 SCT270 21/10 A3002 RMK CU1CI1 SLP173

CYXE;2007-06-20 22:00;CYXE 202200Z 36008KT 15SM FEW045 SCT270 21/11 A3002 RMK CU1CI0 SLP173

CYXE;2007-06-20 23:00;CYXE 202300Z 35004KT 15SM FEW045 SCT270 21/11 A3002 RMK CU1CI0 SLP172

CYXE;2007-06-21 00:00;CYXE 210000Z 32005KT 15SM FEW045 FEW270 21/11 A3002 RMK CU1CI0 SLP172

CYXE;2007-06-21 01:00;CYXE 210100Z 33003KT 15SM FEW045 FEW270 19/13 A3002 RMK CU1CI0 SLP172

CYXE;2007-06-21 02:00;CYXE 210200Z 04003KT 15SM FEW045 FEW270 20/12 A3002 RMK CU1CI0 SLP174

CYXE;2007-06-21 03:00;CYXE 210300Z 00000KT 15SM FEW080 FEW270 20/11 A3003 RMK AC1CI0 SLP176

CYXE;2007-06-21 04:00;CYXE 210400Z 23003KT 15SM FEW270 17/10 A3004 RMK CI0 SLP180

CYXE;2007-06-21 05:00;CYXE 210500Z 33002KT 15SM FEW270 14/12 A3006 RMK CI0 SLP184

CYXE;2007-06-21 06:00;CYXE 210600Z 08003KT 15SM SKC 15/11 A3006 RMK SLP185

CYXE;2007-06-21 07:00;CYXE 210700Z 14003KT 15SM SKC 13/11 A3007 RMK SLP188

CYXE;2007-06-21 08:00;CYXE 210800Z 10005KT 15SM SKC 11/09 A3007 RMK SLP189

CYXE;2007-06-21 09:00;CYXE 210900Z 09006KT 15SM SKC 10/09 A3006 RMK SLP187

CYXE;2007-06-21 10:00;CYXE 211000Z 09007KT 15SM SKC 10/09 A3005 RMK SLP186

CYXE;2007-06-21 11:00;CYXE 211100Z 12007KT 15SM FEW120 10/08 A3005 RMK AC1 SLP185

CYXE;2007-06-21 12:00;CYXE 211200Z 12011KT 15SM FEW120 12/09 A3006 RMK AC1 SLP186

CYXE;2007-06-21 13:00;CYXE 211300Z 13012G17KT 15SM FEW120 14/09 A3005 RMK AC1 SLP183

CYXE;2007-06-21 14:00;CYXE 211400Z 14010G15KT 15SM FEW120 16/09 A3005 RMK AC2 ACC ASOCTD SLP184

CYXE;2007-06-21 15:00;CYXE 211500Z 13011KT 15SM FEW120 18/11 A3004 RMK AC2 SLP177

CYXE;2007-06-21 16:00;CYXE 211600Z 13013KT 15SM FEW036TCU SCT120 20/11 A3003 RMK TCU1AC4 TCU SW SLP176

CYXE;2007-06-21 17:00;CYXE 211700Z 13016G21KT 15SM FEW036CB FEW120 21/10 A3002 RMK CB1AC2 CB TOPS SW-W ACC ASOCTD SLP171

CYXE;2007-06-21 18:00;CYXE 211800Z 13011G17KT 15SM SCT120 SCT300 23/13 A3001 RMK AC3CI0 CB TOP W SLP167

CYXE;2007-06-21 19:00;CYXE 211900Z 14017KT 15SM FEW079 BKN120 21/09 A2996 RMK CU2AC2 SLP150

CYXE;2007-06-21 20:00;CYXE 212000Z 13017G24KT 15SM SCT120 BKN300 23/11 A2994 RMK AC4CI0 SLP145

CYXE;2007-06-21 21:00;CYXE 212100Z 14016G24KT 15SM BKN120 24/11 A2990 RMK AC5 TCU ASOCTD SLP133

CYXE;2007-06-21 22:00;CYXE 212200Z 15017G22KT 15SM FEW080 BKN120 25/13 A2987 RMK AC2AC3 SLP123

CYXE;2007-06-21 23:00;CYXE 212300Z 14020G25KT 15SM FEW070 26/14 A2983 RMK CU2 TCU ASOCTD SLP109

CYXE;2007-06-22 00:00;CYXE 220000Z 16016G21KT 15SM FEW080 FEW120 27/15 A2979 RMK CU2AS1 TCU ASOCTD SLP090

CYXE;2007-06-22 01:00;CYXE 220100Z 17016KT 15SM FEW080 FEW120 27/15 A2977 RMK CU2AS1 TCU ASOCTD SLP085

CYXE;2007-06-22 02:00;CYXE 220200Z 21007KT 15SM FEW080CB SCT100 26/16 A2976 RMK CB2AC1 SLP080

CYXE;2007-06-22 03:00;CYXE 220300Z 24008KT 15SM FEW060CB FEW120 22/15 A2977 RMK CB1AC1 SLP082

CYXE;2007-06-22 04:00;CYXE 220400Z 23006KT 15SM FEW120 FEW250 19/16 A2978 RMK AC1CI0 SLP086

CYXE;2007-06-22 05:00;CYXE 220500Z 34009KT 15SM FEW120 FEW250 16/14 A2980 RMK AC1CI0 SLP092

CYXE;2007-06-22 06:00;CYXE 220600Z 03010KT 15SM FEW120 FEW260 17/13 A2982 RMK AC1CI0 SLP100

CYXE;2007-06-22 07:00;CYXE 220700Z 03007KT 15SM FEW100 FEW250 16/13 A2982 RMK AC2CI0 SLP102

CYXE;2007-06-22 08:00;CYXE 220800Z 04005KT 15SM FEW100 SCT250 14/13 A2984 RMK AC2CI0 SLP107

CYXE;2007-06-22 09:00;CYXE 220900Z 01005KT 15SM FEW012 FEW100 BKN250 14/12 A2986 RMK SC1AC2CI0 SLP114

CYXE;2007-06-22 10:00;CYXE 221000Z 01006KT 15SM FEW012 SCT100 BKN250 11/11 A2986 RMK SC2AC1CI0 SLP115

CYXE;2007-06-22 11:00;CYXE 221100Z 01005KT 15SM FEW012 FEW100 SCT250 11/10 A2987 RMK CF1ACC1CI1 VIRGA N SLP120

CYXE;2007-06-22 12:00;CYXE 221200Z 01007KT 15SM FEW020 FEW100 SCT250 11/10 A2990 RMK CF1ACC1CI0 VIRGA NW-N SLP127

CYXE;2007-06-22 13:00;CYXE 221300Z 36007KT 15SM BKN086 BKN250 12/11 A2991 RMK AC5CI0 ACC EMBD VIRGA N SLP131

CYXE;2007-06-22 14:00;CYXE 221400Z 02008KT 15SM SCT091 SCT250 15/12 A2990 RMK AC4CI1 ACC EMBD SLP129

CYXE;2007-06-22 15:00;CYXE 221500Z 03005KT 15SM FEW091 SCT250 17/13 A2990 RMK AC2CI0 SLP127

CYXE;2007-06-22 16:00;CYXE 221600Z 05012KT 15SM FEW087 SCT250 19/13 A2989 RMK AC2CI0 ACC ASOCTD SLP124

CYXE;2007-06-22 17:00;CYXE 221700Z 05010KT 15SM FEW087 FEW250 20/14 A2988 RMK AC1CI1 SLP122

CYXE;2007-06-22 18:00;CYXE 221800Z 07010KT 15SM FEW090 FEW250 21/14 A2988 RMK AC1CI0 SLP121

CYXE;2007-06-22 19:00;CYXE 221900Z 05012KT 15SM FEW090 FEW250 22/14 A2987 RMK AC1CI0 ACC ASOCTD SLP118

CYXE;2007-06-22 20:00;CYXE 222000Z 07009G15KT 15SM FEW090 FEW250 24/15 A2986 RMK AC1CI0 SLP114

CYXE;2007-06-22 21:00;CYXE 222100Z 10009G17KT 15SM FEW090 24/14 A2984 RMK AC1 SLP108

CYXE;2007-06-22 22:00;CYXE 222200Z 08011KT 15SM FEW090 25/14 A2983 RMK AC1 SLP104

CYXE;2007-06-22 23:00;CYXE 222300Z 07011G16KT 15SM FEW090 25/14 A2981 RMK AC1 SLP097

CYXE;2007-06-23 00:00;CYXE 230000Z 09011KT 15SM SKC 24/14 A2979 RMK SLP094

CYXE;2007-06-23 01:00;CYXE 230100Z 09012G17KT 15SM FEW090 23/14 A2978 RMK AC1 SLP091

CYXE;2007-06-23 02:00;CYXE 230200Z 08012KT 15SM SCT250 22/14 A2978 RMK CI1 SLP090

CYXE;2007-06-23 03:00;CYXE 230300Z 08013KT 15SM SCT120 BKN250 20/14 A2977 RMK AC3CI0 SLP086

CYXE;2007-06-23 04:00;CYXE 230400Z 08011KT 15SM SCT120 BKN250 19/13 A2977 RMK AC4CI0 SLP087

CYXE;2007-06-23 05:00;CYXE 230500Z 08010KT 15SM SCT120 BKN250 18/13 A2977 RMK AC3CI0 LTGIC DIST W SLP085

CYXE;2007-06-23 06:00;CYXE 230600Z 08008KT 15SM FEW040CB BKN120 17/14 A2977 RMK CB1AC4 LTGICCCCG W SLP085

CYXE;2007-06-23 07:00;CYXE 230700Z 09007KT 15SM BKN120 16/13 A2975 RMK AC5 LTNG DIST S SLP079

CYXE;2007-06-23 08:00;CYXE 230800Z 08006KT 15SM FEW120 15/13 A2974 RMK AC2 LTNG DIST SE SLP074

CYXE;2007-06-23 09:00;CYXE 230900Z 06009KT 15SM FEW120 14/13 A2973 RMK AC2 SLP071

CYXE;2007-06-23 10:00;CYXE 231000Z 07008KT 15SM FEW120 SCT250 14/13 A2971 RMK AC2CI0 ACC ASOCTD SLP065

CYXE;2007-06-23 11:00;CYXE 231100Z 06008KT 15SM FEW050CB FEW120 13/13 A2968 RMK CB1AC1 CB SE-SSE SLP055

CYXE;2007-06-23 12:00;CYXE 231200Z CCA 08005KT 15SM FEW120 FEW250 14/14 A2967 RMK AC1CI0 ACC EMBD SLP049

CYXE;2007-06-23 13:00;CYXE 231300Z 07005KT 15SM FEW120 SCT250 17/16 A2966 RMK AC2CI0 ACC EMBD SLP047

CYXE;2007-06-23 14:00;CYXE 231400Z 11004KT 15SM FEW120 BKN300 21/16 A2965 RMK AC2CI1 SLP044

CYXE;2007-06-23 15:00;CYXE 231500Z 21004KT 15SM FEW120 BKN300 22/17 A2964 RMK AC2CI0 SLP038

CYXE;2007-06-23 16:00;CYXE 231600Z 25002KT 15SM SCT120 BKN300 22/18 A2964 RMK AC4CI1 SLP038

CYXE;2007-06-23 17:00;CYXE 231700Z 29003KT 15SM SCT120 24/17 A2964 RMK AC2 SLP037

CYXE;2007-06-23 18:00;CYXE 231800Z 29014KT 15SM SCT087 BKN120 23/15 A2964 RMK AC4AC3 SLP039

CYXE;2007-06-23 19:00;CYXE 231900Z 28007KT 15SM FEW054 BKN087 BKN300 22/14 A2965 RMK SC2AC2CI1 SLP041

CYXE;2007-06-23 20:00;CYXE 232000Z 30008KT 15SM FEW032 SCT095 24/16 A2966 RMK CU1AC2 ACC ASOCTD SLP045

CYXE;2007-06-23 21:00;CYXE 232100Z 30014KT 15SM FEW095 FEW300 24/15 A2966 RMK AC1CI1 SLP047

CYXE;2007-06-23 22:00;CYXE 232200Z 30013G24KT 15SM SCT120 22/14 A2968 RMK ACC4 SLP053

CYXE;2007-06-23 23:00;CYXE 232300Z 30014G21KT 15SM FEW120 SCT300 22/14 A2971 RMK ACC2CI0 CB DIST SE SLP063

CYXE;2007-06-24 00:00;CYXE 240000Z 30018G25KT 15SM FEW120 SCT300 21/12 A2973 RMK AC2CI0 SLP072

CYXE;2007-06-24 01:00;CYXE 240100Z 31019G25KT 15SM FEW120 FEW300 20/11 A2974 RMK AC1CI0 SLP077

CYXE;2007-06-24 02:00;CYXE 240200Z 31016G21KT 15SM FEW120 19/11 A2976 RMK AC1 SLP082

CYXE;2007-06-24 03:00;CYXE 240300Z 32011KT 15SM FEW280 16/11 A2978 RMK CI0 SLP087

CYXE;2007-06-24 04:00;CYXE 240400Z 31007KT 15SM FEW280 13/10 A2980 RMK CI0 SLP095

CYXE;2007-06-24 05:00;CYXE 240500Z 32007KT 15SM FEW040 FEW280 11/10 A2981 RMK SC1CI0 SLP099

CYXE;2007-06-24 06:00;CYXE 240600Z 32006KT 15SM FEW250 11/09 A2982 RMK CI0 SLP104

CYXE;2007-06-24 07:00;CYXE 240700Z 32006KT 15SM FEW250 10/09 A2982 RMK CI0 SLP104

CYXE;2007-06-24 08:00;CYXE 240800Z 34005KT 15SM SKC 10/09 A2982 RMK SLP105

CYXE;2007-06-24 09:00;CYXE 240900Z 18002KT 15SM FEW250 10/10 A2985 RMK CI1 SLP114

CYXE;2007-06-24 10:00;CYXE 241000Z 25003KT 15SM MIFG FEW090 SCT250 09/09 A2986 RMK AC2CI0 SLP118

CYXE;2007-06-24 11:00;CYXE 241100Z 27004KT 15SM MIFG FEW039 FEW090 FEW250 09/09 A2987 RMK SC2AC1CI0 SLP121

CYXE;2007-06-24 12:00;CYXE 241200Z 33002KT 15SM FEW039 FEW090 FEW250 09/09 A2987 RMK SC1AC1CI0 SLP125

CYXE;2007-06-24 13:00;CYXE 241300Z 31004KT 15SM FEW250 12/12 A2988 RMK CI0 SLP127

CYXE;2007-06-24 14:00;CYXE 241400Z 04003KT 15SM SKC 15/12 A2987 RMK SLP125

CYXE;2007-06-24 15:00;CYXE 241500Z 35007KT 15SM FEW030 SCT300 16/11 A2988 RMK CU1CI2 SLP126

CYXE;2007-06-24 16:00;CYXE 241600Z 02008KT 15SM FEW030 FEW120 SCT300 17/11 A2989 RMK CU1AC1CI1 SLP128

CYXE;2007-06-24 17:00;CYXE 241700Z 02007KT 15SM FEW030 FEW120 SCT300 18/11 A2988 RMK CU1AC1CI1 SLP126

CYXE;2007-06-24 18:00;CYXE 241800Z 36002KT 15SM FEW081 SCT300 19/10 A2990 RMK CU1CI1 SLP135

CYXE;2007-06-24 19:00;CYXE 241900Z 01003KT 15SM FEW086 SCT130 BKN300 20/10 A2991 RMK CU2AC2CI2 SLP136

CYXE;2007-06-24 20:00;CYXE 242000Z 35002KT 15SM FEW090 SCT130 OVC300 21/11 A2990 RMK CU2AC2CS4 SLP135

CYXE;2007-06-24 21:00;CYXE 242100Z 27003KT 15SM FEW087 FEW130 BKN300 21/11 A2990 RMK CU1AC1CI1 SLP134

CYXE;2007-06-24 22:00;CYXE 242200Z 01003KT 15SM FEW024 FEW091 BKN250 21/11 A2990 RMK CU1AC1CI2 SLP133

CYXE;2007-06-24 23:00;CYXE 242300Z 05003KT 15SM FEW040 BKN140 OVC250 21/10 A2989 RMK CU1AC4CI1 SLP129

CYXE;2007-06-25 00:00;CYXE 250000Z 06006KT 15SM FEW080 BKN250 21/11 A2990 RMK AC2CI2 SLP132

CYXE;2007-06-25 01:00;CYXE 250100Z 07006KT 15SM BKN052 BKN250 21/11 A2990 RMK CU3CI1 SLP133

CYXE;2007-06-25 02:00;CYXE 250200Z 12003KT 15SM FEW052 SCT082 BKN250 19/13 A2991 RMK CU1AC3CI2 SLP136

CYXE;2007-06-25 03:00;CYXE 250300Z 21005KT 15SM FEW052 FEW250 17/13 A2992 RMK CU1CI1 SLP139

CYXE;2007-06-25 04:00;CYXE 250400Z 24002KT 15SM FEW140 SCT250 16/13 A2993 RMK AC2CI1 SLP142

CYXE;2007-06-25 05:00;CYXE 250500Z 00000KT 15SM FEW140 SCT250 15/13 A2993 RMK AC2CI0 SLP142

CYXE;2007-06-25 06:00;CYXE 250600Z 17004KT 15SM FEW140 SCT250 14/13 A2995 RMK AC2CI1 SLP151

CYXE;2007-06-25 07:00;CYXE 250700Z 14005KT 15SM SCT120 BKN230 14/12 A2995 RMK AC3CI3 SLP150

CYXE;2007-06-25 08:00;CYXE 250800Z 04006KT 15SM SCT120 OVC230 12/12 A2993 RMK AC3CI3 SLP143

CYXE;2007-06-25 09:00;CYXE 250900Z 07004KT 15SM SCT120 OVC230 12/12 A2990 RMK AC3CI4 SLP134

CYXE;2007-06-25 10:00;CYXE 251000Z 07006KT 15SM BKN092 OVC230 12/12 A2991 RMK AC5CI2 SLP135

CYXE;2007-06-25 11:00;CYXE 251100Z 05007KT 15SM SCT110 OVC230 13/12 A2991 RMK AC4CI2 SLP136

CYXE;2007-06-25 12:00;CYXE 251200Z 07008KT 15SM SCT089 BKN130 OVC230 14/13 A2991 RMK AC3AC2CI2 ACC EMBD SLP136

CYXE;2007-06-25 13:00;CYXE 251300Z 10010KT 15SM BKN087 OVC130 15/13 A2992 RMK AC6AC2 SLP139

CYXE;2007-06-25 13:34;CYXE 251334Z 10012KT 15SM -SHRA SCT049 OVC087 15/ RMK SC3AC5

CYXE;2007-06-25 14:00;CYXE 251400Z 10013KT 15SM -SHRA BKN034 OVC087 15/13 A2992 RMK SC6AC2 SLP139

CYXE;2007-06-25 14:34;CYXE 251434Z 10014KT 15SM BKN038 OVC085 16/ RMK SC5AC3

CYXE;2007-06-25 15:00;CYXE 251500Z 12013KT 15SM FEW038 OVC085 16/13 A2992 RMK SF2AC6 SLP139

CYXE;2007-06-25 15:39;CYXE 251539Z 11014KT 15SM -SHRA SCT020 OVC073 16/ RMK SF3AC5

CYXE;2007-06-25 16:00;CYXE 251600Z 11012G17KT 10SM -SHRA SCT015 OVC046 15/13 A2992 RMK SF4SC4 SLP138

CYXE;2007-06-25 17:00;CYXE 251700Z 08005KT 6SM -SHRA BKN017 OVC059 15/14 A2995 RMK SC6SC2 SLP148

CYXE;2007-06-25 17:18;CYXE 251718Z 07009KT 4SM -RA BKN015 OVC059 15/ RMK SC6SC2

CYXE;2007-06-25 17:47;CYXE 251747Z 06015KT 10SM -RA BKN013 OVC060 15/ RMK SC6SC2

CYXE;2007-06-25 18:00;CYXE 251800Z 05013G19KT 15SM -RA SCT020 OVC078 15/14 A2990 RMK SF4AC4 SLP135

CYXE;2007-06-25 19:00;CYXE 251900Z 08010KT 6SM -RA BKN008 OVC051 14/14 A2993 RMK SF5SC3 SLP143

CYXE;2007-06-25 19:12;CYXE 251912Z 09013KT 3SM RA BKN008 OVC070 14/ RMK SC6AC2

CYXE;2007-06-25 19:47;CYXE 251947Z 08020G26KT 6SM -RA BKN006 OVC051 14/ RMK SF6SC2

CYXE;2007-06-25 20:00;CYXE 252000Z 08022KT 6SM -RA BKN007 OVC050 13/13 A2989 RMK SF6SC2 SLP131

CYXE;2007-06-25 20:34;CYXE 252034Z 08021G26KT 15SM BKN008 OVC047 13/ RMK SF6SC2

CYXE;2007-06-25 21:00;CYXE 252100Z 08018G24KT 15SM SCT014 OVC045 13/13 A2985 RMK SF4SC4 SLP120

CYXE;2007-06-25 22:00;CYXE 252200Z CCA 08011G16KT 15SM -RA BKN016 OVC052 13/12 A2985 RMK SF7SC1 SLP118

CYXE;2007-06-25 22:50;CYXE 252250Z 09009G16KT 15SM -RA OVC014 14/ RMK SC8

CYXE;2007-06-25 23:00;CYXE 252300Z 10015G20KT 15SM -RA OVC014 14/12 A2982 RMK SC8 SLP109

CYXE;2007-06-25 23:10;CYXE 252310Z 10014G28KT 15SM OVC014 14/ RMK SC8

CYXE;2007-06-25 23:23;CYXE 252323Z 11023G31KT 15SM -SHRA OVC012 14/ RMK SC8

CYXE;2007-06-26 00:00;CYXE 260000Z 11017G29KT 2SM -SHRA OVC010 14/13 A2979 RMK SC8 CVCTV CLD EMBD SLP099

CYXE;2007-06-26 00:15;CYXE 260015Z 11018KT 15SM -SHRA OVC010 14/ RMK SC8 CVCTV CLD EMBD

CYXE;2007-06-26 00:30;CYXE 260030Z 11020G25KT 15SM BKN008 OVC025 14/ RMK SF7SC1

CYXE;2007-06-26 01:00;CYXE 260100Z 13018G26KT 15SM OVC009 15/14 A2977 RMK SC8 SLP092

CYXE;2007-06-26 01:47;CYXE 260147Z 15014G21KT 15SM SCT010 BKN020TCU 16/ RMK SC2TCU2 TCU EMBD SH W-N-E

CYXE;2007-06-26 02:00;CYXE 260200Z 19012KT 15SM BKN012 16/15 A2977 RMK SC6 TCU EMBD SLP093

CYXE;2007-06-26 03:00;CYXE 260300Z 22013G19KT 15SM BKN012 BKN082 13/12 A2981 RMK SC6AC1 CVCTV CLD EMBD SLP103

CYXE;2007-06-26 04:00;CYXE 260400Z 24006KT 15SM BKN054 10/08 A2983 RMK SC5 VIRGA SW CVCTV CLD EMBD SLP109

CYXE;2007-06-26 05:00;CYXE 260500Z 21006KT 15SM FEW067 09/08 A2982 RMK SC2 CB EMBD LTGIC E SLP108

CYXE;2007-06-26 06:00;CYXE 260600Z 17006KT 15SM FEW056 SCT120 SCT250 08/08 A2982 RMK SC2AC1CI0 CB EMBD LTGIC DIST E SLP111

CYXE;2007-06-26 07:00;CYXE 260700Z 19004KT 15SM FEW056 SCT120 SCT300 07/07 A2980 RMK SC2AC1CI0 CB EMBD LTGIC DIST E SLP104

CYXE;2007-06-26 08:00;CYXE 260800Z 21008KT 15SM SCT066 SCT300 08/07 A2978 RMK AC2CI1 SLP098

CYXE;2007-06-26 09:00;CYXE 260900Z 17005KT 15SM SCT014 BKN066 07/07 A2979 RMK SF3AC2 SLP101

CYXE;2007-06-26 09:25;CYXE 260925Z 14004KT 15SM BKN014 BKN100 08/ RMK ST6AC1

CYXE;2007-06-26 10:00;CYXE 261000Z 18005KT 15SM BKN012 OVC071 08/07 A2978 RMK ST6AC2 SLP098

CYXE;2007-06-26 10:18;CYXE 261018Z 19005KT 15SM -RA BKN012 OVC071 08/ RMK ST6AC2

CYXE;2007-06-26 11:00;CYXE 261100Z 17005KT 10SM -RA SCT006 BKN012 OVC033 08/08 A2977 RMK SF3ST3SC2 SLP097

CYXE;2007-06-26 11:15;CYXE 261115Z 16005KT 10SM -RA BKN007 OVC033 08/ RMK ST6SC2

CYXE;2007-06-26 12:00;CYXE 261200Z 15006KT 10SM -RA BKN006 OVC033 09/09 A2975 RMK ST6SC2 SLP087

CYXE;2007-06-26 12:48;CYXE 261248Z 10009KT 8SM -RA BKN004 OVC019 09/ RMK ST6SC2

CYXE;2007-06-26 13:00;CYXE 261300Z 09011KT 6SM -RA OVC004 10/10 A2973 RMK ST8 SLP080

CYXE;2007-06-26 13:17;CYXE 261317Z 05015KT 2SM R09/6000FT/D -RA BR OVC002 09/ RMK ST8

CYXE;2007-06-26 13:50;CYXE 261350Z 01013G18KT 8SM -RA BKN006 OVC014 09/ RMK SF3SC5 BR

CYXE;2007-06-26 14:00;CYXE 261400Z 36014G19KT 8SM RA BKN006 OVC014 09/09 A2981 RMK SF6SC2 PRESRR BR SLP107

CYXE;2007-06-26 14:13;CYXE 261413Z 36016KT 8SM -RA BKN004 09/ RMK SF5 BR

CYXE;2007-06-26 14:32;CYXE 261432Z 35018KT 15SM SCT004 OVC007 09/ RERA RMK SF4SC3

CYXE;2007-06-26 14:49;CYXE 261449Z 33014G22KT 15SM FEW004 BKN010 OVC097 10/ RERA RMK SF1SC4AC3 CVCTV CLD EMBD

CYXE;2007-06-26 15:00;CYXE 261500Z 32011G17KT 15SM FEW004 BKN012 OVC097 10/10 A2990 RMK SF1SC3AC3 PRESRR SLP139

CYXE;2007-06-26 15:30;CYXE 261530Z 32013KT 8SM -RA BKN009 OVC071 11/ RMK SF5AC3 BR

CYXE;2007-06-26 15:33;CYXE 261533Z CCA 32013KT 8SM -SHRA BKN009 OVC071 11/ RMK SF5AC3 BR

CYXE;2007-06-26 16:00;CYXE 261600Z 30015KT 15SM -SHRA FEW007 FEW018 BKN056 OVC081 11/10 A2995 RMK SF1CF2SC5AC1 CVCTV CLD EMBD SLP154

CYXE;2007-06-26 16:14;CYXE 261614Z 31013G19KT 5SM -SHRA FEW007 BKN011 OVC081 11/ RMK SF1SC6AC1 VIS LWR SW

CYXE;2007-06-26 16:38;CYXE 261638Z 32012G18KT 15SM -SHRA FEW009 BKN021 BKN081 12/ RMK SC2CU2AC0 TCU TOP SE

CYXE;2007-06-26 17:00;CYXE 261700Z 30013KT 15SM -SHRA SCT011 SCT061 OVC083 12/11 A2998 RMK SC2CU1AC4 SLP164

CYXE;2007-06-26 18:00;CYXE 261800Z 30013KT 15SM -SHRA FEW013 FEW056 OVC088 12/10 A3002 RMK CF1SC2AC4 TCU EMBD TOPS OBSD SE SLP180

CYXE;2007-06-26 18:39;CYXE 261839Z 31012KT 15SM FEW013 OVC120 13/ RMK CU2AC3 VIRGA SE

CYXE;2007-06-26 19:00;CYXE 261900Z 31012KT 15SM BKN021 BKN140 BKN250 14/12 A3004 RMK CU5AC1CI0 TCU ASOCTD SLP188

CYXE;2007-06-26 20:00;CYXE 262000Z 30012G17KT 15SM VCSH FEW012 BKN019 BKN096 14/11 A3006 RMK SF1CU5AC1 TCU EMBD SLP194

CYXE;2007-06-26 21:00;CYXE 262100Z 32016KT 15SM BKN021 BKN250 14/10 A3008 RMK CU5CI0 TCU ASOCTD SLP201

CYXE;2007-06-26 22:00;CYXE 262200Z 32015G20KT 15SM BKN018 OVC043 14/10 A3011 RMK CU6SC2 SLP210

CYXE;2007-06-26 23:00;CYXE 262300Z 01018KT 15SM FEW014 BKN020 BKN080 12/10 A3015 RMK CU2SC3AC2 SLP222

CYXE;2007-06-27 00:00;CYXE 270000Z 35010KT 15SM FEW012 BKN022 BKN080 12/09 A3017 RMK CU2SC5AC1 SLP232

CYXE;2007-06-27 01:00;CYXE 270100Z 36016KT 15SM FEW014 BKN026 BKN055 13/08 A3019 RMK CF1SC6SC1 SLP239

CYXE;2007-06-27 02:00;CYXE 270200Z 01013KT 15SM FEW016 BKN030 11/08 A3022 RMK CF1SC6 SLP249

CYXE;2007-06-27 03:00;CYXE 270300Z 36008KT 15SM FEW012 BKN029 11/08 A3024 RMK CF1SC6 SLP255

CYXE;2007-06-27 04:00;CYXE 270400Z 05007KT 15SM FEW015 BKN032 BKN090 10/07 A3027 RMK SC1SC4AC1 SLP265

CYXE;2007-06-27 05:00;CYXE 270500Z 03005KT 15SM FEW030 07/06 A3029 RMK SC2 SLP271

CYXE;2007-06-27 06:00;CYXE 270600Z 04005KT 15SM FEW030 FEW090 06/05 A3031 RMK SC1AC2 SLP282

CYXE;2007-06-27 07:00;CYXE 270700Z 05005KT 15SM FEW025 SCT090 06/05 A3032 RMK SC2AC1 SLP285

CYXE;2007-06-27 08:00;CYXE 270800Z 07003KT 15SM FEW090 05/05 A3033 RMK AC2 SLP288

CYXE;2007-06-27 09:00;CYXE 270900Z 00000KT 15SM FEW090 BKN300 05/05 A3034 RMK AC1CI1 SLP291

CYXE;2007-06-27 10:00;CYXE 271000Z 00000KT 15SM SKC 05/05 A3034 RMK MIFG SLP292

CYXE;2007-06-27 11:00;CYXE 271100Z 00000KT 15SM SKC 04/04 A3034 RMK MIFG SLP293

CYXE;2007-06-27 12:00;CYXE 271200Z 00000KT 15SM SKC 05/05 A3036 RMK SLP298

CYXE;2007-06-27 13:00;CYXE 271300Z 00000KT 15SM SKC 07/06 A3037 RMK SLP303

CYXE;2007-06-27 14:00;CYXE 271400Z 20002KT 15SM FEW012 FEW250 10/07 A3039 RMK CF1CI0 SLP308

CYXE;2007-06-27 15:00;CYXE 271500Z 18002KT 15SM FEW020 FEW250 11/06 A3039 RMK CF2CI0 SLP308

CYXE;2007-06-27 16:00;CYXE 271600Z 00000KT 15SM FEW024 FEW250 13/06 A3039 RMK CF2CI0 SLP306

CYXE;2007-06-27 17:00;CYXE 271700Z 19004KT 15SM FEW031 SCT250 13/07 A3039 RMK CU2CI0 CONTRAILS SLP306

CYXE;2007-06-27 18:00;CYXE 271800Z 21002KT 15SM FEW030 FEW270 14/07 A3038 RMK CU1CI1 SLP303

CYXE;2007-06-27 19:00;CYXE 271900Z 13003KT 15SM FEW035 BKN230 15/06 A3037 RMK CU2CI1 SLP300

CYXE;2007-06-27 20:00;CYXE 272000Z 14005KT 15SM FEW040 BKN230 16/07 A3036 RMK CU1CI2 SLP297

CYXE;2007-06-27 21:00;CYXE 272100Z 16005KT 15SM FEW048 BKN230 17/06 A3034 RMK CU1CI1 SLP289

CYXE;2007-06-27 22:00;CYXE 272200Z 17005KT 15SM FEW048 BKN280 17/06 A3033 RMK CU1CI0 SLP285

CYXE;2007-06-27 23:00;CYXE 272300Z 13005KT 15SM FEW048 BKN280 18/06 A3031 RMK CU1CI0 CONTRAILS SLP280

CYXE;2007-06-28 00:00;CYXE 280000Z 12006KT 15SM BKN280 17/07 A3029 RMK CI0 CONTRAILS SLP272

CYXE;2007-06-28 01:00;CYXE 280100Z 14008KT 15SM BKN280 17/07 A3028 RMK CI0 SLP269

CYXE;2007-06-28 02:00;CYXE 280200Z 14005KT 15SM FEW280 16/08 A3027 RMK CI0 SLP267

CYXE;2007-06-28 03:00;CYXE 280300Z 14005KT 15SM FEW280 14/08 A3027 RMK CI0 SLP263

CYXE;2007-06-28 04:00;CYXE 280400Z 14006KT 15SM FEW280 12/08 A3027 RMK CI0 SLP264

CYXE;2007-06-28 05:00;CYXE 280500Z 14006KT 15SM FEW280 12/07 A3028 RMK CI0 SLP267

CYXE;2007-06-28 06:00;CYXE 280600Z 16004KT 15SM FEW280 11/08 A3028 RMK CI0 SLP266

CYXE;2007-06-28 07:00;CYXE 280700Z 14005KT 15SM FEW280 10/08 A3026 RMK CI0 SLP262

CYXE;2007-06-28 08:00;CYXE 280800Z 13005KT 15SM FEW280 10/08 A3025 RMK CI0 SLP258

CYXE;2007-06-28 09:00;CYXE 280900Z 14005KT 15SM FEW280 10/08 A3024 RMK CI1 SLP252

CYXE;2007-06-28 10:00;CYXE 281000Z 15009KT 15SM SCT280 10/08 A3024 RMK CI3 SLP251

CYXE;2007-06-28 11:00;CYXE 281100Z 14007KT 15SM SCT280 10/08 A3024 RMK CI2 SLP251

CYXE;2007-06-28 12:00;CYXE 281200Z 16006KT 15SM SCT280 10/09 A3024 RMK CI2 SLP251

CYXE;2007-06-28 13:00;CYXE 281300Z 16009KT 15SM FEW300 12/09 A3024 RMK CI1 SLP252

CYXE;2007-06-28 14:00;CYXE 281400Z 16009KT 15SM SCT300 13/10 A3024 RMK CI2 SLP252

CYXE;2007-06-28 15:00;CYXE 281500Z 15007KT 15SM FEW300 15/10 A3024 RMK CI1 SLP250

CYXE;2007-06-28 16:00;CYXE 281600Z 14010G17KT 15SM FEW024 FEW300 16/10 A3022 RMK CF1CI1 SLP244

CYXE;2007-06-28 17:00;CYXE 281700Z 16013G18KT 15SM FEW026 FEW150 BKN300 16/10 A3021 RMK SF1AC1CI2 SLP241

CYXE;2007-06-28 18:00;CYXE 281800Z 15011KT 15SM FEW032 SCT097 BKN300 18/11 A3020 RMK SF1AC2CI2 SLP237

CYXE;2007-06-28 19:00;CYXE 281900Z 13011G16KT 15SM SCT089 BKN300 18/11 A3018 RMK AC3CI1 SLP232

CYXE;2007-06-28 20:00;CYXE 282000Z 11014KT 15SM FEW085 BKN110 OVC300 18/10 A3017 RMK AC2AC3CI0 SLP226

CYXE;2007-06-28 21:00;CYXE 282100Z 13012G17KT 15SM SCT085 BKN110 OVC300 18/11 A3016 RMK AC2AC2CI0 SLP225

CYXE;2007-06-28 22:00;CYXE 282200Z 14012KT 15SM FEW085 BKN110 OVC300 19/11 A3016 RMK AC2AC2CI0 SLP223

CYXE;2007-06-28 23:00;CYXE 282300Z 12014KT 15SM SCT120 BKN300 19/11 A3013 RMK AC3CI0 SLP215

CYXE;2007-06-29 00:00;CYXE 290000Z 14011KT 15SM BKN120 BKN300 19/11 A3012 RMK AC6CI0 SLP208

CYXE;2007-06-29 01:00;CYXE 290100Z 12013G18KT 15SM BKN095 BKN300 18/10 A3011 RMK AC6CI0 SLP207

CYXE;2007-06-29 02:00;CYXE 290200Z 13010KT 15SM BKN100 BKN200 18/11 A3010 RMK AC6CI0 SLP203

CYXE;2007-06-29 03:00;CYXE 290300Z 14010KT 15SM FEW100 BKN300 16/11 A3011 RMK AC2CI0 SLP204

CYXE;2007-06-29 04:00;CYXE 290400Z 13008KT 15SM FEW140 SCT300 15/11 A3011 RMK AC1CI0 SLP203

CYXE;2007-06-29 05:00;CYXE 290500Z 12007KT 15SM FEW140 SCT300 14/11 A3010 RMK AC2CI0 SLP200

CYXE;2007-06-29 06:00;CYXE 290600Z 13009KT 15SM FEW140 SCT300 14/11 A3009 RMK AC2CI0 SLP198

CYXE;2007-06-29 07:00;CYXE 290700Z 12010KT 15SM FEW140 BKN300 13/11 A3008 RMK AC1CI1 SLP195

CYXE;2007-06-29 08:00;CYXE 290800Z 13010KT 15SM FEW140 SCT300 12/11 A3008 RMK AC1CI0 SLP194

CYXE;2007-06-29 09:00;CYXE 290900Z 13009KT 15SM FEW140 SCT300 12/11 A3008 RMK AC1CI0 SLP194

CYXE;2007-06-29 10:00;CYXE 291000Z 12008KT 15SM SCT120 BKN300 12/11 A3007 RMK AC3CI2 SLP191

CYXE;2007-06-29 11:00;CYXE 291100Z 11010KT 15SM SCT140 BKN300 12/10 A3005 RMK AC3CI1 SLP186

CYXE;2007-06-29 12:00;CYXE 291200Z 11011KT 15SM FEW140 BKN300 12/10 A3004 RMK AC1CI2 SLP180

CYXE;2007-06-29 13:00;CYXE 291300Z 13012G18KT 15SM FEW094 BKN250 14/11 A3003 RMK AC2CI3 SLP179

CYXE;2007-06-29 14:00;CYXE 291400Z 13013KT 15SM FEW090 BKN250 15/11 A3004 RMK AC2CI2 SLP181

CYXE;2007-06-29 15:00;CYXE 291500Z 11016KT 15SM FEW090 BKN250 16/12 A3002 RMK AC2CI1 SLP173

CYXE;2007-06-29 16:00;CYXE 291600Z 11016KT 15SM FEW090 BKN250 18/13 A2999 RMK AC2CI1 SLP164

CYXE;2007-06-29 17:00;CYXE 291700Z 12019KT 15SM FEW015 FEW090 BKN250 19/14 A2999 RMK SC1AC2CI1 SLP165

CYXE;2007-06-29 18:00;CYXE 291800Z 13016G25KT 15SM FEW015 SCT090 BKN250 20/15 A2998 RMK SC1AC3CI1 SLP159

CYXE;2007-06-29 19:00;CYXE 291900Z 13016G21KT 15SM FEW027 BKN090 OVC250 21/15 A2996 RMK SC2AC3CI1 SLP152

CYXE;2007-06-29 20:00;CYXE 292000Z 13015G21KT 15SM BKN030 BKN090 BKN250 22/15 A2998 RMK SC5AC2CI1 SLP158

CYXE;2007-06-29 21:00;CYXE 292100Z 12017G24KT 15SM FEW030 BKN090 BKN250 23/16 A2995 RMK SC2AC2CI0 SLP149

CYXE;2007-06-29 22:00;CYXE 292200Z 11020G27KT 15SM FEW030 BKN090 BKN250 22/16 A2994 RMK SC2AC2CI0 SLP144

CYXE;2007-06-29 23:00;CYXE 292300Z 10018G24KT 15SM FEW030 BKN090 BKN250 22/16 A2993 RMK SC2AC3CI0 SLP142

CYXE;2007-06-30 00:00;CYXE 300000Z 12019G26KT 15SM FEW032 BKN090 BKN250 22/15 A2992 RMK SC2AC2CI0 SLP139

CYXE;2007-06-30 01:00;CYXE 300100Z 11017G24KT 15SM FEW032 BKN095 BKN250 21/15 A2992 RMK SC2AC2CI0 SLP139

CYXE;2007-06-30 02:00;CYXE 300200Z 10016G26KT 15SM SCT030 BKN080 OVC250 21/15 A2990 RMK SC2AC2CI2 SLP130

CYXE;2007-06-30 03:00;CYXE 300300Z 11019G26KT 15SM BKN030 OVC080 20/14 A2992 RMK SC5AC3 SLP138

CYXE;2007-06-30 04:00;CYXE 300400Z 12019G26KT 15SM BKN027 OVC065 19/14 A2991 RMK SC5SC3 SLP134

CYXE;2007-06-30 05:00;CYXE 300500Z 11017G22KT 15SM BKN027 OVC072 19/14 A2992 RMK SC5AC3 LTGICCG SW-NW SLP137

CYXE;2007-06-30 05:18;CYXE 300518Z 11016G21KT 15SM TS SCT020CB OVC072 18/ RMK CB3AC5 LTGICCG W-NW

CYXE;2007-06-30 06:00;CYXE 300600Z CCA 11006KT 15SM TS BKN027 OVC070 18/13 A2990 RMK SC6AC2 CB EMBD LTGICCG SE NW-N SLP131

CYXE;2007-06-30 06:26;CYXE 300626Z 11012G17KT 15SM BKN025 OVC070 18/ RETS RMK SC7AC1

CYXE;2007-06-30 06:28;CYXE 300628Z CCA 11012G17KT 15SM BKN025 OVC070 18/ RETS RMK SC7AC1 CB EMBD LTGICCG N-SE

CYXE;2007-06-30 07:00;CYXE 300700Z 11011G16KT 15SM FEW015 SCT030 BKN070 17/14 A2988 RMK CF1SC2AC4 CB EMBD LTGICCCCG N-NE SLP122

CYXE;2007-06-30 08:00;CYXE 300800Z 13011KT 15SM OVC019 17/14 A2987 RMK SC8 CB EMBD LTGICCCCG DIST SW-W-NE-E SLP121

CYXE;2007-06-30 08:18;CYXE 300818Z 12011KT 15SM TS OVC021 17/ RMK SC8 CB EMBD LTGICCG SW-W

CYXE;2007-06-30 08:29;CYXE 300829Z 12011KT 10SM -TSRA OVC021CB 17/ RMK CB8 LTGIC OVRHD

CYXE;2007-06-30 08:34;CYXE 300834Z 12012G17KT 3SM +TSRA BR OVC017CB 16/ RMK CB8 LTGICCG ALQDS

CYXE;2007-06-30 08:50;CYXE 300850Z 10011KT 15SM -TSRA FEW011 OVC013CB 15/ RMK SF2CB6 LTGICCG ALQDS

CYXE;2007-06-30 08:53;CYXE 300853Z CCA 10011KT 15SM -TSRA FEW011 OVC013CB 15/ RERA RMK SF2CB6 LTGICCG ALQDS

CYXE;2007-06-30 09:00;CYXE 300900Z 11012KT 15SM -TSRA FEW011 OVC027CB 15/15 A2990 RERA RMK SF2CB6 LTGICCG ALQDS SLP129

CYXE;2007-06-30 09:25;CYXE 300925Z 11011KT 15SM TSRA OVC033CB 15/ RMK CB8 LTNG ALQDS

CYXE;2007-06-30 10:00;CYXE 301000Z 08014KT 15SM -TSRA BKN025 OVC120 15/15 A2980 RERA RMK SC6AC2 OCNL LTGIC CB EMBD SLP096

CYXE;2007-06-30 10:10;CYXE 301010Z 09009G15KT 15SM -SHRA FEW004 BKN025 OVC084 15/ RETS RMK CU1SC6AC2

CYXE;2007-06-30 10:25;CYXE 301025Z 09015G21KT 15SM FEW004 BKN025 OVC084 15/ RETS RMK CU1SC5AC2 SH N

CYXE;2007-06-30 11:00;CYXE 301100Z 15014G21KT 15SM SCT010 OVC083 15/15 A2990 RMK SC2AC5 SLP129

CYXE;2007-06-30 12:00;CYXE 301200Z 12019G24KT 15SM FEW004 BKN120 BKN250 15/14 A2989 RMK SF1AC5CI1 SLP125

CYXE;2007-06-30 13:00;CYXE 301300Z 14021G27KT 15SM FEW010 BKN089 BKN250 16/15 A2988 RMK SF1AC5CI0 SLP122

CYXE;2007-06-30 14:00;CYXE 301400Z 14013KT 15SM FEW090 BKN250 18/15 A2986 RMK ACC1CI4 SLP118

CYXE;2007-06-30 15:00;CYXE 301500Z 16015KT 15SM FEW012 SCT250 19/16 A2988 RMK CF1CI2 SLP123

CYXE;2007-06-30 16:00;CYXE 301600Z 16014G19KT 15SM SCT018 BKN250 21/17 A2990 RMK CU3CI1 SLP127

CYXE;2007-06-30 17:00;CYXE 301700Z 17011G18KT 15SM SCT015 BKN300 21/18 A2990 RMK CU3CI2 SLP130

CYXE;2007-06-30 18:00;CYXE 301800Z 19012KT 15SM FEW020 BKN300 22/17 A2990 RMK CU2CI2 SLP127

CYXE;2007-06-30 19:00;CYXE 301900Z 23014KT 15SM FEW025 SCT300 24/16 A2989 RMK CU1CI1 SLP126

CYXE;2007-06-30 20:00;CYXE 302000Z 23013G18KT 15SM FEW035 BKN300 25/15 A2990 RMK CU1CI2 SLP127

CYXE;2007-06-30 21:00;CYXE 302100Z 25013KT 15SM FEW040 BKN300 25/16 A2990 RMK CU1CI4 SLP128

CYXE;2007-06-30 22:00;CYXE 302200Z 24010G15KT 15SM FEW040 BKN300 23/15 A2991 RMK CU1CI6 CB TOP DIST NW SLP132

CYXE;2007-06-30 23:00;CYXE 302300Z 24009KT 15SM FEW040 BKN300 25/17 A2992 RMK CU1CI2 SLP133

CYXE;2007-07-01 01:00;CYXE 010100Z 28007KT 15SM FEW050 SCT300 24/16 A2991 RMK CU2CI1 SLP133

CYXE;2007-07-01 02:00;CYXE 010200Z 27004KT 15SM FEW060 FEW300 23/16 A2993 RMK CU1CI0 SLP138

CYXE;2007-07-01 03:00;CYXE 010300Z 29003KT 15SM FEW060 FEW100 SCT300 20/16 A2994 RMK CU2ACC1CI0 TCU EMBD SLP142

CYXE;2007-07-01 04:00;CYXE 010400Z 00000KT 15SM FEW058 20/16 A2995 RMK CU2 CB TOP DIST ESE SLP147

CYXE;2007-07-01 05:00;CYXE 010500Z 00000KT 15SM FEW050 19/16 A2997 RMK CU1 CB TOPS DIST ESE N SLP151

CYXE;2007-07-01 06:00;CYXE 010600Z 00000KT 15SM SCT050 BKN250 17/15 A2997 RMK CU2CI0 SLP152

CYXE;2007-07-01 07:00;CYXE 010700Z 31002KT 15SM SCT056 BKN250 16/16 A2997 RMK CU2CI0 SLP152

CYXE;2007-07-01 08:00;CYXE 010800Z 00000KT 15SM R09/2400VP6000FT/U MIFG FEW056 SCT250 17/15 A2997 RMK CU1CI0 SLP152

CYXE;2007-07-01 09:00;CYXE 010900Z 01004KT 15SM BCFG FEW056 SCT250 13/13 A2997 RMK CU1CI0 SLP152

CYXE;2007-07-01 10:00;CYXE 011000Z 14003KT 15SM MIFG FEW056 FEW250 13/13 A2996 RMK CU1CI0 SLP151

CYXE;2007-07-01 11:00;CYXE 011100Z 24002KT 15SM R09/1200VP6000FT/D MIFG FEW056 FEW090 13/13 A2997 RMK CU1AC1 SLP153

CYXE;2007-07-01 12:00;CYXE 011200Z 19003KT 15SM R09/4500VP6000FT/U PRFG FEW056 FEW090 13/13 A2998 RMK CU1AC1 VIS LWR W-N SLP157

CYXE;2007-07-01 13:00;CYXE 011300Z 00000KT 15SM FEW090 FEW230 16/14 A2998 RMK AC0CI1 SLP156

CYXE;2007-07-01 14:00;CYXE 011400Z 00000KT 15SM FEW090 19/15 A2998 RMK ACC1 SLP157

CYXE;2007-07-01 15:00;CYXE 011500Z 14003KT 15SM FEW090 FEW300 21/14 A2997 RMK ACC1CI0 SLP151

CYXE;2007-07-01 16:00;CYXE 011600Z 20005KT 15SM FEW090 FEW300 22/14 A2997 RMK ACC1CI0 SLP150

CYXE;2007-07-01 17:00;CYXE 011700Z 25005KT 15SM FEW035 FEW300 23/15 A2996 RMK CU1CI1 SLP149

CYXE;2007-07-01 18:00;CYXE 011800Z 23006KT 15SM FEW040 BKN300 24/15 A2996 RMK CU1CI1 SLP148

CYXE;2007-07-01 19:00;CYXE 011900Z 29002KT 15SM FEW050 BKN300 25/13 A2995 RMK CU1CI4 SLP145

CYXE;2007-07-01 20:00;CYXE 012000Z 29005KT 15SM FEW050 BKN300 25/14 A2995 RMK CU1CI4 SLP143

CYXE;2007-07-01 21:00;CYXE 012100Z 28003KT 15SM FEW050 BKN300 26/13 A2994 RMK CU1CI4 SLP143

CYXE;2007-07-01 22:00;CYXE 012200Z 27003KT 15SM FEW050 FEW083 BKN300 26/12 A2994 RMK CU1AC2CI3 SLP143

CYXE;2007-07-01 23:00;CYXE 012300Z 23003KT 15SM FEW073 BKN300 25/14 A2993 RMK AC2CI2 SLP139

CYXE;2007-07-02 00:00;CYXE 020000Z 26007KT 15SM FEW071 SCT300 25/13 A2993 RMK AC2CI1 SLP138

CYXE;2007-07-02 01:00;CYXE 020100Z 24005KT 15SM FEW050CB FEW076 FEW280 25/13 A2993 RMK CB1AC2CI0 CB N SLP138

CYXE;2007-07-02 02:00;CYXE 020200Z 23004KT 15SM FEW050TCU FEW076 FEW280 23/16 A2993 RMK TCU1AC1CI1 TCU N SLP138

CYXE;2007-07-02 03:00;CYXE 020300Z 21006KT 15SM FEW080 FEW280 21/12 A2993 RMK AC1CI1 SLP136

CYXE;2007-07-02 04:00;CYXE 020400Z 25007KT 15SM FEW080 FEW280 19/14 A2993 RMK AC1CI0 SLP136

CYXE;2007-07-02 05:00;CYXE 020500Z 27006KT 15SM FEW080 FEW280 16/14 A2993 RMK AC1CI0 SLP138

CYXE;2007-07-02 06:00;CYXE 020600Z 32004KT 15SM SKC 16/13 A2994 RMK SLP142

CYXE;2007-07-02 07:00;CYXE 020700Z 28002KT 15SM SKC 15/14 A2994 RMK SLP143

CYXE;2007-07-02 08:00;CYXE 020800Z 23003KT 15SM FEW300 14/14 A2995 RMK CI0 SLP145

CYXE;2007-07-02 09:00;CYXE 020900Z 27005KT 15SM FEW300 14/13 A2995 RMK CI0 SLP145

CYXE;2007-07-02 10:00;CYXE 021000Z 29005KT 15SM FEW300 13/12 A2995 RMK CI0 BR PTCHS SLP145

CYXE;2007-07-02 11:00;CYXE 021100Z 27003KT 15SM SCT300 12/12 A2997 RMK CI1 BR PTCHS SLP151

CYXE;2007-07-02 12:00;CYXE 021200Z 32003KT 15SM BKN300 13/13 A2996 RMK CI1 SLP151

CYXE;2007-07-02 13:00;CYXE 021300Z 34002KT 15SM BKN300 16/15 A2997 RMK CI1 SLP153

CYXE;2007-07-02 14:00;CYXE 021400Z 01002KT 15SM BKN300 19/15 A2998 RMK CI1 SLP155

CYXE;2007-07-02 15:00;CYXE 021500Z 02005KT 15SM BKN300 21/15 A2997 RMK CI1 SLP152

CYXE;2007-07-02 16:00;CYXE 021600Z 05005KT 15SM FEW060 BKN300 22/14 A2996 RMK CU1CI0 SLP148

CYXE;2007-07-02 17:00;CYXE 021700Z 08006KT 15SM FEW100 BKN300 24/14 A2995 RMK AC1CI1 SLP145

CYXE;2007-07-02 18:00;CYXE 021800Z 08006KT 15SM FEW100 BKN300 25/00 A2995 RMK AC1CI1 SLP144

CYXE;2007-07-02 19:00;CYXE 021900Z 07007KT 15SM FEW100 BKN300 26/14 A2994 RMK AC2CI1 SLP141

CYXE;2007-07-02 20:00;CYXE 022000Z 13007KT 15SM FEW100 BKN300 27/14 A2993 RMK CU2CI1 SLP137

CYXE;2007-07-02 21:00;CYXE 022100Z 13006KT 15SM FEW100 BKN300 29/13 A2992 RMK CU2CI1 SLP135

CYXE;2007-07-02 22:00;CYXE 022200Z 10007KT 15SM SCT120 BKN300 29/14 A2991 RMK ACC2CI2 SLP132

CYXE;2007-07-02 23:00;CYXE 022300Z 12007KT 15SM BKN100 BKN300 29/14 A2991 RMK AC5CI1 CB TOP AND SH SW SLP130

CYXE;2007-07-02 23:39;CYXE 022339Z 13010G16KT 15SM FEW063 BKN100 BKN300 27/ RMK CF2AC3CI2

CYXE;2007-07-02 23:42;CYXE 022342Z 13010G16KT 15SM -SHRA FEW063 BKN100 BKN300 27/ RMK CF2AC3CI2

CYXE;2007-07-02 23:49;CYXE 022349Z 14006KT 15SM -TSRA FEW063CB BKN100 BKN300 25/ RMK CB2AC3CI2

CYXE;2007-07-03 00:00;CYXE 030000Z 14006KT 15SM -TSRA SCT063CB BKN100 OVC300 23/18 A2991 RMK CB4AC2CI1 SLP135

CYXE;2007-07-03 00:44;CYXE 030044Z 07007KT 15SM FEW063CB SCT100 BKN300 24/ RMK CB1AC3CI1 RETS CB E

CYXE;2007-07-03 01:00;CYXE 030100Z 07006KT 15SM FEW063 SCT100 BKN300 24/18 A2989 RMK CU2AC2CI1 RETS CB E SLP128

CYXE;2007-07-03 02:00;CYXE 030200Z 06007KT 15SM FEW060 FEW100 BKN300 25/17 A2990 RMK CU1AC1CI1 SLP131

CYXE;2007-07-03 03:00;CYXE 030300Z 04006KT 15SM FEW060TCU SCT300 23/16 A2991 RMK TCU2CI1 SLP129

CYXE;2007-07-03 04:00;CYXE 030400Z 05008KT 15SM FEW060TCU FEW300 20/17 A2991 RMK TCU2CI0 LTNG DIST NW SLP131

CYXE;2007-07-03 05:00;CYXE 030500Z 13006KT 15SM FEW060CB FEW100 19/15 A2992 RMK CB1AC1 LTGCG N SLP133

CYXE;2007-07-03 06:00;CYXE 030600Z 06007KT 15SM FEW060CB BKN300 19/16 A2992 RMK CB1CI1 LTNG N SLP134

CYXE;2007-07-03 07:00;CYXE 030700Z 36003KT 15SM SCT300 17/16 A2991 RMK CI1 CB + LTNG DIST NE SLP130

CYXE;2007-07-03 08:00;CYXE 030800Z 36005KT 15SM FEW300 16/15 A2993 RMK CI0 SLP135

CYXE;2007-07-03 09:00;CYXE 030900Z 00000KT 15SM SCT300 16/14 A2995 RMK CI1 SLP141

CYXE;2007-07-03 10:00;CYXE 031000Z 36005KT 15SM BKN300 15/13 A2997 RMK CI1 SLP150

CYXE;2007-07-03 11:00;CYXE 031100Z 32005KT 15SM SCT300 15/13 A2999 RMK CI1 SLP157

CYXE;2007-07-03 12:00;CYXE 031200Z 32005KT 15SM BKN300 15/13 A3002 RMK CI1 SLP169

CYXE;2007-07-03 13:00;CYXE 031300Z 32005KT 15SM BKN300 16/14 A3003 RMK CI1 SLP174

CYXE;2007-07-03 14:00;CYXE 031400Z CCA 32005KT 15SM BKN300 18/14 A3004 RMK CI1 SLP176

CYXE;2007-07-03 15:00;CYXE 031500Z CCA 36005KT 15SM BKN300 19/15 A3004 RMK CI1 SLP176

CYXE;2007-07-03 16:00;CYXE 031600Z 27005KT 15SM FEW300 21/15 A3006 RMK CI1 SLP180

CYXE;2007-07-03 17:00;CYXE 031700Z 32005KT 15SM FEW300 24/15 A3006 RMK CI1 SLP181

CYXE;2007-07-03 18:00;CYXE 031800Z 34004KT 15SM SKC 25/14 A3006 RMK SLP180

CYXE;2007-07-03 19:00;CYXE 031900Z 30005KT 15SM FEW100 26/14 A3006 RMK CU1 SLP181

CYXE;2007-07-03 20:00;CYXE 032000Z 32010KT 15SM FEW100 26/15 A3006 RMK CU1 SLP182

CYXE;2007-07-03 21:00;CYXE 032100Z 30009KT 15SM FEW100 26/13 A3006 RMK CU1 SLP183

CYXE;2007-07-03 22:00;CYXE 032200Z 31006KT 15SM FEW056 FEW300 27/12 A3006 RMK CU1CI0 SLP182

CYXE;2007-07-03 23:00;CYXE 032300Z 31003KT 15SM FEW052 FEW300 27/14 A3005 RMK CU1CI0 SLP180

CYXE;2007-07-04 00:00;CYXE 040000Z 26007KT 15SM FEW052 FEW300 27/12 A3005 RMK CU1CI0 SLP178

CYXE;2007-07-04 01:00;CYXE 040100Z 26006KT 15SM FEW052 FEW300 26/15 A3004 RMK CU1CI0 SLP175

CYXE;2007-07-04 02:00;CYXE 040200Z 25005KT 15SM FEW130 25/18 A3004 RMK AC2 SLP175

CYXE;2007-07-04 03:00;CYXE 040300Z 24003KT 15SM FEW130 BKN300 22/18 A3003 RMK AC2CI0 SLP171

CYXE;2007-07-04 04:00;CYXE 040400Z 26003KT 15SM BKN130 21/17 A3003 RMK AC5 SLP172

CYXE;2007-07-04 05:00;CYXE 040500Z 22004KT 15SM BKN093 21/16 A3003 RMK AC7 SLP171

CYXE;2007-07-04 06:00;CYXE 040600Z 22004KT 15SM BKN090 20/16 A3003 RMK AC7 SLP169

CYXE;2007-07-04 07:00;CYXE 040700Z 25005KT 15SM SCT070 OVC100 20/15 A3002 RMK AC3AC5 LTNG DIST NE SLP168

CYXE;2007-07-04 07:27;CYXE 040727Z 26005KT 15SM TS BKN070 OVC100 19/ RMK AC5AC3 CB EMBD LTGICCG NW

CYXE;2007-07-04 08:00;CYXE 040800Z 25006KT 15SM BKN075 OVC100 19/14 A3003 RETS RMK AC5AC3 CB EMBD LTNG DIST ALQDS SLP170

CYXE;2007-07-04 08:11;CYXE 040811Z 32006KT 15SM SHRA BKN075 OVC100 18/ RMK ACC6AC2 CB EMBD LTNG DIST ALQDS

CYXE;2007-07-04 08:24;CYXE 040824Z 23003KT 15SM BKN080 OVC300 18/ RERA RMK ACC5CI2 CB + LTNG DIST ALQDS

CYXE;2007-07-04 09:00;CYXE 040900Z 24007KT 15SM BKN080 BKN300 18/15 A3004 RERA RMK AC5CI1 SLP173

CYXE;2007-07-04 10:00;CYXE 041000Z 25007KT 15SM BKN080 BKN300 19/15 A3003 RMK AC5CI1 LTNG DIST SE SLP171

CYXE;2007-07-04 11:00;CYXE 041100Z 23006KT 15SM FEW080 BKN300 16/14 A3004 RMK ACC2CI0 SLP174

CYXE;2007-07-04 12:00;CYXE 041200Z 28006KT 15SM FEW080 BKN300 16/14 A3005 RMK AC1CI0 SLP179

CYXE;2007-07-04 13:00;CYXE 041300Z 31008KT 15SM FEW300 18/16 A3006 RMK CI0 SLP182

CYXE;2007-07-04 14:00;CYXE 041400Z 32009KT 15SM FEW300 20/16 A3007 RMK CI0 SLP185

CYXE;2007-07-04 15:00;CYXE 041500Z 31010KT 15SM SCT300 21/16 A3008 RMK CI0 SLP190

CYXE;2007-07-04 16:00;CYXE 041600Z 31010KT 15SM SCT300 23/15 A3009 RMK CI0 SLP193

CYXE;2007-07-04 17:00;CYXE 041700Z 30012KT 15SM SCT300 24/14 A3011 RMK CI0 SLP199

CYXE;2007-07-04 18:00;CYXE 041800Z 32016KT 15SM SCT300 24/13 A3011 RMK CI0 SLP198

CYXE;2007-07-04 19:00;CYXE 041900Z 32014KT 15SM FEW100 SCT300 24/14 A3011 RMK CU1CI0 SLP198

CYXE;2007-07-04 20:00;CYXE 042000Z 30014G22KT 15SM FEW090 SCT300 25/14 A3012 RMK CU1CI0 SLP200

CYXE;2007-07-04 21:00;CYXE 042100Z 32015G21KT 15SM FEW060 SCT300 25/13 A3011 RMK CU1CI0 SLP197

CYXE;2007-07-04 22:00;CYXE 042200Z 31012G18KT 15SM FEW060 FEW300 25/13 A3010 RMK CU2CI0 SLP196

CYXE;2007-07-04 23:00;CYXE 042300Z 31012G19KT 15SM FEW045 25/13 A3009 RMK CU2 SLP193

CYXE;2007-07-05 00:00;CYXE 050000Z 31012G17KT 15SM FEW050 25/13 A3009 RMK CU1 SLP194

CYXE;2007-07-05 01:00;CYXE 050100Z 32009G15KT 15SM FEW050 24/14 A3009 RMK CU1 SLP194

CYXE;2007-07-05 02:00;CYXE 050200Z 30007KT 15SM SKC 22/15 A3009 RMK SLP194

CYXE;2007-07-05 03:00;CYXE 050300Z 29007KT 15SM SKC 19/16 A3010 RMK SLP196

CYXE;2007-07-05 04:00;CYXE 050400Z 29006KT 15SM SKC 17/15 A3012 RMK SLP202

CYXE;2007-07-05 05:00;CYXE 050500Z 26005KT 15SM SKC 17/15 A3012 RMK SLP202

CYXE;2007-07-05 06:00;CYXE 050600Z 26006KT 15SM SKC 16/15 A3013 RMK SLP206

CYXE;2007-07-05 07:00;CYXE 050700Z 27005KT 15SM SKC 15/14 A3013 RMK SLP208

CYXE;2007-07-05 08:00;CYXE 050800Z 28005KT 15SM SKC 14/14 A3013 RMK SLP208

CYXE;2007-07-05 09:00;CYXE 050900Z 27007KT 15SM SKC 14/13 A3014 RMK SLP211

CYXE;2007-07-05 10:00;CYXE 051000Z 26005KT 15SM SKC 14/14 A3015 RMK SLP213

CYXE;2007-07-05 11:00;CYXE 051100Z 22003KT 15SM MIFG SKC 14/14 A3016 RMK SLP216

CYXE;2007-07-05 12:00;CYXE 051200Z 26002KT 15SM SKC 15/14 A3017 RMK SLP219

CYXE;2007-07-05 13:00;CYXE 051300Z 25005KT 15SM FEW180 17/15 A3017 RMK AC1 SLP219

CYXE;2007-07-05 14:00;CYXE 051400Z 20002KT 15SM FEW180 19/16 A3017 RMK AC1 SLP221

CYXE;2007-07-05 15:00;CYXE 051500Z 25002KT 15SM FEW300 22/17 A3017 RMK CI0 SLP219

CYXE;2007-07-05 16:00;CYXE 051600Z 25004KT 15SM FEW030 FEW300 24/17 A3016 RMK CF1CI0 SLP216

CYXE;2007-07-05 17:00;CYXE 051700Z 23005KT 15SM FEW030 FEW300 26/17 A3016 RMK CF1CI0 SLP215

CYXE;2007-07-05 18:00;CYXE 051800Z 24005KT 15SM FEW044 FEW110 26/16 A3015 RMK CU1ACC1 SLP211

CYXE;2007-07-05 19:00;CYXE 051900Z 23006KT 15SM FEW044 27/16 A3012 RMK CU1 SLP204

CYXE;2007-07-05 20:00;CYXE 052000Z 21008KT 15SM FEW046 FEW110 28/16 A3011 RMK CU1AC1 SLP200

CYXE;2007-07-05 21:00;CYXE 052100Z 18006KT 15SM FEW050 28/15 A3009 RMK CU1 SLP193

CYXE;2007-07-05 22:00;CYXE 052200Z 22008KT 15SM FEW053 28/15 A3007 RMK CU1 SLP186

CYXE;2007-07-05 23:00;CYXE 052300Z 20011KT 15SM FEW051 28/16 A3005 RMK CU1 SLP180

CYXE;2007-07-06 00:00;CYXE 060000Z 17008KT 15SM FEW053 29/15 A3002 RMK CU1 SLP168

CYXE;2007-07-06 01:00;CYXE 060100Z 14010KT 15SM SKC 28/17 A2999 RMK SLP159

CYXE;2007-07-06 02:00;CYXE 060200Z 15012G17KT 15SM SKC 27/17 A2997 RMK SLP152

CYXE;2007-07-06 03:00;CYXE 060300Z 15011G16KT 15SM FEW300 25/17 A2995 RMK CI0 SLP142

CYXE;2007-07-06 04:00;CYXE 060400Z 16013KT 15SM FEW300 24/17 A2994 RMK CI1 SLP137

CYXE;2007-07-06 05:00;CYXE 060500Z 17012KT 15SM FEW100 FEW300 23/16 A2991 RMK AC1CI0 SLP130

CYXE;2007-07-06 06:00;CYXE 060600Z 17011KT 15SM FEW300 23/15 A2990 RMK CI0 SLP123

CYXE;2007-07-06 07:00;CYXE 060700Z 19015G21KT 15SM SKC 23/15 A2987 RMK SLP115

CYXE;2007-07-06 08:00;CYXE 060800Z 19012G17KT 15SM SKC 21/15 A2985 RMK SLP107

CYXE;2007-07-06 09:00;CYXE 060900Z 20011KT 15SM FEW120 20/14 A2984 RMK AC1 SLP104

CYXE;2007-07-06 10:00;CYXE 061000Z 20010KT 15SM FEW120 FEW300 20/14 A2983 RMK AC1CI0 SLP100

CYXE;2007-07-06 11:00;CYXE 061100Z 19009KT 15SM FEW120 FEW300 19/14 A2982 RMK AC1CI0 SLP097

CYXE;2007-07-06 12:00;CYXE 061200Z 19007KT 15SM FEW120 FEW300 19/14 A2981 RMK AC1CI0 SLP091

CYXE;2007-07-06 13:00;CYXE 061300Z 20004KT 15SM FEW060 SCT300 21/15 A2980 RMK CU1CI1 SLP088

CYXE;2007-07-06 14:00;CYXE 061400Z 19009KT 15SM FEW075 BKN300 22/15 A2978 RMK AC1CI1 SLP084

CYXE;2007-07-06 15:00;CYXE 061500Z 23006KT 15SM FEW028 FEW110 BKN300 24/17 A2977 RMK CU1AC1CI1 SLP079

CYXE;2007-07-06 16:00;CYXE 061600Z 23010KT 15SM FEW110 FEW300 26/17 A2976 RMK AC1CI1 SLP074

CYXE;2007-07-06 17:00;CYXE 061700Z 23009KT 15SM FEW110 FEW300 27/19 A2973 RMK AC1CI1 CONTRAILS SLP066

CYXE;2007-07-06 18:00;CYXE 061800Z 28009KT 15SM FEW300 27/18 A2974 RMK CI1 SLP068

CYXE;2007-07-06 19:00;CYXE 061900Z 28005KT 15SM SCT300 28/18 A2973 RMK CI0 SLP064

CYXE;2007-07-06 20:00;CYXE 062000Z 32007KT 15SM BKN300 30/21 A2973 RMK CI0 CONTRAILS SLP065

CYXE;2007-07-06 21:00;CYXE 062100Z 34005KT 15SM FEW040TCU BKN300 30/20 A2972 RMK TCU1CI2 CONTRAILS SLP061

CYXE;2007-07-06 22:00;CYXE 062200Z 32006KT 15SM FEW040TCU BKN300 30/21 A2972 RMK TCU1CI2 SLP062

CYXE;2007-07-06 23:00;CYXE 062300Z 33008KT 15SM BKN300 30/21 A2972 RMK CI1 CB TOP N MOVG E SLP062

CYXE;2007-07-07 00:00;CYXE 070000Z 32005KT 15SM SCT300 30/21 A2972 RMK CI0 CB TOP E MOVG S SLP060

CYXE;2007-07-07 01:00;CYXE 070100Z 33005KT 15SM FEW031 FEW270 29/23 A2971 RMK CU1CI0 SLP057

CYXE;2007-07-07 02:00;CYXE 070200Z 35002KT 15SM FEW270 29/24 A2969 RMK CI0 SLP053

CYXE;2007-07-07 03:00;CYXE 070300Z 07006KT 15SM FEW080 FEW270 25/22 A2968 RMK AC1CI1 SLP048

CYXE;2007-07-07 04:00;CYXE 070400Z 05006KT 15SM FEW012TCU FEW080 FEW270 23/21 A2968 RMK TCU1AC1CI0 TCU MOVG E SLP049

CYXE;2007-07-07 05:00;CYXE 070500Z 36004KT 15SM FEW080 SCT270 21/20 A2971 RMK AC2CI0 ACC EMBD HZ SLP056

CYXE;2007-07-07 06:00;CYXE 070600Z 03009KT 15SM FEW080 SCT270 21/19 A2971 RMK AC1CI0 SLP059

CYXE;2007-07-07 07:00;CYXE 070700Z 03011KT 15SM SCT040 SCT270 21/18 A2969 RMK SC3CI0 LTGIC DIST S SLP052

CYXE;2007-07-07 07:41;CYXE 070741Z 06005KT 15SM -RA SCT060 BKN100 21/ RMK SC3AC2 LTNG ALQDS

CYXE;2007-07-07 08:00;CYXE 070800Z 04006KT 15SM -RA SCT050 OVC092 20/18 A2972 RMK SC3AC5 LTNG ALQDS SLP061

CYXE;2007-07-07 09:00;CYXE 070900Z 02016KT 15SM SCT060 BKN090 20/18 A2967 RMK SC3AC4 SLP045

CYXE;2007-07-07 09:21;CYXE 070921Z 04015KT 15SM TS SCT070CB OVC090 20/ RMK CB4AC4

CYXE;2007-07-07 09:44;CYXE 070944Z 35036G48KT 10SM TSRA BKN060CB OVC100 20/ RMK CB6AC2

CYXE;2007-07-07 10:00;CYXE 071000Z 35026G39KT 10SM TSRA BKN030CB OVC100 17/16 A2972 RMK CB7AC1 PRESRR SLP062

CYXE;2007-07-07 10:24;CYXE 071024Z 02013G20KT 15SM -SHRA FEW015 BKN030CB BKN100 16/ RMK SF1CB6AC1

CYXE;2007-07-07 10:46;CYXE 071046Z 02007KT 15SM TS FEW015 BKN030 BKN100 17/ RMK SF1SC6AC1

CYXE;2007-07-07 11:00;CYXE 071100Z 02008KT 15SM TS FEW015 BKN030CB BKN100 17/16 A2973 RMK SF1CB6AC1 LTNG AND VIRGA SW SLP065

CYXE;2007-07-07 11:55;CYXE 071155Z 03008KT 15SM BKN030 BKN100 17/ RMK SC5AC2 RETS

CYXE;2007-07-07 12:00;CYXE 071200Z 02007KT 15SM BKN030 BKN100 17/16 A2974 RETS RMK SC5AC2 SLP069

CYXE;2007-07-07 12:38;CYXE 071238Z 04008KT 10SM -RA BKN030 BKN095 18/ RMK SC6AC2

CYXE;2007-07-07 13:00;CYXE 071300Z 01006KT 15SM BKN030 BKN095 18/16 A2975 RERA RMK SC5AC1 /R01/ SLP071

CYXE;2007-07-07 14:00;CYXE 071400Z 33013KT 15SM FEW025 FEW095 FEW250 20/17 A2978 RMK SC1AC1CI1 CU ASOCTD SLP081

CYXE;2007-07-07 15:00;CYXE 071500Z 33014KT 15SM FEW095 BKN250 21/15 A2980 RMK AC1CI2 SLP090

CYXE;2007-07-07 16:00;CYXE 071600Z 32011KT 15SM FEW095 SCT250 21/15 A2980 RMK AC2CI1 ACC ASOCTD SLP091

CYXE;2007-07-07 17:00;CYXE 071700Z 32012KT 15SM FEW095 SCT250 22/15 A2980 RMK AC2CI0 SLP091

CYXE;2007-07-07 18:00;CYXE 071800Z 31009G18KT 15SM FEW110 SCT250 23/16 A2982 RMK AC2CI0 SLP098

CYXE;2007-07-07 19:00;CYXE 071900Z 33013KT 15SM FEW030 FEW110 SCT250 24/16 A2982 RMK CU1AC2CI0 SLP100

CYXE;2007-07-07 20:00;CYXE 072000Z 32013G18KT 15SM FEW030TCU FEW110 BKN250 24/15 A2982 RMK TCU1AC1CI1 TCU N SLP100

CYXE;2007-07-07 21:00;CYXE 072100Z 30012KT 15SM FEW047 SCT110 BKN250 24/14 A2983 RMK CU1AC2CI1 TCU ASOCTD SLP102

CYXE;2007-07-07 22:00;CYXE 072200Z 32012G17KT 15SM FEW054 BKN110 OVC270 24/12 A2984 RMK CU2AC3CI1 TCU ASOCTD SLP104

CYXE;2007-07-07 23:00;CYXE 072300Z 30013G19KT 15SM FEW058 SCT110 BKN270 23/13 A2984 RMK CU2AC1CI2 TCU ASOCTD SLP105

CYXE;2007-07-08 00:00;CYXE 080000Z 31012G17KT 15SM FEW058 BKN270 23/12 A2984 RMK CU2CI2 TCU ASOCTD SLP107

CYXE;2007-07-08 01:00;CYXE 080100Z 32011KT 15SM FEW048TCU FEW084 FEW270 22/11 A2984 RMK TCU1AC1CI1 CB ASOCTD SLP108

CYXE;2007-07-08 02:00;CYXE 080200Z 31009KT 15SM FEW040TCU FEW250 21/11 A2985 RMK TCU1CI1 CB TOP NE MOVG S SLP109

CYXE;2007-07-08 03:00;CYXE 080300Z 30008KT 15SM FEW040TCU FEW250 17/12 A2986 RMK TCU1CI1 SLP114

CYXE;2007-07-08 04:00;CYXE 080400Z 28007KT 15SM FEW045 SCT270 15/12 A2986 RMK SC1CI2 SLP117

CYXE;2007-07-08 05:00;CYXE 080500Z 02008KT 15SM SCT071 BKN270 15/13 A2989 RMK AC2CI0 SLP125

CYXE;2007-07-08 06:00;CYXE 080600Z 36002KT 15SM FEW070 FEW270 14/12 A2989 RMK AC1CI0 SLP127

CYXE;2007-07-08 07:00;CYXE 080700Z 28004KT 15SM FEW250 13/13 A2991 RMK CI1 SLP132

CYXE;2007-07-08 08:00;CYXE 080800Z 29004KT 15SM FEW250 12/11 A2991 RMK CI1 SLP134

CYXE;2007-07-08 09:00;CYXE 080900Z 31005KT 15SM FEW090 FEW250 11/11 A2991 RMK AC1CI0 SLP134

CYXE;2007-07-08 10:00;CYXE 081000Z 36006KT 15SM FEW070 BKN250 10/10 A2994 RMK AC2CI1 SLP142

CYXE;2007-07-08 11:00;CYXE 081100Z 34003KT 15SM FEW070 SCT250 10/10 A2994 RMK AC1CI1 SLP143

CYXE;2007-07-08 12:00;CYXE 081200Z 34005KT 15SM FEW070 FEW250 11/10 A2995 RMK AC1CI1 SLP149

CYXE;2007-07-08 13:00;CYXE 081300Z 34006KT 15SM FEW250 14/12 A2996 RMK CI1 SLP151

CYXE;2007-07-08 14:00;CYXE 081400Z 34005KT 15SM SCT250 15/12 A2998 RMK CI0 SLP157

CYXE;2007-07-08 15:00;CYXE 081500Z 34005KT 15SM SCT250 16/12 A2999 RMK CI0 SLP161

CYXE;2007-07-08 16:00;CYXE 081600Z 34005KT 15SM FEW030 FEW120 18/10 A2999 RMK CU1AC1 SLP161

CYXE;2007-07-08 17:00;CYXE 081700Z 35010KT 15SM FEW035 FEW300 19/10 A2999 RMK CU1CI0 SLP163

CYXE;2007-07-08 18:00;CYXE 081800Z 34009KT 15SM SCT040 SCT300 20/11 A2999 RMK CU3CI0 SLP163

CYXE;2007-07-08 19:00;CYXE 081900Z 02008KT 15SM SCT045 BKN300 21/12 A2999 RMK CU4CI0 SLP161

CYXE;2007-07-08 20:00;CYXE 082000Z 29006KT 15SM SCT045 BKN300 21/10 A2998 RMK CU4CI0 SLP160

CYXE;2007-07-08 21:00;CYXE 082100Z 35007KT 15SM BKN050 BKN300 21/10 A2998 RMK CU5CI1 SLP161

CYXE;2007-07-08 22:00;CYXE 082200Z 25004KT 15SM BKN060 BKN300 22/11 A2997 RMK CU5CI1 SLP157

CYXE;2007-07-08 23:00;CYXE 082300Z 35007KT 15SM SCT052 BKN084 BKN300 20/12 A2998 RMK CU3AC2CI1 SLP159

CYXE;2007-07-09 00:00;CYXE 090000Z 05003KT 15SM FEW041 SCT086 BKN300 20/11 A2996 RMK CU2AC2CI1 SLP155

CYXE;2007-07-09 01:00;CYXE 090100Z 02003KT 15SM FEW040TCU FEW100 BKN300 21/10 A2996 RMK TCU1AC1CI0 SLP154

CYXE;2007-07-09 02:00;CYXE 090200Z 06004KT 15SM FEW040 BKN300 19/12 A2995 RMK CU1CI0 SLP152

CYXE;2007-07-09 03:00;CYXE 090300Z 06005KT 15SM FEW100 BKN300 16/11 A2996 RMK AC1CI1 SLP152

CYXE;2007-07-09 04:00;CYXE 090400Z 10007KT 15SM FEW100 BKN300 14/11 A2995 RMK AC2CI2 SLP150

CYXE;2007-07-09 05:00;CYXE 090500Z 09005KT 15SM SCT100 BKN300 14/10 A2995 RMK AC2CI2 SLP149

CYXE;2007-07-09 06:00;CYXE 090600Z 13006KT 15SM BKN100 OVC300 15/11 A2994 RMK AC5CI3 SLP144

CYXE;2007-07-09 07:00;CYXE 090700Z 14006KT 15SM BKN100 OVC300 16/11 A2992 RMK AC6CI2 SLP137

CYXE;2007-07-09 08:00;CYXE 090800Z 17007KT 15SM OVC080 16/11 A2991 RMK AC8 SLP135

CYXE;2007-07-09 08:41;CYXE 090841Z 18008KT 15SM -SHRA OVC060 16/ RMK SC8

CYXE;2007-07-09 09:00;CYXE 090900Z 18014KT 15SM -SHRA OVC055 16/10 A2989 RMK SC8 SLP127

CYXE;2007-07-09 09:42;CYXE 090942Z 18013KT 15SM OVC057 17/ RMK SC8

CYXE;2007-07-09 10:00;CYXE 091000Z 18013KT 15SM BKN080 OVC250 16/10 A2988 RMK AC6CI2 SLP122

CYXE;2007-07-09 10:48;CYXE 091048Z 17006KT 15SM -SHRA BKN055 OVC080 14/ RMK SC6AC2

CYXE;2007-07-09 11:00;CYXE 091100Z 16006KT 15SM -SHRA OVC055 15/12 A2988 RMK SC8 SLP122

CYXE;2007-07-09 11:50;CYXE 091150Z CCA 16005KT 8SM RA SCT025 OVC050 14/ RMK SC3SC5 BR

CYXE;2007-07-09 11:52;CYXE 091152Z CCB 16005KT 8SM RA SCT025 OVC050 14/ RMK SC3SC5 BR

CYXE;2007-07-09 12:00;CYXE 091200Z 16005KT 8SM RA BKN025 OVC040 14/13 A2987 RMK SC5SC3 BR SLP122

CYXE;2007-07-09 13:00;CYXE 091300Z 15006KT 15SM -RA BKN035 OVC080 14/13 A2986 RERA RMK SC6AC2 SLP118

CYXE;2007-07-09 13:25;CYXE 091325Z 15006KT 15SM BKN035 OVC085 15/ RMK SC6AC2

CYXE;2007-07-09 14:00;CYXE 091400Z 16006KT 15SM OVC050 15/13 A2985 RMK SC8 SLP113

CYXE;2007-07-09 15:00;CYXE 091500Z 16005KT 15SM OVC045 15/13 A2984 RMK SC8 SLP113

CYXE;2007-07-09 16:00;CYXE 091600Z 14008KT 15SM FEW012 SCT050 OVC250 15/13 A2981 RMK SC1SC3CS4 SLP104

CYXE;2007-07-09 17:00;CYXE 091700Z 13005KT 15SM OVC015 15/13 A2983 RMK SC8 SLP109

CYXE;2007-07-09 17:09;CYXE 091709Z 15002KT 15SM OVC013 15/ RMK SC8

CYXE;2007-07-09 18:00;CYXE 091800Z 13004KT 15SM OVC013 15/13 A2983 RMK SC8 SLP109

CYXE;2007-07-09 19:00;CYXE 091900Z 12007KT 15SM BKN010 OVC030 17/14 A2983 RMK SC7SC1 SLP109

CYXE;2007-07-09 20:00;CYXE 092000Z 11006KT 15SM BKN013 BKN300 17/14 A2982 RMK CU5CI2 CB DIST SW SLP106

CYXE;2007-07-09 20:28;CYXE 092028Z 13005KT 15SM -SHRA BKN015 OVC040 16/ RMK SC5SC2 CB EMBD

CYXE;2007-07-09 20:47;CYXE 092047Z 13007KT 15SM SCT014 BKN040CB OVC300 16/ RMK SC4CB2CI2

CYXE;2007-07-09 21:00;CYXE 092100Z CCA 14007KT 15SM -SHRA SCT015 BKN040CB OVC300 16/14 A2983 RMK SC3CB3CI2 SLP108

CYXE;2007-07-09 21:14;CYXE 092114Z 21004KT 15SM -SHRA BKN012 OVC040CB 15/ RMK SC5CB3

CYXE;2007-07-09 21:22;CYXE 092122Z 16006KT 15SM -TSRA BKN012 OVC030CB 16/ RMK SC5CB3

CYXE;2007-07-09 22:00;CYXE 092200Z 14004KT 15SM -TSRA SCT012 OVC037CB 15/14 A2985 RERA RMK SC4CB4 SLP113

CYXE;2007-07-09 22:41;CYXE 092241Z 17003KT 15SM -SHRA FEW012 BKN021 BKN078 16/ RETS RMK SF1SC4AC2 CB TOP SE

CYXE;2007-07-09 23:00;CYXE 092300Z 27004KT 15SM -SHRA FEW012 SCT034 BKN078 17/14 A2985 RETS RMK SF1SC3AC2 CB TOP SE SLP113

CYXE;2007-07-09 23:33;CYXE 092333Z 30006KT 15SM FEW012 SCT042 BKN082 BKN300 17/ RMK SF1SC2AC2CI0 CB TOP SE

CYXE;2007-07-10 00:00;CYXE 100000Z 30007KT 15SM FEW012 FEW042 SCT084 BKN300 17/14 A2985 RMK SF1SC1AC1CI1 SLP117

CYXE;2007-07-10 00:33;CYXE 100033Z 31011KT 10SM -SHRA BKN031 OVC084 16/ RMK SC6AC2

CYXE;2007-07-10 01:00;CYXE 100100Z 31011KT 15SM -SHRA FEW013 BKN031 17/15 A2986 RMK SF2SC4 SLP121

CYXE;2007-07-10 02:00;CYXE 100200Z 35010G15KT 15SM -SHRA BKN032 BKN085 14/13 A2989 RMK SC5AC2 SLP129

CYXE;2007-07-10 02:41;CYXE 100241Z 33017KT 15SM SCT019 BKN054 14/ RMK CU4SC3

CYXE;2007-07-10 03:00;CYXE 100300Z 34017G25KT 15SM BKN017 BKN060 14/12 A2993 RMK SC6SC2 SLP146

CYXE;2007-07-10 04:00;CYXE 100400Z 33014KT 15SM FEW035 FEW079 12/10 A2997 RMK SC1AC1 SLP158

CYXE;2007-07-10 05:00;CYXE 100500Z 32014KT 15SM BKN028 12/10 A2999 RMK SC6 SLP164

CYXE;2007-07-10 06:00;CYXE 100600Z 35018G27KT 15SM SCT019 OVC029 12/10 A3000 RMK SC3SC3 SLP170

CYXE;2007-07-10 07:00;CYXE 100700Z 36015G20KT 15SM SCT012 OVC021 11/10 A3003 RMK SF4SC4 SLP181

CYXE;2007-07-10 08:00;CYXE 100800Z 34013KT 15SM FEW012 FEW065 10/10 A3007 RMK SF1AC2 SLP191

CYXE;2007-07-10 09:00;CYXE 100900Z 33006KT 15SM FEW010 FEW070 SCT250 09/09 A3008 RMK SF1AC1CI0 SLP199

CYXE;2007-07-10 10:00;CYXE 101000Z 31006KT 15SM FEW070 FEW250 08/08 A3009 RMK AC1CI0 SLP202

CYXE;2007-07-10 11:00;CYXE 101100Z 31007KT 15SM FEW070 FEW250 09/09 A3010 RMK AC1CI0 SLP205

CYXE;2007-07-10 12:00;CYXE 101200Z 31006KT 15SM FEW070 FEW250 09/09 A3011 RMK AC1CI0 SLP208

CYXE;2007-07-10 13:00;CYXE 101300Z 30008KT 15SM FEW070 11/10 A3012 RMK AC1 SLP212

CYXE;2007-07-10 14:00;CYXE 101400Z 30008KT 15SM FEW070 13/11 A3014 RMK AC1 SLP217

CYXE;2007-07-10 15:00;CYXE 101500Z 29008KT 15SM FEW030 FEW300 15/11 A3015 RMK CU1CI0 SLP219

CYXE;2007-07-10 16:00;CYXE 101600Z 30010KT 15SM FEW020 FEW100 FEW300 17/12 A3014 RMK CU1AC1CI0 SLP218

CYXE;2007-07-10 17:00;CYXE 101700Z 32011KT 15SM FEW030 SCT088 18/11 A3014 RMK CU2AC1 SLP218

CYXE;2007-07-10 18:00;CYXE 101800Z 32012KT 15SM SCT034 18/11 A3014 RMK CU3 SLP215

CYXE;2007-07-10 19:00;CYXE 101900Z 32011G18KT 15SM SCT042 19/10 A3013 RMK CU4 SLP213

CYXE;2007-07-10 20:00;CYXE 102000Z 32012KT 15SM SCT045 20/12 A3012 RMK CU4 SLP211

CYXE;2007-07-10 21:00;CYXE 102100Z 30009G16KT 15SM BKN045 21/11 A3012 RMK CU5 SLP208

CYXE;2007-07-10 22:00;CYXE 102200Z 32014G19KT 15SM BKN050 19/11 A3011 RMK CU5 FEW TCU VIRGA SLP206

CYXE;2007-07-10 23:00;CYXE 102300Z 36006KT 15SM FEW050 20/10 A3010 RMK CU2 SLP204

CYXE;2007-07-11 00:00;CYXE 110000Z 35005KT 15SM FEW050 21/10 A3009 RMK CU2 SLP199

CYXE;2007-07-11 01:00;CYXE 110100Z 32002KT 15SM SCT060 20/11 A3008 RMK SC3 SLP197

CYXE;2007-07-11 02:00;CYXE 110200Z 32004KT 15SM FEW060 FEW300 20/12 A3008 RMK SC1CI0 SLP196

CYXE;2007-07-11 03:00;CYXE 110300Z 31004KT 15SM FEW060 SCT300 17/11 A3008 RMK SC1CI1 SLP196

CYXE;2007-07-11 04:00;CYXE 110400Z 28005KT 15SM FEW090 BKN300 15/13 A3009 RMK AC2CI1 SLP197

CYXE;2007-07-11 05:00;CYXE 110500Z 26003KT 15SM SCT300 14/13 A3009 RMK CI1 SLP197

CYXE;2007-07-11 06:00;CYXE 110600Z 35002KT 15SM SKC 13/12 A3009 RMK SLP197

CYXE;2007-07-11 07:00;CYXE 110700Z 27006KT 15SM SKC 12/11 A3008 RMK SLP196

CYXE;2007-07-11 08:00;CYXE 110800Z 28006KT 15SM SKC 12/10 A3008 RMK SLP195

CYXE;2007-07-11 09:00;CYXE 110900Z 25005KT 15SM SKC 11/11 A3008 RMK SLP193

CYXE;2007-07-11 10:00;CYXE 111000Z 25004KT 15SM FEW100 11/11 A3007 RMK AC2 SLP192

CYXE;2007-07-11 11:00;CYXE 111100Z 23003KT 15SM FEW100 BKN300 10/10 A3007 RMK AC2CI0 MIFG SLP191

CYXE;2007-07-11 12:00;CYXE 111200Z 23003KT 15SM FEW100 BKN300 10/10 A3008 RMK AC2CI0 MIFG SLP195

CYXE;2007-07-11 13:00;CYXE 111300Z 25004KT 15SM BKN096 12/12 A3009 RMK AC6 SLP197

CYXE;2007-07-11 14:00;CYXE 111400Z 29002KT 15SM BKN096 BKN270 13/12 A3009 RMK AC6CI0 SLP198

CYXE;2007-07-11 15:00;CYXE 111500Z 29004KT 15SM SCT096 SCT270 17/14 A3008 RMK AC2CI0 SLP194

CYXE;2007-07-11 16:00;CYXE 111600Z 30005KT 15SM FEW096 SCT270 20/13 A3008 RMK AC2CI0 SLP193

CYXE;2007-07-11 17:00;CYXE 111700Z 34005KT 15SM FEW041 SCT096 BKN250 22/12 A3008 RMK CU1AC2CI0 TCU ASOCTD CONTRAILS SLP191

CYXE;2007-07-11 18:00;CYXE 111800Z 31003KT 15SM BKN053 OVC096 23/11 A3007 RMK CU6AC2 TCU ASOCTD SLP188

CYXE;2007-07-11 19:00;CYXE 111900Z 29007KT 15SM VCSH BKN050 OVC079 21/12 A3007 RMK SC5AC3 CVCTV CLD EMBD SLP188

CYXE;2007-07-11 20:00;CYXE 112000Z 30005KT 15SM FEW035 OVC079 21/13 A3006 RMK CU2AC6 SLP187

CYXE;2007-07-11 21:00;CYXE 112100Z 31006KT 15SM VCSH FEW035 OVC080 21/13 A3006 RMK CU1AC7 CVCTV CLD EMBD SLP187

CYXE;2007-07-11 22:00;CYXE 112200Z 26007KT 15SM FEW035 OVC085 21/13 A3006 RMK CU1AC6 SLP186

CYXE;2007-07-11 23:00;CYXE 112300Z 32005KT 15SM FEW035 BKN085 BKN100 22/14 A3006 RMK CU1AC6AC1 CB N SLP186

CYXE;2007-07-12 00:00;CYXE 120000Z 31004KT 15SM BKN090 22/12 A3004 RMK AC6 CB N SLP182

CYXE;2007-07-12 01:00;CYXE 120100Z 29003KT 15SM FEW100 FEW300 22/11 A3004 RMK AC1CI0 CB N SLP182

CYXE;2007-07-12 02:00;CYXE 120200Z 01002KT 15SM FEW100 FEW300 21/14 A3004 RMK AC1CI0 SLP181

CYXE;2007-07-12 03:00;CYXE 120300Z 01002KT 15SM FEW100 FEW300 19/14 A3004 RMK AC1CI0 SLP180

CYXE;2007-07-12 04:00;CYXE 120400Z 30002KT 15SM FEW100 FEW300 17/14 A3005 RMK AC1CI0 SLP183

CYXE;2007-07-12 05:00;CYXE 120500Z 14002KT 15SM FEW100 FEW300 16/14 A3006 RMK AC2CI0 SLP186

CYXE;2007-07-12 06:00;CYXE 120600Z 08002KT 15SM FEW100 15/13 A3007 RMK AC2 SLP187

CYXE;2007-07-12 07:00;CYXE 120700Z 22003KT 15SM SCT100 15/14 A3007 RMK AC4 SLP188

CYXE;2007-07-12 08:00;CYXE 120800Z 21003KT 15SM SCT100 14/14 A3008 RMK AC3 SLP189

CYXE;2007-07-12 09:00;CYXE 120900Z 19002KT 15SM FEW100 14/13 A3008 RMK AC2 SLP191

CYXE;2007-07-12 10:00;CYXE 121000Z 25005KT 15SM FEW100 12/12 A3008 RMK AC1 PRFG SLP194

CYXE;2007-07-12 11:00;CYXE 121100Z 21003KT 15SM PRFG FEW100 12/12 A3010 RMK AC1 SLP199

CYXE;2007-07-12 12:00;CYXE 121200Z 17002KT 15SM FEW100 12/12 RMK AC1 ALTM MISG SLP202

CYXE;2007-07-12 13:00;CYXE 121300Z 20003KT 15SM FEW100 15/14 A3011 RMK AC1 SLP204

CYXE;2007-07-12 14:00;CYXE 121400Z 22005KT 15SM FEW120 FEW250 18/14 A3012 RMK AC1CU0 CONTRAILS SLP205

CYXE;2007-07-12 15:00;CYXE 121500Z 19004KT 15SM FEW270 21/14 A3012 RMK CI0 SLP202

CYXE;2007-07-12 16:00;CYXE 121600Z 20004KT 15SM FEW270 22/14 A3012 RMK CI0 SLP202

CYXE;2007-07-12 17:00;CYXE 121700Z 19006KT 15SM FEW037 FEW270 23/14 A3011 RMK CU1CI1 SLP200

CYXE;2007-07-12 18:00;CYXE 121800Z 19009KT 14SM FEW040 SCT270 24/14 A3010 RMK CU2CI2 SLP198

CYXE;2007-07-12 19:00;CYXE 121900Z 25007KT 15SM BKN045 BKN270 24/14 A3009 RMK CU5CI0 SLP195

CYXE;2007-07-12 20:00;CYXE 122000Z 26007KT 15SM FEW050 SCT270 25/14 A3008 RMK CU2CI0 SLP190

CYXE;2007-07-12 21:00;CYXE 122100Z 26006KT 15SM FEW050 SCT270 26/15 A3007 RMK CU2CI1 SLP185

CYXE;2007-07-12 22:00;CYXE 122200Z 23007KT 15SM BKN047 BKN270 26/16 A3005 RMK CU5CI0 SLP180

CYXE;2007-07-12 23:00;CYXE 122300Z 25003KT 15SM FEW050 SCT270 25/17 A3004 RMK CU2CI0 SLP176

CYXE;2007-07-13 00:00;CYXE 130000Z 22002KT 15SM FEW055 FEW270 27/17 A3002 RMK CU1CI0 SLP170

CYXE;2007-07-13 01:00;CYXE 130100Z 23005KT 15SM FEW060 FEW270 26/19 A3000 RMK CU1CI1 SLP163

CYXE;2007-07-13 02:00;CYXE 130200Z 27003KT 15SM FEW060 FEW270 26/18 A2999 RMK CU1CI1 SLP161

CYXE;2007-07-13 03:00;CYXE 130300Z 22005KT 15SM FEW270 23/19 A2998 RMK CI0 SLP154

CYXE;2007-07-13 04:00;CYXE 130400Z 23006KT 15SM FEW100 21/19 A2998 RMK AC1 SLP153

CYXE;2007-07-13 05:00;CYXE 130500Z 23005KT 15SM FEW100 19/18 A2998 RMK AC1 SLP153

CYXE;2007-07-13 06:00;CYXE 130600Z 24006KT 15SM SKC 18/17 A2997 RMK SLP151

CYXE;2007-07-13 07:00;CYXE 130700Z 24005KT 15SM SKC 18/16 A2996 RMK SLP148

CYXE;2007-07-13 08:00;CYXE 130800Z 25006KT 15SM FEW057 18/16 A2995 RMK SC2 SLP146

CYXE;2007-07-13 09:00;CYXE 130900Z 27005KT 15SM FEW054 17/16 A2995 RMK SC2 SLP144

CYXE;2007-07-13 10:00;CYXE 131000Z 25005KT 15SM FEW054 16/15 A2994 RMK SC2 SLP140

CYXE;2007-07-13 11:00;CYXE 131100Z 26005KT 15SM FEW300 16/15 A2994 RMK CI0 SLP141

CYXE;2007-07-13 12:00;CYXE 131200Z 25006KT 15SM FEW300 16/15 A2994 RMK CI0 SLP140

CYXE;2007-07-13 13:00;CYXE 131300Z 29007KT 15SM FEW300 19/16 A2994 RMK CI0 SLP140

CYXE;2007-07-13 14:00;CYXE 131400Z 31011KT 15SM SCT300 22/17 A2994 RMK CI0 SLP140

CYXE;2007-07-13 15:00;CYXE 131500Z 32012KT 15SM FEW300 24/17 A2994 RMK CI0 CONTRAILS SLP138

CYXE;2007-07-13 16:00;CYXE 131600Z 32010KT 15SM FEW300 26/18 A2995 RMK CI0 SLP141

CYXE;2007-07-13 17:00;CYXE 131700Z 31010KT 15SM FEW300 27/18 A2995 RMK CI0 SLP142

CYXE;2007-07-13 18:00;CYXE 131800Z 31007KT 15SM FEW045TCU FEW270 29/18 A2995 RMK TCU1CI0 SLP142

CYXE;2007-07-13 19:00;CYXE 131900Z 35010G15KT 15SM SCT056 BKN270 30/16 A2995 RMK CU4CI0 TCU ASOCTD SLP141

CYXE;2007-07-13 20:00;CYXE 132000Z 33010KT 15SM FEW056 SCT270 30/15 A2995 RMK CU2CI0 SLP141

CYXE;2007-07-13 21:00;CYXE 132100Z 33007KT 15SM FEW059 FEW270 30/15 A2994 RMK CU2CI0 SLP139

CYXE;2007-07-13 22:00;CYXE 132200Z 34009KT 15SM FEW060 FEW270 30/16 A2994 RMK CU2CI0 SLP138

CYXE;2007-07-13 23:00;CYXE 132300Z 32012KT 15SM FEW060 31/16 A2993 RMK CU1 SLP136

CYXE;2007-07-14 00:00;CYXE 140000Z 33010KT 15SM FEW060 30/16 A2993 RMK CU1 SLP134

CYXE;2007-07-14 01:00;CYXE 140100Z 33008KT 15SM FEW060 29/17 A2992 RMK CU1 SLP133

CYXE;2007-07-14 02:00;CYXE 140200Z 35006KT 15SM SKC 27/19 A2993 RMK SLP134

CYXE;2007-07-14 03:00;CYXE 140300Z 35003KT 15SM FEW270 24/20 A2994 RMK CI0 SLP136

CYXE;2007-07-14 04:00;CYXE 140400Z 29005KT 15SM FEW270 21/19 A2994 RMK CI0 SLP138

CYXE;2007-07-14 05:00;CYXE 140500Z 33004KT 15SM FEW160 21/19 A2995 RMK AC1 SLP142

CYXE;2007-07-14 06:00;CYXE 140600Z 35004KT 15SM FEW300 20/19 A2996 RMK CI0 SLP143

CYXE;2007-07-14 07:00;CYXE 140700Z 25002KT 15SM FEW300 19/18 A2996 RMK CI0 SLP145

CYXE;2007-07-14 08:00;CYXE 140800Z 31003KT 15SM SKC 17/17 A2997 RMK BR PTCHS SLP148

CYXE;2007-07-14 09:00;CYXE 140900Z 34003KT 15SM SKC 16/15 A2997 RMK SLP150

CYXE;2007-07-14 10:00;CYXE 141000Z 34004KT 15SM FEW300 16/16 A2998 RMK CI0 BR PTCHS SLP152

CYXE;2007-07-14 11:00;CYXE 141100Z 31003KT 10SM R09/1800V5500FT/D BCFG FEW300 15/15 A2999 RMK CI0 SLP156

CYXE;2007-07-14 12:00;CYXE 141200Z 33004KT 10SM R09/1400V4000FT/U BCFG BKN300 14/14 A2999 RMK CI1 SLP158

CYXE;2007-07-14 13:00;CYXE 141300Z 03002KT 15SM BKN300 17/17 A2999 RMK CI1 SLP158

CYXE;2007-07-14 14:00;CYXE 141400Z 00000KT 15SM BKN300 20/17 A3001 RMK CI1 SLP163

CYXE;2007-07-14 15:00;CYXE 141500Z 06002KT 15SM SCT300 23/16 A3001 RMK CI1 SLP161

CYXE;2007-07-14 16:00;CYXE 141600Z 00000KT 15SM FEW300 26/16 A2999 RMK CI1 SLP157

CYXE;2007-07-14 17:00;CYXE 141700Z 00000KT 15SM FEW300 27/16 A2999 RMK CI1 SLP156

CYXE;2007-07-14 18:00;CYXE 141800Z 34003KT 15SM SCT300 28/15 A2999 RMK CI2 SLP154

CYXE;2007-07-14 19:00;CYXE 141900Z 01004KT 15SM SCT120 SCT300 28/14 A2997 RMK AS2CI0 SLP149

CYXE;2007-07-14 20:00;CYXE 142000Z CCA 02002KT 15SM BKN300 29/14 A2997 RMK CI4 SLP148

CYXE;2007-07-14 21:00;CYXE 142100Z 02003KT 15SM FEW100 BKN250 29/14 A2997 RMK AC1CI4 SLP149

CYXE;2007-07-14 22:00;CYXE 142200Z 35003KT 15SM FEW100 BKN250 29/14 A2996 RMK AC1CI3 SLP146

CYXE;2007-07-14 23:00;CYXE 142300Z 04004KT 15SM FEW100 BKN270 29/16 A2994 RMK AC1CI2 SLP139

CYXE;2007-07-15 00:00;CYXE 150000Z 10009KT 15SM SCT270 29/16 A2991 RMK CI2 SLP129

CYXE;2007-07-15 01:00;CYXE 150100Z 15009KT 15SM FEW100 BKN270 27/16 A2989 RMK AC1CI2 SLP123

CYXE;2007-07-15 02:00;CYXE 150200Z 13010KT 15SM SCT090 BKN270 26/16 A2988 RMK AC3CI2 SH W SLP119

CYXE;2007-07-15 03:00;CYXE 150300Z 16009KT 15SM BKN096 OVC260 25/16 A2987 RMK AC5CI2 CB ASOCTD SH SW SLP114

CYXE;2007-07-15 04:00;CYXE 150400Z 16011KT 15SM FEW094CB OVC250 24/15 A2987 RMK CB2CI2 LTGIC SE + NW SLP114

CYXE;2007-07-15 04:36;CYXE 150436Z 14007KT 15SM TS SCT094CB OVC250 24/ RMK CB3CI2 LTGIC

CYXE;2007-07-15 05:00;CYXE 150500Z 16012KT 15SM TS SCT094CB OVC250 23/16 A2984 RMK CB3CI2 LTGCG DSTNT NW SLP105

CYXE;2007-07-15 05:17;CYXE 150517Z 16011G18KT 15SM FEW090 OVC250 23/ RETS RMK AC2CI2 CB ASOCTD LTGCG DSTNT NW

CYXE;2007-07-15 06:00;CYXE 150600Z 17010G15KT 15SM SCT090 BKN250 22/16 A2982 RETS RMK AC3CI2 CB EMBD LTGICCG DSTNT NW-N SLP095

CYXE;2007-07-15 07:00;CYXE 150700Z 19009G15KT 15SM BKN080CB OVC250 21/16 A2981 RMK CB5CI2 LTGICCG NW-NE VIRGA N SLP091

CYXE;2007-07-15 07:31;CYXE 150731Z 36018G25KT 15SM -TSRA SCT030 OVC080CB 22/ RMK SF3CB5 LTGICCG W-N-NE VIRGA NE-E

CYXE;2007-07-15 07:46;CYXE 150746Z 02020G28KT 10SM TSRA OVC030CB 19/ RMK CB8 LTGICCG W-N-E CIG RAG

CYXE;2007-07-15 07:51;CYXE 150751Z 04018G26KT 8SM +TSRA OVC030CB 19/ RMK CB8 LTGICCG W-N-E CIG RAG

CYXE;2007-07-15 08:00;CYXE 150800Z 07016G22KT 8SM +TSRA OVC030CB 19/18 A2991 RMK CB8 LTGICCG ALQDS SLP124

CYXE;2007-07-15 08:09;CYXE 150809Z 08018KT 15SM -TSRA FEW030CB OVC100 18/ RERA RMK CB2AC6 LTGICCG E-SE PRESRR

CYXE;2007-07-15 08:30;CYXE 150830Z 09015KT 15SM FEW030CB OVC100 18/ RETS RMK CB2AC6 LTGICCG SE

CYXE;2007-07-15 09:00;CYXE 150900Z 11016KT 15SM FEW030CB SCT100 18/16 A2985 RETS RMK CB1AC2 LTGIC NE-SE SLP107

CYXE;2007-07-15 10:00;CYXE 151000Z 14014KT 15SM FEW030 FEW100 FEW250 18/16 A2980 RMK CU1AC1CI0 SLP090

CYXE;2007-07-15 11:00;CYXE 151100Z 16012G17KT 15SM FEW100 FEW250 18/15 A2978 RMK AC1CI0 ACC ASOCTD SLP085

CYXE;2007-07-15 12:00;CYXE 151200Z 17010G15KT 15SM FEW100 18/16 A2978 RMK AC1 SLP083

CYXE;2007-07-15 13:00;CYXE 151300Z 14003KT 15SM FEW120 FEW250 19/16 A2980 RMK AC1CI0 SLP089

CYXE;2007-07-15 14:00;CYXE 151400Z 23002KT 15SM SCT250 20/16 A2981 RMK CI0 SLP094

CYXE;2007-07-15 15:00;CYXE 151500Z 14002KT 15SM FEW100 SCT250 21/16 A2981 RMK AC1CI0 SLP092

CYXE;2007-07-15 16:00;CYXE 151600Z 36002KT 15SM BKN150 BKN250 22/17 A2983 RMK AC6CI0 SLP099

CYXE;2007-07-15 17:00;CYXE 151700Z 07007KT 15SM BKN150 22/17 A2982 RMK AC7 SLP098

CYXE;2007-07-15 18:00;CYXE 151800Z CCA 07009KT 15SM -SHRA BKN150 21/17 A2983 RMK AC7 SLP104

CYXE;2007-07-15 18:29;CYXE 151829Z 09009KT 15SM BKN100 22/ RMK AC7

CYXE;2007-07-15 19:00;CYXE 151900Z 09009KT 15SM FEW030 BKN100 BKN250 22/18 A2984 RMK SC1AC4CI1 SLP106

CYXE;2007-07-15 20:00;CYXE 152000Z 08009KT 15SM FEW030 FEW100 24/18 A2984 RMK CU1AC1 SLP106

CYXE;2007-07-15 21:00;CYXE 152100Z 08006KT 15SM FEW085 25/18 A2985 RMK AC1 SLP109

CYXE;2007-07-15 22:00;CYXE 152200Z 07009KT 15SM SKC 26/19 A2984 RMK SLP106

CYXE;2007-07-15 23:00;CYXE 152300Z 11010KT 15SM FEW032 FEW300 26/18 A2984 RMK CU1CI0 SLP106

CYXE;2007-07-16 00:00;CYXE 160000Z 14008KT 15SM FEW032 FEW300 25/18 A2984 RMK CF1CI0 SLP105

CYXE;2007-07-16 01:00;CYXE 160100Z 12008KT 15SM FEW032 SCT300 25/18 A2983 RMK CF1CI1 SLP102

CYXE;2007-07-16 02:00;CYXE 160200Z 13007KT 15SM BKN300 24/19 A2982 RMK CI2 SLP101

CYXE;2007-07-16 03:00;CYXE 160300Z 12007KT 15SM BKN300 22/18 A2984 RMK CI2 SLP105

CYXE;2007-07-16 04:00;CYXE 160400Z 11009KT 15SM BKN300 21/18 A2985 RMK CI2 SLP109

CYXE;2007-07-16 05:00;CYXE 160500Z 09008KT 15SM BKN300 20/17 A2986 RMK CI2 SLP112

CYXE;2007-07-16 06:00;CYXE 160600Z 14008KT 15SM FEW095 BKN300 20/17 A2986 RMK AC1CI3 SLP114

CYXE;2007-07-16 07:00;CYXE 160700Z 14008KT 15SM FEW095 BKN300 19/17 A2986 RMK AC1CI3 SLP112

CYXE;2007-07-16 08:00;CYXE 160800Z 14009KT 15SM FEW095 BKN300 19/17 A2986 RMK AC1CI3 SLP115

CYXE;2007-07-16 09:00;CYXE 160900Z 14008KT 15SM BKN095 OVC300 19/17 A2986 RMK AC4CI4 SLP114

CYXE;2007-07-16 10:00;CYXE 161000Z 17008KT 15SM BKN025 BKN100 OVC300 18/17 A2989 RMK SC5AC2CI1 INTMT --SHRA SLP121

CYXE;2007-07-16 10:20;CYXE 161020Z 17007KT 15SM -SHRA BKN032 OVC100 18/ RMK SC5AC3

CYXE;2007-07-16 10:53;CYXE 161053Z 13004KT 15SM FEW024 BKN055 OVC100 18/ RMK SC1SC5AC2

CYXE;2007-07-16 11:00;CYXE 161100Z 14004KT 15SM FEW024 BKN055 OVC100 18/17 A2987 RMK SC1SC5AC2 SLP115

CYXE;2007-07-16 12:00;CYXE 161200Z 12007KT 15SM FEW055 BKN100 OVC250 18/17 A2983 RMK SC1AC5CI2 SLP103

CYXE;2007-07-16 13:00;CYXE 161300Z 11006KT 15SM BKN093 OVC250 18/17 A2983 RMK AC6CI2 SLP103

CYXE;2007-07-16 14:00;CYXE 161400Z 10007KT 15SM BKN095 OVC250 19/17 A2985 RMK AC6CI2 SLP109

CYXE;2007-07-16 15:00;CYXE 161500Z 15009KT 15SM BKN011 BKN090 BKN250 20/17 A2987 RMK SC6AC1CI0 SLP116

CYXE;2007-07-16 16:00;CYXE 161600Z 16005KT 15SM OVC011 20/17 A2990 RMK SC7 SLP125

CYXE;2007-07-16 17:00;CYXE 161700Z 04008KT 15SM OVC013 21/18 A2990 RMK SC8 SLP128

CYXE;2007-07-16 18:00;CYXE 161800Z 11006KT 15SM FEW015 SCT090 BKN250 23/18 A2990 RMK SC2AC2CI0 SLP125

CYXE;2007-07-16 19:00;CYXE 161900Z 13008KT 15SM FEW018 FEW090 SCT250 24/19 A2988 RMK SC1AC1CI0 SLP121

CYXE;2007-07-16 20:00;CYXE 162000Z 12008KT 15SM FEW090 FEW250 25/20 A2986 RMK AC1CI1 SLP115

CYXE;2007-07-16 21:00;CYXE 162100Z 13006KT 15SM FEW090 FEW250 25/19 A2986 RMK AC1CI0 SLP113

CYXE;2007-07-16 22:00;CYXE 162200Z 14006KT 15SM FEW300 26/18 A2985 RMK CI1 SLP108

CYXE;2007-07-16 23:00;CYXE 162300Z 12006KT 15SM FEW040 FEW300 27/19 A2985 RMK CF1CI2 CF TR SLP109

CYXE;2007-07-17 00:00;CYXE 170000Z 17004KT 15SM FEW092 BKN300 27/19 A2984 RMK CU1CI2 VIA YEG FIC SLP105

CYXE;2007-07-17 01:00;CYXE 170100Z 14004KT 15SM BKN300 26/19 A2984 RMK CI2 SLP105

CYXE;2007-07-17 02:00;CYXE 170200Z 15005KT 15SM FEW100 BKN300 24/19 A2984 RMK AC1CI4 SLP105

CYXE;2007-07-17 03:00;CYXE 170300Z 10005KT 15SM FEW100 BKN300 23/19 A2984 RMK AC2CI6 LTNG DIST NW SLP106

CYXE;2007-07-17 04:00;CYXE 170400Z 00000KT 15SM SCT100 OVC300 22/19 A2986 RMK AC4CI4 SLP112

CYXE;2007-07-17 05:00;CYXE 170500Z 17006KT 15SM SCT100 BKN300 22/20 A2983 RMK AC4CI3 LTNG DIST SW SLP102

CYXE;2007-07-17 06:00;CYXE 170600Z 17004KT 15SM VCSH BKN073 OVC270 22/20 A2986 RMK AC5CI2 LTGIC S SLP110

CYXE;2007-07-17 07:00;CYXE 170700Z 09005KT 15SM FEW042 BKN073 OVC270 21/20 A2986 RMK SC1AC4CI3 SLP112

CYXE;2007-07-17 08:00;CYXE 170800Z 06004KT 15SM SCT110 BKN270 20/19 A2986 RMK AC3CI2 SLP112

CYXE;2007-07-17 09:00;CYXE 170900Z 14005KT 15SM SCT270 20/19 A2986 RMK CI2 SLP112

CYXE;2007-07-17 10:00;CYXE 171000Z 18002KT 15SM MIFG FEW073 SCT270 19/19 A2986 RMK AC2CI0 SLP112

CYXE;2007-07-17 11:00;CYXE 171100Z 29005KT 10SM MIFG FEW110 SCT270 18/18 A2988 RMK AC1CI0 VIS LWR NW SLP117

CYXE;2007-07-17 11:42;CYXE 171142Z 32005KT 2SM R09/1200V2200FT/N BR FEW110 FEW270 18/ RMK FG1AC1CI0 VIS LWR W-N 1/4

CYXE;2007-07-17 12:00;CYXE 171200Z 34002KT 1/2SM R09/1400V2200FT/N FG FEW110 18/18 A2987 RMK FG1AC1 VIS ESE SE 11/2 SLP115

CYXE;2007-07-17 12:27;CYXE 171227Z 35002KT 2SM R09/4000VP6000FT/U BR FEW110 18/ RMK FG1AC1

CYXE;2007-07-17 13:00;CYXE 171300Z 03004KT 1/2SM R09/P6000FT/U FG OVC001 19/19 A2989 RMK ST8 SLP122

CYXE;2007-07-17 13:16;CYXE 171316Z 02005KT 1 1/2SM BR OVC001 19/ RMK FG1ST7

CYXE;2007-07-17 13:29;CYXE 171329Z 03005KT 1/2SM R09/P6000FT/N FG OVC001 19/ RMK ST8

CYXE;2007-07-17 13:38;CYXE 171338Z 03005KT 5/8SM R09/P6000FT/D BR OVC002 19/ RMK ST8 VIS VRB 1/2-3/4

CYXE;2007-07-17 14:00;CYXE 171400Z 04007KT 5/8SM R09/P6000FT/N BR OVC002 20/20 A2990 RMK ST8 SLP123

CYXE;2007-07-17 14:15;CYXE 171415Z 05006KT 1 1/2SM BR OVC002 20/ RMK ST8

CYXE;2007-07-17 14:32;CYXE 171432Z 05007KT 4SM BR OVC003 21/ RMK ST7

CYXE;2007-07-17 14:54;CYXE 171454Z 08004KT 4SM BR BKN007 22/ RMK ST6

CYXE;2007-07-17 15:00;CYXE 171500Z 08004KT 3SM BR BKN007 22/20 A2990 RMK ST6 SLP127

CYXE;2007-07-17 16:00;CYXE 171600Z CCA 03006KT 3SM BKN009 22/20 A2992 RMK ST6 VIS RDCD DUE LOW CLD SLP132

CYXE;2007-07-17 16:30;CYXE 171630Z 01006KT 5SM BKN008 BKN033 22/ RMK ST5SC1 VIS RDCD DUE LOW CLD

CYXE;2007-07-17 17:00;CYXE 171700Z 02006KT 5SM FEW011 BKN033 23/20 A2992 RMK ST2SC2 VIS RDCD DUE LOW CLD SLP133

CYXE;2007-07-17 18:00;CYXE 171800Z 02008KT 10SM BKN017 26/21 A2993 RMK SC6 SLP133

CYXE;2007-07-17 19:00;CYXE 171900Z 02004KT 15SM BKN030 26/19 A2992 RMK CU5 SLP132

CYXE;2007-07-17 20:00;CYXE 172000Z 03005KT 15SM BKN028 27/20 A2993 RMK CU6 SLP134

CYXE;2007-07-17 21:00;CYXE 172100Z 01007KT 15SM BKN033 28/20 A2992 RMK CU5 SLP132

CYXE;2007-07-17 22:00;CYXE 172200Z 05009KT 15SM FEW035 28/19 A2992 RMK CU2 SLP130

CYXE;2007-07-17 23:00;CYXE 172300Z 05008KT 15SM SCT035 27/18 A2992 RMK CU3 SLP130

CYXE;2007-07-18 00:00;CYXE 180000Z 06008KT 15SM FEW037 27/19 A2991 RMK CU2 SLP130

CYXE;2007-07-18 01:00;CYXE 180100Z 09005KT 15SM FEW039 26/18 A2992 RMK CU1 SLP132

CYXE;2007-07-18 02:00;CYXE 180200Z 06008KT 15SM FEW300 25/18 A2992 RMK CI0 SLP133

CYXE;2007-07-18 03:00;CYXE 180300Z 08006KT 15SM FEW300 22/18 A2993 RMK CI1 SLP137

CYXE;2007-07-18 04:00;CYXE 180400Z 08004KT 15SM SCT300 21/18 A2995 RMK CI2 SLP142

CYXE;2007-07-18 05:00;CYXE 180500Z 08004KT 15SM SCT300 19/18 A2996 RMK CI2 SLP146

CYXE;2007-07-18 06:00;CYXE 180600Z 07007KT 15SM FEW300 18/17 A2996 RMK CI1 SLP147

CYXE;2007-07-18 07:00;CYXE 180700Z 07005KT 15SM SCT300 18/17 A2996 RMK CI2 SLP147

CYXE;2007-07-18 08:00;CYXE 180800Z 07003KT 15SM SCT300 17/16 A2997 RMK CI2 SLP150

CYXE;2007-07-18 09:00;CYXE 180900Z 08005KT 15SM FEW300 16/16 A2997 RMK CI1 SLP150

CYXE;2007-07-18 10:00;CYXE 181000Z 07005KT 15SM BKN300 16/15 A2998 RMK CI2 SLP152

CYXE;2007-07-18 11:00;CYXE 181100Z 04005KT 10SM BKN250 15/15 A2999 RMK CI2 BR SLP156

CYXE;2007-07-18 12:00;CYXE 181200Z 04003KT 12SM MIFG BKN230 16/15 A3000 RMK CI3 SLP161

CYXE;2007-07-18 13:00;CYXE 181300Z 05005KT 15SM BKN240 18/17 A3001 RMK CI3 SLP164

CYXE;2007-07-18 14:00;CYXE 181400Z 06005KT 15SM BKN240 20/18 A3002 RMK CI3 SLP168

CYXE;2007-07-18 15:00;CYXE 181500Z 07006KT 15SM BKN240 23/19 A3003 RMK CI2 SLP169

CYXE;2007-07-18 16:00;CYXE 181600Z 09009KT 15SM SCT240 25/18 A3003 RMK CI1 SLP168

CYXE;2007-07-18 17:00;CYXE 181700Z 09011KT 15SM FEW030 SCT240 26/16 A3003 RMK CU1CI1 SLP170

CYXE;2007-07-18 18:00;CYXE 181800Z 09009KT 15SM FEW030 SCT240 27/15 A3003 RMK CU1CI1 SLP170

CYXE;2007-07-18 19:00;CYXE 181900Z 13012KT 15SM FEW030 SCT240 27/13 A3003 RMK CU1CI1 SLP169

CYXE;2007-07-18 20:00;CYXE 182000Z 12010G16KT 15SM FEW030 SCT240 28/15 A3002 RMK CU1CI1 SLP167

CYXE;2007-07-18 21:00;CYXE 182100Z 12011G18KT 15SM FEW030 BKN240 28/13 A3003 RMK CU1CI2 SLP172

CYXE;2007-07-18 22:00;CYXE 182200Z 10012G18KT 15SM FEW093 BKN300 28/14 A3003 RMK AC2CI2 SLP171

CYXE;2007-07-18 23:00;CYXE 182300Z 12014KT 15SM FEW094 BKN300 27/14 A3003 RMK AC2CI1 SLP171

CYXE;2007-07-19 00:00;CYXE 190000Z 10016KT 15SM SCT094 BKN300 28/15 A3003 RMK AC2CI1 SLP169

CYXE;2007-07-19 01:00;CYXE 190100Z 10016KT 15SM BKN300 26/15 A3002 RMK CI2 SLP167

CYXE;2007-07-19 02:00;CYXE 190200Z 11014KT 15SM BKN300 25/14 A3002 RMK CI2 SLP166

CYXE;2007-07-19 03:00;CYXE 190300Z 11010KT 15SM BKN300 23/14 A3002 RMK CI2 SLP167

CYXE;2007-07-19 04:00;CYXE 190400Z 12010KT 15SM SCT300 22/14 A3003 RMK CI1 SLP169

CYXE;2007-07-19 05:00;CYXE 190500Z 12011KT 15SM SCT300 21/15 A3002 RMK CI1 SLP166

CYXE;2007-07-19 07:00;CYXE 190700Z 14010KT 15SM FEW240 20/15 A3003 RMK CI0 SLP169

CYXE;2007-07-19 08:00;CYXE 190800Z 13011KT 15SM FEW240 20/14 A3004 RMK CI0 SLP171

CYXE;2007-07-19 09:00;CYXE 190900Z 13011KT 15SM FEW240 19/14 A3003 RMK CI0 SLP168

CYXE;2007-07-19 10:00;CYXE 191000Z 14009KT 15SM FEW240 19/15 A3003 RMK CI1 SLP167

CYXE;2007-07-19 11:00;CYXE 191100Z 13010KT 15SM BKN240 18/15 A3002 RMK CI2 SLP165

CYXE;2007-07-19 12:00;CYXE 191200Z 13014KT 15SM FEW045 BKN240 19/15 A3001 RMK SC2CI2 SLP164

CYXE;2007-07-19 13:00;CYXE 191300Z 14012G17KT 15SM FEW042 SCT120 BKN240 19/15 A3001 RMK SC2AC2CI0 SLP164

CYXE;2007-07-19 14:00;CYXE 191400Z 14011G17KT 15SM FEW047 SCT120 BKN300 19/16 A3001 RMK CF2AC2CI0 SLP163

CYXE;2007-07-19 15:00;CYXE 191500Z 15014KT 15SM BKN350 22/16 A3000 RMK CI1 SLP160

CYXE;2007-07-19 16:00;CYXE 191600Z 15012G19KT 15SM FEW096 BKN350 24/18 A3000 RMK AC1CI1 SLP159

CYXE;2007-07-19 17:00;CYXE 191700Z 16015G20KT 15SM SCT038 BKN350 25/18 A2999 RMK SC3CI2 SLP156

CYXE;2007-07-19 18:00;CYXE 191800Z 14019KT 15SM SCT036 BKN350 26/18 A2997 RMK SC2CI2 SLP147

CYXE;2007-07-19 19:00;CYXE 191900Z 14018G24KT 15SM FEW036 BKN350 28/18 A2995 RMK CU1CI1 SLP141

CYXE;2007-07-19 20:00;CYXE 192000Z 14020KT 15SM FEW036 BKN350 28/18 A2993 RMK CU1CI1 SLP136

CYXE;2007-07-19 21:00;CYXE 192100Z 14017G29KT 15SM FEW036 SCT350 28/18 A2992 RMK CU1CI1 SLP131

CYXE;2007-07-19 22:00;CYXE 192200Z 15016G25KT 15SM FEW053 OVC300 29/18 A2990 RMK CU1CI1 SLP125

CYXE;2007-07-19 23:00;CYXE 192300Z 13019G25KT 15SM FEW050 BKN300 29/18 A2989 RMK CU1CI2 SLP121

CYXE;2007-07-20 00:00;CYXE 200000Z 15018G26KT 15SM FEW050 SCT300 28/17 A2987 RMK CU1CI1 SLP114

CYXE;2007-07-20 01:00;CYXE 200100Z 14020G27KT 15SM FEW300 28/17 A2985 RMK CI1 SLP108

CYXE;2007-07-20 02:00;CYXE 200200Z 14016G25KT 15SM FEW300 26/16 A2984 RMK CI2 SLP104

CYXE;2007-07-20 03:00;CYXE 200300Z 14013G18KT 15SM BKN280 24/15 A2984 RMK CI3 SLP105

CYXE;2007-07-20 04:00;CYXE 200400Z 14016G22KT 15SM OVC280 24/15 A2986 RMK CI4 SLP109

CYXE;2007-07-20 05:00;CYXE 200500Z 14018KT 15SM OVC280 22/15 A2986 RMK CI4 SLP110

CYXE;2007-07-20 06:00;CYXE 200600Z 16015G21KT 15SM BKN280 22/14 A2987 RMK CI5 SLP113

CYXE;2007-07-20 07:00;CYXE 200700Z 15018KT 15SM BKN280 22/13 A2984 RMK CI5 SLP105

CYXE;2007-07-20 08:00;CYXE 200800Z 18014G22KT 15SM BKN280 21/13 A2985 RMK CI5 SLP106

CYXE;2007-07-20 09:00;CYXE 200900Z 15012G17KT 15SM FEW100 OVC280 21/13 A2982 RMK AC2CI6 SLP096

CYXE;2007-07-20 10:00;CYXE 201000Z 17012G18KT 15SM FEW060 BKN096 BKN280 20/13 A2982 RMK SC2AC3CI2 SLP096

CYXE;2007-07-20 11:00;CYXE 201100Z 16009G18KT 15SM FEW060 BKN090 BKN250 20/13 A2985 RMK SC2AC3CI1 LTNG SW SLP104

CYXE;2007-07-20 11:48;CYXE 201148Z 16012G17KT 15SM -TSRA BKN071CB BKN090 OVC250 20/ RMK CB5AC2CI2 VIRGA W

CYXE;2007-07-20 12:00;CYXE 201200Z 21011G17KT 10SM -TSRA BKN060CB OVC250 19/13 A2987 RMK CB6CI2 SLP114

CYXE;2007-07-20 12:42;CYXE 201242Z 17009KT 10SM -SHRA BKN027 OVC060 17/ RMK SC6SC2

CYXE;2007-07-20 13:00;CYXE 201300Z 15011G16KT 10SM -SHRA BKN021 OVC250 17/14 A2983 RMK SC7CI1 SLP101

CYXE;2007-07-20 14:00;CYXE 201400Z 22004KT 15SM -SHRA BKN023 18/15 A2978 RMK SC7 TCU EMBD SLP084

CYXE;2007-07-20 14:43;CYXE 201443Z 19006G15KT 15SM FEW023 BKN047 BKN097 19/ RMK SC1SC6AC1 TCU EMBD VIRGA S

CYXE;2007-07-20 15:00;CYXE 201500Z 13005KT 6SM BR FEW007 BKN058 BKN094 19/16 A2978 RMK SF1SC6AC1 CB EMBD LTGCC E VIRGA S SLP085

CYXE;2007-07-20 16:00;CYXE 201600Z 21011KT 15SM FEW040CB BKN110 BKN220 19/16 A2982 RMK CB2AC5CI1 CB S ACC ASOCTD SLP099

CYXE;2007-07-20 16:15;CYXE 201615Z 21011G17KT 15SM -TSRA FEW040CB BKN110 19/ RMK CB2AC5 CB + LTGCG S ACC ASOCTD

CYXE;2007-07-20 17:00;CYXE 201700Z 16010KT 15SM -SHRA FEW057CB BKN092 18/16 A2982 RETS RMK CB2AC6 CB SE ACC ASOCTD SLP097

CYXE;2007-07-20 17:22;CYXE 201722Z 09018KT 15SM -TSRA FEW025 BKN068 19/ RMK SC1AC7 CB EMBD E ACC ASOCTD

CYXE;2007-07-20 17:31;CYXE 201731Z 24022G30KT 15SM -TSRA FEW030 BKN068 19/ RMK SC1AC7 CB EMBD ACC ASOCTD WND SHFT 1730Z

CYXE;2007-07-20 17:44;CYXE 201744Z 26006KT 15SM -SHRA FEW024 FEW090 BKN140 BKN230 20/ RETS RMK SC1AC2AC3CI2 CB EMBD E ACC ASOCTD

CYXE;2007-07-20 18:00;CYXE 201800Z 15005KT 15SM FEW026 SCT042 BKN110 BKN230 20/17 A2981 RETS RMK SC2SC2AC2CI1 ACC ASOCTD SLP096

CYXE;2007-07-20 19:00;CYXE 201900Z 19003KT 15SM FEW110 BKN230 23/19 A2980 RMK AC2CI2 SLP094

CYXE;2007-07-20 20:00;CYXE 202000Z 18004KT 15SM FEW110 FEW230 26/17 A2980 RMK AC1CI1 CB TOP DIST NE SLP093

CYXE;2007-07-20 21:00;CYXE 202100Z 19002KT 15SM FEW093 FEW270 27/18 A2979 RMK AC1CI0 SLP085

CYXE;2007-07-20 22:00;CYXE 202200Z 17008KT 10SM FEW033 FEW093 SCT270 27/19 A2978 RMK CU1AC1CI1 HZ SLP082

CYXE;2007-07-20 23:00;CYXE 202300Z 17004KT 10SM FEW086 28/20 A2976 RMK AC1 HZ SLP075

CYXE;2007-07-21 00:00;CYXE 210000Z 17007KT 10SM SKC 28/19 A2975 RMK HZ SLP072

CYXE;2007-07-21 01:00;CYXE 210100Z 20004KT 10SM SKC 28/21 A2974 RMK HZ SLP069

CYXE;2007-07-21 02:00;CYXE 210200Z 36003KT 10SM FEW250 27/22 A2973 RMK CI0 HZ SLP067

CYXE;2007-07-21 03:00;CYXE 210300Z 06005KT 10SM FEW090 FEW250 24/21 A2973 RMK AC1CI1 HZ SLP067

CYXE;2007-07-21 04:00;CYXE 210400Z 04006KT 10SM FEW090 FEW250 22/21 A2972 RMK AC1CI1 HZ SLP066

CYXE;2007-07-21 05:00;CYXE 210500Z 05006KT 10SM FEW090 FEW250 22/21 A2972 RMK AC1CI1 HZ SLP063

CYXE;2007-07-21 06:00;CYXE 210600Z 06006KT 15SM FEW250 21/20 A2970 RMK CI1 SLP060

CYXE;2007-07-21 07:00;CYXE 210700Z 05007KT 15SM FEW250 21/20 A2967 RMK CI0 SLP049

CYXE;2007-07-21 08:00;CYXE 210800Z 08006KT 15SM SCT250 21/20 A2964 RMK CI2 SLP041

CYXE;2007-07-21 09:00;CYXE 210900Z 11003KT 10SM OVC220 22/20 A2965 RMK CI7 HZ SLP038

CYXE;2007-07-21 09:55;CYXE 210955Z 13004KT 10SM TS BKN088CB OVC250 RMK CB5CI3 LTNG N-W

CYXE;2007-07-21 10:00;CYXE 211000Z CCA 26025G38KT 3SM TSRA BKN033CB OVC080 22/21 A2978 RMK CB6AC2 VIS N 1/2 PRESRR SLP080

CYXE;2007-07-21 10:14;CYXE 211014Z 28026G42KT 3SM R09/4000VP6000FT/U TSRA SCT008 OVC044CB 19/ RMK ST3CB5 VIS N-W 1/2

CYXE;2007-07-21 10:33;CYXE 211033Z 30023G35KT 5SM -TSRA SCT005 OVC044CB 21/ RMK ST4CB4 LTNG N-W

CYXE;2007-07-21 10:42;CYXE 211042Z 28015G29KT 5SM FEW008 BKN044CB OVC160 20/ RMK ST2CB6AC1 RE TSSHRA LTNG N-W

CYXE;2007-07-21 11:00;CYXE 211100Z 33012G18KT 10SM FEW008 BKN056CB OVC220 21/18 A2967 RMK SF1CB6CI0 RE TSSHRA LTNG E - N PRESFR SLP044

CYXE;2007-07-21 12:00;CYXE 211200Z CCA 34008KT 15SM FEW050 BKN120 OVC220 21/19 A2966 RMK SC2AC4CS2 /R03/ SLP040

CYXE;2007-07-21 13:00;CYXE 211300Z 17007KT 15SM BKN093 OVC220 21/19 A2969 RMK AC6CS2 VIRGA W SLP050

CYXE;2007-07-21 13:49;CYXE 211349Z 18009KT 15SM -SHRA FEW044 BKN070 OVC220 20/ RMK SC2AC3CI2

CYXE;2007-07-21 14:00;CYXE 211400Z 20011KT 15SM -SHRA SCT044 BKN070 OVC220 20/18 A2974 RMK SC4AC3CI1 CVCTV CLD EMBD SLP068

CYXE;2007-07-21 14:29;CYXE 211429Z 18008KT 15SM SCT059 BKN070 OVC220 20/ RMK SC4AC2CI2 CVCTC CLD EMBD VIRGA NE-S

CYXE;2007-07-21 15:00;CYXE 211500Z 23002KT 15SM FEW059 BKN070 OVC220 21/18 A2971 RMK SC2AC3CI2 VIRGA NE SLP061

CYXE;2007-07-21 16:00;CYXE 211600Z 22008KT 15SM FEW095 OVC220 23/18 A2967 RMK AC2CI4 SLP048

CYXE;2007-07-21 17:00;CYXE 211700Z 19009KT 15SM FEW093 OVC220 25/20 A2973 RMK AC2CI2 PRESRR SLP068

CYXE;2007-07-21 18:00;CYXE 211800Z 22011KT 15SM OVC220 27/20 A2975 RMK CI3 SLP071

CYXE;2007-07-21 19:00;CYXE 211900Z 25011KT 15SM BKN220 28/18 A2975 RMK CI2 SLP071

CYXE;2007-07-21 20:00;CYXE 212000Z 24010KT 15SM SCT220 29/19 A2975 RMK CI2 SLP073

CYXE;2007-07-21 21:00;CYXE 212100Z 28011KT 15SM FEW100 SCT220 29/17 A2977 RMK AC1CI2 SLP076

CYXE;2007-07-21 22:00;CYXE 212200Z 28010KT 15SM FEW056 FEW100 BKN220 29/15 A2978 RMK CU1AC1CI2 SLP080

CYXE;2007-07-21 23:00;CYXE 212300Z 32009KT 15SM FEW056 BKN220 28/14 A2979 RMK CU1CI2 SLP085

CYXE;2007-07-22 00:00;CYXE 220000Z 32006KT 15SM FEW056 FEW220 28/16 A2981 RMK CU1CI1 SLP094

CYXE;2007-07-22 01:00;CYXE 220100Z 30005KT 15SM FEW220 27/18 A2983 RMK CI1 SLP099

CYXE;2007-07-22 02:00;CYXE 220200Z 28004KT 15SM FEW220 26/17 A2983 RMK CI0 SLP099

CYXE;2007-07-22 03:00;CYXE 220300Z 33003KT 15SM FEW250 23/18 A2984 RMK CI1 SLP105

CYXE;2007-07-22 04:00;CYXE 220400Z 00000KT 15SM FEW220 22/19 A2986 RMK CI1 SLP112

CYXE;2007-07-22 05:00;CYXE 220500Z 00000KT 15SM SCT220 20/17 A2987 RMK CI1 SLP114

CYXE;2007-07-22 06:00;CYXE 220600Z 19003KT 15SM FEW220 21/15 A2987 RMK CI1 SLP115

CYXE;2007-07-22 07:00;CYXE 220700Z 21002KT 15SM FEW220 19/17 A2989 RMK CI1 SLP119

CYXE;2007-07-22 08:00;CYXE 220800Z 00000KT 15SM FEW220 17/17 A2990 RMK CI1 SLP122

CYXE;2007-07-22 09:00;CYXE 220900Z 10003KT 15SM FEW220 18/16 A2990 RMK CI1 FG BANK SW-E OVR CITY SLP125

CYXE;2007-07-22 10:00;CYXE 221000Z 11002KT 15SM FEW220 17/16 A2991 RMK CI1 SLP128

CYXE;2007-07-22 11:00;CYXE 221100Z 16004KT 15SM FEW160 FEW220 17/15 A2992 RMK AC1CI0 SLP130

CYXE;2007-07-22 12:00;CYXE 221200Z 09003KT 15SM FEW160 FEW220 16/15 A2992 RMK AC1CI0 SLP134

CYXE;2007-07-22 13:00;CYXE 221300Z 10004KT 15SM FEW160 BKN220 20/17 A2992 RMK AC1CI1 SLP133

CYXE;2007-07-22 14:00;CYXE 221400Z 13006KT 15SM BKN140 OVC220 23/16 A2993 RMK AC3CI2 SLP137

CYXE;2007-07-22 15:00;CYXE 221500Z 15008KT 15SM FEW082 OVC220 25/15 A2994 RMK AC2CI2 SLP136

CYXE;2007-07-22 16:00;CYXE 221600Z 15008KT 15SM BKN220 25/18 A2993 RMK CI3 SLP133

CYXE;2007-07-22 17:00;CYXE 221700Z 20008KT 15SM BKN220 27/16 A2992 RMK CI4 SLP131

CYXE;2007-07-22 18:00;CYXE 221800Z 22006KT 15SM BKN220 29/16 A2991 RMK CI2 SLP128

CYXE;2007-07-22 19:00;CYXE 221900Z 23011G17KT 15SM SCT250 30/16 A2991 RMK CI2 SLP128

CYXE;2007-07-22 20:00;CYXE 222000Z 24011G16KT 15SM FEW300 30/15 A2991 RMK CI1 SLP126

CYXE;2007-07-22 21:00;CYXE 222100Z 25011KT 15SM FEW300 31/16 A2990 RMK CI1 SLP124

CYXE;2007-07-22 22:00;CYXE 222200Z 25009KT 15SM FEW300 31/18 A2990 RMK CI1 SLP124

CYXE;2007-07-22 23:00;CYXE 222300Z 24007KT 15SM FEW300 31/17 A2989 RMK CI1 SLP121

CYXE;2007-07-23 00:00;CYXE 230000Z 24005KT 15SM FEW300 30/19 A2990 RMK CI1 SLP123

CYXE;2007-07-23 01:00;CYXE 230100Z 27004KT 15SM FEW300 30/21 A2990 RMK CI1 SLP125

CYXE;2007-07-23 02:00;CYXE 230200Z 00000KT 15SM FEW250 28/23 A2991 RMK CI1 SLP128

CYXE;2007-07-23 03:00;CYXE 230300Z 00000KT 15SM SCT250 26/20 A2991 RMK CI2 SLP127

CYXE;2007-07-23 04:00;CYXE 230400Z 00000KT 15SM BKN220 24/18 A2992 RMK CI2 SLP128

CYXE;2007-07-23 05:00;CYXE 230500Z 00000KT 15SM BKN220 21/19 A2992 RMK CI2 SLP129

CYXE;2007-07-23 06:00;CYXE 230600Z 17002KT 15SM SKC 22/18 A2993 RMK SLP132

CYXE;2007-07-23 07:00;CYXE 230700Z 14003KT 15SM SKC 20/18 A2993 RMK SLP133

CYXE;2007-07-23 08:00;CYXE 230800Z 16004KT 15SM SKC 21/18 A2993 RMK SLP133

CYXE;2007-07-23 09:00;CYXE 230900Z 18004KT 15SM SKC 20/17 A2993 RMK SLP133

CYXE;2007-07-23 10:00;CYXE 231000Z 18003KT 15SM FEW250 20/16 A2994 RMK CI1 SLP136

CYXE;2007-07-23 11:00;CYXE 231100Z 18002KT 15SM SCT250 18/15 A2995 RMK CI1 SLP141

CYXE;2007-07-23 12:00;CYXE 231200Z 14003KT 15SM SCT250 19/16 A2995 RMK CI1 SLP141

CYXE;2007-07-23 13:00;CYXE 231300Z 13003KT 15SM FEW100 FEW250 22/17 A2994 RMK AC1CI1 SLP138

CYXE;2007-07-23 14:00;CYXE 231400Z 14003KT 15SM FEW300 25/17 A2994 RMK CI1 SLP137

CYXE;2007-07-23 15:00;CYXE 231500Z 17006KT 15SM SKC 26/17 A2994 RMK SLP136

CYXE;2007-07-23 16:00;CYXE 231600Z 19006KT 15SM SKC 29/18 A2993 RMK SLP132

CYXE;2007-07-23 17:00;CYXE 231700Z 17006KT 15SM SKC 31/19 A2992 RMK SLP129

CYXE;2007-07-23 18:00;CYXE 231800Z 22007KT 15SM SKC 33/20 A2990 RMK SLP122

CYXE;2007-07-23 19:00;CYXE 231900Z 22009KT 15SM SKC 34/19 A2990 RMK SLP119

CYXE;2007-07-23 20:00;CYXE 232000Z 24005KT 15SM SKC 35/18 A2988 RMK SLP113

CYXE;2007-07-23 21:00;CYXE 232100Z 28005KT 15SM SKC 35/18 A2986 RMK SLP106

CYXE;2007-07-23 22:00;CYXE 232200Z 32006KT 15SM SKC 35/20 A2986 RMK SLP106

CYXE;2007-07-23 23:00;CYXE 232300Z 30005KT 15SM FEW300 37/19 A2984 RMK CI0 SLP101

CYXE;2007-07-24 00:00;CYXE 240000Z 36005KT 15SM FEW300 34/22 A2982 RMK CI0 SLP095

CYXE;2007-07-24 01:00;CYXE 240100Z 35002KT 15SM FEW300 34/22 A2981 RMK CI0 SLP089

CYXE;2007-07-24 02:00;CYXE 240200Z 15005KT 15SM FEW270 31/22 A2979 RMK CI1 SLP085

CYXE;2007-07-24 03:00;CYXE 240300Z 14007KT 15SM FEW270 29/22 A2978 RMK CI1 SLP080

CYXE;2007-07-24 04:00;CYXE 240400Z 14007KT 15SM FEW270 28/23 A2978 RMK CI0 SLP079

CYXE;2007-07-24 05:00;CYXE 240500Z 16007KT 15SM FEW270 27/23 A2977 RMK CI0 SLP077

CYXE;2007-07-24 06:00;CYXE 240600Z 17009KT 15SM FEW270 27/22 A2976 RMK CI0 SLP069

CYXE;2007-07-24 07:00;CYXE 240700Z 16007KT 15SM SKC 25/22 A2975 RMK SLP066

CYXE;2007-07-24 08:00;CYXE 240800Z 17009KT 15SM FEW110 26/21 A2973 RMK AC2 SLP060

CYXE;2007-07-24 09:00;CYXE 240900Z 19008KT 15SM SKC 26/20 A2970 RMK SLP048

CYXE;2007-07-24 10:00;CYXE 241000Z 18011KT 15SM FEW220 25/19 A2968 RMK CI1 SLP042

CYXE;2007-07-24 11:00;CYXE 241100Z 16006KT 15SM BKN140 OVC250 24/19 A2966 RMK AC5CI2 SLP036

CYXE;2007-07-24 12:00;CYXE 241200Z 15005KT 15SM BKN140 OVC250 24/18 A2964 RMK AC5CI2 SLP031

CYXE;2007-07-24 13:00;CYXE 241300Z 20004KT 15SM FEW140 OVC250 23/19 A2966 RMK AC2CI2 ACC ASOCTD SLP036

CYXE;2007-07-24 14:00;CYXE 241400Z 19008KT 15SM FEW140 BKN300 24/19 A2966 RMK AC2CI1 SLP037

CYXE;2007-07-24 15:00;CYXE 241500Z 20010G15KT 15SM FEW096 SCT300 26/19 A2965 RMK AC1CI2 SLP036

CYXE;2007-07-24 16:00;CYXE 241600Z 20006KT 15SM SCT100 BKN300 28/21 A2964 RMK AC2CI2 SLP033

CYXE;2007-07-24 17:00;CYXE 241700Z 23007KT 15SM SCT078 BKN300 28/20 A2964 RMK AC2CI1 SLP031

CYXE;2007-07-24 18:00;CYXE 241800Z 27007KT 15SM BKN088 BKN300 30/22 A2965 RMK AC4CI1 SLP035

CYXE;2007-07-24 19:00;CYXE 241900Z 27006KT 15SM BKN090 BKN300 30/21 A2965 RMK AC5CI0 SLP033

CYXE;2007-07-24 20:00;CYXE 242000Z 00000KT 15SM FEW050 BKN087 OVC300 28/22 A2965 RMK SC2AC4CI1 SLP035

CYXE;2007-07-24 21:00;CYXE 242100Z 12006KT 15SM FEW046 OVC090 27/23 A2961 RMK SC2AC5 SLP023

CYXE;2007-07-24 22:00;CYXE 242200Z 30011KT 15SM VCSH FEW046 OVC120 25/21 A2968 RMK SC1AC6 SLP043

CYXE;2007-07-24 23:00;CYXE 242300Z 30005KT 15SM FEW046 BKN096 OVC270 27/22 A2968 RMK SC1AC6CI0 SLP045

CYXE;2007-07-25 00:00;CYXE 250000Z 30007KT 15SM BKN091 BKN270 27/22 A2968 RMK AC5CI2 CVCTV CLD EMBD SLP049

CYXE;2007-07-25 01:00;CYXE 250100Z 30006KT 15SM SCT091 OVC120 26/23 A2970 RMK AC3AS4 SLP055

CYXE;2007-07-25 02:00;CYXE 250200Z 01011KT 15SM FEW020 OVC120 26/22 A2970 RMK SC2AC5 SLP054

CYXE;2007-07-25 03:00;CYXE 250300Z 36006KT 15SM BKN120 23/21 A2971 RMK AC4 SLP059

CYXE;2007-07-25 04:00;CYXE 250400Z 35004KT 15SM FEW020 BKN120 22/21 A2972 RMK SC1AC6 CVCTV CLD EMBD LTGIC DIST SW SLP062

CYXE;2007-07-25 05:00;CYXE 250500Z 35009KT 15SM BKN120 22/21 A2976 RMK AC7 CVCTV CLD EMBD LTGIC DIST SW SLP075

CYXE;2007-07-25 06:00;CYXE 250600Z 35010KT 15SM OVC120 21/18 A2978 RMK AC8 SLP080

CYXE;2007-07-25 07:00;CYXE 250700Z 35006KT 15SM SCT060 OVC120 20/16 A2981 RMK SC3AC5 SLP090

CYXE;2007-07-25 08:00;CYXE 250800Z 00000KT 15SM FEW044 SCT058 OVC120 18/16 A2982 RMK SC2SC2AC4 SLP095

CYXE;2007-07-25 09:00;CYXE 250900Z 36002KT 15SM BKN049 OVC120 18/16 A2985 RMK SC6AC2 SLP108

CYXE;2007-07-25 10:00;CYXE 251000Z 03003KT 15SM BKN059 17/14 A2987 RMK SC7 SLP114

CYXE;2007-07-25 11:00;CYXE 251100Z 34004KT 15SM FEW059 BKN110 OVC250 16/14 A2990 RMK SC2AC4CI2 SLP123

CYXE;2007-07-25 12:00;CYXE 251200Z 33007KT 15SM FEW059 SCT069 BKN091 BKN250 16/14 A2991 RMK SC1AC4AC2CI1 VIRGA ACC ASOCTD SLP130

CYXE;2007-07-25 13:00;CYXE 251300Z 36011KT 15SM SCT059 BKN077 BKN250 17/14 A2991 RMK SC4AC2CI1 VIRGA SLP130

CYXE;2007-07-25 14:00;CYXE 251400Z 36009KT 15SM FEW059 BKN077 17/11 A2995 RMK SF2AC6 SLP144

CYXE;2007-07-25 15:00;CYXE 251500Z 35008KT 15SM BKN077 18/12 A2995 RMK AC6 SLP146

CYXE;2007-07-25 16:00;CYXE 251600Z 35009KT 15SM BKN093 19/10 A2998 RMK AC5 SH SE SLP153

CYXE;2007-07-25 17:00;CYXE 251700Z 34008KT 15SM SCT093 20/10 A2998 RMK AC3 SLP154

CYXE;2007-07-25 18:00;CYXE 251800Z 33007KT 15SM BKN100 21/11 A2999 RMK AC6 SLP156

CYXE;2007-07-25 19:00;CYXE 251900Z 31008KT 15SM SCT100 23/10 A2998 RMK AC3 SLP155

CYXE;2007-07-25 20:00;CYXE 252000Z 32008KT 15SM SCT085 24/09 A2998 RMK AC2 SLP154

CYXE;2007-07-25 21:00;CYXE 252100Z 31007KT 15SM FEW085 25/10 A2998 RMK AC1 SLP152

CYXE;2007-07-25 22:00;CYXE 252200Z 30011G17KT 15SM FEW090 25/09 A2997 RMK AC2 SLP151

CYXE;2007-07-25 23:00;CYXE 252300Z 30008KT 15SM FEW090 25/09 A2997 RMK AC1 SLP150

CYXE;2007-07-26 00:00;CYXE 260000Z 30010KT 15SM FEW090 24/10 A2997 RMK AC2 SLP153

CYXE;2007-07-26 01:00;CYXE 260100Z 30010KT 15SM SCT090 22/10 A2998 RMK AC4 SLP155

CYXE;2007-07-26 02:00;CYXE 260200Z 31008KT 15SM BKN085 20/11 A2999 RMK AC6 SLP159

CYXE;2007-07-26 03:00;CYXE 260300Z 28006KT 15SM FEW052 BKN080 19/12 A3000 RMK SC1AC6 SLP163

CYXE;2007-07-26 04:00;CYXE 260400Z 27006KT 15SM SCT080 16/13 A3001 RMK AC4 SLP168

CYXE;2007-07-26 05:00;CYXE 260500Z 28008KT 15SM FEW080 14/11 A3003 RMK AC1 SLP172

CYXE;2007-07-26 06:00;CYXE 260600Z 30008KT 15SM SKC 14/11 A3004 RMK SLP180

CYXE;2007-07-26 07:00;CYXE 260700Z 30007KT 15SM SKC 12/11 A3005 RMK SLP183

CYXE;2007-07-26 08:00;CYXE 260800Z 31007KT 15SM SKC 13/10 A3006 RMK SLP186

CYXE;2007-07-26 09:00;CYXE 260900Z 30007KT 15SM SKC 11/10 A3007 RMK SLP187

CYXE;2007-07-26 10:00;CYXE 261000Z 28007KT 15SM SKC 10/09 A3008 RMK SLP190

CYXE;2007-07-26 11:00;CYXE 261100Z 27008KT 15SM SKC 10/09 A3009 RMK SLP194

CYXE;2007-07-26 12:00;CYXE 261200Z 26007KT 15SM SKC 10/09 A3010 RMK SLP201

CYXE;2007-07-26 13:00;CYXE 261300Z 28006KT 15SM SKC 13/11 A3011 RMK SLP204

CYXE;2007-07-26 14:00;CYXE 261400Z 30008KT 15SM SKC 16/11 A3012 RMK SLP207

CYXE;2007-07-26 15:00;CYXE 261500Z 31006KT 15SM SKC 18/12 A3012 RMK SLP206

CYXE;2007-07-26 16:00;CYXE 261600Z 27003KT 15SM SKC 20/12 A3013 RMK SLP209

CYXE;2007-07-26 17:00;CYXE 261700Z 28003KT 15SM SKC 21/12 A3013 RMK SLP209

CYXE;2007-07-26 18:00;CYXE 261800Z 28005KT 15SM FEW044 24/13 A3013 RMK CF1 SLP208

CYXE;2007-07-26 19:00;CYXE 261900Z 31009KT 15SM FEW056 24/10 A3012 RMK CF1 SLP205

CYXE;2007-07-26 20:00;CYXE 262000Z 32007KT 15SM FEW056 25/11 A3012 RMK CF1 SLP203

CYXE;2007-07-26 21:00;CYXE 262100Z 29003KT 15SM FEW060 26/11 A3010 RMK CF1 SLP200

CYXE;2007-07-26 22:00;CYXE 262200Z 09002KT 15SM FEW060 25/10 A3009 RMK CU1 SLP195

CYXE;2007-07-26 23:00;CYXE 262300Z 32002KT 15SM FEW060 26/11 A3008 RMK CU1 SLP191

CYXE;2007-07-27 00:00;CYXE 270000Z 22003KT 15SM FEW060 26/12 A3007 RMK CU1 SLP187

CYXE;2007-07-27 01:00;CYXE 270100Z 24004KT 15SM FEW060 25/13 A3005 RMK CU1 SLP182

CYXE;2007-07-27 02:00;CYXE 270200Z 26003KT 15SM FEW060 24/15 A3004 RMK CU1 SLP179

CYXE;2007-07-27 03:00;CYXE 270300Z 00000KT 15SM FEW190 22/12 A3005 RMK AC1 SLP179

CYXE;2007-07-27 04:00;CYXE 270400Z 11004KT 15SM FEW190 19/11 A3006 RMK AC1 SLP182

CYXE;2007-07-27 05:00;CYXE 270500Z 13006KT 15SM FEW190 18/12 A3006 RMK AC1 SLP183

CYXE;2007-07-27 06:00;CYXE 270600Z 13006KT 15SM SKC 18/12 A3006 RMK SLP183

CYXE;2007-07-27 07:00;CYXE 270700Z 14008KT 15SM FEW100 17/13 A3006 RMK AC1 SLP181

CYXE;2007-07-27 08:00;CYXE 270800Z 15005KT 15SM FEW100 17/12 A3005 RMK AC1 SLP178

CYXE;2007-07-27 09:00;CYXE 270900Z 16007KT 15SM FEW100 17/12 A3003 RMK AC1 SLP173

CYXE;2007-07-27 10:00;CYXE 271000Z 16007KT 15SM FEW100 17/12 A3003 RMK AC1 SLP171

CYXE;2007-07-27 11:00;CYXE 271100Z 16006KT 15SM FEW100 SCT300 16/11 A3003 RMK AC1CI1 SLP173

CYXE;2007-07-27 12:00;CYXE 271200Z 14004KT 15SM FEW100 FEW300 16/11 A3003 RMK AC1CI1 SLP172

CYXE;2007-07-27 13:00;CYXE 271300Z 10005KT 15SM FEW100 FEW300 18/13 A3002 RMK AC1CI1 SLP169

CYXE;2007-07-27 14:00;CYXE 271400Z 16010KT 15SM FEW100 FEW300 21/11 A3001 RMK AC1CI0 SLP165

CYXE;2007-07-27 15:00;CYXE 271500Z 16007KT 15SM FEW100 FEW300 22/13 A3001 RMK AC2CI0 SLP163

CYXE;2007-07-27 16:00;CYXE 271600Z 17010KT 15SM FEW100 FEW300 25/13 A3000 RMK AC1CI0 SLP159

CYXE;2007-07-27 17:00;CYXE 271700Z 17006KT 15SM BKN100 27/13 A2999 RMK AC4 SLP155

CYXE;2007-07-27 18:00;CYXE 271800Z 20007KT 15SM FEW054 BKN080 26/13 A2997 RMK CU1AC5 SLP151

CYXE;2007-07-27 19:00;CYXE 271900Z 17007KT 15SM FEW054 BKN080 28/14 A2994 RMK CU1AC6 SLP141

CYXE;2007-07-27 20:00;CYXE 272000Z 21009KT 15SM FEW054 BKN092 BKN300 29/13 A2993 RMK CU1AC5CI0 ACC ASOCTD SLP138

CYXE;2007-07-27 21:00;CYXE 272100Z 14008KT 15SM BKN092 BKN300 30/13 A2991 RMK ACC5CI0 SLP128

CYXE;2007-07-27 22:00;CYXE 272200Z 20012KT 15SM BKN095 BKN300 31/10 A2989 RMK ACC5CI0 SLP122

CYXE;2007-07-27 23:00;CYXE 272300Z 20011KT 15SM BKN095 BKN300 31/09 A2987 RMK AC5CI0 ACC ASOCTD SLP116

CYXE;2007-07-28 00:00;CYXE 280000Z 17010KT 15SM SCT095 BKN300 29/10 A2986 RMK AC4CI0 ACC ASOCTD SLP110

CYXE;2007-07-28 01:00;CYXE 280100Z 14013KT 15SM SCT085 BKN300 29/10 A2984 RMK AC4CI0 SHWRS W TCU ASOCTD SLP106

CYXE;2007-07-28 02:00;CYXE 280200Z 14012KT 15SM BKN097 28/12 A2982 RMK AC5 SHWRS W SLP100

CYXE;2007-07-28 03:00;CYXE 280300Z 14014G19KT 15SM BKN095 BKN160 27/12 A2982 RMK AC5AC2 SHWRS W SLP095

CYXE;2007-07-28 04:00;CYXE 280400Z 16017G24KT 15SM SCT095 BKN160 26/11 A2981 RMK AC4AC1 SLP091

CYXE;2007-07-28 05:00;CYXE 280500Z 16016KT 15SM SCT095CB SCT160 24/11 A2980 RMK CB3AC1 LTNG NE-N SLP090

CYXE;2007-07-28 06:00;CYXE 280600Z CCA 09008KT 15SM SCT095CB 21/12 A2981 RMK CB2 LTNG DIS E SLP092

CYXE;2007-07-28 07:00;CYXE 280700Z 09009KT 15SM FEW100 20/12 A2979 RMK AC1 SLP087

CYXE;2007-07-28 08:00;CYXE 280800Z 14007KT 15SM BKN100 20/12 A2977 RMK AC3 LTNG DIST E SLP080

CYXE;2007-07-28 09:00;CYXE 280900Z 12005KT 15SM BKN100 18/12 A2977 RMK AC3 SLP078

CYXE;2007-07-28 10:00;CYXE 281000Z 12005KT 15SM BKN100 17/13 A2976 RMK AC3 SLP075

CYXE;2007-07-28 11:00;CYXE 281100Z 17004KT 15SM FEW100 17/13 A2975 RMK AC2 SLP074

CYXE;2007-07-28 12:00;CYXE 281200Z 15002KT 15SM FEW100 15/12 A2976 RMK AC2 SLP077

CYXE;2007-07-28 13:00;CYXE 281300Z 18003KT 15SM FEW100 FEW300 18/14 A2977 RMK AC1CI0 SLP079

CYXE;2007-07-28 14:00;CYXE 281400Z 21002KT 15SM FEW080 BKN300 20/15 A2977 RMK ACC1CI1 SLP080

CYXE;2007-07-28 15:00;CYXE 281500Z 26002KT 15SM BKN300 22/16 A2978 RMK CI2 CONTRAILS SLP081

CYXE;2007-07-28 16:00;CYXE 281600Z 03004KT 15SM SCT300 25/16 A2977 RMK CI1 SLP080

CYXE;2007-07-28 17:00;CYXE 281700Z 05006KT 15SM FEW080 SCT250 28/17 A2977 RMK AC1CI1 SLP080

CYXE;2007-07-28 18:00;CYXE 281800Z 05004KT 15SM FEW250 29/18 A2978 RMK CI1 CONTRAILS SLP082

CYXE;2007-07-28 19:00;CYXE 281900Z CCA 09006KT 15SM SCT080 BKN250 30/17 A2978 RMK AC4CI0 SLP082

CYXE;2007-07-28 20:00;CYXE 282000Z 07006KT 15SM SCT080 BKN250 31/17 A2978 RMK AC3CI0 ACC ASOCTD SLP082

CYXE;2007-07-28 21:00;CYXE 282100Z 08006KT 15SM FEW080 FEW250 32/17 A2977 RMK AC2CC0 SLP079

CYXE;2007-07-28 22:00;CYXE 282200Z 03006KT 15SM FEW080 FEW250 32/18 A2976 RMK AC1CI0 SLP076

CYXE;2007-07-28 23:00;CYXE 282300Z 06008KT 15SM FEW250 32/16 A2976 RMK CI0 SLP075

CYXE;2007-07-29 00:00;CYXE 290000Z 06009KT 15SM FEW250 31/18 A2976 RMK CI0 SLP075

CYXE;2007-07-29 01:00;CYXE 290100Z 06011KT 15SM FEW250 29/18 A2975 RMK CI0 SLP072

CYXE;2007-07-29 02:00;CYXE 290200Z 06008KT 15SM FEW250 27/20 A2975 RMK CI0 SLP073

CYXE;2007-07-29 03:00;CYXE 290300Z 07009KT 15SM FEW250 24/18 A2975 RMK CI0 SLP074

CYXE;2007-07-29 04:00;CYXE 290400Z 06006KT 15SM FEW120 FEW250 21/18 A2977 RMK AC1CI0 SLP080

CYXE;2007-07-29 05:00;CYXE 290500Z 08005KT 15SM FEW120 FEW250 19/18 A2977 RMK AC1CI0 SLP080

CYXE;2007-07-29 06:00;CYXE 290600Z 06007KT 15SM SKC 19/18 A2977 RMK SLP080

CYXE;2007-07-29 07:00;CYXE 290700Z 06005KT 15SM SKC 18/17 A2978 RMK SLP082

CYXE;2007-07-29 08:00;CYXE 290800Z 05006KT 15SM SKC 17/17 A2978 RMK SLP082

CYXE;2007-07-29 09:00;CYXE 290900Z 04008KT 15SM SKC 17/16 A2978 RMK SLP082

CYXE;2007-07-29 10:00;CYXE 291000Z 06007KT 15SM SKC 17/16 A2977 RMK SLP081

CYXE;2007-07-29 11:00;CYXE 291100Z 06007KT 15SM FEW100 16/16 A2977 RMK AC1 SLP081

CYXE;2007-07-29 12:00;CYXE 291200Z 06006KT 15SM FEW100 16/16 A2978 RMK AC1 SLP084

CYXE;2007-07-29 13:00;CYXE 291300Z 05006KT 15SM FEW100 19/18 A2980 RMK AC1 SLP089

CYXE;2007-07-29 14:00;CYXE 291400Z 08007KT 15SM FEW250 22/19 A2981 RMK CI1 SLP092

CYXE;2007-07-29 15:00;CYXE 291500Z 10011KT 15SM FEW250 26/19 A2981 RMK CI1 SLP091

CYXE;2007-07-29 16:00;CYXE 291600Z 11016KT 15SM SKC 28/17 A2981 RMK SLP091

CYXE;2007-07-29 17:00;CYXE 291700Z 10013G18KT 15SM SKC 30/16 A2980 RMK SLP090

CYXE;2007-07-29 18:00;CYXE 291800Z 10013KT 15SM SKC 31/16 A2980 RMK SLP087

CYXE;2007-07-29 19:00;CYXE 291900Z 11011G17KT 15SM SKC 32/17 A2979 RMK SLP084

CYXE;2007-07-29 20:00;CYXE 292000Z 13014KT 15SM SKC 32/15 A2977 RMK HZ SLP080

CYXE;2007-07-29 21:00;CYXE 292100Z 11013KT 15SM SKC 32/17 A2977 RMK HZ SLP078

CYXE;2007-07-29 22:00;CYXE 292200Z 12015G20KT 15SM SKC 32/18 A2976 RMK SLP074

CYXE;2007-07-29 23:00;CYXE 292300Z 10017KT 15SM FEW050 FEW290 32/19 A2974 RMK CU1CI1 SLP070

CYXE;2007-07-30 00:00;CYXE 300000Z 11016G22KT 15SM FEW290 31/20 A2973 RMK CI1 SLP068

CYXE;2007-07-30 01:00;CYXE 300100Z 11015G21KT 15SM FEW290 30/20 A2972 RMK CI2 SLP063

CYXE;2007-07-30 02:00;CYXE 300200Z 12016G21KT 15SM SCT290 28/20 A2971 RMK CI2 SLP060

CYXE;2007-07-30 03:00;CYXE 300300Z 13014G20KT 15SM SCT290 27/20 A2971 RMK CI2 SLP055

CYXE;2007-07-30 04:00;CYXE 300400Z 13016KT 15SM FEW290 26/21 A2971 RMK CI1 SLP055

CYXE;2007-07-30 05:00;CYXE 300500Z 15013KT 15SM FEW290 25/21 A2972 RMK CI0 SLP058

CYXE;2007-07-30 06:00;CYXE 300600Z 15012KT 15SM FEW290 24/20 A2970 RMK CI0 SLP053

CYXE;2007-07-30 07:00;CYXE 300700Z 16011KT 15SM FEW290 23/20 A2969 RMK CI0 SLP050

CYXE;2007-07-30 08:00;CYXE 300800Z 15007KT 15SM SCT290 21/20 A2968 RMK CI0 SLP047

CYXE;2007-07-30 09:00;CYXE 300900Z 15007KT 15SM SCT290 21/20 A2966 RMK CI0 SLP040

CYXE;2007-07-30 10:00;CYXE 301000Z 16005KT 15SM SCT290 20/19 A2966 RMK CI1 HZ SLP039

CYXE;2007-07-30 11:00;CYXE 301100Z 17007KT 15SM FEW120 SCT290 19/19 A2966 RMK AC1CI0 SLP039

CYXE;2007-07-30 12:00;CYXE 301200Z 17006KT 15SM BKN120 BKN270 19/19 A2966 RMK AC6CI1 SLP039

CYXE;2007-07-30 13:00;CYXE 301300Z 17005KT 10SM BKN120 BKN270 21/19 A2965 RMK ACC6CI0 BR SLP037

CYXE;2007-07-30 14:00;CYXE 301400Z 27002KT 15SM BKN120 BKN270 21/19 A2966 RMK ACC6CI0 SLP041

CYXE;2007-07-30 15:00;CYXE 301500Z 19006KT 15SM BKN090 BKN270 22/17 A2965 RMK ACC6CI0 SLP038

CYXE;2007-07-30 16:00;CYXE 301600Z 20007KT 15SM BKN100 BKN270 23/17 A2965 RMK AC5CI0 ACC ASOCTD SLP039

CYXE;2007-07-30 17:00;CYXE 301700Z 25005KT 15SM FEW100 SCT270 27/15 A2964 RMK AC2CI1 SLP035

CYXE;2007-07-30 18:00;CYXE 301800Z 22005KT 15SM FEW100 FEW270 30/15 A2964 RMK AC1CI0 SLP032

CYXE;2007-07-30 19:00;CYXE 301900Z 24004KT 15SM FEW100 FEW270 33/16 A2963 RMK AC1CI1 SLP029

CYXE;2007-07-30 20:00;CYXE 302000Z 28007KT 15SM FEW270 34/15 A2963 RMK CI0 SLP027

CYXE;2007-07-30 21:00;CYXE 302100Z 25009KT 15SM FEW270 35/14 A2962 RMK CI0 SLP024

CYXE;2007-07-30 22:00;CYXE 302200Z 27009KT 15SM FEW080CB FEW270 35/15 A2962 RMK CB1CI0 CB WNW SLP025

CYXE;2007-07-30 23:00;CYXE 302300Z 26011G18KT 15SM FEW080CB FEW270 34/14 A2962 RMK CB1CI1 CB NW SLP024

CYXE;2007-07-31 00:00;CYXE 310000Z 26013KT 15SM FEW080CB FEW270 32/16 A2963 RMK CB2CI0 CB NW-N SLP028

CYXE;2007-07-31 01:00;CYXE 310100Z 30008KT 15SM FEW080CB FEW140 SCT270 30/18 A2964 RMK CB1AC2CI0 CB N SLP033

CYXE;2007-07-31 02:00;CYXE 310200Z 24006KT 15SM FEW140 27/21 A2967 RMK AC1 SLP041

CYXE;2007-07-31 03:00;CYXE 310300Z 30009KT 15SM FEW140 FEW270 25/21 A2968 RMK AC1CI1 SLP051

CYXE;2007-07-31 04:00;CYXE 310400Z 34010KT 15SM FEW120 FEW270 24/21 A2971 RMK AC1CI0 SLP060

CYXE;2007-07-31 05:00;CYXE 310500Z 34008KT 15SM FEW120 FEW270 21/19 A2973 RMK AC1CI0 SLP067

CYXE;2007-07-31 06:00;CYXE 310600Z 32006KT 15SM FEW120 SCT270 20/19 A2974 RMK AC1CI0 SLP067

CYXE;2007-07-31 07:00;CYXE 310700Z 33007KT 15SM SCT270 19/18 A2974 RMK CI0 SLP069

CYXE;2007-07-31 08:00;CYXE 310800Z 32007KT 15SM FEW080 SCT270 18/18 A2975 RMK AC2CI0 LTGIC DIST SW SLP071

CYXE;2007-07-31 08:49;CYXE 310849Z 30005KT 15SM -SHRA OVC080 19/ RMK AC8 CVCTV CLD EMBD LTGIC SE-SW

CYXE;2007-07-31 09:00;CYXE 310900Z 14003KT 15SM -SHRA BKN080 18/18 A2979 RMK AC6 LTGIC SE-SW CVCTV CLD EMBD WIND L/V SLP083

CYXE;2007-07-31 09:10;CYXE 310910Z 19005KT 15SM BKN080 18/ RMK AC6 CB EMBD LTGCG SW

CYXE;2007-07-31 09:26;CYXE 310926Z 36005KT 15SM -SHRA SCT051 OVC080 18/ RMK CF3AC5 LTGIC SW

CYXE;2007-07-31 10:00;CYXE 311000Z 30010KT 15SM -SHRA SCT051 OVC080 19/18 A2985 RMK SC3AC5 LTGIC SE-SW PRESRR SLP102

CYXE;2007-07-31 10:10;CYXE 311010Z 36012KT 15SM SHRA SCT051 OVC080 19/ RMK SC3AC5 LTGIC SE-SW CB EMBD

CYXE;2007-07-31 10:28;CYXE 311028Z 36013G19KT 10SM TSRA FEW018 SCT051 OVC080 19/ RMK SF1SC3AC4 LTGIG CB EMBD BR

CYXE;2007-07-31 10:34;CYXE 311034Z 03018KT 10SM +TSRA FEW051 BKN080 OVC250 19/ RMK SC2AC4CI2 CB EMBD LTGIC SW BR

CYXE;2007-07-31 11:00;CYXE 311100Z 02009G18KT 15SM -TSRA FEW009 FEW051 BKN080 OVC250 19/18 A2977 RERA RMK SF1SC1AC6CI2 LTGIC ALQDS CB EMBD PRESFR SLP078

CYXE;2007-07-31 12:00;CYXE 311200Z 06006KT 15SM -TSRA BKN050CB BKN080 18/17 A2978 RMK CB5AC2 VIRGA N SLP082

CYXE;2007-07-31 12:20;CYXE 311220Z 06005KT 15SM -SHRA FEW050 BKN080CB BKN250 18/ RETS RMK SC1CB5CI2 CB MOVG E

CYXE;2007-07-31 13:00;CYXE 311300Z 03007KT 15SM FEW050CB BKN095 OVC250 19/18 A2978 RETS RMK CB1AC5CI2 CB TOP SE MOVG E SLP083

CYXE;2007-07-31 13:30;CYXE 311330Z 32011KT 15SM -SHRA SCT092 OVC250 19/ RMK AC4CI4 CVCTV CLD EMBD

CYXE;2007-07-31 13:41;CYXE 311341Z 32011KT 15SM SCT090CB OVC250 19/ RMK CB3CI5

CYXE;2007-07-31 14:00;CYXE 311400Z 33011KT 15SM FEW052 BKN090CB OVC250 19/18 A2982 RMK SF2CB4CI2 RERA SLP096

CYXE;2007-07-31 15:00;CYXE 311500Z 36009KT 15SM FEW052 SCT090CB BKN250 20/18 A2980 RMK SF1CB3CI2 SLP090

CYXE;2007-07-31 16:00;CYXE 311600Z 05011KT 15SM BKN099 BKN250 22/18 A2978 RMK AC6CI1 SLP086

CYXE;2007-07-31 17:00;CYXE 311700Z 04012KT 15SM FEW060 BKN100CB BKN250 22/17 A2978 RMK SC2CB2CI2 SLP084

CYXE;2007-07-31 18:00;CYXE 311800Z 34015KT 15SM FEW080 BKN120CB BKN250 22/17 A2980 RMK AC2CB3CI1 SLP093

CYXE;2007-07-31 19:00;CYXE 311900Z 35015KT 15SM FEW080 BKN100 BKN250 21/17 A2979 RMK AC2AC3CI2 SLP090

CYXE;2007-07-31 20:00;CYXE 312000Z 36013KT 15SM SCT078 BKN100 OVC250 20/16 A2977 RMK AC4AC3CI0 SLP083

CYXE;2007-07-31 21:00;CYXE 312100Z CCA 36009KT 15SM FEW075 BKN098 OVC250 19/16 A2980 RMK AC2AC6CI1 SLP095

CYXE;2007-07-31 21:10;CYXE 312110Z 36010KT 15SM -RA FEW040 BKN065 OVC080 19/ RMK SC1SC6AC2

CYXE;2007-07-31 22:00;CYXE 312200Z 01011G16KT 15SM -RA FEW045 BKN065 OVC080 18/15 A2980 RMK SC1SC6AC2 SLP096

CYXE;2007-07-31 23:00;CYXE 312300Z 35016KT 15SM -SHRA FEW048 SCT056 OVC087 17/14 A2984 RMK SC2SC2AC5 SLP107

CYXE;2007-07-31 23:29;CYXE 312329Z 35015G21KT 15SM FEW048 SCT056 BKN081 16/ RMK SC2SC2AC4

CYXE;2007-08-01 01:00;CYXE 010100Z 35012KT 15SM FEW015 BKN046 BKN071 OVC230 16/14 A2986 RMK CF1SC5AC1CI0 SLP119

CYXE;2007-08-01 02:00;CYXE 010200Z 36007KT 15SM FEW082 14/12 A2987 RMK AC1 SLP122

CYXE;2007-08-01 03:00;CYXE 010300Z 33005KT 15SM FEW050TCU FEW082 FEW230 12/11 A2991 RMK TCU1AC1CI0 TCU DIST NW SLP135

CYXE;2007-08-01 04:00;CYXE 010400Z 27006KT 15SM FEW050 FEW080 11/11 A2992 RMK SC1AC1 SLP138

CYXE;2007-08-01 05:00;CYXE 010500Z 26006KT 15SM FEW092 11/10 A2993 RMK AC1 SLP141

CYXE;2007-08-01 06:00;CYXE 010600Z 27007KT 15SM FEW092 SCT230 12/11 A2992 RMK AC1CI0 SLP140

CYXE;2007-08-01 07:00;CYXE 010700Z 28008KT 15SM FEW050 FEW092 11/10 A2994 RMK SC1AC1 SLP146

CYXE;2007-08-01 08:00;CYXE 010800Z 29008KT 15SM SKC 10/09 A2996 RMK SLP152

CYXE;2007-08-01 09:00;CYXE 010900Z 27006KT 15SM FEW092 08/08 A2997 RMK AC1 SLP160

CYXE;2007-08-01 10:00;CYXE 011000Z 28006KT 15SM FEW092 08/07 A2998 RMK AC1 SLP161

CYXE;2007-08-01 11:00;CYXE 011100Z 26007KT 15SM FEW092 09/08 A2998 RMK AC1 SLP163

CYXE;2007-08-01 12:00;CYXE 011200Z 27010KT 15SM FEW092 09/08 A3000 RMK AC1 SLP170

CYXE;2007-08-01 13:00;CYXE 011300Z 27009KT 15SM FEW092 12/09 A2999 RMK AC1 SLP169

CYXE;2007-08-01 14:00;CYXE 011400Z 28012KT 15SM FEW043 BKN073 14/09 A3000 RMK SC2AC4 SLP170

CYXE;2007-08-01 15:00;CYXE 011500Z 29016KT 15SM SCT030 BKN066 15/10 A3000 RMK SC3SC3 SLP171

CYXE;2007-08-01 16:00;CYXE 011600Z 29017G26KT 15SM SCT027 BKN066 17/11 A3000 RMK SC3SC2 SLP171

CYXE;2007-08-01 17:00;CYXE 011700Z 31015G25KT 15SM BKN027 19/12 A3001 RMK CU6 SLP173

CYXE;2007-08-01 18:00;CYXE 011800Z 30015G21KT 15SM BKN033 OVC060 18/12 A3002 RMK CU5SC3 SLP174

CYXE;2007-08-01 19:00;CYXE 011900Z 31016G21KT 15SM BKN033 BKN060 20/12 A3002 RMK CU5SC2 SLP174

CYXE;2007-08-01 20:00;CYXE 012000Z 31015G22KT 15SM BKN037 BKN060 21/12 A3002 RMK CU6SC2 SLP174

CYXE;2007-08-01 21:00;CYXE 012100Z 31019G27KT 15SM SCT045 BKN066 22/11 A3002 RMK CU4SC2 SLP174

CYXE;2007-08-01 22:00;CYXE 012200Z 32017G26KT 15SM BKN045 22/12 A3002 RMK SC6 SLP175

CYXE;2007-08-01 23:00;CYXE 012300Z 33015KT 15SM SCT051 23/12 A3001 RMK SC4 SLP173

CYXE;2007-08-02 00:00;CYXE 020000Z 32018G24KT 15SM SCT055 22/11 A3001 RMK SC3 SLP172

CYXE;2007-08-02 01:00;CYXE 020100Z 33014G20KT 15SM FEW055 22/11 A3002 RMK CF1 SLP173

CYXE;2007-08-02 02:00;CYXE 020200Z 35006KT 15SM FEW062 20/13 A3003 RMK CF1 SLP176

CYXE;2007-08-02 03:00;CYXE 020300Z 31003KT 15SM FEW062 16/13 A3003 RMK CF1 SLP179

CYXE;2007-08-02 04:00;CYXE 020400Z 29005KT 15SM FEW062 14/12 A3005 RMK CF1 SLP185

CYXE;2007-08-02 05:00;CYXE 020500Z 27006KT 15SM SKC 13/11 A3006 RMK SLP186

CYXE;2007-08-02 06:00;CYXE 020600Z 27008KT 15SM SKC 12/11 A3007 RMK SLP191

CYXE;2007-08-02 07:00;CYXE 020700Z 25006KT 15SM SKC 11/10 A3008 RMK SLP195

CYXE;2007-08-02 08:00;CYXE 020800Z 27006KT 15SM SKC 10/10 A3008 RMK SLP195

CYXE;2007-08-02 09:00;CYXE 020900Z 27006KT 15SM SKC 10/10 A3008 RMK SLP195

CYXE;2007-08-02 10:00;CYXE 021000Z 26007KT 15SM FEW056 09/09 A3009 RMK SC1 SLP198

CYXE;2007-08-02 11:00;CYXE 021100Z 26006KT 15SM FEW056 09/09 A3010 RMK SC1 SLP200

CYXE;2007-08-02 12:00;CYXE 021200Z 26005KT 15SM SKC 09/09 A3010 RMK SLP203

CYXE;2007-08-02 13:00;CYXE 021300Z 25005KT 15SM SKC 12/11 A3011 RMK SLP204

CYXE;2007-08-02 14:00;CYXE 021400Z 27005KT 15SM SKC 15/13 A3011 RMK SLP204

CYXE;2007-08-02 15:00;CYXE 021500Z 29004KT 15SM SKC 19/13 A3011 RMK SLP201

CYXE;2007-08-02 16:00;CYXE 021600Z 29007KT 15SM SKC 22/13 A3011 RMK SLP203

CYXE;2007-08-02 17:00;CYXE 021700Z 29007KT 15SM FEW050 24/12 A3011 RMK CU1 SLP201

CYXE;2007-08-02 18:00;CYXE 021800Z 27005KT 15SM FEW055 24/10 A3010 RMK CU1 SLP198

CYXE;2007-08-02 19:00;CYXE 021900Z 33006KT 15SM FEW065 25/09 A3008 RMK CU1 SLP194

CYXE;2007-08-02 20:00;CYXE 022000Z 30007KT 15SM FEW060 26/11 A3007 RMK CU1 SLP189

CYXE;2007-08-02 21:00;CYXE 022100Z 03003KT 15SM FEW060 26/11 A3006 RMK CU1 SLP186

CYXE;2007-08-02 22:00;CYXE 022200Z 36005KT 15SM FEW060 27/12 A3005 RMK CU1 SLP183

CYXE;2007-08-02 23:00;CYXE 022300Z 33004KT 15SM FEW060 26/11 A3004 RMK CU1 SLP179

CYXE;2007-08-03 00:00;CYXE 030000Z 01005KT 15SM FEW060 26/12 A3003 RMK CU1 SLP174

CYXE;2007-08-03 01:00;CYXE 030100Z 00000KT 15SM SKC 26/12 A3001 RMK SLP170

CYXE;2007-08-03 02:00;CYXE 030200Z 07005KT 15SM SKC 23/12 A3001 RMK SLP168

CYXE;2007-08-03 03:00;CYXE 030300Z 09007KT 15SM FEW300 19/12 A3001 RMK CI1 SLP167

CYXE;2007-08-03 04:00;CYXE 030400Z 09006KT 15SM FEW300 18/11 A3002 RMK CI1 SLP169

CYXE;2007-08-03 05:00;CYXE 030500Z 12006KT 15SM SKC 18/12 A3002 RMK SLP169

CYXE;2007-08-03 06:00;CYXE 030600Z 14008KT 15SM FEW300 18/12 A3001 RMK CI0 SLP164

CYXE;2007-08-03 07:00;CYXE 030700Z 14009KT 15SM SKC 19/12 A3000 RMK SLP161

CYXE;2007-08-03 08:00;CYXE 030800Z 14009KT 15SM SKC 18/12 A2999 RMK SLP158

CYXE;2007-08-03 09:00;CYXE 030900Z 14011KT 15SM FEW089 18/11 A2998 RMK AC2 SLP153

CYXE;2007-08-03 10:00;CYXE 031000Z 14009KT 15SM FEW089 FEW300 17/11 A2998 RMK AC1CI0 SLP152

CYXE;2007-08-03 11:00;CYXE 031100Z 13007KT 15SM FEW090 FEW270 16/11 A2997 RMK AC2CI0 SLP150

CYXE;2007-08-03 12:00;CYXE 031200Z 11006KT 15SM FEW090 FEW270 15/11 A2996 RMK AC1CI0 SLP147

CYXE;2007-08-03 13:00;CYXE 031300Z 13006KT 15SM FEW090 FEW270 17/11 A2995 RMK AC1CI0 SLP146

CYXE;2007-08-03 14:00;CYXE 031400Z 13009KT 15SM FEW130 FEW300 19/12 A2995 RMK AC1CI0 SLP145

CYXE;2007-08-03 15:00;CYXE 031500Z 14009KT 15SM FEW130 FEW300 22/12 A2994 RMK AC1CI0 SLP142

CYXE;2007-08-03 16:00;CYXE 031600Z 15009KT 15SM FEW130 FEW300 24/12 A2992 RMK AC1CI0 SLP134

CYXE;2007-08-03 17:00;CYXE 031700Z 14013KT 15SM FEW300 25/13 A2990 RMK CI0 SLP130

CYXE;2007-08-03 18:00;CYXE 031800Z 14011KT 15SM FEW300 28/14 A2989 RMK CI0 SLP120

CYXE;2007-08-03 19:00;CYXE 031900Z 16015KT 15SM SCT300 29/11 A2987 RMK CI0 SLP114

CYXE;2007-08-03 20:00;CYXE 032000Z 16013KT 15SM SCT300 30/10 A2985 RMK CI0 SLP109

CYXE;2007-08-03 21:00;CYXE 032100Z 14014G19KT 15SM FEW085 BKN300 30/11 A2984 RMK AC1CI0 SLP102

CYXE;2007-08-03 22:00;CYXE 032200Z 14013G21KT 15SM FEW083 FEW300 31/10 A2981 RMK AC1CI0 SLP095

CYXE;2007-08-03 23:00;CYXE 032300Z 14016KT 15SM SCT300 30/09 A2979 RMK CI1 SLP088

CYXE;2007-08-04 00:00;CYXE 040000Z 14015G20KT 15SM FEW080 SCT300 30/08 A2977 RMK AC1CI1 SLP081

CYXE;2007-08-04 01:00;CYXE 040100Z 12013KT 15SM FEW093 BKN300 28/09 A2975 RMK AC2CI1 SLP073

CYXE;2007-08-04 02:00;CYXE 040200Z 14015G20KT 15SM FEW093 SCT300 27/10 A2973 RMK AC2CI0 SLP069

CYXE;2007-08-04 03:00;CYXE 040300Z 13013G18KT 15SM FEW093 FEW300 25/12 A2972 RMK AC1CI1 SLP065

CYXE;2007-08-04 04:00;CYXE 040400Z 14016G21KT 15SM FEW093 24/12 A2971 RMK AC1 SLP060

CYXE;2007-08-04 05:00;CYXE 040500Z 15017G25KT 15SM SKC 23/12 A2970 RMK SLP056

CYXE;2007-08-04 06:00;CYXE 040600Z 15016G21KT 15SM SCT080 BKN300 22/13 A2968 RMK ACC3CI0 CB + LTGICCG W SLP046

CYXE;2007-08-04 07:00;CYXE 040700Z 16012KT 15SM FEW050CB BKN100 BKN300 22/13 A2966 RMK CB2ACC4CI0 LTGICCG W-NW CB MOVG NE SLP040

CYXE;2007-08-04 07:09;CYXE 040709Z 16008G15KT 15SM TS FEW050CB BKN100 BKN300 22/ RMK CB2ACC3CI0 LTGICCG W-NW CB MOVG NE

CYXE;2007-08-04 07:22;CYXE 040722Z 33022KT 15SM TS SCT050CB BKN100 OVC300 22/ RMK CB3ACC3CI1 LTGICCG SW-NW CB MOVG NE

CYXE;2007-08-04 07:26;CYXE 040726Z 33005G26KT 15SM -TSRA BKN050CB BKN100 OVC300 23/ RMK CB5ACC2CI1 LTGICCG CB MOVG NE

CYXE;2007-08-04 08:00;CYXE 040800Z 36008KT 15SM TS SCT070CB BKN120 OVC300 18/16 A2969 RMK CB4ACC3CI0 LTGICCG NW-N SLP052

CYXE;2007-08-04 08:19;CYXE 040819Z 05007KT 15SM FEW070CB BKN120 BKN300 19/ RETS RMK CB2ACC3CI1 LTGICCG N-NE

CYXE;2007-08-04 09:00;CYXE 040900Z 11007KT 15SM SCT120 BKN300 19/14 A2966 RETS RMK ACC3CI2 LTNG DIST NE SLP040

CYXE;2007-08-04 10:00;CYXE 041000Z 12009KT 15SM SCT120 BKN300 19/14 A2963 RMK ACC4CI2 LTNG + CB DIST E SLP031

CYXE;2007-08-04 11:00;CYXE 041100Z 12007KT 15SM BKN120 OVC300 18/15 A2963 RMK ACC6CI2 LTNG + CB DIST NE-SE SLP031

CYXE;2007-08-04 12:00;CYXE 041200Z 17007KT 15SM FEW070 BKN120 OVC300 18/15 A2962 RMK AC2ACC5CI2 LTNG DIST NE-SE SLP028

CYXE;2007-08-04 13:00;CYXE 041300Z 21006KT 15SM BKN100 OVC300 18/15 A2962 RMK ACC5CI2 SLP027

CYXE;2007-08-04 14:00;CYXE 041400Z 29012KT 15SM BKN089 OVC300 17/15 A2963 RMK AC5CI3 SLP033

CYXE;2007-08-04 15:00;CYXE 041500Z 29014KT 15SM SCT014 BKN090 18/15 A2967 RMK SC4AS1 SLP047

CYXE;2007-08-04 16:00;CYXE 041600Z 30012G19KT 15SM FEW014 21/16 A2968 RMK SF1 SLP050

CYXE;2007-08-04 17:00;CYXE 041700Z 31016KT 15SM SKC 23/16 A2968 RMK SLP053

CYXE;2007-08-04 18:00;CYXE 041800Z 29016KT 15SM SKC 24/14 A2971 RMK SLP059

CYXE;2007-08-04 19:00;CYXE 041900Z 31018KT 15SM FEW084 24/13 A2971 RMK AC1 SLP060

CYXE;2007-08-04 20:00;CYXE 042000Z 31015G20KT 15SM FEW099 25/13 A2971 RMK AC1 SLP060

CYXE;2007-08-04 21:00;CYXE 042100Z 32016KT 15SM FEW099 FEW300 26/12 A2970 RMK AC1CI0 SLP058

CYXE;2007-08-04 23:00;CYXE 042300Z 30017KT 15SM FEW077 SCT290 26/10 A2970 RMK CU2CI0 SLP058

CYXE;2007-08-05 00:00;CYXE 050000Z 30016KT 15SM FEW077 SCT290 25/09 A2969 RMK CU2CI1 SLP056

CYXE;2007-08-05 01:00;CYXE 050100Z 29009KT 15SM FEW079 SCT290 23/10 A2969 RMK CU2CI0 SLP056

CYXE;2007-08-05 02:00;CYXE 050200Z 27007KT 15SM FEW088 SCT290 22/11 A2968 RMK AC2CI0 SLP053

CYXE;2007-08-05 03:00;CYXE 050300Z 28009KT 15SM FEW088 BKN290 18/11 A2970 RMK AC2CI1 SLP061

CYXE;2007-08-05 04:00;CYXE 050400Z 30008KT 15SM BKN078 BKN290 18/12 A2973 RMK AC5CI0 SLP072

CYXE;2007-08-05 05:00;CYXE 050500Z 28008KT 15SM FEW062 SCT083 16/12 A2973 RMK SC1AC2 SLP072

CYXE;2007-08-05 06:00;CYXE 050600Z 27008KT 15SM FEW062 15/11 A2974 RMK SC1 SLP073

CYXE;2007-08-05 07:00;CYXE 050700Z 27010KT 15SM SKC 14/11 A2974 RMK SLP074

CYXE;2007-08-05 08:00;CYXE 050800Z 27009KT 15SM FEW037 13/11 A2975 RMK SC1 SLP077

CYXE;2007-08-05 09:00;CYXE 050900Z 28010KT 15SM FEW038 13/12 A2976 RMK SC2 SLP080

CYXE;2007-08-05 10:00;CYXE 051000Z 30012G18KT 15SM BKN037 15/13 A2977 RMK SC6 SLP085

CYXE;2007-08-05 11:00;CYXE 051100Z 30012KT 15SM BKN028 15/13 A2980 RMK SC5 SLP092

CYXE;2007-08-05 12:00;CYXE 051200Z 31011KT 15SM BKN025 BKN250 15/13 A2982 RMK SC5CI0 SLP102

CYXE;2007-08-05 13:00;CYXE 051300Z 30009KT 15SM BKN023 OVC250 14/13 A2986 RMK SC6CI0 SLP112

CYXE;2007-08-05 14:00;CYXE 051400Z 31008KT 15SM FEW022 BKN250 16/14 A2987 RMK SC2CI1 SLP118

CYXE;2007-08-05 15:00;CYXE 051500Z 31007KT 15SM BKN016 OVC250 17/14 A2989 RMK SC6CI0 SLP127

CYXE;2007-08-05 16:00;CYXE 051600Z 30007KT 15SM BKN020 19/14 A2990 RMK SC6 SLP130

CYXE;2007-08-05 17:00;CYXE 051700Z 34005KT 15SM SCT024 SCT250 20/14 A2991 RMK CU3CI0 SLP133

CYXE;2007-08-05 18:00;CYXE 051800Z 36008KT 15SM SCT030 SCT250 21/14 A2990 RMK CU3CI0 SLP132

CYXE;2007-08-05 19:00;CYXE 051900Z 34005KT 15SM SCT040 BKN250 23/12 A2990 RMK CU3CI0 SLP132

CYXE;2007-08-05 20:00;CYXE 052000Z 33008KT 15SM SCT049 BKN250 24/09 A2990 RMK CU3CI0 SLP130

CYXE;2007-08-05 21:00;CYXE 052100Z 32008KT 15SM SCT059 BKN250 24/10 A2988 RMK CU3CI0 SLP124

CYXE;2007-08-05 22:00;CYXE 052200Z 30005KT 15SM SCT056 BKN290 25/11 A2987 RMK CU3CI0 SLP119

CYXE;2007-08-05 23:00;CYXE 052300Z 35004KT 15SM SCT054 25/11 A2985 RMK CU3 SLP114

CYXE;2007-08-06 00:00;CYXE 060000Z 00000KT 15SM FEW060 25/09 A2984 RMK CU2 SLP107

CYXE;2007-08-06 01:00;CYXE 060100Z 17002KT 15SM FEW055 24/10 A2983 RMK CU2 SLP104

CYXE;2007-08-06 02:00;CYXE 060200Z 18002KT 15SM FEW050 FEW100 FEW290 24/09 A2983 RMK CU1AC1CI0 SLP106

CYXE;2007-08-06 03:00;CYXE 060300Z 18006KT 15SM SCT085 BKN290 20/12 A2985 RMK AC4CI0 SLP111

CYXE;2007-08-06 04:00;CYXE 060400Z 16005KT 15SM SCT090 BKN290 18/11 A2985 RMK AC4CI0 SLP111

CYXE;2007-08-06 05:00;CYXE 060500Z 18007KT 15SM SCT090 BKN290 18/10 A2983 RMK AC3CI0 SLP106

CYXE;2007-08-06 06:00;CYXE 060600Z 18007KT 15SM FEW090 FEW240 16/10 A2983 RMK AC1CI0 SLP105

CYXE;2007-08-06 07:00;CYXE 060700Z 18006KT 15SM FEW110 FEW250 15/10 A2982 RMK AC2CI0 SLP104

CYXE;2007-08-06 08:00;CYXE 060800Z 18007KT 15SM FEW250 15/09 A2981 RMK CI0 SLP100

CYXE;2007-08-06 09:00;CYXE 060900Z 18006KT 15SM FEW250 14/09 A2979 RMK CI0 SLP092

CYXE;2007-08-06 10:00;CYXE 061000Z 18006KT 15SM FEW120 SCT250 13/09 A2977 RMK AC2CI0 SLP085

CYXE;2007-08-06 11:00;CYXE 061100Z CCA 22005KT 15SM SCT080 OVC250 15/09 A2978 RMK AC3CI4 ACC ASOCTD SLP088

CYXE;2007-08-06 12:00;CYXE 061200Z 27002KT 15SM BKN080 OVC230 13/10 A2977 RMK AC5CI3 ACC ASOCTD SLP086

CYXE;2007-08-06 13:00;CYXE 061300Z 20004KT 15SM BKN078 BKN088 OVC230 15/10 A2978 RMK AC5AC2CI2 SLP089

CYXE;2007-08-06 14:00;CYXE 061400Z 18008KT 15SM BKN078 BKN090 OVC270 16/11 A2977 RMK AC5AC2CI1 SLP083

CYXE;2007-08-06 15:00;CYXE 061500Z 21008KT 15SM SCT080 BKN100 OVC270 17/11 A2975 RMK AC4AC2CI2 SLP078

CYXE;2007-08-06 16:00;CYXE 061600Z 20010KT 15SM -RA SCT080 BKN100 OVC270 17/12 A2974 RMK AC4AC2CI2 SLP074

CYXE;2007-08-06 17:00;CYXE 061700Z 23011KT 15SM FEW008 FEW012 SCT030 OVC090 17/15 A2975 RMK SF1SC2SC2AC5 SLP077

CYXE;2007-08-06 17:29;CYXE 061729Z 23007KT 15SM BKN013 OVC095 17/ RMK SC5AC3

CYXE;2007-08-06 18:00;CYXE 061800Z 24008KT 15SM BKN013 OVC090 18/16 A2975 RMK SC7AC1 SLP079

CYXE;2007-08-06 18:46;CYXE 061846Z 23012KT 15SM SCT013 BKN080 OVC120 19/ RMK SC3AC2AC2

CYXE;2007-08-06 19:00;CYXE 061900Z 21010KT 15SM SCT015 BKN080 OVC270 20/16 A2974 RMK SC3AC2CS2 SLP077

CYXE;2007-08-06 20:00;CYXE 062000Z 19012KT 15SM SCT018 BKN080 OVC270 21/16 A2973 RMK SC4ACC2CS1 SLP074

CYXE;2007-08-06 21:00;CYXE 062100Z 20015G20KT 15SM VCSH SCT025 BKN090 BKN270 21/14 A2971 RMK SC4ACC2CI0 SH W-N SLP066

CYXE;2007-08-06 21:24;CYXE 062124Z 19009G20KT 15SM -SHRA BKN019 BKN090 BKN270 20/ RMK SC5ACC1CI0 CB EMBD N

CYXE;2007-08-06 21:37;CYXE 062137Z 18012G17KT 12SM -SHRA FEW008 BKN020 BKN090 BKN270 18/ RMK SF1SC4ACC1CI0 TCU EMBD

CYXE;2007-08-06 22:00;CYXE 062200Z 18008KT 15SM -SHRA SCT016 BKN050 BKN090 OVC270 18/14 A2970 RMK SF3SC2ACC1CI0 TCU EMBD SLP063

CYXE;2007-08-06 22:24;CYXE 062224Z 19010KT 15SM FEW008 SCT020 BKN096 OVC270 20/ RMK SF1SC3AC4CI1 CB EMBD

CYXE;2007-08-06 22:54;CYXE 062254Z 19006KT 15SM -SHRA BKN023 BKN090 19/ RMK SC6AC2 CB EMBD

CYXE;2007-08-06 23:00;CYXE 062300Z 19006KT 15SM -SHRA BKN023 BKN090 19/14 A2969 RMK SC6AC2 CB EMBD TOP W SLP059

CYXE;2007-08-06 23:36;CYXE 062336Z 21007KT 15SM VCSH FEW020CB BKN043 BKN090 19/ RMK CB2SC3AC2 CB N MOVG NE

CYXE;2007-08-07 00:00;CYXE 070000Z 21006KT 15SM VCSH FEW020CB FEW043 BKN074 19/15 A2967 RMK CB2SC1AS4 CB N MOVG E SLP052

CYXE;2007-08-07 01:00;CYXE 070100Z 22008KT 15SM FEW020CB BKN070 BKN230 21/15 A2967 RMK CB2AC3CI0 CB TOPS DIST N-E-S-SW SLP052

CYXE;2007-08-07 02:00;CYXE 070200Z 23004KT 15SM FEW020CB SCT070 BKN230 20/16 A2966 RMK CB2AC2CI0 CB TOP DIST N SLP051

CYXE;2007-08-07 03:00;CYXE 070300Z 22005KT 15SM FEW025TCU FEW070 SCT230 18/15 A2967 RMK TCU1AC1CI0 SLP051

CYXE;2007-08-07 04:00;CYXE 070400Z 18004KT 15SM FEW070 17/15 A2967 RMK AC1 SLP051

CYXE;2007-08-07 05:00;CYXE 070500Z 21004KT 15SM FEW025CB FEW070 15/14 A2966 RMK CB1AC1 LTGCG DIST S SLP050

CYXE;2007-08-07 06:00;CYXE 070600Z 20004KT 15SM SKC 15/14 A2966 RMK SLP049

CYXE;2007-08-07 07:00;CYXE 070700Z 19007KT 15SM SKC 15/14 A2965 RMK SLP046

CYXE;2007-08-07 08:00;CYXE 070800Z 19006KT 15SM FEW084 14/13 A2965 RMK AC1 SLP045

CYXE;2007-08-07 09:00;CYXE 070900Z 21004KT 15SM FEW250 13/13 A2965 RMK CI0 SLP045

CYXE;2007-08-07 10:00;CYXE 071000Z 19005KT 15SM FEW090 FEW250 13/12 A2964 RMK AC1CI0 SLP043

CYXE;2007-08-07 11:00;CYXE 071100Z 18005KT 6SM BR FEW090 FEW250 12/12 A2963 RMK AC1CI0 SLP041

CYXE;2007-08-07 12:00;CYXE 071200Z 19005KT 15SM FEW090 FEW250 12/12 A2964 RMK AC1CI0 SLP043

CYXE;2007-08-07 13:00;CYXE 071300Z 19005KT 15SM SKC 14/13 A2964 RMK SLP044

CYXE;2007-08-07 14:00;CYXE 071400Z 20007KT 15SM SKC 16/13 A2964 RMK SLP044

CYXE;2007-08-07 15:00;CYXE 071500Z 21006KT 15SM SKC 18/14 A2963 RMK SLP040

CYXE;2007-08-07 16:00;CYXE 071600Z 21005KT 15SM SKC 22/13 A2961 RMK SLP033

CYXE;2007-08-07 17:00;CYXE 071700Z 19006KT 15SM SKC 26/12 A2960 RMK SLP029

CYXE;2007-08-07 18:00;CYXE 071800Z 17009KT 15SM SKC 27/10 A2959 RMK SLP019

CYXE;2007-08-07 19:00;CYXE 071900Z 20006KT 15SM SKC 29/09 A2956 RMK SLP012

CYXE;2007-08-07 20:00;CYXE 072000Z 19011G16KT 15SM FEW300 31/11 A2954 RMK CI0 SLP003

CYXE;2007-08-07 21:00;CYXE 072100Z 22013G18KT 15SM FEW080 FEW300 32/09 A2952 RMK CF1CI0 SLP995

CYXE;2007-08-07 22:00;CYXE 072200Z 18012G21KT 15SM SCT080 BKN300 30/11 A2949 RMK CU3CI0 SLP987

CYXE;2007-08-07 23:00;CYXE 072300Z 22014G19KT 15SM SCT090 BKN300 32/08 A2948 RMK CU3CI1 SLP982

CYXE;2007-08-08 00:00;CYXE 080000Z 24013KT 12SM SCT090 BKN300 32/07 A2946 RMK CU3CI1 HZ SLP977

CYXE;2007-08-08 01:00;CYXE 080100Z 23007KT 12SM FEW090 SCT300 30/09 A2945 RMK ACC2CI1 HZ SLP973

CYXE;2007-08-08 02:00;CYXE 080200Z 24003KT 12SM BKN090 BKN300 28/12 A2945 RMK ACC4CI1 CB TOP DIST SW HZ SLP971

CYXE;2007-08-08 03:00;CYXE 080300Z 17005KT 15SM BKN090 BKN300 25/12 A2944 RMK ACC6CI0 TCU ASOCTD SLP970

CYXE;2007-08-08 04:00;CYXE 080400Z 21006KT 15SM BKN090 BKN300 22/10 A2944 RMK ACC6CI0 SLP970

CYXE;2007-08-08 05:00;CYXE 080500Z 24005KT 15SM BKN090 21/11 A2945 RMK AC5 SLP972

CYXE;2007-08-08 06:00;CYXE 080600Z 26007KT 15SM SCT090 18/13 A2945 RMK AC3 SLP971

CYXE;2007-08-08 07:00;CYXE 080700Z 26006KT 15SM FEW110 16/12 A2945 RMK AC2 SLP970

CYXE;2007-08-08 08:00;CYXE 080800Z 27010KT 15SM FEW110 15/12 A2947 RMK AC1 SLP977

CYXE;2007-08-08 09:00;CYXE 080900Z 31013KT 15SM SKC 17/13 A2948 RMK SLP981

CYXE;2007-08-08 10:00;CYXE 081000Z 33014KT 15SM SKC 18/14 A2952 RMK SLP992

CYXE;2007-08-08 11:00;CYXE 081100Z 32007KT 15SM FEW110 FEW250 17/12 A2954 RMK AC1CI0 SLP999

CYXE;2007-08-08 12:00;CYXE 081200Z 30008KT 15SM SCT110 BKN250 14/12 A2956 RMK AC3CI1 SLP010

CYXE;2007-08-08 13:00;CYXE 081300Z 30007KT 15SM FEW110 BKN250 16/13 A2959 RMK AC2CI2 ACC ASOCTD SLP019

CYXE;2007-08-08 14:00;CYXE 081400Z 30010KT 15SM FEW110 FEW250 18/14 A2963 RMK AC1CI0 SLP030

CYXE;2007-08-08 15:00;CYXE 081500Z 33010KT 15SM FEW110 20/15 A2964 RMK AC1 SLP036

CYXE;2007-08-08 16:00;CYXE 081600Z 33011KT 15SM FEW110 FEW250 22/15 A2966 RMK AC1CI1 SLP043

CYXE;2007-08-08 17:00;CYXE 081700Z 32010KT 15SM FEW036 FEW250 24/15 A2968 RMK CF1CI0 SLP049

CYXE;2007-08-08 18:00;CYXE 081800Z 34015KT 15SM FEW048 FEW270 25/13 A2969 RMK CU2CC1 SLP054

CYXE;2007-08-08 19:00;CYXE 081900Z 31010G18KT 15SM SCT048 SCT270 26/14 A2969 RMK CU3CC1 SLP056

CYXE;2007-08-08 20:00;CYXE 082000Z 31012G20KT 15SM SCT056 SCT270 27/12 A2970 RMK CU3CI1 SLP059

CYXE;2007-08-08 21:00;CYXE 082100Z 33013G19KT 15SM FEW062 FEW120 FEW270 27/12 A2972 RMK CU2AC1CI1 SLP064

CYXE;2007-08-08 22:00;CYXE 082200Z 32015KT 15SM FEW065 BKN120 BKN270 27/11 A2973 RMK CU2AC2CI0 SLP068

CYXE;2007-08-08 23:00;CYXE 082300Z 32014G19KT 15SM FEW065 BKN120 BKN270 25/10 A2976 RMK CU2AC5CI1 SLP077

CYXE;2007-08-09 00:00;CYXE 090000Z 35013G18KT 15SM FEW065 BKN100 BKN270 24/09 A2978 RMK CU1AC6CI0 ACC ACOSTD SLP087

CYXE;2007-08-09 01:00;CYXE 090100Z 34010KT 15SM BKN100 BKN270 21/10 A2980 RMK AC5CI0 SLP095

CYXE;2007-08-09 02:00;CYXE 090200Z 34007KT 15SM FEW060 SCT100 SCT270 19/11 A2981 RMK SC1AC3CI0 SLP097

CYXE;2007-08-09 03:00;CYXE 090300Z 34007KT 15SM FEW100 SCT270 14/10 A2983 RMK AC2CI1 SLP107

CYXE;2007-08-09 04:00;CYXE 090400Z 35006KT 15SM SCT090 SCT270 14/11 A2985 RMK AC3CI0 SLP114

CYXE;2007-08-09 05:00;CYXE 090500Z 35002KT 15SM SCT090 BKN270 12/10 A2987 RMK AC4CI0 SLP119

CYXE;2007-08-09 06:00;CYXE 090600Z 33004KT 15SM BKN088 14/11 A2987 RMK AC6 SLP120

CYXE;2007-08-09 07:00;CYXE 090700Z 01007KT 15SM BKN089 OVC250 16/13 A2988 RMK AC6CI2 SLP122

CYXE;2007-08-09 08:00;CYXE 090800Z 03010KT 15SM BKN081 OVC250 15/13 A2989 RMK AC6CI2 SLP124

CYXE;2007-08-09 09:00;CYXE 090900Z 04009KT 15SM BKN079 15/12 A2989 RMK AC6 SLP123

CYXE;2007-08-09 10:00;CYXE 091000Z 04008KT 15SM BKN075 14/12 A2990 RMK AC7 SLP125

CYXE;2007-08-09 10:42;CYXE 091042Z 36004KT 15SM -SHRA OVC075 14/ RMK AC8

CYXE;2007-08-09 11:00;CYXE 091100Z 02008KT 15SM -SHRA BKN053 OVC075 13/13 A2992 RMK SC5AC2 SLP132

CYXE;2007-08-09 12:00;CYXE 091200Z 35007KT 15SM -SHRA BKN054 OVC090 13/12 A2994 RMK SC5AC3 SLP142

CYXE;2007-08-09 13:00;CYXE 091300Z 03008KT 15SM -SHRA FEW054 BKN072 13/12 A2993 RMK SC2AC5 SLP140

CYXE;2007-08-09 14:00;CYXE 091400Z 36006KT 15SM -SHRA FEW020 BKN053 OVC088 13/12 A2995 RMK SF2SC3AC3 SLP146

CYXE;2007-08-09 14:50;CYXE 091450Z 03007KT 15SM -SHRA SCT008 OVC081 13/ RMK SF3AC5

CYXE;2007-08-09 15:00;CYXE 091500Z 04006KT 15SM -SHRA BKN008 OVC063 13/13 A2994 RMK SF5SC3 SLP150

CYXE;2007-08-09 16:00;CYXE 091600Z 04011KT 15SM -SHRA BKN006 OVC044 14/14 A2993 RMK SF5SC3 SLP146

CYXE;2007-08-09 16:45;CYXE 091645Z 01008KT 15SM BKN008 OVC044 15/ RMK SF6SC2

CYXE;2007-08-09 17:00;CYXE 091700Z 04010KT 15SM BKN009 OVC068 15/14 A2994 RMK SF6AC2 SLP149

CYXE;2007-08-09 17:22;CYXE 091722Z 03009KT 15SM -SHRA OVC007 15/ RMK SF8

CYXE;2007-08-09 18:00;CYXE 091800Z 04010KT 15SM -SHRA OVC008 15/15 A2995 RMK SC8 SLP151

CYXE;2007-08-09 18:35;CYXE 091835Z 02009KT 15SM OVC009 16/ RMK SC8

CYXE;2007-08-09 19:00;CYXE 091900Z 03009KT 15SM OVC010 16/14 A2995 RMK SC8 SLP153

CYXE;2007-08-09 20:00;CYXE 092000Z 03010KT 15SM OVC014 16/14 A2996 RMK SC8 SLP156

CYXE;2007-08-09 21:00;CYXE 092100Z 02011KT 15SM OVC014 16/14 A2998 RMK SC8 SLP160

CYXE;2007-08-09 21:44;CYXE 092144Z 03012KT 15SM BKN017 17/ RMK SC6

CYXE;2007-08-09 22:00;CYXE 092200Z 03012KT 15SM SCT020 17/13 A2999 RMK SC4 SLP162

CYXE;2007-08-09 23:00;CYXE 092300Z 03010KT 15SM BKN027 17/13 A3000 RMK SC7 SLP166

CYXE;2007-08-10 00:00;CYXE 100000Z 02011KT 15SM FEW032 BKN094 18/12 A3000 RMK CF2AC3 SLP168

CYXE;2007-08-10 01:00;CYXE 100100Z 01012KT 15SM FEW017 SCT044 BKN270 15/13 A3001 RMK SF1SC2CC0 SLP172

CYXE;2007-08-10 02:00;CYXE 100200Z 36009KT 15SM FEW020 SCT044 14/12 A3003 RMK ST1SC2 SLP178

CYXE;2007-08-10 03:00;CYXE 100300Z 36011KT 15SM FEW013 BKN029 13/12 A3005 RMK ST2SC5 SLP186

CYXE;2007-08-10 03:25;CYXE 100325Z 36014KT 15SM BKN010 OVC030 13/ RMK ST6SC2

CYXE;2007-08-10 04:00;CYXE 100400Z 01011KT 15SM SCT010 BKN030 13/11 A3006 RMK ST3SC4 CIG RAGGED SLP190

CYXE;2007-08-10 04:39;CYXE 100439Z 01010KT 15SM SCT008 OVC030 12/ RMK ST3SC5

CYXE;2007-08-10 04:54;CYXE 100454Z 02011KT 15SM BKN005 OVC030 12/ RMK ST6SC2

CYXE;2007-08-10 05:00;CYXE 100500Z 02012KT 15SM BKN005 OVC030 12/11 A3007 RMK ST7SC1 SLP193

CYXE;2007-08-10 05:20;CYXE 100520Z 03010KT 15SM SCT006 SCT010 OVC036 12/ RMK ST3ST1SC4

CYXE;2007-08-10 06:00;CYXE 100600Z 03008KT 15SM SCT009 OVC036 12/11 A3007 RMK SF3SC5 SLP194

CYXE;2007-08-10 07:00;CYXE 100700Z 03006KT 15SM SCT009 OVC066 11/10 A3008 RMK SF3AC5 SLP197

CYXE;2007-08-10 08:00;CYXE 100800Z 06008KT 15SM SCT007 OVC044 11/11 A3007 RMK SF4SC4 SLP194

CYXE;2007-08-10 08:12;CYXE 100812Z 05009KT 15SM BKN006 OVC042 11/ RMK ST6SC2

CYXE;2007-08-10 09:00;CYXE 100900Z 05010KT 15SM BKN005 OVC042 11/11 A3007 RMK ST6SC2 SLP194

CYXE;2007-08-10 09:29;CYXE 100929Z 06009KT 15SM OVC003 11/ RMK ST8

CYXE;2007-08-10 10:00;CYXE 101000Z 07009KT 15SM OVC004 12/11 A3006 RMK ST8 SLP190

CYXE;2007-08-10 10:35;CYXE 101035Z 07010KT 15SM BKN006 BKN039 12/ RMK ST5SC2

CYXE;2007-08-10 11:00;CYXE 101100Z 09006KT 15SM BKN007 BKN039 11/11 A3006 RMK ST5SC2 SLP190

CYXE;2007-08-10 11:38;CYXE 101138Z 07007KT 15SM BKN005 OVC039 RMK ST7SC1

CYXE;2007-08-10 12:00;CYXE 101200Z 07008KT 15SM OVC005 11/11 A3004 RMK ST8 SLP182

CYXE;2007-08-10 13:00;CYXE 101300Z 07007KT 15SM OVC006 12/11 A3005 RMK ST8 SLP186

CYXE;2007-08-10 13:29;CYXE 101329Z 10013KT 10SM -SHRA OVC007 12/ RMK ST8

CYXE;2007-08-10 14:00;CYXE 101400Z 10012KT 15SM -SHRA OVC009 12/11 A3002 RMK ST8 CVCTV CLD EMBD SLP174

CYXE;2007-08-10 14:39;CYXE 101439Z 09007KT 15SM OVC009 12/ RMK ST7

CYXE;2007-08-10 15:00;CYXE 101500Z 06010KT 15SM BKN008 OVC040 13/12 A3002 RMK ST6SC1 SLP177

CYXE;2007-08-10 15:18;CYXE 101518Z 06009KT 15SM BKN010 OVC040 13/ RMK ST6SC1

CYXE;2007-08-10 16:00;CYXE 101600Z 05014KT 15SM BKN012 BKN040 13/11 A2999 RMK SC6SC1 SLP167

CYXE;2007-08-10 17:00;CYXE 101700Z 09015KT 15SM BKN014 OVC040 15/12 A2996 RMK SC6SC2 SLP158

CYXE;2007-08-10 17:14;CYXE 101714Z 09014KT 15SM BKN016 OVC040 15/ RMK SC6SC2

CYXE;2007-08-10 18:00;CYXE 101800Z 05009KT 15SM OVC018 15/11 A2997 RMK SC8 SLP161

CYXE;2007-08-10 18:43;CYXE 101843Z 01007KT 15SM -SHRA OVC018 14/ RMK SC8

CYXE;2007-08-10 19:00;CYXE 101900Z 04005KT 10SM -SHRA OVC020 14/11 A3001 RMK SC8 CVCTV CLD EMBD BR SLP172

CYXE;2007-08-10 19:26;CYXE 101926Z 09006KT 5SM RA OVC020 13/ RMK SC8

CYXE;2007-08-10 19:28;CYXE 101928Z CCA 09006KT 5SM RA BR OVC020 13/ RMK SC8

CYXE;2007-08-10 19:53;CYXE 101953Z 09012KT 4SM +SHRA BR FEW003 OVC015 13/ RMK SF1SC7 CVCTV CLD EMBD

CYXE;2007-08-10 20:00;CYXE 102000Z 08018KT 4SM +SHRA BR FEW003 BKN015 OVC080 13/12 A2991 RMK SF1SC6AC1 CVCTV CLD EMBD PRESFR SLP140

CYXE;2007-08-10 20:21;CYXE 102021Z 10016KT 15SM FEW002 SCT015 OVC085 13/ RERA RMK SF2SC2AC5

CYXE;2007-08-10 20:49;CYXE 102049Z 09011KT 15SM SHRA FEW005 BKN030 OVC085 13/ RMK SF2SC5AC2 CVCTV CLD EMBD

CYXE;2007-08-10 20:55;CYXE 102055Z 10009KT 15SM -SHRA FEW008 BKN030 OVC085 13/ RERA RMK SF2SC5AC2 CVCTV CLD EMBD

CYXE;2007-08-10 21:00;CYXE 102100Z 09009KT 15SM -SHRA FEW008 BKN060 OVC085 13/13 A2991 RERA RMK SF2SC5AC2 CVCTV CLD EMBD SLP142

CYXE;2007-08-10 21:31;CYXE 102131Z 09006KT 15SM FEW008 BKN060 BKN090 14/ RMK SF1SC6AC1

CYXE;2007-08-10 22:00;CYXE 102200Z 09009KT 15SM SCT008 BKN060 BKN090 14/14 A2989 RMK SF3SC2AC2 SLP135

CYXE;2007-08-10 22:41;CYXE 102241Z 10014KT 15SM BKN014 BKN070 16/ RMK SC6AC2

CYXE;2007-08-10 23:00;CYXE 102300Z 10012KT 15SM BKN014 BKN070 16/14 A2986 RMK SC6AC2 SLP126

CYXE;2007-08-11 00:00;CYXE 110000Z 09008KT 15SM OVC015 16/14 A2985 RMK SC8 SLP119

CYXE;2007-08-11 01:00;CYXE 110100Z 11008KT 15SM OVC016 16/14 A2984 RMK SC8 SLP115

CYXE;2007-08-11 02:00;CYXE 110200Z 00000KT 15SM -RA OVC014 15/14 A2985 RMK SC8 SLP119

CYXE;2007-08-11 03:00;CYXE 110300Z 05006KT 10SM -RA BKN014 OVC070 14/14 A2985 RMK SC5AC3 SLP117

CYXE;2007-08-11 03:20;CYXE 110320Z 08006KT 15SM -RA FEW014 SCT070 OVC110 14/ RMK SC2AC2AC4

CYXE;2007-08-11 04:00;CYXE 110400Z 12009KT 15SM -RA FEW012 SCT020 BKN070 BKN110 14/14 A2980 RMK SC1SC2AC2AC2 SLP101

CYXE;2007-08-11 04:21;CYXE 110421Z 07014KT 15SM -RA BKN008 OVC080 14/ RMK SF5AC3

CYXE;2007-08-11 04:34;CYXE 110434Z 06007KT 15SM BKN003 BKN008 OVC080 14/ RMK SF5SF2AC2

CYXE;2007-08-11 05:00;CYXE 110500Z 35007KT 15SM BKN003 BKN020 OVC080 14/14 A2979 RMK SF6SC1AC2 SLP100

CYXE;2007-08-11 05:32;CYXE 110532Z 03008KT 15SM BKN004 OVC022 13/ RMK SF5SC3

CYXE;2007-08-11 05:48;CYXE 110548Z 04005KT 15SM SCT004 BKN009 OVC014 13/ RMK SF3SF2SC2

CYXE;2007-08-11 06:00;CYXE 110600Z 05004KT 15SM SCT004 OVC014 13/13 A2981 RMK SF4SC4 SLP104

CYXE;2007-08-11 06:19;CYXE 110619Z 01004KT 15SM BKN003 OVC014 13/ RMK ST6SC2

CYXE;2007-08-11 06:46;CYXE 110646Z 03004KT 15SM OVC004 13/ RMK ST8

CYXE;2007-08-11 07:00;CYXE 110700Z 04006KT 15SM BKN003 OVC026 13/13 A2981 RMK ST7SC1 SLP106

CYXE;2007-08-11 08:00;CYXE 110800Z 03005KT 15SM OVC003 12/12 A2981 RMK ST8 SLP106

CYXE;2007-08-11 08:24;CYXE 110824Z 34013KT 10SM -SHRA OVC004 11/ RMK ST8

CYXE;2007-08-11 08:30;CYXE 110830Z 35012KT 6SM +SHRA OVC004 11/ RMK ST8

CYXE;2007-08-11 08:49;CYXE 110849Z 36012KT 10SM -SHRA OVC006 11/ RERA RMK ST8

CYXE;2007-08-11 09:00;CYXE 110900Z 36012KT 15SM -SHRA SCT006 OVC015 11/11 A2984 RERA RMK ST4SC4 SLP115

CYXE;2007-08-11 10:00;CYXE 111000Z 34015KT 15SM -SHRA SCT008 OVC030 11/10 A2987 RMK SF4SC4 SLP126

CYXE;2007-08-11 10:23;CYXE 111023Z 34014KT 15SM SCT009 OVC025 10/ RMK SF4SC4

CYXE;2007-08-11 11:00;CYXE 111100Z 34011G19KT 15SM BKN009 OVC033 10/10 A2991 RMK SC6SC2 SLP139

CYXE;2007-08-11 11:31;CYXE 111131Z 35011G18KT 15SM OVC010 10/ RMK SC8

CYXE;2007-08-11 11:43;CYXE 111143Z 34013KT 10SM -DZ OVC010 10/ RMK ST8

CYXE;2007-08-11 11:49;CYXE 111149Z 33012KT 3SM -DZ OVC007 10/ RMK ST8

CYXE;2007-08-11 12:00;CYXE 111200Z 34014KT 3SM -DZ OVC007 10/10 A2995 RMK ST8 SLP153

CYXE;2007-08-11 12:30;CYXE 111230Z 35013KT 10SM -DZ OVC013 10/ RMK SF8

CYXE;2007-08-11 13:00;CYXE 111300Z 34011G16KT 15SM -DZ SCT015 OVC032 10/09 A2998 RMK SF4SC4 SLP163

CYXE;2007-08-11 13:20;CYXE 111320Z 34011G16KT 15SM SCT015 OVC039 10/ RMK SF3SC5

CYXE;2007-08-11 14:00;CYXE 111400Z 35014G19KT 15SM FEW015 SCT040 BKN100 11/09 A3000 RMK CF2SC2AC3 SLP170

CYXE;2007-08-11 15:00;CYXE 111500Z 34013G18KT 15SM FEW018 FEW060 BKN070 12/09 A3003 RMK CU1SC1AC4 SLP181

CYXE;2007-08-11 16:00;CYXE 111600Z 33014KT 15SM FEW020 FEW075 13/09 A3006 RMK CU2AC1 SLP189

CYXE;2007-08-11 17:00;CYXE 111700Z 32010G17KT 15SM BKN025 15/10 A3007 RMK CU6 SLP193

CYXE;2007-08-11 18:00;CYXE 111800Z 30012G17KT 15SM BKN030 16/09 A3008 RMK CU7 TCU ASOCTD SLP198

CYXE;2007-08-11 19:00;CYXE 111900Z 31013KT 15SM BKN035 17/09 A3009 RMK CU6 TCU ASCOTD SLP200

CYXE;2007-08-11 20:00;CYXE 112000Z 31007G15KT 15SM BKN040 18/09 A3010 RMK CU6 TCU ASOCTD SLP203

CYXE;2007-08-11 21:00;CYXE 112100Z 30008KT 15SM SCT045 19/09 A3009 RMK CU4 TCU ASOCTD SLP200

CYXE;2007-08-11 22:00;CYXE 112200Z 31006KT 15SM SCT047 19/07 A3010 RMK CU3 TCU ASOCTD SLP202

CYXE;2007-08-11 23:00;CYXE 112300Z 30004KT 15SM SCT053 19/09 A3010 RMK CU3 TCU ASOCTD SLP203

CYXE;2007-08-12 00:00;CYXE 120000Z 30002KT 15SM FEW057 20/07 A3010 RMK CU2 SLP201

CYXE;2007-08-12 01:00;CYXE 120100Z 24004KT 15SM FEW058 16/10 A3010 RMK CU2 SLP203

CYXE;2007-08-12 02:00;CYXE 120200Z 20002KT 15SM FEW058 FEW250 17/09 A3010 RMK CU1CI1 SLP203

CYXE;2007-08-12 03:00;CYXE 120300Z 23005KT 15SM FEW090 FEW250 13/09 A3012 RMK AC1CI1 SLP212

CYXE;2007-08-12 04:00;CYXE 120400Z 20005KT 15SM FEW250 13/08 A3013 RMK CI0 SLP217

CYXE;2007-08-12 05:00;CYXE 120500Z 19005KT 15SM FEW250 12/09 A3014 RMK CI0 SLP218

CYXE;2007-08-12 06:00;CYXE 120600Z 19007KT 15SM SKC 11/09 A3014 RMK SLP218

CYXE;2007-08-12 07:00;CYXE 120700Z 18006KT 15SM SKC 11/08 A3014 RMK SLP219

CYXE;2007-08-12 08:00;CYXE 120800Z 18006KT 15SM SKC 10/08 A3014 RMK SLP217

CYXE;2007-08-12 09:00;CYXE 120900Z 19007KT 15SM SKC 10/08 A3014 RMK SLP217

CYXE;2007-08-12 10:00;CYXE 121000Z 18007KT 15SM SKC 09/07 A3015 RMK SLP218

CYXE;2007-08-12 11:00;CYXE 121100Z 17007KT 15SM SKC 08/07 A3013 RMK SLP214

CYXE;2007-08-12 12:00;CYXE 121200Z 16005KT 15SM SCT300 09/08 A3013 RMK CI1 SLP215

CYXE;2007-08-12 13:00;CYXE 121300Z 17006KT 15SM FEW300 11/08 A3013 RMK CI1 SLP214

CYXE;2007-08-12 14:00;CYXE 121400Z 16006KT 15SM FEW300 14/09 A3012 RMK CI1 SLP209

CYXE;2007-08-12 15:00;CYXE 121500Z 16008KT 15SM SCT300 17/10 A3012 RMK CI1 SLP209

CYXE;2007-08-12 16:00;CYXE 121600Z 17016G21KT 15SM FEW300 18/08 A3011 RMK CI1 SLP206

CYXE;2007-08-12 17:00;CYXE 121700Z 15015G21KT 15SM FEW130 SCT300 19/08 A3009 RMK AC1CI1 SLP200

CYXE;2007-08-12 18:00;CYXE 121800Z 14016G21KT 15SM FEW120 SCT300 20/09 A3007 RMK AC2CI0 SLP190

CYXE;2007-08-12 19:00;CYXE 121900Z 14011G16KT 15SM BKN110 BKN300 20/08 A3004 RMK AC6CI0 SLP182

CYXE;2007-08-12 20:00;CYXE 122000Z 14014KT 15SM BKN110 21/08 A3001 RMK AC7 SLP172

CYXE;2007-08-12 21:00;CYXE 122100Z 13013KT 15SM BKN095 21/09 A2999 RMK AC7 SLP163

CYXE;2007-08-12 22:00;CYXE 122200Z 14015KT 15SM BKN086 OVC250 23/08 A2996 RMK AC5CI2 ACC ASOCTD VIRGA SLP155

CYXE;2007-08-12 23:00;CYXE 122300Z 15016KT 15SM SCT086 BKN250 23/08 A2995 RMK AC2CI2 CB TOP N SLP149

CYXE;2007-08-13 00:00;CYXE 130000Z 14015KT 15SM FEW063 SCT090 BKN250 23/09 A2994 RMK SC2AC1CI2 CB TOP NW SLP145

CYXE;2007-08-13 01:00;CYXE 130100Z 13008G18KT 15SM FEW063 SCT250 22/10 A2992 RMK SC2CI1 SLP141

CYXE;2007-08-13 02:00;CYXE 130200Z 12008KT 15SM FEW050CB FEW063 21/10 A2993 RMK CB1SC2 CB NE SLP143

CYXE;2007-08-13 03:00;CYXE 130300Z 09008KT 15SM FEW060 FEW250 18/10 A2993 RMK SC2CI0 SLP141

CYXE;2007-08-13 04:00;CYXE 130400Z 11011KT 15SM FEW095 17/10 A2993 RMK AC2 SLP141

CYXE;2007-08-13 05:00;CYXE 130500Z 10009KT 15SM FEW095 16/11 A2993 RMK AC1 SLP140

CYXE;2007-08-13 06:00;CYXE 130600Z 06008KT 15SM FEW095 13/11 A2993 RMK AC1 SLP141

CYXE;2007-08-13 07:00;CYXE 130700Z 06008KT 15SM FEW100 SCT250 13/11 A2992 RMK AC1CI1 SLP138

CYXE;2007-08-13 08:00;CYXE 130800Z 06008KT 15SM FEW250 13/12 A2990 RMK CI1 SLP134

CYXE;2007-08-13 09:00;CYXE 130900Z 06008KT 15SM FEW100 FEW250 12/12 A2990 RMK AC1CI1 SLP131

CYXE;2007-08-13 10:00;CYXE 131000Z 06009KT 15SM FEW250 12/12 A2989 RMK CI1 SLP128

CYXE;2007-08-13 11:00;CYXE 131100Z 05008KT 15SM FEW100 SCT250 11/11 A2989 RMK AC1CI1 LTGIC DIS W SLP129

CYXE;2007-08-13 12:00;CYXE 131200Z 06009KT 15SM FEW090 SCT250 11/11 A2989 RMK AC1CI1 CB TOP DIS W SLP127

CYXE;2007-08-13 13:00;CYXE 131300Z 05004KT 15SM BKN075 BKN250 13/12 A2991 RMK AC6CI1 SHWRS W-NW SLP136

CYXE;2007-08-13 14:00;CYXE 131400Z 36014KT 15SM FEW032 BKN075 BKN250 14/13 A2996 RMK ST1AC6CI0 SLP150

CYXE;2007-08-13 14:18;CYXE 131418Z 01014KT 15SM FEW010 SCT058 BKN075 BKN250 15/ RMK ST2SC2AC3CI0

CYXE;2007-08-13 15:00;CYXE 131500Z 04009KT 15SM FEW058 SCT087 BKN250 16/13 A2995 RMK SC2AC2CC0 CVCTV CLD EMBD SLP147

CYXE;2007-08-13 15:37;CYXE 131537Z 06013KT 15SM -SHRA BKN075 OVC250 17/ RMK AC7CI0 ACC ASOCTD

CYXE;2007-08-13 15:43;CYXE 131543Z 08012KT 12SM +SHRA OVC075 16/ RMK AC8 ACC ASOCTD

CYXE;2007-08-13 16:00;CYXE 131600Z 36007KT 15SM -SHRA BKN070 BKN250 16/14 A2995 RERA RMK AC6CI0 SLP150

CYXE;2007-08-13 16:15;CYXE 131615Z 32014KT 15SM VCSH BKN070 BKN270 17/ RERA RMK AC5CI0 VIRGA S-SW

CYXE;2007-08-13 17:00;CYXE 131700Z 34012KT 15SM SCT080 SCT270 19/15 A2999 RMK AC3CI0 SLP162

CYXE;2007-08-13 18:00;CYXE 131800Z 32011KT 15SM FEW025 SCT080 21/14 A3001 RMK CU1AC3 SLP169

CYXE;2007-08-13 19:00;CYXE 131900Z 32008KT 15SM FEW025 FEW270 22/14 A3002 RMK CU2CI0 SLP172

CYXE;2007-08-13 20:00;CYXE 132000Z 31010KT 15SM BKN040 22/13 A3002 RMK CU5 SLP173

CYXE;2007-08-13 21:00;CYXE 132100Z 30014KT 15SM SCT040TCU OVC085 23/14 A3003 RMK TCU4AC3 SLP174

CYXE;2007-08-13 22:00;CYXE 132200Z 33015KT 15SM FEW040TCU BKN120 22/14 A3003 RMK TCU2AC5 SLP176

CYXE;2007-08-13 23:00;CYXE 132300Z 36015KT 15SM SCT037 BKN090 20/13 A3004 RMK CU3AC2 TCU ASOCTD SLP180

CYXE;2007-08-14 00:00;CYXE 140000Z 01016G21KT 15SM FEW035 FEW090 SCT250 19/12 A3005 RMK CU2AC1CI0 SLP185

CYXE;2007-08-14 01:00;CYXE 140100Z 36016KT 15SM FEW048 BKN110 BKN250 17/12 A3008 RMK SC1AC3CI0 SLP193

CYXE;2007-08-14 02:00;CYXE 140200Z 36011KT 15SM FEW048 BKN110 BKN250 15/11 A3011 RMK SC1AC5CI0 SLP204

CYXE;2007-08-14 03:00;CYXE 140300Z 36005KT 15SM FEW035 BKN110 BKN220 13/10 A3013 RMK SC1AC4CI2 SLP214

CYXE;2007-08-14 04:00;CYXE 140400Z 34004KT 15SM BKN110 12/11 A3015 RMK AC6 SLP218

CYXE;2007-08-14 05:00;CYXE 140500Z 32005KT 15SM FEW110 10/09 A3015 RMK AC2 SLP220

CYXE;2007-08-14 06:00;CYXE 140600Z 32005KT 15SM FEW090 09/09 A3016 RMK AC1 SLP223

CYXE;2007-08-14 07:00;CYXE 140700Z 33007KT 15SM SKC 08/07 A3016 RMK SLP223

CYXE;2007-08-14 08:00;CYXE 140800Z 31005KT 15SM SKC 07/07 A3016 RMK SLP223

CYXE;2007-08-14 09:00;CYXE 140900Z 29004KT 15SM SKC 07/07 A3016 RMK SLP224

CYXE;2007-08-14 10:00;CYXE 141000Z 27004KT 15SM SKC 06/06 A3017 RMK SLP225

CYXE;2007-08-14 11:00;CYXE 141100Z 29004KT 15SM FEW120 FEW250 05/05 A3016 RMK AC1CI0 SLP222

CYXE;2007-08-14 12:00;CYXE 141200Z 26003KT 15SM SCT110 BKN130 BKN250 06/06 A3015 RMK AC3AC2CI1 SLP224

CYXE;2007-08-14 13:00;CYXE 141300Z 27004KT 15SM BKN110 BKN140 BKN250 08/08 A3014 RMK AC5AC1CI1 SLP221

CYXE;2007-08-14 14:00;CYXE 141400Z 31004KT 15SM BKN120 BKN250 10/09 A3013 RMK AC4CI1 SLP218

CYXE;2007-08-14 15:00;CYXE 141500Z 26005KT 15SM BKN120 BKN270 13/10 A3014 RMK AC4CI1 ACC ASOCTD SLP217

CYXE;2007-08-14 16:00;CYXE 141600Z 29007KT 15SM FEW028 BKN100 BKN270 16/09 A3012 RMK CU1AC6CI1 SLP213

CYXE;2007-08-14 17:00;CYXE 141700Z 30006KT 15SM SCT037 BKN088 17/08 A3011 RMK CU3AC4 ACC ASOCTD SLP208

CYXE;2007-08-14 18:00;CYXE 141800Z 27006KT 15SM BKN037 BKN088 18/09 A3008 RMK CU5AC2 TEMPO FU IN VC SLP199

CYXE;2007-08-14 19:00;CYXE 141900Z 25006KT 15SM BKN045 BKN100 19/08 A3007 RMK CU6AC1 SLP193

CYXE;2007-08-14 20:00;CYXE 142000Z 27006KT 15SM BKN047 18/08 A3004 RMK CU6 SLP186

CYXE;2007-08-14 21:00;CYXE 142100Z 24004KT 15SM BKN050 BKN071 18/07 A3002 RMK SC6AC1 SLP177

CYXE;2007-08-14 22:00;CYXE 142200Z 22008KT 15SM BKN055 BKN080 18/06 A2999 RMK SC6AC2 SLP170

CYXE;2007-08-14 23:00;CYXE 142300Z 23007KT 15SM SCT055 BKN078 19/07 A2997 RMK SC4AC2 SLP163

CYXE;2007-08-15 00:00;CYXE 150000Z 21008KT 15SM SCT057 BKN086 20/08 A2995 RMK SC3AC2 SLP153

CYXE;2007-08-15 01:00;CYXE 150100Z 23008G15KT 15SM FEW060 SCT079 19/08 A2993 RMK SC2AC2 SLP148

CYXE;2007-08-15 02:00;CYXE 150200Z 21009KT 15SM FEW088 FEW250 17/07 A2992 RMK AC1CI1 SLP143

CYXE;2007-08-15 03:00;CYXE 150300Z 20007KT 15SM FEW065 FEW250 15/08 A2990 RMK AC1CI0 SLP136

CYXE;2007-08-15 04:00;CYXE 150400Z 20008KT 15SM FEW070 FEW250 14/09 A2989 RMK AC1CI0 SLP132

CYXE;2007-08-15 05:00;CYXE 150500Z 20010KT 15SM FEW060CB FEW075 FEW250 14/08 A2987 RMK CB1AC1CI0 CB + LTGCG N SLP126

CYXE;2007-08-15 06:00;CYXE 150600Z 35012KT 15SM FEW060CB BKN091 BKN250 12/09 A2990 RMK CB1AC4CI1 CB + LTGIC DIST NE SLP135

CYXE;2007-08-15 07:00;CYXE 150700Z 24010KT 15SM SCT050 BKN091 13/10 A2990 RMK SC4AC2 SLP135

CYXE;2007-08-15 08:00;CYXE 150800Z 24007KT 15SM FEW050 SCT090 11/09 A2990 RMK SC1AC2 SLP134

CYXE;2007-08-15 09:00;CYXE 150900Z 26007KT 15SM SCT090 09/08 A2990 RMK AC3 SLP136

CYXE;2007-08-15 10:00;CYXE 151000Z 27007KT 15SM SCT090 08/08 A2990 RMK AC2 SLP136

CYXE;2007-08-15 11:00;CYXE 151100Z 25007KT 15SM SCT090 07/07 A2991 RMK AC4 SLP140

CYXE;2007-08-15 12:00;CYXE 151200Z 25007KT 15SM SCT090 07/06 A2991 RMK AC3 SLP138

CYXE;2007-08-15 13:00;CYXE 151300Z 29006KT 15SM FEW090 09/08 A2992 RMK AC1 SLP142

CYXE;2007-08-15 14:00;CYXE 151400Z 31014KT 15SM FEW090 11/08 A2994 RMK AC1 SLP149

CYXE;2007-08-15 15:00;CYXE 151500Z 32014KT 15SM FEW090 14/09 A2997 RMK AC1 SLP158

CYXE;2007-08-15 16:00;CYXE 151600Z 01009KT 15SM BKN023 BKN060 16/10 A2999 RMK SC5SC1 SLP166

CYXE;2007-08-15 17:00;CYXE 151700Z 35011G16KT 15SM BKN026 16/10 A3002 RMK SC6 SLP173

CYXE;2007-08-15 18:00;CYXE 151800Z 33008G15KT 15SM BKN030 16/09 A3003 RMK SC7 SLP181

CYXE;2007-08-15 19:00;CYXE 151900Z 34011G17KT 15SM BKN034 16/07 A3005 RMK CU6 SLP185

CYXE;2007-08-15 20:00;CYXE 152000Z 36006KT 15SM BKN034 16/08 A3004 RMK CU6 SLP184

CYXE;2007-08-15 21:00;CYXE 152100Z 35009KT 15SM BKN045 18/07 A3005 RMK CU5 SLP189

CYXE;2007-08-15 22:00;CYXE 152200Z 36011KT 15SM SCT051 BKN250 18/07 A3006 RMK CU4CI0 SLP191

CYXE;2007-08-15 23:00;CYXE 152300Z 33008KT 15SM SCT055 19/06 A3006 RMK CU3 SLP191

CYXE;2007-08-16 00:00;CYXE 160000Z 35009KT 15SM FEW060 18/06 A3007 RMK CU2 SLP193

CYXE;2007-08-16 01:00;CYXE 160100Z 35007KT 15SM FEW060 17/05 A3007 RMK SC2 SLP193

CYXE;2007-08-16 02:00;CYXE 160200Z 04006KT 15SM FEW060 FEW110 FEW250 14/07 A3007 RMK SC1AC1CI0 SLP194

CYXE;2007-08-16 03:00;CYXE 160300Z 04007KT 15SM FEW063 SCT110 BKN250 11/05 A3009 RMK SC2AC1CI0 SLP202

CYXE;2007-08-16 04:00;CYXE 160400Z 03004KT 15SM FEW110 BKN250 11/06 A3010 RMK AC2CI0 SLP205

CYXE;2007-08-16 05:00;CYXE 160500Z 08002KT 15SM FEW110 10/06 A3010 RMK AC1 SLP206

CYXE;2007-08-16 06:00;CYXE 160600Z 07003KT 15SM FEW110 10/05 A3011 RMK AC2 SLP209

CYXE;2007-08-16 07:00;CYXE 160700Z 00000KT 15SM SKC 08/07 A3012 RMK FU SW SLP213

CYXE;2007-08-16 08:00;CYXE 160800Z 26003KT 15SM FEW091 07/06 A3012 RMK AC2 SLP213

CYXE;2007-08-16 09:00;CYXE 160900Z 23004KT 15SM SCT091 07/06 A3013 RMK AC2 SLP216

CYXE;2007-08-16 10:00;CYXE 161000Z 25005KT 15SM FEW091 07/06 A3013 RMK AC2 SLP216

CYXE;2007-08-16 11:00;CYXE 161100Z 25003KT 15SM BKN110 07/06 A3013 RMK AC4 SLP217

CYXE;2007-08-16 12:00;CYXE 161200Z 25004KT 15SM SCT110 07/06 A3015 RMK AC2 SLP221

CYXE;2007-08-16 13:00;CYXE 161300Z 00000KT 15SM FEW110 FEW300 08/07 A3015 RMK AC1CI0 SLP222

CYXE;2007-08-16 14:00;CYXE 161400Z 23002KT 15SM FEW110 11/08 A3015 RMK AC1 SLP223

CYXE;2007-08-16 15:00;CYXE 161500Z 23005KT 15SM FEW110 15/07 A3016 RMK AC2 SLP226

CYXE;2007-08-16 16:00;CYXE 161600Z 32005KT 15SM FEW110 18/06 A3016 RMK AC1 SLP226

CYXE;2007-08-16 17:00;CYXE 161700Z 02004KT 15SM FEW060 FEW110 18/05 A3017 RMK CU1AC0 SLP227

CYXE;2007-08-16 18:00;CYXE 161800Z CCA 03005KT 15SM FEW060 FEW110 19/06 A3016 RMK CU2AC0 SLP222

CYXE;2007-08-16 19:00;CYXE 161900Z 27006KT 15SM FEW060 FEW110 20/05 A3015 RMK CU1AC1 SLP219

CYXE;2007-08-16 20:00;CYXE 162000Z 34010KT 15SM FEW060 FEW110 21/06 A3014 RMK CU1AC1 SLP218

CYXE;2007-08-16 21:00;CYXE 162100Z 31007KT 15SM FEW060 FEW110 22/06 A3013 RMK SC1AC1 SLP215

CYXE;2007-08-16 22:00;CYXE 162200Z 05006KT 15SM FEW060 FEW110 21/06 A3012 RMK SC1AC1 SLP212

CYXE;2007-08-16 23:00;CYXE 162300Z 02002KT 15SM FEW060 22/07 A3012 RMK CU2 SLP211

CYXE;2007-08-17 00:00;CYXE 170000Z 02007KT 15SM FEW055 21/07 A3012 RMK CU1 SLP210

CYXE;2007-08-17 01:00;CYXE 170100Z 04005KT 15SM SKC 20/07 A3012 RMK SLP212

CYXE;2007-08-17 02:00;CYXE 170200Z 07008KT 15SM FEW100 17/07 A3012 RMK AC1 SLP212

CYXE;2007-08-17 03:00;CYXE 170300Z 07007KT 15SM FEW100 FEW270 14/07 A3015 RMK AC1CI0 SLP219

CYXE;2007-08-17 04:00;CYXE 170400Z 07007KT 15SM FEW270 12/07 A3015 RMK CI0 SLP220

CYXE;2007-08-17 05:00;CYXE 170500Z 11008KT 15SM SKC 13/06 A3016 RMK SLP222

CYXE;2007-08-17 06:00;CYXE 170600Z 09006KT 15SM SKC 11/06 A3016 RMK SLP221

CYXE;2007-08-17 07:00;CYXE 170700Z 12007KT 15SM SKC 12/06 A3015 RMK SLP219

CYXE;2007-08-17 08:00;CYXE 170800Z 13008KT 15SM SKC 11/06 A3016 RMK SLP221

CYXE;2007-08-17 09:00;CYXE 170900Z 12008KT 15SM SKC 11/06 A3015 RMK SLP219

CYXE;2007-08-17 10:00;CYXE 171000Z 13008KT 15SM FEW100 11/06 A3016 RMK AC1 SLP221

CYXE;2007-08-17 11:00;CYXE 171100Z 13007KT 15SM SCT100 BKN270 10/06 A3015 RMK AC4CI0 SLP218

CYXE;2007-08-17 12:00;CYXE 171200Z 12006KT 15SM SCT100 BKN270 10/05 A3015 RMK AC4CI0 ACC ASOCTD SLP220

CYXE;2007-08-17 13:00;CYXE 171300Z 13007KT 15SM BKN095 BKN270 11/06 A3016 RMK AC6CI1 ACC ASOCTD SLP223

CYXE;2007-08-17 14:00;CYXE 171400Z 12004KT 15SM BKN110 BKN270 12/06 A3017 RMK AC6CI1 SLP224

CYXE;2007-08-17 15:00;CYXE 171500Z 13007KT 15SM BKN098 BKN270 14/07 A3015 RMK AC6CI1 SLP222

CYXE;2007-08-17 16:00;CYXE 171600Z 12009KT 15SM BKN110 BKN270 15/07 A3014 RMK AC5CI1 SLP219

CYXE;2007-08-17 17:00;CYXE 171700Z 14010G16KT 15SM SCT110 BKN270 18/07 A3012 RMK AC3CI0 SLP213

CYXE;2007-08-17 18:00;CYXE 171800Z 13014KT 15SM BKN080 BKN270 17/07 A3008 RMK AC6CI0 SLP197

CYXE;2007-08-17 19:00;CYXE 171900Z 12011G17KT 15SM BKN085 BKN270 20/07 A3008 RMK AC5CI0 SLP198

CYXE;2007-08-17 20:00;CYXE 172000Z 11010G17KT 15SM BKN080 OVC270 20/06 A3009 RMK AC6CI1 SLP200

CYXE;2007-08-17 21:00;CYXE 172100Z 04016G21KT 15SM BKN080 OVC270 18/08 A3011 RMK AC6CI1 SHRA N-W LTNG NW PAST HR SLP205

CYXE;2007-08-17 21:17;CYXE 172117Z 04015G20KT 15SM TS BKN077 BKN095 OVC270 RMK AC5AC2CI0 SHRA S - N LTNG SW

CYXE;2007-08-17 21:39;CYXE 172139Z 06019KT 15SM -TSRA SCT045 BKN065 OVC270 16/ RMK SC3SC4CI0

CYXE;2007-08-17 22:00;CYXE 172200Z 09026G33KT 15SM -SHRA BKN016 BKN090 15/10 A2999 RETS RMK SC5AC2 CB EMBD PRESFR SLP167

CYXE;2007-08-17 22:16;CYXE 172216Z 10026G35KT 15SM SCT016 BKN090 BKN270 16/ RMK SC3AC2CI0 CB SE

CYXE;2007-08-17 23:00;CYXE 172300Z 11019G29KT 15SM FEW020 SCT090 BKN270 19/08 A2997 RMK SC2AC2CI0 CB DIST S SLP162

CYXE;2007-08-17 23:32;CYXE 172332Z 11014G19KT 15SM SCT020 BKN090 18/ RMK SC3AC4 HVY SH W MOVG E

CYXE;2007-08-18 00:00;CYXE 180000Z 10015KT 15SM FEW020CB SCT090 BKN110 17/08 A2997 RMK CB2AC2ACC3 OCNL LTGCCICCG W SLP159

CYXE;2007-08-18 00:15;CYXE 180015Z 09008G19KT 15SM TS FEW020 BKN050CB OVC110 17/ RMK SC2CB4ACC2 LTGCCICCG

CYXE;2007-08-18 00:25;CYXE 180025Z 10010KT 10SM -TSRA FEW020 BKN050CB OVC110 17/ RMK SC2CB6ACC1 FQT LTGCCICCG

CYXE;2007-08-18 00:35;CYXE 180035Z 10013G18KT 10SM +TSRA FEW020 BKN050CB OVC110 14/ RMK SC1CB6ACC1

CYXE;2007-08-18 01:00;CYXE 180100Z 04010G21KT 3SM R09/4500VP6000FT/D +TSRA FEW008 OVC040CB 14/14 A3008 RMK CF1CB7 FQT LTG /R12/ PRESRR SLP196

CYXE;2007-08-18 01:25;CYXE 180125Z 12014KT 3SM TSRA BKN040CB OVC100 14/ RMK CB7ACC1 FQT LTG ALQDS RETS RERA

CYXE;2007-08-18 02:00;CYXE 180200Z 10017KT 5SM +TSRA BKN030CB OVC100 14/14 A2997 RMK CB7ACC1 FQT LTG ALQDS RETS /R38/ PRESFR SLP160

CYXE;2007-08-18 03:00;CYXE 180300Z 13010G16KT 12SM TSRA OVC019CB 15/15 A2997 RMK CB8 FQT LTG ALQDS SLP158

CYXE;2007-08-18 04:00;CYXE 180400Z 31004KT 12SM TSRA SCT020 BKN045CB OVC100 15/15 A3006 RMK SC3CB3AC2 OCNL LTG ALQDS PRESRR /R48/ SLP188

CYXE;2007-08-18 05:00;CYXE 180500Z 12011KT 6SM TSRA SCT040CB OVC100 14/14 A3000 RMK CB4AC4 OCNL LTGIC N-E SLP168

CYXE;2007-08-18 05:35;CYXE 180535Z 13020KT 15SM -SHRA FEW040CB OVC090 15/ RETS RMK CB2AC6

CYXE;2007-08-18 06:00;CYXE 180600Z CCB 14017G24KT 15SM -SHRA SCT040CB OVC090 15/12 A2993 RETS RMK CB3AC5 LTGICCG SW-W /R60/ PRESFR SLP144

CYXE;2007-08-18 07:00;CYXE 180700Z 15019G25KT 15SM -SHRA FEW040CB OVC090 15/12 A2994 RMK CB1AC7 LTG DIST SE-SW SLP145

CYXE;2007-08-18 08:00;CYXE 180800Z 15014G25KT 15SM FEW040CB SCT090 BKN250 15/12 A2992 RMK CB1AC2CI2 LTNG DIST SE-SW SLP139

CYXE;2007-08-18 09:00;CYXE 180900Z 13004KT 15SM OVC110 16/11 A2995 RMK AC8 LTNG DIST SE SLP149

CYXE;2007-08-18 10:00;CYXE 181000Z 11010KT 15SM SCT110 OVC220 15/12 A2990 RMK AC3CI5 SLP134

CYXE;2007-08-18 11:00;CYXE 181100Z 08008KT 15SM SCT110 BKN220 14/11 A2992 RMK AC3CI1 SLP139

CYXE;2007-08-18 12:00;CYXE 181200Z 08007KT 15SM SCT100 OVC220 14/11 A2992 RMK AC3CI3 SLP141

CYXE;2007-08-18 13:00;CYXE 181300Z 05007KT 15SM FEW020 SCT100 OVC220 14/11 A2996 RMK SC1AC3CI3 SLP152

CYXE;2007-08-18 14:00;CYXE 181400Z 07004KT 15SM OVC018 14/12 A3002 RMK SC8 SLP171

CYXE;2007-08-18 14:48;CYXE 181448Z 08009KT 15SM -RA BKN020 OVC160 14/ RMK SC6AC2

CYXE;2007-08-18 15:00;CYXE 181500Z CCA 08017KT 15SM -SHRA BKN020 OVC160 14/13 A2992 RMK SC6AC2 PRESFR SLP141

CYXE;2007-08-18 15:45;CYXE 181545Z 10017KT 15SM FEW008 BKN020 BKN160 15/ RMK SF1SC4AC2

CYXE;2007-08-18 16:00;CYXE 181600Z 11018KT 15SM FEW008 SCT020 BKN120 BKN270 17/13 A2991 RMK SF1SC2AC2CI0 SLP139

CYXE;2007-08-18 17:00;CYXE 181700Z 11012KT 15SM FEW008 BKN012 BKN270 19/14 A2995 RMK SF1SC5CI0 SLP149

CYXE;2007-08-18 18:00;CYXE 181800Z 12009KT 15SM BKN012 OVC270 18/15 A2995 RMK SC7CI0 SLP149

CYXE;2007-08-18 19:00;CYXE 181900Z 10013KT 15SM FEW012 BKN026 OVC270 19/14 A2992 RMK SC2SC6CI1 SLP140

CYXE;2007-08-18 20:00;CYXE 182000Z 09012KT 15SM FEW012 BKN030 OVC270 18/13 A2991 RMK SC1SC6CI1 SLP136

CYXE;2007-08-18 21:00;CYXE 182100Z 12006KT 15SM BKN025 OVC060 18/15 A2995 RMK SC6SC2 SLP147

CYXE;2007-08-18 22:00;CYXE 182200Z 10016KT 15SM BKN025 BKN060 OVC090 19/15 A2986 RMK SC6SC2AC1 PRESFR SLP121

CYXE;2007-08-18 23:00;CYXE 182300Z 12008KT 15SM OVC023 19/15 A2990 RMK SC8 SLP134

CYXE;2007-08-19 00:00;CYXE 190000Z 10016KT 15SM SCT020 BKN040 OVC080 19/15 A2983 RMK SC3SC2AC2 PRESFR SLP108

CYXE;2007-08-19 01:00;CYXE 190100Z 12010G16KT 15SM BKN030 OVC080 19/15 A2987 RMK SC6AC2 SLP121

CYXE;2007-08-19 02:00;CYXE 190200Z 10010KT 15SM BKN030 OVC080 19/14 A2986 RMK SC5AC3 SLP119

CYXE;2007-08-19 03:00;CYXE 190300Z 10013KT 15SM SCT030 OVC110 18/14 A2987 RMK SC3AC5 SLP122

CYXE;2007-08-19 04:00;CYXE 190400Z 12016KT 15SM FEW030 SCT110 BKN270 18/13 A2986 RMK SC2AC2CI0 SLP120

CYXE;2007-08-19 05:00;CYXE 190500Z 12014G19KT 15SM FEW030 SCT100 BKN270 18/13 A2986 RMK SC2AC2CI0 SLP118

CYXE;2007-08-19 06:00;CYXE 190600Z 12015G22KT 15SM FEW030 BKN100 BKN270 17/13 A2982 RMK SC1AC4CI0 FQT LTGCG DIST W MOVG N SLP105

CYXE;2007-08-19 06:28;CYXE 190628Z 12018KT 15SM TS FEW030 OVC100CB 17/ RMK SC2CB6 LTNG S-NW

CYXE;2007-08-19 06:55;CYXE 190655Z 13011G17KT 10SM -TSRA FEW030 OVC080CB 16/ RMK SC2CB6 LTNG SE-N

CYXE;2007-08-19 07:00;CYXE 190700Z 15009G16KT 10SM -TSRA FEW030 OVC060CB 16/15 A2985 RMK SC1CB7 LTNG SE - N SLP112

CYXE;2007-08-19 07:20;CYXE 190720Z 15011KT 5SM -TSRA FEW030 OVC060CB 16/ RMK SC1CB7

CYXE;2007-08-19 07:38;CYXE 190738Z 31010KT 3SM TSRA FEW012 OVC060CB 16/ RMK SF1CB7 LTNG ALQDS

CYXE;2007-08-19 07:53;CYXE 190753Z 14020G25KT 1SM R09/4000VP6000FT/D TSRA OVC005CB 15/ RMK CB8 LTNG ALQDS

CYXE;2007-08-19 08:00;CYXE 190800Z 13018G25KT 1SM R09/4000VP6000FT/U TSRA OVC005CB 15/14 A2985 RMK CB8 LTNG N-E SLP113

CYXE;2007-08-19 08:09;CYXE 190809Z 13017G32KT 3SM R09/4000VP6000FT/U TSRA OVC052CB 15/ RMK CB8 LTNG N - E

CYXE;2007-08-19 08:20;CYXE 190820Z 11015G24KT 3SM -TSRA SCT005 OVC052CB 14/ RMK SF3CB5 LTNG W-E

CYXE;2007-08-19 08:31;CYXE 190831Z 05022KT 10SM -TSRA FEW005 SCT012 OVC050CB 15/ RMK SF2SC2CB5 LTNG W-E

CYXE;2007-08-19 09:00;CYXE 190900Z 01025G33KT 10SM -TSRA SCT005 BKN012 OVC033CB 15/14 A2986 RMK SF3SC2CB3 LTNG ALQDS SLP120

CYXE;2007-08-19 10:00;CYXE 191000Z CCA 06015G25KT 10SM TSRA SCT008 BKN012 OVC050CB 15/14 A2986 RMK SF4SC2CB2 LTNG ALQDS SLP117

CYXE;2007-08-19 11:00;CYXE 191100Z CCA 01008G17KT 3SM R09/4500VP6000FT/U TSRA BKN012 OVC045CB 15/14 A2995 RMK SC5CB3 LTNG ALQDS PRESRR SLP148

CYXE;2007-08-19 12:00;CYXE 191200Z 04017KT 3SM TSRA FEW012 OVC022CB 16/14 A2989 RMK SC1CB7 LTNG S-W SLP126

CYXE;2007-08-19 13:00;CYXE 191300Z CCA 09021KT 3SM TSRA FEW005 SCT012 OVC033CB 15/14 A2986 RMK SF1SC2CB5 LTNG S-W SLP116

CYXE;2007-08-19 13:27;CYXE 191327Z 12021G28KT 10SM -SHRA BKN015 OVC120 15/ RMK SC6AC2 RETS

CYXE;2007-08-19 14:00;CYXE 191400Z 12024G32KT 15SM -SHRA FEW015 OVC100 15/13 A2982 RETS RMK SC2AC6 ACC ASOCTD SLP105

CYXE;2007-08-19 15:00;CYXE 191500Z 14022G30KT 15SM -SHRA FEW012 BKN100 OVC220 16/13 A2980 RMK CF2AC5CI2 ACC ASOCTD SLP097

CYXE;2007-08-19 15:21;CYXE 191521Z 14021G28KT 15SM FEW012 SCT100 OVC220 16/ RMK CF2AC2CS5 ACC ASOCTD

CYXE;2007-08-19 16:00;CYXE 191600Z 15013G25KT 15SM FEW010 SCT100 OVC270 16/14 A2980 RMK CF2AC2CS2 SLP098

CYXE;2007-08-19 17:00;CYXE 191700Z 15017KT 15SM SCT008 SCT100 OVC270 17/15 A2978 RMK SC3AC1CS2 SLP092

CYXE;2007-08-19 17:41;CYXE 191741Z 14014G20KT 15SM BKN011 BKN100 OVC270 17/ RMK SC6AC2CI1

CYXE;2007-08-19 18:00;CYXE 191800Z 16016G25KT 15SM BKN014 BKN100 OVC270 20/16 A2977 RMK SC6AC2CI1 SLP087

CYXE;2007-08-19 19:00;CYXE 191900Z 15010G18KT 15SM OVC018 20/16 A2974 RMK SC8 SLP077

CYXE;2007-08-19 20:00;CYXE 192000Z 17016KT 15SM OVC018 22/16 A2974 RMK SC8 SLP075

CYXE;2007-08-19 21:00;CYXE 192100Z 17009G16KT 15SM OVC020 21/16 A2972 RMK SC8 SLP070

CYXE;2007-08-19 22:00;CYXE 192200Z 15014KT 15SM OVC018 22/16 A2971 RMK SC8 SLP064

CYXE;2007-08-19 23:00;CYXE 192300Z 15011KT 15SM BKN022 OVC065 21/17 A2970 RMK SC7SC1 SLP062

CYXE;2007-08-20 00:00;CYXE 200000Z 15010KT 15SM SCT022 OVC200 21/15 A2967 RMK SC3CS4 SLP050

CYXE;2007-08-20 00:25;CYXE 200025Z 14009G15KT 15SM BKN028 BKN082 OVC220 21/ RMK SC6AC1CI1

CYXE;2007-08-20 01:00;CYXE 200100Z 15008KT 15SM BKN028 OVC082 22/20 A2967 RMK SC6AC1 SLP049

CYXE;2007-08-20 02:00;CYXE 200200Z 13011KT 15SM BKN030 OVC067 21/17 A2966 RMK SC7AC1 SLP048

CYXE;2007-08-20 03:00;CYXE 200300Z 13012G19KT 15SM SCT035 SCT100 BKN240 20/16 A2966 RMK SC2AC1CI1 SLP049

CYXE;2007-08-20 04:00;CYXE 200400Z 13014KT 15SM FEW035 SCT240 19/16 A2963 RMK SC1CI1 SLP040

CYXE;2007-08-20 05:00;CYXE 200500Z 14012G18KT 15SM SCT240 19/16 A2963 RMK CI1 SLP039

CYXE;2007-08-20 06:00;CYXE 200600Z 13011KT 15SM FEW030 SCT240 19/15 A2961 RMK SC2CI2 SLP029

CYXE;2007-08-20 07:00;CYXE 200700Z 16012G19KT 15SM BKN019 OVC092 18/15 A2961 RMK SC6AC2 SLP029

CYXE;2007-08-20 08:00;CYXE 200800Z 16016G22KT 15SM OVC017 18/13 A2959 RMK SC8 SLP022

CYXE;2007-08-20 09:00;CYXE 200900Z 15010G19KT 15SM OVC017 18/15 A2955 RMK SC8 SLP009

CYXE;2007-08-20 10:00;CYXE 201000Z 14015KT 15SM BKN030 OVC060 16/15 A2953 RMK SC6SC2 SLP002

CYXE;2007-08-20 11:00;CYXE 201100Z 15012G19KT 15SM SCT015 BKN040 OVC090 15/13 A2954 RMK SC3SC3AC2 SLP006

CYXE;2007-08-20 12:00;CYXE 201200Z 15011KT 15SM OVC015 18/14 A2953 RMK SC8 SLP000

CYXE;2007-08-20 13:00;CYXE 201300Z 18009KT 15SM SCT013 BKN092 OVC120 17/15 A2955 RMK SC3AC3AC2 SLP007

CYXE;2007-08-20 14:00;CYXE 201400Z 21010KT 8SM FEW015 SCT060 OVC100 18/14 A2952 RMK SC2SC2AC4 HZ SLP999

CYXE;2007-08-20 15:00;CYXE 201500Z 22009KT 15SM SCT015 BKN050 OVC100 17/14 A2950 RMK SC3SC2AC2 HZ SLP993

CYXE;2007-08-20 15:07;CYXE 201507Z 22011KT 8SM BKN015 OVC100 17/ RMK SC6AC2 HZ

CYXE;2007-08-20 16:00;CYXE 201600Z 22012KT 15SM BKN015 OVC100 18/14 A2950 RMK SC6AC2 HZ SLP992

CYXE;2007-08-20 17:00;CYXE 201700Z 22013KT 4SM HZ BKN018 OVC100 18/14 A2950 RMK SC6AC2 SLP994

CYXE;2007-08-20 18:00;CYXE 201800Z 21012KT 10SM BKN022 OVC095 19/14 A2948 RMK SC6AC2 HZ SLP987

CYXE;2007-08-20 19:00;CYXE 201900Z 20015KT 12SM VCSH BKN026 OVC085 19/13 A2946 RMK SC6AC2 HZ TCU ASOCTD SLP981

CYXE;2007-08-20 19:07;CYXE 201907Z 21014G20KT 12SM -SHRA BKN026 OVC085 19/ RMK SC6AC2 HZ TCU ASOCTD

CYXE;2007-08-20 20:00;CYXE 202000Z 19012KT 15SM -RA SCT009 OVC015 17/14 A2945 RMK SF3SC5 -RA INTMT SLP977

CYXE;2007-08-20 21:00;CYXE 202100Z 23019G26KT 15SM BKN015 OVC030 18/14 A2944 RMK SC7SC1 SLP974

CYXE;2007-08-20 22:00;CYXE 202200Z 24012G17KT 15SM BKN015 OVC030 18/14 A2944 RMK SC6SC2 SLP972

CYXE;2007-08-20 23:00;CYXE 202300Z 29024G30KT 15SM BKN016 OVC040 16/13 A2946 RMK SC6SC2 SLP979

CYXE;2007-08-20 23:44;CYXE 202344Z 28020G28KT 15SM -DZ OVC016 16/ RMK SC8

CYXE;2007-08-21 00:00;CYXE 210000Z 28022G31KT 15SM -DZ OVC016 15/12 A2950 RMK SC8 SLP995

CYXE;2007-08-21 01:00;CYXE 210100Z 29020G30KT 15SM -DZ OVC019 16/12 A2952 RMK SC8 SLP001

CYXE;2007-08-21 01:34;CYXE 210134Z 28022G33KT 6SM -RA BR OVC019 14/ RMK SC8 VIS LWR W-N

CYXE;2007-08-21 02:00;CYXE 210200Z 27019G24KT 3SM -RA BR OVC015 13/13 A2954 RMK SC8 SLP007

CYXE;2007-08-21 03:00;CYXE 210300Z 27021G26KT 15SM -DZ BKN020 OVC040 15/13 A2955 RMK SC6SC2 SLP013

CYXE;2007-08-21 04:00;CYXE 210400Z 27018KT 10SM -RA SCT025 OVC045 13/12 A2957 RMK SC3SC5 SLP019

CYXE;2007-08-21 05:00;CYXE 210500Z 27013G20KT 15SM -RA OVC055 13/13 A2958 RMK SC8 SLP022

CYXE;2007-08-21 06:00;CYXE 210600Z 27014KT 10SM RA OVC045 14/13 A2959 RMK SC8 SLP026

CYXE;2007-08-21 07:00;CYXE 210700Z 24009KT 15SM OVC024 13/13 A2959 RMK SC8 SLP027

CYXE;2007-08-21 07:12;CYXE 210712Z 23008KT 15SM OVC024 14/ RMK SC8

CYXE;2007-08-21 08:00;CYXE 210800Z 26012KT 15SM OVC100 14/12 A2960 RMK AC8 SLP028

CYXE;2007-08-21 09:00;CYXE 210900Z 26011KT 15SM FEW060 14/11 A2961 RMK SC2 SLP032

CYXE;2007-08-21 10:00;CYXE 211000Z 26010KT 15SM BKN086 14/11 A2961 RMK AC6 SLP034

CYXE;2007-08-21 11:00;CYXE 211100Z 27010KT 15SM SCT086 13/11 A2962 RMK AC3 SLP035

CYXE;2007-08-21 12:00;CYXE 211200Z 27010KT 15SM FEW077 BKN089 OVC270 13/12 A2963 RMK AC2AC4CI1 SLP041

CYXE;2007-08-21 13:00;CYXE 211300Z 26008KT 15SM BKN030 BKN077 OVC270 13/10 A2965 RMK SC5AC2CI1 SLP048

CYXE;2007-08-21 14:00;CYXE 211400Z 27009KT 15SM FEW030 FEW072 BKN250 14/10 A2965 RMK SC1AC1CI2 SLP050

CYXE;2007-08-21 15:00;CYXE 211500Z 28013KT 15SM FEW072 BKN230 BKN270 16/11 A2965 RMK AC1CI2CC1 SLP048

CYXE;2007-08-21 16:00;CYXE 211600Z 28018KT 15SM FEW028 FEW086 BKN240 17/10 A2964 RMK CU1AC2CI2 SLP044

CYXE;2007-08-21 17:00;CYXE 211700Z 27019G28KT 15SM FEW032 FEW090 BKN240 18/10 A2963 RMK CU1AC1CI2 SLP043

CYXE;2007-08-21 18:00;CYXE 211800Z 28021G27KT 15SM FEW046 BKN240 19/10 A2963 RMK CU2CI1 SLP040

CYXE;2007-08-21 19:00;CYXE 211900Z 28022G30KT 15SM SCT049 BKN240 19/09 A2963 RMK CU3CI1 SLP041

CYXE;2007-08-21 20:00;CYXE 212000Z 28015G21KT 15SM BKN049 19/10 A2964 RMK SC7 CU EMBD SLP042

CYXE;2007-08-21 21:00;CYXE 212100Z 28021G26KT 15SM BKN049 BKN240 20/10 A2964 RMK SC6CI1 SLP042

CYXE;2007-08-21 22:00;CYXE 212200Z 30017G24KT 15SM OVC049 18/10 A2964 RMK SC7 CU EMBD SLP042

CYXE;2007-08-21 23:00;CYXE 212300Z 28015KT 15SM BKN050 BKN092 18/11 A2965 RMK SC6AC1 CU ASOCTD SLP046

CYXE;2007-08-22 00:00;CYXE 220000Z 28015G22KT 15SM FEW030 SCT040 BKN095 BKN250 18/11 A2966 RMK CU1SC2AC2CI0 SLP051

CYXE;2007-08-22 01:00;CYXE 220100Z 28018G24KT 15SM FEW030TCU FEW040 SCT100 BKN250 18/10 A2966 RMK TCU1SC2AC1CI0 SLP050

CYXE;2007-08-22 02:00;CYXE 220200Z 27016KT 15SM SCT050 BKN085 BKN250 17/11 A2967 RMK SC3AC2CI0 SLP053

CYXE;2007-08-22 03:00;CYXE 220300Z 27009G15KT 15SM FEW080 FEW250 15/11 A2967 RMK AC2CI0 SLP055

CYXE;2007-08-22 04:00;CYXE 220400Z 27011KT 15SM FEW085 14/11 A2967 RMK AC2 SLP055

CYXE;2007-08-22 05:00;CYXE 220500Z 26011KT 15SM FEW085 13/11 A2967 RMK AC1 SLP055

CYXE;2007-08-22 06:00;CYXE 220600Z 27012KT 15SM FEW085 13/12 A2966 RMK AC1 SLP050

CYXE;2007-08-22 07:00;CYXE 220700Z 27012KT 15SM FEW085 13/12 A2966 RMK AC1 SLP051

CYXE;2007-08-22 08:00;CYXE 220800Z 27012KT 15SM FEW022 13/12 A2967 RMK SC1 SLP052

CYXE;2007-08-22 09:00;CYXE 220900Z 28014KT 15SM FEW024 14/12 A2967 RMK SC1 SLP053

CYXE;2007-08-22 10:00;CYXE 221000Z 29015G22KT 15SM FEW008 BKN020 OVC045 13/11 A2968 RMK SF1SC6SC1 SLP058

CYXE;2007-08-22 11:00;CYXE 221100Z 28017KT 15SM FEW017 BKN040 OVC082 13/11 A2969 RMK SC1SC6AC1 SLP060

CYXE;2007-08-22 12:00;CYXE 221200Z 29019G24KT 10SM -RA FEW008 BKN021 OVC071 13/11 A2970 RMK SF2SC5AC2 SLP064

CYXE;2007-08-22 13:00;CYXE 221300Z 30014G22KT 10SM -RA BKN019 OVC054 12/11 A2971 RMK SC6SC2 SLP069

CYXE;2007-08-22 13:53;CYXE 221353Z 29015KT 15SM BKN017 OVC087 12/ RMK SC6AC2

CYXE;2007-08-22 14:00;CYXE 221400Z 30016KT 15SM BKN017 OVC087 12/10 A2973 RMK SC6AC2 SLP074

CYXE;2007-08-22 15:00;CYXE 221500Z 31011G19KT 15SM OVC019 12/10 A2975 RMK SC8 SLP083

CYXE;2007-08-22 15:05;CYXE 221505Z 30014G19KT 15SM -SHRA OVC017 12/ RMK SC8 VIS NW-NE 2 CVCTV CLD EMBD

CYXE;2007-08-22 16:00;CYXE 221600Z 30017KT 15SM -SHRA BKN019 OVC031 11/10 A2976 RMK SC7SC1 SLP088

CYXE;2007-08-22 16:48;CYXE 221648Z 31016G22KT 15SM OVC017 12/ RMK SC8

CYXE;2007-08-22 17:00;CYXE 221700Z 31016G22KT 15SM OVC017 12/10 A2977 RMK SC8 SLP092

CYXE;2007-08-22 17:23;CYXE 221723Z 31016G21KT 15SM -SHRA OVC018 12/ RMK SC8

CYXE;2007-08-22 18:00;CYXE 221800Z 31019G25KT 15SM -SHRA OVC018 12/09 A2980 RMK SC8 SLP101

CYXE;2007-08-22 18:34;CYXE 221834Z 30017G26KT 15SM OVC016 12/ RMK SC8

CYXE;2007-08-22 19:00;CYXE 221900Z 31020KT 15SM OVC016 12/09 A2980 RMK SC8 SLP103

CYXE;2007-08-22 20:00;CYXE 222000Z 30013G21KT 15SM OVC018 12/09 A2983 RMK SC8 SLP111

CYXE;2007-08-22 21:00;CYXE 222100Z 31017G22KT 15SM OVC018 12/09 A2984 RMK SC8 SLP117

CYXE;2007-08-22 21:50;CYXE 222150Z 31014G19KT 15SM OVC014 12/ RMK SC8

CYXE;2007-08-22 22:00;CYXE 222200Z 31018KT 15SM BKN014 OVC095 12/09 A2986 RMK SC7AC1 SLP121

CYXE;2007-08-22 22:35;CYXE 222235Z 31018KT 15SM OVC018 12/ RMK SC8

CYXE;2007-08-22 23:00;CYXE 222300Z 31014G19KT 15SM BKN018 OVC100 12/09 A2987 RMK SC7AC1 SLP125

CYXE;2007-08-23 00:00;CYXE 230000Z 32015KT 15SM OVC020 12/09 A2988 RMK SC8 SLP131

CYXE;2007-08-23 01:00;CYXE 230100Z 32017KT 15SM BKN022 BKN070 OVC110 12/08 A2989 RMK SC6AC1AC1 SLP134

CYXE;2007-08-23 02:00;CYXE 230200Z 32012KT 15SM BKN022 OVC040 11/09 A2990 RMK SC6SC2 SLP138

CYXE;2007-08-23 03:00;CYXE 230300Z 35008KT 15SM BKN020 OVC090 11/09 A2992 RMK SC6AC2 SLP145

CYXE;2007-08-23 04:00;CYXE 230400Z 32013KT 15SM BKN020 OVC080 11/08 A2992 RMK SC6AC2 SLP146

CYXE;2007-08-23 05:00;CYXE 230500Z 31005KT 15SM BKN045 BKN085 09/08 A2993 RMK SC5AC2 SLP148

CYXE;2007-08-23 06:00;CYXE 230600Z 32008KT 15SM OVC035 10/08 A2993 RMK SC8 SLP150

CYXE;2007-08-23 07:00;CYXE 230700Z 30008KT 15SM OVC045 10/08 A2994 RMK SC8 SLP151

CYXE;2007-08-23 08:00;CYXE 230800Z 31008KT 15SM OVC047 10/08 A2994 RMK SC8 SLP153

CYXE;2007-08-23 09:00;CYXE 230900Z 31008KT 15SM BKN047 OVC066 09/08 A2995 RMK SC6AC2 SLP155

CYXE;2007-08-23 10:00;CYXE 231000Z 30007KT 15SM FEW010 BKN047 OVC063 09/08 A2995 RMK CF1SC6SC2 SLP156

CYXE;2007-08-23 11:00;CYXE 231100Z 31007KT 15SM SCT044 BKN072 BKN220 08/07 A2995 RMK SC3AC2CI1 SLP155

CYXE;2007-08-23 12:00;CYXE 231200Z 32008KT 15SM BKN021 BKN045 OVC220 08/07 A2995 RMK SC5SC1CI1 SLP156

CYXE;2007-08-23 13:00;CYXE 231300Z 31008KT 15SM OVC045 08/07 A2996 RMK SC8 SLP161

CYXE;2007-08-23 14:00;CYXE 231400Z 31007KT 15SM FEW020 OVC040 08/07 A2998 RMK SC1SC7 SLP166

CYXE;2007-08-23 15:00;CYXE 231500Z 32008KT 15SM FEW010 FEW020 OVC035 09/08 A2999 RMK SF1SC1SC7 SLP170

CYXE;2007-08-23 15:36;CYXE 231536Z 32011KT 15SM FEW009 BKN012 OVC035 10/ RMK SF1SC5SC2

CYXE;2007-08-23 16:00;CYXE 231600Z 32009KT 15SM BKN014 OVC040 11/08 A2998 RMK SC6SC2 SLP168

CYXE;2007-08-23 17:00;CYXE 231700Z 32008KT 15SM BKN017 OVC040 11/08 A2999 RMK SC6SC2 SLP169

CYXE;2007-08-23 18:00;CYXE 231800Z 33008KT 15SM BKN017 OVC040 12/08 A2998 RMK SC6SC2 SLP167

CYXE;2007-08-23 19:00;CYXE 231900Z 30009KT 15SM BKN023 BKN040 OVC090 13/09 A2998 RMK SC6SC2AC1 SLP166

CYXE;2007-08-23 20:00;CYXE 232000Z 32010KT 15SM OVC032 13/08 A2998 RMK SC8 SLP167

CYXE;2007-08-23 21:00;CYXE 232100Z 31009KT 15SM FEW020 BKN040 OVC100 13/08 A2998 RMK SC2SC5AC2 SLP165

CYXE;2007-08-23 22:00;CYXE 232200Z 33006KT 15SM SCT044 BKN100 OVC250 14/07 A2997 RMK SC3AC2CI2 SLP163

CYXE;2007-08-23 23:00;CYXE 232300Z 31006KT 15SM SCT043 BKN250 14/06 A2997 RMK SC4CI1 SLP161

CYXE;2007-08-24 00:00;CYXE 240000Z 36008KT 15SM BKN032 BKN250 13/07 A2997 RMK SC6CI1 SLP162

CYXE;2007-08-24 01:00;CYXE 240100Z 36008KT 15SM BKN044 BKN250 14/06 A2997 RMK SC6CI0 CONTRAILS SLP163

CYXE;2007-08-24 02:00;CYXE 240200Z 36003KT 15SM FEW046 BKN250 12/07 A2997 RMK SC2CI1 CONTRAILS SLP163

CYXE;2007-08-24 03:00;CYXE 240300Z 05002KT 15SM BKN052 BKN250 11/07 A2999 RMK SC6CI1 CONTRAILS SLP170

CYXE;2007-08-24 04:00;CYXE 240400Z 05006KT 15SM BKN052 09/07 A2999 RMK SC6 SLP172

CYXE;2007-08-24 05:00;CYXE 240500Z 05007KT 15SM SCT052 08/07 A3000 RMK SC3 SLP174

CYXE;2007-08-24 06:00;CYXE 240600Z 05007KT 15SM SCT048 BKN074 BKN250 07/07 A3000 RMK SC3AC2CI0 SLP176

CYXE;2007-08-24 07:00;CYXE 240700Z 05007KT 15SM FEW250 07/06 A3000 RMK CI1 SLP176

CYXE;2007-08-24 08:00;CYXE 240800Z 06005KT 15SM BKN046 05/05 A3001 RMK SC4 SLP178

CYXE;2007-08-24 09:00;CYXE 240900Z 08004KT 15SM BKN044 05/04 A3001 RMK SC4 SLP178

CYXE;2007-08-24 10:00;CYXE 241000Z 04005KT 15SM BKN042 05/05 A3001 RMK SC5 SLP178

CYXE;2007-08-24 11:00;CYXE 241100Z 06002KT 15SM BKN039 05/05 A3001 RMK SC5 SLP179

CYXE;2007-08-24 12:00;CYXE 241200Z 00000KT 15SM FEW035 SCT250 06/06 A3002 RMK SC2CI0 SLP180

CYXE;2007-08-24 13:00;CYXE 241300Z 03002KT 15SM FEW035 FEW100 BKN250 06/06 A3002 RMK SC1AC1CI2 SLP181

CYXE;2007-08-24 14:00;CYXE 241400Z 07002KT 15SM FEW100 BKN250 09/07 A3002 RMK AC1CI1 SLP181

CYXE;2007-08-24 15:00;CYXE 241500Z 11003KT 15SM FEW100 BKN250 11/07 A3001 RMK AC1CI1 SLP177

CYXE;2007-08-24 16:00;CYXE 241600Z 03002KT 15SM FEW020 FEW100 BKN250 12/06 A3002 RMK CU1AC1CI1 CONTRAILS SLP178

CYXE;2007-08-24 17:00;CYXE 241700Z 20002KT 15SM FEW028 SCT100 BKN250 13/06 A3001 RMK CU2AC2CI0 SLP176

CYXE;2007-08-24 18:00;CYXE 241800Z 02004KT 15SM FEW035 SCT100 SCT250 15/08 A3000 RMK CU1AC2CI0 SLP172

CYXE;2007-08-24 19:00;CYXE 241900Z 28003KT 15SM FEW040 SCT120 16/07 A2999 RMK CU1AC2 SLP168

CYXE;2007-08-24 20:00;CYXE 242000Z 30002KT 15SM FEW040 BKN100 16/06 A2997 RMK CU1AC6 SLP164

CYXE;2007-08-24 21:00;CYXE 242100Z 17002KT 15SM SCT040 BKN090 16/06 A2996 RMK SC3AC2 SLP161

CYXE;2007-08-24 22:00;CYXE 242200Z 36002KT 15SM FEW040 SCT080 18/06 A2995 RMK SC1AC2 SLP158

CYXE;2007-08-24 23:00;CYXE 242300Z 23004KT 15SM FEW080 FEW250 18/07 A2994 RMK AC2CI0 SLP152

CYXE;2007-08-25 00:00;CYXE 250000Z 00000KT 15SM FEW080 FEW250 18/06 A2991 RMK AC1CI0 SLP141

CYXE;2007-08-25 01:00;CYXE 250100Z 15003KT 15SM FEW070 FEW250 17/08 A2990 RMK AC2CI0 ACC ASOCTD SLP137

CYXE;2007-08-25 02:00;CYXE 250200Z 14005KT 15SM BKN100 BKN250 15/08 A2989 RMK AC6CI0 ACC ASOCTD SLP135

CYXE;2007-08-25 03:00;CYXE 250300Z 14006KT 15SM BKN084 BKN250 13/08 A2989 RMK AC5CI0 SLP134

CYXE;2007-08-25 04:00;CYXE 250400Z 18006KT 15SM BKN084 BKN250 14/08 A2988 RMK AC5CI0 SLP131

CYXE;2007-08-25 05:00;CYXE 250500Z 18007KT 15SM BKN084 BKN250 13/07 A2987 RMK AC5CI0 SLP126

CYXE;2007-08-25 06:00;CYXE 250600Z 19006KT 15SM BKN080 BKN250 11/07 A2986 RMK AC5CI0 SLP124

CYXE;2007-08-25 07:00;CYXE 250700Z 19005KT 15SM FEW080 FEW250 11/07 A2986 RMK AC1CI0 SLP121

CYXE;2007-08-25 08:00;CYXE 250800Z 19003KT 15SM FEW080 FEW250 10/07 A2984 RMK AC1CI0 SLP117

CYXE;2007-08-25 09:00;CYXE 250900Z 17003KT 15SM FEW250 09/07 A2983 RMK CI0 SLP114

CYXE;2007-08-25 10:00;CYXE 251000Z 19006KT 15SM FEW250 09/08 A2983 RMK CI0 SLP112

CYXE;2007-08-25 11:00;CYXE 251100Z 18005KT 15SM FEW080 SCT250 08/07 A2982 RMK AC2CI0 SLP109

CYXE;2007-08-25 12:00;CYXE 251200Z 19007KT 15SM BKN250 08/08 A2981 RMK CI1 SLP103

CYXE;2007-08-25 13:00;CYXE 251300Z 19003KT 15SM FEW140 BKN250 09/09 A2979 RMK AC1CI2 SLP098

CYXE;2007-08-25 14:00;CYXE 251400Z 18003KT 15SM FEW140 BKN250 11/10 A2978 RMK AC1CI2 SLP094

CYXE;2007-08-25 15:00;CYXE 251500Z 15004KT 15SM FEW140 BKN250 14/10 A2976 RMK AC1CI2 CONTRAILS SLP087

CYXE;2007-08-25 16:00;CYXE 251600Z 17006KT 15SM SCT140 BKN250 17/11 A2974 RMK AC3CI2 SLP082

CYXE;2007-08-25 17:00;CYXE 251700Z 12006KT 15SM FEW110 BKN250 19/12 A2972 RMK AC2CI2 SLP074

CYXE;2007-08-25 18:00;CYXE 251800Z 16008KT 15SM BKN110 BKN250 22/12 A2970 RMK AC5CI1 SLP062

CYXE;2007-08-25 19:00;CYXE 251900Z 16011KT 15SM FEW040 BKN110 BKN250 22/10 A2965 RMK SC2AC3CI1 SLP048

CYXE;2007-08-25 20:00;CYXE 252000Z 15013KT 15SM FEW040 SCT110 BKN250 24/12 A2962 RMK SC2AC2CI2 SLP036

CYXE;2007-08-25 21:00;CYXE 252100Z 19016G21KT 15SM FEW040 SCT110 BKN250 26/10 A2958 RMK SC1AC2CI2 SLP022

CYXE;2007-08-25 22:00;CYXE 252200Z 17009KT 15SM FEW040 SCT110 BKN250 24/12 A2955 RMK SC1AC2CI4 SLP010

CYXE;2007-08-25 23:00;CYXE 252300Z 16011KT 15SM SCT110 BKN250 26/11 A2952 RMK AC3CI2 SLP001

CYXE;2007-08-26 00:00;CYXE 260000Z 14006KT 15SM SCT110 BKN250 26/13 A2949 RMK AC4CC2 SLP990

CYXE;2007-08-26 00:51;CYXE 260051Z 14005KT 15SM -SHRA FEW095 BKN140 BKN250 24/ RMK AC2AS3CC2 CVCTV CLD EMBD

CYXE;2007-08-26 01:00;CYXE 260100Z 14004KT 15SM VCSH SCT095 BKN140 BKN250 24/12 A2946 RMK AC3AS2CC1 SLP979

CYXE;2007-08-26 01:22;CYXE 260122Z 27007KT 15SM SHRA BKN095 BKN250 22/ RMK AC6CI0 CB EMBD CIG RAGGED

CYXE;2007-08-26 02:00;CYXE 260200Z 26004KT 15SM -SHRA FEW036 BKN083 BKN250 21/13 A2947 RERA RMK SC2AC3CI1 CB EMBD ANVIL N VIRGA E-SE SLP985

CYXE;2007-08-26 02:30;CYXE 260230Z 33003KT 15SM FEW040 BKN083 BKN250 19/ RERA RMK SC2AC3CI1 CVCTV CLD EMBD

CYXE;2007-08-26 03:00;CYXE 260300Z 32009KT 15SM FEW040 SCT083 BKN250 19/13 A2951 RMK SC2AC2CI1 SLP000

CYXE;2007-08-26 04:00;CYXE 260400Z 29008KT 15SM BKN083 BKN250 16/14 A2953 RMK AC5CI0 SLP005

CYXE;2007-08-26 05:00;CYXE 260500Z 31009KT 15SM BKN092 BKN250 15/14 A2954 RMK AC5CI0 SLP007

CYXE;2007-08-26 06:00;CYXE 260600Z 32012KT 15SM FEW090 BKN250 14/13 A2956 RMK AC1CI0 SLP014

CYXE;2007-08-26 06:54;CYXE 260654Z 28005KT 15SM FEW009 SCT100 BKN250 13/ RMK ST2AC2CI0

CYXE;2007-08-26 07:00;CYXE 260700Z 29004KT 15SM SCT009 SCT100 BKN250 13/12 A2960 RMK ST3AC1CI1 SLP026

CYXE;2007-08-26 07:03;CYXE 260703Z 30005KT 15SM BKN009 OVC250 13/ RMK ST6CI0

CYXE;2007-08-26 08:00;CYXE 260800Z 33009KT 15SM OVC007 13/13 A2962 RMK ST8 SLP033

CYXE;2007-08-26 09:00;CYXE 260900Z 33016KT 15SM OVC007 13/12 A2963 RMK ST8 SLP037

CYXE;2007-08-26 10:00;CYXE 261000Z 35010G16KT 15SM OVC009 12/11 A2965 RMK ST8 SLP043

CYXE;2007-08-26 10:25;CYXE 261025Z 34010KT 15SM OVC010 11/ RMK ST8

CYXE;2007-08-26 11:00;CYXE 261100Z 33009KT 15SM OVC012 11/10 A2968 RMK ST8 SLP051

CYXE;2007-08-26 12:00;CYXE 261200Z 32013KT 15SM OVC012 11/10 A2971 RMK ST8 SLP064

CYXE;2007-08-26 13:00;CYXE 261300Z 34011KT 15SM OVC012 11/09 A2972 RMK SC8 SLP067

CYXE;2007-08-26 14:00;CYXE 261400Z 34010KT 15SM OVC014 11/09 A2974 RMK SC8 SLP075

CYXE;2007-08-26 15:00;CYXE 261500Z 34011KT 15SM OVC013 11/09 A2975 RMK SC8 SLP084

CYXE;2007-08-26 16:00;CYXE 261600Z 34011KT 15SM OVC011 11/09 A2977 RMK SC8 SLP089

CYXE;2007-08-26 17:00;CYXE 261700Z 35010KT 15SM OVC013 12/10 A2978 RMK SC8 SLP093

CYXE;2007-08-26 18:00;CYXE 261800Z 01009KT 15SM BKN017 OVC070 13/10 A2978 RMK SC7AC1 SLP095

CYXE;2007-08-26 19:00;CYXE 261900Z 36009KT 15SM BKN022 OVC070 14/09 A2980 RMK SC6AC1 CU ASOCTD SLP099

CYXE;2007-08-26 20:00;CYXE 262000Z 01007KT 15SM BKN026 OVC110 14/09 A2979 RMK SC6AC1 CU ASOCTD SLP098

CYXE;2007-08-26 21:00;CYXE 262100Z 03010KT 15SM SCT028 BKN110 15/09 A2979 RMK SC3AC3 CU ASOCTD SLP098

CYXE;2007-08-26 22:00;CYXE 262200Z 01011KT 15SM BKN030 BKN110 15/09 A2981 RMK SC6AC2 SLP102

CYXE;2007-08-26 23:00;CYXE 262300Z 03007KT 15SM BKN033 OVC110 14/08 A2983 RMK SC7AC1 SLP111

CYXE;2007-08-27 00:00;CYXE 270000Z 03005KT 15SM SCT035 OVC110 14/08 A2985 RMK SC4AC2 SLP120

CYXE;2007-08-27 01:00;CYXE 270100Z 04004KT 15SM SCT035 BKN110 BKN250 13/09 A2986 RMK SC4AC2CI1 SLP123

CYXE;2007-08-27 02:00;CYXE 270200Z 04005KT 15SM BKN045 12/09 A2987 RMK SC7 SLP127

CYXE;2007-08-27 03:00;CYXE 270300Z 02004KT 15SM BKN048 10/09 A2989 RMK SC6 SLP134

CYXE;2007-08-27 04:00;CYXE 270400Z 01002KT 15SM SCT048 10/08 A2990 RMK SC3 SLP137

CYXE;2007-08-27 05:00;CYXE 270500Z 00000KT 15SM FEW045 SCT250 08/08 A2992 RMK SC2CI0 SLP145

CYXE;2007-08-27 06:00;CYXE 270600Z 35004KT 15SM BKN250 07/06 A2993 RMK CI2 SLP151

CYXE;2007-08-27 07:00;CYXE 270700Z 35002KT 15SM BKN250 07/07 A2995 RMK CI3 SLP155

CYXE;2007-08-27 08:00;CYXE 270800Z 00000KT 15SM OVC250 08/08 A2996 RMK CI5 SLP159

CYXE;2007-08-27 09:00;CYXE 270900Z 00000KT 15SM BKN100 OVC250 09/08 A2996 RMK AC5CI2 SLP159

CYXE;2007-08-27 10:00;CYXE 271000Z 03002KT 15SM BKN075 OVC250 09/08 A2997 RMK AC6CI2 SLP162

CYXE;2007-08-27 11:00;CYXE 271100Z 00000KT 15SM SCT100 OVC250 09/08 A2998 RMK AC4CI4 SLP164

CYXE;2007-08-27 12:00;CYXE 271200Z 02002KT 15SM FEW050 BKN110 OVC250 08/08 A2999 RMK SC1AC6CI0 SLP168

CYXE;2007-08-27 13:00;CYXE 271300Z 36004KT 15SM FEW060 BKN110 BKN250 09/09 A3000 RMK SC2AC4CI0 SLP173

CYXE;2007-08-27 14:00;CYXE 271400Z 00000KT 15SM BKN064 OVC250 10/09 A3002 RMK SC6CI2 SLP180

CYXE;2007-08-27 15:00;CYXE 271500Z 25002KT 15SM SCT064 OVC300 11/09 A3003 RMK SC4CI3 SLP183

CYXE;2007-08-27 16:00;CYXE 271600Z 28002KT 15SM SCT064 BKN300 13/08 A3003 RMK SC4CI2 SLP182

CYXE;2007-08-27 17:00;CYXE 271700Z 18003KT 15SM FEW040 BKN100 BKN300 15/07 A3003 RMK CU1AC4CI1 SLP182

CYXE;2007-08-27 18:00;CYXE 271800Z 00000KT 15SM SCT044 BKN100 BKN300 16/06 A3001 RMK CU3AC1CI2 SLP177

CYXE;2007-08-27 19:00;CYXE 271900Z 00000KT 15SM SCT046 BKN100 17/06 A3001 RMK CU3AC1 SLP175

CYXE;2007-08-27 20:00;CYXE 272000Z 18006KT 15SM BKN051 BKN100 17/06 A3000 RMK CU5AC1 SLP174

CYXE;2007-08-27 21:00;CYXE 272100Z 19003KT 15SM BKN054 BKN120 18/07 A2999 RMK CU6AC1 SLP167

CYXE;2007-08-27 22:00;CYXE 272200Z 16005KT 15SM BKN055 BKN090 BKN270 17/06 A2998 RMK SC5AC1CI0 SLP162

CYXE;2007-08-27 23:00;CYXE 272300Z 12003KT 15SM BKN055 BKN090 BKN270 17/06 A2998 RMK SC5AC1CI0 SLP163

CYXE;2007-08-28 00:00;CYXE 280000Z 17003KT 15SM FEW030 SCT050 BKN080 BKN270 16/08 A2998 RMK SC1SC3AC2CI0 SLP163

CYXE;2007-08-28 01:00;CYXE 280100Z 18006KT 15SM SCT050 OVC070 15/07 A2998 RMK SC4AC4 SLP164

CYXE;2007-08-28 02:00;CYXE 280200Z 29014G19KT 15SM -RA OVC050 12/11 A3000 RMK SC8 SLP172

CYXE;2007-08-28 03:00;CYXE 280300Z 33009KT 10SM -RA OVC042 11/11 A3003 RMK SC8 SLP181

CYXE;2007-08-28 04:00;CYXE 280400Z 36005KT 10SM -RA FEW003 OVC054 10/10 A3003 RMK SF2SC6 SLP183

CYXE;2007-08-28 04:19;CYXE 280419Z 35002KT 10SM FEW003 OVC055 10/ RMK SF2SC6 BR

CYXE;2007-08-28 04:44;CYXE 280444Z 32003KT 15SM BKN005 OVC050 11/ RMK SF6SC2

CYXE;2007-08-28 05:00;CYXE 280500Z 31003KT 15SM BKN006 OVC047 11/11 A3004 RMK SF6SC2 SLP185

CYXE;2007-08-28 05:37;CYXE 280537Z 30003KT 15SM SCT006 OVC038 11/ RMK SF3SC5

CYXE;2007-08-28 05:52;CYXE 280552Z 30005KT 15SM BKN005 OVC038 11/ RMK SF5SC3

CYXE;2007-08-28 06:00;CYXE 280600Z 29006KT 15SM BKN006 OVC038 11/11 A3004 RMK ST6SC2 SLP184

CYXE;2007-08-28 06:45;CYXE 280645Z 29004KT 12SM -DZ SCT005 OVC040 11/ RMK SF4SC4

CYXE;2007-08-28 07:00;CYXE 280700Z 28005KT 15SM SCT005 OVC043 10/10 A3004 RMK SF3SC5 SLP183

CYXE;2007-08-28 08:00;CYXE 280800Z 27006KT 15SM FEW005 BKN060 09/09 A3003 RMK SF1SC4 SLP182

CYXE;2007-08-28 09:00;CYXE 280900Z 27005KT 15SM FEW005 FEW060 08/08 A3004 RMK SF1SC1 SLP184

CYXE;2007-08-28 10:00;CYXE 281000Z 27005KT 15SM FEW006 FEW060 08/08 A3004 RMK SF1SC1 SLP184

CYXE;2007-08-28 10:50;CYXE 281050Z 28006KT 15SM BKN006 07/ RMK ST6

CYXE;2007-08-28 11:00;CYXE 281100Z 28006KT 15SM OVC006 08/08 A3005 RMK ST8 SLP186

CYXE;2007-08-28 11:05;CYXE 281105Z 31009KT 15SM OVC004 08/ RMK ST8

CYXE;2007-08-28 11:27;CYXE 281127Z 29009KT 10SM OVC002 08/ RMK ST8 BR

CYXE;2007-08-28 12:00;CYXE 281200Z 30010KT 10SM OVC003 08/08 A3006 RMK ST8 BR SLP192

CYXE;2007-08-28 12:19;CYXE 281219Z 31008KT 10SM OVC002 08/ RMK ST8 BR

CYXE;2007-08-28 12:50;CYXE 281250Z 31012KT 15SM OVC004 08/ RMK ST8

CYXE;2007-08-28 13:00;CYXE 281300Z 31012KT 15SM OVC004 08/08 A3008 RMK ST8 SLP197

CYXE;2007-08-28 13:16;CYXE 281316Z 30011KT 15SM OVC005 08/ RMK ST8

CYXE;2007-08-28 14:00;CYXE 281400Z 30009KT 15SM OVC007 09/08 A3009 RMK ST8 SLP201

CYXE;2007-08-28 15:00;CYXE 281500Z 30007KT 15SM OVC007 09/08 A3010 RMK SF8 SLP209

CYXE;2007-08-28 16:00;CYXE 281600Z 30011G16KT 15SM BKN010 10/09 A3012 RMK SF6 SLP213

CYXE;2007-08-28 17:00;CYXE 281700Z 28011G16KT 15SM SCT016 13/09 A3011 RMK SF4 SLP212

CYXE;2007-08-28 18:00;CYXE 281800Z 29013KT 15SM SCT021 14/08 A3012 RMK CU3 SLP213

CYXE;2007-08-28 19:00;CYXE 281900Z 31013KT 15SM SCT033 15/07 A3012 RMK CU4 SLP211

CYXE;2007-08-28 20:00;CYXE 282000Z 30014KT 15SM BKN040 16/06 A3011 RMK CU5 SLP210

CYXE;2007-08-28 21:00;CYXE 282100Z 29010G17KT 15SM BKN045 16/06 A3010 RMK CU5 SLP207

CYXE;2007-08-28 22:00;CYXE 282200Z 27010KT 15SM SCT042 17/07 A3010 RMK CU4 SLP207

CYXE;2007-08-28 23:00;CYXE 282300Z 30009G17KT 15SM SCT050 18/05 A3010 RMK CU4 SLP206

CYXE;2007-08-29 00:00;CYXE 290000Z 32008KT 15SM BKN045 17/06 A3010 RMK SC5 SLP204

CYXE;2007-08-29 01:00;CYXE 290100Z 30008KT 15SM SCT045 BKN080 BKN270 16/06 A3010 RMK SC4AC1CI0 SLP204

CYXE;2007-08-29 02:00;CYXE 290200Z 07005KT 15SM FEW045 SCT080 SCT270 11/08 A3012 RMK SC1AC2CI0 SLP211

CYXE;2007-08-29 03:00;CYXE 290300Z 00000KT 15SM FEW075 10/08 A3014 RMK AC2 SLP221

CYXE;2007-08-29 04:00;CYXE 290400Z 19003KT 15SM FEW070 10/08 A3015 RMK AC2 SLP225

CYXE;2007-08-29 05:00;CYXE 290500Z 12003KT 15SM SKC 08/06 A3017 RMK SLP230

CYXE;2007-08-29 06:00;CYXE 290600Z 18004KT 15SM SKC 08/07 A3017 RMK SLP232

CYXE;2007-08-29 07:00;CYXE 290700Z 19004KT 15SM SKC 08/07 A3017 RMK SLP233

CYXE;2007-08-29 08:00;CYXE 290800Z 19005KT 15SM SKC 07/06 A3017 RMK SLP231

CYXE;2007-08-29 09:00;CYXE 290900Z 20004KT 15SM FEW100 06/06 A3017 RMK AC1 SLP230

CYXE;2007-08-29 10:00;CYXE 291000Z 21003KT 15SM FEW100 06/06 A3018 RMK AC1 SLP233

CYXE;2007-08-29 11:00;CYXE 291100Z 19005KT 15SM FEW100 06/06 A3018 RMK AC2 SLP233

CYXE;2007-08-29 12:00;CYXE 291200Z 19004KT 15SM SCT076 05/05 A3018 RMK AC3 SLP235

CYXE;2007-08-29 13:00;CYXE 291300Z 19004KT 15SM FEW076 06/06 A3018 RMK AC2 SLP235

CYXE;2007-08-29 14:00;CYXE 291400Z 19002KT 15SM FEW080 09/08 A3018 RMK AC2 SLP233

CYXE;2007-08-29 15:00;CYXE 291500Z 18004KT 15SM BKN075 12/08 A3018 RMK AC7 SLP235

CYXE;2007-08-29 16:00;CYXE 291600Z 19005KT 15SM OVC075 13/08 A3017 RMK AC7 SLP233

CYXE;2007-08-29 17:00;CYXE 291700Z 18004KT 15SM OVC097 15/09 A3017 RMK AC8 SLP230

CYXE;2007-08-29 18:00;CYXE 291800Z 14004KT 15SM OVC092 15/10 A3016 RMK AC7 SLP225

CYXE;2007-08-29 19:00;CYXE 291900Z 14003KT 15SM FEW090 OVC250 18/08 A3014 RMK AC2CI5 SLP220

CYXE;2007-08-29 20:00;CYXE 292000Z 14005KT 15SM SCT090 OVC250 19/08 A3012 RMK AC4CI3 SLP213

CYXE;2007-08-29 21:00;CYXE 292100Z 12004KT 15SM BKN090 OVC250 20/09 A3010 RMK AC6CI2 SLP203

CYXE;2007-08-29 22:00;CYXE 292200Z 09009KT 15SM OVC090 20/08 A3008 RMK AC8 SLP196

CYXE;2007-08-29 23:00;CYXE 292300Z 07009KT 15SM SCT090 OVC097 19/09 A3006 RMK AC4AC4 SLP190

CYXE;2007-08-30 00:00;CYXE 300000Z 08010G15KT 15SM BKN090 OVC250 18/08 A3004 RMK AC7CI1 SLP186

CYXE;2007-08-30 01:00;CYXE 300100Z 08009KT 15SM BKN099 18/09 A3003 RMK AC6 SLP183

CYXE;2007-08-30 02:00;CYXE 300200Z 07009KT 15SM BKN097 BKN250 16/09 A3003 RMK AC6CI1 SLP181

CYXE;2007-08-30 03:00;CYXE 300300Z 08010KT 15SM SCT095 BKN250 15/08 A3003 RMK AC2CI1 SLP181

CYXE;2007-08-30 04:00;CYXE 300400Z 06012KT 15SM FEW095 FEW250 14/09 A3003 RMK AC1CI1 SLP182

CYXE;2007-08-30 05:00;CYXE 300500Z 05013KT 15SM FEW250 13/09 A3003 RMK CI0 SLP180

CYXE;2007-08-30 06:00;CYXE 300600Z 06009KT 15SM FEW250 13/08 A3003 RMK CI0 SLP179

CYXE;2007-08-30 07:00;CYXE 300700Z 06009KT 15SM SKC 11/08 A3003 RMK SLP180

CYXE;2007-08-30 08:00;CYXE 300800Z 07006KT 15SM SKC 10/08 A3003 RMK SLP180

CYXE;2007-08-30 09:00;CYXE 300900Z 05007KT 15SM SKC 09/07 A3004 RMK SLP183

CYXE;2007-08-30 10:00;CYXE 301000Z 06006KT 15SM SKC 09/07 A3004 RMK SLP184

CYXE;2007-08-30 11:00;CYXE 301100Z 06005KT 15SM SKC 08/07 A3004 RMK SLP184

CYXE;2007-08-30 12:00;CYXE 301200Z 21003KT 15SM FEW300 08/07 A3005 RMK CI1 SLP189

CYXE;2007-08-30 13:00;CYXE 301300Z 26002KT 15SM FEW300 07/07 A3008 RMK CI1 SLP196

CYXE;2007-08-30 14:00;CYXE 301400Z 00000KT 15SM FEW300 12/09 A3008 RMK CI1 SLP197

CYXE;2007-08-30 15:00;CYXE 301500Z 11005KT 15SM FEW300 16/10 A3008 RMK CI1 SLP195

CYXE;2007-08-30 16:00;CYXE 301600Z 14008KT 15SM FEW300 18/10 A3008 RMK CI1 SLP195

CYXE;2007-08-30 17:00;CYXE 301700Z 12007KT 15SM FEW300 21/11 A3008 RMK CI0 SLP195

CYXE;2007-08-30 18:00;CYXE 301800Z 14009KT 15SM FEW300 22/11 A3007 RMK CI0 SLP188

CYXE;2007-08-30 19:00;CYXE 301900Z 14009KT 15SM FEW300 23/11 A3005 RMK CI1 SLP184

CYXE;2007-08-30 20:00;CYXE 302000Z 14007KT 15SM FEW250 25/11 A3004 RMK CI1 SLP180

CYXE;2007-08-30 21:00;CYXE 302100Z 15007KT 15SM FEW250 25/12 A3003 RMK CI1 SLP174

CYXE;2007-08-30 22:00;CYXE 302200Z 14007KT 15SM FEW250 26/11 A3001 RMK CI1 SLP170

CYXE;2007-08-30 23:00;CYXE 302300Z 14007KT 15SM FEW250 26/11 A3000 RMK CI1 SLP166

CYXE;2007-08-31 00:00;CYXE 310000Z 13009KT 15SM SCT250 25/12 A2999 RMK CI2 SLP163

CYXE;2007-08-31 01:00;CYXE 310100Z 13010KT 15SM SCT140 BKN250 23/11 A2999 RMK AC2CI3 SLP161

CYXE;2007-08-31 02:00;CYXE 310200Z 11010KT 15SM SCT140 OVC250 22/11 A2998 RMK AC2CI3 SLP159

CYXE;2007-08-31 03:00;CYXE 310300Z 13014KT 15SM SCT140 OVC250 21/11 A2997 RMK AC2CI3 SLP154

CYXE;2007-08-31 04:00;CYXE 310400Z 12017KT 15SM OVC140 21/11 A2994 RMK AC6 SLP145

CYXE;2007-08-31 05:00;CYXE 310500Z 14013KT 15SM OVC140 21/11 A2995 RMK AC7 SLP149

CYXE;2007-08-31 06:00;CYXE 310600Z 13012KT 15SM OVC140 20/12 A2995 RMK AC8 SLP142

CYXE;2007-08-31 07:00;CYXE 310700Z 13014KT 15SM OVC140 19/12 A2992 RMK AC8 SLP135

CYXE;2007-08-31 08:00;CYXE 310800Z 15008G15KT 15SM OVC140 19/11 A2991 RMK AC8 SLP132

CYXE;2007-08-31 08:36;CYXE 310836Z 17015KT 15SM BKN082 OVC140 20/ RMK AC5AC3 LTGCG SW-W

CYXE;2007-08-31 09:00;CYXE 310900Z CCA 17019G24KT 15SM SCT052 OVC140 21/10 A2990 RMK SC4AC4 LTG DIST S SLP124

CYXE;2007-08-31 10:00;CYXE 311000Z 16014KT 15SM SCT064 OVC140 20/11 A2987 RMK SC3AC5 SLP114

CYXE;2007-08-31 11:00;CYXE 311100Z 16016G21KT 15SM BKN140 20/11 A2984 RMK AC7 SLP106

CYXE;2007-08-31 12:00;CYXE 311200Z 16014G20KT 15SM SCT140 OVC300 18/12 A2984 RMK AC3CI5 SLP106

CYXE;2007-08-31 13:00;CYXE 311300Z 16014KT 15SM FEW140 SCT300 17/12 A2983 RMK AC2CI1 SLP104

CYXE;2007-08-31 14:00;CYXE 311400Z 16009KT 15SM FEW140 SCT300 17/13 A2984 RMK AC1CI1 SLP105

CYXE;2007-08-31 15:00;CYXE 311500Z 17014KT 15SM FEW300 18/13 A2982 RMK CI1 SLP101

CYXE;2007-08-31 16:00;CYXE 311600Z 18013KT 15SM FEW300 21/14 A2981 RMK CI2 SLP097

CYXE;2007-08-31 17:00;CYXE 311700Z 19011KT 15SM BKN300 23/14 A2981 RMK CI3 SLP097

CYXE;2007-08-31 18:00;CYXE 311800Z 18012G17KT 15SM BKN300 24/15 A2979 RMK CI4 SLP087

CYXE;2007-08-31 19:00;CYXE 311900Z 18007KT 15SM BKN300 27/14 A2977 RMK CI4 SLP083

CYXE;2007-08-31 20:00;CYXE 312000Z 19008KT 15SM FEW120 BKN300 29/14 A2976 RMK AC1CI4 SLP078

CYXE;2007-08-31 21:00;CYXE 312100Z 18006KT 15SM SCT120 BKN300 29/15 A2975 RMK AC4CI1 ACC ASOCTD SLP072

CYXE;2007-08-31 22:00;CYXE 312200Z 17003KT 15SM SCT120 OVC270 31/13 A2974 RMK AC3CI2 SLP068

CYXE;2007-08-31 23:00;CYXE 312300Z 36005KT 6SM HZ SCT094 OVC250 28/20 A2973 RMK AC4CI3 SLP065

CYXE;2007-09-01 01:00;CYXE 010100Z 36005KT 6SM HZ FEW095 SCT250 25/19 A2973 RMK AC2CI1 ACC ASOCTD SLP067

CYXE;2007-09-01 02:00;CYXE 010200Z 36005KT 8SM FEW095 BKN250 21/17 A2973 RMK AC2CI1 HZ ACC ASOCTD SLP068

CYXE;2007-09-01 03:00;CYXE 010300Z 36008KT 10SM FEW095 BKN250 19/16 A2974 RMK AC2CI2 HZ ACC ASOCTD SLP075

CYXE;2007-09-01 04:00;CYXE 010400Z 08005KT 15SM SCT110 BKN250 19/16 A2973 RMK AC4CI0 SLP072

CYXE;2007-09-01 05:00;CYXE 010500Z 07005KT 15SM SCT095 BKN250 19/16 A2971 RMK AC4CI0 SLP066

CYXE;2007-09-01 06:00;CYXE 010600Z 03006KT 15SM FEW030 BKN070 BKN250 18/16 A2968 RMK SC2AC3CI1 SLP053

CYXE;2007-09-01 06:10;CYXE 010610Z 06005KT 15SM -SHRA FEW030 BKN070 OVC250 18/ RMK SC2AC4CI1 CVCTV CLD EMBD

CYXE;2007-09-01 06:27;CYXE 010627Z 02006KT 15SM FEW030 BKN070 OVC250 18/ RMK SC2AC4CI1

CYXE;2007-09-01 07:00;CYXE 010700Z 07005KT 15SM FEW050 SCT100 BKN250 18/16 A2966 RMK SC2AC2CI2 SLP046

CYXE;2007-09-01 08:00;CYXE 010800Z 28004KT 15SM FEW050 BKN110 BKN250 18/16 A2966 RMK SC1AC4CI2 SLP046

CYXE;2007-09-01 09:00;CYXE 010900Z 35006KT 15SM BKN110 BKN250 17/16 A2965 RMK AC6CI1 SLP040

CYXE;2007-09-01 10:00;CYXE 011000Z 03003KT 15SM BKN110 BKN250 17/16 A2966 RMK AC6CI1 SLP041

CYXE;2007-09-01 11:00;CYXE 011100Z 26002KT 15SM BKN100 OVC250 17/16 A2965 RMK AC6CI1 SLP038

CYXE;2007-09-01 12:00;CYXE 011200Z 09002KT 15SM BKN110 OVC250 16/16 A2964 RMK AC6CI1 SLP038

CYXE;2007-09-01 13:00;CYXE 011300Z 00000KT 15SM -SHRA SCT040 BKN090 BKN250 18/16 A2964 RMK SC3AC3CI1 SLP038

CYXE;2007-09-01 13:26;CYXE 011326Z 17007KT 15SM VCSH FEW055 BKN100 BKN250 18/ RMK SC2AC3CI1 CVCTV CLD EMBD

CYXE;2007-09-01 14:00;CYXE 011400Z 22008KT 15SM FEW055 BKN100 19/16 A2963 RMK SC2AC4 SLP033

CYXE;2007-09-01 15:00;CYXE 011500Z 28010KT 15SM BKN015 18/16 A2965 RMK SC7 SLP043

CYXE;2007-09-01 16:00;CYXE 011600Z 28017KT 15SM BKN017 20/16 A2965 RMK SC6 SLP045

CYXE;2007-09-01 17:00;CYXE 011700Z 30016G22KT 15SM OVC019 18/15 A2970 RMK SC8 SLP059

CYXE;2007-09-01 18:00;CYXE 011800Z 30023G29KT 15SM BKN019 18/14 A2973 RMK SC7 SLP072

CYXE;2007-09-01 19:00;CYXE 011900Z 30020G27KT 15SM BKN023 19/14 A2977 RMK SC7 SLP087

CYXE;2007-09-01 20:00;CYXE 012000Z 32022G30KT 15SM BKN023 18/13 A2981 RMK SC7 SLP097

CYXE;2007-09-01 21:00;CYXE 012100Z 32025KT 15SM BKN030 BKN090 18/11 A2983 RMK SC5AC2 SLP107

CYXE;2007-09-01 22:00;CYXE 012200Z 31018G26KT 15SM BKN035 18/12 A2986 RMK SC6 SLP116

CYXE;2007-09-01 23:00;CYXE 012300Z 31014G20KT 15SM BKN045 18/11 A2989 RMK SC6 SLP126

CYXE;2007-09-02 00:00;CYXE 020000Z 31011G16KT 15SM BKN045 17/11 A2993 RMK SC6 SLP142

CYXE;2007-09-02 01:00;CYXE 020100Z 33011G18KT 15SM FEW050 16/10 A2995 RMK SC2 SLP150

CYXE;2007-09-02 02:00;CYXE 020200Z 33006KT 15SM FEW050 13/10 A2998 RMK SC1 SLP158

CYXE;2007-09-02 03:00;CYXE 020300Z 34004KT 15SM SKC 12/09 A3000 RMK SLP167

CYXE;2007-09-02 04:00;CYXE 020400Z 30003KT 15SM SKC 11/10 A3002 RMK SLP173

CYXE;2007-09-02 05:00;CYXE 020500Z 25005KT 15SM SKC 10/09 A3003 RMK SLP178

CYXE;2007-09-02 06:00;CYXE 020600Z 28006KT 15SM SKC 09/08 A3004 RMK SLP184

CYXE;2007-09-02 07:00;CYXE 020700Z 22005KT 15SM FEW250 09/08 A3005 RMK CI0 SLP186

CYXE;2007-09-02 08:00;CYXE 020800Z 25003KT 15SM FEW250 09/08 A3006 RMK CI0 SLP189

CYXE;2007-09-02 09:00;CYXE 020900Z 21006KT 15SM FEW120 FEW250 08/08 A3005 RMK AC1CI0 SLP189

CYXE;2007-09-02 10:00;CYXE 021000Z 20003KT 15SM SCT120 BKN250 08/08 A3006 RMK AC2CI1 SLP190

CYXE;2007-09-02 11:00;CYXE 021100Z 23004KT 15SM FEW120 BKN250 08/08 A3008 RMK AC2CI2 SLP196

CYXE;2007-09-02 12:00;CYXE 021200Z 21004KT 15SM FEW120 SCT250 07/07 A3008 RMK AC1CI2 SLP200

CYXE;2007-09-02 13:00;CYXE 021300Z 20004KT 15SM FEW140 BKN250 08/08 A3010 RMK AC1CI2 SLP205

CYXE;2007-09-02 14:00;CYXE 021400Z 20004KT 15SM FEW120 BKN250 10/09 A3011 RMK AC1CI2 SLP207

CYXE;2007-09-02 15:00;CYXE 021500Z 20004KT 15SM FEW120 BKN250 13/10 A3010 RMK AC1CI2 SLP205

CYXE;2007-09-02 16:00;CYXE 021600Z 19006KT 15SM FEW120 BKN250 16/11 A3009 RMK AC1CI2 CONTRAILS SLP203

CYXE;2007-09-02 17:00;CYXE 021700Z 19009KT 15SM FEW100 BKN250 18/10 A3009 RMK AC2CI2 CONTRAILS SLP202

CYXE;2007-09-02 18:00;CYXE 021800Z 16004KT 15SM BKN095 BKN250 18/11 A3008 RMK AC6CI0 SLP197

CYXE;2007-09-02 18:34;CYXE 021834Z 14005KT 15SM -SHRA BKN095 BKN250 18/ RMK ACC6CI0

CYXE;2007-09-02 19:00;CYXE 021900Z 15007KT 15SM BKN092 BKN250 19/08 A3005 RMK AC6CI0 ACC ASOCTD SLP188

CYXE;2007-09-02 20:00;CYXE 022000Z 14008KT 15SM SCT092 BKN100 BKN250 19/09 A3003 RMK AC4AC2CI0 ACC ASOCTD SLP182

CYXE;2007-09-02 21:00;CYXE 022100Z 14009KT 15SM BKN100 OVC250 20/08 A3001 RMK AC5CI3 ACC ASOCTD SLP173

CYXE;2007-09-02 22:00;CYXE 022200Z 14008KT 15SM SCT090 OVC250 20/08 A2999 RMK AC3CI5 SLP167

CYXE;2007-09-02 23:00;CYXE 022300Z 13013KT 15SM FEW100 OVC250 21/09 A2998 RMK AC2CI4 SLP163

CYXE;2007-09-03 00:00;CYXE 030000Z 10011KT 15SM FEW100 OVC250 19/08 A2996 RMK AC2CI5 SLP155

CYXE;2007-09-03 01:00;CYXE 030100Z 09009KT 15SM FEW100 OVC250 18/09 A2996 RMK AC1CI5 SLP155

CYXE;2007-09-03 02:00;CYXE 030200Z 10008KT 15SM FEW100 OVC250 15/09 A2995 RMK AC1CI3 SLP151

CYXE;2007-09-03 03:00;CYXE 030300Z 09007KT 15SM OVC250 14/10 A2995 RMK CI4 SLP154

CYXE;2007-09-03 04:00;CYXE 030400Z 07007KT 15SM OVC250 13/10 A2995 RMK CI4 SLP153

CYXE;2007-09-03 05:00;CYXE 030500Z 07007KT 15SM OVC250 13/10 A2995 RMK CI4 SLP152

CYXE;2007-09-03 06:00;CYXE 030600Z 11007KT 15SM BKN088 OVC250 14/09 A2994 RMK AC5CI2 SLP146

CYXE;2007-09-03 07:00;CYXE 030700Z 12009KT 15SM FEW090 SCT250 14/09 A2992 RMK AC2CI0 SLP139

CYXE;2007-09-03 08:00;CYXE 030800Z 13007KT 15SM FEW095 BKN250 15/09 A2991 RMK AC2CI3 SLP137

CYXE;2007-09-03 09:00;CYXE 030900Z 12007KT 15SM FEW095 OVC250 14/09 A2990 RMK AC1CI4 SLP132

CYXE;2007-09-03 10:00;CYXE 031000Z 13005KT 15SM OVC250 13/09 A2990 RMK CI5 SLP130

CYXE;2007-09-03 11:00;CYXE 031100Z 11006KT 15SM BKN110 OVC250 12/10 A2990 RMK AC5CI2 SLP130

CYXE;2007-09-03 12:00;CYXE 031200Z 05003KT 15SM BKN100 OVC250 10/09 A2990 RMK AC5CI2 SLP135

CYXE;2007-09-03 13:00;CYXE 031300Z 06004KT 15SM SCT110 BKN250 09/09 A2991 RMK AC2CI1 SLP137

CYXE;2007-09-03 14:00;CYXE 031400Z 00000KT 15SM FEW110 BKN250 13/11 A2992 RMK AC2CI2 CONTRAILS SLP140

CYXE;2007-09-03 15:00;CYXE 031500Z 21002KT 15SM FEW110 SCT250 15/11 A2993 RMK AC2CI0 CONTRAILS SLP144

CYXE;2007-09-03 16:00;CYXE 031600Z 35003KT 15SM FEW110 FEW250 17/12 A2993 RMK AC1CI0 SLP144

CYXE;2007-09-03 17:00;CYXE 031700Z 01004KT 15SM FEW250 19/12 A2994 RMK CI0 SLP146

CYXE;2007-09-03 18:00;CYXE 031800Z 36005KT 15SM FEW110 SCT250 20/12 A2993 RMK AC1CI1 SLP141

CYXE;2007-09-03 19:00;CYXE 031900Z 05006KT 15SM FEW090 BKN270 22/13 A2993 RMK AC1CI1 SLP140

CYXE;2007-09-03 20:00;CYXE 032000Z 08005KT 15SM BKN270 24/13 A2992 RMK CI2 SLP137

CYXE;2007-09-03 21:00;CYXE 032100Z 06004KT 15SM FEW093 BKN270 25/14 A2990 RMK AC0CI2 SLP129

CYXE;2007-09-03 22:00;CYXE 032200Z 08005KT 15SM FEW090 OVC270 25/13 A2989 RMK AC1CI2 SLP126

CYXE;2007-09-03 23:00;CYXE 032300Z 12005KT 15SM FEW100 OVC270 24/14 A2989 RMK AC1CI6 SLP124

CYXE;2007-09-04 00:00;CYXE 040000Z 12006KT 15SM OVC270 23/13 A2989 RMK CI6 SLP127

CYXE;2007-09-04 01:00;CYXE 040100Z 11005KT 15SM OVC270 22/13 A2989 RMK CI7 SLP127

CYXE;2007-09-04 02:00;CYXE 040200Z 10007KT 15SM OVC270 18/12 A2988 RMK CI7 SLP126

CYXE;2007-09-04 03:00;CYXE 040300Z 12006KT 15SM OVC270 19/12 A2988 RMK CI6 SLP124

CYXE;2007-09-04 04:00;CYXE 040400Z 13007KT 15SM BKN270 18/12 A2988 RMK CI4 SLP125

CYXE;2007-09-04 05:00;CYXE 040500Z 13008KT 15SM BKN270 18/12 A2987 RMK CI4 SLP120

CYXE;2007-09-04 06:00;CYXE 040600Z 14007KT 15SM FEW095 BKN270 18/12 A2986 RMK AC2CI4 SLP115

CYXE;2007-09-04 07:00;CYXE 040700Z 14008KT 15SM FEW095 BKN270 17/12 A2986 RMK AC2CI2 SLP114

CYXE;2007-09-04 08:00;CYXE 040800Z 13007KT 15SM FEW095 BKN270 16/12 A2984 RMK AC2CI2 SLP109

CYXE;2007-09-04 09:00;CYXE 040900Z 12008KT 15SM FEW095 BKN270 16/11 A2982 RMK AC1CI2 SLP099

CYXE;2007-09-04 10:00;CYXE 041000Z 13008KT 15SM FEW092 BKN270 16/12 A2980 RMK AC2CI0 SLP094

CYXE;2007-09-04 11:00;CYXE 041100Z 13010KT 15SM FEW092 BKN270 16/12 A2978 RMK AC2CI1 VIA YEG FIC SLP088

CYXE;2007-09-04 12:00;CYXE 041200Z 13007KT 15SM SCT092 BKN270 15/12 A2975 RMK AC3CI0 SLP079

CYXE;2007-09-04 13:00;CYXE 041300Z 13011KT 15SM FEW092 BKN220 14/12 A2973 RMK AC2CI3 CONTRAILS SLP073

CYXE;2007-09-04 14:00;CYXE 041400Z 12006KT 15SM FEW094 BKN220 15/13 A2972 RMK AC2CI3 SLP069

CYXE;2007-09-04 15:00;CYXE 041500Z 13006KT 15SM FEW095 BKN220 17/13 A2969 RMK AC2CS2 SLP059

CYXE;2007-09-04 16:00;CYXE 041600Z 14006KT 15SM FEW096 BKN220 19/15 A2967 RMK AC2CS4 SLP051

CYXE;2007-09-04 17:00;CYXE 041700Z 10004KT 15SM SCT095 OVC220 20/16 A2964 RMK AC4CI2 SLP044

CYXE;2007-09-04 18:00;CYXE 041800Z 13007KT 15SM BKN088 OVC220 23/15 A2961 RMK AC5CI2 SLP028

CYXE;2007-09-04 19:00;CYXE 041900Z 17014KT 15SM FEW088 OVC180 26/16 A2957 RMK AC1AS6 SLP016

CYXE;2007-09-04 20:00;CYXE 042000Z 18007KT 15SM BKN160 OVC220 26/17 A2956 RMK AS5CI2 SLP012

CYXE;2007-09-04 21:00;CYXE 042100Z 22011KT 15SM SCT160 OVC220 27/15 A2955 RMK AC3CI3 SLP006

CYXE;2007-09-04 22:00;CYXE 042200Z 27010G15KT 15SM FEW090 SCT160 OVC250 26/14 A2954 RMK AC2AC2CI2 SLP004

CYXE;2007-09-04 23:00;CYXE 042300Z 29007KT 15SM SCT040 BKN090 OVC250 24/15 A2955 RMK SC3AC3CI0 SLP008

CYXE;2007-09-05 00:00;CYXE 050000Z 33010KT 15SM FEW040 BKN090 BKN250 24/17 A2957 RMK SC2AC3CI0 SLP016

CYXE;2007-09-05 01:00;CYXE 050100Z 30010KT 15SM SCT090 BKN250 22/14 A2959 RMK AC3CI2 SLP021

CYXE;2007-09-05 02:00;CYXE 050200Z 27006KT 15SM SCT090 BKN250 19/14 A2962 RMK AC3CI2 SLP031

CYXE;2007-09-05 03:00;CYXE 050300Z 30011KT 15SM FEW090 BKN250 19/13 A2964 RMK AC2CI2 SLP041

CYXE;2007-09-05 04:00;CYXE 050400Z 32009KT 15SM FEW250 18/14 A2967 RMK CI1 SLP051

CYXE;2007-09-05 05:00;CYXE 050500Z 32008KT 15SM FEW250 16/13 A2971 RMK CI0 SLP062

CYXE;2007-09-05 06:00;CYXE 050600Z 31008KT 15SM FEW250 14/13 A2971 RMK CI0 SLP064

CYXE;2007-09-05 07:00;CYXE 050700Z 30010KT 15SM FEW250 14/12 A2973 RMK CI1 SLP072

CYXE;2007-09-05 08:00;CYXE 050800Z 30008KT 15SM FEW120 SCT250 12/11 A2974 RMK AC1CI0 SLP073

CYXE;2007-09-05 09:00;CYXE 050900Z 27007KT 15SM FEW100 SCT250 12/10 A2975 RMK AC2CI0 SLP078

CYXE;2007-09-05 10:00;CYXE 051000Z 26008KT 15SM FEW100 FEW250 11/10 A2978 RMK AC1CI0 SLP086

CYXE;2007-09-05 11:00;CYXE 051100Z 27006KT 15SM FEW250 10/10 A2978 RMK CI0 SLP087

CYXE;2007-09-05 12:00;CYXE 051200Z 27006KT 15SM FEW250 10/09 A2980 RMK CI1 CONTRAILS SLP098

CYXE;2007-09-05 13:00;CYXE 051300Z 25007KT 15SM FEW100 FEW250 09/09 A2981 RMK AC1CI0 SLP101

CYXE;2007-09-05 15:00;CYXE 051500Z 29009KT 15SM FEW120 FEW250 15/10 A2982 RMK AC1CI0 SLP105

CYXE;2007-09-05 16:00;CYXE 051600Z 30009KT 15SM FEW100 FEW250 17/11 A2983 RMK AC1CI0 SLP106

CYXE;2007-09-05 17:00;CYXE 051700Z 29009KT 15SM FEW045 FEW120 FEW250 19/11 A2982 RMK SC1AC1CI0 SLP104

CYXE;2007-09-05 18:00;CYXE 051800Z 27013G22KT 15SM FEW045 FEW120 FEW250 19/09 A2981 RMK SC1AC1CI0 SLP101

CYXE;2007-09-05 19:00;CYXE 051900Z 31014G22KT 15SM FEW045 FEW120 FEW250 21/07 A2980 RMK SC1AC1CI1 SLP098

CYXE;2007-09-05 20:00;CYXE 052000Z 30016G21KT 15SM FEW045 FEW120 FEW250 21/06 A2980 RMK SC1AC1CI1 SLP096

CYXE;2007-09-05 21:00;CYXE 052100Z 29015KT 15SM FEW045 FEW120 FEW250 21/06 A2978 RMK SC1AC1CI1 SLP091

CYXE;2007-09-05 22:00;CYXE 052200Z 31016KT 15SM FEW045 FEW250 21/08 A2977 RMK SC1CI1 SLP088

CYXE;2007-09-05 23:00;CYXE 052300Z 31013G19KT 15SM FEW250 21/07 A2977 RMK CI0 SLP086

CYXE;2007-09-06 00:00;CYXE 060000Z 31010G15KT 15SM FEW120 FEW250 21/06 A2976 RMK AC1CI0 SLP086

CYXE;2007-09-06 01:00;CYXE 060100Z 31007KT 15SM FEW120 FEW250 18/08 A2977 RMK AC1CI0 SLP087

CYXE;2007-09-06 02:00;CYXE 060200Z 34003KT 15SM FEW120 FEW250 16/09 A2977 RMK AC1CI0 SLP087

CYXE;2007-09-06 03:00;CYXE 060300Z 21003KT 15SM FEW120 SCT250 15/08 A2977 RMK AC1CI0 SLP090

CYXE;2007-09-06 04:00;CYXE 060400Z 00000KT 15SM FEW120 SCT250 14/09 A2977 RMK AC1CI0 SLP088

CYXE;2007-09-06 05:00;CYXE 060500Z 07004KT 15SM FEW120 FEW250 12/08 A2975 RMK AC1CI0 SLP082

CYXE;2007-09-06 06:00;CYXE 060600Z 16005KT 15SM FEW120 SCT250 12/09 A2974 RMK AC2CI0 SLP079

CYXE;2007-09-06 06:45;CYXE 060645Z 14004KT 12SM -SHRA BKN080 BKN250 13/ RMK AC6CI0 CVCTV CLD EMBD BR

CYXE;2007-09-06 07:00;CYXE 060700Z 15005KT 15SM -SHRA SCT060 OVC080 13/10 A2974 RMK SC3AC5 CVCTV CLD EMBD BR SLP077

CYXE;2007-09-06 08:00;CYXE 060800Z 09002KT 15SM -SHRA FEW038 BKN050 BKN080 13/10 A2972 RMK SC2SC2AC2 SLP073

CYXE;2007-09-06 08:20;CYXE 060820Z 10005KT 15SM SCT038 BKN080 13/ RMK SC3AC4

CYXE;2007-09-06 09:00;CYXE 060900Z 02008KT 15SM SCT038 BKN080 12/10 A2974 RMK SC3AC3 SLP076

CYXE;2007-09-06 10:00;CYXE 061000Z 01010KT 15SM BKN083 12/10 A2975 RMK AC7 LTGIC DIST S SLP079

CYXE;2007-09-06 10:30;CYXE 061030Z 03012KT 15SM -SHRA FEW060 OVC080 12/ RMK SC2AC6 LTGIC DIST S

CYXE;2007-09-06 11:00;CYXE 061100Z 03011KT 15SM -SHRA FEW060 BKN080 12/10 A2976 RMK SC2AC5 LTGIC DIST S SLP082

CYXE;2007-09-06 11:24;CYXE 061124Z 05010KT 15SM FEW060 BKN080 12/ RMK SC2AC5 LTGIC DIST SE

CYXE;2007-09-06 12:00;CYXE 061200Z 06015KT 15SM SCT060 OVC080 12/10 A2974 RMK SC3AC5 SLP079

CYXE;2007-09-06 12:27;CYXE 061227Z 05013KT 12SM -SHRA SCT040 OVC080 11/ RMK SC4AC4 BR

CYXE;2007-09-06 13:00;CYXE 061300Z 05015KT 15SM SCT040 OVC080 11/11 A2975 RMK SC4AC4 SLP080

CYXE;2007-09-06 13:30;CYXE 061330Z 06011KT 15SM BKN040 OVC080 11/ RMK SC6AC2

CYXE;2007-09-06 14:00;CYXE 061400Z 06011KT 15SM FEW015 OVC042 11/11 A2976 RMK SF1SC7 SLP083

CYXE;2007-09-06 15:00;CYXE 061500Z 06010KT 15SM OVC040 12/11 A2976 RMK SC8 SLP086

CYXE;2007-09-06 16:00;CYXE 061600Z 06013KT 15SM FEW008 OVC038 11/10 A2977 RMK SF1SC7 SLP092

CYXE;2007-09-06 16:29;CYXE 061629Z 07015KT 15SM -RA FEW008 OVC038 10/ RMK SF1SC7

CYXE;2007-09-06 17:00;CYXE 061700Z 07010KT 10SM -RA SCT007 OVC038 12/11 A2979 RMK SF3SC5 SLP096

CYXE;2007-09-06 17:19;CYXE 061719Z 04009KT 10SM -RA BKN007 OVC035 11/ RMK SC6SC2

CYXE;2007-09-06 18:00;CYXE 061800Z 05012KT 15SM -RA FEW007 BKN013 OVC035 12/11 A2979 RMK SF2SC2SC3 SLP100

CYXE;2007-09-06 18:11;CYXE 061811Z 06011KT 15SM FEW007 BKN013 OVC033 11/ RMK SF2SC4SC2

CYXE;2007-09-06 18:51;CYXE 061851Z 04011KT 15SM BKN009 OVC036 12/ RMK SC6SC2

CYXE;2007-09-06 19:00;CYXE 061900Z 05009KT 15SM BKN010 OVC038 12/11 A2980 RMK SC6SC2 SLP102

CYXE;2007-09-06 20:00;CYXE 062000Z 36007KT 15SM BKN012 OVC058 12/11 A2981 RMK SC6SC2 SLP108

CYXE;2007-09-06 21:00;CYXE 062100Z 01010KT 15SM BKN012 OVC060 12/11 A2982 RMK SC7SC1 SLP111

CYXE;2007-09-06 22:00;CYXE 062200Z 02008KT 15SM BKN009 OVC021 12/11 A2983 RMK SC6SC1 SLP114

CYXE;2007-09-06 23:00;CYXE 062300Z 02005KT 15SM SCT009 BKN014 BKN030 BKN090 14/11 A2985 RMK SC3SC2SC1AC1 SLP118

CYXE;2007-09-06 23:21;CYXE 062321Z 09002KT 15SM FEW014 SCT030 BKN090 14/ RMK SC2SC2AC2

CYXE;2007-09-07 00:00;CYXE 070000Z 06005KT 15SM FEW014 SCT030 BKN090 14/10 A2986 RMK SC2SC2AC2 SLP123

CYXE;2007-09-07 01:00;CYXE 070100Z 07002KT 15SM FEW017 SCT030CB BKN090 BKN250 12/10 A2987 RMK SC2CB2AC2CI0 CB SW SLP126

CYXE;2007-09-07 02:00;CYXE 070200Z 00000KT 15SM VCSH FEW014 BKN045 BKN080 12/10 A2989 RMK SC2SC4AC2 CB ASOCTD SLP132

CYXE;2007-09-07 02:10;CYXE 070210Z 33015KT 12SM -SHRA FEW014 BKN040 OVC080 10/ RMK SC2SC4AC2 CVCTV CLD EMBD

CYXE;2007-09-07 02:13;CYXE 070213Z 33012G19KT 10SM +SHRA BKN012 OVC040 10/ RMK SC5SC3 CB EMBD LTG N

CYXE;2007-09-07 03:00;CYXE 070300Z 34002KT 15SM BKN016 BKN095 09/09 A2992 RERA RMK SC6AC2 SLP145

CYXE;2007-09-07 04:00;CYXE 070400Z 11002KT 15SM -RA FEW016 OVC040 09/09 A2993 RMK SC2SC6 SLP148

CYXE;2007-09-07 04:12;CYXE 070412Z 14003KT 15SM FEW016 OVC040 09/ RMK SC2SC6

CYXE;2007-09-07 04:40;CYXE 070440Z 32004KT 12SM RA FEW015 BKN040 OVC090 09/ RMK SC2SC4AC2

CYXE;2007-09-07 05:00;CYXE 070500Z 00000KT 15SM -RA FEW006 SCT040 BKN070 09/09 A2993 RERA RMK SF1SC2AC4 SLP150

CYXE;2007-09-07 05:16;CYXE 070516Z 00000KT 15SM FEW006 SCT020 BKN070 09/ RMK SF1SC2AC4

CYXE;2007-09-07 06:00;CYXE 070600Z 23006KT 15SM SCT067 07/07 A2992 RERA RMK AS3 FG BNK DIST E-S SLP148

CYXE;2007-09-07 07:00;CYXE 070700Z 23006KT 15SM FEW070 07/07 A2992 RMK AS2 SLP148

CYXE;2007-09-07 08:00;CYXE 070800Z 26004KT 10SM R09/1000V1600FT/N FEW070 07/07 A2994 RMK AC2 VIS S 1/2 SLP152

CYXE;2007-09-07 08:08;CYXE 070808Z 27005KT 1/8SM R09/1000V1800FT/N FG BKN070 07/ RMK FG5AC1

CYXE;2007-09-07 08:26;CYXE 070826Z 29007KT 15SM R09/1200V6000FT/U FEW070 06/ RMK AC2 BR

CYXE;2007-09-07 09:00;CYXE 070900Z 30008KT 15SM FEW070 07/07 A2994 RMK AC2 SLP154

CYXE;2007-09-07 10:00;CYXE 071000Z 29007KT 15SM FEW040 06/06 A2996 RMK SC2 SLP161

CYXE;2007-09-07 10:43;CYXE 071043Z 29007KT 10SM BKN003 RMK ST6

CYXE;2007-09-07 10:54;CYXE 071054Z 30009KT 1/8SM R09/4500VP6000FT/D FG VV001 07/ RMK FG8 VIS E 1/2

CYXE;2007-09-07 11:00;CYXE 071100Z 30010KT 0SM R09/2400V5500FT/U FG VV001 07/07 A2998 RMK FG8 VIS E 1/8 SLP165

CYXE;2007-09-07 11:18;CYXE 071118Z 31010KT 1/8SM R09/3500V5000FT/U FG VV001 07/ RMK FG8 VIS E-S 1/2

CYXE;2007-09-07 11:36;CYXE 071136Z 31010KT 1/2SM R09/P6000FT/N FG VV001 07/ RMK FG8 VIS E 1 W 1/8

CYXE;2007-09-07 12:00;CYXE 071200Z 30008KT 1/2SM R09/P6000FT/U FG VV001 07/07 A2999 RMK FG8 SLP168

CYXE;2007-09-07 12:37;CYXE 071237Z 29009KT 1 1/2SM BR OVC002 07/ RMK FG2SC6

CYXE;2007-09-07 13:00;CYXE 071300Z 32010KT 3SM BR BKN003 07/07 A3000 RMK SC7 SLP172

CYXE;2007-09-07 13:38;CYXE 071338Z 32010KT 4SM OVC004 07/ RMK SC8 VIS RDCD DUE LOW CLD

CYXE;2007-09-07 14:00;CYXE 071400Z 31007KT 4SM BR BKN004 OVC010 08/08 A3001 RMK SF6ST2 SLP175

CYXE;2007-09-07 14:31;CYXE 071431Z 33007KT 4SM BR OVC005 08/ RMK SF8

CYXE;2007-09-07 15:00;CYXE 071500Z 34008KT 10SM OVC007 08/08 A3001 RMK SF8 BR SLP180

CYXE;2007-09-07 15:43;CYXE 071543Z 31006KT 15SM SCT009 BKN037 09/ RMK SF4SC3

CYXE;2007-09-07 16:00;CYXE 071600Z 31007KT 15SM SCT009 BKN037 10/09 A3002 RMK SF3SC4 SLP183

CYXE;2007-09-07 16:37;CYXE 071637Z 30006KT 15SM OVC012 10/ RMK SC8

CYXE;2007-09-07 17:00;CYXE 071700Z 31006KT 15SM OVC014 10/08 A3003 RMK SC8 SLP185

CYXE;2007-09-07 17:43;CYXE 071743Z 28008KT 15SM BKN021 OVC052 10/ RMK SC6SC2

CYXE;2007-09-07 18:00;CYXE 071800Z 31006KT 15SM SCT021 BKN049 11/08 A3003 RMK SC4SC3 SLP187

CYXE;2007-09-07 19:00;CYXE 071900Z 30006KT 15SM SCT024 BKN035 BKN053 12/08 A3003 RMK SC3SC2SC2 TCU EMBD SLP185

CYXE;2007-09-07 20:00;CYXE 072000Z 36007KT 15SM SCT026 BKN040 13/09 A3003 RMK SC4SC3 TCU EMBD SHRA W SLP184

CYXE;2007-09-07 20:34;CYXE 072034Z 02007KT 15SM -SHRA FEW013 OVC022 11/ RMK SF2SC6 TCU EMBD

CYXE;2007-09-07 21:00;CYXE 072100Z 03004KT 15SM -SHRA SCT016 BKN029 11/09 A3003 RMK SC3SC4 TCU EMBD SLP187

CYXE;2007-09-07 22:00;CYXE 072200Z 04009KT 15SM -SHRA SCT022TCU BKN047 11/10 A3004 RMK TCU3SC3 SLP189

CYXE;2007-09-07 22:29;CYXE 072229Z 01006KT 15SM FEW022 BKN047 12/ RMK CF2SC2 TCU ASOCTD

CYXE;2007-09-07 23:00;CYXE 072300Z 02006KT 15SM FEW022 BKN052 12/08 A3005 RMK CF2SC3 SLP191

CYXE;2007-09-08 00:00;CYXE 080000Z 03008KT 15SM FEW022 BKN042 13/08 A3006 RMK CU2SC2 SLP196

CYXE;2007-09-08 01:00;CYXE 080100Z 03006KT 15SM FEW045 FEW090 11/07 A3008 RMK SC1AC1 SLP201

CYXE;2007-09-08 02:00;CYXE 080200Z 05004KT 15SM FEW045 FEW095 08/07 A3010 RMK SC1AC1 SLP207

CYXE;2007-09-08 03:00;CYXE 080300Z 05004KT 15SM FEW045 FEW100 06/06 A3012 RMK SC1AC1 SLP218

CYXE;2007-09-08 04:00;CYXE 080400Z 00000KT 15SM FEW056 BKN092 08/07 A3013 RMK SC2AC2 SLP223

CYXE;2007-09-08 05:00;CYXE 080500Z 33004KT 15SM BKN054 08/08 A3015 RMK SC6 SLP228

CYXE;2007-09-08 06:00;CYXE 080600Z 34003KT 15SM BKN050 OVC077 08/08 A3015 RMK SC6AC2 SLP227

CYXE;2007-09-08 07:00;CYXE 080700Z 29002KT 15SM BKN044 OVC089 08/08 A3016 RMK SC6AC2 SLP229

CYXE;2007-09-08 08:00;CYXE 080800Z 30002KT 15SM R09/1600V4000FT/D SCT040 BKN090 07/07 A3017 RMK SC4AC2 SLP234

CYXE;2007-09-08 09:00;CYXE 080900Z 29003KT 15SM R09/2400VP6000FT/N FEW040 FEW090 06/06 A3018 RMK SC1AC2 SLP238

CYXE;2007-09-08 10:00;CYXE 081000Z 00000KT 15SM R09/0900V2200FT/U BCFG FEW095 06/06 A3019 RMK AC2 SLP240

CYXE;2007-09-08 11:00;CYXE 081100Z 23005KT 15SM R09/1200FT/N BCFG FEW095 04/04 A3019 RMK AC2 VIS W - NW 1/2 FG SLP242

CYXE;2007-09-08 12:00;CYXE 081200Z 23003KT 15SM BCFG FEW066 SCT093 04/04 A3020 RMK SC2AC2 SLP245

CYXE;2007-09-08 12:43;CYXE 081243Z 22004KT 1/4SM R09/1200V2200FT/U FG BKN065 03/ RMK FG6SC1

CYXE;2007-09-08 13:00;CYXE 081300Z 17003KT 1/4SM R09/1000FT/N FG BKN065 04/04 A3021 RMK FG6SC1 SLP246

CYXE;2007-09-08 13:20;CYXE 081320Z 19002KT 1/2SM R09/1000V2200FT/U FG BKN090 05/ RMK FG2AC5

CYXE;2007-09-08 13:34;CYXE 081334Z 21002KT 10SM R09/4500VP6000FT/U BKN076 BKN092 05/ RMK AC5AC2 VIS W-N 5

CYXE;2007-09-08 14:00;CYXE 081400Z 22003KT 15SM BKN072 06/06 A3021 RMK AC6 SLP249

CYXE;2007-09-08 14:19;CYXE 081419Z 21005KT 15SM -SHRA SCT027 BKN084 06/ RMK SC3AC3

CYXE;2007-09-08 15:00;CYXE 081500Z 25003KT 15SM -SHRA FEW010 SCT038 BKN079 07/07 A3023 RMK SF1SC3AC3 SLP256

CYXE;2007-09-08 15:38;CYXE 081538Z 22004KT 15SM BKN048 08/ RMK SC7

CYXE;2007-09-08 16:00;CYXE 081600Z 23006KT 15SM BKN048 BKN100 08/08 A3023 RMK SC5AC2 SLP257

CYXE;2007-09-08 17:00;CYXE 081700Z 26005KT 15SM FEW058 BKN100 11/09 A3024 RMK SC2AC2 SLP259

CYXE;2007-09-08 18:00;CYXE 081800Z 31006KT 15SM FEW020 SCT058 BKN100 13/09 A3023 RMK CU2SC2AC2 SLP252

CYXE;2007-09-08 19:00;CYXE 081900Z 28002KT 15SM SCT029 BKN059 BKN100 15/08 A3021 RMK CU3SC2AC1 SLP247

CYXE;2007-09-08 20:00;CYXE 082000Z 23010KT 15SM BKN035TCU 11/07 A3021 RMK TCU6 SH S SLP247

CYXE;2007-09-08 21:00;CYXE 082100Z 28006KT 15SM BKN030TCU 14/08 A3021 RMK TCU6 SLP246

CYXE;2007-09-08 22:00;CYXE 082200Z 27004KT 15SM BKN040TCU 14/08 A3020 RMK TCU5 SLP242

CYXE;2007-09-08 23:00;CYXE 082300Z 31006KT 15SM SCT050TCU 16/07 A3019 RMK TCU2 SLP240

CYXE;2007-09-09 00:00;CYXE 090000Z 31005KT 15SM SCT050TCU 16/07 A3019 RMK TCU3 FEW CB TOPS SLP240

CYXE;2007-09-09 01:00;CYXE 090100Z 34004KT 15SM FEW045CB SCT250 12/08 A3020 RMK CB2CI0 SLP243

CYXE;2007-09-09 02:00;CYXE 090200Z 31004KT 15SM SCT050TCU BKN250 11/07 A3022 RMK TCU4CI0 FEW CB SLP250

CYXE;2007-09-09 03:00;CYXE 090300Z 31003KT 15SM SCT050 BKN250 10/07 A3023 RMK SC3CI0 FEW TCU SLP255

CYXE;2007-09-09 04:00;CYXE 090400Z 26004KT 15SM FEW060 SCT250 09/08 A3023 RMK SC1CI0 SLP256

CYXE;2007-09-09 05:00;CYXE 090500Z 31004KT 15SM FEW250 07/06 A3024 RMK CI0 SLP257

CYXE;2007-09-09 06:00;CYXE 090600Z 31006KT 15SM SCT080 BKN250 07/06 A3025 RMK AC4CI0 SLP258

CYXE;2007-09-09 07:00;CYXE 090700Z 30006KT 15SM BKN066 BKN250 07/06 A3024 RMK SC5CI1 SLP257

CYXE;2007-09-09 08:00;CYXE 090800Z 29004KT 15SM BKN077 BKN250 07/07 A3024 RMK AC5CI2 SLP257

CYXE;2007-09-09 09:00;CYXE 090900Z 30007KT 15SM FEW077 SCT250 06/05 A3025 RMK AC1CI2 SLP260

CYXE;2007-09-09 10:00;CYXE 091000Z 33005KT 15SM FEW250 04/04 A3025 RMK CI2 SLP260

CYXE;2007-09-09 11:00;CYXE 091100Z 32007KT 15SM R09/2600VP6000FT/D BCFG FEW120 FEW250 03/03 A3025 RMK AC1CI0 SLP260

CYXE;2007-09-09 12:00;CYXE 091200Z CCA 30005KT 15SM FEW120 FEW250 04/04 A3027 RMK AC2CI0 SLP267

CYXE;2007-09-09 13:00;CYXE 091300Z 28005KT 15SM BKN082 BKN100 05/05 A3028 RMK AC5AC1 SLP269

CYXE;2007-09-09 14:00;CYXE 091400Z 26002KT 15SM BKN080 07/07 A3027 RMK AC6 SLP266

CYXE;2007-09-09 15:00;CYXE 091500Z 27004KT 15SM BKN075 08/08 A3027 RMK AC6 SLP269

CYXE;2007-09-09 16:00;CYXE 091600Z 27004KT 15SM FEW006 SCT075 10/09 A3028 RMK CF1AC3 SLP271

CYXE;2007-09-09 17:00;CYXE 091700Z 28005KT 15SM SCT020 SCT075 13/07 A3026 RMK CU3AC1 FEW TCU SLP265

CYXE;2007-09-09 18:00;CYXE 091800Z 31006KT 15SM BKN040 14/06 A3026 RMK CU5 FEW TCU SLP261

CYXE;2007-09-09 19:00;CYXE 091900Z 28005KT 15SM SCT040 14/07 A3023 RMK CU4 FEW TCU SLP254

CYXE;2007-09-09 20:00;CYXE 092000Z 25005KT 15SM SCT040 15/07 A3021 RMK CU3 SLP247

CYXE;2007-09-09 21:00;CYXE 092100Z 30009KT 15SM SCT045 BKN250 15/06 A3019 RMK CU4CI0 SLP240

CYXE;2007-09-09 22:00;CYXE 092200Z 28007KT 15SM SCT045 BKN250 16/06 A3017 RMK CU4CI0 SLP232

CYXE;2007-09-09 23:00;CYXE 092300Z 27009G15KT 15SM FEW045 SCT250 16/05 A3014 RMK CU2CI1 CONTRAILS SLP224

CYXE;2007-09-10 00:00;CYXE 100000Z 29007KT 15SM FEW045 BKN250 14/06 A3014 RMK CU1CI5 SLP224

CYXE;2007-09-10 01:00;CYXE 100100Z 26004KT 15SM FEW045 FEW096 BKN250 14/07 A3012 RMK CU1AC2CI4 SLP218

CYXE;2007-09-10 02:00;CYXE 100200Z 23006KT 15SM FEW100 BKN250 11/06 A3010 RMK AC2CI4 SLP211

CYXE;2007-09-10 03:00;CYXE 100300Z 21005KT 15SM FEW100 BKN250 11/06 A3009 RMK AC2CI4 SLP205

CYXE;2007-09-10 04:00;CYXE 100400Z 21006KT 15SM FEW100 BKN250 11/06 A3007 RMK AC2CI4 SLP199

CYXE;2007-09-10 05:00;CYXE 100500Z 22008KT 15SM FEW100 BKN250 11/05 A3004 RMK AC2CI4 SLP190

CYXE;2007-09-10 06:00;CYXE 100600Z 21008KT 15SM SCT100 BKN250 11/05 A3004 RMK AC4CI2 SLP184

CYXE;2007-09-10 07:00;CYXE 100700Z 22008KT 15SM OVC085 11/05 A3000 RMK AS8 SLP172

CYXE;2007-09-10 08:00;CYXE 100800Z 23009KT 15SM OVC064 12/05 A2998 RMK SC8 SLP165

CYXE;2007-09-10 08:20;CYXE 100820Z 24012KT 15SM -RA OVC050 12/ RMK SC8

CYXE;2007-09-10 09:00;CYXE 100900Z 23011KT 15SM -RA OVC050 11/06 A2994 RMK SC8 SLP149

CYXE;2007-09-10 09:13;CYXE 100913Z 23010G15KT 15SM OVC053 12/ RMK SC8

CYXE;2007-09-10 10:00;CYXE 101000Z 23011KT 15SM OVC052 12/05 A2991 RMK SC8 SLP139

CYXE;2007-09-10 11:00;CYXE 101100Z 26012KT 15SM OVC041 13/06 A2990 RMK SC8 SLP135

CYXE;2007-09-10 12:00;CYXE 101200Z 30014KT 15SM BKN050 BKN080 14/08 A2989 RMK SC5AC2 SLP132

CYXE;2007-09-10 13:00;CYXE 101300Z 30011G16KT 15SM FEW050 FEW090 BKN210 13/09 A2991 RMK SC1AC2CI2 SLP137

CYXE;2007-09-10 14:00;CYXE 101400Z 30013KT 15SM FEW120 BKN250 13/09 A2992 RMK AC2CI5 SLP141

CYXE;2007-09-10 15:00;CYXE 101500Z 32018G24KT 15SM FEW020 FEW120 BKN250 14/09 A2994 RMK SC1AC2CI4 SLP151

CYXE;2007-09-10 16:00;CYXE 101600Z 32018KT 15SM SCT030 SCT120 SCT250 15/10 A2995 RMK SC3AC1CI0 SLP155

CYXE;2007-09-10 17:00;CYXE 101700Z 34020G28KT 15SM BKN031 BKN250 16/08 A2998 RMK SC6CI0 SLP162

CYXE;2007-09-10 18:00;CYXE 101800Z 35017G24KT 15SM SCT038 BKN250 16/09 A2999 RMK CU4CI0 SLP168

CYXE;2007-09-10 19:00;CYXE 101900Z 35020G26KT 15SM SCT035 BKN250 16/08 A3002 RMK CU4CI0 SLP176

CYXE;2007-09-10 20:00;CYXE 102000Z 36016G27KT 15SM SCT040 BKN250 16/07 A3005 RMK CU4CI0 SLP185

CYXE;2007-09-10 21:00;CYXE 102100Z 34014KT 15SM BKN045 BKN250 16/08 A3007 RMK SC5CI1 SLP192

CYXE;2007-09-10 22:00;CYXE 102200Z 36012G19KT 15SM BKN045 BKN250 16/07 A3009 RMK SC5CI1 CONTRAILS SLP199

CYXE;2007-09-10 23:00;CYXE 102300Z 35014KT 15SM SCT045 BKN250 15/07 A3010 RMK SC3CI2 SLP202

CYXE;2007-09-11 00:00;CYXE 110000Z 36010KT 15SM FEW045 FEW088 BKN250 14/07 A3011 RMK SC2AC1CI5 CONTRAILS TR AC SLP207

CYXE;2007-09-11 01:00;CYXE 110100Z 01007KT 15SM FEW045 FEW088 BKN250 12/07 A3012 RMK SC1AC2CI3 SLP212

CYXE;2007-09-11 02:00;CYXE 110200Z 03008KT 15SM FEW045 FEW090 BKN250 09/06 A3014 RMK SC1AC2CI3 SLP216

CYXE;2007-09-11 03:00;CYXE 110300Z 02007KT 15SM FEW090 BKN250 08/06 A3014 RMK AC2CI2 SLP222

CYXE;2007-09-11 04:00;CYXE 110400Z 02008KT 15SM SCT250 07/05 A3015 RMK CI2 SLP224

CYXE;2007-09-11 05:00;CYXE 110500Z 00000KT 15SM SCT250 05/04 A3016 RMK CI2 SLP227

CYXE;2007-09-11 06:00;CYXE 110600Z 29002KT 15SM FEW250 06/05 A3017 RMK CI1 SLP231

CYXE;2007-09-11 07:00;CYXE 110700Z 06003KT 15SM FEW250 07/05 A3017 RMK CI1 SLP232

CYXE;2007-09-11 08:00;CYXE 110800Z 07004KT 15SM BKN120 BKN250 05/04 A3017 RMK AC5CI1 SLP231

CYXE;2007-09-11 09:00;CYXE 110900Z 13011KT 15SM SCT120 07/04 A3017 RMK AC4 SLP230

CYXE;2007-09-11 10:00;CYXE 111000Z 14013G18KT 15SM BKN057 OVC120 06/03 A3017 RMK SC6AC2 SLP229

CYXE;2007-09-11 11:00;CYXE 111100Z 14012KT 15SM FEW057 OVC120 06/03 A3016 RMK SC2AC6 SLP228

CYXE;2007-09-11 12:00;CYXE 111200Z 15011G17KT 15SM FEW057 BKN120 06/03 A3015 RMK SC2AC3 SLP225

CYXE;2007-09-11 13:00;CYXE 111300Z 15011KT 15SM FEW053 BKN120 06/01 A3013 RMK SC2AC4 SLP220

CYXE;2007-09-11 14:00;CYXE 111400Z 15011G16KT 15SM BKN058 BKN120 06/02 A3012 RMK SC5AC2 SLP217

CYXE;2007-09-11 15:00;CYXE 111500Z 15010KT 15SM BKN054 07/03 A3010 RMK SC7 SLP211

CYXE;2007-09-11 16:00;CYXE 111600Z 15010G15KT 15SM BKN050 09/05 A3007 RMK SC6 SLP201

CYXE;2007-09-11 17:00;CYXE 111700Z 16012KT 15SM BKN050 11/06 A3004 RMK SC6 SLP192

CYXE;2007-09-11 18:00;CYXE 111800Z 16014G20KT 15SM SCT050 BKN090 15/07 A3000 RMK SC3AC2 SLP175

CYXE;2007-09-11 19:00;CYXE 111900Z 17017KT 15SM FEW090 SCT250 17/08 A2996 RMK AC1CI1 SLP160

CYXE;2007-09-11 20:00;CYXE 112000Z 18016G24KT 15SM FEW100 SCT250 19/09 A2992 RMK AC2CI0 SLP147

CYXE;2007-09-11 21:00;CYXE 112100Z 17016G22KT 15SM FEW120 SCT250 21/09 A2987 RMK AC2CI1 SLP126

CYXE;2007-09-11 22:00;CYXE 112200Z 20018KT 15SM FEW120 SCT250 22/09 A2982 RMK AC2CI1 SLP109

CYXE;2007-09-11 23:00;CYXE 112300Z 18016G22KT 15SM FEW120 BKN250 23/09 A2978 RMK AC2CI1 SLP095

CYXE;2007-09-12 00:00;CYXE 120000Z 18013KT 15SM FEW100 BKN250 22/09 A2975 RMK AC2CI2 SLP082

CYXE;2007-09-12 01:00;CYXE 120100Z 18011KT 15SM SCT094 BKN250 21/10 A2972 RMK AC3CI1 CVCTV CLD EMBD SLP072

CYXE;2007-09-12 02:00;CYXE 120200Z 19010KT 15SM SCT094 BKN250 20/10 A2970 RMK AC4CI1 CVCTV CLD EMBD SLP066

CYXE;2007-09-12 03:00;CYXE 120300Z 21007KT 15SM FEW094 BKN250 17/10 A2970 RMK AC2CI1 SLP069

CYXE;2007-09-12 04:00;CYXE 120400Z 20005KT 15SM FEW094 BKN250 15/10 A2970 RMK AC2CI1 SLP067

CYXE;2007-09-12 05:00;CYXE 120500Z 32008KT 15SM FEW100 BKN250 15/11 A2970 RMK AC2CI1 SLP068

CYXE;2007-09-12 06:00;CYXE 120600Z 36007KT 15SM FEW100 BKN250 15/12 A2972 RMK AC2CI3 SLP073

CYXE;2007-09-12 07:00;CYXE 120700Z 35005KT 15SM FEW100 SCT250 12/10 A2973 RMK AC1CI1 SLP075

CYXE;2007-09-12 08:00;CYXE 120800Z 31008KT 15SM SCT060 BKN250 12/12 A2977 RMK SC4CI2 SLP088

CYXE;2007-09-12 09:00;CYXE 120900Z 35007KT 15SM FEW040 FEW090 SCT250 12/11 A2975 RMK SC2AC1CI1 SLP080

CYXE;2007-09-12 10:00;CYXE 121000Z 31002KT 15SM SCT100 BKN250 11/11 A2977 RMK AC4CI2 SLP086

CYXE;2007-09-12 11:00;CYXE 121100Z 36005KT 15SM SCT040 BKN075 BKN250 10/10 A2977 RMK SC3AC2CI1 SLP086

CYXE;2007-09-12 11:45;CYXE 121145Z 04002KT 15SM -DZ BKN030 OVC070 12/ RMK SC6AC2

CYXE;2007-09-12 12:27;CYXE 121227Z 10005KT 15SM -DZ OVC005 11/ RMK SF8

CYXE;2007-09-12 12:49;CYXE 121249Z 10005KT 10SM -RA OVC005 11/ RMK SF8 BR

CYXE;2007-09-12 13:00;CYXE 121300Z 28002KT 5SM -RA BR OVC005 11/11 A2979 RMK SF8 SLP093

CYXE;2007-09-12 13:17;CYXE 121317Z 34005KT 6SM -RA BR OVC004 11/ RMK SF8

CYXE;2007-09-12 14:00;CYXE 121400Z 31008KT 6SM -RA BR OVC004 12/12 A2979 RMK ST8 SLP095

CYXE;2007-09-12 14:17;CYXE 121417Z 31010KT 6SM -RA BR OVC006 12/ RMK ST8 CIG RAG

CYXE;2007-09-12 14:32;CYXE 121432Z 32015KT 2SM -RA BR OVC008 11/ RMK ST8 CIG RAG

CYXE;2007-09-12 14:49;CYXE 121449Z 31013G18KT 10SM -RA SCT008 OVC012 11/ RMK SF4SC4

CYXE;2007-09-12 15:00;CYXE 121500Z 31013KT 10SM -RA SCT006 OVC015 11/11 A2981 RMK SF3SC5 SLP103

CYXE;2007-09-12 15:28;CYXE 121528Z 31018KT 10SM -RA BKN007 OVC015 10/ RMK ST6SC2

CYXE;2007-09-12 16:00;CYXE 121600Z 32019G25KT 10SM -RA BKN008 OVC015 09/09 A2983 RMK ST5SC3 SLP111

CYXE;2007-09-12 16:34;CYXE 121634Z 32014G22KT 15SM VCSH BKN011 OVC030 10/ RMK ST6SC2

CYXE;2007-09-12 17:00;CYXE 121700Z 31016KT 15SM BKN016 OVC040 09/08 A2985 RMK SC5SC3 SLP115

CYXE;2007-09-12 18:00;CYXE 121800Z 31017G22KT 15SM SCT020 OVC040 10/06 A2986 RMK SC3SC4 SLP122

CYXE;2007-09-12 19:00;CYXE 121900Z 31016G21KT 15SM BKN028 OVC091 10/05 A2986 RMK SC7AC1 SLP121

CYXE;2007-09-12 20:00;CYXE 122000Z 30016G22KT 15SM BKN030 OVC090 10/04 A2986 RMK SC5AC3 SLP122

CYXE;2007-09-12 21:00;CYXE 122100Z 31017KT 15SM BKN032 OVC060 09/03 A2987 RMK SC7SC1 SLP129

CYXE;2007-09-12 21:34;CYXE 122134Z 32021G27KT 15SM -SHRA BKN030 OVC060 09/ RMK SC7SC1 CVCTV CLE EMBD

CYXE;2007-09-12 22:00;CYXE 122200Z 32020G27KT 15SM -SHRA OVC030 08/03 A2988 RMK SC8 CVCTV CLD EMBD SLP133

CYXE;2007-09-12 23:00;CYXE 122300Z CCA 32018KT 15SM -SHRA BKN030 OVC060 08/02 A2989 RMK SC6SC2 CVCTV CLD EMBD SLP135

CYXE;2007-09-12 23:15;CYXE 122315Z 31017G25KT 15SM VCSH BKN030 OVC060 07/ RMK SC6SC2 CVCTV CLD EMBD

CYXE;2007-09-13 00:00;CYXE 130000Z 32015KT 15SM SCT030 BKN060 OVC087 07/01 A2991 RMK SC4SC1AC3 SLP144

CYXE;2007-09-13 01:00;CYXE 130100Z 31013G18KT 15SM FEW010 BKN040 OVC087 06/01 A2992 RMK ST1SC4AC2 SLP146

CYXE;2007-09-13 01:30;CYXE 130130Z 31013KT 15SM -SHRA SCT028 BKN040 OVC078 06/ RMK SC4SC2AC2

CYXE;2007-09-13 02:00;CYXE 130200Z 31014G19KT 15SM -SHRA BKN020 OVC078 05/02 A2993 RMK SC6AC2 SLP151

CYXE;2007-09-13 03:00;CYXE 130300Z 31012KT 15SM -RA SCT014 OVC030 04/03 A2995 RMK SC4SC4 SLP159

CYXE;2007-09-13 03:19;CYXE 130319Z 31012G17KT 15SM -RA BKN014 OVC030 04/ RMK SF5SC3

CYXE;2007-09-13 04:00;CYXE 130400Z 32016G21KT 15SM -DZ BKN014 OVC030 04/03 A2996 RMK SF5SC3 SLP162

CYXE;2007-09-13 05:00;CYXE 130500Z 32015G21KT 15SM -DZ BKN010 OVC030 04/03 A2996 RMK SF6SC2 SLP163

CYXE;2007-09-13 05:28;CYXE 130528Z 32015G20KT 10SM -DZ BKN009 OVC030 03/ RMK SF7SC1 CIG RAGGED BR

CYXE;2007-09-13 05:40;CYXE 130540Z 32016G22KT 10SM -RA BKN009 OVC030 03/ RMK SF7SC1 CIG RAGGED BR

CYXE;2007-09-13 06:00;CYXE 130600Z 32017KT 10SM -DZ BKN012 OVC040 03/03 A2997 RMK SC6SC2 SLP167

CYXE;2007-09-13 06:37;CYXE 130637Z 32017KT 15SM BKN019 OVC050 03/ RMK SC6SC2

CYXE;2007-09-13 07:00;CYXE 130700Z 32015KT 15SM BKN019 OVC050 03/02 A2999 RMK SC7SC1 SLP173

CYXE;2007-09-13 08:00;CYXE 130800Z 32012G20KT 15SM BKN016 OVC075 03/02 A3001 RMK SC6AC2 SLP180

CYXE;2007-09-13 09:00;CYXE 130900Z 32010G19KT 15SM OVC014 03/02 A3003 RMK SC8 SLP187

CYXE;2007-09-13 10:00;CYXE 131000Z 34012KT 15SM BKN012 OVC030 03/02 A3005 RMK SC7SC1 SLP195

CYXE;2007-09-13 11:00;CYXE 131100Z CCA 34016KT 15SM VCSH OVC014 03/02 A3007 RMK SC8 SLP202

CYXE;2007-09-13 12:00;CYXE 131200Z 34013KT 15SM VCSH OVC011 03/02 A3009 RMK SC8 SLP211

CYXE;2007-09-13 12:49;CYXE 131249Z 35014KT 15SM -SHRA OVC011 02/ RMK SC8 CU EMBD

CYXE;2007-09-13 13:00;CYXE 131300Z 35013G18KT 15SM -SHRA BKN010 OVC030 02/01 A3012 RMK SC6SC2 CU EMBD SLP219

CYXE;2007-09-13 13:28;CYXE 131328Z 35012KT 15SM VCSH BKN010 OVC040 02/ RMK SC6SC2

CYXE;2007-09-13 14:00;CYXE 131400Z 36012G17KT 15SM BKN010 OVC040 03/02 A3015 RMK SC7SC1 SLP229

CYXE;2007-09-13 15:00;CYXE 131500Z 35011G17KT 15SM BKN012 OVC040 03/02 A3017 RMK SC7SC1 SLP239

CYXE;2007-09-13 16:00;CYXE 131600Z 01012KT 15SM BKN012 04/01 A3018 RMK SC7 SLP244

CYXE;2007-09-13 16:45;CYXE 131645Z 01012KT 15SM BKN017 05/ RMK SC7

CYXE;2007-09-13 17:00;CYXE 131700Z 01011KT 15SM BKN017 05/01 A3019 RMK SC6 SLP246

CYXE;2007-09-13 18:00;CYXE 131800Z 34011G16KT 15SM BKN021 05/01 A3020 RMK SC7 SLP249

CYXE;2007-09-13 19:00;CYXE 131900Z 35009KT 15SM BKN023 06/01 A3021 RMK SC7 SLP251

CYXE;2007-09-13 20:00;CYXE 132000Z 34008KT 15SM BKN027 06/01 A3020 RMK SC7 SLP250

CYXE;2007-09-13 21:00;CYXE 132100Z 33006KT 15SM BKN032 08/01 A3020 RMK SC6 SLP248

CYXE;2007-09-13 22:00;CYXE 132200Z 32008KT 15SM BKN034 09/00 A3020 RMK CU6 SLP247

CYXE;2007-09-13 23:00;CYXE 132300Z 32008KT 15SM SCT039 09/00 A3019 RMK SC4 SLP246

CYXE;2007-09-14 00:00;CYXE 140000Z 34004KT 15SM FEW045 09/00 A3019 RMK SC2 SLP244

CYXE;2007-09-14 01:00;CYXE 140100Z 32002KT 15SM FEW045 08/00 A3019 RMK SC1 SLP245

CYXE;2007-09-14 02:00;CYXE 140200Z 21002KT 15SM SKC 06/00 A3020 RMK SLP246

CYXE;2007-09-14 03:00;CYXE 140300Z 18004KT 15SM SKC 04/01 A3020 RMK SLP251

CYXE;2007-09-14 04:00;CYXE 140400Z 18005KT 15SM SKC 02/00 A3020 RMK SLP251

CYXE;2007-09-14 05:00;CYXE 140500Z 19006KT 15SM SKC 02/M01 A3020 RMK SLP251

CYXE;2007-09-14 06:00;CYXE 140600Z 19005KT 15SM SKC 01/M01 A3020 RMK SLP252

CYXE;2007-09-14 07:00;CYXE 140700Z 20005KT 15SM SKC 00/M01 A3021 RMK SLP253

CYXE;2007-09-14 08:00;CYXE 140800Z 21006KT 15SM SKC M00/M02 A3021 RMK SLP253

CYXE;2007-09-14 09:00;CYXE 140900Z 20006KT 15SM SKC M00/M02 A3021 RMK FROIN SLP252

CYXE;2007-09-14 10:00;CYXE 141000Z 19005KT 15SM SKC M00/M01 A3019 RMK FROIN SLP248

CYXE;2007-09-14 11:00;CYXE 141100Z 20006KT 15SM SKC M00/M01 A3019 RMK FROIN SLP247

CYXE;2007-09-14 12:00;CYXE 141200Z 22006KT 15SM SKC M01/M01 A3019 RMK SLP245

CYXE;2007-09-14 13:00;CYXE 141300Z 21005KT 15SM SKC M01/M02 A3019 RMK SLP247

CYXE;2007-09-14 14:00;CYXE 141400Z 19006KT 15SM SKC 01/M00 A3017 RMK SLP241

CYXE;2007-09-14 15:00;CYXE 141500Z 19008KT 15SM SKC 04/01 A3016 RMK SLP237

CYXE;2007-09-14 16:00;CYXE 141600Z 20009KT 15SM SKC 07/02 A3014 RMK SLP231

CYXE;2007-09-14 17:00;CYXE 141700Z 21006KT 15SM SKC 10/02 A3012 RMK SLP225

CYXE;2007-09-14 18:00;CYXE 141800Z 18009KT 15SM SKC 13/02 A3010 RMK SLP211

CYXE;2007-09-14 19:00;CYXE 141900Z 20008G16KT 15SM SKC 14/01 A3006 RMK SLP200

CYXE;2007-09-14 20:00;CYXE 142000Z 19006KT 15SM FEW300 16/03 A3003 RMK CI1 SLP189

CYXE;2007-09-14 21:00;CYXE 142100Z 21010KT 15SM FEW300 17/01 A3001 RMK CI1 SLP178

CYXE;2007-09-14 22:00;CYXE 142200Z 19005KT 15SM FEW100 FEW300 18/02 A2997 RMK AC1CI0 SLP166

CYXE;2007-09-14 23:00;CYXE 142300Z 22007KT 15SM FEW100 FEW300 19/M01 A2994 RMK AC1CI0 SLP157

CYXE;2007-09-15 00:00;CYXE 150000Z 21004KT 15SM FEW100 FEW300 17/M00 A2992 RMK AC1CI0 SLP148

CYXE;2007-09-15 01:00;CYXE 150100Z 16004KT 15SM FEW100 FEW300 16/02 A2989 RMK AC1CI0 SLP140

CYXE;2007-09-15 02:00;CYXE 150200Z 15006KT 15SM FEW300 12/02 A2987 RMK CI0 SLP132

CYXE;2007-09-15 03:00;CYXE 150300Z 14005KT 15SM FEW300 11/02 A2986 RMK CI1 SLP127

CYXE;2007-09-15 04:00;CYXE 150400Z 25004KT 15SM SKC 09/02 A2985 RMK SLP125

CYXE;2007-09-15 05:00;CYXE 150500Z 28008KT 15SM SKC 07/03 A2984 RMK SLP123

CYXE;2007-09-15 06:00;CYXE 150600Z 27007KT 15SM FEW300 07/04 A2984 RMK CI0 SLP120

CYXE;2007-09-15 07:00;CYXE 150700Z 29007KT 15SM SCT250 07/04 A2985 RMK CI2 SLP122

CYXE;2007-09-15 08:00;CYXE 150800Z 28008KT 15SM SCT250 06/04 A2985 RMK CI2 SLP121

CYXE;2007-09-15 09:00;CYXE 150900Z 28007KT 15SM FEW250 04/03 A2985 RMK CI0 SLP121

CYXE;2007-09-15 10:00;CYXE 151000Z 25005KT 15SM FEW250 03/03 A2985 RMK CI0 SLP120

CYXE;2007-09-15 11:00;CYXE 151100Z 26006KT 15SM SCT250 03/03 A2985 RMK CI1 SLP120

CYXE;2007-09-15 12:00;CYXE 151200Z 25005KT 15SM SCT250 03/03 A2985 RMK CI0 SLP122

CYXE;2007-09-15 13:00;CYXE 151300Z 24005KT 15SM BKN250 02/02 A2985 RMK CI2 SLP123

CYXE;2007-09-15 14:00;CYXE 151400Z 24004KT 15SM OVC250 06/05 A2985 RMK CI3 SLP122

CYXE;2007-09-15 15:00;CYXE 151500Z 22004KT 15SM OVC300 10/05 A2986 RMK CI2 SLP123

CYXE;2007-09-15 16:00;CYXE 151600Z 23005KT 15SM OVC300 14/06 A2986 RMK CI2 SLP123

CYXE;2007-09-15 17:00;CYXE 151700Z 24005KT 15SM FEW120 OVC300 17/06 A2985 RMK AC2CI2 SLP121

CYXE;2007-09-15 18:00;CYXE 151800Z 24008KT 15SM FEW120 OVC340 20/07 A2984 RMK AC2CI2 SLP114

CYXE;2007-09-15 19:00;CYXE 151900Z 26006KT 15SM FEW120 BKN340 21/07 A2983 RMK AC1CI2 SLP111

CYXE;2007-09-15 20:00;CYXE 152000Z 24005KT 15SM FEW094 BKN350 22/06 A2981 RMK AC1CI2 SLP106

CYXE;2007-09-15 21:00;CYXE 152100Z 23005KT 15SM FEW110 BKN350 23/07 A2980 RMK AC1CI2 SLP101

CYXE;2007-09-15 22:00;CYXE 152200Z 29002KT 15SM FEW100 BKN300 23/06 A2978 RMK AC1CI1 SLP095

CYXE;2007-09-15 23:00;CYXE 152300Z 00000KT 15SM FEW100 BKN300 23/05 A2978 RMK AC1CI1 SLP094

CYXE;2007-09-16 00:00;CYXE 160000Z 00000KT 15SM FEW100 BKN300 22/08 A2977 RMK AC1CI0 SLP092

CYXE;2007-09-16 01:00;CYXE 160100Z 16003KT 15SM FEW100 SCT300 20/08 A2976 RMK AC1CI0 SLP089

CYXE;2007-09-16 02:00;CYXE 160200Z 18006KT 15SM FEW100 FEW300 16/09 A2976 RMK AC1CI0 SLP087

CYXE;2007-09-16 03:00;CYXE 160300Z 19005KT 15SM FEW100 FEW300 15/07 A2975 RMK AC1CI0 SLP086

CYXE;2007-09-16 04:00;CYXE 160400Z 20006KT 15SM SKC 13/07 A2975 RMK SLP085

CYXE;2007-09-16 05:00;CYXE 160500Z 19004KT 15SM SKC 12/06 A2974 RMK SLP082

CYXE;2007-09-16 06:00;CYXE 160600Z 19005KT 15SM SKC 11/06 A2973 RMK SLP074

CYXE;2007-09-16 07:00;CYXE 160700Z 19004KT 15SM SKC 10/05 A2971 RMK SLP069

CYXE;2007-09-16 08:00;CYXE 160800Z 22005KT 15SM SKC 08/05 A2970 RMK SLP066

CYXE;2007-09-16 09:00;CYXE 160900Z 20005KT 15SM SKC 07/04 A2970 RMK SLP064

CYXE;2007-09-16 10:00;CYXE 161000Z 17007KT 15SM SKC 06/04 A2968 RMK SLP057

CYXE;2007-09-16 11:00;CYXE 161100Z 19006KT 15SM SKC 07/04 A2967 RMK SLP055

CYXE;2007-09-16 12:00;CYXE 161200Z 18007KT 15SM FEW300 06/03 A2965 RMK CI0 SLP050

CYXE;2007-09-16 13:00;CYXE 161300Z 19006KT 15SM FEW140 FEW300 06/03 A2965 RMK AC0CI0 SLP048

CYXE;2007-09-16 14:00;CYXE 161400Z 20004KT 15SM BKN330 08/04 A2964 RMK CI1 SLP047

CYXE;2007-09-16 15:00;CYXE 161500Z 19004KT 15SM SCT330 11/05 A2965 RMK CI1 SLP050

CYXE;2007-09-16 16:00;CYXE 161600Z 00000KT 15SM SCT340 14/06 A2963 RMK CI0 SLP043

CYXE;2007-09-16 17:00;CYXE 161700Z 15005KT 15SM SCT350 17/05 A2962 RMK CI0 SLP041

CYXE;2007-09-16 18:00;CYXE 161800Z 13003KT 15SM SCT350 20/06 A2960 RMK CI0 SLP031

CYXE;2007-09-16 19:00;CYXE 161900Z 07005KT 15SM FEW350 23/08 A2958 RMK CI0 SLP024

CYXE;2007-09-16 20:00;CYXE 162000Z 09008KT 15SM FEW350 25/05 A2955 RMK CI0 SLP014

CYXE;2007-09-16 21:00;CYXE 162100Z 11007KT 15SM FEW350 26/06 A2953 RMK CI0 SLP006

CYXE;2007-09-16 22:00;CYXE 162200Z 08006KT 15SM FEW300 26/07 A2951 RMK CI0 SLP000

CYXE;2007-09-16 23:00;CYXE 162300Z 11008KT 15SM FEW300 25/04 A2950 RMK CI0 SLP996

CYXE;2007-09-17 00:00;CYXE 170000Z 07007KT 15SM FEW300 23/08 A2949 RMK CI0 SLP995

CYXE;2007-09-17 01:00;CYXE 170100Z 06009KT 15SM FEW300 18/08 A2949 RMK CI0 SLP993

CYXE;2007-09-17 02:00;CYXE 170200Z 06010KT 15SM FEW300 15/07 A2950 RMK CI0 SLP997

CYXE;2007-09-17 03:00;CYXE 170300Z 05009KT 15SM SKC 13/07 A2950 RMK SLP000

CYXE;2007-09-17 04:00;CYXE 170400Z 05008KT 15SM SKC 12/06 A2950 RMK SLP000

CYXE;2007-09-17 05:00;CYXE 170500Z 05009KT 15SM SKC 11/06 A2950 RMK SLP000

CYXE;2007-09-17 06:00;CYXE 170600Z 05010KT 15SM SKC 11/06 A2949 RMK SLP993

CYXE;2007-09-17 07:00;CYXE 170700Z 06011KT 15SM SKC 12/07 A2949 RMK SLP991

CYXE;2007-09-17 08:00;CYXE 170800Z 07007KT 15SM SKC 10/08 A2949 RMK SLP993

CYXE;2007-09-17 09:00;CYXE 170900Z 05010KT 15SM SKC 10/09 A2950 RMK SLP994

CYXE;2007-09-17 10:00;CYXE 171000Z 05012KT 15SM SKC 09/09 A2952 RMK SLP001

CYXE;2007-09-17 10:24;CYXE 171024Z 06012KT 15SM FEW006 09/ RMK CF1

CYXE;2007-09-17 11:00;CYXE 171100Z 06011KT 15SM BKN008 10/09 A2954 RMK SF5 SLP005

CYXE;2007-09-17 12:00;CYXE 171200Z 06013KT 15SM BKN008 10/09 A2954 RMK SF6 SLP009

CYXE;2007-09-17 13:00;CYXE 171300Z 07015KT 12SM OVC007 09/09 A2955 RMK SC8 SLP012

CYXE;2007-09-17 14:00;CYXE 171400Z 02010KT 12SM OVC006 09/08 A2959 RMK SC8 SLP026

CYXE;2007-09-17 14:19;CYXE 171419Z 03013KT 12SM OVC005 09/ RMK ST8

CYXE;2007-09-17 15:00;CYXE 171500Z 03011G16KT 12SM OVC006 09/08 A2961 RMK ST8 SLP040

CYXE;2007-09-17 16:00;CYXE 171600Z 03011KT 12SM OVC006 09/08 A2963 RMK ST8 SLP045

CYXE;2007-09-17 17:00;CYXE 171700Z 04009KT 12SM OVC009 09/08 A2965 RMK ST8 SLP051

CYXE;2007-09-17 17:33;CYXE 171733Z 02010KT 10SM -DZ OVC006 08/ RMK ST8

CYXE;2007-09-17 18:00;CYXE 171800Z 02011G16KT 6SM -DZ BR OVC007 08/08 A2968 RMK ST8 SLP064

CYXE;2007-09-17 18:30;CYXE 171830Z 01012KT 4SM -DZ BR BKN005 OVC012 09/ RMK SF6ST2 VIS LWR NW-NE 21/2

CYXE;2007-09-17 19:00;CYXE 171900Z 03011KT 15SM -DZ BKN009 OVC019 09/07 A2968 RMK SF6ST2 SLP064

CYXE;2007-09-17 19:17;CYXE 171917Z 03009KT 15SM OVC010 09/ RMK SF8

CYXE;2007-09-17 19:52;CYXE 171952Z 01007KT 12SM -DZ OVC012 09/ RMK ST8 BR

CYXE;2007-09-17 20:00;CYXE 172000Z 02008KT 12SM -DZ OVC012 09/07 A2970 RMK ST8 BR SLP071

CYXE;2007-09-17 20:22;CYXE 172022Z 35007KT 12SM -DZ OVC010 09/ RMK ST8 BR

CYXE;2007-09-17 21:00;CYXE 172100Z 33009KT 6SM -DZ BR OVC008 09/08 A2971 RMK ST8 SLP075

CYXE;2007-09-17 21:42;CYXE 172142Z 36006KT 6SM -DZ BR OVC006 08/ RMK ST8

CYXE;2007-09-17 22:00;CYXE 172200Z 36004KT 3SM -DZ BR BKN005 OVC010 09/08 A2972 RMK SF6ST2 SLP079

CYXE;2007-09-17 22:51;CYXE 172251Z 05004KT 10SM BKN006 OVC020 09/ RMK SF6SC2 BR

CYXE;2007-09-17 23:00;CYXE 172300Z 03004KT 10SM BKN006 OVC020 09/09 A2973 RMK SF6SC2 BR SLP083

CYXE;2007-09-18 00:00;CYXE 180000Z 00000KT 15SM BKN008 OVC030 09/08 A2977 RMK SC6SC2 SLP095

CYXE;2007-09-18 01:00;CYXE 180100Z 28002KT 15SM BKN010 OVC030 09/08 A2979 RMK SC6SC2 SLP101

CYXE;2007-09-18 02:00;CYXE 180200Z 00000KT 15SM FEW010 BKN030 09/09 A2981 RMK SF1SC7 SLP108

CYXE;2007-09-18 02:46;CYXE 180246Z 01002KT 15SM BKN012 OVC030 09/ RMK SC5SC3

CYXE;2007-09-18 03:00;CYXE 180300Z 00000KT 12SM -DZ OVC012 09/09 A2983 RMK ST8 SLP116

CYXE;2007-09-18 03:40;CYXE 180340Z 27003KT 15SM SCT012 SCT024 OVC034 09/ RMK ST3SC1SC4

CYXE;2007-09-18 04:00;CYXE 180400Z 28004KT 15SM FEW012 BKN022 OVC040 09/09 A2984 RMK SC2SC5SC2 SLP121

CYXE;2007-09-18 05:00;CYXE 180500Z 30006KT 15SM FEW018 BKN035 BKN090 09/08 A2986 RMK SC2SC3AC2 SLP128

CYXE;2007-09-18 06:00;CYXE 180600Z 31006KT 15SM BKN033 06/06 A2988 RMK SC4 SLP136

CYXE;2007-09-18 07:00;CYXE 180700Z 31005KT 15SM FEW035 03/03 A2989 RMK SC1 SLP138

CYXE;2007-09-18 08:00;CYXE 180800Z 31007KT 15SM SKC 03/03 A2990 RMK SLP141

CYXE;2007-09-18 08:46;CYXE 180846Z 30005KT 15SM SKC 02/

CYXE;2007-09-18 09:00;CYXE 180900Z 30005KT 15SM SKC 02/02 A2990 RMK SLP146

CYXE;2007-09-18 10:00;CYXE 181000Z 26005KT 15SM SKC 02/02 A2993 RMK SLP153

CYXE;2007-09-18 11:00;CYXE 181100Z 27004KT 15SM SKC 01/01 A2994 RMK SLP156

CYXE;2007-09-18 12:00;CYXE 181200Z 25006KT 15SM FEW120 01/01 A2994 RMK AC1 SLP160

CYXE;2007-09-18 13:00;CYXE 181300Z 24005KT 15SM FEW120 01/01 A2996 RMK AC1 SLP165

CYXE;2007-09-18 14:00;CYXE 181400Z 22004KT 10SM FEW120 03/03 A2996 RMK AC1 BR SLP167

CYXE;2007-09-18 15:00;CYXE 181500Z 22004KT 15SM FEW120 06/05 A2998 RMK AC1 SLP170

CYXE;2007-09-18 16:00;CYXE 181600Z 23005KT 15SM FEW120 10/07 A2998 RMK AC1 SLP171

CYXE;2007-09-18 17:00;CYXE 181700Z 25004KT 15SM FEW120 FEW250 14/06 A2999 RMK AC1CI1 SLP172

CYXE;2007-09-18 18:00;CYXE 181800Z 27005KT 15SM FEW046 FEW120 SCT250 15/04 A2999 RMK CU1AC1CI1 SLP168

CYXE;2007-09-18 19:00;CYXE 181900Z 25007KT 15SM FEW056 FEW120 BKN250 17/02 A2998 RMK CU1AC1CI2 SLP166

CYXE;2007-09-18 20:00;CYXE 182000Z 30011KT 15SM FEW067 FEW091 BKN250 17/03 A2999 RMK CU2AC1CI1 SLP168

CYXE;2007-09-18 21:00;CYXE 182100Z 32008G15KT 15SM FEW071 OVC250 17/03 A2999 RMK CU2CI1 SLP171

CYXE;2007-09-18 22:00;CYXE 182200Z 31008KT 15SM SCT058 BKN290 16/02 A3000 RMK CU4CI1 SLP175

CYXE;2007-09-18 23:00;CYXE 182300Z 32008KT 15SM SCT055 SCT110 BKN290 15/03 A3002 RMK SC3AC1CI1 SLP179

CYXE;2007-09-19 00:00;CYXE 190000Z 34008KT 15SM FEW040 SCT110 BKN290 15/03 A3003 RMK SC2AC2CI0 SLP187

CYXE;2007-09-19 01:00;CYXE 190100Z 33005KT 15SM FEW040 BKN110 BKN290 11/04 A3004 RMK SC2AC3CI0 SLP191

CYXE;2007-09-19 02:00;CYXE 190200Z 33006KT 15SM BKN110 10/05 A3006 RMK AC6 SLP196

CYXE;2007-09-19 03:00;CYXE 190300Z 34007KT 15SM SCT110 09/04 A3007 RMK AC4 SLP202

CYXE;2007-09-19 04:00;CYXE 190400Z 33009KT 15SM BKN110 07/04 A3009 RMK AC5 SLP208

CYXE;2007-09-19 05:00;CYXE 190500Z 35007KT 15SM BKN110 07/05 A3010 RMK AC5 SLP212

CYXE;2007-09-19 06:00;CYXE 190600Z 02007KT 15SM SCT080 08/05 A3013 RMK AC4 SLP217

CYXE;2007-09-19 07:00;CYXE 190700Z 01009KT 15SM BKN080 08/03 A3015 RMK AC5 SLP224

CYXE;2007-09-19 08:00;CYXE 190800Z 36011KT 15SM BKN084 07/03 A3017 RMK AC5 SLP228

CYXE;2007-09-19 09:00;CYXE 190900Z 01011KT 15SM BKN086 07/03 A3017 RMK AC6 SLP229

CYXE;2007-09-19 10:00;CYXE 191000Z 36007KT 15SM FEW120 03/02 A3019 RMK AC2 SLP237

CYXE;2007-09-19 11:00;CYXE 191100Z 36003KT 15SM FEW120 01/01 A3021 RMK AC2 SLP244

CYXE;2007-09-19 12:00;CYXE 191200Z 34002KT 15SM FEW120 00/M00 A3023 RMK AC2 SLP255

CYXE;2007-09-19 13:00;CYXE 191300Z 32004KT 15SM BKN068 M01/M01 A3025 RMK AC3 SLP263

CYXE;2007-09-19 14:00;CYXE 191400Z 36011KT 15SM BKN070 02/02 A3024 RMK AC3 SLP259

CYXE;2007-09-19 15:00;CYXE 191500Z 01005KT 15SM FEW070 BKN120 05/01 A3027 RMK AC1AC2 SLP270

CYXE;2007-09-19 16:00;CYXE 191600Z 01008KT 15SM BKN080 07/01 A3026 RMK AC5 SLP269

CYXE;2007-09-19 17:00;CYXE 191700Z 03008KT 15SM BKN080 07/01 A3025 RMK AC6 SLP265

CYXE;2007-09-19 18:00;CYXE 191800Z 36005KT 15SM BKN090 08/01 A3025 RMK AC5 SLP261

CYXE;2007-09-19 19:00;CYXE 191900Z 03005KT 15SM BKN090 09/01 A3024 RMK AC6 SLP258

CYXE;2007-09-19 20:00;CYXE 192000Z 05003KT 15SM BKN090 BKN250 09/00 A3022 RMK AC6CI1 SLP253

CYXE;2007-09-19 21:00;CYXE 192100Z 36002KT 15SM BKN120 OVC250 09/01 A3022 RMK AC5CI2 SLP251

CYXE;2007-09-19 22:00;CYXE 192200Z 03002KT 15SM BKN120 OVC250 09/01 A3020 RMK AC5CI3 SLP244

CYXE;2007-09-19 23:00;CYXE 192300Z 00000KT 15SM BKN120 OVC250 09/00 A3019 RMK AC5CI3 SLP241

CYXE;2007-09-20 00:00;CYXE 200000Z 00000KT 15SM SCT070 BKN120 OVC250 09/04 A3018 RMK AC3AC3CI2 SLP242

CYXE;2007-09-20 01:00;CYXE 200100Z 00000KT 15SM BKN070 OVC120 08/02 A3017 RMK AC5AC3 SLP240

CYXE;2007-09-20 02:00;CYXE 200200Z 00000KT 15SM SCT070 BKN120 OVC250 07/00 A3015 RMK AC3AC2CI2 SLP232

CYXE;2007-09-20 02:45;CYXE 200245Z 05005KT 15SM -SHRA BKN070 OVC120 07/ RMK ACC5AC3

CYXE;2007-09-20 03:00;CYXE 200300Z 04005KT 15SM -SHRA BKN070 OVC120 07/04 A3011 RMK ACC6AC2 SLP218

CYXE;2007-09-20 04:00;CYXE 200400Z 04005KT 15SM -SHRA BKN040 OVC070 06/05 A3008 RMK SC6ACC2 SLP207

CYXE;2007-09-20 05:00;CYXE 200500Z 04004KT 15SM -SHRA BKN044 OVC070 06/05 A3006 RMK SC6ACC2 SLP200

CYXE;2007-09-20 06:00;CYXE 200600Z 18002KT 15SM -SHRA OVC045 06/05 A3004 RMK SC8 SLP191

CYXE;2007-09-20 07:00;CYXE 200700Z 05006KT 15SM -SHRA OVC036 06/05 A2999 RMK SC8 SLP177

CYXE;2007-09-20 08:00;CYXE 200800Z 09005KT 15SM -SHRA BKN038 OVC078 06/05 A2995 RMK SC6AC2 SLP162

CYXE;2007-09-20 08:12;CYXE 200812Z 07005KT 15SM BKN058 OVC078 06/ RMK SC6AC2

CYXE;2007-09-20 09:00;CYXE 200900Z 01005KT 15SM FEW055 OVC078 04/04 A2990 RMK SC2AC6 SLP144

CYXE;2007-09-20 10:00;CYXE 201000Z CCA 05006KT 15SM BKN074 04/04 A2983 RMK AC7 PRESFR SLP122

CYXE;2007-09-20 11:00;CYXE 201100Z 04006KT 15SM BKN076 03/03 A2979 RMK AC6 SLP108

CYXE;2007-09-20 12:00;CYXE 201200Z 08005KT 15SM SCT076 BKN090 02/02 A2975 RMK AC3AC2 SLP093

CYXE;2007-09-20 13:00;CYXE 201300Z 12003KT 15SM SCT090 BKN150 03/03 A2972 RMK AC3AC3 SLP082

CYXE;2007-09-20 14:00;CYXE 201400Z 19008KT 15SM SCT070 BKN250 06/06 A2968 RMK AC4CI2 SLP071

CYXE;2007-09-20 15:00;CYXE 201500Z 22009KT 15SM BKN051 BKN070 OVC250 07/06 A2967 RMK SC6AC2CI0 SLP065

CYXE;2007-09-20 16:00;CYXE 201600Z 23011KT 15SM FEW006 SCT051 BKN250 07/06 A2965 RMK SF1SC2CI2 SLP059

CYXE;2007-09-20 17:00;CYXE 201700Z 24011KT 15SM FEW010 BKN090 BKN250 08/06 A2964 RMK SF2AC3CI1 SLP056

CYXE;2007-09-20 17:28;CYXE 201728Z 24011KT 15SM BKN010 BKN250 09/ RMK SC6CI1

CYXE;2007-09-20 18:00;CYXE 201800Z 23011KT 15SM OVC012 08/06 A2963 RMK SC8 SLP050

CYXE;2007-09-20 19:00;CYXE 201900Z 24011KT 15SM OVC012 08/06 A2961 RMK SC8 SLP044

CYXE;2007-09-20 20:00;CYXE 202000Z 23008KT 15SM OVC012 08/06 A2960 RMK SC8 SLP040

CYXE;2007-09-20 21:00;CYXE 202100Z 22008KT 15SM OVC012 08/06 A2958 RMK SC8 SLP035

CYXE;2007-09-20 22:00;CYXE 202200Z 23007KT 15SM OVC012 08/06 A2958 RMK SC8 SLP033

CYXE;2007-09-20 23:00;CYXE 202300Z 25005KT 15SM FEW014 OVC120 09/06 A2957 RMK SC2AS5 SLP031

CYXE;2007-09-21 00:00;CYXE 210000Z 27004KT 15SM FEW015 BKN250 09/06 A2957 RMK SC1CI6 SLP031

CYXE;2007-09-21 01:00;CYXE 210100Z 22002KT 15SM FEW030 BKN250 08/06 A2957 RMK SC1CI6 SLP032

CYXE;2007-09-21 02:00;CYXE 210200Z 17004KT 15SM BKN250 07/06 A2957 RMK CI6 SLP031

CYXE;2007-09-21 03:00;CYXE 210300Z 20005KT 15SM OVC250 07/06 A2958 RMK CI7 SLP033

CYXE;2007-09-21 04:00;CYXE 210400Z 25006KT 15SM BKN250 07/06 A2959 RMK CI6 SLP036

CYXE;2007-09-21 05:00;CYXE 210500Z 27006KT 15SM BKN250 05/04 A2959 RMK CI6 SLP036

CYXE;2007-09-21 06:00;CYXE 210600Z 26008KT 15SM BKN250 04/03 A2960 RMK CI6 SLP041

CYXE;2007-09-21 07:00;CYXE 210700Z 27008KT 15SM FEW250 03/03 A2960 RMK CI2 SLP042

CYXE;2007-09-21 08:00;CYXE 210800Z 27007KT 15SM FEW250 03/02 A2961 RMK CI1 SLP044

CYXE;2007-09-21 09:00;CYXE 210900Z 27007KT 15SM FEW250 02/02 A2963 RMK CI1 SLP051

CYXE;2007-09-21 10:00;CYXE 211000Z 27008KT 15SM SKC 02/02 A2964 RMK SLP055

CYXE;2007-09-21 11:00;CYXE 211100Z 29009KT 15SM SKC 03/03 A2965 RMK SLP058

CYXE;2007-09-21 12:00;CYXE 211200Z 26007KT 15SM FEW120 BKN160 03/03 A2968 RMK AC1AC4 SLP069

CYXE;2007-09-21 13:00;CYXE 211300Z 27008KT 15SM BKN092 04/03 A2970 RMK AC5 SLP074

CYXE;2007-09-21 14:00;CYXE 211400Z 27010KT 15SM SCT092 SCT250 05/04 A2970 RMK AC2CI1 SLP075

CYXE;2007-09-21 15:00;CYXE 211500Z 28012KT 15SM FEW064 FEW250 07/05 A2972 RMK SC1CI1 SLP081

CYXE;2007-09-21 16:00;CYXE 211600Z 29015G24KT 15SM BKN024 09/05 A2972 RMK SC6 SLP081

CYXE;2007-09-21 17:00;CYXE 211700Z 31017KT 15SM BKN028 09/03 A2972 RMK SC5 SLP081

CYXE;2007-09-21 18:00;CYXE 211800Z 28016KT 15SM BKN030 11/03 A2972 RMK CU5 SLP080

CYXE;2007-09-21 19:00;CYXE 211900Z 30018KT 15SM SCT040 12/03 A2972 RMK CU4 SLP080

CYXE;2007-09-21 20:00;CYXE 212000Z 30015G21KT 15SM FEW040 SCT250 12/02 A2972 RMK CU2CI0 SLP079

CYXE;2007-09-21 21:00;CYXE 212100Z 29016KT 15SM FEW040 FEW250 14/01 A2970 RMK CU1CI1 SLP074

CYXE;2007-09-21 22:00;CYXE 212200Z 28012KT 15SM FEW040 SCT250 14/02 A2970 RMK CF1CI2 SLP073

CYXE;2007-09-21 23:00;CYXE 212300Z 27013KT 15SM BKN250 14/02 A2970 RMK CI2 SLP072

CYXE;2007-09-22 00:00;CYXE 220000Z 30006KT 15SM OVC250 12/04 A2970 RMK CS4 SLP075

CYXE;2007-09-22 01:00;CYXE 220100Z 03004KT 15SM OVC250 11/05 A2969 RMK CS7 SLP071

CYXE;2007-09-22 02:00;CYXE 220200Z 07004KT 15SM OVC250 11/02 A2969 RMK CS7 SLP071

CYXE;2007-09-22 03:00;CYXE 220300Z 12005KT 15SM OVC250 08/03 A2968 RMK CI6 SLP066

CYXE;2007-09-22 04:00;CYXE 220400Z 13005KT 15SM OVC250 08/03 A2968 RMK CI5 SLP065

CYXE;2007-09-22 05:00;CYXE 220500Z 14006KT 15SM OVC250 07/03 A2967 RMK CI4 SLP064

CYXE;2007-09-22 06:00;CYXE 220600Z 14005KT 15SM FEW120 OVC250 08/03 A2966 RMK AC1CI4 SLP057

CYXE;2007-09-22 07:00;CYXE 220700Z 14004KT 15SM FEW120 OVC250 08/03 A2965 RMK AC2CI3 SLP054

CYXE;2007-09-22 08:00;CYXE 220800Z 14006KT 15SM BKN120 OVC250 08/03 A2963 RMK AC5CI1 SLP046

CYXE;2007-09-22 09:00;CYXE 220900Z 14005KT 15SM BKN120 OVC250 08/04 A2962 RMK AC5CI1 SLP043

CYXE;2007-09-22 10:00;CYXE 221000Z 14006KT 15SM BKN120 OVC250 08/04 A2960 RMK AC6CI1 SLP037

CYXE;2007-09-22 11:00;CYXE 221100Z 15005KT 15SM BKN120 BKN250 08/04 A2959 RMK AC5CI1 SLP033

CYXE;2007-09-22 12:00;CYXE 221200Z 13004KT 15SM BKN120 BKN250 07/04 A2959 RMK AC5CI1 SLP034

CYXE;2007-09-22 13:00;CYXE 221300Z 07003KT 15SM BKN120 BKN250 06/04 A2959 RMK AC6CI0 SLP034

CYXE;2007-09-22 14:00;CYXE 221400Z 12005KT 15SM SCT120 BKN250 08/05 A2959 RMK AC4CI0 SLP032

CYXE;2007-09-22 15:00;CYXE 221500Z 14005KT 15SM BKN120 BKN250 09/05 A2959 RMK AC6CI0 SLP033

CYXE;2007-09-22 16:00;CYXE 221600Z 15005KT 15SM SCT120 SCT250 11/05 A2958 RMK AC3CI0 SLP031

CYXE;2007-09-22 17:00;CYXE 221700Z 15006KT 15SM FEW120 FEW250 13/06 A2957 RMK AC2CI0 SLP028

CYXE;2007-09-22 18:00;CYXE 221800Z 16006KT 15SM FEW120 FEW250 16/07 A2956 RMK AC1CI0 SLP021

CYXE;2007-09-22 19:00;CYXE 221900Z 20008KT 15SM FEW120 FEW250 18/06 A2956 RMK AC1CI0 SLP020

CYXE;2007-09-22 20:00;CYXE 222000Z 22007KT 15SM FEW120 FEW250 19/06 A2955 RMK AC1CI0 SLP016

CYXE;2007-09-22 21:00;CYXE 222100Z 24006KT 15SM FEW120 SCT250 21/06 A2954 RMK AC1CI1 SLP010

CYXE;2007-09-22 22:00;CYXE 222200Z 27012KT 15SM FEW060 BKN250 20/06 A2955 RMK CU1CI2 SLP014

CYXE;2007-09-22 23:00;CYXE 222300Z 26009KT 15SM FEW055 BKN300 20/06 A2956 RMK CU1CI4 SLP017

CYXE;2007-09-23 00:00;CYXE 230000Z 25005KT 15SM FEW055 BKN300 18/07 A2958 RMK CU1CI4 SLP028

CYXE;2007-09-23 01:00;CYXE 230100Z 25006KT 15SM FEW055 BKN300 15/07 A2960 RMK CU1CI3 SLP033

CYXE;2007-09-23 02:00;CYXE 230200Z 28007KT 15SM FEW055 BKN300 11/06 A2962 RMK CU1CI2 SLP040

CYXE;2007-09-23 03:00;CYXE 230300Z 30008KT 15SM SCT300 10/06 A2963 RMK CI1 SLP049

CYXE;2007-09-23 04:00;CYXE 230400Z 31008KT 15SM FEW300 10/06 A2966 RMK CI0 SLP058

CYXE;2007-09-23 05:00;CYXE 230500Z 00000KT 15SM FEW300 08/06 A2970 RMK CI0 SLP071

CYXE;2007-09-23 06:00;CYXE 230600Z 32006KT 15SM FEW300 05/05 A2972 RMK CI0 SLP078

CYXE;2007-09-23 07:00;CYXE 230700Z 33007KT 15SM SCT270 06/05 A2974 RMK CI1 SLP084

CYXE;2007-09-23 08:00;CYXE 230800Z 32007KT 15SM SCT270 05/05 A2976 RMK CI2 SLP089

CYXE;2007-09-23 09:00;CYXE 230900Z 33006KT 15SM SCT270 04/04 A2976 RMK CI1 SLP089

CYXE;2007-09-23 10:00;CYXE 231000Z 36004KT 15SM SCT270 03/03 A2977 RMK CI1 SLP093

CYXE;2007-09-23 11:00;CYXE 231100Z 36006KT 15SM SCT270 03/03 A2979 RMK CI1 SLP098

CYXE;2007-09-23 12:00;CYXE 231200Z 01007KT 15SM FEW120 SCT270 04/04 A2978 RMK AC2CI1 SLP099

CYXE;2007-09-23 13:00;CYXE 231300Z 02006KT 15SM FEW090 BKN120 OVC270 05/04 A2981 RMK AC2AC2CI3 SLP106

CYXE;2007-09-23 14:00;CYXE 231400Z 01006KT 15SM FEW090 OVC120 05/05 A2983 RMK AC2AC6 SLP113

CYXE;2007-09-23 15:00;CYXE 231500Z 01007KT 15SM BKN120 OVC250 06/06 A2984 RMK AC7CI1 SLP122

CYXE;2007-09-23 16:00;CYXE 231600Z 04007KT 15SM BKN120 OVC250 07/06 A2986 RMK AC7CI1 SLP128

CYXE;2007-09-23 17:00;CYXE 231700Z 04011KT 15SM BKN097 OVC250 08/06 A2985 RMK AC7CI1 SLP125

CYXE;2007-09-23 18:00;CYXE 231800Z CCA 02015KT 15SM BKN090 OVC250 09/06 A2983 RMK AC7CI1 SLP119

CYXE;2007-09-23 19:00;CYXE 231900Z 01014KT 15SM FEW020 BKN067 OVC250 09/06 A2984 RMK SC1SC6CI1 SLP123

CYXE;2007-09-23 19:50;CYXE 231950Z 02014KT 15SM -RA FEW045 BKN057 OVC075 09/ RMK SC2SC3AC2

CYXE;2007-09-23 20:00;CYXE 232000Z 01013KT 15SM -RA FEW045 OVC100 09/07 A2986 RMK SC2AC6 SLP129

CYXE;2007-09-23 21:00;CYXE 232100Z 01012KT 15SM -RA BKN016 OVC075 09/08 A2987 RMK SC7AC1 SLP135

CYXE;2007-09-23 22:00;CYXE 232200Z 36014KT 15SM -RA BKN010 OVC052 08/08 A2988 RMK SC7SC1 SLP137

CYXE;2007-09-23 22:28;CYXE 232228Z 36013G18KT 10SM -RA BKN009 OVC052 08/ RMK SC6SC2

CYXE;2007-09-23 23:00;CYXE 232300Z 36014KT 10SM -RA OVC008 07/07 A2990 RMK SC8 SLP143

CYXE;2007-09-24 00:00;CYXE 240000Z 01015KT 4SM -RA OVC008 07/07 A2991 RMK SC8 SLP149

CYXE;2007-09-24 01:00;CYXE 240100Z 01013KT 6SM -RA BKN008 OVC034 07/07 A2992 RMK SC7SC1 SLP152

CYXE;2007-09-24 02:00;CYXE 240200Z 01011G16KT 6SM -RA BKN007 OVC026 07/07 A2994 RMK SC6SC2 SLP157

CYXE;2007-09-24 03:00;CYXE 240300Z 36011KT 6SM -RA OVC007 07/07 A2996 RMK SC8 SLP163

CYXE;2007-09-24 04:00;CYXE 240400Z 36010G19KT 10SM -RA BKN007 OVC031 07/07 A2996 RMK SC6SC2 SLP163

CYXE;2007-09-24 05:00;CYXE 240500Z 36013KT 15SM -RA OVC007 06/06 A2995 RMK SC8 SLP162

CYXE;2007-09-24 06:00;CYXE 240600Z 36013KT 15SM -RA OVC009 06/06 A2998 RMK SC8 SLP170

CYXE;2007-09-24 06:17;CYXE 240617Z 36012KT 15SM BKN010 OVC034 06/ RMK SC6SC2

CYXE;2007-09-24 07:00;CYXE 240700Z 36013KT 12SM OVC010 06/05 A2999 RMK SC8 BR SLP172

CYXE;2007-09-24 07:46;CYXE 240746Z 35010G16KT 12SM OVC009 06/ RMK SC8 BR

CYXE;2007-09-24 08:00;CYXE 240800Z 35009KT 12SM -DZ OVC008 06/05 A2999 RMK SC8 BR SLP175

CYXE;2007-09-24 08:31;CYXE 240831Z 35010G15KT 12SM OVC010 06/ RMK SC8 BR

CYXE;2007-09-24 09:00;CYXE 240900Z 35013KT 15SM OVC010 06/05 A3000 RMK SC8 SLP178

CYXE;2007-09-24 10:00;CYXE 241000Z 33011KT 15SM OVC010 05/05 A3002 RMK SC8 SLP182

CYXE;2007-09-24 11:00;CYXE 241100Z 33012KT 15SM OVC012 05/05 A3003 RMK SC8 SLP186

CYXE;2007-09-24 12:00;CYXE 241200Z 32008KT 15SM BKN014 OVC038 05/05 A3003 RMK SF6SC2 SLP190

CYXE;2007-09-24 13:00;CYXE 241300Z 32009KT 15SM SCT016 OVC038 04/04 A3005 RMK SF3SC4 SLP194

CYXE;2007-09-24 14:00;CYXE 241400Z 32010KT 15SM FEW018 BKN036 04/03 A3006 RMK SF2SC5 SLP197

CYXE;2007-09-24 15:00;CYXE 241500Z 33010G15KT 15SM FEW016 BKN030 05/03 A3006 RMK SC2SC6 SLP200

CYXE;2007-09-24 16:00;CYXE 241600Z 34009G15KT 15SM FEW016 BKN020 06/03 A3007 RMK CF2SC6 SLP202

CYXE;2007-09-24 17:00;CYXE 241700Z 33011KT 15SM BKN022 06/02 A3007 RMK SC6 SLP203

CYXE;2007-09-24 18:00;CYXE 241800Z 32006KT 15SM SCT024 08/02 A3007 RMK CU3 SLP201

CYXE;2007-09-24 19:00;CYXE 241900Z 34007KT 15SM FEW030 09/02 A3007 RMK CU2 SLP200

CYXE;2007-09-24 20:00;CYXE 242000Z 33006KT 15SM FEW034 10/02 A3005 RMK CU1 SLP196

CYXE;2007-09-24 21:00;CYXE 242100Z 34007KT 15SM FEW035 11/00 A3004 RMK CU1 SLP191

CYXE;2007-09-24 22:00;CYXE 242200Z 30008KT 15SM SKC 12/01 A3003 RMK SLP188

CYXE;2007-09-24 23:00;CYXE 242300Z 27006KT 15SM SKC 11/M00 A3003 RMK SLP187

CYXE;2007-09-25 00:00;CYXE 250000Z 27004KT 15SM FEW280 11/01 A3003 RMK CI0 SLP186

CYXE;2007-09-25 01:00;CYXE 250100Z 23004KT 15SM FEW280 08/01 A3002 RMK CI0 SLP183

CYXE;2007-09-25 02:00;CYXE 250200Z 20005KT 15SM FEW280 06/00 A3002 RMK CI0 SLP182

CYXE;2007-09-25 03:00;CYXE 250300Z 19006KT 15SM SKC 05/00 A3001 RMK SLP182

CYXE;2007-09-25 04:00;CYXE 250400Z 19006KT 15SM SKC 04/M00 A2999 RMK SLP178

CYXE;2007-09-25 05:00;CYXE 250500Z 19006KT 15SM SKC 03/00 A2999 RMK SLP175

CYXE;2007-09-25 06:00;CYXE 250600Z 21008KT 15SM SKC 03/00 A2998 RMK SLP171

CYXE;2007-09-25 07:00;CYXE 250700Z 19006KT 15SM FEW270 02/01 A2996 RMK CI0 SLP167

CYXE;2007-09-25 08:00;CYXE 250800Z 20005KT 15SM SCT270 02/01 A2995 RMK CI0 SLP161

CYXE;2007-09-25 09:00;CYXE 250900Z 19006KT 15SM SCT220 02/01 A2993 RMK CI1 SLP154

CYXE;2007-09-25 10:00;CYXE 251000Z 19007KT 15SM SCT220 02/01 A2991 RMK CI1 SLP147

CYXE;2007-09-25 11:00;CYXE 251100Z 18005KT 15SM SCT220 02/01 A2989 RMK CI1 SLP142

CYXE;2007-09-25 12:00;CYXE 251200Z 17005KT 15SM FEW160 SCT220 02/01 A2987 RMK AC1CI0 SLP134

CYXE;2007-09-25 13:00;CYXE 251300Z 17006KT 15SM FEW160 FEW220 01/00 A2986 RMK AC1CI0 SLP129

CYXE;2007-09-25 14:00;CYXE 251400Z 18007KT 15SM FEW130 SCT250 03/02 A2985 RMK AC2CI1 SLP126

CYXE;2007-09-25 15:00;CYXE 251500Z 19008KT 15SM SCT130 BKN250 06/03 A2983 RMK AC2CI1 SLP121

CYXE;2007-09-25 16:00;CYXE 251600Z 19008KT 15SM SCT130 BKN250 08/04 A2982 RMK AC2CI2 SLP118

CYXE;2007-09-25 17:00;CYXE 251700Z 22006KT 15SM SCT100 BKN250 09/05 A2982 RMK AC2CI2 SLP117

CYXE;2007-09-25 18:00;CYXE 251800Z 19006KT 15SM SCT100 BKN130 BKN250 12/06 A2980 RMK AC3AC2CI1 SLP108

CYXE;2007-09-25 19:00;CYXE 251900Z 20007KT 15SM SCT090 BKN130 BKN250 13/06 A2978 RMK AC3AC3CI1 SLP103

CYXE;2007-09-25 20:00;CYXE 252000Z 20006KT 15SM FEW050 BKN090 BKN130 14/06 A2977 RMK SC1AC5AC2 SLP099

CYXE;2007-09-25 21:00;CYXE 252100Z 24010KT 15SM FEW050 BKN090 BKN130 15/06 A2977 RMK SC2AC4AC2 SLP096

CYXE;2007-09-25 22:00;CYXE 252200Z 23009KT 15SM BKN085 BKN280 15/05 A2976 RMK AC5CI1 SLP093

CYXE;2007-09-25 23:00;CYXE 252300Z 22008KT 15SM BKN085 BKN280 15/06 A2976 RMK AC5CI1 SLP092

CYXE;2007-09-26 00:00;CYXE 260000Z 22005KT 15SM SCT090 OVC280 14/06 A2976 RMK AC3CI1 SLP093

CYXE;2007-09-26 01:00;CYXE 260100Z 20004KT 15SM SCT090 BKN280 12/06 A2976 RMK AC3CI0 SLP093

CYXE;2007-09-26 02:00;CYXE 260200Z 29009KT 15SM FEW060 BKN280 10/06 A2977 RMK SC2CI0 SLP096

CYXE;2007-09-26 03:00;CYXE 260300Z 27007KT 15SM SCT070 BKN280 08/06 A2977 RMK AC3CI1 SLP100

CYXE;2007-09-26 04:00;CYXE 260400Z 26006KT 15SM FEW080 BKN280 07/05 A2978 RMK AC2CI0 SLP102

CYXE;2007-09-26 05:00;CYXE 260500Z 26006KT 15SM FEW080 SCT280 06/04 A2978 RMK AC2CI0 SLP102

CYXE;2007-09-26 06:00;CYXE 260600Z 27008KT 15SM FEW080 FEW280 06/05 A2978 RMK AC1CI1 SLP100

CYXE;2007-09-26 07:00;CYXE 260700Z 26008KT 15SM FEW080 FEW280 05/04 A2978 RMK AC1CI0 SLP099

CYXE;2007-09-26 08:00;CYXE 260800Z 26007KT 15SM FEW080 FEW280 04/04 A2978 RMK AC1CI0 SLP099

CYXE;2007-09-26 09:00;CYXE 260900Z 27008KT 15SM SKC 02/02 A2979 RMK SLP102

CYXE;2007-09-26 10:00;CYXE 261000Z 26007KT 15SM SKC 03/03 A2978 RMK SLP099

CYXE;2007-09-26 11:00;CYXE 261100Z 27005KT 15SM FEW280 02/02 A2977 RMK CI0 SLP098

CYXE;2007-09-26 12:00;CYXE 261200Z 25007KT 15SM FEW120 FEW280 03/03 A2979 RMK AC1CI0 SLP103

CYXE;2007-09-26 13:00;CYXE 261300Z 21005KT 15SM FEW120 FEW280 03/03 A2977 RMK AC1CI0 SLP096

CYXE;2007-09-26 14:00;CYXE 261400Z 21006KT 15SM FEW091 BKN280 03/03 A2977 RMK AC1CI2 SLP096

CYXE;2007-09-26 15:00;CYXE 261500Z 22008KT 15SM FEW090 BKN280 06/04 A2976 RMK AC2CI1 SLP094

CYXE;2007-09-26 16:00;CYXE 261600Z 23008KT 15SM SCT090 BKN280 10/06 A2975 RMK AC3CI1 SLP092

CYXE;2007-09-26 17:00;CYXE 261700Z 23010KT 15SM BKN083 11/06 A2974 RMK AC6 SLP089

CYXE;2007-09-26 18:00;CYXE 261800Z 25010KT 15SM FEW020 SCT040 OVC100 11/06 A2975 RMK SC1SC3AS4 SLP089

CYXE;2007-09-26 19:00;CYXE 261900Z 23010KT 15SM FEW020 BKN065 BKN088 13/06 A2972 RMK SC1SC5AC2 SLP079

CYXE;2007-09-26 20:00;CYXE 262000Z 26012G17KT 15SM FEW035 SCT055 SCT090 BKN280 15/06 A2971 RMK CU1SC2AC1CI0 SLP076

CYXE;2007-09-26 21:00;CYXE 262100Z 25008KT 15SM FEW035 BKN055 BKN100 14/05 A2970 RMK CU2SC3AC2 SLP073

CYXE;2007-09-26 22:00;CYXE 262200Z 29013G18KT 15SM FEW035 SCT050 BKN100 16/05 A2971 RMK CU1SC2AC2 SLP076

CYXE;2007-09-26 23:00;CYXE 262300Z 27009KT 15SM BKN050 BKN100 BKN280 15/05 A2972 RMK SC5AC2CI0 SLP079

CYXE;2007-09-26 23:56;CYXE 262356Z 31023G33KT 15SM -SHRA BKN056 BKN100 15/ RMK SC6AC1 TCU EMBD

CYXE;2007-09-27 00:00;CYXE 270000Z 31026G33KT 15SM -SHRA BKN044 BKN100 13/05 A2974 RMK SC6AC1 TCU EMBD SLP086

CYXE;2007-09-27 00:32;CYXE 270032Z 32013G19KT 15SM VCSH FEW030 BKN050 BKN100 10/ RMK SC2SC3AC1 SH E-S

CYXE;2007-09-27 01:00;CYXE 270100Z 30010KT 15SM FEW030 SCT080 10/06 A2976 RMK SC2AC2 SLP092

CYXE;2007-09-27 02:00;CYXE 270200Z 30008KT 15SM FEW030 FEW090 08/05 A2980 RMK SC1AC1 PRESRR SLP107

CYXE;2007-09-27 03:00;CYXE 270300Z 30011KT 15SM FEW030 FEW090 08/05 A2982 RMK SC1AC1 SLP116

CYXE;2007-09-27 04:00;CYXE 270400Z 29011KT 15SM FEW090 07/04 A2986 RMK AC2 SLP128

CYXE;2007-09-27 05:00;CYXE 270500Z 29007KT 15SM FEW120 06/04 A2990 RMK AC2 SLP140

CYXE;2007-09-27 06:00;CYXE 270600Z 30012KT 15SM SKC 06/05 A2992 RMK SLP147

CYXE;2007-09-27 07:00;CYXE 270700Z 30010KT 15SM SKC 06/04 A2994 RMK SLP154

CYXE;2007-09-27 08:00;CYXE 270800Z 29007KT 15SM SKC 04/04 A2997 RMK SLP163

CYXE;2007-09-27 09:00;CYXE 270900Z 27008KT 15SM SKC 03/03 A2998 RMK SLP168

CYXE;2007-09-27 10:00;CYXE 271000Z 27007KT 15SM SKC 03/02 A3000 RMK SLP174

CYXE;2007-09-27 11:00;CYXE 271100Z 26005KT 15SM SKC 01/01 A3000 RMK SLP174

CYXE;2007-09-27 12:00;CYXE 271200Z 27006KT 15SM FEW092 02/01 A3002 RMK AC1 SLP183

CYXE;2007-09-27 13:00;CYXE 271300Z 27006KT 15SM FEW090 FEW250 01/01 A3003 RMK AC1CI0 SLP186

CYXE;2007-09-27 14:00;CYXE 271400Z 28004KT 15SM FEW250 02/02 A3003 RMK CI1 SLP187

CYXE;2007-09-27 15:00;CYXE 271500Z 25004KT 15SM FEW250 05/04 A3003 RMK CI1 SLP189

CYXE;2007-09-27 16:00;CYXE 271600Z 23003KT 15SM BKN250 09/05 A3002 RMK CI2 SLP186

CYXE;2007-09-27 17:00;CYXE 271700Z 23006KT 15SM BKN250 11/05 A3002 RMK CI2 SLP186

CYXE;2007-09-27 18:00;CYXE 271800Z 22007KT 15SM FEW033 BKN250 14/05 A3001 RMK CU1CI2 SLP177

CYXE;2007-09-27 19:00;CYXE 271900Z 21007KT 15SM FEW045 SCT250 15/04 A2998 RMK CU1CI1 SLP167

CYXE;2007-09-27 20:00;CYXE 272000Z 21009KT 15SM FEW052 FEW250 16/03 A2995 RMK CU1CI0 SLP156

CYXE;2007-09-27 21:00;CYXE 272100Z 22007KT 15SM FEW060 BKN250 16/01 A2992 RMK CU1CI1 SLP148

CYXE;2007-09-27 22:00;CYXE 272200Z 17007KT 15SM FEW060 BKN280 16/02 A2990 RMK SC2CI1 SLP140

CYXE;2007-09-27 23:00;CYXE 272300Z 17008KT 15SM FEW120 OVC280 16/02 A2987 RMK AC2CI1 SLP132

CYXE;2007-09-28 00:00;CYXE 280000Z 16009KT 15SM FEW120 OVC280 15/02 A2985 RMK AC2CI1 SLP125

CYXE;2007-09-28 01:00;CYXE 280100Z 14007KT 15SM SCT080 OVC280 12/02 A2983 RMK AC2CI2 SLP119

CYXE;2007-09-28 02:00;CYXE 280200Z 14009KT 15SM SCT080 BKN280 12/02 A2982 RMK AC2CI1 SLP114

CYXE;2007-09-28 03:00;CYXE 280300Z 14010G15KT 15SM FEW080 OVC280 11/02 A2980 RMK AC2CI2 SLP108

CYXE;2007-09-28 04:00;CYXE 280400Z 14011KT 15SM SCT080 OVC260 11/02 A2978 RMK AC3CI2 SLP102

CYXE;2007-09-28 05:00;CYXE 280500Z 14013G18KT 15SM SCT080 OVC260 10/02 A2976 RMK AC3CI2 SLP095

CYXE;2007-09-28 06:00;CYXE 280600Z 14013KT 15SM FEW080 OVC260 10/02 A2974 RMK AC2CI2 SLP082

CYXE;2007-09-28 07:00;CYXE 280700Z 14012KT 15SM BKN250 10/02 A2971 RMK CI3 SLP073

CYXE;2007-09-28 08:00;CYXE 280800Z 14013KT 15SM OVC250 09/02 A2968 RMK CS3 SLP062

CYXE;2007-09-28 09:00;CYXE 280900Z 15012KT 15SM OVC250 10/02 A2964 RMK CS4 SLP047

CYXE;2007-09-28 10:00;CYXE 281000Z 16009KT 15SM BKN250 10/02 A2963 RMK CI2 SLP042

CYXE;2007-09-28 11:00;CYXE 281100Z 16007KT 15SM BKN250 09/02 A2960 RMK CI2 SLP035

CYXE;2007-09-28 12:00;CYXE 281200Z 14008KT 15SM OVC250 09/02 A2958 RMK CI4 SLP028

CYXE;2007-09-28 13:00;CYXE 281300Z 15007KT 15SM OVC250 08/02 A2956 RMK CI5 SLP022

CYXE;2007-09-28 14:00;CYXE 281400Z 15006KT 15SM OVC250 08/03 A2956 RMK CI6 SLP021

CYXE;2007-09-28 15:00;CYXE 281500Z 16009KT 15SM BKN250 10/03 A2955 RMK CI3 SLP019

CYXE;2007-09-28 16:00;CYXE 281600Z 17012G18KT 15SM BKN250 12/03 A2953 RMK CI2 SLP014

CYXE;2007-09-28 17:00;CYXE 281700Z 17012KT 15SM BKN300 16/04 A2951 RMK CI2 SLP006

CYXE;2007-09-28 18:00;CYXE 281800Z 15010KT 15SM OVC300 16/05 A2950 RMK CI4 SLP000

CYXE;2007-09-28 19:00;CYXE 281900Z 15011KT 15SM FEW110 BKN300 18/06 A2949 RMK ACC2CI2 SLP995

CYXE;2007-09-28 20:00;CYXE 282000Z 14007KT 15SM FEW110 BKN300 20/07 A2947 RMK ACC2CI1 SLP990

CYXE;2007-09-28 21:00;CYXE 282100Z 14008KT 15SM FEW110 SCT300 23/08 A2945 RMK ACC1CI2 SLP978

CYXE;2007-09-28 22:00;CYXE 282200Z 13007KT 15SM FEW110 SCT300 23/07 A2944 RMK ACC1CI2 SLP974

CYXE;2007-09-28 23:00;CYXE 282300Z 14008KT 15SM FEW110 SCT300 22/07 A2942 RMK AC2CI1 SLP969

CYXE;2007-09-29 00:00;CYXE 290000Z 13008KT 15SM BKN110 BKN300 20/08 A2941 RMK AC6CI1 SLP966

CYXE;2007-09-29 01:00;CYXE 290100Z 14007KT 15SM SCT110 BKN300 18/06 A2941 RMK AC2CI2 SLP966

CYXE;2007-09-29 02:00;CYXE 290200Z 13007KT 15SM SCT110 BKN300 17/07 A2941 RMK AC2CI2 SLP967

CYXE;2007-09-29 03:00;CYXE 290300Z 14006KT 15SM SCT110 BKN300 15/06 A2941 RMK AC2CI2 SLP970

CYXE;2007-09-29 04:00;CYXE 290400Z 13006KT 15SM FEW110 SCT300 13/06 A2941 RMK AC2CI1 SLP969

CYXE;2007-09-29 05:00;CYXE 290500Z 14005KT 15SM FEW110 SCT300 12/06 A2941 RMK AC2CI1 SLP969

CYXE;2007-09-29 06:00;CYXE 290600Z 31005KT 15SM FEW110 SCT300 08/06 A2941 RMK AC1CI1 SLP969

CYXE;2007-09-29 07:00;CYXE 290700Z 24002KT 15SM FEW120 SCT280 07/06 A2942 RMK AC1CI1 SLP974

CYXE;2007-09-29 08:00;CYXE 290800Z 07002KT 15SM BKN120 08/07 A2941 RMK AC6 SLP970

CYXE;2007-09-29 09:00;CYXE 290900Z 27005KT 15SM OVC120 09/08 A2944 RMK AC8 SLP976

CYXE;2007-09-29 10:00;CYXE 291000Z 36006KT 15SM BKN120 OVC280 10/08 A2943 RMK AC6CI1 SLP973

CYXE;2007-09-29 11:00;CYXE 291100Z 33008KT 15SM OVC120 10/08 A2946 RMK AC8 SLP980

CYXE;2007-09-29 11:14;CYXE 291114Z CCA 34009KT 15SM -SHRA OVC120 10/ RMK AC8

CYXE;2007-09-29 12:00;CYXE 291200Z 36011G16KT 15SM -SHRA SCT081 OVC120 10/07 A2947 RMK AC3AC5 SLP986

CYXE;2007-09-29 12:45;CYXE 291245Z 35016KT 15SM SCT090 BKN280 09/ RMK AC3CI0

CYXE;2007-09-29 13:00;CYXE 291300Z 34014KT 15SM SCT090 BKN280 09/06 A2950 RMK AC3CI0 SLP995

CYXE;2007-09-29 14:00;CYXE 291400Z 34015G20KT 15SM SCT090 OVC280 08/06 A2951 RMK AC3CI1 SLP999

CYXE;2007-09-29 15:00;CYXE 291500Z 34012G19KT 15SM BKN100 OVC280 09/06 A2954 RMK ACC6CI2 SLP012

CYXE;2007-09-29 16:00;CYXE 291600Z 34015G20KT 15SM VCSH FEW030 BKN100 OVC280 10/06 A2958 RMK SC1ACC7CI1 SLP026

CYXE;2007-09-29 16:35;CYXE 291635Z 33016KT 15SM -SHRA SCT025 BKN090 OVC280 10/ RMK SC3ACC4CI1

CYXE;2007-09-29 17:00;CYXE 291700Z 33015G22KT 15SM -SHRA SCT020 BKN060 OVC100 09/07 A2960 RMK SC3SC4AC1 CVCTV CLD EMBD SLP034

CYXE;2007-09-29 18:00;CYXE 291800Z 34015G20KT 15SM -SHRA SCT020 OVC085 08/08 A2964 RMK SC3ACC5 SLP052

CYXE;2007-09-29 18:31;CYXE 291831Z 34010G15KT 10SM -SHRA BKN010 OVC035 08/ RMK ST5SC3

CYXE;2007-09-29 18:49;CYXE 291849Z 34010KT 10SM -SHRA BKN008 OVC080 08/ RMK ST7ACC1

CYXE;2007-09-29 19:00;CYXE 291900Z 34012KT 10SM -SHRA OVC008 08/08 A2966 RMK ST8 ACC EMBD SLP059

CYXE;2007-09-29 20:00;CYXE 292000Z 33015KT 10SM -SHRA OVC008 08/08 A2967 RMK ST8 ACC EMBD SLP062

CYXE;2007-09-29 20:44;CYXE 292044Z 34013G19KT 15SM -SHRA BKN012 OVC030 07/ RMK ST6SC2 ACC EMBD

CYXE;2007-09-29 21:00;CYXE 292100Z 35014KT 15SM VCSH BKN012 OVC030 07/07 A2968 RMK SC7SC1 SLP068

CYXE;2007-09-29 22:00;CYXE 292200Z 34010G17KT 15SM BKN017 BKN034 08/06 A2973 RMK SC6SC2 SLP083

CYXE;2007-09-29 23:00;CYXE 292300Z 35010KT 15SM VCSH FEW017 BKN040 08/06 A2973 RMK SC2SC5 SLP083

CYXE;2007-09-30 00:00;CYXE 300000Z 33007KT 15SM BKN040 BKN100 BKN270 09/06 A2977 RMK SC5AC1CI1 SLP094

CYXE;2007-09-30 01:00;CYXE 300100Z 33005KT 15SM FEW040 SCT095 BKN270 05/03 A2978 RMK SC2AC2CI0 SLP100

CYXE;2007-09-30 02:00;CYXE 300200Z 35003KT 15SM FEW040 SCT270 05/03 A2981 RMK SC2CI1 SLP110

CYXE;2007-09-30 03:00;CYXE 300300Z 26003KT 15SM FEW040 SCT270 04/03 A2984 RMK SC2CI1 SLP123

CYXE;2007-09-30 03:52;CYXE 300352Z 28006KT 15SM FEW040 FEW270 02/ RMK SC1CI1

CYXE;2007-09-30 04:00;CYXE 300400Z 29007KT 15SM FEW040 FEW095 FEW270 02/01 A2984 RMK SC1AC1CI1 SLP124

CYXE;2007-09-30 05:00;CYXE 300500Z 30007KT 15SM FEW095 SCT270 02/01 A2985 RMK AC2CI1 SLP126

CYXE;2007-09-30 06:00;CYXE 300600Z 31007KT 15SM FEW270 01/00 A2986 RMK CI1 SLP134

CYXE;2007-09-30 07:00;CYXE 300700Z 28005KT 15SM FEW280 M01/M01 A2987 RMK CI0 SLP137

CYXE;2007-09-30 08:00;CYXE 300800Z 27006KT 15SM SKC M01/M02 A2989 RMK SLP143

CYXE;2007-09-30 09:00;CYXE 300900Z 30002KT 15SM SKC M01/M02 A2990 RMK SLP146

CYXE;2007-09-30 10:00;CYXE 301000Z 00000KT 15SM SKC M01/M01 A2990 RMK SLP148

CYXE;2007-09-30 11:00;CYXE 301100Z 26004KT 15SM SKC M02/M02 A2993 RMK SLP156

CYXE;2007-09-30 12:00;CYXE 301200Z 20004KT 15SM FEW280 M02/M02 A2993 RMK CI0 FROIN SLP158

CYXE;2007-09-30 13:00;CYXE 301300Z 20004KT 15SM FEW280 M02/M02 A2994 RMK CI1 FROIN SLP160

CYXE;2007-09-30 14:00;CYXE 301400Z 18005KT 15SM BKN280 M02/M02 A2995 RMK CI2 SLP166

CYXE;2007-09-30 15:00;CYXE 301500Z 19004KT 15SM BKN280 01/01 A2995 RMK CI1 SLP165

CYXE;2007-09-30 16:00;CYXE 301600Z 19006KT 15SM SCT280 05/02 A2995 RMK CI1 SLP166

CYXE;2007-09-30 17:00;CYXE 301700Z 20006KT 15SM SCT280 08/03 A2995 RMK CI0 SLP165

CYXE;2007-09-30 18:00;CYXE 301800Z 16008KT 15SM BKN280 11/02 A2993 RMK CI2 SLP155

CYXE;2007-09-30 19:00;CYXE 301900Z 16006KT 15SM BKN280 12/01 A2992 RMK CI3 SLP153

CYXE;2007-09-30 20:00;CYXE 302000Z 16008KT 15SM OVC280 13/M01 A2992 RMK CI2 SLP151

CYXE;2007-09-30 21:00;CYXE 302100Z 18010KT 15SM OVC280 14/01 A2989 RMK CI4 SLP140

CYXE;2007-09-30 22:00;CYXE 302200Z 17010KT 15SM OVC280 14/01 A2988 RMK CI4 SLP136

CYXE;2007-09-30 23:00;CYXE 302300Z 16011KT 15SM BKN280 14/01 A2986 RMK CI2 SLP130

CYXE;2007-10-01 01:00;CYXE 010100Z 14006KT 15SM FEW120 SCT280 10/02 A2983 RMK AC2CI1 SLP122

CYXE;2007-10-01 02:00;CYXE 010200Z 13006KT 15SM FEW120 SCT280 08/02 A2982 RMK AC2CI1 SLP118

CYXE;2007-10-01 03:00;CYXE 010300Z 15007KT 15SM FEW120 SCT280 07/02 A2981 RMK AC2CI1 SLP114

CYXE;2007-10-01 04:00;CYXE 010400Z 17009KT 15SM SCT280 07/00 A2980 RMK CI1 SLP111

CYXE;2007-10-01 05:00;CYXE 010500Z 17007KT 15SM SCT280 06/00 A2979 RMK CI1 SLP108

CYXE;2007-10-01 06:00;CYXE 010600Z 16007KT 15SM SCT140 BKN280 06/M00 A2977 RMK AC2CI1 SLP096

CYXE;2007-10-01 07:00;CYXE 010700Z 15007KT 15SM SCT140 BKN280 06/M01 A2976 RMK AC2CI1 SLP092

CYXE;2007-10-01 08:00;CYXE 010800Z 17010KT 15SM BKN140 OVC280 08/M01 A2975 RMK AC5CI0 SLP090

CYXE;2007-10-01 09:00;CYXE 010900Z 18012KT 15SM BKN140 OVC280 08/M01 A2972 RMK AC5CI0 SLP077

CYXE;2007-10-01 10:00;CYXE 011000Z 17009KT 15SM BKN090 OVC280 08/M01 A2971 RMK AC5CI1 SLP072

CYXE;2007-10-01 11:00;CYXE 011100Z 18010KT 15SM BKN090 OVC280 09/M01 A2968 RMK AC6CI1 SLP063

CYXE;2007-10-01 12:00;CYXE 011200Z 18010KT 15SM BKN100 09/M01 A2966 RMK AC6 SLP056

CYXE;2007-10-01 13:00;CYXE 011300Z 17009KT 15SM SCT100 BKN280 07/M02 A2965 RMK AC3CI2 SLP052

CYXE;2007-10-01 14:00;CYXE 011400Z 18009KT 15SM FEW100 BKN280 07/M01 A2963 RMK AC2CI2 SLP047

CYXE;2007-10-01 15:00;CYXE 011500Z 19012KT 15SM FEW100 BKN250 08/M00 A2961 RMK AC2CI2 SLP044

CYXE;2007-10-01 16:00;CYXE 011600Z 20008KT 15SM FEW100 BKN250 10/02 A2961 RMK AC2CI2 SLP043

CYXE;2007-10-01 17:00;CYXE 011700Z 23013G18KT 15SM FEW120 BKN250 13/03 A2959 RMK AC2CI2 SLP036

CYXE;2007-10-01 18:00;CYXE 011800Z 23019G24KT 15SM FEW120 BKN250 15/03 A2957 RMK AC2CI3 SLP027

CYXE;2007-10-01 19:00;CYXE 011900Z 21016KT 15SM SCT087 BKN250 16/04 A2956 RMK AC4CI1 SLP023

CYXE;2007-10-01 20:00;CYXE 012000Z 23017KT 15SM FEW080 SCT120 BKN250 16/04 A2955 RMK AC2AC2CI2 SLP019

CYXE;2007-10-01 21:00;CYXE 012100Z 23016G22KT 15SM SCT090 BKN250 17/04 A2955 RMK AC3CI2 SLP015

CYXE;2007-10-01 22:00;CYXE 012200Z 23015KT 15SM SCT090 BKN250 17/04 A2954 RMK AC3CI2 SLP013

CYXE;2007-10-01 23:00;CYXE 012300Z 25010KT 15SM FEW090 BKN120 BKN250 16/03 A2955 RMK AC1AC5CI1 SLP015

CYXE;2007-10-02 00:00;CYXE 020000Z 24007KT 15SM BKN120 BKN250 15/04 A2955 RMK AC6CI0 SLP019

CYXE;2007-10-02 01:00;CYXE 020100Z 22008KT 15SM BKN120 BKN250 13/04 A2956 RMK AC6CI0 SLP021

CYXE;2007-10-02 02:00;CYXE 020200Z 27010KT 15SM BKN120 BKN250 13/04 A2958 RMK AC6CI0 SLP028

CYXE;2007-10-02 03:00;CYXE 020300Z 30010G15KT 15SM SCT120 BKN250 11/04 A2960 RMK AC3CI1 SLP039

CYXE;2007-10-02 04:00;CYXE 020400Z 30011KT 15SM SCT120 BKN250 09/03 A2962 RMK AC3CI1 SLP044

CYXE;2007-10-02 05:00;CYXE 020500Z 29007KT 15SM FEW120 SCT250 07/03 A2963 RMK AC1CI2 SLP049

CYXE;2007-10-02 06:00;CYXE 020600Z 27006KT 15SM FEW090 FEW250 04/02 A2966 RMK AC1CI1 SLP056

CYXE;2007-10-02 07:00;CYXE 020700Z 26005KT 15SM FEW280 04/02 A2966 RMK CI0 SLP058

CYXE;2007-10-02 07:06;CYXE 020706Z 22005KT 15SM FEW280 02/ RMK CI0

CYXE;2007-10-02 08:00;CYXE 020800Z 25008KT 15SM SKC 02/02 A2968 RMK SLP063

CYXE;2007-10-02 09:00;CYXE 020900Z 25006KT 15SM SKC 02/01 A2968 RMK SLP064

CYXE;2007-10-02 10:00;CYXE 021000Z 24006KT 15SM SKC 02/01 A2968 RMK SLP064

CYXE;2007-10-02 11:00;CYXE 021100Z 22005KT 15SM SKC 01/00 A2967 RMK SLP061

CYXE;2007-10-02 12:00;CYXE 021200Z 22006KT 15SM SKC 01/M00 A2968 RMK SLP065

CYXE;2007-10-02 13:00;CYXE 021300Z 22007KT 15SM FEW090 01/M00 A2968 RMK AC1 SLP065

CYXE;2007-10-02 14:00;CYXE 021400Z 22006KT 15SM FEW090 02/01 A2968 RMK AC1 SLP066

CYXE;2007-10-02 15:00;CYXE 021500Z 22007KT 15SM FEW250 05/02 A2968 RMK CI1 SLP067

CYXE;2007-10-02 16:00;CYXE 021600Z 20006KT 15SM FEW120 09/05 A2966 RMK AC1 SLP060

CYXE;2007-10-02 17:00;CYXE 021700Z 19007KT 15SM FEW220 13/05 A2963 RMK CI0 SLP049

CYXE;2007-10-02 18:00;CYXE 021800Z 19009KT 15SM FEW220 15/05 A2960 RMK CI0 SLP037

CYXE;2007-10-02 19:00;CYXE 021900Z 20009KT 15SM FEW220 16/04 A2959 RMK CI1 SLP032

CYXE;2007-10-02 20:00;CYXE 022000Z 23012KT 15SM BKN220 17/03 A2957 RMK CI2 SLP028

CYXE;2007-10-02 21:00;CYXE 022100Z 21011KT 15SM FEW080 BKN220 17/02 A2956 RMK AC1CI2 SLP024

CYXE;2007-10-02 22:00;CYXE 022200Z 23012G17KT 15SM FEW080 BKN220 17/00 A2954 RMK AC1CI2 SLP018

CYXE;2007-10-02 23:00;CYXE 022300Z 22010KT 15SM FEW060 SCT250 17/00 A2953 RMK SC1CI1 SLP013

CYXE;2007-10-03 00:00;CYXE 030000Z 22006KT 15SM FEW050 FEW090 FEW250 15/02 A2951 RMK SC1AC1CI0 SLP008

CYXE;2007-10-03 01:00;CYXE 030100Z 19005KT 15SM FEW090 FEW250 12/01 A2949 RMK AC1CI1 SLP002

CYXE;2007-10-03 02:00;CYXE 030200Z 17008KT 15SM FEW090 FEW250 10/01 A2948 RMK AC1CI1 SLP998

CYXE;2007-10-03 03:00;CYXE 030300Z 18007KT 15SM FEW250 08/01 A2946 RMK CI0 SLP992

CYXE;2007-10-03 04:00;CYXE 030400Z 17007KT 15SM FEW250 07/00 A2944 RMK CI0 SLP986

CYXE;2007-10-03 05:00;CYXE 030500Z 19008KT 15SM FEW250 07/01 A2942 RMK CI0 SLP981

CYXE;2007-10-03 06:00;CYXE 030600Z 19007KT 15SM FEW250 07/01 A2941 RMK CI0 SLP969

CYXE;2007-10-03 07:00;CYXE 030700Z 18007KT 15SM FEW280 06/01 A2939 RMK CI0 SLP963

CYXE;2007-10-03 08:00;CYXE 030800Z 20006KT 15SM FEW280 05/01 A2937 RMK CI0 SLP958

CYXE;2007-10-03 09:00;CYXE 030900Z 23008KT 15SM FEW280 05/02 A2936 RMK CI0 SLP952

CYXE;2007-10-03 10:00;CYXE 031000Z 21007KT 15SM FEW020 FEW280 05/02 A2934 RMK SC1CI0 SLP947

CYXE;2007-10-03 11:00;CYXE 031100Z 22010KT 15SM FEW020 SCT280 05/02 A2934 RMK SC1CI0 SLP947

CYXE;2007-10-03 12:00;CYXE 031200Z 26006KT 15SM FEW020 BKN140 04/02 A2933 RMK SC1AC2 SLP945

CYXE;2007-10-03 13:00;CYXE 031300Z 29007KT 15SM FEW020 BKN120 04/01 A2935 RMK SC1AC5 SLP950

CYXE;2007-10-03 14:00;CYXE 031400Z 31012KT 15SM FEW030 BKN120 BKN250 06/03 A2937 RMK SC1AC4CI1 SLP958

CYXE;2007-10-03 15:00;CYXE 031500Z 31009KT 15SM SCT040 BKN080 BKN250 07/04 A2939 RMK SC4AC2CI0 SLP969

CYXE;2007-10-03 16:00;CYXE 031600Z 31011KT 15SM SCT040 BKN087 07/04 A2943 RMK SC3AC4 SLP980

CYXE;2007-10-03 17:00;CYXE 031700Z 30010KT 15SM FEW040 SCT090 BKN250 09/04 A2944 RMK SC2AC1CI0 SLP985

CYXE;2007-10-03 18:00;CYXE 031800Z 29012KT 15SM FEW040 FEW080 SCT250 12/04 A2945 RMK SC1AC2CI0 SLP986

CYXE;2007-10-03 19:00;CYXE 031900Z 32013G19KT 15SM FEW040 FEW080 SCT250 14/02 A2946 RMK CU1AC2CI0 SLP990

CYXE;2007-10-03 20:00;CYXE 032000Z 32014G25KT 15SM FEW060 SCT250 14/00 A2947 RMK CU2CI1 SLP994

CYXE;2007-10-03 21:00;CYXE 032100Z 32015G21KT 15SM FEW060 SCT250 14/M02 A2950 RMK CU2CI1 SLP001

CYXE;2007-10-03 22:00;CYXE 032200Z 30013G19KT 15SM FEW060 SCT250 14/M02 A2952 RMK CU2CI1 SLP008

CYXE;2007-10-03 23:00;CYXE 032300Z 31012KT 15SM FEW050 SCT250 12/M02 A2954 RMK CU1CI1 SLP015

CYXE;2007-10-04 00:00;CYXE 040000Z 29007KT 15SM FEW050 BKN160 10/M00 A2956 RMK SC1AC2 SLP027

CYXE;2007-10-04 01:00;CYXE 040100Z 29007KT 15SM FEW050 SCT160 BKN250 06/M01 A2958 RMK SC1AC2CI0 SLP033

CYXE;2007-10-04 02:00;CYXE 040200Z 26006KT 15SM FEW250 04/01 A2960 RMK CI1 SLP040

CYXE;2007-10-04 03:00;CYXE 040300Z 26007KT 15SM FEW250 03/M01 A2963 RMK CI1 SLP052

CYXE;2007-10-04 04:00;CYXE 040400Z 24007KT 15SM FEW250 01/M01 A2964 RMK CI1 SLP057

CYXE;2007-10-04 05:00;CYXE 040500Z 29008KT 15SM SKC 00/M01 A2966 RMK SLP062

CYXE;2007-10-04 06:00;CYXE 040600Z 26010KT 15SM SKC M00/M02 A2968 RMK SLP071

CYXE;2007-10-04 07:00;CYXE 040700Z 30008KT 15SM SKC M01/M02 A2969 RMK SLP074

CYXE;2007-10-04 08:00;CYXE 040800Z 31006KT 15SM SKC M01/M02 A2971 RMK SLP080

CYXE;2007-10-04 09:00;CYXE 040900Z 31006KT 15SM SKC M01/M02 A2974 RMK SLP090

CYXE;2007-10-04 10:00;CYXE 041000Z 28005KT 15SM SKC M02/M03 A2977 RMK SLP099

CYXE;2007-10-04 11:00;CYXE 041100Z 28006KT 15SM SKC M02/M03 A2980 RMK SLP108

CYXE;2007-10-04 12:00;CYXE 041200Z 31005KT 15SM SKC M04/M04 A2982 RMK SLP121

CYXE;2007-10-04 13:00;CYXE 041300Z 32006KT 15SM SKC M03/M03 A2985 RMK SLP130

CYXE;2007-10-04 14:00;CYXE 041400Z 32005KT 15SM FEW100 M02/M03 A2988 RMK AC1 SLP139

CYXE;2007-10-04 15:00;CYXE 041500Z 01005KT 15SM SCT023 02/01 A2990 RMK SC3 SLP151

CYXE;2007-10-04 16:00;CYXE 041600Z 35007KT 15SM BKN023 04/01 A2993 RMK SC5 SLP158

CYXE;2007-10-04 17:00;CYXE 041700Z 03003KT 15SM SCT018 05/01 A2995 RMK SC4 SLP165

CYXE;2007-10-04 18:00;CYXE 041800Z 28002KT 15SM SCT020 06/01 A2996 RMK CU4 SLP169

CYXE;2007-10-04 19:00;CYXE 041900Z 34005KT 15SM FEW025 FEW100 08/01 A2997 RMK CU1AC1 SLP172

CYXE;2007-10-04 20:00;CYXE 042000Z 35004KT 15SM FEW030 FEW100 09/02 A2997 RMK CU2AC1 SLP172

CYXE;2007-10-04 21:00;CYXE 042100Z 01005KT 15SM FEW030 FEW100 09/01 A2998 RMK CU1AC1 SLP174

CYXE;2007-10-04 22:00;CYXE 042200Z CCA 03005KT 15SM FEW030 FEW100 09/01 A3000 RMK CU1AC1 VIA YEG FIC SLP567

CYXE;2007-10-04 23:00;CYXE 042300Z CCA 07005KT 15SM FEW040 FEW100 10/00 A3001 RMK CU1AC1 SLP184

CYXE;2007-10-05 00:00;CYXE 050000Z 06006KT 15SM FEW048 FEW110 09/M03 A3003 RMK SC1AC1 SLP196

CYXE;2007-10-05 01:00;CYXE 050100Z 06007KT 15SM FEW110 FEW250 03/M01 A3006 RMK AC1CI0 SLP206

CYXE;2007-10-05 01:45;CYXE 050145Z 07007KT 15SM FEW110 SCT250 02/ RMK AC1CI1

CYXE;2007-10-05 02:00;CYXE 050200Z 05007KT 15SM FEW110 SCT250 02/M01 A3009 RMK AC1CI0 SLP214

CYXE;2007-10-05 02:30;CYXE 050230Z 04008KT 15SM FEW093 SCT250 01/ RMK AC2CI1

CYXE;2007-10-05 03:00;CYXE 050300Z 05009KT 15SM FEW095 FEW250 01/M01 A3012 RMK AC1CI1 SLP225

CYXE;2007-10-05 04:00;CYXE 050400Z 05010KT 15SM SKC 01/M02 A3014 RMK SLP231

CYXE;2007-10-05 05:00;CYXE 050500Z 07007KT 15SM SKC M01/M03 A3016 RMK SLP237

CYXE;2007-10-05 06:00;CYXE 050600Z 06009KT 15SM SKC M02/M03 A3015 RMK SLP233

CYXE;2007-10-05 07:00;CYXE 050700Z 06009KT 15SM SKC M02/M03 A3015 RMK SLP235

CYXE;2007-10-05 08:00;CYXE 050800Z 07009KT 15SM FEW280 M02/M03 A3017 RMK CI1 SLP239

CYXE;2007-10-05 09:00;CYXE 050900Z 06008KT 15SM FEW075 SCT280 M02/M03 A3017 RMK AC1CI1 SLP240

CYXE;2007-10-05 10:00;CYXE 051000Z 05008KT 15SM FEW070 BKN280 M02/M03 A3017 RMK AC2CI1 SLP238

CYXE;2007-10-05 11:00;CYXE 051100Z 06010KT 15SM FEW070 BKN280 M01/M03 A3017 RMK AC2CI1 SLP239

CYXE;2007-10-05 12:00;CYXE 051200Z 06008KT 15SM FEW070 SCT140 BKN280 M01/M03 RMK AC2AC2CI1 VIA YEG FIC ALTM MISG SLP252

CYXE;2007-10-05 13:00;CYXE 051300Z 06008KT 15SM FEW070 SCT140 BKN280 M01/M02 A3017 RMK AC2AC2CI2 SLP248

CYXE;2007-10-05 14:00;CYXE 051400Z 06009KT 15SM FEW082 SCT140 OVC280 M00/M02 A3017 RMK AC2AC2CI2 SLP248

CYXE;2007-10-05 15:00;CYXE 051500Z 06012KT 15SM FEW080 BKN140 OVC250 01/M01 A3018 RMK AC2AC3CI2 SLP247

CYXE;2007-10-05 16:00;CYXE 051600Z 08009KT 15SM BKN075 BKN140 OVC250 04/M00 A3020 RMK AC5AC2CI1 SLP252

CYXE;2007-10-05 17:00;CYXE 051700Z 08009KT 15SM FEW075 BKN140 OVC250 05/00 A3019 RMK AC2AC6CI1 SLP251

CYXE;2007-10-05 18:00;CYXE 051800Z 09008KT 15SM FEW062 BKN140 OVC250 07/01 A3019 RMK SC2AC6CI1 SLP249

CYXE;2007-10-05 19:00;CYXE 051900Z 09009KT 15SM FEW060 OVC180 07/01 A3019 RMK SC2AC6 SLP249

CYXE;2007-10-05 20:00;CYXE 052000Z 12009KT 15SM FEW090 OVC180 08/01 A3018 RMK AC2AC6 SLP244

CYXE;2007-10-05 21:00;CYXE 052100Z 12006KT 15SM FEW030 OVC120 08/02 A3017 RMK SC1AS7 SLP241

CYXE;2007-10-05 22:00;CYXE 052200Z 12008KT 15SM FEW088 OVC096 08/02 A3017 RMK AC2AS6 SLP241

CYXE;2007-10-05 23:00;CYXE 052300Z 13007KT 15SM FEW027 SCT050 OVC094 08/02 A3017 RMK SC2SC2AS5 SLP239

CYXE;2007-10-06 00:00;CYXE 060000Z 12007KT 15SM BKN033 OVC080 07/02 A3016 RMK SC5AS3 SLP238

CYXE;2007-10-06 01:00;CYXE 060100Z 11006KT 15SM BKN031 OVC066 07/02 A3016 RMK SC6AS2 SLP238

CYXE;2007-10-06 02:00;CYXE 060200Z 13009KT 15SM SCT054 OVC069 07/02 A3016 RMK SC4AC4 SLP238

CYXE;2007-10-06 03:00;CYXE 060300Z 12011KT 15SM OVC064 06/02 A3016 RMK SC8 SLP235

CYXE;2007-10-06 04:00;CYXE 060400Z 09006KT 15SM OVC071 04/02 A3014 RMK AC8 SLP231

CYXE;2007-10-06 05:00;CYXE 060500Z 10007KT 15SM BKN022 OVC050 05/02 A3014 RMK SC5SC3 SLP229

CYXE;2007-10-06 06:00;CYXE 060600Z 10008KT 15SM SCT015 OVC022 05/02 A3011 RMK SC3SC5 SLP218

CYXE;2007-10-06 06:35;CYXE 060635Z 10007KT 15SM BKN012 OVC022 05/ RMK SC6SC2

CYXE;2007-10-06 07:00;CYXE 060700Z 10010KT 15SM OVC012 05/03 A3010 RMK SC8 SLP215

CYXE;2007-10-06 08:00;CYXE 060800Z 11011KT 15SM OVC012 04/02 A3008 RMK SC8 SLP207

CYXE;2007-10-06 09:00;CYXE 060900Z 10009KT 15SM OVC012 04/02 A3005 RMK SC8 SLP196

CYXE;2007-10-06 10:00;CYXE 061000Z 11009KT 15SM VCSH OVC012 04/02 A3004 RMK SC8 SLP193

CYXE;2007-10-06 10:49;CYXE 061049Z 09011KT 15SM -DZ OVC012 04/ RMK SC8

CYXE;2007-10-06 11:00;CYXE 061100Z 09008KT 10SM -DZ OVC012 04/02 A3002 RMK SC8 BR SLP187

CYXE;2007-10-06 11:10;CYXE 061110Z 09007KT 3SM -DZ BR OVC009 03/ RMK SC8

CYXE;2007-10-06 12:00;CYXE 061200Z 09008KT 3SM -DZ BR BKN008 OVC048 03/03 A3001 RMK SF6SC2 SLP184

CYXE;2007-10-06 13:00;CYXE 061300Z 09009KT 8SM -DZ BKN008 OVC050 03/03 A2999 RMK SF6SC2 CIG RAGGED BR SLP178

CYXE;2007-10-06 14:00;CYXE 061400Z CCA 09007KT 8SM -RA BKN008 OVC030 03/03 A2998 RMK SF6SC2 SLP173

CYXE;2007-10-06 14:42;CYXE 061442Z 10008KT 15SM BKN009 OVC035 03/ RMK SF6SC2

CYXE;2007-10-06 15:00;CYXE 061500Z 10009KT 15SM BKN010 OVC035 03/03 A2995 RMK SF6SC2 SLP165

CYXE;2007-10-06 16:00;CYXE 061600Z 12006KT 15SM BKN013 OVC035 04/03 A2995 RMK SC6SC2 SLP164

CYXE;2007-10-06 16:49;CYXE 061649Z 09007KT 4SM -DZ BKN009 OVC035 04/ RMK ST6SC2

CYXE;2007-10-06 17:00;CYXE 061700Z 10006KT 6SM -DZ BKN010 OVC030 04/03 A2994 RMK ST6SC2 SLP160

CYXE;2007-10-06 17:05;CYXE 061705Z 11007KT 6SM -DZ BKN008 OVC030 04/ RMK ST6SC2

CYXE;2007-10-06 18:00;CYXE 061800Z 10007KT 12SM -DZ OVC008 04/03 A2992 RMK SC8 SLP152

CYXE;2007-10-06 18:43;CYXE 061843Z 09008KT 15SM OVC009 04/ RMK SC8

CYXE;2007-10-06 19:00;CYXE 061900Z 12006KT 15SM OVC009 05/03 A2990 RMK SC8 SLP145

CYXE;2007-10-06 20:00;CYXE 062000Z 11002KT 15SM OVC012 05/03 A2988 RMK SC8 SLP141

CYXE;2007-10-06 20:44;CYXE 062044Z 00000KT 3SM -DZ BR FEW008 OVC014 05/ RMK SF2SC6

CYXE;2007-10-06 21:00;CYXE 062100Z 00000KT 2SM -DZ BR SCT008 OVC014 04/04 A2987 RMK SF3SC5 SLP136

CYXE;2007-10-06 21:05;CYXE 062105Z 04002KT 2SM -DZ BR BKN006 OVC014 04/ RMK SF6SC2

CYXE;2007-10-06 22:00;CYXE 062200Z 33002KT 3SM -DZ BR BKN006 OVC090 04/04 A2988 RMK SF7AC1 SLP139

CYXE;2007-10-06 23:00;CYXE 062300Z 35004KT 6SM -DZ BR BKN006 OVC017 05/04 A2988 RMK SF7SC1 SLP139

CYXE;2007-10-06 23:34;CYXE 062334Z 33004KT 8SM -SHRA SCT007 OVC012 04/ RMK SF4SC4

CYXE;2007-10-07 00:00;CYXE 070000Z 32003KT 15SM FEW007 BKN012 BKN057 OVC077 04/04 A2988 RMK SF2SC2SC2AC2 SLP141

CYXE;2007-10-07 01:00;CYXE 070100Z 32003KT 15SM FEW007 BKN045 OVC075 03/03 A2989 RMK SF1SC4AC2 SLP142

CYXE;2007-10-07 02:00;CYXE 070200Z 30005KT 15SM FEW007 OVC040 04/04 A2990 RMK SF1SC8 SLP148

CYXE;2007-10-07 03:00;CYXE 070300Z 28004KT 15SM BKN040 03/03 A2990 RMK SC6 SLP146

CYXE;2007-10-07 04:00;CYXE 070400Z 27006KT 15SM BKN019 OVC040 02/02 A2992 RMK SC6SC2 SLP155

CYXE;2007-10-07 05:00;CYXE 070500Z 23004KT 15SM OVC018 03/03 A2995 RMK SC8 SLP162

CYXE;2007-10-07 06:00;CYXE 070600Z 23003KT 15SM SCT025 03/02 A2993 RMK SC3 SLP158

CYXE;2007-10-07 07:00;CYXE 070700Z 23004KT 15SM SKC 01/01 A2992 RMK SLP155

CYXE;2007-10-07 08:00;CYXE 070800Z 23005KT 10SM SKC M00/M00 A2993 RMK BR SLP159

CYXE;2007-10-07 09:00;CYXE 070900Z 21005KT 10SM SKC 00/00 A2992 RMK BR SLP157

CYXE;2007-10-07 10:00;CYXE 071000Z 18006KT 10SM SKC M01/M01 A2995 RMK BR SLP164

CYXE;2007-10-07 10:07;CYXE 071007Z 18008KT 8SM FEW003 M00/ RMK SF1 BR

CYXE;2007-10-07 11:00;CYXE 071100Z 19005KT 12SM FEW002 M00/M00 A2996 RMK SF1 BR SLP169

CYXE;2007-10-07 12:00;CYXE 071200Z 21005KT 12SM SKC M01/M01 A2997 RMK BR SLP174

CYXE;2007-10-07 13:00;CYXE 071300Z 21004KT 15SM SKC M01/M02 A2998 RMK SLP178

CYXE;2007-10-07 14:00;CYXE 071400Z 18005KT 15SM FEW280 M01/M02 A2999 RMK CI0 FROIN SLP180

CYXE;2007-10-07 15:00;CYXE 071500Z 19005KT 15SM FEW280 01/01 A2999 RMK CI1 SLP179

CYXE;2007-10-07 16:00;CYXE 071600Z 20005KT 15SM FEW280 05/04 A2999 RMK CI1 SLP179

CYXE;2007-10-07 17:00;CYXE 071700Z 21006KT 15SM SKC 08/05 A2997 RMK SLP175

CYXE;2007-10-07 18:00;CYXE 071800Z 19009KT 15SM SKC 10/05 A2997 RMK SLP167

CYXE;2007-10-07 19:00;CYXE 071900Z 16010KT 15SM SKC 11/04 A2996 RMK SLP164

CYXE;2007-10-07 20:00;CYXE 072000Z 16011KT 15SM SKC 12/03 A2993 RMK SLP155

CYXE;2007-10-07 21:00;CYXE 072100Z 15010KT 15SM SKC 13/03 A2991 RMK SLP147

CYXE;2007-10-07 22:00;CYXE 072200Z 15014KT 15SM SKC 13/03 A2990 RMK SLP144

CYXE;2007-10-07 23:00;CYXE 072300Z 15013KT 15SM SKC 13/03 A2990 RMK SLP144

CYXE;2007-10-08 00:00;CYXE 080000Z 15012G17KT 15SM SKC 11/03 A2990 RMK SLP144

CYXE;2007-10-08 01:00;CYXE 080100Z 15011KT 15SM SKC 09/03 A2990 RMK SLP144

CYXE;2007-10-08 02:00;CYXE 080200Z 14010KT 15SM SKC 08/03 A2989 RMK SLP141

CYXE;2007-10-08 03:00;CYXE 080300Z 15009KT 15SM SKC 06/03 A2988 RMK SLP139

CYXE;2007-10-08 04:00;CYXE 080400Z 14011KT 15SM SKC 05/03 A2986 RMK SLP135

CYXE;2007-10-08 05:00;CYXE 080500Z 14011G18KT 15SM SKC 04/03 A2985 RMK SLP130

CYXE;2007-10-08 06:00;CYXE 080600Z 14013KT 15SM SKC 03/02 A2983 RMK SLP120

CYXE;2007-10-08 07:00;CYXE 080700Z 14012KT 15SM SKC 03/02 A2983 RMK SLP120

CYXE;2007-10-08 08:00;CYXE 080800Z 14013KT 15SM SKC 03/02 A2982 RMK SLP118

CYXE;2007-10-08 08:29;CYXE 080829Z 14014KT 15SM FEW006 02/ RMK SF1

CYXE;2007-10-08 08:54;CYXE 080854Z 14015KT 15SM BKN008 03/ RMK SF5

CYXE;2007-10-08 09:00;CYXE 080900Z 15012G18KT 15SM BKN007 03/02 A2983 RMK SF6 SLP118

CYXE;2007-10-08 09:50;CYXE 080950Z 15010KT 15SM FEW007 03/ RMK SF2

CYXE;2007-10-08 10:00;CYXE 081000Z 14010KT 15SM FEW007 03/03 A2981 RMK SF2 SLP113

CYXE;2007-10-08 11:00;CYXE 081100Z 14009KT 15SM FEW007 03/03 A2978 RMK SF1 SLP102

CYXE;2007-10-08 12:00;CYXE 081200Z 12008KT 15SM SCT005 03/02 A2979 RMK SF4 SLP105

CYXE;2007-10-08 13:00;CYXE 081300Z 12011G16KT 15SM BKN005 03/03 A2977 RMK SF6 SLP098

CYXE;2007-10-08 13:23;CYXE 081323Z 13011KT 4SM BR OVC004 04/ RMK SF7

CYXE;2007-10-08 14:00;CYXE 081400Z 14008KT 4SM BR OVC004 04/04 A2980 RMK SF7 SLP109

CYXE;2007-10-08 14:30;CYXE 081430Z 14007KT 6SM BR BKN005 04/ RMK SF5

CYXE;2007-10-08 15:00;CYXE 081500Z 13009KT 6SM BR BKN005 05/04 A2980 RMK SF5 SLP110

CYXE;2007-10-08 16:00;CYXE 081600Z 13009KT 10SM SCT006 BKN120 06/05 A2980 RMK SF3AC1 BR SLP112

CYXE;2007-10-08 16:20;CYXE 081620Z 12007KT 10SM BKN009 BKN100 07/ RMK SF6AC1 BR

CYXE;2007-10-08 17:00;CYXE 081700Z 12006KT 10SM OVC010 07/05 A2984 RMK SF8 BR SLP124

CYXE;2007-10-08 18:00;CYXE 081800Z 10004KT 15SM OVC010 07/05 A2986 RMK ST8 SLP131

CYXE;2007-10-08 19:00;CYXE 081900Z 30002KT 15SM OVC014 09/06 A2987 RMK SC8 SLP135

CYXE;2007-10-08 20:00;CYXE 082000Z 34005KT 15SM OVC014 09/05 A2988 RMK SC8 SLP139

CYXE;2007-10-08 21:00;CYXE 082100Z 34011KT 12SM OVC020 08/05 A2990 RMK SC8 BR SLP147

CYXE;2007-10-08 22:00;CYXE 082200Z 34009KT 12SM OVC023 08/05 A2993 RMK SC8 BR SLP155

CYXE;2007-10-08 23:00;CYXE 082300Z 33013KT 12SM OVC025 08/05 A2996 RMK SC8 BR SLP165

CYXE;2007-10-09 00:00;CYXE 090000Z 33013KT 15SM OVC017 07/04 A3000 RMK SC8 SLP180

CYXE;2007-10-09 01:00;CYXE 090100Z 36008KT 15SM BKN025 07/04 A3002 RMK SC7 SLP186

CYXE;2007-10-09 02:00;CYXE 090200Z 32006KT 12SM BKN021 05/04 A3006 RMK SC7 BR SLP200

CYXE;2007-10-09 03:00;CYXE 090300Z 35005KT 10SM FEW020 01/01 A3008 RMK SC2 FU SLP210

CYXE;2007-10-09 04:00;CYXE 090400Z 30004KT 12SM SKC 00/00 A3011 RMK FU SLP221

CYXE;2007-10-09 05:00;CYXE 090500Z 31006KT 12SM MIFG SKC M01/M01 A3014 RMK SLP230

CYXE;2007-10-09 06:00;CYXE 090600Z 00000KT 12SM MIFG SKC M00/M00 A3015 RMK SLP233

CYXE;2007-10-09 07:00;CYXE 090700Z 28003KT 10SM MIFG SKC M01/M01 A3017 RMK SLP239

CYXE;2007-10-09 08:00;CYXE 090800Z 30006KT 12SM MIFG SKC M02/M03 A3020 RMK SLP249

CYXE;2007-10-09 09:00;CYXE 090900Z 33003KT 15SM MIFG SKC M02/M03 A3021 RMK SLP254

CYXE;2007-10-09 10:00;CYXE 091000Z 26003KT 12SM MIFG SKC M02/M02 A3022 RMK SLP259

CYXE;2007-10-09 10:49;CYXE 091049Z 26004KT 3SM BR SKC M03/ RMK FG3 VIS W-N 1/2

CYXE;2007-10-09 11:00;CYXE 091100Z 25005KT 4SM BR SKC M03/M04 A3026 RMK FG2 VIS W-N 1/2 SLP269

CYXE;2007-10-09 11:06;CYXE 091106Z 24004KT 10SM MIFG SKC M03/ RMK VIS N 1/2

CYXE;2007-10-09 12:00;CYXE 091200Z 21002KT 8SM R09/1400V5500FT/U MIFG SKC M02/M03 A3027 RMK SLP277

CYXE;2007-10-09 13:00;CYXE 091300Z 13002KT 6SM R09/1100V1600FT/N BR FEW250 M04/M04 A3030 RMK CI1 VIS NW 2 SLP285

CYXE;2007-10-09 14:00;CYXE 091400Z 15003KT 4SM BR FEW250 M03/M03 A3031 RMK CI1 VIS NW-N 2 FROIN SLP290

CYXE;2007-10-09 15:00;CYXE 091500Z 17003KT 10SM FEW250 M00/M00 A3033 RMK CI1 BR SLP300

CYXE;2007-10-09 16:00;CYXE 091600Z 00000KT 12SM FEW250 03/03 A3034 RMK CI1 CONTRAILS BR SLP303

CYXE;2007-10-09 17:00;CYXE 091700Z 00000KT 15SM FEW250 07/03 A3036 RMK CI1 SLP308

CYXE;2007-10-09 18:00;CYXE 091800Z 06003KT 15SM FEW250 09/04 A3036 RMK CI1 SLP304

CYXE;2007-10-09 19:00;CYXE 091900Z 06003KT 15SM FEW250 11/04 A3036 RMK CI1 SLP304

CYXE;2007-10-09 20:00;CYXE 092000Z 10002KT 15SM FEW250 12/04 A3034 RMK CI1 SLP300

CYXE;2007-10-09 21:00;CYXE 092100Z 05006KT 15SM SCT250 13/M03 A3035 RMK CI2 SLP300

CYXE;2007-10-09 22:00;CYXE 092200Z 08002KT 15SM BKN280 12/M00 A3035 RMK CI2 SLP299

CYXE;2007-10-09 23:00;CYXE 092300Z 12003KT 15SM BKN280 12/M01 A3034 RMK CI2 SLP297

CYXE;2007-10-10 00:00;CYXE 100000Z 09007KT 15SM FEW120 BKN280 08/M00 A3034 RMK AC1CI1 SLP301

CYXE;2007-10-10 01:00;CYXE 100100Z 09007KT 15SM FEW120 BKN280 05/M01 A3034 RMK AC1CI1 SLP301

CYXE;2007-10-10 02:00;CYXE 100200Z 09007KT 15SM FEW280 03/M01 A3034 RMK CI0 SLP301

CYXE;2007-10-10 03:00;CYXE 100300Z 12008KT 15SM SKC 05/00 A3035 RMK SLP303

CYXE;2007-10-10 04:00;CYXE 100400Z 13008KT 15SM SKC 05/01 A3034 RMK SLP300

CYXE;2007-10-10 05:00;CYXE 100500Z 12009KT 15SM SKC 04/01 A3034 RMK SLP302

CYXE;2007-10-10 06:00;CYXE 100600Z 13011KT 15SM SKC 04/02 A3034 RMK SLP297

CYXE;2007-10-10 07:00;CYXE 100700Z 13010KT 15SM SKC 03/02 A3034 RMK SLP295

CYXE;2007-10-10 08:00;CYXE 100800Z 13011KT 15SM SKC 03/02 A3033 RMK SLP292

CYXE;2007-10-10 09:00;CYXE 100900Z 14011KT 15SM FEW090 03/02 A3033 RMK AC2 SLP290

CYXE;2007-10-10 10:00;CYXE 101000Z 13010G16KT 15SM FEW090 02/01 A3032 RMK AC1 SLP286

CYXE;2007-10-10 10:49;CYXE 101049Z 14011KT 15SM FEW015 FEW090 RMK SF2AC0 TR AC

CYXE;2007-10-10 11:00;CYXE 101100Z 14010KT 15SM SCT015 02/01 A3030 RMK SF2 SLP282

CYXE;2007-10-10 11:10;CYXE 101110Z 14009G15KT 15SM BKN013 02/ RMK SC5

CYXE;2007-10-10 12:00;CYXE 101200Z 13014KT 15SM OVC012 04/02 A3029 RMK SC7 SLP279

CYXE;2007-10-10 13:00;CYXE 101300Z 15016KT 15SM OVC012 04/03 A3027 RMK SC8 SLP273

CYXE;2007-10-10 14:00;CYXE 101400Z 14013G21KT 15SM OVC012 05/03 A3027 RMK SC8 SLP272

CYXE;2007-10-10 15:00;CYXE 101500Z 14015G20KT 15SM OVC014 05/03 A3026 RMK SC8 SLP271

CYXE;2007-10-10 16:00;CYXE 101600Z 14016G22KT 15SM OVC016 06/02 A3025 RMK SC8 SLP266

CYXE;2007-10-10 17:00;CYXE 101700Z 12017KT 15SM FEW018 08/02 A3023 RMK SC2 SLP259

CYXE;2007-10-10 18:00;CYXE 101800Z 15019G24KT 15SM FEW025 FEW210 09/02 A3021 RMK SC2CI0 SLP251

CYXE;2007-10-10 20:00;CYXE 102000Z 13021KT 15SM FEW030 FEW210 10/02 A3016 RMK SC1CI0 SLP235

CYXE;2007-10-10 21:00;CYXE 102100Z 12018G27KT 15SM FEW210 10/02 A3012 RMK CI0 SLP220

CYXE;2007-10-10 22:00;CYXE 102200Z 12019G24KT 15SM FEW210 09/02 A3010 RMK CI1 SLP213

CYXE;2007-10-10 23:00;CYXE 102300Z 14013G20KT 15SM FEW120 BKN280 08/02 A3009 RMK AC2CI1 SLP209

CYXE;2007-10-11 00:00;CYXE 110000Z 14012G20KT 15SM SCT120 BKN280 07/02 A3007 RMK AC3CI2 SLP204

CYXE;2007-10-11 01:00;CYXE 110100Z 13014G22KT 15SM FEW120 BKN280 07/01 A3006 RMK AC2CI2 SLP201

CYXE;2007-10-11 02:00;CYXE 110200Z 13017G22KT 15SM FEW120 SCT280 07/01 A3002 RMK AC2CI0 SLP188

CYXE;2007-10-11 03:00;CYXE 110300Z 13014G21KT 15SM FEW120 SCT280 07/01 A3003 RMK AC2CI0 SLP188

CYXE;2007-10-11 04:00;CYXE 110400Z 14016G22KT 15SM FEW280 06/01 A3003 RMK CI0 SLP190

CYXE;2007-10-11 05:00;CYXE 110500Z 13016G21KT 15SM FEW280 05/01 A3001 RMK CI0 SLP182

CYXE;2007-10-11 08:00;CYXE 110800Z 12010KT 15SM SCT100 BKN280 04/01 A2996 RMK AC3CI0 SLP166

CYXE;2007-10-11 09:00;CYXE 110900Z 15009KT 15SM FEW017 BKN100 03/01 A2995 RMK SC2AC3 SLP162

CYXE;2007-10-11 09:20;CYXE 110920Z 14010G15KT 15SM BKN017 BKN100 03/ RMK SC5AC2

CYXE;2007-10-11 10:00;CYXE 111000Z 16013G19KT 15SM OVC017 03/01 A2993 RMK SC7 SLP155

CYXE;2007-10-11 11:00;CYXE 111100Z 16017G26KT 15SM OVC015 04/01 A2991 RMK SC8 SLP149

CYXE;2007-10-11 12:00;CYXE 111200Z 14012G19KT 15SM OVC015 03/01 A2991 RMK SC8 SLP149

CYXE;2007-10-11 13:00;CYXE 111300Z 14013G24KT 15SM OVC015 03/01 A2990 RMK SC8 SLP146

CYXE;2007-10-11 14:00;CYXE 111400Z 15013G21KT 15SM OVC013 03/01 A2990 RMK SC8 SLP147

CYXE;2007-10-11 15:00;CYXE 111500Z 15015G20KT 15SM OVC011 03/01 A2990 RMK SC8 SLP144

CYXE;2007-10-11 16:00;CYXE 111600Z 14015G20KT 15SM OVC011 04/02 A2987 RMK SC8 SLP135

CYXE;2007-10-11 16:48;CYXE 111648Z 15018KT 15SM -SHRA OVC011 03/ RMK SC8

CYXE;2007-10-11 17:00;CYXE 111700Z 14014G21KT 10SM -RA OVC011 03/02 A2985 RMK SC8 SLP130

CYXE;2007-10-11 17:19;CYXE 111719Z 14012G18KT 5SM -RA OVC011 03/ RMK SC8

CYXE;2007-10-11 17:42;CYXE 111742Z 13009G15KT 4SM -RA OVC008 03/ RMK SC8

CYXE;2007-10-11 18:00;CYXE 111800Z 14012G18KT 5SM -RA OVC009 03/02 A2984 RMK SC8 SLP126

CYXE;2007-10-11 19:00;CYXE 111900Z 14010KT 4SM -RA OVC008 03/03 A2982 RMK SC8 SLP122

CYXE;2007-10-11 20:00;CYXE 112000Z 12006KT 3SM -RA OVC006 04/03 A2982 RMK SC8 SLP121

CYXE;2007-10-11 21:00;CYXE 112100Z 14005KT 3SM -RA OVC005 04/04 A2981 RMK SC8 SLP115

CYXE;2007-10-11 22:00;CYXE 112200Z 17004KT 10SM -RA OVC004 05/05 A2980 RMK SF8 SLP114

CYXE;2007-10-11 23:00;CYXE 112300Z 30003KT 15SM -RA OVC006 05/05 A2982 RMK SF8 SLP120

CYXE;2007-10-12 00:00;CYXE 120000Z 30008KT 15SM BKN007 OVC025 05/04 A2985 RMK SF7SC1 SLP129

CYXE;2007-10-12 00:37;CYXE 120037Z 31006KT 15SM BKN004 BKN010 OVC070 04/ RMK SF6SC2AC1

CYXE;2007-10-12 01:00;CYXE 120100Z 31006KT 15SM BKN004 OVC010 03/03 A2986 RMK SF6SC2 SLP134

CYXE;2007-10-12 02:00;CYXE 120200Z 31005KT 15SM OVC004 03/03 A2988 RMK SF8 SLP138

CYXE;2007-10-12 03:00;CYXE 120300Z 31005KT 15SM BKN004 OVC015 03/03 A2990 RMK SF6SC2 SLP146

CYXE;2007-10-12 03:26;CYXE 120326Z 31004KT 15SM SCT004 OVC014 03/ RMK SF4SC4

CYXE;2007-10-12 04:00;CYXE 120400Z 32004KT 15SM FEW004 OVC012 03/03 A2991 RMK SF2SC6 SLP150

CYXE;2007-10-12 05:00;CYXE 120500Z 26003KT 15SM OVC010 04/04 A2992 RMK SC8 SLP153

CYXE;2007-10-12 05:48;CYXE 120548Z 23002KT 15SM SCT010 03/ RMK SC4

CYXE;2007-10-12 06:00;CYXE 120600Z 24002KT 12SM SCT010 03/03 A2992 RMK SC3 VIS LWR SE BR SLP154

CYXE;2007-10-12 07:00;CYXE 120700Z 23004KT 6SM BR FEW010 01/01 A2992 RMK SC1 SLP156

CYXE;2007-10-12 08:00;CYXE 120800Z 22006KT 3SM BR FEW010 00/00 A2992 RMK SC2 SLP154

CYXE;2007-10-12 09:00;CYXE 120900Z 23007KT 4SM BR SKC 01/01 A2991 RMK SLP154

CYXE;2007-10-12 10:00;CYXE 121000Z 22006KT 4SM BR SKC M00/M00 A2991 RMK SLP153

CYXE;2007-10-12 11:00;CYXE 121100Z 21007KT 4SM BR SKC 01/01 A2992 RMK VIS LWR SE-S 1 3/4 SLP155

CYXE;2007-10-12 12:00;CYXE 121200Z 22006KT 5SM BR SKC 00/00 A2991 RMK VIS LWR SE-S 2 1/2 SLP153

CYXE;2007-10-12 13:00;CYXE 121300Z 22005KT 6SM BR FEW250 M01/M01 A2992 RMK CI1 RIME ON INDICATOR SLP154

CYXE;2007-10-12 14:00;CYXE 121400Z 21006KT 10SM FEW250 M00/M00 A2992 RMK CI1 SLP156

CYXE;2007-10-12 15:00;CYXE 121500Z 22006KT 15SM FEW250 03/02 A2992 RMK CI1 SLP154

CYXE;2007-10-12 16:00;CYXE 121600Z 22008KT 10SM FEW100 FEW250 05/04 A2993 RMK AC1CI0 SLP157

CYXE;2007-10-12 17:00;CYXE 121700Z 23005KT 15SM FEW100 FEW250 07/05 A2992 RMK AC1CI0 SLP155

CYXE;2007-10-12 18:00;CYXE 121800Z 25004KT 15SM FEW100 FEW250 10/06 A2992 RMK AC1CI0 SLP151

CYXE;2007-10-12 19:00;CYXE 121900Z 31003KT 15SM FEW100 FEW250 12/06 A2991 RMK AC1CI0 SLP149

CYXE;2007-10-12 20:00;CYXE 122000Z 26004KT 15SM FEW100 FEW250 13/05 A2990 RMK AC1CI0 SLP145

CYXE;2007-10-12 21:00;CYXE 122100Z 31002KT 15SM SCT100 SCT250 14/04 A2990 RMK AC3CI0 SLP141

CYXE;2007-10-12 22:00;CYXE 122200Z 33002KT 15SM BKN110 BKN250 13/03 A2989 RMK AC6CI0 SLP138

CYXE;2007-10-12 23:00;CYXE 122300Z 00000KT 15SM BKN100 BKN250 13/05 A2989 RMK AC6CI0 SLP138

CYXE;2007-10-13 00:00;CYXE 130000Z 00000KT 15SM BKN100 12/03 A2989 RMK AC7 SLP139

CYXE;2007-10-13 01:00;CYXE 130100Z 00000KT 15SM SCT100 BKN250 10/04 A2989 RMK AC3CI2 SLP140

CYXE;2007-10-13 02:00;CYXE 130200Z 18003KT 15SM SCT080 BKN250 09/04 A2990 RMK AC3CI2 SLP142

CYXE;2007-10-13 03:00;CYXE 130300Z 13003KT 15SM BKN085 09/06 A2990 RMK AC6 SLP145

CYXE;2007-10-13 04:00;CYXE 130400Z 13004KT 15SM OVC077 08/06 A2990 RMK AC8 SLP146

CYXE;2007-10-13 05:00;CYXE 130500Z 14004KT 15SM -RA OVC052 08/06 A2991 RMK SC8 SLP149

CYXE;2007-10-13 05:30;CYXE 130530Z 18004KT 15SM OVC050 10/ RMK SC8

CYXE;2007-10-13 05:50;CYXE 130550Z 15004KT 15SM -RA OVC044 09/ RMK SC8

CYXE;2007-10-13 06:00;CYXE 130600Z 12002KT 15SM -RA OVC044 09/06 A2992 RMK SC8 SLP146

CYXE;2007-10-13 07:00;CYXE 130700Z 13003KT 15SM -RA OVC041 09/07 A2993 RMK SC8 SLP149

CYXE;2007-10-13 08:00;CYXE 130800Z 13004KT 15SM -RA BKN041 OVC080 08/06 A2993 RMK SC6AC2 SLP150

CYXE;2007-10-13 08:28;CYXE 130828Z 13005KT 15SM BKN045 OVC090 08/ RMK SC6AC2

CYXE;2007-10-13 09:00;CYXE 130900Z CCA 10006KT 15SM BKN053 OVC090 08/06 A2992 RMK SC6AC2 SLP146

CYXE;2007-10-13 09:36;CYXE 130936Z 14005KT 15SM -RA BKN058 OVC080 08/ RMK SC6AC2

CYXE;2007-10-13 10:00;CYXE 131000Z 12005KT 15SM -RA BKN056 OVC080 08/06 A2992 RMK SC6AC2 SLP145

CYXE;2007-10-13 11:00;CYXE 131100Z 14005KT 15SM -RA OVC044 08/06 A2992 RMK SC8 SLP146

CYXE;2007-10-13 12:00;CYXE 131200Z 15004KT 15SM -RA OVC042 07/06 A2993 RMK SC8 SLP150

CYXE;2007-10-13 13:00;CYXE 131300Z 12007KT 15SM -RA BKN043 OVC093 08/05 A2992 RMK SC7AC1 SLP147

CYXE;2007-10-13 13:23;CYXE 131323Z 13007KT 15SM OVC042 08/ RMK SC8

CYXE;2007-10-13 14:00;CYXE 131400Z 15007KT 15SM -SHRA OVC035 08/05 A2993 RMK SC8 SLP149

CYXE;2007-10-13 15:00;CYXE 131500Z 13008KT 6SM -RA BR OVC034 07/06 A2992 RMK SC8 SLP150

CYXE;2007-10-13 16:00;CYXE 131600Z 14005KT 12SM -SHRA BKN030 OVC072 08/07 A2992 RMK SC5AC3 BR SLP150

CYXE;2007-10-13 17:00;CYXE 131700Z 23005KT 12SM -SHRA FEW014 SCT030 OVC070 08/07 A2994 RMK SF2SC2AC4 BR SLP155

CYXE;2007-10-13 17:49;CYXE 131749Z 21005KT 15SM FEW013 BKN055 OVC090 09/ RMK SF1SC5AC2

CYXE;2007-10-13 18:00;CYXE 131800Z CCA 20004KT 15SM VCSH FEW025 BKN055 OVC110 09/08 A2994 RMK SC2SC5AC1 SLP154

CYXE;2007-10-13 19:00;CYXE 131900Z 19008KT 15SM FEW013 BKN023 BKN110 10/08 A2994 RMK SF1SC5AC1 SLP153

CYXE;2007-10-13 20:00;CYXE 132000Z 18011KT 15SM FEW015 BKN040 10/07 A2993 RMK CU1SC5 SLP151

CYXE;2007-10-13 21:00;CYXE 132100Z 18006KT 15SM BKN040 11/07 A2994 RMK SC5 CVCTV CLD ASOCTD SLP152

CYXE;2007-10-13 22:00;CYXE 132200Z 15007KT 15SM SCT030 BKN040 12/07 A2994 RMK SC4SC2 SLP152

CYXE;2007-10-13 23:00;CYXE 132300Z 14005KT 15SM FEW030 SCT040 11/07 A2994 RMK SC2SC2 SLP152

CYXE;2007-10-14 00:00;CYXE 140000Z 13006KT 15SM FEW030 SCT070 SCT250 09/07 A2995 RMK SC2AC2CI0 SLP158

CYXE;2007-10-14 01:00;CYXE 140100Z 09005KT 15SM SCT070 BKN250 06/05 A2996 RMK AC4CI0 SLP162

CYXE;2007-10-14 02:00;CYXE 140200Z 10006KT 15SM FEW040 SCT070 05/05 A2997 RMK SC2AC2 SLP165

CYXE;2007-10-14 03:00;CYXE 140300Z 13005KT 15SM FEW030 06/06 A2998 RMK SC2 SLP171

CYXE;2007-10-14 04:00;CYXE 140400Z 16005KT 15SM SKC 05/05 A2998 RMK SLP172

CYXE;2007-10-14 05:00;CYXE 140500Z 19005KT 15SM SKC 05/05 A2999 RMK SLP173

CYXE;2007-10-14 05:51;CYXE 140551Z CCA 19004KT 6SM BR FEW003 04/ RMK SF0

CYXE;2007-10-14 06:00;CYXE 140600Z 18005KT 6SM R09/1600VP6000FT/D BR FEW003 03/03 A2999 RMK SF1 SLP177

CYXE;2007-10-14 06:32;CYXE 140632Z 20003KT 3SM R09/3000VP6000FT/U BR OVC001 03/ RMK ST8 VIS W-N 1/4

CYXE;2007-10-14 06:39;CYXE 140639Z 21003KT 1/4SM R09/2200VP6000FT/D FG VV001 03/ RMK FG8 VIS E 1

CYXE;2007-10-14 06:46;CYXE 140646Z 22003KT 0SM R09/1400V4000FT/D FG VV001 04/ RMK FG8

CYXE;2007-10-14 07:00;CYXE 140700Z 23005KT 0SM R09/1200FT/N FG VV001 04/04 A3001 RMK FG8 SLP181

CYXE;2007-10-14 08:00;CYXE 140800Z 23003KT 0SM R09/0900FT/N FG VV001 02/02 A3001 RMK FG8 SLP183

CYXE;2007-10-14 09:00;CYXE 140900Z 18002KT 0SM R09/0700FT/N FG VV001 02/02 A3002 RMK FG8 SLP185

CYXE;2007-10-14 10:00;CYXE 141000Z 21002KT 0SM R09/0700V0900FT/N FG VV001 03/03 A3003 RMK FG8 SLP189

CYXE;2007-10-14 11:00;CYXE 141100Z 24004KT 1/8SM R09/1600FT/N FG VV001 04/04 A3003 RMK FG8 SLP189

CYXE;2007-10-14 12:00;CYXE 141200Z 00000KT 1/8SM R09/2800FT/N FG VV001 04/04 A3004 RMK FG8 SLP193

CYXE;2007-10-14 12:12;CYXE 141212Z 00000KT 1/4SM R09/3000FT/N FG VV001 04/ RMK FG8 VIS N-W 1/2

CYXE;2007-10-14 12:26;CYXE 141226Z 23002KT 1/2SM R09/3000V5000FT/U FG VV001 04/ RMK FG8

CYXE;2007-10-14 12:52;CYXE 141252Z 25002KT 3/4SM R09/3500FT/D BR VV001 05/ RMK FG8

CYXE;2007-10-14 13:00;CYXE 141300Z 27002KT 3/4SM R09/3000FT/N BR VV001 05/05 A3005 RMK FG8 SLP195

CYXE;2007-10-14 14:00;CYXE 141400Z 30003KT 3/8SM R09/3500VP6000FT/U FG VV001 04/04 A3006 RMK FG8 SLP199

CYXE;2007-10-14 14:18;CYXE 141418Z 30003KT 3/4SM R09/P6000FT/U BR VV002 05/ RMK FG8

CYXE;2007-10-14 14:38;CYXE 141438Z 27002KT 3/4SM R09/P6000FT/N BR VV001 05/ RMK FG8

CYXE;2007-10-14 14:52;CYXE 141452Z 30004KT 3/4SM R09/5000FT/D -DZ BR VV001 05/ RMK FG8

CYXE;2007-10-14 15:00;CYXE 141500Z 30003KT 3/4SM R09/4500FT/N -DZ BR VV001 05/05 A3007 RMK FG8 SLP203

CYXE;2007-10-14 15:15;CYXE 141515Z 27004KT 1SM R09/4000V5500FT/U -DZ BR VV001 05/ RMK FG8

CYXE;2007-10-14 15:35;CYXE 141535Z 28003KT 1 1/2SM BR OVC002 06/ RMK FG4SF4

CYXE;2007-10-14 16:00;CYXE 141600Z 28003KT 2SM BR OVC003 06/06 A3008 RMK SF8 CIG VRB 2-4 SLP207

CYXE;2007-10-14 16:43;CYXE 141643Z 30002KT 3SM BR OVC003 06/ RMK ST8 CIG VRB 2-4

CYXE;2007-10-14 17:00;CYXE 141700Z 29002KT 4SM BR OVC003 06/06 A3008 RMK SF8 CIG VRB 2-4 SLP206

CYXE;2007-10-14 17:25;CYXE 141725Z 00000KT 4SM BR OVC004 06/ RMK SF8

CYXE;2007-10-14 17:48;CYXE 141748Z 25004KT 4SM BR OVC005 06/ RMK SF8

CYXE;2007-10-14 18:00;CYXE 141800Z 12002KT 5SM BR OVC005 06/06 A3008 RMK SF8 SLP208

CYXE;2007-10-14 18:24;CYXE 141824Z 18002KT 8SM BKN007 07/ RMK SC7 BR RGD CIG

CYXE;2007-10-14 19:00;CYXE 141900Z 18006KT 15SM BKN008 09/08 A3007 RMK SC6 RGD CIG SLP205

CYXE;2007-10-14 20:00;CYXE 142000Z 16003KT 15SM FEW010 10/07 A3005 RMK SC2 SLP199

CYXE;2007-10-14 21:00;CYXE 142100Z 10003KT 15SM SKC 11/07 A3004 RMK SLP193

CYXE;2007-10-14 22:00;CYXE 142200Z 14004KT 15SM SKC 12/07 A3004 RMK SLP193

CYXE;2007-10-14 23:00;CYXE 142300Z 12005KT 15SM SKC 12/07 A3004 RMK SLP191

CYXE;2007-10-15 00:00;CYXE 150000Z 12007KT 15SM FEW100 10/07 A3003 RMK AC1 SLP190

CYXE;2007-10-15 01:00;CYXE 150100Z 09006KT 15SM FEW095 06/06 A3003 RMK AC1 SLP189

CYXE;2007-10-15 02:00;CYXE 150200Z 10005KT 15SM SKC 05/05 A3003 RMK SLP188

CYXE;2007-10-15 03:00;CYXE 150300Z 10006KT 15SM SKC 05/05 A3003 RMK SLP188

CYXE;2007-10-15 04:00;CYXE 150400Z 14006KT 15SM SKC 06/05 A3002 RMK SLP186

CYXE;2007-10-15 06:00;CYXE 150600Z 16006KT 15SM SKC 06/05 A3000 RMK SLP180

CYXE;2007-10-15 07:00;CYXE 150700Z 13005KT 15SM SKC 05/04 A3000 RMK SLP179

CYXE;2007-10-15 08:00;CYXE 150800Z 15005KT 15SM SKC 05/03 A2999 RMK SLP176

CYXE;2007-10-15 09:00;CYXE 150900Z 15005KT 15SM SKC 04/03 A2999 RMK SLP174

CYXE;2007-10-15 10:00;CYXE 151000Z 16006KT 15SM SKC 04/03 A2999 RMK SLP173

CYXE;2007-10-15 11:00;CYXE 151100Z 17008KT 15SM SKC 05/04 A2999 RMK SLP175

CYXE;2007-10-15 12:00;CYXE 151200Z 17009KT 15SM SKC 05/03 A2999 RMK SLP174

CYXE;2007-10-15 13:00;CYXE 151300Z 17010KT 15SM SKC 05/03 A2999 RMK SLP172

CYXE;2007-10-15 14:00;CYXE 151400Z 16010KT 15SM SKC 05/03 A2999 RMK SLP172

CYXE;2007-10-15 15:00;CYXE 151500Z 16008KT 15SM SKC 07/04 A2999 RMK SLP176

CYXE;2007-10-15 16:00;CYXE 151600Z 17011G16KT 15SM FEW250 10/05 A2998 RMK CI1 SLP173

CYXE;2007-10-15 17:00;CYXE 151700Z 19013G20KT 15SM FEW250 12/04 A2997 RMK CI1 SLP169

CYXE;2007-10-15 18:00;CYXE 151800Z 19014G19KT 15SM FEW250 14/04 A2995 RMK CI0 SLP155

CYXE;2007-10-15 19:00;CYXE 151900Z 18014G20KT 15SM FEW250 15/05 A2993 RMK CI0 SLP151

CYXE;2007-10-15 20:00;CYXE 152000Z 19014KT 15SM FEW250 16/04 A2991 RMK CI1 SLP145

CYXE;2007-10-15 21:00;CYXE 152100Z 17017KT 15SM FEW250 16/03 A2990 RMK CI1 SLP140

CYXE;2007-10-15 22:00;CYXE 152200Z 16015KT 15SM FEW250 16/03 A2989 RMK CI1 SLP137

CYXE;2007-10-15 23:00;CYXE 152300Z 17018G26KT 15SM FEW250 16/02 A2989 RMK CI1 SLP135

CYXE;2007-10-16 00:00;CYXE 160000Z 17016G22KT 15SM FEW250 14/02 A2988 RMK CI1 SLP133

CYXE;2007-10-16 01:00;CYXE 160100Z 16016KT 15SM FEW250 13/03 A2988 RMK CI1 SLP132

CYXE;2007-10-16 02:00;CYXE 160200Z 15013G18KT 15SM SKC 11/03 A2987 RMK SLP130

CYXE;2007-10-16 03:00;CYXE 160300Z 15013KT 15SM SKC 10/02 A2987 RMK SLP130

CYXE;2007-10-16 04:00;CYXE 160400Z 16013KT 15SM SKC 09/01 A2987 RMK SLP131

CYXE;2007-10-16 05:00;CYXE 160500Z 16014KT 15SM SKC 09/01 A2986 RMK SLP128

CYXE;2007-10-16 06:00;CYXE 160600Z 16013G19KT 15SM SKC 08/01 A2986 RMK SLP124

CYXE;2007-10-16 07:00;CYXE 160700Z 16012G17KT 15SM SKC 08/01 A2986 RMK SLP124

CYXE;2007-10-16 08:00;CYXE 160800Z 17012KT 15SM FEW093 08/01 A2986 RMK AC1 SLP123

CYXE;2007-10-16 09:00;CYXE 160900Z 17011G18KT 15SM SKC 08/01 A2985 RMK SLP120

CYXE;2007-10-16 10:00;CYXE 161000Z 15012KT 15SM SKC 07/01 A2984 RMK SLP117

CYXE;2007-10-16 11:00;CYXE 161100Z 13007KT 15SM SKC 05/01 A2984 RMK SLP116

CYXE;2007-10-16 12:00;CYXE 161200Z 14010KT 15SM SKC 03/01 A2982 RMK SLP115

CYXE;2007-10-16 13:00;CYXE 161300Z 14010KT 15SM FEW220 04/01 A2981 RMK CI0 SLP110

CYXE;2007-10-16 14:00;CYXE 161400Z 13011KT 15SM FEW220 03/01 A2981 RMK CI2 SLP110

CYXE;2007-10-16 15:00;CYXE 161500Z 12009KT 15SM SCT280 05/02 A2981 RMK CI2 SLP111

CYXE;2007-10-16 16:00;CYXE 161600Z 14014KT 15SM SCT280 08/02 A2980 RMK CI2 SLP109

CYXE;2007-10-16 17:00;CYXE 161700Z 16015KT 15SM FEW160 SCT280 11/01 A2979 RMK AC1CI1 SLP104

CYXE;2007-10-16 18:00;CYXE 161800Z 16014G19KT 15SM FEW160 SCT280 13/00 A2976 RMK AC1CI1 SLP092

CYXE;2007-10-16 19:00;CYXE 161900Z 15020G26KT 15SM FEW160 SCT280 13/00 A2973 RMK AC1CC1 SLP083

CYXE;2007-10-16 20:00;CYXE 162000Z 15017G22KT 15SM FEW160 BKN240 13/01 A2971 RMK AC1CC2 SLP076

CYXE;2007-10-16 21:00;CYXE 162100Z 14017KT 15SM FEW160 SCT240 14/01 A2969 RMK AC2CC1 SLP066

CYXE;2007-10-16 22:00;CYXE 162200Z 14014G19KT 15SM SCT250 14/02 A2967 RMK CI2 SLP059

CYXE;2007-10-16 23:00;CYXE 162300Z 14013G19KT 15SM FEW250 13/01 A2965 RMK CI2 SLP054

CYXE;2007-10-17 00:00;CYXE 170000Z 14010KT 15SM SCT250 11/00 A2964 RMK CI2 SLP053

CYXE;2007-10-17 01:00;CYXE 170100Z 12009G15KT 15SM SCT250 09/00 A2963 RMK CI1 SLP049

CYXE;2007-10-17 02:00;CYXE 170200Z 12012KT 15SM SCT250 09/01 A2962 RMK CI1 SLP047

CYXE;2007-10-17 03:00;CYXE 170300Z 14010KT 15SM FEW250 08/01 A2961 RMK CI1 SLP046

CYXE;2007-10-17 04:00;CYXE 170400Z 14010KT 15SM SCT250 07/01 A2960 RMK CI1 SLP043

CYXE;2007-10-17 05:00;CYXE 170500Z 16010KT 15SM SCT250 07/01 A2960 RMK CI2 SLP042

CYXE;2007-10-17 06:00;CYXE 170600Z 14009KT 15SM FEW250 06/02 A2958 RMK CI0 SLP031

CYXE;2007-10-17 07:00;CYXE 170700Z 14009G15KT 15SM FEW250 05/02 A2958 RMK CI0 SLP029

CYXE;2007-10-17 08:00;CYXE 170800Z 15011KT 15SM FEW066 BKN079 05/02 A2957 RMK AC2AC4 SLP026

CYXE;2007-10-17 09:00;CYXE 170900Z 15009KT 15SM BKN066 OVC079 06/03 A2955 RMK AC6AC2 SLP021

CYXE;2007-10-17 10:00;CYXE 171000Z 14010KT 15SM FEW060 SCT067 OVC096 06/03 A2954 RMK SC2AC2AC2 SLP016

CYXE;2007-10-17 11:00;CYXE 171100Z 13008KT 15SM FEW067 BKN096 05/03 A2953 RMK AC2AC4 SLP013

CYXE;2007-10-17 12:00;CYXE 171200Z 14008KT 15SM OVC110 05/04 A2953 RMK AC6 SLP014

CYXE;2007-10-17 13:00;CYXE 171300Z 14010KT 15SM BKN016 OVC021 06/04 A2952 RMK SC6SC2 SLP011

CYXE;2007-10-17 13:46;CYXE 171346Z 14009KT 15SM BKN014 BKN062 OVC120 06/ RMK SC5SC2AC1

CYXE;2007-10-17 14:00;CYXE 171400Z 14008KT 15SM BKN014 BKN060 OVC120 06/05 A2951 RMK SC5SC2AC1 SLP010

CYXE;2007-10-17 15:00;CYXE 171500Z 14009KT 15SM OVC015 07/05 A2951 RMK SC8 BR SLP009

CYXE;2007-10-17 15:50;CYXE 171550Z 14009KT 12SM BKN012 OVC048 07/ RMK SC5SC3 BR

CYXE;2007-10-17 16:00;CYXE 171600Z 14009KT 8SM BKN012 OVC048 07/05 A2951 RMK SC5SC3 BR SLP010

CYXE;2007-10-17 17:00;CYXE 171700Z 14007KT 7SM OVC012 07/06 A2951 RMK SC8 BR SLP009

CYXE;2007-10-17 17:16;CYXE 171716Z 15008KT 7SM OVC010 08/ RMK SC8 BR

CYXE;2007-10-17 18:00;CYXE 171800Z 15009KT 8SM OVC010 08/06 A2950 RMK SC8 BR SLP007

CYXE;2007-10-17 18:48;CYXE 171848Z 16009KT 12SM OVC014 09/ RMK SC8 BR

CYXE;2007-10-17 19:00;CYXE 171900Z 15011G16KT 12SM OVC014 09/06 A2950 RMK SC8 BR SLP006

CYXE;2007-10-17 20:00;CYXE 172000Z 18011KT 12SM OVC016 09/06 A2950 RMK SC8 BR SLP005

CYXE;2007-10-17 21:00;CYXE 172100Z 17009KT 12SM OVC018 10/06 A2950 RMK SC8 SLP007

CYXE;2007-10-17 22:00;CYXE 172200Z 14010KT 15SM OVC020 10/06 A2952 RMK SC8 SLP011

CYXE;2007-10-17 23:00;CYXE 172300Z 13008KT 15SM BKN015 OVC080 09/07 A2952 RMK SC5AC3 SLP011

CYXE;2007-10-18 00:00;CYXE 180000Z 13007KT 10SM OVC016 09/07 A2953 RMK SC8 BR SLP015

CYXE;2007-10-18 00:27;CYXE 180027Z 13006KT 10SM OVC014 08/ RMK SC8 BR

CYXE;2007-10-18 01:00;CYXE 180100Z 13004KT 10SM OVC017 08/07 A2953 RMK SC8 BR SLP016

CYXE;2007-10-18 02:00;CYXE 180200Z 12005KT 10SM FEW013 OVC021 08/07 A2954 RMK SC1SC7 BR SLP019

CYXE;2007-10-18 03:00;CYXE 180300Z 15003KT 15SM OVC023 08/07 A2955 RMK SC8 SLP021

CYXE;2007-10-18 04:00;CYXE 180400Z 13004KT 15SM OVC023 08/07 A2955 RMK SC8 SLP023

CYXE;2007-10-18 05:00;CYXE 180500Z 12004KT 12SM FEW010 OVC023 08/07 A2956 RMK SC1SC7 BR SLP025

CYXE;2007-10-18 06:00;CYXE 180600Z 12004KT 15SM OVC023 08/07 A2956 RMK SC8 SLP026

CYXE;2007-10-18 07:00;CYXE 180700Z 13003KT 15SM FEW010 OVC025 08/07 A2956 RMK SC1SC7 SLP026

CYXE;2007-10-18 08:00;CYXE 180800Z 12003KT 15SM FEW010 OVC027 07/07 A2956 RMK SC1SC7 SLP027

CYXE;2007-10-18 09:00;CYXE 180900Z 09002KT 6SM BR FEW010 OVC027 07/07 A2957 RMK SF1SC8 SLP027

CYXE;2007-10-18 10:00;CYXE 181000Z 06002KT 4SM BR FEW010 OVC027 07/07 A2957 RMK SF1SC8 SLP028

CYXE;2007-10-18 11:00;CYXE 181100Z 01002KT 4SM BR OVC025 07/07 A2959 RMK SC8 SLP033

CYXE;2007-10-18 11:02;CYXE 181102Z 02002KT 4SM BR BKN009 OVC025 07/ RMK SF5SC3

CYXE;2007-10-18 12:00;CYXE 181200Z 04003KT 4SM BR OVC009 07/07 A2960 RMK SF8 SLP038

CYXE;2007-10-18 12:14;CYXE 181214Z 01002KT 4SM BR SCT008 OVC025 07/ RMK SF4SC4

CYXE;2007-10-18 13:00;CYXE 181300Z 34002KT 3SM BR OVC027 07/07 A2961 RMK SC8 SLP041

CYXE;2007-10-18 13:45;CYXE 181345Z CCA 29004KT 1SM -DZ BR OVC013 07/ RMK SF8 -VIA YEG FIC-

CYXE;2007-10-18 14:00;CYXE 181400Z 32005KT 1 1/2SM -DZ BR FEW002 OVC010 07/07 A2961 RMK SF2ST6 SLP043

CYXE;2007-10-18 14:26;CYXE 181426Z 33005KT 2SM -RA BR FEW004 OVC020 07/ RMK SF2SC6

CYXE;2007-10-18 15:00;CYXE 181500Z 32005KT 2SM -RA BR SCT002 OVC013 07/07 A2962 RMK SF4SC4 SLP045

CYXE;2007-10-18 15:17;CYXE 181517Z 31006KT 2SM -RA BR BKN003 OVC011 08/ RMK SF6SC2

CYXE;2007-10-18 16:00;CYXE 181600Z 30007KT 2SM -RA BR OVC003 OVC011 07/07 A2963 RMK SF6SC2 SLP049

CYXE;2007-10-18 16:28;CYXE 181628Z 31008KT 2 1/2SM -RA BR BKN004 OVC011 08/ RMK SF6SC2

CYXE;2007-10-18 17:00;CYXE 181700Z 30008KT 3SM -RA BR OVC004 OVC020 08/08 A2963 RMK SF6SC2 SLP049

CYXE;2007-10-18 17:33;CYXE 181733Z 30007KT 5SM -RA BR BKN005 OVC020 08/ RMK SF6SC2

CYXE;2007-10-18 18:00;CYXE 181800Z 29009KT 5SM -RA BR BKN006 OVC020 08/08 A2963 RMK SF6SC2 SLP049

CYXE;2007-10-18 18:39;CYXE 181839Z 31009KT 6SM -RA BR BKN010 BKN040 09/ RMK SC6SC1

CYXE;2007-10-18 19:00;CYXE 181900Z 32011KT 10SM -RA BKN012 BKN050 OVC280 09/08 A2962 RMK SC6SC1CI0 SLP046

CYXE;2007-10-18 20:00;CYXE 182000Z 31013KT 15SM -RA SCT012 OVC035 10/06 A2961 RMK SC4SC3 SLP042

CYXE;2007-10-18 20:24;CYXE 182024Z 31013KT 15SM FEW012 BKN023 BKN030 11/ RMK SC2SC3SC2

CYXE;2007-10-18 21:00;CYXE 182100Z 31011KT 15SM FEW012 BKN026 BKN045 10/06 A2960 RMK SC2SC4SC2 SLP038

CYXE;2007-10-18 22:00;CYXE 182200Z 32013KT 15SM FEW025 BKN050 11/06 A2960 RMK SC2SC4 SLP038

CYXE;2007-10-18 23:00;CYXE 182300Z 33009KT 15SM FEW025 FEW050 BKN250 11/05 A2961 RMK SC1SC1CI2 SLP040

CYXE;2007-10-19 00:00;CYXE 190000Z 32005KT 15SM FEW025 SCT250 08/04 A2961 RMK SC2CI0 SLP042

CYXE;2007-10-19 01:00;CYXE 190100Z 28003KT 15SM FEW050 06/04 A2960 RMK SC1 SLP039

CYXE;2007-10-19 02:00;CYXE 190200Z 00000KT 15SM SKC 05/04 A2959 RMK SLP036

CYXE;2007-10-19 03:00;CYXE 190300Z 24004KT 15SM SKC 04/04 A2957 RMK SLP033

CYXE;2007-10-19 03:43;CYXE 190343Z 24007KT 15SM SKC 02/

CYXE;2007-10-19 04:00;CYXE 190400Z 25006KT 15SM SKC 02/02 A2957 RMK BR PTCHS SLP032

CYXE;2007-10-19 05:00;CYXE 190500Z 25005KT 15SM SKC 01/01 A2956 RMK SLP028

CYXE;2007-10-19 06:00;CYXE 190600Z 24004KT 15SM MIFG SKC M01/M01 A2954 RMK SLP024

CYXE;2007-10-19 07:00;CYXE 190700Z 17002KT 12SM MIFG SKC M00/M00 A2953 RMK SLP021

CYXE;2007-10-19 08:00;CYXE 190800Z 10003KT 12SM MIFG SKC M01/M01 A2952 RMK SLP017

CYXE;2007-10-19 09:00;CYXE 190900Z 15003KT 10SM PRFG SKC M01/M01 A2951 RMK SLP012

CYXE;2007-10-19 10:00;CYXE 191000Z 16005KT 10SM R09/2400FT/U PRFG SKC M00/M00 A2949 RMK FG PTCHS W-N SLP005

CYXE;2007-10-19 11:00;CYXE 191100Z 19005KT 12SM MIFG SKC M02/M02 A2949 RMK SLP004

CYXE;2007-10-19 12:00;CYXE 191200Z 16004KT 15SM SKC M02/M03 A2947 RMK SLP001

CYXE;2007-10-19 13:00;CYXE 191300Z 14004KT 15SM SKC M02/M03 A2945 RMK SLP995

CYXE;2007-10-19 14:00;CYXE 191400Z 18003KT 15SM FEW100 M02/M03 A2944 RMK AC1 SLP992

CYXE;2007-10-19 15:00;CYXE 191500Z 11003KT 15SM FEW100 M00/M00 A2943 RMK AC1 FG BNK DIST N SLP987

CYXE;2007-10-19 16:00;CYXE 191600Z 12004KT 15SM FEW002 FEW100 05/02 A2941 RMK SF0AC1 SF DIST NW SLP980

CYXE;2007-10-19 17:00;CYXE 191700Z 16005KT 15SM FEW100 09/03 A2941 RMK AC1 SLP980

CYXE;2007-10-19 18:00;CYXE 191800Z 16006KT 15SM FEW100 10/04 A2939 RMK AC1 SLP969

CYXE;2007-10-19 19:00;CYXE 191900Z 18004KT 15SM FEW100 12/03 A2937 RMK AC1 SLP962

CYXE;2007-10-19 20:00;CYXE 192000Z 15005KT 15SM FEW020 FEW100 13/01 A2934 RMK SC1AC1 SLP955

CYXE;2007-10-19 21:00;CYXE 192100Z 14002KT 15SM FEW020 FEW100 SCT250 14/M01 A2933 RMK SC1AC2CI1 SLP948

CYXE;2007-10-19 22:00;CYXE 192200Z 10003KT 15SM R09/2800V5500FT/D FEW100 BKN250 14/M01 A2932 RMK AC2CI2 SLP947

CYXE;2007-10-19 23:00;CYXE 192300Z 14004KT 15SM R09/5000FT/D FEW100 BKN250 12/M00 A2932 RMK AC2CI1 SLP946

CYXE;2007-10-20 00:00;CYXE 200000Z 11007KT 15SM R09/5500FT/U FEW100 BKN250 08/00 A2932 RMK AC2CI1 SLP948

CYXE;2007-10-20 01:00;CYXE 200100Z 09004KT 15SM FEW100 FEW250 07/02 A2932 RMK AC1CI0 SLP950

CYXE;2007-10-20 02:00;CYXE 200200Z 06006KT 15SM FEW250 03/01 A2932 RMK CI0 SLP949

CYXE;2007-10-20 03:00;CYXE 200300Z 05007KT 15SM SKC 02/00 A2933 RMK SLP954

CYXE;2007-10-20 04:00;CYXE 200400Z 07006KT 15SM R09/5500FT/D SKC 01/M00 A2933 RMK SLP954

CYXE;2007-10-20 05:00;CYXE 200500Z 06006KT 15SM SKC M00/M01 A2932 RMK SLP953

CYXE;2007-10-20 06:00;CYXE 200600Z 07005KT 15SM SKC M00/M01 A2932 RMK SLP945

CYXE;2007-10-20 07:00;CYXE 200700Z 05006KT 15SM SKC M01/M02 A2932 RMK SLP945

CYXE;2007-10-20 08:00;CYXE 200800Z 05007KT 15SM SKC M01/M02 A2932 RMK SLP948

CYXE;2007-10-20 09:00;CYXE 200900Z 06004KT 15SM SKC M01/M02 A2933 RMK SLP950

CYXE;2007-10-20 10:00;CYXE 201000Z 00000KT 15SM SKC M03/M03 A2934 RMK SLP953

CYXE;2007-10-20 11:00;CYXE 201100Z 25004KT 15SM SKC M03/M04 A2936 RMK SLP957

CYXE;2007-10-20 12:00;CYXE 201200Z 35007KT 15SM SKC M04/M05 A2937 RMK SLP967

CYXE;2007-10-20 13:00;CYXE 201300Z 04004KT 15SM FEW120 SCT280 M03/M03 A2938 RMK AC2CI0 SLP970

CYXE;2007-10-20 14:00;CYXE 201400Z 23003KT 15SM SCT095 BKN250 M03/M04 A2939 RMK AC4CI0 SLP975

CYXE;2007-10-20 15:00;CYXE 201500Z 06002KT 15SM BKN095 BKN250 01/00 A2940 RMK AC6CI0 ACC ASOCTD SLP979

CYXE;2007-10-20 16:00;CYXE 201600Z 32007KT 15SM SCT095 BKN250 02/01 A2942 RMK AC3CI0 SLP986

CYXE;2007-10-20 17:00;CYXE 201700Z 30003KT 15SM BKN084 BKN250 04/02 A2945 RMK AC5CI0 SLP994

CYXE;2007-10-20 18:00;CYXE 201800Z 34005KT 15SM SCT084 BKN250 06/02 A2947 RMK AC3CS3 SLP000

CYXE;2007-10-20 19:00;CYXE 201900Z 30008KT 15SM FEW012 BKN079 BKN250 07/03 A2949 RMK SF1AC6CI0 ACC EMBD SLP007

CYXE;2007-10-20 20:00;CYXE 202000Z 28009KT 15SM SCT050 BKN080 OVC250 07/02 A2951 RMK SC3AC3CS0 SLP015

CYXE;2007-10-20 20:24;CYXE 202024Z 29009KT 15SM -RA SCT050 OVC080 06/ RMK SC3AC5

CYXE;2007-10-20 21:00;CYXE 202100Z 31008KT 15SM -RA SCT030 BKN050 OVC080 06/02 A2954 RMK SC3SC2AC2 SLP025

CYXE;2007-10-20 21:39;CYXE 202139Z 31007KT 15SM FEW030 SCT050 OVC080 07/ RMK SC2SC2AC4

CYXE;2007-10-20 22:00;CYXE 202200Z 32005KT 15SM BKN054 OVC078 06/02 A2956 RMK SC5AC3 SLP032

CYXE;2007-10-20 22:28;CYXE 202228Z 30003KT 15SM -RA BKN037 OVC080 06/ RMK SC6AC2

CYXE;2007-10-20 23:00;CYXE 202300Z 30004KT 15SM -RA BKN033 OVC080 05/04 A2959 RMK SC6AC2 SLP040

CYXE;2007-10-21 00:00;CYXE 210000Z 31004KT 15SM -RA BKN031 OVC070 05/04 A2962 RMK SC6AC2 SLP055

CYXE;2007-10-21 01:00;CYXE 210100Z 30007KT 15SM -RA OVC038 04/04 A2965 RMK SC8 SLP066

CYXE;2007-10-21 01:20;CYXE 210120Z 31006KT 15SM OVC065 04/ RMK SC8

CYXE;2007-10-21 02:00;CYXE 210200Z 29007KT 15SM BKN065 BKN100 03/02 A2968 RMK SC6AC1 SLP075

CYXE;2007-10-21 03:00;CYXE 210300Z 28007KT 15SM BKN088 01/01 A2970 RMK AC6 SLP082

CYXE;2007-10-21 04:00;CYXE 210400Z 27006KT 15SM BKN080 01/01 A2972 RMK AC6 SLP089

CYXE;2007-10-21 05:00;CYXE 210500Z 30009KT 15SM BKN092 02/01 A2975 RMK AC5 SLP097

CYXE;2007-10-21 06:00;CYXE 210600Z 30007KT 15SM SCT070 BKN240 01/01 A2977 RMK AC2CI0 SLP103

CYXE;2007-10-21 07:00;CYXE 210700Z 30009KT 15SM FEW070 BKN240 02/01 A2980 RMK AC2CI0 SLP113

CYXE;2007-10-21 08:00;CYXE 210800Z 31007KT 15SM FEW080 BKN240 01/00 A2983 RMK AC2CI0 SLP122

CYXE;2007-10-21 09:00;CYXE 210900Z 30007KT 15SM FEW090 SCT240 M00/M01 A2986 RMK AC2CI0 SLP133

CYXE;2007-10-21 10:00;CYXE 211000Z 30005KT 15SM FEW090 M01/M02 A2988 RMK AC2 SLP142

CYXE;2007-10-21 11:00;CYXE 211100Z 00000KT 15SM FEW090 M02/M04 A2992 RMK AC1 SLP153

CYXE;2007-10-21 12:00;CYXE 211200Z 30006KT 15SM BKN060 M02/M02 A2994 RMK SC3 SLP163

CYXE;2007-10-21 13:00;CYXE 211300Z 30006KT 15SM FEW060 FEW090 M03/M03 A2996 RMK SC2AC1 SLP169

CYXE;2007-10-21 14:00;CYXE 211400Z 28006KT 15SM FEW052 SCT090 SCT250 M03/M04 A2999 RMK SC2AC1CI0 SLP180

CYXE;2007-10-21 15:00;CYXE 211500Z 29007KT 15SM FEW040 SCT090 BKN250 M01/M02 A3002 RMK SC1AC2CI0 SLP193

CYXE;2007-10-21 16:00;CYXE 211600Z 30008KT 15SM FEW090 SCT250 01/M01 A3004 RMK AC2CI0 SLP200

CYXE;2007-10-21 17:00;CYXE 211700Z 30009KT 15SM FEW250 04/02 A3006 RMK CI2 SLP206

CYXE;2007-10-21 18:00;CYXE 211800Z 29011KT 15SM FEW100 SCT250 06/02 A3007 RMK AC1CI2 SLP206

CYXE;2007-10-21 19:00;CYXE 211900Z 30013KT 15SM FEW080 FEW250 07/02 A3007 RMK AC1CI1 SLP206

CYXE;2007-10-21 20:00;CYXE 212000Z 30011G17KT 15SM FEW035 FEW080 SCT250 09/01 A3007 RMK CU1AC2CI0 SLP205

CYXE;2007-10-21 21:00;CYXE 212100Z 30012KT 15SM FEW040 FEW076 SCT250 09/M00 A3008 RMK CU1AC1CI1 SLP206

CYXE;2007-10-21 22:00;CYXE 212200Z 29011KT 15SM FEW040 FEW077 SCT250 09/01 A3008 RMK CU2AC1CI0 SLP206

CYXE;2007-10-21 23:00;CYXE 212300Z 30010G16KT 15SM FEW040 FEW070 09/M00 A3008 RMK CU1AC1 SLP209

CYXE;2007-10-22 00:00;CYXE 220000Z 28008KT 15SM FEW040 FEW250 05/M01 A3009 RMK SC1CI0 SLP215

CYXE;2007-10-22 01:00;CYXE 220100Z 27007KT 15SM FEW250 02/M02 A3009 RMK CI0 SLP215

CYXE;2007-10-22 02:00;CYXE 220200Z 26008KT 15SM FEW250 01/M02 A3009 RMK CI0 SLP215

CYXE;2007-10-22 03:00;CYXE 220300Z 25007KT 15SM FEW250 00/M02 A3009 RMK CI1 SLP218

CYXE;2007-10-22 04:00;CYXE 220400Z 25007KT 15SM BKN250 M02/M03 A3009 RMK CI2 SLP218

CYXE;2007-10-22 05:00;CYXE 220500Z 24006KT 15SM SCT250 M02/M03 A3008 RMK CI1 SLP213

CYXE;2007-10-22 06:00;CYXE 220600Z 24006KT 15SM SCT250 M03/M04 A3007 RMK CI0 SLP206

CYXE;2007-10-22 07:00;CYXE 220700Z 23006KT 15SM BKN260 M03/M04 A3007 RMK CI2 SLP206

CYXE;2007-10-22 08:00;CYXE 220800Z 20005KT 15SM BKN260 M02/M04 A3005 RMK CI2 SLP201

CYXE;2007-10-22 09:00;CYXE 220900Z 20006KT 15SM BKN260 M02/M04 A3004 RMK CI2 SLP197

CYXE;2007-10-22 10:00;CYXE 221000Z 18005KT 15SM SCT260 M02/M04 A3002 RMK CI2 SLP189

CYXE;2007-10-22 11:00;CYXE 221100Z 18004KT 15SM SCT260 M02/M04 A3001 RMK CI2 SLP187

CYXE;2007-10-22 12:00;CYXE 221200Z 16003KT 15SM BKN260 M02/M03 A2999 RMK CI2 SLP182

CYXE;2007-10-22 13:00;CYXE 221300Z 19006KT 15SM FEW100 BKN260 M01/M03 A2998 RMK AC2CI1 SLP176

CYXE;2007-10-22 14:00;CYXE 221400Z 19007KT 15SM FEW090 BKN260 M01/M03 A2996 RMK AC2CI1 SLP172

CYXE;2007-10-22 15:00;CYXE 221500Z 21008KT 15SM BKN260 00/M02 A2996 RMK CI5 SLP171

CYXE;2007-10-22 16:00;CYXE 221600Z 23011KT 15SM SCT092 BKN260 01/M01 A2995 RMK AC4CI2 SLP168

CYXE;2007-10-22 17:00;CYXE 221700Z 23007KT 15SM SCT094 BKN260 03/M00 A2996 RMK AC3CI2 SLP171

CYXE;2007-10-22 18:00;CYXE 221800Z 24009KT 15SM SCT094 BKN260 05/M00 A2995 RMK AC3CI2 SLP167

CYXE;2007-10-22 19:00;CYXE 221900Z 22010KT 15SM SCT094 BKN260 08/M00 A2993 RMK AC2CI2 SLP161

CYXE;2007-10-22 20:00;CYXE 222000Z 24008KT 15SM SCT120 BKN260 09/00 A2991 RMK AC2CI2 SLP155

CYXE;2007-10-22 21:00;CYXE 222100Z 23007KT 15SM FEW090 BKN120 BKN260 11/00 A2989 RMK AC1AC4CC1 SLP144

CYXE;2007-10-22 22:00;CYXE 222200Z 19006KT 15SM FEW087 BKN120 BKN250 12/01 A2988 RMK AC2AC2CI1 SLP139

CYXE;2007-10-22 23:00;CYXE 222300Z 23007KT 15SM BKN087 BKN250 13/01 A2987 RMK AS6CI0 SLP138

CYXE;2007-10-23 00:00;CYXE 230000Z 23008KT 15SM SCT085 BKN120 BKN250 09/00 A2985 RMK AS3AC2CI0 SLP130

CYXE;2007-10-23 01:00;CYXE 230100Z 20006KT 15SM FEW085 BKN120 BKN250 09/00 A2983 RMK AC2AC2CI0 SLP122

CYXE;2007-10-23 02:00;CYXE 230200Z 21007KT 15SM FEW085 BKN120 OVC250 08/M01 A2981 RMK AC2AC4CI1 SLP117

CYXE;2007-10-23 03:00;CYXE 230300Z 23007KT 15SM BKN077 OVC250 08/00 A2980 RMK AC6CI2 SLP112

CYXE;2007-10-23 04:00;CYXE 230400Z 25007KT 15SM OVC077 08/01 A2980 RMK AC8 SLP113

CYXE;2007-10-23 05:00;CYXE 230500Z 27006KT 15SM FEW073 04/M00 A2982 RMK AC2 SLP118

CYXE;2007-10-23 06:00;CYXE 230600Z 27007KT 15SM BKN060 03/M00 A2983 RMK SC6 SLP123

CYXE;2007-10-23 07:00;CYXE 230700Z 28008KT 15SM SCT250 03/M00 A2984 RMK CI2 SLP125

CYXE;2007-10-23 08:00;CYXE 230800Z 30006KT 15SM BKN060 02/M01 A2988 RMK SC3 SLP138

CYXE;2007-10-23 09:00;CYXE 230900Z 31010KT 15SM FEW060 BKN100 06/02 A2990 RMK SC1AC6 SLP143

CYXE;2007-10-23 10:00;CYXE 231000Z 30009KT 15SM BKN100 07/02 A2993 RMK AC6 SLP152

CYXE;2007-10-23 11:00;CYXE 231100Z 32011G16KT 15SM OVC100 07/03 A2996 RMK AC7 SLP162

CYXE;2007-10-23 12:00;CYXE 231200Z 32010G15KT 15SM OVC095 07/03 A3002 RMK AC7 SLP182

CYXE;2007-10-23 13:00;CYXE 231300Z 32009KT 15SM BKN095 06/03 A3005 RMK AC6 SLP193

CYXE;2007-10-23 14:00;CYXE 231400Z 30007KT 15SM BKN092 06/03 A3008 RMK AC6 SLP202

CYXE;2007-10-23 15:00;CYXE 231500Z 30009KT 15SM BKN090 07/03 A3011 RMK AC6 SLP215

CYXE;2007-10-23 16:00;CYXE 231600Z 31010KT 15SM BKN094 08/03 A3014 RMK AC6 SLP225

CYXE;2007-10-23 17:00;CYXE 231700Z 31011KT 15SM BKN096 09/03 A3016 RMK AC6 SLP229

CYXE;2007-10-23 18:00;CYXE 231800Z 29011G16KT 15SM BKN092 09/03 A3017 RMK AC6 SLP237

CYXE;2007-10-23 19:00;CYXE 231900Z 30011KT 15SM BKN085 BKN250 11/03 A3018 RMK AC6CI0 SLP239

CYXE;2007-10-23 20:00;CYXE 232000Z 32011KT 15SM FEW015 BKN080 BKN250 11/03 A3019 RMK SF1AC6CI0 SLP242

CYXE;2007-10-23 21:00;CYXE 232100Z 31008KT 15SM BKN080 BKN250 12/01 A3018 RMK AC5CI1 SLP237

CYXE;2007-10-23 22:00;CYXE 232200Z 31007KT 15SM SCT080 BKN250 11/01 A3018 RMK AC2CI1 SLP237

CYXE;2007-10-23 23:00;CYXE 232300Z 34004KT 15SM FEW070 SCT077 BKN250 11/01 A3018 RMK AC2AC1CI1 SLP236

CYXE;2007-10-24 00:00;CYXE 240000Z 00000KT 8SM FEW070 SCT250 08/01 A3017 RMK AC2CI1 BR SLP235

CYXE;2007-10-24 01:00;CYXE 240100Z 14004KT 15SM SCT250 07/01 A3015 RMK CI2 SLP229

CYXE;2007-10-24 02:00;CYXE 240200Z 15005KT 15SM BKN250 05/01 A3014 RMK CI2 SLP225

CYXE;2007-10-24 03:00;CYXE 240300Z 15006KT 15SM OVC250 05/01 A3014 RMK CI3 SLP226

CYXE;2007-10-24 04:00;CYXE 240400Z 16005KT 15SM OVC098 06/01 A3014 RMK AS7 SLP226

CYXE;2007-10-24 05:00;CYXE 240500Z 17007KT 15SM OVC250 06/02 A3011 RMK CI4 SLP216

CYXE;2007-10-24 06:00;CYXE 240600Z 16007KT 15SM BKN250 06/02 A3009 RMK CI3 SLP208

CYXE;2007-10-24 07:00;CYXE 240700Z 17008KT 15SM BKN250 06/02 A3007 RMK CI3 SLP201

CYXE;2007-10-24 08:00;CYXE 240800Z 15006KT 15SM OVC250 06/02 A3003 RMK CI4 SLP190

CYXE;2007-10-24 09:00;CYXE 240900Z 15007KT 15SM BKN250 05/02 A2999 RMK CI2 SLP172

CYXE;2007-10-24 10:00;CYXE 241000Z 15006KT 15SM FEW120 BKN250 06/03 A2996 RMK AC2CI2 SLP164

CYXE;2007-10-24 11:00;CYXE 241100Z 16008KT 15SM FEW120 BKN250 05/03 A2993 RMK AC2CI2 SLP154

CYXE;2007-10-24 12:00;CYXE 241200Z 16007KT 15SM FEW120 BKN250 05/03 A2990 RMK AC2CI2 SLP145

CYXE;2007-10-24 13:00;CYXE 241300Z 17008KT 15SM FEW120 BKN250 05/03 A2986 RMK AC2CI2 SLP132

CYXE;2007-10-24 14:00;CYXE 241400Z 16007KT 15SM FEW120 OVC250 05/03 A2984 RMK AC1CI6 SLP123

CYXE;2007-10-24 15:00;CYXE 241500Z 17008KT 15SM BKN120 OVC250 06/04 A2981 RMK AC5CI2 SLP113

CYXE;2007-10-24 16:00;CYXE 241600Z 19010KT 15SM BKN100 OVC250 09/05 A2977 RMK AC6CI1 SLP102

CYXE;2007-10-24 17:00;CYXE 241700Z 21008KT 15SM BKN120 OVC250 13/07 A2974 RMK AC6CI1 SLP090

CYXE;2007-10-24 18:00;CYXE 241800Z 21012KT 15SM FEW120 OVC250 17/08 A2970 RMK AC2CI3 SLP070

CYXE;2007-10-24 19:00;CYXE 241900Z 22015G25KT 15SM OVC250 20/07 A2966 RMK CI4 SLP055

CYXE;2007-10-24 20:00;CYXE 242000Z 23016G26KT 15SM OVC250 21/07 A2962 RMK CI5 SLP043

CYXE;2007-10-24 21:00;CYXE 242100Z 23015G21KT 15SM OVC250 21/06 A2960 RMK CI5 SLP034

CYXE;2007-10-24 22:00;CYXE 242200Z 24004KT 15SM BKN250 21/07 A2959 RMK CI4 SLP031

CYXE;2007-10-24 23:00;CYXE 242300Z 21008KT 15SM FEW110 BKN250 20/06 A2956 RMK AC2CI2 SLP021

CYXE;2007-10-25 00:00;CYXE 250000Z 23010KT 15SM SCT250 15/06 A2955 RMK CI2 SLP021

CYXE;2007-10-25 01:00;CYXE 250100Z 22011KT 15SM SCT250 16/05 A2954 RMK CI2 SLP016

CYXE;2007-10-25 02:00;CYXE 250200Z 22011KT 15SM FEW120 BKN250 16/04 A2953 RMK AC1CI1 SLP013

CYXE;2007-10-25 03:00;CYXE 250300Z 20007KT 15SM OVC200 14/04 A2951 RMK CI3 SLP006

CYXE;2007-10-25 04:00;CYXE 250400Z 20010KT 15SM OVC140 15/04 A2949 RMK AS8 SLP999

CYXE;2007-10-25 05:00;CYXE 250500Z 23013KT 15SM OVC140 17/04 A2949 RMK AS7 SLP998

CYXE;2007-10-25 06:00;CYXE 250600Z 29012KT 15SM OVC140 14/05 A2953 RMK AS7 SLP007

CYXE;2007-10-25 07:00;CYXE 250700Z 33016KT 15SM BKN140 BKN250 10/04 A2962 RMK AC4CI0 SLP036

CYXE;2007-10-25 08:00;CYXE 250800Z 32022G30KT 15SM SCT090 BKN120 BKN250 09/02 A2969 RMK AC3AC2CI0 PRESRR SLP058

CYXE;2007-10-25 09:00;CYXE 250900Z 32017G22KT 15SM BKN080 07/02 A2974 RMK AC6 PRESRR SLP080

CYXE;2007-10-25 09:52;CYXE 250952Z 33018G28KT 15SM -SHRA BKN075 07/ RMK AC6

CYXE;2007-10-25 10:00;CYXE 251000Z 33016G26KT 15SM -SHRA BKN070 07/02 A2979 RMK AC6 SLP096

CYXE;2007-10-25 11:00;CYXE 251100Z 32006KT 15SM BKN050 OVC120 05/03 A2982 RMK SC5AC2 SLP107

CYXE;2007-10-25 12:00;CYXE 251200Z 27008KT 15SM -SHRA OVC050 05/03 A2986 RMK SC8 SLP124

CYXE;2007-10-25 12:30;CYXE 251230Z 26009KT 15SM VCSH OVC060 05/ RMK SC8

CYXE;2007-10-25 13:00;CYXE 251300Z 25009KT 15SM OVC070 05/02 A2989 RMK AC7 SLP134

CYXE;2007-10-25 14:00;CYXE 251400Z 28009KT 15SM BKN086 05/01 A2990 RMK AC6 SLP140

CYXE;2007-10-25 15:00;CYXE 251500Z 28011KT 15SM BKN120 05/00 A2993 RMK AC6 SLP149

CYXE;2007-10-25 16:00;CYXE 251600Z 30012KT 15SM FEW150 07/M02 A2996 RMK AC2 SLP159

CYXE;2007-10-25 17:00;CYXE 251700Z 30018KT 15SM FEW160 08/M05 A2997 RMK AC1 SLP164

CYXE;2007-10-25 18:00;CYXE 251800Z 29017G25KT 15SM FEW160 09/M05 A3000 RMK AC1 SLP171

CYXE;2007-10-25 19:00;CYXE 251900Z 27020G26KT 15SM FEW160 09/M07 A3001 RMK AC1 SLP174

CYXE;2007-10-25 20:00;CYXE 252000Z 28017G27KT 15SM FEW060 10/M08 A3001 RMK SC1 SLP176

CYXE;2007-10-25 21:00;CYXE 252100Z 29022G30KT 15SM FEW060 FEW120 09/M09 A3002 RMK SC1AC1 SLP184

CYXE;2007-10-25 22:00;CYXE 252200Z 27019G26KT 15SM FEW075 FEW140 09/M08 A3003 RMK AC1AC1 SLP188

CYXE;2007-10-25 23:00;CYXE 252300Z 28014G22KT 15SM FEW075 07/M08 A3005 RMK AC1 SLP194

CYXE;2007-10-26 01:00;CYXE 260100Z 27008KT 15SM FEW075 03/M08 A3008 RMK AC1 SLP208

CYXE;2007-10-26 02:00;CYXE 260200Z 26010KT 15SM SKC 01/M07 A3010 RMK SLP214

CYXE;2007-10-26 03:00;CYXE 260300Z 26009KT 15SM SKC M00/M07 A3012 RMK SLP226

CYXE;2007-10-26 04:00;CYXE 260400Z 26009KT 15SM SKC M00/M07 A3014 RMK SLP230

CYXE;2007-10-26 05:00;CYXE 260500Z 26008KT 15SM SKC M01/M07 A3016 RMK SLP237

CYXE;2007-10-26 06:00;CYXE 260600Z 27009KT 15SM SKC M02/M07 A3017 RMK SLP238

CYXE;2007-10-26 07:00;CYXE 260700Z 25007KT 15SM SKC M02/M07 A3018 RMK SLP242

CYXE;2007-10-26 08:00;CYXE 260800Z 27008KT 15SM SKC M03/M07 A3018 RMK SLP244

CYXE;2007-10-26 09:00;CYXE 260900Z 25007KT 15SM SKC M04/M07 A3020 RMK SLP250

CYXE;2007-10-26 10:00;CYXE 261000Z 25009KT 15SM SKC M03/M07 A3021 RMK SLP253

CYXE;2007-10-26 11:00;CYXE 261100Z 25007KT 15SM FEW050 M04/M06 A3022 RMK SC1 SLP257

CYXE;2007-10-26 12:00;CYXE 261200Z 25008KT 15SM SCT200 M04/M06 A3024 RMK CI1 SLP267

CYXE;2007-10-26 13:00;CYXE 261300Z 26008KT 15SM FEW200 M04/M07 A3026 RMK CI1 SLP274

CYXE;2007-10-26 14:00;CYXE 261400Z 24007KT 15SM FEW200 M06/M08 A3028 RMK CI1 SLP279

CYXE;2007-10-26 15:00;CYXE 261500Z 23007KT 15SM SCT095 OVC220 M02/M05 A3028 RMK AC3CI2 SLP282

CYXE;2007-10-26 16:00;CYXE 261600Z 23007KT 15SM SCT100 OVC220 M01/M05 A3030 RMK AC4CI2 SLP288

CYXE;2007-10-26 17:00;CYXE 261700Z 27005KT 15SM SCT065 OVC090 01/M05 A3030 RMK SC3AC4 SLP290

CYXE;2007-10-26 17:35;CYXE 261735Z 26011KT 1SM R09/P6000FT/N -SHSN VV012 00/ RMK SN8

CYXE;2007-10-26 17:44;CYXE 261744Z 27007G15KT 5/8SM R09/4500VP6000FT/D -SHSN VV005 M01/ RMK SN8

CYXE;2007-10-26 17:53;CYXE 261753Z 25006KT 8SM -SHSN OVC015 M01/ RMK SC8

CYXE;2007-10-26 18:00;CYXE 261800Z 24007KT 12SM -SHSN OVC012 M01/M02 A3029 RMK SC8 SLP288

CYXE;2007-10-26 18:25;CYXE 261825Z 26007KT 15SM OVC013 01/ RMK SC8

CYXE;2007-10-26 18:47;CYXE 261847Z 33009KT 15SM OVC008 00/ RMK SC8

CYXE;2007-10-26 19:00;CYXE 261900Z 32009KT 15SM BKN008 OVC090 01/M01 A3030 RMK SC6AC1 SLP290

CYXE;2007-10-26 19:27;CYXE 261927Z 31009KT 15SM FEW008 SCT053 BKN100 01/ RMK SC2SC2AC2

CYXE;2007-10-26 20:00;CYXE 262000Z 29008KT 15SM FEW015 SCT100 BKN240 01/M03 A3029 RMK SC2AC2CI2 SLP287

CYXE;2007-10-26 21:00;CYXE 262100Z 34006KT 15SM FEW020 BKN044 01/M02 A3029 RMK SC2SC4 SLP288

CYXE;2007-10-26 22:00;CYXE 262200Z 33007KT 15SM VCSH FEW020 BKN036 BKN050 02/M02 A3030 RMK SC2SC3SC2 SLP290

CYXE;2007-10-26 23:00;CYXE 262300Z 32007KT 15SM FEW020 SCT037 BKN240 00/M03 A3032 RMK SC2SC2CI0 SLP297

CYXE;2007-10-27 00:00;CYXE 270000Z 31006KT 15SM FEW020 BKN032 M01/M03 A3035 RMK SC1SC4 SLP309

CYXE;2007-10-27 01:00;CYXE 270100Z 31004KT 15SM FEW030 M04/M05 A3038 RMK SC2 SLP318

CYXE;2007-10-27 02:00;CYXE 270200Z 28006KT 15SM SKC M05/M07 A3040 RMK SLP325

CYXE;2007-10-27 03:00;CYXE 270300Z 31008KT 15SM SKC M04/M05 A3043 RMK SLP336

CYXE;2007-10-27 04:00;CYXE 270400Z 31005KT 15SM SKC M07/M08 A3044 RMK SLP341

CYXE;2007-10-27 05:00;CYXE 270500Z 31006KT 15SM SKC M08/M09 A3046 RMK SLP348

CYXE;2007-10-27 06:00;CYXE 270600Z 28006KT 15SM SKC M08/M09 A3046 RMK SLP351

CYXE;2007-10-27 07:00;CYXE 270700Z 28006KT 15SM SKC M08/M09 A3047 RMK SLP353

CYXE;2007-10-27 08:00;CYXE 270800Z 26005KT 15SM SKC M08/M09 A3048 RMK SLP356

CYXE;2007-10-27 09:00;CYXE 270900Z 23006KT 15SM FEW250 M09/M10 A3048 RMK CI1 SLP355

CYXE;2007-10-27 10:00;CYXE 271000Z 22005KT 15SM FEW250 M09/M10 A3046 RMK CI0 SLP349

CYXE;2007-10-27 11:00;CYXE 271100Z 19005KT 15SM FEW250 M10/M10 A3046 RMK CI0 BR SLP348

CYXE;2007-10-27 12:00;CYXE 271200Z 20006KT 15SM SKC M09/M10 A3046 RMK SLP349

CYXE;2007-10-27 13:00;CYXE 271300Z 20005KT 15SM SKC M10/M11 A3044 RMK SLP343

CYXE;2007-10-27 14:00;CYXE 271400Z 20006KT 15SM FEW240 M09/M10 A3043 RMK CI1 SLP339

CYXE;2007-10-27 15:00;CYXE 271500Z 18006KT 15SM FEW240 M07/M08 A3042 RMK CI0 SLP336

CYXE;2007-10-27 16:00;CYXE 271600Z 20007KT 15SM SCT250 M05/M06 A3040 RMK CI0 SLP331

CYXE;2007-10-27 17:00;CYXE 271700Z 18009KT 15SM SCT250 M03/M05 A3039 RMK CI1 SLP326

CYXE;2007-10-27 18:00;CYXE 271800Z 19011KT 15SM FEW130 BKN250 M00/M04 A3034 RMK AC1CI3 SLP309

CYXE;2007-10-27 19:00;CYXE 271900Z 18012KT 15SM BKN250 02/M03 A3029 RMK CI2 SLP293

CYXE;2007-10-27 20:00;CYXE 272000Z 17012KT 15SM FEW250 03/M03 A3025 RMK CI1 SLP278

CYXE;2007-10-27 21:00;CYXE 272100Z 17011KT 15SM FEW250 04/M02 A3021 RMK CI0 SLP263

CYXE;2007-10-27 22:00;CYXE 272200Z 16012G17KT 15SM FEW250 04/M02 A3018 RMK CI0 SLP253

CYXE;2007-10-27 23:00;CYXE 272300Z 17013G19KT 15SM FEW090 FEW250 04/M01 A3015 RMK AC1CI0 SLP243

CYXE;2007-10-28 00:00;CYXE 280000Z 16010KT 15SM FEW090 FEW250 02/M02 A3013 RMK AC1CI0 SLP236

CYXE;2007-10-28 01:00;CYXE 280100Z 16011G16KT 15SM FEW090 01/M02 A3008 RMK AC1 SLP221

CYXE;2007-10-28 02:00;CYXE 280200Z 16008KT 15SM FEW090 00/M03 A3007 RMK AC1 SLP215

CYXE;2007-10-28 03:00;CYXE 280300Z 17010G15KT 15SM FEW280 02/M04 A3003 RMK CI0 SLP200

CYXE;2007-10-28 04:00;CYXE 280400Z 20010KT 15SM SCT280 03/M05 A3000 RMK CI1 SLP191

CYXE;2007-10-28 05:00;CYXE 280500Z 19014KT 15SM FEW100 FEW250 03/M04 A2997 RMK AC1CI0 SLP181

CYXE;2007-10-28 05:31;CYXE 280531Z 20009KT 15SM FEW100 FEW250 02/ RMK AC1CI0

CYXE;2007-10-28 06:00;CYXE 280600Z 18010KT 15SM FEW120 FEW250 02/M04 A2996 RMK AC1CI0 SLP172

CYXE;2007-10-28 07:00;CYXE 280700Z 19009KT 15SM FEW120 FEW250 01/M04 A2993 RMK AC1CI0 SLP162

CYXE;2007-10-28 08:00;CYXE 280800Z 18009KT 15SM FEW120 FEW250 M00/M05 A2991 RMK AC1CI0 SLP157

CYXE;2007-10-28 09:00;CYXE 280900Z 19006KT 15SM BKN110 BKN250 01/M04 A2991 RMK AC5CI2 SLP151

CYXE;2007-10-28 10:00;CYXE 281000Z 20006KT 15SM BKN110 OVC250 01/M04 A2991 RMK AC6CI2 SLP153

CYXE;2007-10-28 11:00;CYXE 281100Z 20005KT 15SM BKN085 OVC250 01/M04 A2991 RMK AC6CI2 SLP153

CYXE;2007-10-28 12:00;CYXE 281200Z 33002KT 15SM BKN085 OVC250 00/M03 A2993 RMK AC6CI2 SLP159

CYXE;2007-10-28 12:43;CYXE 281243Z 23003KT 15SM -SHRA BKN040 OVC090 00/ RMK SC5AC3

CYXE;2007-10-28 13:00;CYXE 281300Z 21007KT 15SM -SHRA SCT040 BKN090 BKN250 00/M02 A2992 RMK SC3ACC2CI1 SLP156

CYXE;2007-10-28 13:15;CYXE 281315Z 20005KT 15SM SCT040 BKN090 BKN250 01/ RMK SC3ACC2CI2

CYXE;2007-10-28 14:00;CYXE 281400Z 25006KT 15SM FEW090 SCT250 M01/M03 A2993 RMK AC1CI1 SLP161

CYXE;2007-10-28 15:00;CYXE 281500Z 24007KT 15SM FEW250 01/M03 A2995 RMK CI0 SLP169

CYXE;2007-10-28 16:00;CYXE 281600Z 30010KT 15SM FEW250 04/M02 A3000 RMK CI0 SLP184

CYXE;2007-10-28 17:00;CYXE 281700Z 30013KT 15SM FEW250 07/M02 A3000 RMK CI1 SLP183

CYXE;2007-10-28 18:00;CYXE 281800Z 30012KT 15SM FEW250 10/M01 A3002 RMK CI1 SLP185

CYXE;2007-10-28 19:00;CYXE 281900Z 30015KT 15SM FEW250 12/M01 A3002 RMK CI1 SLP187

CYXE;2007-10-28 20:00;CYXE 282000Z 30014G19KT 15SM FEW250 13/M01 A3002 RMK CI1 SLP186

CYXE;2007-10-28 21:00;CYXE 282100Z 31012KT 15SM FEW250 13/M01 A3002 RMK CI0 SLP185

CYXE;2007-10-28 22:00;CYXE 282200Z 31010KT 15SM FEW250 13/M01 A3003 RMK CI1 SLP187

CYXE;2007-10-28 23:00;CYXE 282300Z 30007KT 15SM FEW090 SCT250 11/M01 A3003 RMK AC1CI1 SLP189

CYXE;2007-10-29 00:00;CYXE 290000Z 24007KT 15SM FEW090 BKN250 05/M02 A3006 RMK AC2CI1 SLP204

CYXE;2007-10-29 01:00;CYXE 290100Z 24008KT 15SM FEW090 FEW250 03/M02 A3005 RMK AC1CI0 SLP201

CYXE;2007-10-29 02:00;CYXE 290200Z 25004KT 15SM FEW090 FEW250 02/M02 A3005 RMK AC1CI0 SLP199

CYXE;2007-10-29 03:00;CYXE 290300Z 22006KT 15SM FEW090 BKN250 02/M02 A3004 RMK AC1CI0 SLP199

CYXE;2007-10-29 04:00;CYXE 290400Z 11003KT 15SM BKN110 01/M02 A3004 RMK AC6 SLP198

CYXE;2007-10-29 05:00;CYXE 290500Z 19005KT 15SM BKN110 OVC250 04/M01 A3004 RMK AC6CI2 SLP198

CYXE;2007-10-29 06:00;CYXE 290600Z 17005KT 15SM BKN092 OVC250 04/M01 A3003 RMK AC6CI2 SLP189

CYXE;2007-10-29 07:00;CYXE 290700Z 15005KT 15SM SCT090 BKN250 03/M01 A3000 RMK AC2CI3 SLP180

CYXE;2007-10-29 08:00;CYXE 290800Z 10003KT 15SM BKN095 BKN250 03/M01 A2999 RMK AC5CI2 SLP174

CYXE;2007-10-29 09:00;CYXE 290900Z 09006KT 15SM SCT095 OVC250 01/M02 A2996 RMK AC3CI3 SLP164

CYXE;2007-10-29 10:00;CYXE 291000Z 09005KT 15SM BKN100 BKN250 02/M01 A2995 RMK AC6CI1 SLP158

CYXE;2007-10-29 11:00;CYXE 291100Z 11009KT 15SM SCT100 OVC250 06/M01 A2993 RMK AC3CI3 SLP152

CYXE;2007-10-29 12:00;CYXE 291200Z 11009KT 15SM FEW088 BKN250 05/M01 A2990 RMK AC2CI2 SLP144

CYXE;2007-10-29 13:00;CYXE 291300Z 11009KT 15SM BKN250 05/M01 A2988 RMK CI4 SLP140

CYXE;2007-10-29 14:00;CYXE 291400Z 11010G15KT 15SM BKN250 04/M01 A2987 RMK CI3 SLP136

CYXE;2007-10-29 15:00;CYXE 291500Z 12009KT 15SM BKN250 04/M01 A2987 RMK CI2 SLP139

CYXE;2007-10-29 16:00;CYXE 291600Z 13008KT 15SM BKN250 05/M01 A2986 RMK CI3 SLP134

CYXE;2007-10-29 17:00;CYXE 291700Z 14005KT 15SM SCT250 07/M01 A2985 RMK CI2 SLP131

CYXE;2007-10-29 18:00;CYXE 291800Z 07003KT 15SM FEW250 08/M01 A2984 RMK CI1 SLP125

CYXE;2007-10-29 19:00;CYXE 291900Z 11005KT 15SM FEW250 10/M01 A2982 RMK CI1 SLP118

CYXE;2007-10-29 20:00;CYXE 292000Z 11003KT 15SM FEW250 11/M01 A2981 RMK CI1 SLP114

CYXE;2007-10-29 21:00;CYXE 292100Z 11003KT 15SM FEW100 FEW250 12/M00 A2979 RMK AC1CI1 SLP107

CYXE;2007-10-29 22:00;CYXE 292200Z 00000KT 15SM FEW100 FEW250 12/M01 A2978 RMK AC1CI0 SLP104

CYXE;2007-10-29 23:00;CYXE 292300Z 00000KT 15SM FEW100 SCT250 11/M00 A2977 RMK AC1CI2 SLP101

CYXE;2007-10-30 00:00;CYXE 300000Z 07002KT 15SM FEW100 BKN250 08/M01 A2975 RMK AC1CI2 OBS TAKEN +12 SLP093

CYXE;2007-10-30 01:00;CYXE 300100Z 04004KT 12SM FEW100 BKN250 05/M01 A2974 RMK AC1CI2 OBS TAKEN +05 BR SLP089

CYXE;2007-10-30 02:00;CYXE 300200Z 06005KT 15SM BKN250 04/M01 A2973 RMK CI1 SLP087

CYXE;2007-10-30 03:00;CYXE 300300Z 08003KT 15SM BKN250 03/M01 A2971 RMK CI0 SLP082

CYXE;2007-10-30 04:00;CYXE 300400Z 03004KT 15SM SCT110 BKN250 02/M01 A2970 RMK AC3CI0 SLP078

CYXE;2007-10-30 05:00;CYXE 300500Z 03004KT 15SM SCT110 OVC250 02/M01 A2969 RMK AC3CI2 SLP075

CYXE;2007-10-30 06:00;CYXE 300600Z 02006KT 15SM BKN110 OVC250 02/M01 A2968 RMK AC5CI2 SLP072

CYXE;2007-10-30 07:00;CYXE 300700Z 04004KT 15SM BKN100 OVC250 01/M01 A2968 RMK AC6CI2 SLP072

CYXE;2007-10-30 08:00;CYXE 300800Z 32006KT 15SM SCT100 OVC250 M00/M01 A2969 RMK AC3CI3 SLP075

CYXE;2007-10-30 09:00;CYXE 300900Z 33008KT 15SM FEW100 BKN250 M01/M02 A2971 RMK AC2CI3 SLP080

CYXE;2007-10-30 10:00;CYXE 301000Z 34008KT 15SM BKN100 BKN250 M01/M01 A2971 RMK AC5CI2 SLP080

CYXE;2007-10-30 11:00;CYXE 301100Z 32007KT 15SM BKN100 BKN250 00/M00 A2972 RMK AC6CI2 SLP084

CYXE;2007-10-30 12:00;CYXE 301200Z 31007KT 15SM BKN100 OVC250 01/M00 A2974 RMK AC6CI2 SLP092

CYXE;2007-10-30 12:40;CYXE 301240Z 33009KT 15SM -SHRA BKN060 OVC250 03/ RMK SC5CI2

CYXE;2007-10-30 13:00;CYXE 301300Z 33009KT 15SM -SHRA OVC060 03/02 A2975 RMK SC8 SLP095

CYXE;2007-10-30 13:28;CYXE 301328Z 31012KT 15SM -SHRA SCT007 OVC036 03/ RMK SF4SC4

CYXE;2007-10-30 13:42;CYXE 301342Z 30012KT 12SM -SHRA BKN009 OVC035 04/ RMK SF5SC3

CYXE;2007-10-30 14:00;CYXE 301400Z 30009G15KT 12SM -SHRA SCT009 OVC035 04/04 A2979 RMK SF4SC4 SLP106

CYXE;2007-10-30 14:38;CYXE 301438Z 29016KT 15SM -SHRA BKN011 OVC035 04/ RMK SF5SC3

CYXE;2007-10-30 15:00;CYXE 301500Z 30016KT 15SM VCSH BKN010 OVC040 04/04 A2982 RMK SF6SC2 SLP119

CYXE;2007-10-30 16:00;CYXE 301600Z 30015KT 15SM SCT020 OVC060 05/03 A2983 RMK SC3SC5 SLP124

CYXE;2007-10-30 17:00;CYXE 301700Z 30016G22KT 15SM FEW020 BKN080 05/02 A2986 RMK SC2AC6 SLP132

CYXE;2007-10-30 18:00;CYXE 301800Z 31020G25KT 15SM FEW021 SCT098 SCT220 06/01 A2987 RMK CF1AC2CI1 SLP136

CYXE;2007-10-30 19:00;CYXE 301900Z 30017G25KT 15SM FEW080 FEW250 07/M01 A2987 RMK AC1CI0 SLP136

CYXE;2007-10-30 20:00;CYXE 302000Z 30019G26KT 15SM FEW030 FEW250 07/M01 A2987 RMK SC1CI0 SLP138

CYXE;2007-10-30 21:00;CYXE 302100Z 31021G28KT 15SM FEW044 SCT250 08/M03 A2987 RMK CU2CI0 SLP139

CYXE;2007-10-30 22:00;CYXE 302200Z 30019G30KT 15SM FEW040 BKN250 07/M03 A2990 RMK CU2CI0 SLP148

CYXE;2007-10-30 23:00;CYXE 302300Z 31020G25KT 15SM FEW040 SCT070 BKN250 07/M04 A2992 RMK SC2AC2CI0 SLP154

CYXE;2007-10-31 00:00;CYXE 310000Z 31012KT 15SM SCT040 BKN250 05/M05 A2995 RMK SC4CI0 VIRGA W-NW SLP167

CYXE;2007-10-31 01:00;CYXE 310100Z 29013KT 15SM SCT070 04/M04 A2997 RMK AC4 SLP173

CYXE;2007-10-31 02:00;CYXE 310200Z 30013KT 15SM BKN060 03/M04 A2999 RMK SC3 SLP179

CYXE;2007-10-31 03:00;CYXE 310300Z 30014KT 15SM BKN060 03/M04 A3001 RMK SC3 SLP185

CYXE;2007-10-31 04:00;CYXE 310400Z 30011KT 15SM SCT060 01/M04 A3003 RMK SC3 SLP190

CYXE;2007-10-31 05:00;CYXE 310500Z 29009KT 15SM FEW060 00/M04 A3003 RMK SC2 SLP193

CYXE;2007-10-31 06:00;CYXE 310600Z 27007KT 15SM SKC M03/M05 A3004 RMK SLP199

CYXE;2007-10-31 07:00;CYXE 310700Z 27008KT 15SM SKC M02/M05 A3005 RMK SLP202

CYXE;2007-10-31 08:00;CYXE 310800Z 25005KT 15SM SKC M04/M06 A3007 RMK SLP206

CYXE;2007-10-31 09:00;CYXE 310900Z 26006KT 15SM SKC M05/M06 A3007 RMK SLP209

CYXE;2007-10-31 10:00;CYXE 311000Z 26007KT 15SM SKC M04/M06 A3007 RMK SLP208

CYXE;2007-10-31 11:00;CYXE 311100Z 26007KT 15SM SKC M05/M07 A3007 RMK SLP208

CYXE;2007-10-31 12:00;CYXE 311200Z 26006KT 15SM SKC M06/M07 A3008 RMK SLP213

CYXE;2007-10-31 13:00;CYXE 311300Z 25006KT 15SM FEW120 M05/M07 A3008 RMK AC1 SLP213

CYXE;2007-10-31 14:00;CYXE 311400Z 23006KT 15SM FEW120 M05/M07 A3007 RMK AC1 SLP210

CYXE;2007-10-31 15:00;CYXE 311500Z 22007KT 15SM FEW120 M03/M06 A3006 RMK AC1 SLP207

CYXE;2007-10-31 16:00;CYXE 311600Z 21007KT 15SM FEW120 M01/M05 A3005 RMK AC2 SLP204

CYXE;2007-10-31 17:00;CYXE 311700Z 22009KT 15SM BKN093 BKN280 02/M04 A3003 RMK AC5CI1 SLP199

CYXE;2007-10-31 18:00;CYXE 311800Z 23009KT 15SM BKN090 BKN280 05/M04 A3002 RMK AC5CI1 SLP191

CYXE;2007-10-31 19:00;CYXE 311900Z 23008KT 15SM FEW090 BKN250 09/M04 A2999 RMK AC2CI0 SLP181

CYXE;2007-10-31 20:00;CYXE 312000Z 23011KT 15SM FEW100 FEW250 10/M06 A2997 RMK AC1CI0 SLP174

CYXE;2007-10-31 21:00;CYXE 312100Z 24011KT 15SM FEW100 BKN250 10/M07 A2995 RMK AC1CI1 SLP166

CYXE;2007-10-31 22:00;CYXE 312200Z 22009KT 15SM FEW100 BKN250 08/M06 A2994 RMK AC1CI2 SLP161

CYXE;2007-10-31 23:00;CYXE 312300Z 22005KT 15SM FEW100 SCT250 05/M05 A2993 RMK AC2CI1 SLP158

CYXE;2007-11-01 01:00;CYXE 010100Z 20005KT 15SM FEW250 03/M06 A2991 RMK CI1 SLP155

CYXE;2007-11-01 02:00;CYXE 010200Z 22007KT 15SM SCT250 00/M07 A2990 RMK CI2 SLP151

CYXE;2007-11-01 03:00;CYXE 010300Z 22006KT 15SM SCT250 01/M06 A2987 RMK CI2 SLP144

CYXE;2007-11-01 04:00;CYXE 010400Z 21003KT 15SM FEW250 M00/M06 A2986 RMK CI1 SLP139

CYXE;2007-11-01 05:00;CYXE 010500Z 21003KT 15SM BKN250 M01/M06 A2985 RMK CI2 SLP135

CYXE;2007-11-01 06:00;CYXE 010600Z 18005KT 15SM BKN250 M03/M06 A2983 RMK CI2 SLP127

CYXE;2007-11-01 07:00;CYXE 010700Z 20005KT 15SM OVC250 M03/M06 A2982 RMK CI3 SLP123

CYXE;2007-11-01 08:00;CYXE 010800Z 19006KT 15SM OVC250 M03/M06 A2979 RMK CI3 SLP115

CYXE;2007-11-01 09:00;CYXE 010900Z 21004KT 15SM OVC250 M03/M06 A2978 RMK CI5 SLP106

CYXE;2007-11-01 10:00;CYXE 011000Z 20005KT 15SM OVC250 M03/M06 A2976 RMK CI6 SLP099

CYXE;2007-11-01 11:00;CYXE 011100Z 19004KT 15SM OVC250 M03/M06 A2974 RMK CI6 SLP094

CYXE;2007-11-01 12:00;CYXE 011200Z 21005KT 15SM OVC250 M03/M06 A2972 RMK CI7 SLP090

CYXE;2007-11-01 13:00;CYXE 011300Z 23003KT 15SM OVC250 M04/M05 A2972 RMK CI7 SLP087

CYXE;2007-11-01 14:00;CYXE 011400Z 22003KT 15SM BKN120 OVC250 M02/M05 A2972 RMK AC6CI2 SLP088

CYXE;2007-11-01 15:00;CYXE 011500Z 24006KT 15SM BKN084 OVC250 M02/M04 A2972 RMK AC6CI1 SLP091

CYXE;2007-11-01 16:00;CYXE 011600Z 30008KT 15SM BKN078 OVC100 01/M03 A2973 RMK AC6AC2 SLP093

CYXE;2007-11-01 17:00;CYXE 011700Z 33009KT 15SM BKN067 BKN120 OVC250 03/M03 A2973 RMK AC6AC2CI0 SLP093

CYXE;2007-11-01 18:00;CYXE 011800Z 32004KT 15SM SCT027 BKN065 BKN250 06/M01 A2970 RMK SC4SC2CI1 SLP081

CYXE;2007-11-01 19:00;CYXE 011900Z 31013KT 15SM SCT030 SCT075 BKN250 09/M01 A2970 RMK SC3AC1CI2 SLP082

CYXE;2007-11-01 20:00;CYXE 012000Z 31011KT 15SM SCT030 BKN075 BKN250 08/M02 A2970 RMK SC3AC2CI1 SLP082

CYXE;2007-11-01 21:00;CYXE 012100Z 29011G18KT 15SM BKN120 BKN250 09/M04 A2971 RMK AC5CI1 SLP082

CYXE;2007-11-01 22:00;CYXE 012200Z 29011KT 15SM SCT120 BKN250 07/M04 A2972 RMK AC3CI2 SLP088

CYXE;2007-11-01 23:00;CYXE 012300Z 30013G20KT 15SM FEW070 SCT120 BKN250 07/M06 A2975 RMK AC1AC3CI1 SLP097

CYXE;2007-11-02 00:00;CYXE 020000Z 29011KT 15SM FEW120 FEW250 04/M06 A2977 RMK AC2CI0 SLP107

CYXE;2007-11-02 01:00;CYXE 020100Z 27009KT 15SM FEW120 FEW250 01/M07 A2979 RMK AC2CI0 SLP113

CYXE;2007-11-02 02:00;CYXE 020200Z 27009KT 15SM FEW100 SCT250 02/M08 A2979 RMK AC2CI0 SLP114

CYXE;2007-11-02 02:30;CYXE 020230Z 27008KT 15SM FEW100 SCT250 00/ RMK AC2CI0

CYXE;2007-11-02 03:00;CYXE 020300Z 27009KT 15SM FEW100 FEW250 01/M07 A2981 RMK AC1CI0 SLP121

CYXE;2007-11-02 04:00;CYXE 020400Z 26011KT 15SM FEW100 SCT250 M00/M07 A2982 RMK AC2CI0 SLP126

CYXE;2007-11-02 05:00;CYXE 020500Z 30015KT 15SM BKN050 BKN080 03/M05 A2983 RMK SC6AC1 SLP128

CYXE;2007-11-02 06:00;CYXE 020600Z 31017KT 15SM BKN047 03/M04 A2985 RMK SC6 SLP128

CYXE;2007-11-02 07:00;CYXE 020700Z 30010KT 15SM BKN050 02/M03 A2987 RMK SC6 SLP134

CYXE;2007-11-02 08:00;CYXE 020800Z 30013G18KT 15SM BKN055 02/M03 A2988 RMK SC4 SLP138

CYXE;2007-11-02 09:00;CYXE 020900Z 30015G21KT 15SM BKN045 02/M02 A2990 RMK SC5 SLP144

CYXE;2007-11-02 10:00;CYXE 021000Z 30017KT 15SM BKN045 02/M02 A2991 RMK SC7 SLP150

CYXE;2007-11-02 11:00;CYXE 021100Z 32018KT 15SM BKN045 02/M02 A2994 RMK SC7 SLP159

CYXE;2007-11-02 12:00;CYXE 021200Z 32023G33KT 15SM BKN025 BKN070 02/M02 A2996 RMK SC6AC1 SLP169

CYXE;2007-11-02 13:00;CYXE 021300Z 31014G19KT 15SM FEW029 SCT086 01/M03 A3000 RMK SC2AC2 SLP182

CYXE;2007-11-02 14:00;CYXE 021400Z 29011KT 15SM BKN029 01/M03 A3003 RMK SC7 SLP192

CYXE;2007-11-02 15:00;CYXE 021500Z 30012KT 15SM BKN031 03/M02 A3005 RMK SC7 SLP200

CYXE;2007-11-02 16:00;CYXE 021600Z 30016G21KT 15SM BKN031 03/M04 A3006 RMK SC6 SLP204

CYXE;2007-11-02 17:00;CYXE 021700Z 30016G21KT 15SM FEW031 03/M05 A3007 RMK SC1 SLP206

CYXE;2007-11-02 18:00;CYXE 021800Z 31014G20KT 15SM SKC 05/M05 A3006 RMK SLP200

CYXE;2007-11-02 19:00;CYXE 021900Z 30013G19KT 15SM SKC 06/M05 A3006 RMK SLP201

CYXE;2007-11-02 20:00;CYXE 022000Z 31016G21KT 15SM SKC 07/M06 A3004 RMK SLP196

CYXE;2007-11-02 21:00;CYXE 022100Z 30012G17KT 15SM FEW250 08/M08 A3003 RMK CI1 SLP191

CYXE;2007-11-02 22:00;CYXE 022200Z 28011KT 15SM FEW250 08/M08 A3002 RMK CI1 SLP188

CYXE;2007-11-02 23:00;CYXE 022300Z 27008KT 15SM FEW220 05/M08 A3001 RMK CI1 SLP184

CYXE;2007-11-03 00:00;CYXE 030000Z 27008KT 15SM SCT220 01/M07 A3000 RMK CI2 SLP184

CYXE;2007-11-03 01:00;CYXE 030100Z 24008KT 15SM BKN220 M02/M08 A2998 RMK CI2 SLP177

CYXE;2007-11-03 02:00;CYXE 030200Z 23007KT 15SM BKN220 M02/M07 A2997 RMK CI2 SLP173

CYXE;2007-11-03 03:00;CYXE 030300Z 21008KT 15SM BKN220 M00/M08 A2994 RMK CI5 SLP162

CYXE;2007-11-03 04:00;CYXE 030400Z 19006KT 15SM BKN220 00/M08 A2990 RMK CI5 SLP150

CYXE;2007-11-03 05:00;CYXE 030500Z 18005KT 15SM BKN220 M00/M08 A2988 RMK CI6 SLP143

CYXE;2007-11-03 06:00;CYXE 030600Z 18004KT 15SM OVC220 M00/M07 A2985 RMK CI8 SLP132

CYXE;2007-11-03 07:00;CYXE 030700Z 18004KT 15SM OVC220 00/M07 A2982 RMK CS8 SLP123

CYXE;2007-11-03 08:00;CYXE 030800Z 21004KT 15SM SCT068 OVC220 01/M06 A2981 RMK AC4CS4 SLP119

CYXE;2007-11-03 09:00;CYXE 030900Z 21002KT 15SM BKN044 OVC220 01/M05 A2979 RMK SC6CI2 SLP110

CYXE;2007-11-03 10:00;CYXE 031000Z 25003KT 15SM BKN055 BKN220 M01/M05 A2978 RMK SC5CI1 SLP107

CYXE;2007-11-03 11:00;CYXE 031100Z 25006KT 15SM FEW012 BKN088 M02/M05 A2979 RMK SC1AC5 SLP109

CYXE;2007-11-03 12:00;CYXE 031200Z 25006KT 15SM FEW088 M03/M06 A2979 RMK AC2 SLP116

CYXE;2007-11-03 13:00;CYXE 031300Z 26009KT 15SM FEW090 M04/M06 A2980 RMK AC1 SLP118

CYXE;2007-11-03 14:00;CYXE 031400Z 26009KT 15SM FEW097 SCT230 M03/M06 A2980 RMK AC2CI0 SLP118

CYXE;2007-11-03 15:00;CYXE 031500Z 26008KT 15SM FEW099 FEW230 M02/M06 A2982 RMK AC1CI1 SLP126

CYXE;2007-11-03 16:00;CYXE 031600Z 28012KT 15SM FEW100 FEW230 03/M04 A2984 RMK AC1CI0 SLP131

CYXE;2007-11-03 17:00;CYXE 031700Z 28014G20KT 15SM FEW083 FEW230 06/M04 A2984 RMK AC1CI0 SLP133

CYXE;2007-11-03 18:00;CYXE 031800Z 31020KT 15SM FEW085 FEW230 07/M04 A2984 RMK AC1CI1 SLP128

CYXE;2007-11-03 19:00;CYXE 031900Z 30021G26KT 15SM FEW085 BKN230 08/M05 A2985 RMK AC1CI2 SLP131

CYXE;2007-11-03 20:00;CYXE 032000Z 30016G24KT 15SM FEW085 BKN230 08/M05 A2985 RMK AC1CI2 SLP131

CYXE;2007-11-03 21:00;CYXE 032100Z 31018KT 15SM FEW085 BKN250 07/M05 A2986 RMK AC1CI3 SLP132

CYXE;2007-11-03 22:00;CYXE 032200Z 30015KT 15SM BKN250 07/M05 A2986 RMK CI3 SLP134

CYXE;2007-11-03 23:00;CYXE 032300Z 30011KT 15SM FEW120 BKN250 05/M05 A2987 RMK AS2CI2 SLP137

CYXE;2007-11-04 00:00;CYXE 040000Z 28008KT 15SM FEW092 BKN250 02/M05 A2987 RMK AS2CI2 SLP142

CYXE;2007-11-04 01:00;CYXE 040100Z 27008KT 15SM FEW092 BKN250 01/M05 A2987 RMK AS2CI2 SLP141

CYXE;2007-11-04 02:00;CYXE 040200Z 26008KT 15SM FEW092 BKN250 M01/M05 A2985 RMK AS2CI2 SLP135

CYXE;2007-11-04 03:00;CYXE 040300Z 24006KT 15SM BKN084 M03/M05 A2983 RMK AC4 SLP132

CYXE;2007-11-04 04:00;CYXE 040400Z 24006KT 15SM BKN090 M01/M04 A2981 RMK AC4 SLP123

CYXE;2007-11-04 05:00;CYXE 040500Z 25004KT 15SM OVC083 00/M04 A2979 RMK AC6 SLP117

CYXE;2007-11-04 06:00;CYXE 040600Z 24005KT 15SM OVC078 00/M04 A2977 RMK AC7 SLP103

CYXE;2007-11-04 07:00;CYXE 040700Z 24002KT 15SM BKN052 OVC080 00/M04 A2976 RMK SC6AC2 SLP099

CYXE;2007-11-04 08:00;CYXE 040800Z 23003KT 15SM BKN060 OVC090 M00/M04 A2975 RMK SC6AC2 SLP096

CYXE;2007-11-04 08:56;CYXE 040856Z 32005KT 15SM -SN OVC034 M00/ RMK SC8

CYXE;2007-11-04 09:00;CYXE 040900Z 32005KT 15SM -SN OVC034 M00/M04 A2975 RMK SC8 SLP095

CYXE;2007-11-04 09:53;CYXE 040953Z 36006KT 3SM -SN VV011 02/ RMK SN8

CYXE;2007-11-04 10:00;CYXE 041000Z 36006KT 3SM -SN OVC062 02/M02 A2977 RMK SN2SC6 SLP104

CYXE;2007-11-04 10:31;CYXE 041031Z 03002KT 2SM -SN VV008 00/ RMK SN8

CYXE;2007-11-04 10:51;CYXE 041051Z 03004KT 3SM -SN OVC077 M00/ RMK SN2AC6

CYXE;2007-11-04 11:00;CYXE 041100Z 04005KT 3SM -SN FEW016 OVC077 M00/M01 A2976 RMK SC2AC6 SLP098

CYXE;2007-11-04 11:28;CYXE 041128Z 04005KT 5SM -SN FEW016 BKN038 OVC077 M01/ RMK SC1SC4AC3

CYXE;2007-11-04 12:00;CYXE 041200Z 00000KT 10SM FEW055 OVC077 M01/M01 A2975 RMK SC2AC6 SLP098

CYXE;2007-11-04 13:00;CYXE 041300Z 33006KT 15SM OVC066 M01/M01 A2975 RMK AC8 SLP100

CYXE;2007-11-04 14:00;CYXE 041400Z 30006KT 15SM OVC063 M00/M01 A2977 RMK SC8 SLP105

CYXE;2007-11-04 15:00;CYXE 041500Z 31009KT 15SM BKN055 BKN098 M00/M01 A2979 RMK SC6AC2 SLP115

CYXE;2007-11-04 16:00;CYXE 041600Z 30012KT 15SM FEW055 BKN077 OVC230 01/M00 A2982 RMK SC2AC2CI1 SLP125

CYXE;2007-11-04 17:00;CYXE 041700Z 31014KT 15SM FEW015 FEW064 BKN074 01/M00 A2983 RMK CF1SC2AC5 SLP129

CYXE;2007-11-04 18:00;CYXE 041800Z 30013KT 15SM FEW014 FEW076 BKN230 03/M00 A2985 RMK CF1AC2CI2 SLP133

CYXE;2007-11-04 19:00;CYXE 041900Z 30016G21KT 15SM FEW020 FEW080 SCT230 04/M01 A2986 RMK CU1AC1CI2 SLP134

CYXE;2007-11-04 20:00;CYXE 042000Z 30017G25KT 15SM BKN035 BKN230 05/M04 A2986 RMK SC5CI1 SLP136

CYXE;2007-11-04 21:00;CYXE 042100Z 31016G24KT 15SM FEW040 FEW230 05/M04 A2987 RMK SC2CI1 CU ASOCTD SLP139

CYXE;2007-11-04 22:00;CYXE 042200Z 30019G24KT 15SM FEW040 FEW230 04/M04 A2989 RMK SC2CI1 CU ASOCTD SLP145

CYXE;2007-11-04 23:00;CYXE 042300Z 30018G26KT 15SM FEW050 03/M04 A2991 RMK SC2 SLP152

CYXE;2007-11-05 00:00;CYXE 050000Z 29013KT 15SM FEW050 02/M04 A2993 RMK SC2 SLP161

CYXE;2007-11-05 01:00;CYXE 050100Z 29015KT 15SM SCT050 01/M04 A2995 RMK SC3 SLP169

CYXE;2007-11-05 02:00;CYXE 050200Z 30015KT 15SM BKN050 00/M02 A2998 RMK SC6 SLP176

CYXE;2007-11-05 03:00;CYXE 050300Z 33012KT 15SM BKN035 OVC095 01/M05 A3001 RMK SC5AC2 SLP189

CYXE;2007-11-05 04:00;CYXE 050400Z 34011G17KT 15SM BKN035 OVC080 00/M07 A3004 RMK SC6AC2 SLP198

CYXE;2007-11-05 04:21;CYXE 050421Z 33012G17KT 15SM -SN BKN035 OVC080 M00/ RMK SC6AC2

CYXE;2007-11-05 05:00;CYXE 050500Z 32016KT 15SM -SN OVC036 M00/M07 A3007 RMK SC8 SLP208

CYXE;2007-11-05 05:08;CYXE 050508Z 32017KT 15SM BKN036 OVC082 M00/ RMK SC6AC2

CYXE;2007-11-05 06:00;CYXE 050600Z 34014G22KT 15SM OVC036 M01/M09 A3011 RMK SC8 SLP221

CYXE;2007-11-05 07:00;CYXE 050700Z 34016G22KT 15SM OVC034 M02/M10 A3014 RMK SC8 SLP233

CYXE;2007-11-05 08:00;CYXE 050800Z 33015G22KT 15SM OVC036 M02/M10 A3017 RMK SC8 SLP241

CYXE;2007-11-05 09:00;CYXE 050900Z 33020KT 15SM OVC036 M02/M09 A3020 RMK SC8 SLP252

CYXE;2007-11-05 10:00;CYXE 051000Z 32013G20KT 15SM OVC034 M03/M09 A3023 RMK SC8 SLP262

CYXE;2007-11-05 11:00;CYXE 051100Z 33011G16KT 15SM BKN034 M04/M10 A3026 RMK SC6 SLP273

CYXE;2007-11-05 12:00;CYXE 051200Z 33009KT 15SM BKN032 M03/M09 A3029 RMK SC6 SLP288

CYXE;2007-11-05 13:00;CYXE 051300Z 32011G16KT 15SM OVC030 M03/M09 A3031 RMK SC8 SLP293

CYXE;2007-11-05 14:00;CYXE 051400Z 33009KT 15SM BKN030 OVC094 M03/M09 A3033 RMK SC7AC1 SLP301

CYXE;2007-11-05 15:00;CYXE 051500Z 34013KT 15SM FEW028 FEW094 M04/M10 A3035 RMK SC2AC1 SLP308

CYXE;2007-11-05 16:00;CYXE 051600Z 34014G20KT 15SM FEW028 M04/M11 A3037 RMK SC1 SLP315

CYXE;2007-11-05 17:00;CYXE 051700Z 34016KT 15SM FEW028 M03/M11 A3039 RMK SC1 SLP321

CYXE;2007-11-05 18:00;CYXE 051800Z 34012G18KT 15SM FEW030 M02/M10 A3039 RMK SC1 SLP322

CYXE;2007-11-05 19:00;CYXE 051900Z 32009KT 15SM SKC M02/M11 A3039 RMK SLP323

CYXE;2007-11-05 20:00;CYXE 052000Z 29008KT 15SM SKC M01/M09 A3039 RMK SLP323

CYXE;2007-11-05 21:00;CYXE 052100Z 32011KT 15SM SKC M01/M11 A3039 RMK SLP321

CYXE;2007-11-05 22:00;CYXE 052200Z 32008KT 15SM FEW250 M01/M12 A3039 RMK CI1 SLP323

CYXE;2007-11-05 23:00;CYXE 052300Z 31005KT 15SM FEW250 M02/M11 A3039 RMK CI1 SLP321

CYXE;2007-11-06 00:00;CYXE 060000Z 31004KT 15SM FEW250 M05/M11 A3040 RMK CI1 SLP328

CYXE;2007-11-06 01:00;CYXE 060100Z 28005KT 15SM SKC M06/M11 A3040 RMK SLP328

CYXE;2007-11-06 02:00;CYXE 060200Z 03007KT 15SM SKC M09/M12 A3040 RMK SLP328

CYXE;2007-11-06 03:00;CYXE 060300Z 09004KT 15SM SKC M08/M12 A3039 RMK SLP327

CYXE;2007-11-06 04:00;CYXE 060400Z 13003KT 15SM SKC M07/M11 A3039 RMK SLP326

CYXE;2007-11-06 05:00;CYXE 060500Z 13006KT 15SM SKC M09/M13 A3038 RMK SLP324

CYXE;2007-11-06 06:00;CYXE 060600Z 14006KT 15SM SKC M09/M12 A3037 RMK SLP320

CYXE;2007-11-06 07:00;CYXE 060700Z 15007KT 15SM SKC M09/M12 A3036 RMK SLP317

CYXE;2007-11-06 08:00;CYXE 060800Z 15005KT 15SM SKC M09/M12 A3034 RMK SLP311

CYXE;2007-11-06 09:00;CYXE 060900Z 16005KT 15SM SKC M09/M12 A3033 RMK SLP305

CYXE;2007-11-06 10:00;CYXE 061000Z 16007KT 15SM SKC M09/M12 A3029 RMK SLP294

CYXE;2007-11-06 11:00;CYXE 061100Z 16007KT 15SM SKC M09/M11 A3028 RMK SLP289

CYXE;2007-11-06 12:00;CYXE 061200Z 15007KT 15SM SKC M09/M11 A3024 RMK SLP278

CYXE;2007-11-06 13:00;CYXE 061300Z 17007KT 15SM FEW140 M08/M11 A3023 RMK AC1 SLP275

CYXE;2007-11-06 14:00;CYXE 061400Z 16007KT 15SM FEW140 SCT280 M07/M10 A3022 RMK AC2CI0 SLP270

CYXE;2007-11-06 15:00;CYXE 061500Z 16009KT 15SM FEW140 BKN280 M06/M09 A3018 RMK AC2CI0 SLP257

CYXE;2007-11-06 16:00;CYXE 061600Z 16010G16KT 15SM SCT120 BKN280 M04/M07 A3014 RMK AC2CI0 SLP243

CYXE;2007-11-06 17:00;CYXE 061700Z 17009KT 15SM BKN120 BKN280 M01/M06 A3010 RMK AC3CI0 SLP232

CYXE;2007-11-06 18:00;CYXE 061800Z 18016KT 15SM BKN120 BKN280 01/M07 A3007 RMK AC5CI1 SLP215

CYXE;2007-11-06 19:00;CYXE 061900Z 18016KT 15SM FEW120 BKN280 04/M07 A2999 RMK AC2CI3 PRESFR SLP190

CYXE;2007-11-06 20:00;CYXE 062000Z 19019G25KT 15SM SCT120 OVC280 04/M06 A2996 RMK AC4CI2 SLP179

CYXE;2007-11-06 21:00;CYXE 062100Z 19011KT 15SM BKN120 OVC280 05/M06 A2994 RMK AC5CS3 SLP169

CYXE;2007-11-06 22:00;CYXE 062200Z 19010KT 15SM BKN120 OVC280 06/M06 A2994 RMK AC5CS3 SLP169

CYXE;2007-11-06 23:00;CYXE 062300Z 18007KT 15SM BKN090 OVC280 05/M06 A2992 RMK AS6CS2 SLP163

CYXE;2007-11-07 00:00;CYXE 070000Z 17006KT 15SM SCT090 BKN280 04/M05 A2989 RMK AC3CS2 SLP152

CYXE;2007-11-07 01:00;CYXE 070100Z 17006KT 15SM SCT090 BKN280 03/M05 A2988 RMK AC4CI2 SLP148

CYXE;2007-11-07 02:00;CYXE 070200Z 26004KT 15SM FEW087 SCT280 02/M02 A2988 RMK AC2CI1 SLP148

CYXE;2007-11-07 03:00;CYXE 070300Z 23005KT 15SM FEW085 SCT280 M01/M05 A2987 RMK AC2CI1 SLP146

CYXE;2007-11-07 04:00;CYXE 070400Z 22004KT 15SM FEW080 SCT280 M01/M05 A2986 RMK AC2CI1 SLP144

CYXE;2007-11-07 05:00;CYXE 070500Z 31004KT 15SM FEW073 BKN280 M00/M03 A2987 RMK AC2CI4 SLP147

CYXE;2007-11-07 06:00;CYXE 070600Z 30004KT 15SM FEW085 BKN280 00/M03 A2988 RMK AC1CI2 SLP143

CYXE;2007-11-07 07:00;CYXE 070700Z 31006KT 15SM FEW082 BKN280 M02/M04 A2989 RMK AC2CI2 SLP146

CYXE;2007-11-07 08:00;CYXE 070800Z 31007KT 15SM FEW085 BKN280 M00/M03 A2990 RMK AC2CI2 SLP151

CYXE;2007-11-07 09:00;CYXE 070900Z 31007KT 15SM FEW085 BKN280 M01/M03 A2992 RMK AC2CI3 SLP155

CYXE;2007-11-07 10:00;CYXE 071000Z 31006KT 15SM FEW097 FEW280 M02/M05 A2993 RMK AC1CI0 SLP160

CYXE;2007-11-07 11:00;CYXE 071100Z 31005KT 15SM SCT028 BKN280 M03/M05 A2995 RMK SC4CI0 SLP164

CYXE;2007-11-07 12:00;CYXE 071200Z 27006KT 15SM FEW028 FEW280 M02/M06 A2995 RMK SC1CI0 SLP167

CYXE;2007-11-07 13:00;CYXE 071300Z 30007KT 15SM FEW030 M06/M08 A2995 RMK SC1 SLP169

CYXE;2007-11-07 14:00;CYXE 071400Z 31008KT 15SM FEW090 M06/M08 A2997 RMK AC2 SLP174

CYXE;2007-11-07 15:00;CYXE 071500Z 32008KT 15SM SCT020 BKN090 M05/M06 A2999 RMK SC3AC2 SLP188

CYXE;2007-11-07 16:00;CYXE 071600Z 35006KT 15SM FEW090 FEW200 M02/M04 A3001 RMK AC1CI1 SLP193

CYXE;2007-11-07 17:00;CYXE 071700Z 36007KT 15SM FEW100 SCT220 M00/M05 A3002 RMK AC2CI0 SLP195

CYXE;2007-11-07 18:00;CYXE 071800Z 35006KT 15SM SCT220 01/M06 A3003 RMK CI2 SLP195

CYXE;2007-11-07 19:00;CYXE 071900Z 35005KT 15SM FEW030 FEW220 02/M06 A3002 RMK SC1CI0 SLP192

CYXE;2007-11-07 20:00;CYXE 072000Z 32007KT 15SM FEW050 SCT280 02/M06 A3002 RMK SC1CI0 SLP192

CYXE;2007-11-07 21:00;CYXE 072100Z 33006KT 15SM FEW280 02/M07 A3002 RMK CI0 SLP192

CYXE;2007-11-07 22:00;CYXE 072200Z 36004KT 15SM FEW090 SCT280 02/M07 A3000 RMK AC2CI0 SLP186

CYXE;2007-11-07 23:00;CYXE 072300Z 06005KT 15SM SCT100 SCT280 M00/M07 A2999 RMK AC2CI0 SLP182

CYXE;2007-11-08 00:00;CYXE 080000Z 09003KT 15SM SCT100 OVC280 M03/M08 A2999 RMK AC2CI1 SLP187

CYXE;2007-11-08 01:00;CYXE 080100Z 10006KT 15SM SCT100 OVC280 M05/M08 A2999 RMK AC2CI1 OBS TAKEN +10 SLP184

CYXE;2007-11-08 02:00;CYXE 080200Z 10006KT 15SM SCT120 OVC280 M03/M07 A2998 RMK AC2CI2 SLP181

CYXE;2007-11-08 03:00;CYXE 080300Z 13005KT 15SM BKN090 OVC280 M02/M07 A2996 RMK AC7CI1 SLP178

CYXE;2007-11-08 04:00;CYXE 080400Z 13008KT 15SM BKN050 OVC280 M02/M07 A2995 RMK SC6CI1 SLP173

CYXE;2007-11-08 05:00;CYXE 080500Z 14008KT 15SM OVC046 M02/M07 A2994 RMK SC7 SLP169

CYXE;2007-11-08 06:00;CYXE 080600Z 14006KT 15SM OVC051 M02/M07 A2993 RMK SC8 SLP164

CYXE;2007-11-08 06:25;CYXE 080625Z 16006KT 10SM -SN BKN031 OVC050 M02/ RMK SC6SC2

CYXE;2007-11-08 07:00;CYXE 080700Z 15006KT 4SM -SN BKN015 OVC030 M03/M05 A2991 RMK SC6SC2 SLP156

CYXE;2007-11-08 08:00;CYXE 080800Z 14005KT 3SM -SN BKN017 OVC030 M03/M04 A2989 RMK SC6SC2 SLP150

CYXE;2007-11-08 09:00;CYXE 080900Z 11005KT 5SM -SN BKN012 OVC025 M03/M04 A2987 RMK SC6SC2 SLP141

CYXE;2007-11-08 10:00;CYXE 081000Z 12007KT 10SM -SN BKN012 OVC021 M02/M03 A2986 RMK SC6SC2 SLP137

CYXE;2007-11-08 11:00;CYXE 081100Z 13007KT 15SM -SN SCT012 BKN021 M03/M03 A2984 RMK SC4SC2 /S02/ SLP131

CYXE;2007-11-08 11:33;CYXE 081133Z 14004KT 15SM -SN BKN009 OVC035 M02/ RMK SC6SC2

CYXE;2007-11-08 12:00;CYXE 081200Z 15004KT 15SM -SN BKN009 BKN050 M02/M03 A2983 RMK SC5SC2 SLP132

CYXE;2007-11-08 13:00;CYXE 081300Z 14003KT 15SM -SN SCT009 BKN055 M03/M03 A2982 RMK SC3SC3 SLP128

CYXE;2007-11-08 14:00;CYXE 081400Z CCA 17003KT 15SM -SN SCT008 BKN062 M03/M03 A2983 RMK SC4SC2 SLP130

CYXE;2007-11-08 14:18;CYXE 081418Z 18002KT 10SM -SN BKN006 BKN059 M02/ RMK SC6SC2

CYXE;2007-11-08 14:40;CYXE 081440Z 00000KT 10SM -SN BKN008 OVC059 M02/ RMK SC6SC2

CYXE;2007-11-08 15:00;CYXE 081500Z 27002KT 10SM -SN OVC006 OVC059 M02/M03 A2983 RMK SF6SC2 SLP132

CYXE;2007-11-08 15:14;CYXE 081514Z 26003KT 8SM OVC004 OVC059 M02/ RMK SF6SC2 BR

CYXE;2007-11-08 15:32;CYXE 081532Z 24004KT 8SM OVC003 OVC059 M01/ RMK SF6SC2 BR

CYXE;2007-11-08 15:52;CYXE 081552Z 25008KT 2SM BR OVC002 M01/ RMK SF8

CYXE;2007-11-08 16:00;CYXE 081600Z 26006KT 2SM BR OVC002 M01/M02 A2983 RMK SF8 SLP131

CYXE;2007-11-08 16:12;CYXE 081612Z 21003KT 1SM R09/P6000FT/U BR OVC001 M02/ RMK SF8

CYXE;2007-11-08 16:31;CYXE 081631Z 26007KT 2SM BR OVC002 M01/ RMK SF8

CYXE;2007-11-08 17:00;CYXE 081700Z 25005KT 3SM BR BKN002 OVC059 M01/M01 A2984 RMK SF6SC2 SLP133

CYXE;2007-11-08 17:22;CYXE 081722Z 24006KT 8SM SCT003 BKN059 M00/ RMK SF2SC3 BR

CYXE;2007-11-08 18:00;CYXE 081800Z 26006KT 15SM FEW005 BKN080 00/M01 A2984 RMK SF2AC3 SLP133

CYXE;2007-11-08 19:00;CYXE 081900Z 27006KT 15SM SCT020 BKN093 03/01 A2984 RMK SC3AC2 SLP133

CYXE;2007-11-08 20:00;CYXE 082000Z 30015G22KT 15SM BKN016 04/02 A2985 RMK SC7 SLP136

CYXE;2007-11-08 21:00;CYXE 082100Z 31014G20KT 15SM SCT020 03/00 A2987 RMK SC4 SLP140

CYXE;2007-11-08 22:00;CYXE 082200Z 31016G24KT 15SM BKN025 BKN052 03/M02 A2990 RMK SC5SC2 SLP149

CYXE;2007-11-08 23:00;CYXE 082300Z 31019G27KT 15SM OVC025 01/M04 A2993 RMK SC8 SLP161

CYXE;2007-11-09 00:00;CYXE 090000Z 31021G26KT 15SM OVC025 M00/M05 A2997 RMK SC8 SLP177

CYXE;2007-11-09 01:00;CYXE 090100Z 32020KT 15SM OVC025 M00/M05 A3000 RMK SC8 SLP187

CYXE;2007-11-09 02:00;CYXE 090200Z 32014G20KT 15SM OVC025 M00/M05 A3003 RMK SC8 SLP195

CYXE;2007-11-09 03:00;CYXE 090300Z 32013KT 15SM OVC022 M01/M05 A3006 RMK SC8 SLP208

CYXE;2007-11-09 04:00;CYXE 090400Z 32013KT 15SM OVC020 M02/M05 A3009 RMK SC8 SLP218

CYXE;2007-11-09 05:00;CYXE 090500Z 35008KT 15SM OVC022 M02/M06 A3011 RMK SC8 SLP225

CYXE;2007-11-09 06:00;CYXE 090600Z 36007KT 15SM OVC020 M02/M06 A3013 RMK SC8 SLP231

CYXE;2007-11-09 07:00;CYXE 090700Z 35005KT 15SM OVC020 M02/M06 A3014 RMK SC8 SLP234

CYXE;2007-11-09 08:00;CYXE 090800Z 33006KT 15SM OVC025 M03/M06 A3015 RMK SC8 SLP238

CYXE;2007-11-09 09:00;CYXE 090900Z 31004KT 15SM OVC025 M03/M06 A3015 RMK SC8 SLP238

CYXE;2007-11-09 10:00;CYXE 091000Z 33004KT 15SM OVC025 M03/M06 A3015 RMK SC8 SLP237

CYXE;2007-11-09 11:00;CYXE 091100Z 00000KT 15SM OVC023 M03/M06 A3014 RMK SC8 SLP235

CYXE;2007-11-09 12:00;CYXE 091200Z 14002KT 15SM OVC019 M03/M06 A3013 RMK SC8 SLP232

CYXE;2007-11-09 13:00;CYXE 091300Z 19004KT 15SM OVC019 M03/M06 A3012 RMK SC8 SLP231

CYXE;2007-11-09 14:00;CYXE 091400Z 15006KT 15SM OVC019 M03/M06 A3010 RMK SC8 SLP223

CYXE;2007-11-09 15:00;CYXE 091500Z 18010KT 15SM OVC019 M03/M06 A3009 RMK SC8 SLP220

CYXE;2007-11-09 16:00;CYXE 091600Z 16011KT 15SM OVC019 M02/M06 A3008 RMK SC8 SLP215

CYXE;2007-11-09 17:00;CYXE 091700Z 17011G16KT 15SM OVC019 M02/M06 A3003 RMK SC8 SLP200

CYXE;2007-11-09 18:00;CYXE 091800Z 16013KT 15SM BKN020 BKN070 M00/M05 A2999 RMK SC5AC1 SLP185

CYXE;2007-11-09 19:00;CYXE 091900Z 14014G20KT 15SM FEW020 BKN070 OVC250 M01/M06 A2994 RMK SC2AC4CI2 SLP168

CYXE;2007-11-09 20:00;CYXE 092000Z 16016KT 15SM SCT023 OVC080 M01/M05 A2990 RMK SC3AC5 SLP156

CYXE;2007-11-09 21:00;CYXE 092100Z CCA 15011G19KT 15SM FEW025 BKN068 OVC092 00/M05 A2984 RMK SC2AC5AC2 PRESFR SLP133

CYXE;2007-11-09 22:00;CYXE 092200Z 15015KT 15SM BKN070 OVC100 M00/M05 A2979 RMK AC6AC2 SLP117

CYXE;2007-11-09 23:00;CYXE 092300Z 14017KT 15SM FEW045 BKN072 OVC100 M00/M05 A2975 RMK SC1AC6AC1 SLP104

CYXE;2007-11-10 00:00;CYXE 100000Z 16012G21KT 15SM SCT055 BKN075 M00/M05 A2972 RMK SC4AC3 SLP094

CYXE;2007-11-10 01:00;CYXE 100100Z 16018KT 15SM SCT059 OVC074 00/M04 A2964 RMK SC4AC4 OBS TAKEN +24 SLP067

CYXE;2007-11-10 02:00;CYXE 100200Z 16013G19KT 15SM FEW060 BKN075 00/M04 A2964 RMK SC2AC5 SLP066

CYXE;2007-11-10 03:00;CYXE 100300Z 15011G16KT 15SM BKN085 00/M04 A2961 RMK AC5 SLP053

CYXE;2007-11-10 04:00;CYXE 100400Z 17014G19KT 15SM FEW095 00/M04 A2956 RMK AC2 SLP038

CYXE;2007-11-10 05:00;CYXE 100500Z 17013G18KT 15SM SKC 00/M04 A2954 RMK SLP030

CYXE;2007-11-10 06:00;CYXE 100600Z 17010KT 15SM SKC M00/M04 A2952 RMK SLP021

CYXE;2007-11-10 07:00;CYXE 100700Z 16007KT 15SM SKC M01/M04 A2953 RMK SLP024

CYXE;2007-11-10 08:00;CYXE 100800Z 18003KT 15SM SKC M01/M04 A2954 RMK SLP027

CYXE;2007-11-10 09:00;CYXE 100900Z 30003KT 15SM SKC M05/M06 A2955 RMK SLP036

CYXE;2007-11-10 10:00;CYXE 101000Z 11003KT 15SM SKC M06/M07 A2953 RMK SLP027

CYXE;2007-11-10 11:00;CYXE 101100Z 22005KT 15SM FEW020 M05/M06 A2955 RMK SF0 SLP035

CYXE;2007-11-10 12:00;CYXE 101200Z 00000KT 15SM FEW020 M06/M06 A2955 RMK SF0 SLP036

CYXE;2007-11-10 13:00;CYXE 101300Z 26006KT 15SM SKC M06/M06 A2956 RMK SLP039

CYXE;2007-11-10 14:00;CYXE 101400Z 31003KT 15SM BKN250 M07/M08 A2956 RMK CI2 SLP040

CYXE;2007-11-10 15:00;CYXE 101500Z 23003KT 15SM SCT250 M07/M07 A2957 RMK CI2 SLP042

CYXE;2007-11-10 16:00;CYXE 101600Z 04002KT 15SM SCT120 SCT250 M03/M05 A2955 RMK AC3CI0 SLP035

CYXE;2007-11-10 17:00;CYXE 101700Z 14002KT 15SM FEW120 BKN250 M01/M04 A2954 RMK AC2CI1 SLP033

CYXE;2007-11-10 18:00;CYXE 101800Z 15003KT 15SM FEW120 BKN250 01/M03 A2953 RMK AC1CI5 SLP025

CYXE;2007-11-10 19:00;CYXE 101900Z 16004KT 15SM FEW120 BKN250 04/M03 A2950 RMK AC1CI5 SLP015

CYXE;2007-11-10 20:00;CYXE 102000Z 12006KT 15SM FEW120 BKN250 04/M02 A2947 RMK AC1CI3 SLP005

CYXE;2007-11-10 21:00;CYXE 102100Z 12007KT 15SM FEW120 BKN250 05/M02 A2945 RMK AC2CI2 SLP996

CYXE;2007-11-10 22:00;CYXE 102200Z 10007KT 15SM BKN120 BKN250 04/M02 A2943 RMK AC5CI1 SLP991

CYXE;2007-11-10 23:00;CYXE 102300Z 12005KT 15SM BKN120 BKN250 03/M02 A2942 RMK AC6CI1 SLP987

CYXE;2007-11-11 00:00;CYXE 110000Z 09006KT 15SM FEW080 BKN120 BKN250 02/M01 A2940 RMK AC1AC6CI1 SLP981

CYXE;2007-11-11 01:00;CYXE 110100Z 10006KT 15SM SCT084 OVC120 04/M01 A2937 RMK AC4AC4 SLP973

CYXE;2007-11-11 02:00;CYXE 110200Z 11008KT 15SM OVC082 04/M00 A2935 RMK AC8 SLP965

CYXE;2007-11-11 03:00;CYXE 110300Z 11011KT 15SM BKN056 OVC085 05/M01 A2931 RMK SC6AC2 SLP949

CYXE;2007-11-11 03:54;CYXE 110354Z 10003KT 15SM -RA BKN057 OVC080 05/ RMK SC6AC2

CYXE;2007-11-11 04:00;CYXE 110400Z 11004KT 15SM -RA BKN048 OVC080 05/M00 A2929 RMK SC6AC2 SLP945

CYXE;2007-11-11 04:53;CYXE 110453Z 12005KT 15SM BKN041 OVC080 04/ RMK SC6AC2

CYXE;2007-11-11 05:00;CYXE 110500Z 11007KT 15SM BKN041 OVC080 04/01 A2927 RMK SC6AC2 SLP938

CYXE;2007-11-11 06:00;CYXE 110600Z 18007KT 15SM BKN085 04/01 A2925 RMK AC6 SLP924

CYXE;2007-11-11 07:00;CYXE 110700Z 19006KT 15SM SCT090 04/M00 A2923 RMK AC3 SLP919

CYXE;2007-11-11 08:00;CYXE 110800Z 22009KT 15SM FEW090 06/M01 A2921 RMK AC2 SLP911

CYXE;2007-11-11 09:00;CYXE 110900Z 30014G19KT 15SM FEW012 M01/M02 A2925 RMK SC2 SLP925

CYXE;2007-11-11 09:18;CYXE 110918Z 31013G19KT 15SM BKN004 M02/ RMK SC5

CYXE;2007-11-11 09:43;CYXE 110943Z 30019G25KT 10SM BKN005 M02/ RMK SC6

CYXE;2007-11-11 10:00;CYXE 111000Z 32018G24KT 10SM BKN006 OVC020 M01/M02 A2929 RMK SC6SC2 SLP940

CYXE;2007-11-11 11:00;CYXE 111100Z 31023G29KT 15SM OVC009 01/M01 A2934 RMK SC8 SLP955

CYXE;2007-11-11 11:12;CYXE 111112Z 31021G32KT 15SM OVC010 01/ RMK SC8

CYXE;2007-11-11 11:17;CYXE 111117Z 31022G31KT 15SM -SN OVC010 00/ RMK SC8

CYXE;2007-11-11 11:31;CYXE 111131Z 31022G29KT 8SM -SN OVC008 00/ RMK SC8

CYXE;2007-11-11 11:47;CYXE 111147Z 31021G29KT 3SM -SN OVC007 M00/ RMK SC8

CYXE;2007-11-11 11:51;CYXE 111151Z 31023G29KT 2SM -SN DRSN OVC007 M00/ RMK SC8

CYXE;2007-11-11 11:55;CYXE 111155Z 31025G32KT 1SM R09/4500VP6000FT/D -SN DRSN OVC008 M00/ RMK SC8

CYXE;2007-11-11 12:00;CYXE 111200Z 31025G32KT 1SM R09/4000VP6000FT/D -SN DRSN OVC008 M00/M01 A2941 RMK SC8 PRESRR SLP980

CYXE;2007-11-11 12:06;CYXE 111206Z 31021G30KT 1/2SM R09/3500FT/D SN DRSN OVC004 M00/ RMK SC8

CYXE;2007-11-11 12:16;CYXE 111216Z 31021G30KT 1SM R09/3500VP6000FT/U -SN DRSN OVC004 M01/ RMK SC8

CYXE;2007-11-11 13:00;CYXE 111300Z 31018KT 1SM R09/P6000FT/U -SN DRSN OVC005 M00/M00 A2946 RMK SC8 SLP998

CYXE;2007-11-11 13:37;CYXE 111337Z 31015G20KT 4SM -SN OVC009 01/ RMK SC8

CYXE;2007-11-11 14:00;CYXE 111400Z 30015G20KT 12SM -SN OVC010 01/01 A2950 RMK SC8 SLP010

CYXE;2007-11-11 14:13;CYXE 111413Z 30017G22KT 15SM BKN011 01/ RMK SC6

CYXE;2007-11-11 15:00;CYXE 111500Z 30016KT 15SM SCT030 BKN100 BKN250 01/M01 A2954 RMK SC3AC2CI0 SLP024

CYXE;2007-11-11 16:00;CYXE 111600Z 30019G24KT 15SM BKN100 BKN250 02/M03 A2958 RMK AC4CI0 SLP036

CYXE;2007-11-11 17:00;CYXE 111700Z 29016G24KT 15SM FEW100 FEW250 03/M03 A2961 RMK AC1CI1 SLP048

CYXE;2007-11-11 18:00;CYXE 111800Z 30018KT 15SM FEW100 FEW250 04/M04 A2964 RMK AC1CI0 SLP059

CYXE;2007-11-11 19:00;CYXE 111900Z 30016G22KT 15SM FEW250 05/M04 A2966 RMK CI1 SLP064

CYXE;2007-11-11 20:00;CYXE 112000Z 29019KT 15SM FEW250 06/M05 A2968 RMK CI0 SLP070

CYXE;2007-11-11 21:00;CYXE 112100Z 28011G17KT 15SM FEW250 06/M05 A2971 RMK CI0 SLP082

CYXE;2007-11-11 22:00;CYXE 112200Z 29009KT 15SM FEW250 06/M06 A2972 RMK CI0 SLP085

CYXE;2007-11-11 23:00;CYXE 112300Z 23006KT 15SM FEW120 FEW250 02/M05 A2974 RMK AC1CI0 SLP092

CYXE;2007-11-12 00:00;CYXE 120000Z 24006KT 15SM FEW120 SCT250 M00/M05 A2975 RMK AC2CI0 SLP100

CYXE;2007-11-12 01:00;CYXE 120100Z 22007KT 15SM FEW120 BKN250 M01/M05 A2977 RMK AC2CI1 SLP106

CYXE;2007-11-12 02:00;CYXE 120200Z 22008KT 15SM FEW250 M01/M05 A2977 RMK CI0 SLP106

CYXE;2007-11-12 03:00;CYXE 120300Z 18008KT 15SM FEW250 M02/M06 A2977 RMK CI0 SLP107

CYXE;2007-11-12 04:00;CYXE 120400Z 18005KT 15SM SKC M02/M07 A2975 RMK SLP100

CYXE;2007-11-12 05:00;CYXE 120500Z 19009KT 15SM SKC M01/M08 A2976 RMK SLP104

CYXE;2007-11-12 06:00;CYXE 120600Z 20007KT 15SM SKC M01/M08 A2975 RMK SLP100

CYXE;2007-11-12 07:00;CYXE 120700Z 22007KT 15SM SKC M04/M08 A2976 RMK SLP103

CYXE;2007-11-12 08:00;CYXE 120800Z 21008KT 15SM SKC M02/M08 A2975 RMK SLP100

CYXE;2007-11-12 09:00;CYXE 120900Z 22008KT 15SM SKC M03/M07 A2976 RMK SLP100

CYXE;2007-11-12 10:00;CYXE 121000Z 22010KT 15SM SKC M03/M07 A2976 RMK SLP101

CYXE;2007-11-12 11:00;CYXE 121100Z 22008KT 15SM SKC M03/M07 A2974 RMK SLP096

CYXE;2007-11-12 12:00;CYXE 121200Z 22011KT 15SM FEW250 M02/M06 A2973 RMK CI1 SLP095

CYXE;2007-11-12 13:00;CYXE 121300Z 22011KT 15SM FEW095 FEW250 M02/M06 A2972 RMK AC1CI0 SLP091

CYXE;2007-11-12 14:00;CYXE 121400Z 22009KT 15SM SCT250 M01/M06 A2970 RMK CI1 SLP084

CYXE;2007-11-12 15:00;CYXE 121500Z 18007KT 15SM FEW095 BKN250 M02/M06 A2968 RMK AC1CI2 SLP077

CYXE;2007-11-12 16:00;CYXE 121600Z 20009KT 15SM FEW100 SCT250 00/M06 A2964 RMK AC2CI1 CONTRAILS SLP065

CYXE;2007-11-12 17:00;CYXE 121700Z 20012KT 15SM BKN100 BKN250 03/M05 A2961 RMK AC5CI1 SLP056

CYXE;2007-11-12 18:00;CYXE 121800Z 20012KT 15SM FEW100 OVC250 05/M05 A2956 RMK AC1CI6 SLP033

CYXE;2007-11-12 19:00;CYXE 121900Z 20012G18KT 15SM SCT100 OVC250 07/M05 A2952 RMK AC3CI4 SLP021

CYXE;2007-11-12 20:00;CYXE 122000Z 19011KT 15SM SCT090 OVC250 08/M05 A2949 RMK AC3CI4 SLP010

CYXE;2007-11-12 21:00;CYXE 122100Z 19011KT 15SM BKN100 OVC250 08/M06 A2942 RMK AC6CI2 SLP983

CYXE;2007-11-12 22:00;CYXE 122200Z 19011KT 15SM BKN100 OVC250 09/M06 A2938 RMK AC6CI2 SLP970

CYXE;2007-11-12 23:00;CYXE 122300Z 18012KT 15SM BKN100 OVC250 08/M06 A2933 RMK AC5CI3 SLP955

CYXE;2007-11-13 00:00;CYXE 130000Z 19012KT 15SM BKN100 BKN250 07/M07 A2927 RMK AC5CI2 PRESFR SLP931

CYXE;2007-11-13 01:00;CYXE 130100Z 19012KT 15SM OVC100 07/M07 A2922 RMK AC8 PRESFR SLP916

CYXE;2007-11-13 02:00;CYXE 130200Z 19013KT 15SM OVC090 07/M07 A2916 RMK AC8 PRESFR SLP896

CYXE;2007-11-13 03:00;CYXE 130300Z 19011KT 15SM OVC090 08/M08 A2909 RMK AC8 PRESFR SLP868

CYXE;2007-11-13 04:00;CYXE 130400Z 19010KT 15SM OVC082 09/M07 A2903 RMK AC8 PRESFR SLP850

CYXE;2007-11-13 05:00;CYXE 130500Z 22018G27KT 15SM BKN100 11/M06 A2898 RMK AC6 SLP835

CYXE;2007-11-13 06:00;CYXE 130600Z 24018G25KT 15SM BKN090 10/M04 A2897 RMK AC7 SLP824

CYXE;2007-11-13 07:00;CYXE 130700Z 25012G17KT 15SM BKN060 09/M02 A2898 RMK SC6 SLP826

CYXE;2007-11-13 08:00;CYXE 130800Z 25011G17KT 15SM OVC090 07/M01 A2899 RMK AC7 SLP831

CYXE;2007-11-13 09:00;CYXE 130900Z 26011KT 15SM BKN090 06/M00 A2900 RMK AC5 SLP835

CYXE;2007-11-13 10:00;CYXE 131000Z 27015KT 15SM FEW090 06/00 A2902 RMK AC1 SLP840

CYXE;2007-11-13 11:00;CYXE 131100Z 27010KT 15SM SKC 04/M00 A2905 RMK SLP850

CYXE;2007-11-13 12:00;CYXE 131200Z 26012KT 15SM FEW100 04/M01 A2908 RMK AC2 SLP864

CYXE;2007-11-13 13:00;CYXE 131300Z CCA 29022G31KT 15SM BKN030 06/00 A2914 RMK SC6 SLP881

CYXE;2007-11-13 14:00;CYXE 131400Z 30020G30KT 15SM OVC030 06/M00 A2917 RMK SC7 SLP891

CYXE;2007-11-13 15:00;CYXE 131500Z 29021G33KT 15SM BKN030 BKN060 05/M00 A2920 RMK SC6SC1 SLP902

CYXE;2007-11-13 16:00;CYXE 131600Z 29023G34KT 15SM BKN024 BKN085 05/M00 A2924 RMK SC6AC1 SLP915

CYXE;2007-11-13 17:00;CYXE 131700Z 29018G28KT 15SM BKN030 OVC050 05/M02 A2928 RMK SC7SC1 SLP930

CYXE;2007-11-13 18:00;CYXE 131800Z 29019G29KT 15SM OVC035 05/M02 A2932 RMK SC8 SLP942

CYXE;2007-11-13 19:00;CYXE 131900Z 30028G37KT 15SM OVC030 04/M03 A2934 RMK SC8 SLP950

CYXE;2007-11-13 20:00;CYXE 132000Z 31023G34KT 15SM VCSH OVC030 03/M02 A2938 RMK SC8 SLP964

CYXE;2007-11-13 20:02;CYXE 132002Z 31022G34KT 10SM -SN OVC020 03/ RMK SC8

CYXE;2007-11-13 20:06;CYXE 132006Z 31022G34KT 10SM -SN OVC020 03/ RMK SC8

CYXE;2007-11-13 20:31;CYXE 132031Z 31024G35KT 15SM -SHSN BKN014 OVC025 02/ RMK SC5SC3

CYXE;2007-11-13 21:00;CYXE 132100Z 31023G30KT 15SM -SHSN BKN012 OVC029 02/M01 A2944 RMK SC7SC1 SLP988

CYXE;2007-11-13 22:00;CYXE 132200Z 32021G26KT 15SM -SHSN BKN014 OVC032 02/M02 A2949 RMK SC7SC1 SLP006

CYXE;2007-11-13 22:04;CYXE 132204Z 31023G30KT 15SM BKN016 OVC073 02/ RMK SC6AC2

CYXE;2007-11-13 22:39;CYXE 132239Z 31022G28KT 10SM -SHSN SCT018 OVC061 01/ RMK SC4SC4

CYXE;2007-11-13 22:50;CYXE 132250Z 32022G33KT 6SM -SHSN DRSN BKN014 OVC044 01/ RMK SC5SC3

CYXE;2007-11-13 23:00;CYXE 132300Z 32020G29KT 3SM -SHSN DRSN BKN014 OVC044 01/M02 A2954 RMK SC6SC2 SLP022

CYXE;2007-11-13 23:17;CYXE 132317Z 32026G35KT 15SM -SHSN BKN022 BKN051 OVC066 01/ RMK SC5SC2AC2

CYXE;2007-11-14 00:00;CYXE 140000Z 32023G31KT 15SM -SHSN BKN019 BKN051 OVC066 01/M02 A2959 RMK SC6SC1AC2 SLP044

CYXE;2007-11-14 00:28;CYXE 140028Z 32023G30KT 15SM FEW010 BKN017 OVC073 01/ RMK CF1SC7AC1

CYXE;2007-11-14 01:00;CYXE 140100Z 32017G28KT 15SM BKN023 OVC079 00/M03 A2964 RMK SC6AC2 RAG CIG SLP060

CYXE;2007-11-14 02:00;CYXE 140200Z 32024G29KT 15SM BKN024 OVC080 00/M04 A2969 RMK SC6AC2 SLP075

CYXE;2007-11-14 03:00;CYXE 140300Z 32023G29KT 15SM BKN022 OVC047 M00/M05 A2973 RMK SC6SC2 SLP092

CYXE;2007-11-14 04:00;CYXE 140400Z 33022G27KT 15SM SCT045 OVC086 M01/M06 A2979 RMK SC4AC4 SLP109

CYXE;2007-11-14 04:36;CYXE 140436Z 33020G26KT 10SM -SN SCT032 OVC074 M01/ RMK SC4AC4

CYXE;2007-11-14 05:00;CYXE 140500Z 32014G20KT 15SM SCT032 OVC095 M01/M05 A2983 RMK SC4AC4 SLP123

CYXE;2007-11-14 06:00;CYXE 140600Z 33024KT 15SM FEW032 BKN062 OVC095 M00/M05 A2986 RMK SC1SC5AC2 SLP135

CYXE;2007-11-14 07:00;CYXE 140700Z 32020KT 15SM SCT019 OVC078 M00/M04 A2990 RMK SC4AC4 SLP149

CYXE;2007-11-14 08:00;CYXE 140800Z 33019G27KT 15SM OVC021 M01/M05 A2994 RMK SC8 SLP159

CYXE;2007-11-14 09:00;CYXE 140900Z 32015G20KT 15SM OVC021 M01/M05 A2998 RMK SC8 SLP178

CYXE;2007-11-14 10:00;CYXE 141000Z 32017G22KT 15SM OVC023 M01/M06 A3002 RMK SC8 SLP191

CYXE;2007-11-14 11:00;CYXE 141100Z 32010G16KT 15SM SCT025 BKN075 M02/M06 A3005 RMK SC4AC2 SLP200

CYXE;2007-11-14 12:00;CYXE 141200Z 32011KT 15SM SKC M04/M06 A3008 RMK SLP215

CYXE;2007-11-14 13:00;CYXE 141300Z 26007KT 15SM FEW085 M05/M07 A3011 RMK AC2 SLP225

CYXE;2007-11-14 14:00;CYXE 141400Z 30011KT 15SM BKN035 M03/M05 A3012 RMK SC4 SLP229

CYXE;2007-11-14 15:00;CYXE 141500Z 30010KT 15SM FEW035 M03/M05 A3013 RMK SC1 SLP235

CYXE;2007-11-14 16:00;CYXE 141600Z 27007KT 15SM FEW035 M02/M05 A3015 RMK SC1 SLP241

CYXE;2007-11-14 17:00;CYXE 141700Z 27007KT 15SM FEW040 M00/M05 A3016 RMK SC1 SLP243

CYXE;2007-11-14 18:00;CYXE 141800Z 30013G18KT 15SM FEW040 02/M04 A3015 RMK SC1 SLP237

CYXE;2007-11-14 19:00;CYXE 141900Z 29018KT 15SM SKC 03/M05 A3015 RMK SLP235

CYXE;2007-11-14 20:00;CYXE 142000Z 29018KT 15SM SKC 04/M06 A3015 RMK OBS TAKEN +10 SLP235

CYXE;2007-11-14 21:00;CYXE 142100Z 28018KT 15SM FEW220 04/M06 A3016 RMK CI1 SLP237

CYXE;2007-11-14 22:00;CYXE 142200Z 28015KT 15SM FEW220 04/M05 A3017 RMK CI1 SLP240

CYXE;2007-11-14 23:00;CYXE 142300Z 28007KT 15SM FEW220 01/M06 A3016 RMK CI0 SLP237

CYXE;2007-11-15 00:00;CYXE 150000Z 27007KT 15SM FEW220 M04/M07 A3017 RMK CI0 SLP250

CYXE;2007-11-15 01:00;CYXE 150100Z 24006KT 15SM FEW220 M04/M07 A3017 RMK CI0 SLP250

CYXE;2007-11-15 02:00;CYXE 150200Z 27009KT 15SM FEW220 M05/M07 A3017 RMK CI0 SLP248

CYXE;2007-11-15 03:00;CYXE 150300Z 27007KT 15SM SKC M06/M08 A3014 RMK SLP241

CYXE;2007-11-15 04:00;CYXE 150400Z 25007KT 15SM SKC M07/M08 A3013 RMK SLP236

CYXE;2007-11-15 05:00;CYXE 150500Z 23005KT 15SM SKC M07/M09 A3011 RMK SLP231

CYXE;2007-11-15 06:00;CYXE 150600Z 21005KT 15SM SKC M07/M09 A3008 RMK SLP218

CYXE;2007-11-15 07:00;CYXE 150700Z 20006KT 15SM SKC M07/M09 A3007 RMK SLP213

CYXE;2007-11-15 08:00;CYXE 150800Z 18005KT 15SM SKC M07/M09 A3005 RMK SLP206

CYXE;2007-11-15 09:00;CYXE 150900Z 18006KT 15SM SKC M07/M09 A3002 RMK SLP195

CYXE;2007-11-15 10:00;CYXE 151000Z 17004KT 15SM SKC M06/M08 A2999 RMK SLP185

CYXE;2007-11-15 11:00;CYXE 151100Z 13006KT 15SM FEW250 M07/M10 A2993 RMK CI0 PRESFR FROIN SLP165

CYXE;2007-11-15 12:00;CYXE 151200Z 15008KT 15SM FEW250 M03/M07 A2990 RMK CI0 SLP157

CYXE;2007-11-15 13:00;CYXE 151300Z 13008KT 15SM FEW250 M03/M07 A2986 RMK CI0 SLP142

CYXE;2007-11-15 14:00;CYXE 151400Z 13009KT 15SM FEW100 BKN250 M02/M07 A2982 RMK AC1CI5 SLP132

CYXE;2007-11-15 15:00;CYXE 151500Z 15007KT 15SM BKN047 OVC250 M02/M07 A2980 RMK SC7CI1 SLP123

CYXE;2007-11-15 16:00;CYXE 151600Z 13008KT 15SM BKN047 OVC090 M01/M07 A2976 RMK SC6AC2 SLP108

CYXE;2007-11-15 17:00;CYXE 151700Z 13007KT 15SM FEW045 SCT060 OVC090 M00/M06 A2972 RMK SC1SC3AC4 SLP095

CYXE;2007-11-15 18:00;CYXE 151800Z 14011KT 15SM FEW060 OVC090 01/M06 A2967 RMK SC1AC7 SLP075

CYXE;2007-11-15 19:00;CYXE 151900Z 15010KT 15SM BKN087 OVC250 02/M05 A2963 RMK AC6CI2 SLP065

CYXE;2007-11-15 20:00;CYXE 152000Z 15007KT 15SM BKN100 BKN250 02/M05 A2962 RMK AC5CI2 SLP061

CYXE;2007-11-15 21:00;CYXE 152100Z 10006KT 15SM FEW090 OVC250 03/M06 A2960 RMK AC2CI2 SLP051

CYXE;2007-11-15 22:00;CYXE 152200Z 13007KT 15SM FEW090 BKN280 03/M07 A2960 RMK AC2CI1 SLP050

CYXE;2007-11-15 23:00;CYXE 152300Z 11007KT 15SM FEW090 BKN280 02/M06 A2960 RMK AC1CI0 SLP051

CYXE;2007-11-16 00:00;CYXE 160000Z 07006KT 15SM FEW090 SCT280 M02/M06 A2962 RMK AC1CI0 SLP059

CYXE;2007-11-16 01:00;CYXE 160100Z 07008KT 15SM SKC M04/M07 A2962 RMK SLP059

CYXE;2007-11-16 02:00;CYXE 160200Z 05007KT 15SM SKC M05/M07 A2962 RMK SLP060

CYXE;2007-11-16 03:00;CYXE 160300Z 05007KT 15SM SKC M05/M07 A2963 RMK SLP064

CYXE;2007-11-16 04:00;CYXE 160400Z 05007KT 15SM SKC M07/M08 A2964 RMK SLP066

CYXE;2007-11-16 05:00;CYXE 160500Z 05007KT 15SM SKC M06/M07 A2965 RMK SLP070

CYXE;2007-11-16 06:00;CYXE 160600Z 05008KT 15SM FEW250 M06/M06 A2968 RMK CI0 SLP081

CYXE;2007-11-16 07:00;CYXE 160700Z 05007KT 15SM FEW250 M07/M08 A2969 RMK CI0 SLP083

CYXE;2007-11-16 08:00;CYXE 160800Z 05008KT 15SM FEW250 M07/M07 A2970 RMK CI1 SLP085

CYXE;2007-11-16 09:00;CYXE 160900Z 05006KT 12SM SCT250 M07/M08 A2971 RMK CI1 BR SLP089

CYXE;2007-11-16 10:00;CYXE 161000Z 06008KT 15SM SCT250 M06/M07 A2972 RMK CI1 SLP092

CYXE;2007-11-16 11:00;CYXE 161100Z 05009KT 15SM SCT250 M06/M07 A2973 RMK CI2 SLP096

CYXE;2007-11-16 12:00;CYXE 161200Z 06008KT 15SM SCT250 M07/M07 A2975 RMK CI2 SLP106

CYXE;2007-11-16 13:00;CYXE 161300Z 06009KT 15SM SCT250 M06/M07 A2977 RMK CI1 SLP111

CYXE;2007-11-16 14:00;CYXE 161400Z 07008KT 15SM BKN120 BKN250 M05/M06 A2977 RMK AC5CI1 SLP112

CYXE;2007-11-16 15:00;CYXE 161500Z 07009KT 15SM FEW030 BKN120 BKN250 M05/M05 A2978 RMK SC1AC6CI1 SLP118

CYXE;2007-11-16 16:00;CYXE 161600Z 07011KT 15SM FEW012 BKN120 BKN250 M03/M04 A2979 RMK SC2AC4CI1 SLP121

CYXE;2007-11-16 16:11;CYXE 161611Z 07010KT 15SM BKN012 OVC120 M03/ RMK SC6AC2

CYXE;2007-11-16 17:00;CYXE 161700Z 09010KT 15SM OVC010 M02/M03 A2981 RMK SC8 SLP125

CYXE;2007-11-16 17:18;CYXE 161718Z 11012KT 15SM OVC009 M02/ RMK SC8

CYXE;2007-11-16 17:36;CYXE 161736Z 10015KT 15SM OVC010 M02/ RMK SC8

CYXE;2007-11-16 18:00;CYXE 161800Z 10014KT 15SM OVC010 M02/M04 A2981 RMK SC8 SLP125

CYXE;2007-11-16 19:00;CYXE 161900Z 09013KT 15SM OVC010 M02/M03 A2981 RMK SC8 SLP125

CYXE;2007-11-16 20:00;CYXE 162000Z 10015KT 15SM OVC010 M01/M04 A2981 RMK SC8 SLP126

CYXE;2007-11-16 21:00;CYXE 162100Z 10014KT 15SM OVC012 M01/M04 A2982 RMK SC8 SLP129

CYXE;2007-11-16 22:00;CYXE 162200Z 10015KT 15SM OVC014 M01/M04 A2983 RMK SC8 SLP133

CYXE;2007-11-16 23:00;CYXE 162300Z 10012G17KT 15SM OVC014 M01/M04 A2985 RMK SC8 SLP137

CYXE;2007-11-17 00:00;CYXE 170000Z 10014KT 15SM OVC014 M01/M04 A2985 RMK SC8 SLP140

CYXE;2007-11-17 01:00;CYXE 170100Z 10012KT 15SM BKN018 OVC100 M01/M04 A2986 RMK SC5AC3 SLP142

CYXE;2007-11-17 02:00;CYXE 170200Z 11012KT 15SM SCT018 OVC091 M01/M04 A2986 RMK SC4AC4 SLP144

CYXE;2007-11-17 03:00;CYXE 170300Z 11010KT 15SM BKN021 OVC084 M01/M04 A2988 RMK SC6AC2 SLP148

CYXE;2007-11-17 04:00;CYXE 170400Z 11012KT 15SM BKN018 OVC080 M01/M03 A2988 RMK SC6AC2 SLP149

CYXE;2007-11-17 05:00;CYXE 170500Z 11011KT 15SM BKN018 OVC080 M01/M03 A2988 RMK SC6AC2 SLP149

CYXE;2007-11-17 06:00;CYXE 170600Z 12011G17KT 15SM BKN016 OVC080 M01/M03 A2989 RMK SC7AC1 SLP151

CYXE;2007-11-17 07:00;CYXE 170700Z 13012G18KT 15SM SCT016 OVC092 M01/M04 A2990 RMK SC3AC5 SLP153

CYXE;2007-11-17 08:00;CYXE 170800Z 12012KT 15SM FEW016 OVC080 M01/M04 A2991 RMK SC2AC6 SLP157

CYXE;2007-11-17 08:27;CYXE 170827Z 12012KT 10SM -SN FEW016 SCT066 OVC080 M01/ RMK SC1SC2AC5 BR

CYXE;2007-11-17 09:00;CYXE 170900Z 12011KT 8SM -SN FEW016 OVC080 M02/M04 A2992 RMK SC1AC7 SLP160

CYXE;2007-11-17 09:18;CYXE 170918Z 13010KT 6SM -SN BLSN FEW016 OVC080 M02/ RMK SC1AC7

CYXE;2007-11-17 10:00;CYXE 171000Z 12011KT 5SM -SN BLSN FEW020 OVC080 M02/M04 A2993 RMK SC2AC6 SLP164

CYXE;2007-11-17 10:10;CYXE 171010Z 12010KT 3SM -SN BLSN SCT020 OVC080 M02/ RMK SC3AC5

CYXE;2007-11-17 10:54;CYXE 171054Z 12008KT 4SM -SN BLSN FEW012 BKN021 OVC080 M02/ RMK ST1SC5AC3

CYXE;2007-11-17 11:00;CYXE 171100Z 13009KT 4SM -SN BLSN FEW012 BKN021 OVC080 M02/M04 A2993 RMK ST1SC5AC3 SLP162

CYXE;2007-11-17 12:00;CYXE 171200Z 13013G18KT 5SM -SN BLSN BKN010 OVC021 M02/M04 A2994 RMK ST5SC3 SLP167

CYXE;2007-11-17 13:00;CYXE 171300Z 13011KT 12SM -SN BKN012 OVC025 M02/M04 A2995 RMK SF6SC2 SLP170

CYXE;2007-11-17 14:00;CYXE 171400Z 13012G18KT 8SM -SN DRSN BKN012 OVC025 M02/M04 A2995 RMK SF5SC3 SLP172

CYXE;2007-11-17 14:49;CYXE 171449Z 13014G19KT 8SM -SN DRSN SCT012 OVC023 M03/ RMK SF3SC5

CYXE;2007-11-17 15:00;CYXE 171500Z 13012KT 6SM -SN DRSN SCT011 BKN023 OVC100 M03/M04 A2996 RMK SF4SC3AC1 SLP174

CYXE;2007-11-17 16:00;CYXE 171600Z 13011G16KT 6SM -SN DRSN SCT010 BKN030 OVC085 M02/M04 A2997 RMK SF4SC2AC2 SLP177

CYXE;2007-11-17 16:30;CYXE 171630Z 13009G17KT 5SM -SN DRSN BKN010 BKN025 OVC085 M02/ RMK SF6SC1AC2

CYXE;2007-11-17 17:00;CYXE 171700Z 14009G15KT 3SM -SN DRSN BKN010 OVC090 M02/M04 A2998 RMK SF6AC2 SLP180

CYXE;2007-11-17 18:00;CYXE 171800Z 13009KT 3SM -SN BKN010 OVC100 M02/M03 A2996 RMK SF6AC2 SLP175

CYXE;2007-11-17 19:00;CYXE 171900Z 15010KT 12SM -SN BKN010 BKN035 OVC100 M01/M03 A2995 RMK SF6SC2AC1 SLP169

CYXE;2007-11-17 19:23;CYXE 171923Z 14011KT 15SM BKN012 OVC035 M01/ RMK SC6SC2

CYXE;2007-11-17 20:00;CYXE 172000Z 16007KT 15SM BKN012 OVC050 M01/M03 A2994 RMK SC6SC2 SLP166

CYXE;2007-11-17 21:00;CYXE 172100Z 15011KT 15SM OVC014 M00/M03 A2991 RMK SC8 SLP156

CYXE;2007-11-17 22:00;CYXE 172200Z 15010KT 15SM OVC014 M01/M03 A2989 RMK SC8 SLP149

CYXE;2007-11-17 22:29;CYXE 172229Z 16009KT 15SM -SN OVC012 M01/ RMK SC8

CYXE;2007-11-17 23:00;CYXE 172300Z 16011G16KT 15SM -SN OVC010 M01/M03 A2987 RMK SC8 SLP145

CYXE;2007-11-17 23:09;CYXE 172309Z 16009KT 15SM -SN OVC009 M02/ RMK SC8

CYXE;2007-11-18 00:00;CYXE 180000Z 16008KT 10SM -SN OVC008 M02/M03 A2986 RMK SC8 SLP142

CYXE;2007-11-18 01:00;CYXE 180100Z 16009KT 10SM -SN OVC007 M02/M03 A2986 RMK SC8 SLP139

CYXE;2007-11-18 02:00;CYXE 180200Z 14006KT 10SM -SN OVC007 M02/M03 A2983 RMK SC8 SLP132

CYXE;2007-11-18 02:39;CYXE 180239Z 12009KT 10SM -SN -FZDZ OVC006 M02/ RMK ST8

CYXE;2007-11-18 03:00;CYXE 180300Z 13008KT 8SM -SN -FZDZ OVC005 M02/M02 A2980 RMK ST8 SLP119

CYXE;2007-11-18 03:27;CYXE 180327Z 14007KT 10SM -SN OVC005 M02/ REFZDZ RMK ST8

CYXE;2007-11-18 04:00;CYXE 180400Z 15007KT 15SM -SN OVC006 M02/M03 A2977 REFZDZ RMK SC8 SLP111

CYXE;2007-11-18 04:24;CYXE 180424Z 15007KT 15SM OVC006 M02/ RMK ST8

CYXE;2007-11-18 05:00;CYXE 180500Z 15007KT 8SM OVC006 M02/M03 A2973 RMK ST8 BR SLP099

CYXE;2007-11-18 06:00;CYXE 180600Z 14010KT 8SM OVC006 M02/M03 A2970 RMK ST8 BR SLP086

CYXE;2007-11-18 06:42;CYXE 180642Z 13009KT 6SM BR OVC005 M02/ RMK ST8

CYXE;2007-11-18 07:00;CYXE 180700Z 14010KT 6SM BR OVC005 M02/M02 A2968 RMK ST8 SLP079

CYXE;2007-11-18 07:30;CYXE 180730Z 14010KT 4SM BR OVC004 M02/ RMK ST8

CYXE;2007-11-18 08:00;CYXE 180800Z 13010KT 4SM BR OVC004 M02/M02 A2963 RMK ST8 SLP064

CYXE;2007-11-18 09:00;CYXE 180900Z 12009KT 3SM BR OVC004 M02/M02 A2959 RMK ST8 SLP048

CYXE;2007-11-18 09:43;CYXE 180943Z 14011KT 2 1/2SM BR OVC003 M01/ RMK ST8

CYXE;2007-11-18 10:00;CYXE 181000Z 14011KT 3SM BR OVC003 M01/M02 A2958 RMK ST8 SLP042

CYXE;2007-11-18 10:36;CYXE 181036Z 13009KT 2SM -PL -FZRA BR OVC004 M01/ RMK ST8

CYXE;2007-11-18 10:51;CYXE 181051Z 12008KT 2SM FZRA BR OVC003 M01/ RMK ST8

CYXE;2007-11-18 11:00;CYXE 181100Z 12010KT 2SM FZRA BR OVC003 M01/M01 A2952 RMK ST8 SLP024

CYXE;2007-11-18 11:29;CYXE 181129Z 13012KT 4SM -FZRA BR OVC004 M01/ REFZRA RMK ST8

CYXE;2007-11-18 12:00;CYXE 181200Z CCA 12010G16KT 4SM -FZRA BR OVC006 M00/M01 A2947 REFZRA RMK ST8 SLP006

CYXE;2007-11-18 12:42;CYXE 181242Z CCA 12009KT 3SM -FZDZ BR OVC004 M00/ REFZRA RMK ST8

CYXE;2007-11-18 13:00;CYXE 181300Z 12011KT 4SM -FZDZ BR OVC004 M00/M00 A2943 REFZRA RMK ST8 SLP993

CYXE;2007-11-18 13:14;CYXE 181314Z 12010KT 5SM BR OVC004 M00/ REFZDZ RMK ST8

CYXE;2007-11-18 13:30;CYXE 181330Z 13009KT 3SM -SN BR OVC005 M00/ REFZDZ RMK ST8

CYXE;2007-11-18 13:35;CYXE 181335Z 13010KT 2SM -SN OVC005 M00/ REFZDZ RMK ST8

CYXE;2007-11-18 14:00;CYXE 181400Z 13007KT 1 1/2SM -SN OVC005 M00/M00 A2940 REFZDZ RMK ST8 SLP984

CYXE;2007-11-18 14:25;CYXE 181425Z 13008KT 3/4SM R09/4000VP6000FT/D -SN OVC004 00/ RMK ST8

CYXE;2007-11-18 14:41;CYXE 181441Z 14006KT 1/2SM SN VV003 00/ RMK SN8

CYXE;2007-11-18 15:00;CYXE 181500Z 13008KT 1SM -RASN OVC004 00/00 A2937 RESN RMK ST8 /S02/ SLP971

CYXE;2007-11-18 15:29;CYXE 181529Z 15005KT 2SM -RASN BKN004 OVC017 00/ RMK ST7SC1

CYXE;2007-11-18 15:43;CYXE 181543Z 16004KT 3SM BR OVC006 00/ RMK ST8

CYXE;2007-11-18 16:00;CYXE 181600Z 17003KT 4SM BR OVC006 00/00 A2935 RMK ST8 SLP965

CYXE;2007-11-18 17:00;CYXE 181700Z 25005KT 4SM BR OVC004 01/01 A2935 RMK ST8 SLP963

CYXE;2007-11-18 17:08;CYXE 181708Z 26004KT 2SM BR OVC003 01/ RMK ST8

CYXE;2007-11-18 17:34;CYXE 181734Z 27008KT 1 1/2SM R09/6000FT/U BR OVC002 01/ RMK ST8

CYXE;2007-11-18 18:00;CYXE 181800Z 28009KT 1 1/2SM R09/5500FT/N BR OVC002 01/01 A2936 RMK ST8 SLP967

CYXE;2007-11-18 18:28;CYXE 181828Z 30010KT 3SM BR OVC002 00/ RMK ST8

CYXE;2007-11-18 18:39;CYXE 181839Z 31010KT 3SM BR OVC004 M00/ RMK ST8

CYXE;2007-11-18 19:00;CYXE 181900Z 32010G15KT 5SM BR OVC004 M01/M01 A2941 RMK ST8 SLP982

CYXE;2007-11-18 19:06;CYXE 181906Z 31014KT 6SM BR OVC005 M01/ RMK ST8

CYXE;2007-11-18 19:27;CYXE 181927Z 32012G17KT 12SM OVC007 M01/ RMK ST8 BR

CYXE;2007-11-18 19:42;CYXE 181942Z 31016KT 10SM -SN OVC007 M01/ RMK ST8

CYXE;2007-11-18 20:00;CYXE 182000Z 30014KT 10SM -SN OVC008 M01/M02 A2946 RMK ST8 SLP000

CYXE;2007-11-18 20:44;CYXE 182044Z 30015KT 2 1/2SM -SN OVC008 M01/ RMK ST8

CYXE;2007-11-18 21:00;CYXE 182100Z 30013G19KT 2SM -SN OVC007 M01/M02 A2950 RMK ST8 SLP016

CYXE;2007-11-18 21:37;CYXE 182137Z 30009G15KT 10SM -SN OVC007 M01/ RMK ST8

CYXE;2007-11-18 22:00;CYXE 182200Z 30014G20KT 15SM -SN OVC009 M00/M01 A2952 RMK SC8 /S01/ SLP023

CYXE;2007-11-18 22:24;CYXE 182224Z 30014KT 15SM BKN010 OVC022 M00/ RMK SC6SC2

CYXE;2007-11-18 23:00;CYXE 182300Z 29013KT 15SM OVC013 00/M01 A2955 RMK SC8 SLP031

CYXE;2007-11-18 23:36;CYXE 182336Z 30012G17KT 15SM BKN015 OVC030 00/ RMK SC6SC2

CYXE;2007-11-19 00:00;CYXE 190000Z 30016G22KT 15SM BKN016 OVC030 01/M01 A2954 RMK SC6SC2 SLP029

CYXE;2007-11-19 01:00;CYXE 190100Z 30015KT 15SM FEW016 SCT030 M00/M02 A2957 RMK SC2SC2 SLP037

CYXE;2007-11-19 02:00;CYXE 190200Z 31010G16KT 15SM SCT024 BKN034 M00/M02 A2957 RMK SC3SC3 SLP037

CYXE;2007-11-19 03:00;CYXE 190300Z 29011KT 15SM BKN015 00/M01 A2958 RMK SC6 SLP040

CYXE;2007-11-19 04:00;CYXE 190400Z 27013KT 15SM BKN020 01/M01 A2960 RMK SC6 SLP047

CYXE;2007-11-19 05:00;CYXE 190500Z 28014KT 15SM BKN025 M00/M04 A2962 RMK SC7 SLP053

CYXE;2007-11-19 06:00;CYXE 190600Z 26008KT 15SM FEW025 M02/M05 A2963 RMK SC2 SLP061

CYXE;2007-11-19 07:00;CYXE 190700Z 26010KT 15SM FEW025 M03/M05 A2964 RMK SC1 SLP065

CYXE;2007-11-19 08:00;CYXE 190800Z 27013KT 15SM FEW035 SCT090 M03/M06 A2965 RMK SC2AC1 SLP066

CYXE;2007-11-19 09:00;CYXE 190900Z 27013KT 15SM BKN037 BKN090 M02/M06 A2966 RMK SC5AC2 SLP070

CYXE;2007-11-19 10:00;CYXE 191000Z 27011KT 15SM FEW037 SCT090 M03/M06 A2966 RMK SC2AC1 SLP071

CYXE;2007-11-19 13:00;CYXE 191300Z 27009KT 15SM OVC012 M03/M04 A2973 RMK SC8 SLP093

CYXE;2007-11-19 14:00;CYXE 191400Z 31015KT 15SM OVC012 M02/M03 A2974 RMK SC8 SLP096

CYXE;2007-11-19 15:00;CYXE 191500Z 29010KT 15SM -SN OVC012 M02/M04 A2977 RMK ST8 SLP107

CYXE;2007-11-19 16:00;CYXE 191600Z 30012KT 15SM -SN BKN014 OVC040 M02/M04 A2979 RMK ST7SC1 SLP115

CYXE;2007-11-19 16:29;CYXE 191629Z 31010G15KT 15SM OVC020 M02/ RMK SC8

CYXE;2007-11-19 17:00;CYXE 191700Z 32011KT 15SM OVC016 M01/M03 A2982 RMK SC8 SLP125

CYXE;2007-11-19 18:00;CYXE 191800Z CCA 35008KT 15SM -SG OVC010 M02/M03 A2985 RMK SC8 SLP136

CYXE;2007-11-19 19:00;CYXE 191900Z 32010KT 15SM -SG OVC012 M01/M04 A2987 RMK SF8 SLP142

CYXE;2007-11-19 20:00;CYXE 192000Z 32007KT 15SM -SG OVC012 M01/M03 A2990 RMK SF7 SLP152

CYXE;2007-11-19 20:22;CYXE 192022Z 32010G15KT 15SM BKN012 M01/ RMK SC6

CYXE;2007-11-19 21:00;CYXE 192100Z 32009KT 15SM SCT012 BKN020 M01/M04 A2992 RMK SC3SC4 SLP161

CYXE;2007-11-19 22:00;CYXE 192200Z 30009KT 15SM FEW012 OVC017 M02/M04 A2995 RMK SC2SC6 SLP170

CYXE;2007-11-19 23:00;CYXE 192300Z 30007KT 15SM FEW012 OVC024 M02/M04 A2997 RMK SC2SC6 SLP178

CYXE;2007-11-19 23:40;CYXE 192340Z 30007KT 15SM -SN BKN026 OVC045 M02/ RMK SC6SC2

CYXE;2007-11-20 00:00;CYXE 200000Z 30006KT 15SM -SN OVC026 M02/M04 A2999 RMK SC8 SLP186

CYXE;2007-11-20 01:00;CYXE 200100Z 32007KT 15SM OVC026 M02/M05 A3001 RMK SC8 OBS TAKEN +04 SLP192

CYXE;2007-11-20 02:00;CYXE 200200Z 34004KT 15SM -SN OVC026 M03/M05 A3003 RMK SC8 OBS TAKEN +09 SLP200

CYXE;2007-11-20 03:00;CYXE 200300Z 01002KT 15SM -SN FEW012 OVC028 M03/M04 A3005 RMK SF1SC7 SLP208

CYXE;2007-11-20 04:00;CYXE 200400Z 29003KT 15SM FEW012 OVC025 M03/M04 A3008 RMK SF1SC8 SLP215

CYXE;2007-11-20 05:00;CYXE 200500Z 28004KT 15SM FEW015 OVC028 M03/M04 A3009 RMK SF1SC8 SLP219

CYXE;2007-11-20 06:00;CYXE 200600Z 32005KT 15SM OVC028 M03/M05 A3009 RMK SC8 SLP221

CYXE;2007-11-20 07:00;CYXE 200700Z 31005KT 15SM OVC031 M03/M04 A3011 RMK SC8 SLP225

CYXE;2007-11-20 08:00;CYXE 200800Z 33004KT 15SM OVC030 M03/M05 A3011 RMK SC8 SLP227

CYXE;2007-11-20 09:00;CYXE 200900Z 31005KT 15SM OVC032 M03/M05 A3013 RMK SC8 SLP233

CYXE;2007-11-20 10:00;CYXE 201000Z 31004KT 15SM OVC032 M04/M05 A3014 RMK SC8 SLP236

CYXE;2007-11-20 11:00;CYXE 201100Z 30007KT 15SM BKN035 OVC095 M04/M06 A3016 RMK SC7AC1 SLP242

CYXE;2007-11-20 12:00;CYXE 201200Z 31005KT 15SM BKN035 OVC100 M06/M07 A3017 RMK SC6AC1 SLP251

CYXE;2007-11-20 13:00;CYXE 201300Z 04004KT 15SM FEW010 BKN035 M07/M08 A3020 RMK SF2SC6 SLP258

CYXE;2007-11-20 14:00;CYXE 201400Z 00000KT 15SM FEW010 BKN040 M07/M08 A3021 RMK SF1SC6 SLP263

CYXE;2007-11-20 14:19;CYXE 201419Z 00000KT 15SM BKN007 OVC040 M07/ RMK SF4SC4

CYXE;2007-11-20 14:38;CYXE 201438Z 00000KT 15SM BKN007 OVC039 M07/ RMK SF6SC2

CYXE;2007-11-20 15:00;CYXE 201500Z 00000KT 15SM -SN BKN007 OVC051 M07/M08 A3022 RMK SF6SC2 SLP269

CYXE;2007-11-20 15:33;CYXE 201533Z 00000KT 15SM -SN SCT007 OVC046 M07/ RMK SF3SC5

CYXE;2007-11-20 16:00;CYXE 201600Z 00000KT 12SM -SN FEW007 OVC045 M07/M07 A3024 RMK SF2SC6 SLP275

CYXE;2007-11-20 17:00;CYXE 201700Z 24003KT 10SM -SN FEW010 OVC040 M05/M07 A3025 RMK SF1SC7 SLP279

CYXE;2007-11-20 18:00;CYXE 201800Z 16004KT 15SM -SN FEW010 OVC065 M04/M06 A3026 RMK SF1SC7 SLP278

CYXE;2007-11-20 18:31;CYXE 201831Z 21003KT 15SM FEW020 BKN065 M04/ RMK SC1SC6

CYXE;2007-11-20 19:00;CYXE 201900Z 16004KT 15SM FEW020 BKN070 M04/M06 A3026 RMK SC1AC6 SLP280

CYXE;2007-11-20 20:00;CYXE 202000Z 18002KT 15SM -SN FEW020 OVC050 M03/M06 A3026 RMK SC2SC6 SLP279

CYXE;2007-11-20 21:00;CYXE 202100Z 13003KT 8SM -SN SCT015 OVC036 M03/M05 A3026 RMK SC3SC5 SLP280

CYXE;2007-11-20 22:00;CYXE 202200Z 12008KT 15SM -SN FEW015 SCT035 OVC080 M04/M05 A3026 RMK SC2SC2AS2 SLP281

CYXE;2007-11-20 23:00;CYXE 202300Z 12007KT 15SM SCT030 SCT080 BKN230 M05/M07 A3028 RMK SC3AC1CI1 SLP285

CYXE;2007-11-21 00:00;CYXE 210000Z 10007KT 15SM BKN040 M06/M08 A3030 RMK SC7 SLP296

CYXE;2007-11-21 00:45;CYXE 210045Z 10008KT 4SM -SN OVC032 M06/ RMK SC8

CYXE;2007-11-21 01:00;CYXE 210100Z 10006KT 6SM -SN OVC032 M06/M08 A3032 RMK SC8 SLP302

CYXE;2007-11-21 02:00;CYXE 210200Z 09008KT 6SM -SN OVC039 M07/M08 A3034 RMK SC8 SLP308

CYXE;2007-11-21 02:50;CYXE 210250Z 09009KT 2SM -SN OVC030 M07/ RMK SC8

CYXE;2007-11-21 03:00;CYXE 210300Z 09009KT 2SM -SN OVC030 M07/M08 A3035 RMK SN2SC6 SLP316

CYXE;2007-11-21 03:39;CYXE 210339Z 08006KT 1 1/2SM -SN OVC020 M07/ RMK SN3SC5

CYXE;2007-11-21 04:00;CYXE 210400Z 07009KT 1 1/4SM -SN OVC016 M08/M09 A3038 RMK SN3SC5 SLP324

CYXE;2007-11-21 04:46;CYXE 210446Z 07009KT 3SM -SN OVC020 M09/ RMK SC8

CYXE;2007-11-21 05:00;CYXE 210500Z 08009KT 3SM -SN OVC020 M09/M10 A3039 RMK SC8 SLP328

CYXE;2007-11-21 05:43;CYXE 210543Z 08010KT 1 1/2SM -SN VV015 M09/ RMK SN8

CYXE;2007-11-21 06:00;CYXE 210600Z 06010KT 3SM -SN OVC020 M10/M11 A3040 RMK SC8 /S02/ SLP334

CYXE;2007-11-21 07:00;CYXE 210700Z 07010KT 4SM -SN BKN050 M10/M12 A3041 RMK SC7 SLP337

CYXE;2007-11-21 08:00;CYXE 210800Z 05008KT 8SM -SN BKN050 M11/M12 A3043 RMK SC3 SLP344

CYXE;2007-11-21 08:44;CYXE 210844Z 07005KT 15SM SCT050 M13/ RMK SC2

CYXE;2007-11-21 09:00;CYXE 210900Z 06007KT 15SM SCT050 M14/M15 A3044 RMK SC3 SLP347

CYXE;2007-11-21 10:00;CYXE 211000Z 06007KT 15SM SCT020 BKN050 M15/M16 A3045 RMK SC3SC3 SLP352

CYXE;2007-11-21 11:00;CYXE 211100Z 06007KT 15SM OVC025 M14/M15 A3045 RMK SC8 SLP352

CYXE;2007-11-21 12:00;CYXE 211200Z 04007KT 15SM OVC028 M13/M14 A3046 RMK SC8 SLP356

CYXE;2007-11-21 13:00;CYXE 211300Z 04004KT 15SM -SN OVC030 M13/M14 A3047 RMK SC8 SLP359

CYXE;2007-11-21 14:00;CYXE 211400Z 03003KT 15SM -SN OVC023 M12/M14 A3047 RMK SC8 SLP358

CYXE;2007-11-21 15:00;CYXE 211500Z 00000KT 15SM -SN OVC023 M12/M14 A3048 RMK SC8 SLP363

CYXE;2007-11-21 16:00;CYXE 211600Z 00000KT 15SM -SN BKN034 M12/M13 A3047 RMK SC7 SLP361

CYXE;2007-11-21 17:00;CYXE 211700Z CCA 00000KT 15SM -SN BKN035 M10/M12 A3047 RMK SC7 SLP359

CYXE;2007-11-21 18:00;CYXE 211800Z 23002KT 6SM -SN BKN025 BKN060 M10/M12 A3046 RMK SC5SC2 SLP357

CYXE;2007-11-21 19:00;CYXE 211900Z 27003KT 6SM -SN BKN025 M09/M11 A3045 RMK SC7 SLP355

CYXE;2007-11-21 20:00;CYXE 212000Z 23002KT 10SM -SN BKN039 M08/M10 A3044 RMK SC7 SLP350

CYXE;2007-11-21 21:00;CYXE 212100Z 25002KT 6SM -SN OVC037 M07/M09 A3043 RMK SC7 SLP347

CYXE;2007-11-21 22:00;CYXE 212200Z 25003KT 6SM -SN OVC035 M07/M09 A3042 RMK SC7 SLP344

CYXE;2007-11-21 23:00;CYXE 212300Z 23004KT 4SM -SN OVC035 M07/M09 A3041 RMK SC8 SLP341

CYXE;2007-11-22 00:00;CYXE 220000Z 22003KT 8SM -SN OVC033 M08/M09 A3040 RMK SC8 SLP336

CYXE;2007-11-22 01:00;CYXE 220100Z 20004KT 8SM -SN OVC029 M07/M09 A3039 RMK SC8 SLP333

CYXE;2007-11-22 02:00;CYXE 220200Z CCA 20004KT 8SM -SN OVC029 M07/M09 A3039 RMK SC8 SLP333

CYXE;2007-11-22 03:00;CYXE 220300Z 20005KT 15SM -SN BKN023 M07/M08 A3038 RMK SC6 SLP329

CYXE;2007-11-22 03:24;CYXE 220324Z 21005KT 15SM BKN027 M07/ RMK SC7

CYXE;2007-11-22 04:00;CYXE 220400Z 22007KT 15SM OVC025 M07/M08 A3038 RMK SC7 SLP328

CYXE;2007-11-22 05:00;CYXE 220500Z 25005KT 15SM BKN025 M08/M10 A3036 RMK SC6 SLP324

CYXE;2007-11-22 06:00;CYXE 220600Z 23006KT 15SM FEW025 M12/M13 A3036 RMK SC0 SLP325

CYXE;2007-11-22 07:00;CYXE 220700Z 22006KT 10SM SKC M14/M15 A3035 RMK BR SLP321

CYXE;2007-11-22 08:00;CYXE 220800Z 22007KT 10SM SKC M14/M15 A3034 RMK BR SLP318

CYXE;2007-11-22 09:00;CYXE 220900Z 22006KT 10SM SKC M14/M15 A3033 RMK BR SLP312

CYXE;2007-11-22 10:00;CYXE 221000Z 21005KT 12SM SKC M15/M16 A3031 RMK BR SLP306

CYXE;2007-11-22 11:00;CYXE 221100Z 22006KT 12SM FEW250 M16/M16 A3030 RMK CI1 BR SLP303

CYXE;2007-11-22 12:00;CYXE 221200Z 22007KT 12SM BKN250 M16/M17 A3028 RMK CI1 BR SLP299

CYXE;2007-11-22 13:00;CYXE 221300Z 23007KT 12SM SKC M17/M18 A3027 RMK BR SLP294

CYXE;2007-11-22 14:00;CYXE 221400Z 20005KT 15SM BKN250 M16/M17 A3026 RMK CI2 SLP290

CYXE;2007-11-22 15:00;CYXE 221500Z 23006KT 15SM FEW120 BKN250 M16/M17 A3025 RMK AC2CI2 SLP286

CYXE;2007-11-22 16:00;CYXE 221600Z 22007KT 15SM BKN075 OVC250 M13/M14 A3023 RMK AC6CI2 SLP280

CYXE;2007-11-22 17:00;CYXE 221700Z 23008KT 10SM OVC080 M11/M12 A3022 RMK AC7 BR SLP276

CYXE;2007-11-22 18:00;CYXE 221800Z 23010KT 15SM OVC067 M09/M10 A3020 RMK AC7 SLP269

CYXE;2007-11-22 19:00;CYXE 221900Z 22009KT 15SM FEW065 BKN110 M07/M09 A3016 RMK SC2AC2 SLP257

CYXE;2007-11-22 20:00;CYXE 222000Z 24012KT 12SM FEW065 BKN100 BKN250 M05/M08 A3014 RMK SC2AC2CI2 BR SLP251

CYXE;2007-11-22 21:00;CYXE 222100Z 24010KT 12SM BKN080 BKN250 M04/M07 A3012 RMK AC6CI0 SLP240

CYXE;2007-11-22 22:00;CYXE 222200Z 25009KT 12SM SCT080 BKN250 M04/M07 A3011 RMK AC3CI2 SLP235

CYXE;2007-11-22 23:00;CYXE 222300Z 25008KT 15SM FEW080 BKN100 BKN250 M05/M08 A3009 RMK AC2AC2CI1 SLP231

CYXE;2007-11-23 00:00;CYXE 230000Z 25007KT 15SM BKN080 M05/M08 A3008 RMK AC7 SLP227

CYXE;2007-11-23 01:00;CYXE 230100Z 29008KT 15SM OVC075 M04/M08 A3008 RMK AC7 SLP229

CYXE;2007-11-23 02:00;CYXE 230200Z 32011G16KT 15SM BKN070 OVC250 M05/M08 A3008 RMK AC5CI2 SLP228

CYXE;2007-11-23 03:00;CYXE 230300Z 32010KT 15SM SCT070 BKN250 M06/M09 A3008 RMK AC3CI1 SLP229

CYXE;2007-11-23 04:00;CYXE 230400Z 31006KT 15SM BKN087 BKN250 M07/M09 A3010 RMK AS5CI1 SLP234

CYXE;2007-11-23 05:00;CYXE 230500Z 32011KT 15SM OVC060 M07/M09 A3011 RMK SC8 SLP238

CYXE;2007-11-23 05:05;CYXE 230505Z 32009KT 5SM -SN OVC060 M07/ RMK SC8

CYXE;2007-11-23 06:00;CYXE 230600Z 33008KT 6SM -SN SCT015 OVC050 M08/M09 A3011 RMK SC3SC5 SLP234

CYXE;2007-11-23 06:38;CYXE 230638Z 32005KT 8SM -SN OVC014 M07/ RMK SC8

CYXE;2007-11-23 06:53;CYXE 230653Z 32007KT 15SM OVC012 M07/ RMK SC8

CYXE;2007-11-23 07:00;CYXE 230700Z 32007KT 15SM OVC012 M07/M09 A3012 RMK SC8 SLP239

CYXE;2007-11-23 08:00;CYXE 230800Z 36008KT 15SM OVC012 M06/M08 A3012 RMK SC8 SLP239

CYXE;2007-11-23 09:00;CYXE 230900Z 02010KT 15SM OVC012 M07/M08 A3013 RMK SC8 SLP238

CYXE;2007-11-23 10:00;CYXE 231000Z 03006KT 15SM OVC012 M07/M09 A3014 RMK SC8 SLP240

CYXE;2007-11-23 10:43;CYXE 231043Z 01007KT 15SM OVC009 M07/ RMK ST8

CYXE;2007-11-23 11:00;CYXE 231100Z 01008KT 15SM OVC009 M07/M09 A3016 RMK ST8 SLP246

CYXE;2007-11-23 11:17;CYXE 231117Z 03010KT 15SM -SN OVC008 M08/ RMK ST8

CYXE;2007-11-23 12:00;CYXE 231200Z 01008KT 15SM -SN OVC008 M08/M09 A3016 RMK ST8 SLP250

CYXE;2007-11-23 13:00;CYXE 231300Z 02007KT 15SM -SN OVC008 M08/M09 A3016 RMK ST8 SLP248

CYXE;2007-11-23 13:19;CYXE 231319Z 01005KT 15SM -SN OVC010 M08/ RMK ST8

CYXE;2007-11-23 13:43;CYXE 231343Z 04004KT 15SM -SN OVC009 M08/ RMK ST8

CYXE;2007-11-23 14:00;CYXE 231400Z 03004KT 15SM -SN OVC010 M08/M09 A3015 RMK ST8 SLP246

CYXE;2007-11-23 14:46;CYXE 231446Z 34002KT 10SM OVC008 M08/ RMK ST8

CYXE;2007-11-23 15:00;CYXE 231500Z 36002KT 10SM OVC008 M08/M09 A3016 RMK ST8 SLP250

CYXE;2007-11-23 16:00;CYXE 231600Z 06002KT 10SM OVC008 M08/M10 A3015 RMK ST8 SLP248

CYXE;2007-11-23 16:19;CYXE 231619Z 00000KT 15SM OVC010 M08/ RMK ST8

CYXE;2007-11-23 17:00;CYXE 231700Z 22003KT 15SM OVC010 M07/M09 A3014 RMK ST8 SLP243

CYXE;2007-11-23 17:18;CYXE 231718Z 24003KT 10SM -SN OVC010 M07/ RMK ST8

CYXE;2007-11-23 18:00;CYXE 231800Z 28008KT 10SM -SN OVC010 M07/M08 A3012 RMK ST8 SLP238

CYXE;2007-11-23 19:00;CYXE 231900Z 29004KT 15SM -SN OVC012 M06/M08 A3010 RMK ST8 SLP229

CYXE;2007-11-23 19:16;CYXE 231916Z 30005KT 15SM OVC012 M06/ RMK ST8

CYXE;2007-11-23 20:00;CYXE 232000Z 26006KT 15SM OVC014 M05/M07 A3007 RMK ST8 SLP221

CYXE;2007-11-23 21:00;CYXE 232100Z 27011KT 15SM OVC014 M05/M08 A3004 RMK SC7 SLP207

CYXE;2007-11-23 22:00;CYXE 232200Z 26009KT 15SM OVC014 M05/M08 A3002 RMK SC7 SLP201

CYXE;2007-11-23 23:00;CYXE 232300Z 25009G15KT 15SM OVC012 M06/M08 A3001 RMK SC8 SLP197

CYXE;2007-11-23 23:51;CYXE 232351Z 27011KT 15SM OVC009 M07/ RMK SC8

CYXE;2007-11-24 00:00;CYXE 240000Z 26009KT 15SM OVC009 M06/M08 A2998 RMK SC8 SLP189

CYXE;2007-11-24 01:00;CYXE 240100Z 24008KT 15SM SCT010 BKN250 M07/M08 A2995 RMK SC3CI1 SLP180

CYXE;2007-11-24 02:00;CYXE 240200Z 23007KT 15SM FEW010 BKN110 BKN250 M07/M08 A2992 RMK SC2AC4CI1 SLP169

CYXE;2007-11-24 03:00;CYXE 240300Z 22007KT 15SM FEW010 BKN110 OVC250 M07/M08 A2989 RMK SC2AC5CI1 SLP158

CYXE;2007-11-24 04:00;CYXE 240400Z 19006KT 15SM SCT096 SCT250 M08/M09 A2986 RMK AC3CI0 SLP149

CYXE;2007-11-24 05:00;CYXE 240500Z 19007KT 15SM SCT088 BKN250 M08/M09 A2983 RMK AC4CI0 SLP138

CYXE;2007-11-24 06:00;CYXE 240600Z 21007KT 15SM FEW080 BKN250 M07/M09 A2981 RMK AC2CI1 SLP130

CYXE;2007-11-24 07:00;CYXE 240700Z 23006KT 15SM FEW080 OVC250 M06/M08 A2978 RMK AC2CI2 SLP121

CYXE;2007-11-24 08:00;CYXE 240800Z 25007KT 15SM FEW080 OVC250 M05/M07 A2976 RMK AC2CI2 SLP114

CYXE;2007-11-24 09:00;CYXE 240900Z 24007KT 15SM FEW080 BKN250 M05/M07 A2975 RMK AC2CI2 SLP106

CYXE;2007-11-24 10:00;CYXE 241000Z 27005KT 15SM FEW080 BKN250 M04/M07 A2976 RMK AC2CI2 SLP109

CYXE;2007-11-24 11:00;CYXE 241100Z 26008KT 15SM BKN095 OVC250 M05/M07 A2974 RMK AC6CI2 SLP102

CYXE;2007-11-24 12:00;CYXE 241200Z 27006KT 15SM BKN093 OVC250 M04/M07 A2974 RMK AC6CI2 SLP102

CYXE;2007-11-24 13:00;CYXE 241300Z 26006KT 15SM BKN093 OVC250 M05/M07 A2972 RMK AC6CI2 SLP096

CYXE;2007-11-24 14:00;CYXE 241400Z 26005KT 15SM OVC097 M05/M07 A2970 RMK AC8 SLP089

CYXE;2007-11-24 15:00;CYXE 241500Z 23002KT 15SM BKN110 OVC250 M06/M07 A2969 RMK AC5CI3 SLP087

CYXE;2007-11-24 16:00;CYXE 241600Z 00000KT 15SM BKN110 OVC250 M05/M07 A2970 RMK AC6CI2 SLP091

CYXE;2007-11-24 17:00;CYXE 241700Z 31003KT 15SM BKN110 OVC250 M04/M07 A2970 RMK AC6CI1 SLP090

CYXE;2007-11-24 18:00;CYXE 241800Z 00000KT 15SM OVC110 M03/M06 A2968 RMK AC8 SLP082

CYXE;2007-11-24 19:00;CYXE 241900Z 00000KT 15SM OVC250 M02/M06 A2966 RMK CI6 SLP077

CYXE;2007-11-24 20:00;CYXE 242000Z 18002KT 15SM SCT110 OVC250 M02/M06 A2964 RMK AS3CI3 SLP071

CYXE;2007-11-24 21:00;CYXE 242100Z 20003KT 15SM BKN070 OVC250 M02/M06 A2963 RMK AS6CS2 SLP062

CYXE;2007-11-24 22:00;CYXE 242200Z 22003KT 12SM BKN050 OVC075 M01/M05 A2960 RMK SC6AS2 BR SLP055

CYXE;2007-11-24 22:29;CYXE 242229Z 22006KT 3SM -SN OVC015 M01/ RMK SN2SC6

CYXE;2007-11-24 23:00;CYXE 242300Z 23005KT 12SM -SN OVC030 M02/M04 A2959 RMK SC8 SLP051

CYXE;2007-11-25 00:00;CYXE 250000Z 00000KT 8SM -SN OVC020 M02/M03 A2959 RMK SC8 SLP050

CYXE;2007-11-25 01:00;CYXE 250100Z 18004KT 10SM -SN OVC022 M02/M03 A2956 RMK SC8 SLP041

CYXE;2007-11-25 01:51;CYXE 250151Z 20006KT 15SM OVC028 M02/ RMK SC8

CYXE;2007-11-25 02:00;CYXE 250200Z 19006KT 15SM OVC030 M02/M04 A2954 RMK SC8 SLP033

CYXE;2007-11-25 02:46;CYXE 250246Z 20004KT 15SM -SN BKN022 OVC070 M02/ RMK SC6AC2

CYXE;2007-11-25 03:00;CYXE 250300Z 21004KT 15SM -SN OVC022 M02/M04 A2953 RMK SC8 SLP030

CYXE;2007-11-25 04:00;CYXE 250400Z 21004KT 15SM -SN OVC030 M01/M03 A2952 RMK SC8 SLP025

CYXE;2007-11-25 04:49;CYXE 250449Z 21005KT 15SM OVC038 M01/ RMK SC8

CYXE;2007-11-25 05:00;CYXE 250500Z 21005KT 15SM OVC038 M01/M03 A2949 RMK SC8 SLP017

CYXE;2007-11-25 06:00;CYXE 250600Z 23005KT 15SM OVC040 M01/M03 A2949 RMK SC8 SLP015

CYXE;2007-11-25 07:00;CYXE 250700Z 29007KT 15SM BKN037 OVC079 M01/M03 A2950 RMK SC6AC2 SLP017

CYXE;2007-11-25 07:12;CYXE 250712Z 28008KT 10SM -SN BKN035 OVC080 M01/ RMK SC6AC2

CYXE;2007-11-25 07:52;CYXE 250752Z 29009KT 5SM -SN FEW010 BKN049 OVC079 M01/ RMK SC1SC5AC2 VIS W-N 2

CYXE;2007-11-25 08:00;CYXE 250800Z 29007KT 5SM -SN FEW009 OVC060 M01/M01 A2950 RMK SC2SC6 SLP019

CYXE;2007-11-25 09:00;CYXE 250900Z 29009KT 5SM -SN FEW008 BKN029 OVC043 00/00 A2952 RMK SC2SC4SC2 SLP022

CYXE;2007-11-25 09:28;CYXE 250928Z 30008KT 10SM BKN009 OVC043 01/ RMK SC6SC2

CYXE;2007-11-25 10:00;CYXE 251000Z 30010KT 10SM -SN BKN009 BKN050 OVC080 01/00 A2955 RMK SC6SC2AC1 SLP030

CYXE;2007-11-25 10:21;CYXE 251021Z 31014KT 5SM -SN BKN010 OVC080 01/ RMK SC6AC2

CYXE;2007-11-25 10:45;CYXE 251045Z 31011G16KT 3SM -SN VV008 M00/ RMK SN8

CYXE;2007-11-25 11:00;CYXE 251100Z 35011KT 2SM -SN VV004 M02/M03 A2959 RMK SN8 SLP043

CYXE;2007-11-25 12:00;CYXE 251200Z 02010G15KT 2SM -SN OVC012 M09/M11 A2965 RMK SC8 SLP072

CYXE;2007-11-25 12:26;CYXE 251226Z 02009KT 1SM R09/P6000FT/D -SN VV006 M10/ RMK SN8

CYXE;2007-11-25 13:00;CYXE 251300Z 02008KT 4SM -SN BKN092 M10/M11 A2970 RMK AC3 SLP089

CYXE;2007-11-25 13:25;CYXE 251325Z 36007KT 15SM BKN021 OVC092 M10/ RMK SC7AC1

CYXE;2007-11-25 14:00;CYXE 251400Z 01008KT 15SM OVC022 M10/M12 A2974 RMK SC8 SLP102

CYXE;2007-11-25 15:00;CYXE 251500Z 02005KT 15SM BKN022 BKN034 M11/M13 A2978 RMK SC6SC1 SLP118

CYXE;2007-11-25 16:00;CYXE 251600Z 07003KT 15SM FEW012 BKN022 BKN094 M11/M13 A2980 RMK SF1SC5AC1 SLP125

CYXE;2007-11-25 17:00;CYXE 251700Z 18002KT 15SM -SN OVC025 M10/M12 A2983 RMK SC8 SLP136

CYXE;2007-11-25 18:00;CYXE 251800Z 00000KT 10SM -SN OVC029 M09/M11 A2984 RMK SC8 SLP139

CYXE;2007-11-25 19:00;CYXE 251900Z 07005KT 15SM -SN OVC025 M09/M11 A2986 RMK SC8 SLP145

CYXE;2007-11-25 20:00;CYXE 252000Z 06006KT 3SM -SN OVC023 M09/M11 A2989 RMK SN2SC6 VIS SE 1 SLP154

CYXE;2007-11-25 20:16;CYXE 252016Z 03007KT 2SM -SN OVC010 M09/ RMK SN3SC5

CYXE;2007-11-25 20:36;CYXE 252036Z 04009KT 2SM -SN BKN005 OVC100 M09/ RMK SN2SF2AC3

CYXE;2007-11-25 20:42;CYXE 252042Z 03009KT 10SM -SN BKN040 OVC100 M09/ RMK SC6AC2

CYXE;2007-11-25 21:00;CYXE 252100Z 02010KT 15SM -SN BKN040 OVC100 M10/M12 A2992 RMK SC6AC2 SLP165

CYXE;2007-11-25 21:21;CYXE 252121Z 01009KT 15SM BKN025 OVC100 M10/ RMK SC6AC2

CYXE;2007-11-25 22:00;CYXE 252200Z 04008KT 15SM BKN025 OVC100 M11/M13 A2995 RMK SC6AC2 SLP176

CYXE;2007-11-25 23:00;CYXE 252300Z 02009KT 15SM BKN018 BKN100 OVC250 M12/M14 A3000 RMK SC5AC2CI1 SLP192

CYXE;2007-11-25 23:48;CYXE 252348Z 03005KT 12SM -SN BKN015 BKN100 BKN250 M13/ RMK SC5AC1CI1

CYXE;2007-11-26 00:00;CYXE 260000Z 03008KT 12SM SCT015 BKN100 BKN250 M13/M15 A3004 RMK SC3AC2CI1 IC SLP215

CYXE;2007-11-26 01:00;CYXE 260100Z 05005KT 15SM SCT015 BKN100 BKN250 M15/M17 A3006 RMK SC2AC2CI2 IC SLP221

CYXE;2007-11-26 02:00;CYXE 260200Z 36004KT 15SM FEW020 SCT250 M19/M20 A3010 RMK SC2CI1 IC SLP233

CYXE;2007-11-26 03:00;CYXE 260300Z 33005KT 15SM SCT250 M20/M22 A3012 RMK CI2 SLP246

CYXE;2007-11-26 04:00;CYXE 260400Z 36005KT 15SM FEW090 SCT250 M21/M22 A3012 RMK AC1CI2 SLP246

CYXE;2007-11-26 05:00;CYXE 260500Z 31006KT 15SM FEW090 SCT250 M21/M22 A3015 RMK AC2CI1 SLP256

CYXE;2007-11-26 06:00;CYXE 260600Z 31002KT 15SM BKN070 M19/M20 A3015 RMK AC6 SLP255

CYXE;2007-11-26 07:00;CYXE 260700Z 30006KT 15SM FEW040 BKN067 BKN100 M20/M21 A3017 RMK SC2AC3AC1 SLP263

CYXE;2007-11-26 07:55;CYXE 260755Z 33003KT 10SM -SN BKN027 OVC095 M19/ RMK SC5AC2

CYXE;2007-11-26 08:00;CYXE 260800Z 34005KT 10SM -SN BKN027 OVC095 M18/M19 A3016 RMK SC5AC2 SLP260

CYXE;2007-11-26 09:00;CYXE 260900Z 35005KT 10SM -SN OVC033 M19/M20 A3017 RMK SC8 SLP261

CYXE;2007-11-26 09:20;CYXE 260920Z 34006KT 3SM -SN SCT018 OVC058 M18/ RMK SC3SC3

CYXE;2007-11-26 10:00;CYXE 261000Z 01008KT 3SM -SN SCT018 OVC052 M18/M20 A3017 RMK SC3SC5 SLP263

CYXE;2007-11-26 10:27;CYXE 261027Z 01011KT 1SM R09/P6000FT/D -SN SCT018 OVC052 M18/ RMK SC3SC5

CYXE;2007-11-26 11:00;CYXE 261100Z 36011KT 1SM R09/P6000FT/U -SN VV008 M19/M20 A3019 RMK SN8 SLP270

CYXE;2007-11-26 11:16;CYXE 261116Z 35010KT 1 1/2SM -SN OVC067 M19/ RMK SN2SC6

CYXE;2007-11-26 12:00;CYXE 261200Z 36006KT 2SM -SN OVC031 M19/M21 A3021 RMK SC8 SLP279

CYXE;2007-11-26 12:48;CYXE 261248Z 34011G16KT 4SM -SN OVC026 M19/ RMK SN2SC6

CYXE;2007-11-26 13:00;CYXE 261300Z CCA 34012KT 2SM -SN DRSN OVC026 M19/M21 A3023 RMK SN3SC5 SLP285

CYXE;2007-11-26 13:18;CYXE 261318Z 34011G16KT 2SM -SN OVC013 M19/ RMK SN4SC4

CYXE;2007-11-26 13:27;CYXE 261327Z 33012KT 4SM -SN DRSN SCT013 OVC058 M20/ RMK SC3SC5

CYXE;2007-11-26 14:00;CYXE 261400Z 34009KT 15SM -SN FEW025 BKN084 M20/M25 A3023 RMK SC2AC2 SLP287

CYXE;2007-11-26 15:00;CYXE 261500Z 33008KT 15SM SCT080 M22/M27 A3027 RMK AC2 SLP308

CYXE;2007-11-26 16:00;CYXE 261600Z 32015KT 15SM DRSN FEW080 M22/M28 A3029 RMK AC1 SLP315

CYXE;2007-11-26 17:00;CYXE 261700Z 32015G20KT 15SM DRSN FEW110 M23/M29 A3031 RMK AC1 IC SLP322

CYXE;2007-11-26 18:00;CYXE 261800Z 32017KT 15SM DRSN FEW110 FEW220 M22/M29 A3032 RMK AC1CI1 IC SLP324

CYXE;2007-11-26 19:00;CYXE 261900Z 30013G20KT 15SM DRSN FEW220 M22/M28 A3032 RMK CI1 IC SLP324

CYXE;2007-11-26 20:00;CYXE 262000Z 30012KT 15SM DRSN SCT220 M22/M28 A3033 RMK CI1 IC SLP327

CYXE;2007-11-26 21:00;CYXE 262100Z 30011KT 15SM DRSN FEW220 M22/M28 A3033 RMK CI1 IC SLP326

CYXE;2007-11-26 21:51;CYXE 262151Z 30011KT 15SM FEW220 M22/ RMK CI1

CYXE;2007-11-26 22:00;CYXE 262200Z 30009KT 15SM FEW220 M22/M28 A3034 RMK CI1 SLP330

CYXE;2007-11-26 23:00;CYXE 262300Z 28007KT 15SM SCT130 BKN250 M23/M29 A3035 RMK AC2CI2 SLP332

CYXE;2007-11-27 00:00;CYXE 270000Z 30006KT 15SM FEW120 SCT250 M26/M30 A3034 RMK AC2CI1 SLP334

CYXE;2007-11-27 01:00;CYXE 270100Z CCA 29004KT 15SM FEW120 SCT250 M27/M30 A3032 RMK AC2CI1 OBS TAKEN 0115Z SLP328

CYXE;2007-11-27 02:00;CYXE 270200Z 26004KT 15SM FEW120 FEW250 M27/M31 A3028 RMK AC1CI0 SLP315

CYXE;2007-11-27 03:00;CYXE 270300Z 24005KT 15SM FEW120 BKN250 M26/M30 A3030 RMK AC1CI2 SLP321

CYXE;2007-11-27 04:00;CYXE 270400Z 18002KT 15SM BKN250 M25/M28 A3025 RMK CI2 SLP307

CYXE;2007-11-27 05:00;CYXE 270500Z 19002KT 15SM SCT250 M25/M28 A3025 RMK CI1 SLP305

CYXE;2007-11-27 06:00;CYXE 270600Z 18002KT 15SM FEW140 BKN250 M24/M28 A3022 RMK AC1CI1 SLP295

CYXE;2007-11-27 07:00;CYXE 270700Z 14005KT 15SM OVC093 M22/M26 A3020 RMK AC6 SLP287

CYXE;2007-11-27 07:34;CYXE 270734Z 13007KT 15SM FEW005 OVC090 M22/ RMK SF1AC7 SF E

CYXE;2007-11-27 08:00;CYXE 270800Z 13008KT 15SM OVC084 M22/M26 A3017 RMK AC7 SLP279

CYXE;2007-11-27 09:00;CYXE 270900Z 12010KT 15SM BKN090 OVC250 M22/M26 A3015 RMK AS5CS1 SLP268

CYXE;2007-11-27 10:00;CYXE 271000Z 13008KT 15SM OVC076 M21/M26 A3012 RMK AS7 SLP257

CYXE;2007-11-27 11:00;CYXE 271100Z 13011KT 15SM OVC071 M21/M25 A3008 RMK AS7 SLP244

CYXE;2007-11-27 12:00;CYXE 271200Z 12012KT 15SM BKN055 OVC075 M21/M25 A3006 RMK SC6AS2 SLP238

CYXE;2007-11-27 12:44;CYXE 271244Z 12014KT 10SM -SN OVC044 M20/ RMK SC7

CYXE;2007-11-27 13:00;CYXE 271300Z 11013KT 12SM -SN OVC044 M20/M25 A3001 RMK SC6 SLP223

CYXE;2007-11-27 14:00;CYXE 271400Z 12013G18KT 12SM -SN OVC044 M20/M24 A2999 RMK SC7 SLP217

CYXE;2007-11-27 14:19;CYXE 271419Z 12009G16KT 2SM -SN DRSN BKN019 OVC045 M20/ RMK SC6SC2

CYXE;2007-11-27 14:36;CYXE 271436Z 11012KT 1SM R09/P6000FT/N -SN DRSN OVC019 M20/ RMK SC8

CYXE;2007-11-27 15:00;CYXE 271500Z 11013KT 1SM R09/P6000FT/U -SN DRSN OVC019 M20/M23 A2997 RMK SN2SC6 /S01/ SLP208

CYXE;2007-11-27 15:39;CYXE 271539Z 11013KT 3/4SM R09/P6000FT/D -SN DRSN OVC019 M19/ RMK SN3SC5

CYXE;2007-11-27 16:00;CYXE 271600Z 11012KT 3/4SM R09/P6000FT/N -SN DRSN OVC019 M19/M22 A2996 RMK SN3SC5 /S02/ SLP205

CYXE;2007-11-27 16:37;CYXE 271637Z 10013KT 1SM R09/P6000FT/N -SN DRSN OVC021 M18/ RMK SN3SC5

CYXE;2007-11-27 17:00;CYXE 271700Z 11013KT 1SM R09/P6000FT/N -SN DRSN OVC023 M18/M22 A2995 RMK SN3SC5 SLP202

CYXE;2007-11-27 17:31;CYXE 271731Z 10014KT 3/4SM R09/P6000FT/N -SN DRSN OVC019 M17/ RMK SN3SC5 /S04/

CYXE;2007-11-27 18:00;CYXE 271800Z 10015KT 3/4SM R09/6000FT/N -SN DRSN OVC017 M17/M21 A2995 RMK SN4SC4 /S05/ SLP195

CYXE;2007-11-27 18:31;CYXE 271831Z 10013G18KT 1/2SM R09/P6000FT/D SN DRSN VV008 M17/ RMK SN8

CYXE;2007-11-27 19:00;CYXE 271900Z 09014KT 3/4SM R09/P6000FT/U -SN DRSN VV007 M16/M20 A2992 RESN RMK SN8 SLP186

CYXE;2007-11-27 19:26;CYXE 271926Z 09014G19KT 1SM R09/P6000FT/N -SN DRSN OVC018 M16/ RMK SN3SC5

CYXE;2007-11-27 20:00;CYXE 272000Z 09016KT 1 1/4SM -SN DRSN OVC029 M16/M20 A2990 RMK SN2SC6 /S01/ SLP182

CYXE;2007-11-27 21:00;CYXE 272100Z 09013KT 1 1/2SM -SN DRSN OVC015 M16/M19 A2991 RMK SN2SC6 SLP182

CYXE;2007-11-27 21:22;CYXE 272122Z 09012KT 1SM R09/P6000FT/D -SN DRSN VV015 M16/ RMK SN8

CYXE;2007-11-27 21:44;CYXE 272144Z 08012KT 1SM R09/P6000FT/U -SN DRSN VV012 M16/ RMK SN8

CYXE;2007-11-27 22:00;CYXE 272200Z 08015KT 1SM R09/P6000FT/U -SN DRSN VV012 M16/M19 A2992 RMK SN8 SLP183

CYXE;2007-11-27 22:35;CYXE 272235Z 07010KT 1 1/2SM -SN DRSN VV015 M16/ RMK SN8

CYXE;2007-11-27 23:00;CYXE 272300Z 07010KT 1 1/2SM -SN DRSN VV018 M15/M18 A2994 RMK SN8 /S03/ SLP191

CYXE;2007-11-27 23:22;CYXE 272322Z 07010KT 1SM R09/P6000FT/D -SN DRSN VV006 M16/ RMK SN8

CYXE;2007-11-28 00:00;CYXE 280000Z 06010KT 2SM -SN DRSN OVC020 M16/M18 A2997 RMK SN5SC3 SLP200

CYXE;2007-11-28 00:49;CYXE 280049Z 06009KT 2SM -SN DRSN VV008 M16/ RMK SN8

CYXE;2007-11-28 01:00;CYXE 280100Z 06008KT 2SM -SN VV012 M16/M19 A2999 RMK SN8 SLP205

CYXE;2007-11-28 01:31;CYXE 280131Z 06006KT 4SM -SN OVC018 M16/ RMK SN3SC5

CYXE;2007-11-28 02:00;CYXE 280200Z 06007KT 4SM -SN OVC015 M16/M19 A2999 RMK SN4SC4 /S01/ SLP207

CYXE;2007-11-28 03:00;CYXE 280300Z CCA 01009KT 8SM -SN OVC045 M18/M22 A3001 RMK SC8 SLP215

CYXE;2007-11-28 03:39;CYXE 280339Z 03007KT 10SM BKN050 OVC090 M19/ RMK SC5AC2 IC

CYXE;2007-11-28 04:00;CYXE 280400Z 01007KT 12SM BKN055 OVC085 M19/M22 A3002 RMK SC5AC2 IC SLP219

CYXE;2007-11-28 05:00;CYXE 280500Z 01008KT 3SM -SN OVC041 M19/M22 A3003 RMK SC6 SLP223

CYXE;2007-11-28 06:00;CYXE 280600Z 35005KT 6SM -SN FEW013 SCT060 M21/M24 A3004 RMK SC2SC1 SLP226

CYXE;2007-11-28 06:25;CYXE 280625Z CCB 32008KT 15SM FEW010 FEW060 M22/ RMK SC1SC1 IC

CYXE;2007-11-28 06:30;CYXE 280630Z CCA 32008KT 15SM FEW010 FEW060 M22/ RMK SC1SC1 IC

CYXE;2007-11-28 07:00;CYXE 280700Z 33008KT 10SM FEW013 M23/M26 A3006 RMK SC1 IC SLP233

CYXE;2007-11-28 08:00;CYXE 280800Z 32006KT 6SM IC OVC090 M22/M25 A3007 RMK AC6 IC SLP235

CYXE;2007-11-28 08:20;CYXE 280820Z 32007KT 15SM -SN FEW016 OVC079 M21/ RMK SC1AC7

CYXE;2007-11-28 09:00;CYXE 280900Z 31004KT 15SM -SN FEW048 OVC070 M20/M24 A3008 RMK SC1AC7 SLP236

CYXE;2007-11-28 10:00;CYXE 281000Z 28005KT 15SM -SN FEW060 OVC068 M20/M23 A3008 RMK SC2AC6 SLP237

CYXE;2007-11-28 11:00;CYXE 281100Z 28007KT 10SM -SN OVC033 M18/M21 A3007 RMK SC8 SLP234

CYXE;2007-11-28 12:00;CYXE 281200Z 27006KT 6SM -SN OVC045 M18/M21 A3006 RMK SC8 SLP229

CYXE;2007-11-28 13:00;CYXE 281300Z 30012G17KT 3SM -SN DRSN BKN025 BKN280 M18/M21 A3006 RMK SC5CI0 SLP230

CYXE;2007-11-28 14:00;CYXE 281400Z 31016KT 5SM -SN DRSN BKN050 OVC080 M18/M22 A3007 RMK SC5AC2 SLP233

CYXE;2007-11-28 15:00;CYXE 281500Z 32014KT 5SM -SN DRSN BKN047 OVC080 M18/M22 A3009 RMK SC6AC1 SLP240

CYXE;2007-11-28 15:49;CYXE 281549Z 31015G20KT 10SM DRSN FEW050 SCT080 M19/ RMK SC2AC1

CYXE;2007-11-28 16:00;CYXE 281600Z 31015KT 12SM DRSN FEW050 FEW080 SCT160 M19/M23 A3010 RMK SC2AC1AC0 SLP243

CYXE;2007-11-28 17:00;CYXE 281700Z 31018KT 8SM DRSN FEW024 BKN080 M18/M23 A3012 RMK SC1AC3 SLP250

CYXE;2007-11-28 18:00;CYXE 281800Z 31016G22KT 12SM DRSN SKC M19/M24 A3013 RMK SLP259

CYXE;2007-11-28 19:00;CYXE 281900Z 32019G25KT 10SM DRSN FEW080 M19/M24 A3013 RMK AC1 SLP259

CYXE;2007-11-28 20:00;CYXE 282000Z 31013KT 12SM DRSN FEW020 FEW080 M19/M25 A3015 RMK SC1AC1 SLP263

CYXE;2007-11-28 21:00;CYXE 282100Z 30011G17KT 15SM DRSN SKC M19/M24 A3016 RMK SLP266

CYXE;2007-11-28 22:00;CYXE 282200Z 30015KT 15SM DRSN SKC M20/M25 A3016 RMK SLP267

CYXE;2007-11-28 23:00;CYXE 282300Z 28007KT 15SM SKC M20/M25 A3016 RMK SLP268

CYXE;2007-11-29 00:00;CYXE 290000Z 27008KT 15SM SKC M22/M26 A3016 RMK SLP266

CYXE;2007-11-29 01:00;CYXE 290100Z 24009KT 15SM SKC M25/M28 A3014 RMK SLP262

CYXE;2007-11-29 02:00;CYXE 290200Z 28009KT 15SM SKC M22/M26 A3013 RMK SLP258

CYXE;2007-11-29 03:00;CYXE 290300Z 27009KT 15SM SKC M24/M28 A3012 RMK SLP254

CYXE;2007-11-29 04:00;CYXE 290400Z 28008KT 15SM SKC M23/M27 A3010 RMK SLP248

CYXE;2007-11-29 05:00;CYXE 290500Z 29009KT 15SM SKC M23/M27 A3009 RMK SLP246

CYXE;2007-11-29 06:00;CYXE 290600Z 30007KT 15SM SKC M23/M26 A3008 RMK SLP243

CYXE;2007-11-29 07:00;CYXE 290700Z 30007KT 15SM SKC M22/M26 A3009 RMK SLP245

CYXE;2007-11-29 08:00;CYXE 290800Z 30006KT 15SM SCT049 SCT089 M22/M26 A3009 RMK SC2AC1 SLP245

CYXE;2007-11-29 09:00;CYXE 290900Z 31010KT 15SM FEW049 SCT220 M22/M26 A3009 RMK SC1CI1 SLP246

CYXE;2007-11-29 10:00;CYXE 291000Z 30008KT 15SM SCT220 M22/M26 A3010 RMK CI1 SLP247

CYXE;2007-11-29 11:00;CYXE 291100Z 30009KT 15SM FEW091 M22/M26 A3009 RMK AC1 SLP246

CYXE;2007-11-29 12:00;CYXE 291200Z 30010KT 15SM FEW090 M22/M26 A3009 RMK AC1 SLP248

CYXE;2007-11-29 13:00;CYXE 291300Z 32009KT 15SM SKC M23/M27 A3010 RMK SLP251

CYXE;2007-11-29 14:00;CYXE 291400Z 30010KT 15SM SKC M23/M27 A3011 RMK SLP254

CYXE;2007-11-29 15:00;CYXE 291500Z 30008KT 15SM SKC M25/M28 A3013 RMK SLP263

CYXE;2007-11-29 16:00;CYXE 291600Z 29011KT 15SM SKC M23/M27 A3014 RMK SLP268

CYXE;2007-11-29 17:00;CYXE 291700Z 30009KT 15SM SKC M21/M25 A3016 RMK SLP273

CYXE;2007-11-29 18:00;CYXE 291800Z 30011KT 15SM FEW016 FEW080 M20/M24 A3016 RMK CU1AC1 SLP270

CYXE;2007-11-29 19:00;CYXE 291900Z 30013KT 15SM FEW020 M18/M23 A3016 RMK CU1 SLP268

CYXE;2007-11-29 20:00;CYXE 292000Z 30015KT 15SM FEW020 FEW080 SCT280 M18/M23 A3015 RMK CF1AC1CI0 SLP267

CYXE;2007-11-29 21:00;CYXE 292100Z 31016KT 15SM DRSN FEW020 FEW250 M18/M23 A3016 RMK CU1CI0 SLP269

CYXE;2007-11-29 22:00;CYXE 292200Z 31014KT 15SM FEW020 FEW250 M18/M24 A3018 RMK CU1CI0 SLP274

CYXE;2007-11-29 23:00;CYXE 292300Z 30014KT 15SM SKC M19/M24 A3019 RMK SLP278

CYXE;2007-11-30 00:00;CYXE 300000Z 28008KT 15SM SKC M21/M25 A3020 RMK SLP283

CYXE;2007-11-30 01:00;CYXE 300100Z 25009KT 15SM SKC M22/M26 A3020 RMK SLP283

CYXE;2007-11-30 02:00;CYXE 300200Z 26007KT 15SM SKC M23/M27 A3020 RMK SLP285

CYXE;2007-11-30 03:00;CYXE 300300Z 26009KT 15SM SKC M23/M27 A3019 RMK SLP284

CYXE;2007-11-30 04:00;CYXE 300400Z 24006KT 15SM SKC M25/M29 A3018 RMK SLP280

CYXE;2007-11-30 05:00;CYXE 300500Z 23009KT 15SM SKC M24/M28 A3015 RMK SLP272

CYXE;2007-11-30 06:00;CYXE 300600Z 23011KT 15SM SKC M22/M27 A3013 RMK SLP260

CYXE;2007-11-30 07:00;CYXE 300700Z 25010KT 15SM SKC M22/M26 A3012 RMK SLP255

CYXE;2007-11-30 08:00;CYXE 300800Z 24014KT 15SM SKC M21/M26 A3008 RMK SLP244

CYXE;2007-11-30 09:00;CYXE 300900Z 24010KT 15SM SKC M21/M26 A3008 RMK SLP242

CYXE;2007-11-30 10:00;CYXE 301000Z 25007KT 15SM SKC M23/M28 A3008 RMK SLP239

CYXE;2007-11-30 11:00;CYXE 301100Z 26008KT 15SM SKC M20/M26 A3008 RMK SLP239

CYXE;2007-11-30 12:00;CYXE 301200Z 24007KT 15SM SKC M22/M27 A3008 RMK SLP241

CYXE;2007-11-30 13:00;CYXE 301300Z 26009KT 15SM SKC M19/M25 A3008 RMK SLP242

CYXE;2007-11-30 14:00;CYXE 301400Z 27007KT 15SM FEW250 M20/M25 A3008 RMK CI0 SLP241

CYXE;2007-11-30 15:00;CYXE 301500Z 25008KT 15SM FEW250 M21/M26 A3007 RMK CI1 SLP240

CYXE;2007-11-30 16:00;CYXE 301600Z 25009KT 15SM FEW100 FEW250 M20/M26 A3008 RMK AC2CI0 SLP242

CYXE;2007-11-30 17:00;CYXE 301700Z 27008KT 15SM FEW100 SCT250 M17/M24 A3009 RMK AC1CI1 SLP247

CYXE;2007-11-30 18:00;CYXE 301800Z 25010KT 15SM FEW100 SCT250 M16/M23 A3009 RMK AC1CI1 SLP244

CYXE;2007-11-30 19:00;CYXE 301900Z 30010KT 15SM SCT250 M14/M22 A3009 RMK CI2 SLP242

CYXE;2007-11-30 20:00;CYXE 302000Z 31006KT 15SM BKN250 M14/M21 A3008 RMK CI2 SLP240

CYXE;2007-11-30 21:00;CYXE 302100Z 32007KT 15SM OVC250 M14/M21 A3008 RMK CI5 SLP236

CYXE;2007-11-30 22:00;CYXE 302200Z 30003KT 15SM OVC250 M15/M21 A3009 RMK CI4 SLP239

CYXE;2007-11-30 23:00;CYXE 302300Z 34006KT 15SM FEW025 BKN250 M19/M23 A3008 RMK SC1CI4 SLP237

CYXE;2007-12-01 01:00;CYXE 010100Z 32005KT 15SM -SN OVC018 M17/M21 A3009 RMK SC8 SLP245

CYXE;2007-12-01 02:00;CYXE 010200Z 31004KT 15SM -SN OVC020 M16/M20 A3011 RMK SC8 SLP252

CYXE;2007-12-01 03:00;CYXE 010300Z 34003KT 15SM -SN OVC020 M15/M19 A3012 RMK SC8 SLP252

CYXE;2007-12-01 04:00;CYXE 010400Z 30003KT 15SM -SN OVC023 M15/M18 A3013 RMK SC8 SLP254

CYXE;2007-12-01 05:00;CYXE 010500Z 32003KT 15SM -SN OVC026 M15/M18 A3012 RMK SC8 SLP252

CYXE;2007-12-01 06:00;CYXE 010600Z 36005KT 15SM -SN OVC026 M15/M18 A3011 RMK SC8 SLP245

CYXE;2007-12-01 07:00;CYXE 010700Z 06012KT 10SM -SN BKN017 OVC026 M15/M19 A3012 RMK SC6SC2 SLP247

CYXE;2007-12-01 08:00;CYXE 010800Z 09006KT 12SM -SN OVC026 M15/M19 A3013 RMK SC8 SLP251

CYXE;2007-12-01 09:00;CYXE 010900Z 09006KT 15SM -SN OVC028 M16/M20 A3013 RMK SC8 SLP251

CYXE;2007-12-01 10:00;CYXE 011000Z 09007KT 12SM -SN OVC028 M16/M20 A3014 RMK SC8 SLP253

CYXE;2007-12-01 11:00;CYXE 011100Z 10008KT 15SM -SN OVC030 M16/M21 A3013 RMK SC8 SLP251

CYXE;2007-12-01 12:00;CYXE 011200Z 08009KT 12SM -SN OVC030 M16/M21 A3011 RMK SC8 SLP249

CYXE;2007-12-01 13:00;CYXE 011300Z 09009KT 15SM -SN OVC030 M16/M22 A3011 RMK SC8 SLP247

CYXE;2007-12-01 14:00;CYXE 011400Z 10008KT 15SM -SN OVC030 M17/M22 A3010 RMK SC8 SLP246

CYXE;2007-12-01 15:00;CYXE 011500Z 12006KT 15SM -SN OVC032 M17/M22 A3011 RMK SC8 SLP245

CYXE;2007-12-01 16:00;CYXE 011600Z 09005KT 15SM -SN OVC032 M17/M22 A3010 RMK SC8 SLP241

CYXE;2007-12-01 17:00;CYXE 011700Z 13005KT 15SM -SN OVC032 M17/M21 A3010 RMK SC8 SLP241

CYXE;2007-12-01 18:00;CYXE 011800Z 11004KT 15SM -SN OVC034 M16/M21 A3008 RMK SC7 SLP235

CYXE;2007-12-01 19:00;CYXE 011900Z 13005KT 15SM -SN OVC036 M16/M21 A3006 RMK SC7 SLP228

CYXE;2007-12-01 20:00;CYXE 012000Z 14005KT 15SM OVC036 M16/M21 A3005 RMK SC7 SLP224

CYXE;2007-12-01 21:00;CYXE 012100Z 15006KT 15SM -SN FEW020 OVC036 M16/M21 A3003 RMK SC1SC7 SLP217

CYXE;2007-12-01 22:00;CYXE 012200Z 12005KT 15SM FEW020 OVC038 M17/M22 A3003 RMK SC1SC6 SLP216

CYXE;2007-12-01 23:00;CYXE 012300Z 12004KT 15SM OVC038 M18/M23 A3003 RMK SC6 SLP218

CYXE;2007-12-02 00:00;CYXE 020000Z 13005KT 15SM OVC038 M19/M23 A3004 RMK SC6 IC SLP222

CYXE;2007-12-02 01:00;CYXE 020100Z 13003KT 15SM OVC038 M19/M22 A3004 RMK SC6 IC SLP224

CYXE;2007-12-02 02:00;CYXE 020200Z 13004KT 15SM SCT038 OVC110 M19/M23 A3003 RMK SC3AC5 IC SLP220

CYXE;2007-12-02 03:00;CYXE 020300Z 14004KT 15SM FEW042 OVC091 M19/M22 A3004 RMK SC2AC6 IC SLP223

CYXE;2007-12-02 04:00;CYXE 020400Z 13003KT 15SM OVC042 M19/M22 A3003 RMK SC7 SLP222

CYXE;2007-12-02 05:00;CYXE 020500Z 11004KT 15SM BKN042 OVC084 M19/M22 A3003 RMK SC5AC2 SLP220

CYXE;2007-12-02 06:00;CYXE 020600Z 13004KT 15SM FEW040 OVC076 M20/M23 A3003 RMK SC2AC4 SLP221

CYXE;2007-12-02 07:00;CYXE 020700Z 16002KT 15SM SCT044 BKN076 M21/M24 A3003 RMK SC3AC2 SLP222

CYXE;2007-12-02 08:00;CYXE 020800Z 15003KT 15SM BKN044 BKN120 M21/M24 A3004 RMK SC5AC1 SLP225

CYXE;2007-12-02 09:00;CYXE 020900Z 14003KT 15SM BKN022 BKN120 M21/M24 A3005 RMK SC5AC2 SLP228

CYXE;2007-12-02 09:21;CYXE 020921Z 09002KT 12SM -SN FEW022 BKN044 OVC120 M21/ RMK SC2SC4AC1

CYXE;2007-12-02 10:00;CYXE 021000Z 00000KT 12SM -SN OVC031 M20/M24 A3006 RMK SC7 SLP232

CYXE;2007-12-02 10:43;CYXE 021043Z 00000KT 15SM SCT024 M21/ RMK SC3

CYXE;2007-12-02 11:00;CYXE 021100Z 00000KT 15SM BKN024 M21/M24 A3007 RMK SC5 SLP234

CYXE;2007-12-02 12:00;CYXE 021200Z 00000KT 15SM SCT024 M22/M25 A3007 RMK SC3 SLP238

CYXE;2007-12-02 13:00;CYXE 021300Z 00000KT 15SM FEW024 M21/M25 A3007 RMK SC2 SLP238

CYXE;2007-12-02 14:00;CYXE 021400Z 13007KT 15SM FEW018 M22/M26 A3006 RMK SC1 SLP235

CYXE;2007-12-02 15:00;CYXE 021500Z 13006KT 15SM FEW018 FEW090 FEW250 M22/M25 A3007 RMK SC1AC1CI0 SLP237

CYXE;2007-12-02 16:00;CYXE 021600Z 14005KT 15SM FEW012 FEW250 M20/M23 A3008 RMK SC1CI0 SLP240

CYXE;2007-12-02 17:00;CYXE 021700Z 13009KT 15SM SCT100 M19/M22 A3007 RMK AC2 SLP238

CYXE;2007-12-02 18:00;CYXE 021800Z 13009KT 15SM BKN095 M18/M21 A3007 RMK AS5 SLP234

CYXE;2007-12-02 19:00;CYXE 021900Z 12009KT 6SM -SN SCT015 OVC070 M17/M20 A3005 RMK SC3AC4 SLP229

CYXE;2007-12-02 19:17;CYXE 021917Z 11008KT 2 1/2SM -SN BKN014 OVC035 M17/ RMK SN2SC3SC3

CYXE;2007-12-02 19:22;CYXE 021922Z 11009KT 1SM R09/P6000FT/N -SN BKN014 OVC035 M17/ RMK SN3SC2SC2

CYXE;2007-12-02 19:36;CYXE 021936Z 10010KT 1 1/2SM -SN BKN008 OVC035 M17/ RMK SN2SC3SC3

CYXE;2007-12-02 20:00;CYXE 022000Z 10011KT 1 1/2SM -SN BKN012 OVC050 M17/M20 A3004 RMK SN2SC4SC2 SLP227

CYXE;2007-12-02 20:05;CYXE 022005Z 10010KT 1SM R09/P6000FT/D -SN BKN014 OVC050 M16/ RMK SN2SC3SC2

CYXE;2007-12-02 20:35;CYXE 022035Z 10011KT 3/4SM R09/P6000FT/D -SN VV016 M16/ RMK SN8

CYXE;2007-12-02 21:00;CYXE 022100Z 09012KT 1SM R09/P6000FT/U -SN DRSN VV016 M16/M20 A3003 RMK SN8 SLP220

CYXE;2007-12-02 21:06;CYXE 022106Z 09011G16KT 3/4SM R09/P6000FT/N -SN DRSN VV009 M16/ RMK SN8

CYXE;2007-12-02 21:42;CYXE 022142Z 08013KT 1SM R09/P6000FT/N -SN DRSN OVC020 M16/ RMK SN3SC4

CYXE;2007-12-02 21:54;CYXE 022154Z 08014KT 2SM -SN DRSN OVC027 M16/ RMK SC7

CYXE;2007-12-02 22:00;CYXE 022200Z CCA 09011KT 3SM -SN DRSN BKN034 M16/M20 A3003 RMK SC7 /S02/ SLP220

CYXE;2007-12-02 23:00;CYXE 022300Z 09010KT 8SM -SN FEW017 SCT089 BKN230 M17/M21 A3004 RMK SC1AC2CI2 SLP226

CYXE;2007-12-03 00:00;CYXE 030000Z 08010KT 15SM -SN FEW017 OVC035 M17/M21 A3005 RMK SC1SC6 SLP230

CYXE;2007-12-03 00:45;CYXE 030045Z 07011KT 15SM FEW035 BKN230 M18/ RMK SC2CI1

CYXE;2007-12-03 01:00;CYXE 030100Z 07011KT 15SM FEW035 BKN230 M18/M21 A3004 RMK SC2CI2 SLP228

CYXE;2007-12-03 02:00;CYXE 030200Z 08011KT 15SM BKN230 M18/M22 A3006 RMK CI3 SLP233

CYXE;2007-12-03 02:50;CYXE 030250Z 06010KT 15SM OVC230 M19/ RMK CI6 IC

CYXE;2007-12-03 03:00;CYXE 030300Z 06010KT 15SM OVC230 M19/M23 A3006 RMK CI6 IC SLP233

CYXE;2007-12-03 04:00;CYXE 030400Z 07010KT 15SM OVC200 M19/M23 A3005 RMK CI8 IC SLP231

CYXE;2007-12-03 05:00;CYXE 030500Z 07010KT 15SM OVC200 M19/M23 A3003 RMK CI8 SLP223

CYXE;2007-12-03 06:00;CYXE 030600Z 08010KT 15SM OVC200 M18/M21 A3000 RMK CI8 SLP211

CYXE;2007-12-03 07:00;CYXE 030700Z 09009KT 15SM BKN067 OVC220 M16/M20 A3003 RMK AC6CI2 SLP219

CYXE;2007-12-03 07:44;CYXE 030744Z 08011KT 12SM -SN OVC046 RMK SC8

CYXE;2007-12-03 08:00;CYXE 030800Z 08012KT 10SM -SN OVC044 M16/M20 A3002 RMK SC8 SLP216

CYXE;2007-12-03 08:37;CYXE 030837Z 09012KT 2 1/2SM -SN OVC020 M16/ RMK SC8

CYXE;2007-12-03 09:00;CYXE 030900Z 08012KT 2 1/2SM -SN DRSN OVC016 M16/M19 A3002 RMK SC8 SLP213

CYXE;2007-12-03 10:00;CYXE 031000Z 08015KT 3SM -SN DRSN OVC052 M16/M19 A3001 RMK SC8 SLP211

CYXE;2007-12-03 11:00;CYXE 031100Z 09013KT 8SM -SN DRSN OVC046 M15/M18 A3002 RMK SC8 SLP214

CYXE;2007-12-03 12:00;CYXE 031200Z 09014KT 10SM -SN DRSN FEW015 OVC030 M15/M18 A3001 RMK CF1SC7 SLP210

CYXE;2007-12-03 13:00;CYXE 031300Z 09016KT 10SM -SN DRSN FEW015 OVC030 M15/M18 A3003 RMK CF1SC7 SLP216

CYXE;2007-12-03 14:00;CYXE 031400Z 08013KT 12SM -SN DRSN FEW015 OVC030 M15/M18 A3004 RMK CF1SC7 SLP221

CYXE;2007-12-03 14:26;CYXE 031426Z 09016KT 15SM FEW015 OVC028 M14/ RMK CF1SC7

CYXE;2007-12-03 15:00;CYXE 031500Z 08016G21KT 15SM FEW015 OVC028 M14/M18 A3008 RMK CF1SC7 SLP235

CYXE;2007-12-03 16:00;CYXE 031600Z 08016KT 15SM FEW015 BKN030 OVC060 M15/M19 A3006 RMK CF1SC6SC2 SLP229

CYXE;2007-12-03 17:00;CYXE 031700Z 08014KT 15SM OVC017 M15/M19 A3009 RMK SC8 SLP240

CYXE;2007-12-03 18:00;CYXE 031800Z 09016KT 12SM -SN DRSN BKN017 OVC060 M15/M18 A3009 RMK SC5SC3 SLP238

CYXE;2007-12-03 18:45;CYXE 031845Z 09014KT 15SM BKN012 OVC060 M14/ RMK SC6SC2

CYXE;2007-12-03 19:00;CYXE 031900Z 10015KT 15SM DRSN BKN012 OVC060 M14/M18 A3007 RMK SC6SC2 SLP232

CYXE;2007-12-03 19:20;CYXE 031920Z 09014G19KT 15SM SCT016 OVC090 M14/ RMK SC3AC4

CYXE;2007-12-03 20:00;CYXE 032000Z 10016KT 15SM DRSN FEW016 OVC085 M14/M18 A3006 RMK SC2AC6 SLP230

CYXE;2007-12-03 20:39;CYXE 032039Z 10017KT 15SM DRSN FEW008 BKN014 OVC092 M14/ RMK SF1SC6AS2

CYXE;2007-12-03 20:52;CYXE 032052Z 10016G24KT 15SM -SN DRSN FEW010 BKN016 OVC052 M14/ RMK SF1ST6SC2

CYXE;2007-12-03 21:00;CYXE 032100Z 10014G24KT 6SM -SN DRSN FEW010 OVC037 M13/M17 A3006 RMK SF1ST7 SLP226

CYXE;2007-12-03 21:05;CYXE 032105Z 10015KT 2SM -SN BLSN OVC013 M13/ RMK SN3ST5

CYXE;2007-12-03 21:09;CYXE 032109Z 10015G20KT 1 1/2SM -SN BLSN OVC013 M13/ RMK SN5ST3

CYXE;2007-12-03 21:20;CYXE 032120Z 11014KT 4SM -SN DRSN BKN013 OVC033 M13/ REBLSN RMK SF6ST2

CYXE;2007-12-03 21:40;CYXE 032140Z 10013KT 6SM -SN DRSN FEW011 OVC037 M13/ REBLSN RMK SF2SC6

CYXE;2007-12-03 21:47;CYXE 032147Z 09016KT 6SM -SN DRSN BKN011 OVC040 M14/ REBLSN RMK SF6SC2

CYXE;2007-12-03 22:00;CYXE 032200Z 10012KT 2SM -SN DRSN OVC011 M14/M17 A3007 REBLSN RMK SN2SF6 SLP230

CYXE;2007-12-03 22:09;CYXE 032209Z 10015KT 1 1/2SM -SN DRSN VV011 M14/ RMK SN8

CYXE;2007-12-03 23:00;CYXE 032300Z 09016KT 2SM -SN DRSN BKN018 OVC034 M14/M17 A3007 RMK SC6SC2 OBS TAKEN +09 SLP228

CYXE;2007-12-03 23:34;CYXE 032334Z 10015KT 4SM -SN DRSN SCT018 OVC031 M14/ RMK SC4SC4

CYXE;2007-12-04 00:00;CYXE 040000Z 10013KT 6SM -SN DRSN OVC027 M14/M17 A3008 RMK SC8 /S01/ SLP233

CYXE;2007-12-04 00:46;CYXE 040046Z 10015KT 2SM -SN DRSN OVC029 M14/ RMK SN6SC2

CYXE;2007-12-04 01:00;CYXE 040100Z 09014KT 1 1/2SM -SN DRSN OVC029 M14/M17 A3007 RMK SN6SC2 SLP229

CYXE;2007-12-04 01:04;CYXE 040104Z CCA 09013KT 1SM R09/P6000FT/N -SN DRSN VV007 M14/ RMK SN8

CYXE;2007-12-04 01:28;CYXE 040128Z 09014KT 1/2SM R09/P6000FT/D SN DRSN VV005 M14/ RMK SN8

CYXE;2007-12-04 01:42;CYXE 040142Z 09014KT 3/8SM R09/5500FT/D SN DRSN VV004 M14/ RMK SN8

CYXE;2007-12-04 02:00;CYXE 040200Z 09013KT 1/2SM R09/P6000FT/U SN DRSN VV004 M14/M16 A3004 RMK SN8 /S02/ SLP221

CYXE;2007-12-04 02:19;CYXE 040219Z 09014KT 3/4SM R09/P6000FT/N -SN DRSN VV004 M14/ RESN RMK SN8

CYXE;2007-12-04 02:31;CYXE 040231Z 10014G19KT 1 1/2SM -SN DRSN VV006 M14/ RESN RMK SN8

CYXE;2007-12-04 02:47;CYXE 040247Z 09016KT 1 1/2SM -SN DRSN VV007 M14/ RESN RMK SN8

CYXE;2007-12-04 03:00;CYXE 040300Z 09017KT 1 1/2SM -SN DRSN VV007 M14/M16 A2999 RESN RMK SN8 SLP202

CYXE;2007-12-04 03:35;CYXE 040335Z 09014KT 4SM -SN DRSN BKN028 OVC049 M14/ RMK SC6SC2

CYXE;2007-12-04 04:00;CYXE 040400Z 09014KT 2SM -SN DRSN OVC028 M14/M17 A2998 RMK SN3SC5 /S03/ SLP199

CYXE;2007-12-04 04:11;CYXE 040411Z 09013G18KT 1 1/2SM -SN DRSN OVC028 M14/ RMK SN5SC3

CYXE;2007-12-04 04:48;CYXE 040448Z 08017KT 4SM -SN DRSN OVC025 M14/ RMK SC8

CYXE;2007-12-04 05:00;CYXE 040500Z 09013G22KT 4SM -SN DRSN OVC025 M14/M16 A2997 RMK SC8 SLP195

CYXE;2007-12-04 05:30;CYXE 040530Z 09011KT 2SM -SN DRSN VV018 M14/ RMK SN8

CYXE;2007-12-04 05:43;CYXE 040543Z 09013G19KT 4SM -SN DRSN OVC025 M14/ RMK SC8

CYXE;2007-12-04 06:00;CYXE 040600Z 08016KT 5SM -SN DRSN OVC025 M14/M17 A2997 RMK SC8 SLP194

CYXE;2007-12-04 07:00;CYXE 040700Z 08014KT 15SM -SN DRSN OVC025 M14/M17 A2998 RMK SC8 SLP197

CYXE;2007-12-04 08:00;CYXE 040800Z 04014KT 12SM -SN DRSN FEW015 OVC025 M16/M20 A2998 RMK SC1SC7 SLP198

CYXE;2007-12-04 09:00;CYXE 040900Z 05015KT 5SM -SN DRSN FEW006 OVC020 M17/M20 A2997 RMK SF2SC6 SLP196

CYXE;2007-12-04 10:00;CYXE 041000Z 05015KT 6SM -SN DRSN FEW010 OVC020 M17/M21 A2997 RMK SF2SC6 SLP197

CYXE;2007-12-04 11:00;CYXE 041100Z 04016KT 10SM -SN DRSN OVC020 M17/M21 A3000 RMK SC8 SLP206

CYXE;2007-12-04 12:00;CYXE 041200Z 05014KT 12SM -SN DRSN OVC020 M17/M21 A3001 RMK SC8 SLP209

CYXE;2007-12-04 12:51;CYXE 041251Z 04015G20KT 6SM -SN DRSN OVC011 M17/ RMK SC8

CYXE;2007-12-04 13:00;CYXE 041300Z 05015KT 6SM -SN DRSN OVC011 M17/M21 A3003 RMK SC8 SLP217

CYXE;2007-12-04 14:00;CYXE 041400Z 05014G19KT 6SM -SN BKN011 OVC021 M17/M21 A3004 RMK SC5SC3 SLP221

CYXE;2007-12-04 14:43;CYXE 041443Z 05015KT 8SM DRSN FEW011 OVC020 M17/ RMK SC2SC6

CYXE;2007-12-04 15:00;CYXE 041500Z 05015KT 10SM DRSN OVC019 M17/M20 A3007 RMK SC8 SLP231

CYXE;2007-12-04 16:00;CYXE 041600Z 05015KT 12SM OVC020 M16/M20 A3010 RMK SC7 SLP240

CYXE;2007-12-04 17:00;CYXE 041700Z 05015G20KT 12SM DRSN SCT021 BKN040 M16/M19 A3012 RMK SC3SC3 SLP248

CYXE;2007-12-04 18:00;CYXE 041800Z 05013KT 15SM FEW020 BKN050 M16/M20 A3016 RMK SF1SC6 SLP260

CYXE;2007-12-04 19:00;CYXE 041900Z 04012KT 15SM BKN050 M16/M20 A3018 RMK SC6 SLP267

CYXE;2007-12-04 20:00;CYXE 042000Z 06012KT 15SM BKN050 M17/M21 A3020 RMK SC6 SLP272

CYXE;2007-12-04 21:00;CYXE 042100Z 07011KT 15SM -SN FEW015 BKN050 BKN110 M16/M20 A3022 RMK SC1SC6AC1 SLP284

CYXE;2007-12-04 21:52;CYXE 042152Z 05012KT 15SM SCT055 BKN110 BKN220 M16/ RMK SC2AC2CI1

CYXE;2007-12-04 22:00;CYXE 042200Z 06011KT 15SM SCT055 BKN110 BKN220 M16/M20 A3024 RMK SC2AC2CI1 SLP289

CYXE;2007-12-04 23:00;CYXE 042300Z 06009KT 15SM FEW012 SCT110 BKN220 M17/M21 A3026 RMK SC1AC2CI2 SLP296

CYXE;2007-12-05 00:00;CYXE 050000Z 06009KT 15SM FEW086 BKN220 M18/M22 A3027 RMK AC2CI1 SLP304

CYXE;2007-12-05 01:00;CYXE 050100Z 06005KT 15SM FEW220 M19/M23 A3028 RMK CI0 SLP307

CYXE;2007-12-05 02:00;CYXE 050200Z 06006KT 15SM SKC M20/M23 A3029 RMK SLP309

CYXE;2007-12-05 03:00;CYXE 050300Z 06006KT 10SM SKC M21/M24 A3031 RMK IC SLP317

CYXE;2007-12-05 04:00;CYXE 050400Z 07005KT 4SM IC FEW120 M21/M24 A3030 RMK AC1 IC SLP314

CYXE;2007-12-05 05:00;CYXE 050500Z 08006KT 12SM BKN100 M20/M23 A3029 RMK AC5 BR SLP310

CYXE;2007-12-05 06:00;CYXE 050600Z 07004KT 12SM BKN100 M19/M22 A3029 RMK AC5 VIS LWR NW-NE IC SLP309

CYXE;2007-12-05 06:53;CYXE 050653Z 07003KT 4SM IC BKN100 M20/ RMK AC6

CYXE;2007-12-05 07:00;CYXE 050700Z 06003KT 6SM IC BKN100 M19/M23 A3028 RMK AC6 SLP307

CYXE;2007-12-05 07:29;CYXE 050729Z 06004KT 12SM BKN097 M19/ RMK AC6

CYXE;2007-12-05 08:00;CYXE 050800Z 06005KT 12SM BKN094 M19/M22 A3028 RMK AC6 IC SLP306

CYXE;2007-12-05 09:00;CYXE 050900Z 13004KT 15SM BKN092 M18/M21 A3026 RMK AC6 SLP296

CYXE;2007-12-05 10:00;CYXE 051000Z 14004KT 15SM BKN090 M18/M21 A3024 RMK AC4 SLP291

CYXE;2007-12-05 11:00;CYXE 051100Z 13003KT 12SM -SN SCT050 BKN090 M18/M21 A3021 RMK SC4AC3 SLP283

CYXE;2007-12-05 11:12;CYXE 051112Z 16002KT 4SM -SN BKN050 OVC090 M18/ RMK SC6AC2

CYXE;2007-12-05 12:00;CYXE 051200Z 18002KT 12SM -SN FEW026 BKN080 M17/M20 A3018 RMK SC1AC4 SLP273

CYXE;2007-12-05 12:13;CYXE 051213Z 17002KT 6SM -SN FEW026 BKN080 M17/ RMK SC1AC5

CYXE;2007-12-05 13:00;CYXE 051300Z 17002KT 10SM -SN BKN025 OVC080 M17/M20 A3017 RMK SC6AC2 SLP267

CYXE;2007-12-05 13:14;CYXE 051314Z 20002KT 10SM -SN OVC013 RMK SC8

CYXE;2007-12-05 13:40;CYXE 051340Z 23002KT 15SM -SN SCT040 OVC080 M17/ RMK SC2AC4

CYXE;2007-12-05 14:00;CYXE 051400Z 26003KT 15SM -SN FEW040 OVC080 M17/M19 A3015 RMK SC2AC4 SLP262

CYXE;2007-12-05 15:00;CYXE 051500Z 23003KT 15SM -SN SCT030 OVC080 M17/M20 A3013 RMK SC3AC5 SLP255

CYXE;2007-12-05 15:35;CYXE 051535Z 28003KT 15SM OVC040 M16/ RMK SC8

CYXE;2007-12-05 16:00;CYXE 051600Z 28003KT 15SM OVC025 M16/M19 A3011 RMK SC8 SLP249

CYXE;2007-12-05 16:09;CYXE 051609Z 28004KT 12SM -SN BKN022 OVC060 M16/ RMK SC6SC2

CYXE;2007-12-05 16:22;CYXE 051622Z 28004KT 2 1/2SM -SN OVC020 M16/ RMK SN2SC6

CYXE;2007-12-05 16:30;CYXE 051630Z 27003KT 1SM R09/P6000FT/N -SN VV012 M16/ RMK SN8

CYXE;2007-12-05 16:48;CYXE 051648Z 28003KT 5/8SM R09/P6000FT/D -SN VV005 M16/ RMK SN8

CYXE;2007-12-05 17:00;CYXE 051700Z 29003KT 3/4SM R09/P6000FT/N -SN VV004 M16/M19 A3008 RMK SN8 SLP241

CYXE;2007-12-05 17:22;CYXE 051722Z 26003KT 1 1/2SM -SN BKN010 OVC100 M16/ RMK SN2SC4AC2

CYXE;2007-12-05 18:00;CYXE 051800Z CCA 27004KT 2SM -SN OVC040 M15/M18 A3006 RMK SN2SC6 /S02/ SLP228

CYXE;2007-12-05 18:23;CYXE 051823Z 28005KT 6SM -SN OVC040 M15/ RMK SC7

CYXE;2007-12-05 19:00;CYXE 051900Z 29006KT 10SM -SN FEW015 BKN045 OVC085 M14/M18 A3003 RMK SC2SC4AC2 SLP218

CYXE;2007-12-05 20:00;CYXE 052000Z 30010KT 3SM -SN SCT025 OVC095 M14/M18 A3000 RMK SN2SC2AC4 SLP209

CYXE;2007-12-05 20:45;CYXE 052045Z 30008KT 15SM BKN037 OVC048 M14/ RMK SC6SC2

CYXE;2007-12-05 21:00;CYXE 052100Z 30008KT 15SM -SN BKN037 OVC048 M14/M18 A2997 RMK SC7SC1 SLP198

CYXE;2007-12-05 22:00;CYXE 052200Z 29008KT 15SM FEW019 OVC030 M14/M18 A2995 RMK SC2SC6 SLP192

CYXE;2007-12-05 23:00;CYXE 052300Z 30014KT 15SM FEW021 OVC033 M14/M18 A2995 RMK SC2SC6 SLP190

CYXE;2007-12-05 23:46;CYXE 052346Z 30016KT 15SM -SN OVC028 M14/ RMK SC8

CYXE;2007-12-06 00:00;CYXE 060000Z 31015KT 15SM -SN DRSN OVC028 M14/M19 A2994 RMK SC8 SLP186

CYXE;2007-12-06 01:00;CYXE 060100Z 31011G16KT 15SM -SN DRSN BKN020 OVC026 M15/M19 A2994 RMK SC6SC2 SLP186

CYXE;2007-12-06 02:00;CYXE 060200Z 31011G17KT 15SM -SN DRSN FEW020 OVC026 M15/M19 A2994 RMK SC1SC7 SLP185

CYXE;2007-12-06 03:00;CYXE 060300Z 31012KT 15SM -SN DRSN OVC022 M15/M19 A2993 RMK SC8 SLP182

CYXE;2007-12-06 04:00;CYXE 060400Z 31012G17KT 15SM -SN DRSN OVC029 M15/M19 A2992 RMK SC8 SLP179

CYXE;2007-12-06 05:00;CYXE 060500Z 31015KT 15SM -SN DRSN OVC025 M15/M19 A2991 RMK SC8 SLP177

CYXE;2007-12-06 06:00;CYXE 060600Z 30011KT 15SM -SN DRSN BKN029 M17/M20 A2992 RMK SC6 SLP179

CYXE;2007-12-06 06:24;CYXE 060624Z 31013KT 15SM DRSN FEW029 SCT250 M17/ RMK SC2CI0

CYXE;2007-12-06 07:00;CYXE 060700Z 30014KT 15SM DRSN FEW029 SCT250 M19/M24 A2991 RMK SC1CI0 SLP177

CYXE;2007-12-06 08:00;CYXE 060800Z 28011KT 15SM FEW250 M20/M25 A2990 RMK CI1 SLP173

CYXE;2007-12-06 09:00;CYXE 060900Z 26007KT 15SM FEW250 M23/M27 A2989 RMK CI1 SLP172

CYXE;2007-12-06 10:00;CYXE 061000Z 24011KT 15SM FEW250 M23/M27 A2988 RMK CI0 SLP169

CYXE;2007-12-06 11:00;CYXE 061100Z 23010KT 15SM SKC M22/M26 A2985 RMK SLP160

CYXE;2007-12-06 12:00;CYXE 061200Z 22008KT 15SM SKC M24/M28 A2983 RMK SLP153

CYXE;2007-12-06 13:00;CYXE 061300Z 22012KT 15SM SKC M24/M28 A2980 RMK SLP143

CYXE;2007-12-06 14:00;CYXE 061400Z 23012KT 15SM FEW120 M24/M28 A2976 RMK AC1 SLP131

CYXE;2007-12-06 15:00;CYXE 061500Z 25011KT 15SM BKN200 M22/M27 A2977 RMK CI2 SLP130

CYXE;2007-12-06 16:00;CYXE 061600Z 27007KT 15SM BKN095 M22/M27 A2978 RMK AC6 SLP136

CYXE;2007-12-06 16:48;CYXE 061648Z 31009KT 12SM -SN BKN060 OVC200 M19/ RMK SC6CI1

CYXE;2007-12-06 17:00;CYXE 061700Z 32011G16KT 6SM -SN DRSN BKN012 OVC050 M19/M24 A2980 RMK SC6SC2 SLP142

CYXE;2007-12-06 17:06;CYXE 061706Z 31012KT 2SM -SN DRSN VV010 M19/ RMK SN8

CYXE;2007-12-06 17:41;CYXE 061741Z 32012KT 3SM -SN DRSN SCT015 BKN040 M18/ RMK SC3SC4

CYXE;2007-12-06 18:00;CYXE 061800Z 34014KT 15SM SCT025 BKN038 M18/M24 A2982 RMK SC3SC3 VIS S - E 5 SLP148

CYXE;2007-12-06 19:00;CYXE 061900Z 32013KT 15SM FEW025 FEW096 SCT250 M20/M25 A2984 RMK SC1AC2CI0 SLP153

CYXE;2007-12-06 20:00;CYXE 062000Z 31011KT 15SM DRSN FEW025 BKN100 BKN250 M19/M25 A2985 RMK SC1AC5CI0 SLP158

CYXE;2007-12-06 21:00;CYXE 062100Z 32013KT 15SM FEW025 BKN120 BKN250 M20/M26 A2987 RMK SC1AC4CI0 SLP171

CYXE;2007-12-06 22:00;CYXE 062200Z 31012KT 15SM FEW025 SCT120 BKN280 M19/M26 A2989 RMK SC1AC2CI1 SLP176

CYXE;2007-12-06 23:00;CYXE 062300Z 31008KT 15SM SCT090 BKN280 M20/M26 A2990 RMK AC2CI2 SLP178

CYXE;2007-12-07 00:00;CYXE 070000Z 31009KT 15SM BKN073 BKN280 M19/M25 A2991 RMK AC3CI1 SLP185

CYXE;2007-12-07 01:00;CYXE 070100Z 30009KT 15SM SCT047 BKN280 M20/M25 A2993 RMK SC3CI0 SLP191

CYXE;2007-12-07 02:00;CYXE 070200Z 29009KT 15SM FEW050 BKN280 M21/M25 A2993 RMK SC2CI2 SLP192

CYXE;2007-12-07 03:00;CYXE 070300Z 28008KT 15SM FEW050 BKN090 BKN280 M20/M25 A2994 RMK SC2AC3CI1 SLP193

CYXE;2007-12-07 04:00;CYXE 070400Z 27008KT 15SM -SN BKN044 OVC280 M20/M24 A2995 RMK SC6CI1 SLP196

CYXE;2007-12-07 04:41;CYXE 070441Z 27008KT 4SM -SN BKN049 OVC280 M20/ RMK SC6CI1

CYXE;2007-12-07 05:00;CYXE 070500Z 26007KT 12SM -SN OVC046 M20/M24 A2995 RMK SC8 SLP196

CYXE;2007-12-07 06:00;CYXE 070600Z 27006KT 15SM -SN FEW046 BKN073 BKN280 M21/M25 A2995 RMK SC2AC2CI1 SLP195

CYXE;2007-12-07 06:29;CYXE 070629Z 25005KT 15SM FEW046 SCT073 M22/ RMK SC1AC3

CYXE;2007-12-07 07:00;CYXE 070700Z 26006KT 15SM BKN046 BKN073 M22/M26 A2994 RMK SC6AC1 SLP192

CYXE;2007-12-07 08:00;CYXE 070800Z 25008KT 15SM FEW040 SCT070 M24/M28 A2994 RMK SC2AC2 SLP192

CYXE;2007-12-07 09:00;CYXE 070900Z 26008KT 15SM FEW040 FEW080 M24/M28 A2993 RMK SC1AC1 SLP193

CYXE;2007-12-07 10:00;CYXE 071000Z CCA 26008KT 15SM FEW080 M26/M30 A2995 RMK AC2 SLP197

CYXE;2007-12-07 11:00;CYXE 071100Z 27007KT 15SM BKN060 M25/M29 A2994 RMK SC5 SLP196

CYXE;2007-12-07 11:07;CYXE 071107Z 27007KT 15SM -SN BKN060 RMK SC6

CYXE;2007-12-07 12:00;CYXE 071200Z 28008KT 15SM -SN SCT050 BKN087 M25/M28 A2995 RMK SC3AC2 SLP197

CYXE;2007-12-07 13:00;CYXE 071300Z 30008KT 15SM FEW085 M24/M28 A2996 RMK AC2 SLP202

CYXE;2007-12-07 14:00;CYXE 071400Z 30010KT 15SM FEW085 M24/M27 A2998 RMK AC2 SLP209

CYXE;2007-12-07 15:00;CYXE 071500Z 31007KT 15SM SCT055 BKN083 M23/M27 A3001 RMK SC3AC2 SLP217

CYXE;2007-12-07 16:00;CYXE 071600Z 30008KT 15SM SCT055 BKN083 M22/M26 A3003 RMK SC3AC4 SLP224

CYXE;2007-12-07 17:00;CYXE 071700Z 31009KT 15SM SCT048 BKN085 M20/M24 A3005 RMK SC3AC2 SLP232

CYXE;2007-12-07 18:00;CYXE 071800Z 32009KT 15SM FEW040 FEW085 M20/M24 A3007 RMK SC1AC1 SLP238

CYXE;2007-12-07 19:00;CYXE 071900Z 31007KT 15SM FEW040 M19/M24 A3008 RMK SC1 SLP242

CYXE;2007-12-07 20:00;CYXE 072000Z 32008KT 15SM SKC M18/M24 A3010 RMK SLP247

CYXE;2007-12-07 21:00;CYXE 072100Z 31007KT 15SM FEW120 FEW280 M18/M24 A3012 RMK AC1CI0 SLP255

CYXE;2007-12-07 22:00;CYXE 072200Z 31009KT 15SM FEW120 FEW280 M19/M24 A3013 RMK AC1CI1 SLP261

CYXE;2007-12-07 23:00;CYXE 072300Z 30008KT 15SM SKC M21/M26 A3016 RMK SLP269

CYXE;2007-12-08 00:00;CYXE 080000Z 30008KT 15SM SKC M22/M26 A3018 RMK SLP280

CYXE;2007-12-08 01:00;CYXE 080100Z 31007KT 15SM SKC M24/M28 A3020 RMK SLP286

CYXE;2007-12-08 02:00;CYXE 080200Z 28007KT 15SM SKC M23/M27 A3022 RMK SLP293

CYXE;2007-12-08 03:00;CYXE 080300Z 29009KT 15SM SKC M25/M29 A3024 RMK SLP302

CYXE;2007-12-08 04:00;CYXE 080400Z 28004KT 15SM SKC M26/M30 A3026 RMK SLP308

CYXE;2007-12-08 05:00;CYXE 080500Z 28006KT 15SM SKC M27/M30 A3028 RMK SLP315

CYXE;2007-12-08 06:00;CYXE 080600Z 28006KT 15SM SKC M26/M30 A3030 RMK SLP320

CYXE;2007-12-08 07:00;CYXE 080700Z 30003KT 15SM SKC M27/M31 A3031 RMK SLP324

CYXE;2007-12-08 08:00;CYXE 080800Z 23006KT 15SM SKC M28/M32 A3031 RMK SLP324

CYXE;2007-12-08 09:00;CYXE 080900Z 21007KT 15SM SKC M28/M32 A3032 RMK SLP327

CYXE;2007-12-08 10:00;CYXE 081000Z 23006KT 15SM FEW090 M28/M32 A3033 RMK AC1 SLP331

CYXE;2007-12-08 11:00;CYXE 081100Z 22004KT 15SM SKC M27/M31 A3033 RMK SLP330

CYXE;2007-12-08 12:00;CYXE 081200Z 22007KT 15SM FEW090 M29/M33 A3033 RMK AC1 SLP335

CYXE;2007-12-08 13:00;CYXE 081300Z 21003KT 15SM FEW002 M27/M31 A3034 RMK ST0 FROIN SLP338

CYXE;2007-12-08 14:00;CYXE 081400Z 22004KT 15SM FEW002 M28/M32 A3035 RMK ST0 SLP340

CYXE;2007-12-08 15:00;CYXE 081500Z 20005KT 15SM FEW002 M28/M31 A3034 RMK ST1 SLP340

CYXE;2007-12-08 15:45;CYXE 081545Z 19005KT 15SM SCT002 M27/ RMK ST2

CYXE;2007-12-08 16:00;CYXE 081600Z 20005KT 15SM SCT002 M27/M31 A3035 RMK ST2 SLP343

CYXE;2007-12-08 17:00;CYXE 081700Z 22005KT 15SM FEW002 M24/M28 A3035 RMK ST1 SLP344

CYXE;2007-12-08 18:00;CYXE 081800Z 22006KT 15SM FEW002 FEW090 M22/M26 A3034 RMK ST1AC1 SLP338

CYXE;2007-12-08 19:00;CYXE 081900Z 21006KT 15SM FEW002 FEW090 M20/M23 A3032 RMK ST1AC1 SLP329

CYXE;2007-12-08 20:00;CYXE 082000Z 22007KT 15SM SKC M19/M22 A3031 RMK SLP327

CYXE;2007-12-08 21:00;CYXE 082100Z 22009KT 15SM FEW280 M18/M22 A3030 RMK CI0 SLP320

CYXE;2007-12-08 22:00;CYXE 082200Z 23007KT 15SM FEW280 M18/M23 A3028 RMK CI0 SLP314

CYXE;2007-12-08 23:00;CYXE 082300Z 22009KT 15SM FEW280 M20/M24 A3027 RMK CI0 SLP310

CYXE;2007-12-09 00:00;CYXE 090000Z 21009KT 15SM SKC M20/M23 A3026 RMK SLP307

CYXE;2007-12-09 01:00;CYXE 090100Z 21009KT 15SM SKC M20/M23 A3024 RMK SLP301

CYXE;2007-12-09 02:00;CYXE 090200Z 22010KT 15SM SKC M20/M24 A3021 RMK SLP293

CYXE;2007-12-09 03:00;CYXE 090300Z 22009KT 15SM SKC M21/M24 A3021 RMK SLP290

CYXE;2007-12-09 04:00;CYXE 090400Z 22009KT 15SM SKC M21/M24 A3019 RMK SLP284

CYXE;2007-12-09 05:00;CYXE 090500Z 21010KT 15SM SKC M19/M23 A3017 RMK SLP280

CYXE;2007-12-09 06:00;CYXE 090600Z 21006KT 15SM SKC M20/M23 A3017 RMK SLP271

CYXE;2007-12-09 07:00;CYXE 090700Z 22008KT 15SM SKC M21/M25 A3016 RMK SLP269

CYXE;2007-12-09 08:00;CYXE 090800Z 22010KT 15SM SKC M19/M22 A3013 RMK SLP259

CYXE;2007-12-09 09:00;CYXE 090900Z 22009KT 15SM SCT090 M18/M21 A3012 RMK AC2 SLP252

CYXE;2007-12-09 10:00;CYXE 091000Z 23006KT 15SM SCT090 M17/M21 A3011 RMK AC2 SLP247

CYXE;2007-12-09 11:00;CYXE 091100Z 22007KT 15SM FEW090 M18/M21 A3007 RMK AC1 SLP236

CYXE;2007-12-09 12:00;CYXE 091200Z 23006KT 15SM SKC M19/M22 A3007 RMK SLP235

CYXE;2007-12-09 13:00;CYXE 091300Z 24006KT 15SM SKC M21/M24 A3005 RMK SLP230

CYXE;2007-12-09 14:00;CYXE 091400Z 24005KT 15SM FEW250 M21/M24 A3004 RMK CI1 SLP226

CYXE;2007-12-09 15:00;CYXE 091500Z 24005KT 15SM FEW250 M22/M25 A3003 RMK CI1 SLP225

CYXE;2007-12-09 16:00;CYXE 091600Z 22006KT 15SM FEW250 M21/M24 A2999 RMK CI0 SLP214

CYXE;2007-12-09 17:00;CYXE 091700Z 23005KT 15SM BKN250 M19/M22 A2998 RMK CI2 SLP210

CYXE;2007-12-09 18:00;CYXE 091800Z 25005KT 15SM BKN250 M18/M22 A2998 RMK CI2 SLP203

CYXE;2007-12-09 19:00;CYXE 091900Z 22005KT 15SM BKN250 M17/M22 A2995 RMK CI2 SLP196

CYXE;2007-12-09 20:00;CYXE 092000Z 22003KT 15SM OVC250 M15/M21 A2992 RMK CI2 SLP185

CYXE;2007-12-09 21:00;CYXE 092100Z 23004KT 15SM BKN250 M16/M21 A2989 RMK CI2 SLP170

CYXE;2007-12-09 22:00;CYXE 092200Z 24004KT 15SM FEW160 BKN250 M16/M21 A2987 RMK AC1CI2 SLP164

CYXE;2007-12-09 23:00;CYXE 092300Z 22006KT 15SM FEW160 BKN250 M17/M21 A2986 RMK AC2CI2 SLP160

CYXE;2007-12-10 00:00;CYXE 100000Z 20005KT 15SM BKN094 OVC210 M15/M20 A2984 RMK AC6CI2 SLP155

CYXE;2007-12-10 01:00;CYXE 100100Z 21005KT 15SM OVC090 M15/M19 A2982 RMK AC8 SLP148

CYXE;2007-12-10 02:00;CYXE 100200Z 19005KT 15SM OVC090 M15/M19 A2980 RMK AC8 SLP141

CYXE;2007-12-10 03:00;CYXE 100300Z 20005KT 15SM BKN074 OVC090 M15/M19 A2980 RMK AC5AC3 SLP141

CYXE;2007-12-10 04:00;CYXE 100400Z 19005KT 15SM BKN067 OVC090 M14/M18 A2978 RMK AC6AC2 SLP137

CYXE;2007-12-10 05:00;CYXE 100500Z 18005KT 15SM BKN050 OVC090 M14/M17 A2978 RMK SC6AC2 SLP137

CYXE;2007-12-10 06:00;CYXE 100600Z 22003KT 15SM BKN050 OVC090 M13/M16 A2979 RMK SC7AC1 SLP134

CYXE;2007-12-10 06:42;CYXE 100642Z 22004KT 15SM -SN OVC047 M13/ RMK SC8

CYXE;2007-12-10 07:00;CYXE 100700Z 23004KT 12SM -SN OVC047 M13/M16 A2978 RMK SC8 SLP132

CYXE;2007-12-10 07:19;CYXE 100719Z 27003KT 4SM -SN OVC040 M13/ RMK SC8

CYXE;2007-12-10 08:00;CYXE 100800Z 00000KT 6SM -SN OVC038 M12/M14 A2979 RMK SC8 SLP133

CYXE;2007-12-10 08:26;CYXE 100826Z 00000KT 3SM -SN OVC043 M12/ RMK SC8

CYXE;2007-12-10 09:00;CYXE 100900Z 30005KT 4SM -SN OVC043 M13/M14 A2980 RMK SC6 SLP137

CYXE;2007-12-10 10:00;CYXE 101000Z 28005KT 6SM -SN BKN034 OVC090 M12/M13 A2981 RMK SC6AC2 SLP141

CYXE;2007-12-10 11:00;CYXE 101100Z 32007KT 8SM -SN SCT017 OVC036 M12/M13 A2982 RMK SC4SC4 SLP144

CYXE;2007-12-10 12:00;CYXE 101200Z 32008KT 12SM -SHSN BKN036 OVC090 M12/M14 A2985 RMK SC6AC2 SLP152

CYXE;2007-12-10 13:00;CYXE 101300Z 31005KT 5SM -SN OVC030 M13/M15 A2988 RMK SC8 SLP161

CYXE;2007-12-10 14:00;CYXE 101400Z 31007KT 8SM -SN BKN040 M14/M16 A2990 RMK SC6 SLP167

CYXE;2007-12-10 14:28;CYXE 101428Z 31005KT 2SM -SN BKN040 M14/ RMK SC7

CYXE;2007-12-10 15:00;CYXE 101500Z 30004KT 1 1/2SM -SN OVC040 M14/M16 A2992 RMK SC7 SLP177

CYXE;2007-12-10 15:11;CYXE 101511Z 30004KT 2SM -SN OVC040 M14/ RMK SC7

CYXE;2007-12-10 15:17;CYXE 101517Z 30005KT 3SM -SN OVC040 M14/ RMK SC7

CYXE;2007-12-10 16:00;CYXE 101600Z 33007KT 12SM -SN BKN022 OVC250 M13/M15 A2995 RMK SC5CI2 SLP187

CYXE;2007-12-10 17:00;CYXE 101700Z 32008KT 2 1/2SM -SN FEW020 OVC040 M12/M14 A2998 RMK SC2SC6 SLP196

CYXE;2007-12-10 17:03;CYXE 101703Z 32008KT 4SM -SN FEW020 OVC040 M12/ RMK SC2SC6

CYXE;2007-12-10 18:00;CYXE 101800Z 32009KT 5SM -SN BKN040 OVC250 M11/M13 A3000 RMK SC6CI2 SLP202

CYXE;2007-12-10 19:00;CYXE 101900Z 32008KT 12SM -SN BKN020 OVC040 M10/M14 A3002 RMK SC6SC1 SLP208

CYXE;2007-12-10 19:25;CYXE 101925Z 32008KT 15SM SCT020 SCT040 BKN250 M10/ RMK SC3SC1CI2

CYXE;2007-12-10 20:00;CYXE 102000Z 32006KT 15SM BKN028 BKN055 OVC250 M10/M12 A3004 RMK SC5SC1CI2 SLP214

CYXE;2007-12-10 20:21;CYXE 102021Z 32008KT 15SM -SN BKN025 OVC055 M09/ RMK SC6SC2

CYXE;2007-12-10 21:00;CYXE 102100Z 32010KT 15SM -SN SCT025 BKN036 M09/M11 A3004 RMK SC3SC3 SLP215

CYXE;2007-12-10 22:00;CYXE 102200Z 32011KT 15SM -SN BKN033 OVC095 M08/M10 A3006 RMK SC6AC2 SLP219

CYXE;2007-12-10 23:00;CYXE 102300Z 31006KT 15SM -SN OVC031 M08/M10 A3008 RMK SC8 SLP226

CYXE;2007-12-11 00:00;CYXE 110000Z 31012KT 15SM DRSN SCT030 M10/M12 A3011 RMK SC4 OBS TAKEN +03 SLP238

CYXE;2007-12-11 01:00;CYXE 110100Z 30010KT 15SM DRSN FEW030 SCT090 M12/M13 A3012 RMK SC2AC2 SLP241

CYXE;2007-12-11 02:00;CYXE 110200Z 26005KT 15SM FEW030 SCT090 M14/M15 A3013 RMK SC1AC2 OBS TAKEN +05 SLP245

CYXE;2007-12-11 03:00;CYXE 110300Z 27007KT 15SM SKC M16/M17 A3014 RMK SLP253

CYXE;2007-12-11 04:00;CYXE 110400Z 28007KT 15SM SKC M16/M16 A3014 RMK SLP255

CYXE;2007-12-11 05:00;CYXE 110500Z 27008KT 15SM FEW095 M17/M18 A3015 RMK AC2 SLP257

CYXE;2007-12-11 06:00;CYXE 110600Z 23006KT 15SM BKN092 M16/M17 A3016 RMK AC5 SLP259

CYXE;2007-12-11 07:00;CYXE 110700Z CCA 23006KT 15SM SCT004 OVC077 M15/M16 A3016 RMK SC3AC5 SLP258

CYXE;2007-12-11 07:39;CYXE 110739Z 24005KT 15SM SCT060 BKN077 M15/ RMK SC3AC3

CYXE;2007-12-11 08:00;CYXE 110800Z 23006KT 15SM FEW060 BKN073 M15/M16 A3014 RMK SC2AC5 SLP253

CYXE;2007-12-11 09:00;CYXE 110900Z 21005KT 15SM FEW012 BKN060 M14/M15 A3014 RMK SC1SC5 SLP249

CYXE;2007-12-11 10:00;CYXE 111000Z 22004KT 15SM FEW015 OVC053 M13/M14 A3014 RMK SC2SC6 SLP249

CYXE;2007-12-11 11:00;CYXE 111100Z 24007KT 15SM FEW035 BKN071 M13/M14 A3012 RMK SC2AC2 SLP241

CYXE;2007-12-11 12:00;CYXE 111200Z 22007KT 15SM FEW030 FEW090 M15/M16 A3011 RMK SC1AC1 SLP240

CYXE;2007-12-11 13:00;CYXE 111300Z 22007KT 15SM FEW090 M15/M16 A3011 RMK AC1 SLP239

CYXE;2007-12-11 14:00;CYXE 111400Z 23004KT 15SM SCT041 M16/M17 A3010 RMK SC1 SLP237

CYXE;2007-12-11 15:00;CYXE 111500Z 21004KT 10SM BKN040 M14/M15 A3009 RMK SC6 BR SLP236

CYXE;2007-12-11 16:00;CYXE 111600Z 21005KT 15SM BKN040 M13/M14 A3008 RMK SC6 SLP235

CYXE;2007-12-11 17:00;CYXE 111700Z 22006KT 15SM FEW040 M12/M13 A3008 RMK SC1 SLP233

CYXE;2007-12-11 18:00;CYXE 111800Z 23008KT 15SM FEW040 M12/M13 A3007 RMK SC1 SLP230

CYXE;2007-12-11 19:00;CYXE 111900Z 22007KT 15SM FEW040 M11/M14 A3005 RMK SC1 SLP224

CYXE;2007-12-11 20:00;CYXE 112000Z 23005KT 15SM SKC M11/M14 A3003 RMK SLP218

CYXE;2007-12-11 21:00;CYXE 112100Z 23004KT 15SM SKC M10/M14 A3002 RMK SLP208

CYXE;2007-12-11 22:00;CYXE 112200Z 21003KT 15SM FEW250 M11/M14 A3001 RMK CI0 SLP205

CYXE;2007-12-11 23:00;CYXE 112300Z 17004KT 15SM FEW250 M12/M14 A3000 RMK CI1 SLP203

CYXE;2007-12-12 00:00;CYXE 120000Z 15005KT 15SM FEW100 BKN250 M12/M13 A2999 RMK AC1CI1 SLP200

CYXE;2007-12-12 01:00;CYXE 120100Z 16006KT 15SM FEW100 SCT250 M13/M14 A2997 RMK AC1CI0 SLP193

CYXE;2007-12-12 02:00;CYXE 120200Z 16006KT 15SM SCT090 BKN250 M13/M14 A2994 RMK AC2CI0 SLP184

CYXE;2007-12-12 03:00;CYXE 120300Z 16006KT 15SM BKN090 M11/M13 A2992 RMK AC6 SLP176

CYXE;2007-12-12 04:00;CYXE 120400Z 16005KT 15SM BKN080 M11/M13 A2989 RMK AC6 OBS TAKEN +04 SLP165

CYXE;2007-12-12 05:00;CYXE 120500Z 14005KT 15SM OVC084 M11/M14 A2986 RMK AC8 SLP154

CYXE;2007-12-12 06:00;CYXE 120600Z 16004KT 15SM OVC083 M11/M13 A2984 RMK AC8 SLP145

CYXE;2007-12-12 07:00;CYXE 120700Z 13006KT 15SM BKN081 OVC120 M11/M13 A2980 RMK AC6AC2 SLP132

CYXE;2007-12-12 08:00;CYXE 120800Z 16002KT 15SM FEW080 OVC120 M11/M13 A2977 RMK AC1AC7 SLP122

CYXE;2007-12-12 09:00;CYXE 120900Z 15005KT 15SM OVC100 M11/M13 A2975 RMK AC8 SLP113

CYXE;2007-12-12 10:00;CYXE 121000Z 11002KT 15SM SCT020 OVC090 M10/M13 A2973 RMK SC3AC5 SLP108

CYXE;2007-12-12 11:00;CYXE 121100Z 10004KT 15SM FEW006 OVC085 M11/M13 A2970 RMK ST1AC7 SLP098

CYXE;2007-12-12 12:00;CYXE 121200Z 12006KT 15SM OVC079 M11/M13 A2965 RMK AC8 SLP080

CYXE;2007-12-12 13:00;CYXE 121300Z 10006KT 15SM OVC075 M11/M13 A2964 RMK AC7 SLP076

CYXE;2007-12-12 14:00;CYXE 121400Z 12005KT 15SM OVC075 M10/M12 A2961 RMK AC8 SLP067

CYXE;2007-12-12 15:00;CYXE 121500Z 10007KT 15SM OVC070 M10/M12 A2958 RMK AC7 SLP054

CYXE;2007-12-12 16:00;CYXE 121600Z 10009KT 15SM OVC065 M10/M12 A2956 RMK SC8 SLP049

CYXE;2007-12-12 17:00;CYXE 121700Z 09005KT 15SM OVC065 M09/M12 A2954 RMK SC8 SLP041

CYXE;2007-12-12 18:00;CYXE 121800Z 05003KT 15SM OVC060 M09/M11 A2955 RMK SC8 SLP044

CYXE;2007-12-12 19:00;CYXE 121900Z 03009KT 15SM -SN FEW020 OVC050 M08/M11 A2954 RMK SC1SC7 SLP042

CYXE;2007-12-12 19:24;CYXE 121924Z 04011KT 1 1/2SM -SN VV013 M08/ RMK SN8

CYXE;2007-12-12 19:51;CYXE 121951Z 05012KT 1SM R09/P6000FT/D -SN VV008 M09/ RMK SN8

CYXE;2007-12-12 20:00;CYXE 122000Z 05011KT 3/4SM R09/6000FT/D -SN VV007 M09/M10 A2953 RMK SN8 SLP039

CYXE;2007-12-12 20:08;CYXE 122008Z 05013KT 1/2SM R09/5500FT/D SN DRSN VV007 M09/ RMK SN8

CYXE;2007-12-12 21:00;CYXE 122100Z 01008KT 3/4SM R09/P6000FT/D -SN DRSN OVC009 M09/M10 A2958 RESN RMK SN3SC5 RESN OBS TAKEN +09 SLP054

CYXE;2007-12-12 21:25;CYXE 122125Z 36008KT 1SM R09/P6000FT/N -SN OVC014 M09/ RMK SN3SC5

CYXE;2007-12-12 22:00;CYXE 122200Z 36009KT 1SM R09/P6000FT/U -SN BKN014 OVC035 M10/M11 A2961 RMK SN2SC2SC3 /S02/ SLP064

CYXE;2007-12-12 22:39;CYXE 122239Z 01010KT 2 1/2SM -SN BKN014 OVC045 M10/ RMK SC5SC3

CYXE;2007-12-12 23:00;CYXE 122300Z 02010KT 4SM -SN SCT015 OVC045 M10/M12 A2965 RMK SC3SC5 SLP077

CYXE;2007-12-12 23:47;CYXE 122347Z 03011KT 1SM R09/P6000FT/D -SN OVC020 M11/ RMK SN3SC5

CYXE;2007-12-13 00:00;CYXE 130000Z 02012KT 1 1/4SM -SN DRSN OVC013 M11/M12 A2968 RMK SN3SC5 SLP090

CYXE;2007-12-13 01:00;CYXE 130100Z 05011KT 1SM R09/P6000FT/D -SN DRSN VV007 M12/M14 A2972 RMK SN8 OBS TAKEN +12 SLP102

CYXE;2007-12-13 02:00;CYXE 130200Z 05009KT 1 1/4SM -SN VV007 M12/M13 A2975 RMK SN8 /S01/ SLP112

CYXE;2007-12-13 03:00;CYXE 130300Z 04008KT 1SM R09/P6000FT/U -SN DRSN VV010 M13/M14 A2978 RMK SN8 /S02/ SLP127

CYXE;2007-12-13 04:00;CYXE 130400Z 04009KT 1 1/2SM -SN DRSN OVC012 M13/M15 A2981 RMK SN5SC3 /S03/ SLP135

CYXE;2007-12-13 04:39;CYXE 130439Z 04012KT 3SM -SN DRSN FEW012 OVC025 M14/ RMK SC2SC6

CYXE;2007-12-13 05:00;CYXE 130500Z 04009KT 3SM -SN DRSN OVC025 M15/M16 A2985 RMK SC8 SLP148

CYXE;2007-12-13 06:00;CYXE 130600Z 04010KT 3SM -SN OVC025 M15/M17 A2989 RMK SC8 SLP165

CYXE;2007-12-13 06:13;CYXE 130613Z 05009KT 2SM -SN VV020 M15/ RMK SN8

CYXE;2007-12-13 07:00;CYXE 130700Z 03010KT 3SM -SN OVC025 M15/M17 A2993 RMK SC8 SLP178

CYXE;2007-12-13 08:00;CYXE 130800Z 05009KT 6SM -SN FEW020 OVC040 M16/M18 A2996 RMK SC1SC7 SLP187

CYXE;2007-12-13 09:00;CYXE 130900Z 01007KT 3SM -SN OVC040 M16/M17 A3000 RMK SC8 SLP203

CYXE;2007-12-13 10:00;CYXE 131000Z 02007KT 6SM -SN OVC040 M16/M18 A3004 RMK SC8 SLP215

CYXE;2007-12-13 11:00;CYXE 131100Z 05005KT 5SM -SN OVC030 M16/M18 A3005 RMK SC8 SLP218

CYXE;2007-12-13 12:00;CYXE 131200Z 05007KT 15SM -SN OVC035 M17/M18 A3008 RMK SC8 /S02/ SLP231

CYXE;2007-12-13 13:00;CYXE 131300Z 06006KT 15SM -SN OVC058 M17/M19 A3010 RMK SC8 SLP238

CYXE;2007-12-13 14:00;CYXE 131400Z 06004KT 15SM -SN OVC041 M17/M19 A3012 RMK SC8 SLP243

CYXE;2007-12-13 15:00;CYXE 131500Z 09003KT 15SM -SN BKN053 OVC088 M17/M19 A3013 RMK SC7AC1 SLP251

CYXE;2007-12-13 16:00;CYXE 131600Z 12002KT 12SM -SN FEW034 OVC058 M17/M19 A3015 RMK SC2SC6 SLP256

CYXE;2007-12-13 16:55;CYXE 131655Z 07002KT 15SM SCT034 BKN081 M17/ RMK SC3AC4

CYXE;2007-12-13 17:00;CYXE 131700Z 08004KT 15SM SCT034 BKN081 M17/M19 A3016 RMK SC3AC4 SLP259

CYXE;2007-12-13 18:00;CYXE 131800Z 12004KT 15SM FEW035 BKN080 M16/M19 A3016 RMK SC2AC5 SLP262

CYXE;2007-12-13 19:00;CYXE 131900Z 12005KT 15SM BKN079 OVC095 M17/M19 A3016 RMK AC5AC3 SLP262

CYXE;2007-12-13 20:00;CYXE 132000Z 18004KT 15SM BKN062 BKN097 M16/M19 A3016 RMK SC5AC2 SLP262

CYXE;2007-12-13 21:00;CYXE 132100Z 17004KT 15SM -SN FEW050 BKN080 M16/M19 A3015 RMK SC2AC2 SLP259

CYXE;2007-12-13 22:00;CYXE 132200Z 15005KT 15SM -SN FEW040 BKN080 BKN250 M17/M19 A3014 RMK SC2AC3CI1 SLP257

CYXE;2007-12-13 22:51;CYXE 132251Z 15004KT 15SM SCT045 BKN090 BKN250 M17/ RMK SC3AC2CI0

CYXE;2007-12-13 23:00;CYXE 132300Z 16005KT 15SM BKN045 OVC090 M17/M19 A3015 RMK SC5AC2 SLP260

CYXE;2007-12-14 00:00;CYXE 140000Z 16004KT 15SM BKN040 OVC090 M17/M19 A3015 RMK SC6AC2 SLP260

CYXE;2007-12-14 01:00;CYXE 140100Z 16005KT 15SM SCT050 OVC090 M16/M18 A3013 RMK SC3AC4 SLP255

CYXE;2007-12-14 02:00;CYXE 140200Z 16006KT 15SM -SN FEW030 BKN050 OVC090 M16/M18 A3012 RMK SC2SC3AC2 SLP252

CYXE;2007-12-14 03:00;CYXE 140300Z 16007KT 15SM -SN BKN056 OVC090 M16/M18 A3012 RMK SC6AC2 SLP250

CYXE;2007-12-14 04:00;CYXE 140400Z 16007KT 12SM -SN BKN056 BKN074 OVC090 M16/M18 A3012 RMK SC5AC2AC1 SLP248

CYXE;2007-12-14 05:00;CYXE 140500Z 16007KT 15SM -SN OVC067 M16/M17 A3011 RMK AC8 SLP245

CYXE;2007-12-14 06:00;CYXE 140600Z 16006KT 12SM -SN OVC070 M15/M17 A3010 RMK AC8 SLP240

CYXE;2007-12-14 07:00;CYXE 140700Z 15005KT 15SM -SN SCT020 OVC050 M15/M16 A3009 RMK SC3SC5 SLP237

CYXE;2007-12-14 08:00;CYXE 140800Z 16005KT 15SM -SN FEW050 OVC090 M15/M16 A3008 RMK SC2AC6 SLP233

CYXE;2007-12-14 08:39;CYXE 140839Z 15005KT 15SM FEW020 OVC090 M14/ RMK SC1AC7

CYXE;2007-12-14 09:00;CYXE 140900Z 16006KT 15SM BKN020 OVC090 M14/M16 A3007 RMK SC5AC3 SLP229

CYXE;2007-12-14 09:45;CYXE 140945Z 16005KT 15SM BKN007 OVC090 M14/ RMK ST6AC2

CYXE;2007-12-14 10:00;CYXE 141000Z 17004KT 15SM FEW007 OVC090 M14/M15 A3006 RMK ST1AC7 SLP227

CYXE;2007-12-14 11:00;CYXE 141100Z 16003KT 15SM BKN090 M14/M16 A3005 RMK AC7 SLP224

CYXE;2007-12-14 12:00;CYXE 141200Z 17005KT 15SM SCT090 M15/M16 A3004 RMK AC4 SLP221

CYXE;2007-12-14 13:00;CYXE 141300Z 19005KT 15SM FEW090 M15/M16 A3004 RMK AC2 SLP221

CYXE;2007-12-14 14:00;CYXE 141400Z 19007KT 15SM FEW090 M15/M16 A3003 RMK AC2 SLP218

CYXE;2007-12-14 15:00;CYXE 141500Z 19008KT 15SM FEW090 M16/M17 A3003 RMK AC1 SLP216

CYXE;2007-12-14 15:17;CYXE 141517Z 20007KT 15SM SCT006 SCT090 M16/ RMK SF2AC1

CYXE;2007-12-14 15:23;CYXE 141523Z 19006KT 15SM BKN005 M15/ RMK SF6

CYXE;2007-12-14 15:47;CYXE 141547Z 20007KT 15SM SCT005 M15/ RMK SF2

CYXE;2007-12-14 16:00;CYXE 141600Z 20006KT 15SM FEW005 M15/M16 A3003 RMK SF2 SLP217

CYXE;2007-12-14 17:00;CYXE 141700Z 20006KT 15SM FEW005 SCT087 M15/M16 A3003 RMK SF1AC2 SLP217

CYXE;2007-12-14 18:00;CYXE 141800Z 23007KT 15SM FEW006 OVC055 M13/M14 A3003 RMK SF1SC7 SLP216

CYXE;2007-12-14 18:16;CYXE 141816Z 23006KT 15SM -SN FEW006 OVC034 M13/ RMK SF2SC6

CYXE;2007-12-14 18:46;CYXE 141846Z 22007KT 2 1/2SM -SN FEW006 OVC013 M11/ RMK SF2SC6

CYXE;2007-12-14 18:52;CYXE 141852Z 23007KT 1 1/2SM -SN BKN013 OVC060 M11/ RMK SN2SC2SC4

CYXE;2007-12-14 19:00;CYXE 141900Z 23007KT 1SM R09/4500VP6000FT/D -SN OVC047 M11/M12 A3002 RMK SN3SC5 SLP213

CYXE;2007-12-14 19:13;CYXE 141913Z 24007KT 1SM R09/P6000FT/U -SN BKN006 OVC047 M11/ RMK SN3SF1SC4

CYXE;2007-12-14 19:34;CYXE 141934Z 25006KT 1SM R09/P6000FT/D -SN VV012 M10/ RMK SN8

CYXE;2007-12-14 19:47;CYXE 141947Z 25006KT 1 1/2SM -SN VV014 M10/ RMK SN8

CYXE;2007-12-14 20:00;CYXE 142000Z 25006KT 2SM -SN OVC021 M09/M11 A3001 RMK SC8 /S01/ SLP210

CYXE;2007-12-14 20:23;CYXE 142023Z 26007KT 5SM -SN SCT009 OVC029 M09/ RMK SF2SC6

CYXE;2007-12-14 20:37;CYXE 142037Z 24006KT 6SM -SN BKN008 OVC027 M09/ RMK SF5SC3

CYXE;2007-12-14 21:00;CYXE 142100Z 26006KT 12SM BKN007 OVC027 M08/M10 A3001 RMK ST7SC1 SLP204

CYXE;2007-12-14 21:50;CYXE 142150Z 29010KT 12SM OVC005 M08/ RMK ST8

CYXE;2007-12-14 22:00;CYXE 142200Z 30010KT 4SM BR OVC005 M08/M09 A3002 RMK ST8 SLP208

CYXE;2007-12-14 22:14;CYXE 142214Z 30011G16KT 2SM BLSN OVC003 M08/ RMK ST8

CYXE;2007-12-14 23:00;CYXE 142300Z 29012KT 3SM DRSN OVC003 M09/M10 A3003 RMK ST8 SLP209

CYXE;2007-12-14 23:43;CYXE 142343Z 30007G15KT 1 1/2SM -SN OVC002 M09/ RMK SC8

CYXE;2007-12-15 00:00;CYXE 150000Z 31007KT 2 1/2SM -SN OVC002 M09/M09 A3005 RMK SC8 SLP218

CYXE;2007-12-15 00:09;CYXE 150009Z 31005KT 1/2SM R09/P6000FT/U FZFG OVC002 M09/ RMK SC8

CYXE;2007-12-15 01:00;CYXE 150100Z 28005KT 1 1/2SM BR OVC001 M08/M08 A3003 RMK SC8 SLP213

CYXE;2007-12-15 01:25;CYXE 150125Z 27006KT 4SM BR BKN003 M09/ RMK SF5

CYXE;2007-12-15 02:00;CYXE 150200Z 27005KT 5SM BR SCT003 BKN099 M11/M12 A3003 RMK SF3AC2 SLP214

CYXE;2007-12-15 02:39;CYXE 150239Z 25005KT 1/4SM R09/4500VP6000FT/U FZFG VV000 M13/ RMK FG8

CYXE;2007-12-15 03:00;CYXE 150300Z 29005KT 1/8SM R09/P6000FT/D FZFG VV001 M13/M14 A3004 RMK FG8 FROIN SLP219

CYXE;2007-12-15 03:15;CYXE 150315Z 32005KT 3/4SM R09/2800VP6000FT/D BR VV001 M13/ RMK FG8

CYXE;2007-12-15 03:27;CYXE 150327Z 32005KT 1/4SM R09/1800V3000FT/N -SN FZFG VV001 M13/ RMK FG8

CYXE;2007-12-15 03:49;CYXE 150349Z 28006KT 1/8SM R09/2000V2800FT/D FZFG VV001 M13/ RMK FG8

CYXE;2007-12-15 04:00;CYXE 150400Z 31004KT 1/8SM R09/1800V3000FT/D FZFG VV001 M14/M14 A3004 RMK FG8 SLP220

CYXE;2007-12-15 05:00;CYXE 150500Z 25003KT 1/8SM R09/1600FT/N FZFG VV001 M13/M14 A3005 RMK FG8 SLP223

CYXE;2007-12-15 05:40;CYXE 150540Z 22002KT 1/4SM R09/2200FT/N FZFG VV001 M13/ RMK FG8

CYXE;2007-12-15 06:00;CYXE 150600Z 21002KT 1/4SM R09/1800FT/N FZFG VV001 M12/M13 A3005 RMK FG8 SLP220

CYXE;2007-12-15 07:00;CYXE 150700Z 28004KT 1/4SM R09/2000V3000FT/U FZFG VV001 M11/M12 A3006 RMK FG8 SLP223

CYXE;2007-12-15 07:11;CYXE 150711Z 27003KT 3/8SM R09/2800V4500FT/U FZFG VV002 M11/ RMK FG8

CYXE;2007-12-15 07:19;CYXE 150719Z 26004KT 3/4SM R09/4000VP6000FT/U BR VV003 M12/ RMK FG8

CYXE;2007-12-15 07:27;CYXE 150727Z 28002KT 1 1/2SM BR OVC002 M12/ RMK ST8 CIG RAG

CYXE;2007-12-15 08:00;CYXE 150800Z 25003KT 1SM R09/P6000FT/D BR OVC001 M12/M12 A3005 RMK ST8 SLP219

CYXE;2007-12-15 09:00;CYXE 150900Z 22002KT 1 1/2SM BR VV002 M11/M12 A3003 RMK FG8 SLP210

CYXE;2007-12-15 09:11;CYXE 150911Z 23002KT 3/4SM R09/P6000FT/D BR VV001 M11/ RMK FG8

CYXE;2007-12-15 09:20;CYXE 150920Z 22002KT 1/2SM R09/3500VP6000FT/D FZFG VV001 M11/ RMK FG8

CYXE;2007-12-15 10:00;CYXE 151000Z 25002KT 1/2SM R09/2000FT/D FZFG VV001 M12/M12 A3003 RMK FG8 SLP210

CYXE;2007-12-15 10:36;CYXE 151036Z 25002KT 3/8SM R09/2000FT/N FZFG VV001 M12/ RMK FG8

CYXE;2007-12-15 11:00;CYXE 151100Z 00000KT 3/8SM R09/1400V2000FT/N FZFG VV001 M12/M13 A3003 RMK FG8 VIS SE 1 SLP208

CYXE;2007-12-15 11:36;CYXE 151136Z 27003KT 1/4SM R09/1400FT/N FZFG VV001 M12/ RMK FG8

CYXE;2007-12-15 12:00;CYXE 151200Z 25002KT 1/4SM R09/1400V2000FT/N FZFG VV001 M12/M13 A3001 RMK FG8 SLP204

CYXE;2007-12-15 13:00;CYXE 151300Z 00000KT 1/4SM R09/1800V2600FT/N FZFG VV001 M12/M13 A3000 RMK FG8 SLP200

CYXE;2007-12-15 13:52;CYXE 151352Z 18002KT 1/2SM R09/2800FT/N FZFG VV001 M12/ RMK FG8

CYXE;2007-12-15 14:00;CYXE 151400Z 17002KT 1/2SM R09/2600FT/N FZFG VV001 M12/M13 A2999 RMK FG8 SLP195

CYXE;2007-12-15 14:20;CYXE 151420Z 18004KT 5/8SM R09/3500VP6000FT/U -SN BR VV001 M12/ RMK FG8 FROIN

CYXE;2007-12-15 14:48;CYXE 151448Z 16004KT 3/8SM R09/3000VP6000FT/D -SN FZFG VV001 M12/ RMK FG8 FROIN

CYXE;2007-12-15 15:00;CYXE 151500Z 18002KT 3/8SM R09/3500FT/U SN FZFG VV001 M12/M13 A2997 RMK FG8 FROIN SLP193

CYXE;2007-12-15 15:25;CYXE 151525Z 17003KT 3/8SM R09/3000FT/D FZFG VV001 M12/ RMK FG8 FROIN

CYXE;2007-12-15 16:00;CYXE 151600Z 19006KT 3/8SM R09/3000V5000FT/D FZFG VV001 M12/M12 A2996 RESN RMK FG8 FROIN SLP189

CYXE;2007-12-15 16:30;CYXE 151630Z 18002KT 3/8SM R09/3500FT/U -SN FZFG VV001 M11/ RMK FG8 FROIN

CYXE;2007-12-15 16:50;CYXE 151650Z 14005KT 3/4SM R09/4000V6000FT/D -SN BR VV001 M12/ RMK FG8 FROIN

CYXE;2007-12-15 17:00;CYXE 151700Z 14004KT 5/8SM R09/2800V5500FT/U -SN BR VV002 M12/M12 A2995 RMK FG8 FROIN SLP187

CYXE;2007-12-15 17:17;CYXE 151717Z 18004KT 3/4SM R09/5500FT/D -SN BR VV001 M12/ RMK FG8 FROIN

CYXE;2007-12-15 17:32;CYXE 151732Z 13005KT 3/4SM R09/4000VP6000FT/D -SN BR OVC002 M12/ RMK SN4ST4 FROIN

CYXE;2007-12-15 18:00;CYXE 151800Z 18005KT 1 1/2SM -SN BR OVC003 M12/M12 A2995 RMK SN3ST5 FROIN SLP184

CYXE;2007-12-15 18:33;CYXE 151833Z 15005KT 2SM -SN BR OVC002 M12/ RMK ST8

CYXE;2007-12-15 18:45;CYXE 151845Z 15005KT 2SM -SN BR OVC003 M12/ RMK ST8 CIG VRB 2-4

CYXE;2007-12-15 19:00;CYXE 151900Z 14004KT 1 1/2SM -SN BR OVC003 M12/M13 A2992 RMK ST8 CIG VRB 2-4 SLP174

CYXE;2007-12-15 20:00;CYXE 152000Z 14005KT 2SM -SN BR OVC005 M12/M13 A2989 RMK ST7 SLP166

CYXE;2007-12-15 20:22;CYXE 152022Z 13003KT 2SM -SN BR OVC004 M12/ RMK ST7

CYXE;2007-12-15 21:00;CYXE 152100Z 11007KT 2SM -SN BR OVC004 M11/M12 A2986 RMK ST7 SLP154

CYXE;2007-12-15 21:24;CYXE 152124Z 11008KT 1 1/2SM -SN BR OVC002 M11/ RMK ST8

CYXE;2007-12-15 22:00;CYXE 152200Z 12008KT 1 1/2SM -SN BR OVC002 M10/M11 A2984 RMK ST8 SLP145

CYXE;2007-12-15 22:42;CYXE 152242Z 14010KT 3SM -SN BR OVC003 M11/ RMK ST8

CYXE;2007-12-15 23:00;CYXE 152300Z 13008KT 3SM -SN BR OVC005 M11/M12 A2982 RMK ST8 SLP140

CYXE;2007-12-15 23:28;CYXE 152328Z 13009KT 12SM BKN006 M11/ RMK ST6

CYXE;2007-12-16 00:00;CYXE 160000Z 12009KT 8SM BKN005 M12/M13 A2979 RMK ST5 SLP129

CYXE;2007-12-16 00:24;CYXE 160024Z 12008KT 15SM SCT007 M12/ RMK ST3

CYXE;2007-12-16 01:00;CYXE 160100Z 13010KT 15SM SCT007 M12/M13 A2976 RMK ST2 SLP119

CYXE;2007-12-16 02:00;CYXE 160200Z 12009KT 12SM SCT007 M12/M13 A2972 RMK ST2 SLP107

CYXE;2007-12-16 03:00;CYXE 160300Z 13010KT 15SM FEW005 BKN057 M11/M12 A2970 RMK ST2SC5 SLP099

CYXE;2007-12-16 03:50;CYXE 160350Z 13008KT 12SM -SN SCT035 OVC053 M11/ RMK SC3SC5

CYXE;2007-12-16 04:00;CYXE 160400Z 13010KT 12SM -SN SCT035 OVC053 M11/M12 A2967 RMK SC3SC5 SLP089

CYXE;2007-12-16 05:00;CYXE 160500Z 12007KT 15SM -SN SCT038 BKN055 OVC079 M10/M11 A2964 RMK SC3SC3AC2 SLP080

CYXE;2007-12-16 06:00;CYXE 160600Z 12008KT 15SM -SN OVC072 M10/M10 A2962 RMK AC8 SLP069

CYXE;2007-12-16 06:16;CYXE 160616Z 13008KT 15SM OVC072 M10/ RMK AC8

CYXE;2007-12-16 07:00;CYXE 160700Z 13007KT 15SM FEW015 OVC080 M10/M10 A2960 RMK SC1AC7 SLP062

CYXE;2007-12-16 08:00;CYXE 160800Z 13008KT 15SM FEW015 BKN054 OVC093 M10/M10 A2958 RMK SC1SC6AC2 SLP055

CYXE;2007-12-16 09:00;CYXE 160900Z 12004KT 15SM FEW015 SCT052 BKN092 M10/M10 A2956 RMK SC1SC3AC2 SLP050

CYXE;2007-12-16 10:00;CYXE 161000Z 19002KT 15SM BKN023 BKN045 OVC062 M10/M10 A2956 RMK SC6SC2SC1 SLP050

CYXE;2007-12-16 11:00;CYXE 161100Z 29005KT 15SM BKN017 OVC092 M09/M10 A2956 RMK SC6AC2 SLP048

CYXE;2007-12-16 12:00;CYXE 161200Z 29007KT 15SM OVC017 M08/M09 A2956 RMK SC8 SLP048

CYXE;2007-12-16 12:41;CYXE 161241Z 31008KT 15SM -SN OVC013 M11/ RMK SC8

CYXE;2007-12-16 13:00;CYXE 161300Z 32008KT 15SM -SN OVC013 M11/M12 A2958 RMK SC8 SLP053

CYXE;2007-12-16 14:00;CYXE 161400Z 32007KT 15SM -SN FEW003 OVC015 M12/M12 A2959 RMK SF1SC8 SLP058

CYXE;2007-12-16 14:23;CYXE 161423Z 32009KT 1 1/2SM -SN OVC015 M12/ RMK SN2SC6

CYXE;2007-12-16 14:45;CYXE 161445Z 31010KT 1SM R09/P6000FT/N -SN DRSN OVC029 M13/ RMK SN5SC3

CYXE;2007-12-16 15:00;CYXE 161500Z 32009KT 4SM -SN DRSN OVC032 M13/M13 A2962 RMK SC8 SLP071

CYXE;2007-12-16 16:00;CYXE 161600Z 32008KT 3SM -SN DRSN OVC017 M12/M13 A2963 RMK SC8 SLP076

CYXE;2007-12-16 16:07;CYXE 161607Z 30006KT 1 1/2SM -SN DRSN OVC017 M12/ RMK SN4SC4

CYXE;2007-12-16 17:00;CYXE 161700Z 30006KT 1 1/2SM -SN OVC063 M12/M13 A2965 RMK SN5SC3 SLP082

CYXE;2007-12-16 17:20;CYXE 161720Z 30006KT 1 1/2SM -SN VV012 M11/ RMK SN8

CYXE;2007-12-16 17:29;CYXE 161729Z 30007KT 1SM R09/P6000FT/N -SN VV009 M11/ RMK SN8

CYXE;2007-12-16 18:00;CYXE 161800Z 30006KT 1SM R09/P6000FT/N -SN VV007 M11/M11 A2966 RMK SN8 SLP081

CYXE;2007-12-16 18:11;CYXE 161811Z 29008KT 4SM -SN OVC031 M10/ RMK SN3SC5

CYXE;2007-12-16 19:00;CYXE 161900Z 29007KT 15SM -SN OVC013 M09/M10 A2966 RMK SC8 SLP082

CYXE;2007-12-16 19:35;CYXE 161935Z 28006KT 15SM OVC009 M09/ RMK ST8

CYXE;2007-12-16 20:00;CYXE 162000Z 28006KT 15SM OVC006 M09/M10 A2965 RMK ST8 SLP080

CYXE;2007-12-16 20:05;CYXE 162005Z 29006KT 15SM BKN006 OVC130 M09/ RMK SF3AC4

CYXE;2007-12-16 20:24;CYXE 162024Z 27005KT 15SM SCT006 BKN130 M09/ RMK SF3AC2

CYXE;2007-12-16 21:00;CYXE 162100Z 28005KT 15SM FEW006 FEW130 BKN250 M10/M11 A2967 RMK SF1AC2CI2 SLP085

CYXE;2007-12-16 22:00;CYXE 162200Z 23003KT 15SM FEW006 SCT130 M10/M10 A2967 RMK SF1AC2 SLP086

CYXE;2007-12-16 23:00;CYXE 162300Z 22005KT 15SM FEW006 FEW130 M13/M14 A2968 RMK SC1AC1 SLP088

CYXE;2007-12-17 00:00;CYXE 170000Z 21004KT 8SM FEW250 M12/M13 A2968 RMK CI0 BR SLP089

CYXE;2007-12-17 01:00;CYXE 170100Z 22006KT 6SM BR FEW250 M15/M15 A2968 RMK CI0 SLP088

CYXE;2007-12-17 02:00;CYXE 170200Z 24009KT 12SM SKC M14/M15 A2966 RMK BR SLP084

CYXE;2007-12-17 03:00;CYXE 170300Z 24008KT 15SM SKC M14/M16 A2966 RMK SLP088

CYXE;2007-12-17 04:00;CYXE 170400Z 21004KT 15SM SKC M15/M16 A2966 RMK SLP087

CYXE;2007-12-17 05:00;CYXE 170500Z 22005KT 15SM SKC M15/M15 A2967 RMK SLP090

CYXE;2007-12-17 06:00;CYXE 170600Z 21006KT 15SM SKC M16/M17 A2967 RMK SLP091

CYXE;2007-12-17 07:00;CYXE 170700Z 20005KT 15SM SKC M15/M16 A2967 RMK SLP090

CYXE;2007-12-17 08:00;CYXE 170800Z 15002KT 15SM SKC M16/M17 A2965 RMK SLP084

CYXE;2007-12-17 09:00;CYXE 170900Z 18002KT 15SM SKC M16/M17 A2965 RMK SLP081

CYXE;2007-12-17 10:00;CYXE 171000Z 19006KT 15SM FEW095 M16/M17 A2964 RMK AC1 SLP080

CYXE;2007-12-17 11:00;CYXE 171100Z 18005KT 15SM SKC M16/M17 A2963 RMK SLP075

CYXE;2007-12-17 12:00;CYXE 171200Z 18004KT 15SM SKC M16/M17 A2962 RMK SLP075

CYXE;2007-12-17 13:00;CYXE 171300Z 17005KT 15SM SKC M15/M16 A2963 RMK SLP076

CYXE;2007-12-17 14:00;CYXE 171400Z 15004KT 15SM BKN200 M16/M17 A2962 RMK CI2 SLP073

CYXE;2007-12-17 15:00;CYXE 171500Z 00000KT 3SM BR BKN120 OVC220 M17/M17 A2961 RMK AC2CI2 SLP071

CYXE;2007-12-17 16:00;CYXE 171600Z 11002KT 10SM BKN120 OVC220 M17/M18 A2961 RMK AC2CI2 BR SLP073

CYXE;2007-12-17 17:00;CYXE 171700Z 06006KT 8SM SCT120 OVC240 M16/M17 A2961 RMK AC2CI3 BR SLP071

CYXE;2007-12-17 18:00;CYXE 171800Z 09006KT 4SM BR SCT083 OVC240 M16/M17 A2959 RMK FG1AC2CI3 VIS SW-N 11/2 SLP065

CYXE;2007-12-17 19:00;CYXE 171900Z 05007KT 10SM SCT085 BKN240 M14/M15 A2958 RMK AC2CI4 BR SLP062

CYXE;2007-12-17 20:00;CYXE 172000Z 08005KT 10SM BKN088 OVC240 M15/M16 A2957 RMK AS6CI2 BR SLP061

CYXE;2007-12-17 21:00;CYXE 172100Z 05006KT 12SM BKN088 OVC240 M14/M15 A2957 RMK AS6CI1 SLP058

CYXE;2007-12-17 22:00;CYXE 172200Z 07006KT 15SM BKN090 OVC240 M14/M15 A2956 RMK AS5CI1 SLP054

CYXE;2007-12-17 23:00;CYXE 172300Z 05005KT 15SM SCT090 BKN240 M13/M14 A2956 RMK AC3CI0 SLP054

CYXE;2007-12-18 00:00;CYXE 180000Z 05008KT 15SM SCT090 BKN240 M15/M16 A2955 RMK AC3CI0 SLP053

CYXE;2007-12-18 01:00;CYXE 180100Z 06007KT 15SM FEW090 SCT240 M15/M16 A2956 RMK AC2CI0 SLP055

CYXE;2007-12-18 02:00;CYXE 180200Z 07007KT 15SM FEW090 M16/M17 A2956 RMK AC2 SLP054

CYXE;2007-12-18 03:00;CYXE 180300Z 06008KT 12SM BKN090 M17/M18 A2957 RMK AC3 SLP060

CYXE;2007-12-18 04:00;CYXE 180400Z 07007KT 15SM BKN100 M14/M15 A2957 RMK AC5 SLP061

CYXE;2007-12-18 05:00;CYXE 180500Z 07006KT 15SM BKN082 M14/M15 A2957 RMK AC6 SLP060

CYXE;2007-12-18 06:00;CYXE 180600Z 06006KT 15SM OVC085 M13/M14 A2958 RMK AC7 SLP059

CYXE;2007-12-18 07:00;CYXE 180700Z 07005KT 15SM BKN085 M13/M14 A2959 RMK AC7 SLP062

CYXE;2007-12-18 08:00;CYXE 180800Z 07005KT 15SM SCT093 M15/M16 A2959 RMK AC3 SLP065

CYXE;2007-12-18 09:00;CYXE 180900Z 05004KT 15SM SCT090 M17/M18 A2960 RMK AC3 SLP070

CYXE;2007-12-18 10:00;CYXE 181000Z 03008KT 15SM SCT090 M17/M18 A2963 RMK AC3 SLP077

CYXE;2007-12-18 11:00;CYXE 181100Z 04006KT 15SM SCT090 M18/M19 A2964 RMK AC3 SLP081

CYXE;2007-12-18 12:00;CYXE 181200Z 36003KT 15SM FEW090 M20/M21 A2966 RMK AC2 SLP092

CYXE;2007-12-18 13:00;CYXE 181300Z 04003KT 15SM SKC M21/M22 A2968 RMK SLP098

CYXE;2007-12-18 14:00;CYXE 181400Z 29003KT 15SM FEW002 M22/M23 A2970 RMK SF1 IC SLP104

CYXE;2007-12-18 15:00;CYXE 181500Z 28006KT 15SM FEW002 M23/M24 A2972 RMK SF1 SLP117

CYXE;2007-12-18 16:00;CYXE 181600Z 31008KT 15SM FEW089 FEW220 M21/M22 A2974 RMK AC1CI0 IC SLP123

CYXE;2007-12-18 17:00;CYXE 181700Z 28004KT 15SM FEW220 M20/M21 A2977 RMK CI2 IC SLP133

CYXE;2007-12-18 18:00;CYXE 181800Z 30003KT 15SM SCT220 M18/M19 A2977 RMK CI2 IC SLP127

CYXE;2007-12-18 19:00;CYXE 181900Z 27004KT 15SM FEW220 M16/M17 A2977 RMK CI1 IC SLP127

CYXE;2007-12-18 20:00;CYXE 182000Z 29003KT 15SM SCT220 M15/M16 A2976 RMK CI1 IC SLP123

CYXE;2007-12-18 21:00;CYXE 182100Z 28002KT 15SM FEW280 M14/M17 A2977 RMK CI1 SLP127

CYXE;2007-12-18 22:00;CYXE 182200Z 00000KT 15SM FEW280 M13/M16 A2978 RMK CI1 SLP132

CYXE;2007-12-18 23:00;CYXE 182300Z 25003KT 15SM SCT280 M15/M18 A2978 RMK CI1 SLP130

CYXE;2007-12-19 00:00;CYXE 190000Z 17003KT 15SM FEW240 M15/M18 A2976 RMK CI1 SLP125

CYXE;2007-12-19 01:00;CYXE 190100Z 19002KT 12SM FEW240 M16/M18 A2976 RMK CI1 SLP127

CYXE;2007-12-19 02:00;CYXE 190200Z 11003KT 12SM FEW240 M16/M18 A2973 RMK CI1 SLP117

CYXE;2007-12-19 03:00;CYXE 190300Z 12005KT 15SM FEW040 M16/M19 A2969 RMK SC1 SLP107

CYXE;2007-12-19 04:00;CYXE 190400Z 17004KT 15SM FEW040 M16/M18 A2968 RMK SC1 SLP101

CYXE;2007-12-19 04:17;CYXE 190417Z 17007KT 10SM BKN003 M16/ RMK SC5

CYXE;2007-12-19 04:48;CYXE 190448Z 12006KT 10SM SCT003 M14/ RMK SF2 BR

CYXE;2007-12-19 05:00;CYXE 190500Z 11005KT 3SM BR SCT003 M16/M18 A2965 RMK SF2 SLP092

CYXE;2007-12-19 05:34;CYXE 190534Z 10006KT 4SM BR SCT003 M17/ RMK SF2 IC

CYXE;2007-12-19 06:00;CYXE 190600Z 10005KT 4SM BR FEW003 BKN220 M16/M18 A2964 RMK SF1CI0 IC VIS NW-NE 2 SLP084

CYXE;2007-12-19 07:00;CYXE 190700Z 12007KT 4SM BR OVC110 M15/M17 A2960 RMK AS7 IC VIS NW-N 11/2 SLP072

CYXE;2007-12-19 08:00;CYXE 190800Z 13007KT 15SM -SN OVC110 M14/M16 A2956 RMK AC8 SLP060

CYXE;2007-12-19 09:00;CYXE 190900Z 13005KT 15SM -SN OVC075 M11/M13 A2953 RMK AC8 SLP040

CYXE;2007-12-19 10:00;CYXE 191000Z 13006KT 15SM -SN OVC062 M08/M10 A2949 RMK SC8 SLP028

CYXE;2007-12-19 11:00;CYXE 191100Z 15006KT 15SM OVC057 M08/M09 A2946 RMK SC8 SLP019

CYXE;2007-12-19 12:00;CYXE 191200Z 14009KT 15SM OVC061 M07/M09 A2944 RMK SC8 SLP008

CYXE;2007-12-19 13:00;CYXE 191300Z 14007KT 15SM BKN070 M08/M10 A2942 RMK AC4 SLP002

CYXE;2007-12-19 14:00;CYXE 191400Z 15002KT 15SM FEW050 SCT070 M08/M10 A2942 RMK SC1AC2 SLP001

CYXE;2007-12-19 15:00;CYXE 191500Z 17006KT 15SM FEW050 M08/M10 A2941 RMK SC1 SLP998

CYXE;2007-12-19 16:00;CYXE 191600Z 17005KT 15SM FEW050 SCT280 M09/M10 A2941 RMK SC1CI0 SLP999

CYXE;2007-12-19 17:00;CYXE 191700Z 22004KT 15SM FEW050 SCT280 M08/M10 A2943 RMK SC1CI0 SLP005

CYXE;2007-12-19 18:00;CYXE 191800Z 22007KT 15SM FEW050 SCT280 M06/M08 A2942 RMK SC1CI0 SLP001

CYXE;2007-12-19 19:00;CYXE 191900Z 24007KT 15SM FEW050 BKN280 M06/M08 A2942 RMK SC1CI1 SLP002

CYXE;2007-12-19 20:00;CYXE 192000Z 26008KT 15SM FEW050 BKN280 M09/M10 A2945 RMK SC1CI1 SLP009

CYXE;2007-12-19 21:00;CYXE 192100Z 31004KT 15SM SCT280 M09/M11 A2945 RMK CI1 SLP010

CYXE;2007-12-19 22:00;CYXE 192200Z 29007KT 15SM BKN280 M11/M13 A2948 RMK CI2 SLP020

CYXE;2007-12-19 23:00;CYXE 192300Z 33006KT 15SM FEW100 OVC280 M13/M14 A2948 RMK AC1CI2 SLP020

CYXE;2007-12-20 00:00;CYXE 200000Z 24007KT 10SM BKN280 M15/M16 A2952 RMK CI2 BR SLP034

CYXE;2007-12-20 01:00;CYXE 200100Z 28003KT 10SM BKN100 OVC280 M13/M14 A2952 RMK AC5CI2 BR SLP035

CYXE;2007-12-20 02:00;CYXE 200200Z 36006KT 10SM SCT100 OVC280 M13/M14 A2950 RMK AC3CI2 BR SLP030

CYXE;2007-12-20 03:00;CYXE 200300Z 02005KT 10SM FEW100 OVC280 M13/M14 A2950 RMK AC2CI2 BR SLP026

CYXE;2007-12-20 04:00;CYXE 200400Z 36005KT 10SM SCT100 OVC280 M13/M14 A2950 RMK AC4CI2 BR SLP028

CYXE;2007-12-20 05:00;CYXE 200500Z 00000KT 6SM BR OVC110 M12/M13 A2950 RMK AS8 SLP029

CYXE;2007-12-20 06:00;CYXE 200600Z 06009KT 6SM BR BKN099 OVC250 M12/M13 A2949 RMK AC5CI0 SLP022

CYXE;2007-12-20 07:00;CYXE 200700Z 05006KT 6SM BR BKN095 M14/M15 A2950 RMK AC6 SLP024

CYXE;2007-12-20 07:34;CYXE 200734Z 06007KT 4SM BR SCT095 BKN220 M14/ RMK AC3CI1 IC VIS N 2

CYXE;2007-12-20 08:00;CYXE 200800Z 06009KT 4SM BR FEW095 BKN220 M14/M15 A2946 RMK AC2CI2 IC VIS SW-N 2 SLP012

CYXE;2007-12-20 08:37;CYXE 200837Z 08006KT 4SM BR FEW090 BKN220 M14/ RMK AC2CI2

CYXE;2007-12-20 09:00;CYXE 200900Z 07005KT 4SM BR SCT110 SCT220 M15/M15 A2946 RMK AC2CI0 SLP017

CYXE;2007-12-20 10:00;CYXE 201000Z 05008KT 6SM BR FEW010 OVC110 M15/M16 A2946 RMK SF1AC6 SLP014

CYXE;2007-12-20 11:00;CYXE 201100Z 07009KT 3SM BR OVC090 M13/M14 A2945 RMK AC7 IC SLP011

CYXE;2007-12-20 11:18;CYXE 201118Z 07008KT 4SM BR FEW002 OVC070 M13/ RMK SF2AC6 IC

CYXE;2007-12-20 12:00;CYXE 201200Z 07007KT 4SM BR BKN006 OVC059 M13/M13 A2945 RMK SF5SC3 SLP016

CYXE;2007-12-20 12:07;CYXE 201207Z 06007KT 4SM BR SCT006 OVC045 M12/ RMK SF3SC5

CYXE;2007-12-20 12:21;CYXE 201221Z 07007KT 1SM R09/P6000FT/N -SN BR VV002 M12/ RMK SN8

CYXE;2007-12-20 12:39;CYXE 201239Z 04005KT 1 1/2SM -SN SKC M12/ RMK SN6

CYXE;2007-12-20 13:00;CYXE 201300Z 03004KT 1 1/2SM -SN SKC M14/M14 A2945 RMK SN6 SLP015

CYXE;2007-12-20 13:11;CYXE 201311Z 04008KT 3SM BR FEW056 M14/ RMK SC2 IC

CYXE;2007-12-20 14:00;CYXE 201400Z 04008KT 15SM SCT025 M14/M15 A2944 RMK SC2 SLP012

CYXE;2007-12-20 14:53;CYXE 201453Z 07009KT 6SM BR BKN007 M13/ RMK SC6

CYXE;2007-12-20 15:00;CYXE 201500Z 07008KT 5SM BR BKN007 M13/M13 A2944 RMK SC6 SLP010

CYXE;2007-12-20 15:44;CYXE 201544Z 07005KT 4SM -SN BR OVC007 M13/ RMK SC6

CYXE;2007-12-20 16:00;CYXE 201600Z 07004KT 5SM -SN BR OVC006 M13/M14 A2946 RMK SC6 SLP015

CYXE;2007-12-20 17:00;CYXE 201700Z 08005KT 5SM -SN BR OVC006 M13/M13 A2945 RMK SC6 SLP014

CYXE;2007-12-20 18:00;CYXE 201800Z 09003KT 3SM -SN BR BKN006 M12/M13 A2946 RMK SC5 SLP014

CYXE;2007-12-20 19:00;CYXE 201900Z 00000KT 4SM -SN BR OVC008 M11/M12 A2946 RMK SC6 SLP015

CYXE;2007-12-20 20:00;CYXE 202000Z 04005KT 4SM BR SCT008 M12/M13 A2945 RMK SC3 SLP011

CYXE;2007-12-20 20:12;CYXE 202012Z 05006KT 5SM BR BKN004 M12/ RMK SC5

CYXE;2007-12-20 20:39;CYXE 202039Z 08006KT 2SM -SN BR OVC005 M11/ RMK SC5

CYXE;2007-12-20 21:00;CYXE 202100Z 08005KT 2SM R09/4000VP6000FT/D -SN BR OVC004 M11/M12 A2946 RMK SC6 SLP017

CYXE;2007-12-20 21:50;CYXE 202150Z 11004KT 1SM R09/5000FT/D -SHSN BR BKN004 M11/ RMK SC6 CU EMBD

CYXE;2007-12-20 22:00;CYXE 202200Z 09004KT 1SM R09/4000V5500FT/N -SHSN BR BKN005 M12/M12 A2947 RMK SC6 CU EMBD SLP021

CYXE;2007-12-20 23:00;CYXE 202300Z 06005KT 1SM R09/P6000FT/U -SHSN BR OVC007 M12/M12 A2949 RMK SC7 CU EMBD SLP028

CYXE;2007-12-20 23:41;CYXE 202341Z 04006KT 2SM -SN BR OVC007 M11/ RMK SC7

CYXE;2007-12-21 00:00;CYXE 210000Z 05007KT 2SM -SN BR OVC007 M11/M12 A2951 RMK SC7 SLP034

CYXE;2007-12-21 00:27;CYXE 210027Z 04006KT 2SM -SN BR OVC003 M11/ RMK SC7

CYXE;2007-12-21 01:00;CYXE 210100Z 04007KT 2SM -SN BR OVC003 M11/M12 A2953 RMK SC7 SLP039

CYXE;2007-12-21 01:14;CYXE 210114Z 07007KT 1SM R09/P6000FT/D -SN BR OVC002 M11/ RMK SC8

CYXE;2007-12-21 02:00;CYXE 210200Z 05005KT 1SM R09/P6000FT/D -SN BR OVC002 M11/M12 A2955 RMK SC8 SLP046

CYXE;2007-12-21 02:47;CYXE 210247Z 02006KT 1 1/2SM -SN BR OVC002 M11/ RMK SC8

CYXE;2007-12-21 03:00;CYXE 210300Z 01004KT 1 1/2SM -SN BR OVC003 M11/M12 A2957 RMK SC8 /S02/ SLP054

CYXE;2007-12-21 03:09;CYXE 210309Z 02004KT 3/4SM R09/3000V6000FT/D -SN BR VV003 M11/ RMK FG8

CYXE;2007-12-21 03:18;CYXE 210318Z 01003KT 1/2SM R09/2000V3500FT/D -SN FZFG VV002 M11/ RMK FG8

CYXE;2007-12-21 03:42;CYXE 210342Z 35003KT 1/4SM R09/1800FT/N -SN FZFG VV001 M11/ RMK FG8

CYXE;2007-12-21 04:00;CYXE 210400Z 33004KT 1/4SM R09/1600FT/N -SN FZFG VV002 M11/M11 A2961 RMK FG8 SLP066

CYXE;2007-12-21 04:39;CYXE 210439Z 33006KT 1/2SM R09/2400V4000FT/U -SN FZFG VV002 M11/ RMK FG8

CYXE;2007-12-21 05:00;CYXE 210500Z 32007KT 1/2SM R09/3500VP6000FT/D FZFG VV003 M11/M11 A2965 RMK FG8 SLP079

CYXE;2007-12-21 05:31;CYXE 210531Z 33008KT 1/2SM R09/P6000FT/U -SN FZFG VV001 M11/ RMK FG8

CYXE;2007-12-21 05:43;CYXE 210543Z 33009KT 1SM R09/P6000FT/U -SN BR VV002 M11/ RMK FG8

CYXE;2007-12-21 05:47;CYXE 210547Z 33007KT 3/4SM R09/P6000FT/D -SN BR VV002 M11/ RMK FG8

CYXE;2007-12-21 05:51;CYXE 210551Z 34007KT 1/2SM R09/P6000FT/D -SN FZFG VV002 M11/ RMK FG8 TOWER OBS

CYXE;2007-12-21 06:00;CYXE 210600Z 32008KT 1SM R09/P6000FT/U -SN BR VV002 M11/M11 A2967 RMK FG8 TOWER OBS SLP088

CYXE;2007-12-21 06:04;CYXE 210604Z 33008KT 1/2SM R09/P6000FT/D -SN FZFG VV001 M10/ RMK FG8 TOWER OBS

CYXE;2007-12-21 06:44;CYXE 210644Z 31006KT 1/2SM R09/P6000FT/D FZFG VV001 M10/ RMK FG8 TOWER OBS

CYXE;2007-12-21 07:00;CYXE 210700Z 31006KT 1/2SM R09/P6000FT/D FZFG VV002 M10/M11 A2971 RMK FG8 TOWER OBS SLP100

CYXE;2007-12-21 07:21;CYXE 210721Z 31006KT 1SM R09/P6000FT/U BR VV002 M10/ RMK FG8 TOWER OBS

CYXE;2007-12-21 07:33;CYXE 210733Z 30007KT 1 1/2SM BR OVC002 M10/ RMK FG4SF4 TOWER OBS

CYXE;2007-12-21 07:42;CYXE 210742Z 31006KT 2SM BR OVC003 M10/ RMK FG2SF6 TOWER OBS

CYXE;2007-12-21 08:00;CYXE 210800Z 31005KT 2SM BR OVC004 M10/M10 A2973 RMK SF8 TOWER OBS SLP107

CYXE;2007-12-21 08:35;CYXE 210835Z 31006KT 3SM -SN BR OVC007 M10/ RMK SF8 TOWER OBS

CYXE;2007-12-21 09:00;CYXE 210900Z 31004KT 4SM -SN BR OVC008 M09/M10 A2976 RMK SF8 SLP116

CYXE;2007-12-21 10:00;CYXE 211000Z 32012KT 8SM -SN BKN009 OVC013 M08/M08 A2978 RMK SF5SC3 SLP125

CYXE;2007-12-21 10:06;CYXE 211006Z 32009KT 8SM -SN OVC011 M08/ RMK SC8

CYXE;2007-12-21 10:51;CYXE 211051Z 32010KT 15SM OVC015 M08/ RMK SC8

CYXE;2007-12-21 11:00;CYXE 211100Z 31010KT 15SM OVC015 M08/M09 A2981 RMK SC8 SLP134

CYXE;2007-12-21 11:25;CYXE 211125Z 30009KT 8SM OVC014 M08/ RMK SC8 BR

CYXE;2007-12-21 12:00;CYXE 211200Z 31011KT 15SM OVC014 M08/M09 A2984 RMK SC8 SLP145

CYXE;2007-12-21 12:49;CYXE 211249Z 30015G20KT 4SM -SN BLSN OVC014 M12/ RMK SC8

CYXE;2007-12-21 13:00;CYXE 211300Z 30017KT 4SM -SN BLSN OVC014 M12/M14 A2990 RMK SC8 SLP163

CYXE;2007-12-21 14:00;CYXE 211400Z 30019G25KT 3SM -SN DRSN OVC012 M15/M17 A2994 RMK SC8 SLP175

CYXE;2007-12-21 14:29;CYXE 211429Z 31018G24KT 5SM BLSN SCT014 M17/ RMK SC2

CYXE;2007-12-21 15:00;CYXE 211500Z 31013KT 10SM DRSN FEW014 M18/M21 A2997 REBLSN RMK SC2 SLP195

CYXE;2007-12-21 16:00;CYXE 211600Z 29014G19KT 12SM DRSN FEW014 M18/M21 A2999 RMK SC2 SLP202

CYXE;2007-12-21 17:00;CYXE 211700Z 30015G22KT 15SM DRSN FEW014 SCT220 M18/M21 A3002 RMK SC2CI2 SLP212

CYXE;2007-12-21 18:00;CYXE 211800Z 28015G20KT 15SM FEW014 SCT220 M18/M21 A3003 RMK SC2CI2 SLP213

CYXE;2007-12-21 19:00;CYXE 211900Z 29017KT 15SM DRSN SCT016 SCT220 M17/M20 A3004 RMK SC3CI1 SLP218

CYXE;2007-12-21 20:00;CYXE 212000Z 30015G20KT 15SM DRSN FEW020 M17/M20 A3004 RMK SC2 SLP219

CYXE;2007-12-21 21:00;CYXE 212100Z 29016KT 15SM DRSN FEW020 M18/M21 A3006 RMK SC1 SLP223

CYXE;2007-12-21 22:00;CYXE 212200Z 29012G17KT 15SM DRSN BKN035 M18/M21 A3008 RMK SC4 SLP230

CYXE;2007-12-21 23:00;CYXE 212300Z 29013KT 15SM DRSN OVC045 M18/M21 A3010 RMK SC7 SLP236

CYXE;2007-12-21 23:20;CYXE 212320Z 29014KT 15SM -SN DRSN OVC040 M18/ RMK SC8

CYXE;2007-12-22 00:00;CYXE 220000Z 30015KT 12SM -SN DRSN OVC045 M18/M20 A3011 RMK SC8 SLP242

CYXE;2007-12-22 01:00;CYXE 220100Z 30013KT 12SM -SN DRSN OVC040 M18/M20 A3012 RMK SC8 SLP246

CYXE;2007-12-22 02:00;CYXE 220200Z 31013KT 15SM -SN DRSN OVC040 M17/M19 A3014 RMK SC8 SLP251

CYXE;2007-12-22 03:00;CYXE 220300Z 31010KT 15SM -SN DRSN OVC040 M17/M19 A3015 RMK SC8 SLP261

CYXE;2007-12-22 04:00;CYXE 220400Z 31011KT 15SM -SN DRSN OVC043 M17/M19 A3014 RMK SC8 SLP259

CYXE;2007-12-22 05:00;CYXE 220500Z 30010KT 15SM -SN OVC040 M17/M19 A3015 RMK SC8 SLP262

CYXE;2007-12-22 06:00;CYXE 220600Z 30012KT 15SM -SN OVC041 M17/M19 A3016 RMK SC8 SLP265

CYXE;2007-12-22 07:00;CYXE 220700Z 30011KT 10SM -SN OVC041 M17/M19 A3017 RMK SC8 SLP268

CYXE;2007-12-22 08:00;CYXE 220800Z 31010KT 10SM -SN OVC047 M18/M20 A3019 RMK SC8 SLP273

CYXE;2007-12-22 09:00;CYXE 220900Z 31011KT 12SM -SN OVC045 M18/M20 A3020 RMK SC8 SLP279

CYXE;2007-12-22 10:00;CYXE 221000Z 31009KT 15SM -SN OVC043 M19/M21 A3021 RMK SC7 SLP283

CYXE;2007-12-22 10:39;CYXE 221039Z 31010KT 15SM SCT041 SCT071 M21/ RMK SC3AC1

CYXE;2007-12-22 11:00;CYXE 221100Z 32010KT 15SM FEW041 M22/M23 A3021 RMK SC2 SLP282

CYXE;2007-12-22 12:00;CYXE 221200Z 31007KT 15SM FEW040 M23/M24 A3022 RMK SC1 SLP291

CYXE;2007-12-22 13:00;CYXE 221300Z 30007KT 15SM SKC M25/M26 A3023 RMK SLP294

CYXE;2007-12-22 14:00;CYXE 221400Z 29008KT 15SM SKC M26/M27 A3023 RMK SLP294

CYXE;2007-12-22 15:00;CYXE 221500Z 30007KT 15SM SKC M27/M34 A3023 RMK SLP295

CYXE;2007-12-22 16:00;CYXE 221600Z 31003KT 15SM SKC M26/M30 A3024 RMK SLP298

CYXE;2007-12-22 17:00;CYXE 221700Z 27005KT 15SM SKC M25/M29 A3024 RMK SLP299

CYXE;2007-12-22 17:42;CYXE 221742Z 25005KT 15SM SKC M24/

CYXE;2007-12-22 18:00;CYXE 221800Z 25003KT 15SM FEW250 M23/M27 A3022 RMK CI1 SLP288

CYXE;2007-12-22 19:00;CYXE 221900Z 22004KT 15SM FEW250 M22/M26 A3021 RMK CI1 SLP284

CYXE;2007-12-22 20:00;CYXE 222000Z 25005KT 15SM FEW250 M21/M26 A3019 RMK CI1 SLP280

CYXE;2007-12-22 21:00;CYXE 222100Z 24006KT 15SM FEW250 M21/M26 A3019 RMK CI1 SLP279

CYXE;2007-12-22 22:00;CYXE 222200Z 21004KT 15SM FEW250 M21/M26 A3017 RMK CI1 SLP273

CYXE;2007-12-22 23:00;CYXE 222300Z 17005KT 15SM FEW110 FEW250 M22/M26 A3014 RMK AC1CI0 SLP261

CYXE;2007-12-23 00:00;CYXE 230000Z 22004KT 15SM FEW110 FEW250 M25/M28 A3014 RMK AC1CI1 SLP266

CYXE;2007-12-23 01:00;CYXE 230100Z 18004KT 15SM FEW088 M24/M28 A3011 RMK AC1 SLP257

CYXE;2007-12-23 02:00;CYXE 230200Z 15005KT 15SM FEW089 M23/M27 A3009 RMK AC1 SLP252

CYXE;2007-12-23 03:00;CYXE 230300Z 13005KT 15SM SCT087 M22/M26 A3006 RMK AC4 SLP241

CYXE;2007-12-23 04:00;CYXE 230400Z 16005KT 15SM SCT087 M23/M27 A3004 RMK AC3 SLP234

CYXE;2007-12-23 05:00;CYXE 230500Z 15005KT 15SM FEW087 M24/M27 A3003 RMK AC2 SLP231

CYXE;2007-12-23 06:00;CYXE 230600Z 19003KT 15SM FEW090 M24/M28 A3003 RMK AC2 SLP230

CYXE;2007-12-23 07:00;CYXE 230700Z 10003KT 15SM SCT090 M25/M28 A3002 RMK AC2 SLP225

CYXE;2007-12-23 08:00;CYXE 230800Z 09007KT 15SM FEW090 M25/M29 A3000 RMK AC2 SLP220

CYXE;2007-12-23 09:00;CYXE 230900Z 10005KT 15SM FEW090 SCT280 M25/M28 A2998 RMK AC2CI0 SLP210

CYXE;2007-12-23 10:00;CYXE 231000Z 12005KT 12SM FEW090 SCT280 M23/M27 A2997 RMK AC2CI0 SLP208

CYXE;2007-12-23 11:00;CYXE 231100Z 11007KT 12SM FEW090 BKN280 M22/M25 A2997 RMK AC2CI0 SLP207

CYXE;2007-12-23 12:00;CYXE 231200Z 10008KT 15SM FEW090 BKN280 M21/M24 A2998 RMK AC1CI0 SLP209

CYXE;2007-12-23 13:00;CYXE 231300Z 10004KT 15SM SCT090 BKN250 M21/M25 A2999 RMK AC3CI0 SLP215

CYXE;2007-12-23 14:00;CYXE 231400Z 12005KT 15SM BKN085 M20/M23 A2999 RMK AC6 SLP213

CYXE;2007-12-23 15:00;CYXE 231500Z 12006KT 15SM BKN090 BKN250 M19/M22 A2999 RMK AC5CI0 SLP211

CYXE;2007-12-23 16:00;CYXE 231600Z 20003KT 15SM FEW090 BKN250 M20/M23 A3001 RMK AC2CI1 SLP217

CYXE;2007-12-23 17:00;CYXE 231700Z 16002KT 15SM FEW250 M20/M23 A3001 RMK CI0 SLP217

CYXE;2007-12-23 18:00;CYXE 231800Z 12007KT 15SM FEW090 FEW250 M18/M22 A2999 RMK AC1CI0 SLP212

CYXE;2007-12-23 19:00;CYXE 231900Z 21008KT 15SM FEW090 FEW250 M16/M20 A2999 RMK AC1CI0 SLP211

CYXE;2007-12-23 20:00;CYXE 232000Z 18005KT 15SM SCT250 M15/M20 A2997 RMK CI0 SLP206

CYXE;2007-12-23 21:00;CYXE 232100Z 22006KT 15SM SCT250 M15/M19 A2998 RMK CI0 SLP206

CYXE;2007-12-23 22:00;CYXE 232200Z 16006KT 15SM FEW250 M15/M19 A2995 RMK CI0 SLP195

CYXE;2007-12-23 23:00;CYXE 232300Z 19004KT 15SM FEW098 FEW250 M16/M20 A2994 RMK AC1CI0 SLP193

CYXE;2007-12-24 00:00;CYXE 240000Z 20005KT 15SM FEW100 FEW250 M16/M20 A2994 RMK AC1CI0 SLP189

CYXE;2007-12-24 01:00;CYXE 240100Z 20007KT 15SM BKN250 M15/M19 A2991 RMK CI4 SLP180

CYXE;2007-12-24 02:00;CYXE 240200Z 18008KT 15SM OVC250 M15/M17 A2987 RMK CI7 SLP167

CYXE;2007-12-24 03:00;CYXE 240300Z 18007KT 15SM OVC250 M15/M17 A2981 RMK CI6 SLP145

CYXE;2007-12-24 04:00;CYXE 240400Z 17005KT 15SM FEW095 OVC250 M14/M17 A2978 RMK AC1CI4 SLP135

CYXE;2007-12-24 04:37;CYXE 240437Z 19008KT 15SM BKN006 OVC100 M14/ RMK SC5AC3

CYXE;2007-12-24 05:00;CYXE 240500Z 18007KT 10SM BKN006 OVC100 M13/M14 A2976 RMK SC6AC2 SLP128

CYXE;2007-12-24 05:29;CYXE 240529Z 17006KT 15SM SCT006 OVC100 M12/ RMK SC3AC2

CYXE;2007-12-24 06:00;CYXE 240600Z 16005KT 15SM FEW006 BKN160 M12/M13 A2972 RMK SC2AC2 SLP110

CYXE;2007-12-24 07:00;CYXE 240700Z 19006KT 15SM FEW006 BKN160 M10/M12 A2967 RMK SC1AC2 SLP093

CYXE;2007-12-24 08:00;CYXE 240800Z 14005KT 15SM BKN160 M09/M11 A2959 RMK AC2 PRESFR SLP069

CYXE;2007-12-24 09:00;CYXE 240900Z 16005KT 15SM BKN160 M09/M10 A2960 RMK AC2 SLP063

CYXE;2007-12-24 10:00;CYXE 241000Z 15007KT 15SM BKN160 M08/M10 A2955 RMK AC2 SLP046

CYXE;2007-12-24 11:00;CYXE 241100Z 15004KT 15SM OVC160 M08/M10 A2953 RMK AC3 SLP041

CYXE;2007-12-24 12:00;CYXE 241200Z 18005KT 15SM OVC140 M08/M10 A2950 RMK AC6 SLP032

CYXE;2007-12-24 13:00;CYXE 241300Z 21004KT 15SM FEW100 BKN250 M09/M10 A2950 RMK AC2CS0 SLP030

CYXE;2007-12-24 14:00;CYXE 241400Z 25007KT 15SM FEW100 SCT250 M11/M11 A2950 RMK AC2CI0 SLP030

CYXE;2007-12-24 15:00;CYXE 241500Z 27006KT 15SM BKN120 M10/M11 A2952 RMK AC6 OBS TAKEN +03 SLP036

CYXE;2007-12-24 16:00;CYXE 241600Z 29009KT 15SM BKN120 M08/M10 A2954 RMK AC6 SLP042

CYXE;2007-12-24 17:00;CYXE 241700Z 30012KT 15SM BKN120 M06/M09 A2956 RMK AC6 SLP049

CYXE;2007-12-24 18:00;CYXE 241800Z 30010KT 15SM SCT090 BKN120 M06/M09 A2957 RMK AC3AC3 SLP049

CYXE;2007-12-24 19:00;CYXE 241900Z 29009KT 15SM FEW090 BKN250 M07/M09 A2957 RMK AC2CI1 SLP051

CYXE;2007-12-24 20:00;CYXE 242000Z 26004KT 15SM FEW090 FEW250 M05/M09 A2958 RMK AC1CI0 SLP054

CYXE;2007-12-24 21:00;CYXE 242100Z 22007KT 15SM FEW090 FEW250 M05/M08 A2960 RMK AC1CI0 SLP057

CYXE;2007-12-24 22:00;CYXE 242200Z 22007KT 15SM FEW090 M04/M07 A2960 RMK AC1 SLP059

CYXE;2007-12-24 23:00;CYXE 242300Z 22009KT 15SM FEW090 M07/M09 A2963 RMK AC1 SLP069

CYXE;2007-12-25 00:00;CYXE 250000Z 23007KT 15SM FEW090 M09/M10 A2965 RMK AC2 SLP077

CYXE;2007-12-25 01:00;CYXE 250100Z 24009KT 15SM BKN062 OVC090 M06/M08 A2967 RMK SC6AC2 SLP083

CYXE;2007-12-25 02:00;CYXE 250200Z 26008KT 15SM FEW075 FEW090 M06/M09 A2968 RMK AC2AC1 SLP087

CYXE;2007-12-25 03:00;CYXE 250300Z 27011KT 15SM FEW060 SCT090 M05/M08 A2970 RMK SC2AC1 SLP091

CYXE;2007-12-25 04:00;CYXE 250400Z 27012KT 15SM BKN032 BKN060 M04/M07 A2972 RMK SC5SC1 SLP098

CYXE;2007-12-25 05:00;CYXE 250500Z 29011KT 15SM BKN030 BKN060 M03/M06 A2974 RMK SC6SC1 SLP104

CYXE;2007-12-25 06:00;CYXE 250600Z 30012KT 15SM BKN037 OVC060 M03/M05 A2976 RMK SC6SC2 SLP110

CYXE;2007-12-25 07:00;CYXE 250700Z 26005KT 15SM BKN035 OVC110 M04/M06 A2979 RMK SC6AC2 SLP118

CYXE;2007-12-25 08:00;CYXE 250800Z 28008KT 15SM BKN018 M07/M08 A2980 RMK SC6 SLP123

CYXE;2007-12-25 09:00;CYXE 250900Z 28006KT 15SM BKN014 M06/M06 A2984 RMK SC7 SLP137

CYXE;2007-12-25 09:09;CYXE 250909Z 27006KT 12SM -SN BKN014 M05/ RMK SC7

CYXE;2007-12-25 10:00;CYXE 251000Z 31007KT 15SM -SN BKN018 M05/M05 A2987 RMK SC7 SLP147

CYXE;2007-12-25 11:00;CYXE 251100Z 32006KT 12SM -SN OVC012 M04/M04 A2990 RMK SC8 SLP159

CYXE;2007-12-25 11:33;CYXE 251133Z 35007KT 2SM -SN OVC010 M03/ RMK SC8

CYXE;2007-12-25 11:49;CYXE 251149Z 36010KT 5SM -SN DRSN OVC010 M03/ RMK SC8

CYXE;2007-12-25 12:00;CYXE 251200Z 36009KT 5SM -SN DRSN OVC010 M03/M04 A2994 RMK SC8 SLP174

CYXE;2007-12-25 13:00;CYXE 251300Z 02015KT 8SM -SN DRSN BKN011 M04/M06 A2997 RMK SC7 SLP184

CYXE;2007-12-25 13:49;CYXE 251349Z 01014KT 12SM -SN DRSN OVC024 M05/ RMK SC8

CYXE;2007-12-25 14:00;CYXE 251400Z 02012KT 12SM -SN DRSN OVC024 M05/M07 A2999 RMK SC8 SLP190

CYXE;2007-12-25 14:42;CYXE 251442Z 03010KT 15SM DRSN BKN013 OVC024 M05/ RMK SC5SC3

CYXE;2007-12-25 15:00;CYXE 251500Z 03012KT 15SM DRSN OVC013 M05/M07 A3001 RMK SC8 SLP196

CYXE;2007-12-25 15:38;CYXE 251538Z 04008KT 15SM SCT013 BKN017 OVC029 M06/ RMK SC3SC2SC2

CYXE;2007-12-25 16:00;CYXE 251600Z 04007KT 15SM FEW013 OVC017 M06/M07 A3004 RMK SC2SC6 SLP205

CYXE;2007-12-25 17:00;CYXE 251700Z 09006KT 15SM OVC011 M06/M08 A3005 RMK SC8 SLP209

CYXE;2007-12-25 18:00;CYXE 251800Z 13003KT 15SM OVC012 M06/M08 A3007 RMK SC8 SLP217

CYXE;2007-12-25 19:00;CYXE 251900Z 00000KT 15SM OVC014 M06/M08 A3007 RMK SC8 SLP215

CYXE;2007-12-25 20:00;CYXE 252000Z 10003KT 15SM OVC012 M06/M08 A3005 RMK SC8 SLP211

CYXE;2007-12-25 21:00;CYXE 252100Z 15004KT 15SM OVC012 M06/M08 A3005 RMK SC8 SLP210

CYXE;2007-12-25 22:00;CYXE 252200Z 16004KT 15SM OVC012 M06/M08 A3004 RMK SC8 SLP208

CYXE;2007-12-25 23:00;CYXE 252300Z 18004KT 15SM OVC015 M06/M08 A3004 RMK SC8 SLP208

CYXE;2007-12-26 00:00;CYXE 260000Z 18006KT 10SM -SN OVC012 M06/M07 A3003 RMK SC8 SLP203

CYXE;2007-12-26 01:00;CYXE 260100Z 19005KT 10SM -SN OVC015 M06/M07 A3003 RMK SC8 SLP201

CYXE;2007-12-26 02:00;CYXE 260200Z 16006KT 10SM -SN OVC015 M06/M07 A3001 RMK SC8 SLP195

CYXE;2007-12-26 02:34;CYXE 260234Z 15007KT 10SM OVC015 M06/ RMK SC8

CYXE;2007-12-26 03:00;CYXE 260300Z 16007KT 10SM OVC013 M06/M07 A2999 RMK SC8 SLP190

CYXE;2007-12-26 04:00;CYXE 260400Z 18006KT 10SM OVC013 M06/M06 A2997 RMK SC8 SLP183

CYXE;2007-12-26 05:00;CYXE 260500Z 18006KT 10SM OVC010 M05/M06 A2996 RMK SC8 SLP179

CYXE;2007-12-26 06:00;CYXE 260600Z 18006KT 10SM OVC010 M05/M06 A2995 RMK SC8 SLP177

CYXE;2007-12-26 06:25;CYXE 260625Z 18006KT 10SM OVC007 M05/ RMK SF8

CYXE;2007-12-26 07:00;CYXE 260700Z 18006KT 12SM OVC007 M05/M06 A2994 RMK SF8 SLP172

CYXE;2007-12-26 07:41;CYXE 260741Z 19004KT 12SM OVC012 M05/ RMK SC8

CYXE;2007-12-26 08:00;CYXE 260800Z 17006KT 15SM OVC012 M05/M06 A2992 RMK SC8 SLP168

CYXE;2007-12-26 09:00;CYXE 260900Z 18007KT 15SM OVC012 M05/M06 A2991 RMK SC8 SLP161

CYXE;2007-12-26 10:00;CYXE 261000Z 19012KT 15SM OVC007 M05/M06 A2991 RMK SF8 SLP162

CYXE;2007-12-26 11:00;CYXE 261100Z 18008KT 15SM OVC006 M05/M06 A2990 RMK SF8 SLP159

CYXE;2007-12-26 12:00;CYXE 261200Z 19009KT 15SM OVC005 M06/M06 A2988 RMK SF8 SLP153

CYXE;2007-12-26 12:09;CYXE 261209Z 18009KT 15SM OVC004 M06/ RMK SF8

CYXE;2007-12-26 13:00;CYXE 261300Z 18010KT 3SM BR OVC002 M06/M06 A2987 RMK SF8 SLP150

CYXE;2007-12-26 14:00;CYXE 261400Z 16008KT 8SM OVC003 M06/M06 A2987 RMK SC8 BR SLP148

CYXE;2007-12-26 15:00;CYXE 261500Z 15008KT 8SM OVC004 M06/M06 A2986 RMK ST8 BR SLP146

CYXE;2007-12-26 16:00;CYXE 261600Z 14007KT 8SM OVC007 M06/M07 A2987 RMK ST6 BR SLP149

CYXE;2007-12-26 16:41;CYXE 261641Z 13007KT 15SM SCT008 M07/ RMK SC3

CYXE;2007-12-26 17:00;CYXE 261700Z 13008KT 15SM FEW008 BKN080 M07/M08 A2988 RMK SC2AC2 SLP153

CYXE;2007-12-26 18:00;CYXE 261800Z 13005KT 15SM BKN085 M06/M07 A2987 RMK AC6 SLP150

CYXE;2007-12-26 19:00;CYXE 261900Z 14004KT 15SM SCT010 BKN085 M06/M07 A2986 RMK SF3AC2 SLP145

CYXE;2007-12-26 20:00;CYXE 262000Z 13004KT 15SM SCT085 BKN250 M06/M07 A2985 RMK AC3CI2 SLP141

CYXE;2007-12-26 21:00;CYXE 262100Z 12005KT 15SM FEW085 BKN250 M05/M07 A2984 RMK AC2CI2 SLP139

CYXE;2007-12-26 22:00;CYXE 262200Z 15003KT 15SM OVC250 M05/M07 A2985 RMK CI3 CONTRAILS SLP142

CYXE;2007-12-26 23:00;CYXE 262300Z 12006KT 15SM OVC250 M07/M08 A2986 RMK CI2 CONTRAILS SLP145

CYXE;2007-12-27 00:00;CYXE 270000Z 11005KT 15SM BKN250 M10/M10 A2987 RMK CI2 SLP152

CYXE;2007-12-27 01:00;CYXE 270100Z 12006KT 15SM BKN250 M09/M10 A2987 RMK CI2 SLP152

CYXE;2007-12-27 02:00;CYXE 270200Z 13005KT 15SM BKN250 M09/M10 A2988 RMK CI2 SLP153

CYXE;2007-12-27 03:00;CYXE 270300Z 13004KT 15SM BKN250 M09/M10 A2988 RMK CI2 SLP153

CYXE;2007-12-27 04:00;CYXE 270400Z 12005KT 15SM BKN250 M10/M10 A2988 RMK CI2 SLP154

CYXE;2007-12-27 05:00;CYXE 270500Z 13006KT 15SM BKN250 M11/M11 A2989 RMK CI2 SLP156

CYXE;2007-12-27 06:00;CYXE 270600Z 13007KT 15SM FEW085 BKN250 M10/M11 A2989 RMK AC2CI1 SLP160

CYXE;2007-12-27 07:00;CYXE 270700Z 13006KT 15SM BKN083 BKN250 M10/M11 A2990 RMK AC6CI1 SLP164

CYXE;2007-12-27 08:00;CYXE 270800Z 12006KT 15SM SCT080 BKN250 M10/M11 A2990 RMK AC3CI1 SLP161

CYXE;2007-12-27 09:00;CYXE 270900Z 14006KT 15SM FEW085 BKN250 M10/M11 A2990 RMK AC2CI2 SLP163

CYXE;2007-12-27 10:00;CYXE 271000Z 12007KT 15SM FEW085 BKN250 M10/M11 A2991 RMK AC2CI2 SLP164

CYXE;2007-12-27 11:00;CYXE 271100Z 12005KT 15SM FEW085 OVC250 M10/M11 A2991 RMK AC1CI3 SLP164

CYXE;2007-12-27 12:00;CYXE 271200Z 11006KT 12SM BKN010 OVC250 M13/M13 A2990 RMK SF5CI1 SLP168

CYXE;2007-12-27 12:03;CYXE 271203Z 10006KT 12SM BKN005 OVC250 M13/ RMK SF6CI1

CYXE;2007-12-27 12:18;CYXE 271218Z 11008KT 8SM OVC003 M10/ RMK SF8 BR

CYXE;2007-12-27 12:29;CYXE 271229Z 10007KT 8SM OVC002 M10/ RMK SF8 BR

CYXE;2007-12-27 13:00;CYXE 271300Z 10006KT 8SM OVC003 M10/M10 A2990 RMK SF8 BR SLP167

CYXE;2007-12-27 13:48;CYXE 271348Z 11010KT 4SM -SN OVC003 M08/ RMK SC7

CYXE;2007-12-27 14:00;CYXE 271400Z 11010KT 4SM -SN BR OVC002 M08/M09 A2990 RMK SC7 SLP166

CYXE;2007-12-27 15:00;CYXE 271500Z 13006KT 4SM -SN BR OVC003 M08/M09 A2989 RMK SC7 SLP160

CYXE;2007-12-27 15:45;CYXE 271545Z 12008KT 6SM BR OVC005 M09/ RMK SC7

CYXE;2007-12-27 16:00;CYXE 271600Z 14008KT 6SM BR OVC005 M09/M09 A2989 RMK SC7 SLP159

CYXE;2007-12-27 16:29;CYXE 271629Z 11007KT 6SM -SN BR OVC005 M09/ RMK SC8

CYXE;2007-12-27 17:00;CYXE 271700Z 13006KT 4SM -SN BR OVC005 M09/M10 A2989 RMK SC8 SLP160

CYXE;2007-12-27 17:42;CYXE 271742Z 14006KT 5SM -SN BR OVC007 M08/ RMK SC8

CYXE;2007-12-27 18:00;CYXE 271800Z 13005KT 5SM -SN BR OVC007 M08/M09 A2988 RMK SC8 SLP156

CYXE;2007-12-27 18:28;CYXE 271828Z 15006KT 5SM -SN BR OVC009 M09/ RMK SC8

CYXE;2007-12-27 19:00;CYXE 271900Z 14008KT 5SM -SN BR OVC008 M08/M09 A2986 RMK SC8 SLP151

CYXE;2007-12-27 20:00;CYXE 272000Z 17009KT 6SM -SN BR OVC008 M08/M08 A2985 RMK SC8 SLP147

CYXE;2007-12-27 21:00;CYXE 272100Z 18007KT 6SM -SN BR OVC008 M08/M09 A2985 RMK SC8 SLP145

CYXE;2007-12-27 22:00;CYXE 272200Z 18005KT 4SM -SN OVC008 M09/M10 A2985 RMK SC8 SLP146

CYXE;2007-12-27 23:00;CYXE 272300Z 19004KT 5SM -SN OVC009 M09/M10 A2985 RMK SC8 SLP146

CYXE;2007-12-28 00:00;CYXE 280000Z 19003KT 5SM -SN OVC006 M09/M10 A2984 RMK SC8 SLP146

CYXE;2007-12-28 01:00;CYXE 280100Z 23006KT 8SM -SN OVC006 M11/M12 A2983 RMK ST8 SLP142

CYXE;2007-12-28 01:26;CYXE 280126Z 22006KT 8SM -SN SCT006 OVC011 M11/ RMK ST4SC4

CYXE;2007-12-28 02:00;CYXE 280200Z 21007KT 6SM -SN OVC013 M11/M13 A2982 RMK SC8 SLP138

CYXE;2007-12-28 03:00;CYXE 280300Z 20006KT 8SM -SN BKN012 OVC025 M11/M13 A2981 RMK SC6SC2 SLP133

CYXE;2007-12-28 04:00;CYXE 280400Z 19007KT 6SM -SN BKN016 OVC025 M11/M13 A2980 RMK SC6SC2 SLP130

CYXE;2007-12-28 05:00;CYXE 280500Z 17004KT 10SM -SN OVC018 M11/M13 A2978 RMK SC8 SLP125

CYXE;2007-12-28 06:00;CYXE 280600Z 18006KT 6SM -SN OVC018 M11/M12 A2978 RMK SC8 SLP124

CYXE;2007-12-28 06:50;CYXE 280650Z 19007KT 8SM -SN OVC013 M11/ RMK SC8

CYXE;2007-12-28 07:00;CYXE 280700Z 20007KT 7SM -SN OVC013 M11/M12 A2977 RMK SC8 SLP121

CYXE;2007-12-28 07:26;CYXE 280726Z 23008KT 8SM -SN OVC009 M11/ RMK SC8

CYXE;2007-12-28 08:00;CYXE 280800Z 22007KT 10SM -SN OVC008 M12/M13 A2977 RMK SC8 SLP119

CYXE;2007-12-28 09:00;CYXE 280900Z 21006KT 10SM -SN OVC009 M12/M13 A2976 RMK SC8 SLP116

CYXE;2007-12-28 10:00;CYXE 281000Z 24008KT 6SM -SN OVC009 M12/M13 A2976 RMK SC8 SLP117

CYXE;2007-12-28 10:15;CYXE 281015Z 25008KT 8SM -SN OVC010 M12/ RMK SC8

CYXE;2007-12-28 11:00;CYXE 281100Z 25005KT 8SM -SN OVC012 M12/M13 A2976 RMK SC8 SLP117

CYXE;2007-12-28 12:00;CYXE 281200Z 24006KT 8SM -SN OVC012 M12/M13 A2976 RMK SC8 SLP115

CYXE;2007-12-28 13:00;CYXE 281300Z 21006KT 8SM -SN OVC009 M12/M13 A2975 RMK SC8 SLP114

CYXE;2007-12-28 13:37;CYXE 281337Z 21008KT 8SM -SN OVC010 M11/ RMK SC8

CYXE;2007-12-28 14:00;CYXE 281400Z 21007KT 8SM -SN OVC009 M12/M13 A2975 RMK SC8 SLP113

CYXE;2007-12-28 14:31;CYXE 281431Z 23006KT 8SM -SN SCT010 OVC017 M12/ RMK SF4SC4

CYXE;2007-12-28 15:00;CYXE 281500Z 22006KT 8SM -SN FEW010 OVC017 M12/M13 A2975 RMK SF2SC6 SLP116

CYXE;2007-12-28 16:00;CYXE 281600Z 22005KT 8SM -SN OVC019 M12/M13 A2975 RMK SC8 SLP115

CYXE;2007-12-28 16:39;CYXE 281639Z 19004KT 12SM SCT019 BKN084 M12/ RMK SC3AC2

CYXE;2007-12-28 17:00;CYXE 281700Z 18004KT 12SM FEW012 SCT084 M12/M13 A2975 RMK SC2AC1 SLP116

CYXE;2007-12-28 17:21;CYXE 281721Z 19004KT 6SM -SN OVC019 M12/ RMK SC8

CYXE;2007-12-28 18:00;CYXE 281800Z 19002KT 6SM -SN OVC017 M10/M11 A2975 RMK SC8 SLP114

CYXE;2007-12-28 19:00;CYXE 281900Z 21003KT 6SM -SN OVC015 M10/M11 A2973 RMK SC8 SLP108

CYXE;2007-12-28 20:00;CYXE 282000Z 19002KT 6SM -SN OVC015 M09/M11 A2972 RMK SC8 SLP105

CYXE;2007-12-28 21:00;CYXE 282100Z 00000KT 8SM -SN OVC013 M08/M10 A2972 RMK SC8 SLP101

CYXE;2007-12-28 22:00;CYXE 282200Z 00000KT 12SM -SN OVC013 M08/M10 A2972 RMK SC8 SLP101

CYXE;2007-12-28 23:00;CYXE 282300Z 22002KT 12SM -SN OVC011 M08/M10 A2972 RMK SC8 SLP101

CYXE;2007-12-28 23:40;CYXE 282340Z 00000KT 12SM OVC011 M08/ RMK SC8

CYXE;2007-12-29 00:00;CYXE 290000Z 00000KT 12SM OVC011 M08/M10 A2971 RMK SC8 SLP099

CYXE;2007-12-29 01:00;CYXE 290100Z 00000KT 12SM -SN OVC011 M08/M10 A2970 RMK SC8 SLP097

CYXE;2007-12-29 02:00;CYXE 290200Z 16002KT 12SM -SN OVC011 M08/M09 A2970 RMK SC8 SLP097

CYXE;2007-12-29 03:00;CYXE 290300Z 05002KT 12SM -SN OVC011 M08/M10 A2969 RMK SC8 SLP094

CYXE;2007-12-29 04:00;CYXE 290400Z 04003KT 12SM -SN OVC011 M08/M10 A2968 RMK SC8 SLP091

CYXE;2007-12-29 05:00;CYXE 290500Z 00000KT 15SM -SN OVC010 M08/M09 A2968 RMK SC8 SLP089

CYXE;2007-12-29 06:00;CYXE 290600Z 12004KT 15SM -SN OVC010 M08/M10 A2967 RMK SC8 SLP085

CYXE;2007-12-29 06:21;CYXE 290621Z 13003KT 15SM -SN OVC009 M09/ RMK SC8

CYXE;2007-12-29 07:00;CYXE 290700Z 14002KT 15SM -SN OVC009 M09/M10 A2967 RMK SC8 SLP083

CYXE;2007-12-29 07:14;CYXE 290714Z 05005KT 15SM -SN OVC008 M09/ RMK SC8

CYXE;2007-12-29 08:00;CYXE 290800Z 06002KT 15SM -SN OVC007 M09/M10 A2966 RMK SC8 SLP081

CYXE;2007-12-29 09:00;CYXE 290900Z 05004KT 15SM -SN OVC006 M09/M10 A2966 RMK SC8 SLP079

CYXE;2007-12-29 10:00;CYXE 291000Z 06004KT 15SM -SN OVC006 M09/M10 A2966 RMK SC8 SLP080

CYXE;2007-12-29 10:56;CYXE 291056Z 07002KT 4SM -SN OVC005 M10/ RMK SC8

CYXE;2007-12-29 11:00;CYXE 291100Z 07003KT 4SM -SN BR OVC005 M10/M10 A2967 RMK SC8 SLP082

CYXE;2007-12-29 12:00;CYXE 291200Z 05004KT 4SM -SN OVC005 M10/M10 A2966 RMK SC8 SLP080

CYXE;2007-12-29 13:00;CYXE 291300Z 08004KT 5SM -SN BR OVC004 M10/M10 A2966 RMK SC8 SLP079

CYXE;2007-12-29 14:00;CYXE 291400Z 03004KT 3SM -SN OVC004 M10/M10 A2966 RMK SN4SF4 SLP080

CYXE;2007-12-29 14:53;CYXE 291453Z 08006KT 2SM -SN OVC003 M10/ RMK SN4SF4

CYXE;2007-12-29 15:00;CYXE 291500Z 08007KT 2SM -SN OVC003 M10/M11 A2965 RMK SN4SF4 SLP078

CYXE;2007-12-29 16:00;CYXE 291600Z 09002KT 4SM -SN OVC003 M11/M12 A2965 RMK SF8 SLP079

CYXE;2007-12-29 17:00;CYXE 291700Z 00000KT 2SM -SN OVC004 M11/M12 A2966 RMK SN3SF5 SLP081

CYXE;2007-12-29 17:30;CYXE 291730Z 19004KT 1SM R09/P6000FT/N -SN OVC005 M11/ RMK SN4SF4

CYXE;2007-12-29 17:53;CYXE 291753Z 22003KT 2SM -SN OVC007 M11/ RMK SF8

CYXE;2007-12-29 18:00;CYXE 291800Z 22003KT 1 1/2SM -SN OVC008 M11/M12 A2966 RMK SN3SF5 SLP081

CYXE;2007-12-29 18:35;CYXE 291835Z 21003KT 4SM -SN OVC010 M11/ RMK SF8

CYXE;2007-12-29 19:00;CYXE 291900Z 24003KT 4SM -SN OVC010 M11/M12 A2966 RMK SF8 SLP081

CYXE;2007-12-29 20:00;CYXE 292000Z 22003KT 5SM -SN OVC012 M11/M12 A2965 RMK SC8 SLP079

CYXE;2007-12-29 21:00;CYXE 292100Z 23004KT 6SM -SN OVC010 M11/M13 A2966 RMK SC8 SLP081

CYXE;2007-12-29 21:28;CYXE 292128Z 20004KT 8SM -SN OVC008 M11/ RMK SC8

CYXE;2007-12-29 22:00;CYXE 292200Z 21004KT 10SM -SN OVC008 M11/M13 A2966 RMK SC8 SLP081

CYXE;2007-12-29 23:00;CYXE 292300Z 19004KT 10SM -SN OVC008 M11/M13 A2966 RMK SC8 SLP082

CYXE;2007-12-30 00:00;CYXE 300000Z 19005KT 10SM -SN OVC009 M11/M13 A2967 RMK SC8 SLP086

CYXE;2007-12-30 01:00;CYXE 300100Z 19004KT 12SM -SN OVC009 M12/M13 A2967 RMK SC8 SLP086

CYXE;2007-12-30 02:00;CYXE 300200Z 21005KT 12SM -SN OVC009 M12/M13 A2966 RMK SC8 SLP084

CYXE;2007-12-30 03:00;CYXE 300300Z 21005KT 15SM -SN OVC009 M12/M13 A2966 RMK SC8 SLP084

CYXE;2007-12-30 04:00;CYXE 300400Z 21005KT 10SM -SN OVC007 M12/M13 A2966 RMK SC8 SLP082

CYXE;2007-12-30 05:00;CYXE 300500Z 25008KT 4SM -SN OVC006 M12/M13 A2965 RMK SC8 SLP081

CYXE;2007-12-30 05:19;CYXE 300519Z 23005KT 5SM -SN BR OVC008 M13/ RMK SC8

CYXE;2007-12-30 06:00;CYXE 300600Z 23006KT 6SM -SN BR BKN007 OVC031 M15/M15 A2964 RMK SC5SC2 SLP081

CYXE;2007-12-30 06:15;CYXE 300615Z 21005KT 6SM -SN BR BKN004 OVC031 M14/ RMK ST6SC2

CYXE;2007-12-30 06:37;CYXE 300637Z 21005KT 3SM -SN BR OVC002 M14/ RMK SF8 VIS SW-N 1/2-3/4

CYXE;2007-12-30 07:00;CYXE 300700Z 22006KT 3SM -SN BR OVC005 M14/M15 A2965 RMK SC8 SLP083

CYXE;2007-12-30 08:00;CYXE 300800Z 24008KT 4SM -SN BR OVC004 M15/M15 A2964 RMK SC8 SLP080

CYXE;2007-12-30 08:37;CYXE 300837Z 24005KT 2SM -SN BR OVC002 M16/ RMK SC8

CYXE;2007-12-30 08:52;CYXE 300852Z 25005KT 3SM -SN BR OVC004 M16/ RMK SC8

CYXE;2007-12-30 09:00;CYXE 300900Z 25005KT 4SM -SN BR OVC004 M16/M17 A2963 RMK SC8 SLP078

CYXE;2007-12-30 09:40;CYXE 300940Z 24003KT 3SM BR OVC002 M17/ RMK SC8

CYXE;2007-12-30 10:00;CYXE 301000Z 24004KT 4SM BR OVC004 M17/M18 A2963 RMK SC8 SLP077

CYXE;2007-12-30 10:53;CYXE 301053Z 27002KT 3SM R09/2400VP6000FT/D BR OVC004 M19/ RMK FG4SC4 VIS W-NE 1/4

CYXE;2007-12-30 11:00;CYXE 301100Z 30002KT 1/2SM R09/2000V3500FT/N FZFG VV001 M19/M19 A2964 RMK FG8 SLP080

CYXE;2007-12-30 11:19;CYXE 301119Z 25003KT 1 1/2SM R09/3000VP6000FT/U BR OVC003 M18/ RMK FG4ST4 VIS W-NE 1/2

CYXE;2007-12-30 11:32;CYXE 301132Z 22002KT 4SM -SN BR BKN003 OVC026 M18/ RMK FG2SF4SC2 VIS NW-N 1/2

CYXE;2007-12-30 12:00;CYXE 301200Z 21003KT 5SM -SN BR BKN004 OVC077 M18/M19 A2964 RMK SC6AC2 SLP082

CYXE;2007-12-30 13:00;CYXE 301300Z 19003KT 6SM -SN BR FEW004 OVC086 M19/M19 A2964 RMK ST2AC5 SLP081

CYXE;2007-12-30 14:00;CYXE 301400Z 00000KT 15SM -SN FEW004 FEW025 OVC085 M19/M20 A2964 RMK SF1SC2AC6 SLP082

CYXE;2007-12-30 15:00;CYXE 301500Z 34002KT 15SM FEW080 SCT220 M20/M20 A2965 RMK AC1CI1 IC SLP085

CYXE;2007-12-30 16:00;CYXE 301600Z 00000KT 12SM FEW080 SCT220 M20/M21 A2967 RMK AC2CI0 IC BR SLP091

CYXE;2007-12-30 17:00;CYXE 301700Z 36003KT 12SM FEW100 FEW220 M21/M21 A2968 RMK AC1CI1 BR SLP097

CYXE;2007-12-30 18:00;CYXE 301800Z 01002KT 12SM FEW100 BKN220 M19/M19 A2969 RMK AC1CI3 BR SLP102

CYXE;2007-12-30 19:00;CYXE 301900Z 01002KT 12SM SCT100 OVC220 M17/M18 A2970 RMK AC2CI4 BR SLP104

CYXE;2007-12-30 20:00;CYXE 302000Z 36005KT 12SM FEW100 OVC220 M17/M18 A2971 RMK AC1CI3 BR SLP107

CYXE;2007-12-30 20:43;CYXE 302043Z CCA 01005KT 5SM IC FEW090 BKN220 M17/ RMK AC2CI2

CYXE;2007-12-30 21:00;CYXE 302100Z 36005KT 5SM IC FEW040 SCT070 BKN220 M17/M18 A2973 RMK SC1AC2CI2 SLP116

CYXE;2007-12-30 22:00;CYXE 302200Z 33003KT 10SM SCT065 OVC280 M18/M19 A2975 RMK SC3CI2 SLP122

CYXE;2007-12-30 23:00;CYXE 302300Z 36007KT 12SM FEW075 OVC280 M19/M22 A2979 RMK AC2CI2 SLP136

CYXE;2007-12-31 00:00;CYXE 310000Z 00000KT 15SM SCT085 M21/M24 A2983 RMK AC2 SLP152

CYXE;2007-12-31 01:00;CYXE 310100Z 32002KT 15SM SCT090 BKN280 M22/M26 A2985 RMK AC2CI1 SLP160

CYXE;2007-12-31 02:00;CYXE 310200Z 35004KT 15SM -SN BKN090 M22/M26 A2987 RMK AC3 SLP166

CYXE;2007-12-31 03:00;CYXE 310300Z 34008KT 15SM -SN BKN090 M23/M26 A2990 RMK AC2 SLP179

CYXE;2007-12-31 04:00;CYXE 310400Z 33007KT 15SM -SN BKN090 M24/M28 A2992 RMK AC2 SLP186

CYXE;2007-12-31 05:00;CYXE 310500Z 28004KT 12SM -SN BKN017 BKN090 M23/M26 A2994 RMK SC6AC1 SLP194

CYXE;2007-12-31 05:51;CYXE 310551Z 32005KT 15SM FEW020 OVC090 M20/ RMK SC2AC5 IC

CYXE;2007-12-31 06:00;CYXE 310600Z 31005KT 15SM FEW020 OVC085 M20/M23 A2995 RMK SC2AC5 IC SLP196

CYXE;2007-12-31 07:00;CYXE 310700Z 31006KT 15SM FEW020 OVC085 M19/M22 A2997 RMK SC2AC6 IC SLP202

CYXE;2007-12-31 08:00;CYXE 310800Z 31007KT 15SM FEW020 OVC090 M19/M21 A2999 RMK SC2AC6 IC SLP208

CYXE;2007-12-31 09:00;CYXE 310900Z 31006KT 12SM FEW030 OVC070 M19/M21 A3002 RMK SC2AC6 IC SLP217

CYXE;2007-12-31 09:24;CYXE 310924Z 30008KT 2SM -SN OVC020 M19/ RMK SN3SC5

CYXE;2007-12-31 09:40;CYXE 310940Z 31008KT 10SM -SN SCT020 OVC075 M19/ RMK SC3AC5

CYXE;2007-12-31 09:47;CYXE 310947Z 32007KT 4SM -SN OVC022 M19/ RMK SN4SC4

CYXE;2007-12-31 10:00;CYXE 311000Z 31007KT 4SM -SN OVC020 M19/M22 A3004 RMK SN4SC4 SLP224

CYXE;2007-12-31 11:00;CYXE 311100Z 31007KT 10SM -SN BKN050 OVC080 M19/M22 A3006 RMK SC6AC2 MOON DMLY VIS SLP231

CYXE;2007-12-31 12:00;CYXE 311200Z 31008KT 10SM -SN SCT030 OVC050 M19/M21 A3009 RMK SC3SC5 SLP243

CYXE;2007-12-31 13:00;CYXE 311300Z 31009KT 3SM -SN FEW020 BKN050 M18/M21 A3011 RMK SC1SC6 SLP251

CYXE;2007-12-31 14:00;CYXE 311400Z 31010KT 8SM -SN FEW040 BKN090 M19/M21 A3014 RMK SC2AC5 SLP259

CYXE;2007-12-31 14:15;CYXE 311415Z 31009KT 15SM SCT040 M19/ RMK SC2 IC

CYXE;2007-12-31 15:00;CYXE 311500Z 32010KT 15SM FEW040 M20/M24 A3017 RMK SC1 SLP273

CYXE;2007-12-31 16:00;CYXE 311600Z 32010KT 15SM FEW040 M21/M24 A3021 RMK SC1 SLP286

CYXE;2007-12-31 17:00;CYXE 311700Z 32008KT 15SM SKC M21/M24 A3023 RMK SLP294

CYXE;2007-12-31 18:00;CYXE 311800Z 31006KT 15SM SKC M20/M24 A3026 RMK SLP302

CYXE;2007-12-31 19:00;CYXE 311900Z 32007KT 15SM SKC M20/M23 A3027 RMK SLP306

CYXE;2007-12-31 20:00;CYXE 312000Z 32009KT 15SM SKC M19/M22 A3030 RMK SLP314

CYXE;2007-12-31 21:00;CYXE 312100Z 31007KT 15SM SKC M19/M23 A3032 RMK SLP320

CYXE;2007-12-31 22:00;CYXE 312200Z 31009KT 15SM SKC M19/M23 A3034 RMK SLP328

CYXE;2007-12-31 23:00;CYXE 312300Z 30008KT 15SM SKC M21/M24 A3038 RMK SLP339

