CYXE;2016-01-01 00:00;CYXE 010000Z 24014KT 15SM FEW170 BKN240 M06/M10 A2999 RMK AC2CI3 SLP198

CYXE;2016-01-01 01:00;CYXE 010100Z 26012KT 15SM FEW170 BKN240 M07/M11 A2999 RMK AC2CI3 SLP198

CYXE;2016-01-01 02:00;CYXE 010200Z 28008KT 180V290 15SM FEW190 SCT240 M08/M11 A2999 RMK AC2CI2 SLP200

CYXE;2016-01-01 03:00;CYXE 010300Z 30011KT 15SM SCT200 M06/M10 A3000 RMK CI3 CC ASOCTD SLP200

CYXE;2016-01-01 04:00;CYXE 010400Z 30010KT 15SM SKC M06/M10 A3001 RMK SLP205

CYXE;2016-01-01 05:00;CYXE 010500Z 31017KT 15SM SKC M05/M09 A3002 RMK SLP206

CYXE;2016-01-01 06:00;CYXE 010600Z 31016G22KT 15SM SKC M05/M09 A3002 RMK SLP205

CYXE;2016-01-01 07:00;CYXE 010700Z 31015KT 15SM SKC M05/M09 A3004 RMK SLP210

CYXE;2016-01-01 08:00;CYXE 010800Z 30009KT 15SM SKC M06/M09 A3006 RMK SLP216

CYXE;2016-01-01 09:00;CYXE 010900Z 30009KT 15SM SKC M06/M10 A3008 RMK SLP223

CYXE;2016-01-01 10:00;CYXE 011000Z 30007KT 15SM SKC M07/M10 A3010 RMK SLP228

CYXE;2016-01-01 11:00;CYXE 011100Z 27008KT 15SM SKC M10/M12 A3010 RMK SLP234

CYXE;2016-01-01 12:00;CYXE 011200Z CCA 27008KT 15SM SKC M10/M12 A3011 RMK FROIN SLP235

CYXE;2016-01-01 13:00;CYXE 011300Z 23010KT 15SM SKC M10/M12 A3010 RMK SLP235

CYXE;2016-01-01 14:00;CYXE 011400Z 23007KT 15SM SKC M11/M13 A3011 RMK SLP239

CYXE;2016-01-01 15:00;CYXE 011500Z 23009KT 15SM SKC M11/M13 A3010 RMK SLP234

CYXE;2016-01-01 16:00;CYXE 011600Z 24009KT 15SM SKC M09/M12 A3011 RMK SLP237

CYXE;2016-01-01 17:00;CYXE 011700Z 25012KT 15SM SKC M07/M11 A3011 RMK SLP233

CYXE;2016-01-01 18:00;CYXE 011800Z 23012KT 15SM SKC M06/M11 A3010 RMK SLP229

CYXE;2016-01-01 19:00;CYXE 011900Z 25013KT 15SM SKC M05/M11 A3009 RMK SLP223

CYXE;2016-01-01 20:00;CYXE 012000Z 24011KT 15SM SKC M03/M10 A3006 RMK SLP213

CYXE;2016-01-01 21:00;CYXE 012100Z 24016KT 15SM SKC M03/M09 A3004 RMK PRESFR SLP206

CYXE;2016-01-01 22:00;CYXE 012200Z 25012KT 15SM SKC M04/M09 A3002 RMK SLP203

CYXE;2016-01-01 23:00;CYXE 012300Z 24010KT 15SM SKC M04/M10 A3003 RMK SLP208

CYXE;2016-01-02 00:00;CYXE 020000Z 25010KT 15SM SKC M07/M11 A3004 RMK SLP212

CYXE;2016-01-02 01:00;CYXE 020100Z 22005KT 15SM SKC M06/M10 A3005 RMK SLP216

CYXE;2016-01-02 02:00;CYXE 020200Z 29011KT 15SM SKC M04/M10 A3005 RMK SLP214

CYXE;2016-01-02 03:00;CYXE 020300Z 29011KT 15SM SKC M04/M09 A3006 RMK SLP217

CYXE;2016-01-02 04:00;CYXE 020400Z 29014KT 15SM SKC M04/M10 A3006 RMK SLP216

CYXE;2016-01-02 05:00;CYXE 020500Z 29010KT 15SM SKC M05/M10 A3007 RMK SLP220

CYXE;2016-01-02 06:00;CYXE 020600Z 29009KT 15SM FEW200 M06/M11 A3009 RMK CI2 SLP225

CYXE;2016-01-02 07:00;CYXE 020700Z 30010KT 15SM SKC M07/M11 A3010 RMK SLP229

CYXE;2016-01-02 08:00;CYXE 020800Z 31011KT 15SM SKC M06/M11 A3010 RMK SLP228

CYXE;2016-01-02 09:00;CYXE 020900Z 31014KT 15SM SKC M05/M10 A3011 RMK SLP230

CYXE;2016-01-02 10:00;CYXE 021000Z 30009KT 15SM SKC M06/M11 A3013 RMK SLP237

CYXE;2016-01-02 11:00;CYXE 021100Z 32011KT 15SM SKC M06/M11 A3014 RMK SLP243

CYXE;2016-01-02 12:00;CYXE 021200Z 30011KT 15SM SKC M07/M11 A3016 RMK SLP250

CYXE;2016-01-02 13:00;CYXE 021300Z 30009KT 15SM SKC M09/M12 A3018 RMK SLP258

CYXE;2016-01-02 14:00;CYXE 021400Z 29010KT 15SM SKC M11/M13 A3019 RMK SLP263

CYXE;2016-01-02 15:00;CYXE 021500Z 23006KT 15SM SKC M12/M14 A3020 RMK SLP268

CYXE;2016-01-02 16:00;CYXE 021600Z 24006KT 15SM SKC M13/M15 A3022 RMK SLP274

CYXE;2016-01-02 17:00;CYXE 021700Z 29005KT 15SM SKC M09/M13 A3024 RMK SLP278

CYXE;2016-01-02 18:00;CYXE 021800Z 29007KT 15SM SKC M05/M10 A3023 RMK SLP276

CYXE;2016-01-02 19:00;CYXE 021900Z 28009KT 15SM SKC M04/M09 A3023 RMK SLP275

CYXE;2016-01-02 20:00;CYXE 022000Z 30007KT 15SM SKC M03/M08 A3023 RMK SLP272

CYXE;2016-01-02 21:00;CYXE 022100Z 29005KT 15SM SKC M03/M08 A3023 RMK SLP272

CYXE;2016-01-02 22:00;CYXE 022200Z 26003KT 15SM FEW220 M04/M09 A3025 RMK CI1 SLP280

CYXE;2016-01-02 23:00;CYXE 022300Z 23007KT 15SM FEW220 M06/M10 A3024 RMK CI1 SLP278

CYXE;2016-01-03 00:00;CYXE 030000Z 23007KT 15SM SKC M09/M12 A3025 RMK SLP283

CYXE;2016-01-03 01:00;CYXE 030100Z 22006KT 15SM SKC M11/M12 A3024 RMK SLP283

CYXE;2016-01-03 02:00;CYXE 030200Z 23007KT 15SM FEW200 M12/M13 A3023 RMK CI2 SLP282

CYXE;2016-01-03 03:00;CYXE 030300Z 21005KT 15SM FEW200 M11/M13 A3023 RMK CI2 SLP283

CYXE;2016-01-03 04:00;CYXE 030400Z 18004KT 15SM SKC M12/M13 A3024 RMK SLP288

CYXE;2016-01-03 05:00;CYXE 030500Z 21004KT 15SM SKC M13/M14 A3024 RMK SLP285

CYXE;2016-01-03 06:00;CYXE 030600Z 21006KT 15SM SKC M13/M14 A3024 RMK SLP282

CYXE;2016-01-03 07:00;CYXE 030700Z 20006KT 15SM SKC M14/M15 A3024 RMK SLP281

CYXE;2016-01-03 08:00;CYXE 030800Z 19006KT 15SM SKC M13/M15 A3022 RMK SLP275

CYXE;2016-01-03 09:00;CYXE 030900Z 20006KT 15SM SKC M14/M16 A3023 RMK SLP280

CYXE;2016-01-03 10:00;CYXE 031000Z 20007KT 15SM SKC M15/M16 A3023 RMK SLP279

CYXE;2016-01-03 11:00;CYXE 031100Z 19004KT 15SM SKC M14/M16 A3023 RMK SLP279

CYXE;2016-01-03 12:00;CYXE 031200Z 18005KT 15SM SKC M15/M17 A3023 RMK SLP281

CYXE;2016-01-03 13:00;CYXE 031300Z 19006KT 15SM SKC M15/M16 A3021 RMK SLP277

CYXE;2016-01-03 14:00;CYXE 031400Z 18005KT 15SM SKC M15/M17 A3022 RMK SLP279

CYXE;2016-01-03 15:00;CYXE 031500Z 19007KT 15SM SKC M14/M16 A3021 RMK SLP276

CYXE;2016-01-03 16:00;CYXE 031600Z 19006KT 15SM SKC M14/M16 A3022 RMK SLP281

CYXE;2016-01-03 17:00;CYXE 031700Z 21008KT 15SM SKC M12/M15 A3022 RMK SLP280

CYXE;2016-01-03 18:00;CYXE 031800Z 21007KT 15SM SKC M10/M14 A3022 RMK SLP279

CYXE;2016-01-03 19:00;CYXE 031900Z 21008KT 15SM SKC M08/M13 A3019 RMK SLP267

CYXE;2016-01-03 20:00;CYXE 032000Z 21006KT 15SM SKC M06/M12 A3017 RMK SLP258

CYXE;2016-01-03 21:00;CYXE 032100Z 16004KT 15SM SKC M05/M11 A3015 RMK SLP253

CYXE;2016-01-03 22:00;CYXE 032200Z 17004KT 15SM SKC M06/M11 A3014 RMK SLP247

CYXE;2016-01-03 23:00;CYXE 032300Z 18006KT 15SM SKC M08/M13 A3014 RMK SLP251

CYXE;2016-01-04 00:00;CYXE 040000Z 15004KT 15SM SKC M10/M13 A3013 RMK SLP247

CYXE;2016-01-04 01:00;CYXE 040100Z 16007KT 15SM SKC M10/M13 A3010 RMK SLP240

CYXE;2016-01-04 02:00;CYXE 040200Z 18008KT 15SM SKC M10/M12 A3010 RMK SLP238

CYXE;2016-01-04 03:00;CYXE 040300Z 19006KT 15SM SKC M11/M13 A3008 RMK SLP230

CYXE;2016-01-04 04:00;CYXE 040400Z 19005KT 15SM SKC M12/M14 A3006 RMK SLP227

CYXE;2016-01-04 05:00;CYXE 040500Z 18004KT 15SM SCT200 M10/M12 A3004 RMK CI3 SLP214

CYXE;2016-01-04 06:00;CYXE 040600Z 17006KT 15SM FEW200 M11/M13 A3002 RMK CI2 SLP209

CYXE;2016-01-04 07:00;CYXE 040700Z 16005KT 15SM FEW200 M11/M13 A3000 RMK CI2 SLP200

CYXE;2016-01-04 08:00;CYXE 040800Z 18005KT 15SM FEW200 M10/M12 A2998 RMK CI2 SLP190

CYXE;2016-01-04 09:00;CYXE 040900Z 16005KT 15SM SCT200 M10/M12 A2996 RMK CI3 SLP183

CYXE;2016-01-04 10:00;CYXE 041000Z 19003KT 180V250 15SM SCT200 M09/M12 A2993 RMK CI3 SLP175

CYXE;2016-01-04 11:00;CYXE 041100Z 18008KT 15SM BKN200 M07/M10 A2991 RMK CI5 SLP167

CYXE;2016-01-04 12:00;CYXE 041200Z 20009KT 15SM OVC150 M07/M10 A2989 RMK AS8 SLP162

CYXE;2016-01-04 13:00;CYXE 041300Z 18009KT 15SM OVC140 M07/M10 A2987 RMK AS8 SLP153

CYXE;2016-01-04 14:00;CYXE 041400Z 18008KT 15SM SCT140 M08/M10 A2985 RMK AC3 SLP147

CYXE;2016-01-04 15:00;CYXE 041500Z 20008KT 15SM BKN180 M08/M10 A2984 RMK AC6 SLP144

CYXE;2016-01-04 16:00;CYXE 041600Z 20009KT 15SM FEW160 BKN280 M08/M10 A2982 RMK AC2CI4 SLP139

CYXE;2016-01-04 17:00;CYXE 041700Z 22010KT 15SM FEW160 SCT280 M07/M10 A2983 RMK AC2CI2 SLP138

CYXE;2016-01-04 18:00;CYXE 041800Z 24010KT 15SM FEW160 SCT280 M06/M09 A2982 RMK AC2CI2 SLP136

CYXE;2016-01-04 19:00;CYXE 041900Z 23011KT 15SM FEW160 SCT280 M05/M09 A2980 RMK AC2CI1 SLP128

CYXE;2016-01-04 20:00;CYXE 042000Z 24010KT 15SM FEW160 BKN280 M05/M09 A2979 RMK AC2CI4 SLP126

CYXE;2016-01-04 21:00;CYXE 042100Z 26004KT 15SM SCT180 BKN250 M04/M09 A2979 RMK AC3CI2 SLP126

CYXE;2016-01-04 22:00;CYXE 042200Z 30008KT 15SM FEW180 BKN250 M07/M12 A2981 RMK AC2CI3 SLP132

CYXE;2016-01-04 23:00;CYXE 042300Z 30009KT 15SM FEW160 SCT250 M09/M13 A2982 RMK AC2CI2 SLP136

CYXE;2016-01-05 00:00;CYXE 050000Z 29010KT 15SM SCT250 M12/M14 A2983 RMK CI3 SLP143

CYXE;2016-01-05 01:00;CYXE 050100Z 31009KT 15SM SCT250 M13/M15 A2986 RMK CI3 SLP152

CYXE;2016-01-05 02:00;CYXE 050200Z 29009KT 15SM SKC M14/M17 A2986 RMK SLP155

CYXE;2016-01-05 03:00;CYXE 050300Z 31012KT 15SM SKC M14/M16 A2988 RMK SLP160

CYXE;2016-01-05 04:00;CYXE 050400Z 31010KT 15SM SKC M14/M16 A2988 RMK SLP162

CYXE;2016-01-05 05:00;CYXE 050500Z 32011KT 15SM SKC M14/M17 A2989 RMK SLP164

CYXE;2016-01-05 06:00;CYXE 050600Z 32007KT 15SM SKC M15/M18 A2990 RMK SLP168

CYXE;2016-01-05 07:00;CYXE 050700Z 25004KT 230V290 15SM SKC M17/M19 A2992 RMK SLP175

CYXE;2016-01-05 08:00;CYXE 050800Z 28005KT 15SM SKC M18/M20 A2994 RMK SLP182

CYXE;2016-01-05 09:00;CYXE 050900Z 30006KT 15SM SKC M18/M20 A2996 RMK SLP189

CYXE;2016-01-05 10:00;CYXE 051000Z 34004KT 260V010 15SM SKC M17/M19 A2996 RMK SLP191

CYXE;2016-01-05 11:00;CYXE 051100Z 28005KT 15SM SKC M18/M20 A2997 RMK SLP196

CYXE;2016-01-05 12:00;CYXE 051200Z 24005KT 15SM SKC M19/M21 A2999 RMK SLP203

CYXE;2016-01-05 13:00;CYXE 051300Z 28004KT 15SM SKC M19/M21 A2999 RMK SLP204

CYXE;2016-01-05 14:00;CYXE 051400Z 31004KT 15SM SCT210 M19/M21 A2999 RMK CI4 SLP207

CYXE;2016-01-05 15:00;CYXE 051500Z 33003KT 15SM SCT210 M18/M20 A3000 RMK CI4 SLP209

CYXE;2016-01-05 16:00;CYXE 051600Z 02006KT 15SM SCT120 BKN210 M17/M19 A2999 RMK AC3CI4 SLP206

CYXE;2016-01-05 17:00;CYXE 051700Z 00000KT 15SM BKN120 OVC210 M14/M16 A3000 RMK AC5CI3 SLP206

CYXE;2016-01-05 18:00;CYXE 051800Z VRB02KT 15SM BKN110 OVC210 M12/M13 A3001 RMK AC6CI2 SLP208

CYXE;2016-01-05 19:00;CYXE 051900Z VRB02KT 15SM BKN110 BKN210 M10/M12 A3001 RMK AC6CI1 SLP207

CYXE;2016-01-05 20:00;CYXE 052000Z 05005KT 15SM BKN110 BKN210 M09/M11 A3000 RMK AC5CI2 SLP206

CYXE;2016-01-05 21:00;CYXE 052100Z 06008KT 15SM SCT110 BKN210 M09/M12 A2999 RMK AC4CI3 SLP201

CYXE;2016-01-05 22:00;CYXE 052200Z 07005KT 15SM BKN120 BKN210 M09/M11 A2998 RMK AC6CI1 SLP197

CYXE;2016-01-05 23:00;CYXE 052300Z 10003KT 15SM BKN130 M08/M11 A2998 RMK AC7 SLP197

CYXE;2016-01-06 00:00;CYXE 060000Z 05005KT 15SM BKN100 BKN140 M08/M10 A2998 RMK AC5AC2 SLP199

CYXE;2016-01-06 01:00;CYXE 060100Z 06003KT 15SM BKN100 OVC140 M10/M12 A2999 RMK AC5AC3 SLP203

CYXE;2016-01-06 02:00;CYXE 060200Z 06004KT 15SM SCT100 BKN150 M10/M12 A2998 RMK AC4AC3 SLP200

CYXE;2016-01-06 03:00;CYXE 060300Z 06005KT 15SM SCT080 BKN150 M10/M11 A2998 RMK AC3AC4 SLP198

CYXE;2016-01-06 04:00;CYXE 060400Z 06005KT 15SM BKN090 OVC150 M10/M12 A2998 RMK AC5AC3 SLP198

CYXE;2016-01-06 05:00;CYXE 060500Z 07005KT 15SM BKN090 BKN150 M09/M11 A2997 RMK AC5AC2 SLP193

CYXE;2016-01-06 06:00;CYXE 060600Z 06005KT 15SM BKN080 OVC120 M09/M10 A2999 RMK AC6AC2 SLP197

CYXE;2016-01-06 07:00;CYXE 060700Z 09004KT 15SM OVC080 M08/M10 A2998 RMK AC8 SLP193

CYXE;2016-01-06 08:00;CYXE 060800Z 05006KT 15SM OVC070 M08/M10 A2998 RMK AC8 SLP193

CYXE;2016-01-06 09:00;CYXE 060900Z 08006KT 15SM OVC070 M08/M09 A2998 RMK AC8 SLP192

CYXE;2016-01-06 10:00;CYXE 061000Z 08005KT 15SM FEW057 OVC065 M07/M09 A2999 RMK SC2SC6 SLP195

CYXE;2016-01-06 11:00;CYXE 061100Z 09009KT 15SM SCT055 OVC065 M06/M08 A2998 RMK SC4SC4 SLP189

CYXE;2016-01-06 11:38;CYXE 061138Z 08006KT 15SM -SN SCT065 OVC065 M06/M08 A2997 RMK SC3SC5 SLP188

CYXE;2016-01-06 12:00;CYXE 061200Z 08006KT 15SM -SN SCT055 OVC074 M06/M08 A2997 RMK SC3AC5 SLP188

CYXE;2016-01-06 13:00;CYXE 061300Z 09007KT 15SM -SN FEW055 OVC075 M06/M08 A2996 RMK SC1AC7 SLP186

CYXE;2016-01-06 14:00;CYXE 061400Z 11012KT 15SM -SN OVC060 M05/M08 A2996 RMK SC8 SLP184

CYXE;2016-01-06 15:00;CYXE 061500Z 12010KT 15SM -SN OVC050 M05/M08 A2996 RMK SC8 SLP185

CYXE;2016-01-06 15:30;CYXE 061530Z 12011KT 3SM -SN DRSN OVC050 M05/M08 A2997 RMK SC8 SLP186

CYXE;2016-01-06 16:00;CYXE 061600Z 11009KT 5SM -SN DRSN BKN023 OVC050 M05/M08 A2998 RMK SC6SC2 SLP190

CYXE;2016-01-06 17:00;CYXE 061700Z 12012KT 5SM -SN BKN018 OVC050 M05/M07 A2996 RMK SC5SC3 SLP185

CYXE;2016-01-06 18:00;CYXE 061800Z 13010KT 5SM -SN FEW018 SCT030 OVC045 M05/M07 A2997 RMK SC2SC2SC4 SLP185

CYXE;2016-01-06 19:00;CYXE 061900Z 13009KT 5SM -SN DRSN FEW009 SCT025 OVC050 M04/M06 A2994 RMK SF1SC2SC5 SLP176

CYXE;2016-01-06 20:00;CYXE 062000Z 12009KT 3SM -SN DRSN FEW008 OVC021 M04/M06 A2993 RMK SF1SC7 SLP173

CYXE;2016-01-06 20:31;CYXE 062031Z 10008KT 2 1/2SM -SN SCT008 OVC024 M04/M05 A2993 RMK SF3SC5 SLP172

CYXE;2016-01-06 21:00;CYXE 062100Z 10008KT 2SM -SN DRSN VV008 M04/M05 A2993 RMK SN8 SLP171

CYXE;2016-01-06 21:26;CYXE 062126Z 09008KT 2SM -SN DRSN SCT008 BKN012 OVC025 M04/M05 A2993 RMK SF3SC3SC2 SLP171

CYXE;2016-01-06 22:00;CYXE 062200Z 09009KT 2 1/2SM -SN DRSN BKN011 OVC025 M04/M05 A2992 RMK SC6SC2 SLP168

CYXE;2016-01-06 23:00;CYXE 062300Z 11009KT 2 1/2SM -SN DRSN BKN010 OVC044 M04/M05 A2992 RMK SC6SC2 /S01/ SLP166

CYXE;2016-01-06 23:07;CYXE 062307Z 11008KT 4SM -SN DRSN SCT011 OVC045 M04/M05 A2992 RMK SC4SC4 SLP167

CYXE;2016-01-07 00:00;CYXE 070000Z 08006KT 15SM -SN BKN010 OVC015 M05/M05 A2993 RMK SC6SC2 SLP169

CYXE;2016-01-07 01:00;CYXE 070100Z 09010KT 15SM BKN010 OVC015 M05/M06 A2992 RMK SC6SC2 SLP166

CYXE;2016-01-07 02:00;CYXE 070200Z 06006KT 15SM -SN OVC010 M06/M07 A2992 RMK SC8 SLP166

CYXE;2016-01-07 03:00;CYXE 070300Z 07007KT 5SM -SN OVC009 M06/M07 A2991 RMK SC8 SLP163

CYXE;2016-01-07 03:25;CYXE 070325Z 06007KT 2 1/2SM -SN OVC009 M06/M06 A2991 RMK SC8 SLP162

CYXE;2016-01-07 04:00;CYXE 070400Z 04009KT 2 1/2SM -SN OVC009 M08/M08 A2991 RMK SC8 SLP165

CYXE;2016-01-07 04:15;CYXE 070415Z 04010KT 8SM -SN OVC009 M08/M09 A2991 RMK SC8 SLP164

CYXE;2016-01-07 05:00;CYXE 070500Z 04011KT 8SM -SN OVC008 M08/M09 A2991 RMK ST8 SLP164

CYXE;2016-01-07 05:23;CYXE 070523Z 04010KT 2SM -SN OVC008 M08/M09 A2991 RMK ST8 SLP166

CYXE;2016-01-07 06:00;CYXE 070600Z 04011KT 2SM -SN OVC008 M08/M09 A2991 RMK ST8 /S02/ SLP165

CYXE;2016-01-07 06:48;CYXE 070648Z 05011KT 3SM -SN OVC009 M08/M09 A2991 RMK ST8 SLP164

CYXE;2016-01-07 07:00;CYXE 070700Z 06009KT 3SM -SN OVC009 M08/M09 A2990 RMK ST8 SLP161

CYXE;2016-01-07 07:26;CYXE 070726Z 05009KT 2SM -SN OVC008 M08/M09 A2989 RMK ST8 SLP159

CYXE;2016-01-07 07:44;CYXE 070744Z 05010KT 6SM -SN SCT008 BKN020 OVC066 M08/M09 A2989 RMK ST4SC3AC1 SLP159

CYXE;2016-01-07 08:00;CYXE 070800Z 05008KT 6SM -SN SCT008 BKN020 OVC066 M08/M09 A2989 RMK ST3SC2AC3 /S01/ SLP159

CYXE;2016-01-07 09:00;CYXE 070900Z 04010KT 6SM -SN FEW020 OVC054 M08/M09 A2990 RMK SC2SC6 SLP160

CYXE;2016-01-07 10:00;CYXE 071000Z 04010KT 8SM -SN FEW040 OVC054 M09/M09 A2990 RMK SC1SC7 SLP162

CYXE;2016-01-07 11:00;CYXE 071100Z 02013KT 8SM -SN FEW011 SCT043 OVC054 M09/M11 A2992 RMK SC2SC2SC4 SLP168

CYXE;2016-01-07 11:25;CYXE 071125Z 02016KT 5SM -SN BKN013 OVC043 M10/M11 A2992 RMK ST5SC3 SLP168

CYXE;2016-01-07 12:00;CYXE 071200Z 03016KT 5SM -SN BKN013 OVC051 M10/M11 A2993 RMK ST5SC3 /S02/ SLP174

CYXE;2016-01-07 12:51;CYXE 071251Z 03013G21KT 6SM -SN SCT013 OVC056 M11/M12 A2995 RMK ST4SC4 SLP180

CYXE;2016-01-07 13:00;CYXE 071300Z 02015KT 6SM -SN SCT013 OVC057 M11/M13 A2995 RMK ST3SC5 SLP181

CYXE;2016-01-07 14:00;CYXE 071400Z 03014KT 6SM -SN DRSN SCT065 OVC100 M12/M14 A2997 RMK SC4AC4 SLP188

CYXE;2016-01-07 15:00;CYXE 071500Z 03013G19KT 6SM -SN DRSN OVC070 M13/M15 A2999 RMK AC8 SLP197

CYXE;2016-01-07 16:00;CYXE 071600Z 03013KT 4SM -SN DRSN VV050 M13/M15 A3002 RMK SN8 SLP209

CYXE;2016-01-07 17:00;CYXE 071700Z 03016KT 5SM -SN DRSN OVC070 M13/M15 A3005 RMK AC8 SLP219

CYXE;2016-01-07 17:18;CYXE 071718Z 03016KT 1 1/2SM -SN DRSN VV040 M13/M15 A3005 RMK SN8 SLP220

CYXE;2016-01-07 17:42;CYXE 071742Z 03014KT 4SM -SN DRSN OVC070 M13/M15 A3006 RMK AC8 SLP223

CYXE;2016-01-07 18:00;CYXE 071800Z 02013KT 15SM -SN DRSN SCT070 BKN180 M13/M15 A3007 RMK AC3AC4 SLP224

CYXE;2016-01-07 18:06;CYXE 071806Z 03013KT 15SM FEW070 BKN180 M13/M15 A3007 RMK AC2AC5 SLP224

CYXE;2016-01-07 19:00;CYXE 071900Z 02016KT 15SM FEW015 BKN180 M13/M16 A3007 RMK SC1AC6 SLP227

CYXE;2016-01-07 20:00;CYXE 072000Z 01009KT 15SM FEW015 BKN170 M13/M16 A3008 RMK SC1AC6 SLP230

CYXE;2016-01-07 21:00;CYXE 072100Z 36013KT 15SM SCT017 BKN170 M14/M17 A3009 RMK SC3AC4 SLP232

CYXE;2016-01-07 22:00;CYXE 072200Z 01010KT 15SM BKN017 OVC170 M15/M18 A3012 RMK SC6AC2 SLP243

CYXE;2016-01-07 23:00;CYXE 072300Z 02010KT 15SM OVC017 M15/M18 A3015 RMK SC8 SLP255

CYXE;2016-01-08 00:00;CYXE 080000Z 01011KT 15SM OVC014 M15/M17 A3017 RMK SC8 SLP262

CYXE;2016-01-08 00:50;CYXE 080050Z 01013KT 12SM -SN SCT008 OVC016 M15/M17 A3018 RMK SF4SC4 SLP267

CYXE;2016-01-08 01:00;CYXE 080100Z 01013KT 12SM -SN SCT008 OVC016 M15/M17 A3018 RMK SF3SC5 SLP267

CYXE;2016-01-08 02:00;CYXE 080200Z 36009KT 12SM -SN SCT008 OVC012 M15/M17 A3020 RMK SF4SF4 SLP275

CYXE;2016-01-08 03:00;CYXE 080300Z 36009KT 12SM -SN OVC009 M15/M17 A3020 RMK SF8 SLP275

CYXE;2016-01-08 04:00;CYXE 080400Z 02008KT 12SM -SN OVC009 M16/M18 A3020 RMK SF8 SLP277

CYXE;2016-01-08 05:00;CYXE 080500Z 01008KT 15SM -SN OVC009 M16/M18 A3022 RMK SF8 SLP281

CYXE;2016-01-08 06:00;CYXE 080600Z 01009KT 15SM -SN OVC010 M17/M19 A3023 RMK SC8 SLP286

CYXE;2016-01-08 07:00;CYXE 080700Z CCA 01005KT 15SM -SN OVC010 M17/M19 A3023 RMK SC8 SLP288

CYXE;2016-01-08 08:00;CYXE 080800Z 02003KT 15SM -SN OVC011 M17/M19 A3022 RMK SC8 SLP284

CYXE;2016-01-08 09:00;CYXE 080900Z 02002KT 15SM -SN OVC013 M17/M19 A3022 RMK SC8 SLP282

CYXE;2016-01-08 10:00;CYXE 081000Z 00000KT 15SM -SN OVC014 M17/M19 A3022 RMK SC8 SLP284

CYXE;2016-01-08 11:00;CYXE 081100Z 32007KT 15SM -SN OVC013 M16/M19 A3022 RMK SC8 SLP285

CYXE;2016-01-08 12:00;CYXE 081200Z 30009KT 15SM -SN OVC014 M17/M18 A3022 RMK SC8 SLP284

CYXE;2016-01-08 13:00;CYXE 081300Z 29008KT 15SM -SN OVC010 M17/M19 A3022 RMK SC8 SLP283

CYXE;2016-01-08 14:00;CYXE 081400Z 30007KT 15SM -SN OVC010 M17/M19 A3022 RMK SC8 SLP284

CYXE;2016-01-08 15:00;CYXE 081500Z 29006KT 15SM -SN OVC010 M17/M19 A3022 RMK SC8 SLP284

CYXE;2016-01-08 16:00;CYXE 081600Z 31005KT 15SM -SN OVC010 M17/M19 A3023 RMK SC8 SLP287

CYXE;2016-01-08 16:18;CYXE 081618Z 01008KT 310V020 3SM -SN OVC010 M17/M20 A3023 RMK SC8 SLP289

CYXE;2016-01-08 17:00;CYXE 081700Z 36005KT 10SM -SN OVC015 M17/M19 A3023 RMK SC8 SLP291

CYXE;2016-01-08 18:00;CYXE 081800Z 02006KT 8SM -SN OVC013 M17/M20 A3024 RMK SC8 SLP293

CYXE;2016-01-08 18:24;CYXE 081824Z 02007KT 1 1/2SM -SN OVC013 M17/M20 A3024 RMK SC8 SLP292

CYXE;2016-01-08 18:33;CYXE 081833Z 02007KT 8SM -SN OVC012 M17/M20 A3023 RMK SC8 OCNL -SHSN SLP291

CYXE;2016-01-08 19:00;CYXE 081900Z 02008KT 10SM -SN OVC012 M17/M20 A3023 RMK SC8 OCNL -SHSN SLP291

CYXE;2016-01-08 19:51;CYXE 081951Z 02006KT 10SM -SN OVC015 M17/M20 A3023 RMK SC8 OCNL -SHSN SLP291

CYXE;2016-01-08 20:00;CYXE 082000Z 02007KT 5SM -SN OVC015 M17/M21 A3023 RMK SC8 OCNL -SHSN SLP290

CYXE;2016-01-08 21:00;CYXE 082100Z 01008KT 8SM -SN BKN020 M18/M21 A3023 RMK SC7 OCNL -SHSN SLP291

CYXE;2016-01-08 22:00;CYXE 082200Z 36010KT 5SM -SHSN OVC020 M18/M21 A3025 RMK SC8 SLP297

CYXE;2016-01-08 22:41;CYXE 082241Z 02008KT 9SM OVC020 M18/M21 A3025 RMK SC8 SLP298

CYXE;2016-01-08 23:00;CYXE 082300Z 01009KT 15SM OVC022 M19/M22 A3026 RMK SC8 SLP300

CYXE;2016-01-09 00:00;CYXE 090000Z 34005KT 15SM SCT022 SCT200 M21/M25 A3028 RMK SC3CI1 SLP309

CYXE;2016-01-09 01:00;CYXE 090100Z 33006KT 15SM IC FEW023 M23/M25 A3029 RMK SC2 SLP314

CYXE;2016-01-09 02:00;CYXE 090200Z 34007KT 15SM IC FEW024 M25/M27 A3029 RMK SC2 SLP317

CYXE;2016-01-09 02:40;CYXE 090240Z 33007KT 15SM IC BKN020 M23/M25 A3029 RMK SC6 SLP314

CYXE;2016-01-09 03:00;CYXE 090300Z 33004KT 15SM IC OVC020 M23/M26 A3029 RMK SC8 SLP314

CYXE;2016-01-09 04:00;CYXE 090400Z 35004KT 15SM IC OVC018 M21/M23 A3030 RMK SC8 SLP316

CYXE;2016-01-09 05:00;CYXE 090500Z 33003KT 320V040 15SM IC OVC016 M20/M23 A3030 RMK SC8 SLP317

CYXE;2016-01-09 05:52;CYXE 090552Z 32003KT 290V350 15SM -SN OVC016 M20/M23 A3031 RMK SC8 SLP318

CYXE;2016-01-09 06:00;CYXE 090600Z 32003KT 15SM -SN OVC016 M21/M23 A3031 RMK SC8 SLP319

CYXE;2016-01-09 07:00;CYXE 090700Z 28004KT 260V330 15SM -SN BKN018 M22/M24 A3031 RMK SC7 SLP321

CYXE;2016-01-09 07:41;CYXE 090741Z 30004KT 15SM -SN OVC012 M21/M23 A3030 RMK SC8 SLP317

CYXE;2016-01-09 08:00;CYXE 090800Z 30004KT 15SM -SN OVC012 M20/M22 A3030 RMK SC8 SLP316

CYXE;2016-01-09 09:00;CYXE 090900Z 32004KT 15SM -SN OVC012 M20/M22 A3030 RMK SC8 SLP316

CYXE;2016-01-09 10:00;CYXE 091000Z 31003KT 15SM -SN OVC011 M20/M22 A3029 RMK SC8 SLP312

CYXE;2016-01-09 11:00;CYXE 091100Z 28005KT 15SM -SN OVC011 M20/M22 A3028 RMK SC8 SLP312

CYXE;2016-01-09 12:00;CYXE 091200Z 29005KT 15SM -SN OVC011 M20/M22 A3028 RMK SC8 SLP313

CYXE;2016-01-09 13:00;CYXE 091300Z 24004KT 230V310 15SM -SN OVC012 M20/M22 A3028 RMK SC8 SLP313

CYXE;2016-01-09 14:00;CYXE 091400Z 23007KT 15SM -SN OVC012 M20/M22 A3026 RMK SC8 SLP309

CYXE;2016-01-09 15:00;CYXE 091500Z 26007KT 15SM -SN OVC011 M20/M23 A3026 RMK SC8 SLP305

CYXE;2016-01-09 16:00;CYXE 091600Z 23009KT 12SM -SN OVC012 M20/M23 A3025 RMK SC8 SLP302

CYXE;2016-01-09 17:00;CYXE 091700Z 26008KT 10SM -SN OVC012 M20/M22 A3026 RMK SC8 SLP303

CYXE;2016-01-09 17:49;CYXE 091749Z 25010KT 15SM BKN014 M20/M23 A3024 RMK SC7 SLP299

CYXE;2016-01-09 18:00;CYXE 091800Z 26012KT 15SM BKN014 M20/M23 A3024 RMK SC7 SLP298

CYXE;2016-01-09 19:00;CYXE 091900Z 24012KT 15SM OVC014 M19/M22 A3022 RMK SC8 SLP292

CYXE;2016-01-09 20:00;CYXE 092000Z 27006KT 15SM OVC012 M19/M22 A3020 RMK SC8 SLP284

CYXE;2016-01-09 21:00;CYXE 092100Z 24006KT 15SM SCT013 M18/M21 A3019 RMK SF4 SLP277

CYXE;2016-01-09 22:00;CYXE 092200Z 22009KT 15SM FEW013 M18/M22 A3016 RMK SF1 SLP270

CYXE;2016-01-09 23:00;CYXE 092300Z 22007KT 15SM SKC M21/M23 A3015 RMK SLP267

CYXE;2016-01-10 00:00;CYXE 100000Z 22008KT 15SM SKC M23/M25 A3015 RMK SLP266

CYXE;2016-01-10 01:00;CYXE 100100Z 25007KT 15SM SKC M23/M25 A3014 RMK SLP263

CYXE;2016-01-10 02:00;CYXE 100200Z 23007KT 15SM FEW200 M25/M28 A3012 RMK CI2 SLP260

CYXE;2016-01-10 03:00;CYXE 100300Z 23008KT 15SM SCT200 M26/M28 A3010 RMK CI3 FROIN SLP255

CYXE;2016-01-10 04:00;CYXE 100400Z 24006KT 15SM FEW200 M27/M29 A3010 RMK CI1 SLP254

CYXE;2016-01-10 05:00;CYXE 100500Z 24008KT 15SM FEW010 M27/M30 A3009 RMK SF1 SLP250

CYXE;2016-01-10 06:04;CYXE 100604Z 22006KT 15SM BKN009 BKN200 M26/M28 A3008 RMK SC5CI1 SLP247

CYXE;2016-01-10 07:00;CYXE 100700Z 24007KT 15SM FEW009 M26/M29 A3007 RMK SC2 SLP243

CYXE;2016-01-10 07:48;CYXE 100748Z 23008KT 15SM BKN009 M26/M29 A3005 RMK SC6 SLP236

CYXE;2016-01-10 08:00;CYXE 100800Z 23007KT 15SM BKN007 M25/M28 A3005 RMK SC6 SLP235

CYXE;2016-01-10 09:00;CYXE 100900Z 21004KT 15SM BKN008 M23/M26 A3005 RMK SC6 SLP232

CYXE;2016-01-10 10:00;CYXE 101000Z 23004KT 15SM OVC008 M23/M25 A3004 RMK SC8 SLP230

CYXE;2016-01-10 11:00;CYXE 101100Z 26006KT 15SM BKN008 OVC140 M22/M24 A3003 RMK SC6AC2 SLP225

CYXE;2016-01-10 12:00;CYXE 101200Z 24006KT 15SM SCT008 BKN140 M22/M24 A3000 RMK SC3AC4 SLP219

CYXE;2016-01-10 13:00;CYXE 101300Z 24006KT 15SM SCT010 BKN150 M23/M25 A3000 RMK SC4AC3 SLP217

CYXE;2016-01-10 14:00;CYXE 101400Z 24004KT 15SM BKN010 BKN150 M23/M25 A2999 RMK SC5AC2 SLP216

CYXE;2016-01-10 15:00;CYXE 101500Z 24005KT 15SM BKN010 OVC150 M22/M25 A2997 RMK SC6AC2 SLP212

CYXE;2016-01-10 16:00;CYXE 101600Z 23004KT 15SM FEW010 BKN150 M22/M25 A2997 RMK SC2AC5 SLP209

CYXE;2016-01-10 17:00;CYXE 101700Z 23003KT 15SM FEW010 OVC120 M21/M24 A2996 RMK SC2AC6 SLP207

CYXE;2016-01-10 17:43;CYXE 101743Z 25003KT 15SM SCT007 BKN015 OVC120 M20/M22 A2996 RMK SF3SC3AC2 SLP205

CYXE;2016-01-10 18:00;CYXE 101800Z VRB02KT 15SM FEW007 BKN015 OVC100 M20/M22 A2993 RMK SF2SC3AC3 PRESFR SLP196

CYXE;2016-01-10 18:22;CYXE 101822Z 27003KT 220V290 10SM BKN007 OVC012 M20/M22 A2993 RMK SF5SC3 VIS N LWR SLP195

CYXE;2016-01-10 19:00;CYXE 101900Z 26006KT 12SM BKN007 OVC012 M19/M21 A2993 RMK SF5SC3 VIS N LWR SLP194

CYXE;2016-01-10 19:26;CYXE 101926Z 25005KT 15SM FEW007 BKN014 OVC065 M19/M21 A2992 RMK SF2SC4SC2 SLP192

CYXE;2016-01-10 20:00;CYXE 102000Z 26006KT 10SM FEW006 SCT015 OVC065 M18/M20 A2991 RMK SF2SC2SC4 SLP187

CYXE;2016-01-10 21:00;CYXE 102100Z 26005KT 15SM -SG OVC075 M18/M20 A2990 RMK AC8 PRESFR SLP180

CYXE;2016-01-10 21:38;CYXE 102138Z 26006KT 15SM IC FEW075 M17/M20 A2989 RMK AC2 SLP178

CYXE;2016-01-10 22:00;CYXE 102200Z 24005KT 15SM IC FEW075 SCT120 M18/M20 A2989 RMK AC1AC2 SLP177

CYXE;2016-01-10 23:00;CYXE 102300Z 24008KT 15SM FEW055 BKN070 M18/M21 A2990 RMK SC2AC3 SLP181

CYXE;2016-01-11 00:00;CYXE 110000Z 23006KT 15SM BKN045 BKN060 M17/M20 A2989 RMK SC5SC2 SLP177

CYXE;2016-01-11 01:00;CYXE 110100Z 27007KT 15SM OVC030 M16/M19 A2991 RMK SC8 SLP183

CYXE;2016-01-11 02:00;CYXE 110200Z 27005KT 15SM OVC030 M15/M18 A2991 RMK SC8 SLP181

CYXE;2016-01-11 03:00;CYXE 110300Z 29006KT 15SM OVC027 M14/M17 A2992 RMK SC8 SLP184

CYXE;2016-01-11 04:00;CYXE 110400Z 32010KT 15SM SCT020 OVC032 M13/M16 A2991 RMK SC4SC4 SLP181

CYXE;2016-01-11 05:00;CYXE 110500Z 33008KT 15SM OVC022 M13/M16 A2992 RMK SF8 SLP184

CYXE;2016-01-11 06:00;CYXE 110600Z 32007KT 15SM OVC024 M13/M15 A2992 RMK SC8 SLP182

CYXE;2016-01-11 07:00;CYXE 110700Z 32007KT 15SM OVC019 M13/M15 A2993 RMK SC8 SLP184

CYXE;2016-01-11 08:00;CYXE 110800Z 29006KT 15SM OVC027 M12/M15 A2992 RMK SC8 SLP178

CYXE;2016-01-11 08:13;CYXE 110813Z 27006KT 15SM -SN OVC020 M12/M15 A2990 RMK SC8 SLP174

CYXE;2016-01-11 09:00;CYXE 110900Z 29006KT 12SM -SN OVC022 M12/M14 A2989 RMK SC8 SLP169

CYXE;2016-01-11 10:00;CYXE 111000Z 30008KT 13SM -SN OVC018 M11/M13 A2990 RMK SC8 SLP172

CYXE;2016-01-11 11:00;CYXE 111100Z 32008KT 15SM -SN OVC026 M11/M12 A2991 RMK SC8 PRESRR SLP175

CYXE;2016-01-11 12:00;CYXE 111200Z 35008KT 15SM OVC025 M11/M13 A2992 RMK SC8 SLP180

CYXE;2016-01-11 13:00;CYXE 111300Z 07004KT 15SM -SN BKN020 OVC080 M13/M15 A2993 RMK SC6AC2 SLP183

CYXE;2016-01-11 14:00;CYXE 111400Z 05003KT 15SM -SN OVC022 M13/M15 A2993 RMK SC8 SLP183

CYXE;2016-01-11 14:41;CYXE 111441Z 04003KT 15SM BKN025 OVC073 M13/M15 A2995 RMK SC6AC2 SLP188

CYXE;2016-01-11 15:00;CYXE 111500Z 35004KT 15SM BKN024 OVC073 M13/M15 A2995 RMK SC6AC2 SLP189

CYXE;2016-01-11 16:00;CYXE 111600Z 02010KT 15SM BKN021 OVC080 M13/M16 A2999 RMK SC6AC2 SLP201

CYXE;2016-01-11 17:00;CYXE 111700Z 01009KT 15SM SCT025 SCT080 BKN250 M15/M18 A3002 RMK SC3AC1CI3 SLP215

CYXE;2016-01-11 18:00;CYXE 111800Z 01010KT 15SM BKN021 OVC080 M16/M20 A3005 RMK SC6AC2 SLP224

CYXE;2016-01-11 19:00;CYXE 111900Z 36008KT 15SM OVC020 M16/M19 A3006 RMK SC8 SLP226

CYXE;2016-01-11 20:00;CYXE 112000Z 36008KT 15SM OVC022 M16/M19 A3006 RMK SC8 SLP227

CYXE;2016-01-11 21:00;CYXE 112100Z 34009G16KT 15SM OVC020 M16/M20 A3006 RMK SC8 SLP228

CYXE;2016-01-11 22:00;CYXE 112200Z 32005KT 15SM BKN020 M17/M21 A3008 RMK SC6 SLP233

CYXE;2016-01-11 23:00;CYXE 112300Z 32008KT 15SM FEW020 SCT250 M18/M21 A3010 RMK SC2CI1 SLP239

CYXE;2016-01-12 00:00;CYXE 120000Z 30007KT 15SM FEW020 SCT250 M21/M23 A3010 RMK SC1CI2 SLP244

CYXE;2016-01-12 01:00;CYXE 120100Z 28003KT 15SM FEW020 FEW250 M23/M25 A3011 RMK SC1CI1 SLP250

CYXE;2016-01-12 02:00;CYXE 120200Z 35003KT 280V360 15SM SKC M22/M24 A3011 RMK SLP249

CYXE;2016-01-12 03:00;CYXE 120300Z 26003KT 15SM SKC M23/M25 A3011 RMK SLP249

CYXE;2016-01-12 04:00;CYXE 120400Z 29005KT 15SM SKC M24/M26 A3010 RMK SLP245

CYXE;2016-01-12 04:52;CYXE 120452Z 26005KT 15SM BKN014 M25/M27 A3010 RMK ST5 SLP246

CYXE;2016-01-12 05:00;CYXE 120500Z 23005KT 210V270 15SM BKN014 M25/M27 A3010 RMK ST6 SLP247

CYXE;2016-01-12 06:00;CYXE 120600Z 25004KT 15SM OVC014 M22/M24 A3011 RMK ST8 SLP250

CYXE;2016-01-12 07:00;CYXE 120700Z 24002KT 15SM OVC013 M22/M24 A3009 RMK ST8 SLP245

CYXE;2016-01-12 07:20;CYXE 120720Z 10003KT 030V190 15SM SCT013 OVC150 M22/M24 A3007 RMK SF4AC4 PRESFR SLP238

CYXE;2016-01-12 07:45;CYXE 120745Z VRB04KT 15SM BKN013 OVC150 M22/M24 A3008 RMK ST5AC3 SLP241

CYXE;2016-01-12 08:00;CYXE 120800Z 23005KT 15SM BKN013 OVC150 M21/M24 A3009 RMK ST7AC1 SLP242

CYXE;2016-01-12 09:00;CYXE 120900Z 00000KT 15SM OVC012 M20/M22 A3006 RMK ST8 SLP233

CYXE;2016-01-12 10:00;CYXE 121000Z 00000KT 15SM BKN012 OVC130 M20/M22 A3004 RMK SF5AC3 SLP225

CYXE;2016-01-12 10:44;CYXE 121044Z 15003KT 080V150 15SM SCT012 BKN130 M20/M22 A3002 RMK SF3AC3 SLP220

CYXE;2016-01-12 11:00;CYXE 121100Z 18002KT 15SM FEW012 BKN120 M20/M22 A3001 RMK SF2AC5 SLP218

CYXE;2016-01-12 12:00;CYXE 121200Z 18004KT 15SM FEW012 OVC120 M19/M21 A2999 RMK SF2AC6 SLP212

CYXE;2016-01-12 13:00;CYXE 121300Z 16004KT 15SM OVC120 M18/M20 A2999 RMK AC8 SLP212

CYXE;2016-01-12 14:00;CYXE 121400Z 16004KT 15SM SCT110 M18/M20 A2998 RMK AC4 SLP207

CYXE;2016-01-12 15:00;CYXE 121500Z 16005KT 15SM BKN100 BKN180 M17/M19 A2995 RMK AC6AC1 SLP198

CYXE;2016-01-12 16:00;CYXE 121600Z 17004KT 15SM BKN100 BKN180 M16/M18 A2994 RMK AC6AC1 SLP195

CYXE;2016-01-12 16:51;CYXE 121651Z 16005KT 15SM -SN SCT050 BKN100 OVC180 M16/M18 A2994 RMK SC3AC3AC2 SLP193

CYXE;2016-01-12 17:00;CYXE 121700Z 18006KT 12SM -SN BKN050 OVC100 M16/M18 A2994 RMK SC5AC3 SLP194

CYXE;2016-01-12 18:00;CYXE 121800Z 18005KT 150V220 15SM -SN FEW050 BKN110 M15/M17 A2992 RMK SC2AC5 SLP186

CYXE;2016-01-12 19:00;CYXE 121900Z 20005KT 15SM -SN SCT040 OVC070 M13/M16 A2990 RMK SC4AC4 SLP176

CYXE;2016-01-12 20:00;CYXE 122000Z 21006KT 12SM -SN OVC032 M12/M15 A2986 RMK SC8 SLP163

CYXE;2016-01-12 21:00;CYXE 122100Z 18006KT 15SM -SN OVC027 M11/M14 A2984 RMK SC8 SLP153

CYXE;2016-01-12 22:00;CYXE 122200Z 17006KT 15SM -SN BKN022 BKN034 M10/M13 A2981 RMK SC5SC2 PRESFR SLP141

CYXE;2016-01-12 23:00;CYXE 122300Z 19008KT 15SM BKN058 M10/M12 A2981 RMK SC6 SLP141

CYXE;2016-01-13 00:00;CYXE 130000Z 20010KT 15SM BKN068 M10/M12 A2980 RMK AC5 SLP139

CYXE;2016-01-13 01:00;CYXE 130100Z 21010KT 15SM SCT068 M10/M12 A2978 RMK AC3 SLP129

CYXE;2016-01-13 02:00;CYXE 130200Z 22008KT 15SM FEW068 M11/M12 A2975 RMK AC2 SLP123

CYXE;2016-01-13 03:00;CYXE 130300Z 21003KT 15SM FEW068 M13/M14 A2974 RMK AC2 SLP120

CYXE;2016-01-13 04:00;CYXE 130400Z 20005KT 15SM FEW068 M13/M14 A2971 RMK AC2 SLP107

CYXE;2016-01-13 05:00;CYXE 130500Z 21005KT 15SM SKC M14/M15 A2971 RMK SLP109

CYXE;2016-01-13 06:00;CYXE 130600Z 22007KT 15SM SKC M15/M16 A2972 RMK SLP110

CYXE;2016-01-13 07:00;CYXE 130700Z 25006KT 15SM SKC M16/M17 A2972 RMK SLP109

CYXE;2016-01-13 08:00;CYXE 130800Z 25002KT 15SM SKC M17/M18 A2970 RMK SLP103

CYXE;2016-01-13 09:00;CYXE 130900Z 24003KT 15SM SKC M17/M18 A2970 RMK SLP102

CYXE;2016-01-13 10:00;CYXE 131000Z VRB02KT 15SM SKC M17/M18 A2970 RMK SLP103

CYXE;2016-01-13 11:00;CYXE 131100Z 07002KT 15SM SKC M18/M20 A2969 RMK SLP099

CYXE;2016-01-13 12:00;CYXE 131200Z 20005KT 10SM SKC M17/M19 A2970 RMK BR SLP101

CYXE;2016-01-13 12:48;CYXE 131248Z 20002KT 10SM SCT003 M16/M17 A2970 RMK ST3 BR SLP100

CYXE;2016-01-13 13:00;CYXE 131300Z 18002KT 15SM SCT003 M16/M18 A2970 RMK ST3 SLP100

CYXE;2016-01-13 14:00;CYXE 131400Z 06004KT 15SM SKC M17/M19 A2969 RMK SLP100

CYXE;2016-01-13 15:00;CYXE 131500Z 06007KT 15SM FEW180 M17/M18 A2967 RMK AC2 SLP095

CYXE;2016-01-13 16:00;CYXE 131600Z 08005KT 8SM SCT180 OVC220 M16/M17 A2967 RMK AC4CI4 BR SLP092

CYXE;2016-01-13 17:00;CYXE 131700Z 13006KT 8SM OVC180 M12/M13 A2967 RMK AC8 BR SLP092

CYXE;2016-01-13 18:00;CYXE 131800Z 11007KT 10SM OVC170 M12/M13 A2966 RMK AC8 BR SLP088

CYXE;2016-01-13 19:00;CYXE 131900Z 08009KT 10SM BKN150 OVC220 M11/M12 A2961 RMK AC6CI2 BR SLP073

CYXE;2016-01-13 20:00;CYXE 132000Z 09006KT 12SM BKN150 OVC220 M10/M11 A2960 RMK AC5CI3 BR SLP068

CYXE;2016-01-13 21:00;CYXE 132100Z 08011KT 12SM OVC120 M10/M11 A2957 RMK AS8 BR SLP059

CYXE;2016-01-13 22:00;CYXE 132200Z 06009KT 15SM FEW016 OVC100 M10/M11 A2958 RMK SC2AS6 SLP061

CYXE;2016-01-13 23:00;CYXE 132300Z 08012KT 12SM FEW008 BKN016 OVC100 M09/M10 A2956 RMK ST2SC4AS2 SLP056

CYXE;2016-01-13 23:17;CYXE 132317Z 08009KT 12SM BKN008 OVC016 M09/M10 A2958 RMK ST5SC3 SLP060

CYXE;2016-01-14 00:00;CYXE 140000Z 08012KT 12SM SCT005 BKN008 OVC016 M09/M10 A2956 RMK ST3ST3SC2 SLP052

CYXE;2016-01-14 00:13;CYXE 140013Z 08010KT 12SM BKN005 OVC008 M09/M09 A2956 RMK ST5ST3 SLP053

CYXE;2016-01-14 01:00;CYXE 140100Z 08011KT 12SM OVC005 M09/M09 A2956 RMK ST8 SLP051

CYXE;2016-01-14 01:44;CYXE 140144Z 08010KT 12SM BKN007 OVC045 M08/M09 A2956 RMK ST5SC3 SLP051

CYXE;2016-01-14 02:00;CYXE 140200Z 07010KT 10SM BKN007 OVC045 M08/M09 A2956 RMK ST5SC3 SLP052

CYXE;2016-01-14 03:00;CYXE 140300Z 08010KT 10SM BKN007 OVC011 M08/M09 A2955 RMK ST6ST2 SLP048

CYXE;2016-01-14 03:30;CYXE 140330Z 08008KT 10SM -SN BKN008 OVC011 M08/M09 A2954 RMK ST6ST2 SLP045

CYXE;2016-01-14 04:00;CYXE 140400Z 07009KT 6SM -SN BKN006 BKN011 OVC035 M08/M10 A2954 RMK ST5ST2SC1 SLP044

CYXE;2016-01-14 05:00;CYXE 140500Z 06005KT 8SM -SN SCT008 SCT011 OVC130 M10/M10 A2954 RMK ST3SC1AC4 /S01/ SLP042

CYXE;2016-01-14 05:34;CYXE 140534Z 05009KT 10SM -SHSN FEW010 BKN090 M11/M12 A2953 RMK ST2ACC5 SLP042

CYXE;2016-01-14 06:00;CYXE 140600Z 04010KT 15SM -SHSN FEW010 BKN090 BKN130 M12/M13 A2955 RMK ST1ACC4AC2 SLP047

CYXE;2016-01-14 07:00;CYXE 140700Z 05008KT 15SM -SHSN SCT060 BKN090 M13/M15 A2955 RMK SC4ACC3 SLP049

CYXE;2016-01-14 08:00;CYXE 140800Z 04011KT 15SM -SHSN OVC070 M13/M15 A2956 RMK ACC8 SLP052

CYXE;2016-01-14 09:00;CYXE 140900Z 04008KT 15SM -SN SCT016 OVC060 M13/M15 A2958 RMK SC3SC5 SLP057

CYXE;2016-01-14 10:00;CYXE 141000Z 05009KT 15SM -SN SCT016 OVC065 M13/M15 A2958 RMK SC3SC5 SLP060

CYXE;2016-01-14 11:00;CYXE 141100Z 04006KT 10SM -SN SCT015 OVC065 M13/M15 A2961 RMK SC3SC5 SLP068

CYXE;2016-01-14 12:00;CYXE 141200Z 01006KT 3SM -SN FEW015 OVC045 M13/M15 A2964 RMK SC2SC6 SLP078

CYXE;2016-01-14 13:00;CYXE 141300Z 03006KT 3SM -SN OVC040 M14/M16 A2965 RMK SC8 SLP082

CYXE;2016-01-14 13:40;CYXE 141340Z 02004KT 3SM -SN SCT006 OVC017 M14/M16 A2965 RMK SF4SC4 SLP083

CYXE;2016-01-14 14:00;CYXE 141400Z 02004KT 3SM -SN SCT012 OVC027 M14/M16 A2966 RMK SC4SC4 SLP084

CYXE;2016-01-14 15:05;CYXE 141505Z 02002KT 2SM -SN VV010 M14/M16 A2965 RMK SN8 SLP083

CYXE;2016-01-14 15:51;CYXE 141551Z 01004KT 3SM -SN BKN013 OVC040 M13/M15 A2967 RMK SC5SC3 SLP088

CYXE;2016-01-14 16:00;CYXE 141600Z 03003KT 3SM -SN BKN015 OVC040 M13/M15 A2967 RMK SC6SC2 SLP087

CYXE;2016-01-14 16:23;CYXE 141623Z 33002KT 2SM -SN BKN012 OVC028 M13/M15 A2968 RMK SC5SC3 SLP090

CYXE;2016-01-14 16:41;CYXE 141641Z 35002KT 3SM -SN SCT017 OVC042 M13/M15 A2969 RMK SC4SC4 VIS VRB 2-4 SLP093

CYXE;2016-01-14 17:00;CYXE 141700Z 34003KT 3SM -SN SCT017 OVC040 M13/M15 A2970 RMK SC4SC4 /S02/ VIS VRB 2-4 SLP098

CYXE;2016-01-14 18:00;CYXE 141800Z 03004KT 3SM -SN SCT015 OVC038 M12/M14 A2971 RMK SC4SC4 VIS VRB 2-4 SLP103

CYXE;2016-01-14 19:00;CYXE 141900Z 31004KT 3SM -SN SCT014 OVC028 M12/M14 A2971 RMK SC4SC4 VIS VRB 2-4 SLP104

CYXE;2016-01-14 19:26;CYXE 141926Z 29004KT 10SM -SN BKN030 OVC220 M11/M14 A2972 RMK SC5CI3 SLP106

CYXE;2016-01-14 20:00;CYXE 142000Z 27004KT 5SM -SN OVC039 M11/M13 A2971 RMK SC8 SLP103

CYXE;2016-01-14 20:12;CYXE 142012Z 30003KT 3SM -SN OVC040 M11/M14 A2971 RMK SN3SC5 VIS VRB 2-4 SLP103

CYXE;2016-01-14 21:00;CYXE 142100Z 27003KT 3SM -SN OVC040 M11/M13 A2971 RMK SN2SC6 VIS VRB 2-4 SLP104

CYXE;2016-01-14 22:00;CYXE 142200Z 01004KT 310V020 3SM -SN OVC020 M11/M12 A2972 RMK SN2SC6 VIS VRB 2-4 SLP108

CYXE;2016-01-14 23:00;CYXE 142300Z 02004KT 3SM -SN OVC020 M10/M12 A2975 RMK SN2SC6 VIS VRB 2-4 SLP116

CYXE;2016-01-15 00:00;CYXE 150000Z 02007KT 3SM -SN OVC023 M11/M13 A2977 RMK SN2SC6 /S01/ VIS VRB 2-4 SLP123

CYXE;2016-01-15 01:00;CYXE 150100Z 02010KT 6SM -SN SCT023 OVC040 M12/M15 A2978 RMK SC4SC4 SLP130

CYXE;2016-01-15 02:00;CYXE 150200Z 03009KT 10SM -SN OVC040 M13/M16 A2978 RMK SC8 SLP130

CYXE;2016-01-15 02:48;CYXE 150248Z 02012KT 12SM -SN BKN013 OVC040 M13/M16 A2979 RMK SC6SC2 SLP135

CYXE;2016-01-15 03:00;CYXE 150300Z 03013KT 12SM -SN OVC013 M13/M16 A2980 RMK SC8 SLP137

CYXE;2016-01-15 04:00;CYXE 150400Z 06012KT 5SM -SN BKN013 OVC020 M14/M16 A2983 RMK SC5SC3 SLP145

CYXE;2016-01-15 05:00;CYXE 150500Z 05013G20KT 5SM -SN BKN013 OVC020 M16/M18 A2984 RMK SC6SC2 SLP153

CYXE;2016-01-15 05:34;CYXE 150534Z 05014KT 2SM -SN DRSN VV020 M17/M19 A2985 RMK SN8 SLP156

CYXE;2016-01-15 06:00;CYXE 150600Z 04013KT 3SM -SN DRSN OVC025 M17/M20 A2986 RMK SC8 /S02/ SLP157

CYXE;2016-01-15 07:00;CYXE 150700Z 06010KT 5SM -SN DRSN BKN140 M18/M21 A2988 RMK AC7 SLP165

CYXE;2016-01-15 07:19;CYXE 150719Z 06007KT 15SM IC FEW025 FEW080 SCT140 M19/M21 A2989 RMK SC1AC1AC2 SLP169

CYXE;2016-01-15 07:34;CYXE 150734Z 05008KT 15SM IC BKN013 OVC070 M19/M22 A2989 RMK SC6AC2 SLP172

CYXE;2016-01-15 08:00;CYXE 150800Z 05006KT 15SM IC SCT012 OVC070 M20/M23 A2990 RMK SC3AC5 SLP174

CYXE;2016-01-15 09:00;CYXE 150900Z 04009KT 10SM IC FEW012 OVC070 M20/M23 A2992 RMK SC2AC6 SLP181

CYXE;2016-01-15 10:00;CYXE 151000Z 04006KT 12SM IC SCT070 M22/M24 A2994 RMK AC4 SLP190

CYXE;2016-01-15 11:00;CYXE 151100Z 03005KT 15SM IC BKN110 M21/M24 A2995 RMK AC7 SLP191

CYXE;2016-01-15 12:00;CYXE 151200Z 01003KT 10SM OVC080 M21/M24 A2996 RMK AC8 SLP196

CYXE;2016-01-15 13:00;CYXE 151300Z 03006KT 12SM IC FEW020 BKN110 M21/M23 A2998 RMK SC2AC5 SLP203

CYXE;2016-01-15 13:53;CYXE 151353Z 05007KT 10SM -SN BKN036 OVC110 M20/M22 A2999 RMK SC6AC2 SLP206

CYXE;2016-01-15 14:00;CYXE 151400Z 04007KT 10SM -SN BKN032 OVC110 M20/M22 A2999 RMK SC6AC2 SLP206

CYXE;2016-01-15 15:00;CYXE 151500Z 03008KT 12SM -SN OVC023 M19/M22 A3002 RMK SC8 SLP215

CYXE;2016-01-15 16:00;CYXE 151600Z 04010KT 15SM -SN OVC030 M19/M22 A3003 RMK SC8 SLP219

CYXE;2016-01-15 17:00;CYXE 151700Z 04008KT 15SM -SN OVC031 M19/M23 A3005 RMK SC8 SLP227

CYXE;2016-01-15 18:00;CYXE 151800Z 04005KT 15SM -SN OVC032 M19/M23 A3007 RMK SC8 SLP235

CYXE;2016-01-15 19:00;CYXE 151900Z 04003KT 15SM -SN OVC032 M19/M22 A3007 RMK SC8 SLP236

CYXE;2016-01-15 20:00;CYXE 152000Z 34004KT 15SM -SN OVC028 M19/M23 A3008 RMK SC8 SLP240

CYXE;2016-01-15 21:00;CYXE 152100Z 33005KT 15SM -SN OVC030 M19/M23 A3009 RMK SC8 SLP243

CYXE;2016-01-15 22:00;CYXE 152200Z 35007KT 15SM -SN OVC033 M19/M22 A3010 RMK SC8 SLP251

CYXE;2016-01-15 23:00;CYXE 152300Z 01006KT 15SM -SN OVC038 M19/M22 A3012 RMK SC8 SLP257

CYXE;2016-01-16 00:00;CYXE 160000Z 02006KT 15SM -SN BKN038 M19/M22 A3014 RMK SC7 SLP262

CYXE;2016-01-16 01:00;CYXE 160100Z 36007KT 15SM -SN BKN045 M20/M23 A3015 RMK SC7 SLP266

CYXE;2016-01-16 02:00;CYXE 160200Z 36005KT 15SM -SN BKN046 M21/M24 A3016 RMK SC7 SLP270

CYXE;2016-01-16 03:00;CYXE 160300Z 36007KT 15SM -SN BKN048 M23/M26 A3016 RMK SC6 SLP273

CYXE;2016-01-16 03:23;CYXE 160323Z 36006KT 15SM BKN048 M23/M26 A3017 RMK SC6 SLP274

CYXE;2016-01-16 04:00;CYXE 160400Z 02007KT 15SM BKN048 M23/M26 A3017 RMK SC5 SLP275

CYXE;2016-01-16 05:00;CYXE 160500Z 03006KT 15SM BKN048 M25/M27 A3019 RMK SC5 SLP282

CYXE;2016-01-16 06:00;CYXE 160600Z 03003KT 15SM IC BKN048 M27/M29 A3022 RMK SC7 SLP294

CYXE;2016-01-16 06:37;CYXE 160637Z 02007KT 15SM SCT050 M27/M29 A3023 RMK SC3 SLP297

CYXE;2016-01-16 07:00;CYXE 160700Z 02007KT 15SM SCT025 M26/M29 A3023 RMK SC4 SLP298

CYXE;2016-01-16 08:00;CYXE 160800Z 01006KT 15SM SCT025 BKN045 M27/M30 A3025 RMK SC3SC3 SLP304

CYXE;2016-01-16 09:00;CYXE 160900Z 33006KT 15SM BKN025 M29/M32 A3025 RMK SC7 SLP305

CYXE;2016-01-16 10:00;CYXE 161000Z 33005KT 15SM BKN020 M29/M32 A3025 RMK SC5 SLP307

CYXE;2016-01-16 11:00;CYXE 161100Z 30006KT 15SM BKN020 M30/M33 A3025 RMK SC5 SLP307

CYXE;2016-01-16 12:00;CYXE 161200Z 31007KT 15SM FEW020 M31/M34 A3026 RMK SC2 SLP313

CYXE;2016-01-16 13:00;CYXE 161300Z 30007KT 15SM SKC M32/M35 A3028 RMK SLP318

CYXE;2016-01-16 14:00;CYXE 161400Z 32007KT 15SM SKC M34/M36 A3028 RMK SLP320

CYXE;2016-01-16 15:00;CYXE 161500Z 29004KT 15SM SKC M35/M38 A3028 RMK SLP323

CYXE;2016-01-16 16:00;CYXE 161600Z 29006KT 15SM SKC M35/M38 A3028 RMK SLP324

CYXE;2016-01-16 17:00;CYXE 161700Z 29007KT 15SM SKC M31/M34 A3028 RMK SLP322

CYXE;2016-01-16 18:00;CYXE 161800Z 29008KT 15SM SKC M29/M32 A3028 RMK SLP321

CYXE;2016-01-16 19:00;CYXE 161900Z 29010KT 15SM SKC M27/M30 A3026 RMK SLP315

CYXE;2016-01-16 20:00;CYXE 162000Z 29009KT 15SM SKC M26/M29 A3026 RMK SLP314

CYXE;2016-01-16 21:00;CYXE 162100Z 30010KT 15SM SKC M25/M28 A3024 RMK SLP307

CYXE;2016-01-16 22:00;CYXE 162200Z 30008KT 15SM SKC M25/M28 A3024 RMK SLP308

CYXE;2016-01-16 23:00;CYXE 162300Z 30009KT 15SM SKC M26/M30 A3024 RMK SLP308

CYXE;2016-01-17 00:00;CYXE 170000Z 29007KT 15SM FEW200 M27/M31 A3025 RMK CI1 SLP314

CYXE;2016-01-17 01:00;CYXE 170100Z 30009KT 15SM SKC M27/M30 A3024 RMK SLP312

CYXE;2016-01-17 02:00;CYXE 170200Z 30011KT 15SM SKC M27/M30 A3024 RMK SLP311

CYXE;2016-01-17 03:00;CYXE 170300Z 30013KT 15SM SKC M27/M30 A3024 RMK SLP312

CYXE;2016-01-17 04:00;CYXE 170400Z 30012KT 15SM SKC M27/M30 A3023 RMK SLP309

CYXE;2016-01-17 05:00;CYXE 170500Z 30007KT 15SM SKC M28/M31 A3024 RMK SLP309

CYXE;2016-01-17 06:04;CYXE 170604Z 27004KT 15SM IC SKC M28/M31 A3024 RMK SLP312

CYXE;2016-01-17 07:00;CYXE 170700Z 27004KT 15SM IC SKC M29/M32 A3024 RMK SLP310

CYXE;2016-01-17 08:00;CYXE 170800Z 27008KT 15SM IC SKC M30/M33 A3024 RMK SLP309

CYXE;2016-01-17 08:50;CYXE 170850Z 28007KT 15SM SKC M30/M33 A3025 RMK SLP312

CYXE;2016-01-17 09:00;CYXE 170900Z 29008KT 15SM SKC M29/M32 A3024 RMK SLP309

CYXE;2016-01-17 10:00;CYXE 171000Z 29007KT 15SM SKC M30/M33 A3026 RMK SLP314

CYXE;2016-01-17 11:00;CYXE 171100Z 28006KT 15SM SKC M31/M34 A3027 RMK SLP319

CYXE;2016-01-17 12:00;CYXE 171200Z 26005KT 15SM SKC M31/M34 A3025 RMK SLP316

CYXE;2016-01-17 13:00;CYXE 171300Z 26003KT 15SM SKC M31/M34 A3027 RMK SLP319

CYXE;2016-01-17 14:00;CYXE 171400Z 27006KT 15SM SKC M32/M35 A3026 RMK SLP319

CYXE;2016-01-17 15:00;CYXE 171500Z 25006KT 15SM SKC M32/M35 A3027 RMK SLP322

CYXE;2016-01-17 16:00;CYXE 171600Z 24005KT 15SM SKC M31/M35 A3028 RMK SLP326

CYXE;2016-01-17 17:00;CYXE 171700Z 26007KT 15SM SKC M29/M33 A3029 RMK SLP327

CYXE;2016-01-17 18:00;CYXE 171800Z 25003KT 15SM SKC M28/M31 A3028 RMK SLP324

CYXE;2016-01-17 19:00;CYXE 171900Z 23006KT 15SM FEW250 M26/M30 A3026 RMK CI1 SLP315

CYXE;2016-01-17 20:00;CYXE 172000Z 22007KT 15SM FEW250 M25/M29 A3024 RMK CI1 SLP310

CYXE;2016-01-17 21:00;CYXE 172100Z 24003KT 15SM FEW250 M24/M28 A3023 RMK CI2 SLP305

CYXE;2016-01-17 22:00;CYXE 172200Z 23006KT 15SM FEW240 M24/M28 A3025 RMK CI2 SLP310

CYXE;2016-01-17 23:00;CYXE 172300Z 23005KT 15SM FEW240 M24/M28 A3024 RMK CI2 SLP310

CYXE;2016-01-18 00:00;CYXE 180000Z 23004KT 15SM FEW240 M26/M30 A3025 RMK CI2 SLP313

CYXE;2016-01-18 01:00;CYXE 180100Z 13003KT 120V230 15SM FEW240 M28/M31 A3021 RMK CI1 SLP302

CYXE;2016-01-18 02:00;CYXE 180200Z 24002KT 15SM FEW240 M26/M29 A3019 RMK CI1 SLP294

CYXE;2016-01-18 03:00;CYXE 180300Z 08008KT 15SM FEW240 M29/M32 A3017 RMK CI1 SLP289

CYXE;2016-01-18 04:00;CYXE 180400Z 25007KT 15SM SKC M29/M31 A3019 RMK SLP296

CYXE;2016-01-18 05:00;CYXE 180500Z 12006KT 15SM SKC M28/M31 A3016 RMK PRESFR SLP284

CYXE;2016-01-18 06:00;CYXE 180600Z 10007KT 15SM SKC M28/M31 A3012 RMK PRESFR SLP267

CYXE;2016-01-18 07:00;CYXE 180700Z 12007KT 15SM SKC M26/M29 A3010 RMK SLP259

CYXE;2016-01-18 08:00;CYXE 180800Z 10007KT 15SM FEW210 M26/M29 A3008 RMK CI2 SLP250

CYXE;2016-01-18 09:00;CYXE 180900Z 11008KT 15SM SCT210 M25/M29 A3009 RMK CI3 SLP252

CYXE;2016-01-18 10:00;CYXE 181000Z 12006KT 15SM SCT210 M23/M27 A3007 RMK CI3 SLP245

CYXE;2016-01-18 11:00;CYXE 181100Z 12009KT 15SM SCT210 M21/M26 A3005 RMK CI4 SLP235

CYXE;2016-01-18 12:00;CYXE 181200Z 11011KT 15SM BKN210 M21/M26 A3005 RMK CI5 SLP238

CYXE;2016-01-18 13:00;CYXE 181300Z 12013KT 15SM BKN180 BKN210 M20/M24 A3001 RMK AC5CI2 SLP225

CYXE;2016-01-18 14:00;CYXE 181400Z 12015KT 15SM BKN170 M19/M24 A2998 RMK AC6 SLP213

CYXE;2016-01-18 15:00;CYXE 181500Z 13012KT 15SM OVC140 M18/M23 A2999 RMK AC8 SLP216

CYXE;2016-01-18 16:00;CYXE 181600Z 12015G20KT 15SM OVC070 M18/M22 A2997 RMK AC8 SLP208

CYXE;2016-01-18 17:00;CYXE 181700Z 12014KT 15SM DRSN SCT050 OVC070 M18/M22 A2997 RMK SC4AC4 SLP208

CYXE;2016-01-18 18:00;CYXE 181800Z 13010KT 15SM DRSN OVC040 M16/M20 A2997 RMK SC8 SLP208

CYXE;2016-01-18 18:31;CYXE 181831Z 13012KT 15SM -SN DRSN OVC045 M16/M20 A2997 RMK SC8 SLP206

CYXE;2016-01-18 18:45;CYXE 181845Z 12011KT 1 1/2SM -SN DRSN SCT020 OVC045 M15/M20 A2996 RMK SC4SC4 SLP202

CYXE;2016-01-18 19:00;CYXE 181900Z 13015G21KT 1 1/4SM -SN DRSN VV009 M15/M19 A2995 RMK SN8 SLP197

CYXE;2016-01-18 19:27;CYXE 181927Z 12015KT 2 1/2SM -SN DRSN VV020 M15/M18 A2993 RMK SN8 SLP193

CYXE;2016-01-18 20:00;CYXE 182000Z 12013KT 2 1/2SM -SN DRSN VV022 M15/M17 A2992 RMK SN8 SLP188

CYXE;2016-01-18 20:35;CYXE 182035Z 13012KT 1 1/4SM -SN DRSN VV009 M14/M17 A2993 RMK SN8 SLP189

CYXE;2016-01-18 21:00;CYXE 182100Z 12013KT 1 1/2SM -SN DRSN VV014 M14/M16 A2992 RMK SN8 SLP185

CYXE;2016-01-18 21:43;CYXE 182143Z 12012G18KT 6SM -SN DRSN OVC042 M13/M16 A2992 RMK SC8 /S02/ SLP184

CYXE;2016-01-18 22:00;CYXE 182200Z 12011KT 6SM -SN OVC042 M13/M16 A2992 RMK SC8 SLP186

CYXE;2016-01-18 23:00;CYXE 182300Z 13008KT 5SM -SN OVC032 M13/M15 A2994 RMK SC8 SLP190

CYXE;2016-01-19 00:00;CYXE 190000Z 12007KT 6SM -SN SCT023 OVC030 M13/M15 A2995 RMK SC3SC5 SLP192

CYXE;2016-01-19 01:00;CYXE 190100Z 12007KT 10SM -SN OVC026 M13/M15 A2995 RMK SC8 SLP192

CYXE;2016-01-19 02:00;CYXE 190200Z 11008KT 10SM -SN SCT017 OVC026 M13/M15 A2996 RMK SC3SC5 SLP193

CYXE;2016-01-19 03:00;CYXE 190300Z 12006KT 8SM -SN OVC016 M13/M14 A2996 RMK SC8 SLP196

CYXE;2016-01-19 04:00;CYXE 190400Z 13004KT 12SM -SN OVC018 M12/M14 A2996 RMK SC8 SLP196

CYXE;2016-01-19 05:00;CYXE 190500Z 17002KT 6SM -SN BKN025 OVC049 M12/M14 A2997 RMK SC5SC3 SLP198

CYXE;2016-01-19 06:00;CYXE 190600Z VRB02KT 5SM -SN OVC038 M12/M13 A2997 RMK SC8 /S01/ SLP197

CYXE;2016-01-19 07:00;CYXE 190700Z 23003KT 3SM -SN OVC033 M12/M14 A2997 RMK SC8 SLP197

CYXE;2016-01-19 08:00;CYXE 190800Z 25004KT 10SM -SN OVC023 M12/M13 A2998 RMK SC8 SLP197

CYXE;2016-01-19 09:00;CYXE 190900Z 29004KT 10SM -SN BKN024 OVC060 M12/M14 A2998 RMK SC5SC3 SLP197

CYXE;2016-01-19 10:00;CYXE 191000Z 30005KT 15SM -SN SCT025 OVC065 M13/M14 A2999 RMK SC3SC5 SLP200

CYXE;2016-01-19 11:00;CYXE 191100Z 30005KT 15SM -SN BKN025 OVC065 M14/M15 A2998 RMK SC5SC3 SLP198

CYXE;2016-01-19 11:31;CYXE 191131Z 31005KT 15SM BKN025 M15/M16 A2999 RMK SC6 SLP202

CYXE;2016-01-19 12:00;CYXE 191200Z 31006KT 15SM BKN021 M15/M17 A2998 RMK SC6 SLP201

CYXE;2016-01-19 13:00;CYXE 191300Z 32005KT 15SM FEW020 BKN160 M18/M19 A2999 RMK SC1AC5 SLP204

CYXE;2016-01-19 14:00;CYXE 191400Z 33004KT 15SM FEW020 SCT160 M20/M21 A2999 RMK SC1AC3 SLP207

CYXE;2016-01-19 15:00;CYXE 191500Z 01003KT 15SM FEW160 FEW250 M20/M22 A2999 RMK AC1CI1 SLP206

CYXE;2016-01-19 15:27;CYXE 191527Z 31004KT 12SM IC FEW160 FEW250 M22/M24 A3001 RMK AC1CI1 PRESRR SLP215

CYXE;2016-01-19 16:00;CYXE 191600Z 34002KT 15SM IC FEW160 FEW250 M22/M24 A3000 RMK AC1CI1 SLP211

CYXE;2016-01-19 17:00;CYXE 191700Z 00000KT 15SM IC FEW160 M20/M22 A3001 RMK AC1 SLP212

CYXE;2016-01-19 18:00;CYXE 191800Z 28003KT 12SM IC FEW160 M19/M21 A3001 RMK AC1 SLP211

CYXE;2016-01-19 19:00;CYXE 191900Z 31002KT 15SM IC FEW160 SCT250 M18/M20 A2999 RMK AC1CI2 SLP205

CYXE;2016-01-19 19:42;CYXE 191942Z 00000KT 15SM FEW160 SCT250 M17/M19 A2998 RMK AC1CI2 SLP199

CYXE;2016-01-19 20:00;CYXE 192000Z 00000KT 15SM SCT250 M16/M19 A2997 RMK CI3 SLP196

CYXE;2016-01-19 20:44;CYXE 192044Z 00000KT 12SM IC FEW005 SCT250 M15/M18 A2996 RMK SF1CI2 PRESFR SLP190

CYXE;2016-01-19 21:00;CYXE 192100Z 00000KT 12SM IC FEW005 SCT250 M16/M18 A2995 RMK SF1CI2 SLP190

CYXE;2016-01-19 22:00;CYXE 192200Z 02003KT 15SM IC FEW005 SCT250 M15/M17 A2994 RMK SF1CI2 SLP186

CYXE;2016-01-19 23:00;CYXE 192300Z 06004KT 15SM IC FEW005 FEW120 BKN240 M16/M18 A2993 RMK SC1AC1CI4 SLP183

CYXE;2016-01-20 00:00;CYXE 200000Z 08004KT 15SM IC FEW005 SCT160 BKN240 M17/M18 A2993 RMK SC1AC2CI4 SLP186

CYXE;2016-01-20 01:00;CYXE 200100Z 10004KT 15SM IC SCT013 SCT160 BKN240 M17/M19 A2993 RMK SC3AC1CI3 SLP188

CYXE;2016-01-20 02:00;CYXE 200200Z 08003KT 15SM IC FEW013 FEW140 SCT240 M17/M19 A2992 RMK SC1AC1CI2 SLP186

CYXE;2016-01-20 03:00;CYXE 200300Z 07003KT 15SM SCT240 M19/M21 A2992 RMK CI3 SLP185

CYXE;2016-01-20 04:00;CYXE 200400Z 05005KT 15SM IC BKN240 M20/M22 A2992 RMK CI6 SLP190

CYXE;2016-01-20 04:35;CYXE 200435Z 04004KT 15SM IC BKN013 OVC240 M19/M21 A2993 RMK SC6CI2 SLP193

CYXE;2016-01-20 05:00;CYXE 200500Z 04003KT 15SM IC BKN013 OVC240 M20/M21 A2993 RMK SC5CI3 SLP192

CYXE;2016-01-20 05:52;CYXE 200552Z 04007KT 15SM FEW002 FEW015 BKN140 M20/M21 A2993 RMK SF1SC1AC4 SLP191

CYXE;2016-01-20 06:00;CYXE 200600Z 05007KT 15SM FEW002 FEW015 BKN140 M20/M21 A2993 RMK SF1SC1AC4 SLP191

CYXE;2016-01-20 07:00;CYXE 200700Z 05006KT 15SM FEW002 BKN150 M21/M23 A2993 RMK SF1AC5 SLP191

CYXE;2016-01-20 08:00;CYXE 200800Z 05006KT 15SM BKN180 M21/M23 A2993 RMK AC5 SLP190

CYXE;2016-01-20 09:00;CYXE 200900Z 05007KT 15SM SCT180 M22/M24 A2994 RMK AC4 SLP192

CYXE;2016-01-20 10:00;CYXE 201000Z 05006KT 15SM SCT180 M22/M24 A2995 RMK AC4 SLP195

CYXE;2016-01-20 11:00;CYXE 201100Z 00000KT 15SM BKN009 M22/M24 A2998 RMK ST7 SLP205

CYXE;2016-01-20 12:00;CYXE 201200Z 34003KT 280V350 15SM IC SCT008 OVC012 M22/M25 A3000 RMK ST4SC4 SLP214

CYXE;2016-01-20 13:00;CYXE 201300Z 02003KT 15SM IC SCT008 OVC014 M20/M22 A3001 RMK SF4SC4 SLP217

CYXE;2016-01-20 14:00;CYXE 201400Z 01005KT 15SM -SN SCT008 OVC014 M17/M19 A3005 RMK ST3SC5 SLP228

CYXE;2016-01-20 15:00;CYXE 201500Z 01005KT 15SM -SN OVC014 M17/M18 A3008 RMK SC8 SLP239

CYXE;2016-01-20 16:00;CYXE 201600Z 03009KT 8SM -SN BKN014 M16/M18 A3009 RMK SC7 BR SLP243

CYXE;2016-01-20 16:10;CYXE 201610Z 02007KT 12SM IC SCT014 BKN250 M16/M18 A3010 RMK SC4CI1 SLP247

CYXE;2016-01-20 17:00;CYXE 201700Z 03009KT 15SM IC FEW014 BKN018 BKN250 M16/M18 A3013 RMK SC2SC3CI1 SLP255

CYXE;2016-01-20 18:00;CYXE 201800Z 02009KT 15SM IC SCT018 BKN250 M15/M17 A3015 RMK SC3CI2 SLP262

CYXE;2016-01-20 19:00;CYXE 201900Z 02008KT 15SM FEW012 SCT250 M15/M17 A3015 RMK SC1CI2 SLP261

CYXE;2016-01-20 20:00;CYXE 202000Z 02007KT 15SM FEW012 SCT250 M14/M17 A3015 RMK SC1CI3 SLP264

CYXE;2016-01-20 21:00;CYXE 202100Z 36006KT 15SM FEW012 BKN240 M15/M18 A3017 RMK SC1CI6 SLP271

CYXE;2016-01-20 22:00;CYXE 202200Z 32005KT 15SM FEW012 OVC240 M16/M19 A3020 RMK SC1CI7 SLP281

CYXE;2016-01-20 23:00;CYXE 202300Z 34003KT 15SM FEW012 OVC240 M16/M19 A3022 RMK SC1CI7 SLP289

CYXE;2016-01-21 00:00;CYXE 210000Z 28005KT 15SM FEW013 OVC220 M18/M20 A3026 RMK SC1CI7 SLP304

CYXE;2016-01-21 01:00;CYXE 210100Z 28006KT 15SM FEW012 OVC220 M18/M20 A3028 RMK SC1CI7 SLP311

CYXE;2016-01-21 02:00;CYXE 210200Z 30005KT 15SM FEW012 OVC200 M17/M19 A3029 RMK SC1CI7 SLP311

CYXE;2016-01-21 03:00;CYXE 210300Z 28005KT 15SM FEW015 OVC200 M16/M18 A3031 RMK SC1CI7 SLP315

CYXE;2016-01-21 04:00;CYXE 210400Z 28003KT 15SM FEW015 OVC200 M15/M18 A3030 RMK SC1CI7 SLP312

CYXE;2016-01-21 05:00;CYXE 210500Z 00000KT 15SM FEW015 OVC200 M15/M18 A3031 RMK SC1CI7 SLP313

CYXE;2016-01-21 05:45;CYXE 210545Z 24003KT 12SM -SN OVC052 M15/M17 A3031 RMK SC8 SLP316

CYXE;2016-01-21 06:00;CYXE 210600Z 23005KT 12SM -SN BKN052 M15/M18 A3032 RMK SC7 SLP316

CYXE;2016-01-21 07:00;CYXE 210700Z 22003KT 12SM -SN BKN041 M15/M17 A3032 RMK SC7 SLP318

CYXE;2016-01-21 08:00;CYXE 210800Z 24005KT 10SM -SN OVC066 M15/M17 A3032 RMK AC8 SLP318

CYXE;2016-01-21 09:00;CYXE 210900Z 24005KT 10SM -SN BKN070 M15/M17 A3034 RMK AC7 SLP325

CYXE;2016-01-21 10:00;CYXE 211000Z 23006KT 15SM -SN SCT070 M17/M18 A3035 RMK AC3 SLP330

CYXE;2016-01-21 10:09;CYXE 211009Z 23005KT 15SM SCT070 M17/M18 A3035 RMK AC3 SLP331

CYXE;2016-01-21 11:00;CYXE 211100Z 21005KT 15SM FEW015 M18/M19 A3035 RMK SC2 SLP331

CYXE;2016-01-21 12:00;CYXE 211200Z 19006KT 15SM FEW015 SCT180 M18/M20 A3034 RMK SC1AC2 SLP328

CYXE;2016-01-21 13:00;CYXE 211300Z 18006KT 150V250 15SM BKN048 M16/M17 A3033 RMK SC7 SLP325

CYXE;2016-01-21 14:00;CYXE 211400Z 16005KT 15SM BKN040 M15/M17 A3033 RMK SC7 PRESFR SLP322

CYXE;2016-01-21 15:00;CYXE 211500Z 21008KT 15SM BKN038 M15/M17 A3035 RMK SC7 SLP328

CYXE;2016-01-21 16:00;CYXE 211600Z 19008KT 15SM BKN037 M15/M17 A3034 RMK SC7 SLP326

CYXE;2016-01-21 17:00;CYXE 211700Z 18007KT 15SM FEW040 BKN250 M16/M17 A3033 RMK SC2CI5 SLP320

CYXE;2016-01-21 18:00;CYXE 211800Z 19008KT 15SM FEW040 BKN250 M14/M16 A3032 RMK SC1CI5 SLP317

CYXE;2016-01-21 19:00;CYXE 211900Z 19010G16KT 15SM FEW040 BKN250 M14/M16 A3029 RMK SC1CI5 SLP306

CYXE;2016-01-21 20:00;CYXE 212000Z 21012KT 15SM BKN250 M13/M16 A3030 RMK CI7 SLP310

CYXE;2016-01-21 21:00;CYXE 212100Z 18011KT 15SM BKN250 M12/M15 A3027 RMK CI7 SLP299

CYXE;2016-01-21 22:00;CYXE 212200Z 14009KT 15SM OVC200 M12/M15 A3023 RMK CS8 SLP284

CYXE;2016-01-21 23:00;CYXE 212300Z 14009KT 15SM OVC180 M13/M16 A3023 RMK CI8 SLP286

CYXE;2016-01-22 00:00;CYXE 220000Z 13009KT 15SM FEW170 M13/M16 A3022 RMK AC2 SLP285

CYXE;2016-01-22 01:00;CYXE 220100Z 16005KT 15SM BKN200 M14/M17 A3020 RMK CI6 SLP277

CYXE;2016-01-22 02:00;CYXE 220200Z 13011KT 15SM BKN200 M13/M15 A3015 RMK CI6 SLP259

CYXE;2016-01-22 03:00;CYXE 220300Z 15011KT 15SM SCT200 M14/M16 A3012 RMK CI3 SLP249

CYXE;2016-01-22 04:00;CYXE 220400Z 14011KT 15SM BKN200 M13/M15 A3009 RMK CI5 SLP236

CYXE;2016-01-22 05:00;CYXE 220500Z 14013KT 15SM BKN210 M12/M14 A3004 RMK CI7 SLP220

CYXE;2016-01-22 06:00;CYXE 220600Z 13009KT 15SM SCT210 M12/M14 A3002 RMK CI4 SLP212

CYXE;2016-01-22 07:00;CYXE 220700Z 16013KT 15SM SCT210 M10/M12 A2998 RMK CI4 SLP197

CYXE;2016-01-22 08:00;CYXE 220800Z 16013G19KT 15SM SCT210 M08/M10 A2992 RMK CI4 SLP174

CYXE;2016-01-22 09:00;CYXE 220900Z 18015KT 15SM BKN240 M08/M11 A2992 RMK CI6 SLP171

CYXE;2016-01-22 10:00;CYXE 221000Z 17016KT 15SM BKN220 M08/M10 A2987 RMK CI5 SLP156

CYXE;2016-01-22 11:00;CYXE 221100Z 18013G20KT 15SM BKN220 M07/M10 A2985 RMK CI5 SLP149

CYXE;2016-01-22 12:00;CYXE 221200Z 17012KT 15SM BKN220 M07/M09 A2982 RMK CI5 SLP139

CYXE;2016-01-22 13:00;CYXE 221300Z 17010G16KT 15SM BKN220 M07/M09 A2979 RMK CI5 SLP131

CYXE;2016-01-22 14:00;CYXE 221400Z 18013KT 15SM SCT220 M06/M08 A2977 RMK CI4 SLP121

CYXE;2016-01-22 15:00;CYXE 221500Z 18010KT 15SM BKN220 M06/M07 A2975 RMK CI6 SLP115

CYXE;2016-01-22 16:00;CYXE 221600Z 19011KT 15SM BKN250 M05/M07 A2974 RMK CI7 SLP112

CYXE;2016-01-22 17:00;CYXE 221700Z 20008KT 15SM BKN250 M04/M06 A2973 RMK CI7 SLP104

CYXE;2016-01-22 18:00;CYXE 221800Z 22007KT 15SM BKN250 M01/M04 A2972 RMK CI7 SLP100

CYXE;2016-01-22 19:00;CYXE 221900Z 29004KT 15SM BKN250 M02/M05 A2970 RMK CI7 SLP094

CYXE;2016-01-22 20:00;CYXE 222000Z 33002KT 15SM FEW120 BKN250 M03/M05 A2968 RMK AC1CI6 SLP085

CYXE;2016-01-22 21:00;CYXE 222100Z 04008KT 15SM FEW120 BKN250 M04/M07 A2967 RMK AC1CI6 SLP081

CYXE;2016-01-22 22:00;CYXE 222200Z 08005KT 15SM BKN300 M05/M07 A2966 RMK CI5 SLP078

CYXE;2016-01-22 23:00;CYXE 222300Z 03005KT 15SM FEW130 BKN300 M06/M07 A2964 RMK AC1CI5 SLP073

CYXE;2016-01-23 00:00;CYXE 230000Z 02007KT 15SM BKN200 BKN300 M08/M09 A2964 RMK CI5CI1 SLP074

CYXE;2016-01-23 01:00;CYXE 230100Z 07004KT 15SM FEW110 BKN160 OVC210 M07/M08 A2962 RMK AC2AC3CI3 SLP067

CYXE;2016-01-23 02:00;CYXE 230200Z 05006KT 15SM BKN120 OVC220 M07/M08 A2961 RMK AC6CI2 SLP063

CYXE;2016-01-23 03:00;CYXE 230300Z 06010KT 15SM OVC120 M06/M08 A2960 RMK AC8 SLP057

CYXE;2016-01-23 04:00;CYXE 230400Z 06010KT 15SM OVC100 M06/M07 A2958 RMK AC8 SLP051

CYXE;2016-01-23 05:00;CYXE 230500Z 06009KT 15SM SCT080 OVC100 M06/M07 A2956 RMK AC4AC4 SLP043

CYXE;2016-01-23 06:00;CYXE 230600Z 05012KT 15SM BKN250 M06/M07 A2954 RMK CS7 SLP035

CYXE;2016-01-23 07:00;CYXE 230700Z 05011KT 15SM SCT170 BKN250 M07/M07 A2952 RMK AC4CS2 SLP030

CYXE;2016-01-23 08:00;CYXE 230800Z 05012KT 15SM FEW170 BKN250 M06/M07 A2950 RMK AC2CI4 SLP020

CYXE;2016-01-23 09:00;CYXE 230900Z 04014KT 15SM SCT170 OVC250 M06/M07 A2948 RMK AC4CI4 SLP017

CYXE;2016-01-23 09:25;CYXE 230925Z 05015KT 15SM SCT007 OVC095 M06/M06 A2948 RMK SF3AC5 SLP016

CYXE;2016-01-23 10:00;CYXE 231000Z 04016KT 15SM BKN007 OVC100 M05/M06 A2949 RMK ST6AC2 SLP019

CYXE;2016-01-23 11:00;CYXE 231100Z 03017KT 15SM OVC008 M06/M07 A2951 RMK ST8 SLP026

CYXE;2016-01-23 12:00;CYXE 231200Z 02015G22KT 15SM OVC008 M06/M07 A2956 RMK ST8 PRESRR SLP044

CYXE;2016-01-23 12:14;CYXE 231214Z 02017KT 15SM -SN OVC008 M06/M07 A2957 RMK ST8 PRESRR SLP049

CYXE;2016-01-23 13:00;CYXE 231300Z 02014KT 1SM R09/3500VP6000FT/D -SN DRSN VV008 M07/M08 A2961 RMK SN8 SLP061

CYXE;2016-01-23 13:07;CYXE 231307Z 01014KT 3/4SM R09/3000FT/D -SN DRSN VV006 M07/M08 A2961 RMK SN8 SLP063

CYXE;2016-01-23 13:48;CYXE 231348Z 36012KT 1SM R09/3500VP6000FT/U -SN DRSN VV008 M07/M08 A2964 RMK SN8 /S01/ SLP073

CYXE;2016-01-23 14:00;CYXE 231400Z 02013KT 1 1/2SM -SN DRSN OVC025 M07/M09 A2964 RMK SC8 SLP074

CYXE;2016-01-23 14:08;CYXE 231408Z 01013G19KT 3SM -SN DRSN OVC025 M07/M09 A2965 RMK SC8 SLP075

CYXE;2016-01-23 15:00;CYXE 231500Z 36014G20KT 10SM -SN DRSN FEW025 OVC120 M08/M09 A2969 RMK SC2AC6 PRESRR SLP088

CYXE;2016-01-23 16:00;CYXE 231600Z 35011KT 10SM -SN DRSN OVC023 M07/M09 A2974 RMK SC8 PRESRR SLP108

CYXE;2016-01-23 16:34;CYXE 231634Z 34010KT 2SM -SN DRSN VV025 M07/M09 A2978 RMK SN8 PRESRR SLP119

CYXE;2016-01-23 16:47;CYXE 231647Z 01011KT 10SM -SN DRSN OVC025 M07/M09 A2977 RMK SC8 SLP118

CYXE;2016-01-23 17:00;CYXE 231700Z 36010KT 10SM -SN DRSN OVC030 M07/M09 A2978 RMK SC8 SLP119

CYXE;2016-01-23 17:43;CYXE 231743Z 02010KT 15SM FEW025 SCT100 M08/M10 A2979 RMK SC2AC2 SLP123

CYXE;2016-01-23 18:00;CYXE 231800Z 36008KT 15SM FEW030 SCT100 M08/M10 A2980 RMK SC1AC3 SLP127

CYXE;2016-01-23 18:33;CYXE 231833Z 33007KT 15SM BKN014 M07/M10 A2981 RMK SC7 SLP132

CYXE;2016-01-23 19:00;CYXE 231900Z 01008KT 15SM SCT015 BKN025 M07/M10 A2980 RMK SC3SC4 SLP129

CYXE;2016-01-23 20:00;CYXE 232000Z 34006KT 15SM SCT012 SCT025 BKN065 M07/M10 A2982 RMK SC3SC1SC2 SLP133

CYXE;2016-01-23 21:00;CYXE 232100Z 31004KT 15SM SCT012 M07/M10 A2981 RMK SC3 SLP132

CYXE;2016-01-23 22:00;CYXE 232200Z 34003KT 15SM FEW015 SCT100 M07/M10 A2981 RMK SC2AC1 SLP131

CYXE;2016-01-23 23:00;CYXE 232300Z VRB02KT 15SM SCT015 BKN050 M08/M10 A2983 RMK SC3SC4 SLP139

CYXE;2016-01-24 00:00;CYXE 240000Z 19002KT 15SM BKN020 BKN050 M09/M10 A2984 RMK SC5SC2 SLP144

CYXE;2016-01-24 01:00;CYXE 240100Z 16005KT 15SM BKN012 OVC025 M08/M10 A2985 RMK SC5SC3 SLP147

CYXE;2016-01-24 01:31;CYXE 240131Z 17005KT 15SM OVC009 M08/M10 A2985 RMK SC8 SLP147

CYXE;2016-01-24 02:00;CYXE 240200Z 15005KT 15SM OVC008 M07/M09 A2985 RMK SC8 SLP145

CYXE;2016-01-24 03:00;CYXE 240300Z 17006KT 15SM OVC009 M07/M09 A2985 RMK ST8 SLP145

CYXE;2016-01-24 03:48;CYXE 240348Z 19005KT 15SM SCT008 OVC020 M07/M09 A2984 RMK SF4ST4 SLP143

CYXE;2016-01-24 04:00;CYXE 240400Z 21004KT 15SM FEW008 OVC020 M07/M08 A2984 RMK SF2ST6 SLP142

CYXE;2016-01-24 04:48;CYXE 240448Z 23006KT 15SM BKN008 OVC020 M07/M09 A2984 RMK ST5ST3 SLP143

CYXE;2016-01-24 05:00;CYXE 240500Z 23005KT 5SM BR OVC007 M08/M08 A2984 RMK ST8 SLP143

CYXE;2016-01-24 06:00;CYXE 240600Z 20008KT 10SM OVC008 M07/M08 A2985 RMK ST8 BR SLP145

CYXE;2016-01-24 06:47;CYXE 240647Z 21009KT 10SM OVC005 M08/M09 A2985 RMK ST8 BR SLP145

CYXE;2016-01-24 07:00;CYXE 240700Z 21007KT 10SM OVC005 M08/M08 A2984 RMK ST8 BR SLP143

CYXE;2016-01-24 07:24;CYXE 240724Z 22008KT 6SM BR OVC003 M07/M07 A2983 RMK ST8 SLP139

CYXE;2016-01-24 07:48;CYXE 240748Z 24007KT 190V250 2SM BR OVC002 M07/M07 A2983 RMK ST8 SLP139

CYXE;2016-01-24 08:00;CYXE 240800Z 23007KT 3/4SM R09/P6000FT/D BR OVC002 M07/M07 A2983 RMK ST8 SLP140

CYXE;2016-01-24 08:28;CYXE 240828Z 25005KT 1 1/2SM BR OVC002TCU M07/M07 A2983 RMK TCU8 SLP137

CYXE;2016-01-24 08:42;CYXE 240842Z 26007KT 3SM BR BKN002 OVC010 M07/M07 A2983 RMK SF5ST3 SLP137

CYXE;2016-01-24 09:00;CYXE 240900Z 33008KT 6SM BR BKN010 OVC023 M06/M07 A2982 RMK SF5SC3 SLP133

CYXE;2016-01-24 09:45;CYXE 240945Z VRB02KT 10SM OVC023 M06/M07 A2983 RMK SC8 BR SLP137

CYXE;2016-01-24 10:00;CYXE 241000Z 04004KT 10SM M07/M07 A2983 RMK BR SLP136

CYXE;2016-01-24 10:32;CYXE 241032Z 18004KT 10SM BKN008 OVC025 M06/M07 A2983 RMK SF5SC3 BR SLP139

CYXE;2016-01-24 11:00;CYXE 241100Z 19004KT 10SM OVC008 M07/M07 A2984 RMK ST8 BR SLP143

CYXE;2016-01-24 12:00;CYXE 241200Z 22003KT 6SM BR OVC007 M07/M07 A2984 RMK ST8 SLP143

CYXE;2016-01-24 13:00;CYXE 241300Z 21002KT 6SM BR OVC007 M07/M07 A2984 RMK ST8 SLP142

CYXE;2016-01-24 14:00;CYXE 241400Z 00000KT 6SM BR OVC007 M07/M07 A2983 RMK ST8 SLP140

CYXE;2016-01-24 14:39;CYXE 241439Z 00000KT 3SM BR OVC005 M07/M07 A2983 RMK ST8 SLP139

CYXE;2016-01-24 15:00;CYXE 241500Z 00000KT 3SM BR OVC004 M06/M07 A2984 RMK ST8 SLP141

CYXE;2016-01-24 15:13;CYXE 241513Z 00000KT 2SM BR VV003 M06/M07 A2984 RMK FG8 SLP142

CYXE;2016-01-24 15:31;CYXE 241531Z 00000KT 1/2SM R09/P6000FT/D FZFG VV002 M06/M06 A2984 RMK FG8 SLP140

CYXE;2016-01-24 16:00;CYXE 241600Z 21002KT 1/4SM R09/2800VP6000FT/D FZFG VV002 M06/M06 A2984 RMK FG8 SLP142

CYXE;2016-01-24 16:14;CYXE 241614Z 19003KT 1/2SM R09/2600V6000FT/N FZFG VV002 M06/M06 A2985 RMK FG8 SLP144

CYXE;2016-01-24 16:29;CYXE 241629Z VRB02KT 3/4SM R09/3000VP6000FT/U BR VV003 M06/M06 A2985 RMK FG8 SLP143

CYXE;2016-01-24 17:00;CYXE 241700Z 21003KT 1SM R09/5000VP6000FT/D BR VV004 M06/M06 A2986 RMK FG8 SLP148

CYXE;2016-01-24 17:41;CYXE 241741Z 26004KT 3/4SM R09/2000FT/N BR VV002 M06/M06 A2986 RMK FG8 SLP148

CYXE;2016-01-24 17:47;CYXE 241747Z 26004KT 1/2SM R09/1800FT/N FZFG VV002 M06/M06 A2986 RMK FG8 SLP148

CYXE;2016-01-24 18:00;CYXE 241800Z 25004KT 1/4SM R09/1400V1800FT/N FZFG VV002 M06/M06 A2986 RMK FG8 SLP148

CYXE;2016-01-24 18:26;CYXE 241826Z 25004KT 1/2SM R09/2400FT/N FZFG VV002 M05/M05 A2985 RMK FG8 SLP145

CYXE;2016-01-24 18:35;CYXE 241835Z 25005KT 1SM R09/2600VP6000FT/N BR OVC003 M05/M06 A2985 RMK ST8 SLP145

CYXE;2016-01-24 19:00;CYXE 241900Z 26004KT 1/2SM R09/1600FT/N FZFG VV002 M05/M05 A2985 RMK FG8 SLP144

CYXE;2016-01-24 19:22;CYXE 241922Z 26005KT 1SM R09/2800V4500FT/N BR VV003 M05/M05 A2985 RMK FG8 SLP144

CYXE;2016-01-24 20:00;CYXE 242000Z 30005KT 3/4SM R09/3500VP6000FT/U BR VV002 M05/M05 A2984 RMK FG8 SLP141

CYXE;2016-01-24 20:11;CYXE 242011Z 30007KT 3SM BR OVC005 M05/M05 A2984 RMK ST8 SLP142

CYXE;2016-01-24 21:00;CYXE 242100Z 29006KT 3SM BR OVC008 M05/M05 A2985 RMK ST8 SLP142

CYXE;2016-01-24 21:42;CYXE 242142Z 29008KT 3SM BR OVC004 M05/M05 A2985 RMK ST8 SLP145

CYXE;2016-01-24 22:00;CYXE 242200Z 31010KT 5SM BR OVC005 M05/M05 A2986 RMK SF8 SLP147

CYXE;2016-01-24 22:16;CYXE 242216Z 31009KT 12SM SCT004 OVC008 M06/M06 A2986 RMK SF3ST5 SLP147

CYXE;2016-01-24 23:00;CYXE 242300Z 29008KT 15SM OVC008 M06/M06 A2987 RMK ST8 SLP151

CYXE;2016-01-25 00:00;CYXE 250000Z 29006KT 15SM SCT009 BKN070 BKN160 M08/M09 A2989 RMK ST4AC2AC1 SLP158

CYXE;2016-01-25 01:00;CYXE 250100Z 29007KT 15SM BKN009 BKN100 OVC180 M08/M08 A2989 RMK SF5AC2AC1 SLP160

CYXE;2016-01-25 02:00;CYXE 250200Z 28004KT 15SM OVC009 M07/M08 A2991 RMK SF8 SLP164

CYXE;2016-01-25 03:00;CYXE 250300Z 25003KT 15SM OVC010 M06/M06 A2991 RMK SF8 SLP164

CYXE;2016-01-25 03:50;CYXE 250350Z 23006KT 15SM OVC015 M05/M06 A2992 RMK SF8 SLP166

CYXE;2016-01-25 04:00;CYXE 250400Z 23005KT 15SM OVC016 M05/M06 A2992 RMK SF8 SLP166

CYXE;2016-01-25 04:33;CYXE 250433Z 23008KT 15SM OVC012 M05/M06 A2992 RMK SF8 SLP167

CYXE;2016-01-25 05:00;CYXE 250500Z 24009KT 15SM OVC011 M05/M06 A2992 RMK SF8 SLP168

CYXE;2016-01-25 06:00;CYXE 250600Z 31012KT 15SM OVC007 M04/M05 A2992 RMK ST8 SLP166

CYXE;2016-01-25 06:32;CYXE 250632Z 29010KT 15SM OVC006 M04/M04 A2993 RMK ST8 SLP169

CYXE;2016-01-25 07:00;CYXE 250700Z 30009KT 15SM OVC006 M04/M04 A2994 RMK ST8 SLP172

CYXE;2016-01-25 08:00;CYXE 250800Z 31012KT 15SM OVC006 M04/M05 A2994 RMK ST8 SLP173

CYXE;2016-01-25 09:00;CYXE 250900Z 32010KT 15SM OVC006 M04/M05 A2995 RMK ST8 SLP176

CYXE;2016-01-25 10:00;CYXE 251000Z 31010KT 15SM OVC006 M05/M05 A2996 RMK ST8 SLP179

CYXE;2016-01-25 10:11;CYXE 251011Z 29008KT 15SM OVC004 M05/M05 A2996 RMK ST8 SLP179

CYXE;2016-01-25 10:46;CYXE 251046Z 29010KT 6SM BR OVC003 M05/M05 A2996 RMK ST8 SLP181

CYXE;2016-01-25 11:00;CYXE 251100Z 30010KT 3SM -SN BR OVC003 M06/M06 A2996 RMK ST8 SLP183

CYXE;2016-01-25 11:17;CYXE 251117Z 28011KT 1SM R09/P6000FT/D -SN BR OVC002 M06/M06 A2997 RMK ST8 SLP185

CYXE;2016-01-25 11:39;CYXE 251139Z 29007KT 3SM -SN BR OVC003 M07/M07 A2997 RMK ST8 SLP185

CYXE;2016-01-25 12:00;CYXE 251200Z 27009KT 3SM -SN BR OVC003 M07/M07 A2997 RMK ST8 SLP187

CYXE;2016-01-25 12:27;CYXE 251227Z 28010KT 2SM SN BR OVC003 M08/M08 A2997 RMK ST8 SLP189

CYXE;2016-01-25 12:50;CYXE 251250Z 27009KT 3/4SM R09/P6000FT/D BR OVC002 M08/M08 A2997 RMK ST8 SLP189

CYXE;2016-01-25 13:00;CYXE 251300Z 27007KT 3/4SM R09/P6000FT/U BR OVC002 M08/M08 A2997 RMK ST8 SLP188

CYXE;2016-01-25 13:18;CYXE 251318Z 25008KT 1/2SM R09/4500VP6000FT/D FZFG VV002 M08/M08 A2997 RMK FG8 SLP188

CYXE;2016-01-25 13:38;CYXE 251338Z 27009KT 1 1/2SM BR OVC003 M08/M08 A2997 RMK ST8 SLP189

CYXE;2016-01-25 14:04;CYXE 251404Z 25007KT 1/2SM R09/P6000FT/N FZFG VV002 M09/M10 A2998 RMK FG8 SLP191

CYXE;2016-01-25 14:18;CYXE 251418Z 24007KT 1/2SM R09/5000VP6000FT/U FZFG SCT006 M11/M12 A2998 RMK ST4 SLP192

CYXE;2016-01-25 15:00;CYXE 251500Z 23007KT 1SM R09/3000VP6000FT/U BR BKN005 M12/M13 A2999 RMK ST6 SLP196

CYXE;2016-01-25 15:13;CYXE 251513Z 25007KT 3SM BR OVC005 M12/M13 A3000 RMK ST8 SLP198

CYXE;2016-01-25 16:00;CYXE 251600Z 27005KT 3SM BR OVC004 M12/M13 A3001 RMK ST8 SLP203

CYXE;2016-01-25 16:40;CYXE 251640Z 29005KT 6SM BR OVC005 M11/M12 A3003 RMK ST8 SLP208

CYXE;2016-01-25 17:00;CYXE 251700Z 32009KT 10SM BKN006 M10/M11 A3004 RMK ST7 BR SLP210

CYXE;2016-01-25 18:00;CYXE 251800Z 30008KT 10SM OVC005 M10/M10 A3005 RMK ST8 BR SLP215

CYXE;2016-01-25 19:00;CYXE 251900Z 29007KT 10SM OVC005 M09/M10 A3005 RMK ST8 BR SLP214

CYXE;2016-01-25 19:20;CYXE 251920Z 29006KT 3SM BR OVC004 M09/M10 A3005 RMK ST8 SLP214

CYXE;2016-01-25 19:52;CYXE 251952Z 30007KT 1 1/2SM R09/5000VP6000FT/D BR OVC002 M09/M10 A3005 RMK ST8 SLP213

CYXE;2016-01-25 20:00;CYXE 252000Z 29006KT 1 1/2SM BR VV002 M09/M10 A3005 RMK FG8 SLP213

CYXE;2016-01-25 20:19;CYXE 252019Z 30007KT 3SM BR OVC003 M09/M10 A3005 RMK ST8 SLP213

CYXE;2016-01-25 20:32;CYXE 252032Z 31007KT 2SM -SN BR OVC003 M09/M10 A3005 RMK ST8 SLP214

CYXE;2016-01-25 21:00;CYXE 252100Z 28009KT 2SM R09/5500VP6000FT/D BR SCT003 OVC006 M09/M09 A3006 RMK ST4SC4 SLP217

CYXE;2016-01-25 21:42;CYXE 252142Z 27008KT 4SM BR OVC006 M09/M09 A3007 RMK ST8 SLP219

CYXE;2016-01-25 22:00;CYXE 252200Z 28007KT 6SM BR OVC007 M09/M09 A3007 RMK ST8 SLP220

CYXE;2016-01-25 23:00;CYXE 252300Z 27006KT 15SM OVC008 M09/M09 A3009 RMK ST8 SLP226

CYXE;2016-01-26 00:00;CYXE 260000Z 29004KT 15SM OVC008 M09/M09 A3010 RMK ST8 SLP233

CYXE;2016-01-26 01:00;CYXE 260100Z 24004KT 15SM OVC008 M09/M09 A3009 RMK ST8 SLP230

CYXE;2016-01-26 02:00;CYXE 260200Z 27002KT 15SM BKN008 M08/M09 A3010 RMK ST6 SLP235

CYXE;2016-01-26 02:12;CYXE 260212Z 24003KT 15SM -SG OVC006 M08/M09 A3010 RMK ST8 SLP234

CYXE;2016-01-26 02:42;CYXE 260242Z 23003KT 200V290 15SM -SG OVC005 M09/M09 A3010 RMK ST8 SLP232

CYXE;2016-01-26 03:00;CYXE 260300Z 24004KT 190V250 15SM -SG OVC005 M09/M09 A3009 RMK ST8 SLP232

CYXE;2016-01-26 03:35;CYXE 260335Z 23007KT 15SM -SG OVC004 M09/M09 A3010 RMK ST8 SLP234

CYXE;2016-01-26 04:00;CYXE 260400Z 22007KT 10SM -SG OVC003 M09/M10 A3009 RMK ST8 BR SLP233

CYXE;2016-01-26 04:14;CYXE 260414Z 26010KT 2 1/2SM -SG BR OVC002 M10/M11 A3009 RMK ST8 SLP234

CYXE;2016-01-26 04:23;CYXE 260423Z 25008KT 1 1/2SM -SG BR OVC002 M10/M11 A3009 RMK ST8 SLP233

CYXE;2016-01-26 04:34;CYXE 260434Z 25007KT 1/2SM R09/P6000FT/U -SG FZFG OVC002 M10/M11 A3009 RMK ST8 SLP234

CYXE;2016-01-26 05:00;CYXE 260500Z 22007KT 1/2SM R09/P6000FT/U -SG FZFG OVC002 M10/M11 A3009 RMK ST8 FROIN SLP230

CYXE;2016-01-26 05:08;CYXE 260508Z 22010KT 1SM R09/P6000FT/U -SG BR OVC003 M10/M11 A3008 RMK ST8 SLP229

CYXE;2016-01-26 06:00;CYXE 260600Z 19011KT 1SM R09/P6000FT/N -SG BR OVC003 M11/M12 A3007 RMK ST8 SLP225

CYXE;2016-01-26 07:00;CYXE 260700Z 21010KT 3/4SM R09/4000VP6000FT/D -SG BR OVC002 M11/M12 A3007 RMK ST8 SLP225

CYXE;2016-01-26 08:00;CYXE 260800Z 20007KT 3/4SM R09/P6000FT/N -SG BR OVC002 M13/M14 A3005 RMK ST8 SLP220

CYXE;2016-01-26 08:20;CYXE 260820Z 20011KT 3SM -SN BR OVC003 M13/M14 A3006 RMK ST8 SLP222

CYXE;2016-01-26 08:45;CYXE 260845Z 19007KT 10SM BKN003 M14/M15 A3006 RMK ST5 BR SLP222

CYXE;2016-01-26 09:00;CYXE 260900Z 17006KT 10SM SCT003 M14/M15 A3005 RMK ST3 BR SLP221

CYXE;2016-01-26 10:00;CYXE 261000Z 19008KT 15SM FEW003 SCT240 M15/M16 A3004 RMK SF2CI2 SLP217

CYXE;2016-01-26 11:00;CYXE 261100Z 19011KT 15SM FEW005 SCT240 M16/M17 A3003 RMK SF2CI2 SLP215

CYXE;2016-01-26 12:00;CYXE 261200Z 19009KT 15SM FEW005 BKN230 M16/M18 A3001 RMK SF2CI4 SLP208

CYXE;2016-01-26 13:00;CYXE 261300Z 20010G17KT 15SM SCT005 BKN130 BKN230 M16/M17 A3000 RMK SF3AC2CI1 SLP204

CYXE;2016-01-26 14:00;CYXE 261400Z 20009G15KT 15SM FEW005 BKN250 M15/M17 A2998 RMK ST2CI4 SLP195

CYXE;2016-01-26 14:30;CYXE 261430Z 20007KT 15SM BKN003 OVC250 M15/M16 A2998 RMK ST6CI2 SLP196

CYXE;2016-01-26 15:00;CYXE 261500Z 19009KT 10SM BKN003 M14/M16 A2998 RMK ST7 BR SLP195

CYXE;2016-01-26 15:30;CYXE 261530Z 19008KT 10SM SCT003 BKN110 M14/M16 A2997 RMK ST3AC4 BR SLP191

CYXE;2016-01-26 16:00;CYXE 261600Z 19008KT 12SM FEW003 SCT110 BKN150 M13/M14 A2996 RMK ST1AC3AC3 BR SLP189

CYXE;2016-01-26 17:00;CYXE 261700Z 20008KT 12SM BKN100 BKN150 M12/M13 A2995 RMK AC6AC1 BR SLP186

CYXE;2016-01-26 18:00;CYXE 261800Z 20007KT 10SM OVC120 M10/M10 A2995 RMK AC8 BR SLP183

CYXE;2016-01-26 19:00;CYXE 261900Z 22008KT 15SM BKN085 M08/M08 A2993 RMK AC7 SLP175

CYXE;2016-01-26 20:00;CYXE 262000Z 22011KT 15SM BKN090 M06/M06 A2988 RMK AC6 PRESFR SLP158

CYXE;2016-01-26 21:00;CYXE 262100Z 21009KT 15SM SCT080 BKN250 M05/M05 A2985 RMK AC3CI4 SLP148

CYXE;2016-01-26 22:00;CYXE 262200Z 21008KT 15SM BKN060 OVC250 M03/M06 A2984 RMK SC6CI2 SLP143

CYXE;2016-01-26 23:00;CYXE 262300Z 20010KT 15SM SCT075 BKN250 M03/M06 A2981 RMK AC4CI3 CC ASOCTD SLP135

CYXE;2016-01-27 00:00;CYXE 270000Z 20010KT 15SM SCT070 BKN180 BKN250 M03/M06 A2978 RMK AC3AC3CI1 PRESFR SLP125

CYXE;2016-01-27 01:00;CYXE 270100Z 22011KT 15SM OVC100 M03/M06 A2975 RMK AC8 SLP115

CYXE;2016-01-27 02:00;CYXE 270200Z 21012KT 15SM BKN060 OVC100 M02/M05 A2972 RMK SC7AC1 SLP101

CYXE;2016-01-27 03:00;CYXE 270300Z 21009KT 15SM OVC080 M02/M05 A2968 RMK AC8 SLP089

CYXE;2016-01-27 03:49;CYXE 270349Z 21009KT 15SM -FZRA OVC060 M02/M05 A2965 RMK SC8 SLP076

CYXE;2016-01-27 04:00;CYXE 270400Z 22009KT 15SM -FZRA OVC070 M01/M04 A2963 RMK AC8 TR CLR ICG ON INDCTR SLP071

CYXE;2016-01-27 05:00;CYXE 270500Z CCA 24013KT 10SM -FZRA OVC050 M00/M02 A2964 RMK SC8 CLR ICG ON INDCTR BR SLP070

CYXE;2016-01-27 05:07;CYXE 270507Z 26010KT 8SM FZRA OVC043 M00/M02 A2964 RMK SC8 CLR ICG ON INDCTR BR SLP072

CYXE;2016-01-27 06:00;CYXE 270600Z 30013KT 8SM -FZRA -SN OVC020 M00/M01 A2965 RMK SC8 SLP073

CYXE;2016-01-27 07:00;CYXE 270700Z 31016G21KT 6SM -RASN SCT005 OVC026 00/00 A2966 RMK SF3SC5 SLP076

CYXE;2016-01-27 07:43;CYXE 270743Z 29006KT 15SM FEW005 SCT026 OVC060 01/01 A2965 RMK SF2SC2SC4 PRESFR SLP071

CYXE;2016-01-27 08:00;CYXE 270800Z 29007KT 15SM FEW026 SCT060 OVC100 01/01 A2965 RMK SC2SC2AC4 SLP071

CYXE;2016-01-27 09:00;CYXE 270900Z 28014KT 15SM FEW100 SCT170 02/00 A2968 RMK AC2AC2 SLP078

CYXE;2016-01-27 10:00;CYXE 271000Z 29018G26KT 15SM FEW240 03/M00 A2969 RMK CI2 SLP082

CYXE;2016-01-27 11:00;CYXE 271100Z 29022G29KT 15SM SKC 04/M01 A2971 RMK SLP087

CYXE;2016-01-27 12:00;CYXE 271200Z 30023G33KT 15SM SKC 04/M01 A2972 RMK SLP092

CYXE;2016-01-27 13:00;CYXE 271300Z 29019G26KT 15SM SCT200 03/M01 A2974 RMK CI3 SLP098

CYXE;2016-01-27 13:43;CYXE 271343Z 29016G21KT 15SM FEW200 02/M02 A2974 RMK CI2 SLP099

CYXE;2016-01-27 14:00;CYXE 271400Z 29016G22KT 15SM FEW200 02/M02 A2974 RMK CI2 SLP097

CYXE;2016-01-27 15:00;CYXE 271500Z 30017G24KT 15SM FEW120 FEW200 02/M02 A2976 RMK AC1CI1 AC TR SLP105

CYXE;2016-01-27 16:00;CYXE 271600Z 29017G22KT 15SM FEW200 02/M02 A2978 RMK CI1 SLP111

CYXE;2016-01-27 17:00;CYXE 271700Z 29022G32KT 15SM FEW200 03/M02 A2977 RMK CI1 SLP107

CYXE;2016-01-27 18:00;CYXE 271800Z 30022G27KT 15SM FEW300 03/M02 A2978 RMK CI1 SLP112

CYXE;2016-01-27 19:00;CYXE 271900Z 30020G25KT 15SM FEW300 03/M02 A2979 RMK CI1 SLP115

CYXE;2016-01-27 20:00;CYXE 272000Z 30017G23KT 15SM FEW300 03/M02 A2980 RMK CI1 SLP118

CYXE;2016-01-27 21:00;CYXE 272100Z 29015G22KT 15SM BKN300 03/M02 A2981 RMK CI6 SLP120

CYXE;2016-01-27 23:25;CYXE 272325Z 29013G20KT 15SM FEW120 BKN300 02/M02 A2986 RMK AC1CI6 SLP135

CYXE;2016-01-28 00:00;CYXE 280000Z 30010KT 15SM FEW140 BKN300 02/M02 A2987 RMK AC2CI3 SLP141

CYXE;2016-01-28 01:00;CYXE 280100Z 25007KT 15SM FEW140 SCT300 M00/M03 A2989 RMK AC2CI2 SLP150

CYXE;2016-01-28 02:00;CYXE 280200Z 28009KT 15SM FEW240 M01/M04 A2989 RMK CI2 SLP149

CYXE;2016-01-28 03:00;CYXE 280300Z 30009KT 15SM FEW240 M02/M05 A2989 RMK CI1 SLP150

CYXE;2016-01-28 04:00;CYXE 280400Z 24007KT 15SM FEW240 M05/M06 A2989 RMK CI1 SLP150

CYXE;2016-01-28 05:00;CYXE 280500Z CCA 27008KT 15SM FEW220 M05/M06 A2988 RMK CI2 SLP149

CYXE;2016-01-28 06:00;CYXE 280600Z 24009KT 15SM FEW220 M06/M07 A2988 RMK CI2 SLP147

CYXE;2016-01-28 07:00;CYXE 280700Z 22007KT 15SM SCT220 M06/M07 A2986 RMK CI3 SLP141

CYXE;2016-01-28 08:00;CYXE 280800Z 22006KT 15SM SCT200 M07/M07 A2985 RMK CI3 SLP138

CYXE;2016-01-28 09:00;CYXE 280900Z 19006KT 15SM FEW200 M07/M07 A2985 RMK CI2 SLP138

CYXE;2016-01-28 10:00;CYXE 281000Z 18005KT 15SM FEW200 M07/M08 A2982 RMK CI2 PRESFR SLP127

CYXE;2016-01-28 11:00;CYXE 281100Z 17004KT 15SM FEW200 M07/M07 A2979 RMK CI2 SLP117

CYXE;2016-01-28 12:00;CYXE 281200Z 19005KT 15SM SCT200 M07/M08 A2976 RMK CI4 SLP109

CYXE;2016-01-28 13:00;CYXE 281300Z 15005KT 15SM BKN200 M06/M07 A2972 RMK CI6 SLP096

CYXE;2016-01-28 14:00;CYXE 281400Z 14008KT 15SM SCT200 M05/M07 A2968 RMK CI3 SLP081

CYXE;2016-01-28 15:00;CYXE 281500Z 12008KT 15SM BKN200 M04/M06 A2965 RMK CI5 SLP073

CYXE;2016-01-28 16:00;CYXE 281600Z 15010KT 15SM BKN180 BKN230 M03/M05 A2961 RMK AC5CI2 SLP058

CYXE;2016-01-28 17:00;CYXE 281700Z 16011KT 15SM BKN190 M01/M04 A2956 RMK AC7 SLP042

CYXE;2016-01-28 18:00;CYXE 281800Z 16010KT 15SM SCT160 BKN300 00/M03 A2954 RMK AC4CI2 SLP033

CYXE;2016-01-28 19:00;CYXE 281900Z 17014KT 15SM BKN300 01/M02 A2948 RMK CI6 PRESFR SLP013

CYXE;2016-01-28 20:00;CYXE 282000Z 17013KT 15SM SCT300 02/M01 A2944 RMK CI4 PRESFR SLP997

CYXE;2016-01-28 21:00;CYXE 282100Z 17011KT 15SM BKN300 02/M01 A2939 RMK CI6 PRESFR SLP982

CYXE;2016-01-28 22:00;CYXE 282200Z 18009KT 15SM BKN300 03/M00 A2937 RMK CI6 SLP974

CYXE;2016-01-28 23:00;CYXE 282300Z 19010KT 15SM BKN260 03/00 A2934 RMK CI6 SLP963

CYXE;2016-01-28 23:52;CYXE 282352Z 19008KT 15SM BKN260 02/00 A2931 RMK CI6 SLP954

CYXE;2016-01-29 00:00;CYXE 290000Z 19009KT 15SM BKN260 02/00 A2931 RMK CI6 SLP953

CYXE;2016-01-29 01:00;CYXE 290100Z 21012KT 15SM BKN240 03/00 A2928 RMK CI6 SLP942

CYXE;2016-01-29 01:32;CYXE 290132Z 20008KT 15SM BKN240 02/00 A2927 RMK CI7 SLP938

CYXE;2016-01-29 02:00;CYXE 290200Z 21008KT 15SM BKN220 02/00 A2926 RMK CI7 SLP936

CYXE;2016-01-29 03:00;CYXE 290300Z 23011G21KT 15SM SCT210 02/00 A2925 RMK CI4 SLP931

CYXE;2016-01-29 04:00;CYXE 290400Z 24008KT 15SM SCT210 01/M00 A2924 RMK CI3 SLP928

CYXE;2016-01-29 05:00;CYXE 290500Z 23006KT 15SM FEW210 M01/M01 A2925 RMK CI2 SLP930

CYXE;2016-01-29 06:00;CYXE 290600Z 24003KT 15SM BKN210 01/M01 A2927 RMK CI5 SLP935

CYXE;2016-01-29 07:00;CYXE 290700Z 28007KT 15SM BKN110 BKN210 01/M01 A2929 RMK AC6CI1 SLP943

CYXE;2016-01-29 08:00;CYXE 290800Z 30010G17KT 15SM BKN110 BKN210 01/M01 A2931 RMK AC6CI1 SLP949

CYXE;2016-01-29 09:00;CYXE 290900Z 31013KT 15SM OVC073 02/M01 A2934 RMK AC8 SLP959

CYXE;2016-01-29 10:00;CYXE 291000Z 28006KT 15SM OVC075 02/M01 A2937 RMK AC8 SLP969

CYXE;2016-01-29 11:00;CYXE 291100Z 28009KT 15SM OVC080 03/M01 A2939 RMK AC8 PRESRR SLP974

CYXE;2016-01-29 12:00;CYXE 291200Z 29012KT 15SM BKN120 03/M03 A2939 RMK AC6 SLP975

CYXE;2016-01-29 12:49;CYXE 291249Z 28013KT 15SM FEW120 02/M03 A2939 RMK AC2 SLP974

CYXE;2016-01-29 13:00;CYXE 291300Z 27013KT 15SM FEW120 01/M03 A2939 RMK AC2 SLP976

CYXE;2016-01-29 14:00;CYXE 291400Z 26015KT 15SM FEW120 01/M04 A2939 RMK AC1 SLP975

CYXE;2016-01-29 15:00;CYXE 291500Z 27015KT 15SM FEW120 00/M05 A2937 RMK AC1 SLP969

CYXE;2016-01-29 16:00;CYXE 291600Z 27019G25KT 15SM SCT200 01/M04 A2936 RMK CI4 SLP968

CYXE;2016-01-29 17:00;CYXE 291700Z 29019G26KT 15SM SCT200 02/M03 A2936 RMK CI4 SLP967

CYXE;2016-01-29 18:00;CYXE 291800Z 28018G25KT 15SM FEW065 SCT210 03/M02 A2937 RMK SC1CI2 SLP969

CYXE;2016-01-29 19:00;CYXE 291900Z 28020G27KT 15SM SCT210 03/M02 A2935 RMK CI3 SLP961

CYXE;2016-01-29 20:00;CYXE 292000Z 27019KT 15SM SCT090 SCT300 03/M02 A2934 RMK AC3CI1 SLP958

CYXE;2016-01-29 21:00;CYXE 292100Z 28021G27KT 15SM FEW090 SCT300 03/M03 A2933 RMK AC1CI3 SLP955

CYXE;2016-01-29 22:00;CYXE 292200Z 28018KT 15SM FEW300 03/M03 A2933 RMK CI2 SLP956

CYXE;2016-01-29 23:00;CYXE 292300Z 28015KT 15SM FEW300 03/M03 A2933 RMK CI1 SLP956

CYXE;2016-01-30 00:00;CYXE 300000Z 25011G18KT 15SM FEW300 01/M03 A2935 RMK CI1 SLP963

CYXE;2016-01-30 01:00;CYXE 300100Z 26012KT 15SM SKC M01/M04 A2935 RMK SLP964

CYXE;2016-01-30 02:00;CYXE 300200Z 28012KT 15SM SKC M01/M04 A2934 RMK SLP963

CYXE;2016-01-30 03:00;CYXE 300300Z 25005KT 15SM SKC M03/M06 A2935 RMK SLP967

CYXE;2016-01-30 04:00;CYXE 300400Z 26009KT 15SM SKC M04/M06 A2935 RMK SLP965

CYXE;2016-01-30 05:00;CYXE 300500Z 28010KT 15SM SKC M05/M07 A2934 RMK SLP963

CYXE;2016-01-30 06:00;CYXE 300600Z 29010KT 15SM SKC M04/M07 A2935 RMK SLP965

CYXE;2016-01-30 07:00;CYXE 300700Z 30009KT 15SM SKC M06/M08 A2936 RMK SLP968

CYXE;2016-01-30 08:00;CYXE 300800Z 26008KT 15SM SKC M06/M08 A2937 RMK SLP972

CYXE;2016-01-30 09:00;CYXE 300900Z 24010KT 15SM SKC M08/M10 A2938 RMK SLP977

CYXE;2016-01-30 10:00;CYXE 301000Z 24007KT 15SM SKC M10/M12 A2938 RMK SLP980

CYXE;2016-01-30 11:00;CYXE 301100Z 25009KT 15SM SKC M10/M12 A2940 RMK SLP987

CYXE;2016-01-30 12:00;CYXE 301200Z 25006KT 15SM SKC M11/M13 A2941 RMK SLP991

CYXE;2016-01-30 13:00;CYXE 301300Z 25008KT 15SM SKC M11/M12 A2941 RMK SLP992

CYXE;2016-01-30 14:00;CYXE 301400Z 23010KT 15SM SKC M12/M13 A2941 RMK SLP994

CYXE;2016-01-30 15:00;CYXE 301500Z 25008KT 15SM SKC M12/M13 A2943 RMK SLP000

CYXE;2016-01-30 16:00;CYXE 301600Z 23010KT 15SM SKC M11/M13 A2943 RMK SLP002

CYXE;2016-01-30 17:00;CYXE 301700Z 24008KT 15SM SKC M09/M11 A2944 RMK SLP003

CYXE;2016-01-30 18:00;CYXE 301800Z 27005KT 15SM SKC M06/M10 A2945 RMK SLP006

CYXE;2016-01-30 19:00;CYXE 301900Z 29010KT 15SM SKC M03/M08 A2946 RMK SLP006

CYXE;2016-01-30 20:00;CYXE 302000Z 29010KT 15SM SKC M03/M07 A2946 RMK SLP007

CYXE;2016-01-30 21:00;CYXE 302100Z 28010KT 15SM FEW300 M02/M06 A2946 RMK CI1 CI TR SLP008

CYXE;2016-01-30 22:00;CYXE 302200Z 28008KT 15SM FEW300 M02/M06 A2948 RMK CI1 SLP018

CYXE;2016-01-30 23:00;CYXE 302300Z 28007KT 15SM FEW300 M03/M06 A2949 RMK CI1 SLP022

CYXE;2016-01-31 00:00;CYXE 310000Z 26006KT 15SM FEW300 M05/M08 A2952 RMK CI1 SLP032

CYXE;2016-01-31 01:00;CYXE 310100Z 25008KT 15SM FEW300 M07/M09 A2952 RMK CI1 SLP036

CYXE;2016-01-31 02:00;CYXE 310200Z 25007KT 15SM SKC M09/M11 A2953 RMK SLP041

CYXE;2016-01-31 03:00;CYXE 310300Z 22008KT 15SM SKC M10/M11 A2954 RMK SLP044

CYXE;2016-01-31 04:00;CYXE 310400Z 23008KT 15SM SKC M11/M12 A2956 RMK SLP048

CYXE;2016-01-31 05:00;CYXE 310500Z 23009KT 15SM SKC M12/M13 A2956 RMK SLP050

CYXE;2016-01-31 06:00;CYXE 310600Z 23009KT 15SM SKC M12/M14 A2958 RMK SLP054

CYXE;2016-01-31 07:00;CYXE 310700Z 25006KT 15SM SKC M13/M15 A2958 RMK SLP055

CYXE;2016-01-31 08:00;CYXE 310800Z 27010KT 15SM SKC M11/M11 A2959 RMK SLP055

CYXE;2016-01-31 09:00;CYXE 310900Z 30009KT 15SM BKN080 M09/M11 A2961 RMK AC5 SLP060

CYXE;2016-01-31 10:00;CYXE 311000Z 31008KT 15SM BKN084 M09/M11 A2962 RMK AC5 SLP064

CYXE;2016-01-31 11:00;CYXE 311100Z 31007KT 15SM BKN076 M08/M10 A2964 RMK AC7 SLP072

CYXE;2016-01-31 12:00;CYXE 311200Z 30008KT 15SM OVC073 M08/M09 A2966 RMK AC8 SLP078

CYXE;2016-01-31 13:00;CYXE 311300Z 30008KT 15SM BKN075 M09/M10 A2968 RMK AC7 SLP087

CYXE;2016-01-31 14:00;CYXE 311400Z 30008KT 15SM FEW075 BKN210 M10/M12 A2969 RMK AC1CI4 SLP093

CYXE;2016-01-31 15:00;CYXE 311500Z 28004KT 15SM SCT075 SCT210 M11/M12 A2970 RMK AC3CI1 SLP099

CYXE;2016-01-31 16:00;CYXE 311600Z 25006KT 15SM BKN030 M10/M12 A2971 RMK SC6 SLP103

CYXE;2016-01-31 17:00;CYXE 311700Z 27006KT 15SM FEW030 BKN075 M09/M11 A2973 RMK SC1AC5 SLP107

CYXE;2016-01-31 18:00;CYXE 311800Z 29006KT 15SM BKN080 M07/M09 A2974 RMK AC7 SLP111

CYXE;2016-01-31 19:00;CYXE 311900Z 29007KT 15SM BKN095 M06/M08 A2975 RMK AC7 SLP113

CYXE;2016-01-31 20:00;CYXE 312000Z 30010KT 15SM VCSH BKN100 M05/M07 A2976 RMK AC6 SLP114

CYXE;2016-01-31 21:00;CYXE 312100Z 29005KT 15SM SCT100 BKN270 M04/M07 A2976 RMK AC4CI2 SLP113

CYXE;2016-01-31 22:00;CYXE 312200Z 28004KT 15SM BKN140 BKN270 M03/M07 A2977 RMK AC5CI2 SLP117

CYXE;2016-01-31 23:00;CYXE 312300Z 29005KT 15SM BKN140 M05/M07 A2979 RMK AC5 SLP124

CYXE;2016-02-01 00:00;CYXE 010000Z 27004KT 15SM BKN140 M06/M08 A2980 RMK AC7 SLP127

CYXE;2016-02-01 01:00;CYXE 010100Z 31002KT 15SM FEW020 BKN080 OVC140 M06/M08 A2981 RMK SC2AC4AC2 SLP132

CYXE;2016-02-01 01:35;CYXE 010135Z VRB02KT 10SM -SN BKN023 OVC080 M06/M07 A2982 RMK SC6AC2 SLP135

CYXE;2016-02-01 02:00;CYXE 010200Z 05002KT 10SM -SN BKN022 OVC060 M06/M07 A2982 RMK SC6SC2 SLP137

CYXE;2016-02-01 03:00;CYXE 010300Z 07007KT 10SM -SN SCT022 OVC032 M06/M08 A2983 RMK SC4SC4 SLP141

CYXE;2016-02-01 03:41;CYXE 010341Z 06008KT 6SM -SN SCT015 OVC030 M07/M08 A2984 RMK SC4SC4 SLP146

CYXE;2016-02-01 04:00;CYXE 010400Z 05008KT 6SM -SN SCT015 OVC030 M07/M08 A2985 RMK SC4SC4 SLP146

CYXE;2016-02-01 05:00;CYXE 010500Z 07008KT 12SM -SN BKN016 OVC035 M07/M08 A2986 RMK SC5SC3 SLP149

CYXE;2016-02-01 06:00;CYXE 010600Z 06007KT 6SM -SN OVC018 M08/M09 A2987 RMK SC8 SLP152

CYXE;2016-02-01 07:00;CYXE 010700Z 06006KT 10SM -SN OVC020 M08/M09 A2988 RMK SC8 SLP157

CYXE;2016-02-01 08:00;CYXE 010800Z 08005KT 10SM -SN BKN021 OVC031 M08/M10 A2989 RMK SC6SC2 SLP158

CYXE;2016-02-01 09:00;CYXE 010900Z 05007KT 15SM -SN OVC024 M09/M10 A2992 RMK SC8 SLP166

CYXE;2016-02-01 10:00;CYXE 011000Z 04006KT 15SM -SN OVC024 M09/M10 A2993 RMK SC8 SLP170

CYXE;2016-02-01 11:00;CYXE 011100Z 04004KT 15SM -SN OVC021 M09/M11 A2994 RMK SC8 SLP176

CYXE;2016-02-01 12:00;CYXE 011200Z 02005KT 15SM -SN OVC021 M09/M11 A2996 RMK SC8 SLP182

CYXE;2016-02-01 13:00;CYXE 011300Z 36005KT 15SM -SN OVC031 M09/M11 A2996 RMK SC8 SLP185

CYXE;2016-02-01 14:00;CYXE 011400Z 03005KT 12SM -SN OVC030 M10/M12 A2998 RMK SC8 SLP190

CYXE;2016-02-01 15:00;CYXE 011500Z 04008KT 12SM -SN OVC030 M10/M13 A3000 RMK SC8 SLP198

CYXE;2016-02-01 15:40;CYXE 011540Z 02008KT 1 1/2SM -SN OVC030 M10/M13 A3001 RMK SC8 SLP202

CYXE;2016-02-01 16:00;CYXE 011600Z 03007KT 2SM -SN OVC030 M10/M12 A3001 RMK SC8 SLP203

CYXE;2016-02-01 16:37;CYXE 011637Z 03006KT 3SM -SN OVC027 M11/M13 A3002 RMK SC8 SLP207

CYXE;2016-02-01 17:00;CYXE 011700Z 03004KT 2SM -SN OVC028 M10/M13 A3003 RMK SC8 SLP209

CYXE;2016-02-01 17:16;CYXE 011716Z 05002KT 3SM -SN OVC028 M10/M13 A3003 RMK SC8 SLP208

CYXE;2016-02-01 18:00;CYXE 011800Z 00000KT 3SM -SN OVC026 M10/M13 A3004 RMK SC8 SLP214

CYXE;2016-02-01 19:00;CYXE 011900Z 27003KT 12SM -SN OVC025 M10/M12 A3004 RMK SC8 SLP213

CYXE;2016-02-01 20:00;CYXE 012000Z 27006KT 12SM -SN OVC024 M10/M12 A3004 RMK SC8 SLP214

CYXE;2016-02-01 21:00;CYXE 012100Z 31009KT 12SM OVC023 M09/M12 A3005 RMK SC8 SLP215

CYXE;2016-02-01 22:00;CYXE 012200Z 31011KT 12SM -SN OVC023 M09/M13 A3006 RMK SC8 SLP220

CYXE;2016-02-01 23:00;CYXE 012300Z 30007KT 15SM -SN BKN024 M10/M14 A3007 RMK SC6 SLP223

CYXE;2016-02-01 23:31;CYXE 012331Z 33005KT 15SM BKN022 M11/M14 A3008 RMK SC6 SLP229

CYXE;2016-02-02 00:00;CYXE 020000Z 32006KT 15SM BKN022 M13/M16 A3010 RMK SC7 SLP234

CYXE;2016-02-02 01:00;CYXE 020100Z 32004KT 15SM BKN024 M15/M17 A3011 RMK SC7 SLP241

CYXE;2016-02-02 02:00;CYXE 020200Z 29003KT 15SM BKN022 M14/M16 A3012 RMK SC7 SLP243

CYXE;2016-02-02 03:00;CYXE 020300Z 26003KT 15SM BKN020 M14/M16 A3013 RMK SC7 SLP247

CYXE;2016-02-02 04:00;CYXE 020400Z VRB02KT 15SM BKN019 M14/M16 A3012 RMK SC6 SLP246

CYXE;2016-02-02 05:00;CYXE 020500Z 17003KT 15SM FEW020 BKN110 M14/M16 A3012 RMK SC2AC4 SLP245

CYXE;2016-02-02 06:00;CYXE 020600Z 18004KT 15SM BKN100 M15/M17 A3013 RMK AC5 SLP247

CYXE;2016-02-02 07:00;CYXE 020700Z 18005KT 15SM SCT100 M16/M17 A3012 RMK AC3 SLP246

CYXE;2016-02-02 08:00;CYXE 020800Z 19004KT 15SM FEW100 M15/M16 A3012 RMK AC1 SLP245

CYXE;2016-02-02 09:00;CYXE 020900Z 18006KT 15SM FEW100 M17/M19 A3011 RMK AC1 SLP244

CYXE;2016-02-02 10:00;CYXE 021000Z 16007KT 15SM BKN130 M17/M18 A3012 RMK AC5 SLP245

CYXE;2016-02-02 11:00;CYXE 021100Z 18004KT 15SM BKN130 M16/M17 A3011 RMK AC7 SLP243

CYXE;2016-02-02 12:00;CYXE 021200Z 17007KT 15SM OVC140 M14/M15 A3010 RMK AC8 SLP239

CYXE;2016-02-02 13:00;CYXE 021300Z 19007KT 15SM OVC090 M14/M15 A3009 RMK AC8 SLP238

CYXE;2016-02-02 14:00;CYXE 021400Z 17009KT 15SM OVC070 M13/M14 A3008 RMK AC8 SLP232

CYXE;2016-02-02 15:00;CYXE 021500Z 17007KT 15SM BKN080 M12/M13 A3007 RMK AC7 SLP229

CYXE;2016-02-02 16:00;CYXE 021600Z 16005KT 15SM FEW050 FEW080 SCT140 M12/M14 A3007 RMK SC1AC1AC2 SLP228

CYXE;2016-02-02 17:00;CYXE 021700Z 20008KT 15SM OVC036 M10/M11 A3006 RMK SC8 SLP224

CYXE;2016-02-02 18:00;CYXE 021800Z 19007KT 15SM BKN035 M09/M11 A3005 RMK SC7 SLP222

CYXE;2016-02-02 19:00;CYXE 021900Z 19007KT 15SM FEW070 SCT130 M08/M11 A3003 RMK AC1AC2 SLP214

CYXE;2016-02-02 20:00;CYXE 022000Z 28006KT 15SM SCT070 BKN130 M08/M11 A3002 RMK AC4AC2 SLP211

CYXE;2016-02-02 21:00;CYXE 022100Z 22006KT 15SM SCT070 BKN130 M07/M10 A3001 RMK AC3AC2 SLP207

CYXE;2016-02-02 22:00;CYXE 022200Z 25005KT 15SM BKN096 BKN140 M07/M09 A3001 RMK AC5AC1 SLP207

CYXE;2016-02-02 23:00;CYXE 022300Z 22005KT 15SM BKN095 M06/M09 A3001 RMK AC6 SLP206

CYXE;2016-02-03 00:00;CYXE 030000Z 23005KT 15SM FEW040 BKN086 M07/M08 A3001 RMK SC2AC5 SLP205

CYXE;2016-02-03 01:00;CYXE 030100Z 22004KT 15SM BKN100 M07/M09 A3001 RMK AC7 SLP204

CYXE;2016-02-03 02:00;CYXE 030200Z 26005KT 15SM BKN100 M08/M09 A3001 RMK AC7 SLP205

CYXE;2016-02-03 03:00;CYXE 030300Z 26006KT 15SM SCT040 BKN100 M11/M11 A3001 RMK SC3AC4 SLP206

CYXE;2016-02-03 04:00;CYXE 030400Z 29006KT 15SM SCT040 M11/M12 A3001 RMK SC4 SLP205

CYXE;2016-02-03 04:43;CYXE 030443Z 27007KT 15SM SCT002 BKN040 M12/M12 A3000 RMK ST4SC2 SLP203

CYXE;2016-02-03 05:00;CYXE 030500Z 27006KT 2SM BR OVC002 M12/M13 A3001 RMK ST8 SLP204

CYXE;2016-02-03 05:12;CYXE 030512Z 27005KT 1/2SM R09/2800VP6000FT/D FZFG OVC001 M11/M12 A3001 RMK ST8 SLP203

CYXE;2016-02-03 05:26;CYXE 030526Z 29004KT 1/8SM R09/1600FT/N M10/M11 A3001 RMK FG8 SLP203

CYXE;2016-02-03 06:00;CYXE 030600Z 28004KT 1/2SM R09/2600VP6000FT/N FZFG OVC017 M09/M10 A3001 RMK FG4SC4 SLP202

CYXE;2016-02-03 06:08;CYXE 030608Z 28004KT 3SM R09/5500VP6000FT/U BR SCT002 BKN017 M09/M09 A3001 RMK SF4SC3 SLP202

CYXE;2016-02-03 07:00;CYXE 030700Z 27006KT 10SM BKN017 M10/M10 A3000 RMK SC6 BR SLP198

CYXE;2016-02-03 07:24;CYXE 030724Z 29007KT 10SM OVC014 M09/M09 A3001 RMK SC8 SLP200

CYXE;2016-02-03 08:00;CYXE 030800Z 30004KT 15SM BKN017 BKN027 M07/M07 A3000 RMK SC5SC2 SLP196

CYXE;2016-02-03 09:00;CYXE 030900Z 23003KT 15SM BKN018 M09/M09 A2998 RMK SC5 SLP192

CYXE;2016-02-03 10:00;CYXE 031000Z 24007KT 15SM OVC016 M08/M09 A2999 RMK SC8 SLP193

CYXE;2016-02-03 10:40;CYXE 031040Z 22005KT 10SM -SN OVC013 M08/M08 A2998 RMK SC8 SLP189

CYXE;2016-02-03 11:00;CYXE 031100Z 22007KT 10SM -SN OVC025 M08/M08 A2997 RMK SC8 SLP187

CYXE;2016-02-03 12:00;CYXE 031200Z 26007KT 10SM OVC011 M07/M08 A2997 RMK SC8 SLP185

CYXE;2016-02-03 12:16;CYXE 031216Z 26007KT 5SM -SN BKN008 OVC013 M07/M07 A2997 RMK ST5SC3 SLP185

CYXE;2016-02-03 13:00;CYXE 031300Z 27006KT 3SM -SN SCT006 BKN018 OVC040 M08/M08 A2997 RMK SF3SC3SC2 SLP186

CYXE;2016-02-03 13:39;CYXE 031339Z 29005KT 12SM -SN SCT020 OVC055 M08/M09 A2998 RMK SF3SC5 SLP190

CYXE;2016-02-03 14:00;CYXE 031400Z 30006KT 15SM BKN055 M09/M10 A2997 RMK SC7 SLP190

CYXE;2016-02-03 14:27;CYXE 031427Z 31007KT 15SM FEW005 SCT025 OVC055 M09/M10 A2998 RMK SF2SC2SC4 SLP192

CYXE;2016-02-03 15:00;CYXE 031500Z 31008KT 15SM SCT055 M10/M11 A2998 RMK SC4 SLP195

CYXE;2016-02-03 16:00;CYXE 031600Z 30008KT 15SM FEW070 FEW250 M11/M12 A3000 RMK AC1CI1 SLP201

CYXE;2016-02-03 17:00;CYXE 031700Z 30008KT 15SM R09/3000VP6000FT/D FEW035 SCT100 M12/M13 A3001 RMK SC2AC1 SLP206

CYXE;2016-02-03 17:15;CYXE 031715Z 30007KT 1/2SM R09/1600V2000FT/N FZFG BKN035 M12/M13 A3001 RMK FG4SC3 SLP208

CYXE;2016-02-03 17:37;CYXE 031737Z 30010KT 1SM R09/2600VP6000FT/U -SN BR SCT004 OVC015 M10/M10 A3002 RMK SF4SC4 FROIN SLP208

CYXE;2016-02-03 17:46;CYXE 031746Z 31009KT 3SM -SN BR FEW004 SCT015 OVC035 M10/M10 A3002 RMK SF2SC2SC4 SLP208

CYXE;2016-02-03 18:00;CYXE 031800Z 30006KT 5SM BR FEW005 OVC030 M09/M10 A3001 RMK SF1SC7 SLP205

CYXE;2016-02-03 19:00;CYXE 031900Z 29007KT 5SM BR SCT014 OVC020 M09/M09 A3001 RMK SC4SC4 SLP202

CYXE;2016-02-03 20:00;CYXE 032000Z 30009KT 5SM BR OVC014 M08/M08 A3001 RMK SC8 SLP201

CYXE;2016-02-03 20:22;CYXE 032022Z 30009KT 15SM FEW005 OVC015 M08/M08 A3001 RMK SF2SF6 SLP200

CYXE;2016-02-03 21:00;CYXE 032100Z 30009KT 15SM OVC011 M08/M08 A3001 RMK SF8 SLP203

CYXE;2016-02-03 21:37;CYXE 032137Z 30013KT 3SM -SN OVC011 M08/M09 A3003 RMK ST8 SLP208

CYXE;2016-02-03 22:00;CYXE 032200Z 30012KT 10SM SCT011 BKN040 BKN270 M08/M09 A3003 RMK SF3SC2CI2 BR SLP208

CYXE;2016-02-03 23:00;CYXE 032300Z 31007KT 15SM SCT011 BKN100 M09/M11 A3003 RMK ST3AC3 SLP208

CYXE;2016-02-04 00:00;CYXE 040000Z 29006KT 15SM SCT020 BKN100 M12/M14 A3004 RMK SF4AC2 SLP213

CYXE;2016-02-04 01:00;CYXE 040100Z 24003KT 15SM SCT023 BKN100 M11/M12 A3004 RMK SC4AC2 SLP212

CYXE;2016-02-04 02:00;CYXE 040200Z 25005KT 15SM FEW025 BKN110 M11/M13 A3003 RMK SC2AC4 SLP211

CYXE;2016-02-04 03:00;CYXE 040300Z 25005KT 15SM FEW025 BKN110 M12/M13 A3002 RMK SC1AC5 SLP210

CYXE;2016-02-04 04:00;CYXE 040400Z 25007KT 15SM FEW030 BKN110 M12/M13 A3003 RMK SC2AC5 SLP213

CYXE;2016-02-04 05:00;CYXE 040500Z 26003KT 15SM BKN025 BKN110 M10/M12 A3003 RMK SC5AC2 SLP211

CYXE;2016-02-04 06:00;CYXE 040600Z 22002KT 15SM FEW020 BKN100 M10/M11 A3001 RMK SC2AC5 SLP204

CYXE;2016-02-04 07:00;CYXE 040700Z 20005KT 15SM FEW020 BKN090 M10/M12 A3001 RMK SC2AC5 SLP201

CYXE;2016-02-04 08:00;CYXE 040800Z 19003KT 15SM FEW015 BKN090 M09/M11 A3000 RMK SC2AC5 SLP198

CYXE;2016-02-04 09:00;CYXE 040900Z 17004KT 15SM FEW020 BKN090 M10/M11 A2999 RMK SC2AC5 SLP195

CYXE;2016-02-04 10:00;CYXE 041000Z 21007KT 15SM FEW040 BKN080 M11/M12 A2997 RMK SC2AC3 SLP191

CYXE;2016-02-04 11:00;CYXE 041100Z 18004KT 15SM FEW080 BKN200 M12/M13 A2997 RMK AC2CI3 SLP192

CYXE;2016-02-04 12:00;CYXE 041200Z 20004KT 15SM FEW015 BKN200 M13/M15 A2996 RMK SC1CI5 SLP192

CYXE;2016-02-04 13:00;CYXE 041300Z 00000KT 15SM SCT170 BKN200 M14/M16 A2996 RMK AC3CI2 SLP191

CYXE;2016-02-04 14:00;CYXE 041400Z 19005KT 15SM SCT160 M15/M16 A2996 RMK AC4 SLP193

CYXE;2016-02-04 15:00;CYXE 041500Z 24002KT 15SM FEW004 SCT160 M16/M17 A2997 RMK SF1AC2 SLP195

CYXE;2016-02-04 16:00;CYXE 041600Z 25004KT 15SM SCT300 M16/M18 A2997 RMK CI4 SLP196

CYXE;2016-02-04 17:00;CYXE 041700Z 32002KT 15SM SCT300 M15/M16 A2998 RMK CI4 SLP196

CYXE;2016-02-04 17:31;CYXE 041731Z 34004KT 5SM IC BCFG BKN300 M14/M15 A2998 RMK CI6 VIS LWR SW SLP196

CYXE;2016-02-04 17:40;CYXE 041740Z 01005KT 5SM IC BCFG SCT005 BKN300 M13/M15 A2998 RMK SF4CI3 SLP197

CYXE;2016-02-04 17:52;CYXE 041752Z 36005KT 5SM -SG BCFG BKN004 M13/M15 A2999 RMK SF6 SLP198

CYXE;2016-02-04 18:00;CYXE 041800Z 02005KT 5SM -SG BCFG SCT004 M13/M14 A2999 RMK SF4 SLP198

CYXE;2016-02-04 18:35;CYXE 041835Z 34004KT 3SM -SG BCFG BKN003 M13/M14 A2999 RMK SF5 SLP199

CYXE;2016-02-04 18:47;CYXE 041847Z 35004KT 4SM -SG BR BKN004 M13/M14 A2999 RMK SF7 SLP200

CYXE;2016-02-04 19:00;CYXE 041900Z 01005KT 5SM -SG BR BKN005 BKN160 M12/M13 A2999 RMK SF5AC2 SLP200

CYXE;2016-02-04 19:46;CYXE 041946Z 02006KT 5SM BR SCT005 BKN110 BKN160 M11/M12 A3000 RMK SF4AC2AC1 SLP202

CYXE;2016-02-04 20:00;CYXE 042000Z 03008KT 5SM BR SCT006 BKN110 BKN160 M11/M12 A3000 RMK SF3AC3AC1 SLP201

CYXE;2016-02-04 21:00;CYXE 042100Z 02008KT 6SM BR SCT006 BKN110 M11/M12 A3001 RMK SF4AC3 SLP205

CYXE;2016-02-04 22:00;CYXE 042200Z 03006KT 12SM SCT006 OVC110 M11/M12 A3002 RMK SF4AC4 SLP210

CYXE;2016-02-04 23:00;CYXE 042300Z 02004KT 15SM SCT006 BKN110 M11/M12 A3005 RMK SF4AC3 SLP219

CYXE;2016-02-05 00:00;CYXE 050000Z 06005KT 15SM SCT006 BKN110 M12/M13 A3005 RMK SF3AC4 SLP223

CYXE;2016-02-05 01:00;CYXE 050100Z 29004KT 15SM FEW006 SCT160 BKN210 M14/M15 A3009 RMK SF2AC2CI3 SLP237

CYXE;2016-02-05 01:10;CYXE 050110Z 30005KT 10SM IC FEW006 SCT160 BKN210 M14/M15 A3009 RMK SF2AC2CI3 SLP238

CYXE;2016-02-05 02:00;CYXE 050200Z VRB02KT 15SM IC FEW006 FEW060 OVC210 M14/M16 A3008 RMK SF1SC1CI6 SLP235

CYXE;2016-02-05 03:00;CYXE 050300Z 00000KT 15SM IC FEW070 OVC150 M15/M16 A3008 RMK AC1AC7 SLP234

CYXE;2016-02-05 04:00;CYXE 050400Z VRB04KT 12SM IC SCT004 OVC070 M13/M15 A3009 RMK SF3AC5 SLP239

CYXE;2016-02-05 04:15;CYXE 050415Z 24006KT 12SM BKN004 OVC070 M13/M14 A3010 RMK ST5AC3 SLP241

CYXE;2016-02-05 04:41;CYXE 050441Z 23005KT 10SM OVC002 M12/M14 A3011 RMK ST8 SLP243

CYXE;2016-02-05 05:00;CYXE 050500Z 22006KT 10SM OVC002 M12/M13 A3012 RMK ST8 SLP245

CYXE;2016-02-05 06:00;CYXE 050600Z 22008KT 5SM BR OVC002 M12/M13 A3013 RMK ST8 SLP248

CYXE;2016-02-05 06:21;CYXE 050621Z 19005KT 5SM BR OVC004 M12/M13 A3013 RMK ST8 SLP247

CYXE;2016-02-05 07:00;CYXE 050700Z 20009KT 10SM SCT004 OVC047 M12/M13 A3010 RMK ST4SC4 BR SLP239

CYXE;2016-02-05 08:00;CYXE 050800Z 17008KT 15SM OVC053 M11/M12 A3007 RMK SC8 SLP225

CYXE;2016-02-05 09:00;CYXE 050900Z 19006KT 15SM SCT053 M13/M14 A3007 RMK SC4 SLP227

CYXE;2016-02-05 10:00;CYXE 051000Z 19009KT 15SM SKC M13/M14 A3006 RMK SLP224

CYXE;2016-02-05 11:00;CYXE 051100Z 21007KT 15SM SKC M13/M14 A3005 RMK SLP222

CYXE;2016-02-05 12:00;CYXE 051200Z 21007KT 15SM SKC M14/M15 A3005 RMK SLP223

CYXE;2016-02-05 13:00;CYXE 051300Z 21006KT 15SM SKC M14/M16 A3006 RMK SLP226

CYXE;2016-02-05 14:00;CYXE 051400Z 20005KT 15SM SKC M15/M16 A3003 RMK SLP218

CYXE;2016-02-05 15:00;CYXE 051500Z 19005KT 15SM FEW100 M16/M17 A3003 RMK AC2 SLP219

CYXE;2016-02-05 16:00;CYXE 051600Z 20005KT 15SM FEW120 BKN260 M13/M15 A3002 RMK AC1CI4 SLP212

CYXE;2016-02-05 17:00;CYXE 051700Z 17003KT 15SM BKN065 BKN260 M11/M12 A3002 RMK SC5CI1 SLP209

CYXE;2016-02-05 18:00;CYXE 051800Z 18006KT 15SM SCT300 M09/M10 A3001 RMK CI3 SLP203

CYXE;2016-02-05 19:00;CYXE 051900Z 19006KT 15SM BKN300 M06/M10 A2997 RMK CI5 SLP189

CYXE;2016-02-05 20:00;CYXE 052000Z 18007KT 15SM BKN200 M05/M09 A2994 RMK CS7 SLP178

CYXE;2016-02-05 21:00;CYXE 052100Z 19009KT 15SM BKN140 M03/M08 A2992 RMK AS7 SLP171

CYXE;2016-02-05 22:00;CYXE 052200Z 18007KT 15SM BKN140 M03/M08 A2990 RMK AS7 SLP162

CYXE;2016-02-05 23:00;CYXE 052300Z 18005KT 15SM FEW030 SCT140 BKN210 M03/M07 A2987 RMK SC1AS3CI2 SLP153

CYXE;2016-02-06 00:00;CYXE 060000Z 16007KT 15SM FEW140 SCT210 M04/M07 A2986 RMK AC1CI2 SLP151

CYXE;2016-02-06 01:00;CYXE 060100Z 17008KT 15SM FEW095 SCT210 M04/M07 A2983 RMK AC2CI1 SLP140

CYXE;2016-02-06 02:00;CYXE 060200Z 17009KT 15SM OVC078 M03/M06 A2979 RMK AC8 SLP128

CYXE;2016-02-06 03:00;CYXE 060300Z 17011KT 15SM BKN078 M04/M06 A2973 RMK AC5 PRESFR SLP107

CYXE;2016-02-06 04:00;CYXE 060400Z 19005KT 15SM BKN075 M03/M05 A2971 RMK AC5 SLP098

CYXE;2016-02-06 05:00;CYXE 060500Z 20009KT 15SM FEW075 SCT200 M02/M05 A2968 RMK AC2CI1 SLP086

CYXE;2016-02-06 06:00;CYXE 060600Z 19006KT 15SM BKN200 M02/M05 A2966 RMK CI5 SLP077

CYXE;2016-02-06 07:00;CYXE 060700Z 19005KT 15SM BKN200 M03/M05 A2963 RMK CI6 SLP066

CYXE;2016-02-06 08:00;CYXE 060800Z 20008KT 15SM OVC190 M02/M04 A2960 RMK CI8 SLP055

CYXE;2016-02-06 09:00;CYXE 060900Z 20007KT 15SM OVC140 M02/M04 A2958 RMK AC8 SLP046

CYXE;2016-02-06 10:00;CYXE 061000Z 22007KT 15SM OVC120 M01/M03 A2956 RMK AC8 SLP040

CYXE;2016-02-06 11:00;CYXE 061100Z 22008KT 15SM OVC100 00/M02 A2952 RMK AC8 SLP026

CYXE;2016-02-06 12:00;CYXE 061200Z 22011KT 15SM SCT060 OVC100 02/M01 A2950 RMK SC3AC5 SLP016

CYXE;2016-02-06 13:00;CYXE 061300Z 22008KT 15SM OVC160 02/M02 A2947 RMK AC8 SLP006

CYXE;2016-02-06 14:00;CYXE 061400Z 23009KT 15SM SCT180 OVC210 01/M03 A2945 RMK AC3CS5 SLP000

CYXE;2016-02-06 15:00;CYXE 061500Z 23009KT 15SM BKN100 OVC210 00/M02 A2942 RMK AC6CS2 SLP993

CYXE;2016-02-06 16:00;CYXE 061600Z 23014KT 15SM BKN100 OVC210 01/M02 A2941 RMK AC7CI1 SLP984

CYXE;2016-02-06 17:00;CYXE 061700Z 26013G19KT 15SM BKN100 OVC210 03/M01 A2939 RMK AC6CI2 SLP978

CYXE;2016-02-06 18:00;CYXE 061800Z 26010KT 15SM SCT100 BKN130 04/M01 A2940 RMK AC3AC4 SLP981

CYXE;2016-02-06 19:00;CYXE 061900Z 31024G30KT 15SM FEW140 BKN170 04/M02 A2940 RMK AC2AC4 SLP980

CYXE;2016-02-06 20:00;CYXE 062000Z 31022G29KT 15SM SCT140 BKN170 03/M01 A2945 RMK AC4AC3 SLP997

CYXE;2016-02-06 21:00;CYXE 062100Z 30018G28KT 15SM FEW060 SCT170 04/M01 A2948 RMK SC2AC2 SLP008

CYXE;2016-02-06 22:00;CYXE 062200Z 31020G28KT 15SM FEW060 SCT170 04/M03 A2951 RMK SC1AC3 SLP019

CYXE;2016-02-06 23:00;CYXE 062300Z 30027G34KT 15SM SCT150 04/M04 A2954 RMK AC3 SLP027

CYXE;2016-02-07 00:00;CYXE 070000Z 30020G28KT 15SM FEW150 03/M04 A2958 RMK AC2 SLP041

CYXE;2016-02-07 00:28;CYXE 070028Z 30020G30KT 15SM FEW150 SCT210 02/M05 A2959 RMK AC1CI2 SLP044

CYXE;2016-02-07 01:00;CYXE 070100Z 29024G33KT 15SM SCT240 02/M05 A2960 RMK CI3 SLP049

CYXE;2016-02-07 02:00;CYXE 070200Z 29022G29KT 15SM BKN064 OVC240 03/M04 A2963 RMK SC5CI3 SLP058

CYXE;2016-02-07 03:00;CYXE 070300Z 29022G28KT 15SM OVC064 02/M04 A2965 RMK SC8 SLP064

CYXE;2016-02-07 04:00;CYXE 070400Z 30029G36KT 15SM SCT048 OVC064 01/M02 A2964 RMK SC3SC5 SLP064

CYXE;2016-02-07 05:00;CYXE 070500Z 30028G36KT 15SM BKN032 OVC048 01/M02 A2965 RMK SC5SC3 SLP066

CYXE;2016-02-07 06:00;CYXE 070600Z 31036G43KT 15SM SCT030 BKN080 M00/M06 A2970 RMK SC3AC3 SLP082

CYXE;2016-02-07 07:00;CYXE 070700Z 32028G37KT 15SM SCT030 BKN090 M02/M06 A2975 RMK SC3AC3 SLP102

CYXE;2016-02-07 08:00;CYXE 070800Z 32022G36KT 15SM BKN036 M03/M07 A2982 RMK SC5 PRESRR SLP124

CYXE;2016-02-07 09:00;CYXE 070900Z 33021G34KT 15SM SCT036 M03/M07 A2987 RMK SC4 SLP142

CYXE;2016-02-07 10:00;CYXE 071000Z 33022G30KT 15SM FEW036 BKN200 M04/M07 A2992 RMK SC2CI4 SLP160

CYXE;2016-02-07 11:00;CYXE 071100Z 33013KT 15SM FEW030 BKN150 M04/M07 A2997 RMK SC1AC5 SLP178

CYXE;2016-02-07 12:00;CYXE 071200Z 33015G23KT 15SM BKN150 M03/M07 A3003 RMK AC5 SLP197

CYXE;2016-02-07 13:00;CYXE 071300Z 32014KT 15SM FEW030 FEW150 M04/M07 A3007 RMK SC1AC1 PRESRR SLP213

CYXE;2016-02-07 14:00;CYXE 071400Z 31015KT 15SM FEW150 M05/M08 A3010 RMK AC1 SLP223

CYXE;2016-02-07 15:00;CYXE 071500Z 31015KT 15SM SKC M05/M08 A3014 RMK SLP236

CYXE;2016-02-07 16:00;CYXE 071600Z 30015KT 15SM FEW030 M05/M08 A3016 RMK SC1 SLP244

CYXE;2016-02-07 17:00;CYXE 071700Z 30019G24KT 15SM SKC M04/M07 A3017 RMK SLP247

CYXE;2016-02-07 18:00;CYXE 071800Z 31021KT 15SM SKC M02/M07 A3019 RMK SLP256

CYXE;2016-02-07 19:00;CYXE 071900Z 31021G29KT 15SM FEW210 M02/M07 A3021 RMK CI1 SLP263

CYXE;2016-02-07 20:00;CYXE 072000Z 31019G25KT 15SM FEW210 M01/M06 A3023 RMK CI1 SLP269

CYXE;2016-02-07 21:00;CYXE 072100Z 31018G25KT 15SM FEW210 M01/M06 A3025 RMK CI2 SLP275

CYXE;2016-02-07 22:00;CYXE 072200Z 30015G22KT 15SM FEW210 M01/M06 A3025 RMK CI2 SLP278

CYXE;2016-02-07 23:00;CYXE 072300Z 30016KT 15SM FEW210 M02/M07 A3028 RMK CI1 SLP286

CYXE;2016-02-08 00:00;CYXE 080000Z 29012KT 15SM FEW210 M03/M07 A3029 RMK CI1 SLP290

CYXE;2016-02-08 01:00;CYXE 080100Z 29013KT 15SM FEW210 M04/M08 A3031 RMK CI2 SLP300

CYXE;2016-02-08 02:00;CYXE 080200Z 29009KT 15SM FEW210 M05/M08 A3032 RMK CI1 SLP302

CYXE;2016-02-08 03:00;CYXE 080300Z 30009KT 15SM SKC M06/M09 A3032 RMK SLP303

CYXE;2016-02-08 04:00;CYXE 080400Z 28008KT 15SM SKC M07/M10 A3032 RMK SLP307

CYXE;2016-02-08 05:00;CYXE 080500Z 30005KT 15SM SKC M08/M10 A3034 RMK SLP311

CYXE;2016-02-08 06:00;CYXE 080600Z 26007KT 15SM SKC M09/M10 A3032 RMK PRESFR SLP304

CYXE;2016-02-08 07:00;CYXE 080700Z 28008KT 15SM SKC M11/M13 A3034 RMK SLP312

CYXE;2016-02-08 08:00;CYXE 080800Z 32009KT 15SM FEW130 M09/M11 A3035 RMK AC1 SLP315

CYXE;2016-02-08 09:00;CYXE 080900Z 34007KT 15SM SCT130 M09/M11 A3036 RMK AC4 SLP317

CYXE;2016-02-08 10:00;CYXE 081000Z 28006KT 15SM SCT130 BKN220 M10/M12 A3035 RMK AC3CI4 SLP315

CYXE;2016-02-08 11:00;CYXE 081100Z 27002KT 15SM FEW130 BKN220 M11/M12 A3036 RMK AC2CI5 SLP319

CYXE;2016-02-08 12:00;CYXE 081200Z 29004KT 15SM BKN220 M10/M12 A3038 RMK CI7 SLP326

CYXE;2016-02-08 13:00;CYXE 081300Z 26006KT 15SM SCT120 OVC220 M10/M11 A3037 RMK AC4CI4 SLP325

CYXE;2016-02-08 14:00;CYXE 081400Z 25004KT 15SM FEW120 BKN220 M10/M11 A3037 RMK AC2CI3 SLP325

CYXE;2016-02-08 15:00;CYXE 081500Z 19003KT 15SM BKN078 OVC220 M09/M11 A3035 RMK AC6CI2 SLP318

CYXE;2016-02-08 16:00;CYXE 081600Z 23005KT 15SM SCT054 OVC078 M08/M09 A3036 RMK SC3AC5 SLP319

CYXE;2016-02-08 17:00;CYXE 081700Z 21004KT 15SM BKN048 OVC078 M06/M09 A3034 RMK SC7AC1 SLP312

CYXE;2016-02-08 18:00;CYXE 081800Z 22005KT 15SM SCT048 OVC057 M05/M09 A3034 RMK SC3SC5 SLP314

CYXE;2016-02-08 19:00;CYXE 081900Z 19005KT 15SM BKN063 M03/M08 A3031 RMK SC7 SLP304

CYXE;2016-02-08 20:00;CYXE 082000Z 19006KT 15SM SCT063 BKN078 BKN210 M02/M07 A3028 RMK SC3AC2CI2 SLP289

CYXE;2016-02-08 21:00;CYXE 082100Z 18005KT 15SM OVC060 M01/M06 A3027 RMK SC8 SLP287

CYXE;2016-02-08 22:00;CYXE 082200Z 18008KT 15SM OVC062 M00/M05 A3023 RMK SC8 SLP275

CYXE;2016-02-08 23:00;CYXE 082300Z 19005KT 15SM BKN055 00/M05 A3024 RMK SC7 SLP278

CYXE;2016-02-09 00:00;CYXE 090000Z 17004KT 15SM BKN051 M01/M05 A3023 RMK SC5 SLP274

CYXE;2016-02-09 01:00;CYXE 090100Z 19004KT 15SM FEW050 M03/M06 A3024 RMK SC1 SLP277

CYXE;2016-02-09 02:00;CYXE 090200Z 00000KT 15SM SKC M04/M06 A3023 RMK PRESRR SLP276

CYXE;2016-02-09 03:00;CYXE 090300Z 23003KT 170V250 15SM SKC M05/M05 A3022 RMK SLP271

CYXE;2016-02-09 04:00;CYXE 090400Z 33005KT 15SM SCT100 M07/M07 A3022 RMK AC3 SLP272

CYXE;2016-02-09 05:00;CYXE 090500Z 28005KT 15SM SCT100 M08/M09 A3023 RMK AC4 SLP277

CYXE;2016-02-09 06:00;CYXE 090600Z 26004KT 15SM OVC100 M07/M08 A3023 RMK AC8 SLP276

CYXE;2016-02-09 07:00;CYXE 090700Z 31002KT 15SM OVC090 M07/M07 A3025 RMK AC8 SLP280

CYXE;2016-02-09 08:00;CYXE 090800Z 22002KT 15SM BKN100 M07/M08 A3022 RMK AC7 SLP269

CYXE;2016-02-09 09:00;CYXE 090900Z 30003KT 15SM OVC090 M06/M08 A3022 RMK AC8 SLP269

CYXE;2016-02-09 10:00;CYXE 091000Z 24004KT 15SM OVC060 M06/M07 A3024 RMK SC8 SLP273

CYXE;2016-02-09 11:00;CYXE 091100Z 23003KT 15SM OVC060 M05/M07 A3023 RMK SC8 SLP270

CYXE;2016-02-09 12:00;CYXE 091200Z 00000KT 15SM OVC055 M06/M06 A3023 RMK SC8 SLP272

CYXE;2016-02-09 13:00;CYXE 091300Z 00000KT 15SM OVC055 M05/M06 A3023 RMK SC8 SLP273

CYXE;2016-02-09 13:48;CYXE 091348Z 15004KT 15SM -SN OVC044 M04/M06 A3022 RMK SC8 SLP266

CYXE;2016-02-09 14:00;CYXE 091400Z 14004KT 15SM -SN OVC045 M04/M06 A3022 RMK SC8 SLP268

CYXE;2016-02-09 15:00;CYXE 091500Z 13006KT 15SM -SN OVC040 M04/M06 A3020 RMK SC8 SLP262

CYXE;2016-02-09 15:11;CYXE 091511Z 12006KT 15SM -SHGS OVC041 M04/M06 A3020 RMK SC8 CVCTV CLD EMBD SLP261

CYXE;2016-02-09 16:00;CYXE 091600Z 15006KT 15SM -SHGS OVC031 M04/M06 A3020 RMK SC8 CVCTV CLD EMBD SLP262

CYXE;2016-02-09 17:03;CYXE 091703Z 14010KT 1SM R09/P6000FT/N -SHSN VV013 M03/M05 A3019 RMK SN8 CVCTV CLD EMBD SLP261

CYXE;2016-02-09 17:19;CYXE 091719Z 14009KT 2SM -SHSN OVC028 M03/M05 A3018 RMK SN4SC4 CVCTV CLD EMBD SLP257

CYXE;2016-02-09 17:48;CYXE 091748Z 14008KT 3SM -SHSN OVC026 M03/M04 A3018 RMK SC8 CVCTV CLD EMBD SLP256

CYXE;2016-02-09 18:00;CYXE 091800Z 14009KT 10SM -SHSN OVC026 M03/M04 A3017 RMK SC8 CVCTV CLD EMBD SLP253

CYXE;2016-02-09 18:26;CYXE 091826Z 14007KT 10SM OVC022 M02/M04 A3016 RMK SC8 BR SLP250

CYXE;2016-02-09 19:00;CYXE 091900Z 13009KT 10SM OVC020 M02/M03 A3014 RMK SC8 BR SLP239

CYXE;2016-02-09 20:00;CYXE 092000Z 12009KT 10SM OVC019 M01/M03 A3011 RMK SC8 BR SLP230

CYXE;2016-02-09 21:00;CYXE 092100Z 12011KT 15SM BKN018 BKN082 M01/M03 A3008 RMK SC5AC2 SLP218

CYXE;2016-02-09 22:00;CYXE 092200Z 13011KT 15SM SCT020 BKN080 BKN270 M01/M03 A3005 RMK SC3AC3CI1 SLP210

CYXE;2016-02-09 23:00;CYXE 092300Z 15009KT 15SM SCT075 BKN110 BKN270 M01/M03 A3003 RMK AC3AC3CI1 SLP201

CYXE;2016-02-10 00:00;CYXE 100000Z 13007KT 15SM SCT045 BKN110 M01/M03 A3000 RMK SC3AC4 PRESFR SLP191

CYXE;2016-02-10 01:00;CYXE 100100Z 15006KT 15SM BKN056 BKN270 M02/M03 A2996 RMK SC6CI1 SLP177

CYXE;2016-02-10 02:00;CYXE 100200Z 11007KT 15SM BKN062 M02/M03 A2994 RMK SC7 SLP172

CYXE;2016-02-10 03:00;CYXE 100300Z 13007KT 15SM BKN060 BKN270 M02/M03 A2991 RMK SC5CI2 SLP161

CYXE;2016-02-10 04:00;CYXE 100400Z 13008KT 15SM BKN068 M02/M03 A2989 RMK AC7 SLP153

CYXE;2016-02-10 05:00;CYXE 100500Z 12007KT 15SM SCT068 BKN200 M03/M03 A2987 RMK AC4CI3 SLP145

CYXE;2016-02-10 06:00;CYXE 100600Z 15004KT 15SM BKN190 M04/M04 A2986 RMK CI5 SLP142

CYXE;2016-02-10 07:00;CYXE 100700Z VRB02KT 15SM BKN034 OVC190 M06/M06 A2986 RMK SC6CI2 SLP145

CYXE;2016-02-10 08:00;CYXE 100800Z 36005KT 15SM OVC027 M05/M05 A2989 RMK SC8 SLP153

CYXE;2016-02-10 09:00;CYXE 100900Z 32003KT 15SM FEW012 SCT027 BKN190 M05/M05 A2990 RMK SC2SC2CI2 SLP158

CYXE;2016-02-10 09:49;CYXE 100949Z 35005KT 12SM FU OVC012 M05/M05 A2992 RMK SC8 SLP164

CYXE;2016-02-10 10:00;CYXE 101000Z 35004KT 12SM FU OVC011 M05/M05 A2992 RMK SC8 SLP163

CYXE;2016-02-10 10:47;CYXE 101047Z 34006KT 15SM OVC008 M05/M05 A2995 RMK ST8 SLP175

CYXE;2016-02-10 11:00;CYXE 101100Z 34005KT 15SM OVC008 M04/M05 A2996 RMK ST8 SLP176

CYXE;2016-02-10 11:33;CYXE 101133Z 36007KT 15SM OVC005 M04/M05 A2997 RMK ST8 SLP181

CYXE;2016-02-10 11:51;CYXE 101151Z 36006KT 15SM SCT005 BKN120 M05/M05 A2998 RMK ST4AC1 SLP186

CYXE;2016-02-10 12:00;CYXE 101200Z 36006KT 15SM FEW005 SCT008 BKN120 M05/M05 A2998 RMK ST2ST2AC1 SLP186

CYXE;2016-02-10 12:13;CYXE 101213Z 36009KT 15SM BKN006 BKN120 M05/M05 A2999 RMK ST5AC2 SLP189

CYXE;2016-02-10 13:00;CYXE 101300Z 36007KT 15SM BKN006 OVC033 M05/M05 A3001 RMK ST5SC3 SLP195

CYXE;2016-02-10 14:00;CYXE 101400Z 02016KT 15SM BKN009 OVC028 M04/M06 A3004 RMK ST5SC3 SLP206

CYXE;2016-02-10 14:14;CYXE 101414Z 01019G26KT 15SM SCT009 BKN015 OVC029 M05/M06 A3005 RMK SF3SC2SC3 SLP208

CYXE;2016-02-10 15:00;CYXE 101500Z 02016G21KT 15SM FEW008 SCT017 OVC033 M05/M07 A3007 RMK SF2SC2SC4 SLP215

CYXE;2016-02-10 16:00;CYXE 101600Z 01013G20KT 15SM FEW008 OVC019 M06/M08 A3011 RMK SF2SC6 SLP231

CYXE;2016-02-10 16:37;CYXE 101637Z 02012KT 15SM BKN008 OVC018 M06/M08 A3014 RMK SF5SC3 SLP241

CYXE;2016-02-10 17:00;CYXE 101700Z 01013KT 15SM BKN009 OVC017 M06/M08 A3016 RMK SF5SC3 PRESRR SLP248

CYXE;2016-02-10 17:13;CYXE 101713Z 02014KT 15SM BKN011 OVC018 M06/M08 A3017 RMK SF6SC2 SLP252

CYXE;2016-02-10 18:00;CYXE 101800Z 04013KT 15SM BKN012 OVC017 M06/M09 A3018 RMK SF5SC3 SLP258

CYXE;2016-02-10 19:00;CYXE 101900Z 03009KT 15SM OVC012 M07/M09 A3020 RMK SC8 SLP265

CYXE;2016-02-10 20:00;CYXE 102000Z 03006KT 15SM OVC012 M06/M09 A3022 RMK SC8 SLP270

CYXE;2016-02-10 21:00;CYXE 102100Z 05007KT 360V070 15SM OVC013 M06/M08 A3021 RMK SC8 SLP268

CYXE;2016-02-10 22:00;CYXE 102200Z 05005KT 15SM OVC014 M06/M08 A3021 RMK SC8 SLP268

CYXE;2016-02-10 23:00;CYXE 102300Z 01009KT 15SM OVC013 M06/M08 A3022 RMK SC8 SLP271

CYXE;2016-02-11 00:00;CYXE 110000Z 03010KT 15SM M07/M08 A3023 RMK SLP275

CYXE;2016-02-11 01:00;CYXE 110100Z 05007KT 15SM OVC011 M07/M09 A3024 RMK SC8 SLP278

CYXE;2016-02-11 02:00;CYXE 110200Z 09008KT 15SM OVC010 M08/M09 A3024 RMK SC8 SLP277

CYXE;2016-02-11 03:00;CYXE 110300Z 07011KT 15SM OVC010 M09/M10 A3023 RMK SC8 SLP274

CYXE;2016-02-11 04:00;CYXE 110400Z 05010KT 15SM OVC011 M10/M12 A3023 RMK SC8 SLP279

CYXE;2016-02-11 05:00;CYXE 110500Z 05009KT 15SM -SN OVC010 M11/M13 A3023 RMK SC8 SLP278

CYXE;2016-02-11 05:44;CYXE 110544Z 06008KT 15SM OVC008 M11/M13 A3023 RMK SC8 SLP279

CYXE;2016-02-11 06:00;CYXE 110600Z 06008KT 15SM OVC008 M11/M13 A3023 RMK SC8 SLP278

CYXE;2016-02-11 06:33;CYXE 110633Z 06009KT 15SM OVC010 M11/M13 A3023 RMK SC8 SLP278

CYXE;2016-02-11 07:00;CYXE 110700Z 06009KT 15SM OVC009 M11/M13 A3023 RMK SC8 SLP277

CYXE;2016-02-11 08:00;CYXE 110800Z 06011KT 15SM BKN007 OVC018 M12/M13 A3021 RMK SF5SC3 SLP271

CYXE;2016-02-11 09:00;CYXE 110900Z 06008KT 15SM SCT007 OVC018 M12/M14 A3019 RMK SF4SC4 SLP266

CYXE;2016-02-11 10:00;CYXE 111000Z 07010KT 15SM SCT009 OVC016 M12/M13 A3020 RMK SF3SC5 SLP269

CYXE;2016-02-11 11:00;CYXE 111100Z 08009KT 15SM BKN008 OVC017 M12/M14 A3020 RMK SF5SF3 SLP270

CYXE;2016-02-11 12:00;CYXE 111200Z 08008KT 5SM BR OVC008 M13/M14 A3021 RMK SF8 SLP272

CYXE;2016-02-11 12:15;CYXE 111215Z 07007KT 5SM -SN BR OVC008 M13/M14 A3022 RMK SF8 SLP275

CYXE;2016-02-11 13:00;CYXE 111300Z 09008KT 15SM -SN BR OVC008 M13/M14 A3023 RMK SF8 SLP279

CYXE;2016-02-11 14:00;CYXE 111400Z 05010KT 15SM -SN OVC007 M14/M15 A3025 RMK SF8 SLP286

CYXE;2016-02-11 14:28;CYXE 111428Z 06008KT 15SM -SN OVC008 M14/M15 A3025 RMK SN4SF4 SLP289

CYXE;2016-02-11 15:00;CYXE 111500Z 07008KT 15SM -SN FEW008 BKN130 M14/M16 A3026 RMK SF2AC5 SLP292

CYXE;2016-02-11 15:13;CYXE 111513Z 07007KT 15SM FEW008 BKN130 M14/M16 A3026 RMK SF2AC4 SLP291

CYXE;2016-02-11 16:00;CYXE 111600Z 08008KT 15SM FEW008 BKN140 BKN210 M14/M17 A3028 RMK SF1AC5CI1 VIS LWR E-S BR SLP299

CYXE;2016-02-11 16:43;CYXE 111643Z 07009KT 15SM -SN FEW008 OVC100 M14/M17 A3029 RMK SF1AC7 SLP304

CYXE;2016-02-11 17:00;CYXE 111700Z 07008KT 15SM -SN FEW008 BKN100 M14/M17 A3030 RMK SF1AC6 SLP307

CYXE;2016-02-11 18:00;CYXE 111800Z 06005KT 15SM -SN FEW008 OVC100 M14/M17 A3032 RMK SF1AC7 SLP313

CYXE;2016-02-11 18:21;CYXE 111821Z 07006KT 15SM FEW008 SCT100 OVC170 M13/M17 A3032 RMK SF1AC2AS5 SLP314

CYXE;2016-02-11 19:00;CYXE 111900Z 05005KT 020V090 15SM FEW012 SCT170 BKN240 M13/M17 A3033 RMK SC1AS2CI4 SLP316

CYXE;2016-02-11 20:00;CYXE 112000Z 06006KT 15SM FEW014 OVC240 M12/M16 A3032 RMK SC1CS7 HALO SLP315

CYXE;2016-02-11 20:09;CYXE 112009Z 07007KT 15SM -SN FEW014 SCT150 OVC240 M13/M16 A3033 RMK SC1AS2CS5 SLP316

CYXE;2016-02-11 21:00;CYXE 112100Z 05008KT 15SM -SN FEW014 SCT150 OVC240 M13/M16 A3033 RMK SC1AS2CS5 SLP317

CYXE;2016-02-11 21:30;CYXE 112130Z 05006KT 15SM BKN040 OVC240 M13/M16 A3034 RMK SC6CS2 SLP320

CYXE;2016-02-11 22:00;CYXE 112200Z 03007KT 15SM BKN040 OVC240 M13/M16 A3035 RMK SC6CS2 SLP325

CYXE;2016-02-11 23:00;CYXE 112300Z 03004KT 15SM SCT040 OVC240 M13/M16 A3036 RMK SC4CS4 SLP329

CYXE;2016-02-12 00:00;CYXE 120000Z 03005KT 15SM BKN045 OVC240 M13/M16 A3038 RMK SC6CI2 SLP336

CYXE;2016-02-12 01:00;CYXE 120100Z 06006KT 15SM FEW045 BKN240 M13/M16 A3040 RMK SC2CI3 SLP342

CYXE;2016-02-12 02:00;CYXE 120200Z 04005KT 15SM BKN110 BKN240 M13/M16 A3043 RMK AC5CI2 SLP353

CYXE;2016-02-12 03:00;CYXE 120300Z 03005KT 15SM BKN110 M13/M16 A3044 RMK AC7 SLP358

CYXE;2016-02-12 04:00;CYXE 120400Z 03006KT 15SM FEW110 M15/M17 A3046 RMK AC2 SLP367

CYXE;2016-02-12 05:00;CYXE 120500Z 04005KT 15SM FEW110 M16/M18 A3048 RMK AC2 SLP373

CYXE;2016-02-12 06:00;CYXE 120600Z 02004KT 15SM SKC M16/M18 A3051 RMK SLP384

CYXE;2016-02-12 07:00;CYXE 120700Z 04007KT 15SM SKC M18/M20 A3052 RMK SLP386

CYXE;2016-02-12 08:00;CYXE 120800Z 06006KT 15SM SKC M18/M20 A3054 RMK SLP393

CYXE;2016-02-12 09:00;CYXE 120900Z 06005KT 15SM SKC M19/M21 A3055 RMK FROIN SLP398

CYXE;2016-02-12 10:00;CYXE 121000Z 06006KT 15SM SKC M20/M22 A3058 RMK SLP410

CYXE;2016-02-12 11:00;CYXE 121100Z 06004KT 15SM FEW200 M20/M23 A3059 RMK CI2 SLP415

CYXE;2016-02-12 12:00;CYXE 121200Z 11006KT 15SM FEW200 M20/M22 A3060 RMK CI2 SLP416

CYXE;2016-02-12 13:00;CYXE 121300Z 12010KT 15SM SKC M19/M22 A3060 RMK SLP416

CYXE;2016-02-12 14:00;CYXE 121400Z 12007KT 15SM SCT200 M20/M23 A3060 RMK CI3 SLP417

CYXE;2016-02-12 15:00;CYXE 121500Z 12009KT 15SM SCT250 M19/M22 A3061 RMK CI3 SLP418

CYXE;2016-02-12 16:00;CYXE 121600Z 13011KT 15SM BKN240 M19/M22 A3059 RMK CI6 SLP412

CYXE;2016-02-12 17:00;CYXE 121700Z 13011KT 15SM BKN240 M18/M22 A3058 RMK CI6 SLP411

CYXE;2016-02-12 18:00;CYXE 121800Z 14011KT 15SM SCT240 M17/M22 A3059 RMK CI4 SLP411

CYXE;2016-02-12 19:00;CYXE 121900Z 13010KT 15SM BKN240 M15/M21 A3055 RMK CI5 SLP398

CYXE;2016-02-12 20:00;CYXE 122000Z 12011KT 15SM BKN240 M14/M20 A3051 RMK CI7 SLP385

CYXE;2016-02-12 21:00;CYXE 122100Z 11013KT 15SM BKN240 M15/M20 A3048 RMK CI6 PRESFR SLP375

CYXE;2016-02-12 22:00;CYXE 122200Z 11012KT 15SM BKN200 M14/M19 A3046 RMK CI6 SLP370

CYXE;2016-02-12 23:00;CYXE 122300Z 13013KT 15SM BKN200 M15/M19 A3044 RMK CI7 SLP364

CYXE;2016-02-13 00:00;CYXE 130000Z 12013KT 15SM BKN200 M15/M20 A3042 RMK CI7 SLP355

CYXE;2016-02-13 01:00;CYXE 130100Z 11015KT 15SM BKN200 M16/M20 A3038 RMK CI7 SLP343

CYXE;2016-02-13 02:00;CYXE 130200Z 13017KT 15SM BKN220 M16/M20 A3033 RMK CI5 PRESFR SLP327

CYXE;2016-02-13 03:00;CYXE 130300Z 12015KT 15SM BKN160 M16/M19 A3030 RMK AC5 PRESFR SLP314

CYXE;2016-02-13 04:00;CYXE 130400Z 13013G19KT 15SM SCT190 M15/M19 A3027 RMK CI4 SLP304

CYXE;2016-02-13 05:00;CYXE 130500Z 12015KT 15SM BKN190 M15/M18 A3023 RMK CI7 PRESFR SLP287

CYXE;2016-02-13 06:00;CYXE 130600Z 14013G22KT 15SM FEW120 BKN160 M13/M18 A3018 RMK AC1AC6 SLP270

CYXE;2016-02-13 07:00;CYXE 130700Z 14012KT 15SM FEW090 BKN160 M13/M17 A3015 RMK AC2AC5 SLP257

CYXE;2016-02-13 08:00;CYXE 130800Z 13010G15KT 6SM BR BKN035 OVC070 M12/M16 A3010 RMK SC6AC2 SLP240

CYXE;2016-02-13 09:00;CYXE 130900Z 12010KT 15SM FEW018 SCT035 OVC060 M12/M15 A3006 RMK SF2SC2SC4 SLP227

CYXE;2016-02-13 10:00;CYXE 131000Z 15016KT 15SM FEW018 OVC045 M11/M13 A3000 RMK SF2SC6 PRESFR SLP205

CYXE;2016-02-13 11:00;CYXE 131100Z 15014KT 15SM FEW017 BKN025 OVC055 M10/M13 A2999 RMK SF1SF4SC3 SLP200

CYXE;2016-02-13 12:00;CYXE 131200Z 14011KT 15SM BKN018 OVC040 M10/M12 A2995 RMK SF6SC2 PRESFR SLP186

CYXE;2016-02-13 13:00;CYXE 131300Z 14016KT 15SM BKN015 OVC035 M10/M12 A2989 RMK SF5SC3 PRESFR SLP168

CYXE;2016-02-13 14:00;CYXE 131400Z 16014G20KT 15SM OVC014 M10/M12 A2988 RMK SC8 SLP164

CYXE;2016-02-13 15:00;CYXE 131500Z 15011G16KT 15SM OVC011 M09/M12 A2986 RMK SC8 PRESFR SLP155

CYXE;2016-02-13 16:00;CYXE 131600Z 14010G16KT 15SM OVC010 M09/M11 A2983 RMK SC8 SLP143

CYXE;2016-02-13 17:00;CYXE 131700Z 13007KT 15SM OVC010 M08/M10 A2983 RMK SC8 SLP144

CYXE;2016-02-13 18:00;CYXE 131800Z 15007KT 6SM R09/5000VP6000FT/D -SN FEW007 OVC025 M08/M10 A2982 RMK SF2SC6 SLP138

CYXE;2016-02-13 18:10;CYXE 131810Z 14008KT 1SM R09/5000FT/U -SN FEW007 OVC025 M08/M10 A2981 RMK SF2SC6 SLP137

CYXE;2016-02-13 18:46;CYXE 131846Z 11005KT 1/2SM R09/3500VP6000FT/U SN OVC021 M08/M09 A2981 RMK SC8 SLP136

CYXE;2016-02-13 19:00;CYXE 131900Z 08005KT 3SM -SN OVC019 M08/M09 A2980 RMK SC8 SLP133

CYXE;2016-02-13 19:31;CYXE 131931Z 09005KT 10SM OVC015 M07/M09 A2979 RMK SC8 SLP130

CYXE;2016-02-13 20:00;CYXE 132000Z 10005KT 15SM OVC012 M07/M09 A2979 RMK SC8 SLP126

CYXE;2016-02-13 20:45;CYXE 132045Z 00000KT 6SM -SN SCT011 OVC030 M07/M09 A2979 RMK SC4SC4 SLP127

CYXE;2016-02-13 21:00;CYXE 132100Z 07003KT 3SM BKN012 OVC022 M07/M09 A2979 RMK SC6SC2 SLP126

CYXE;2016-02-13 21:10;CYXE 132110Z 00000KT 2SM -SN VV007 M07/M09 A2979 RMK SN8 SLP126

CYXE;2016-02-13 21:18;CYXE 132118Z 00000KT 1SM R09/6000FT/D -SN VV007 M07/M09 A2979 RMK SN8 SLP126

CYXE;2016-02-13 22:00;CYXE 132200Z 32003KT 1SM R09/5000VP6000FT/U -SN VV008 M07/M08 A2979 RMK SN8 SLP127

CYXE;2016-02-13 22:33;CYXE 132233Z 35003KT 2SM -SN OVC026 M07/M08 A2979 RMK SC8 SLP127

CYXE;2016-02-13 23:00;CYXE 132300Z 32003KT 5SM -SN OVC024 M07/M08 A2980 RMK SC8 /S02/ SLP129

CYXE;2016-02-14 00:00;CYXE 140000Z 30006KT 15SM OVC020 M07/M08 A2981 RMK SC8 SLP133

CYXE;2016-02-14 01:00;CYXE 140100Z 29008KT 15SM OVC016 M07/M09 A2982 RMK SC8 SLP138

CYXE;2016-02-14 01:36;CYXE 140136Z 26007KT 15SM OVC009 M07/M09 A2982 RMK SC8 SLP136

CYXE;2016-02-14 02:00;CYXE 140200Z 26006KT 15SM OVC013 M08/M09 A2981 RMK SC8 SLP134

CYXE;2016-02-14 02:42;CYXE 140242Z 22005KT 15SM -SN SCT013 OVC032 M07/M09 A2979 RMK SC4SC4 SLP127

CYXE;2016-02-14 03:00;CYXE 140300Z 24007KT 15SM -SN SCT010 OVC020 M07/M09 A2979 RMK SC4SC4 SLP128

CYXE;2016-02-14 04:00;CYXE 140400Z 24008KT 15SM -SN OVC015 M06/M07 A2977 RMK SC8 SLP118

CYXE;2016-02-14 04:53;CYXE 140453Z 23008KT 15SM BKN013 M05/M06 A2976 RMK SC7 SLP113

CYXE;2016-02-14 05:00;CYXE 140500Z 23007KT 15SM BKN011 M06/M06 A2975 RMK SC7 SLP111

CYXE;2016-02-14 05:18;CYXE 140518Z 24009KT 15SM SCT011 M07/M07 A2975 RMK SC4 SLP112

CYXE;2016-02-14 06:00;CYXE 140600Z 23008KT 3SM BR FEW011 M09/M09 A2974 RMK SF2 SLP110

CYXE;2016-02-14 07:00;CYXE 140700Z 21006KT 3SM BR SCT200 M10/M11 A2973 RMK CI4 SLP106

CYXE;2016-02-14 08:00;CYXE 140800Z 23008KT 3SM BR SCT200 M10/M11 A2972 RMK CI3 SLP102

CYXE;2016-02-14 09:00;CYXE 140900Z 24008KT 5SM BR FEW200 M11/M12 A2970 RMK CI1 SLP098

CYXE;2016-02-14 10:00;CYXE 141000Z 22007KT 5SM BR SCT230 M09/M09 A2969 RMK CI4 SLP091

CYXE;2016-02-14 11:00;CYXE 141100Z 19007KT 6SM BR SCT220 M10/M11 A2967 RMK CI3 SLP086

CYXE;2016-02-14 12:00;CYXE 141200Z 22006KT 12SM FEW120 SCT150 M09/M09 A2967 RMK AC2AC2 SLP083

CYXE;2016-02-14 13:00;CYXE 141300Z 23007KT 15SM BKN150 M09/M09 A2964 RMK AC5 SLP074

CYXE;2016-02-14 14:00;CYXE 141400Z 22007KT 12SM OVC150 M09/M09 A2964 RMK AC8 SLP073

CYXE;2016-02-14 15:00;CYXE 141500Z 24005KT 12SM SCT080 BKN220 M08/M09 A2964 RMK AC3CI4 SLP072

CYXE;2016-02-14 16:00;CYXE 141600Z 23005KT 12SM BKN080 BKN220 M07/M07 A2965 RMK AC5CI2 SLP074

CYXE;2016-02-14 17:00;CYXE 141700Z 24007KT 12SM BKN070 BKN220 M05/M05 A2965 RMK AC6CI1 SLP076

CYXE;2016-02-14 18:00;CYXE 141800Z 26005KT 15SM FEW070 SCT220 M03/M05 A2966 RMK AC2CI1 SLP078

CYXE;2016-02-14 19:00;CYXE 141900Z 27005KT 15SM FEW070 FEW250 M02/M05 A2966 RMK AC1CI1 SLP080

CYXE;2016-02-14 20:00;CYXE 142000Z 23008KT 15SM FEW070 SCT250 00/M03 A2966 RMK AC1CI2 SLP076

CYXE;2016-02-14 21:00;CYXE 142100Z 26009KT 15SM FEW070 SCT250 02/M02 A2966 RMK AC1CI2 SLP076

CYXE;2016-02-14 22:00;CYXE 142200Z 28011KT 15SM SCT070 BKN250 02/M02 A2964 RMK AC3CI2 SLP069

CYXE;2016-02-14 23:00;CYXE 142300Z 24010KT 15SM FEW090 BKN150 BKN250 01/M03 A2966 RMK AC2AC3CI1 SLP077

CYXE;2016-02-15 00:00;CYXE 150000Z 23008KT 15SM SCT080 BKN150 M01/M04 A2966 RMK AC3AC3 SLP076

CYXE;2016-02-15 01:00;CYXE 150100Z 25010KT 15SM SCT080 BKN150 M02/M04 A2966 RMK AC3AC3 SLP077

CYXE;2016-02-15 02:00;CYXE 150200Z 24009KT 15SM FEW080 SCT150 M04/M06 A2966 RMK AC2AC2 SLP078

CYXE;2016-02-15 03:00;CYXE 150300Z 25007KT 15SM SKC M05/M06 A2966 RMK SLP078

CYXE;2016-02-15 04:00;CYXE 150400Z 25011KT 15SM SKC M06/M07 A2965 RMK SLP077

CYXE;2016-02-15 05:00;CYXE 150500Z 26008KT 15SM SKC M09/M09 A2965 RMK SLP077

CYXE;2016-02-15 06:00;CYXE 150600Z 25007KT 15SM SKC M10/M11 A2966 RMK SLP078

CYXE;2016-02-15 07:00;CYXE 150700Z 24004KT 15SM SKC M09/M09 A2963 RMK SLP068

CYXE;2016-02-15 08:00;CYXE 150800Z 25008KT 15SM SKC M12/M13 A2963 RMK SLP067

CYXE;2016-02-15 09:00;CYXE 150900Z 24006KT 15SM SKC M12/M13 A2963 RMK SLP065

CYXE;2016-02-15 10:00;CYXE 151000Z 24006KT 15SM VCFG SKC M12/M13 A2963 RMK SLP067

CYXE;2016-02-15 11:00;CYXE 151100Z 21004KT 15SM SCT090 M09/M09 A2960 RMK AC3 SLP056

CYXE;2016-02-15 12:00;CYXE 151200Z 20005KT 15SM OVC050 M08/M08 A2959 RMK SC8 SLP051

CYXE;2016-02-15 13:00;CYXE 151300Z 19004KT 15SM OVC080 M07/M07 A2957 RMK AC8 SLP046

CYXE;2016-02-15 14:00;CYXE 151400Z 20004KT 15SM OVC067 M07/M07 A2957 RMK AC8 SLP046

CYXE;2016-02-15 15:00;CYXE 151500Z 23003KT 170V240 15SM BKN041 OVC067 M07/M07 A2958 RMK SC5AC3 SLP050

CYXE;2016-02-15 15:09;CYXE 151509Z 22002KT 6SM -SN OVC011 M07/M07 A2957 RMK SC8 SLP049

CYXE;2016-02-15 15:18;CYXE 151518Z VRB02KT 1SM R09/3500VP6000FT/D -SN VV004 M06/M06 A2957 RMK SN8 SLP047

CYXE;2016-02-15 15:53;CYXE 151553Z 20003KT 3SM R09/4500VP6000FT/U -SN BKN011 OVC048 M06/M06 A2957 RMK SC5SC3 SLP047

CYXE;2016-02-15 16:00;CYXE 151600Z 20004KT 3SM -SN SCT011 OVC048 M05/M06 A2957 RMK SC4SC4 VIS VRB 2-4 SLP047

CYXE;2016-02-15 16:44;CYXE 151644Z 18003KT 3/4SM R09/2800FT/N -SN VV005 M04/M04 A2956 RMK SN8 SLP045

CYXE;2016-02-15 17:00;CYXE 151700Z 17003KT 1 1/2SM R09/4000VP6000FT/U -SN OVC012 M04/M04 A2957 RMK SN4SC4 VIS VRB 1-2 SLP047

CYXE;2016-02-15 18:00;CYXE 151800Z 20005KT 2SM -SN OVC014 M03/M03 A2957 RMK SC8 /S02/ SLP047

CYXE;2016-02-15 18:20;CYXE 151820Z 19005KT 8SM -SN SCT014 OVC035 M02/M02 A2956 RMK SC3SC5 SLP044

CYXE;2016-02-15 19:00;CYXE 151900Z 20007KT 12SM -SN FEW014 OVC032 M02/M02 A2956 RMK SC1SC7 SLP043

CYXE;2016-02-15 20:00;CYXE 152000Z 25006KT 12SM -SN SCT015 OVC032 M02/M03 A2958 RMK SC4SC4 SLP051

CYXE;2016-02-15 20:23;CYXE 152023Z 29005KT 12SM -SN BKN012 OVC032 M02/M03 A2959 RMK SC5SC3 SLP054

CYXE;2016-02-15 21:00;CYXE 152100Z 34005KT 3SM -SN BR OVC011 M01/M02 A2960 RMK SC8 SLP058

CYXE;2016-02-15 22:00;CYXE 152200Z 01013KT 10SM -SN BKN010 OVC022 M02/M04 A2964 RMK SC6SC2 PRESRR SLP074

CYXE;2016-02-15 22:35;CYXE 152235Z 01010KT 15SM SCT013 OVC055 M04/M06 A2967 RMK SC3SC5 SLP084

CYXE;2016-02-15 23:00;CYXE 152300Z 02010KT 15SM SCT013 OVC055 M04/M06 A2969 RMK SC3SC5 SLP090

CYXE;2016-02-16 00:00;CYXE 160000Z 03012KT 15SM BKN015 OVC050 M05/M07 A2973 RMK SC5SC3 SLP102

CYXE;2016-02-16 01:00;CYXE 160100Z 01007KT 15SM BKN015 OVC050 M05/M06 A2978 RMK SC7SC1 SLP121

CYXE;2016-02-16 02:00;CYXE 160200Z 01006KT 15SM OVC013 M05/M07 A2982 RMK SC8 SLP132

CYXE;2016-02-16 03:00;CYXE 160300Z 36005KT 15SM OVC013 M05/M07 A2985 RMK SC8 SLP143

CYXE;2016-02-16 04:00;CYXE 160400Z 02003KT 15SM OVC012 M05/M07 A2987 RMK SC8 SLP149

CYXE;2016-02-16 05:00;CYXE 160500Z 10003KT 15SM OVC012 M05/M07 A2987 RMK SC8 SLP151

CYXE;2016-02-16 06:00;CYXE 160600Z 06006KT 15SM OVC012 M06/M07 A2988 RMK SC8 SLP153

CYXE;2016-02-16 07:00;CYXE 160700Z 00000KT 15SM OVC011 M06/M07 A2989 RMK SC8 SLP156

CYXE;2016-02-16 07:38;CYXE 160738Z 00000KT 15SM OVC009 M06/M07 A2989 RMK ST8 SLP156

CYXE;2016-02-16 08:00;CYXE 160800Z VRB02KT 15SM OVC008 M06/M07 A2989 RMK ST8 SLP153

CYXE;2016-02-16 09:00;CYXE 160900Z 14003KT 15SM OVC008 M06/M07 A2988 RMK ST8 SLP152

CYXE;2016-02-16 10:00;CYXE 161000Z 18005KT 15SM OVC007 M05/M07 A2988 RMK ST8 SLP152

CYXE;2016-02-16 11:00;CYXE 161100Z 17005KT 15SM OVC010 M06/M07 A2987 RMK ST8 SLP149

CYXE;2016-02-16 12:00;CYXE 161200Z 13006KT 15SM OVC011 M05/M07 A2986 RMK ST8 SLP145

CYXE;2016-02-16 13:00;CYXE 161300Z 12009KT 15SM OVC015 M06/M07 A2984 RMK SC8 SLP139

CYXE;2016-02-16 14:00;CYXE 161400Z 13008KT 15SM SCT007 OVC015 M06/M07 A2984 RMK ST3SC5 SLP139

CYXE;2016-02-16 14:20;CYXE 161420Z 13009KT 15SM BKN006 OVC015 M06/M06 A2985 RMK ST6SC2 SLP142

CYXE;2016-02-16 15:00;CYXE 161500Z 13009KT 15SM BKN006 OVC014 M06/M06 A2985 RMK ST7SC1 SLP144

CYXE;2016-02-16 16:00;CYXE 161600Z 14010KT 15SM BKN006 OVC012 M05/M06 A2985 RMK ST6SC2 SLP143

CYXE;2016-02-16 16:41;CYXE 161641Z 13010KT 15SM SCT006 OVC011 M05/M06 A2986 RMK ST4ST4 SLP145

CYXE;2016-02-16 17:00;CYXE 161700Z 12008KT 15SM BKN008 OVC011 M05/M06 A2986 RMK ST5ST3 SLP145

CYXE;2016-02-16 18:00;CYXE 161800Z 12012KT 15SM BKN008 OVC011 M05/M07 A2986 RMK ST6ST2 SLP147

CYXE;2016-02-16 19:00;CYXE 161900Z 12011KT 15SM OVC009 M05/M07 A2986 RMK ST8 SLP146

CYXE;2016-02-16 20:00;CYXE 162000Z 13010KT 15SM OVC009 M05/M07 A2985 RMK ST8 SLP144

CYXE;2016-02-16 21:00;CYXE 162100Z 13009KT 15SM OVC010 M04/M07 A2986 RMK ST8 SLP146

CYXE;2016-02-16 21:18;CYXE 162118Z 12010KT 15SM SCT009 BKN080 M04/M06 A2985 RMK ST4AC3 SLP143

CYXE;2016-02-16 22:00;CYXE 162200Z 13011KT 15SM FEW009 BKN120 OVC250 M04/M07 A2984 RMK ST2AC3CI3 SLP140

CYXE;2016-02-16 23:00;CYXE 162300Z 16007KT 15SM BKN023 BKN120 M04/M06 A2985 RMK SC5AC1 SLP143

CYXE;2016-02-17 00:00;CYXE 170000Z 14007KT 15SM FEW025 SCT120 M06/M07 A2984 RMK SC2AC2 SLP141

CYXE;2016-02-17 01:00;CYXE 170100Z 14006KT 15SM BKN010 OVC070 M05/M06 A2985 RMK SC6AC2 SLP141

CYXE;2016-02-17 01:40;CYXE 170140Z 14006KT 15SM BKN008 OVC050 M04/M06 A2984 RMK SC6SC2 SLP139

CYXE;2016-02-17 02:00;CYXE 170200Z 15005KT 15SM BKN008 OVC050 M04/M05 A2984 RMK SC6SC2 SLP138

CYXE;2016-02-17 03:00;CYXE 170300Z 17005KT 15SM BKN009 OVC050 M03/M04 A2983 RMK SC7SC1 SLP136

CYXE;2016-02-17 04:00;CYXE 170400Z 16008KT 15SM SCT010 OVC060 M03/M04 A2982 RMK SC3SC5 SLP130

CYXE;2016-02-17 05:00;CYXE 170500Z 19011KT 15SM BKN017 OVC060 M02/M03 A2982 RMK SC5SC3 SLP130

CYXE;2016-02-17 05:23;CYXE 170523Z 20012KT 15SM BKN012 OVC050 M02/M02 A2981 RMK SC6SC2 SLP128

CYXE;2016-02-17 06:00;CYXE 170600Z 20008KT 15SM BKN012 OVC055 M01/M02 A2980 RMK SF7SC1 SLP124

CYXE;2016-02-17 07:00;CYXE 170700Z 23007KT 15SM OVC015 M01/M02 A2980 RMK SF8 SLP124

CYXE;2016-02-17 07:51;CYXE 170751Z 21007KT 15SM OVC012 M01/M01 A2980 RMK SF8 SLP122

CYXE;2016-02-17 08:00;CYXE 170800Z 20008KT 15SM M01/M01 A2979 RMK SLP120

CYXE;2016-02-17 08:41;CYXE 170841Z 23017KT 15SM OVC007 00/M00 A2979 RMK SF8 SLP120

CYXE;2016-02-17 09:00;CYXE 170900Z 23016KT 15SM OVC006 M00/M01 A2980 RMK SF8 SLP121

CYXE;2016-02-17 09:31;CYXE 170931Z 24014KT 15SM OVC004 M01/M01 A2980 RMK SF8 SLP122

CYXE;2016-02-17 10:00;CYXE 171000Z 24011KT 15SM OVC004 M01/M01 A2979 RMK SF8 SLP120

CYXE;2016-02-17 10:30;CYXE 171030Z 25008KT 2SM BR OVC003 M01/M01 A2979 RMK ST8 SLP120

CYXE;2016-02-17 10:41;CYXE 171041Z 26008KT 1SM R09/P6000FT/N BR OVC003 M01/M01 A2979 RMK ST8 SLP120

CYXE;2016-02-17 10:47;CYXE 171047Z 26007KT 1/4SM R09/P6000FT/N FZFG OVC002 M01/M01 A2979 RMK ST8 SLP119

CYXE;2016-02-17 11:00;CYXE 171100Z 24010KT 1/4SM R09/P6000FT/N FZFG OVC002 M02/M02 A2979 RMK ST8 SLP119

CYXE;2016-02-17 11:28;CYXE 171128Z 22007KT 1/8SM R09/2600FT/N FZFG VV002 M02/M02 A2979 RMK FG8 SLP118

CYXE;2016-02-17 12:00;CYXE 171200Z 21009KT 1/4SM R09/2600V4000FT/N FZFG VV002 M02/M02 A2978 RMK FG8 FROIN SLP119

CYXE;2016-02-17 12:13;CYXE 171213Z 21006KT 1/8SM R09/4000VP6000FT/D FZFG VV002 M02/M02 A2978 RMK FG8 SLP117

CYXE;2016-02-17 12:18;CYXE 171218Z 21007KT 1/4SM R09/4500FT/N FZFG VV002 M02/M02 A2978 RMK FG8 SLP118

CYXE;2016-02-17 12:44;CYXE 171244Z 19006KT 1/8SM R09/P6000FT/D FZFG VV002 M03/M03 A2978 RMK FG8 SLP116

CYXE;2016-02-17 13:00;CYXE 171300Z 19005KT 1/4SM R09/3500V5000FT/N FZFG VV002 M03/M03 A2978 RMK FG8 SLP115

CYXE;2016-02-17 14:00;CYXE 171400Z 18006KT 3/8SM R09/2800FT/N FZFG VV002 M04/M04 A2977 RMK FG8 SLP114

CYXE;2016-02-17 14:33;CYXE 171433Z 19008KT 5SM R09/3500VP6000FT/U BR SCT002 BKN070 M05/M05 A2977 RMK SF3AC3 SLP114

CYXE;2016-02-17 15:00;CYXE 171500Z 20004KT 5SM BR FEW002 BKN060 M04/M04 A2978 RMK SF1SC6 SLP117

CYXE;2016-02-17 16:00;CYXE 171600Z 20009KT 12SM FEW060 SCT095 M03/M03 A2978 RMK SC2AC2 SLP116

CYXE;2016-02-17 17:00;CYXE 171700Z 20007KT 12SM FEW100 M02/M03 A2977 RMK AC2 SLP110

CYXE;2016-02-17 18:00;CYXE 171800Z 21008KT 15SM FEW100 00/M03 A2975 RMK AC1 SLP103

CYXE;2016-02-17 19:00;CYXE 171900Z 23006KT 15SM FEW250 02/M03 A2974 RMK CI1 SLP098

CYXE;2016-02-17 20:00;CYXE 172000Z 27005KT 15SM FEW250 01/M02 A2973 RMK CI2 SLP095

CYXE;2016-02-17 21:00;CYXE 172100Z 33004KT 15SM SCT250 01/M03 A2972 RMK CI4 SLP090

CYXE;2016-02-17 22:00;CYXE 172200Z 00000KT 15SM SCT250 02/M03 A2969 RMK CI4 SLP082

CYXE;2016-02-17 23:00;CYXE 172300Z 04002KT 15SM BKN250 02/M03 A2969 RMK CI7 SLP079

CYXE;2016-02-18 00:00;CYXE 180000Z 06004KT 15SM BKN250 00/M03 A2968 RMK CI7 SLP078

CYXE;2016-02-18 01:00;CYXE 180100Z 08006KT 15SM BKN250 M02/M03 A2967 RMK CI6 SLP077

CYXE;2016-02-18 02:00;CYXE 180200Z 08004KT 15SM SCT250 M05/M05 A2967 RMK CI4 SLP079

CYXE;2016-02-18 03:00;CYXE 180300Z 07005KT 15SM SCT250 M05/M06 A2965 RMK CI4 SLP074

CYXE;2016-02-18 04:00;CYXE 180400Z 05007KT 15SM SCT250 M07/M07 A2963 RMK CI3 SLP067

CYXE;2016-02-18 04:49;CYXE 180449Z 06006KT 15SM FEW005 BKN120 M07/M07 A2962 RMK SF2AC5 SLP062

CYXE;2016-02-18 05:00;CYXE 180500Z 07006KT 10SM BKN002 OVC120 M06/M06 A2961 RMK SF7AC1 BR SLP060

CYXE;2016-02-18 06:00;CYXE 180600Z 10009KT 6SM BCFG OVC003 M03/M03 A2960 RMK SF8 SLP053

CYXE;2016-02-18 06:08;CYXE 180608Z 10010KT 2 1/2SM BCFG OVC003 M03/M03 A2959 RMK ST8 SLP049

CYXE;2016-02-18 06:16;CYXE 180616Z 10010KT 1 1/2SM BR OVC002 M03/M03 A2959 RMK ST8 VIS LWR W SLP047

CYXE;2016-02-18 07:00;CYXE 180700Z 10008KT 1 1/2SM BR OVC002 M02/M02 A2958 RMK ST8 SLP044

CYXE;2016-02-18 07:10;CYXE 180710Z 11010KT 1/2SM R09/P6000FT/D FZFG VV002 M02/M02 A2958 RMK FG8 SLP043

CYXE;2016-02-18 07:28;CYXE 180728Z 12013KT 1/4SM R09/P6000FT/D FZFG VV002 M02/M02 A2957 RMK FG8 SLP040

CYXE;2016-02-18 08:00;CYXE 180800Z 11013KT 3/8SM R09/5000FT/N FZFG VV002 M02/M02 A2955 RMK FG8 FROIN SLP033

CYXE;2016-02-18 09:00;CYXE 180900Z 11012KT 3/8SM R09/P6000FT/D FZFG VV002 M01/M01 A2953 RMK FG8 FROIN SLP026

CYXE;2016-02-18 10:00;CYXE 181000Z 10011KT 3/8SM R09/P6000FT/U FZFG VV002 M01/M01 A2951 RMK FG8 SLP019

CYXE;2016-02-18 10:33;CYXE 181033Z 10010G15KT 1 1/2SM BCFG OVC002 M01/M01 A2951 RMK ST8 VIS LWR W SLP017

CYXE;2016-02-18 11:00;CYXE 181100Z 11010KT 1/2SM R09/P6000FT/D FZFG VV002 M01/M01 A2951 RMK FG8 SLP017

CYXE;2016-02-18 11:19;CYXE 181119Z 11012KT 3/8SM R09/P6000FT/D FZFG VV002 M01/M01 A2950 RMK FG8 SLP014

CYXE;2016-02-18 12:00;CYXE 181200Z 10013KT 3/4SM R09/P6000FT/U BCFG OVC002 M01/M01 A2948 RMK ST8 SLP010

CYXE;2016-02-18 12:22;CYXE 181222Z 10011KT 1 1/2SM BCFG OVC003 M01/M01 A2947 RMK ST8 SLP008

CYXE;2016-02-18 13:00;CYXE 181300Z 10010KT 1 1/2SM BCFG OVC004 M01/M01 A2945 RMK ST8 SLP001

CYXE;2016-02-18 13:16;CYXE 181316Z 11014KT 5SM BCFG OVC005 M01/M01 A2944 RMK ST8 SLP998

CYXE;2016-02-18 14:00;CYXE 181400Z 10014KT 15SM BR OVC005 M01/M01 A2942 RMK ST8 SLP990

CYXE;2016-02-18 14:26;CYXE 181426Z 11015G20KT 5SM BR OVC004 M01/M01 A2939 RMK ST8 PRESFR SLP983

CYXE;2016-02-18 15:00;CYXE 181500Z 12018KT 4SM BR OVC003 M01/M01 A2939 RMK ST8 SLP981

CYXE;2016-02-18 16:00;CYXE 181600Z 12014G21KT 5SM BR OVC003 M00/M00 A2938 RMK ST8 SLP981

CYXE;2016-02-18 17:00;CYXE 181700Z 11014KT 6SM BR OVC005 M00/M01 A2938 RMK ST8 SLP979

CYXE;2016-02-18 18:00;CYXE 181800Z 12013KT 6SM BR OVC005 01/M00 A2937 RMK ST8 SLP973

CYXE;2016-02-18 19:00;CYXE 181900Z 12017KT 6SM BR OVC005 00/M00 A2933 RMK ST8 SLP958

CYXE;2016-02-18 20:00;CYXE 182000Z 13015G20KT 10SM OVC005 01/M00 A2930 RMK ST8 SLP948

CYXE;2016-02-18 21:00;CYXE 182100Z 14012G18KT 8SM OVC004 00/00 A2927 RMK ST8 SLP937

CYXE;2016-02-18 22:00;CYXE 182200Z 14012G18KT 4SM BR OVC004 00/M00 A2925 RMK ST8 SLP931

CYXE;2016-02-18 23:00;CYXE 182300Z 13010KT 5SM BR OVC004 00/00 A2924 RMK ST8 SLP926

CYXE;2016-02-19 00:00;CYXE 190000Z 15012KT 6SM BR OVC004 M00/M00 A2924 RMK ST8 SLP927

CYXE;2016-02-19 01:00;CYXE 190100Z 13011G16KT 10SM OVC004 M00/M00 A2924 RMK ST8 BR SLP927

CYXE;2016-02-19 01:31;CYXE 190131Z 13010KT 4SM BR OVC003 M00/M00 A2923 RMK ST8 SLP925

CYXE;2016-02-19 01:44;CYXE 190144Z 13012KT 2SM -FZDZ BR OVC002 M00/M00 A2923 RMK ST8 SLP924

CYXE;2016-02-19 02:00;CYXE 190200Z 13010KT 1SM R09/P6000FT/D -FZDZ BR OVC002 M00/M00 A2922 RMK ST8 SLP919

CYXE;2016-02-19 03:00;CYXE 190300Z 13011KT 1 1/2SM -FZDZ BR OVC002 M00/M00 A2920 RMK ST8 SLP913

CYXE;2016-02-19 04:00;CYXE 190400Z 13010KT 1 1/2SM -FZDZ BR OVC002 M00/M00 A2920 RMK ST8 SLP912

CYXE;2016-02-19 05:00;CYXE 190500Z 14009KT 2SM -FZDZ BR OVC003 M00/M00 A2920 RMK ST8 SLP914

CYXE;2016-02-19 05:09;CYXE 190509Z 13008KT 2 1/2SM -SN BR OVC003 M00/M00 A2920 RMK ST8 SLP913

CYXE;2016-02-19 06:00;CYXE 190600Z 12007KT 3SM -FZRA BR OVC004 00/00 A2919 RMK ST8 SLP908

CYXE;2016-02-19 07:00;CYXE 190700Z 10006KT 3SM -FZRA BR OVC004 00/00 A2917 RMK ST8 SLP901

CYXE;2016-02-19 07:24;CYXE 190724Z 10006KT 3SM BR OVC004 00/00 A2916 RMK ST8 SLP899

CYXE;2016-02-19 08:00;CYXE 190800Z 10005KT 3SM BR OVC005 00/00 A2916 RMK ST8 SLP898

CYXE;2016-02-19 08:43;CYXE 190843Z 11004KT 6SM BR SCT006 OVC060 01/01 A2916 RMK ST4SC4 SLP898

CYXE;2016-02-19 09:00;CYXE 190900Z 12004KT 8SM SCT006 OVC060 00/00 A2916 RMK SF4SC4 BR SLP899

CYXE;2016-02-19 10:00;CYXE 191000Z 05006KT 8SM BKN060 OVC080 M00/M00 A2916 RMK SC6AC2 BR SLP898

CYXE;2016-02-19 11:00;CYXE 191100Z 13005KT 060V170 8SM FEW010 BKN050 M00/M00 A2918 RMK SC2SC5 BR SLP906

CYXE;2016-02-19 11:37;CYXE 191137Z 02005KT 4SM BR BKN008 OVC050 00/00 A2918 RMK ST5SC3 SLP906

CYXE;2016-02-19 12:00;CYXE 191200Z 04005KT 5SM BR BKN008 OVC050 00/00 A2919 RMK ST7SC1 SLP910

CYXE;2016-02-19 12:48;CYXE 191248Z 01007KT 5SM BR SCT003 OVC008 00/00 A2921 RMK SF4SF4 SLP917

CYXE;2016-02-19 13:00;CYXE 191300Z 36007KT 5SM BR BKN004 OVC008 00/00 A2921 RMK ST6ST2 SLP918

CYXE;2016-02-19 14:00;CYXE 191400Z 02010KT 6SM BR OVC003 M00/M00 A2925 RMK ST8 PRESRR SLP929

CYXE;2016-02-19 15:00;CYXE 191500Z 01012G18KT 12SM OVC006 M00/M01 A2929 RMK ST8 SLP946

CYXE;2016-02-19 15:47;CYXE 191547Z 36017G23KT 8SM -SN BKN008 OVC030 M01/M01 A2933 RMK SF5SC3 SLP957

CYXE;2016-02-19 16:00;CYXE 191600Z 36015G20KT 4SM -SN DRSN BKN008 OVC030 M01/M01 A2934 RMK SF5SC3 PRESRR SLP961

CYXE;2016-02-19 16:28;CYXE 191628Z 35016KT 2SM -SN DRSN OVC020 M01/M01 A2937 RMK SC8 PRESRR SLP970

CYXE;2016-02-19 17:00;CYXE 191700Z CCA 35021G26KT 2SM -SN DRSN OVC022 M01/M02 A2939 RMK SC8 SLP980

CYXE;2016-02-19 17:48;CYXE 191748Z 35025G31KT 1SM R09/P6000FT/N -SN DRSN OVC022 M01/M02 A2943 RMK SC8 SLP994

CYXE;2016-02-19 18:00;CYXE 191800Z 35025G32KT 1SM R09/5000VP6000FT/N -SN DRSN SCT010 OVC020 M01/M02 A2944 RMK SC4SC4 SLP997

CYXE;2016-02-19 18:31;CYXE 191831Z 35016G22KT 4SM -SN DRSN OVC016 M01/M02 A2947 RMK SC8 SLP008

CYXE;2016-02-19 18:44;CYXE 191844Z 35019KT 1 1/2SM -SN DRSN OVC014 M01/M02 A2948 RMK SC8 SLP010

CYXE;2016-02-19 19:00;CYXE 191900Z 35015KT 1 1/2SM R09/4500VP6000FT/U -SN DRSN OVC014 M01/M01 A2949 RMK SC8 SLP014

CYXE;2016-02-19 20:00;CYXE 192000Z 34017G23KT 2SM -SN DRSN OVC014 M02/M03 A2954 RMK SC8 SLP031

CYXE;2016-02-19 21:00;CYXE 192100Z 34019G25KT 6SM -SN DRSN SCT014 OVC050 M04/M07 A2959 RMK SC4SC4 SLP050

CYXE;2016-02-19 22:00;CYXE 192200Z 33010G19KT 15SM DRSN SCT050 OVC080 M04/M08 A2965 RMK SC3AC5 PRESRR SLP068

CYXE;2016-02-19 23:00;CYXE 192300Z 33010G16KT 15SM SCT090 BKN120 M05/M09 A2969 RMK AC3AC4 SLP083

CYXE;2016-02-20 00:00;CYXE 200000Z 32011G18KT 15SM FEW050 SCT120 BKN180 M06/M09 A2971 RMK SC1AC2AC3 SLP092

CYXE;2016-02-20 01:00;CYXE 200100Z 30006KT 15SM FEW017 BKN190 M08/M10 A2976 RMK SC2AC3 PRESRR SLP109

CYXE;2016-02-20 02:00;CYXE 200200Z 32007KT 15SM SCT150 M10/M12 A2979 RMK AC4 SLP123

CYXE;2016-02-20 03:00;CYXE 200300Z 29004KT 15SM FEW150 M10/M11 A2981 RMK AC2 SLP130

CYXE;2016-02-20 04:00;CYXE 200400Z 34004KT 15SM SKC M12/M13 A2982 RMK SLP135

CYXE;2016-02-20 05:00;CYXE 200500Z 35004KT 15SM FEW210 M12/M13 A2984 RMK CI2 SLP142

CYXE;2016-02-20 06:00;CYXE 200600Z 08004KT 15SM BKN090 M12/M14 A2987 RMK AC7 SLP152

CYXE;2016-02-20 07:00;CYXE 200700Z 04008KT 15SM BKN100 M12/M15 A2989 RMK AC7 SLP157

CYXE;2016-02-20 08:00;CYXE 200800Z 06009KT 15SM BKN100 M13/M17 A2990 RMK AC7 SLP162

CYXE;2016-02-20 09:00;CYXE 200900Z 04007KT 15SM BKN100 M13/M17 A2992 RMK AC7 SLP173

CYXE;2016-02-20 10:00;CYXE 201000Z 05007KT 15SM BKN110 M14/M17 A2993 RMK AC7 SLP176

CYXE;2016-02-20 11:00;CYXE 201100Z 06010KT 15SM BKN110 M14/M17 A2993 RMK AC7 SLP177

CYXE;2016-02-20 12:00;CYXE 201200Z 05008KT 15SM OVC110 M14/M17 A2997 RMK AC8 SLP190

CYXE;2016-02-20 13:00;CYXE 201300Z 05009KT 15SM OVC110 M14/M18 A3000 RMK AC8 SLP202

CYXE;2016-02-20 14:00;CYXE 201400Z 06009KT 15SM BKN047 OVC120 M14/M17 A3002 RMK SC5AC3 SLP210

CYXE;2016-02-20 15:00;CYXE 201500Z 05012KT 15SM OVC046 M14/M17 A3004 RMK SC8 SLP218

CYXE;2016-02-20 16:00;CYXE 201600Z 05014KT 12SM -SN DRSN SCT046 OVC058 M15/M17 A3005 RMK SC3SC5 SLP224

CYXE;2016-02-20 16:33;CYXE 201633Z 06012KT 15SM OVC056 M14/M17 A3007 RMK SC8 SLP229

CYXE;2016-02-20 17:00;CYXE 201700Z 06011KT 15SM OVC050 M14/M17 A3008 RMK SC8 SLP233

CYXE;2016-02-20 17:45;CYXE 201745Z 05012KT 15SM SN BKN027 OVC050 M14/M17 A3011 RMK SC6SC2 PRESRR SLP243

CYXE;2016-02-20 17:55;CYXE 201755Z 05009KT 1SM R09/P6000FT/N -SN VV004 M14/M17 A3011 RMK SN8 SLP243

CYXE;2016-02-20 18:00;CYXE 201800Z 07009KT 1SM R09/3000VP6000FT/D -SN VV004 M14/M16 A3011 RMK SN8 SLP244

CYXE;2016-02-20 18:06;CYXE 201806Z 05010KT 1/2SM R09/2600VP6000FT/D -SN VV040 M14/M16 A3011 RMK SN8 SLP244

CYXE;2016-02-20 18:32;CYXE 201832Z 04009KT 12SM -SN BKN030 M13/M17 A3013 RMK SC7 SLP249

CYXE;2016-02-20 19:00;CYXE 201900Z 04008KT 15SM -SN BKN038 M13/M17 A3014 RMK SC7 SLP251

CYXE;2016-02-20 20:00;CYXE 202000Z 04009KT 15SM -SN OVC039 M13/M17 A3014 RMK SC8 SLP254

CYXE;2016-02-20 20:47;CYXE 202047Z 02010KT 15SM SCT040 BKN120 M13/M17 A3016 RMK SC3AC3 SLP260

CYXE;2016-02-20 21:00;CYXE 202100Z 04010KT 15SM FEW040 BKN120 M13/M17 A3017 RMK SC2AC3 SLP263

CYXE;2016-02-20 22:00;CYXE 202200Z 03009KT 15SM FEW040 BKN120 M13/M17 A3020 RMK SC1AC4 SLP273

CYXE;2016-02-20 23:00;CYXE 202300Z 01007KT 15SM FEW120 M14/M18 A3022 RMK AC1 SLP281

CYXE;2016-02-21 00:00;CYXE 210000Z 02005KT 15SM FEW280 M14/M18 A3024 RMK CI1 CI TR SLP288

CYXE;2016-02-21 01:00;CYXE 210100Z 35004KT 15SM FEW180 M16/M19 A3026 RMK AC1 AC TR SLP298

CYXE;2016-02-21 02:00;CYXE 210200Z 33002KT 15SM SKC M17/M19 A3028 RMK SLP306

CYXE;2016-02-21 03:00;CYXE 210300Z 29003KT 15SM SKC M18/M19 A3030 RMK SLP311

CYXE;2016-02-21 04:00;CYXE 210400Z 25003KT 15SM FEW200 M18/M20 A3031 RMK CI2 SLP315

CYXE;2016-02-21 05:00;CYXE 210500Z 19003KT 15SM BKN075 M18/M20 A3031 RMK AC7 SLP315

CYXE;2016-02-21 06:00;CYXE 210600Z 22004KT 15SM BKN070 M15/M17 A3030 RMK AC7 SLP311

CYXE;2016-02-21 07:00;CYXE 210700Z 22006KT 15SM OVC070 M14/M16 A3030 RMK AC8 SLP310

CYXE;2016-02-21 08:00;CYXE 210800Z 21006KT 15SM OVC070 M14/M17 A3030 RMK AC8 SLP307

CYXE;2016-02-21 09:00;CYXE 210900Z 21008KT 15SM OVC068 M14/M16 A3029 RMK AC8 SLP304

CYXE;2016-02-21 10:00;CYXE 211000Z 20007KT 15SM OVC061 M13/M16 A3028 RMK SC8 SLP301

CYXE;2016-02-21 11:00;CYXE 211100Z 20008KT 15SM OVC057 M13/M15 A3026 RMK SC8 SLP293

CYXE;2016-02-21 12:00;CYXE 211200Z 20008KT 15SM FEW037 OVC059 M12/M14 A3023 RMK SC2SC6 SLP285

CYXE;2016-02-21 13:00;CYXE 211300Z 18006KT 15SM OVC036 M11/M13 A3022 RMK SC8 SLP282

CYXE;2016-02-21 14:00;CYXE 211400Z 18007KT 15SM OVC028 M10/M13 A3019 RMK SC8 SLP271

CYXE;2016-02-21 15:00;CYXE 211500Z 19008KT 15SM OVC024 M09/M12 A3019 RMK SC8 SLP269

CYXE;2016-02-21 16:00;CYXE 211600Z 20008KT 15SM OVC021 M08/M11 A3017 RMK SC8 SLP264

CYXE;2016-02-21 16:31;CYXE 211631Z 20008KT 8SM -SN OVC021 M08/M10 A3017 RMK SC8 SLP262

CYXE;2016-02-21 17:00;CYXE 211700Z 20007KT 12SM -SN OVC016 M07/M09 A3016 RMK SC8 SLP258

CYXE;2016-02-21 18:00;CYXE 211800Z 24011KT 12SM -SN OVC016 M05/M07 A3015 RMK SC8 SLP252

CYXE;2016-02-21 19:00;CYXE 211900Z 25008KT 12SM -SN SCT010 OVC015 M05/M06 A3013 RMK SC3SC5 SLP244

CYXE;2016-02-21 19:22;CYXE 211922Z 26008KT 15SM -SN BKN009 OVC015 M04/M06 A3013 RMK SC6SC2 SLP243

CYXE;2016-02-21 20:00;CYXE 212000Z 26006KT 15SM BKN009 OVC018 M03/M06 A3011 RMK SC5SC3 SLP238

CYXE;2016-02-21 21:00;CYXE 212100Z 30008KT 15SM -SN BKN009 OVC018 M03/M05 A3011 RMK SC5SC3 SLP235

CYXE;2016-02-21 21:44;CYXE 212144Z 30008KT 15SM FEW011 SCT020 BKN075 OVC100 M03/M06 A3010 RMK SF1SC2AC2AC3 SLP234

CYXE;2016-02-21 22:00;CYXE 212200Z 31008KT 15SM FEW020 SCT075 OVC110 M03/M06 A3010 RMK SC1AC2AC5 SLP232

CYXE;2016-02-21 23:00;CYXE 212300Z 32003KT 15SM SCT090 BKN110 M04/M06 A3009 RMK AC3AC4 SLP230

CYXE;2016-02-22 00:00;CYXE 220000Z 30003KT 15SM FEW020 SCT055 BKN110 M05/M06 A3009 RMK SC2SC1AC2 SLP228

CYXE;2016-02-22 01:00;CYXE 220100Z 25002KT 15SM SCT020 BKN140 M05/M07 A3007 RMK SC3AC3 SLP222

CYXE;2016-02-22 01:36;CYXE 220136Z 18002KT 15SM BKN010 M06/M07 A3007 RMK SF6 SLP222

CYXE;2016-02-22 02:00;CYXE 220200Z 00000KT 15SM OVC009 M06/M07 A3006 RMK SF8 CIG RAG SLP219

CYXE;2016-02-22 03:00;CYXE 220300Z 17004KT 15SM BKN010 BKN060 M05/M06 A3004 RMK SF5SC2 SLP211

CYXE;2016-02-22 03:30;CYXE 220330Z 17005KT 15SM FEW010 SCT060 M06/M07 A3002 RMK SF1SC2 SLP206

CYXE;2016-02-22 04:00;CYXE 220400Z 16004KT 15SM FEW180 M06/M07 A3001 RMK AC1 SLP202

CYXE;2016-02-22 05:00;CYXE 220500Z 17004KT 15SM SKC M08/M08 A3000 RMK SLP196

CYXE;2016-02-22 06:00;CYXE 220600Z 20005KT 15SM R09/2800VP6000FT/D BCFG SCT220 M08/M08 A2997 RMK CI3 SLP186

CYXE;2016-02-22 07:00;CYXE 220700Z 21006KT 15SM R09/2000FT/N BCFG SKC M08/M09 A2996 RMK SLP182

CYXE;2016-02-22 08:00;CYXE 220800Z 21006KT 15SM BCFG SKC M08/M08 A2994 RMK SLP175

CYXE;2016-02-22 09:00;CYXE 220900Z 21006KT 15SM SCT200 M11/M12 A2993 RMK CI3 SLP173

CYXE;2016-02-22 10:00;CYXE 221000Z 21004KT 15SM BKN059 M10/M10 A2991 RMK SC7 SLP166

CYXE;2016-02-22 11:00;CYXE 221100Z 21004KT 15SM BKN058 M08/M08 A2990 RMK SC7 SLP160

CYXE;2016-02-22 12:00;CYXE 221200Z 22008KT 15SM BKN057 BKN100 M08/M08 A2988 RMK SC6AC1 SLP156

CYXE;2016-02-22 13:00;CYXE 221300Z 23007KT 15SM BKN062 BKN090 M08/M08 A2987 RMK SC6AC1 SLP153

CYXE;2016-02-22 14:00;CYXE 221400Z 22008KT 12SM FEW062 M10/M10 A2985 RMK SC1 SLP147

CYXE;2016-02-22 15:00;CYXE 221500Z 23008KT 15SM FEW062 M11/M11 A2985 RMK SC1 SLP146

CYXE;2016-02-22 16:00;CYXE 221600Z 25008KT 15SM SKC M09/M10 A2986 RMK SLP149

CYXE;2016-02-22 17:00;CYXE 221700Z 30011KT 15SM SKC M08/M09 A2987 RMK SLP153

CYXE;2016-02-22 18:00;CYXE 221800Z 31008KT 15SM SKC M07/M07 A2989 RMK SLP158

CYXE;2016-02-22 19:00;CYXE 221900Z 30015KT 15SM SKC M05/M08 A2988 RMK SLP156

CYXE;2016-02-22 20:00;CYXE 222000Z 30015KT 15SM SKC M05/M08 A2989 RMK SLP159

CYXE;2016-02-22 21:00;CYXE 222100Z 30012KT 15SM SKC M04/M08 A2991 RMK SLP167

CYXE;2016-02-22 22:00;CYXE 222200Z 30013KT 15SM SKC M03/M07 A2993 RMK SLP171

CYXE;2016-02-22 23:00;CYXE 222300Z 30014KT 15SM FEW250 M03/M07 A2994 RMK CI1 SLP174

CYXE;2016-02-23 00:00;CYXE 230000Z 30012KT 15SM SCT250 M04/M08 A2996 RMK CI4 SLP180

CYXE;2016-02-23 01:00;CYXE 230100Z 29008KT 15SM SCT150 BKN250 M06/M09 A2998 RMK AC3CI3 SLP189

CYXE;2016-02-23 02:00;CYXE 230200Z 28007KT 15SM BKN140 BKN250 M05/M08 A2999 RMK AC5CI2 SLP194

CYXE;2016-02-23 03:00;CYXE 230300Z 25007KT 15SM FEW250 M07/M10 A2999 RMK CI2 SLP196

CYXE;2016-02-23 04:00;CYXE 230400Z 25009KT 15SM SCT250 M10/M12 A2999 RMK CI4 SLP198

CYXE;2016-02-23 05:00;CYXE 230500Z 25007KT 15SM BKN250 M10/M12 A3000 RMK CI6 SLP200

CYXE;2016-02-23 06:00;CYXE 230600Z 22007KT 15SM SCT250 M11/M12 A3000 RMK CI4 SLP200

CYXE;2016-02-23 07:00;CYXE 230700Z 23010KT 15SM FEW250 M11/M13 A2999 RMK CI2 SLP196

CYXE;2016-02-23 08:00;CYXE 230800Z 22006KT 15SM FEW250 M10/M11 A2999 RMK CI2 SLP195

CYXE;2016-02-23 09:00;CYXE 230900Z 25011KT 15SM SKC M11/M12 A2999 RMK SLP195

CYXE;2016-02-23 10:00;CYXE 231000Z 28010KT 15SM FEW200 M12/M13 A3001 RMK CI2 SLP199

CYXE;2016-02-23 11:00;CYXE 231100Z 30009KT 15SM FEW200 M08/M10 A3002 RMK CI2 SLP203

CYXE;2016-02-23 12:00;CYXE 231200Z 32013KT 15SM FEW200 M08/M11 A3004 RMK CI2 SLP208

CYXE;2016-02-23 13:00;CYXE 231300Z 31012KT 15SM SKC M07/M09 A3005 RMK SLP213

CYXE;2016-02-23 14:00;CYXE 231400Z 30011KT 15SM SKC M08/M10 A3007 RMK SLP219

CYXE;2016-02-23 15:00;CYXE 231500Z 31010KT 15SM SKC M09/M11 A3008 RMK SLP225

CYXE;2016-02-23 16:00;CYXE 231600Z 29010KT 15SM SKC M07/M10 A3009 RMK SLP228

CYXE;2016-02-23 17:00;CYXE 231700Z 30009KT 15SM SKC M05/M09 A3010 RMK SLP230

CYXE;2016-02-23 18:00;CYXE 231800Z 29008KT 15SM SKC M03/M07 A3010 RMK SLP231

CYXE;2016-02-23 19:00;CYXE 231900Z 28011KT 15SM SKC M02/M06 A3009 RMK SLP227

CYXE;2016-02-23 20:00;CYXE 232000Z 30011G16KT 15SM SKC M01/M06 A3008 RMK SLP221

CYXE;2016-02-23 21:00;CYXE 232100Z 25011KT 15SM SKC M01/M05 A3006 RMK SLP215

CYXE;2016-02-23 22:00;CYXE 232200Z 25010KT 15SM FEW140 M00/M05 A3005 RMK AC1 SLP214

CYXE;2016-02-23 23:00;CYXE 232300Z 25011KT 15SM SCT140 M01/M05 A3005 RMK AC3 SLP211

CYXE;2016-02-24 00:00;CYXE 240000Z 23009KT 15SM BKN120 M03/M06 A3005 RMK AC5 SLP213

CYXE;2016-02-24 01:00;CYXE 240100Z 25010KT 15SM SCT150 M04/M07 A3006 RMK AC4 SLP215

CYXE;2016-02-24 02:00;CYXE 240200Z 25011KT 15SM BKN150 M05/M08 A3005 RMK AC6 SLP215

CYXE;2016-02-24 03:00;CYXE 240300Z 25010KT 15SM FEW150 BKN210 M06/M09 A3005 RMK AC2CI3 SLP213

CYXE;2016-02-24 04:00;CYXE 240400Z 27010KT 15SM FEW150 M08/M10 A3004 RMK AC2 SLP211

CYXE;2016-02-24 05:00;CYXE 240500Z 29011KT 15SM BKN050 M07/M08 A3005 RMK SC6 SLP213

CYXE;2016-02-24 06:00;CYXE 240600Z 31013KT 15SM BKN050 M04/M07 A3005 RMK SC7 SLP211

CYXE;2016-02-24 07:00;CYXE 240700Z 32013KT 15SM BKN063 M04/M06 A3007 RMK SC7 SLP216

CYXE;2016-02-24 07:42;CYXE 240742Z 31015KT 15SM -SN FEW030 OVC062 M04/M06 A3009 RMK SF2SC6 SLP220

CYXE;2016-02-24 08:00;CYXE 240800Z 31015KT 15SM -SN FEW030 OVC060 M03/M05 A3009 RMK SF2SC6 SLP223

CYXE;2016-02-24 09:00;CYXE 240900Z 31012KT 15SM -SN OVC055 M03/M05 A3012 RMK SC8 SLP230

CYXE;2016-02-24 10:00;CYXE 241000Z 31012KT 15SM -SN FEW022 BKN055 M03/M04 A3014 RMK SF2SC4 SLP236

CYXE;2016-02-24 10:20;CYXE 241020Z 31012KT 15SM FEW020 SCT055 BKN150 M04/M05 A3014 RMK SF1SC2AC2 SLP240

CYXE;2016-02-24 11:00;CYXE 241100Z 30008KT 15SM SCT030 BKN150 M05/M06 A3016 RMK SC3AC2 SLP246

CYXE;2016-02-24 12:00;CYXE 241200Z 31010KT 15SM SCT030 M05/M06 A3018 RMK SC3 SLP256

CYXE;2016-02-24 13:00;CYXE 241300Z 31012KT 15SM SCT100 M07/M07 A3021 RMK AC4 SLP266

CYXE;2016-02-24 14:00;CYXE 241400Z 30008KT 15SM FEW100 M09/M10 A3023 RMK AC1 SLP275

CYXE;2016-02-24 15:00;CYXE 241500Z 30009KT 15SM FEW100 M09/M10 A3025 RMK AC1 SLP284

CYXE;2016-02-24 16:00;CYXE 241600Z 30012KT 15SM FEW100 M07/M09 A3026 RMK AC1 AC TR SLP286

CYXE;2016-02-24 17:00;CYXE 241700Z 30010KT 15SM FEW100 M06/M08 A3027 RMK AC1 AC TR SLP289

CYXE;2016-02-24 18:00;CYXE 241800Z 30011KT 15SM SKC M05/M08 A3028 RMK SLP291

CYXE;2016-02-24 19:00;CYXE 241900Z 30011KT 15SM SKC M03/M07 A3029 RMK SLP293

CYXE;2016-02-24 20:00;CYXE 242000Z 30010KT 15SM SKC M03/M07 A3029 RMK SLP291

CYXE;2016-02-24 21:00;CYXE 242100Z 30009KT 15SM SKC M02/M07 A3030 RMK SLP294

CYXE;2016-02-24 22:00;CYXE 242200Z 29008KT 15SM SKC M02/M07 A3030 RMK SLP295

CYXE;2016-02-24 23:00;CYXE 242300Z 29008KT 15SM SKC M03/M07 A3031 RMK SLP298

CYXE;2016-02-25 00:00;CYXE 250000Z 30007KT 15SM SKC M04/M08 A3032 RMK SLP302

CYXE;2016-02-25 01:00;CYXE 250100Z 31005KT 15SM FEW300 M06/M09 A3032 RMK CI1 SLP308

CYXE;2016-02-25 02:00;CYXE 250200Z 26008KT 15SM SKC M09/M11 A3034 RMK SLP315

CYXE;2016-02-25 03:00;CYXE 250300Z 27008KT 15SM SCT055 M10/M11 A3034 RMK SC4 SLP317

CYXE;2016-02-25 04:00;CYXE 250400Z 25006KT 15SM SCT055 M11/M12 A3035 RMK SC4 SLP319

CYXE;2016-02-25 05:00;CYXE 250500Z 25006KT 15SM FEW055 M12/M13 A3035 RMK SC2 SLP320

CYXE;2016-02-25 06:00;CYXE 250600Z 26007KT 15SM FEW055 M12/M13 A3034 RMK SC2 SLP317

CYXE;2016-02-25 07:00;CYXE 250700Z 25006KT 15SM SKC M14/M15 A3034 RMK SLP317

CYXE;2016-02-25 08:00;CYXE 250800Z 22004KT 15SM SKC M13/M14 A3034 RMK SLP314

CYXE;2016-02-25 09:00;CYXE 250900Z 17004KT 15SM SKC M13/M14 A3032 RMK SLP308

CYXE;2016-02-25 10:00;CYXE 251000Z 18005KT 15SM SKC M13/M14 A3031 RMK SLP304

CYXE;2016-02-25 11:00;CYXE 251100Z 23005KT 15SM FEW220 M13/M14 A3031 RMK CI2 SLP304

CYXE;2016-02-25 12:00;CYXE 251200Z 20004KT 15SM FEW220 M12/M13 A3030 RMK CI2 SLP300

CYXE;2016-02-25 13:00;CYXE 251300Z 20003KT 15SM SCT220 M12/M14 A3030 RMK CS4 SLP303

CYXE;2016-02-25 14:00;CYXE 251400Z 19003KT 15SM SCT240 M13/M14 A3028 RMK CI4 SLP296

CYXE;2016-02-25 15:00;CYXE 251500Z 20005KT 15SM FEW140 BKN240 M12/M12 A3026 RMK AC2CI5 SLP290

CYXE;2016-02-25 16:00;CYXE 251600Z 17008KT 15SM FEW150 BKN240 M08/M09 A3023 RMK AC2CI5 SLP279

CYXE;2016-02-25 17:00;CYXE 251700Z 17009KT 15SM SCT130 OVC240 M05/M06 A3020 RMK AC4CI4 SLP268

CYXE;2016-02-25 18:00;CYXE 251800Z 19010KT 15SM BKN110 OVC240 M03/M07 A3019 RMK AC6CI2 SLP265

CYXE;2016-02-25 19:00;CYXE 251900Z 20010KT 15SM OVC100 M01/M06 A3015 RMK AC8 SLP251

CYXE;2016-02-25 20:00;CYXE 252000Z 20009KT 15SM BKN080 M00/M05 A3012 RMK AC6 SLP237

CYXE;2016-02-25 21:00;CYXE 252100Z 23012KT 15SM SCT080 BKN140 01/M04 A3010 RMK AC3AC2 SLP228

CYXE;2016-02-25 22:00;CYXE 252200Z 23013KT 15SM FEW080 FEW140 02/M04 A3007 RMK AC1AC1 SLP219

CYXE;2016-02-25 23:00;CYXE 252300Z 23013KT 15SM FEW140 01/M04 A3004 RMK AC1 SLP209

CYXE;2016-02-26 00:00;CYXE 260000Z 24013KT 15SM SKC 00/M04 A3003 RMK SLP205

CYXE;2016-02-26 01:00;CYXE 260100Z 25010KT 15SM SKC M02/M05 A3003 RMK SLP206

CYXE;2016-02-26 02:00;CYXE 260200Z 26010KT 15SM SKC M04/M06 A3002 RMK SLP205

CYXE;2016-02-26 03:00;CYXE 260300Z 25011KT 15SM SKC M04/M07 A3001 RMK SLP203

CYXE;2016-02-26 04:00;CYXE 260400Z 25010KT 15SM SKC M05/M07 A3000 RMK SLP196

CYXE;2016-02-26 05:00;CYXE 260500Z 25010KT 15SM SKC M06/M07 A2999 RMK SLP192

CYXE;2016-02-26 06:00;CYXE 260600Z 25011KT 15SM SKC M07/M08 A2997 RMK SLP186

CYXE;2016-02-26 07:00;CYXE 260700Z 26011KT 15SM SKC M06/M08 A2997 RMK SLP181

CYXE;2016-02-26 08:00;CYXE 260800Z 25009KT 15SM SKC M07/M09 A2997 RMK SLP182

CYXE;2016-02-26 09:00;CYXE 260900Z 25009KT 15SM SKC M07/M08 A2997 RMK SLP180

CYXE;2016-02-26 10:00;CYXE 261000Z 24008KT 15SM SKC M08/M09 A2996 RMK SLP178

CYXE;2016-02-26 11:00;CYXE 261100Z 22006KT 15SM SCT200 M05/M07 A2995 RMK CI4 SLP174

CYXE;2016-02-26 12:00;CYXE 261200Z 22008KT 15SM BKN200 M04/M06 A2994 RMK CI6 SLP170

CYXE;2016-02-26 13:00;CYXE 261300Z 22009G17KT 15SM SCT200 M04/M07 A2994 RMK CI4 SLP170

CYXE;2016-02-26 14:00;CYXE 261400Z 22010KT 15SM FEW200 M06/M08 A2992 RMK CI1 SLP165

CYXE;2016-02-26 15:00;CYXE 261500Z 22010KT 15SM SCT160 M04/M07 A2989 RMK AC3 SLP156

CYXE;2016-02-26 16:00;CYXE 261600Z 23008KT 15SM FEW160 M04/M07 A2988 RMK AC1 SLP152

CYXE;2016-02-26 17:00;CYXE 261700Z 23009KT 15SM FEW240 M01/M06 A2986 RMK CI1 SLP144

CYXE;2016-02-26 18:00;CYXE 261800Z 22010KT 15SM FEW240 00/M05 A2984 RMK CI2 SLP136

CYXE;2016-02-26 19:00;CYXE 261900Z 23010KT 15SM SCT240 01/M03 A2983 RMK CI3 SLP132

CYXE;2016-02-26 20:00;CYXE 262000Z 22013KT 15SM SCT240 02/M03 A2980 RMK CI3 SLP121

CYXE;2016-02-26 21:00;CYXE 262100Z 23015KT 15SM FEW240 03/M02 A2976 RMK CI2 SLP109

CYXE;2016-02-26 22:00;CYXE 262200Z 24013KT 15SM FEW300 03/M02 A2976 RMK CI1 SLP108

CYXE;2016-02-26 23:00;CYXE 262300Z 23012KT 15SM FEW300 03/M02 A2974 RMK CI1 CI TR SLP100

CYXE;2016-02-26 23:29;CYXE 262329Z 23009KT 15SM FEW300 02/M01 A2973 RMK CI1 SLP097

CYXE;2016-02-27 00:00;CYXE 270000Z 23011KT 15SM FEW300 02/M02 A2972 RMK CI1 SLP092

CYXE;2016-02-27 01:00;CYXE 270100Z 23010KT 15SM FEW300 01/M02 A2972 RMK CI1 SLP093

CYXE;2016-02-27 02:00;CYXE 270200Z 22006KT 15SM FEW300 M00/M03 A2971 RMK CI1 CI TR SLP092

CYXE;2016-02-27 03:00;CYXE 270300Z 18004KT 15SM SKC M00/M03 A2969 RMK SLP083

CYXE;2016-02-27 04:00;CYXE 270400Z 21006KT 15SM SKC M01/M03 A2970 RMK SLP087

CYXE;2016-02-27 05:00;CYXE 270500Z 23009KT 15SM SKC M03/M04 A2968 RMK SLP080

CYXE;2016-02-27 06:00;CYXE 270600Z 19005KT 15SM SKC M03/M04 A2967 RMK SLP075

CYXE;2016-02-27 07:00;CYXE 270700Z 20004KT 15SM SKC M03/M04 A2965 RMK SLP068

CYXE;2016-02-27 08:00;CYXE 270800Z 00000KT 15SM SKC M05/M05 A2963 RMK SLP062

CYXE;2016-02-27 09:00;CYXE 270900Z 28003KT 15SM SCT200 M07/M07 A2962 RMK CI3 SLP061

CYXE;2016-02-27 10:00;CYXE 271000Z 00000KT 15SM SCT170 M05/M05 A2960 RMK AS4 SLP051

CYXE;2016-02-27 11:00;CYXE 271100Z 21002KT 15SM BKN170 M05/M06 A2958 RMK AS6 SLP046

CYXE;2016-02-27 12:00;CYXE 271200Z 03007KT 15SM FEW120 BKN200 M04/M04 A2957 RMK AC2CS4 SLP042

CYXE;2016-02-27 13:00;CYXE 271300Z 06006KT 15SM FEW110 OVC200 M04/M05 A2957 RMK AC2CS6 SLP042

CYXE;2016-02-27 14:00;CYXE 271400Z 05011KT 15SM OVC140 M04/M05 A2958 RMK AC8 SLP046

CYXE;2016-02-27 15:00;CYXE 271500Z 06015KT 15SM SCT050 OVC140 M03/M04 A2957 RMK SC4AC4 SLP043

CYXE;2016-02-27 16:00;CYXE 271600Z 07013G18KT 15SM FEW020 OVC050 M01/M03 A2959 RMK SC1SC7 SLP048

CYXE;2016-02-27 17:00;CYXE 271700Z 06015G22KT 15SM OVC043 M04/M05 A2960 RMK SC8 SLP054

CYXE;2016-02-27 17:26;CYXE 271726Z 06016G22KT 8SM -SN DRSN OVC033 M05/M06 A2960 RMK SC8 SLP054

CYXE;2016-02-27 18:00;CYXE 271800Z 06017KT 3SM -SN DRSN BKN017 OVC032 M06/M07 A2960 RMK SC5SC3 SLP056

CYXE;2016-02-27 18:11;CYXE 271811Z 06015KT 2SM -SN DRSN VV015 M06/M08 A2960 RMK SN8 SLP057

CYXE;2016-02-27 19:00;CYXE 271900Z 05014KT 2SM -SN DRSN VV011 M07/M08 A2962 RMK SN8 SLP062

CYXE;2016-02-27 19:41;CYXE 271941Z 04013KT 3SM -SN DRSN OVC015 M07/M09 A2964 RMK SC8 /S01/ SLP069

CYXE;2016-02-27 20:00;CYXE 272000Z 05014KT 3SM -SN DRSN OVC015 M07/M09 A2963 RMK SC8 SLP069

CYXE;2016-02-27 21:00;CYXE 272100Z 04012KT 5SM -SN DRSN OVC020 M08/M10 A2964 RMK SC8 SLP074

CYXE;2016-02-27 21:25;CYXE 272125Z 05010KT 15SM DRSN OVC022 M08/M10 A2965 RMK SC8 SLP077

CYXE;2016-02-27 21:53;CYXE 272153Z 04012KT 10SM -SN DRSN OVC020 M09/M11 A2965 RMK SC8 SLP079

CYXE;2016-02-27 22:00;CYXE 272200Z 04011KT 10SM -SN DRSN OVC020 M09/M11 A2965 RMK SC8 SLP078

CYXE;2016-02-27 23:00;CYXE 272300Z 05010KT 5SM -SN DRSN OVC019 M09/M11 A2966 RMK SC8 SLP081

CYXE;2016-02-27 23:20;CYXE 272320Z 05009KT 2 1/2SM -SN DRSN OVC019 M09/M10 A2967 RMK SC8 SLP082

CYXE;2016-02-28 00:00;CYXE 280000Z 04009KT 2 1/2SM -SN OVC020 M09/M11 A2969 RMK SC8 SLP088

CYXE;2016-02-28 00:19;CYXE 280019Z 04010KT 1 1/4SM -SN OVC022 M10/M11 A2969 RMK SC8 SLP089

CYXE;2016-02-28 00:43;CYXE 280043Z 04010KT 2 1/2SM -SN OVC020 M10/M11 A2970 RMK SC8 SLP093

CYXE;2016-02-28 01:00;CYXE 280100Z 04011KT 3SM -SN OVC020 M10/M11 A2970 RMK SC8 SLP094

CYXE;2016-02-28 02:00;CYXE 280200Z 04010KT 5SM -SG OVC018 M10/M12 A2973 RMK SC8 SLP103

CYXE;2016-02-28 03:00;CYXE 280300Z 04011KT 12SM -SG OVC016 M11/M12 A2976 RMK SC8 PRESRR SLP113

CYXE;2016-02-28 03:40;CYXE 280340Z 05009KT 15SM OVC013 M11/M13 A2977 RMK SC8 SLP117

CYXE;2016-02-28 04:00;CYXE 280400Z 04010KT 15SM OVC013 M11/M13 A2978 RMK SC8 SLP121

CYXE;2016-02-28 05:00;CYXE 280500Z 01009KT 15SM OVC013 M12/M14 A2983 RMK SC8 SLP138

CYXE;2016-02-28 06:00;CYXE 280600Z 36007KT 15SM OVC012 M12/M14 A2985 RMK SC8 SLP147

CYXE;2016-02-28 07:00;CYXE 280700Z 36005KT 15SM BKN012 OVC020 M12/M14 A2986 RMK SC5SC3 SLP150

CYXE;2016-02-28 07:32;CYXE 280732Z 29003KT 280V340 15SM SCT012 OVC020 M12/M14 A2986 RMK SC3SC5 SLP150

CYXE;2016-02-28 08:00;CYXE 280800Z 27004KT 15SM SCT013 OVC020 M12/M14 A2986 RMK SC4SC4 SLP151

CYXE;2016-02-28 09:00;CYXE 280900Z 23007KT 15SM M11/M14 A2986 RMK SLP153

CYXE;2016-02-28 09:21;CYXE 280921Z 23008KT 15SM BKN007 OVC011 M11/M13 A2986 RMK ST6SC2 SLP152

CYXE;2016-02-28 10:00;CYXE 281000Z 22009KT 15SM BKN007 BKN011 M11/M13 A2984 RMK ST5SC2 SLP147

CYXE;2016-02-28 10:12;CYXE 281012Z 22008KT 15SM FEW007 SCT011 SCT120 M12/M13 A2984 RMK ST2SC1AC1 SLP147

CYXE;2016-02-28 10:28;CYXE 281028Z 25009KT 15SM FEW007 BKN013 OVC120 M11/M12 A2986 RMK ST1SC5AC2 PRESRR SLP154

CYXE;2016-02-28 11:00;CYXE 281100Z 24010KT 15SM SCT008 OVC012 M10/M11 A2986 RMK ST4SC4 SLP151

CYXE;2016-02-28 12:00;CYXE 281200Z 24010KT 15SM FEW008 SCT012 OVC034 M08/M09 A2984 RMK ST2SC2SC4 SLP143

CYXE;2016-02-28 13:00;CYXE 281300Z 23007KT 15SM FEW008 BKN034 OVC070 M07/M08 A2983 RMK SF1SC4AC3 SLP139

CYXE;2016-02-28 14:00;CYXE 281400Z 24013KT 15SM SCT035 BKN070 BKN100 M05/M06 A2980 RMK SC3AC2AC2 SLP129

CYXE;2016-02-28 15:00;CYXE 281500Z 23009KT 15SM FEW020 BKN100 M06/M07 A2977 RMK SC2AC4 SLP118

CYXE;2016-02-28 16:00;CYXE 281600Z 22008KT 15SM FEW100 SCT240 M03/M05 A2973 RMK AC2CI1 SLP103

CYXE;2016-02-28 17:00;CYXE 281700Z 24012KT 15SM FEW100 SCT260 M03/M05 A2971 RMK AC2CI1 SLP098

CYXE;2016-02-28 18:00;CYXE 281800Z 30015KT 240V310 15SM BKN016 OVC090 00/M03 A2972 RMK SC6AC2 SLP099

CYXE;2016-02-28 18:52;CYXE 281852Z 35018G23KT 15SM OVC012 M02/M04 A2974 RMK SC8 SLP107

CYXE;2016-02-28 19:00;CYXE 281900Z 01019KT 15SM OVC013 M02/M05 A2975 RMK SC8 SLP111

CYXE;2016-02-28 20:00;CYXE 282000Z 01019G26KT 15SM DRSN OVC010 M07/M08 A2979 RMK SC8 SLP129

CYXE;2016-02-28 20:19;CYXE 282019Z 02019G25KT 15SM DRSN OVC017 M07/M10 A2981 RMK SC8 SLP135

CYXE;2016-02-28 21:00;CYXE 282100Z 02021G27KT 15SM DRSN OVC023 M08/M12 A2983 RMK SC8 SLP144

CYXE;2016-02-28 22:00;CYXE 282200Z 02021G28KT 15SM DRSN SCT025 BKN080 M09/M13 A2984 RMK SC4AC1 SLP147

CYXE;2016-02-28 23:00;CYXE 282300Z 01022G28KT 15SM DRSN FEW080 FEW250 M12/M18 A2990 RMK AC1CI1 SLP166

CYXE;2016-02-29 00:00;CYXE 290000Z 36019G27KT 15SM DRSN BKN200 M13/M20 A2996 RMK CI6 PRESRR SLP187

CYXE;2016-02-29 01:00;CYXE 290100Z 01019G25KT 15SM BKN120 OVC200 M14/M20 A2996 RMK AC6CI2 SLP187

CYXE;2016-02-29 02:00;CYXE 290200Z 03015KT 15SM DRSN OVC120 M14/M20 A3003 RMK AC8 PRESRR SLP210

CYXE;2016-02-29 03:00;CYXE 290300Z 05022KT 15SM DRSN OVC120 M15/M23 A3006 RMK AC8 SLP223

CYXE;2016-02-29 04:00;CYXE 290400Z 05016KT 15SM DRSN OVC120 M17/M23 A3011 RMK AC8 SLP238

CYXE;2016-02-29 05:00;CYXE 290500Z 07017KT 15SM DRSN OVC120 M17/M24 A3012 RMK AC8 SLP241

CYXE;2016-02-29 06:00;CYXE 290600Z 06015KT 15SM BKN120 OVC240 M19/M25 A3013 RMK AC5CI3 SLP245

CYXE;2016-02-29 07:00;CYXE 290700Z 06011KT 15SM OVC140 M19/M25 A3013 RMK AC8 SLP247

CYXE;2016-02-29 08:00;CYXE 290800Z 07014KT 15SM OVC140 M20/M26 A3015 RMK AC8 SLP258

CYXE;2016-02-29 09:00;CYXE 290900Z 08011KT 15SM OVC140 M20/M26 A3017 RMK AC8 SLP265

CYXE;2016-02-29 10:00;CYXE 291000Z 07010KT 15SM OVC120 M21/M26 A3017 RMK AC8 SLP267

CYXE;2016-02-29 11:00;CYXE 291100Z 08006KT 15SM BKN160 M22/M26 A3019 RMK AC6 SLP274

CYXE;2016-02-29 12:00;CYXE 291200Z 07008KT 15SM BKN160 M22/M27 A3019 RMK AC7 SLP275

CYXE;2016-02-29 13:00;CYXE 291300Z 09009KT 15SM SCT160 M22/M27 A3019 RMK AC3 SLP279

CYXE;2016-02-29 14:00;CYXE 291400Z 08009KT 15SM FEW160 SCT210 M23/M28 A3019 RMK AC2CI2 SLP280

CYXE;2016-02-29 15:00;CYXE 291500Z 09005KT 15SM M24/M28 A3020 RMK SLP284

CYXE;2016-02-29 16:00;CYXE 291600Z 10006KT 15SM FEW180 M22/M28 A3021 RMK AC2 SLP284

CYXE;2016-02-29 17:00;CYXE 291700Z 09006KT 15SM FEW180 M20/M28 A3021 RMK AC2 SLP285

CYXE;2016-02-29 18:00;CYXE 291800Z 09006KT 15SM FEW170 M19/M28 A3020 RMK AC2 SLP282

CYXE;2016-02-29 19:00;CYXE 291900Z 11005KT 15SM FEW180 M18/M26 A3019 RMK AC2 SLP279

CYXE;2016-02-29 20:00;CYXE 292000Z 09005KT 15SM FEW180 M17/M26 A3019 RMK AC1 SLP276

CYXE;2016-02-29 21:00;CYXE 292100Z 06007KT 15SM FEW180 M17/M25 A3018 RMK AC1 SLP274

CYXE;2016-02-29 22:00;CYXE 292200Z 06007KT 15SM FEW180 M17/M25 A3018 RMK AC1 AC TR SLP273

CYXE;2016-02-29 23:00;CYXE 292300Z 08007KT 15SM FEW180 M16/M25 A3017 RMK AC1 AC TR SLP273

CYXE;2016-03-01 00:00;CYXE 010000Z 13006KT 15SM FEW250 M16/M25 A3017 RMK CI1 SLP272

CYXE;2016-03-01 01:00;CYXE 010100Z 12007KT 15SM FEW200 M18/M25 A3018 RMK CI1 SLP277

CYXE;2016-03-01 02:00;CYXE 010200Z 11006KT 15SM FEW200 M20/M25 A3017 RMK CI1 CI TR SLP277

CYXE;2016-03-01 03:00;CYXE 010300Z 11003KT 15SM SKC M21/M25 A3016 RMK SLP274

CYXE;2016-03-01 04:00;CYXE 010400Z 00000KT 15SM FEW080 M21/M25 A3016 RMK AC1 SLP273

CYXE;2016-03-01 05:00;CYXE 010500Z 16003KT 150V210 15SM BKN042 M19/M23 A3016 RMK SC6 SLP268

CYXE;2016-03-01 06:00;CYXE 010600Z 19004KT 15SM OVC049 M17/M22 A3015 RMK SC8 SLP263

CYXE;2016-03-01 07:00;CYXE 010700Z 19008KT 15SM SCT023 OVC049 M16/M22 A3013 RMK SC3SC5 SLP254

CYXE;2016-03-01 08:00;CYXE 010800Z 18006KT 15SM BKN021 OVC044 M16/M20 A3012 RMK SC5SC3 SLP250

CYXE;2016-03-01 09:00;CYXE 010900Z 16005KT 15SM FEW021 OVC044 M16/M20 A3010 RMK SC2SC6 SLP242

CYXE;2016-03-01 10:00;CYXE 011000Z 18004KT 15SM SCT026 OVC044 M15/M19 A3008 RMK SC4SC4 SLP235

CYXE;2016-03-01 11:00;CYXE 011100Z 20005KT 15SM OVC021 M14/M18 A3006 RMK SC8 SLP230

CYXE;2016-03-01 11:10;CYXE 011110Z 19006KT 15SM -SN OVC021 M14/M18 A3006 RMK SC8 SLP229

CYXE;2016-03-01 12:00;CYXE 011200Z 15004KT 15SM -SN OVC019 M14/M17 A3004 RMK SC8 SLP222

CYXE;2016-03-01 13:00;CYXE 011300Z 19006KT 15SM -SN OVC020 M13/M16 A3003 RMK SC8 SLP220

CYXE;2016-03-01 14:00;CYXE 011400Z 19005KT 15SM FEW020 BKN150 M13/M15 A3003 RMK SC2AC5 SLP220

CYXE;2016-03-01 15:00;CYXE 011500Z 20008KT 15SM SCT060 BKN150 M12/M14 A3000 RMK SC4AC3 SLP210

CYXE;2016-03-01 16:00;CYXE 011600Z 21007KT 15SM SCT050 BKN150 M10/M13 A3000 RMK SC3AC4 SLP207

CYXE;2016-03-01 17:00;CYXE 011700Z 23007KT 15SM FEW060 SCT150 SCT220 M09/M12 A2998 RMK SC1AC2CI1 SLP200

CYXE;2016-03-01 18:00;CYXE 011800Z 25007KT 15SM FEW030 SCT160 SCT220 M08/M12 A2999 RMK SC1AC2CI1 SLP200

CYXE;2016-03-01 19:00;CYXE 011900Z 31004KT 15SM FEW030 SCT220 M07/M11 A2998 RMK SC2CI1 SLP195

CYXE;2016-03-01 20:00;CYXE 012000Z 28004KT 15SM FEW030 FEW220 M07/M11 A2996 RMK SC1CI1 SLP189

CYXE;2016-03-01 21:00;CYXE 012100Z 26005KT 15SM FEW020 SCT220 M06/M10 A2996 RMK SC2CI2 SLP186

CYXE;2016-03-01 22:00;CYXE 012200Z 21003KT 170V260 15SM FEW220 M05/M10 A2992 RMK CI2 SLP174

CYXE;2016-03-01 23:00;CYXE 012300Z 34002KT 15SM FEW240 M05/M10 A2991 RMK CI1 SLP169

CYXE;2016-03-02 00:00;CYXE 020000Z 33003KT 15SM FEW160 SCT240 M06/M10 A2990 RMK AC2CI1 SLP167

CYXE;2016-03-02 01:00;CYXE 020100Z 00000KT 15SM FEW160 FEW240 M08/M11 A2990 RMK AC1CI1 SLP167

CYXE;2016-03-02 02:00;CYXE 020200Z 10005KT 15SM FEW018 FEW240 M08/M10 A2989 RMK SC1CI1 SLP163

CYXE;2016-03-02 03:00;CYXE 020300Z 13007KT 15SM SKC M09/M11 A2988 RMK SLP159

CYXE;2016-03-02 04:00;CYXE 020400Z 12006KT 15SM FEW080 M10/M12 A2987 RMK AC1 SLP157

CYXE;2016-03-02 05:00;CYXE 020500Z 11009KT 15SM SCT190 M10/M12 A2985 RMK AC4 SLP150

CYXE;2016-03-02 06:00;CYXE 020600Z 11009KT 15SM OVC026 M08/M10 A2984 RMK SC8 SLP144

CYXE;2016-03-02 07:00;CYXE 020700Z 11009KT 15SM OVC020 M07/M09 A2985 RMK SC8 SLP145

CYXE;2016-03-02 08:00;CYXE 020800Z 10010KT 15SM OVC018 M07/M09 A2984 RMK SC8 SLP143

CYXE;2016-03-02 09:00;CYXE 020900Z 11009KT 15SM OVC018 M07/M09 A2985 RMK SC8 SLP145

CYXE;2016-03-02 10:00;CYXE 021000Z 10011KT 15SM OVC018 M07/M09 A2985 RMK SC8 SLP144

CYXE;2016-03-02 11:00;CYXE 021100Z 11010KT 15SM SCT010 OVC020 M07/M09 A2984 RMK SF3SC5 SLP142

CYXE;2016-03-02 11:19;CYXE 021119Z 10008KT 15SM OVC008 M07/M09 A2985 RMK SC8 SLP143

CYXE;2016-03-02 12:00;CYXE 021200Z 10009KT 15SM OVC008 M07/M09 A2987 RMK SC8 SLP150

CYXE;2016-03-02 12:35;CYXE 021235Z 10008KT 15SM OVC005 M07/M08 A2987 RMK SC8 SLP150

CYXE;2016-03-02 13:00;CYXE 021300Z 09009KT 15SM BKN005 OVC015 M07/M08 A2986 RMK SF5SC3 SLP150

CYXE;2016-03-02 13:18;CYXE 021318Z 09008KT 15SM SCT005 BKN015 M07/M08 A2986 RMK SF3SC4 SLP149

CYXE;2016-03-02 14:00;CYXE 021400Z 09006KT 12SM SCT006 OVC012 M07/M08 A2987 RMK SF4SC4 SLP154

CYXE;2016-03-02 15:00;CYXE 021500Z 08007KT 6SM -SN BR OVC010 M07/M08 A2989 RMK SC8 SLP161

CYXE;2016-03-02 15:42;CYXE 021542Z 08008KT 12SM OVC009 M07/M08 A2990 RMK SC8 SLP163

CYXE;2016-03-02 16:00;CYXE 021600Z 07007KT 12SM OVC009 M07/M08 A2990 RMK SC8 SLP164

CYXE;2016-03-02 17:00;CYXE 021700Z 06007KT 12SM OVC009 M07/M09 A2992 RMK SC8 SLP173

CYXE;2016-03-02 18:00;CYXE 021800Z 04010KT 15SM OVC009 M07/M09 A2995 RMK SC8 SLP179

CYXE;2016-03-02 19:00;CYXE 021900Z 03009KT 15SM OVC010 M07/M10 A2996 RMK SC8 SLP185

CYXE;2016-03-02 20:00;CYXE 022000Z 04007KT 15SM OVC013 M07/M10 A2998 RMK SC8 SLP189

CYXE;2016-03-02 21:00;CYXE 022100Z 04008KT 15SM BKN012 OVC180 M07/M10 A3000 RMK SC6AC2 SLP195

CYXE;2016-03-02 21:32;CYXE 022132Z 03009KT 15SM SCT012 BKN300 M07/M10 A3001 RMK SC4CI3 SLP199

CYXE;2016-03-02 22:00;CYXE 022200Z 04007KT 15SM SCT015 BKN300 M07/M11 A3001 RMK SC3CI3 SLP202

CYXE;2016-03-02 23:00;CYXE 022300Z 04006KT 15SM FEW015 BKN300 M07/M11 A3003 RMK SC1CI5 SLP208

CYXE;2016-03-03 00:00;CYXE 030000Z 05006KT 15SM FEW015 SCT300 M08/M12 A3006 RMK SC1CI3 SLP219

CYXE;2016-03-03 01:00;CYXE 030100Z 05004KT 15SM SCT300 M11/M13 A3008 RMK CI3 SLP226

CYXE;2016-03-03 02:00;CYXE 030200Z 08002KT 15SM SCT300 M10/M12 A3010 RMK CI3 SLP233

CYXE;2016-03-03 03:00;CYXE 030300Z 00000KT 15SM FEW300 M12/M13 A3012 RMK CI2 SLP240

CYXE;2016-03-03 04:00;CYXE 030400Z 24004KT 15SM FEW210 M14/M16 A3013 RMK CI2 SLP246

CYXE;2016-03-03 05:00;CYXE 030500Z 20003KT 140V210 15SM SKC M14/M15 A3012 RMK BR PTCHS SLP242

CYXE;2016-03-03 06:00;CYXE 030600Z 16003KT 15SM SKC M14/M15 A3012 RMK BR PTCHS SLP241

CYXE;2016-03-03 07:00;CYXE 030700Z 19002KT 15SM FEW020 M13/M14 A3010 RMK SC1 BR PTCHS SLP235

CYXE;2016-03-03 08:04;CYXE 030804Z 20003KT 15SM BKN006 M14/M16 A3010 RMK SC6 SLP236

CYXE;2016-03-03 08:07;CYXE 030807Z 20003KT 15SM OVC005 M14/M15 A3010 RMK SC8 SLP237

CYXE;2016-03-03 08:24;CYXE 030824Z 19005KT 15SM OVC003 M13/M14 A3011 RMK SC8 SLP238

CYXE;2016-03-03 09:00;CYXE 030900Z 21006KT 12SM OVC003 M11/M11 A3011 RMK SC8 SLP236

CYXE;2016-03-03 10:00;CYXE 031000Z 19004KT 12SM OVC003 M10/M11 A3010 RMK SC8 SLP232

CYXE;2016-03-03 11:00;CYXE 031100Z 18010KT 12SM OVC003 M10/M11 A3007 RMK SC8 SLP223

CYXE;2016-03-03 12:00;CYXE 031200Z 16007KT 15SM OVC003 M10/M10 A3006 RMK ST8 SLP219

CYXE;2016-03-03 13:00;CYXE 031300Z 15011KT 15SM OVC003 M10/M10 A3005 RMK ST8 SLP217

CYXE;2016-03-03 14:00;CYXE 031400Z 16010KT 10SM OVC003 M10/M10 A3003 RMK ST8 BR SLP210

CYXE;2016-03-03 15:00;CYXE 031500Z 14010KT 6SM BR OVC003 M09/M09 A3000 RMK ST8 SLP201

CYXE;2016-03-03 16:00;CYXE 031600Z 14012KT 6SM BR OVC003 M08/M08 A2998 RMK ST8 SLP195

CYXE;2016-03-03 17:00;CYXE 031700Z 14012KT 15SM BKN003 OVC008 M08/M08 A2996 RMK SF5SC3 SLP186

CYXE;2016-03-03 18:00;CYXE 031800Z 14011KT 15SM BKN008 OVC020 M06/M08 A2994 RMK SF5SC3 SLP179

CYXE;2016-03-03 19:00;CYXE 031900Z 12011KT 15SM SCT008 OVC020 M05/M07 A2990 RMK SF3SC5 SLP164

CYXE;2016-03-03 20:00;CYXE 032000Z 12012KT 15SM FEW008 OVC016 M04/M07 A2986 RMK SF2SC6 PRESFR SLP150

CYXE;2016-03-03 21:00;CYXE 032100Z 12015KT 15SM SCT009 OVC016 M04/M06 A2982 RMK SF3SC5 PRESFR SLP133

CYXE;2016-03-03 22:00;CYXE 032200Z 12011KT 15SM OVC018 M03/M05 A2979 RMK SC8 SLP125

CYXE;2016-03-03 22:52;CYXE 032252Z 11013KT 12SM -SHSN OVC019 M02/M04 A2975 RMK SC8 CVCTV CLD EMBD SLP110

CYXE;2016-03-03 23:00;CYXE 032300Z 12013KT 15SM -SHSN OVC018 M02/M04 A2975 RMK SC8 CVCTV CLD EMBD SLP110

CYXE;2016-03-04 00:00;CYXE 040000Z 12012KT 15SM -SHSN OVC018 M01/M03 A2974 RMK SC8 CVCTV CLD EMBD SLP103

CYXE;2016-03-04 01:00;CYXE 040100Z 10010KT 2SM -SHSN OVC018 M01/M02 A2973 RMK SC8 CVCTV CLD EMBD SLP100

CYXE;2016-03-04 01:27;CYXE 040127Z 09008KT 5SM -SHSN OVC015 M01/M02 A2972 RMK SC8 CVCTV CLD EMBD SLP097

CYXE;2016-03-04 01:47;CYXE 040147Z 08008KT 5SM -SHSN SCT007 OVC018 M01/M01 A2972 RMK ST3SC5 CVCTV CLD EMBD SLP097

CYXE;2016-03-04 02:00;CYXE 040200Z 06006KT 10SM -SHSN SCT007 BKN018 OVC075 M01/M02 A2971 RMK ST3SC4AC1 CVCTV CLD EMBD SLP096

CYXE;2016-03-04 02:18;CYXE 040218Z 04008KT 15SM -SHSN BKN006 OVC015 M02/M02 A2972 RMK ST6SC2 CVCTV CLD EMBD SLP099

CYXE;2016-03-04 03:00;CYXE 040300Z 06009KT 6SM -SHSN BKN006 OVC018 M03/M03 A2971 RMK ST5SC3 CVCTV CLD EMBD SLP094

CYXE;2016-03-04 04:00;CYXE 040400Z 04009KT 15SM -SN SCT006 SCT015 OVC022 M03/M03 A2971 RMK ST3SC1SC4 SLP095

CYXE;2016-03-04 04:06;CYXE 040406Z 04009KT 15SM BKN006 OVC022 M03/M03 A2971 RMK ST6SC2 SLP096

CYXE;2016-03-04 04:25;CYXE 040425Z 04008KT 15SM SCT006 OVC022 M03/M03 A2971 RMK ST3SC5 SLP096

CYXE;2016-03-04 05:00;CYXE 040500Z 02008KT 15SM SCT006 OVC012 M03/M04 A2974 RMK ST4SC4 SLP104

CYXE;2016-03-04 05:47;CYXE 040547Z 01010KT 15SM BKN006 OVC012 M04/M04 A2975 RMK ST6SC2 SLP109

CYXE;2016-03-04 06:00;CYXE 040600Z 36009KT 15SM BKN006 OVC012 M04/M04 A2976 RMK ST6SC2 SLP112

CYXE;2016-03-04 06:18;CYXE 040618Z 01009KT 15SM -SN OVC006 M04/M05 A2976 RMK ST8 SLP113

CYXE;2016-03-04 07:00;CYXE 040700Z 35012KT 15SM -SN OVC007 M05/M06 A2978 RMK ST8 SLP120

CYXE;2016-03-04 08:00;CYXE 040800Z 34010KT 15SM -SN OVC008 M06/M06 A2982 RMK ST8 PRESRR SLP132

CYXE;2016-03-04 09:00;CYXE 040900Z 32010KT 15SM -SN OVC008 M06/M07 A2984 RMK ST8 SLP139

CYXE;2016-03-04 10:00;CYXE 041000Z 31006KT 15SM -SN OVC010 M06/M07 A2986 RMK ST8 SLP145

CYXE;2016-03-04 11:00;CYXE 041100Z 29010KT 15SM -SN OVC010 M05/M06 A2989 RMK ST8 SLP155

CYXE;2016-03-04 12:00;CYXE 041200Z 29011KT 15SM -SN OVC014 M04/M05 A2992 RMK ST8 SLP162

CYXE;2016-03-04 12:45;CYXE 041245Z 30011KT 15SM -SN OVC020 M04/M05 A2993 RMK SC8 SLP168

CYXE;2016-03-04 13:00;CYXE 041300Z 30012KT 15SM OVC020 M04/M05 A2994 RMK SC8 SLP169

CYXE;2016-03-04 14:00;CYXE 041400Z 30011KT 15SM BKN020 OVC050 M04/M05 A2996 RMK SC7SC1 SLP176

CYXE;2016-03-04 15:00;CYXE 041500Z 31009KT 15SM SCT020 BKN050 M04/M05 A2997 RMK SC3SC4 SLP183

CYXE;2016-03-04 16:00;CYXE 041600Z 30013KT 15SM OVC045 M04/M05 A3000 RMK SC8 SLP191

CYXE;2016-03-04 17:00;CYXE 041700Z 30011KT 15SM FEW030 OVC040 M03/M05 A3001 RMK SF2SC6 SLP194

CYXE;2016-03-04 18:00;CYXE 041800Z 31006KT 15SM OVC040 M02/M04 A3001 RMK SC8 SLP195

CYXE;2016-03-04 19:00;CYXE 041900Z 24007KT 15SM SCT020 OVC040 M01/M04 A3002 RMK SC4SC4 SLP200

CYXE;2016-03-04 20:00;CYXE 042000Z 25009KT 15SM FEW020 BKN040 BKN150 M00/M04 A3002 RMK SC2SC3AC2 SLP197

CYXE;2016-03-04 21:00;CYXE 042100Z 23009KT 15SM BKN030 00/M03 A3001 RMK SC5 SLP194

CYXE;2016-03-04 22:00;CYXE 042200Z 21008KT 15SM BKN025 01/M03 A3000 RMK SC6 SLP192

CYXE;2016-03-04 23:00;CYXE 042300Z 22007KT 15SM BKN020 01/M03 A2998 RMK SC5 SLP184

CYXE;2016-03-05 00:00;CYXE 050000Z 22006KT 15SM FEW020 BKN300 M00/M03 A2998 RMK SC1CI4 SLP183

CYXE;2016-03-05 01:00;CYXE 050100Z 14005KT 15SM BKN300 M01/M04 A2996 RMK CI5 SLP175

CYXE;2016-03-05 02:00;CYXE 050200Z 14006KT 15SM BKN300 M02/M04 A2995 RMK CI6 SLP175

CYXE;2016-03-05 03:00;CYXE 050300Z 15008KT 15SM SCT240 M03/M05 A2995 RMK CI4 SLP175

CYXE;2016-03-05 04:00;CYXE 050400Z 15008KT 15SM FEW090 SCT250 M03/M05 A2991 RMK AC1CI3 SLP160

CYXE;2016-03-05 05:00;CYXE 050500Z 16011KT 15SM BKN250 M03/M05 A2987 RMK CI6 SLP148

CYXE;2016-03-05 06:00;CYXE 050600Z 15013KT 15SM SCT250 M03/M06 A2983 RMK CI3 SLP133

CYXE;2016-03-05 07:00;CYXE 050700Z 15011KT 15SM BKN250 M03/M05 A2980 RMK CI6 SLP123

CYXE;2016-03-05 08:00;CYXE 050800Z 14012KT 15SM BKN250 M02/M05 A2976 RMK CI6 SLP108

CYXE;2016-03-05 09:00;CYXE 050900Z 16012KT 15SM SCT250 M02/M04 A2974 RMK CI4 SLP100

CYXE;2016-03-05 10:00;CYXE 051000Z 16016KT 15SM SKC M02/M03 A2971 RMK SLP088

CYXE;2016-03-05 11:00;CYXE 051100Z 17013KT 15SM SKC M02/M04 A2968 RMK SLP077

CYXE;2016-03-05 12:00;CYXE 051200Z 18012G18KT 15SM SKC M02/M04 A2965 RMK SLP068

CYXE;2016-03-05 13:00;CYXE 051300Z 18009KT 15SM SCT200 M02/M04 A2963 RMK CI3 SLP061

CYXE;2016-03-05 14:00;CYXE 051400Z 19010KT 15SM BKN250 M02/M04 A2961 RMK CI7 SLP056

CYXE;2016-03-05 15:00;CYXE 051500Z 20009KT 15SM BKN260 M01/M04 A2960 RMK CI7 SLP053

CYXE;2016-03-05 16:00;CYXE 051600Z 19012KT 15SM BKN260 01/M03 A2957 RMK CI6 SLP041

CYXE;2016-03-05 17:00;CYXE 051700Z 20010KT 15SM BKN300 04/M02 A2956 RMK CI5 SLP034

CYXE;2016-03-05 18:00;CYXE 051800Z 24007KT 15SM 04/M02 A2954 RMK SLP028

CYXE;2016-03-05 19:00;CYXE 051900Z 29003KT 15SM BKN300 04/M01 A2953 RMK CI5 SLP026

CYXE;2016-03-05 20:00;CYXE 052000Z 21006KT 15SM BKN300 06/M01 A2950 RMK CI5 SLP012

CYXE;2016-03-05 21:00;CYXE 052100Z 23009KT 15SM BKN300 07/M00 A2949 RMK CI5 SLP011

CYXE;2016-03-05 22:00;CYXE 052200Z 25004KT 15SM FEW170 BKN300 05/00 A2949 RMK AC1CI5 SLP011

CYXE;2016-03-05 23:00;CYXE 052300Z 25006KT 15SM BKN160 BKN300 05/00 A2950 RMK AC5CI1 SLP014

CYXE;2016-03-06 00:00;CYXE 060000Z 22008KT 15SM FEW160 SCT300 05/M00 A2948 RMK AC2CI2 SLP007

CYXE;2016-03-06 01:04;CYXE 060104Z 24004KT 15SM FEW140 SCT300 01/M01 A2948 RMK AC1CI3 SLP008

CYXE;2016-03-06 02:00;CYXE 060200Z 19006KT 15SM SCT140 SCT300 01/M01 A2947 RMK AC3CI1 SLP008

CYXE;2016-03-06 03:00;CYXE 060300Z 23005KT 15SM BKN120 02/M00 A2947 RMK AC7 SLP005

CYXE;2016-03-06 04:00;CYXE 060400Z 33004KT 15SM BKN120 01/M01 A2949 RMK AC6 SLP013

CYXE;2016-03-06 05:00;CYXE 060500Z 06005KT 15SM SCT110 00/M01 A2946 RMK AC4 SLP999

CYXE;2016-03-06 06:00;CYXE 060600Z 09004KT 15SM FEW120 00/M01 A2943 RMK AC2 SLP991

CYXE;2016-03-06 07:00;CYXE 060700Z 00000KT 15SM FEW110 00/M01 A2944 RMK AC2 SLP992

CYXE;2016-03-06 08:00;CYXE 060800Z 32010KT 15SM FEW120 M02/M03 A2947 RMK AC2 PRESRR SLP002

CYXE;2016-03-06 09:00;CYXE 060900Z 35008KT 15SM BKN070 M02/M03 A2949 RMK AC6 SLP010

CYXE;2016-03-06 10:00;CYXE 061000Z 03007KT 15SM FEW110 M03/M04 A2947 RMK AC2 SLP006

CYXE;2016-03-06 11:00;CYXE 061100Z 32003KT 320V090 15SM FEW120 M04/M06 A2949 RMK AC2 SLP012

CYXE;2016-03-06 12:00;CYXE 061200Z 29006KT 15SM FEW120 M05/M06 A2953 RMK AC2 SLP025

CYXE;2016-03-06 13:00;CYXE 061300Z 29007KT 15SM SKC M06/M07 A2954 RMK SLP032

CYXE;2016-03-06 14:00;CYXE 061400Z 34007KT 15SM SKC M07/M07 A2956 RMK SLP038

CYXE;2016-03-06 15:00;CYXE 061500Z 07003KT 15SM SKC M05/M06 A2955 RMK SLP034

CYXE;2016-03-06 16:00;CYXE 061600Z 10003KT 15SM FEW250 M01/M04 A2955 RMK CI1 SLP033

CYXE;2016-03-06 17:00;CYXE 061700Z 08003KT 15SM FEW080 FEW250 01/M03 A2955 RMK AC1CI1 SLP031

CYXE;2016-03-06 18:00;CYXE 061800Z 13007KT 15SM FEW090 FEW250 04/M02 A2956 RMK AC1CI1 SLP034

CYXE;2016-03-06 19:00;CYXE 061900Z 13005KT 15SM SCT140 BKN250 05/M01 A2957 RMK AC4CI1 SLP038

CYXE;2016-03-06 20:00;CYXE 062000Z 11011KT 15SM SCT120 BKN250 04/M02 A2957 RMK AC4CI1 SLP039

CYXE;2016-03-06 21:00;CYXE 062100Z 08012G18KT 15SM BKN120 03/M02 A2955 RMK AC6 SLP031

CYXE;2016-03-06 22:00;CYXE 062200Z 09011KT 15SM OVC120 03/M01 A2955 RMK AC8 SLP033

CYXE;2016-03-06 22:35;CYXE 062235Z 08010KT 15SM OVC120 02/M01 A2956 RMK CI8 SLP035

CYXE;2016-03-06 23:00;CYXE 062300Z 08010KT 15SM OVC150 02/M01 A2956 RMK AC8 SLP036

CYXE;2016-03-07 00:00;CYXE 070000Z 07011KT 15SM OVC110 02/M01 A2954 RMK AC8 SLP033

CYXE;2016-03-07 01:00;CYXE 070100Z 08008KT 15SM OVC110 01/M01 A2954 RMK AC8 SLP034

CYXE;2016-03-07 02:00;CYXE 070200Z 08011KT 15SM OVC100 01/M01 A2954 RMK AC8 SLP034

CYXE;2016-03-07 03:00;CYXE 070300Z 08011G16KT 15SM OVC096 01/M02 A2953 RMK AC8 SLP029

CYXE;2016-03-07 04:00;CYXE 070400Z 06010KT 15SM OVC090 01/M01 A2955 RMK AC8 SLP034

CYXE;2016-03-07 05:00;CYXE 070500Z 06011KT 15SM OVC080 00/M02 A2956 RMK AC8 SLP037

CYXE;2016-03-07 06:00;CYXE 070600Z 06011KT 15SM OVC080 01/M02 A2954 RMK AC8 SLP025

CYXE;2016-03-07 07:00;CYXE 070700Z 08017KT 15SM OVC075 01/M01 A2952 RMK AC8 SLP019

CYXE;2016-03-07 08:00;CYXE 070800Z 08016KT 15SM OVC070 01/M01 A2953 RMK AC8 SLP023

CYXE;2016-03-07 09:00;CYXE 070900Z 09023G28KT 15SM OVC055 01/M02 A2953 RMK SC8 SLP025

CYXE;2016-03-07 10:00;CYXE 071000Z 10025G33KT 15SM OVC080 00/M02 A2948 RMK AC8 SLP008

CYXE;2016-03-07 11:00;CYXE 071100Z 10018G26KT 15SM FEW012 OVC090 M00/M03 A2949 RMK SF1AC7 SLP013

CYXE;2016-03-07 12:00;CYXE 071200Z 11014G24KT 15SM SCT014 BKN030 OVC090 M01/M03 A2951 RMK SF4ST3AC1 SLP018

CYXE;2016-03-07 13:00;CYXE 071300Z 12023G28KT 15SM SCT015 OVC030 M01/M03 A2951 RMK SC3SC5 SLP020

CYXE;2016-03-07 13:50;CYXE 071350Z 11013G24KT 15SM -FZRA SCT010 OVC020 M02/M03 A2952 RMK NS4SC4 SLP022

CYXE;2016-03-07 14:00;CYXE 071400Z 11017KT 15SM -FZRA SCT010 OVC020 M02/M03 A2952 RMK SC4SC4 SLP022

CYXE;2016-03-07 14:17;CYXE 071417Z 11017KT 15SM BKN010 OVC020 M02/M03 A2952 RMK SC5SC3 INTMT -FZRA SLP022

CYXE;2016-03-07 15:00;CYXE 071500Z 12014G20KT 15SM BKN010 OVC020 M02/M03 A2953 RMK SC5SC3 INTMT -FZRA SLP025

CYXE;2016-03-07 15:21;CYXE 071521Z 11012G18KT 15SM -PL BKN009 OVC018 M02/M03 A2954 RMK SC5NS3 SLP029

CYXE;2016-03-07 16:00;CYXE 071600Z 11010KT 6SM -PLSN BKN009 OVC015 M02/M02 A2955 RMK SC6SC2 SLP032

CYXE;2016-03-07 17:00;CYXE 071700Z 09007KT 10SM -PLSN OVC010 M01/M02 A2956 RMK SC8 SLP035

CYXE;2016-03-07 17:35;CYXE 071735Z 06006KT 15SM OVC010 M01/M02 A2957 RMK SC8 SLP040

CYXE;2016-03-07 18:00;CYXE 071800Z 04007KT 15SM OVC010 M01/M02 A2958 RMK SC8 SLP043

CYXE;2016-03-07 18:20;CYXE 071820Z 04009KT 5SM -SN OVC010 M01/M02 A2958 RMK SC8 SLP044

CYXE;2016-03-07 18:41;CYXE 071841Z 04010KT 15SM OVC010 M01/M02 A2958 RMK SC8 SLP044

CYXE;2016-03-07 19:00;CYXE 071900Z 04010KT 15SM OVC010 M01/M02 A2958 RMK SC8 SLP045

CYXE;2016-03-07 20:00;CYXE 072000Z 04008KT 15SM OVC010 M01/M02 A2961 RMK SC8 SLP052

CYXE;2016-03-07 20:25;CYXE 072025Z 04009KT 10SM OVC008 M02/M02 A2960 RMK SC8 BR SLP050

CYXE;2016-03-07 21:00;CYXE 072100Z 01010KT 10SM OVC008 M02/M02 A2962 RMK SC8 BR SLP057

CYXE;2016-03-07 22:00;CYXE 072200Z 36011KT 10SM OVC008 M03/M03 A2965 RMK ST8 BR SLP070

CYXE;2016-03-07 23:00;CYXE 072300Z 36012KT 10SM OVC008 M04/M05 A2968 RMK ST8 BR SLP079

CYXE;2016-03-08 00:00;CYXE 080000Z 34010KT 12SM OVC009 M04/M05 A2970 RMK ST8 SLP089

CYXE;2016-03-08 01:00;CYXE 080100Z 36006KT 12SM OVC009 M04/M05 A2972 RMK ST8 SLP096

CYXE;2016-03-08 02:00;CYXE 080200Z 35005KT 15SM BKN009 OVC017 M04/M06 A2975 RMK ST5SC3 SLP106

CYXE;2016-03-08 02:24;CYXE 080224Z 35005KT 15SM SCT009 OVC016 M04/M06 A2977 RMK ST3SC5 SLP112

CYXE;2016-03-08 03:00;CYXE 080300Z 00000KT 15SM FEW009 OVC018 M04/M06 A2978 RMK ST2SC6 SLP115

CYXE;2016-03-08 04:00;CYXE 080400Z 00000KT 15SM OVC020 M04/M06 A2980 RMK SC8 SLP122

CYXE;2016-03-08 05:00;CYXE 080500Z 08003KT 15SM OVC018 M04/M05 A2980 RMK SC8 SLP121

CYXE;2016-03-08 06:00;CYXE 080600Z VRB02KT 15SM OVC018 M04/M05 A2981 RMK SC8 SLP125

CYXE;2016-03-08 07:00;CYXE 080700Z 21003KT 15SM OVC020 M03/M04 A2982 RMK SC8 SLP128

CYXE;2016-03-08 08:00;CYXE 080800Z 23003KT 15SM OVC020 M02/M04 A2983 RMK SC8 SLP131

CYXE;2016-03-08 09:00;CYXE 080900Z 23003KT 15SM OVC018 M02/M03 A2984 RMK SC8 SLP135

CYXE;2016-03-08 10:00;CYXE 081000Z 18002KT 15SM OVC016 M02/M03 A2983 RMK SC8 SLP133

CYXE;2016-03-08 11:00;CYXE 081100Z 00000KT 15SM OVC015 M02/M02 A2983 RMK SC8 SLP131

CYXE;2016-03-08 12:00;CYXE 081200Z 33003KT 290V010 15SM OVC015 M02/M03 A2984 RMK SC8 SLP137

CYXE;2016-03-08 12:21;CYXE 081221Z 33003KT 15SM OVC014 M01/M03 A2984 RMK SC8 SLP137

CYXE;2016-03-08 13:00;CYXE 081300Z 01002KT 15SM OVC015 M01/M03 A2985 RMK SC8 SLP140

CYXE;2016-03-08 14:00;CYXE 081400Z VRB02KT 15SM OVC015 M01/M03 A2986 RMK SC8 SLP144

CYXE;2016-03-08 14:04;CYXE 081404Z 20003KT 100V210 12SM -SHSN OVC013 M01/M03 A2986 RMK SC8 VIS W LWR SLP143

CYXE;2016-03-08 14:34;CYXE 081434Z 15003KT 15SM OVC013 M01/M03 A2987 RMK SC8 SLP145

CYXE;2016-03-08 15:00;CYXE 081500Z 14003KT 15SM OVC014 M01/M03 A2987 RMK SC8 SLP145

CYXE;2016-03-08 16:00;CYXE 081600Z 15005KT 15SM OVC013 00/M02 A2986 RMK SC8 SLP141

CYXE;2016-03-08 17:00;CYXE 081700Z 11007KT 15SM OVC013 00/M02 A2984 RMK SC8 SLP136

CYXE;2016-03-08 18:00;CYXE 081800Z 14006KT 15SM OVC013 01/M02 A2984 RMK SC8 SLP134

CYXE;2016-03-08 19:00;CYXE 081900Z 14008KT 15SM OVC014 01/M02 A2983 RMK SC8 SLP132

CYXE;2016-03-08 20:00;CYXE 082000Z 16009KT 15SM OVC014 01/M02 A2981 RMK SC8 SLP124

CYXE;2016-03-08 21:00;CYXE 082100Z 15008KT 15SM OVC015 01/M02 A2979 RMK SC8 SLP117

CYXE;2016-03-08 22:00;CYXE 082200Z 15010KT 15SM OVC013 01/M02 A2978 RMK SC8 SLP113

CYXE;2016-03-08 23:00;CYXE 082300Z 15009KT 15SM OVC013 01/M02 A2977 RMK SC8 SLP109

CYXE;2016-03-09 00:00;CYXE 090000Z 13007KT 15SM OVC012 01/M02 A2977 RMK SC8 SLP110

CYXE;2016-03-09 01:00;CYXE 090100Z 12010KT 15SM OVC012 00/M02 A2977 RMK SC8 SLP108

CYXE;2016-03-09 02:00;CYXE 090200Z 10009KT 15SM OVC011 M00/M01 A2978 RMK SC8 SLP111

CYXE;2016-03-09 02:45;CYXE 090245Z 11012KT 15SM OVC009 M00/M01 A2975 RMK ST8 SLP103

CYXE;2016-03-09 03:00;CYXE 090300Z 10007KT 15SM OVC009 M00/M01 A2977 RMK ST8 PRESRR SLP108

CYXE;2016-03-09 03:22;CYXE 090322Z 09008KT 15SM OVC008 M01/M01 A2976 RMK ST8 SLP107

CYXE;2016-03-09 04:00;CYXE 090400Z 10010KT 15SM OVC008 M01/M01 A2975 RMK ST8 SLP103

CYXE;2016-03-09 05:00;CYXE 090500Z 09011KT 15SM OVC008 M01/M01 A2975 RMK ST8 SLP101

CYXE;2016-03-09 06:00;CYXE 090600Z 07009KT 15SM OVC007 M01/M01 A2975 RMK ST8 SLP103

CYXE;2016-03-09 07:00;CYXE 090700Z 09008G15KT 15SM OVC007 M01/M02 A2974 RMK ST8 SLP098

CYXE;2016-03-09 08:00;CYXE 090800Z 05008KT 15SM OVC007 M02/M02 A2975 RMK ST8 SLP103

CYXE;2016-03-09 09:00;CYXE 090900Z 06007KT 15SM OVC006 M02/M02 A2975 RMK ST8 SLP103

CYXE;2016-03-09 10:00;CYXE 091000Z 03008KT 10SM OVC005 M02/M02 A2975 RMK ST8 BR SLP102

CYXE;2016-03-09 10:27;CYXE 091027Z 02007KT 6SM BR OVC003 M02/M02 A2976 RMK ST8 SLP105

CYXE;2016-03-09 11:00;CYXE 091100Z 36008KT 6SM BR OVC003 M02/M02 A2977 RMK ST8 SLP109

CYXE;2016-03-09 12:00;CYXE 091200Z 35011KT 3SM BR OVC003 M02/M02 A2980 RMK ST8 SLP121

CYXE;2016-03-09 13:00;CYXE 091300Z 36010KT 6SM BR OVC004 M03/M03 A2982 RMK ST8 SLP127

CYXE;2016-03-09 13:41;CYXE 091341Z 36007KT 6SM BR OVC005 M03/M03 A2983 RMK ST8 SLP132

CYXE;2016-03-09 14:00;CYXE 091400Z 01007KT 6SM BR OVC005 M03/M03 A2984 RMK ST8 SLP133

CYXE;2016-03-09 14:45;CYXE 091445Z 35006KT 10SM SCT005 OVC014 M02/M02 A2985 RMK ST4SC4 BR SLP138

CYXE;2016-03-09 15:00;CYXE 091500Z 35007KT 15SM SCT005 OVC011 M02/M03 A2985 RMK ST3SC5 SLP139

CYXE;2016-03-09 16:00;CYXE 091600Z 02006KT 330V030 15SM OVC010 M02/M04 A2987 RMK SC8 SLP143

CYXE;2016-03-09 16:24;CYXE 091624Z 02005KT 15SM OVC008 M02/M04 A2987 RMK SC8 SLP146

CYXE;2016-03-09 17:00;CYXE 091700Z 36007KT 15SM OVC008 M02/M03 A2989 RMK SC8 SLP152

CYXE;2016-03-09 18:00;CYXE 091800Z 31006KT 15SM OVC008 M02/M03 A2991 RMK SC8 SLP157

CYXE;2016-03-09 18:32;CYXE 091832Z 34006KT 15SM OVC010 M01/M03 A2992 RMK SC8 SLP160

CYXE;2016-03-09 19:00;CYXE 091900Z 01004KT 15SM OVC010 M01/M03 A2992 RMK SC8 SLP160

CYXE;2016-03-09 20:00;CYXE 092000Z 33004KT 15SM OVC011 M01/M03 A2992 RMK SC8 SLP162

CYXE;2016-03-09 20:10;CYXE 092010Z 30004KT 280V350 10SM -SHSN OVC011 M01/M03 A2992 RMK SC8 CU EMBD SLP161

CYXE;2016-03-09 21:00;CYXE 092100Z 00000KT 15SM -SHSN OVC011 M01/M03 A2992 RMK SC8 CU EMBD SLP161

CYXE;2016-03-09 22:00;CYXE 092200Z 27003KT 200V290 15SM OVC011 M01/M03 A2993 RMK ST8 OCNL -SHSN SLP165

CYXE;2016-03-09 22:47;CYXE 092247Z VRB02KT 15SM OVC011 M01/M03 A2993 RMK SC8 SLP167

CYXE;2016-03-09 23:00;CYXE 092300Z 24005KT 160V260 15SM OVC011 M01/M03 A2993 RMK SC8 SLP167

CYXE;2016-03-10 00:00;CYXE 100000Z 19004KT 160V250 15SM OVC011 M01/M03 A2994 RMK SC8 SLP169

CYXE;2016-03-10 00:41;CYXE 100041Z 24004KT 220V300 15SM OVC008 M01/M03 A2994 RMK ST8 SLP168

CYXE;2016-03-10 01:00;CYXE 100100Z 26004KT 220V280 15SM OVC008 M02/M03 A2995 RMK ST8 SLP173

CYXE;2016-03-10 02:00;CYXE 100200Z 17004KT 130V220 15SM OVC008 M02/M03 A2995 RMK ST8 SLP173

CYXE;2016-03-10 02:35;CYXE 100235Z VRB02KT 15SM OVC006 M02/M02 A2995 RMK ST8 SLP174

CYXE;2016-03-10 03:00;CYXE 100300Z 17003KT 130V200 15SM OVC006 M02/M02 A2995 RMK ST8 SLP173

CYXE;2016-03-10 04:00;CYXE 100400Z 13008KT 15SM OVC006 M02/M02 A2995 RMK ST8 SLP173

CYXE;2016-03-10 05:00;CYXE 100500Z 14009KT 15SM OVC006 M02/M02 A2995 RMK ST8 SLP171

CYXE;2016-03-10 05:43;CYXE 100543Z 15010KT 15SM OVC004 M02/M02 A2994 RMK ST8 SLP168

CYXE;2016-03-10 06:00;CYXE 100600Z 16011KT 3SM BR OVC004 M02/M02 A2994 RMK ST8 SLP169

CYXE;2016-03-10 06:25;CYXE 100625Z 16011KT 2SM BR OVC003 M02/M02 A2994 RMK ST8 SLP169

CYXE;2016-03-10 07:00;CYXE 100700Z 17010KT 2SM BR OVC003 M03/M03 A2993 RMK ST8 SLP166

CYXE;2016-03-10 08:00;CYXE 100800Z 15010KT 2SM BR OVC003 M03/M03 A2990 RMK ST8 SLP156

CYXE;2016-03-10 09:00;CYXE 100900Z 14009KT 2SM BR OVC003 M02/M02 A2988 RMK ST8 SLP148

CYXE;2016-03-10 10:00;CYXE 101000Z 13008KT 2SM BR OVC003 M02/M02 A2986 RMK SC8 SLP141

CYXE;2016-03-10 11:00;CYXE 101100Z 14009KT 2SM BR OVC003 M02/M02 A2984 RMK ST8 SLP134

CYXE;2016-03-10 11:30;CYXE 101130Z 14009KT 4SM BR OVC003 M02/M02 A2983 RMK ST8 SLP130

CYXE;2016-03-10 12:00;CYXE 101200Z 14011KT 10SM OVC003 M02/M02 A2982 RMK ST8 SLP127

CYXE;2016-03-10 13:00;CYXE 101300Z 13009KT 10SM BKN004 M02/M02 A2979 RMK ST7 BR SLP119

CYXE;2016-03-10 13:27;CYXE 101327Z 13008KT 3SM BR OVC003 M02/M02 A2980 RMK ST8 SLP120

CYXE;2016-03-10 14:05;CYXE 101405Z 12008KT 6SM BR SCT003 BKN250 M02/M02 A2978 RMK ST4CI2 SLP116

CYXE;2016-03-10 15:00;CYXE 101500Z 13012KT 15SM BKN250 M01/M02 A2975 RMK CI7 SLP102

CYXE;2016-03-10 16:00;CYXE 101600Z 14008KT 15SM BKN120 OVC250 01/M02 A2974 RMK AC5CI3 SLP098

CYXE;2016-03-10 17:00;CYXE 101700Z 13010KT 15SM BKN120 OVC250 02/M02 A2971 RMK AC5CI3 SLP088

CYXE;2016-03-10 18:00;CYXE 101800Z 14008KT 15SM BKN110 OVC250 03/M01 A2969 RMK AC7CI1 SLP079

CYXE;2016-03-10 19:00;CYXE 101900Z 14011KT 15SM SCT120 BKN250 04/M01 A2964 RMK AC4CI2 SLP063

CYXE;2016-03-10 20:00;CYXE 102000Z 15015KT 15SM SCT120 06/M00 A2960 RMK AC3 SLP050

CYXE;2016-03-10 21:00;CYXE 102100Z 16015G20KT 15SM FEW120 07/01 A2958 RMK AC2 SLP039

CYXE;2016-03-10 22:00;CYXE 102200Z 16012G18KT 15SM FEW120 09/02 A2956 RMK AC1 SLP033

CYXE;2016-03-10 23:00;CYXE 102300Z 16013G18KT 15SM FEW120 FEW250 10/02 A2952 RMK AC1CI1 SLP019 DENSITY ALT 1800FT

CYXE;2016-03-11 00:00;CYXE 110000Z 15010KT 15SM FEW120 09/02 A2949 RMK AC1 SLP009 DENSITY ALT 1800FT

CYXE;2016-03-11 01:00;CYXE 110100Z 17012KT 15SM FEW120 07/02 A2947 RMK AC1 SLP004

CYXE;2016-03-11 02:00;CYXE 110200Z 19014KT 15SM SCT200 08/03 A2947 RMK CI3 SLP003 DENSITY ALT 1700FT

CYXE;2016-03-11 03:00;CYXE 110300Z 20012KT 15SM FEW200 08/03 A2949 RMK CI2 SLP007

CYXE;2016-03-11 04:00;CYXE 110400Z 22014KT 15SM -RA BKN040 09/02 A2948 RMK SC6 PRESRR SLP005 DENSITY ALT 1800FT

CYXE;2016-03-11 05:00;CYXE 110500Z 19011G17KT 15SM -RA BKN070 07/02 A2947 RMK AC7 PRESFR SLP998

CYXE;2016-03-11 05:23;CYXE 110523Z 24025G32KT 210V290 15SM BKN080 09/01 A2951 RMK AC7 PRESRR SLP014 DENSITY ALT 1700FT

CYXE;2016-03-11 06:00;CYXE 110600Z 23015KT 15SM SCT080 BKN120 06/01 A2950 RMK AC4AC3 SLP011

CYXE;2016-03-11 07:00;CYXE 110700Z 22019KT 15SM SCT120 BKN210 06/M00 A2950 RMK AC4CI2 SLP009

CYXE;2016-03-11 08:00;CYXE 110800Z 23018G25KT 15SM SCT210 04/M01 A2949 RMK CI4 SLP007

CYXE;2016-03-11 09:00;CYXE 110900Z 24016KT 15SM SCT210 03/M01 A2952 RMK CI3 SLP016

CYXE;2016-03-11 10:00;CYXE 111000Z 24017G24KT 15SM SKC 03/M01 A2951 RMK SLP012

CYXE;2016-03-11 11:00;CYXE 111100Z 25014G19KT 15SM SKC 02/M01 A2954 RMK PRESRR SLP024

CYXE;2016-03-11 12:00;CYXE 111200Z 25013KT 15SM SKC 02/M01 A2956 RMK SLP031

CYXE;2016-03-11 13:00;CYXE 111300Z 23006KT 15SM FEW160 SCT260 01/M01 A2960 RMK AC2CI1 SLP047

CYXE;2016-03-11 14:00;CYXE 111400Z 26012KT 15SM SCT080 SCT260 02/M01 A2962 RMK AC3CI1 SLP052

CYXE;2016-03-11 15:00;CYXE 111500Z 25013KT 15SM FEW080 FEW160 SCT280 04/M00 A2965 RMK AC1AC1CI1 SLP062

CYXE;2016-03-11 16:00;CYXE 111600Z 24014KT 15SM FEW160 FEW280 06/00 A2971 RMK AC1CI1 PRESRR SLP079

CYXE;2016-03-11 17:00;CYXE 111700Z 23012KT 15SM FEW160 07/01 A2974 RMK AC1 SLP089

CYXE;2016-03-11 18:00;CYXE 111800Z 24012KT 15SM SKC 08/01 A2976 RMK SLP097

CYXE;2016-03-11 19:00;CYXE 111900Z 24012KT 15SM SKC 09/01 A2979 RMK SLP106

CYXE;2016-03-11 20:00;CYXE 112000Z 25011KT 15SM SKC 10/01 A2981 RMK SLP112

CYXE;2016-03-11 21:00;CYXE 112100Z 25011G16KT 15SM SKC 10/01 A2981 RMK SLP115

CYXE;2016-03-11 22:00;CYXE 112200Z 25011KT 15SM SKC 10/M01 A2982 RMK SLP117

CYXE;2016-03-11 23:00;CYXE 112300Z 24008KT 15SM SKC 10/M02 A2983 RMK SLP121

CYXE;2016-03-12 00:00;CYXE 120000Z 29004KT 15SM SKC 09/M02 A2983 RMK SLP124

CYXE;2016-03-12 01:00;CYXE 120100Z 25003KT 15SM SKC 06/M02 A2985 RMK SLP131

CYXE;2016-03-12 02:00;CYXE 120200Z 09002KT 15SM SKC 02/M02 A2985 RMK SLP133

CYXE;2016-03-12 03:00;CYXE 120300Z 13004KT 15SM SKC 02/M03 A2985 RMK SLP133

CYXE;2016-03-12 04:00;CYXE 120400Z 13003KT 15SM SKC 02/M04 A2986 RMK SLP135

CYXE;2016-03-12 05:00;CYXE 120500Z 15004KT 15SM SKC 00/M04 A2987 RMK SLP138

CYXE;2016-03-12 06:00;CYXE 120600Z 09004KT 15SM SKC M00/M03 A2986 RMK SLP133

CYXE;2016-03-12 07:00;CYXE 120700Z 13004KT 15SM SKC 00/M05 A2988 RMK SLP141

CYXE;2016-03-12 08:00;CYXE 120800Z 11008KT 15SM SCT180 M00/M04 A2987 RMK AS3 SLP137

CYXE;2016-03-12 09:00;CYXE 120900Z 10006KT 15SM SCT180 00/M05 A2986 RMK AS3 SLP132

CYXE;2016-03-12 10:00;CYXE 121000Z 11007KT 15SM BKN180 01/M03 A2982 RMK AS6 SLP120

CYXE;2016-03-12 11:00;CYXE 121100Z 11013KT 15SM BKN120 03/M02 A2980 RMK AS7 SLP111

CYXE;2016-03-12 12:00;CYXE 121200Z 12016KT 15SM SCT120 OVC180 04/M01 A2979 RMK AC3AS5 SLP108

CYXE;2016-03-12 13:00;CYXE 121300Z 10017KT 15SM BKN100 BKN210 03/M02 A2973 RMK AC5CI2 PRESFR SLP088

CYXE;2016-03-12 14:00;CYXE 121400Z 13014G19KT 15SM BKN110 BKN220 03/M02 A2975 RMK AC5CI2 SLP098

CYXE;2016-03-12 15:00;CYXE 121500Z 12015KT 15SM BKN100 OVC250 03/M01 A2973 RMK AC7CI1 SLP092

CYXE;2016-03-12 16:00;CYXE 121600Z 13016KT 15SM BKN100 OVC250 05/M02 A2971 RMK AC6CI2 SLP085

CYXE;2016-03-12 17:00;CYXE 121700Z 13016G23KT 15SM BKN100 06/M01 A2969 RMK AC7 SLP079

CYXE;2016-03-12 19:00;CYXE 121900Z 14020G26KT 15SM SCT130 BKN210 08/00 A2962 RMK AC3CI2 PRESFR SLP052

CYXE;2016-03-12 20:00;CYXE 122000Z 15022G28KT 15SM SCT130 BKN210 12/01 A2959 RMK AC3CI2 SLP039 DENSITY ALT 2000FT

CYXE;2016-03-12 21:00;CYXE 122100Z 14020G28KT 15SM SCT120 BKN220 12/01 A2956 RMK AC4CI2 SLP030 DENSITY ALT 2000FT

CYXE;2016-03-12 22:00;CYXE 122200Z 14019G26KT 15SM SCT130 BKN280 12/02 A2955 RMK AC4CI1 SLP023 DENSITY ALT 2100FT

CYXE;2016-03-12 23:00;CYXE 122300Z 13013G21KT 15SM FEW130 SCT280 12/02 A2952 RMK AC2CI1 SLP014 DENSITY ALT 2100FT

CYXE;2016-03-13 00:00;CYXE 130000Z 15016KT 15SM FEW150 SCT280 11/01 A2951 RMK AC2CI2 SLP010 DENSITY ALT 1900FT

CYXE;2016-03-13 01:00;CYXE 130100Z 12010KT 15SM BKN150 BKN280 06/02 A2949 RMK AC6CI1 SLP008

CYXE;2016-03-13 03:00;CYXE 130300Z 13011KT 15SM SCT130 05/01 A2946 RMK AC4 SLP998

CYXE;2016-03-13 04:00;CYXE 130400Z 13010G16KT 15SM BKN120 05/01 A2944 RMK AC6 SLP991

CYXE;2016-03-13 05:00;CYXE 130500Z 14014KT 15SM BKN120 04/01 A2943 RMK AC7 SLP985

CYXE;2016-03-13 06:00;CYXE 130600Z 14009KT 15SM SCT120 BKN180 04/01 A2942 RMK AC3AC3 SLP981

CYXE;2016-03-13 06:38;CYXE 130638Z 15007KT 15SM FEW120 SCT180 02/00 A2942 RMK AC2AC2 SLP980

CYXE;2016-03-13 07:00;CYXE 130700Z 16006KT 15SM SCT120 03/00 A2941 RMK AC4 SLP977

CYXE;2016-03-13 08:00;CYXE 130800Z 18007KT 15SM FEW120 02/00 A2941 RMK AC2 SLP975

CYXE;2016-03-13 09:00;CYXE 130900Z 20010KT 15SM SKC 03/01 A2942 RMK SLP978

CYXE;2016-03-13 10:00;CYXE 131000Z 20008KT 15SM SKC 03/00 A2941 RMK SLP976

CYXE;2016-03-13 11:00;CYXE 131100Z 21013KT 15SM FEW110 SCT220 04/00 A2940 RMK AC2CI1 SLP973

CYXE;2016-03-13 12:00;CYXE 131200Z 23017KT 15SM FEW110 04/M01 A2941 RMK AC1 SLP975

CYXE;2016-03-13 13:00;CYXE 131300Z 22013KT 15SM FEW110 03/M01 A2942 RMK AC1 SLP981

CYXE;2016-03-13 14:00;CYXE 131400Z 22017G23KT 15SM BKN250 04/M02 A2943 RMK CI6 SLP988

CYXE;2016-03-13 15:00;CYXE 131500Z 23021G26KT 15SM BKN250 04/M02 A2941 RMK CI6 SLP980

CYXE;2016-03-13 16:00;CYXE 131600Z 23025G33KT 15SM BKN250 06/M02 A2939 RMK CI6 SLP972

CYXE;2016-03-13 17:00;CYXE 131700Z 23026G35KT 15SM FEW250 07/M01 A2938 RMK CI2 SLP968 DENSITY ALT 1700FT

CYXE;2016-03-13 18:00;CYXE 131800Z 23033G42KT 15SM FEW030 08/00 A2935 RMK SC1 SLP958 DENSITY ALT 1800FT

CYXE;2016-03-13 19:00;CYXE 131900Z 25034G42KT 15SM BKN040 08/01 A2937 RMK SC6 SLP964 DENSITY ALT 1800FT

CYXE;2016-03-13 20:00;CYXE 132000Z 26031G39KT 15SM BKN045 08/M00 A2937 RMK SC7 SLP965 DENSITY ALT 1800FT

CYXE;2016-03-13 21:00;CYXE 132100Z 26027G34KT 15SM SCT045 08/M00 A2937 RMK SC3 SLP964 DENSITY ALT 1800FT

CYXE;2016-03-13 22:00;CYXE 132200Z 26024G35KT 15SM FEW050 10/M01 A2937 RMK SC2 SLP963 DENSITY ALT 2000FT

CYXE;2016-03-13 23:00;CYXE 132300Z 26030G37KT 15SM FEW050 FEW280 10/M04 A2936 RMK CU1CI1 SLP960 DENSITY ALT 2100FT

CYXE;2016-03-14 00:00;CYXE 140000Z 26024G32KT 15SM FEW050 FEW280 09/M05 A2938 RMK CU1CI1 SLP965 DENSITY ALT 1900FT

CYXE;2016-03-14 01:00;CYXE 140100Z 26014G21KT 15SM FEW280 06/M03 A2938 RMK CI2 SLP971

CYXE;2016-03-14 02:00;CYXE 140200Z 25011KT 15SM SKC 04/M03 A2939 RMK SLP975

CYXE;2016-03-14 02:51;CYXE 140251Z 25011KT 15SM SKC 02/M04 A2940 RMK SLP978

CYXE;2016-03-14 03:00;CYXE 140300Z 25012KT 15SM SKC 02/M03 A2940 RMK SLP978

CYXE;2016-03-14 04:00;CYXE 140400Z 26010KT 15SM SKC 02/M03 A2941 RMK SLP981

CYXE;2016-03-14 05:00;CYXE 140500Z 26007KT 15SM SKC M00/M04 A2942 RMK SLP983

CYXE;2016-03-14 06:00;CYXE 140600Z 24008KT 15SM SKC M02/M05 A2942 RMK SLP983

CYXE;2016-03-14 07:00;CYXE 140700Z 20008KT 15SM SCT240 M01/M04 A2942 RMK CI3 SLP985

CYXE;2016-03-14 08:00;CYXE 140800Z 20006KT 15SM SCT240 M02/M05 A2942 RMK CI4 SLP987

CYXE;2016-03-14 09:00;CYXE 140900Z 18004KT 15SM FEW240 M03/M05 A2941 RMK CI2 SLP980

CYXE;2016-03-14 10:00;CYXE 141000Z 16005KT 15SM BKN090 M03/M05 A2941 RMK AC5 SLP982

CYXE;2016-03-14 11:00;CYXE 141100Z 21004KT 15SM BKN090 M03/M05 A2941 RMK AC5 SLP981

CYXE;2016-03-14 12:00;CYXE 141200Z VRB02KT 15SM BKN085 M02/M03 A2940 RMK AC6 SLP976

CYXE;2016-03-14 13:00;CYXE 141300Z 04004KT 15SM BKN085 M01/M03 A2939 RMK AC6 SLP976

CYXE;2016-03-14 14:00;CYXE 141400Z 06004KT 15SM BKN085 M01/M02 A2939 RMK AC6 SLP976

CYXE;2016-03-14 15:00;CYXE 141500Z 07005KT 15SM SCT080 00/M01 A2940 RMK AC4 SLP979

CYXE;2016-03-14 16:00;CYXE 141600Z 07007KT 15SM FEW080 SCT270 04/M02 A2939 RMK AC1CI2 SLP974

CYXE;2016-03-14 17:00;CYXE 141700Z 06011KT 15SM FEW080 SCT270 06/M02 A2939 RMK AC1CI2 SLP975

CYXE;2016-03-14 18:00;CYXE 141800Z 06010KT 15SM FEW080 BKN200 07/M02 A2941 RMK AC1CI5 SLP981

CYXE;2016-03-14 19:00;CYXE 141900Z 07010KT 15SM FEW080 BKN160 08/M00 A2940 RMK AC1AC5 SLP978 DENSITY ALT 1800FT

CYXE;2016-03-14 20:00;CYXE 142000Z 07012G18KT 15SM FEW080 BKN160 08/00 A2940 RMK AC1AC6 SLP979 DENSITY ALT 1800FT

CYXE;2016-03-14 21:00;CYXE 142100Z 07010KT 15SM FEW080 BKN130 BKN280 08/00 A2942 RMK AC1AC5CI1 SLP985 DENSITY ALT 1700FT

CYXE;2016-03-14 22:00;CYXE 142200Z 06012G17KT 15SM BKN110 OVC280 07/00 A2943 RMK AC6CI2 SLP991

CYXE;2016-03-14 23:00;CYXE 142300Z 07011G18KT 15SM BKN100 OVC280 07/01 A2945 RMK AC6CI2 SLP995

CYXE;2016-03-15 00:00;CYXE 150000Z 06009KT 15SM BKN120 05/01 A2947 RMK AC7 PRESRR SLP005

CYXE;2016-03-15 01:00;CYXE 150100Z 05010KT 15SM BKN120 03/01 A2948 RMK AC7 SLP008

CYXE;2016-03-15 01:27;CYXE 150127Z 06012KT 15SM BKN110 02/01 A2949 RMK AC7 SLP011

CYXE;2016-03-15 02:00;CYXE 150200Z 05012KT 15SM SCT110 BKN160 02/00 A2949 RMK AC3AC4 SLP011

CYXE;2016-03-15 03:00;CYXE 150300Z 03007KT 15SM FEW160 SCT230 01/M01 A2950 RMK AC1CI2 SLP015

CYXE;2016-03-15 04:00;CYXE 150400Z 04007KT 15SM SCT110 BKN230 M00/M01 A2950 RMK AC4CI1 SLP015

CYXE;2016-03-15 05:00;CYXE 150500Z 04011KT 15SM FEW060 SCT230 01/M01 A2951 RMK SC2CI2 SLP014

CYXE;2016-03-15 06:00;CYXE 150600Z 05010G17KT 15SM SCT018 BKN045 OVC060 01/M01 A2953 RMK SC4SC1SC3 SLP020

CYXE;2016-03-15 06:37;CYXE 150637Z 05013KT 15SM OVC014 01/00 A2953 RMK SC8 SLP020

CYXE;2016-03-15 07:00;CYXE 150700Z 05012KT 15SM OVC011 01/00 A2953 RMK SC8 SLP020

CYXE;2016-03-15 07:25;CYXE 150725Z 06010KT 15SM OVC008 01/00 A2953 RMK SF8 SLP021

CYXE;2016-03-15 08:00;CYXE 150800Z 06009KT 15SM OVC008 01/01 A2953 RMK SC8 SLP022

CYXE;2016-03-15 09:00;CYXE 150900Z 03007KT 15SM OVC007 01/01 A2955 RMK SC8 SLP028

CYXE;2016-03-15 10:00;CYXE 151000Z 02008KT 15SM OVC007 01/01 A2955 RMK SC8 SLP029

CYXE;2016-03-15 10:13;CYXE 151013Z 01008KT 12SM -RASN OVC007 01/01 A2956 RMK SC8 SLP032

CYXE;2016-03-15 10:23;CYXE 151023Z 01009KT 15SM OVC006 01/01 A2956 RMK SF8 SLP032

CYXE;2016-03-15 11:00;CYXE 151100Z 34006KT 15SM OVC008 01/01 A2957 RMK SF8 SLP036

CYXE;2016-03-15 11:24;CYXE 151124Z 32007KT 15SM OVC004 01/01 A2958 RMK SF8 SLP039

CYXE;2016-03-15 11:41;CYXE 151141Z 32008KT 5SM BCFG OVC002 01/01 A2958 RMK SF8 SLP040

CYXE;2016-03-15 11:50;CYXE 151150Z 32009KT 2SM BR OVC002 01/01 A2958 RMK SF8 SLP040

CYXE;2016-03-15 12:04;CYXE 151204Z 33009KT 1/2SM FG VV002 01/01 A2959 RMK FG8 SLP042

CYXE;2016-03-15 12:13;CYXE 151213Z 34009KT 3/4SM BR OVC002 00/00 A2959 RMK ST8 SLP042

CYXE;2016-03-15 12:16;CYXE 151216Z 34009KT 1 1/2SM BR OVC002 00/00 A2959 RMK ST8 SLP042

CYXE;2016-03-15 12:26;CYXE 151226Z 33008KT 3SM -DZ BR OVC003 00/00 A2959 RMK SF8 SLP042

CYXE;2016-03-15 13:00;CYXE 151300Z 34007KT 2SM -SG BKN003 OVC012 00/00 A2959 RMK SF6SC2 SLP046

CYXE;2016-03-15 13:35;CYXE 151335Z 34007KT 1 1/4SM -SN VV004 00/00 A2960 RMK SN8 SLP048

CYXE;2016-03-15 14:00;CYXE 151400Z 33007KT 1 1/2SM -SN VV005 00/00 A2960 RMK SN8 VIS VRB 1-2 SLP050

CYXE;2016-03-15 14:34;CYXE 151434Z 01008KT 1 1/2SM -SN OVC007 M00/M00 A2960 RMK SN4ST4 VIS VRB 1-2 SLP051

CYXE;2016-03-15 14:53;CYXE 151453Z 36008KT 3SM -SN BKN007 OVC023 M00/M00 A2960 RMK ST6SC2 SLP050

CYXE;2016-03-15 15:00;CYXE 151500Z 36008KT 3SM -SN BKN007 OVC023 M00/M00 A2961 RMK ST6SC2 SLP052

CYXE;2016-03-15 16:00;CYXE 151600Z 03010KT 3SM -SN BKN007 OVC023 M01/M01 A2962 RMK ST6SC2 /S01/ SLP058

CYXE;2016-03-15 16:47;CYXE 151647Z 01011KT 1 1/2SM -SN BKN008 OVC021 M01/M01 A2964 RMK SN4ST2SC2 SLP063

CYXE;2016-03-15 17:00;CYXE 151700Z 01010KT 1 1/2SM -SN BKN007 OVC021 M01/M01 A2964 RMK SN4ST3SC1 SLP063

CYXE;2016-03-15 17:24;CYXE 151724Z 01007KT 1SM -SN OVC007 M01/M01 A2964 RMK SN5ST3 /S02/ SLP065

CYXE;2016-03-15 17:32;CYXE 151732Z 02008KT 3/4SM -SN BR BKN006 M01/M01 A2964 RMK SN6ST1 SLP065

CYXE;2016-03-15 18:00;CYXE 151800Z 01008KT 3/4SM R09/P6000FT/U -SN BR OVC006 M01/M02 A2965 RMK SN6ST2 SLP066

CYXE;2016-03-15 18:16;CYXE 151816Z 36006KT 2SM -SN BR OVC006 M01/M01 A2965 RMK ST8 SLP067

CYXE;2016-03-15 19:00;CYXE 151900Z 36006KT 2SM -SN BR BKN006 OVC014 M01/M02 A2965 RMK ST5SC3 VIS VRB 11/2-21/2 SLP068

CYXE;2016-03-15 20:00;CYXE 152000Z 33006KT 2SM -SN BR BKN007 OVC010 M01/M02 A2965 RMK ST6ST2 VIS VRB 11/2-21/2 SLP068

CYXE;2016-03-15 21:00;CYXE 152100Z 32006KT 2SM -SN BR BKN007 OVC011 M01/M01 A2965 RMK ST6ST2 VIS VRB 11/2-21/2 SLP068

CYXE;2016-03-15 22:00;CYXE 152200Z 31011KT 2SM -SN BR OVC007 M00/M01 A2966 RMK ST8 VIS VRB 11/2-21/2 CIG RAG SLP070

CYXE;2016-03-15 23:00;CYXE 152300Z 32013KT 2SM -SN BR BKN007 OVC020 M00/M01 A2966 RMK ST5SC3 VIS VRB 1-3 CIG RAG SLP072

CYXE;2016-03-16 00:00;CYXE 160000Z 32013KT 1 1/2SM -SN BR BKN008 OVC020 M00/M01 A2968 RMK ST6SC2 VIS VRB 1-2 CIG RAG SLP076

CYXE;2016-03-16 01:00;CYXE 160100Z 32012KT 1SM R09/P6000FT/U -SN BR BKN008 OVC020 M00/M00 A2968 RMK ST6SC2 VIS VRB 1/2-11/2 SLP078

CYXE;2016-03-16 02:00;CYXE 160200Z 31013G20KT 1SM R09/P6000FT/N -SN BR FEW008 BKN030 OVC140 M01/M02 A2967 RMK SF2SC4AC2 SLP076

CYXE;2016-03-16 02:24;CYXE 160224Z 31013KT 3SM -SN BR FEW008 BKN030 OVC280 M01/M02 A2967 RMK SF2SC4CI2 SLP075

CYXE;2016-03-16 03:00;CYXE 160300Z 31011KT 6SM -SN BR FEW008 BKN040 M01/M02 A2966 RMK SF2SC5 SLP073

CYXE;2016-03-16 04:00;CYXE 160400Z 01009KT 310V020 15SM -SN SCT013 OVC040 M02/M02 A2966 RMK SC4SC4 SLP073

CYXE;2016-03-16 04:33;CYXE 160433Z 01009KT 2SM -SN SCT008 OVC020 M03/M04 A2967 RMK SF4SC4 SLP076

CYXE;2016-03-16 05:00;CYXE 160500Z 36008KT 2SM -SN SCT008 OVC020 M03/M04 A2967 RMK SF4SC4 SLP076

CYXE;2016-03-16 06:00;CYXE 160600Z 35008KT 2 1/2SM -SN SCT005 OVC020 M04/M04 A2967 RMK SF4SC4 SLP076

CYXE;2016-03-16 07:00;CYXE 160700Z 35007KT 3SM -SN FEW005 OVC020 M04/M05 A2967 RMK SF2SC6 SLP078

CYXE;2016-03-16 07:14;CYXE 160714Z 35006KT 2SM -SN VV012 M04/M05 A2967 RMK SN8 SLP078

CYXE;2016-03-16 07:42;CYXE 160742Z 32005KT 3SM -SN OVC018 M05/M05 A2967 RMK SC8 SLP079

CYXE;2016-03-16 08:00;CYXE 160800Z 33006KT 3SM -SN FEW006 OVC018 M05/M05 A2967 RMK SF2SC6 SLP079

CYXE;2016-03-16 09:00;CYXE 160900Z 36005KT 3SM -SN SCT011 OVC020 M05/M06 A2967 RMK SF3SC5 SLP079

CYXE;2016-03-16 10:00;CYXE 161000Z 34008KT 2SM -SN VV011 M06/M06 A2968 RMK SN8 SLP080

CYXE;2016-03-16 11:00;CYXE 161100Z 36012KT 1 1/2SM -SN VV008 M08/M09 A2969 RMK SN8 SLP088

CYXE;2016-03-16 12:00;CYXE 161200Z 34010KT 3SM -SN FEW025 OVC040 M08/M10 A2971 RMK SC2SC6 SLP093

CYXE;2016-03-16 12:06;CYXE 161206Z 34009KT 2SM -SN VV010 M08/M10 A2971 RMK SN8 SLP094

CYXE;2016-03-16 12:32;CYXE 161232Z 32009KT 3SM -SN SCT010 OVC028 M08/M10 A2971 RMK SF3SC5 SLP093

CYXE;2016-03-16 13:00;CYXE 161300Z 33012G17KT 3SM -SN SCT028 OVC040 M08/M11 A2972 RMK SC4SC4 SLP096

CYXE;2016-03-16 14:00;CYXE 161400Z 33011KT 6SM -SN SCT040 BKN110 M09/M11 A2972 RMK SC3AC4 SLP097

CYXE;2016-03-16 14:30;CYXE 161430Z 32011KT 15SM FEW060 BKN120 M09/M11 A2973 RMK SC2AC5 SLP101

CYXE;2016-03-16 15:00;CYXE 161500Z 32012KT 15SM FEW060 BKN100 M08/M11 A2974 RMK SC2AC5 SLP104

CYXE;2016-03-16 16:00;CYXE 161600Z 32014KT 50SM FEW020 BKN090 M08/M11 A2975 RMK SC2AC5 SLP107

CYXE;2016-03-16 17:00;CYXE 161700Z 32013G18KT 15SM SCT017 BKN050 M08/M10 A2976 RMK SC4SC3 SLP113

CYXE;2016-03-16 18:00;CYXE 161800Z 32013KT 15SM BKN018 BKN080 M07/M10 A2978 RMK SC5AC2 SLP118

CYXE;2016-03-16 19:00;CYXE 161900Z 32012KT 15SM BKN025 M06/M10 A2979 RMK SC7 SLP122

CYXE;2016-03-16 20:00;CYXE 162000Z 32015KT 6SM -SN OVC020 M06/M10 A2981 RMK SC8 SLP129

CYXE;2016-03-16 21:00;CYXE 162100Z 32011KT 6SM -SN OVC022 M06/M10 A2983 RMK SC8 SLP136

CYXE;2016-03-16 22:00;CYXE 162200Z 34012KT 6SM -SN OVC025 M06/M10 A2985 RMK SC8 SLP144

CYXE;2016-03-16 23:00;CYXE 162300Z 36009KT 6SM -SHSN OVC025 M06/M10 A2988 RMK SC8 CU EMBD SLP154

CYXE;2016-03-17 00:00;CYXE 170000Z 33010KT 12SM -SHSN BKN035 OVC090 M06/M09 A2990 RMK SC7AC1 CU EMBD SLP162

CYXE;2016-03-17 00:26;CYXE 170026Z 33010KT 15SM FEW035 OVC090 M06/M10 A2991 RMK SC2AC6 SLP165

CYXE;2016-03-17 01:00;CYXE 170100Z 33012KT 15SM FEW035 OVC090 M06/M10 A2992 RMK SC2AC6 SLP169

CYXE;2016-03-17 01:44;CYXE 170144Z 33010KT 15SM -SN FEW030 OVC090 M06/M10 A2994 RMK SC1AC7 SLP177

CYXE;2016-03-17 02:00;CYXE 170200Z 33009KT 12SM -SN OVC090 M06/M10 A2994 RMK AC8 SLP178

CYXE;2016-03-17 03:00;CYXE 170300Z 32011KT 10SM -SN FEW030 OVC075 M06/M09 A2996 RMK SC1AC7 SLP183

CYXE;2016-03-17 04:00;CYXE 170400Z 32009KT 12SM -SN FEW030 BKN075 M07/M09 A2997 RMK SC1AC6 SLP187

CYXE;2016-03-17 05:00;CYXE 170500Z 31008KT 15SM -SN BKN070 M07/M09 A2998 RMK AC6 SLP192

CYXE;2016-03-17 05:26;CYXE 170526Z 31009KT 15SM OVC075 M07/M09 A2999 RMK AC8 SLP193

CYXE;2016-03-17 06:00;CYXE 170600Z 30010KT 15SM FEW036 OVC075 M07/M10 A3000 RMK SC2AC6 SLP196

CYXE;2016-03-17 07:00;CYXE 170700Z 31009KT 15SM FEW040 OVC065 M07/M09 A3001 RMK SC2SC6 SLP199

CYXE;2016-03-17 08:00;CYXE 170800Z 31011KT 15SM BKN065 OVC085 M07/M09 A3003 RMK SC5AC3 SLP206

CYXE;2016-03-17 09:00;CYXE 170900Z 31010KT 15SM FEW065 OVC080 M07/M09 A3004 RMK SC2AC6 SLP210

CYXE;2016-03-17 10:00;CYXE 171000Z 32012KT 15SM OVC075 M07/M09 A3005 RMK AC8 SLP214

CYXE;2016-03-17 10:04;CYXE 171004Z 31010KT 15SM -SN OVC075 M07/M09 A3005 RMK AC8 SLP214

CYXE;2016-03-17 11:00;CYXE 171100Z 31008KT 15SM -SN BKN075 OVC110 M08/M10 A3006 RMK AC5AC3 SLP219

CYXE;2016-03-17 12:00;CYXE 171200Z 31009KT 15SM BKN080 BKN110 M10/M11 A3009 RMK AC5AC2 SLP228

CYXE;2016-03-17 13:00;CYXE 171300Z 33012KT 15SM OVC065 M08/M10 A3011 RMK SC8 SLP234

CYXE;2016-03-17 13:52;CYXE 171352Z 33011KT 10SM -SN OVC065 M07/M09 A3011 RMK SC8 SLP236

CYXE;2016-03-17 14:00;CYXE 171400Z 32012KT 10SM -SN DRSN OVC060 M07/M09 A3012 RMK SC8 SLP237

CYXE;2016-03-17 14:09;CYXE 171409Z 33011KT 2SM -SN DRSN VV020 M07/M09 A3012 RMK SN8 SLP237

CYXE;2016-03-17 14:28;CYXE 171428Z 33012KT 3SM -SN DRSN OVC060 M07/M09 A3012 RMK SC8 SLP238

CYXE;2016-03-17 15:04;CYXE 171504Z 33011G16KT 1 1/2SM -SN DRSN VV025 M07/M09 A3013 RMK SN8 SLP241

CYXE;2016-03-17 15:08;CYXE 171508Z 33011KT 3SM -SN DRSN OVC060 M07/M09 A3013 RMK SC8 VIS VRBL 2-4 SLP241

CYXE;2016-03-17 16:00;CYXE 171600Z 34011KT 4SM -SN DRSN BKN015 OVC060 M07/M09 A3014 RMK SC5SC3 VIS VRBL 2-6 SLP245

CYXE;2016-03-17 17:00;CYXE 171700Z 36014KT 3SM -SN DRSN BKN015 OVC060 M06/M08 A3015 RMK SC5SC3 SLP249

CYXE;2016-03-17 18:00;CYXE 171800Z 36013KT 3SM -SN DRSN OVC018 M06/M08 A3017 RMK SC8 SLP254

CYXE;2016-03-17 19:00;CYXE 171900Z 35013KT 5SM -SN BKN018 OVC070 M05/M09 A3018 RMK SC7AC1 SLP258

CYXE;2016-03-17 20:00;CYXE 172000Z 34012KT 6SM -SN BKN017 OVC040 M05/M08 A3019 RMK SC7SC1 SLP261

CYXE;2016-03-17 21:00;CYXE 172100Z 33012KT 12SM -SN SCT017 OVC080 M05/M09 A3019 RMK SC3AC5 SLP262

CYXE;2016-03-17 21:48;CYXE 172148Z 32013KT 15SM SCT021 OVC080 M04/M08 A3020 RMK SC3AC5 SLP263

CYXE;2016-03-17 22:00;CYXE 172200Z 32012KT 15SM SCT023 OVC080 M04/M08 A3020 RMK SC4AC4 SLP263

CYXE;2016-03-17 23:00;CYXE 172300Z 33014KT 12SM -SN BKN019 OVC080 M05/M08 A3022 RMK SC6AC2 SLP271

CYXE;2016-03-18 00:05;CYXE 180005Z 01008KT 1 1/2SM -SN BR OVC016 M06/M07 A3025 RMK SN2SC6 SLP284

CYXE;2016-03-18 00:26;CYXE 180026Z 01006KT 2SM -SN BR OVC013 M06/M07 A3026 RMK SC8 VIS VRB 11/2-21/2 SLP287

CYXE;2016-03-18 01:00;CYXE 180100Z 36009KT 3SM -SN BR BKN013 OVC027 M06/M07 A3027 RMK SC5SC3 SLP288

CYXE;2016-03-18 01:40;CYXE 180140Z 34010KT 5SM -SN BR OVC017 M06/M08 A3027 RMK SC8 SLP288

CYXE;2016-03-18 02:00;CYXE 180200Z 34008KT 8SM -SN SCT017 OVC110 M06/M08 A3027 RMK SC4AC4 SLP288

CYXE;2016-03-18 03:00;CYXE 180300Z 33008KT 8SM -SN BKN017 OVC110 M07/M08 A3027 RMK SC5AC3 SLP290

CYXE;2016-03-18 04:00;CYXE 180400Z 33008KT 12SM -SN SCT017 OVC110 M07/M08 A3028 RMK SC4AC4 SLP292

CYXE;2016-03-18 05:00;CYXE 180500Z 34010KT 12SM -SN SCT015 OVC020 M07/M08 A3029 RMK SC4SC4 SLP295

CYXE;2016-03-18 06:00;CYXE 180600Z 33008KT 5SM -SN OVC025 M07/M08 A3029 RMK SC8 SLP297

CYXE;2016-03-18 07:00;CYXE 180700Z 34008KT 10SM -SN FEW025 OVC050 M08/M09 A3029 RMK SC1SC7 SLP296

CYXE;2016-03-18 08:00;CYXE 180800Z 33007KT 15SM -SN FEW025 SCT050 OVC120 M08/M09 A3029 RMK SC1SC3AC4 SLP297

CYXE;2016-03-18 08:31;CYXE 180831Z 33008KT 15SM FEW025 BKN050 OVC120 M08/M10 A3029 RMK SC1SC4AC3 SLP296

CYXE;2016-03-18 09:00;CYXE 180900Z 31008KT 15SM SCT050 BKN120 M09/M10 A3029 RMK SC4AC3 SLP296

CYXE;2016-03-18 09:20;CYXE 180920Z 31008KT 15SM -SN SCT050 OVC110 M08/M09 A3030 RMK SC3AC5 SLP298

CYXE;2016-03-18 10:00;CYXE 181000Z 31008KT 15SM -SN BKN018 OVC110 M08/M09 A3030 RMK SC6AC2 SLP298

CYXE;2016-03-18 11:00;CYXE 181100Z 32008KT 5SM -SN SCT018 VV060 M08/M09 A3031 RMK SC4SN4 SLP302

CYXE;2016-03-18 11:18;CYXE 181118Z 32008KT 2SM -SN VV030 M08/M09 A3031 RMK SN8 SLP303

CYXE;2016-03-18 12:00;CYXE 181200Z 32008KT 2SM -SN VV025 M08/M09 A3032 RMK SN8 SLP305

CYXE;2016-03-18 13:00;CYXE 181300Z 32007KT 2SM -SN VV025 M08/M09 A3032 RMK SN8 SLP308

CYXE;2016-03-18 14:00;CYXE 181400Z 32007KT 2SM -SN VV016 M08/M09 A3033 RMK SN8 SLP309

CYXE;2016-03-18 15:00;CYXE 181500Z 31010KT 5SM -SN OVC037 M07/M09 A3033 RMK SC8 SLP309

CYXE;2016-03-18 16:00;CYXE 181600Z 32009KT 5SM -SN OVC030 M07/M09 A3034 RMK SC8 SLP312

CYXE;2016-03-18 17:00;CYXE 181700Z 32010KT 5SM -SN SCT012 OVC030 M06/M09 A3035 RMK SC3SC5 SLP315

CYXE;2016-03-18 18:00;CYXE 181800Z 33010KT 12SM FEW012 BKN095 M06/M09 A3036 RMK SC2AC5 INTMT -SN SLP318

CYXE;2016-03-18 18:39;CYXE 181839Z 32007KT 15SM BKN018 BKN095 M05/M10 A3036 RMK SC5AC2 SLP318

CYXE;2016-03-18 19:00;CYXE 181900Z 32009KT 15SM BKN017 BKN095 M05/M09 A3036 RMK SC6AC1 SLP319

CYXE;2016-03-18 20:00;CYXE 182000Z 31010KT 15SM OVC022 M05/M09 A3036 RMK SC8 SLP320

CYXE;2016-03-18 21:00;CYXE 182100Z 30009KT 15SM OVC024 M05/M09 A3036 RMK SC8 SLP320

CYXE;2016-03-18 22:00;CYXE 182200Z 33010KT 15SM OVC024 M05/M09 A3036 RMK SC8 SLP319

CYXE;2016-03-18 23:00;CYXE 182300Z 32011KT 15SM BKN027 M05/M10 A3036 RMK SC7 SLP320

CYXE;2016-03-19 00:00;CYXE 190000Z 32010KT 15SM BKN030 M05/M10 A3037 RMK SC7 SLP322

CYXE;2016-03-19 01:00;CYXE 190100Z 30008KT 15SM SCT030 M08/M11 A3037 RMK SC4 SLP326

CYXE;2016-03-19 02:00;CYXE 190200Z 29007KT 15SM BKN030 M07/M10 A3039 RMK SC7 SLP331

CYXE;2016-03-19 03:00;CYXE 190300Z 30006KT 15SM BKN029 M08/M10 A3040 RMK SC7 SLP333

CYXE;2016-03-19 04:00;CYXE 190400Z 29007KT 15SM OVC026 M06/M10 A3040 RMK SC8 SLP333

CYXE;2016-03-19 05:00;CYXE 190500Z 29009KT 15SM OVC024 M06/M09 A3040 RMK SC8 SLP332

CYXE;2016-03-19 06:00;CYXE 190600Z 29006KT 15SM OVC021 M06/M09 A3040 RMK SC8 SLP332

CYXE;2016-03-19 07:00;CYXE 190700Z 30008KT 15SM OVC020 M07/M10 A3041 RMK SC8 SLP335

CYXE;2016-03-19 08:00;CYXE 190800Z 25004KT 15SM OVC019 M07/M10 A3041 RMK SC8 SLP334

CYXE;2016-03-19 09:00;CYXE 190900Z 28003KT 270V340 15SM OVC019 M08/M10 A3041 RMK SC8 SLP336

CYXE;2016-03-19 10:00;CYXE 191000Z 28004KT 15SM BKN019 M09/M11 A3041 RMK SC6 SLP339

CYXE;2016-03-19 11:00;CYXE 191100Z 24004KT 15SM FEW020 SCT200 M12/M13 A3042 RMK SC2CI1 SLP345

CYXE;2016-03-19 12:00;CYXE 191200Z 24005KT 15SM FEW020 M13/M14 A3043 RMK SC1 SLP347

CYXE;2016-03-19 13:00;CYXE 191300Z 19004KT 15SM FEW020 M14/M15 A3043 RMK SC1 SLP350

CYXE;2016-03-19 14:00;CYXE 191400Z 21006KT 15SM FEW250 M12/M13 A3044 RMK CI2 SLP350

CYXE;2016-03-19 15:00;CYXE 191500Z 20005KT 15SM BKN250 M09/M10 A3044 RMK CI5 SLP349

CYXE;2016-03-19 16:00;CYXE 191600Z 19008KT 15SM SCT250 M07/M10 A3044 RMK CI3 SLP346

CYXE;2016-03-19 17:00;CYXE 191700Z 23007KT 180V240 15SM FEW250 M06/M10 A3043 RMK CI2 SLP344

CYXE;2016-03-19 18:00;CYXE 191800Z 19005KT 15SM SCT250 M04/M09 A3043 RMK CI3 SLP341

CYXE;2016-03-19 19:00;CYXE 191900Z 19009KT 15SM BKN250 M04/M09 A3042 RMK CI5 SLP339

CYXE;2016-03-19 20:00;CYXE 192000Z 18007KT 15SM BKN250 M03/M08 A3040 RMK CI5 SLP332

CYXE;2016-03-19 21:00;CYXE 192100Z 15006KT 140V220 15SM BKN300 M02/M08 A3039 RMK CI6 SLP326

CYXE;2016-03-19 22:00;CYXE 192200Z 17007KT 15SM OVC300 M01/M07 A3036 RMK CI8 SLP319

CYXE;2016-03-19 23:00;CYXE 192300Z 16004KT 15SM OVC300 M01/M07 A3036 RMK CI8 SLP320

CYXE;2016-03-20 00:00;CYXE 200000Z 16006KT 15SM BKN140 OVC300 M01/M06 A3035 RMK AS5CI3 SLP317

CYXE;2016-03-20 01:00;CYXE 200100Z 14009KT 15SM SCT140 OVC300 M02/M07 A3032 RMK AS3CI5 SLP310

CYXE;2016-03-20 02:00;CYXE 200200Z 13006KT 15SM FEW140 BKN300 M04/M07 A3031 RMK AS2CI5 SLP304

CYXE;2016-03-20 03:00;CYXE 200300Z 12008KT 15SM SCT140 BKN300 M04/M06 A3030 RMK AC4CI3 SLP298

CYXE;2016-03-20 04:00;CYXE 200400Z 10006KT 15SM OVC140 M05/M07 A3029 RMK AC8 SLP295

CYXE;2016-03-20 05:00;CYXE 200500Z 12006KT 15SM OVC140 M03/M06 A3028 RMK AC8 SLP291

CYXE;2016-03-20 06:00;CYXE 200600Z 12007KT 15SM OVC140 M03/M07 A3027 RMK AC8 SLP284

CYXE;2016-03-20 07:00;CYXE 200700Z 14006KT 15SM BKN150 M03/M07 A3025 RMK AC6 SLP278

CYXE;2016-03-20 08:00;CYXE 200800Z 11006KT 15SM FEW150 SCT200 M07/M09 A3024 RMK AS2CS2 SLP276

CYXE;2016-03-20 09:00;CYXE 200900Z 10007KT 15SM SCT220 M07/M08 A3022 RMK CI3 SLP269

CYXE;2016-03-20 10:00;CYXE 201000Z 10006KT 15SM FEW140 BKN230 M06/M08 A3020 RMK AC2CS5 SLP261

CYXE;2016-03-20 11:00;CYXE 201100Z 11007KT 15SM BKN230 M06/M08 A3019 RMK CS5 SLP258

CYXE;2016-03-20 12:00;CYXE 201200Z 11008KT 15SM BKN230 M06/M08 A3018 RMK CI5 SLP256

CYXE;2016-03-20 13:00;CYXE 201300Z 11010KT 15SM SCT140 BKN230 M05/M07 A3018 RMK AC4CI1 SLP253

CYXE;2016-03-20 14:00;CYXE 201400Z 13010KT 15SM SCT140 BKN250 M05/M07 A3017 RMK AC4CI2 SLP252

CYXE;2016-03-20 15:00;CYXE 201500Z 12012KT 15SM OVC150 M04/M06 A3016 RMK AC8 SLP247

CYXE;2016-03-20 16:00;CYXE 201600Z 12011KT 15SM SCT150 BKN250 M02/M06 A3014 RMK AC3CI2 SLP241

CYXE;2016-03-20 17:00;CYXE 201700Z 12012G17KT 15SM FEW150 BKN250 01/M05 A3014 RMK AC1CI6 SLP237

CYXE;2016-03-20 18:00;CYXE 201800Z 13015KT 15SM FEW150 OVC250 02/M05 A3011 RMK AC1CI7 SLP227

CYXE;2016-03-20 19:00;CYXE 201900Z 13016KT 15SM BKN250 03/M04 A3009 RMK CI5 SLP221

CYXE;2016-03-20 20:00;CYXE 202000Z 12013G18KT 15SM BKN250 04/M03 A3008 RMK CI7 SLP217

CYXE;2016-03-20 21:00;CYXE 202100Z 12014KT 15SM BKN300 05/M04 A3005 RMK CI6 SLP208

CYXE;2016-03-20 22:00;CYXE 202200Z 12013G19KT 15SM BKN300 05/M03 A3004 RMK CI7 SLP201

CYXE;2016-03-20 23:00;CYXE 202300Z 11015G21KT 15SM BKN300 04/M03 A3002 RMK CI7 SLP195

CYXE;2016-03-21 00:00;CYXE 210000Z 10013KT 15SM BKN300 04/M02 A3001 RMK CI7 SLP193

CYXE;2016-03-21 00:41;CYXE 210041Z 07013KT 15SM OVC300 02/M01 A3001 RMK CI8 SLP194

CYXE;2016-03-21 01:00;CYXE 210100Z 07012KT 15SM OVC300 01/M02 A3001 RMK CI8 SLP193

CYXE;2016-03-21 02:00;CYXE 210200Z 08015KT 15SM SCT110 OVC300 M00/M03 A3000 RMK AC4CI4 SLP192

CYXE;2016-03-21 03:00;CYXE 210300Z 09014KT 15SM OVC110 M01/M03 A2999 RMK AC8 SLP186

CYXE;2016-03-21 04:00;CYXE 210400Z 09013KT 15SM OVC110 M01/M03 A2997 RMK AC8 SLP179

CYXE;2016-03-21 05:00;CYXE 210500Z 08011KT 15SM OVC100 M01/M04 A2996 RMK AC8 SLP175

CYXE;2016-03-21 06:00;CYXE 210600Z 09014KT 15SM BKN100 BKN180 M02/M04 A2995 RMK AC5CI1 SLP169

CYXE;2016-03-21 07:00;CYXE 210700Z 06010G17KT 15SM BKN100 M02/M05 A2992 RMK AC6 SLP161

CYXE;2016-03-21 08:00;CYXE 210800Z 06013KT 15SM BKN110 M02/M05 A2992 RMK AC6 SLP157

CYXE;2016-03-21 09:00;CYXE 210900Z 07015KT 15SM BKN110 M02/M04 A2991 RMK AC6 SLP154

CYXE;2016-03-21 10:00;CYXE 211000Z 08013G19KT 15SM BKN110 M02/M05 A2989 RMK AC5 SLP147

CYXE;2016-03-21 11:00;CYXE 211100Z 08011KT 15SM BKN120 M02/M04 A2988 RMK AC7 SLP145

CYXE;2016-03-21 12:00;CYXE 211200Z 08013KT 15SM BKN120 M02/M05 A2986 RMK AC7 SLP139

CYXE;2016-03-21 13:00;CYXE 211300Z 08013KT 15SM BKN120 OVC300 M03/M05 A2985 RMK AC6CI2 SLP137

CYXE;2016-03-21 14:00;CYXE 211400Z 08014G20KT 15SM FEW120 BKN300 M03/M05 A2984 RMK AC2CI5 SLP134

CYXE;2016-03-21 15:00;CYXE 211500Z 08016KT 15SM FEW090 SCT120 BKN300 M03/M05 A2984 RMK AC1AC3CI3 SLP136

CYXE;2016-03-21 16:00;CYXE 211600Z 07015KT 15SM FEW015 OVC100 M02/M05 A2983 RMK SF1AC7 SLP132

CYXE;2016-03-21 17:00;CYXE 211700Z 07018KT 15SM FEW020 OVC140 M01/M05 A2983 RMK SF1AS7 SLP131

CYXE;2016-03-21 18:00;CYXE 211800Z 06015KT 15SM FEW020 OVC100 M01/M05 A2982 RMK SF1AS7 SLP128

CYXE;2016-03-21 19:00;CYXE 211900Z 08017KT 15SM FEW017 OVC100 M01/M04 A2982 RMK SF1AS7 SLP126

CYXE;2016-03-21 20:00;CYXE 212000Z 08016G23KT 15SM SCT018 OVC085 M00/M04 A2981 RMK SF3AS5 SLP123

CYXE;2016-03-21 21:00;CYXE 212100Z 07016G24KT 15SM BKN018 OVC090 M01/M04 A2981 RMK SC5AS3 SLP123

CYXE;2016-03-21 22:00;CYXE 212200Z 07016G23KT 15SM OVC018 M01/M04 A2981 RMK SC8 SLP124

CYXE;2016-03-21 23:00;CYXE 212300Z 07020G25KT 15SM OVC019 M02/M05 A2981 RMK SC8 SLP125

CYXE;2016-03-21 23:34;CYXE 212334Z 07019G25KT 12SM -SN OVC019 M02/M06 A2981 RMK SC8 SLP125

CYXE;2016-03-22 00:00;CYXE 220000Z 08020G28KT 3SM -SN OVC019 M02/M05 A2981 RMK SC8 SLP124

CYXE;2016-03-22 00:07;CYXE 220007Z 07018G26KT 1 1/2SM -SN OVC012 M03/M05 A2981 RMK SN2SC6 SLP125

CYXE;2016-03-22 00:19;CYXE 220019Z 08017G25KT 1SM R09/P6000FT/N -SN VV007 M03/M05 A2981 RMK SN8 SLP125

CYXE;2016-03-22 01:00;CYXE 220100Z 07020KT 1SM R09/P6000FT/N -SN VV008 M03/M05 A2982 RMK SN8 SLP129

CYXE;2016-03-22 01:30;CYXE 220130Z 07019KT 2SM -SN DRSN VV008 M03/M05 A2983 RMK SN8 SLP132

CYXE;2016-03-22 02:00;CYXE 220200Z 07016G27KT 3SM -SN DRSN OVC010 M04/M05 A2983 RMK SC8 SLP132

CYXE;2016-03-22 02:38;CYXE 220238Z 07018G24KT 6SM -SN DRSN OVC009 M04/M05 A2983 RMK SC8 SLP132

CYXE;2016-03-22 03:00;CYXE 220300Z 07017G24KT 5SM -SN DRSN OVC009 M04/M05 A2983 RMK SC8 SLP133

CYXE;2016-03-22 04:00;CYXE 220400Z 07016G24KT 5SM -SN DRSN OVC009 M04/M05 A2984 RMK SC8 SLP137

CYXE;2016-03-22 05:00;CYXE 220500Z 07017G23KT 5SM -SN DRSN OVC009 M05/M06 A2984 RMK SC8 SLP138

CYXE;2016-03-22 06:00;CYXE 220600Z 07020KT 5SM -SN DRSN OVC009 M05/M06 A2985 RMK SC8 SLP139

CYXE;2016-03-22 06:35;CYXE 220635Z 07016G25KT 2SM -SN DRSN OVC005 M06/M06 A2985 RMK SC8 VIS VAR 1-3 SLP139

CYXE;2016-03-22 07:00;CYXE 220700Z 07016G22KT 2SM -SN DRSN OVC005 M06/M07 A2985 RMK SC8 VIS VAR 1-3 SLP140

CYXE;2016-03-22 08:00;CYXE 220800Z 06018KT 2SM -SN DRSN OVC008 M06/M07 A2985 RMK SC8 VIS VAR 1-3 SLP140

CYXE;2016-03-22 09:00;CYXE 220900Z 07018KT 3SM -SN DRSN OVC008 M07/M08 A2985 RMK SC8 SLP142

CYXE;2016-03-22 10:00;CYXE 221000Z 07017G23KT 3SM -SN DRSN OVC009 M07/M08 A2986 RMK SC8 SLP143

CYXE;2016-03-22 10:39;CYXE 221039Z 07016KT 5SM -SN DRSN SCT009 OVC015 M07/M08 A2987 RMK SF4SC4 SLP146

CYXE;2016-03-22 11:00;CYXE 221100Z 07015G23KT 6SM -SN DRSN SCT014 OVC030 M07/M08 A2987 RMK SC4SC4 SLP148

CYXE;2016-03-22 12:00;CYXE 221200Z 06014KT 6SM -SN DRSN FEW010 OVC040 M07/M09 A2989 RMK SF2SC6 SLP155

CYXE;2016-03-22 13:00;CYXE 221300Z 06016KT 6SM -SN DRSN FEW010 OVC050 M08/M09 A2991 RMK SF2SC6 SLP164

CYXE;2016-03-22 14:00;CYXE 221400Z 07015G21KT 5SM -SN DRSN FEW010 OVC038 M08/M09 A2993 RMK SC2SC6 SLP170

CYXE;2016-03-22 15:00;CYXE 221500Z 07017KT 6SM -SN DRSN SCT010 OVC037 M08/M10 A2995 RMK SC4SC4 SLP178

CYXE;2016-03-22 16:00;CYXE 221600Z 08015KT 6SM -SN DRSN SCT016 OVC035 M07/M10 A2997 RMK SC4SC4 SLP185

CYXE;2016-03-22 17:00;CYXE 221700Z 08015KT 3SM -SN DRSN SCT012 OVC022 M06/M09 A2999 RMK SC4SC4 SLP191

CYXE;2016-03-22 18:00;CYXE 221800Z 10013KT 3SM -SN SCT012 OVC020 M05/M09 A3001 RMK SC4SC4 SLP197

CYXE;2016-03-22 19:00;CYXE 221900Z 08012KT 8SM -SN SCT016 OVC032 M05/M09 A3002 RMK SC4SC4 SLP202

CYXE;2016-03-22 20:00;CYXE 222000Z 06014KT 3SM -SN BKN017 OVC028 M05/M08 A3004 RMK SC5SC3 SLP208

CYXE;2016-03-22 20:09;CYXE 222009Z 06013KT 2SM -SN OVC018 M06/M08 A3004 RMK SN3SC5 SLP208

CYXE;2016-03-22 20:45;CYXE 222045Z 07013KT 4SM -SN BKN018 OVC030 M05/M07 A3005 RMK SC5SC3 SLP210

CYXE;2016-03-22 21:00;CYXE 222100Z 08011KT 4SM -SN BKN018 OVC030 M05/M08 A3005 RMK SC5SC3 SLP211

CYXE;2016-03-22 21:23;CYXE 222123Z 07011KT 4SM -SN BKN011 OVC030 M05/M07 A3005 RMK SF6SC2 SLP212

CYXE;2016-03-22 22:00;CYXE 222200Z 06012KT 4SM -SN OVC011 M05/M08 A3006 RMK SF8 SLP215

CYXE;2016-03-22 23:00;CYXE 222300Z 08011KT 6SM -SN OVC012 M05/M08 A3007 RMK SF8 SLP220

CYXE;2016-03-23 00:00;CYXE 230000Z 08010KT 6SM -SN OVC013 M05/M08 A3008 RMK SF8 SLP223

CYXE;2016-03-23 01:00;CYXE 230100Z 09010KT 6SM -SN SCT011 OVC018 M06/M08 A3010 RMK SF3ST5 SLP229

CYXE;2016-03-23 02:00;CYXE 230200Z 10007KT 6SM -SN SCT010 BKN055 M06/M08 A3011 RMK SF3SC3 SLP233

CYXE;2016-03-23 03:00;CYXE 230300Z 12008KT 6SM -SN FEW011 BKN043 M06/M08 A3012 RMK SF2SC4 SLP237

CYXE;2016-03-23 04:00;CYXE 230400Z 13005KT 6SM -SN SCT040 BKN060 M07/M08 A3013 RMK SC3SC3 SLP240

CYXE;2016-03-23 05:00;CYXE 230500Z 14005KT 6SM -SN FEW015 BKN038 OVC078 M07/M08 A3013 RMK SF1SC4AC3 SLP240

CYXE;2016-03-23 06:00;CYXE 230600Z 15008KT 5SM -SN BKN022 OVC074 M06/M08 A3013 RMK SC6AC2 SLP238

CYXE;2016-03-23 07:00;CYXE 230700Z 15009KT 10SM -SN FEW022 SCT074 OVC110 M07/M08 A3011 RMK SC2AC2AC4 SLP234

CYXE;2016-03-23 08:00;CYXE 230800Z 17005KT 15SM -SN BKN035 OVC065 M07/M08 A3010 RMK SC5SC3 SLP231

CYXE;2016-03-23 09:00;CYXE 230900Z 15007KT 15SM -SN OVC030 M06/M07 A3010 RMK SC8 SLP228

CYXE;2016-03-23 10:00;CYXE 231000Z 17009KT 15SM -SN OVC030 M06/M07 A3009 RMK SC8 SLP224

CYXE;2016-03-23 11:00;CYXE 231100Z 17009KT 15SM -SN OVC027 M05/M07 A3008 RMK SC8 SLP221

CYXE;2016-03-23 12:00;CYXE 231200Z 18011KT 12SM -SN OVC029 M05/M07 A3008 RMK SC8 SLP221

CYXE;2016-03-23 13:00;CYXE 231300Z 19012KT 15SM -SN OVC027 M05/M06 A3006 RMK SC8 SLP216

CYXE;2016-03-23 13:23;CYXE 231323Z 19013KT 2SM -SN OVC028 M05/M06 A3007 RMK SC8 VIS VRB 1-3 SLP218

CYXE;2016-03-23 14:00;CYXE 231400Z 20011KT 2SM -SN OVC009 M05/M06 A3006 RMK SN4SC4 SLP217

CYXE;2016-03-23 15:00;CYXE 231500Z 20009G15KT 2SM -SN DRSN OVC012 M04/M05 A3005 RMK SC8 /S01/ SLP212

CYXE;2016-03-23 15:21;CYXE 231521Z 20010KT 5SM -SN DRSN OVC018 M04/M05 A3005 RMK SC8 SLP212

CYXE;2016-03-23 16:00;CYXE 231600Z 21011KT 15SM -SN SCT015 OVC040 M03/M05 A3005 RMK SC3SC5 SLP209

CYXE;2016-03-23 16:37;CYXE 231637Z 22011KT 15SM SCT012 OVC037 M02/M04 A3005 RMK SC3SC5 SLP209

CYXE;2016-03-23 17:00;CYXE 231700Z 23012KT 15SM SCT012 OVC033 M02/M04 A3004 RMK SC3SC5 SLP206

CYXE;2016-03-23 18:00;CYXE 231800Z 22012KT 15SM FEW012 OVC048 M01/M03 A3003 RMK SC2SC6 SLP201

CYXE;2016-03-23 19:00;CYXE 231900Z 24013KT 15SM FEW015 OVC032 00/M03 A3002 RMK SC2SC6 SLP198

CYXE;2016-03-23 20:00;CYXE 232000Z 23013KT 15SM BKN022 BKN040 01/M03 A3000 RMK SC5SC2 SLP193

CYXE;2016-03-23 21:00;CYXE 232100Z 24014KT 15SM BKN033 OVC038 02/M03 A2998 RMK SC6SC2 SLP183

CYXE;2016-03-23 22:00;CYXE 232200Z CCA 28015KT 15SM BKN030 02/M03 A2998 RMK SC7 SLP183

CYXE;2016-03-23 23:00;CYXE 232300Z 31012KT 15SM SCT033 01/M04 A2998 RMK SC4 SLP185

CYXE;2016-03-24 00:00;CYXE 240000Z 33010KT 15SM FEW300 01/M04 A2998 RMK CI1 SLP182

CYXE;2016-03-24 01:00;CYXE 240100Z 34004KT 15SM FEW300 M02/M04 A2998 RMK CI2 SLP185

CYXE;2016-03-24 02:00;CYXE 240200Z 30004KT 15SM SCT200 M02/M05 A2998 RMK CI3 SLP184

CYXE;2016-03-24 03:00;CYXE 240300Z 32002KT 15SM SCT200 M05/M05 A2997 RMK CI3 SLP184

CYXE;2016-03-24 04:00;CYXE 240400Z 04002KT 15SM FEW210 M06/M06 A2997 RMK CI1 SLP182

CYXE;2016-03-24 05:00;CYXE 240500Z 09003KT 15SM FEW210 M06/M06 A2995 RMK CI1 SLP176

CYXE;2016-03-24 06:00;CYXE 240600Z 08004KT 15SM BKN084 M06/M06 A2993 RMK AC5 SLP167

CYXE;2016-03-24 07:00;CYXE 240700Z 10004KT 15SM BKN082 M04/M05 A2991 RMK AC7 SLP159

CYXE;2016-03-24 08:00;CYXE 240800Z 12006KT 15SM OVC055 M03/M05 A2988 RMK SC8 SLP149

CYXE;2016-03-24 09:00;CYXE 240900Z 07005KT 15SM BKN055 M04/M04 A2987 RMK SC7 SLP144

CYXE;2016-03-24 10:00;CYXE 241000Z 11007KT 15SM OVC055 M03/M05 A2985 RMK SC8 SLP137

CYXE;2016-03-24 11:00;CYXE 241100Z 10008KT 15SM OVC048 M03/M05 A2983 RMK SC8 SLP129

CYXE;2016-03-24 11:25;CYXE 241125Z 12009KT 15SM -SN OVC040 M03/M05 A2981 RMK SC8 SLP123

CYXE;2016-03-24 12:00;CYXE 241200Z 10009KT 15SM -SN OVC040 M03/M05 A2980 RMK SC8 SLP120

CYXE;2016-03-24 12:51;CYXE 241251Z 10011KT 2SM -SN BR OVC029 M03/M05 A2978 RMK SC8 SLP114

CYXE;2016-03-24 13:00;CYXE 241300Z 10012KT 2SM -SN BR OVC029 M03/M05 A2978 RMK SC8 VIS VRB 1-3 SLP115

CYXE;2016-03-24 13:24;CYXE 241324Z 11012KT 8SM -SN OVC032 M03/M05 A2978 RMK SC8 SLP115

CYXE;2016-03-24 14:00;CYXE 241400Z 11013KT 4SM -SN DRSN OVC023 M03/M05 A2977 RMK SC8 SLP112

CYXE;2016-03-24 14:19;CYXE 241419Z 10012KT 2SM -SN DRSN VV009 M03/M04 A2977 RMK SN8 SLP110

CYXE;2016-03-24 14:43;CYXE 241443Z 11014KT 1SM R09/5500VP6000FT/D -SN DRSN VV008 M03/M04 A2976 RMK SN8 SLP108

CYXE;2016-03-24 15:00;CYXE 241500Z 11016KT 1 1/2SM -SN DRSN OVC019 M03/M04 A2976 RMK SN4SC4 /S01/ SLP109

CYXE;2016-03-24 15:40;CYXE 241540Z 09013KT 2 1/2SM -SN DRSN SCT009 BKN024 OVC060 M03/M04 A2976 RMK SC4SC2SC2 SLP109

CYXE;2016-03-24 16:00;CYXE 241600Z 09013KT 3SM -SN DRSN BKN008 BKN032 OVC060 M03/M04 A2976 RMK SF5SC2SC1 SLP111

CYXE;2016-03-24 16:35;CYXE 241635Z 09014KT 8SM -SN DRSN SCT008 SCT031 OVC060 M03/M04 A2975 RMK SF3SC1SC4 SLP107

CYXE;2016-03-24 17:00;CYXE 241700Z 08012KT 8SM -SN DRSN SCT008 BKN028 OVC060 M02/M04 A2976 RMK SF3SC3SC2 SLP109

CYXE;2016-03-24 18:00;CYXE 241800Z 07012KT 15SM -SN SCT010 OVC025 M01/M03 A2974 RMK SC4SC4 SLP103

CYXE;2016-03-24 19:00;CYXE 241900Z 06013KT 15SM SCT012 OVC026 M01/M04 A2975 RMK SC3SC5 SLP106

CYXE;2016-03-24 20:00;CYXE 242000Z 08015KT 15SM BKN016 OVC030 M00/M04 A2976 RMK SC5SC3 SLP108

CYXE;2016-03-24 21:00;CYXE 242100Z 09015KT 15SM SCT018 BKN034 M00/M04 A2978 RMK SC4SC3 SLP113

CYXE;2016-03-24 22:00;CYXE 242200Z 07015KT 15SM SCT018 BKN037 BKN120 M01/M05 A2979 RMK SC3SC3AC1 SLP119

CYXE;2016-03-24 23:00;CYXE 242300Z 06014KT 15SM OVC020 M01/M05 A2981 RMK SC8 SLP124

CYXE;2016-03-25 00:00;CYXE 250000Z 07014KT 15SM FEW020 SCT043 BKN110 M02/M06 A2982 RMK SC2SC1AC3 SLP128

CYXE;2016-03-25 01:00;CYXE 250100Z 05010KT 15SM FEW048 OVC110 M02/M07 A2984 RMK SC2AC6 SLP135

CYXE;2016-03-25 02:00;CYXE 250200Z 04008KT 15SM BKN050 OVC100 M03/M07 A2986 RMK SC6AC2 SLP141

CYXE;2016-03-25 03:00;CYXE 250300Z 05008KT 15SM BKN055 M03/M07 A2988 RMK SC6 SLP150

CYXE;2016-03-25 04:00;CYXE 250400Z 04008KT 15SM SCT055 M04/M07 A2989 RMK SC3 SLP155

CYXE;2016-03-25 05:00;CYXE 250500Z 05006KT 15SM BKN055 M04/M07 A2991 RMK SC6 SLP161

CYXE;2016-03-25 06:00;CYXE 250600Z 04007KT 15SM BKN054 M05/M08 A2993 RMK SC7 SLP169

CYXE;2016-03-25 07:00;CYXE 250700Z 05003KT 15SM SCT062 M08/M10 A2994 RMK SC4 SLP172

CYXE;2016-03-25 08:00;CYXE 250800Z 06006KT 15SM BKN055 M05/M08 A2995 RMK SC7 SLP175

CYXE;2016-03-25 09:00;CYXE 250900Z 06006KT 15SM OVC058 M06/M08 A2997 RMK SC8 SLP181

CYXE;2016-03-25 10:00;CYXE 251000Z 03004KT 15SM OVC063 M06/M08 A2999 RMK SC8 SLP187

CYXE;2016-03-25 11:00;CYXE 251100Z 07006KT 15SM OVC060 M06/M09 A3000 RMK SC8 SLP190

CYXE;2016-03-25 12:00;CYXE 251200Z 04003KT 15SM OVC062 M06/M08 A3000 RMK SC8 SLP194

CYXE;2016-03-25 13:00;CYXE 251300Z 06006KT 15SM OVC060 M06/M08 A3002 RMK SC8 SLP201

CYXE;2016-03-25 13:17;CYXE 251317Z 04003KT 15SM -SHSN OVC060 M06/M08 A3003 RMK SC8 CU EMBD SLP203

CYXE;2016-03-25 14:00;CYXE 251400Z 09006KT 15SM -SHSN BKN045 OVC060 M06/M08 A3003 RMK SC5SC3 SLP204

CYXE;2016-03-25 15:00;CYXE 251500Z 14004KT 15SM -SHSN SCT040 BKN065 M05/M08 A3004 RMK SC3SC4 CU EMBD SLP206

CYXE;2016-03-25 15:19;CYXE 251519Z 18003KT 150V250 15SM FEW040 BKN060 M04/M08 A3005 RMK SC2SC5 SLP209

CYXE;2016-03-25 15:46;CYXE 251546Z 16003KT 110V210 15SM -SHSN FEW040 BKN060 M04/M07 A3005 RMK SC2SC5 CU EMBD SLP210

CYXE;2016-03-25 16:00;CYXE 251600Z 21003KT 120V230 15SM -SHSN SCT035 BKN060 M04/M07 A3005 RMK SC3SC4 CU EMBD SLP210

CYXE;2016-03-25 17:00;CYXE 251700Z 21007KT 10SM -SHSN SCT040 OVC060 M02/M06 A3006 RMK SC4SC4 CU EMBD SLP213

CYXE;2016-03-25 18:00;CYXE 251800Z 20004KT 160V230 15SM -SHSN FEW015 BKN035 M02/M06 A3007 RMK CU2SC5 SLP216

CYXE;2016-03-25 19:00;CYXE 251900Z 24009KT 190V260 12SM -SHSN SCT024 OVC040 M00/M05 A3007 RMK SC4SC4 CU EMBD SLP216

CYXE;2016-03-25 20:00;CYXE 252000Z 25010KT 210V270 10SM -SHSN SCT030 BKN060 01/M06 A3006 RMK CU4SC3 SLP212

CYXE;2016-03-25 21:00;CYXE 252100Z 25010KT 15SM SCT030 BKN055 02/M05 A3005 RMK SC4SC3 SLP208

CYXE;2016-03-25 22:00;CYXE 252200Z 23010KT 15SM SCT030 BKN050 02/M04 A3004 RMK CU4SC3 SLP204

CYXE;2016-03-25 23:00;CYXE 252300Z 22008KT 15SM BKN030 BKN040 01/M04 A3004 RMK SC5SC2 SLP205

CYXE;2016-03-26 00:00;CYXE 260000Z 22009KT 15SM BKN030 BKN043 01/M04 A3003 RMK SC5SC2 SLP202

CYXE;2016-03-26 01:00;CYXE 260100Z 21007KT 15SM BKN044 01/M04 A3003 RMK SC7 SLP201

CYXE;2016-03-26 02:00;CYXE 260200Z 19006KT 15SM BKN036 01/M03 A3003 RMK SC7 SLP201

CYXE;2016-03-26 03:00;CYXE 260300Z 19010KT 15SM OVC034 01/M04 A3002 RMK SC8 SLP196

CYXE;2016-03-26 03:50;CYXE 260350Z 19010KT 15SM -SN OVC030 01/M04 A3001 RMK SC8 SLP195

CYXE;2016-03-26 04:00;CYXE 260400Z 20012KT 10SM -SN OVC029 01/M04 A3002 RMK SC8 SLP195

CYXE;2016-03-26 05:00;CYXE 260500Z 19013KT 15SM -SN OVC027 00/M04 A3000 RMK SC8 SLP188

CYXE;2016-03-26 06:00;CYXE 260600Z 18012KT 15SM -SN BKN030 M00/M04 A2999 RMK SC7 SLP184

CYXE;2016-03-26 06:50;CYXE 260650Z 20012KT 15SM BKN033 M00/M04 A2997 RMK SC6 SLP179

CYXE;2016-03-26 07:00;CYXE 260700Z 19012KT 15SM SCT033 BKN100 M00/M03 A2997 RMK SC3AC4 SLP177

CYXE;2016-03-26 08:00;CYXE 260800Z 20011KT 15SM FEW033 BKN075 OVC100 M00/M04 A2995 RMK SC2AC3AC3 SLP171

CYXE;2016-03-26 09:00;CYXE 260900Z 21009KT 15SM BKN073 OVC100 M00/M04 A2993 RMK AC5AC3 SLP164

CYXE;2016-03-26 10:00;CYXE 261000Z 20006KT 15SM BKN094 M01/M04 A2993 RMK AC7 SLP163

CYXE;2016-03-26 11:00;CYXE 261100Z 22007KT 15SM BKN100 M01/M03 A2992 RMK AC5 SLP158

CYXE;2016-03-26 11:54;CYXE 261154Z 22009G16KT 15SM -SN BKN074 OVC100 M00/M01 A2991 RMK AC5AC3 SLP155

CYXE;2016-03-26 12:00;CYXE 261200Z 22008G16KT 210V270 15SM -SN BKN074 OVC100 M00/M01 A2991 RMK AC5AC3 SLP155

CYXE;2016-03-26 12:08;CYXE 261208Z 24006KT 15SM SCT074 BKN100 M00/M01 A2991 RMK AC4AC3 SLP155

CYXE;2016-03-26 13:00;CYXE 261300Z 22007KT 15SM BKN070 OVC100 M00/M01 A2990 RMK AC6AC2 SLP154

CYXE;2016-03-26 13:13;CYXE 261313Z 24009KT 15SM -SHSN BKN070 OVC100 00/M00 A2990 RMK ACC6AC2 SLP152

CYXE;2016-03-26 13:41;CYXE 261341Z 23008KT 15SM VCSH SCT080 OVC120 00/M00 A2989 RMK ACC3AC5 SLP150

CYXE;2016-03-26 14:00;CYXE 261400Z 23009KT 15SM VCSH SCT080 BKN120 OVC250 01/M00 A2989 RMK ACC3AC4CI1 SLP150

CYXE;2016-03-26 14:36;CYXE 261436Z 24010KT 15SM -SHRA BKN040 OVC100 01/M00 A2989 RMK SC5ACC3 SLP150

CYXE;2016-03-26 15:00;CYXE 261500Z 25009KT 15SM -SHRA BKN040 OVC100 01/00 A2989 RMK SC7ACC1 SLP150

CYXE;2016-03-26 15:47;CYXE 261547Z 24009KT 15SM VCSH BKN035 OVC100 02/01 A2989 RMK SC6ACC2 SLP148

CYXE;2016-03-26 16:00;CYXE 261600Z 24010KT 15SM VCSH BKN035 BKN100 02/02 A2989 RMK SC5ACC2 SLP149

CYXE;2016-03-26 16:40;CYXE 261640Z 23012KT 15SM FEW005 SCT030 BKN090 02/02 A2989 RMK SF2SC2AC3 SLP149

CYXE;2016-03-26 17:00;CYXE 261700Z 24011G18KT 15SM SCT005 BKN030 BKN090 03/02 A2989 RMK SF4SC1AC2 SLP149

CYXE;2016-03-26 18:00;CYXE 261800Z 25013KT 15SM 05/03 A2988 RMK SLP144

CYXE;2016-03-26 19:00;CYXE 261900Z 30011KT 15SM SCT025 BKN082 06/02 A2987 RMK SC3AC3 SLP140

CYXE;2016-03-26 20:00;CYXE 262000Z 31009KT 15SM SCT025 BKN080 07/03 A2987 RMK CU3AC2 SLP138

CYXE;2016-03-26 21:00;CYXE 262100Z 32013KT 15SM SCT035 07/01 A2986 RMK CU3 SLP136

CYXE;2016-03-26 22:00;CYXE 262200Z 31013G19KT 15SM FEW025 SCT300 07/00 A2987 RMK CU2CI1 SLP139

CYXE;2016-03-26 23:00;CYXE 262300Z 32012G21KT 15SM FEW025 FEW300 06/M01 A2988 RMK CU1CC1 SLP143

CYXE;2016-03-27 00:00;CYXE 270000Z 32010G16KT 15SM FEW030 FEW300 05/M02 A2989 RMK CU1CI1 SLP146

CYXE;2016-03-27 01:00;CYXE 270100Z 31007KT 15SM FEW040 02/M01 A2990 RMK SC1 SLP152

CYXE;2016-03-27 02:00;CYXE 270200Z 01006KT 15SM FEW040 01/M02 A2991 RMK SC1 SLP157

CYXE;2016-03-27 03:00;CYXE 270300Z 03007KT 15SM FEW040 M00/M03 A2993 RMK SC1 SLP163

CYXE;2016-03-27 04:00;CYXE 270400Z 03007KT 15SM FEW030 M01/M04 A2993 RMK SC1 SLP164

CYXE;2016-03-27 05:00;CYXE 270500Z 00000KT 15SM SKC M02/M04 A2994 RMK SLP167

CYXE;2016-03-27 06:00;CYXE 270600Z 04003KT 15SM SKC M02/M04 A2995 RMK SLP168

CYXE;2016-03-27 07:00;CYXE 270700Z 05003KT 15SM SCT250 M03/M04 A2995 RMK CI3 SLP167

CYXE;2016-03-27 08:00;CYXE 270800Z 04006KT 15SM SKC M04/M05 A2995 RMK SLP167

CYXE;2016-03-27 09:00;CYXE 270900Z 05004KT 15SM SKC M04/M06 A2995 RMK SLP167

CYXE;2016-03-27 10:00;CYXE 271000Z 07003KT 15SM SKC M04/M06 A2994 RMK SLP165

CYXE;2016-03-27 11:00;CYXE 271100Z 05005KT 15SM FEW160 M05/M06 A2994 RMK AC2 SLP167

CYXE;2016-03-27 12:00;CYXE 271200Z 05004KT 15SM SCT160 M05/M06 A2994 RMK AC3 SLP168

CYXE;2016-03-27 13:00;CYXE 271300Z 07005KT 15SM FEW050 SCT160 M05/M06 A2994 RMK SC1AC2 SLP168

CYXE;2016-03-27 14:00;CYXE 271400Z 08004KT 15SM BKN050 BKN140 M03/M04 A2995 RMK SC5AC1 SLP171

CYXE;2016-03-27 15:00;CYXE 271500Z 11004KT 15SM SCT050 BKN140 M01/M03 A2995 RMK SC3AC3 SLP170

CYXE;2016-03-27 16:00;CYXE 271600Z 12006KT 15SM BKN050 BKN140 01/M03 A2995 RMK SC5AC1 SLP169

CYXE;2016-03-27 17:00;CYXE 271700Z 10009KT 15SM FEW050 FEW140 BKN240 03/M02 A2995 RMK SC1AC1CI5 SLP168

CYXE;2016-03-27 18:00;CYXE 271800Z 12006KT 15SM FEW050 SCT140 BKN280 04/M02 A2995 RMK SC2AC1CI4 SLP168

CYXE;2016-03-27 19:00;CYXE 271900Z 12007KT 080V150 15SM FEW050 BKN280 05/M01 A2994 RMK SC1CI5 SLP165

CYXE;2016-03-27 20:00;CYXE 272000Z 12009KT 15SM FEW040 BKN280 05/M01 A2993 RMK CU1CI5 SLP163

CYXE;2016-03-27 21:00;CYXE 272100Z 14011KT 15SM SCT030 BKN300 06/M01 A2992 RMK CU3CI2 SLP161

CYXE;2016-03-27 22:00;CYXE 272200Z 12009KT 15SM SCT030 SCT300 06/M01 A2992 RMK CU3CI1 SLP160

CYXE;2016-03-27 23:00;CYXE 272300Z 10009G15KT 15SM FEW030 FEW300 05/M01 A2992 RMK CU1CI1 SLP160

CYXE;2016-03-28 00:00;CYXE 280000Z 09014KT 15SM FEW025 04/M01 A2993 RMK CU1 SLP164

CYXE;2016-03-28 00:51;CYXE 280051Z 10011KT 15SM SKC 03/M01 A2993 RMK SLP165

CYXE;2016-03-28 01:00;CYXE 280100Z 09013KT 15SM SKC 02/M02 A2993 RMK SLP167

CYXE;2016-03-28 02:00;CYXE 280200Z 09009KT 15SM FEW300 01/M02 A2994 RMK CI1 SLP168

CYXE;2016-03-28 03:00;CYXE 280300Z 09010KT 15SM SKC M01/M02 A2995 RMK SLP170

CYXE;2016-03-28 04:00;CYXE 280400Z 10009KT 15SM SKC M01/M03 A2995 RMK SLP170

CYXE;2016-03-28 05:00;CYXE 280500Z 10008KT 15SM SKC M01/M03 A2996 RMK SLP171

CYXE;2016-03-28 06:00;CYXE 280600Z 11010KT 15SM SKC M01/M03 A2995 RMK SLP169

CYXE;2016-03-28 07:00;CYXE 280700Z 10007KT 15SM SCT280 M01/M03 A2996 RMK CI3 SLP170

CYXE;2016-03-28 08:00;CYXE 280800Z 13011KT 15SM FEW090 SCT280 M02/M03 A2997 RMK AC1CI3 SLP174

CYXE;2016-03-28 09:00;CYXE 280900Z 09007KT 15SM BKN100 M02/M03 A2997 RMK AC6 SLP174

CYXE;2016-03-28 10:00;CYXE 281000Z 10010KT 15SM BKN100 M02/M03 A2997 RMK AC5 SLP174

CYXE;2016-03-28 11:00;CYXE 281100Z 11008KT 15SM FEW100 BKN280 M02/M03 A2997 RMK AC1CI5 SLP176

CYXE;2016-03-28 12:00;CYXE 281200Z 11009KT 15SM SCT090 BKN280 M02/M03 A2998 RMK AC4CI3 SLP181

CYXE;2016-03-28 13:00;CYXE 281300Z 11009KT 15SM BKN080 BKN280 M02/M03 A2998 RMK AC5CI2 SLP181

CYXE;2016-03-28 14:00;CYXE 281400Z 12012KT 15SM BKN085 BKN280 M01/M03 A2999 RMK AC6CI1 SLP184

CYXE;2016-03-28 15:00;CYXE 281500Z 12011KT 15SM BKN090 BKN280 M01/M03 A3000 RMK AC6CI1 SLP189

CYXE;2016-03-28 16:00;CYXE 281600Z 11011KT 15SM BKN100 BKN280 01/M02 A3000 RMK AC6CI1 SLP187

CYXE;2016-03-28 17:00;CYXE 281700Z 12008G15KT 15SM SCT100 SCT280 04/M01 A3002 RMK AC3CI1 SLP194

CYXE;2016-03-28 18:00;CYXE 281800Z 10007KT 15SM SCT100 SCT280 05/00 A3002 RMK AC3CI1 SLP192

CYXE;2016-03-28 19:00;CYXE 281900Z 13010KT 15SM FEW100 SCT280 06/01 A3003 RMK AC1CI2 SLP195

CYXE;2016-03-28 20:00;CYXE 282000Z 13009KT 090V150 15SM FEW100 SCT280 08/02 A3003 RMK AC1CI2 SLP193

CYXE;2016-03-28 21:00;CYXE 282100Z 12010KT 15SM FEW100 BKN280 09/02 A3002 RMK AC2CI3 SLP190

CYXE;2016-03-28 22:00;CYXE 282200Z 14009KT 090V170 15SM SCT100 BKN300 09/02 A3002 RMK AC3CI2 SLP189

CYXE;2016-03-28 23:00;CYXE 282300Z 14009KT 15SM SCT100 BKN300 09/01 A3002 RMK AC3CI3 SLP191

CYXE;2016-03-29 00:00;CYXE 290000Z 14008KT 15SM SCT100 BKN300 08/02 A3003 RMK AC3CI3 SLP193

CYXE;2016-03-29 01:00;CYXE 290100Z 14006KT 15SM SCT100 BKN300 07/01 A3003 RMK AC3CI3 SLP196

CYXE;2016-03-29 02:00;CYXE 290200Z 19006KT 15SM BKN090 BKN300 05/00 A3005 RMK AC5CI2 SLP202

CYXE;2016-03-29 03:00;CYXE 290300Z 19006KT 15SM BKN090 04/01 A3006 RMK AC6 SLP205

CYXE;2016-03-29 04:00;CYXE 290400Z 20005KT 15SM BKN090 04/01 A3007 RMK AC6 SLP208

CYXE;2016-03-29 04:45;CYXE 290445Z 25003KT 190V280 15SM BKN100 02/01 A3007 RMK AC7 SLP211

CYXE;2016-03-29 05:00;CYXE 290500Z 22005KT 15SM BKN100 03/01 A3007 RMK AC7 SLP209

CYXE;2016-03-29 06:00;CYXE 290600Z 25004KT 15SM OVC100 02/01 A3007 RMK AC8 SLP208

CYXE;2016-03-29 07:00;CYXE 290700Z 24004KT 15SM BKN100 01/01 A3007 RMK AC7 SLP208

CYXE;2016-03-29 08:00;CYXE 290800Z 24006KT 15SM BKN090 00/00 A3008 RMK AC7 SLP209

CYXE;2016-03-29 09:00;CYXE 290900Z 23008KT 15SM BKN090 M00/M00 A3007 RMK AC5 SLP206

CYXE;2016-03-29 10:00;CYXE 291000Z 24005KT 15SM SCT080 M00/M00 A3007 RMK AC4 SLP206

CYXE;2016-03-29 11:00;CYXE 291100Z 25006KT 15SM SCT080 M01/M01 A3007 RMK AC3 SLP208

CYXE;2016-03-29 12:00;CYXE 291200Z 23008G17KT 15SM FEW080 SCT280 M02/M02 A3008 RMK AC1CI2 SLP210

CYXE;2016-03-29 13:00;CYXE 291300Z 22008KT 15SM FEW280 M01/M01 A3008 RMK CI1 SLP210

CYXE;2016-03-29 14:00;CYXE 291400Z 25008KT 15SM FEW280 00/00 A3008 RMK CI1 SLP210

CYXE;2016-03-29 15:00;CYXE 291500Z 25009KT 15SM FEW100 SCT280 03/01 A3007 RMK AC1CI3 SLP207

CYXE;2016-03-29 16:00;CYXE 291600Z 24008KT 15SM FEW090 SCT210 05/02 A3006 RMK AC1CI2 SLP202

CYXE;2016-03-29 17:00;CYXE 291700Z 26009KT 15SM BKN086 08/01 A3005 RMK AC6 SLP199

CYXE;2016-03-29 18:00;CYXE 291800Z 30006KT 15SM BKN085 08/03 A3005 RMK AC7 SLP198

CYXE;2016-03-29 19:00;CYXE 291900Z 29009KT 15SM FEW021 FEW085 10/02 A3002 RMK CF1AC1 SLP189

CYXE;2016-03-29 20:00;CYXE 292000Z 31011G18KT 15SM FEW026 FEW210 11/02 A3000 RMK CU1CI1 SLP183

CYXE;2016-03-29 21:00;CYXE 292100Z 32017KT 15SM FEW048 SCT210 11/M01 A2999 RMK CU2CI1 SLP177

CYXE;2016-03-29 22:00;CYXE 292200Z 32017KT 15SM FEW050 SCT300 11/M02 A2997 RMK CU1CI3 SLP172

CYXE;2016-03-29 23:00;CYXE 292300Z 31015KT 15SM FEW050 SCT300 10/M03 A2997 RMK CU1CI3 SLP172

CYXE;2016-03-30 00:00;CYXE 300000Z 31014KT 15SM FEW050 SCT300 09/M03 A2996 RMK CU1CI2 SLP171

CYXE;2016-03-30 01:00;CYXE 300100Z 31008KT 15SM SCT300 05/M03 A2996 RMK CI3 SLP171

CYXE;2016-03-30 02:00;CYXE 300200Z 31004KT 15SM BKN300 03/M02 A2997 RMK CI6 SLP174

CYXE;2016-03-30 02:57;CYXE 300257Z 31006KT 15SM SCT300 02/M02 A2997 RMK CI3 SLP176

CYXE;2016-03-30 03:00;CYXE 300300Z 31006KT 15SM FEW300 02/M02 A2997 RMK CI2 SLP174

CYXE;2016-03-30 04:00;CYXE 300400Z 28004KT 15SM SCT200 03/M02 A2996 RMK CI4 SLP170

CYXE;2016-03-30 05:00;CYXE 300500Z 24008KT 15SM BKN200 01/M02 A2995 RMK CI5 SLP165

CYXE;2016-03-30 06:00;CYXE 300600Z 23006KT 15SM BKN130 BKN240 01/M01 A2993 RMK AC5CI1 SLP158

CYXE;2016-03-30 07:00;CYXE 300700Z 25007KT 15SM SCT140 BKN280 01/M02 A2993 RMK AC4CI2 SLP156

CYXE;2016-03-30 08:00;CYXE 300800Z 25008KT 15SM SCT140 SCT280 M01/M02 A2991 RMK AC3CI1 SLP150

CYXE;2016-03-30 09:00;CYXE 300900Z 25007KT 15SM FEW140 SCT280 M01/M02 A2989 RMK AC2CI1 SLP145

CYXE;2016-03-30 10:00;CYXE 301000Z 25007KT 15SM BKN070 M01/M02 A2987 RMK AC6 SLP138

CYXE;2016-03-30 11:00;CYXE 301100Z 27006KT 15SM BKN075 00/M01 A2986 RMK AC7 SLP132

CYXE;2016-03-30 12:00;CYXE 301200Z 26006KT 15SM OVC075 01/M01 A2984 RMK AC8 SLP128

CYXE;2016-03-30 13:00;CYXE 301300Z 29006KT 15SM OVC065 02/M01 A2983 RMK SC8 SLP124

CYXE;2016-03-30 14:00;CYXE 301400Z 27006KT 15SM OVC058 02/M01 A2982 RMK SC8 SLP123

CYXE;2016-03-30 15:00;CYXE 301500Z VRB02KT 15SM FEW040 OVC055 03/M01 A2981 RMK SC2SC6 SLP119

CYXE;2016-03-30 16:00;CYXE 301600Z VRB02KT 15SM -RA OVC060 04/00 A2980 RMK SC8 SLP114

CYXE;2016-03-30 17:00;CYXE 301700Z 29005KT 15SM -RA BKN028 OVC060 05/02 A2979 RMK SC5SC3 SLP112

CYXE;2016-03-30 17:24;CYXE 301724Z 32004KT 290V350 15SM SCT030 OVC065 06/01 A2978 RMK SC3SC5 SLP106

CYXE;2016-03-30 18:00;CYXE 301800Z 34004KT 15SM SCT045 OVC060 07/02 A2977 RMK SC3SC5 SLP102

CYXE;2016-03-30 19:00;CYXE 301900Z 35008KT 15SM SCT035 OVC065 07/02 A2977 RMK SC4SC4 SLP102

CYXE;2016-03-30 19:09;CYXE 301909Z 35010KT 15SM -SHRA SCT030 OVC055 07/03 A2977 RMK CU4SC4 SLP103

CYXE;2016-03-30 20:00;CYXE 302000Z 34011G16KT 15SM -SHRA SCT020 OVC040 06/03 A2978 RMK CU3SC5 SLP110

CYXE;2016-03-30 20:37;CYXE 302037Z 01012KT 15SM SCT020 BKN060 06/02 A2978 RMK CU4SC3 SLP109

CYXE;2016-03-30 21:00;CYXE 302100Z 01012KT 15SM SCT025 BKN070 07/02 A2979 RMK CU3AC3 SLP111

CYXE;2016-03-30 22:00;CYXE 302200Z 01013G20KT 15SM SCT025 BKN070 09/02 A2981 RMK CU3AC3 SLP116

CYXE;2016-03-30 23:00;CYXE 302300Z 36021KT 15SM BKN040 BKN080 07/M01 A2982 RMK CU5AC2 SLP120

CYXE;2016-03-31 00:00;CYXE 310000Z 01015G22KT 15SM BKN080 07/M02 A2983 RMK AC6 SLP125

CYXE;2016-03-31 01:00;CYXE 310100Z 36011G17KT 15SM BKN090 06/M01 A2986 RMK AC6 SLP135

CYXE;2016-03-31 01:46;CYXE 310146Z 36007KT 15SM SCT090 02/M02 A2987 RMK AC4 SLP141

CYXE;2016-03-31 02:00;CYXE 310200Z 35006KT 15SM SCT090 02/M01 A2988 RMK AC4 SLP144

CYXE;2016-03-31 03:00;CYXE 310300Z 33007KT 15SM FEW090 00/M02 A2990 RMK AC1 SLP150

CYXE;2016-03-31 04:00;CYXE 310400Z 32009KT 15SM SKC M00/M03 A2991 RMK SLP153

CYXE;2016-03-31 05:00;CYXE 310500Z 31007KT 15SM FEW080 M01/M03 A2990 RMK AC2 SLP152

CYXE;2016-03-31 06:00;CYXE 310600Z 29006KT 15SM SCT070 M01/M02 A2990 RMK AC4 SLP150

CYXE;2016-03-31 07:00;CYXE 310700Z 29007KT 15SM BKN070 00/M02 A2991 RMK AC6 SLP151

CYXE;2016-03-31 08:00;CYXE 310800Z 28007KT 15SM SCT070 M01/M03 A2990 RMK AC3 SLP149

CYXE;2016-03-31 09:00;CYXE 310900Z 35013G18KT 15SM BKN080 02/M03 A2991 RMK AC6 SLP150

CYXE;2016-03-31 10:00;CYXE 311000Z 36017G24KT 15SM SCT090 01/M03 A2993 RMK AC4 SLP157

CYXE;2016-03-31 11:00;CYXE 311100Z 35013KT 15SM FEW090 M01/M04 A2995 RMK AC1 SLP165

CYXE;2016-03-31 12:00;CYXE 311200Z 35017KT 15SM SCT040 M01/M05 A2996 RMK SC3 SLP172

CYXE;2016-03-31 13:00;CYXE 311300Z 35016KT 15SM BKN040 M01/M05 A2998 RMK SC6 SLP179

CYXE;2016-03-31 14:00;CYXE 311400Z 35016G24KT 15SM BKN042 M00/M05 A3000 RMK SC6 SLP188

CYXE;2016-03-31 15:00;CYXE 311500Z 36019G25KT 15SM SCT045 00/M05 A3002 RMK SC3 SLP193

CYXE;2016-03-31 16:00;CYXE 311600Z 35021G28KT 15SM FEW030 SCT050 01/M05 A3003 RMK CU2SC1 SLP198

CYXE;2016-03-31 17:00;CYXE 311700Z 35018KT 15SM BKN031 BKN220 01/M05 A3005 RMK SC6CI1 SLP204

CYXE;2016-03-31 18:00;CYXE 311800Z 34018KT 15SM FEW030 OVC040 00/M07 A3006 RMK SC2SC6 SLP210

CYXE;2016-03-31 19:00;CYXE 311900Z 33015G24KT 12SM -SN OVC035 00/M06 A3007 RMK SC8 SLP210

CYXE;2016-03-31 20:00;CYXE 312000Z 34018G23KT 15SM SCT035 OVC045 01/M06 A3008 RMK SC3SC5 SLP214

CYXE;2016-03-31 20:26;CYXE 312026Z 34018G23KT 15SM -SHSN BKN045 01/M07 A3008 RMK SC7 CU EMBD SLP215

CYXE;2016-03-31 21:00;CYXE 312100Z 34014G21KT 15SM BKN040 BKN220 02/M07 A3008 RMK SC5CI1 SLP213

CYXE;2016-03-31 22:00;CYXE 312200Z 34014G23KT 15SM BKN040 BKN220 02/M07 A3008 RMK SC5CI1 SLP212

CYXE;2016-03-31 23:00;CYXE 312300Z 34015G21KT 15SM SCT040 BKN220 02/M09 A3008 RMK CU3CI2 SLP213

CYXE;2016-04-01 00:00;CYXE 010000Z 35015G22KT 15SM FEW040 SCT220 01/M10 A3008 RMK CU2CI1 SLP215

CYXE;2016-04-01 01:00;CYXE 010100Z 35010KT 15SM FEW040 SCT220 00/M09 A3009 RMK CU1CI2 SLP219

CYXE;2016-04-01 02:00;CYXE 010200Z 34006KT 15SM FEW160 FEW250 M03/M09 A3010 RMK AC1CI1 SLP223

CYXE;2016-04-01 03:00;CYXE 010300Z 35005KT 15SM FEW150 M04/M08 A3011 RMK AC1 SLP229

CYXE;2016-04-01 04:00;CYXE 010400Z VRB02KT 15SM FEW150 M04/M07 A3011 RMK AC1 SLP227

CYXE;2016-04-01 05:00;CYXE 010500Z 27004KT 15SM SKC M06/M08 A3012 RMK SLP231

CYXE;2016-04-01 06:00;CYXE 010600Z 22003KT 15SM SCT110 M05/M07 A3010 RMK AC4 SLP226

CYXE;2016-04-01 07:00;CYXE 010700Z 25004KT 15SM BKN110 M05/M07 A3010 RMK AC5 SLP225

CYXE;2016-04-01 08:00;CYXE 010800Z 25005KT 15SM BKN110 M04/M07 A3010 RMK AC5 SLP224

CYXE;2016-04-01 09:00;CYXE 010900Z 20004KT 15SM SCT060 BKN110 M03/M06 A3008 RMK SC3AC4 SLP217

CYXE;2016-04-01 10:00;CYXE 011000Z 20006KT 15SM OVC060 M03/M07 A3006 RMK SC8 SLP210

CYXE;2016-04-01 11:00;CYXE 011100Z 22007KT 15SM OVC050 M02/M05 A3005 RMK SC8 SLP203

CYXE;2016-04-01 12:00;CYXE 011200Z 22009KT 15SM OVC050 M01/M04 A3001 RMK SC8 SLP190

CYXE;2016-04-01 13:00;CYXE 011300Z 23011KT 15SM OVC060 M01/M04 A3000 RMK SC8 SLP186

CYXE;2016-04-01 14:00;CYXE 011400Z 23012KT 15SM BKN055 00/M03 A2997 RMK SC7 SLP179

CYXE;2016-04-01 15:00;CYXE 011500Z 25016KT 15SM FEW055 BKN110 02/M02 A2996 RMK SC2AC5 SLP174

CYXE;2016-04-01 16:00;CYXE 011600Z 26017KT 15SM BKN100 03/M01 A2993 RMK AC7 PRESFR SLP165

CYXE;2016-04-01 17:00;CYXE 011700Z 29014G20KT 15SM BKN100 06/M02 A2993 RMK AC7 SLP163

CYXE;2016-04-01 18:00;CYXE 011800Z 31018G25KT 15SM BKN100 07/M01 A2993 RMK AC7 SLP161

CYXE;2016-04-01 19:00;CYXE 011900Z 31017G25KT 15SM BKN110 08/M01 A2992 RMK AC5 SLP158

CYXE;2016-04-01 20:00;CYXE 012000Z 31016G24KT 15SM FEW110 09/M00 A2992 RMK AC1 SLP158

CYXE;2016-04-01 21:00;CYXE 012100Z 31022G29KT 15SM FEW045 FEW300 11/M01 A2991 RMK CF1CI1 CF TR SLP153

CYXE;2016-04-01 22:00;CYXE 012200Z 33019G27KT 15SM FEW300 11/M01 A2992 RMK CI1 SLP157

CYXE;2016-04-01 23:00;CYXE 012300Z 32014G23KT 15SM FEW045 FEW300 10/M00 A2994 RMK CF1CI1 SLP162

CYXE;2016-04-02 00:00;CYXE 020000Z 33014G21KT 15SM FEW045 FEW160 SCT300 10/M01 A2996 RMK CF1AC2CI1 CF TR SLP167

CYXE;2016-04-02 01:00;CYXE 020100Z 32011G16KT 15SM FEW300 08/M01 A2996 RMK CI1 SLP169

CYXE;2016-04-02 02:00;CYXE 020200Z 01006KT 15SM FEW300 03/M00 A2997 RMK CI1 SLP176

CYXE;2016-04-02 03:00;CYXE 020300Z 02004KT 15SM SKC 03/M02 A2999 RMK SLP180

CYXE;2016-04-02 03:23;CYXE 020323Z 01004KT 15SM SKC 02/M02 A2999 RMK SLP182

CYXE;2016-04-02 04:00;CYXE 020400Z 32004KT 15SM SKC 02/M02 A2999 RMK SLP181

CYXE;2016-04-02 05:00;CYXE 020500Z 33005KT 15SM SKC 00/M02 A2999 RMK SLP181

CYXE;2016-04-02 06:00;CYXE 020600Z 06003KT 15SM SKC 00/M02 A2999 RMK SLP179

CYXE;2016-04-02 07:00;CYXE 020700Z 09005KT 15SM SKC M01/M04 A2998 RMK SLP176

CYXE;2016-04-02 08:00;CYXE 020800Z 13005KT 15SM SKC M02/M06 A2996 RMK SLP169

CYXE;2016-04-02 09:00;CYXE 020900Z 18007KT 15SM SKC M03/M06 A2993 RMK SLP160

CYXE;2016-04-02 10:00;CYXE 021000Z 18005KT 15SM SKC M02/M05 A2993 RMK SLP159

CYXE;2016-04-02 11:00;CYXE 021100Z 17005KT 15SM SKC M03/M05 A2991 RMK SLP151

CYXE;2016-04-02 12:00;CYXE 021200Z 16007KT 15SM SKC M03/M05 A2987 RMK SLP138

CYXE;2016-04-02 13:00;CYXE 021300Z 17006KT 15SM SKC M02/M04 A2983 RMK PRESFR SLP124

CYXE;2016-04-02 14:00;CYXE 021400Z 19009KT 15SM FEW300 01/M02 A2979 RMK CI1 CI TR SLP113

CYXE;2016-04-02 15:00;CYXE 021500Z 19009KT 15SM FEW300 03/M01 A2975 RMK CI1 SLP098

CYXE;2016-04-02 16:00;CYXE 021600Z 22010KT 15SM FEW300 08/01 A2971 RMK CI1 SLP083

CYXE;2016-04-02 17:00;CYXE 021700Z 23013KT 15SM FEW300 11/02 A2968 RMK CI1 SLP070 DENSITY ALT 1800FT

CYXE;2016-04-02 18:00;CYXE 021800Z 25016KT 15SM SKC 15/03 A2964 RMK SLP057 DENSITY ALT 2300FT

CYXE;2016-04-02 19:00;CYXE 021900Z 25016G23KT 15SM SKC 19/02 A2961 RMK SLP042 DENSITY ALT 2800FT

CYXE;2016-04-02 20:00;CYXE 022000Z 26012KT 15SM SKC 20/03 A2957 RMK SLP030 DENSITY ALT 3000FT

CYXE;2016-04-02 21:00;CYXE 022100Z 31014KT 15SM SKC 21/04 A2956 RMK SLP024 DENSITY ALT 3100FT

CYXE;2016-04-02 22:00;CYXE 022200Z 30016G23KT 15SM FEW300 21/03 A2953 RMK CI1 SLP016 DENSITY ALT 3100FT

CYXE;2016-04-02 23:00;CYXE 022300Z 30012G18KT 15SM SCT300 21/02 A2951 RMK CI3 SLP009 DENSITY ALT 3100FT

CYXE;2016-04-03 00:00;CYXE 030000Z 31014KT 15SM BKN300 19/03 A2951 RMK CI5 SLP008 DENSITY ALT 2900FT

CYXE;2016-04-03 01:00;CYXE 030100Z 33008KT 15SM OVC300 14/03 A2951 RMK CI8 SLP014 DENSITY ALT 2400FT

CYXE;2016-04-03 02:00;CYXE 030200Z 32009KT 15SM BKN280 11/03 A2951 RMK CI7 SLP013 DENSITY ALT 1900FT

CYXE;2016-04-03 03:00;CYXE 030300Z 03011KT 15SM BKN240 09/03 A2952 RMK CI7 SLP014 DENSITY ALT 1800FT

CYXE;2016-04-03 04:00;CYXE 030400Z 05011KT 15SM SCT120 OVC240 04/02 A2954 RMK AC4CI4 SLP021

CYXE;2016-04-03 05:00;CYXE 030500Z 06003KT 15SM OVC080 04/03 A2956 RMK AC8 PRESRR SLP026

CYXE;2016-04-03 06:00;CYXE 030600Z 07007KT 350V080 15SM SCT040 BKN120 03/02 A2957 RMK SC3AC3 PRESFR SLP028

CYXE;2016-04-03 07:00;CYXE 030700Z 07007KT 15SM SCT120 01/M00 A2960 RMK AC4 SLP037

CYXE;2016-04-03 08:00;CYXE 030800Z 04008KT 15SM SCT120 M01/M02 A2963 RMK AC3 SLP050

CYXE;2016-04-03 09:00;CYXE 030900Z 04007KT 15SM SKC M03/M04 A2967 RMK SLP064

CYXE;2016-04-03 10:00;CYXE 031000Z 04006KT 15SM SKC M04/M05 A2968 RMK SLP067

CYXE;2016-04-03 11:00;CYXE 031100Z 04013KT 15SM FEW015 SCT070 M04/M05 A2975 RMK SC2AC1 PRESRR SLP091

CYXE;2016-04-03 11:51;CYXE 031151Z 04011KT 15SM SCT008 BKN013 M04/M05 A2979 RMK SF3SC3 SLP107

CYXE;2016-04-03 12:00;CYXE 031200Z 04012KT 15SM SCT008 BKN013 M04/M05 A2980 RMK SF3SC4 SLP110

CYXE;2016-04-03 12:50;CYXE 031250Z 02012KT 15SM OVC010 M04/M06 A2984 RMK SC8 SLP123

CYXE;2016-04-03 13:00;CYXE 031300Z 02012KT 15SM OVC010 M04/M06 A2984 RMK SC8 SLP126

CYXE;2016-04-03 14:00;CYXE 031400Z 04009KT 15SM BKN010 M04/M06 A2987 RMK SC7 SLP140

CYXE;2016-04-03 15:00;CYXE 031500Z 04005KT 15SM SCT010 M03/M06 A2990 RMK SC4 SLP149

CYXE;2016-04-03 16:00;CYXE 031600Z 34005KT 330V050 15SM SCT015 M03/M06 A2993 RMK SC4 SLP163

CYXE;2016-04-03 17:00;CYXE 031700Z 33008KT 15SM BKN020 00/M05 A2996 RMK SC7 SLP172

CYXE;2016-04-03 18:00;CYXE 031800Z 28005KT 220V020 15SM FEW020 BKN052 01/M05 A2996 RMK CF2SC5 PRESRR SLP172

CYXE;2016-04-03 19:00;CYXE 031900Z 27007KT 240V310 15SM BKN060 03/M04 A2996 RMK SC6 SLP171

CYXE;2016-04-03 20:00;CYXE 032000Z 32006KT 280V360 15SM SCT030 OVC060 04/M03 A2997 RMK CU4SC4 SLP177

CYXE;2016-04-03 21:00;CYXE 032100Z 34011KT 15SM OVC037 03/M02 A3000 RMK SC8 SLP186

CYXE;2016-04-03 21:32;CYXE 032132Z 06010KT 350V080 15SM BKN040 OVC072 03/M03 A2999 RMK SC6AC2 WSHFT 2125 SLP185

CYXE;2016-04-03 21:43;CYXE 032143Z 08010KT 15SM BKN040 OVC072 02/M03 A2999 RMK SC6AC2 SLP185

CYXE;2016-04-03 22:00;CYXE 032200Z 07008KT 15SM BKN045 OVC075 02/M03 A3000 RMK SC6AC2 SLP187

CYXE;2016-04-03 23:00;CYXE 032300Z 06009KT 15SM BKN040 01/M03 A3002 RMK SC7 PRESRR SLP196

CYXE;2016-04-04 00:00;CYXE 040000Z 06011KT 15SM BKN031 M00/M04 A3004 RMK SC7 SLP205

CYXE;2016-04-04 01:00;CYXE 040100Z 06012KT 15SM BKN034 M02/M04 A3008 RMK SC7 SLP220

CYXE;2016-04-04 02:00;CYXE 040200Z 06009KT 15SM BKN035 M02/M04 A3010 RMK SC7 SLP228

CYXE;2016-04-04 03:00;CYXE 040300Z 07007KT 15SM SCT011 OVC038 M02/M04 A3014 RMK SC4SC4 SLP239

CYXE;2016-04-04 04:00;CYXE 040400Z 07009KT 15SM BKN012 OVC038 M03/M05 A3015 RMK SC5SC3 SLP244

CYXE;2016-04-04 04:46;CYXE 040446Z 09012KT 15SM SCT012 OVC029 M03/M06 A3016 RMK SC3SC5 SLP247

CYXE;2016-04-04 05:00;CYXE 040500Z 09010KT 15SM FEW012 OVC029 M03/M06 A3016 RMK SC2SC6 SLP246

CYXE;2016-04-04 06:00;CYXE 040600Z 10009KT 15SM OVC030 M04/M07 A3018 RMK SC8 SLP249

CYXE;2016-04-04 07:00;CYXE 040700Z 12007KT 15SM BKN030 M04/M08 A3018 RMK SC6 SLP251

CYXE;2016-04-04 08:00;CYXE 040800Z 13008KT 15SM BKN030 M05/M08 A3018 RMK SC5 SLP251

CYXE;2016-04-04 09:00;CYXE 040900Z 12005KT 15SM FEW030 M06/M08 A3019 RMK SC2 SLP255

CYXE;2016-04-04 10:00;CYXE 041000Z 14004KT 15SM FEW030 M08/M09 A3019 RMK SC1 SLP256

CYXE;2016-04-04 11:00;CYXE 041100Z 16004KT 15SM SKC M08/M09 A3020 RMK SLP261

CYXE;2016-04-04 12:00;CYXE 041200Z 15005KT 15SM SKC M07/M09 A3019 RMK SLP258

CYXE;2016-04-04 13:00;CYXE 041300Z 12003KT 15SM FEW250 M08/M09 A3018 RMK CI1 SLP257

CYXE;2016-04-04 14:00;CYXE 041400Z 12006KT 15SM FEW250 M05/M07 A3018 RMK CI1 SLP253

CYXE;2016-04-04 15:00;CYXE 041500Z 13008KT 15SM FEW250 M03/M08 A3018 RMK CI2 SLP254

CYXE;2016-04-04 16:00;CYXE 041600Z 12010KT 15SM FEW250 M01/M09 A3017 RMK CI2 SLP247

CYXE;2016-04-04 17:00;CYXE 041700Z 13010G17KT 15SM FEW080 BKN280 00/M09 A3014 RMK AC1CI5 SLP237

CYXE;2016-04-04 18:00;CYXE 041800Z 12009G16KT 15SM SCT120 BKN280 01/M07 A3012 RMK AC3CI4 PRESFR SLP229

CYXE;2016-04-04 19:00;CYXE 041900Z 12013KT 15SM FEW100 BKN120 BKN280 03/M06 A3008 RMK AC2AC3CI2 SLP216

CYXE;2016-04-04 20:00;CYXE 042000Z 12010KT 15SM OVC085 03/M06 A3006 RMK AS8 SLP210

CYXE;2016-04-04 21:00;CYXE 042100Z 11011G17KT 15SM OVC083 03/M05 A3003 RMK AS8 SLP201

CYXE;2016-04-04 22:00;CYXE 042200Z 12012G18KT 15SM SCT080 BKN120 OVC220 05/M03 A3000 RMK AC4AC2CI2 SLP188

CYXE;2016-04-04 23:00;CYXE 042300Z 12017KT 15SM SCT120 OVC230 05/M02 A2996 RMK AC4CS4 SLP175

CYXE;2016-04-05 00:00;CYXE 050000Z 14016G22KT 15SM FEW080 BKN120 OVC230 05/M02 A2994 RMK AC2AC4CS2 SLP170

CYXE;2016-04-05 01:00;CYXE 050100Z 11012G18KT 15SM BKN090 OVC230 04/M02 A2991 RMK AC6CS2 SLP158

CYXE;2016-04-05 02:00;CYXE 050200Z 10012G22KT 15SM SCT090 BKN150 OVC230 03/M02 A2986 RMK AC3AC3CS2 SLP140

CYXE;2016-04-05 03:00;CYXE 050300Z 10015G21KT 15SM SCT120 OVC200 03/M02 A2983 RMK AC3CS5 SLP129

CYXE;2016-04-05 04:00;CYXE 050400Z 09015G21KT 15SM SCT120 OVC200 03/M02 A2982 RMK AC3CS5 SLP124

CYXE;2016-04-05 05:00;CYXE 050500Z 10018G23KT 15SM BKN090 OVC200 03/M02 A2978 RMK AC6CS2 SLP111

CYXE;2016-04-05 06:00;CYXE 050600Z 09015KT 15SM SCT100 OVC170 02/M02 A2977 RMK AC4AS4 SLP105

CYXE;2016-04-05 07:00;CYXE 050700Z 10013G22KT 15SM FEW100 BKN170 02/M02 A2975 RMK AC2AS5 SLP098

CYXE;2016-04-05 08:00;CYXE 050800Z 10016KT 15SM FEW110 OVC200 02/M02 A2971 RMK AC2CI6 SLP086

CYXE;2016-04-05 09:00;CYXE 050900Z 10017KT 15SM BKN100 OVC180 02/M02 A2970 RMK AC5CI3 SLP081

CYXE;2016-04-05 10:00;CYXE 051000Z 07013G19KT 15SM BKN090 OVC180 01/M02 A2969 RMK AC5AS3 SLP078

CYXE;2016-04-05 11:00;CYXE 051100Z 06013G19KT 15SM SCT090 OVC140 00/M02 A2970 RMK AC4AS4 SLP081

CYXE;2016-04-05 12:00;CYXE 051200Z 06018G23KT 15SM OVC100 00/M02 A2971 RMK AS8 SLP085

CYXE;2016-04-05 13:00;CYXE 051300Z 06016G22KT 15SM OVC100 00/M03 A2974 RMK AC8 SLP097

CYXE;2016-04-05 14:00;CYXE 051400Z 06023KT 15SM SCT018 OVC100 01/M03 A2976 RMK SC3AC5 SLP104

CYXE;2016-04-05 15:00;CYXE 051500Z 05017G24KT 15SM BKN016 OVC047 M01/M03 A2979 RMK SC5SC3 SLP115

CYXE;2016-04-05 15:16;CYXE 051516Z 05016G25KT 8SM -SN BKN015 OVC047 M01/M03 A2980 RMK SC6SC2 SLP118

CYXE;2016-04-05 15:35;CYXE 051535Z 04017G22KT 2SM -SN DRSN VV008 M01/M02 A2982 RMK SN8 VIS VRB 1-3 SLP124

CYXE;2016-04-05 16:00;CYXE 051600Z 04015G21KT 1 1/2SM -SN BR VV007 M01/M02 A2983 RMK SN8 VIS VRB 1-2 SLP127

CYXE;2016-04-05 16:18;CYXE 051618Z 03014KT 3SM -SN BR OVC012 M01/M01 A2984 RMK SC8 PRESRR SLP132

CYXE;2016-04-05 16:29;CYXE 051629Z 03016G21KT 6SM -SN BR OVC015 M00/M02 A2985 RMK SC8 SLP136

CYXE;2016-04-05 16:41;CYXE 051641Z 03014G21KT 12SM OVC014 M00/M02 A2986 RMK SC8 SLP139

CYXE;2016-04-05 17:00;CYXE 051700Z 04018KT 15SM -DZSN OVC014 00/M02 A2987 RMK SC8 SLP140

CYXE;2016-04-05 17:15;CYXE 051715Z 03016G21KT 2 1/2SM -DZSN BR OVC013 00/M02 A2988 RMK SC8 SLP143

CYXE;2016-04-05 17:48;CYXE 051748Z 05016G21KT 5SM -DZSN BR BKN012 01/M00 A2987 RMK SC7 SLP141

CYXE;2016-04-05 18:00;CYXE 051800Z 05016G22KT 8SM -DZSN BKN012 01/M00 A2988 RMK SC7 SLP144

CYXE;2016-04-05 18:14;CYXE 051814Z 05017G24KT 15SM BKN012 01/M01 A2988 RMK SC7 SLP145

CYXE;2016-04-05 19:00;CYXE 051900Z 03013G20KT 15SM OVC013 02/M01 A2992 RMK SC8 PRESRR SLP158

CYXE;2016-04-05 20:00;CYXE 052000Z 01014KT 15SM BKN014 OVC030 01/M02 A2997 RMK SC6SC2 PRESRR SLP176

CYXE;2016-04-05 20:48;CYXE 052048Z 36015KT 15SM SCT014 OVC024 02/M02 A2998 RMK SC3SC5 SLP179

CYXE;2016-04-05 21:00;CYXE 052100Z 36012G18KT 15SM FEW014 OVC026 01/M03 A2999 RMK SC2SC6 SLP181

CYXE;2016-04-05 21:39;CYXE 052139Z 36013KT 10SM -SN OVC025 02/M03 A2999 RMK SC8 SLP183

CYXE;2016-04-05 22:00;CYXE 052200Z 01013KT 8SM -SN OVC030 01/M03 A3000 RMK SC8 SLP185

CYXE;2016-04-05 23:00;CYXE 052300Z 36009KT 15SM SCT018 OVC040 02/M02 A3001 RMK SF3SC5 SLP191

CYXE;2016-04-06 00:00;CYXE 060000Z 03008KT 15SM SCT040 BKN092 02/M02 A3000 RMK SC3AC4 SLP185

CYXE;2016-04-06 01:00;CYXE 060100Z VRB02KT 15SM SCT046 BKN090 02/M02 A3002 RMK SC3AC4 SLP193

CYXE;2016-04-06 02:00;CYXE 060200Z 23002KT 15SM OVC036 01/M02 A3002 RMK SC8 SLP192

CYXE;2016-04-06 03:00;CYXE 060300Z 14004KT 15SM OVC023 01/M02 A3002 RMK SC8 SLP194

CYXE;2016-04-06 04:00;CYXE 060400Z 17005KT 15SM OVC021 02/M01 A2999 RMK SC8 SLP185

CYXE;2016-04-06 05:00;CYXE 060500Z 16008KT 15SM OVC025 01/M02 A2997 RMK SC8 SLP177

CYXE;2016-04-06 06:00;CYXE 060600Z 16010KT 15SM SCT022 OVC150 01/M02 A2995 RMK SC4AC4 SLP169

CYXE;2016-04-06 07:00;CYXE 060700Z 17011KT 15SM FEW020 OVC130 01/M01 A2993 RMK SC1AC7 SLP162

CYXE;2016-04-06 08:00;CYXE 060800Z 19010KT 15SM FEW020 OVC070 00/M01 A2992 RMK SC1AC7 SLP158

CYXE;2016-04-06 09:00;CYXE 060900Z 18011G16KT 15SM FEW020 OVC070 00/M01 A2988 RMK SC1AC7 SLP145

CYXE;2016-04-06 10:00;CYXE 061000Z 19010KT 15SM OVC080 00/M01 A2985 RMK AC8 SLP135

CYXE;2016-04-06 11:00;CYXE 061100Z 18005KT 15SM OVC060 00/M00 A2982 RMK SC8 SLP123

CYXE;2016-04-06 12:00;CYXE 061200Z 19007KT 15SM OVC080 01/M00 A2978 RMK AC8 SLP112

CYXE;2016-04-06 12:51;CYXE 061251Z 23008KT 15SM -SHRA OVC080 01/00 A2978 RMK ACC8 SLP112

CYXE;2016-04-06 13:00;CYXE 061300Z 23009KT 15SM -SHRA OVC080 01/00 A2979 RMK ACC8 SLP113

CYXE;2016-04-06 13:24;CYXE 061324Z 22009KT 15SM SCT050 BKN075 01/00 A2977 RMK SC4AC3 SLP106

CYXE;2016-04-06 14:00;CYXE 061400Z 23009KT 15SM FEW050 SCT075 02/01 A2976 RMK SC2AC2 SLP104

CYXE;2016-04-06 15:00;CYXE 061500Z 28011KT 15SM FEW050 SCT075 07/02 A2974 RMK SC2AC2 SLP092

CYXE;2016-04-06 16:00;CYXE 061600Z 30024G31KT 15SM FEW036 SCT060 11/02 A2972 RMK CU2SC2 SLP084 DENSITY ALT 1700FT

CYXE;2016-04-06 17:00;CYXE 061700Z 31030G39KT 15SM SCT040 11/M00 A2973 RMK CU3 SLP087 DENSITY ALT 1700FT

CYXE;2016-04-06 18:00;CYXE 061800Z 31031G38KT 15SM FEW040 SCT250 11/01 A2974 RMK CU2CI2 SLP090 DENSITY ALT 1700FT

CYXE;2016-04-06 19:00;CYXE 061900Z 32033G44KT 15SM SCT043 BKN250 10/M00 A2977 RMK CU4CI1 SLP101

CYXE;2016-04-06 20:00;CYXE 062000Z 32032G38KT 15SM BKN060 11/M01 A2976 RMK CU6 SLP098 DENSITY ALT 1700FT

CYXE;2016-04-06 21:00;CYXE 062100Z 31035G43KT 15SM BKN060 11/M01 A2978 RMK SC5 SLP103 DENSITY ALT 1700FT

CYXE;2016-04-06 22:00;CYXE 062200Z 31029G42KT 15SM BKN054 11/M01 A2980 RMK CU5 SLP112

CYXE;2016-04-06 23:00;CYXE 062300Z 34028G40KT 15SM BKN054 09/M01 A2982 RMK CU6 SLP121

CYXE;2016-04-07 00:00;CYXE 070000Z 34028G33KT 15SM BKN045 10/M01 A2986 RMK CU5 SLP133

CYXE;2016-04-07 01:00;CYXE 070100Z 35021G27KT 15SM BKN050 07/M00 A2991 RMK CU5 SLP150

CYXE;2016-04-07 02:00;CYXE 070200Z 33014G19KT 15SM FEW050 06/M02 A2993 RMK CU2 SLP160

CYXE;2016-04-07 02:44;CYXE 070244Z 33008KT 15SM SCT050 02/M02 A2996 RMK CU3 SLP173

CYXE;2016-04-07 03:00;CYXE 070300Z 34008G16KT 15SM FEW040 BKN110 03/M01 A2998 RMK CU2AC3 SLP174

CYXE;2016-04-07 03:24;CYXE 070324Z 33009KT 15SM FEW040 FEW110 02/M02 A2999 RMK CU1AC1 SLP177

CYXE;2016-04-07 04:00;CYXE 070400Z 33007KT 15SM FEW100 01/M03 A3000 RMK AC2 SLP181

CYXE;2016-04-07 05:00;CYXE 070500Z 30007KT 15SM FEW100 M02/M03 A3003 RMK AC2 SLP192

CYXE;2016-04-07 06:00;CYXE 070600Z 30009KT 15SM BKN060 M00/M03 A3004 RMK SC5 SLP195

CYXE;2016-04-07 07:00;CYXE 070700Z 29008KT 15SM BKN060 01/M02 A3005 RMK SC7 SLP196

CYXE;2016-04-07 08:00;CYXE 070800Z 28009KT 15SM OVC056 01/M02 A3005 RMK SC8 SLP199

CYXE;2016-04-07 09:00;CYXE 070900Z 29008KT 15SM OVC057 01/M02 A3007 RMK SC8 SLP203

CYXE;2016-04-07 10:00;CYXE 071000Z 31006KT 15SM OVC051 00/M02 A3008 RMK SC8 SLP209

CYXE;2016-04-07 11:00;CYXE 071100Z 30009KT 15SM SCT045 M01/M03 A3010 RMK SC3 SLP218

CYXE;2016-04-07 12:00;CYXE 071200Z 32010KT 15SM BKN038 M00/M03 A3013 RMK SC7 SLP225

CYXE;2016-04-07 13:00;CYXE 071300Z 34007KT 15SM BKN033 M00/M02 A3015 RMK SC7 SLP236

CYXE;2016-04-07 14:00;CYXE 071400Z 36008KT 15SM BKN035 01/M03 A3018 RMK SC6 SLP245

CYXE;2016-04-07 15:00;CYXE 071500Z 36013G19KT 15SM SCT026 01/M05 A3020 RMK SC4 SLP254

CYXE;2016-04-07 16:00;CYXE 071600Z 01013KT 15SM 01/M05 A3023 RMK SLP264

CYXE;2016-04-07 17:00;CYXE 071700Z 02010KT 340V040 15SM SCT029 BKN300 02/M06 A3023 RMK SC4CI1 SLP267

CYXE;2016-04-07 18:02;CYXE 071802Z VRB05KT 15SM SCT032 SCT300 02/M06 A3023 RMK CU3CI1 SLP264

CYXE;2016-04-07 19:00;CYXE 071900Z VRB05KT 15SM FEW035 SCT300 04/M06 A3023 RMK CU2CI2 SLP262

CYXE;2016-04-07 20:00;CYXE 072000Z 32011KT 270V360 15SM FEW042 SCT300 06/M05 A3022 RMK CF1CI3 SLP259

CYXE;2016-04-07 21:00;CYXE 072100Z 33011G17KT 270V360 15SM FEW042 SCT300 07/M05 A3021 RMK CU2CI2 SLP254

CYXE;2016-04-07 22:00;CYXE 072200Z 32013G20KT 300V020 15SM FEW045 FEW100 SCT300 08/M05 A3019 RMK CU1AC1CI2 SLP248

CYXE;2016-04-07 23:00;CYXE 072300Z 33017KT 15SM FEW045 FEW100 SCT300 07/M04 A3019 RMK CU1AC1CI2 SLP250

CYXE;2016-04-08 00:00;CYXE 080000Z 34012G18KT 15SM FEW050 FEW110 07/M05 A3020 RMK CU1AC1 SLP251

CYXE;2016-04-08 01:00;CYXE 080100Z 35010KT 15SM FEW110 06/M04 A3020 RMK AC1 SLP252

CYXE;2016-04-08 02:00;CYXE 080200Z 34006KT 15SM FEW110 02/M04 A3020 RMK AC1 SLP256

CYXE;2016-04-08 03:00;CYXE 080300Z 04007KT 15SM FEW110 01/M04 A3022 RMK AC1 SLP263

CYXE;2016-04-08 04:00;CYXE 080400Z 07003KT 15SM FEW200 00/M04 A3022 RMK CI2 SLP262

CYXE;2016-04-08 05:00;CYXE 080500Z 07004KT 15SM SCT200 M01/M04 A3022 RMK CI3 SLP262

CYXE;2016-04-08 06:00;CYXE 080600Z 05004KT 15SM SCT200 M02/M04 A3022 RMK CI3 SLP264

CYXE;2016-04-08 07:00;CYXE 080700Z 06004KT 15SM SKC M02/M04 A3024 RMK SLP268

CYXE;2016-04-08 08:00;CYXE 080800Z 04006KT 15SM SKC M03/M05 A3024 RMK SLP269

CYXE;2016-04-08 09:00;CYXE 080900Z 01004KT 15SM SKC M04/M05 A3025 RMK FROIN SLP271

CYXE;2016-04-08 10:00;CYXE 081000Z 05007KT 15SM SKC M05/M06 A3026 RMK SLP274

CYXE;2016-04-08 11:00;CYXE 081100Z 09007KT 15SM SCT210 M06/M06 A3026 RMK CI3 SLP277

CYXE;2016-04-08 12:00;CYXE 081200Z 11006KT 15SM FEW040 FEW210 M05/M07 A3027 RMK SC1CI1 SC TR CI TR SLP279

CYXE;2016-04-08 13:00;CYXE 081300Z 12012KT 15SM FEW210 M04/M06 A3027 RMK CI1 SLP279

CYXE;2016-04-08 14:00;CYXE 081400Z 13015G20KT 15SM FEW250 M03/M06 A3026 RMK CI2 SLP277

CYXE;2016-04-08 15:00;CYXE 081500Z 13012KT 15SM FEW250 M01/M06 A3026 RMK CI2 SLP276

CYXE;2016-04-08 16:00;CYXE 081600Z 13012KT 15SM FEW250 01/M05 A3024 RMK CI2 SLP269

CYXE;2016-04-08 17:00;CYXE 081700Z 14015G22KT 15SM FEW250 02/M05 A3022 RMK CI2 SLP261

CYXE;2016-04-08 18:00;CYXE 081800Z 14015KT 15SM FEW130 BKN250 03/M04 A3019 RMK AC2CI5 SLP251

CYXE;2016-04-08 19:00;CYXE 081900Z 14013G20KT 15SM SCT120 BKN250 05/M05 A3017 RMK AC3CI4 SLP244

CYXE;2016-04-08 20:00;CYXE 082000Z 13015KT 15SM BKN120 OVC250 05/M04 A3014 RMK AC5CI3 PRESFR SLP234

CYXE;2016-04-08 21:00;CYXE 082100Z 14013G20KT 15SM BKN120 OVC250 06/M03 A3009 RMK AC5CI3 SLP217

CYXE;2016-04-08 22:00;CYXE 082200Z 14019KT 15SM SCT120 OVC180 06/M03 A3004 RMK AC4AS4 SLP200

CYXE;2016-04-08 23:00;CYXE 082300Z 14019G24KT 15SM SCT120 OVC180 06/M03 A3000 RMK AC3AS5 SLP186

CYXE;2016-04-09 00:00;CYXE 090000Z 14020KT 15SM FEW120 OVC180 05/M03 A2994 RMK AC2AC6 PRESFR SLP168

CYXE;2016-04-09 01:00;CYXE 090100Z 12019G25KT 15SM FEW120 BKN180 04/M03 A2988 RMK AC2AC5 PRESFR SLP147

CYXE;2016-04-09 02:00;CYXE 090200Z 13018G30KT 15SM FEW120 BKN180 03/M03 A2983 RMK AC2AC4 PRESFR SLP127

CYXE;2016-04-09 02:35;CYXE 090235Z 13022G32KT 15SM BKN250 02/M03 A2979 RMK CI5 SLP116

CYXE;2016-04-09 03:00;CYXE 090300Z 14021G34KT 15SM BKN250 02/M03 A2977 RMK CI5 PRESFR SLP108

CYXE;2016-04-09 04:00;CYXE 090400Z 14019G30KT 15SM BKN250 01/M04 A2971 RMK CI5 SLP088

CYXE;2016-04-09 05:00;CYXE 090500Z 14020G27KT 15SM BKN250 01/M04 A2964 RMK CI6 PRESFR SLP063

CYXE;2016-04-09 06:00;CYXE 090600Z 14022G34KT 15SM BKN240 02/M04 A2959 RMK CI7 PRESFR SLP042

CYXE;2016-04-09 07:00;CYXE 090700Z 14024G33KT 15SM BKN130 OVC200 03/M04 A2952 RMK AC5CI3 PRESFR SLP018

CYXE;2016-04-09 08:00;CYXE 090800Z 14028G34KT 15SM OVC130 03/M05 A2944 RMK AC8 PRESFR SLP991

CYXE;2016-04-09 09:00;CYXE 090900Z 15023G30KT 15SM SCT090 BKN130 03/M05 A2939 RMK AC3AC3 PRESFR SLP974

CYXE;2016-04-09 10:00;CYXE 091000Z 15019G24KT 15SM BKN130 02/M05 A2938 RMK AC6 SLP969

CYXE;2016-04-09 11:00;CYXE 091100Z 14015G21KT 15SM BKN140 02/M05 A2936 RMK AC6 SLP964

CYXE;2016-04-09 12:00;CYXE 091200Z 15012KT 15SM FEW120 SCT160 01/M05 A2935 RMK AC1AC3 PRESRR SLP960

CYXE;2016-04-09 13:00;CYXE 091300Z 17010KT 15SM BKN120 01/M05 A2933 RMK AC6 PRESRR SLP956

CYXE;2016-04-09 14:00;CYXE 091400Z 19006KT 15SM BKN120 02/M04 A2932 RMK AC5 PRESFR SLP950

CYXE;2016-04-09 15:00;CYXE 091500Z 29018G24KT 15SM BKN023 05/M01 A2933 RMK SC7 SLP953

CYXE;2016-04-09 16:00;CYXE 091600Z 30022G32KT 15SM OVC018 05/01 A2933 RMK SC8 SLP953

CYXE;2016-04-09 17:00;CYXE 091700Z 31024G30KT 15SM OVC020 04/M00 A2936 RMK SC8 SLP963

CYXE;2016-04-09 18:00;CYXE 091800Z 32022G29KT 15SM OVC020 04/M01 A2940 RMK SC8 SLP979

CYXE;2016-04-09 18:07;CYXE 091807Z 32022G31KT 15SM -RA OVC020 03/M01 A2941 RMK SC8 SLP981

CYXE;2016-04-09 19:00;CYXE 091900Z 34019G26KT 15SM -RA OVC020 04/01 A2944 RMK SC8 SLP993

CYXE;2016-04-09 19:47;CYXE 091947Z 34022G29KT 15SM BKN020 OVC050 04/M01 A2947 RMK SC5SC3 SLP003

CYXE;2016-04-09 20:00;CYXE 092000Z 34022G28KT 15SM BKN020 OVC052 04/M01 A2948 RMK SC5SC3 SLP006

CYXE;2016-04-09 21:00;CYXE 092100Z 33023G31KT 15SM BKN022 OVC042 04/M02 A2952 RMK SC5SC3 SLP018

CYXE;2016-04-09 22:00;CYXE 092200Z 34023KT 15SM OVC022 03/M02 A2956 RMK SC8 SLP034

CYXE;2016-04-09 22:45;CYXE 092245Z 34017G26KT 15SM VCSH OVC020 02/M01 A2959 RMK SC8 SLP045

CYXE;2016-04-09 23:00;CYXE 092300Z 34016KT 15SM OVC021 02/M00 A2960 RMK SC8 SLP046

CYXE;2016-04-10 00:00;CYXE 100000Z 02013KT 15SM FEW012 BKN025 03/M00 A2961 RMK SC2SC5 SLP053

CYXE;2016-04-10 01:00;CYXE 100100Z 36012KT 15SM BKN022 BKN034 02/M01 A2963 RMK SC5SC2 SLP060

CYXE;2016-04-10 02:00;CYXE 100200Z 02012G18KT 15SM -SHRA OVC020 00/M02 A2966 RMK SC8 SLP069

CYXE;2016-04-10 02:13;CYXE 100213Z 02011G19KT 15SM -SG OVC020 M00/M02 A2966 RMK SC8 SLP070

CYXE;2016-04-10 02:52;CYXE 100252Z 01012KT 10SM -FZRA -SN SCT012 OVC030 M01/M02 A2969 RMK SC3SC5 SLP079

CYXE;2016-04-10 03:00;CYXE 100300Z 01012KT 10SM -FZRA -SN FEW012 OVC030 M01/M02 A2969 RMK SC2SC6 SLP077

CYXE;2016-04-10 03:29;CYXE 100329Z 36008KT 15SM -SN SCT012 OVC037 M01/M01 A2970 RMK SC3SC5 SLP081

CYXE;2016-04-10 04:00;CYXE 100400Z 36012KT 15SM -SN SCT015 OVC045 M01/M02 A2970 RMK SC4SC4 SLP083

CYXE;2016-04-10 05:00;CYXE 100500Z 01016G23KT 10SM -SN OVC027 M01/M04 A2972 RMK SC8 SLP091

CYXE;2016-04-10 06:00;CYXE 100600Z 35018G27KT 12SM -SN SCT027 OVC048 M02/M05 A2976 RMK SC3SC5 SLP104

CYXE;2016-04-10 07:00;CYXE 100700Z 35016KT 12SM -SN SCT027 OVC096 M03/M06 A2979 RMK SC3AC5 SLP117

CYXE;2016-04-10 08:00;CYXE 100800Z 34022G27KT 15SM -SN SCT027 OVC096 M04/M08 A2982 RMK SC3AC5 SLP125

CYXE;2016-04-10 09:00;CYXE 100900Z 34017G22KT 15SM -SN SCT028 OVC120 M04/M08 A2985 RMK SC4AC4 SLP136

CYXE;2016-04-10 10:00;CYXE 101000Z 34019KT 10SM -SN OVC033 M05/M08 A2988 RMK SC8 SLP147

CYXE;2016-04-10 11:00;CYXE 101100Z 34017G25KT 12SM -SN OVC023 M05/M09 A2990 RMK SC8 SLP155

CYXE;2016-04-10 11:41;CYXE 101141Z 33020KT 15SM OVC023 M06/M10 A2992 RMK SC8 SLP164

CYXE;2016-04-10 12:00;CYXE 101200Z 33018KT 15SM BKN023 M06/M10 A2993 RMK SC7 SLP167

CYXE;2016-04-10 13:00;CYXE 101300Z 33016G22KT 15SM BKN025 M07/M11 A2997 RMK SC6 SLP180

CYXE;2016-04-10 13:21;CYXE 101321Z 33017G24KT 15SM -SHSN BKN030 M07/M11 A2998 RMK SC7 CU EMBD SLP183

CYXE;2016-04-10 14:00;CYXE 101400Z 34017G22KT 15SM -SHSN BKN030 M07/M10 A2999 RMK SC7 CU EMBD SLP188

CYXE;2016-04-10 14:44;CYXE 101444Z 34019KT 15SM SCT030 M06/M11 A2999 RMK SC4 SLP189

CYXE;2016-04-10 15:00;CYXE 101500Z 36019KT 15SM SCT030 M06/M11 A3000 RMK SC3 SLP190

CYXE;2016-04-10 16:00;CYXE 101600Z 33019G25KT 15SM SCT030 M05/M11 A3001 RMK SC3 SLP196

CYXE;2016-04-10 17:00;CYXE 101700Z 33016G22KT 15SM SCT030 M04/M11 A3003 RMK SC4 SLP200

CYXE;2016-04-10 18:00;CYXE 101800Z 34018G23KT 15SM BKN035 M02/M11 A3004 RMK SC5 SLP203

CYXE;2016-04-10 19:00;CYXE 101900Z 33017G26KT 15SM BKN035 M02/M10 A3005 RMK SC5 SLP206

CYXE;2016-04-10 20:00;CYXE 102000Z 35016G23KT 15SM SCT040 M01/M11 A3005 RMK SC4 SLP206

CYXE;2016-04-10 21:00;CYXE 102100Z 34017G23KT 15SM SCT044 M00/M11 A3005 RMK CU4 SLP209

CYXE;2016-04-10 22:00;CYXE 102200Z 33016G25KT 320V030 15SM SCT045 M00/M12 A3006 RMK CU3 SLP213

CYXE;2016-04-10 23:00;CYXE 102300Z 36015G20KT 15SM SCT048 M00/M12 A3008 RMK CU3 SLP218

CYXE;2016-04-11 00:00;CYXE 110000Z 36015G22KT 15SM SCT048 M01/M13 A3010 RMK CU3 SLP227

CYXE;2016-04-11 01:00;CYXE 110100Z 36012KT 15SM FEW042 M02/M13 A3011 RMK SC2 SLP232

CYXE;2016-04-11 02:00;CYXE 110200Z 02009KT 15SM SKC M04/M12 A3012 RMK SLP237

CYXE;2016-04-11 03:00;CYXE 110300Z 04008KT 15SM FEW210 M06/M12 A3015 RMK CI2 SLP246

CYXE;2016-04-11 04:00;CYXE 110400Z 05006KT 15SM SCT210 M08/M12 A3016 RMK CI4 SLP252

CYXE;2016-04-11 05:00;CYXE 110500Z 08002KT 15SM SCT210 M07/M11 A3017 RMK CI3 SLP253

CYXE;2016-04-11 06:00;CYXE 110600Z 08002KT 15SM FEW210 M08/M11 A3017 RMK CI2 SLP254

CYXE;2016-04-11 07:00;CYXE 110700Z 00000KT 15SM SKC M08/M10 A3019 RMK SLP258

CYXE;2016-04-11 08:00;CYXE 110800Z 09002KT 15SM SKC M08/M10 A3018 RMK SLP257

CYXE;2016-04-11 09:00;CYXE 110900Z 00000KT 15SM SKC M09/M10 A3018 RMK SLP255

CYXE;2016-04-11 10:00;CYXE 111000Z 16003KT 15SM SKC M09/M10 A3018 RMK SLP255

CYXE;2016-04-11 11:00;CYXE 111100Z 19004KT 15SM SKC M09/M10 A3018 RMK SLP256

CYXE;2016-04-11 12:00;CYXE 111200Z 17004KT 15SM SKC M10/M11 A3018 RMK SLP257

CYXE;2016-04-11 13:00;CYXE 111300Z 19003KT 15SM SKC M09/M11 A3018 RMK SLP255

CYXE;2016-04-11 14:00;CYXE 111400Z 17009KT 15SM SKC M06/M09 A3018 RMK SLP255

CYXE;2016-04-11 15:00;CYXE 111500Z 19012KT 15SM SKC M04/M09 A3017 RMK SLP252

CYXE;2016-04-11 16:00;CYXE 111600Z 19008KT 140V210 15SM SKC M02/M09 A3015 RMK SLP247

CYXE;2016-04-11 17:00;CYXE 111700Z 17010G21KT 110V190 15SM FEW300 00/M11 A3014 RMK CI1 SLP239

CYXE;2016-04-11 18:00;CYXE 111800Z 18008G18KT 120V210 15SM FEW300 02/M10 A3011 RMK CI2 SLP230

CYXE;2016-04-11 18:16;CYXE 111816Z 14008G17KT 100V200 15SM FEW300 02/M11 A3010 RMK CI2 WSHFT 1804 SLP225

CYXE;2016-04-11 19:00;CYXE 111900Z 18012G19KT 15SM SCT300 03/M12 A3008 RMK CI3 SLP218

CYXE;2016-04-11 20:00;CYXE 112000Z 16011KT 120V200 15SM SCT300 04/M12 A3005 RMK CI4 SLP209

CYXE;2016-04-11 21:00;CYXE 112100Z 17015KT 130V200 15SM BKN300 05/M12 A3003 RMK CI6 SLP200

CYXE;2016-04-11 22:00;CYXE 112200Z 17014KT 15SM FEW080 SCT220 BKN300 07/M12 A3000 RMK AC1CI3CI3 SLP189

CYXE;2016-04-11 23:00;CYXE 112300Z 18011G19KT 15SM SCT080 BKN200 08/M09 A2997 RMK AC3CI3 SLP179

CYXE;2016-04-12 00:00;CYXE 120000Z 20009KT 15SM SCT085 BKN200 07/M09 A2995 RMK AC3CI3 SLP172

CYXE;2016-04-12 01:00;CYXE 120100Z 13007KT 15SM BKN160 07/M08 A2993 RMK AC7 SLP164

CYXE;2016-04-12 02:00;CYXE 120200Z 11007KT 15SM SCT160 BKN200 05/M08 A2991 RMK AC4CI1 SLP158

CYXE;2016-04-12 03:00;CYXE 120300Z 12010KT 15SM FEW150 BKN230 04/M08 A2990 RMK AC2CI3 SLP153

CYXE;2016-04-12 04:00;CYXE 120400Z 13013KT 15SM BKN150 04/M07 A2988 RMK AC5 SLP147

CYXE;2016-04-12 05:00;CYXE 120500Z 13010KT 15SM SCT090 BKN140 03/M07 A2987 RMK AC4AC3 SLP141

CYXE;2016-04-12 06:00;CYXE 120600Z 13010G16KT 15SM FEW090 BKN160 03/M07 A2985 RMK AC2AC5 SLP133

CYXE;2016-04-12 07:00;CYXE 120700Z 14010KT 15SM SCT090 OVC160 03/M07 A2983 RMK AC3AC5 SLP126

CYXE;2016-04-12 08:00;CYXE 120800Z 12008KT 15SM SCT090 OVC160 02/M06 A2982 RMK AC3AC5 SLP121

CYXE;2016-04-12 09:00;CYXE 120900Z 13008KT 15SM SCT110 BKN210 01/M06 A2980 RMK AC3CI3 SLP116

CYXE;2016-04-12 10:00;CYXE 121000Z 12007KT 15SM FEW110 BKN250 00/M06 A2980 RMK AC2CI4 SLP114

CYXE;2016-04-12 11:00;CYXE 121100Z 09006KT 15SM SCT250 M02/M06 A2980 RMK CI3 SLP116

CYXE;2016-04-12 12:00;CYXE 121200Z 13004KT 15SM FEW100 M01/M06 A2981 RMK AC1 SLP118

CYXE;2016-04-12 13:00;CYXE 121300Z 13004KT 15SM FEW100 M00/M05 A2980 RMK AC1 SLP116

CYXE;2016-04-12 14:00;CYXE 121400Z VRB02KT 15SM SKC 03/M04 A2983 RMK SLP123

CYXE;2016-04-12 15:00;CYXE 121500Z 27003KT 240V310 15SM SKC 04/M04 A2983 RMK SLP126

CYXE;2016-04-12 16:00;CYXE 121600Z 00000KT 15SM FEW280 07/M03 A2984 RMK CI1 SLP125

CYXE;2016-04-12 17:00;CYXE 121700Z 28004KT 210V010 15SM FEW280 10/M03 A2984 RMK CI1 SLP125

CYXE;2016-04-12 18:00;CYXE 121800Z 14003KT 110V210 15SM FEW280 14/M03 A2983 RMK CI1 SLP120 DENSITY ALT 1900FT

CYXE;2016-04-12 19:00;CYXE 121900Z VRB05KT 15SM FEW072 FEW280 16/M03 A2983 RMK CU1CI1 SLP118 DENSITY ALT 2300FT

CYXE;2016-04-12 20:00;CYXE 122000Z VRB04KT 15SM FEW080 SCT280 18/M02 A2982 RMK CU1CI2 SLP115 DENSITY ALT 2400FT

CYXE;2016-04-12 21:00;CYXE 122100Z 34007G16KT 290V010 15SM FEW080 BKN280 18/M01 A2982 RMK CU2CI3 SLP113 DENSITY ALT 2500FT

CYXE;2016-04-12 22:00;CYXE 122200Z 18005KT 160V260 15SM SCT080 BKN300 18/M02 A2981 RMK CU3CI3 SLP112 DENSITY ALT 2500FT

CYXE;2016-04-12 23:00;CYXE 122300Z VRB03KT 15SM SCT090 BKN300 18/M01 A2981 RMK AC4CI2 SLP113 DENSITY ALT 2500FT

CYXE;2016-04-13 00:00;CYXE 130000Z 00000KT 15SM BKN100 18/M01 A2982 RMK AC7 SLP115 DENSITY ALT 2400FT

CYXE;2016-04-13 01:00;CYXE 130100Z 07003KT 15SM BKN100 16/02 A2982 RMK AC6 SLP116 DENSITY ALT 2300FT

CYXE;2016-04-13 02:00;CYXE 130200Z 08006KT 15SM BKN110 13/03 A2981 RMK AC6 SLP114 DENSITY ALT 1800FT

CYXE;2016-04-13 03:00;CYXE 130300Z 08006KT 15SM SCT110 BKN260 10/02 A2982 RMK AC3CI2 SLP117

CYXE;2016-04-13 04:00;CYXE 130400Z 09007KT 15SM FEW260 09/01 A2982 RMK CI2 SLP115

CYXE;2016-04-13 05:00;CYXE 130500Z 13009KT 15SM FEW150 09/00 A2982 RMK AC2 SLP113

CYXE;2016-04-13 06:00;CYXE 130600Z 14009KT 15SM FEW100 BKN140 08/01 A2982 RMK AC2AC5 SLP113

CYXE;2016-04-13 07:00;CYXE 130700Z 14006KT 15SM BKN100 BKN130 08/01 A2982 RMK AC5AC2 SLP110

CYXE;2016-04-13 08:00;CYXE 130800Z 16005KT 15SM OVC100 08/01 A2982 RMK AC8 SLP110

CYXE;2016-04-13 09:00;CYXE 130900Z 15006KT 15SM OVC100 08/01 A2981 RMK AC8 SLP107

CYXE;2016-04-13 10:00;CYXE 131000Z 16010KT 15SM SCT100 OVC140 10/00 A2979 RMK AC3AC5 SLP100

CYXE;2016-04-13 11:00;CYXE 131100Z 13010KT 15SM BKN100 OVC140 10/00 A2978 RMK AC6AC2 SLP093

CYXE;2016-04-13 12:00;CYXE 131200Z 14008KT 15SM SCT100 OVC200 08/M00 A2977 RMK AC4CI4 SLP093

CYXE;2016-04-13 13:00;CYXE 131300Z 13007KT 15SM SCT120 OVC250 07/01 A2974 RMK AC3CI5 SLP085

CYXE;2016-04-13 14:00;CYXE 131400Z 15009KT 15SM SCT090 OVC260 10/01 A2974 RMK AC3CI5 SLP084

CYXE;2016-04-13 15:00;CYXE 131500Z 15008KT 15SM FEW090 OVC260 12/02 A2972 RMK AC2CI6 SLP079 DENSITY ALT 1800FT

CYXE;2016-04-13 16:00;CYXE 131600Z 20011G18KT 15SM FEW090 OVC200 13/01 A2971 RMK AC2CI6 SLP075 DENSITY ALT 2000FT

CYXE;2016-04-13 17:00;CYXE 131700Z 17010KT 15SM BKN100 OVC140 13/02 A2969 RMK AC6AC2 SLP069 DENSITY ALT 2000FT

CYXE;2016-04-13 18:00;CYXE 131800Z 19015G25KT 15SM BKN085 OVC120 12/02 A2971 RMK AC6AC2 SLP077 DENSITY ALT 1900FT

CYXE;2016-04-13 18:12;CYXE 131812Z 18012G20KT 15SM -SHRA OVC070 12/02 A2971 RMK AC8 CVCTC CLD EMBD SLP077 DENSITY ALT 1900FT

CYXE;2016-04-13 18:47;CYXE 131847Z 20016KT 15SM BKN080 OVC120 12/05 A2971 RMK AS6AC2 SLP075 DENSITY ALT 1800FT

CYXE;2016-04-13 19:00;CYXE 131900Z 20014G20KT 15SM BKN080 OVC120 11/05 A2970 RMK AC6AC2 SLP073 DENSITY ALT 1800FT

CYXE;2016-04-13 20:00;CYXE 132000Z 20011KT 15SM OVC080 11/06 A2969 RMK AC8 SLP070 DENSITY ALT 1800FT

CYXE;2016-04-13 20:19;CYXE 132019Z 20012KT 15SM -SHRA BKN055 OVC080 11/06 A2969 RMK SC5AC3 SLP071 DENSITY ALT 1800FT

CYXE;2016-04-13 21:00;CYXE 132100Z 21014KT 15SM -SHRA BKN050 OVC080 12/06 A2968 RMK SC5AC3 SLP066 DENSITY ALT 2000FT

CYXE;2016-04-13 21:38;CYXE 132138Z 16016KT 15SM FEW050 OVC100 12/07 A2966 RMK SC2AC6 SLP060 DENSITY ALT 1900FT

CYXE;2016-04-13 22:00;CYXE 132200Z 17014KT 15SM OVC100 12/07 A2967 RMK AC8 SLP061 DENSITY ALT 1900FT

CYXE;2016-04-13 23:00;CYXE 132300Z 16014G22KT 15SM SCT080 OVC100 11/07 A2966 RMK AC4AC4 SLP057 DENSITY ALT 1800FT

CYXE;2016-04-14 00:00;CYXE 140000Z 17013G22KT 15SM OVC070 11/07 A2963 RMK AC8 SLP050 DENSITY ALT 1800FT

CYXE;2016-04-14 01:00;CYXE 140100Z 18011KT 15SM SCT070 OVC110 11/07 A2962 RMK AC4AC4 SLP047 DENSITY ALT 1800FT

CYXE;2016-04-14 02:00;CYXE 140200Z 23008KT 15SM FEW070 OVC100 10/06 A2963 RMK AC2AC6 SLP047 DENSITY ALT 1700FT

CYXE;2016-04-14 03:00;CYXE 140300Z 28009KT 15SM SCT100 BKN230 08/03 A2966 RMK AC3CI2 SLP058

CYXE;2016-04-14 04:00;CYXE 140400Z 27011KT 15SM SCT200 08/02 A2968 RMK CI3 SLP065

CYXE;2016-04-14 05:02;CYXE 140502Z 26008KT 15SM FEW200 02/00 A2969 RMK CI2 SLP072

CYXE;2016-04-14 06:00;CYXE 140600Z 28009KT 15SM FEW200 02/00 A2969 RMK CI2 SLP072

CYXE;2016-04-14 07:00;CYXE 140700Z 29010KT 15SM FEW300 04/01 A2970 RMK CI2 SLP076

CYXE;2016-04-14 08:00;CYXE 140800Z 28008KT 15SM SKC 01/M00 A2971 RMK SLP081

CYXE;2016-04-14 09:00;CYXE 140900Z 29006KT 15SM SKC 01/01 A2973 RMK SLP085

CYXE;2016-04-14 10:00;CYXE 141000Z 24005KT 15SM SKC M00/M00 A2976 RMK SLP097

CYXE;2016-04-14 11:00;CYXE 141100Z 27009KT 15SM SKC M01/M01 A2977 RMK SLP103

CYXE;2016-04-14 12:00;CYXE 141200Z 29006KT 15SM SKC M00/M00 A2978 RMK SLP105

CYXE;2016-04-14 13:00;CYXE 141300Z 24009KT 15SM FEW210 M01/M01 A2981 RMK CI1 SLP116

CYXE;2016-04-14 13:35;CYXE 141335Z 26009KT 15SM BKN010 02/02 A2982 RMK SC6 SLP118

CYXE;2016-04-14 13:49;CYXE 141349Z 27009KT 15SM OVC009 02/02 A2982 RMK SC8 SLP118

CYXE;2016-04-14 14:00;CYXE 141400Z 27008KT 15SM OVC008 02/02 A2983 RMK SC8 SLP121

CYXE;2016-04-14 15:00;CYXE 141500Z 28011KT 15SM OVC008 04/02 A2983 RMK SC8 SLP123

CYXE;2016-04-14 16:00;CYXE 141600Z 30011KT 15SM BKN009 OVC280 05/02 A2984 RMK SC7CI1 SLP124

CYXE;2016-04-14 16:10;CYXE 141610Z 30011KT 15SM BKN010 BKN280 05/02 A2983 RMK SC5CI2 SLP123

CYXE;2016-04-14 16:17;CYXE 141617Z 30011KT 15SM SCT010 OVC280 05/02 A2983 RMK SC4CI4 SLP123

CYXE;2016-04-14 17:00;CYXE 141700Z 32009G15KT 270V330 15SM FEW180 SCT280 07/02 A2983 RMK AC2CI2 SLP123

CYXE;2016-04-14 18:00;CYXE 141800Z 32010G18KT 15SM FEW100 SCT280 11/01 A2982 RMK AC1CI2 SLP119

CYXE;2016-04-14 19:00;CYXE 141900Z 33016G22KT 15SM FEW100 SCT280 12/M02 A2981 RMK AC1CI3 SLP112 DENSITY ALT 1800FT

CYXE;2016-04-14 20:00;CYXE 142000Z 32011G19KT 290V350 15SM FEW045 FEW100 FEW280 13/M02 A2982 RMK CF1AC1CI1 CF TR SLP116 DENSITY ALT 1900FT

CYXE;2016-04-14 21:00;CYXE 142100Z 34005KT 280V020 15SM BKN280 13/M01 A2982 RMK CI5 SLP115 DENSITY ALT 1900FT

CYXE;2016-04-14 22:00;CYXE 142200Z 35010KT 310V010 15SM FEW085 BKN280 14/M02 A2981 RMK AC1CI5 SLP115 DENSITY ALT 2000FT

CYXE;2016-04-14 23:00;CYXE 142300Z 31006KT 15SM SCT080 OVC280 13/M01 A2982 RMK AC3CI5 SLP120 DENSITY ALT 1900FT

CYXE;2016-04-15 00:00;CYXE 150000Z 33013KT 15SM FEW080 OVC280 13/M06 A2983 RMK AC1CI7 SLP122 DENSITY ALT 1900FT

CYXE;2016-04-15 01:00;CYXE 150100Z 32005KT 15SM FEW080 BKN240 10/M06 A2984 RMK AC1CI6 SLP128

CYXE;2016-04-15 02:00;CYXE 150200Z 35007KT 15SM FEW160 BKN220 07/M02 A2985 RMK AC2CI4 SLP130

CYXE;2016-04-15 03:00;CYXE 150300Z 03011KT 15SM BKN220 07/M00 A2987 RMK CI6 SLP138

CYXE;2016-04-15 04:00;CYXE 150400Z 03011KT 15SM BKN200 06/M01 A2990 RMK CI6 SLP148

CYXE;2016-04-15 05:00;CYXE 150500Z 03012KT 15SM BKN200 05/M00 A2992 RMK CI6 SLP153

CYXE;2016-04-15 06:00;CYXE 150600Z 05014KT 15SM BKN180 04/M01 A2993 RMK AC6 SLP156

CYXE;2016-04-15 07:00;CYXE 150700Z 05012KT 15SM SCT180 03/M01 A2993 RMK AC4 SLP156

CYXE;2016-04-15 08:00;CYXE 150800Z 04011G17KT 15SM SCT240 02/M01 A2996 RMK CI4 SLP164

CYXE;2016-04-15 09:00;CYXE 150900Z 04013KT 15SM BKN240 01/M01 A2997 RMK CI5 SLP170

CYXE;2016-04-15 10:00;CYXE 151000Z 05012KT 15SM BKN200 01/M01 A3000 RMK CI5 SLP178

CYXE;2016-04-15 11:00;CYXE 151100Z 04011KT 15SM BKN200 00/M02 A3002 RMK CI6 PRESRR SLP187

CYXE;2016-04-15 12:00;CYXE 151200Z 04011KT 15SM BKN200 M00/M02 A3004 RMK CI5 PRESRR SLP194

CYXE;2016-04-15 13:00;CYXE 151300Z 03012KT 15SM BKN170 M00/M03 A3005 RMK AC7 SLP198

CYXE;2016-04-15 14:00;CYXE 151400Z 03011KT 15SM BKN170 M00/M02 A3007 RMK AS7 SLP207

CYXE;2016-04-15 15:00;CYXE 151500Z 03015G21KT 15SM SCT012 OVC170 00/M02 A3009 RMK SC3AS5 SLP212

CYXE;2016-04-15 15:15;CYXE 151515Z 03015G20KT 15SM BKN013 OVC170 01/M02 A3009 RMK SC6AS2 SLP215

CYXE;2016-04-15 16:00;CYXE 151600Z 04015KT 15SM OVC014 01/M02 A3011 RMK SC8 SLP221

CYXE;2016-04-15 17:00;CYXE 151700Z 02012KT 15SM OVC014 01/M02 A3013 RMK SC8 SLP229

CYXE;2016-04-15 18:00;CYXE 151800Z 05012KT 15SM BKN017 OVC170 02/M03 A3015 RMK SC6AS2 SLP236

CYXE;2016-04-15 19:00;CYXE 151900Z 04012KT 15SM BKN022 OVC170 03/M03 A3016 RMK SC6AS2 SLP239

CYXE;2016-04-15 20:00;CYXE 152000Z 05010KT 360V060 15SM SCT022 OVC170 04/M03 A3017 RMK SC4AS4 SLP241

CYXE;2016-04-15 21:00;CYXE 152100Z 02009KT 15SM OVC220 06/M03 A3018 RMK CS8 SLP246

CYXE;2016-04-15 22:00;CYXE 152200Z 02008KT 010V070 15SM OVC220 06/M03 A3020 RMK CS8 SLP252

CYXE;2016-04-15 23:00;CYXE 152300Z 03008KT 15SM OVC220 07/M03 A3020 RMK CS8 SLP253

CYXE;2016-04-16 00:00;CYXE 160000Z 02010KT 15SM OVC220 07/M03 A3022 RMK CS8 SLP258

CYXE;2016-04-16 01:00;CYXE 160100Z 01007KT 15SM FEW110 OVC220 06/M03 A3023 RMK AC1CS7 SLP265

CYXE;2016-04-16 02:00;CYXE 160200Z 36005KT 15SM BKN230 03/M03 A3025 RMK CI6 SLP270

CYXE;2016-04-16 02:46;CYXE 160246Z 35003KT 15SM BKN230 02/M03 A3027 RMK CI5 SLP280

CYXE;2016-04-16 03:00;CYXE 160300Z 35004KT 15SM BKN230 02/M03 A3028 RMK CI5 SLP282

CYXE;2016-04-16 04:00;CYXE 160400Z 05003KT 15SM BKN230 00/M03 A3030 RMK CI6 SLP290

CYXE;2016-04-16 05:00;CYXE 160500Z 00000KT 15SM SCT230 M01/M03 A3031 RMK CI4 SLP294

CYXE;2016-04-16 06:00;CYXE 160600Z 20003KT 15SM SCT250 M00/M02 A3032 RMK CI3 SLP297

CYXE;2016-04-16 07:00;CYXE 160700Z 16005KT 15SM SCT250 M01/M03 A3032 RMK CI4 SLP298

CYXE;2016-04-16 08:00;CYXE 160800Z 16003KT 15SM FEW250 M02/M03 A3033 RMK CI2 SLP300

CYXE;2016-04-16 09:00;CYXE 160900Z 00000KT 15SM SKC M01/M02 A3034 RMK SLP301

CYXE;2016-04-16 10:00;CYXE 161000Z 23003KT 15SM SKC M03/M03 A3035 RMK SLP306

CYXE;2016-04-16 11:00;CYXE 161100Z 19002KT 15SM FEW240 M03/M03 A3037 RMK CI2 SLP312

CYXE;2016-04-16 12:00;CYXE 161200Z 15003KT 15SM BCFG SCT240 M04/M04 A3038 RMK CI3 SLP318

CYXE;2016-04-16 13:00;CYXE 161300Z 00000KT 15SM SCT240 M04/M04 A3039 RMK CI3 SLP321

CYXE;2016-04-16 14:00;CYXE 161400Z VRB02KT 15SM FEW240 00/M01 A3041 RMK CI2 SLP328

CYXE;2016-04-16 15:00;CYXE 161500Z 18007KT 15SM FEW250 03/M02 A3043 RMK CI1 SLP331

CYXE;2016-04-16 16:00;CYXE 161600Z VRB03KT 15SM FEW270 05/M03 A3043 RMK CI1 SLP331

CYXE;2016-04-16 17:00;CYXE 161700Z 18003KT 080V220 15SM FEW280 07/M03 A3043 RMK CI1 SLP333

CYXE;2016-04-16 18:00;CYXE 161800Z 16003KT 070V200 15SM FEW290 08/M04 A3043 RMK CI1 SLP329

CYXE;2016-04-16 19:00;CYXE 161900Z 14004KT 040V210 15SM SKC 09/M04 A3042 RMK SLP327

CYXE;2016-04-16 20:00;CYXE 162000Z 14010G16KT 070V200 15SM SKC 12/M04 A3042 RMK SLP324

CYXE;2016-04-16 21:00;CYXE 162100Z 14010G16KT 110V230 15SM SKC 13/M04 A3041 RMK SLP321

CYXE;2016-04-16 22:00;CYXE 162200Z 14006KT 100V170 15SM FEW250 13/M04 A3041 RMK CI1 SLP321

CYXE;2016-04-16 23:00;CYXE 162300Z 18008KT 080V210 15SM FEW250 13/M05 A3040 RMK CI1 CI TR SLP320

CYXE;2016-04-17 00:00;CYXE 170000Z 17008KT 15SM FEW250 13/M06 A3040 RMK CI1 CI TR SLP319

CYXE;2016-04-17 01:00;CYXE 170100Z 16010KT 15SM FEW100 12/M05 A3041 RMK AC1 AC TR SLP322

CYXE;2016-04-17 02:00;CYXE 170200Z 14009KT 15SM SKC 09/M04 A3041 RMK SLP323

CYXE;2016-04-17 03:00;CYXE 170300Z 14005KT 15SM FEW200 06/M04 A3044 RMK CI1 CI TR SLP334

CYXE;2016-04-17 04:00;CYXE 170400Z 16005KT 15SM SKC 05/M04 A3046 RMK SLP340

CYXE;2016-04-17 05:00;CYXE 170500Z 16008KT 15SM SKC 03/M04 A3046 RMK SLP341

CYXE;2016-04-17 05:20;CYXE 170520Z 16010KT 15SM SKC 02/M04 A3047 RMK SLP343

CYXE;2016-04-17 06:00;CYXE 170600Z 17006KT 15SM SKC 02/M04 A3047 RMK SLP343

CYXE;2016-04-17 07:00;CYXE 170700Z 18007KT 15SM SKC 01/M04 A3048 RMK SLP345

CYXE;2016-04-17 08:00;CYXE 170800Z 18006KT 15SM SKC M01/M05 A3048 RMK SLP346

CYXE;2016-04-17 09:00;CYXE 170900Z 17007KT 15SM SKC M01/M05 A3048 RMK SLP346

CYXE;2016-04-17 10:00;CYXE 171000Z 17008KT 15SM SKC M00/M04 A3049 RMK SLP346

CYXE;2016-04-17 11:00;CYXE 171100Z 17007KT 15SM SKC M02/M05 A3049 RMK SLP349

CYXE;2016-04-17 12:00;CYXE 171200Z 19005KT 15SM SKC M02/M05 A3051 RMK SLP355

CYXE;2016-04-17 13:00;CYXE 171300Z 17007KT 15SM SKC M01/M04 A3052 RMK SLP359

CYXE;2016-04-17 14:00;CYXE 171400Z 17008KT 15SM SKC 03/M02 A3053 RMK SLP361

CYXE;2016-04-17 15:00;CYXE 171500Z 17006KT 15SM SKC 06/M03 A3053 RMK SLP362

CYXE;2016-04-17 16:00;CYXE 171600Z 20010G15KT 15SM SKC 10/M04 A3053 RMK SLP359

CYXE;2016-04-17 17:00;CYXE 171700Z 20013KT 15SM SKC 12/M06 A3052 RMK SLP356

CYXE;2016-04-17 18:00;CYXE 171800Z 18014G20KT 15SM SKC 14/M08 A3051 RMK SLP352

CYXE;2016-04-17 19:00;CYXE 171900Z 18012KT 160V230 15SM SKC 16/M09 A3050 RMK SLP348

CYXE;2016-04-17 20:00;CYXE 172000Z 22011KT 15SM SKC 17/M13 A3048 RMK SLP343

CYXE;2016-04-17 21:00;CYXE 172100Z 21009G17KT 170V230 15SM SKC 18/M14 A3047 RMK SLP339 DENSITY ALT 1700FT

CYXE;2016-04-17 22:00;CYXE 172200Z 17010KT 150V220 15SM SKC 18/M12 A3047 RMK SLP337 DENSITY ALT 1700FT

CYXE;2016-04-17 23:00;CYXE 172300Z 15007KT 140V200 15SM FEW210 18/M11 A3045 RMK CI1 SLP333 DENSITY ALT 1700FT

CYXE;2016-04-18 00:00;CYXE 180000Z 18010KT 140V200 15SM FEW210 18/M10 A3044 RMK CI1 CI TR SLP330 DENSITY ALT 1700FT

CYXE;2016-04-18 01:00;CYXE 180100Z 18007KT 15SM SKC 16/M10 A3044 RMK SLP329

CYXE;2016-04-18 02:00;CYXE 180200Z 16006KT 15SM FEW270 12/M08 A3044 RMK CI1 CI TR SLP330

CYXE;2016-04-18 03:00;CYXE 180300Z 16010KT 15SM SKC 08/M08 A3045 RMK SLP333

CYXE;2016-04-18 04:00;CYXE 180400Z 17009KT 15SM SKC 09/M08 A3046 RMK SLP335

CYXE;2016-04-18 05:00;CYXE 180500Z 16009KT 15SM SKC 06/M07 A3047 RMK SLP337

CYXE;2016-04-18 06:00;CYXE 180600Z 17006KT 15SM SKC 05/M06 A3047 RMK SLP338

CYXE;2016-04-18 07:00;CYXE 180700Z 18004KT 15SM SKC 05/M07 A3048 RMK SLP341

CYXE;2016-04-18 08:00;CYXE 180800Z 18004KT 15SM SKC 03/M07 A3049 RMK SLP343

CYXE;2016-04-18 09:00;CYXE 180900Z 19006KT 15SM SKC 02/M06 A3049 RMK SLP342

CYXE;2016-04-18 10:00;CYXE 181000Z 20007KT 15SM SKC 02/M06 A3049 RMK SLP342

CYXE;2016-04-18 11:00;CYXE 181100Z 19008KT 15SM SKC 00/M05 A3048 RMK SLP342

CYXE;2016-04-18 12:00;CYXE 181200Z 18006KT 15SM SKC M01/M06 A3048 RMK SLP343

CYXE;2016-04-18 13:00;CYXE 181300Z 19009KT 15SM SKC 02/M04 A3049 RMK SLP344

CYXE;2016-04-18 14:00;CYXE 181400Z 19009KT 15SM SKC 05/M05 A3049 RMK SLP346

CYXE;2016-04-18 15:00;CYXE 181500Z 20009KT 15SM SKC 09/M06 A3049 RMK SLP347

CYXE;2016-04-18 16:00;CYXE 181600Z 23010KT 15SM SKC 14/M05 A3049 RMK SLP342

CYXE;2016-04-18 17:00;CYXE 181700Z 21008KT 15SM SKC 17/M04 A3048 RMK SLP338

CYXE;2016-04-18 18:00;CYXE 181800Z 21005KT 170V250 15SM SKC 19/M04 A3046 RMK SLP330 DENSITY ALT 1800FT

CYXE;2016-04-18 19:00;CYXE 181900Z 17004KT 110V280 15SM FEW300 20/M04 A3044 RMK CI1 CI TR SLP323 DENSITY ALT 2000FT

CYXE;2016-04-18 20:00;CYXE 182000Z 15007KT 120V290 15SM SKC 22/M05 A3042 RMK SLP316 DENSITY ALT 2200FT

CYXE;2016-04-18 21:00;CYXE 182100Z 20007G15KT 130V210 15SM SKC 22/M09 A3040 RMK SLP310 DENSITY ALT 2200FT

CYXE;2016-04-18 22:00;CYXE 182200Z 18009G16KT 15SM SKC 22/M10 A3038 RMK SLP305 DENSITY ALT 2300FT

CYXE;2016-04-18 23:00;CYXE 182300Z 19009KT 15SM SKC 21/M13 A3036 RMK SLP300 DENSITY ALT 2200FT

CYXE;2016-04-19 00:00;CYXE 190000Z 20010G16KT 15SM FEW300 21/M13 A3034 RMK CI1 SLP292 DENSITY ALT 2200FT

CYXE;2016-04-19 01:00;CYXE 190100Z 19008KT 15SM FEW300 19/M11 A3032 RMK CI1 SLP286 DENSITY ALT 2000FT

CYXE;2016-04-19 02:00;CYXE 190200Z 18010KT 15SM FEW300 15/M11 A3031 RMK CI2 SLP282

CYXE;2016-04-19 03:00;CYXE 190300Z 18010KT 15SM FEW300 13/M10 A3031 RMK CI1 SLP280

CYXE;2016-04-19 04:00;CYXE 190400Z 18012KT 15SM SKC 12/M07 A3030 RMK SLP275

CYXE;2016-04-19 05:00;CYXE 190500Z 17011KT 15SM SKC 10/M06 A3028 RMK SLP269

CYXE;2016-04-19 06:00;CYXE 190600Z 17009KT 15SM SKC 07/M05 A3027 RMK SLP266

CYXE;2016-04-19 07:00;CYXE 190700Z 17009KT 15SM SKC 06/M04 A3026 RMK SLP259

CYXE;2016-04-19 08:00;CYXE 190800Z 17011KT 15SM SKC 07/M04 A3024 RMK SLP252

CYXE;2016-04-19 09:00;CYXE 190900Z 18011G16KT 15SM SKC 07/M04 A3022 RMK SLP247

CYXE;2016-04-19 10:00;CYXE 191000Z 18012KT 15SM SKC 06/M04 A3022 RMK SLP247

CYXE;2016-04-19 11:00;CYXE 191100Z 17011KT 15SM FEW250 04/M04 A3021 RMK CI1 SLP243

CYXE;2016-04-19 12:00;CYXE 191200Z 17011KT 15SM FEW250 04/M04 A3019 RMK CI1 SLP239

CYXE;2016-04-19 13:00;CYXE 191300Z 19014G19KT 15SM BKN280 06/M03 A3018 RMK CI6 SLP235

CYXE;2016-04-19 14:00;CYXE 191400Z 20013KT 15SM BKN300 08/M03 A3017 RMK CI6 SLP233

CYXE;2016-04-19 15:00;CYXE 191500Z 20013G19KT 15SM BKN300 11/M02 A3015 RMK CI7 SLP226

CYXE;2016-04-19 16:00;CYXE 191600Z 20014G21KT 15SM BKN320 14/M03 A3013 RMK CI6 SLP217

CYXE;2016-04-19 17:00;CYXE 191700Z 19015G21KT 15SM BKN330 17/M04 A3011 RMK CI6 SLP208 DENSITY ALT 2000FT

CYXE;2016-04-19 18:00;CYXE 191800Z 18015G21KT 15SM BKN330 20/M07 A3008 RMK CI6 SLP198 DENSITY ALT 2400FT

CYXE;2016-04-19 19:00;CYXE 191900Z 18017G23KT 15SM FEW180 BKN350 21/M06 A3005 RMK AC1CI4 SLP190 DENSITY ALT 2500FT

CYXE;2016-04-19 20:00;CYXE 192000Z 17016G23KT 15SM FEW180 BKN350 22/M05 A3002 RMK AC1CI4 SLP178 DENSITY ALT 2700FT

CYXE;2016-04-19 21:00;CYXE 192100Z 19016G23KT 15SM SCT350 23/M07 A3000 RMK CI4 SLP168 DENSITY ALT 2800FT

CYXE;2016-04-19 22:00;CYXE 192200Z 21015G23KT 15SM SCT350 25/M07 A2996 RMK CI4 SLP157 DENSITY ALT 3000FT

CYXE;2016-04-19 23:00;CYXE 192300Z 22016KT 15SM SCT350 25/M07 A2994 RMK CI4 SLP151 DENSITY ALT 3100FT

CYXE;2016-04-20 00:00;CYXE 200000Z 22015KT 15SM SCT320 24/M04 A2992 RMK CI4 SLP144 DENSITY ALT 3100FT

CYXE;2016-04-20 01:00;CYXE 200100Z 20015KT 15SM FEW140 BKN300 23/M02 A2990 RMK AC1CI5 SLP135 DENSITY ALT 2900FT

CYXE;2016-04-20 02:00;CYXE 200200Z 19010KT 15SM FEW140 BKN300 20/02 A2989 RMK AC1CI6 SLP133 DENSITY ALT 2600FT

CYXE;2016-04-20 03:00;CYXE 200300Z 18014KT 15SM BKN300 18/05 A2988 RMK CI7 SLP130 DENSITY ALT 2400FT

CYXE;2016-04-20 04:00;CYXE 200400Z 19015G21KT 15SM BKN240 17/07 A2988 RMK CI7 SLP129 DENSITY ALT 2300FT

CYXE;2016-04-20 05:00;CYXE 200500Z 19014KT 15SM BKN240 16/07 A2987 RMK CI7 SLP124 DENSITY ALT 2100FT

CYXE;2016-04-20 06:00;CYXE 200600Z 20014KT 15SM BKN240 15/07 A2987 RMK CI7 SLP121 DENSITY ALT 2000FT

CYXE;2016-04-20 07:00;CYXE 200700Z 20011KT 15SM BKN240 13/07 A2987 RMK CI6 SLP121 DENSITY ALT 1800FT

CYXE;2016-04-20 08:00;CYXE 200800Z 21011KT 15SM BKN220 12/07 A2986 RMK CI5 SLP119 DENSITY ALT 1700FT

CYXE;2016-04-20 09:00;CYXE 200900Z 25009KT 15SM SCT220 10/06 A2988 RMK CI3 SLP126

CYXE;2016-04-20 10:00;CYXE 201000Z 27004KT 230V320 15SM FEW220 07/06 A2989 RMK CI2 SLP131

CYXE;2016-04-20 11:00;CYXE 201100Z 31007KT 15SM FEW220 04/03 A2992 RMK CI2 SLP143

CYXE;2016-04-20 12:00;CYXE 201200Z 01012KT 15SM SCT220 08/M01 A2994 RMK CI3 SLP147

CYXE;2016-04-20 13:00;CYXE 201300Z 34008KT 15SM SCT240 08/M01 A2997 RMK CI3 SLP159

CYXE;2016-04-20 14:00;CYXE 201400Z 35011KT 15SM SCT250 12/M03 A2999 RMK CI3 SLP166

CYXE;2016-04-20 15:00;CYXE 201500Z 36016KT 15SM BKN280 13/M07 A3001 RMK CI7 SLP173 DENSITY ALT 1700FT

CYXE;2016-04-20 16:00;CYXE 201600Z 01014KT 15SM BKN280 15/M06 A3003 RMK CI7 SLP178 DENSITY ALT 1900FT

CYXE;2016-04-20 17:00;CYXE 201700Z 01010G16KT 15SM OVC300 15/M06 A3005 RMK CI8 SLP184 DENSITY ALT 1900FT

CYXE;2016-04-20 18:00;CYXE 201800Z 34008G18KT 15SM OVC300 17/M07 A3005 RMK CI8 SLP185 DENSITY ALT 2000FT

CYXE;2016-04-20 19:00;CYXE 201900Z 32015G23KT 300V360 15SM BKN300 17/M08 A3005 RMK CI6 SLP188 DENSITY ALT 2100FT

CYXE;2016-04-20 20:00;CYXE 202000Z 32022G28KT 15SM BKN300 19/M09 A3005 RMK CI5 SLP187 DENSITY ALT 2200FT

CYXE;2016-04-20 21:00;CYXE 202100Z 01016G21KT 15SM SCT300 17/M04 A3008 RMK CI4 SLP197 DENSITY ALT 2000FT

CYXE;2016-04-20 22:00;CYXE 202200Z 03019G25KT 15SM SCT300 15/M02 A3010 RMK CI4 SLP208 DENSITY ALT 1800FT

CYXE;2016-04-20 23:00;CYXE 202300Z 02020G31KT 15SM FEW300 12/M02 A3012 RMK CI2 SLP220

CYXE;2016-04-21 00:00;CYXE 210000Z 02019G25KT 15SM FEW300 10/M03 A3014 RMK CI1 SLP226

CYXE;2016-04-21 01:00;CYXE 210100Z 02019G25KT 15SM FEW300 08/M04 A3017 RMK CI1 SLP235

CYXE;2016-04-21 02:00;CYXE 210200Z 02014KT 15SM FEW300 06/M04 A3018 RMK CI1 SLP238

CYXE;2016-04-21 03:00;CYXE 210300Z 02013KT 15SM FEW300 04/M04 A3021 RMK CI1 SLP248

CYXE;2016-04-21 03:52;CYXE 210352Z 05010KT 15SM SKC 02/M04 A3024 RMK SLP260

CYXE;2016-04-21 04:00;CYXE 210400Z 04008KT 15SM SKC 02/M04 A3024 RMK SLP260

CYXE;2016-04-21 05:00;CYXE 210500Z 05008KT 15SM SKC 00/M04 A3026 RMK SLP266

CYXE;2016-04-21 06:00;CYXE 210600Z 03007KT 15SM SKC M01/M05 A3026 RMK SLP268

CYXE;2016-04-21 07:00;CYXE 210700Z 05006KT 15SM SKC M02/M05 A3027 RMK SLP270

CYXE;2016-04-21 08:00;CYXE 210800Z 05006KT 15SM SKC M03/M06 A3027 RMK SLP271

CYXE;2016-04-21 09:00;CYXE 210900Z 05006KT 15SM SKC M04/M06 A3027 RMK SLP271

CYXE;2016-04-21 10:00;CYXE 211000Z 05006KT 15SM SKC M05/M06 A3026 RMK SLP271

CYXE;2016-04-21 11:00;CYXE 211100Z 06006KT 15SM SKC M05/M06 A3027 RMK SLP275

CYXE;2016-04-21 12:00;CYXE 211200Z 06005KT 15SM SCT270 M05/M06 A3026 RMK CI3 SLP275

CYXE;2016-04-21 13:00;CYXE 211300Z 06004KT 15SM FEW270 M02/M03 A3027 RMK CI2 SLP275

CYXE;2016-04-21 14:00;CYXE 211400Z 11006KT 15SM FEW280 00/M04 A3027 RMK CI1 SLP275

CYXE;2016-04-21 15:00;CYXE 211500Z 13009KT 090V170 15SM FEW280 03/M06 A3026 RMK CI2 SLP274

CYXE;2016-04-21 16:00;CYXE 211600Z VRB07KT 15SM FEW280 04/M06 A3025 RMK CI1 SLP268

CYXE;2016-04-21 17:00;CYXE 211700Z 11005KT 080V180 15SM FEW280 05/M07 A3024 RMK CI2 SLP266

CYXE;2016-04-21 18:00;CYXE 211800Z 13008KT 090V150 15SM FEW280 07/M06 A3022 RMK CI2 SLP259

CYXE;2016-04-21 19:00;CYXE 211900Z 13006KT 080V170 15SM SKC 07/M06 A3020 RMK SLP252

CYXE;2016-04-21 20:00;CYXE 212000Z 10007KT 070V170 15SM 09/M06 A3018 RMK SLP244

CYXE;2016-04-21 21:00;CYXE 212100Z 15009KT 040V170 15SM FEW280 10/M06 A3015 RMK CI2 SLP236

CYXE;2016-04-21 22:00;CYXE 212200Z 10011KT 090V150 15SM FEW300 11/M05 A3013 RMK CI1 SLP228

CYXE;2016-04-21 23:00;CYXE 212300Z 12009G15KT 070V150 15SM SCT300 12/M05 A3010 RMK CI4 SLP219

CYXE;2016-04-22 00:00;CYXE 220000Z 13010G16KT 15SM FEW160 SCT300 11/M05 A3009 RMK AC1CI3 SLP214

CYXE;2016-04-22 01:00;CYXE 220100Z 10012KT 15SM BKN110 OVC220 10/M04 A3008 RMK AC6CI2 SLP211

CYXE;2016-04-22 02:00;CYXE 220200Z 09011KT 15SM BKN100 OVC220 09/M03 A3009 RMK AC6CI2 SLP214

CYXE;2016-04-22 03:00;CYXE 220300Z 09012KT 15SM BKN100 OVC220 08/M03 A3011 RMK AC6CI2 SLP219

CYXE;2016-04-22 04:00;CYXE 220400Z 09010KT 15SM BKN100 OVC220 07/M03 A3011 RMK AC7CI1 SLP218

CYXE;2016-04-22 05:00;CYXE 220500Z 08011KT 15SM BKN095 OVC220 07/M02 A3011 RMK AC7CI1 SLP217

CYXE;2016-04-22 06:00;CYXE 220600Z 09012G18KT 15SM OVC100 07/M02 A3011 RMK AC8 SLP217

CYXE;2016-04-22 07:00;CYXE 220700Z 09013G18KT 15SM OVC090 06/M02 A3011 RMK AC8 SLP216

CYXE;2016-04-22 08:00;CYXE 220800Z 08012KT 15SM OVC100 06/M03 A3009 RMK AC8 SLP211

CYXE;2016-04-22 09:00;CYXE 220900Z 09015KT 15SM OVC130 05/M03 A3009 RMK AC8 WND ESTD SLP208

CYXE;2016-04-22 10:00;CYXE 221000Z 08013KT 15SM BKN090 OVC140 05/M04 A3008 RMK AC5AC3 SLP206

CYXE;2016-04-22 11:00;CYXE 221100Z 08011KT 15SM OVC090 05/M04 A3009 RMK AC8 SLP209

CYXE;2016-04-22 12:00;CYXE 221200Z 08012KT 15SM BKN088 05/M04 A3009 RMK AC7 SLP210

CYXE;2016-04-22 13:00;CYXE 221300Z 07013G19KT 15SM BKN085 05/M04 A3009 RMK AC7 SLP210

CYXE;2016-04-22 14:00;CYXE 221400Z 09016KT 15SM VCSH OVC080 05/M04 A3008 RMK AC8 SLP206

CYXE;2016-04-22 15:00;CYXE 221500Z 09016G22KT 15SM FEW070 OVC090 05/M03 A3009 RMK AC2AC6 SLP211

CYXE;2016-04-22 16:00;CYXE 221600Z 06012G19KT 15SM OVC083 05/02 A3011 RMK AC8 SLP217

CYXE;2016-04-22 17:00;CYXE 221700Z 09015KT 15SM VCSH BKN080 06/02 A3009 RMK ACC7 WND ESTD SLP209

CYXE;2016-04-22 18:00;CYXE 221800Z 08019KT 15SM VCSH OVC090 06/01 A3009 RMK AC8 SLP209

CYXE;2016-04-22 19:00;CYXE 221900Z 09020KT 15SM VCSH BKN090 05/02 A3008 RMK ACC7 WND ESTD SLP207

CYXE;2016-04-22 19:09;CYXE 221909Z 09017KT 15SM -SHRA BKN090 05/02 A3008 RMK ACC7 SLP207

CYXE;2016-04-22 20:04;CYXE 222004Z 09019KT 15SM VCSH BKN085 06/04 A3008 RMK ACC7 SLP207

CYXE;2016-04-22 21:00;CYXE 222100Z 10018G24KT 15SM BKN080 07/03 A3008 RMK AC7 SLP207

CYXE;2016-04-22 22:00;CYXE 222200Z 08020G26KT 15SM SCT085 BKN110 BKN240 07/01 A3008 RMK AC3AC2CI1 CI TR SLP206

CYXE;2016-04-22 23:00;CYXE 222300Z 08019G24KT 15SM FEW045 SCT110 BKN240 08/00 A3007 RMK SC1AC2CI3 SLP203

CYXE;2016-04-23 00:00;CYXE 230000Z 09020G25KT 15SM FEW045 BKN240 06/M01 A3007 RMK SC2CI3 SLP204

CYXE;2016-04-23 01:00;CYXE 230100Z 09020G27KT 15SM SCT045 BKN240 05/M00 A3006 RMK SC4CI3 SLP201

CYXE;2016-04-23 02:00;CYXE 230200Z 09018G28KT 15SM FEW045 BKN240 05/M01 A3005 RMK SC1CS7 SC TR SLP199

CYXE;2016-04-23 03:00;CYXE 230300Z 09017G24KT 15SM FEW160 OVC220 05/M01 A3006 RMK AC2CS6 SLP202

CYXE;2016-04-23 04:00;CYXE 230400Z 10019G25KT 15SM BKN180 05/M04 A3007 RMK AC7 SLP204

CYXE;2016-04-23 05:00;CYXE 230500Z 08013KT 15SM OVC170 05/M04 A3008 RMK AC8 SLP208

CYXE;2016-04-23 06:00;CYXE 230600Z 08014KT 15SM BKN170 05/M03 A3006 RMK AC7 SLP202

CYXE;2016-04-23 07:00;CYXE 230700Z 09015G23KT 15SM BKN120 05/M01 A3005 RMK AC7 SLP198

CYXE;2016-04-23 08:00;CYXE 230800Z 09019G26KT 15SM BKN120 04/M02 A3006 RMK AC6 SLP202

CYXE;2016-04-23 09:00;CYXE 230900Z 08017G25KT 15SM FEW080 BKN120 04/M02 A3005 RMK AC2AC4 SLP199

CYXE;2016-04-23 10:00;CYXE 231000Z 08014G19KT 15SM BKN090 03/M04 A3007 RMK AC7 SLP206

CYXE;2016-04-23 11:00;CYXE 231100Z 08015G22KT 15SM BKN090 03/M05 A3007 RMK AC6 SLP204

CYXE;2016-04-23 12:00;CYXE 231200Z 07013KT 15SM BKN100 03/M03 A3007 RMK AC7 SLP207

CYXE;2016-04-23 13:00;CYXE 231300Z 08021KT 15SM OVC100 03/M03 A3008 RMK AC8 SLP210

CYXE;2016-04-23 14:00;CYXE 231400Z 10016G23KT 15SM BKN080 BKN100 03/M04 A3007 RMK AC5AC2 SLP206

CYXE;2016-04-23 15:00;CYXE 231500Z 11020G26KT 15SM SCT080 OVC130 04/M06 A3005 RMK AC3AC5 SLP201

CYXE;2016-04-23 16:00;CYXE 231600Z 10027KT 15SM FEW080 BKN140 06/M09 A3004 RMK AC2AC4 SLP194

CYXE;2016-04-23 17:00;CYXE 231700Z 09022G30KT 15SM FEW070 BKN150 BKN280 08/M07 A3005 RMK AC2AC3CI2 SLP196

CYXE;2016-04-23 18:00;CYXE 231800Z 10021G27KT 15SM SCT070 BKN120 08/M04 A3006 RMK AC3AC4 SLP200

CYXE;2016-04-23 19:00;CYXE 231900Z 09019G31KT 15SM FEW090 BKN120 BKN250 09/M06 A3006 RMK AC2AC3CI2 SLP199

CYXE;2016-04-23 20:00;CYXE 232000Z 10021G26KT 15SM FEW080 BKN120 BKN250 09/M03 A3005 RMK AC2AC3CI2 SLP197

CYXE;2016-04-23 21:00;CYXE 232100Z 09024G29KT 15SM BKN080 OVC120 08/M06 A3004 RMK AC5AC3 SLP193

CYXE;2016-04-23 22:00;CYXE 232200Z 08021G27KT 15SM OVC080 08/M05 A3004 RMK AC8 SLP193

CYXE;2016-04-23 23:00;CYXE 232300Z 08019KT 15SM OVC078 08/M06 A3005 RMK AC8 SLP198

CYXE;2016-04-24 00:00;CYXE 240000Z 10019G31KT 15SM BKN040 OVC075 06/M05 A3007 RMK SC5AC3 SLP205

CYXE;2016-04-24 00:14;CYXE 240014Z 09015G25KT 12SM -SHRA SCT020 OVC040 06/M05 A3007 RMK SC3SC5 CVCTV CLD EMBD SLP205

CYXE;2016-04-24 01:00;CYXE 240100Z 07019G27KT 12SM -SHRA FEW010 OVC025 04/M02 A3008 RMK SF2SF6 CVCTV CLD EMBD SLP211

CYXE;2016-04-24 02:00;CYXE 240200Z 07016G21KT 12SM -SHRA OVC025 03/M00 A3009 RMK SF8 CVCTV CLD EMBD SLP213

CYXE;2016-04-24 02:39;CYXE 240239Z 08016G21KT 12SM -SHRA OVC025 02/M00 A3009 RMK SF8 CVCTV CLD EMBD SLP216

CYXE;2016-04-24 03:00;CYXE 240300Z 08013G18KT 12SM -SHRA OVC025 02/00 A3009 RMK SF8 CVCTV CLD EMBD SLP216

CYXE;2016-04-24 03:49;CYXE 240349Z 07016KT 10SM -RASN OVC020 01/01 A3010 RMK SC8 SLP218

CYXE;2016-04-24 04:00;CYXE 240400Z 06012G17KT 10SM -RASN OVC020 01/01 A3010 RMK SC8 SLP218

CYXE;2016-04-24 05:00;CYXE 240500Z 07017G22KT 15SM BKN028 BKN060 OVC085 01/01 A3009 RMK SC5SC1AC2 SLP212

CYXE;2016-04-24 06:00;CYXE 240600Z 07014KT 15SM FEW028 OVC065 02/M01 A3008 RMK SC2SC6 SLP208

CYXE;2016-04-24 07:00;CYXE 240700Z 09014KT 15SM OVC067 03/M03 A3007 RMK AC8 SLP203

CYXE;2016-04-24 08:00;CYXE 240800Z 09012G18KT 15SM OVC060 02/M04 A3007 RMK SC8 SLP204

CYXE;2016-04-24 09:00;CYXE 240900Z 09010G18KT 15SM FEW060 OVC087 02/M06 A3006 RMK SC2AC6 SLP203

CYXE;2016-04-24 10:00;CYXE 241000Z 09011G19KT 15SM OVC082 02/M06 A3006 RMK AC8 SLP201

CYXE;2016-04-24 11:00;CYXE 241100Z 09009G17KT 15SM BKN075 02/M07 A3006 RMK AC7 SLP203

CYXE;2016-04-24 12:00;CYXE 241200Z 09010G17KT 15SM BKN073 01/M07 A3006 RMK AC7 SLP205

CYXE;2016-04-24 13:00;CYXE 241300Z 10009KT 15SM BKN070 01/M07 A3007 RMK AC7 SLP210

CYXE;2016-04-24 14:00;CYXE 241400Z 09010KT 15SM OVC070 01/M08 A3007 RMK AC8 SLP210

CYXE;2016-04-24 15:00;CYXE 241500Z 10013G19KT 15SM OVC070 02/M08 A3006 RMK AC8 SLP207

CYXE;2016-04-24 16:00;CYXE 241600Z 11013KT 15SM OVC070 03/M08 A3006 RMK AC8 SLP205

CYXE;2016-04-24 17:00;CYXE 241700Z 10012KT 15SM OVC070 04/M08 A3006 RMK AC8 SLP204

CYXE;2016-04-24 18:00;CYXE 241800Z 12018KT 15SM OVC073 06/M09 A3005 RMK AC8 SLP199

CYXE;2016-04-24 19:00;CYXE 241900Z 10015G22KT 15SM OVC073 06/M10 A3005 RMK AC8 SLP199

CYXE;2016-04-24 20:00;CYXE 242000Z 12014G21KT 15SM OVC075 07/M10 A3004 RMK AC8 SLP195

CYXE;2016-04-24 21:00;CYXE 242100Z 11014G22KT 15SM SCT075 OVC090 08/M11 A3003 RMK AC4AC4 SLP192

CYXE;2016-04-24 22:00;CYXE 242200Z 09014G20KT 15SM SCT075 OVC100 08/M10 A3003 RMK AC4AC4 SLP191

CYXE;2016-04-24 23:00;CYXE 242300Z 12016G23KT 15SM OVC080 09/M10 A3002 RMK AC8 SLP187

CYXE;2016-04-25 00:00;CYXE 250000Z 11013G19KT 15SM OVC085 08/M10 A3001 RMK AC8 SLP185

CYXE;2016-04-25 01:00;CYXE 250100Z 11012KT 15SM SCT085 OVC110 08/M10 A3000 RMK AC4AC4 SLP184

CYXE;2016-04-25 02:00;CYXE 250200Z 10009KT 15SM FEW085 OVC110 07/M09 A3000 RMK AC2AC6 SLP183

CYXE;2016-04-25 03:00;CYXE 250300Z 06009KT 15SM OVC090 06/M07 A3001 RMK AC8 SLP186

CYXE;2016-04-25 04:00;CYXE 250400Z 07008KT 15SM FEW090 OVC110 05/M05 A3000 RMK AC2AC6 SLP184

CYXE;2016-04-25 05:00;CYXE 250500Z 09008KT 15SM FEW090 OVC110 05/M05 A3002 RMK AC1AC7 SLP189

CYXE;2016-04-25 06:00;CYXE 250600Z 11016KT 15SM FEW090 OVC110 05/M09 A3001 RMK AC2AC6 SLP186

CYXE;2016-04-25 07:00;CYXE 250700Z 10012G19KT 15SM FEW080 OVC120 04/M09 A3001 RMK AC1AC7 SLP186

CYXE;2016-04-25 08:00;CYXE 250800Z 12013KT 15SM OVC080 04/M09 A3002 RMK AC8 SLP187

CYXE;2016-04-25 09:00;CYXE 250900Z 10009KT 15SM OVC083 03/M08 A3002 RMK AC8 SLP188

CYXE;2016-04-25 10:00;CYXE 251000Z 11010KT 15SM BKN080 02/M08 A3002 RMK AC7 SLP189

CYXE;2016-04-25 11:00;CYXE 251100Z 11011KT 15SM SCT080 BKN120 01/M08 A3002 RMK AC4AC3 SLP188

CYXE;2016-04-25 12:00;CYXE 251200Z 11011KT 15SM BKN120 01/M08 A3002 RMK AC7 SLP190

CYXE;2016-04-25 13:00;CYXE 251300Z 10004KT 15SM BKN120 01/M08 A3003 RMK AC7 SLP191

CYXE;2016-04-25 14:00;CYXE 251400Z 09008KT 15SM BKN120 02/M08 A3003 RMK AC7 SLP193

CYXE;2016-04-25 15:00;CYXE 251500Z 13007KT 15SM BKN120 03/M09 A3003 RMK AC7 SLP193

CYXE;2016-04-25 16:00;CYXE 251600Z 08008G15KT 050V120 15SM BKN120 BKN250 06/M08 A3002 RMK AC5CI2 SLP189

CYXE;2016-04-25 17:00;CYXE 251700Z 11007KT 15SM BKN120 BKN280 06/M09 A3003 RMK AC5CI2 SLP190

CYXE;2016-04-25 18:00;CYXE 251800Z 11007KT 070V130 15SM BKN120 BKN280 07/M10 A3003 RMK AC5CI2 SLP189

CYXE;2016-04-25 19:00;CYXE 251900Z 07010G18KT 050V120 15SM BKN120 OVC280 09/M10 A3002 RMK AC5CI3 SLP186

CYXE;2016-04-25 20:00;CYXE 252000Z 09010KT 050V140 15SM BKN120 OVC280 10/M10 A3001 RMK AC5CI3 SLP182

CYXE;2016-04-25 21:00;CYXE 252100Z 10014KT 15SM BKN120 OVC280 11/M11 A3000 RMK AC6CI2 SLP180

CYXE;2016-04-25 22:00;CYXE 252200Z 09011KT 15SM BKN100 OVC280 11/M10 A3000 RMK AC6CI2 SLP178

CYXE;2016-04-25 23:00;CYXE 252300Z 06008G15KT 15SM SCT100 BKN280 11/M10 A3000 RMK AC3CI4 SLP179

CYXE;2016-04-26 00:00;CYXE 260000Z 09006KT 040V100 15SM SCT100 BKN280 11/M10 A3000 RMK AC3CI4 SLP179

CYXE;2016-04-26 01:00;CYXE 260100Z 12009KT 15SM FEW100 BKN250 11/M10 A3000 RMK AC2CI4 SLP181

CYXE;2016-04-26 02:00;CYXE 260200Z 10008KT 15SM FEW100 BKN250 07/M09 A3001 RMK AC2CI4 SLP186

CYXE;2016-04-26 03:00;CYXE 260300Z 07005KT 15SM FEW100 BKN250 04/M06 A3003 RMK AC1CI5 SLP192

CYXE;2016-04-26 04:00;CYXE 260400Z 07005KT 15SM FEW100 BKN250 02/M06 A3003 RMK AC1CI5 SLP194

CYXE;2016-04-26 05:00;CYXE 260500Z 05007KT 15SM FEW100 BKN250 01/M06 A3003 RMK AC1CI5 SLP193

CYXE;2016-04-26 06:00;CYXE 260600Z 06005KT 15SM BKN250 01/M06 A3004 RMK CI6 SLP195

CYXE;2016-04-26 07:00;CYXE 260700Z 09006KT 15SM BKN210 01/M05 A3005 RMK CI6 SLP199

CYXE;2016-04-26 08:00;CYXE 260800Z 10008KT 15SM BKN150 02/M06 A3005 RMK AC7 SLP198

CYXE;2016-04-26 09:00;CYXE 260900Z 11008KT 15SM BKN150 01/M06 A3005 RMK AC6 SLP198

CYXE;2016-04-26 10:00;CYXE 261000Z 11006KT 15SM BKN200 02/M05 A3005 RMK CI7 SLP195

CYXE;2016-04-26 11:00;CYXE 261100Z 11006KT 15SM SCT150 BKN200 01/M05 A3005 RMK AC3CI4 SLP198

CYXE;2016-04-26 12:00;CYXE 261200Z 09005KT 15SM OVC160 00/M04 A3005 RMK AC8 SLP199

CYXE;2016-04-26 13:00;CYXE 261300Z 11005KT 15SM OVC150 02/M04 A3006 RMK AC8 VIRGA SLP201

CYXE;2016-04-26 14:00;CYXE 261400Z 12005KT 15SM OVC150 04/M04 A3007 RMK AC8 SLP205

CYXE;2016-04-26 15:00;CYXE 261500Z 15004KT 110V190 15SM OVC160 06/M04 A3007 RMK AC8 SLP206

CYXE;2016-04-26 16:00;CYXE 261600Z 18004KT 120V230 15SM SCT160 OVC300 08/M05 A3008 RMK AC3CI5 SLP207

CYXE;2016-04-26 17:00;CYXE 261700Z 13005KT 060V150 15SM SCT160 OVC300 10/M05 A3007 RMK AC3CI5 SLP206

CYXE;2016-04-26 18:00;CYXE 261800Z 09004KT 050V150 15SM FEW160 OVC300 10/M05 A3007 RMK AC2CS6 SLP204

CYXE;2016-04-26 19:00;CYXE 261900Z 11006KT 15SM OVC120 11/M05 A3007 RMK AC8 SLP203

CYXE;2016-04-26 20:00;CYXE 262000Z 15007KT 080V170 15SM BKN120 OVC300 11/M06 A3006 RMK AC6CI2 SLP201

CYXE;2016-04-26 21:00;CYXE 262100Z 12007KT 090V160 15SM SCT140 OVC300 12/M04 A3006 RMK AC4CI4 SLP200

CYXE;2016-04-26 22:00;CYXE 262200Z VRB03KT 15SM BKN140 OVC300 12/M06 A3005 RMK AC6CI2 SLP196

CYXE;2016-04-26 23:00;CYXE 262300Z 10007KT 15SM BKN140 OVC300 12/M05 A3004 RMK AC6CI2 SLP193

CYXE;2016-04-27 00:00;CYXE 270000Z 05004KT 15SM OVC130 12/M05 A3004 RMK AC8 SLP193

CYXE;2016-04-27 01:00;CYXE 270100Z 08006KT 15SM BKN120 11/M05 A3005 RMK AC7 SLP195

CYXE;2016-04-27 02:00;CYXE 270200Z 08007KT 15SM BKN120 10/M03 A3005 RMK AC7 SLP198

CYXE;2016-04-27 03:00;CYXE 270300Z 15005KT 15SM BKN120 08/M05 A3006 RMK AC7 SLP201

CYXE;2016-04-27 04:00;CYXE 270400Z 14003KT 15SM SCT130 07/M04 A3007 RMK AC4 SLP203

CYXE;2016-04-27 05:00;CYXE 270500Z 10004KT 15SM SCT130 05/M04 A3007 RMK AC4 SLP203

CYXE;2016-04-27 06:00;CYXE 270600Z 12004KT 15SM BKN150 05/M04 A3007 RMK AC5 SLP201

CYXE;2016-04-27 07:00;CYXE 270700Z 15004KT 15SM SCT150 03/M04 A3006 RMK AC3 SLP201

CYXE;2016-04-27 07:43;CYXE 270743Z 16005KT 15SM FEW150 02/M05 A3006 RMK AC2 SLP202

CYXE;2016-04-27 08:00;CYXE 270800Z 15003KT 15SM FEW150 03/M05 A3007 RMK AC2 SLP203

CYXE;2016-04-27 09:00;CYXE 270900Z 18002KT 15SM SCT110 04/M04 A3009 RMK AC3 SLP208

CYXE;2016-04-27 10:00;CYXE 271000Z 00000KT 15SM BKN140 04/M03 A3009 RMK AC7 SLP211

CYXE;2016-04-27 11:00;CYXE 271100Z 08002KT 15SM FEW140 03/M03 A3009 RMK AC2 SLP211

CYXE;2016-04-27 12:00;CYXE 271200Z 06004KT 15SM SCT110 BKN140 01/M03 A3011 RMK AC3AC3 SLP217

CYXE;2016-04-27 13:00;CYXE 271300Z 07004KT 15SM BKN100 03/M02 A3013 RMK AC6 SLP222

CYXE;2016-04-27 14:00;CYXE 271400Z 13005KT 15SM SCT100 BKN140 06/M02 A3014 RMK AC4AC2 SLP225

CYXE;2016-04-27 15:00;CYXE 271500Z 04004KT 020V110 15SM BKN130 08/M02 A3014 RMK AC5 SLP224

CYXE;2016-04-27 16:00;CYXE 271600Z 08006KT 030V100 15SM BKN130 11/M03 A3014 RMK AC5 SLP223

CYXE;2016-04-27 17:00;CYXE 271700Z 05005KT 010V130 15SM BKN130 14/M03 A3013 RMK AC5 SLP219

CYXE;2016-04-27 18:00;CYXE 271800Z 09008KT 060V150 15SM SCT140 OVC300 15/M05 A3012 RMK AC4CI4 SLP215 DENSITY ALT 1800FT

CYXE;2016-04-27 19:00;CYXE 271900Z 09010KT 070V160 15SM FEW100 OVC300 16/M07 A3012 RMK AC2CS6 SLP218 DENSITY ALT 1800FT

CYXE;2016-04-27 20:00;CYXE 272000Z VRB07KT 15SM FEW100 OVC300 15/M06 A3013 RMK AC2CS6 SLP219 DENSITY ALT 1800FT

CYXE;2016-04-27 21:00;CYXE 272100Z 09010KT 15SM FEW100 OVC300 17/M06 A3013 RMK AC2CS6 WND ESTD SLP219 DENSITY ALT 1900FT

CYXE;2016-04-27 22:00;CYXE 272200Z 08009KT 060V140 15SM FEW100 BKN300 17/M05 A3013 RMK AC2CI4 SLP219 DENSITY ALT 1900FT

CYXE;2016-04-27 23:00;CYXE 272300Z 11012KT 15SM FEW100 SCT300 16/M07 A3012 RMK AC2CI2 SLP218 DENSITY ALT 1900FT

CYXE;2016-04-28 00:00;CYXE 280000Z 12011G16KT 15SM FEW100 SCT300 15/M08 A3014 RMK AC2CI2 SLP224 DENSITY ALT 1800FT

CYXE;2016-04-28 01:00;CYXE 280100Z 11013KT 15SM FEW100 SCT300 14/M08 A3014 RMK AC2CI2 SLP226

CYXE;2016-04-28 02:00;CYXE 280200Z 11009KT 15SM FEW120 BKN300 11/M08 A3015 RMK AC2CI3 SLP228

CYXE;2016-04-28 03:00;CYXE 280300Z 10008KT 15SM FEW130 SCT300 07/M09 A3017 RMK AC1CI2 SLP236

CYXE;2016-04-28 04:00;CYXE 280400Z 13009KT 15SM FEW300 08/M07 A3018 RMK CI2 SLP239

CYXE;2016-04-28 05:00;CYXE 280500Z 14005KT 15SM FEW300 05/M07 A3019 RMK CI2 SLP241

CYXE;2016-04-28 06:00;CYXE 280600Z 09002KT 15SM FEW300 05/M06 A3019 RMK CI2 SLP242

CYXE;2016-04-28 07:00;CYXE 280700Z 06004KT 15SM FEW300 03/M06 A3020 RMK CI2 SLP246

CYXE;2016-04-28 07:14;CYXE 280714Z 08004KT 15SM FEW300 02/M06 A3021 RMK CI2 SLP247

CYXE;2016-04-28 08:00;CYXE 280800Z 09005KT 15SM SCT250 03/M04 A3021 RMK CI3 SLP247

CYXE;2016-04-28 09:00;CYXE 280900Z 13004KT 15SM SCT100 BKN250 05/M04 A3021 RMK AC3CI3 SLP247

CYXE;2016-04-28 10:00;CYXE 281000Z 13005KT 15SM 05/M04 A3022 RMK SLP250

CYXE;2016-04-28 11:00;CYXE 281100Z 12006KT 15SM FEW100 BKN250 03/M03 A3023 RMK AC1CI4 SLP253

CYXE;2016-04-28 11:07;CYXE 281107Z 10006KT 15SM FEW100 BKN250 02/M03 A3023 RMK AC1CI4 SLP254

CYXE;2016-04-28 12:00;CYXE 281200Z 11004KT 15SM FEW100 BKN250 03/M03 A3024 RMK AC1CI4 SLP258

CYXE;2016-04-28 13:00;CYXE 281300Z 11006KT 15SM FEW100 BKN250 06/M02 A3025 RMK AC1CI5 SLP261

CYXE;2016-04-28 14:00;CYXE 281400Z 13006KT 15SM OVC300 08/M03 A3026 RMK CS8 SLP264

CYXE;2016-04-28 15:00;CYXE 281500Z 14007KT 15SM OVC300 09/M04 A3026 RMK CS8 SLP267

CYXE;2016-04-28 16:00;CYXE 281600Z 13004KT 15SM BKN300 11/M03 A3026 RMK CS7 SLP266

CYXE;2016-04-28 17:00;CYXE 281700Z 13007KT 060V160 15SM BKN300 13/M04 A3026 RMK CS7 SLP266

CYXE;2016-04-28 18:00;CYXE 281800Z 08009KT 070V160 15SM BKN300 14/M05 A3026 RMK CS7 SLP265

CYXE;2016-04-28 19:00;CYXE 281900Z 14007G16KT 090V160 15SM BKN300 15/M06 A3024 RMK CS7 SLP260 DENSITY ALT 1700FT

CYXE;2016-04-28 20:00;CYXE 282000Z 13013G22KT 100V160 15SM BKN300 16/M07 A3023 RMK CS7 SLP257 DENSITY ALT 1700FT

CYXE;2016-04-28 21:00;CYXE 282100Z 12008G19KT 080V160 15SM BKN300 16/M07 A3022 RMK CI7 SLP250 DENSITY ALT 1800FT

CYXE;2016-04-28 22:00;CYXE 282200Z 11009KT 060V140 15SM FEW160 BKN300 16/M06 A3021 RMK AC1CI6 SLP248 DENSITY ALT 1800FT

CYXE;2016-04-28 23:00;CYXE 282300Z 10014KT 15SM FEW160 BKN300 17/M06 A3020 RMK AC1CI6 SLP245 DENSITY ALT 1900FT

CYXE;2016-04-29 00:00;CYXE 290000Z 11012KT 15SM BKN300 16/M07 A3019 RMK CI6 SLP243 DENSITY ALT 1800FT

CYXE;2016-04-29 01:00;CYXE 290100Z 13011G17KT 15SM BKN300 15/M07 A3019 RMK CI6 SLP240

CYXE;2016-04-29 02:00;CYXE 290200Z 11011KT 15SM BKN300 13/M05 A3019 RMK CI6 SLP240

CYXE;2016-04-29 03:00;CYXE 290300Z 10008KT 15SM BKN300 09/M05 A3019 RMK CI6 SLP243

CYXE;2016-04-29 04:00;CYXE 290400Z 12009KT 15SM BKN300 09/M04 A3020 RMK CI5 SLP243

CYXE;2016-04-29 05:00;CYXE 290500Z 13010KT 15SM BKN300 09/M04 A3019 RMK CI5 SLP241

CYXE;2016-04-29 06:00;CYXE 290600Z 13007KT 15SM SCT300 07/M03 A3019 RMK CI4 SLP240

CYXE;2016-04-29 07:00;CYXE 290700Z 13008KT 15SM BKN300 05/M03 A3018 RMK CI5 SLP238

CYXE;2016-04-29 08:00;CYXE 290800Z 13008KT 15SM SCT300 05/M03 A3018 RMK CI4 SLP236

CYXE;2016-04-29 09:00;CYXE 290900Z 13008KT 15SM SCT300 04/M03 A3018 RMK CI3 SLP237

CYXE;2016-04-29 10:00;CYXE 291000Z 13010KT 15SM FEW300 04/M03 A3018 RMK CI2 SLP235

CYXE;2016-04-29 11:00;CYXE 291100Z 14008KT 15SM FEW300 03/M03 A3017 RMK CI2 SLP233

CYXE;2016-04-29 11:56;CYXE 291156Z 15009KT 15SM FEW300 02/M03 A3018 RMK CI2 SLP236

CYXE;2016-04-29 12:00;CYXE 291200Z 15009KT 15SM FEW300 03/M03 A3017 RMK CI2 SLP236

CYXE;2016-04-29 13:00;CYXE 291300Z 14009KT 15SM FEW300 05/M03 A3018 RMK CI2 SLP237

CYXE;2016-04-29 14:00;CYXE 291400Z 15009KT 15SM FEW300 08/M05 A3018 RMK CI1 SLP236

CYXE;2016-04-29 15:00;CYXE 291500Z 14010KT 15SM SKC 11/M05 A3018 RMK SLP238

CYXE;2016-04-29 16:00;CYXE 291600Z 15011KT 15SM SKC 14/M07 A3018 RMK SLP234

CYXE;2016-04-29 17:00;CYXE 291700Z 13014KT 15SM SKC 16/M09 A3017 RMK SLP232 DENSITY ALT 1800FT

CYXE;2016-04-29 18:00;CYXE 291800Z 12015G23KT 15SM SKC 16/M09 A3017 RMK SLP233 DENSITY ALT 1900FT

CYXE;2016-04-29 19:00;CYXE 291900Z 13017G23KT 100V160 15SM SKC 17/M07 A3017 RMK SLP231 DENSITY ALT 1900FT

CYXE;2016-04-29 20:00;CYXE 292000Z 13015G22KT 15SM SKC 17/M08 A3014 RMK SLP223 DENSITY ALT 2000FT

CYXE;2016-04-29 21:00;CYXE 292100Z 13018G27KT 15SM SKC 18/M09 A3014 RMK SLP222 DENSITY ALT 2000FT

CYXE;2016-04-29 22:00;CYXE 292200Z 15018KT 15SM SKC 18/M09 A3013 RMK SLP218 DENSITY ALT 2100FT

CYXE;2016-04-29 23:00;CYXE 292300Z 14017G23KT 15SM SKC 18/M09 A3013 RMK SLP218 DENSITY ALT 2100FT

CYXE;2016-04-30 00:00;CYXE 300000Z 16013G21KT 100V170 15SM SKC 18/M09 A3013 RMK SLP220 DENSITY ALT 2000FT

CYXE;2016-04-30 01:00;CYXE 300100Z 13013G19KT 15SM SKC 17/M08 A3013 RMK SLP221 DENSITY ALT 2000FT

CYXE;2016-04-30 02:00;CYXE 300200Z 13011KT 15SM SKC 15/M09 A3015 RMK SLP225 DENSITY ALT 1700FT

CYXE;2016-04-30 03:00;CYXE 300300Z 12011KT 15SM SKC 12/M06 A3017 RMK SLP230

CYXE;2016-04-30 04:00;CYXE 300400Z 12010KT 15SM SKC 11/M05 A3018 RMK SLP235

CYXE;2016-04-30 05:00;CYXE 300500Z 13012KT 15SM SKC 10/M04 A3019 RMK SLP236

CYXE;2016-04-30 06:00;CYXE 300600Z 14012KT 15SM SKC 09/M04 A3019 RMK SLP237

CYXE;2016-04-30 07:00;CYXE 300700Z 13009KT 15SM 07/M04 A3022 RMK SLP247

CYXE;2016-04-30 08:00;CYXE 300800Z 13009KT 15SM SKC 06/M03 A3023 RMK SLP252

CYXE;2016-04-30 09:00;CYXE 300900Z 13009KT 15SM SKC 05/M03 A3025 RMK SLP258

CYXE;2016-04-30 10:00;CYXE 301000Z 13010KT 15SM SKC 05/M03 A3026 RMK SLP263

CYXE;2016-04-30 11:00;CYXE 301100Z 13010KT 15SM SKC 04/M03 A3027 RMK SLP267

CYXE;2016-04-30 12:00;CYXE 301200Z 13009KT 15SM SKC 05/M04 A3028 RMK SLP272

CYXE;2016-04-30 13:00;CYXE 301300Z 14009KT 15SM SKC 06/M03 A3029 RMK SLP274

CYXE;2016-04-30 14:00;CYXE 301400Z 15011KT 15SM SKC 09/M02 A3031 RMK SLP281

CYXE;2016-04-30 15:00;CYXE 301500Z 15011KT 15SM SKC 11/M02 A3033 RMK SLP286

CYXE;2016-04-30 16:00;CYXE 301600Z 15009KT 15SM SKC 14/M02 A3034 RMK SLP288

CYXE;2016-04-30 17:00;CYXE 301700Z 15011KT 15SM FEW240 16/M03 A3033 RMK CI1 CI TR SLP285 DENSITY ALT 1700FT

CYXE;2016-04-30 18:00;CYXE 301800Z 16010G15KT 15SM FEW240 18/M05 A3032 RMK CI1 SLP281 DENSITY ALT 1800FT

CYXE;2016-04-30 19:00;CYXE 301900Z 12007KT 090V190 15SM FEW240 18/M04 A3031 RMK CI1 CI TR SLP280 DENSITY ALT 1900FT

CYXE;2016-04-30 20:00;CYXE 302000Z 15009KT 15SM FEW240 19/M05 A3031 RMK CI1 CI TR SLP278 DENSITY ALT 2000FT

CYXE;2016-04-30 21:00;CYXE 302100Z 13011KT 120V200 15SM FEW240 20/M04 A3030 RMK CI1 SLP275 DENSITY ALT 2100FT

CYXE;2016-04-30 22:00;CYXE 302200Z 18005KT 130V260 15SM FEW040 FEW230 19/M04 A3029 RMK CF1CI1 CF TR CI TR SLP272 DENSITY ALT 2100FT

CYXE;2016-04-30 23:00;CYXE 302300Z 18008KT 150V230 15SM FEW040 FEW230 20/M05 A3029 RMK CF1CI1 CF TR CI TR SLP273 DENSITY ALT 2100FT

CYXE;2016-05-01 00:00;CYXE 010000Z 24007KT 170V260 15SM FEW100 SCT300 19/M04 A3029 RMK AC1CI2 SLP273 DENSITY ALT 2000FT

CYXE;2016-05-01 01:00;CYXE 010100Z 18005KT 170V240 15SM SCT300 18/M04 A3029 RMK CI3 SLP271 DENSITY ALT 2000FT

CYXE;2016-05-01 02:00;CYXE 010200Z 19006KT 15SM SCT300 16/M03 A3028 RMK CI4 SLP270

CYXE;2016-05-01 03:00;CYXE 010300Z 18006KT 15SM SCT300 13/M03 A3028 RMK CI4 SLP270

CYXE;2016-05-01 04:00;CYXE 010400Z 18008KT 15SM FEW300 10/M03 A3029 RMK CI2 SLP272

CYXE;2016-05-01 05:00;CYXE 010500Z 18007KT 15SM SKC 09/M03 A3029 RMK SLP273

CYXE;2016-05-01 06:00;CYXE 010600Z 19009KT 15SM SKC 08/M03 A3030 RMK SLP273

CYXE;2016-05-01 07:00;CYXE 010700Z 21008KT 15SM SKC 07/M03 A3031 RMK SLP277

CYXE;2016-05-01 08:00;CYXE 010800Z 19008KT 15SM SKC 07/M03 A3029 RMK SLP270

CYXE;2016-05-01 09:00;CYXE 010900Z 19007KT 15SM SKC 05/M03 A3028 RMK SLP270

CYXE;2016-05-01 10:00;CYXE 011000Z 20005KT 15SM SKC 06/M03 A3027 RMK SLP266

CYXE;2016-05-01 11:00;CYXE 011100Z 24007KT 230V300 15SM 03/M02 A3027 RMK SLP267

CYXE;2016-05-01 12:00;CYXE 011200Z 22007KT 15SM FEW140 BKN300 03/M02 A3027 RMK AC1CI5 SLP266

CYXE;2016-05-01 13:00;CYXE 011300Z 22007KT 15SM BKN300 09/M01 A3027 RMK CI7 SLP265

CYXE;2016-05-01 14:00;CYXE 011400Z 22005KT 15SM BKN300 12/01 A3027 RMK CI7 SLP263

CYXE;2016-05-01 15:00;CYXE 011500Z 25008KT 15SM FEW180 BKN300 14/03 A3026 RMK AC2CI4 SLP261

CYXE;2016-05-01 16:00;CYXE 011600Z 24012KT 15SM SCT230 17/03 A3023 RMK CI3 SLP251 DENSITY ALT 1900FT

CYXE;2016-05-01 17:00;CYXE 011700Z 26010KT 15SM SCT063 BKN220 19/02 A3021 RMK CU3CI3 SLP244 DENSITY ALT 2100FT

CYXE;2016-05-01 18:00;CYXE 011800Z 27014G20KT 240V310 15SM SCT073 BKN300 20/01 A3019 RMK CU4CI2 SLP236 DENSITY ALT 2300FT

CYXE;2016-05-01 19:00;CYXE 011900Z 26011G19KT 250V320 15SM FEW080 BKN300 20/01 A3017 RMK CU2CI3 WSHFT 1850 SLP230 DENSITY ALT 2300FT

CYXE;2016-05-01 20:00;CYXE 012000Z 31015G21KT 260V320 15SM FEW080 SCT300 21/01 A3014 RMK CF2CI1 SLP219 DENSITY ALT 2400FT

CYXE;2016-05-01 21:00;CYXE 012100Z 29013G20KT 15SM FEW080 SCT300 22/M00 A3011 RMK CU2CI1 SLP210 DENSITY ALT 2500FT

CYXE;2016-05-01 22:00;CYXE 012200Z 29013G22KT 230V300 15SM FEW085 FEW300 22/M01 A3009 RMK AC1CI1 SLP202 DENSITY ALT 2600FT

CYXE;2016-05-01 23:00;CYXE 012300Z 33016KT 15SM FEW085 SCT300 22/M01 A3007 RMK AC1CI2 SLP197 DENSITY ALT 2600FT

CYXE;2016-05-02 00:00;CYXE 020000Z 33012KT 15SM BKN300 22/M01 A3006 RMK CI7 SLP193 DENSITY ALT 2600FT

CYXE;2016-05-02 01:00;CYXE 020100Z 31011KT 15SM BKN300 20/M01 A3005 RMK CI7 SLP186 DENSITY ALT 2400FT

CYXE;2016-05-02 02:00;CYXE 020200Z 32005KT 15SM BKN250 17/00 A3004 RMK CI7 SLP184 DENSITY ALT 2100FT

CYXE;2016-05-02 03:00;CYXE 020300Z 24002KT 15SM BKN250 14/M00 A3004 RMK CI5 SLP184 DENSITY ALT 1700FT

CYXE;2016-05-02 04:00;CYXE 020400Z 22007KT 15SM BKN250 12/02 A3004 RMK CI5 SLP183

CYXE;2016-05-02 05:00;CYXE 020500Z 22006KT 15SM SCT250 11/00 A3004 RMK CI4 SLP182

CYXE;2016-05-02 06:00;CYXE 020600Z 23009KT 15SM SCT280 08/01 A3003 RMK CI3 SLP179

CYXE;2016-05-02 07:00;CYXE 020700Z 00000KT 15SM FEW280 11/00 A3003 RMK CI2 SLP179

CYXE;2016-05-02 08:00;CYXE 020800Z 00000KT 15SM FEW280 09/01 A3003 RMK CI2 SLP181

CYXE;2016-05-02 09:00;CYXE 020900Z 18003KT 15SM SKC 08/M00 A3003 RMK SLP180

CYXE;2016-05-02 10:00;CYXE 021000Z 24004KT 15SM FEW280 05/01 A3003 RMK CI2 SLP183

CYXE;2016-05-02 11:00;CYXE 021100Z 19002KT 15SM SCT280 03/01 A3003 RMK CI3 SLP184

CYXE;2016-05-02 12:00;CYXE 021200Z 21002KT 15SM SCT280 04/M00 A3005 RMK CI4 SLP188

CYXE;2016-05-02 13:00;CYXE 021300Z 10002KT 15SM FEW280 08/03 A3005 RMK CI2 SLP188

CYXE;2016-05-02 14:00;CYXE 021400Z 16004KT 120V190 15SM BKN280 11/02 A3006 RMK CI5 SLP190

CYXE;2016-05-02 15:00;CYXE 021500Z VRB02KT 15SM BKN280 13/03 A3007 RMK CI6 SLP194

CYXE;2016-05-02 16:00;CYXE 021600Z VRB02KT 15SM SCT200 BKN280 17/02 A3007 RMK CI3CI3 SLP194 DENSITY ALT 2100FT

CYXE;2016-05-02 17:00;CYXE 021700Z 13002KT 15SM BKN280 20/01 A3006 RMK CI5 SLP190 DENSITY ALT 2400FT

CYXE;2016-05-02 18:00;CYXE 021800Z VRB02KT 15SM BKN280 22/00 A3006 RMK CI7 SLP189 DENSITY ALT 2700FT

CYXE;2016-05-02 19:00;CYXE 021900Z VRB05KT 15SM SCT280 24/01 A3004 RMK CI3 SLP181 DENSITY ALT 2800FT

CYXE;2016-05-02 20:00;CYXE 022000Z 34007KT 270V080 15SM BKN280 25/02 A3003 RMK CI5 SLP178 DENSITY ALT 3000FT

CYXE;2016-05-02 21:00;CYXE 022100Z 33011KT 310V020 15SM FEW280 26/01 A3002 RMK CI2 SLP173 DENSITY ALT 3100FT

CYXE;2016-05-02 22:00;CYXE 022200Z 35011G16KT 15SM FEW280 26/02 A3000 RMK CI1 SLP170 DENSITY ALT 3200FT

CYXE;2016-05-02 23:00;CYXE 022300Z 36010KT 330V030 15SM FEW280 26/02 A2999 RMK CI1 SLP166 DENSITY ALT 3200FT

CYXE;2016-05-03 00:00;CYXE 030000Z 03008KT 320V040 15SM FEW280 26/01 A2998 RMK CI2 SLP164 DENSITY ALT 3200FT

CYXE;2016-05-03 01:00;CYXE 030100Z 01007KT 15SM SCT280 25/03 A2998 RMK CI3 SLP162 DENSITY ALT 3000FT

CYXE;2016-05-03 02:00;CYXE 030200Z 00000KT 15SM BKN280 24/02 A2998 RMK CI5 SLP161 DENSITY ALT 2900FT

CYXE;2016-05-03 03:00;CYXE 030300Z 33002KT 15SM SCT280 17/03 A2999 RMK CI3 SLP164 DENSITY ALT 2200FT

CYXE;2016-05-03 04:00;CYXE 030400Z 03003KT 15SM SKC 17/03 A3000 RMK SLP166 DENSITY ALT 2100FT

CYXE;2016-05-03 05:00;CYXE 030500Z 29004KT 15SM FEW280 12/03 A3001 RMK CI2 SLP171

CYXE;2016-05-03 06:00;CYXE 030600Z 28005KT 15SM SKC 11/05 A3001 RMK SLP171

CYXE;2016-05-03 07:00;CYXE 030700Z 32003KT 15SM SKC 10/05 A3001 RMK SLP172

CYXE;2016-05-03 08:00;CYXE 030800Z VRB02KT 15SM SKC 09/05 A3002 RMK SLP173

CYXE;2016-05-03 09:00;CYXE 030900Z 12002KT 15SM SKC 09/04 A3002 RMK SLP174

CYXE;2016-05-03 10:00;CYXE 031000Z 05003KT 15SM SKC 08/05 A3003 RMK SLP176

CYXE;2016-05-03 11:00;CYXE 031100Z 07004KT 15SM BKN280 07/04 A3003 RMK CI5 SLP179

CYXE;2016-05-03 12:00;CYXE 031200Z 07006KT 15SM BKN280 06/04 A3004 RMK CI6 SLP183

CYXE;2016-05-03 13:00;CYXE 031300Z 12005KT 15SM FEW280 12/07 A3005 RMK CI2 SLP185

CYXE;2016-05-03 14:00;CYXE 031400Z 13009KT 15SM SCT280 17/04 A3005 RMK CI4 SLP181 DENSITY ALT 2000FT

CYXE;2016-05-03 15:00;CYXE 031500Z 15008KT 15SM SCT280 19/05 A3005 RMK CI3 SLP182 DENSITY ALT 2400FT

CYXE;2016-05-03 16:00;CYXE 031600Z 19005KT 15SM SCT280 22/06 A3005 RMK CI4 SLP182 DENSITY ALT 2700FT

CYXE;2016-05-03 17:00;CYXE 031700Z 21005KT 180V260 15SM SCT280 24/03 A3005 RMK CI3 SLP182 DENSITY ALT 2900FT

CYXE;2016-05-03 18:00;CYXE 031800Z 22006KT 180V260 15SM BKN280 26/04 A3004 RMK CI6 SLP178 DENSITY ALT 3100FT

CYXE;2016-05-03 19:00;CYXE 031900Z 28008KT 210V330 15SM SCT280 28/04 A3002 RMK CI4 SLP173 DENSITY ALT 3300FT

CYXE;2016-05-03 20:00;CYXE 032000Z 26004KT 170V290 15SM FEW085 BKN280 28/03 A3001 RMK AC1CI6 AC TR SLP169 DENSITY ALT 3400FT

CYXE;2016-05-03 21:00;CYXE 032100Z 19006KT 170V260 15SM FEW090 SCT280 29/04 A3000 RMK AC1CI3 SLP165 DENSITY ALT 3400FT

CYXE;2016-05-03 22:00;CYXE 032200Z 26008KT 240V330 15SM FEW090 BKN280 29/03 A2998 RMK AC1CI4 SLP160 DENSITY ALT 3500FT

CYXE;2016-05-03 23:00;CYXE 032300Z 26005KT 230V320 15SM FEW090 BKN280 29/02 A2997 RMK AC1CI6 SLP157 DENSITY ALT 3500FT

CYXE;2016-05-04 00:00;CYXE 040000Z 22007KT 190V010 15SM BKN280 29/02 A2996 RMK CI7 SLP153 DENSITY ALT 3500FT

CYXE;2016-05-04 01:00;CYXE 040100Z 17007KT 15SM OVC280 27/03 A2995 RMK CI8 SLP147 DENSITY ALT 3400FT

CYXE;2016-05-04 02:00;CYXE 040200Z 18008KT 15SM SCT280 23/04 A2994 RMK CI3 SLP142 DENSITY ALT 2900FT

CYXE;2016-05-04 03:00;CYXE 040300Z 18007KT 15SM FEW280 20/03 A2993 RMK CI2 SLP141 DENSITY ALT 2600FT

CYXE;2016-05-04 04:00;CYXE 040400Z 13008KT 15SM FEW280 19/05 A2994 RMK CI1 SLP142 DENSITY ALT 2400FT

CYXE;2016-05-04 05:00;CYXE 040500Z 15007KT 15SM FEW280 15/06 A2993 RMK CI1 SLP139 DENSITY ALT 2000FT

CYXE;2016-05-04 06:00;CYXE 040600Z 17009KT 15SM SKC 13/06 A2993 RMK SLP139 DENSITY ALT 1800FT

CYXE;2016-05-04 07:00;CYXE 040700Z 19008KT 15SM SKC 14/05 A2993 RMK SLP138 DENSITY ALT 1900FT

CYXE;2016-05-04 08:00;CYXE 040800Z 20007KT 15SM SKC 14/04 A2992 RMK SLP137 DENSITY ALT 1900FT

CYXE;2016-05-04 09:00;CYXE 040900Z 19007KT 15SM SKC 13/05 A2992 RMK SLP135 DENSITY ALT 1700FT

CYXE;2016-05-04 10:00;CYXE 041000Z 20008KT 15SM FEW100 12/05 A2991 RMK AC1 SLP133

CYXE;2016-05-04 11:00;CYXE 041100Z 20008KT 15SM FEW200 11/04 A2991 RMK CI1 SLP132

CYXE;2016-05-04 12:00;CYXE 041200Z 20006KT 15SM FEW100 10/05 A2989 RMK AC1 SLP128

CYXE;2016-05-04 13:00;CYXE 041300Z 20009KT 15SM SKC 14/05 A2989 RMK SLP124 DENSITY ALT 1900FT

CYXE;2016-05-04 14:00;CYXE 041400Z 20011KT 15SM SKC 17/05 A2987 RMK SLP120 DENSITY ALT 2300FT

CYXE;2016-05-04 15:00;CYXE 041500Z 19011KT 15SM SKC 20/06 A2985 RMK SLP112 DENSITY ALT 2700FT

CYXE;2016-05-04 16:00;CYXE 041600Z 21010G17KT 15SM SKC 24/07 A2983 RMK SLP103 DENSITY ALT 3200FT

CYXE;2016-05-04 17:00;CYXE 041700Z 19011G17KT 15SM SKC 28/07 A2980 RMK SLP093 DENSITY ALT 3600FT

CYXE;2016-05-04 18:00;CYXE 041800Z 21017G22KT 15SM SKC 29/02 A2979 RMK SLP089 DENSITY ALT 3800FT

CYXE;2016-05-04 19:00;CYXE 041900Z 24020G26KT 15SM SKC 31/M00 A2976 RMK SLP080 DENSITY ALT 4000FT

CYXE;2016-05-04 20:00;CYXE 042000Z 23016G24KT 15SM SKC 31/M01 A2974 RMK SLP071 DENSITY ALT 4000FT

CYXE;2016-05-04 21:00;CYXE 042100Z 27020G27KT 15SM SKC 32/M02 A2973 RMK SLP067 DENSITY ALT 4100FT

CYXE;2016-05-04 22:00;CYXE 042200Z 27018G25KT 15SM SKC 31/M01 A2972 RMK SLP066 DENSITY ALT 4100FT

CYXE;2016-05-04 23:00;CYXE 042300Z 28014G26KT 15SM SKC 31/M02 A2972 RMK SLP065 DENSITY ALT 4100FT

CYXE;2016-05-05 00:00;CYXE 050000Z 27017G24KT 15SM SKC 30/M03 A2971 RMK SLP065 DENSITY ALT 4000FT

CYXE;2016-05-05 01:00;CYXE 050100Z 29011KT 15SM FEW280 29/M01 A2971 RMK CI2 SLP063 DENSITY ALT 3800FT

CYXE;2016-05-05 02:00;CYXE 050200Z 26008KT 15SM SCT280 24/01 A2971 RMK CI4 SLP065 DENSITY ALT 3200FT

CYXE;2016-05-05 03:00;CYXE 050300Z 28006KT 15SM SCT280 19/02 A2971 RMK CI4 SLP066 DENSITY ALT 2700FT

CYXE;2016-05-05 04:00;CYXE 050400Z 21004KT 15SM SCT280 18/02 A2971 RMK CI3 SLP063 DENSITY ALT 2500FT

CYXE;2016-05-05 05:00;CYXE 050500Z 21003KT 15SM SCT280 17/02 A2971 RMK CI3 SLP063 DENSITY ALT 2500FT

CYXE;2016-05-05 06:00;CYXE 050600Z 00000KT 15SM FEW280 14/04 A2972 RMK CI1 SLP065 DENSITY ALT 2100FT

CYXE;2016-05-05 07:00;CYXE 050700Z 27003KT 200V300 15SM SCT120 SCT240 14/04 A2973 RMK AC3CI1 DIST LTNG SW SLP067 DENSITY ALT 2100FT

CYXE;2016-05-05 07:34;CYXE 050734Z 30010G18KT 170V350 15SM TS BKN120 BKN240 14/04 A2973 RMK AC6CI1 LTGCG S SLP070 DENSITY ALT 2100FT

CYXE;2016-05-05 08:00;CYXE 050800Z 22005KT 190V330 15SM BKN120 16/04 A2973 RMK AC7 SLP069 DENSITY ALT 2300FT

CYXE;2016-05-05 09:00;CYXE 050900Z 00000KT 15SM BKN120 15/05 A2972 RMK AC5 SLP064 DENSITY ALT 2200FT

CYXE;2016-05-05 10:00;CYXE 051000Z 09007KT 15SM SCT120 BKN160 13/06 A2970 RMK AC3AC3 SLP058 DENSITY ALT 2000FT

CYXE;2016-05-05 11:00;CYXE 051100Z 16006KT 15SM SCT120 BKN160 14/07 A2969 RMK AC3AC2 SLP054 DENSITY ALT 2100FT

CYXE;2016-05-05 12:00;CYXE 051200Z 14007KT 020V150 15SM FEW130 SCT240 14/05 A2972 RMK AC2CI2 SLP064 DENSITY ALT 2100FT

CYXE;2016-05-05 13:00;CYXE 051300Z 23009KT 150V240 15SM FEW130 BKN240 16/06 A2973 RMK AC2CI3 VIRGA PRESRR SLP069 DENSITY ALT 2300FT

CYXE;2016-05-05 14:00;CYXE 051400Z 35005KT 15SM FEW130 BKN240 19/07 A2973 RMK AC1CI4 SLP072 DENSITY ALT 2600FT

CYXE;2016-05-05 15:00;CYXE 051500Z 06006KT 15SM FEW130 SCT240 22/05 A2973 RMK AC1CI3 SLP069 DENSITY ALT 3000FT

CYXE;2016-05-05 16:00;CYXE 051600Z 07008KT 10SM SCT300 24/04 A2972 RMK CI4 HZ SLP067 DENSITY ALT 3300FT

CYXE;2016-05-05 17:00;CYXE 051700Z 11006KT 040V140 10SM BKN300 26/05 A2971 RMK CI6 FU SLP062 DENSITY ALT 3400FT

CYXE;2016-05-05 18:00;CYXE 051800Z 23007KT 150V260 10SM BKN300 27/05 A2970 RMK CI7 FU SLP062 DENSITY ALT 3600FT

CYXE;2016-05-05 19:00;CYXE 051900Z 30004KT 250V350 15SM SCT300 28/05 A2969 RMK CI4 SLP058 DENSITY ALT 3700FT

CYXE;2016-05-05 20:00;CYXE 052000Z 34010G17KT 15SM BKN300 28/04 A2969 RMK CI5 SLP056 DENSITY ALT 3700FT

CYXE;2016-05-05 21:00;CYXE 052100Z 36018G24KT 12SM BKN300 27/07 A2971 RMK CI6 FU SLP064 DENSITY ALT 3600FT

CYXE;2016-05-05 22:00;CYXE 052200Z 36025G33KT 10SM BKN300 26/05 A2973 RMK CI5 FU SLP074 DENSITY ALT 3400FT

CYXE;2016-05-05 23:00;CYXE 052300Z 36023G32KT 8SM BKN300 23/06 A2977 RMK CI6 FU SLP088 DENSITY ALT 3100FT

CYXE;2016-05-06 00:00;CYXE 060000Z 36024KT 2SM FU BKN300 21/05 A2980 RMK CI6 VIS VRB 1-3 SLP098 DENSITY ALT 2800FT

CYXE;2016-05-06 01:00;CYXE 060100Z 36025G31KT 6SM FU BKN300 18/04 A2984 RMK CI5 SLP112 DENSITY ALT 2400FT

CYXE;2016-05-06 02:00;CYXE 060200Z 35018G25KT 8SM SCT300 15/05 A2987 RMK CI4 FU SLP123 DENSITY ALT 2100FT

CYXE;2016-05-06 03:00;CYXE 060300Z 35017G24KT 12SM SCT300 13/04 A2992 RMK CI4 FU SLP141 DENSITY ALT 1700FT

CYXE;2016-05-06 04:00;CYXE 060400Z 35013KT 12SM SCT090 BKN300 13/05 A2996 RMK AC4CI2 FU SLP151 DENSITY ALT 1700FT

CYXE;2016-05-06 05:00;CYXE 060500Z 34014KT 15SM SCT100 BKN300 12/03 A2999 RMK AC4CI2 SLP161

CYXE;2016-05-06 06:00;CYXE 060600Z 34008KT 15SM FEW140 BKN300 09/04 A3001 RMK AC2CI4 SLP170

CYXE;2016-05-06 07:00;CYXE 060700Z 33008KT 15SM FEW070 BKN300 08/04 A3004 RMK AC2CI3 SLP180

CYXE;2016-05-06 08:00;CYXE 060800Z 31008KT 15SM SCT300 05/02 A3007 RMK CI4 SLP191

CYXE;2016-05-06 09:00;CYXE 060900Z 30005KT 15SM SCT300 03/01 A3008 RMK CI4 SLP196

CYXE;2016-05-06 10:00;CYXE 061000Z 30008KT 15SM BKN300 04/02 A3009 RMK CI5 SLP201

CYXE;2016-05-06 11:00;CYXE 061100Z 27008KT 10SM FU BKN300 03/02 A3010 RMK CI6 SLP207

CYXE;2016-05-06 12:00;CYXE 061200Z 27006KT 10SM OVC300 03/02 A3012 RMK CI8 FU SLP215

CYXE;2016-05-06 13:00;CYXE 061300Z 24007KT 12SM OVC300 05/04 A3013 RMK CI8 FU SLP219

CYXE;2016-05-06 14:00;CYXE 061400Z 27009KT 12SM OVC300 08/04 A3014 RMK CI8 FU SLP221

CYXE;2016-05-06 15:00;CYXE 061500Z 31019KT 15SM BKN300 13/03 A3014 RMK CI6 SLP220

CYXE;2016-05-06 16:00;CYXE 061600Z 31016G22KT 12SM OVC300 16/02 A3014 RMK CI8 FU SLP219 DENSITY ALT 1800FT

CYXE;2016-05-06 17:00;CYXE 061700Z 30016G22KT 15SM SCT300 16/02 A3015 RMK CI4 SLP223 DENSITY ALT 1900FT

CYXE;2016-05-06 18:00;CYXE 061800Z 35020G29KT 15SM FEW088 SCT300 18/M04 A3015 RMK CU1CI3 SLP224 DENSITY ALT 2100FT

CYXE;2016-05-06 19:00;CYXE 061900Z 30015G26KT 12SM BKN300 18/M06 A3015 RMK CI5 FU SLP225 DENSITY ALT 2100FT

CYXE;2016-05-06 20:00;CYXE 062000Z 32019G26KT 8SM SCT300 19/M06 A3015 RMK CI4 FU SLP224 DENSITY ALT 2200FT

CYXE;2016-05-06 21:00;CYXE 062100Z 34015G23KT 8SM SCT300 19/M05 A3014 RMK CI4 FU SLP221 DENSITY ALT 2200FT

CYXE;2016-05-06 22:00;CYXE 062200Z 33014G24KT 8SM SCT300 19/M07 A3013 RMK CI4 FU SLP218 DENSITY ALT 2200FT

CYXE;2016-05-06 23:00;CYXE 062300Z 32012G18KT 10SM SCT300 19/M06 A3012 RMK CI4 FU SLP215 DENSITY ALT 2200FT

CYXE;2016-05-07 00:00;CYXE 070000Z CCA 32012G17KT 10SM BKN300 18/M05 A3011 RMK CI5 FU SLP212 DENSITY ALT 2200FT

CYXE;2016-05-07 01:00;CYXE 070100Z 34012KT 10SM BKN300 17/M06 A3011 RMK CI6 FU SLP212 DENSITY ALT 2000FT

CYXE;2016-05-07 02:00;CYXE 070200Z 36006KT 10SM FEW160 OVC300 14/M04 A3012 RMK AC2CI6 FU SLP214

CYXE;2016-05-07 03:00;CYXE 070300Z 05004KT 10SM FEW160 OVC300 14/M04 A3012 RMK AC2CI6 FU SLP213

CYXE;2016-05-07 04:00;CYXE 070400Z CCA 11005KT 10SM BKN300 12/M03 A3012 RMK CI7 FU SLP213

CYXE;2016-05-07 05:00;CYXE 070500Z 17004KT 10SM OVC300 10/M03 A3012 RMK CI8 FU SLP214

CYXE;2016-05-07 06:00;CYXE 070600Z 19005KT 10SM OVC300 09/M02 A3012 RMK CI8 FU SLP212

CYXE;2016-05-07 07:00;CYXE 070700Z 18004KT 8SM SKC 07/M02 A3010 RMK FU SLP206

CYXE;2016-05-07 08:00;CYXE 070800Z 20003KT 8SM SKC 07/M02 A3009 RMK FU SLP204

CYXE;2016-05-07 09:00;CYXE 070900Z 20007KT 10SM SKC 07/M01 A3009 RMK FU SLP202

CYXE;2016-05-07 10:00;CYXE 071000Z 21006KT 10SM SKC 04/M02 A3008 RMK FU SLP201

CYXE;2016-05-07 11:00;CYXE 071100Z 20006KT 10SM SKC 03/M02 A3007 RMK FU SLP199

CYXE;2016-05-07 12:00;CYXE 071200Z 20004KT 8SM SKC 03/M02 A3006 RMK FU SLP195

CYXE;2016-05-07 13:00;CYXE 071300Z 22007KT 15SM BKN300 07/M02 A3005 RMK CI5 SLP191

CYXE;2016-05-07 14:00;CYXE 071400Z 22006KT 15SM BKN300 10/M01 A3004 RMK CI7 SLP187

CYXE;2016-05-07 15:00;CYXE 071500Z CCA 22009KT 10SM OVC330 14/M00 A3001 RMK CI8 FU SLP173 DENSITY ALT 1800FT

CYXE;2016-05-07 16:00;CYXE 071600Z 22010G16KT 8SM OVC330 17/M02 A2999 RMK CI8 FU SLP166 DENSITY ALT 2100FT

CYXE;2016-05-07 17:00;CYXE 071700Z 25011G17KT 10SM OVC330 20/M01 A2997 RMK CI8 FU SLP158 DENSITY ALT 2500FT

CYXE;2016-05-07 18:00;CYXE 071800Z 26009G16KT 220V280 15SM OVC330 23/00 A2993 RMK CI8 SLP144 DENSITY ALT 2900FT

CYXE;2016-05-07 19:00;CYXE 071900Z 27017G23KT 15SM OVC330 24/M02 A2990 RMK CI8 SLP133 DENSITY ALT 3100FT

CYXE;2016-05-07 20:00;CYXE 072000Z 27014G22KT 15SM OVC330 25/M01 A2988 RMK CI8 SLP127 DENSITY ALT 3100FT

CYXE;2016-05-07 21:00;CYXE 072100Z 26013G21KT 15SM BKN330 24/M02 A2985 RMK CI7 SLP116 DENSITY ALT 3100FT

CYXE;2016-05-07 22:00;CYXE 072200Z 25013G18KT 220V280 15SM BKN300 26/M02 A2981 RMK CI6 SLP105 DENSITY ALT 3400FT

CYXE;2016-05-07 23:00;CYXE 072300Z 24016KT 15SM BKN300 25/M03 A2978 RMK CI7 SLP095 DENSITY ALT 3300FT

CYXE;2016-05-08 00:00;CYXE 080000Z 24012KT 15SM BKN300 26/M03 A2976 RMK CI6 SLP087 DENSITY ALT 3400FT

CYXE;2016-05-08 01:00;CYXE 080100Z 21007KT 15SM BKN300 24/M00 A2973 RMK CI6 SLP076 DENSITY ALT 3200FT

CYXE;2016-05-08 02:00;CYXE 080200Z 18007KT 15SM BKN300 20/00 A2971 RMK CI6 SLP070 DENSITY ALT 2800FT

CYXE;2016-05-08 03:00;CYXE 080300Z 18008KT 15SM BKN300 15/01 A2970 RMK CI5 SLP067 DENSITY ALT 2200FT

CYXE;2016-05-08 04:00;CYXE 080400Z 18011KT 15SM FEW300 17/01 A2969 RMK CI2 SLP062 DENSITY ALT 2400FT

CYXE;2016-05-08 05:00;CYXE 080500Z 18012KT 15SM FEW300 16/00 A2968 RMK CI2 SLP055 DENSITY ALT 2400FT

CYXE;2016-05-08 06:00;CYXE 080600Z 18011KT 15SM SKC 14/M00 A2966 RMK SLP049 DENSITY ALT 2200FT

CYXE;2016-05-08 07:00;CYXE 080700Z 19011KT 15SM SKC 14/01 A2965 RMK SLP045 DENSITY ALT 2100FT

CYXE;2016-05-08 08:00;CYXE 080800Z 19009KT 15SM SKC 12/01 A2963 RMK SLP038 DENSITY ALT 1900FT

CYXE;2016-05-08 09:00;CYXE 080900Z 19010KT 15SM SKC 12/02 A2961 RMK SLP031 DENSITY ALT 2000FT

CYXE;2016-05-08 10:00;CYXE 081000Z 18011KT 15SM SKC 12/02 A2958 RMK SLP021 DENSITY ALT 2000FT

CYXE;2016-05-08 11:00;CYXE 081100Z 17013KT 12SM SKC 12/01 A2955 RMK HZ PRESFR SLP012 DENSITY ALT 2000FT

CYXE;2016-05-08 12:00;CYXE 081200Z 18013KT 12SM SKC 11/01 A2954 RMK HZ SLP007 DENSITY ALT 2000FT

CYXE;2016-05-08 13:00;CYXE 081300Z 17016KT 12SM SKC 13/01 A2951 RMK HZ SLP996 DENSITY ALT 2200FT

CYXE;2016-05-08 14:00;CYXE 081400Z 17017G24KT 12SM SKC 15/01 A2947 RMK FU SLP985 DENSITY ALT 2500FT

CYXE;2016-05-08 15:00;CYXE 081500Z 18021KT 10SM SKC 18/02 A2945 RMK SLP979 DENSITY ALT 2800FT

CYXE;2016-05-08 16:00;CYXE 081600Z 18020G29KT 10SM SKC 21/03 A2941 RMK FU SLP962 DENSITY ALT 3200FT

CYXE;2016-05-08 17:00;CYXE 081700Z 20021G32KT 8SM SKC 23/03 A2940 RMK FU SLP959 DENSITY ALT 3500FT

CYXE;2016-05-08 18:00;CYXE 081800Z 19020G27KT 6SM FU SKC 27/04 A2938 RMK SLP951 DENSITY ALT 4000FT

CYXE;2016-05-08 19:00;CYXE 081900Z 20022G28KT 6SM DU SKC 28/05 A2936 RMK SLP942 DENSITY ALT 4100FT

CYXE;2016-05-08 20:00;CYXE 082000Z 20015G27KT 10SM SKC 30/05 A2934 RMK DU SLP936 DENSITY ALT 4300FT

CYXE;2016-05-08 21:00;CYXE 082100Z 27018KT 12SM SCT100 30/06 A2933 RMK AC4 FU WSHFT 2050 SLP934 DENSITY ALT 4300FT

CYXE;2016-05-08 22:00;CYXE 082200Z 29016G24KT 12SM SCT100 28/05 A2934 RMK AC4 FU SLP937 DENSITY ALT 4200FT

CYXE;2016-05-08 23:00;CYXE 082300Z 30015KT 15SM FEW100 SCT300 27/05 A2935 RMK AC2CI1 SLP942 DENSITY ALT 4000FT

CYXE;2016-05-09 00:00;CYXE 090000Z 30021G26KT 15SM FEW080 FEW300 25/06 A2937 RMK CU1CI1 SLP952 DENSITY ALT 3800FT

CYXE;2016-05-09 01:00;CYXE 090100Z 30018G26KT 15SM FEW080 SCT300 23/06 A2940 RMK CU1CI2 SLP959 DENSITY ALT 3500FT

CYXE;2016-05-09 02:00;CYXE 090200Z 31018G25KT 15SM FEW070TCU SCT300 20/04 A2943 RMK TCU1CI3 SLP972 DENSITY ALT 3100FT

CYXE;2016-05-09 03:00;CYXE 090300Z 31018G23KT 15SM FEW070 SCT300 17/02 A2946 RMK CU1CI3 SLP981 DENSITY ALT 2800FT

CYXE;2016-05-09 04:00;CYXE 090400Z 32013KT 15SM FEW070 FEW300 15/01 A2948 RMK CU1CI1 SLP989 DENSITY ALT 2500FT

CYXE;2016-05-09 05:00;CYXE 090500Z 33012KT 15SM FEW070 SCT160 BKN300 14/M05 A2951 RMK CU1AC2CI3 SLP999 DENSITY ALT 2300FT

CYXE;2016-05-09 06:00;CYXE 090600Z 33011G16KT 15SM BKN140 14/M05 A2957 RMK AC7 PRESRR SLP015 DENSITY ALT 2200FT

CYXE;2016-05-09 07:00;CYXE 090700Z 33011KT 15SM SCT100 OVC140 13/M03 A2957 RMK AC3AC5 SLP016 DENSITY ALT 2100FT

CYXE;2016-05-09 08:00;CYXE 090800Z 30008KT 15SM SCT080 OVC110 12/M03 A2960 RMK AC3AC5 SLP025 DENSITY ALT 2000FT

CYXE;2016-05-09 09:00;CYXE 090900Z 31011KT 15SM -RA BKN060 OVC080 11/01 A2962 RMK SC5AC3 PRESFR SLP034 DENSITY ALT 1800FT

CYXE;2016-05-09 10:00;CYXE 091000Z 31015KT 15SM -RA FEW050 OVC080 11/M00 A2962 RMK SC2AC6 SLP035 DENSITY ALT 1800FT

CYXE;2016-05-09 11:00;CYXE 091100Z 30013G18KT 15SM BKN070 OVC090 11/01 A2966 RMK AC6AC2 PRESRR SLP048 DENSITY ALT 1800FT

CYXE;2016-05-09 12:00;CYXE 091200Z 33015G25KT 15SM SCT070 BKN110 BKN240 08/04 A2967 RMK AC4AC2CI1 SLP055

CYXE;2016-05-09 13:00;CYXE 091300Z 33012KT 15SM BKN074 OVC250 08/05 A2970 RMK AC6CI2 SLP065

CYXE;2016-05-09 14:00;CYXE 091400Z 34018KT 15SM SCT050 BKN075 OVC250 08/05 A2970 RMK SC3AC3CI2 SLP067

CYXE;2016-05-09 15:00;CYXE 091500Z 34014KT 15SM SCT050 BKN075 OVC250 08/05 A2973 RMK SC3AC3CI2 SLP078

CYXE;2016-05-09 16:00;CYXE 091600Z 34010KT 15SM SCT045 BKN078 OVC250 08/05 A2975 RMK SC4AC3CI1 SLP089

CYXE;2016-05-09 16:50;CYXE 091650Z 35016KT 15SM -RA SCT020 BKN056 OVC080 09/05 A2978 RMK SC4SC2AC2 SLP096

CYXE;2016-05-09 17:00;CYXE 091700Z 35015G20KT 15SM -RA SCT020 OVC056 08/05 A2978 RMK SC4SC4 SLP099

CYXE;2016-05-09 18:00;CYXE 091800Z CCA 34010KT 8SM SCT020 OVC046 07/06 A2982 RMK SC3SC5 SLP115

CYXE;2016-05-09 19:00;CYXE 091900Z 34014KT 6SM -RA SCT007 BKN028 OVC042 07/07 A2982 RMK SF3SC3SC2 FU SLP114

CYXE;2016-05-09 20:00;CYXE 092000Z 01011G17KT 10SM -RA FEW007 BKN030 OVC053 07/06 A2984 RMK SF2SC3SC3 PRESRR SLP120

CYXE;2016-05-09 21:00;CYXE 092100Z 02012KT 12SM -RA SCT009 OVC080 07/06 A2985 RMK SF3AC5 FU SLP126

CYXE;2016-05-09 21:16;CYXE 092116Z 02010KT 15SM SCT015 OVC080 07/06 A2986 RMK SC4AC4 SLP128

CYXE;2016-05-09 22:00;CYXE 092200Z 02010KT 15SM SCT015 OVC090 08/07 A2986 RMK SC4AC4 SLP127

CYXE;2016-05-09 23:00;CYXE 092300Z 02015KT 15SM SCT020 OVC100 10/06 A2986 RMK SC4AC4 SLP128

CYXE;2016-05-10 00:00;CYXE 100000Z 01013G18KT 15SM BKN025 OVC090 09/05 A2988 RMK SC5AC3 SLP136

CYXE;2016-05-10 01:00;CYXE 100100Z 02009KT 15SM SCT030 OVC080 09/05 A2990 RMK SC3AC5 SLP142

CYXE;2016-05-10 02:00;CYXE 100200Z 01008KT 10SM OVC050 09/06 A2992 RMK SC8 FU SLP150

CYXE;2016-05-10 03:00;CYXE 100300Z 35008KT 10SM OVC080 08/06 A2993 RMK AC8 SLP154

CYXE;2016-05-10 04:00;CYXE 100400Z 01012KT 10SM OVC080 08/04 A2995 RMK AC8 FU SLP160

CYXE;2016-05-10 05:00;CYXE 100500Z 01013G18KT 12SM OVC080 08/03 A2995 RMK AC8 FU SLP160

CYXE;2016-05-10 06:00;CYXE 100600Z 01014KT 15SM OVC070 08/03 A2995 RMK AC8 FU SLP161

CYXE;2016-05-10 07:00;CYXE 100700Z 01015KT 15SM OVC062 08/03 A2995 RMK SC8 FU SLP161

CYXE;2016-05-10 08:00;CYXE 100800Z 01015KT 12SM OVC063 08/03 A2997 RMK SC8 FU SLP168

CYXE;2016-05-10 08:50;CYXE 100850Z 01014G19KT 12SM -RA OVC040 07/03 A2998 RMK SC8 SLP171

CYXE;2016-05-10 09:00;CYXE 100900Z 01014KT 12SM -RA OVC040 07/04 A2998 RMK SC8 SLP171

CYXE;2016-05-10 10:00;CYXE 101000Z 01014G20KT 12SM -RA OVC040 06/04 A2999 RMK SC8 SLP176

CYXE;2016-05-10 11:00;CYXE 101100Z 01017KT 12SM -RA OVC032 06/05 A3000 RMK SC8 SLP176

CYXE;2016-05-10 12:00;CYXE 101200Z 01018G30KT 5SM -RA BR SCT017 OVC034 06/04 A3001 RMK SC3SC5 SLP181

CYXE;2016-05-10 13:00;CYXE 101300Z 01020G28KT 10SM -RA FEW017 BKN034 OVC055 05/04 A3002 RMK SC1SC5SC2 SLP187

CYXE;2016-05-10 13:35;CYXE 101335Z 01019G26KT 10SM -RA BKN013 OVC030 05/04 A3002 RMK SC5SC3 SLP187

CYXE;2016-05-10 14:00;CYXE 101400Z 01019G29KT 12SM -RA SCT013 OVC031 04/03 A3003 RMK SC4SC4 SLP189

CYXE;2016-05-10 15:00;CYXE 101500Z 01021G27KT 10SM -RA FEW013 OVC031 04/04 A3003 RMK SC2SC6 SLP189

CYXE;2016-05-10 16:00;CYXE 101600Z 01021G29KT 10SM -RA SCT012 OVC031 04/04 A3004 RMK SC4SC4 SLP192

CYXE;2016-05-10 16:45;CYXE 101645Z 01021G34KT 10SM -RA BKN012 OVC037 04/04 A3004 RMK SC5SC3 SLP193

CYXE;2016-05-10 17:00;CYXE 101700Z 01023G29KT 10SM -RA BKN012 OVC037 04/04 A3005 RMK SC5SC3 SLP197

CYXE;2016-05-10 18:00;CYXE 101800Z 02021G27KT 10SM -RA OVC012 04/04 A3006 RMK SC8 SLP200

CYXE;2016-05-10 19:00;CYXE 101900Z 02025G32KT 8SM -RA OVC012 05/04 A3006 RMK SC8 SLP200

CYXE;2016-05-10 20:00;CYXE 102000Z 01021G29KT 10SM -RA BKN012 OVC030 05/04 A3006 RMK SC5SC3 SLP200

CYXE;2016-05-10 21:00;CYXE 102100Z 02020G29KT 10SM -RA BKN012 OVC030 05/04 A3006 RMK SC5SC3 SLP200

CYXE;2016-05-10 22:00;CYXE 102200Z 01018G29KT 10SM -RA SCT016 OVC030 05/04 A3006 RMK SC3SC5 SLP201

CYXE;2016-05-10 23:00;CYXE 102300Z 02020G28KT 12SM -RA OVC021 06/04 A3007 RMK SC8 SLP205

CYXE;2016-05-11 00:00;CYXE 110000Z CCA 02018G28KT 15SM -RA BKN020 OVC040 06/04 A3008 RMK SC5SC3 SLP207

CYXE;2016-05-11 01:00;CYXE 110100Z 02020G27KT 10SM -RA FEW020 OVC029 05/04 A3008 RMK SC2SC6 SLP210

CYXE;2016-05-11 02:00;CYXE 110200Z 03022KT 12SM -RA BKN018 OVC040 05/04 A3009 RMK SC5SC3 SLP214

CYXE;2016-05-11 03:00;CYXE 110300Z 02016KT 12SM -RA SCT020 OVC034 05/04 A3010 RMK SC3SC5 SLP217

CYXE;2016-05-11 04:00;CYXE 110400Z 03014G21KT 15SM -RA FEW020 OVC037 05/04 A3010 RMK SC2SC6 SLP217

CYXE;2016-05-11 05:00;CYXE 110500Z 02013KT 15SM -RA OVC040 05/04 A3009 RMK SC8 SLP215

CYXE;2016-05-11 06:00;CYXE 110600Z CCA 02012G17KT 15SM -RA FEW030 OVC043 05/04 A3009 RMK SC1SC7 SLP211

CYXE;2016-05-11 07:00;CYXE 110700Z 01013KT 15SM -RA SCT017 OVC045 05/04 A3008 RMK SF3SC5 SLP210

CYXE;2016-05-11 08:00;CYXE 110800Z 01012KT 15SM -RA FEW017 OVC048 05/04 A3008 RMK SF2SC6 SLP208

CYXE;2016-05-11 09:00;CYXE 110900Z 01012G19KT 15SM -RA FEW015 OVC049 05/03 A3007 RMK SF1SC7 SLP207

CYXE;2016-05-11 10:00;CYXE 111000Z 02012G21KT 12SM -RA FEW020 BKN048 OVC068 04/03 A3008 RMK SF2SC3AC3 SLP208

CYXE;2016-05-11 11:00;CYXE 111100Z 02013G18KT 12SM -RA BKN020 OVC040 04/03 A3009 RMK SF5SC3 SLP211

CYXE;2016-05-11 12:00;CYXE 111200Z 02016G21KT 12SM -RA SCT020 BKN040 OVC060 04/03 A3009 RMK SF4SC2SC2 SLP211

CYXE;2016-05-11 12:24;CYXE 111224Z 01007KT 12SM -RA BKN012 OVC050 04/03 A3009 RMK SF5SC3 SLP212

CYXE;2016-05-11 13:00;CYXE 111300Z 01012G19KT 15SM -RA SCT015 OVC040 04/02 A3009 RMK SC3SC5 SLP211

CYXE;2016-05-11 13:31;CYXE 111331Z 01015G21KT 15SM BKN020 OVC040 05/02 A3008 RMK SC5SC3 SLP210

CYXE;2016-05-11 14:00;CYXE 111400Z 02017KT 15SM SCT020 OVC050 05/01 A3009 RMK SC4SC4 SLP211

CYXE;2016-05-11 15:00;CYXE 111500Z 01014G21KT 15SM SCT022 OVC039 05/01 A3010 RMK SC3SC5 SLP215

CYXE;2016-05-11 15:33;CYXE 111533Z 02015G24KT 15SM -SHRA SCT023 OVC040 05/01 A3010 RMK CF4SC4 SLP215

CYXE;2016-05-11 16:00;CYXE 111600Z 36018G23KT 15SM -SHRA SCT022 OVC040 05/02 A3009 RMK CF4SC4 SLP214

CYXE;2016-05-11 17:00;CYXE 111700Z 01020G28KT 15SM -SHRA BKN028 OVC045 06/M00 A3010 RMK CF5SC3 SLP217

CYXE;2016-05-11 18:00;CYXE 111800Z 01019G24KT 15SM OVC037 06/01 A3011 RMK SC8 OCNL -SHRA SLP219

CYXE;2016-05-11 18:30;CYXE 111830Z 01021KT 15SM OVC031 06/M00 A3011 RMK SC8 SLP220

CYXE;2016-05-11 19:00;CYXE 111900Z 01019G25KT 15SM OVC031 06/M00 A3012 RMK SC8 SLP221

CYXE;2016-05-11 20:00;CYXE 112000Z 03017G26KT 15SM -SHRA BKN025 OVC050 06/01 A3013 RMK SC5SC3 CU EMBD SLP226

CYXE;2016-05-11 21:00;CYXE 112100Z 03017KT 15SM -SHRA BKN030 OVC048 07/02 A3014 RMK SC5SC3 CU EMBD SLP228

CYXE;2016-05-11 21:48;CYXE 112148Z 06015G23KT 15SM BKN030 BKN050 07/03 A3014 RMK SC5SC2 SLP229

CYXE;2016-05-11 22:00;CYXE 112200Z 05014KT 15SM SCT024 BKN070 BKN300 07/03 A3014 RMK SC4AC2CI1 SLP229

CYXE;2016-05-11 23:00;CYXE 112300Z 05015G21KT 15SM BKN018 BKN070 BKN300 06/02 A3015 RMK SC5AC1CI1 SLP234

CYXE;2016-05-12 00:00;CYXE 120000Z 06014G20KT 15SM BKN017 BKN070 06/02 A3017 RMK SC5AC1 SLP240

CYXE;2016-05-12 01:00;CYXE 120100Z 06013G22KT 15SM SCT016 BKN070 04/01 A3018 RMK SC4AC1 SLP245

CYXE;2016-05-12 02:00;CYXE 120200Z 05013KT 15SM FEW016 SCT070 04/00 A3019 RMK SC2AC1 SLP248

CYXE;2016-05-12 02:35;CYXE 120235Z 06008KT 15SM FEW016 SCT040 02/00 A3020 RMK SC1SC2 SLP253

CYXE;2016-05-12 03:00;CYXE 120300Z 05006KT 15SM FEW016 SCT045 02/00 A3021 RMK SC1SC2 SLP257

CYXE;2016-05-12 04:00;CYXE 120400Z 04004KT 15SM BKN045 01/00 A3022 RMK SC6 SLP259

CYXE;2016-05-12 05:00;CYXE 120500Z 04004KT 15SM BKN050 02/01 A3023 RMK SC6 SLP260

CYXE;2016-05-12 06:00;CYXE 120600Z 31003KT 290V010 15SM BKN053 01/00 A3022 RMK SC7 SLP259

CYXE;2016-05-12 07:00;CYXE 120700Z 34004KT 15SM SCT025 OVC053 01/01 A3022 RMK SC4SC4 SLP257

CYXE;2016-05-12 08:00;CYXE 120800Z 36005KT 15SM BKN027 OVC050 02/M00 A3021 RMK SC6SC2 SLP255

CYXE;2016-05-12 09:00;CYXE 120900Z 29003KT 15SM SCT027 OVC050 02/01 A3021 RMK SC3SC5 SLP253

CYXE;2016-05-12 10:00;CYXE 121000Z 31005KT 15SM SCT027 OVC050 02/01 A3021 RMK SC3SC5 SLP255

CYXE;2016-05-12 11:00;CYXE 121100Z 32007KT 15SM FEW027 OVC058 02/M01 A3021 RMK SC2SC6 SLP255

CYXE;2016-05-12 12:00;CYXE 121200Z 32006KT 15SM BKN064 02/M01 A3022 RMK SC7 SLP258

CYXE;2016-05-12 13:00;CYXE 121300Z 33007KT 15SM BKN061 03/M01 A3021 RMK SC7 SLP256

CYXE;2016-05-12 14:00;CYXE 121400Z 33008KT 15SM BKN033 OVC060 03/M01 A3022 RMK SC5SC3 SLP257

CYXE;2016-05-12 15:00;CYXE 121500Z 34013KT 15SM BKN028 OVC060 04/M01 A3022 RMK SC6SC2 SLP259

CYXE;2016-05-12 16:00;CYXE 121600Z 04008KT 15SM BKN030 OVC060 03/M01 A3023 RMK SC6SC2 SLP266

CYXE;2016-05-12 17:00;CYXE 121700Z 02014KT 15SM BKN027 OVC057 05/M01 A3023 RMK SC6SC2 SLP264

CYXE;2016-05-12 18:00;CYXE 121800Z 01014G19KT 15SM BKN030 OVC090 05/M02 A3024 RMK SC7AC1 SLP265

CYXE;2016-05-12 19:00;CYXE 121900Z 01014G21KT 15SM BKN030 06/M02 A3024 RMK SC7 SLP267

CYXE;2016-05-12 20:00;CYXE 122000Z 36015G20KT 15SM OVC032 05/M02 A3025 RMK SC8 SLP270

CYXE;2016-05-12 21:00;CYXE 122100Z 01014G19KT 15SM SCT035 BKN045 06/M03 A3025 RMK SC3SC4 SLP268

CYXE;2016-05-12 22:00;CYXE 122200Z 36014G20KT 15SM OVC040 06/M03 A3025 RMK SC8 SLP269

CYXE;2016-05-12 23:00;CYXE 122300Z 01016KT 15SM FEW035 OVC050 05/M02 A3027 RMK SC2SC6 SLP274

CYXE;2016-05-12 23:34;CYXE 122334Z 36017KT 15SM -SHRA SCT031 OVC050 05/M02 A3027 RMK SC3SC5 SLP277

CYXE;2016-05-12 23:56;CYXE 122356Z 01014KT 15SM SCT031 OVC055 05/M02 A3028 RMK SC3SC5 SLP279

CYXE;2016-05-13 00:00;CYXE 130000Z 01013G18KT 15SM SCT031 OVC055 05/M02 A3028 RMK SC3SC5 SLP279

CYXE;2016-05-13 01:00;CYXE 130100Z 02012KT 15SM BKN060 05/M03 A3029 RMK SC7 SLP282

CYXE;2016-05-13 02:00;CYXE 130200Z 03012KT 15SM BKN052 04/M03 A3030 RMK SC7 SLP287

CYXE;2016-05-13 03:00;CYXE 130300Z 02011KT 15SM BKN053 03/M03 A3033 RMK SC6 SLP295

CYXE;2016-05-13 03:44;CYXE 130344Z 03015G21KT 15SM SCT040 BKN073 02/M03 A3035 RMK SC3AC3 SLP305

CYXE;2016-05-13 04:00;CYXE 130400Z 03013G19KT 15SM FEW030 BKN073 01/M03 A3036 RMK SC2AC3 SLP308

CYXE;2016-05-13 05:00;CYXE 130500Z 02009KT 15SM FEW030 SCT073 00/M03 A3036 RMK SC1AC2 SLP310

CYXE;2016-05-13 06:00;CYXE 130600Z 34007KT 15SM SKC M03/M04 A3037 RMK SLP315

CYXE;2016-05-13 07:00;CYXE 130700Z 33006KT 15SM SCT040 M03/M03 A3038 RMK SC3 SLP317

CYXE;2016-05-13 08:00;CYXE 130800Z 29008KT 15SM SKC M04/M04 A3039 RMK SLP320

CYXE;2016-05-13 09:00;CYXE 130900Z 29008KT 15SM SKC M02/M03 A3039 RMK SLP319

CYXE;2016-05-13 10:00;CYXE 131000Z 30009KT 15SM SCT200 M02/M03 A3040 RMK CI4 SLP321

CYXE;2016-05-13 11:00;CYXE 131100Z 30010KT 15SM BKN200 M02/M02 A3041 RMK CI6 SLP327

CYXE;2016-05-13 12:00;CYXE 131200Z 31010KT 15SM SCT100 BKN200 M02/M03 A3043 RMK AC3CI2 SLP333

CYXE;2016-05-13 13:00;CYXE 131300Z 31010KT 15SM FEW100 BKN200 M01/M03 A3044 RMK AC2CI3 SLP336

CYXE;2016-05-13 14:00;CYXE 131400Z 32015KT 15SM FEW100 SCT200 03/M01 A3044 RMK AC1CI3 SLP335

CYXE;2016-05-13 15:00;CYXE 131500Z 32014KT 15SM SCT250 06/M02 A3045 RMK CI3 SLP335

CYXE;2016-05-13 16:00;CYXE 131600Z 30011KT 15SM FEW045 SCT250 07/M04 A3044 RMK CU2CI2 SLP334

CYXE;2016-05-13 17:00;CYXE 131700Z 35006G16KT 300V020 15SM SCT055 09/M04 A3044 RMK CU3 SLP334

CYXE;2016-05-13 18:00;CYXE 131800Z 36010G15KT 310V020 15SM SCT060 10/M05 A3043 RMK CU4 SLP332

CYXE;2016-05-13 19:00;CYXE 131900Z 36007KT 230V030 15SM SCT064 11/M05 A3042 RMK CU3 SLP327

CYXE;2016-05-13 20:00;CYXE 132000Z 01009G17KT 290V020 15SM SCT076 12/M06 A3041 RMK CU3 SLP323

CYXE;2016-05-13 21:00;CYXE 132100Z 32010KT 290V020 15SM BKN075 12/M05 A3040 RMK CU5 SLP319

CYXE;2016-05-13 22:00;CYXE 132200Z 33007KT 15SM BKN072 12/M06 A3039 RMK CU5 SLP314

CYXE;2016-05-13 23:00;CYXE 132300Z 32011KT 15SM BKN080 12/M06 A3038 RMK AC5 SLP312

CYXE;2016-05-14 00:00;CYXE 140000Z 30012KT 15SM SCT080 13/M06 A3036 RMK AC4 SLP306

CYXE;2016-05-14 01:00;CYXE 140100Z 32010KT 15SM SCT090 13/M05 A3036 RMK AC4 SLP302

CYXE;2016-05-14 02:00;CYXE 140200Z 29004KT 15SM SCT090 08/M03 A3035 RMK AC4 SLP300

CYXE;2016-05-14 03:00;CYXE 140300Z 29004KT 15SM BKN095 08/M02 A3035 RMK AC5 SLP298

CYXE;2016-05-14 04:00;CYXE 140400Z 28005KT 15SM BKN090 08/M01 A3035 RMK AC6 SLP298

CYXE;2016-05-14 05:00;CYXE 140500Z 29003KT 15SM BKN100 06/M01 A3034 RMK AC6 SLP296

CYXE;2016-05-14 06:00;CYXE 140600Z 28007KT 15SM BKN100 05/M00 A3034 RMK AC6 SLP294

CYXE;2016-05-14 07:00;CYXE 140700Z 28007KT 15SM BKN100 02/M02 A3033 RMK AC5 SLP293

CYXE;2016-05-14 08:00;CYXE 140800Z 26005KT 15SM BKN100 01/M02 A3033 RMK AC5 SLP292

CYXE;2016-05-14 09:00;CYXE 140900Z 27008KT 15SM BKN093 01/M02 A3032 RMK AC5 SLP290

CYXE;2016-05-14 10:00;CYXE 141000Z 27004KT 15SM BKN090 00/M03 A3032 RMK AC7 SLP291

CYXE;2016-05-14 11:00;CYXE 141100Z 30005KT 15SM BKN090 OVC270 02/M01 A3032 RMK AC6CI2 SLP289

CYXE;2016-05-14 12:00;CYXE 141200Z 29005KT 15SM SCT083 BKN270 03/M01 A3032 RMK AC4CI2 SLP289

CYXE;2016-05-14 13:00;CYXE 141300Z 29006KT 15SM SKC 04/M01 A3032 RMK SLP286

CYXE;2016-05-14 14:00;CYXE 141400Z 30007KT 15SM SKC 07/M01 A3032 RMK SLP288

CYXE;2016-05-14 15:00;CYXE 141500Z 31008KT 15SM SKC 11/M02 A3031 RMK SLP283

CYXE;2016-05-14 16:00;CYXE 141600Z 30009KT 280V340 12SM SKC 13/M01 A3029 RMK FU SLP275

CYXE;2016-05-14 17:00;CYXE 141700Z 34010KT 290V010 12SM FEW072 15/M03 A3028 RMK CU2 FU SLP270

CYXE;2016-05-14 18:00;CYXE 141800Z 36005KT 300V030 12SM SCT072 15/M03 A3027 RMK CU3 FU SLP267

CYXE;2016-05-14 19:00;CYXE 141900Z 30004KT 290V360 12SM SCT081 15/M03 A3024 RMK AC4 FU SLP260

CYXE;2016-05-14 20:00;CYXE 142000Z 26006G15KT 250V340 8SM BKN084 16/M03 A3022 RMK AC6 FU SLP253 DENSITY ALT 1700FT

CYXE;2016-05-14 21:00;CYXE 142100Z 32006KT 310V030 10SM BKN088 17/M05 A3020 RMK AC6 FU SLP244 DENSITY ALT 1900FT

CYXE;2016-05-14 22:00;CYXE 142200Z 32008KT 8SM SCT090 17/M04 A3018 RMK AC4 FU SLP239 DENSITY ALT 1900FT

CYXE;2016-05-14 23:00;CYXE 142300Z 33008KT 8SM FEW090 17/M04 A3016 RMK AC2 FU SLP231 DENSITY ALT 1900FT

CYXE;2016-05-15 00:00;CYXE 150000Z 34010KT 300V360 10SM SCT090 17/M03 A3014 RMK AC3 FU SLP225 DENSITY ALT 2000FT

CYXE;2016-05-15 01:00;CYXE 150100Z 30004KT 290V350 10SM SCT090 16/M00 A3013 RMK AC4 FU SLP220 DENSITY ALT 1800FT

CYXE;2016-05-15 02:00;CYXE 150200Z 31002KT 10SM FEW090 FEW300 14/M03 A3011 RMK AC1CI1 FU SLP212 DENSITY ALT 1700FT

CYXE;2016-05-15 03:00;CYXE 150300Z 28003KT 12SM FEW090 12/M00 A3011 RMK AC1 FU SLP210

CYXE;2016-05-15 04:00;CYXE 150400Z 26006KT 12SM SKC 08/M00 A3011 RMK FU SLP211

CYXE;2016-05-15 05:00;CYXE 150500Z 25004KT 12SM SKC 06/00 A3010 RMK FU SLP208

CYXE;2016-05-15 06:00;CYXE 150600Z 27006KT 15SM SKC 05/M00 A3009 RMK SLP207

CYXE;2016-05-15 07:00;CYXE 150700Z 23004KT 15SM SKC 04/M01 A3009 RMK SLP206

CYXE;2016-05-15 08:00;CYXE 150800Z 25007KT 15SM SKC 02/M01 A3009 RMK SLP206

CYXE;2016-05-15 09:00;CYXE 150900Z 28004KT 15SM SKC 01/M01 A3008 RMK SLP203

CYXE;2016-05-15 10:00;CYXE 151000Z 26006KT 15SM FEW270 01/M01 A3007 RMK CI2 SLP200

CYXE;2016-05-15 11:00;CYXE 151100Z 24006KT 10SM BKN270 00/M01 A3006 RMK CI5 SLP199

CYXE;2016-05-15 12:00;CYXE 151200Z 25004KT 12SM BKN270 01/M01 A3007 RMK CI6 BR SLP199

CYXE;2016-05-15 13:00;CYXE 151300Z 28004KT 15SM BKN270 04/01 A3006 RMK CI6 SLP197

CYXE;2016-05-15 14:00;CYXE 151400Z 30009KT 15SM BKN270 09/01 A3005 RMK CI5 HZ SLP192

CYXE;2016-05-15 15:00;CYXE 151500Z 35006KT 12SM SCT270 13/01 A3005 RMK CI4 HZ SLP191

CYXE;2016-05-15 16:00;CYXE 151600Z 32008KT 12SM SCT270 15/00 A3005 RMK CI4 HZ SLP189 DENSITY ALT 1900FT

CYXE;2016-05-15 17:00;CYXE 151700Z 35006KT 12SM BKN270 17/M01 A3003 RMK CI5 HZ SLP185 DENSITY ALT 2100FT

CYXE;2016-05-15 18:00;CYXE 151800Z 30003KT 250V060 12SM BKN270 17/M01 A3003 RMK CI6 FU SLP184 DENSITY ALT 2100FT

CYXE;2016-05-15 19:00;CYXE 151900Z 02005KT 250V050 10SM BKN270 19/M01 A3002 RMK CI6 FU SLP180 DENSITY ALT 2300FT

CYXE;2016-05-15 20:00;CYXE 152000Z 31004KT 250V030 8SM BKN270 19/M03 A3001 RMK CI7 FU SLP179 DENSITY ALT 2300FT

CYXE;2016-05-15 21:00;CYXE 152100Z 34009KT 300V360 5SM FU BKN270 20/M02 A3000 RMK CI7 SLP175 DENSITY ALT 2400FT

CYXE;2016-05-15 22:00;CYXE 152200Z VRB02KT 6SM FU BKN300 20/M02 A2999 RMK CI6 SLP171 DENSITY ALT 2500FT

CYXE;2016-05-15 23:00;CYXE 152300Z 02007KT 340V050 10SM FEW300 21/M02 A2998 RMK CI2 FU SLP169 DENSITY ALT 2600FT

CYXE;2016-05-16 00:00;CYXE 160000Z 34008KT 310V020 12SM SKC 21/M01 A2997 RMK FU SLP164 DENSITY ALT 2600FT

CYXE;2016-05-16 01:00;CYXE 160100Z VRB02KT 12SM SKC 20/M01 A2997 RMK FU SLP163 DENSITY ALT 2500FT

CYXE;2016-05-16 02:00;CYXE 160200Z 01002KT 12SM SKC 18/01 A2998 RMK FU SLP163 DENSITY ALT 2300FT

CYXE;2016-05-16 03:00;CYXE 160300Z 29002KT 12SM SKC 16/M01 A2999 RMK FU SLP166 DENSITY ALT 2000FT

CYXE;2016-05-16 04:00;CYXE 160400Z CCA VRB02KT 12SM SKC 11/01 A3000 RMK FU SLP171

CYXE;2016-05-16 05:00;CYXE 160500Z 14003KT 12SM SKC 12/M00 A3001 RMK SLP173

CYXE;2016-05-16 06:00;CYXE 160600Z 24002KT 12SM SKC 10/01 A3002 RMK FU SLP177

CYXE;2016-05-16 07:00;CYXE 160700Z 25006KT 15SM SKC 06/03 A3003 RMK SLP184

CYXE;2016-05-16 08:00;CYXE 160800Z VRB02KT 15SM SKC 06/02 A3005 RMK SLP189

CYXE;2016-05-16 09:00;CYXE 160900Z 15003KT 15SM SKC 06/02 A3005 RMK SLP189

CYXE;2016-05-16 10:00;CYXE 161000Z 15002KT 15SM SKC 04/02 A3006 RMK SLP194

CYXE;2016-05-16 11:00;CYXE 161100Z 17003KT 8SM SKC 04/01 A3007 RMK FU SLP196

CYXE;2016-05-16 12:00;CYXE 161200Z 18003KT 8SM SKC 04/01 A3008 RMK FU SLP198

CYXE;2016-05-16 13:00;CYXE 161300Z 00000KT 8SM SKC 07/04 A3009 RMK FU SLP200

CYXE;2016-05-16 14:00;CYXE 161400Z 20003KT 10SM FU SKC 11/03 A3010 RMK SLP206

CYXE;2016-05-16 15:00;CYXE 161500Z 16004KT 100V180 10SM SKC 15/03 A3011 RMK FU SLP206 DENSITY ALT 1800FT

CYXE;2016-05-16 16:00;CYXE 161600Z 17005KT 130V220 10SM SKC 19/03 A3011 RMK FU SLP208 DENSITY ALT 2200FT

CYXE;2016-05-16 17:00;CYXE 161700Z 18007KT 160V220 12SM SKC 21/01 A3012 RMK SLP207 DENSITY ALT 2500FT

CYXE;2016-05-16 18:00;CYXE 161800Z 17004G16KT 140V250 12SM SKC 22/M01 A3012 RMK FU SLP209 DENSITY ALT 2600FT

CYXE;2016-05-16 19:00;CYXE 161900Z 24010G19KT 160V280 12SM SKC 22/M01 A3011 RMK FU SLP209 DENSITY ALT 2600FT

CYXE;2016-05-16 20:00;CYXE 162000Z 22006KT 12SM SKC 23/M00 A3011 RMK FU SLP208 DENSITY ALT 2700FT

CYXE;2016-05-16 21:00;CYXE 162100Z 21010G16KT 12SM SKC 23/M01 A3011 RMK FU SLP207 DENSITY ALT 2700FT

CYXE;2016-05-16 22:00;CYXE 162200Z 14008G15KT 130V220 15SM SKC 24/M00 A3011 RMK FU SLP207 DENSITY ALT 2800FT

CYXE;2016-05-16 23:00;CYXE 162300Z 19008G15KT 15SM SKC 23/M01 A3010 RMK FU SLP206 DENSITY ALT 2700FT

CYXE;2016-05-17 00:00;CYXE 170000Z 21011G17KT 15SM SKC 23/M01 A3009 RMK FU SLP203 DENSITY ALT 2700FT

CYXE;2016-05-17 01:00;CYXE 170100Z 19011G17KT 15SM SKC 22/M00 A3010 RMK FU SLP203 DENSITY ALT 2600FT

CYXE;2016-05-17 02:00;CYXE 170200Z 18010KT 15SM SKC 20/00 A3010 RMK FU SLP205 DENSITY ALT 2300FT

CYXE;2016-05-17 03:00;CYXE 170300Z 18009KT 15SM FEW300 17/01 A3011 RMK CI2 FU SLP205 DENSITY ALT 2000FT

CYXE;2016-05-17 04:00;CYXE 170400Z 18008KT 15SM SKC 15/01 A3012 RMK FU SLP210 DENSITY ALT 1700FT

CYXE;2016-05-17 05:00;CYXE 170500Z 18010KT 15SM SKC 14/01 A3013 RMK FU SLP211 DENSITY ALT 1700FT

CYXE;2016-05-17 06:00;CYXE 170600Z 18010KT 15SM SKC 14/02 A3013 RMK SLP211 DENSITY ALT 1700FT

CYXE;2016-05-17 07:00;CYXE 170700Z 17011KT 15SM SKC 13/02 A3013 RMK SLP212

CYXE;2016-05-17 08:00;CYXE 170800Z 18011KT 15SM SKC 12/02 A3014 RMK SLP215

CYXE;2016-05-17 09:00;CYXE 170900Z 19011KT 15SM SKC 11/02 A3014 RMK SLP215

CYXE;2016-05-17 10:00;CYXE 171000Z 19009KT 15SM SKC 10/03 A3014 RMK SLP215

CYXE;2016-05-17 11:00;CYXE 171100Z 18008KT 15SM FEW280 09/03 A3015 RMK CI2 SLP219

CYXE;2016-05-17 12:00;CYXE 171200Z 18008KT 15SM SCT280 10/03 A3015 RMK CI4 SLP219

CYXE;2016-05-17 13:00;CYXE 171300Z 17012KT 15SM SCT280 12/03 A3015 RMK CI4 SLP218

CYXE;2016-05-17 14:00;CYXE 171400Z 19015KT 15SM BKN280 16/03 A3014 RMK CI6 SLP215 DENSITY ALT 1900FT

CYXE;2016-05-17 15:00;CYXE 171500Z 19017G24KT 15SM BKN280 19/03 A3013 RMK CI6 SLP212 DENSITY ALT 2200FT

CYXE;2016-05-17 16:00;CYXE 171600Z 18021G27KT 15SM BKN280 21/03 A3012 RMK CI6 SLP207 DENSITY ALT 2500FT

CYXE;2016-05-17 17:00;CYXE 171700Z 19021G28KT 15SM FEW084 BKN280 23/02 A3010 RMK CU1CI6 SLP201 DENSITY ALT 2700FT

CYXE;2016-05-17 18:00;CYXE 171800Z 20014G30KT 15SM FEW050 FEW085 BKN280 24/03 A3009 RMK CF1AC2CI5 CF TR SLP197 DENSITY ALT 2800FT

CYXE;2016-05-17 19:00;CYXE 171900Z 19023G29KT 15SM FEW090 OVC280 22/01 A3007 RMK AC2CI6 SLP191 DENSITY ALT 2600FT

CYXE;2016-05-17 20:00;CYXE 172000Z 20022G30KT 15SM FEW090 OVC280 23/01 A3005 RMK AC2CI6 SLP184 DENSITY ALT 2700FT

CYXE;2016-05-17 21:00;CYXE 172100Z 19016G29KT 15SM SCT090 OVC280 23/01 A3002 RMK AC3CI5 SLP173 DENSITY ALT 2800FT

CYXE;2016-05-17 22:00;CYXE 172200Z 19016G24KT 170V230 15SM BKN100 OVC220 23/01 A2998 RMK AC6CI2 SLP162 DENSITY ALT 2900FT

CYXE;2016-05-17 22:50;CYXE 172250Z 22020G38KT 12SM -SHRA SCT032 BKN060 OVC100 21/01 A2997 RMK SC3SC3AC2 CVCTV CLD EMBD SLP158 DENSITY ALT 2700FT

CYXE;2016-05-17 23:00;CYXE 172300Z 26007G30KT 180V290 12SM -SHRA SCT033 BKN060 OVC100 21/02 A2998 RMK SC4SC2AC2 CVCTV CLD EMBD SLP162 DENSITY ALT 2600FT

CYXE;2016-05-18 00:00;CYXE 180000Z 28009G17KT 190V290 15SM -SHRA FEW033 SCT075 OVC095 21/02 A2997 RMK SC2AC2AC4 CVCTV CLD EMBD SLP158 DENSITY ALT 2600FT

CYXE;2016-05-18 01:00;CYXE 180100Z 24010G18KT 15SM -SHRA FEW033 BKN080 17/07 A2998 RMK SC1AC6 CVCTV CLD EMBD SLP164 DENSITY ALT 2100FT

CYXE;2016-05-18 01:50;CYXE 180150Z 19012KT 15SM FEW033 BKN080 BKN210 18/07 A2996 RMK SC1AC5CI1 SLP155 DENSITY ALT 2300FT

CYXE;2016-05-18 02:00;CYXE 180200Z 17007KT 15SM FEW033 BKN080 BKN210 17/07 A2995 RMK SC2AC4CI1 SLP151 DENSITY ALT 2200FT

CYXE;2016-05-18 03:00;CYXE 180300Z 18006KT 15SM SCT080 BKN200 15/06 A2995 RMK AC4CI1 SLP150 DENSITY ALT 1900FT

CYXE;2016-05-18 04:00;CYXE 180400Z 17007KT 15SM FEW080 BKN130 14/08 A2994 RMK AC1AC5 SLP147 DENSITY ALT 1800FT

CYXE;2016-05-18 05:00;CYXE 180500Z 17005KT 15SM SCT130 12/07 A2992 RMK AC4 SLP141

CYXE;2016-05-18 06:00;CYXE 180600Z 19006KT 15SM FEW130 11/08 A2991 RMK AC2 SLP135

CYXE;2016-05-18 07:00;CYXE 180700Z 21007KT 15SM FEW100 10/08 A2990 RMK AC1 SLP133

CYXE;2016-05-18 08:00;CYXE 180800Z 20005KT 15SM FEW100 10/08 A2989 RMK AC2 SLP131

CYXE;2016-05-18 09:00;CYXE 180900Z 24009KT 15SM SCT075 09/07 A2988 RMK AC3 SLP128

CYXE;2016-05-18 10:00;CYXE 181000Z 23007KT 15SM BKN250 07/06 A2989 RMK CI5 SLP130

CYXE;2016-05-18 11:00;CYXE 181100Z 23005KT 15SM BKN250 06/05 A2989 RMK CI6 SLP132

CYXE;2016-05-18 12:00;CYXE 181200Z 23008KT 15SM BKN250 08/06 A2989 RMK CI5 SLP133

CYXE;2016-05-18 13:00;CYXE 181300Z 24006KT 15SM SCT280 09/06 A2989 RMK CI4 SLP133

CYXE;2016-05-18 14:00;CYXE 181400Z 28007KT 15SM BKN280 13/07 A2988 RMK CI5 SLP130 DENSITY ALT 1800FT

CYXE;2016-05-18 15:00;CYXE 181500Z 30010KT 15SM OVC300 16/07 A2988 RMK CI8 SLP128 DENSITY ALT 2200FT

CYXE;2016-05-18 16:00;CYXE 181600Z 30012KT 15SM OVC300 18/07 A2987 RMK CI8 SLP124 DENSITY ALT 2400FT

CYXE;2016-05-18 17:00;CYXE 181700Z 31011KT 15SM OVC300 20/07 A2987 RMK CI8 SLP124 DENSITY ALT 2600FT

CYXE;2016-05-18 18:00;CYXE 181800Z 29008KT 15SM OVC300 21/07 A2986 RMK CI8 SLP121 DENSITY ALT 2700FT

CYXE;2016-05-18 19:00;CYXE 181900Z 29007KT 270V330 15SM FEW064 OVC300 23/07 A2984 RMK CU1CI7 SLP113 DENSITY ALT 3000FT

CYXE;2016-05-18 20:00;CYXE 182000Z 33010G15KT 15SM FEW070 OVC300 24/05 A2982 RMK CU1CI7 SLP107 DENSITY ALT 3100FT

CYXE;2016-05-18 21:00;CYXE 182100Z 33004KT 15SM FEW075 OVC300 24/05 A2981 RMK CU2CI6 SLP102 DENSITY ALT 3100FT

CYXE;2016-05-18 22:00;CYXE 182200Z 33005KT 280V360 15SM SCT080 BKN250 24/04 A2979 RMK CU3CI4 SLP097 DENSITY ALT 3200FT

CYXE;2016-05-18 23:00;CYXE 182300Z VRB08KT 15SM SCT080 BKN250 25/05 A2977 RMK CU3CI4 SLP091 DENSITY ALT 3300FT

CYXE;2016-05-19 00:00;CYXE 190000Z 06003KT 040V130 15SM FEW080 BKN250 25/04 A2976 RMK CU2CI3 SLP085 DENSITY ALT 3300FT

CYXE;2016-05-19 01:00;CYXE 190100Z 11003KT 15SM FEW080 SCT250 24/04 A2975 RMK CU1CI3 SLP081 DENSITY ALT 3200FT

CYXE;2016-05-19 02:00;CYXE 190200Z 16007KT 15SM FEW090 BKN250 20/08 A2974 RMK AC2CI5 SLP078 DENSITY ALT 2800FT

CYXE;2016-05-19 03:00;CYXE 190300Z 15007KT 15SM FEW100 SCT250 19/06 A2974 RMK AC1CI3 SLP077 DENSITY ALT 2600FT

CYXE;2016-05-19 04:00;CYXE 190400Z 11005KT 15SM SCT250 15/07 A2974 RMK CI4 SLP078 DENSITY ALT 2200FT

CYXE;2016-05-19 05:00;CYXE 190500Z 14005KT 15SM SCT250 15/06 A2973 RMK CI4 SLP076 DENSITY ALT 2200FT

CYXE;2016-05-19 06:00;CYXE 190600Z 17006KT 15SM FEW250 15/06 A2973 RMK CI2 SLP074 DENSITY ALT 2100FT

CYXE;2016-05-19 07:00;CYXE 190700Z 17006KT 15SM SKC 13/06 A2973 RMK SLP072 DENSITY ALT 1900FT

CYXE;2016-05-19 08:00;CYXE 190800Z 16004KT 15SM SKC 13/06 A2972 RMK SLP070 DENSITY ALT 2000FT

CYXE;2016-05-19 09:00;CYXE 190900Z 15004KT 15SM SKC 12/05 A2971 RMK SLP067 DENSITY ALT 1900FT

CYXE;2016-05-19 10:00;CYXE 191000Z 11004KT 15SM FEW250 11/05 A2970 RMK CI1 SLP063 DENSITY ALT 1800FT

CYXE;2016-05-19 11:00;CYXE 191100Z 07005KT 15SM SCT250 07/05 A2969 RMK CI3 SLP063

CYXE;2016-05-19 12:00;CYXE 191200Z 07003KT 15SM FEW280 08/05 A2969 RMK CI2 SLP063

CYXE;2016-05-19 13:00;CYXE 191300Z 05004KT 15SM SKC 12/08 A2969 RMK SLP061 DENSITY ALT 1900FT

CYXE;2016-05-19 14:00;CYXE 191400Z 07004KT 15SM SKC 16/07 A2970 RMK SLP064 DENSITY ALT 2300FT

CYXE;2016-05-19 15:00;CYXE 191500Z 12006KT 15SM FEW300 20/07 A2970 RMK CI1 SLP063 DENSITY ALT 2800FT

CYXE;2016-05-19 16:00;CYXE 191600Z 13010KT 15SM FEW300 23/06 A2970 RMK CI2 SLP062 DENSITY ALT 3200FT

CYXE;2016-05-19 17:00;CYXE 191700Z 12013G19KT 15SM SCT300 25/05 A2969 RMK CI4 SLP057 DENSITY ALT 3400FT

CYXE;2016-05-19 18:00;CYXE 191800Z 13011G17KT 100V160 15SM BKN330 25/05 A2968 RMK CI7 SLP055 DENSITY ALT 3400FT

CYXE;2016-05-19 19:00;CYXE 191900Z 10016KT 15SM BKN330 26/04 A2967 RMK CI7 SLP051 DENSITY ALT 3500FT

CYXE;2016-05-19 20:00;CYXE 192000Z 11014KT 080V160 15SM BKN330 27/04 A2967 RMK CI5 SLP050 DENSITY ALT 3600FT

CYXE;2016-05-19 21:00;CYXE 192100Z 12013G20KT 15SM BKN330 27/04 A2966 RMK CI7 SLP049 DENSITY ALT 3600FT

CYXE;2016-05-19 22:00;CYXE 192200Z 11010G18KT 090V170 15SM FEW076 BKN330 27/04 A2966 RMK CF1CI6 SLP048 DENSITY ALT 3600FT

CYXE;2016-05-19 23:00;CYXE 192300Z 09012G18KT 15SM FEW090 SCT180 OVC330 27/05 A2966 RMK CU1AC3CI4 SLP049 DENSITY ALT 3700FT

CYXE;2016-05-20 00:00;CYXE 200000Z 08015KT 15SM BKN330 25/04 A2966 RMK CI7 SLP050 DENSITY ALT 3500FT

CYXE;2016-05-20 01:00;CYXE 200100Z 08012KT 15SM SCT210 BKN330 25/05 A2967 RMK CI3CI4 SLP051 DENSITY ALT 3400FT

CYXE;2016-05-20 02:00;CYXE 200200Z 08012KT 15SM SCT210 BKN330 23/05 A2968 RMK CI3CI4 SLP053 DENSITY ALT 3200FT

CYXE;2016-05-20 03:00;CYXE 200300Z 07011KT 15SM FEW210 BKN330 21/04 A2969 RMK CI2CI4 SLP057 DENSITY ALT 2900FT

CYXE;2016-05-20 04:00;CYXE 200400Z 07008KT 15SM FEW100 SCT210 18/07 A2971 RMK AC2CI2 SLP064 DENSITY ALT 2500FT

CYXE;2016-05-20 05:00;CYXE 200500Z 07008KT 15SM SCT210 16/07 A2971 RMK CI4 SLP065 DENSITY ALT 2400FT

CYXE;2016-05-20 06:00;CYXE 200600Z 07010KT 15SM SCT210 16/07 A2973 RMK CI3 SLP069 DENSITY ALT 2300FT

CYXE;2016-05-20 07:00;CYXE 200700Z 07008KT 15SM FEW210 14/07 A2973 RMK CI2 SLP071 DENSITY ALT 2100FT

CYXE;2016-05-20 08:00;CYXE 200800Z 08010KT 15SM SCT100 15/06 A2974 RMK AC3 SLP073 DENSITY ALT 2200FT

CYXE;2016-05-20 09:00;CYXE 200900Z 09010KT 15SM SCT100 15/07 A2975 RMK AC3 SLP076 DENSITY ALT 2200FT

CYXE;2016-05-20 10:00;CYXE 201000Z 08007KT 15SM BKN100 14/07 A2975 RMK AC5 SLP079 DENSITY ALT 2000FT

CYXE;2016-05-20 11:00;CYXE 201100Z 06007KT 15SM SCT100 BKN250 13/07 A2977 RMK AC4CI3 SLP087 DENSITY ALT 1900FT

CYXE;2016-05-20 12:00;CYXE 201200Z 07010KT 15SM SCT100 BKN250 13/08 A2980 RMK AC3CI4 SLP097 DENSITY ALT 1900FT

CYXE;2016-05-20 13:00;CYXE 201300Z 07012KT 15SM SCT100 BKN250 15/09 A2982 RMK AC4CI3 SLP103 DENSITY ALT 2100FT

CYXE;2016-05-20 14:00;CYXE 201400Z 07010KT 15SM SCT100 BKN250 17/09 A2983 RMK AC3CI4 SLP107 DENSITY ALT 2300FT

CYXE;2016-05-20 15:00;CYXE 201500Z 10014KT 15SM FEW100 OVC300 21/09 A2984 RMK AC2CI6 SLP110 DENSITY ALT 2700FT

CYXE;2016-05-20 16:00;CYXE 201600Z 10012G18KT 15SM OVC300 23/09 A2984 RMK CI8 SLP110 DENSITY ALT 3000FT

CYXE;2016-05-20 17:00;CYXE 201700Z 11018G24KT 15SM BKN300 26/08 A2985 RMK CI7 SLP111 DENSITY ALT 3300FT

CYXE;2016-05-20 18:00;CYXE 201800Z 11020KT 15SM BKN300 26/06 A2985 RMK CI7 SLP111 DENSITY ALT 3400FT

CYXE;2016-05-20 19:00;CYXE 201900Z 14018G24KT 15SM FEW080 BKN300 27/04 A2985 RMK CU1CI6 SLP113 DENSITY ALT 3400FT

CYXE;2016-05-20 20:00;CYXE 202000Z 15016G25KT 15SM FEW080 BKN300 28/08 A2985 RMK CU2CI5 SLP111 DENSITY ALT 3500FT

CYXE;2016-05-20 21:00;CYXE 202100Z 15017KT 15SM SCT080 BKN300 29/10 A2985 RMK CU4CI3 SLP111 DENSITY ALT 3600FT

CYXE;2016-05-20 22:00;CYXE 202200Z 14014G20KT 15SM SCT080 BKN300 28/07 A2985 RMK CU3CI4 SLP111 DENSITY ALT 3600FT

CYXE;2016-05-20 23:00;CYXE 202300Z 14016KT 15SM SCT080 BKN300 28/08 A2986 RMK CU3CI4 SLP114 DENSITY ALT 3500FT

CYXE;2016-05-21 00:00;CYXE 210000Z 13011G21KT 15SM SCT080 BKN300 27/08 A2986 RMK CU3CI4 SLP114 DENSITY ALT 3400FT

CYXE;2016-05-21 01:00;CYXE 210100Z 11014KT 15SM FEW080 BKN300 25/08 A2986 RMK AC2CI5 SLP116 DENSITY ALT 3200FT

CYXE;2016-05-21 02:00;CYXE 210200Z 13012KT 15SM FEW080 BKN300 25/08 A2987 RMK AC2CI5 SLP119 DENSITY ALT 3200FT

CYXE;2016-05-21 03:00;CYXE 210300Z 13015KT 15SM SCT090 BKN300 23/08 A2988 RMK AC3CI4 SLP122 DENSITY ALT 3000FT

CYXE;2016-05-21 04:00;CYXE 210400Z 13018G23KT 15SM FEW090 BKN300 22/07 A2990 RMK AC2CI4 SLP127 DENSITY ALT 2800FT

CYXE;2016-05-21 05:00;CYXE 210500Z 13017G23KT 15SM FEW090 BKN300 21/06 A2990 RMK AC1CI5 SLP127 DENSITY ALT 2700FT

CYXE;2016-05-21 06:00;CYXE 210600Z 13017G23KT 15SM SKC 19/07 A2991 RMK SLP130 DENSITY ALT 2500FT

CYXE;2016-05-21 07:00;CYXE 210700Z 13013KT 15SM SKC 17/07 A2992 RMK SLP134 DENSITY ALT 2300FT

CYXE;2016-05-21 08:00;CYXE 210800Z 13013G19KT 15SM SKC 16/07 A2992 RMK SLP136 DENSITY ALT 2100FT

CYXE;2016-05-21 09:00;CYXE 210900Z 13015KT 15SM SKC 15/07 A2992 RMK SLP133 DENSITY ALT 2000FT

CYXE;2016-05-21 10:00;CYXE 211000Z 13011G17KT 15SM SCT250 14/07 A2992 RMK CI3 SLP137 DENSITY ALT 1900FT

CYXE;2016-05-21 11:00;CYXE 211100Z 12013KT 15SM SCT250 13/07 A2992 RMK CI3 SLP137 DENSITY ALT 1800FT

CYXE;2016-05-21 12:00;CYXE 211200Z 12013KT 15SM BKN250 13/07 A2992 RMK CI6 SLP137 DENSITY ALT 1700FT

CYXE;2016-05-21 13:00;CYXE 211300Z 12016KT 15SM BKN300 14/08 A2991 RMK CI7 SLP132 DENSITY ALT 1900FT

CYXE;2016-05-21 14:00;CYXE 211400Z 13014G20KT 15SM BKN300 16/09 A2991 RMK CI7 SLP134 DENSITY ALT 2100FT

CYXE;2016-05-21 15:00;CYXE 211500Z 14016G21KT 15SM BKN300 18/09 A2989 RMK CI7 SLP127 DENSITY ALT 2300FT

CYXE;2016-05-21 16:00;CYXE 211600Z 13019KT 15SM BKN300 20/09 A2986 RMK CI7 SLP116 DENSITY ALT 2600FT

CYXE;2016-05-21 17:00;CYXE 211700Z 15017G25KT 15SM FEW080 BKN300 21/09 A2985 RMK AC1CI6 SLP110 DENSITY ALT 2700FT

CYXE;2016-05-21 18:00;CYXE 211800Z 14019G27KT 15SM FEW080 BKN300 22/10 A2982 RMK AC2CI5 SLP101 DENSITY ALT 3000FT

CYXE;2016-05-21 19:00;CYXE 211900Z 13021G28KT 15SM SCT100 BKN300 24/09 A2979 RMK AC4CI3 SLP092 DENSITY ALT 3100FT

CYXE;2016-05-21 20:00;CYXE 212000Z 13018G26KT 15SM BKN090 BKN300 24/11 A2975 RMK AC5CI2 SLP079 DENSITY ALT 3200FT

CYXE;2016-05-21 21:00;CYXE 212100Z 15022G29KT 15SM SCT100 BKN300 25/10 A2973 RMK AC3CI4 SLP073 DENSITY ALT 3400FT

CYXE;2016-05-21 22:00;CYXE 212200Z 13021KT 15SM FEW100 BKN300 27/11 A2970 RMK AC2CI4 SLP061 DENSITY ALT 3500FT

CYXE;2016-05-21 23:00;CYXE 212300Z 14018G25KT 110V170 15SM SCT100 BKN300 27/12 A2967 RMK AC4CI3 SLP052 DENSITY ALT 3600FT

CYXE;2016-05-22 00:00;CYXE 220000Z 14017G24KT 15SM VCSH SCT060 BKN120 BKN300 26/12 A2964 RMK CU3AC2CI2 SLP042 DENSITY ALT 3600FT

CYXE;2016-05-22 01:00;CYXE 220100Z 13013G20KT 15SM VCSH FEW090 BKN120 OVC300 26/12 A2962 RMK CU2AC4CI2 SLP033 DENSITY ALT 3500FT

CYXE;2016-05-22 02:00;CYXE 220200Z 14016G22KT 15SM FEW090 BKN120 OVC300 25/12 A2958 RMK CU2AC3CI3 SLP020 DENSITY ALT 3500FT

CYXE;2016-05-22 03:00;CYXE 220300Z 12015G20KT 15SM SCT120 OVC300 24/12 A2957 RMK AC4CI4 SLP017 DENSITY ALT 3400FT

CYXE;2016-05-22 04:00;CYXE 220400Z 14017G23KT 15SM SCT120 BKN210 23/12 A2957 RMK AC3CI4 SLP016 DENSITY ALT 3300FT

CYXE;2016-05-22 04:37;CYXE 220437Z 15018G23KT 15SM TS VCSH SCT060CB OVC210 22/12 A2958 RMK CB4CI4 SLP020 DENSITY ALT 3200FT

CYXE;2016-05-22 04:53;CYXE 220453Z 18024G35KT 10SM -TSRA BKN060CB OVC210 22/14 A2960 RMK CB6CI2 LTG SW PRESRR SLP027 DENSITY ALT 3200FT

CYXE;2016-05-22 05:00;CYXE 220500Z 20021G38KT 10SM R09/5500VP6000FT/D -TSRA BKN060CB OVC210 17/15 A2963 RMK CB6CI2 LTG ALQDS PRESRR SLP037 DENSITY ALT 2600FT

CYXE;2016-05-22 05:37;CYXE 220537Z 32007KT 220V340 12SM -SHRA BKN060CB OVC110 15/15 A2954 RMK CB5AC3 PRESFR SLP009 DENSITY ALT 2500FT

CYXE;2016-05-22 06:00;CYXE 220600Z 16004KT 150V300 15SM -SHRA OVC110 15/15 A2958 RMK AC8 PRESRR SLP022 DENSITY ALT 2400FT

CYXE;2016-05-22 07:00;CYXE 220700Z 08006KT 15SM -SHRA SCT110 OVC210 15/15 A2955 RMK AC4CI4 PRESFR SLP012 DENSITY ALT 2400FT

CYXE;2016-05-22 07:13;CYXE 220713Z 09006KT 15SM FEW110 OVC210 15/15 A2955 RMK AC2CI6 SLP009 DENSITY ALT 2400FT

CYXE;2016-05-22 08:00;CYXE 220800Z 02006KT 15SM SCT110 OVC210 15/15 A2946 RMK AC3CI5 PRESFR SLP981 DENSITY ALT 2500FT

CYXE;2016-05-22 09:00;CYXE 220900Z 17008KT 15SM FEW032 SCT110 BKN210 16/14 A2952 RMK SC2AC2CI3 SLP998 DENSITY ALT 2500FT

CYXE;2016-05-22 10:00;CYXE 221000Z 22014G20KT 15SM BKN020 OVC032 15/14 A2951 RMK SC5SC3 SLP997 DENSITY ALT 2400FT

CYXE;2016-05-22 10:14;CYXE 221014Z 22015KT 15SM BKN008 OVC032 14/14 A2951 RMK ST5SC3 SLP996 DENSITY ALT 2400FT

CYXE;2016-05-22 11:00;CYXE 221100Z 22015KT 5SM BR OVC008 14/14 A2951 RMK ST8 SLP997 DENSITY ALT 2300FT

CYXE;2016-05-22 12:00;CYXE 221200Z 23012KT 6SM BR BKN008 OVC021 12/12 A2953 RMK ST5SC3 SLP003 DENSITY ALT 2100FT

CYXE;2016-05-22 12:19;CYXE 221219Z 22014KT 12SM SCT008 OVC013 12/11 A2954 RMK ST4SC4 SLP006 DENSITY ALT 2100FT

CYXE;2016-05-22 13:00;CYXE 221300Z 21018KT 15SM OVC010 11/10 A2956 RMK SC8 PRESRR SLP014 DENSITY ALT 2000FT

CYXE;2016-05-22 13:50;CYXE 221350Z 23018KT 15SM OVC015 10/09 A2956 RMK SC8 PRESRR SLP017 DENSITY ALT 1800FT

CYXE;2016-05-22 14:00;CYXE 221400Z 24014G23KT 15SM OVC015 10/08 A2955 RMK SC8 SLP013 DENSITY ALT 1800FT

CYXE;2016-05-22 15:00;CYXE 221500Z 22017G22KT 15SM OVC015 11/08 A2955 RMK SC8 SLP012 DENSITY ALT 1900FT

CYXE;2016-05-22 16:00;CYXE 221600Z 21019KT 15SM OVC017 12/08 A2955 RMK SC8 SLP013 DENSITY ALT 2000FT

CYXE;2016-05-22 17:00;CYXE 221700Z 22013G23KT 15SM OVC016 11/08 A2955 RMK SC8 SLP018 DENSITY ALT 2000FT

CYXE;2016-05-22 18:00;CYXE 221800Z 20016G23KT 15SM OVC017 12/07 A2956 RMK SC8 SLP020 DENSITY ALT 2100FT

CYXE;2016-05-22 19:00;CYXE 221900Z 22014G22KT 15SM BKN024 15/08 A2955 RMK SC6 SLP015 DENSITY ALT 2400FT

CYXE;2016-05-22 20:00;CYXE 222000Z 22017G23KT 15SM SCT025 16/07 A2954 RMK SC4 SLP012 DENSITY ALT 2600FT

CYXE;2016-05-22 21:00;CYXE 222100Z 22016G22KT 15SM SCT040 18/08 A2953 RMK CU4 SLP005 DENSITY ALT 2800FT

CYXE;2016-05-22 22:00;CYXE 222200Z 22011G16KT 15SM SCT044 19/07 A2952 RMK CU3 SLP002 DENSITY ALT 2900FT

CYXE;2016-05-22 23:00;CYXE 222300Z 19009G15KT 15SM FEW050 19/07 A2950 RMK CU2 SLP996 DENSITY ALT 3000FT

CYXE;2016-05-23 00:00;CYXE 230000Z 16006KT 120V190 15SM FEW060 SCT300 20/05 A2948 RMK CU2CI1 SLP990 DENSITY ALT 3100FT

CYXE;2016-05-23 01:00;CYXE 230100Z 15009KT 140V200 15SM FEW070 SCT300 19/05 A2946 RMK CU2CI1 SLP986 DENSITY ALT 2900FT

CYXE;2016-05-23 02:00;CYXE 230200Z CCA 23028G49KT 160V240 15SM -TSRA BKN070CB BKN300 14/05 A2951 RMK CB5CI2 LTNG S-W PRESRR SLP003 DENSITY ALT 2300FT

CYXE;2016-05-23 02:38;CYXE 230238Z 24012G26KT 15SM TS BKN070CB BKN300 11/07 A2950 RMK CB5CI2 LTNG ALQDS SLP003 DENSITY ALT 2000FT

CYXE;2016-05-23 03:00;CYXE 230300Z 22008G15KT 160V260 15SM TS BKN060CB BKN300 12/07 A2949 RMK CB5CI2 SLP000 DENSITY ALT 2100FT

CYXE;2016-05-23 04:00;CYXE 230400Z 00000KT 15SM FEW050CB BKN100 BKN300 11/08 A2950 RMK CB2AC3CI1 LTNG N SLP001 DENSITY ALT 2000FT

CYXE;2016-05-23 04:40;CYXE 230440Z 13007KT 15SM FEW050 SCT100 BKN300 10/06 A2947 RMK SC1AC2CI2 SLP994 DENSITY ALT 1900FT

CYXE;2016-05-23 05:00;CYXE 230500Z 14009KT 15SM FEW100 SCT300 11/06 A2946 RMK AC2CI2 SLP990 DENSITY ALT 2000FT

CYXE;2016-05-23 06:00;CYXE 230600Z 15004KT 140V220 15SM FEW100 FEW300 09/06 A2946 RMK AC1CI1 SLP990 DENSITY ALT 1800FT

CYXE;2016-05-23 07:00;CYXE 230700Z 20006KT 15SM FEW100 SCT300 08/06 A2946 RMK AC1CI2 SLP989 DENSITY ALT 1700FT

CYXE;2016-05-23 08:00;CYXE 230800Z 20007KT 15SM FEW100 SCT300 08/07 A2946 RMK AC2CI2 SLP986 DENSITY ALT 1700FT

CYXE;2016-05-23 09:00;CYXE 230900Z 19009KT 15SM FEW055 SCT100 08/07 A2946 RMK SC2AC1 SLP986 DENSITY ALT 1700FT

CYXE;2016-05-23 10:00;CYXE 231000Z 20010KT 15SM FEW055 SCT300 07/07 A2946 RMK SC1CI2 SLP989

CYXE;2016-05-23 11:00;CYXE 231100Z 21006KT 15SM FEW055 FEW300 06/05 A2946 RMK SC1CI1 SLP988

CYXE;2016-05-23 12:00;CYXE 231200Z 20007KT 15SM FEW055 SCT300 06/05 A2947 RMK SC1CI2 SLP991

CYXE;2016-05-23 13:00;CYXE 231300Z 20008KT 15SM SCT060 SCT300 07/06 A2947 RMK SC3CI1 SLP992

CYXE;2016-05-23 14:00;CYXE 231400Z 19004KT 15SM FEW010 FEW060 09/07 A2948 RMK SC1SC1 SLP994 DENSITY ALT 1800FT

CYXE;2016-05-23 15:00;CYXE 231500Z 18006KT 15SM SCT016 11/06 A2948 RMK CU3 SLP995 DENSITY ALT 2000FT

CYXE;2016-05-23 16:00;CYXE 231600Z VRB04KT 15SM SCT025 SCT060 12/05 A2948 RMK CU3SC1 SLP996 DENSITY ALT 2100FT

CYXE;2016-05-23 17:00;CYXE 231700Z 17005KT 100V180 15SM SCT030 14/05 A2949 RMK CU4 SLP999 DENSITY ALT 2300FT

CYXE;2016-05-23 18:00;CYXE 231800Z 20006KT 140V250 15SM BKN040 14/04 A2951 RMK CU6 SLP004 DENSITY ALT 2300FT

CYXE;2016-05-23 19:00;CYXE 231900Z 18006KT 160V290 15SM OVC040 13/04 A2951 RMK CU8 SLP008 DENSITY ALT 2200FT

CYXE;2016-05-23 20:00;CYXE 232000Z 15003KT 130V220 15SM BKN045 OVC070 13/04 A2953 RMK CU5AC3 SLP013 DENSITY ALT 2200FT

CYXE;2016-05-23 21:00;CYXE 232100Z 15005KT 100V160 15SM SCT045 BKN070 15/03 A2955 RMK CU3AC4 SLP018 DENSITY ALT 2400FT

CYXE;2016-05-23 22:00;CYXE 232200Z 09005KT 060V120 15SM FEW045 BKN070 16/03 A2956 RMK CU1AC5 SLP025 DENSITY ALT 2500FT

CYXE;2016-05-23 23:00;CYXE 232300Z VRB08KT 15SM 16/04 A2958 RMK SLP030 DENSITY ALT 2500FT

CYXE;2016-05-24 00:00;CYXE 240000Z 08009G15KT 040V110 15SM FEW045 BKN080 16/04 A2960 RMK CU1AC5 SLP036 DENSITY ALT 2500FT

CYXE;2016-05-24 01:00;CYXE 240100Z 06009KT 15SM FEW045 OVC078 14/04 A2961 RMK CU1AC7 SLP042 DENSITY ALT 2200FT

CYXE;2016-05-24 02:00;CYXE 240200Z 04006KT 15SM SCT060 BKN085 14/05 A2964 RMK SC4AC3 SLP049 DENSITY ALT 2100FT

CYXE;2016-05-24 03:00;CYXE 240300Z 03005KT 15SM OVC057 13/06 A2965 RMK SC8 SLP054 DENSITY ALT 2000FT

CYXE;2016-05-24 04:00;CYXE 240400Z 02008KT 15SM OVC055 13/08 A2968 RMK SC8 SLP062 DENSITY ALT 2000FT

CYXE;2016-05-24 04:48;CYXE 240448Z 03014KT 15SM TS BKN085 12/10 A2969 RMK AC7 CB EMBDD LTGIC N SLP068 DENSITY ALT 1900FT

CYXE;2016-05-24 05:00;CYXE 240500Z 04012G20KT 10SM TSRA SCT020 OVC080 12/11 A2970 RMK SC3AC5 CB EMBD SLP069 DENSITY ALT 1800FT

CYXE;2016-05-24 05:20;CYXE 240520Z 04017G26KT 6SM +TSRA SCT020 OVC080 11/11 A2970 RMK SC4AC4 CB EMBD SLP070 DENSITY ALT 1800FT

CYXE;2016-05-24 05:29;CYXE 240529Z 04011G18KT 15SM -SHRA BKN020 OVC080 11/11 A2970 RMK SC5AC3 SLP070 DENSITY ALT 1800FT

CYXE;2016-05-24 06:00;CYXE 240600Z 05015KT 15SM -SHRA BKN016 OVC090 11/11 A2971 RMK SC5AC3 SLP072 DENSITY ALT 1800FT

CYXE;2016-05-24 07:00;CYXE 240700Z 04011G16KT 15SM -SHRA BKN015 OVC090 11/11 A2972 RMK SC6AC2 SLP077 DENSITY ALT 1800FT

CYXE;2016-05-24 08:00;CYXE 240800Z 05018G24KT 15SM -SHRA BKN015 OVC070 10/10 A2974 RMK SC6AC2 SLP085

CYXE;2016-05-24 09:00;CYXE 240900Z 05013KT 15SM -SHRA SCT008 BKN015 OVC070 10/10 A2975 RMK SC3SC4AC1 SLP087

CYXE;2016-05-24 09:34;CYXE 240934Z 04014KT 15SM -SHRA BKN009 OVC015 10/10 A2975 RMK SC7SC1 SLP088

CYXE;2016-05-24 10:00;CYXE 241000Z 05013KT 15SM -SHRA OVC008 10/10 A2976 RMK SC8 SLP089

CYXE;2016-05-24 11:04;CYXE 241104Z 04011KT 15SM OVC009 10/10 A2978 RMK SC8 SLP096

CYXE;2016-05-24 12:00;CYXE 241200Z 04014G20KT 15SM OVC008 10/09 A2980 RMK SC8 SLP102

CYXE;2016-05-24 12:54;CYXE 241254Z 05014G20KT 15SM -SHRA OVC008 09/09 A2981 RMK SC8 CVCTV CLD EMBD SLP107

CYXE;2016-05-24 13:00;CYXE 241300Z 05016KT 15SM -SHRA OVC008 09/09 A2981 RMK SC8 CVCTV CLD EMBD SLP108

CYXE;2016-05-24 14:00;CYXE 241400Z 04014G20KT 8SM -SHRA OVC006 09/09 A2982 RMK SC8 CVCYV CLD EMBD SLP114

CYXE;2016-05-24 14:31;CYXE 241431Z 05014G19KT 15SM OVC010 09/09 A2983 RMK SC8 OCNL -SHRA SLP116

CYXE;2016-05-24 15:00;CYXE 241500Z 05013KT 15SM BKN008 OVC015 09/09 A2983 RMK SC7SC1 OCNL -SHRA SLP117

CYXE;2016-05-24 15:35;CYXE 241535Z 05015KT 10SM -SHRA BKN008 OVC020 10/09 A2984 RMK SC7SC1 CVCTV CLD EMBD SLP119

CYXE;2016-05-24 16:00;CYXE 241600Z 05012G20KT 10SM -SHRA BKN009 OVC025 10/10 A2984 RMK SC7SC1 CVCTV CLD EMBD SLP120

CYXE;2016-05-24 16:19;CYXE 241619Z 06011G17KT 5SM -DZ BR OVC008 10/10 A2985 RMK ST8 SLP121

CYXE;2016-05-24 17:00;CYXE 241700Z 06013KT 5SM -DZ BR OVC008 10/10 A2985 RMK ST8 SLP124

CYXE;2016-05-24 17:17;CYXE 241717Z 06015KT 10SM -DZ OVC010 10/09 A2985 RMK ST8 SLP124

CYXE;2016-05-24 18:00;CYXE 241800Z 05014G19KT 10SM -DZ SCT008 OVC012 10/10 A2986 RMK ST4SC4 SLP127

CYXE;2016-05-24 18:51;CYXE 241851Z 05016KT 15SM SCT008 BKN020 11/11 A2986 RMK ST4SC3 SLP127

CYXE;2016-05-24 19:00;CYXE 241900Z 05017KT 15SM SCT008 BKN020 12/11 A2986 RMK ST4SC3 SLP126 DENSITY ALT 1700FT

CYXE;2016-05-24 19:07;CYXE 241907Z 06016KT 15SM BKN008 OVC020 13/11 A2987 RMK ST7SC1 SLP127 DENSITY ALT 1800FT

CYXE;2016-05-24 20:00;CYXE 242000Z 05013KT 15SM BKN012 OVC020 12/10 A2987 RMK SC7SC1 SLP129 DENSITY ALT 1700FT

CYXE;2016-05-24 20:26;CYXE 242026Z 05016KT 15SM SCT015 OVC025 13/09 A2987 RMK SC3SC5 SLP127 DENSITY ALT 1800FT

CYXE;2016-05-24 21:00;CYXE 242100Z 04014KT 15SM SCT020 OVC060 14/09 A2987 RMK SC4SC4 SLP127 DENSITY ALT 1900FT

CYXE;2016-05-24 22:00;CYXE 242200Z 05014KT 15SM SCT025 BKN060 16/09 A2986 RMK SC4SC3 SLP125 DENSITY ALT 2100FT

CYXE;2016-05-24 23:00;CYXE 242300Z 04014G19KT 15SM BKN030 BKN090 14/09 A2986 RMK SC5AC2 SLP124 DENSITY ALT 1900FT

CYXE;2016-05-25 00:00;CYXE 250000Z 05013G19KT 15SM BKN050 BKN090 15/09 A2985 RMK SC5AC1 SH SE SLP120 DENSITY ALT 2000FT

CYXE;2016-05-25 00:08;CYXE 250008Z 04014G20KT 15SM -SHRA BKN040 BKN090 15/09 A2986 RMK SC6AC1 CVCTV CLD EMBD PRESRR SLP125 DENSITY ALT 2000FT

CYXE;2016-05-25 01:00;CYXE 250100Z 02008KT 15SM BKN052 BKN090 10/10 A2987 RMK SC5AC2 SLP131

CYXE;2016-05-25 02:00;CYXE 250200Z 01010KT 15SM SCT050 BKN100 11/11 A2987 RMK SC4AC2 SH S SLP130

CYXE;2016-05-25 03:00;CYXE 250300Z 03011KT 15SM SCT050 BKN100 11/10 A2987 RMK SC4AC1 SLP131

CYXE;2016-05-25 04:00;CYXE 250400Z 04012KT 15SM SCT050 BKN080 10/09 A2989 RMK SC4AC1 SH W SLP136

CYXE;2016-05-25 05:00;CYXE 250500Z 04010KT 15SM FEW100 09/08 A2988 RMK AC2 SLP136

CYXE;2016-05-25 06:00;CYXE 250600Z 05013KT 15SM SKC 08/08 A2988 RMK SLP135

CYXE;2016-05-25 07:00;CYXE 250700Z 05009G15KT 15SM SKC 08/08 A2988 RMK SLP136

CYXE;2016-05-25 08:00;CYXE 250800Z 06008KT 15SM SKC 07/07 A2989 RMK SLP137

CYXE;2016-05-25 09:00;CYXE 250900Z 05008KT 15SM SKC 06/06 A2989 RMK SLP136

CYXE;2016-05-25 10:00;CYXE 251000Z 06005KT 15SM SKC 06/06 A2988 RMK SLP135

CYXE;2016-05-25 11:00;CYXE 251100Z 02006KT 4SM PRFG FEW010 05/05 A2989 RMK SF2 SLP137

CYXE;2016-05-25 11:17;CYXE 251117Z 04006KT 3SM PRFG SCT005 05/05 A2989 RMK SF3 SLP140

CYXE;2016-05-25 11:26;CYXE 251126Z 03006KT 1 1/2SM R09/2200FT/N BR SCT005 05/05 A2990 RMK SF3 SLP141

CYXE;2016-05-25 11:43;CYXE 251143Z 04005KT 5/8SM R09/2600VP6000FT/N BR SKC 06/06 A2990 RMK FG6 SLP142

CYXE;2016-05-25 12:00;CYXE 251200Z 04008KT 1/2SM R09/5000VP6000FT/D FG SKC 06/06 A2990 RMK FG7 SLP141

CYXE;2016-05-25 13:00;CYXE 251300Z 03005KT 1/2SM R09/2400FT/N FG SKC 08/08 A2991 RMK FG7 SLP146

CYXE;2016-05-25 13:16;CYXE 251316Z 07007KT 1/2SM R09/2400FT/N FG VV002 08/08 A2991 RMK FG8 SLP145

CYXE;2016-05-25 14:00;CYXE 251400Z 06006KT 1/2SM R09/2600FT/N FG VV002 09/09 A2992 RMK FG8 SLP147

CYXE;2016-05-25 14:09;CYXE 251409Z 06006KT 3/4SM R09/2600V4000FT/D BR BKN002 09/09 A2992 RMK FG4SF3 SLP148

CYXE;2016-05-25 14:17;CYXE 251417Z 07007KT 1SM R09/2600VP6000FT/U BR BKN002 09/09 A2992 RMK FG4SF3 SLP148

CYXE;2016-05-25 14:30;CYXE 251430Z 07007KT 2SM BR BKN003 09/09 A2992 RMK SF7 SLP149

CYXE;2016-05-25 15:00;CYXE 251500Z 07007KT 030V090 5SM BR BKN003 09/09 A2992 RMK SF7 SLP149

CYXE;2016-05-25 15:44;CYXE 251544Z 04006KT 8SM OVC005 10/10 A2992 RMK SF8 BR SLP149

CYXE;2016-05-25 16:00;CYXE 251600Z 04006KT 10SM OVC005 10/10 A2992 RMK SF8 BR SLP149

CYXE;2016-05-25 16:40;CYXE 251640Z 06005KT 360V080 15SM BKN010 12/10 A2992 RMK SC7 SLP148

CYXE;2016-05-25 17:00;CYXE 251700Z VRB05KT 15SM BKN011 13/10 A2992 RMK CU7 SLP146 DENSITY ALT 1800FT

CYXE;2016-05-25 17:28;CYXE 251728Z 02004KT 340V040 15SM BKN018 14/10 A2992 RMK CU6 SLP146 DENSITY ALT 1800FT

CYXE;2016-05-25 18:00;CYXE 251800Z 02004KT 350V130 15SM BKN020 15/10 A2991 RMK CU6 SLP143 DENSITY ALT 2000FT

CYXE;2016-05-25 19:00;CYXE 251900Z 03003KT 270V070 15SM BKN035 17/10 A2990 RMK CU5 SLP138 DENSITY ALT 2200FT

CYXE;2016-05-25 20:00;CYXE 252000Z 35007KT 270V020 15SM SCT043 BKN250 18/10 A2989 RMK CU4CI2 SLP134 DENSITY ALT 2400FT

CYXE;2016-05-25 21:00;CYXE 252100Z 03005KT 330V070 15SM SCT040 BKN070 BKN250 18/09 A2988 RMK CU4AC2CI1 SLP133 DENSITY ALT 2400FT

CYXE;2016-05-25 22:00;CYXE 252200Z 03010G15KT 320V070 15SM SCT045 BKN080 BKN270 20/09 A2987 RMK CU4AC1CI1 SLP128 DENSITY ALT 2600FT

CYXE;2016-05-25 23:00;CYXE 252300Z 03006KT 15SM FEW045 SCT100 BKN270 20/08 A2987 RMK CU2AC2CI2 SLP127 DENSITY ALT 2600FT

CYXE;2016-05-26 00:00;CYXE 260000Z 04007KT 15SM FEW045 SCT160 BKN270 18/09 A2987 RMK SC2AC2CI2 SLP127 DENSITY ALT 2400FT

CYXE;2016-05-26 01:00;CYXE 260100Z 01008KT 15SM SCT060 BKN160 BKN270 19/08 A2987 RMK SC4AC1CI1 SLP126 DENSITY ALT 2500FT

CYXE;2016-05-26 02:00;CYXE 260200Z 02007KT 15SM BKN064 BKN270 17/09 A2987 RMK SC5CI2 SLP127 DENSITY ALT 2300FT

CYXE;2016-05-26 03:00;CYXE 260300Z 02007KT 15SM BKN060 BKN100 16/09 A2988 RMK SC5AC2 SLP130 DENSITY ALT 2200FT

CYXE;2016-05-26 04:00;CYXE 260400Z 02005KT 15SM BKN100 14/09 A2988 RMK AC6 SLP133 DENSITY ALT 2000FT

CYXE;2016-05-26 05:00;CYXE 260500Z 02005KT 15SM SCT060 BKN100 14/09 A2988 RMK SC3AC2 SLP130 DENSITY ALT 1900FT

CYXE;2016-05-26 06:00;CYXE 260600Z 01005KT 15SM BKN070 12/09 A2989 RMK AC7 SLP132 DENSITY ALT 1700FT

CYXE;2016-05-26 07:00;CYXE 260700Z 36006KT 15SM BKN070 12/08 A2988 RMK AC6 SLP128 DENSITY ALT 1700FT

CYXE;2016-05-26 08:00;CYXE 260800Z 03004KT 15SM OVC070 13/08 A2988 RMK AC8 SLP128 DENSITY ALT 1800FT

CYXE;2016-05-26 09:00;CYXE 260900Z VRB02KT 15SM OVC070 13/09 A2988 RMK AC8 SLP129 DENSITY ALT 1700FT

CYXE;2016-05-26 10:00;CYXE 261000Z 35005KT 15SM BKN080 BKN300 12/10 A2989 RMK AC6CI1 SLP130

CYXE;2016-05-26 11:00;CYXE 261100Z 36006KT 15SM BKN080 BKN300 11/09 A2989 RMK AC5CI1 SLP132

CYXE;2016-05-26 12:00;CYXE 261200Z 02006KT 15SM BKN080 BKN300 12/08 A2990 RMK AC5CI2 SLP135

CYXE;2016-05-26 13:00;CYXE 261300Z 04006KT 15SM BKN090 OVC300 13/09 A2990 RMK AC6CI2 SLP135 DENSITY ALT 1700FT

CYXE;2016-05-26 14:00;CYXE 261400Z 06006KT 15SM BKN100 BKN300 15/09 A2990 RMK AC6CI1 SLP135 DENSITY ALT 2000FT

CYXE;2016-05-26 15:00;CYXE 261500Z 06005KT 15SM BKN100 16/09 A2990 RMK AC6 SLP133 DENSITY ALT 2100FT

CYXE;2016-05-26 16:00;CYXE 261600Z 08005KT 040V110 15SM SCT100 BKN300 18/09 A2990 RMK AC3CC3 SLP132 DENSITY ALT 2400FT

CYXE;2016-05-26 17:00;CYXE 261700Z 30002KT 15SM SCT040 BKN070 BKN300 19/09 A2989 RMK CU3AC2CI1 SLP131 DENSITY ALT 2500FT

CYXE;2016-05-26 18:00;CYXE 261800Z 12006KT 060V150 15SM SCT040 BKN110 BKN300 20/10 A2989 RMK CU3AC2CI1 SLP132 DENSITY ALT 2500FT

CYXE;2016-05-26 19:00;CYXE 261900Z 17007KT 110V230 15SM SCT040 BKN110 BKN300 21/10 A2989 RMK CU3AC2CI1 SLP129 DENSITY ALT 2700FT

CYXE;2016-05-26 20:00;CYXE 262000Z 19007G16KT 080V200 15SM SCT050 BKN110 BKN300 22/09 A2988 RMK CU3AC2CI1 SLP125 DENSITY ALT 2800FT

CYXE;2016-05-26 21:00;CYXE 262100Z 00000KT 15SM SCT050 BKN110 BKN300 20/08 A2987 RMK CU3AC2CI1 SLP124 DENSITY ALT 2700FT

CYXE;2016-05-26 22:00;CYXE 262200Z 10005KT 060V170 15SM SCT075 BKN300 22/08 A2986 RMK AC4CI2 SLP118 DENSITY ALT 2800FT

CYXE;2016-05-26 23:00;CYXE 262300Z 33005KT 15SM SCT075 SCT300 21/07 A2984 RMK CU3CI1 SLP115 DENSITY ALT 2700FT

CYXE;2016-05-27 00:00;CYXE 270000Z VRB04KT 15SM FEW075 SCT120 BKN300 23/06 A2983 RMK CU2AC2CI1 SLP110 DENSITY ALT 2900FT

CYXE;2016-05-27 01:00;CYXE 270100Z VRB05KT 15SM FEW075 SCT110 SCT300 23/05 A2983 RMK CU2AC1CI1 SLP108 DENSITY ALT 3000FT

CYXE;2016-05-27 02:00;CYXE 270200Z 17005KT 15SM FEW120 SCT300 20/10 A2984 RMK AC2CI1 SLP112 DENSITY ALT 2600FT

CYXE;2016-05-27 03:00;CYXE 270300Z 19006KT 15SM FEW120 SCT300 17/09 A2985 RMK AC2CI1 SLP115 DENSITY ALT 2300FT

CYXE;2016-05-27 04:00;CYXE 270400Z 23006KT 15SM SCT120 16/09 A2986 RMK AC4 SLP119 DENSITY ALT 2100FT

CYXE;2016-05-27 05:00;CYXE 270500Z 21004KT 15SM BKN100 16/10 A2987 RMK AC7 SLP120 DENSITY ALT 2200FT

CYXE;2016-05-27 06:00;CYXE 270600Z 26007KT 15SM BKN090 15/10 A2987 RMK AC5 SLP124 DENSITY ALT 2000FT

CYXE;2016-05-27 07:00;CYXE 270700Z 00000KT 15SM SCT120 14/10 A2989 RMK AC4 SLP128 DENSITY ALT 1900FT

CYXE;2016-05-27 08:00;CYXE 270800Z 28003KT 220V300 15SM FEW050 BKN120 13/10 A2989 RMK SC2AC5 SLP129 DENSITY ALT 1800FT

CYXE;2016-05-27 09:00;CYXE 270900Z 25002KT 15SM SCT060 OVC130 13/11 A2988 RMK SC3AC5 SLP128 DENSITY ALT 1800FT

CYXE;2016-05-27 10:00;CYXE 271000Z 26003KT 15SM BKN130 12/11 A2988 RMK AC6 SLP126 DENSITY ALT 1700FT

CYXE;2016-05-27 11:00;CYXE 271100Z 00000KT 15SM SCT130 13/11 A2987 RMK AC4 SLP125 DENSITY ALT 1800FT

CYXE;2016-05-27 12:00;CYXE 271200Z 32002KT 15SM FEW130 SCT300 10/10 A2988 RMK AC2CI1 SLP127

CYXE;2016-05-27 13:00;CYXE 271300Z 03004KT 15SM FEW130 SCT300 14/12 A2988 RMK AC2CI2 SLP126 DENSITY ALT 1900FT

CYXE;2016-05-27 14:00;CYXE 271400Z 05005KT 040V110 15SM FEW130 SCT300 16/12 A2989 RMK AC2CI2 SLP130 DENSITY ALT 2200FT

CYXE;2016-05-27 15:00;CYXE 271500Z 10006KT 15SM FEW130 SCT300 18/11 A2990 RMK AC2CI1 SLP131 DENSITY ALT 2300FT

CYXE;2016-05-27 16:00;CYXE 271600Z 13007KT 040V150 15SM FEW140 FEW300 20/10 A2989 RMK AC1CI1 SLP130 DENSITY ALT 2600FT

CYXE;2016-05-27 17:00;CYXE 271700Z 14004KT 080V170 15SM FEW048 FEW140 SCT300 22/10 A2988 RMK CU1AC1CI1 SLP125 DENSITY ALT 2800FT

CYXE;2016-05-27 18:00;CYXE 271800Z 11011KT 100V190 15SM BKN052TCU 22/08 A2988 RMK TCU5 SLP125 DENSITY ALT 2900FT

CYXE;2016-05-27 19:00;CYXE 271900Z 09008KT 15SM VCSH SCT060CB BKN100 22/10 A2987 RMK CB3AC3 SLP121 DENSITY ALT 2900FT

CYXE;2016-05-27 20:00;CYXE 272000Z 22012KT 15SM -SHRA BKN060CB BKN100 20/09 A2987 RMK CB5AC2 SLP122 DENSITY ALT 2600FT

CYXE;2016-05-27 20:15;CYXE 272015Z 24013KT 15SM -TSRA BKN060CB BKN100 18/10 A2987 RMK CB5AC2 SLP123 DENSITY ALT 2400FT

CYXE;2016-05-27 20:39;CYXE 272039Z 21010KT 15SM VCSH BKN060CB BKN100 20/10 A2987 RMK CB5AC2 SLP122 DENSITY ALT 2600FT

CYXE;2016-05-27 21:00;CYXE 272100Z 20007KT 15SM SCT060CB BKN100 21/07 A2987 RMK CB4AC3 SLP121 DENSITY ALT 2700FT

CYXE;2016-05-27 21:16;CYXE 272116Z 07016KT 040V180 15SM SCT060CB BKN100 BKN300 20/11 A2987 RMK CB3AC3CI1 WSHFT 2109 SLP123 DENSITY ALT 2600FT

CYXE;2016-05-27 22:00;CYXE 272200Z CCA 07013G22KT 15SM SCT060CB BKN120 BKN300 20/10 A2987 RMK CB4AC1CI2 LTNG N+S SH N+S SLP125 DENSITY ALT 2700FT

CYXE;2016-05-27 22:17;CYXE 272217Z 09015KT 15SM -TSRA BKN060CB BKN120 OVC300 18/10 A2988 RMK CB5AC2CI1 SLP128 DENSITY ALT 2400FT

CYXE;2016-05-27 23:00;CYXE 272300Z 36009KT 15SM -SHRA BKN070TCU BKN120 BKN300 15/13 A2989 RMK TCU5AC1CI1 CB EMBD N SH N SLP133 DENSITY ALT 2000FT

CYXE;2016-05-27 23:36;CYXE 272336Z 01010KT 15SM FEW070TCU BKN130 BKN300 17/13 A2988 RMK TCU2AC3CI2 SLP129 DENSITY ALT 2300FT

CYXE;2016-05-28 00:00;CYXE 280000Z 04011KT 15SM FEW070TCU SCT130 BKN300 18/12 A2987 RMK TCU2AC1CI4 SLP127 DENSITY ALT 2400FT

CYXE;2016-05-28 01:00;CYXE 280100Z 12014G20KT 15SM FEW070TCU SCT130 BKN300 19/09 A2988 RMK TCU1AC3CI3 SLP126 DENSITY ALT 2500FT

CYXE;2016-05-28 02:00;CYXE 280200Z 11011KT 15SM BKN090 BKN300 18/10 A2988 RMK AC6CI1 SLP125 DENSITY ALT 2300FT

CYXE;2016-05-28 03:00;CYXE 280300Z 17008KT 15SM BKN090 BKN300 17/09 A2989 RMK AC6CI1 SLP129 DENSITY ALT 2300FT

CYXE;2016-05-28 04:00;CYXE 280400Z 13005KT 15SM BKN100 BKN300 15/10 A2991 RMK AC5CI2 SLP135 DENSITY ALT 2000FT

CYXE;2016-05-28 05:00;CYXE 280500Z 11005KT 15SM FEW060 BKN100 15/10 A2991 RMK SC2AC5 SLP134 DENSITY ALT 2000FT

CYXE;2016-05-28 06:00;CYXE 280600Z 09005KT 15SM BKN100 14/10 A2991 RMK AC7 SLP136 DENSITY ALT 1900FT

CYXE;2016-05-28 07:00;CYXE 280700Z 12010KT 15SM SCT100 14/10 A2990 RMK AC3 SLP132 DENSITY ALT 1900FT

CYXE;2016-05-28 08:00;CYXE 280800Z 12012KT 15SM SCT100 13/10 A2990 RMK AC3 SLP135 DENSITY ALT 1800FT

CYXE;2016-05-28 09:00;CYXE 280900Z 12013KT 15SM SCT110 12/10 A2991 RMK AC4 SLP137

CYXE;2016-05-28 10:00;CYXE 281000Z 13013G19KT 15SM FEW110 SCT270 11/10 A2990 RMK AC2CI1 SLP136

CYXE;2016-05-28 11:00;CYXE 281100Z 14015G21KT 15SM BKN006 10/09 A2991 RMK ST6 SLP142

CYXE;2016-05-28 11:35;CYXE 281135Z 13015G20KT 4SM BR OVC004 10/10 A2992 RMK ST8 SLP145

CYXE;2016-05-28 11:50;CYXE 281150Z 13017G23KT 2SM BR OVC004 10/10 A2992 RMK ST8 SLP146

CYXE;2016-05-28 12:00;CYXE 281200Z 13015G22KT 2SM BR OVC003 10/10 A2992 RMK ST8 SLP145

CYXE;2016-05-28 12:27;CYXE 281227Z 13017G22KT 4SM BR OVC004 10/10 A2992 RMK ST8 SLP144

CYXE;2016-05-28 13:00;CYXE 281300Z 13013G20KT 5SM BR OVC004 10/10 A2993 RMK ST8 SLP146

CYXE;2016-05-28 13:50;CYXE 281350Z 13012KT 10SM OVC005 11/10 A2994 RMK ST8 BR SLP148

CYXE;2016-05-28 14:00;CYXE 281400Z 15010KT 10SM OVC005 11/10 A2994 RMK ST8 BR SLP150

CYXE;2016-05-28 14:35;CYXE 281435Z 12013KT 10SM OVC006 11/11 A2993 RMK ST8 BR SLP147

CYXE;2016-05-28 15:00;CYXE 281500Z 12014KT 12SM OVC006 12/10 A2993 RMK ST8 BR SLP146

CYXE;2016-05-28 16:00;CYXE 281600Z 14010G15KT 12SM OVC007 12/10 A2995 RMK ST8 BR SLP154

CYXE;2016-05-28 17:00;CYXE 281700Z 11011KT 15SM OVC008 12/10 A2994 RMK ST8 SLP150

CYXE;2016-05-28 18:00;CYXE 281800Z 12008KT 15SM OVC012 13/10 A2993 RMK SC8 SLP147 DENSITY ALT 1700FT

CYXE;2016-05-28 18:23;CYXE 281823Z 11008KT 080V150 15SM BKN015 15/10 A2992 RMK SC7 SLP143 DENSITY ALT 1900FT

CYXE;2016-05-28 19:00;CYXE 281900Z 10009KT 060V130 15SM BKN030 17/11 A2991 RMK CU5 SLP137 DENSITY ALT 2200FT

CYXE;2016-05-28 20:00;CYXE 282000Z 13013G18KT 15SM SCT035 18/08 A2988 RMK CU4 SLP129 DENSITY ALT 2400FT

CYXE;2016-05-28 21:00;CYXE 282100Z 15012G18KT 15SM BKN040TCU BKN120 19/08 A2987 RMK TCU5AC2 SLP124 DENSITY ALT 2500FT

CYXE;2016-05-28 22:00;CYXE 282200Z 15014G19KT 15SM OVC070TCU 18/08 A2986 RMK TCU8 SLP123 DENSITY ALT 2400FT

CYXE;2016-05-28 22:25;CYXE 282225Z 14014KT 15SM -SHRA OVC070TCU 16/10 A2987 RMK TCU8 SLP125 DENSITY ALT 2100FT

CYXE;2016-05-28 23:00;CYXE 282300Z 20005KT 130V210 15SM -SHRA OVC070TCU 14/11 A2986 RMK TCU8 SLP125 DENSITY ALT 2000FT

CYXE;2016-05-28 23:22;CYXE 282322Z 24011KT 180V260 15SM -SHRA FEW040 OVC070TCU 14/12 A2987 RMK SF2TCU6 WSHFT 2309 SLP128 DENSITY ALT 1900FT

CYXE;2016-05-29 00:00;CYXE 290000Z 24006KT 10SM -SHRA FEW017 BKN040TCU OVC070 13/12 A2987 RMK SF2TCU4AC2 SLP130 DENSITY ALT 1800FT

CYXE;2016-05-29 01:00;CYXE 290100Z 00000KT 10SM -SHRA BKN017 OVC040TCU 13/13 A2987 RMK SC5TCU3 SLP128 DENSITY ALT 1800FT

CYXE;2016-05-29 01:47;CYXE 290147Z 16003KT 130V200 10SM -SHRA BKN007 OVC040TCU 13/13 A2987 RMK SF5TCU3 SLP128 DENSITY ALT 1800FT

CYXE;2016-05-29 02:00;CYXE 290200Z CCA 20007KT 10SM -SHRA BKN007 BKN040TCU 12/12 A2987 RMK SF5TCU2 SLP130 DENSITY ALT 1700FT

CYXE;2016-05-29 02:43;CYXE 290243Z 22003KT 15SM -SHRA SCT007 BKN040TCU 12/12 A2988 RMK SF3TCU4 SLP132 DENSITY ALT 1700FT

CYXE;2016-05-29 03:00;CYXE 290300Z 22002KT 15SM FEW007 SCT040TCU BKN090 12/12 A2987 RMK SF1TCU3AC2 SLP130 DENSITY ALT 1700FT

CYXE;2016-05-29 04:00;CYXE 290400Z 20004KT 15SM SCT007 BKN040 10/10 A2988 RMK SF4SC3 SLP134

CYXE;2016-05-29 05:00;CYXE 290500Z 22005KT 15SM FEW007 SCT035 10/10 A2988 RMK FU1SC3 SLP134

CYXE;2016-05-29 06:00;CYXE 290600Z 24005KT 15SM VCFG FEW094 09/09 A2988 RMK AC2 SLP132

CYXE;2016-05-29 07:00;CYXE 290700Z 23005KT 15SM R09/3000V5500FT/D VCFG FEW094 08/08 A2988 RMK AC2 SLP131

CYXE;2016-05-29 08:00;CYXE 290800Z 24004KT 15SM R09/1200V1800FT/D PRFG FEW090 08/08 A2988 RMK AC2 VIS W-N 1/2 SLP130

CYXE;2016-05-29 09:00;CYXE 290900Z 21005KT 15SM R09/2600V4500FT/N VCFG FEW090 07/07 A2989 RMK AC2 SLP133

CYXE;2016-05-29 10:00;CYXE 291000Z 23005KT 15SM SCT040 BKN090 08/08 A2989 RMK SC4AC1 SLP133

CYXE;2016-05-29 11:00;CYXE 291100Z 22006KT 15SM BKN040 BKN090 07/07 A2989 RMK SC5AC1 SLP138

CYXE;2016-05-29 12:00;CYXE 291200Z 23007KT 15SM BKN034 09/09 A2990 RMK SC6 SLP141

CYXE;2016-05-29 13:00;CYXE 291300Z 24005KT 15SM BKN030 09/09 A2990 RMK SC6 SLP141

CYXE;2016-05-29 14:00;CYXE 291400Z 23004KT 15SM FEW030 11/10 A2990 RMK SC1 SLP139

CYXE;2016-05-29 15:00;CYXE 291500Z 25004KT 190V290 15SM FEW015 FEW030 14/10 A2990 RMK CF1SC1 SLP139 DENSITY ALT 1900FT

CYXE;2016-05-29 16:00;CYXE 291600Z 22004KT 160V270 15SM SCT016 15/11 A2990 RMK CU3 SLP137 DENSITY ALT 2000FT

CYXE;2016-05-29 17:00;CYXE 291700Z 24003KT 210V340 15SM FEW025 16/10 A2989 RMK CU2 SLP133 DENSITY ALT 2100FT

CYXE;2016-05-29 18:00;CYXE 291800Z 25006KT 190V360 15SM FEW030 17/09 A2988 RMK CU1 SLP132 DENSITY ALT 2300FT

CYXE;2016-05-29 19:00;CYXE 291900Z VRB02KT 15SM SCT040 18/08 A2988 RMK CU3 SLP130 DENSITY ALT 2400FT

CYXE;2016-05-29 20:00;CYXE 292000Z 29008KT 240V310 15SM SCT050 20/07 A2988 RMK CU3 SLP129 DENSITY ALT 2600FT

CYXE;2016-05-29 21:00;CYXE 292100Z 33005KT 15SM SCT052 19/07 A2988 RMK CU4 SLP130 DENSITY ALT 2500FT

CYXE;2016-05-29 22:00;CYXE 292200Z 31009G15KT 290V360 15SM SCT060 20/09 A2987 RMK CU3 SLP128 DENSITY ALT 2600FT

CYXE;2016-05-29 23:00;CYXE 292300Z 35005KT 310V010 15SM FEW060 20/07 A2987 RMK CU2 SLP125 DENSITY ALT 2600FT

CYXE;2016-05-30 00:00;CYXE 300000Z 34008KT 15SM FEW060 20/07 A2987 RMK CU2 SLP125 DENSITY ALT 2700FT

CYXE;2016-05-30 01:00;CYXE 300100Z 33008KT 15SM FEW060 20/06 A2987 RMK CU2 SLP126 DENSITY ALT 2600FT

CYXE;2016-05-30 02:00;CYXE 300200Z 04008KT 15SM FEW060 18/09 A2988 RMK CU1 SLP128 DENSITY ALT 2400FT

CYXE;2016-05-30 03:00;CYXE 300300Z 05009KT 15SM FEW060 FEW300 15/09 A2989 RMK CU1CI1 SLP131 DENSITY ALT 2000FT

CYXE;2016-05-30 04:00;CYXE 300400Z 06011KT 15SM SCT300 13/10 A2990 RMK CI4 SLP136 DENSITY ALT 1800FT

CYXE;2016-05-30 05:00;CYXE 300500Z 06009KT 15SM SCT300 12/10 A2990 RMK CI3 SLP136 DENSITY ALT 1700FT

CYXE;2016-05-30 06:00;CYXE 300600Z 06008KT 15SM SKC 10/10 A2990 RMK SLP137

CYXE;2016-05-30 07:00;CYXE 300700Z 06008KT 15SM SKC 09/09 A2991 RMK SLP141

CYXE;2016-05-30 08:00;CYXE 300800Z 06007KT 15SM SKC 09/09 A2991 RMK SLP141

CYXE;2016-05-30 09:00;CYXE 300900Z 05009KT 15SM SKC 08/08 A2991 RMK SLP142

CYXE;2016-05-30 10:00;CYXE 301000Z 05009KT 15SM FEW080 08/08 A2993 RMK AC1 SLP146

CYXE;2016-05-30 10:24;CYXE 301024Z 06014KT 2SM BR SKC 09/09 A2993 RMK SLP146

CYXE;2016-05-30 10:34;CYXE 301034Z 05010G18KT 2 1/2SM BR OVC002 09/09 A2993 RMK ST8 SLP146

CYXE;2016-05-30 10:45;CYXE 301045Z 07014KT 1SM R09/P6000FT/N BR OVC002 09/09 A2993 RMK ST8 SLP147

CYXE;2016-05-30 11:00;CYXE 301100Z 07013G19KT 3/4SM R09/5000VP6000FT/N BR VV002 09/09 A2993 RMK FG8 SLP147

CYXE;2016-05-30 11:17;CYXE 301117Z 07010G16KT 1 1/2SM BR VV002 09/09 A2994 RMK FG8 SLP151

CYXE;2016-05-30 11:32;CYXE 301132Z 06012G19KT 3SM BR OVC004 08/08 A2995 RMK ST8 SLP152

CYXE;2016-05-30 11:48;CYXE 301148Z 06011KT 10SM OVC005 09/09 A2995 RMK ST8 BR SLP154

CYXE;2016-05-30 12:00;CYXE 301200Z 05012G17KT 10SM OVC005 09/09 A2995 RMK ST8 BR SLP153

CYXE;2016-05-30 13:00;CYXE 301300Z 06011G16KT 15SM OVC006 09/09 A2995 RMK ST8 SLP153

CYXE;2016-05-30 14:00;CYXE 301400Z 05013KT 15SM OVC008 10/09 A2995 RMK SF8 SLP152

CYXE;2016-05-30 14:37;CYXE 301437Z 05011G17KT 15SM OVC010 11/09 A2995 RMK SC8 SLP154

CYXE;2016-05-30 15:00;CYXE 301500Z 06014KT 15SM OVC011 11/09 A2995 RMK SC8 SLP156

CYXE;2016-05-30 15:42;CYXE 301542Z 06012G18KT 15SM BKN015 13/09 A2996 RMK SC7 SLP157 DENSITY ALT 1700FT

CYXE;2016-05-30 16:00;CYXE 301600Z 05014KT 15SM BKN016 13/09 A2996 RMK SC7 SLP158 DENSITY ALT 1700FT

CYXE;2016-05-30 17:00;CYXE 301700Z 06013KT 15SM BKN020 14/09 A2996 RMK SC7 SLP157 DENSITY ALT 1900FT

CYXE;2016-05-30 18:00;CYXE 301800Z 07013G18KT 15SM SCT020 BKN230 16/09 A2996 RMK SC3CI3 SLP157 DENSITY ALT 2100FT

CYXE;2016-05-30 19:00;CYXE 301900Z 06012G19KT 040V110 15SM FEW036 BKN230 18/09 A2996 RMK CU2CI5 SLP158 DENSITY ALT 2300FT

CYXE;2016-05-30 20:00;CYXE 302000Z 05014G19KT 030V090 15SM FEW036 BKN230 18/08 A2995 RMK CU2CI5 SLP155 DENSITY ALT 2300FT

CYXE;2016-05-30 21:00;CYXE 302100Z 08012G20KT 15SM FEW036 BKN230 19/07 A2995 RMK CU2CI5 SLP156 DENSITY ALT 2400FT

CYXE;2016-05-30 22:00;CYXE 302200Z 07010G19KT 15SM FEW050 BKN250 18/07 A2996 RMK CU1CI6 SLP158 DENSITY ALT 2300FT

CYXE;2016-05-30 23:00;CYXE 302300Z 07014G19KT 15SM FEW050 OVC250 18/08 A2996 RMK CU2CI6 SLP158 DENSITY ALT 2300FT

CYXE;2016-05-31 00:00;CYXE 310000Z 07014G19KT 15SM FEW045 OVC240 17/08 A2998 RMK CU1CS7 SLP164 DENSITY ALT 2200FT

CYXE;2016-05-31 01:00;CYXE 310100Z 07011G17KT 15SM BKN170 OVC240 16/08 A2999 RMK AS5CS3 SLP168 DENSITY ALT 2100FT

CYXE;2016-05-31 02:00;CYXE 310200Z 07010G16KT 15SM BKN170 OVC240 15/08 A3000 RMK AS5CS3 SLP172 DENSITY ALT 1900FT

CYXE;2016-05-31 03:00;CYXE 310300Z 06007KT 15SM SCT170 BKN240 14/08 A3000 RMK AS4CS3 SLP174 DENSITY ALT 1700FT

CYXE;2016-05-31 04:00;CYXE 310400Z 04005KT 15SM FEW050 SCT170 11/08 A3003 RMK SC1AS3 SLP182

CYXE;2016-05-31 05:00;CYXE 310500Z 04006KT 15SM FEW240 11/08 A3003 RMK CI2 SLP182

CYXE;2016-05-31 06:00;CYXE 310600Z 02006KT 15SM BKN240 10/09 A3004 RMK CI6 SLP186

CYXE;2016-05-31 07:00;CYXE 310700Z 03007KT 15SM BKN240 10/09 A3004 RMK CI6 SLP185

CYXE;2016-05-31 08:00;CYXE 310800Z 02008KT 15SM BKN240 10/09 A3004 RMK CI6 SLP184

CYXE;2016-05-31 09:00;CYXE 310900Z 36007KT 15SM BKN240 09/09 A3004 RMK CI7 SLP185

CYXE;2016-05-31 10:00;CYXE 311000Z 36007KT 15SM OVC200 09/09 A3004 RMK CI8 SLP184

CYXE;2016-05-31 11:00;CYXE 311100Z 02008KT 15SM FEW090 OVC200 09/09 A3005 RMK AC1CI7 SLP189

CYXE;2016-05-31 12:00;CYXE 311200Z 02007KT 15SM FEW010 BKN250 10/10 A3006 RMK SC1CI6 SLP191

CYXE;2016-05-31 12:29;CYXE 311229Z 02007KT 15SM FEW005 FEW090 BKN250 10/10 A3006 RMK SC1AC1CI5 SLP191

CYXE;2016-05-31 13:00;CYXE 311300Z 03011KT 15SM FEW005 FEW090 BKN250 11/10 A3006 RMK SC1AC1CI5 SLP193

CYXE;2016-05-31 13:09;CYXE 311309Z 03010KT 15SM BKN007 BKN250 11/10 A3006 RMK SC5CI2 SLP193

CYXE;2016-05-31 13:51;CYXE 311351Z 02012KT 15SM SCT009 SCT090 BKN250 12/10 A3007 RMK SC3AC1CI2 SLP193

CYXE;2016-05-31 14:00;CYXE 311400Z 01012KT 15SM SCT009 SCT090 BKN250 12/10 A3007 RMK SC3AC1CI2 SLP194

CYXE;2016-05-31 14:51;CYXE 311451Z 36011KT 15SM BKN011 BKN250 13/10 A3007 RMK CU5CI2 SLP193

CYXE;2016-05-31 15:00;CYXE 311500Z 02011G17KT 15SM BKN011 BKN250 13/10 A3007 RMK SC6CI1 SLP195

CYXE;2016-05-31 16:00;CYXE 311600Z 04010KT 15SM BKN012 13/10 A3006 RMK SC7 SLP195

CYXE;2016-05-31 16:17;CYXE 311617Z 03012KT 15SM -SHRA OVC014 13/10 A3006 RMK SC8 CU EMBD SLP194

CYXE;2016-05-31 16:44;CYXE 311644Z 04013KT 15SM OVC014 13/10 A3006 RMK SC8 SLP193

CYXE;2016-05-31 17:00;CYXE 311700Z 03009KT 15SM OVC014 14/10 A3006 RMK SC8 SLP192 DENSITY ALT 1700FT

CYXE;2016-05-31 17:37;CYXE 311737Z 05012G19KT 15SM BKN016 BKN078 15/10 A3006 RMK SC6AC1 SLP192 DENSITY ALT 1800FT

CYXE;2016-05-31 18:00;CYXE 311800Z 02011G17KT 15SM BKN017 OVC076 15/10 A3006 RMK SC6AC2 SLP193 DENSITY ALT 1800FT

CYXE;2016-05-31 19:00;CYXE 311900Z 02013KT 15SM SCT017 BKN034 OVC080 16/08 A3005 RMK SC4SC2AC2 SLP190 DENSITY ALT 2000FT

CYXE;2016-05-31 20:00;CYXE 312000Z 05012G19KT 010V070 15SM FEW017 BKN035 BKN085 16/08 A3005 RMK SC2SC3AC2 SLP188 DENSITY ALT 2000FT

CYXE;2016-05-31 21:00;CYXE 312100Z 05013G19KT 15SM BKN038 BKN078 17/08 A3005 RMK SC5AC2 SLP188 DENSITY ALT 2000FT

CYXE;2016-05-31 22:00;CYXE 312200Z 01011G18KT 360V070 15SM SCT040 BKN090 17/07 A3005 RMK CU3AC2 SLP187 DENSITY ALT 2100FT

CYXE;2016-05-31 23:00;CYXE 312300Z 06013G19KT 15SM SCT040 SCT090 17/06 A3003 RMK CU3AC1 SLP183 DENSITY ALT 2100FT

CYXE;2016-06-01 00:00;CYXE 010000Z 03014KT 360V070 15SM SCT048 18/06 A3003 RMK CU3 SLP182 DENSITY ALT 2200FT

CYXE;2016-06-01 01:00;CYXE 010100Z 05009KT 15SM SCT050 BKN090 16/06 A3004 RMK CU3AC2 SLP183 DENSITY ALT 2000FT

CYXE;2016-06-01 02:00;CYXE 010200Z 04007KT 15SM FEW050 SCT080 14/06 A3004 RMK SC2AC2 SLP186 DENSITY ALT 1800FT

CYXE;2016-06-01 03:00;CYXE 010300Z 03005KT 15SM FEW050 13/06 A3005 RMK SC2 SLP188

CYXE;2016-06-01 04:00;CYXE 010400Z 03003KT 15SM SCT080 11/06 A3005 RMK AC4 SLP191

CYXE;2016-06-01 05:00;CYXE 010500Z 03002KT 15SM BKN080 11/07 A3005 RMK AC6 SLP190

CYXE;2016-06-01 06:00;CYXE 010600Z 01002KT 15SM BKN070 10/08 A3004 RMK AC5 SLP187

CYXE;2016-06-01 07:00;CYXE 010700Z 27002KT 15SM BKN070 10/07 A3004 RMK AC5 SLP185

CYXE;2016-06-01 08:00;CYXE 010800Z 31002KT 15SM FEW070 07/07 A3003 RMK AC2 BR PTCHS SLP184

CYXE;2016-06-01 09:00;CYXE 010900Z 34003KT 15SM FEW070 06/06 A3003 RMK AC1 BR PTCHS SLP183

CYXE;2016-06-01 10:00;CYXE 011000Z VRB02KT 15SM BCFG SKC 06/06 A3002 RMK SLP181

CYXE;2016-06-01 11:00;CYXE 011100Z 14002KT 15SM R09/5000VP6000FT/D BCFG FEW070 FEW240 05/05 A3001 RMK AC1CI1 SLP179

CYXE;2016-06-01 12:00;CYXE 011200Z 18003KT 15SM FEW080 BKN280 07/07 A3002 RMK AC2CI3 SLP179

CYXE;2016-06-01 13:00;CYXE 011300Z 17003KT 15SM FEW040 BKN280 11/09 A3001 RMK SC1CI4 SLP176

CYXE;2016-06-01 14:00;CYXE 011400Z 19005KT 15SM FEW040 BKN300 14/07 A3002 RMK SC1CI5 SLP176 DENSITY ALT 1800FT

CYXE;2016-06-01 15:00;CYXE 011500Z 19006KT 15SM BKN300 16/06 A3001 RMK CI7 SLP173 DENSITY ALT 2000FT

CYXE;2016-06-01 16:00;CYXE 011600Z 17005KT 090V230 15SM FEW040 BKN300 17/07 A3000 RMK CU1CI6 SLP169 DENSITY ALT 2100FT

CYXE;2016-06-01 17:00;CYXE 011700Z 22007KT 130V250 15SM FEW040 OVC300 18/06 A2998 RMK CU2CI6 SLP164 DENSITY ALT 2200FT

CYXE;2016-06-01 18:00;CYXE 011800Z 24007KT 110V280 15SM SCT045 OVC300 18/06 A2997 RMK CU4CI4 SLP161 DENSITY ALT 2300FT

CYXE;2016-06-01 19:00;CYXE 011900Z 14008KT 130V240 15SM SCT052 BKN240 20/07 A2995 RMK CU4CI3 SLP152 DENSITY ALT 2500FT

CYXE;2016-06-01 20:00;CYXE 012000Z 19009KT 130V210 15SM BKN050 BKN240 20/07 A2994 RMK CU5CI2 SLP149 DENSITY ALT 2500FT

CYXE;2016-06-01 21:00;CYXE 012100Z 18006KT 15SM SCT060 SCT100 BKN240 20/06 A2991 RMK CU3AC1CI3 SLP143 DENSITY ALT 2500FT

CYXE;2016-06-01 22:00;CYXE 012200Z 17007KT 160V220 15SM SCT060 BKN100 BKN240 20/06 A2990 RMK CU4AC2CI1 SLP137 DENSITY ALT 2600FT

CYXE;2016-06-01 23:00;CYXE 012300Z 21007KT 15SM SCT065 BKN100 20/05 A2988 RMK CU4AC3 SLP132 DENSITY ALT 2700FT

CYXE;2016-06-02 00:00;CYXE 020000Z 20007KT 15SM SCT065 BKN100 OVC250 20/07 A2987 RMK SC4AC2CI2 SLP128 DENSITY ALT 2600FT

CYXE;2016-06-02 01:00;CYXE 020100Z 19008KT 15SM SCT100 BKN250 20/08 A2987 RMK AC3CI4 SLP123 DENSITY ALT 2600FT

CYXE;2016-06-02 02:00;CYXE 020200Z 17006KT 15SM FEW100 BKN250 19/09 A2986 RMK AC2CI5 SLP119 DENSITY ALT 2500FT

CYXE;2016-06-02 03:00;CYXE 020300Z 16007KT 15SM SCT120 BKN250 16/08 A2986 RMK AC3CI4 SLP119 DENSITY ALT 2200FT

CYXE;2016-06-02 04:00;CYXE 020400Z 15007KT 15SM BKN230 14/08 A2985 RMK CI7 SLP117 DENSITY ALT 2000FT

CYXE;2016-06-02 05:00;CYXE 020500Z 16008KT 15SM BKN230 14/08 A2984 RMK CI7 SLP115 DENSITY ALT 1900FT

CYXE;2016-06-02 06:00;CYXE 020600Z 17011KT 15SM BKN230 16/09 A2983 RMK CI7 SLP109 DENSITY ALT 2200FT

CYXE;2016-06-02 07:00;CYXE 020700Z 20012KT 15SM BKN210 15/09 A2984 RMK CI7 PRESRR SLP111 DENSITY ALT 2100FT

CYXE;2016-06-02 08:00;CYXE 020800Z 17006KT 15SM SCT110 BKN210 14/09 A2982 RMK AC3CI4 SLP104 DENSITY ALT 2000FT

CYXE;2016-06-02 09:00;CYXE 020900Z 14007KT 15SM SCT100 BKN210 12/09 A2980 RMK AC3CI2 SLP100 DENSITY ALT 1800FT

CYXE;2016-06-02 10:00;CYXE 021000Z 09004KT 15SM SCT100 11/09 A2979 RMK AC4 SLP097

CYXE;2016-06-02 10:47;CYXE 021047Z 03005KT 15SM -SHRA BKN110 11/10 A2980 RMK AC7 SLP099

CYXE;2016-06-02 11:00;CYXE 021100Z 06005KT 15SM -SHRA BKN110 BKN210 11/10 A2979 RMK AC6CI1 SLP098

CYXE;2016-06-02 11:12;CYXE 021112Z 05004KT 15SM SCT110 BKN210 11/10 A2979 RMK AC4CI1 SLP097 DENSITY ALT 1700FT

CYXE;2016-06-02 12:00;CYXE 021200Z 08005KT 15SM SCT110 BKN210 12/11 A2978 RMK AC3CI2 SLP093 DENSITY ALT 1800FT

CYXE;2016-06-02 13:00;CYXE 021300Z 13006KT 15SM BKN140 BKN210 15/11 A2977 RMK AC6CI1 SLP087 DENSITY ALT 2200FT

CYXE;2016-06-02 14:00;CYXE 021400Z 16010KT 15SM BKN120 BKN210 16/10 A2976 RMK AC6CI1 SLP083 DENSITY ALT 2300FT

CYXE;2016-06-02 15:00;CYXE 021500Z 17010KT 15SM BKN120 BKN210 18/10 A2975 RMK AC5CI2 SLP080 DENSITY ALT 2600FT

CYXE;2016-06-02 16:00;CYXE 021600Z 17009KT 15SM BKN110 BKN210 20/10 A2974 RMK AC6CI1 ACC EMBD RA SH E SLP077 DENSITY ALT 2700FT

CYXE;2016-06-02 17:00;CYXE 021700Z 12008KT 100V180 15SM SCT120 BKN210 22/09 A2972 RMK AC4CI3 SLP069 DENSITY ALT 3000FT

CYXE;2016-06-02 18:00;CYXE 021800Z 19010G17KT 150V220 15SM SCT120 BKN210 24/10 A2970 RMK AC3CI4 ACC ASOCTD VIRGA/RA SH NW-E SLP061 DENSITY ALT 3200FT

CYXE;2016-06-02 19:00;CYXE 021900Z 17007G17KT 130V210 15SM FEW120 BKN230 24/11 A2968 RMK AC2CI5 SLP054 DENSITY ALT 3300FT

CYXE;2016-06-02 20:00;CYXE 022000Z 19015KT 15SM FEW060 FEW120 BKN250 25/09 A2966 RMK CU1AC1CI6 CU TR TCU TOPS DIST W SLP049 DENSITY ALT 3400FT

CYXE;2016-06-02 21:00;CYXE 022100Z 25010G19KT 200V260 15SM FEW060CB SCT120 BKN250 25/10 A2965 RMK CB1AC2CI3 FEW CB N SLP047 DENSITY ALT 3500FT

CYXE;2016-06-02 21:09;CYXE 022109Z 19010G16KT 150V260 15SM FEW060CB SCT120 BKN250 26/12 A2965 RMK CB1AC2CI3 FEW CB N WSHFT 2102 SLP044 DENSITY ALT 3600FT

CYXE;2016-06-02 22:00;CYXE 022200Z 23010KT 190V270 15SM FEW060 SCT140 BKN250 26/09 A2964 RMK CU2AC2CI3 CB DIST N SLP041 DENSITY ALT 3600FT

CYXE;2016-06-02 23:00;CYXE 022300Z 25010G23KT 190V270 15SM SCT070 BKN250 27/07 A2962 RMK CU3CI3 CB DIST N SLP035 DENSITY ALT 3700FT

CYXE;2016-06-03 00:00;CYXE 030000Z 22011G19KT 15SM SCT080 BKN250 27/05 A2962 RMK CU3CI4 CB DIST NE SLP033 DENSITY ALT 3700FT

CYXE;2016-06-03 00:30;CYXE 030030Z 23032G43KT 15SM VCSH FEW070CB SCT100 BKN250 24/08 A2964 RMK CB2AC2CI3 PRESRR SLP041 DENSITY ALT 3300FT

CYXE;2016-06-03 01:00;CYXE 030100Z 23021G30KT 15SM VCSH FEW070CB BKN100 BKN250 22/09 A2964 RMK CB2AC3CI2 CB NE SLP043 DENSITY ALT 3100FT

CYXE;2016-06-03 02:00;CYXE 030200Z 20013G19KT 15SM FEW060 BKN100 BKN250 20/10 A2965 RMK CU2AC3CI2 CB TOPS E SLP046 DENSITY ALT 2900FT

CYXE;2016-06-03 03:00;CYXE 030300Z 18009KT 15SM SCT100 BKN250 18/10 A2967 RMK AC4CI3 SLP051 DENSITY ALT 2700FT

CYXE;2016-06-03 04:00;CYXE 030400Z 19007KT 15SM SCT100 BKN250 16/11 A2968 RMK AC3CI4 SLP055 DENSITY ALT 2400FT

CYXE;2016-06-03 05:00;CYXE 030500Z 19006KT 15SM SCT100 BKN250 16/11 A2969 RMK AC4CI3 LTNG DIST NW SLP057 DENSITY ALT 2300FT

CYXE;2016-06-03 06:00;CYXE 030600Z 17007KT 15SM SCT100 BKN250 15/11 A2969 RMK AC3CI3 SLP060 DENSITY ALT 2200FT

CYXE;2016-06-03 07:00;CYXE 030700Z 20012G17KT 15SM FEW100 BKN250 16/11 A2969 RMK AC2CI3 SLP058 DENSITY ALT 2400FT

CYXE;2016-06-03 08:00;CYXE 030800Z 21010G16KT 15SM FEW100 BKN250 15/11 A2969 RMK AC1CI4 SLP057 DENSITY ALT 2200FT

CYXE;2016-06-03 09:00;CYXE 030900Z 29007KT 15SM BKN250 13/11 A2970 RMK CI6 SLP063 DENSITY ALT 2000FT

CYXE;2016-06-03 10:00;CYXE 031000Z 29005KT 15SM FEW080 BKN250 11/11 A2972 RMK AC1CI5 SLP068 DENSITY ALT 1700FT

CYXE;2016-06-03 11:00;CYXE 031100Z 32007KT 15SM FEW090 BKN250 11/11 A2973 RMK AC2CI3 SLP073 DENSITY ALT 1800FT

CYXE;2016-06-03 12:00;CYXE 031200Z 31006KT 15SM BKN100 BKN250 11/11 A2977 RMK AC5CI1 SLP085 DENSITY ALT 1700FT

CYXE;2016-06-03 13:00;CYXE 031300Z 29009KT 15SM BKN100 14/11 A2981 RMK AC6 SLP102 DENSITY ALT 1900FT

CYXE;2016-06-03 14:00;CYXE 031400Z 31010KT 15SM FEW020 SCT100 SCT300 16/12 A2983 RMK CU1AC2CI1 SLP108 DENSITY ALT 2200FT

CYXE;2016-06-03 15:00;CYXE 031500Z 31012G20KT 15SM BKN026 BKN100 18/12 A2986 RMK SC5AC1 SLP116 DENSITY ALT 2400FT

CYXE;2016-06-03 16:00;CYXE 031600Z 30015G23KT 15SM BKN030 19/12 A2987 RMK SC7 SLP122 DENSITY ALT 2500FT

CYXE;2016-06-03 17:00;CYXE 031700Z 30019G28KT 15SM SCT040 BKN080 18/12 A2989 RMK SC3AC3 SH DIST W SLP130 DENSITY ALT 2400FT

CYXE;2016-06-03 17:49;CYXE 031749Z 31017G26KT 15SM -SHRA FEW015 OVC090 16/12 A2991 RMK CU2AC6 SLP137 DENSITY ALT 2100FT

CYXE;2016-06-03 18:00;CYXE 031800Z 31015G26KT 15SM -SHRA FEW015 OVC090 16/12 A2991 RMK CU2AC6 SLP139 DENSITY ALT 2100FT

CYXE;2016-06-03 18:53;CYXE 031853Z 31015G20KT 15SM FEW015 BKN085 OVC300 18/13 A2992 RMK CU2AC4CI2 SLP141 DENSITY ALT 2300FT

CYXE;2016-06-03 19:00;CYXE 031900Z 31017G22KT 15SM FEW020 BKN085 OVC300 19/13 A2992 RMK CU2AC3CI3 SLP141 DENSITY ALT 2400FT

CYXE;2016-06-03 20:00;CYXE 032000Z 32017G23KT 15SM SCT040 BKN090 22/11 A2993 RMK CU3AC2 SLP141 DENSITY ALT 2800FT

CYXE;2016-06-03 21:00;CYXE 032100Z 31018G23KT 15SM BKN055 24/10 A2993 RMK CU5 SLP141 DENSITY ALT 3000FT

CYXE;2016-06-03 22:00;CYXE 032200Z 32012G22KT 15SM SCT060 23/09 A2993 RMK CU4 SLP144 DENSITY ALT 2900FT

CYXE;2016-06-03 23:00;CYXE 032300Z 31018G27KT 15SM SCT065 25/08 A2995 RMK CU4 SLP149 DENSITY ALT 3000FT

CYXE;2016-06-04 00:00;CYXE 040000Z 31018G26KT 15SM SCT070 24/07 A2996 RMK CU3 SLP153 DENSITY ALT 2900FT

CYXE;2016-06-04 01:00;CYXE 040100Z 32016G24KT 15SM FEW070 23/05 A2998 RMK CU1 SLP159 DENSITY ALT 2800FT

CYXE;2016-06-04 02:00;CYXE 040200Z 31014G20KT 15SM FEW070 21/05 A3000 RMK CU1 SLP164 DENSITY ALT 2600FT

CYXE;2016-06-04 03:00;CYXE 040300Z 30008KT 15SM FEW070 17/05 A3001 RMK CU1 SLP172 DENSITY ALT 2100FT

CYXE;2016-06-04 04:00;CYXE 040400Z 29009KT 15SM SKC 13/05 A3004 RMK SLP182

CYXE;2016-06-04 05:00;CYXE 040500Z 28008KT 15SM SKC 11/05 A3005 RMK SLP187

CYXE;2016-06-04 06:00;CYXE 040600Z 28007KT 15SM SKC 11/04 A3006 RMK SLP191

CYXE;2016-06-04 07:00;CYXE 040700Z 26009KT 15SM SKC 09/05 A3007 RMK SLP194

CYXE;2016-06-04 08:00;CYXE 040800Z 25006KT 15SM SKC 08/05 A3007 RMK SLP193

CYXE;2016-06-04 09:00;CYXE 040900Z 26007KT 15SM SKC 08/06 A3008 RMK SLP196

CYXE;2016-06-04 10:00;CYXE 041000Z 27007KT 15SM FEW100 08/06 A3009 RMK AC1 SLP198

CYXE;2016-06-04 11:00;CYXE 041100Z 25007KT 15SM FEW250 07/06 A3009 RMK CI1 SLP201

CYXE;2016-06-04 12:00;CYXE 041200Z 24005KT 15SM FEW250 10/07 A3010 RMK CI1 SLP201

CYXE;2016-06-04 13:00;CYXE 041300Z 24006KT 15SM SKC 14/08 A3010 RMK SLP199

CYXE;2016-06-04 14:00;CYXE 041400Z 27005KT 15SM FEW080 18/08 A3010 RMK AC1 SLP199 DENSITY ALT 2100FT

CYXE;2016-06-04 15:00;CYXE 041500Z 29011KT 15SM FEW040 21/08 A3010 RMK SC1 SLP198 DENSITY ALT 2500FT

CYXE;2016-06-04 16:00;CYXE 041600Z 31015KT 15SM FEW050 23/08 A3009 RMK SC1 SLP198 DENSITY ALT 2700FT

CYXE;2016-06-04 17:00;CYXE 041700Z 32013G21KT 15SM FEW050 FEW260 24/06 A3008 RMK SC1CI1 SLP195 DENSITY ALT 2800FT

CYXE;2016-06-04 18:00;CYXE 041800Z 30015G21KT 15SM FEW050 SCT260 25/05 A3008 RMK SC1CI3 SLP192 DENSITY ALT 2900FT

CYXE;2016-06-04 19:00;CYXE 041900Z 33014G25KT 15SM FEW050 SCT090 26/05 A3006 RMK SC1AC2 SLP188 DENSITY ALT 3000FT

CYXE;2016-06-04 20:00;CYXE 042000Z 32015G23KT 15SM FEW080 26/05 A3005 RMK CU2 SLP186 DENSITY ALT 3000FT

CYXE;2016-06-04 21:00;CYXE 042100Z 30017G25KT 15SM FEW080 26/05 A3003 RMK CU2 SLP178 DENSITY ALT 3100FT

CYXE;2016-06-04 22:00;CYXE 042200Z 29021G29KT 15SM FEW080 26/05 A3001 RMK AC2 SLP172 DENSITY ALT 3200FT

CYXE;2016-06-04 23:00;CYXE 042300Z 31027G35KT 15SM FEW080 26/04 A3000 RMK CU1 SLP168 DENSITY ALT 3100FT

CYXE;2016-06-05 00:00;CYXE 050000Z 31023G31KT 15SM FEW090 25/04 A3000 RMK AC1 SLP165 DENSITY ALT 3100FT

CYXE;2016-06-05 01:00;CYXE 050100Z 32020KT 15SM FEW100 24/04 A3000 RMK AC1 SLP163 DENSITY ALT 3000FT

CYXE;2016-06-05 02:00;CYXE 050200Z 31013G21KT 15SM SKC 23/04 A3000 RMK SLP162 DENSITY ALT 2800FT

CYXE;2016-06-05 03:00;CYXE 050300Z 31010KT 15SM SKC 20/05 A3000 RMK SLP164 DENSITY ALT 2500FT

CYXE;2016-06-05 04:00;CYXE 050400Z 30008KT 15SM SKC 14/05 A3000 RMK SLP166 DENSITY ALT 1800FT

CYXE;2016-06-05 05:00;CYXE 050500Z 29009KT 15SM SKC 12/05 A3000 RMK SLP166

CYXE;2016-06-05 06:00;CYXE 050600Z 32009KT 15SM SKC 10/05 A3000 RMK SLP167

CYXE;2016-06-05 07:00;CYXE 050700Z 27007KT 20SM SKC 09/05 A3000 RMK SLP167

CYXE;2016-06-05 08:00;CYXE 050800Z 28009KT 15SM SKC 09/06 A3000 RMK SLP165

CYXE;2016-06-05 09:00;CYXE 050900Z 29009KT 15SM SKC 10/05 A3000 RMK SLP165

CYXE;2016-06-05 10:00;CYXE 051000Z 30008KT 15SM SKC 08/05 A3000 RMK SLP167

CYXE;2016-06-05 11:00;CYXE 051100Z 30009KT 15SM SKC 08/05 A3001 RMK SLP170

CYXE;2016-06-05 12:00;CYXE 051200Z 31008KT 15SM SKC 10/05 A3002 RMK SLP173

CYXE;2016-06-05 13:00;CYXE 051300Z 32010KT 15SM SKC 13/05 A3003 RMK SLP175 DENSITY ALT 1700FT

CYXE;2016-06-05 14:00;CYXE 051400Z 30010G16KT 15SM SKC 17/06 A3003 RMK SLP174 DENSITY ALT 2000FT

CYXE;2016-06-05 15:00;CYXE 051500Z 32009G15KT 15SM SKC 19/06 A3003 RMK SLP175 DENSITY ALT 2400FT

CYXE;2016-06-05 16:00;CYXE 051600Z 35010G17KT 15SM FEW070 21/06 A3003 RMK CU1 SLP178 DENSITY ALT 2600FT

CYXE;2016-06-05 17:00;CYXE 051700Z 33019G26KT 15SM SCT080 23/04 A3003 RMK CU3 SLP178 DENSITY ALT 2700FT

CYXE;2016-06-05 18:00;CYXE 051800Z 34018G23KT 300V010 15SM SCT080 24/04 A3002 RMK CU3 SLP174 DENSITY ALT 2900FT

CYXE;2016-06-05 19:00;CYXE 051900Z 32019KT 15SM SCT080 25/03 A3001 RMK CU3 SLP171 DENSITY ALT 3000FT

CYXE;2016-06-05 20:00;CYXE 052000Z 33019G29KT 15SM SCT085 24/02 A3000 RMK CU3 SLP170 DENSITY ALT 2900FT

CYXE;2016-06-05 21:00;CYXE 052100Z 33016G26KT 15SM SCT090 24/02 A2999 RMK CU3 SLP165 DENSITY ALT 2900FT

CYXE;2016-06-05 22:00;CYXE 052200Z 35021G27KT 15SM SCT100 25/02 A3000 RMK AC3 SLP167 DENSITY ALT 3000FT

CYXE;2016-06-05 23:00;CYXE 052300Z 35018G23KT 15SM SCT100 24/02 A3000 RMK AC4 SLP169 DENSITY ALT 2900FT

CYXE;2016-06-05 23:48;CYXE 052348Z 03017KT 15SM SCT100 23/05 A3001 RMK AC3 WSHFT 2332 SLP174 DENSITY ALT 2800FT

CYXE;2016-06-06 00:00;CYXE 060000Z 02016G23KT 15SM SCT100 22/05 A3002 RMK AC3 SLP174 DENSITY ALT 2700FT

CYXE;2016-06-06 01:00;CYXE 060100Z 02014G21KT 15SM FEW100 22/05 A3003 RMK AC1 SLP176 DENSITY ALT 2600FT

CYXE;2016-06-06 02:00;CYXE 060200Z 04012KT 15SM FEW300 20/06 A3004 RMK CI1 SLP179 DENSITY ALT 2400FT

CYXE;2016-06-06 03:00;CYXE 060300Z 03009KT 15SM FEW300 18/05 A3005 RMK CI2 SLP184 DENSITY ALT 2100FT

CYXE;2016-06-06 04:00;CYXE 060400Z 02009KT 15SM FEW300 15/06 A3007 RMK CI1 SLP190 DENSITY ALT 1800FT

CYXE;2016-06-06 05:00;CYXE 060500Z 01008KT 15SM SKC 12/05 A3007 RMK SLP192

CYXE;2016-06-06 06:00;CYXE 060600Z 04006KT 15SM SKC 11/06 A3009 RMK SLP196

CYXE;2016-06-06 07:00;CYXE 060700Z VRB04KT 15SM SKC 08/05 A3010 RMK SLP201

CYXE;2016-06-06 08:00;CYXE 060800Z 28006KT 15SM SKC 07/05 A3011 RMK SLP207

CYXE;2016-06-06 09:00;CYXE 060900Z 34003KT 15SM SKC 07/05 A3012 RMK SLP209

CYXE;2016-06-06 10:00;CYXE 061000Z 04002KT 15SM FEW250 07/05 A3012 RMK CI1 SLP209

CYXE;2016-06-06 11:00;CYXE 061100Z 07005KT 15SM FEW250 04/04 A3012 RMK CI1 SLP210

CYXE;2016-06-06 12:00;CYXE 061200Z 12002KT 15SM FEW250 09/07 A3013 RMK CI2 SLP213

CYXE;2016-06-06 13:00;CYXE 061300Z 17006KT 15SM FEW250 13/07 A3014 RMK CI2 SLP214

CYXE;2016-06-06 14:00;CYXE 061400Z 16007KT 15SM SCT250 15/07 A3014 RMK CI4 SLP216 DENSITY ALT 1700FT

CYXE;2016-06-06 15:00;CYXE 061500Z 16008KT 140V200 15SM SCT300 17/08 A3014 RMK CI3 SLP216 DENSITY ALT 2000FT

CYXE;2016-06-06 16:00;CYXE 061600Z 16006KT 130V220 15SM FEW300 18/07 A3013 RMK CI2 SLP213 DENSITY ALT 2100FT

CYXE;2016-06-06 17:00;CYXE 061700Z 15008KT 090V170 15SM BKN300 20/07 A3012 RMK CI5 SLP210 DENSITY ALT 2300FT

CYXE;2016-06-06 18:00;CYXE 061800Z 13005KT 110V220 15SM BKN300 20/06 A3011 RMK CI5 SLP207 DENSITY ALT 2400FT

CYXE;2016-06-06 19:00;CYXE 061900Z 18007KT 120V240 15SM FEW060 BKN300 22/06 A3009 RMK CU1CI4 SLP200 DENSITY ALT 2500FT

CYXE;2016-06-06 20:00;CYXE 062000Z 18005KT 100V220 15SM FEW060 BKN300 23/06 A3006 RMK CU1CI4 SLP191 DENSITY ALT 2700FT

CYXE;2016-06-06 21:00;CYXE 062100Z 20004G19KT 090V220 15SM FEW070 BKN300 23/06 A3005 RMK CU2CI4 SLP185 DENSITY ALT 2800FT

CYXE;2016-06-06 22:00;CYXE 062200Z 12005KT 070V210 15SM FEW072 BKN300 24/06 A3002 RMK CU2CI5 SLP177 DENSITY ALT 2900FT

CYXE;2016-06-06 23:00;CYXE 062300Z 20005KT 140V210 15SM FEW075 BKN300 24/06 A3000 RMK CU2CI5 SLP171 DENSITY ALT 2900FT

CYXE;2016-06-07 00:00;CYXE 070000Z 18007KT 15SM FEW075 BKN300 23/06 A2999 RMK CU1CI6 SLP163 DENSITY ALT 2900FT

CYXE;2016-06-07 01:00;CYXE 070100Z 14009G16KT 15SM BKN300 23/06 A2997 RMK CI6 SLP157 DENSITY ALT 2800FT

CYXE;2016-06-07 02:00;CYXE 070200Z 14011KT 15SM BKN300 21/05 A2997 RMK CI6 SLP156 DENSITY ALT 2600FT

CYXE;2016-06-07 03:00;CYXE 070300Z 13012G17KT 15SM BKN300 20/06 A2995 RMK CI6 SLP150 DENSITY ALT 2500FT

CYXE;2016-06-07 04:00;CYXE 070400Z 13013G18KT 15SM SCT300 19/05 A2995 RMK CI4 SLP148 DENSITY ALT 2400FT

CYXE;2016-06-07 05:00;CYXE 070500Z 13012KT 15SM SCT300 17/07 A2994 RMK CI3 SLP146 DENSITY ALT 2200FT

CYXE;2016-06-07 06:00;CYXE 070600Z 14014KT 15SM FEW300 16/07 A2993 RMK CI2 SLP143 DENSITY ALT 2100FT

CYXE;2016-06-07 07:00;CYXE 070700Z 15013KT 15SM FEW300 16/06 A2992 RMK CI2 SLP138 DENSITY ALT 2100FT

CYXE;2016-06-07 08:00;CYXE 070800Z 14011G18KT 15SM FEW300 15/05 A2991 RMK CI2 SLP133 DENSITY ALT 2000FT

CYXE;2016-06-07 09:00;CYXE 070900Z 14011G23KT 15SM FEW300 15/05 A2990 RMK CI2 SLP131 DENSITY ALT 2000FT

CYXE;2016-06-07 10:00;CYXE 071000Z 14010G15KT 15SM BKN300 14/05 A2989 RMK CI5 SLP127 DENSITY ALT 1900FT

CYXE;2016-06-07 11:00;CYXE 071100Z 15009KT 15SM BKN220 14/06 A2988 RMK CI7 SLP123 DENSITY ALT 1900FT

CYXE;2016-06-07 12:00;CYXE 071200Z 14011KT 15SM BKN200 14/07 A2986 RMK CI7 SLP118 DENSITY ALT 2000FT

CYXE;2016-06-07 13:00;CYXE 071300Z 14011G17KT 15SM BKN170 16/08 A2984 RMK AC7 SLP109 DENSITY ALT 2200FT

CYXE;2016-06-07 14:00;CYXE 071400Z 15012KT 15SM BKN140 16/08 A2983 RMK AC7 SLP107 DENSITY ALT 2300FT

CYXE;2016-06-07 15:00;CYXE 071500Z 16012G17KT 15SM FEW100CB BKN130 BKN300 17/08 A2981 RMK CB1ACC4CI2 CB DIST NW MOVG SE SLP100 DENSITY ALT 2400FT

CYXE;2016-06-07 16:00;CYXE 071600Z 14011KT 15SM VCSH BKN110 BKN300 18/08 A2981 RMK ACC5CI2 PRESFR SLP101 DENSITY ALT 2500FT

CYXE;2016-06-07 17:00;CYXE 071700Z 16012G20KT 15SM VCSH BKN110 BKN300 20/09 A2980 RMK ACC5CI2 SLP098 DENSITY ALT 2700FT

CYXE;2016-06-07 17:47;CYXE 071747Z 13011KT 15SM SCT110 BKN300 25/11 A2978 RMK ACC4CI2 SLP088 DENSITY ALT 3200FT

CYXE;2016-06-07 18:00;CYXE 071800Z 15012G21KT 15SM SCT110 BKN200 25/09 A2978 RMK ACC4CI2 SLP087 DENSITY ALT 3300FT

CYXE;2016-06-07 19:00;CYXE 071900Z 15014G20KT 15SM SCT120 BKN300 28/09 A2976 RMK ACC4CI2 SLP081 DENSITY ALT 3600FT

CYXE;2016-06-07 20:00;CYXE 072000Z 16015G25KT 15SM SCT120 BKN300 28/08 A2975 RMK ACC4CI3 SLP078 DENSITY ALT 3700FT

CYXE;2016-06-07 21:00;CYXE 072100Z 14017KT 15SM SCT120 BKN300 28/09 A2974 RMK AC4CI3 SLP073 DENSITY ALT 3700FT

CYXE;2016-06-07 22:00;CYXE 072200Z 16015G26KT 15SM SCT110 BKN300 27/09 A2973 RMK AC4CI3 SLP069 DENSITY ALT 3600FT

CYXE;2016-06-07 23:00;CYXE 072300Z 13022G28KT 15SM SCT110 BKN300 28/09 A2970 RMK AC3CI3 SLP060 DENSITY ALT 3700FT

CYXE;2016-06-08 00:00;CYXE 080000Z 13018G24KT 15SM FEW110 BKN300 28/09 A2969 RMK AC2CI5 SLP055 DENSITY ALT 3700FT

CYXE;2016-06-08 01:00;CYXE 080100Z 12017G24KT 15SM FEW110 BKN300 27/09 A2968 RMK AC2CI5 SLP052 DENSITY ALT 3600FT

CYXE;2016-06-08 02:00;CYXE 080200Z 12016KT 15SM FEW110 SCT300 26/09 A2968 RMK AC2CI2 SLP052 DENSITY ALT 3500FT

CYXE;2016-06-08 03:00;CYXE 080300Z 13015G21KT 15SM FEW100 SCT300 24/08 A2968 RMK AC2CI2 SLP052 DENSITY ALT 3300FT

CYXE;2016-06-08 04:00;CYXE 080400Z 12013G22KT 15SM FEW070CB SCT300 23/09 A2967 RMK CB1CI3 LTNG N SLP051 DENSITY ALT 3200FT

CYXE;2016-06-08 05:00;CYXE 080500Z 06010KT 15SM FEW070CB BKN300 20/10 A2967 RMK CB1CI5 LTNG N-NE SLP051 DENSITY ALT 2800FT

CYXE;2016-06-08 06:00;CYXE 080600Z 07015KT 15SM FEW070CB BKN300 20/11 A2967 RMK CB1CI4 LTNG NE SLP048 DENSITY ALT 2800FT

CYXE;2016-06-08 07:00;CYXE 080700Z 10012KT 15SM SCT300 20/11 A2966 RMK CI3 SLP043 DENSITY ALT 2800FT

CYXE;2016-06-08 08:00;CYXE 080800Z 11012G18KT 15SM SCT250 20/10 A2966 RMK CI3 SLP043 DENSITY ALT 2800FT

CYXE;2016-06-08 09:00;CYXE 080900Z 10008KT 15SM SCT250 18/11 A2966 RMK CI3 SLP043 DENSITY ALT 2700FT

CYXE;2016-06-08 10:00;CYXE 081000Z 10007KT 15SM BKN250 18/11 A2967 RMK CI5 SLP048 DENSITY ALT 2600FT

CYXE;2016-06-08 11:00;CYXE 081100Z 32004KT 300V070 15SM SCT080 BKN250 15/11 A2971 RMK AC3CI4 PRESRR SLP062 DENSITY ALT 2300FT

CYXE;2016-06-08 12:00;CYXE 081200Z 33004KT 15SM SCT080 BKN220 15/12 A2973 RMK AC3CI4 SLP070 DENSITY ALT 2200FT

CYXE;2016-06-08 13:00;CYXE 081300Z 02006KT 15SM SCT090 OVC220 17/12 A2972 RMK AC3CI5 SLP064 DENSITY ALT 2500FT

CYXE;2016-06-08 14:00;CYXE 081400Z 05009KT 15SM FEW090 SCT220 BKN300 18/13 A2971 RMK AC2CC2CI3 SLP061 DENSITY ALT 2600FT

CYXE;2016-06-08 15:00;CYXE 081500Z 05010KT 15SM FEW100 FEW220 BKN300 21/13 A2972 RMK AC1CC1CI5 SLP065 DENSITY ALT 2900FT

CYXE;2016-06-08 16:00;CYXE 081600Z 06010KT 15SM BKN300 22/14 A2971 RMK CI6 SLP062 DENSITY ALT 3100FT

CYXE;2016-06-08 17:00;CYXE 081700Z 07010G15KT 030V100 15SM SCT300 25/14 A2972 RMK CI4 SLP064 DENSITY ALT 3400FT

CYXE;2016-06-08 18:00;CYXE 081800Z 08010G24KT 040V110 15SM BKN300 27/13 A2971 RMK CI5 SLP061 DENSITY ALT 3600FT

CYXE;2016-06-08 19:00;CYXE 081900Z 09013G22KT 15SM BKN300 28/12 A2971 RMK CI5 SLP062 DENSITY ALT 3600FT

CYXE;2016-06-08 20:00;CYXE 082000Z 08012G19KT 15SM SCT300 28/12 A2971 RMK CI4 SLP061 DENSITY ALT 3700FT

CYXE;2016-06-08 21:00;CYXE 082100Z 09011G16KT 15SM SCT300 28/13 A2971 RMK CI3 SLP061 DENSITY ALT 3700FT

CYXE;2016-06-08 22:00;CYXE 082200Z 10008G15KT 15SM SCT300 29/12 A2969 RMK CI3 SLP056 DENSITY ALT 3800FT

CYXE;2016-06-08 23:00;CYXE 082300Z 10005G15KT 090V150 15SM SCT300 29/12 A2969 RMK CI4 SLP056 DENSITY ALT 3800FT

CYXE;2016-06-09 00:00;CYXE 090000Z 12014G20KT 15SM SCT300 28/13 A2967 RMK CI4 SLP050 DENSITY ALT 3800FT

CYXE;2016-06-09 01:00;CYXE 090100Z 11017KT 15SM SCT300 27/13 A2966 RMK CI4 SLP044 DENSITY ALT 3600FT

CYXE;2016-06-09 02:00;CYXE 090200Z 11014G21KT 15SM BKN300 25/14 A2966 RMK CI7 SLP045 DENSITY ALT 3400FT

CYXE;2016-06-09 03:00;CYXE 090300Z 11014KT 15SM BKN300 23/14 A2965 RMK CI7 SLP042 DENSITY ALT 3200FT

CYXE;2016-06-09 04:00;CYXE 090400Z 12010KT 15SM BKN300 21/14 A2965 RMK CI7 SLP041 DENSITY ALT 3000FT

CYXE;2016-06-09 05:00;CYXE 090500Z 11013G20KT 15SM FEW150 BKN300 20/14 A2961 RMK AC2CI5 SLP028 DENSITY ALT 2900FT

CYXE;2016-06-09 06:00;CYXE 090600Z 12015G23KT 15SM OVC130 20/15 A2963 RMK AC8 SLP032 DENSITY ALT 2900FT

CYXE;2016-06-09 07:00;CYXE 090700Z 13017G25KT 15SM OVC130 20/15 A2960 RMK AC8 SLP023 DENSITY ALT 2900FT

CYXE;2016-06-09 08:00;CYXE 090800Z CCA 14014KT 15SM OVC130 20/15 A2960 RMK AC8 LTGIC DIST SW SLP022 DENSITY ALT 2900FT

CYXE;2016-06-09 08:12;CYXE 090812Z 14012KT 15SM TS FEW076CB OVC130 20/15 A2960 RMK CB1AC7 LTGIC SW SLP022 DENSITY ALT 2900FT

CYXE;2016-06-09 08:28;CYXE 090828Z 15008G15KT 15SM TS SCT075CB OVC130 20/15 A2960 RMK CB3AC5 LTGIC VCNTY SW DIST SE & NW SLP024 DENSITY ALT 2900FT

CYXE;2016-06-09 08:38;CYXE 090838Z 21011KT 150V230 10SM TSRA SCT075CB OVC130 19/15 A2963 RMK CB4AC4 LTGIC DIST SE + NW PRESRR SLP034 DENSITY ALT 2800FT

CYXE;2016-06-09 08:48;CYXE 090848Z 15011G22KT 140V240 15SM -TSRA BKN075CB OVC130 18/17 A2963 RMK CB6AC2 LTGIC PRESFR SLP033 DENSITY ALT 2600FT

CYXE;2016-06-09 09:00;CYXE 090900Z 18005KT 15SM -TSRA BKN070CB OVC130 18/17 A2962 RMK CB5AC3 LTGIC E PRESFR SLP030 DENSITY ALT 2600FT

CYXE;2016-06-09 09:21;CYXE 090921Z VRB06KT 15SM TS FEW070CB OVC160 17/17 A2960 RMK CB2AC6 LTGIC DIST NE + SE PRESFR SLP025 DENSITY ALT 2600FT

CYXE;2016-06-09 09:27;CYXE 090927Z 12006KT 15SM BKN160 OVC200 18/17 A2960 RMK AC6CI2 LTGIC DIST N-E PRESFR SLP023 DENSITY ALT 2600FT

CYXE;2016-06-09 10:00;CYXE 091000Z 14010KT 15SM BKN170 OVC200 18/17 A2958 RMK AC7CI1 SLP015 DENSITY ALT 2700FT

CYXE;2016-06-09 11:00;CYXE 091100Z 08008KT 15SM BKN170 OVC210 17/17 A2952 RMK AC6CI2 ACC EMBD VIRGA SW PRESFR SLP998 DENSITY ALT 2700FT

CYXE;2016-06-09 12:00;CYXE 091200Z 00000KT 15SM BKN130 OVC210 18/17 A2957 RMK AC5CI3 PRESRR SLP013 DENSITY ALT 2700FT

CYXE;2016-06-09 13:00;CYXE 091300Z 14006KT 15SM SCT130 BKN210 19/17 A2958 RMK AC4CI3 SLP015 DENSITY ALT 2900FT

CYXE;2016-06-09 14:00;CYXE 091400Z 14011G16KT 15SM FEW120 BKN250 21/16 A2957 RMK AC2CI5 SLP014 DENSITY ALT 3100FT

CYXE;2016-06-09 15:00;CYXE 091500Z 18009KT 15SM FEW120 BKN250 21/16 A2957 RMK ACC2CI5 SLP014 DENSITY ALT 3100FT

CYXE;2016-06-09 16:00;CYXE 091600Z 19009KT 15SM FEW120 BKN300 24/15 A2956 RMK ACC1CI4 SLP011 DENSITY ALT 3400FT

CYXE;2016-06-09 17:00;CYXE 091700Z 21012G18KT 15SM SCT300 26/13 A2955 RMK CI3 SLP005 DENSITY ALT 3700FT

CYXE;2016-06-09 18:00;CYXE 091800Z 26016G23KT 15SM FEW060 SCT300 27/12 A2954 RMK CF1CI2 SLP001 DENSITY ALT 3800FT

CYXE;2016-06-09 19:00;CYXE 091900Z 25015G23KT 15SM FEW060 FEW300 28/13 A2953 RMK CU1CI1 SLP000 DENSITY ALT 3900FT

CYXE;2016-06-09 20:00;CYXE 092000Z 26018G25KT 15SM FEW060 29/09 A2954 RMK CU2 SLP000 DENSITY ALT 4000FT

CYXE;2016-06-09 21:00;CYXE 092100Z 26018KT 15SM SCT080 29/10 A2955 RMK CU3 SLP005 DENSITY ALT 4000FT

CYXE;2016-06-09 22:00;CYXE 092200Z 25016G23KT 15SM SCT084 29/08 A2955 RMK CU3 SLP004 DENSITY ALT 4000FT

CYXE;2016-06-09 23:00;CYXE 092300Z 27014G26KT 15SM SCT080 28/08 A2954 RMK CU3 SLP003 DENSITY ALT 3900FT

CYXE;2016-06-10 00:00;CYXE 100000Z 29015G21KT 15SM SCT068 27/11 A2954 RMK CU4 SLP004 DENSITY ALT 3800FT

CYXE;2016-06-10 01:00;CYXE 100100Z 29015KT 15SM SCT064 26/10 A2956 RMK CU3 SLP009 DENSITY ALT 3700FT

CYXE;2016-06-10 02:00;CYXE 100200Z 29010G17KT 15SM FEW080 25/10 A2957 RMK AC1 SLP012 DENSITY ALT 3500FT

CYXE;2016-06-10 03:00;CYXE 100300Z 29006KT 15SM FEW090 20/11 A2959 RMK AC1 SLP022 DENSITY ALT 3000FT

CYXE;2016-06-10 04:00;CYXE 100400Z 26006KT 15SM FEW090 17/11 A2961 RMK AC2 SLP029 DENSITY ALT 2600FT

CYXE;2016-06-10 05:00;CYXE 100500Z 28007KT 15SM FEW090 18/10 A2963 RMK AC1 SLP036 DENSITY ALT 2600FT

CYXE;2016-06-10 06:00;CYXE 100600Z 29008KT 15SM FEW090 17/11 A2964 RMK AC2 SLP038 DENSITY ALT 2500FT

CYXE;2016-06-10 07:00;CYXE 100700Z 26006KT 15SM FEW090 14/10 A2965 RMK AC2 SLP043 DENSITY ALT 2200FT

CYXE;2016-06-10 08:00;CYXE 100800Z 29009KT 15SM SKC 15/10 A2967 RMK SLP049 DENSITY ALT 2200FT

CYXE;2016-06-10 09:00;CYXE 100900Z 26005KT 15SM SKC 13/09 A2969 RMK SLP057 DENSITY ALT 2000FT

CYXE;2016-06-10 10:00;CYXE 101000Z 24007KT 15SM FEW270 12/09 A2973 RMK CI1 SLP069 DENSITY ALT 1800FT

CYXE;2016-06-10 11:00;CYXE 101100Z 26009KT 15SM FEW020 FEW270 12/09 A2975 RMK SC1CI1 SLP079 DENSITY ALT 1800FT

CYXE;2016-06-10 12:00;CYXE 101200Z 26010G16KT 15SM FEW022 FEW270 12/09 A2978 RMK SC1CI1 SLP088 DENSITY ALT 1800FT

CYXE;2016-06-10 13:00;CYXE 101300Z 27011KT 15SM SCT030 13/08 A2980 RMK SC4 SLP094 DENSITY ALT 1900FT

CYXE;2016-06-10 14:00;CYXE 101400Z 29015G21KT 15SM SCT025 14/07 A2981 RMK SC4 SLP098 DENSITY ALT 2000FT

CYXE;2016-06-10 15:00;CYXE 101500Z 29017G24KT 15SM BKN032 15/07 A2982 RMK SC5 SLP106 DENSITY ALT 2100FT

CYXE;2016-06-10 16:00;CYXE 101600Z 30018G28KT 15SM BKN032 15/07 A2984 RMK SC6 SLP114 DENSITY ALT 2100FT

CYXE;2016-06-10 17:00;CYXE 101700Z 28012G25KT 15SM BKN035 15/07 A2986 RMK SC7 SLP121 DENSITY ALT 2100FT

CYXE;2016-06-10 18:00;CYXE 101800Z 30017G27KT 15SM BKN035 15/08 A2988 RMK SC7 SLP127 DENSITY ALT 2100FT

CYXE;2016-06-10 19:00;CYXE 101900Z 30015G24KT 15SM OVC032 15/07 A2991 RMK SC8 SLP140 DENSITY ALT 2000FT

CYXE;2016-06-10 20:00;CYXE 102000Z 32016G27KT 15SM BKN035 16/07 A2992 RMK SC7 SLP141 DENSITY ALT 2100FT

CYXE;2016-06-10 21:00;CYXE 102100Z 33019KT 15SM BKN038 16/07 A2993 RMK SC7 SLP147 DENSITY ALT 2100FT

CYXE;2016-06-10 22:00;CYXE 102200Z 36016G22KT 15SM BKN038 16/07 A2995 RMK SC7 SLP152 DENSITY ALT 2000FT

CYXE;2016-06-10 23:00;CYXE 102300Z 36015G20KT 15SM OVC031 14/07 A2997 RMK SC8 SLP162 DENSITY ALT 1800FT

CYXE;2016-06-11 00:00;CYXE 110000Z 02013G20KT 15SM OVC033 15/07 A2997 RMK SC8 SLP162 DENSITY ALT 1900FT

CYXE;2016-06-11 01:00;CYXE 110100Z 02017G24KT 15SM BKN034 15/07 A2996 RMK SC7 SLP158 DENSITY ALT 1900FT

CYXE;2016-06-11 02:00;CYXE 110200Z 06013KT 010V070 15SM BKN036 BKN250 14/06 A2999 RMK SC5CI2 SLP168 DENSITY ALT 1800FT

CYXE;2016-06-11 03:00;CYXE 110300Z 06010KT 15SM FEW036 SCT250 13/06 A3001 RMK SC2CI1 SLP173

CYXE;2016-06-11 04:00;CYXE 110400Z 08008KT 15SM FEW036 FEW250 10/06 A3005 RMK SC1CI1 SLP188

CYXE;2016-06-11 05:00;CYXE 110500Z 06009KT 15SM FEW250 10/06 A3004 RMK CI1 PRESFR SLP185

CYXE;2016-06-11 06:00;CYXE 110600Z 08007KT 15SM FEW250 09/06 A3005 RMK CI1 SLP191

CYXE;2016-06-11 07:00;CYXE 110700Z 08005KT 15SM FEW100 SCT220 08/06 A3007 RMK AC2CI2 SLP197

CYXE;2016-06-11 08:00;CYXE 110800Z 04005KT 15SM FEW250 07/06 A3008 RMK CI2 SLP200

CYXE;2016-06-11 09:00;CYXE 110900Z 06007KT 15SM FEW120 SCT220 07/06 A3007 RMK AC2CI2 SLP199

CYXE;2016-06-11 10:00;CYXE 111000Z 07006KT 15SM SCT120 BKN220 06/05 A3009 RMK AC3CI3 SLP204

CYXE;2016-06-11 11:00;CYXE 111100Z 09005KT 15SM SCT120 BKN220 07/06 A3005 RMK AC3CI3 SLP192

CYXE;2016-06-11 12:00;CYXE 111200Z 10012KT 15SM FEW120 BKN160 BKN250 09/06 A3006 RMK AC2AC3CI2 PRESFR SLP193

CYXE;2016-06-11 13:00;CYXE 111300Z 12014KT 15SM FEW120 BKN160 BKN250 10/06 A3008 RMK AC2AC3CI2 SLP198

CYXE;2016-06-11 14:00;CYXE 111400Z 11013G19KT 15SM FEW020 BKN150 OVC250 11/06 A3008 RMK SC1ACC4CI3 SLP198

CYXE;2016-06-11 15:00;CYXE 111500Z 12011G19KT 15SM FEW020 BKN150 OVC250 12/06 A3009 RMK SC1ACC4CI3 PRESRR SLP204

CYXE;2016-06-11 16:00;CYXE 111600Z 14013G18KT 15SM SCT030 BKN110 OVC150 12/06 A3013 RMK SC3ACC3AC2 PRESRR SLP218

CYXE;2016-06-11 17:00;CYXE 111700Z 12012KT 15SM FEW030 OVC110 13/06 A3009 RMK SC2ACC6 VIRGA PRESFR SLP205

CYXE;2016-06-11 18:00;CYXE 111800Z 10016G22KT 15SM FEW030 BKN100 BKN250 14/07 A3004 RMK SC1ACC4CI2 SLP186 DENSITY ALT 1800FT

CYXE;2016-06-11 19:00;CYXE 111900Z 12016G22KT 15SM FEW040 SCT120 BKN250 16/06 A3005 RMK SC1ACC3CI3 SLP190 DENSITY ALT 2000FT

CYXE;2016-06-11 20:00;CYXE 112000Z 12013G20KT 15SM BKN120 BKN250 18/07 A3004 RMK AC5CI2 SLP185 DENSITY ALT 2200FT

CYXE;2016-06-11 21:00;CYXE 112100Z 16014G22KT 15SM FEW120 BKN250 19/08 A3001 RMK AC2CI3 SLP174 DENSITY ALT 2400FT

CYXE;2016-06-11 22:00;CYXE 112200Z 12012G19KT 15SM SCT130 BKN280 20/08 A2998 RMK AC4CI2 SLP165 DENSITY ALT 2500FT

CYXE;2016-06-11 23:00;CYXE 112300Z 12013KT 15SM SCT050 BKN090 BKN280 20/08 A2997 RMK SC3AC3CI1 SLP162 DENSITY ALT 2500FT

CYXE;2016-06-12 00:00;CYXE 120000Z 14011G22KT 15SM BKN044 BKN280 19/10 A2996 RMK SC5CI2 PRESFR SLP158 DENSITY ALT 2400FT

CYXE;2016-06-12 00:27;CYXE 120027Z 16007KT 12SM -SHRA OVC047 19/10 A2999 RMK SC8 PRESRR SLP167 DENSITY ALT 2300FT

CYXE;2016-06-12 01:00;CYXE 120100Z 13007KT 120V210 10SM -SHRA BKN047 OVC070 15/14 A2999 RMK SC7AC1 CVCTV CLD EMBD PRESFR SLP167 DENSITY ALT 2000FT

CYXE;2016-06-12 02:00;CYXE 120200Z 32002KT 15SM -SHRA BKN048 OVC080 15/15 A2998 RMK SC6AC2 CVCTV CLD EMBD SLP166 DENSITY ALT 1900FT

CYXE;2016-06-12 03:00;CYXE 120300Z 09006KT 15SM -SHRA BKN048 OVC080 15/15 A2997 RMK SC5AC3 CVCTV CLD EMBD SLP161 DENSITY ALT 1900FT

CYXE;2016-06-12 03:24;CYXE 120324Z 06002KT 15SM BKN048 OVC080 15/15 A2997 RMK SC5AC3 SLP160 DENSITY ALT 1900FT

CYXE;2016-06-12 04:00;CYXE 120400Z 07005KT 15SM OVC045 15/15 A2996 RMK SC8 SLP158 DENSITY ALT 2000FT

CYXE;2016-06-12 05:00;CYXE 120500Z 00000KT 15SM OVC050 15/15 A2995 RMK SC8 PRESFR SLP152 DENSITY ALT 2000FT

CYXE;2016-06-12 06:00;CYXE 120600Z 16005KT 15SM -RA BKN042 OVC070 15/14 A2995 RMK SC5AC3 SLP154 DENSITY ALT 2000FT

CYXE;2016-06-12 07:00;CYXE 120700Z 15007KT 15SM SCT042 OVC080 15/15 A2994 RMK SC4AC4 SLP147 DENSITY ALT 1900FT

CYXE;2016-06-12 08:00;CYXE 120800Z 15011KT 15SM -RA SCT040 OVC090 15/15 A2991 RMK SC3AC5 PRESFR SLP137 DENSITY ALT 2000FT

CYXE;2016-06-12 08:29;CYXE 120829Z 19006KT 15SM FEW005 OVC090 15/15 A2992 RMK SF2AC6 SLP140 DENSITY ALT 2000FT

CYXE;2016-06-12 09:00;CYXE 120900Z 19004KT 15SM SCT010 OVC100 15/15 A2992 RMK SF4AC4 PRESRR SLP139 DENSITY ALT 2000FT

CYXE;2016-06-12 10:00;CYXE 121000Z 13010KT 15SM SCT010 OVC100 15/15 A2989 RMK ST4AC4 PRESFR SLP130 DENSITY ALT 2000FT

CYXE;2016-06-12 11:00;CYXE 121100Z 18007KT 10SM SCT010 BKN120 14/14 A2991 RMK SF3AC4 BR PRESRR SLP136 DENSITY ALT 1900FT

CYXE;2016-06-12 12:00;CYXE 121200Z 18007KT 15SM FEW010 BKN140 14/14 A2991 RMK SF1AC5 SLP135 DENSITY ALT 1900FT

CYXE;2016-06-12 13:00;CYXE 121300Z 20010KT 15SM FEW150 15/14 A2991 RMK AC2 SLP137 DENSITY ALT 2000FT

CYXE;2016-06-12 14:00;CYXE 121400Z 22014KT 15SM FEW150 15/08 A2990 RMK AC1 SLP136 DENSITY ALT 2000FT

CYXE;2016-06-12 15:00;CYXE 121500Z 20009KT 170V230 15SM FEW150 17/10 A2989 RMK AC1 SLP132 DENSITY ALT 2200FT

CYXE;2016-06-12 16:00;CYXE 121600Z 21012KT 15SM SCT300 18/09 A2989 RMK CI4 SLP131 DENSITY ALT 2300FT

CYXE;2016-06-12 17:00;CYXE 121700Z 23016G22KT 15SM FEW030 FEW300 19/09 A2988 RMK CF1CI1 SLP128 DENSITY ALT 2400FT

CYXE;2016-06-12 18:00;CYXE 121800Z 23017G22KT 15SM FEW030 FEW300 20/07 A2987 RMK CF1CI1 SLP124 DENSITY ALT 2600FT

CYXE;2016-06-12 19:00;CYXE 121900Z 22015G24KT 15SM FEW050 21/08 A2987 RMK CU1 SLP122 DENSITY ALT 2700FT

CYXE;2016-06-12 20:00;CYXE 122000Z 24015G23KT 15SM FEW060 20/06 A2987 RMK CU2 SLP121 DENSITY ALT 2700FT

CYXE;2016-06-12 21:00;CYXE 122100Z 27015G24KT 220V280 15SM FEW060 22/03 A2985 RMK CU1 SLP115 DENSITY ALT 2800FT

CYXE;2016-06-12 22:00;CYXE 122200Z 26018G24KT 15SM FEW080 23/03 A2986 RMK CU1 SLP117 DENSITY ALT 2900FT

CYXE;2016-06-12 23:00;CYXE 122300Z 26018G24KT 15SM SCT080 23/03 A2986 RMK CU3 SLP116 DENSITY ALT 2900FT

CYXE;2016-06-13 00:00;CYXE 130000Z 24018G25KT 15SM SCT080 23/03 A2985 RMK CU3 SLP115 DENSITY ALT 3000FT

CYXE;2016-06-13 01:00;CYXE 130100Z 26020G25KT 15SM FEW072 22/04 A2985 RMK CU1 SLP115 DENSITY ALT 2900FT

CYXE;2016-06-13 02:00;CYXE 130200Z 28013G19KT 15SM FEW064 21/05 A2986 RMK CU1 SLP117 DENSITY ALT 2700FT

CYXE;2016-06-13 03:00;CYXE 130300Z 26008KT 15SM FEW080 17/07 A2987 RMK AC1 SLP123 DENSITY ALT 2300FT

CYXE;2016-06-13 04:00;CYXE 130400Z 23007KT 15SM FEW250 14/07 A2988 RMK CI1 SLP129 DENSITY ALT 1900FT

CYXE;2016-06-13 05:00;CYXE 130500Z 24009KT 15SM FEW250 13/08 A2989 RMK CI1 SLP132 DENSITY ALT 1800FT

CYXE;2016-06-13 06:00;CYXE 130600Z 23007KT 15SM SKC 11/07 A2989 RMK SLP132

CYXE;2016-06-13 07:00;CYXE 130700Z 20004KT 15SM SKC 11/07 A2989 RMK SLP131

CYXE;2016-06-13 08:00;CYXE 130800Z 20005KT 15SM SKC 11/07 A2989 RMK SLP131

CYXE;2016-06-13 09:00;CYXE 130900Z 17008KT 15SM FEW100 09/07 A2987 RMK AC1 SLP126

CYXE;2016-06-13 10:00;CYXE 131000Z 21004KT 15SM FEW100 10/07 A2987 RMK AC1 SLP124

CYXE;2016-06-13 11:00;CYXE 131100Z 20007KT 15SM FEW100 10/06 A2987 RMK AC1 SLP123

CYXE;2016-06-13 12:00;CYXE 131200Z 20009KT 15SM FEW100 12/07 A2987 RMK AC1 SLP122

CYXE;2016-06-13 13:00;CYXE 131300Z 20010KT 15SM FEW100 13/07 A2987 RMK AC1 SLP121 DENSITY ALT 1800FT

CYXE;2016-06-13 14:00;CYXE 131400Z 20012KT 15SM FEW100 15/08 A2986 RMK AC1 SLP118 DENSITY ALT 2100FT

CYXE;2016-06-13 15:00;CYXE 131500Z 23010KT 15SM FEW250 17/09 A2985 RMK CI1 SLP116 DENSITY ALT 2300FT

CYXE;2016-06-13 16:00;CYXE 131600Z 23011KT 15SM FEW250 19/09 A2985 RMK CI2 SLP116 DENSITY ALT 2600FT

CYXE;2016-06-13 17:00;CYXE 131700Z 22012G18KT 15SM BKN250 22/08 A2984 RMK CI5 SLP112 DENSITY ALT 2800FT

CYXE;2016-06-13 18:00;CYXE 131800Z 24009G18KT 15SM BKN280 22/09 A2983 RMK CI5 SLP110 DENSITY ALT 2900FT

CYXE;2016-06-13 19:00;CYXE 131900Z 23010KT 200V260 15SM FEW048 BKN280 23/09 A2982 RMK CU1CI4 SLP103 DENSITY ALT 3100FT

CYXE;2016-06-13 20:00;CYXE 132000Z 23011KT 200V270 15SM FEW068 FEW280 24/07 A2980 RMK CU1CI1 SLP098 DENSITY ALT 3200FT

CYXE;2016-06-13 21:00;CYXE 132100Z 27007KT 190V290 15SM FEW070 FEW300 25/06 A2979 RMK CU1CI1 SLP094 DENSITY ALT 3300FT

CYXE;2016-06-13 22:00;CYXE 132200Z 27004KT 200V290 15SM SCT070 SCT300 25/07 A2977 RMK CU3CI1 SLP089 DENSITY ALT 3300FT

CYXE;2016-06-13 23:00;CYXE 132300Z 31003KT 210V340 15SM SCT080 SCT300 25/08 A2976 RMK CU3CI1 SLP083 DENSITY ALT 3300FT

CYXE;2016-06-14 00:00;CYXE 140000Z 26003KT 15SM SCT080 SCT300 24/06 A2974 RMK CU3CI1 SLP079 DENSITY ALT 3200FT

CYXE;2016-06-14 01:00;CYXE 140100Z VRB02KT 15SM FEW080 SCT300 25/06 A2973 RMK CU2CI1 SLP073 DENSITY ALT 3300FT

CYXE;2016-06-14 02:00;CYXE 140200Z 22006KT 15SM FEW080 SCT300 23/06 A2973 RMK AC1CI3 SLP073 DENSITY ALT 3100FT

CYXE;2016-06-14 03:00;CYXE 140300Z 22003KT 15SM FEW080 FEW300 22/08 A2973 RMK AC1CI1 SLP071 DENSITY ALT 3000FT

CYXE;2016-06-14 04:00;CYXE 140400Z 16006KT 15SM FEW300 18/07 A2973 RMK CI1 SLP074 DENSITY ALT 2600FT

CYXE;2016-06-14 05:00;CYXE 140500Z 14004KT 15SM FEW300 17/07 A2972 RMK CI2 SLP070 DENSITY ALT 2400FT

CYXE;2016-06-14 06:00;CYXE 140600Z 16007KT 15SM FEW090 FEW300 14/07 A2972 RMK AC1CI1 SLP070 DENSITY ALT 2100FT

CYXE;2016-06-14 07:00;CYXE 140700Z 17005KT 15SM SKC 14/06 A2971 RMK SLP065 DENSITY ALT 2100FT

CYXE;2016-06-14 08:00;CYXE 140800Z VRB02KT 15SM SKC 13/06 A2970 RMK SLP062 DENSITY ALT 2000FT

CYXE;2016-06-14 09:00;CYXE 140900Z 27004KT 260V360 15SM FEW080 SCT300 11/06 A2969 RMK AC1CI2 SLP062 DENSITY ALT 1700FT

CYXE;2016-06-14 10:00;CYXE 141000Z 12002KT 15SM FEW090 FEW300 09/09 A2969 RMK AC1CI1 SLP059

CYXE;2016-06-14 11:00;CYXE 141100Z 09003KT 15SM FEW090 SCT300 10/06 A2969 RMK AC1CI2 SLP060

CYXE;2016-06-14 12:00;CYXE 141200Z 11004KT 15SM FEW100 SCT300 13/10 A2969 RMK AC1CI3 SLP061 DENSITY ALT 2100FT

CYXE;2016-06-14 13:00;CYXE 141300Z 21003KT 15SM FEW100 SCT300 16/09 A2970 RMK AC1CI3 SLP060 DENSITY ALT 2400FT

CYXE;2016-06-14 14:00;CYXE 141400Z 14003KT 110V250 15SM FEW100 BKN300 19/09 A2970 RMK AC1CI5 SLP059 DENSITY ALT 2700FT

CYXE;2016-06-14 15:00;CYXE 141500Z 14003KT 120V190 15SM FEW100 OVC300 21/09 A2969 RMK AC1CI7 SLP057 DENSITY ALT 2900FT

CYXE;2016-06-14 16:00;CYXE 141600Z 08003KT 050V120 15SM FEW100 SCT300 23/10 A2968 RMK AC1CI3 SLP052 DENSITY ALT 3200FT

CYXE;2016-06-14 17:00;CYXE 141700Z 13009KT 15SM FEW100 BKN300 25/10 A2968 RMK AC1CI5 SLP052 DENSITY ALT 3400FT

CYXE;2016-06-14 18:00;CYXE 141800Z 13014G20KT 15SM FEW100 BKN300 26/11 A2967 RMK AC1CI5 SLP049 DENSITY ALT 3600FT

CYXE;2016-06-14 19:00;CYXE 141900Z 15015G20KT 15SM FEW072 FEW120 SCT300 28/10 A2964 RMK CU1AC1CI1 SLP041 DENSITY ALT 3800FT

CYXE;2016-06-14 20:00;CYXE 142000Z 14016G23KT 090V160 15SM FEW072 SCT300 28/10 A2963 RMK CU2CI1 SLP036 DENSITY ALT 3800FT

CYXE;2016-06-14 21:00;CYXE 142100Z 15017G26KT 15SM SCT072 28/10 A2961 RMK CU4 SLP030 DENSITY ALT 3900FT

CYXE;2016-06-14 22:00;CYXE 142200Z 15020G26KT 15SM SCT080 28/10 A2958 RMK CU4 CB TOPS DIST SW-W SLP021 DENSITY ALT 3900FT

CYXE;2016-06-14 23:00;CYXE 142300Z 15017G26KT 15SM FEW070 FEW120 BKN230 27/10 A2959 RMK CU1ACC1CI5 CB TOPS DIST SW-NW SLP027 DENSITY ALT 3700FT

CYXE;2016-06-15 00:00;CYXE 150000Z 14016G22KT 15SM FEW070 FEW120 BKN230 27/11 A2959 RMK ACC1AC1CI5 CB DIST SW-NW SLP022 DENSITY ALT 3700FT

CYXE;2016-06-15 01:00;CYXE 150100Z 14016KT 15SM FEW050CB BKN160 BKN230 25/12 A2957 RMK CB1AS4CI2 CB DIST S-W MOVG NNE SLP017 DENSITY ALT 3600FT

CYXE;2016-06-15 02:00;CYXE 150200Z 13012G20KT 15SM VCSH SCT060CB BKN100 BKN210 25/12 A2958 RMK CB3ACC2CI2 CB S-W MOVG NNE LTNG DIST SW-W SLP017 DENSITY ALT 3500FT

CYXE;2016-06-15 03:00;CYXE 150300Z 13014G20KT 15SM VCSH SCT060CB BKN160 BKN250 24/13 A2957 RMK CB3AS2CI2 CB + LTNG S-NW MOVG NNE SLP014 DENSITY ALT 3400FT

CYXE;2016-06-15 03:32;CYXE 150332Z 30019G27KT 15SM TS VCSH BKN050CB OVC140 18/12 A2960 RMK CB5AC3 CB + LTNG SE-NW MOVG NNE SLP027 DENSITY ALT 2700FT

CYXE;2016-06-15 03:49;CYXE 150349Z 26013G27KT 10SM -TSRA BKN040CB OVC140 17/12 A2965 RMK CB5ACC3 LTNG SE-NW CB MOVG NNE PRESRR SLP045 DENSITY ALT 2500FT

CYXE;2016-06-15 04:00;CYXE 150400Z 31017KT 8SM TSRA BKN040CB OVC140 16/13 A2962 RMK CB6ACC2 LTNG SE-NW CB MOVG NNE WSHFT 0350 PRESFR SLP035 DENSITY ALT 2400FT

CYXE;2016-06-15 05:00;CYXE 150500Z 30008KT 8SM TSRA FEW020 BKN040CB OVC090 14/14 A2963 RMK SC1CB6ACC1 LTNG N-E CB MOVG NE SLP036 DENSITY ALT 2200FT

CYXE;2016-06-15 05:16;CYXE 150516Z 33008KT 15SM -SHRA FEW010 FEW040CB OVC090 14/14 A2962 RMK SC1CB1ACC6 LTNG DIST N-E CB MOVG NE SLP034 DENSITY ALT 2200FT

CYXE;2016-06-15 05:40;CYXE 150540Z 01006KT 15SM FEW010 FEW040CB BKN090 14/14 A2961 RMK SC1CB1AC5 LTNG DIST N-NE SLP031 DENSITY ALT 2200FT

CYXE;2016-06-15 06:00;CYXE 150600Z 04003KT 350V060 15SM FEW010 SCT090 BKN150 14/14 A2962 RMK SC1AC2AC3 PRESRR SLP034 DENSITY ALT 2200FT

CYXE;2016-06-15 06:50;CYXE 150650Z 20008KT 15SM SCT006 OVC090 14/14 A2967 RMK ST3AC5 PRESRR SLP052 DENSITY ALT 2100FT

CYXE;2016-06-15 07:00;CYXE 150700Z 21011G16KT 15SM BKN006 OVC090 14/14 A2968 RMK ST6AC2 SLP052 DENSITY ALT 2200FT

CYXE;2016-06-15 07:26;CYXE 150726Z 19009KT 15SM SCT006 BKN047 BKN090 14/14 A2968 RMK ST3SC2AC2 SLP054 DENSITY ALT 2200FT

CYXE;2016-06-15 08:00;CYXE 150800Z 19010KT 15SM FEW006 SCT060 14/14 A2969 RMK ST1SC3 SLP055 DENSITY ALT 2100FT

CYXE;2016-06-15 09:00;CYXE 150900Z 23010KT 15SM FEW060 12/10 A2970 RMK SC1 SLP061 DENSITY ALT 1900FT

CYXE;2016-06-15 10:00;CYXE 151000Z 22012G17KT 15SM SCT210 10/06 A2972 RMK CI3 SLP069

CYXE;2016-06-15 11:00;CYXE 151100Z 23013KT 15SM BKN220 09/05 A2973 RMK CI5 SLP075

CYXE;2016-06-15 12:00;CYXE 151200Z 20011KT 15SM BKN250 10/05 A2976 RMK CI5 SLP085

CYXE;2016-06-15 13:00;CYXE 151300Z 21013KT 15SM BKN250 10/05 A2979 RMK CI5 SLP095

CYXE;2016-06-15 14:00;CYXE 151400Z 22017KT 15SM SCT300 12/04 A2981 RMK CI3 SLP100 DENSITY ALT 1700FT

CYXE;2016-06-15 15:00;CYXE 151500Z 23015KT 15SM SCT300 13/04 A2982 RMK CI3 SLP105 DENSITY ALT 1900FT

CYXE;2016-06-15 16:00;CYXE 151600Z 19012G20KT 15SM SCT300 16/06 A2983 RMK CI4 SLP110 DENSITY ALT 2200FT

CYXE;2016-06-15 17:00;CYXE 151700Z 22016KT 15SM BKN300 16/05 A2984 RMK CI6 SLP115 DENSITY ALT 2200FT

CYXE;2016-06-15 18:00;CYXE 151800Z 23015KT 15SM FEW160 BKN300 17/04 A2986 RMK AC2CI5 SLP121 DENSITY ALT 2200FT

CYXE;2016-06-15 19:00;CYXE 151900Z 22014G22KT 15SM FEW160 BKN300 18/04 A2986 RMK AC2CI5 SLP121 DENSITY ALT 2400FT

CYXE;2016-06-15 20:00;CYXE 152000Z 22016G25KT 15SM SCT130 BKN300 19/03 A2987 RMK AC4CI3 SLP122 DENSITY ALT 2500FT

CYXE;2016-06-15 21:00;CYXE 152100Z 23014KT 160V240 15SM FEW140 BKN300 21/03 A2985 RMK AC1CI6 SLP116 DENSITY ALT 2700FT

CYXE;2016-06-15 22:00;CYXE 152200Z 22015G21KT 15SM BKN300 21/01 A2984 RMK CI7 SLP115 DENSITY ALT 2800FT

CYXE;2016-06-15 23:00;CYXE 152300Z 22012G21KT 15SM BKN300 22/02 A2983 RMK CI7 SLP112 DENSITY ALT 2900FT

CYXE;2016-06-16 00:00;CYXE 160000Z 21012G19KT 15SM BKN300 21/01 A2983 RMK CI6 SLP110 DENSITY ALT 2700FT

CYXE;2016-06-16 01:00;CYXE 160100Z 18012G20KT 15SM SCT300 20/05 A2982 RMK CI3 SLP109 DENSITY ALT 2700FT

CYXE;2016-06-16 02:00;CYXE 160200Z 19012G18KT 15SM SCT300 20/04 A2983 RMK CI3 SLP112 DENSITY ALT 2600FT

CYXE;2016-06-16 03:00;CYXE 160300Z 17008KT 15SM FEW140 BKN300 17/05 A2984 RMK AC2CI5 SLP115 DENSITY ALT 2400FT

CYXE;2016-06-16 04:00;CYXE 160400Z 16012G18KT 15SM FEW120 BKN200 17/05 A2985 RMK AC1CI6 SLP116 DENSITY ALT 2300FT

CYXE;2016-06-16 05:00;CYXE 160500Z 17019G25KT 15SM BKN160 16/07 A2986 RMK AC7 SLP121 DENSITY ALT 2200FT

CYXE;2016-06-16 06:00;CYXE 160600Z 17014G20KT 15SM FEW160 BKN280 15/06 A2986 RMK AC2CI3 SLP120 DENSITY ALT 2000FT

CYXE;2016-06-16 07:00;CYXE 160700Z 17010G16KT 15SM BKN120 OVC280 15/06 A2985 RMK AC5CI3 SLP116 DENSITY ALT 2000FT

CYXE;2016-06-16 08:00;CYXE 160800Z 16006KT 15SM BKN100 14/06 A2983 RMK AC7 SLP111 DENSITY ALT 2000FT

CYXE;2016-06-16 09:00;CYXE 160900Z 14004KT 15SM BKN092 14/07 A2983 RMK AC7 SLP108 DENSITY ALT 1900FT

CYXE;2016-06-16 10:00;CYXE 161000Z 12004KT 15SM BKN082 14/07 A2981 RMK AC7 SLP100 DENSITY ALT 2000FT

CYXE;2016-06-16 10:37;CYXE 161037Z 13004KT 15SM -RA BKN078 13/09 A2980 RMK AC7 SLP098 DENSITY ALT 1900FT

CYXE;2016-06-16 11:00;CYXE 161100Z 00000KT 15SM -RA BKN074 12/10 A2979 RMK AC7 SLP095 DENSITY ALT 1800FT

CYXE;2016-06-16 12:00;CYXE 161200Z 31004KT 250V310 15SM -RA OVC060 12/11 A2980 RMK SC8 SLP099 DENSITY ALT 1700FT

CYXE;2016-06-16 13:00;CYXE 161300Z 17003KT 100V180 15SM -RA OVC047 12/10 A2984 RMK SC8 PRESRR SLP113 DENSITY ALT 1700FT

CYXE;2016-06-16 14:00;CYXE 161400Z 09009KT 10SM -RA SCT025 OVC047 10/09 A2979 RMK SC3SC5 BR SLP098

CYXE;2016-06-16 15:00;CYXE 161500Z 07006KT 15SM BKN019 OVC047 09/08 A2977 RMK SC7SC1 SLP093

CYXE;2016-06-16 16:00;CYXE 161600Z 07010G15KT 15SM BKN017 OVC090 10/10 A2973 RMK SC5AC3 SLP079 DENSITY ALT 1700FT

CYXE;2016-06-16 16:26;CYXE 161626Z 08010KT 15SM -RA FEW009 BKN016 OVC090 11/11 A2973 RMK SF2SC4AC2 SLP080 DENSITY ALT 1700FT

CYXE;2016-06-16 16:51;CYXE 161651Z 36003KT 340V070 15SM -RA BKN008 OVC016 11/11 A2971 RMK SF5SC3 PRESRR SLP070 DENSITY ALT 1800FT

CYXE;2016-06-16 17:00;CYXE 161700Z 07009KT 350V080 15SM -RA BKN007 OVC016 12/12 A2970 RMK SF7SC1 SLP067 DENSITY ALT 1900FT

CYXE;2016-06-16 17:32;CYXE 161732Z 08008KT 15SM BKN006 OVC016 13/13 A2969 RMK SF7SC1 SLP064 DENSITY ALT 2000FT

CYXE;2016-06-16 18:00;CYXE 161800Z 10004KT 15SM BKN008 OVC040 14/13 A2968 RMK SF7SC1 SLP061 DENSITY ALT 2100FT

CYXE;2016-06-16 18:33;CYXE 161833Z 20004KT 130V220 15SM -SHRA OVC008 14/14 A2968 RMK SF8 CVCTV CLD EMBD SLP061 DENSITY ALT 2200FT

CYXE;2016-06-16 19:00;CYXE 161900Z 21004KT 4SM -SHRA BR OVC008 14/14 A2969 RMK SF8 CVCTV CLD EMBD SLP064 DENSITY ALT 2100FT

CYXE;2016-06-16 19:25;CYXE 161925Z 19005KT 15SM -SHRA BKN005 OVC040 15/15 A2969 RMK SF7SC1 SLP063 DENSITY ALT 2200FT

CYXE;2016-06-16 19:47;CYXE 161947Z 20005KT 170V240 15SM BKN007 OVC040 15/15 A2968 RMK SF7SC1 SLP060 DENSITY ALT 2300FT

CYXE;2016-06-16 20:00;CYXE 162000Z 17003KT 130V240 15SM BKN008 OVC038 16/15 A2968 RMK SF6SC2 SLP060 DENSITY ALT 2400FT

CYXE;2016-06-16 20:37;CYXE 162037Z 17006KT 15SM SCT009 BKN070 17/16 A2967 RMK SF4AC2 SLP056 DENSITY ALT 2500FT

CYXE;2016-06-16 21:00;CYXE 162100Z 16010G17KT 15SM SCT010 BKN070 19/17 A2966 RMK SC4AC2 SLP051 DENSITY ALT 2800FT

CYXE;2016-06-16 22:00;CYXE 162200Z 20013KT 15SM BKN025 20/14 A2965 RMK CU6 FEW TCU SLP047 DENSITY ALT 2900FT

CYXE;2016-06-16 23:00;CYXE 162300Z 24029G38KT 15SM SCT040 20/10 A2969 RMK CU4 PRESRR SLP063 DENSITY ALT 2800FT

CYXE;2016-06-17 00:00;CYXE 170000Z 25023G31KT 15SM FEW040 18/07 A2974 RMK SC2 SLP080 DENSITY ALT 2500FT

CYXE;2016-06-17 01:00;CYXE 170100Z 25020G31KT 15SM FEW040 16/07 A2977 RMK SC1 SLP093 DENSITY ALT 2200FT

CYXE;2016-06-17 02:00;CYXE 170200Z 26014G19KT 15SM FEW040 14/06 A2980 RMK SC1 SLP104 DENSITY ALT 2100FT

CYXE;2016-06-17 03:00;CYXE 170300Z 27010G16KT 15SM FEW040 12/06 A2982 RMK SC1 SLP113 DENSITY ALT 1800FT

CYXE;2016-06-17 04:00;CYXE 170400Z 23007KT 15SM FEW090 09/06 A2986 RMK AC1 SLP128

CYXE;2016-06-17 05:00;CYXE 170500Z 23006KT 15SM FEW090 08/06 A2986 RMK AC1 SLP128

CYXE;2016-06-17 06:00;CYXE 170600Z 17007KT 15SM FEW090 07/05 A2987 RMK AC1 SLP130

CYXE;2016-06-17 07:00;CYXE 170700Z 17006KT 15SM FEW090 07/06 A2985 RMK AC1 SLP123

CYXE;2016-06-17 08:00;CYXE 170800Z 18006KT 15SM FEW090 06/06 A2985 RMK AC1 SLP121

CYXE;2016-06-17 09:00;CYXE 170900Z 19010KT 15SM FEW090 08/06 A2984 RMK AC1 SLP117

CYXE;2016-06-17 10:00;CYXE 171000Z 23013KT 15SM FEW090 09/06 A2985 RMK AC1 SLP119

CYXE;2016-06-17 11:00;CYXE 171100Z 24010KT 15SM SKC 08/05 A2987 RMK SLP126

CYXE;2016-06-17 12:00;CYXE 171200Z 23011KT 15SM SKC 09/05 A2989 RMK SLP134

CYXE;2016-06-17 13:00;CYXE 171300Z 23013G19KT 15SM SKC 10/05 A2991 RMK SLP140

CYXE;2016-06-17 14:00;CYXE 171400Z 24014KT 15SM SKC 12/06 A2991 RMK SLP142

CYXE;2016-06-17 15:00;CYXE 171500Z 23013KT 15SM SKC 15/07 A2993 RMK SLP146 DENSITY ALT 1900FT

CYXE;2016-06-17 16:00;CYXE 171600Z 25014G19KT 15SM SKC 17/08 A2994 RMK SLP151 DENSITY ALT 2200FT

CYXE;2016-06-17 17:00;CYXE 171700Z 24015KT 15SM FEW044 18/07 A2994 RMK CU1 CU TR SLP152 DENSITY ALT 2300FT

CYXE;2016-06-17 18:00;CYXE 171800Z 23019G27KT 15SM FEW055 20/06 A2995 RMK CU1 SLP154 DENSITY ALT 2500FT

CYXE;2016-06-17 19:00;CYXE 171900Z 26023G32KT 15SM FEW060 21/05 A2995 RMK CU2 SLP156 DENSITY ALT 2600FT

CYXE;2016-06-17 20:00;CYXE 172000Z 27022G33KT 15SM FEW062 21/06 A2996 RMK CU2 SLP158 DENSITY ALT 2600FT

CYXE;2016-06-17 21:00;CYXE 172100Z 27019G32KT 15SM FEW063 SCT230 21/06 A2997 RMK CU2CI1 SLP160 DENSITY ALT 2600FT

CYXE;2016-06-17 22:00;CYXE 172200Z 28020G29KT 15SM SCT063 SCT230 21/06 A2999 RMK CU3CI1 SLP166 DENSITY ALT 2600FT

CYXE;2016-06-17 23:00;CYXE 172300Z 28018G26KT 15SM SCT065 BKN250 21/06 A3000 RMK CU3CI2 SLP170 DENSITY ALT 2600FT

CYXE;2016-06-18 00:00;CYXE 180000Z 29017G26KT 15SM SCT065 BKN250 20/05 A3000 RMK CU3CI2 SLP172 DENSITY ALT 2500FT

CYXE;2016-06-18 01:00;CYXE 180100Z 28014G22KT 15SM FEW065 BKN250 20/05 A3001 RMK CU2CI3 SLP174 DENSITY ALT 2400FT

CYXE;2016-06-18 02:00;CYXE 180200Z 28013G19KT 15SM FEW065 BKN250 19/05 A3002 RMK CU2CI4 SLP176 DENSITY ALT 2300FT

CYXE;2016-06-18 03:00;CYXE 180300Z 27008KT 15SM BKN250 17/07 A3004 RMK CI5 SLP183 DENSITY ALT 2100FT

CYXE;2016-06-18 04:00;CYXE 180400Z 25006KT 15SM SCT250 13/07 A3007 RMK CI4 SLP194

CYXE;2016-06-18 05:00;CYXE 180500Z 23008KT 15SM FEW250 11/06 A3008 RMK CI2 SLP196

CYXE;2016-06-18 06:00;CYXE 180600Z 24008KT 15SM FEW250 10/07 A3008 RMK CI1 SLP196

CYXE;2016-06-18 07:00;CYXE 180700Z 26005KT 15SM FEW250 09/07 A3007 RMK CI2 SLP193

CYXE;2016-06-18 08:00;CYXE 180800Z 27005KT 15SM SCT250 09/06 A3008 RMK CI3 WND ESTD SLP198

CYXE;2016-06-18 09:00;CYXE 180900Z 22005KT 15SM SCT250 08/06 A3009 RMK CI3 SLP199

CYXE;2016-06-18 10:00;CYXE 181000Z 21004KT 15SM FEW250 09/06 A3009 RMK CI2 SLP199

CYXE;2016-06-18 11:00;CYXE 181100Z 18005KT 15SM FEW100 SCT250 06/06 A3009 RMK AC1CI3 SLP200

CYXE;2016-06-18 12:00;CYXE 181200Z 16002KT 15SM FEW100 SCT250 09/08 A3009 RMK AC1CI3 SLP199

CYXE;2016-06-18 13:00;CYXE 181300Z 19007KT 15SM FEW270 12/08 A3009 RMK CI2 SLP198

CYXE;2016-06-18 14:00;CYXE 181400Z 21008KT 15SM FEW270 14/07 A3008 RMK CI2 SLP195 DENSITY ALT 1700FT

CYXE;2016-06-18 15:00;CYXE 181500Z 22008KT 15SM FEW270 17/07 A3008 RMK CI2 SLP193 DENSITY ALT 2000FT

CYXE;2016-06-18 16:00;CYXE 181600Z 24010KT 15SM FEW270 20/05 A3006 RMK CI2 SLP190 DENSITY ALT 2400FT

CYXE;2016-06-18 17:00;CYXE 181700Z 23012G17KT 15SM SCT270 22/05 A3005 RMK CI4 SLP185 DENSITY ALT 2600FT

CYXE;2016-06-18 18:00;CYXE 181800Z 24013G19KT 15SM FEW080 BKN270 23/04 A3004 RMK AC1CI4 SLP181 DENSITY ALT 2800FT

CYXE;2016-06-18 19:00;CYXE 181900Z 23012KT 15SM FEW080 BKN270 24/04 A3002 RMK AC2CI4 SLP174 DENSITY ALT 3000FT

CYXE;2016-06-18 20:00;CYXE 182000Z 24013KT 15SM SCT100 BKN270 25/04 A3000 RMK AC4CI3 SLP166 DENSITY ALT 3000FT

CYXE;2016-06-18 21:00;CYXE 182100Z 23013KT 15SM SCT100 BKN270 25/04 A2997 RMK AC4CI3 SLP158 DENSITY ALT 3000FT

CYXE;2016-06-18 22:00;CYXE 182200Z 23010G16KT 15SM SCT120 BKN270 24/05 A2995 RMK AC4CI3 SLP151 DENSITY ALT 3000FT

CYXE;2016-06-18 23:00;CYXE 182300Z 21007KT 15SM BKN120 BKN270 24/05 A2994 RMK AC5CI2 SLP149 DENSITY ALT 3000FT

CYXE;2016-06-19 00:00;CYXE 190000Z 20010KT 15SM BKN120 OVC270 23/04 A2993 RMK AC7CI1 SLP144 DENSITY ALT 2900FT

CYXE;2016-06-19 01:00;CYXE 190100Z 18008KT 15SM BKN120 OVC270 22/07 A2991 RMK AC7CI1 SLP137 DENSITY ALT 2800FT

CYXE;2016-06-19 02:00;CYXE 190200Z 18005KT 15SM BKN120 OVC270 20/09 A2991 RMK AC7CI1 SLP136 DENSITY ALT 2600FT

CYXE;2016-06-19 02:50;CYXE 190250Z 20010KT 15SM -RA BKN120 19/10 A2991 RMK AC7 SLP138 DENSITY ALT 2500FT

CYXE;2016-06-19 03:00;CYXE 190300Z 19009KT 15SM -RA BKN120 19/11 A2991 RMK AC7 SLP134 DENSITY ALT 2400FT

CYXE;2016-06-19 03:31;CYXE 190331Z 20015KT 15SM BKN110 18/11 A2993 RMK AC7 PRESRR SLP143 DENSITY ALT 2300FT

CYXE;2016-06-19 03:48;CYXE 190348Z 20009G16KT 15SM -RA BKN093 18/10 A2991 RMK AC7 PRESFR SLP136 DENSITY ALT 2400FT

CYXE;2016-06-19 04:00;CYXE 190400Z 23009KT 15SM -RA OVC093 18/11 A2991 RMK AC8 SLP134 DENSITY ALT 2300FT

CYXE;2016-06-19 04:26;CYXE 190426Z 25006KT 15SM BKN093 BKN170 16/12 A2989 RMK AC5AC2 SLP128 DENSITY ALT 2100FT

CYXE;2016-06-19 05:00;CYXE 190500Z 27006KT 15SM BKN098 BKN170 15/13 A2990 RMK AC5AC2 SLP130 DENSITY ALT 2000FT

CYXE;2016-06-19 06:00;CYXE 190600Z 26003KT 15SM BKN093 16/12 A2988 RMK AC7 PRESFR SLP123 DENSITY ALT 2100FT

CYXE;2016-06-19 07:00;CYXE 190700Z 23006KT 15SM SCT075 BKN120 15/12 A2986 RMK AC3AC4 SLP118 DENSITY ALT 2000FT

CYXE;2016-06-19 08:00;CYXE 190800Z 21006KT 15SM FEW120 BKN240 12/11 A2985 RMK AC2CI3 SLP115 DENSITY ALT 1700FT

CYXE;2016-06-19 09:00;CYXE 190900Z 23003KT 15SM BKN120 14/13 A2983 RMK AC7 SLP108 DENSITY ALT 1900FT

CYXE;2016-06-19 10:00;CYXE 191000Z 26003KT 210V270 15SM BKN070 OVC120 14/13 A2983 RMK AC5AC3 SLP106 DENSITY ALT 2000FT

CYXE;2016-06-19 10:52;CYXE 191052Z 21003KT 15SM BKN070 14/13 A2982 RMK AC7 SLP103 DENSITY ALT 2000FT

CYXE;2016-06-19 11:00;CYXE 191100Z 21004KT 15SM -SHRA BKN070 14/13 A2982 RMK AC6 LTNG W SLP104 DENSITY ALT 2000FT

CYXE;2016-06-19 11:10;CYXE 191110Z 16007KT 110V190 15SM BKN070 13/13 A2980 RMK AC7 LTNG DIS W PRESFR SLP098 DENSITY ALT 1900FT

CYXE;2016-06-19 12:00;CYXE 191200Z 21006KT 15SM SCT070 BKN120 13/13 A2980 RMK AC3AC3 LTNG DIS N SLP097 DENSITY ALT 1900FT

CYXE;2016-06-19 13:00;CYXE 191300Z 25006KT 15SM BKN051 BKN120 15/14 A2979 RMK SC5AC2 SLP094 DENSITY ALT 2100FT

CYXE;2016-06-19 14:00;CYXE 191400Z 36008KT 15SM FEW008 SCT050 BKN120 15/12 A2977 RMK SF1SC3AC1 SLP088 DENSITY ALT 2100FT

CYXE;2016-06-19 15:00;CYXE 191500Z 03007KT 15SM SCT060 SCT120 17/11 A2976 RMK SC3AC1 SLP084 DENSITY ALT 2400FT

CYXE;2016-06-19 16:00;CYXE 191600Z 30010KT 15SM FEW024 BKN055 BKN080 17/11 A2976 RMK CU1SC4AC2 SLP085 DENSITY ALT 2400FT

CYXE;2016-06-19 16:42;CYXE 191642Z 31017KT 15SM -SHRA SCT060CB BKN080 15/11 A2977 RMK CB4AC3 LTNG S-SE SLP088 DENSITY ALT 2200FT

CYXE;2016-06-19 17:00;CYXE 191700Z 32016G23KT 10SM -SHRA BKN060CB OVC080 13/11 A2977 RMK CB5AC3 LTNG S-SE SLP092 DENSITY ALT 1900FT

CYXE;2016-06-19 18:00;CYXE 191800Z 30012KT 10SM -SHRA BKN040 OVC060 13/12 A2981 RMK SC5SC3 CVCTV CLD EMBD LTNG DIST E PRESRR SLP106 DENSITY ALT 1800FT

CYXE;2016-06-19 18:46;CYXE 191846Z 28015KT 15SM SCT060 BKN120 BKN300 14/14 A2982 RMK SC3AC3CI1 CB DIST W SLP109 DENSITY ALT 2000FT

CYXE;2016-06-19 19:00;CYXE 191900Z 27014G22KT 15SM FEW010 SCT050CB BKN300 16/14 A2982 RMK CF1CB3CI2 SLP109 DENSITY ALT 2200FT

CYXE;2016-06-19 19:21;CYXE 191921Z 28012G20KT 15SM -TSRA BKN040CB BKN120 BKN300 18/14 A2982 RMK CB5AC1CI1 LTNG W SLP108 DENSITY ALT 2400FT

CYXE;2016-06-19 19:46;CYXE 191946Z 28011G17KT 15SM VCSH FEW040CB SCT120 BKN300 13/09 A2983 RMK CB2AC2CI2 SLP114 DENSITY ALT 1900FT

CYXE;2016-06-19 20:00;CYXE 192000Z 28013KT 15SM FEW040CB SCT100 BKN300 16/13 A2984 RMK CB1AC3CI2 SLP116 DENSITY ALT 2200FT

CYXE;2016-06-19 21:00;CYXE 192100Z 32015G26KT 15SM SCT050 SCT100 20/07 A2986 RMK CU3AC1 SLP120 DENSITY ALT 2600FT

CYXE;2016-06-19 22:00;CYXE 192200Z 30017G26KT 15SM SCT050 BKN120 19/05 A2989 RMK SC3AC3 SLP131 DENSITY ALT 2500FT

CYXE;2016-06-19 22:33;CYXE 192233Z 31028G44KT 15SM -SHRA OVC081 15/08 A2993 RMK AC8 PRESRR SLP146 DENSITY ALT 2000FT

CYXE;2016-06-19 23:00;CYXE 192300Z 29017G28KT 15SM -SHRA OVC083 13/09 A2995 RMK AC8 PRESRR SLP156 DENSITY ALT 1700FT

CYXE;2016-06-19 23:12;CYXE 192312Z 25013G18KT 15SM BKN084 BKN160 14/10 A2995 RMK AC5AC2 SLP153 DENSITY ALT 1800FT

CYXE;2016-06-20 00:00;CYXE 200000Z 28012G17KT 15SM BKN130 BKN270 16/09 A2995 RMK AC5CI2 SLP153 DENSITY ALT 2000FT

CYXE;2016-06-20 01:00;CYXE 200100Z 29014KT 15SM SCT140 BKN270 16/10 A2998 RMK AC4CI3 SLP163 DENSITY ALT 2000FT

CYXE;2016-06-20 02:00;CYXE 200200Z 29011G17KT 15SM BKN130 BKN270 15/09 A3000 RMK AC5CI2 CB DIST SW SLP171 DENSITY ALT 1900FT

CYXE;2016-06-20 03:00;CYXE 200300Z 29008KT 15SM FEW130 SCT270 14/08 A3003 RMK AC2CI1 SLP178 DENSITY ALT 1700FT

CYXE;2016-06-20 04:00;CYXE 200400Z 25008KT 15SM FEW130 11/08 A3006 RMK AC1 SLP191

CYXE;2016-06-20 05:00;CYXE 200500Z 26008KT 15SM FEW130 10/09 A3008 RMK AC1 SLP200

CYXE;2016-06-20 06:00;CYXE 200600Z 26009KT 15SM SKC 10/08 A3009 RMK SLP204

CYXE;2016-06-20 07:00;CYXE 200700Z 26008KT 15SM SKC 09/08 A3010 RMK SLP206

CYXE;2016-06-20 08:00;CYXE 200800Z 26006KT 15SM SKC 08/07 A3011 RMK SLP210

CYXE;2016-06-20 09:00;CYXE 200900Z 27005KT 15SM SKC 07/06 A3012 RMK WND ESTD SLP213

CYXE;2016-06-20 10:00;CYXE 201000Z 26008KT 15SM SKC 07/07 A3013 RMK SLP217

CYXE;2016-06-20 11:00;CYXE 201100Z 28005KT 15SM SKC 06/06 A3015 RMK SLP227

CYXE;2016-06-20 12:00;CYXE 201200Z 33006KT 15SM SKC 08/07 A3016 RMK SLP229

CYXE;2016-06-20 13:00;CYXE 201300Z 30004KT 15SM SKC 11/08 A3018 RMK SLP233

CYXE;2016-06-20 14:00;CYXE 201400Z 30003KT 240V040 15SM SKC 13/08 A3019 RMK SLP235

CYXE;2016-06-20 15:00;CYXE 201500Z 00000KT 15SM SKC 15/06 A3020 RMK SLP240 DENSITY ALT 1700FT

CYXE;2016-06-20 16:00;CYXE 201600Z VRB03KT 15SM SKC 17/05 A3021 RMK SLP243 DENSITY ALT 1900FT

CYXE;2016-06-20 17:00;CYXE 201700Z VRB05KT 15SM SKC 18/04 A3019 RMK SLP237 DENSITY ALT 2100FT

CYXE;2016-06-20 18:00;CYXE 201800Z 22004KT 190V280 15SM FEW050 19/06 A3018 RMK CU1 CU TR SLP233 DENSITY ALT 2200FT

CYXE;2016-06-20 19:00;CYXE 201900Z 25005KT 200V310 15SM FEW060 21/06 A3017 RMK CU1 SLP228 DENSITY ALT 2400FT

CYXE;2016-06-20 20:00;CYXE 202000Z 28008G16KT 220V290 15SM SCT065 22/08 A3015 RMK CU3 SLP221 DENSITY ALT 2600FT

CYXE;2016-06-20 21:00;CYXE 202100Z 30012KT 15SM SCT070 BKN100 22/10 A3013 RMK CU3AC2 SLP214 DENSITY ALT 2600FT

CYXE;2016-06-20 22:00;CYXE 202200Z 30013KT 15SM BKN075 25/09 A3011 RMK CU5 SLP206 DENSITY ALT 2900FT

CYXE;2016-06-20 23:00;CYXE 202300Z 29009G16KT 15SM BKN076 23/09 A3010 RMK CU5 SLP205 DENSITY ALT 2600FT

CYXE;2016-06-21 00:00;CYXE 210000Z 30010G15KT 15SM FEW075 23/09 A3008 RMK CU2 SLP197 DENSITY ALT 2700FT

CYXE;2016-06-21 01:00;CYXE 210100Z 32007KT 15SM FEW075 FEW250 23/09 A3007 RMK CU1CI2 CU TR SLP191 DENSITY ALT 2800FT

CYXE;2016-06-21 02:00;CYXE 210200Z 34005KT 15SM FEW250 22/11 A3007 RMK CI1 SLP190 DENSITY ALT 2600FT

CYXE;2016-06-21 03:00;CYXE 210300Z 03005KT 15SM FEW250 19/11 A3006 RMK CI1 SLP189 DENSITY ALT 2300FT

CYXE;2016-06-21 04:00;CYXE 210400Z 04002KT 15SM SCT250 16/11 A3007 RMK CI4 SLP193 DENSITY ALT 2000FT

CYXE;2016-06-21 05:00;CYXE 210500Z 06004KT 15SM SCT250 16/10 A3008 RMK CI3 SLP194 DENSITY ALT 1900FT

CYXE;2016-06-21 06:00;CYXE 210600Z 09004KT 15SM FEW250 14/11 A3007 RMK CI2 SLP190 DENSITY ALT 1700FT

CYXE;2016-06-21 07:00;CYXE 210700Z 11004KT 15SM FEW250 13/11 A3006 RMK CI2 SLP187

CYXE;2016-06-21 08:00;CYXE 210800Z 09004KT 15SM FEW250 13/09 A3005 RMK CI2 SLP183

CYXE;2016-06-21 09:00;CYXE 210900Z 20004KT 140V270 15SM FEW250 12/08 A3005 RMK CI2 SLP184

CYXE;2016-06-21 10:00;CYXE 211000Z 09002KT 15SM SCT250 11/09 A3004 RMK CI3 SLP181

CYXE;2016-06-21 11:00;CYXE 211100Z 07004KT 15SM SCT250 10/09 A3004 RMK CI3 SLP183

CYXE;2016-06-21 12:00;CYXE 211200Z 06004KT 15SM SCT250 12/11 A3004 RMK CI3 SLP179

CYXE;2016-06-21 13:00;CYXE 211300Z 11004KT 15SM FEW250 16/11 A3002 RMK CI2 SLP171 DENSITY ALT 2000FT

CYXE;2016-06-21 14:00;CYXE 211400Z 12008KT 15SM SCT250 19/09 A3002 RMK CI3 SLP169 DENSITY ALT 2400FT

CYXE;2016-06-21 15:00;CYXE 211500Z 13010KT 15SM BKN250 21/08 A3001 RMK CI6 SLP168 DENSITY ALT 2500FT

CYXE;2016-06-21 16:00;CYXE 211600Z 13012KT 15SM BKN250 21/09 A3000 RMK CI7 SLP163 DENSITY ALT 2600FT

CYXE;2016-06-21 17:00;CYXE 211700Z 11010G15KT 15SM BKN250 23/10 A2998 RMK CI7 SLP158 DENSITY ALT 2800FT

CYXE;2016-06-21 18:00;CYXE 211800Z 11010KT 15SM FEW060 BKN250 23/10 A2997 RMK SC1CI6 SLP155 DENSITY ALT 2800FT

CYXE;2016-06-21 19:00;CYXE 211900Z 10011KT 15SM FEW060 OVC200 23/10 A2996 RMK SC1CI7 SLP152 DENSITY ALT 2900FT

CYXE;2016-06-21 20:00;CYXE 212000Z 10011KT 15SM FEW060 OVC160 23/10 A2995 RMK SC1AS7 SLP151 DENSITY ALT 2800FT

CYXE;2016-06-21 21:00;CYXE 212100Z 13012KT 15SM FEW060 OVC160 24/10 A2994 RMK SC2AS6 SLP147 DENSITY ALT 2900FT

CYXE;2016-06-21 22:00;CYXE 212200Z 12009KT 15SM FEW060 OVC160 23/09 A2993 RMK SC1AS7 SLP144 DENSITY ALT 2900FT

CYXE;2016-06-21 23:00;CYXE 212300Z 11008G15KT 15SM SCT140 BKN300 23/09 A2990 RMK AC4CI3 SLP134 DENSITY ALT 3000FT

CYXE;2016-06-22 00:00;CYXE 220000Z 11010KT 15SM SCT140 BKN300 23/09 A2987 RMK AC3CI3 SLP124 DENSITY ALT 2900FT

CYXE;2016-06-22 01:00;CYXE 220100Z 10009KT 15SM BKN120 BKN300 22/08 A2989 RMK AC5CI2 SLP126 DENSITY ALT 2800FT

CYXE;2016-06-22 02:00;CYXE 220200Z 08006KT 15SM BKN120 BKN300 20/09 A2988 RMK AC6CI1 SLP124 DENSITY ALT 2600FT

CYXE;2016-06-22 03:00;CYXE 220300Z 05008KT 15SM BKN130 BKN300 19/10 A2988 RMK AC6CI1 SLP122 DENSITY ALT 2400FT

CYXE;2016-06-22 04:00;CYXE 220400Z 08005KT 15SM BKN130 BKN300 17/11 A2989 RMK AC5CI2 SLP128 DENSITY ALT 2300FT

CYXE;2016-06-22 05:00;CYXE 220500Z 01005KT 15SM FEW070 BKN140 15/10 A2989 RMK AC2AC5 SLP126 DENSITY ALT 2100FT

CYXE;2016-06-22 06:00;CYXE 220600Z 04006KT 15SM SCT070 BKN160 16/09 A2989 RMK AC3AC4 SLP127 DENSITY ALT 2100FT

CYXE;2016-06-22 07:00;CYXE 220700Z 04005KT 15SM FEW070 OVC160 15/10 A2989 RMK AC2AC6 SLP128 DENSITY ALT 2000FT

CYXE;2016-06-22 08:00;CYXE 220800Z 05003KT 15SM OVC170 15/10 A2990 RMK AC8 SLP131 DENSITY ALT 2000FT

CYXE;2016-06-22 09:00;CYXE 220900Z 00000KT 15SM BKN170 12/11 A2990 RMK AC7 SLP133 DENSITY ALT 1700FT

CYXE;2016-06-22 10:00;CYXE 221000Z 33005KT 15SM BKN180 11/11 A2991 RMK AC6 SLP137

CYXE;2016-06-22 11:00;CYXE 221100Z 03005KT 15SM BKN180 BKN250 12/11 A2993 RMK AC5CI2 SLP141 DENSITY ALT 1700FT

CYXE;2016-06-22 12:00;CYXE 221200Z 05003KT 020V090 15SM BKN180 BKN250 13/11 A2994 RMK AC5CI2 SLP147 DENSITY ALT 1700FT

CYXE;2016-06-22 13:00;CYXE 221300Z 32005KT 15SM BKN180 BKN250 12/11 A2996 RMK AC5CI2 SLP153

CYXE;2016-06-22 14:00;CYXE 221400Z 36004KT 15SM SCT190 BKN270 15/12 A2995 RMK AC4CI3 SLP151 DENSITY ALT 1900FT

CYXE;2016-06-22 15:00;CYXE 221500Z VRB02KT 15SM BKN300 19/13 A2997 RMK CI7 SLP154 DENSITY ALT 2400FT

CYXE;2016-06-22 16:00;CYXE 221600Z VRB03KT 15SM FEW044 BKN300 21/11 A2997 RMK CU1CI6 SLP156 DENSITY ALT 2700FT

CYXE;2016-06-22 17:00;CYXE 221700Z VRB03KT 15SM FEW060 BKN300 23/06 A2998 RMK CU2CI5 SLP157 DENSITY ALT 2900FT

CYXE;2016-06-22 18:00;CYXE 221800Z 15009KT 15SM FEW063 BKN300 24/09 A2998 RMK CU2CI4 SLP158 DENSITY ALT 2900FT

CYXE;2016-06-22 19:00;CYXE 221900Z 17010KT 090V190 15SM FEW065 BKN300 24/06 A2998 RMK CU1CI5 SLP157 DENSITY ALT 3000FT

CYXE;2016-06-22 20:00;CYXE 222000Z 00000KT 15SM FEW065 BKN300 24/08 A2997 RMK CU2CI4 SLP155 DENSITY ALT 3000FT

CYXE;2016-06-22 21:00;CYXE 222100Z 19007KT 160V240 15SM SCT080 SCT300 23/07 A2997 RMK CU3CI1 SLP157 DENSITY ALT 2900FT

CYXE;2016-06-22 22:00;CYXE 222200Z VRB07KT 15SM SCT080 SCT300 26/07 A2997 RMK CU3CI1 SLP155 DENSITY ALT 3200FT

CYXE;2016-06-22 23:00;CYXE 222300Z 19009G15KT 170V270 15SM SCT080 SCT300 26/07 A2996 RMK AC3CI1 SLP153 DENSITY ALT 3200FT

CYXE;2016-06-23 00:00;CYXE 230000Z 22006KT 110V260 15SM SCT080 SCT300 25/05 A2995 RMK AC3CI1 SLP150 DENSITY ALT 3100FT

CYXE;2016-06-23 01:00;CYXE 230100Z 20006KT 170V240 15SM FEW080 SCT300 25/08 A2995 RMK AC2CI1 SLP149 DENSITY ALT 3000FT

CYXE;2016-06-23 02:00;CYXE 230200Z 21007KT 15SM FEW080 BKN300 23/08 A2995 RMK AC2CI4 SLP150 DENSITY ALT 2900FT

CYXE;2016-06-23 03:00;CYXE 230300Z 19007KT 15SM FEW080 BKN300 21/10 A2996 RMK AC2CI5 SLP151 DENSITY ALT 2600FT

CYXE;2016-06-23 04:00;CYXE 230400Z 20007KT 15SM FEW080 BKN300 18/11 A2997 RMK AC1CI4 SLP153 DENSITY ALT 2300FT

CYXE;2016-06-23 05:00;CYXE 230500Z 20005KT 15SM SCT300 17/11 A2997 RMK CI3 SLP152 DENSITY ALT 2200FT

CYXE;2016-06-23 06:00;CYXE 230600Z 16007KT 15SM FEW230 15/12 A2996 RMK CI1 SLP151 DENSITY ALT 2000FT

CYXE;2016-06-23 07:00;CYXE 230700Z 17007KT 15SM FEW230 15/11 A2996 RMK CI2 SLP150 DENSITY ALT 1900FT

CYXE;2016-06-23 08:00;CYXE 230800Z 18008KT 15SM FEW230 17/12 A2996 RMK CI2 SLP150 DENSITY ALT 2100FT

CYXE;2016-06-23 09:00;CYXE 230900Z 19007KT 15SM SCT100 15/12 A2995 RMK AC3 SLP149 DENSITY ALT 2000FT

CYXE;2016-06-23 10:00;CYXE 231000Z 17005KT 15SM FEW100 SCT250 14/13 A2994 RMK AC1CI2 SLP144 DENSITY ALT 1800FT

CYXE;2016-06-23 11:00;CYXE 231100Z 20007KT 15SM FEW060 SCT100 BKN250 15/13 A2995 RMK SC2AC1CI2 SLP145 DENSITY ALT 1900FT

CYXE;2016-06-23 12:00;CYXE 231200Z 19008KT 15SM FEW067 SCT100 OVC250 15/13 A2994 RMK AC2AC1CI5 SLP144 DENSITY ALT 2000FT

CYXE;2016-06-23 13:00;CYXE 231300Z 18007KT 15SM FEW120 BKN270 15/13 A2994 RMK AC2CI5 SLP143 DENSITY ALT 2000FT

CYXE;2016-06-23 14:00;CYXE 231400Z 18008KT 15SM FEW120 BKN270 18/14 A2993 RMK AC1CI5 SLP140 DENSITY ALT 2400FT

CYXE;2016-06-23 15:00;CYXE 231500Z 23007KT 190V250 15SM BKN300 20/14 A2993 RMK CI5 SLP138 DENSITY ALT 2600FT

CYXE;2016-06-23 16:00;CYXE 231600Z 19006KT 150V230 15SM SKC 23/15 A2992 RMK SLP135 DENSITY ALT 2900FT

CYXE;2016-06-23 17:00;CYXE 231700Z 20005KT 100V260 15SM SKC 24/14 A2991 RMK SLP131 DENSITY ALT 3100FT

CYXE;2016-06-23 18:00;CYXE 231800Z 16005KT 130V210 15SM FEW050 26/14 A2989 RMK CU1 SLP127 DENSITY ALT 3200FT

CYXE;2016-06-23 19:00;CYXE 231900Z 24003KT 190V300 15SM FEW060 27/12 A2988 RMK CU1 SLP122 DENSITY ALT 3400FT

CYXE;2016-06-23 20:00;CYXE 232000Z 24006G15KT 180V260 15SM FEW068 28/10 A2987 RMK CU2 SLP117 DENSITY ALT 3500FT

CYXE;2016-06-23 21:00;CYXE 232100Z CCA 22009G15KT 170V260 15SM SCT080 29/10 A2985 RMK CU3 FEW TCU SLP109 DENSITY ALT 3700FT

CYXE;2016-06-23 22:00;CYXE 232200Z 20009G16KT 130V220 15SM SCT080 28/10 A2983 RMK CU4 FEW TCU SLP105 DENSITY ALT 3500FT

CYXE;2016-06-23 23:00;CYXE 232300Z 19013KT 15SM SCT080 SCT300 28/11 A2982 RMK CU3CI1 FEW TCU SLP099 DENSITY ALT 3600FT

CYXE;2016-06-24 00:00;CYXE 240000Z 22012KT 180V240 15SM SCT080 SCT300 29/11 A2980 RMK CU3CI1 SLP092 DENSITY ALT 3700FT

CYXE;2016-06-24 01:00;CYXE 240100Z 22008KT 15SM FEW080 SCT150 BKN300 26/11 A2978 RMK AC1AC3CI2 SLP087 DENSITY ALT 3400FT

CYXE;2016-06-24 02:00;CYXE 240200Z 17007KT 15SM SCT150 BKN300 26/12 A2977 RMK AC3CI2 SLP084 DENSITY ALT 3500FT

CYXE;2016-06-24 03:00;CYXE 240300Z 17011KT 15SM FEW150 SCT300 25/14 A2977 RMK AC1CI3 SLP083 DENSITY ALT 3300FT

CYXE;2016-06-24 04:00;CYXE 240400Z 18012G20KT 15SM FEW080 SCT150 BKN300 23/14 A2977 RMK ACC1AC3CI2 SLP084 DENSITY ALT 3100FT

CYXE;2016-06-24 05:00;CYXE 240500Z 17012KT 15SM SCT160 BKN300 23/14 A2975 RMK AC4CI3 LTNG DIST W SLP076 DENSITY ALT 3100FT

CYXE;2016-06-24 06:00;CYXE 240600Z 18013KT 15SM BKN160 BKN300 22/13 A2974 RMK AC5CI2 LTNG DIST W SLP071 DENSITY ALT 3000FT

CYXE;2016-06-24 07:00;CYXE 240700Z 19015G21KT 15SM BKN150 22/13 A2973 RMK AC7 LTNG DIST NW PRESRR SLP068 DENSITY ALT 3000FT

CYXE;2016-06-24 07:36;CYXE 240736Z 20010G16KT 15SM -RA BKN100 20/14 A2976 RMK AC7 LTNG DIST N SLP079 DENSITY ALT 2800FT

CYXE;2016-06-24 08:00;CYXE 240800Z 19007KT 15SM -RA BKN120 20/14 A2976 RMK AC7 SLP078 DENSITY ALT 2700FT

CYXE;2016-06-24 09:00;CYXE 240900Z 18008KT 15SM -RA BKN100 20/15 A2973 RMK AC7 SLP068 DENSITY ALT 2700FT

CYXE;2016-06-24 09:49;CYXE 240949Z 18009KT 15SM BKN100 18/15 A2972 RMK AC6 SLP064 DENSITY ALT 2600FT

CYXE;2016-06-24 10:00;CYXE 241000Z 18008KT 15SM BKN120 18/15 A2972 RMK AC5 SLP065 DENSITY ALT 2500FT

CYXE;2016-06-24 11:00;CYXE 241100Z 17008KT 15SM FEW120 SCT300 17/14 A2971 RMK AC2CI1 SLP061 DENSITY ALT 2400FT

CYXE;2016-06-24 12:00;CYXE 241200Z 19012G17KT 15SM SCT160 18/14 A2971 RMK AC3 SLP061 DENSITY ALT 2600FT

CYXE;2016-06-24 13:00;CYXE 241300Z 21014KT 15SM FEW160 19/14 A2971 RMK AC1 SLP061 DENSITY ALT 2700FT

CYXE;2016-06-24 14:00;CYXE 241400Z 23014KT 15SM FEW050 FEW160 20/15 A2971 RMK CU1AC1 SLP061 DENSITY ALT 2800FT

CYXE;2016-06-24 15:00;CYXE 241500Z 27010KT 15SM FEW022 21/15 A2973 RMK CU2 SLP068 DENSITY ALT 2900FT

CYXE;2016-06-24 16:00;CYXE 241600Z 29011KT 15SM FEW030 21/14 A2973 RMK CU1 SLP070 DENSITY ALT 2900FT

CYXE;2016-06-24 17:00;CYXE 241700Z 29007KT 15SM FEW030 22/14 A2973 RMK CU1 SLP070 DENSITY ALT 3000FT

CYXE;2016-06-24 18:00;CYXE 241800Z 30008KT 240V320 15SM FEW040 24/14 A2973 RMK CU1 SLP069 DENSITY ALT 3200FT

CYXE;2016-06-24 19:00;CYXE 241900Z 27012G17KT 220V300 15SM FEW042 25/12 A2972 RMK CU1 SLP065 DENSITY ALT 3300FT

CYXE;2016-06-24 20:00;CYXE 242000Z 30006KT 230V320 15SM FEW050 SCT300 25/12 A2973 RMK CU2CI1 SLP068 DENSITY ALT 3300FT

CYXE;2016-06-24 21:00;CYXE 242100Z 25011KT 15SM SCT060 BKN300 26/11 A2973 RMK CU4CI2 SLP069 DENSITY ALT 3500FT

CYXE;2016-06-24 22:00;CYXE 242200Z 24006KT 15SM SCT060 BKN300 25/12 A2973 RMK CU4CI2 SLP070 DENSITY ALT 3300FT

CYXE;2016-06-24 23:00;CYXE 242300Z 31005KT 15SM SCT060 BKN300 25/12 A2971 RMK CU3CI3 SLP065 DENSITY ALT 3300FT

CYXE;2016-06-25 00:00;CYXE 250000Z 32007KT 15SM SCT060 BKN300 24/12 A2970 RMK CU3CI2 FEW TCU SLP060 DENSITY ALT 3300FT

CYXE;2016-06-25 01:00;CYXE 250100Z 32003KT 15SM SCT050CB BKN300 24/13 A2969 RMK CB3CI4 CB + LTNG SW-W MOVG NE SLP056 DENSITY ALT 3300FT

CYXE;2016-06-25 01:25;CYXE 250125Z 00000KT 15SM TS VCSH SCT050CB BKN120 BKN300 24/13 A2969 RMK CB4ACC1CI2 CB + LTNG SW-W MOVG NE SLP058 DENSITY ALT 3300FT

CYXE;2016-06-25 01:45;CYXE 250145Z 30005KT 15SM -TSRA BKN060CB BKN120 OVC300 22/14 A2970 RMK CB5ACC1CI2 CB + LTNG SW MOVG NE SLP061 DENSITY ALT 3100FT

CYXE;2016-06-25 02:00;CYXE 250200Z 24010G33KT 220V310 3SM TSRA FEW010 BKN060CB BKN120 OVC300 19/11 A2973 RMK SC1CB5ACC1CI1 LTGICCG CB MOVG NE PRESRR SLP074 DENSITY ALT 2600FT

CYXE;2016-06-25 02:35;CYXE 250235Z VRB04KT 15SM -TSRA FEW010 BKN060CB OVC120 15/15 A2975 RMK SC1CB5ACC2 LTNG NE CB MOVG NE SLP080 DENSITY ALT 2200FT

CYXE;2016-06-25 02:50;CYXE 250250Z 00000KT 15SM VCSH FEW010 SCT060CB BKN120 OVC300 16/13 A2973 RMK SC1CB2ACC3CI2 CB + LTNG N-SE MOVG NE SLP076 DENSITY ALT 2300FT

CYXE;2016-06-25 03:00;CYXE 250300Z VRB04KT 15SM VCSH FEW010 SCT060CB BKN100 OVC300 16/14 A2973 RMK SC1CB2ACC3CI2 CB + LTNG N-SE MOVG NE SLP075 DENSITY ALT 2300FT

CYXE;2016-06-25 04:00;CYXE 250400Z 16004KT 15SM FEW060CB BKN090 OVC300 16/16 A2973 RMK CB1ACC5CI2 CB + LTNG DIST NE SLP074 DENSITY ALT 2300FT

CYXE;2016-06-25 05:00;CYXE 250500Z 07004KT 15SM FEW010 SCT090 OVC210 16/16 A2973 RMK SC1ACC3CI4 CB + LTNG DIST NE-E SLP071 DENSITY ALT 2300FT

CYXE;2016-06-25 06:00;CYXE 250600Z 10005KT 15SM FEW012 BKN100 BKN220 17/15 A2970 RMK SC1AC4CI2 SLP062 DENSITY ALT 2400FT

CYXE;2016-06-25 07:00;CYXE 250700Z 26008KT 210V270 15SM SCT100 OVC200 15/15 A2969 RMK AC4CI4 SLP057 DENSITY ALT 2300FT

CYXE;2016-06-25 08:00;CYXE 250800Z 30006KT 15SM SCT090 OVC200 14/14 A2967 RMK AC4CI4 SLP052 DENSITY ALT 2200FT

CYXE;2016-06-25 09:00;CYXE 250900Z 33006KT 15SM SCT080 BKN200 14/14 A2965 RMK AC4CI3 SLP044 DENSITY ALT 2200FT

CYXE;2016-06-25 10:00;CYXE 251000Z 10002KT 15SM SCT100 BKN210 15/14 A2964 RMK AC3CI4 SLP039 DENSITY ALT 2300FT

CYXE;2016-06-25 11:00;CYXE 251100Z 01005KT 15SM FEW020TCU BKN100 BKN210 13/13 A2965 RMK TCU1ACC4CI2 SLP044 DENSITY ALT 2100FT

CYXE;2016-06-25 12:00;CYXE 251200Z 04006KT 15SM BKN070 OVC120 15/15 A2966 RMK AC6AC2 SLP049 DENSITY ALT 2300FT

CYXE;2016-06-25 13:00;CYXE 251300Z 06007KT 15SM SCT070 BKN120 16/15 A2965 RMK AC4AC3 SLP045 DENSITY ALT 2400FT

CYXE;2016-06-25 14:00;CYXE 251400Z 04008KT 15SM SCT070 BKN120 17/15 A2966 RMK AC4AC3 SLP049 DENSITY ALT 2500FT

CYXE;2016-06-25 15:00;CYXE 251500Z 03011G17KT 15SM FEW020 BKN050 BKN120 18/15 A2965 RMK CU1SC4AC2 SLP047 DENSITY ALT 2600FT

CYXE;2016-06-25 16:00;CYXE 251600Z CCA 04010KT 15SM FEW020 SCT060 BKN100 18/14 A2965 RMK CU1SC2AC4 TCU ASOCTD SLP048 DENSITY ALT 2700FT

CYXE;2016-06-25 17:00;CYXE 251700Z 07010KT 15SM FEW022 BKN040 BKN300 19/14 A2967 RMK CU2SC4CI1 TCU ASOCTD SLP053 DENSITY ALT 2700FT

CYXE;2016-06-25 18:00;CYXE 251800Z 08005KT 15SM BKN040 BKN300 19/14 A2967 RMK SC5CI2 TCU ASOCTD SLP053 DENSITY ALT 2700FT

CYXE;2016-06-25 19:00;CYXE 251900Z 12007KT 15SM SCT025 BKN060 BKN300 18/14 A2967 RMK SC4SC2CI1 TCU ASOCTD SLP053 DENSITY ALT 2600FT

CYXE;2016-06-25 19:52;CYXE 251952Z 20014KT 15SM TS FEW025 BKN058 OVC300 17/14 A2969 RMK SF2SC4CI2 SLP060 DENSITY ALT 2500FT

CYXE;2016-06-25 20:00;CYXE 252000Z 20013G19KT 15SM -TSRA FEW025 BKN060 OVC300 16/15 A2969 RMK SF2SC4CI2 SLP061 DENSITY ALT 2400FT

CYXE;2016-06-25 21:00;CYXE 252100Z 24009KT 15SM -TSRA FEW020 BKN060CB BKN300 15/15 A2970 RMK SC1CB5CI1 CB MOVG SE LTNG W OCNL SHRA SLP068 DENSITY ALT 2300FT

CYXE;2016-06-25 21:50;CYXE 252150Z 26008KT 15SM -SHRA FEW020 BKN060CB BKN300 16/16 A2970 RMK SC1CB4CI2 CB MOVG SE OCNL SHRA SLP066 DENSITY ALT 2300FT

CYXE;2016-06-25 22:00;CYXE 252200Z 25007KT 15SM -SHRA FEW020 BKN060CB BKN300 16/16 A2970 RMK SC1CB4CI2 CB MOVG SE OCNL SHRA SLP065 DENSITY ALT 2400FT

CYXE;2016-06-25 22:25;CYXE 252225Z 28006KT 230V290 15SM -TSRA SCT040CB SCT100 BKN300 19/15 A2969 RMK CB3ACC1CI2 LTNG NW CB MOVG SE SLP061 DENSITY ALT 2700FT

CYXE;2016-06-25 22:37;CYXE 252237Z 25007KT 15SM TS FEW040CB BKN300 19/16 A2969 RMK CB2CI3 LTNG NW-N SLP059 DENSITY ALT 2700FT

CYXE;2016-06-25 23:00;CYXE 252300Z 28008KT 15SM TS SCT040CB BKN300 20/16 A2968 RMK CB3CI2 LTNG NW SLP059 DENSITY ALT 2800FT

CYXE;2016-06-25 23:28;CYXE 252328Z 30008KT 250V310 1SM R09/P6000FT/N SHRA BKN040CB BKN300 20/15 A2968 RMK CB5CI1 CB MOVG SE SLP059 DENSITY ALT 2800FT

CYXE;2016-06-25 23:33;CYXE 252333Z 34009G23KT 270V350 10SM R09/3000VP6000FT/D -SHRA BKN040CB BKN300 17/16 A2969 RMK CB5CI2 CB MOVG SE SLP061 DENSITY ALT 2500FT

CYXE;2016-06-25 23:44;CYXE 252344Z 32007KT 15SM FEW040CB BKN300 19/16 A2968 RMK CB2CI4 CB SE MOVG SE SLP058 DENSITY ALT 2700FT

CYXE;2016-06-26 00:00;CYXE 260000Z 32010G16KT 15SM FEW040CB BKN300 19/14 A2968 RMK CB2CI4 SLP057 DENSITY ALT 2800FT

CYXE;2016-06-26 01:00;CYXE 260100Z 34010G15KT 15SM VCSH SCT030TCU BKN300 19/14 A2971 RMK TCU4CI2 SLP066 DENSITY ALT 2600FT

CYXE;2016-06-26 02:00;CYXE 260200Z 32009G15KT 15SM VCSH SCT030TCU BKN110 BKN300 17/14 A2973 RMK TCU4ACC2CI1 SLP073 DENSITY ALT 2500FT

CYXE;2016-06-26 03:00;CYXE 260300Z 31009KT 15SM SCT030TCU BKN060 BKN300 17/14 A2975 RMK TCU3SC3CI1 SLP080 DENSITY ALT 2400FT

CYXE;2016-06-26 04:00;CYXE 260400Z 32012G17KT 15SM SCT025 OVC060 16/14 A2977 RMK SC4SC4 SLP090 DENSITY ALT 2300FT

CYXE;2016-06-26 04:47;CYXE 260447Z 34013G20KT 10SM -SHRA BKN018 OVC060 15/14 A2979 RMK SC6SC2 CVCTV CLD EMBD SLP097 DENSITY ALT 2200FT

CYXE;2016-06-26 05:00;CYXE 260500Z 33011G17KT 15SM -SHRA BKN018 OVC060 15/14 A2980 RMK SC7SC1 CVCTV CLD EMBD SLP099 DENSITY ALT 2200FT

CYXE;2016-06-26 06:00;CYXE 260600Z 34015KT 15SM -SHRA OVC017 15/14 A2982 RMK SC8 CVCTV CLD EMBD SLP104 DENSITY ALT 2100FT

CYXE;2016-06-26 07:00;CYXE 260700Z CCA 34011KT 15SM -SHRA OVC020 14/14 A2984 RMK SC8 CVCTV CLD EMBD SLP114 DENSITY ALT 1900FT

CYXE;2016-06-26 07:44;CYXE 260744Z 35010G17KT 15SM BKN018 14/13 A2985 RMK SC6 SLP118 DENSITY ALT 1900FT

CYXE;2016-06-26 08:00;CYXE 260800Z 35011G17KT 15SM BKN022 14/13 A2986 RMK SC6 SLP122 DENSITY ALT 1900FT

CYXE;2016-06-26 09:00;CYXE 260900Z 33007KT 15SM FEW022 SCT080 BKN120 13/13 A2987 RMK SF2AC2AC2 SLP126 DENSITY ALT 1800FT

CYXE;2016-06-26 10:00;CYXE 261000Z 33007KT 15SM BKN020 14/13 A2990 RMK SC7 SLP134 DENSITY ALT 1800FT

CYXE;2016-06-26 11:00;CYXE 261100Z 32006KT 15SM OVC020 13/13 A2993 RMK SC8 SLP143 DENSITY ALT 1800FT

CYXE;2016-06-26 12:00;CYXE 261200Z 31006KT 15SM FEW013 OVC022 14/13 A2995 RMK SF2SC6 SLP151 DENSITY ALT 1800FT

CYXE;2016-06-26 12:09;CYXE 261209Z 31007KT 15SM BKN011 OVC022 14/13 A2995 RMK SC5SC3 SLP151 DENSITY ALT 1800FT

CYXE;2016-06-26 12:48;CYXE 261248Z 33010KT 15SM -SHRA BKN010 BKN022 14/13 A2996 RMK SC5SC2 SLP156 DENSITY ALT 1800FT

CYXE;2016-06-26 13:00;CYXE 261300Z 33008KT 15SM -SHRA BKN010 BKN022 14/14 A2997 RMK SC5SC2 CVCTV CLD EMBD SLP159 DENSITY ALT 1800FT

CYXE;2016-06-26 13:09;CYXE 261309Z 34009KT 15SM BKN011 14/13 A2997 RMK SC7 SLP159 DENSITY ALT 1800FT

CYXE;2016-06-26 14:00;CYXE 261400Z 32011G17KT 15SM BKN014 BKN090 14/12 A2999 RMK SC6AC1 SLP166 DENSITY ALT 1800FT

CYXE;2016-06-26 15:00;CYXE 261500Z 35012KT 15SM BKN016 15/12 A3003 RMK SC7 SLP178 DENSITY ALT 1800FT

CYXE;2016-06-26 16:00;CYXE 261600Z 35011KT 15SM OVC016 15/12 A3005 RMK SC8 SLP185 DENSITY ALT 1900FT

CYXE;2016-06-26 17:00;CYXE 261700Z 34009G15KT 15SM BKN016 OVC060 16/13 A3007 RMK SC7SC1 SLP193 DENSITY ALT 2000FT

CYXE;2016-06-26 18:00;CYXE 261800Z 35011KT 15SM BKN018 OVC070 17/13 A3009 RMK SC7AC1 SLP198 DENSITY ALT 2000FT

CYXE;2016-06-26 19:00;CYXE 261900Z 36010KT 15SM BKN020 OVC080 17/13 A3010 RMK SC7AC1 SLP204 DENSITY ALT 2000FT

CYXE;2016-06-26 20:00;CYXE 262000Z 36007KT 15SM BKN018 OVC080 18/13 A3011 RMK SC7AC1 SLP207 DENSITY ALT 2100FT

CYXE;2016-06-26 21:00;CYXE 262100Z 36009KT 15SM BKN018 BKN028 BKN100 18/13 A3013 RMK SC5SC1AC1 SLP214 DENSITY ALT 2100FT

CYXE;2016-06-26 22:00;CYXE 262200Z 02007KT 15SM BKN020 BKN080 18/13 A3014 RMK SC6AC1 SLP218 DENSITY ALT 2000FT

CYXE;2016-06-26 23:00;CYXE 262300Z 03003KT 15SM SCT030 BKN110 18/13 A3015 RMK SC4AC3 SLP221 DENSITY ALT 2100FT

CYXE;2016-06-27 00:00;CYXE 270000Z 36004KT 15SM SCT030 BKN120 19/13 A3015 RMK SC4AC3 SLP221 DENSITY ALT 2200FT

CYXE;2016-06-27 01:00;CYXE 270100Z 07009KT 15SM SCT030 BKN120 18/14 A3017 RMK CU3AC4 SLP226 DENSITY ALT 2100FT

CYXE;2016-06-27 02:00;CYXE 270200Z 09008KT 15SM FEW030 BKN120 17/13 A3019 RMK CU2AC4 SLP233 DENSITY ALT 2000FT

CYXE;2016-06-27 03:00;CYXE 270300Z 09006KT 15SM FEW030 SCT120 15/13 A3020 RMK CU1AC3 SLP237

CYXE;2016-06-27 04:00;CYXE 270400Z 13003KT 15SM SCT150 14/13 A3022 RMK AC3 SLP245

CYXE;2016-06-27 05:00;CYXE 270500Z 17002KT 15SM BKN120 14/13 A3022 RMK AC5 SLP246

CYXE;2016-06-27 06:00;CYXE 270600Z 24005KT 15SM FEW090 SCT150 13/13 A3023 RMK AC2AC2 SLP249

CYXE;2016-06-27 07:00;CYXE 270700Z 16002KT 15SM BKN090 BKN150 13/13 A3024 RMK AC5AC2 SLP252

CYXE;2016-06-27 08:00;CYXE 270800Z 21004KT 15SM OVC100 13/13 A3024 RMK AC8 SLP250

CYXE;2016-06-27 09:00;CYXE 270900Z 16003KT 140V220 15SM OVC110 14/14 A3024 RMK AC8 SLP251

CYXE;2016-06-27 10:00;CYXE 271000Z 20005KT 15SM BKN120 OVC160 13/13 A3024 RMK AC5AC3 SLP251

CYXE;2016-06-27 11:00;CYXE 271100Z 17004KT 15SM FEW050 BKN110 14/14 A3025 RMK SC2AC4 SLP255

CYXE;2016-06-27 12:00;CYXE 271200Z 18004KT 15SM FEW050 BKN120 14/14 A3026 RMK SC1AC5 SLP255

CYXE;2016-06-27 13:00;CYXE 271300Z 17005KT 15SM FEW040 BKN120 15/14 A3027 RMK SC1AC5 SLP260

CYXE;2016-06-27 14:00;CYXE 271400Z 21003KT 15SM FEW040 BKN130 16/15 A3027 RMK SC1AC5 SLP262 DENSITY ALT 1700FT

CYXE;2016-06-27 15:00;CYXE 271500Z 20007KT 15SM SCT130 SCT250 16/15 A3028 RMK AC3CI1 SLP265 DENSITY ALT 1700FT

CYXE;2016-06-27 16:00;CYXE 271600Z 22008KT 15SM FEW140 FEW270 20/16 A3027 RMK AC1CI1 SLP261 DENSITY ALT 2100FT

CYXE;2016-06-27 17:00;CYXE 271700Z 23007KT 15SM FEW030 FEW270 22/15 A3027 RMK CU1CI1 SLP258 DENSITY ALT 2400FT

CYXE;2016-06-27 18:00;CYXE 271800Z 26009KT 200V280 15SM FEW040 FEW270 23/11 A3026 RMK CU1CI1 SLP256 DENSITY ALT 2500FT

CYXE;2016-06-27 19:00;CYXE 271900Z 23007KT 210V270 15SM FEW050 SCT270 24/12 A3026 RMK CU2CI1 SLP253 DENSITY ALT 2600FT

CYXE;2016-06-27 20:00;CYXE 272000Z 23006KT 190V260 15SM SCT050 25/15 A3024 RMK CU3 SLP246 DENSITY ALT 2800FT

CYXE;2016-06-27 21:00;CYXE 272100Z 25010G16KT 200V270 15SM SCT050TCU 26/10 A3023 RMK TCU3 SLP243 DENSITY ALT 2900FT

CYXE;2016-06-27 22:00;CYXE 272200Z 24010KT 200V260 15SM FEW060TCU SCT270 26/12 A3022 RMK TCU2CI2 SLP238 DENSITY ALT 2900FT

CYXE;2016-06-27 23:00;CYXE 272300Z 23009KT 15SM FEW060CB BKN270 25/12 A3020 RMK CB2CI3 CB + LTNG DIST W-N CB MOVG SE SLP234 DENSITY ALT 2800FT

CYXE;2016-06-27 23:31;CYXE 272331Z 23007KT 15SM TS VCSH SCT060CB BKN300 24/13 A3020 RMK CB4CI2 CB + LTNG W MOVG SE SLP234 DENSITY ALT 2700FT

CYXE;2016-06-28 00:00;CYXE 280000Z 25009KT 15SM -TSRA SCT060CB BKN300 22/15 A3020 RMK CB4CI3 CB + LTNG SW-W MOVG SE SLP236 DENSITY ALT 2500FT

CYXE;2016-06-28 00:22;CYXE 280022Z 23006KT 15SM VCSH FEW060CB BKN300 22/15 A3020 RMK CB2CI4 SLP235 DENSITY ALT 2500FT

CYXE;2016-06-28 01:00;CYXE 280100Z 25006KT 15SM FEW060CB BKN300 22/15 A3019 RMK CB1CI5 SLP231 DENSITY ALT 2500FT

CYXE;2016-06-28 02:00;CYXE 280200Z 22006KT 15SM FEW140 BKN300 22/15 A3018 RMK ACC2CI4 CB DIST NE + W SLP227 DENSITY ALT 2500FT

CYXE;2016-06-28 03:00;CYXE 280300Z 22006KT 15SM FEW140 SCT300 21/14 A3018 RMK ACC1CI2 SLP229 DENSITY ALT 2300FT

CYXE;2016-06-28 04:00;CYXE 280400Z 24007KT 15SM FEW140 SCT300 18/15 A3020 RMK ACC2CI2 CB DIST S SLP233 DENSITY ALT 2000FT

CYXE;2016-06-28 05:00;CYXE 280500Z 22007KT 15SM FEW140 FEW300 18/14 A3019 RMK ACC1CI1 SLP230 DENSITY ALT 2000FT

CYXE;2016-06-28 06:00;CYXE 280600Z 22007KT 15SM SKC 17/14 A3018 RMK SLP227 DENSITY ALT 1900FT

CYXE;2016-06-28 07:00;CYXE 280700Z 22006KT 15SM SKC 16/14 A3019 RMK SLP228 DENSITY ALT 1800FT

CYXE;2016-06-28 08:00;CYXE 280800Z 22006KT 15SM SKC 15/14 A3018 RMK SLP226 DENSITY ALT 1700FT

CYXE;2016-06-28 09:00;CYXE 280900Z 23006KT 15SM SKC 14/14 A3018 RMK SLP225

CYXE;2016-06-28 10:00;CYXE 281000Z 23007KT 15SM SKC 13/13 A3018 RMK SLP226

CYXE;2016-06-28 11:00;CYXE 281100Z 22006KT 15SM FEW250 13/13 A3018 RMK CI1 SLP226

CYXE;2016-06-28 12:00;CYXE 281200Z 20004KT 15SM FEW250 15/14 A3018 RMK CI1 SLP228 DENSITY ALT 1700FT

CYXE;2016-06-28 13:00;CYXE 281300Z 22007KT 15SM FEW250 17/14 A3018 RMK CI2 SLP226 DENSITY ALT 2000FT

CYXE;2016-06-28 14:00;CYXE 281400Z 23006KT 15SM FEW300 20/15 A3018 RMK CI2 SLP224 DENSITY ALT 2200FT

CYXE;2016-06-28 15:00;CYXE 281500Z 24008KT 15SM FEW300 22/15 A3018 RMK CI2 SLP223 DENSITY ALT 2400FT

CYXE;2016-06-28 16:00;CYXE 281600Z 25005KT 210V280 15SM FEW300 23/15 A3017 RMK CI1 SLP221 DENSITY ALT 2600FT

CYXE;2016-06-28 17:00;CYXE 281700Z 25005KT 15SM FEW040 FEW300 25/15 A3016 RMK CU1CI1 SLP216 DENSITY ALT 2900FT

CYXE;2016-06-28 18:00;CYXE 281800Z 29007KT 240V300 15SM FEW050 SCT300 26/13 A3015 RMK CU2CI1 SLP215 DENSITY ALT 3000FT

CYXE;2016-06-28 18:40;CYXE 281840Z 30004KT 230V020 15SM TS SCT050CB BKN300 25/12 A3014 RMK CB4CI1 SLP212 DENSITY ALT 2900FT

CYXE;2016-06-28 18:52;CYXE 281852Z 25007KT 15SM -TSRA BKN050CB BKN300 25/15 A3015 RMK CB5CI1 CB SW SLP213 DENSITY ALT 2800FT

CYXE;2016-06-28 19:00;CYXE 281900Z 24015KT 15SM -TSRA BKN040CB BKN300 23/10 A3015 RMK CB5CI1 CB S-W SLP216 DENSITY ALT 2600FT

CYXE;2016-06-28 20:00;CYXE 282000Z 24011KT 15SM -TSRA SCT050CB BKN080 BKN300 22/14 A3014 RMK CB4AC1CI1 CB SW SLP213 DENSITY ALT 2600FT

CYXE;2016-06-28 20:10;CYXE 282010Z 24007KT 15SM SCT050TCU BKN080 BKN300 23/15 A3013 RMK TCU3AC2CI1 SLP210 DENSITY ALT 2600FT

CYXE;2016-06-28 21:00;CYXE 282100Z 23006KT 15SM FEW040 SCT080 BKN300 25/14 A3012 RMK CU2AC2CI2 SLP207 DENSITY ALT 2900FT

CYXE;2016-06-28 22:00;CYXE 282200Z 23009KT 15SM FEW040TCU SCT080 BKN330 26/13 A3011 RMK TCU2AC2CI2 CB TOPS DIST S SLP203 DENSITY ALT 3000FT

CYXE;2016-06-28 23:00;CYXE 282300Z 25011KT 15SM FEW060CB FEW100 BKN330 27/12 A3009 RMK CB1ACC1CI4 SLP195 DENSITY ALT 3100FT

CYXE;2016-06-29 00:00;CYXE 290000Z 24011KT 15SM FEW060CB FEW100 SCT330 26/14 A3009 RMK CB1ACC1CI2 SLP196 DENSITY ALT 3000FT

CYXE;2016-06-29 00:46;CYXE 290046Z 27009KT 15SM TS VCSH SCT060CB SCT100 BKN300 23/16 A3010 RMK CB3ACC1CI2 LTNG + CB NW MOVG SE SLP198 DENSITY ALT 2700FT

CYXE;2016-06-29 01:00;CYXE 290100Z 28010KT 15SM TS VCSH SCT060CB BKN080 BKN300 23/14 A3010 RMK CB3ACC2CI2 CB + LTNG NW-N MOVG SE SLP200 DENSITY ALT 2600FT

CYXE;2016-06-29 01:16;CYXE 290116Z 30011KT 15SM VCSH SCT060CB BKN080 BKN300 22/13 A3011 RMK CB3ACC2CI2 SLP202 DENSITY ALT 2600FT

CYXE;2016-06-29 02:00;CYXE 290200Z 30008KT 15SM -SHRA BKN080 BKN300 19/15 A3010 RMK ACC5CI2 SLP199 DENSITY ALT 2300FT

CYXE;2016-06-29 02:19;CYXE 290219Z VRB02KT 15SM FEW080 BKN300 21/16 A3008 RMK ACC2CI5 PRESFR SLP192 DENSITY ALT 2400FT

CYXE;2016-06-29 03:00;CYXE 290300Z 26004KT 15SM FEW100 BKN300 21/16 A3008 RMK ACC2CI5 SLP190 DENSITY ALT 2500FT

CYXE;2016-06-29 04:00;CYXE 290400Z 23004KT 15SM SCT300 18/17 A3009 RMK CI3 BR PTCHS SLP196 DENSITY ALT 2100FT

CYXE;2016-06-29 05:00;CYXE 290500Z 27005KT 15SM SCT300 16/15 A3010 RMK CI3 SLP197 DENSITY ALT 1800FT

CYXE;2016-06-29 06:00;CYXE 290600Z 25005KT 15SM FEW300 15/14 A3009 RMK CI2 SLP196 DENSITY ALT 1800FT

CYXE;2016-06-29 07:00;CYXE 290700Z 28005KT 15SM FEW120 14/13 A3009 RMK AC2 SLP198

CYXE;2016-06-29 08:00;CYXE 290800Z 24006KT 15SM SCT120 13/13 A3010 RMK AC3 SLP202

CYXE;2016-06-29 09:00;CYXE 290900Z 25005KT 15SM FEW090 SCT140 14/13 A3011 RMK AC2AC2 SLP202

CYXE;2016-06-29 10:00;CYXE 291000Z 30007KT 15SM FEW090 BKN140 13/13 A3011 RMK AC2AC4 SLP201

CYXE;2016-06-29 11:00;CYXE 291100Z 33006KT 15SM FEW090 BKN160 13/13 A3011 RMK AC2AC4 SLP203

CYXE;2016-06-29 12:00;CYXE 291200Z 34007KT 15SM FEW090 BKN160 13/13 A3012 RMK ACC2AC3 SLP205

CYXE;2016-06-29 13:00;CYXE 291300Z 01004KT 15SM FEW090 BKN160 14/13 A3013 RMK AC2AC3 SLP209

CYXE;2016-06-29 14:00;CYXE 291400Z 01008KT 15SM SCT150 19/14 A3013 RMK ACC4 SLP209 DENSITY ALT 2200FT

CYXE;2016-06-29 15:00;CYXE 291500Z 04008KT 15SM SCT120 19/15 A3014 RMK ACC4 SLP212 DENSITY ALT 2200FT

CYXE;2016-06-29 16:00;CYXE 291600Z 05009KT 15SM FEW120 22/15 A3015 RMK AC2 SLP215 DENSITY ALT 2500FT

CYXE;2016-06-29 17:00;CYXE 291700Z 07009KT 15SM FEW120 23/16 A3015 RMK AC1 SLP217 DENSITY ALT 2700FT

CYXE;2016-06-29 18:00;CYXE 291800Z 08011KT 15SM FEW030 SCT160 24/14 A3017 RMK CU1AC2 SLP222 DENSITY ALT 2700FT

CYXE;2016-06-29 19:00;CYXE 291900Z 06011KT 15SM FEW040 SCT160 24/15 A3017 RMK CU2AC2 CB DIST W SLP222 DENSITY ALT 2800FT

CYXE;2016-06-29 20:00;CYXE 292000Z 06012KT 020V080 15SM SCT040 BKN160 25/14 A3016 RMK CU4AC2 CB DIST SW-W SLP221 DENSITY ALT 2800FT

CYXE;2016-06-29 21:00;CYXE 292100Z 04009G16KT 030V100 15SM SCT045TCU BKN300 24/14 A3016 RMK TCU4CI3 CB DIST SW-W SLP221 DENSITY ALT 2700FT

CYXE;2016-06-29 21:26;CYXE 292126Z 06009KT 15SM TS VCSH SCT050CB BKN300 24/13 A3017 RMK CB4CI3 WSHFT 2105 CB W MOVG SE SLP222 DENSITY ALT 2700FT

CYXE;2016-06-29 22:00;CYXE 292200Z 05010KT 040V110 15SM TS VCSH SCT050CB BKN300 23/13 A3017 RMK CB3CI4 CB SW MOVG SE SLP223 DENSITY ALT 2600FT

CYXE;2016-06-29 22:14;CYXE 292214Z 07014KT 15SM SCT050CB BKN300 25/13 A3017 RMK CB3CI3 CB S MOVG SE SLP222 DENSITY ALT 2800FT

CYXE;2016-06-29 23:00;CYXE 292300Z 05009G15KT 15SM SCT050 BKN300 24/12 A3017 RMK CU4CI1 CB SE MOVG SE SLP223 DENSITY ALT 2700FT

CYXE;2016-06-30 00:00;CYXE 300000Z 08015KT 15SM FEW050 SCT090 SCT300 24/11 A3018 RMK CU2AC1CI1 SLP226 DENSITY ALT 2700FT

CYXE;2016-06-30 01:00;CYXE 300100Z 08011KT 15SM FEW050 SCT300 23/10 A3018 RMK CF1CI2 SLP227 DENSITY ALT 2600FT

CYXE;2016-06-30 02:00;CYXE 300200Z 07009KT 15SM FEW050 FEW300 22/09 A3019 RMK CF1CI2 CF TR SLP229 DENSITY ALT 2500FT

CYXE;2016-06-30 03:00;CYXE 300300Z 07008KT 15SM FEW090 FEW300 19/11 A3020 RMK AC1CI1 SLP232 DENSITY ALT 2200FT

CYXE;2016-06-30 04:00;CYXE 300400Z 08006KT 15SM FEW300 16/11 A3021 RMK CI1 SLP238 DENSITY ALT 1800FT

CYXE;2016-06-30 05:00;CYXE 300500Z 11006KT 15SM FEW300 16/11 A3023 RMK CI1 SLP243 DENSITY ALT 1700FT

CYXE;2016-06-30 06:00;CYXE 300600Z 11008KT 15SM SKC 15/11 A3023 RMK SLP245

CYXE;2016-06-30 07:00;CYXE 300700Z 11008KT 15SM SKC 14/10 A3024 RMK SLP248

CYXE;2016-06-30 08:00;CYXE 300800Z 10008KT 15SM SKC 13/10 A3025 RMK SLP252

CYXE;2016-06-30 09:00;CYXE 300900Z 10007KT 15SM SKC 12/09 A3026 RMK SLP256

CYXE;2016-06-30 10:00;CYXE 301000Z 10008KT 15SM SKC 11/09 A3027 RMK SLP258

CYXE;2016-06-30 11:00;CYXE 301100Z 09007KT 15SM SKC 10/08 A3027 RMK SLP262

CYXE;2016-06-30 12:00;CYXE 301200Z 11007KT 15SM SKC 13/10 A3027 RMK SLP260

CYXE;2016-06-30 13:00;CYXE 301300Z 11008KT 15SM FEW300 14/11 A3028 RMK CI2 SLP260

CYXE;2016-06-30 14:00;CYXE 301400Z 12006KT 15SM SCT300 17/11 A3027 RMK CI3 SLP259 DENSITY ALT 1800FT

CYXE;2016-06-30 15:00;CYXE 301500Z CCA 16005KT 110V180 15SM FEW300 18/12 A3027 RMK CI1 SLP258 DENSITY ALT 1900FT

CYXE;2016-06-30 16:00;CYXE 301600Z 14008KT 100V160 15SM FEW030 19/12 A3026 RMK CU2 SLP255 DENSITY ALT 2100FT

CYXE;2016-06-30 17:00;CYXE 301700Z 11011KT 100V180 15SM SCT030 21/11 A3025 RMK CU3 SLP250 DENSITY ALT 2300FT

CYXE;2016-06-30 18:00;CYXE 301800Z 12011KT 100V210 15SM SCT040 21/11 A3024 RMK CU4 SLP249 DENSITY ALT 2300FT

CYXE;2016-06-30 19:00;CYXE 301900Z 14011G17KT 15SM SCT040 22/09 A3023 RMK CU3 SLP244 DENSITY ALT 2500FT

CYXE;2016-06-30 20:00;CYXE 302000Z 14011G18KT 090V170 15SM FEW050 23/09 A3021 RMK CU2 SLP237 DENSITY ALT 2600FT

CYXE;2016-06-30 21:00;CYXE 302100Z 14012G19KT 120V190 15SM FEW054 24/09 A3019 RMK CU2 SLP232 DENSITY ALT 2700FT

CYXE;2016-06-30 22:00;CYXE 302200Z 14012G20KT 15SM FEW050 SCT270 24/08 A3017 RMK CU1CI2 SLP225 DENSITY ALT 2700FT

CYXE;2016-06-30 23:00;CYXE 302300Z 14016KT 15SM FEW050 SCT270 24/08 A3015 RMK CU1CI3 SLP218 DENSITY ALT 2700FT

CYXE;2016-07-01 00:00;CYXE 010000Z 13013G18KT 15SM FEW050 SCT270 23/08 A3013 RMK CU1CI3 SLP213 DENSITY ALT 2600FT

CYXE;2016-07-01 01:00;CYXE 010100Z 13014KT 15SM FEW050 SCT220 BKN270 23/09 A3011 RMK CU1CI3CI3 SLP203 DENSITY ALT 2700FT

CYXE;2016-07-01 02:00;CYXE 010200Z 13012G18KT 15SM FEW220 BKN270 21/08 A3010 RMK CI2CI5 SLP201 DENSITY ALT 2500FT

CYXE;2016-07-01 03:00;CYXE 010300Z 12013KT 15SM FEW220 BKN270 20/09 A3011 RMK CI2CI5 SLP203 DENSITY ALT 2300FT

CYXE;2016-07-01 04:00;CYXE 010400Z 12010KT 15SM FEW220 BKN270 18/09 A3010 RMK CI2CI5 SLP200 DENSITY ALT 2100FT

CYXE;2016-07-01 05:00;CYXE 010500Z 12013G20KT 15SM BKN270 17/09 A3009 RMK CI6 SLP194 DENSITY ALT 2100FT

CYXE;2016-07-01 06:00;CYXE 010600Z 13011KT 15SM BKN270 17/10 A3008 RMK CI7 SLP191 DENSITY ALT 2000FT

CYXE;2016-07-01 07:00;CYXE 010700Z 13010G16KT 15SM FEW140 OVC270 16/10 A3006 RMK AC2CI6 SLP186 DENSITY ALT 2000FT

CYXE;2016-07-01 08:00;CYXE 010800Z 13012KT 15SM SCT050 OVC270 16/10 A3005 RMK SC3CI5 SLP183 DENSITY ALT 2000FT

CYXE;2016-07-01 09:00;CYXE 010900Z 11011G16KT 15SM SCT050 BKN270 15/10 A3004 RMK SC3CI4 SLP178 DENSITY ALT 1800FT

CYXE;2016-07-01 10:00;CYXE 011000Z 13012G18KT 15SM BKN060 BKN270 15/10 A3004 RMK SC5CI2 SLP178 DENSITY ALT 1900FT

CYXE;2016-07-01 11:00;CYXE 011100Z 13012KT 15SM SCT060TCU OVC180 15/10 A3005 RMK TCU4CI4 SLP180 DENSITY ALT 1800FT

CYXE;2016-07-01 12:00;CYXE 011200Z 12014KT 15SM BKN060TCU BKN200 14/10 A3003 RMK TCU5CI2 SLP176 DENSITY ALT 1800FT

CYXE;2016-07-01 13:00;CYXE 011300Z 13012KT 15SM FEW040 BKN100 15/11 A3002 RMK SC2ACC5 FEW TCU SLP172 DENSITY ALT 1900FT

CYXE;2016-07-01 13:48;CYXE 011348Z 13013KT 10SM -SHRA BKN045 BKN100 15/11 A3002 RMK SC5AC2 TCU EMBD SLP173 DENSITY ALT 1900FT

CYXE;2016-07-01 14:00;CYXE 011400Z 13012KT 15SM -SHRA BKN045 BKN100 14/12 A3003 RMK SC5AC2 CVCTV CLD EMBD SLP176 DENSITY ALT 1700FT

CYXE;2016-07-01 14:50;CYXE 011450Z 14013KT 15SM SCT050 BKN070 15/12 A3001 RMK SC4AC3 SLP170 DENSITY ALT 1900FT

CYXE;2016-07-01 15:00;CYXE 011500Z 13013KT 15SM SCT050 BKN070 15/12 A3001 RMK SC3AC4 SLP170 DENSITY ALT 1900FT

CYXE;2016-07-01 16:00;CYXE 011600Z 12011KT 15SM FEW050 BKN080 17/12 A3000 RMK SC2AC5 SLP168 DENSITY ALT 2100FT

CYXE;2016-07-01 17:00;CYXE 011700Z 15010KT 15SM FEW030 BKN060 20/12 A3000 RMK SC2SC5 SLP164 DENSITY ALT 2400FT

CYXE;2016-07-01 18:00;CYXE 011800Z 12009KT 15SM BKN030 20/13 A2999 RMK SC7 SLP163 DENSITY ALT 2500FT

CYXE;2016-07-01 19:00;CYXE 011900Z 11006KT 060V150 15SM OVC032 20/13 A2999 RMK SC8 SLP161 DENSITY ALT 2500FT

CYXE;2016-07-01 20:00;CYXE 012000Z 09010KT 15SM OVC035 20/14 A2999 RMK SC8 SLP162 DENSITY ALT 2500FT

CYXE;2016-07-01 21:00;CYXE 012100Z 07012KT 15SM BKN035 OVC130 21/14 A2998 RMK SC5AC3 SLP158 DENSITY ALT 2600FT

CYXE;2016-07-01 22:00;CYXE 012200Z 09009G16KT 15SM FEW035 BKN130 21/14 A2997 RMK CU2AC5 SLP156 DENSITY ALT 2600FT

CYXE;2016-07-01 23:00;CYXE 012300Z 12012KT 15SM SCT030 OVC130 21/14 A2997 RMK CU4AC4 SLP156 DENSITY ALT 2600FT

CYXE;2016-07-02 00:00;CYXE 020000Z 12012KT 15SM FEW030 BKN150 22/15 A2996 RMK CU2AC5 TCU ASOCTD S SLP152 DENSITY ALT 2700FT

CYXE;2016-07-02 01:00;CYXE 020100Z 10013KT 15SM FEW030TCU BKN150 21/15 A2995 RMK TCU1AC5 SLP151 DENSITY ALT 2600FT

CYXE;2016-07-02 02:00;CYXE 020200Z 11012G17KT 15SM FEW030TCU BKN130 20/15 A2995 RMK TCU1AC5 SLP150 DENSITY ALT 2500FT

CYXE;2016-07-02 03:00;CYXE 020300Z 11011KT 15SM SCT110 BKN160 19/15 A2995 RMK AC3AC4 SLP151 DENSITY ALT 2400FT

CYXE;2016-07-02 04:00;CYXE 020400Z 11010G15KT 15SM FEW045 SCT085 BKN140 18/15 A2997 RMK CU2AC2AC3 TCU ASOCTD SLP156 DENSITY ALT 2300FT

CYXE;2016-07-02 05:00;CYXE 020500Z 13013G19KT 15SM SCT080 BKN140 17/13 A2996 RMK AC3AC3 SLP152 DENSITY ALT 2200FT

CYXE;2016-07-02 06:00;CYXE 020600Z 13007KT 15SM SCT080 SCT140 16/13 A2995 RMK ACC3AC1 SLP150 DENSITY ALT 2100FT

CYXE;2016-07-02 07:00;CYXE 020700Z 12008KT 15SM FEW140 15/14 A2995 RMK AC2 SLP149 DENSITY ALT 2000FT

CYXE;2016-07-02 08:00;CYXE 020800Z 13009KT 15SM FEW300 15/14 A2994 RMK CI2 SLP145 DENSITY ALT 1900FT

CYXE;2016-07-02 09:00;CYXE 020900Z 13008KT 15SM FEW120 SCT300 14/14 A2993 RMK AC1CI2 SLP143 DENSITY ALT 1900FT

CYXE;2016-07-02 10:00;CYXE 021000Z 12009KT 15SM FEW120 BKN300 14/14 A2992 RMK ACC1CI4 SLP141 DENSITY ALT 1900FT

CYXE;2016-07-02 11:00;CYXE 021100Z 12011KT 15SM FEW120 BKN300 14/14 A2993 RMK ACC1CI5 SLP144 DENSITY ALT 1900FT

CYXE;2016-07-02 12:00;CYXE 021200Z 13011G16KT 15SM FEW005 FEW030TCU SCT120 BKN300 14/14 A2993 RMK SF1TCU1ACC2CI3 SLP143 DENSITY ALT 1900FT

CYXE;2016-07-02 13:00;CYXE 021300Z 12009KT 15SM FEW018 FEW050TCU BKN140 BKN300 15/14 A2995 RMK SC1TCU1AC4CI1 SLP150 DENSITY ALT 2000FT

CYXE;2016-07-02 14:00;CYXE 021400Z 15008KT 15SM SCT035 BKN060 OVC300 17/15 A2995 RMK SC3SC3CI2 SLP147 DENSITY ALT 2200FT

CYXE;2016-07-02 15:00;CYXE 021500Z 12010KT 15SM FEW012 SCT060 OVC160 18/15 A2994 RMK CF1SC3AC4 SLP146 DENSITY ALT 2300FT

CYXE;2016-07-02 16:00;CYXE 021600Z 13009KT 15SM FEW020 BKN045 OVC150 20/16 A2995 RMK SC2SC4AC2 LTNG DIST SW-NW SLP147 DENSITY ALT 2500FT

CYXE;2016-07-02 16:44;CYXE 021644Z 17007KT 15SM TS SCT017CB BKN050 OVC150 19/16 A2995 RMK CB3SC3AC2 CB S-NW MOVG NE SLP149 DENSITY ALT 2400FT

CYXE;2016-07-02 17:00;CYXE 021700Z 22009KT 15SM TS BKN019CB BKN050 OVC140 19/16 A2995 RMK CB5SC2AC1 CB SW-NW MOVG NE SLP151 DENSITY ALT 2400FT

CYXE;2016-07-02 17:08;CYXE 021708Z 22008KT 15SM -TSRA BKN024CB BKN050 OVC140 18/16 A2996 RMK CB5SC2AC1 CB NW SLP153 DENSITY ALT 2300FT

CYXE;2016-07-02 18:00;CYXE 021800Z VRB03KT 10SM -SHRA BKN030 OVC140 18/17 A2995 RMK SC7AC1 LTNG DIST NE SLP151 DENSITY ALT 2300FT

CYXE;2016-07-02 18:51;CYXE 021851Z 36006KT 15SM -SHRA BKN012 OVC030 18/18 A2996 RMK SC6SC2 SLP155 DENSITY ALT 2300FT

CYXE;2016-07-02 19:00;CYXE 021900Z 02006KT 15SM -SHRA BKN012 OVC030 18/18 A2996 RMK SC6SC2 SLP154 DENSITY ALT 2300FT

CYXE;2016-07-02 19:17;CYXE 021917Z 03009KT 15SM -SHRA SCT012 BKN035 OVC100 18/18 A2995 RMK SC3SC3AC2 CVCTV CLD EMBD SLP152 DENSITY ALT 2300FT

CYXE;2016-07-02 20:00;CYXE 022000Z 09006KT 15SM -SHRA SCT020 OVC090 19/18 A2995 RMK SC3AC5 SLP151 DENSITY ALT 2400FT

CYXE;2016-07-02 20:43;CYXE 022043Z 09009KT 15SM FEW018 BKN085 20/16 A2995 RMK SC2AC5 SLP148 DENSITY ALT 2500FT

CYXE;2016-07-02 21:00;CYXE 022100Z 09008KT 15SM FEW018 BKN080 21/16 A2994 RMK SC2AC5 SLP147 DENSITY ALT 2700FT

CYXE;2016-07-02 22:00;CYXE 022200Z 09012KT 15SM SCT026 BKN087 21/15 A2994 RMK CU4AC3 SLP145 DENSITY ALT 2700FT

CYXE;2016-07-02 23:00;CYXE 022300Z 09011G17KT 15SM SCT032 SCT100 BKN270 23/15 A2991 RMK CU3AC1CI2 SLP136 DENSITY ALT 2900FT

CYXE;2016-07-03 00:00;CYXE 030000Z 11012KT 15SM FEW035 SCT100 BKN270 22/15 A2991 RMK CU2AC2CI3 SLP136 DENSITY ALT 2800FT

CYXE;2016-07-03 01:00;CYXE 030100Z 11010KT 15SM FEW035 BKN078 BKN270 22/15 A2990 RMK CU1AC4CI2 SLP131 DENSITY ALT 2800FT

CYXE;2016-07-03 02:00;CYXE 030200Z 10010KT 15SM FEW080 BKN140 BKN270 21/15 A2988 RMK AC2AC3CI1 SLP125 DENSITY ALT 2700FT

CYXE;2016-07-03 03:00;CYXE 030300Z 09007KT 15SM SCT080 BKN270 19/16 A2987 RMK AC3CI3 SLP120 DENSITY ALT 2500FT

CYXE;2016-07-03 04:00;CYXE 030400Z 08006KT 15SM SCT080 BKN140 BKN270 19/16 A2986 RMK AC4AC1CI2 SLP118 DENSITY ALT 2500FT

CYXE;2016-07-03 05:00;CYXE 030500Z 08006KT 15SM BKN140 BKN270 18/16 A2985 RMK AC5CI2 LTNG DIST SW SLP115 DENSITY ALT 2400FT

CYXE;2016-07-03 06:00;CYXE 030600Z 07006KT 15SM FEW025CB SCT090 OVC220 17/17 A2984 RMK CB1ACC3CI4 LTNG SW SLP110 DENSITY ALT 2400FT

CYXE;2016-07-03 07:00;CYXE 030700Z 07004KT 15SM BKN030 BKN090 OVC220 17/17 A2983 RMK SC5ACC2CI1 CB + LTNG SW-W SLP109 DENSITY ALT 2400FT

CYXE;2016-07-03 08:00;CYXE 030800Z 13007KT 15SM SCT030 BKN100 OVC220 19/17 A2981 RMK SC3ACC3CI2 LTNG DIST SE-SW SLP098 DENSITY ALT 2600FT

CYXE;2016-07-03 09:00;CYXE 030900Z 14006KT 15SM FEW040 BKN120 OVC220 18/18 A2979 RMK SC2ACC4CI2 LTNG DIST SW SLP091 DENSITY ALT 2500FT

CYXE;2016-07-03 10:00;CYXE 031000Z VRB03KT 15SM FEW040CB SCT120 OVC230 17/17 A2977 RMK CB2ACC2CI4 CB + LTNG S SLP088 DENSITY ALT 2400FT

CYXE;2016-07-03 11:00;CYXE 031100Z 11005KT 15SM FEW040CB SCT120 BKN230 16/16 A2976 RMK CB2ACC2CI3 CB + LTNG SE MOVG NE SLP082 DENSITY ALT 2300FT

CYXE;2016-07-03 12:00;CYXE 031200Z 12006KT 15SM FEW010 SCT040CB BKN160 BKN230 17/17 A2976 RMK SC1CB2AC3CI1 CB + LTNG SE MOVG NE SLP082 DENSITY ALT 2400FT

CYXE;2016-07-03 13:00;CYXE 031300Z 12006KT 15SM FEW012 SCT040CB BKN140 BKN220 18/17 A2976 RMK SC1CB2AC2CI1 CB DIST NE AND SE SLP082 DENSITY ALT 2500FT

CYXE;2016-07-03 14:00;CYXE 031400Z 09005KT 15SM FEW012 BKN050 BKN140 19/17 A2975 RMK SF1SC4AC1 SLP078 DENSITY ALT 2600FT

CYXE;2016-07-03 15:00;CYXE 031500Z 13005KT 020V150 15SM 22/15 A2974 RMK SLP073 DENSITY ALT 3000FT

CYXE;2016-07-03 16:00;CYXE 031600Z 13003KT 090V170 15SM FEW020 BKN050 BKN300 23/17 A2973 RMK SC1SC4CI1 SLP071 DENSITY ALT 3100FT

CYXE;2016-07-03 17:00;CYXE 031700Z 12009KT 15SM FEW025 BKN060 BKN300 22/16 A2973 RMK SC2SC4CI1 SLP072 DENSITY ALT 3000FT

CYXE;2016-07-03 18:00;CYXE 031800Z 13008G15KT 080V150 15SM SCT030 BKN060 24/16 A2972 RMK SC3SC4 SLP066 DENSITY ALT 3300FT

CYXE;2016-07-03 19:00;CYXE 031900Z 12011G19KT 070V130 15SM BKN030 BKN050 24/16 A2970 RMK SC5SC2 SLP061 DENSITY ALT 3300FT

CYXE;2016-07-03 20:00;CYXE 032000Z 13012KT 15SM BKN025 BKN050 24/17 A2969 RMK SC6SC1 TCU EMBD SLP058 DENSITY ALT 3300FT

CYXE;2016-07-03 21:00;CYXE 032100Z 11008KT 15SM SCT035TCU BKN300 24/17 A2968 RMK TCU4CI3 SLP053 DENSITY ALT 3300FT

CYXE;2016-07-03 22:00;CYXE 032200Z 12006KT 080V150 15SM SCT040TCU BKN300 26/17 A2966 RMK TCU4CI3 SLP047 DENSITY ALT 3600FT

CYXE;2016-07-03 23:00;CYXE 032300Z 12004KT 090V150 15SM SCT040TCU BKN300 25/16 A2965 RMK TCU4CI3 SLP044 DENSITY ALT 3400FT

CYXE;2016-07-04 00:00;CYXE 040000Z VRB05G15KT 15SM SCT045 BKN300 26/15 A2965 RMK CU4CI3 TCU ASOCTD SLP041 DENSITY ALT 3600FT

CYXE;2016-07-04 01:00;CYXE 040100Z 13006KT 15SM SCT045 BKN300 26/17 A2963 RMK CU3CI3 SLP034 DENSITY ALT 3600FT

CYXE;2016-07-04 02:00;CYXE 040200Z 12005KT 15SM FEW045 BKN300 24/17 A2963 RMK CU2CI3 SLP036 DENSITY ALT 3300FT

CYXE;2016-07-04 03:00;CYXE 040300Z 10008KT 15SM FEW040 BKN300 22/17 A2963 RMK CU2CI3 SLP036 DENSITY ALT 3100FT

CYXE;2016-07-04 03:48;CYXE 040348Z 17006KT 120V190 15SM TS SCT040CB BKN300 21/18 A2964 RMK CB3CI4 LTNG DIST NW SLP039 DENSITY ALT 3000FT

CYXE;2016-07-04 04:00;CYXE 040400Z CCA 34028G41KT 270V350 15SM -TSRA BKN030CB OVC300 18/12 A2966 RMK CB5CI3 LTNG SW-N PRESRR SLP048 DENSITY ALT 2600FT

CYXE;2016-07-04 04:16;CYXE 040416Z 34024G35KT 15SM TSRA OVC030CB 15/14 A2967 RMK CB8 LTNG ALQDS SLP053 DENSITY ALT 2200FT

CYXE;2016-07-04 04:33;CYXE 040433Z 35019G32KT 15SM R09/5500VP6000FT/U -TSRA OVC030CB 14/14 A2969 RMK CB8 LTNG ALQDS PRESRR SLP061 DENSITY ALT 2200FT

CYXE;2016-07-04 04:44;CYXE 040444Z 35019G31KT 15SM TS OVC040CB 15/14 A2970 RMK CB8 LTNG ALQDS PRESRR SLP062 DENSITY ALT 2200FT

CYXE;2016-07-04 05:00;CYXE 040500Z 35018G27KT 15SM TS BKN040CB 15/14 A2970 RMK CB7 LTNG ALQDS SLP064 DENSITY ALT 2200FT

CYXE;2016-07-04 05:05;CYXE 040505Z 35017G27KT 15SM -TSRA BKN040CB 15/13 A2970 RMK CB7 LTNG ALQDS SLP063 DENSITY ALT 2200FT

CYXE;2016-07-04 06:00;CYXE 040600Z 03006KT 330V050 10SM -TSRA OVC055CB 14/14 A2974 RMK CB8 LTGCG VC N SLP077 DENSITY ALT 2100FT

CYXE;2016-07-04 07:00;CYXE 040700Z 09014G19KT 15SM -TSRA SCT055CB OVC080 14/14 A2965 RMK CB4AC4 LTGCG ESE PRESFR SLP046 DENSITY ALT 2200FT

CYXE;2016-07-04 07:25;CYXE 040725Z 07015G30KT 15SM -TSRA FEW055CB BKN090 14/14 A2957 WS RWY09 RMK CB2AC5 PRESFR SLP016 DENSITY ALT 2300FT

CYXE;2016-07-04 07:35;CYXE 040735Z 07017G25KT 15SM SCT090 OVC160 14/14 A2957 WS RWY09 RMK AC4AC4 PRESFR SLP017 DENSITY ALT 2300FT

CYXE;2016-07-04 08:00;CYXE 040800Z VRB15KT 15SM FEW015 OVC160 14/14 A2963 WS RWY09 RMK SC2AC6 PRESRR SLP039 DENSITY ALT 2200FT

CYXE;2016-07-04 09:00;CYXE 040900Z 31013KT 15SM FEW017 OVC240 14/13 A2967 RMK SC1CI7 SLP050 DENSITY ALT 2200FT

CYXE;2016-07-04 10:00;CYXE 041000Z 28006KT 15SM FEW017 SCT160 BKN240 13/13 A2969 RMK SC1AC2CI3 SLP056 DENSITY ALT 2000FT

CYXE;2016-07-04 11:00;CYXE 041100Z 29007KT 15SM FEW006 FEW080 BKN240 12/12 A2969 RMK SF1AC1CI3 SLP059 DENSITY ALT 1900FT

CYXE;2016-07-04 11:09;CYXE 041109Z 29009KT 15SM BKN009 BKN240 13/13 A2970 WS RWY09 RMK SF5CI2 SLP062 DENSITY ALT 2000FT

CYXE;2016-07-04 11:30;CYXE 041130Z 29008KT 15SM SCT009 SCT080 BKN240 14/13 A2970 WS RWY09 RMK SF3AC1CI2 SLP062 DENSITY ALT 2100FT

CYXE;2016-07-04 11:44;CYXE 041144Z 28007KT 15SM BKN008 BKN080 13/13 A2970 RMK SF5AC1 SLP062 DENSITY ALT 2000FT

CYXE;2016-07-04 12:00;CYXE 041200Z 28007KT 15SM BKN008 BKN080 13/13 A2970 WS RWY09 RMK SF6AC1 SLP061 DENSITY ALT 2000FT

CYXE;2016-07-04 12:25;CYXE 041225Z 28008KT 15SM SCT008 SCT080 BKN240 14/14 A2970 RMK SF3AC1CI1 SLP062 DENSITY ALT 2100FT

CYXE;2016-07-04 13:00;CYXE 041300Z 30008KT 15SM FEW008 SCT080 15/14 A2971 RMK SF2AC1 SLP063 DENSITY ALT 2200FT

CYXE;2016-07-04 13:12;CYXE 041312Z 30011KT 15SM BKN009 15/14 A2971 RMK SF5 SLP063 DENSITY ALT 2200FT

CYXE;2016-07-04 14:00;CYXE 041400Z 31009KT 15SM SCT011 BKN100 17/14 A2971 RMK SF4AC1 SLP064 DENSITY ALT 2400FT

CYXE;2016-07-04 14:23;CYXE 041423Z 29012KT 15SM BKN011 16/14 A2972 RMK SC7 SLP069 DENSITY ALT 2300FT

CYXE;2016-07-04 15:00;CYXE 041500Z 30010G15KT 15SM BKN014 16/14 A2973 RMK SC7 SLP073 DENSITY ALT 2300FT

CYXE;2016-07-04 15:51;CYXE 041551Z 29010KT 15SM BKN016 BKN028 17/14 A2973 RMK SC5SC2 SLP073 DENSITY ALT 2400FT

CYXE;2016-07-04 16:00;CYXE 041600Z 31009KT 15SM BKN016 BKN028 17/14 A2973 RMK SC5SC2 SLP075 DENSITY ALT 2500FT

CYXE;2016-07-04 17:00;CYXE 041700Z 29012KT 15SM SCT017 BKN040 18/14 A2974 RMK SC4SC3 SLP079 DENSITY ALT 2600FT

CYXE;2016-07-04 18:00;CYXE 041800Z 29013KT 15SM BKN026 BKN050 19/14 A2974 RMK CU5SC1 SLP080 DENSITY ALT 2700FT

CYXE;2016-07-04 19:00;CYXE 041900Z 29013G20KT 15SM BKN032 20/13 A2974 RMK CU5 SLP079 DENSITY ALT 2800FT

CYXE;2016-07-04 20:00;CYXE 042000Z 31015G21KT 15SM BKN036 21/12 A2975 RMK CU5 SLP080 DENSITY ALT 2900FT

CYXE;2016-07-04 21:00;CYXE 042100Z 32014G22KT 15SM SCT044 SCT270 22/10 A2975 RMK CU3CI1 SLP080 DENSITY ALT 3000FT

CYXE;2016-07-04 22:00;CYXE 042200Z 32012G20KT 15SM SCT048 SCT300 22/10 A2976 RMK CU3CI1 SLP084 DENSITY ALT 2900FT

CYXE;2016-07-04 23:00;CYXE 042300Z 31009G17KT 15SM SCT060 SCT300 22/09 A2976 RMK CU3CI1 SLP084 DENSITY ALT 3000FT

CYXE;2016-07-05 00:00;CYXE 050000Z 32008KT 15SM FEW060 SCT080 SCT320 23/08 A2976 RMK CU2AC1CI1 CB TOPS DIST W SLP083 DENSITY ALT 3000FT

CYXE;2016-07-05 01:00;CYXE 050100Z 32008KT 15SM FEW060 FEW080 SCT320 22/09 A2976 RMK CU1AC1CI1 SLP083 DENSITY ALT 3000FT

CYXE;2016-07-05 02:00;CYXE 050200Z 30005KT 15SM FEW035 SCT110 SCT320 20/12 A2975 RMK CU1AC2CI1 SLP081 DENSITY ALT 2700FT

CYXE;2016-07-05 03:00;CYXE 050300Z 28004KT 15SM FEW110 BKN320 16/14 A2976 RMK AC1CI4 SLP085 DENSITY ALT 2300FT

CYXE;2016-07-05 04:00;CYXE 050400Z 26005KT 15SM FEW110 SCT300 14/13 A2978 RMK AC1CI2 SLP093 DENSITY ALT 2000FT

CYXE;2016-07-05 05:00;CYXE 050500Z 27003KT 15SM FEW120 SCT280 12/12 A2978 RMK AC1CI2 SLP093 DENSITY ALT 1800FT

CYXE;2016-07-05 06:00;CYXE 050600Z 23005KT 15SM FEW120 FEW280 13/13 A2978 RMK AC1CI1 SLP093 DENSITY ALT 1900FT

CYXE;2016-07-05 07:00;CYXE 050700Z 24005KT 15SM FEW280 11/11 A2978 RMK CI2 SLP091 DENSITY ALT 1700FT

CYXE;2016-07-05 08:00;CYXE 050800Z 24003KT 15SM SCT230 11/11 A2977 RMK CI3 SLP090

CYXE;2016-07-05 09:00;CYXE 050900Z 29002KT 15SM FEW100 SCT230 11/11 A2976 RMK AC1CI2 SLP084 DENSITY ALT 1700FT

CYXE;2016-07-05 10:00;CYXE 051000Z 17005KT 15SM SCT100 BKN230 10/10 A2976 RMK AC4CI1 SLP085

CYXE;2016-07-05 11:00;CYXE 051100Z 19006KT 15SM VCSH BKN078 BKN110 12/12 A2976 RMK ACC5AC2 SLP084 DENSITY ALT 1900FT

CYXE;2016-07-05 12:00;CYXE 051200Z 23007KT 15SM VCSH BKN072 BKN110 14/13 A2977 RMK ACC5AC2 SLP088 DENSITY ALT 2000FT

CYXE;2016-07-05 13:00;CYXE 051300Z 33004KT 310V130 15SM VCSH FEW060 BKN085 BKN120 14/14 A2977 RMK SC1ACC4AC2 SLP086 DENSITY ALT 2000FT

CYXE;2016-07-05 13:48;CYXE 051348Z 20004KT 15SM -SHRA BKN076 BKN120 15/15 A2978 RMK AC5AC2 CVCTV CLD EMBD SLP091 DENSITY ALT 2100FT

CYXE;2016-07-05 14:00;CYXE 051400Z 22006KT 15SM -SHRA BKN076 BKN120 15/14 A2978 RMK AC5AC2 CVCTV CLD EMBD SLP092 DENSITY ALT 2100FT

CYXE;2016-07-05 15:00;CYXE 051500Z 22007KT 15SM FEW035 BKN075 BKN120 16/14 A2979 RMK SC2AC3AC2 OCNL -SHRA CVCTV CLD EMBD SLP096 DENSITY ALT 2200FT

CYXE;2016-07-05 15:36;CYXE 051536Z 25007KT 15SM SCT011 BKN070 BKN120 16/14 A2980 RMK SC4AC1AC2 OCNL -SHRA CVCTV CLD EMBD SLP098 DENSITY ALT 2300FT

CYXE;2016-07-05 16:00;CYXE 051600Z 26005KT 15SM -SHRA SCT011 SCT065 BKN110 16/14 A2980 RMK SC3SC1AC3 CVCTV CLD EMBD SLP100 DENSITY ALT 2300FT

CYXE;2016-07-05 16:35;CYXE 051635Z 23002KT 15SM VCSH FEW012 SCT045 BKN100 18/13 A2979 RMK CU2SC2AC3 SLP097 DENSITY ALT 2500FT

CYXE;2016-07-05 17:00;CYXE 051700Z 21004KT 150V260 15SM FEW013 BKN110 19/13 A2979 RMK CU2AC5 SLP096 DENSITY ALT 2600FT

CYXE;2016-07-05 18:00;CYXE 051800Z 26006KT 15SM SCT024 BKN100 BKN220 19/12 A2980 RMK CU4AC2CI1 SLP099 DENSITY ALT 2600FT

CYXE;2016-07-05 19:00;CYXE 051900Z 22005KT 200V310 15SM FEW044 SCT100 BKN230 20/11 A2979 RMK CU2AC1CI2 CB TOP / SH W SLP097 DENSITY ALT 2700FT

CYXE;2016-07-05 20:00;CYXE 052000Z 27007KT 170V320 15SM FEW040TCU BKN230 22/10 A2978 RMK TCU2CI3 CB TOPS/SH NW & SE SLP093 DENSITY ALT 3000FT

CYXE;2016-07-05 20:44;CYXE 052044Z 22008KT 170V300 15SM SCT048TCU BKN240 22/10 A2978 RMK TCU3CI2 SH W+N SLP092 DENSITY ALT 3000FT

CYXE;2016-07-05 21:00;CYXE 052100Z 23007KT 190V280 15SM SCT048TCU BKN240 22/11 A2977 RMK TCU3CI2 CB TOP WNW SH W+N SLP091 DENSITY ALT 3000FT

CYXE;2016-07-05 21:33;CYXE 052133Z 23005KT 15SM -SHRA BKN050TCU BKN280 21/12 A2977 RMK TCU5CI1 SLP089 DENSITY ALT 2800FT

CYXE;2016-07-05 21:42;CYXE 052142Z 25011KT 12SM -TSRA BKN050CB BKN280 19/13 A2977 RMK CB5CI1 LTNG S-W SLP090 DENSITY ALT 2600FT

CYXE;2016-07-05 22:00;CYXE 052200Z 27012G19KT 15SM BKN045CB BKN090 BKN280 16/12 A2978 RMK CB5AC1CI1 LTNG SW SLP098 DENSITY ALT 2200FT

CYXE;2016-07-05 22:29;CYXE 052229Z 28004KT 15SM SCT040CB BKN120 BKN280 17/13 A2979 RMK CB4AC1CI2 CB DIST SE SLP101 DENSITY ALT 2400FT

CYXE;2016-07-05 23:00;CYXE 052300Z 25003KT 230V320 15SM FEW020 SCT040CB BKN120 BKN280 19/12 A2979 RMK CU1CB3AC1CI1 CB S SLP097 DENSITY ALT 2500FT

CYXE;2016-07-06 00:00;CYXE 060000Z 22010G15KT 15SM SCT050TCU BKN120 BKN280 17/12 A2979 RMK TCU4AC1CI2 SLP098 DENSITY ALT 2400FT

CYXE;2016-07-06 01:00;CYXE 060100Z 17004KT 140V210 15SM SCT065TCU SCT120 BKN280 18/12 A2978 RMK TCU3AC1CI2 SLP095 DENSITY ALT 2500FT

CYXE;2016-07-06 02:00;CYXE 060200Z 20007KT 15SM FEW060TCU SCT120 BKN280 19/13 A2978 RMK TCU2AC1CI3 SLP092 DENSITY ALT 2600FT

CYXE;2016-07-06 03:00;CYXE 060300Z 29006KT 15SM SCT040TCU SCT120 BKN280 16/15 A2979 RMK TCU3AC1CI2 SLP096 DENSITY ALT 2300FT

CYXE;2016-07-06 04:00;CYXE 060400Z 25005KT 15SM SCT045 BKN120 BKN280 16/13 A2981 RMK CU4AC1CI2 SLP103 DENSITY ALT 2200FT

CYXE;2016-07-06 05:00;CYXE 060500Z 23006KT 15SM FEW040 SCT080 BKN280 12/10 A2980 RMK CU1AC2CI2 SLP101 DENSITY ALT 1800FT

CYXE;2016-07-06 06:00;CYXE 060600Z 24006KT 15SM FEW030 SCT070 BKN240 12/11 A2980 RMK SC1AC2CI2 SLP101 DENSITY ALT 1800FT

CYXE;2016-07-06 07:00;CYXE 060700Z 21006KT 15SM FEW030 BKN080 14/12 A2980 RMK SC1ACC6 SLP099 DENSITY ALT 1900FT

CYXE;2016-07-06 08:00;CYXE 060800Z 20007KT 15SM FEW030 SCT080 BKN130 12/11 A2978 RMK SC1ACC2AC2 SLP093 DENSITY ALT 1800FT

CYXE;2016-07-06 09:00;CYXE 060900Z 21008KT 15SM FEW030 SCT080 SCT130 12/11 A2977 RMK SC1AC2AC1 SLP090 DENSITY ALT 1800FT

CYXE;2016-07-06 10:00;CYXE 061000Z 22008KT 15SM FEW040 SCT080 12/11 A2977 RMK SC1AC3 SLP091 DENSITY ALT 1800FT

CYXE;2016-07-06 11:00;CYXE 061100Z 22008KT 15SM FEW030 SCT140 11/10 A2977 RMK SC1AC3 SLP090 DENSITY ALT 1700FT

CYXE;2016-07-06 12:00;CYXE 061200Z 22010KT 15SM FEW040 BKN080 12/11 A2977 RMK SC2AC3 SLP092 DENSITY ALT 1800FT

CYXE;2016-07-06 13:00;CYXE 061300Z 24013KT 15SM FEW040 SCT080 13/11 A2978 RMK SC1AC3 SLP092 DENSITY ALT 2000FT

CYXE;2016-07-06 14:00;CYXE 061400Z 23012KT 15SM FEW015 FEW040 SCT080 BKN280 15/12 A2977 RMK CF1SC1AC2CI1 SLP090 DENSITY ALT 2200FT

CYXE;2016-07-06 15:00;CYXE 061500Z 25011KT 15SM SCT014 BKN280 17/13 A2978 RMK SC4CI1 SLP092 DENSITY ALT 2300FT

CYXE;2016-07-06 15:22;CYXE 061522Z 25012KT 15SM BKN014 BKN280 18/13 A2978 RMK SC5CI1 SLP091 DENSITY ALT 2500FT

CYXE;2016-07-06 15:33;CYXE 061533Z 26009G15KT 15SM BKN018 BKN280 17/14 A2977 RMK SC5CI1 SLP091 DENSITY ALT 2400FT

CYXE;2016-07-06 16:00;CYXE 061600Z 26011KT 220V280 15SM BKN024 18/14 A2978 RMK SC7 SLP091 DENSITY ALT 2500FT

CYXE;2016-07-06 16:54;CYXE 061654Z 24012KT 15SM -SHRA BKN021 BKN280 18/13 A2977 RMK SC6CI1 CVCTV CLD EMBD SLP090 DENSITY ALT 2500FT

CYXE;2016-07-06 17:00;CYXE 061700Z 23012KT 15SM -SHRA BKN021 BKN280 17/13 A2978 RMK SC6CI1 CVCTV CLD EMBD SLP093 DENSITY ALT 2400FT

CYXE;2016-07-06 18:00;CYXE 061800Z 27005KT 15SM BKN025 BKN080 15/14 A2978 RMK CU6AC1 SLP096 DENSITY ALT 2200FT

CYXE;2016-07-06 19:00;CYXE 061900Z 28007KT 15SM SCT025 BKN090 BKN280 18/13 A2977 RMK CU3AC2CI1 SLP090 DENSITY ALT 2600FT

CYXE;2016-07-06 20:00;CYXE 062000Z 27009KT 15SM SCT025 BKN100 BKN280 19/13 A2977 RMK CU3AC2CI1 SLP089 DENSITY ALT 2700FT

CYXE;2016-07-06 21:00;CYXE 062100Z 27008KT 15SM SCT025 BKN080 19/14 A2976 RMK CU3AC4 SLP087 DENSITY ALT 2600FT

CYXE;2016-07-06 22:00;CYXE 062200Z 27007KT 240V310 15SM SCT025TCU BKN080 BKN100 20/13 A2976 RMK TCU3AC2AC2 SLP086 DENSITY ALT 2700FT

CYXE;2016-07-06 23:00;CYXE 062300Z 28004KT 240V340 15SM SCT035TCU BKN090 22/12 A2976 RMK TCU4AC3 SLP084 DENSITY ALT 3000FT

CYXE;2016-07-07 00:00;CYXE 070000Z 28008KT 250V320 15SM SCT040 BKN300 22/12 A2975 RMK CU3CI3 SLP082 DENSITY ALT 3000FT

CYXE;2016-07-07 01:00;CYXE 070100Z 30008KT 15SM SCT042TCU BKN300 22/11 A2976 RMK TCU4CI2 SLP083 DENSITY ALT 2900FT

CYXE;2016-07-07 02:00;CYXE 070200Z 31008KT 15SM BKN040TCU BKN220 18/13 A2977 RMK TCU5CI2 SLP090 DENSITY ALT 2400FT

CYXE;2016-07-07 03:00;CYXE 070300Z 27006KT 15SM SCT040TCU BKN110 BKN220 17/13 A2978 RMK TCU4AC1CI1 SLP092 DENSITY ALT 2400FT

CYXE;2016-07-07 04:00;CYXE 070400Z 29005KT 15SM SCT110 SCT220 15/13 A2978 RMK AC3CI1 SLP093 DENSITY ALT 2100FT

CYXE;2016-07-07 05:00;CYXE 070500Z 20005KT 15SM SCT110 13/12 A2978 RMK AC3 SLP094 DENSITY ALT 2000FT

CYXE;2016-07-07 06:00;CYXE 070600Z 28006KT 15SM SCT100 12/12 A2978 RMK AC3 SLP096 DENSITY ALT 1800FT

CYXE;2016-07-07 07:00;CYXE 070700Z 25006KT 15SM FEW100 SCT280 12/12 A2977 RMK AC2CI2 SLP091 DENSITY ALT 1700FT

CYXE;2016-07-07 08:00;CYXE 070800Z 22003KT 15SM SCT100 BKN280 11/11 A2978 RMK AC3CI2 SLP096

CYXE;2016-07-07 09:00;CYXE 070900Z 22006KT 15SM SCT140 BKN280 11/11 A2978 RMK AC4CI3 SLP095 DENSITY ALT 1700FT

CYXE;2016-07-07 10:00;CYXE 071000Z 23003KT 15SM BKN140 BKN280 11/11 A2978 RMK AC5CI1 SLP093 DENSITY ALT 1700FT

CYXE;2016-07-07 11:00;CYXE 071100Z 19005KT 15SM SCT090 SCT280 10/10 A2978 RMK AC3CI1 SLP094

CYXE;2016-07-07 12:00;CYXE 071200Z 23005KT 15SM FEW050 BKN090 BKN280 12/12 A2980 RMK SC1AC4CI1 SLP098 DENSITY ALT 1700FT

CYXE;2016-07-07 13:00;CYXE 071300Z 21004KT 15SM FEW050 SCT090 BKN280 13/13 A2980 RMK SC1AC2CI2 SLP098 DENSITY ALT 1900FT

CYXE;2016-07-07 14:00;CYXE 071400Z 27004KT 15SM SCT100 BKN280 15/14 A2980 RMK AC3CI3 SLP100 DENSITY ALT 2100FT

CYXE;2016-07-07 15:00;CYXE 071500Z VRB02KT 15SM FEW012 BKN280 17/13 A2980 RMK CF1CI5 SLP100 DENSITY ALT 2400FT

CYXE;2016-07-07 16:00;CYXE 071600Z VRB03KT 15SM FEW020 BKN280 19/13 A2981 RMK CU2CI3 SLP101 DENSITY ALT 2500FT

CYXE;2016-07-07 17:00;CYXE 071700Z 21006KT 200V300 15SM SCT028 BKN300 20/13 A2982 RMK CU4CI2 SLP104 DENSITY ALT 2700FT

CYXE;2016-07-07 18:00;CYXE 071800Z 30004KT 260V350 15SM BKN033 BKN300 20/13 A2982 RMK CU5CI2 SLP106 DENSITY ALT 2700FT

CYXE;2016-07-07 19:00;CYXE 071900Z 30006KT 200V360 15SM SCT040 BKN100 BKN300 22/13 A2982 RMK CU4AC1CI1 SLP105 DENSITY ALT 2900FT

CYXE;2016-07-07 20:00;CYXE 072000Z VRB04KT 15SM SCT040 SCT100 BKN300 22/13 A2982 RMK CU3AC1CI1 SLP105 DENSITY ALT 2900FT

CYXE;2016-07-07 21:00;CYXE 072100Z 30007KT 270V330 15SM SCT045 BKN300 23/12 A2981 RMK CU4CI1 SLP103 DENSITY ALT 3000FT

CYXE;2016-07-07 22:00;CYXE 072200Z 26006KT 230V340 15SM FEW051 SCT300 23/09 A2982 RMK CU2CI1 SLP105 DENSITY ALT 3100FT

CYXE;2016-07-07 23:00;CYXE 072300Z 30010KT 250V330 15SM FEW055 SCT300 24/09 A2982 RMK CU2CI1 SLP106 DENSITY ALT 3100FT

CYXE;2016-07-08 00:00;CYXE 080000Z 33008KT 290V350 15SM FEW055TCU SCT100 BKN300 24/11 A2983 RMK TCU2AC2CI1 SLP107 DENSITY ALT 3100FT

CYXE;2016-07-08 01:00;CYXE 080100Z 32004KT 15SM FEW040 BKN090 22/13 A2983 RMK CU1AC6 SLP110 DENSITY ALT 2800FT

CYXE;2016-07-08 02:00;CYXE 080200Z 32006KT 15SM BKN090 BKN300 21/13 A2984 RMK AC5CI1 SLP113 DENSITY ALT 2700FT

CYXE;2016-07-08 03:00;CYXE 080300Z 31006KT 15SM SCT090 BKN300 18/15 A2986 RMK AC4CI1 SLP118 DENSITY ALT 2300FT

CYXE;2016-07-08 04:00;CYXE 080400Z 36002KT 15SM FEW100 15/15 A2987 RMK AC1 SLP123 DENSITY ALT 2100FT

CYXE;2016-07-08 05:00;CYXE 080500Z 11002KT 15SM MIFG FEW100 15/15 A2987 RMK AC1 SLP123 DENSITY ALT 2100FT

CYXE;2016-07-08 06:00;CYXE 080600Z CCA 00000KT 15SM MIFG FEW100 15/14 A2987 RMK AC2 SLP123 DENSITY ALT 2100FT

CYXE;2016-07-08 07:00;CYXE 080700Z 16003KT 15SM MIFG SKC 13/13 A2987 RMK SLP121 DENSITY ALT 1800FT

CYXE;2016-07-08 08:00;CYXE 080800Z 17002KT 15SM SKC 14/14 A2987 RMK SLP123 DENSITY ALT 1900FT

CYXE;2016-07-08 09:00;CYXE 080900Z 11002KT 15SM SKC 13/13 A2988 RMK SLP125 DENSITY ALT 1800FT

CYXE;2016-07-08 10:00;CYXE 081000Z 17005KT 15SM FEW300 12/12 A2988 RMK CI2 SLP126 DENSITY ALT 1700FT

CYXE;2016-07-08 11:00;CYXE 081100Z 00000KT 15SM FEW100 BKN300 12/12 A2989 RMK AC1CI4 SLP127 DENSITY ALT 1700FT

CYXE;2016-07-08 12:00;CYXE 081200Z 17003KT 15SM FEW100 BKN300 13/13 A2989 RMK AC1CI6 SLP129 DENSITY ALT 1800FT

CYXE;2016-07-08 13:00;CYXE 081300Z 21005KT 15SM FEW100 BKN300 16/14 A2990 RMK AC1CI6 SLP130 DENSITY ALT 2100FT

CYXE;2016-07-08 14:00;CYXE 081400Z 17007KT 15SM SCT120 BKN300 19/14 A2990 RMK AC4CI3 SLP128 DENSITY ALT 2500FT

CYXE;2016-07-08 15:00;CYXE 081500Z 18008KT 15SM OVC120 20/13 A2990 RMK AC8 SLP132 DENSITY ALT 2600FT

CYXE;2016-07-08 16:00;CYXE 081600Z 15003KT 15SM SCT090 OVC120 21/14 A2991 RMK AC4AC4 SLP134 DENSITY ALT 2700FT

CYXE;2016-07-08 17:00;CYXE 081700Z 12009KT 15SM BKN090 OVC120 22/13 A2990 RMK AC6AC2 SLP130 DENSITY ALT 2800FT

CYXE;2016-07-08 18:00;CYXE 081800Z 12008KT 15SM BKN090 OVC120 21/14 A2989 RMK AC5AC3 SLP129 DENSITY ALT 2700FT

CYXE;2016-07-08 19:00;CYXE 081900Z 14013KT 15SM SCT090 OVC120 22/13 A2988 RMK AC4AC4 SLP126 DENSITY ALT 2800FT

CYXE;2016-07-08 20:00;CYXE 082000Z 13012KT 15SM OVC100 22/12 A2988 RMK AC8 SLP125 DENSITY ALT 2800FT

CYXE;2016-07-08 21:00;CYXE 082100Z 14014G20KT 15SM VCSH SCT060 OVC100 24/14 A2987 RMK CU4ACC4 SLP123 DENSITY ALT 3000FT

CYXE;2016-07-08 22:00;CYXE 082200Z 14019G29KT 15SM -SHRA SCT040CB BKN100 OVC300 21/16 A2987 RMK CB4ACC2CI2 CB MOVG NE SLP121 DENSITY ALT 2800FT

CYXE;2016-07-08 22:30;CYXE 082230Z 12012G19KT 15SM TS VCSH SCT040CB BKN100 OVC300 20/18 A2987 RMK CB4ACC3CI1 LTNG NW CB MOVG NE SLP123 DENSITY ALT 2600FT

CYXE;2016-07-08 22:52;CYXE 082252Z 13013KT 15SM FEW040CB SCT100 BKN150 BKN300 21/17 A2986 RMK CB2ACC1AC2CI2 CB N MOVG NE SLP120 DENSITY ALT 2800FT

CYXE;2016-07-08 23:00;CYXE 082300Z 13013G18KT 15SM FEW040CB SCT100 BKN150 BKN300 22/16 A2986 RMK CB2ACC1AC2CI2 CB N MOVG NE SLP119 DENSITY ALT 2800FT

CYXE;2016-07-09 00:00;CYXE 090000Z 13015KT 15SM SCT100 BKN150 OVC300 22/17 A2985 RMK ACC3AC4CI1 SLP116 DENSITY ALT 2900FT

CYXE;2016-07-09 01:00;CYXE 090100Z 16009G16KT 15SM FEW060TCU BKN110 OVC300 22/17 A2986 RMK TCU2ACC5CI1 SLP116 DENSITY ALT 2800FT

CYXE;2016-07-09 02:00;CYXE 090200Z 19004KT 15SM BKN100 OVC300 20/16 A2984 RMK ACC6CI2 SLP109 DENSITY ALT 2700FT

CYXE;2016-07-09 03:00;CYXE 090300Z 16005KT 15SM SCT100 BKN160 BKN300 20/15 A2984 RMK ACC4AC2CI1 SLP110 DENSITY ALT 2600FT

CYXE;2016-07-09 04:00;CYXE 090400Z 14005KT 15SM BKN120 20/16 A2986 RMK ACC7 SLP115 DENSITY ALT 2600FT

CYXE;2016-07-09 05:00;CYXE 090500Z 13008KT 15SM BKN120 19/17 A2985 RMK AC7 SLP111 DENSITY ALT 2500FT

CYXE;2016-07-09 06:00;CYXE 090600Z 14005KT 090V160 15SM BKN130 19/17 A2984 RMK AC7 SLP108 DENSITY ALT 2500FT

CYXE;2016-07-09 07:00;CYXE 090700Z 17008KT 15SM BKN140 19/16 A2983 RMK AC7 SLP106 DENSITY ALT 2500FT

CYXE;2016-07-09 08:00;CYXE 090800Z 16014KT 15SM BKN140 BKN240 19/15 A2981 RMK AC5CI2 SLP097 DENSITY ALT 2500FT

CYXE;2016-07-09 09:00;CYXE 090900Z 16011G18KT 15SM SCT140 BKN240 19/15 A2979 RMK AC4CI2 LTNG DIST S SLP091 DENSITY ALT 2600FT

CYXE;2016-07-09 10:00;CYXE 091000Z 16014KT 15SM SCT140 BKN240 17/15 A2980 RMK AC3CI2 SLP096 DENSITY ALT 2400FT

CYXE;2016-07-09 11:00;CYXE 091100Z 13011G17KT 15SM FEW140 BKN240 18/14 A2980 RMK AC2CI3 SLP097 DENSITY ALT 2400FT

CYXE;2016-07-09 12:00;CYXE 091200Z 13007KT 15SM FEW100 BKN270 17/15 A2980 RMK AC2CI3 SLP096 DENSITY ALT 2400FT

CYXE;2016-07-09 13:00;CYXE 091300Z 12007KT 15SM FEW100 BKN270 19/16 A2981 RMK AC1CI5 SLP098 DENSITY ALT 2600FT

CYXE;2016-07-09 14:00;CYXE 091400Z 16004KT 130V200 15SM FEW100 BKN280 20/16 A2981 RMK AC1CI6 SLP097 DENSITY ALT 2700FT

CYXE;2016-07-09 15:00;CYXE 091500Z VRB02KT 15SM FEW100 BKN280 21/16 A2980 RMK AC1CI5 SLP096 DENSITY ALT 2800FT

CYXE;2016-07-09 16:00;CYXE 091600Z VRB03KT 15SM FEW030 SCT280 22/16 A2981 RMK CU2CI2 SLP098 DENSITY ALT 3000FT

CYXE;2016-07-09 17:00;CYXE 091700Z 06004KT 310V120 15SM SCT025 SCT280 23/16 A2982 RMK CU3CI1 SLP099 DENSITY ALT 3000FT

CYXE;2016-07-09 18:00;CYXE 091800Z 01007KT 330V060 15SM SCT030 23/17 A2982 RMK CU4 SLP100 DENSITY ALT 3100FT

CYXE;2016-07-09 19:00;CYXE 091900Z 05007KT 340V090 15SM SCT030 24/16 A2981 RMK CU4 SLP098 DENSITY ALT 3100FT

CYXE;2016-07-09 20:00;CYXE 092000Z 08009KT 040V100 15SM SCT035 26/17 A2981 RMK CU3 SLP096 DENSITY ALT 3300FT

CYXE;2016-07-09 21:00;CYXE 092100Z 08005KT 030V160 15SM SCT040TCU 27/16 A2980 RMK TCU4 SLP093 DENSITY ALT 3500FT

CYXE;2016-07-09 22:00;CYXE 092200Z CCA 05007KT 350V090 15SM VCSH BKN040CB 25/16 A2980 RMK CB6 SLP094 DENSITY ALT 3300FT

CYXE;2016-07-09 22:31;CYXE 092231Z 11008KT 040V130 15SM -SHRA BKN040CB 23/16 A2980 RMK CB6 SLP096 DENSITY ALT 3100FT

CYXE;2016-07-09 22:41;CYXE 092241Z 09014KT 15SM -TSRA BKN040CB 23/16 A2981 RMK CB6 LTNG E SLP097 DENSITY ALT 3000FT

CYXE;2016-07-09 23:00;CYXE 092300Z 08010KT 15SM VCSH SCT040CB BKN300 22/18 A2980 RMK CB3CI3 SLP096 DENSITY ALT 2900FT

CYXE;2016-07-10 00:00;CYXE 100000Z 07012KT 15SM SCT040CB BKN300 24/17 A2980 RMK CB3CI3 SLP094 DENSITY ALT 3100FT

CYXE;2016-07-10 01:00;CYXE 100100Z 07010G17KT 15SM FEW040TCU SCT070 BKN300 23/17 A2979 RMK TCU2ACC2CI3 SLP090 DENSITY ALT 3100FT

CYXE;2016-07-10 02:00;CYXE 100200Z 08010G16KT 15SM VCSH SCT060CB BKN090 OVC300 22/17 A2979 RMK CB3ACC3CI2 LTNG S SLP090 DENSITY ALT 2900FT

CYXE;2016-07-10 03:00;CYXE 100300Z 08007KT 15SM VCSH SCT060CB BKN090 OVC300 21/17 A2980 RMK CB3ACC4CI1 SLP093 DENSITY ALT 2800FT

CYXE;2016-07-10 03:06;CYXE 100306Z 12005KT 070V130 15SM -SHRA SCT060CB BKN090 BKN300 21/17 A2980 RMK CB3ACC3CI1 SLP094 DENSITY ALT 2800FT

CYXE;2016-07-10 03:44;CYXE 100344Z 08007KT 15SM VCSH SCT060TCU BKN090 BKN300 19/18 A2981 RMK TCU3ACC2CI2 SLP099 DENSITY ALT 2600FT

CYXE;2016-07-10 04:00;CYXE 100400Z 09008KT 15SM SCT060TCU SCT090 BKN240 19/18 A2981 RMK TCU3ACC1CI3 SLP097 DENSITY ALT 2600FT

CYXE;2016-07-10 05:00;CYXE 100500Z 10009KT 15SM FEW070 BKN120 BKN220 19/17 A2981 RMK ACC2AC3CI2 SLP096 DENSITY ALT 2600FT

CYXE;2016-07-10 06:00;CYXE 100600Z 10011KT 15SM BKN110 BKN240 19/17 A2979 RMK AC5CI2 SLP092 DENSITY ALT 2600FT

CYXE;2016-07-10 07:00;CYXE 100700Z 11006KT 15SM SCT110 BKN200 18/17 A2978 RMK AC4CI3 SLP089 DENSITY ALT 2500FT

CYXE;2016-07-10 08:00;CYXE 100800Z 09008KT 15SM SCT100 BKN200 18/16 A2977 RMK AC4CI3 SLP084 DENSITY ALT 2500FT

CYXE;2016-07-10 09:00;CYXE 100900Z 10009KT 15SM FEW075 BKN100 18/16 A2975 RMK AC2AC5 SLP076 DENSITY ALT 2500FT

CYXE;2016-07-10 10:00;CYXE 101000Z 09007KT 15SM FEW050 BKN100 18/16 A2974 RMK SC2AC5 SLP073 DENSITY ALT 2500FT

CYXE;2016-07-10 11:00;CYXE 101100Z 07006KT 15SM FEW050 SCT100 16/15 A2972 RMK SC2AC2 SH NE SLP070 DENSITY ALT 2300FT

CYXE;2016-07-10 12:00;CYXE 101200Z 08011G16KT 15SM BKN053 BKN100 17/16 A2973 RMK SC5AC2 SLP069 DENSITY ALT 2400FT

CYXE;2016-07-10 12:51;CYXE 101251Z 12008KT 15SM BKN014 BKN050 OVC100 18/16 A2973 RMK SC6SC1AC1 SLP069 DENSITY ALT 2500FT

CYXE;2016-07-10 13:00;CYXE 101300Z 12009KT 15SM BKN013 BKN050 OVC100 18/16 A2973 RMK SC6SC1AC1 SLP071 DENSITY ALT 2500FT

CYXE;2016-07-10 14:00;CYXE 101400Z 11011KT 15SM OVC013 18/17 A2972 RMK SC8 SLP068 DENSITY ALT 2600FT

CYXE;2016-07-10 15:00;CYXE 101500Z 11008KT 15SM OVC011 18/17 A2973 RMK SC8 SLP070 DENSITY ALT 2600FT

CYXE;2016-07-10 16:00;CYXE 101600Z 11010KT 15SM OVC010 18/17 A2972 RMK SC8 SLP070 DENSITY ALT 2600FT

CYXE;2016-07-10 17:00;CYXE 101700Z 12009KT 15SM BKN014 19/17 A2972 RMK SC7 SLP068 DENSITY ALT 2700FT

CYXE;2016-07-10 18:00;CYXE 101800Z 13003KT 070V180 15SM BKN018 22/17 A2971 RMK SC7 SLP064 DENSITY ALT 3000FT

CYXE;2016-07-10 19:00;CYXE 101900Z VRB02KT 15SM BKN023 22/16 A2970 RMK SC6 SLP062 DENSITY ALT 3000FT

CYXE;2016-07-10 20:00;CYXE 102000Z VRB05KT 15SM BKN030 BKN280 24/16 A2969 RMK SC5CI2 SLP055 DENSITY ALT 3300FT

CYXE;2016-07-10 21:00;CYXE 102100Z 09006KT 050V120 15SM SCT030TCU BKN280 24/17 A2968 RMK TCU4CI3 SLP054 DENSITY ALT 3300FT

CYXE;2016-07-10 22:00;CYXE 102200Z 07004KT 050V140 15SM SCT030CB BKN280 24/16 A2968 RMK CB3CI4 LTNG DIST NW + E SLP053 DENSITY ALT 3300FT

CYXE;2016-07-10 23:00;CYXE 102300Z 21008KT 140V250 15SM SCT035CB OVC280 25/15 A2967 RMK CB3CI5 LTNG DIST W-NW SLP049 DENSITY ALT 3400FT

CYXE;2016-07-11 00:00;CYXE 110000Z 25009KT 15SM SCT040CB OVC280 24/16 A2966 RMK CB3CI5 LTNG DIST NW SLP047 DENSITY ALT 3300FT

CYXE;2016-07-11 00:26;CYXE 110026Z 25011KT 15SM FC SCT040CB OVC280 24/17 A2966 RMK CB3CI5 FC NE SLP046 DENSITY ALT 3300FT

CYXE;2016-07-11 00:39;CYXE 110039Z 26008KT 15SM TS VCSH SCT040CB OVC280 23/16 A2965 RMK CB3CI5 CB N -NE LTNG N SLP045 DENSITY ALT 3200FT

CYXE;2016-07-11 01:00;CYXE 110100Z 30009KT 15SM TS VCSH SCT040CB OVC280 22/16 A2965 RMK CB3CI5 CB N-NE LTNG N SLP046 DENSITY ALT 3100FT

CYXE;2016-07-11 01:29;CYXE 110129Z 01010KT 15SM SCT045CB OVC280 21/15 A2966 RMK CB3CI5 CB + LTNG N-NE SLP047 DENSITY ALT 3000FT

CYXE;2016-07-11 02:00;CYXE 110200Z 04004KT 15SM FEW045CB SCT180 OVC280 21/15 A2966 RMK CB1AC3CI4 CB + LTNG N-NE SLP047 DENSITY ALT 2900FT

CYXE;2016-07-11 03:00;CYXE 110300Z 05006KT 15SM FEW050TCU BKN180 OVC280 18/15 A2967 RMK TCU1AC5CI2 CB + LTNG DIST NE SLP053 DENSITY ALT 2600FT

CYXE;2016-07-11 04:00;CYXE 110400Z 10004KT 15SM FEW060 BKN140 OVC280 18/16 A2967 RMK SC1AC5CI2 SLP052 DENSITY ALT 2600FT

CYXE;2016-07-11 05:00;CYXE 110500Z 11005KT 15SM FEW060 BKN140 BKN280 17/16 A2966 RMK SC1AC5CI1 SLP049 DENSITY ALT 2600FT

CYXE;2016-07-11 06:00;CYXE 110600Z 05006KT 040V100 15SM FEW060 BKN140 17/16 A2964 RMK SC1AC6 SLP041 DENSITY ALT 2600FT

CYXE;2016-07-11 07:00;CYXE 110700Z 12003KT 15SM FEW060 BKN140 16/16 A2963 RMK SC1AC5 SLP037 DENSITY ALT 2400FT

CYXE;2016-07-11 08:00;CYXE 110800Z 08005KT 15SM FEW060 SCT090 16/16 A2963 RMK SC1AC3 SLP038 DENSITY ALT 2400FT

CYXE;2016-07-11 09:00;CYXE 110900Z 01006KT 15SM BKN070 16/16 A2960 RMK AC6 SLP026 DENSITY ALT 2500FT

CYXE;2016-07-11 10:00;CYXE 111000Z 06006KT 15SM BKN070 BKN110 15/15 A2961 RMK AC5AC2 SLP031 DENSITY ALT 2300FT

CYXE;2016-07-11 11:00;CYXE 111100Z 05008KT 15SM FEW020 BKN100 BKN270 16/16 A2961 RMK SF1AC4CI2 SLP029 DENSITY ALT 2400FT

CYXE;2016-07-11 11:15;CYXE 111115Z 04009KT 15SM FEW008 BKN100 BKN270 16/16 A2959 RMK SF2AC4CI1 PRESFR SLP024 DENSITY ALT 2500FT

CYXE;2016-07-11 11:48;CYXE 111148Z 04010G15KT 15SM BKN008 OVC100 16/16 A2959 RMK SC7AC1 SLP023 DENSITY ALT 2500FT

CYXE;2016-07-11 12:00;CYXE 111200Z 04013KT 15SM OVC004 16/16 A2959 RMK SC8 SLP022 DENSITY ALT 2500FT

CYXE;2016-07-11 12:34;CYXE 111234Z 06007KT 15SM SCT004 OVC100 17/17 A2958 RMK SF4AC4 SLP021 DENSITY ALT 2600FT

CYXE;2016-07-11 13:00;CYXE 111300Z 06009KT 15SM FEW004 OVC100 17/17 A2958 RMK SF2AC6 SLP022 DENSITY ALT 2600FT

CYXE;2016-07-11 13:48;CYXE 111348Z 03014KT 15SM BKN008 OVC100 17/15 A2958 RMK SC6AC2 SLP022 DENSITY ALT 2600FT

CYXE;2016-07-11 14:00;CYXE 111400Z 03013KT 15SM OVC007 16/15 A2958 RMK SC8 SLP021 DENSITY ALT 2500FT

CYXE;2016-07-11 14:26;CYXE 111426Z 03013KT 12SM -RA OVC007 16/16 A2958 RMK SC8 SLP021 DENSITY ALT 2500FT

CYXE;2016-07-11 15:00;CYXE 111500Z 01013KT 15SM -RA OVC009 17/16 A2956 RMK SC8 SLP015 DENSITY ALT 2600FT

CYXE;2016-07-11 15:18;CYXE 111518Z 02013KT 15SM OVC012 17/16 A2955 RMK SC8 SLP014 DENSITY ALT 2700FT

CYXE;2016-07-11 16:00;CYXE 111600Z 02018KT 15SM BKN012 19/16 A2953 RMK SC7 SLP004 DENSITY ALT 2900FT

CYXE;2016-07-11 16:53;CYXE 111653Z 02012KT 10SM -RA OVC012 18/17 A2952 RMK SC8 SLP002 DENSITY ALT 2800FT

CYXE;2016-07-11 17:00;CYXE 111700Z 01009G15KT 8SM -RA OVC011 17/17 A2951 RMK SC8 PRESFR SLP998 DENSITY ALT 2700FT

CYXE;2016-07-11 17:27;CYXE 111727Z 02010KT 4SM -RA BR OVC007 17/17 A2950 RMK SC8 SLP996 DENSITY ALT 2700FT

CYXE;2016-07-11 17:55;CYXE 111755Z 03015KT 2SM -RA BR OVC008 17/17 A2949 RMK SC8 SLP991 DENSITY ALT 2700FT

CYXE;2016-07-11 18:00;CYXE 111800Z 04013G19KT 2SM -RA BR OVC006 17/17 A2949 RMK SC8 SLP991 DENSITY ALT 2700FT

CYXE;2016-07-11 18:49;CYXE 111849Z 03017G25KT 4SM -RA BR OVC007 17/17 A2948 RMK SC8 SLP989 DENSITY ALT 2700FT

CYXE;2016-07-11 19:00;CYXE 111900Z 03016G21KT 5SM -RA BR OVC007 17/17 A2947 RMK SC8 SLP987 DENSITY ALT 2700FT

CYXE;2016-07-11 20:00;CYXE 112000Z 04013G21KT 10SM -RA OVC008 17/17 A2948 RMK SC8 SLP991 DENSITY ALT 2700FT

CYXE;2016-07-11 21:00;CYXE 112100Z 04010G16KT 5SM -RA BR OVC009 17/17 A2947 RMK SC8 SLP986 DENSITY ALT 2700FT

CYXE;2016-07-11 22:00;CYXE 112200Z 03018G26KT 10SM -RA OVC007 17/17 A2944 RMK SF8 SLP975 DENSITY ALT 2800FT

CYXE;2016-07-11 22:29;CYXE 112229Z 03022G31KT 12SM SCT008 BKN090 18/17 A2944 RMK SF4AC3 SLP976 DENSITY ALT 2900FT

CYXE;2016-07-11 23:00;CYXE 112300Z 02019G27KT 12SM -RA SCT010 BKN030 OVC090 18/17 A2944 RMK SF4SC3AC1 SLP976 DENSITY ALT 2900FT

CYXE;2016-07-11 23:14;CYXE 112314Z 02019G30KT 5SM -TSRA OVC009CB 18/17 A2945 RMK CB8 LTNG 12NM ESE SLP978 DENSITY ALT 2800FT

CYXE;2016-07-11 23:42;CYXE 112342Z 04017G27KT 5SM -RA BR OVC008 17/17 A2946 RMK SF8 PRESRR SLP985 DENSITY ALT 2700FT

CYXE;2016-07-12 00:00;CYXE 120000Z 02021G29KT 6SM -RA BR BKN008 OVC040 17/17 A2945 RMK SF6SC2 PRESFR SLP979 DENSITY ALT 2700FT

CYXE;2016-07-12 00:35;CYXE 120035Z 02019G27KT 10SM -RA FEW008 SCT020 BKN035 OVC080 17/17 A2946 RMK SF1SF3SC3AC1 SLP982 DENSITY ALT 2700FT

CYXE;2016-07-12 01:00;CYXE 120100Z 03018G26KT 12SM -SHRA BKN009 BKN060 OVC180 17/17 A2946 RMK SF5SC2AC1 SLP982 DENSITY ALT 2800FT

CYXE;2016-07-12 02:00;CYXE 120200Z 03015G22KT 15SM BKN009 OVC050 17/17 A2947 RMK SC7SC1 SLP986 DENSITY ALT 2800FT

CYXE;2016-07-12 03:00;CYXE 120300Z 02014KT 15SM BKN008 OVC025 17/17 A2949 RMK SF7SC1 SLP992 DENSITY ALT 2700FT

CYXE;2016-07-12 03:35;CYXE 120335Z 02015KT 15SM SCT008 OVC022 17/16 A2950 RMK SF4SC4 SLP996 DENSITY ALT 2700FT

CYXE;2016-07-12 04:00;CYXE 120400Z 01013G19KT 15SM FEW008 OVC025 17/16 A2950 RMK SF2SC6 SLP996 DENSITY ALT 2700FT

CYXE;2016-07-12 05:00;CYXE 120500Z 01013G20KT 15SM BKN022 OVC110 17/16 A2950 RMK SC7AC1 SLP994 DENSITY ALT 2700FT

CYXE;2016-07-12 05:16;CYXE 120516Z 36015G20KT 10SM -RA SCT013 OVC025 17/16 A2950 RMK SF3SC5 SLP997 DENSITY ALT 2700FT

CYXE;2016-07-12 06:00;CYXE 120600Z 01010KT 10SM -RA OVC013 16/16 A2950 RMK SC8 CVCTV CLD EMBD SLP997 DENSITY ALT 2600FT

CYXE;2016-07-12 07:00;CYXE 120700Z 01013KT 15SM -SHRA OVC011 16/16 A2951 RMK SC8 CVCTV CLD EMBD SLP000 DENSITY ALT 2600FT

CYXE;2016-07-12 08:00;CYXE 120800Z 01010KT 15SM -SHRA OVC011 16/16 A2951 RMK SC8 CVCTV CLD EMBD SLP999 DENSITY ALT 2500FT

CYXE;2016-07-12 09:00;CYXE 120900Z 01010KT 15SM -SHRA SCT011 OVC037 16/16 A2951 RMK SF4SC4 CVCTV CLD EMBD SLP000 DENSITY ALT 2500FT

CYXE;2016-07-12 10:00;CYXE 121000Z 01011KT 15SM -SHRA SCT011 OVC050 16/16 A2953 RMK SF4SC4 CVCTV CLD EMBD SLP007 DENSITY ALT 2500FT

CYXE;2016-07-12 11:00;CYXE 121100Z 34010KT 15SM -SHRA SCT008 OVC090 15/15 A2952 RMK SF4AC4 CVCTVC CLD EMBD SLP002 DENSITY ALT 2500FT

CYXE;2016-07-12 11:14;CYXE 121114Z 34009KT 15SM -SHRA BKN010 OVC030 15/15 A2952 RMK SF7SC1 CVCTV CLD EMBD SLP003 DENSITY ALT 2500FT

CYXE;2016-07-12 12:00;CYXE 121200Z 34012KT 15SM -SHRA BKN010 OVC034 15/15 A2952 RMK SF6SC2 CVCTV CLD EMBD SLP004 DENSITY ALT 2500FT

CYXE;2016-07-12 12:26;CYXE 121226Z 34010G16KT 15SM -SHRA BKN008 OVC020 16/16 A2952 RMK SF6SC2 CVCTV CLD EMBD SLP005 DENSITY ALT 2500FT

CYXE;2016-07-12 13:00;CYXE 121300Z 34011KT 15SM -SHRA BKN008 OVC024 16/16 A2952 RMK SF6SC2 CVCTV CLD SLP004 DENSITY ALT 2500FT

CYXE;2016-07-12 14:00;CYXE 121400Z 34014G19KT 12SM -RA OVC008 16/16 A2951 RMK SC8 SLP998 DENSITY ALT 2500FT

CYXE;2016-07-12 15:00;CYXE 121500Z 35013G21KT 15SM -RA BKN009 OVC024 16/16 A2953 RMK SC6SC2 SLP007 DENSITY ALT 2600FT

CYXE;2016-07-12 16:00;CYXE 121600Z 34014G19KT 12SM -RA BKN010 OVC025 16/16 A2954 RMK SC6SC2 SLP011 DENSITY ALT 2500FT

CYXE;2016-07-12 17:00;CYXE 121700Z 34015G21KT 15SM -RA BKN012 OVC026 16/16 A2955 RMK SC5SC3 SLP015 DENSITY ALT 2500FT

CYXE;2016-07-12 18:00;CYXE 121800Z 34017KT 12SM -RA BKN014 OVC035 16/16 A2956 RMK SC6SC2 SLP019 DENSITY ALT 2500FT

CYXE;2016-07-12 19:00;CYXE 121900Z 34016G22KT 12SM -RA BKN018 OVC031 16/16 A2959 RMK SC6SC2 SLP026 DENSITY ALT 2500FT

CYXE;2016-07-12 20:00;CYXE 122000Z 33012KT 15SM -RA BKN020 OVC040 17/17 A2961 RMK SC5SC3 SLP033 DENSITY ALT 2600FT

CYXE;2016-07-12 20:46;CYXE 122046Z 33014KT 15SM FEW025 BKN050 OVC090 19/16 A2961 RMK SF1SC5AC2 SLP032 DENSITY ALT 2800FT

CYXE;2016-07-12 21:00;CYXE 122100Z 34018G26KT 15SM FEW025 BKN050 OVC090 19/15 A2961 RMK SF2SC4AC2 SLP032 DENSITY ALT 2800FT

CYXE;2016-07-12 22:00;CYXE 122200Z 34014KT 15SM FEW025 SCT050 BKN090 OVC140 21/15 A2961 RMK SC1SC3AC2AC2 SLP033 DENSITY ALT 3000FT

CYXE;2016-07-12 23:00;CYXE 122300Z 34016KT 15SM FEW030 SCT090 OVC240 22/14 A2962 RMK CU1AC2CS5 SLP036 DENSITY ALT 3100FT

CYXE;2016-07-13 00:00;CYXE 130000Z 33009KT 15SM FEW030 SCT050 OVC240 21/14 A2963 RMK CU1SC3CS4 SLP040 DENSITY ALT 3000FT

CYXE;2016-07-13 01:00;CYXE 130100Z 31008KT 15SM FEW030 FEW050 SCT180 OVC210 21/16 A2964 RMK CU1SC1AC2CI4 SLP044 DENSITY ALT 2900FT

CYXE;2016-07-13 02:00;CYXE 130200Z 30007KT 15SM FEW064 SCT160 OVC210 19/16 A2966 RMK SC2AC2CI4 SLP052 DENSITY ALT 2700FT

CYXE;2016-07-13 03:00;CYXE 130300Z 30009KT 15SM SCT160 BKN230 18/15 A2968 RMK AC3CI4 SLP057 DENSITY ALT 2600FT

CYXE;2016-07-13 04:00;CYXE 130400Z 30009KT 15SM FEW065 BKN230 16/14 A2970 RMK SC1CI5 SLP067 DENSITY ALT 2400FT

CYXE;2016-07-13 05:00;CYXE 130500Z 31011KT 15SM BKN240 16/13 A2972 RMK CI5 SLP072 DENSITY ALT 2300FT

CYXE;2016-07-13 06:00;CYXE 130600Z 30009KT 15SM BKN240 15/14 A2973 RMK CI5 SLP077 DENSITY ALT 2200FT

CYXE;2016-07-13 07:00;CYXE 130700Z 31009KT 15SM BKN240 15/13 A2973 RMK CI6 SLP078 DENSITY ALT 2200FT

CYXE;2016-07-13 08:00;CYXE 130800Z 31008KT 15SM BKN240 14/13 A2974 RMK CI6 SLP080 DENSITY ALT 2100FT

CYXE;2016-07-13 09:00;CYXE 130900Z 30008KT 15SM BKN240 13/13 A2975 RMK CI6 SLP084 DENSITY ALT 1900FT

CYXE;2016-07-13 10:00;CYXE 131000Z 29008KT 15SM BKN240 12/12 A2977 RMK CI5 SLP087 DENSITY ALT 1900FT

CYXE;2016-07-13 11:00;CYXE 131100Z 30009KT 15SM BKN240 12/12 A2979 RMK CI5 SLP095 DENSITY ALT 1800FT

CYXE;2016-07-13 12:00;CYXE 131200Z 30010KT 15SM BKN240 13/12 A2981 RMK CI6 SLP101 DENSITY ALT 1900FT

CYXE;2016-07-13 13:00;CYXE 131300Z 31011KT 15SM BKN280 14/13 A2983 RMK CI7 SLP108 DENSITY ALT 2000FT

CYXE;2016-07-13 14:00;CYXE 131400Z 31010KT 15SM BKN280 17/13 A2985 RMK CI6 SLP113 DENSITY ALT 2300FT

CYXE;2016-07-13 15:00;CYXE 131500Z 33012G20KT 15SM BKN280 19/13 A2986 RMK CI6 SLP118 DENSITY ALT 2600FT

CYXE;2016-07-13 16:00;CYXE 131600Z 32015KT 15SM FEW025 BKN300 21/13 A2987 RMK CU1CI5 SLP122 DENSITY ALT 2700FT

CYXE;2016-07-13 17:00;CYXE 131700Z 33017KT 15SM FEW040 BKN300 22/12 A2988 RMK CU1CI6 SLP124 DENSITY ALT 2800FT

CYXE;2016-07-13 18:00;CYXE 131800Z 33016G24KT 15SM FEW045 BKN300 22/11 A2990 RMK CU2CI5 SLP131 DENSITY ALT 2800FT

CYXE;2016-07-13 19:00;CYXE 131900Z 32017KT 15SM SCT050 BKN300 22/11 A2992 RMK CU3CI4 SLP137 DENSITY ALT 2800FT

CYXE;2016-07-13 20:00;CYXE 132000Z 33016G23KT 15SM SCT045 BKN300 23/11 A2993 RMK CU3CI4 SLP142 DENSITY ALT 2800FT

CYXE;2016-07-13 21:00;CYXE 132100Z 35014G20KT 15SM SCT045 BKN300 23/12 A2994 RMK CU3CI4 SLP145 DENSITY ALT 2900FT

CYXE;2016-07-13 22:00;CYXE 132200Z 34013G20KT 15SM SCT050 BKN230 23/12 A2995 RMK CU4CI3 SLP148 DENSITY ALT 2900FT

CYXE;2016-07-13 23:00;CYXE 132300Z 36012G17KT 15SM SCT050 BKN210 23/11 A2995 RMK CU4CI3 SLP151 DENSITY ALT 2900FT

CYXE;2016-07-14 00:00;CYXE 140000Z 01009KT 15SM FEW050 SCT080 BKN300 22/12 A2996 RMK CU2AC1CI4 SLP153 DENSITY ALT 2700FT

CYXE;2016-07-14 01:00;CYXE 140100Z 34007KT 15SM FEW050 SCT200 BKN300 22/12 A2998 RMK CU2CI2CI3 SLP158 DENSITY ALT 2700FT

CYXE;2016-07-14 02:00;CYXE 140200Z 34004KT 15SM FEW050 FEW080 SCT160 BKN300 20/15 A2999 RMK CU1AC1AC2CI3 SLP162 DENSITY ALT 2500FT

CYXE;2016-07-14 03:00;CYXE 140300Z 34004KT 15SM FEW050 SCT160 BKN300 18/16 A3000 RMK CU1AC2CI4 SLP166 DENSITY ALT 2300FT

CYXE;2016-07-14 04:00;CYXE 140400Z 09003KT 15SM FEW060 SCT080 BKN300 17/14 A3003 RMK SC2AC2CI2 SLP174 DENSITY ALT 2100FT

CYXE;2016-07-14 05:00;CYXE 140500Z 13003KT 120V180 15SM FEW055 SCT075 BKN160 17/15 A3004 RMK SC1AC2AC2 SLP177 DENSITY ALT 2100FT

CYXE;2016-07-14 06:00;CYXE 140600Z 17006KT 15SM SCT080 15/14 A3005 RMK AC3 SLP181 DENSITY ALT 1900FT

CYXE;2016-07-14 07:00;CYXE 140700Z 22005KT 15SM SCT090 15/14 A3005 RMK AC3 SLP183 DENSITY ALT 1800FT

CYXE;2016-07-14 08:00;CYXE 140800Z 07003KT 060V130 15SM BKN070 15/15 A3006 RMK AC6 SLP185 DENSITY ALT 1800FT

CYXE;2016-07-14 09:00;CYXE 140900Z 04003KT 15SM BKN070 14/14 A3006 RMK AC5 SLP187 DENSITY ALT 1700FT

CYXE;2016-07-14 10:00;CYXE 141000Z 06004KT 15SM SCT070 14/14 A3008 RMK AC3 SLP193 DENSITY ALT 1700FT

CYXE;2016-07-14 11:00;CYXE 141100Z 06005KT 15SM FEW070 BKN250 13/13 A3009 RMK AC2CI4 SLP195

CYXE;2016-07-14 12:00;CYXE 141200Z 06004KT 15SM FEW070 OVC250 14/14 A3009 RMK AC1CI7 SLP199

CYXE;2016-07-14 13:00;CYXE 141300Z 06005KT 15SM BKN250 15/15 A3011 RMK CI7 SLP203 DENSITY ALT 1800FT

CYXE;2016-07-14 14:00;CYXE 141400Z 09006KT 15SM FEW080 BKN250 17/13 A3012 RMK AC1CI6 SLP206 DENSITY ALT 2000FT

CYXE;2016-07-14 15:00;CYXE 141500Z 08006KT 020V100 15SM FEW080 BKN250 19/13 A3013 RMK AC1CI6 SLP210 DENSITY ALT 2200FT

CYXE;2016-07-14 16:00;CYXE 141600Z 02007KT 360V090 15SM FEW028 SCT080 BKN250 20/12 A3013 RMK CU2AC2CI3 SLP210 DENSITY ALT 2300FT

CYXE;2016-07-14 17:00;CYXE 141700Z 01009KT 330V050 15SM SCT040 BKN090 21/11 A3014 RMK CU4AC3 SLP212 DENSITY ALT 2400FT

CYXE;2016-07-14 18:00;CYXE 141800Z 02008G15KT 15SM SCT040 BKN090 20/12 A3014 RMK CU3AC4 SLP216 DENSITY ALT 2300FT

CYXE;2016-07-14 19:00;CYXE 141900Z 03009KT 15SM SCT040 BKN080 21/13 A3013 RMK CU3AC2 SLP212 DENSITY ALT 2500FT

CYXE;2016-07-14 20:00;CYXE 142000Z 02011KT 320V030 15SM SCT040 SCT080 BKN300 22/11 A3013 RMK CU3AC1CI3 SLP210 DENSITY ALT 2500FT

CYXE;2016-07-14 21:00;CYXE 142100Z 01006KT 15SM SCT050 BKN300 21/10 A3013 RMK CU3CI4 SLP210 DENSITY ALT 2500FT

CYXE;2016-07-14 22:00;CYXE 142200Z 06010G18KT 15SM SCT050 BKN300 22/13 A3013 RMK CU3CI4 SLP211 DENSITY ALT 2500FT

CYXE;2016-07-14 23:00;CYXE 142300Z 05008KT 030V100 15SM SCT040 BKN300 21/12 A3013 RMK CU3CI4 SLP212 DENSITY ALT 2400FT

CYXE;2016-07-15 00:00;CYXE 150000Z 07007KT 030V110 15SM SCT040 BKN300 22/12 A3013 RMK CU4CI3 SLP211 DENSITY ALT 2500FT

CYXE;2016-07-15 01:00;CYXE 150100Z 05005KT 15SM SCT040TCU BKN300 21/11 A3013 RMK TCU4CI3 SLP212 DENSITY ALT 2400FT

CYXE;2016-07-15 02:00;CYXE 150200Z 04006KT 15SM FEW040TCU FEW080 BKN200 19/12 A3015 RMK TCU1AC1CI3 SLP217 DENSITY ALT 2200FT

CYXE;2016-07-15 03:00;CYXE 150300Z 05004KT 15SM FEW040TCU SCT200 17/12 A3014 RMK TCU1CI3 TCU TR SLP215 DENSITY ALT 1900FT

CYXE;2016-07-15 04:00;CYXE 150400Z 03002KT 15SM FEW090 SCT200 16/12 A3015 RMK AC1CI4 AC TR SLP219 DENSITY ALT 1900FT

CYXE;2016-07-15 05:00;CYXE 150500Z 04002KT 15SM SCT200 15/12 A3016 RMK CI3 SLP220 DENSITY ALT 1700FT

CYXE;2016-07-15 06:00;CYXE 150600Z 01004KT 15SM SCT200 12/12 A3016 RMK CI3 SLP222

CYXE;2016-07-15 07:00;CYXE 150700Z 00000KT 15SM FEW200 12/12 A3016 RMK CI1 SLP224

CYXE;2016-07-15 08:00;CYXE 150800Z 34004KT 15SM FEW200 11/11 A3017 RMK CI1 SLP225

CYXE;2016-07-15 09:00;CYXE 150900Z 36004KT 15SM SKC 10/10 A3017 RMK SLP227

CYXE;2016-07-15 10:00;CYXE 151000Z 01004KT 320V080 15SM FEW200 09/09 A3017 RMK CI1 SLP228

CYXE;2016-07-15 11:00;CYXE 151100Z 00000KT 15SM FEW200 09/09 A3017 RMK CI1 SLP228

CYXE;2016-07-15 12:00;CYXE 151200Z 00000KT 15SM FEW200 10/10 A3017 RMK CI1 SLP227

CYXE;2016-07-15 13:00;CYXE 151300Z VRB02KT 15SM FEW200 13/12 A3018 RMK CI1 SLP228

CYXE;2016-07-15 14:00;CYXE 151400Z 00000KT 15SM FEW300 16/13 A3017 RMK CI1 SLP224 DENSITY ALT 1800FT

CYXE;2016-07-15 15:00;CYXE 151500Z VRB02KT 15SM FEW300 19/12 A3016 RMK CI1 SLP220 DENSITY ALT 2200FT

CYXE;2016-07-15 16:00;CYXE 151600Z VRB03KT 15SM FEW036 21/11 A3015 RMK CU2 SLP216 DENSITY ALT 2400FT

CYXE;2016-07-15 17:00;CYXE 151700Z 00000KT 15SM SCT042 22/12 A3014 RMK CU3 SLP214 DENSITY ALT 2500FT

CYXE;2016-07-15 18:00;CYXE 151800Z 08006KT 030V090 15SM SCT048 21/09 A3013 RMK CU4 SLP214 DENSITY ALT 2400FT

CYXE;2016-07-15 19:00;CYXE 151900Z VRB02KT 15SM SCT052 22/09 A3013 RMK CU4 SLP210 DENSITY ALT 2600FT

CYXE;2016-07-15 20:00;CYXE 152000Z 08007KT 050V130 15SM SCT060 SCT090 24/09 A3011 RMK CU3AC1 SLP206 DENSITY ALT 2800FT

CYXE;2016-07-15 21:00;CYXE 152100Z VRB03KT 15SM SCT060 SCT090 24/09 A3010 RMK CU3AC1 SLP201 DENSITY ALT 2800FT

CYXE;2016-07-15 22:00;CYXE 152200Z 16003KT 130V210 15SM SCT060 SCT100 23/10 A3008 RMK CU3AC1 SLP195 DENSITY ALT 2800FT

CYXE;2016-07-15 23:00;CYXE 152300Z 23003KT 160V270 15SM FEW060 SCT100 BKN300 23/09 A3006 RMK CU2AC2CI2 SLP189 DENSITY ALT 2800FT

CYXE;2016-07-16 00:00;CYXE 160000Z 19004KT 070V220 15SM FEW060 SCT120 BKN300 24/09 A3005 RMK CU2AC1CI2 SLP183 DENSITY ALT 2800FT

CYXE;2016-07-16 01:00;CYXE 160100Z 18004KT 160V220 15SM FEW050 SCT300 23/10 A3003 RMK CU2CI2 SLP175 DENSITY ALT 2800FT

CYXE;2016-07-16 02:00;CYXE 160200Z 16004KT 15SM FEW050 FEW220 22/11 A3002 RMK CF1CI1 CF TR SLP173 DENSITY ALT 2700FT

CYXE;2016-07-16 03:00;CYXE 160300Z 16005KT 080V170 15SM FEW090 19/11 A3002 RMK AC1 SLP172 DENSITY ALT 2300FT

CYXE;2016-07-16 04:00;CYXE 160400Z 17004KT 15SM FEW090 18/10 A3003 RMK AC1 SLP175 DENSITY ALT 2200FT

CYXE;2016-07-16 05:00;CYXE 160500Z 00000KT 15SM FEW090 17/10 A3003 RMK AC1 AC TR SLP175 DENSITY ALT 2000FT

CYXE;2016-07-16 06:00;CYXE 160600Z 22003KT 15SM SKC 15/12 A3002 RMK SLP172 DENSITY ALT 1900FT

CYXE;2016-07-16 07:00;CYXE 160700Z 31002KT 15SM SKC 14/12 A3002 RMK SLP172 DENSITY ALT 1700FT

CYXE;2016-07-16 08:00;CYXE 160800Z 03003KT 15SM FEW012 12/11 A2999 RMK ST1 SLP163

CYXE;2016-07-16 08:23;CYXE 160823Z 00000KT 15SM FEW005 12/12 A2998 RMK ST1 SLP161

CYXE;2016-07-16 09:00;CYXE 160900Z 15002KT 15SM FEW005 12/12 A2998 RMK ST1 SLP159

CYXE;2016-07-16 10:00;CYXE 161000Z 00000KT 15SM SKC 12/12 A2997 RMK SLP158

CYXE;2016-07-16 11:00;CYXE 161100Z 26004KT 15SM BCFG FEW030 FEW210 09/09 A2998 RMK ST1CI1 SLP161

CYXE;2016-07-16 12:00;CYXE 161200Z 28002KT 15SM FEW030 FEW210 10/10 A2997 RMK SC1CI1 SLP158

CYXE;2016-07-16 13:00;CYXE 161300Z 00000KT 15SM FEW210 15/14 A2996 RMK CI1 SLP152 DENSITY ALT 1900FT

CYXE;2016-07-16 14:00;CYXE 161400Z 26003KT 210V290 15SM FEW250 17/14 A2995 RMK CI2 SLP148 DENSITY ALT 2200FT

CYXE;2016-07-16 15:00;CYXE 161500Z 26005KT 15SM FEW250 20/13 A2995 RMK CI2 SLP148 DENSITY ALT 2500FT

CYXE;2016-07-16 16:00;CYXE 161600Z 24005KT 210V280 15SM FEW040 SCT250 21/11 A2994 RMK CU1CI2 SLP144 DENSITY ALT 2700FT

CYXE;2016-07-16 17:00;CYXE 161700Z VRB02KT 15SM SCT040 BKN250 22/12 A2992 RMK CU3CI2 SLP138 DENSITY ALT 2800FT

CYXE;2016-07-16 18:00;CYXE 161800Z VRB03KT 15SM SCT048 SCT080 BKN250 24/11 A2991 RMK CU3AC1CI2 SLP134 DENSITY ALT 3000FT

CYXE;2016-07-16 19:00;CYXE 161900Z 25007KT 210V280 15SM FEW048 SCT100 BKN250 23/11 A2990 RMK CU2AC1CI4 SLP132 DENSITY ALT 2900FT

CYXE;2016-07-16 20:00;CYXE 162000Z 27007KT 15SM SCT048 SCT100 BKN250 24/12 A2989 RMK CU3AC1CI3 SLP130 DENSITY ALT 3000FT

CYXE;2016-07-16 21:00;CYXE 162100Z 26006KT 15SM SCT050 SCT100 BKN250 25/11 A2988 RMK CU3AC1CI3 SLP124 DENSITY ALT 3100FT

CYXE;2016-07-16 22:00;CYXE 162200Z 27007KT 220V280 15SM FEW050 SCT100 BKN300 24/11 A2987 RMK CU2AC2CI3 SLP122 DENSITY ALT 3100FT

CYXE;2016-07-16 23:00;CYXE 162300Z 30010KT 15SM SCT050 SCT100 BKN300 24/10 A2985 RMK CU3AC1CI2 SLP117 DENSITY ALT 3100FT

CYXE;2016-07-17 00:00;CYXE 170000Z 30009KT 15SM SCT060 BKN300 24/11 A2985 RMK CU3CI2 SLP115 DENSITY ALT 3100FT

CYXE;2016-07-17 01:00;CYXE 170100Z 28005KT 15SM FEW060 FEW110 SCT300 24/13 A2985 RMK CU1AC1CI1 SLP114 DENSITY ALT 3100FT

CYXE;2016-07-17 02:00;CYXE 170200Z 26005KT 15SM FEW060TCU FEW110 SCT300 22/14 A2986 RMK TCU1AC1CI1 TCU SW SLP115 DENSITY ALT 2800FT

CYXE;2016-07-17 03:00;CYXE 170300Z 27009G16KT 15SM FEW110 FEW300 19/14 A2986 RMK AC1CI1 SLP115 DENSITY ALT 2500FT

CYXE;2016-07-17 04:00;CYXE 170400Z 26008KT 15SM FEW120 16/14 A2986 RMK AC2 SLP118 DENSITY ALT 2200FT

CYXE;2016-07-17 05:00;CYXE 170500Z 26007KT 15SM SCT110 15/14 A2987 RMK AC3 SLP120 DENSITY ALT 2100FT

CYXE;2016-07-17 06:00;CYXE 170600Z 31006KT 15SM FEW060 SCT110 16/15 A2988 RMK SC1AC3 SLP122 DENSITY ALT 2200FT

CYXE;2016-07-17 07:00;CYXE 170700Z 25004KT 15SM BKN100 15/13 A2986 RMK AC6 SLP119 DENSITY ALT 2100FT

CYXE;2016-07-17 08:00;CYXE 170800Z 31012KT 15SM SCT120 17/12 A2985 RMK AC4 SLP112 DENSITY ALT 2300FT

CYXE;2016-07-17 09:00;CYXE 170900Z 26007KT 15SM BKN130 16/13 A2985 RMK AC6 SLP112 DENSITY ALT 2100FT

CYXE;2016-07-17 10:00;CYXE 171000Z 27005KT 15SM BKN100 15/14 A2986 RMK AC5 SLP116 DENSITY ALT 2100FT

CYXE;2016-07-17 11:00;CYXE 171100Z 31005KT 15SM BKN100 13/13 A2986 RMK AC5 SLP119 DENSITY ALT 1900FT

CYXE;2016-07-17 12:00;CYXE 171200Z 26004KT 15SM SCT120 14/13 A2989 RMK AC3 SLP126 DENSITY ALT 1900FT

CYXE;2016-07-17 13:00;CYXE 171300Z 29004KT 15SM FEW140 16/14 A2989 RMK AC2 SLP127 DENSITY ALT 2100FT

CYXE;2016-07-17 14:00;CYXE 171400Z 29003KT 240V320 15SM SCT120 18/15 A2991 RMK AC3 SLP132 DENSITY ALT 2300FT

CYXE;2016-07-17 15:00;CYXE 171500Z 26004KT 240V310 15SM SCT100 BKN280 19/15 A2991 RMK AC3CI2 SLP135 DENSITY ALT 2500FT

CYXE;2016-07-17 16:00;CYXE 171600Z VRB02KT 15SM BKN110 BKN280 20/15 A2992 RMK AC6CI1 FU SLP139 DENSITY ALT 2600FT

CYXE;2016-07-17 17:00;CYXE 171700Z 27005KT 250V050 15SM SCT110 BKN280 22/15 A2993 RMK AC4CI2 FU SLP141 DENSITY ALT 2800FT

CYXE;2016-07-17 18:00;CYXE 171800Z 31006KT 270V340 15SM FEW040 SCT110 BKN280 23/13 A2993 RMK CU2AC2CI1 FU SLP142 DENSITY ALT 2900FT

CYXE;2016-07-17 19:00;CYXE 171900Z 33008G15KT 300V010 15SM FEW034TCU BKN090 BKN280 24/15 A2994 RMK TCU2AC3CI2 FU SLP144 DENSITY ALT 3000FT

CYXE;2016-07-17 20:00;CYXE 172000Z 36006KT 320V030 12SM FEW035TCU SCT280 23/15 A2995 RMK TCU2CI1 FU SLP145 DENSITY ALT 2900FT

CYXE;2016-07-17 21:00;CYXE 172100Z 35007KT 330V090 15SM FEW040TCU SCT280 24/13 A2995 RMK TCU2CI2 SLP145 DENSITY ALT 3000FT

CYXE;2016-07-17 22:00;CYXE 172200Z 36018G23KT 15SM BKN050TCU 22/13 A2997 RMK TCU6 PRESRR SLP156 DENSITY ALT 2800FT

CYXE;2016-07-17 23:00;CYXE 172300Z 35007KT 15SM FEW050TCU SCT140 BKN280 22/13 A2998 RMK TCU1AC3CI1 FU TCU S SLP161 DENSITY ALT 2700FT

CYXE;2016-07-18 00:00;CYXE 180000Z 36007KT 15SM FEW075 SCT140 BKN280 23/13 A2999 RMK CU2AC2CI1 FU SLP161 DENSITY ALT 2800FT

CYXE;2016-07-18 01:00;CYXE 180100Z 36005KT 15SM FEW075 BKN120 22/13 A2999 RMK CU1AC4 SLP161 DENSITY ALT 2700FT

CYXE;2016-07-18 02:00;CYXE 180200Z 02004KT 15SM BKN090 21/14 A3000 RMK AC6 SLP164 DENSITY ALT 2600FT

CYXE;2016-07-18 03:00;CYXE 180300Z 27005KT 15SM SCT130 19/15 A3002 RMK AC4 SLP172 DENSITY ALT 2300FT

CYXE;2016-07-18 04:00;CYXE 180400Z 29005KT 15SM FEW120 SCT280 16/14 A3004 RMK AC1CI2 SLP179 DENSITY ALT 2000FT

CYXE;2016-07-18 05:00;CYXE 180500Z 30006KT 15SM FEW120 FEW280 14/14 A3004 RMK AC1CI1 SLP180 DENSITY ALT 1700FT

CYXE;2016-07-18 06:00;CYXE 180600Z 24002KT 15SM FEW110 FEW280 14/14 A3005 RMK AC1CI1 SLP181 DENSITY ALT 1800FT

CYXE;2016-07-18 07:00;CYXE 180700Z 19003KT 15SM FEW280 15/14 A3005 RMK CI1 SLP182 DENSITY ALT 1800FT

CYXE;2016-07-18 08:00;CYXE 180800Z 24004KT 15SM MIFG FEW280 13/13 A3006 RMK CI1 SLP188

CYXE;2016-07-18 09:00;CYXE 180900Z 22002KT 15SM MIFG SCT100 BKN280 12/12 A3007 RMK AC3CI2 SLP191

CYXE;2016-07-18 10:00;CYXE 181000Z 21003KT 15SM MIFG FEW050 SCT100 SCT280 13/13 A3008 RMK SC2AC1CI1 SLP194

CYXE;2016-07-18 11:00;CYXE 181100Z 20003KT 15SM MIFG FEW050 FEW100 SCT280 13/13 A3008 RMK SC1AC1CI1 SLP195

CYXE;2016-07-18 12:00;CYXE 181200Z CCA 16002KT 15SM MIFG FEW050 FEW280 12/12 A3009 RMK SC1CI1 SLP196

CYXE;2016-07-18 13:00;CYXE 181300Z 00000KT 15SM FEW050 FEW280 16/16 A3009 RMK SC1CI1 SLP195 DENSITY ALT 1900FT

CYXE;2016-07-18 14:00;CYXE 181400Z VRB02KT 10SM SKC 18/15 A3009 RMK HZ SLP195 DENSITY ALT 2200FT

CYXE;2016-07-18 15:00;CYXE 181500Z 00000KT 12SM SKC 20/15 A3008 RMK HZ SLP193 DENSITY ALT 2400FT

CYXE;2016-07-18 16:00;CYXE 181600Z 21006KT 170V280 12SM SKC 22/15 A3009 RMK HZ SLP197 DENSITY ALT 2600FT

CYXE;2016-07-18 17:00;CYXE 181700Z 24005KT 190V290 10SM FEW036 23/14 A3009 RMK CU1 SLP198 DENSITY ALT 2800FT

CYXE;2016-07-18 18:00;CYXE 181800Z 24004KT 110V280 12SM FEW044 24/13 A3008 RMK CU1 HZ SLP193 DENSITY ALT 2800FT

CYXE;2016-07-18 19:00;CYXE 181900Z 00000KT 15SM FEW048 25/13 A3008 RMK CU1 SLP190 DENSITY ALT 3000FT

CYXE;2016-07-18 20:00;CYXE 182000Z 25006KT 100V270 15SM SCT050 26/14 A3006 RMK CU4 SLP185 DENSITY ALT 3100FT

CYXE;2016-07-18 21:00;CYXE 182100Z 24006KT 210V320 15SM SCT055 27/14 A3005 RMK CU4 SLP182 DENSITY ALT 3200FT

CYXE;2016-07-18 22:00;CYXE 182200Z 20008KT 15SM SCT058 28/14 A3004 RMK CU3 SLP177 DENSITY ALT 3300FT

CYXE;2016-07-18 23:00;CYXE 182300Z 24008KT 170V260 15SM FEW060 28/13 A3002 RMK CU2 SLP170 DENSITY ALT 3300FT

CYXE;2016-07-19 00:00;CYXE 190000Z 20008KT 15SM FEW060 28/13 A3000 RMK CU1 SLP165 DENSITY ALT 3300FT

CYXE;2016-07-19 01:00;CYXE 190100Z 18008KT 15SM FEW060 27/14 A2999 RMK CU1 SLP160 DENSITY ALT 3300FT

CYXE;2016-07-19 02:00;CYXE 190200Z 19007KT 15SM FEW060 26/15 A2998 RMK CU1 SLP153 DENSITY ALT 3200FT

CYXE;2016-07-19 03:00;CYXE 190300Z 17007KT 15SM FEW060 FEW280 23/16 A2997 RMK CU1CI1 SLP152 DENSITY ALT 2900FT

CYXE;2016-07-19 04:00;CYXE 190400Z 16008KT 15SM FEW100 BKN280 22/16 A2998 RMK AC2CI3 SLP153 DENSITY ALT 2800FT

CYXE;2016-07-19 05:00;CYXE 190500Z 17009KT 15SM FEW100 BKN280 21/16 A2997 RMK AC2CI5 SLP152 DENSITY ALT 2700FT

CYXE;2016-07-19 06:00;CYXE 190600Z 18009KT 15SM FEW100 BKN280 21/16 A2997 RMK AC1CI6 SLP152 DENSITY ALT 2600FT

CYXE;2016-07-19 07:00;CYXE 190700Z 18009KT 15SM FEW020 FEW140 BKN280 21/15 A2996 RMK SC1AC1CI5 LTNG DIST SW SLP148 DENSITY ALT 2600FT

CYXE;2016-07-19 08:00;CYXE 190800Z 19008KT 15SM FEW020CB BKN110 OVC280 21/15 A2998 RMK CB2AC4CI2 LTNG SW SLP152 DENSITY ALT 2600FT

CYXE;2016-07-19 08:09;CYXE 190809Z 20006KT 15SM TS SCT020CB BKN110 OVC280 21/15 A2998 RMK CB3AC3CI2 SLP152 DENSITY ALT 2600FT

CYXE;2016-07-19 08:17;CYXE 190817Z 27018G30KT 190V280 15SM -TSRA SCT020CB BKN110 OVC280 20/15 A3004 RMK CB4AC3CI1 PRESRR SLP173 DENSITY ALT 2400FT

CYXE;2016-07-19 09:00;CYXE 190900Z VRB03KT 15SM -TSRA SCT020CB BKN100 OVC280 16/15 A2997 RMK CB3AC3CI2 PRESFR SLP153 DENSITY ALT 2000FT

CYXE;2016-07-19 09:46;CYXE 190946Z 14005KT 15SM FEW050 BKN110 OVC280 16/16 A2997 RMK SC2AC3CI3 SLP151 DENSITY ALT 2000FT

CYXE;2016-07-19 10:00;CYXE 191000Z 13004KT 15SM SCT050 BKN110 OVC220 16/16 A2995 RMK SC3AC2CI3 PRESFR SLP143 DENSITY ALT 2100FT

CYXE;2016-07-19 11:00;CYXE 191100Z VRB02KT 15SM SCT050 BKN100 OVC280 17/16 A2986 RMK SC3AC3CI2 PRESRR SLP113 DENSITY ALT 2200FT

CYXE;2016-07-19 12:00;CYXE 191200Z 30002KT 15SM FEW050 BKN100 OVC280 15/15 A2987 RMK SC2AC3CI3 SLP119 DENSITY ALT 2000FT

CYXE;2016-07-19 13:00;CYXE 191300Z 07004KT 15SM FEW050 SCT280 16/16 A2986 RMK SC1CI2 SLP114 DENSITY ALT 2200FT

CYXE;2016-07-19 14:00;CYXE 191400Z VRB02KT 15SM FEW100 FEW280 21/18 A2988 RMK AC1CI1 SLP119 DENSITY ALT 2700FT

CYXE;2016-07-19 15:00;CYXE 191500Z 20007KT 15SM FEW100 23/17 A2989 RMK AC1 SLP122 DENSITY ALT 3000FT

CYXE;2016-07-19 16:00;CYXE 191600Z 20007KT 15SM SKC 24/17 A2988 RMK SLP120 DENSITY ALT 3100FT

CYXE;2016-07-19 17:00;CYXE 191700Z 24005KT 180V260 15SM SKC 24/18 A2987 RMK SLP117 DENSITY ALT 3100FT

CYXE;2016-07-19 18:00;CYXE 191800Z 27005KT 230V310 15SM SKC 26/18 A2986 RMK SLP113 DENSITY ALT 3300FT

CYXE;2016-07-19 19:00;CYXE 191900Z 29007KT 230V300 15SM FEW038 27/18 A2986 RMK CU1 CU TR SLP110 DENSITY ALT 3500FT

CYXE;2016-07-19 20:00;CYXE 192000Z 25005KT 220V310 15SM FEW038 FEW170 28/19 A2985 RMK CU1AC1 CU TR AC TR SLP106 DENSITY ALT 3600FT

CYXE;2016-07-19 21:00;CYXE 192100Z 22006KT 190V270 15SM FEW048 29/17 A2984 RMK CU1 SLP106 DENSITY ALT 3700FT

CYXE;2016-07-19 22:00;CYXE 192200Z 25004KT 210V280 15SM FEW055 FEW300 29/15 A2982 RMK CU1CI1 SLP101 DENSITY ALT 3700FT

CYXE;2016-07-19 23:00;CYXE 192300Z 26006KT 15SM FEW050 BKN150 BKN300 27/17 A2981 RMK CU1AC4CI1 MAMMATUS SLP097 DENSITY ALT 3400FT

CYXE;2016-07-20 00:00;CYXE 200000Z 25005KT 15SM FEW050CB BKN150 BKN300 27/18 A2980 RMK CB1AC4CI2 CB DIST SW MAMMATUS SLP094 DENSITY ALT 3500FT

CYXE;2016-07-20 01:00;CYXE 200100Z 26005KT 15SM FEW050 BKN130 BKN300 27/18 A2979 RMK CF1AC4CI1 SH SE-S + W CB TOP DIST S SLP092 DENSITY ALT 3500FT

CYXE;2016-07-20 02:00;CYXE 200200Z 23007KT 15SM FEW050TCU SCT130 BKN300 27/19 A2978 RMK TCU2AC1CI3 SLP086 DENSITY ALT 3500FT

CYXE;2016-07-20 03:00;CYXE 200300Z 23009KT 15SM FEW050TCU SCT130 BKN300 23/19 A2977 RMK TCU2AC1CI3 SLP083 DENSITY ALT 3100FT

CYXE;2016-07-20 04:00;CYXE 200400Z 22008KT 15SM FEW050 SCT300 21/18 A2979 RMK CU1CI2 SLP090 DENSITY ALT 2800FT

CYXE;2016-07-20 05:00;CYXE 200500Z 23008KT 15SM FEW130 SCT300 19/17 A2980 RMK AC1CI2 SLP092 DENSITY ALT 2600FT

CYXE;2016-07-20 06:00;CYXE 200600Z 20007KT 15SM FEW300 18/17 A2979 RMK CI2 SLP091 DENSITY ALT 2500FT

CYXE;2016-07-20 07:00;CYXE 200700Z 21008KT 15SM SCT300 18/17 A2983 RMK CI3 PRESRR SLP102 DENSITY ALT 2500FT

CYXE;2016-07-20 08:00;CYXE 200800Z 24006KT 15SM BKN280 16/16 A2983 RMK CI6 SLP103 DENSITY ALT 2200FT

CYXE;2016-07-20 09:00;CYXE 200900Z 24006KT 15SM BKN280 16/15 A2982 RMK CI7 SLP101 DENSITY ALT 2200FT

CYXE;2016-07-20 10:00;CYXE 201000Z 19008KT 15SM SCT120 17/14 A2984 RMK AC4 SLP106 DENSITY ALT 2300FT

CYXE;2016-07-20 11:00;CYXE 201100Z 20007KT 15SM FEW120 16/14 A2983 RMK AC2 SLP103 DENSITY ALT 2200FT

CYXE;2016-07-20 12:00;CYXE 201200Z 22007KT 15SM FEW040TCU FEW120 17/14 A2982 RMK TCU1AC1 SLP100 DENSITY ALT 2300FT

CYXE;2016-07-20 12:48;CYXE 201248Z 22007KT 15SM FEW040TCU FEW120 17/15 A2981 WS RWY27 RMK TCU1AC1 SLP096 DENSITY ALT 2400FT

CYXE;2016-07-20 13:00;CYXE 201300Z 24007KT 15SM FEW040TCU FEW120 18/15 A2981 WS RWY27 RMK TCU1AC1 SLP096 DENSITY ALT 2500FT

CYXE;2016-07-20 14:00;CYXE 201400Z 22014KT 15SM FEW100 FEW200 20/14 A2980 RMK AC1CI1 AC TR CI TR SLP092 DENSITY ALT 2700FT

CYXE;2016-07-20 15:00;CYXE 201500Z 23012KT 15SM FEW020 FEW200 21/15 A2979 RMK CU1CI1 CU TR CI TR SLP089 DENSITY ALT 2900FT

CYXE;2016-07-20 16:00;CYXE 201600Z 23014KT 15SM FEW036 FEW100 FEW240 22/14 A2978 RMK CU1AC1CI1 CU TR AC TR SLP088 DENSITY ALT 3000FT

CYXE;2016-07-20 17:00;CYXE 201700Z 23016G23KT 15SM FEW040 FEW100 FEW200 24/14 A2978 RMK CU1AC1CI1 CU TR AC TR SLP087 DENSITY ALT 3200FT

CYXE;2016-07-20 18:00;CYXE 201800Z 24019G24KT 15SM FEW040 FEW100 SCT240 25/15 A2980 RMK CU1AC1CI1 CU TR AC TR SLP092 DENSITY ALT 3300FT

CYXE;2016-07-20 19:00;CYXE 201900Z 26017G24KT 15SM FEW044 FEW240 27/15 A2980 RMK CU1CI1 CU TR SLP092 DENSITY ALT 3500FT

CYXE;2016-07-20 20:00;CYXE 202000Z 27019G24KT 15SM FEW052 FEW240 28/15 A2980 RMK CU1CI1 CU TR SLP093 DENSITY ALT 3600FT

CYXE;2016-07-20 21:00;CYXE 202100Z 25021KT 15SM FEW056 FEW240 28/14 A2978 RMK CU1CI1 SLP088 DENSITY ALT 3600FT

CYXE;2016-07-20 22:00;CYXE 202200Z 26020G26KT 15SM FEW056 FEW240 28/15 A2979 RMK CU1CI1 CB TOPS DIST NW SLP089 DENSITY ALT 3600FT

CYXE;2016-07-20 23:00;CYXE 202300Z 26019G26KT 15SM SCT056TCU SCT280 27/15 A2980 RMK TCU3CI1 CB TOPS DIST NW SLP094 DENSITY ALT 3500FT

CYXE;2016-07-21 00:00;CYXE 210000Z 27014KT 15SM FEW056 SCT280 27/14 A2982 RMK FU2CI1 SLP099 DENSITY ALT 3400FT

CYXE;2016-07-21 01:00;CYXE 210100Z 27009G16KT 15SM FEW056TCU SCT280 25/15 A2982 RMK TCU1CI3 SLP102 DENSITY ALT 3300FT

CYXE;2016-07-21 02:00;CYXE 210200Z 28007KT 15SM FEW056TCU BKN280 23/15 A2982 RMK TCU1CI5 TCU E SLP102 DENSITY ALT 3000FT

CYXE;2016-07-21 03:00;CYXE 210300Z 28005KT 260V340 15SM FEW100 BKN280 20/17 A2983 RMK CC2CI4 SLP106 DENSITY ALT 2700FT

CYXE;2016-07-21 04:00;CYXE 210400Z 27005KT 15SM FEW100 SCT280 18/17 A2986 RMK AC1CI2 SLP114 DENSITY ALT 2400FT

CYXE;2016-07-21 05:00;CYXE 210500Z 24005KT 15SM FEW100 BKN250 17/16 A2986 RMK AC2CI3 SLP116 DENSITY ALT 2200FT

CYXE;2016-07-21 06:00;CYXE 210600Z 25006KT 15SM FEW240 16/16 A2986 RMK CI1 SLP116 DENSITY ALT 2200FT

CYXE;2016-07-21 07:00;CYXE 210700Z 26004KT 15SM SKC 15/15 A2987 RMK SLP119 DENSITY ALT 2000FT

CYXE;2016-07-21 08:00;CYXE 210800Z 25006KT 15SM SKC 14/14 A2987 RMK SLP120 DENSITY ALT 1900FT

CYXE;2016-07-21 09:00;CYXE 210900Z 24008KT 15SM SKC 14/14 A2988 RMK SLP121 DENSITY ALT 1900FT

CYXE;2016-07-21 10:00;CYXE 211000Z 23007KT 15SM FEW280 14/14 A2989 RMK CI2 SLP125 DENSITY ALT 1900FT

CYXE;2016-07-21 11:00;CYXE 211100Z 23008KT 15SM FEW120 FEW280 13/13 A2990 RMK AC1CI1 SLP128 DENSITY ALT 1800FT

CYXE;2016-07-21 12:00;CYXE 211200Z 23007KT 15SM FEW120 FEW280 15/14 A2991 RMK AC1CI1 SLP132 DENSITY ALT 1900FT

CYXE;2016-07-21 13:00;CYXE 211300Z 24008KT 15SM FEW120 FEW280 16/15 A2991 RMK AC1CI1 SLP134 DENSITY ALT 2100FT

CYXE;2016-07-21 14:00;CYXE 211400Z 26008KT 15SM FEW120 FEW280 19/15 A2992 RMK AC1CI1 SLP137 DENSITY ALT 2400FT

CYXE;2016-07-21 15:00;CYXE 211500Z 25009KT 15SM FEW120 FEW280 21/16 A2992 RMK AC1CI1 SLP136 DENSITY ALT 2700FT

CYXE;2016-07-21 16:00;CYXE 211600Z 26011KT 15SM FEW120 FEW280 23/14 A2991 RMK AC1CI1 SLP134 DENSITY ALT 2900FT

CYXE;2016-07-21 17:00;CYXE 211700Z 28013KT 15SM FEW024 FEW100 FEW120 24/14 A2991 RMK CF1AC1AC1 CF TR AC TR SLP132 DENSITY ALT 3000FT

CYXE;2016-07-21 18:00;CYXE 211800Z 28014KT 15SM FEW046 FEW100 26/14 A2991 RMK CU1AC1 SLP132 DENSITY ALT 3200FT

CYXE;2016-07-21 19:00;CYXE 211900Z 30014G21KT 15SM SCT049 SCT100 26/13 A2991 RMK CU3AC1 SLP132 DENSITY ALT 3200FT

CYXE;2016-07-21 20:00;CYXE 212000Z 29013G18KT 15SM BKN050TCU BKN120 26/13 A2991 RMK TCU5AC1 SLP134 DENSITY ALT 3200FT

CYXE;2016-07-21 20:54;CYXE 212054Z 32012G18KT 15SM -TSRA BKN054CB BKN120 24/15 A2991 RMK CB5AC1 WSHFT 2044 LTNG 5 NE-E SLP133 DENSITY ALT 3000FT

CYXE;2016-07-21 21:00;CYXE 212100Z 30008G16KT 12SM -TSRA BKN054CB BKN120 24/14 A2991 RMK CB5AC1 LTNG NE QUAD SLP133 DENSITY ALT 3000FT

CYXE;2016-07-21 21:31;CYXE 212131Z 27008G19KT 15SM BKN054CB 23/13 A2992 RMK CB6 SLP137 DENSITY ALT 2900FT

CYXE;2016-07-21 21:40;CYXE 212140Z 27009KT 15SM TS BKN054CB 23/14 A2992 RMK CB6 DIST LTNG N AND SW SLP138 DENSITY ALT 2900FT

CYXE;2016-07-21 22:00;CYXE 212200Z 26013KT 15SM TS BKN054CB 24/14 A2992 RMK CB7 DIST LTNG S-N SLP137 DENSITY ALT 3000FT

CYXE;2016-07-21 22:21;CYXE 212221Z 27010KT 15SM TS BKN055CB 23/14 A2993 RMK CB7 LTGCG N QUAD AND DIST LTNG S SLP140 DENSITY ALT 2900FT

CYXE;2016-07-21 22:36;CYXE 212236Z 30007KT 12SM -TSRA BKN050CB BKN300 22/15 A2993 RMK CB5CI1 DIST LTNG NE SLP142 DENSITY ALT 2800FT

CYXE;2016-07-21 23:00;CYXE 212300Z 26009KT 230V330 15SM TS FEW050CB SCT300 24/14 A2992 RMK CB2CI1 DIST LTNG NE SLP139 DENSITY ALT 3000FT

CYXE;2016-07-21 23:11;CYXE 212311Z 28008KT 15SM FEW050CB FEW300 24/14 A2992 RMK CB1CI1 CB W SLP139 DENSITY ALT 3100FT

CYXE;2016-07-22 00:00;CYXE 220000Z 27012KT 15SM FEW048 FEW300 26/14 A2991 RMK CU1CI1 SLP135 DENSITY ALT 3200FT

CYXE;2016-07-22 01:00;CYXE 220100Z 26012G17KT 15SM FEW300 25/14 A2992 RMK CI1 SLP135 DENSITY ALT 3100FT

CYXE;2016-07-22 02:00;CYXE 220200Z 25008KT 15SM SKC 23/16 A2994 RMK SLP141 DENSITY ALT 2900FT

CYXE;2016-07-22 03:00;CYXE 220300Z 24006KT 15SM SKC 20/16 A2995 RMK SLP145 DENSITY ALT 2600FT

CYXE;2016-07-22 04:00;CYXE 220400Z 24007KT 15SM SKC 17/16 A2996 RMK SLP151 DENSITY ALT 2200FT

CYXE;2016-07-22 05:00;CYXE 220500Z 26008KT 15SM SKC 17/15 A2997 RMK SLP154 DENSITY ALT 2100FT

CYXE;2016-07-22 06:00;CYXE 220600Z 27007KT 15SM SKC 16/15 A2999 RMK SLP160 DENSITY ALT 2000FT

CYXE;2016-07-22 07:00;CYXE 220700Z 25005KT 15SM SKC 13/13 A3000 RMK SLP166 DENSITY ALT 1700FT

CYXE;2016-07-22 08:00;CYXE 220800Z 29003KT 15SM SKC 13/12 A3001 RMK SLP167

CYXE;2016-07-22 09:00;CYXE 220900Z 26004KT 15SM SKC 11/11 A3002 RMK SLP172

CYXE;2016-07-22 10:00;CYXE 221000Z 24003KT 15SM SKC 11/11 A3003 RMK SLP177

CYXE;2016-07-22 11:00;CYXE 221100Z 26004KT 15SM SKC 11/11 A3004 RMK SLP180

CYXE;2016-07-22 12:00;CYXE 221200Z VRB02KT 15SM FEW100 11/11 A3005 RMK AC1 SLP184

CYXE;2016-07-22 13:00;CYXE 221300Z 24006KT 15SM FEW100 14/13 A3009 RMK AC1 SLP194 DENSITY ALT 1700FT

CYXE;2016-07-22 14:00;CYXE 221400Z 20003KT 130V230 15SM FEW100 17/14 A3008 RMK AC2 SLP190 DENSITY ALT 2000FT

CYXE;2016-07-22 15:00;CYXE 221500Z VRB02KT 15SM FEW100 SCT270 19/13 A3008 RMK AC2CI2 SLP192 DENSITY ALT 2300FT

CYXE;2016-07-22 16:00;CYXE 221600Z 00000KT 15SM FEW032 FEW100 SCT270 21/13 A3007 RMK CU1AC1CI2 SLP190 DENSITY ALT 2500FT

CYXE;2016-07-22 17:00;CYXE 221700Z VRB03KT 15SM FEW050 FEW100 SCT270 23/11 A3005 RMK CU1AC1CI2 AC TR SLP183 DENSITY ALT 2800FT

CYXE;2016-07-22 18:00;CYXE 221800Z 00000KT 15SM BKN270 25/11 A3005 RMK CI5 SLP181 DENSITY ALT 2900FT

CYXE;2016-07-22 19:00;CYXE 221900Z VRB03KT 15SM BKN270 26/11 A3003 RMK CI6 SLP173 DENSITY ALT 3100FT

CYXE;2016-07-22 20:00;CYXE 222000Z VRB04KT 15SM BKN270 27/10 A3001 RMK CI7 SLP167 DENSITY ALT 3200FT

CYXE;2016-07-22 21:00;CYXE 222100Z VRB03KT 15SM BKN270 27/10 A2999 RMK CI5 SLP160 DENSITY ALT 3300FT

CYXE;2016-07-22 22:00;CYXE 222200Z 20009G16KT 160V230 15SM SCT060 BKN240 27/13 A2998 RMK CU3CI3 SLP157 DENSITY ALT 3200FT

CYXE;2016-07-22 23:00;CYXE 222300Z 12013G19KT 15SM FEW060 SCT100 BKN240 26/14 A2991 RMK CU2AC1CI3 PRESFR SLP136 DENSITY ALT 3200FT

CYXE;2016-07-23 00:00;CYXE 230000Z 11011KT 15SM SCT060TCU BKN240 25/14 A2989 RMK TCU3CI3 SLP128 DENSITY ALT 3200FT

CYXE;2016-07-23 00:54;CYXE 230054Z 11010G16KT 15SM -SHRA BKN060TCU BKN100 OVC240 24/15 A2988 RMK TCU5AC2CI1 PRESFR SLP126 DENSITY ALT 3000FT

CYXE;2016-07-23 01:00;CYXE 230100Z 11011KT 15SM -SHRA BKN060TCU BKN100 OVC240 23/15 A2987 RMK TCU5AC2CI1 SLP123 DENSITY ALT 2900FT

CYXE;2016-07-23 01:25;CYXE 230125Z 08007KT 15SM FEW060TCU BKN120 OVC240 23/15 A2987 RMK TCU2AC4CI2 SLP121 DENSITY ALT 2900FT

CYXE;2016-07-23 02:00;CYXE 230200Z 10007KT 15SM OVC140 22/16 A2989 RMK AC8 SLP127 DENSITY ALT 2800FT

CYXE;2016-07-23 03:00;CYXE 230300Z 11008KT 15SM OVC130 22/16 A2989 RMK AC8 SLP125 DENSITY ALT 2800FT

CYXE;2016-07-23 03:25;CYXE 230325Z 15008KT 15SM -SHRA OVC120 22/16 A2989 RMK AC8 SLP124 DENSITY ALT 2800FT

CYXE;2016-07-23 04:00;CYXE 230400Z 17008G17KT 15SM -SHRA OVC120 20/17 A2987 RMK AC8 PRESFR SLP120 DENSITY ALT 2600FT

CYXE;2016-07-23 05:00;CYXE 230500Z 24013KT 12SM -SHRA SCT035 OVC120 19/18 A2996 RMK SC4AC4 PRESRR SLP148 DENSITY ALT 2400FT

CYXE;2016-07-23 05:20;CYXE 230520Z 32005G16KT 240V350 12SM -TSRA SCT035CB OVC120 18/17 A2989 RMK CB4AC4 LTNGCC PRESFR SLP127 DENSITY ALT 2300FT

CYXE;2016-07-23 06:00;CYXE 230600Z 28002KT 15SM -SHRA SCT035 OVC120 17/17 A2987 RMK SC3AC5 PRESFR SLP119 DENSITY ALT 2300FT

CYXE;2016-07-23 06:30;CYXE 230630Z 17003KT 150V210 15SM FEW035 BKN120 16/16 A2985 RMK SC2AC5 PRESFR SLP112 DENSITY ALT 2200FT

CYXE;2016-07-23 07:00;CYXE 230700Z 12007KT 15SM BKN120 17/17 A2982 RMK AC5 PRESFR SLP101 DENSITY ALT 2300FT

CYXE;2016-07-23 08:00;CYXE 230800Z 08002KT 15SM BKN100 17/17 A2981 RMK AC7 SLP098 DENSITY ALT 2400FT

CYXE;2016-07-23 09:00;CYXE 230900Z 35005KT 15SM SCT085 BKN120 17/17 A2980 RMK AC3AC4 SLP093 DENSITY ALT 2400FT

CYXE;2016-07-23 09:11;CYXE 230911Z 11004KT 010V110 15SM -SHRA SCT040 OVC120 17/17 A2980 RMK SC4AC4 LTNG DIST S CVCTV CLD EMBD SLP093 DENSITY ALT 2400FT

CYXE;2016-07-23 10:00;CYXE 231000Z 15006KT 15SM -SHRA SCT040 BKN110 18/17 A2977 RMK SC3AC4 LTNG DIST SE CVCTV CLD EMBD SLP083 DENSITY ALT 2500FT

CYXE;2016-07-23 11:00;CYXE 231100Z 03008KT 15SM FEW040 BKN110 17/17 A2975 RMK SC2AC5 SLP078 DENSITY ALT 2400FT

CYXE;2016-07-23 12:00;CYXE 231200Z 02008KT 15SM FEW040 SCT070 BKN120 17/17 A2975 RMK SF1AC3AC3 SLP077 DENSITY ALT 2400FT

CYXE;2016-07-23 13:00;CYXE 231300Z 03008KT 15SM FEW010 BKN080 BKN100 BKN130 17/17 A2973 RMK SF1AC4AC1AC1 SLP071 DENSITY ALT 2500FT

CYXE;2016-07-23 13:18;CYXE 231318Z 35009KT 15SM SCT005 SCT045 OVC075 17/17 A2975 RMK SF3SC1AC4 PRESRR SLP078 DENSITY ALT 2400FT

CYXE;2016-07-23 14:00;CYXE 231400Z 01008KT 15SM BKN045 OVC080 18/18 A2974 RMK SC6AC2 SLP077 DENSITY ALT 2500FT

CYXE;2016-07-23 15:00;CYXE 231500Z 36011KT 15SM BKN045 BKN130 BKN150 18/18 A2973 RMK SC5AC1AC1 SLP073 DENSITY ALT 2600FT

CYXE;2016-07-23 15:07;CYXE 231507Z 35012KT 12SM -SHRA BKN045 BKN130 18/18 A2974 RMK SC5AC2 CVCTV CLD EMBD SLP075 DENSITY ALT 2500FT

CYXE;2016-07-23 16:00;CYXE 231600Z 35008KT 15SM SCT045 BKN090 19/18 A2975 RMK CU3AC4 SLP080 DENSITY ALT 2600FT

CYXE;2016-07-23 16:44;CYXE 231644Z 34011KT 12SM -SHRA BKN013 BKN055 19/17 A2977 RMK CU6SC1 SLP085 DENSITY ALT 2600FT

CYXE;2016-07-23 17:00;CYXE 231700Z 35007KT 15SM -SHRA SCT013 SCT055 BKN110 18/17 A2977 RMK CU3SC1AC2 SLP087 DENSITY ALT 2500FT

CYXE;2016-07-23 17:28;CYXE 231728Z 35013KT 15SM FEW015TCU BKN050 BKN100 20/16 A2977 RMK TCU2SC3AC2 SLP085 DENSITY ALT 2700FT

CYXE;2016-07-23 18:00;CYXE 231800Z 33012KT 15SM SCT015TCU SCT050 BKN120 21/16 A2977 RMK TCU3SC1AC2 SLP086 DENSITY ALT 2800FT

CYXE;2016-07-23 19:00;CYXE 231900Z 33014G19KT 15SM SCT025TCU BKN100 BKN130 23/16 A2977 RMK TCU4AC2AC1 SLP087 DENSITY ALT 3100FT

CYXE;2016-07-23 19:40;CYXE 231940Z 29009G15KT 15SM TS BKN033CB BKN130 23/18 A2978 RMK CB5AC2 LTNG NW SLP088 DENSITY ALT 3100FT

CYXE;2016-07-23 19:52;CYXE 231952Z 32023G31KT 250V340 10SM -TSRA BKN033CB BKN130 21/15 A2978 RMK CB6AC1 SLP090 DENSITY ALT 2800FT

CYXE;2016-07-23 20:00;CYXE 232000Z 32015G31KT 12SM R09/4500VP6000FT/U -TSRA BKN033CB BKN130 18/15 A2978 RMK CB5AC1 SLP092 DENSITY ALT 2500FT

CYXE;2016-07-23 20:10;CYXE 232010Z 33012KT 15SM SCT033CB BKN130 21/16 A2977 RMK CB4AC1 SHRA E SLP087 DENSITY ALT 2800FT

CYXE;2016-07-23 21:00;CYXE 232100Z 31019G27KT 15SM FEW033CB FEW050 24/15 A2978 RMK CB1SC1 SLP087 DENSITY ALT 3200FT

CYXE;2016-07-23 22:00;CYXE 232200Z 31019G27KT 15SM FEW030CB SCT050 24/13 A2979 RMK CB1SC2 CB SE SLP092 DENSITY ALT 3200FT

CYXE;2016-07-23 23:00;CYXE 232300Z 31021KT 15SM FEW050 FEW280 24/12 A2980 RMK SC1CI1 SLP095 DENSITY ALT 3200FT

CYXE;2016-07-24 00:00;CYXE 240000Z 31019G26KT 15SM FEW048 FEW280 24/12 A2982 RMK CU1CI1 SLP100 DENSITY ALT 3100FT

CYXE;2016-07-24 01:00;CYXE 240100Z 30014G25KT 15SM FEW040 22/12 A2982 RMK CU1 SLP104 DENSITY ALT 2900FT

CYXE;2016-07-24 02:00;CYXE 240200Z 30013G20KT 15SM FEW040 21/11 A2985 RMK CU1 SLP112 DENSITY ALT 2800FT

CYXE;2016-07-24 03:00;CYXE 240300Z 29009KT 15SM FEW100 18/11 A2987 RMK AC1 SLP122 DENSITY ALT 2400FT

CYXE;2016-07-24 04:00;CYXE 240400Z 27008KT 15SM FEW100 16/11 A2989 RMK AC1 SLP129 DENSITY ALT 2100FT

CYXE;2016-07-24 05:00;CYXE 240500Z 28007KT 15SM FEW100 14/12 A2990 RMK AC1 SLP133 DENSITY ALT 1900FT

CYXE;2016-07-24 06:00;CYXE 240600Z 28008KT 15SM FEW240 14/12 A2991 RMK CI1 SLP135 DENSITY ALT 1800FT

CYXE;2016-07-24 07:00;CYXE 240700Z 28008KT 15SM FEW240 14/12 A2992 RMK CI1 SLP138 DENSITY ALT 1800FT

CYXE;2016-07-24 08:00;CYXE 240800Z 28007KT 15SM FEW240 12/12 A2992 RMK CI1 SLP142

CYXE;2016-07-24 09:00;CYXE 240900Z 29009KT 15SM SKC 13/11 A2992 RMK SLP140 DENSITY ALT 1700FT

CYXE;2016-07-24 10:00;CYXE 241000Z 29007KT 15SM SKC 12/11 A2993 RMK SLP142

CYXE;2016-07-24 11:00;CYXE 241100Z 26007KT 15SM FEW090 10/10 A2995 RMK AC1 SLP148

CYXE;2016-07-24 12:00;CYXE 241200Z 26003KT 15SM FEW090 10/10 A2996 RMK AC1 SLP153

CYXE;2016-07-24 13:00;CYXE 241300Z 28004KT 15SM FEW090 14/12 A2997 RMK AC1 SLP155 DENSITY ALT 1800FT

CYXE;2016-07-24 14:00;CYXE 241400Z 30008KT 15SM FEW090 16/12 A2997 RMK AC1 SLP157 DENSITY ALT 2000FT

CYXE;2016-07-24 15:00;CYXE 241500Z 31008KT 15SM FEW250 19/12 A2998 RMK CI1 SLP159 DENSITY ALT 2300FT

CYXE;2016-07-24 16:00;CYXE 241600Z 29007KT 260V330 15SM FEW260 20/12 A2999 RMK CI2 SLP161 DENSITY ALT 2500FT

CYXE;2016-07-24 17:00;CYXE 241700Z 32010KT 270V330 15SM FEW260 21/12 A2999 RMK CI1 SLP162 DENSITY ALT 2700FT

CYXE;2016-07-24 18:00;CYXE 241800Z 30008KT 250V330 15SM FEW260 23/12 A2998 RMK CI1 SLP158 DENSITY ALT 2800FT

CYXE;2016-07-24 19:00;CYXE 241900Z 26010KT 250V310 15SM FEW052 24/12 A2996 RMK CU1 SLP153 DENSITY ALT 2900FT

CYXE;2016-07-24 20:00;CYXE 242000Z 30008G17KT 220V320 15SM FEW060 25/11 A2996 RMK CU2 SLP153 DENSITY ALT 3000FT

CYXE;2016-07-24 21:00;CYXE 242100Z 30009G16KT 260V320 15SM SCT060 25/12 A2995 RMK CU3 SLP149 DENSITY ALT 3100FT

CYXE;2016-07-24 22:00;CYXE 242200Z 25008G16KT 15SM SCT048 25/13 A2995 RMK CU3 SLP149 DENSITY ALT 3100FT

CYXE;2016-07-24 23:00;CYXE 242300Z 24013KT 15SM SCT048 26/14 A2993 RMK CU3 SLP143 DENSITY ALT 3200FT

CYXE;2016-07-25 00:00;CYXE 250000Z 24014KT 15SM FEW044 FEW280 26/14 A2993 RMK CU1CI1 SLP142 DENSITY ALT 3200FT

CYXE;2016-07-25 01:00;CYXE 250100Z 23011KT 15SM FEW044 SCT280 25/15 A2992 RMK CU1CI2 SLP137 DENSITY ALT 3200FT

CYXE;2016-07-25 02:00;CYXE 250200Z 23008KT 15SM FEW032 FEW280 24/16 A2992 RMK CU1CI1 SLP136 DENSITY ALT 3000FT

CYXE;2016-07-25 03:00;CYXE 250300Z 22009KT 15SM FEW080 FEW280 21/16 A2991 RMK AC1CI1 SLP135 DENSITY ALT 2700FT

CYXE;2016-07-25 04:00;CYXE 250400Z 22008KT 15SM FEW280 20/16 A2992 RMK CI1 SLP138 DENSITY ALT 2600FT

CYXE;2016-07-25 05:00;CYXE 250500Z 21006KT 15SM FEW280 19/16 A2992 RMK CI1 SLP138 DENSITY ALT 2400FT

CYXE;2016-07-25 06:00;CYXE 250600Z 22007KT 15SM FEW280 19/15 A2992 RMK CI1 SLP137 DENSITY ALT 2400FT

CYXE;2016-07-25 07:00;CYXE 250700Z 22007KT 15SM SCT280 16/14 A2993 RMK CI3 SLP140 DENSITY ALT 2100FT

CYXE;2016-07-25 08:00;CYXE 250800Z 21007KT 15SM FEW140 BKN280 16/14 A2994 RMK AC1CI4 SLP142 DENSITY ALT 2100FT

CYXE;2016-07-25 09:00;CYXE 250900Z 29005KT 15SM FEW060 SCT120 BKN280 15/14 A2997 RMK SC2AC1CI3 SLP153 DENSITY ALT 1900FT

CYXE;2016-07-25 10:00;CYXE 251000Z 28002KT 15SM FEW060 BKN120 15/15 A2997 RMK SC1AC4 SLP155 DENSITY ALT 1900FT

CYXE;2016-07-25 11:00;CYXE 251100Z 27004KT 200V290 15SM BKN060 14/14 A2997 RMK SC7 SLP155 DENSITY ALT 1900FT

CYXE;2016-07-25 12:00;CYXE 251200Z VRB02KT 15SM BKN060 BKN120 15/15 A2998 RMK SC5AC1 SLP157 DENSITY ALT 1900FT

CYXE;2016-07-25 13:00;CYXE 251300Z 32009KT 15SM BKN060 BKN120 16/16 A3001 RMK SC5AC2 SH W PRESRR SLP168 DENSITY ALT 2000FT

CYXE;2016-07-25 13:11;CYXE 251311Z 28007KT 15SM -SHRA BKN060 BKN120 17/16 A3002 RMK SC6AC1 CVCTV CLD EMBD PRESRR SLP171 DENSITY ALT 2100FT

CYXE;2016-07-25 13:49;CYXE 251349Z 28004KT 15SM SCT060 BKN090 17/16 A3001 RMK SC4AC3 SH SE SLP166 DENSITY ALT 2100FT

CYXE;2016-07-25 14:00;CYXE 251400Z VRB02KT 15SM SCT060 BKN100 17/16 A3001 RMK SC3AC4 SH SE SLP166 DENSITY ALT 2100FT

CYXE;2016-07-25 15:00;CYXE 251500Z 32006KT 15SM SCT120 19/16 A3002 RMK AC3 SH SE SLP171 DENSITY ALT 2300FT

CYXE;2016-07-25 16:00;CYXE 251600Z 33008KT 15SM FEW120 22/15 A3003 RMK AC1 SLP172 DENSITY ALT 2700FT

CYXE;2016-07-25 17:00;CYXE 251700Z 34007KT 300V360 15SM FEW040 24/14 A3003 RMK CU1 SLP171 DENSITY ALT 2900FT

CYXE;2016-07-25 18:00;CYXE 251800Z 34012G18KT 15SM FEW048 25/13 A3003 RMK CU1 SLP171 DENSITY ALT 3000FT

CYXE;2016-07-25 19:00;CYXE 251900Z 33015G22KT 15SM FEW056 26/11 A3003 RMK CU1 SLP172 DENSITY ALT 3100FT

CYXE;2016-07-25 20:00;CYXE 252000Z 33013G19KT 290V350 15SM FEW056 25/12 A3003 RMK CU2 SLP174 DENSITY ALT 3000FT

CYXE;2016-07-25 21:00;CYXE 252100Z 29016G23KT 15SM FEW072 26/08 A3003 RMK CU2 SLP175 DENSITY ALT 3100FT

CYXE;2016-07-25 22:00;CYXE 252200Z 32012G17KT 15SM FEW076 SCT300 26/07 A3004 RMK CU2CI1 SLP177 DENSITY ALT 3100FT

CYXE;2016-07-25 23:00;CYXE 252300Z 31010G17KT 15SM FEW072 SCT300 25/07 A3004 RMK CU2CI1 SLP178 DENSITY ALT 3000FT

CYXE;2016-07-26 00:00;CYXE 260000Z 32012KT 15SM FEW072 SCT300 25/07 A3004 RMK CU1CI3 SLP176 DENSITY ALT 3000FT

CYXE;2016-07-26 01:00;CYXE 260100Z 33010KT 15SM BKN300 24/09 A3004 RMK CI5 SLP177 DENSITY ALT 2800FT

CYXE;2016-07-26 02:00;CYXE 260200Z 33006KT 15SM BKN300 21/11 A3005 RMK CI6 SLP181 DENSITY ALT 2500FT

CYXE;2016-07-26 03:00;CYXE 260300Z 33007KT 15SM BKN280 16/11 A3005 RMK CI5 SLP185 DENSITY ALT 2000FT

CYXE;2016-07-26 04:00;CYXE 260400Z 33006KT 15SM SCT280 15/10 A3006 RMK CI3 SLP188 DENSITY ALT 1800FT

CYXE;2016-07-26 05:00;CYXE 260500Z 33008KT 15SM FEW280 12/10 A3008 RMK CI2 SLP193

CYXE;2016-07-26 06:00;CYXE 260600Z 33006KT 15SM SKC 12/10 A3008 RMK SLP194

CYXE;2016-07-26 07:00;CYXE 260700Z 34003KT 15SM FEW090 11/10 A3009 RMK AC1 SLP195

CYXE;2016-07-26 08:00;CYXE 260800Z 28002KT 15SM SKC 11/09 A3009 RMK SLP198

CYXE;2016-07-26 09:00;CYXE 260900Z 35004KT 15SM SKC 09/09 A3010 RMK SLP200

CYXE;2016-07-26 10:00;CYXE 261000Z 02002KT 15SM FEW090 10/09 A3010 RMK AC1 SLP202

CYXE;2016-07-26 11:00;CYXE 261100Z 02003KT 15SM FEW090 FEW200 09/08 A3010 RMK AC1CI1 SLP202

CYXE;2016-07-26 12:00;CYXE 261200Z 06005KT 15SM FEW090 SCT200 10/10 A3011 RMK AC1CI3 SLP206

CYXE;2016-07-26 13:00;CYXE 261300Z 07003KT 15SM FEW140 BKN280 15/13 A3012 RMK AC1CI4 SLP206 DENSITY ALT 1700FT

CYXE;2016-07-26 14:00;CYXE 261400Z 05003KT 15SM FEW140 BKN280 17/13 A3012 RMK AC1CI5 SLP207 DENSITY ALT 2000FT

CYXE;2016-07-26 15:00;CYXE 261500Z 00000KT 15SM FEW120 BKN300 21/13 A3013 RMK AC1CI5 SLP211 DENSITY ALT 2400FT

CYXE;2016-07-26 16:00;CYXE 261600Z 08004KT 030V090 15SM FEW120 BKN300 23/11 A3013 RMK AC2CI4 SLP211 DENSITY ALT 2600FT

CYXE;2016-07-26 17:00;CYXE 261700Z 07008KT 020V090 15SM FEW050 SCT160 BKN300 24/10 A3014 RMK CU1AC3CI3 SLP215 DENSITY ALT 2800FT

CYXE;2016-07-26 18:00;CYXE 261800Z 10008KT 060V130 15SM FEW060 BKN160 BKN300 24/08 A3014 RMK CU2AC3CI2 SLP216 DENSITY ALT 2800FT

CYXE;2016-07-26 19:00;CYXE 261900Z 12007KT 060V130 15SM SCT060 BKN160 BKN300 24/07 A3015 RMK CU3AC2CI2 SLP218 DENSITY ALT 2800FT

CYXE;2016-07-26 20:00;CYXE 262000Z VRB02KT 15SM SCT060 BKN160 OVC300 24/09 A3014 RMK CU3AC2CI3 SLP216 DENSITY ALT 2800FT

CYXE;2016-07-26 21:00;CYXE 262100Z 13006KT 100V210 15SM SCT070 BKN150 OVC300 25/07 A3014 RMK CU3AC2CI3 SLP215 DENSITY ALT 2900FT

CYXE;2016-07-26 22:00;CYXE 262200Z 13007KT 070V150 15SM FEW070 SCT140 BKN300 25/06 A3013 RMK CU2AC2CI3 SLP211 DENSITY ALT 2900FT

CYXE;2016-07-26 23:00;CYXE 262300Z 16003KT 050V200 15SM FEW070 SCT150 BKN300 25/06 A3013 RMK CU2AC1CI4 SLP210 DENSITY ALT 2900FT

CYXE;2016-07-27 00:00;CYXE 270000Z 10006KT 070V160 15SM FEW070 SCT300 25/09 A3011 RMK CU1CI3 SLP204 DENSITY ALT 2900FT

CYXE;2016-07-27 01:00;CYXE 270100Z 14009KT 110V180 15SM FEW070 SCT300 24/09 A3012 RMK CU1CI2 SLP205 DENSITY ALT 2800FT

CYXE;2016-07-27 02:00;CYXE 270200Z 16006KT 15SM FEW070 FEW300 23/09 A3013 RMK CU1CI1 SLP208 DENSITY ALT 2600FT

CYXE;2016-07-27 03:00;CYXE 270300Z 14008KT 15SM SCT300 20/10 A3011 RMK CI3 SLP202 DENSITY ALT 2400FT

CYXE;2016-07-27 04:00;CYXE 270400Z 14006KT 15SM FEW300 18/10 A3013 RMK CI1 SLP210 DENSITY ALT 2100FT

CYXE;2016-07-27 05:00;CYXE 270500Z 16007KT 15SM FEW120 17/11 A3015 RMK AC1 SLP215 DENSITY ALT 1900FT

CYXE;2016-07-27 06:00;CYXE 270600Z 15006KT 15SM SKC 17/12 A3015 RMK SLP214 DENSITY ALT 1900FT

CYXE;2016-07-27 07:00;CYXE 270700Z 16006KT 15SM FEW120 16/12 A3015 RMK AC2 SLP215 DENSITY ALT 1800FT

CYXE;2016-07-27 08:00;CYXE 270800Z 21002KT 15SM FEW120 14/11 A3015 RMK AC1 SLP218

CYXE;2016-07-27 09:00;CYXE 270900Z 17006KT 15SM SCT120 15/12 A3015 RMK AC3 SLP215 DENSITY ALT 1700FT

CYXE;2016-07-27 10:00;CYXE 271000Z 15003KT 15SM FEW120 15/12 A3016 RMK AC1 AC TR SLP218 DENSITY ALT 1700FT

CYXE;2016-07-27 11:00;CYXE 271100Z 17002KT 15SM FEW200 12/11 A3016 RMK CI1 SLP221

CYXE;2016-07-27 11:50;CYXE 271150Z 27005KT 15SM R09/1600FT/N SCT280 10/10 A3018 RMK CI4 SLP228

CYXE;2016-07-27 12:00;CYXE 271200Z 24003KT 15SM R09/2800VP6000FT/N BCFG SCT280 10/10 A3018 RMK CI4 SLP229

CYXE;2016-07-27 13:00;CYXE 271300Z 00000KT 15SM BKN280 15/13 A3019 RMK CI6 SLP230

CYXE;2016-07-27 14:00;CYXE 271400Z 20002KT 15SM BKN300 18/12 A3019 RMK CI5 SLP229 DENSITY ALT 2000FT

CYXE;2016-07-27 15:00;CYXE 271500Z 20005KT 170V240 15SM SCT300 20/11 A3019 RMK CI3 SLP230 DENSITY ALT 2200FT

CYXE;2016-07-27 16:00;CYXE 271600Z 23003KT 170V290 15SM FEW300 21/12 A3019 RMK CI2 SLP231 DENSITY ALT 2400FT

CYXE;2016-07-27 17:00;CYXE 271700Z 21005KT 140V230 15SM FEW300 23/11 A3019 RMK CI2 SLP229 DENSITY ALT 2600FT

CYXE;2016-07-27 18:00;CYXE 271800Z VRB03KT 15SM FEW300 24/10 A3019 RMK CI2 SLP230 DENSITY ALT 2700FT

CYXE;2016-07-27 19:00;CYXE 271900Z VRB02KT 15SM FEW050 SCT300 25/11 A3019 RMK CU1CI2 SLP228 DENSITY ALT 2800FT

CYXE;2016-07-27 20:00;CYXE 272000Z 22009KT 200V340 15SM FEW060 SCT300 26/10 A3018 RMK CU1CI2 SLP227 DENSITY ALT 2900FT

CYXE;2016-07-27 21:00;CYXE 272100Z 27005KT 210V320 15SM FEW060 SCT300 26/10 A3018 RMK CU2CI1 SLP223 DENSITY ALT 3000FT

CYXE;2016-07-27 22:00;CYXE 272200Z 26006KT 170V270 15SM FEW070 SCT300 27/11 A3017 RMK CU1CI2 SLP220 DENSITY ALT 3100FT

CYXE;2016-07-27 23:00;CYXE 272300Z 00000KT 15SM FEW070 SCT300 26/11 A3016 RMK CU1CI2 SLP219 DENSITY ALT 3000FT

CYXE;2016-07-28 00:00;CYXE 280000Z 20004KT 170V250 15SM FEW070 SCT300 26/11 A3015 RMK CU1CI2 SLP218 DENSITY ALT 3000FT

CYXE;2016-07-28 01:00;CYXE 280100Z 19009G15KT 15SM FEW070 SCT300 25/11 A3015 RMK CU1CI3 SLP214 DENSITY ALT 2900FT

CYXE;2016-07-28 02:00;CYXE 280200Z 16009KT 15SM SCT300 23/12 A3014 RMK CI3 SLP212 DENSITY ALT 2700FT

CYXE;2016-07-28 03:00;CYXE 280300Z 18007KT 15SM SCT300 21/12 A3015 RMK CI3 SLP216 DENSITY ALT 2400FT

CYXE;2016-07-28 04:00;CYXE 280400Z 19008KT 15SM BKN300 19/12 A3016 RMK CI6 SLP220 DENSITY ALT 2100FT

CYXE;2016-07-28 05:00;CYXE 280500Z 20005KT 15SM FEW110 BKN270 18/13 A3017 RMK AC1CI5 SLP220 DENSITY ALT 2000FT

CYXE;2016-07-28 06:00;CYXE 280600Z 20005KT 15SM SCT270 17/13 A3018 RMK CI4 SLP225 DENSITY ALT 1900FT

CYXE;2016-07-28 07:00;CYXE 280700Z 20004KT 15SM SKC 16/12 A3017 RMK SLP223 DENSITY ALT 1800FT

CYXE;2016-07-28 08:00;CYXE 280800Z 21004KT 15SM SKC 15/12 A3017 RMK SLP222 DENSITY ALT 1700FT

CYXE;2016-07-28 09:00;CYXE 280900Z 19003KT 15SM SKC 14/13 A3016 RMK SLP218

CYXE;2016-07-28 10:00;CYXE 281000Z 17003KT 15SM FEW060 FEW290 12/12 A3015 RMK SC1CI1 SLP216

CYXE;2016-07-28 11:00;CYXE 281100Z CCA 19003KT 15SM MIFG FEW070 SCT290 11/11 A3016 RMK ACC2CI1 SLP221

CYXE;2016-07-28 12:00;CYXE 281200Z 23004KT 15SM FEW070 SCT200 13/13 A3017 RMK ACC2CI1 SLP222

CYXE;2016-07-28 13:00;CYXE 281300Z 19003KT 15SM FEW020 FEW080 15/13 A3016 RMK CU1AC1 SLP220 DENSITY ALT 1700FT

CYXE;2016-07-28 14:00;CYXE 281400Z 21005KT 15SM FEW020 FEW080 18/13 A3017 RMK CU1AC1 SLP220 DENSITY ALT 2100FT

CYXE;2016-07-28 15:00;CYXE 281500Z 23007KT 15SM FEW030 FEW100 21/13 A3016 RMK CU1AC1 SLP218 DENSITY ALT 2400FT

CYXE;2016-07-28 16:00;CYXE 281600Z 24008KT 15SM FEW100 FEW270 23/14 A3015 RMK AC1CI1 SLP215 DENSITY ALT 2600FT

CYXE;2016-07-28 17:00;CYXE 281700Z 23008KT 15SM FEW100 FEW270 25/11 A3015 RMK AC1CI1 SLP214 DENSITY ALT 2800FT

CYXE;2016-07-28 18:00;CYXE 281800Z 23012KT 15SM FEW070 SCT300 25/11 A3014 RMK AC1CI2 SLP210 DENSITY ALT 2900FT

CYXE;2016-07-28 19:00;CYXE 281900Z 24008G16KT 15SM FEW050TCU FEW070 BKN300 26/12 A3013 RMK TCU1AC1CI4 SLP206 DENSITY ALT 3000FT

CYXE;2016-07-28 20:00;CYXE 282000Z 22008KT 200V260 15SM FEW050TCU FEW070 SCT300 27/10 A3011 RMK TCU1AC1CI2 SLP202 DENSITY ALT 3100FT

CYXE;2016-07-28 21:00;CYXE 282100Z 25007KT 210V280 15SM FEW050TCU SCT300 28/10 A3009 RMK TCU1CI2 CB TOPS DIST W SLP194 DENSITY ALT 3300FT

CYXE;2016-07-28 22:00;CYXE 282200Z 23011KT 220V280 15SM FEW080 BKN300 28/12 A3008 RMK CU2CI3 CB TOPS DIST W SLP192 DENSITY ALT 3300FT

CYXE;2016-07-28 23:00;CYXE 282300Z 25009G15KT 15SM SCT060TCU BKN300 27/13 A3008 RMK TCU3CI3 SLP192 DENSITY ALT 3100FT

CYXE;2016-07-29 00:00;CYXE 290000Z 24006KT 15SM FEW120 BKN300 25/14 A3009 RMK AC1CI6 SLP194 DENSITY ALT 2900FT

CYXE;2016-07-29 01:00;CYXE 290100Z 25005KT 15SM FEW120 BKN300 24/15 A3007 RMK AC2CI5 SLP187 DENSITY ALT 2900FT

CYXE;2016-07-29 02:00;CYXE 290200Z 25005KT 15SM FEW100 BKN230 23/16 A3005 RMK AC2CI5 SLP181 DENSITY ALT 2700FT

CYXE;2016-07-29 03:00;CYXE 290300Z 29004KT 15SM FEW100 OVC230 20/16 A3005 RMK AC2CI6 SLP182 DENSITY ALT 2400FT

CYXE;2016-07-29 04:00;CYXE 290400Z 32003KT 15SM SCT100 BKN230 19/16 A3007 RMK AC4CI3 SLP186 DENSITY ALT 2200FT

CYXE;2016-07-29 05:00;CYXE 290500Z 06005KT 15SM BKN100 OVC230 19/15 A3006 RMK AC6CI2 SLP184 DENSITY ALT 2200FT

CYXE;2016-07-29 06:00;CYXE 290600Z 36005KT 360V090 15SM BKN075 OVC130 19/15 A3006 RMK AC5AC3 SLP181 DENSITY ALT 2300FT

CYXE;2016-07-29 07:00;CYXE 290700Z 04006KT 15SM SCT075 BKN120 OVC150 17/15 A3004 RMK AC3AC3AC2 SLP177 DENSITY ALT 2100FT

CYXE;2016-07-29 08:00;CYXE 290800Z 11004KT 040V210 15SM FEW070 BKN100 OVC150 18/15 A3003 RMK AC2AC4AC2 SLP172 DENSITY ALT 2200FT

CYXE;2016-07-29 08:26;CYXE 290826Z 10003KT 15SM -SHRA OVC100 18/15 A3003 RMK AC8 CVCTV CLD EMBD SLP171 DENSITY ALT 2200FT

CYXE;2016-07-29 09:00;CYXE 290900Z 21008KT 12SM -SHRA OVC090 18/17 A3003 RMK AC8 CVCTV CLD EMBD SLP172 DENSITY ALT 2200FT

CYXE;2016-07-29 10:00;CYXE 291000Z 24008KT 15SM -SHRA FEW070 SCT100 OVC130 17/16 A3001 RMK AC2AC2AC4 CVCTV CLD ASOCTD SLP166 DENSITY ALT 2100FT

CYXE;2016-07-29 10:18;CYXE 291018Z 25005KT 15SM FEW070 BKN120 OVC150 17/16 A3001 RMK AC1AC4AC3 SLP165 DENSITY ALT 2100FT

CYXE;2016-07-29 11:00;CYXE 291100Z 24007KT 15SM BKN110 OVC150 17/16 A3002 RMK AC6AC2 SLP169 DENSITY ALT 2000FT

CYXE;2016-07-29 12:00;CYXE 291200Z 22007KT 15SM BKN110 BKN140 18/16 A3001 RMK AC5AC2 SLP166 DENSITY ALT 2200FT

CYXE;2016-07-29 12:44;CYXE 291244Z 22010G16KT 15SM -SHRA BKN120 OVC140 17/16 A3002 RMK AC6AC2 CVCTV CLD EMBD SLP171 DENSITY ALT 2100FT

CYXE;2016-07-29 13:00;CYXE 291300Z 23009KT 15SM -SHRA SCT030 BKN120 OVC140 17/16 A3002 RMK SC3AC4AC1 CVCTV CLD EMBD SLP170 DENSITY ALT 2100FT

CYXE;2016-07-29 14:00;CYXE 291400Z 21008KT 15SM -SHRA BKN045 OVC120 17/17 A3002 RMK SC5AC3 CVCTV CLD EMBD SLP171 DENSITY ALT 2100FT

CYXE;2016-07-29 14:38;CYXE 291438Z 27005KT 15SM SCT040 OVC100 18/17 A3001 RMK SC3AC5 SLP168 DENSITY ALT 2200FT

CYXE;2016-07-29 15:00;CYXE 291500Z 28009KT 15SM FEW040 OVC100 19/17 A3002 RMK SC2AC6 SLP172 DENSITY ALT 2300FT

CYXE;2016-07-29 16:00;CYXE 291600Z 31009KT 15SM VCSH FEW040 BKN100 18/17 A3000 RMK SC2AC5 SLP165 DENSITY ALT 2300FT

CYXE;2016-07-29 17:00;CYXE 291700Z 24005KT 230V290 15SM FEW012 SCT040 BKN100 19/17 A3000 RMK CF2CU2AC3 SLP165 DENSITY ALT 2400FT

CYXE;2016-07-29 18:00;CYXE 291800Z 25005KT 15SM FEW013 OVC100 20/17 A3000 RMK SC2AC6 SLP164 DENSITY ALT 2500FT

CYXE;2016-07-29 19:00;CYXE 291900Z 26005KT 180V280 15SM FEW013 BKN090 22/17 A2999 RMK SC2AC5 SLP162 DENSITY ALT 2700FT

CYXE;2016-07-29 20:00;CYXE 292000Z 00000KT 15SM SCT036 BKN110 24/16 A2997 RMK CU3AC3 SLP154 DENSITY ALT 2900FT

CYXE;2016-07-29 21:00;CYXE 292100Z 26005KT 130V280 15SM BKN036 24/15 A2996 RMK SC5 SLP148 DENSITY ALT 3000FT

CYXE;2016-07-29 22:00;CYXE 292200Z 00000KT 15SM BKN060TCU 25/15 A2994 RMK TCU5 SLP141 DENSITY ALT 3100FT

CYXE;2016-07-29 23:00;CYXE 292300Z 20008KT 15SM FEW060CB SCT090 BKN130 25/16 A2992 RMK CB2ACC2AC2 SLP137 DENSITY ALT 3100FT

CYXE;2016-07-30 00:00;CYXE 300000Z 16006KT 15SM FEW060CB SCT300 25/15 A2991 RMK CB1CI2 SLP132 DENSITY ALT 3200FT

CYXE;2016-07-30 01:00;CYXE 300100Z 19005KT 15SM VCSH FEW060TCU SCT300 23/15 A2990 RMK TCU1CI2 SLP130 DENSITY ALT 3000FT

CYXE;2016-07-30 01:57;CYXE 300157Z VRB10G37KT 5SM -SHRA SCT060TCU SCT130 BKN300 21/16 A2991 RMK TCU3AC1CI1 SLP133 DENSITY ALT 2700FT

CYXE;2016-07-30 02:00;CYXE 300200Z 28009G37KT 240V340 15SM SHRA SCT060TCU SCT130 BKN300 20/17 A2992 RMK TCU3AC1CI1 PRESRR SLP138 DENSITY ALT 2500FT

CYXE;2016-07-30 02:24;CYXE 300224Z 14009KT 15SM VCSH FEW060TCU SCT120 BKN300 20/16 A2990 RMK TCU2AC2CI1 VIS SW LWR SHRA SLP132 DENSITY ALT 2600FT

CYXE;2016-07-30 02:29;CYXE 300229Z 14008KT 15SM TS FEW060CB BKN120 20/16 A2990 RMK CB2AC3 VIS SW LWR SHRA SLP130 DENSITY ALT 2600FT

CYXE;2016-07-30 03:00;CYXE 300300Z 15006KT 15SM FEW060CB SCT120 18/17 A2989 RMK CB1AC2 SLP129 DENSITY ALT 2400FT

CYXE;2016-07-30 04:00;CYXE 300400Z 17006KT 15SM FEW120 17/16 A2988 RMK AC2 SLP126 DENSITY ALT 2200FT

CYXE;2016-07-30 05:00;CYXE 300500Z 17003KT 15SM SKC 16/15 A2987 RMK SLP123 DENSITY ALT 2200FT

CYXE;2016-07-30 06:00;CYXE 300600Z 18005KT 15SM SKC 16/16 A2987 RMK SLP120 DENSITY ALT 2200FT

CYXE;2016-07-30 07:00;CYXE 300700Z 17005KT 15SM SKC 16/16 A2986 RMK SLP116 DENSITY ALT 2100FT

CYXE;2016-07-30 08:00;CYXE 300800Z 19005KT 15SM SKC 16/16 A2985 RMK SLP113 DENSITY ALT 2100FT

CYXE;2016-07-30 09:00;CYXE 300900Z 19004KT 15SM SKC 15/15 A2984 RMK SLP111 DENSITY ALT 2100FT

CYXE;2016-07-30 10:00;CYXE 301000Z 20003KT 15SM SKC 15/15 A2984 RMK SLP109 DENSITY ALT 2100FT

CYXE;2016-07-30 11:00;CYXE 301100Z 19003KT 15SM MIFG FEW280 15/15 A2982 RMK CI2 SLP104 DENSITY ALT 2000FT

CYXE;2016-07-30 12:00;CYXE 301200Z 20004KT 15SM MIFG FEW280 14/14 A2982 RMK CI2 SLP103 DENSITY ALT 2000FT

CYXE;2016-07-30 13:00;CYXE 301300Z 18003KT 15SM SCT280 17/16 A2982 RMK CI3 SLP104 DENSITY ALT 2300FT

CYXE;2016-07-30 14:00;CYXE 301400Z 19003KT 15SM BKN300 19/16 A2982 RMK CI6 SLP103 DENSITY ALT 2600FT

CYXE;2016-07-30 15:00;CYXE 301500Z 21005KT 15SM BKN300 22/16 A2981 RMK CI7 SLP100 DENSITY ALT 2900FT

CYXE;2016-07-30 16:00;CYXE 301600Z 19005KT 15SM SCT180 BKN300 23/17 A2980 RMK CI3CI4 SLP096 DENSITY ALT 3000FT

CYXE;2016-07-30 17:00;CYXE 301700Z 21010KT 150V210 15SM FEW180 BKN300 25/15 A2979 RMK CI2CI5 SLP092 DENSITY ALT 3300FT

CYXE;2016-07-30 18:00;CYXE 301800Z 16007KT 15SM FEW150 BKN300 27/15 A2977 RMK AC2CI5 SLP085 DENSITY ALT 3500FT

CYXE;2016-07-30 19:00;CYXE 301900Z 15011KT 110V180 15SM FEW060 SCT140 BKN280 27/12 A2977 RMK CU2AC1CI4 SLP082 DENSITY ALT 3600FT

CYXE;2016-07-30 20:00;CYXE 302000Z 16009G16KT 15SM FEW060 FEW120 BKN280 27/14 A2976 RMK CU1AC1CI5 CB TOPS SW SLP080 DENSITY ALT 3500FT

CYXE;2016-07-30 21:00;CYXE 302100Z 15012G17KT 15SM FEW040TCU BKN120 OVC220 26/13 A2974 RMK TCU2AC4CI2 CB TOPS SW SLP074 DENSITY ALT 3400FT

CYXE;2016-07-30 21:51;CYXE 302151Z 23021KT 160V240 15SM -TSRA FEW035 BKN060CB OVC120 22/16 A2975 RMK CU1CB5AC2 CB S PRESRR SLP078 DENSITY ALT 3000FT

CYXE;2016-07-30 22:00;CYXE 302200Z 20018G28KT 15SM -TSRA BKN055CB OVC120 21/16 A2975 RMK CB6AC2 CB SE-SW SLP082 DENSITY ALT 2800FT

CYXE;2016-07-30 22:40;CYXE 302240Z VRB02KT 15SM SCT055CB BKN120 19/17 A2971 RMK CB3AC4 CB E MOVG E PRESFR SLP069 DENSITY ALT 2700FT

CYXE;2016-07-30 23:00;CYXE 302300Z 13006KT 080V150 15SM SCT080 BKN120 20/18 A2971 RMK AC3AC4 SLP069 DENSITY ALT 2800FT

CYXE;2016-07-31 00:00;CYXE 310000Z 12007KT 15SM SCT080 BKN130 21/18 A2972 RMK AC3AC4 SLP069 DENSITY ALT 2900FT

CYXE;2016-07-31 01:00;CYXE 310100Z 11006KT 15SM SCT080 BKN130 22/18 A2971 RMK AC3AC4 SLP064 DENSITY ALT 3100FT

CYXE;2016-07-31 02:00;CYXE 310200Z 13006KT 15SM SCT090 BKN130 22/17 A2969 RMK AC4AC3 SLP059 DENSITY ALT 3000FT

CYXE;2016-07-31 03:00;CYXE 310300Z 12006KT 15SM FEW100 SCT250 20/18 A2969 RMK AC2CI2 SLP058 DENSITY ALT 2800FT

CYXE;2016-07-31 04:00;CYXE 310400Z 10007KT 15SM SCT080 BKN250 18/18 A2969 RMK AC3CI2 SLP055 DENSITY ALT 2600FT

CYXE;2016-07-31 05:00;CYXE 310500Z 09006KT 15SM SCT075 BKN250 18/17 A2966 RMK AC4CI2 SLP047 DENSITY ALT 2600FT

CYXE;2016-07-31 06:00;CYXE 310600Z 13005KT 15SM BKN075 OVC250 19/16 A2968 RMK AC5CI3 SLP051 DENSITY ALT 2700FT

CYXE;2016-07-31 07:00;CYXE 310700Z 22005KT 15SM SCT080 OVC110 17/16 A2969 RMK AC4AC4 DIST LTGCGCC NE-W SLP053 DENSITY ALT 2500FT

CYXE;2016-07-31 07:17;CYXE 310717Z 19005KT 15SM -TSRA OVC080CB 19/17 A2969 RMK CB8 LTGCGCC NE -W SLP054 DENSITY ALT 2700FT

CYXE;2016-07-31 08:00;CYXE 310800Z 22016KT 15SM -TSRA SCT045 OVC080CB 18/18 A2971 RMK SC4CB4 LTGCG NW SLP060 DENSITY ALT 2600FT

CYXE;2016-07-31 08:29;CYXE 310829Z 25015G20KT 15SM -RA SCT045 OVC100 18/17 A2970 RMK SC3AC5 SLP059 DENSITY ALT 2600FT

CYXE;2016-07-31 09:00;CYXE 310900Z 26010KT 15SM -RA BKN100 OVC180 17/17 A2967 RMK AC5AC3 SLP049 DENSITY ALT 2500FT

CYXE;2016-07-31 10:00;CYXE 311000Z 10005KT 15SM BKN120 OVC180 17/15 A2962 RMK AC5AC3 PRESFR SLP034 DENSITY ALT 2500FT

CYXE;2016-07-31 11:00;CYXE 311100Z 30005KT 15SM FEW120 BKN160 15/15 A2967 RMK AC1AC4 SLP055 DENSITY ALT 2300FT

CYXE;2016-07-31 12:00;CYXE 311200Z 00000KT 15SM FEW120 SCT150 SCT280 15/15 A2969 RMK AC1AC2CI1 SLP058 DENSITY ALT 2300FT

CYXE;2016-07-31 13:00;CYXE 311300Z 24005KT 15SM FEW100 17/16 A2969 RMK AC1 SLP059 DENSITY ALT 2400FT

CYXE;2016-07-31 14:00;CYXE 311400Z 27003KT 15SM FEW100 18/16 A2970 RMK AC1 SLP061 DENSITY ALT 2600FT

CYXE;2016-07-31 15:00;CYXE 311500Z 24005KT 200V300 15SM SCT012 BKN100 20/17 A2971 RMK CU4AC1 SLP065 DENSITY ALT 2800FT

CYXE;2016-07-31 15:16;CYXE 311516Z 26009KT 220V290 15SM BKN012 BKN100 20/17 A2971 RMK CU5AC1 SLP066 DENSITY ALT 2800FT

CYXE;2016-07-31 15:33;CYXE 311533Z 27011KT 15SM BKN022 20/17 A2971 RMK CU6 SLP064 DENSITY ALT 2800FT

CYXE;2016-07-31 16:00;CYXE 311600Z 28007KT 15SM BKN026 21/16 A2972 RMK CU7 SLP068 DENSITY ALT 2900FT

CYXE;2016-07-31 17:00;CYXE 311700Z 31011KT 15SM BKN039 20/16 A2973 RMK SC7 SLP072 DENSITY ALT 2800FT

CYXE;2016-07-31 18:00;CYXE 311800Z 30009KT 270V330 15SM SCT030 BKN100 22/15 A2973 RMK CU4AC1 SLP069 DENSITY ALT 3000FT

CYXE;2016-07-31 19:00;CYXE 311900Z 29011KT 250V320 15SM FEW030 SCT100 23/15 A2972 RMK CU2AC1 SLP068 DENSITY ALT 3100FT

CYXE;2016-07-31 20:00;CYXE 312000Z 31011G18KT 15SM FEW030 SCT120 24/15 A2972 RMK CU2AC2 SLP067 DENSITY ALT 3200FT

CYXE;2016-07-31 21:00;CYXE 312100Z 32010G18KT 15SM BKN032 BKN120 23/15 A2972 RMK CU5AC1 SLP066 DENSITY ALT 3200FT

CYXE;2016-07-31 22:00;CYXE 312200Z 31013KT 15SM BKN035 OVC110 22/15 A2973 RMK SC6CC2 CB DIST S SLP071 DENSITY ALT 3000FT

CYXE;2016-07-31 22:14;CYXE 312214Z 28011G16KT 15SM -SHRA BKN035 OVC120 21/16 A2974 RMK SC7AC1 CVCTV CLD EMBD CB DIST SE SLP076 DENSITY ALT 2800FT

CYXE;2016-07-31 23:00;CYXE 312300Z 30014G23KT 15SM -SHRA BKN030 BKN100 18/17 A2976 RMK CU5AC2 SLP084 DENSITY ALT 2500FT

CYXE;2016-07-31 23:26;CYXE 312326Z 33009G16KT 15SM FEW030 BKN090 18/16 A2976 RMK CU2AC5 SLP084 DENSITY ALT 2500FT

CYXE;2016-08-01 00:00;CYXE 010000Z 30011KT 15SM FEW030 SCT100 19/16 A2976 RMK CU2AC2 SLP084 DENSITY ALT 2600FT

CYXE;2016-08-01 01:00;CYXE 010100Z 29012KT 15SM SCT012 19/16 A2977 RMK SC4 SLP089 DENSITY ALT 2600FT

CYXE;2016-08-01 02:00;CYXE 010200Z 28007KT 15SM SCT017 17/15 A2978 RMK SC4 SLP092 DENSITY ALT 2400FT

CYXE;2016-08-01 03:00;CYXE 010300Z 27006KT 15SM FEW015 FEW100 15/15 A2979 RMK SC1AC1 SLP095 DENSITY ALT 2100FT

CYXE;2016-08-01 04:00;CYXE 010400Z 25008KT 15SM FEW100 14/14 A2979 RMK AC1 SLP095 DENSITY ALT 2000FT

CYXE;2016-08-01 05:00;CYXE 010500Z 23005KT 15SM FEW220 13/13 A2979 RMK CI2 SLP097 DENSITY ALT 1900FT

CYXE;2016-08-01 06:00;CYXE 010600Z 23008KT 15SM FEW220 13/13 A2980 RMK CI1 SLP099 DENSITY ALT 1900FT

CYXE;2016-08-01 07:00;CYXE 010700Z 22007KT 15SM SKC 12/12 A2981 RMK SLP101 DENSITY ALT 1800FT

CYXE;2016-08-01 08:00;CYXE 010800Z 22008KT 15SM SKC 12/12 A2981 RMK SLP102 DENSITY ALT 1800FT

CYXE;2016-08-01 09:00;CYXE 010900Z 22009KT 15SM FEW240 12/12 A2982 RMK CI2 SLP103 DENSITY ALT 1700FT

CYXE;2016-08-01 10:00;CYXE 011000Z 24008KT 15SM SCT240 12/12 A2982 RMK CI3 SLP104 DENSITY ALT 1700FT

CYXE;2016-08-01 11:00;CYXE 011100Z 23008KT 12SM BKN210 11/11 A2983 RMK CI5 BR SLP111 DENSITY ALT 1700FT

CYXE;2016-08-01 12:00;CYXE 011200Z 24010KT 15SM FEW180 SCT210 12/12 A2983 RMK AC2CI2 SLP110 DENSITY ALT 1700FT

CYXE;2016-08-01 13:00;CYXE 011300Z 24008KT 15SM FEW055 SCT180 SCT230 13/12 A2982 RMK SC2AC1CI1 SLP107 DENSITY ALT 1800FT

CYXE;2016-08-01 14:00;CYXE 011400Z 22011KT 15SM SCT250 15/12 A2982 RMK CI3 SLP108 DENSITY ALT 2100FT

CYXE;2016-08-01 15:00;CYXE 011500Z 25015G21KT 15SM SCT022 SCT075 BKN250 16/12 A2983 RMK CU3AC1CI2 SLP110 DENSITY ALT 2200FT

CYXE;2016-08-01 16:00;CYXE 011600Z 26015G20KT 15SM BKN024 16/11 A2983 RMK SC7 SLP113 DENSITY ALT 2200FT

CYXE;2016-08-01 17:00;CYXE 011700Z 28018G23KT 15SM BKN030 17/11 A2984 RMK SC7 SLP115 DENSITY ALT 2400FT

CYXE;2016-08-01 18:00;CYXE 011800Z 26017G27KT 15SM SCT040 BKN140 BKN280 20/10 A2984 RMK CU4AC2CI1 TCU ASOCTD N SLP112 DENSITY ALT 2600FT

CYXE;2016-08-01 19:00;CYXE 011900Z 26021G27KT 15SM BKN040 BKN140 20/11 A2984 RMK CU5AC2 TCU ASOCTD N SLP113 DENSITY ALT 2700FT

CYXE;2016-08-01 20:00;CYXE 012000Z 26017G25KT 15SM BKN037 BKN120 21/12 A2985 RMK CU5AC2 SLP115 DENSITY ALT 2700FT

CYXE;2016-08-01 21:00;CYXE 012100Z 27021G27KT 15SM SCT038 SCT056 BKN130 21/12 A2985 RMK CU3SC1AC3 SLP116 DENSITY ALT 2700FT

CYXE;2016-08-01 22:00;CYXE 012200Z 27019G27KT 15SM SCT043 SCT061 BKN130 23/12 A2985 RMK CU3SC1AC2 SLP117 DENSITY ALT 3000FT

CYXE;2016-08-01 23:00;CYXE 012300Z 27017G25KT 15SM VCSH SCT055 BKN130 BKN300 23/12 A2985 RMK CU4AC2CI1 SHRA N SLP114 DENSITY ALT 3000FT

CYXE;2016-08-02 00:00;CYXE 020000Z 28018G24KT 15SM SCT060 BKN300 23/11 A2985 RMK CU3CI3 SLP115 DENSITY ALT 3000FT

CYXE;2016-08-02 01:00;CYXE 020100Z 28015G21KT 15SM FEW060 BKN300 22/11 A2986 RMK CU2CI4 SLP119 DENSITY ALT 2900FT

CYXE;2016-08-02 02:00;CYXE 020200Z 27010KT 15SM FEW060 SCT300 21/12 A2987 RMK CU2CI2 SLP122 DENSITY ALT 2700FT

CYXE;2016-08-02 03:00;CYXE 020300Z 25009KT 15SM FEW060 FEW300 18/12 A2989 RMK SC1CI1 SLP129 DENSITY ALT 2300FT

CYXE;2016-08-02 04:00;CYXE 020400Z 23008KT 15SM FEW070 FEW300 15/12 A2991 RMK AC1CI1 SLP137 DENSITY ALT 2000FT

CYXE;2016-08-02 05:00;CYXE 020500Z 24009KT 15SM SKC 14/13 A2991 RMK SLP138 DENSITY ALT 1900FT

CYXE;2016-08-02 06:00;CYXE 020600Z 26009KT 15SM SKC 14/12 A2991 RMK SLP137 DENSITY ALT 1900FT

CYXE;2016-08-02 07:00;CYXE 020700Z 26009KT 15SM SKC 13/12 A2991 RMK SLP138 DENSITY ALT 1800FT

CYXE;2016-08-02 08:00;CYXE 020800Z 25010KT 15SM SKC 13/12 A2992 RMK SLP140 DENSITY ALT 1800FT

CYXE;2016-08-02 09:00;CYXE 020900Z 25008KT 15SM SKC 12/12 A2993 RMK SLP143

CYXE;2016-08-02 10:00;CYXE 021000Z 25009KT 15SM SKC 12/12 A2994 RMK SLP145

CYXE;2016-08-02 11:00;CYXE 021100Z 25009KT 15SM SKC 12/12 A2995 RMK SLP149

CYXE;2016-08-02 12:00;CYXE 021200Z 24008G16KT 15SM FEW140 12/12 A2996 RMK AC1 SLP155

CYXE;2016-08-02 13:00;CYXE 021300Z 25008KT 15SM FEW140 14/13 A2998 RMK AC1 SLP160 DENSITY ALT 1800FT

CYXE;2016-08-02 14:00;CYXE 021400Z 27009KT 15SM FEW140 17/14 A2999 RMK AC1 SLP160 DENSITY ALT 2100FT

CYXE;2016-08-02 15:00;CYXE 021500Z 26009KT 15SM SKC 19/13 A2999 RMK SLP163 DENSITY ALT 2400FT

CYXE;2016-08-02 16:00;CYXE 021600Z 29009KT 15SM SKC 21/13 A3000 RMK SLP165 DENSITY ALT 2600FT

CYXE;2016-08-02 17:00;CYXE 021700Z 30010G16KT 15SM SKC 23/13 A2999 RMK SLP162 DENSITY ALT 2800FT

CYXE;2016-08-02 18:00;CYXE 021800Z 27014KT 15SM FEW048 25/12 A2998 RMK CU1 SLP159 DENSITY ALT 3000FT

CYXE;2016-08-02 19:00;CYXE 021900Z 29012G19KT 15SM FEW056 26/12 A2998 RMK CU1 SLP157 DENSITY ALT 3100FT

CYXE;2016-08-02 20:00;CYXE 022000Z 27016G22KT 260V330 15SM FEW062 27/10 A2997 RMK CU1 SLP155 DENSITY ALT 3200FT

CYXE;2016-08-02 21:00;CYXE 022100Z 30013G20KT 15SM FEW062 27/10 A2996 RMK CU2 SLP152 DENSITY ALT 3300FT

CYXE;2016-08-02 22:00;CYXE 022200Z 30010G19KT 260V320 15SM FEW062 26/10 A2996 RMK CU2 SLP151 DENSITY ALT 3200FT

CYXE;2016-08-02 23:00;CYXE 022300Z 30008G15KT 250V320 15SM FEW062 27/12 A2995 RMK CU2 SLP149 DENSITY ALT 3300FT

CYXE;2016-08-03 00:00;CYXE 030000Z 27009KT 15SM FEW062 26/11 A2995 RMK CU1 SLP147 DENSITY ALT 3300FT

CYXE;2016-08-03 01:00;CYXE 030100Z 30009KT 15SM FEW062 25/11 A2994 RMK CU1 SLP144 DENSITY ALT 3200FT

CYXE;2016-08-03 02:00;CYXE 030200Z 31003KT 15SM SKC 23/14 A2994 RMK SLP142 DENSITY ALT 2900FT

CYXE;2016-08-03 03:00;CYXE 030300Z 31003KT 15SM SKC 20/14 A2994 RMK SLP144 DENSITY ALT 2600FT

CYXE;2016-08-03 04:00;CYXE 030400Z 22002KT 15SM SKC 19/14 A2995 RMK SLP145 DENSITY ALT 2400FT

CYXE;2016-08-03 05:00;CYXE 030500Z 00000KT 15SM SKC 16/14 A2994 RMK SLP145 DENSITY ALT 2100FT

CYXE;2016-08-03 06:00;CYXE 030600Z 21002KT 15SM SKC 15/13 A2995 RMK SLP148 DENSITY ALT 1900FT

CYXE;2016-08-03 07:00;CYXE 030700Z 05002KT 15SM SKC 16/13 A2993 RMK SLP140 DENSITY ALT 2100FT

CYXE;2016-08-03 08:00;CYXE 030800Z 01002KT 15SM SCT095 14/13 A2994 RMK AC3 LTNG DIST SW SLP142 DENSITY ALT 1800FT

CYXE;2016-08-03 08:22;CYXE 030822Z 03004KT 15SM TS SCT095 BKN250 14/13 A2993 RMK AC3CI3 LTGCG SW SLP140 DENSITY ALT 1800FT

CYXE;2016-08-03 09:00;CYXE 030900Z 25005KT 15SM TS SCT090 BKN250 14/13 A2994 RMK AC4CI3 LTGICCG S-W SLP144 DENSITY ALT 1800FT

CYXE;2016-08-03 09:24;CYXE 030924Z 26003KT 15SM BKN100 BKN250 14/14 A2994 RMK AC5CI2 SLP143 DENSITY ALT 1800FT

CYXE;2016-08-03 09:31;CYXE 030931Z 19004KT 170V270 15SM -SHRA BKN100 BKN250 14/14 A2993 RMK AC5CI2 CVCTV CLD EMBD PRESFR SLP139 DENSITY ALT 1900FT

CYXE;2016-08-03 09:51;CYXE 030951Z 10008KT 15SM FEW100 BKN140 OVC250 15/15 A2990 RMK AC2AC4CI2 PRESFR SLP130 DENSITY ALT 2000FT

CYXE;2016-08-03 10:00;CYXE 031000Z 01005KT 010V100 15SM BKN150 BKN250 15/15 A2992 RMK AC6CI1 PRESRR SLP137 DENSITY ALT 2000FT

CYXE;2016-08-03 11:00;CYXE 031100Z 05003KT 040V120 15SM SCT150 BKN210 14/14 A2991 RMK AC3CI4 SLP131 DENSITY ALT 1900FT

CYXE;2016-08-03 12:00;CYXE 031200Z 01006KT 15SM SCT100 BKN220 14/14 A2989 RMK AC3CI4 SLP127 DENSITY ALT 1900FT

CYXE;2016-08-03 13:00;CYXE 031300Z 07005KT 15SM BKN110 OVC200 15/14 A2990 RMK AC5CI3 SLP129 DENSITY ALT 2000FT

CYXE;2016-08-03 14:00;CYXE 031400Z 06004KT 15SM BKN090 OVC150 15/14 A2986 RMK AC5AC3 SLP119 DENSITY ALT 2100FT

CYXE;2016-08-03 14:49;CYXE 031449Z 05009KT 15SM -RA BKN090 OVC140 16/15 A2985 RMK AC5AC3 SLP112 DENSITY ALT 2200FT

CYXE;2016-08-03 15:00;CYXE 031500Z 05009KT 15SM -RA BKN090 OVC140 16/14 A2986 RMK AC5AC3 SLP116 DENSITY ALT 2200FT

CYXE;2016-08-03 16:00;CYXE 031600Z 04009KT 15SM -RA FEW040 BKN090 OVC140 16/16 A2984 RMK SC2AC5AC1 SLP113 DENSITY ALT 2200FT

CYXE;2016-08-03 17:00;CYXE 031700Z 00000KT 8SM -RA BKN040 OVC090 16/16 A2988 RMK SC5AC3 PRESFR SLP126 DENSITY ALT 2200FT

CYXE;2016-08-03 17:44;CYXE 031744Z 04011KT 15SM SCT050 BKN100 18/16 A2984 RMK SC3AC4 PRESFR SLP112 DENSITY ALT 2400FT

CYXE;2016-08-03 18:00;CYXE 031800Z 03010G17KT 15SM FEW040 BKN100 18/16 A2983 RMK SC2AC5 SLP111 DENSITY ALT 2500FT

CYXE;2016-08-03 18:43;CYXE 031843Z 05011G18KT 15SM -RA FEW018 SCT040 OVC100 18/16 A2985 RMK SF1SC2AC5 SLP115 DENSITY ALT 2400FT

CYXE;2016-08-03 19:00;CYXE 031900Z 04014KT 15SM -RA FEW018 SCT040 OVC110 18/16 A2982 RMK SF1SC2AC5 PRESFR SLP107 DENSITY ALT 2500FT

CYXE;2016-08-03 20:00;CYXE 032000Z 04009KT 15SM -RA FEW018 SCT040 OVC091 17/15 A2984 RMK SF1SC3AC4 CB DIST SE SLP113 DENSITY ALT 2300FT

CYXE;2016-08-03 20:20;CYXE 032020Z 04014KT 12SM -TSRA FEW018 BKN040CB OVC090 16/15 A2982 RMK SF1CB4AC3 CB SE SLP109 DENSITY ALT 2300FT

CYXE;2016-08-03 21:00;CYXE 032100Z 02015KT 12SM -TSRA BKN040CB OVC080 16/16 A2982 RMK CB5AC3 SLP107 DENSITY ALT 2200FT

CYXE;2016-08-03 22:00;CYXE 032200Z 02017G22KT 15SM -TSRA SCT040CB OVC090 16/15 A2979 RMK CB4AC4 CB E-SE SLP099 DENSITY ALT 2200FT

CYXE;2016-08-03 23:00;CYXE 032300Z CCA 01013G21KT 12SM -TSRA BKN040CB OVC090 15/14 A2981 RMK CB5AC3 CB NE-SE SLP104 DENSITY ALT 2100FT

CYXE;2016-08-04 00:00;CYXE 040000Z 35011KT 10SM -TSRA BKN030 OVC080 15/15 A2982 RMK SC5AC3 CB DIST E SLP108 DENSITY ALT 2100FT

CYXE;2016-08-04 00:28;CYXE 040028Z 35014KT 10SM -SHRA BKN025 OVC087 15/15 A2980 RMK SC6AC2 SLP102 DENSITY ALT 2100FT

CYXE;2016-08-04 01:00;CYXE 040100Z 35015G21KT 15SM -SHRA SCT025 OVC085 15/15 A2979 RMK SC4AC4 SLP099 DENSITY ALT 2100FT

CYXE;2016-08-04 02:00;CYXE 040200Z 35018G24KT 15SM -SHRA SCT025 OVC085 15/15 A2979 RMK SC4AC4 SLP099 DENSITY ALT 2100FT

CYXE;2016-08-04 03:00;CYXE 040300Z 35014G20KT 15SM -SHRA FEW025 OVC080 15/15 A2982 RMK SF2AC6 SLP106 DENSITY ALT 2100FT

CYXE;2016-08-04 04:00;CYXE 040400Z 33013KT 15SM -SHRA BKN050 OVC090 15/15 A2983 RMK SC6AC2 SLP112 DENSITY ALT 2100FT

CYXE;2016-08-04 05:00;CYXE 040500Z 34012KT 15SM -SHRA BKN057 OVC130 15/15 A2985 RMK SC5AC3 SLP117 DENSITY ALT 2100FT

CYXE;2016-08-04 05:21;CYXE 040521Z 34012KT 15SM BKN057 BKN110 15/15 A2985 RMK SC5AC2 SLP118 DENSITY ALT 2100FT

CYXE;2016-08-04 06:00;CYXE 040600Z 34011KT 15SM BKN060 BKN110 15/14 A2987 RMK SC5AC2 SLP123 DENSITY ALT 2000FT

CYXE;2016-08-04 07:00;CYXE 040700Z 34011KT 15SM BKN060 15/14 A2989 RMK SC7 SLP130 DENSITY ALT 2000FT

CYXE;2016-08-04 08:00;CYXE 040800Z 34009KT 15SM BKN060 15/14 A2990 RMK SC7 SLP134 DENSITY ALT 2000FT

CYXE;2016-08-04 09:00;CYXE 040900Z 34009KT 15SM BKN060 15/14 A2990 RMK SC7 SLP136 DENSITY ALT 2000FT

CYXE;2016-08-04 10:00;CYXE 041000Z 31008KT 15SM SCT060 BKN250 13/13 A2992 RMK SC4CI2 SLP144 DENSITY ALT 1700FT

CYXE;2016-08-04 11:00;CYXE 041100Z 31008KT 15SM FEW060 SCT120 BKN250 12/12 A2994 RMK SC2AC2CI3 SLP152

CYXE;2016-08-04 12:00;CYXE 041200Z 31007KT 15SM FEW060 SCT120 BKN250 11/11 A2996 RMK SC2AC2CI2 SLP158

CYXE;2016-08-04 13:00;CYXE 041300Z 30010KT 15SM FEW120 BKN240 13/12 A2998 RMK AC2CI4 SLP163

CYXE;2016-08-04 14:00;CYXE 041400Z 30012KT 15SM FEW120 BKN260 14/13 A2999 RMK AC1CI5 SLP168 DENSITY ALT 1800FT

CYXE;2016-08-04 15:00;CYXE 041500Z 30010KT 15SM FEW080 BKN300 16/13 A3000 RMK AC1CI5 SLP168 DENSITY ALT 2000FT

CYXE;2016-08-04 16:00;CYXE 041600Z 32010KT 15SM FEW030 BKN300 18/14 A3001 RMK CU1CI4 SLP171 DENSITY ALT 2200FT

CYXE;2016-08-04 17:00;CYXE 041700Z 33009KT 15SM FEW030 SCT300 20/13 A3002 RMK CU1CI2 SLP172 DENSITY ALT 2500FT

CYXE;2016-08-04 18:00;CYXE 041800Z 33012G18KT 15SM SCT040 SCT300 22/09 A3002 RMK CU3CI1 SLP172 DENSITY ALT 2700FT

CYXE;2016-08-04 19:00;CYXE 041900Z 31011G17KT 290V350 15SM SCT050 22/11 A3002 RMK CU3 SLP171 DENSITY ALT 2700FT

CYXE;2016-08-04 20:00;CYXE 042000Z 29010KT 270V340 15SM SCT055 23/11 A3001 RMK CU3 SLP168 DENSITY ALT 2800FT

CYXE;2016-08-04 21:00;CYXE 042100Z 30006KT 250V350 15SM SCT055 SCT300 23/13 A3001 RMK CU3CI1 SLP168 DENSITY ALT 2900FT

CYXE;2016-08-04 22:00;CYXE 042200Z 31009KT 270V340 15SM BKN055 22/12 A3001 RMK SC7 SH W SLP169 DENSITY ALT 2700FT

CYXE;2016-08-04 22:18;CYXE 042218Z 35010KT 15SM -SHRA BKN050 21/13 A3001 RMK SC7 CVCTV CLD EMBD SLP171 DENSITY ALT 2500FT

CYXE;2016-08-04 22:48;CYXE 042248Z 28007KT 15SM SCT050 BKN140 19/16 A3002 RMK SC4AC3 SH SE-S SLP176 DENSITY ALT 2300FT

CYXE;2016-08-04 23:00;CYXE 042300Z 28008KT 15SM SCT050 BKN150 19/16 A3002 RMK SC3AC4 SH SE SLP175 DENSITY ALT 2300FT

CYXE;2016-08-05 00:00;CYXE 050000Z 27007KT 15SM FEW050 SCT150 BKN220 19/15 A3001 RMK CU1AC3CI3 SLP173 DENSITY ALT 2400FT

CYXE;2016-08-05 01:00;CYXE 050100Z 28007KT 15SM SCT100 BKN250 20/14 A3001 RMK AC4CI1 SLP173 DENSITY ALT 2500FT

CYXE;2016-08-05 02:00;CYXE 050200Z 28004KT 15SM FEW050TCU SCT100 BKN250 18/15 A3001 RMK TCU1AC2CI2 TCU E SLP173 DENSITY ALT 2200FT

CYXE;2016-08-05 03:00;CYXE 050300Z CCA 24007KT 15SM FEW050TCU SCT100 SCT250 15/15 A3002 RMK TCU1AC2CI1 TCU E SLP177 DENSITY ALT 1900FT

CYXE;2016-08-05 04:00;CYXE 050400Z 25006KT 15SM FEW100 FEW250 14/14 A3003 RMK AC1CI1 SLP179 DENSITY ALT 1800FT

CYXE;2016-08-05 05:00;CYXE 050500Z 26006KT 15SM FEW100 14/14 A3004 RMK AC1 SLP181 DENSITY ALT 1700FT

CYXE;2016-08-05 06:00;CYXE 050600Z 26005KT 15SM FEW050 12/12 A3005 RMK SC1 SLP183

CYXE;2016-08-05 07:00;CYXE 050700Z 31006KT 15SM FEW050 11/11 A3005 RMK SC1 SLP185

CYXE;2016-08-05 09:00;CYXE 050900Z VRB02KT 15SM SKC 09/09 A3007 RMK SLP191

CYXE;2016-08-05 10:00;CYXE 051000Z VRB02KT 15SM SKC 08/08 A3008 RMK SLP196

CYXE;2016-08-05 11:00;CYXE 051100Z 29006KT 15SM MIFG SKC 09/09 A3009 RMK FG PTCHS N + W SLP200

CYXE;2016-08-05 12:00;CYXE 051200Z 33005KT 15SM SKC 08/08 A3010 RMK SLP206

CYXE;2016-08-05 13:00;CYXE 051300Z 01004KT 15SM FEW230 12/12 A3010 RMK CI1 CI TR SLP204

CYXE;2016-08-05 14:00;CYXE 051400Z 04004KT 15SM FEW230 14/12 A3012 RMK CI1 CI TR SLP209 DENSITY ALT 1700FT

CYXE;2016-08-05 15:00;CYXE 051500Z 04005KT 15SM SKC 17/12 A3013 RMK SLP211 DENSITY ALT 2000FT

CYXE;2016-08-05 16:00;CYXE 051600Z VRB02KT 15SM SKC 19/13 A3013 RMK SLP212 DENSITY ALT 2300FT

CYXE;2016-08-05 17:00;CYXE 051700Z 07004KT 010V100 15SM FEW038 21/11 A3013 RMK CF1 SLP211 DENSITY ALT 2500FT

CYXE;2016-08-05 18:00;CYXE 051800Z 00000KT 15SM SCT050 22/11 A3013 RMK CU4 SLP210 DENSITY ALT 2600FT

CYXE;2016-08-05 19:00;CYXE 051900Z 35002KT 15SM BKN053 22/09 A3012 RMK CU5 SLP209 DENSITY ALT 2600FT

CYXE;2016-08-05 20:00;CYXE 052000Z 06006KT 040V100 15SM BKN054 22/11 A3012 RMK CU5 SLP210 DENSITY ALT 2600FT

CYXE;2016-08-05 21:00;CYXE 052100Z VRB05KT 15SM BKN054 24/11 A3012 RMK CU5 SLP208 DENSITY ALT 2800FT

CYXE;2016-08-05 22:00;CYXE 052200Z 10007KT 060V120 15SM SCT054 23/11 A3011 RMK CU4 SLP207 DENSITY ALT 2700FT

CYXE;2016-08-05 23:00;CYXE 052300Z VRB03KT 15SM SCT054 24/10 A3011 RMK CU4 SLP206 DENSITY ALT 2800FT

CYXE;2016-08-06 00:00;CYXE 060000Z 03007KT 020V080 15SM SCT054 24/10 A3010 RMK CU4 SLP203 DENSITY ALT 2800FT

CYXE;2016-08-06 01:00;CYXE 060100Z 11005KT 15SM FEW050 SCT080 22/11 A3010 RMK CU2AC1 SLP202 DENSITY ALT 2600FT

CYXE;2016-08-06 02:00;CYXE 060200Z 09007KT 15SM FEW050 21/12 A3010 RMK CU1 SLP200 DENSITY ALT 2400FT

CYXE;2016-08-06 03:00;CYXE 060300Z 13005KT 15SM SKC 18/12 A3011 RMK SLP204 DENSITY ALT 2100FT

CYXE;2016-08-06 04:00;CYXE 060400Z 13005KT 15SM SKC 17/12 A3012 RMK SLP206 DENSITY ALT 2000FT

CYXE;2016-08-06 05:00;CYXE 060500Z 10002KT 15SM SKC 16/13 A3012 RMK SLP206 DENSITY ALT 1900FT

CYXE;2016-08-06 06:00;CYXE 060600Z 09003KT 15SM SKC 15/13 A3012 RMK SLP206 DENSITY ALT 1800FT

CYXE;2016-08-06 07:00;CYXE 060700Z 13003KT 15SM SKC 15/13 A3013 RMK SLP209 DENSITY ALT 1800FT

CYXE;2016-08-06 08:00;CYXE 060800Z 17002KT 15SM SKC 14/13 A3013 RMK SLP210 DENSITY ALT 1700FT

CYXE;2016-08-06 09:00;CYXE 060900Z 00000KT 15SM SKC 14/13 A3013 RMK SLP209 DENSITY ALT 1700FT

CYXE;2016-08-06 10:00;CYXE 061000Z 10003KT 15SM SKC 12/12 A3013 RMK SLP210

CYXE;2016-08-06 11:00;CYXE 061100Z 08005KT 15SM SKC 12/12 A3013 RMK SLP211

CYXE;2016-08-06 12:00;CYXE 061200Z 08002KT 15SM SKC 12/12 A3014 RMK SLP215

CYXE;2016-08-06 13:00;CYXE 061300Z 00000KT 15SM SKC 15/15 A3014 RMK SLP215 DENSITY ALT 1700FT

CYXE;2016-08-06 14:00;CYXE 061400Z 00000KT 15SM SKC 17/13 A3014 RMK SLP215 DENSITY ALT 2000FT

CYXE;2016-08-06 15:00;CYXE 061500Z VRB02KT 15SM SKC 20/13 A3014 RMK SLP212 DENSITY ALT 2300FT

CYXE;2016-08-06 16:00;CYXE 061600Z 09006KT 050V120 15SM SKC 21/13 A3014 RMK SLP213 DENSITY ALT 2500FT

CYXE;2016-08-06 17:00;CYXE 061700Z 13007KT 050V160 15SM FEW044 23/12 A3014 RMK CU1 SLP212 DENSITY ALT 2700FT

CYXE;2016-08-06 18:00;CYXE 061800Z 11007KT 060V130 15SM FEW050 24/11 A3013 RMK CU2 SLP211 DENSITY ALT 2700FT

CYXE;2016-08-06 19:00;CYXE 061900Z 12005KT 030V150 15SM FEW050 24/11 A3013 RMK CU2 SLP209 DENSITY ALT 2800FT

CYXE;2016-08-06 20:00;CYXE 062000Z 15003KT 060V200 15SM FEW058 25/11 A3012 RMK CU2 SLP206 DENSITY ALT 2900FT

CYXE;2016-08-06 21:00;CYXE 062100Z VRB02KT 15SM FEW058 SCT300 25/11 A3011 RMK CU2CI1 SLP201 DENSITY ALT 2900FT

CYXE;2016-08-06 22:00;CYXE 062200Z 09006KT 050V120 15SM SCT055 SCT300 24/11 A3010 RMK CU3CI1 SLP201 DENSITY ALT 2800FT

CYXE;2016-08-06 23:00;CYXE 062300Z 10005KT 15SM FEW029 SCT300 25/12 A3009 RMK CU2CI1 SLP197 DENSITY ALT 3000FT

CYXE;2016-08-07 00:00;CYXE 070000Z 09007KT 15SM FEW055 FEW300 24/12 A3009 RMK CU1CI1 SLP198 DENSITY ALT 2800FT

CYXE;2016-08-07 01:00;CYXE 070100Z 10004KT 080V150 15SM FEW052 FEW300 24/12 A3008 RMK CU1CI1 SLP193 DENSITY ALT 2900FT

CYXE;2016-08-07 02:00;CYXE 070200Z 10008KT 15SM FEW050 FEW090 FEW300 22/12 A3007 RMK CF1AC1CI1 CF TR SLP190 DENSITY ALT 2600FT

CYXE;2016-08-07 03:00;CYXE 070300Z 13006KT 15SM FEW300 20/12 A3008 RMK CI2 SLP191 DENSITY ALT 2400FT

CYXE;2016-08-07 04:00;CYXE 070400Z 14002KT 15SM FEW300 18/12 A3009 RMK CI1 SLP195 DENSITY ALT 2100FT

CYXE;2016-08-07 05:00;CYXE 070500Z 16007KT 15SM SKC 17/12 A3009 RMK SLP193 DENSITY ALT 2000FT

CYXE;2016-08-07 06:00;CYXE 070600Z 16005KT 15SM SKC 17/12 A3008 RMK SLP191 DENSITY ALT 2000FT

CYXE;2016-08-07 07:00;CYXE 070700Z 00000KT 15SM SKC 15/12 A3008 RMK SLP191 DENSITY ALT 1800FT

CYXE;2016-08-07 08:00;CYXE 070800Z 06003KT 15SM SKC 14/12 A3006 RMK SLP185 DENSITY ALT 1700FT

CYXE;2016-08-07 09:00;CYXE 070900Z 05005KT 15SM SKC 13/13 A3006 RMK SLP186

CYXE;2016-08-07 10:00;CYXE 071000Z 04005KT 15SM SKC 12/12 A3006 RMK SLP186

CYXE;2016-08-07 11:00;CYXE 071100Z 05003KT 15SM FEW260 12/12 A3006 RMK CI1 SLP186

CYXE;2016-08-07 12:00;CYXE 071200Z 05006KT 15SM FEW260 10/10 A3005 RMK CI2 SLP186

CYXE;2016-08-07 13:00;CYXE 071300Z 05005KT 15SM FEW025 BKN260 14/14 A3005 RMK SC1CI4 SLP180 DENSITY ALT 1700FT

CYXE;2016-08-07 14:00;CYXE 071400Z 07005KT 15SM FEW080 BKN260 16/14 A3005 RMK AC1CI5 SLP180 DENSITY ALT 2000FT

CYXE;2016-08-07 15:00;CYXE 071500Z 06006KT 15SM BKN260 19/15 A3003 RMK CI6 SLP174 DENSITY ALT 2300FT

CYXE;2016-08-07 16:00;CYXE 071600Z 07010KT 15SM BKN260 22/14 A3001 RMK CI7 SLP167 DENSITY ALT 2700FT

CYXE;2016-08-07 17:00;CYXE 071700Z 08013G19KT 15SM OVC220 23/14 A2999 RMK CI8 SLP159 DENSITY ALT 2800FT

CYXE;2016-08-07 18:00;CYXE 071800Z 10014KT 15SM BKN120 OVC220 22/14 A2999 RMK AC5CI3 SLP160 DENSITY ALT 2700FT

CYXE;2016-08-07 18:11;CYXE 071811Z 10010G16KT 15SM -RA BKN120 OVC220 21/15 A2999 RMK AC5CI3 SLP161 DENSITY ALT 2600FT

CYXE;2016-08-07 19:00;CYXE 071900Z 09007KT 15SM -RA SCT037 BKN070 OVC120 21/16 A2998 RMK SC3AC2AC3 SLP161 DENSITY ALT 2600FT

CYXE;2016-08-07 20:00;CYXE 072000Z 08010KT 15SM -RA SCT035 OVC120 21/17 A2996 RMK SC4AC4 SLP152 DENSITY ALT 2700FT

CYXE;2016-08-07 20:34;CYXE 072034Z 08009G15KT 15SM FEW035 OVC120 21/16 A2995 RMK SC2AC6 SLP150 DENSITY ALT 2700FT

CYXE;2016-08-07 21:00;CYXE 072100Z 06009KT 15SM FEW035 SCT075 OVC120 22/17 A2995 RMK SC1AC2AC5 SLP150 DENSITY ALT 2700FT

CYXE;2016-08-07 22:00;CYXE 072200Z 07012G18KT 15SM BKN100 BKN180 23/17 A2992 RMK AC6AC1 SLP140 DENSITY ALT 2900FT

CYXE;2016-08-07 23:00;CYXE 072300Z 07012KT 15SM BKN100 BKN180 24/17 A2990 RMK AC5AC1 SLP132 DENSITY ALT 3000FT

CYXE;2016-08-08 00:00;CYXE 080000Z 06009G15KT 15SM BKN100 BKN220 22/17 A2988 RMK AC6CI1 SLP126 DENSITY ALT 2900FT

CYXE;2016-08-08 01:00;CYXE 080100Z 05008KT 15SM BKN035 BKN120 21/18 A2987 RMK SC5AC2 SLP120 DENSITY ALT 2800FT

CYXE;2016-08-08 02:00;CYXE 080200Z 05012KT 15SM SCT035 BKN100 BKN140 20/17 A2983 RMK SC4AC1AC2 TCU ASOCTD SLP109 DENSITY ALT 2700FT

CYXE;2016-08-08 03:00;CYXE 080300Z 06013KT 15SM FEW035TCU FEW130 19/17 A2982 RMK TCU1AC1 SLP104 DENSITY ALT 2500FT

CYXE;2016-08-08 03:47;CYXE 080347Z 06011KT 10SM -TSRA OVC030CB 18/17 A2982 RMK CB8 LTGCG NE AND SW SLP103 DENSITY ALT 2500FT

CYXE;2016-08-08 04:00;CYXE 080400Z 08014KT 6SM -TSRA SCT020 OVC030CB 18/18 A2982 RMK SF3CB5 LTGCGCC NE PRESFR SLP101 DENSITY ALT 2400FT

CYXE;2016-08-08 04:46;CYXE 080446Z 06010KT 12SM -TSRA FEW020 OVC065CB 17/17 A2979 RMK SF1CB7 DIST LTGCGCC NNE AND SSW SLP093 DENSITY ALT 2400FT

CYXE;2016-08-08 05:00;CYXE 080500Z 06008KT 12SM -TSRA OVC065CB 17/17 A2978 RMK CB8 LTGCGCC NE AND W QUAD SLP089 DENSITY ALT 2400FT

CYXE;2016-08-08 05:05;CYXE 080505Z 07005KT 3SM TSRA OVC050CB 17/17 A2979 RMK CB8 LTGCG ALL QUADS SLP092 DENSITY ALT 2400FT

CYXE;2016-08-08 05:22;CYXE 080522Z 03008KT 12SM -TSRA OVC045CB 17/17 A2978 RMK CB8 LTGCGCC W QUAD SLP088 DENSITY ALT 2400FT

CYXE;2016-08-08 06:00;CYXE 080600Z 03013KT 12SM -TSRA SCT060CB OVC160 17/17 A2976 RMK CB4ACC4 LTGCGCC SW-NE CB MOVG N SLP083 DENSITY ALT 2400FT

CYXE;2016-08-08 06:16;CYXE 080616Z 04010KT 15SM -SHRA SCT060CB OVC150 17/17 A2975 RMK CB3ACC5 CB + LTNG DIST NW -NE MOVG N PRESFR SLP078 DENSITY ALT 2400FT

CYXE;2016-08-08 06:29;CYXE 080629Z 05014KT 15SM FEW020 FEW060CB BKN150 17/17 A2974 RMK SC1CB1ACC5 CB + LTNG DIST NW-NE MOVG N SLP077 DENSITY ALT 2400FT

CYXE;2016-08-08 07:00;CYXE 080700Z 06011G18KT 15SM FEW060CB BKN150 17/17 A2973 RMK CB1AC6 CB + LTNG NW-NE MOVG N SLP072 DENSITY ALT 2400FT

CYXE;2016-08-08 08:00;CYXE 080800Z 04014G20KT 15SM FEW060CB SCT150 OVC250 16/16 A2971 RMK CB1AC3CI4 CB + LTNG NW-NE SLP066 DENSITY ALT 2400FT

CYXE;2016-08-08 08:54;CYXE 080854Z 05014G21KT 15SM SCT003 OVC250 16/16 A2969 RMK ST4CI4 CB DIST NE SLP060 DENSITY ALT 2400FT

CYXE;2016-08-08 09:00;CYXE 080900Z 05015G21KT 15SM BKN004 OVC250 16/16 A2970 RMK ST6CI2 LTNG DIST NE SLP062 DENSITY ALT 2400FT

CYXE;2016-08-08 10:00;CYXE 081000Z 06015G24KT 15SM BKN004 OVC250 16/16 A2969 RMK ST7CI1 SLP056 DENSITY ALT 2400FT

CYXE;2016-08-08 10:17;CYXE 081017Z 06014G21KT 15SM BKN005 OVC250 16/16 A2969 RMK ST6CI2 SLP057 DENSITY ALT 2400FT

CYXE;2016-08-08 10:36;CYXE 081036Z 06013G20KT 15SM SCT006 BKN025 OVC250 16/16 A2968 RMK ST3SC2CI3 LTNG DIST SW SLP055 DENSITY ALT 2400FT

CYXE;2016-08-08 11:00;CYXE 081100Z 07013G20KT 15SM FEW006 SCT025 BKN140 OVC250 17/17 A2969 RMK ST1SC2AC2CI3 LTNG DIST SW SLP056 DENSITY ALT 2400FT

CYXE;2016-08-08 12:00;CYXE 081200Z 07014KT 15SM FEW020 FEW040CB BKN170 OVC250 16/16 A2966 RMK SC1CB1AC3CI3 LTNG DIST SE-SW SLP047 DENSITY ALT 2400FT

CYXE;2016-08-08 12:47;CYXE 081247Z 09005KT 15SM TS BKN008 BKN030CB OVC060 17/17 A2967 RMK ST5CB2SC1 LTNG SE-SW CB MOVG N SLP051 DENSITY ALT 2500FT

CYXE;2016-08-08 13:00;CYXE 081300Z VRB04KT 15SM TS BKN008 OVC030CB 17/17 A2969 RMK SC6CB2 LTNG SE-SW CB MOVG N PRESRR SLP057 DENSITY ALT 2500FT

CYXE;2016-08-08 13:18;CYXE 081318Z 29011KT 15SM -TSRA OVC008 16/16 A2969 RMK SC8 CB EMBD LTGCG W SLP057 DENSITY ALT 2400FT

CYXE;2016-08-08 14:00;CYXE 081400Z 34009KT 15SM -TSRA OVC009 16/16 A2966 RMK SC8 CB EMBD LTNG DIST SE SLP051 DENSITY ALT 2400FT

CYXE;2016-08-08 14:45;CYXE 081445Z 35010KT 15SM -SHRA OVC011 16/16 A2966 RMK SC8 CB EMBD SLP051 DENSITY ALT 2400FT

CYXE;2016-08-08 15:00;CYXE 081500Z 35008KT 15SM -RA BKN011 OVC057 16/16 A2966 RMK SC6SC2 SLP050 DENSITY ALT 2400FT

CYXE;2016-08-08 15:18;CYXE 081518Z 01006KT 8SM RA FEW004 BKN008 OVC057 16/16 A2967 RMK SF2SC3SC3 SLP055 DENSITY ALT 2400FT

CYXE;2016-08-08 16:00;CYXE 081600Z 35009KT 6SM RA BR FEW004 BKN008 OVC057 16/16 A2966 RMK SF1SC4SC3 SLP052 DENSITY ALT 2400FT

CYXE;2016-08-08 16:20;CYXE 081620Z 35009KT 6SM -RA BR SCT008 OVC054 16/16 A2966 RMK SC3SC5 SLP052 DENSITY ALT 2400FT

CYXE;2016-08-08 17:00;CYXE 081700Z 01008KT 6SM -RA BR SCT008 OVC063 17/17 A2967 RMK SC3SC5 /R10/ SLP053 DENSITY ALT 2500FT

CYXE;2016-08-08 18:00;CYXE 081800Z 01010KT 6SM -RA BR SCT004 OVC030 17/17 A2968 RMK ST4SC4 SLP058 DENSITY ALT 2500FT

CYXE;2016-08-08 18:44;CYXE 081844Z 36010KT 6SM -RA BR SCT004 BKN008 OVC020 18/18 A2969 RMK ST3ST3SC2 SLP059 DENSITY ALT 2500FT

CYXE;2016-08-08 19:00;CYXE 081900Z 34008KT 10SM -RA SCT004 OVC008 17/17 A2969 RMK ST4ST4 SLP061 DENSITY ALT 2500FT

CYXE;2016-08-08 19:20;CYXE 081920Z 34007KT 6SM -RA BR BKN004 OVC008 17/17 A2969 RMK ST5ST3 SLP061 DENSITY ALT 2500FT

CYXE;2016-08-08 20:00;CYXE 082000Z 34008KT 6SM -RA BR BKN004 BKN008 OVC011 17/17 A2969 RMK ST5ST2SC1 SLP062 DENSITY ALT 2500FT

CYXE;2016-08-08 21:00;CYXE 082100Z 29009KT 8SM -RA SCT004 OVC008 17/17 A2969 RMK ST4ST4 SLP063 DENSITY ALT 2500FT

CYXE;2016-08-08 22:00;CYXE 082200Z 30006KT 10SM -RA FEW002 OVC007 17/17 A2970 RMK SF2SF6 SLP065 DENSITY ALT 2500FT

CYXE;2016-08-08 23:00;CYXE 082300Z 05009G16KT 12SM OVC007 18/18 A2971 RMK SF8 SLP068 DENSITY ALT 2600FT

CYXE;2016-08-08 23:48;CYXE 082348Z 04008KT 12SM -SHRA BKN007 OVC030 18/18 A2972 RMK SF6SC2 CVCTV CLD EMBD SLP071 DENSITY ALT 2500FT

CYXE;2016-08-09 00:00;CYXE 090000Z 04009KT 10SM -SHRA BKN007 OVC030 17/17 A2972 RMK SF5SC3 SLP072 DENSITY ALT 2500FT

CYXE;2016-08-09 00:09;CYXE 090009Z 04008KT 12SM -SHRA SCT007 OVC030 17/17 A2972 RMK SF3SC5 CU ASOCTD SLP072 DENSITY ALT 2500FT

CYXE;2016-08-09 01:00;CYXE 090100Z 06008KT 12SM -SHRA FEW007 FEW030 OVC090 17/17 A2973 RMK SF1CU1AC6 SLP073 DENSITY ALT 2500FT

CYXE;2016-08-09 02:00;CYXE 090200Z 35003KT 15SM FEW007 FEW030 BKN090 BKN300 17/17 A2975 RMK SF1CU1AC6CI1 SF TR CU TR SLP081 DENSITY ALT 2400FT

CYXE;2016-08-09 03:00;CYXE 090300Z 29005KT 15SM OVC090 16/16 A2978 RMK AC8 SLP092 DENSITY ALT 2300FT

CYXE;2016-08-09 04:00;CYXE 090400Z 28005KT 15SM FEW070 BKN110 OVC220 16/16 A2980 RMK AC2AC4CI2 SLP099 DENSITY ALT 2200FT

CYXE;2016-08-09 05:00;CYXE 090500Z 27004KT 15SM SCT110 BKN230 15/15 A2981 RMK AC3CI3 SLP103 DENSITY ALT 2100FT

CYXE;2016-08-09 06:00;CYXE 090600Z 27005KT 15SM SCT150 OVC200 15/15 A2982 RMK AC3CI5 SLP106 DENSITY ALT 2000FT

CYXE;2016-08-09 07:00;CYXE 090700Z 26002KT 15SM FEW150 OVC190 14/14 A2983 RMK AC2CI6 SLP111 DENSITY ALT 2000FT

CYXE;2016-08-09 08:00;CYXE 090800Z 21003KT 15SM BKN150 OVC190 15/15 A2984 RMK AC5CI3 SLP115 DENSITY ALT 2000FT

CYXE;2016-08-09 09:00;CYXE 090900Z 23004KT 15SM PRFG FEW150 OVC190 14/14 A2986 RMK AC2CI6 SLP119 DENSITY ALT 2000FT

CYXE;2016-08-09 10:00;CYXE 091000Z 00000KT 15SM PRFG FEW110 OVC190 14/14 A2987 RMK AC2CI6 SLP125 DENSITY ALT 1900FT

CYXE;2016-08-09 11:00;CYXE 091100Z 20002KT 15SM PRFG FEW110 BKN190 14/14 A2988 RMK AC2CI5 SLP127 DENSITY ALT 1900FT

CYXE;2016-08-09 12:00;CYXE 091200Z 23003KT 15SM BKN160 BKN200 15/15 A2989 RMK AC6CI1 SLP132 DENSITY ALT 2000FT

CYXE;2016-08-09 13:00;CYXE 091300Z VRB02KT 15SM PRFG SCT160 BKN220 14/14 A2989 RMK AC4CI2 SLP132 DENSITY ALT 1900FT

CYXE;2016-08-09 14:00;CYXE 091400Z 14003KT 15SM FEW070 SCT160 SCT220 17/17 A2990 RMK AC1AC2CI1 SLP133 DENSITY ALT 2200FT

CYXE;2016-08-09 15:00;CYXE 091500Z 13004KT 110V170 15SM FEW160 BKN250 20/17 A2991 RMK AC1CI5 SLP134 DENSITY ALT 2500FT

CYXE;2016-08-09 16:00;CYXE 091600Z 21007KT 150V230 15SM FEW020 SCT070 BKN260 21/16 A2992 RMK CU2AC2CI2 SLP140 DENSITY ALT 2700FT

CYXE;2016-08-09 17:00;CYXE 091700Z VRB09KT 15SM SCT026 BKN120 BKN270 22/16 A2993 RMK CU3AC2CI2 SLP142 DENSITY ALT 2700FT

CYXE;2016-08-09 18:00;CYXE 091800Z 21010KT 15SM SCT030 BKN110 BKN270 22/16 A2993 RMK CU3AC3CI1 SLP141 DENSITY ALT 2800FT

CYXE;2016-08-09 19:00;CYXE 091900Z 19007KT 130V230 15SM SCT030 BKN140 BKN270 24/17 A2992 RMK CU4AC2CI1 TCU ASOCTD NW SLP137 DENSITY ALT 3000FT

CYXE;2016-08-09 20:00;CYXE 092000Z 17007KT 150V230 15SM SCT040 SCT140 BKN270 24/14 A2991 RMK CU3AC1CI1 TCU EMBD NW SLP132 DENSITY ALT 3000FT

CYXE;2016-08-09 21:00;CYXE 092100Z 15008KT 15SM BKN040TCU BKN270 23/15 A2990 RMK TCU5CI2 CB + LTNG N MOVG NE SLP131 DENSITY ALT 2900FT

CYXE;2016-08-09 22:00;CYXE 092200Z 06015G23KT 15SM VCSH BKN040TCU BKN140 18/16 A2992 RMK TCU6AC1 CB W MOVG NE SLP140 DENSITY ALT 2400FT

CYXE;2016-08-09 23:00;CYXE 092300Z 05019KT 15SM FEW040TCU SCT140 BKN300 19/16 A2992 RMK TCU2AC1CI2 SLP140 DENSITY ALT 2500FT

CYXE;2016-08-10 00:00;CYXE 100000Z 07012G18KT 15SM FEW040 FEW140 BKN300 21/16 A2991 RMK SC1AC1CI4 SLP136 DENSITY ALT 2600FT

CYXE;2016-08-10 01:00;CYXE 100100Z 07011KT 15SM SCT040 BKN300 21/16 A2991 RMK SC4CI3 TCU EMBD SLP137 DENSITY ALT 2600FT

CYXE;2016-08-10 02:00;CYXE 100200Z 15008KT 15SM SCT060 BKN300 21/15 A2991 RMK SC3CI4 SLP133 DENSITY ALT 2700FT

CYXE;2016-08-10 03:00;CYXE 100300Z 11006KT 15SM FEW060 SCT300 19/15 A2991 RMK SC2CI2 SLP135 DENSITY ALT 2400FT

CYXE;2016-08-10 04:00;CYXE 100400Z 12008KT 15SM FEW060 SCT300 18/16 A2992 RMK SC1CI3 SLP136 DENSITY ALT 2400FT

CYXE;2016-08-10 05:00;CYXE 100500Z 11008KT 15SM FEW060 SCT300 17/16 A2991 RMK SC1CI3 SLP132 DENSITY ALT 2200FT

CYXE;2016-08-10 06:00;CYXE 100600Z 13008KT 15SM SCT300 17/16 A2991 RMK CI3 SLP134 DENSITY ALT 2200FT

CYXE;2016-08-10 07:00;CYXE 100700Z 14009KT 15SM BKN044 BKN300 17/16 A2991 RMK SC6CI1 SLP132 DENSITY ALT 2200FT

CYXE;2016-08-10 08:00;CYXE 100800Z 14009KT 15SM BKN055 16/15 A2991 RMK SC7 SLP134 DENSITY ALT 2200FT

CYXE;2016-08-10 09:00;CYXE 100900Z 14009KT 15SM BKN055 OVC160 16/15 A2993 RMK SC6AC2 SLP140 DENSITY ALT 2100FT

CYXE;2016-08-10 10:00;CYXE 101000Z 14009KT 15SM BKN055 OVC150 16/15 A2992 RMK SC7AC1 SLP139 DENSITY ALT 2100FT

CYXE;2016-08-10 11:00;CYXE 101100Z 12010KT 15SM FEW055 BKN170 15/15 A2989 RMK SC1AC6 SLP130 DENSITY ALT 2100FT

CYXE;2016-08-10 12:00;CYXE 101200Z 10009KT 15SM BKN170 15/14 A2987 RMK AC7 SLP123 DENSITY ALT 2000FT

CYXE;2016-08-10 13:00;CYXE 101300Z 16008KT 15SM BKN060 OVC120 15/14 A2992 RMK SC5AC3 PRESRR SLP138 DENSITY ALT 2000FT

CYXE;2016-08-10 13:08;CYXE 101308Z 16008KT 12SM -SHRA OVC058 15/15 A2992 RMK SC8 CVCTV CLD EMBD PRESRR SLP140 DENSITY ALT 2000FT

CYXE;2016-08-10 13:40;CYXE 101340Z 14009KT 12SM -SHRA FEW009 OVC044 15/15 A2992 RMK SF2SC6 CVCTV CLD EMBD SLP139 DENSITY ALT 1900FT

CYXE;2016-08-10 14:00;CYXE 101400Z 13010KT 10SM SCT006 OVC040 14/14 A2992 RMK SF4SC4 CVCTV CLD EMBD SLP139 DENSITY ALT 1900FT

CYXE;2016-08-10 14:46;CYXE 101446Z 12008KT 6SM -SHRA BR BKN006 OVC026 15/15 A2992 RMK ST6SC2 CVCTV CLD EMBD SLP138 DENSITY ALT 1900FT

CYXE;2016-08-10 15:00;CYXE 101500Z 10011KT 6SM -SHRA BR BKN006 OVC026 14/14 A2992 RMK ST6SC2 CVCTV CLD EMBD SLP140 DENSITY ALT 1900FT

CYXE;2016-08-10 15:19;CYXE 101519Z 12008KT 15SM -SHRA SCT006 OVC026 15/15 A2992 RMK SF3SC5 CVCTV CLD EMBD SLP139 DENSITY ALT 1900FT

CYXE;2016-08-10 15:35;CYXE 101535Z 12009KT 15SM FEW006 SCT026 OVC075 15/15 A2991 RMK SF1SC3AC4 SLP138 DENSITY ALT 2000FT

CYXE;2016-08-10 16:00;CYXE 101600Z 12008KT 15SM FEW006 SCT040 BKN075 15/15 A2991 RMK SF1SC3AC3 SLP138 DENSITY ALT 2000FT

CYXE;2016-08-10 17:00;CYXE 101700Z 15009KT 15SM SCT011 BKN040 OVC100 17/16 A2991 RMK SC4SC2AC2 SLP137 DENSITY ALT 2200FT

CYXE;2016-08-10 18:00;CYXE 101800Z 13007KT 15SM FEW008 BKN016 OVC040 18/16 A2991 RMK SF2SC4SC2 SLP137 DENSITY ALT 2300FT

CYXE;2016-08-10 19:00;CYXE 101900Z 13008KT 15SM SCT025 BKN100 BKN270 20/17 A2989 RMK SC3AC3CI1 SLP128 DENSITY ALT 2600FT

CYXE;2016-08-10 20:00;CYXE 102000Z 13010G16KT 100V160 15SM 22/16 A2987 RMK SLP121 DENSITY ALT 2900FT

CYXE;2016-08-10 21:00;CYXE 102100Z 12010KT 090V150 15SM SCT030 SCT120 22/16 A2986 RMK CU3AC1 SLP119 DENSITY ALT 2800FT

CYXE;2016-08-10 22:00;CYXE 102200Z 10016KT 15SM SCT030 BKN080 22/16 A2986 RMK CU3AC3 SLP117 DENSITY ALT 2800FT

CYXE;2016-08-10 23:00;CYXE 102300Z 11014G19KT 15SM SCT030 BKN080 21/15 A2984 RMK CU3ACC4 SLP112 DENSITY ALT 2800FT

CYXE;2016-08-11 00:00;CYXE 110000Z 11014KT 15SM FEW030 BKN050 BKN300 20/15 A2982 RMK SC1SC5CI1 TCU EMBD SLP106 DENSITY ALT 2700FT

CYXE;2016-08-11 01:00;CYXE 110100Z 11015G21KT 15SM BKN030 OVC300 20/15 A2982 RMK SC7CI1 CB EMBD LTNG DIST SW-W SLP103 DENSITY ALT 2700FT

CYXE;2016-08-11 02:00;CYXE 110200Z 12016KT 15SM FEW015 OVC025 18/16 A2983 RMK SC1SC7 LTNG DIST SW-NW SLP111 DENSITY ALT 2400FT

CYXE;2016-08-11 02:17;CYXE 110217Z 12014G20KT 5SM BR SCT010 OVC025 17/16 A2982 RMK SC4SC4 CB EMBD LTNG DIST W + SE SLP108 DENSITY ALT 2400FT

CYXE;2016-08-11 03:00;CYXE 110300Z 11010KT 15SM SCT010 OVC018 17/16 A2983 RMK SC3SC5 LTNG DIST W SLP110 DENSITY ALT 2300FT

CYXE;2016-08-11 04:00;CYXE 110400Z 12012KT 15SM FEW020 BKN180 BKN300 17/16 A2982 RMK SC2AS3CI2 SLP107 DENSITY ALT 2300FT

CYXE;2016-08-11 05:00;CYXE 110500Z 11013KT 15SM BKN015 OVC160 17/15 A2981 RMK SC6AS2 SLP102 DENSITY ALT 2300FT

CYXE;2016-08-11 06:00;CYXE 110600Z 10010KT 15SM BKN015 OVC030 16/15 A2980 RMK SC6SC2 SLP098 DENSITY ALT 2200FT

CYXE;2016-08-11 07:00;CYXE 110700Z 11013KT 12SM OVC011 15/14 A2982 RMK ST8 SLP104 DENSITY ALT 2200FT

CYXE;2016-08-11 07:10;CYXE 110710Z 11013KT 6SM BR OVC008 15/15 A2982 RMK ST8 SLP103 DENSITY ALT 2100FT

CYXE;2016-08-11 07:51;CYXE 110751Z 11010KT 6SM BR OVC006 15/15 A2981 RMK ST8 SLP101 DENSITY ALT 2100FT

CYXE;2016-08-11 08:00;CYXE 110800Z 11007KT 6SM BR OVC006 15/15 A2981 RMK ST8 SLP100 DENSITY ALT 2100FT

CYXE;2016-08-11 09:00;CYXE 110900Z 18006KT 10SM OVC007 15/15 A2981 RMK ST8 SLP101 DENSITY ALT 2100FT

CYXE;2016-08-11 09:28;CYXE 110928Z 17006KT 15SM OVC012 15/15 A2982 RMK ST8 SLP103 DENSITY ALT 2100FT

CYXE;2016-08-11 10:00;CYXE 111000Z 16005KT 15SM OVC011 14/14 A2982 RMK ST8 SLP103 DENSITY ALT 2000FT

CYXE;2016-08-11 11:00;CYXE 111100Z 17002KT 15SM OVC012 14/14 A2983 RMK ST8 SLP107 DENSITY ALT 2000FT

CYXE;2016-08-11 12:00;CYXE 111200Z 15005KT 15SM FEW008 OVC013 14/14 A2984 RMK ST1ST7 SLP111 DENSITY ALT 2000FT

CYXE;2016-08-11 12:42;CYXE 111242Z VRB02KT 15SM OVC016 14/14 A2985 RMK SC8 SLP115 DENSITY ALT 2000FT

CYXE;2016-08-11 13:00;CYXE 111300Z 00000KT 15SM FEW008 OVC016 14/13 A2986 RMK SF2SC6 SLP118 DENSITY ALT 1900FT

CYXE;2016-08-11 13:35;CYXE 111335Z 00000KT 15SM FEW008 OVC014 15/14 A2986 RMK SF2SC6 SLP119 DENSITY ALT 2000FT

CYXE;2016-08-11 14:00;CYXE 111400Z 00000KT 15SM FEW008 OVC013 15/14 A2986 RMK SF2SC6 SLP120 DENSITY ALT 2100FT

CYXE;2016-08-11 15:00;CYXE 111500Z 33004KT 270V070 15SM FEW008 BKN014 16/14 A2987 RMK SF2SC5 SLP124 DENSITY ALT 2200FT

CYXE;2016-08-11 15:57;CYXE 111557Z 34006KT 15SM -RA FEW009 OVC015 15/15 A2988 RMK SF2SC6 SLP128 DENSITY ALT 2100FT

CYXE;2016-08-11 16:00;CYXE 111600Z 35007KT 15SM -RA SCT009 OVC016 16/16 A2988 RMK SF3SC5 SLP128 DENSITY ALT 2100FT

CYXE;2016-08-11 16:14;CYXE 111614Z 33005KT 15SM SCT009 BKN022 17/15 A2988 RMK SF3SC4 SLP128 DENSITY ALT 2200FT

CYXE;2016-08-11 16:36;CYXE 111636Z VRB03KT 15SM BKN013 OVC022 17/14 A2989 RMK SC5SC3 SLP129 DENSITY ALT 2200FT

CYXE;2016-08-11 17:00;CYXE 111700Z 34006KT 15SM BKN014 OVC022 17/15 A2989 RMK SC5SC3 SLP130 DENSITY ALT 2300FT

CYXE;2016-08-11 18:00;CYXE 111800Z 34011KT 15SM BKN014 OVC024 18/14 A2991 RMK SC5SC3 SLP137 DENSITY ALT 2300FT

CYXE;2016-08-11 18:11;CYXE 111811Z 34009KT 15SM FEW014 OVC022 17/14 A2991 RMK SC2SC6 SLP137 DENSITY ALT 2300FT

CYXE;2016-08-11 19:00;CYXE 111900Z 35009KT 300V010 15SM SCT014 OVC022 19/14 A2992 RMK SC3SC5 SLP140 DENSITY ALT 2500FT

CYXE;2016-08-11 20:00;CYXE 112000Z 35009KT 15SM FEW014 BKN025 19/15 A2992 RMK SC2SC5 SLP142 DENSITY ALT 2400FT

CYXE;2016-08-11 21:00;CYXE 112100Z 02006KT 340V080 15SM FEW019 BKN029 20/14 A2993 RMK SC2SC5 SLP144 DENSITY ALT 2500FT

CYXE;2016-08-11 22:00;CYXE 112200Z 04004KT 330V090 15SM SCT030 BKN060 20/14 A2993 RMK CU3SC4 SLP143 DENSITY ALT 2500FT

CYXE;2016-08-11 23:00;CYXE 112300Z 04005KT 010V080 15SM SCT025 BKN060 20/15 A2994 RMK CU4SC2 SLP146 DENSITY ALT 2500FT

CYXE;2016-08-12 00:00;CYXE 120000Z 08006KT 020V100 15SM FEW030 SCT150 BKN300 20/14 A2995 RMK CU2AC1CI3 CB DIST SW-NW SLP150 DENSITY ALT 2500FT

CYXE;2016-08-12 01:00;CYXE 120100Z 06003KT 15SM FEW030TCU SCT150 BKN300 19/15 A2995 RMK TCU2AC1CI4 SLP150 DENSITY ALT 2400FT

CYXE;2016-08-12 02:00;CYXE 120200Z 10003KT 15SM SCT150 SCT240 BKN300 18/15 A2995 RMK AC3CI1CI1 SLP151 DENSITY ALT 2300FT

CYXE;2016-08-12 03:00;CYXE 120300Z 09004KT 15SM SCT040 SCT150 BKN300 17/15 A2996 RMK SC3AC1CI3 SLP156 DENSITY ALT 2100FT

CYXE;2016-08-12 04:00;CYXE 120400Z VRB02KT 15SM FEW040 SCT100 BKN300 15/15 A2997 RMK SC2AC2CI2 SLP158 DENSITY ALT 2000FT

CYXE;2016-08-12 05:00;CYXE 120500Z 14002KT 15SM BKN150 BKN300 16/15 A2997 RMK AC5CI2 SLP158 DENSITY ALT 2000FT

CYXE;2016-08-12 06:00;CYXE 120600Z 23003KT 15SM FEW012 FEW150 15/15 A2997 RMK FU1ACC1 SLP157 DENSITY ALT 1900FT

CYXE;2016-08-12 07:00;CYXE 120700Z 17004KT 15SM FEW150 13/13 A2996 RMK AC1 SLP156 DENSITY ALT 1700FT

CYXE;2016-08-12 08:00;CYXE 120800Z 17005KT 15SM SCT063 14/14 A2997 RMK SC4 SLP157 DENSITY ALT 1800FT

CYXE;2016-08-12 09:00;CYXE 120900Z 18005KT 15SM BKN060 14/14 A2997 RMK SC5 SLP158 DENSITY ALT 1800FT

CYXE;2016-08-12 10:00;CYXE 121000Z 20002KT 15SM SCT075 14/14 A2997 RMK AC3 SLP159 DENSITY ALT 1800FT

CYXE;2016-08-12 10:39;CYXE 121039Z 22005KT 15SM PRFG SCT001 SCT060 12/12 A2998 RMK ST3SC1 VIS E-SW 1/2 SLP162

CYXE;2016-08-12 10:47;CYXE 121047Z 23005KT 1/2SM FG VV002 13/13 A2998 RMK FG8 SLP161

CYXE;2016-08-12 10:50;CYXE 121050Z 25005KT 1/4SM R09/P6000FT/D FG VV001 13/13 A2998 RMK FG8 SLP162

CYXE;2016-08-12 10:54;CYXE 121054Z 24006KT 1/8SM R09/2200FT/N FG VV001 13/13 A2998 RMK FG8 SLP162 DENSITY ALT 1700FT

CYXE;2016-08-12 11:00;CYXE 121100Z 24005KT 1/8SM R09/1200V1800FT/N FG VV001 13/13 A2999 RMK FG8 SLP163 DENSITY ALT 1700FT

CYXE;2016-08-12 12:00;CYXE 121200Z 24004KT 1/8SM R09/1200FT/N FG SKC 13/13 A2999 RMK FG7 SLP163

CYXE;2016-08-12 12:20;CYXE 121220Z 26004KT 1/2SM R09/2800FT/N FG BKN060 BKN250 12/12 A2999 RMK FG4SC1CI1 SLP163

CYXE;2016-08-12 12:38;CYXE 121238Z 26003KT 3/4SM R09/2800VP6000FT/U BR SCT060 BKN250 12/12 A2999 RMK FG2SC1CI3 SLP165

CYXE;2016-08-12 12:44;CYXE 121244Z 26004KT 3SM R09/4000VP6000FT/U BR FEW030TCU SCT100 BKN250 12/12 A2999 RMK TCU1AC2CI3 SLP163

CYXE;2016-08-12 12:52;CYXE 121252Z 25006KT 3/4SM R09/P6000FT/N BR SCT030TCU BKN100 BKN250 12/12 A2999 RMK FG2TCU1AC2CI2 SLP164

CYXE;2016-08-12 13:00;CYXE 121300Z 26006KT 3/4SM R09/P6000FT/N BR SCT030TCU SCT100 BKN250 13/13 A2999 RMK FG2TCU1AC1CI1 SLP165 DENSITY ALT 1700FT

CYXE;2016-08-12 13:09;CYXE 121309Z 27006KT 10SM FEW030TCU SCT100 BKN250 13/13 A2999 RMK TCU1AC3CI2 SLP166 DENSITY ALT 1700FT

CYXE;2016-08-12 13:36;CYXE 121336Z 27007KT 15SM SCT006 BKN030TCU BKN250 14/14 A3000 RMK ST4TCU1CI2 SLP168 DENSITY ALT 1800FT

CYXE;2016-08-12 14:00;CYXE 121400Z 27005KT 15SM FEW006 SCT030TCU BKN070 BKN250 14/14 A3000 RMK SF2TCU1AC2CI2 SLP169 DENSITY ALT 1800FT

CYXE;2016-08-12 14:40;CYXE 121440Z 29009G15KT 15SM BKN005 BKN250 15/15 A3000 RMK SC6CI1 SLP168 DENSITY ALT 1900FT

CYXE;2016-08-12 15:00;CYXE 121500Z 30008KT 15SM BKN005 BKN250 16/16 A3000 RMK SC6CI1 SLP170 DENSITY ALT 1900FT

CYXE;2016-08-12 15:46;CYXE 121546Z 30008KT 15SM BKN010 BKN100 18/16 A3000 RMK SC6AC1 SLP168 DENSITY ALT 2200FT

CYXE;2016-08-12 16:00;CYXE 121600Z 28009KT 15SM BKN011 BKN100 18/16 A3000 RMK SC5AC1 SLP169 DENSITY ALT 2300FT

CYXE;2016-08-12 16:37;CYXE 121637Z 30010G16KT 15SM SCT012 BKN100 19/16 A3000 RMK SC4AC1 SLP168 DENSITY ALT 2300FT

CYXE;2016-08-12 16:51;CYXE 121651Z 29011KT 15SM BKN012 BKN100 19/16 A3000 RMK SC5AC1 SLP169 DENSITY ALT 2300FT

CYXE;2016-08-12 17:00;CYXE 121700Z 29009G16KT 15SM BKN013 BKN100 19/16 A3000 RMK SC5AC1 SLP168 DENSITY ALT 2400FT

CYXE;2016-08-12 18:00;CYXE 121800Z 29010KT 15SM BKN013 19/15 A3000 RMK SC6 SLP169 DENSITY ALT 2400FT

CYXE;2016-08-12 18:22;CYXE 121822Z 30009G16KT 15SM SCT013 BKN280 19/16 A3000 RMK SC4CI2 SLP167 DENSITY ALT 2400FT

CYXE;2016-08-12 19:00;CYXE 121900Z 32010KT 15SM FEW015TCU SCT100 BKN280 21/16 A2999 RMK TCU2AC2CI1 SLP165 DENSITY ALT 2600FT

CYXE;2016-08-12 20:00;CYXE 122000Z CCA 29011G18KT 15SM SCT025TCU SCT100 23/15 A2998 RMK TCU3AC1 CB TOPS DIST N SLP158 DENSITY ALT 2900FT

CYXE;2016-08-12 21:00;CYXE 122100Z 31012G17KT 15SM SCT030TCU BKN100 24/15 A2997 RMK TCU4AC1 FEW CB SLP156 DENSITY ALT 3000FT

CYXE;2016-08-12 22:00;CYXE 122200Z 36011G18KT 10SM -SHRA BKN040CB BKN100 18/15 A3000 RMK CB6AC1 LTNG DIST SE CB MOVG SE SLP168 DENSITY ALT 2200FT

CYXE;2016-08-12 22:29;CYXE 122229Z 36010KT 15SM SCT040CB BKN100 21/16 A2999 RMK CB4AC1 LTNG DIST SE SLP164 DENSITY ALT 2600FT

CYXE;2016-08-12 23:00;CYXE 122300Z 34012G18KT 15SM FEW040CB SCT110 22/15 A2999 RMK CB2AC2 SLP164 DENSITY ALT 2700FT

CYXE;2016-08-12 23:36;CYXE 122336Z 33010KT 10SM -SHRA SCT040CB BKN110 20/16 A3000 RMK CB3AC3 SLP168 DENSITY ALT 2500FT

CYXE;2016-08-13 00:00;CYXE 130000Z 34006KT 15SM -SHRA FEW040CB BKN110 BKN300 19/17 A3000 RMK CB2ACC3CI1 SLP169 DENSITY ALT 2400FT

CYXE;2016-08-13 00:37;CYXE 130037Z 31005KT 15SM VCSH FEW040TCU BKN110 BKN300 19/16 A3000 RMK TCU2ACC4CI1 SLP168 DENSITY ALT 2400FT

CYXE;2016-08-13 01:00;CYXE 130100Z 27004KT 15SM FEW040TCU BKN100 BKN300 19/18 A3001 RMK TCU1ACC4CI1 SLP172 DENSITY ALT 2300FT

CYXE;2016-08-13 02:00;CYXE 130200Z 36008KT 15SM 19/15 A3002 RMK SLP173 DENSITY ALT 2300FT

CYXE;2016-08-13 03:00;CYXE 130300Z 05005KT 15SM SCT070 15/14 A3004 RMK ACC4 SLP183 DENSITY ALT 1900FT

CYXE;2016-08-13 04:00;CYXE 130400Z 23002KT 15SM FEW100 14/14 A3004 RMK ACC2 SLP183 DENSITY ALT 1700FT

CYXE;2016-08-13 05:00;CYXE 130500Z 27006KT 15SM FEW100 12/12 A3004 RMK AC1 SLP183

CYXE;2016-08-13 06:00;CYXE 130600Z 29007KT 15SM FEW100 12/12 A3005 RMK AC1 SLP186

CYXE;2016-08-13 07:00;CYXE 130700Z 00000KT 15SM FEW120 11/11 A3004 RMK AC1 SLP183

CYXE;2016-08-13 08:00;CYXE 130800Z 25003KT 15SM SKC 10/10 A3005 RMK SLP183

CYXE;2016-08-13 09:00;CYXE 130900Z VRB02KT 15SM SKC 10/10 A3005 RMK SLP182

CYXE;2016-08-13 10:00;CYXE 131000Z 27005KT 15SM SKC 10/10 A3005 RMK SLP186

CYXE;2016-08-13 11:00;CYXE 131100Z 27008KT 15SM FEW250 10/10 A3005 RMK CI1 SLP184

CYXE;2016-08-13 12:00;CYXE 131200Z 25007KT 15SM SKC 10/10 A3005 RMK SLP188

CYXE;2016-08-13 13:00;CYXE 131300Z 24004KT 15SM SKC 11/11 A3005 RMK SLP188

CYXE;2016-08-13 14:00;CYXE 131400Z 26005KT 15SM SKC 14/14 A3005 RMK SLP186 DENSITY ALT 1800FT

CYXE;2016-08-13 15:00;CYXE 131500Z 27006KT 15SM SKC 17/14 A3006 RMK SLP189 DENSITY ALT 2100FT

CYXE;2016-08-13 16:00;CYXE 131600Z 28008KT 15SM SKC 20/13 A3006 RMK SLP187 DENSITY ALT 2400FT

CYXE;2016-08-13 17:00;CYXE 131700Z 30008KT 15SM FEW300 22/14 A3005 RMK CI2 SLP185 DENSITY ALT 2700FT

CYXE;2016-08-13 18:00;CYXE 131800Z 29008KT 260V330 15SM FEW040 SCT320 24/12 A3004 RMK CU1CI2 SLP180 DENSITY ALT 2900FT

CYXE;2016-08-13 19:00;CYXE 131900Z 31006KT 280V350 15SM FEW050 SCT340 24/13 A3003 RMK CU2CI2 SLP177 DENSITY ALT 2900FT

CYXE;2016-08-13 20:00;CYXE 132000Z 30008KT 15SM SCT060 BKN340 25/10 A3002 RMK CU3CI2 SLP172 DENSITY ALT 3100FT

CYXE;2016-08-13 21:00;CYXE 132100Z 28008KT 15SM SCT060TCU BKN100 25/10 A3001 RMK TCU3AC3 SLP170 DENSITY ALT 3100FT

CYXE;2016-08-13 22:00;CYXE 132200Z 28008KT 15SM FEW060 BKN100 25/10 A3000 RMK CU2AC4 SLP167 DENSITY ALT 3000FT

CYXE;2016-08-13 23:00;CYXE 132300Z 31006KT 270V340 15SM FEW060 BKN100 26/10 A2999 RMK CU2AC3 SLP162 DENSITY ALT 3100FT

CYXE;2016-08-14 00:00;CYXE 140000Z 28005KT 15SM FEW060 SCT100 SCT300 25/11 A2997 RMK CU1AC2CI1 SLP158 DENSITY ALT 3100FT

CYXE;2016-08-14 01:00;CYXE 140100Z 27007KT 15SM FEW100 SCT300 23/13 A2997 RMK AC1CI3 SLP157 DENSITY ALT 2900FT

CYXE;2016-08-14 02:00;CYXE 140200Z 24005KT 15SM FEW100 SCT300 21/15 A2997 RMK AC1CI3 SLP155 DENSITY ALT 2600FT

CYXE;2016-08-14 03:00;CYXE 140300Z 22005KT 15SM FEW100 SCT300 19/14 A2997 RMK AC1CI3 SLP156 DENSITY ALT 2300FT

CYXE;2016-08-14 04:00;CYXE 140400Z 22005KT 15SM BKN095 18/14 A2997 RMK AC6 SLP154 DENSITY ALT 2300FT

CYXE;2016-08-14 05:00;CYXE 140500Z 19003KT 15SM BKN075 18/14 A2996 RMK AC7 SLP150 DENSITY ALT 2300FT

CYXE;2016-08-14 06:00;CYXE 140600Z 20005KT 15SM SCT075 BKN240 17/14 A2995 RMK AC3CI2 LTNG DIST NW SLP145 DENSITY ALT 2200FT

CYXE;2016-08-14 07:00;CYXE 140700Z 21006KT 15SM SCT075 BKN240 16/13 A2994 RMK AC3CI3 LTNG DIST NW SLP143 DENSITY ALT 2100FT

CYXE;2016-08-14 08:00;CYXE 140800Z 21003KT 15SM SCT080 BKN240 15/13 A2994 RMK AC3CI3 LTNG DIST NW SLP142 DENSITY ALT 2000FT

CYXE;2016-08-14 09:00;CYXE 140900Z 28005KT 210V310 15SM BKN080 OVC240 15/14 A2993 RMK AC5CI3 LTNG DIST W-N SLP141 DENSITY ALT 2000FT

CYXE;2016-08-14 10:00;CYXE 141000Z 32013KT 15SM BKN080 OVC240 17/14 A2997 RMK AC6CI2 LTNG DIST NW-S SLP153 DENSITY ALT 2100FT

CYXE;2016-08-14 10:15;CYXE 141015Z 33015G20KT 15SM -SHRA BKN080 OVC250 16/15 A2997 RMK AC6CI2 LTNG DIST N-SE SLP154 DENSITY ALT 2100FT

CYXE;2016-08-14 10:40;CYXE 141040Z 34008KT 15SM -SHRA BKN080 OVC250 16/14 A2997 RMK AC6CI2 LTNG DIST N-E SLP152 DENSITY ALT 2000FT

CYXE;2016-08-14 11:00;CYXE 141100Z VRB02KT 15SM BKN080 15/14 A2996 RMK AC5 LTNG DIST N-E SLP149 DENSITY ALT 2000FT

CYXE;2016-08-14 12:00;CYXE 141200Z VRB02KT 15SM BKN080 BKN100 15/15 A2994 RMK AC6AC1 PRESRR SLP144 DENSITY ALT 2000FT

CYXE;2016-08-14 12:34;CYXE 141234Z 27007KT 220V290 15SM -SHRA BKN092 15/14 A2997 RMK AC7 PRESRR SLP152 DENSITY ALT 2000FT

CYXE;2016-08-14 13:00;CYXE 141300Z 32008KT 12SM -SHRA BKN085 15/14 A2997 RMK AC7 SLP156 DENSITY ALT 1900FT

CYXE;2016-08-14 14:00;CYXE 141400Z VRB02KT 15SM -SHRA BKN080 BKN140 16/16 A2993 RMK ACC6AC1 PRESFR SLP141 DENSITY ALT 2000FT

CYXE;2016-08-14 15:00;CYXE 141500Z 23007KT 15SM -SHRA SCT080 BKN140 16/14 A2995 RMK AC3AC4 CVCTV CLD EMBD SLP152 DENSITY ALT 2000FT

CYXE;2016-08-14 15:49;CYXE 141549Z 32005KT 200V340 15SM SCT080 BKN140 BKN280 17/16 A2993 RMK AC3AC3CI1 SLP143 DENSITY ALT 2200FT

CYXE;2016-08-14 16:00;CYXE 141600Z VRB02KT 15SM FEW080 BKN150 BKN280 17/15 A2994 RMK AC2AC3CI1 SLP145 DENSITY ALT 2200FT

CYXE;2016-08-14 17:00;CYXE 141700Z 18007KT 15SM FEW020 SCT140 SCT280 20/16 A2994 RMK CU1AC2CI1 SLP145 DENSITY ALT 2500FT

CYXE;2016-08-14 18:00;CYXE 141800Z 19005KT 120V250 15SM FEW030 FEW150 SCT300 23/14 A2994 RMK CU1AC1CI1 SLP142 DENSITY ALT 2800FT

CYXE;2016-08-14 19:00;CYXE 141900Z VRB02KT 15SM FEW040 FEW150 SCT300 24/12 A2993 RMK CU1AC1CI1 SLP139 DENSITY ALT 3000FT

CYXE;2016-08-14 20:00;CYXE 142000Z VRB06KT 15SM FEW050 FEW150 SCT300 25/11 A2992 RMK CU1AC1CI2 SLP136 DENSITY ALT 3200FT

CYXE;2016-08-14 21:00;CYXE 142100Z 33006KT 300V040 15SM FEW050 SCT300 26/12 A2992 RMK CU1CI3 SLP135 DENSITY ALT 3300FT

CYXE;2016-08-14 22:00;CYXE 142200Z 00000KT 15SM FEW060 BKN300 26/12 A2991 RMK CU2CI3 SLP132 DENSITY ALT 3300FT

CYXE;2016-08-14 23:00;CYXE 142300Z 00000KT 15SM FEW060 SCT300 27/12 A2991 RMK CU2CI2 SLP133 DENSITY ALT 3300FT

CYXE;2016-08-15 00:00;CYXE 150000Z 23005KT 15SM FEW060 SCT300 26/14 A2990 RMK CU1CI3 SLP129 DENSITY ALT 3300FT

CYXE;2016-08-15 01:00;CYXE 150100Z 24004KT 15SM FEW060 SCT300 25/15 A2990 RMK CU1CI3 SLP130 DENSITY ALT 3200FT

CYXE;2016-08-15 02:00;CYXE 150200Z 21004KT 15SM FEW060 BKN300 23/15 A2991 RMK SC1CI4 SLP135 DENSITY ALT 2900FT

CYXE;2016-08-15 03:00;CYXE 150300Z 18005KT 15SM FEW060 SCT300 21/14 A2992 RMK SC1CI3 SLP139 DENSITY ALT 2600FT

CYXE;2016-08-15 04:00;CYXE 150400Z 20006KT 15SM SCT300 19/15 A2993 RMK CI4 SLP142 DENSITY ALT 2500FT

CYXE;2016-08-15 05:00;CYXE 150500Z 20006KT 15SM SCT300 18/14 A2993 RMK CI3 LTNG DIST NW + NE SLP141 DENSITY ALT 2400FT

CYXE;2016-08-15 06:00;CYXE 150600Z 00000KT 15SM BKN300 16/15 A2993 RMK CI5 SLP140 DENSITY ALT 2100FT

CYXE;2016-08-15 07:00;CYXE 150700Z 22004KT 15SM SCT300 17/15 A2994 RMK CI4 LTNG DIST NW - NE SLP142 DENSITY ALT 2100FT

CYXE;2016-08-15 08:00;CYXE 150800Z 25003KT 240V330 15SM BKN070 17/15 A2995 RMK AC6 LTNG N-E SLP147 DENSITY ALT 2100FT

CYXE;2016-08-15 09:00;CYXE 150900Z 16008KT 15SM FEW070 16/14 A2995 RMK AC2 SLP144 DENSITY ALT 2000FT

CYXE;2016-08-15 10:00;CYXE 151000Z 26008KT 190V310 15SM FEW070 16/14 A2995 RMK AC2 LTNG DIST NW-N SLP146 DENSITY ALT 2100FT

CYXE;2016-08-15 11:00;CYXE 151100Z 22004KT 15SM FEW040TCU FEW070 SCT300 14/14 A2995 RMK TCU1AC1CI1 LTNG DIST NW SLP147 DENSITY ALT 1800FT

CYXE;2016-08-15 12:00;CYXE 151200Z 20003KT 180V300 15SM FEW040TCU BKN080 BKN300 14/14 A2998 RMK TCU1AC4CI1 SLP156 DENSITY ALT 1800FT

CYXE;2016-08-15 13:00;CYXE 151300Z 20005KT 15SM FEW060 SCT120 BKN300 14/14 A2998 RMK CU2AC2CI1 SLP157 DENSITY ALT 1800FT

CYXE;2016-08-15 14:00;CYXE 151400Z 25005KT 210V270 15SM FEW050 SCT130 18/16 A2998 RMK CU1AC3 SLP158 DENSITY ALT 2200FT

CYXE;2016-08-15 15:00;CYXE 151500Z VRB02KT 15SM FEW025 FEW130 SCT220 21/14 A2999 RMK CU1AC1CI2 SLP161 DENSITY ALT 2500FT

CYXE;2016-08-15 16:00;CYXE 151600Z 28003KT 180V330 15SM FEW030 SCT220 22/15 A3000 RMK CU1CI2 SLP163 DENSITY ALT 2700FT

CYXE;2016-08-15 17:00;CYXE 151700Z 33006KT 280V340 15SM 23/14 A3001 RMK SLP166 DENSITY ALT 2800FT

CYXE;2016-08-15 18:00;CYXE 151800Z 34007KT 290V360 15SM FEW120 FEW280 25/14 A3000 RMK AC1CI1 SLP164 DENSITY ALT 3000FT

CYXE;2016-08-15 19:00;CYXE 151900Z 33005KT 290V360 15SM FEW050 SCT130 SCT280 25/14 A3000 RMK CU1AC2CI1 SLP162 DENSITY ALT 3100FT

CYXE;2016-08-15 20:00;CYXE 152000Z 30006KT 290V350 15SM FEW050 FEW130 SCT280 26/13 A3000 RMK CU1AC1CI2 SLP161 DENSITY ALT 3200FT

CYXE;2016-08-15 21:00;CYXE 152100Z 26007KT 15SM FEW060TCU FEW130 BKN300 27/11 A2999 RMK TCU1AC1CI4 SLP159 DENSITY ALT 3200FT

CYXE;2016-08-15 22:00;CYXE 152200Z 27010KT 15SM FEW060TCU BKN300 28/11 A2998 RMK TCU2CI4 SLP155 DENSITY ALT 3300FT

CYXE;2016-08-15 23:00;CYXE 152300Z 30009KT 15SM FEW060TCU BKN300 27/13 A2998 RMK TCU2CI3 SLP155 DENSITY ALT 3300FT

CYXE;2016-08-15 23:48;CYXE 152348Z 02012KT 330V040 15SM TS SCT060CB BKN300 25/14 A2999 RMK CB3CI3 LTGIC/CB/SH NW SLP161 DENSITY ALT 3100FT

CYXE;2016-08-16 00:00;CYXE 160000Z 04012G17KT 15SM TS BKN060CB BKN300 24/14 A3000 RMK CB5CI2 LTGIC/CB/SH NW MOVG SE SLP165 DENSITY ALT 2900FT

CYXE;2016-08-16 00:30;CYXE 160030Z 05008KT 15SM VCSH SCT060CB BKN300 21/16 A3001 RMK CB4CI2 CB/SH NNE MOVG SE SLP169 DENSITY ALT 2600FT

CYXE;2016-08-16 01:00;CYXE 160100Z 05005KT 15SM SCT060TCU SCT300 23/16 A3000 RMK TCU3CI1 SLP166 DENSITY ALT 2800FT

CYXE;2016-08-16 02:00;CYXE 160200Z 08004KT 15SM FEW060TCU FEW110 20/16 A3000 RMK TCU1AC1 SLP167 DENSITY ALT 2500FT

CYXE;2016-08-16 03:00;CYXE 160300Z 00000KT 15SM FEW110 20/15 A3001 RMK AC1 SLP168 DENSITY ALT 2400FT

CYXE;2016-08-16 04:00;CYXE 160400Z 23005KT 15SM FEW080 17/16 A3002 RMK AC1 AC TR SLP171 DENSITY ALT 2100FT

CYXE;2016-08-16 05:00;CYXE 160500Z 23005KT 15SM SKC 16/15 A3003 RMK SLP174 DENSITY ALT 2000FT

CYXE;2016-08-16 06:00;CYXE 160600Z 25005KT 15SM SKC 16/15 A3003 RMK SLP174 DENSITY ALT 1900FT

CYXE;2016-08-16 07:00;CYXE 160700Z 24004KT 15SM SKC 14/14 A3003 RMK SLP176 DENSITY ALT 1700FT

CYXE;2016-08-16 08:00;CYXE 160800Z 23005KT 15SM SKC 14/14 A3003 RMK SLP175 DENSITY ALT 1700FT

CYXE;2016-08-16 09:00;CYXE 160900Z 00000KT 15SM SKC 12/12 A3004 RMK SLP177

CYXE;2016-08-16 10:00;CYXE 161000Z 00000KT 15SM SKC 13/13 A3004 RMK SLP176

CYXE;2016-08-16 11:00;CYXE 161100Z 17004KT 15SM SKC 13/13 A3004 RMK SLP177

CYXE;2016-08-16 12:00;CYXE 161200Z 18003KT 15SM FEW300 13/13 A3004 RMK CI1 SLP180

CYXE;2016-08-16 13:00;CYXE 161300Z 20004KT 15SM SCT300 14/14 A3005 RMK CI4 SLP183 DENSITY ALT 1700FT

CYXE;2016-08-16 14:00;CYXE 161400Z 23003KT 15SM SCT300 18/16 A3005 RMK CI4 SLP184 DENSITY ALT 2100FT

CYXE;2016-08-16 15:00;CYXE 161500Z 24003KT 15SM BKN300 21/16 A3005 RMK CI6 SLP181 DENSITY ALT 2500FT

CYXE;2016-08-16 16:00;CYXE 161600Z 21004KT 190V280 15SM BKN300 23/16 A3005 RMK CI6 SLP179 DENSITY ALT 2800FT

CYXE;2016-08-16 17:00;CYXE 161700Z 24004KT 220V290 15SM BKN300 25/15 A3004 RMK CI7 SLP175 DENSITY ALT 3000FT

CYXE;2016-08-16 18:00;CYXE 161800Z VRB05KT 15SM FEW050 BKN300 27/14 A3002 RMK CU1CI5 SLP170 DENSITY ALT 3300FT

CYXE;2016-08-16 19:00;CYXE 161900Z 26006KT 210V300 15SM FEW050 BKN300 27/12 A3002 RMK CU2CI4 SLP169 DENSITY ALT 3200FT

CYXE;2016-08-16 20:00;CYXE 162000Z 29006KT 250V320 15SM SCT060 SCT300 28/12 A3001 RMK CU3CI1 SLP165 DENSITY ALT 3400FT

CYXE;2016-08-16 22:00;CYXE 162200Z 30006KT 250V320 15SM SCT065 SCT300 29/13 A2999 RMK CU3CI1 SLP159 DENSITY ALT 3500FT

CYXE;2016-08-16 23:00;CYXE 162300Z 25008KT 15SM SCT065 BKN300 29/12 A2998 RMK CU3CI2 SLP156 DENSITY ALT 3500FT

CYXE;2016-08-17 00:00;CYXE 170000Z 27005KT 15SM FEW065 BKN300 29/12 A2997 RMK CF2CI3 SLP152 DENSITY ALT 3500FT

CYXE;2016-08-17 01:00;CYXE 170100Z 23004KT 15SM FEW065 SCT300 27/14 A2995 RMK CF1CI4 CF TR SLP148 DENSITY ALT 3400FT

CYXE;2016-08-17 02:00;CYXE 170200Z 16003KT 15SM FEW080 SCT300 25/14 A2994 RMK AC1CI3 SLP141 DENSITY ALT 3100FT

CYXE;2016-08-17 03:00;CYXE 170300Z 17005KT 15SM FEW080 SCT300 23/13 A2995 RMK AC1CI3 SLP145 DENSITY ALT 2800FT

CYXE;2016-08-17 04:00;CYXE 170400Z 15003KT 15SM FEW080 BKN300 21/13 A2995 RMK AC2CI3 SLP146 DENSITY ALT 2700FT

CYXE;2016-08-17 05:00;CYXE 170500Z CCA 13002KT 15SM FEW080 BKN300 20/14 A2997 RMK AC2CI3 LTNG DIST NW SLP150 DENSITY ALT 2500FT

CYXE;2016-08-17 06:00;CYXE 170600Z 15005KT 15SM SCT300 19/13 A2995 RMK CI3 LTNG DIST NW SLP144 DENSITY ALT 2400FT

CYXE;2016-08-17 07:00;CYXE 170700Z 16009KT 15SM BKN300 18/14 A2994 RMK CI5 LTNG DIST SW-NW SLP141 DENSITY ALT 2300FT

CYXE;2016-08-17 08:00;CYXE 170800Z 26004KT 250V320 15SM SCT120 BKN300 18/14 A2995 RMK AC3CI2 LTNG DIST SW - NW SLP142 DENSITY ALT 2300FT

CYXE;2016-08-17 08:52;CYXE 170852Z 03012G18KT 15SM TS FEW050CB BKN140 18/15 A2996 RMK CB2AC4 LTGCG SLP147 DENSITY ALT 2300FT

CYXE;2016-08-17 09:00;CYXE 170900Z 01013G20KT 15SM TS FEW050CB BKN140 18/15 A2997 RMK CB2AC3 FRQ LTGCG SW-NW SLP152 DENSITY ALT 2300FT

CYXE;2016-08-17 09:33;CYXE 170933Z 31014G20KT 12SM TSRA SCT057CB OVC140 17/15 A3005 RMK CB4AC4 FRQ LTGCG SW-NW PRESRR SLP180 DENSITY ALT 2100FT

CYXE;2016-08-17 09:35;CYXE 170935Z 32012G20KT 10SM +TSRA BKN057CB OVC140 17/15 A3006 RMK CB6AC2 FRQ LTGCG SE-N PRESRR SLP181 DENSITY ALT 2100FT

CYXE;2016-08-17 10:00;CYXE 171000Z 34007KT 260V350 10SM +TSRA BKN057CB OVC140 16/16 A3005 RMK CB6AC2 FRQ LTCG ALQDS PRESFR SLP177 DENSITY ALT 2000FT

CYXE;2016-08-17 10:16;CYXE 171016Z 06006KT 010V070 15SM -TSRA BKN055CB OVC100 16/16 A3002 RMK CB6AC2 OCNL LTGCC N+S PRESFR SLP168 DENSITY ALT 1900FT

CYXE;2016-08-17 10:31;CYXE 171031Z 11005KT 15SM -SHRA SCT055CB OVC100 16/16 A3001 RMK CB4AC4 SLP165 DENSITY ALT 1900FT

CYXE;2016-08-17 11:00;CYXE 171100Z 20008KT 15SM -SHRA FEW055CB OVC080 16/16 A3002 RMK CB2AC6 PRESRR SLP167 DENSITY ALT 2000FT

CYXE;2016-08-17 12:00;CYXE 171200Z 20005KT 15SM -SHGR BKN094 16/16 A3000 RMK AC7 SLP163 DENSITY ALT 2000FT

CYXE;2016-08-17 13:00;CYXE 171300Z 36005KT 310V010 15SM SCT095 BKN140 BKN250 16/16 A2999 RMK AC3AC2CI2 SLP157 DENSITY ALT 2000FT

CYXE;2016-08-17 13:26;CYXE 171326Z 24003KT 15SM FEW095 SCT140 BKN250 16/16 A2999 RMK AC2AC2CI2 SH SW PRESRR SLP159 DENSITY ALT 2000FT

CYXE;2016-08-17 14:00;CYXE 171400Z VRB02KT 15SM FEW095 SCT150 BKN250 17/17 A2999 RMK AC2AC2CI2 SH S SLP160 DENSITY ALT 2100FT

CYXE;2016-08-17 15:00;CYXE 171500Z 33006KT 15SM FEW095 SCT160 BKN250 19/17 A3000 RMK AC2AC2CI1 SLP161 DENSITY ALT 2300FT

CYXE;2016-08-17 16:00;CYXE 171600Z 32008KT 15SM BKN140 BKN270 21/16 A3000 RMK AC5CI2 SLP164 DENSITY ALT 2600FT

CYXE;2016-08-17 17:00;CYXE 171700Z 31009KT 15SM BKN160 19/16 A3001 RMK AC7 SLP167 DENSITY ALT 2400FT

CYXE;2016-08-17 18:00;CYXE 171800Z 31010KT 15SM SCT170 BKN270 21/17 A3000 RMK AC4CI3 SLP166 DENSITY ALT 2600FT

CYXE;2016-08-17 19:00;CYXE 171900Z 31011G18KT 15SM FEW040 SCT120 BKN240 23/13 A3000 RMK CU1AC3CI3 SLP165 DENSITY ALT 2800FT

CYXE;2016-08-17 20:00;CYXE 172000Z 34012KT 15SM FEW040 BKN120 BKN240 23/13 A3001 RMK CU1AC5CI1 SLP167 DENSITY ALT 2800FT

CYXE;2016-08-17 21:00;CYXE 172100Z 28013KT 270V330 15SM FEW050 SCT120 BKN240 24/14 A3002 RMK CU1AC3CI3 SLP168 DENSITY ALT 2900FT

CYXE;2016-08-17 22:00;CYXE 172200Z 31017KT 15SM FEW050 BKN140 BKN240 23/13 A3000 RMK CU1AC4CI2 SLP164 DENSITY ALT 2900FT

CYXE;2016-08-17 23:00;CYXE 172300Z 31010G16KT 15SM FEW050 SCT140 BKN300 24/13 A3000 RMK CU1AC3CI3 SLP166 DENSITY ALT 2900FT

CYXE;2016-08-18 00:00;CYXE 180000Z 30014G20KT 15SM FEW050 SCT140 BKN300 23/13 A3001 RMK CU1AC3CI3 SLP169 DENSITY ALT 2800FT

CYXE;2016-08-18 01:00;CYXE 180100Z 30007KT 15SM BKN130 BKN300 20/12 A3002 RMK AC6CI1 SLP173 DENSITY ALT 2500FT

CYXE;2016-08-18 02:00;CYXE 180200Z 28007KT 15SM BKN120 19/12 A3002 RMK AC7 SLP174 DENSITY ALT 2300FT

CYXE;2016-08-18 03:00;CYXE 180300Z 27007KT 15SM BKN140 BKN300 16/14 A3003 RMK AC5CI1 SLP178 DENSITY ALT 2000FT

CYXE;2016-08-18 04:00;CYXE 180400Z 26006KT 15SM FEW140 SCT300 14/13 A3004 RMK AC1CI3 SLP180 DENSITY ALT 1700FT

CYXE;2016-08-18 05:00;CYXE 180500Z 28008KT 15SM SCT300 14/12 A3004 RMK CI3 SLP182 DENSITY ALT 1800FT

CYXE;2016-08-18 06:00;CYXE 180600Z 30007KT 15SM SCT300 13/12 A3005 RMK CI3 SLP185

CYXE;2016-08-18 07:00;CYXE 180700Z 30008KT 15SM FEW300 12/11 A3006 RMK CI1 SLP187

CYXE;2016-08-18 08:00;CYXE 180800Z 31008KT 15SM SKC 11/11 A3007 RMK SLP190

CYXE;2016-08-18 09:00;CYXE 180900Z 31008KT 15SM SKC 10/10 A3007 RMK SLP191

CYXE;2016-08-18 10:00;CYXE 181000Z 30007KT 15SM SKC 10/10 A3008 RMK SLP195

CYXE;2016-08-18 11:00;CYXE 181100Z 30010KT 15SM SKC 10/10 A3008 RMK SLP193

CYXE;2016-08-18 12:00;CYXE 181200Z 29009KT 15SM FEW300 10/10 A3009 RMK CI1 SLP198

CYXE;2016-08-18 13:00;CYXE 181300Z 30009KT 15SM FEW300 11/11 A3010 RMK CI1 SLP203

CYXE;2016-08-18 14:00;CYXE 181400Z 30013KT 15SM SKC 13/11 A3010 RMK SLP203

CYXE;2016-08-18 15:00;CYXE 181500Z 29012KT 15SM SKC 15/11 A3011 RMK SLP206 DENSITY ALT 1700FT

CYXE;2016-08-18 16:00;CYXE 181600Z 30010G15KT 15SM SKC 17/12 A3011 RMK SLP207 DENSITY ALT 2000FT

CYXE;2016-08-18 17:00;CYXE 181700Z 29012KT 15SM FEW026 FEW270 18/11 A3010 RMK CU1CI1 SLP203 DENSITY ALT 2200FT

CYXE;2016-08-18 18:00;CYXE 181800Z 31014G20KT 15SM FEW037 SCT270 20/10 A3010 RMK CU2CI1 SLP203 DENSITY ALT 2300FT

CYXE;2016-08-18 19:00;CYXE 181900Z 32016G22KT 15SM SCT040 20/11 A3009 RMK CU3 SLP201 DENSITY ALT 2400FT

CYXE;2016-08-18 20:00;CYXE 182000Z 35021G26KT 15SM -SHRA BKN040 17/11 A3009 RMK CU6 SLP202 DENSITY ALT 2100FT

CYXE;2016-08-18 20:24;CYXE 182024Z 34009KT 15SM BKN040 BKN270 18/13 A3009 RMK CU5CI1 TCU ASOCTD E SLP201 DENSITY ALT 2100FT

CYXE;2016-08-18 21:00;CYXE 182100Z 34016G24KT 15SM FEW040TCU SCT140 BKN270 20/10 A3008 RMK TCU2AC1CI3 SLP197 DENSITY ALT 2300FT

CYXE;2016-08-18 22:00;CYXE 182200Z 32017G22KT 15SM FEW050TCU SCT090 BKN300 21/09 A3008 RMK TCU2AC1CI2 SLP195 DENSITY ALT 2500FT

CYXE;2016-08-18 23:00;CYXE 182300Z 33014G20KT 15SM FEW050TCU SCT090 BKN300 20/09 A3008 RMK TCU1AC2CI3 SLP195 DENSITY ALT 2400FT

CYXE;2016-08-19 00:00;CYXE 190000Z 33014G20KT 15SM FEW050 SCT080 BKN300 19/09 A3007 RMK CU2AC2CI2 SLP195 DENSITY ALT 2300FT

CYXE;2016-08-19 01:00;CYXE 190100Z 32010KT 15SM FEW050TCU FEW090 BKN300 18/09 A3008 RMK TCU1AC1CI3 SLP197 DENSITY ALT 2200FT

CYXE;2016-08-19 02:00;CYXE 190200Z 33008KT 15SM FEW050 SCT140 BKN300 15/09 A3010 RMK SC1AC2CI3 SLP204 DENSITY ALT 1800FT

CYXE;2016-08-19 03:00;CYXE 190300Z 30008KT 15SM FEW070 FEW300 12/11 A3011 RMK ACC1CI1 SLP210

CYXE;2016-08-19 04:00;CYXE 190400Z 31008KT 15SM FEW080 FEW300 11/11 A3012 RMK AC1CI1 SLP213

CYXE;2016-08-19 05:00;CYXE 190500Z 31008KT 15SM FEW080 11/10 A3013 RMK AC1 SLP215

CYXE;2016-08-19 06:00;CYXE 190600Z 29006KT 15SM SKC 09/09 A3015 RMK SLP221

CYXE;2016-08-19 07:00;CYXE 190700Z 30008KT 15SM SKC 09/09 A3015 RMK SLP222

CYXE;2016-08-19 08:00;CYXE 190800Z 30008KT 15SM BKN020 09/09 A3015 RMK SC5 SLP222

CYXE;2016-08-19 09:00;CYXE 190900Z 30008KT 15SM OVC020 10/10 A3016 RMK SC8 SLP223

CYXE;2016-08-19 10:00;CYXE 191000Z 31007KT 15SM BKN023 10/10 A3016 RMK SC7 SLP225

CYXE;2016-08-19 10:52;CYXE 191052Z 31009KT 15SM FEW006 BKN015 OVC020 11/11 A3016 RMK ST1SC4SC3 SLP222

CYXE;2016-08-19 11:00;CYXE 191100Z 31007KT 4SM BR FEW006 OVC013 11/11 A3016 RMK ST2SC6 SLP222

CYXE;2016-08-19 11:21;CYXE 191121Z 32009KT 8SM -RA FEW006 SCT013 OVC017 11/11 A3016 RMK ST2SC2SC4 SLP222

CYXE;2016-08-19 11:36;CYXE 191136Z 32007KT 12SM FEW006 SCT013 OVC017 11/11 A3016 RMK ST1SC3SC4 SLP224

CYXE;2016-08-19 12:00;CYXE 191200Z 35011KT 15SM FEW006 BKN016 11/11 A3017 RMK ST2SC5 SLP226

CYXE;2016-08-19 13:00;CYXE 191300Z 34009KT 15SM FEW016 BKN073 12/11 A3017 RMK SF2AC5 SLP228

CYXE;2016-08-19 14:00;CYXE 191400Z 35011KT 15SM SCT015 BKN095 13/11 A3018 RMK CU4AC2 SLP234

CYXE;2016-08-19 15:00;CYXE 191500Z 34012KT 15SM SCT015 OVC036 14/10 A3019 RMK SF3SC5 SLP237

CYXE;2016-08-19 16:00;CYXE 191600Z 34010KT 15SM OVC030 13/09 A3019 RMK SC8 SLP238

CYXE;2016-08-19 17:00;CYXE 191700Z 36010KT 15SM OVC036 14/09 A3019 RMK SC8 SLP239

CYXE;2016-08-19 18:00;CYXE 191800Z 36008KT 15SM BKN040 15/09 A3018 RMK SC7 SLP235 DENSITY ALT 1700FT

CYXE;2016-08-19 19:00;CYXE 191900Z 35006KT 270V360 15SM BKN044 16/08 A3017 RMK CU6 SLP231 DENSITY ALT 1800FT

CYXE;2016-08-19 20:00;CYXE 192000Z 31004KT 260V340 15SM BKN044 17/08 A3015 RMK CU5 SLP223 DENSITY ALT 1900FT

CYXE;2016-08-19 21:00;CYXE 192100Z 32008KT 280V350 15SM SCT044 BKN270 19/08 A3013 RMK CU4CI1 SLP216 DENSITY ALT 2200FT

CYXE;2016-08-19 22:00;CYXE 192200Z 34007KT 270V350 15SM FEW050 BKN300 19/07 A3012 RMK CU2CI3 SLP212 DENSITY ALT 2200FT

CYXE;2016-08-19 23:00;CYXE 192300Z 32007KT 300V010 15SM FEW050 BKN300 18/08 A3010 RMK SC1CI6 SLP204 DENSITY ALT 2200FT

CYXE;2016-08-20 00:00;CYXE 200000Z 34003KT 15SM FEW050 BKN300 18/08 A3009 RMK SC1CI6 SLP199 DENSITY ALT 2200FT

CYXE;2016-08-20 01:00;CYXE 200100Z 00000KT 15SM OVC300 17/10 A3008 RMK CI8 SLP197 DENSITY ALT 2000FT

CYXE;2016-08-20 02:00;CYXE 200200Z 11002KT 15SM OVC300 16/09 A3006 RMK CI8 SLP191 DENSITY ALT 1900FT

CYXE;2016-08-20 03:00;CYXE 200300Z VRB02KT 15SM OVC220 15/08 A3006 RMK CI8 SLP191 DENSITY ALT 1800FT

CYXE;2016-08-20 04:00;CYXE 200400Z 17005KT 15SM OVC200 14/09 A3005 RMK CI8 SLP188 DENSITY ALT 1700FT

CYXE;2016-08-20 05:00;CYXE 200500Z 17003KT 15SM OVC190 13/09 A3005 RMK AS8 SLP188

CYXE;2016-08-20 06:00;CYXE 200600Z 23005KT 15SM OVC170 12/11 A3005 RMK AS8 SLP190

CYXE;2016-08-20 07:00;CYXE 200700Z 17003KT 15SM BKN180 11/10 A3004 RMK AC7 SLP186

CYXE;2016-08-20 08:00;CYXE 200800Z 16003KT 15SM BKN160 11/10 A3003 RMK AC7 SLP181

CYXE;2016-08-20 09:00;CYXE 200900Z 17003KT 15SM BKN160 11/10 A3002 RMK AC7 SLP176

CYXE;2016-08-20 10:00;CYXE 201000Z 18002KT 15SM SCT140 BKN180 10/10 A3001 RMK AC3AC4 SLP175

CYXE;2016-08-20 11:00;CYXE 201100Z 17004KT 15SM BKN140 10/09 A3000 RMK AC7 SLP170

CYXE;2016-08-20 12:00;CYXE 201200Z 20003KT 15SM BKN150 11/10 A3000 RMK AC7 SLP170

CYXE;2016-08-20 13:00;CYXE 201300Z 19004KT 15SM BKN150 10/10 A3000 RMK AC5 SLP170

CYXE;2016-08-20 14:00;CYXE 201400Z 18004KT 15SM FEW150 11/10 A2999 RMK AC2 SLP167

CYXE;2016-08-20 15:00;CYXE 201500Z 23005KT 190V250 15SM FEW120 SCT270 16/10 A2998 RMK AC1CI2 SLP161 DENSITY ALT 2000FT

CYXE;2016-08-20 16:00;CYXE 201600Z 19004KT 160V250 15SM FEW120 FEW270 19/09 A2997 RMK AC1CI1 SLP158 DENSITY ALT 2300FT

CYXE;2016-08-20 17:00;CYXE 201700Z 19008KT 15SM FEW120 FEW270 20/09 A2995 RMK AC1CI1 SLP151 DENSITY ALT 2500FT

CYXE;2016-08-20 18:00;CYXE 201800Z 21007KT 180V250 15SM FEW050 FEW120 BKN270 21/08 A2994 RMK CF1AC1CI4 SLP147 DENSITY ALT 2700FT

CYXE;2016-08-20 19:00;CYXE 201900Z 21004KT 160V230 15SM FEW050 FEW120 BKN270 22/07 A2993 RMK CF1AC1CI5 SLP144 DENSITY ALT 2800FT

CYXE;2016-08-20 20:00;CYXE 202000Z 25011G22KT 140V270 15SM FEW050 FEW120 BKN270 23/08 A2991 RMK CU1AC1CI4 SLP137 DENSITY ALT 2900FT

CYXE;2016-08-20 21:00;CYXE 202100Z 18005KT 130V210 15SM FEW060 FEW120 SCT300 24/09 A2990 RMK CU1AC1CI2 SLP131 DENSITY ALT 3000FT

CYXE;2016-08-20 22:00;CYXE 202200Z 22007KT 200V310 15SM SCT060 BKN300 24/08 A2987 RMK CU3CI2 SLP124 DENSITY ALT 3000FT

CYXE;2016-08-20 23:00;CYXE 202300Z 20010KT 170V230 15SM FEW070 SCT110 BKN300 24/09 A2985 RMK CU1ACC2CI3 SLP116 DENSITY ALT 3100FT

CYXE;2016-08-21 00:00;CYXE 210000Z 19008KT 15SM FEW070 BKN110 BKN300 23/09 A2983 RMK CU1ACC4CI2 SLP110 DENSITY ALT 3000FT

CYXE;2016-08-21 01:00;CYXE 210100Z 18010KT 15SM FEW070 SCT110 BKN300 22/10 A2982 RMK CU1ACC3CI3 SLP106 DENSITY ALT 2900FT

CYXE;2016-08-21 02:00;CYXE 210200Z 18008KT 15SM SCT070 BKN300 20/10 A2980 RMK ACC3CI4 SLP101 DENSITY ALT 2700FT

CYXE;2016-08-21 03:00;CYXE 210300Z 18007KT 15SM FEW070 BKN300 18/10 A2980 RMK AC1CI6 SLP100 DENSITY ALT 2400FT

CYXE;2016-08-21 04:00;CYXE 210400Z 22004KT 15SM BKN300 15/11 A2980 RMK CI7 SLP098 DENSITY ALT 2100FT

CYXE;2016-08-21 05:00;CYXE 210500Z 17005KT 15SM SCT170 BKN300 14/11 A2979 RMK AC3CI4 SLP094 DENSITY ALT 2100FT

CYXE;2016-08-21 06:00;CYXE 210600Z 19004KT 15SM BKN140 BKN240 15/12 A2977 RMK AC6CI1 SLP088 DENSITY ALT 2200FT

CYXE;2016-08-21 07:00;CYXE 210700Z 18002KT 15SM OVC140 15/12 A2977 RMK AC8 SLP085 DENSITY ALT 2200FT

CYXE;2016-08-21 08:00;CYXE 210800Z 22005KT 15SM SCT110 OVC160 14/13 A2976 RMK AC4AC4 SLP083 DENSITY ALT 2100FT

CYXE;2016-08-21 09:00;CYXE 210900Z 00000KT 15SM OVC110 14/13 A2975 RMK AC8 SLP078 DENSITY ALT 2000FT

CYXE;2016-08-21 10:00;CYXE 211000Z 19002KT 15SM OVC100 14/12 A2974 RMK AC8 SLP075 DENSITY ALT 2100FT

CYXE;2016-08-21 11:00;CYXE 211100Z 19007KT 15SM BKN100 OVC170 13/12 A2973 RMK AC7AC1 SLP075 DENSITY ALT 2000FT

CYXE;2016-08-21 12:00;CYXE 211200Z 19002KT 15SM BKN100 BKN160 13/12 A2973 RMK AC6AC1 SLP075 DENSITY ALT 2000FT

CYXE;2016-08-21 13:00;CYXE 211300Z VRB02KT 15SM FEW060 BKN100 14/13 A2973 RMK CU2AC5 SLP074 DENSITY ALT 2100FT

CYXE;2016-08-21 14:00;CYXE 211400Z 16005KT 15SM BKN100 16/13 A2972 RMK AC7 SLP070 DENSITY ALT 2300FT

CYXE;2016-08-21 15:00;CYXE 211500Z 15005KT 15SM SCT090 BKN140 18/13 A2971 RMK AC4AC3 SLP066 DENSITY ALT 2500FT

CYXE;2016-08-21 16:00;CYXE 211600Z 14006KT 15SM SCT120 BKN170 BKN270 21/12 A2970 RMK AC3AC2CI1 SLP064 DENSITY ALT 2900FT

CYXE;2016-08-21 17:00;CYXE 211700Z 12006KT 15SM SCT140 BKN300 22/13 A2969 RMK AC3CI3 SLP058 DENSITY ALT 3100FT

CYXE;2016-08-21 18:00;CYXE 211800Z 12006KT 15SM SCT140 BKN300 25/12 A2967 RMK AC3CI3 SLP050 DENSITY ALT 3400FT

CYXE;2016-08-21 19:00;CYXE 211900Z 15006KT 090V190 15SM FEW140 BKN300 27/11 A2966 RMK AC1CC5 SLP046 DENSITY ALT 3600FT

CYXE;2016-08-21 20:00;CYXE 212000Z 11006KT 090V170 15SM FEW160 BKN300 27/10 A2965 RMK AC1CI5 SLP043 DENSITY ALT 3700FT

CYXE;2016-08-21 21:00;CYXE 212100Z VRB08KT 15SM FEW160 BKN300 28/11 A2964 RMK AC1CI5 SLP039 DENSITY ALT 3800FT

CYXE;2016-08-21 22:00;CYXE 212200Z VRB04KT 15SM SCT300 28/11 A2963 RMK CI3 SLP036 DENSITY ALT 3800FT

CYXE;2016-08-21 23:00;CYXE 212300Z 09007KT 15SM BKN300 27/12 A2962 RMK CI5 SLP033 DENSITY ALT 3700FT

CYXE;2016-08-22 00:00;CYXE 220000Z 07010KT 15SM SCT300 27/13 A2961 RMK CI4 SLP031 DENSITY ALT 3700FT

CYXE;2016-08-22 01:00;CYXE 220100Z 08008KT 15SM BKN300 24/13 A2961 RMK CI6 SLP030 DENSITY ALT 3400FT

CYXE;2016-08-22 02:00;CYXE 220200Z 10009KT 15SM BKN300 22/13 A2961 RMK CI7 SLP031 DENSITY ALT 3200FT

CYXE;2016-08-22 03:00;CYXE 220300Z 10009KT 15SM BKN300 20/12 A2961 RMK CI7 SLP033 DENSITY ALT 2900FT

CYXE;2016-08-22 04:00;CYXE 220400Z 11010G15KT 15SM BKN300 19/12 A2961 RMK CI7 SLP032 DENSITY ALT 2800FT

CYXE;2016-08-22 05:00;CYXE 220500Z 10011KT 15SM BKN300 18/13 A2960 RMK CI6 SLP027 DENSITY ALT 2700FT

CYXE;2016-08-22 06:00;CYXE 220600Z 10008KT 15SM SCT270 17/14 A2959 RMK CI4 SLP022 DENSITY ALT 2600FT

CYXE;2016-08-22 07:00;CYXE 220700Z 11010G15KT 15SM SCT250 17/13 A2957 RMK CI4 SLP016 DENSITY ALT 2600FT

CYXE;2016-08-22 08:00;CYXE 220800Z 09010KT 15SM BKN250 16/13 A2955 RMK CI5 WND ESTD SLP010 DENSITY ALT 2500FT

CYXE;2016-08-22 09:00;CYXE 220900Z 11008KT 15SM FEW130 BKN250 15/13 A2954 RMK AC2CI3 SLP004 DENSITY ALT 2500FT

CYXE;2016-08-22 10:00;CYXE 221000Z 08007KT 15SM SCT130 BKN250 14/13 A2952 RMK AC3CI2 SLP000 DENSITY ALT 2300FT

CYXE;2016-08-22 11:00;CYXE 221100Z 12008KT 15SM SCT130 BKN250 15/13 A2951 RMK AC3CI2 SLP995 DENSITY ALT 2400FT

CYXE;2016-08-22 12:00;CYXE 221200Z 13012KT 15SM SCT130 BKN250 15/13 A2950 RMK AC3CI3 SLP990 DENSITY ALT 2500FT

CYXE;2016-08-22 13:00;CYXE 221300Z 14008KT 15SM FEW130 SCT250 15/13 A2949 RMK AC1CI3 SLP989 DENSITY ALT 2500FT

CYXE;2016-08-22 14:00;CYXE 221400Z 12011KT 15SM SCT250 17/13 A2949 RMK CI3 SLP991 DENSITY ALT 2700FT

CYXE;2016-08-22 15:00;CYXE 221500Z 14009KT 15SM SCT250 19/13 A2949 RMK CI3 SLP991 DENSITY ALT 2900FT

CYXE;2016-08-22 16:00;CYXE 221600Z 15005KT 110V170 15SM BKN250 21/14 A2951 RMK CI6 SLP994 DENSITY ALT 3100FT

CYXE;2016-08-22 17:00;CYXE 221700Z 17005KT 150V220 15SM BKN220 22/14 A2951 RMK CI7 SLP995 DENSITY ALT 3300FT

CYXE;2016-08-22 18:00;CYXE 221800Z 00000KT 15SM BKN220 24/12 A2950 RMK CI7 SLP993 DENSITY ALT 3500FT

CYXE;2016-08-22 19:00;CYXE 221900Z 24006KT 150V260 15SM SCT090 BKN220 26/12 A2951 RMK AC3CI3 SLP994 DENSITY ALT 3700FT

CYXE;2016-08-22 20:00;CYXE 222000Z VRB09KT 15SM BKN220 29/08 A2951 RMK CI5 SLP994 DENSITY ALT 4000FT

CYXE;2016-08-22 21:00;CYXE 222100Z 26014KT 15SM BKN220 28/13 A2952 RMK CI5 SLP998 DENSITY ALT 3900FT

CYXE;2016-08-22 22:00;CYXE 222200Z 26015KT 15SM BKN280 26/14 A2954 RMK CI6 SLP005 DENSITY ALT 3700FT

CYXE;2016-08-22 23:00;CYXE 222300Z 26017KT 15SM SCT130 OVC280 24/13 A2957 RMK AC4CI4 SLP018 DENSITY ALT 3400FT

CYXE;2016-08-23 00:00;CYXE 230000Z 24008G15KT 15SM SCT150 OVC280 21/14 A2959 RMK AC4CI4 SLP026 DENSITY ALT 3100FT

CYXE;2016-08-23 01:00;CYXE 230100Z 24008KT 15SM BKN200 BKN280 21/14 A2960 RMK CS5CI2 SLP028 DENSITY ALT 3000FT

CYXE;2016-08-23 02:00;CYXE 230200Z VRB02KT 15SM FEW100 BKN280 18/15 A2959 RMK AC2CI5 SLP028 DENSITY ALT 2700FT

CYXE;2016-08-23 03:00;CYXE 230300Z 14004KT 15SM FEW100 BKN240 18/13 A2961 RMK AC2CI5 SLP031 DENSITY ALT 2700FT

CYXE;2016-08-23 04:00;CYXE 230400Z 12003KT 15SM FEW100 BKN240 16/13 A2961 RMK AC1CI4 SLP032 DENSITY ALT 2400FT

CYXE;2016-08-23 05:00;CYXE 230500Z 16007KT 15SM SCT240 15/12 A2962 RMK CI4 SLP034 DENSITY ALT 2300FT

CYXE;2016-08-23 06:00;CYXE 230600Z 19008KT 15SM FEW100 SCT240 15/13 A2962 RMK AC1CI2 SLP036 DENSITY ALT 2300FT

CYXE;2016-08-23 06:45;CYXE 230645Z 23018G25KT 15SM FEW100 SCT240 14/12 A2964 RMK AC1CI3 SLP041 DENSITY ALT 2200FT

CYXE;2016-08-23 07:00;CYXE 230700Z 25018KT 15SM FEW140 SCT240 13/11 A2965 RMK AC2CI2 LTNG DIST NW SLP044 DENSITY ALT 2000FT

CYXE;2016-08-23 08:00;CYXE 230800Z 26008KT 15SM FEW140 SCT230 11/09 A2966 RMK AC1CI3 SLP046 DENSITY ALT 1900FT

CYXE;2016-08-23 09:00;CYXE 230900Z 21007KT 15SM FEW140 BKN230 10/09 A2967 RMK AC1CI4 SLP052 DENSITY ALT 1700FT

CYXE;2016-08-23 10:00;CYXE 231000Z 17006KT 15SM BKN230 10/09 A2967 RMK CI5 SLP052

CYXE;2016-08-23 11:00;CYXE 231100Z 16006KT 15SM SCT110 BKN230 11/09 A2967 RMK AC3CI3 SLP055 DENSITY ALT 1700FT

CYXE;2016-08-23 12:00;CYXE 231200Z 15007KT 15SM SCT140 BKN230 12/08 A2968 RMK AC4CI2 SLP058 DENSITY ALT 1900FT

CYXE;2016-08-23 13:00;CYXE 231300Z 14005KT 15SM FEW030 SCT120 BKN230 13/08 A2966 RMK SC2AC2CI2 SLP052 DENSITY ALT 2000FT

CYXE;2016-08-23 14:00;CYXE 231400Z 16009KT 15SM FEW030 SCT160 14/09 A2967 RMK SC2AC2 SLP055 DENSITY ALT 2100FT

CYXE;2016-08-23 15:00;CYXE 231500Z 17008KT 15SM BKN035 14/09 A2968 RMK SC7 SLP058 DENSITY ALT 2100FT

CYXE;2016-08-23 16:00;CYXE 231600Z 16005KT 15SM SCT022 BKN035 14/08 A2968 RMK SF3SC4 SLP061 DENSITY ALT 2100FT

CYXE;2016-08-23 17:00;CYXE 231700Z 14009KT 15SM FEW025 BKN040 BKN230 15/09 A2969 RMK CU2SC4CI1 SLP062 DENSITY ALT 2300FT

CYXE;2016-08-23 18:00;CYXE 231800Z 14011G18KT 090V160 15SM SCT025 BKN055 BKN210 16/08 A2968 RMK CU3SC3CI1 SLP060 DENSITY ALT 2400FT

CYXE;2016-08-23 19:00;CYXE 231900Z 11009KT 070V150 15SM BKN030 BKN060 17/09 A2969 RMK CU5SC2 SLP062 DENSITY ALT 2500FT

CYXE;2016-08-23 20:00;CYXE 232000Z 07008G16KT 350V080 15SM -SHRA OVC035TCU 16/09 A2970 RMK TCU8 SLP070 DENSITY ALT 2300FT

CYXE;2016-08-23 21:00;CYXE 232100Z 04008KT 15SM -SHRA OVC050TCU 16/09 A2972 RMK TCU8 SLP076 DENSITY ALT 2300FT

CYXE;2016-08-23 22:00;CYXE 232200Z 06009KT 15SM OVC050 16/09 A2973 RMK SC8 SLP082 DENSITY ALT 2300FT

CYXE;2016-08-23 23:00;CYXE 232300Z 01008KT 15SM OVC057 16/09 A2975 RMK SC8 SLP086 DENSITY ALT 2300FT

CYXE;2016-08-24 00:00;CYXE 240000Z 34009KT 15SM SCT050 BKN070 16/13 A2977 RMK SC3AC4 SLP092 DENSITY ALT 2300FT

CYXE;2016-08-24 00:23;CYXE 240023Z 36014G20KT 15SM -SHRA SCT027 BKN050 16/13 A2978 RMK SC4SC3 CVCTV CLD EMBD SLP094 DENSITY ALT 2200FT

CYXE;2016-08-24 00:48;CYXE 240048Z 35017G23KT 15SM -SHRA BKN013 OVC027 15/13 A2979 RMK SC5SC3 CVCTV CLD EMBD SLP100 DENSITY ALT 2100FT

CYXE;2016-08-24 01:00;CYXE 240100Z 36013G22KT 15SM -SHRA BKN011 OVC027 15/13 A2980 RMK SC6SC2 CVCTV CLD EMBD SLP103 DENSITY ALT 2100FT

CYXE;2016-08-24 01:36;CYXE 240136Z 01016KT 2SM -SHRA BR BKN012 OVC028 13/13 A2982 RMK ST6SC2 CVCTV CLD EMBD SLP111 DENSITY ALT 1900FT

CYXE;2016-08-24 02:00;CYXE 240200Z 35011G16KT 8SM -SHRA BKN011 OVC030 13/13 A2983 RMK SC6SC2 CVCTV CLD EMBD SLP113 DENSITY ALT 1900FT

CYXE;2016-08-24 02:53;CYXE 240253Z 35015KT 15SM BKN008 OVC011 13/13 A2984 RMK SC5SC3 SLP118 DENSITY ALT 1800FT

CYXE;2016-08-24 03:00;CYXE 240300Z 35015G22KT 15SM OVC008 12/12 A2985 RMK SC8 SLP121 DENSITY ALT 1700FT

CYXE;2016-08-24 04:00;CYXE 240400Z 35012G18KT 15SM OVC007 12/12 A2987 RMK ST8 SLP126 DENSITY ALT 1700FT

CYXE;2016-08-24 05:00;CYXE 240500Z 35012KT 15SM OVC008 13/13 A2988 RMK ST8 SLP130 DENSITY ALT 1700FT

CYXE;2016-08-24 05:16;CYXE 240516Z 35012KT 15SM OVC010 13/13 A2988 RMK ST8 SLP131 DENSITY ALT 1700FT

CYXE;2016-08-24 06:00;CYXE 240600Z 35016KT 15SM OVC008 13/13 A2990 RMK ST8 SLP134 DENSITY ALT 1700FT

CYXE;2016-08-24 07:00;CYXE 240700Z 36015G20KT 15SM VCSH OVC008 13/13 A2991 RMK ST8 SLP140 DENSITY ALT 1700FT

CYXE;2016-08-24 07:16;CYXE 240716Z 36016KT 10SM -SHRA OVC008 12/12 A2992 RMK ST8 CVCTV CLD EMBD SLP143 DENSITY ALT 1700FT

CYXE;2016-08-24 08:00;CYXE 240800Z 36015G20KT 15SM -SHRA OVC008 12/12 A2994 RMK ST8 CVCTV CLD EMBD SLP149

CYXE;2016-08-24 09:00;CYXE 240900Z 35015G20KT 10SM -SHRA BKN008 OVC060 12/12 A2996 RMK ST7SC1 CVCTV CLD EMBD SLP157

CYXE;2016-08-24 09:47;CYXE 240947Z 36016G21KT 15SM -SHRA SCT008 OVC020 12/12 A2997 RMK ST4SC4 CVCTV CLD EMBD SLP162

CYXE;2016-08-24 10:00;CYXE 241000Z 36014KT 15SM -SHRA SCT008 OVC020 12/12 A2998 RMK ST4SC4 CVCTV CLD EMBD SLP165

CYXE;2016-08-24 11:00;CYXE 241100Z 01019G27KT 8SM -SHRA SCT008 OVC020 11/11 A3000 RMK ST3SC5 CVCTV CLD EMBD SLP173

CYXE;2016-08-24 12:00;CYXE 241200Z 36016G24KT 10SM -SHRA SCT008 BKN023 OVC075 11/11 A3003 RMK ST3SC2ACC3 SLP182

CYXE;2016-08-24 13:00;CYXE 241300Z 36012G18KT 15SM -SHRA FEW010 BKN040 OVC070 11/11 A3006 RMK ST1SC4ACC3 SLP192

CYXE;2016-08-24 14:00;CYXE 241400Z 34014KT 15SM -SHRA OVC040 11/11 A3007 RMK SC8 CVCTV CLD EMBD SLP197

CYXE;2016-08-24 14:18;CYXE 241418Z 33013KT 15SM BKN040 OVC060 11/11 A3008 RMK SC7SC1 SLP200

CYXE;2016-08-24 15:00;CYXE 241500Z 35011G18KT 15SM SCT035 OVC070 12/11 A3009 RMK SC3AC5 SLP205

CYXE;2016-08-24 15:45;CYXE 241545Z 35014KT 15SM -SHRA OVC070 13/11 A3011 RMK AC8 CVCTV CLD EMBD SLP210

CYXE;2016-08-24 16:00;CYXE 241600Z 35013KT 15SM -SHRA OVC070 13/12 A3011 RMK AC8 CVCTV CLD EMBD SLP211

CYXE;2016-08-24 17:00;CYXE 241700Z 36010KT 15SM FEW030 BKN050 OVC080 14/12 A3013 RMK SC1SC6AC1 SLP217 DENSITY ALT 1700FT

CYXE;2016-08-24 18:00;CYXE 241800Z 34010KT 15SM SCT055 OVC080 15/11 A3015 RMK SC4AC4 SLP223 DENSITY ALT 1700FT

CYXE;2016-08-24 19:00;CYXE 241900Z 32010G16KT 15SM FEW060 BKN090 OVC120 15/11 A3015 RMK SC2AC5AC1 SLP223 DENSITY ALT 1800FT

CYXE;2016-08-24 20:00;CYXE 242000Z 33012KT 15SM FEW060 SCT090 BKN120 16/11 A3016 RMK SC1AC3AC3 SLP225 DENSITY ALT 1900FT

CYXE;2016-08-24 21:00;CYXE 242100Z 35011KT 15SM FEW060 BKN090 18/10 A3015 RMK SC2AC5 SLP222 DENSITY ALT 2100FT

CYXE;2016-08-24 22:00;CYXE 242200Z 31006KT 15SM SCT090 19/10 A3014 RMK AC4 SLP219 DENSITY ALT 2200FT

CYXE;2016-08-24 22:28;CYXE 242228Z 33021G27KT 15SM -SHRA BKN040 BKN090 16/11 A3015 RMK SC5AC2 CVCTV CLD EMBD SLP223 DENSITY ALT 1900FT

CYXE;2016-08-24 22:52;CYXE 242252Z 32008KT 15SM SCT040 BKN090 16/12 A3015 RMK SC3AC2 SLP223 DENSITY ALT 1800FT

CYXE;2016-08-24 23:00;CYXE 242300Z 32009KT 15SM SCT040 BKN090 16/12 A3015 RMK SC3AC2 SLP224 DENSITY ALT 1800FT

CYXE;2016-08-25 00:00;CYXE 250000Z 29006KT 15SM FEW040 BKN080 19/12 A3015 RMK SC2AC3 SLP222 DENSITY ALT 2100FT

CYXE;2016-08-25 01:00;CYXE 250100Z 30005KT 15SM BKN060 19/12 A3015 RMK SC5 SLP220 DENSITY ALT 2200FT

CYXE;2016-08-25 02:00;CYXE 250200Z 30006KT 15SM BKN060 16/11 A3015 RMK SC5 SLP222 DENSITY ALT 1800FT

CYXE;2016-08-25 03:00;CYXE 250300Z 32003KT 15SM FEW060 14/10 A3016 RMK SC2 SLP226

CYXE;2016-08-25 04:00;CYXE 250400Z 29006KT 15SM SKC 10/09 A3015 RMK WND ESTD SLP227

CYXE;2016-08-25 05:00;CYXE 250500Z 29006KT 15SM SKC 09/09 A3015 RMK SLP225

CYXE;2016-08-25 06:00;CYXE 250600Z 31007KT 15SM SKC 09/09 A3015 RMK SLP224

CYXE;2016-08-25 07:00;CYXE 250700Z 27005KT 15SM SKC 09/09 A3014 RMK WND ESTD SLP222

CYXE;2016-08-25 08:00;CYXE 250800Z 27005KT 15SM SKC 07/07 A3014 RMK SLP222

CYXE;2016-08-25 09:00;CYXE 250900Z 23002KT 15SM SKC 06/06 A3014 RMK SLP221

CYXE;2016-08-25 10:00;CYXE 251000Z 24006KT 15SM SKC 06/06 A3014 RMK SLP220

CYXE;2016-08-25 11:00;CYXE 251100Z 24003KT 15SM SKC 06/06 A3013 RMK SLP218

CYXE;2016-08-25 12:00;CYXE 251200Z 23004KT 15SM FEW160 SCT300 07/07 A3013 RMK AC1CI2 SLP216

CYXE;2016-08-25 13:00;CYXE 251300Z 17002KT 15SM FEW160 SCT300 08/08 A3013 RMK AC1CI2 SLP217

CYXE;2016-08-25 14:00;CYXE 251400Z 23004KT 15SM FEW160 FEW300 11/10 A3013 RMK AC1CI1 SLP215

CYXE;2016-08-25 15:00;CYXE 251500Z 16003KT 140V200 15SM FEW160 BKN300 14/11 A3013 RMK AC1CI4 SLP214 DENSITY ALT 1700FT

CYXE;2016-08-25 16:00;CYXE 251600Z 25005KT 15SM FEW160 BKN300 17/10 A3012 RMK AC1CI6 SLP212 DENSITY ALT 2000FT

CYXE;2016-08-25 17:00;CYXE 251700Z 24005KT 210V280 15SM FEW070 BKN300 19/11 A3012 RMK AC1CI5 SLP211 DENSITY ALT 2300FT

CYXE;2016-08-25 18:00;CYXE 251800Z 24007KT 210V290 15SM FEW040 FEW070 BKN300 20/10 A3010 RMK CU1AC1CI5 CU TR SLP206 DENSITY ALT 2400FT

CYXE;2016-08-25 19:00;CYXE 251900Z 28005KT 160V320 15SM FEW048 FEW090 BKN300 22/10 A3009 RMK CU1AC1CI3 SLP200 DENSITY ALT 2600FT

CYXE;2016-08-25 20:00;CYXE 252000Z 28006KT 180V310 15SM SCT056 SCT090 BKN300 23/09 A3007 RMK CU3AC1CI2 SLP192 DENSITY ALT 2700FT

CYXE;2016-08-25 21:00;CYXE 252100Z 24010G17KT 15SM SCT056 SCT100 BKN300 23/10 A3005 RMK CU3AC1CI3 SLP185 DENSITY ALT 2800FT

CYXE;2016-08-25 22:00;CYXE 252200Z 26009G17KT 15SM SCT056TCU SCT100 BKN260 22/10 A3004 RMK TCU3AC1CI2 SLP184 DENSITY ALT 2600FT

CYXE;2016-08-25 23:00;CYXE 252300Z 24008KT 15SM FEW052 SCT140 BKN240 21/11 A3003 RMK CU2AC2CI2 TCU ASOCTD E-S SLP180 DENSITY ALT 2500FT

CYXE;2016-08-26 00:00;CYXE 260000Z 23008KT 200V270 15SM FEW050 SCT140 BKN240 21/11 A3002 RMK CU2AC2CI2 TCU ASOCTD E SLP177 DENSITY ALT 2600FT

CYXE;2016-08-26 01:00;CYXE 260100Z 23008KT 15SM FEW040 SCT140 BKN240 19/11 A3001 RMK CU2AC2CI2 CB TOP S SLP175 DENSITY ALT 2400FT

CYXE;2016-08-26 02:00;CYXE 260200Z 23007KT 15SM FEW040 FEW140 BKN240 16/11 A3001 RMK CU1AC1CI3 CB TOP N SLP174 DENSITY ALT 1900FT

CYXE;2016-08-26 03:00;CYXE 260300Z 26007KT 15SM FEW040 BKN130 BKN220 14/12 A3000 RMK SC2AC3CI1 SLP171 DENSITY ALT 1800FT

CYXE;2016-08-26 04:00;CYXE 260400Z VRB02KT 15SM FEW040 BKN120 13/12 A3000 RMK SC2AC4 SLP168

CYXE;2016-08-26 05:00;CYXE 260500Z 00000KT 15SM BKN130 12/12 A3000 RMK AC5 SLP167

CYXE;2016-08-26 06:00;CYXE 260600Z 30006KT 15SM SCT090 BKN120 12/12 A3000 RMK AC3AC3 SLP168

CYXE;2016-08-26 07:00;CYXE 260700Z 31005KT 15SM SCT080 BKN120 11/11 A2999 RMK AC3AC2 SLP164

CYXE;2016-08-26 08:00;CYXE 260800Z 30005KT 15SM FEW015 OVC080 12/12 A2998 RMK SC1AC7 SLP161

CYXE;2016-08-26 09:00;CYXE 260900Z 31005KT 15SM SCT012 BKN045 OVC080 12/12 A2997 RMK SC3SC3AC2 SLP158

CYXE;2016-08-26 10:00;CYXE 261000Z 32006KT 15SM SCT012 BKN045 OVC080 12/12 A2997 RMK SC3SC3AC2 SLP156

CYXE;2016-08-26 11:00;CYXE 261100Z 30006KT 15SM SCT010 OVC050 12/12 A2996 RMK SC3SC5 SLP156

CYXE;2016-08-26 12:00;CYXE 261200Z 31006KT 15SM FEW005 SCT012 OVC070 12/12 A2996 RMK ST1SC2AC5 SLP155

CYXE;2016-08-26 12:41;CYXE 261241Z 30006KT 15SM FEW005 BKN012 OVC070 13/13 A2996 RMK ST2SC5AC1 SLP153 DENSITY ALT 1700FT

CYXE;2016-08-26 13:00;CYXE 261300Z 30007KT 15SM FEW005 BKN012 OVC070 13/13 A2996 RMK ST2SC5AC1 SLP154 DENSITY ALT 1700FT

CYXE;2016-08-26 13:44;CYXE 261344Z 31007KT 15SM FEW005 SCT012 BKN018 OVC055 13/13 A2996 RMK SF1SC2SC2SC3 SLP154 DENSITY ALT 1700FT

CYXE;2016-08-26 14:00;CYXE 261400Z 32008KT 15SM FEW005 SCT012 OVC028 13/13 A2996 RMK ST2SC2SC4 SLP156 DENSITY ALT 1800FT

CYXE;2016-08-26 14:14;CYXE 261414Z 32008KT 15SM BKN007 OVC012 14/14 A2996 RMK ST5SC3 SLP156 DENSITY ALT 1800FT

CYXE;2016-08-26 15:00;CYXE 261500Z 33010KT 15SM BKN007 OVC012 14/14 A2995 RMK ST5SC3 SLP155 DENSITY ALT 1800FT

CYXE;2016-08-26 15:47;CYXE 261547Z 33011KT 15SM -RA BKN008 OVC015 15/14 A2995 RMK ST5SC3 SLP154 DENSITY ALT 1900FT

CYXE;2016-08-26 16:00;CYXE 261600Z 34013KT 15SM -RA BKN008 OVC014 16/14 A2995 RMK ST5SC3 SLP153 DENSITY ALT 2000FT

CYXE;2016-08-26 17:00;CYXE 261700Z 31009KT 15SM BKN008 OVC014 15/14 A2995 RMK ST5SC3 INTMT -RA SLP153 DENSITY ALT 1900FT

CYXE;2016-08-26 18:00;CYXE 261800Z 31009KT 15SM -RA BKN008 OVC074 15/14 A2995 RMK ST5AC3 SLP153 DENSITY ALT 2000FT

CYXE;2016-08-26 18:16;CYXE 261816Z 33010KT 15SM SCT010 BKN078 15/13 A2994 RMK ST4AC3 SLP150 DENSITY ALT 2000FT

CYXE;2016-08-26 19:00;CYXE 261900Z 32012KT 15SM FEW010 SCT020 BKN076 16/12 A2993 RMK ST1CU3AC3 SLP148 DENSITY ALT 2100FT

CYXE;2016-08-26 20:00;CYXE 262000Z 33011KT 15SM FEW040 BKN076 BKN300 19/10 A2992 RMK CU2AC3CI2 SLP143 DENSITY ALT 2500FT

CYXE;2016-08-26 21:00;CYXE 262100Z 31014KT 15SM FEW040 BKN072 20/10 A2991 RMK CU2AC4 SLP138 DENSITY ALT 2600FT

CYXE;2016-08-26 22:00;CYXE 262200Z 33010KT 15SM FEW040 BKN075 18/10 A2990 RMK CU2AC4 SLP135 DENSITY ALT 2400FT

CYXE;2016-08-26 23:00;CYXE 262300Z 36009KT 15SM FEW040 BKN076 19/09 A2989 RMK CU2AC4 SLP130 DENSITY ALT 2500FT

CYXE;2016-08-27 00:00;CYXE 270000Z 35006KT 15SM FEW040 SCT076 18/09 A2988 RMK CU2AC2 SLP130 DENSITY ALT 2400FT

CYXE;2016-08-27 01:00;CYXE 270100Z 02007KT 15SM FEW036 SCT070 18/09 A2988 RMK CU1AC2 SLP127 DENSITY ALT 2400FT

CYXE;2016-08-27 02:00;CYXE 270200Z 05006KT 15SM FEW070 SCT250 14/09 A2988 RMK AC2CI1 SLP129 DENSITY ALT 1900FT

CYXE;2016-08-27 03:00;CYXE 270300Z 10003KT 15SM FEW070 FEW250 14/11 A2988 RMK CC1CI1 SLP131 DENSITY ALT 1900FT

CYXE;2016-08-27 04:00;CYXE 270400Z 16003KT 15SM SKC 13/11 A2988 RMK SLP131 DENSITY ALT 1700FT

CYXE;2016-08-27 05:00;CYXE 270500Z 18004KT 15SM SKC 11/11 A2988 RMK SLP130

CYXE;2016-08-27 06:00;CYXE 270600Z 16005KT 15SM BCFG SKC 10/10 A2987 RMK SLP127

CYXE;2016-08-27 07:00;CYXE 270700Z 18006KT 15SM BCFG SKC 10/10 A2986 RMK SLP123

CYXE;2016-08-27 08:00;CYXE 270800Z 16004KT 15SM BCFG SKC 10/10 A2985 RMK SLP120

CYXE;2016-08-27 09:00;CYXE 270900Z 18003KT 15SM BCFG SKC 09/09 A2985 RMK SLP118

CYXE;2016-08-27 10:00;CYXE 271000Z 15005KT 15SM BCFG SKC 09/09 A2983 RMK SLP113

CYXE;2016-08-27 11:00;CYXE 271100Z 14002KT 15SM BCFG FEW300 08/08 A2983 RMK CI2 SLP112

CYXE;2016-08-27 12:00;CYXE 271200Z 16004KT 15SM SCT300 08/08 A2982 RMK CI4 BR PTCHS SLP110

CYXE;2016-08-27 13:00;CYXE 271300Z 19005KT 15SM SCT300 09/09 A2982 RMK CI4 SLP110

CYXE;2016-08-27 14:00;CYXE 271400Z 18007KT 15SM BKN300 13/11 A2981 RMK CI6 SLP106 DENSITY ALT 1800FT

CYXE;2016-08-27 15:00;CYXE 271500Z 14009KT 15SM FEW100 BKN300 15/10 A2980 RMK AC1CI5 SLP101 DENSITY ALT 2100FT

CYXE;2016-08-27 16:00;CYXE 271600Z 14010KT 15SM BKN300 18/10 A2978 RMK CI6 SLP093 DENSITY ALT 2500FT

CYXE;2016-08-27 17:00;CYXE 271700Z 17016G22KT 15SM FEW300 BKN300 19/09 A2975 RMK CI2CI5 SLP083 DENSITY ALT 2700FT

CYXE;2016-08-27 18:00;CYXE 271800Z 15015G21KT 15SM FEW200 BKN300 22/09 A2973 RMK CI2CI5 SLP076 DENSITY ALT 3000FT

CYXE;2016-08-27 19:00;CYXE 271900Z 17016G27KT 15SM SCT160 BKN300 23/09 A2971 RMK AC4CI3 SLP069 DENSITY ALT 3100FT

CYXE;2016-08-27 20:00;CYXE 272000Z 16015G25KT 15SM SCT160 BKN300 24/10 A2969 RMK AC3CI3 SLP062 DENSITY ALT 3300FT

CYXE;2016-08-27 21:00;CYXE 272100Z 16014G22KT 15SM SCT130 BKN300 24/10 A2968 RMK AC3CI3 SLP058 DENSITY ALT 3300FT

CYXE;2016-08-27 22:00;CYXE 272200Z 16015KT 15SM SCT110 BKN300 24/11 A2966 RMK AC4CI3 SLP052 DENSITY ALT 3300FT

CYXE;2016-08-27 23:00;CYXE 272300Z 15019G24KT 15SM FEW110 SCT170 BKN300 26/10 A2965 RMK AC2AC2CI3 SLP047 DENSITY ALT 3500FT

CYXE;2016-08-28 00:00;CYXE 280000Z 15016KT 15SM FEW110 FEW170 BKN300 25/10 A2963 RMK AC1AC1CI5 SLP041 DENSITY ALT 3500FT

CYXE;2016-08-28 01:00;CYXE 280100Z 14015G22KT 15SM FEW110 SCT170 BKN300 23/11 A2963 RMK AC1AC2CI4 SLP041 DENSITY ALT 3200FT

CYXE;2016-08-28 02:00;CYXE 280200Z 12012G17KT 15SM SCT090 BKN260 22/11 A2962 RMK AC3CI4 SLP037 DENSITY ALT 3100FT

CYXE;2016-08-28 03:00;CYXE 280300Z 14013G23KT 15SM FEW050 OVC120 21/10 A2962 RMK SC2AC6 SLP037 DENSITY ALT 3100FT

CYXE;2016-08-28 04:00;CYXE 280400Z 17009KT 15SM OVC080 19/12 A2966 RMK AC8 SLP048 DENSITY ALT 2800FT

CYXE;2016-08-28 04:06;CYXE 280406Z 16012KT 15SM -RA FEW050 OVC080 19/12 A2966 RMK SC2AC6 PRESRR SLP049 DENSITY ALT 2700FT

CYXE;2016-08-28 05:00;CYXE 280500Z 13012KT 15SM -RA SCT050 OVC110 18/13 A2963 RMK SC3AC5 SLP037 DENSITY ALT 2600FT

CYXE;2016-08-28 05:10;CYXE 280510Z 13013KT 15SM SCT050 OVC090 18/13 A2963 RMK SC3AC5 SLP037 DENSITY ALT 2600FT

CYXE;2016-08-28 06:00;CYXE 280600Z 12013KT 15SM SCT100 OVC150 18/11 A2959 RMK AC4AC4 SLP024 DENSITY ALT 2700FT

CYXE;2016-08-28 07:00;CYXE 280700Z 13013G18KT 15SM SCT150 18/10 A2959 RMK AC4 SLP025 DENSITY ALT 2700FT

CYXE;2016-08-28 08:00;CYXE 280800Z 16011KT 15SM BKN140 18/11 A2959 RMK AC6 SLP021 DENSITY ALT 2700FT

CYXE;2016-08-28 09:00;CYXE 280900Z 20010KT 15SM BKN120 18/11 A2960 RMK AC6 SLP028 DENSITY ALT 2700FT

CYXE;2016-08-28 10:00;CYXE 281000Z 23008KT 15SM SCT100 15/12 A2962 RMK AC4 SLP033 DENSITY ALT 2400FT

CYXE;2016-08-28 11:00;CYXE 281100Z 30009G15KT 15SM SCT120 15/14 A2966 RMK AC3 SLP048 DENSITY ALT 2300FT

CYXE;2016-08-28 12:00;CYXE 281200Z 27008KT 15SM FEW100 SCT300 14/13 A2972 RMK AC1CI3 PRESRR SLP068 DENSITY ALT 2100FT

CYXE;2016-08-28 13:00;CYXE 281300Z 28011KT 15SM BKN019 15/14 A2976 RMK SC7 SLP083 DENSITY ALT 2200FT

CYXE;2016-08-28 14:00;CYXE 281400Z 28007KT 15SM FEW017 FEW100 SCT300 16/13 A2978 RMK SC1AC1CI1 SLP091 DENSITY ALT 2300FT

CYXE;2016-08-28 15:00;CYXE 281500Z 28014G19KT 15SM BKN021 17/12 A2982 RMK SC5 SLP105 DENSITY ALT 2300FT

CYXE;2016-08-28 16:00;CYXE 281600Z 27014KT 15SM BKN020 17/12 A2985 RMK SC6 SLP114 DENSITY ALT 2300FT

CYXE;2016-08-28 17:00;CYXE 281700Z 28012G19KT 15SM OVC020 16/11 A2989 RMK SC8 SLP129 DENSITY ALT 2100FT

CYXE;2016-08-28 18:00;CYXE 281800Z 29015G21KT 15SM BKN028 16/10 A2991 RMK SC7 SLP137 DENSITY ALT 2100FT

CYXE;2016-08-28 19:00;CYXE 281900Z 26015G24KT 15SM BKN026 17/10 A2993 RMK SC6 SLP144 DENSITY ALT 2200FT

CYXE;2016-08-28 20:00;CYXE 282000Z 27018KT 15SM BKN036 17/08 A2995 RMK CU5 SLP149 DENSITY ALT 2200FT

CYXE;2016-08-28 21:00;CYXE 282100Z 29015G22KT 15SM BKN040 16/08 A2998 RMK SC6 SLP162 DENSITY ALT 2000FT

CYXE;2016-08-28 22:00;CYXE 282200Z 31020KT 15SM BKN040 15/07 A3000 RMK SC7 SLP171 DENSITY ALT 1900FT

CYXE;2016-08-28 23:00;CYXE 282300Z 30014G25KT 15SM BKN039 15/07 A3003 RMK SC7 SLP181 DENSITY ALT 1900FT

CYXE;2016-08-29 00:00;CYXE 290000Z 31019G24KT 15SM OVC035 14/07 A3006 RMK SC8 SLP192 DENSITY ALT 1700FT

CYXE;2016-08-29 01:00;CYXE 290100Z 30016G23KT 15SM OVC030 13/07 A3010 RMK SC8 SLP204

CYXE;2016-08-29 02:00;CYXE 290200Z 30012G18KT 15SM BKN032 13/07 A3013 RMK SC7 SLP214

CYXE;2016-08-29 03:00;CYXE 290300Z 30014KT 15SM OVC029 12/07 A3016 RMK SC8 SLP225

CYXE;2016-08-29 04:00;CYXE 290400Z 31009G16KT 15SM OVC019 12/06 A3018 RMK SC8 SLP234

CYXE;2016-08-29 05:00;CYXE 290500Z 31006KT 15SM SCT030 09/05 A3019 RMK SC3 SLP239

CYXE;2016-08-29 06:00;CYXE 290600Z 28007KT 15SM SCT030 06/05 A3021 RMK SC4 SLP246

CYXE;2016-08-29 07:00;CYXE 290700Z 27007KT 15SM SCT030 05/05 A3022 RMK SC4 SLP249

CYXE;2016-08-29 08:00;CYXE 290800Z 25007KT 15SM SKC 04/03 A3023 RMK SLP255

CYXE;2016-08-29 09:00;CYXE 290900Z 23008KT 15SM SKC 03/03 A3024 RMK SLP259

CYXE;2016-08-29 10:00;CYXE 291000Z 24007KT 15SM SKC 03/03 A3026 RMK SLP265

CYXE;2016-08-29 11:00;CYXE 291100Z 27005KT 15SM SKC 03/03 A3027 RMK WND ESTD SLP270

CYXE;2016-08-29 11:13;CYXE 291113Z 27005KT 15SM SKC 02/02 A3027 RMK WND ESTD SLP269

CYXE;2016-08-29 12:00;CYXE 291200Z 27005KT 15SM FEW100 02/02 A3028 RMK AC1 WND ESTD SLP273

CYXE;2016-08-29 13:00;CYXE 291300Z 26005KT 15SM FEW100 FEW200 03/03 A3028 RMK AC1CI1 AC TR SLP275

CYXE;2016-08-29 14:00;CYXE 291400Z 28005KT 15SM FEW100 FEW200 08/06 A3030 RMK AC1CI1 AC TR SLP278

CYXE;2016-08-29 15:00;CYXE 291500Z 28004KT 260V320 15SM FEW240 10/06 A3031 RMK CI2 SLP280

CYXE;2016-08-29 16:00;CYXE 291600Z 32004KT 280V360 15SM SCT240 13/05 A3030 RMK CI3 SLP276

CYXE;2016-08-29 17:00;CYXE 291700Z 30006KT 250V320 15SM FEW240 15/04 A3031 RMK CI2 SLP278

CYXE;2016-08-29 18:00;CYXE 291800Z 25005KT 240V340 15SM FEW240 16/03 A3030 RMK CI2 SLP277

CYXE;2016-08-29 19:00;CYXE 291900Z 33005KT 260V010 15SM FEW260 17/04 A3029 RMK CI2 SLP273 DENSITY ALT 1800FT

CYXE;2016-08-29 20:00;CYXE 292000Z 32003KT 210V360 15SM SCT260 18/03 A3027 RMK CI3 SLP268 DENSITY ALT 1900FT

CYXE;2016-08-29 21:00;CYXE 292100Z 33007KT 220V360 15SM BKN260 19/04 A3025 RMK CI5 SLP261 DENSITY ALT 2100FT

CYXE;2016-08-29 22:00;CYXE 292200Z 30003KT 220V340 15SM BKN280 19/06 A3024 RMK CI5 SLP255 DENSITY ALT 2100FT

CYXE;2016-08-29 23:00;CYXE 292300Z 03004KT 330V050 15SM BKN280 20/06 A3024 RMK CI6 SLP255 DENSITY ALT 2200FT

CYXE;2016-08-30 00:00;CYXE 300000Z 02004KT 310V040 15SM BKN280 19/06 A3023 RMK CI6 SLP255 DENSITY ALT 2100FT

CYXE;2016-08-30 01:00;CYXE 300100Z 35002KT 15SM SCT280 19/06 A3023 RMK CI4 SLP254 DENSITY ALT 2000FT

CYXE;2016-08-30 02:00;CYXE 300200Z 01004KT 15SM SCT280 17/05 A3023 RMK CI3 SLP253 DENSITY ALT 1900FT

CYXE;2016-08-30 03:00;CYXE 300300Z 10003KT 15SM FEW280 14/06 A3024 RMK CI2 SLP255

CYXE;2016-08-30 04:00;CYXE 300400Z 05006KT 15SM SKC 12/06 A3023 RMK SLP253

CYXE;2016-08-30 05:00;CYXE 300500Z 05006KT 15SM SKC 10/06 A3023 RMK SLP252

CYXE;2016-08-30 06:00;CYXE 300600Z 05006KT 15SM SKC 09/06 A3024 RMK SLP256

CYXE;2016-08-30 07:00;CYXE 300700Z 07005KT 15SM SKC 09/07 A3026 RMK SLP261

CYXE;2016-08-30 08:00;CYXE 300800Z 04005KT 15SM SCT250 08/06 A3027 RMK CI3 SLP265

CYXE;2016-08-30 09:00;CYXE 300900Z 06004KT 15SM FEW250 08/07 A3027 RMK CI2 SLP262

CYXE;2016-08-30 10:00;CYXE 301000Z 03006KT 15SM SKC 08/07 A3028 RMK SLP269

CYXE;2016-08-30 11:00;CYXE 301100Z 05006KT 15SM FEW250 07/07 A3027 RMK CI2 SLP265

CYXE;2016-08-30 12:00;CYXE 301200Z 06006KT 15SM SCT140 BKN250 08/07 A3027 RMK AC3CI3 SLP263

CYXE;2016-08-30 13:00;CYXE 301300Z 06008KT 15SM SCT140 BKN250 08/08 A3025 RMK AC3CI3 SLP257

CYXE;2016-08-30 14:00;CYXE 301400Z 06006KT 15SM BKN220 10/09 A3027 RMK CI5 SLP263

CYXE;2016-08-30 15:00;CYXE 301500Z 07008KT 15SM SCT160 BKN220 14/09 A3027 RMK AC3CI3 SLP262

CYXE;2016-08-30 16:00;CYXE 301600Z 10010KT 15SM SCT160 BKN220 16/07 A3027 RMK AC3CI3 SLP264 DENSITY ALT 1800FT

CYXE;2016-08-30 17:00;CYXE 301700Z 08010KT 15SM FEW160 SCT220 17/07 A3028 RMK AC2CI1 SLP267 DENSITY ALT 1800FT

CYXE;2016-08-30 18:00;CYXE 301800Z 10012KT 15SM FEW220 20/07 A3027 RMK CI2 SLP262 DENSITY ALT 2100FT

CYXE;2016-08-30 19:00;CYXE 301900Z 11011KT 080V140 15SM SCT250 21/07 A3026 RMK CI3 SLP257 DENSITY ALT 2300FT

CYXE;2016-08-30 20:00;CYXE 302000Z 07011KT 15SM SCT280 22/08 A3024 RMK CI3 SLP253 DENSITY ALT 2400FT

CYXE;2016-08-30 21:00;CYXE 302100Z 07011KT 060V120 15SM FEW280 22/08 A3023 RMK CI1 SLP248 DENSITY ALT 2500FT

CYXE;2016-08-30 22:00;CYXE 302200Z 07012KT 15SM FEW050 FEW280 23/08 A3022 RMK CU1CI1 SLP243 DENSITY ALT 2500FT

CYXE;2016-08-30 23:00;CYXE 302300Z 08011KT 15SM FEW050 FEW280 23/09 A3021 RMK CU1CI1 SLP240 DENSITY ALT 2600FT

CYXE;2016-08-31 00:00;CYXE 310000Z 09010KT 15SM FEW050 22/09 A3021 RMK CU1 SLP240 DENSITY ALT 2500FT

CYXE;2016-08-31 01:00;CYXE 310100Z 09012G17KT 15SM SKC 21/08 A3020 RMK SLP238 DENSITY ALT 2300FT

CYXE;2016-08-31 02:00;CYXE 310200Z 08008KT 15SM FEW070 17/08 A3020 RMK AC1 SLP240 DENSITY ALT 1900FT

CYXE;2016-08-31 03:00;CYXE 310300Z 07008KT 15SM FEW070 16/09 A3021 RMK AC1 SLP240 DENSITY ALT 1700FT

CYXE;2016-08-31 04:00;CYXE 310400Z 07011KT 15SM SKC 14/08 A3020 RMK SLP238

CYXE;2016-08-31 05:00;CYXE 310500Z 07009KT 15SM SKC 13/09 A3021 RMK SLP241

CYXE;2016-08-31 06:00;CYXE 310600Z 06009KT 15SM SKC 12/08 A3021 RMK SLP241

CYXE;2016-08-31 07:00;CYXE 310700Z 05009KT 15SM SKC 12/08 A3021 RMK SLP239

CYXE;2016-08-31 08:00;CYXE 310800Z 08009KT 15SM SKC 14/08 A3019 RMK SLP232

CYXE;2016-08-31 09:00;CYXE 310900Z 08008KT 15SM SKC 13/08 A3018 RMK SLP230

CYXE;2016-08-31 10:00;CYXE 311000Z 08006KT 15SM SKC 13/08 A3018 RMK SLP227

CYXE;2016-08-31 11:00;CYXE 311100Z 08009KT 15SM SKC 13/09 A3018 RMK SLP227

CYXE;2016-08-31 12:00;CYXE 311200Z 10010G16KT 15SM FEW090 FEW270 14/09 A3017 RMK AC1CI1 AC TR SLP223

CYXE;2016-08-31 13:00;CYXE 311300Z 11013G22KT 15SM SCT270 14/09 A3015 RMK CI3 SLP218

CYXE;2016-08-31 14:00;CYXE 311400Z 12018KT 15SM BKN300 15/09 A3015 RMK CI5 SLP220 DENSITY ALT 1700FT

CYXE;2016-08-31 15:00;CYXE 311500Z 12019G24KT 15SM BKN300 16/10 A3013 RMK CI7 SLP214 DENSITY ALT 1900FT

CYXE;2016-08-31 16:00;CYXE 311600Z 12017G23KT 15SM BKN300 18/10 A3013 RMK CI6 SLP213 DENSITY ALT 2100FT

CYXE;2016-08-31 17:00;CYXE 311700Z 11015G21KT 15SM BKN300 20/10 A3013 RMK CI7 SLP211 DENSITY ALT 2300FT

CYXE;2016-08-31 18:00;CYXE 311800Z 12016G22KT 15SM BKN200 21/11 A3012 RMK CI7 SLP207 DENSITY ALT 2500FT

CYXE;2016-08-31 19:00;CYXE 311900Z 12016G23KT 15SM OVC200 24/11 A3010 RMK CI8 SLP200 DENSITY ALT 2800FT

CYXE;2016-08-31 20:00;CYXE 312000Z 13018G24KT 15SM BKN240 25/12 A3007 RMK CI7 SLP190 DENSITY ALT 3000FT

CYXE;2016-08-31 21:00;CYXE 312100Z 12023G29KT 15SM OVC240 27/12 A3005 RMK CI8 SLP182 DENSITY ALT 3200FT

CYXE;2016-08-31 22:00;CYXE 312200Z 12022G30KT 15SM BKN250 26/12 A3002 RMK CI6 FU SLP171 DENSITY ALT 3200FT

CYXE;2016-08-31 23:00;CYXE 312300Z 13022G29KT 15SM FEW170 BKN280 26/13 A3001 RMK AC2CI4 FU SLP169 DENSITY ALT 3100FT

CYXE;2016-09-01 00:00;CYXE 010000Z 11019G29KT 15SM FEW170 BKN280 24/13 A3000 RMK AC1CI4 FU SLP164 DENSITY ALT 3000FT

CYXE;2016-09-01 01:00;CYXE 010100Z 11020G26KT 15SM FEW170 BKN280 23/13 A2999 RMK AC2CI5 FU SLP163 DENSITY ALT 2800FT

CYXE;2016-09-01 02:00;CYXE 010200Z 11020KT 15SM SCT170 BKN280 21/13 A2997 RMK AC3CI4 SLP157 DENSITY ALT 2600FT

CYXE;2016-09-01 03:00;CYXE 010300Z 11013G20KT 15SM FEW170 BKN280 20/13 A2998 RMK AC2CI4 SLP159 DENSITY ALT 2500FT

CYXE;2016-09-01 04:00;CYXE 010400Z 12017KT 15SM SCT200 BKN280 20/13 A2996 RMK CI3CI4 SLP151 DENSITY ALT 2500FT

CYXE;2016-09-01 05:00;CYXE 010500Z 14015G22KT 15SM SCT190 BKN280 19/13 A2995 RMK CI3CI4 SLP149 DENSITY ALT 2400FT

CYXE;2016-09-01 06:00;CYXE 010600Z 13016KT 15SM OVC190 19/13 A2993 RMK AC8 SLP139 DENSITY ALT 2400FT

CYXE;2016-09-01 07:00;CYXE 010700Z 14011G19KT 15SM OVC200 18/13 A2991 RMK CS8 SLP134 DENSITY ALT 2300FT

CYXE;2016-09-01 08:00;CYXE 010800Z 13013KT 15SM OVC200 17/13 A2989 RMK CS8 SLP126 DENSITY ALT 2300FT

CYXE;2016-09-01 09:00;CYXE 010900Z 12010G15KT 15SM SCT180 OVC230 17/13 A2988 RMK AC4CI4 SLP120 DENSITY ALT 2200FT

CYXE;2016-09-01 10:00;CYXE 011000Z 12010KT 15SM SCT180 OVC230 17/13 A2986 RMK AC4CI4 PRESFR SLP114 DENSITY ALT 2200FT

CYXE;2016-09-01 11:00;CYXE 011100Z 11008G15KT 15SM OVC140 17/14 A2984 RMK AC8 PRESFR SLP108 DENSITY ALT 2300FT

CYXE;2016-09-01 12:00;CYXE 011200Z 14010KT 080V160 15SM OVC140 16/14 A2980 RMK AC8 PRESRR SLP095 DENSITY ALT 2300FT

CYXE;2016-09-01 13:00;CYXE 011300Z 15015KT 15SM -SHRA OVC120 17/15 A2982 RMK AC8 CVCTV CLD EMBD PRESFR SLP103 DENSITY ALT 2300FT

CYXE;2016-09-01 14:00;CYXE 011400Z 17003KT 15SM 17/15 A2984 RMK OCNL -SHRA SLP110 DENSITY ALT 2300FT

CYXE;2016-09-01 14:37;CYXE 011437Z 11003KT 15SM OVC120 18/15 A2981 RMK AC8 PRESFR SLP098 DENSITY ALT 2400FT

CYXE;2016-09-01 15:00;CYXE 011500Z 00000KT 15SM BKN120 OVC200 18/15 A2981 RMK AC5CI3 SLP099 DENSITY ALT 2500FT

CYXE;2016-09-01 16:00;CYXE 011600Z 13009KT 15SM SCT120 OVC170 20/15 A2980 RMK AC3AC5 SLP096 DENSITY ALT 2700FT

CYXE;2016-09-01 17:00;CYXE 011700Z 15006KT 15SM OVC170 21/16 A2982 RMK AC8 SLP101 DENSITY ALT 2800FT

CYXE;2016-09-01 18:00;CYXE 011800Z 13015KT 15SM BKN170 22/16 A2977 RMK AC7 PRESFR SLP086 DENSITY ALT 3000FT

CYXE;2016-09-01 19:00;CYXE 011900Z 14011KT 15SM BKN180 24/15 A2976 RMK CI6 SLP081 DENSITY ALT 3200FT

CYXE;2016-09-01 20:00;CYXE 012000Z 19007KT 150V210 15SM BKN180 BKN300 25/16 A2977 RMK CI5CI2 SLP084 DENSITY ALT 3300FT

CYXE;2016-09-01 21:00;CYXE 012100Z 20010KT 15SM SCT150 BKN300 26/16 A2977 RMK AC4CI2 SLP082 DENSITY ALT 3400FT

CYXE;2016-09-01 22:00;CYXE 012200Z 18007KT 15SM SCT160 BKN300 27/16 A2974 RMK AC4CI1 SLP074 DENSITY ALT 3500FT

CYXE;2016-09-01 23:00;CYXE 012300Z 18010KT 15SM SCT160 BKN300 27/16 A2974 RMK AC3CI2 WND ESTD SLP073 DENSITY ALT 3600FT

CYXE;2016-09-02 00:00;CYXE 020000Z 17012G18KT 15SM FEW160 SCT300 28/16 A2973 RMK AC1CI2 SLP070 DENSITY ALT 3700FT

CYXE;2016-09-02 01:00;CYXE 020100Z 17010KT 15SM FEW300 26/16 A2972 RMK CI2 SLP066 DENSITY ALT 3400FT

CYXE;2016-09-02 02:00;CYXE 020200Z 17008KT 15SM FEW100 BKN300 23/16 A2972 RMK AC1CI5 SLP066 DENSITY ALT 3200FT

CYXE;2016-09-02 03:00;CYXE 020300Z 17006KT 15SM SCT300 21/16 A2971 RMK CI4 SLP066 DENSITY ALT 2900FT

CYXE;2016-09-02 04:00;CYXE 020400Z 19004KT 15SM FEW300 19/16 A2971 RMK CI2 SLP066 DENSITY ALT 2700FT

CYXE;2016-09-02 05:00;CYXE 020500Z 00000KT 15SM FEW300 18/17 A2972 RMK CI2 SLP069 DENSITY ALT 2600FT

CYXE;2016-09-02 06:00;CYXE 020600Z 10004KT 15SM SKC 17/16 A2971 RMK SLP065 DENSITY ALT 2400FT

CYXE;2016-09-02 07:00;CYXE 020700Z 24006KT 15SM SKC 15/15 A2972 RMK SLP067 DENSITY ALT 2200FT

CYXE;2016-09-02 08:00;CYXE 020800Z 28005KT 15SM SKC 13/13 A2971 RMK SLP067 DENSITY ALT 2000FT

CYXE;2016-09-02 09:00;CYXE 020900Z 01004KT 15SM SKC 13/13 A2971 RMK SLP065 DENSITY ALT 1900FT

CYXE;2016-09-02 10:00;CYXE 021000Z 06005KT 15SM SKC 14/14 A2971 RMK SLP064 DENSITY ALT 2100FT

CYXE;2016-09-02 11:00;CYXE 021100Z 03005KT 15SM SKC 14/14 A2968 RMK SLP054 DENSITY ALT 2200FT

CYXE;2016-09-02 12:00;CYXE 021200Z 01006KT 15SM SCT140 BKN250 15/14 A2968 RMK AC3CI4 SLP051 DENSITY ALT 2200FT

CYXE;2016-09-02 13:00;CYXE 021300Z 04005KT 15SM BKN140 OVC250 15/14 A2967 RMK AC5CI3 SLP050 DENSITY ALT 2300FT

CYXE;2016-09-02 14:00;CYXE 021400Z 05003KT 010V090 15SM BKN140 OVC250 15/15 A2969 RMK AC6CI2 PRESRR SLP058 DENSITY ALT 2300FT

CYXE;2016-09-02 15:00;CYXE 021500Z VRB02KT 15SM OVC170 16/15 A2970 RMK AC8 LTNG DIST N PRESRR SLP064 DENSITY ALT 2300FT

CYXE;2016-09-02 16:00;CYXE 021600Z 34008KT 14SM SCT120 OVC170 17/16 A2967 RMK AC3AC5 SLP052 DENSITY ALT 2500FT

CYXE;2016-09-02 16:15;CYXE 021615Z 36012KT 15SM -SHRA SCT120 BKN170 16/16 A2963 RMK AC4AC3 PRESFR SLP039 DENSITY ALT 2500FT

CYXE;2016-09-02 16:53;CYXE 021653Z 36009G16KT 15SM OVC130 17/16 A2962 RMK AC8 SLP036 DENSITY ALT 2500FT

CYXE;2016-09-02 17:00;CYXE 021700Z 35012KT 15SM OVC130 17/16 A2963 RMK AC8 PRESRR SLP040 DENSITY ALT 2500FT

CYXE;2016-09-02 18:00;CYXE 021800Z 21003KT 110V270 15SM BKN130 19/16 A2970 RMK AC7 PRESRR SLP063 DENSITY ALT 2700FT

CYXE;2016-09-02 19:00;CYXE 021900Z VRB06KT 15SM BKN130 21/16 A2968 RMK AC6 SLP057 DENSITY ALT 2900FT

CYXE;2016-09-02 20:00;CYXE 022000Z 07011KT 15SM BKN120 21/17 A2965 RMK AC6 SLP047 DENSITY ALT 2900FT

CYXE;2016-09-02 21:00;CYXE 022100Z 09008KT 15SM SCT120 23/17 A2964 RMK ACC3 SLP044 DENSITY ALT 3200FT

CYXE;2016-09-02 22:00;CYXE 022200Z 34003KT 260V040 15SM FEW120 SCT300 24/17 A2963 RMK ACC1CI2 SLP039 DENSITY ALT 3300FT

CYXE;2016-09-02 23:00;CYXE 022300Z 29002KT 15SM FEW120 FEW300 25/16 A2963 RMK AC1CI1 SLP038 DENSITY ALT 3400FT

CYXE;2016-09-03 00:00;CYXE 030000Z 30005KT 15SM SCT120 22/17 A2963 RMK AC4 SLP038 DENSITY ALT 3200FT

CYXE;2016-09-03 01:00;CYXE 030100Z 29005KT 15SM SCT160 BKN210 21/18 A2964 RMK AC4CI3 SLP044 DENSITY ALT 3000FT

CYXE;2016-09-03 02:00;CYXE 030200Z 31002KT 15SM SCT160 BKN210 20/17 A2964 RMK AC4CI3 SLP044 DENSITY ALT 2900FT

CYXE;2016-09-03 03:00;CYXE 030300Z 24006KT 15SM SCT150 BKN210 19/17 A2965 RMK AC3CI4 SLP048 DENSITY ALT 2800FT

CYXE;2016-09-03 04:00;CYXE 030400Z 25008KT 15SM FEW150 BKN210 19/11 A2965 RMK AC2CI5 SLP048 DENSITY ALT 2800FT

CYXE;2016-09-03 05:00;CYXE 030500Z 25007KT 15SM FEW180 BKN240 16/11 A2966 RMK AC1CI5 SLP053 DENSITY ALT 2300FT

CYXE;2016-09-03 06:00;CYXE 030600Z 27008KT 15SM FEW140 BKN240 16/09 A2968 RMK AC1CI4 SLP057 DENSITY ALT 2400FT

CYXE;2016-09-03 07:00;CYXE 030700Z 29011G16KT 15SM FEW240 14/09 A2970 RMK CI2 SLP064 DENSITY ALT 2100FT

CYXE;2016-09-03 08:00;CYXE 030800Z 28010KT 15SM FEW240 12/09 A2972 RMK CI2 SLP071 DENSITY ALT 1800FT

CYXE;2016-09-03 09:00;CYXE 030900Z 25007KT 15SM FEW240 09/09 A2971 RMK CI1 SLP069

CYXE;2016-09-03 10:00;CYXE 031000Z 23009KT 15SM FEW240 08/08 A2972 RMK CI1 SLP072

CYXE;2016-09-03 11:00;CYXE 031100Z 23009KT 15SM FEW140 FEW240 08/08 A2973 RMK AC1CI1 SLP077

CYXE;2016-09-03 12:00;CYXE 031200Z 24009KT 15SM FEW140 FEW240 08/08 A2976 RMK AC1CI1 SLP086

CYXE;2016-09-03 13:00;CYXE 031300Z 25010KT 15SM FEW140 FEW240 08/08 A2977 RMK AC1CI1 SLP091

CYXE;2016-09-03 14:00;CYXE 031400Z 24011G16KT 15SM FEW010 10/09 A2978 RMK SF1 SLP095

CYXE;2016-09-03 15:00;CYXE 031500Z 25012G19KT 15SM FEW010 12/08 A2979 RMK SF1 SLP098 DENSITY ALT 1800FT

CYXE;2016-09-03 16:00;CYXE 031600Z 27014KT 15SM FEW010 FEW280 14/07 A2979 RMK SF1CI1 SF TR SLP097 DENSITY ALT 2000FT

CYXE;2016-09-03 17:00;CYXE 031700Z 26010G17KT 15SM FEW010 FEW280 16/07 A2979 RMK SF1CI1 SF TR SLP098 DENSITY ALT 2200FT

CYXE;2016-09-03 18:00;CYXE 031800Z 25011KT 230V300 15SM FEW010 FEW280 18/07 A2978 RMK SF1CI1 SF TR SLP091 DENSITY ALT 2500FT

CYXE;2016-09-03 19:00;CYXE 031900Z 27012G20KT 15SM FEW012 FEW300 19/06 A2977 RMK SF1CI1 SLP087 DENSITY ALT 2600FT

CYXE;2016-09-03 20:00;CYXE 032000Z 24014G20KT 15SM FEW040 21/06 A2977 RMK CF2 SLP089 DENSITY ALT 2800FT

CYXE;2016-09-03 21:00;CYXE 032100Z 26011G21KT 220V290 15SM SCT060 SCT300 21/06 A2977 RMK CU3CI1 SLP089 DENSITY ALT 2800FT

CYXE;2016-09-03 22:00;CYXE 032200Z 26014KT 15SM SCT060 21/06 A2975 RMK CU3 SLP086 DENSITY ALT 2800FT

CYXE;2016-09-03 23:00;CYXE 032300Z 25016G24KT 15SM SCT060 21/06 A2975 RMK CU3 SLP085 DENSITY ALT 2900FT

CYXE;2016-09-04 00:00;CYXE 040000Z 26014KT 15SM FEW060 SCT100 21/06 A2974 RMK CU2AC1 SLP083 DENSITY ALT 2800FT

CYXE;2016-09-04 01:00;CYXE 040100Z 26009G15KT 15SM SCT080 18/05 A2975 RMK ACC3 SLP086 DENSITY ALT 2500FT

CYXE;2016-09-04 02:00;CYXE 040200Z 31016G25KT 15SM VCSH SCT070 15/06 A2978 RMK ACC3 SLP096 DENSITY ALT 2200FT

CYXE;2016-09-04 03:00;CYXE 040300Z 27008KT 15SM BKN070 14/06 A2981 RMK ACC5 SLP108 DENSITY ALT 2000FT

CYXE;2016-09-04 04:00;CYXE 040400Z 25007KT 15SM FEW080 11/06 A2982 RMK AC1 SLP111

CYXE;2016-09-04 05:00;CYXE 040500Z 27008KT 15SM SKC 10/06 A2984 RMK SLP116

CYXE;2016-09-04 06:00;CYXE 040600Z 29011KT 15SM SKC 10/07 A2987 RMK SLP124

CYXE;2016-09-04 07:00;CYXE 040700Z 31013KT 15SM SKC 10/06 A2988 RMK SLP130

CYXE;2016-09-04 08:00;CYXE 040800Z 30009KT 15SM SKC 08/07 A2990 RMK SLP137

CYXE;2016-09-04 09:00;CYXE 040900Z 30006KT 15SM SKC 07/06 A2992 RMK SLP143

CYXE;2016-09-04 10:00;CYXE 041000Z 30009KT 15SM SCT011 07/07 A2994 RMK SF3 SLP149

CYXE;2016-09-04 11:00;CYXE 041100Z 30006KT 15SM FEW011 07/07 A2994 RMK SF2 SLP150

CYXE;2016-09-04 12:00;CYXE 041200Z 30006KT 15SM BKN022 08/07 A2995 RMK SC6 SLP154

CYXE;2016-09-04 13:00;CYXE 041300Z 31007KT 15SM BKN025 08/08 A2997 RMK SC7 SLP161

CYXE;2016-09-04 14:00;CYXE 041400Z 31010KT 15SM BKN030 BKN280 08/07 A2999 RMK SC6CI1 SLP170

CYXE;2016-09-04 15:00;CYXE 041500Z 35009KT 15SM BKN024 10/06 A3001 RMK SC7 SLP178

CYXE;2016-09-04 16:00;CYXE 041600Z 33013KT 310V010 15SM OVC027 11/05 A3002 RMK SC8 SLP183

CYXE;2016-09-04 17:00;CYXE 041700Z 33011KT 310V030 15SM OVC029 11/04 A3003 RMK SC8 SLP185

CYXE;2016-09-04 18:00;CYXE 041800Z 32010G17KT 15SM OVC030 12/05 A3002 RMK SC8 SLP181

CYXE;2016-09-04 19:00;CYXE 041900Z 30012KT 15SM BKN035 BKN280 14/05 A3000 RMK SC5CI2 SLP174 DENSITY ALT 1800FT

CYXE;2016-09-04 20:00;CYXE 042000Z 34013KT 290V360 15SM BKN040 BKN280 15/05 A3000 RMK SC5CI2 SLP174 DENSITY ALT 1900FT

CYXE;2016-09-04 21:00;CYXE 042100Z 30006G15KT 15SM BKN040 13/04 A3001 RMK SC7 SLP179 DENSITY ALT 1700FT

CYXE;2016-09-04 22:00;CYXE 042200Z 33009G15KT 15SM BKN040 13/04 A3002 RMK SC7 SLP181 DENSITY ALT 1700FT

CYXE;2016-09-04 23:00;CYXE 042300Z 34007KT 15SM BKN045 13/03 A3001 RMK SC7 SLP179

CYXE;2016-09-05 00:00;CYXE 050000Z 02007KT 15SM BKN045 12/04 A3001 RMK SC7 SLP178

CYXE;2016-09-05 01:00;CYXE 050100Z 02005KT 15SM BKN045 12/04 A3002 RMK SC7 SLP182

CYXE;2016-09-05 02:00;CYXE 050200Z 01005KT 15SM BKN045 BKN250 11/04 A3002 RMK SC6CI1 SLP184

CYXE;2016-09-05 03:00;CYXE 050300Z 01006KT 15SM FEW045 BKN250 08/04 A3003 RMK SC1CI6 SLP188

CYXE;2016-09-05 04:00;CYXE 050400Z 03005KT 15SM SCT240 06/04 A3003 RMK CI3 SLP188

CYXE;2016-09-05 05:00;CYXE 050500Z 01007KT 15SM SCT220 05/03 A3003 RMK CI3 SLP187

CYXE;2016-09-05 06:00;CYXE 050600Z 04004KT 15SM BKN200 06/04 A3003 RMK CI7 SLP186

CYXE;2016-09-05 07:00;CYXE 050700Z 05002KT 15SM BKN200 06/04 A3005 RMK CI7 SLP191

CYXE;2016-09-05 08:00;CYXE 050800Z 28003KT 15SM OVC180 05/04 A3004 RMK CI8 SLP190

CYXE;2016-09-05 09:00;CYXE 050900Z 29004KT 15SM OVC180 05/04 A3005 RMK CI8 SLP192

CYXE;2016-09-05 10:00;CYXE 051000Z 30004KT 15SM OVC180 04/04 A3004 RMK CI8 SLP191

CYXE;2016-09-05 11:00;CYXE 051100Z 32005KT 15SM FEW036 OVC180 04/04 A3003 RMK SC2CI6 SLP188

CYXE;2016-09-05 12:00;CYXE 051200Z 32005KT 15SM SCT036 OVC180 04/04 A3003 RMK SC3CI5 SLP188

CYXE;2016-09-05 13:00;CYXE 051300Z 33005KT 15SM FEW036 BKN180 OVC250 05/05 A3003 RMK SC1CI4CI3 SLP187

CYXE;2016-09-05 14:00;CYXE 051400Z 34005KT 15SM BKN036 OVC180 07/06 A3002 RMK SC7CI1 SLP184

CYXE;2016-09-05 15:00;CYXE 051500Z 32005KT 15SM BKN039 OVC180 08/04 A3003 RMK SC7CI1 SLP187

CYXE;2016-09-05 16:00;CYXE 051600Z 01005KT 330V030 15SM BKN039 OVC160 09/04 A3001 RMK SC6AC2 SLP183

CYXE;2016-09-05 17:00;CYXE 051700Z 01007KT 15SM SCT039 OVC160 11/04 A3001 RMK SC4AC4 SLP181

CYXE;2016-09-05 18:00;CYXE 051800Z 03007KT 15SM SCT030 BKN160 12/04 A3000 RMK SC4AC3 SLP177

CYXE;2016-09-05 19:00;CYXE 051900Z 03006KT 350V080 15SM FEW030 BKN160 12/04 A2998 RMK SC2AC5 SLP170

CYXE;2016-09-05 20:00;CYXE 052000Z 08003KT 020V120 15SM SCT040 OVC160 13/04 A2998 RMK SC4AC4 SLP171 DENSITY ALT 1700FT

CYXE;2016-09-05 21:00;CYXE 052100Z 10007KT 050V160 15SM BKN035 OVC170 13/05 A2998 RMK SC5AC3 SLP170 DENSITY ALT 1700FT

CYXE;2016-09-05 22:00;CYXE 052200Z VRB03KT 15SM BKN040 OVC170 13/05 A2997 RMK SC5AC3 SLP168 DENSITY ALT 1700FT

CYXE;2016-09-05 23:00;CYXE 052300Z 09003KT 15SM BKN035 BKN170 OVC280 14/05 A2997 RMK SC5AC1CI2 SLP167 DENSITY ALT 1800FT

CYXE;2016-09-06 00:00;CYXE 060000Z 18002KT 15SM SCT045 BKN170 OVC280 13/05 A2997 RMK SC3AC3CI2 SLP167 DENSITY ALT 1700FT

CYXE;2016-09-06 01:00;CYXE 060100Z 35002KT 15SM SCT040 BKN170 OVC280 13/06 A2997 RMK SC4AC1CI3 SLP167

CYXE;2016-09-06 02:00;CYXE 060200Z 02003KT 15SM BKN040 BKN160 OVC280 11/05 A2997 RMK SC5AC2CI1 SLP168

CYXE;2016-09-06 03:00;CYXE 060300Z VRB02KT 15SM BKN040 BKN280 10/06 A2998 RMK SC5CI2 SLP168

CYXE;2016-09-06 04:00;CYXE 060400Z 24004KT 15SM SCT040 09/06 A2998 RMK SC3 SLP171

CYXE;2016-09-06 05:00;CYXE 060500Z 22006KT 15SM FEW040 06/05 A2999 RMK SC2 SLP172

CYXE;2016-09-06 06:00;CYXE 060600Z 17004KT 15SM FEW040 06/05 A2998 RMK SC2 SLP169

CYXE;2016-09-06 07:00;CYXE 060700Z 20005KT 15SM SKC 05/04 A2998 RMK SLP169

CYXE;2016-09-06 08:00;CYXE 060800Z 24002KT 15SM SKC 04/04 A2997 RMK SLP167

CYXE;2016-09-06 09:00;CYXE 060900Z 16002KT 15SM SKC 03/03 A2997 RMK SLP166

CYXE;2016-09-06 10:00;CYXE 061000Z 16003KT 15SM SKC 03/03 A2995 RMK SLP162

CYXE;2016-09-06 11:00;CYXE 061100Z 16005KT 15SM SKC 03/03 A2995 RMK SLP161

CYXE;2016-09-06 12:00;CYXE 061200Z VRB03KT 15SM FEW005TCU FEW050 03/03 A2996 RMK TCU1SC1 PRESRR SLP163

CYXE;2016-09-06 12:18;CYXE 061218Z 00000KT 15SM BKN003 BKN050 02/02 A2996 RMK ST5SC1 SLP166

CYXE;2016-09-06 12:28;CYXE 061228Z VRB02KT 15SM SCT003 SCT050 02/02 A2997 RMK ST3SC1 SLP167

CYXE;2016-09-06 13:00;CYXE 061300Z 00000KT 15SM FEW050 FEW300 03/03 A2998 RMK SC1CI1 SC TR CI TR SLP170

CYXE;2016-09-06 14:00;CYXE 061400Z 12004KT 15SM FEW180 07/07 A2997 RMK AC1 SLP167

CYXE;2016-09-06 15:00;CYXE 061500Z 18005KT 130V210 15SM BKN240 09/06 A2997 RMK CI5 SLP166

CYXE;2016-09-06 16:00;CYXE 061600Z 13006KT 15SM BKN230 12/06 A2997 RMK CI7 SLP165

CYXE;2016-09-06 17:00;CYXE 061700Z 14006KT 100V190 15SM BKN120 BKN230 14/06 A2997 RMK AC5CI2 SLP164 DENSITY ALT 1800FT

CYXE;2016-09-06 18:00;CYXE 061800Z 12006KT 090V160 15SM SCT120 BKN230 15/07 A2995 RMK AC3CI3 SLP160 DENSITY ALT 1900FT

CYXE;2016-09-06 19:00;CYXE 061900Z 17008KT 140V210 15SM FEW036 SCT120 SCT230 17/07 A2993 RMK CU2AC1CI1 SLP151 DENSITY ALT 2200FT

CYXE;2016-09-06 20:00;CYXE 062000Z 14006KT 120V200 15SM FEW050 SCT110 SCT150 BKN200 19/07 A2991 RMK CU2AC1AC1CI1 SLP141 DENSITY ALT 2500FT

CYXE;2016-09-06 21:00;CYXE 062100Z 13011KT 15SM FEW050 FEW150 19/05 A2989 RMK CU1AC1 SLP136 DENSITY ALT 2500FT

CYXE;2016-09-06 22:00;CYXE 062200Z 14012G17KT 15SM FEW060 SCT170 20/05 A2988 RMK SC2AC1 SLP134 DENSITY ALT 2600FT

CYXE;2016-09-06 23:00;CYXE 062300Z 15011KT 130V200 15SM SCT060 SCT170 19/04 A2988 RMK SC3AC1 SLP132 DENSITY ALT 2500FT

CYXE;2016-09-07 00:00;CYXE 070000Z 14010KT 15SM SCT060 BKN280 18/06 A2987 RMK SC3CI3 SLP132 DENSITY ALT 2400FT

CYXE;2016-09-07 01:00;CYXE 070100Z 13009KT 15SM FEW060 BKN240 17/06 A2987 RMK SC2CI5 SLP129 DENSITY ALT 2300FT

CYXE;2016-09-07 02:00;CYXE 070200Z 13012G18KT 15SM FEW060 BKN240 16/06 A2987 RMK SC1CI6 SLP128 DENSITY ALT 2100FT

CYXE;2016-09-07 03:00;CYXE 070300Z 13013KT 15SM SCT080 BKN240 15/07 A2987 RMK AC3CI2 SLP130 DENSITY ALT 2000FT

CYXE;2016-09-07 04:00;CYXE 070400Z 15015G20KT 15SM BKN090 15/08 A2987 RMK AC5 SLP126 DENSITY ALT 2000FT

CYXE;2016-09-07 05:00;CYXE 070500Z 17006KT 15SM FEW060 BKN100 BKN220 13/08 A2986 RMK SC1AC4CI2 LTNG DIST E AND NW SLP122 DENSITY ALT 1800FT

CYXE;2016-09-07 06:00;CYXE 070600Z 14012G17KT 15SM FEW080 BKN180 13/08 A2984 RMK AC2CI4 LTNG DIST NE SLP117 DENSITY ALT 1800FT

CYXE;2016-09-07 07:00;CYXE 070700Z 15008KT 15SM FEW080 BKN180 12/08 A2984 RMK AC1CI5 LTNG DIST N-NE SLP115 DENSITY ALT 1700FT

CYXE;2016-09-07 08:00;CYXE 070800Z 00000KT 15SM BKN180 10/08 A2983 RMK CI6 SLP113

CYXE;2016-09-07 09:00;CYXE 070900Z 16006KT 15SM SCT120 OVC180 11/09 A2982 RMK AC4CI4 SLP110

CYXE;2016-09-07 10:00;CYXE 071000Z 04002KT 15SM BKN085 OVC120 09/09 A2983 RMK AC5AC3 SLP111

CYXE;2016-09-07 11:00;CYXE 071100Z VRB02KT 15SM SCT085 BKN120 08/08 A2983 RMK AC3AC3 SLP113

CYXE;2016-09-07 12:00;CYXE 071200Z 00000KT 15SM BKN085 BKN120 BKN250 09/09 A2983 RMK AC5AC1CI1 SLP112

CYXE;2016-09-07 13:00;CYXE 071300Z 21005KT 200V260 15SM -SHRA FEW010 BKN060 OVC085 10/10 A2984 RMK SF1SC5AC2 CVCTV CLD EMBD SLP118

CYXE;2016-09-07 14:00;CYXE 071400Z 21002KT 15SM -SHRA OVC075 10/10 A2985 RMK AC8 CVCTV CLD EMBD SLP119

CYXE;2016-09-07 15:00;CYXE 071500Z 31002KT 15SM BKN075 OVC100 10/10 A2984 RMK AC6AC2 SLP119

CYXE;2016-09-07 16:00;CYXE 071600Z VRB02KT 15SM OVC070 11/11 A2985 RMK AC8 SLP119

CYXE;2016-09-07 16:53;CYXE 071653Z 28005KT 15SM -SHRA FEW010 BKN075 BKN110 12/11 A2985 RMK SF1AC4AC2 CVCTV CLD EMBD SLP121 DENSITY ALT 1800FT

CYXE;2016-09-07 17:00;CYXE 071700Z 30007KT 12SM -SHRA FEW010 BKN075 BKN110 12/11 A2985 RMK SF1AC4AC2 CVCTV CLD EMBD SLP122 DENSITY ALT 1700FT

CYXE;2016-09-07 17:45;CYXE 071745Z 30004KT 280V340 15SM FEW005 FEW012 BKN075 BKN150 11/11 A2986 RMK SF1CU1AC3AC2 SLP123

CYXE;2016-09-07 18:00;CYXE 071800Z 31004KT 280V340 15SM FEW012 BKN080 OVC150 12/11 A2986 RMK CU1AC4AC3 SLP123 DENSITY ALT 1700FT

CYXE;2016-09-07 19:00;CYXE 071900Z 34008KT 250V010 15SM SCT025 BKN090 BKN160 16/11 A2984 RMK CU3AC2AC2 SLP116 DENSITY ALT 2200FT

CYXE;2016-09-07 20:00;CYXE 072000Z 30007KT 15SM SCT030 SCT100 BKN170 BKN240 17/10 A2983 RMK CU3AC1AC2CI1 SLP113 DENSITY ALT 2400FT

CYXE;2016-09-07 21:00;CYXE 072100Z 32008KT 15SM SCT038 BKN130 BKN240 18/09 A2982 RMK CU4AC2CI1 SLP107 DENSITY ALT 2400FT

CYXE;2016-09-07 22:00;CYXE 072200Z 30010G17KT 15SM SCT050 BKN240 20/05 A2980 RMK CU4CI2 SLP103 DENSITY ALT 2600FT

CYXE;2016-09-07 23:00;CYXE 072300Z 35008KT 270V070 15SM FEW060 SCT240 20/08 A2980 RMK CU2CI2 SLP104 DENSITY ALT 2700FT

CYXE;2016-09-08 00:00;CYXE 080000Z 34006KT 310V040 15SM FEW060 FEW240 19/07 A2980 RMK CU1CI1 SLP103 DENSITY ALT 2500FT

CYXE;2016-09-08 01:00;CYXE 080100Z 29006KT 15SM FEW050 FEW140 SCT240 14/05 A2981 RMK CU1AC1CI1 SLP107 DENSITY ALT 2000FT

CYXE;2016-09-08 02:00;CYXE 080200Z 32007KT 15SM FEW040 BKN120 BKN240 14/05 A2982 RMK SC2AC4CI1 SLP112 DENSITY ALT 2000FT

CYXE;2016-09-08 03:00;CYXE 080300Z 02002KT 15SM FEW050 BKN090 12/07 A2982 RMK SC2AC3 SLP110 DENSITY ALT 1800FT

CYXE;2016-09-08 04:00;CYXE 080400Z 26007KT 15SM FEW080 09/05 A2982 RMK AC2 SLP113

CYXE;2016-09-08 05:00;CYXE 080500Z 24003KT 15SM FEW080 07/05 A2981 RMK AC2 SLP112

CYXE;2016-09-08 06:00;CYXE 080600Z 00000KT 15SM FEW080 06/04 A2979 RMK AC1 SLP106

CYXE;2016-09-08 07:00;CYXE 080700Z 22003KT 15SM SKC 05/05 A2978 RMK SLP099

CYXE;2016-09-08 08:00;CYXE 080800Z 20004KT 15SM SKC 05/05 A2977 RMK SLP095

CYXE;2016-09-08 09:00;CYXE 080900Z 21006KT 15SM SKC 05/05 A2976 RMK SLP092

CYXE;2016-09-08 10:00;CYXE 081000Z 23007KT 15SM SKC 04/04 A2976 RMK SLP090

CYXE;2016-09-08 11:00;CYXE 081100Z 23005KT 15SM SKC 04/04 A2975 RMK SLP087

CYXE;2016-09-08 12:00;CYXE 081200Z 20002KT 15SM FEW080 SCT280 05/05 A2974 RMK AC1CI2 SLP085

CYXE;2016-09-08 13:00;CYXE 081300Z 22005KT 15SM FEW080 SCT280 05/05 A2975 RMK AC1CI4 AC TR SLP089

CYXE;2016-09-08 14:00;CYXE 081400Z 21004KT 15SM SCT280 09/07 A2975 RMK CI4 SLP087

CYXE;2016-09-08 15:00;CYXE 081500Z 12003KT 060V190 15SM FEW016 BKN280 11/07 A2974 RMK CF1CI4 SLP085 DENSITY ALT 1700FT

CYXE;2016-09-08 16:00;CYXE 081600Z VRB03KT 15SM FEW030 SCT230 BKN280 15/07 A2973 RMK CU1CI2CI3 SLP079 DENSITY ALT 2200FT

CYXE;2016-09-08 17:00;CYXE 081700Z 03004KT 290V090 15SM FEW040 BKN280 17/06 A2973 RMK CU1CI4 SLP079 DENSITY ALT 2500FT

CYXE;2016-09-08 18:00;CYXE 081800Z VRB03KT 15SM FEW040 BKN110 BKN280 19/06 A2972 RMK CU1AC4CI2 SLP076 DENSITY ALT 2700FT

CYXE;2016-09-08 19:00;CYXE 081900Z 04005KT 350V080 15SM FEW055 BKN100 BKN280 20/06 A2972 RMK CU2AC3CI2 SLP075 DENSITY ALT 2800FT

CYXE;2016-09-08 20:00;CYXE 082000Z 35007KT 15SM SCT060 BKN090 20/05 A2972 RMK CU3AC4 SLP078 DENSITY ALT 2800FT

CYXE;2016-09-08 21:00;CYXE 082100Z 31008KT 290V350 15SM SCT060 BKN090 BKN280 20/05 A2973 RMK CU3AC3CI1 SLP078 DENSITY ALT 2800FT

CYXE;2016-09-08 22:00;CYXE 082200Z 32009KT 15SM SCT060TCU SCT090 BKN170 BKN280 20/06 A2973 RMK TCU3AC1AC2CI1 SLP080 DENSITY ALT 2800FT

CYXE;2016-09-08 23:00;CYXE 082300Z 35009KT 15SM FEW060TCU SCT170 BKN280 20/05 A2973 RMK TCU2AC1CI3 SLP082 DENSITY ALT 2800FT

CYXE;2016-09-09 00:00;CYXE 090000Z 34007KT 280V360 15SM FEW060TCU SCT170 BKN280 20/05 A2974 RMK TCU2AC1CI3 SLP084 DENSITY ALT 2700FT

CYXE;2016-09-09 01:00;CYXE 090100Z 34009KT 15SM FEW060 BKN110 BKN280 17/06 A2977 RMK SC2AC3CI2 SLP094 DENSITY ALT 2400FT

CYXE;2016-09-09 02:00;CYXE 090200Z 34009KT 15SM SCT090 BKN250 13/06 A2979 RMK AC3CI3 SLP103 DENSITY ALT 1900FT

CYXE;2016-09-09 03:00;CYXE 090300Z 34008KT 15SM FEW090 BKN250 11/07 A2982 RMK AC2CI3 SLP113 DENSITY ALT 1700FT

CYXE;2016-09-09 04:00;CYXE 090400Z 35008KT 15SM FEW065 SCT250 10/07 A2985 RMK SC1CI2 SLP120

CYXE;2016-09-09 05:00;CYXE 090500Z 32007KT 15SM FEW065 SCT250 07/07 A2987 RMK SC1CI2 SLP128

CYXE;2016-09-09 06:00;CYXE 090600Z 31008KT 15SM FEW100 06/06 A2988 RMK AC1 SLP133

CYXE;2016-09-09 07:00;CYXE 090700Z 31008KT 15SM SCT200 06/06 A2990 RMK CI3 SLP138

CYXE;2016-09-09 08:00;CYXE 090800Z 30005KT 15SM FEW200 06/06 A2991 RMK CI2 SLP142

CYXE;2016-09-09 09:00;CYXE 090900Z 30008KT 15SM FEW200 07/07 A2992 RMK CI2 SLP146

CYXE;2016-09-09 10:00;CYXE 091000Z 30009KT 15SM SKC 07/07 A2994 RMK SLP149

CYXE;2016-09-09 11:00;CYXE 091100Z 28005KT 15SM SKC 06/06 A2996 RMK SLP159

CYXE;2016-09-09 12:00;CYXE 091200Z 31005KT 15SM FEW085 06/06 A2999 RMK AC1 SLP168

CYXE;2016-09-09 13:00;CYXE 091300Z 30009KT 15SM SCT120 BKN300 06/06 A3001 RMK AC3CI3 SLP178

CYXE;2016-09-09 14:00;CYXE 091400Z 31009KT 15SM SCT070 BKN120 BKN300 08/08 A3003 RMK ACC3AC3CI1 SLP186

CYXE;2016-09-09 14:28;CYXE 091428Z 32013KT 15SM -SHRA BKN070 BKN300 09/09 A3004 RMK ACC5CI2 SLP188

CYXE;2016-09-09 15:00;CYXE 091500Z 31008KT 15SM BKN070 BKN300 10/09 A3005 RMK ACC5CI2 SLP192

CYXE;2016-09-09 15:08;CYXE 091508Z 30008KT 15SM VCSH FEW070 BKN100 BKN300 10/09 A3005 RMK ACC2AC4CI1 SLP192

CYXE;2016-09-09 16:00;CYXE 091600Z 29008KT 15SM SCT100 BKN300 12/09 A3007 RMK AC4CI2 SLP197

CYXE;2016-09-09 17:00;CYXE 091700Z 32007KT 280V350 15SM FEW100 BKN300 15/08 A3008 RMK AC2CI3 SLP201 DENSITY ALT 1800FT

CYXE;2016-09-09 18:00;CYXE 091800Z 29011KT 280V360 15SM FEW030 SCT120 BKN300 17/08 A3008 RMK CU1AC2CI2 SLP200 DENSITY ALT 2000FT

CYXE;2016-09-09 19:00;CYXE 091900Z 34014G20KT 290V350 15SM SCT045 BKN150 BKN300 18/06 A3008 RMK CU3AC2CI1 SLP200 DENSITY ALT 2100FT

CYXE;2016-09-09 20:00;CYXE 092000Z 32014G19KT 15SM SCT045 BKN300 19/05 A3008 RMK CU4CI1 SLP200 DENSITY ALT 2200FT

CYXE;2016-09-09 21:00;CYXE 092100Z 33008G16KT 15SM VCSH BKN050TCU 17/05 A3008 RMK TCU6 SLP199 DENSITY ALT 2000FT

CYXE;2016-09-09 22:00;CYXE 092200Z 31013G19KT 15SM SCT055 SCT100 18/05 A3008 RMK CU3AC1 SLP198 DENSITY ALT 2200FT

CYXE;2016-09-09 23:00;CYXE 092300Z 30013G21KT 15SM SCT058 SCT085 18/04 A3008 RMK CU3AC1 SLP200 DENSITY ALT 2100FT

CYXE;2016-09-10 00:00;CYXE 100000Z 31012G18KT 15SM FEW056 SCT280 17/04 A3007 RMK CU2CI1 SLP199 DENSITY ALT 2000FT

CYXE;2016-09-10 01:00;CYXE 100100Z 31007KT 15SM FEW050 FEW280 15/05 A3007 RMK CF1CI1 CF TR CI TR SLP200 DENSITY ALT 1800FT

CYXE;2016-09-10 02:00;CYXE 100200Z 31006KT 15SM FEW090 FEW280 12/04 A3008 RMK AC1CI1 AC TR CI TR SLP204

CYXE;2016-09-10 03:00;CYXE 100300Z 00000KT 15SM SKC 09/04 A3008 RMK SLP204

CYXE;2016-09-10 04:00;CYXE 100400Z 24003KT 15SM SKC 08/04 A3008 RMK SLP203

CYXE;2016-09-10 05:00;CYXE 100500Z 18002KT 15SM SKC 08/04 A3007 RMK SLP197

CYXE;2016-09-10 06:00;CYXE 100600Z 00000KT 15SM SKC 07/05 A3005 RMK SLP189

CYXE;2016-09-10 07:00;CYXE 100700Z 17005KT 15SM SKC 06/05 A3002 RMK SLP181

CYXE;2016-09-10 08:00;CYXE 100800Z 18004KT 15SM SKC 05/05 A3000 RMK SLP173

CYXE;2016-09-10 09:00;CYXE 100900Z 17005KT 15SM SKC 05/05 A2998 RMK SLP168

CYXE;2016-09-10 10:00;CYXE 101000Z VRB02KT 15SM SKC 06/05 A2996 RMK SLP159

CYXE;2016-09-10 11:00;CYXE 101100Z VRB02KT 15SM SKC 05/05 A2994 RMK SLP153

CYXE;2016-09-10 12:00;CYXE 101200Z 18005KT 15SM BKN150 07/06 A2992 RMK AC6 SLP145

CYXE;2016-09-10 13:00;CYXE 101300Z 16006KT 15SM BKN100 OVC300 08/07 A2989 RMK AC6CI2 SLP137

CYXE;2016-09-10 14:00;CYXE 101400Z 16005KT 15SM OVC100 10/07 A2987 RMK AC8 SLP131

CYXE;2016-09-10 15:00;CYXE 101500Z 19011KT 150V210 15SM SCT100 BKN160 BKN300 12/06 A2985 RMK AC3AC3CI1 SLP124 DENSITY ALT 1800FT

CYXE;2016-09-10 16:00;CYXE 101600Z 20013KT 15SM BKN100 BKN300 13/07 A2983 RMK AC6CI1 SLP116 DENSITY ALT 1900FT

CYXE;2016-09-10 17:00;CYXE 101700Z 20009G15KT 15SM BKN110 BKN300 15/08 A2981 RMK AC6CI1 SLP107 DENSITY ALT 2100FT

CYXE;2016-09-10 18:00;CYXE 101800Z 20010G16KT 15SM BKN120 BKN300 16/07 A2980 RMK AC6CI1 SLP104 DENSITY ALT 2200FT

CYXE;2016-09-10 19:00;CYXE 101900Z 23009G15KT 15SM SCT120 BKN300 18/07 A2978 RMK AC3CI3 SLP099 DENSITY ALT 2500FT

CYXE;2016-09-10 20:00;CYXE 102000Z 26009KT 220V280 15SM FEW050 FEW120 BKN300 20/07 A2978 RMK CU1AC1CI4 SLP095 DENSITY ALT 2700FT

CYXE;2016-09-10 21:00;CYXE 102100Z 25008KT 210V280 15SM FEW050 BKN300 21/08 A2977 RMK CU1CI5 SLP092 DENSITY ALT 2800FT

CYXE;2016-09-10 22:00;CYXE 102200Z 26014G19KT 15SM FEW050 FEW170 BKN300 22/06 A2975 RMK CU1AC1CI5 SLP086 DENSITY ALT 3000FT

CYXE;2016-09-10 23:00;CYXE 102300Z 27015KT 15SM FEW050 FEW150 BKN300 23/06 A2975 RMK CU1AC1CI5 WND ESTD SLP084 DENSITY ALT 3100FT

CYXE;2016-09-11 00:00;CYXE 110000Z 27010KT 15SM FEW050 OVC300 21/07 A2974 RMK CU1CI7 WND ESTD SLP082 DENSITY ALT 2900FT

CYXE;2016-09-11 01:00;CYXE 110100Z 27010KT 15SM FEW050 BKN170 BKN300 19/08 A2972 RMK CU1AC5CI1 WND ESTD SLP076 DENSITY ALT 2600FT

CYXE;2016-09-11 02:00;CYXE 110200Z 23010KT 15SM SCT110 BKN180 16/08 A2972 RMK AC3AC4 WND ESTD SLP077 DENSITY ALT 2400FT

CYXE;2016-09-11 03:00;CYXE 110300Z CCA 23015KT 15SM -SHRA BKN075 OVC160 16/08 A2977 RMK AC6AC2 WND ESTD PRESRR SLP090 DENSITY ALT 2300FT

CYXE;2016-09-11 03:25;CYXE 110325Z 23010KT 15SM SCT070 BKN160 13/11 A2977 RMK AC3AC3 WND ESTD SLP092 DENSITY ALT 2000FT

CYXE;2016-09-11 04:00;CYXE 110400Z 27010KT 15SM SCT070 BKN160 14/10 A2977 RMK AC3AC4 WND ESTD SLP091 DENSITY ALT 2000FT

CYXE;2016-09-11 05:00;CYXE 110500Z 32010KT 15SM BKN100 13/11 A2975 RMK AC7 WND ESTD SLP086 DENSITY ALT 1900FT

CYXE;2016-09-11 06:00;CYXE 110600Z 27010KT 15SM -SHRA BKN050 OVC090 13/10 A2977 RMK SC5AC3 CVCTV CLD EMBD WND ESTD SLP091 DENSITY ALT 1900FT

CYXE;2016-09-11 07:00;CYXE 110700Z 32006KT 240V360 15SM -SHGR BKN055 OVC090 13/08 A2976 RMK SC6AC2 CVCTV CLD EMBD PRESFR SLP087 DENSITY ALT 1900FT

CYXE;2016-09-11 07:47;CYXE 110747Z 27006KT 15SM SCT055 OVC120 12/08 A2975 RMK SC4AC4 SLP083 DENSITY ALT 1800FT

CYXE;2016-09-11 08:00;CYXE 110800Z 29007KT 15SM SCT055 OVC120 12/08 A2974 RMK SC4AC4 SLP081 DENSITY ALT 1900FT

CYXE;2016-09-11 09:00;CYXE 110900Z 20008KT 15SM BKN060 OVC120 11/11 A2975 RMK SC6AC2 SLP082 DENSITY ALT 1700FT

CYXE;2016-09-11 10:00;CYXE 111000Z 18010KT 15SM FEW060 BKN160 11/10 A2974 RMK SC2AC3 WND ESTD SLP078 DENSITY ALT 1700FT

CYXE;2016-09-11 11:00;CYXE 111100Z 27005KT 15SM BKN160 09/09 A2974 RMK AC6 WND ESTD SLP081

CYXE;2016-09-11 12:00;CYXE 111200Z 27010KT 15SM SCT160 BKN250 09/09 A2976 RMK AC4CI1 WND ESTD SLP088

CYXE;2016-09-11 13:00;CYXE 111300Z 29006KT 15SM FEW160 BKN180 08/08 A2978 RMK AC1CI5 SLP094

CYXE;2016-09-11 14:00;CYXE 111400Z 31012KT 15SM FEW100 BKN180 09/08 A2980 RMK AC1AS6 SLP103

CYXE;2016-09-11 15:00;CYXE 111500Z 32015KT 15SM FEW100 BKN180 10/08 A2982 RMK AC1AS6 WND ESTD SLP111

CYXE;2016-09-11 16:00;CYXE 111600Z 33010KT 15SM FEW020 SCT110 BKN200 11/08 A2983 RMK SC1AC2CI3 SLP116 DENSITY ALT 1700FT

CYXE;2016-09-11 17:00;CYXE 111700Z 31011G17KT 15SM SCT020 BKN110 13/08 A2983 RMK CU4AC2 SLP114 DENSITY ALT 1900FT

CYXE;2016-09-11 18:00;CYXE 111800Z 30014G22KT 15SM BKN030 BKN110 13/06 A2984 RMK CU6AC1 SLP116 DENSITY ALT 1900FT

CYXE;2016-09-11 19:00;CYXE 111900Z 31013G20KT 15SM FEW030 OVC040 13/06 A2986 RMK CU1SC7 SLP123 DENSITY ALT 1800FT

CYXE;2016-09-11 20:00;CYXE 112000Z 31011G22KT 15SM FEW030 OVC040 12/05 A2987 RMK CU1SC7 SLP128 DENSITY ALT 1700FT

CYXE;2016-09-11 21:00;CYXE 112100Z 30012KT 15SM BKN040 12/04 A2988 RMK SC7 SLP134 DENSITY ALT 1700FT

CYXE;2016-09-11 22:00;CYXE 112200Z 30015G23KT 15SM FEW030 BKN040 12/04 A2989 RMK SC1SC6 SLP136 DENSITY ALT 1700FT

CYXE;2016-09-11 23:00;CYXE 112300Z 30015KT 15SM FEW030 OVC040 12/05 A2991 RMK SC1SC7 SLP143

CYXE;2016-09-12 00:00;CYXE 120000Z 32013G21KT 15SM FEW040 OVC050 11/05 A2992 RMK SC2SC6 SLP149

CYXE;2016-09-12 00:25;CYXE 120025Z 31011G20KT 15SM -SHRA FEW040 BKN054 10/06 A2994 RMK SC2SC5 CVCTV CLD EMBD SLP154

CYXE;2016-09-12 01:00;CYXE 120100Z 30015KT 15SM OVC047 11/05 A2995 RMK SC8 CVCTV CLD EMBD OCNL -SHRA SLP157

CYXE;2016-09-12 01:14;CYXE 120114Z 31014KT 15SM OVC047 10/05 A2995 RMK SC8 SLP158

CYXE;2016-09-12 02:00;CYXE 120200Z 31011KT 15SM OVC056 10/05 A2996 RMK SC8 SLP164

CYXE;2016-09-12 03:00;CYXE 120300Z 33014G19KT 15SM SCT022 OVC039 09/06 A2999 RMK SC3SC5 SLP172

CYXE;2016-09-12 03:06;CYXE 120306Z 34014G19KT 15SM -RA BKN020 OVC036 09/07 A2999 RMK SC5SC3 SLP174

CYXE;2016-09-12 03:45;CYXE 120345Z 35009KT 15SM FEW006 OVC022 08/08 A3001 RMK SF2SC6 SLP182

CYXE;2016-09-12 04:00;CYXE 120400Z 36018KT 10SM -DZ BKN015 OVC022 07/07 A3002 RMK SF6SC2 SLP183

CYXE;2016-09-12 04:09;CYXE 120409Z 35014G23KT 10SM -DZ OVC013 07/07 A3003 RMK SF8 SLP186

CYXE;2016-09-12 04:13;CYXE 120413Z 35018G24KT 10SM -DZ FEW006 OVC013 07/07 A3003 RMK SF2SF6 SLP187

CYXE;2016-09-12 05:00;CYXE 120500Z 36016G24KT 15SM OVC014 06/05 A3005 RMK SF8 INTMT -DZ SLP192

CYXE;2016-09-12 05:20;CYXE 120520Z 36018G23KT 15SM OVC014 06/05 A3005 RMK SF8 SLP194

CYXE;2016-09-12 05:39;CYXE 120539Z 35014KT 15SM -DZ OVC014 06/05 A3006 RMK ST8 SLP198

CYXE;2016-09-12 06:00;CYXE 120600Z 36016G22KT 15SM -DZ OVC014 06/04 A3007 RMK ST8 SLP201

CYXE;2016-09-12 07:00;CYXE 120700Z 36013G19KT 15SM -DZ BKN013 BKN022 OVC080 05/04 A3010 RMK SF5SC1AC2 SLP212

CYXE;2016-09-12 08:00;CYXE 120800Z 36009KT 15SM -DZ BKN014 OVC048 05/04 A3013 RMK SF5SC3 SLP222

CYXE;2016-09-12 08:09;CYXE 120809Z 01009KT 15SM BKN018 OVC046 05/04 A3013 RMK SC5SC3 SLP222

CYXE;2016-09-12 09:00;CYXE 120900Z 35013G18KT 15SM BKN021 OVC045 05/03 A3015 RMK SC5SC3 SLP228

CYXE;2016-09-12 10:00;CYXE 121000Z 34012KT 15SM BKN018 OVC050 05/04 A3017 RMK SC6SC2 SLP236

CYXE;2016-09-12 11:00;CYXE 121100Z 35012G19KT 15SM BKN019 OVC050 05/02 A3019 RMK SC6SC2 SLP244

CYXE;2016-09-12 12:00;CYXE 121200Z 34010G18KT 15SM BKN026 BKN042 04/01 A3022 RMK SC5SC2 SLP252

CYXE;2016-09-12 13:00;CYXE 121300Z 33010G16KT 15SM FEW025 BKN045 03/01 A3023 RMK SC1SC6 SLP259

CYXE;2016-09-12 13:18;CYXE 121318Z 33010KT 15SM FEW025 BKN045 02/01 A3024 RMK SC1SC6 SLP261

CYXE;2016-09-12 14:00;CYXE 121400Z 32010KT 15SM BKN045 02/01 A3025 RMK SC6 SLP267

CYXE;2016-09-12 15:00;CYXE 121500Z 35014KT 15SM SCT045 05/M00 A3027 RMK SC3 SLP270

CYXE;2016-09-12 16:00;CYXE 121600Z 35011G18KT 15SM FEW020 SCT045 07/M02 A3027 RMK CF1SC2 SLP273

CYXE;2016-09-12 17:00;CYXE 121700Z 36013G21KT 340V050 15SM SCT040 BKN060 09/M03 A3028 RMK CU3SC2 SLP275

CYXE;2016-09-12 18:00;CYXE 121800Z 36013KT 330V040 15SM SCT050 BKN065 09/M03 A3027 RMK CU3SC4 SLP273

CYXE;2016-09-12 19:00;CYXE 121900Z 33009G17KT 310V010 15SM BKN050 OVC065 09/M03 A3027 RMK CU5SC3 WSHFT 1850 SLP273

CYXE;2016-09-12 20:00;CYXE 122000Z 31010G16KT 290V360 15SM SCT050 BKN065 09/M02 A3027 RMK CU4SC3 SLP272

CYXE;2016-09-12 21:00;CYXE 122100Z 34010KT 15SM SCT050 BKN060 09/M02 A3027 RMK SC3SC4 SLP270

CYXE;2016-09-12 22:00;CYXE 122200Z 35006KT 15SM SCT050 BKN064 09/M04 A3026 RMK SC3SC4 SLP269

CYXE;2016-09-12 23:00;CYXE 122300Z 34008KT 15SM BKN064 09/M03 A3026 RMK SC7 SLP267

CYXE;2016-09-13 00:00;CYXE 130000Z 30004KT 15SM BKN054 09/M03 A3025 RMK SC7 SLP264

CYXE;2016-09-13 01:00;CYXE 130100Z 29004KT 15SM BKN060 08/M01 A3025 RMK SC7 SLP265

CYXE;2016-09-13 02:00;CYXE 130200Z 27004KT 15SM BKN060 07/M00 A3025 RMK SC7 SLP269

CYXE;2016-09-13 03:00;CYXE 130300Z 27004KT 15SM BKN064 06/01 A3026 RMK SC7 SLP271

CYXE;2016-09-13 04:00;CYXE 130400Z 25005KT 15SM BKN064 05/01 A3026 RMK SC7 SLP269

CYXE;2016-09-13 05:00;CYXE 130500Z 23005KT 15SM BKN060 05/02 A3025 RMK SC7 SLP266

CYXE;2016-09-13 06:00;CYXE 130600Z 23005KT 15SM BKN058 05/02 A3025 RMK SC6 SLP265

CYXE;2016-09-13 07:00;CYXE 130700Z 26004KT 240V340 15SM BKN055 04/02 A3024 RMK SC6 SLP262

CYXE;2016-09-13 07:39;CYXE 130739Z 25003KT 15SM BKN055 02/01 A3023 RMK SC6 SLP260

CYXE;2016-09-13 08:00;CYXE 130800Z 23003KT 15SM BKN050 03/01 A3023 RMK SC5 SLP260

CYXE;2016-09-13 09:00;CYXE 130900Z 22004KT 15SM BKN050 02/01 A3022 RMK SC6 SLP257

CYXE;2016-09-13 10:00;CYXE 131000Z 21006KT 15SM BKN048 03/02 A3021 RMK SC7 SLP253

CYXE;2016-09-13 11:00;CYXE 131100Z 21007KT 15SM SCT050 02/01 A3021 RMK SC3 SLP254

CYXE;2016-09-13 12:00;CYXE 131200Z 21007KT 15SM FEW050 01/01 A3021 RMK SC1 SLP253

CYXE;2016-09-13 13:00;CYXE 131300Z 21006KT 15SM FEW050 FEW200 01/00 A3020 RMK SC1CI1 SC TR SLP252

CYXE;2016-09-13 14:00;CYXE 131400Z 22007KT 15SM FEW200 04/02 A3020 RMK CI1 SLP249

CYXE;2016-09-13 15:00;CYXE 131500Z 20009KT 15SM FEW200 07/03 A3018 RMK CI2 SLP243

CYXE;2016-09-13 16:00;CYXE 131600Z 23015G21KT 15SM FEW280 11/01 A3017 RMK CI1 CI TR SLP236

CYXE;2016-09-13 17:00;CYXE 131700Z 23017KT 15SM FEW280 12/01 A3015 RMK CI2 SLP230

CYXE;2016-09-13 18:00;CYXE 131800Z 22020G26KT 15SM SCT280 14/01 A3014 RMK CI3 SLP226

CYXE;2016-09-13 19:00;CYXE 131900Z 23016G26KT 15SM BKN280 14/01 A3013 RMK CI6 SLP219 DENSITY ALT 1700FT

CYXE;2016-09-13 20:00;CYXE 132000Z 22020G26KT 15SM SCT280 15/M00 A3010 RMK CI4 SLP211 DENSITY ALT 1800FT

CYXE;2016-09-13 21:00;CYXE 132100Z 24020KT 15SM BKN280 16/M00 A3008 RMK CI6 SLP203 DENSITY ALT 1900FT

CYXE;2016-09-13 22:00;CYXE 132200Z 22017G22KT 15SM BKN280 17/00 A3005 RMK CI6 SLP191 DENSITY ALT 2100FT

CYXE;2016-09-13 23:00;CYXE 132300Z 22017KT 15SM BKN280 17/00 A3003 RMK CI5 SLP186 DENSITY ALT 2100FT

CYXE;2016-09-14 00:00;CYXE 140000Z 22014G20KT 15SM SCT280 16/00 A3001 RMK CI3 SLP182 DENSITY ALT 2000FT

CYXE;2016-09-14 01:00;CYXE 140100Z 21010KT 15SM FEW280 15/M00 A2999 RMK CI1 SLP176 DENSITY ALT 1900FT

CYXE;2016-09-14 02:00;CYXE 140200Z 20010KT 15SM FEW280 13/00 A2999 RMK CI1 SLP173

CYXE;2016-09-14 03:00;CYXE 140300Z 20011KT 15SM SKC 12/M00 A2999 RMK SLP171

CYXE;2016-09-14 04:00;CYXE 140400Z 20009KT 15SM SKC 10/M00 A2998 RMK SLP169

CYXE;2016-09-14 05:00;CYXE 140500Z 21011KT 15SM SKC 09/00 A2998 RMK SLP167

CYXE;2016-09-14 06:00;CYXE 140600Z 21010KT 15SM SKC 08/00 A2997 RMK SLP164

CYXE;2016-09-14 07:00;CYXE 140700Z 21010KT 15SM SKC 07/00 A2997 RMK SLP165

CYXE;2016-09-14 08:00;CYXE 140800Z 21011KT 15SM SKC 07/01 A2997 RMK SLP165

CYXE;2016-09-14 09:00;CYXE 140900Z 20011KT 15SM SKC 06/01 A2996 RMK SLP161

CYXE;2016-09-14 10:00;CYXE 141000Z 20010KT 15SM SKC 06/02 A2997 RMK SLP163

CYXE;2016-09-14 11:00;CYXE 141100Z 21009KT 15SM SKC 05/02 A2996 RMK SLP161

CYXE;2016-09-14 12:00;CYXE 141200Z 20009KT 15SM SKC 05/03 A2996 RMK SLP160

CYXE;2016-09-14 13:00;CYXE 141300Z 20008KT 15SM FEW260 05/04 A2995 RMK CI1 CI TR SLP160

CYXE;2016-09-14 14:00;CYXE 141400Z 21011KT 15SM FEW260 07/04 A2995 RMK CI1 CI TR SLP157

CYXE;2016-09-14 15:00;CYXE 141500Z 21011KT 15SM FEW290 10/05 A2994 RMK CI1 SLP153

CYXE;2016-09-14 16:00;CYXE 141600Z 22013KT 15SM FEW280 14/05 A2994 RMK CI1 SLP151 DENSITY ALT 1900FT

CYXE;2016-09-14 17:00;CYXE 141700Z 22013G19KT 15SM FEW290 17/05 A2993 RMK CI1 SLP147 DENSITY ALT 2200FT

CYXE;2016-09-14 18:00;CYXE 141800Z 22012G18KT 15SM FEW290 19/06 A2992 RMK CI1 SLP143 DENSITY ALT 2400FT

CYXE;2016-09-14 19:00;CYXE 141900Z 23015G//KT 15SM FEW290 21/03 A2990 RMK CI1 WND ESTD SLP136 DENSITY ALT 2700FT

CYXE;2016-09-14 20:00;CYXE 142000Z 23014G//KT 15SM FEW290 22/03 A2988 RMK CI1 WND ESTD SLP130 DENSITY ALT 2800FT

CYXE;2016-09-14 21:00;CYXE 142100Z 24017KT 15SM FEW290 23/01 A2988 RMK CI1 SLP128 DENSITY ALT 3000FT

CYXE;2016-09-14 22:00;CYXE 142200Z 21011G21KT 15SM FEW300 23/04 A2987 RMK CI1 SLP126 DENSITY ALT 3000FT

CYXE;2016-09-14 23:00;CYXE 142300Z 22012KT 15SM FEW300 23/04 A2987 RMK CI1 SLP124 DENSITY ALT 3000FT

CYXE;2016-09-15 00:00;CYXE 150000Z 21009KT 15SM FEW300 23/05 A2986 RMK CI1 SLP123 DENSITY ALT 2900FT

CYXE;2016-09-15 01:00;CYXE 150100Z 20008KT 15SM FEW300 20/05 A2987 RMK CI1 SLP127 DENSITY ALT 2600FT

CYXE;2016-09-15 02:00;CYXE 150200Z 19007KT 15SM SCT280 16/06 A2987 RMK CI3 SLP129 DENSITY ALT 2100FT

CYXE;2016-09-15 03:00;CYXE 150300Z 21008KT 15SM SCT270 15/06 A2989 RMK CI4 SLP134 DENSITY ALT 2000FT

CYXE;2016-09-15 04:00;CYXE 150400Z 20007KT 15SM SCT270 13/06 A2989 RMK CI3 SLP134 DENSITY ALT 1800FT

CYXE;2016-09-15 05:00;CYXE 150500Z 20006KT 15SM SCT270 11/05 A2990 RMK CI3 SLP136

CYXE;2016-09-15 06:00;CYXE 150600Z 22004KT 15SM SCT280 10/05 A2990 RMK CI3 SLP136

CYXE;2016-09-15 07:00;CYXE 150700Z 21004KT 15SM SKC 08/05 A2991 RMK SLP140

CYXE;2016-09-15 08:00;CYXE 150800Z 24006KT 15SM SKC 07/05 A2991 RMK SLP139

CYXE;2016-09-15 09:00;CYXE 150900Z 24006KT 15SM SKC 06/05 A2991 RMK SLP139

CYXE;2016-09-15 10:00;CYXE 151000Z 23006KT 15SM SKC 05/05 A2992 RMK SLP143

CYXE;2016-09-15 11:00;CYXE 151100Z 23007KT 15SM SKC 05/05 A2993 RMK SLP148

CYXE;2016-09-15 12:00;CYXE 151200Z 23003KT 15SM FEW240 05/04 A2995 RMK CI1 SLP152

CYXE;2016-09-15 13:00;CYXE 151300Z 25002KT 15SM FEW240 05/05 A2997 RMK CI2 SLP164

CYXE;2016-09-15 14:00;CYXE 151400Z 29002KT 15SM FEW070 SCT240 08/07 A2998 RMK AC2CI1 SLP167

CYXE;2016-09-15 15:00;CYXE 151500Z 30003KT 280V340 15SM FEW070 FEW240 12/08 A3000 RMK AC1CI1 SLP171

CYXE;2016-09-15 16:00;CYXE 151600Z 01008KT 15SM FEW240 17/09 A3000 RMK CI2 SLP171 DENSITY ALT 2200FT

CYXE;2016-09-15 17:00;CYXE 151700Z 02009KT 15SM FEW240 19/09 A3001 RMK CI2 SLP174 DENSITY ALT 2400FT

CYXE;2016-09-15 18:00;CYXE 151800Z 01011KT 15SM FEW240 21/09 A3001 RMK CI2 SLP173 DENSITY ALT 2600FT

CYXE;2016-09-15 19:00;CYXE 151900Z 36007KT 330V040 15SM FEW060 FEW240 22/06 A3001 RMK CF1CI2 CF TR SLP174 DENSITY ALT 2700FT

CYXE;2016-09-15 20:00;CYXE 152000Z 36008G17KT 15SM FEW074 SCT240 23/04 A3001 RMK CU1CI2 SLP172 DENSITY ALT 2800FT

CYXE;2016-09-15 21:00;CYXE 152100Z 01010G19KT 15SM FEW074 FEW240 23/03 A3000 RMK CU1CI1 CU TR SLP171 DENSITY ALT 2800FT

CYXE;2016-09-15 22:00;CYXE 152200Z 01011G19KT 15SM FEW240 23/03 A3000 RMK CI2 SLP169 DENSITY ALT 2800FT

CYXE;2016-09-15 23:00;CYXE 152300Z 01012G17KT 15SM FEW300 22/02 A3000 RMK CI1 SLP172 DENSITY ALT 2700FT

CYXE;2016-09-16 00:00;CYXE 160000Z 36008KT 15SM FEW300 21/03 A3001 RMK CI2 SLP176 DENSITY ALT 2600FT

CYXE;2016-09-16 01:00;CYXE 160100Z 36006KT 15SM FEW300 17/04 A3002 RMK CI2 SLP180 DENSITY ALT 2200FT

CYXE;2016-09-16 02:00;CYXE 160200Z 03004KT 15SM SKC 12/04 A3003 RMK SLP184

CYXE;2016-09-16 03:00;CYXE 160300Z 02002KT 15SM SKC 12/04 A3004 RMK SLP187

CYXE;2016-09-16 04:00;CYXE 160400Z 02003KT 15SM FEW300 10/04 A3004 RMK CI2 SLP186

CYXE;2016-09-16 05:00;CYXE 160500Z 08003KT 15SM FEW300 10/04 A3005 RMK CI2 FU SLP185

CYXE;2016-09-16 06:00;CYXE 160600Z 10005KT 15SM SKC 09/05 A3004 RMK SLP184

CYXE;2016-09-16 07:00;CYXE 160700Z 10007KT 15SM SKC 09/05 A3004 RMK SLP181

CYXE;2016-09-16 08:00;CYXE 160800Z 12008KT 15SM SKC 08/04 A3003 RMK SLP179

CYXE;2016-09-16 09:00;CYXE 160900Z 20002KT 15SM SKC 07/03 A3002 RMK SLP176

CYXE;2016-09-16 10:00;CYXE 161000Z 26007KT 15SM SKC 03/02 A3002 RMK SLP180

CYXE;2016-09-16 11:00;CYXE 161100Z 21004KT 15SM SKC 04/03 A3003 RMK SLP182

CYXE;2016-09-16 12:00;CYXE 161200Z 20004KT 15SM FEW040 04/03 A3003 RMK SC1 SLP182

CYXE;2016-09-16 13:00;CYXE 161300Z 19003KT 15SM FEW070 FEW290 04/03 A3002 RMK AC1CI1 AC TR CI TR SLP182

CYXE;2016-09-16 14:00;CYXE 161400Z 17002KT 15SM FEW070 08/05 A3002 RMK AC1 AC TR SLP182

CYXE;2016-09-16 15:00;CYXE 161500Z 20006KT 15SM SKC 12/05 A3001 RMK SLP176

CYXE;2016-09-16 16:00;CYXE 161600Z 20007KT 15SM SKC 16/05 A3001 RMK SLP175 DENSITY ALT 2000FT

CYXE;2016-09-16 17:00;CYXE 161700Z 21012KT 15SM SKC 20/05 A3000 RMK SLP170 DENSITY ALT 2400FT

CYXE;2016-09-16 18:00;CYXE 161800Z 20010KT 15SM SKC 21/04 A2998 RMK SLP163 DENSITY ALT 2700FT

CYXE;2016-09-16 19:00;CYXE 161900Z 17011KT 15SM FEW300 23/04 A2996 RMK CI1 SLP156 DENSITY ALT 2800FT

CYXE;2016-09-16 20:00;CYXE 162000Z 16012G19KT 15SM FEW300 23/02 A2994 RMK CI1 SLP149 DENSITY ALT 2900FT

CYXE;2016-09-16 21:00;CYXE 162100Z 14010G16KT 15SM FEW300 24/03 A2992 RMK CI2 SLP143 DENSITY ALT 3000FT

CYXE;2016-09-16 22:00;CYXE 162200Z 16010G15KT 15SM FEW300 24/03 A2990 RMK CI1 SLP138 DENSITY ALT 3000FT

CYXE;2016-09-16 23:00;CYXE 162300Z 17012KT 15SM FEW300 23/01 A2990 RMK CI1 SLP136 DENSITY ALT 2900FT

CYXE;2016-09-17 00:00;CYXE 170000Z 17009KT 15SM FEW300 22/03 A2989 RMK CI1 SLP135 DENSITY ALT 2800FT

CYXE;2016-09-17 01:00;CYXE 170100Z 16008KT 15SM FEW300 18/03 A2988 RMK CI1 SLP133 DENSITY ALT 2400FT

CYXE;2016-09-17 02:00;CYXE 170200Z 14009KT 15SM FEW300 16/03 A2987 RMK CI1 SLP128 DENSITY ALT 2100FT

CYXE;2016-09-17 03:00;CYXE 170300Z 14008KT 15SM FEW300 15/04 A2987 RMK CI1 SLP125 DENSITY ALT 2100FT

CYXE;2016-09-17 04:00;CYXE 170400Z 15011KT 15SM SKC 14/04 A2985 RMK SLP118 DENSITY ALT 1900FT

CYXE;2016-09-17 05:00;CYXE 170500Z 16009KT 15SM SKC 13/04 A2984 RMK SLP112 DENSITY ALT 1800FT

CYXE;2016-09-17 06:00;CYXE 170600Z 16010KT 15SM SKC 13/03 A2982 RMK SLP107 DENSITY ALT 1900FT

CYXE;2016-09-17 07:00;CYXE 170700Z 14010KT 15SM SKC 13/03 A2980 RMK SLP097 DENSITY ALT 1900FT

CYXE;2016-09-17 08:00;CYXE 170800Z 16006KT 15SM SKC 10/02 A2978 RMK SLP094

CYXE;2016-09-17 09:00;CYXE 170900Z 14009KT 15SM SKC 11/02 A2975 RMK SLP081 DENSITY ALT 1800FT

CYXE;2016-09-17 10:00;CYXE 171000Z 14010KT 15SM BKN250 11/02 A2972 RMK CI5 SLP072 DENSITY ALT 1700FT

CYXE;2016-09-17 11:00;CYXE 171100Z 15006KT 15SM BKN250 09/02 A2970 RMK CI6 SLP066

CYXE;2016-09-17 12:00;CYXE 171200Z 13007KT 15SM BKN250 09/02 A2967 RMK CI7 SLP057

CYXE;2016-09-17 13:00;CYXE 171300Z 14008KT 15SM BKN240 08/02 A2966 RMK CI6 SLP054

CYXE;2016-09-17 14:00;CYXE 171400Z 14007KT 15SM BKN240 10/04 A2963 RMK CI7 SLP044 DENSITY ALT 1800FT

CYXE;2016-09-17 15:00;CYXE 171500Z 17009KT 15SM BKN240 11/05 A2960 RMK CS7 SLP036 DENSITY ALT 1900FT

CYXE;2016-09-17 16:00;CYXE 171600Z 17010G15KT 15SM FEW130 BKN230 14/07 A2959 RMK AC1CI6 SLP029 DENSITY ALT 2200FT

CYXE;2016-09-17 17:00;CYXE 171700Z 19008KT 15SM SCT130 OVC200 16/06 A2956 RMK AC4CI4 SLP020 DENSITY ALT 2500FT

CYXE;2016-09-17 18:00;CYXE 171800Z 19009KT 15SM SCT140 OVC200 18/08 A2954 RMK AC3CI5 SLP012 DENSITY ALT 2800FT

CYXE;2016-09-17 19:00;CYXE 171900Z 24014G20KT 15SM BKN120 OVC150 19/06 A2954 RMK AC5AC3 SLP010 DENSITY ALT 2900FT

CYXE;2016-09-17 19:45;CYXE 171945Z 24011KT 15SM -SHRA SCT090 OVC120 19/06 A2953 RMK AC4AC4 CVCTV CLD EMBD SLP006 DENSITY ALT 2900FT

CYXE;2016-09-17 20:00;CYXE 172000Z 24010G15KT 15SM -SHRA SCT090 BKN120 20/06 A2952 RMK AC4AC3 CVCTV CLD EMBD SLP007 DENSITY ALT 3000FT

CYXE;2016-09-17 20:25;CYXE 172025Z 23012KT 15SM SCT090 BKN120 20/06 A2952 RMK AC4AC3 SLP004 DENSITY ALT 3000FT

CYXE;2016-09-17 21:00;CYXE 172100Z 19011KT 15SM SCT100 BKN250 21/07 A2950 RMK AC4CI1 SLP998 DENSITY ALT 3100FT

CYXE;2016-09-17 22:00;CYXE 172200Z 24011KT 15SM BKN100 22/06 A2951 RMK AC7 SLP999 DENSITY ALT 3200FT

CYXE;2016-09-17 23:00;CYXE 172300Z 28009KT 15SM BKN100 OVC250 21/08 A2951 RMK AC6CI2 SLP001 DENSITY ALT 3100FT

CYXE;2016-09-18 00:00;CYXE 180000Z 29005KT 15SM BKN100 OVC250 19/08 A2950 RMK AC6CI2 SLP000 DENSITY ALT 3000FT

CYXE;2016-09-18 01:00;CYXE 180100Z 26004KT 15SM SCT100 BKN230 17/09 A2950 RMK AC3CI4 SLP002 DENSITY ALT 2600FT

CYXE;2016-09-18 02:00;CYXE 180200Z 35006KT 15SM BKN210 14/09 A2949 RMK CI5 SLP999 DENSITY ALT 2400FT

CYXE;2016-09-18 03:00;CYXE 180300Z 00000KT 15SM OVC200 15/09 A2948 RMK CI8 SLP995 DENSITY ALT 2400FT

CYXE;2016-09-18 04:00;CYXE 180400Z 06002KT 15SM SCT100 OVC200 15/08 A2946 RMK AC4CI4 SLP986 DENSITY ALT 2500FT

CYXE;2016-09-18 05:00;CYXE 180500Z 17004KT 15SM OVC087 14/09 A2946 RMK AC8 SLP984 DENSITY ALT 2400FT

CYXE;2016-09-18 06:00;CYXE 180600Z 01004KT 15SM OVC084 13/09 A2945 RMK AC8 SLP979 DENSITY ALT 2300FT

CYXE;2016-09-18 06:21;CYXE 180621Z 18004KT 180V300 15SM -RA OVC082 12/11 A2945 RMK AC8 SLP982 DENSITY ALT 2200FT

CYXE;2016-09-18 07:00;CYXE 180700Z VRB02KT 15SM -RA OVC080 12/11 A2945 RMK AC8 -RA INTMT SLP979 DENSITY ALT 2200FT

CYXE;2016-09-18 08:00;CYXE 180800Z 20004KT 15SM -RA OVC070 12/11 A2946 RMK AC8 SLP984 DENSITY ALT 2200FT

CYXE;2016-09-18 09:00;CYXE 180900Z CCA 30006KT 15SM -RA OVC080 12/12 A2944 RMK AC8 SLP975 DENSITY ALT 2200FT

CYXE;2016-09-18 10:00;CYXE 181000Z 25004KT 15SM -RA OVC077 12/12 A2945 RMK AC8 SLP978 DENSITY ALT 2200FT

CYXE;2016-09-18 11:00;CYXE 181100Z 32009KT 320V050 15SM -RA OVC076 12/12 A2943 RMK AC8 PRESRR SLP974 DENSITY ALT 2100FT

CYXE;2016-09-18 12:00;CYXE 181200Z 35004KT 15SM -RA FEW050 OVC075 12/12 A2945 RMK SC1AC7 SLP980 DENSITY ALT 2200FT

CYXE;2016-09-18 13:00;CYXE 181300Z 10002KT 15SM -RA FEW075 BKN120 11/11 A2945 RMK AC2AC5 SLP983 DENSITY ALT 2100FT

CYXE;2016-09-18 13:44;CYXE 181344Z 29004KT 15SM -RA SCT007 BKN075 12/12 A2947 RMK SF4AC3 SLP988 DENSITY ALT 2100FT

CYXE;2016-09-18 13:53;CYXE 181353Z 28004KT 15SM -RA BKN007 OVC075 12/12 A2947 RMK ST6AC2 SLP988 DENSITY ALT 2100FT

CYXE;2016-09-18 14:00;CYXE 181400Z 28005KT 15SM -RA BKN007 OVC075 12/12 A2947 RMK ST6AC2 SLP990 DENSITY ALT 2100FT

CYXE;2016-09-18 14:36;CYXE 181436Z 27005KT 15SM BKN003 BKN046 13/13 A2948 RMK SF5SC2 SLP994 DENSITY ALT 2200FT

CYXE;2016-09-18 15:00;CYXE 181500Z 29005KT 220V300 15SM FEW003 BKN045 BKN080 13/13 A2949 RMK SF2SC3AC2 SLP995 DENSITY ALT 2200FT

CYXE;2016-09-18 16:00;CYXE 181600Z 30007KT 15SM SCT008 BKN045 14/13 A2950 RMK SF3SC4 SLP000 DENSITY ALT 2300FT

CYXE;2016-09-18 17:00;CYXE 181700Z 30012KT 15SM SCT011 BKN068 BKN120 15/13 A2951 RMK SF4AC2AC1 SLP002 DENSITY ALT 2400FT

CYXE;2016-09-18 18:00;CYXE 181800Z 29014KT 15SM BKN015 BKN090 15/12 A2952 RMK CU5AC2 SLP006 DENSITY ALT 2400FT

CYXE;2016-09-18 19:00;CYXE 181900Z 28013G22KT 15SM SCT040 BKN100 17/10 A2952 RMK CU4AC2 SLP006 DENSITY ALT 2600FT

CYXE;2016-09-18 20:00;CYXE 182000Z 30017G25KT 15SM SCT024 BKN100 16/11 A2954 RMK CU4AC2 SLP014 DENSITY ALT 2500FT

CYXE;2016-09-18 21:00;CYXE 182100Z 29018G25KT 15SM BKN024 BKN100 15/09 A2956 RMK SC5AC2 SLP021 DENSITY ALT 2400FT

CYXE;2016-09-18 21:09;CYXE 182109Z 29017G25KT 15SM -SHRA BKN024 BKN100 14/10 A2956 RMK SC5AC2 CVCTV CLD EMBD SLP022 DENSITY ALT 2300FT

CYXE;2016-09-18 22:00;CYXE 182200Z 29017G22KT 15SM -SHRA SCT024 BKN040 OVC100 15/11 A2958 RMK SC4SC2AC2 CVCTV CLD EMBD SLP026 DENSITY ALT 2300FT

CYXE;2016-09-18 23:00;CYXE 182300Z 30016G29KT 15SM FEW024 BKN040 BKN100 13/08 A2959 RMK SC2SC4AC1 OCNL -SHRA SLP033 DENSITY ALT 2100FT

CYXE;2016-09-18 23:30;CYXE 182330Z 30015G27KT 15SM OVC050 14/08 A2960 RMK SC8 SLP037 DENSITY ALT 2200FT

CYXE;2016-09-19 00:00;CYXE 190000Z 29019G26KT 15SM BKN032 OVC050 13/08 A2962 RMK SC5SC3 SLP042 DENSITY ALT 2100FT

CYXE;2016-09-19 00:35;CYXE 190035Z 29016G25KT 15SM -SHRA OVC033 12/09 A2963 RMK SC8 CVCTV CLD EMBD SLP047 DENSITY ALT 2000FT

CYXE;2016-09-19 01:00;CYXE 190100Z 29016KT 15SM -SHRA BKN033 OVC057 11/10 A2964 RMK SC5SC3 CVCTV CLD EMBD SLP052 DENSITY ALT 1800FT

CYXE;2016-09-19 02:00;CYXE 190200Z 28009G15KT 15SM -SHRA SCT033 OVC060 11/11 A2966 RMK SC4SC4 CVCTV CLD EMBD SLP056 DENSITY ALT 1800FT

CYXE;2016-09-19 02:49;CYXE 190249Z 26010KT 15SM FEW033 SCT060 BKN120 11/11 A2967 RMK SC2SC2AC1 SLP060 DENSITY ALT 1800FT

CYXE;2016-09-19 03:00;CYXE 190300Z 25008KT 15SM FEW033 SCT060 BKN120 10/10 A2967 RMK SC1SC2AC2 SLP059 DENSITY ALT 1700FT

CYXE;2016-09-19 04:00;CYXE 190400Z 27011KT 15SM SCT120 BKN220 10/09 A2967 RMK AC3CI3 SLP060

CYXE;2016-09-19 05:00;CYXE 190500Z 27011KT 15SM SCT220 09/08 A2968 RMK CI3 SLP063

CYXE;2016-09-19 06:00;CYXE 190600Z 27011KT 15SM SCT220 08/08 A2970 RMK CI3 SLP070

CYXE;2016-09-19 07:00;CYXE 190700Z 27010KT 15SM FEW250 08/07 A2972 RMK CI2 SLP075

CYXE;2016-09-19 08:00;CYXE 190800Z 27009KT 15SM SKC 07/06 A2973 RMK SLP082

CYXE;2016-09-19 09:00;CYXE 190900Z 26008KT 15SM SKC 06/06 A2976 RMK SLP091

CYXE;2016-09-19 10:00;CYXE 191000Z 26010KT 15SM SKC 06/06 A2977 RMK SLP097

CYXE;2016-09-19 11:00;CYXE 191100Z 25009KT 15SM SKC 05/05 A2979 RMK SLP103

CYXE;2016-09-19 12:00;CYXE 191200Z 25011KT 15SM SKC 06/05 A2981 RMK SLP110

CYXE;2016-09-19 13:00;CYXE 191300Z 26011G19KT 15SM SKC 06/05 A2982 RMK SLP115

CYXE;2016-09-19 14:00;CYXE 191400Z 26012KT 15SM SKC 07/06 A2983 RMK SLP120

CYXE;2016-09-19 15:00;CYXE 191500Z 27011KT 15SM SKC 09/06 A2984 RMK SLP122

CYXE;2016-09-19 16:00;CYXE 191600Z 27011KT 15SM FEW008 12/06 A2986 RMK SF1 SLP125 DENSITY ALT 1700FT

CYXE;2016-09-19 17:00;CYXE 191700Z 30016KT 15SM FEW008 14/07 A2985 RMK SF1 SLP123 DENSITY ALT 1900FT

CYXE;2016-09-19 18:00;CYXE 191800Z 30017G22KT 15SM FEW011 15/07 A2985 RMK CF2 SLP120 DENSITY ALT 2100FT

CYXE;2016-09-19 19:00;CYXE 191900Z 30014G24KT 15SM FEW040 16/05 A2985 RMK CU2 SLP121 DENSITY ALT 2200FT

CYXE;2016-09-19 20:00;CYXE 192000Z 31015G24KT 15SM FEW040 17/06 A2986 RMK CU2 SLP123 DENSITY ALT 2300FT

CYXE;2016-09-19 21:00;CYXE 192100Z 31016G27KT 15SM SCT045 18/05 A2986 RMK CU3 SLP126 DENSITY ALT 2300FT

CYXE;2016-09-19 22:00;CYXE 192200Z 31018KT 15SM SCT050 16/05 A2987 RMK CU3 SLP129 DENSITY ALT 2100FT

CYXE;2016-09-19 23:00;CYXE 192300Z 32016KT 15SM SCT050 17/05 A2988 RMK CU3 SLP133 DENSITY ALT 2200FT

CYXE;2016-09-20 00:00;CYXE 200000Z 33011KT 15SM FEW050 15/05 A2990 RMK CU1 SLP141 DENSITY ALT 2100FT

CYXE;2016-09-20 01:00;CYXE 200100Z 34005KT 15SM FEW050 12/05 A2991 RMK CU1 SLP147

CYXE;2016-09-20 02:00;CYXE 200200Z 25003KT 15SM SKC 09/05 A2992 RMK SLP152

CYXE;2016-09-20 03:00;CYXE 200300Z 23006KT 15SM SKC 09/05 A2995 RMK SLP158

CYXE;2016-09-20 04:00;CYXE 200400Z 25006KT 15SM SKC 06/04 A2995 RMK SLP161

CYXE;2016-09-20 05:00;CYXE 200500Z 26006KT 15SM SKC 04/04 A2996 RMK SLP163

CYXE;2016-09-20 06:00;CYXE 200600Z 26007KT 15SM SKC 05/04 A2998 RMK SLP167

CYXE;2016-09-20 07:00;CYXE 200700Z 35002KT 15SM SKC 05/04 A2999 RMK BR PTCHS SLP172

CYXE;2016-09-20 08:03;CYXE 200803Z 31005KT 15SM SKC 02/02 A3001 RMK BR PTCHS SLP178

CYXE;2016-09-20 09:00;CYXE 200900Z 31006KT 15SM SKC 02/02 A3002 RMK BR PTCHS SLP184

CYXE;2016-09-20 10:00;CYXE 201000Z 25004KT 15SM SKC 00/00 A3004 RMK BR PTCHS SLP190

CYXE;2016-09-20 11:00;CYXE 201100Z 23003KT 15SM BCFG SKC 01/01 A3005 RMK SLP195

CYXE;2016-09-20 12:00;CYXE 201200Z 25003KT 15SM PRFG SKC 01/01 A3007 RMK VIS W-N 1 BR SLP202

CYXE;2016-09-20 13:00;CYXE 201300Z 28005KT 15SM PRFG FEW250 M00/M00 A3008 RMK CI1 VIS W-N 1 BR SLP207

CYXE;2016-09-20 14:00;CYXE 201400Z 24004KT 15SM FEW250 03/03 A3009 RMK CI1 SLP212

CYXE;2016-09-20 15:00;CYXE 201500Z 29005KT 15SM FEW250 08/06 A3011 RMK CI1 SLP214

CYXE;2016-09-20 16:00;CYXE 201600Z 31004KT 15SM FEW250 11/06 A3011 RMK CI1 SLP214

CYXE;2016-09-20 17:00;CYXE 201700Z 32007KT 250V330 15SM FEW250 13/06 A3012 RMK CI1 SLP217

CYXE;2016-09-20 18:00;CYXE 201800Z 32008KT 15SM FEW032 FEW250 15/06 A3012 RMK CF1CI1 SLP216 DENSITY ALT 1700FT

CYXE;2016-09-20 19:00;CYXE 201900Z 29007KT 270V350 15SM BKN042 15/04 A3011 RMK CU6 SLP214 DENSITY ALT 1700FT

CYXE;2016-09-20 20:00;CYXE 202000Z 30006KT 260V340 15SM BKN060 BKN250 16/04 A3011 RMK SC5CI1 SLP214 DENSITY ALT 1900FT

CYXE;2016-09-20 21:00;CYXE 202100Z 32008G18KT 15SM BKN060 BKN250 16/04 A3011 RMK SC5CI1 SLP213 DENSITY ALT 1900FT

CYXE;2016-09-20 22:00;CYXE 202200Z 34010KT 15SM SCT060 BKN250 17/04 A3011 RMK SC4CI1 SLP216 DENSITY ALT 2000FT

CYXE;2016-09-20 23:00;CYXE 202300Z 33010KT 320V020 15SM SCT060 BKN250 16/03 A3012 RMK SC4CI1 SLP219 DENSITY ALT 1900FT

CYXE;2016-09-21 00:00;CYXE 210000Z 33011G18KT 15SM SCT060 SCT250 15/03 A3013 RMK SC3CI1 SLP223 DENSITY ALT 1700FT

CYXE;2016-09-21 01:00;CYXE 210100Z 03006KT 15SM FEW060 SCT250 11/04 A3015 RMK SC2CI1 SLP234

CYXE;2016-09-21 02:00;CYXE 210200Z 05004KT 15SM FEW060 09/04 A3016 RMK SC1 SLP237

CYXE;2016-09-21 03:00;CYXE 210300Z 05006KT 15SM SKC 07/04 A3018 RMK SLP239

CYXE;2016-09-21 04:00;CYXE 210400Z 04004KT 15SM FEW100 07/04 A3019 RMK AC1 SLP243

CYXE;2016-09-21 05:00;CYXE 210500Z 03004KT 15SM SKC 05/04 A3020 RMK SLP245

CYXE;2016-09-21 06:00;CYXE 210600Z 10003KT 15SM SKC 04/04 A3020 RMK BR PTCHS SLP246

CYXE;2016-09-21 07:00;CYXE 210700Z 05004KT 15SM MIFG SKC 03/03 A3021 RMK SLP250

CYXE;2016-09-21 08:00;CYXE 210800Z 04004KT 15SM MIFG FEW100 03/03 A3022 RMK AC2 SLP252

CYXE;2016-09-21 08:42;CYXE 210842Z 05002KT 15SM BCFG FEW200 02/02 A3023 RMK CI2 SLP254

CYXE;2016-09-21 09:00;CYXE 210900Z 00000KT 15SM BCFG FEW200 01/01 A3023 RMK CI1 SLP255

CYXE;2016-09-21 10:00;CYXE 211000Z 03004KT 15SM BCFG SKC 01/01 A3022 RMK SLP252

CYXE;2016-09-21 11:00;CYXE 211100Z 06004KT 15SM BCFG SKC 01/01 A3022 RMK SLP253

CYXE;2016-09-21 12:00;CYXE 211200Z 06002KT 3SM BR FEW250 M00/M00 A3023 RMK CI1 SLP259

CYXE;2016-09-21 13:00;CYXE 211300Z 00000KT 10SM FEW190 BKN250 00/00 A3025 RMK AC2CI4 VIS SW-NW 3 BR SLP265

CYXE;2016-09-21 14:00;CYXE 211400Z VRB02KT 12SM FEW050 BKN140 BKN280 03/03 A3026 RMK SC2AC3CI2 SLP268

CYXE;2016-09-21 15:00;CYXE 211500Z 17003KT 15SM FEW050 BKN140 BKN280 07/07 A3026 RMK SC1AC4CI2 SLP267

CYXE;2016-09-21 16:00;CYXE 211600Z VRB02KT 15SM SCT150 BKN280 09/07 A3027 RMK AC4CI2 SLP269

CYXE;2016-09-21 17:00;CYXE 211700Z VRB02KT 15SM BKN080 BKN150 BKN280 11/06 A3027 RMK AC5AC1CI1 SLP270

CYXE;2016-09-21 18:00;CYXE 211800Z 05003KT 330V100 15SM FEW025 BKN075 BKN280 12/06 A3026 RMK CU1AC4CI2 SLP267

CYXE;2016-09-21 19:00;CYXE 211900Z VRB04KT 15SM FEW030 SCT080 SCT280 14/04 A3025 RMK CU1AC2CI1 SLP262

CYXE;2016-09-21 20:00;CYXE 212000Z 11003KT 020V150 15SM FEW045 SCT080 BKN280 14/03 A3025 RMK CU2AC2CI1 SLP262

CYXE;2016-09-21 21:00;CYXE 212100Z VRB02KT 15SM FEW050 SCT080 BKN280 15/02 A3024 RMK CU2AC2CI1 SLP260

CYXE;2016-09-21 22:00;CYXE 212200Z VRB02KT 15SM FEW050 SCT080 BKN280 16/03 A3023 RMK CU1AC3CI1 SLP257 DENSITY ALT 1700FT

CYXE;2016-09-21 23:00;CYXE 212300Z 17007KT 15SM FEW060 SCT090 BKN280 16/04 A3024 RMK CU1AC3CI1 SLP259 DENSITY ALT 1700FT

CYXE;2016-09-22 00:00;CYXE 220000Z 17005KT 15SM FEW060 FEW090 SCT280 15/03 A3023 RMK CU1AC1CI1 SLP258

CYXE;2016-09-22 01:00;CYXE 220100Z 18005KT 15SM FEW080 FEW280 12/03 A3023 RMK AC1CI1 SLP260

CYXE;2016-09-22 02:00;CYXE 220200Z 17004KT 15SM FEW080 FEW280 09/03 A3023 RMK AC1CI1 SLP260

CYXE;2016-09-22 03:00;CYXE 220300Z 15003KT 15SM FEW080 08/03 A3024 RMK AC1 SLP261

CYXE;2016-09-22 04:00;CYXE 220400Z 17003KT 15SM SKC 07/03 A3024 RMK SLP261

CYXE;2016-09-22 05:00;CYXE 220500Z 18004KT 15SM SKC 07/04 A3024 RMK SLP259

CYXE;2016-09-22 06:00;CYXE 220600Z VRB02KT 15SM FEW200 06/03 A3025 RMK CI2 SLP261

CYXE;2016-09-22 07:00;CYXE 220700Z 17006KT 15SM FEW200 06/03 A3024 RMK CI2 SLP259

CYXE;2016-09-22 08:00;CYXE 220800Z 18003KT 15SM SKC 06/03 A3025 RMK SLP260

CYXE;2016-09-22 09:00;CYXE 220900Z 00000KT 15SM SKC 05/04 A3026 RMK SLP265

CYXE;2016-09-22 09:44;CYXE 220944Z 00000KT 15SM SKC 02/02 A3025 RMK SLP262

CYXE;2016-09-22 10:00;CYXE 221000Z 06002KT 15SM SKC 02/02 A3025 RMK SLP262

CYXE;2016-09-22 11:00;CYXE 221100Z 07002KT 15SM SKC 02/02 A3028 RMK SLP272

CYXE;2016-09-22 12:00;CYXE 221200Z 00000KT 15SM MIFG FEW100 01/01 A3028 RMK AC1 SLP273

CYXE;2016-09-22 13:00;CYXE 221300Z 05005KT 6SM BCFG FEW100 00/00 A3027 RMK AC2 SLP271

CYXE;2016-09-22 14:00;CYXE 221400Z 08003KT 15SM FEW100 BKN280 03/03 A3027 RMK AC2CI4 SLP271

CYXE;2016-09-22 15:00;CYXE 221500Z 10003KT 15SM FEW100 BKN280 07/05 A3027 RMK AC2CI5 SLP270

CYXE;2016-09-22 16:00;CYXE 221600Z 10005KT 15SM FEW100 BKN280 12/05 A3027 RMK AC1CI6 SLP268

CYXE;2016-09-22 17:00;CYXE 221700Z 13008KT 15SM BKN280 14/04 A3028 RMK CI7 SLP271

CYXE;2016-09-22 18:00;CYXE 221800Z 13012G18KT 15SM FEW070 OVC280 16/05 A3028 RMK AC1CI7 SLP269 DENSITY ALT 1700FT

CYXE;2016-09-22 19:00;CYXE 221900Z 13012G18KT 15SM FEW090 OVC280 17/05 A3027 RMK AC2CI6 SLP266 DENSITY ALT 1800FT

CYXE;2016-09-22 20:00;CYXE 222000Z 13011G17KT 15SM FEW045 SCT090 OVC280 17/05 A3026 RMK CU2AC1CI5 SLP262 DENSITY ALT 1800FT

CYXE;2016-09-22 21:00;CYXE 222100Z 14007KT 100V170 15SM FEW050 OVC280 18/05 A3024 RMK CU2CI6 SLP257 DENSITY ALT 1900FT

CYXE;2016-09-22 22:00;CYXE 222200Z 14010G15KT 110V180 15SM FEW050 BKN280 18/04 A3023 RMK CU2CI5 SLP256 DENSITY ALT 1900FT

CYXE;2016-09-22 23:00;CYXE 222300Z 16010KT 15SM BKN280 16/02 A3022 RMK CI7 SLP253 DENSITY ALT 1700FT

CYXE;2016-09-23 00:00;CYXE 230000Z 15007KT 15SM SCT190 BKN280 15/02 A3021 RMK CC3CI4 SLP251

CYXE;2016-09-23 01:00;CYXE 230100Z 15004KT 15SM FEW100 BKN280 13/03 A3021 RMK AC2CI5 SLP250

CYXE;2016-09-23 02:00;CYXE 230200Z 11006KT 15SM OVC220 11/03 A3020 RMK CI8 SLP247

CYXE;2016-09-23 03:00;CYXE 230300Z 12009KT 15SM OVC200 12/03 A3021 RMK CI8 SLP247

CYXE;2016-09-23 04:00;CYXE 230400Z 13006KT 15SM OVC160 12/02 A3022 RMK AC8 SLP247

CYXE;2016-09-23 05:00;CYXE 230500Z 14008KT 15SM OVC076 12/03 A3022 RMK AC8 SLP246

CYXE;2016-09-23 06:00;CYXE 230600Z 15009KT 15SM OVC090 12/03 A3022 RMK AC8 SLP245

CYXE;2016-09-23 07:00;CYXE 230700Z 12006KT 15SM OVC090 11/05 A3019 RMK AC8 SLP237

CYXE;2016-09-23 08:00;CYXE 230800Z 08004KT 15SM OVC085 10/04 A3018 RMK AC8 SLP232

CYXE;2016-09-23 09:00;CYXE 230900Z 11007KT 15SM OVC085 10/04 A3015 RMK AC8 SLP221

CYXE;2016-09-23 10:00;CYXE 231000Z 13012G17KT 15SM OVC085 11/04 A3013 RMK AC8 SLP216

CYXE;2016-09-23 11:00;CYXE 231100Z 13011G18KT 15SM OVC075 10/05 A3012 RMK AC8 SLP214

CYXE;2016-09-23 12:00;CYXE 231200Z 12009KT 15SM SCT030 OVC065 10/05 A3012 RMK SC4SC4 SLP214

CYXE;2016-09-23 13:00;CYXE 231300Z 11011KT 12SM -RA FEW045 OVC065 09/06 A3009 RMK SC2SC6 SLP207

CYXE;2016-09-23 14:00;CYXE 231400Z 11011KT 15SM -RA OVC052 08/08 A3009 RMK SC8 SLP206

CYXE;2016-09-23 15:00;CYXE 231500Z 10011KT 8SM -RA FEW008 OVC050 08/08 A3007 RMK SF2SC6 SLP199

CYXE;2016-09-23 15:24;CYXE 231524Z 11010G16KT 7SM -RA BKN008 OVC045 08/08 A3007 RMK SF5SC3 SLP199

CYXE;2016-09-23 16:00;CYXE 231600Z 11013G18KT 12SM -RA BKN008 OVC040 09/09 A3006 RMK SF5SC3 SLP195

CYXE;2016-09-23 17:00;CYXE 231700Z 11019KT 12SM -RA BKN008 OVC030 08/08 A3003 RMK SF5SC3 SLP184

CYXE;2016-09-23 18:00;CYXE 231800Z 11017G22KT 12SM -RA BKN009 OVC025 08/08 A3000 RMK SF6SC2 SLP175

CYXE;2016-09-23 19:00;CYXE 231900Z 12016KT 12SM -RA OVC009 09/09 A2998 RMK SF8 SLP168

CYXE;2016-09-23 20:00;CYXE 232000Z 12015G22KT 12SM -RA OVC009 09/09 A2995 RMK ST8 SLP159

CYXE;2016-09-23 21:00;CYXE 232100Z 13015KT 8SM -RA OVC009 09/09 A2993 RMK ST8 SLP151

CYXE;2016-09-23 22:00;CYXE 232200Z 14013G20KT 5SM -RA OVC008 09/09 A2991 RMK ST8 SLP143

CYXE;2016-09-23 23:00;CYXE 232300Z 14011KT 15SM -RA OVC008 09/09 A2989 RMK ST8 SLP139

CYXE;2016-09-24 00:00;CYXE 240000Z 14009KT 15SM -RA OVC007 09/09 A2989 RMK ST8 SLP137

CYXE;2016-09-24 01:00;CYXE 240100Z 14010KT 10SM -RA OVC007 10/10 A2988 RMK ST8 SLP135

CYXE;2016-09-24 01:25;CYXE 240125Z 15012KT 8SM -RA FEW003 OVC006 10/10 A2988 RMK SF2ST6 SLP135

CYXE;2016-09-24 02:00;CYXE 240200Z 14009KT 10SM -RA FEW003 OVC006 10/10 A2987 RMK SF2ST6 SLP134

CYXE;2016-09-24 03:00;CYXE 240300Z 14008KT 10SM -RA FEW003 OVC005 10/10 A2986 RMK SF2ST6 SLP129

CYXE;2016-09-24 04:00;CYXE 240400Z CCA 15006KT 12SM -RA OVC004 10/10 A2986 RMK ST8 CIG RAG SLP127

CYXE;2016-09-24 05:00;CYXE 240500Z 15005KT 12SM -RA OVC004 10/10 A2985 RMK ST8 CIG RAG SLP126

CYXE;2016-09-24 05:39;CYXE 240539Z 15005KT 12SM OVC004 10/10 A2986 RMK ST8 SLP128

CYXE;2016-09-24 06:00;CYXE 240600Z 14005KT 15SM OVC004 10/10 A2986 RMK ST8 SLP127

CYXE;2016-09-24 07:00;CYXE 240700Z 13003KT 15SM OVC004 10/10 A2985 RMK ST8 SLP125

CYXE;2016-09-24 08:00;CYXE 240800Z 12004KT 4SM BCFG OVC003 10/10 A2986 RMK ST8 SLP127

CYXE;2016-09-24 08:50;CYXE 240850Z 12003KT 2SM BR OVC002 10/10 A2985 RMK ST8 SLP123

CYXE;2016-09-24 09:00;CYXE 240900Z 12002KT 2SM BR OVC002 10/10 A2984 RMK ST8 SLP122

CYXE;2016-09-24 09:40;CYXE 240940Z 00000KT 1/2SM FG VV002 10/10 A2984 RMK FG8 SLP120

CYXE;2016-09-24 10:00;CYXE 241000Z 00000KT 1/4SM FG VV001 10/10 A2984 RMK FG8 SLP122

CYXE;2016-09-24 10:30;CYXE 241030Z 28004KT 3/4SM BR OVC002 10/10 A2985 RMK ST8 SLP123

CYXE;2016-09-24 11:00;CYXE 241100Z 31002KT 3/8SM BCFG OVC002 10/10 A2986 RMK ST8 SLP126

CYXE;2016-09-24 11:14;CYXE 241114Z VRB02KT 1/4SM FG VV001 10/10 A2986 RMK FG8 SLP128

CYXE;2016-09-24 11:40;CYXE 241140Z 32002KT 1/2SM FG VV001 10/10 A2987 RMK FG8 SLP133

CYXE;2016-09-24 12:00;CYXE 241200Z 29004KT 1/4SM FG VV001 10/10 A2988 RMK FG8 SLP134

CYXE;2016-09-24 12:10;CYXE 241210Z 30004KT 1/2SM FG OVC012 10/10 A2988 RMK FG5ST3 SLP134

CYXE;2016-09-24 12:18;CYXE 241218Z 30005KT 1 1/2SM BCFG OVC027 10/10 A2987 RMK FG3SC5 SLP133

CYXE;2016-09-24 13:00;CYXE 241300Z 31004KT 2 1/2SM BR SCT002 BKN008 OVC030 10/10 A2988 RMK SF3SF3SC2 SLP136

CYXE;2016-09-24 13:35;CYXE 241335Z 31005KT 1SM BR SCT002 OVC023 10/10 A2988 RMK SF4ST4 SLP136

CYXE;2016-09-24 14:00;CYXE 241400Z 31006KT 1 1/2SM BR SCT003 OVC026 10/10 A2988 RMK SF4ST4 SLP135

CYXE;2016-09-24 14:25;CYXE 241425Z 33006KT 8SM SCT003 BKN026 10/10 A2988 RMK SF3ST4 BR SLP136

CYXE;2016-09-24 15:00;CYXE 241500Z 33006KT 15SM FEW003 BKN035 10/10 A2989 RMK SF2SC5 SLP136

CYXE;2016-09-24 15:41;CYXE 241541Z 30009KT 15SM BKN006 OVC035 11/11 A2990 RMK SF5SC3 SLP139

CYXE;2016-09-24 16:00;CYXE 241600Z 32008KT 15SM SCT006 OVC035 11/11 A2990 RMK SF4SC4 SLP141

CYXE;2016-09-24 17:00;CYXE 241700Z 33006KT 15SM FEW006 OVC040 11/11 A2991 RMK SF2SC6 SLP144

CYXE;2016-09-24 18:00;CYXE 241800Z 33008KT 15SM SCT006 OVC036 12/11 A2992 RMK SF3SC5 SLP146

CYXE;2016-09-24 19:00;CYXE 241900Z 31009KT 15SM FEW006 OVC043 12/10 A2993 RMK SF2SC6 SLP149

CYXE;2016-09-24 20:00;CYXE 242000Z 30008KT 15SM FEW010 OVC040 12/11 A2995 RMK SF2SC6 SLP157

CYXE;2016-09-24 21:00;CYXE 242100Z 31011KT 15SM FEW010 OVC032 13/10 A2993 RMK SF2SC6 SLP149 DENSITY ALT 1700FT

CYXE;2016-09-24 21:36;CYXE 242136Z 31009G15KT 15SM -SHRA FEW014 OVC028 12/10 A2995 RMK SF2SC6 CVCTV CLD EMBD PRESRR SLP159

CYXE;2016-09-24 21:55;CYXE 242155Z 32009KT 15SM SCT024 OVC040 12/10 A2995 RMK SC3SC5 PRESFR SLP157

CYXE;2016-09-24 22:00;CYXE 242200Z 33010KT 15SM SCT024 BKN045 OVC120 13/10 A2995 RMK SC3SC4AC1 PRESFR SLP156 DENSITY ALT 1700FT

CYXE;2016-09-24 23:00;CYXE 242300Z 33008KT 15SM FEW030 BKN170 OVC280 13/09 A2996 RMK SC1AC4CI3 SLP161 DENSITY ALT 1700FT

CYXE;2016-09-25 00:00;CYXE 250000Z 30005KT 15SM FEW020 BKN170 BKN280 13/10 A2995 RMK CU1AC4CI2 SLP157 DENSITY ALT 1700FT

CYXE;2016-09-25 01:00;CYXE 250100Z 29007KT 15SM BKN240 12/10 A2996 RMK CI6 SLP161

CYXE;2016-09-25 02:00;CYXE 250200Z 29009KT 15SM FEW160 BKN240 11/07 A2999 RMK AC2CI3 SLP171

CYXE;2016-09-25 03:00;CYXE 250300Z 31011KT 15SM FEW240 10/04 A3000 RMK CI2 SLP174

CYXE;2016-09-25 04:00;CYXE 250400Z 30009KT 15SM SKC 07/05 A3002 RMK SLP184

CYXE;2016-09-25 05:00;CYXE 250500Z 29008KT 15SM SKC 05/04 A3005 RMK SLP193

CYXE;2016-09-25 06:00;CYXE 250600Z 29008KT 15SM SKC 05/04 A3006 RMK SLP199

CYXE;2016-09-25 07:00;CYXE 250700Z 30009KT 15SM SKC 05/04 A3008 RMK SLP204

CYXE;2016-09-25 08:00;CYXE 250800Z 30011KT 15SM SKC 05/04 A3008 RMK SLP205

CYXE;2016-09-25 09:00;CYXE 250900Z 30011KT 15SM SKC 05/03 A3008 RMK SLP203

CYXE;2016-09-25 10:00;CYXE 251000Z 30009KT 15SM SKC 04/03 A3009 RMK SLP209

CYXE;2016-09-25 11:00;CYXE 251100Z 29010KT 15SM SKC 04/03 A3011 RMK SLP214

CYXE;2016-09-25 12:00;CYXE 251200Z 29008KT 15SM FEW120 03/02 A3013 RMK AC1 SLP222

CYXE;2016-09-25 13:00;CYXE 251300Z 29010KT 15SM FEW120 04/02 A3013 RMK AC1 SLP223

CYXE;2016-09-25 14:00;CYXE 251400Z 29009KT 15SM FEW250 05/02 A3015 RMK CI1 SLP230

CYXE;2016-09-25 15:00;CYXE 251500Z 30013G19KT 15SM SKC 08/02 A3015 RMK SLP229

CYXE;2016-09-25 16:00;CYXE 251600Z 30015G21KT 15SM SKC 11/04 A3016 RMK SLP230

CYXE;2016-09-25 17:00;CYXE 251700Z 30013KT 15SM SKC 13/03 A3017 RMK SLP235

CYXE;2016-09-25 18:00;CYXE 251800Z 29014G21KT 15SM SKC 15/02 A3016 RMK SLP232 DENSITY ALT 1700FT

CYXE;2016-09-25 19:00;CYXE 251900Z 32019G25KT 15SM FEW060 FEW250 17/01 A3016 RMK CF1CI1 SLP229 DENSITY ALT 1900FT

CYXE;2016-09-25 20:00;CYXE 252000Z 31018G26KT 15SM FEW190 17/M02 A3015 RMK CI1 SLP226 DENSITY ALT 1900FT

CYXE;2016-09-25 21:00;CYXE 252100Z 31016G26KT 15SM SCT180 17/M01 A3014 RMK CI3 SLP223 DENSITY ALT 1900FT

CYXE;2016-09-25 22:00;CYXE 252200Z 30019KT 15SM SCT170 17/M01 A3014 RMK AC3 SLP222 DENSITY ALT 1900FT

CYXE;2016-09-25 23:00;CYXE 252300Z 31014KT 15SM BKN170 16/M00 A3014 RMK AC5 SLP222 DENSITY ALT 1800FT

CYXE;2016-09-26 00:00;CYXE 260000Z 31014KT 15SM BKN160 17/M01 A3013 RMK AC5 SLP221 DENSITY ALT 1900FT

CYXE;2016-09-26 01:00;CYXE 260100Z 28008KT 15SM FEW160 12/01 A3014 RMK AC2 SLP227

CYXE;2016-09-26 02:00;CYXE 260200Z 29004KT 15SM SKC 10/00 A3015 RMK SLP229

CYXE;2016-09-26 03:00;CYXE 260300Z 28005KT 15SM SKC 08/M00 A3016 RMK SLP234

CYXE;2016-09-26 04:00;CYXE 260400Z 28005KT 15SM SKC 05/M00 A3016 RMK SLP234

CYXE;2016-09-26 05:00;CYXE 260500Z 28004KT 15SM SKC 03/00 A3016 RMK SLP234

CYXE;2016-09-26 06:00;CYXE 260600Z 26005KT 15SM SKC 02/00 A3017 RMK SLP236

CYXE;2016-09-26 07:00;CYXE 260700Z 26007KT 15SM SKC 01/00 A3018 RMK SLP237

CYXE;2016-09-26 08:00;CYXE 260800Z 28006KT 15SM SKC 01/00 A3017 RMK SLP235

CYXE;2016-09-26 09:00;CYXE 260900Z 25005KT 15SM SKC 01/00 A3017 RMK SLP236

CYXE;2016-09-26 10:00;CYXE 261000Z 24007KT 15SM SKC 01/00 A3017 RMK SLP234

CYXE;2016-09-26 11:00;CYXE 261100Z 26007KT 15SM SKC 00/M00 A3019 RMK SLP242

CYXE;2016-09-26 12:00;CYXE 261200Z 25003KT 15SM SKC 01/01 A3018 RMK SLP239

CYXE;2016-09-26 13:00;CYXE 261300Z 24006KT 15SM SKC M00/M00 A3018 RMK SLP243

CYXE;2016-09-26 14:00;CYXE 261400Z 24006KT 15SM SKC 02/02 A3018 RMK SLP243

CYXE;2016-09-26 15:00;CYXE 261500Z 27004KT 220V280 15SM SKC 06/03 A3018 RMK SLP243

CYXE;2016-09-26 16:00;CYXE 261600Z VRB02KT 15SM SKC 10/03 A3019 RMK SLP244

CYXE;2016-09-26 17:00;CYXE 261700Z 26005KT 15SM FEW270 13/04 A3018 RMK CI1 SLP239

CYXE;2016-09-26 18:00;CYXE 261800Z 28006KT 220V290 15SM FEW270 16/02 A3016 RMK CI1 SLP232 DENSITY ALT 1900FT

CYXE;2016-09-26 19:00;CYXE 261900Z 30006KT 250V310 15SM FEW270 18/01 A3014 RMK CI1 SLP226 DENSITY ALT 2100FT

CYXE;2016-09-26 20:00;CYXE 262000Z 30004KT 280V340 15SM FEW370 18/02 A3012 RMK CI1 SLP218 DENSITY ALT 2100FT

CYXE;2016-09-26 21:00;CYXE 262100Z 27006KT 220V310 15SM FEW270 19/02 A3010 RMK CI1 SLP210 DENSITY ALT 2300FT

CYXE;2016-09-26 22:00;CYXE 262200Z 24007KT 15SM FEW270 20/02 A3008 RMK CI1 SLP203 DENSITY ALT 2400FT

CYXE;2016-09-26 23:00;CYXE 262300Z 25002KT 15SM FEW270 20/03 A3006 RMK CI1 SLP197 DENSITY ALT 2400FT

CYXE;2016-09-27 00:00;CYXE 270000Z 20004KT 15SM FEW270 19/04 A3005 RMK CI1 SLP192 DENSITY ALT 2300FT

CYXE;2016-09-27 01:00;CYXE 270100Z 17005KT 15SM FEW270 15/04 A3004 RMK CI1 SLP191 DENSITY ALT 1800FT

CYXE;2016-09-27 02:00;CYXE 270200Z 16006KT 15SM FEW270 12/04 A3004 RMK CI1 SLP191

CYXE;2016-09-27 03:00;CYXE 270300Z 15004KT 15SM SKC 11/04 A3002 RMK SLP184

CYXE;2016-09-27 04:00;CYXE 270400Z 14005KT 15SM SKC 10/04 A3000 RMK SLP177

CYXE;2016-09-27 05:00;CYXE 270500Z 16003KT 15SM SKC 09/04 A2999 RMK SLP171

CYXE;2016-09-27 06:00;CYXE 270600Z 16005KT 15SM SKC 08/04 A2998 RMK SLP166

CYXE;2016-09-27 07:00;CYXE 270700Z 17008KT 15SM SKC 08/03 A2996 RMK SLP160

CYXE;2016-09-27 08:00;CYXE 270800Z 15006KT 15SM SKC 08/03 A2995 RMK SLP154

CYXE;2016-09-27 09:00;CYXE 270900Z 16007KT 15SM SKC 08/04 A2994 RMK SLP149

CYXE;2016-09-27 10:00;CYXE 271000Z 16005KT 15SM SKC 07/04 A2992 RMK SLP145

CYXE;2016-09-27 11:00;CYXE 271100Z 12006KT 15SM SKC 07/04 A2990 RMK SLP138

CYXE;2016-09-27 12:00;CYXE 271200Z 13010KT 15SM SKC 08/04 A2989 RMK SLP133

CYXE;2016-09-27 13:00;CYXE 271300Z 13011KT 15SM SKC 09/04 A2987 RMK SLP130

CYXE;2016-09-27 14:00;CYXE 271400Z 13010KT 15SM SKC 09/04 A2987 RMK SLP129

CYXE;2016-09-27 15:00;CYXE 271500Z 15006KT 15SM FEW250 12/05 A2987 RMK CI1 SLP131 DENSITY ALT 1700FT

CYXE;2016-09-27 16:00;CYXE 271600Z 15007KT 15SM FEW250 15/07 A2987 RMK CI1 SLP126 DENSITY ALT 2000FT

CYXE;2016-09-27 17:00;CYXE 271700Z 18009KT 15SM FEW250 18/08 A2985 RMK CI1 SLP119 DENSITY ALT 2400FT

CYXE;2016-09-27 18:00;CYXE 271800Z 16013KT 15SM FEW280 21/09 A2983 RMK CI1 SLP113 DENSITY ALT 2800FT

CYXE;2016-09-27 19:00;CYXE 271900Z 16013KT 15SM FEW280 22/09 A2982 RMK CI1 SLP110 DENSITY ALT 2900FT

CYXE;2016-09-27 20:00;CYXE 272000Z 18010KT 130V200 15SM FEW280 23/09 A2983 RMK CI1 SLP112 DENSITY ALT 3000FT

CYXE;2016-09-27 21:00;CYXE 272100Z 23004KT 190V270 15SM FEW280 24/10 A2985 RMK CI1 SLP116 DENSITY ALT 3100FT

CYXE;2016-09-27 22:00;CYXE 272200Z 27010KT 15SM FEW280 24/09 A2986 RMK CI1 SLP120 DENSITY ALT 3100FT

CYXE;2016-09-27 23:00;CYXE 272300Z 31020G26KT 15SM FEW280 21/08 A2989 RMK CI1 SLP132 DENSITY ALT 2700FT

CYXE;2016-09-28 00:00;CYXE 280000Z 32013KT 15SM FEW100 20/08 A2992 RMK AC1 SLP144 DENSITY ALT 2500FT

CYXE;2016-09-28 01:00;CYXE 280100Z 34015KT 15SM FEW100 17/08 A2996 RMK AC2 PRESRR SLP160 DENSITY ALT 2200FT

CYXE;2016-09-28 02:00;CYXE 280200Z 34014G19KT 15SM FEW120 15/08 A3001 RMK AC2 SLP176 DENSITY ALT 1900FT

CYXE;2016-09-28 03:00;CYXE 280300Z 33013KT 15SM SCT110 13/07 A3006 RMK AC4 SLP194

CYXE;2016-09-28 04:00;CYXE 280400Z 35013KT 15SM SCT130 13/06 A3009 RMK AC4 SLP203

CYXE;2016-09-28 05:00;CYXE 280500Z 34011KT 15SM FEW130 11/05 A3015 RMK AC2 SLP221

CYXE;2016-09-28 06:00;CYXE 280600Z 32009KT 15SM SKC 07/06 A3018 RMK SLP234

CYXE;2016-09-28 07:00;CYXE 280700Z 32006KT 15SM SKC 05/05 A3022 RMK SLP246

CYXE;2016-09-28 08:00;CYXE 280800Z 32007KT 15SM SKC 04/04 A3024 RMK SLP255

CYXE;2016-09-28 09:00;CYXE 280900Z 27004KT 15SM SKC 03/03 A3027 RMK SLP265

CYXE;2016-09-28 09:37;CYXE 280937Z 28006KT 15SM SKC 02/02 A3029 RMK SLP272

CYXE;2016-09-28 10:00;CYXE 281000Z 30008KT 15SM SKC 02/02 A3029 RMK SLP272

CYXE;2016-09-28 11:00;CYXE 281100Z 34006KT 15SM SKC 02/02 A3031 RMK BR PTCHS SLP282

CYXE;2016-09-28 12:00;CYXE 281200Z 31002KT 15SM SKC 02/02 A3034 RMK BR PTCHS SLP292

CYXE;2016-09-28 13:00;CYXE 281300Z 27002KT 15SM BCFG SKC 01/01 A3036 RMK SLP299

CYXE;2016-09-28 14:00;CYXE 281400Z 30002KT 15SM FEW280 02/02 A3037 RMK CI2 SLP304

CYXE;2016-09-28 15:00;CYXE 281500Z 30003KT 250V330 15SM FEW120 FEW280 05/05 A3039 RMK AC1CI1 SLP311

CYXE;2016-09-28 16:00;CYXE 281600Z 02004KT 320V070 15SM FEW120 SCT280 10/06 A3040 RMK AC1CI2 SLP310

CYXE;2016-09-28 17:00;CYXE 281700Z VRB03KT 15SM SCT120 SCT280 14/05 A3039 RMK AC3CI1 SLP308

CYXE;2016-09-28 18:00;CYXE 281800Z 00000KT 15SM BKN120 14/04 A3039 RMK AC7 SLP308

CYXE;2016-09-28 19:00;CYXE 281900Z 07006KT 010V100 15SM BKN140 BKN280 15/02 A3037 RMK AC6CI1 SLP304

CYXE;2016-09-28 20:00;CYXE 282000Z 05006KT 010V110 15SM BKN140 BKN280 15/01 A3037 RMK AC6CI1 SLP303

CYXE;2016-09-28 21:00;CYXE 282100Z 07006KT 050V110 15SM BKN080 OVC120 15/01 A3035 RMK AC5AC3 SLP297

CYXE;2016-09-28 22:00;CYXE 282200Z 08003KT 050V110 15SM OVC100 15/01 A3036 RMK AC8 SLP300

CYXE;2016-09-28 23:00;CYXE 282300Z VRB02KT 15SM OVC090 13/03 A3037 RMK AC8 PRESRR SLP307

CYXE;2016-09-28 23:42;CYXE 282342Z VRB05KT 15SM -SHRA SCT050 OVC075 13/01 A3038 RMK SC3AC5 CVCTV CLD EMBD SLP308

CYXE;2016-09-29 00:00;CYXE 290000Z 09003KT 310V090 15SM -SHRA FEW050 BKN080 11/04 A3038 RMK SC2AC5 CVCTV CLD EMBD SLP311

CYXE;2016-09-29 01:00;CYXE 290100Z 06007KT 15SM -SHRA OVC080 09/07 A3035 RMK AC8 CVCTV CLD EMBD PRESFR SLP300

CYXE;2016-09-29 02:00;CYXE 290200Z 06009KT 15SM OVC090 09/07 A3034 RMK AC8 SLP297

CYXE;2016-09-29 03:00;CYXE 290300Z 05007KT 15SM -SHRA OVC090 09/07 A3034 RMK AC8 CVCTV CLD EMBD SLP297

CYXE;2016-09-29 04:00;CYXE 290400Z 07009KT 15SM OVC090 09/08 A3031 RMK AC8 SLP285

CYXE;2016-09-29 04:27;CYXE 290427Z 05008KT 15SM -RA OVC090 09/07 A3033 RMK AC8 SLP289

CYXE;2016-09-29 05:00;CYXE 290500Z 09009KT 15SM -RA OVC080 09/07 A3031 RMK AC8 SLP280

CYXE;2016-09-29 06:00;CYXE 290600Z 06007KT 15SM -RA OVC080 09/07 A3029 RMK AC8 SLP274

CYXE;2016-09-29 06:34;CYXE 290634Z 07008KT 15SM OVC080 10/07 A3029 RMK AC8 SLP274

CYXE;2016-09-29 07:00;CYXE 290700Z 03009KT 010V080 15SM OVC080 09/08 A3027 RMK AC8 PRESFR SLP265

CYXE;2016-09-29 07:17;CYXE 290717Z 06010KT 15SM -RA OVC080 09/08 A3027 RMK AC8 PRESFR SLP266

CYXE;2016-09-29 08:00;CYXE 290800Z 08009KT 15SM -RA SCT050 OVC080 09/08 A3024 RMK SC3AC5 PRESFR SLP257

CYXE;2016-09-29 08:54;CYXE 290854Z 05006KT 15SM FEW050 SCT080 BKN240 08/08 A3023 RMK SC1AC3CI1 SLP254

CYXE;2016-09-29 09:00;CYXE 290900Z 03006KT 15SM FEW050 SCT080 BKN240 08/08 A3024 RMK SC1AC3CI2 SLP255

CYXE;2016-09-29 10:00;CYXE 291000Z 02006KT 15SM BKN060 BKN200 07/07 A3023 RMK SC5CI1 SLP254

CYXE;2016-09-29 11:00;CYXE 291100Z 04008KT 15SM FEW060 BKN200 08/08 A3022 RMK SC2CI3 SLP249

CYXE;2016-09-29 12:00;CYXE 291200Z 06007KT 15SM FEW050 SCT120 07/07 A3021 RMK SC1AC3 SLP247

CYXE;2016-09-29 13:00;CYXE 291300Z 05007KT 15SM FEW060 BKN180 07/07 A3020 RMK SC2AC3 SLP245

CYXE;2016-09-29 14:00;CYXE 291400Z 06006KT 15SM FEW060 SCT180 07/07 A3019 RMK SC2AC1 SLP242

CYXE;2016-09-29 15:00;CYXE 291500Z 36004KT 15SM BKN160 08/08 A3022 RMK AC6 PRESRR SLP252

CYXE;2016-09-29 15:31;CYXE 291531Z 08016KT 350V080 15SM -SHRA SCT130 BKN160 09/09 A3015 RMK AC3AC3 WSHFT 1524 CVCTV CLD EMBD PRESFR SLP229

CYXE;2016-09-29 16:00;CYXE 291600Z 04005KT 010V110 15SM FEW130 SCT180 11/09 A3016 RMK AC2AC2 PRESRR SLP231

CYXE;2016-09-29 17:00;CYXE 291700Z 06009KT 15SM FEW130 SCT180 BKN240 13/09 A3017 RMK AC2AC2CI1 SLP233

CYXE;2016-09-29 18:00;CYXE 291800Z 07007KT 15SM FEW140 SCT180 15/09 A3017 RMK AC2AC1 SLP231 DENSITY ALT 1700FT

CYXE;2016-09-29 19:00;CYXE 291900Z 05010KT 15SM SCT140 BKN190 15/10 A3016 RMK AC3AC4 SLP226 DENSITY ALT 1700FT

CYXE;2016-09-29 20:00;CYXE 292000Z 04011KT 15SM FEW140 BKN200 17/10 A3014 RMK AC2CI4 SLP220 DENSITY ALT 1900FT

CYXE;2016-09-29 21:00;CYXE 292100Z 05010G15KT 15SM BKN140 BKN200 17/10 A3013 RMK AC5CI1 SLP216 DENSITY ALT 2000FT

CYXE;2016-09-29 22:00;CYXE 292200Z 05012KT 15SM SCT140 BKN200 17/10 A3012 RMK AC4CI2 SLP214 DENSITY ALT 2000FT

CYXE;2016-09-29 23:00;CYXE 292300Z 02011G16KT 15SM BKN180 15/10 A3013 RMK AC5 SLP217 DENSITY ALT 1800FT

CYXE;2016-09-30 00:00;CYXE 300000Z 05010G15KT 15SM SCT170 14/10 A3011 RMK AC4 SLP213 DENSITY ALT 1700FT

CYXE;2016-09-30 01:00;CYXE 300100Z 03007KT 15SM SCT180 13/10 A3011 RMK AC3 SLP212

CYXE;2016-09-30 02:00;CYXE 300200Z 05013KT 15SM FEW180 12/10 A3010 RMK AC2 SLP210

CYXE;2016-09-30 03:00;CYXE 300300Z 03010KT 15SM FEW180 11/10 A3010 RMK AC1 SLP209

CYXE;2016-09-30 04:00;CYXE 300400Z 04009KT 15SM SKC 11/10 A3009 RMK SLP207

CYXE;2016-09-30 05:00;CYXE 300500Z 04012KT 15SM SKC 11/10 A3008 RMK SLP199

CYXE;2016-09-30 06:00;CYXE 300600Z CCA 06010KT 15SM SKC 10/10 A3006 WS ALL RWY RMK SLP192

CYXE;2016-09-30 07:00;CYXE 300700Z 06007KT 15SM SKC 09/09 A3004 RMK SLP187

CYXE;2016-09-30 08:00;CYXE 300800Z 05007KT 15SM SKC 08/08 A3004 RMK SLP185

CYXE;2016-09-30 09:00;CYXE 300900Z 05007KT 15SM SKC 08/08 A3003 RMK SLP183

CYXE;2016-09-30 10:00;CYXE 301000Z 07007KT 15SM FEW080 07/07 A3001 RMK AC2 SLP177

CYXE;2016-09-30 11:00;CYXE 301100Z 04006KT 15SM FEW070 07/07 A3001 RMK AC2 SLP178

CYXE;2016-09-30 12:00;CYXE 301200Z 04005KT 15SM FEW070 SCT140 07/07 A3001 RMK AC1AC2 SLP180

CYXE;2016-09-30 13:00;CYXE 301300Z 05005KT 15SM FEW140 FEW250 06/06 A3001 RMK AC1CI1 SLP180

CYXE;2016-09-30 14:00;CYXE 301400Z 06004KT 15SM FEW140 FEW250 07/07 A3000 RMK AC1CI1 SLP177

CYXE;2016-09-30 15:00;CYXE 301500Z VRB02KT 15SM FEW140 11/09 A3001 RMK AC1 SLP178

CYXE;2016-09-30 16:00;CYXE 301600Z 12004KT 090V160 15SM FEW140 FEW300 14/09 A3000 RMK AC1CI1 AC TR SLP172 DENSITY ALT 1800FT

CYXE;2016-09-30 17:00;CYXE 301700Z 00000KT 15SM FEW300 15/09 A3000 RMK CI1 SLP171 DENSITY ALT 1900FT

CYXE;2016-09-30 18:00;CYXE 301800Z VRB05KT 15SM FEW300 17/09 A2999 RMK CI1 SLP168 DENSITY ALT 2100FT

CYXE;2016-09-30 19:00;CYXE 301900Z 00000KT 15SM FEW300 18/09 A2998 RMK CI1 SLP166 DENSITY ALT 2200FT

CYXE;2016-09-30 20:00;CYXE 302000Z VRB03KT 15SM FEW300 20/10 A2997 RMK CI2 SLP161 DENSITY ALT 2500FT

CYXE;2016-09-30 21:00;CYXE 302100Z 28003KT 190V360 15SM BKN240 20/10 A2997 RMK CI6 SLP162 DENSITY ALT 2500FT

CYXE;2016-09-30 22:00;CYXE 302200Z 00000KT 15SM SCT280 20/10 A2996 RMK CI3 SLP159 DENSITY ALT 2500FT

CYXE;2016-09-30 23:00;CYXE 302300Z 31005KT 15SM BKN280 20/10 A2998 RMK CI5 SLP164 DENSITY ALT 2500FT

CYXE;2016-10-01 00:00;CYXE 010000Z 32006KT 15SM FEW120 SCT280 17/11 A2997 RMK AC1CI3 SLP163 DENSITY ALT 2200FT

CYXE;2016-10-01 01:00;CYXE 010100Z 35007KT 15SM SCT250 13/10 A2996 RMK CI4 SLP161 DENSITY ALT 1700FT

CYXE;2016-10-01 02:00;CYXE 010200Z 04005KT 15SM FEW180 SCT260 13/11 A2997 RMK AC2CI2 SLP164 DENSITY ALT 1700FT

CYXE;2016-10-01 03:00;CYXE 010300Z 36006KT 15SM FEW260 10/10 A2998 RMK CI2 SLP169

CYXE;2016-10-01 04:00;CYXE 010400Z 36009KT 15SM SKC 10/10 A3000 RMK SLP174

CYXE;2016-10-01 05:00;CYXE 010500Z 36009KT 15SM SKC 10/10 A3001 RMK SLP175

CYXE;2016-10-01 06:00;CYXE 010600Z 04004KT 15SM SKC 10/10 A3002 RMK SLP178

CYXE;2016-10-01 07:00;CYXE 010700Z 03006KT 15SM SKC 09/09 A3003 RMK SLP182

CYXE;2016-10-01 08:00;CYXE 010800Z 01006KT 15SM FEW008 10/10 A3004 RMK SF2 SLP184

CYXE;2016-10-01 08:44;CYXE 010844Z 02011KT 6SM BR BKN003 10/10 A3004 RMK SF7 SLP183

CYXE;2016-10-01 09:00;CYXE 010900Z 04014KT 3SM BR OVC003 10/10 A3004 RMK SF8 SLP183

CYXE;2016-10-01 09:44;CYXE 010944Z 04014G20KT 2SM BR OVC002 10/10 A3005 RMK ST8 SLP185

CYXE;2016-10-01 10:00;CYXE 011000Z 05014KT 1 1/2SM BR OVC002 10/10 A3005 RMK ST8 SLP186

CYXE;2016-10-01 10:43;CYXE 011043Z 05015G20KT 1/2SM FG VV002 10/10 A3004 RMK FG8 SLP184

CYXE;2016-10-01 11:00;CYXE 011100Z 04012G18KT 1/2SM FG VV002 10/10 A3005 RMK FG8 SLP185

CYXE;2016-10-01 12:00;CYXE 011200Z 04011KT 1/2SM FG VV002 10/10 A3005 RMK FG8 SLP188

CYXE;2016-10-01 13:00;CYXE 011300Z 05013KT 1/2SM -DZ FG VV002 10/10 A3005 RMK FG8 SLP190

CYXE;2016-10-01 13:42;CYXE 011342Z 05012G19KT 1SM BR VV003 10/10 A3004 RMK FG8 SLP188

CYXE;2016-10-01 14:00;CYXE 011400Z 06012KT 1SM BR VV003 10/10 A3005 RMK FG8 SLP189

CYXE;2016-10-01 14:29;CYXE 011429Z 07012G19KT 2SM BR VV003 10/10 A3004 RMK FG8 SLP187

CYXE;2016-10-01 15:00;CYXE 011500Z 07011G18KT 2SM BR OVC003 10/10 A3004 RMK ST8 SLP190

CYXE;2016-10-01 15:20;CYXE 011520Z 09014KT 3SM BR OVC003 10/10 A3003 RMK ST8 SLP185

CYXE;2016-10-01 16:00;CYXE 011600Z 07013KT 3SM BR OVC003 10/10 A3003 RMK ST8 SLP184

CYXE;2016-10-01 16:47;CYXE 011647Z 07011G16KT 10SM BR OVC004 11/11 A3003 RMK ST8 BR SLP185

CYXE;2016-10-01 17:00;CYXE 011700Z 08010G15KT 10SM OVC004 11/11 A3003 RMK ST8 BR SLP186

CYXE;2016-10-01 18:00;CYXE 011800Z 08010KT 10SM OVC005 11/11 A3002 RMK ST8 BR SLP181

CYXE;2016-10-01 19:00;CYXE 011900Z 07010G15KT 10SM OVC006 12/12 A2998 RMK ST8 BR SLP168

CYXE;2016-10-01 20:00;CYXE 012000Z 09012KT 12SM OVC008 13/12 A2996 RMK SC8 SLP159 DENSITY ALT 1700FT

CYXE;2016-10-01 20:18;CYXE 012018Z 08012G17KT 15SM BKN010 BKN250 15/12 A2995 RMK SC5CI2 SLP156 DENSITY ALT 1900FT

CYXE;2016-10-01 20:31;CYXE 012031Z 08014KT 15SM SCT010 BKN250 15/12 A2995 RMK SC4CI3 SLP155 DENSITY ALT 1900FT

CYXE;2016-10-01 21:00;CYXE 012100Z 08013G18KT 15SM SCT015 BKN250 16/12 A2994 RMK SC3CI4 SLP152 DENSITY ALT 2100FT

CYXE;2016-10-01 22:00;CYXE 012200Z 08014KT 15SM FEW020 FEW090 BKN280 16/12 A2992 RMK SC1AC1CI5 SLP143 DENSITY ALT 2100FT

CYXE;2016-10-01 23:00;CYXE 012300Z 07016KT 15SM SCT090 BKN280 15/12 A2990 RMK AC3CI4 SLP138 DENSITY ALT 2000FT

CYXE;2016-10-02 00:00;CYXE 020000Z 06013G19KT 20SM BKN160 OVC280 13/12 A2989 RMK AC6CI2 SLP135 DENSITY ALT 1800FT

CYXE;2016-10-02 01:00;CYXE 020100Z 07013G18KT 15SM FEW015 BKN140 BKN280 12/12 A2987 RMK SC1AC4CI2 SLP130 DENSITY ALT 1700FT

CYXE;2016-10-02 02:00;CYXE 020200Z 06013KT 15SM SCT012 BKN170 OVC280 12/12 A2986 RMK SC3AC3CI2 SLP127

CYXE;2016-10-02 03:00;CYXE 020300Z 07013G18KT 15SM FEW012 BKN170 OVC280 12/12 A2984 RMK SC2AC5CI1 SLP120 DENSITY ALT 1700FT

CYXE;2016-10-02 04:00;CYXE 020400Z 05010KT 15SM FEW012 OVC150 11/11 A2983 RMK SC1AC7 SLP115 DENSITY ALT 1700FT

CYXE;2016-10-02 05:00;CYXE 020500Z 05008KT 15SM SCT070 OVC170 11/11 A2983 RMK AC3AC5 LTNG DIST SW-NW SLP117 DENSITY ALT 1700FT

CYXE;2016-10-02 05:43;CYXE 020543Z 06006KT 15SM BKN070 OVC170 12/12 A2983 RMK AC7AC1 LTNG DIST SW-NW SLP116 DENSITY ALT 1700FT

CYXE;2016-10-02 05:51;CYXE 020551Z 01003KT 330V070 15SM TS OVC067CB 12/12 A2985 RMK CB8 LTGCG W PRESRR SLP123 DENSITY ALT 1700FT

CYXE;2016-10-02 06:00;CYXE 020600Z 33005KT 310V010 15SM TS OVC060CB 12/12 A2986 RMK CB8 10-15KT WIND SHEAR RWY 27 REPORTED 0547Z PRESRR SLP125 DENSITY ALT 1700FT

CYXE;2016-10-02 06:08;CYXE 020608Z 33006KT 290V360 12SM -TSRA OVC060CB 12/12 A2986 RMK CB8 LTGCG NE AND W SLP125 DENSITY ALT 1700FT

CYXE;2016-10-02 07:00;CYXE 020700Z 36006KT 15SM TS OVC044CB 11/11 A2986 RMK CB8 LTGCG NE + W QUAD VIA CYWG SLP124

CYXE;2016-10-02 07:25;CYXE 020725Z 00000KT 15SM SCT042 OVC080 11/11 A2990 RMK SC4AC4 VIA CYWG SLP138

CYXE;2016-10-02 08:00;CYXE 020800Z 04005KT 15SM SCT080 OVC110 11/11 A2986 RMK AC4AC4 SLP126

CYXE;2016-10-02 09:00;CYXE 020900Z 01003KT 15SM OVC085 11/11 A2984 RMK AC8 SLP118

CYXE;2016-10-02 10:00;CYXE 021000Z 21005KT 15SM FEW005 SCT035 OVC085 11/11 A2987 RMK SF2SC2AC4 SLP128

CYXE;2016-10-02 11:00;CYXE 021100Z 25003KT 15SM MIFG FEW030 OVC230 10/10 A2986 RMK SC2CS6 SLP124

CYXE;2016-10-02 12:00;CYXE 021200Z 22005KT 15SM BCFG OVC230 09/09 A2988 RMK CS8 SLP132

CYXE;2016-10-02 13:00;CYXE 021300Z 20006KT 15SM BCFG OVC240 10/10 A2988 RMK CS8 SLP133

CYXE;2016-10-02 14:00;CYXE 021400Z 23007KT 10SM FEW020 BKN230 10/10 A2991 RMK SC2CI3 BR SLP142

CYXE;2016-10-02 15:00;CYXE 021500Z 22005KT 15SM FEW020 SCT230 10/10 A2993 RMK SC1CI3 SC TR SLP150

CYXE;2016-10-02 15:30;CYXE 021530Z 27009KT 15SM BKN013 BKN230 11/11 A2994 RMK SC5CI1 SLP153

CYXE;2016-10-02 16:00;CYXE 021600Z 30010G17KT 15SM BKN011 BKN230 11/10 A2995 RMK SC5CI1 SLP156

CYXE;2016-10-02 16:47;CYXE 021647Z 31013KT 15SM BKN015 12/09 A2997 RMK SC6 SLP162

CYXE;2016-10-02 17:00;CYXE 021700Z 31016KT 15SM BKN016 13/09 A2997 RMK SC6 SLP163

CYXE;2016-10-02 18:00;CYXE 021800Z 27011KT 15SM SCT022 13/07 A2999 RMK SC4 SLP169 DENSITY ALT 1700FT

CYXE;2016-10-02 19:00;CYXE 021900Z 31009G16KT 15SM FEW030 13/07 A2998 RMK CF2 SLP167 DENSITY ALT 1700FT

CYXE;2016-10-02 20:00;CYXE 022000Z 30010KT 15SM FEW030 15/05 A2998 RMK SC1 SLP166 DENSITY ALT 1900FT

CYXE;2016-10-02 21:00;CYXE 022100Z 32009KT 15SM FEW040 15/05 A2998 RMK CF1 CF TR SLP165 DENSITY ALT 2000FT

CYXE;2016-10-02 22:00;CYXE 022200Z 31009KT 15SM FEW040 15/03 A2998 RMK CF1 SLP166 DENSITY ALT 2000FT

CYXE;2016-10-02 23:00;CYXE 022300Z 33007KT 15SM FEW050 SCT280 15/03 A2998 RMK CF1CI3 SLP167 DENSITY ALT 1900FT

CYXE;2016-10-03 00:00;CYXE 030000Z 30006KT 15SM BKN280 14/04 A2998 RMK CI5 SLP168 DENSITY ALT 1800FT

CYXE;2016-10-03 01:00;CYXE 030100Z 30004KT 15SM FEW280 11/03 A2998 RMK CI2 SLP168

CYXE;2016-10-03 02:00;CYXE 030200Z 35006KT 15SM SCT280 08/04 A2998 RMK CI3 SLP170

CYXE;2016-10-03 03:00;CYXE 030300Z 01002KT 15SM SKC 05/03 A2997 RMK SLP169

CYXE;2016-10-03 04:00;CYXE 030400Z 35006KT 15SM SKC 05/02 A2997 RMK SLP167

CYXE;2016-10-03 05:00;CYXE 030500Z 02009KT 15SM SCT190 06/03 A2996 RMK AC3 SLP163

CYXE;2016-10-03 06:00;CYXE 030600Z 01006KT 15SM BKN180 07/03 A2996 RMK AC6 SLP163

CYXE;2016-10-03 07:00;CYXE 030700Z 11003KT 15SM OVC160 06/03 A2997 RMK AC8 SLP166

CYXE;2016-10-03 08:00;CYXE 030800Z 06004KT 15SM FEW110 OVC150 05/04 A2996 RMK AC1AC7 SLP162

CYXE;2016-10-03 09:00;CYXE 030900Z 12002KT 15SM OVC150 06/04 A2997 RMK AC8 SLP163

CYXE;2016-10-03 10:00;CYXE 031000Z 04005KT 15SM OVC140 05/05 A2994 RMK AC8 SLP155

CYXE;2016-10-03 11:00;CYXE 031100Z 07006KT 15SM SCT140 OVC180 06/04 A2994 RMK AC4AC4 SLP153

CYXE;2016-10-03 12:00;CYXE 031200Z 07006KT 15SM OVC140 06/04 A2992 RMK AC8 SLP149

CYXE;2016-10-03 13:00;CYXE 031300Z 06007KT 15SM OVC150 06/04 A2992 RMK AC8 SLP151

CYXE;2016-10-03 14:00;CYXE 031400Z 10005KT 15SM SCT090 BKN200 06/04 A2992 RMK AC3CS4 SLP152

CYXE;2016-10-03 15:00;CYXE 031500Z 06006KT 15SM FEW150 BKN210 07/05 A2992 RMK AC2CS5 SLP153

CYXE;2016-10-03 16:00;CYXE 031600Z 06010KT 15SM FEW150 BKN210 08/04 A2992 RMK AC1CS6 SLP152

CYXE;2016-10-03 17:00;CYXE 031700Z 08010KT 15SM FEW150 BKN200 09/03 A2992 RMK AC1CS6 SLP150

CYXE;2016-10-03 18:00;CYXE 031800Z 08008KT 15SM FEW150 BKN200 11/03 A2991 RMK AC2CS5 SLP147

CYXE;2016-10-03 19:00;CYXE 031900Z 08011KT 15SM FEW150 BKN200 12/03 A2990 RMK AC2CS4 SLP142 DENSITY ALT 1700FT

CYXE;2016-10-03 20:00;CYXE 032000Z 06012KT 15SM FEW150 SCT210 14/02 A2988 RMK AC1CI3 SLP135 DENSITY ALT 1900FT

CYXE;2016-10-03 21:00;CYXE 032100Z 06013KT 15SM BKN130 BKN210 14/01 A2987 RMK AC6CI1 SLP132 DENSITY ALT 1900FT

CYXE;2016-10-03 22:00;CYXE 032200Z 06013G19KT 15SM BKN120 BKN180 14/00 A2987 RMK AC6CI1 SLP130 DENSITY ALT 2000FT

CYXE;2016-10-03 23:00;CYXE 032300Z 06013G20KT 15SM SCT130 BKN200 13/M00 A2986 RMK AC4CI2 SLP128 DENSITY ALT 1800FT

CYXE;2016-10-04 00:00;CYXE 040000Z 06010KT 15SM BKN120 OVC200 12/M00 A2987 RMK AC6CI2 SLP132 DENSITY ALT 1700FT

CYXE;2016-10-04 01:00;CYXE 040100Z 06012G17KT 15SM BKN120 OVC210 11/M00 A2987 RMK AC7CI1 SLP132

CYXE;2016-10-04 02:00;CYXE 040200Z 06011KT 15SM OVC120 11/00 A2987 RMK AC8 SLP132

CYXE;2016-10-04 03:00;CYXE 040300Z 05008KT 15SM OVC120 10/00 A2986 RMK AC8 SLP130

CYXE;2016-10-04 04:00;CYXE 040400Z 04008KT 15SM OVC120 10/01 A2986 RMK AC8 SLP128

CYXE;2016-10-04 05:00;CYXE 040500Z 04010KT 15SM OVC110 09/02 A2985 RMK AC8 SLP124

CYXE;2016-10-04 06:00;CYXE 040600Z 05011KT 15SM OVC140 09/02 A2984 RMK AC8 SLP119

CYXE;2016-10-04 07:00;CYXE 040700Z 04011KT 15SM BKN110 OVC160 09/02 A2982 WS RWY09 RMK AC6AC2 SLP115

CYXE;2016-10-04 08:00;CYXE 040800Z 04012KT 15SM BKN100 OVC160 08/02 A2981 RMK AC6AC2 SLP109

CYXE;2016-10-04 09:00;CYXE 040900Z 04013KT 15SM OVC080 08/02 A2980 RMK AC8 SLP107

CYXE;2016-10-04 10:00;CYXE 041000Z 04011G18KT 15SM BKN080 OVC140 08/02 A2979 RMK AC6AC2 SLP103

CYXE;2016-10-04 11:00;CYXE 041100Z 03013G18KT 15SM OVC100 08/03 A2979 RMK AC8 SLP103

CYXE;2016-10-04 12:00;CYXE 041200Z 03014G21KT 15SM OVC095 08/03 A2979 RMK AC8 SLP104

CYXE;2016-10-04 13:00;CYXE 041300Z 04015G20KT 15SM OVC085 07/03 A2978 RMK AC8 SLP102

CYXE;2016-10-04 14:00;CYXE 041400Z 03016KT 15SM OVC080 07/03 A2978 RMK AC8 SLP100

CYXE;2016-10-04 15:00;CYXE 041500Z 03013G20KT 15SM OVC069 07/02 A2978 RMK AC8 SLP101

CYXE;2016-10-04 16:00;CYXE 041600Z 03016G23KT 15SM OVC051 06/01 A2977 RMK SC8 CIG DFUS SLP099

CYXE;2016-10-04 17:00;CYXE 041700Z 05021G26KT 15SM BKN026 OVC048 06/01 A2978 RMK SC6SC2 SLP102

CYXE;2016-10-04 17:09;CYXE 041709Z 03019G26KT 15SM -RA OVC024 05/02 A2978 RMK SC8 SLP103

CYXE;2016-10-04 18:00;CYXE 041800Z 03018G27KT 10SM -RA SCT011 OVC017 03/03 A2978 RMK SF3SC5 BR SLP105

CYXE;2016-10-04 18:45;CYXE 041845Z 03020G32KT 10SM -RA SCT009 OVC018 03/03 A2978 RMK SF3SC5 BR SLP104

CYXE;2016-10-04 19:00;CYXE 041900Z 02022G33KT 8SM -RA SCT009 OVC016 03/03 A2978 RMK SF4SC4 BR SLP103

CYXE;2016-10-04 19:10;CYXE 041910Z 02021G29KT 8SM -RA SCT008 OVC016 02/02 A2978 RMK SF4SC4 BR SLP103

CYXE;2016-10-04 19:25;CYXE 041925Z 02022G32KT 5SM -RA BR BKN008 OVC015 02/02 A2977 RMK SF6SC2 SLP103

CYXE;2016-10-04 20:00;CYXE 042000Z 01022G28KT 4SM -RASN BR OVC007 02/02 A2976 RMK SF8 SLP099

CYXE;2016-10-04 20:48;CYXE 042048Z 02019G30KT 10SM -RA OVC008 02/02 A2976 RMK SF8 BR SLP099

CYXE;2016-10-04 21:00;CYXE 042100Z 02023G32KT 10SM -RA OVC008 02/02 A2976 RMK SF8 BR SLP098

CYXE;2016-10-04 21:07;CYXE 042107Z 02024G33KT 5SM -RASN OVC008 02/02 A2976 RMK SC8 SLP098

CYXE;2016-10-04 22:00;CYXE 042200Z 02022G31KT 5SM -RASN OVC010 02/02 A2976 RMK SC8 SLP099

CYXE;2016-10-04 22:49;CYXE 042249Z 02020G31KT 2 1/2SM -RASN OVC010 01/01 A2976 RMK SC8 SLP099

CYXE;2016-10-04 23:00;CYXE 042300Z 02021G29KT 2SM -SN OVC010 01/01 A2976 RMK SC8 SLP101

CYXE;2016-10-05 00:00;CYXE 050000Z 01021G32KT 2SM -SN OVC008 01/01 A2976 RMK SC8 SLP101

CYXE;2016-10-05 01:00;CYXE 050100Z 01019G30KT 2SM -SN OVC006 01/01 A2977 RMK SC8 SLP105

CYXE;2016-10-05 01:10;CYXE 050110Z 01021G26KT 3SM -SN OVC006 01/01 A2978 RMK SC8 SLP106

CYXE;2016-10-05 02:00;CYXE 050200Z 01021G30KT 3SM -SN OVC006 01/01 A2978 RMK SC8 SLP107

CYXE;2016-10-05 02:13;CYXE 050213Z 01019G28KT 1 1/2SM -SN VV006 01/01 A2978 RMK SN8 SLP107

CYXE;2016-10-05 03:00;CYXE 050300Z 01022G29KT 1 1/2SM -SN OVC005 00/00 A2978 RMK SC8 SLP106

CYXE;2016-10-05 04:05;CYXE 050405Z 01022G30KT 3SM -SN OVC007 00/00 A2978 RMK SC8 SLP108

CYXE;2016-10-05 05:04;CYXE 050504Z 01018G30KT 1 1/2SM -SN OVC007 00/00 A2978 RMK SC8 SLP107

CYXE;2016-10-05 05:30;CYXE 050530Z 02024G35KT 1SM -SN OVC007 00/00 A2977 RMK SC8 SLP106

CYXE;2016-10-05 05:36;CYXE 050536Z 02022G35KT 1 1/2SM -SN OVC007 00/00 A2978 RMK SC8 VIS VRB 1-2 SLP107

CYXE;2016-10-05 06:00;CYXE 050600Z 02022G31KT 1 1/2SM -SN OVC008 00/00 A2978 RMK SC8 VIS VRB 1-2 SLP109

CYXE;2016-10-05 06:30;CYXE 050630Z 01022G31KT 2SM -SN OVC010 00/00 A2978 RMK SC8 SLP108

CYXE;2016-10-05 07:00;CYXE 050700Z 01020G28KT 2SM -SN OVC010 00/00 A2978 RMK SC8 SLP109

CYXE;2016-10-05 08:00;CYXE 050800Z 01020G26KT 1 1/2SM -SN OVC010 00/00 A2977 RMK SC8 SLP107

CYXE;2016-10-05 08:30;CYXE 050830Z 01019G27KT 1 1/2SM -SN OVC006 00/00 A2976 RMK SC8 SLP105

CYXE;2016-10-05 09:00;CYXE 050900Z 01022G30KT 1SM -SN OVC006 00/00 A2975 RMK SC8 SLP100

CYXE;2016-10-05 09:19;CYXE 050919Z 01021G28KT 1/2SM SN VV003 00/00 A2974 RMK SN8 SLP099

CYXE;2016-10-05 10:00;CYXE 051000Z 01020G26KT 1 1/2SM -SN OVC009 00/00 A2975 RMK SC8 SLP100

CYXE;2016-10-05 10:22;CYXE 051022Z 01020G26KT 3SM -SN OVC012 00/00 A2975 RMK SC8 SLP100

CYXE;2016-10-05 11:00;CYXE 051100Z 36020G26KT 3SM -SN FEW008 OVC020 00/00 A2975 RMK SF2SC6 SLP100

CYXE;2016-10-05 12:00;CYXE 051200Z 36020KT 5SM -SN SCT008 OVC020 00/00 A2976 RMK SF3SC5 SLP104

CYXE;2016-10-05 13:00;CYXE 051300Z 36022G32KT 8SM -SN SCT012 OVC050 00/M00 A2976 RMK CU4SC4 SLP106

CYXE;2016-10-05 13:43;CYXE 051343Z 01021G33KT 2 1/2SM -SN FEW006 OVC014 00/M00 A2976 RMK SF2SC6 SLP105

CYXE;2016-10-05 13:47;CYXE 051347Z 01022G28KT 1SM -SN FEW006 OVC014 00/M00 A2976 RMK SF2SC6 SLP106

CYXE;2016-10-05 13:53;CYXE 051353Z 01022G31KT 3/4SM -SN VV007 M00/M00 A2976 RMK SN8 SLP105

CYXE;2016-10-05 14:00;CYXE 051400Z 36021G31KT 1/2SM SN VV006 M00/M00 A2976 RMK SN8 SLP105

CYXE;2016-10-05 14:19;CYXE 051419Z 36022G28KT 1SM -SN OVC009 00/00 A2977 RMK SN4SF4 SLP107

CYXE;2016-10-05 15:00;CYXE 051500Z 36021G27KT 1SM -SN VV009 00/00 A2978 RMK SN8 SLP110

CYXE;2016-10-05 15:24;CYXE 051524Z 36018KT 3/4SM -SN VV007 00/00 A2978 RMK SN8 SLP111

CYXE;2016-10-05 16:00;CYXE 051600Z 35016G24KT 3/4SM R09/5000VP6000FT/D -SN VV007 M00/M00 A2978 RMK SN8 SLP110

CYXE;2016-10-05 17:00;CYXE 051700Z 36019G27KT 3/4SM R09/P6000FT/N -SN VV008 00/00 A2977 RMK SN8 SLP108

CYXE;2016-10-05 18:00;CYXE 051800Z 36022G28KT 3/4SM R09/5500VP6000FT/U -SN VV008 00/M00 A2977 RMK SN8 SLP107

CYXE;2016-10-05 18:14;CYXE 051814Z 35020G29KT 1SM R09/P6000FT/U -SN VV009 00/M00 A2977 RMK SN8 SLP107

CYXE;2016-10-05 18:22;CYXE 051822Z 35022KT 1 1/2SM -SN OVC012 00/M00 A2977 RMK SN4SC4 SLP107

CYXE;2016-10-05 19:00;CYXE 051900Z 36025G31KT 2SM -SN OVC011 00/M00 A2977 RMK SC8 SLP107

CYXE;2016-10-05 19:12;CYXE 051912Z 35023G29KT 1 1/2SM -SN OVC010 00/M00 A2977 RMK SN4SC4 SLP108

CYXE;2016-10-05 19:25;CYXE 051925Z 36021G31KT 3/4SM R09/P6000FT/N -SN VV008 00/M00 A2977 RMK SN8 SLP108

CYXE;2016-10-05 20:00;CYXE 052000Z 35020G28KT 3/4SM R09/4500VP6000FT/U -SN VV008 M00/M00 A2977 RMK SN8 SLP109

CYXE;2016-10-05 21:00;CYXE 052100Z 35022G29KT 3/4SM R09/4500FT/N -SN VV006 M00/M00 A2978 RMK SN8 SLP113

CYXE;2016-10-05 22:00;CYXE 052200Z 34023G30KT 3/4SM R09/4500FT/N -SN VV007 M00/M00 A2979 RMK SN8 SLP115

CYXE;2016-10-05 23:00;CYXE 052300Z 34023G29KT 3/4SM R09/5000FT/U -SN VV006 M01/M01 A2980 RMK SN8 SLP120

CYXE;2016-10-05 23:29;CYXE 052329Z 34022G30KT 1SM R09/5000VP6000FT/U -SN VV008 M01/M01 A2981 RMK SN8 SLP123

CYXE;2016-10-05 23:41;CYXE 052341Z 34022KT 3/4SM R09/4500VP6000FT/D -SN VV006 M01/M01 A2982 RMK SN8 SLP125

CYXE;2016-10-06 00:02;CYXE 060002Z 34021G30KT 1SM R09/6000FT/U -SN VV010 M01/M01 A2982 RMK SN8 SLP127

CYXE;2016-10-06 01:00;CYXE 060100Z 34021G28KT 1SM R09/P6000FT/U -SN VV007 M01/M01 A2983 RMK SN8 SLP130

CYXE;2016-10-06 01:42;CYXE 060142Z 34023KT 1 1/2SM R09/5000VP6000FT/U -SN VV012 M01/M01 A2984 RMK SN8 SLP132

CYXE;2016-10-06 02:00;CYXE 060200Z 34018G27KT 2SM -SN VV015 M01/M01 A2984 RMK SN8 SLP135

CYXE;2016-10-06 02:32;CYXE 060232Z 34022KT 3SM -SN OVC040 M01/M01 A2985 RMK SC8 SLP137

CYXE;2016-10-06 03:00;CYXE 060300Z 34021G31KT 1SM R09/4500VP6000FT/D -SN VV008 M01/M01 A2985 RMK SN8 SLP138

CYXE;2016-10-06 03:10;CYXE 060310Z 34020KT 3/4SM R09/3000VP6000FT/U -SN VV005 M01/M01 A2985 RMK SN8 SLP138

CYXE;2016-10-06 04:00;CYXE 060400Z 34021G26KT 3/4SM R09/5000VP6000FT/U -SN VV008 M01/M01 A2986 RMK SN8 SLP141

CYXE;2016-10-06 04:13;CYXE 060413Z 35022KT 1SM R09/4000VP6000FT/U -SN VV010 M01/M02 A2987 RMK SN8 SLP142

CYXE;2016-10-06 05:02;CYXE 060502Z 34021G27KT 1 1/4SM R09/5500VP6000FT/D -SN VV010 M02/M02 A2987 RMK SN8 SLP143

CYXE;2016-10-06 06:00;CYXE 060600Z 34019G24KT 1 1/2SM R09/5000VP6000FT/D -SN VV010 M02/M02 A2988 RMK SN8 SLP148

CYXE;2016-10-06 07:00;CYXE 060700Z 34019G24KT 1 1/2SM -SN VV010 M02/M02 A2990 RMK SN8 SLP153

CYXE;2016-10-06 07:35;CYXE 060735Z 33018KT 1/2SM R09/P6000FT/D -SN VV005 M02/M02 A2990 RMK SN8 SLP154

CYXE;2016-10-06 08:00;CYXE 060800Z 33014G20KT 1/2SM R09/3500V5500FT/D SN VV005 M02/M02 A2991 RMK SN8 SLP156

CYXE;2016-10-06 09:00;CYXE 060900Z 32015KT 3/4SM R09/5000VP6000FT/D -SN VV008 M02/M02 A2992 RMK SN8 SLP160

CYXE;2016-10-06 09:27;CYXE 060927Z 33017KT 3SM -SN OVC013 M02/M02 A2992 RMK SC8 SLP161

CYXE;2016-10-06 10:00;CYXE 061000Z 32014KT 1SM R09/P6000FT/D -SN VV008 M02/M02 A2993 RMK SN8 SLP164

CYXE;2016-10-06 11:00;CYXE 061100Z 32014G20KT 1 1/2SM -SN OVC010 M02/M02 A2994 RMK SC8 VIS VRB 1-2 SLP170

CYXE;2016-10-06 12:00;CYXE 061200Z 32014KT 1 1/2SM -SN OVC010 M02/M02 A2996 RMK SC8 SLP176

CYXE;2016-10-06 13:00;CYXE 061300Z 32014KT 1 1/2SM -SN OVC010 M02/M02 A2998 RMK SC8 VIS VRB 1-2 SLP183

CYXE;2016-10-06 14:00;CYXE 061400Z 32011KT 1SM R09/P6000FT/D -SN OVC010 M02/M02 A3000 RMK SC8 VIS VRB 1/2-11/2 SLP191

CYXE;2016-10-06 14:36;CYXE 061436Z 32013KT 1 1/2SM -SN VV009 M01/M02 A3002 RMK SN8 SLP195

CYXE;2016-10-06 15:00;CYXE 061500Z 32013KT 2 1/2SM -SN BKN008 OVC025 M01/M02 A3003 RMK SF5SC3 SLP198

CYXE;2016-10-06 15:33;CYXE 061533Z 32012KT 2 1/2SM -SN FEW009 OVC025 M01/M02 A3004 RMK SF2SC6 SLP203

CYXE;2016-10-06 16:00;CYXE 061600Z 34015KT 3SM -SN SCT011 OVC025 M01/M02 A3005 RMK SF3SC5 SLP208

CYXE;2016-10-06 17:00;CYXE 061700Z 34015KT 6SM -SN FEW011 SCT025 OVC065 M00/M02 A3008 RMK SF1SC3SC4 SLP215

CYXE;2016-10-06 17:47;CYXE 061747Z 34014G19KT 2 1/2SM -SN SCT012 OVC027 M00/M01 A3010 RMK SF3SC5 SLP222

CYXE;2016-10-06 18:00;CYXE 061800Z 34014KT 2 1/2SM -SN FEW012 OVC027 M00/M01 A3010 RMK SF2SC6 SLP223

CYXE;2016-10-06 18:16;CYXE 061816Z 34015KT 6SM -SN FEW012 OVC030 00/M02 A3011 RMK SF1SC7 SLP225

CYXE;2016-10-06 19:00;CYXE 061900Z 34015KT 3SM -SN SCT012 OVC030 00/M01 A3012 RMK SF4SC4 SLP231

CYXE;2016-10-06 20:00;CYXE 062000Z 34013KT 5SM -SN OVC025 01/M02 A3014 RMK SC8 SLP236

CYXE;2016-10-06 21:00;CYXE 062100Z 35011KT 10SM -SN SCT025 OVC070 01/M02 A3016 RMK SC4AC4 SLP242

CYXE;2016-10-06 22:00;CYXE 062200Z 34013KT 12SM -SN SCT025 OVC060 01/M01 A3017 RMK SC4SC4 SLP248

CYXE;2016-10-06 23:00;CYXE 062300Z 34012G17KT 8SM -SN FEW025 OVC060 00/M01 A3019 RMK SC2SC6 SLP253

CYXE;2016-10-07 00:00;CYXE 070000Z 33010KT 10SM -SN FEW025 OVC060 00/M01 A3021 RMK SC1SC7 SLP261

CYXE;2016-10-07 01:00;CYXE 070100Z 33010KT 10SM -SN OVC055 M00/M01 A3022 RMK SC8 SLP265

CYXE;2016-10-07 02:00;CYXE 070200Z 32009KT 5SM -SN OVC060 M01/M01 A3024 RMK SC8 SLP271

CYXE;2016-10-07 03:00;CYXE 070300Z 33008KT 8SM -SN OVC040 M01/M01 A3025 RMK SC8 SLP274

CYXE;2016-10-07 04:00;CYXE 070400Z 35008KT 15SM -SN SCT015 OVC160 M01/M01 A3025 RMK SC4AC4 SLP275

CYXE;2016-10-07 04:37;CYXE 070437Z 36009KT 10SM -SN BKN012 OVC160 M01/M01 A3026 RMK SC7AC1 SLP278

CYXE;2016-10-07 04:48;CYXE 070448Z 36009KT 10SM -SN OVC008 M01/M01 A3026 RMK SC8 SLP279

CYXE;2016-10-07 05:00;CYXE 070500Z 01007KT 10SM -SN OVC008 M01/M01 A3026 RMK SC8 SLP278

CYXE;2016-10-07 05:33;CYXE 070533Z 36005KT 15SM SCT008 OVC030 M01/M01 A3027 RMK SF4SC4 SLP280

CYXE;2016-10-07 05:50;CYXE 070550Z 01004KT 15SM -SN OVC007 M01/M01 A3027 RMK SC8 SLP282

CYXE;2016-10-07 06:00;CYXE 070600Z 35003KT 8SM -SN OVC007 M01/M01 A3027 RMK SC8 SLP282

CYXE;2016-10-07 07:00;CYXE 070700Z 32005KT 6SM -SN VV008 M01/M01 A3027 RMK SN8 SLP282

CYXE;2016-10-07 08:00;CYXE 070800Z 35010KT 3SM -SN VV010 M01/M01 A3027 RMK SN8 SLP281

CYXE;2016-10-07 09:00;CYXE 070900Z 34009KT 3SM -SN VV006 M01/M01 A3027 RMK SN8 SLP281

CYXE;2016-10-07 10:00;CYXE 071000Z 35008KT 15SM -SN SCT006 OVC040 M01/M01 A3027 RMK SF4SC4 SLP281

CYXE;2016-10-07 10:34;CYXE 071034Z 35009KT 10SM -SN OVC008 M01/M01 A3027 RMK SF8 CVCTV CLD EMBD SLP281

CYXE;2016-10-07 11:00;CYXE 071100Z 35008KT 15SM -SN BKN008 OVC023 M01/M01 A3027 RMK SF5SC3 SLP282

CYXE;2016-10-07 11:34;CYXE 071134Z 35008KT 15SM -SN FEW008 SCT023 OVC060 M01/M01 A3027 RMK SF2SC2SC4 SLP281

CYXE;2016-10-07 12:00;CYXE 071200Z 34006KT 15SM -SN FEW008 SCT060 OVC092 M02/M02 A3027 RMK SF1SC3AC4 SLP281

CYXE;2016-10-07 13:00;CYXE 071300Z 34006KT 15SM -SN FEW008 SCT035 OVC095 M02/M02 A3028 RMK SF1SC3AC4 SLP283

CYXE;2016-10-07 14:00;CYXE 071400Z CCA 31006KT 15SM -SN FEW008 BKN090 M03/M03 A3028 RMK SF1AS6 SLP284

CYXE;2016-10-07 15:00;CYXE 071500Z 32007KT 15SM FEW008 SCT045 BKN250 M03/M03 A3028 RMK SF1SC2CI4 SLP285

CYXE;2016-10-07 16:00;CYXE 071600Z 33006KT 15SM FEW008 SCT030 BKN250 M03/M03 A3028 RMK SF1SC2CI4 SLP285

CYXE;2016-10-07 17:00;CYXE 071700Z 36008KT 15SM FEW008 BKN020 BKN250 M00/M02 A3028 RMK SF1SC4CI2 SLP285

CYXE;2016-10-07 18:00;CYXE 071800Z 36007KT 15SM FEW010 BKN025 00/M02 A3027 RMK SC1SC6 SLP282

CYXE;2016-10-07 19:00;CYXE 071900Z 02007KT 15SM FEW010 OVC020 01/M03 A3026 RMK SC1SC7 SLP277

CYXE;2016-10-07 20:00;CYXE 072000Z 35005KT 15SM OVC016 00/M03 A3026 RMK SC8 SLP276

CYXE;2016-10-07 21:00;CYXE 072100Z 04005KT 15SM OVC015 00/M03 A3025 RMK SC8 SLP274

CYXE;2016-10-07 22:00;CYXE 072200Z 02005KT 360V070 15SM OVC017 00/M03 A3025 RMK SC8 SLP273

CYXE;2016-10-07 23:00;CYXE 072300Z 05008KT 15SM OVC017 00/M03 A3024 RMK SC8 SLP271

CYXE;2016-10-08 00:00;CYXE 080000Z 09006KT 15SM OVC017 M00/M02 A3024 RMK SC8 SLP272

CYXE;2016-10-08 01:00;CYXE 080100Z 10006KT 15SM OVC017 M00/M03 A3025 RMK SC8 SLP274

CYXE;2016-10-08 02:00;CYXE 080200Z 10003KT 15SM OVC022 M00/M02 A3025 RMK SC8 SLP275

CYXE;2016-10-08 03:00;CYXE 080300Z 04003KT 15SM OVC023 M00/M03 A3026 RMK SC8 SLP278

CYXE;2016-10-08 04:00;CYXE 080400Z 09007KT 15SM OVC027 00/M04 A3025 RMK SC8 SLP276

CYXE;2016-10-08 05:00;CYXE 080500Z 10005KT 15SM OVC025 M00/M03 A3025 RMK SC8 SLP275

CYXE;2016-10-08 06:00;CYXE 080600Z 06004KT 15SM BKN030 OVC100 M01/M03 A3026 RMK SC5AC3 SLP277

CYXE;2016-10-08 07:00;CYXE 080700Z 10004KT 15SM FEW030 BKN150 M02/M03 A3027 RMK SC2AC4 SLP282

CYXE;2016-10-08 08:00;CYXE 080800Z 08004KT 15SM SCT026 BKN150 M03/M03 A3028 RMK SC4AC3 SLP286

CYXE;2016-10-08 09:00;CYXE 080900Z 10004KT 15SM BKN025 M03/M04 A3029 RMK SC7 SLP288

CYXE;2016-10-08 10:00;CYXE 081000Z 10005KT 15SM OVC023 M01/M04 A3030 RMK SC8 SLP290

CYXE;2016-10-08 11:00;CYXE 081100Z 05006KT 15SM OVC023 M03/M03 A3031 RMK SC8 SLP295

CYXE;2016-10-08 11:39;CYXE 081139Z 07006KT 15SM FEW004 OVC023 M03/M03 A3032 RMK SF2SC6 SLP299

CYXE;2016-10-08 12:00;CYXE 081200Z 05005KT 15SM FEW003 OVC024 M04/M04 A3032 RMK SF2SC6 SLP299

CYXE;2016-10-08 12:39;CYXE 081239Z 05006KT 15SM -SN FEW003 OVC021 M04/M04 A3033 RMK SF1SC7 SLP303

CYXE;2016-10-08 13:00;CYXE 081300Z 05005KT 15SM -SHSN FEW003 OVC021 M04/M04 A3032 RMK SF1SC7 CVCTV CLD EMBD SLP302

CYXE;2016-10-08 14:00;CYXE 081400Z 07005KT 15SM -SHSN SCT016 OVC022 M03/M03 A3033 RMK SC3SC5 CVCTV CLD EMBD SLP302

CYXE;2016-10-08 15:00;CYXE 081500Z 08002KT 15SM -SHSN FEW011 OVC021 M02/M02 A3033 RMK SC2SC6 CVCTV CLD EMBD SLP304

CYXE;2016-10-08 15:52;CYXE 081552Z 14007KT 15SM FEW014 OVC020 M01/M03 A3034 RMK SC2SC6 SLP306

CYXE;2016-10-08 16:00;CYXE 081600Z 13007KT 15SM FEW012 OVC020 M01/M03 A3034 RMK SC2SC6 SLP305

CYXE;2016-10-08 17:00;CYXE 081700Z 15009KT 110V170 15SM OVC018 M01/M03 A3034 RMK SC8 CIG RAG SLP305

CYXE;2016-10-08 18:00;CYXE 081800Z 12010KT 15SM OVC016 M00/M03 A3033 RMK SC8 CIG RAG SLP302

CYXE;2016-10-08 19:00;CYXE 081900Z 13008KT 15SM OVC015 M01/M03 A3033 RMK SC8 CIG RAG SLP302

CYXE;2016-10-08 20:00;CYXE 082000Z 16011KT 110V170 15SM OVC013 M01/M03 A3032 RMK SC8 CIG RAG SLP298

CYXE;2016-10-08 21:00;CYXE 082100Z 16010KT 15SM OVC014 M01/M03 A3030 RMK SC8 SLP292

CYXE;2016-10-08 22:00;CYXE 082200Z 15012KT 15SM OVC013 M01/M03 A3027 RMK SC8 SLP282

CYXE;2016-10-08 23:00;CYXE 082300Z 15014KT 15SM OVC015 M00/M03 A3027 RMK SC8 SLP281

CYXE;2016-10-09 00:00;CYXE 090000Z 14013G19KT 15SM OVC015 M00/M03 A3024 RMK SC8 SLP272

CYXE;2016-10-09 01:00;CYXE 090100Z 13011G18KT 15SM BKN015 M01/M03 A3023 RMK SC5 SLP268

CYXE;2016-10-09 02:00;CYXE 090200Z 11012G17KT 15SM SCT015 BKN140 M01/M03 A3018 RMK SC3AC4 SLP254

CYXE;2016-10-09 03:00;CYXE 090300Z 12014KT 15SM SCT025 OVC042 M00/M02 A3014 RMK SC3SC5 SLP236

CYXE;2016-10-09 04:00;CYXE 090400Z 12014G21KT 15SM BKN025 OVC040 00/M02 A3012 RMK SC5SC3 SLP230

CYXE;2016-10-09 04:25;CYXE 090425Z 12016G22KT 5SM -SN OVC025 00/M02 A3010 RMK SC8 SLP224

CYXE;2016-10-09 04:51;CYXE 090451Z 12015KT 2 1/2SM -SN OVC022 M00/M01 A3009 RMK SC8 SLP219

CYXE;2016-10-09 05:06;CYXE 090506Z 12017G22KT 1SM R09/P6000FT/D -SN VV006 M00/M00 A3007 RMK SN8 PRESFR SLP213

CYXE;2016-10-09 06:00;CYXE 090600Z 12020G28KT 1SM R09/P6000FT/U -SN VV006 00/00 A3003 RMK SN8 PRESFR SLP199

CYXE;2016-10-09 06:35;CYXE 090635Z 12022G29KT 2SM SCT006 OVC037 00/00 A3000 RMK SF4SC4 VIS VRB 1-2 SLP189

CYXE;2016-10-09 06:46;CYXE 090646Z 12022G28KT 3SM -FZRA -SN OVC010 00/00 A2999 RMK SC8 PRESFR SLP185

CYXE;2016-10-09 07:00;CYXE 090700Z 12022G27KT 6SM -FZRA -SN OVC010 00/00 A2998 RMK SC8 PRESFR SLP180

CYXE;2016-10-09 07:47;CYXE 090747Z 12017G24KT 6SM -RASN BKN010 OVC030 01/01 A2996 RMK SC6SC2 SLP176

CYXE;2016-10-09 08:00;CYXE 090800Z 12019G26KT 6SM -RASN BKN012 OVC030 00/00 A2994 RMK SC6SC2 PRESFR SLP168

CYXE;2016-10-09 09:00;CYXE 090900Z 12018G23KT 15SM -RA SCT012 OVC030 01/01 A2991 RMK SF3SC5 SLP157

CYXE;2016-10-09 10:00;CYXE 091000Z 12020G28KT 15SM -RA BKN010 OVC030 01/01 A2987 RMK SC5SC3 SLP142

CYXE;2016-10-09 11:00;CYXE 091100Z 12021KT 15SM -RA SCT010 OVC028 01/01 A2982 RMK SF4SC4 PRESFR SLP126

CYXE;2016-10-09 11:23;CYXE 091123Z 11018G24KT 15SM SCT010 OVC028 01/01 A2981 RMK SF4SC4 SLP123

CYXE;2016-10-09 12:00;CYXE 091200Z 12018G25KT 15SM SCT010 OVC024 01/01 A2978 RMK SF4SC4 PRESFR SLP111

CYXE;2016-10-09 12:20;CYXE 091220Z 12017G23KT 15SM BKN008 OVC024 01/01 A2977 RMK SF6SC2 SLP108

CYXE;2016-10-09 13:00;CYXE 091300Z 12017KT 15SM BKN009 OVC023 01/01 A2975 RMK SF6SC2 SLP102

CYXE;2016-10-09 14:00;CYXE 091400Z 12014G19KT 15SM OVC008 01/01 A2971 RMK ST8 SLP089

CYXE;2016-10-09 15:00;CYXE 091500Z 13012KT 15SM OVC007 02/02 A2970 RMK ST8 SLP083

CYXE;2016-10-09 15:48;CYXE 091548Z 12013G20KT 15SM -RA BKN005 OVC080 02/02 A2966 RMK ST6AC2 SLP069

CYXE;2016-10-09 16:00;CYXE 091600Z 12012KT 15SM -RA BKN005 OVC070 02/02 A2967 RMK SF5AC3 SLP072

CYXE;2016-10-09 17:00;CYXE 091700Z 11004KT 15SM -RA OVC007 02/02 A2967 RMK ST8 SLP072

CYXE;2016-10-09 18:00;CYXE 091800Z 08003KT 8SM -RA OVC006 02/02 A2965 RMK ST8 SLP068

CYXE;2016-10-09 19:00;CYXE 091900Z 35007KT 5SM -RA BR BKN005 OVC040 02/02 A2966 RMK ST6SC2 PRESFR SLP070

CYXE;2016-10-09 20:00;CYXE 092000Z 30005KT 8SM -RA BKN005 OVC025 02/02 A2968 RMK ST6SC2 SLP077

CYXE;2016-10-09 20:39;CYXE 092039Z 30016KT 15SM OVC005 01/01 A2972 RMK ST8 PRESRR SLP091

CYXE;2016-10-09 21:00;CYXE 092100Z 30017KT 15SM OVC005 01/01 A2974 RMK ST8 PRESRR SLP096

CYXE;2016-10-09 22:00;CYXE 092200Z 30014KT 15SM OVC007 02/01 A2977 RMK SF8 SLP108

CYXE;2016-10-09 23:00;CYXE 092300Z 29019KT 15SM OVC008 02/01 A2979 RMK SF8 SLP115

CYXE;2016-10-09 23:21;CYXE 092321Z 29017G23KT 15SM SCT008 OVC018 02/00 A2981 RMK SF3SC5 SLP122

CYXE;2016-10-10 00:00;CYXE 100000Z 29018G24KT 15SM BKN016 BKN045 01/00 A2983 RMK SC5SC2 SLP129

CYXE;2016-10-10 01:00;CYXE 100100Z 29018KT 15SM BKN018 BKN200 01/M01 A2987 RMK SC5CI1 CI TR SLP140

CYXE;2016-10-10 02:00;CYXE 100200Z 29016G23KT 15SM BKN022 01/M01 A2988 RMK SC7 SLP146

CYXE;2016-10-10 03:00;CYXE 100300Z 29020G26KT 15SM OVC017 01/M01 A2991 RMK SC8 SLP154

CYXE;2016-10-10 04:00;CYXE 100400Z 29016G22KT 15SM BKN015 01/M01 A2992 RMK SC5 SLP159

CYXE;2016-10-10 05:00;CYXE 100500Z 29016KT 15SM BKN017 01/M01 A2995 RMK SC7 SLP168

CYXE;2016-10-10 06:00;CYXE 100600Z 30013G20KT 15SM BKN018 00/M01 A2997 RMK SC7 SLP177

CYXE;2016-10-10 07:00;CYXE 100700Z 30013G18KT 15SM BKN017 00/M01 A2999 RMK SC7 SLP182

CYXE;2016-10-10 08:00;CYXE 100800Z 29011KT 15SM FEW017 M01/M02 A3000 RMK SC2 SLP188

CYXE;2016-10-10 09:00;CYXE 100900Z 31013KT 15SM FEW017 M01/M02 A3004 RMK SC2 SLP200

CYXE;2016-10-10 10:00;CYXE 101000Z 31010KT 15SM FEW014 BKN200 M01/M02 A3005 RMK SC2CI3 SLP203

CYXE;2016-10-10 11:00;CYXE 101100Z 32007KT 15SM OVC022 M01/M02 A3007 RMK SC8 SLP210

CYXE;2016-10-10 12:00;CYXE 101200Z 32007KT 15SM OVC020 M01/M02 A3006 RMK SC8 SLP208

CYXE;2016-10-10 13:00;CYXE 101300Z 32006KT 15SM OVC020 M01/M02 A3008 RMK SC8 SLP214

CYXE;2016-10-10 14:00;CYXE 101400Z 34008KT 15SM OVC022 M01/M02 A3009 RMK SC8 SLP219

CYXE;2016-10-10 15:00;CYXE 101500Z 01009KT 15SM OVC019 M01/M02 A3009 RMK SC8 SLP220

CYXE;2016-10-10 16:00;CYXE 101600Z 02012KT 15SM OVC021 M00/M02 A3009 RMK SC8 SLP218

CYXE;2016-10-10 17:00;CYXE 101700Z 01011KT 15SM OVC018 M00/M02 A3013 RMK SC8 SLP231

CYXE;2016-10-10 17:46;CYXE 101746Z 04007KT 15SM -SN OVC014 M00/M02 A3015 RMK SC8 SLP238

CYXE;2016-10-10 18:00;CYXE 101800Z 03006KT 15SM -SN BKN014 OVC023 M00/M02 A3015 RMK SC6SC2 SLP238

CYXE;2016-10-10 19:00;CYXE 101900Z 02010KT 15SM -SN BKN014 OVC020 00/M02 A3014 RMK SC6SC2 SLP236

CYXE;2016-10-10 19:52;CYXE 101952Z 02010KT 15SM OVC019 00/M02 A3016 RMK SC8 SLP241

CYXE;2016-10-10 20:00;CYXE 102000Z 01009KT 15SM OVC020 00/M02 A3016 RMK SC8 SLP242

CYXE;2016-10-10 21:00;CYXE 102100Z 02011KT 15SM OVC020 01/M02 A3016 RMK SC8 SLP244

CYXE;2016-10-10 22:00;CYXE 102200Z 02008KT 12SM -SN FEW014 OVC020 01/M02 A3019 RMK SF1SC7 SLP253

CYXE;2016-10-10 23:00;CYXE 102300Z 01008KT 12SM -SN OVC018 00/M01 A3019 RMK SC8 SLP253

CYXE;2016-10-11 00:00;CYXE 110000Z 36009KT 12SM -SN FEW011 OVC024 00/M01 A3021 RMK SF2SC6 SLP259

CYXE;2016-10-11 00:40;CYXE 110040Z 36008KT 15SM -SG FEW011 OVC110 M00/M00 A3021 RMK SF1AC7 SLP261

CYXE;2016-10-11 01:00;CYXE 110100Z 36006KT 12SM -SG SCT050 OVC100 M00/M00 A3022 RMK SC3AS5 SLP263

CYXE;2016-10-11 01:47;CYXE 110147Z 36005KT 3SM -SG SCT025 OVC042 M00/M00 A3023 RMK SC3SC5 SLP268

CYXE;2016-10-11 02:00;CYXE 110200Z 36006KT 3SM -SG BKN025 OVC042 M00/M00 A3023 RMK SC6SC2 SLP269

CYXE;2016-10-11 03:00;CYXE 110300Z 36003KT 3SM -SN FEW007 OVC014 M01/M01 A3024 RMK SF1SC7 SLP271

CYXE;2016-10-11 03:24;CYXE 110324Z 36004KT 3SM -SN FEW003 BKN006 OVC020 M01/M01 A3025 RMK SF1SF4SC3 SLP273

CYXE;2016-10-11 04:00;CYXE 110400Z 35004KT 3SM -SN SCT003 BKN007 OVC022 M01/M01 A3025 RMK SF3SF3SC2 SLP274

CYXE;2016-10-11 05:00;CYXE 110500Z 36006KT 3SM -SN SCT003 OVC022 M01/M01 A3025 RMK SF4SC4 SLP273

CYXE;2016-10-11 06:00;CYXE 110600Z 35005KT 3SM -SN BKN015 OVC042 M01/M01 A3025 RMK SC5SC3 SLP274

CYXE;2016-10-11 07:00;CYXE 110700Z 35006KT 3SM -SN BKN017 OVC042 M01/M01 A3025 RMK SC5SC3 SLP273

CYXE;2016-10-11 08:00;CYXE 110800Z 34005KT 3SM -SN SCT011 OVC044 M02/M02 A3024 RMK SC4SC4 SLP272

CYXE;2016-10-11 08:26;CYXE 110826Z 34004KT 3SM -SN OVC009 M01/M01 A3025 RMK SC8 SLP273

CYXE;2016-10-11 09:00;CYXE 110900Z 34004KT 3SM -SN OVC009 M01/M01 A3025 RMK SC8 SLP273

CYXE;2016-10-11 10:00;CYXE 111000Z 34005KT 3SM -SN OVC010 M02/M02 A3025 RMK SC8 SLP274

CYXE;2016-10-11 11:00;CYXE 111100Z 32006KT 3SM -SN SCT010 OVC024 M02/M02 A3026 RMK SF4SC4 SLP277

CYXE;2016-10-11 12:00;CYXE 111200Z 33006KT 3SM -SN SCT010 OVC026 M02/M02 A3026 RMK SF4SC4 SLP278

CYXE;2016-10-11 13:00;CYXE 111300Z 32006KT 3SM -SN BKN008 OVC020 M02/M02 A3027 RMK SC6SC2 SLP280

CYXE;2016-10-11 14:00;CYXE 111400Z 33008KT 3SM -SN BKN012 OVC018 M02/M02 A3028 RMK SC6SC2 SLP285

CYXE;2016-10-11 14:30;CYXE 111430Z 33008KT 3SM -SN BKN008 OVC018 M02/M02 A3028 RMK SC6SC2 SLP285

CYXE;2016-10-11 15:00;CYXE 111500Z 35010KT 15SM -SN FEW008 SCT018 OVC030 M02/M03 A3028 RMK SC1SC3SC4 SLP286

CYXE;2016-10-11 15:36;CYXE 111536Z 34009KT 15SM FEW010 OVC030 M02/M03 A3029 RMK SC1SC7 SLP289

CYXE;2016-10-11 16:00;CYXE 111600Z 34010KT 15SM FEW010 BKN030 M02/M03 A3029 RMK SC1SC6 SLP290

CYXE;2016-10-11 17:00;CYXE 111700Z 34006KT 15SM FEW010 BKN035 M01/M04 A3030 RMK SC1SC6 SLP292

CYXE;2016-10-11 18:00;CYXE 111800Z 33009KT 15SM FEW012 BKN035 M01/M04 A3030 RMK SC1SC6 SLP291

CYXE;2016-10-11 19:00;CYXE 111900Z 33007KT 15SM SCT020 BKN040 M00/M05 A3028 RMK SC3SC4 SLP286

CYXE;2016-10-11 20:00;CYXE 112000Z 32009KT 15SM BKN025 OVC040 M00/M05 A3027 RMK SC6SC2 SLP281

CYXE;2016-10-11 21:00;CYXE 112100Z 31006KT 15SM OVC035 M00/M06 A3026 RMK SC8 SLP279

CYXE;2016-10-11 22:00;CYXE 112200Z 30009KT 15SM FEW020 OVC033 M00/M05 A3026 RMK SF1SC7 SLP279

CYXE;2016-10-11 23:00;CYXE 112300Z 27006KT 15SM OVC034 M00/M04 A3027 RMK SC8 SLP280

CYXE;2016-10-12 00:00;CYXE 120000Z 27009KT 15SM FEW025 OVC035 M00/M03 A3026 RMK SF2SC6 SLP279

CYXE;2016-10-12 01:00;CYXE 120100Z 27007KT 15SM OVC034 M01/M03 A3026 RMK SC8 SLP279

CYXE;2016-10-12 02:00;CYXE 120200Z 25007KT 15SM OVC030 M01/M02 A3026 RMK SC8 SLP280

CYXE;2016-10-12 03:00;CYXE 120300Z 24007KT 15SM OVC034 M01/M03 A3025 RMK SC8 SLP274

CYXE;2016-10-12 04:00;CYXE 120400Z 25006KT 15SM OVC024 M01/M03 A3024 RMK SC8 SLP272

CYXE;2016-10-12 05:00;CYXE 120500Z 26008KT 15SM OVC033 M01/M03 A3023 RMK SC8 SLP269

CYXE;2016-10-12 06:00;CYXE 120600Z 26007KT 15SM OVC034 M01/M04 A3023 RMK SC8 SLP266

CYXE;2016-10-12 07:00;CYXE 120700Z 24004KT 15SM BKN036 M02/M04 A3020 RMK SC7 SLP258

CYXE;2016-10-12 08:00;CYXE 120800Z 22006KT 15SM SCT036 M03/M05 A3018 RMK SC4 SLP252

CYXE;2016-10-12 09:00;CYXE 120900Z 22006KT 15SM SKC M04/M05 A3017 RMK SLP247

CYXE;2016-10-12 10:00;CYXE 121000Z 22009KT 15SM SKC M03/M03 A3015 RMK SLP242

CYXE;2016-10-12 11:00;CYXE 121100Z 22009KT 15SM SKC M04/M04 A3013 RMK SLP236

CYXE;2016-10-12 12:00;CYXE 121200Z 23008KT 15SM SKC M04/M05 A3012 RMK SLP232

CYXE;2016-10-12 13:00;CYXE 121300Z 22010KT 15SM SKC M04/M05 A3009 RMK SLP222

CYXE;2016-10-12 14:00;CYXE 121400Z 22010KT 15SM SCT270 M04/M06 A3007 RMK CI4 SLP216

CYXE;2016-10-12 15:00;CYXE 121500Z 25008KT 15SM BKN280 M03/M05 A3007 RMK CI7 SLP214

CYXE;2016-10-12 16:00;CYXE 121600Z 25012KT 15SM OVC250 M03/M05 A3006 RMK CI8 SLP211

CYXE;2016-10-12 17:00;CYXE 121700Z 24011KT 15SM SCT180 OVC250 M02/M05 A3005 RMK AC4CI4 SLP207

CYXE;2016-10-12 18:00;CYXE 121800Z 24009KT 15SM SCT180 BKN250 M01/M04 A3004 RMK CI3CI4 SLP203

CYXE;2016-10-12 19:00;CYXE 121900Z 25009KT 15SM FEW190 BKN260 01/M04 A3003 RMK CI2CI5 SLP200

CYXE;2016-10-12 20:00;CYXE 122000Z 23009KT 15SM SCT270 01/M04 A3002 RMK CI4 SLP195

CYXE;2016-10-12 21:00;CYXE 122100Z 26009KT 15SM FEW270 02/M03 A3001 RMK CI2 SLP192

CYXE;2016-10-12 22:00;CYXE 122200Z 27004KT 15SM FEW270 02/M04 A3000 RMK CI1 SLP190

CYXE;2016-10-12 23:00;CYXE 122300Z 30002KT 15SM FEW270 02/M04 A3001 RMK CI2 SLP191

CYXE;2016-10-13 00:00;CYXE 130000Z 31006KT 15SM FEW160 M01/M05 A3001 RMK AC2 SLP195

CYXE;2016-10-13 01:00;CYXE 130100Z 33004KT 15SM FEW180 SCT270 M01/M04 A3002 RMK AC1CI2 SLP197

CYXE;2016-10-13 02:00;CYXE 130200Z 35005KT 15SM FEW150 SCT270 M04/M05 A3004 RMK AC2CI1 SLP205

CYXE;2016-10-13 03:00;CYXE 130300Z 35004KT 15SM BKN045 M03/M04 A3004 RMK SC7 SLP205

CYXE;2016-10-13 04:00;CYXE 130400Z 00000KT 15SM BKN045 M03/M04 A3005 RMK SC6 SLP207

CYXE;2016-10-13 05:00;CYXE 130500Z 29002KT 15SM BCFG FEW045 M04/M04 A3005 RMK SC1 SLP208

CYXE;2016-10-13 06:00;CYXE 130600Z 31002KT 15SM MIFG FEW045 M04/M04 A3006 RMK SC1 SLP212

CYXE;2016-10-13 06:50;CYXE 130650Z 34003KT 15SM R09/3000VP6000FT/D BCFG SKC M05/M05 A3006 RMK BCFG W QUAD SLP213

CYXE;2016-10-13 07:00;CYXE 130700Z 33003KT 15SM R09/3000VP6000FT/U BCFG SKC M07/M07 A3007 RMK BCFG W QUAD SLP215

CYXE;2016-10-13 08:00;CYXE 130800Z 00000KT 15SM BCFG FEW100 M08/M08 A3007 RMK AC1 BCFG W QUAD SLP215

CYXE;2016-10-13 09:00;CYXE 130900Z 00000KT 5SM R09/2600FT/N BR SCT170 M08/M09 A3006 RMK AC3 BCFG OVER THRESHOLD RWY 09 SLP213

CYXE;2016-10-13 10:00;CYXE 131000Z 09002KT 5SM R09/3000VP6000FT/U BR SCT160 M07/M08 A3006 RMK AC3 SLP212

CYXE;2016-10-13 11:00;CYXE 131100Z 15002KT 5SM R09/4500VP6000FT/D BR BKN160 M07/M07 A3006 RMK AC6 SLP213

CYXE;2016-10-13 11:25;CYXE 131125Z 11002KT 5SM R09/2600FT/N BR BCFG BKN160 M08/M09 A3006 RMK AC6 BCFG OVER THRESHOLD RWY09 SLP211

CYXE;2016-10-13 12:00;CYXE 131200Z 06004KT 5SM R09/4500VP6000FT/U BR BCFG FEW160 M07/M07 A3006 RMK AC2 BCFG W QUAD SLP212

CYXE;2016-10-13 13:00;CYXE 131300Z 07006KT 15SM FEW160 BKN220 M08/M08 A3005 RMK AC1CI4 BCFG SLP209

CYXE;2016-10-13 14:00;CYXE 131400Z 09005KT 15SM SCT220 M07/M07 A3004 RMK CI4 SLP207

CYXE;2016-10-13 15:00;CYXE 131500Z 12010KT 15SM SCT250 M03/M03 A3003 RMK CI4 SLP203

CYXE;2016-10-13 16:00;CYXE 131600Z 11009KT 15SM BKN250 M03/M03 A3002 RMK CI6 SLP200

CYXE;2016-10-13 17:00;CYXE 131700Z 13008KT 15SM SCT250 M02/M02 A3001 RMK CI3 SLP195

CYXE;2016-10-13 18:00;CYXE 131800Z 12011G18KT 15SM FEW250 M00/M04 A2996 RMK CI2 SLP178

CYXE;2016-10-13 19:00;CYXE 131900Z 13014KT 15SM FEW250 02/M04 A2995 RMK CI2 SLP172

CYXE;2016-10-13 20:03;CYXE 132003Z 12018G23KT 15SM FEW150 BKN250 02/M04 A2989 RMK AC2CI5 PRESFR SLP154

CYXE;2016-10-13 21:00;CYXE 132100Z 13018G24KT 15SM BKN160 BKN250 03/M04 A2984 RMK AC5CI2 PRESFR SLP135

CYXE;2016-10-13 22:00;CYXE 132200Z 12018KT 15SM SCT160 BKN250 03/M04 A2980 RMK AC4CI3 PRESFR SLP121

CYXE;2016-10-13 23:00;CYXE 132300Z 11012G18KT 15SM OVC140 03/M03 A2978 RMK AC8 SLP113

CYXE;2016-10-14 00:00;CYXE 140000Z 11012KT 15SM OVC080 03/M02 A2974 RMK AC8 VIRGA SLP099

CYXE;2016-10-14 01:00;CYXE 140100Z 11013G20KT 15SM OVC080 03/M02 A2969 RMK AC8 SLP086

CYXE;2016-10-14 02:00;CYXE 140200Z 11017G23KT 15SM OVC080 03/M01 A2964 RMK AC8 SLP067

CYXE;2016-10-14 03:00;CYXE 140300Z 12013G22KT 15SM OVC080 03/M01 A2961 RMK AC8 SLP054

CYXE;2016-10-14 04:00;CYXE 140400Z 13014KT 15SM OVC100 03/M01 A2956 RMK AC8 SLP038

CYXE;2016-10-14 05:00;CYXE 140500Z 11006KT 15SM OVC100 03/M01 A2955 RMK AC8 SLP031

CYXE;2016-10-14 06:00;CYXE 140600Z 10009KT 15SM OVC100 02/M00 A2951 RMK AC8 SLP017

CYXE;2016-10-14 07:00;CYXE 140700Z 12006KT 15SM SCT100 OVC240 02/M00 A2947 RMK AC4CS4 SLP005

CYXE;2016-10-14 08:00;CYXE 140800Z 11006KT 15SM FEW100 OVC240 01/M01 A2948 RMK AC2CS6 SLP006

CYXE;2016-10-14 09:00;CYXE 140900Z 11005KT 15SM BKN240 01/M00 A2946 RMK CS5 SLP998

CYXE;2016-10-14 10:00;CYXE 141000Z 05002KT 15SM SCT240 M01/M01 A2945 RMK CS4 SLP998

CYXE;2016-10-14 11:00;CYXE 141100Z 02007KT 15SM SCT240 M02/M02 A2944 RMK CS3 SLP995

CYXE;2016-10-14 12:00;CYXE 141200Z 04006KT 15SM SCT240 M01/M01 A2945 RMK CI3 SLP999

CYXE;2016-10-14 13:00;CYXE 141300Z 04008KT 15SM BKN220 M01/M01 A2945 RMK CI6 SLP996

CYXE;2016-10-14 14:00;CYXE 141400Z 05010KT 15SM BKN200 M01/M01 A2944 RMK CI7 SLP994

CYXE;2016-10-14 14:37;CYXE 141437Z 07010KT 15SM FEW004 OVC190 M01/M01 A2942 RMK SF2CI6 SLP989

CYXE;2016-10-14 15:00;CYXE 141500Z 08008KT 15SM FEW004 BKN150 OVC200 M00/M01 A2944 RMK SF2AC4CI2 SLP994

CYXE;2016-10-14 16:00;CYXE 141600Z 05011KT 15SM FEW004 BKN090 OVC190 M00/M00 A2942 RMK SF2AC5CI1 SLP987

CYXE;2016-10-14 17:00;CYXE 141700Z 06010KT 15SM FEW004 BKN065 OVC150 01/00 A2940 RMK SF1SC6AC1 SLP979

CYXE;2016-10-14 17:41;CYXE 141741Z 06010KT 15SM -RA FEW004 OVC050 01/01 A2941 RMK SF1SC7 SLP981

CYXE;2016-10-14 18:00;CYXE 141800Z 06011KT 10SM -RA FEW004 OVC050 01/01 A2941 RMK SF1SC7 SLP982

CYXE;2016-10-14 19:00;CYXE 141900Z 06014KT 12SM -RA SCT005 OVC050 01/01 A2937 RMK SF4SC4 SLP968

CYXE;2016-10-14 19:19;CYXE 141919Z 08012KT 12SM -RA BKN007 OVC050 02/02 A2936 RMK SC6SC2 SLP965

CYXE;2016-10-14 20:00;CYXE 142000Z 07011KT 15SM -RA OVC006 02/02 A2934 RMK SC8 SLP960

CYXE;2016-10-14 20:39;CYXE 142039Z 08012KT 15SM OVC007 02/02 A2932 RMK SC8 SLP951

CYXE;2016-10-14 21:00;CYXE 142100Z 08012KT 15SM OVC008 03/02 A2931 RMK SC8 SLP948

CYXE;2016-10-14 22:00;CYXE 142200Z 09011KT 15SM OVC007 03/03 A2928 RMK SC8 SLP939

CYXE;2016-10-14 22:41;CYXE 142241Z 09011KT 10SM -RA OVC006 03/03 A2925 RMK SC8 SLP929

CYXE;2016-10-14 23:00;CYXE 142300Z 10010KT 10SM -RA OVC006 03/03 A2925 RMK SC8 SLP929

CYXE;2016-10-14 23:29;CYXE 142329Z 10012KT 10SM BKN006 OVC080 03/03 A2922 RMK SC6AC2 BR SLP920

CYXE;2016-10-14 23:49;CYXE 142349Z 10012KT 10SM SCT006 BKN070 03/03 A2920 RMK SC4AC2 BR PRESFR SLP911

CYXE;2016-10-15 00:00;CYXE 150000Z 11012KT 10SM SCT006 BKN070 04/04 A2919 RMK SC4AC2 BR PRESFR SLP909

CYXE;2016-10-15 01:00;CYXE 150100Z 21008KT 15SM FEW030 SCT070 04/04 A2918 RMK SC2AC1 PRESRR SLP903

CYXE;2016-10-15 02:00;CYXE 150200Z 26023G29KT 15SM BKN016 05/04 A2921 RMK SC7 SLP915

CYXE;2016-10-15 02:35;CYXE 150235Z 27021G28KT 15SM BKN012 OVC022 03/02 A2924 RMK SC5SC3 SLP925

CYXE;2016-10-15 03:05;CYXE 150305Z 27025KT 15SM BKN014 BKN022 02/00 A2926 RMK SC5SC2 SLP932

CYXE;2016-10-15 04:00;CYXE 150400Z 28020G27KT 15SM BKN017 02/M00 A2930 RMK SC7 SLP946

CYXE;2016-10-15 04:45;CYXE 150445Z 30018G25KT 15SM BKN011 01/00 A2932 RMK SC7 SLP954

CYXE;2016-10-15 05:00;CYXE 150500Z 29016G23KT 15SM BKN011 01/00 A2933 RMK SC7 SLP958

CYXE;2016-10-15 05:11;CYXE 150511Z 29016G24KT 15SM OVC008 01/01 A2934 RMK SC8 SLP962

CYXE;2016-10-15 06:00;CYXE 150600Z 30015KT 15SM OVC007 01/01 A2938 RMK SC8 SLP973

CYXE;2016-10-15 06:50;CYXE 150650Z 30011G17KT 15SM SCT007 OVC012 00/00 A2942 RMK SF4SF4 SLP986

CYXE;2016-10-15 07:00;CYXE 150700Z 30010KT 15SM SCT007 OVC012 00/00 A2942 RMK SF3SF5 SLP989

CYXE;2016-10-15 08:00;CYXE 150800Z 35010KT 15SM FEW008 OVC013 00/M01 A2946 RMK SF1SF7 SLP001

CYXE;2016-10-15 08:45;CYXE 150845Z 35009G16KT 15SM BKN013 M01/M03 A2949 RMK SF5 SLP011

CYXE;2016-10-15 09:00;CYXE 150900Z 36008KT 15SM FEW013 M01/M03 A2949 RMK SF2 SLP012

CYXE;2016-10-15 10:00;CYXE 151000Z 31006KT 15SM SCT014 BKN210 M04/M04 A2953 RMK SF4CI1 PRESRR SLP026

CYXE;2016-10-15 11:00;CYXE 151100Z 35004KT 15SM SCT016 BKN210 M03/M04 A2955 RMK SF4CI2 SLP033

CYXE;2016-10-15 12:00;CYXE 151200Z 32003KT 260V360 15SM BKN014 M02/M03 A2958 RMK SF6 SLP043

CYXE;2016-10-15 13:00;CYXE 151300Z 03004KT 15SM BKN018 M03/M04 A2960 RMK SC6 SLP048

CYXE;2016-10-15 14:00;CYXE 151400Z 06004KT 15SM FEW003 SCT120 BKN220 M03/M04 A2961 RMK SC2AC2CI3 SLP054

CYXE;2016-10-15 15:00;CYXE 151500Z 06007KT 15SM BKN012 BKN120 M02/M03 A2963 RMK SC6AC1 SLP061

CYXE;2016-10-15 16:00;CYXE 151600Z 05007KT 15SM BKN012 M02/M04 A2964 RMK SC7 SLP065

CYXE;2016-10-15 17:00;CYXE 151700Z 10008KT 060V120 15SM BKN012 M01/M03 A2966 RMK SC7 SLP070

CYXE;2016-10-15 18:00;CYXE 151800Z 12010KT 15SM OVC013 M01/M03 A2967 RMK SC8 SLP075

CYXE;2016-10-15 19:00;CYXE 151900Z 11009KT 15SM OVC014 M00/M03 A2966 RMK SC8 SLP071

CYXE;2016-10-15 20:00;CYXE 152000Z 11010KT 15SM OVC014 00/M02 A2966 RMK SC8 SLP072

CYXE;2016-10-15 21:00;CYXE 152100Z 08009KT 15SM OVC016 01/M02 A2967 RMK SC8 SLP075

CYXE;2016-10-15 22:00;CYXE 152200Z 08010KT 15SM OVC017 01/M02 A2967 RMK SC8 SLP076

CYXE;2016-10-15 23:00;CYXE 152300Z 08009KT 15SM OVC018 01/M02 A2969 RMK SC8 SLP081

CYXE;2016-10-16 00:00;CYXE 160000Z 06011KT 15SM OVC019 00/M02 A2970 RMK SC8 SLP085

CYXE;2016-10-16 01:00;CYXE 160100Z 07010KT 15SM OVC020 M00/M01 A2970 RMK SC8 SLP088

CYXE;2016-10-16 02:00;CYXE 160200Z 07011KT 15SM BKN023 BKN120 M01/M02 A2972 RMK SC5AC2 SLP095

CYXE;2016-10-16 03:00;CYXE 160300Z 08010KT 15SM FEW023 M02/M02 A2972 RMK SC2 SLP094

CYXE;2016-10-16 04:00;CYXE 160400Z 07010KT 15SM FEW250 M02/M02 A2971 RMK CI2 SLP092

CYXE;2016-10-16 05:00;CYXE 160500Z 07011KT 15SM SCT180 M02/M02 A2969 RMK CI3 SLP084

CYXE;2016-10-16 06:00;CYXE 160600Z 06013KT 15SM SCT200 M03/M03 A2967 RMK CI3 SLP078

CYXE;2016-10-16 07:00;CYXE 160700Z 06011KT 15SM SCT200 M03/M03 A2966 RMK CI4 SLP074

CYXE;2016-10-16 08:00;CYXE 160800Z 06011KT 15SM BKN230 M03/M03 A2964 RMK CI5 SLP064

CYXE;2016-10-16 09:00;CYXE 160900Z 07010KT 15SM BKN230 M03/M03 A2962 RMK CI6 SLP057

CYXE;2016-10-16 10:00;CYXE 161000Z 07008KT 15SM OVC200 M02/M02 A2959 RMK CS8 SLP046

CYXE;2016-10-16 11:00;CYXE 161100Z 07007KT 15SM OVC160 M01/M01 A2956 RMK AS8 PRESFR SLP038

CYXE;2016-10-16 12:00;CYXE 161200Z 08008KT 15SM OVC100 M00/M01 A2954 RMK AC8 PRESFR SLP030

CYXE;2016-10-16 12:30;CYXE 161230Z 09008KT 12SM -RA OVC075 00/M01 A2953 RMK AC8 SLP026

CYXE;2016-10-16 13:00;CYXE 161300Z 08009KT 15SM -RA BKN065 OVC090 00/00 A2951 RMK SC6AC2 SLP021

CYXE;2016-10-16 14:00;CYXE 161400Z 07013KT 15SM -RA FEW012 SCT060 OVC090 00/00 A2947 RMK SF2SC1AC5 SLP008

CYXE;2016-10-16 14:47;CYXE 161447Z 07014KT 15SM FEW010 OVC090 01/01 A2944 RMK SF2AC6 PRESFR SLP994

CYXE;2016-10-16 15:00;CYXE 161500Z 08016KT 15SM FEW010 OVC090 01/01 A2943 RMK SF2AC6 SLP993

CYXE;2016-10-16 15:50;CYXE 161550Z 09016G22KT 15SM -RA SCT010 OVC075 01/01 A2940 RMK SF3AC5 SLP982

CYXE;2016-10-16 16:00;CYXE 161600Z 09015G21KT 15SM -RA SCT010 OVC070 01/01 A2939 RMK SF3AC5 SLP980

CYXE;2016-10-16 17:00;CYXE 161700Z 07015G21KT 12SM -RA SCT010 OVC065 01/01 A2933 RMK SF3SC5 PRESFR SLP959

CYXE;2016-10-16 17:48;CYXE 161748Z 11014KT 10SM -RA BKN009 OVC060 02/01 A2937 RMK SC6SC2 PRESFR SLP970

CYXE;2016-10-16 18:00;CYXE 161800Z 10014KT 10SM -RA BKN008 OVC060 01/01 A2936 RMK SC7SC1 SLP970

CYXE;2016-10-16 19:00;CYXE 161900Z 10009KT 10SM -RA OVC009 01/01 A2933 RMK SC8 SLP958

CYXE;2016-10-16 20:00;CYXE 162000Z 08007KT 8SM -RA OVC008 02/02 A2931 RMK SC8 SLP953

CYXE;2016-10-16 21:00;CYXE 162100Z 10011KT 8SM -RA OVC007 02/02 A2928 RMK SC8 SLP942

CYXE;2016-10-16 22:00;CYXE 162200Z 09007KT 8SM -RA OVC006 02/02 A2926 RMK SC8 SLP934

CYXE;2016-10-16 23:00;CYXE 162300Z 14007KT 10SM -RA BKN006 OVC013 03/03 A2925 RMK SC6SC2 SLP928

CYXE;2016-10-17 00:00;CYXE 170000Z 00000KT 15SM -RA OVC007 03/03 A2924 RMK SC8 SLP926

CYXE;2016-10-17 00:38;CYXE 170038Z 29003KT 15SM OVC006 03/03 A2925 RMK SC8 SLP927

CYXE;2016-10-17 01:00;CYXE 170100Z 31005KT 8SM -DZ OVC006 02/02 A2925 RMK ST8 SLP927

CYXE;2016-10-17 01:32;CYXE 170132Z 31004KT 1SM -DZ BR OVC006 02/02 A2925 RMK ST8 SLP927

CYXE;2016-10-17 01:49;CYXE 170149Z 28005KT 1/2SM -DZ BR OVC002 02/02 A2925 RMK ST8 SLP928

CYXE;2016-10-17 02:00;CYXE 170200Z 28005KT 1/2SM FG VV002 02/02 A2925 RMK FG8 SLP929

CYXE;2016-10-17 03:00;CYXE 170300Z 28009KT 1/2SM FG VV002 01/01 A2926 RMK FG8 SLP932

CYXE;2016-10-17 03:20;CYXE 170320Z 28009KT 1 1/2SM BR OVC004 01/01 A2926 RMK ST8 SLP931

CYXE;2016-10-17 04:00;CYXE 170400Z 29011KT 6SM BR OVC004 01/01 A2927 RMK ST8 SLP937

CYXE;2016-10-17 04:44;CYXE 170444Z 29012G21KT 6SM BR OVC007 00/00 A2929 RMK ST8 SLP944

CYXE;2016-10-17 05:00;CYXE 170500Z CCA 28010G17KT 12SM BKN007 M00/M00 A2929 RMK SF6 SLP945

CYXE;2016-10-17 06:00;CYXE 170600Z 28013KT 15SM BKN007 OVC012 00/M00 A2931 RMK SF5SC3 SLP951

CYXE;2016-10-17 06:23;CYXE 170623Z 29016KT 15SM SCT007 OVC013 00/M00 A2932 RMK SF3SC5 SLP954

CYXE;2016-10-17 07:00;CYXE 170700Z 30016G22KT 15SM BKN013 00/M01 A2932 RMK SC6 SLP954

CYXE;2016-10-17 08:00;CYXE 170800Z 29009KT 15SM BKN013 M00/M01 A2933 RMK SC5 SLP957

CYXE;2016-10-17 09:00;CYXE 170900Z 28006KT 15SM BKN014 OVC035 00/M00 A2934 RMK SC5SC3 SLP960

CYXE;2016-10-17 10:00;CYXE 171000Z 28009G15KT 15SM BKN013 OVC035 01/M00 A2935 RMK SC5SC3 SLP963

CYXE;2016-10-17 10:41;CYXE 171041Z 28008KT 15SM SCT013 BKN030 00/M00 A2936 RMK SC4SC2 SLP966

CYXE;2016-10-17 11:00;CYXE 171100Z 26007KT 15SM FEW013 BKN030 00/00 A2937 RMK SC1SC5 SLP969

CYXE;2016-10-17 12:00;CYXE 171200Z 25009KT 15SM SCT014 OVC030 01/01 A2939 RMK SC4SC4 SLP977

CYXE;2016-10-17 12:42;CYXE 171242Z 25010KT 15SM OVC010 01/01 A2941 RMK SC8 SLP981

CYXE;2016-10-17 13:00;CYXE 171300Z 27011KT 15SM OVC010 01/01 A2941 RMK SC8 SLP982

CYXE;2016-10-17 13:28;CYXE 171328Z 27009KT 15SM SCT012 OVC028 01/01 A2941 RMK SC4SC4 SLP983

CYXE;2016-10-17 14:00;CYXE 171400Z 25009KT 15SM SCT018 OVC032 01/01 A2941 RMK SC3SC5 SLP984

CYXE;2016-10-17 15:00;CYXE 171500Z 28011KT 15SM BKN017 OVC030 01/01 A2943 RMK SC5SC3 SLP990

CYXE;2016-10-17 16:00;CYXE 171600Z 29014KT 15SM BKN016 OVC030 02/01 A2943 RMK SC6SC2 SLP992

CYXE;2016-10-17 17:00;CYXE 171700Z 29014KT 15SM OVC017 02/00 A2946 RMK SC8 SLP999

CYXE;2016-10-17 18:00;CYXE 171800Z 30016G22KT 15SM OVC017 03/00 A2947 RMK SC8 SLP003

CYXE;2016-10-17 19:00;CYXE 171900Z 30016KT 15SM OVC017 03/M00 A2950 RMK SC8 SLP014

CYXE;2016-10-17 20:00;CYXE 172000Z 30014G21KT 15SM OVC018 03/M00 A2953 RMK SC8 SLP025

CYXE;2016-10-17 21:00;CYXE 172100Z 30015KT 15SM OVC017 03/00 A2954 RMK SC8 SLP029

CYXE;2016-10-17 21:06;CYXE 172106Z 30014G21KT 15SM OVC016 02/M00 A2955 RMK SC8 SLP030

CYXE;2016-10-17 21:32;CYXE 172132Z 30014G20KT 15SM OVC014 02/M00 A2955 RMK SC8 SLP032

CYXE;2016-10-17 22:00;CYXE 172200Z 29013G19KT 15SM OVC014 02/00 A2956 RMK SC8 SLP035

CYXE;2016-10-17 22:47;CYXE 172247Z 29012G18KT 15SM OVC016 02/M00 A2958 RMK SC8 SLP041

CYXE;2016-10-17 23:00;CYXE 172300Z 30011KT 15SM OVC015 02/M00 A2958 RMK SC8 SLP042

CYXE;2016-10-18 00:00;CYXE 180000Z 28008G17KT 15SM OVC019 02/M00 A2961 RMK SC8 SLP051

CYXE;2016-10-18 01:00;CYXE 180100Z 29009KT 15SM OVC015 02/M00 A2964 RMK SC8 SLP061

CYXE;2016-10-18 02:00;CYXE 180200Z 30013G21KT 15SM OVC016 01/M01 A2965 RMK SC8 SLP064

CYXE;2016-10-18 03:00;CYXE 180300Z 31015KT 15SM OVC018 01/M01 A2967 RMK SC8 SLP072

CYXE;2016-10-18 03:01;CYXE 180301Z 31014KT 15SM -DZ OVC017 01/M01 A2967 RMK SC8 SLP072

CYXE;2016-10-18 03:43;CYXE 180343Z 29011KT 15SM OVC015 01/M01 A2968 RMK SC8 SLP075

CYXE;2016-10-18 04:00;CYXE 180400Z 29010KT 15SM OVC016 01/M01 A2967 RMK SC8 SLP074

CYXE;2016-10-18 05:00;CYXE 180500Z 28010KT 15SM OVC019 01/M01 A2969 RMK SC8 SLP078

CYXE;2016-10-18 06:00;CYXE 180600Z 29011G16KT 15SM OVC022 01/M01 A2969 RMK SC8 SLP081

CYXE;2016-10-18 07:00;CYXE 180700Z 29013G20KT 15SM OVC019 01/M01 A2971 RMK SC8 SLP085

CYXE;2016-10-18 08:00;CYXE 180800Z 30012G19KT 15SM OVC021 01/M01 A2972 RMK SC8 SLP089

CYXE;2016-10-18 09:00;CYXE 180900Z 29010KT 15SM OVC021 01/M01 A2973 RMK SC8 SLP092

CYXE;2016-10-18 10:00;CYXE 181000Z 30012KT 15SM OVC023 01/M01 A2973 RMK SC8 SLP094

CYXE;2016-10-18 11:00;CYXE 181100Z 30010KT 15SM OVC025 00/M01 A2975 RMK SC8 SLP100

CYXE;2016-10-18 12:00;CYXE 181200Z 32018KT 15SM OVC021 00/M03 A2977 RMK SC8 SLP106

CYXE;2016-10-18 13:00;CYXE 181300Z 31012G18KT 15SM OVC022 00/M02 A2979 RMK SC8 SLP114

CYXE;2016-10-18 14:00;CYXE 181400Z 31011KT 15SM OVC025 00/M02 A2980 RMK SC8 SLP118

CYXE;2016-10-18 15:00;CYXE 181500Z 30010G15KT 15SM OVC025 01/M02 A2982 RMK SC8 SLP123

CYXE;2016-10-18 16:00;CYXE 181600Z 30014KT 15SM OVC027 01/M01 A2983 RMK SC8 SLP128

CYXE;2016-10-18 17:00;CYXE 181700Z 30016KT 15SM BKN020 OVC050 02/M02 A2984 RMK SC5SC3 SLP131

CYXE;2016-10-18 18:00;CYXE 181800Z 31015KT 15SM BKN018 OVC047 02/M01 A2985 RMK SC6SC2 SLP134

CYXE;2016-10-18 19:00;CYXE 181900Z 31015G20KT 15SM OVC018 02/M01 A2986 RMK SC8 SLP138

CYXE;2016-10-18 20:00;CYXE 182000Z 30014KT 15SM OVC016 02/M01 A2987 RMK SC8 SLP143

CYXE;2016-10-18 21:00;CYXE 182100Z 32013KT 15SM OVC016 02/M01 A2989 RMK SC8 SLP149

CYXE;2016-10-18 22:00;CYXE 182200Z 32012G17KT 15SM OVC017 02/M01 A2991 RMK SC8 SLP153

CYXE;2016-10-18 23:00;CYXE 182300Z 33010KT 15SM OVC017 02/M01 A2993 RMK SC8 SLP163

CYXE;2016-10-19 00:00;CYXE 190000Z 32009KT 15SM BKN016 OVC048 02/M01 A2995 RMK SC7SC1 SLP170

CYXE;2016-10-19 01:00;CYXE 190100Z 30008KT 15SM BKN018 OVC044 01/M01 A2997 RMK SC6SC2 SLP177

CYXE;2016-10-19 02:00;CYXE 190200Z 30007KT 15SM BKN020 OVC045 01/M01 A2999 RMK SC5SC3 SLP184

CYXE;2016-10-19 03:00;CYXE 190300Z 30008KT 15SM OVC045 01/M00 A3000 RMK SC8 SLP187

CYXE;2016-10-19 04:00;CYXE 190400Z 30008KT 15SM SCT020 OVC046 01/M00 A3002 RMK SC3SC5 SLP192

CYXE;2016-10-19 05:00;CYXE 190500Z 30007KT 15SM SCT025 OVC047 01/M00 A3003 RMK SC3SC5 SLP197

CYXE;2016-10-19 06:00;CYXE 190600Z 30007KT 15SM BKN023 OVC048 01/00 A3005 RMK SC6SC2 SLP205

CYXE;2016-10-19 07:00;CYXE 190700Z 30009KT 15SM BKN023 OVC050 01/M00 A3007 RMK SC5SC3 SLP210

CYXE;2016-10-19 08:00;CYXE 190800Z 31006KT 15SM FEW020 OVC050 00/M00 A3008 RMK SC2SC6 SLP214

CYXE;2016-10-19 09:00;CYXE 190900Z 29006KT 15SM SCT020 OVC050 00/00 A3010 RMK SC4SC4 SLP222

CYXE;2016-10-19 10:00;CYXE 191000Z 27005KT 15SM FEW020 OVC045 00/00 A3012 RMK SC2SC6 SLP228

CYXE;2016-10-19 11:00;CYXE 191100Z 29008KT 15SM FEW020 OVC044 00/M00 A3014 RMK SC2SC6 SLP233

CYXE;2016-10-19 12:00;CYXE 191200Z 29005KT 15SM OVC038 00/M00 A3015 RMK SC8 SLP238

CYXE;2016-10-19 13:00;CYXE 191300Z 26005KT 15SM OVC036 00/M00 A3017 RMK SC8 SLP244

CYXE;2016-10-19 14:00;CYXE 191400Z 27005KT 15SM OVC045 00/M00 A3019 RMK SC8 SLP251

CYXE;2016-10-19 15:00;CYXE 191500Z 26005KT 15SM FEW030 OVC043 01/M00 A3021 RMK SC1SC7 SLP258

CYXE;2016-10-19 16:00;CYXE 191600Z 27005KT 15SM OVC038 01/M00 A3022 RMK SC8 SLP260

CYXE;2016-10-19 17:00;CYXE 191700Z 29006KT 15SM OVC037 01/M01 A3023 RMK SC8 SLP266

CYXE;2016-10-19 18:00;CYXE 191800Z 28007KT 15SM OVC040 02/M01 A3024 RMK SC8 SLP270

CYXE;2016-10-19 19:00;CYXE 191900Z 29007KT 15SM OVC043 03/M01 A3025 RMK SC8 SLP270

CYXE;2016-10-19 20:00;CYXE 192000Z 31008KT 15SM OVC045 03/M01 A3025 RMK SC8 SLP271

CYXE;2016-10-19 21:00;CYXE 192100Z 31007KT 15SM OVC045 03/M02 A3026 RMK SC8 SLP274

CYXE;2016-10-19 22:00;CYXE 192200Z 30006KT 15SM FEW020 OVC045 03/M02 A3026 RMK SC1SC7 SLP276

CYXE;2016-10-19 23:01;CYXE 192301Z 34004KT 15SM OVC042 02/M01 A3026 RMK SC8 SLP276

CYXE;2016-10-20 00:00;CYXE 200000Z 33003KT 15SM OVC045 02/M01 A3028 RMK SC8 SLP282

CYXE;2016-10-20 01:00;CYXE 200100Z 01002KT 15SM OVC047 01/M01 A3028 RMK SC8 SLP284

CYXE;2016-10-20 02:00;CYXE 200200Z 00000KT 15SM OVC057 01/M01 A3028 RMK SC8 SLP284

CYXE;2016-10-20 03:00;CYXE 200300Z 00000KT 15SM FEW042 OVC058 01/M02 A3028 RMK SC2SC6 SLP284

CYXE;2016-10-20 04:00;CYXE 200400Z 10004KT 15SM OVC052 M00/M01 A3028 RMK SC8 SLP284

CYXE;2016-10-20 05:00;CYXE 200500Z 24005KT 15SM OVC052 00/M00 A3028 RMK SC8 SLP284

CYXE;2016-10-20 06:00;CYXE 200600Z 19004KT 15SM BKN055 00/M01 A3028 RMK SC7 SLP282

CYXE;2016-10-20 07:00;CYXE 200700Z 12005KT 15SM BKN045 00/M01 A3027 RMK SC7 SLP277

CYXE;2016-10-20 08:00;CYXE 200800Z 14005KT 15SM BKN040 00/M01 A3026 RMK SC7 SLP276

CYXE;2016-10-20 09:00;CYXE 200900Z 13005KT 15SM SCT035 BKN050 01/M02 A3025 RMK SC4SC3 SLP272

CYXE;2016-10-20 10:00;CYXE 201000Z 15006KT 15SM BKN040 01/M01 A3024 RMK SC7 SLP269

CYXE;2016-10-20 11:00;CYXE 201100Z 15007KT 15SM OVC040 01/M02 A3023 RMK SC8 SLP264

CYXE;2016-10-20 12:00;CYXE 201200Z 14009KT 15SM OVC038 01/M01 A3022 RMK SC8 SLP262

CYXE;2016-10-20 13:00;CYXE 201300Z 14008KT 15SM BKN038 01/M01 A3020 RMK SC7 SLP254

CYXE;2016-10-20 14:00;CYXE 201400Z 15010KT 15SM BKN035 01/M00 A3018 RMK SC7 SLP249

CYXE;2016-10-20 15:00;CYXE 201500Z 15011KT 15SM BKN250 02/00 A3017 RMK CI5 SLP243

CYXE;2016-10-20 16:00;CYXE 201600Z 15013KT 15SM BKN270 03/00 A3015 RMK CI6 SLP238

CYXE;2016-10-20 17:00;CYXE 201700Z 13013KT 15SM BKN270 05/01 A3010 RMK CI6 PRESFR SLP219

CYXE;2016-10-20 18:00;CYXE 201800Z 16014G20KT 15SM FEW180 OVC240 06/03 A3007 RMK AC2CI6 SLP207

CYXE;2016-10-20 19:00;CYXE 201900Z 14013G22KT 15SM SCT150 OVC240 06/03 A3006 RMK AC4CI4 SLP203

CYXE;2016-10-20 20:00;CYXE 202000Z 16017G24KT 15SM SCT190 OVC240 06/03 A3002 RMK CC3CS5 SLP192

CYXE;2016-10-20 21:00;CYXE 202100Z 14012G18KT 15SM SCT150 OVC240 07/03 A2997 RMK AC3CS5 PRESFR SLP172

CYXE;2016-10-20 22:00;CYXE 202200Z 15016KT 15SM BKN150 OVC240 08/03 A2994 RMK AC5CI3 SLP161

CYXE;2016-10-20 23:00;CYXE 202300Z 15014G21KT 15SM SCT086 OVC120 08/03 A2990 RMK AC3AC5 PRESFR SLP148

CYXE;2016-10-21 00:00;CYXE 210000Z 15013G21KT 15SM SCT090 BKN170 07/04 A2986 RMK AC3AC4 SLP135

CYXE;2016-10-21 01:00;CYXE 210100Z 14010KT 15SM BKN170 07/04 A2983 RMK AC6 PRESFR SLP125

CYXE;2016-10-21 02:00;CYXE 210200Z 16012G17KT 15SM BKN160 07/03 A2979 RMK AC6 SLP111

CYXE;2016-10-21 03:00;CYXE 210300Z 18012G18KT 15SM BKN160 08/02 A2977 RMK AC6 SLP103

CYXE;2016-10-21 04:00;CYXE 210400Z 17014G23KT 15SM BKN200 08/02 A2972 RMK CI6 PRESFR SLP086

CYXE;2016-10-21 05:00;CYXE 210500Z 18010KT 15SM BKN200 07/02 A2970 RMK CI6 SLP078

CYXE;2016-10-21 06:00;CYXE 210600Z 19009KT 15SM BKN200 07/02 A2968 RMK CI7 SLP070

CYXE;2016-10-21 07:00;CYXE 210700Z 22006KT 15SM BKN200 06/02 A2968 RMK CI6 SLP069

CYXE;2016-10-21 08:00;CYXE 210800Z 19007KT 15SM BKN180 04/02 A2966 RMK AC6 SLP066

CYXE;2016-10-21 09:00;CYXE 210900Z 21003KT 15SM BKN180 04/02 A2966 RMK AC7 SLP065

CYXE;2016-10-21 10:00;CYXE 211000Z 28006KT 15SM BKN120 OVC180 03/02 A2969 RMK AC5AC3 SLP075

CYXE;2016-10-21 11:00;CYXE 211100Z 30008KT 15SM SCT120 BKN160 02/02 A2970 RMK AC3AC3 SLP078

CYXE;2016-10-21 12:00;CYXE 211200Z 30010KT 15SM BKN180 02/02 A2973 RMK AC5 SLP089

CYXE;2016-10-21 13:00;CYXE 211300Z 29008KT 15SM SCT110 01/01 A2976 RMK AC3 SLP099

CYXE;2016-10-21 14:00;CYXE 211400Z 30008KT 15SM FEW110 00/00 A2979 RMK AC1 SLP112

CYXE;2016-10-21 15:00;CYXE 211500Z 30009KT 15SM FEW110 02/01 A2982 RMK AC1 SLP121

CYXE;2016-10-21 16:00;CYXE 211600Z 30007KT 15SM FEW110 04/01 A2984 RMK AC1 SLP125

CYXE;2016-10-21 17:00;CYXE 211700Z 30011KT 15SM FEW110 07/02 A2985 RMK AC1 SLP128

CYXE;2016-10-21 18:00;CYXE 211800Z 30011KT 15SM FEW100 08/01 A2985 RMK AC1 SLP128

CYXE;2016-10-21 19:00;CYXE 211900Z 28011G16KT 15SM FEW100 10/02 A2985 RMK AC1 SLP127

CYXE;2016-10-21 20:00;CYXE 212000Z 30015G21KT 15SM FEW060 12/02 A2986 RMK SC1 SLP128 DENSITY ALT 1700FT

CYXE;2016-10-21 21:00;CYXE 212100Z 30015KT 15SM FEW060 FEW110 12/03 A2987 RMK SC1AC1 SLP132 DENSITY ALT 1700FT

CYXE;2016-10-21 22:00;CYXE 212200Z 31014KT 15SM FEW055 FEW280 11/03 A2987 RMK SC1CI1 SLP135

CYXE;2016-10-21 23:00;CYXE 212300Z 30010KT 15SM FEW050 FEW280 10/03 A2988 RMK SC1CI1 SLP138

CYXE;2016-10-22 00:00;CYXE 220000Z 28008KT 15SM FEW050 FEW240 06/02 A2989 RMK SC1CI1 SLP144

CYXE;2016-10-22 01:00;CYXE 220100Z 28006KT 15SM FEW240 03/01 A2989 RMK CI1 SLP146

CYXE;2016-10-22 01:27;CYXE 220127Z 28007KT 15SM FEW240 02/01 A2989 RMK CI1 SLP147

CYXE;2016-10-22 02:00;CYXE 220200Z 28009KT 15SM SKC 01/M00 A2989 RMK SLP150

CYXE;2016-10-22 03:00;CYXE 220300Z 27007KT 15SM SKC 00/M01 A2990 RMK SLP153

CYXE;2016-10-22 04:00;CYXE 220400Z 27006KT 15SM SKC M01/M01 A2990 RMK SLP152

CYXE;2016-10-22 05:00;CYXE 220500Z 24006KT 15SM SKC 00/M01 A2991 RMK SLP151

CYXE;2016-10-22 06:00;CYXE 220600Z 22003KT 15SM BCFG SKC M01/M01 A2991 RMK SLP151

CYXE;2016-10-22 07:00;CYXE 220700Z 19003KT 15SM BCFG SCT220 M01/M01 A2990 RMK CI4 SLP147

CYXE;2016-10-22 08:00;CYXE 220800Z 18004KT 15SM BCFG FEW220 M02/M03 A2991 RMK CI2 VIS W-N 1/2 SLP149

CYXE;2016-10-22 09:00;CYXE 220900Z 21005KT 4SM BR SKC M03/M03 A2990 RMK VIS NW 1/2 SLP146

CYXE;2016-10-22 10:00;CYXE 221000Z 11002KT 4SM BR SKC M03/M04 A2989 RMK VIS NW 1/2 SLP147

CYXE;2016-10-22 11:00;CYXE 221100Z 16002KT 4SM BR SKC M03/M04 A2990 RMK VIS NW 1 1/2 SLP148

CYXE;2016-10-22 12:00;CYXE 221200Z 12003KT 6SM BR FEW240 M03/M04 A2990 RMK CI2 VIS NW 2 SLP151

CYXE;2016-10-22 13:00;CYXE 221300Z 13002KT 15SM BKN220 M02/M02 A2990 RMK CI6 SLP152

CYXE;2016-10-22 14:00;CYXE 221400Z 09004KT 15SM BKN220 M01/M02 A2989 RMK CI7 SLP150

CYXE;2016-10-22 15:00;CYXE 221500Z 13003KT 15SM FEW070 OVC220 M01/M01 A2987 RMK AC1CI7 SLP145

CYXE;2016-10-22 16:00;CYXE 221600Z 04004KT 10SM FEW070 SCT180 BKN240 00/M00 A2987 RMK AC1AC2CI4 BR SLP145

CYXE;2016-10-22 17:00;CYXE 221700Z VRB02KT 10SM SCT080 OVC200 02/02 A2989 RMK AC4CI4 BR SLP149

CYXE;2016-10-22 18:00;CYXE 221800Z 06003KT 10SM BKN085 OVC200 03/03 A2989 RMK AC6CI2 BR SLP150

CYXE;2016-10-22 19:00;CYXE 221900Z 08004KT 10SM BKN090 OVC220 04/04 A2988 RMK AC6CI2 BR SLP145

CYXE;2016-10-22 20:00;CYXE 222000Z 08006KT 15SM BKN100 OVC220 05/04 A2987 RMK AC7CI1 SLP142

CYXE;2016-10-22 21:00;CYXE 222100Z 09002KT 15SM BKN060 BKN220 05/04 A2988 RMK SC6CI1 SLP146

CYXE;2016-10-22 22:00;CYXE 222200Z 17004KT 15SM FEW030 BKN060 OVC220 05/04 A2989 RMK SC1SC5CI2 SLP149

CYXE;2016-10-22 23:00;CYXE 222300Z 31003KT 230V340 15SM SCT011 OVC080 05/03 A2992 RMK SC4AC4 SLP158

CYXE;2016-10-22 23:09;CYXE 222309Z 28003KT 220V340 15SM -RA BKN011 OVC075 05/03 A2992 RMK SC6AC2 SLP159

CYXE;2016-10-23 00:00;CYXE 230000Z CCA 04004KT 340V110 15SM -RA BKN011 BKN080 04/04 A2992 RMK SC5AC2 SLP160

CYXE;2016-10-23 00:53;CYXE 230053Z 01004KT 15SM SCT011 BKN055 OVC080 04/03 A2994 RMK SC3SC4AC1 SLP167

CYXE;2016-10-23 01:00;CYXE 230100Z 01005KT 15SM SCT011 BKN055 OVC080 04/03 A2994 RMK SC3SC4AC1 SLP167

CYXE;2016-10-23 02:00;CYXE 230200Z 07005KT 10SM SCT014 OVC055 04/03 A2996 RMK SC4SC4 SLP173

CYXE;2016-10-23 02:28;CYXE 230228Z 05004KT 10SM -DZ FEW002 BKN014 OVC055 03/03 A2997 RMK SF2ST4SC2 SLP178

CYXE;2016-10-23 03:00;CYXE 230300Z 08004KT 8SM -DZ FEW002 BKN014 OVC055 03/03 A2998 RMK SF2ST5SC1 SLP181

CYXE;2016-10-23 03:26;CYXE 230326Z 05005KT 4SM -DZ BR FEW002 BKN014 OVC052 03/02 A2999 RMK SF2ST4SC2 SLP183

CYXE;2016-10-23 03:33;CYXE 230333Z 04005KT 3SM -DZ BR FEW002 BKN013 OVC052 02/02 A2999 RMK SF1ST4SC3 SLP184

CYXE;2016-10-23 04:00;CYXE 230400Z 04004KT 4SM -DZ BR SCT002 BKN013 OVC050 02/02 A3001 RMK SF4ST2SC2 SLP189

CYXE;2016-10-23 04:19;CYXE 230419Z 02005KT 2SM -DZ BR BKN003 OVC012 02/01 A3001 RMK SF5ST3 SLP191

CYXE;2016-10-23 04:34;CYXE 230434Z 02004KT 3/4SM -RA BR OVC002 02/01 A3002 RMK ST8 SLP193

CYXE;2016-10-23 05:00;CYXE 230500Z 04003KT 3/4SM -RA BR OVC002 01/01 A3003 RMK ST8 SLP195

CYXE;2016-10-23 05:32;CYXE 230532Z 35004KT 1/2SM R09/3500V5000FT/U FG VV002 02/01 A3004 RMK FG8 SLP200

CYXE;2016-10-23 05:47;CYXE 230547Z 35005KT 1SM R09/P6000FT/U -DZ BR OVC020 02/01 A3005 RMK SC8 SLP202

CYXE;2016-10-23 06:00;CYXE 230600Z 34005KT 1 1/2SM BR BKN001 OVC022 01/01 A3005 RMK ST5SC3 SLP204

CYXE;2016-10-23 06:25;CYXE 230625Z 33002KT 2SM -DZ BR SCT002 OVC020 01/01 A3006 RMK ST4SC4 SLP205

CYXE;2016-10-23 07:00;CYXE 230700Z 00000KT 2SM -DZ BR SCT002 OVC035 01/01 A3006 RMK ST3SC5 SLP206

CYXE;2016-10-23 07:46;CYXE 230746Z 07002KT 1 1/2SM BR BKN002 OVC030 01/01 A3007 RMK ST5SC3 SLP209

CYXE;2016-10-23 08:00;CYXE 230800Z 12004KT 060V120 1 1/2SM BR OVC002 01/00 A3007 RMK ST8 SLP207

CYXE;2016-10-23 08:13;CYXE 230813Z 07005KT 1/2SM R09/4000VP6000FT/D FG VV002 01/01 A3007 RMK FG8 SLP208

CYXE;2016-10-23 08:46;CYXE 230846Z 00000KT 1/4SM R09/2000FT/N FG VV002 01/01 A3009 RMK FG8 SLP215

CYXE;2016-10-23 09:00;CYXE 230900Z 00000KT 1/4SM R09/2200FT/N FG VV002 01/01 A3009 RMK FG8 SLP216

CYXE;2016-10-23 09:39;CYXE 230939Z 31003KT 1/2SM R09/2600V4000FT/N FG VV002 01/01 A3011 RMK FG8 VIS VRB 1/4-3/4 SLP222

CYXE;2016-10-23 10:00;CYXE 231000Z 28002KT 1/2SM R09/P6000FT/U FG VV002 01/01 A3011 RMK FG8 VIS VRB 1/4-3/4 SLP223

CYXE;2016-10-23 10:17;CYXE 231017Z 22003KT 1SM R09/P6000FT/N BR BKN045 00/00 A3011 RMK SC6 VIS VRB 1/2-1 1/2 SLP222

CYXE;2016-10-23 10:32;CYXE 231032Z 22003KT 1/2SM R09/5000VP6000FT/D FG BKN045 00/00 A3011 RMK SC7 VIS VRB 1/4-3/4 SLP223

CYXE;2016-10-23 11:00;CYXE 231100Z 23002KT 1/2SM R09/1800FT/N FZFG SCT045 M00/M00 A3012 RMK SC4 VIS VRB 1/4-3/4 SLP226

CYXE;2016-10-23 11:26;CYXE 231126Z 25003KT 1/4SM R09/2000FT/D FZFG VV002 M01/M01 A3013 RMK FG8 VIS VRB 1/8-3/8 SLP230

CYXE;2016-10-23 12:04;CYXE 231204Z 27003KT 1/4SM R09/1100V1800FT/N FZFG VV002 M01/M02 A3014 RMK FG8 VIS VRB 1/8-3/8 SLP235

CYXE;2016-10-23 13:00;CYXE 231300Z 00000KT 1/4SM R09/1200V2400FT/N FZFG VV002 M01/M01 A3015 RMK FG8 VIS VRB 1/8-3/8 SLP238

CYXE;2016-10-23 14:00;CYXE 231400Z 25002KT 3/8SM R09/2000FT/N FZFG BKN250 M02/M02 A3016 RMK FG4CI2 VIS VRB 1/4-1/2 SLP240

CYXE;2016-10-23 14:45;CYXE 231445Z 24004KT 1/8SM R09/1000FT/U FZFG VV002 M02/M02 A3018 RMK FG8 SLP248

CYXE;2016-10-23 15:00;CYXE 231500Z 26005KT 1/8SM R09/1600FT/N FZFG VV002 M01/M02 A3019 RMK FG8 SLP251

CYXE;2016-10-23 16:00;CYXE 231600Z 25004KT 1/4SM R09/1200FT/N FZFG VV002 M01/M01 A3021 RMK FG8 SLP257

CYXE;2016-10-23 17:00;CYXE 231700Z 20004KT 1/4SM R09/2000FT/N FG VV002 01/01 A3022 RMK FG8 SLP261

CYXE;2016-10-23 18:00;CYXE 231800Z 19004KT 3/8SM R09/2600FT/N FG VV002 02/02 A3022 RMK FG8 VIS VRB 1/4-1/2 SLP260

CYXE;2016-10-23 18:19;CYXE 231819Z 19006KT 170V230 3/4SM R09/P6000FT/U BR VV002 03/03 A3022 RMK FG8 SLP261

CYXE;2016-10-23 19:00;CYXE 231900Z 00000KT 1 1/2SM BR OVC003 03/03 A3022 RMK ST8 SLP261

CYXE;2016-10-23 20:00;CYXE 232000Z 21004KT 160V240 3SM BR OVC004 03/03 A3023 RMK ST8 SLP262

CYXE;2016-10-23 21:00;CYXE 232100Z 19006KT 3SM BR OVC005 04/04 A3022 RMK ST8 SLP259

CYXE;2016-10-23 22:00;CYXE 232200Z 20006KT 130V210 10SM OVC007 04/04 A3022 RMK SC8 SLP260

CYXE;2016-10-23 23:00;CYXE 232300Z 19004KT 15SM OVC007 04/03 A3022 RMK SC8 SLP261

CYXE;2016-10-24 00:00;CYXE 240000Z 15003KT 15SM OVC009 05/03 A3021 RMK SC8 SLP257

CYXE;2016-10-24 00:54;CYXE 240054Z 16005KT 15SM OVC011 05/03 A3022 RMK SC8 SLP261

CYXE;2016-10-24 01:00;CYXE 240100Z 16005KT 15SM OVC012 05/03 A3022 RMK SC8 SLP260

CYXE;2016-10-24 02:00;CYXE 240200Z 16005KT 15SM OVC010 05/03 A3024 RMK SC8 SLP268

CYXE;2016-10-24 03:00;CYXE 240300Z 15005KT 100V190 15SM OVC012 05/03 A3025 RMK SC8 SLP270

CYXE;2016-10-24 04:00;CYXE 240400Z 08004KT 15SM OVC014 04/03 A3025 RMK SC8 SLP270

CYXE;2016-10-24 05:00;CYXE 240500Z 12005KT 15SM OVC013 04/03 A3025 RMK SC8 SLP269

CYXE;2016-10-24 06:00;CYXE 240600Z 09005KT 15SM OVC014 05/03 A3024 RMK SC8 SLP267

CYXE;2016-10-24 06:14;CYXE 240614Z 10004KT 15SM OVC018 05/03 A3024 RMK SC8 SLP267

CYXE;2016-10-24 07:00;CYXE 240700Z 11006KT 15SM OVC018 05/03 A3024 RMK SC8 SLP266

CYXE;2016-10-24 08:00;CYXE 240800Z 11007KT 15SM OVC015 04/03 A3023 RMK SC8 SLP263

CYXE;2016-10-24 08:17;CYXE 240817Z 11008KT 15SM OVC014 04/03 A3023 RMK SC8 SLP263

CYXE;2016-10-24 08:49;CYXE 240849Z 11010KT 15SM OVC009 04/03 A3024 RMK SC8 SLP265

CYXE;2016-10-24 09:00;CYXE 240900Z 12010KT 15SM OVC009 04/03 A3024 RMK SC8 SLP264

CYXE;2016-10-24 10:00;CYXE 241000Z 10010KT 15SM OVC008 04/02 A3023 RMK ST8 SLP261

CYXE;2016-10-24 11:00;CYXE 241100Z 11010G16KT 15SM OVC006 04/02 A3022 RMK ST8 SLP259

CYXE;2016-10-24 12:00;CYXE 241200Z 10009G15KT 15SM OVC006 03/02 A3022 RMK ST8 SLP257

CYXE;2016-10-24 12:24;CYXE 241224Z 11010G18KT 15SM OVC005 03/02 A3022 RMK ST8 SLP258

CYXE;2016-10-24 13:00;CYXE 241300Z 09010KT 15SM OVC005 03/02 A3021 RMK ST8 SLP255

CYXE;2016-10-24 14:00;CYXE 241400Z 10011KT 15SM OVC005 03/02 A3022 RMK ST8 SLP257

CYXE;2016-10-24 15:00;CYXE 241500Z 10012G17KT 15SM OVC005 04/03 A3021 RMK ST8 SLP255

CYXE;2016-10-24 16:00;CYXE 241600Z 10013KT 15SM OVC006 04/03 A3021 RMK ST8 SLP255

CYXE;2016-10-24 17:00;CYXE 241700Z 10013KT 10SM OVC005 04/03 A3019 RMK ST8 BR SLP249

CYXE;2016-10-24 18:00;CYXE 241800Z 09013KT 10SM OVC009 05/03 A3018 RMK SC8 BR SLP245

CYXE;2016-10-24 18:35;CYXE 241835Z 09014KT 15SM OVC010 06/03 A3018 RMK SC8 SLP244

CYXE;2016-10-24 19:00;CYXE 241900Z 09012KT 15SM OVC013 06/04 A3017 RMK SC8 SLP239

CYXE;2016-10-24 19:29;CYXE 241929Z 08012KT 15SM SCT013 OVC120 07/03 A3017 RMK SF4AC4 SLP238

CYXE;2016-10-24 20:00;CYXE 242000Z 09013KT 15SM FEW013 BKN090 OVC250 07/03 A3015 RMK SF2AC3CI3 SLP232

CYXE;2016-10-24 21:00;CYXE 242100Z 11012KT 15SM FEW090 BKN250 09/03 A3013 RMK AC1CI5 SLP225

CYXE;2016-10-24 22:00;CYXE 242200Z 08012KT 15SM FEW120 BKN280 10/04 A3012 RMK AC2CI5 SLP220

CYXE;2016-10-24 23:00;CYXE 242300Z 09011KT 15SM SCT140 BKN280 09/04 A3011 RMK AC3CI4 SLP218

CYXE;2016-10-25 00:00;CYXE 250000Z 08007KT 15SM SCT140 OVC280 07/04 A3011 RMK AC4CI4 SLP220

CYXE;2016-10-25 01:00;CYXE 250100Z 07007KT 15SM BKN120 OVC280 06/04 A3012 RMK AC6CI2 SLP223

CYXE;2016-10-25 02:00;CYXE 250200Z 08008KT 15SM OVC140 06/04 A3012 RMK AC8 SLP224

CYXE;2016-10-25 03:00;CYXE 250300Z 10012G18KT 15SM OVC120 07/04 A3011 RMK AC8 SLP218

CYXE;2016-10-25 04:00;CYXE 250400Z 12012G19KT 15SM OVC110 07/04 A3010 RMK AC8 SLP215

CYXE;2016-10-25 05:00;CYXE 250500Z 12018KT 15SM OVC110 06/04 A3009 RMK AC8 SLP213

CYXE;2016-10-25 06:00;CYXE 250600Z 12017KT 15SM OVC100 06/04 A3008 RMK AC8 SLP208

CYXE;2016-10-25 07:00;CYXE 250700Z 11010G15KT 15SM OVC095 07/04 A3009 RMK AC8 SLP210

CYXE;2016-10-25 08:00;CYXE 250800Z 12011KT 15SM OVC100 06/04 A3009 RMK AC8 SLP208

CYXE;2016-10-25 09:00;CYXE 250900Z 12013KT 15SM SCT100 OVC170 06/03 A3006 RMK AC4AC4 SLP200

CYXE;2016-10-25 10:00;CYXE 251000Z 13017G22KT 15SM SCT120 OVC170 06/03 A3005 RMK AC4AC4 SLP193

CYXE;2016-10-25 11:00;CYXE 251100Z 12014G21KT 15SM OVC160 06/03 A3003 RMK AC8 SLP190

CYXE;2016-10-25 12:00;CYXE 251200Z 12016KT 15SM OVC140 06/03 A3004 RMK AC8 SLP195

CYXE;2016-10-25 13:00;CYXE 251300Z 12014G22KT 15SM BKN110 OVC140 05/03 A3003 RMK AC6AC2 SLP191

CYXE;2016-10-25 14:00;CYXE 251400Z 11010KT 15SM SCT016 BKN150 OVC250 05/03 A3004 RMK SC3AC3CI2 SLP195

CYXE;2016-10-25 15:00;CYXE 251500Z 10013G18KT 15SM FEW100 BKN150 BKN250 05/03 A3004 RMK AC2AC3CI2 SLP194

CYXE;2016-10-25 16:00;CYXE 251600Z 12009KT 15SM FEW011 SCT110 BKN150 BKN250 06/03 A3004 RMK SC1AC2AC2CI1 SLP193

CYXE;2016-10-25 17:00;CYXE 251700Z 13010KT 15SM BKN018 BKN150 BKN250 07/03 A3003 RMK SC5AC1CC1 SLP189

CYXE;2016-10-25 18:00;CYXE 251800Z 14016KT 15SM BKN020 BKN120 BKN250 08/03 A3002 RMK SC5AC1CI1 SLP187

CYXE;2016-10-25 19:00;CYXE 251900Z 14016KT 15SM FEW020 BKN120 BKN250 10/04 A3001 RMK SC2AC3CI2 SLP181

CYXE;2016-10-25 20:00;CYXE 252000Z 14014G20KT 15SM FEW022 BKN120 BKN250 10/04 A2998 RMK SC1AC4CI2 SLP171

CYXE;2016-10-25 21:00;CYXE 252100Z 15014G21KT 15SM SCT025 BKN110 10/04 A2997 RMK SC4AC3 SLP168

CYXE;2016-10-25 22:00;CYXE 252200Z 15011KT 15SM BKN026 OVC110 09/04 A2998 RMK SC7AC1 SLP171

CYXE;2016-10-25 23:00;CYXE 252300Z 12012KT 15SM BKN026 OVC110 09/04 A2997 RMK SC6AC2 SLP170

CYXE;2016-10-26 00:00;CYXE 260000Z 15010KT 15SM BKN025 OVC130 08/04 A2998 RMK SC6AC2 SLP173

CYXE;2016-10-26 01:00;CYXE 260100Z 17008KT 15SM BKN023 OVC130 08/04 A2998 RMK SC6AC2 SLP174

CYXE;2016-10-26 02:00;CYXE 260200Z 16009G15KT 15SM BKN019 OVC120 07/04 A2997 RMK SC6AC2 SLP171

CYXE;2016-10-26 03:00;CYXE 260300Z 17010G17KT 15SM OVC015 07/04 A2997 RMK SC8 SLP171

CYXE;2016-10-26 04:00;CYXE 260400Z 15007KT 15SM OVC017 06/04 A2995 RMK SC8 SLP164

CYXE;2016-10-26 05:00;CYXE 260500Z 13006KT 15SM SCT018 BKN080 04/03 A2995 RMK SC4AC2 SLP162

CYXE;2016-10-26 06:00;CYXE 260600Z 13007KT 15SM SCT080 04/03 A2993 RMK AC3 SLP155

CYXE;2016-10-26 07:00;CYXE 260700Z 12007KT 15SM FEW120 03/02 A2992 RMK AC1 SLP152

CYXE;2016-10-26 08:00;CYXE 260800Z 13005KT 15SM SKC 02/02 A2991 RMK SLP150

CYXE;2016-10-26 09:00;CYXE 260900Z 21002KT 15SM R09/2200VP6000FT/D SKC 02/02 A2992 RMK SLP152

CYXE;2016-10-26 09:39;CYXE 260939Z 24003KT 1/2SM R09/2000FT/N PRFG SKC 01/01 A2992 RMK TWR VIS 15 SLP152

CYXE;2016-10-26 09:51;CYXE 260951Z 22005KT 15SM R09/2200V6000FT/N BCFG SKC M00/M01 A2992 RMK VIS NW-NE 1/2 SLP153

CYXE;2016-10-26 10:00;CYXE 261000Z 27005KT 6SM R09/1200V1800FT/N BCFG SKC M01/M01 A2992 RMK VIS NW-NE 1/2 SLP156

CYXE;2016-10-26 10:07;CYXE 261007Z 27006KT 1/2SM R09/2800FT/N FZFG SCT005 M01/M01 A2992 RMK FG1ST3 VIS SE-SW 6 SLP157

CYXE;2016-10-26 10:13;CYXE 261013Z 28007KT 3/8SM R09/3000FT/N FZFG OVC004 M01/M01 A2992 RMK FG1ST7 SLP156

CYXE;2016-10-26 10:18;CYXE 261018Z 29007KT 10SM R09/3000V5000FT/U BCFG OVC003 M00/M00 A2993 RMK ST8 VIS NE-SE 1/2 SLP157

CYXE;2016-10-26 10:26;CYXE 261026Z 28005KT 3/4SM R09/4500VP6000FT/U BR OVC001 00/00 A2992 RMK ST8 SLP156

CYXE;2016-10-26 10:33;CYXE 261033Z 28006KT 1/2SM R09/4500VP6000FT/D FG OVC001 01/01 A2992 RMK FG4ST4 SLP155

CYXE;2016-10-26 10:43;CYXE 261043Z 28006KT 3/8SM R09/3500FT/N FG OVC001 01/01 A2993 RMK FG6ST2 SLP156

CYXE;2016-10-26 11:00;CYXE 261100Z 29008KT 3/8SM R09/3500FT/N FG OVC001 02/02 A2993 RMK FG6ST2 SLP157

CYXE;2016-10-26 11:07;CYXE 261107Z 29007KT 1/2SM R09/4000FT/U FG OVC002 02/02 A2993 RMK FG3ST5 SLP158

CYXE;2016-10-26 12:00;CYXE 261200Z 27006KT 1/2SM R09/2800V5000FT/D FG OVC001 03/02 A2995 RMK FG4ST4 SLP163

CYXE;2016-10-26 12:19;CYXE 261219Z 26008KT 3/4SM R09/3000VP6000FT/U BR BKN001 OVC018 02/02 A2995 RMK FG1ST5SC2 SLP164

CYXE;2016-10-26 12:34;CYXE 261234Z 25007KT 5SM BR SCT001 OVC018 02/02 A2995 RMK ST4SC4 SLP165

CYXE;2016-10-26 13:00;CYXE 261300Z 24008KT 10SM FEW001 OVC020 03/02 A2996 RMK ST1SC7 SLP168

CYXE;2016-10-26 14:00;CYXE 261400Z 26008KT 10SM OVC015 03/03 A2998 RMK SF8 BR SLP173

CYXE;2016-10-26 15:00;CYXE 261500Z 25008KT 15SM SCT016 03/02 A3000 RMK SF4 SLP180

CYXE;2016-10-26 16:00;CYXE 261600Z 26013KT 15SM FEW016 05/02 A3000 RMK SF2 SLP182

CYXE;2016-10-26 16:09;CYXE 261609Z 26014KT 15SM BKN017 05/03 A3001 RMK SC6 SLP183

CYXE;2016-10-26 16:45;CYXE 261645Z 28012G17KT 15SM OVC014 05/02 A3001 RMK SC8 SLP183

CYXE;2016-10-26 17:00;CYXE 261700Z 27012KT 15SM OVC013 05/03 A3001 RMK SC8 SLP185

CYXE;2016-10-26 18:00;CYXE 261800Z 27017KT 15SM OVC014 06/03 A3000 RMK SC8 SLP181

CYXE;2016-10-26 18:24;CYXE 261824Z 28017G25KT 15SM BKN017 06/02 A3000 RMK SC7 SLP180

CYXE;2016-10-26 19:00;CYXE 261900Z 29016KT 15SM BKN019 07/02 A3000 RMK SC6 SLP180

CYXE;2016-10-26 20:00;CYXE 262000Z 28016KT 15SM SCT024 08/02 A2999 RMK SC4 SLP176

CYXE;2016-10-26 21:00;CYXE 262100Z 31015G23KT 15SM FEW027 SCT250 08/01 A3000 RMK SC1CI3 SLP182

CYXE;2016-10-26 22:00;CYXE 262200Z 30016G23KT 15SM FEW025 SCT280 08/01 A3000 RMK SC1CI2 SLP184

CYXE;2016-10-26 23:00;CYXE 262300Z 31008KT 15SM SCT280 07/01 A3000 RMK CI3 SLP182

CYXE;2016-10-27 00:00;CYXE 270000Z 33004KT 15SM SCT280 03/M00 A3000 RMK CI3 SLP186

CYXE;2016-10-27 00:45;CYXE 270045Z 36005KT 15SM FEW140 SCT280 02/M01 A3001 RMK AC1CI3 SLP188

CYXE;2016-10-27 01:00;CYXE 270100Z 36004KT 15SM FEW140 SCT280 02/M01 A3001 RMK AC1CI3 SLP188

CYXE;2016-10-27 02:00;CYXE 270200Z 27003KT 15SM FEW280 M01/M03 A3002 RMK CI2 SLP192

CYXE;2016-10-27 03:00;CYXE 270300Z 29002KT 15SM FEW280 00/M01 A3002 RMK CI2 SLP193

CYXE;2016-10-27 04:00;CYXE 270400Z 23003KT 15SM BKN200 M01/M02 A3003 RMK CI6 SLP194

CYXE;2016-10-27 05:00;CYXE 270500Z 07002KT 15SM BKN200 00/M00 A3001 RMK CI7 SLP188

CYXE;2016-10-27 06:00;CYXE 270600Z 19002KT 15SM BKN200 00/M01 A3000 RMK CI6 SLP186

CYXE;2016-10-27 07:00;CYXE 270700Z 04003KT 15SM SCT130 OVC200 M00/M01 A2999 RMK AC3CI5 SLP179

CYXE;2016-10-27 08:00;CYXE 270800Z 08004KT 15SM OVC110 01/M00 A2999 RMK AC8 SLP178

CYXE;2016-10-27 09:00;CYXE 270900Z 07005KT 15SM OVC100 01/00 A2997 RMK AC8 SLP173

CYXE;2016-10-27 10:00;CYXE 271000Z 10003KT 15SM OVC090 01/00 A2996 RMK AC8 SLP167

CYXE;2016-10-27 11:00;CYXE 271100Z 11006KT 15SM OVC090 02/01 A2994 RMK AC8 SLP161

CYXE;2016-10-27 12:00;CYXE 271200Z 09005KT 15SM OVC080 03/01 A2992 RMK AC8 SLP157

CYXE;2016-10-27 13:00;CYXE 271300Z 10007KT 15SM OVC060 04/01 A2990 RMK SC8 SLP151

CYXE;2016-10-27 14:00;CYXE 271400Z 10007KT 15SM OVC075 04/02 A2987 RMK AC8 SLP143

CYXE;2016-10-27 15:00;CYXE 271500Z 12011KT 15SM OVC074 05/03 A2985 RMK AC8 PRESFR SLP133

CYXE;2016-10-27 16:00;CYXE 271600Z 12010KT 15SM BKN066 OVC120 07/04 A2982 RMK AC7AC1 PRESFR SLP123

CYXE;2016-10-27 17:00;CYXE 271700Z 12009G15KT 15SM FEW060 BKN075 OVC140 08/04 A2981 RMK SC2AC4AC2 SLP116

CYXE;2016-10-27 18:00;CYXE 271800Z 12009G16KT 15SM BKN085 OVC140 08/04 A2978 RMK AC7AC1 SLP105

CYXE;2016-10-27 19:00;CYXE 271900Z 11010KT 15SM BKN087 BKN140 OVC250 09/04 A2974 RMK AC5AC2CI1 SLP092

CYXE;2016-10-27 20:00;CYXE 272000Z 11010KT 15SM OVC100 10/05 A2970 RMK AC8 SLP079

CYXE;2016-10-27 21:00;CYXE 272100Z 11008KT 15SM BKN090 OVC250 10/05 A2969 RMK AC6CI2 SLP075 DENSITY ALT 1700FT

CYXE;2016-10-27 22:00;CYXE 272200Z 10007KT 15SM FEW100 OVC220 11/05 A2967 RMK AC2CI6 SLP068 DENSITY ALT 1800FT

CYXE;2016-10-27 23:00;CYXE 272300Z 12007KT 15SM FEW100 OVC220 10/05 A2965 RMK AC1CI7 SLP060 DENSITY ALT 1700FT

CYXE;2016-10-28 00:00;CYXE 280000Z 06006KT 15SM FEW100 OVC220 08/05 A2964 RMK AC1CI7 SLP059

CYXE;2016-10-28 01:00;CYXE 280100Z 02011KT 15SM OVC220 06/05 A2967 RMK CI8 SLP069

CYXE;2016-10-28 02:00;CYXE 280200Z 04011G17KT 15SM OVC160 05/03 A2967 RMK AS8 SLP070

CYXE;2016-10-28 02:54;CYXE 280254Z 02010KT 15SM SCT008 OVC120 04/03 A2969 RMK SC4AS4 SLP077

CYXE;2016-10-28 03:00;CYXE 280300Z 03011KT 15SM BKN006 OVC120 04/03 A2969 RMK SC5AS3 SLP076

CYXE;2016-10-28 04:00;CYXE 280400Z 01011KT 15SM OVC006 04/03 A2971 RMK SC8 SLP081

CYXE;2016-10-28 04:49;CYXE 280449Z 02012G17KT 15SM OVC004 04/03 A2971 RMK ST8 SLP083

CYXE;2016-10-28 05:04;CYXE 280504Z 03014KT 8SM OVC003 04/03 A2971 RMK ST8 BR SLP081

CYXE;2016-10-28 05:43;CYXE 280543Z 03011G18KT 6SM BR OVC002 03/03 A2973 RMK ST8 SLP088

CYXE;2016-10-28 06:00;CYXE 280600Z 03013KT 3SM BR OVC002 03/03 A2973 RMK ST8 SLP087

CYXE;2016-10-28 06:14;CYXE 280614Z 04012G19KT 3/4SM BR OVC002 03/03 A2973 RMK FG1ST7 SLP087

CYXE;2016-10-28 07:00;CYXE 280700Z 03012KT 3/4SM BR OVC002 03/03 A2973 RMK FG1ST7 SLP088

CYXE;2016-10-28 08:00;CYXE 280800Z 02010KT 3/4SM BR OVC002 03/03 A2976 RMK FG1ST7 SLP098

CYXE;2016-10-28 08:21;CYXE 280821Z 02008KT 1SM BR OVC002 03/02 A2977 RMK ST8 SLP101

CYXE;2016-10-28 08:50;CYXE 280850Z 02011KT 3SM BR OVC003 03/02 A2978 RMK ST8 SLP105

CYXE;2016-10-28 09:00;CYXE 280900Z 02011KT 3SM BR BKN003 OVC007 03/02 A2979 RMK ST6ST2 SLP107

CYXE;2016-10-28 10:00;CYXE 281000Z 01012KT 3SM BR BKN003 OVC008 03/02 A2982 RMK ST6ST2 SLP117

CYXE;2016-10-28 10:15;CYXE 281015Z 01012KT 5SM -DZ BR SCT004 OVC007 02/02 A2982 RMK ST3ST5 SLP116

CYXE;2016-10-28 10:48;CYXE 281048Z 02010KT 5SM -DZ BR OVC005 02/02 A2982 RMK ST8 SLP117

CYXE;2016-10-28 11:00;CYXE 281100Z 02015KT 8SM -DZ OVC005 02/02 A2982 RMK ST8 SLP118

CYXE;2016-10-28 11:16;CYXE 281116Z 03012G18KT 10SM OVC006 02/02 A2982 RMK ST8 SLP119

CYXE;2016-10-28 11:54;CYXE 281154Z 03014KT 10SM -DZ OVC006 02/02 A2984 RMK ST8 SLP124

CYXE;2016-10-28 12:00;CYXE 281200Z 03014G19KT 10SM -DZ OVC006 02/02 A2984 RMK ST8 SLP126

CYXE;2016-10-28 13:00;CYXE 281300Z 02014KT 10SM -DZ OVC008 02/02 A2988 RMK ST8 SLP140

CYXE;2016-10-28 14:00;CYXE 281400Z 02011KT 10SM -DZ OVC007 02/02 A2990 RMK ST8 SLP150

CYXE;2016-10-28 14:39;CYXE 281439Z 02011G16KT 15SM OVC005 02/02 A2992 RMK ST8 SLP155

CYXE;2016-10-28 15:00;CYXE 281500Z 02012KT 15SM OVC006 02/02 A2992 RMK ST8 SLP157

CYXE;2016-10-28 16:00;CYXE 281600Z 02011KT 15SM OVC007 02/01 A2995 RMK ST8 SLP166

CYXE;2016-10-28 17:00;CYXE 281700Z 02009KT 15SM OVC008 02/01 A2999 RMK ST8 SLP179

CYXE;2016-10-28 18:00;CYXE 281800Z 02010KT 15SM OVC010 03/01 A3000 RMK SC8 SLP185

CYXE;2016-10-28 19:00;CYXE 281900Z 02011KT 15SM BKN008 OVC012 03/01 A3001 RMK SF5SC3 SLP188

CYXE;2016-10-28 20:00;CYXE 282000Z 02012KT 15SM BKN012 OVC020 04/02 A3002 RMK SC5SC3 SLP191

CYXE;2016-10-28 21:00;CYXE 282100Z 01009KT 15SM OVC012 04/01 A3005 RMK SC8 SLP199

CYXE;2016-10-28 22:00;CYXE 282200Z 36006KT 15SM OVC013 04/01 A3006 RMK SC8 SLP206

CYXE;2016-10-28 22:44;CYXE 282244Z 01004KT 340V040 15SM OVC015 04/01 A3008 RMK SC8 SLP212

CYXE;2016-10-28 23:00;CYXE 282300Z 34005KT 15SM OVC015 04/01 A3009 RMK SC8 SLP213

CYXE;2016-10-29 00:00;CYXE 290000Z 35004KT 15SM BKN015 OVC045 04/01 A3010 RMK SC7SC1 SLP220

CYXE;2016-10-29 00:20;CYXE 290020Z 35006KT 10SM -RA OVC013 04/01 A3011 RMK SC8 PCPN VRY LGT SLP222

CYXE;2016-10-29 01:00;CYXE 290100Z 36004KT 15SM OVC017 03/01 A3012 RMK SC8 SLP224

CYXE;2016-10-29 02:00;CYXE 290200Z 35004KT 15SM SCT015 OVC060 03/01 A3013 RMK SC4SC4 SLP230

CYXE;2016-10-29 03:00;CYXE 290300Z 35004KT 15SM BKN015 OVC060 03/02 A3014 RMK SC7SC1 SLP234

CYXE;2016-10-29 04:00;CYXE 290400Z 02003KT 15SM FEW012 OVC017 03/02 A3015 RMK SC2SC6 SLP237

CYXE;2016-10-29 05:00;CYXE 290500Z 00000KT 15SM FEW010 OVC015 03/02 A3016 RMK SC1SC7 SLP239

CYXE;2016-10-29 06:00;CYXE 290600Z 30002KT 15SM OVC012 03/02 A3016 RMK SC8 SLP239

CYXE;2016-10-29 07:00;CYXE 290700Z 25003KT 12SM OVC011 03/02 A3016 RMK SC8 SLP240

CYXE;2016-10-29 08:00;CYXE 290800Z 24002KT 15SM OVC011 03/02 A3016 RMK SC8 SLP238

CYXE;2016-10-29 09:00;CYXE 290900Z 25004KT 15SM OVC012 03/02 A3016 RMK SC8 SLP239

CYXE;2016-10-29 10:00;CYXE 291000Z 28007KT 15SM FEW006 OVC012 03/02 A3017 RMK SF1SC7 SLP242

CYXE;2016-10-29 10:46;CYXE 291046Z 27005KT 15SM SCT012 00/M01 A3017 RMK SC4 SLP242

CYXE;2016-10-29 11:00;CYXE 291100Z 27005KT 15SM SCT012 M00/M01 A3017 RMK SC3 SLP242

CYXE;2016-10-29 12:00;CYXE 291200Z 27006KT 15SM FEW012 M02/M02 A3017 RMK SC2 SLP246

CYXE;2016-10-29 13:00;CYXE 291300Z 26005KT 15SM FEW012 BKN048 M03/M03 A3018 RMK SC1SC5 SLP250

CYXE;2016-10-29 14:00;CYXE 291400Z 23003KT 15SM BKN046 BKN100 M01/M02 A3017 RMK SC5AC2 SLP246

CYXE;2016-10-29 15:00;CYXE 291500Z 19004KT 15SM BKN048 01/00 A3018 RMK SC7 SLP248

CYXE;2016-10-29 16:00;CYXE 291600Z 21005KT 15SM BKN046 03/02 A3018 RMK SC7 SLP245

CYXE;2016-10-29 17:00;CYXE 291700Z 22007KT 15SM OVC043 04/02 A3018 RMK SC8 SLP246

CYXE;2016-10-29 18:00;CYXE 291800Z 24008KT 15SM FEW025 OVC045 05/03 A3018 RMK SF2SC6 SLP243

CYXE;2016-10-29 19:00;CYXE 291900Z 25011KT 15SM FEW018 OVC045 07/03 A3016 RMK SF2SC6 SLP238

CYXE;2016-10-29 20:00;CYXE 292000Z 25011KT 15SM SCT020 OVC040 07/02 A3015 RMK SC4SC4 SLP234

CYXE;2016-10-29 21:00;CYXE 292100Z 28010G15KT 15SM OVC027 06/01 A3014 RMK SC8 SLP230

CYXE;2016-10-29 22:00;CYXE 292200Z 24009KT 15SM OVC025 06/01 A3014 RMK SC8 SLP230

CYXE;2016-10-29 23:00;CYXE 292300Z 22008KT 15SM OVC022 05/01 A3013 RMK SC8 SLP228

CYXE;2016-10-30 00:00;CYXE 300000Z 23008KT 15SM OVC020 05/02 A3012 RMK SC8 SLP228

CYXE;2016-10-30 01:00;CYXE 300100Z 21008KT 15SM OVC020 05/01 A3012 RMK SC8 SLP226

CYXE;2016-10-30 02:00;CYXE 300200Z 22010KT 15SM OVC019 05/01 A3011 RMK SC8 SLP223

CYXE;2016-10-30 03:00;CYXE 300300Z 21008KT 15SM OVC018 05/01 A3010 RMK SC8 SLP219

CYXE;2016-10-30 04:00;CYXE 300400Z 21006KT 15SM OVC018 04/01 A3009 RMK SC8 SLP215

CYXE;2016-10-30 05:00;CYXE 300500Z 20006KT 15SM OVC018 04/01 A3009 RMK SC8 SLP214

CYXE;2016-10-30 06:00;CYXE 300600Z 19005KT 15SM OVC018 04/01 A3007 RMK SC8 SLP206

CYXE;2016-10-30 07:00;CYXE 300700Z 19007KT 15SM OVC016 04/01 A3006 RMK SC8 SLP202

CYXE;2016-10-30 08:00;CYXE 300800Z 17006KT 15SM OVC015 04/02 A3004 RMK SC8 SLP196

CYXE;2016-10-30 08:24;CYXE 300824Z 17005KT 15SM OVC014 04/02 A3003 RMK SC8 SLP191

CYXE;2016-10-30 09:00;CYXE 300900Z 15006KT 15SM OVC014 04/01 A3002 RMK SC8 SLP187

CYXE;2016-10-30 09:41;CYXE 300941Z 16007KT 15SM OVC017 04/01 A3000 RMK SC8 SLP180

CYXE;2016-10-30 10:00;CYXE 301000Z 16008KT 15SM OVC015 04/01 A2999 RMK SC8 SLP177

CYXE;2016-10-30 10:38;CYXE 301038Z 17008KT 15SM OVC012 04/01 A2996 RMK SC8 SLP168

CYXE;2016-10-30 11:00;CYXE 301100Z 18012KT 15SM OVC011 04/02 A2996 RMK SC8 SLP169

CYXE;2016-10-30 12:00;CYXE 301200Z 14009KT 15SM OVC012 04/02 A2992 RMK SC8 SLP156

CYXE;2016-10-30 13:00;CYXE 301300Z 14008KT 15SM OVC014 04/02 A2992 RMK SC8 SLP154

CYXE;2016-10-30 14:00;CYXE 301400Z 12007KT 15SM OVC014 04/02 A2990 RMK SC8 SLP148

CYXE;2016-10-30 15:00;CYXE 301500Z 12010KT 15SM OVC012 04/02 A2986 RMK SC8 SLP135

CYXE;2016-10-30 16:00;CYXE 301600Z 14011KT 15SM OVC011 04/02 A2983 RMK SC8 SLP126

CYXE;2016-10-30 17:00;CYXE 301700Z 20010KT 150V220 15SM OVC010 05/02 A2982 RMK SC8 SLP120

CYXE;2016-10-30 17:47;CYXE 301747Z 18006KT 15SM OVC009 05/03 A2982 RMK SC8 SLP119

CYXE;2016-10-30 18:00;CYXE 301800Z 18008KT 15SM OVC008 05/03 A2981 RMK SC8 SLP117

CYXE;2016-10-30 19:00;CYXE 301900Z 19006KT 160V230 15SM OVC008 05/03 A2978 RMK SC8 SLP107

CYXE;2016-10-30 20:00;CYXE 302000Z VRB03KT 15SM OVC009 05/03 A2976 RMK SC8 SLP098

CYXE;2016-10-30 20:49;CYXE 302049Z VRB04KT 15SM OVC010 05/03 A2976 RMK SC8 SLP099

CYXE;2016-10-30 21:00;CYXE 302100Z VRB04KT 15SM OVC010 05/03 A2976 RMK SC8 SLP098

CYXE;2016-10-30 22:00;CYXE 302200Z 24003KT 15SM OVC011 06/03 A2976 RMK SC8 SLP098

CYXE;2016-10-30 23:05;CYXE 302305Z 25004KT 15SM SCT014 05/02 A2975 RMK SC4 SLP095

CYXE;2016-10-30 23:37;CYXE 302337Z 27006KT 15SM FEW015 02/01 A2975 RMK SC1 SLP097

CYXE;2016-10-31 00:00;CYXE 310000Z 23007KT 15SM FEW015 01/M00 A2974 RMK SC1 SLP097

CYXE;2016-10-31 01:00;CYXE 310100Z 25006KT 15SM FEW015 01/M00 A2974 RMK SC1 SLP096

CYXE;2016-10-31 02:00;CYXE 310200Z 27005KT 10SM R09/2600FT/N BCFG SKC M01/M02 A2973 RMK VIS W-N 1/2 FZFG SLP093

CYXE;2016-10-31 02:44;CYXE 310244Z 27004KT 1/2SM R09/2400FT/N FZFG SKC M02/M02 A2972 RMK VIS N-SE 10 SLP090

CYXE;2016-10-31 03:00;CYXE 310300Z 29003KT 1/4SM R09/1800FT/N FZFG SKC M03/M03 A2970 RMK VIS VRB 1/8-3/8 PRESFR SLP086

CYXE;2016-10-31 03:32;CYXE 310332Z 23005KT 10SM R09/1600V2800FT/N BCFG BKN030 M02/M02 A2971 RMK SC6 SLP087

CYXE;2016-10-31 04:00;CYXE 310400Z 21008KT 10SM BCFG BKN030 01/00 A2972 RMK SC7 SLP087

CYXE;2016-10-31 05:00;CYXE 310500Z 25006KT 10SM BKN034 01/01 A2971 RMK SC6 BR PTCHS SLP084

CYXE;2016-10-31 06:00;CYXE 310600Z 24005KT 15SM BKN031 00/00 A2969 RMK SC7 SLP077

CYXE;2016-10-31 07:00;CYXE 310700Z 27004KT 15SM SCT030 M01/M01 A2967 RMK SC4 SLP071

CYXE;2016-10-31 08:00;CYXE 310800Z 22004KT 15SM FEW030 M02/M02 A2966 RMK SC1 SLP070

CYXE;2016-10-31 09:00;CYXE 310900Z 20005KT 15SM FEW003 M02/M03 A2965 RMK SF1 SLP067

CYXE;2016-10-31 10:00;CYXE 311000Z 26004KT 15SM SKC M03/M04 A2963 RMK SLP058

CYXE;2016-10-31 11:00;CYXE 311100Z 24005KT 15SM SKC M04/M04 A2962 RMK SLP056

CYXE;2016-10-31 11:27;CYXE 311127Z 20004KT 15SM SCT003 M04/M05 A2962 RMK SF4 SLP058

CYXE;2016-10-31 12:00;CYXE 311200Z 18005KT 15SM FEW004 M03/M04 A2962 RMK SF2 SLP058

CYXE;2016-10-31 12:44;CYXE 311244Z 00000KT 15SM BKN006 M03/M04 A2961 RMK SF6 SLP053

CYXE;2016-10-31 13:00;CYXE 311300Z 35003KT 270V360 15SM BKN006 M04/M04 A2960 RMK SF6 SLP052

CYXE;2016-10-31 14:00;CYXE 311400Z 22003KT 15SM BKN006 BKN012 M02/M03 A2962 RMK SF5SC2 SLP060

CYXE;2016-10-31 14:10;CYXE 311410Z 20004KT 15SM BKN004 OVC010 M02/M02 A2962 RMK SF5SC3 SLP060

CYXE;2016-10-31 15:00;CYXE 311500Z 23002KT 12SM BKN004 OVC012 M01/M02 A2961 RMK SF5SC3 SLP058

CYXE;2016-10-31 15:28;CYXE 311528Z VRB02KT 12SM SCT004 OVC015 M01/M01 A2962 RMK SF3SC5 SLP059

CYXE;2016-10-31 16:00;CYXE 311600Z VRB02KT 15SM SCT004 BKN015 OVC240 00/M00 A2961 RMK SF3SC4CI1 SLP053

CYXE;2016-10-31 16:17;CYXE 311617Z VRB02KT 10SM FEW004 OVC011 00/00 A2960 RMK SF2SC6 SLP050

CYXE;2016-10-31 16:38;CYXE 311638Z 25003KT 10SM OVC009 01/01 A2961 RMK SC8 SLP054

CYXE;2016-10-31 17:01;CYXE 311701Z 32003KT 260V330 10SM SCT004 OVC010 01/01 A2961 RMK SF3SC5 SLP051

CYXE;2016-10-31 17:34;CYXE 311734Z 00000KT 10SM BKN004 OVC009 02/02 A2961 RMK SF5SC3 SLP051

CYXE;2016-10-31 18:00;CYXE 311800Z 00000KT 10SM BKN004 OVC009 03/02 A2960 RMK SF5SC3 SLP050

CYXE;2016-10-31 18:14;CYXE 311814Z VRB02KT 12SM SCT004 OVC008 03/02 A2960 RMK SF4SC4 SLP049

CYXE;2016-10-31 19:00;CYXE 311900Z 03004KT 350V070 12SM SCT004 OVC007 04/02 A2960 RMK SF3SC5 SLP047

CYXE;2016-10-31 20:00;CYXE 312000Z 35002KT 15SM FEW004 OVC008 04/02 A2960 RMK SF2SC6 SLP047

CYXE;2016-10-31 21:00;CYXE 312100Z CCA VRB02KT 10SM OVC008 04/02 A2960 RMK SC8 SLP051

CYXE;2016-10-31 21:29;CYXE 312129Z 32004KT 10SM SCT008 OVC013 04/02 A2961 RMK SC3SC5 BR SLP052

CYXE;2016-10-31 22:00;CYXE 312200Z 24004KT 230V300 10SM OVC013 04/01 A2961 RMK SC8 BR SLP052

CYXE;2016-10-31 22:43;CYXE 312243Z VRB02KT 12SM OVC017 04/01 A2962 RMK SC8 BR SLP056

CYXE;2016-10-31 23:00;CYXE 312300Z 00000KT 12SM OVC016 04/01 A2961 RMK SC8 BR SLP055

CYXE;2016-11-01 00:00;CYXE 010000Z VRB02KT 15SM OVC017 04/01 A2961 RMK SC8 SLP055

CYXE;2016-11-01 01:00;CYXE 010100Z 21004KT 15SM FEW015 BKN090 03/01 A2962 RMK SC1AC5 SLP058

CYXE;2016-11-01 01:09;CYXE 010109Z 22005KT 15SM FEW020 BKN090 02/M00 A2962 RMK SC1AC4 SLP060

CYXE;2016-11-01 02:00;CYXE 010200Z 20005KT 15SM BKN020 OVC090 03/01 A2962 RMK SC6AC2 SLP058

CYXE;2016-11-01 03:00;CYXE 010300Z 20007KT 15SM FEW020 SCT090 OVC170 02/00 A2962 RMK SC1AC3AC4 SLP057

CYXE;2016-11-01 04:00;CYXE 010400Z 18005KT 15SM SCT020 OVC180 02/00 A2962 RMK SC3AC5 SLP056

CYXE;2016-11-01 05:00;CYXE 010500Z 18005KT 8SM FEW020 OVC090 02/01 A2962 RMK SC1AC7 BR SLP056

CYXE;2016-11-01 06:00;CYXE 010600Z 18008KT 8SM SCT020 OVC090 02/02 A2964 RMK SC3AC5 BR SLP059

CYXE;2016-11-01 07:00;CYXE 010700Z 19007KT 15SM SCT025 OVC080 02/01 A2963 RMK SC3AC5 SLP058

CYXE;2016-11-01 07:47;CYXE 010747Z 18006KT 15SM FEW004 OVC070 02/01 A2962 RMK SF2AC6 SLP055

CYXE;2016-11-01 08:00;CYXE 010800Z 18008KT 8SM BKN004 OVC070 02/01 A2962 RMK ST5AC3 BR SLP055

CYXE;2016-11-01 09:00;CYXE 010900Z 16007KT 8SM BKN004 OVC060 02/01 A2961 RMK ST6SC2 BR SLP051

CYXE;2016-11-01 09:25;CYXE 010925Z 16006KT 8SM SCT004 OVC060 02/01 A2961 RMK SF3SC5 BR SLP049

CYXE;2016-11-01 10:00;CYXE 011000Z 15006KT 15SM FEW004 OVC060 02/01 A2960 RMK SF1SC7 SLP046

CYXE;2016-11-01 11:00;CYXE 011100Z 14006KT 15SM FEW004 SCT038 OVC060 03/02 A2959 RMK SF1SC3SC4 SLP041

CYXE;2016-11-01 12:00;CYXE 011200Z 12006KT 15SM SCT040 OVC090 03/02 A2958 RMK SC3AC5 SLP038

CYXE;2016-11-01 13:00;CYXE 011300Z 12005KT 15SM SCT040 OVC090 03/02 A2957 RMK SC3AC5 SLP037

CYXE;2016-11-01 14:00;CYXE 011400Z 09005KT 15SM FEW012 SCT040 OVC080 02/02 A2957 RMK SF1SC2AC5 SLP036

CYXE;2016-11-01 15:00;CYXE 011500Z 06004KT 15SM FEW015 FEW040 BKN080 OVC140 03/02 A2958 RMK SF1SC1AC3AC3 SLP039

CYXE;2016-11-01 15:21;CYXE 011521Z 01002KT 15SM BKN014 BKN080 OVC140 04/03 A2959 RMK SF5AC2AC1 SLP043

CYXE;2016-11-01 15:32;CYXE 011532Z 01003KT 15SM FEW009 OVC014 04/03 A2959 RMK SF2SC6 SLP044

CYXE;2016-11-01 16:00;CYXE 011600Z 34004KT 15SM SCT008 OVC014 04/03 A2960 RMK SF4SC4 SLP047

CYXE;2016-11-01 16:08;CYXE 011608Z 33005KT 10SM -RA BKN008 OVC014 04/03 A2960 RMK SC6SC2 SLP049

CYXE;2016-11-01 16:51;CYXE 011651Z 36013KT 8SM -RA OVC006 02/02 A2962 RMK SF8 SLP056

CYXE;2016-11-01 17:00;CYXE 011700Z 01011G17KT 8SM -RA BKN006 OVC035 02/01 A2963 RMK SF7SC1 SLP057

CYXE;2016-11-01 18:00;CYXE 011800Z 36013G19KT 15SM -RA BKN007 OVC030 01/01 A2967 RMK SC5SC3 SLP071

CYXE;2016-11-01 19:00;CYXE 011900Z 01015KT 15SM -RA BKN009 BKN030 02/01 A2970 RMK SC6SC1 PRESRR SLP081

CYXE;2016-11-01 19:18;CYXE 011918Z 02013G21KT 15SM BKN008 02/01 A2971 RMK SC7 SLP085

CYXE;2016-11-01 19:53;CYXE 011953Z 35012G18KT 15SM OVC011 02/01 A2974 RMK SC8 SLP097

CYXE;2016-11-01 20:00;CYXE 012000Z 35014G20KT 15SM OVC011 02/01 A2975 RMK SC8 PRESRR SLP098

CYXE;2016-11-01 20:39;CYXE 012039Z 35012KT 15SM OVC015 03/00 A2978 RMK SC8 PRESRR SLP110

CYXE;2016-11-01 21:00;CYXE 012100Z 35012KT 15SM OVC015 02/M00 A2979 RMK SC8 SLP113

CYXE;2016-11-01 22:00;CYXE 012200Z 03005KT 15SM OVC020 02/M01 A2983 RMK SC8 SLP126

CYXE;2016-11-01 22:44;CYXE 012244Z 36004KT 15SM OVC013 02/M01 A2986 RMK SC8 SLP136

CYXE;2016-11-01 23:00;CYXE 012300Z 35003KT 330V030 15SM OVC013 02/M01 A2987 RMK SC8 SLP139

CYXE;2016-11-01 23:34;CYXE 012334Z 31011KT 15SM OVC020 01/M01 A2988 RMK SC8 SLP143

CYXE;2016-11-02 00:00;CYXE 020000Z 31010KT 15SM OVC020 01/M01 A2989 RMK SC8 SLP149

CYXE;2016-11-02 01:00;CYXE 020100Z 33004KT 15SM OVC018 00/M02 A2992 RMK SC8 SLP157

CYXE;2016-11-02 02:00;CYXE 020200Z 00000KT 15SM FEW020 M00/M02 A2993 RMK SC1 SLP161

CYXE;2016-11-02 03:00;CYXE 020300Z 22005KT 15SM SKC M02/M02 A2995 RMK SLP170

CYXE;2016-11-02 04:00;CYXE 020400Z 23005KT 15SM OVC020 M01/M02 A2998 RMK SC8 SLP178

CYXE;2016-11-02 05:00;CYXE 020500Z 23006KT 15SM OVC018 M00/M01 A2999 RMK SC8 SLP183

CYXE;2016-11-02 06:00;CYXE 020600Z 00000KT 15SM OVC022 M01/M03 A3000 RMK SC8 SLP188

CYXE;2016-11-02 07:00;CYXE 020700Z 16005KT 15SM BKN022 M00/M02 A3000 RMK SC7 SLP185

CYXE;2016-11-02 08:00;CYXE 020800Z 18007KT 15SM FEW022 SCT120 M02/M03 A3001 RMK SC1AC3 SLP191

CYXE;2016-11-02 09:00;CYXE 020900Z 18008KT 15SM SKC M02/M03 A3001 RMK SLP191

CYXE;2016-11-02 10:00;CYXE 021000Z 18008KT 15SM SKC M02/M03 A3001 RMK SLP191

CYXE;2016-11-02 11:00;CYXE 021100Z 19008KT 15SM SCT200 M01/M02 A3001 RMK CI3 SLP190

CYXE;2016-11-02 12:00;CYXE 021200Z 17005KT 15SM BKN150 M01/M02 A3001 RMK AC5 SLP190

CYXE;2016-11-02 13:00;CYXE 021300Z 18004KT 15SM BKN120 M00/M02 A3000 RMK AC5 SLP189

CYXE;2016-11-02 14:00;CYXE 021400Z 00000KT 15SM SCT027 BKN160 OVC240 M02/M03 A3000 RMK SC4AC2CI2 SLP191

CYXE;2016-11-02 15:00;CYXE 021500Z 15004KT 15SM BKN031 OVC240 01/M00 A3003 RMK SC7CI1 SLP197

CYXE;2016-11-02 16:00;CYXE 021600Z 14006KT 15SM BKN028 OVC240 02/01 A3003 RMK SC7CI1 SLP196

CYXE;2016-11-02 17:00;CYXE 021700Z 16006KT 15SM SCT010 OVC025 03/01 A3003 RMK SF3SC5 SLP196

CYXE;2016-11-02 17:44;CYXE 021744Z 16005KT 15SM BKN008 OVC025 03/01 A3003 RMK SC6SC2 SLP197

CYXE;2016-11-02 18:00;CYXE 021800Z 15007KT 15SM BKN008 OVC025 04/02 A3003 RMK SC7SC1 SLP197

CYXE;2016-11-02 19:00;CYXE 021900Z 13008KT 15SM BKN008 BKN017 04/02 A3001 RMK SC6SC1 PRESRR SLP189

CYXE;2016-11-02 20:00;CYXE 022000Z 16008KT 15SM BKN009 OVC018 04/02 A3002 RMK SC6SC2 SLP192

CYXE;2016-11-02 20:47;CYXE 022047Z 13006KT 15SM BKN012 OVC019 04/02 A3002 RMK SC6SC2 SLP192

CYXE;2016-11-02 21:00;CYXE 022100Z 13008KT 15SM BKN010 OVC019 04/02 A3002 RMK SC6SC2 SLP192

CYXE;2016-11-02 22:00;CYXE 022200Z 12009KT 15SM OVC011 04/02 A3002 RMK SC8 SLP192

CYXE;2016-11-02 22:42;CYXE 022242Z 15008KT 15SM OVC009 04/02 A3003 RMK SC8 SLP196

CYXE;2016-11-02 23:00;CYXE 022300Z 10007KT 15SM OVC009 04/02 A3003 RMK SC8 SLP195

CYXE;2016-11-03 00:00;CYXE 030000Z 12007KT 15SM OVC008 03/02 A3004 RMK SC8 SLP198

CYXE;2016-11-03 01:00;CYXE 030100Z 12006KT 15SM OVC008 03/02 A3005 RMK SC8 SLP203

CYXE;2016-11-03 02:00;CYXE 030200Z 10005KT 15SM OVC008 03/02 A3007 RMK ST8 SLP210

CYXE;2016-11-03 03:00;CYXE 030300Z 09006KT 15SM OVC009 03/02 A3007 RMK ST8 SLP208

CYXE;2016-11-03 04:00;CYXE 030400Z 10005KT 15SM OVC009 03/02 A3008 RMK ST8 SLP213

CYXE;2016-11-03 05:00;CYXE 030500Z 14004KT 15SM OVC009 04/02 A3009 RMK ST8 SLP215

CYXE;2016-11-03 06:00;CYXE 030600Z 14004KT 15SM OVC009 03/02 A3009 RMK ST8 SLP215

CYXE;2016-11-03 07:00;CYXE 030700Z 14005KT 15SM OVC009 03/02 A3010 RMK ST8 SLP219

CYXE;2016-11-03 08:00;CYXE 030800Z 14007KT 15SM OVC009 03/02 A3011 RMK ST8 SLP220

CYXE;2016-11-03 08:47;CYXE 030847Z 14006KT 15SM OVC007 03/02 A3010 RMK ST8 SLP219

CYXE;2016-11-03 09:00;CYXE 030900Z 15006KT 15SM OVC006 03/02 A3011 RMK ST8 SLP220

CYXE;2016-11-03 10:00;CYXE 031000Z 15006KT 8SM OVC004 03/02 A3011 RMK ST8 SLP220

CYXE;2016-11-03 10:11;CYXE 031011Z 13008KT 6SM BR OVC003 02/02 A3011 RMK ST8 SLP221

CYXE;2016-11-03 10:34;CYXE 031034Z 15008KT 5SM BR OVC002 02/02 A3010 RMK ST8 SLP220

CYXE;2016-11-03 10:52;CYXE 031052Z 16009KT 1 1/2SM BR OVC002 02/02 A3011 RMK FG1ST7 SLP222

CYXE;2016-11-03 11:00;CYXE 031100Z 15008KT 1SM R09/P6000FT/D BR OVC002 02/02 A3011 RMK FG1ST7 SLP222

CYXE;2016-11-03 11:06;CYXE 031106Z 16007KT 3/4SM R09/4000VP6000FT/D BR OVC001 02/02 A3011 RMK FG3ST5 SLP222

CYXE;2016-11-03 12:00;CYXE 031200Z 18008KT 3/4SM R09/3000VP6000FT/U BR OVC002 01/01 A3010 RMK FG2ST6 SLP220

CYXE;2016-11-03 12:09;CYXE 031209Z 17006KT 1SM R09/3500VP6000FT/D BR OVC002 01/01 A3010 RMK FG1ST7 SLP220

CYXE;2016-11-03 13:00;CYXE 031300Z 15006KT 1SM R09/P6000FT/N BR OVC002 01/01 A3009 RMK FG1ST7 SLP216

CYXE;2016-11-03 13:15;CYXE 031315Z 13008KT 8SM SCT002 OVC006 01/01 A3008 RMK ST4ST4 SLP213

CYXE;2016-11-03 13:31;CYXE 031331Z 13007KT 5SM BR BKN002 OVC006 01/01 A3009 RMK ST5SC3 SLP214

CYXE;2016-11-03 13:50;CYXE 031350Z 14006KT 6SM BR SCT002 BKN220 01/00 A3009 RMK ST4CI3 SLP216

CYXE;2016-11-03 14:00;CYXE 031400Z 14005KT 10SM FEW002 BKN220 01/00 A3009 RMK ST2CI5 BR SLP216

CYXE;2016-11-03 15:00;CYXE 031500Z 15006KT 15SM BKN220 01/01 A3008 RMK CI7 SLP213

CYXE;2016-11-03 16:00;CYXE 031600Z 17010KT 15SM BKN250 03/01 A3007 RMK CI7 SLP208

CYXE;2016-11-03 17:00;CYXE 031700Z 17010KT 15SM BKN250 06/02 A3006 RMK CI7 SLP203

CYXE;2016-11-03 18:00;CYXE 031800Z 21012KT 15SM BKN250 09/04 A3006 RMK CI6 SLP200

CYXE;2016-11-03 19:00;CYXE 031900Z 21010KT 15SM BKN250 11/05 A3003 RMK CI6 SLP190

CYXE;2016-11-03 20:00;CYXE 032000Z 24011KT 15SM BKN250 12/05 A3004 RMK CI7 SLP193

CYXE;2016-11-03 21:00;CYXE 032100Z 24007KT 15SM BKN250 13/06 A3005 RMK CI7 PRESRR SLP193

CYXE;2016-11-03 22:00;CYXE 032200Z 26009KT 15SM BKN250 13/06 A3005 RMK CI5 SLP196

CYXE;2016-11-03 23:00;CYXE 032300Z 25007KT 15SM SCT250 11/06 A3008 RMK CI3 SLP208

CYXE;2016-11-04 00:00;CYXE 040000Z 23009KT 15SM FEW250 06/04 A3011 RMK CI2 SLP220

CYXE;2016-11-04 01:00;CYXE 040100Z 22008KT 15SM FEW250 05/03 A3012 RMK CI2 SLP225

CYXE;2016-11-04 02:00;CYXE 040200Z 21008KT 15SM SKC 06/03 A3013 RMK SLP228

CYXE;2016-11-04 03:00;CYXE 040300Z 23008KT 15SM SKC 04/02 A3014 RMK SLP231

CYXE;2016-11-04 04:00;CYXE 040400Z 18005KT 15SM SKC 04/02 A3012 RMK SLP223

CYXE;2016-11-04 05:00;CYXE 040500Z 21009KT 15SM SKC 05/02 A3011 RMK SLP220

CYXE;2016-11-04 06:00;CYXE 040600Z 24006KT 15SM SKC 04/01 A3013 RMK SLP223

CYXE;2016-11-04 07:00;CYXE 040700Z 00000KT 15SM SKC 02/M01 A3014 RMK SLP226

CYXE;2016-11-04 08:00;CYXE 040800Z 22011KT 15SM SKC 04/01 A3014 RMK SLP226

CYXE;2016-11-04 09:00;CYXE 040900Z 22009KT 15SM SKC 04/01 A3015 RMK SLP229

CYXE;2016-11-04 10:00;CYXE 041000Z 23008KT 15SM SKC 02/00 A3014 RMK SLP226

CYXE;2016-11-04 11:00;CYXE 041100Z 23008KT 15SM SKC 02/M00 A3015 RMK SLP230

CYXE;2016-11-04 12:00;CYXE 041200Z 21007KT 15SM SKC 01/M01 A3015 RMK SLP234

CYXE;2016-11-04 13:00;CYXE 041300Z 20004KT 15SM SKC 01/M01 A3014 RMK SLP233

CYXE;2016-11-04 14:00;CYXE 041400Z 18003KT 090V190 15SM BKN280 00/M01 A3014 RMK CI7 SLP233

CYXE;2016-11-04 15:00;CYXE 041500Z 00000KT 15SM BKN280 00/M01 A3014 RMK CI7 SLP235

CYXE;2016-11-04 16:00;CYXE 041600Z 20004KT 15SM BKN280 02/01 A3014 RMK CI7 SLP233

CYXE;2016-11-04 17:00;CYXE 041700Z 20007KT 15SM BKN280 05/02 A3014 RMK CI7 SLP228

CYXE;2016-11-04 18:00;CYXE 041800Z 18008KT 15SM BKN280 06/03 A3011 RMK CI6 SLP219

CYXE;2016-11-04 19:00;CYXE 041900Z 19007KT 15SM BKN280 08/03 A3009 RMK CI5 SLP213

CYXE;2016-11-04 20:00;CYXE 042000Z 21010KT 15SM SCT280 12/04 A3008 RMK CI3 SLP205

CYXE;2016-11-04 21:00;CYXE 042100Z 19006KT 15SM FEW280 14/04 A3006 RMK CI2 SLP198 DENSITY ALT 1700FT

CYXE;2016-11-04 22:00;CYXE 042200Z 20007KT 15SM FEW280 15/04 A3005 RMK CI1 SLP195 DENSITY ALT 1800FT

CYXE;2016-11-04 23:00;CYXE 042300Z 10005KT 15SM FEW280 12/04 A3004 RMK CI1 SLP193

CYXE;2016-11-05 00:00;CYXE 050000Z 12005KT 15SM FEW250 08/03 A3003 RMK CI1 SLP191

CYXE;2016-11-05 01:00;CYXE 050100Z 18003KT 15SM SKC 09/03 A3003 RMK SLP193

CYXE;2016-11-05 02:00;CYXE 050200Z 18005KT 15SM SKC 06/03 A3003 RMK SLP194

CYXE;2016-11-05 03:00;CYXE 050300Z 17005KT 15SM SKC 06/03 A3002 RMK SLP192

CYXE;2016-11-05 04:00;CYXE 050400Z 20006KT 15SM SKC 05/02 A3001 RMK SLP186

CYXE;2016-11-05 05:00;CYXE 050500Z 20006KT 15SM SKC 04/02 A3000 RMK SLP181

CYXE;2016-11-05 06:00;CYXE 050600Z 20010KT 15SM SKC 05/03 A2997 RMK SLP170

CYXE;2016-11-05 07:00;CYXE 050700Z 00000KT 15SM SKC 02/00 A2998 RMK SLP175

CYXE;2016-11-05 08:00;CYXE 050800Z 18006KT 15SM SKC 00/M00 A2996 RMK SLP168

CYXE;2016-11-05 09:00;CYXE 050900Z 19009KT 15SM SKC 02/01 A2997 RMK SLP167

CYXE;2016-11-05 10:00;CYXE 051000Z 20012KT 15SM SKC 03/01 A2994 RMK PRESFR SLP156

CYXE;2016-11-05 11:00;CYXE 051100Z 20008KT 15SM SKC 03/00 A2994 RMK SLP158

CYXE;2016-11-05 12:00;CYXE 051200Z 20009KT 15SM SKC 03/M00 A2993 RMK SLP156

CYXE;2016-11-05 13:00;CYXE 051300Z 20008KT 15SM SKC 03/M00 A2992 RMK SLP154

CYXE;2016-11-05 14:00;CYXE 051400Z 19006KT 15SM BKN280 02/M01 A2991 RMK CI6 SLP152

CYXE;2016-11-05 15:00;CYXE 051500Z 19007KT 15SM BKN280 03/M00 A2991 RMK CI6 SLP150

CYXE;2016-11-05 16:00;CYXE 051600Z 19011KT 15SM BKN280 05/01 A2989 RMK CI6 SLP144

CYXE;2016-11-05 17:00;CYXE 051700Z 19011KT 15SM BKN280 09/01 A2987 RMK CI6 SLP136

CYXE;2016-11-05 18:00;CYXE 051800Z 19012KT 15SM BKN280 12/02 A2985 RMK CI5 SLP125 DENSITY ALT 1700FT

CYXE;2016-11-05 19:00;CYXE 051900Z 21011KT 15SM SCT280 15/02 A2982 RMK CI3 SLP117 DENSITY ALT 2100FT

CYXE;2016-11-05 20:00;CYXE 052000Z 21016KT 15SM FEW280 19/M00 A2979 RMK CI2 SLP104 DENSITY ALT 2600FT

CYXE;2016-11-05 21:00;CYXE 052100Z 21011G18KT 15SM FEW280 19/01 A2977 RMK CI1 SLP094 DENSITY ALT 2600FT

CYXE;2016-11-05 22:00;CYXE 052200Z 20010G17KT 15SM SKC 19/02 A2975 RMK SLP090 DENSITY ALT 2600FT

CYXE;2016-11-05 23:00;CYXE 052300Z 18010KT 15SM FEW270 16/03 A2974 RMK CI1 SLP088 DENSITY ALT 2300FT

CYXE;2016-11-06 00:00;CYXE 060000Z 17009KT 15SM FEW270 12/04 A2973 RMK CI1 SLP085 DENSITY ALT 1800FT

CYXE;2016-11-06 01:00;CYXE 060100Z 19012KT 15SM SKC 12/04 A2971 RMK SLP080 DENSITY ALT 1900FT

CYXE;2016-11-06 02:00;CYXE 060200Z 19015KT 15SM SKC 11/03 A2971 RMK SLP079 DENSITY ALT 1800FT

CYXE;2016-11-06 03:00;CYXE 060300Z 19010G16KT 15SM SKC 11/02 A2970 RMK SLP077 DENSITY ALT 1700FT

CYXE;2016-11-06 04:00;CYXE 060400Z 19009KT 15SM SKC 09/02 A2970 RMK SLP077

CYXE;2016-11-06 05:00;CYXE 060500Z 19011KT 15SM SKC 09/02 A2969 RMK SLP071

CYXE;2016-11-06 06:00;CYXE 060600Z 19010KT 15SM SKC 08/02 A2969 RMK SLP068

CYXE;2016-11-06 07:00;CYXE 060700Z 20010KT 15SM SKC 07/01 A2968 RMK SLP064

CYXE;2016-11-06 08:00;CYXE 060800Z 20011KT 15SM SKC 07/01 A2967 RMK SLP058

CYXE;2016-11-06 09:00;CYXE 060900Z 19011KT 15SM SKC 06/01 A2966 RMK SLP057

CYXE;2016-11-06 10:00;CYXE 061000Z 20010KT 15SM SKC 06/01 A2966 RMK SLP055

CYXE;2016-11-06 11:00;CYXE 061100Z 20009KT 15SM SCT220 05/01 A2965 RMK CI4 SLP056

CYXE;2016-11-06 12:00;CYXE 061200Z 20008KT 15SM BKN220 04/00 A2964 RMK CI5 SLP056

CYXE;2016-11-06 13:00;CYXE 061300Z 20006KT 15SM BKN220 05/00 A2964 RMK CI6 SLP052

CYXE;2016-11-06 14:00;CYXE 061400Z 20009KT 15SM SCT220 03/M00 A2964 RMK CI4 SLP054

CYXE;2016-11-06 14:25;CYXE 061425Z VRB02KT 15SM SCT220 01/M01 A2964 RMK CI4 SLP056

CYXE;2016-11-06 15:00;CYXE 061500Z 16007KT 15SM FEW220 BKN280 03/00 A2964 RMK CI2CI4 SLP055

CYXE;2016-11-06 16:00;CYXE 061600Z 20009KT 15SM FEW220 BKN280 09/01 A2964 RMK CI2CI4 SLP052

CYXE;2016-11-06 17:00;CYXE 061700Z 22007KT 15SM FEW230 BKN300 11/02 A2962 RMK CI2CI5 SLP046 DENSITY ALT 1900FT

CYXE;2016-11-06 18:00;CYXE 061800Z 22009KT 15SM SCT240 BKN300 15/02 A2961 RMK CI3CI3 SLP040 DENSITY ALT 2400FT

CYXE;2016-11-06 19:00;CYXE 061900Z 24014KT 15SM SCT270 19/01 A2960 RMK CI4 SLP034 DENSITY ALT 2800FT

CYXE;2016-11-06 20:00;CYXE 062000Z 23013G19KT 15SM SCT270 20/01 A2959 RMK CI3 SLP030 DENSITY ALT 2900FT

CYXE;2016-11-06 21:00;CYXE 062100Z 24012G18KT 15SM BKN240 19/02 A2959 RMK CI5 SLP030 DENSITY ALT 2900FT

CYXE;2016-11-06 22:00;CYXE 062200Z 25009KT 15SM FEW200 BKN250 17/02 A2960 RMK CI2CI4 SLP035 DENSITY ALT 2600FT

CYXE;2016-11-06 23:00;CYXE 062300Z 30010KT 15SM FEW140 BKN250 13/03 A2962 RMK AC2CI5 SLP045 DENSITY ALT 2100FT

CYXE;2016-11-07 00:00;CYXE 070000Z 30007KT 15SM FEW090 BKN140 BKN250 09/02 A2965 RMK AC2AC3CI2 SLP061

CYXE;2016-11-07 01:00;CYXE 070100Z 31010KT 15SM BKN120 08/02 A2968 RMK AC7 SLP068

CYXE;2016-11-07 02:00;CYXE 070200Z 31008KT 15SM BKN120 BKN200 06/02 A2970 RMK AC5CI2 SLP080

CYXE;2016-11-07 03:00;CYXE 070300Z 32013KT 15SM BKN200 06/02 A2972 RMK CI5 SLP084

CYXE;2016-11-07 04:00;CYXE 070400Z 31011KT 15SM FEW200 04/00 A2976 RMK CI2 SLP098

CYXE;2016-11-07 05:00;CYXE 070500Z 31010G16KT 15SM SCT016 BKN110 05/02 A2980 RMK SC4AC2 SLP110

CYXE;2016-11-07 06:00;CYXE 070600Z 31014G21KT 15SM BKN020 BKN110 05/03 A2984 RMK SC5AC2 SLP121

CYXE;2016-11-07 07:00;CYXE 070700Z 32016G22KT 15SM VCSH FEW020 OVC055 06/03 A2989 RMK SC1SC7 SLP135

CYXE;2016-11-07 07:06;CYXE 070706Z 32016G22KT 15SM -SHRA FEW020 OVC050 06/03 A2990 RMK SC1SC7 CVCTV CLD EMBD PRESRR SLP138

CYXE;2016-11-07 07:50;CYXE 070750Z 32009G17KT 15SM FEW020 BKN050 OVC080 05/04 A2993 RMK SC1SC4AC3 SLP149

CYXE;2016-11-07 08:00;CYXE 070800Z 31009KT 15SM SCT050 OVC075 05/04 A2993 RMK SC4AC4 SLP149

CYXE;2016-11-07 09:00;CYXE 070900Z 30010KT 15SM SCT040 BKN080 05/03 A2998 RMK SC4AC3 SLP165

CYXE;2016-11-07 10:00;CYXE 071000Z 30009KT 15SM FEW040 03/02 A3001 RMK SC1 SLP179

CYXE;2016-11-07 10:31;CYXE 071031Z 30009KT 15SM FEW040 02/01 A3002 RMK SC1 SLP182

CYXE;2016-11-07 10:50;CYXE 071050Z 28009KT 15SM BKN011 01/00 A3003 RMK SC7 SLP187

CYXE;2016-11-07 11:00;CYXE 071100Z 28009KT 15SM BKN010 01/01 A3004 RMK SC5 SLP191

CYXE;2016-11-07 12:00;CYXE 071200Z 28007KT 15SM OVC008 02/01 A3005 RMK ST8 SLP199

CYXE;2016-11-07 12:55;CYXE 071255Z 25008KT 15SM FEW008 01/M00 A3009 RMK SF2 SLP211

CYXE;2016-11-07 13:00;CYXE 071300Z 26007KT 15SM FEW008 00/M00 A3009 RMK SF1 SLP213

CYXE;2016-11-07 14:00;CYXE 071400Z 27008KT 15SM FEW008 M01/M01 A3011 RMK SF1 SLP223

CYXE;2016-11-07 15:00;CYXE 071500Z 27006KT 12SM FEW008 M00/M01 A3014 RMK SF1 SLP231

CYXE;2016-11-07 16:00;CYXE 071600Z 26007KT 15SM SKC 02/02 A3016 RMK SLP238

CYXE;2016-11-07 17:00;CYXE 071700Z 26006KT 15SM SKC 05/03 A3019 RMK SLP247

CYXE;2016-11-07 18:00;CYXE 071800Z 24008KT 15SM FEW240 08/04 A3021 RMK CI1 SLP252

CYXE;2016-11-07 19:00;CYXE 071900Z 22011KT 15SM FEW240 10/04 A3022 RMK CI2 SLP254

CYXE;2016-11-07 20:00;CYXE 072000Z 22008KT 15SM FEW240 12/05 A3021 RMK CI2 SLP248

CYXE;2016-11-07 21:00;CYXE 072100Z 23011KT 15SM FEW240 12/05 A3021 RMK CI2 SLP249

CYXE;2016-11-07 22:00;CYXE 072200Z 24012KT 15SM FEW250 12/04 A3022 RMK CI1 SLP255

CYXE;2016-11-07 23:00;CYXE 072300Z 22006KT 15SM SCT250 08/03 A3025 RMK CI3 SLP266

CYXE;2016-11-08 00:00;CYXE 080000Z 21006KT 15SM FEW250 06/02 A3025 RMK CI1 SLP267

CYXE;2016-11-08 01:00;CYXE 080100Z 17005KT 15SM FEW250 05/02 A3026 RMK CI1 SLP272

CYXE;2016-11-08 02:00;CYXE 080200Z 17005KT 15SM SKC 04/02 A3025 RMK SLP273

CYXE;2016-11-08 03:00;CYXE 080300Z 18006KT 15SM SKC 04/02 A3026 RMK SLP274

CYXE;2016-11-08 04:00;CYXE 080400Z 17009KT 15SM SKC 04/02 A3025 RMK SLP269

CYXE;2016-11-08 05:00;CYXE 080500Z 16009KT 15SM FEW250 03/02 A3023 RMK CI2 SLP260

CYXE;2016-11-08 06:00;CYXE 080600Z 16007KT 15SM SCT250 03/01 A3023 RMK CI4 SLP259

CYXE;2016-11-08 06:06;CYXE 080606Z 17008KT 15SM SCT250 02/01 A3023 RMK CI4 SLP261

CYXE;2016-11-08 07:00;CYXE 080700Z 17008KT 15SM SCT250 03/01 A3023 RMK CI4 SLP259

CYXE;2016-11-08 08:00;CYXE 080800Z 16008KT 15SM SCT250 03/01 A3020 RMK CI3 SLP248

CYXE;2016-11-08 09:00;CYXE 080900Z 17006KT 15SM SCT250 03/01 A3019 RMK CI4 SLP244

CYXE;2016-11-08 10:00;CYXE 081000Z 17006KT 15SM BKN250 03/01 A3018 RMK CI5 SLP241

CYXE;2016-11-08 11:00;CYXE 081100Z 17009KT 15SM BKN250 03/01 A3017 RMK CI6 SLP238

CYXE;2016-11-08 12:00;CYXE 081200Z 17008KT 15SM BKN250 03/01 A3016 RMK CI7 SLP237

CYXE;2016-11-08 13:00;CYXE 081300Z 17008KT 15SM BKN260 03/01 A3015 RMK CI6 SLP235

CYXE;2016-11-08 13:10;CYXE 081310Z 17007KT 15SM BKN260 02/00 A3015 RMK CI6 SLP234

CYXE;2016-11-08 14:00;CYXE 081400Z 18009G15KT 15SM BKN260 03/01 A3014 RMK CI7 SLP232

CYXE;2016-11-08 15:00;CYXE 081500Z 18009KT 15SM OVC270 04/01 A3013 RMK CI8 SLP227

CYXE;2016-11-08 16:00;CYXE 081600Z 19012KT 15SM OVC270 05/02 A3012 RMK CI8 SLP224

CYXE;2016-11-08 17:00;CYXE 081700Z 19011KT 15SM FEW080 OVC270 06/02 A3011 RMK AC1CI7 SLP220

CYXE;2016-11-08 18:00;CYXE 081800Z 19012KT 15SM FEW080 OVC270 08/03 A3009 RMK AC2CI6 SLP214

CYXE;2016-11-08 19:00;CYXE 081900Z 19007KT 15SM SCT080 BKN270 11/05 A3007 RMK AC3CI4 SLP204

CYXE;2016-11-08 20:00;CYXE 082000Z 20009KT 15SM FEW025 SCT080 BKN270 12/06 A3006 RMK SF1AC3CI3 SLP198

CYXE;2016-11-08 21:00;CYXE 082100Z 18010KT 15SM FEW080 BKN270 BKN340 14/06 A3002 RMK AC2CI3CI2 SLP186 DENSITY ALT 1700FT

CYXE;2016-11-08 22:00;CYXE 082200Z 19008KT 15SM FEW080 BKN270 14/06 A3001 RMK AC2CI5 SLP182 DENSITY ALT 1700FT

CYXE;2016-11-08 23:00;CYXE 082300Z 18006KT 15SM FEW270 13/06 A3000 RMK CI2 SLP176 DENSITY ALT 1700FT

CYXE;2016-11-09 00:00;CYXE 090000Z 18010KT 15SM FEW270 13/06 A2998 RMK CI1 WND ESTD SLP171

CYXE;2016-11-09 01:00;CYXE 090100Z 19012KT 15SM SKC 12/05 A2997 RMK SLP167

CYXE;2016-11-09 02:00;CYXE 090200Z 19011KT 15SM SKC 11/05 A2996 RMK SLP167

CYXE;2016-11-09 03:00;CYXE 090300Z 19014KT 15SM SKC 11/05 A2996 RMK SLP164

CYXE;2016-11-09 04:00;CYXE 090400Z 19010KT 15SM SKC 09/04 A2994 RMK SLP158

CYXE;2016-11-09 05:00;CYXE 090500Z 18009KT 15SM SKC 08/03 A2993 RMK SLP156

CYXE;2016-11-09 06:00;CYXE 090600Z 20013KT 15SM SKC 08/03 A2992 RMK SLP150

CYXE;2016-11-09 07:00;CYXE 090700Z 20011KT 15SM FEW270 07/03 A2990 RMK CI1 SLP143

CYXE;2016-11-09 08:00;CYXE 090800Z 22008KT 15SM FEW270 07/03 A2990 RMK CI2 SLP140

CYXE;2016-11-09 09:00;CYXE 090900Z 22005KT 15SM SCT270 07/03 A2989 RMK CI3 SLP139

CYXE;2016-11-09 10:00;CYXE 091000Z 19003KT 15SM BKN270 04/02 A2989 RMK CI5 SLP138

CYXE;2016-11-09 11:00;CYXE 091100Z 18003KT 15SM FEW270 04/02 A2988 RMK CI2 SLP135

CYXE;2016-11-09 12:00;CYXE 091200Z 20007KT 15SM FEW270 05/03 A2987 RMK CI2 SLP133

CYXE;2016-11-09 13:00;CYXE 091300Z 21008KT 15SM BKN200 07/03 A2987 RMK CI5 SLP132

CYXE;2016-11-09 14:00;CYXE 091400Z 21008KT 15SM FEW080 BKN240 06/03 A2986 RMK AC2CI5 SLP129

CYXE;2016-11-09 15:00;CYXE 091500Z 22010KT 15SM FEW080 BKN230 07/03 A2987 RMK AC2CI5 SLP132

CYXE;2016-11-09 16:00;CYXE 091600Z 22007KT 15SM FEW140 BKN230 08/04 A2986 RMK AC2CI4 SLP129

CYXE;2016-11-09 17:00;CYXE 091700Z 24009KT 15SM FEW140 SCT230 BKN320 12/05 A2986 RMK AC1CI3CI3 SLP128 DENSITY ALT 1700FT

CYXE;2016-11-09 18:00;CYXE 091800Z 24008KT 15SM FEW140 SCT240 BKN320 14/05 A2986 RMK AC1CI2CI2 SLP126 DENSITY ALT 2000FT

CYXE;2016-11-09 19:00;CYXE 091900Z 27007KT 15SM FEW140 SCT320 16/05 A2985 RMK AC2CI1 SLP121 DENSITY ALT 2200FT

CYXE;2016-11-09 20:00;CYXE 092000Z 23008KT 15SM FEW140 SCT320 18/05 A2983 RMK AC2CI1 SLP115 DENSITY ALT 2400FT

CYXE;2016-11-09 21:00;CYXE 092100Z 25007KT 15SM FEW140 FEW240 18/05 A2984 RMK AC1CI1 SLP117 DENSITY ALT 2500FT

CYXE;2016-11-09 22:00;CYXE 092200Z 28008KT 15SM FEW140 FEW240 18/05 A2986 RMK AC1CI1 SLP125 DENSITY ALT 2400FT

CYXE;2016-11-09 23:00;CYXE 092300Z 30008KT 15SM FEW240 14/04 A2987 RMK CI1 SLP130 DENSITY ALT 1900FT

CYXE;2016-11-10 00:00;CYXE 100000Z 28008KT 15SM FEW240 09/03 A2989 RMK CI1 SLP143

CYXE;2016-11-10 01:00;CYXE 100100Z 30007KT 15SM SKC 09/03 A2992 RMK SLP151

CYXE;2016-11-10 02:00;CYXE 100200Z 30012KT 15SM SKC 11/04 A2995 RMK SLP161

CYXE;2016-11-10 03:00;CYXE 100300Z 31015G20KT 15SM SCT200 10/04 A2998 RMK CC4 SLP170

CYXE;2016-11-10 04:00;CYXE 100400Z 31014KT 15SM BKN220 09/03 A3001 RMK CC6 SLP182

CYXE;2016-11-10 05:00;CYXE 100500Z 32012KT 15SM FEW230 08/03 A3005 RMK CI2 SLP190

CYXE;2016-11-10 06:00;CYXE 100600Z 31011KT 15SM FEW230 07/02 A3009 WS ALL RWY RMK CI2 UUA /OV CYXE /TM 0542 /TP CRJ9 /RM WV 360033 TILL FLAIRED FOR LDG RWY 09 SLP205

CYXE;2016-11-10 07:00;CYXE 100700Z CCA 30009KT 15SM FEW210 05/02 A3013 WS ALL RWY RMK CI2 SLP219

CYXE;2016-11-10 08:00;CYXE 100800Z 30011KT 15SM SKC 04/00 A3016 RMK SLP229

CYXE;2016-11-10 08:19;CYXE 100819Z 30009KT 15SM SKC 02/M00 A3018 RMK SLP235

CYXE;2016-11-10 09:00;CYXE 100900Z 28009KT 15SM FEW210 02/M00 A3020 RMK CI2 SLP245

CYXE;2016-11-10 10:00;CYXE 101000Z 30009KT 15SM SKC 03/00 A3025 RMK SLP259

CYXE;2016-11-10 11:00;CYXE 101100Z 30012KT 15SM SKC 02/M00 A3026 RMK SLP266

CYXE;2016-11-10 12:00;CYXE 101200Z 30008KT 15SM SKC 01/M01 A3028 RMK SLP279

CYXE;2016-11-10 13:00;CYXE 101300Z 29008KT 15SM SKC 00/M01 A3031 RMK SLP288

CYXE;2016-11-10 14:00;CYXE 101400Z 29009KT 15SM SKC 00/M01 A3033 RMK SLP293

CYXE;2016-11-10 15:00;CYXE 101500Z 30008KT 15SM SKC 01/M01 A3036 RMK SLP303

CYXE;2016-11-10 16:00;CYXE 101600Z 29009KT 15SM FEW300 03/00 A3037 RMK CI1 SLP308

CYXE;2016-11-10 17:00;CYXE 101700Z 30011KT 15SM FEW300 05/01 A3040 RMK CI2 SLP318

CYXE;2016-11-10 18:00;CYXE 101800Z 30009KT 15SM SCT340 07/02 A3042 RMK CI3 SLP322

CYXE;2016-11-10 19:00;CYXE 101900Z 29006KT 15SM BKN340 09/01 A3041 RMK CI6 SLP321

CYXE;2016-11-10 20:00;CYXE 102000Z 27004KT 230V290 15SM BKN340 10/01 A3041 RMK CI6 SLP321

CYXE;2016-11-10 21:00;CYXE 102100Z 25005KT 15SM BKN340 11/01 A3042 RMK CI5 SLP323

CYXE;2016-11-10 22:00;CYXE 102200Z 25005KT 15SM BKN300 11/00 A3042 RMK CI5 SLP325

CYXE;2016-11-10 23:00;CYXE 102300Z 24006KT 15SM BKN300 08/01 A3042 RMK CI5 SLP326

CYXE;2016-11-11 00:00;CYXE 110000Z 20004KT 15SM SKC 07/02 A3041 RMK SLP325

CYXE;2016-11-11 01:00;CYXE 110100Z 18004KT 070V180 15SM SKC 05/01 A3041 RMK SLP324

CYXE;2016-11-11 01:19;CYXE 110119Z 18003KT 15SM SKC 02/M01 A3041 RMK SLP325

CYXE;2016-11-11 02:00;CYXE 110200Z 17003KT 130V200 15SM SKC 02/M01 A3041 RMK SLP328

CYXE;2016-11-11 03:00;CYXE 110300Z 16005KT 15SM SKC 02/M01 A3040 RMK SLP323

CYXE;2016-11-11 04:00;CYXE 110400Z 16008KT 15SM SKC M00/M02 A3040 RMK SLP323

CYXE;2016-11-11 05:00;CYXE 110500Z 16009KT 15SM SKC M00/M02 A3038 RMK SLP315

CYXE;2016-11-11 06:00;CYXE 110600Z 17009KT 15SM SCT200 M00/M03 A3036 RMK CI3 PRESFR SLP307

CYXE;2016-11-11 07:00;CYXE 110700Z 19006KT 15SM FEW200 M01/M03 A3036 RMK CI1 SLP305

CYXE;2016-11-11 08:00;CYXE 110800Z 16007KT 15SM FEW200 M02/M03 A3033 RMK CI1 SLP296

CYXE;2016-11-11 09:00;CYXE 110900Z 17011KT 15SM FEW200 03/00 A3029 RMK CI1 SLP278

CYXE;2016-11-11 10:00;CYXE 111000Z 17009KT 15SM SKC 02/M00 A3027 RMK SLP270

CYXE;2016-11-11 11:00;CYXE 111100Z 17014KT 15SM SKC 04/00 A3023 RMK SLP260

CYXE;2016-11-11 12:00;CYXE 111200Z 17019G28KT 15SM SKC 05/00 A3018 RMK PRESFR SLP244

CYXE;2016-11-11 13:00;CYXE 111300Z 17021G28KT 15SM SKC 05/00 A3013 RMK SLP226

CYXE;2016-11-11 14:00;CYXE 111400Z 18022G27KT 15SM SCT230 05/M00 A3010 RMK CI3 SLP218

CYXE;2016-11-11 15:00;CYXE 111500Z 18017G24KT 15SM FEW050 BKN230 04/M00 A3008 RMK SC1CI4 SLP212

CYXE;2016-11-11 16:00;CYXE 111600Z 19014G23KT 15SM FEW050 BKN230 06/M00 A3005 RMK SC1CI5 SLP202

CYXE;2016-11-11 17:00;CYXE 111700Z 19017G25KT 15SM FEW070 BKN280 08/01 A3002 WS RWY27 RMK AC1CI4 SLP189

CYXE;2016-11-11 18:00;CYXE 111800Z 18019G25KT 15SM FEW070 SCT300 10/01 A2997 RMK AC1CI2 SLP173

CYXE;2016-11-11 19:00;CYXE 111900Z 20018KT 15SM FEW080 SCT300 12/02 A2993 RMK AC1CI2 SLP157

CYXE;2016-11-11 20:00;CYXE 112000Z 19017G22KT 15SM FEW090 SCT300 14/03 A2990 RMK AC1CI3 SLP146 DENSITY ALT 1800FT

CYXE;2016-11-11 21:00;CYXE 112100Z 20014KT 15SM FEW170 BKN300 15/04 A2986 RMK AC2CI3 SLP128 DENSITY ALT 2100FT

CYXE;2016-11-11 22:00;CYXE 112200Z 21017G24KT 15SM BKN170 BKN300 15/03 A2982 RMK AC5CI2 SLP117 DENSITY ALT 2100FT

CYXE;2016-11-11 23:00;CYXE 112300Z 22008G15KT 15SM SCT170 BKN250 13/03 A2983 RMK AC3CI4 SLP120 DENSITY ALT 1900FT

CYXE;2016-11-12 00:00;CYXE 120000Z 20010KT 15SM BKN250 12/04 A2982 RMK CI7 SLP117 DENSITY ALT 1800FT

CYXE;2016-11-12 01:00;CYXE 120100Z 25005KT 15SM BKN250 09/03 A2982 RMK CI5 SLP119

CYXE;2016-11-12 02:00;CYXE 120200Z 23008KT 15SM BKN240 06/03 A2982 RMK CI5 SLP118

CYXE;2016-11-12 03:00;CYXE 120300Z 25008KT 15SM SCT170 06/02 A2982 RMK AC4 SLP121

CYXE;2016-11-12 04:00;CYXE 120400Z 23008KT 15SM SCT170 04/02 A2982 RMK AC4 SLP120

CYXE;2016-11-12 05:00;CYXE 120500Z 24007KT 15SM BKN170 03/01 A2983 RMK AC5 SLP122

CYXE;2016-11-12 06:00;CYXE 120600Z 22007KT 15SM FEW120 BKN170 BKN270 03/00 A2983 RMK AC2AC3CI2 SLP121

CYXE;2016-11-12 07:00;CYXE 120700Z 27004KT 15SM BKN120 BKN270 03/01 A2983 RMK AC5CI1 SLP121

CYXE;2016-11-12 08:00;CYXE 120800Z 29006KT 15SM FEW120 BKN270 00/M01 A2983 RMK AC2CI3 SLP122

CYXE;2016-11-12 09:00;CYXE 120900Z 21005KT 15SM SCT120 BKN270 01/M01 A2984 RMK AC4CI2 SLP123

CYXE;2016-11-12 10:00;CYXE 121000Z 18004KT 15SM FEW120 BKN190 02/00 A2983 RMK AC2CI3 SLP121

CYXE;2016-11-12 11:00;CYXE 121100Z 28007KT 15SM SCT200 01/M00 A2984 RMK CI3 SLP124

CYXE;2016-11-12 12:00;CYXE 121200Z 19002KT 15SM SCT210 01/M00 A2982 RMK CI3 SLP119

CYXE;2016-11-12 13:00;CYXE 121300Z 00000KT 15SM SCT140 BKN210 01/M00 A2982 RMK AC3CI3 SLP119

CYXE;2016-11-12 14:00;CYXE 121400Z 17005KT 15SM SCT150 BKN210 01/M01 A2980 RMK AC3CI3 SLP114

CYXE;2016-11-12 15:00;CYXE 121500Z 00000KT 15SM BKN170 01/00 A2979 RMK AC5 SLP112

CYXE;2016-11-12 16:00;CYXE 121600Z 15004KT 15SM BKN170 06/02 A2976 RMK AC7 SLP100

CYXE;2016-11-12 17:00;CYXE 121700Z 16005KT 15SM SCT170 09/02 A2974 RMK AC4 SLP090

CYXE;2016-11-12 18:00;CYXE 121800Z 16010KT 15SM SCT170 10/02 A2971 RMK AC3 SLP079 DENSITY ALT 1700FT

CYXE;2016-11-12 19:00;CYXE 121900Z 16014KT 15SM FEW170 12/03 A2965 RMK AC2 PRESFR SLP059 DENSITY ALT 2000FT

CYXE;2016-11-12 20:00;CYXE 122000Z 20011KT 15SM FEW170 14/03 A2963 RMK AC1 SLP051 DENSITY ALT 2200FT

CYXE;2016-11-12 21:00;CYXE 122100Z 21008KT 15SM FEW170 14/04 A2960 RMK AC2 SLP042 DENSITY ALT 2300FT

CYXE;2016-11-12 22:00;CYXE 122200Z 24011KT 15SM SCT110 14/04 A2959 RMK AC3 SLP037 DENSITY ALT 2300FT

CYXE;2016-11-12 23:00;CYXE 122300Z 19007KT 15SM BKN110 12/04 A2956 RMK AC7 SLP029 DENSITY ALT 2100FT

CYXE;2016-11-13 00:00;CYXE 130000Z 19009KT 15SM OVC100 13/04 A2954 RMK AC8 SLP022 DENSITY ALT 2200FT

CYXE;2016-11-13 01:00;CYXE 130100Z 21009KT 15SM OVC110 13/04 A2953 RMK AC8 SLP018 DENSITY ALT 2200FT

CYXE;2016-11-13 02:00;CYXE 130200Z 31006KT 15SM OVC090 10/04 A2952 RMK AC8 SLP017 DENSITY ALT 1900FT

CYXE;2016-11-13 03:00;CYXE 130300Z 00000KT 15SM OVC090 10/04 A2951 RMK AC8 SLP011 DENSITY ALT 1900FT

CYXE;2016-11-13 04:00;CYXE 130400Z 00000KT 15SM SCT120 BKN280 09/04 A2949 RMK AC4CI2 SLP002 DENSITY ALT 1800FT

CYXE;2016-11-13 05:00;CYXE 130500Z 27010KT 15SM SCT090 07/03 A2949 RMK AC4 SLP004

CYXE;2016-11-13 06:00;CYXE 130600Z 31016KT 15SM SCT090 BKN130 08/03 A2953 RMK AC3AC3 SLP014

CYXE;2016-11-13 07:00;CYXE 130700Z 29011KT 15SM BKN080 07/03 A2956 RMK AC6 SLP026

CYXE;2016-11-13 08:00;CYXE 130800Z 29016KT 15SM BKN080 BKN150 06/03 A2960 RMK AC5AC2 SLP039

CYXE;2016-11-13 09:00;CYXE 130900Z 30013G18KT 15SM OVC058 06/04 A2963 RMK SC8 SLP049

CYXE;2016-11-13 10:00;CYXE 131000Z 30015G21KT 15SM OVC042 06/04 A2967 RMK SC8 SLP061

CYXE;2016-11-13 11:00;CYXE 131100Z 32014G21KT 15SM FEW030 OVC056 06/04 A2969 RMK SC2SC6 SLP071

CYXE;2016-11-13 12:00;CYXE 131200Z 30013G19KT 15SM OVC050 06/04 A2974 RMK SC8 PRESRR SLP088

CYXE;2016-11-13 13:00;CYXE 131300Z 31013KT 15SM OVC050 05/04 A2979 RMK SC8 SLP103

CYXE;2016-11-13 14:00;CYXE 131400Z 31009KT 15SM SCT050 BKN230 04/03 A2982 RMK SC3CI3 SLP117

CYXE;2016-11-13 15:00;CYXE 131500Z 29007KT 15SM FEW050 BKN090 BKN230 03/02 A2985 RMK SC1AC5CI1 SLP127

CYXE;2016-11-13 16:00;CYXE 131600Z 29005KT 15SM BKN090 05/03 A2988 RMK AC7 SLP137

CYXE;2016-11-13 17:00;CYXE 131700Z 27007KT 15SM BKN084 06/03 A2990 RMK AC7 SLP144

CYXE;2016-11-13 18:00;CYXE 131800Z 29008KT 15SM BKN053 08/03 A2991 RMK SC6 SLP145

CYXE;2016-11-13 19:00;CYXE 131900Z 26006KT 15SM FEW053 10/02 A2989 RMK SC1 SLP140

CYXE;2016-11-13 20:00;CYXE 132000Z 27009KT 15SM SCT210 11/01 A2991 RMK CI3 SLP145

CYXE;2016-11-13 21:00;CYXE 132100Z 26008KT 15SM FEW060 SCT210 11/01 A2991 RMK SC2CI1 SLP144

CYXE;2016-11-13 22:00;CYXE 132200Z 25007KT 15SM FEW060 FEW210 12/03 A2991 RMK SC1CI1 SLP144

CYXE;2016-11-13 23:00;CYXE 132300Z 24004KT 15SM FEW280 09/03 A2990 RMK CI1 SLP144

CYXE;2016-11-14 00:00;CYXE 140000Z 25005KT 15SM FEW280 07/03 A2990 RMK CI1 SLP146

CYXE;2016-11-14 01:00;CYXE 140100Z 21006KT 15SM FEW280 05/02 A2989 RMK CI1 SLP145

CYXE;2016-11-14 02:00;CYXE 140200Z 19004KT 15SM SKC 04/01 A2989 RMK SLP145

CYXE;2016-11-14 03:00;CYXE 140300Z 17003KT 15SM SCT280 04/02 A2989 RMK CI3 SLP145

CYXE;2016-11-14 03:40;CYXE 140340Z 16007KT 15SM SCT280 02/01 A2986 RMK CI3 SLP136

CYXE;2016-11-14 04:00;CYXE 140400Z 15005KT 15SM BKN240 03/01 A2985 RMK CI6 SLP130

CYXE;2016-11-14 05:00;CYXE 140500Z 17007KT 15SM BKN240 03/02 A2983 RMK CI7 SLP125

CYXE;2016-11-14 06:00;CYXE 140600Z 18007KT 15SM BKN200 03/02 A2981 RMK CI7 SLP115

CYXE;2016-11-14 07:00;CYXE 140700Z 17009KT 15SM BKN200 05/03 A2978 RMK CI7 SLP102

CYXE;2016-11-14 08:00;CYXE 140800Z 18011KT 15SM OVC170 06/04 A2974 RMK AC8 SLP089

CYXE;2016-11-14 09:00;CYXE 140900Z 18008KT 15SM BKN120 07/04 A2972 RMK AC6 SLP080

CYXE;2016-11-14 10:00;CYXE 141000Z 16009KT 15SM OVC140 06/03 A2969 RMK AC8 SLP071

CYXE;2016-11-14 11:00;CYXE 141100Z 18008KT 15SM FEW012 OVC100 06/03 A2966 RMK SC1AC7 SLP062

CYXE;2016-11-14 12:00;CYXE 141200Z 18011KT 15SM SCT093 07/03 A2964 RMK AC3 SLP055

CYXE;2016-11-14 13:00;CYXE 141300Z 20011G17KT 15SM FEW230 06/02 A2962 RMK CI2 SLP050

CYXE;2016-11-14 14:00;CYXE 141400Z 19011KT 15SM FEW120 SCT240 05/01 A2958 RMK AC1CI3 SLP038

CYXE;2016-11-14 15:00;CYXE 141500Z 22014KT 15SM FEW120 BKN240 05/01 A2959 RMK AC2CI3 SLP040

CYXE;2016-11-14 16:00;CYXE 141600Z 24010G15KT 15SM SCT170 SCT280 05/00 A2959 RMK AC3CI1 SLP043

CYXE;2016-11-14 17:00;CYXE 141700Z 22015KT 15SM SCT170 07/00 A2957 RMK AC3 SLP034

CYXE;2016-11-14 18:00;CYXE 141800Z 26011KT 15SM FEW060 FEW170 09/01 A2957 RMK SC1AC1 SLP034

CYXE;2016-11-14 19:00;CYXE 141900Z 27011KT 15SM FEW060 SCT140 11/01 A2956 RMK SC1AC2 SLP028 DENSITY ALT 2000FT

CYXE;2016-11-14 20:00;CYXE 142000Z 26012KT 15SM FEW120 SCT280 12/01 A2957 RMK AC2CI2 SLP028 DENSITY ALT 2000FT

CYXE;2016-11-14 21:00;CYXE 142100Z 27010KT 15SM FEW120 BKN260 11/02 A2957 RMK AC2CI3 SLP030 DENSITY ALT 1900FT

CYXE;2016-11-14 22:00;CYXE 142200Z 28010KT 15SM FEW120 SCT260 11/01 A2960 RMK AC1CI2 SLP038 DENSITY ALT 1900FT

CYXE;2016-11-14 23:00;CYXE 142300Z 31008KT 15SM FEW120 FEW260 08/02 A2960 RMK AC1CI1 SLP042

CYXE;2016-11-15 00:00;CYXE 150000Z 29007KT 15SM SCT090 BKN220 07/02 A2963 RMK AC3CI3 SLP051

CYXE;2016-11-15 01:00;CYXE 150100Z 25006KT 15SM FEW100 BKN220 03/00 A2965 RMK AC2CI3 SLP061

CYXE;2016-11-15 01:12;CYXE 150112Z 25008KT 15SM FEW100 BKN220 02/M00 A2965 RMK AC2CI3 SLP064

CYXE;2016-11-15 02:00;CYXE 150200Z 23010KT 15SM FEW100 02/M00 A2966 RMK AC1 SLP066

CYXE;2016-11-15 03:00;CYXE 150300Z 26008KT 15SM SKC 01/M01 A2968 RMK SLP073

CYXE;2016-11-15 04:00;CYXE 150400Z 26008KT 15SM FEW100 00/M01 A2970 RMK AC1 SLP082

CYXE;2016-11-15 05:00;CYXE 150500Z 28010KT 15SM FEW100 02/M01 A2972 RMK AC1 SLP087

CYXE;2016-11-15 06:00;CYXE 150600Z 29011KT 15SM SKC 03/M02 A2974 RMK SLP092

CYXE;2016-11-15 06:52;CYXE 150652Z 28008KT 15SM SKC 02/M03 A2976 RMK SLP100

CYXE;2016-11-15 07:00;CYXE 150700Z 24006KT 230V290 15SM SKC M01/M04 A2977 RMK SLP101

CYXE;2016-11-15 08:00;CYXE 150800Z 27009KT 15SM SKC M01/M04 A2978 RMK SLP106

CYXE;2016-11-15 09:00;CYXE 150900Z 26009KT 15SM SKC M03/M04 A2981 RMK SLP116

CYXE;2016-11-15 10:00;CYXE 151000Z 26011KT 15SM SKC M02/M04 A2983 RMK SLP122

CYXE;2016-11-15 11:00;CYXE 151100Z 27009KT 15SM SKC M02/M04 A2983 RMK SLP124

CYXE;2016-11-15 12:00;CYXE 151200Z 25010KT 15SM SKC M03/M05 A2984 RMK SLP131

CYXE;2016-11-15 13:00;CYXE 151300Z 26011KT 15SM SKC M03/M05 A2984 RMK SLP134

CYXE;2016-11-15 14:00;CYXE 151400Z 24011KT 15SM SKC M02/M05 A2985 RMK SLP137

CYXE;2016-11-15 15:00;CYXE 151500Z 25010KT 15SM FEW160 M02/M05 A2986 RMK AC1 SLP139

CYXE;2016-11-15 16:00;CYXE 151600Z 25010KT 15SM FEW160 M01/M04 A2986 RMK AC1 SLP139

CYXE;2016-11-15 17:00;CYXE 151700Z 26013KT 15SM FEW170 01/M04 A2986 RMK AC1 SLP137

CYXE;2016-11-15 18:00;CYXE 151800Z 23009KT 15SM FEW220 04/M03 A2986 RMK CI1 SLP136

CYXE;2016-11-15 19:00;CYXE 151900Z 24011KT 15SM SCT280 06/M03 A2984 RMK CI3 SLP129

CYXE;2016-11-15 20:00;CYXE 152000Z 23009KT 15SM FEW120 BKN280 07/M03 A2982 RMK AC1CI5 SLP123

CYXE;2016-11-15 21:00;CYXE 152100Z 21007KT 15SM FEW120 BKN280 07/M03 A2979 RMK AC1CI6 SLP114

CYXE;2016-11-15 22:00;CYXE 152200Z 23008KT 15SM FEW120 BKN220 05/M03 A2978 RMK AC2CI5 SLP112

CYXE;2016-11-15 23:00;CYXE 152300Z 20006KT 15SM FEW100 BKN200 04/M04 A2976 RMK AC2CI5 SLP105

CYXE;2016-11-16 00:00;CYXE 160000Z 19004KT 15SM OVC120 04/M04 A2975 RMK AC8 SLP100

CYXE;2016-11-16 01:00;CYXE 160100Z 20004KT 15SM OVC120 03/M04 A2972 RMK AC8 SLP091

CYXE;2016-11-16 02:00;CYXE 160200Z 00000KT 15SM OVC090 03/M04 A2970 RMK AC8 SLP086

CYXE;2016-11-16 02:11;CYXE 160211Z 00000KT 15SM OVC085 02/M03 A2970 RMK AC8 SLP085

CYXE;2016-11-16 03:00;CYXE 160300Z 03004KT 15SM OVC055 03/M03 A2969 RMK SC8 PRESRR SLP079

CYXE;2016-11-16 04:00;CYXE 160400Z 11008KT 100V170 15SM BKN040 OVC080 05/M04 A2964 RMK SC5AC3 PRESFR SLP062

CYXE;2016-11-16 05:00;CYXE 160500Z 13008KT 15SM OVC073 05/M03 A2962 RMK AC8 SLP055

CYXE;2016-11-16 05:46;CYXE 160546Z 13007KT 15SM -SHRA OVC040 05/M03 A2960 RMK SC8 CVCTV CLD EMBD SLP047

CYXE;2016-11-16 06:00;CYXE 160600Z 10009KT 15SM -SHRA OVC045 04/M01 A2959 RMK SC8 CVCTV CLD EMBD SLP043

CYXE;2016-11-16 07:00;CYXE 160700Z 09009KT 15SM -SHRA OVC047 04/M02 A2954 RMK SC8 CVCTV CLD EMBD SLP025

CYXE;2016-11-16 08:00;CYXE 160800Z 12019KT 10SM -SHRA OVC040 04/01 A2954 RMK SC8 CVCTV CLD EMBD SLP023

CYXE;2016-11-16 08:25;CYXE 160825Z 09014G22KT 15SM OVC030 03/01 A2951 RMK SC8 PRESFR SLP015

CYXE;2016-11-16 09:00;CYXE 160900Z 08011G20KT 15SM OVC025 03/01 A2952 RMK SC8 SLP017

CYXE;2016-11-16 09:45;CYXE 160945Z 06016G22KT 12SM -DZ OVC030 02/01 A2948 RMK SC8 PRESFR SLP005

CYXE;2016-11-16 10:00;CYXE 161000Z 06016G22KT 15SM -DZ OVC029 02/01 A2948 RMK SC8 SLP006

CYXE;2016-11-16 11:00;CYXE 161100Z 06015G21KT 15SM -DZ SCT012 OVC022 02/01 A2947 RMK SC4SC4 SLP003

CYXE;2016-11-16 11:20;CYXE 161120Z 06016G24KT 12SM -DZSN BKN006 OVC012 02/01 A2947 RMK ST6SC2 SLP002

CYXE;2016-11-16 12:00;CYXE 161200Z 04016G23KT 10SM -DZSN OVC006 01/00 A2948 RMK ST8 SLP005

CYXE;2016-11-16 12:15;CYXE 161215Z 03014G22KT 8SM -SN OVC006 01/00 A2948 RMK ST8 SLP005

CYXE;2016-11-16 12:24;CYXE 161224Z 03013G18KT 8SM -SN OVC004 01/M00 A2948 RMK ST8 SLP006

CYXE;2016-11-16 13:00;CYXE 161300Z 03018G23KT 8SM -RASN OVC004 00/M00 A2949 RMK ST8 SLP009

CYXE;2016-11-16 14:00;CYXE 161400Z 02021KT 6SM -RASN SCT008 00/M00 A2951 RMK ST4 SLP018

CYXE;2016-11-16 14:22;CYXE 161422Z 02017G27KT 6SM -RASN BKN008 OVC026 00/M00 A2952 RMK ST6SC2 SLP022

CYXE;2016-11-16 14:52;CYXE 161452Z 03018G26KT 6SM -SN BKN007 OVC026 00/M00 A2954 RMK ST7SC1 SLP028

CYXE;2016-11-16 15:00;CYXE 161500Z 02019G26KT 8SM -SN BKN007 OVC026 00/M00 A2955 RMK ST7SC1 PRESRR SLP032

CYXE;2016-11-16 15:14;CYXE 161514Z 02016G23KT 2 1/2SM -SN OVC007 00/M01 A2956 RMK ST8 SLP035

CYXE;2016-11-16 15:43;CYXE 161543Z 01015G22KT 5SM -SN OVC008 00/M01 A2958 RMK ST8 SLP042

CYXE;2016-11-16 16:00;CYXE 161600Z 01013G18KT 4SM -SN OVC008 00/M01 A2959 RMK ST8 SLP044

CYXE;2016-11-16 17:00;CYXE 161700Z 34014KT 4SM -SN OVC008 00/M00 A2964 RMK ST8 SLP059

CYXE;2016-11-16 17:17;CYXE 161717Z 34016KT 15SM -SN BKN010 OVC025 00/M00 A2964 RMK ST6SC2 SLP062

CYXE;2016-11-16 17:31;CYXE 161731Z 34015G20KT 15SM BKN009 OVC025 01/M00 A2965 RMK ST7SC1 SLP065

CYXE;2016-11-16 17:40;CYXE 161740Z 34015G23KT 15SM SCT009 OVC050 01/M00 A2965 RMK SF4SC4 SLP066

CYXE;2016-11-16 18:00;CYXE 161800Z 35014KT 15SM SCT007 SCT070 OVC280 01/00 A2966 RMK SF3AC1CI4 SLP069

CYXE;2016-11-16 19:00;CYXE 161900Z 34016KT 15SM FEW009 SCT070 OVC280 02/M01 A2969 RMK SF2AC1CI5 SLP077

CYXE;2016-11-16 20:00;CYXE 162000Z 33013KT 15SM FEW012 FEW080 OVC240 02/M02 A2972 RMK SF1AC1CI6 SLP088

CYXE;2016-11-16 21:00;CYXE 162100Z 35015KT 15SM FEW012 SCT120 OVC240 01/M03 A2974 RMK SF1AC3CI4 SLP097

CYXE;2016-11-16 22:00;CYXE 162200Z 33009KT 15SM FEW120 BKN210 02/M02 A2977 RMK AC2CI4 SLP106

CYXE;2016-11-16 23:00;CYXE 162300Z 32008KT 15SM FEW120 SCT210 M00/M03 A2980 RMK AC1CI2 SLP118

CYXE;2016-11-17 00:00;CYXE 170000Z 31007KT 15SM SCT210 M02/M04 A2983 RMK CI3 SLP129

CYXE;2016-11-17 01:00;CYXE 170100Z 27005KT 15SM FEW210 M04/M06 A2986 RMK CI2 SLP143

CYXE;2016-11-17 02:00;CYXE 170200Z 30007KT 15SM FEW180 M05/M06 A2988 RMK CI2 SLP151

CYXE;2016-11-17 03:00;CYXE 170300Z 29005KT 15SM SCT210 M06/M07 A2991 RMK CI3 SLP159

CYXE;2016-11-17 04:00;CYXE 170400Z 30006KT 15SM SCT200 M05/M06 A2992 RMK CI3 SLP165

CYXE;2016-11-17 05:00;CYXE 170500Z 31003KT 15SM SCT200 M07/M08 A2994 RMK CI3 SLP171

CYXE;2016-11-17 06:00;CYXE 170600Z 31005KT 15SM FEW210 M06/M07 A2995 RMK CI2 SLP174

CYXE;2016-11-17 07:00;CYXE 170700Z 27005KT 15SM SKC M08/M09 A2997 RMK SLP182

CYXE;2016-11-17 08:00;CYXE 170800Z 29007KT 15SM SKC M08/M09 A2999 RMK SLP187

CYXE;2016-11-17 09:00;CYXE 170900Z 32007KT 15SM SKC M09/M10 A3000 RMK SLP192

CYXE;2016-11-17 10:00;CYXE 171000Z 31007KT 15SM SKC M09/M10 A3001 RMK SLP196

CYXE;2016-11-17 11:00;CYXE 171100Z 32004KT 15SM SKC M09/M10 A3002 RMK FROIN SLP202

CYXE;2016-11-17 12:00;CYXE 171200Z 22004KT 15SM SKC M08/M09 A3005 RMK FROIN SLP212

CYXE;2016-11-17 13:00;CYXE 171300Z 26006KT 15SM FEW200 M10/M11 A3007 RMK CI1 SLP220

CYXE;2016-11-17 14:00;CYXE 171400Z 25004KT 15SM FEW200 M09/M11 A3009 RMK CI2 SLP226

CYXE;2016-11-17 15:00;CYXE 171500Z 22004KT 15SM FEW200 M09/M10 A3010 RMK CI2 SLP233

CYXE;2016-11-17 16:00;CYXE 171600Z 00000KT 15SM FEW100 FEW200 M06/M07 A3012 RMK AC1CI1 SLP235

CYXE;2016-11-17 17:00;CYXE 171700Z 00000KT 15SM FEW050 SCT100 SCT200 M03/M04 A3012 RMK SC2AC1CI1 SLP235

CYXE;2016-11-17 18:00;CYXE 171800Z 27004KT 220V290 15SM FEW050 FEW200 M01/M03 A3012 RMK SC1CI1 SLP233

CYXE;2016-11-17 18:41;CYXE 171841Z 30003KT 260V320 15SM FEW008 FEW050 SCT200 M00/M03 A3013 RMK SF1SC1CI2 SLP236

CYXE;2016-11-17 19:00;CYXE 171900Z 29003KT 15SM FEW008 FEW050 SCT200 M00/M03 A3013 RMK SF1SC1CI2 SLP239

CYXE;2016-11-17 19:24;CYXE 171924Z 31007KT 15SM BKN008 BKN200 M01/M03 A3014 RMK SF5CI1 SLP243

CYXE;2016-11-17 20:00;CYXE 172000Z 29007KT 15SM SCT008 BKN200 M01/M04 A3015 RMK SF4CI3 SLP245

CYXE;2016-11-17 21:00;CYXE 172100Z 31006KT 15SM FEW007 SCT110 BKN200 M02/M04 A3017 RMK SF2AC1CI4 SLP252

CYXE;2016-11-17 21:46;CYXE 172146Z 32008KT 5SM BR BKN002 M04/M05 A3019 RMK SF6 SLP260

CYXE;2016-11-17 22:00;CYXE 172200Z 31009KT 3SM BR OVC002 M04/M05 A3019 RMK ST8 SLP263

CYXE;2016-11-17 22:19;CYXE 172219Z 32009KT 1 1/2SM BR OVC002 M04/M05 A3020 RMK ST8 SLP265

CYXE;2016-11-17 22:39;CYXE 172239Z 31008KT 1SM R09/P6000FT/D BR OVC002 M05/M05 A3021 RMK ST8 SLP267

CYXE;2016-11-17 23:00;CYXE 172300Z 33009KT 1SM R09/6000FT/D BR OVC002 M05/M05 A3022 RMK ST8 SLP272

CYXE;2016-11-17 23:37;CYXE 172337Z 32009KT 3SM BR OVC003 M05/M05 A3023 RMK ST8 SLP274

CYXE;2016-11-17 23:46;CYXE 172346Z 32006KT 2SM BR OVC002 M04/M05 A3023 RMK ST8 SLP275

CYXE;2016-11-18 00:04;CYXE 180004Z 32006KT 12SM OVC004 M04/M05 A3024 RMK ST8 SLP277

CYXE;2016-11-18 00:26;CYXE 180026Z 32007KT 15SM SCT004 OVC011 M04/M04 A3025 RMK SF4SC4 SLP280

CYXE;2016-11-18 01:00;CYXE 180100Z 33005KT 15SM SCT004 OVC014 M03/M04 A3026 RMK SF4SC4 SLP285

CYXE;2016-11-18 01:44;CYXE 180144Z 01006KT 15SM SCT004 OVC017 M03/M05 A3027 RMK SF3SC5 SLP289

CYXE;2016-11-18 02:00;CYXE 180200Z 01005KT 15SM FEW005 BKN017 OVC030 M03/M05 A3028 RMK SF1SC4SC3 SLP290

CYXE;2016-11-18 02:45;CYXE 180245Z 31003KT 300V020 15SM -SN FEW005 SCT017 OVC026 M03/M06 A3029 RMK SF1SC2SC5 SLP295

CYXE;2016-11-18 03:00;CYXE 180300Z VRB02KT 15SM -SN FEW005 OVC024 M03/M06 A3029 RMK SF1SC7 SLP294

CYXE;2016-11-18 04:00;CYXE 180400Z 36007KT 15SM -SN FEW005 OVC015 M04/M06 A3032 RMK SF1SC7 SLP304

CYXE;2016-11-18 05:00;CYXE 180500Z 01007KT 12SM -SN FEW005 OVC015 M04/M06 A3033 RMK SF1SC7 SLP306

CYXE;2016-11-18 05:20;CYXE 180520Z 36008KT 12SM -FZDZ -SG FEW007 OVC014 M04/M06 A3034 RMK SF2SC6 SLP308

CYXE;2016-11-18 06:00;CYXE 180600Z 36008KT 12SM -FZDZ -SG FEW006 OVC013 M05/M07 A3035 RMK SF1SF7 SLP310

CYXE;2016-11-18 06:13;CYXE 180613Z 01013KT 15SM OVC013 M05/M08 A3035 RMK SF8 SLP312

CYXE;2016-11-18 06:50;CYXE 180650Z 01007KT 15SM OVC017 M06/M08 A3036 RMK SF8 SLP316

CYXE;2016-11-18 07:00;CYXE 180700Z 01007KT 15SM OVC018 M06/M09 A3036 RMK SC8 SLP316

CYXE;2016-11-18 08:00;CYXE 180800Z 36004KT 15SM SCT027 M07/M10 A3037 RMK SC3 SLP322

CYXE;2016-11-18 09:00;CYXE 180900Z 32003KT 15SM SKC M09/M11 A3039 RMK SLP329

CYXE;2016-11-18 10:00;CYXE 181000Z 31006KT 15SM SKC M10/M12 A3040 RMK SLP334

CYXE;2016-11-18 11:00;CYXE 181100Z 29006KT 15SM SCT210 M11/M13 A3041 RMK CI3 SLP339

CYXE;2016-11-18 12:00;CYXE 181200Z 27005KT 15SM FEW210 M12/M13 A3042 RMK CI2 FROIN SLP344

CYXE;2016-11-18 13:00;CYXE 181300Z 28007KT 15SM SKC M12/M14 A3043 RMK SLP345

CYXE;2016-11-18 14:00;CYXE 181400Z 28006KT 15SM SKC M12/M14 A3043 RMK SLP346

CYXE;2016-11-18 15:00;CYXE 181500Z 29004KT 15SM FEW110 FEW220 M12/M14 A3045 RMK AC1CI1 SLP352

CYXE;2016-11-18 16:00;CYXE 181600Z 29006KT 15SM FEW110 M09/M11 A3046 RMK AC1 SLP355

CYXE;2016-11-18 17:00;CYXE 181700Z 30005KT 15SM FEW095 BKN250 M07/M10 A3047 RMK AC2CI3 SLP356

CYXE;2016-11-18 18:00;CYXE 181800Z 32005KT 300V360 15SM FEW095 SCT250 M06/M09 A3046 RMK AC1CI2 SLP353

CYXE;2016-11-18 19:00;CYXE 181900Z 34004KT 290V360 15SM FEW015 FEW095 M05/M10 A3045 RMK SF1AC1 SLP348

CYXE;2016-11-18 20:00;CYXE 182000Z 31004KT 300V010 15SM SCT025 M04/M10 A3044 RMK SC3 SLP346

CYXE;2016-11-18 21:00;CYXE 182100Z 33007KT 15SM BKN021 M04/M09 A3043 RMK SC5 SLP344

CYXE;2016-11-18 22:00;CYXE 182200Z 30004KT 15SM BKN022 BKN280 M05/M09 A3043 RMK SC5CI1 SLP346

CYXE;2016-11-18 23:00;CYXE 182300Z 31006KT 15SM BKN023 M06/M10 A3043 RMK SC5 SLP346

CYXE;2016-11-19 00:00;CYXE 190000Z 34005KT 15SM FEW024 M08/M11 A3042 RMK SC1 SLP347

CYXE;2016-11-19 01:00;CYXE 190100Z 36003KT 15SM BKN024 BKN220 M08/M11 A3043 RMK SC5CI1 SLP350

CYXE;2016-11-19 02:00;CYXE 190200Z VRB02KT 15SM BKN020 M08/M10 A3042 RMK SC7 SLP345

CYXE;2016-11-19 03:00;CYXE 190300Z 26004KT 15SM OVC019 M06/M09 A3042 RMK SC8 SLP344

CYXE;2016-11-19 03:16;CYXE 190316Z 24004KT 220V300 15SM -SN OVC017 M06/M09 A3042 RMK SC8 SLP343

CYXE;2016-11-19 04:00;CYXE 190400Z 23003KT 220V300 15SM -SN OVC018 M07/M10 A3042 RMK SC8 SLP342

CYXE;2016-11-19 05:00;CYXE 190500Z VRB02KT 15SM OVC017 M07/M10 A3040 RMK SC8 SLP335

CYXE;2016-11-19 06:00;CYXE 190600Z 30003KT 220V310 15SM OVC016 M07/M11 A3040 RMK SC8 SLP333

CYXE;2016-11-19 07:00;CYXE 190700Z 08003KT 15SM OVC016 M07/M09 A3039 RMK SC8 SLP330

CYXE;2016-11-19 08:00;CYXE 190800Z 10003KT 15SM SCT015 OVC020 M07/M10 A3038 RMK SC3SC5 SLP327

CYXE;2016-11-19 09:00;CYXE 190900Z 15004KT 15SM SCT015 OVC024 M08/M10 A3037 RMK SC4SC4 SLP324

CYXE;2016-11-19 10:00;CYXE 191000Z 13006KT 15SM OVC022 M07/M09 A3037 RMK SC8 SLP322

CYXE;2016-11-19 11:00;CYXE 191100Z 11006KT 15SM OVC024 M07/M09 A3034 RMK SC8 SLP312

CYXE;2016-11-19 12:00;CYXE 191200Z 10009KT 15SM BKN023 OVC200 M07/M09 A3032 RMK SC5CI3 FROIN SLP307

CYXE;2016-11-19 13:00;CYXE 191300Z 11009KT 15SM BKN230 M07/M09 A3030 RMK CI5 SLP301

CYXE;2016-11-19 14:00;CYXE 191400Z 12010G16KT 15SM BKN230 M07/M10 A3030 RMK CI6 SLP301

CYXE;2016-11-19 15:00;CYXE 191500Z 12012KT 15SM OVC150 M07/M09 A3029 RMK AC8 SLP297

CYXE;2016-11-19 16:00;CYXE 191600Z 12013G19KT 15SM OVC150 M06/M09 A3028 RMK AC8 SLP290

CYXE;2016-11-19 17:00;CYXE 191700Z 11013KT 15SM OVC150 M05/M08 A3026 RMK AS8 SLP284

CYXE;2016-11-19 18:00;CYXE 191800Z 11012KT 15SM OVC100 M05/M08 A3024 RMK AS8 SLP279

CYXE;2016-11-19 19:00;CYXE 191900Z 12016G22KT 15SM OVC130 M04/M07 A3019 RMK AS8 PRESFR SLP259

CYXE;2016-11-19 20:00;CYXE 192000Z 11017KT 15SM OVC120 M03/M07 A3016 RMK AS8 SLP250

CYXE;2016-11-19 21:00;CYXE 192100Z 11015G23KT 15SM OVC110 M03/M06 A3014 RMK AC8 SLP242

CYXE;2016-11-19 22:00;CYXE 192200Z 11010G21KT 15SM FEW015 OVC110 M03/M06 A3011 RMK SF2AC6 SLP233

CYXE;2016-11-19 23:00;CYXE 192300Z 12014KT 15SM SCT014 OVC120 M03/M06 A3009 RMK SF3AC5 SLP225

CYXE;2016-11-20 00:00;CYXE 200000Z 12022G28KT 15SM FEW014 OVC130 M03/M06 A3005 RMK SF2AC6 PRESFR SLP210

CYXE;2016-11-20 01:00;CYXE 200100Z 13019G28KT 15SM OVC130 M03/M06 A3004 RMK AC8 SLP208

CYXE;2016-11-20 02:00;CYXE 200200Z 13015KT 15SM FEW015 OVC090 M03/M06 A3005 RMK CF1AC7 SLP210

CYXE;2016-11-20 03:00;CYXE 200300Z 13017KT 15SM FEW020 OVC080 M03/M06 A3003 RMK CF1AC7 SLP203

CYXE;2016-11-20 04:00;CYXE 200400Z 13016G24KT 15SM FEW020 OVC120 M03/M06 A3000 RMK CF1AC7 SLP194

CYXE;2016-11-20 05:00;CYXE 200500Z 13015KT 15SM FEW020 OVC100 M03/M06 A3000 RMK CF1AC7 SLP192

CYXE;2016-11-20 06:00;CYXE 200600Z 13015G21KT 15SM OVC090 M02/M05 A2997 RMK AC8 SLP182

CYXE;2016-11-20 07:00;CYXE 200700Z 13012G19KT 15SM SCT080 OVC110 M02/M05 A2996 RMK AC4AC4 SLP179

CYXE;2016-11-20 08:00;CYXE 200800Z 13011KT 15SM -SN OVC080 M02/M05 A2996 RMK AC8 SLP175

CYXE;2016-11-20 08:32;CYXE 200832Z 12012KT 15SM SCT080 OVC110 M02/M05 A2993 RMK AC4AC4 SLP168

CYXE;2016-11-20 09:00;CYXE 200900Z 12012G17KT 15SM SCT110 OVC130 M02/M05 A2992 RMK AC4AC4 SLP163

CYXE;2016-11-20 10:00;CYXE 201000Z 14008KT 15SM SCT065 OVC090 M01/M05 A2994 RMK SC4AC4 PRESRR SLP170

CYXE;2016-11-20 11:00;CYXE 201100Z 14012KT 15SM FEW065 SCT090 M02/M06 A2992 RMK SC2AC1 SLP162

CYXE;2016-11-20 12:00;CYXE 201200Z 14011KT 15SM BKN060 M01/M05 A2992 RMK SC7 SLP161

CYXE;2016-11-20 13:00;CYXE 201300Z 14010KT 15SM FEW056 OVC073 M01/M05 A2991 RMK SC2AC6 SLP159

CYXE;2016-11-20 14:00;CYXE 201400Z 14008KT 15SM FEW070 M02/M05 A2990 RMK AC2 SLP158

CYXE;2016-11-20 15:00;CYXE 201500Z 13009KT 15SM FEW070 M02/M05 A2991 RMK AC1 SLP160

CYXE;2016-11-20 16:00;CYXE 201600Z 14008KT 15SM FEW070 FEW250 M01/M05 A2991 RMK AC1CI1 SLP160

CYXE;2016-11-20 17:00;CYXE 201700Z 15006KT 15SM FEW250 00/M04 A2992 RMK CI1 SLP160

CYXE;2016-11-20 18:00;CYXE 201800Z 17005KT 15SM FEW280 01/M03 A2992 RMK CI1 SLP159

CYXE;2016-11-20 19:00;CYXE 201900Z VRB04KT 15SM FEW280 02/M04 A2991 RMK CI1 SLP156

CYXE;2016-11-20 20:00;CYXE 202000Z 00000KT 15SM FEW280 03/M03 A2991 RMK CI1 SLP155

CYXE;2016-11-20 21:00;CYXE 202100Z 12003KT 060V140 15SM SCT280 03/M03 A2990 RMK CI3 SLP153

CYXE;2016-11-20 22:00;CYXE 202200Z 10003KT 060V130 15SM FEW280 03/M03 A2990 RMK CI2 SLP153

CYXE;2016-11-20 22:12;CYXE 202212Z 09004KT 15SM FEW280 02/M04 A2990 RMK CI2 SLP153

CYXE;2016-11-20 23:00;CYXE 202300Z 10005KT 15SM SCT280 00/M04 A2990 RMK CI3 SLP155

CYXE;2016-11-21 00:00;CYXE 210000Z 08004KT 15SM FEW280 M01/M04 A2990 RMK CI1 SLP156

CYXE;2016-11-21 02:00;CYXE 210200Z 08007KT 15SM SKC M05/M06 A2988 RMK SLP150

CYXE;2016-11-21 03:00;CYXE 210300Z 09005KT 15SM SKC M04/M06 A2988 RMK SLP150

CYXE;2016-11-21 04:00;CYXE 210400Z 08005KT 15SM SKC M06/M07 A2988 RMK SLP150

CYXE;2016-11-21 05:00;CYXE 210500Z 09005KT 15SM SKC M06/M07 A2987 RMK SLP147

CYXE;2016-11-21 06:00;CYXE 210600Z 10006KT 15SM SKC M06/M06 A2986 RMK SLP142

CYXE;2016-11-21 07:00;CYXE 210700Z 09006KT 15SM SKC M05/M06 A2984 RMK SLP135

CYXE;2016-11-21 08:00;CYXE 210800Z 10008KT 15SM FEW090 SCT240 M04/M05 A2981 RMK AC2CI2 PRESFR SLP123

CYXE;2016-11-21 09:00;CYXE 210900Z 12008KT 15SM FEW090 BKN210 M03/M05 A2981 RMK AC2CI4 SLP123

CYXE;2016-11-21 10:00;CYXE 211000Z 12008KT 15SM FEW200 M03/M05 A2979 RMK CI2 SLP117

CYXE;2016-11-21 11:00;CYXE 211100Z 11007KT 15SM SKC M04/M05 A2979 RMK FROIN SLP118

CYXE;2016-11-21 12:00;CYXE 211200Z 11009KT 15SM FEW230 M03/M05 A2978 RMK CI2 SLP113

CYXE;2016-11-21 13:00;CYXE 211300Z 11009KT 15SM SCT230 M03/M05 A2974 RMK CI3 SLP104

CYXE;2016-11-21 14:00;CYXE 211400Z 11009KT 15SM BKN230 M02/M04 A2973 RMK CI5 SLP099

CYXE;2016-11-21 15:00;CYXE 211500Z 13008KT 15SM BKN090 BKN230 M02/M04 A2973 RMK AC5CI2 SLP097

CYXE;2016-11-21 16:00;CYXE 211600Z 12010KT 15SM BKN095 BKN230 M01/M03 A2971 RMK AC5CI2 SLP092

CYXE;2016-11-21 17:00;CYXE 211700Z 13011KT 15SM SCT110 OVC230 00/M03 A2969 RMK AC3CI5 SLP086

CYXE;2016-11-21 18:00;CYXE 211800Z 12007KT 15SM BKN100 OVC250 02/M01 A2968 RMK AC5CI3 SLP081

CYXE;2016-11-21 19:00;CYXE 211900Z 15008KT 15SM FEW055 BKN100 OVC250 04/01 A2967 RMK SC2AC5CI1 SLP075

CYXE;2016-11-21 19:30;CYXE 211930Z 17003KT 15SM -RA SCT050 OVC100 05/02 A2967 RMK SC4AC4 SLP075

CYXE;2016-11-21 19:45;CYXE 211945Z 28011G20KT 210V300 15SM -RA BKN045 OVC100 02/01 A2969 RMK SC6AC2 PRESRR SLP082

CYXE;2016-11-21 20:00;CYXE 212000Z 32006KT 15SM -RA OVC045 02/00 A2968 RMK SC8 SLP080

CYXE;2016-11-21 21:00;CYXE 212100Z 07003KT 12SM -RA FEW012 BKN044 OVC100 02/01 A2968 RMK SF1SC6AC1 SLP078

CYXE;2016-11-21 22:00;CYXE 212200Z 09006KT 10SM -RA FEW012 OVC040 02/02 A2967 RMK SC1SC7 BR SLP075

CYXE;2016-11-21 23:00;CYXE 212300Z 13005KT 10SM -RA OVC040 02/01 A2968 RMK SC8 BR SLP078

CYXE;2016-11-21 23:44;CYXE 212344Z 12006KT 10SM OVC040 02/01 A2969 RMK SC8 BR SLP082

CYXE;2016-11-22 00:00;CYXE 220000Z 12006KT 12SM OVC040 02/00 A2969 RMK SC8 BR SLP081

CYXE;2016-11-22 01:00;CYXE 220100Z 11005KT 10SM -RASN BKN018 OVC040 02/00 A2969 RMK SC5SC3 BR SLP082

CYXE;2016-11-22 01:35;CYXE 220135Z 11004KT 10SM OVC013 01/00 A2969 RMK SC8 BR SLP083

CYXE;2016-11-22 01:52;CYXE 220152Z 04002KT 10SM SCT005 OVC013 01/00 A2969 RMK ST3SC5 BR SLP083

CYXE;2016-11-22 02:00;CYXE 220200Z 05002KT 5SM BR SCT005 OVC012 01/01 A2969 RMK ST4SC4 SLP083

CYXE;2016-11-22 02:10;CYXE 220210Z 05002KT 5SM -DZ BR BKN005 OVC012 01/01 A2970 RMK ST6SC2 SLP085

CYXE;2016-11-22 02:51;CYXE 220251Z 07002KT 6SM BR OVC007 01/00 A2970 RMK ST8 SLP087

CYXE;2016-11-22 03:00;CYXE 220300Z VRB02KT 6SM BR OVC007 01/01 A2971 RMK ST8 SLP087

CYXE;2016-11-22 03:24;CYXE 220324Z VRB02KT 6SM BR OVC005 01/00 A2971 RMK ST8 SLP089

CYXE;2016-11-22 03:48;CYXE 220348Z 01004KT 5SM BR OVC004 01/00 A2972 RMK ST8 SLP092

CYXE;2016-11-22 04:00;CYXE 220400Z 36004KT 4SM BR OVC004 01/00 A2972 RMK ST8 SLP093

CYXE;2016-11-22 04:40;CYXE 220440Z 35004KT 3SM -SN BR OVC003 01/00 A2974 RMK ST8 SLP097

CYXE;2016-11-22 05:04;CYXE 220504Z 32006KT 1SM R09/4500VP6000FT/D -SN BR VV003 00/00 A2974 RMK FG8 SLP098

CYXE;2016-11-22 06:00;CYXE 220600Z 32009KT 2SM -SN BR OVC004 M00/M00 A2976 RMK ST8 CVCTV CLD EMBD SLP105

CYXE;2016-11-22 07:00;CYXE 220700Z 32008KT 6SM -SN BKN005 OVC010 M00/M01 A2978 RMK SF6SC2 SLP110

CYXE;2016-11-22 08:00;CYXE 220800Z 31009KT 6SM -SN OVC005 M00/M01 A2981 RMK SC8 SLP120

CYXE;2016-11-22 09:00;CYXE 220900Z 30009KT 6SM -SN OVC004 M01/M01 A2984 RMK SC8 SLP132

CYXE;2016-11-22 10:00;CYXE 221000Z 32007KT 6SM -SN OVC006 M01/M01 A2986 RMK SC8 SLP139

CYXE;2016-11-22 10:38;CYXE 221038Z 32009KT 8SM OVC008 M01/M02 A2988 RMK SC8 SLP145

CYXE;2016-11-22 11:00;CYXE 221100Z 32010KT 15SM OVC012 M01/M02 A2989 RMK SC8 SLP149

CYXE;2016-11-22 12:00;CYXE 221200Z 31012KT 15SM OVC014 M01/M02 A2992 RMK SC8 SLP161

CYXE;2016-11-22 12:23;CYXE 221223Z 32011KT 15SM FEW007 OVC017 M01/M02 A2993 RMK SF2SC6 SLP165

CYXE;2016-11-22 13:00;CYXE 221300Z 31011KT 15SM FEW009 OVC027 M01/M02 A2995 RMK SF2SC6 SLP170

CYXE;2016-11-22 13:43;CYXE 221343Z 32012KT 15SM OVC011 M01/M03 A2997 RMK SC8 SLP178

CYXE;2016-11-22 14:00;CYXE 221400Z 32012KT 15SM OVC012 M01/M03 A2998 RMK SC8 SLP180

CYXE;2016-11-22 15:00;CYXE 221500Z 32011KT 15SM OVC011 M02/M03 A3001 RMK SC8 SLP191

CYXE;2016-11-22 15:19;CYXE 221519Z 32012KT 15SM OVC008 M02/M03 A3002 RMK ST8 SLP194

CYXE;2016-11-22 16:00;CYXE 221600Z 32009KT 15SM OVC008 M02/M03 A3003 RMK ST8 SLP198

CYXE;2016-11-22 17:00;CYXE 221700Z 34007KT 15SM OVC008 M02/M04 A3005 RMK ST8 SLP206

CYXE;2016-11-22 18:00;CYXE 221800Z 35008KT 15SM OVC008 M02/M04 A3007 RMK ST8 SLP212

CYXE;2016-11-22 19:00;CYXE 221900Z 31009KT 15SM OVC008 M02/M04 A3008 RMK ST8 SLP215

CYXE;2016-11-22 20:00;CYXE 222000Z 31008KT 15SM OVC008 M03/M04 A3009 RMK ST8 SLP219

CYXE;2016-11-22 21:00;CYXE 222100Z 31009KT 15SM OVC007 M02/M04 A3010 RMK ST8 SLP224

CYXE;2016-11-22 22:00;CYXE 222200Z 31008KT 15SM OVC007 M03/M04 A3012 RMK ST8 SLP231

CYXE;2016-11-22 23:00;CYXE 222300Z 34006KT 320V030 15SM OVC007 M03/M04 A3014 RMK ST8 SLP238

CYXE;2016-11-23 00:00;CYXE 230000Z 32004KT 300V360 15SM OVC006 M03/M04 A3015 RMK ST8 SLP241

CYXE;2016-11-23 01:00;CYXE 230100Z 01006KT 300V040 15SM OVC007 M03/M05 A3016 RMK ST8 SLP247

CYXE;2016-11-23 02:00;CYXE 230200Z VRB02KT 15SM OVC006 M03/M05 A3016 RMK ST8 SLP247

CYXE;2016-11-23 03:00;CYXE 230300Z 01003KT 350V080 15SM OVC007 M03/M05 A3016 RMK ST8 SLP247

CYXE;2016-11-23 04:00;CYXE 230400Z 07003KT 060V190 15SM OVC007 M03/M05 A3017 RMK ST8 SLP248

CYXE;2016-11-23 05:00;CYXE 230500Z VRB02KT 15SM OVC008 M03/M05 A3016 RMK ST8 SLP245

CYXE;2016-11-23 06:00;CYXE 230600Z 17004KT 080V180 15SM OVC008 M03/M05 A3016 RMK ST8 SLP245

CYXE;2016-11-23 07:00;CYXE 230700Z 14006KT 120V200 15SM OVC007 M03/M04 A3015 RMK ST8 SLP243

CYXE;2016-11-23 07:45;CYXE 230745Z 17008KT 15SM OVC005 M03/M04 A3014 RMK ST8 SLP239

CYXE;2016-11-23 08:00;CYXE 230800Z 16005KT 15SM OVC003 M04/M05 A3014 RMK ST8 SLP239

CYXE;2016-11-23 09:00;CYXE 230900Z 15008KT 10SM OVC004 M04/M05 A3014 RMK ST8 BR SLP242

CYXE;2016-11-23 10:00;CYXE 231000Z 13006KT 10SM OVC005 M04/M05 A3013 RMK ST8 BR SLP236

CYXE;2016-11-23 11:00;CYXE 231100Z 13008KT 10SM OVC004 M04/M05 A3011 RMK ST8 BR SLP230

CYXE;2016-11-23 12:00;CYXE 231200Z 15011KT 10SM OVC004 M04/M05 A3011 RMK ST8 BR SLP229

CYXE;2016-11-23 12:11;CYXE 231211Z 16007KT 10SM OVC003 M04/M05 A3010 RMK ST8 BR SLP228

CYXE;2016-11-23 12:51;CYXE 231251Z 15012KT 10SM -FZDZ OVC004 M04/M05 A3010 RMK ST8 SLP226

CYXE;2016-11-23 13:00;CYXE 231300Z 16010KT 12SM -FZDZ OVC004 M04/M05 A3010 RMK ST8 SLP225

CYXE;2016-11-23 13:19;CYXE 231319Z 15014KT 12SM OVC003 M04/M05 A3009 RMK ST8 SLP224

CYXE;2016-11-23 13:54;CYXE 231354Z 14012G18KT 12SM OVC006 M04/M05 A3009 RMK ST8 SLP223

CYXE;2016-11-23 14:00;CYXE 231400Z 16013KT 15SM OVC006 M04/M05 A3009 RMK ST8 SLP223

CYXE;2016-11-23 15:00;CYXE 231500Z 14014KT 15SM OVC006 M04/M05 A3009 RMK ST8 SLP222

CYXE;2016-11-23 15:32;CYXE 231532Z 16010G16KT 12SM OVC005 M04/M05 A3008 RMK ST8 SLP220

CYXE;2016-11-23 16:00;CYXE 231600Z 15010KT 15SM OVC005 M04/M05 A3007 RMK ST8 SLP216

CYXE;2016-11-23 17:00;CYXE 231700Z 17014KT 15SM FEW003 OVC005 M04/M05 A3007 RMK SF2ST6 SLP216

CYXE;2016-11-23 18:00;CYXE 231800Z 15010G17KT 15SM FEW003 OVC005 M03/M04 A3005 RMK SF2ST6 SLP208

CYXE;2016-11-23 19:00;CYXE 231900Z 15011G16KT 15SM FEW003 OVC005 M03/M04 A3003 RMK SF2ST6 SLP201

CYXE;2016-11-23 19:52;CYXE 231952Z 13014KT 15SM OVC006 M02/M03 A3000 RMK ST8 SLP192

CYXE;2016-11-23 20:00;CYXE 232000Z 13012KT 15SM -SN OVC007 M02/M03 A3000 RMK ST8 SLP192

CYXE;2016-11-23 21:00;CYXE 232100Z 12013KT 15SM -SN OVC006 M02/M03 A2999 RMK ST8 SLP187

CYXE;2016-11-23 22:00;CYXE 232200Z 14014KT 15SM -SN OVC006 M02/M03 A2998 RMK ST8 SLP184

CYXE;2016-11-23 22:10;CYXE 232210Z 14014KT 15SM -SN OVC005 M02/M03 A2998 RMK ST8 SLP185

CYXE;2016-11-23 22:46;CYXE 232246Z 15014G22KT 15SM -SN OVC004 M02/M03 A2998 RMK ST8 SLP185

CYXE;2016-11-23 23:00;CYXE 232300Z 14013KT 15SM -SG BKN005 M02/M03 A2998 RMK ST7 SLP185

CYXE;2016-11-23 23:31;CYXE 232331Z 14015G20KT 15SM -SG OVC004 M02/M03 A2998 RMK ST8 SLP184

CYXE;2016-11-24 00:00;CYXE 240000Z 14015KT 15SM -SG OVC004 M02/M03 A2998 RMK ST8 SLP185

CYXE;2016-11-24 01:00;CYXE 240100Z 14011G20KT 15SM -SG OVC004 M02/M03 A2998 RMK ST8 SLP185

CYXE;2016-11-24 02:00;CYXE 240200Z 14015G21KT 15SM -SG OVC004 M02/M03 A2997 RMK ST8 SLP183

CYXE;2016-11-24 03:00;CYXE 240300Z 15017KT 15SM -SG OVC005 M02/M03 A2997 RMK ST8 SLP182

CYXE;2016-11-24 03:49;CYXE 240349Z 16015KT 15SM OVC006 M02/M03 A2997 RMK ST8 SLP181

CYXE;2016-11-24 04:00;CYXE 240400Z 15015KT 15SM OVC006 M02/M03 A2997 RMK ST8 SLP181

CYXE;2016-11-24 05:00;CYXE 240500Z 15016KT 15SM OVC006 M01/M02 A2997 RMK ST8 SLP181

CYXE;2016-11-24 06:00;CYXE 240600Z 16011G21KT 15SM OVC006 M01/M02 A2998 RMK ST8 SLP183

CYXE;2016-11-24 07:00;CYXE 240700Z 17010G17KT 15SM OVC007 M01/M02 A2998 RMK ST8 SLP183

CYXE;2016-11-24 08:00;CYXE 240800Z 16012KT 15SM OVC007 M01/M02 A2998 RMK ST8 SLP184

CYXE;2016-11-24 09:00;CYXE 240900Z 16014KT 15SM OVC007 M01/M02 A2998 RMK ST8 SLP184

CYXE;2016-11-24 10:00;CYXE 241000Z 16012G17KT 15SM OVC008 M01/M02 A2998 RMK ST8 SLP183

CYXE;2016-11-24 11:00;CYXE 241100Z 16009G15KT 15SM OVC008 M00/M02 A2998 RMK ST8 SLP183

CYXE;2016-11-24 11:10;CYXE 241110Z 16010KT 10SM -SN OVC008 M00/M02 A2998 RMK ST8 CVCTV CLD EMBD SLP183

CYXE;2016-11-24 12:00;CYXE 241200Z 16009KT 10SM -SN BKN008 OVC032 M00/M01 A2998 RMK ST6SC2 SLP184

CYXE;2016-11-24 13:00;CYXE 241300Z 16009KT 10SM -SN BKN007 OVC035 M00/M01 A2998 RMK ST6SC2 SLP183

CYXE;2016-11-24 14:00;CYXE 241400Z 17009KT 12SM -SN BKN008 OVC026 M00/M01 A2999 RMK ST6SC2 SLP185

CYXE;2016-11-24 15:00;CYXE 241500Z 17007KT 10SM -SN BKN007 OVC018 00/M01 A2999 RMK ST6SC2 SLP186

CYXE;2016-11-24 16:00;CYXE 241600Z 19007KT 12SM -SN SCT007 BKN020 BKN280 00/M01 A3000 RMK SF3SC2CI1 SLP188

CYXE;2016-11-24 17:00;CYXE 241700Z 19006KT 12SM -SN BKN010 BKN020 OVC280 00/M01 A3001 RMK ST6SC1CI1 SLP191

CYXE;2016-11-24 17:39;CYXE 241739Z 22005KT 170V240 12SM -SN BKN007 OVC020 01/M01 A3001 RMK ST7SC1 SLP192

CYXE;2016-11-24 18:00;CYXE 241800Z 23004KT 220V280 15SM -SN BKN007 OVC018 00/M01 A3001 RMK ST7SC1 SLP192

CYXE;2016-11-24 18:12;CYXE 241812Z 26003KT 200V290 12SM -SN OVC005 00/M01 A3001 RMK ST8 SLP192

CYXE;2016-11-24 18:49;CYXE 241849Z 28004KT 12SM -SN OVC004 00/M01 A3001 RMK ST8 SLP192

CYXE;2016-11-24 19:00;CYXE 241900Z 26003KT 210V290 10SM -SN OVC004 00/M01 A3001 RMK ST8 SLP193

CYXE;2016-11-24 19:27;CYXE 241927Z 23003KT 210V290 1 1/2SM -SN BR OVC003 M00/M01 A3002 RMK ST8 SLP195

CYXE;2016-11-24 19:36;CYXE 241936Z 27005KT 220V280 1SM R09/P6000FT/N -SN BR OVC002 M00/M01 A3002 RMK ST8 SLP195

CYXE;2016-11-24 19:48;CYXE 241948Z 24005KT 3/4SM R09/2600VP6000FT/D -SN BR OVC002 M01/M01 A3002 RMK ST8 SLP195

CYXE;2016-11-24 20:00;CYXE 242000Z 26006KT 220V280 5/8SM R09/2800V4000FT/D -SN BR OVC001 M01/M01 A3002 RMK ST8 SLP196

CYXE;2016-11-24 20:10;CYXE 242010Z 27005KT 1/2SM R09/2800V4000FT/U -SN FZFG OVC001 M00/M01 A3002 RMK FG4ST4 SLP195

CYXE;2016-11-24 20:25;CYXE 242025Z 30007KT 240V320 1/2SM R09/3000V4500FT/D FZFG OVC001 M01/M01 A3002 RMK FG4ST4 SLP196

CYXE;2016-11-24 20:48;CYXE 242048Z 28007KT 3SM BR OVC005 M01/M01 A3003 RMK ST8 SLP198

CYXE;2016-11-24 21:00;CYXE 242100Z 28007KT 6SM BR OVC005 M01/M01 A3003 RMK ST8 SLP198

CYXE;2016-11-24 21:43;CYXE 242143Z 28003KT 8SM OVC006 M00/M02 A3002 RMK ST8 BR SLP195

CYXE;2016-11-24 22:00;CYXE 242200Z 28004KT 8SM OVC006 M00/M02 A3002 RMK ST8 BR SLP195

CYXE;2016-11-24 22:48;CYXE 242248Z 29005KT 8SM OVC004 M01/M02 A3003 RMK ST8 BR SLP199

CYXE;2016-11-24 23:00;CYXE 242300Z 28003KT 250V340 6SM BR OVC004 M01/M02 A3004 RMK ST8 SLP201

CYXE;2016-11-24 23:22;CYXE 242322Z 29005KT 6SM BR OVC003 M01/M02 A3004 RMK ST8 SLP203

CYXE;2016-11-24 23:36;CYXE 242336Z 29003KT 6SM BR OVC002 M01/M02 A3004 RMK ST8 SLP203

CYXE;2016-11-24 23:51;CYXE 242351Z 31005KT 2SM BR OVC002 M01/M02 A3005 RMK ST8 VIS E 3 SLP204

CYXE;2016-11-25 00:00;CYXE 250000Z 29006KT 270V340 1 1/2SM BR OVC002 M01/M02 A3004 RMK ST8 SLP203

CYXE;2016-11-25 00:16;CYXE 250016Z 30006KT 1SM R09/P6000FT/D BR OVC002 M02/M02 A3005 RMK ST8 SLP207

CYXE;2016-11-25 00:28;CYXE 250028Z 26006KT 3/4SM R09/P6000FT/D BR OVC001 M02/M02 A3006 RMK ST8 SLP209

CYXE;2016-11-25 00:44;CYXE 250044Z 30007KT 1/2SM R09/P6000FT/U FZFG OVC001 M02/M02 A3006 RMK ST8 SLP209

CYXE;2016-11-25 01:00;CYXE 250100Z 30004KT 3/8SM R09/3500VP6000FT/D FZFG VV001 M02/M02 A3005 RMK FG8 SLP208

CYXE;2016-11-25 01:11;CYXE 250111Z 32005KT 1/4SM R09/3000FT/N FZFG VV001 M02/M02 A3005 RMK FG8 SLP207

CYXE;2016-11-25 02:00;CYXE 250200Z 31004KT 1/8SM R09/2400FT/N FZFG VV001 M02/M03 A3005 RMK FG8 FROIN SLP206

CYXE;2016-11-25 03:00;CYXE 250300Z VRB03KT 1/8SM R09/2800FT/N FZFG VV001 M03/M03 A3004 RMK FG8 FROIN SLP204

CYXE;2016-11-25 04:00;CYXE 250400Z 07002KT 1/8SM R09/2000FT/N FZFG VV001 M03/M03 A3003 RMK FG8 FROIN SLP198

CYXE;2016-11-25 05:00;CYXE 250500Z 06003KT 1/8SM R09/2000FT/N FZFG VV001 M03/M03 A3002 RMK FG8 FROIN SLP195

CYXE;2016-11-25 06:00;CYXE 250600Z 12007KT 1/8SM R09/2600FT/N FZFG VV001 M02/M03 A3002 RMK FG8 FROIN SLP195

CYXE;2016-11-25 07:00;CYXE 250700Z 16005KT 130V200 1/8SM R09/2400FT/N FZFG VV001 M03/M03 A3003 RMK FG8 FROIN SLP199

CYXE;2016-11-25 08:00;CYXE 250800Z 12008KT 1/8SM R09/3500FT/D FZFG VV001 M03/M03 A3000 RMK FG8 FROIN SLP188

CYXE;2016-11-25 09:00;CYXE 250900Z 11008KT 1/4SM R09/4000VP6000FT/U FZFG VV002 M03/M03 A2999 RMK FG8 SLP185

CYXE;2016-11-25 09:41;CYXE 250941Z 12007KT 1SM R09/P6000FT/U BR VV003 M03/M03 A2998 RMK FG8 SLP182

CYXE;2016-11-25 10:00;CYXE 251000Z 13006KT 1 1/2SM BR VV003 M03/M03 A2998 RMK FG8 SLP183

CYXE;2016-11-25 10:26;CYXE 251026Z 12008KT 6SM BR BKN003 BKN190 M03/M04 A2996 RMK SF5CI2 SLP177

CYXE;2016-11-25 11:00;CYXE 251100Z 12006KT 10SM SCT003 BKN190 M04/M04 A2996 RMK SF3CI2 SLP176

CYXE;2016-11-25 12:00;CYXE 251200Z 13007KT 15SM SKC M04/M04 A2995 RMK SLP172

CYXE;2016-11-25 13:00;CYXE 251300Z 14007KT 15SM FEW280 M04/M04 A2993 RMK CI2 SLP166

CYXE;2016-11-25 14:00;CYXE 251400Z 13009KT 15SM FEW050 M04/M05 A2990 RMK SC2 SLP158

CYXE;2016-11-25 15:00;CYXE 251500Z 16007KT 15SM FEW050 BKN280 M05/M06 A2990 RMK SC1CI5 SLP158

CYXE;2016-11-25 16:00;CYXE 251600Z 15008KT 15SM FEW050 OVC280 M03/M04 A2987 RMK SC1CI7 SLP146

CYXE;2016-11-25 17:00;CYXE 251700Z 16010KT 15SM FEW050 OVC280 M02/M03 A2985 RMK SC1CI7 SLP138

CYXE;2016-11-25 18:00;CYXE 251800Z 17009KT 15SM OVC280 M00/M03 A2984 RMK CI8 SLP134

CYXE;2016-11-25 19:00;CYXE 251900Z 17006KT 15SM OVC280 01/M02 A2982 RMK CI8 SLP126

CYXE;2016-11-25 20:00;CYXE 252000Z 16008KT 15SM OVC280 02/M02 A2979 RMK CI8 SLP116

CYXE;2016-11-25 21:00;CYXE 252100Z 14007KT 15SM FEW140 OVC280 02/M01 A2977 RMK AC1CI7 SLP109

CYXE;2016-11-25 22:00;CYXE 252200Z 18007KT 15SM FEW140 OVC280 02/M01 A2977 RMK AC2CI6 SLP108

CYXE;2016-11-25 23:00;CYXE 252300Z 17010KT 15SM BKN280 02/M01 A2976 RMK CI5 SLP106

CYXE;2016-11-26 00:00;CYXE 260000Z 17010KT 15SM BKN200 02/M01 A2976 RMK CI5 SLP106

CYXE;2016-11-26 01:00;CYXE 260100Z 19011KT 15SM SCT220 03/M01 A2976 RMK CI3 SLP106

CYXE;2016-11-26 02:00;CYXE 260200Z 21010KT 15SM FEW240 02/M02 A2976 RMK CI2 SLP108

CYXE;2016-11-26 03:00;CYXE 260300Z 23010KT 15SM SCT220 01/M02 A2978 RMK CI3 SLP113

CYXE;2016-11-26 03:40;CYXE 260340Z 25007KT 15SM FEW220 01/M02 A2978 WS RWY27 RMK CI2 SLP116

CYXE;2016-11-26 04:00;CYXE 260400Z 26007KT 15SM SKC M01/M03 A2980 RMK SLP121

CYXE;2016-11-26 05:00;CYXE 260500Z 25009KT 15SM SKC M01/M03 A2982 RMK SLP127

CYXE;2016-11-26 06:00;CYXE 260600Z 28008KT 15SM SKC M03/M05 A2984 RMK SLP136

CYXE;2016-11-26 07:00;CYXE 260700Z 29011KT 15SM SKC M00/M03 A2987 RMK SLP143

CYXE;2016-11-26 08:00;CYXE 260800Z 30009KT 15SM SKC M01/M04 A2990 RMK SLP152

CYXE;2016-11-26 09:00;CYXE 260900Z 27006KT 15SM SKC M03/M05 A2992 RMK SLP162

CYXE;2016-11-26 10:00;CYXE 261000Z 30004KT 200V300 15SM SKC M03/M05 A2993 RMK SLP165

CYXE;2016-11-26 11:00;CYXE 261100Z 24006KT 15SM SKC M05/M06 A2995 RMK SLP172

CYXE;2016-11-26 12:00;CYXE 261200Z 24007KT 15SM SKC M07/M08 A2996 RMK SLP177

CYXE;2016-11-26 13:00;CYXE 261300Z 26007KT 15SM SKC M07/M08 A2997 RMK SLP181

CYXE;2016-11-26 14:00;CYXE 261400Z 21004KT 15SM SKC M07/M09 A2998 RMK SLP183

CYXE;2016-11-26 15:00;CYXE 261500Z 25005KT 15SM FEW280 M07/M09 A2998 RMK CI2 SLP185

CYXE;2016-11-26 16:00;CYXE 261600Z 22003KT 15SM BKN280 M06/M07 A2997 RMK CI6 SLP181

CYXE;2016-11-26 17:00;CYXE 261700Z 20003KT 15SM SCT280 M02/M04 A2996 RMK CI4 SLP178

CYXE;2016-11-26 18:00;CYXE 261800Z 18003KT 15SM SCT280 M01/M04 A2995 RMK CI3 SLP171

CYXE;2016-11-26 19:00;CYXE 261900Z VRB04KT 15SM BKN280 01/M03 A2993 RMK CI5 SLP162

CYXE;2016-11-26 20:00;CYXE 262000Z 11006KT 15SM BKN280 03/M03 A2990 RMK CI6 SLP151

CYXE;2016-11-26 21:00;CYXE 262100Z 11008KT 15SM SCT280 03/M03 A2986 RMK CI3 SLP141

CYXE;2016-11-26 22:00;CYXE 262200Z 11009KT 15SM BKN280 01/M02 A2983 RMK CI5 SLP131

CYXE;2016-11-26 23:00;CYXE 262300Z 11008KT 15SM FEW160 SCT280 M01/M03 A2982 RMK AC2CI2 SLP128

CYXE;2016-11-27 00:00;CYXE 270000Z 11009KT 15SM FEW170 M00/M02 A2979 RMK AC2 SLP119

CYXE;2016-11-27 01:00;CYXE 270100Z 12014KT 15SM SCT250 M00/M02 A2975 RMK CI3 SLP108

CYXE;2016-11-27 02:00;CYXE 270200Z 13013G20KT 15SM SCT250 M01/M03 A2972 RMK CI3 SLP096

CYXE;2016-11-27 03:00;CYXE 270300Z 13016KT 15SM FEW250 M01/M03 A2969 RMK CI2 SLP085

CYXE;2016-11-27 04:00;CYXE 270400Z 13012G17KT 15SM BKN250 M01/M03 A2964 RMK CI5 SLP069

CYXE;2016-11-27 05:00;CYXE 270500Z 13009G18KT 15SM SCT240 M00/M03 A2961 RMK CI4 SLP057

CYXE;2016-11-27 06:00;CYXE 270600Z 13009KT 15SM FEW200 M02/M03 A2960 RMK CI2 SLP052

CYXE;2016-11-27 07:00;CYXE 270700Z 14009KT 15SM FEW200 M02/M03 A2957 RMK CI2 SLP039

CYXE;2016-11-27 08:00;CYXE 270800Z 14006KT 15SM FEW200 M02/M04 A2955 RMK CI2 SLP033

CYXE;2016-11-27 09:00;CYXE 270900Z 15005KT 15SM FEW200 M02/M04 A2953 RMK CI2 SLP026

CYXE;2016-11-27 10:00;CYXE 271000Z 13006KT 15SM SKC M03/M05 A2951 RMK SLP020

CYXE;2016-11-27 11:00;CYXE 271100Z 14005KT 15SM SKC M04/M05 A2948 RMK SLP012

CYXE;2016-11-27 12:00;CYXE 271200Z 14004KT 15SM SKC M05/M06 A2946 RMK SLP004

CYXE;2016-11-27 13:00;CYXE 271300Z 06002KT 15SM SKC M05/M06 A2945 RMK SLP002

CYXE;2016-11-27 14:00;CYXE 271400Z 09006KT 15SM SKC M06/M07 A2944 RMK SLP001

CYXE;2016-11-27 15:00;CYXE 271500Z 09005KT 15SM SCT280 M06/M07 A2943 RMK CI3 SLP995

CYXE;2016-11-27 16:00;CYXE 271600Z 12007KT 15SM FEW150 SCT280 M05/M06 A2942 RMK AC1CI3 SLP990

CYXE;2016-11-27 17:00;CYXE 271700Z 08003KT 15SM FEW150 BKN280 M03/M05 A2940 RMK AC1CI4 SLP984

CYXE;2016-11-27 18:00;CYXE 271800Z 09003KT 15SM FEW150 BKN280 M02/M04 A2939 RMK AC1CI6 SLP982

CYXE;2016-11-27 19:00;CYXE 271900Z 04003KT 15SM FEW150 OVC280 M01/M04 A2937 RMK AC2CI6 SLP974

CYXE;2016-11-27 20:00;CYXE 272000Z VRB02KT 15SM FEW150 OVC280 M00/M04 A2937 RMK AC2CI6 SLP971

CYXE;2016-11-27 21:00;CYXE 272100Z 09005KT 15SM FEW150 OVC280 00/M03 A2935 RMK AC2CI6 SLP966

CYXE;2016-11-27 22:00;CYXE 272200Z 10004KT 15SM FEW150 OVC280 M00/M02 A2934 RMK AC2CI6 SLP962

CYXE;2016-11-27 23:00;CYXE 272300Z 00000KT 15SM OVC210 M02/M03 A2934 RMK CI8 SLP965

CYXE;2016-11-28 00:00;CYXE 280000Z 35006KT 15SM FEW150 BKN190 M03/M04 A2933 RMK AC1CI5 SLP963

CYXE;2016-11-28 01:00;CYXE 280100Z 35004KT 15SM BKN150 M04/M04 A2933 RMK AC6 SLP964

CYXE;2016-11-28 02:00;CYXE 280200Z 01003KT 15SM BKN130 M04/M04 A2932 RMK AC6 SLP961

CYXE;2016-11-28 03:00;CYXE 280300Z 35004KT 15SM OVC140 M04/M05 A2932 RMK AC8 SLP961

CYXE;2016-11-28 04:00;CYXE 280400Z 31005KT 15SM BKN120 M04/M05 A2931 RMK AC7 SLP956

CYXE;2016-11-28 05:00;CYXE 280500Z 32009KT 15SM FEW007 BKN120 M05/M06 A2931 RMK SF1AC6 SLP957

CYXE;2016-11-28 05:54;CYXE 280554Z VRB02KT 15SM BKN007 OVC120 M06/M07 A2932 RMK ST5AC3 SLP961

CYXE;2016-11-28 06:00;CYXE 280600Z 31005KT 300V090 15SM BKN007 OVC120 M06/M08 A2932 RMK ST5AC3 SLP959

CYXE;2016-11-28 07:00;CYXE 280700Z 33007KT 10SM SCT004 OVC006 M06/M07 A2933 RMK ST3ST5 SLP960

CYXE;2016-11-28 07:09;CYXE 280709Z 34006KT 10SM BKN003 OVC006 M06/M06 A2933 RMK ST6SC2 SLP961

CYXE;2016-11-28 07:47;CYXE 280747Z 32010KT 1 1/2SM BR OVC003 M05/M05 A2932 RMK ST8 SLP959

CYXE;2016-11-28 08:00;CYXE 280800Z 33008KT 1 1/2SM BR OVC003 M05/M05 A2933 RMK ST8 SLP959

CYXE;2016-11-28 09:00;CYXE 280900Z 33008KT 2 1/2SM BR OVC002 M05/M05 A2934 RMK ST8 SLP965

CYXE;2016-11-28 11:00;CYXE 281100Z 33012KT 1 1/2SM R09/5500VP6000FT/N BR OVC002 M05/M05 A2935 RMK ST8 SLP968

CYXE;2016-11-28 11:13;CYXE 281113Z 34010KT 1SM R09/5500VP6000FT/D BR OVC002 M05/M05 A2936 RMK FG1ST7 SLP971

CYXE;2016-11-28 11:41;CYXE 281141Z 34008KT 3/4SM R09/P6000FT/N BR OVC002 M04/M05 A2936 RMK FG2ST6 SLP970

CYXE;2016-11-28 12:00;CYXE 281200Z 36010KT 3/4SM R09/6000FT/N BR OVC002 M04/M05 A2936 RMK FG2ST6 SLP971

CYXE;2016-11-28 13:00;CYXE 281300Z 34009KT 3/4SM R09/P6000FT/N BR OVC002 M04/M04 A2937 RMK FG2ST6 SLP974

CYXE;2016-11-28 13:07;CYXE 281307Z 34009KT 1SM R09/P6000FT/U BR OVC002 M03/M04 A2937 RMK FG1ST7 SLP977

CYXE;2016-11-28 13:49;CYXE 281349Z 01010KT 1 1/2SM BR OVC003 M03/M04 A2938 RMK ST8 SLP979

CYXE;2016-11-28 14:00;CYXE 281400Z 36013KT 1 1/2SM BR OVC003 M03/M04 A2938 RMK ST8 SLP981

CYXE;2016-11-28 14:32;CYXE 281432Z 01011KT 2SM BR OVC004 M03/M04 A2939 RMK ST8 SLP984

CYXE;2016-11-28 14:46;CYXE 281446Z 36014KT 2SM BR OVC006 M03/M04 A2940 RMK ST8 SLP986

CYXE;2016-11-28 15:00;CYXE 281500Z 01012G17KT 2SM BR OVC006 M03/M04 A2941 RMK ST8 SLP988

CYXE;2016-11-28 15:09;CYXE 281509Z 01010KT 2SM BR OVC004 M03/M03 A2941 RMK ST8 CIG VRB 3-5 SLP990

CYXE;2016-11-28 15:44;CYXE 281544Z 01011G17KT 4SM BR OVC006 M03/M03 A2942 RMK ST8 SLP993

CYXE;2016-11-28 16:00;CYXE 281600Z 01013KT 4SM BR OVC006 M03/M03 A2943 RMK ST8 SLP997

CYXE;2016-11-28 17:00;CYXE 281700Z 01010KT 4SM BR OVC006 M03/M03 A2945 RMK ST8 SLP005

CYXE;2016-11-28 17:44;CYXE 281744Z 36014KT 4SM -FZDZ BR OVC006 M02/M03 A2946 RMK ST8 SLP008

CYXE;2016-11-28 18:00;CYXE 281800Z 01015KT 4SM -FZDZ BR OVC008 M02/M03 A2946 RMK ST8 SLP008

CYXE;2016-11-28 19:00;CYXE 281900Z CCA 01015G21KT 4SM -FZDZ BR OVC008 M02/M03 A2947 RMK ST8 TR RIME ICG ON INDCR SLP010

CYXE;2016-11-28 20:00;CYXE 282000Z 36012G21KT 4SM -FZDZ BR OVC008 M02/M03 A2947 RMK ST8 SLP012

CYXE;2016-11-28 20:12;CYXE 282012Z 36015KT 6SM BR OVC008 M02/M03 A2948 RMK ST8 SLP013

CYXE;2016-11-28 21:00;CYXE 282100Z 36017G23KT 6SM BR OVC008 M02/M03 A2949 RMK ST8 SLP017

CYXE;2016-11-28 22:00;CYXE 282200Z 35017G24KT 6SM BR OVC008 M02/M04 A2950 RMK ST8 SLP020

CYXE;2016-11-28 23:00;CYXE 282300Z 36015G24KT 8SM OVC008 M02/M03 A2953 RMK ST8 SLP030

CYXE;2016-11-28 23:39;CYXE 282339Z 36013G22KT 12SM OVC010 M02/M04 A2954 RMK ST8 SLP035

CYXE;2016-11-29 00:00;CYXE 290000Z 36019G26KT 15SM OVC012 M02/M04 A2955 RMK ST8 SLP035

CYXE;2016-11-29 01:00;CYXE 290100Z 36018KT 15SM OVC012 M02/M04 A2957 RMK ST8 SLP043

CYXE;2016-11-29 02:00;CYXE 290200Z 36014G23KT 15SM OVC012 M02/M04 A2959 RMK ST8 SLP048

CYXE;2016-11-29 02:10;CYXE 290210Z 36014G20KT 15SM -SN OVC011 M02/M04 A2959 RMK SC8 SLP051

CYXE;2016-11-29 02:46;CYXE 290246Z 35013G22KT 15SM OVC011 M02/M04 A2960 RMK SC8 SLP053

CYXE;2016-11-29 03:00;CYXE 290300Z 36015KT 15SM OVC011 M02/M04 A2961 RMK SC8 SLP055

CYXE;2016-11-29 04:00;CYXE 290400Z 35014G23KT 15SM -SN OVC011 M02/M04 A2962 RMK SC8 SLP060

CYXE;2016-11-29 04:44;CYXE 290444Z 36015KT 15SM -SN OVC008 M02/M03 A2963 RMK SC8 SLP065

CYXE;2016-11-29 05:00;CYXE 290500Z 36012KT 15SM -SN OVC008 M02/M04 A2963 RMK SC8 SLP065

CYXE;2016-11-29 06:00;CYXE 290600Z 35016G22KT 15SM -SN OVC010 M02/M04 A2965 RMK SC8 SLP070

CYXE;2016-11-29 06:47;CYXE 290647Z 36015G25KT 15SM OVC011 M02/M04 A2966 RMK SC8 SLP074

CYXE;2016-11-29 07:00;CYXE 290700Z 35017G22KT 15SM OVC011 M02/M04 A2966 RMK SC8 SLP075

CYXE;2016-11-29 08:00;CYXE 290800Z 35013G19KT 15SM OVC012 M02/M04 A2969 RMK SC8 SLP083

CYXE;2016-11-29 08:27;CYXE 290827Z 36013G19KT 15SM -SN OVC012 M02/M04 A2969 RMK SC8 SLP085

CYXE;2016-11-29 09:00;CYXE 290900Z 36014G22KT 15SM -SN OVC013 M02/M04 A2971 RMK SC8 SLP091

CYXE;2016-11-29 09:32;CYXE 290932Z 36017KT 15SM OVC014 M02/M04 A2972 RMK SC8 SLP093

CYXE;2016-11-29 10:00;CYXE 291000Z 34014G24KT 15SM OVC014 M02/M04 A2973 RMK SC8 SLP096

CYXE;2016-11-29 11:00;CYXE 291100Z 35012G21KT 15SM OVC013 M02/M04 A2974 RMK SC8 SLP102

CYXE;2016-11-29 12:00;CYXE 291200Z 35013G21KT 15SM OVC013 M02/M04 A2977 RMK SC8 SLP111

CYXE;2016-11-29 13:00;CYXE 291300Z 34015KT 15SM OVC015 M02/M04 A2978 RMK SC8 SLP115

CYXE;2016-11-29 14:00;CYXE 291400Z 34014G19KT 15SM OVC015 M02/M04 A2980 RMK SC8 SLP121

CYXE;2016-11-29 14:12;CYXE 291412Z 34014G19KT 15SM -SN OVC014 M02/M04 A2981 RMK SC8 SLP123

CYXE;2016-11-29 14:50;CYXE 291450Z 34014KT 15SM OVC015 M02/M05 A2982 RMK SC8 SLP128

CYXE;2016-11-29 15:00;CYXE 291500Z 34013KT 15SM OVC015 M02/M05 A2982 RMK SC8 SLP129

CYXE;2016-11-29 16:00;CYXE 291600Z 35015KT 15SM OVC019 M02/M05 A2985 RMK SC8 SLP138

CYXE;2016-11-29 17:00;CYXE 291700Z 34014KT 15SM OVC019 M02/M05 A2987 RMK SC8 SLP145

CYXE;2016-11-29 18:00;CYXE 291800Z 35016G23KT 15SM BKN020 M01/M05 A2988 RMK SC6 SLP150

CYXE;2016-11-29 19:00;CYXE 291900Z 35014G20KT 15SM OVC017 M01/M05 A2990 RMK SC8 SLP154

CYXE;2016-11-29 20:00;CYXE 292000Z 35012G19KT 15SM OVC020 M01/M05 A2991 RMK SC8 SLP160

CYXE;2016-11-29 21:00;CYXE 292100Z 35012G19KT 15SM OVC019 M01/M05 A2992 RMK SC8 SLP164

CYXE;2016-11-29 22:00;CYXE 292200Z 35018KT 15SM OVC020 M02/M05 A2995 RMK SC8 SLP172

CYXE;2016-11-29 23:00;CYXE 292300Z 34013KT 15SM OVC019 M02/M05 A2996 RMK SC8 SLP178

CYXE;2016-11-30 00:00;CYXE 300000Z 34011KT 15SM OVC021 M02/M05 A2997 RMK SC8 SLP181

CYXE;2016-11-30 01:00;CYXE 300100Z 33013KT 15SM OVC022 M02/M06 A2998 RMK SC8 SLP182

CYXE;2016-11-30 02:00;CYXE 300200Z 33012KT 15SM -SN OVC019 M02/M05 A2998 RMK SC8 SLP184

CYXE;2016-11-30 03:00;CYXE 300300Z 32011KT 15SM OVC019 M02/M05 A2999 RMK SC8 SLP187

CYXE;2016-11-30 04:00;CYXE 300400Z 32009KT 12SM -SN OVC018 M02/M05 A2999 RMK SC8 SLP188

CYXE;2016-11-30 05:00;CYXE 300500Z 34011KT 15SM -SN OVC020 M02/M05 A3000 RMK SC8 SLP189

CYXE;2016-11-30 06:00;CYXE 300600Z 33008KT 15SM -SN BKN022 OVC038 M02/M05 A3000 RMK SC7SC1 SLP191

CYXE;2016-11-30 07:00;CYXE 300700Z 33008KT 15SM -SN BKN022 OVC040 M03/M05 A3000 RMK SC5SC3 SLP191

CYXE;2016-11-30 08:00;CYXE 300800Z 33006KT 15SM -SN SCT022 OVC040 M03/M04 A3000 RMK SC4SC4 SLP190

CYXE;2016-11-30 09:00;CYXE 300900Z 34006KT 15SM -SN FEW020 OVC046 M03/M05 A3000 RMK SC2SC6 SLP189

CYXE;2016-11-30 10:00;CYXE 301000Z 32005KT 15SM -SN FEW011 BKN020 OVC046 M03/M05 A2999 RMK SF2SC4SC2 SLP188

CYXE;2016-11-30 11:00;CYXE 301100Z 32006KT 15SM -SN SCT012 OVC017 M03/M05 A2999 RMK SF4SC4 SLP187

CYXE;2016-11-30 11:33;CYXE 301133Z 35008KT 15SM -SN OVC011 M03/M05 A2999 RMK SC8 SLP186

CYXE;2016-11-30 12:00;CYXE 301200Z 35007KT 15SM -SN SCT011 OVC036 M03/M05 A2998 RMK SC4SC4 SLP184

CYXE;2016-11-30 13:00;CYXE 301300Z 35006KT 15SM -SN SCT032 BKN053 OVC090 M03/M05 A2997 RMK SC3SC3AC2 SLP182

CYXE;2016-11-30 14:00;CYXE 301400Z 36006KT 15SM -SN OVC030 M03/M05 A2997 RMK SC8 SLP181

CYXE;2016-11-30 15:00;CYXE 301500Z 35004KT 15SM -SN SCT014 OVC030 M03/M05 A2997 RMK SF4SC4 SLP182

CYXE;2016-11-30 15:28;CYXE 301528Z 35005KT 15SM -SN BKN015 OVC030 M03/M05 A2997 RMK SF6SC2 SLP181

CYXE;2016-11-30 16:00;CYXE 301600Z 35004KT 15SM -SN SCT016 OVC030 M03/M04 A2997 RMK SF4SC4 SLP182

CYXE;2016-11-30 16:25;CYXE 301625Z 01004KT 15SM FEW016 OVC034 M03/M04 A2997 RMK SF2SC6 SLP182

CYXE;2016-11-30 17:00;CYXE 301700Z 36004KT 15SM OVC030 M02/M05 A2998 RMK SC8 SLP183

CYXE;2016-11-30 17:22;CYXE 301722Z 02003KT 15SM BKN009 OVC030 M02/M04 A2997 RMK SF5SC3 SLP182

CYXE;2016-11-30 17:41;CYXE 301741Z 01004KT 360V060 15SM BKN011 OVC030 M02/M05 A2997 RMK SF6SC2 SLP180

CYXE;2016-11-30 18:00;CYXE 301800Z 35003KT 15SM BKN011 OVC029 M02/M05 A2997 RMK SF7SC1 SLP180

CYXE;2016-11-30 19:00;CYXE 301900Z 06003KT 020V090 15SM OVC011 M02/M05 A2996 RMK SF8 SLP178

CYXE;2016-11-30 20:00;CYXE 302000Z 05003KT 030V110 15SM OVC010 M02/M04 A2995 RMK SF8 SLP173

CYXE;2016-11-30 21:00;CYXE 302100Z 04003KT 020V090 15SM OVC011 M02/M05 A2994 RMK SF8 SLP170

CYXE;2016-11-30 22:00;CYXE 302200Z 07002KT 15SM OVC014 M02/M04 A2995 RMK SC8 SLP172

CYXE;2016-11-30 23:00;CYXE 302300Z 07003KT 15SM BKN013 BKN020 M02/M04 A2995 RMK SC6SC1 SLP173

CYXE;2016-12-01 00:00;CYXE 010000Z 08005KT 15SM BKN013 OVC021 M03/M04 A2995 RMK SC5SC3 SLP175

CYXE;2016-12-01 01:00;CYXE 010100Z 07005KT 15SM BKN011 OVC020 M03/M04 A2995 RMK SC5SC3 SLP175

CYXE;2016-12-01 02:00;CYXE 010200Z 09004KT 15SM BKN012 OVC020 M03/M05 A2995 RMK SC7SC1 SLP174

CYXE;2016-12-01 02:23;CYXE 010223Z 12005KT 12SM -FZDZ OVC012 M03/M05 A2995 RMK ST8 SLP174

CYXE;2016-12-01 02:50;CYXE 010250Z 11006KT 15SM OVC013 M03/M05 A2995 RMK ST8 SLP174

CYXE;2016-12-01 03:00;CYXE 010300Z 13005KT 15SM OVC011 M03/M05 A2995 RMK ST8 SLP174

CYXE;2016-12-01 03:48;CYXE 010348Z 14006KT 15SM OVC008 M03/M05 A2995 RMK ST8 SLP175

CYXE;2016-12-01 04:00;CYXE 010400Z 11005KT 080V160 15SM OVC009 M03/M05 A2996 RMK ST8 SLP176

CYXE;2016-12-01 04:43;CYXE 010443Z 10006KT 15SM OVC007 M03/M05 A2995 RMK ST8 SLP175

CYXE;2016-12-01 05:00;CYXE 010500Z 11006KT 15SM OVC007 M03/M05 A2996 RMK ST8 SLP177

CYXE;2016-12-01 06:00;CYXE 010600Z 13005KT 3SM BR OVC005 M04/M05 A2996 RMK ST8 SLP178

CYXE;2016-12-01 07:00;CYXE 010700Z 11006KT 3SM BR OVC005 M04/M05 A2997 RMK ST8 SLP182

CYXE;2016-12-01 07:29;CYXE 010729Z 12006KT 5SM BR BKN004 OVC011 M04/M05 A2997 RMK ST7SC1 SLP181

CYXE;2016-12-01 08:00;CYXE 010800Z 10006KT 6SM BR BKN004 OVC012 M04/M05 A2996 RMK ST7SC1 SLP179

CYXE;2016-12-01 08:42;CYXE 010842Z 11005KT 10SM OVC005 M04/M05 A2996 RMK ST8 BR SLP179

CYXE;2016-12-01 09:00;CYXE 010900Z 13006KT 10SM OVC005 M04/M05 A2997 RMK ST8 BR SLP180

CYXE;2016-12-01 09:47;CYXE 010947Z 12004KT 12SM OVC006 M04/M05 A2997 RMK ST8 BR SLP180

CYXE;2016-12-01 10:00;CYXE 011000Z 13005KT 12SM FEW004 OVC007 M04/M05 A2996 RMK SF1ST7 BR SLP179

CYXE;2016-12-01 10:50;CYXE 011050Z 15003KT 15SM FEW005 OVC012 M04/M05 A2996 RMK SF1SC7 SLP178

CYXE;2016-12-01 11:00;CYXE 011100Z 16002KT 15SM FEW005 OVC012 M04/M05 A2996 RMK SF1SC7 SLP178

CYXE;2016-12-01 12:00;CYXE 011200Z 11004KT 15SM FEW005 OVC014 M04/M05 A2996 RMK SF1SC7 SLP177

CYXE;2016-12-01 13:00;CYXE 011300Z 09004KT 15SM FEW007 OVC016 M04/M05 A2996 RMK SF1SC7 SLP178

CYXE;2016-12-01 14:00;CYXE 011400Z 09004KT 15SM SCT008 OVC017 M04/M05 A2997 RMK SF3SC5 SLP181

CYXE;2016-12-01 15:00;CYXE 011500Z 10003KT 15SM SCT007 OVC013 M03/M05 A2997 RMK SF3SC5 SLP181

CYXE;2016-12-01 15:49;CYXE 011549Z 09005KT 15SM OVC009 M03/M05 A2997 RMK SC8 SLP183

CYXE;2016-12-01 16:00;CYXE 011600Z 09004KT 15SM OVC009 M03/M04 A2998 RMK SC8 SLP184

CYXE;2016-12-01 17:00;CYXE 011700Z 10003KT 15SM OVC009 M03/M05 A2999 RMK SC8 SLP187

CYXE;2016-12-01 18:00;CYXE 011800Z 12004KT 15SM OVC009 M02/M04 A2999 RMK SC8 SLP188

CYXE;2016-12-01 18:48;CYXE 011848Z 11004KT 15SM OVC012 M02/M04 A2998 RMK SC8 SLP184

CYXE;2016-12-01 19:00;CYXE 011900Z 14007KT 15SM OVC013 M02/M05 A2998 RMK SC8 SLP186

CYXE;2016-12-01 20:00;CYXE 012000Z 10007KT 15SM OVC011 M02/M04 A2998 RMK SC8 SLP185

CYXE;2016-12-01 21:00;CYXE 012100Z 18003KT 080V190 15SM OVC012 M01/M04 A2999 RMK SC8 SLP188

CYXE;2016-12-01 22:00;CYXE 012200Z 18008KT 15SM BKN010 M03/M05 A3000 RMK SC7 SLP192

CYXE;2016-12-01 23:00;CYXE 012300Z 00000KT 15SM OVC011 M03/M05 A3001 RMK SC8 SLP195

CYXE;2016-12-02 00:00;CYXE 020000Z 33003KT 15SM OVC014 M03/M05 A3002 RMK SC8 SLP199

CYXE;2016-12-02 01:00;CYXE 020100Z 32003KT 15SM OVC014 M03/M05 A3004 RMK SC8 SLP204

CYXE;2016-12-02 01:40;CYXE 020140Z 34005KT 15SM OVC016 M03/M05 A3004 RMK SC8 SLP206

CYXE;2016-12-02 02:00;CYXE 020200Z 34005KT 15SM OVC016 M03/M05 A3005 RMK SC8 SLP207

CYXE;2016-12-02 03:00;CYXE 020300Z 36005KT 15SM OVC018 M03/M04 A3005 RMK SC8 SLP210

CYXE;2016-12-02 04:00;CYXE 020400Z 02002KT 15SM OVC017 M02/M04 A3007 RMK SC8 SLP215

CYXE;2016-12-02 05:00;CYXE 020500Z VRB02KT 15SM OVC017 M02/M05 A3007 RMK SC8 SLP216

CYXE;2016-12-02 06:00;CYXE 020600Z 00000KT 15SM OVC016 M02/M05 A3008 RMK SC8 SLP218

CYXE;2016-12-02 07:00;CYXE 020700Z 00000KT 15SM OVC016 M02/M05 A3009 RMK SC8 SLP222

CYXE;2016-12-02 08:00;CYXE 020800Z VRB02KT 15SM OVC015 M02/M05 A3010 RMK SC8 SLP226

CYXE;2016-12-02 09:00;CYXE 020900Z VRB02KT 15SM OVC015 M02/M05 A3012 RMK SC8 SLP230

CYXE;2016-12-02 10:00;CYXE 021000Z VRB02KT 15SM OVC015 M02/M05 A3013 RMK SC8 SLP235

CYXE;2016-12-02 11:00;CYXE 021100Z VRB02KT 15SM OVC015 M02/M05 A3013 RMK SC8 SLP234

CYXE;2016-12-02 11:06;CYXE 021106Z 26002KT 15SM OVC014 M02/M05 A3013 RMK SC8 SLP234

CYXE;2016-12-02 12:00;CYXE 021200Z 00000KT 15SM OVC014 M02/M05 A3013 RMK SC8 SLP235

CYXE;2016-12-02 13:00;CYXE 021300Z 29003KT 15SM VCSH OVC014 M02/M05 A3013 RMK SC8 SLP234

CYXE;2016-12-02 14:00;CYXE 021400Z VRB02KT 15SM VCSH OVC013 M02/M05 A3012 RMK SC8 SLP232

CYXE;2016-12-02 15:00;CYXE 021500Z 25006KT 15SM OVC011 M03/M05 A3014 RMK SC8 SLP238

CYXE;2016-12-02 16:00;CYXE 021600Z 23004KT 15SM OVC012 M03/M05 A3012 RMK SC8 SLP233

CYXE;2016-12-02 17:00;CYXE 021700Z 23007KT 15SM OVC010 M03/M05 A3014 RMK SC8 SLP237

CYXE;2016-12-02 17:46;CYXE 021746Z 23006KT 15SM -SN OVC009 M03/M05 A3013 RMK ST8 SLP235

CYXE;2016-12-02 18:00;CYXE 021800Z 23008KT 15SM -SN OVC009 M03/M05 A3013 RMK ST8 SLP234

CYXE;2016-12-02 19:00;CYXE 021900Z 22008KT 15SM -SN OVC009 M03/M05 A3009 RMK ST8 SLP222

CYXE;2016-12-02 20:00;CYXE 022000Z 19006KT 160V240 15SM -SN OVC008 M03/M05 A3007 RMK ST8 SLP216

CYXE;2016-12-02 21:00;CYXE 022100Z 21006KT 15SM -SN OVC009 M03/M05 A3006 RMK ST8 SLP211

CYXE;2016-12-02 22:00;CYXE 022200Z 17006KT 15SM -SN OVC009 M03/M05 A3003 RMK ST8 SLP201

CYXE;2016-12-02 23:00;CYXE 022300Z 18008KT 15SM -SN OVC008 M03/M05 A3001 RMK ST8 SLP196

CYXE;2016-12-03 00:00;CYXE 030000Z 21007KT 15SM -SN OVC009 M03/M06 A3001 RMK ST8 SLP196

CYXE;2016-12-03 00:11;CYXE 030011Z 19008KT 15SM OVC011 M03/M06 A3001 RMK ST8 SLP196

CYXE;2016-12-03 01:00;CYXE 030100Z 16008KT 15SM OVC013 M03/M05 A2999 RMK SC8 SLP188

CYXE;2016-12-03 01:47;CYXE 030147Z 18011G17KT 15SM OVC016 M03/M06 A2997 RMK SC8 SLP181

CYXE;2016-12-03 02:00;CYXE 030200Z 18011G17KT 15SM OVC016 M03/M06 A2997 RMK SC8 SLP180

CYXE;2016-12-03 03:00;CYXE 030300Z 16011KT 15SM OVC016 M03/M06 A2993 RMK SC8 SLP168

CYXE;2016-12-03 04:00;CYXE 030400Z 16014KT 15SM OVC018 M03/M07 A2990 RMK SC8 PRESFR SLP156

CYXE;2016-12-03 05:00;CYXE 030500Z 15014KT 15SM BKN018 M03/M07 A2986 RMK SC6 PRESFR SLP143

CYXE;2016-12-03 06:00;CYXE 030600Z 14008KT 15SM BKN019 M03/M07 A2984 RMK SC6 SLP138

CYXE;2016-12-03 07:00;CYXE 030700Z 12009KT 15SM SCT019 BKN200 M04/M07 A2981 RMK SC4CI2 SLP126

CYXE;2016-12-03 08:00;CYXE 030800Z 12010KT 15SM SCT200 M05/M07 A2978 RMK CI4 SLP116

CYXE;2016-12-03 09:00;CYXE 030900Z 11010G15KT 15SM BKN200 M05/M06 A2974 RMK CI6 SLP105

CYXE;2016-12-03 10:00;CYXE 031000Z 11010KT 6SM BR FEW006 BKN200 M04/M06 A2972 RMK SF2CI5 SLP097

CYXE;2016-12-03 11:00;CYXE 031100Z 11009KT 5SM BR OVC006 M04/M05 A2970 RMK ST8 SLP090

CYXE;2016-12-03 12:00;CYXE 031200Z 11009KT 5SM BR OVC005 M04/M05 A2969 RMK ST8 SLP088

CYXE;2016-12-03 13:00;CYXE 031300Z 10007KT 5SM BR OVC005 M05/M06 A2968 RMK SF8 SLP081

CYXE;2016-12-03 14:00;CYXE 031400Z 08005KT 12SM OVC005 M05/M06 A2967 RMK ST8 SLP080

CYXE;2016-12-03 14:33;CYXE 031433Z 08005KT 15SM SCT006 BKN120 M06/M07 A2967 RMK SF4AC2 SLP079

CYXE;2016-12-03 15:00;CYXE 031500Z 07005KT 15SM SCT006 BKN120 BKN280 M06/M07 A2967 RMK SF4AC2CI1 SLP080

CYXE;2016-12-03 16:00;CYXE 031600Z 01003KT 15SM SCT006 BKN130 BKN280 M05/M06 A2968 RMK SF4AC2CI1 SLP083

CYXE;2016-12-03 16:28;CYXE 031628Z 03004KT 15SM BKN006 OVC130 M05/M06 A2968 RMK SF6AC2 SLP081

CYXE;2016-12-03 17:00;CYXE 031700Z 01004KT 15SM BKN006 OVC130 M05/M06 A2968 RMK SF7AC1 SLP084

CYXE;2016-12-03 18:00;CYXE 031800Z 35009KT 12SM OVC007 M04/M06 A2969 RMK ST8 SLP086

CYXE;2016-12-03 19:00;CYXE 031900Z 36007KT 320V030 12SM OVC008 M04/M06 A2968 RMK ST8 SLP083

CYXE;2016-12-03 20:00;CYXE 032000Z 32008KT 15SM OVC008 M04/M06 A2969 RMK ST8 SLP089

CYXE;2016-12-03 21:00;CYXE 032100Z 36008KT 15SM OVC009 M03/M05 A2970 RMK ST8 SLP091

CYXE;2016-12-03 22:00;CYXE 032200Z 36008KT 15SM OVC009 M03/M05 A2972 RMK ST8 SLP095

CYXE;2016-12-03 22:43;CYXE 032243Z 33009KT 12SM OVC010 M03/M05 A2973 RMK ST8 BR SLP098

CYXE;2016-12-03 23:00;CYXE 032300Z 32008KT 12SM OVC010 M03/M05 A2973 RMK ST8 BR SLP099

CYXE;2016-12-04 00:00;CYXE 040000Z 33005KT 12SM OVC010 M03/M05 A2974 RMK ST8 BR SLP101

CYXE;2016-12-04 00:22;CYXE 040022Z 32004KT 12SM OVC009 M03/M05 A2974 RMK ST8 BR SLP101

CYXE;2016-12-04 01:00;CYXE 040100Z 30008KT 12SM OVC008 M03/M05 A2974 RMK ST8 BR SLP102

CYXE;2016-12-04 02:00;CYXE 040200Z 28005KT 10SM OVC007 M03/M05 A2973 RMK ST8 BR SLP100

CYXE;2016-12-04 02:32;CYXE 040232Z 30007KT 5SM -SN BR OVC007 M03/M05 A2974 RMK ST8 SLP102

CYXE;2016-12-04 02:44;CYXE 040244Z 27007KT 10SM OVC007 M03/M05 A2973 RMK ST8 BR SLP101

CYXE;2016-12-04 03:00;CYXE 040300Z 26008KT 10SM OVC006 M04/M05 A2974 RMK ST8 BR SLP103

CYXE;2016-12-04 04:00;CYXE 040400Z 26009KT 8SM OVC006 M03/M05 A2974 RMK ST8 BR SLP102

CYXE;2016-12-04 05:00;CYXE 040500Z 27005KT 8SM OVC008 M04/M05 A2974 RMK ST8 BR SLP102

CYXE;2016-12-04 06:00;CYXE 040600Z 26006KT 12SM OVC008 M04/M05 A2974 RMK ST8 SLP102

CYXE;2016-12-04 06:08;CYXE 040608Z 27006KT 5SM -SG OVC007 M04/M05 A2974 RMK ST8 SLP103

CYXE;2016-12-04 06:41;CYXE 040641Z 25004KT 6SM -SG OVC004 M05/M06 A2973 RMK ST8 SLP100

CYXE;2016-12-04 07:00;CYXE 040700Z 25005KT 230V290 5SM -SG BR OVC003 M05/M06 A2973 RMK ST8 SLP100

CYXE;2016-12-04 07:11;CYXE 040711Z 22005KT 2 1/2SM BR OVC002 M05/M06 A2973 RMK ST8 VIS W 1 SLP099

CYXE;2016-12-04 07:19;CYXE 040719Z 22005KT 1/2SM R09/P6000FT/D FZFG VV002 M05/M06 A2972 RMK FG8 SLP098

CYXE;2016-12-04 07:29;CYXE 040729Z 23005KT 1/4SM R09/2600FT/N FZFG VV001 M06/M06 A2973 RMK FG8 SLP101

CYXE;2016-12-04 07:41;CYXE 040741Z 23005KT 1/8SM R09/1600V2200FT/N FZFG VV001 M06/M07 A2973 RMK FG8 SLP101

CYXE;2016-12-04 08:00;CYXE 040800Z 22004KT 1/8SM R09/1200V1800FT/D FZFG VV001 M06/M06 A2973 RMK FG8 SLP100

CYXE;2016-12-04 09:00;CYXE 040900Z 20008KT 1/8SM R09/2400FT/N FZFG VV001 M06/M06 A2972 RMK FG8 SLP096

CYXE;2016-12-04 10:00;CYXE 041000Z 20005KT 1/8SM R09/2800FT/N FZFG VV001 M06/M07 A2970 RMK FG8 SLP091

CYXE;2016-12-04 10:30;CYXE 041030Z 20005KT 15SM FEW002 M07/M08 A2969 RMK SF2 SLP087

CYXE;2016-12-04 11:00;CYXE 041100Z 29003KT 210V300 15SM FEW200 M09/M10 A2969 RMK CI1 SLP087

CYXE;2016-12-04 12:00;CYXE 041200Z 19004KT 15SM FEW140 SCT210 M10/M11 A2967 RMK AC2CI2 SLP083

CYXE;2016-12-04 13:00;CYXE 041300Z 23005KT 15SM FEW140 FEW210 M09/M11 A2967 RMK AC1CI1 SLP083

CYXE;2016-12-04 14:00;CYXE 041400Z 21003KT 15SM BKN140 M09/M11 A2966 RMK AC6 SLP080

CYXE;2016-12-04 15:00;CYXE 041500Z 22004KT 15SM BKN120 M10/M11 A2967 RMK AC6 SLP082

CYXE;2016-12-04 16:00;CYXE 041600Z 23003KT 15SM BKN100 BKN280 M08/M09 A2966 RMK AC5CI2 SLP078

CYXE;2016-12-04 17:00;CYXE 041700Z 25004KT 15SM BKN110 BKN280 M05/M07 A2966 RMK AC6CI1 SLP077

CYXE;2016-12-04 18:00;CYXE 041800Z 22003KT 170V230 15SM SCT120 BKN280 M04/M06 A2965 RMK AC3CI4 SLP071

CYXE;2016-12-04 19:00;CYXE 041900Z 24003KT 15SM FEW120 BKN280 M04/M06 A2962 RMK AC2CI4 SLP063

CYXE;2016-12-04 20:00;CYXE 042000Z 27004KT 15SM FEW120 BKN220 M00/M05 A2960 RMK AC1CI4 SLP054

CYXE;2016-12-04 21:00;CYXE 042100Z 27003KT 15SM FEW120 BKN220 M01/M07 A2959 RMK AC2CI4 SLP051

CYXE;2016-12-04 22:00;CYXE 042200Z 22004KT 15SM BKN095 BKN220 M02/M06 A2958 RMK AC5CI2 SLP048

CYXE;2016-12-04 23:00;CYXE 042300Z 23007KT 15SM SCT090 BKN220 M05/M08 A2959 RMK AC3CI3 SLP055

CYXE;2016-12-05 00:00;CYXE 050000Z 26005KT 15SM SCT100 BKN250 M07/M09 A2959 RMK AC4CI2 SLP058

CYXE;2016-12-05 01:00;CYXE 050100Z 26007KT 15SM FEW100 M09/M10 A2960 RMK AC2 SLP060

CYXE;2016-12-05 02:00;CYXE 050200Z 27006KT 15SM FEW100 M09/M12 A2960 RMK AC1 SLP062

CYXE;2016-12-05 03:00;CYXE 050300Z 27006KT 15SM FEW100 M09/M12 A2961 RMK AC2 SLP064

CYXE;2016-12-05 04:00;CYXE 050400Z 26007KT 15SM FEW100 M10/M12 A2961 RMK AC1 SLP064

CYXE;2016-12-05 05:00;CYXE 050500Z 27008KT 15SM FEW040 SCT100 M11/M13 A2962 RMK SC2AC2 SLP066

CYXE;2016-12-05 06:00;CYXE 050600Z 28006KT 15SM BKN033 M08/M10 A2964 RMK SC7 SLP070

CYXE;2016-12-05 07:00;CYXE 050700Z 29008KT 15SM OVC033 M06/M08 A2965 RMK SC8 SLP073

CYXE;2016-12-05 08:00;CYXE 050800Z 30010KT 15SM OVC032 M05/M07 A2966 RMK SC8 SLP076

CYXE;2016-12-05 09:00;CYXE 050900Z 32019KT 15SM OVC028 M07/M11 A2969 RMK SC8 SLP088

CYXE;2016-12-05 10:00;CYXE 051000Z 31015G21KT 15SM OVC032 M09/M12 A2972 RMK SC8 SLP098

CYXE;2016-12-05 11:00;CYXE 051100Z 32012G17KT 15SM OVC023 M09/M12 A2974 RMK SC8 SLP105

CYXE;2016-12-05 12:00;CYXE 051200Z 32015KT 15SM OVC020 M08/M12 A2976 RMK SC8 SLP114

CYXE;2016-12-05 12:50;CYXE 051250Z 32012KT 15SM -SN OVC022 M09/M12 A2977 RMK SC8 SLP120

CYXE;2016-12-05 13:00;CYXE 051300Z 31014KT 15SM -SN OVC021 M09/M12 A2978 RMK SC8 SLP123

CYXE;2016-12-05 14:00;CYXE 051400Z 31013KT 15SM -SN OVC020 M10/M13 A2981 RMK SC8 SLP136

CYXE;2016-12-05 15:00;CYXE 051500Z 32019KT 15SM -SN OVC022 M10/M14 A2983 RMK SC8 SLP142

CYXE;2016-12-05 16:00;CYXE 051600Z 32013G21KT 15SM -SN OVC020 M10/M14 A2986 RMK SC8 SLP151

CYXE;2016-12-05 17:00;CYXE 051700Z 32013G21KT 15SM -SN OVC021 M10/M14 A2988 RMK SC8 SLP160

CYXE;2016-12-05 18:00;CYXE 051800Z 35011G19KT 15SM -SN FEW016 OVC024 M10/M14 A2991 RMK SF1SC7 SLP167

CYXE;2016-12-05 19:00;CYXE 051900Z 33014G19KT 15SM -SN BKN023 OVC035 M10/M15 A2992 RMK SC6SC2 SLP170

CYXE;2016-12-05 20:00;CYXE 052000Z 31014KT 15SM -SN BKN023 OVC035 M10/M15 A2994 RMK SC7SC1 SLP176

CYXE;2016-12-05 21:00;CYXE 052100Z CCA 31015G21KT 15SM -SN BKN024 OVC035 M12/M17 A2996 RMK SC7SC1 SLP188

CYXE;2016-12-05 22:00;CYXE 052200Z 30016G21KT 15SM -SN OVC023 M13/M16 A2999 RMK SC8 SLP197

CYXE;2016-12-05 23:00;CYXE 052300Z 31016KT 15SM -SN OVC024 M13/M17 A3001 RMK SC8 SLP206

CYXE;2016-12-06 00:00;CYXE 060000Z 32014G20KT 15SM -SN OVC024 M13/M18 A3003 RMK SC8 SLP211

CYXE;2016-12-06 01:00;CYXE 060100Z 31015G21KT 15SM -SN OVC024 M13/M18 A3004 RMK SC8 SLP217

CYXE;2016-12-06 02:00;CYXE 060200Z 33016KT 15SM -SN OVC024 M13/M18 A3005 RMK SC8 SLP218

CYXE;2016-12-06 03:00;CYXE 060300Z 33011G17KT 15SM -SN OVC023 M13/M18 A3006 RMK SC8 SLP223

CYXE;2016-12-06 04:00;CYXE 060400Z 33013KT 15SM -SN OVC022 M13/M18 A3007 RMK SC8 SLP226

CYXE;2016-12-06 05:00;CYXE 060500Z 32016KT 15SM -SN OVC022 M14/M19 A3008 RMK SC8 SLP229

CYXE;2016-12-06 06:00;CYXE 060600Z 33015G21KT 15SM -SN SCT025 OVC040 M14/M19 A3008 RMK SC3SC5 SLP231

CYXE;2016-12-06 07:00;CYXE 060700Z 33016KT 15SM -SN BKN023 OVC045 M14/M19 A3009 RMK SC6SC2 SLP234

CYXE;2016-12-06 08:00;CYXE 060800Z 33013G20KT 15SM -SN SCT020 BKN040 OVC055 M15/M19 A3010 RMK SC4SC2SC2 SLP237

CYXE;2016-12-06 08:46;CYXE 060846Z 35011G19KT 15SM SCT022 OVC038 M15/M20 A3010 RMK SC3SC5 SLP240

CYXE;2016-12-06 09:00;CYXE 060900Z 34015KT 15SM SCT022 OVC038 M15/M20 A3011 RMK SC4SC4 INTMT -SN SLP242

CYXE;2016-12-06 09:43;CYXE 060943Z 32014G20KT 15SM -SN BKN022 OVC040 M15/M20 A3011 RMK SC6SC2 SLP244

CYXE;2016-12-06 10:00;CYXE 061000Z 32014G19KT 15SM -SN BKN022 OVC038 M15/M20 A3011 RMK SC7SC1 SLP244

CYXE;2016-12-06 11:00;CYXE 061100Z 30013G20KT 15SM -SN SCT022 OVC060 M16/M19 A3012 RMK SC4SC4 SLP248

CYXE;2016-12-06 12:00;CYXE 061200Z 32017G23KT 15SM -SN SCT022 OVC058 M17/M21 A3013 RMK SC3SC5 SLP252

CYXE;2016-12-06 13:00;CYXE 061300Z 32016G21KT 15SM -SN FEW020 BKN060 M18/M21 A3014 RMK SC1SC6 SLP255

CYXE;2016-12-06 13:24;CYXE 061324Z 31014KT 15SM SCT060 M18/M22 A3014 RMK SC3 SLP255

CYXE;2016-12-06 14:00;CYXE 061400Z 31013KT 15SM SCT060 M19/M22 A3014 RMK SC3 SLP257

CYXE;2016-12-06 15:00;CYXE 061500Z 31010G16KT 15SM FEW060 M19/M22 A3015 RMK SC2 SLP260

CYXE;2016-12-06 16:00;CYXE 061600Z 31014G19KT 15SM FEW060 M19/M22 A3016 RMK SC2 SLP263

CYXE;2016-12-06 17:00;CYXE 061700Z 32015G23KT 15SM SCT045 SCT065 M17/M22 A3016 RMK SC3SC1 SLP262

CYXE;2016-12-06 17:34;CYXE 061734Z 32015G22KT 15SM -SN DRSN SCT035 BKN065 M17/M22 A3016 RMK SC4SC3 SLP262

CYXE;2016-12-06 18:00;CYXE 061800Z 31013G21KT 15SM -SN DRSN BKN039 BKN065 M17/M22 A3016 RMK SC5SC2 SLP262

CYXE;2016-12-06 19:00;CYXE 061900Z 31016KT 15SM -SN DRSN FEW020 BKN036 M16/M21 A3015 RMK CF1SC6 SLP261

CYXE;2016-12-06 20:00;CYXE 062000Z 32016KT 15SM -SN DRSN FEW020 BKN043 M16/M21 A3015 RMK CF1SC6 SLP258

CYXE;2016-12-06 21:00;CYXE 062100Z 32017KT 10SM -SN DRSN FEW020 BKN050 M16/M20 A3015 RMK CF1SC5 SLP259

CYXE;2016-12-06 21:18;CYXE 062118Z 31017G23KT 15SM FEW020 SCT050 M16/M21 A3015 RMK CF1SC4 CF TR SLP260

CYXE;2016-12-06 22:00;CYXE 062200Z 31015G21KT 15SM FEW050 M16/M21 A3016 RMK SC1 SLP265

CYXE;2016-12-06 23:00;CYXE 062300Z 31015KT 15SM FEW020 M17/M21 A3018 RMK CF1 SLP270

CYXE;2016-12-07 00:00;CYXE 070000Z 31013G18KT 15SM SKC M17/M20 A3019 RMK SLP277

CYXE;2016-12-07 01:00;CYXE 070100Z 31015KT 15SM BKN060 M16/M20 A3020 RMK SC5 SLP281

CYXE;2016-12-07 02:00;CYXE 070200Z 32018KT 15SM BKN058 M16/M20 A3022 RMK SC6 SLP286

CYXE;2016-12-07 03:00;CYXE 070300Z 32014G20KT 15SM BKN057 M16/M20 A3023 RMK SC7 SLP292

CYXE;2016-12-07 04:00;CYXE 070400Z 32015G20KT 15SM BKN058 M17/M20 A3025 RMK SC7 SLP297

CYXE;2016-12-07 05:00;CYXE 070500Z 31014G19KT 15SM BKN057 M17/M20 A3026 RMK SC7 SLP301

CYXE;2016-12-07 06:00;CYXE 070600Z 31015G21KT 15SM SCT060 M18/M21 A3028 RMK SC3 SLP305

CYXE;2016-12-07 07:00;CYXE 070700Z 31016KT 15SM BKN045 M17/M21 A3028 RMK SC6 SLP307

CYXE;2016-12-07 08:00;CYXE 070800Z 31014G20KT 15SM FEW045 M18/M21 A3031 RMK SC2 SLP317

CYXE;2016-12-07 09:00;CYXE 070900Z 31013G20KT 15SM FEW050 M18/M21 A3033 RMK SC1 SLP325

CYXE;2016-12-07 10:00;CYXE 071000Z 31014KT 15SM BKN045 M18/M21 A3035 RMK SC5 SLP330

CYXE;2016-12-07 10:24;CYXE 071024Z 31014KT 15SM -SN BKN050 M18/M21 A3035 RMK SC7 SLP330

CYXE;2016-12-07 11:00;CYXE 071100Z 30011G18KT 15SM -SN BKN050 M18/M22 A3036 RMK SC6 SLP335

CYXE;2016-12-07 12:00;CYXE 071200Z 30013KT 15SM -SN BKN050 M18/M21 A3037 RMK SC7 SLP339

CYXE;2016-12-07 13:00;CYXE 071300Z 31014KT 10SM -SN OVC050 M18/M21 A3039 RMK SC8 SLP344

CYXE;2016-12-07 14:00;CYXE 071400Z 32013G20KT 15SM -SN FEW050 SCT065 M18/M21 A3041 RMK SC2SC2 SLP351

CYXE;2016-12-07 14:48;CYXE 071448Z 32012G18KT 15SM FEW050 SCT065 M18/M21 A3042 RMK SC2SC1 SLP354

CYXE;2016-12-07 15:00;CYXE 071500Z 32014KT 15SM SCT053 M18/M21 A3042 RMK SC3 SLP356

CYXE;2016-12-07 16:00;CYXE 071600Z 32013KT 15SM FEW050 FEW080 M18/M21 A3046 RMK SC1AC1 SLP367

CYXE;2016-12-07 17:00;CYXE 071700Z 33014G19KT 15SM FEW095 SCT280 M16/M21 A3047 RMK AC1CI3 AC TR SLP373

CYXE;2016-12-07 18:00;CYXE 071800Z 32014KT 15SM FEW018 SCT100 SCT280 M16/M20 A3049 RMK SF1AC3CI1 SF TR SLP378

CYXE;2016-12-07 19:00;CYXE 071900Z 32014KT 15SM SCT018 SCT280 M15/M20 A3050 RMK SF3CI1 SLP381

CYXE;2016-12-07 20:00;CYXE 072000Z 32012KT 15SM SCT018 BKN035 M15/M20 A3050 RMK SF3SC4 SLP382

CYXE;2016-12-07 20:46;CYXE 072046Z 32013KT 8SM -SG BKN050 M15/M20 A3052 RMK SC7 SLP387

CYXE;2016-12-07 21:00;CYXE 072100Z 33012KT 8SM -SG BKN052 M15/M19 A3052 RMK SC7 SLP389

CYXE;2016-12-07 22:00;CYXE 072200Z 32013KT 15SM -SN DRSN BKN050 M16/M20 A3054 RMK SC5 SLP398

CYXE;2016-12-07 22:40;CYXE 072240Z 32011KT 15SM SCT050 BKN280 M16/M20 A3055 RMK SC3CI3 SLP402

CYXE;2016-12-07 23:00;CYXE 072300Z 31011KT 15SM FEW050 SCT280 M17/M20 A3056 RMK SC1CI3 SLP405

CYXE;2016-12-08 00:00;CYXE 080000Z 31008KT 15SM SCT280 M17/M20 A3058 RMK CI3 SLP412

CYXE;2016-12-08 01:00;CYXE 080100Z 31009KT 15SM FEW280 M18/M21 A3059 RMK CI2 SLP415

CYXE;2016-12-08 02:00;CYXE 080200Z 31010KT 15SM FEW240 M18/M21 A3061 RMK CI2 SLP420

CYXE;2016-12-08 03:00;CYXE 080300Z 32008KT 15SM FEW120 M19/M21 A3062 RMK AC2 SLP425

CYXE;2016-12-08 04:00;CYXE 080400Z 32004KT 15SM SKC M20/M22 A3063 RMK SLP429

CYXE;2016-12-08 05:00;CYXE 080500Z 30006KT 15SM FEW090 FEW220 M21/M23 A3064 RMK AC1CI1 SLP433

CYXE;2016-12-08 06:00;CYXE 080600Z 31006KT 15SM BKN160 M19/M21 A3065 RMK AC5 SLP434

CYXE;2016-12-08 07:00;CYXE 080700Z 33006KT 15SM BKN160 M20/M23 A3065 RMK AC6 SLP436

CYXE;2016-12-08 07:48;CYXE 080748Z 33004KT 15SM IC SCT060 M21/M23 A3067 RMK SC4 SLP441

CYXE;2016-12-08 08:00;CYXE 080800Z 33005KT 15SM IC FEW060 M21/M23 A3067 RMK SC2 SLP441

CYXE;2016-12-08 09:00;CYXE 080900Z 34004KT 15SM IC SKC M21/M24 A3067 RMK SLP442

CYXE;2016-12-08 09:51;CYXE 080951Z 32003KT 15SM SCT140 M20/M23 A3068 RMK AC4 SLP443

CYXE;2016-12-08 10:00;CYXE 081000Z 34005KT 15SM SCT120 M20/M23 A3068 RMK AC4 SLP444

CYXE;2016-12-08 10:44;CYXE 081044Z 33005KT 15SM -SN BKN120 M20/M23 A3068 RMK AC6 SLP445

CYXE;2016-12-08 11:00;CYXE 081100Z 33004KT 15SM IC SCT120 M20/M23 A3068 RMK AC3 SLP446

CYXE;2016-12-08 12:00;CYXE 081200Z 31006KT 15SM IC FEW120 M22/M25 A3068 RMK AC2 SLP447

CYXE;2016-12-08 13:00;CYXE 081300Z 29006KT 12SM IC SKC M22/M25 A3069 RMK SLP451

CYXE;2016-12-08 14:00;CYXE 081400Z 30006KT 15SM IC FEW120 M23/M25 A3069 RMK AC1 SLP453

CYXE;2016-12-08 15:00;CYXE 081500Z 31007KT 15SM IC FEW120 M23/M25 A3070 RMK AC1 SLP455

CYXE;2016-12-08 16:00;CYXE 081600Z 33005KT 15SM IC FEW210 M22/M25 A3070 RMK CI1 SLP457

CYXE;2016-12-08 17:00;CYXE 081700Z 33008KT 15SM IC FEW210 M21/M24 A3070 RMK CI1 PARHELIA SLP458

CYXE;2016-12-08 17:16;CYXE 081716Z 32009KT 12SM IC FEW009 SCT210 M21/M24 A3071 RMK SF2CI1 SLP459

CYXE;2016-12-08 18:00;CYXE 081800Z 32007KT 10SM IC SCT009 M20/M24 A3070 RMK SF4 SLP456

CYXE;2016-12-08 19:00;CYXE 081900Z 35008KT 12SM IC SCT012 SCT210 M20/M24 A3069 RMK CF3CI1 SLP452

CYXE;2016-12-08 20:00;CYXE 082000Z 34006KT 290V360 12SM IC FEW014 SCT210 M19/M23 A3068 RMK CF2CI1 SLP447

CYXE;2016-12-08 21:00;CYXE 082100Z 35006KT 12SM IC FEW014 FEW210 M19/M24 A3067 RMK CF1CI1 SLP445

CYXE;2016-12-08 22:00;CYXE 082200Z 31010KT 15SM IC FEW015 SCT240 M20/M24 A3067 RMK CF2CI2 SLP445

CYXE;2016-12-08 23:00;CYXE 082300Z 31008KT 15SM IC FEW015 SCT240 M21/M25 A3067 RMK CF1CI2 SLP445

CYXE;2016-12-09 00:00;CYXE 090000Z 32007KT 15SM IC FEW015 SCT200 M22/M26 A3067 RMK CF1CI2 SLP447

CYXE;2016-12-09 01:00;CYXE 090100Z 32006KT 15SM IC SCT200 M23/M27 A3066 RMK CI3 SLP445

CYXE;2016-12-09 02:00;CYXE 090200Z 33005KT 15SM IC FEW020 M24/M27 A3064 RMK SC2 SLP440

CYXE;2016-12-09 03:00;CYXE 090300Z 36004KT 15SM FEW020 M25/M28 A3064 RMK SC1 SLP439

CYXE;2016-12-09 04:00;CYXE 090400Z 01006KT 15SM IC SCT020 M24/M27 A3064 RMK SC3 SLP439

CYXE;2016-12-09 05:00;CYXE 090500Z 35005KT 15SM IC FEW020 FEW240 M25/M28 A3064 RMK SC1CI1 SLP438

CYXE;2016-12-09 06:00;CYXE 090600Z 35006KT 15SM IC FEW020 M24/M28 A3064 RMK SC1 SLP439

CYXE;2016-12-09 07:00;CYXE 090700Z 33004KT 15SM IC BKN020 M25/M28 A3064 RMK SC7 SLP439

CYXE;2016-12-09 08:00;CYXE 090800Z 34005KT 15SM IC BKN020 M25/M28 A3064 RMK SC6 SLP438

CYXE;2016-12-09 09:00;CYXE 090900Z 33005KT 15SM IC FEW020 M26/M29 A3064 RMK SC1 SLP438

CYXE;2016-12-09 10:00;CYXE 091000Z 33004KT 15SM IC FEW020 M26/M29 A3063 RMK SC1 SLP436

CYXE;2016-12-09 11:00;CYXE 091100Z 32005KT 15SM IC SCT020 M26/M29 A3064 RMK SC4 SLP439

CYXE;2016-12-09 12:00;CYXE 091200Z 30005KT 15SM IC BKN015 M25/M28 A3063 RMK SC6 SLP438

CYXE;2016-12-09 13:00;CYXE 091300Z 29004KT 15SM IC BKN015 M25/M28 A3063 RMK SC6 SLP437

CYXE;2016-12-09 13:48;CYXE 091348Z 31003KT 15SM SCT015 BKN200 M26/M29 A3063 RMK SC4CI2 SLP437

CYXE;2016-12-09 14:00;CYXE 091400Z 31004KT 15SM SCT015 BKN200 M26/M29 A3063 RMK SC3CI3 SLP438

CYXE;2016-12-09 15:00;CYXE 091500Z 33004KT 15SM FEW015 SCT200 M27/M30 A3062 RMK SC1CI2 SLP437

CYXE;2016-12-09 16:00;CYXE 091600Z 34004KT 15SM FEW015 FEW200 M25/M28 A3062 RMK SC1CI1 SLP436

CYXE;2016-12-09 16:22;CYXE 091622Z 01004KT 5SM IC FEW015 M24/M27 A3062 RMK SC1 SC TR SLP435

CYXE;2016-12-09 17:00;CYXE 091700Z 34003KT 300V360 5SM IC FEW003 M24/M27 A3063 RMK SF1 SLP437

CYXE;2016-12-09 18:00;CYXE 091800Z 32003KT 290V350 4SM IC SCT008 M23/M26 A3062 RMK SF3 SLP432

CYXE;2016-12-09 19:00;CYXE 091900Z 29003KT 210V320 6SM IC FEW008 M22/M26 A3060 RMK SF1 SLP426

CYXE;2016-12-09 20:00;CYXE 092000Z VRB02KT 12SM IC FEW008 M21/M26 A3058 RMK CF1 SLP417

CYXE;2016-12-09 20:32;CYXE 092032Z VRB02KT 6SM IC FEW012 M21/M25 A3056 RMK CF2 SLP413

CYXE;2016-12-09 21:00;CYXE 092100Z VRB02KT 6SM IC SCT012 M21/M25 A3056 RMK SF4 SLP414

CYXE;2016-12-09 22:00;CYXE 092200Z CCA 36002KT 15SM IC FEW012 M21/M25 A3055 RMK CF2 SLP410

CYXE;2016-12-09 23:00;CYXE 092300Z 01003KT 15SM IC FEW012 FEW240 M21/M26 A3054 RMK CF1CI1 SLP405

CYXE;2016-12-10 00:00;CYXE 100000Z 35003KT 15SM IC SKC M23/M26 A3052 RMK SLP401

CYXE;2016-12-10 01:00;CYXE 100100Z 04003KT 15SM IC SKC M23/M26 A3051 RMK SLP395

CYXE;2016-12-10 02:00;CYXE 100200Z 07003KT 15SM IC FEW015 M24/M27 A3049 RMK CF1 SLP390

CYXE;2016-12-10 03:00;CYXE 100300Z 08002KT 15SM IC SKC M23/M25 A3047 RMK SLP385

CYXE;2016-12-10 04:00;CYXE 100400Z 09003KT 15SM IC SKC M23/M26 A3046 RMK SLP378

CYXE;2016-12-10 05:00;CYXE 100500Z 08003KT 15SM IC SKC M23/M25 A3043 RMK SLP368

CYXE;2016-12-10 06:00;CYXE 100600Z 13002KT 15SM IC SKC M23/M26 A3041 RMK SLP360

CYXE;2016-12-10 07:00;CYXE 100700Z 17003KT 15SM IC SKC M23/M26 A3040 RMK SLP355

CYXE;2016-12-10 08:00;CYXE 100800Z 17004KT 15SM IC SKC M24/M27 A3038 RMK SLP351

CYXE;2016-12-10 09:00;CYXE 100900Z 16004KT 15SM IC SKC M24/M27 A3036 RMK SLP342

CYXE;2016-12-10 10:00;CYXE 101000Z 11004KT 15SM IC SKC M25/M27 A3033 RMK SLP331

CYXE;2016-12-10 11:00;CYXE 101100Z 11005KT 15SM IC SKC M24/M27 A3030 RMK SLP323

CYXE;2016-12-10 11:49;CYXE 101149Z 10004KT 15SM IC BKN010 M24/M27 A3028 RMK SC5 SLP317

CYXE;2016-12-10 12:00;CYXE 101200Z 10004KT 15SM IC BKN010 M24/M27 A3028 RMK SC6 SLP317

CYXE;2016-12-10 12:29;CYXE 101229Z 10004KT 15SM IC SCT010 M24/M27 A3028 RMK SC3 SLP314

CYXE;2016-12-10 13:00;CYXE 101300Z 10005KT 15SM IC FEW010 M24/M27 A3026 RMK SC1 SLP311

CYXE;2016-12-10 14:00;CYXE 101400Z 11004KT 15SM IC SCT200 M24/M27 A3025 RMK CI3 SLP305

CYXE;2016-12-10 15:00;CYXE 101500Z 09005KT 15SM SCT055 M24/M27 A3021 RMK SC3 SLP292

CYXE;2016-12-10 16:00;CYXE 101600Z 10005KT 15SM BKN055 BKN200 M22/M25 A3019 RMK SC5CI1 SLP284

CYXE;2016-12-10 17:00;CYXE 101700Z 13007KT 15SM SCT200 M20/M23 A3017 RMK CI3 SLP276

CYXE;2016-12-10 18:00;CYXE 101800Z 12006KT 15SM SCT200 M19/M22 A3015 RMK CI3 SLP266

CYXE;2016-12-10 19:00;CYXE 101900Z 11009KT 15SM SCT200 M18/M21 A3011 RMK CI3 SLP253

CYXE;2016-12-10 20:00;CYXE 102000Z 11008KT 15SM BKN280 M17/M21 A3009 RMK CI6 SLP245

CYXE;2016-12-10 21:00;CYXE 102100Z 13009KT 15SM SCT280 M17/M21 A3008 RMK CI3 SLP241

CYXE;2016-12-10 22:00;CYXE 102200Z 11008KT 15SM SCT280 M17/M21 A3008 RMK CI3 SLP243

CYXE;2016-12-10 23:00;CYXE 102300Z 12009KT 15SM FEW015 SCT280 M18/M22 A3007 RMK CF1CI2 SLP241

CYXE;2016-12-11 00:00;CYXE 110000Z 13008KT 15SM FEW280 M19/M22 A3008 RMK CI2 SLP245

CYXE;2016-12-11 01:00;CYXE 110100Z 14010KT 15SM FEW280 M19/M23 A3009 RMK CI2 SLP247

CYXE;2016-12-11 02:00;CYXE 110200Z 13009KT 15SM SKC M20/M23 A3008 RMK SLP245

CYXE;2016-12-11 03:00;CYXE 110300Z 13011KT 15SM SKC M20/M23 A3007 RMK SLP241

CYXE;2016-12-11 04:00;CYXE 110400Z 12007KT 15SM SCT280 M21/M24 A3006 RMK CI3 SLP236

CYXE;2016-12-11 05:00;CYXE 110500Z 13007KT 15SM SCT140 M20/M24 A3005 RMK AC4 SLP231

CYXE;2016-12-11 06:00;CYXE 110600Z 17006KT 15SM BKN140 M21/M24 A3005 RMK AC6 SLP231

CYXE;2016-12-11 07:00;CYXE 110700Z 15005KT 15SM SCT140 M22/M25 A3003 RMK AC4 SLP225

CYXE;2016-12-11 08:00;CYXE 110800Z 18006KT 15SM SCT120 M22/M25 A3003 RMK AC4 SLP224

CYXE;2016-12-11 09:00;CYXE 110900Z 22002KT 15SM FEW060 SCT200 M22/M25 A3003 RMK SC2CI2 SLP224

CYXE;2016-12-11 10:00;CYXE 111000Z 18004KT 15SM OVC060 M21/M24 A3003 RMK SC8 SLP222

CYXE;2016-12-11 11:00;CYXE 111100Z 19006KT 15SM OVC058 M20/M23 A3001 RMK SC8 SLP218

CYXE;2016-12-11 12:00;CYXE 111200Z 18005KT 15SM OVC057 M19/M22 A2999 RMK SC8 SLP209

CYXE;2016-12-11 12:38;CYXE 111238Z 20008KT 12SM -SN OVC054 M19/M22 A2998 RMK SC8 SLP208

CYXE;2016-12-11 13:00;CYXE 111300Z 22006KT 3SM -SN OVC057 M19/M22 A2998 RMK SC8 SLP208

CYXE;2016-12-11 14:00;CYXE 111400Z 22005KT 10SM -SN OVC055 M18/M21 A2997 RMK SC8 SLP205

CYXE;2016-12-11 14:35;CYXE 111435Z 22006KT 4SM -SN BKN055 OVC089 M18/M21 A2996 RMK SC5AC3 SLP198

CYXE;2016-12-11 15:00;CYXE 111500Z 22006KT 4SM -SN SCT055 OVC080 M18/M20 A2996 RMK SC3AC5 SLP198

CYXE;2016-12-11 16:00;CYXE 111600Z 28009KT 4SM -SN OVC100 M17/M20 A2996 RMK SN2AC6 SLP198

CYXE;2016-12-11 17:00;CYXE 111700Z 30014KT 12SM -SN DRSN SCT016 OVC100 M17/M20 A2996 RMK SF3AC5 SLP197

CYXE;2016-12-11 17:48;CYXE 111748Z 29016KT 2SM -SN DRSN VV015 M17/M21 A2995 RMK SN8 SLP196

CYXE;2016-12-11 18:00;CYXE 111800Z 30015G20KT 1 1/2SM -SN DRSN VV015 M16/M20 A2995 RMK SN8 SLP195

CYXE;2016-12-11 19:00;CYXE 111900Z 30015KT 1 1/2SM -SN DRSN OVC021 M17/M21 A2994 RMK SN4SF4 SLP194

CYXE;2016-12-11 19:25;CYXE 111925Z 30016G21KT 3SM -SN DRSN OVC020 M17/M22 A2993 RMK SN4SF4 SLP191

CYXE;2016-12-11 19:48;CYXE 111948Z 30016KT 12SM -SN DRSN SCT020 BKN056 M17/M22 A2993 RMK SF3SC4 SLP189

CYXE;2016-12-11 20:00;CYXE 112000Z 30018KT 15SM -SN FEW020 BKN056 BKN190 M18/M22 A2993 RMK SF2SC3CI2 SLP189

CYXE;2016-12-11 20:16;CYXE 112016Z 31016G25KT 15SM FEW020 SCT056 BKN190 M18/M23 A2993 RMK CF1SC2CI4 SLP190

CYXE;2016-12-11 21:00;CYXE 112100Z 30018G25KT 15SM FEW020 FEW056 BKN180 M20/M26 A2994 RMK CF1SC1CI5 CF TR SLP196

CYXE;2016-12-11 22:00;CYXE 112200Z 30014KT 15SM FEW020 SCT180 M21/M26 A2993 RMK CF1CI3 SLP193

CYXE;2016-12-11 23:00;CYXE 112300Z 29015KT 15SM SCT140 M22/M27 A2994 RMK AC4 SLP194

CYXE;2016-12-12 00:00;CYXE 120000Z 30012G18KT 15SM SCT130 M22/M27 A2994 RMK AC3 SLP195

CYXE;2016-12-12 01:00;CYXE 120100Z 29012G18KT 15SM SKC M22/M27 A2994 RMK SLP194

CYXE;2016-12-12 02:00;CYXE 120200Z 28009KT 15SM FEW120 M22/M27 A2994 RMK AC1 SLP195

CYXE;2016-12-12 03:00;CYXE 120300Z 30013KT 15SM SKC M22/M26 A2993 RMK SLP191

CYXE;2016-12-12 04:00;CYXE 120400Z 29010G15KT 15SM SKC M22/M26 A2992 RMK SLP188

CYXE;2016-12-12 05:00;CYXE 120500Z 25008KT 15SM SKC M23/M27 A2992 RMK SLP186

CYXE;2016-12-12 06:00;CYXE 120600Z 25010KT 15SM SCT100 BKN200 M23/M26 A2991 RMK AC4CI3 SLP183

CYXE;2016-12-12 07:00;CYXE 120700Z 26011KT 15SM OVC060 M21/M25 A2990 RMK SC8 SLP179

CYXE;2016-12-12 07:10;CYXE 120710Z 26011KT 12SM -SN OVC060 M21/M25 A2990 RMK SC8 SLP178

CYXE;2016-12-12 08:00;CYXE 120800Z 27012KT 5SM -SN OVC044 M20/M24 A2989 RMK SC8 SLP175

CYXE;2016-12-12 09:00;CYXE 120900Z 26011KT 12SM -SN SCT030 OVC045 M20/M23 A2987 RMK SC4SC4 SLP170

CYXE;2016-12-12 10:00;CYXE 121000Z 26011KT 4SM -SN OVC020 M20/M23 A2987 RMK ST8 SLP169

CYXE;2016-12-12 10:48;CYXE 121048Z 26008KT 15SM SCT020 BKN040 OVC100 M20/M23 A2986 RMK ST3SC3AC2 SLP167

CYXE;2016-12-12 11:00;CYXE 121100Z 26008KT 15SM SCT040 BKN100 OVC200 M20/M23 A2986 RMK SC3AC3CI2 SLP168

CYXE;2016-12-12 11:42;CYXE 121142Z 26009KT 12SM -SN FEW020 OVC043 M20/M23 A2985 RMK SF2SC6 SLP164

CYXE;2016-12-12 12:00;CYXE 121200Z 26009KT 12SM -SN FEW020 BKN040 M20/M23 A2985 RMK SF2SC4 SLP165

CYXE;2016-12-12 13:00;CYXE 121300Z 25008G17KT 12SM FEW020 SCT060 M21/M24 A2984 RMK SC1SC2 SLP162

CYXE;2016-12-12 14:00;CYXE 121400Z 26011KT 15SM -SN SCT060 M20/M23 A2983 RMK SC3 SLP158

CYXE;2016-12-12 14:37;CYXE 121437Z 26011KT 15SM FEW012 M20/M23 A2983 RMK SC1 SLP157

CYXE;2016-12-12 15:00;CYXE 121500Z 27010KT 15SM FEW012 M20/M23 A2983 RMK SC1 SLP157

CYXE;2016-12-12 16:00;CYXE 121600Z 26010KT 15SM FEW012 M20/M23 A2985 RMK SC1 SLP165

CYXE;2016-12-12 17:00;CYXE 121700Z 28013KT 15SM FEW001 BKN040 M17/M21 A2986 RMK SC2SC3 SLP168

CYXE;2016-12-12 17:16;CYXE 121716Z 28014G20KT 8SM -SN BKN020 BKN040 M17/M21 A2986 RMK SC5SC2 SLP167

CYXE;2016-12-12 17:19;CYXE 121719Z 29014G20KT 3SM -SN DRSN BKN020 OVC040 M17/M21 A2986 RMK SN2SC5SC1 SLP168

CYXE;2016-12-12 17:47;CYXE 121747Z 29014G21KT 12SM DRSN BKN030 M17/M21 A2986 RMK SC5 SLP167

CYXE;2016-12-12 18:00;CYXE 121800Z 29017G22KT 12SM DRSN BKN028 M16/M20 A2986 RMK SC6 SLP167

CYXE;2016-12-12 18:11;CYXE 121811Z 31019G26KT 10SM -SN DRSN BKN028 M16/M20 A2986 RMK SC7 SLP164

CYXE;2016-12-12 18:37;CYXE 121837Z 31021G28KT 15SM DRSN BKN028 M16/M21 A2986 RMK SC5 SLP164

CYXE;2016-12-12 19:00;CYXE 121900Z 31025G31KT 15SM DRSN BKN029 M16/M23 A2986 RMK SC6 SLP163

CYXE;2016-12-12 20:00;CYXE 122000Z 34019G24KT 15SM DRSN BKN028 M16/M22 A2987 RMK SC5 SLP166

CYXE;2016-12-12 21:00;CYXE 122100Z 31019G27KT 15SM DRSN SCT032 M17/M24 A2988 RMK SC3 SLP173

CYXE;2016-12-12 22:00;CYXE 122200Z 30018G28KT 15SM DRSN FEW032 M18/M25 A2990 RMK CF2 SLP177

CYXE;2016-12-12 23:00;CYXE 122300Z 30017G23KT 15SM DRSN FEW025 M19/M25 A2992 RMK CF1 SLP187

CYXE;2016-12-13 00:00;CYXE 130000Z 29010KT 15SM SKC M20/M25 A2993 RMK SLP189

CYXE;2016-12-13 01:00;CYXE 130100Z 29010G17KT 15SM SKC M19/M24 A2993 RMK SLP190

CYXE;2016-12-13 02:00;CYXE 130200Z 29011KT 15SM SKC M19/M24 A2993 RMK SLP190

CYXE;2016-12-13 03:00;CYXE 130300Z 25009KT 15SM BKN190 M19/M23 A2992 RMK CI5 SLP187

CYXE;2016-12-13 04:00;CYXE 130400Z 25010KT 15SM FEW050 BKN190 M18/M22 A2990 RMK SC1CI5 SLP179

CYXE;2016-12-13 05:00;CYXE 130500Z 27011KT 15SM BKN060 BKN190 M17/M20 A2988 RMK SC5CI2 SLP170

CYXE;2016-12-13 06:00;CYXE 130600Z 27013KT 15SM -SN BKN060 OVC100 M16/M19 A2988 RMK SC6AC2 SLP168

CYXE;2016-12-13 06:05;CYXE 130605Z 28013KT 3SM -SN SCT010 OVC060 M15/M18 A2988 RMK SF3SC5 SLP167

CYXE;2016-12-13 06:16;CYXE 130616Z 28015KT 2 1/2SM -SN SCT008 OVC060 M15/M18 A2987 RMK SF4SC4 SLP165

CYXE;2016-12-13 06:53;CYXE 130653Z 27010KT 3SM -SN SCT011 OVC030 M15/M18 A2987 RMK SF3SC5 SLP164

CYXE;2016-12-13 07:00;CYXE 130700Z 28010KT 3SM -SN FEW011 OVC030 M15/M18 A2987 RMK SF1SC7 SLP164

CYXE;2016-12-13 07:13;CYXE 130713Z 29013KT 15SM BKN026 BKN110 M15/M18 A2987 RMK SF5AC2 SLP164

CYXE;2016-12-13 08:00;CYXE 130800Z 29012KT 15SM BKN025 OVC100 M15/M18 A2987 RMK SC5AC3 SLP163

CYXE;2016-12-13 09:00;CYXE 130900Z 30009KT 15SM FEW025 SCT080 M16/M20 A2987 RMK SC2AC2 SLP166

CYXE;2016-12-13 10:00;CYXE 131000Z 29008KT 15SM FEW050 M17/M20 A2987 RMK SC2 SLP166

CYXE;2016-12-13 11:00;CYXE 131100Z 29010KT 15SM BKN032 M16/M19 A2986 RMK SC7 SLP161

CYXE;2016-12-13 11:11;CYXE 131111Z 26008KT 12SM -SN BKN030 M16/M19 A2985 RMK SC7 SLP160

CYXE;2016-12-13 11:44;CYXE 131144Z 25008KT 15SM SCT030 M19/M21 A2985 RMK SC4 SLP160

CYXE;2016-12-13 12:00;CYXE 131200Z 26009KT 15SM FEW030 SCT100 M18/M20 A2984 RMK SC2AC2 SLP159

CYXE;2016-12-13 13:00;CYXE 131300Z 29013KT 12SM -SN SCT025 OVC045 M15/M19 A2984 RMK SC4SC4 SLP155

CYXE;2016-12-13 14:00;CYXE 131400Z 26009KT 12SM -SN VV040 M16/M18 A2982 RMK SN8 SLP148

CYXE;2016-12-13 14:16;CYXE 131416Z 30013G18KT 260V320 10SM -SN VV030 M15/M17 A2981 RMK SN8 WSHFT 1401 SLP144

CYXE;2016-12-13 14:28;CYXE 131428Z 29011G16KT 2 1/2SM -SN DRSN VV007 M14/M17 A2981 RMK SN8 WSHFT 1409 SLP143

CYXE;2016-12-13 14:41;CYXE 131441Z 27009KT 2SM -SN DRSN VV025 M15/M17 A2981 RMK SN8 SLP143

CYXE;2016-12-13 14:49;CYXE 131449Z 27010KT 4SM -SN DRSN VV027 M15/M17 A2981 RMK SN8 SLP143

CYXE;2016-12-13 15:00;CYXE 131500Z 28011KT 2SM -SN DRSN VV008 M15/M17 A2981 RMK SN8 SLP143

CYXE;2016-12-13 15:11;CYXE 131511Z 29013KT 3SM -SN DRSN OVC008 M14/M17 A2980 RMK SN6SF2 SLP142

CYXE;2016-12-13 15:19;CYXE 131519Z 30013KT 6SM -SN DRSN SCT008 BKN200 M14/M17 A2980 RMK SN1SF2CI3 SLP142

CYXE;2016-12-13 16:00;CYXE 131600Z 31014G22KT 12SM -SN DRSN FEW008 SCT028 BKN200 M14/M18 A2982 RMK SF1SC3CI2 SLP146

CYXE;2016-12-13 16:45;CYXE 131645Z 32014G21KT 15SM DRSN FEW028 SCT080 BKN200 M15/M20 A2983 RMK SC1AC2CI2 SLP151

CYXE;2016-12-13 17:00;CYXE 131700Z 32017G26KT 15SM DRSN FEW028 SCT080 BKN200 M14/M20 A2983 RMK SC1AC2CI3 SLP151

CYXE;2016-12-13 18:00;CYXE 131800Z CCA 33020G26KT 15SM DRSN FEW028 SCT200 M15/M22 A2986 RMK CF2CI1 SLP159

CYXE;2016-12-13 19:00;CYXE 131900Z 32023G32KT 15SM DRSN SCT037 SCT080 M16/M24 A2988 RMK SC3AC1 SLP166

CYXE;2016-12-13 20:00;CYXE 132000Z 32019G32KT 15SM DRSN BKN042 M15/M23 A2989 RMK SC6 SLP168

CYXE;2016-12-13 21:00;CYXE 132100Z 32025G35KT 15SM DRSN SCT040 M15/M24 A2991 RMK SC4 SLP177

CYXE;2016-12-13 22:00;CYXE 132200Z 32021G32KT 15SM DRSN BKN030 M16/M24 A2994 RMK SC5 SLP189

CYXE;2016-12-13 23:00;CYXE 132300Z 32018G24KT 15SM DRSN FEW030 M17/M24 A2998 RMK SC2 SLP203

CYXE;2016-12-14 00:00;CYXE 140000Z 32010KT 15SM FEW030 M19/M24 A3001 RMK SC1 SLP216

CYXE;2016-12-14 01:00;CYXE 140100Z 33008KT 15SM SKC M20/M25 A3004 RMK SLP224

CYXE;2016-12-14 02:00;CYXE 140200Z 32008KT 15SM SKC M21/M25 A3005 RMK SLP230

CYXE;2016-12-14 03:00;CYXE 140300Z 32010KT 15SM SKC M21/M26 A3007 RMK SLP237

CYXE;2016-12-14 04:00;CYXE 140400Z 31010KT 15SM SKC M21/M26 A3010 RMK SLP245

CYXE;2016-12-14 05:00;CYXE 140500Z 31012KT 15SM SKC M21/M26 A3011 RMK SLP251

CYXE;2016-12-14 06:00;CYXE 140600Z 31010G16KT 15SM SCT200 M22/M27 A3014 RMK CI3 SLP261

CYXE;2016-12-14 07:00;CYXE 140700Z 30008KT 15SM SCT200 M23/M27 A3016 RMK CI4 SLP269

CYXE;2016-12-14 08:00;CYXE 140800Z 30008KT 15SM SCT200 M23/M27 A3018 RMK CI3 SLP275

CYXE;2016-12-14 09:00;CYXE 140900Z 29009KT 15SM SKC M23/M27 A3019 RMK SLP278

CYXE;2016-12-14 10:00;CYXE 141000Z 29008KT 15SM SKC M23/M27 A3020 RMK SLP282

CYXE;2016-12-14 11:00;CYXE 141100Z 27008KT 15SM SKC M25/M28 A3021 RMK SLP287

CYXE;2016-12-14 12:00;CYXE 141200Z 29008KT 15SM SKC M24/M28 A3021 RMK SLP290

CYXE;2016-12-14 13:00;CYXE 141300Z 28009KT 15SM FEW035 M25/M28 A3023 RMK SC1 SLP297

CYXE;2016-12-14 14:00;CYXE 141400Z 27005KT 15SM SCT036 M25/M29 A3023 RMK SC4 SLP299

CYXE;2016-12-14 15:00;CYXE 141500Z 27006KT 15SM FEW036 SCT220 M24/M27 A3023 RMK SC1CC2 SLP298

CYXE;2016-12-14 16:00;CYXE 141600Z 29009KT 15SM FEW032 SCT220 M21/M24 A3024 RMK SC1CC2 SLP299

CYXE;2016-12-14 17:00;CYXE 141700Z 32011KT 15SM FEW032 FEW220 M19/M23 A3026 RMK SC1CI1 SLP304

CYXE;2016-12-14 18:00;CYXE 141800Z 33012KT 15SM BKN029 M18/M23 A3027 RMK SC7 SLP306

CYXE;2016-12-14 19:00;CYXE 141900Z 32010KT 15SM OVC029 M18/M23 A3027 RMK SC8 SLP307

CYXE;2016-12-14 20:00;CYXE 142000Z 32008KT 15SM OVC025 M17/M23 A3027 RMK SC8 SLP306

CYXE;2016-12-14 21:00;CYXE 142100Z 28007KT 15SM BKN025 M17/M23 A3026 RMK SC6 SLP303

CYXE;2016-12-14 22:00;CYXE 142200Z 26004KT 15SM SCT030 M17/M22 A3024 RMK SC3 SLP299

CYXE;2016-12-14 23:00;CYXE 142300Z 23003KT 15SM BKN250 M18/M22 A3024 RMK CI7 SLP300

CYXE;2016-12-15 00:00;CYXE 150000Z 22004KT 15SM BKN250 M18/M22 A3023 RMK CI6 SLP296

CYXE;2016-12-15 01:00;CYXE 150100Z 22005KT 15SM BKN250 M19/M23 A3022 RMK CI6 SLP293

CYXE;2016-12-15 02:00;CYXE 150200Z 23005KT 15SM BKN250 M20/M23 A3021 RMK CI6 SLP291

CYXE;2016-12-15 03:00;CYXE 150300Z 23007KT 15SM SCT250 M21/M24 A3019 RMK CI4 SLP284

CYXE;2016-12-15 04:00;CYXE 150400Z 23005KT 15SM FEW250 M21/M23 A3018 RMK CI2 SLP276

CYXE;2016-12-15 05:00;CYXE 150500Z 21005KT 15SM SKC M21/M23 A3017 RMK SLP273

CYXE;2016-12-15 06:00;CYXE 150600Z 22005KT 15SM SCT078 M21/M24 A3016 RMK AC3 SLP269

CYXE;2016-12-15 07:00;CYXE 150700Z 25004KT 15SM BKN077 M20/M23 A3015 RMK AC7 SLP264

CYXE;2016-12-15 08:00;CYXE 150800Z 23006KT 15SM FEW077 M22/M24 A3013 RMK AC1 SLP258

CYXE;2016-12-15 09:00;CYXE 150900Z 22004KT 15SM SKC M22/M25 A3011 RMK SLP254

CYXE;2016-12-15 10:00;CYXE 151000Z 23004KT 15SM SCT200 M23/M26 A3011 RMK CI3 SLP254

CYXE;2016-12-15 11:00;CYXE 151100Z 24005KT 15SM FEW078 SCT200 M23/M25 A3011 RMK AC1CI2 SLP254

CYXE;2016-12-15 12:00;CYXE 151200Z 28005KT 15SM FEW030 BKN200 M23/M26 A3011 RMK SC1CI5 SLP255

CYXE;2016-12-15 12:53;CYXE 151253Z 31006KT 15SM IC SCT025 BKN200 M23/M25 A3011 RMK SC4CI2 SLP253

CYXE;2016-12-15 13:00;CYXE 151300Z 31005KT 15SM IC SCT025 BKN200 M23/M25 A3011 RMK SC3CI3 SLP255

CYXE;2016-12-15 14:00;CYXE 151400Z 32006KT 15SM IC SCT040 M23/M26 A3010 RMK SC4 SLP253

CYXE;2016-12-15 14:50;CYXE 151450Z 32007KT 15SM -SN OVC018 M20/M23 A3010 RMK SC8 SLP250

CYXE;2016-12-15 15:00;CYXE 151500Z 32007KT 15SM -SN OVC018 M20/M23 A3011 RMK SC8 SLP253

CYXE;2016-12-15 16:00;CYXE 151600Z 35007KT 15SM -SN BKN020 M18/M21 A3013 RMK SC7 SLP258

CYXE;2016-12-15 16:11;CYXE 151611Z 36008KT 15SM BKN020 M18/M21 A3013 RMK SC6 SLP258

CYXE;2016-12-15 17:00;CYXE 151700Z 36009KT 15SM FEW020 BKN240 M17/M21 A3013 RMK SC2CI4 SLP258

CYXE;2016-12-15 18:00;CYXE 151800Z 36009KT 15SM FEW020 BKN240 M17/M21 A3014 RMK SC1CI5 SLP259

CYXE;2016-12-15 19:00;CYXE 151900Z 35008KT 15SM FEW020 BKN250 M17/M22 A3012 RMK SC1CI6 SLP254

CYXE;2016-12-15 20:00;CYXE 152000Z 36007KT 15SM FEW020 BKN250 M17/M22 A3011 RMK SC1CI6 SLP253

CYXE;2016-12-15 21:00;CYXE 152100Z 35007KT 15SM FEW020 BKN250 M17/M22 A3012 RMK SC1CI4 SLP254

CYXE;2016-12-15 22:00;CYXE 152200Z 33008KT 15SM FEW025 FEW100 SCT250 M17/M22 A3011 RMK SF1AC1CI1 SLP252

CYXE;2016-12-15 23:00;CYXE 152300Z 30007KT 15SM FEW100 FEW250 M20/M24 A3012 RMK AC1CI1 SLP258

CYXE;2016-12-16 00:00;CYXE 160000Z 29006KT 15SM FEW250 M22/M25 A3012 RMK CI1 SLP261

CYXE;2016-12-16 01:00;CYXE 160100Z 26008KT 15SM FEW160 M23/M26 A3013 RMK AC1 SLP262

CYXE;2016-12-16 02:00;CYXE 160200Z 28006KT 15SM BKN090 M20/M23 A3013 RMK AC6 SLP262

CYXE;2016-12-16 03:00;CYXE 160300Z 30007KT 15SM SCT030 SCT100 BKN140 M21/M24 A3014 RMK SC3AC1AC1 SLP262

CYXE;2016-12-16 04:00;CYXE 160400Z 30009KT 15SM FEW100 M22/M25 A3014 RMK AC2 SLP262

CYXE;2016-12-16 05:00;CYXE 160500Z 30008KT 15SM BKN100 M22/M25 A3014 RMK AC5 SLP262

CYXE;2016-12-16 06:00;CYXE 160600Z 30007KT 15SM SCT029 OVC100 M23/M26 A3014 RMK SC3AC5 SLP261

CYXE;2016-12-16 07:00;CYXE 160700Z 28007KT 15SM SCT030 BKN100 M23/M25 A3014 RMK SC4AC3 SLP261

CYXE;2016-12-16 08:00;CYXE 160800Z 29007KT 15SM OVC030 M24/M26 A3012 RMK SC8 SLP257

CYXE;2016-12-16 08:27;CYXE 160827Z 30006KT 15SM -SN BKN030 M24/M27 A3012 RMK SC7 SLP255

CYXE;2016-12-16 09:00;CYXE 160900Z 31007KT 15SM -SN BKN030 M24/M27 A3012 RMK SC6 SLP255

CYXE;2016-12-16 09:31;CYXE 160931Z 30008KT 15SM SCT030 M26/M29 A3012 RMK SC4 SLP258

CYXE;2016-12-16 10:00;CYXE 161000Z 29006KT 15SM BKN030 M26/M29 A3013 RMK SC5 SLP260

CYXE;2016-12-16 11:00;CYXE 161100Z 30008KT 15SM BKN030 M24/M27 A3013 RMK SC6 SLP262

CYXE;2016-12-16 11:12;CYXE 161112Z 31009KT 15SM -SN OVC030 M24/M27 A3013 RMK SC8 SLP261

CYXE;2016-12-16 12:00;CYXE 161200Z 32008KT 15SM -SN OVC031 M24/M27 A3012 RMK SC8 SLP260

CYXE;2016-12-16 13:00;CYXE 161300Z 31007KT 15SM -SN BKN030 M25/M28 A3011 RMK SC6 SLP260

CYXE;2016-12-16 13:13;CYXE 161313Z 30006KT 15SM IC FEW030 M26/M29 A3011 RMK SC2 SLP259

CYXE;2016-12-16 14:00;CYXE 161400Z 31007KT 15SM IC SCT030 M26/M30 A3011 RMK SC3 SLP257

CYXE;2016-12-16 15:00;CYXE 161500Z 32008KT 15SM IC SCT030 M27/M30 A3013 RMK SC4 SLP264

CYXE;2016-12-16 16:00;CYXE 161600Z 29005KT 15SM IC SCT030 M26/M30 A3013 RMK SC3 SLP267

CYXE;2016-12-16 17:00;CYXE 161700Z 30008KT 15SM IC SCT030 M25/M28 A3014 RMK SC3 SLP266

CYXE;2016-12-16 18:00;CYXE 161800Z 31010KT 15SM IC FEW030 M24/M27 A3014 RMK SC1 SLP267

CYXE;2016-12-16 19:00;CYXE 161900Z 32010G16KT 15SM IC FEW020 M23/M27 A3013 RMK SC1 SLP263

CYXE;2016-12-16 20:00;CYXE 162000Z 30011KT 15SM IC SCT020 M23/M28 A3014 RMK SC3 SLP266

CYXE;2016-12-16 21:00;CYXE 162100Z 32014G21KT 15SM IC FEW020 M23/M28 A3013 RMK SC1 SLP263

CYXE;2016-12-16 22:00;CYXE 162200Z 30010G15KT 15SM FEW020 FEW240 M23/M28 A3014 RMK SC1CI1 SLP269

CYXE;2016-12-16 23:00;CYXE 162300Z 31008G15KT 15SM SKC M25/M29 A3015 RMK SLP274

CYXE;2016-12-17 00:00;CYXE 170000Z 31007KT 15SM SKC M27/M30 A3017 RMK SLP280

CYXE;2016-12-17 01:00;CYXE 170100Z 29008KT 15SM SKC M28/M31 A3017 RMK SLP282

CYXE;2016-12-17 02:00;CYXE 170200Z 31008KT 15SM SKC M28/M31 A3016 RMK SLP282

CYXE;2016-12-17 03:00;CYXE 170300Z 31007KT 15SM SKC M28/M31 A3017 RMK SLP285

CYXE;2016-12-17 04:00;CYXE 170400Z 28003KT 15SM SKC M29/M32 A3018 RMK SLP286

CYXE;2016-12-17 05:00;CYXE 170500Z 27005KT 15SM SKC M29/M33 A3018 RMK SLP285

CYXE;2016-12-17 06:00;CYXE 170600Z 23004KT 15SM SKC M30/M33 A3017 RMK SLP284

CYXE;2016-12-17 07:00;CYXE 170700Z 24007KT 15SM SKC M30/M33 A3018 RMK SLP285

CYXE;2016-12-17 08:00;CYXE 170800Z 26007KT 15SM SKC M31/M34 A3016 RMK SLP280

CYXE;2016-12-17 09:00;CYXE 170900Z 23006KT 15SM SKC M31/M34 A3015 RMK SLP276

CYXE;2016-12-17 10:00;CYXE 171000Z 18004KT 15SM SKC M30/M33 A3015 RMK SLP275

CYXE;2016-12-17 11:00;CYXE 171100Z 17006KT 15SM SKC M31/M34 A3013 RMK SLP270

CYXE;2016-12-17 12:00;CYXE 171200Z 19005KT 15SM SKC M31/M34 A3011 RMK SLP266

CYXE;2016-12-17 12:14;CYXE 171214Z 18005KT 15SM FEW002 M31/M34 A3011 RMK FU1 SLP265

CYXE;2016-12-17 13:00;CYXE 171300Z 16006KT 15SM FEW002 M31/M34 A3010 RMK FU1 SLP263

CYXE;2016-12-17 14:00;CYXE 171400Z 20005KT 15SM SKC M30/M34 A3009 RMK SLP260

CYXE;2016-12-17 15:00;CYXE 171500Z 20003KT 15SM SKC M30/M33 A3008 RMK SLP254

CYXE;2016-12-17 16:00;CYXE 171600Z 19005KT 15SM SKC M28/M32 A3008 RMK SLP256

CYXE;2016-12-17 17:00;CYXE 171700Z 19006KT 15SM FEW040 M26/M29 A3008 RMK SC1 SLP255

CYXE;2016-12-17 18:00;CYXE 171800Z 21006KT 15SM FEW040 M24/M27 A3007 RMK SC1 SLP250

CYXE;2016-12-17 19:00;CYXE 171900Z 20005KT 15SM SKC M23/M26 A3005 RMK SLP241

CYXE;2016-12-17 20:00;CYXE 172000Z 26002KT 15SM SKC M22/M26 A3004 RMK SLP236

CYXE;2016-12-17 21:00;CYXE 172100Z 24004KT 210V280 15SM SKC M21/M25 A3002 RMK SLP231

CYXE;2016-12-17 22:00;CYXE 172200Z 28004KT 15SM SKC M21/M26 A3002 RMK SLP229

CYXE;2016-12-17 23:00;CYXE 172300Z 28004KT 15SM SKC M23/M27 A3002 RMK SLP231

CYXE;2016-12-18 00:00;CYXE 180000Z 27004KT 15SM SKC M24/M28 A3002 RMK SLP231

CYXE;2016-12-18 01:00;CYXE 180100Z 30004KT 15SM SKC M25/M28 A3001 RMK SLP229

CYXE;2016-12-18 02:00;CYXE 180200Z 30007KT 15SM SKC M28/M31 A3002 RMK SLP234

CYXE;2016-12-18 03:00;CYXE 180300Z 28004KT 15SM SKC M28/M32 A3001 RMK SLP232

CYXE;2016-12-18 04:00;CYXE 180400Z 26004KT 15SM SKC M27/M30 A3000 RMK SLP227

CYXE;2016-12-18 05:00;CYXE 180500Z 24004KT 15SM SKC M28/M31 A3000 RMK SLP223

CYXE;2016-12-18 06:00;CYXE 180600Z 23005KT 15SM SKC M28/M31 A2999 RMK SLP220

CYXE;2016-12-18 07:00;CYXE 180700Z 20004KT 15SM FEW230 M27/M30 A2999 RMK CI2 SLP219

CYXE;2016-12-18 08:00;CYXE 180800Z 22004KT 15SM FEW230 M28/M31 A2997 RMK CI1 SLP211

CYXE;2016-12-18 09:00;CYXE 180900Z 19007KT 15SM SCT230 M28/M31 A2996 RMK CI4 SLP206

CYXE;2016-12-18 10:00;CYXE 181000Z 18005KT 15SM SKC M27/M31 A2994 RMK SLP200

CYXE;2016-12-18 11:00;CYXE 181100Z 20008KT 15SM SKC M26/M30 A2992 RMK SLP193

CYXE;2016-12-18 12:00;CYXE 181200Z 20009KT 15SM FEW100 M25/M29 A2989 RMK AC2 PRESFR SLP183

CYXE;2016-12-18 12:47;CYXE 181247Z 18007KT 15SM -SN BKN055 M24/M27 A2986 RMK SC6 SLP173

CYXE;2016-12-18 13:00;CYXE 181300Z 18008KT 15SM -SN OVC055 M23/M27 A2985 RMK SC8 SLP170

CYXE;2016-12-18 14:00;CYXE 181400Z 19009KT 15SM -SN FEW055 OVC078 M22/M25 A2982 RMK SC2AC6 SLP160

CYXE;2016-12-18 15:00;CYXE 181500Z 20010KT 15SM -SN BKN040 OVC070 M20/M23 A2980 RMK SC6AC2 SLP152

CYXE;2016-12-18 16:00;CYXE 181600Z 20010KT 15SM -SN OVC040 M18/M20 A2978 RMK SC8 SLP142

CYXE;2016-12-18 16:37;CYXE 181637Z 20009KT 15SM FEW040 OVC065 M16/M19 A2977 RMK SC2SC6 SLP138

CYXE;2016-12-18 17:00;CYXE 181700Z 20008KT 15SM FEW040 OVC060 M15/M18 A2976 RMK SC1SC7 SLP134

CYXE;2016-12-18 18:00;CYXE 181800Z 22011KT 15SM BKN080 OVC250 M12/M16 A2975 RMK AC5CI3 SLP128

CYXE;2016-12-18 18:32;CYXE 181832Z 22009KT 15SM IC SCT080 OVC250 M11/M15 A2972 RMK AC3CI5 PRESFR SLP118

CYXE;2016-12-18 19:00;CYXE 181900Z 24013KT 12SM IC BKN250 M09/M12 A2971 RMK CI6 SLP112

CYXE;2016-12-18 19:28;CYXE 181928Z 24013KT 15SM BKN140 BKN250 M08/M11 A2970 RMK AC5CI2 SLP107

CYXE;2016-12-18 20:00;CYXE 182000Z 23012KT 15SM BKN100 BKN250 M08/M10 A2968 RMK AC5CI2 SLP102

CYXE;2016-12-18 20:43;CYXE 182043Z 23013KT 15SM -SN BKN015 OVC100 M06/M09 A2966 RMK SC6AC2 SLP095

CYXE;2016-12-18 21:00;CYXE 182100Z 23013KT 15SM -SN BKN015 OVC100 M07/M09 A2967 RMK SC6AC2 SLP096

CYXE;2016-12-18 22:00;CYXE 182200Z 23009KT 15SM -SN SCT016 BKN080 OVC150 M07/M09 A2965 RMK SC3AC2AC3 SLP090

CYXE;2016-12-18 23:00;CYXE 182300Z 23011KT 15SM -SN FEW016 BKN048 OVC080 M04/M06 A2963 RMK SC1SC5AC2 SLP081

CYXE;2016-12-19 00:00;CYXE 190000Z 23011KT 15SM -SN SCT048 BKN080 OVC200 M05/M08 A2962 RMK SC3AC2CI3 SLP076

CYXE;2016-12-19 01:00;CYXE 190100Z 24012KT 15SM -SN OVC045 M04/M08 A2961 RMK SC8 SLP071

CYXE;2016-12-19 02:00;CYXE 190200Z 24010KT 15SM -SN OVC058 M03/M07 A2959 RMK SC8 SLP063

CYXE;2016-12-19 03:00;CYXE 190300Z 25010KT 15SM -SN OVC040 M01/M04 A2958 RMK SC8 SLP058

CYXE;2016-12-19 04:00;CYXE 190400Z 25010KT 15SM -SN OVC045 M02/M04 A2959 RMK SC8 SLP060

CYXE;2016-12-19 05:00;CYXE 190500Z 27012KT 15SM BKN050 M01/M05 A2959 RMK SC5 SLP058

CYXE;2016-12-19 06:00;CYXE 190600Z 27011KT 15SM BKN060 M01/M06 A2960 RMK SC6 SLP058

CYXE;2016-12-19 07:00;CYXE 190700Z 25010KT 15SM FEW060 BKN200 M05/M08 A2961 RMK SC2CI4 SLP063

CYXE;2016-12-19 08:00;CYXE 190800Z 25010KT 15SM FEW160 BKN200 M05/M07 A2964 RMK AC2CI4 SLP071

CYXE;2016-12-19 09:00;CYXE 190900Z 25009KT 15SM FEW100 BKN200 M06/M09 A2964 RMK AC2CI3 SLP072

CYXE;2016-12-19 10:00;CYXE 191000Z 25009KT 15SM SCT075 BKN120 M05/M09 A2964 RMK AC4AC3 SLP071

CYXE;2016-12-19 11:00;CYXE 191100Z 23009KT 15SM OVC073 M05/M08 A2963 RMK AC8 SLP067

CYXE;2016-12-19 12:00;CYXE 191200Z 23007KT 15SM BKN060 OVC110 M04/M08 A2961 RMK SC5AC3 SLP061

CYXE;2016-12-19 13:00;CYXE 191300Z 20005KT 15SM SCT057 OVC090 M04/M08 A2957 RMK SC4AC4 SLP045

CYXE;2016-12-19 14:00;CYXE 191400Z 21008KT 15SM SCT090 OVC150 M04/M08 A2955 RMK AC4AC4 SLP036

CYXE;2016-12-19 15:00;CYXE 191500Z 22010KT 15SM SCT110 OVC160 M04/M08 A2952 RMK AC4AC4 SLP027

CYXE;2016-12-19 16:00;CYXE 191600Z 21010KT 15SM BKN110 OVC160 M03/M07 A2949 RMK AC6AC2 SLP016

CYXE;2016-12-19 17:00;CYXE 191700Z 22009KT 15SM OVC100 M03/M07 A2947 RMK AC8 SLP007

CYXE;2016-12-19 18:00;CYXE 191800Z 24011KT 15SM BKN100 OVC140 M03/M07 A2944 RMK AC6AC2 SLP998

CYXE;2016-12-19 19:00;CYXE 191900Z 24010KT 15SM BKN075 OVC140 M02/M06 A2941 RMK AC6AC2 SLP990

CYXE;2016-12-19 20:00;CYXE 192000Z 24010KT 15SM BKN035 OVC080 M01/M06 A2939 RMK SC5AC3 SLP982

CYXE;2016-12-19 21:00;CYXE 192100Z 23010KT 15SM SCT040 BKN100 OVC240 M00/M05 A2935 RMK SC3AC3CI2 SLP970

CYXE;2016-12-19 22:00;CYXE 192200Z 24012KT 15SM FEW040 FEW065 BKN090 BKN220 01/M05 A2936 RMK SC1SC1AC3CI2 SLP971

CYXE;2016-12-19 23:00;CYXE 192300Z 24011KT 15SM OVC140 M01/M06 A2938 RMK AC8 SLP977

CYXE;2016-12-20 00:00;CYXE 200000Z 25010KT 15SM OVC100 M01/M06 A2939 RMK AC8 SLP981

CYXE;2016-12-20 01:00;CYXE 200100Z 25012KT 15SM SCT210 M02/M07 A2940 RMK CI3 SLP985

CYXE;2016-12-20 02:00;CYXE 200200Z 26012KT 15SM SKC M02/M08 A2943 RMK SLP994

CYXE;2016-12-20 03:00;CYXE 200300Z 28018KT 15SM FEW058 BKN180 00/M08 A2945 RMK SC2AC3 SLP002

CYXE;2016-12-20 04:00;CYXE 200400Z 29018G25KT 15SM FEW210 M01/M08 A2949 RMK CI2 SLP015

CYXE;2016-12-20 05:00;CYXE 200500Z 29020G27KT 15SM FEW040 SCT210 M00/M07 A2953 RMK SC1CI2 SLP028

CYXE;2016-12-20 06:00;CYXE 200600Z 28017KT 15SM SCT200 M02/M08 A2956 RMK CI3 SLP038

CYXE;2016-12-20 07:00;CYXE 200700Z 28015G20KT 15SM SCT200 M02/M09 A2959 RMK CI3 SLP048

CYXE;2016-12-20 08:00;CYXE 200800Z 28012KT 15SM SCT200 M04/M09 A2961 RMK CI3 SLP055

CYXE;2016-12-20 09:00;CYXE 200900Z 28012G18KT 15SM SCT200 M03/M10 A2964 RMK CI3 SLP065

CYXE;2016-12-20 10:00;CYXE 201000Z 28011KT 15SM SKC M04/M10 A2967 RMK SLP076

CYXE;2016-12-20 11:00;CYXE 201100Z 24011KT 15SM SKC M09/M12 A2968 RMK SLP085

CYXE;2016-12-20 12:00;CYXE 201200Z 23011KT 15SM SKC M08/M11 A2968 RMK SLP084

CYXE;2016-12-20 13:00;CYXE 201300Z 25011KT 15SM SKC M08/M10 A2970 RMK SLP091

CYXE;2016-12-20 14:00;CYXE 201400Z 26008KT 15SM SKC M08/M10 A2970 RMK SLP091

CYXE;2016-12-20 15:00;CYXE 201500Z 22011KT 15SM SKC M07/M10 A2972 RMK SLP096

CYXE;2016-12-20 16:00;CYXE 201600Z 23009KT 15SM FEW280 M09/M11 A2972 RMK CI1 SLP096

CYXE;2016-12-20 17:00;CYXE 201700Z 23011KT 15SM FEW280 M06/M10 A2972 RMK CI1 SLP096

CYXE;2016-12-20 18:00;CYXE 201800Z 22009KT 15SM FEW280 M04/M10 A2971 RMK CI1 SLP092

CYXE;2016-12-20 19:00;CYXE 201900Z 22010KT 15SM FEW280 M02/M10 A2968 RMK CI1 SLP080

CYXE;2016-12-20 20:00;CYXE 202000Z 20009G16KT 15SM FEW280 M01/M10 A2965 RMK CI1 SLP072

CYXE;2016-12-20 21:00;CYXE 202100Z 22011KT 15SM FEW200 M01/M10 A2964 RMK CI1 SLP067

CYXE;2016-12-20 22:00;CYXE 202200Z 19009KT 15SM FEW100 FEW200 M01/M10 A2962 RMK AC1CI1 AC TR SLP062

CYXE;2016-12-20 23:00;CYXE 202300Z 18007KT 15SM FEW100 M05/M11 A2959 RMK AC1 SLP054

CYXE;2016-12-21 00:00;CYXE 210000Z 14006KT 15SM SCT180 M05/M11 A2956 RMK AC3 SLP046

CYXE;2016-12-21 01:00;CYXE 210100Z 14003KT 15SM BKN170 M05/M10 A2956 RMK AC6 SLP046

CYXE;2016-12-21 02:00;CYXE 210200Z 08006KT 15SM BKN180 M08/M11 A2955 RMK AC7 SLP044

CYXE;2016-12-21 03:00;CYXE 210300Z 06006KT 15SM BKN160 M09/M12 A2956 RMK AC6 SLP046

CYXE;2016-12-21 04:00;CYXE 210400Z 04004KT 15SM BKN200 M11/M13 A2957 RMK CI5 SLP053

CYXE;2016-12-21 05:00;CYXE 210500Z VRB02KT 15SM BKN220 M11/M13 A2960 RMK CI6 SLP060

CYXE;2016-12-21 06:00;CYXE 210600Z 32006KT 15SM FEW200 M13/M15 A2965 RMK CI2 PRESRR SLP077

CYXE;2016-12-21 07:00;CYXE 210700Z 29006KT 15SM FEW200 M14/M16 A2968 RMK CI2 SLP089

CYXE;2016-12-21 08:00;CYXE 210800Z 31011KT 15SM SKC M11/M13 A2972 RMK SLP100

CYXE;2016-12-21 09:00;CYXE 210900Z 29006KT 15SM SKC M11/M14 A2978 RMK PRESRR SLP119

CYXE;2016-12-21 10:00;CYXE 211000Z 29007KT 15SM SKC M11/M14 A2981 RMK SLP130

CYXE;2016-12-21 11:00;CYXE 211100Z 28006KT 15SM SKC M10/M14 A2983 RMK SLP137

CYXE;2016-12-21 12:00;CYXE 211200Z 25009KT 15SM SKC M14/M16 A2986 RMK SLP151

CYXE;2016-12-21 13:00;CYXE 211300Z 26010KT 15SM SKC M12/M15 A2986 RMK SLP150

CYXE;2016-12-21 14:00;CYXE 211400Z 23010KT 15SM FEW200 M12/M15 A2988 RMK CI2 PRESRR SLP161

CYXE;2016-12-21 15:00;CYXE 211500Z 24011KT 15SM FEW200 M11/M13 A2989 RMK CI2 SLP164

CYXE;2016-12-21 16:00;CYXE 211600Z 24011KT 15SM FEW200 M09/M12 A2992 RMK CI1 SLP171

CYXE;2016-12-21 17:00;CYXE 211700Z 24011KT 15SM SCT200 M06/M09 A2992 RMK CI3 SLP172

CYXE;2016-12-21 18:00;CYXE 211800Z 24013KT 15SM BKN210 M04/M09 A2992 RMK CI7 SLP172

CYXE;2016-12-21 19:00;CYXE 211900Z 25011KT 15SM BKN210 M01/M07 A2990 RMK CI7 SLP162

CYXE;2016-12-21 20:00;CYXE 212000Z 22009KT 15SM FEW080 BKN210 00/M06 A2989 RMK AC1CI6 SLP158

CYXE;2016-12-21 21:00;CYXE 212100Z 22010KT 15SM FEW080 BKN220 M01/M06 A2989 RMK AC2CI5 SLP157

CYXE;2016-12-21 22:00;CYXE 212200Z 22008KT 15SM SCT100 BKN220 M01/M07 A2987 RMK AC4CI3 SLP151

CYXE;2016-12-21 23:00;CYXE 212300Z 24012KT 15SM SCT160 OVC220 M00/M06 A2987 RMK AC4CS4 SLP148

CYXE;2016-12-22 00:00;CYXE 220000Z 23010KT 15SM BKN180 M02/M07 A2985 RMK AC7 SLP145

CYXE;2016-12-22 01:00;CYXE 220100Z 23012KT 15SM SCT240 M03/M08 A2985 RMK CI3 SLP146

CYXE;2016-12-22 02:00;CYXE 220200Z 23010KT 15SM SKC M05/M09 A2985 RMK SLP146

CYXE;2016-12-22 03:00;CYXE 220300Z 22008KT 15SM SKC M07/M10 A2983 RMK SLP140

CYXE;2016-12-22 04:00;CYXE 220400Z 23009KT 15SM FEW200 M05/M09 A2981 RMK CI2 SLP132

CYXE;2016-12-22 05:00;CYXE 220500Z 22008KT 15SM SCT200 M07/M09 A2980 RMK CI3 SLP128

CYXE;2016-12-22 06:00;CYXE 220600Z 23006KT 15SM SKC M09/M11 A2981 RMK SLP130

CYXE;2016-12-22 07:00;CYXE 220700Z 22009KT 15SM SKC M07/M10 A2980 RMK SLP123

CYXE;2016-12-22 08:00;CYXE 220800Z 22008KT 15SM SKC M08/M11 A2979 RMK SLP120

CYXE;2016-12-22 09:00;CYXE 220900Z 22006KT 15SM SKC M09/M12 A2978 RMK SLP120

CYXE;2016-12-22 10:00;CYXE 221000Z 23008KT 15SM SKC M09/M11 A2978 RMK SLP117

CYXE;2016-12-22 11:00;CYXE 221100Z 22009KT 15SM SKC M10/M12 A2976 RMK SLP112

CYXE;2016-12-22 12:00;CYXE 221200Z 21006KT 15SM SCT200 M08/M11 A2975 RMK CI4 SLP108

CYXE;2016-12-22 13:00;CYXE 221300Z 21009KT 15SM BKN240 M07/M10 A2972 RMK CI6 SLP099

CYXE;2016-12-22 14:00;CYXE 221400Z 21008KT 15SM BKN250 M08/M11 A2971 RMK CI7 SLP096

CYXE;2016-12-22 15:00;CYXE 221500Z 20007KT 15SM BKN250 M07/M11 A2969 RMK CI7 SLP092

CYXE;2016-12-22 16:00;CYXE 221600Z 20008KT 15SM BKN250 M07/M10 A2968 RMK CI6 SLP086

CYXE;2016-12-22 17:00;CYXE 221700Z 20008KT 15SM BKN250 M05/M09 A2967 RMK CI7 SLP083

CYXE;2016-12-22 18:00;CYXE 221800Z 20007KT 15SM BKN250 M03/M08 A2967 RMK CI7 SLP081

CYXE;2016-12-22 19:00;CYXE 221900Z 22010KT 15SM BKN250 M01/M08 A2963 RMK CI7 SLP067

CYXE;2016-12-22 20:00;CYXE 222000Z 23009KT 15SM BKN250 00/M07 A2961 RMK CI7 SLP059

CYXE;2016-12-22 21:00;CYXE 222100Z 23008KT 15SM BKN250 01/M07 A2959 RMK CI7 SLP053

CYXE;2016-12-22 22:00;CYXE 222200Z 22005KT 15SM BKN250 00/M07 A2958 RMK CI7 SLP049

CYXE;2016-12-22 23:00;CYXE 222300Z 22006KT 15SM BKN250 M01/M06 A2958 RMK CI6 SLP051

CYXE;2016-12-23 00:00;CYXE 230000Z 21006KT 15SM BKN250 M03/M08 A2957 RMK CI6 SLP046

CYXE;2016-12-23 01:00;CYXE 230100Z 23006KT 15SM BKN230 M05/M08 A2956 RMK CI6 SLP044

CYXE;2016-12-23 02:00;CYXE 230200Z 24006KT 15SM BKN220 M07/M09 A2956 RMK CI6 SLP046

CYXE;2016-12-23 03:00;CYXE 230300Z 22006KT 15SM SCT220 M08/M10 A2956 RMK CI4 SLP045

CYXE;2016-12-23 04:00;CYXE 230400Z 23005KT 15SM BKN200 M08/M10 A2957 RMK CI5 SLP049

CYXE;2016-12-23 05:00;CYXE 230500Z 28003KT 210V290 15SM SCT200 M10/M12 A2956 RMK CI4 SLP048

CYXE;2016-12-23 06:00;CYXE 230600Z 33002KT 15SM OVC210 M10/M12 A2958 RMK CI8 SLP052

CYXE;2016-12-23 07:00;CYXE 230700Z 33003KT 15SM OVC210 M10/M12 A2959 RMK CI8 SLP053

CYXE;2016-12-23 08:00;CYXE 230800Z 35003KT 15SM BKN150 M11/M13 A2961 RMK AS5 SLP059

CYXE;2016-12-23 09:00;CYXE 230900Z 00000KT 15SM BKN150 M10/M13 A2963 RMK AS5 SLP065

CYXE;2016-12-23 10:00;CYXE 231000Z 01003KT 15SM BKN150 M09/M11 A2966 RMK AS5 SLP077

CYXE;2016-12-23 11:00;CYXE 231100Z 02006KT 15SM BKN150 M08/M10 A2969 RMK AS6 SLP085

CYXE;2016-12-23 12:00;CYXE 231200Z 00000KT 15SM FEW060 OVC150 M08/M10 A2971 RMK SC2AS6 SLP095

CYXE;2016-12-23 13:00;CYXE 231300Z 03007KT 15SM FEW011 SCT030 OVC040 M06/M07 A2974 RMK SC1SC3SC4 SLP105

CYXE;2016-12-23 13:43;CYXE 231343Z 04006KT 15SM -SN OVC010 M05/M07 A2977 RMK SC8 SLP115

CYXE;2016-12-23 14:00;CYXE 231400Z 04005KT 15SM -SN OVC010 M05/M06 A2978 RMK SC8 SLP120

CYXE;2016-12-23 15:00;CYXE 231500Z 01006KT 15SM -SN BKN010 OVC020 M04/M06 A2982 RMK SC5SC3 SLP132

CYXE;2016-12-23 15:14;CYXE 231514Z 03007KT 15SM -SN SCT010 OVC024 M04/M06 A2982 RMK SC3SC5 SLP132

CYXE;2016-12-23 16:00;CYXE 231600Z 02010KT 15SM -SN FEW010 OVC040 M04/M06 A2983 RMK SC1SC7 SLP139

CYXE;2016-12-23 17:00;CYXE 231700Z 02010KT 15SM -SN FEW010 OVC050 M04/M07 A2988 RMK SC2SC6 PRESRR SLP157

CYXE;2016-12-23 18:00;CYXE 231800Z 04012G17KT 15SM -SN SCT010 OVC052 M05/M08 A2991 RMK SC3SC5 SLP168

CYXE;2016-12-23 18:29;CYXE 231829Z 03013G19KT 15SM SCT010 OVC053 M06/M09 A2992 RMK SC3SC5 SLP170

CYXE;2016-12-23 19:00;CYXE 231900Z 04010G16KT 15SM SCT010 BKN055 M06/M09 A2993 RMK SC3SC4 SLP173

CYXE;2016-12-23 20:00;CYXE 232000Z 05012KT 15SM SCT010 SCT055 M07/M10 A2995 RMK SC3SC1 SLP181

CYXE;2016-12-23 21:00;CYXE 232100Z 05008KT 15SM FEW015 SCT055 M07/M11 A2996 RMK SC2SC1 SLP185

CYXE;2016-12-23 22:00;CYXE 232200Z 06012KT 15SM FEW015 BKN250 M09/M13 A2999 RMK SC1CI6 SLP197

CYXE;2016-12-23 23:00;CYXE 232300Z 06009G15KT 15SM FEW015 OVC220 M11/M14 A3001 RMK SC1CI7 SLP204

CYXE;2016-12-24 00:00;CYXE 240000Z 06010KT 15SM BKN220 M13/M15 A3003 RMK CI7 SLP212

CYXE;2016-12-24 01:00;CYXE 240100Z 07008KT 15SM SCT220 M14/M17 A3007 RMK CI4 SLP225

CYXE;2016-12-24 02:00;CYXE 240200Z 06009KT 15SM BKN190 M14/M17 A3009 RMK CI5 SLP230

CYXE;2016-12-24 03:00;CYXE 240300Z 06009KT 15SM SCT160 BKN200 M15/M18 A3012 RMK AC3CI3 SLP242

CYXE;2016-12-24 04:00;CYXE 240400Z 06007KT 15SM SCT140 BKN200 M16/M19 A3015 RMK AC4CI2 SLP254

CYXE;2016-12-24 05:00;CYXE 240500Z 06010KT 15SM BKN150 M16/M19 A3016 RMK AC5 SLP256

CYXE;2016-12-24 06:00;CYXE 240600Z 08010KT 15SM SCT150 BKN240 M17/M21 A3018 RMK AC3CI3 SLP266

CYXE;2016-12-24 07:00;CYXE 240700Z 08011KT 15SM BKN120 M18/M22 A3019 RMK AC5 SLP271

CYXE;2016-12-24 08:00;CYXE 240800Z 07011G17KT 15SM BKN120 M19/M23 A3021 RMK AC5 SLP276

CYXE;2016-12-24 09:00;CYXE 240900Z 07012KT 15SM BKN120 M20/M23 A3023 RMK AC5 SLP283

CYXE;2016-12-24 10:00;CYXE 241000Z 08011KT 15SM BKN120 M20/M24 A3025 RMK AC6 SLP292

CYXE;2016-12-24 11:00;CYXE 241100Z 08011KT 15SM OVC100 M20/M23 A3024 RMK AC8 SLP292

CYXE;2016-12-24 12:00;CYXE 241200Z 07010G15KT 15SM OVC100 M20/M23 A3025 RMK AC8 SLP295

CYXE;2016-12-24 13:00;CYXE 241300Z 07013KT 15SM OVC097 M20/M24 A3026 RMK AC8 SLP300

CYXE;2016-12-24 14:00;CYXE 241400Z 07014KT 15SM OVC080 M20/M24 A3028 RMK AC8 SLP305

CYXE;2016-12-24 15:00;CYXE 241500Z 06009KT 15SM OVC070 M20/M23 A3030 RMK AC8 SLP314

CYXE;2016-12-24 16:00;CYXE 241600Z 06009KT 15SM OVC060 M19/M23 A3032 RMK SC8 SLP321

CYXE;2016-12-24 17:00;CYXE 241700Z 08013KT 15SM OVC060 M18/M23 A3032 RMK SC8 SLP322

CYXE;2016-12-24 18:00;CYXE 241800Z 10013KT 15SM OVC070 M18/M22 A3032 RMK AS8 SLP320

CYXE;2016-12-24 19:00;CYXE 241900Z 10012KT 15SM FEW070 BKN250 M17/M22 A3030 RMK AS1CI5 SLP315

CYXE;2016-12-24 20:00;CYXE 242000Z 10014KT 15SM FEW080 BKN250 M17/M22 A3029 RMK AC1CI6 SLP312

CYXE;2016-12-24 21:00;CYXE 242100Z 10012KT 15SM BKN065 OVC250 M17/M22 A3029 RMK SC5CI3 SLP313

CYXE;2016-12-24 21:52;CYXE 242152Z 10012KT 15SM -SN BKN065 OVC250 M17/M22 A3029 RMK SC6CI2 SLP313

CYXE;2016-12-24 22:00;CYXE 242200Z 11014KT 15SM -SN BKN060 OVC250 M17/M22 A3029 RMK SC6CI2 SLP313

CYXE;2016-12-24 23:00;CYXE 242300Z 09011KT 15SM -SN BKN057 OVC084 M17/M21 A3030 RMK SC5AC3 SLP317

CYXE;2016-12-25 00:00;CYXE 250000Z 10013KT 15SM -SN OVC053 M17/M21 A3031 RMK SC8 SLP318

CYXE;2016-12-25 01:00;CYXE 250100Z 08011G16KT 15SM -SN OVC062 M17/M21 A3029 RMK SC8 SLP314

CYXE;2016-12-25 02:00;CYXE 250200Z 09009G16KT 12SM -SN OVC055 M17/M21 A3028 RMK SC8 SLP310

CYXE;2016-12-25 03:00;CYXE 250300Z 10009G16KT 6SM -SN DRSN SCT042 OVC070 M17/M20 A3029 RMK SC3AC5 SLP313

CYXE;2016-12-25 04:00;CYXE 250400Z 10010G15KT 6SM -SN DRSN OVC044 M16/M20 A3029 RMK SC8 SLP311

CYXE;2016-12-25 04:11;CYXE 250411Z 10011KT 2 1/2SM -SN DRSN VV022 M16/M20 A3029 RMK SN8 SLP312

CYXE;2016-12-25 05:00;CYXE 250500Z 09011KT 2 1/2SM -SN DRSN VV020 M16/M19 A3029 RMK SHGR8 SLP311

CYXE;2016-12-25 06:00;CYXE 250600Z 09012KT 2 1/2SM -SN DRSN VV019 M16/M19 A3030 RMK SN8 SLP312

CYXE;2016-12-25 06:20;CYXE 250620Z 09012KT 3SM -SN DRSN VV008 M16/M19 A3030 RMK SN8 SLP313

CYXE;2016-12-25 06:44;CYXE 250644Z 10011G16KT 3SM -SN DRSN VV012 M16/M18 A3030 RMK SN8 SLP312

CYXE;2016-12-25 07:00;CYXE 250700Z 10013KT 3SM -SN DRSN VV014 M16/M18 A3029 RMK SN8 SLP310

CYXE;2016-12-25 08:00;CYXE 250800Z 10012KT 5SM -SN DRSN OVC040 M16/M19 A3028 RMK SC8 SLP307

CYXE;2016-12-25 09:00;CYXE 250900Z 09012KT 5SM -SN DRSN OVC022 M16/M19 A3026 RMK SC8 /S01/ SLP300

CYXE;2016-12-25 10:00;CYXE 251000Z 08011KT 3SM -SN VV010 M16/M19 A3026 RMK SN8 /S02/ SLP298

CYXE;2016-12-25 10:27;CYXE 251027Z 09012KT 2SM -SN VV007 M16/M19 A3025 RMK SN8 SLP297

CYXE;2016-12-25 11:00;CYXE 251100Z 08010G16KT 2SM -SN VV007 M16/M19 A3024 RMK SN8 /S03/ SLP294

CYXE;2016-12-25 11:40;CYXE 251140Z 08008G15KT 5SM -SN OVC057 M16/M19 A3023 RMK SC8 SLP289

CYXE;2016-12-25 12:00;CYXE 251200Z 08009KT 6SM -SN OVC056 M16/M19 A3023 RMK SC8 SLP287

CYXE;2016-12-25 13:00;CYXE 251300Z 09013KT 6SM -SN OVC055 M16/M19 A3023 RMK SC8 SLP290

CYXE;2016-12-25 14:00;CYXE 251400Z 09012KT 3SM -SN DRSN VV025 M16/M19 A3023 RMK SN8 SLP289

CYXE;2016-12-25 15:00;CYXE 251500Z 08011KT 6SM -SN DRSN OVC050 M15/M19 A3022 RMK SC8 SLP285

CYXE;2016-12-25 16:00;CYXE 251600Z 05010KT 3SM -SN DRSN OVC090 M16/M19 A3021 RMK AC8 SLP283

CYXE;2016-12-25 17:00;CYXE 251700Z 06011KT 5SM -SN DRSN OVC090 M17/M19 A3022 RMK AC8 SLP286

CYXE;2016-12-25 18:00;CYXE 251800Z 06011KT 15SM -SN FEW012 BKN055 BKN090 M16/M19 A3021 RMK SC1SC4AC2 SLP281

CYXE;2016-12-25 18:34;CYXE 251834Z 06009KT 6SM IC FEW015 SCT090 M15/M19 A3020 RMK SC2AC2 SLP277

CYXE;2016-12-25 19:00;CYXE 251900Z 05010KT 10SM IC FEW015 SCT250 M15/M19 A3019 RMK SC1CI3 SLP274

CYXE;2016-12-25 19:32;CYXE 251932Z 05009KT 3SM -SN FEW015 BKN055 OVC250 M16/M19 A3019 RMK SC1SC5CI2 SLP273

CYXE;2016-12-25 20:00;CYXE 252000Z 04010KT 3SM -SN SCT015 OVC050 M16/M19 A3018 RMK SC3SC5 SLP269

CYXE;2016-12-25 21:00;CYXE 252100Z 04009KT 15SM -SN FEW015 BKN080 OVC280 M16/M19 A3015 RMK SC2AC3CI3 SLP262

CYXE;2016-12-25 22:00;CYXE 252200Z CCA 05012KT 15SM -SN FEW050 BKN075 OVC280 M16/M19 A3015 RMK SC1AC5CI2 SLP260

CYXE;2016-12-25 23:00;CYXE 252300Z 04010KT 15SM -SN FEW050 OVC080 M16/M19 A3016 RMK SC2AC6 SLP265

CYXE;2016-12-26 00:00;CYXE 260000Z 04010KT 15SM -SN SCT040 OVC070 M16/M20 A3014 RMK SC3AC5 SLP257

CYXE;2016-12-26 01:00;CYXE 260100Z 04009KT 15SM -SN BKN042 OVC075 M17/M20 A3016 RMK SC5AC3 SLP263

CYXE;2016-12-26 02:00;CYXE 260200Z 05012KT 15SM -SN OVC036 M17/M20 A3014 RMK SC8 SLP256

CYXE;2016-12-26 03:00;CYXE 260300Z 04010KT 12SM -SN OVC050 M17/M20 A3011 RMK SC8 SLP249

CYXE;2016-12-26 04:00;CYXE 260400Z 03009KT 15SM -SN OVC055 M17/M20 A3010 RMK SC8 SLP245

CYXE;2016-12-26 05:00;CYXE 260500Z 04009KT 15SM -SN FEW020 OVC055 M17/M20 A3008 RMK SC1SC7 SLP237

CYXE;2016-12-26 06:00;CYXE 260600Z 03006KT 15SM -SN SCT030 OVC060 M17/M19 A3007 RMK SC3SC5 SLP235

CYXE;2016-12-26 07:00;CYXE 260700Z 03009KT 15SM SCT040 M17/M20 A3006 RMK SC3 SLP230

CYXE;2016-12-26 08:00;CYXE 260800Z 02007KT 15SM -SN OVC027 M16/M19 A3004 RMK SC8 SLP224

CYXE;2016-12-26 09:00;CYXE 260900Z 35006KT 15SM -SN OVC024 M16/M19 A3005 RMK SC8 SLP227

CYXE;2016-12-26 10:00;CYXE 261000Z 35007KT 15SM -SN OVC024 M16/M19 A3004 RMK SC8 SLP223

CYXE;2016-12-26 11:00;CYXE 261100Z 36006KT 15SM -SN SCT018 OVC055 M16/M19 A3003 RMK SC3SC5 SLP220

CYXE;2016-12-26 12:00;CYXE 261200Z 35006KT 15SM -SN OVC055 M15/M18 A3003 RMK SC8 /S02/ SLP218

CYXE;2016-12-26 13:00;CYXE 261300Z 36005KT 3SM -SN FEW030 OVC065 M15/M18 A3002 RMK SC1SC7 SLP217

CYXE;2016-12-26 14:00;CYXE 261400Z 35005KT 5SM -SN OVC085 M15/M18 A3001 RMK AC8 SLP213

CYXE;2016-12-26 15:00;CYXE 261500Z 32004KT 10SM -SN BKN090 M16/M18 A3001 RMK AC7 SLP214

CYXE;2016-12-26 16:00;CYXE 261600Z 31007KT 15SM -SN SCT100 M16/M18 A3002 RMK AC4 SLP217

CYXE;2016-12-26 16:19;CYXE 261619Z 30004KT 12SM IC FEW100 M16/M18 A3002 RMK AC2 SLP218

CYXE;2016-12-26 17:00;CYXE 261700Z 28008KT 15SM IC FEW100 M16/M19 A3003 RMK AC1 SLP220

CYXE;2016-12-26 18:00;CYXE 261800Z 31006KT 15SM IC FEW080 M16/M19 A3003 RMK AC2 SLP220

CYXE;2016-12-26 19:00;CYXE 261900Z 33004KT 15SM IC BKN080 M15/M18 A3002 RMK AC6 SLP216

CYXE;2016-12-26 20:00;CYXE 262000Z 04004KT 360V100 15SM IC BKN075 M14/M18 A3000 RMK AC6 SLP208

CYXE;2016-12-26 21:00;CYXE 262100Z 25003KT 15SM IC BKN055 M14/M18 A3001 RMK SC6 SLP209

CYXE;2016-12-26 22:00;CYXE 262200Z 20004KT 15SM -SN BKN050 BKN080 M15/M18 A3001 RMK SC5AC2 SLP211

CYXE;2016-12-26 23:00;CYXE 262300Z 23006KT 15SM -SN BKN057 M15/M19 A3001 RMK SC7 SLP213

CYXE;2016-12-27 00:00;CYXE 270000Z 17003KT 170V320 15SM -SN BKN060 M15/M18 A3000 RMK SC5 SLP208

CYXE;2016-12-27 00:49;CYXE 270049Z 20005KT 15SM SCT060 M17/M19 A2999 RMK SC4 SLP207

CYXE;2016-12-27 01:00;CYXE 270100Z 19005KT 15SM SCT060 M16/M19 A2999 RMK SC3 SLP206

CYXE;2016-12-27 02:00;CYXE 270200Z 21006KT 15SM SCT060 M16/M19 A2999 RMK SC3 SLP205

CYXE;2016-12-27 03:00;CYXE 270300Z 24008KT 15SM FEW120 M18/M21 A2998 RMK AC2 SLP203

CYXE;2016-12-27 04:00;CYXE 270400Z 18007KT 15SM SKC M19/M21 A2995 RMK SLP194

CYXE;2016-12-27 05:00;CYXE 270500Z 19007KT 15SM SKC M19/M21 A2994 RMK SLP190

CYXE;2016-12-27 06:00;CYXE 270600Z 17007KT 15SM SKC M20/M22 A2991 RMK SLP179

CYXE;2016-12-27 07:00;CYXE 270700Z 17008KT 15SM SKC M19/M21 A2987 RMK SLP167

CYXE;2016-12-27 08:00;CYXE 270800Z 18006KT 15SM SKC M20/M22 A2985 RMK SLP158

CYXE;2016-12-27 09:00;CYXE 270900Z 16009KT 15SM SKC M20/M22 A2983 RMK SLP150

CYXE;2016-12-27 10:00;CYXE 271000Z 17008KT 15SM SKC M19/M21 A2979 RMK SLP136

CYXE;2016-12-27 11:00;CYXE 271100Z 17008KT 15SM SKC M18/M20 A2975 RMK SLP123

CYXE;2016-12-27 12:00;CYXE 271200Z 16008KT 15SM SKC M19/M22 A2971 RMK SLP110

CYXE;2016-12-27 13:00;CYXE 271300Z 16010KT 15SM SCT220 M17/M19 A2966 RMK CI3 PRESFR SLP093

CYXE;2016-12-27 14:00;CYXE 271400Z 17010KT 15SM BKN150 M15/M18 A2961 RMK AS7 SLP073

CYXE;2016-12-27 15:00;CYXE 271500Z 16008KT 15SM BKN160 M14/M17 A2956 RMK AS7 SLP059

CYXE;2016-12-27 16:00;CYXE 271600Z 15009KT 15SM BKN140 OVC250 M12/M15 A2954 RMK AC5CI3 SLP051

CYXE;2016-12-27 17:00;CYXE 271700Z 14005KT 15SM OVC130 M10/M13 A2952 RMK AC8 SLP042

CYXE;2016-12-27 18:00;CYXE 271800Z 15007KT 15SM OVC130 M07/M11 A2948 RMK AC8 PRESFR SLP026

CYXE;2016-12-27 19:00;CYXE 271900Z 16007KT 15SM OVC120 M06/M09 A2944 RMK AC8 SLP010

CYXE;2016-12-27 20:00;CYXE 272000Z 21006KT 15SM OVC100 M04/M08 A2941 RMK AC8 SLP999

CYXE;2016-12-27 21:00;CYXE 272100Z 25011KT 15SM OVC090 M05/M08 A2941 RMK AC8 SLP000

CYXE;2016-12-27 22:00;CYXE 272200Z 31008KT 15SM BKN050 OVC220 M08/M11 A2941 RMK SC5CI3 SLP001

CYXE;2016-12-27 23:00;CYXE 272300Z 29007KT 15SM FEW060 BKN100 OVC220 M10/M12 A2943 RMK SC2AC5CI1 SLP009

CYXE;2016-12-28 00:00;CYXE 280000Z 28006KT 15SM BKN100 BKN220 M12/M14 A2943 RMK AC5CI2 SLP014

CYXE;2016-12-28 01:00;CYXE 280100Z 27007KT 15SM FEW120 SCT220 M12/M15 A2945 RMK AC2CI2 SLP017

CYXE;2016-12-28 02:00;CYXE 280200Z 25006KT 15SM BKN120 M14/M16 A2944 RMK AC6 SLP016

CYXE;2016-12-28 03:00;CYXE 280300Z 22007KT 15SM SCT150 BKN220 M14/M16 A2944 RMK AC4CI2 SLP014

CYXE;2016-12-28 04:00;CYXE 280400Z 23006KT 15SM FEW130 M13/M15 A2945 RMK AC2 SLP015

CYXE;2016-12-28 05:00;CYXE 280500Z 25008KT 15SM SKC M14/M16 A2946 RMK SLP018

CYXE;2016-12-28 06:00;CYXE 280600Z 24010KT 15SM SCT160 M12/M14 A2947 RMK AC3 SLP016

CYXE;2016-12-28 07:00;CYXE 280700Z 24011KT 15SM SCT160 M12/M14 A2947 RMK AC3 SLP017

CYXE;2016-12-28 08:00;CYXE 280800Z 23011KT 15SM BKN180 M10/M13 A2948 RMK AC5 SLP018

CYXE;2016-12-28 09:00;CYXE 280900Z 23011KT 15SM BKN200 M11/M14 A2948 RMK CI7 SLP020

CYXE;2016-12-28 10:00;CYXE 281000Z 23010KT 15SM BKN210 M12/M15 A2950 RMK CI6 SLP027

CYXE;2016-12-28 11:00;CYXE 281100Z 24010KT 15SM BKN220 M12/M15 A2950 RMK CI5 SLP028

CYXE;2016-12-28 12:00;CYXE 281200Z 24009KT 15SM BKN200 M11/M15 A2951 RMK CI5 SLP034

CYXE;2016-12-28 13:00;CYXE 281300Z 23009KT 15SM SCT200 M12/M15 A2951 RMK CI3 SLP035

CYXE;2016-12-28 14:00;CYXE 281400Z 24009KT 15SM BKN170 M13/M16 A2953 RMK AC5 SLP043

CYXE;2016-12-28 15:00;CYXE 281500Z 24009KT 15SM SCT100 BKN170 M12/M15 A2955 RMK AC4AC2 SLP051

CYXE;2016-12-28 16:00;CYXE 281600Z 27010KT 15SM BKN100 M06/M11 A2957 RMK AC6 SLP054

CYXE;2016-12-28 17:00;CYXE 281700Z 27005KT 15SM BKN100 M06/M10 A2961 RMK AC6 SLP065

CYXE;2016-12-28 18:00;CYXE 281800Z 28011G16KT 15SM SCT100 M04/M08 A2961 RMK AC4 SLP065

CYXE;2016-12-28 19:00;CYXE 281900Z 28012KT 15SM FEW032 BKN093 M02/M07 A2963 RMK SC2AC3 SLP068

CYXE;2016-12-28 19:12;CYXE 281912Z 29016KT 8SM -SN BKN032 BKN093 M02/M06 A2963 RMK SC5AC2 SLP069

CYXE;2016-12-28 19:43;CYXE 281943Z 29018G24KT 15SM FEW018 BKN032 BKN250 M01/M05 A2963 RMK SC2SC3CI2 SLP070

CYXE;2016-12-28 20:00;CYXE 282000Z 30017G25KT 15SM SCT018 BKN038 BKN250 M01/M05 A2964 RMK SC4SC1CI2 SLP072

CYXE;2016-12-28 20:27;CYXE 282027Z 30020G26KT 15SM -SN BKN019 M01/M04 A2965 RMK SC7 SLP076

CYXE;2016-12-28 21:00;CYXE 282100Z 30020KT 15SM -SN DRSN BKN021 M01/M04 A2966 RMK SC7 -SN INTMT SLP078

CYXE;2016-12-28 22:00;CYXE 282200Z 30015G24KT 15SM -SN DRSN FEW020 OVC045 M01/M05 A2969 RMK SF2SC6 SLP091

CYXE;2016-12-28 23:00;CYXE 282300Z 30017G24KT 15SM -SN DRSN BKN038 M01/M05 A2973 RMK SC7 SLP103

CYXE;2016-12-28 23:28;CYXE 282328Z 30018KT 15SM DRSN SCT040 BKN060 M01/M05 A2974 RMK SC4SC1 SLP108

CYXE;2016-12-29 00:00;CYXE 290000Z 31015G23KT 15SM DRSN SCT040 M03/M07 A2978 RMK SC3 PRESRR SLP119

CYXE;2016-12-29 01:00;CYXE 290100Z 32015G21KT 15SM DRSN BKN045 M02/M07 A2981 RMK SC6 SLP132

CYXE;2016-12-29 02:00;CYXE 290200Z 30015KT 15SM DRSN SCT040 BKN280 M03/M07 A2984 RMK SC3CI2 SLP144

CYXE;2016-12-29 03:00;CYXE 290300Z 30010KT 15SM FEW040 SCT120 M05/M08 A2987 RMK SC1AC2 SLP154

CYXE;2016-12-29 04:00;CYXE 290400Z 27009KT 15SM BKN060 M05/M08 A2990 RMK SC6 SLP160

CYXE;2016-12-29 05:00;CYXE 290500Z 25010KT 15SM BKN075 M05/M08 A2991 RMK AC6 SLP164

CYXE;2016-12-29 06:00;CYXE 290600Z 26012KT 15SM FEW060 SCT110 M05/M08 A2994 RMK SC2AC2 SLP172

CYXE;2016-12-29 07:00;CYXE 290700Z 28010KT 15SM SCT075 BKN110 M05/M08 A2996 RMK AC4AC2 SLP179

CYXE;2016-12-29 08:00;CYXE 290800Z 30010G17KT 15SM BKN090 M04/M09 A2998 RMK AC6 SLP185

CYXE;2016-12-29 09:00;CYXE 290900Z 28007KT 15SM BKN090 M05/M09 A3001 RMK AC5 SLP195

CYXE;2016-12-29 10:00;CYXE 291000Z 22005KT 15SM BKN090 M10/M12 A3003 RMK AC5 SLP205

CYXE;2016-12-29 11:00;CYXE 291100Z 25008KT 15SM SKC M13/M15 A3005 RMK SLP213

CYXE;2016-12-29 12:00;CYXE 291200Z 25010KT 15SM FEW070 M11/M14 A3006 RMK AC2 SLP218

CYXE;2016-12-29 13:00;CYXE 291300Z 25009KT 15SM FEW220 M12/M14 A3008 RMK CI2 SLP224

CYXE;2016-12-29 14:00;CYXE 291400Z 24006KT 15SM SCT220 M13/M16 A3008 RMK CI3 SLP226

CYXE;2016-12-29 15:00;CYXE 291500Z 24010KT 15SM FEW080 FEW220 M14/M16 A3009 RMK AC1CI1 SLP230

CYXE;2016-12-29 16:00;CYXE 291600Z 22004KT 15SM FEW080 M13/M16 A3011 RMK AC1 SLP236

CYXE;2016-12-29 17:00;CYXE 291700Z 22009KT 15SM SKC M09/M13 A3013 RMK SLP241

CYXE;2016-12-29 18:00;CYXE 291800Z 23009KT 15SM FEW220 M08/M12 A3013 RMK CI1 SLP240

CYXE;2016-12-29 19:00;CYXE 291900Z 23009KT 15SM FEW220 M07/M12 A3011 RMK CI1 SLP233

CYXE;2016-12-29 20:00;CYXE 292000Z 24010KT 15SM FEW220 M06/M11 A3010 RMK CI2 SLP228

CYXE;2016-12-29 21:00;CYXE 292100Z 23009KT 15SM FEW220 M06/M12 A3007 RMK CI2 SLP221

CYXE;2016-12-29 22:00;CYXE 292200Z 23009KT 15SM BKN240 M08/M13 A3006 RMK CI6 SLP221

CYXE;2016-12-29 23:00;CYXE 292300Z 21007KT 15SM OVC200 M09/M13 A3004 RMK CI8 SLP217

CYXE;2016-12-30 00:00;CYXE 300000Z 19005KT 15SM OVC160 M09/M13 A3001 RMK AC8 SLP204

CYXE;2016-12-30 01:00;CYXE 300100Z 18006KT 15SM OVC150 M10/M13 A2998 RMK AC8 SLP196

CYXE;2016-12-30 02:00;CYXE 300200Z 16005KT 15SM OVC130 M09/M13 A2995 RMK AC8 SLP184

CYXE;2016-12-30 03:00;CYXE 300300Z 13004KT 15SM OVC120 M08/M12 A2989 RMK AC8 SLP165

CYXE;2016-12-30 04:00;CYXE 300400Z 11006KT 15SM OVC120 M08/M12 A2985 RMK AC8 SLP149

CYXE;2016-12-30 05:00;CYXE 300500Z 10006KT 15SM OVC100 M08/M12 A2980 RMK AC8 SLP130

CYXE;2016-12-30 06:00;CYXE 300600Z 10007KT 15SM BKN017 OVC100 M07/M11 A2977 RMK SC7AC1 SLP118

CYXE;2016-12-30 06:27;CYXE 300627Z 11006KT 5SM -SN OVC017 M07/M11 A2976 RMK SC8 SLP113

CYXE;2016-12-30 06:52;CYXE 300652Z 11008KT 2 1/2SM -SN VV015 M07/M10 A2973 RMK SN8 PRESFR SLP105

CYXE;2016-12-30 07:05;CYXE 300705Z 11008KT 1SM R09/P6000FT/D -SN VV010 M07/M10 A2972 RMK SN8 PRESFR SLP100

CYXE;2016-12-30 08:00;CYXE 300800Z 10008KT 2SM -SN VV015 M07/M08 A2967 RMK SN8 PRESFR SLP082

CYXE;2016-12-30 08:19;CYXE 300819Z 10009KT 1SM R09/P6000FT/D -SN VV010 M07/M08 A2964 RMK SN8 PRESFR SLP073

CYXE;2016-12-30 09:00;CYXE 300900Z 10011G16KT 1SM R09/P6000FT/N -SN VV010 M06/M07 A2961 RMK SN8 SLP062

CYXE;2016-12-30 09:11;CYXE 300911Z 09012KT 3/4SM R09/P6000FT/U -SN VV008 M06/M07 A2960 RMK SN8 SLP059

CYXE;2016-12-30 10:00;CYXE 301000Z 08013KT 3/4SM R09/P6000FT/N -SN VV008 M06/M08 A2959 RMK SN8 /S02/ SLP057

CYXE;2016-12-30 10:48;CYXE 301048Z 07013KT 1/2SM R09/6000FT/N SN VV006 M07/M08 A2959 RMK SN8 /S03/ SLP056

CYXE;2016-12-30 11:00;CYXE 301100Z 08010G16KT 1/2SM R09/5000VP6000FT/D SN VV005 M07/M08 A2959 RMK SN8 SLP058

CYXE;2016-12-30 12:00;CYXE 301200Z 06008KT 1/2SM R09/6000FT/N SN VV006 M07/M08 A2959 RMK SN8 /S06/ SLP058

CYXE;2016-12-30 13:00;CYXE 301300Z 02012KT 3/4SM R09/4500FT/N -SN VV008 M07/M08 A2963 RMK SN8 /S03/ SLP070

CYXE;2016-12-30 13:24;CYXE 301324Z 03014G20KT 1/2SM R09/2800VP6000FT/N SN VV005 M08/M09 A2963 RMK SN8 SLP073

CYXE;2016-12-30 13:48;CYXE 301348Z 03014KT 3/4SM R09/4000VP6000FT/D -SN DRSN VV010 M08/M09 A2965 RMK SN8 SLP079

CYXE;2016-12-30 14:00;CYXE 301400Z 03014KT 3/4SM R09/P6000FT/N -SN DRSN VV010 M08/M09 A2966 RMK SN8 /S05/ SLP081

CYXE;2016-12-30 14:21;CYXE 301421Z 02014KT 1SM R09/5000VP6000FT/U -SN DRSN VV008 M08/M09 A2966 RMK SN8 SLP083

CYXE;2016-12-30 14:27;CYXE 301427Z 03012KT 2SM -SN DRSN VV010 M08/M09 A2967 RMK SN8 SLP084

CYXE;2016-12-30 14:38;CYXE 301438Z 03011KT 3SM -SN DRSN OVC018 M08/M09 A2967 RMK SN4SC4 SLP084

CYXE;2016-12-30 15:00;CYXE 301500Z 04011KT 12SM -SN DRSN BKN022 OVC100 M08/M10 A2967 RMK SC5AC3 /S06/ SLP086

CYXE;2016-12-30 15:23;CYXE 301523Z 36011KT 15SM DRSN SCT016 BKN100 BKN280 M09/M11 A2969 RMK SC3AC3CI1 SLP093

CYXE;2016-12-30 16:00;CYXE 301600Z 35010KT 15SM DRSN FEW020 SCT100 BKN280 M10/M12 A2971 RMK SC1AC3CI2 SLP100

CYXE;2016-12-30 16:23;CYXE 301623Z 36012KT 15SM SCT009 BKN100 BKN280 M10/M12 A2973 RMK SC4AC1CI2 SLP106

CYXE;2016-12-30 16:41;CYXE 301641Z 36012KT 15SM DRSN BKN008 BKN100 BKN280 M10/M11 A2974 RMK SC5AC1CI1 SLP111

CYXE;2016-12-30 17:00;CYXE 301700Z 36013KT 15SM DRSN BKN009 OVC100 M09/M11 A2976 RMK SC7AC1 SLP116

CYXE;2016-12-30 17:13;CYXE 301713Z 36011G16KT 12SM -SN DRSN OVC007 M09/M10 A2977 RMK SC8 SLP119

CYXE;2016-12-30 18:00;CYXE 301800Z 34011KT 12SM -SN DRSN OVC005 M10/M11 A2978 RMK SC8 SLP124

CYXE;2016-12-30 19:00;CYXE 301900Z 32009KT 15SM -SN OVC006 M10/M11 A2979 RMK SC8 SLP126

CYXE;2016-12-30 20:00;CYXE 302000Z 32007KT 15SM -SN BKN007 OVC100 M09/M11 A2979 RMK SC7AC1 SLP124

CYXE;2016-12-30 20:24;CYXE 302024Z 29008KT 15SM SCT007 BKN120 OVC280 M10/M13 A2979 RMK SC4AC3CI1 SLP125

CYXE;2016-12-30 21:00;CYXE 302100Z 26004KT 15SM SCT008 BKN110 OVC280 M12/M15 A2979 RMK SC3AC4CI1 SLP128

CYXE;2016-12-30 22:00;CYXE 302200Z 21004KT 15SM BKN110 M12/M14 A2978 RMK AC7 SLP124

CYXE;2016-12-30 23:00;CYXE 302300Z 24008KT 15SM SCT110 M14/M16 A2977 RMK AC3 SLP123

CYXE;2016-12-31 00:00;CYXE 310000Z 23010KT 15SM FEW120 M16/M18 A2976 RMK AC2 SLP119

CYXE;2016-12-31 01:00;CYXE 310100Z 23009KT 15SM FEW120 M17/M18 A2975 RMK AC1 SLP116

CYXE;2016-12-31 02:00;CYXE 310200Z 22010KT 15SM SKC M15/M17 A2972 RMK PRESFR SLP105

CYXE;2016-12-31 03:00;CYXE 310300Z 22010KT 15SM BKN060 M14/M16 A2970 RMK SC5 SLP098

CYXE;2016-12-31 04:00;CYXE 310400Z 22010KT 15SM BKN080 M12/M14 A2967 RMK AC7 SLP088

CYXE;2016-12-31 05:00;CYXE 310500Z 23011KT 15SM BKN048 M10/M12 A2962 RMK SC7 SLP068

CYXE;2016-12-31 06:00;CYXE 310600Z 24013KT 15SM BKN055 M10/M13 A2960 RMK SC6 SLP063

CYXE;2016-12-31 07:00;CYXE 310700Z 23012KT 15SM BKN120 M13/M15 A2956 RMK AC6 SLP052

CYXE;2016-12-31 08:00;CYXE 310800Z 24012KT 15SM FEW120 M13/M15 A2954 RMK AC1 SLP044

CYXE;2016-12-31 09:00;CYXE 310900Z 24009KT 15SM BKN080 M13/M15 A2952 RMK AC6 SLP039

CYXE;2016-12-31 10:00;CYXE 311000Z 24012KT 15SM OVC080 M11/M13 A2950 RMK AC8 SLP030

CYXE;2016-12-31 11:00;CYXE 311100Z 26011KT 15SM OVC080 M09/M12 A2948 RMK AC8 SLP023

CYXE;2016-12-31 12:00;CYXE 311200Z 26010KT 15SM OVC070 M08/M11 A2946 RMK AC8 SLP018

CYXE;2016-12-31 13:00;CYXE 311300Z 28010KT 15SM OVC070 M07/M11 A2946 RMK AC8 SLP016

CYXE;2016-12-31 14:00;CYXE 311400Z 29012KT 15SM OVC065 M06/M10 A2945 RMK SC8 SLP012

CYXE;2016-12-31 14:25;CYXE 311425Z 30013KT 12SM -SN OVC035 M06/M10 A2945 RMK SN6SC2 SLP012

CYXE;2016-12-31 15:00;CYXE 311500Z 31014KT 2SM -SN VV010 M07/M09 A2945 RMK SN8 SLP013

CYXE;2016-12-31 16:00;CYXE 311600Z 31010G15KT 2 1/2SM -SN VV014 M07/M09 A2947 RMK SN8 SLP019

CYXE;2016-12-31 16:13;CYXE 311613Z 32010KT 3SM -SN VV022 M07/M09 A2948 RMK SN8 SLP020

CYXE;2016-12-31 17:00;CYXE 311700Z 31010KT 5SM -SN OVC035 M07/M09 A2949 RMK SC8 SLP023

CYXE;2016-12-31 18:00;CYXE 311800Z 31012KT 15SM -SN FEW035 OVC080 M06/M09 A2951 RMK SC1AC7 SLP028

CYXE;2016-12-31 19:00;CYXE 311900Z 31012KT 15SM -SN FEW020 BKN040 OVC060 M06/M09 A2951 RMK SC2SC3SC3 SLP031

CYXE;2016-12-31 20:00;CYXE 312000Z 32014KT 15SM BKN020 OVC050 M06/M10 A2952 RMK SC5SC3 SLP037

CYXE;2016-12-31 21:00;CYXE 312100Z 31012KT 15SM OVC022 M07/M11 A2954 RMK SC8 SLP041

CYXE;2016-12-31 22:00;CYXE 312200Z 31012KT 15SM BKN023 M07/M11 A2957 RMK SC7 SLP051

CYXE;2016-12-31 23:00;CYXE 312300Z 32012KT 15SM SCT022 BKN080 M09/M13 A2961 RMK SC4AC2 SLP064

