CYYG;2003-08-15 16:00;METAR CYYG 151600Z 03005KT 15SM FEW030 SCT280 23/14 A3003 RMK CU2CI0 VIA CYZX SLP170
CYYG;2003-08-15 17:00;METAR CYYG 151700Z 01004KT 15SM FEW040 SCT280 24/14 A3001 RMK CU2CI0 SLP164
CYYG;2003-08-15 18:00;METAR CYYG 151800Z 01009KT 15SM FEW040 BKN280 24/14 A3000 RMK CU2CI0 SLP160
CYYG;2003-08-15 19:00;METAR CYYG 151900Z 07002KT 15SM FEW040 BKN280 24/13 A2998 RMK CU2CI1 VIA CYZX SLP153
CYYG;2003-08-15 23:00;METAR CYYG 142300Z 36006KT 15SM FEW020 FEW080 FEW280 18/15 A3007 RMK CF1AC1CI1 SLP183
CYYG;2003-08-15 00:00;METAR CYYG 150000Z 36006KT 15SM FEW080 FEW280 16/15 A3008 RMK AC1CI1 SLP186
CYYG;2003-08-15 20:00;METAR CYYG 152000Z 13006KT 15SM FEW055 BKN280 23/13 A2996 RMK SC2CI2 SLP147
CYYG;2003-08-15 21:00;METAR CYYG 152100Z 20007KT 15SM FEW045 BKN280 23/15 A2996 RMK SC1CI2 SLP145
CYYG;2003-08-15 22:00;METAR CYYG 152200Z 25003KT 15SM FEW045 BKN300 22/14 A2994 RMK SC1CI2 SLP140
CYYG;2003-08-15 23:00;METAR CYYG 152300Z 21004KT 15SM FEW053 BKN300 21/14 A2994 RMK SC1CI2
CYYG;2003-08-16 00:00;METAR CYYG 160000Z 20004KT 15SM FEW053 FEW190 BKN230 20/13 A2993 RMK SC1AC2CI2 SLP136
CYYG;2003-08-16 01:00;METAR CYYG 160100Z 26006KT 15SM FEW190 BKN230 19/15 A2993 RMK AC2CI1 SLP137
CYYG;2003-08-16 02:00;METAR CYYG 160200Z 21005KT 15SM FEW190 BKN230 19/15 A2993 RMK AC2CI1 SLP134
CYYG;2003-08-16 03:00;METAR CYYG 160300Z 20003KT 15SM SCT230 18/16 A2990 RMK CI1 SLP127
CYYG;2003-08-16 04:00;METAR CYYG 160400Z 23005KT 15SM FEW230 18/16 A2989 RMK CI1 SLP121
CYYG;2003-08-16 05:00;METAR CYYG 160500Z 22006KT 15SM FEW230 17/15 A2988 RMK CI1 SLP119
CYYG;2003-08-16 06:00;METAR CYYG 160600Z 21006KT 15SM SKC 17/14 A2987 RMK SLP116
CYYG;2003-08-16 07:00;METAR CYYG 160700Z 22005KT 15SM SKC 17/14 A2985 RMK SLP107
CYYG;2003-08-16 08:00;METAR CYYG 160800Z 21007KT 15SM FEW300 17/14 A2982 RMK CI0 SLP100
CYYG;2003-08-16 09:00;METAR CYYG 160900Z 22009KT 15SM FEW040 FEW300 17/14 A2982 RMK SC1CI1 SLP097
CYYG;2003-08-16 10:00;METAR CYYG 161000Z 21010KT 15SM FEW040TCU SCT300 17/14 A2982 RMK TCU1CI1 SLP096
CYYG;2003-08-16 11:00;METAR CYYG 161100Z 21013KT 15SM FEW050 BKN085 BKN300 19/15 A2980 RMK SC2AC4CI0 TCU ASOCTD SLP092
CYYG;2003-08-16 12:00;METAR CYYG 161200Z 19013KT 15SM FEW045 FEW080 BKN300 20/16 A2979 RMK SC2AC1CI1 SLP087
CYYG;2003-08-16 13:00;METAR CYYG 161300Z 19012G18KT 15SM FEW045 FEW080 BKN300 21/15 A2977 RMK SC2AC1CI1 SLP082
CYYG;2003-08-16 14:00;METAR CYYG 161400Z 20013G19KT 15SM FEW045 FEW080 BKN300 22/15 A2976 RMK SC1AC1CI1 SLP078
CYYG;2003-08-16 15:00;METAR CYYG 161500Z 20012G19KT 15SM FEW042 FEW080 BKN300 23/16 A2975 RMK SC1AC1CI1 SLP073
CYYG;2003-08-16 16:00;METAR CYYG 161600Z 19014G21KT 15SM FEW042 BKN300 24/17 A2974 RMK SC1CI1 SLP071
CYYG;2003-08-16 17:00;METAR CYYG 161700Z 19016G21KT 15SM FEW045 BKN300 24/16 A2972 RMK SC1CI2 SLP065
CYYG;2003-08-16 18:00;METAR CYYG 161800Z 19018G25KT 15SM FEW045 BKN300 25/17 A2971 RMK SC1CI2 SLP060
CYYG;2003-08-16 19:00;METAR CYYG 161900Z 19020G28KT 15SM FEW050 BKN300 25/17 A2968 RMK SC2CI2 SLP049
CYYG;2003-08-16 20:00;METAR CYYG 162000Z 19015G22KT 15SM FEW050 BKN300 25/18 A2968 RMK SC2CI2
CYYG;2003-08-16 21:00;METAR CYYG 162100Z 19014KT 15SM BKN055 BKN300 25/18 A2968 RMK SC6CI1 TCU ASOCTD SLP051
CYYG;2003-08-16 22:00;METAR CYYG 162200Z 19015G20KT 15SM FEW055 BKN300 24/18 A2968 RMK SC1CI1
CYYG;2003-08-16 23:00;METAR CYYG 162300Z 18014KT 15SM FEW110 SCT300 22/18 A2968 RMK AC1CI1 SLP050
CYYG;2003-08-17 00:00;METAR CYYG 170000Z 18013G18KT 15SM FEW110 BKN300 21/18 A2969 RMK AC1CI2 SLP054
CYYG;2003-08-17 01:00;METAR CYYG 170100Z 18011G17KT 15SM FEW110 BKN300 20/18 A2969 RMK AC1CI2 SLP055
CYYG;2003-08-17 02:00;METAR CYYG 170200Z 18013G19KT 10SM FEW060 SCT300 20/18 A2967 RMK CU2CI1 SLP048
CYYG;2003-08-17 04:00;METAR CYYG 170400Z 20014KT 10SM BKN026 BKN130 20/18 A2967 RMK SC7AC1
CYYG;2003-08-17 05:00;METAR CYYG 170500Z 18013KT 10SM BKN022 BKN130 20/18 A2968 RMK SC6AC2 SLP051
CYYG;2003-08-17 06:00;METAR CYYG 170600Z 19013KT 15SM FEW010 SCT021 SCT062 BKN098 20/18 A2968 RMK SF1SC2SC1AC2 SLP050
CYYG;2003-08-17 07:00;METAR CYYG 170700Z 21010KT 15SM BKN008 20/18 A2969 RMK SF6 SLP054
CYYG;2003-08-17 08:00;METAR CYYG 170800Z 21012G17KT 15SM OVC010 20/18 A2970 RMK SC8 SLP056
CYYG;2003-08-17 09:00;METAR CYYG 170900Z 22009G16KT 10SM OVC010 20/18 A2971 RMK SC8 SLP061 SLP076
CYYG;2003-08-17 12:00;METAR CYYG 171200Z 24007KT 6SM BR BKN006 OVC021 20/18 A2977 RMK SF5SC3 SLP079
CYYG;2003-08-17 13:00;METAR CYYG 171300Z 25010G16KT 6SM BR OVC010 21/18 A2977 RMK SF8 CIG RAG SLP081 SLP102 SLP107 CIG RAG SLP113 CIG RAG SLP118 CIG RAG SLP122 SLP132
CYYG;2003-08-17 22:00;METAR CYYG 172200Z 35008G15KT 12SM FEW011 OVC021 16/14 A2993 RMK SC2SC6 SLP137 SLP142
CYYG;2003-08-18 00:00;METAR CYYG 180000Z 36009KT 15SM FEW014 BKN021 16/13 A2995 RMK SC2SC6 SLP143
CYYG;2003-08-18 01:00;METAR CYYG 180100Z 01009KT 15SM FEW014 BKN020 16/13 A2996 RMK SC1SC6 SLP144
CYYG;2003-08-18 02:00;METAR CYYG 180200Z 02008KT 15SM BKN018 15/13 A2997 RMK SC7 SLP149
CYYG;2003-08-18 03:00;METAR CYYG 180300Z 03007KT 15SM FEW017 15/12 A2997 RMK SC2 SLP148
CYYG;2003-08-18 04:00;METAR CYYG 180400Z 02004KT 15SM BKN022 BKN220 14/12 A2997 RMK SC6CI0 SLP150
CYYG;2003-08-18 05:00;METAR CYYG 180500Z 01004KT 15SM BKN020 14/13 A2997 RMK SC6 SLP150
CYYG;2003-08-18 06:00;METAR CYYG 180600Z 01006KT 15SM BKN013 BKN025 BKN230 14/13 A2997 RMK SC5SC2CI1 SLP148
CYYG;2003-08-18 07:00;METAR CYYG 180700Z 02005KT 15SM BKN015 OVC230 14/13 A2996 RMK SC6CI0 SLP146
CYYG;2003-08-18 08:00;METAR CYYG 180800Z 01005KT 15SM FEW017 BKN035 14/13 A2996 RMK SC2SC6 SLP147
CYYG;2003-08-18 09:00;METAR CYYG 180900Z 02006KT 15SM -SHRA BKN017 OVC033 14/13 A2996 RMK SC6SC2
CYYG;2003-08-18 10:00;METAR CYYG 181000Z 02007KT 12SM -SHRA FEW009 OVC015 14/13 A2997 RMK SF2SC6
CYYG;2003-08-18 11:00;METAR CYYG 181100Z 02008G15KT 12SM -SHRA FEW009 OVC017 14/13 A2998 RMK SF1SC7 SLP153
CYYG;2003-08-18 12:00;METAR CYYG 181200Z 02007KT 15SM VCSH OVC017 15/12 A2999 RMK SC8 SLP156
CYYG;2003-08-18 13:00;METAR CYYG 181300Z 02011KT 12SM -SHRA OVC014 14/12 A3001 RMK SC8 SLP163
CYYG;2003-08-18 14:00;METAR CYYG 181400Z 02008G16KT 15SM -SHRA OVC017 15/13 A3001 RMK SC8 SLP164
CYYG;2003-08-18 15:00;METAR CYYG 181500Z 02009KT 15SM VCSH BKN020 15/12 A3002 RMK SC7 SLP166
CYYG;2003-08-18 16:00;METAR CYYG 181600Z 02015KT 15SM BKN022 BKN120 16/10 A3001 RMK SC5AC2 SLP162
CYYG;2003-08-18 17:00;METAR CYYG 181700Z 36011G18KT 15SM SCT024 BKN120 BKN250 17/10 A3001 RMK SC3AC2CI1 SLP163
CYYG;2003-08-18 18:00;METAR CYYG 181800Z 01013G19KT 15SM FEW028 SCT120 BKN250 17/10 A3002 RMK SC2AC2CI1 SLP166
CYYG;2003-08-18 19:00;METAR CYYG 181900Z 36010G16KT 15SM FEW028 SCT120 BKN250 17/11 A3001 RMK SC2AC1CI1 SLP164
CYYG;2003-08-18 20:00;METAR CYYG 182000Z 36009KT 15SM FEW027 SCT250 17/10 A3001 RMK SC2CI0 SLP163
CYYG;2003-08-18 21:00;METAR CYYG 182100Z 36008KT 15SM FEW027 FEW250 17/11 A3001 RMK SC2CI0
CYYG;2003-08-18 22:00;METAR CYYG 182200Z 35007KT 15SM FEW027 FEW250 16/10 A3001 RMK SC1CI0 SLP164
CYYG;2003-08-18 23:00;METAR CYYG 182300Z 33003KT 15SM SKC 14/11 A3002 RMK SLP165
CYYG;2003-08-19 00:00;METAR CYYG 190000Z 31003KT 15SM SKC 13/10 A3003 RMK SLP170
CYYG;2003-08-19 01:00;METAR CYYG 190100Z 29004KT 15SM SKC 12/09 A3004 RMK SLP172
CYYG;2003-08-19 02:00;METAR CYYG 190200Z 29003KT 15SM SKC 11/09 A3003 RMK SLP171
CYYG;2003-08-19 03:00;METAR CYYG 190300Z 28003KT 15SM SKC 09/08 A3003 RMK SLP170
CYYG;2003-08-19 04:00;METAR CYYG 190400Z 28005KT 15SM SKC 10/08 A3003 RMK SLP170
CYYG;2003-08-19 05:00;METAR CYYG 190500Z 27005KT 15SM SKC 11/09 A3003 RMK SLP169
CYYG;2003-08-19 06:00;METAR CYYG 190600Z 26004KT 15SM SKC 09/08 A3001 RMK SLP164
CYYG;2003-08-19 07:00;METAR CYYG 190700Z 26004KT 15SM SKC 12/09 A3001 RMK SLP162
CYYG;2003-08-19 08:00;METAR CYYG 190800Z 24004KT 15SM SKC 12/09 A3001 RMK SLP162
CYYG;2003-08-19 09:00;METAR CYYG 190900Z 21004KT 15SM SKC 10/09 A3000 RMK SLP159
CYYG;2003-08-19 10:00;METAR CYYG 191000Z 23006KT 15SM SKC 13/12 A3000 RMK SLP158
CYYG;2003-08-19 11:00;METAR CYYG 191100Z 24006KT 15SM FEW260 14/12 A3001 RMK CI0 SLP161
CYYG;2003-08-19 12:00;METAR CYYG 191200Z 25004KT 15SM FEW120 FEW260 16/14 A3001 RMK AC1CI0 SLP161
CYYG;2003-08-19 13:00;METAR CYYG 191300Z 25005KT 15SM FEW120 FEW260 19/15 A2999 RMK AC1CI0 SLP155
CYYG;2003-08-19 14:00;METAR CYYG 191400Z 25006KT 15SM FEW120 FEW260 21/15 A2998 RMK AC1CI0 SLP154
CYYG;2003-08-19 15:00;METAR CYYG 191500Z 25009KT 15SM FEW120 FEW260 22/13 A2996 RMK AC1CI0 SLP145
CYYG;2003-08-19 16:00;METAR CYYG 191600Z 24011KT 15SM FEW120 FEW260 23/12 A2993 RMK AC1CI0 SLP137
CYYG;2003-08-19 17:00;METAR CYYG 191700Z 24011KT 15SM FEW150 SCT260 23/14 A2993 RMK AC2CI1 SLP136
CYYG;2003-08-19 18:00;METAR CYYG 191800Z 24012G18KT 15SM FEW150 SCT260 24/15 A2992 RMK AC1CI1 SLP132
CYYG;2003-08-19 19:00;METAR CYYG 191900Z 26011G18KT 15SM FEW150 SCT260 25/15 A2990 RMK AC1CI0 SLP124
CYYG;2003-08-19 20:00;METAR CYYG 192000Z 24011G17KT 15SM FEW150 SCT260 25/14 A2987 RMK AC1CI1 SLP116
CYYG;2003-08-19 21:00;METAR CYYG 192100Z 25011KT 15SM FEW150 SCT260 25/15 A2986 RMK AC1CI1 SLP112
CYYG;2003-08-19 22:00;METAR CYYG 192200Z 25012G17KT 15SM FEW150 SCT260 23/15 A2987 RMK AC1CI1 SLP114
CYYG;2003-08-19 23:00;METAR CYYG 192300Z 25007KT 15SM FEW240 22/14 A2987 RMK CI1 SLP114
CYYG;2003-08-20 00:00;METAR CYYG 200000Z 25010G15KT 15SM FEW240 21/14 A2987 RMK CI1 SLP116
CYYG;2003-08-20 01:00;METAR CYYG 200100Z 25010KT 15SM SKC 20/14 A2988 RMK SLP119
CYYG;2003-08-20 02:00;METAR CYYG 200200Z 25009KT 15SM SKC 19/14 A2988 RMK SLP118
CYYG;2003-08-20 03:00;METAR CYYG 200300Z 25009KT 15SM SKC 19/14 A2987 RMK SLP113
CYYG;2003-08-20 04:00;METAR CYYG 200400Z 25008KT 15SM FEW130 18/15 A2986 RMK AC1 SLP111
CYYG;2003-08-20 05:00;METAR CYYG 200500Z 25008KT 15SM FEW130 18/15 A2986 RMK AC2 SLP112
CYYG;2003-08-20 06:00;METAR CYYG 200600Z 27008KT 15SM FEW130 18/15 A2987 RMK AC2 SLP113
CYYG;2003-08-20 07:00;METAR CYYG 200700Z 27006KT 15SM FEW130 18/15 A2986 RMK AC2 SLP112
CYYG;2003-08-20 08:00;METAR CYYG 200800Z 29009KT 15SM FEW130 19/15 A2987 RMK AC2 SLP113
CYYG;2003-08-20 09:00;METAR CYYG 200900Z 29009KT 15SM FEW130 19/16 A2988 RMK AC2 SLP117
CYYG;2003-08-20 10:00;METAR CYYG 201000Z 30007KT 15SM FEW250 19/16 A2990 RMK CI2 SLP123
CYYG;2003-08-20 11:00;METAR CYYG 201100Z 32008KT 15SM SCT250 19/17 A2992 RMK CI2 SLP131
CYYG;2003-08-20 12:00;METAR CYYG 201200Z 33009KT 15SM SCT250 21/17 A2993 RMK CI1 SLP136
CYYG;2003-08-20 13:00;METAR CYYG 201300Z 34008KT 15SM FEW250 22/17 A2993 RMK CI1 SLP137
CYYG;2003-08-20 14:00;METAR CYYG 201400Z 35011KT 15SM SCT250 23/16 A2994 RMK CI2 HZ ALF SLP138
CYYG;2003-08-20 15:00;METAR CYYG 201500Z 34011G17KT 15SM SCT250 23/15 A2995 RMK CI2 HZ ALF SLP143
CYYG;2003-08-20 16:00;METAR CYYG 201600Z 34009KT 15SM BKN250 24/15 A2995 RMK CI2 HZ ALF SLP143
CYYG;2003-08-20 17:00;METAR CYYG 201700Z 01009KT 15SM BKN250 24/13 A2996 RMK CI2 SLP144
CYYG;2003-08-20 18:00;METAR CYYG 201800Z 34005KT 15SM BKN250 25/14 A2996 RMK CI2 SLP144
CYYG;2003-08-20 19:00;METAR CYYG 201900Z 36007KT 15SM FEW040 BKN250 24/13 A2996 RMK CU1CI1 SLP146
CYYG;2003-08-20 20:00;METAR CYYG 202000Z 02006KT 15SM SCT250 24/12 A2995 RMK CI1 SLP142
CYYG;2003-08-20 21:00;METAR CYYG 202100Z 03002KT 15SM BKN250 24/13 A2995 RMK CI2 SLP142
CYYG;2003-08-20 22:00;METAR CYYG 202200Z 14004KT 15SM BKN250 23/14 A2996 RMK CI2 SLP144
CYYG;2003-08-20 23:00;METAR CYYG 202300Z 14002KT 15SM BKN250 21/14 A2996 RMK CI2 SLP146
CYYG;2003-08-21 00:00;METAR CYYG 210000Z 22004KT 15SM BKN250 20/14 A2998 RMK CI2 SLP152
CYYG;2003-08-21 01:00;METAR CYYG 210100Z 23004KT 15SM SCT250 19/15 A2999 RMK CI2 SLP155
CYYG;2003-08-21 03:00;METAR CYYG 210300Z 17003KT 15SM FEW069 FEW250 17/15 A2999 RMK AC1CI1 SLP155
CYYG;2003-08-21 04:00;METAR CYYG 210400Z 05002KT 15SM FEW059 BKN250 15/14 A3000 RMK SC2CI2 SLP160
CYYG;2003-08-21 05:00;METAR CYYG 210500Z 09003KT 15SM FEW060 SCT250 16/14 A3001 RMK SC1CI2 SLP161
CYYG;2003-08-21 06:00;METAR CYYG 210600Z 13006KT 15SM FEW060 FEW250 16/15 A3000 RMK SC1CI1
CYYG;2003-08-21 07:00;METAR CYYG 210700Z 10002KT 15SM FEW060 15/14 A3001 RMK SC1 SLP162
CYYG;2003-08-21 08:00;METAR CYYG 210800Z 18002KT 15SM FEW060 SCT250 16/13 A3001 RMK SC1CI2 SLP162
CYYG;2003-08-21 09:00;METAR CYYG 210900Z 00000KT 15SM BKN250 14/12 A3002 RMK CI5 SLP166
CYYG;2003-08-21 10:00;METAR CYYG 211000Z 08002KT 15SM BKN250 13/12 A3004 RMK CI2 SLP173
CYYG;2003-08-21 11:00;METAR CYYG 211100Z 14003KT 15SM BKN250 17/13 A3005 RMK CI2 SLP176
CYYG;2003-08-21 12:00;METAR CYYG 211200Z 14004KT 15SM SCT250 20/15 A3005 RMK CI2 SLP176
CYYG;2003-08-21 13:00;METAR CYYG 211300Z 13006KT 15SM SCT250 22/15 A3005 RMK CI2 SLP176
CYYG;2003-08-21 14:00;METAR CYYG 211400Z 15006KT 15SM SCT250 23/15 A3004 RMK CI2 SLP173
CYYG;2003-08-21 15:00;METAR CYYG 211500Z 15005KT 15SM FEW250 24/16 A3003 RMK CI2 SLP170
CYYG;2003-08-21 16:00;METAR CYYG 211600Z 15005KT 15SM FEW250 25/16 A3002 RMK CI2 SLP165
CYYG;2003-08-21 17:00;METAR CYYG 211700Z 17006KT 15SM SCT250 26/17 A3000 RMK CI2 SLP160
CYYG;2003-08-21 18:00;METAR CYYG 211800Z 15005KT 15SM FEW050 BKN250 26/17 A2998 RMK SC2CI2 SLP154
CYYG;2003-08-21 19:00;METAR CYYG 211900Z 13006KT 15SM BKN042 BKN250 25/16 A2998 RMK SC5CI2 SLP151
CYYG;2003-08-21 20:00;METAR CYYG 212000Z 13007KT 15SM SCT042 BKN250 25/17 A2997 RMK SC3CI2 SLP148
CYYG;2003-08-21 21:00;METAR CYYG 212100Z 13007KT 15SM FEW042 BKN250 25/16 A2996 RMK SC1CI2 SLP144
CYYG;2003-08-21 22:00;METAR CYYG 212200Z 14006KT 15SM FEW080 BKN250 23/16 A2995 RMK AC2CI2 SLP142
CYYG;2003-08-21 23:00;METAR CYYG 212300Z 14004KT 10SM BKN250 21/15 A2995 RMK CI5 HAZY SLP142
CYYG;2003-08-22 00:00;METAR CYYG 220000Z 14006KT 10SM SCT120 OVC250 20/16 A2995 RMK AC3CI3 HAZY SLP142
CYYG;2003-08-22 01:00;METAR CYYG 220100Z 14005KT 15SM SCT120 OVC250 20/16 A2994 RMK AC4CI3 SLP140
CYYG;2003-08-22 03:00;METAR CYYG 220300Z 19008KT 15SM SCT083 BKN092 22/17 A2991 RMK AC4AC3 SLP128
CYYG;2003-08-22 04:00;METAR CYYG 220400Z 19007KT 15SM FEW080 BKN130 20/17 A2991 RMK AC2AC4 SLP127
CYYG;2003-08-22 05:00;METAR CYYG 220500Z 20007KT 15SM SCT140 BKN250 20/17 A2990 RMK AC3CI1 SLP123
CYYG;2003-08-22 06:00;METAR CYYG 220600Z 19008KT 15SM FEW140 BKN250 20/17 A2988 RMK AC2CI1 SLP118
CYYG;2003-08-22 07:00;METAR CYYG 220700Z 19010KT 15SM FEW140 SCT250 19/16 A2987 RMK AC1CI1 SLP113
CYYG;2003-08-22 08:00;METAR CYYG 220800Z 21010KT 15SM FEW140 BKN160 20/17 A2986 RMK AC2AC2 SLP111
CYYG;2003-08-22 09:00;METAR CYYG 220900Z 21008KT 15SM BKN130 20/16 A2986 RMK AC6 SLP112
CYYG;2003-08-22 10:00;METAR CYYG 221000Z 20007KT 15SM SCT087 BKN130 OVC250 20/16 A2986 RMK AC4AC3CI0 SLP110
CYYG;2003-08-22 11:00;METAR CYYG 221100Z 20007KT 15SM SCT085 BKN140 BKN250 21/16 A2985 RMK AC3AC2CI1 SLP109
CYYG;2003-08-22 12:00;METAR CYYG 221200Z 20012KT 15SM FEW140 SCT250 22/17 A2983 RMK AC1CI1 SLP100
CYYG;2003-08-22 13:00;METAR CYYG 221300Z 19012KT 15SM SCT250 23/17 A2981 RMK CI1 SLP093
CYYG;2003-08-22 14:00;METAR CYYG 221400Z 20014KT 15SM FEW250 24/19 A2980 RMK CI1 SLP090
CYYG;2003-08-22 15:00;METAR CYYG 221500Z 19014G20KT 15SM FEW250 25/19 A2977 RMK CI1 SLP080
CYYG;2003-08-22 16:00;METAR CYYG 221600Z 21016G21KT 15SM FEW250 26/19 A2975 RMK CI1 SLP073
CYYG;2003-08-22 17:00;METAR CYYG 221700Z 20013G20KT 15SM FEW030 FEW250 27/20 A2972 RMK CF1CI1 TR CF SLP064
CYYG;2003-08-22 18:00;METAR CYYG 221800Z 21018G24KT 15SM FEW030 FEW250 28/19 A2971 RMK CF1CI1 SLP059
CYYG;2003-08-22 19:00;METAR CYYG 221900Z 21017G25KT 15SM FEW040 SCT250 28/19 A2969 RMK CF1CI1 SLP055
CYYG;2003-08-22 20:00;METAR CYYG 222000Z 21012G18KT 15SM FEW050 SCT250 27/20 A2968 RMK CF1CI1 SLP050
CYYG;2003-08-22 21:00;METAR CYYG 222100Z 21015KT 15SM SCT053 BKN250 26/19 A2967 RMK SC4CI1 SLP047
CYYG;2003-08-22 22:00;METAR CYYG 222200Z 19014KT 10SM BKN045 24/19 A2966 RMK CU6 SLP045
CYYG;2003-08-22 23:00;METAR CYYG 222300Z 19015G20KT 6SM HZ FEW045 BKN160 23/19 A2966 RMK CU2AC3 SLP044
CYYG;2003-08-23 00:00;METAR CYYG 230000Z 18013G19KT 6SM HZ FEW160 22/19 A2967 RMK AC2 SLP046
CYYG;2003-08-23 01:00;METAR CYYG 230100Z 19013KT 5SM HZ SKC 21/19 A2968 RMK SLP050
CYYG;2003-08-23 02:00;METAR CYYG 230200Z 19010KT 3SM HZ FEW160 21/19 A2968 RMK HZ1AC2 SLP051
CYYG;2003-08-23 03:00;METAR CYYG 230300Z 20011KT 4SM BR BKN013 21/20 A2967 RMK SC6 SLP048
CYYG;2003-08-23 04:00;METAR CYYG 230400Z 21010KT 4SM BR BKN011 OVC140 21/19 A2965 RMK SC7AC1 SLP041
CYYG;2003-08-23 05:00;METAR CYYG 230500Z 22011KT 3SM BR OVC011 21/20 A2964 RMK SC8 SLP037
CYYG;2003-08-23 06:00;METAR CYYG 230600Z 22012KT 4SM BR OVC009 21/19 A2963 RMK SC8 SLP034
CYYG;2003-08-23 07:00;METAR CYYG 230700Z 22009KT 3SM BR OVC008 21/19 A2961 RMK SC8 SLP027
CYYG;2003-08-23 08:00;METAR CYYG 230800Z 21011KT 3SM BR OVC007 21/19 A2961 RMK SC8 SLP026
CYYG;2003-08-23 09:00;METAR CYYG 230900Z 17002KT 1 1/2SM -TSRA BR BKN006 OVC020CB 20/19 A2959 RMK SC6CB2 CB NE MOVG NE OCNL LTGICCCCG PRES UNSTDY RERA SLP019
CYYG;2003-08-23 10:00;METAR CYYG 231000Z 21012KT 3/4SM TS BR BKN003 OVC020CB 20/19 A2961 RMK SF6CB2 CB MOVG NE RETS OCNL LTGIC SLP028
CYYG;2003-08-23 11:00;METAR CYYG 231100Z 20009KT 1SM -SHRA BR OVC002 20/19 A2960 RMK SF8 RETS SLP023
CYYG;2003-08-23 12:00;METAR CYYG 231200Z 21008KT 2SM -SHRA BR OVC002 20/19 A2959 RMK SF8 SLP020
CYYG;2003-08-23 13:00;METAR CYYG 231300Z 24006KT 3SM -SHRA BR SCT003 BKN012 OVC030 20/19 A2959 RMK SF3SC2SC2 SLP021
CYYG;2003-08-23 14:00;METAR CYYG 231400Z 25008KT 12SM FEW012 BKN051 21/20 A2958 RMK SC2SC6 SLP017
CYYG;2003-08-23 15:00;METAR CYYG 231500Z 25007KT 15SM FEW015 SCT240 23/19 A2957 RMK CF1CI2 SLP014
CYYG;2003-08-23 16:00;METAR CYYG 231600Z 26008KT 15SM FEW015 SCT240 23/18 A2956 RMK CU1CI2 SLP011
CYYG;2003-08-23 17:00;METAR CYYG 231700Z 26009KT 15SM FEW020 BKN240 24/18 A2956 RMK SC2CI2 SLP010
CYYG;2003-08-23 18:00;METAR CYYG 231800Z 25012G19KT 15SM FEW040 BKN240 25/16 A2955 RMK SC2CI2 SLP005
CYYG;2003-08-23 19:00;METAR CYYG 231900Z 25014KT 15SM FEW050 BKN240 25/15 A2954 RMK SC2CI1 SLP003
CYYG;2003-08-23 20:00;METAR CYYG 232000Z 27010KT 15SM SCT050 BKN240 25/12 A2956 RMK SC3CI1 SLP009
CYYG;2003-08-23 21:00;METAR CYYG 232100Z 32010KT 15SM FEW060 SCT240 23/12 A2958 RMK SC2CI1 SLP015
CYYG;2003-08-23 22:00;METAR CYYG 232200Z 34010G16KT 15SM FEW060 BKN075 BKN250 18/13 A2960 RMK CU1AC5CI1 SLP025
CYYG;2003-08-23 23:00;METAR CYYG 232300Z 35002KT 15SM BKN070 17/13 A2963 RMK AC6 SLP033
CYYG;2003-08-24 00:00;METAR CYYG 240000Z 29009KT 15SM BKN067 17/09 A2965 RMK AC6 SLP040
CYYG;2003-08-24 01:00;METAR CYYG 240100Z 29005KT 15SM BKN063 16/09 A2966 RMK SC6 SLP043
CYYG;2003-08-24 02:00;METAR CYYG 240200Z 27004KT 15SM SCT092 15/09 A2965 RMK AC3 SLP040
CYYG;2003-08-24 03:00;METAR CYYG 240300Z 27007KT 15SM FEW095 14/08 A2964 RMK AC2 SLP038
CYYG;2003-08-24 04:00;METAR CYYG 240400Z 26005KT 15SM FEW095 13/08 A2964 RMK AC1 SLP036
CYYG;2003-08-24 05:00;METAR CYYG 240500Z 28006KT 15SM FEW090 11/08 A2963 RMK AC2 SLP035
CYYG;2003-08-24 06:00;METAR CYYG 240600Z 29009G16KT 15SM FEW030 FEW090 11/06 A2964 RMK SC1AC1 SLP037
CYYG;2003-08-24 07:00;METAR CYYG 240700Z 29007KT 15SM FEW045 09/06 A2964 RMK SC2 SLP038
CYYG;2003-08-24 08:00;METAR CYYG 240800Z 29008KT 15SM FEW045 09/05 A2964 RMK SC1 SLP038
CYYG;2003-08-24 09:00;METAR CYYG 240900Z 28005KT 15SM FEW012 SCT045 SCT250 08/05 A2966 RMK SC2SC1CI1 CU ASOCTD OVR WTR SLP043
CYYG;2003-08-24 10:00;METAR CYYG 241000Z 27006KT 15SM SCT018 SCT045 BKN250 09/07 A2966 RMK SC3SC1CI0 SLP046
CYYG;2003-08-24 11:00;METAR CYYG 241100Z 25011KT 15SM VCSH FEW018 BKN040 BKN250 10/08 A2968 RMK SC2SC3CI0 SLP050
CYYG;2003-08-24 12:00;METAR CYYG 241200Z 27010G15KT 15SM FEW018 BKN040 BKN250 11/08 A2967 RMK SC2SC2CI0 SLP049
CYYG;2003-08-24 13:00;METAR CYYG 241300Z 25011KT 15SM FEW021 BKN040 BKN250 12/08 A2967 RMK
CYYG;2003-08-24 14:00;METAR CYYG 241400Z 29011G20KT 15SM BKN040 BKN250 13/07 A2968 RMK SC6CI0 SLP051
CYYG;2003-08-24 15:00;METAR CYYG 241500Z 30010G15KT 15SM BKN056 BKN250 15/07 A2968 RMK SC5CI1 SLP052
CYYG;2003-08-24 16:00;METAR CYYG 241600Z 28009KT 15SM SCT038 BKN056 15/07 A2969 RMK SC3SC2 SLP053
CYYG;2003-08-24 17:00;METAR CYYG 241700Z 31015G20KT 15SM -SHRA SCT038 BKN050 12/08 A2969 RMK SC3SC2 SLP054
CYYG;2003-08-24 18:00;METAR CYYG 241800Z 28007KT 15SM -SHRA SCT040 BKN060 14/08 A2970 RMK SC3SC2 SLP057
CYYG;2003-08-24 19:00;METAR CYYG 241900Z 30009KT 15SM -SHRA SCT040 BKN062 13/08 A2969 RMK SC3SC2 SLP056
CYYG;2003-08-24 20:00;METAR CYYG 242000Z 27009KT 15SM VCSH FEW040 BKN060 BKN240 14/07 A2969 RMK SC2SC3CI0 SLP055
CYYG;2003-08-24 21:00;METAR CYYG 242100Z 28009KT 15SM SCT060 BKN240 15/08 A2969 RMK SC3CI1 SLP055
CYYG;2003-08-24 22:00;METAR CYYG 242200Z 27007G17KT 15SM -SHRA BKN040 BKN085 12/08 A2971 RMK CU5AC1 SLP061
CYYG;2003-08-24 23:00;METAR CYYG 242300Z CCA 27005KT 15SM -SHRA FEW040 BKN058 BKN085 12/09 A2972 RMK CU2SC5AC1 SLP065
CYYG;2003-08-25 00:00;METAR CYYG 250000Z 27008KT 15SM -SHRA SCT045 BKN060 12/08 A2974 RMK CU3SC4 SLP070
CYYG;2003-08-25 01:00;METAR CYYG 250100Z 25007KT 15SM FEW040 BKN060 11/08 A2974 RMK CU2SC5 SLP073
CYYG;2003-08-25 02:00;METAR CYYG 250200Z 27007KT 15SM FEW040 BKN070 10/08 A2974 RMK CU2AC3 SLP072
CYYG;2003-08-25 03:00;METAR CYYG 250300Z 29008KT 15SM SCT070 10/07 A2974 RMK AC4 SLP071
CYYG;2003-08-25 04:00;METAR CYYG 250400Z 29008KT 15SM FEW070 10/07 A2974 RMK AC1 SLP071
CYYG;2003-08-25 05:00;METAR CYYG 250500Z 29007KT 15SM FEW070 10/07 A2973 RMK AC1 SLP068
CYYG;2003-08-25 06:00;METAR CYYG 250600Z 29011KT 15SM SKC 10/06 A2974 RMK SLP070
CYYG;2003-08-25 07:00;METAR CYYG 250700Z 29009KT 15SM SKC 11/07 A2974 RMK SLP070
CYYG;2003-08-25 08:00;METAR CYYG 250800Z 28008KT 15SM FEW080 10/07 A2975 RMK AC2 SLP074
CYYG;2003-08-25 09:00;METAR CYYG 250900Z 27007KT 15SM FEW020 BKN093 10/07 A2976 RMK CU1AC5 SLP077
CYYG;2003-08-25 10:00;METAR CYYG 251000Z 28008KT 15SM SCT084 10/07 A2977 RMK AC3 SLP081
CYYG;2003-08-25 11:00;METAR CYYG 251100Z 29008KT 15SM FEW030 11/08 A2977 RMK SC1 SLP083
CYYG;2003-08-25 12:00;METAR CYYG 251200Z 31010G17KT 15SM FEW030 12/08 A2978 RMK SC1 SLP086
CYYG;2003-08-25 13:00;METAR CYYG 251300Z 31010G16KT 15SM FEW030 14/07 A2980 RMK SC1 SLP092
CYYG;2003-08-25 14:00;METAR CYYG 251400Z 31012G17KT 15SM FEW040 14/06 A2980 RMK CU2 SLP091
CYYG;2003-08-25 15:00;METAR CYYG 251500Z 34011G18KT 15SM FEW040 15/07 A2981 RMK CU2 SLP094
CYYG;2003-08-25 16:00;METAR CYYG 251600Z 29012KT 15SM FEW044 15/06 A2981 RMK CU2 SLP094
CYYG;2003-08-25 17:00;METAR CYYG 251700Z 30012G19KT 15SM FEW044 SCT250 16/05 A2980 RMK CU2CI0 SLP093
CYYG;2003-08-25 18:00;METAR CYYG 251800Z 29012G18KT 15SM FEW048 SCT250 16/04 A2981 RMK CU2CI1 SLP095
CYYG;2003-08-25 19:00;METAR CYYG 251900Z 29013G18KT 15SM FEW048 BKN250 16/04 A2982 RMK CU1CI2 SLP097
CYYG;2003-08-25 20:00;METAR CYYG 252000Z 28009G17KT 15SM FEW250 16/04 A2981 RMK CI1 SLP095
CYYG;2003-08-25 21:00;METAR CYYG 252100Z 29009KT 15SM FEW250 17/04 A2981 RMK CI1 SLP094
CYYG;2003-08-25 22:00;METAR CYYG 252200Z 28005KT 15SM FEW030 FEW150 FEW280 16/05 A2981 RMK CU1AC1CI1 SLP094
CYYG;2003-08-25 23:00;METAR CYYG 252300Z 24004KT 15SM FEW150 FEW280 14/07 A2982 RMK AC1CI1 SLP100
CYYG;2003-08-26 00:00;METAR CYYG 260000Z 24004KT 15SM FEW025 FEW150 FEW280 14/07 A2983 RMK CF1AC1CI1 SLP103
CYYG;2003-08-26 01:00;METAR CYYG 260100Z 23004KT 15SM SKC 13/07 A2984 RMK SLP104
CYYG;2003-08-26 02:00;METAR CYYG 260200Z 27004KT 15SM SKC 12/07 A2984 RMK SLP105
CYYG;2003-08-26 03:00;METAR CYYG 260300Z 29007KT 15SM SKC 12/07 A2984 RMK SLP105
CYYG;2003-08-26 04:00;METAR CYYG 260400Z 29008KT 15SM SKC 12/07 A2984 RMK SLP105
CYYG;2003-08-26 05:00;METAR CYYG 260500Z 29007KT 15SM SKC 11/08 A2984 RMK SLP106
CYYG;2003-08-26 06:00;METAR CYYG 260600Z 31006KT 15SM SKC 11/07 A2985 RMK SLP108
CYYG;2003-08-26 07:00;METAR CYYG 260700Z 29004KT 15SM SKC 09/07 A2986 RMK SLP112
CYYG;2003-08-26 08:00;METAR CYYG 260800Z 29003KT 15SM SKC 09/07 A2986 RMK SLP113
CYYG;2003-08-26 09:00;METAR CYYG 260900Z 28005KT 15SM FEW030 FEW100 FEW300 10/07 A2986 RMK SC1AC1CI1 SLP111
CYYG;2003-08-26 10:00;METAR CYYG 261000Z 29006KT 15SM FEW100 FEW300 11/07 A2987 RMK AC1CI1 SLP115
CYYG;2003-08-26 11:00;METAR CYYG 261100Z 29005KT 15SM FEW100 FEW300 13/08 A2988 RMK AC1CI1 SLP118
CYYG;2003-08-26 12:00;METAR CYYG 261200Z 29005KT 15SM FEW100 FEW300 15/09 A2988 RMK AC1CI1 SLP119
CYYG;2003-08-26 13:00;METAR CYYG 261300Z 28004KT 15SM FEW300 17/08 A2987 RMK CI1 SLP117
CYYG;2003-08-26 14:00;METAR CYYG 261400Z 31008KT 15SM FEW300 18/05 A2987 RMK CI1 SLP117
CYYG;2003-08-26 15:00;METAR CYYG 261500Z 24009KT 15SM FEW030 FEW300 19/11 A2987 RMK CU1CI1
CYYG;2003-08-26 16:00;METAR CYYG 261600Z 24010KT 15SM FEW030 FEW300 19/10 A2986 RMK CU1CI2 SLP111
CYYG;2003-08-26 17:00;METAR CYYG 261700Z 25008KT 15SM FEW030 SCT300 19/08 A2985 RMK CU1CI2 SLP108
CYYG;2003-08-26 18:00;METAR CYYG 261800Z 25007KT 15SM FEW030 SCT300 19/08 A2984 RMK CU1CI3 SLP105
CYYG;2003-08-26 19:00;METAR CYYG 261900Z 23007KT 15SM FEW030 SCT100 BKN300 20/09 A2983 RMK CU1AC2CI2 SLP102
CYYG;2003-08-26 20:00;METAR CYYG 262000Z 20008KT 15SM FEW030 SCT100 BKN300 21/10 A2981 RMK CU2AC2CI2 SLP094
CYYG;2003-08-26 21:00;METAR CYYG 262100Z 20006KT 15SM SCT100 BKN300 20/10 A2980 RMK AC3CI2 SLP092
CYYG;2003-08-26 22:00;METAR CYYG 262200Z 20007KT 15SM FEW100 SCT300 19/11 A2979 RMK AC2CI0 SLP090
CYYG;2003-08-26 23:00;METAR CYYG 262300Z 19007KT 15SM FEW100 FEW300 17/12 A2980 RMK AC1CI0
CYYG;2003-08-27 00:00;METAR CYYG 270000Z 18005KT 15SM FEW100 FEW300 16/11 A2980 RMK AC1CI0 SLP091
CYYG;2003-08-27 01:00;METAR CYYG 270100Z 18004KT 15SM FEW100 FEW300 15/12 A2980 RMK AC1CI0 SLP092
CYYG;2003-08-27 02:00;METAR CYYG 270200Z 18004KT 15SM BKN063 16/13 A2980 RMK SC5 SLP093
CYYG;2003-08-27 03:00;METAR CYYG 270300Z 16004KT 15SM BKN056 15/13 A2978 RMK SC5 SLP086
CYYG;2003-08-27 04:00;METAR CYYG 270400Z 22004KT 15SM FEW056 16/14 A2978 RMK SC2 SLP085
CYYG;2003-08-27 05:00;METAR CYYG 270500Z 21003KT 15SM BKN210 15/13 A2976 RMK CI2 SLP078
CYYG;2003-08-27 06:00;METAR CYYG 270600Z 21005KT 15SM BKN210 15/13 A2976 RMK CI2 SLP079
CYYG;2003-08-27 07:00;METAR CYYG 270700Z 22005KT 15SM FEW063 BKN170 16/13 A2975 RMK SC2AC5 SLP075
CYYG;2003-08-27 08:00;METAR CYYG 270800Z 19005KT 15SM FEW070 BKN160 15/13 A2974 RMK AC2AC5 SLP070
CYYG;2003-08-27 09:00;METAR CYYG 270900Z 19006KT 15SM FEW057 BKN066 BKN160 16/13 A2974 RMK SC2AC4AC2 SLP070
CYYG;2003-08-27 10:00;METAR CYYG 271000Z 17005KT 15SM -SHRA FEW050 BKN068 OVC110 15/14 A2972 RMK SC2AC5AC2 SLP064
CYYG;2003-08-27 11:00;METAR CYYG 271100Z 19008KT 15SM BKN075 OVC120 16/14 A2972 RMK AC6AC2 SLP065
CYYG;2003-08-27 12:00;METAR CYYG 271200Z 20010KT 15SM BKN068 OVC120 16/14 A2972 RMK AC6AC2
CYYG;2003-08-27 13:00;METAR CYYG 271300Z 19012KT 15SM FEW005 BKN068 OVC120 17/16 A2971 RMK SF1AC5AC2 SLP060
CYYG;2003-08-27 14:00;METAR CYYG 271400Z 18012KT 15SM FEW005 BKN062 OVC120 18/15 A2970 RMK SF1SC5AC2 SLP057
CYYG;2003-08-27 15:00;METAR CYYG 271500Z 17013KT 15SM BKN048 OVC120 17/14 A2968 RMK SC6AC2 SLP052
CYYG;2003-08-27 16:00;METAR CYYG 271600Z 18014KT 15SM BKN029 OVC120 18/15 A2965 RMK SC7AC1 SLP042
CYYG;2003-08-27 17:00;METAR CYYG 271700Z 20014KT 15SM BKN021 OVC120 19/15 A2962 RMK SC6AC2 SLP032
CYYG;2003-08-27 18:00;METAR CYYG 271800Z 22011G16KT 15SM OVC021 20/16 A2963 RMK SC8 SLP033
CYYG;2003-08-27 19:00;METAR CYYG 271900Z 23011G16KT 15SM BKN022 21/17 A2963 RMK SC7 SLP033
CYYG;2003-08-27 20:00;METAR CYYG 272000Z 21017KT 15SM SCT025 22/17 A2960 RMK SC4 SLP025
CYYG;2003-08-27 21:00;METAR CYYG 272100Z 20012KT 15SM FEW025 SCT250 22/17 A2960 RMK SC2CI1 SLP023
CYYG;2003-08-27 22:00;METAR CYYG 272200Z 21007KT 15SM BKN034TCU BKN086 21/17 A2961 RMK TCU5AC2 SLP026
CYYG;2003-08-27 23:00;METAR CYYG 272300Z 30007KT 15SM TS VCSH BKN026CB BKN086 20/15 A2962 RMK CB5AC2 LTGCG NE SLP031
CYYG;2003-08-28 00:00;METAR CYYG 280000Z 24004KT 15SM FEW026TCU FEW086 19/16 A2964 RETS RMK TCU1AC1 SLP037
CYYG;2003-08-28 01:00;METAR CYYG 280100Z 25009KT 15SM FEW075 BKN130 20/17 A2965 RMK AC2AC5 SLP041
CYYG;2003-08-28 02:00;METAR CYYG 280200Z 25006KT 15SM FEW075 FEW110 19/15 A2967 RMK AC1AC2 SLP046
CYYG;2003-08-28 03:00;METAR CYYG 280300Z 24004KT 15SM SCT130 17/15 A2969 RMK AC4 SLP053
CYYG;2003-08-28 04:00;METAR CYYG 280400Z 27003KT 15SM FEW130 15/14 A2970 RMK AC2 SLP057
CYYG;2003-08-28 05:00;METAR CYYG 280500Z 23005KT 15SM FEW130 16/14 A2970 RMK AC2 SLP057
CYYG;2003-08-28 06:00;METAR CYYG 280600Z 24005KT 15SM SKC 15/13 A2971 RMK SLP059
CYYG;2003-08-28 07:00;METAR CYYG 280700Z 22006KT 15SM SKC 15/13 A2971 RMK SLP061
CYYG;2003-08-28 08:00;METAR CYYG 280800Z 26005KT 15SM SKC 15/12 A2972 RMK SLP064
CYYG;2003-08-28 09:00;METAR CYYG 280900Z 27008KT 15SM FEW030 FEW300 14/11 A2972 RMK SC1CI0 SLP065
CYYG;2003-08-28 10:00;METAR CYYG 281000Z 25007KT 15SM FEW300 14/11 A2974 RMK CI0 SLP070
CYYG;2003-08-28 11:00;METAR CYYG 281100Z 27010KT 15SM FEW300 15/11 A2976 RMK CI0 SLP076
CYYG;2003-08-28 12:00;METAR CYYG 281200Z 26012G17KT 15SM FEW030 15/10 A2977 RMK CU1 SLP081
CYYG;2003-08-28 13:00;METAR CYYG 281300Z 27018KT 15SM FEW030 16/10 A2978 RMK CU2 SLP084
CYYG;2003-08-28 14:00;METAR CYYG 281400Z 27015KT 15SM FEW030 16/11 A2979 RMK SC2 SLP089
CYYG;2003-08-28 15:00;METAR CYYG 281500Z 27016G21KT 15SM SCT033 17/11 A2980 RMK SC4 SLP093
CYYG;2003-08-28 16:00;METAR CYYG 281600Z 29016G26KT 15SM BKN033 17/10 A2981 RMK SC6 SLP095
CYYG;2003-08-28 17:00;METAR CYYG 281700Z 29014KT 15SM SCT030 19/12 A2981 RMK SC4 SLP095
CYYG;2003-08-28 18:00;METAR CYYG 281800Z 30014G20KT 15SM BKN033 20/11 A2981 RMK SC5 SLP094
CYYG;2003-08-28 19:00;METAR CYYG 281900Z 27012G18KT 15SM BKN045 19/11 A2981 RMK SC6 SLP096
CYYG;2003-08-28 20:00;METAR CYYG 282000Z 28012G21KT 15SM SCT050 20/11 A2981 RMK SC4 SLP096
CYYG;2003-08-28 21:00;METAR CYYG 282100Z 28011G19KT 15SM SCT050 20/11 A2983 RMK SC3 SLP103
CYYG;2003-08-28 22:00;METAR CYYG 282200Z 29010KT 15SM SCT056 19/11 A2985 RMK SC3 SLP108
CYYG;2003-08-28 23:00;METAR CYYG 282300Z 28006KT 15SM SCT060 17/11 A2987 RMK SC3 SLP114
CYYG;2003-08-29 00:00;METAR CYYG 290000Z 27005KT 15SM FEW060 16/11 A2989 RMK SC2 SLP123
CYYG;2003-08-29 01:00;METAR CYYG 290100Z 28007KT 15SM FEW060 15/11 A2991 RMK SC2 SLP129
CYYG;2003-08-29 02:00;METAR CYYG 290200Z 29006KT 15SM FEW060 15/11 A2993 RMK SC2 SLP137
CYYG;2003-08-29 03:00;METAR CYYG 290300Z 30005KT 15SM FEW060 14/10 A2995 RMK SC1 SLP142
CYYG;2003-08-29 04:00;METAR CYYG 290400Z 31009KT 15SM SKC 14/09 A2995 RMK SLP141
CYYG;2003-08-29 05:00;METAR CYYG 290500Z 27006KT 15SM SKC 12/09 A2997 RMK SLP150
CYYG;2003-08-29 06:00;METAR CYYG 290600Z 28007KT 15SM SKC 12/09 A2999 RMK SLP157
CYYG;2003-08-29 07:00;METAR CYYG 290700Z 29009KT 15SM SKC 13/09 A3001 RMK SLP164
CYYG;2003-08-29 08:00;METAR CYYG 290800Z 28006KT 15SM SKC 12/09 A3002 RMK SLP166
CYYG;2003-08-29 09:00;METAR CYYG 290900Z 29008KT 15SM FEW200 11/09 A3003 RMK CI1 SLP169
CYYG;2003-08-29 10:00;METAR CYYG 291000Z 29009KT 15SM FEW030 FEW250 11/09 A3005 RMK SC1CI1 SLP176
CYYG;2003-08-29 11:00;METAR CYYG 291100Z 30010G15KT 15SM FEW030 FEW250 12/09 A3006 RMK SC1CI1 SLP179
CYYG;2003-08-29 12:00;METAR CYYG 291200Z 31010G15KT 15SM FEW030 FEW250 13/09 A3007 RMK SC1CI1 SLP182
CYYG;2003-08-29 13:00;METAR CYYG 291300Z 31009KT 15SM FEW030 FEW120 FEW250 14/09 A3007 RMK SC1AC1CI0 SLP184
CYYG;2003-08-29 14:00;METAR CYYG 291400Z 28008KT 15SM FEW030 SCT250 16/09 A3008 RMK SC1CI1 SLP185
CYYG;2003-08-29 15:00;METAR CYYG 291500Z 25011KT 15SM FEW030 FEW120 BKN350 16/09 A3008 RMK SC1AC1CI2 SLP187
CYYG;2003-08-29 16:00;METAR CYYG 291600Z 27010G15KT 15SM FEW030 FEW120 BKN350 17/09 A3008 RMK SC1AC1CI2 SLP185
CYYG;2003-08-29 17:00;METAR CYYG 291700Z 25009KT 15SM FEW030 FEW120 BKN350 17/09 A3007 RMK SC1AC1CI2 SLP184
CYYG;2003-08-29 18:00;METAR CYYG 291800Z 26010KT 15SM FEW030 FEW120 OVC350 17/09 A3007 RMK SC1AC2CS4 SLP182
CYYG;2003-08-29 19:00;METAR CYYG 291900Z 24010G15KT 15SM FEW030 SCT140 BKN350 18/08 A3006 RMK SC1AC3CS2 SLP179
CYYG;2003-08-29 20:00;METAR CYYG 292000Z 25007KT 15SM FEW030 BKN150 BKN350 18/09 A3005 RMK SC1AC7CI1 SLP176
CYYG;2003-08-29 21:00;METAR CYYG 292100Z 24005KT 15SM FEW160 BKN280 18/10 A3004 RMK AC2CS6 SLP174
CYYG;2003-08-29 22:00;METAR CYYG 292200Z 23008KT 15SM FEW130 OVC280 17/09 A3003 RMK AC2CS5 SLP170
CYYG;2003-08-29 23:00;METAR CYYG 292300Z 23007KT 15SM FEW130 SCT180 OVC280 17/08 A3004 RMK AC2AC2CS5 SLP174
CYYG;2003-08-30 00:00;METAR CYYG 300000Z 20008KT 15SM BKN170 OVC280 16/09 A3002 RMK AC6CS2 SLP167
CYYG;2003-08-30 01:00;METAR CYYG 300100Z 22010G16KT 15SM OVC170 17/09 A3002 RMK AC8 SLP166
CYYG;2003-08-30 02:00;METAR CYYG 300200Z 21011KT 15SM OVC160 17/10 A3000 RMK AC8 SLP160
CYYG;2003-08-30 03:00;METAR CYYG 300300Z 20011KT 15SM OVC130 16/10 A2998 RMK AC8 SLP153
CYYG;2003-08-30 04:00;METAR CYYG 300400Z 19012KT 15SM OVC120 16/12 A2995 RMK AC8 SLP143
CYYG;2003-08-30 05:00;METAR CYYG 300500Z 21011G16KT 15SM FEW060 OVC120 16/11 A2993 RMK SC2AC6 SLP137
CYYG;2003-08-30 06:00;METAR CYYG 300600Z 22014G19KT 15SM FEW060 OVC120 17/12 A2991 RMK SC2AC6 SLP130
CYYG;2003-08-30 07:00;METAR CYYG 300700Z 21018KT 15SM BKN040 OVC060 17/13 A2989 RMK SC5SC3 SLP122
CYYG;2003-08-30 08:00;METAR CYYG 300800Z 22014G21KT 15SM -SHRA OVC038 17/14 A2989 RMK SC8 SLP122
CYYG;2003-08-30 09:00;METAR CYYG 300900Z 22015KT 15SM -SHRA OVC025 17/15 A2989 RMK SC8 SLP122
CYYG;2003-08-30 10:00;METAR CYYG 301000Z 22014KT 15SM BKN014 OVC020 17/15 A2990 RMK SC6SC2 SLP125
CYYG;2003-08-30 11:00;METAR CYYG 301100Z 22010G17KT 15SM OVC011 17/15 A2990 RMK SC8 SLP124
CYYG;2003-08-30 12:00;METAR CYYG 301200Z 22015KT 15SM -SHRA OVC009 17/15 A2989 RMK SC8 SLP121
CYYG;2003-08-30 13:00;METAR CYYG 301300Z 21010KT 15SM OVC010 17/16 A2988 RMK SC8 SLP118
CYYG;2003-08-30 15:00;METAR CYYG 301500Z CCA 23010KT 15SM OVC010 19/17 A2986 RMK SC8 SLP112
CYYG;2003-08-30 16:00;METAR CYYG 301600Z 22011KT 15SM OVC008 19/17 A2985 RMK SC8 SLP107
CYYG;2003-08-30 17:00;METAR CYYG 301700Z 23010KT 15SM -SHRA FEW005 OVC008 19/17 A2984 RMK SF1SC8 SLP104
CYYG;2003-08-30 18:00;METAR CYYG 301800Z 23008KT 5SM -SHRA BR OVC005 19/18 A2984 RMK SF8 SLP104
CYYG;2003-08-30 19:00;METAR CYYG 301900Z 23008KT 10SM BKN003 OVC050 19/18 A2983 RMK SF7SC1 SLP101
CYYG;2003-08-30 20:00;METAR CYYG 302000Z 25009G15KT 12SM BKN006 BKN067 OVC200 20/19 A2984 RMK SF5AC2CS2 SLP105
CYYG;2003-08-30 21:00;METAR CYYG 302100Z 27006KT 15SM FEW010 FEW030TCU SCT055 OVC200 20/18 A2986 RMK SF1TCU2SC2CS5 LN TCU W-N SLP111
CYYG;2003-08-30 22:00;METAR CYYG 302200Z 36009KT 15SM FEW010 SCT020 OVC048 17/14 A2991 RMK SC2SC2SC5 SLP130
CYYG;2003-08-30 23:00;METAR CYYG 302300Z 36008KT 15SM BKN050 OVC120 16/12 A2994 RMK SC6AC2 SLP140
CYYG;2003-08-31 00:00;METAR CYYG 310000Z 35010G15KT 15SM SCT050 BKN120 OVC210 15/11 A2999 RMK SC3AC2CI3 SLP156
CYYG;2003-08-31 01:00;METAR CYYG 310100Z 35009G15KT 15SM FEW050 BKN220 15/09 A3001 RMK SC2CI5 SLP161
CYYG;2003-08-31 02:00;METAR CYYG 310200Z 35011G16KT 15SM FEW050 BKN220 15/08 A3003 RMK SC2CI4 SLP168
CYYG;2003-08-31 03:00;METAR CYYG 310300Z 34009KT 15SM BKN050 BKN220 14/08 A3005 RMK SC5CI2 SLP175
CYYG;2003-08-31 04:00;METAR CYYG 310400Z 33008KT 15SM BKN050 BKN220 13/08 A3006 RMK SC5CI2 SLP179
CYYG;2003-08-31 05:00;METAR CYYG 310500Z 30005KT 15SM SCT050 BKN220 12/07 A3007 RMK SC3CI2 SLP183
CYYG;2003-08-31 06:00;METAR CYYG 310600Z 29005KT 15SM FEW050 SCT220 10/07 A3008 RMK SC2CI2 SLP188
CYYG;2003-08-31 07:00;METAR CYYG 310700Z 29006KT 15SM FEW050 FEW220 10/07 A3009 RMK SC2CI1 SLP191
CYYG;2003-08-31 08:00;METAR CYYG 310800Z 31007KT 15SM SKC 10/07 A3010 RMK SLP193
CYYG;2003-08-31 09:00;METAR CYYG 310900Z 31005KT 15SM SKC 09/07 A3011 RMK SLP198
CYYG;2003-08-31 10:00;METAR CYYG 311000Z 31006KT 15SM FEW030 FEW300 10/08 A3014 RMK SC1CI0 SLP207
CYYG;2003-08-31 11:00;METAR CYYG 311100Z 31006KT 15SM FEW030 FEW300 12/10 A3017 RMK CU1CI0 SLP216
CYYG;2003-08-31 12:00;METAR CYYG 311200Z 32009KT 15SM FEW030 FEW300 14/11 A3018 RMK CU1CI0 SLP222
CYYG;2003-08-31 13:00;METAR CYYG 311300Z 33007KT 15SM FEW030 FEW300 15/11 A3019 RMK CU1CI0 SLP223
CYYG;2003-08-31 14:00;METAR CYYG 311400Z 31006KT 15SM FEW030 FEW300 17/10 A3020 RMK CU1CI0 SLP228
CYYG;2003-08-31 15:00;METAR CYYG 311500Z 34006KT 15SM FEW034 SCT300 17/09 A3020 RMK CU1CI1 SLP229
CYYG;2003-08-31 16:00;METAR CYYG 311600Z 29010KT 15SM FEW047 BKN300 18/08 A3019 RMK CU1CI1 SLP225
CYYG;2003-08-31 17:00;METAR CYYG 311700Z 28004KT 15SM FEW047 BKN300 19/07 A3018 RMK CU1CI2 SLP221
CYYG;2003-08-31 18:00;METAR CYYG 311800Z 29007KT 15SM FEW047 BKN300 19/09 A3017 RMK CU1CI2 SLP219
CYYG;2003-08-31 19:00;METAR CYYG 311900Z 30009KT 15SM FEW045 BKN300 19/08 A3018 RMK CU1CI2
CYYG;2003-08-31 20:00;METAR CYYG 312000Z 32010KT 15SM FEW045 BKN300 19/08 A3018 RMK CU1CI2
CYYG;2003-08-31 21:00;METAR CYYG 312100Z 33003KT 15SM FEW045 BKN300 18/08 A3018 RMK SC1CI2 SLP220
CYYG;2003-08-31 22:00;METAR CYYG 312200Z 07003KT 15SM FEW045 BKN300 17/10 A3017 RMK SC1CI2
CYYG;2003-08-31 23:00;METAR CYYG 312300Z 15002KT 15SM FEW045 BKN300 15/10 A3018 RMK SC1CI2
CYYG;2003-09-01 00:00;METAR CYYG 010000Z 21004KT 15SM BKN300 15/09 A3018 RMK CI2 SLP221
CYYG;2003-09-01 01:00;METAR CYYG 010100Z 23005KT 15SM BKN300 14/09 A3018 RMK CI2 SLP221
CYYG;2003-09-01 02:00;METAR CYYG 010200Z 23005KT 15SM SCT300 14/10 A3017 RMK CI2 SLP218
CYYG;2003-09-01 03:00;METAR CYYG 010300Z 24004KT 15SM SKC 13/10 A3017 RMK SLP219
CYYG;2003-09-01 04:00;METAR CYYG 010400Z 24005KT 15SM SKC 13/10 A3018 RMK SLP220
CYYG;2003-09-01 05:00;METAR CYYG 010500Z 25007KT 15SM SKC 12/11 A3017 RMK SLP217
CYYG;2003-09-01 06:00;METAR CYYG 010600Z 25006KT 15SM SKC 12/11 A3016 RMK SLP213
CYYG;2003-09-01 07:00;METAR CYYG 010700Z 24004KT 15SM SKC 12/11 A3015 RMK SLP210
CYYG;2003-09-01 08:00;METAR CYYG 010800Z 24005KT 15SM SKC 12/11 A3014 RMK SLP209
CYYG;2003-09-01 09:00;METAR CYYG 010900Z 24005KT 15SM BKN250 12/11 A3014 RMK CI7 SLP206
CYYG;2003-09-01 10:00;METAR CYYG 011000Z 24005KT 15SM FEW100 BKN300 13/11 A3013 RMK AC1CI2 SLP204
CYYG;2003-09-01 11:00;METAR CYYG 011100Z 23006KT 15SM FEW120 BKN300 14/12 A3013 RMK AC1CI2 SLP203
CYYG;2003-09-01 12:00;METAR CYYG 011200Z 23008KT 15SM BKN300 15/12 A3012 RMK CS3 SLP199
CYYG;2003-09-01 13:00;METAR CYYG 011300Z 24009KT 15SM BKN260 16/12 A3010 RMK CS3 SLP193
CYYG;2003-09-01 14:00;METAR CYYG 011400Z 26010KT 15SM BKN260 18/12 A3009 RMK CS3 SLP192
CYYG;2003-09-01 15:00;METAR CYYG 011500Z 25013G18KT 15SM BKN260 19/12 A3007 RMK CS2 SLP184
CYYG;2003-09-01 16:00;METAR CYYG 011600Z 24012G19KT 15SM FEW040 FEW260 20/13 A3005 RMK CU1CI1 SLP176
CYYG;2003-09-01 17:00;METAR CYYG 011700Z 24014G19KT 15SM FEW040 FEW260 20/12 A3003 RMK CU1CI1 SLP170
CYYG;2003-09-01 18:00;METAR CYYG 011800Z 24014G19KT 15SM FEW040 FEW140 FEW260 21/12 A3000 RMK CU1AC1CI1 SLP160
CYYG;2003-09-01 19:00;METAR CYYG 011900Z 23018KT 15SM FEW040 FEW140 FEW260 21/12 A2998 RMK CU1AC1CI1 SLP154
CYYG;2003-09-01 20:00;METAR CYYG 012000Z 23014G24KT 15SM FEW040 FEW140 FEW260 21/12 A2997 RMK SC1AC1CI1 SLP148
CYYG;2003-09-01 21:00;METAR CYYG 012100Z 24017G22KT 15SM FEW040 FEW140 FEW260 21/11 A2996 RMK SC1AC1CI1 SLP146
CYYG;2003-09-01 22:00;METAR CYYG 012200Z 25010KT 15SM FEW040 SCT140 SCT260 19/12 A2998 RMK SC1AC2CI1 SLP151
CYYG;2003-09-01 23:00;METAR CYYG 012300Z 25013KT 15SM FEW040 SCT120 BKN260 17/11 A2998 RMK SC1AC3CI2 SLP151
CYYG;2003-09-02 00:00;METAR CYYG 020000Z 25013KT 15SM BKN088 BKN260 17/12 A2999 RMK AC5CI2 SLP156
CYYG;2003-09-02 01:00;METAR CYYG 020100Z 29009KT 15SM BKN082 BKN260 16/12 A3003 RMK AC5CI2 SLP168
CYYG;2003-09-02 02:00;METAR CYYG 020200Z 31006KT 15SM FEW040 BKN110 BKN260 15/13 A3003 RMK SC1AC4CI2 SLP168
CYYG;2003-09-02 03:00;METAR CYYG 020300Z 28005KT 15SM BKN100 BKN260 14/13 A3004 RMK AC5CI2 SLP171
CYYG;2003-09-02 04:00;METAR CYYG 020400Z 31009KT 15SM BKN086 14/12 A3004 RMK AC6 SLP172
CYYG;2003-09-02 05:00;METAR CYYG 020500Z 32007KT 15SM BKN085 13/11 A3006 RMK AC6 SLP178
CYYG;2003-09-02 06:00;METAR CYYG 020600Z 31007KT 15SM SCT085 12/09 A3007 RMK AC4 SLP183
CYYG;2003-09-02 07:00;METAR CYYG 020700Z 31007KT 15SM FEW085 12/09 A3008 RMK AC2 SLP187
CYYG;2003-09-02 08:00;METAR CYYG 020800Z 31007KT 15SM FEW080 12/09 A3010 RMK AC2 SLP192
CYYG;2003-09-02 09:00;METAR CYYG 020900Z 33005KT 15SM FEW030 SCT260 10/08 A3010 RMK CU1CI2 SLP193
CYYG;2003-09-02 10:00;METAR CYYG 021000Z 32004KT 15SM FEW030 BKN260 10/07 A3012 RMK SC1CS2 SLP198
CYYG;2003-09-02 11:00;METAR CYYG 021100Z 32004KT 15SM FEW030 BKN260 11/08 A3014 RMK CU1CS2 SLP205
CYYG;2003-09-02 12:00;METAR CYYG 021200Z 31006KT 15SM FEW030 BKN260 13/09 A3015 RMK SC1CS3 SLP210
CYYG;2003-09-02 13:00;METAR CYYG 021300Z 32008KT 15SM FEW030 BKN260 14/09 A3015 RMK CU1CS3 SLP212
CYYG;2003-09-02 14:00;METAR CYYG 021400Z 32011KT 15SM FEW030 BKN260 14/08 A3017 RMK CU1CS3 SLP216
CYYG;2003-09-02 15:00;METAR CYYG 021500Z 33007KT 15SM FEW030 BKN260 15/08 A3017 RMK CU1CS2 SLP217
CYYG;2003-09-02 16:00;METAR CYYG 021600Z 35009KT 15SM FEW030 BKN260 15/09 A3017 RMK CU1CS2 SLP218
CYYG;2003-09-02 17:00;METAR CYYG 021700Z 36008KT 15SM FEW030 BKN260 15/08 A3018 RMK CU1CS2 SLP221
CYYG;2003-09-02 18:00;METAR CYYG 021800Z 35005KT 15SM FEW032 FEW260 16/09 A3017 RMK CU1CS1
CYYG;2003-09-02 19:00;METAR CYYG 021900Z 34007KT 15SM FEW035 FEW260 16/08 A3017 RMK CU1CI1
CYYG;2003-09-02 20:00;METAR CYYG 022000Z 03009KT 15SM FEW035 FEW260 15/08 A3018 RMK CU1CI1 SLP220
CYYG;2003-09-02 21:00;METAR CYYG 022100Z 03008KT 15SM FEW035 FEW260 15/07 A3018 RMK CU1CI1
CYYG;2003-09-02 23:00;METAR CYYG 022300Z 08003KT 15SM FEW260 11/07 A3020 RMK CI1 SLP228
CYYG;2003-09-03 00:00;METAR CYYG 030000Z 08002KT 15SM SKC 08/06 A3022 RMK SLP233
CYYG;2003-09-03 01:00;METAR CYYG 030100Z 13003KT 15SM SKC 09/07 A3021 RMK SLP230
CYYG;2003-09-03 02:00;METAR CYYG 030200Z 18004KT 15SM SKC 10/08 A3021 RMK SLP231
CYYG;2003-09-03 03:00;METAR CYYG 030300Z 15002KT 15SM SKC 09/06 A3021 RMK SLP231
CYYG;2003-09-03 04:00;METAR CYYG 030400Z 16002KT 15SM SKC 08/06 A3022 RMK SLP233
CYYG;2003-09-03 05:00;METAR CYYG 030500Z 17004KT 15SM SKC 09/06 A3021 RMK SLP231
CYYG;2003-09-03 06:00;METAR CYYG 030600Z 22004KT 15SM SKC 10/08 A3021 RMK SLP230
CYYG;2003-09-03 07:00;METAR CYYG 030700Z 21005KT 15SM SKC 11/06 A3020 RMK SLP229
CYYG;2003-09-03 08:00;METAR CYYG 030800Z 23005KT 15SM SKC 10/08 A3020 RMK SLP227
CYYG;2003-09-03 09:00;METAR CYYG 030900Z 25007KT 15SM SKC 10/08 A3020 RMK SLP227
CYYG;2003-09-03 10:00;METAR CYYG 031000Z 27006KT 15SM FEW070 10/08 A3021 RMK AC1 SLP231
CYYG;2003-09-03 11:00;METAR CYYG 031100Z 30003KT 15SM FEW070 12/10 A3023 RMK AC1 SLP236
CYYG;2003-09-03 12:00;METAR CYYG 031200Z 33005KT 15SM FEW070 FEW250 15/12 A3023 RMK AC1CI1 SLP238
CYYG;2003-09-03 13:00;METAR CYYG 031300Z 28004KT 15SM FEW024 FEW070 FEW250 17/10 A3023 RMK SC1AC1CI1 SLP237
CYYG;2003-09-03 14:00;METAR CYYG 031400Z 27005KT 15SM FEW030 FEW070 FEW250 18/09 A3023 RMK CF1AC1CI1 SLP237
CYYG;2003-09-03 15:00;METAR CYYG 031500Z 31003KT 15SM FEW036 FEW250 18/08 A3022 RMK CU2CI0 SLP235
CYYG;2003-09-03 16:00;METAR CYYG 031600Z 29005KT 15SM FEW040 SCT250 18/09 A3021 RMK CU2CI0 SLP231
CYYG;2003-09-03 17:00;METAR CYYG 031700Z 36004KT 15SM FEW046 SCT250 18/10 A3020 RMK CU2CI0 SLP228
CYYG;2003-09-03 18:00;METAR CYYG 031800Z 25007KT 15SM FEW044 SCT250 19/09 A3018 RMK CU2CI1 SLP222
CYYG;2003-09-03 19:00;METAR CYYG 031900Z 24006KT 15SM FEW049 SCT250 20/08 A3018 RMK CU1CI1
CYYG;2003-09-03 20:00;METAR CYYG 032000Z 25003KT 15SM FEW050 FEW250 20/07 A3018 RMK CU1CI0 SLP220
CYYG;2003-09-03 21:00;METAR CYYG 032100Z 19003KT 15SM FEW050 FEW250 20/07 A3018 RMK CU1CI0 SLP221
CYYG;2003-09-03 22:00;METAR CYYG 032200Z 19004KT 15SM FEW050 FEW350 19/07 A3017 RMK SC1CI1 SLP219
CYYG;2003-09-03 23:00;METAR CYYG 032300Z 14003KT 15SM FEW050 FEW350 16/08 A3018 RMK SC1CI1
CYYG;2003-09-04 00:00;METAR CYYG 040000Z 15005KT 15SM FEW050 FEW350 14/08 A3019 RMK SC1CI1 SLP223
CYYG;2003-09-04 01:00;METAR CYYG 040100Z 17008KT 15SM FEW350 14/10 A3018 RMK CI0 SLP222
CYYG;2003-09-04 02:00;METAR CYYG 040200Z 18009KT 15SM FEW350 15/11 A3018 RMK CI1 SLP222
CYYG;2003-09-04 03:00;METAR CYYG 040300Z 21009KT 15SM FEW350 15/09 A3017 RMK CI1 SLP219
CYYG;2003-09-04 04:00;METAR CYYG 040400Z 20007KT 15SM FEW350 13/08 A3017 RMK CI1 SLP217
CYYG;2003-09-04 05:00;METAR CYYG 040500Z 22007KT 15SM FEW350 13/07 A3017 RMK CI1 AURBO SLP217
CYYG;2003-09-04 06:00;METAR CYYG 040600Z 12008KT 15SM FEW350 13/07 A3017 RMK CI1 AURBO SLP218
CYYG;2003-09-04 07:00;METAR CYYG 040700Z 19007KT 15SM SCT350 11/07 A3016 RMK CI1 SLP215
CYYG;2003-09-04 08:00;METAR CYYG 040800Z 17005KT 15SM BKN350 11/09 A3015 RMK CI2 SLP212
CYYG;2003-09-04 09:00;METAR CYYG 040900Z 19006KT 15SM FEW120 BKN200 BKN330 12/10 A3014 RMK AC1CS5CI0 SLP205
CYYG;2003-09-04 10:00;METAR CYYG 041000Z 19008KT 15SM SCT120 BKN200 BKN330 13/11 A3013 RMK AC3CS2CI0 SLP204
CYYG;2003-09-04 11:00;METAR CYYG 041100Z 19009KT 15SM BKN140 BKN170 BKN330 15/12 A3013 RMK AC5AC1CI0 SLP202
CYYG;2003-09-04 12:00;METAR CYYG 041200Z 18011KT 15SM FEW140 BKN330 15/12 A3012 RMK AC2CS2 SLP200
CYYG;2003-09-04 13:00;METAR CYYG 041300Z 17014KT 15SM FEW020 BKN085 BKN330 16/12 A3011 RMK CU1AC5CS1 SLP198
CYYG;2003-09-04 14:00;METAR CYYG 041400Z 16012G17KT 15SM FEW020 FEW083 BKN100 BKN330 17/13 A3009 RMK SC1AC2AC4CS1 SLP190
CYYG;2003-09-04 15:00;METAR CYYG 041500Z 16013KT 15SM FEW030 BKN095 OVC300 17/12 A3006 RMK SC1AC6CS2 SLP181
CYYG;2003-09-04 16:00;METAR CYYG 041600Z 17008KT 10SM -RA BKN027 OVC095 17/14 A3005 RMK SC6AC2 SLP177
CYYG;2003-09-04 17:00;METAR CYYG 041700Z 15008KT 10SM -RA OVC025 16/15 A3003 RMK SC8 SLP170
CYYG;2003-09-04 18:00;METAR CYYG 041800Z 14008KT 6SM -RA BR OVC030 16/15 A3000 RMK SC8 SLP160
CYYG;2003-09-04 20:00;METAR CYYG 042000Z 11011KT 3SM RA BR SCT004 OVC010 15/14 A2990 RMK SF3SF5 /R15/ PRESFR SLP126
CYYG;2003-09-04 21:00;METAR CYYG 042100Z 13014G20KT 15SM -RA OVC007 15/14 A2986 RERA RMK SF8 SLP111
CYYG;2003-09-05 22:00;METAR CYYG 042200Z 18008G16KT 4SM -RA BR OVC005 15/14 A2982 RMK SF8 SLP100
CYYG;2003-09-05 23:00;METAR CYYG 042300Z 16013G20KT 5SM -RA BR BKN006 OVC013 16/15 A2978 RMK SF7NS1 RERA SLP085
CYYG;2003-09-05 00:00;METAR CYYG 050000Z 18013KT 8SM -RA BKN006 OVC014 18/17 A2977 RMK SF6NS2 SLP080
CYYG;2003-09-05 01:00;METAR CYYG 050100Z 18008KT 10SM SCT003 OVC012 18/17 A2977 RMK SF3NS5
CYYG;2003-09-05 02:00;METAR CYYG 050200Z 22005KT 10SM OVC008 19/18 A2976 RMK SF8 SLP077
CYYG;2003-09-05 04:00;METAR CYYG 050400Z 25006KT 3SM -RADZ BR OVC004 18/17 A2975 RMK SF8 SLP073
CYYG;2003-09-05 05:00;METAR CYYG 050500Z 26008KT 3SM -RADZ BR OVC004 18/17 A2975 RMK SF8 SLP073
CYYG;2003-09-05 06:00;METAR CYYG 050600Z 26010KT 5SM -RADZ BR OVC004 17/17 A2976 RMK SF8 SLP078
CYYG;2003-09-05 07:00;METAR CYYG 050700Z 25007KT 6SM -RADZ BR OVC004 17/16 A2977 RMK SF8 SLP080
CYYG;2003-09-05 08:00;METAR CYYG 050800Z 27005KT 8SM -RA BKN005 OVC015 17/16 A2977 RMK SF7NS1 SLP082
CYYG;2003-09-05 10:00;METAR CYYG 051000Z 26004KT 10SM -RA FEW005 BKN015 OVC032 17/16 A2979 RMK SF1SC5SC2 SLP090
CYYG;2003-09-05 11:00;METAR CYYG 051100Z 22005KT 8SM -SHRA OVC006 17/16 A2982 RMK SF8 SLP098
CYYG;2003-09-05 12:00;METAR CYYG 051200Z 24004KT 8SM -SHRA BKN007 OVC015 17/16 A2982 RMK SF6SC2 SLP100
CYYG;2003-09-05 13:00;METAR CYYG 051300Z 24005KT 8SM -RA FEW003 OVC005 17/16 A2985 RMK SF2SF6 SLP107
CYYG;2003-09-05 14:00;METAR CYYG 051400Z 25006KT 10SM -RA BKN005 OVC008 17/16 A2985 RMK SF6SF2 SLP109
CYYG;2003-09-05 16:00;METAR CYYG 051600Z 26007KT 10SM OVC007 17/16 A2986 RMK SF8 SLP111
CYYG;2003-09-05 17:00;METAR CYYG 051700Z 26006KT 12SM OVC004 17/16 A2985 RMK SF8 SLP109
CYYG;2003-09-05 18:00;METAR CYYG 051800Z 22006KT 12SM BKN006 OVC011 18/16 A2984 RMK SF6SF2 SLP105
CYYG;2003-09-05 19:00;METAR CYYG 051900Z 26010KT 15SM FEW008 BKN010 OVC020 18/17 A2984 RMK SF2SC5SC2 SLP105
CYYG;2003-09-05 20:00;METAR CYYG 052000Z 26006KT 15SM FEW009 BKN018 18/16 A2984 RMK SF2SC6 SLP104
CYYG;2003-09-05 21:00;METAR CYYG 052100Z 27003KT 15SM FEW010 FEW022 BKN300 18/17 A2985 RMK SF1SC1CI1 SLP107
CYYG;2003-09-06 00:00;METAR CYYG 060000Z 24004KT 15SM BKN300 16/16 A2988 RMK CI3 SLP119
CYYG;2003-09-06 01:00;METAR CYYG 060100Z 24004KT 15SM BKN300 16/15 A2989 RMK CI3 SLP121
CYYG;2003-09-06 02:00;METAR CYYG 060200Z 27005KT 15SM SCT300 16/16 A2988 RMK CI2 SLP120
CYYG;2003-09-06 03:00;METAR CYYG 060300Z 27004KT 15SM SCT300 15/15 A2989 RMK CI1 SLP121
CYYG;2003-09-06 04:00;METAR CYYG 060400Z 27004KT 1/2SM FG BKN300 14/14 A2989 RMK FG2CI2 SLP122
CYYG;2003-09-06 05:00;METAR CYYG 060500Z 27002KT 2SM BR SCT300 13/13 A2989 RMK FG2CI1 SLP123
CYYG;2003-09-06 06:00;METAR CYYG 060600Z 25006KT 1SM BR SCT300 13/13 A2990 RMK FG2CI1 SLP127
CYYG;2003-09-06 07:00;METAR CYYG 060700Z 25003KT 3/4SM BR SCT300 12/12 A2991 RMK FG2CI1 SLP130
CYYG;2003-09-06 08:00;METAR CYYG 060800Z 24002KT 3/8SM R03/1600FT FG VV001 13/13 A2992 RMK FG8 SLP133
CYYG;2003-09-06 09:00;METAR CYYG 060900Z 29003KT 3/8SM R03/1200FT FG VV001 13/13 A2993 RMK FG8 SLP136
CYYG;2003-09-06 10:00;METAR CYYG 061000Z 27003KT 3/8SM FG VV002 13/13 A2995 RMK FG8 RVR RWY03 1200FT SLP141
CYYG;2003-09-06 11:00;METAR CYYG 061100Z 00000KT 3SM BR OVC006 14/14 A2997 RMK SF8 SLP148
CYYG;2003-09-06 12:00;METAR CYYG 061200Z 31003KT 15SM BKN007 15/14 A2998 RMK SC7 SLP152
CYYG;2003-09-06 13:00;METAR CYYG 061300Z 34003KT 15SM OVC008 16/15 A2998 RMK SC8 SLP151
CYYG;2003-09-06 14:00;METAR CYYG 061400Z 32008KT 15SM BKN014 16/14 A2997 RMK SC7 SLP150
CYYG;2003-09-06 15:00;METAR CYYG 061500Z 29003KT 15SM BKN014 17/14 A2998 RMK SC7 SLP152
CYYG;2003-09-06 16:00;METAR CYYG 061600Z 19003KT 15SM BKN018 18/15 A2997 RMK SC6 SLP148
CYYG;2003-09-06 17:00;METAR CYYG 061700Z 20007KT 15SM BKN020 18/15 A2996 RMK SC6 SLP146
CYYG;2003-09-06 18:00;METAR CYYG 061800Z 19007KT 15SM BKN018 18/15 A2994 RMK SC6 SLP140
CYYG;2003-09-06 19:00;METAR CYYG 061900Z 27008KT 15SM SCT020 20/13 A2993 RMK SC4 SLP137
CYYG;2003-09-06 20:00;METAR CYYG 062000Z 29006KT 15SM FEW025 SCT300 20/13 A2993 RMK SC2CI1 SLP135
CYYG;2003-09-06 21:00;METAR CYYG 062100Z 29006KT 15SM FEW030 FEW300 20/13 A2992 RMK SC2CI1
CYYG;2003-09-06 22:00;METAR CYYG 062200Z 00000KT 15SM FEW030 FEW300 19/13 A2992 RMK SC1CI0 SLP131
CYYG;2003-09-06 23:00;METAR CYYG 062300Z 18004KT 15SM FEW030 FEW300 15/14 A2992 RMK SC1CI0 SLP132
CYYG;2003-09-07 00:00;METAR CYYG 070000Z 20005KT 15SM FEW300 15/14 A2993 RMK CI0 SLP135
CYYG;2003-09-07 01:00;METAR CYYG 070100Z 18004KT 15SM SKC 14/14 A2992 RMK SLP133
CYYG;2003-09-07 02:00;METAR CYYG 070200Z 23005KT 15SM SCT053 15/14 A2993 RMK SC3 SLP134
CYYG;2003-09-07 04:00;METAR CYYG 070400Z 21005KT 15SM SCT055 16/15 A2990 RMK SC4 SLP125
CYYG;2003-09-07 05:00;METAR CYYG 070500Z 23004KT 15SM BKN055 16/15 A2989 RMK SC5 SLP122
CYYG;2003-09-07 06:00;METAR CYYG 070600Z 24004KT 15SM BKN055 15/14 A2987 RMK SC5 SLP115
CYYG;2003-09-07 07:00;METAR CYYG 070700Z 24005KT 15SM SCT055 14/13 A2985 RMK SC4 SLP108
CYYG;2003-09-07 08:00;METAR CYYG 070800Z 24005KT 15SM SCT055 14/13 A2984 RMK SC4 SLP104
CYYG;2003-09-07 09:00;METAR CYYG 070900Z 25007KT 15SM FEW055 SCT300 14/13 A2983 RMK SC2CI0 SLP101
CYYG;2003-09-07 11:00;METAR CYYG 071100Z 26006KT 15SM FEW300 14/13 A2983 RMK CI1 SLP101
CYYG;2003-09-07 12:00;METAR CYYG 071200Z 26008KT 15SM FEW300 16/13 A2982 RMK CI1 SLP100
CYYG;2003-09-07 13:00;METAR CYYG 071300Z 29008KT 15SM FEW300 17/14 A2982 RMK CI2 SLP100
CYYG;2003-09-07 14:00;METAR CYYG 071400Z 28009KT 15SM FEW120 FEW300 19/14 A2982 RMK AC1CI1 SLP099
CYYG;2003-09-07 15:00;METAR CYYG 071500Z 31008KT 15SM FEW120 FEW300 20/14 A2983 RMK AC2CI1
CYYG;2003-09-07 16:00;METAR CYYG 071600Z 32006KT 15SM FEW035 BKN065 21/14 A2981 RMK SC2AC4 SLP095
CYYG;2003-09-07 17:00;METAR CYYG 071700Z 27007KT 15SM FEW035 BKN068 21/14 A2981 RMK SC2AC4 SLP094
CYYG;2003-09-07 18:00;METAR CYYG 071800Z 36007KT 15SM SCT033 BKN068 19/14 A2982 RMK SC4AC2 SLP097
CYYG;2003-09-07 19:00;METAR CYYG 071900Z 35009KT 15SM SCT047 BKN080 20/14 A2981 RMK SC3AC3 SLP096
CYYG;2003-09-07 20:00;METAR CYYG 072000Z 35006KT 15SM BKN045 19/13 A2982 RMK SC7 SLP100
CYYG;2003-09-07 21:00;METAR CYYG 072100Z 35007KT 15SM BKN040 18/13 A2983 RMK SC6 SLP102
CYYG;2003-09-07 22:00;METAR CYYG 072200Z 35004KT 15SM BKN050 17/11 A2984 RMK SC6 SLP106
CYYG;2003-09-07 23:00;METAR CYYG 072300Z 35004KT 15SM BKN059 15/12 A2985 RMK SC7 SLP110
CYYG;2003-09-08 00:00;METAR CYYG 080000Z 35005KT 15SM BKN049 15/12 A2987 RMK SC7 SLP116
CYYG;2003-09-08 01:00;METAR CYYG 080100Z 34003KT 15SM BKN045 BKN078 14/11 A2987 RMK SC5AC2 SLP117
CYYG;2003-09-08 02:00;METAR CYYG 080200Z 31003KT 15SM BKN060 14/12 A2988 RMK SC7 SLP118
CYYG;2003-09-08 03:00;METAR CYYG 080300Z 28002KT 15SM BKN063 14/11 A2988 RMK SC7 SLP120
CYYG;2003-09-08 04:00;METAR CYYG 080400Z 27004KT 15SM BKN063 13/11 A2988 RMK SC6 SLP120
CYYG;2003-09-08 05:00;METAR CYYG 080500Z 29007KT 15SM BKN063 13/10 A2989 RMK SC5 SLP121
CYYG;2003-09-08 06:00;METAR CYYG 080600Z 29007KT 15SM SCT063 12/10 A2989 RMK SC3 SLP122
CYYG;2003-09-08 07:00;METAR CYYG 080700Z 32005KT 15SM FEW060 12/10 A2989 RMK SC2 SLP123
CYYG;2003-09-08 08:00;METAR CYYG 080800Z 30005KT 15SM SKC 11/09 A2990 RMK SLP125
CYYG;2003-09-08 09:00;METAR CYYG 080900Z 30007KT 15SM FEW060 11/09 A2991 RMK SC1 SLP129
CYYG;2003-09-08 10:00;METAR CYYG 081000Z 29007KT 15SM FEW025 11/09 A2993 RMK CU1 SLP135
CYYG;2003-09-08 11:00;METAR CYYG 081100Z 30007KT 15SM FEW025 12/10 A2994 RMK CU1 SLP140
CYYG;2003-09-08 12:00;METAR CYYG 081200Z 31006KT 15SM FEW025 13/11 A2996 RMK SC1 SLP144
CYYG;2003-09-08 13:00;METAR CYYG 081300Z 32009KT 15SM SCT020 SCT350 15/11 A2996 RMK SC3CI0 SLP147
CYYG;2003-09-08 14:00;METAR CYYG 081400Z 32011G16KT 15SM SCT023 SCT350 16/11 A2997 RMK CU4CI1 SLP150
CYYG;2003-09-08 15:00;METAR CYYG 081500Z 31014G19KT 15SM SCT024 16/10 A2997 RMK CU3 SLP150
CYYG;2003-09-08 16:00;METAR CYYG 081600Z 36012G18KT 15SM SCT030 16/11 A2998 RMK CU4 SLP154
CYYG;2003-09-08 17:00;METAR CYYG 081700Z 34013G19KT 15SM SCT030 16/09 A3000 RMK CU4 SLP159
CYYG;2003-09-08 18:00;METAR CYYG 081800Z 34012G19KT 15SM BKN028 15/09 A3001 RMK CU5 SLP163
CYYG;2003-09-08 19:00;METAR CYYG 081900Z 34012G21KT 15SM SCT030 15/08 A3002 RMK CU4 SLP167
CYYG;2003-09-08 20:00;METAR CYYG 082000Z 34013G20KT 15SM SCT035 BKN060 14/08 A3004 RMK CU4SC1 SLP172
CYYG;2003-09-08 21:00;METAR CYYG 082100Z 33011G16KT 15SM FEW035 FEW060 14/07 A3005 RMK CU1SC1 SLP177
CYYG;2003-09-08 22:00;METAR CYYG 082200Z 36005KT 15SM FEW035 FEW070 13/07 A3006 RMK CU1AC1 SLP180
CYYG;2003-09-08 23:00;METAR CYYG 082300Z 27003KT 15SM FEW070 11/07 A3007 RMK AC2 SLP184
CYYG;2003-09-09 00:00;METAR CYYG 090000Z 28005KT 15SM SCT076 11/07 A3009 RMK AC2 SLP191
CYYG;2003-09-09 01:00;METAR CYYG 090100Z 01006KT 15SM -SHRA FEW051 BKN064 11/07 A3011 RMK SC2SC2 SLP196
CYYG;2003-09-09 02:00;METAR CYYG 090200Z 31004KT 15SM FEW040 BKN090 11/07 A3012 RMK SC2AC2 SLP199
CYYG;2003-09-09 03:00;METAR CYYG 090300Z 32003KT 15SM FEW090 09/07 A3013 RMK AC1 SLP205
CYYG;2003-09-09 04:00;METAR CYYG 090400Z 32004KT 15SM SKC 08/07 A3015 RMK SLP211
CYYG;2003-09-09 05:00;METAR CYYG 090500Z 30004KT 15SM SKC 08/07 A3016 RMK SLP214
CYYG;2003-09-09 06:00;METAR CYYG 090600Z 31003KT 15SM FEW040 09/07 A3017 RMK CU2 SLP218
CYYG;2003-09-09 07:00;METAR CYYG 090700Z 31004KT 15SM FEW040 08/07 A3018 RMK CU2 SLP222
CYYG;2003-09-09 08:00;METAR CYYG 090800Z 33004KT 15SM FEW040 08/07 A3019 RMK CU1 SLP225
CYYG;2003-09-09 09:00;METAR CYYG 090900Z 32005KT 15SM FEW040 08/06 A3021 RMK SC1 SLP231
CYYG;2003-09-09 10:00;METAR CYYG 091000Z 32004KT 15SM FEW035 SCT250 08/07 A3025 RMK SC2CI0 SLP244
CYYG;2003-09-09 11:00;METAR CYYG 091100Z 34005KT 15SM FEW030 FEW350 11/09 A3026 RMK CU2CI0 SLP249
CYYG;2003-09-09 12:00;METAR CYYG 091200Z 35008G15KT 15SM FEW030 FEW350 12/08 A3027 RMK CU1CI0 SLP252
CYYG;2003-09-09 13:00;METAR CYYG 091300Z 34010G15KT 15SM BKN025 13/08 A3030 RMK CU5 SLP262
CYYG;2003-09-09 14:00;METAR CYYG 091400Z 35011G18KT 15SM BKN028 13/08 A3031 RMK CU5 SLP266
CYYG;2003-09-09 15:00;METAR CYYG 091500Z 01012G18KT 15SM BKN028 14/07 A3032 RMK CU6 SLP267
CYYG;2003-09-09 16:00;METAR CYYG 091600Z 35009KT 15SM BKN031 BKN250 14/07 A3032 RMK CU5CI0 SLP267
CYYG;2003-09-09 17:00;METAR CYYG 091700Z 34008KT 15SM BKN030 BKN250 14/07 A3032 RMK CU5CI0 SLP268
CYYG;2003-09-09 18:00;METAR CYYG 091800Z 01009KT 15SM FEW035 SCT250 14/07 A3032 RMK CU2CI0
CYYG;2003-09-09 19:00;METAR CYYG 091900Z 35008KT 15SM FEW035 FEW250 14/06 A3031 RMK CU1CI0 SLP266
CYYG;2003-09-09 20:00;METAR CYYG 092000Z 32004KT 15SM FEW030 FEW250 14/06 A3031 RMK CU1CI0 SLP263
CYYG;2003-09-09 21:00;METAR CYYG 092100Z 35004KT 15SM FEW030 FEW250 13/05 A3029 RMK CU1CI0 SLP259
CYYG;2003-09-09 22:00;METAR CYYG 092200Z 34003KT 15SM FEW035 FEW250 11/05 A3029 RMK CU1CI0 SLP258
CYYG;2003-09-09 23:00;METAR CYYG 092300Z 00000KT 15SM FEW250 09/06 A3029 RMK CI0 SLP257
CYYG;2003-09-10 00:00;METAR CYYG 100000Z 21003KT 15SM FEW250 11/05 A3029 RMK CI0 SLP257
CYYG;2003-09-10 01:00;METAR CYYG 100100Z 22005KT 15SM SKC 10/07 A3028 RMK SLP253
CYYG;2003-09-10 02:00;METAR CYYG 100200Z 22005KT 15SM SKC 10/07 A3026 RMK SLP248
CYYG;2003-09-10 03:00;METAR CYYG 100300Z 23004KT 15SM SKC 10/06 A3024 RMK SLP242
CYYG;2003-09-10 04:00;METAR CYYG 100400Z 23004KT 15SM SKC 09/07 A3023 RMK SLP237
CYYG;2003-09-10 05:00;METAR CYYG 100500Z 23006KT 15SM SKC 10/07 A3021 RMK SLP231
CYYG;2003-09-10 06:00;METAR CYYG 100600Z 25006KT 15SM SKC 10/08 A3020 RMK SLP226
CYYG;2003-09-10 07:00;METAR CYYG 100700Z 25006KT 15SM SKC 10/08 A3017 RMK SLP219
CYYG;2003-09-10 08:00;METAR CYYG 100800Z 25007KT 15SM SKC 11/09 A3016 RMK SLP213
CYYG;2003-09-10 09:00;METAR CYYG 100900Z 25008KT 15SM FEW250 11/08 A3014 RMK CI0 SLP208
CYYG;2003-09-10 10:00;METAR CYYG 101000Z 25009KT 15SM FEW250 11/07 A3012 RMK CI1 SLP201
CYYG;2003-09-10 11:00;METAR CYYG 101100Z 25010G15KT 15SM FEW250 12/06 A3010 RMK CI0 SLP193
CYYG;2003-09-10 12:00;METAR CYYG 101200Z 26013G20KT 15SM FEW250 13/06 A3007 RMK CI0 SLP184
CYYG;2003-09-10 13:00;METAR CYYG 101300Z 27014KT 15SM FEW250 15/07 A3004 RMK CI0 SLP174
CYYG;2003-09-10 14:00;METAR CYYG 101400Z 26014G22KT 15SM FEW250 16/07 A3001 RMK CI0 SLP164
CYYG;2003-09-10 15:00;METAR CYYG 101500Z 26013G21KT 15SM FEW080 FEW250 17/08 A2999 RMK AC1CI0 SLP156
CYYG;2003-09-10 16:00;METAR CYYG 101600Z 27017G24KT 15SM FEW080 FEW250 19/08 A2997 RMK AC1CI0 SLP148
CYYG;2003-09-10 17:00;METAR CYYG 101700Z 25013G19KT 15SM SCT075 SCT250 19/10 A2994 RMK AC3CI0 SLP138
CYYG;2003-09-10 18:00;METAR CYYG 101800Z 26013G20KT 15SM BKN069 BKN250 18/09 A2993 RMK AC5CI0 SLP134
CYYG;2003-09-10 19:00;METAR CYYG 101900Z 27009KT 15SM OVC055 17/11 A2993 RMK SC8 SLP136
CYYG;2003-09-10 20:00;METAR CYYG 102000Z 27005KT 15SM FEW030 OVC055 17/11 A2995 RMK SC1SC8 SLP141
CYYG;2003-09-10 21:00;METAR CYYG 102100Z 36008KT 15SM FEW030 BKN055 16/10 A2998 RMK SC1SC7 SLP151
CYYG;2003-09-10 22:00;METAR CYYG 102200Z 01010G15KT 15SM FEW030 BKN055 15/10 A3001 RMK SC1SC7 SLP161
CYYG;2003-09-10 23:00;METAR CYYG 102300Z 02010G15KT 15SM FEW025 BKN055 BKN090 13/10 A3004 RMK SC1SC4AC2 SLP174
CYYG;2003-09-11 00:00;METAR CYYG 110000Z 03008KT 15SM FEW025 BKN055 BKN090 13/09 A3008 RMK SC1SC4AC2 SLP187
CYYG;2003-09-11 01:00;METAR CYYG 110100Z 03009G15KT 15SM BKN055 BKN085 13/08 A3010 RMK SC5AC2 SLP193
CYYG;2003-09-11 02:00;METAR CYYG 110200Z 06006KT 15SM SCT055 BKN085 11/08 A3012 RMK SC3AC2 SLP200
CYYG;2003-09-11 03:00;METAR CYYG 110300Z 02004KT 15SM FEW055 09/07 A3014 RMK SC2 SLP207
CYYG;2003-09-11 04:00;METAR CYYG 110400Z 34003KT 15SM FEW040 08/06 A3016 RMK SC2 SLP213
CYYG;2003-09-11 05:00;METAR CYYG 110500Z 32003KT 15SM SCT045 08/06 A3017 RMK SC3 SLP218
CYYG;2003-09-11 06:00;METAR CYYG 110600Z 26004KT 15SM SCT045 08/05 A3019 RMK SC3 SLP223
CYYG;2003-09-11 07:00;METAR CYYG 110700Z 34003KT 15SM FEW045 07/05 A3019 RMK SC2 SLP225
CYYG;2003-09-11 08:00;METAR CYYG 110800Z 34004KT 15SM FEW045 05/03 A3020 RMK SC2 SLP228
CYYG;2003-09-11 09:00;METAR CYYG 110900Z 33004KT 15SM FEW045 06/04 A3021 RMK SC1 SLP231
CYYG;2003-09-11 10:00;METAR CYYG 111000Z 31005KT 15SM FEW035 06/03 A3023 RMK SC1 SLP236
CYYG;2003-09-11 11:00;METAR CYYG 111100Z 32006KT 15SM FEW038 09/05 A3024 RMK SC2 SLP241
CYYG;2003-09-11 12:00;METAR CYYG 111200Z 30006KT 15SM FEW036 FEW250 11/06 A3026 RMK SC2CI0 SLP247
CYYG;2003-09-11 13:00;METAR CYYG 111300Z 35010G18KT 15SM FEW036 FEW250 13/05 A3028 RMK SC1CI0 SLP253
CYYG;2003-09-11 14:00;METAR CYYG 111400Z 34013G20KT 15SM FEW038 FEW250 13/04 A3030 RMK SC2CI0 SLP261
CYYG;2003-09-11 15:00;METAR CYYG 111500Z 36012G19KT 15SM FEW040 FEW250 13/04 A3031 RMK SC1CI0 SLP263
CYYG;2003-09-11 16:00;METAR CYYG 111600Z 34016G21KT 15SM FEW040 FEW250 13/04 A3030 RMK SC1CI0 SLP262
CYYG;2003-09-11 17:00;METAR CYYG 111700Z 34013KT 15SM FEW040 FEW250 14/03 A3030 RMK SC1CI0
CYYG;2003-09-11 18:00;METAR CYYG 111800Z 34009G15KT 15SM FEW040 FEW250 13/04 A3030 RMK SC1CI0
CYYG;2003-09-11 19:00;METAR CYYG 111900Z 34009G18KT 15SM FEW040 FEW250 13/03 A3031 RMK SC1CI0 SLP265
CYYG;2003-09-11 20:00;METAR CYYG 112000Z 34008G15KT 15SM FEW040 FEW250 13/03 A3031 RMK SC1CI0
CYYG;2003-09-11 21:00;METAR CYYG 112100Z 36006KT 15SM FEW250 12/04 A3032 RMK CI0 SLP269
CYYG;2003-09-11 22:00;METAR CYYG 112200Z 34004KT 15SM FEW250 11/03 A3033 RMK CI0 SLP271
CYYG;2003-09-11 23:00;METAR CYYG 112300Z 32002KT 15SM FEW250 09/03 A3033 RMK CI0 SLP274
CYYG;2003-09-12 00:00;METAR CYYG 120000Z 00000KT 15SM SKC 05/03 A3035 RMK SLP279
CYYG;2003-09-12 01:00;METAR CYYG 120100Z 27002KT 15SM SKC 05/03 A3036 RMK SLP283
CYYG;2003-09-12 02:00;METAR CYYG 120200Z 27003KT 15SM SKC 06/02 A3036 RMK SLP281
CYYG;2003-09-12 03:00;METAR CYYG 120300Z 25004KT 15SM SKC 06/03 A3035 RMK SLP278
CYYG;2003-09-12 04:00;METAR CYYG 120400Z 22004KT 15SM SKC 07/04 A3035 RMK SLP279
CYYG;2003-09-12 05:00;METAR CYYG 120500Z 23004KT 15SM SKC 09/05 A3035 RMK SLP280
CYYG;2003-09-12 06:00;METAR CYYG 120600Z 23005KT 15SM SKC 09/06 A3034 RMK SLP275
CYYG;2003-09-12 07:00;METAR CYYG 120700Z 23005KT 15SM SKC 08/07 A3033 RMK SLP272
CYYG;2003-09-12 08:00;METAR CYYG 120800Z 22006KT 15SM SKC 09/07 A3033 RMK SLP270
CYYG;2003-09-12 09:00;METAR CYYG 120900Z 24006KT 15SM SKC 09/07 A3033 RMK SLP272
CYYG;2003-09-12 10:00;METAR CYYG 121000Z 24007KT 15SM FEW240 09/08 A3033 RMK CI1 SLP271
CYYG;2003-09-12 11:00;METAR CYYG 121100Z 24007KT 15SM FEW240 10/09 A3033 RMK CI1 SLP271
CYYG;2003-09-12 12:00;METAR CYYG 121200Z 26010KT 15SM SKC 13/10 A3033 RMK SLP274
CYYG;2003-09-12 13:00;METAR CYYG 121300Z 27010KT 15SM SKC 15/10 A3034 RMK SLP275
CYYG;2003-09-12 14:00;METAR CYYG 121400Z 27011KT 15SM FEW240 18/09 A3034 RMK CI1 SLP277
CYYG;2003-09-12 15:00;METAR CYYG 121500Z 26009G15KT 15SM FEW240 19/10 A3033 RMK CI1 SLP273
CYYG;2003-09-12 16:00;METAR CYYG 121600Z 26015KT 15SM FEW240 20/10 A3032 RMK CI1 SLP268
CYYG;2003-09-12 17:00;METAR CYYG 121700Z 28010G16KT 15SM SCT240 22/10 A3031 RMK CI1 SLP263
CYYG;2003-09-12 18:00;METAR CYYG 121800Z 25011KT 15SM BKN240 22/12 A3029 RMK CI2 SLP259
CYYG;2003-09-12 19:00;METAR CYYG 121900Z 25009KT 15SM BKN240 22/13 A3028 RMK CI2 SLP254
CYYG;2003-09-12 20:00;METAR CYYG 122000Z 26010KT 15SM BKN240 22/13 A3027 RMK CI3 SLP251
CYYG;2003-09-12 21:00;METAR CYYG 122100Z 26008KT 15SM BKN240 21/12 A3026 RMK CI3 SLP249
CYYG;2003-09-12 22:00;METAR CYYG 122200Z 26009KT 15SM BKN240 19/11 A3026 RMK CI3 SLP247
CYYG;2003-09-12 23:00;METAR CYYG 122300Z 26009KT 15SM BKN240 17/11 A3026 RMK CI2 SLP247
CYYG;2003-09-13 00:00;METAR CYYG 130000Z 26008KT 15SM FEW240 16/11 A3026 RMK CI1 SLP249
CYYG;2003-09-13 01:00;METAR CYYG 130100Z 25010KT 15SM FEW240 16/11 A3026 RMK CI2 SLP248
CYYG;2003-09-13 02:00;METAR CYYG 130200Z 25014KT 15SM SCT240 15/12 A3026 RMK CI2 SLP248
CYYG;2003-09-13 03:00;METAR CYYG 130300Z 25010KT 15SM SCT240 15/12 A3026 RMK CI2 SLP249
CYYG;2003-09-13 04:00;METAR CYYG 130400Z 25009KT 15SM FEW240 15/12 A3027 RMK CI2 SLP251
CYYG;2003-09-13 05:00;METAR CYYG 130500Z 26011KT 15SM FEW240 14/12 A3027 RMK CI2 SLP252
CYYG;2003-09-13 06:00;METAR CYYG 130600Z 26011KT 15SM FEW240 14/13 A3026 RMK CI1 SLP249
CYYG;2003-09-13 07:00;METAR CYYG 130700Z 26009KT 15SM SKC 15/13 A3027 RMK SLP250
CYYG;2003-09-13 08:00;METAR CYYG 130800Z 27007KT 15SM SKC 15/13 A3026 RMK SLP249
CYYG;2003-09-13 09:00;METAR CYYG 130900Z 26009KT 15SM FEW250 15/13 A3027 RMK CI0 SLP251
CYYG;2003-09-13 10:00;METAR CYYG 131000Z 26009KT 15SM FEW250 14/12 A3027 RMK CI1 SLP252
CYYG;2003-09-13 11:00;METAR CYYG 131100Z 27008KT 15SM SKC 15/13 A3028 RMK SLP256
CYYG;2003-09-13 12:00;METAR CYYG 131200Z 26007KT 15SM SKC 17/14 A3028 RMK SLP255
CYYG;2003-09-13 13:00;METAR CYYG 131300Z 27005KT 15SM SKC 19/15 A3029 RMK SLP257
CYYG;2003-09-13 15:00;METAR CYYG 131500Z 27005KT 15SM FEW250 23/17 A3028 RMK CI1 SLP255
CYYG;2003-09-13 16:00;METAR CYYG 131600Z 27005KT 15SM FEW250 24/17 A3028 RMK CI1 SLP253
CYYG;2003-09-13 17:00;METAR CYYG 131700Z 27005KT 15SM FEW250 25/16 A3027 RMK CI1 SLP250
CYYG;2003-09-13 18:00;METAR CYYG 131800Z 26007KT 15SM FEW250 25/17 A3026 RMK CI1 SLP247
CYYG;2003-09-13 19:00;METAR CYYG 131900Z 30004KT 15SM FEW250 26/16 A3025 RMK CI1 SLP245
CYYG;2003-09-13 20:00;METAR CYYG 132000Z 26006KT 15SM SCT250 25/18 A3025 RMK CI1 SLP243
CYYG;2003-09-13 21:00;METAR CYYG 132100Z 25006KT 15SM SCT250 24/17 A3025 RMK CI2 SLP244
CYYG;2003-09-13 22:00;METAR CYYG 132200Z 25007KT 15SM BKN350 22/16 A3026 RMK CI1 SLP248
CYYG;2003-09-13 23:00;METAR CYYG 132300Z 25007KT 15SM BKN350 20/14 A3028 RMK CI1 SLP252
CYYG;2003-09-14 00:00;METAR CYYG 140000Z 25010KT 15SM BKN350 18/11 A3028 RMK CI1 SLP254
CYYG;2003-09-14 01:00;METAR CYYG 140100Z 25011KT 15SM BKN350 17/10 A3028 RMK CI2 SLP254
CYYG;2003-09-14 02:00;METAR CYYG 140200Z 25009KT 15SM BKN350 16/11 A3028 RMK CI2 SLP256
CYYG;2003-09-14 03:00;METAR CYYG 140300Z 25009KT 15SM BKN350 15/11 A3028 RMK CI2 SLP253
CYYG;2003-09-14 04:00;METAR CYYG 140400Z 24003KT 15SM BKN350 14/11 A3029 RMK CI2 SLP257
CYYG;2003-09-14 05:00;METAR CYYG 140500Z 23006KT 15SM BKN350 14/12 A3029 RMK CI1 SLP257
CYYG;2003-09-14 06:00;METAR CYYG 140600Z 24004KT 15SM BKN350 14/12 A3028 RMK CI2 SLP255
CYYG;2003-09-14 07:00;METAR CYYG 140700Z 25003KT 15SM BKN350 14/12 A3028 RMK CI2 SLP254
CYYG;2003-09-14 08:00;METAR CYYG 140800Z 26002KT 15SM SCT350 14/12 A3027 RMK CI1 SLP250
CYYG;2003-09-14 09:00;METAR CYYG 140900Z 24003KT 15SM SCT350 14/11 A3028 RMK CI1 SLP252
CYYG;2003-09-14 10:00;METAR CYYG 141000Z 27002KT 15SM SCT320 13/11 A3028 RMK CI2 SLP255
CYYG;2003-09-14 11:00;METAR CYYG 141100Z 23004KT 15SM SCT300 14/12 A3029 RMK CI1 SLP258
CYYG;2003-09-14 12:00;METAR CYYG 141200Z 24005KT 15SM SCT300 16/13 A3029 RMK CI1 SLP259
CYYG;2003-09-14 13:00;METAR CYYG 141300Z 25006KT 15SM SCT300 19/14 A3029 RMK CI1 SLP257
CYYG;2003-09-14 14:00;METAR CYYG 141400Z 31002KT 15SM FEW300 21/15 A3029 RMK CI1 SLP258
CYYG;2003-09-14 15:00;METAR CYYG 141500Z 19003KT 15SM SCT300 23/15 A3029 RMK CI2 SLP256
CYYG;2003-09-14 16:00;METAR CYYG 141600Z 22005KT 15SM BKN300 25/16 A3028 RMK CI2 SLP252
CYYG;2003-09-14 17:00;METAR CYYG 141700Z 22006KT 15SM BKN300 24/17 A3026 RMK CI2 SLP247
CYYG;2003-09-14 18:00;METAR CYYG 141800Z 25007KT 15SM BKN300 25/16 A3025 RMK CI2 SLP242
CYYG;2003-09-14 19:00;METAR CYYG 141900Z 26007KT 15SM BKN300 24/15 A3024 RMK CI2 SLP239
CYYG;2003-09-14 20:00;METAR CYYG 142000Z 26007KT 15SM BKN300 24/15 A3023 RMK CI2 SLP235
CYYG;2003-09-14 21:00;METAR CYYG 142100Z 25005KT 15SM BKN300 24/15 A3022 RMK CI2 SLP232
CYYG;2003-09-14 22:00;METAR CYYG 142200Z 25004KT 15SM FEW300 22/16 A3022 RMK CI1 SLP233
CYYG;2003-09-14 23:00;METAR CYYG 142300Z 25006KT 15SM FEW090 FEW300 20/16 A3023 RMK AC1CI0 SLP236
CYYG;2003-09-15 00:00;METAR CYYG 150000Z 23006KT 15SM FEW090 SCT300 18/15 A3024 RMK AC1CI0 SLP241
CYYG;2003-09-15 01:00;METAR CYYG 150100Z 24008KT 15SM FEW300 18/15 A3024 RMK CI0 SLP240
CYYG;2003-09-15 02:00;METAR CYYG 150200Z 24008KT 15SM SKC 17/15 A3023 RMK SLP237
CYYG;2003-09-15 03:00;METAR CYYG 150300Z 25008KT 15SM SKC 17/15 A3021 RMK SLP231
CYYG;2003-09-15 04:00;METAR CYYG 150400Z 24006KT 15SM SKC 16/15 A3020 RMK SLP228
CYYG;2003-09-15 05:00;METAR CYYG 150500Z 25008KT 15SM SKC 16/15 A3020 RMK SLP226
CYYG;2003-09-15 06:00;METAR CYYG 150600Z 24004KT 15SM SKC 16/15 A3019 RMK SLP223
CYYG;2003-09-15 07:00;METAR CYYG 150700Z 25008KT 15SM SKC 16/15 A3018 RMK SLP221
CYYG;2003-09-15 08:00;METAR CYYG 150800Z 26005KT 15SM SKC 16/15 A3018 RMK SLP219
CYYG;2003-09-15 09:00;METAR CYYG 150900Z 25005KT 15SM SKC 16/15 A3017 RMK SLP218
CYYG;2003-09-15 10:00;METAR CYYG 151000Z 25004KT 15SM SKC 16/15 A3017 RMK SLP218
CYYG;2003-09-15 11:00;METAR CYYG 151100Z 25002KT 15SM SKC 17/16 A3018 RMK SLP221
CYYG;2003-09-15 12:00;METAR CYYG 151200Z 25004KT 15SM SKC 19/18 A3018 RMK SLP221
CYYG;2003-09-15 13:00;METAR CYYG 151300Z 23004KT 15SM FEW300 21/19 A3018 RMK CI0 SLP220
CYYG;2003-09-15 14:00;METAR CYYG 151400Z 23003KT 15SM FEW300 23/19 A3017 RMK CI0 SLP218
CYYG;2003-09-15 15:00;METAR CYYG 151500Z 22005KT 15SM FEW300 25/20 A3016 RMK CI0 SLP214
CYYG;2003-09-15 16:00;METAR CYYG 151600Z 20006KT 15SM FEW020 FEW300 25/21 A3015 RMK CF1CI0 SLP211
CYYG;2003-09-15 17:00;METAR CYYG 151700Z 21008KT 15SM FEW020 SCT300 26/20 A3015 RMK CU1CI0 SLP210
CYYG;2003-09-15 18:00;METAR CYYG 151800Z 27007KT 15SM FEW024 SCT300 27/20 A3014 RMK CU1CI1 SLP208
CYYG;2003-09-15 19:00;METAR CYYG 151900Z 26007KT 15SM FEW024 SCT300 27/20 A3014 RMK CU1CI1 SLP205
CYYG;2003-09-15 20:00;METAR CYYG 152000Z 25007KT 15SM FEW024 BKN300 27/19 A3012 RMK CU1CI2 COTRA SLP201
CYYG;2003-09-15 21:00;METAR CYYG 152100Z 26006KT 15SM FEW025 BKN300 26/20 A3012 RMK CF1CI2 SLP198
CYYG;2003-09-15 22:00;METAR CYYG 152200Z 25005KT 15SM BKN300 25/20 A3011 RMK CI2 SLP196
CYYG;2003-09-15 23:00;METAR CYYG 152300Z 23005KT 15SM FEW080 BKN300 23/19 A3012 RMK AC1CI1
CYYG;2003-09-16 00:00;METAR CYYG 160000Z 25004KT 15SM SCT280 21/18 A3012 RMK CI1 SLP200
CYYG;2003-09-16 02:00;METAR CYYG 160200Z CCA 22005KT 15SM FEW280 19/18 A3010 RMK CI0 SLP194
CYYG;2003-09-16 03:00;METAR CYYG 160300Z 23008KT 15SM FEW280 19/18 A3010 RMK CI0 SLP193
CYYG;2003-09-16 04:00;METAR CYYG 160400Z 22004KT 15SM FEW280 18/17 A3009 RMK CI0 SLP191
CYYG;2003-09-16 05:00;METAR CYYG 160500Z 21005KT 15SM SKC 18/16 A3009 RMK SLP191
CYYG;2003-09-16 06:00;METAR CYYG 160600Z 21006KT 15SM SKC 17/16 A3009 RMK SLP191
CYYG;2003-09-16 07:00;METAR CYYG 160700Z 20005KT 15SM SKC 17/16 A3009 RMK SLP191
CYYG;2003-09-16 08:00;METAR CYYG 160800Z 23006KT 15SM SKC 17/16 A3009 RMK SLP190
CYYG;2003-09-16 09:00;METAR CYYG 160900Z 23006KT 15SM FEW040 17/16 A3009 RMK SC1 SLP190
CYYG;2003-09-16 10:00;METAR CYYG 161000Z 23005KT 15SM FEW048 SCT250 17/16 A3010 RMK SC2CI1 SLP194
CYYG;2003-09-16 11:00;METAR CYYG 161100Z 23005KT 15SM FEW048 SCT250 18/16 A3011 RMK SC2CI2 SLP197
CYYG;2003-09-16 12:00;METAR CYYG 161200Z 26008KT 15SM SCT045 BKN250 20/17 A3012 RMK SC4CI1 SLP198
CYYG;2003-09-16 13:00;METAR CYYG 161300Z 25006KT 15SM BKN050 BKN250 20/17 A3012 RMK SC5CI2 SLP200
CYYG;2003-09-16 14:00;METAR CYYG 161400Z 25007KT 15SM BKN052 BKN250 21/18 A3012 RMK SC5CI2 SLP201
CYYG;2003-09-16 15:00;METAR CYYG 161500Z 25007KT 15SM BKN055 22/18 A3012 RMK SC6 SLP200
CYYG;2003-09-16 16:00;METAR CYYG 161600Z 25006KT 15SM BKN058 23/17 A3011 RMK SC6 SLP196
CYYG;2003-09-16 17:00;METAR CYYG 161700Z 26008KT 15SM BKN052 BKN250 24/18 A3010 RMK SC5CI2
CYYG;2003-09-16 18:00;METAR CYYG 161800Z 27009KT 15SM SCT052 BKN250 25/17 A3009 RMK SC3CI1 SLP190
CYYG;2003-09-16 19:00;METAR CYYG 161900Z 23010KT 15SM FEW050 BKN250 25/18 A3008 RMK SC2CI2 SLP186
CYYG;2003-09-16 20:00;METAR CYYG 162000Z 22009KT 15SM FEW050 BKN250 25/17 A3008 RMK SC1CI2 SLP185
CYYG;2003-09-16 21:00;METAR CYYG 162100Z 23007KT 15SM FEW050 BKN250 24/18 A3007 RMK SC1CI2 SLP182
CYYG;2003-09-16 22:00;METAR CYYG 162200Z 22006KT 15SM FEW050 SCT200 BKN250 22/17 A3007 RMK SC1CC2CI1 SLP183
CYYG;2003-09-16 23:00;METAR CYYG 162300Z 19005KT 15SM FEW200 BKN250 20/17 A3008 RMK CC1CI1
CYYG;2003-09-17 00:00;METAR CYYG 170000Z 17003KT 15SM FEW060 BKN240 19/16 A3009 RMK SC2CI1 SLP189
CYYG;2003-09-17 01:00;METAR CYYG 170100Z CCA 21008KT 15SM SCT060 BKN240 20/17 A3009 RMK SC3CI0
CYYG;2003-09-17 02:00;METAR CYYG 170200Z 21009KT 15SM SCT044 BKN240 20/16 A3008 RMK SC3CI0 SLP187
CYYG;2003-09-17 03:00;METAR CYYG 170300Z 20008KT 15SM FEW040 SCT240 19/16 A3008 RMK SC2CI0 SLP186
CYYG;2003-09-17 04:00;METAR CYYG 170400Z 17005KT 15SM FEW015 SCT130 BKN220 18/17 A3008 RMK SC1AC2CI1 SLP185
CYYG;2003-09-17 05:00;METAR CYYG 170500Z 19011KT 15SM FEW080 BKN120 BKN210 19/18 A3006 RMK AC1AC4CI0 SLP180
CYYG;2003-09-17 06:00;METAR CYYG 170600Z 18012KT 15SM FEW011 BKN110 OVC210 19/18 A3006 RMK SF2AC4CI1 SLP179
CYYG;2003-09-17 07:00;METAR CYYG 170700Z 19011KT 12SM FEW010 OVC075 19/18 A3006 RMK SF2AC6 SLP178
CYYG;2003-09-17 08:00;METAR CYYG 170800Z 19009KT 6SM BR BKN008 OVC018 19/18 A3006 RMK SF5SC3 SLP180
CYYG;2003-09-17 09:00;METAR CYYG 170900Z 21006KT 8SM OVC011 19/18 A3007 RMK SC8 SLP182
CYYG;2003-09-17 10:00;METAR CYYG 171000Z 24005KT 8SM -SHRA SCT005 OVC010 19/19 A3008 RMK SF3SC5 SLP185
CYYG;2003-09-17 11:00;METAR CYYG 171100Z 26008KT 12SM BKN006 BKN012 19/18 A3010 RMK SF5SC2 SLP192
CYYG;2003-09-17 12:00;METAR CYYG 171200Z 25006KT 15SM FEW006 SCT017 BKN033 19/18 A3012 RMK SF1SC3SC3 SLP199
CYYG;2003-09-17 13:00;METAR CYYG 171300Z 29010KT 15SM BKN018 19/17 A3014 RMK SC6 SLP205
CYYG;2003-09-17 14:00;METAR CYYG 171400Z 30008KT 15SM SCT020 SCT250 20/15 A3015 RMK SC3CI1 SLP209
CYYG;2003-09-17 15:00;METAR CYYG 171500Z 28004KT 15SM FEW020 SCT250 21/15 A3015 RMK SC2CI2
CYYG;2003-09-17 16:00;METAR CYYG 171600Z 25007KT 15SM FEW020 FEW250 23/13 A3014 RMK SC1CI2 SLP207
CYYG;2003-09-17 17:00;METAR CYYG 171700Z 28011G16KT 15SM FEW020 FEW250 23/12 A3014 RMK SC1CI1 SLP208
CYYG;2003-09-17 18:00;METAR CYYG 171800Z 29012G17KT 15SM FEW030 FEW250 23/10 A3014 RMK SC1CI1 SLP206
CYYG;2003-09-17 19:00;METAR CYYG 171900Z 23006KT 15SM FEW030 FEW250 23/13 A3015 RMK SC1CI1
CYYG;2003-09-17 20:00;METAR CYYG 172000Z 28008KT 15SM FEW030 FEW250 23/13 A3016 RMK SC1CI1 SLP214
CYYG;2003-09-17 21:00;METAR CYYG 172100Z 31008KT 15SM FEW030 FEW250 22/12 A3018 RMK SC1CI1 SLP219
CYYG;2003-09-17 22:00;METAR CYYG 172200Z 32006KT 15SM FEW250 20/11 A3020 RMK CI1 SLP226
CYYG;2003-09-17 23:00;METAR CYYG 172300Z 35005KT 15SM SKC 16/12 A3024 RMK SLP239
CYYG;2003-09-18 00:00;METAR CYYG 180000Z 33003KT 15SM SKC 15/13 A3027 RMK SLP250
CYYG;2003-09-18 01:00;METAR CYYG 180100Z 36005KT 15SM SKC 15/13 A3029 RMK SLP258
CYYG;2003-09-18 02:00;METAR CYYG 180200Z 35004KT 15SM SKC 14/12 A3031 RMK SLP266
CYYG;2003-09-18 03:00;METAR CYYG 180300Z 30004KT 15SM SKC 13/11 A3031 RMK SLP266
CYYG;2003-09-18 04:00;METAR CYYG 180400Z 29004KT 15SM SKC 11/10 A3032 RMK SLP269
CYYG;2003-09-18 05:00;METAR CYYG 180500Z 26005KT 15SM SKC 12/11 A3033 RMK SLP272
CYYG;2003-09-18 06:00;METAR CYYG 180600Z 29003KT 15SM SKC 11/10 A3033 RMK SLP273
CYYG;2003-09-18 07:00;METAR CYYG 180700Z 29002KT 15SM SKC 10/09 A3036 RMK SLP280
CYYG;2003-09-18 08:00;METAR CYYG 180800Z 28003KT 15SM SKC 11/10 A3037 RMK SLP286
CYYG;2003-09-18 09:00;METAR CYYG 180900Z 28005KT 15SM SKC 11/10 A3038 RMK SLP288
CYYG;2003-09-18 10:00;METAR CYYG 181000Z 28004KT 15SM SKC 11/10 A3039 RMK SLP293
CYYG;2003-09-18 11:00;METAR CYYG 181100Z 30006KT 15SM FEW330 13/11 A3042 RMK CI1 SLP303
CYYG;2003-09-18 12:00;METAR CYYG 181200Z 32005KT 15SM FEW330 15/13 A3045 RMK CI1 SLP311
CYYG;2003-09-18 13:00;METAR CYYG 181300Z 32006KT 15SM FEW020 FEW330 17/13 A3047 RMK CU1CI1 SLP319
CYYG;2003-09-18 14:00;METAR CYYG 181400Z 31005KT 15SM FEW020 FEW330 19/12 A3047 RMK CU1CI1 SLP317
CYYG;2003-09-18 15:00;METAR CYYG 181500Z 29006KT 15SM FEW020 FEW330 20/11 A3046 RMK CF1CI1 SLP315
CYYG;2003-09-18 16:00;METAR CYYG 181600Z 30004KT 15SM FEW330 21/11 A3045 RMK CI1 SLP311
CYYG;2003-09-18 17:00;METAR CYYG 181700Z 31004KT 15SM FEW320 22/10 A3044 RMK CI1 SLP308
CYYG;2003-09-18 18:00;METAR CYYG 181800Z 33006KT 15SM FEW320 23/10 A3043 RMK CI1 SLP305
CYYG;2003-09-18 19:00;METAR CYYG 181900Z 35003KT 15SM FEW320 22/10 A3043 RMK CI1 SLP304
CYYG;2003-09-18 20:00;METAR CYYG 182000Z 30006KT 15SM FEW320 22/11 A3043 RMK CI1 SLP304
CYYG;2003-09-18 21:00;METAR CYYG 182100Z 29008KT 15SM FEW320 21/11 A3042 RMK CI1 SLP301
CYYG;2003-09-18 22:00;METAR CYYG 182200Z 26004KT 15SM FEW320 20/11 A3042 RMK CI1 SLP301
CYYG;2003-09-18 23:00;METAR CYYG 182300Z 25005KT 15SM FEW300 18/10 A3041 RMK CI2 SLP299
CYYG;2003-09-19 00:00;METAR CYYG 190000Z 25006KT 15SM FEW300 17/10 A3042 RMK CI2 SLP303
CYYG;2003-09-19 01:00;METAR CYYG 190100Z 25007KT 15SM SKC 16/09 A3042 RMK SLP303
CYYG;2003-09-19 02:00;METAR CYYG 190200Z 26007KT 15SM SKC 16/10 A3043 RMK SLP304
CYYG;2003-09-19 03:00;METAR CYYG 190300Z 26008KT 15SM SKC 16/11 A3042 RMK SLP302
CYYG;2003-09-19 05:00;METAR CYYG 190500Z 27008KT 15SM SKC 16/11 A3041 RMK SLP300
CYYG;2003-09-19 06:00;METAR CYYG 190600Z 27005KT 15SM SKC 15/12 A3041 RMK SLP299
CYYG;2003-09-19 07:00;METAR CYYG 190700Z 29004KT 15SM SKC 14/12 A3041 RMK SLP300
CYYG;2003-09-19 08:00;METAR CYYG 190800Z 27003KT 15SM SKC 14/12 A3041 RMK SLP297
CYYG;2003-09-19 09:00;METAR CYYG 190900Z 28004KT 15SM SKC 14/12 A3041 RMK SLP297
CYYG;2003-09-19 10:00;METAR CYYG 191000Z 00000KT 15SM BKN310 13/12 A3041 RMK CS6 SLP299
CYYG;2003-09-19 11:00;METAR CYYG 191100Z 00000KT 15SM BKN310 16/13 A3043 RMK CS6 HALO CONTRAILS SLP306
CYYG;2003-09-19 12:00;METAR CYYG 191200Z 24003KT 15SM BKN310 16/14 A3044 RMK CS4 HALO CONTRAILS SLP309
CYYG;2003-09-19 13:00;METAR CYYG 191300Z 27003KT 15SM BKN310 18/15 A3044 RMK CS3 HALO SLP310
CYYG;2003-09-19 14:00;METAR CYYG 191400Z 29002KT 15SM BKN310 22/15 A3044 RMK CI2 CONTRAILS SLP308
CYYG;2003-09-19 15:00;METAR CYYG 191500Z 29002KT 15SM FEW170 BKN310 24/15 A3043 RMK AC1CI2 CONTRAILS SLP305
CYYG;2003-09-19 16:00;METAR CYYG 191600Z 20004KT 15SM FEW170 BKN310 25/16 A3041 RMK AC1CI2 CONTRAILS SLP299
CYYG;2003-09-19 17:00;METAR CYYG 191700Z 20006KT 15SM FEW030 FEW170 BKN310 25/17 A3039 RMK CU1AC1CI1 SLP293
CYYG;2003-09-19 18:00;METAR CYYG 191800Z 17005KT 15SM FEW030 FEW170 BKN310 25/16 A3039 RMK CU1AC1CI2 SLP291
CYYG;2003-09-19 19:00;METAR CYYG 191900Z 16005KT 15SM FEW030 BKN310 24/15 A3038 RMK CU1CI2 SLP289
CYYG;2003-09-19 20:00;METAR CYYG 192000Z 19004KT 15SM FEW030 BKN310 25/14 A3037 RMK SC1CI2 CONTRAILS SLP284
CYYG;2003-09-19 21:00;METAR CYYG 192100Z 19003KT 15SM FEW150 BKN310 24/14 A3036 RMK AC1CI2 CONTRAILS SLP280
CYYG;2003-09-19 22:00;METAR CYYG 192200Z 00000KT 15SM BKN280 22/15 A3035 RMK CI2 SLP279
CYYG;2003-09-19 23:00;METAR CYYG 192300Z 00000KT 15SM BKN280 17/15 A3035 RMK CI2 SLP278
CYYG;2003-09-20 00:00;METAR CYYG 200000Z 00000KT 15SM BKN280 16/14 A3036 RMK CI2 SLP280
CYYG;2003-09-20 01:00;METAR CYYG 200100Z 16002KT 15SM BKN280 18/15 A3034 RMK CI2 SLP275
CYYG;2003-09-20 02:00;METAR CYYG 200200Z 11002KT 15SM BKN280 15/14 A3033 RMK CI2 SLP273
CYYG;2003-09-20 03:00;METAR CYYG 200300Z 21002KT 15SM BKN280 17/15 A3033 RMK CI2 SLP269
CYYG;2003-09-20 04:00;METAR CYYG 200400Z 11003KT 15SM BKN280 16/15 A3031 RMK CI2 SLP262
CYYG;2003-09-20 05:00;METAR CYYG 200500Z 20002KT 15SM BKN280 15/14 A3029 RMK CI2 SLP258
CYYG;2003-09-20 06:00;METAR CYYG 200600Z 00000KT 15SM BKN280 13/13 A3028 RMK CI2 SLP255
CYYG;2003-09-20 07:00;METAR CYYG 200700Z 20002KT 15SM BCFG BKN280 14/14 A3028 RMK CI2 SLP253
CYYG;2003-09-20 08:00;METAR CYYG 200800Z 17003KT 15SM BCFG SCT280 13/12 A3027 RMK CI1 SLP250
CYYG;2003-09-20 09:00;METAR CYYG 200900Z 17003KT 15SM PRFG FEW280 12/12 A3027 RMK CI1 SLP249
CYYG;2003-09-20 10:00;METAR CYYG 201000Z 20003KT 15SM PRFG BKN280 12/12 A3027 RMK CI2 SLP250
CYYG;2003-09-20 11:00;METAR CYYG 201100Z 17003KT 15SM BCFG FEW220 BKN280 15/14 A3027 RMK CC1CI2 SLP250
CYYG;2003-09-20 12:00;METAR CYYG 201200Z 16003KT 15SM FEW220 BKN280 16/16 A3027 RMK CC2CI1
CYYG;2003-09-20 13:00;METAR CYYG 201300Z 17004KT 15SM SCT220 BKN280 19/16 A3026 RMK CC3CI1 SLP249
CYYG;2003-09-20 14:00;METAR CYYG 201400Z 16006KT 15SM BKN260 BKN300 21/12 A3025 RMK CC5CI0 SLP244
CYYG;2003-09-20 15:00;METAR CYYG 201500Z 17007KT 15SM BKN260 BKN300 23/11 A3024 RMK CC5CI0 SLP239
CYYG;2003-09-20 16:00;METAR CYYG 201600Z 23008KT 15SM FEW160 SCT260 BKN300 23/13 A3023 RMK AC2CC2CI1 SLP235
CYYG;2003-09-20 17:00;METAR CYYG 201700Z 19006KT 15SM FEW160 BKN260 BKN300 23/13 A3020 RMK AC2CC3CI0 SLP227
CYYG;2003-09-20 18:00;METAR CYYG 201800Z 20007KT 15SM FEW160 BKN260 BKN300 23/13 A3019 RMK AC2CC4CI1 SLP222
CYYG;2003-09-20 19:00;METAR CYYG 201900Z 20005KT 15SM FEW160 BKN260 BKN300 22/12 A3017 RMK AC2CC4CI2 SLP218
CYYG;2003-09-20 20:00;METAR CYYG 202000Z 18004KT 15SM BKN190 BKN260 BKN300 21/13 A3017 RMK AC5CC2CI1 SLP217
CYYG;2003-09-20 21:00;METAR CYYG 202100Z 20002KT 15SM FEW190 BKN260 BKN300 21/13 A3017 RMK AC2CC4CI1 SLP215
CYYG;2003-09-20 23:00;METAR CYYG 202300Z 06002KT 15SM BKN160 BKN260 18/13 A3017 RMK AC6CI2 SLP215
CYYG;2003-09-21 00:00;METAR CYYG 210000Z 15002KT 15SM BKN130 OVC260 17/14 A3017 RMK AC6CI2 SLP217
CYYG;2003-09-21 01:00;METAR CYYG 210100Z 17002KT 15SM BKN140 OVC260 18/14 A3017 RMK AC6CI2 SLP215
CYYG;2003-09-21 02:00;METAR CYYG 210200Z 18006KT 15SM BKN130 OVC260 18/14 A3016 RMK AC6CI2 SLP213
CYYG;2003-09-21 03:00;METAR CYYG 210300Z 17005KT 15SM SCT065 OVC130 18/14 A3016 RMK SC3AC5 SLP212
CYYG;2003-09-21 04:00;METAR CYYG 210400Z 18008KT 15SM BKN055 OVC130 18/14 A3015 RMK SC5AC3 SLP209
CYYG;2003-09-21 05:00;METAR CYYG 210500Z 19009KT 15SM BKN050 OVC110 18/13 A3014 RMK SC6AC2 SLP206
CYYG;2003-09-21 06:00;METAR CYYG 210600Z 21009KT 15SM BKN060 OVC110 18/14 A3013 RMK SC6AC2 SLP204
CYYG;2003-09-21 07:00;METAR CYYG 210700Z 22005KT 10SM -SHRA FEW009 BKN017 OVC060 16/15 A3014 RMK SF2SC4SC2 SLP205
CYYG;2003-09-21 08:00;METAR CYYG 210800Z 20008KT 10SM -SHRA FEW009 BKN015 OVC060 16/15 A3013 RMK SF2SC6SC1 SLP204
CYYG;2003-09-21 09:00;METAR CYYG 210900Z 21008KT 10SM -SHRA BKN010 OVC015 16/15 A3014 RMK SC6SC2 SLP205
CYYG;2003-09-21 11:00;METAR CYYG 211100Z 19006KT 8SM BKN002 OVC007 17/16 A3014 RMK SF5SF3 SLP206
CYYG;2003-09-21 12:00;METAR CYYG 211200Z 21006KT 10SM OVC005 17/17 A3015 RMK SF8 SLP209
CYYG;2003-09-21 13:00;METAR CYYG 211300Z 23004KT 10SM OVC003 18/17 A3015 RMK ST8 SLP211
CYYG;2003-09-21 14:00;METAR CYYG 211400Z 24005KT 15SM FEW007 BKN010 OVC017 19/17 A3015 RMK SF2SC4SC2 SLP211 SLP214
CYYG;2003-09-21 16:00;METAR CYYG 211600Z 28004KT 15SM FEW008 OVC015 19/17 A3016 RMK SF2SC6
CYYG;2003-09-21 17:00;METAR CYYG 211700Z 35004KT 15SM -SHRA FEW006 BKN013 19/18 A3016 RMK SF2SC5
CYYG;2003-09-21 18:00;METAR CYYG 211800Z 33007KT 15SM FEW008 BKN016 20/18 A3016 RMK SF2SC6
CYYG;2003-09-21 19:00;METAR CYYG 211900Z 34007KT 5SM BR BKN005 BKN014 19/17 A3017 RMK SF6SC2
CYYG;2003-09-21 20:00;METAR CYYG 212000Z 35005KT 3SM BR BKN002 BKN029 17/16 A3018 RMK SF6SC1 SLP221
CYYG;2003-09-21 21:00;METAR CYYG 212100Z 36006KT 15SM FEW006 BKN033 17/16 A3019 RMK SF2SC6 SLP222
CYYG;2003-09-21 22:00;METAR CYYG 212200Z 01007KT 10SM BKN003 BKN030 16/15 A3020 RMK SF6SC1 SLP226
CYYG;2003-09-21 23:00;METAR CYYG 212300Z 01007KT 10SM BKN003 BKN030 15/15 A3020 RMK SF5SC2 SLP228
CYYG;2003-09-22 00:00;METAR CYYG 220000Z 36003KT 10SM BKN003 BKN076 15/15 A3023 RMK SF5AC2 SLP237
CYYG;2003-09-22 01:00;METAR CYYG 220100Z 01002KT 6SM BR SCT003 BKN072 15/15 A3024 RMK SF4AC1 F OVR STRAITS SLP240
CYYG;2003-09-22 02:00;METAR CYYG 220200Z 01005KT 15SM FEW003 SCT070 14/13 A3024 RMK SF2AC2 F OVR STRAIT SLP241
CYYG;2003-09-22 03:00;METAR CYYG 220300Z 04004KT 15SM FEW003 FEW070 13/12 A3024 RMK SF1AC2 SLP242
CYYG;2003-09-22 04:00;METAR CYYG 220400Z 03003KT 15SM FEW050 12/12 A3024 RMK SC1 SLP241
CYYG;2003-09-22 05:00;METAR CYYG 220500Z 00000KT 15SM FEW050 11/11 A3024 RMK SC1 SLP241
CYYG;2003-09-22 06:00;METAR CYYG 220600Z 00000KT 15SM FEW050 11/11 A3025 RMK SC1 SLP245
CYYG;2003-09-22 07:00;METAR CYYG 220700Z 29002KT 15SM SKC 10/09 A3026 RMK SLP248
CYYG;2003-09-22 08:00;METAR CYYG 220800Z 00000KT 15SM SKC 09/09 A3026 RMK SLP249
CYYG;2003-09-22 09:00;METAR CYYG 220900Z 35002KT 15SM SKC 09/08 A3027 RMK SLP252
CYYG;2003-09-22 10:00;METAR CYYG 221000Z 35003KT 15SM MIFG SKC 07/07 A3029 RMK SLP258
CYYG;2003-09-22 11:00;METAR CYYG 221100Z 22003KT 15SM SKC 10/10 A3030 RMK SLP261
CYYG;2003-09-22 12:00;METAR CYYG 221200Z 32002KT 15SM FEW240 15/14 A3030 RMK CI1 SLP262
CYYG;2003-09-22 13:00;METAR CYYG 221300Z 02002KT 15SM FEW240 17/14 A3030 RMK CI0 SLP262
CYYG;2003-09-22 14:00;METAR CYYG 221400Z 04002KT 15SM FEW040 18/14 A3030 RMK CU2 SLP260
CYYG;2003-09-22 15:00;METAR CYYG 221500Z 00000KT 15SM FEW030 19/14 A3029 RMK SC2 SLP258
CYYG;2003-09-22 16:00;METAR CYYG 221600Z 32005KT 15SM FEW030 19/13 A3029 RMK SC2 SLP257
CYYG;2003-09-22 17:00;METAR CYYG 221700Z 03005KT 15SM FEW030 FEW250 20/14 A3028 RMK SC2CI0 SLP255
CYYG;2003-09-22 18:00;METAR CYYG 221800Z 35007KT 15SM FEW034 SCT250 20/14 A3028 RMK SC1CI1
CYYG;2003-09-22 19:00;METAR CYYG 221900Z 01008KT 15SM FEW034 FEW250 19/14 A3027 RMK SC1CI1 SLP250
CYYG;2003-09-22 20:00;METAR CYYG 222000Z 04007KT 15SM FEW036 SCT250 18/14 A3027 RMK SC1CI2
CYYG;2003-09-22 21:00;METAR CYYG 222100Z 06006KT 15SM FEW036 SCT250 17/13 A3026 RMK SC1CI2 SLP249
CYYG;2003-09-22 22:00;METAR CYYG 222200Z 05004KT 15SM FEW035 SCT250 15/13 A3026 RMK SC1CI2
CYYG;2003-09-22 23:00;METAR CYYG 222300Z 01004KT 15SM FEW250 13/13 A3027 RMK CI2 SLP252
CYYG;2003-09-23 00:00;METAR CYYG 230000Z 05003KT 15SM FEW030 SCT250 13/12 A3028 RMK SC1CI2 SLP253
CYYG;2003-09-23 01:00;METAR CYYG 230100Z 00000KT 15SM FEW030 FEW250 12/12 A3027 RMK SC1CI1 SLP252
CYYG;2003-09-23 02:00;METAR CYYG 230200Z 09002KT 15SM FEW030 FEW250 12/12 A3028 RMK SC1CI1
CYYG;2003-09-23 03:00;METAR CYYG 230300Z 12004KT 15SM MIFG FEW030 FEW250 12/12 A3027 RMK SC1CI1 SLP250
CYYG;2003-09-23 04:00;METAR CYYG 230400Z 13002KT 15SM FEW030 FEW250 11/11 A3025 RMK SC1CI1 SLP244
CYYG;2003-09-23 05:00;METAR CYYG 230500Z 13003KT 15SM BKN030 BKN250 12/12 A3024 RMK SC6CI1 SLP240
CYYG;2003-09-23 06:00;METAR CYYG 230600Z 12005KT 3/4SM BR SKC 12/12 A3022 RMK FG6 RVR RWY03 4500FT SLP235
CYYG;2003-09-23 07:00;METAR CYYG 230700Z 13005KT 3SM BR SKC 12/12 A3021 RMK FG4 SLP232
CYYG;2003-09-23 08:00;METAR CYYG 230800Z 15004KT 10SM BKN010 13/12 A3020 RMK FG4SC2 SLP229
CYYG;2003-09-23 09:00;METAR CYYG 230900Z 16008KT 10SM FEW003 OVC017 15/14 A3020 RMK SF2SC6 SLP228
CYYG;2003-09-23 10:00;METAR CYYG 231000Z 15006KT 2 1/2SM BR BKN002 BKN060 14/14 A3019 RMK SF6SC1 SLP224
CYYG;2003-09-23 11:00;METAR CYYG 231100Z 16006KT 3SM BR OVC003 15/14 A3020 RMK SF8 SUN VISBL SLP227
CYYG;2003-09-23 12:00;METAR CYYG 231200Z 16008KT 6SM BR FEW005 OVC011 15/15 A3019 RMK SF2SC6 SLP225
CYYG;2003-09-23 13:00;METAR CYYG 231300Z 16008KT 6SM BR BKN006 OVC010 16/16 A3017 RMK SF6SC2 SLP219
CYYG;2003-09-23 14:00;METAR CYYG 231400Z 17011KT 6SM BR BKN009 17/15 A3016 RMK SC7 SLP213
CYYG;2003-09-23 15:00;METAR CYYG 231500Z 18015KT 6SM HZ FEW009 SCT100 BKN300 19/16 A3013 RMK CU1AC3CI1 SLP204
CYYG;2003-09-23 16:00;METAR CYYG 231600Z 17012KT 15SM FEW012 BKN055 BKN300 20/16 A3012 RMK SC1SC5CI1 SLP198
CYYG;2003-09-23 17:00;METAR CYYG 231700Z 17012G17KT 15SM FEW012 BKN035 OVC300 22/16 A3009 RMK SC1SC6CI1 SLP190
CYYG;2003-09-23 18:00;METAR CYYG 231800Z 17014KT 15SM FEW015 BKN036 BKN300 22/16 A3006 RMK SC1SC4CI1 SLP181
CYYG;2003-09-23 19:00;METAR CYYG 231900Z 17016G22KT 15SM FEW032 SCT100 BKN300 22/17 A3004 RMK SC2AC2CI1 SLP171
CYYG;2003-09-23 20:00;METAR CYYG 232000Z 17014KT 15SM FEW030 SCT080 BKN300 22/18 A3001 RMK SC2AC2CI1 SLP164
CYYG;2003-09-23 21:00;METAR CYYG 232100Z 17014G20KT 15SM SCT092 BKN300 21/17 A3000 RMK AC3CI2 SLP158
CYYG;2003-09-23 22:00;METAR CYYG 232200Z 17012G19KT 15SM FEW090 BKN300 21/17 A3000 RMK AC2CI2
CYYG;2003-09-23 23:00;METAR CYYG 232300Z 17014KT 15SM FEW087 BKN300 20/17 A3000 RMK AC2CI2
CYYG;2003-09-24 00:00;METAR CYYG 240000Z 16012G19KT 15SM FEW022 SCT080 BKN300 20/18 A2998 RMK SC1AC2CI1 SLP152
CYYG;2003-09-24 01:00;METAR CYYG 240100Z 17018KT 15SM SCT026 BKN078 BKN280 20/18 A2998 RMK SC3AC2CI0 SLP151
CYYG;2003-09-24 02:00;METAR CYYG 240200Z 16014G21KT 15SM FEW020 BKN095 OVC280 20/18 A2995 RMK SC2AC2CI1 SLP143
CYYG;2003-09-24 03:00;METAR CYYG 240300Z 17016KT 15SM SCT024 OVC051 20/18 A2994 RMK SC3SC5 SLP138
CYYG;2003-09-24 04:00;METAR CYYG 240400Z 17015G20KT 15SM -SHRA BKN028 OVC062 20/18 A2991 RMK SC6SC2 SLP130
CYYG;2003-09-24 05:00;METAR CYYG 240500Z 18019KT 10SM -SHRA OVC023 20/18 A2989 RMK SC8 SLP122
CYYG;2003-09-24 06:00;METAR CYYG 240600Z 17015G24KT 12SM -SHRA BKN018 OVC080 19/18 A2987 RMK SC5AC3 SLP114
CYYG;2003-09-24 07:00;METAR CYYG 240700Z 17013G20KT 15SM BKN026 OVC064 19/18 A2985 RMK SC5SC3 SLP109
CYYG;2003-09-24 08:00;METAR CYYG 240800Z 18020G28KT 15SM BKN023 OVC060 20/18 A2984 RMK SC5SC3 SLP104
CYYG;2003-09-24 09:00;METAR CYYG 240900Z 18013G20KT 15SM FEW025 SCT050 20/18 A2985 RMK SC2SC2 SLP106
CYYG;2003-09-24 10:00;METAR CYYG 241000Z 17012KT 15SM BKN023 19/18 A2985 RMK SC7 SLP108
CYYG;2003-09-24 11:00;METAR CYYG 241100Z 19016G21KT 8SM -SHRA FEW009 BKN016 OVC020 19/18 A2985 RMK SF1SC6SC2 SLP109
CYYG;2003-09-24 12:00;METAR CYYG 241200Z 22010G15KT 10SM -SHRA FEW006 FEW016 BKN038 20/19 A2987 RMK SF1SC2SC6 SLP115
CYYG;2003-09-24 13:00;METAR CYYG 241300Z 25009KT 15SM FEW008 FEW065 BKN110 BKN280 19/17 A2989 RMK SF1SC2AC2CI1 SLP122
CYYG;2003-09-24 14:00;METAR CYYG 241400Z 27009G16KT 15SM BKN013 BKN110 BKN280 19/17 A2991 RMK SC6AC1CI0 SLP129
CYYG;2003-09-24 15:00;METAR CYYG 241500Z 28012KT 15SM FEW015 FEW110 SCT280 21/14 A2992 RMK SC1AC1CI2 SLP131
CYYG;2003-09-24 16:00;METAR CYYG 241600Z 27011KT 15SM FEW015 FEW110 SCT280 21/15 A2993 RMK SC1AC1CI2 SLP136
CYYG;2003-09-24 17:00;METAR CYYG 241700Z 26010G15KT 15SM FEW020 FEW110 BKN280 20/15 A2993 RMK CU1AC1CI2 SLP137
CYYG;2003-09-24 18:00;METAR CYYG 241800Z 24009KT 15SM FEW020 FEW110 BKN280 21/13 A2995 RMK CU1AC1CI2 SLP142
CYYG;2003-09-24 19:00;METAR CYYG 241900Z 26007G15KT 15SM FEW020 BKN280 21/13 A2997 RMK CU1CI2 SLP149
CYYG;2003-09-24 20:00;METAR CYYG 242000Z 25008KT 15SM FEW020 BKN280 20/13 A2997 RMK CU1CI2 SLP150
CYYG;2003-09-24 21:00;METAR CYYG 242100Z 25010KT 15SM FEW025 SCT280 20/13 A2999 RMK CU1CI2 SLP156
CYYG;2003-09-24 22:00;METAR CYYG 242200Z 25005KT 15SM FEW025 SCT280 18/13 A3001 RMK CU1CI2 SLP164
CYYG;2003-09-24 23:00;METAR CYYG 242300Z 26005KT 15SM SCT280 17/13 A3004 RMK CI2 SLP174
CYYG;2003-09-25 00:00;METAR CYYG 250000Z 27005KT 15SM SCT280 16/13 A3007 RMK CI2 SLP184
CYYG;2003-09-25 01:00;METAR CYYG 250100Z 25005KT 15SM SCT280 15/13 A3009 RMK CI2 SLP189
CYYG;2003-09-25 02:00;METAR CYYG 250200Z 25005KT 15SM SKC 15/13 A3010 RMK SLP193
CYYG;2003-09-25 03:00;METAR CYYG 250300Z 27005KT 15SM SKC 14/13 A3010 RMK SLP194
CYYG;2003-09-25 04:00;METAR CYYG 250400Z 26006KT 15SM SKC 14/13 A3010 RMK SLP193
CYYG;2003-09-25 05:00;METAR CYYG 250500Z 26005KT 15SM SKC 14/13 A3011 RMK SLP196
CYYG;2003-09-25 06:00;METAR CYYG 250600Z 25005KT 15SM SKC 13/12 A3012 RMK SLP199
CYYG;2003-09-25 07:00;METAR CYYG 250700Z 25002KT 15SM SKC 12/12 A3012 RMK SLP199
CYYG;2003-09-25 08:00;METAR CYYG 250800Z 20002KT 15SM SKC 11/11 A3012 RMK SLP201
CYYG;2003-09-25 09:00;METAR CYYG 250900Z 19002KT 15SM MIFG SKC 11/11 A3013 RMK SLP204
CYYG;2003-09-25 10:00;METAR CYYG 251000Z 18002KT 15SM MIFG FEW280 10/10 A3014 RMK CI1 SLP207
CYYG;2003-09-25 11:00;METAR CYYG 251100Z 00000KT 15SM MIFG FEW280 11/11 A3016 RMK CI1 SLP213
CYYG;2003-09-25 12:00;METAR CYYG 251200Z 21005KT 15SM FEW280 15/15 A3016 RMK CI1 SLP214
CYYG;2003-09-25 13:00;METAR CYYG 251300Z 18006KT 15SM FEW015 FEW300 18/15 A3015 RMK CF1CI1 SLP210
CYYG;2003-09-25 14:00;METAR CYYG 251400Z 18010KT 15SM FEW025 SCT300 19/13 A3014 RMK CU1CI1 SLP208
CYYG;2003-09-25 15:00;METAR CYYG 251500Z 19010KT 15SM FEW030 BKN300 19/12 A3013 RMK CU1CI1 SLP203
CYYG;2003-09-25 16:00;METAR CYYG 251600Z 20010G15KT 15SM FEW030 BKN350 20/12 A3012 RMK CU1CI1 SLP199
CYYG;2003-09-25 17:00;METAR CYYG 251700Z 19013KT 15SM BKN350 20/11 A3009 RMK CI1 SLP191
CYYG;2003-09-25 18:00;METAR CYYG 251800Z 18011KT 15SM BKN350 21/11 A3008 RMK CI2 SLP187
CYYG;2003-09-25 19:00;METAR CYYG 251900Z 19010G15KT 15SM BKN350 21/10 A3007 RMK CI2 SLP182
CYYG;2003-09-25 20:00;METAR CYYG 252000Z 19010KT 15SM BKN330 20/10 A3006 RMK CI2 SLP179
CYYG;2003-09-25 21:00;METAR CYYG 252100Z 20011KT 15SM BKN330 20/11 A3005 RMK CI2 SLP175
CYYG;2003-09-25 22:00;METAR CYYG 252200Z 20010KT 15SM BKN330 18/11 A3005 RMK CI2 SLP175
CYYG;2003-09-25 23:00;METAR CYYG 252300Z 19015KT 15SM BKN330 18/11 A3005 RMK CI2 SLP176
CYYG;2003-09-26 00:00;METAR CYYG 260000Z 19012KT 15SM BKN330 18/12 A3006 RMK CI2 SLP179
CYYG;2003-09-26 01:00;METAR CYYG 260100Z 19012KT 15SM BKN330 17/13 A3006 RMK CI2 SLP178
CYYG;2003-09-26 02:00;METAR CYYG 260200Z 20010G15KT 15SM BKN330 16/14 A3005 RMK CI2 SLP177
CYYG;2003-09-26 03:00;METAR CYYG 260300Z 20011G16KT 15SM SCT330 16/13 A3006 RMK CI2 SLP178
CYYG;2003-09-26 04:00;METAR CYYG 260400Z 21009KT 15SM FEW330 15/13 A3006 RMK CI1 SLP180
CYYG;2003-09-26 05:00;METAR CYYG 260500Z 21006KT 15SM SKC 14/11 A3009 RMK SLP188
CYYG;2003-09-26 06:00;METAR CYYG 260600Z 22007KT 15SM SKC 15/12 A3010 RMK SLP193
CYYG;2003-09-26 07:00;METAR CYYG 260700Z 21004KT 15SM SKC 14/12 A3010 RMK SLP192
CYYG;2003-09-26 08:00;METAR CYYG 260800Z 21005KT 15SM SKC 14/11 A3010 RMK SLP192
CYYG;2003-09-26 09:00;METAR CYYG 260900Z 18005KT 15SM FEW300 14/12 A3011 RMK CI1 SLP195
CYYG;2003-09-26 10:00;METAR CYYG 261000Z 19005KT 15SM FEW034 BKN300 14/12 A3012 RMK SC2CS2 SLP199
CYYG;2003-09-26 11:00;METAR CYYG 261100Z 18003KT 15SM FEW034 BKN280 14/12 A3014 RMK SC1CI2 SLP207
CYYG;2003-09-26 12:00;METAR CYYG 261200Z 20007KT 15SM BKN280 17/13 A3014 RMK CI1 SLP208
CYYG;2003-09-26 13:00;METAR CYYG 261300Z 20008KT 15SM SCT280 18/14 A3017 RMK CI1 SLP215
CYYG;2003-09-26 14:00;METAR CYYG 261400Z 21007KT 15SM FEW025 FEW280 19/14 A3018 RMK CU1CI1 SLP219
CYYG;2003-09-26 15:00;METAR CYYG 261500Z 19008KT 15SM FEW030 FEW280 20/15 A3017 RMK CU1CI1 SLP218
CYYG;2003-09-26 16:00;METAR CYYG 261600Z 19008KT 15SM FEW030 FEW280 21/15 A3018 RMK CU1CI1 SLP220
CYYG;2003-09-26 17:00;METAR CYYG 261700Z 21007KT 15SM FEW030 FEW140 FEW300 21/15 A3018 RMK CU1AC1CI1 SLP219
CYYG;2003-09-26 18:00;METAR CYYG 261800Z 19006KT 15SM FEW030 FEW150 SCT300 22/14 A3018 RMK CU1AC2CI0 SLP220
CYYG;2003-09-26 19:00;METAR CYYG 261900Z 16008KT 15SM FEW030 FEW150 FEW300 22/14 A3019 RMK CU1AC1CI1 SLP223
CYYG;2003-09-26 20:00;METAR CYYG 262000Z 21004KT 15SM FEW030 FEW150 SCT300 22/13 A3018 RMK CU1AC1CI1 SLP221
CYYG;2003-09-26 21:00;METAR CYYG 262100Z 18004KT 15SM FEW150 SCT300 21/13 A3019 RMK AC1CI1 SLP223
CYYG;2003-09-26 22:00;METAR CYYG 262200Z 16002KT 15SM SCT150 BKN300 20/13 A3020 RMK AC3CI1 SLP225
CYYG;2003-09-26 23:00;METAR CYYG 262300Z 16003KT 15SM FEW150 BKN300 18/13 A3021 RMK AC2CI1 SLP229
CYYG;2003-09-27 00:00;METAR CYYG 270000Z 14004KT 15SM SCT086 BKN240 17/14 A3023 RMK AC3CI2 SLP236
CYYG;2003-09-27 01:00;METAR CYYG 270100Z 15004KT 15SM BKN086 BKN240 17/14 A3023 RMK AC5CI2 SLP238
CYYG;2003-09-27 02:00;METAR CYYG 270200Z 15004KT 15SM SCT052 BKN086 18/14 A3024 RMK SC3AC4 SLP239
CYYG;2003-09-27 03:00;METAR CYYG 270300Z 15005KT 15SM SCT052 BKN086 OVC140 18/14 A3024 RMK SC3AC3AC2 SLP241
CYYG;2003-09-27 04:00;METAR CYYG 270400Z 12003KT 15SM FEW052 BKN086 OVC140 17/15 A3024 RMK SC2AC3AC2 SLP241
CYYG;2003-09-27 05:00;METAR CYYG 270500Z 14004KT 15SM FEW048 SCT086 OVC160 16/14 A3025 RMK SC2AC2AC4 SLP243
CYYG;2003-09-27 06:00;METAR CYYG 270600Z 14004KT 15SM FEW048 SCT090 OVC160 17/15 A3025 RMK
CYYG;2003-09-27 07:00;METAR CYYG 270700Z 11002KT 15SM FEW048 SCT100 OVC160 17/16 A3025 RMK SC1AC3AC4 SLP243
CYYG;2003-09-27 08:00;METAR CYYG 270800Z 18006KT 15SM FEW035 BKN110 OVC160 17/16 A3026 RMK SC1AC5AC2 SLP247
CYYG;2003-09-27 09:00;METAR CYYG 270900Z 16007KT 15SM FEW015 SCT035 OVC110 18/17 A3025 RMK SC2SC2AC5 SLP244
CYYG;2003-09-27 10:00;METAR CYYG 271000Z 16007KT 10SM BKN007 18/17 A3026 RMK SF7 SLP246
CYYG;2003-09-27 11:00;METAR CYYG 271100Z 17007KT 12SM FEW003 BKN007 BKN110 BKN300 18/17 A3027 RMK SF2SF3AC1CI0 SLP249
CYYG;2003-09-27 12:00;METAR CYYG 271200Z 16006KT 10SM SCT003 BKN008 BKN300 19/18 A3029 RMK SF3SF3CI1 SLP257
CYYG;2003-09-27 13:00;METAR CYYG 271300Z 18008KT 15SM FEW007 FEW100 SCT300 21/19 A3030 RMK SF2ACC1CI0 SLP261
CYYG;2003-09-27 14:00;METAR CYYG 271400Z 17009KT 15SM FEW010 FEW030 FEW300 23/19 A3031 RMK CF1CU1CI1 SLP263
CYYG;2003-09-27 15:00;METAR CYYG 271500Z 16011KT 15SM FEW010 FEW030 FEW300 23/18 A3031 RMK CF1CU1CI1 SLP262
CYYG;2003-09-27 16:00;METAR CYYG 271600Z 17012G18KT 15SM FEW024 FEW300 24/18 A3030 RMK CU2CI0 SLP260
CYYG;2003-09-27 17:00;METAR CYYG 271700Z 18013G18KT 15SM FEW030 SCT300 24/18 A3029 RMK CU2CI1 SLP257
CYYG;2003-09-27 18:00;METAR CYYG 271800Z 16013G18KT 15SM FEW025 FEW300 24/17 A3028 RMK CU1CI1 SLP253
CYYG;2003-09-27 19:00;METAR CYYG 271900Z 16014KT 15SM FEW025 SCT300 24/15 A3028 RMK CU1CI2 SLP252
CYYG;2003-09-27 20:00;METAR CYYG 272000Z 16012G18KT 15SM FEW030 SCT300 23/14 A3028 RMK CU1CI1
CYYG;2003-09-27 21:00;METAR CYYG 272100Z 16010KT 15SM FEW100 BKN300 22/13 A3027 RMK AC1CI1 SLP251
CYYG;2003-09-27 22:00;METAR CYYG 272200Z 15006KT 15SM FEW100 SCT300 20/14 A3028 RMK AC1CI1 SLP254
CYYG;2003-09-27 23:00;METAR CYYG 272300Z 14007KT 15SM FEW071 BKN300 19/15 A3029 RMK AC2CI2 SLP256
CYYG;2003-09-28 00:00;METAR CYYG 280000Z 14007KT 15SM FEW071 BKN300 19/16 A3028 RMK AC2CI2 SLP255
CYYG;2003-09-28 01:00;METAR CYYG 280100Z 15007KT 15SM FEW070 BKN300 18/16 A3028 RMK AC2CI2
CYYG;2003-09-28 02:00;METAR CYYG 280200Z 14009KT 15SM FEW070 BKN300 18/16 A3028 RMK AC2CI2
CYYG;2003-09-28 03:00;METAR CYYG 280300Z 14009KT 15SM FEW070 BKN230 17/16 A3028 RMK AC2CI2 SLP253
CYYG;2003-09-28 04:00;METAR CYYG 280400Z 15009KT 15SM FEW070 BKN220 17/16 A3026 RMK AC2CI2 SLP248
CYYG;2003-09-28 05:00;METAR CYYG 280500Z 14006KT 15SM FEW070 BKN220 17/16 A3026 RMK AC2CI2 SLP246
CYYG;2003-09-28 06:00;METAR CYYG 280600Z 14007KT 15SM FEW020 BKN220 17/16 A3025 RMK SC2CI2 SLP243
CYYG;2003-09-28 07:00;METAR CYYG 280700Z 15009KT 15SM SCT024 BKN220 17/16 A3024 RMK SC4CI2 SLP239
CYYG;2003-09-28 08:00;METAR CYYG 280800Z 14012G17KT 15SM FEW020 BKN220 18/15 A3022 RMK SC2CI2 SLP232
CYYG;2003-09-28 09:00;METAR CYYG 280900Z 14013KT 15SM FEW020 BKN220 18/15 A3020 RMK SC2CI2 SLP227
CYYG;2003-09-28 10:00;METAR CYYG 281000Z 14009KT 15SM BKN020 BKN220 17/15 A3020 RMK SC5CI2 SLP226
CYYG;2003-09-28 11:00;METAR CYYG 281100Z 13007KT 15SM BKN018 BKN220 17/15 A3019 RMK SC5CI2 SLP224
CYYG;2003-09-28 12:00;METAR CYYG 281200Z 14011G16KT 15SM BKN015 BKN220 18/15 A3019 RMK SC6CI1
CYYG;2003-09-28 13:00;METAR CYYG 281300Z 16015G20KT 15SM SCT018 BKN240 20/15 A3018 RMK SC3CC2 SLP221
CYYG;2003-09-28 14:00;METAR CYYG 281400Z 15015KT 15SM SCT020 BKN240 19/15 A3016 RMK SC3CC2 SLP214
CYYG;2003-09-28 15:00;METAR CYYG 281500Z 16016KT 15SM BKN025 BKN240 20/15 A3015 RMK SC5CC2 SLP209
CYYG;2003-09-28 16:00;METAR CYYG 281600Z 16017KT 15SM FEW025 BKN240 21/15 A3012 RMK SC2CC4 SLP201
CYYG;2003-09-28 17:00;METAR CYYG 281700Z 16013G20KT 15SM FEW025 BKN250 22/16 A3010 RMK SC2CI4 SLP192
CYYG;2003-09-28 18:00;METAR CYYG 281800Z 16014G24KT 15SM FEW025 BKN250 22/16 A3008 RMK SC2CI4 SLP186
CYYG;2003-09-28 19:00;METAR CYYG 281900Z 15018G24KT 15SM FEW025 BKN250 22/16 A3006 RMK SC2CI4 SLP178
CYYG;2003-09-28 20:00;METAR CYYG 282000Z 15021G27KT 15SM SCT026 BKN250 21/16 A3004 RMK SC4CI2 SLP173
CYYG;2003-09-28 21:00;METAR CYYG 282100Z 14016G22KT 15SM BKN027 BKN250 20/16 A3001 RMK SC5CI2 SLP164
CYYG;2003-09-28 22:00;METAR CYYG 282200Z 14014G19KT 15SM FEW027 SCT064 BKN300 19/16 A3000 RMK SC2SC2CI0 SLP158
CYYG;2003-09-28 23:00;METAR CYYG 282300Z 13012G17KT 15SM BKN020 BKN032 BKN048 19/16 A3000 RMK SC5SC1SC1 SLP159
CYYG;2003-09-29 00:00;METAR CYYG 290000Z 14013G18KT 15SM OVC015 19/16 A2998 RMK SC8 SLP152
CYYG;2003-09-29 01:00;METAR CYYG 290100Z 13014G19KT 15SM FEW012 OVC015 19/17 A2996 RMK SF2SC6 SLP144
CYYG;2003-09-29 02:00;METAR CYYG 290200Z 12014G19KT 15SM BKN011 BKN023 OVC040 19/17 A2989 RMK SC5SC2SC2 PRESFR SLP122
CYYG;2003-09-29 03:00;METAR CYYG 290300Z 11015G21KT 15SM -RA SCT008 BKN015 OVC140 19/17 A2982 RMK SF3SC2AC2 PRESFR SLP099
CYYG;2003-09-29 04:00;METAR CYYG 290400Z 11018G25KT 10SM -RA FEW008 BKN012 OVC037 19/17 A2973 RMK SF2SC4SC2 PRESFR SLP066
CYYG;2003-09-29 05:00;METAR CYYG 290500Z 11026G37KT 5SM +RA BR BKN008 OVC016 19/18 A2954 RMK SF6SC2 PRESFR SLP004
CYYG;2003-09-29 06:00;METAR CYYG 290600Z 12032G45KT 2SM +RA BR BKN008 OVC016 20/19 A2927 RMK SF6SC2 PRESFR SLP912
CYYG;2003-09-29 07:00;METAR CYYG 290700Z 18044G61KT 10SM -RA OVC012 20/19 A2930 RERA RMK SC8 SLP922
CYYG;2003-09-29 08:00;METAR CYYG 290800Z 21029G44KT 3SM -SHRA BR OVC008 19/18 A2954 RERA RMK SF8 PRESRR SLP003
CYYG;2003-09-29 09:00;METAR CYYG 290900Z 21026G33KT 15SM OVC011 19/18 A2967 RMK SC8 PRESRR SLP047
CYYG;2003-09-29 10:00;METAR CYYG 291000Z 21015G25KT 15SM FEW011 SCT020 BKN080 BKN250 20/20 A2975 RMK SC1SC3AC2CI0 PRESRR SLP073
CYYG;2003-09-29 11:00;METAR CYYG 291100Z 20014G19KT 15SM FEW011 BKN016 BKN050 BKN080 21/20 A2978 RMK SC1SC5SC1AC2 SLP085
CYYG;2003-09-29 12:00;METAR CYYG 291200Z 18012KT 15SM OVC011 20/20 A2982 RMK SC8 SLP098
CYYG;2003-09-29 13:00;METAR CYYG 291300Z 18014KT 2 1/2SM SHRA BR BKN008 OVC014 20/20 A2984 RMK SC6SC2 SLP105
CYYG;2003-09-29 14:00;METAR CYYG 291400Z 17010G16KT 6SM -SHRA BR BKN004 BKN010 OVC030 20/20 A2981 RMK SF6SC1SC1 RERA SLP093
CYYG;2003-09-29 15:00;METAR CYYG 291500Z 18012G17KT 4SM -SHRA BR OVC004 21/21 A2981 RMK SF8 SLP095
CYYG;2003-09-29 16:00;METAR CYYG 291600Z 19013KT 15SM BKN008 BKN250 23/22 A2982 RMK SC5CI1 SLP099
CYYG;2003-09-29 17:00;METAR CYYG 291700Z 20017KT 15SM BKN018 BKN250 23/21 A2985 RMK SC6CI0 CB DIST SE SLP108
CYYG;2003-09-29 18:00;METAR CYYG 291800Z 20011G17KT 15SM FEW015 BKN033 BKN250 23/19 A2985 RMK SC1SC6CI1 CB DIST E SLP109
CYYG;2003-09-29 19:00;METAR CYYG 291900Z 21012KT 15SM FEW026 SCT090 BKN250 24/21 A2986 RMK SC2AC1CI2 CB DIST E SLP111
CYYG;2003-09-29 20:00;METAR CYYG 292000Z 19009KT 15SM SCT030 BKN250 23/20 A2987 RMK SC4CI2 SLP115
CYYG;2003-09-29 21:00;METAR CYYG 292100Z 19008KT 15SM FEW030 SCT100 BKN250 22/20 A2987 RMK SC2AC2CI1 SLP114
CYYG;2003-09-29 22:00;METAR CYYG 292200Z 20007KT 15SM SCT037 SCT100 BKN250 21/19 A2987 RMK SC3AC1CI0 TCU TOPS DIST E SLP116
CYYG;2003-09-29 23:00;METAR CYYG 292300Z 17007KT 15SM FEW037 FEW100 20/19 A2987 RMK SC1AC1
CYYG;2003-09-30 00:00;METAR CYYG 300000Z 18015KT 15SM FEW037 FEW100 21/19 A2988 RMK SC1AC1 SLP119
CYYG;2003-09-30 01:00;METAR CYYG 300100Z 17016KT 15SM FEW040 FEW100 20/18 A2986 RMK SC1AC1 SLP113
CYYG;2003-09-30 02:00;METAR CYYG 300200Z 17013KT 15SM FEW230 19/18 A2985 RMK CI1 SLP108
CYYG;2003-09-30 03:00;METAR CYYG 300300Z 18014KT 15SM FEW010 SCT230 19/18 A2984 RMK SF2CI1 SLP105
CYYG;2003-09-30 04:00;METAR CYYG 300400Z 18012KT 15SM FEW010 SCT073 19/18 A2983 RMK SF2AC2 SLP102
CYYG;2003-09-30 05:00;METAR CYYG 300500Z 19014KT 15SM FEW010 FEW040 SCT075 BKN120 19/19 A2983 RMK SF1SC1AC2AC2 SLP101
CYYG;2003-09-30 06:00;METAR CYYG 300600Z 23020KT 15SM -SHRA SCT010 BKN035 OVC070 19/18 A2985 RMK SF3SC3AC2 SLP108
CYYG;2003-09-30 07:00;METAR CYYG 300700Z 24011G25KT 15SM -SHRA FEW010 BKN034 OVC070 18/16 A2987 RMK SF2SC3AC3 SLP113
CYYG;2003-09-30 08:00;METAR CYYG 300800Z 25014G20KT 15SM FEW010 BKN034 BKN070 16/14 A2991 RMK SF2SC3AC2 SLP127
CYYG;2003-09-30 09:00;METAR CYYG 300900Z 25010KT 15SM FEW035 FEW070 14/13 A2990 RMK SC1AC1 SLP127
CYYG;2003-09-30 10:00;METAR CYYG 301000Z 25007KT 15SM FEW035 FEW070 14/13 A2995 RMK SC1AC1 SLP141
CYYG;2003-09-30 11:00;METAR CYYG 301100Z 24009KT 15SM FEW030 FEW070 15/13 A2998 RMK SC1AC1 SLP154
CYYG;2003-09-30 12:00;METAR CYYG 301200Z 25007KT 15SM FEW030 15/13 A3001 RMK SC2 SLP164
CYYG;2003-09-30 13:00;METAR CYYG 301300Z 24011KT 15SM FEW030 16/13 A3004 RMK SC2 SLP171
CYYG;2003-09-30 14:00;METAR CYYG 301400Z 27012KT 15SM FEW030 16/12 A3005 RMK SC2 SLP176
CYYG;2003-09-30 15:00;METAR CYYG 301500Z 26010G15KT 15SM FEW030 17/11 A3005 RMK SC2 SLP177
CYYG;2003-09-30 16:00;METAR CYYG 301600Z 25011KT 15SM SCT030 18/11 A3005 RMK SC3 SLP177
CYYG;2003-09-30 17:00;METAR CYYG 301700Z 23009KT 15SM SCT030 18/12 A3005 RMK SC3 SLP176
CYYG;2003-09-30 18:00;METAR CYYG 301800Z 24009KT 15SM SCT032 19/12 A3005 RMK SC3 SLP175
CYYG;2003-09-30 19:00;METAR CYYG 301900Z 22011KT 15SM FEW032 18/11 A3006 RMK SC2 SLP178
CYYG;2003-09-30 20:00;METAR CYYG 302000Z 23010KT 15SM FEW030 FEW260 18/10 A3006 RMK SC1CI0 SLP178
CYYG;2003-09-30 21:00;METAR CYYG 302100Z 26007KT 15SM FEW030 FEW260 18/10 A3006 RMK SC1CI0 SLP180
CYYG;2003-09-30 22:00;METAR CYYG 302200Z 26006KT 15SM FEW035 FEW260 16/10 A3006 RMK SC1CI0 SLP181
CYYG;2003-09-30 23:00;METAR CYYG 302300Z 26005KT 15SM FEW035 FEW260 15/10 A3009 RMK SC1CI0 SLP190
CYYG;2003-10-01 00:00;METAR CYYG 010000Z 25004KT 15SM FEW035 14/10 A3011 RMK SC1 SLP197
CYYG;2003-10-01 01:00;METAR CYYG 010100Z 23006KT 15SM FEW035 13/10 A3012 RMK SC1 SLP199
CYYG;2003-10-01 02:00;METAR CYYG 010200Z 25006KT 15SM FEW055 13/10 A3012 RMK SC1 SLP202
CYYG;2003-10-01 03:00;METAR CYYG 010300Z 27006KT 15SM SKC 12/11 A3012 RMK SLP202
CYYG;2003-10-01 04:00;METAR CYYG 010400Z 27005KT 15SM FEW050 12/10 A3013 RMK SC1 SLP204
CYYG;2003-10-01 05:00;METAR CYYG 010500Z 28005KT 15SM FEW050 11/10 A3014 RMK SC1 SLP207
CYYG;2003-10-01 06:00;METAR CYYG 010600Z 32004KT 15SM FEW050 10/10 A3013 RMK SC1 SLP205
CYYG;2003-10-01 07:00;METAR CYYG 010700Z 32004KT 15SM SKC 10/09 A3013 RMK SLP205
CYYG;2003-10-01 08:00;METAR CYYG 010800Z 31003KT 15SM SKC 09/08 A3014 RMK SLP209
CYYG;2003-10-01 09:00;METAR CYYG 010900Z 33004KT 15SM FEW040 07/07 A3016 RMK SC1 SLP215
CYYG;2003-10-01 10:00;METAR CYYG 011000Z 03002KT 15SM FEW040 SCT250 08/08 A3016 RMK SC2CI1 SLP213
CYYG;2003-10-01 11:00;METAR CYYG 011100Z 36002KT 15SM FEW042 BKN250 08/08 A3017 RMK SC2CI1 SLP219
CYYG;2003-10-01 12:00;METAR CYYG 011200Z 06003KT 15SM FEW042 SCT250 13/12 A3017 RMK SC2CI0 SLP218
CYYG;2003-10-01 13:00;METAR CYYG 011300Z 05005KT 15SM FEW040 SCT250 15/11 A3017 RMK SC2CI0 SLP217
CYYG;2003-10-01 14:00;METAR CYYG 011400Z 07003KT 15SM FEW037 FEW100 SCT250 16/10 A3016 RMK SC2AC1CI0 SLP214
CYYG;2003-10-01 15:00;METAR CYYG 011500Z 10003KT 15SM FEW038 BKN250 17/10 A3014 RMK SC2CI1 SLP209
CYYG;2003-10-01 16:00;METAR CYYG 011600Z 18004KT 15SM FEW040 BKN250 18/11 A3013 RMK SC2CI2 SLP203
CYYG;2003-10-01 17:00;METAR CYYG 011700Z 21003KT 15SM FEW044 BKN250 18/09 A3011 RMK SC2CI2 SLP198
CYYG;2003-10-01 18:00;METAR CYYG 011800Z 20005KT 15SM FEW044 BKN250 18/09 A3010 RMK CU2CI2 SLP194
CYYG;2003-10-01 19:00;METAR CYYG 011900Z 04009KT 15SM FEW040 BKN250 16/12 A3008 RMK SC1CI2 SLP188
CYYG;2003-10-01 20:00;METAR CYYG 012000Z 04007KT 15SM FEW040 FEW120 BKN250 15/11 A3009 RMK SC1AC1CI3 SLP189
CYYG;2003-10-01 21:00;METAR CYYG 012100Z 04005KT 15SM FEW040 FEW120 BKN250 14/12 A3009 RMK SC1AC2CI3 SLP189
CYYG;2003-10-01 22:00;METAR CYYG 012200Z 03003KT 15SM FEW040 FEW120 BKN250 13/12 A3009 RMK SC1AC2CI3 SLP192
CYYG;2003-10-01 23:00;METAR CYYG 012300Z 05003KT 15SM FEW040 FEW078 BKN250 12/11 A3009 RMK SC1AC2CI4 SLP192
CYYG;2003-10-02 00:00;METAR CYYG 020000Z 00000KT 15SM FEW076 BKN250 11/11 A3010 RMK AC2CI4 SLP194
CYYG;2003-10-02 01:00;METAR CYYG 020100Z 01002KT 15SM SCT100 BKN250 12/12 A3009 RMK AC3CI2 SLP192
CYYG;2003-10-02 02:00;METAR CYYG 020200Z 00000KT 15SM BKN160 12/12 A3009 RMK AC6 SLP191
CYYG;2003-10-02 03:00;METAR CYYG 020300Z 18003KT 15SM SCT160 12/11 A3009 RMK AC4 SLP190
CYYG;2003-10-02 04:00;METAR CYYG 020400Z 24004KT 15SM SCT160 12/10 A3008 RMK AC3 SLP186
CYYG;2003-10-02 05:00;METAR CYYG 020500Z 26005KT 15SM FEW160 11/09 A3007 RMK AC2 SLP183
CYYG;2003-10-02 06:00;METAR CYYG 020600Z 27006KT 15SM SKC 10/09 A3006 RMK SLP182
CYYG;2003-10-02 07:00;METAR CYYG 020700Z 27005KT 15SM SKC 09/09 A3006 RMK SLP181
CYYG;2003-10-02 08:00;METAR CYYG 020800Z 27005KT 15SM SKC 09/08 A3007 RMK SLP183
CYYG;2003-10-02 09:00;METAR CYYG 020900Z 27002KT 15SM SKC 08/08 A3008 RMK SLP186
CYYG;2003-10-02 11:00;METAR CYYG 021100Z 28006KT 15SM FEW020 FEW250 10/09 A3008 RMK CU1CI2 SLP187
CYYG;2003-10-02 12:00;METAR CYYG 021200Z 28003KT 15SM FEW025 BKN250 11/11 A3008 RMK CU1CI2 SLP188
CYYG;2003-10-02 13:00;METAR CYYG 021300Z 30004KT 15SM FEW025 FEW250 14/11 A3006 RMK CU1CI1 SLP181
CYYG;2003-10-02 14:00;METAR CYYG 021400Z 27003KT 15SM FEW030 FEW250 15/09 A3006 RMK CU1CI1 SLP179
CYYG;2003-10-02 15:00;METAR CYYG 021500Z 17002KT 15SM FEW030 FEW120 FEW250 16/08 A3005 RMK CU1AC1CI1 SLP176
CYYG;2003-10-02 16:00;METAR CYYG 021600Z 20006KT 15SM FEW036 FEW120 FEW250 17/08 A3003 RMK CU1AC1CI1 SLP169
CYYG;2003-10-02 17:00;METAR CYYG 021700Z 19003KT 15SM FEW036 FEW110 FEW250 17/05 A3000 RMK CU1AC1CI1 SLP160
CYYG;2003-10-02 18:00;METAR CYYG 021800Z 15004KT 15SM FEW040 FEW110 FEW250 17/05 A2998 RMK CU1AC1CI0 SLP151
CYYG;2003-10-02 19:00;METAR CYYG 021900Z 21002KT 15SM FEW040 FEW110 FEW250 17/09 A2996 RMK CU1AC1CI0 SLP145
CYYG;2003-10-02 20:00;METAR CYYG 022000Z 07005KT 15SM FEW039 SCT110 16/10 A2995 RMK CU1AC2 SLP143
CYYG;2003-10-02 21:00;METAR CYYG 022100Z 05007KT 15SM FEW039 SCT120 15/11 A2993 RMK CU1AC4 SLP138
CYYG;2003-10-02 22:00;METAR CYYG 022200Z 07005KT 15SM SCT120 12/11 A2992 RMK AC3 SLP132
CYYG;2003-10-02 23:00;METAR CYYG 022300Z 08003KT 15SM FEW120 11/11 A2991 RMK AC2 SLP129
CYYG;2003-10-03 00:00;METAR CYYG 030000Z 10005KT 15SM BKN170 13/11 A2988 RMK AC6 SLP118
CYYG;2003-10-03 01:00;METAR CYYG 030100Z 10004KT 15SM BKN076 13/12 A2986 RMK AC7 SLP113
CYYG;2003-10-03 02:00;METAR CYYG 030200Z 11004KT 15SM FEW025 BKN120 13/13 A2982 RMK SC2AC5 SLP099
CYYG;2003-10-03 03:00;METAR CYYG 030300Z 16006KT 15SM FEW025 OVC087 14/13 A2979 RMK SC2AC6 SLP090
CYYG;2003-10-03 04:00;METAR CYYG 030400Z 19005KT 10SM -SHRA FEW020 OVC058 13/11 A2975 RMK SC2SC6 SLP076
CYYG;2003-10-03 05:00;METAR CYYG 030500Z 22008KT 12SM OVC050 12/09 A2975 RMK SC8 SLP074
CYYG;2003-10-03 06:00;METAR CYYG 030600Z 21002KT 15SM BKN018 OVC050 10/10 A2971 RMK SC6SC2 SLP061
CYYG;2003-10-03 07:00;METAR CYYG 030700Z 11003KT 10SM BKN023 OVC043 10/10 A2969 RMK SC6SC2 SLP054
CYYG;2003-10-03 08:00;METAR CYYG 030800Z 19008KT 12SM -SHRA FEW004 SCT023 OVC070 12/12 A2967 RMK SF2SC2AC4 SLP047
CYYG;2003-10-03 10:00;METAR CYYG 031000Z CCA 22009KT 12SM -SHRA FEW010 SCT020 OVC043 12/11 A2966 RMK SF1SC2SC5 RERA SLP043
CYYG;2003-10-03 11:00;METAR CYYG 031100Z 23022G31KT 15SM BKN029 BKN045 10/07 A2969 RMK SC5SC2 SLP053
CYYG;2003-10-03 12:00;METAR CYYG 031200Z 25017G28KT 15SM BKN034 10/05 A2972 RMK SC5 SLP066
CYYG;2003-10-03 13:00;METAR CYYG 031300Z 26017G31KT 15SM FEW025 SCT300 09/03 A2978 RMK CU2CI1 SLP085
CYYG;2003-10-03 14:00;METAR CYYG 031400Z 26019G28KT 15SM BKN026 BKN300 09/03 A2982 RMK SC6CI1 SLP097
CYYG;2003-10-03 15:00;METAR CYYG 031500Z 25021G27KT 15SM BKN029 09/03 A2985 RMK SC6 SLP109
CYYG;2003-10-03 16:00;METAR CYYG 031600Z 25016G25KT 15SM BKN031 10/04 A2987 RMK SC6 SLP115
CYYG;2003-10-03 17:00;METAR CYYG 031700Z 27017G27KT 15SM BKN038 10/04 A2989 RMK SC6 SLP121
CYYG;2003-10-03 18:00;METAR CYYG 031800Z 27015G21KT 15SM FEW035 FEW300 11/03 A2991 RMK CU2CI1 SLP131
CYYG;2003-10-03 19:00;METAR CYYG 031900Z 26012G19KT 15SM FEW040 FEW300 11/03 A2994 RMK CU2CI1 SLP139
CYYG;2003-10-03 20:00;METAR CYYG 032000Z 26010G20KT 15SM FEW040 FEW300 12/02 A2997 RMK CU2CI1 SLP149
CYYG;2003-10-03 21:00;METAR CYYG 032100Z 25009KT 15SM FEW046 11/03 A3000 RMK CU1 SLP159
CYYG;2003-10-03 22:00;METAR CYYG 032200Z 25005KT 15SM FEW045 10/02 A3002 RMK CU1 SLP168
CYYG;2003-10-03 23:00;METAR CYYG 032300Z 24008KT 15SM FEW035 10/06 A3006 RMK CU1 SLP181
CYYG;2003-10-04 00:00;METAR CYYG 040000Z 25010G15KT 15SM FEW035 09/05 A3009 RMK CF1 SLP192
CYYG;2003-10-04 01:00;METAR CYYG 040100Z 26007KT 15SM SKC 09/06 A3011 RMK SLP198
CYYG;2003-10-04 02:00;METAR CYYG 040200Z 27006KT 15SM SKC 08/06 A3013 RMK SLP203
CYYG;2003-10-04 03:00;METAR CYYG 040300Z 26006KT 15SM SKC 08/06 A3014 RMK SLP206
CYYG;2003-10-04 04:00;METAR CYYG 040400Z 26003KT 15SM SKC 07/05 A3015 RMK SLP210
CYYG;2003-10-04 05:00;METAR CYYG 040500Z 26004KT 15SM SKC 07/05 A3016 RMK SLP215
CYYG;2003-10-04 06:00;METAR CYYG 040600Z 25004KT 15SM SKC 07/05 A3017 RMK SLP216
CYYG;2003-10-04 07:00;METAR CYYG 040700Z 26004KT 15SM SKC 07/05 A3017 RMK SLP217
CYYG;2003-10-04 08:00;METAR CYYG 040800Z 27002KT 15SM SKC 05/04 A3019 RMK SLP223
CYYG;2003-10-04 09:00;METAR CYYG 040900Z 00000KT 15SM SKC 04/03 A3019 RMK SLP224
CYYG;2003-10-04 10:00;METAR CYYG 041000Z 00000KT 15SM FEW030 SCT250 03/03 A3019 RMK SC1CI1 SLP226
CYYG;2003-10-04 11:00;METAR CYYG 041100Z 10003KT 15SM FEW030 FEW250 03/03 A3020 RMK SC1CI1 SLP230
CYYG;2003-10-04 12:00;METAR CYYG 041200Z 13007KT 15SM FEW025 09/08 A3021 RMK SC2 SLP232
CYYG;2003-10-04 13:00;METAR CYYG 041300Z 16011KT 15SM FEW025 SCT250 12/06 A3023 RMK SC2CI1 SLP236
CYYG;2003-10-04 14:00;METAR CYYG 041400Z 16014G20KT 15SM FEW030 SCT250 12/02 A3023 RMK SC1CI1 SLP237
CYYG;2003-10-04 15:00;METAR CYYG 041500Z 15015G20KT 15SM FEW030 BKN250 12/03 A3021 RMK SC1CI2 SLP232
CYYG;2003-10-04 16:00;METAR CYYG 041600Z 18013KT 15SM FEW030 BKN250 12/04 A3020 RMK SC1CI2 SLP227
CYYG;2003-10-04 17:00;METAR CYYG 041700Z 18012KT 15SM FEW030 BKN250 14/05 A3018 RMK SC1CI2 SLP222
CYYG;2003-10-04 18:00;METAR CYYG 041800Z 16010KT 15SM FEW030 BKN250 15/04 A3016 RMK SC1CI2 SLP214
CYYG;2003-10-04 19:00;METAR CYYG 041900Z 16011KT 15SM FEW030 BKN250 15/05 A3013 RMK SC1CI2 SLP205
CYYG;2003-10-04 20:00;METAR CYYG 042000Z 16011G16KT 15SM FEW030 BKN250 16/05 A3011 RMK SC1CI2 SLP197
CYYG;2003-10-04 21:00;METAR CYYG 042100Z 15010G15KT 15SM FEW030 BKN250 14/06 A3009 RMK SC1CI2 SLP192
CYYG;2003-10-04 22:00;METAR CYYG 042200Z 17014G19KT 15SM FEW030 FEW150 SCT250 14/06 A3009 RMK SC1AC1CI0 SLP190
CYYG;2003-10-04 23:00;METAR CYYG 042300Z 17019KT 15SM FEW038 FEW150 SCT250 13/08 A3008 RMK SC1AC1CI0 SLP188
CYYG;2003-10-05 00:00;METAR CYYG 050000Z 16015G20KT 15SM FEW038 FEW150 SCT250 13/08 A3006 RMK SC1AC2CI0 SLP181
CYYG;2003-10-05 01:00;METAR CYYG 050100Z 14009KT 15SM FEW022 SCT038 BKN250 12/09 A3005 RMK SC2SC2CI1 SLP176
CYYG;2003-10-05 02:00;METAR CYYG 050200Z 14010KT 15SM FEW022 BKN250 11/09 A3002 RMK SC1CI2 SLP166
CYYG;2003-10-05 03:00;METAR CYYG 050300Z 15007G17KT 15SM FEW022 FEW180 BKN250 12/10 A3000 RMK SC1AC2CI0 SLP160
CYYG;2003-10-05 04:00;METAR CYYG 050400Z 16011G16KT 15SM FEW008 FEW180 BKN250 12/10 A2996 RMK SF1AC1CI1 SLP148
CYYG;2003-10-05 06:00;METAR CYYG 050600Z 15010KT 15SM FEW018 FEW140 OVC250 12/11 A2991 RMK SC1AC1CI2 SLP130
CYYG;2003-10-05 07:00;METAR CYYG 050700Z 14010KT 15SM BKN013 OVC250 13/12 A2988 RMK SC5CI1 SLP119
CYYG;2003-10-05 08:00;METAR CYYG 050800Z 16012G17KT 15SM FEW013 BKN140 OVC250 13/13 A2985 RMK SC2AC3CI1 SLP109
CYYG;2003-10-05 09:00;METAR CYYG 050900Z 17018G25KT 15SM FEW013 OVC120 15/14 A2982 RMK SC1AC7 SLP098
CYYG;2003-10-05 10:00;METAR CYYG 051000Z 18018G23KT 15SM -SHRA FEW013 SCT050 OVC089 15/14 A2980 RMK SC1SC2AC5 SLP093
CYYG;2003-10-05 11:00;METAR CYYG 051100Z 17018G24KT 15SM -SHRA FEW016 BKN032 OVC088 15/15 A2978 RMK SC2SC3AC3 SLP085
CYYG;2003-10-05 12:00;METAR CYYG 051200Z 16015G25KT 15SM -SHRA FEW015 BKN022 OVC090 16/15 A2975 RMK SC1SC5AC2 SLP074
CYYG;2003-10-05 13:00;METAR CYYG 051300Z 17017G22KT 2SM SHRA BR FEW015 OVC025 16/16 A2975 RMK SC2SC6 SLP074
CYYG;2003-10-05 14:00;METAR CYYG 051400Z 22010KT 8SM -SHRA FEW006 SCT025 OVC050 15/15 A2976 RMK SF2SC2SC4 SLP079
CYYG;2003-10-05 15:00;METAR CYYG 051500Z 19011KT 4SM -SHRA BR BKN005 BKN020 OVC055 14/14 A2977 RMK SF5SC2SC1 SLP082
CYYG;2003-10-05 16:00;METAR CYYG 051600Z 18012KT 4SM -SHRA BR BKN005 BKN020 OVC040 14/14 A2975 RMK SF5SC2SC2 RERA SLP075
CYYG;2003-10-05 17:00;METAR CYYG 051700Z 18012KT 4SM -SHRA BR BKN004 OVC015 14/14 A2974 RMK SF6SC2 RERA SLP071
CYYG;2003-10-05 18:00;METAR CYYG 051800Z 25008KT 5SM -SHRA BR SCT005 OVC024 12/12 A2975 RMK SF3SC5 SLP074
CYYG;2003-10-05 19:00;METAR CYYG 051900Z 22007KT 15SM -SHRA FEW005 OVC033 12/12 A2974 RMK SF2SC6 SLP072
CYYG;2003-10-05 20:00;METAR CYYG 052000Z 22006KT 15SM FEW010 OVC038 13/11 A2974 RMK SC1SC7
CYYG;2003-10-05 21:00;METAR CYYG 052100Z 25006KT 15SM FEW010 OVC046 12/10 A2975 RMK SC1SC7 SLP076
CYYG;2003-10-05 22:00;METAR CYYG 052200Z 30006KT 15SM FEW022 BKN060 BKN250 12/10 A2977 RMK SC2SC2CI1 SLP080
CYYG;2003-10-05 23:00;METAR CYYG 052300Z 26006KT 15SM FEW019 FEW028 FEW055 SCT300 11/09 A2980 RMK SC1SC1SC1CI1 SLP091
CYYG;2003-10-06 00:00;METAR CYYG 060000Z 28003KT 15SM BKN027 BKN041 10/09 A2981 RMK SC6SC1 SLP095
CYYG;2003-10-06 01:00;METAR CYYG 060100Z 26005KT 15SM FEW040 10/08 A2983 RMK SC2 SLP103
CYYG;2003-10-06 02:00;METAR CYYG 060200Z 27005KT 15SM FEW040 08/06 A2985 RMK SC1 SLP108
CYYG;2003-10-06 03:00;METAR CYYG 060300Z 26007KT 15SM FEW040 09/06 A2985 RMK SC1 SLP110
CYYG;2003-10-06 04:00;METAR CYYG 060400Z 26007KT 15SM SKC 08/06 A2987 RMK SLP114
CYYG;2003-10-06 05:00;METAR CYYG 060500Z 27008KT 15SM SKC 08/05 A2987 RMK SLP116
CYYG;2003-10-06 06:00;METAR CYYG 060600Z 27010KT 15SM SKC 08/06 A2988 RMK SLP121
CYYG;2003-10-06 07:00;METAR CYYG 060700Z 27007KT 15SM SKC 06/05 A2989 RMK SLP123
CYYG;2003-10-06 08:00;METAR CYYG 060800Z 28006KT 15SM SKC 06/04 A2990 RMK SLP127
CYYG;2003-10-06 09:00;METAR CYYG 060900Z 27005KT 15SM SKC 05/04 A2992 RMK SLP134
CYYG;2003-10-06 10:00;METAR CYYG 061000Z 27004KT 15SM FEW025 FEW300 04/03 A2993 RMK SC1CI1 SLP136
CYYG;2003-10-06 11:00;METAR CYYG 061100Z 23003KT 15SM FEW025 FEW280 05/04 A2994 RMK SC1CI1 SLP141
CYYG;2003-10-06 12:00;METAR CYYG 061200Z 26003KT 15SM FEW025 FEW280 07/04 A2996 RMK SC1CI1 SLP145
CYYG;2003-10-06 13:00;METAR CYYG 061300Z 27008KT 15SM FEW025 FEW280 09/04 A2996 RMK SC1CI1 SLP147
CYYG;2003-10-06 14:00;METAR CYYG 061400Z 27009KT 15SM FEW025 SCT280 10/04 A2998 RMK SC1CI2 SLP152
CYYG;2003-10-06 15:00;METAR CYYG 061500Z 29010KT 15SM FEW025 BKN280 10/05 A2996 RMK SC1CI2
CYYG;2003-10-06 16:00;METAR CYYG 061600Z 26012KT 15SM FEW025 SCT280 11/05 A2994 RMK SC1CI2
CYYG;2003-10-06 17:00;METAR CYYG 061700Z 26007KT 15SM FEW025 SCT280 11/05 A2993 RMK SC1CI1
CYYG;2003-10-06 18:00;METAR CYYG 061800Z 23009KT 15SM FEW030 SCT280 13/05 A2992 RMK CU2CI1 SLP134
CYYG;2003-10-06 19:00;METAR CYYG 061900Z 25010G15KT 15SM FEW035 SCT280 12/04 A2991 RMK CU2CI1 SLP131
CYYG;2003-10-06 20:00;METAR CYYG 062000Z 25009G15KT 15SM FEW040 SCT280 12/04 A2992 RMK SC2CI1 SLP132
CYYG;2003-10-06 21:00;METAR CYYG 062100Z 24004KT 15SM SCT044 BKN280 11/05 A2992 RMK SC3CI2 SLP133
CYYG;2003-10-06 22:00;METAR CYYG 062200Z 28002KT 15SM FEW044 BKN064 10/05 A2993 RMK SC2SC3
CYYG;2003-10-06 23:00;METAR CYYG 062300Z 29004KT 15SM FEW044 BKN068 09/06 A2994 RMK CU2AC4
CYYG;2003-10-07 00:00;METAR CYYG 070000Z 29004KT 15SM FEW043 SCT068 09/05 A2995 RMK SC2AC2 SLP142
CYYG;2003-10-07 01:00;METAR CYYG 070100Z 30006KT 15SM FEW043 FEW068 08/04 A2995 RMK SC1AC1 SLP143
CYYG;2003-10-07 02:00;METAR CYYG 070200Z 29006KT 15SM FEW036 08/04 A2995 RMK SC1 SLP143
CYYG;2003-10-07 03:00;METAR CYYG 070300Z 28004KT 15SM FEW057 07/04 A2995 RMK SC2 SLP144
CYYG;2003-10-07 04:00;METAR CYYG 070400Z 31006KT 15SM BKN057 07/04 A2995 RMK SC6 SLP144
CYYG;2003-10-07 05:00;METAR CYYG 070500Z 29006KT 15SM FEW057 07/03 A2996 RMK SC2 SLP146
CYYG;2003-10-07 06:00;METAR CYYG 070600Z 32007KT 15SM BKN057 07/03 A2996 RMK SC6 SLP145
CYYG;2003-10-07 08:00;METAR CYYG 070800Z 26006KT 15SM FEW058 06/04 A2997 RMK SC2 SLP151
CYYG;2003-10-07 09:00;METAR CYYG 070900Z 29007KT 15SM SCT058 06/04 A2998 RMK SC3 SLP153
CYYG;2003-10-07 10:00;METAR CYYG 071000Z 30007KT 15SM SCT055 06/04 A2999 RMK SC3 SLP158
CYYG;2003-10-07 11:00;METAR CYYG 071100Z 29006KT 15SM FEW055 06/04 A3001 RMK SC2 SLP164
CYYG;2003-10-07 12:00;METAR CYYG 071200Z 30006KT 15SM FEW055 08/05 A3002 RMK SC2 SLP167
CYYG;2003-10-07 13:00;METAR CYYG 071300Z 29011KT 15SM FEW050 09/05 A3002 RMK SC2 SLP168
CYYG;2003-10-07 14:00;METAR CYYG 071400Z 29010G15KT 15SM SCT050 10/06 A3003 RMK SC3 SLP171
CYYG;2003-10-07 15:00;METAR CYYG 071500Z 29009KT 15SM FEW045 11/06 A3003 RMK SC2 SLP171
CYYG;2003-10-07 16:00;METAR CYYG 071600Z 29012KT 15SM SCT040 10/04 A3003 RMK SC4 SLP170
CYYG;2003-10-07 17:00;METAR CYYG 071700Z 30008G15KT 15SM BKN047 11/03 A3002 RMK SC5 SLP168
CYYG;2003-10-07 18:00;METAR CYYG 071800Z 26008KT 15SM BKN053 11/03 A3002 RMK SC6 SLP166
CYYG;2003-10-07 19:00;METAR CYYG 071900Z 26008KT 15SM FEW042 BKN057 10/01 A3002 RMK CU2SC6 SLP168
CYYG;2003-10-07 20:00;METAR CYYG 072000Z 27005KT 15SM FEW042 BKN058 10/02 A3003 RMK CU1SC6 SLP171
CYYG;2003-10-07 21:00;METAR CYYG 072100Z 28004KT 15SM FEW050 BKN062 09/03 A3003 RMK CU1SC6 SLP170
CYYG;2003-10-07 22:00;METAR CYYG 072200Z 28005KT 15SM BKN060 09/03 A3004 RMK SC7 SLP174
CYYG;2003-10-07 23:00;METAR CYYG 072300Z 25004KT 15SM OVC061 08/02 A3006 RMK SC8 SLP179
CYYG;2003-10-08 00:00;METAR CYYG 080000Z 26005KT 15SM BKN058 07/02 A3007 RMK SC7 SLP184
CYYG;2003-10-08 01:00;METAR CYYG 080100Z 26006KT 15SM BKN058 07/01 A3009 RMK SC5 SLP189
CYYG;2003-10-08 02:00;METAR CYYG 080200Z 26004KT 15SM FEW055 06/01 A3009 RMK SC2 SLP192
CYYG;2003-10-08 03:00;METAR CYYG 080300Z 27004KT 15SM FEW050 SCT110 BKN150 06/01 A3010 RMK SC2AC2AC2 SLP195
CYYG;2003-10-08 04:00;METAR CYYG 080400Z 25005KT 15SM FEW094 BKN120 07/02 A3010 RMK AC2AC2 SLP195
CYYG;2003-10-08 05:00;METAR CYYG 080500Z 25005KT 15SM BKN120 07/02 A3010 RMK AC6 SLP194
CYYG;2003-10-08 06:00;METAR CYYG 080600Z 24004KT 15SM BKN120 07/03 A3009 RMK AC5 SLP191
CYYG;2003-10-08 07:00;METAR CYYG 080700Z 24003KT 15SM BKN100 08/05 A3008 RMK AC5 SLP188
CYYG;2003-10-08 08:00;METAR CYYG 080800Z 24006KT 15SM FEW060 BKN100 09/05 A3007 RMK SC2AC3 SLP185
CYYG;2003-10-08 09:00;METAR CYYG 080900Z 22008KT 15SM BKN050 OVC100 09/06 A3007 RMK SC5AC3
CYYG;2003-10-08 10:00;METAR CYYG 081000Z 22009KT 15SM OVC052 10/08 A3007 RMK SC8 SLP184
CYYG;2003-10-08 11:00;METAR CYYG 081100Z 23014KT 15SM FEW018 FEW045 BKN081 10/08 A3006 RMK SC1SC2AC5 SLP182
CYYG;2003-10-08 12:00;METAR CYYG 081200Z 23014G19KT 15SM FEW018 OVC053 11/08 A3007 RMK SC1SC8 SLP183
CYYG;2003-10-08 13:00;METAR CYYG 081300Z 24016KT 15SM FEW020 SCT045 OVC072 12/09 A3007 RMK SC1SC3AC5 SLP183
CYYG;2003-10-08 14:00;METAR CYYG 081400Z 24012G18KT 15SM FEW020 FEW075 13/10 A3006 RMK CF1AC2 SLP180
CYYG;2003-10-08 15:00;METAR CYYG 081500Z 24014G22KT 15SM SCT022 SCT075 SCT300 14/10 A3004 RMK CU3AC1CI1 SLP174
CYYG;2003-10-08 16:00;METAR CYYG 081600Z 23017G22KT 15SM FEW028 FEW300 16/10 A3002 RMK CU1CI0 SLP167
CYYG;2003-10-08 17:00;METAR CYYG 081700Z 25015G24KT 15SM FEW030 FEW070 FEW300 17/10 A3000 RMK CU1AC1CI0 SLP160
CYYG;2003-10-08 18:00;METAR CYYG 081800Z 23013G22KT 15SM FEW030 FEW070 FEW300 17/10 A2998 RMK CF1AC1CI1 SLP155
CYYG;2003-10-08 19:00;METAR CYYG 081900Z 23013G21KT 15SM FEW300 17/10 A2997 RMK CI1 SLP150
CYYG;2003-10-08 20:00;METAR CYYG 082000Z 23017G22KT 15SM FEW300 17/09 A2996 RMK CI1 SLP146
CYYG;2003-10-08 21:00;METAR CYYG 082100Z 23013G19KT 15SM FEW280 16/09 A2995 RMK CI2 SLP141
CYYG;2003-10-08 22:00;METAR CYYG 082200Z 23012G18KT 15SM FEW280 15/08 A2995 RMK CI1 SLP143
CYYG;2003-10-08 23:00;METAR CYYG 082300Z 23014KT 15SM FEW280 14/08 A2995 RMK CI1 SLP142
CYYG;2003-10-09 00:00;METAR CYYG 090000Z 24013G18KT 15SM SKC 14/07 A2996 RMK SLP145
CYYG;2003-10-09 01:00;METAR CYYG 090100Z 24014G20KT 15SM SKC 13/07 A2996 RMK SLP145
CYYG;2003-10-09 02:00;METAR CYYG 090200Z 24010G19KT 15SM SKC 13/07 A2995 RMK SLP143
CYYG;2003-10-09 03:00;METAR CYYG 090300Z 24011G17KT 15SM SKC 13/08 A2995 RMK SLP141
CYYG;2003-10-09 04:00;METAR CYYG 090400Z 24013KT 15SM SKC 12/09 A2993 RMK SLP134
CYYG;2003-10-09 05:00;METAR CYYG 090500Z 25013G18KT 15SM SKC 12/10 A2993 RMK SLP136
CYYG;2003-10-09 06:00;METAR CYYG 090600Z 24011KT 15SM SKC 12/10 A2992 RMK SLP133
CYYG;2003-10-09 07:00;METAR CYYG 090700Z 26010KT 15SM FEW100 12/11 A2993 RMK AC1 SLP136
CYYG;2003-10-09 08:00;METAR CYYG 090800Z 26008KT 15SM FEW083 12/11 A2995 RMK AC2 SLP141
CYYG;2003-10-09 09:00;METAR CYYG 090900Z 28008KT 15SM FEW100 12/10 A2997 RMK AC2 SLP149
CYYG;2003-10-09 10:00;METAR CYYG 091000Z 32009KT 15SM BKN022 OVC075 13/11 A3001 RMK SC7AC1 SLP164
CYYG;2003-10-09 11:00;METAR CYYG 091100Z 02008G15KT 15SM BKN015 BKN038 11/10 A3006 RMK SC6SC2 PRESRR SLP180
CYYG;2003-10-09 12:00;METAR CYYG 091200Z 36006KT 15SM FEW015 BKN027 11/07 A3011 RMK SC1SC7 SLP197
CYYG;2003-10-09 13:00;METAR CYYG 091300Z 34009G18KT 15SM SCT030 12/05 A3015 RMK SC4 SLP211
CYYG;2003-10-09 14:00;METAR CYYG 091400Z 33013G19KT 15SM BKN036 12/05 A3018 RMK SC5 SLP220
CYYG;2003-10-09 15:00;METAR CYYG 091500Z 36012G17KT 15SM SCT035 12/04 A3020 RMK SC4 SLP228
CYYG;2003-10-09 16:00;METAR CYYG 091600Z 36011KT 15SM SCT035 12/04 A3021 RMK SC4 SLP232
CYYG;2003-10-09 17:00;METAR CYYG 091700Z 36010KT 15SM FEW035 12/05 A3023 RMK SC2 SLP236
CYYG;2003-10-09 18:00;METAR CYYG 091800Z 33010KT 15SM FEW035 11/04 A3024 RMK SC1 SLP241
CYYG;2003-10-09 19:00;METAR CYYG 091900Z 36009KT 15SM FEW035 FEW300 11/03 A3025 RMK SC1CI1 SLP243
CYYG;2003-10-09 20:00;METAR CYYG 092000Z 35007KT 15SM FEW035 FEW300 11/04 A3025 RMK SC1CI1 SLP244
CYYG;2003-10-09 21:00;METAR CYYG 092100Z 36004KT 15SM FEW300 09/04 A3026 RMK CI1 SLP248
CYYG;2003-10-09 22:00;METAR CYYG 092200Z 00000KT 15SM SKC 08/04 A3028 RMK SLP254
CYYG;2003-10-09 23:00;METAR CYYG 092300Z 00000KT 15SM SKC 05/03 A3029 RMK SLP259
CYYG;2003-10-10 00:00;METAR CYYG 100000Z 00000KT 15SM SKC 05/02 A3031 RMK SLP265
CYYG;2003-10-10 01:00;METAR CYYG 100100Z 23004KT 15SM SKC 05/03 A3032 RMK SLP268
CYYG;2003-10-10 02:00;METAR CYYG 100200Z 25003KT 15SM SKC 03/02 A3032 RMK SLP269
CYYG;2003-10-10 03:00;METAR CYYG 100300Z 23003KT 15SM SKC 03/01 A3032 RMK SLP268
CYYG;2003-10-10 04:00;METAR CYYG 100400Z 25004KT 15SM SKC 04/01 A3031 RMK SLP266
CYYG;2003-10-10 05:00;METAR CYYG 100500Z 24004KT 15SM SKC 03/01 A3031 RMK SLP266
CYYG;2003-10-10 06:00;METAR CYYG 100600Z 00000KT 15SM SKC 02/02 A3031 RMK SLP264
CYYG;2003-10-10 07:00;METAR CYYG 100700Z 00000KT 15SM SKC 02/01 A3029 RMK SLP260
CYYG;2003-10-10 08:00;METAR CYYG 100800Z 22005KT 15SM SKC 03/02 A3031 RMK SLP264
CYYG;2003-10-10 09:00;METAR CYYG 100900Z 24005KT 15SM FEW250 06/04 A3031 RMK CI1 SLP266
CYYG;2003-10-10 10:00;METAR CYYG 101000Z 23005KT 15SM FEW250 06/05 A3031 RMK CI1 SLP267
CYYG;2003-10-10 11:00;METAR CYYG 101100Z 23004KT 15SM FEW025 FEW300 07/06 A3033 RMK SC1CI0 SLP272
CYYG;2003-10-10 12:00;METAR CYYG 101200Z 23004KT 15SM FEW025 FEW300 08/06 A3033 RMK CU1CI0 SLP273
CYYG;2003-10-10 13:00;METAR CYYG 101300Z 24005KT 15SM FEW030 FEW300 11/09 A3033 RMK SC1CI1
CYYG;2003-10-10 14:00;METAR CYYG 101400Z 23008KT 15SM FEW025 FEW300 13/08 A3031 RMK CU1CI1 SLP267
CYYG;2003-10-10 15:00;METAR CYYG 101500Z 25010KT 15SM FEW030 FEW300 14/05 A3032 RMK CU1CI1 SLP268
CYYG;2003-10-10 16:00;METAR CYYG 101600Z 25010G16KT 15SM FEW030 FEW300 14/03 A3031 RMK CU1CI1 SLP264
CYYG;2003-10-10 17:00;METAR CYYG 101700Z 27011G16KT 15SM FEW030 FEW300 14/03 A3028 RMK CU1CI1 SLP256
CYYG;2003-10-10 18:00;METAR CYYG 101800Z 30009KT 15SM FEW030 FEW300 15/00 A3027 RMK CU1CI1 SLP252
CYYG;2003-10-10 19:00;METAR CYYG 101900Z 27006KT 15SM FEW300 15/02 A3025 RMK CI0 SLP246
CYYG;2003-10-10 20:00;METAR CYYG 102000Z 26004KT 15SM FEW300 15/03 A3024 RMK CI0 SLP243
CYYG;2003-10-10 21:00;METAR CYYG 102100Z 24002KT 15SM FEW300 14/01 A3023 RMK CI0 SLP236
CYYG;2003-10-10 22:00;METAR CYYG 102200Z 20003KT 15SM FEW300 12/02 A3023 RMK CI0 SLP236
CYYG;2003-10-10 23:00;METAR CYYG 102300Z 22003KT 15SM FEW300 11/03 A3023 RMK CI0 SLP238
CYYG;2003-10-11 00:00;METAR CYYG 110000Z 22005KT 15SM FEW300 10/05 A3023 RMK CI0 SLP239
CYYG;2003-10-11 01:00;METAR CYYG 110100Z 22006KT 15SM SKC 11/08 A3022 RMK SLP234
CYYG;2003-10-11 02:00;METAR CYYG 110200Z 23006KT 15SM SKC 11/09 A3021 RMK SLP231
CYYG;2003-10-11 03:00;METAR CYYG 110300Z 24007KT 15SM SKC 10/08 A3020 RMK SLP227
CYYG;2003-10-11 04:00;METAR CYYG 110400Z 23006KT 15SM SKC 10/09 A3020 RMK SLP226
CYYG;2003-10-11 05:00;METAR CYYG 110500Z 23009KT 15SM SKC 11/10 A3020 RMK SLP229
CYYG;2003-10-11 06:00;METAR CYYG 110600Z 25009KT 15SM SKC 11/10 A3020 RMK SLP228
CYYG;2003-10-11 07:00;METAR CYYG 110700Z 25009KT 15SM SKC 11/10 A3020 RMK SLP226
CYYG;2003-10-11 08:00;METAR CYYG 110800Z 25010KT 15SM SKC 11/10 A3019 RMK SLP225
CYYG;2003-10-11 09:00;METAR CYYG 110900Z 25009KT 15SM SKC 11/10 A3019 RMK SLP225
CYYG;2003-10-11 10:00;METAR CYYG 111000Z 25005KT 15SM SKC 11/10 A3020 RMK SLP228
CYYG;2003-10-11 11:00;METAR CYYG 111100Z 26006KT 15SM SKC 11/10 A3020 RMK SLP229
CYYG;2003-10-11 12:00;METAR CYYG 111200Z 26006KT 15SM SKC 13/11 A3020 RMK SLP229
CYYG;2003-10-11 13:00;METAR CYYG 111300Z 25007KT 15SM SKC 15/12 A3020 RMK SLP227
CYYG;2003-10-11 14:00;METAR CYYG 111400Z 27005KT 15SM SKC 17/13 A3020 RMK SLP227
CYYG;2003-10-11 15:00;METAR CYYG 111500Z 23003KT 15SM SKC 21/14 A3018 RMK SLP220
CYYG;2003-10-11 16:00;METAR CYYG 111600Z 21004KT 15SM SKC 22/14 A3016 RMK SLP214
CYYG;2003-10-11 17:00;METAR CYYG 111700Z 19007KT 15SM SKC 22/15 A3014 RMK SLP209
CYYG;2003-10-11 18:00;METAR CYYG 111800Z 25007KT 15SM SKC 23/14 A3013 RMK SLP203
CYYG;2003-10-11 19:00;METAR CYYG 111900Z 25009KT 15SM SKC 22/14 A3012 RMK SLP201
CYYG;2003-10-11 20:00;METAR CYYG 112000Z 25007KT 15SM SKC 21/14 A3012 RMK SLP198
CYYG;2003-10-11 21:00;METAR CYYG 112100Z 25007KT 15SM SKC 21/13 A3012 RMK SLP198
CYYG;2003-10-11 22:00;METAR CYYG 112200Z 24006KT 15SM SKC 18/13 A3011 RMK SLP196
CYYG;2003-10-11 23:00;METAR CYYG 112300Z 24006KT 15SM SKC 17/13 A3010 RMK SLP194
CYYG;2003-10-12 00:00;METAR CYYG 120000Z 25006KT 15SM SKC 16/13 A3010 RMK SLP193
CYYG;2003-10-12 01:00;METAR CYYG 120100Z 25007KT 15SM SKC 16/12 A3009 RMK SLP190
CYYG;2003-10-12 02:00;METAR CYYG 120200Z 25007KT 15SM SKC 15/12 A3008 RMK SLP186
CYYG;2003-10-12 03:00;METAR CYYG 120300Z 25006KT 15SM SKC 14/12 A3007 RMK SLP184
CYYG;2003-10-12 04:00;METAR CYYG 120400Z 27007KT 15SM SKC 15/11 A3006 RMK SLP181
CYYG;2003-10-12 05:00;METAR CYYG 120500Z 26007KT 15SM SKC 15/11 A3006 RMK SLP179
CYYG;2003-10-12 06:00;METAR CYYG 120600Z 27008KT 15SM SKC 14/11 A3004 RMK SLP172
CYYG;2003-10-12 07:00;METAR CYYG 120700Z 25008KT 15SM SKC 14/11 A3004 RMK SLP171
CYYG;2003-10-12 08:00;METAR CYYG 120800Z 25008KT 15SM SKC 14/11 A3001 RMK SLP164
CYYG;2003-10-12 09:00;METAR CYYG 120900Z 27007KT 15SM SKC 14/11 A3002 RMK SLP165
CYYG;2003-10-12 10:00;METAR CYYG 121000Z 27005KT 15SM SKC 13/11 A3001 RMK SLP163
CYYG;2003-10-12 11:00;METAR CYYG 121100Z 00000KT 15SM SKC 13/11 A3003 RMK SLP168
CYYG;2003-10-12 12:00;METAR CYYG 121200Z 30003KT 15SM SKC 15/12 A3002 RMK SLP166
CYYG;2003-10-12 13:00;METAR CYYG 121300Z 23003KT 15SM SKC 17/13 A3003 RMK SLP169
CYYG;2003-10-12 14:00;METAR CYYG 121400Z 23003KT 15SM SKC 19/14 A3002 RMK SLP166
CYYG;2003-10-12 15:00;METAR CYYG 121500Z 22004KT 15SM SKC 21/14 A3001 RMK SLP161
CYYG;2003-10-12 16:00;METAR CYYG 121600Z 20007KT 15SM SKC 22/15 A2998 RMK SLP153
CYYG;2003-10-12 17:00;METAR CYYG 121700Z 21009KT 15SM SKC 23/14 A2996 RMK SLP145
CYYG;2003-10-12 18:00;METAR CYYG 121800Z 23010KT 15SM FEW220 23/12 A2994 RMK CC1 SLP139
CYYG;2003-10-12 19:00;METAR CYYG 121900Z 27007KT 15SM FEW220 23/12 A2993 RMK CC1 SLP135
CYYG;2003-10-12 20:00;METAR CYYG 122000Z 24005KT 15SM FEW120 23/11 A2992 RMK AC1 SLP132
CYYG;2003-10-12 21:00;METAR CYYG 122100Z 19003KT 15SM FEW120 21/11 A2990 RMK AC1 SLP127
CYYG;2003-10-12 22:00;METAR CYYG 122200Z 17003KT 15SM FEW120 18/12 A2991 RMK AC2 SLP129
CYYG;2003-10-12 23:00;METAR CYYG 122300Z 18004KT 15SM FEW120 17/11 A2991 RMK AC2 SLP129
CYYG;2003-10-13 00:00;METAR CYYG 130000Z 15003KT 15SM FEW120 15/12 A2991 RMK AC2 SLP129
CYYG;2003-10-13 01:00;METAR CYYG 130100Z 18004KT 15SM FEW120 SCT200 15/12 A2989 RMK AC2CI2 SLP122
CYYG;2003-10-13 02:00;METAR CYYG 130200Z 18007KT 15SM FEW120 BKN200 15/12 A2988 RMK AC2CI4 SLP120
CYYG;2003-10-13 03:00;METAR CYYG 130300Z 17004KT 15SM FEW120 BKN200 14/12 A2987 RMK AC2CI5 SLP115
CYYG;2003-10-13 04:00;METAR CYYG 130400Z 18006KT 15SM BKN190 14/12 A2986 RMK CI6 SLP111
CYYG;2003-10-13 05:00;METAR CYYG 130500Z 17006KT 15SM FEW120 BKN170 14/12 A2983 RMK AC2AC5 SLP102
CYYG;2003-10-13 06:00;METAR CYYG 130600Z 14002KT 15SM BKN120 BKN170 14/13 A2980 RMK AC5AC2 SLP092
CYYG;2003-10-13 07:00;METAR CYYG 130700Z 13003KT 15SM BKN120 14/13 A2978 RMK AC7 SLP086 SLP085
CYYG;2003-10-13 10:00;METAR CYYG 131000Z 09005KT 4SM -RA BR BKN003 OVC033 15/15 A2974 RMK SF6SC2 SLP073
CYYG;2003-10-13 11:00;METAR CYYG 131100Z 09008KT 2SM -RA BR BKN003 OVC046 15/14 A2972 RMK SF6SC2 VSBY VRBL 1-3 SLP064
CYYG;2003-10-13 12:00;METAR CYYG 131200Z 10004KT 3SM -RA BR SCT003 OVC042 15/15 A2970 RMK SF4SC4 SLP058
CYYG;2003-10-13 13:00;METAR CYYG 131300Z 10008KT 3SM -RA BR BKN004 OVC009 15/15 A2967 RMK SF6SF2 SLP047
CYYG;2003-10-13 14:00;METAR CYYG 131400Z 10010G15KT 4SM -RA BR FEW003 OVC007 14/13 A2964 RMK SF2SF6 SLP037
CYYG;2003-10-13 15:00;METAR CYYG 131500Z 09010KT 4SM -RA BR FEW003 OVC006 14/13 A2959 RMK SF2SF6 SLP021
CYYG;2003-10-13 16:00;METAR CYYG 131600Z 09009KT 8SM -RA OVC007 14/14 A2955 RMK SF8 SLP006
CYYG;2003-10-13 17:00;METAR CYYG 131700Z 09004KT 4SM -SHRA BR SCT003 OVC007 15/14 A2951 RMK SF3SF5 SLP995
CYYG;2003-10-13 18:00;METAR CYYG 131800Z 06003KT 4SM -SHRA BR OVC004 16/15 A2950 RMK SF8 SLP988 SLP986 SF6SF2 SLP028 SF6SC2 SLP039 SLP049
CYYG;2003-10-14 03:00;METAR CYYG 140300Z 31010KT 15SM FEW006 BKN025 12/11 A2968 RMK SF2SC6 SLP052
CYYG;2003-10-14 04:00;METAR CYYG 140400Z CCA 32011G16KT 15SM FEW025 11/09 A2970 RMK SC2 SLP057
CYYG;2003-10-14 05:00;METAR CYYG 140500Z 32010G15KT 15SM FEW025 10/08 A2971 RMK SC2 SLP060
CYYG;2003-10-14 06:00;METAR CYYG 140600Z 32009KT 15SM SKC 10/08 A2972 RMK SLP065
CYYG;2003-10-14 07:00;METAR CYYG 140700Z 32011G18KT 15SM SKC 10/07 A2973 RMK SLP068
CYYG;2003-10-14 08:00;METAR CYYG 140800Z 31010KT 15SM SKC 09/07 A2977 RMK SLP081
CYYG;2003-10-14 09:00;METAR CYYG 140900Z 31008KT 15SM SKC 08/06 A2979 RMK SLP088
CYYG;2003-10-14 10:00;METAR CYYG 141000Z 30008KT 15SM SKC 08/06 A2981 RMK SLP095
CYYG;2003-10-14 11:00;METAR CYYG 141100Z 31007KT 15SM SKC 08/06 A2984 RMK SLP106
CYYG;2003-10-14 12:00;METAR CYYG 141200Z 31008KT 15SM SKC 10/08 A2987 RMK SLP114
CYYG;2003-10-14 13:00;METAR CYYG 141300Z 31010KT 15SM SKC 12/08 A2990 RMK SLP124
CYYG;2003-10-14 14:00;METAR CYYG 141400Z 32013KT 15SM FEW020 FEW310 12/07 A2991 RMK CF1CI1 SLP129
CYYG;2003-10-14 15:00;METAR CYYG 141500Z 31009KT 15SM FEW020 FEW310 13/08 A2991 RMK CF1CI1 SLP130
CYYG;2003-10-14 16:00;METAR CYYG 141600Z 31008KT 15SM FEW020 FEW310 14/07 A2992 RMK CF1CI1 SLP131
CYYG;2003-10-14 17:00;METAR CYYG 141700Z 36007KT 15SM FEW020 14/05 A2991 RMK CF1 SLP128
CYYG;2003-10-14 18:00;METAR CYYG 141800Z 35005KT 15SM FEW025 14/06 A2992 RMK CF1 SLP131
CYYG;2003-10-14 19:00;METAR CYYG 141900Z 02007KT 15SM FEW025 14/05 A2992 RMK CF1 SLP132
CYYG;2003-10-14 20:00;METAR CYYG 142000Z 01005KT 15SM FEW025 FEW310 13/06 A2993 RMK CF1CI0 SLP134
CYYG;2003-10-14 21:00;METAR CYYG 142100Z 01003KT 15SM FEW025 FEW310 11/06 A2994 RMK CF1CI0 SLP139
CYYG;2003-10-14 22:00;METAR CYYG 142200Z 36002KT 15SM FEW310 09/06 A2995 RMK CI0 SLP144
CYYG;2003-10-14 23:00;METAR CYYG 142300Z 17004KT 15SM SKC 10/06 A2995 RMK SLP144
CYYG;2003-10-15 00:00;METAR CYYG 150000Z 13002KT 15SM SKC 08/07 A2995 RMK SLP144
CYYG;2003-10-15 01:00;METAR CYYG 150100Z 15003KT 15SM SKC 08/07 A2996 RMK SLP146
CYYG;2003-10-15 02:00;METAR CYYG 150200Z 14002KT 15SM SCT210 08/07 A2996 RMK CI3 SLP145
CYYG;2003-10-15 03:00;METAR CYYG 150300Z 16002KT 15SM SCT230 08/06 A2995 RMK CI4 SLP144
CYYG;2003-10-15 04:00;METAR CYYG 150400Z 13004KT 15SM BKN240 08/05 A2995 RMK CI5 SLP144
CYYG;2003-10-15 05:00;METAR CYYG 150500Z 11004KT 15SM BKN240 08/05 A2995 RMK CI5 SLP143
CYYG;2003-10-15 06:00;METAR CYYG 150600Z 12005KT 15SM BKN240 08/05 A2995 RMK CI6 SLP144
CYYG;2003-10-15 07:00;METAR CYYG 150700Z 11004KT 15SM FEW140 BKN240 08/06 A2993 RMK AC2CI5 SLP138
CYYG;2003-10-15 08:00;METAR CYYG 150800Z 12006KT 15SM BKN140 OVC220 08/07 A2994 RMK AC5CI3 SLP139
CYYG;2003-10-15 09:00;METAR CYYG 150900Z 11006KT 15SM BKN130 OVC220 09/08 A2992 RMK AC6CI2 SLP133
CYYG;2003-10-15 10:00;METAR CYYG 151000Z 13007KT 15SM SCT130 BKN220 09/08 A2991 RMK AC3CI3 SLP130
CYYG;2003-10-15 11:00;METAR CYYG 151100Z 13007KT 15SM FEW015 SCT130 BKN220 09/07 A2989 RMK SC1AC3CI1 SLP123
CYYG;2003-10-15 12:00;METAR CYYG 151200Z 13008KT 15SM SCT130 BKN220 11/06 A2987 RMK AC3CI3 SLP118
CYYG;2003-10-15 13:00;METAR CYYG 151300Z 14011KT 15SM FEW130 BKN170 BKN220 12/05 A2987 RMK AC2AC4CI2 SLP115
CYYG;2003-10-15 14:00;METAR CYYG 151400Z 14015G21KT 15SM FEW040 FEW130 BKN170 OVC220 12/06 A2982 RMK SC1AC2AS5CI1 SLP100
CYYG;2003-10-15 15:00;METAR CYYG 151500Z 14016G24KT 15SM FEW035 SCT130 BKN170 OVC220 13/08 A2980 RMK SC2AC2AS2CI2 SLP091
CYYG;2003-10-15 16:00;METAR CYYG 151600Z CCA 14017G27KT 15SM FEW035 BKN140 OVC220 14/08 A2975 RMK SC2AS4CI2 SLP074
CYYG;2003-10-15 17:00;METAR CYYG 151700Z 14018G25KT 15SM FEW035 BKN110 OVC150 14/08 A2973 RMK SC1AC6AS2 SLP067
CYYG;2003-10-15 18:00;METAR CYYG 151800Z 13022G29KT 15SM FEW030 BKN110 OVC150 14/08 A2965 RMK SC1AC6AS2 PRESFR SLP041
CYYG;2003-10-15 19:00;METAR CYYG 151900Z 13020G30KT 15SM FEW070 BKN110 OVC150 13/07 A2959 RMK AC1AC6AS2 PRESFR SLP020
CYYG;2003-10-15 20:00;METAR CYYG 152000Z 12022G31KT 15SM -SHRA FEW012 BKN110 OVC150 13/08 A2951 RMK SF1AC6AC2 PRESFR SLP994
CYYG;2003-10-15 21:00;METAR CYYG 152100Z 13021G34KT 15SM -SHRA FEW012 FEW030 BKN060 OVC110 13/10 A2946 RMK SF1SC2SC4AC2 SLP978
CYYG;2003-10-15 22:00;METAR CYYG 152200Z 13027G37KT 12SM -SHRA FEW012 OVC022 13/11 A2938 RMK SF1SC8 PRESFR SLP951
CYYG;2003-10-15 23:00;METAR CYYG 152300Z 13027G34KT 15SM -SHRA OVC019 14/11 A2935 RMK SC8 SLP939
CYYG;2003-10-16 00:00;METAR CYYG 160000Z 15020G28KT 3SM SHRA BR FEW008 OVC011 13/13 A2938 RMK SF2SC6 SLP948
CYYG;2003-10-16 01:00;METAR CYYG 160100Z 17016KT 15SM FEW004 BKN057 BKN086 14/13 A2937 RERA RMK SF1SC4AC1 SLP946
CYYG;2003-10-16 02:00;METAR CYYG 160200Z 18015G20KT 15SM FEW028 BKN050 14/13 A2938 RMK SC2SC4 SLP949
CYYG;2003-10-16 03:00;METAR CYYG 160300Z 17015G20KT 15SM FEW024 BKN035 BKN053 14/12 A2938 RMK SC2SC3SC2 SLP950
CYYG;2003-10-16 04:00;METAR CYYG 160400Z 19016G22KT 15SM FEW025 13/10 A2940 RMK CU2 SLP955
CYYG;2003-10-16 05:00;METAR CYYG 160500Z 19017G25KT 15SM SKC 13/10 A2940 RMK SLP957
CYYG;2003-10-16 06:00;METAR CYYG 160600Z 19016G21KT 15SM FEW030 FEW048 12/09 A2941 RMK SC1SC1 SLP958
CYYG;2003-10-16 07:00;METAR CYYG 160700Z 21019G28KT 15SM BKN030 12/08 A2941 RMK SC5 SLP958
CYYG;2003-10-16 08:00;METAR CYYG 160800Z 22017G22KT 15SM BKN026 BKN040 12/07 A2944 RMK SC5SC2 SLP969
CYYG;2003-10-16 09:00;METAR CYYG 160900Z 21016G22KT 15SM BKN030 12/07 A2946 RMK SC6 SLP977
CYYG;2003-10-16 10:00;METAR CYYG 161000Z 21022G28KT 15SM BKN034 11/07 A2948 RMK SC6 SLP985
CYYG;2003-10-16 11:00;METAR CYYG 161100Z 24016G25KT 15SM BKN039 11/04 A2953 RMK SC6 SLP000
CYYG;2003-10-16 12:00;METAR CYYG 161200Z 25016G29KT 15SM BKN041 11/04 A2957 RMK SC6 SLP013
CYYG;2003-10-16 13:00;METAR CYYG 161300Z 24019G27KT 15SM SCT045 12/04 A2959 RMK SC4 SLP022
CYYG;2003-10-16 14:00;METAR CYYG 161400Z 23017G27KT 15SM SCT045 12/04 A2962 RMK SC4 SLP032
CYYG;2003-10-16 15:00;METAR CYYG 161500Z 25017G29KT 15SM SCT045 12/04 A2964 RMK SC3 SLP037
CYYG;2003-10-16 16:00;METAR CYYG 161600Z 25015G27KT 15SM SCT045 12/04 A2965 RMK SC4 SLP041
CYYG;2003-10-16 17:00;METAR CYYG 161700Z 23014G27KT 15SM SCT040 13/04 A2967 RMK SC4 SLP047
CYYG;2003-10-16 18:00;METAR CYYG 161800Z 23015G26KT 15SM BKN040 12/04 A2968 RMK SC6 SLP050
CYYG;2003-10-16 19:00;METAR CYYG 161900Z 25015G21KT 15SM BKN045 11/03 A2970 RMK SC5 SLP058
CYYG;2003-10-16 20:00;METAR CYYG 162000Z 23017G22KT 15SM SCT040 11/02 A2972 RMK SC3 SLP064
CYYG;2003-10-16 21:00;METAR CYYG 162100Z 23011G16KT 15SM FEW040 BKN059 10/02 A2975 RMK SC2SC2 SLP075
CYYG;2003-10-16 22:00;METAR CYYG 162200Z 24012G18KT 15SM -SHRA SCT039 BKN070 10/03 A2978 RMK SC3AC3 SLP085
CYYG;2003-10-16 23:00;METAR CYYG 162300Z 27009KT 15SM FEW039 BKN073 09/M01 A2981 RMK SC2AC5 SLP094
CYYG;2003-10-17 00:00;METAR CYYG 170000Z 25004KT 15SM FEW073 08/M01 A2983 RMK AC2 SLP102
CYYG;2003-10-17 01:00;METAR CYYG 170100Z 24004KT 15SM SKC 07/M01 A2985 RMK SLP108
CYYG;2003-10-17 02:00;METAR CYYG 170200Z 23002KT 15SM FEW073 07/M01 A2985 RMK AC2 SLP110
CYYG;2003-10-17 03:00;METAR CYYG 170300Z 21005KT 15SM FEW075 07/03 A2984 RMK AC2 SLP107
CYYG;2003-10-17 04:00;METAR CYYG 170400Z 20006KT 15SM FEW075 07/04 A2984 RMK AC2 SLP105
CYYG;2003-10-17 05:00;METAR CYYG 170500Z 22009KT 15SM FEW097 BKN120 09/05 A2984 RMK AC2AC5 SLP105
CYYG;2003-10-17 06:00;METAR CYYG 170600Z 22008KT 15SM SCT019 BKN053 OVC078 08/05 A2983 RMK SC3SC2AC2 SLP103
CYYG;2003-10-17 07:00;METAR CYYG 170700Z 23006KT 15SM FEW030 FEW110 07/04 A2984 RMK SC1AC1 SLP107
CYYG;2003-10-17 08:00;METAR CYYG 170800Z 25009KT 15SM FEW026 FEW077 07/03 A2986 RMK SC1AC2 SLP113
CYYG;2003-10-17 09:00;METAR CYYG 170900Z 26012G18KT 15SM FEW072 06/02 A2988 RMK AC2 SLP121
CYYG;2003-10-17 10:00;METAR CYYG 171000Z 25010KT 15SM BKN073 06/02 A2990 RMK AC5 SLP126
CYYG;2003-10-17 11:00;METAR CYYG 171100Z 25009KT 15SM FEW073 05/02 A2993 RMK AC2 SLP136
CYYG;2003-10-17 12:00;METAR CYYG 171200Z 25007KT 15SM FEW020 SCT070 06/02 A2995 RMK SC2AC2 SLP142
CYYG;2003-10-17 13:00;METAR CYYG 171300Z 26012G17KT 15SM FEW020 SCT070 06/02 A2996 RMK SC2AC2 SLP147
CYYG;2003-10-17 14:00;METAR CYYG 171400Z 25014G19KT 15SM FEW020 SCT070 08/01 A2998 RMK SC2AC1 SLP154
CYYG;2003-10-17 15:00;METAR CYYG 171500Z 25015KT 15SM SCT025 08/00 A2999 RMK SC3 SLP157
CYYG;2003-10-17 16:00;METAR CYYG 171600Z 27009G19KT 15SM SCT035 09/M00 A2998 RMK SC3 SLP154
CYYG;2003-10-17 17:00;METAR CYYG 171700Z 26009G22KT 15SM SCT035 09/M01 A2998 RMK SC3 SLP153
CYYG;2003-10-17 18:00;METAR CYYG 171800Z 24012G17KT 15SM SCT035 09/M01 A2997 RMK SC4 SLP151
CYYG;2003-10-17 19:00;METAR CYYG 171900Z 25012KT 15SM BKN055 09/M02 A2998 RMK SC6 SLP155
CYYG;2003-10-17 20:00;METAR CYYG 172000Z 29009KT 15SM BKN071 09/M01 A3000 RMK AC6 SLP159
CYYG;2003-10-17 21:00;METAR CYYG 172100Z 28007KT 15SM BKN070 08/M00 A3001 RMK AC6 SLP163
CYYG;2003-10-17 22:00;METAR CYYG 172200Z 28005KT 15SM BKN064 07/M01 A3004 RMK AC6 SLP172
CYYG;2003-10-17 23:00;METAR CYYG 172300Z 27006KT 15SM BKN057 06/M00 A3006 RMK SC7 SLP179
CYYG;2003-10-18 00:00;METAR CYYG 180000Z 27005KT 15SM BKN061 06/M01 A3007 RMK SC5 SLP185
CYYG;2003-10-18 01:00;METAR CYYG 180100Z 25005KT 15SM BKN048 06/M01 A3008 RMK SC5 SLP188
CYYG;2003-10-18 02:00;METAR CYYG 180200Z 27005KT 15SM BKN051 06/M01 A3008 RMK SC6 SLP189
CYYG;2003-10-18 03:00;METAR CYYG 180300Z 25005KT 15SM SCT050 05/M01 A3008 RMK SC3 SLP188
CYYG;2003-10-18 04:00;METAR CYYG 180400Z 26005KT 15SM SKC 04/M01 A3009 RMK SLP190
CYYG;2003-10-18 05:00;METAR CYYG 180500Z 24005KT 15SM SKC 04/M01 A3009 RMK SLP192
CYYG;2003-10-18 06:00;METAR CYYG 180600Z 27004KT 15SM SKC 04/M01 A3009 RMK SLP190
CYYG;2003-10-18 07:00;METAR CYYG 180700Z 25005KT 15SM SKC 04/M01 A3009 RMK SLP189
CYYG;2003-10-18 08:00;METAR CYYG 180800Z 24004KT 15SM SKC 04/M01 A3009 RMK SLP189
CYYG;2003-10-18 09:00;METAR CYYG 180900Z 25004KT 15SM SKC 04/M01 A3009 RMK SLP192
CYYG;2003-10-18 10:00;METAR CYYG 181000Z 27004KT 15SM FEW020 BKN300 04/M01 A3009 RMK SC1CS5 HALO FROIN SLP193
CYYG;2003-10-18 11:00;METAR CYYG 181100Z 26003KT 15SM FEW030 FEW070 OVC200 04/M01 A3010 RMK CU1AC1CS7 SLP195
CYYG;2003-10-18 12:00;METAR CYYG 181200Z 25002KT 15SM FEW030 FEW120 OVC200 05/M01 A3010 RMK CU1AC1CS6 SLP196
CYYG;2003-10-18 13:00;METAR CYYG 181300Z 24003KT 15SM FEW030 FEW070 FEW120 BKN200 07/01 A3011 RMK CU1AC2AC1CS2 SLP199
CYYG;2003-10-18 14:00;METAR CYYG 181400Z 22007KT 15SM FEW030 FEW060 FEW120 BKN280 09/00 A3010 RMK CU1SC1AC1CI2 SLP194
CYYG;2003-10-18 15:00;METAR CYYG 181500Z 21010KT 15SM FEW030 FEW082 OVC250 09/00 A3008 RMK CU1AC1CS6 SLP187
CYYG;2003-10-18 16:00;METAR CYYG 181600Z 19007KT 15SM FEW030 FEW080 OVC250 10/M00 A3004 RMK CU1AC1CS6 SLP174
CYYG;2003-10-18 17:00;METAR CYYG 181700Z 19004KT 15SM FEW035 FEW100 OVC250 10/00 A3002 RMK CU1AC2CS6 SLP167
CYYG;2003-10-18 18:00;METAR CYYG 181800Z 18004KT 15SM FEW040 OVC110 09/00 A3001 RMK CU1AS8 SLP163
CYYG;2003-10-18 19:00;METAR CYYG 181900Z 16004KT 15SM -RA OVC040 08/01 A3001 RMK NS8 SLP162
CYYG;2003-10-18 20:00;METAR CYYG 182000Z 16006KT 15SM -RA BKN035 OVC050 07/02 A3001 RMK SC5NS3
CYYG;2003-10-18 21:00;METAR CYYG 182100Z 10004KT 15SM -RA FEW035 OVC050 06/03 A3000 RMK SC2NS6 SLP160
CYYG;2003-10-18 22:00;METAR CYYG 182200Z 09003KT 15SM -RA FEW028 OVC045 05/03 A3000 RMK SC2SC6 SLP159
CYYG;2003-10-18 23:00;METAR CYYG 182300Z 09004KT 15SM -RA FEW035 OVC055 05/03 A2998 RMK SC2SC6 SLP154
CYYG;2003-10-19 00:00;METAR CYYG 190000Z 06005KT 15SM -RA SCT059 OVC091 05/03 A2994 RMK SC3AC5 SLP141
CYYG;2003-10-19 01:00;METAR CYYG 190100Z 03006KT 15SM -SHRA OVC095 04/03 A2991 RMK AC8 SLP130
CYYG;2003-10-19 02:00;METAR CYYG 190200Z 05004KT 15SM -SHRA OVC030 05/04 A2989 RMK SC8 SLP124
CYYG;2003-10-19 03:00;METAR CYYG 190300Z 05008KT 15SM -SHRA OVC028 05/04 A2985 RMK SC8 SLP110
CYYG;2003-10-19 04:00;METAR CYYG 190400Z 03009KT 15SM -SHRA BKN028 OVC064 05/04 A2983 RMK SC6SC2 SLP102
CYYG;2003-10-19 05:00;METAR CYYG 190500Z 01009KT 15SM -SHRA OVC030 05/04 A2981 RMK SC8 SLP097
CYYG;2003-10-19 06:00;METAR CYYG 190600Z 02010KT 15SM -SHRA BKN028 OVC060 05/03 A2979 RMK SC6SC2 SLP091
CYYG;2003-10-19 07:00;METAR CYYG 190700Z 02010KT 15SM -SHRA OVC026 05/03 A2978 RMK SC8 SLP086
CYYG;2003-10-19 08:00;METAR CYYG 190800Z 02007KT 15SM -SHRA SCT022 OVC077 05/03 A2977 RMK SC3AC5 SLP082
CYYG;2003-10-19 09:00;METAR CYYG 190900Z 36004KT 15SM -SHRA SCT022 OVC079 05/04 A2977 RMK SC4AC4 SLP081
CYYG;2003-10-19 10:00;METAR CYYG 191000Z 34008G15KT 6SM -SHRA BR BKN019 OVC035 05/04 A2976 RMK SC6SC2 SLP078
CYYG;2003-10-19 11:00;METAR CYYG 191100Z 34004KT 15SM SCT022 BKN045 BKN150 05/03 A2976 RMK CU3SC2AS1 SLP078
CYYG;2003-10-19 12:00;METAR CYYG 191200Z 35006KT 15SM FEW022 OVC093 06/03 A2976 RMK CU2AC6 SLP079
CYYG;2003-10-19 13:00;METAR CYYG 191300Z 36005KT 15SM -SHRA SCT025 BKN055 BKN090 06/04 A2977 RMK CU3SC2AC2 SLP083
CYYG;2003-10-19 14:00;METAR CYYG 191400Z 36012G17KT 15SM BKN030 BKN090 08/02 A2977 RMK CU6AC1
CYYG;2003-10-19 15:00;METAR CYYG 191500Z 34009G15KT 15SM BKN030 BKN090 09/01 A2977 RMK CU6AC1
CYYG;2003-10-19 16:00;METAR CYYG 191600Z 36009G15KT 15SM BKN032 BKN095 08/01 A2977 RMK CU6AC1
CYYG;2003-10-19 17:00;METAR CYYG 191700Z 34009G15KT 15SM VCSH SCT035 BKN067 BKN095 08/01 A2977 RMK CU3AC2AC1 SHS W-N SLP082
CYYG;2003-10-19 18:00;METAR CYYG 191800Z 33011KT 15SM -SHRAPL BKN035 BKN070 BKN095 08/02 A2977 RMK CU5AC2AC1 SLP084
CYYG;2003-10-19 19:00;METAR CYYG 191900Z 32009KT 15SM FEW040 BKN095 07/02 A2979 RMK CU2AC5 SLP090
CYYG;2003-10-19 20:00;METAR CYYG 192000Z 29011KT 15SM FEW020 BKN064 OVC095 06/02 A2981 RMK CU2SC3AC2 SLP095
CYYG;2003-10-19 21:00;METAR CYYG 192100Z 28007KT 15SM FEW020 FEW040 OVC067 05/02 A2982 RMK CF1SC1AC7 SHS ALQDS SLP099
CYYG;2003-10-19 22:00;METAR CYYG 192200Z 34005KT 15SM SCT014 SCT040 OVC078 04/02 A2984 RMK SC3SC1AC4 SLP107
CYYG;2003-10-19 23:00;METAR CYYG 192300Z 24004KT 15SM FEW014 SCT043 OVC095 04/02 A2984 RMK SC2SC2AC4 SLP107
CYYG;2003-10-20 00:00;METAR CYYG 200000Z 27005KT 15SM FEW014 FEW043 OVC076 05/02 A2984 RMK SC1SC2AC6 SLP107
CYYG;2003-10-20 01:00;METAR CYYG 200100Z 25007KT 15SM FEW060 OVC078 05/M00 A2985 RMK SC2AC6 SLP111
CYYG;2003-10-20 02:00;METAR CYYG 200200Z 27005KT 15SM FEW035 FEW060 OVC097 05/01 A2986 RMK SC1SC2AC6 SLP114
CYYG;2003-10-20 03:00;METAR CYYG 200300Z 27004KT 15SM FEW025 FEW060 OVC095 03/00 A2987 RMK SC2SC1AC6 SLP118
CYYG;2003-10-20 04:00;METAR CYYG 200400Z 31004KT 15SM FEW028 FEW060 OVC090 02/00 A2987 RMK SC2SC1AC6 SLP116
CYYG;2003-10-20 05:00;METAR CYYG 200500Z 26006KT 15SM FEW028 BKN080 02/01 A2988 RMK SC1AC5 SLP120
CYYG;2003-10-20 06:00;METAR CYYG 200600Z 27007KT 15SM FEW028 SCT080 02/M01 A2989 RMK SC1AC3 SLP124
CYYG;2003-10-20 07:00;METAR CYYG 200700Z 28008KT 15SM FEW028 BKN074 02/M02 A2991 RMK SC1AC4 SLP129
CYYG;2003-10-20 08:00;METAR CYYG 200800Z 29008KT 15SM BKN074 02/M03 A2992 RMK AC5 SLP133
CYYG;2003-10-20 09:00;METAR CYYG 200900Z 30008KT 15SM SCT074 01/M02 A2992 RMK AC4 SLP135
CYYG;2003-10-20 10:00;METAR CYYG 201000Z 29008KT 15SM FEW020 FEW074 02/M03 A2994 RMK SC1AC2 SLP140
CYYG;2003-10-20 11:00;METAR CYYG 201100Z 28011KT 15SM VCSH FEW030 BKN050 03/M03 A2994 RMK CF1SC6 SH NE SLP142
CYYG;2003-10-20 12:00;METAR CYYG 201200Z CCA 28012G17KT 15SM BKN051 03/M03 A2996 RMK SC7 SHS DIST N-E SLP149
CYYG;2003-10-20 13:00;METAR CYYG 201300Z 29012KT 15SM BKN043 04/M04 A2997 RMK SC7 SLP152
CYYG;2003-10-20 14:00;METAR CYYG 201400Z 28012G20KT 15SM BKN050 04/M06 A2997 RMK SC7 SLP150
CYYG;2003-10-20 15:00;METAR CYYG 201500Z 30012G19KT 15SM BKN047 04/M06 A2996 RMK SC6 SLP148
CYYG;2003-10-20 16:00;METAR CYYG 201600Z 31011G16KT 15SM BKN043 04/M05 A2994 RMK SC7 SLP142
CYYG;2003-10-20 17:00;METAR CYYG 201700Z 29010KT 15SM BKN042 04/M04 A2993 RMK SC7 SLP138
CYYG;2003-10-20 18:00;METAR CYYG 201800Z 26010KT 15SM BKN042 04/M04 A2992 RMK SC7 SLP133
CYYG;2003-10-20 19:00;METAR CYYG 201900Z 27009KT 15SM BKN044 BKN150 04/M04 A2990 RMK SC5AC1
CYYG;2003-10-20 20:00;METAR CYYG 202000Z 25006KT 15SM BKN048 BKN150 05/M04 A2989 RMK SC6AC1 SLP125
CYYG;2003-10-20 21:00;METAR CYYG 202100Z 27002KT 15SM BKN059 04/M03 A2989 RMK SC7 SLP125
CYYG;2003-10-20 22:00;METAR CYYG 202200Z 25007KT 15SM BKN055 05/M04 A2989 RMK SC7 SLP124
CYYG;2003-10-20 23:00;METAR CYYG 202300Z 27006KT 15SM BKN053 05/M04 A2989 RMK SC7 SLP124
CYYG;2003-10-21 00:00;METAR CYYG 210000Z 26010G16KT 15SM FEW030 BKN053 05/M04 A2988 RMK SC2SC6 SLP121
CYYG;2003-10-21 01:00;METAR CYYG 210100Z 32005KT 15SM FEW030 BKN045 03/M01 A2989 RMK SC1SC6 SLP123
CYYG;2003-10-21 02:00;METAR CYYG 210200Z 28005KT 15SM SCT045 BKN080 03/M03 A2989 RMK SC3AC2 SLP122
CYYG;2003-10-21 03:00;METAR CYYG 210300Z 27004KT 15SM BKN052 BKN080 04/M03 A2989 RMK SC5AC2 SLP124
CYYG;2003-10-21 04:00;METAR CYYG 210400Z 27006KT 15SM BKN055 04/M03 A2991 RMK SC7 SLP129
CYYG;2003-10-21 05:00;METAR CYYG 210500Z 26005KT 15SM BKN055 03/M03 A2990 RMK SC7 SLP128
CYYG;2003-10-21 06:00;METAR CYYG 210600Z 25004KT 15SM SCT055 02/M03 A2991 RMK SC4 SLP131
CYYG;2003-10-21 07:00;METAR CYYG 210700Z 27004KT 15SM FEW055 01/M04 A2991 RMK SC2 SLP130
CYYG;2003-10-21 08:00;METAR CYYG 210800Z 30004KT 15SM FEW055 M00/M04 A2991 RMK SC2 SLP130
CYYG;2003-10-21 09:00;METAR CYYG 210900Z 31002KT 15SM FEW055 M02/M05 A2990 RMK SC2 SLP129
CYYG;2003-10-21 10:00;METAR CYYG 211000Z 27002KT 15SM FEW030 SCT230 M01/M05 A2991 RMK SC1CI1 SLP132
CYYG;2003-10-21 11:00;METAR CYYG 211100Z 00000KT 15SM FEW030 BKN064 BKN190 M01/M04 A2992 RMK SC1SC4CI2 SLP133
CYYG;2003-10-21 12:00;METAR CYYG 211200Z 00000KT 15SM FEW022 SCT064 BKN120 BKN190 01/M02 A2991 RMK SC2SC2AC2AC1 SLP132
CYYG;2003-10-21 13:00;METAR CYYG 211300Z 12003KT 15SM FEW022 BKN047 BKN120 03/00 A2990 RMK CU1SC4AS2 SLP129
CYYG;2003-10-21 14:00;METAR CYYG 211400Z 17007KT 15SM -RA BKN016 OVC040 05/02 A2986 RMK SC6SC2 SLP115
CYYG;2003-10-21 15:00;METAR CYYG 211500Z 19007KT 10SM -RA OVC015 05/04 A2985 RMK SC8 SLP109
CYYG;2003-10-21 16:00;METAR CYYG 211600Z 20010KT 8SM -RA FEW013 OVC020 05/04 A2982 RMK SF2SC6 SLP101
CYYG;2003-10-21 17:00;METAR CYYG 211700Z 16007KT 5SM -RA BR FEW009 OVC014 05/04 A2979 RMK SF2SC6 SLP088
CYYG;2003-10-21 18:00;METAR CYYG 211800Z 10007KT 3SM -RA BR SCT005 BKN009 OVC014 04/04 A2973 RMK SF3SF3SC2 SLP070
CYYG;2003-10-21 19:00;METAR CYYG 211900Z 12013KT 3SM RA BR FEW002 BKN004 OVC008 05/05 A2965 RMK SF2SF4SF2 PRESFR SLP041
CYYG;2003-10-21 20:00;METAR CYYG 212000Z 14009KT 8SM -RA BKN004 OVC008 07/07 A2959 RERA RMK SF5SF3 /R10/ PRESFR SLP021
CYYG;2003-10-21 21:00;METAR CYYG 212100Z 16019G28KT 15SM FEW014 OVC028 10/08 A2953 RMK SC2SC6 SLP002
CYYG;2003-10-21 22:00;METAR CYYG 212200Z 17018G24KT 15SM FEW015 OVC029 11/10 A2948 RMK SC2SC6 SLP985
CYYG;2003-10-21 23:00;METAR CYYG 212300Z 18023G29KT 15SM BKN024 OVC050 13/10 A2944 RMK SC6SC2 G34 PST HR SLP973
CYYG;2003-10-22 00:00;METAR CYYG 220000Z 18023G28KT 10SM -RA OVC026 12/11 A2942 RMK SC8 RERA SLP962
CYYG;2003-10-22 01:00;METAR CYYG 220100Z 18022KT 12SM -RA OVC025 13/12 A2939 RMK SC8 SLP954
CYYG;2003-10-22 02:00;METAR CYYG 220200Z 19016G24KT 15SM -RA OVC028 13/12 A2936 RMK SC8 SLP945
CYYG;2003-10-22 03:00;METAR CYYG 220300Z 20018G24KT 15SM -RA OVC026 14/12 A2935 RMK SC8 SLP940
CYYG;2003-10-22 04:00;METAR CYYG 220400Z 23009G16KT 15SM -RA OVC015 14/13 A2936 RMK SC8 SLP945
CYYG;2003-10-22 05:00;METAR CYYG 220500Z 24007KT 10SM -RA OVC011 13/12 A2938 RMK SC8 SLP949
CYYG;2003-10-22 06:00;METAR CYYG 220600Z 26007KT 15SM -RA OVC012 11/10 A2940 RMK SC8 SLP956
CYYG;2003-10-22 07:00;METAR CYYG 220700Z 30007KT 15SM OVC011 10/09 A2941 RMK SF8 SLP960
CYYG;2003-10-22 08:00;METAR CYYG 220800Z 34008KT 15SM SCT004 OVC011 09/09 A2942 RMK SF3SC5 SLP965
CYYG;2003-10-22 09:00;METAR CYYG 220900Z 36009KT 15SM OVC008 08/07 A2945 RMK SF8 SLP973
CYYG;2003-10-22 10:00;METAR CYYG 221000Z 36010KT 15SM OVC006 07/07 A2947 RMK SF8 SLP982
CYYG;2003-10-22 11:00;METAR CYYG 221100Z 01007KT 15SM OVC009 07/06 A2951 RMK SF8 SLP993 SLP998 SLP004
CYYG;2003-10-22 14:00;METAR CYYG 221400Z 02008KT 15SM OVC009 07/06 A2955 RMK SF8 SLP007 SLP007
CYYG;2003-10-22 16:00;METAR CYYG 221600Z 03010KT 15SM OVC011 08/06 A2954 RMK SC8 SLP004
CYYG;2003-10-22 17:00;METAR CYYG 221700Z 05011KT 15SM OVC010 08/06 A2952 RMK SC8 SLP999
CYYG;2003-10-22 18:00;METAR CYYG 221800Z 04011KT 3SM -SHRA BR SCT007 OVC012 08/07 A2952 RMK SF3SC5 SLP997 SLP992 SF6SF2 SLP989
CYYG;2003-10-22 21:00;METAR CYYG 222100Z 04014KT 5SM -RADZ BR OVC005 08/07 A2947 RMK SF8 SLP982
CYYG;2003-10-22 22:00;METAR CYYG 222200Z 04016KT 6SM -RA BR OVC005 08/07 A2947 RMK SF8 SLP979
CYYG;2003-10-22 23:00;METAR CYYG 222300Z 04013G18KT 6SM -RA BR OVC007 08/07 A2944 RMK SF8 SLP970
CYYG;2003-10-23 00:00;METAR CYYG 230000Z 03016KT 6SM -RA BR OVC007 08/07 A2941 RMK SF8 SLP961
CYYG;2003-10-23 01:00;METAR CYYG 230100Z 02015KT 6SM -RA BR OVC007 08/08 A2939 RMK SF8 SLP952
CYYG;2003-10-23 02:00;METAR CYYG 230200Z 01010G16KT 5SM -RA BR OVC006 08/08 A2938 RMK SF8 SLP949
CYYG;2003-10-23 03:00;METAR CYYG 230300Z 01011G18KT 5SM -RA BR OVC009 09/08 A2936 RMK SF8 SLP944
CYYG;2003-10-23 04:00;METAR CYYG 230400Z 01012G17KT 5SM -RA BR OVC006 08/08 A2932 RMK SF8 SLP931
CYYG;2003-10-23 05:00;METAR CYYG 230500Z 36010G16KT 5SM -RA BR OVC005 08/08 A2931 RMK SF8 SLP927
CYYG;2003-10-23 06:00;METAR CYYG 230600Z 01012KT 3SM -RA BR OVC003 09/08 A2928 RMK SF8 SLP918
CYYG;2003-10-23 07:00;METAR CYYG 230700Z 36009KT 3SM -RA BR OVC002 09/09 A2924 RMK SF8 SLP904
CYYG;2003-10-23 08:00;METAR CYYG 230800Z 01009KT 3SM -RA BR OVC002 09/09 A2919 RMK SF8 SLP886
CYYG;2003-10-23 09:00;METAR CYYG 230900Z 35005KT 5SM -RA BR OVC003 09/09 A2916 RMK SF8 SLP875
CYYG;2003-10-23 10:00;METAR CYYG 231000Z CCA 36008KT 7SM -RA BKN003 OVC017 09/09 A2913 RERA RMK SF6SC2 /R14/ SLP864
CYYG;2003-10-23 11:00;METAR CYYG 231100Z 36010KT 1 1/2SM -RA BR OVC002 09/09 A2907 RMK SF8 PRESFR SLP844 SLP834
CYYG;2003-10-23 15:00;METAR CYYG 231500Z 26006KT 10SM BKN006 OVC010 09/09 A2910 RMK SF6SC2 SLP855
CYYG;2003-10-23 16:00;METAR CYYG 231600Z 25009KT 15SM -SHRA BKN008 OVC012 09/08 A2912 RMK SF6SC2 SLP863
CYYG;2003-10-23 17:00;METAR CYYG 231700Z 25007KT 15SM -SHRA BKN008 OVC021 08/07 A2914 RMK SF6SC2 SLP867
CYYG;2003-10-23 18:00;METAR CYYG 231800Z 26007KT 15SM SCT007 BKN013 OVC022 09/07 A2917 RMK SF3SC2SC2 SLP877
CYYG;2003-10-23 19:00;METAR CYYG 231900Z 26006KT 15SM FEW009 OVC016 08/06 A2919 RMK SF2SC6 SLP885
CYYG;2003-10-23 21:00;METAR CYYG 232100Z 22005KT 15SM OVC007 08/07 A2927 RMK SF8 SLP914 SLP934
CYYG;2003-10-24 00:00;METAR CYYG 240000Z 23008KT 15SM BKN012 OVC033 08/06 A2937 RMK SF6SC2 SLP948
CYYG;2003-10-24 01:00;METAR CYYG 240100Z 22015KT 15SM SCT038 08/04 A2939 RMK SC3 SLP953
CYYG;2003-10-24 02:00;METAR CYYG 240200Z 21017G24KT 15SM FEW035 07/02 A2941 RMK SC2 SLP961
CYYG;2003-10-24 03:00;METAR CYYG 240300Z 21016G24KT 15SM FEW020 07/03 A2943 RMK SC2 SLP966
CYYG;2003-10-24 04:00;METAR CYYG 240400Z 21016G24KT 15SM BKN022 BKN067 07/03 A2944 RMK SC5AC1 SLP970
CYYG;2003-10-24 05:00;METAR CYYG 240500Z 21018KT 15SM BKN022 BKN075 07/03 A2946 RMK SC5AC1 SLP978
CYYG;2003-10-24 06:00;METAR CYYG 240600Z 21019G24KT 15SM BKN025 07/03 A2949 RMK SC6 SLP988
CYYG;2003-10-24 07:00;METAR CYYG 240700Z 23014G19KT 15SM BKN022 06/02 A2952 RMK SC6 SLP997
CYYG;2003-10-24 08:00;METAR CYYG 240800Z 24009G15KT 15SM FEW022 BKN035 05/01 A2956 RMK SC2SC6 SLP010
CYYG;2003-10-24 09:00;METAR CYYG 240900Z 23010G15KT 15SM OVC028 05/01 A2958 RMK SC8 SLP019
CYYG;2003-10-24 10:00;METAR CYYG 241000Z 25010G15KT 15SM OVC027 05/01 A2962 RMK SC8 SLP030
CYYG;2003-10-24 11:00;METAR CYYG 241100Z 27006KT 15SM VCSH BKN028 03/01 A2965 RMK SC6 SLP042
CYYG;2003-10-24 12:00;METAR CYYG 241200Z 25012KT 15SM BKN038 04/01 A2968 RMK SC6 SLP053
CYYG;2003-10-24 13:00;METAR CYYG 241300Z 25014G24KT 15SM BKN036 04/M02 A2972 RMK SC5 SLP067
CYYG;2003-10-24 14:00;METAR CYYG 241400Z 26012G22KT 15SM SCT035 04/M02 A2973 RMK SC4 SLP069
CYYG;2003-10-24 15:00;METAR CYYG 241500Z 25012G19KT 15SM BKN035 05/M02 A2975 RMK SC5 SLP077
CYYG;2003-10-24 16:00;METAR CYYG 241600Z 27011G17KT 15SM BKN032 05/M01 A2977 RMK SC6 SLP082
CYYG;2003-10-24 17:00;METAR CYYG 241700Z 26012KT 15SM BKN037 05/M02 A2977 RMK SC6 SLP083
CYYG;2003-10-24 18:00;METAR CYYG 241800Z 25008KT 15SM BKN034 05/M01 A2979 RMK SC6 SLP090
CYYG;2003-10-24 20:00;METAR CYYG 242000Z 27006KT 15SM BKN032 05/M01 A2984 RMK SC7 SLP107
CYYG;2003-10-24 21:00;METAR CYYG 242100Z 27009G16KT 15SM VCSH BKN032 04/01 A2987 RMK SC6 SLP118
CYYG;2003-10-24 22:00;METAR CYYG 242200Z 26005KT 15SM FEW022 BKN052 04/01 A2991 RMK SC2SC5 SLP130
CYYG;2003-10-24 23:00;METAR CYYG 242300Z 29008KT 7SM -SHRA OVC018 04/02 A2995 RMK SC8 SLP144
CYYG;2003-10-25 00:00;METAR CYYG 250000Z 26005KT 15SM FEW015 FEW055 OVC140 04/02 A2998 RMK SC1SC1AC6 SLP154
CYYG;2003-10-25 01:00;METAR CYYG 250100Z 28008KT 15SM FEW015 FEW140 OVC250 03/01 A3000 RMK SC1AC2CI3 SLP162
CYYG;2003-10-25 02:00;METAR CYYG 250200Z 29011KT 15SM FEW015 SCT160 OVC250 03/01 A3003 RMK SC1AC2CI1 SLP171
CYYG;2003-10-25 03:00;METAR CYYG 250300Z 29010KT 15SM FEW015 SCT160 BKN250 03/00 A3006 RMK SC1AC3CI0 SLP180
CYYG;2003-10-25 04:00;METAR CYYG 250400Z 29009KT 15SM FEW040 SCT250 03/M01 A3008 RMK SC1CI2 SLP189
CYYG;2003-10-25 05:00;METAR CYYG 250500Z 28008KT 15SM FEW038 SCT250 03/M01 A3010 RMK SC2CI0 SLP196
CYYG;2003-10-25 06:00;METAR CYYG 250600Z 28006KT 15SM OVC038 03/M01 A3014 RMK SC8 SLP208
CYYG;2003-10-25 07:00;METAR CYYG 250700Z 28009KT 15SM OVC039 03/M01 A3017 RMK SC8 SLP219
CYYG;2003-10-25 08:00;METAR CYYG 250800Z 29009G15KT 15SM SCT042 03/M02 A3022 RMK SC3 SLP234
CYYG;2003-10-25 09:00;METAR CYYG 250900Z 28009KT 15SM FEW045 02/M02 A3024 RMK SC2 SLP243
CYYG;2003-10-25 10:00;METAR CYYG 251000Z 28007KT 15SM FEW045 01/M02 A3027 RMK SC2 SLP253
CYYG;2003-10-25 11:00;METAR CYYG 251100Z 28007KT 15SM FEW020 FEW045 01/M02 A3030 RMK CU1SC1 SLP263
CYYG;2003-10-25 12:00;METAR CYYG 251200Z 28008KT 15SM FEW025 BKN042 BKN300 02/M01 A3034 RMK SC1SC4CI1 SLP276
CYYG;2003-10-25 13:00;METAR CYYG 251300Z 29009G17KT 15SM FEW030 FEW045 SCT300 04/M01 A3036 RMK SC1SC1CI0 SLP283
CYYG;2003-10-25 14:00;METAR CYYG 251400Z 29013KT 15SM FEW045 SCT300 05/M02 A3037 RMK SC1CI0 SLP287
CYYG;2003-10-25 15:00;METAR CYYG 251500Z 29009KT 15SM FEW045 BKN300 06/M04 A3037 RMK CF1CI1
CYYG;2003-10-25 16:00;METAR CYYG 251600Z 28012G17KT 15SM FEW040 BKN300 07/M03 A3038 RMK CF1CI2 SLP288
CYYG;2003-10-25 17:00;METAR CYYG 251700Z 29016KT 15SM FEW040 BKN300 07/M04 A3039 RMK CF1CI2 SLP292
CYYG;2003-10-25 18:00;METAR CYYG 251800Z 28012G18KT 15SM FEW040 BKN300 07/M04 A3040 RMK CF1CI2 SLP296
CYYG;2003-10-25 19:00;METAR CYYG 251900Z 30010KT 15SM FEW040 BKN300 07/M03 A3041 RMK CF1CI2 SLP298
CYYG;2003-10-25 20:00;METAR CYYG 252000Z 26008KT 15SM FEW040 FEW180 BKN300 07/M03 A3040 RMK CF1AC1CI1 SLP295
CYYG;2003-10-25 21:00;METAR CYYG 252100Z 00000KT 15SM FEW040 BKN130 BKN300 06/M03 A3041 RMK CF1AC5CI1 SLP298
CYYG;2003-10-25 22:00;METAR CYYG 252200Z 17002KT 15SM SCT130 05/M02 A3041 RMK AC4 SLP301
CYYG;2003-10-25 23:00;METAR CYYG 252300Z 20003KT 15SM BKN100 BKN130 06/M02 A3041 RMK AC5AC2 SLP301
CYYG;2003-10-26 00:00;METAR CYYG 260000Z 25005KT 15SM FEW100 BKN110 BKN160 06/M01 A3043 RMK AC2AC2AC2 SLP306
CYYG;2003-10-26 01:00;METAR CYYG 260100Z 23006KT 15SM BKN110 BKN120 07/00 A3043 RMK AC5AC2 SLP305
CYYG;2003-10-26 02:00;METAR CYYG 260200Z 22004KT 15SM BKN077 BKN120 OVC140 07/01 A3041 RMK AC5AC2AC2 SLP300
CYYG;2003-10-26 03:00;METAR CYYG 260300Z 23007KT 15SM OVC100 07/01 A3041 RMK AC8 SLP298
CYYG;2003-10-26 04:00;METAR CYYG 260400Z 23007KT 15SM OVC098 07/01 A3040 RMK AC8 SLP297
CYYG;2003-10-26 05:00;METAR CYYG 260500Z 23008G16KT 15SM SCT090 OVC130 07/01 A3040 RMK AC3AC5 SLP295
CYYG;2003-10-26 06:00;METAR CYYG 260600Z 22011G16KT 15SM OVC095 07/01 A3038 RMK AC8 SLP290
CYYG;2003-10-26 07:00;METAR CYYG 260700Z 22009KT 15SM FEW084 OVC090 07/02 A3037 RMK AC2AC6 SLP287
CYYG;2003-10-26 08:00;METAR CYYG 260800Z 23008G15KT 15SM FEW030 BKN080 OVC140 08/03 A3037 RMK SC1AC6AS2 SLP287
CYYG;2003-10-26 09:00;METAR CYYG 260900Z 22009KT 15SM FEW022 BKN073 OVC140 08/03 A3038 RMK SC2AC5AS2 SLP288
CYYG;2003-10-26 10:00;METAR CYYG 261000Z 23009KT 15SM FEW022 BKN073 OVC082 08/04 A3037 RMK SC1AC6AS2 SLP286
CYYG;2003-10-26 11:00;METAR CYYG 261100Z 23008KT 15SM FEW025 OVC076 08/04 A3038 RMK SC2AC6 SLP289
CYYG;2003-10-26 12:00;METAR CYYG 261200Z 22007KT 15SM BKN076 BKN130 08/04 A3039 RMK AC5AC2 SLP293
CYYG;2003-10-26 13:00;METAR CYYG 261300Z 21007KT 15SM SCT076 BKN130 08/05 A3039 RMK AC3AC2 SLP291
CYYG;2003-10-26 14:00;METAR CYYG 261400Z 21012KT 15SM FEW020 SCT075 BKN130 10/05 A3038 RMK SC2AC2AC2 SLP290
CYYG;2003-10-26 15:00;METAR CYYG 261500Z 21012KT 15SM FEW020 SCT075 BKN130 10/06 A3038 RMK
CYYG;2003-10-26 16:00;METAR CYYG 261600Z 21012KT 15SM FEW020 SCT075 BKN130 11/06 A3037 RMK SC2AC2AC2 SLP285
CYYG;2003-10-26 17:00;METAR CYYG 261700Z 20009KT 15SM FEW020 SCT047 BKN130 11/06 A3034 RMK SC2SC2AC2 SLP275
CYYG;2003-10-26 18:00;METAR CYYG 261800Z 21009KT 15SM SCT016 OVC045 10/07 A3032 RMK SC4SC4 SLP269
CYYG;2003-10-26 19:00;METAR CYYG 261900Z 18011G18KT 15SM SCT016 OVC035 10/07 A3028 RMK SC4SC4 SLP257
CYYG;2003-10-26 20:00;METAR CYYG 262000Z 18013KT 15SM FEW016 OVC038 11/07 A3027 RMK SC2SC6 SLP251
CYYG;2003-10-26 21:00;METAR CYYG 262100Z 18018KT 15SM OVC036 11/07 A3026 RMK SC8 SLP247
CYYG;2003-10-26 22:00;METAR CYYG 262200Z 18013G21KT 15SM OVC033 11/08 A3024 RMK SC8 SLP240
CYYG;2003-10-26 23:00;METAR CYYG 262300Z 19014G20KT 15SM OVC032 11/08 A3023 RMK SC8 SLP236
CYYG;2003-10-27 00:00;METAR CYYG 270000Z 19018G25KT 15SM BKN029 OVC240 11/06 A3021 RMK SC7CI1 SLP232
CYYG;2003-10-27 01:00;METAR CYYG 270100Z 20018G26KT 15SM OVC036 11/07 A3021 RMK SC8 SLP231
CYYG;2003-10-27 02:00;METAR CYYG 270200Z 19019G25KT 15SM OVC041 11/07 A3019 RMK SC8 SLP224
CYYG;2003-10-27 03:00;METAR CYYG 270300Z 19020G26KT 15SM FEW042 BKN070 11/07 A3018 RMK SC2AC5 SLP222
CYYG;2003-10-27 04:00;METAR CYYG 270400Z 20018G26KT 15SM SCT070 BKN220 11/08 A3017 RMK AC3CI2 SLP217
CYYG;2003-10-27 05:00;METAR CYYG 270500Z 19016KT 15SM FEW070 BKN230 11/08 A3016 RMK AC2CI0 SLP215
CYYG;2003-10-27 06:00;METAR CYYG 270600Z 20021G26KT 15SM BKN100 BKN230 11/08 A3016 RMK AC5CI0 SLP213
CYYG;2003-10-27 07:00;METAR CYYG 270700Z 20018KT 15SM SCT028 BKN084 BKN100 12/09 A3016 RMK SC3AC2AC2 SLP215
CYYG;2003-10-27 08:00;METAR CYYG 270800Z 20014KT 15SM -SHRA BKN028 OVC070 12/10 A3016 RMK SC5AC3
CYYG;2003-10-27 09:00;METAR CYYG 270900Z 19015G20KT 15SM -SHRA FEW028 OVC075 12/10 A3014 RMK SC2AC6 SLP207
CYYG;2003-10-27 10:00;METAR CYYG 271000Z 19015G20KT 15SM SCT039 BKN096 12/10 A3014 RMK SC3AC3 SLP207
CYYG;2003-10-27 11:00;METAR CYYG 271100Z 18011G17KT 15SM SCT035 BKN051 13/11 A3014 RMK SC3SC3
CYYG;2003-10-27 12:00;METAR CYYG 271200Z 18012KT 15SM VCSH FEW035 OVC077 13/11 A3013 RMK SC2AC6 SLP205
CYYG;2003-10-27 13:00;METAR CYYG 271300Z 19018G24KT 15SM FEW015 BKN060 OVC120 14/12 A3012 RMK SC2SC5AC2 SLP201
CYYG;2003-10-27 14:00;METAR CYYG 271400Z 19016G26KT 15SM SCT013 BKN060 OVC120 15/13 A3011 RMK SC3SC3AC2 SLP196
CYYG;2003-10-27 15:00;METAR CYYG 271500Z 19015G20KT 15SM BKN014 OVC060 15/13 A3009 RMK SC6SC2 SLP192
CYYG;2003-10-27 16:00;METAR CYYG 271600Z 19020G25KT 15SM FEW015 BKN070 BKN210 16/13 A3008 RMK SC2AC2AC2 SLP187
CYYG;2003-10-27 17:00;METAR CYYG 271700Z 19015G24KT 15SM SCT027 BKN070 BKN210 17/14 A3006 RMK SC3AC2CC2 SLP181
CYYG;2003-10-27 18:00;METAR CYYG 271800Z 19016G21KT 15SM SCT027 BKN076 OVC210 17/14 A3003 RMK SC3AC2CI2 SLP169
CYYG;2003-10-27 19:00;METAR CYYG 271900Z 19020G26KT 15SM SCT027 BKN080 OVC210 17/14 A3003 RMK
CYYG;2003-10-27 20:00;METAR CYYG 272000Z 18018G24KT 15SM FEW025 BKN056 OVC210 15/14 A3002 RMK SC2SC4CI2 SLP167
CYYG;2003-10-27 21:00;METAR CYYG 272100Z 17014KT 15SM BKN025 OVC055 16/14 A3001 RMK SC5SC3 SLP161
CYYG;2003-10-27 22:00;METAR CYYG 272200Z 18016KT 15SM BKN015 OVC055 16/14 A2999 RMK SC6SC2 SLP155
CYYG;2003-10-27 23:00;METAR CYYG 272300Z 19022G27KT 15SM OVC014 16/14 A2997 RMK SC8 SLP148
CYYG;2003-10-28 22:00;METAR CYYG 272200Z 18016KT 15SM BKN015 OVC055 16/14 A2999 RMK SC6SC2 SLP155
CYYG;2003-10-28 00:00;METAR CYYG 280000Z 17015KT 15SM BKN014 OVC055 15/14 A2995 RMK SC6SC2 SLP142
CYYG;2003-10-28 01:00;METAR CYYG 280100Z 17017KT 15SM OVC018 16/14 A2993 RMK SC8 SLP136
CYYG;2003-10-28 02:00;METAR CYYG 280200Z 17017G22KT 15SM -SHRA SCT016 OVC064 16/15 A2990 RMK SC3SC5 SLP125
CYYG;2003-10-28 03:00;METAR CYYG 280300Z 18020G28KT 15SM -SHRA BKN020 OVC054 17/15 A2987 RMK SC5SC3 SLP115
CYYG;2003-10-28 04:00;METAR CYYG 280400Z 17019G26KT 15SM -SHRA BKN020 OVC052 17/15 A2984 RMK SC5SC3 SLP105
CYYG;2003-10-28 05:00;METAR CYYG 280500Z 18020G28KT 15SM -SHRA OVC023 16/15 A2983 RMK SC8 SLP101
CYYG;2003-10-28 06:00;METAR CYYG 280600Z 18021G26KT 15SM -SHRA BKN028 OVC060 17/15 A2980 RMK SC6SC2 SLP091
CYYG;2003-10-28 07:00;METAR CYYG 280700Z 18022G33KT 15SM -SHRA OVC025 17/15 A2975 RMK SC8 SLP074
CYYG;2003-10-28 08:00;METAR CYYG 280800Z 19025G32KT 15SM -SHRA OVC029 17/15 A2974 RMK SC8 SLP070
CYYG;2003-10-28 09:00;METAR CYYG 280900Z 19023G31KT 15SM OVC030 18/15 A2971 RMK SC8 SLP061
CYYG;2003-10-28 10:00;METAR CYYG 281000Z 18025G37KT 15SM BKN030 OVC050 17/15 A2969 RMK SC6SC2 SLP055
CYYG;2003-10-28 11:00;METAR CYYG 281100Z CCA 18021G28KT 6SM -RA BR FEW021 OVC100 17/15 A2969 RMK SC2AC6 RERA SLP055
CYYG;2003-10-28 12:00;METAR CYYG 281200Z 19020G26KT 12SM -RA SCT008 BKN020 OVC100 16/15 A2970 RMK SF3SC2AC3 RERA SLP059
CYYG;2003-10-28 13:00;METAR CYYG 281300Z 25020G29KT 6SM -RA BR SCT007 OVC021 14/13 A2978 RMK SF3SC5 PRESRR RERA SLP086
CYYG;2003-10-28 14:00;METAR CYYG 281400Z 23016G22KT 15SM FEW007 BKN030 14/12 A2981 RMK SF2SC6 RERA SLP095
CYYG;2003-10-28 15:00;METAR CYYG 281500Z 27009KT 15SM FEW008 BKN040 OVC140 14/12 A2985 RMK SF2SC5AS2 SLP110
CYYG;2003-10-28 16:00;METAR CYYG 281600Z 24010G15KT 15SM FEW008 FEW045 OVC150 14/12 A2988 RMK SF1SC1AS8 SLP118
CYYG;2003-10-28 17:00;METAR CYYG 281700Z 23011G17KT 15SM FEW008 BKN021 OVC150 14/12 A2990 RMK SF1SC6AS1 SLP124
CYYG;2003-10-28 18:00;METAR CYYG 281800Z 23008KT 15SM SCT012 BKN025 OVC040 14/12 A2992 RMK SC3SC3SC2 SLP132
CYYG;2003-10-28 19:00;METAR CYYG 281900Z 26007KT 15SM FEW010 BKN030 OVC150 14/11 A2995 RMK SC2SC2AC3 SLP141
CYYG;2003-10-28 20:00;METAR CYYG 282000Z 24009KT 15SM FEW010 FEW020 BKN040 BKN150 13/10 A2998 RMK SC1SC2SC2AC2 SLP154
CYYG;2003-10-28 21:00;METAR CYYG 282100Z 00000KT 15SM FEW015 FEW150 BKN250 12/09 A2999 RMK SC1AC2CI2 SLP156
CYYG;2003-10-28 22:00;METAR CYYG 282200Z 02003KT 15SM FEW015 SCT110 BKN250 09/08 A3004 RMK SC2AC2CI2 SLP173
CYYG;2003-10-28 23:00;METAR CYYG 282300Z 07004KT 15SM BKN017 BKN110 10/08 A3005 RMK SC5AC1 SLP177
CYYG;2003-10-29 00:00;METAR CYYG 290000Z 11003KT 15SM BKN017 09/08 A3007 RMK SC6 SLP183
CYYG;2003-10-29 01:00;METAR CYYG 290100Z 00000KT 15SM SCT110 08/07 A3009 RMK AC2 SLP191
CYYG;2003-10-29 02:00;METAR CYYG 290200Z 00000KT 15SM SCT110 07/07 A3009 RMK AC2 SLP191
CYYG;2003-10-29 03:00;METAR CYYG 290300Z 00000KT 15SM BKN120 09/08 A3011 RMK AC3 SLP197
CYYG;2003-10-29 04:00;METAR CYYG 290400Z 12003KT 15SM BKN028 BKN090 09/08 A3012 RMK SC5AC1 SLP200
CYYG;2003-10-29 05:00;METAR CYYG 290500Z 00000KT 15SM BKN086 09/09 A3013 RMK AC6 SLP205
CYYG;2003-10-29 06:00;METAR CYYG 290600Z 10004KT 15SM BKN076 10/09 A3011 RMK AC6 SLP198
CYYG;2003-10-29 07:00;METAR CYYG 290700Z 06004KT 15SM BKN071 10/09 A3010 RMK AC5 SLP194
CYYG;2003-10-29 08:00;METAR CYYG 290800Z 09003KT 15SM -SHRA SCT017 OVC070 10/09 A3010 RMK SC3AC5 SLP194
CYYG;2003-10-29 09:00;METAR CYYG 290900Z 11004KT 15SM -SHRA BKN029 OVC070 10/09 A3012 RMK SC6AC2 SLP202
CYYG;2003-10-29 10:00;METAR CYYG 291000Z 04004KT 15SM -SHRA BKN014 OVC025 10/09 A3012 RMK SC5SC3
CYYG;2003-10-29 11:00;METAR CYYG 291100Z 09003KT 6SM -RA BR FEW008 OVC022 10/09 A3012 RMK SF2SC6 SLP201
CYYG;2003-10-29 12:00;METAR CYYG 291200Z 11004KT 2 1/2SM -RA BR BKN003 OVC006 11/10 A3012 RMK SF6SF2 SLP202
CYYG;2003-10-29 13:00;METAR CYYG 291300Z 08009KT 3SM -RA BR OVC002 11/11 A3009 RMK SF8 SLP190
CYYG;2003-10-29 14:00;METAR CYYG 291400Z 09010KT 3SM -RA BR SCT004 OVC015 11/11 A3005 RMK SF4NS4 SLP178
CYYG;2003-10-29 15:00;METAR CYYG 291500Z 10009KT 1 1/2SM RA BR BKN003 OVC010 12/11 A3003 RMK SF7NS1 SLP170 RERA SLP163
CYYG;2003-10-29 18:00;METAR CYYG 291800Z 14006KT 10SM BKN003 OVC008 16/15 A2998 RMK SF6SF2 SLP153
CYYG;2003-10-29 19:00;METAR CYYG 291900Z 13007KT 10SM FEW007 BKN017 OVC030 17/16 A2996 RMK SF2SC6SC1 SLP146
CYYG;2003-10-29 20:00;METAR CYYG 292000Z 17013KT 15SM FEW007 BKN020 OVC120 18/17 A2996 RMK SF1SC6AC2 SLP147
CYYG;2003-10-29 21:00;METAR CYYG 292100Z 17013G24KT 15SM FEW015 BKN055 OVC220 18/17 A2994 RMK SC1SC6CS2 SLP139
CYYG;2003-10-29 22:00;METAR CYYG 292200Z 17014G21KT 12SM FEW015 OVC041 18/16 A2993 RMK SC1SC7 SLP135
CYYG;2003-10-29 23:00;METAR CYYG 292300Z 16012KT 12SM -SHRA BKN019 OVC040 17/16 A2992 RMK SC6SC2 SLP131
CYYG;2003-10-30 00:00;METAR CYYG 300000Z 16010G16KT 12SM SCT020 OVC052 18/16 A2989 RMK SC4SC4 SLP123
CYYG;2003-10-30 01:00;METAR CYYG 300100Z 16016KT 12SM FEW020 OVC047 18/16 A2986 RMK SC2SC6 SLP112
CYYG;2003-10-30 02:00;METAR CYYG 300200Z 16017G22KT 12SM FEW022 BKN047 18/16 A2981 RMK SC2SC3 SLP094
CYYG;2003-10-30 03:00;METAR CYYG 300300Z 18023G30KT 15SM FEW022 SCT045 18/16 A2977 RMK SC2SC2 SLP082
CYYG;2003-10-30 04:00;METAR CYYG 300400Z 17025G31KT 15SM SCT025 BKN052 18/17 A2974 RMK SC3SC2 SLP071
CYYG;2003-10-30 05:00;METAR CYYG 300500Z 16020G26KT 15SM FEW025 BKN052 19/16 A2971 RMK SC2SC2 SLP060
CYYG;2003-10-30 06:00;METAR CYYG 300600Z 17029G36KT 12SM -SHRA BKN025 OVC050 19/16 A2965 RMK SC6SC2 SLP041
CYYG;2003-10-30 07:00;METAR CYYG 300700Z 17025G31KT 12SM -SHRA OVC019 18/17 A2964 RMK SC8 SLP036
CYYG;2003-10-30 08:00;METAR CYYG 300800Z 19010G15KT 12SM -SHRA FEW009 BKN020 OVC064 16/15 A2964 RMK SF2SC4SC2 RERA SLP038
CYYG;2003-10-30 09:00;METAR CYYG 300900Z 19015KT 12SM -SHRA FEW009 SCT020 OVC082 16/15 A2965 RMK SF2SC2AC5 SLP039
CYYG;2003-10-30 10:00;METAR CYYG 301000Z 18016KT 15SM -RA FEW009 FEW020 OVC110 16/14 A2962 RMK SF1SC1AC6 RERA SLP030
CYYG;2003-10-30 11:00;METAR CYYG 301100Z 18019G27KT 15SM -SHRA BKN018 OVC110 16/15 A2963 RMK SC5AC3 SLP034
CYYG;2003-10-30 12:00;METAR CYYG 301200Z 22017G24KT 15SM -SHRA FEW008 FEW018 BKN033 BKN110 14/12 A2968 RMK SF1SC1SC4AC2 SLP050
CYYG;2003-10-30 13:00;METAR CYYG 301300Z 23022G30KT 15SM BKN019 BKN170 13/10 A2973 RMK SC6AC2 SLP068
CYYG;2003-10-30 14:00;METAR CYYG 301400Z 23019G34KT 15SM FEW014 FEW170 BKN300 13/09 A2976 RMK SC2AC1CI0 SLP077
CYYG;2003-10-30 15:00;METAR CYYG 301500Z 26015G21KT 15SM SCT014 BKN022 11/08 A2982 RMK SC3SC4 PRESRR SLP097
CYYG;2003-10-30 16:00;METAR CYYG 301600Z 25015G26KT 15SM SCT014 BKN030 BKN200 12/07 A2983 RMK SC3SC4CI1 SLP103
CYYG;2003-10-30 17:00;METAR CYYG 301700Z 25014G20KT 15SM FEW014 BKN030 11/06 A2986 RMK SC2SC5 SLP113
CYYG;2003-10-30 18:00;METAR CYYG 301800Z 24014G22KT 15SM FEW023 BKN028 11/06 A2989 RMK CU2SC6 SLP122
CYYG;2003-10-30 19:00;METAR CYYG 301900Z 23017KT 15SM FEW023 BKN032 11/06 A2993 RMK CU1SC7 SLP136
CYYG;2003-10-30 20:00;METAR CYYG 302000Z 25013G21KT 15SM FEW032 11/05 A2996 RMK SC2 SLP144
CYYG;2003-10-30 21:00;METAR CYYG 302100Z 25013G18KT 15SM FEW032 11/04 A2997 RMK SC1 SLP149
CYYG;2003-10-30 22:00;METAR CYYG 302200Z 23008KT 15SM FEW032 10/04 A3000 RMK SC1 SLP160
CYYG;2003-10-30 23:00;METAR CYYG 302300Z 25015G20KT 15SM FEW030 10/03 A3003 RMK SC1 SLP169
CYYG;2003-10-31 00:00;METAR CYYG 310000Z 25013G19KT 15SM SKC 10/02 A3004 RMK SLP174
CYYG;2003-10-31 01:00;METAR CYYG 310100Z 25011G16KT 15SM SKC 09/02 A3008 RMK SLP186
CYYG;2003-10-31 02:00;METAR CYYG 310200Z 26012G17KT 15SM SKC 09/02 A3009 RMK SLP189
CYYG;2003-10-31 03:00;METAR CYYG 310300Z 25011G16KT 15SM SKC 08/01 A3010 RMK SLP194
CYYG;2003-10-31 04:00;METAR CYYG 310400Z 27013G18KT 15SM SKC 08/01 A3011 RMK SLP196
CYYG;2003-10-31 05:00;METAR CYYG 310500Z 26011KT 15SM SKC 08/01 A3012 RMK SLP202
CYYG;2003-10-31 06:00;METAR CYYG 310600Z 26010G17KT 15SM SKC 08/02 A3015 RMK SLP210
CYYG;2003-10-31 07:00;METAR CYYG 310700Z 26010KT 15SM SKC 07/02 A3017 RMK SLP219
CYYG;2003-10-31 08:00;METAR CYYG 310800Z 26008KT 15SM SKC 07/02 A3020 RMK SLP228
CYYG;2003-10-31 09:00;METAR CYYG 310900Z 25005KT 15SM SKC 06/02 A3023 RMK SLP240
CYYG;2003-10-31 10:00;METAR CYYG 311000Z 25010KT 15SM FEW250 06/02 A3024 RMK CI1 SLP242
CYYG;2003-10-31 11:00;METAR CYYG 311100Z 27002KT 15SM FEW030 FEW250 05/02 A3026 RMK SC1CI2 SLP250
CYYG;2003-10-31 12:00;METAR CYYG 311200Z 28007KT 15SM FEW030 FEW250 07/03 A3029 RMK SC1CI1 SLP258
CYYG;2003-10-31 13:00;METAR CYYG 311300Z 28015G20KT 15SM FEW030 FEW100 FEW250 08/02 A3029 RMK SC1AC1CI1 SLP260
CYYG;2003-10-31 14:00;METAR CYYG 311400Z 31007KT 15SM FEW023 SCT250 09/03 A3030 RMK SC2CI1 SLP263
CYYG;2003-10-31 15:00;METAR CYYG 311500Z 32007KT 15SM FEW027 09/02 A3031 RMK SC2 SLP267
CYYG;2003-10-31 16:00;METAR CYYG 311600Z 32006KT 15SM FEW026 09/03 A3031 RMK SC2 SLP264
CYYG;2003-10-31 17:00;METAR CYYG 311700Z 34005KT 15SM FEW030 FEW300 09/03 A3029 RMK CU2CI1 SLP260
CYYG;2003-10-31 18:00;METAR CYYG 311800Z 01008KT 15SM FEW030 FEW100 FEW300 09/02 A3029 RMK SC1AC1CI0 SLP259
CYYG;2003-10-31 19:00;METAR CYYG 311900Z 03005KT 15SM FEW030 FEW100 BKN300 08/02 A3029 RMK SC1AC1CI1 SLP259
CYYG;2003-10-31 20:00;METAR CYYG 312000Z 06004KT 15SM BKN200 BKN300 07/02 A3028 RMK CC5CI1 SLP257
CYYG;2003-10-31 21:00;METAR CYYG 312100Z 08003KT 15SM SCT210 BKN300 06/02 A3028 RMK CC3CI1 SLP256
CYYG;2003-10-31 22:00;METAR CYYG 312200Z 07003KT 15SM FEW210 BKN300 04/01 A3028 RMK CC1CI2
CYYG;2003-10-31 23:00;METAR CYYG 312300Z 11004KT 15SM SCT250 04/01 A3028 RMK CI3 SLP254
CYYG;2003-11-01 00:00;METAR CYYG 010000Z 13008KT 15SM FEW090 SCT250 05/02 A3024 RMK AC2CI2 SLP243
CYYG;2003-11-01 01:00;METAR CYYG 010100Z 12006KT 15SM BKN099 05/03 A3025 RMK AC7 SLP247
CYYG;2003-11-01 02:00;METAR CYYG 010200Z 14004KT 15SM BKN100 06/03 A3024 RMK AC7 SLP242
CYYG;2003-11-01 03:00;METAR CYYG 010300Z 14003KT 15SM OVC100 06/04 A3023 RMK AC8 SLP238
CYYG;2003-11-01 04:00;METAR CYYG 010400Z 21007KT 15SM BKN100 09/05 A3021 RMK AC7 SLP231
CYYG;2003-11-01 05:00;METAR CYYG 010500Z 19008KT 15SM BKN100 08/05 A3019 RMK AC6 SLP225
CYYG;2003-11-01 06:00;METAR CYYG 010600Z 18010KT 15SM BKN086 10/06 A3017 RMK AC6 SLP219
CYYG;2003-11-01 07:00;METAR CYYG 010700Z 20012KT 15SM BKN088 10/06 A3015 RMK AC6 SLP210
CYYG;2003-11-01 08:00;METAR CYYG 010800Z 20012KT 15SM OVC087 09/05 A3011 RMK AC8 SLP198
CYYG;2003-11-01 09:00;METAR CYYG 010900Z 20011KT 15SM OVC086 09/05 A3010 RMK AC8 SLP193
CYYG;2003-11-01 10:00;METAR CYYG 011000Z 20008KT 15SM BKN085 09/05 A3009 RMK AC6 SLP192
CYYG;2003-11-01 11:00;METAR CYYG 011100Z 20012G17KT 15SM BKN093 BKN300 10/06 A3006 RMK AC6CI1 SLP181
CYYG;2003-11-01 12:00;METAR CYYG 011200Z 21013KT 15SM BKN097 10/07 A3006 RMK AC6 SLP182
CYYG;2003-11-01 13:00;METAR CYYG 011300Z 20016KT 15SM BKN067 BKN097 BKN120 10/07 A3005 RMK AC5AC1AC1 SLP177
CYYG;2003-11-01 14:00;METAR CYYG 011400Z 21016KT 15SM FEW067 BKN120 11/08 A3002 RMK AC2AC5 SLP168
CYYG;2003-11-01 15:00;METAR CYYG 011500Z 22013G18KT 15SM FEW058 BKN110 12/08 A3000 RMK SC2AC6 SLP161
CYYG;2003-11-01 16:00;METAR CYYG 011600Z 23015G20KT 15SM BKN054 BKN100 13/09 A2998 RMK SC5AC2 SLP152
CYYG;2003-11-01 17:00;METAR CYYG 011700Z 22012G21KT 15SM FEW054 14/09 A2995 RMK SC1 SLP144
CYYG;2003-11-01 18:00;METAR CYYG 011800Z 22013G21KT 15SM FEW110 15/10 A2993 RMK AC2 SLP134
CYYG;2003-11-01 19:00;METAR CYYG 011900Z 22012G17KT 15SM FEW050 SCT085 BKN099 14/10 A2990 RMK SC2AC2AC3 SLP127
CYYG;2003-11-01 20:00;METAR CYYG 012000Z 22014KT 15SM FEW080 BKN100 15/10 A2989 RMK AC2AC5 SLP123
CYYG;2003-11-01 21:00;METAR CYYG 012100Z 23011KT 15SM BKN091 15/11 A2990 RMK AC6 SLP124
CYYG;2003-11-01 22:00;METAR CYYG 012200Z 24012G17KT 15SM BKN092 BKN110 15/11 A2991 RMK AC5AC2 SLP128
CYYG;2003-11-01 23:00;METAR CYYG 012300Z 25009G16KT 15SM BKN095 14/10 A2992 RMK AC6 SLP132
CYYG;2003-11-02 00:00;METAR CYYG 020000Z 29012G17KT 15SM SCT016 OVC090 13/11 A2996 RMK SC3AC5 SLP148
CYYG;2003-11-02 01:00;METAR CYYG 020100Z 33010KT 15SM BKN024 OVC070 11/07 A2999 RMK SC6AC2 SLP156
CYYG;2003-11-02 02:00;METAR CYYG 020200Z 35013G20KT 15SM OVC031 10/04 A3001 RMK SC8 SLP165
CYYG;2003-11-02 03:00;METAR CYYG 020300Z 34014G21KT 15SM OVC054 09/02 A3004 RMK SC8 SLP173
CYYG;2003-11-02 04:00;METAR CYYG 020400Z 34010G18KT 15SM BKN055 08/02 A3006 RMK SC6 SLP179
CYYG;2003-11-02 05:00;METAR CYYG 020500Z 32009G16KT 15SM SCT050 07/01 A3007 RMK SC3 SLP185
CYYG;2003-11-02 06:00;METAR CYYG 020600Z 33007KT 15SM FEW050 06/00 A3008 RMK SC2 SLP187
CYYG;2003-11-02 07:00;METAR CYYG 020700Z 31006KT 15SM FEW050 05/01 A3009 RMK SC2 SLP191
CYYG;2003-11-02 08:00;METAR CYYG 020800Z 30009KT 15SM FEW050 05/M01 A3010 RMK SC2 SLP194
CYYG;2003-11-02 09:00;METAR CYYG 020900Z 32007KT 15SM FEW050 04/M01 A3012 RMK SC2 SLP199
CYYG;2003-11-02 10:00;METAR CYYG 021000Z 29008KT 15SM FEW050 04/M01 A3012 RMK SC2 SLP199
CYYG;2003-11-02 11:00;METAR CYYG 021100Z 30009KT 15SM FEW050 BKN250 04/M01 A3013 RMK SC2CI4 SLP203
CYYG;2003-11-02 12:00;METAR CYYG 021200Z 30007KT 15SM FEW030 SCT060 BKN250 04/M02 A3012 RMK SC1SC2CI2 SLP202
CYYG;2003-11-02 13:00;METAR CYYG 021300Z 31009KT 15SM FEW030 SCT060 BKN140 BKN250 04/M01 A3015 RMK SC2SC2AC2CI1 SLP211
CYYG;2003-11-02 14:00;METAR CYYG 021400Z 32011G17KT 15SM FEW029 SCT060 BKN130 BKN250 05/M01 A3015 RMK SC2SC2AC2CI1 SLP212
CYYG;2003-11-02 15:00;METAR CYYG 021500Z 31008KT 15SM SCT030 BKN120 OVC250 05/M01 A3015 RMK SC4AC2CI1 SLP213
CYYG;2003-11-02 16:00;METAR CYYG 021600Z 31010KT 15SM SCT030 BKN130 OVC250 04/M02 A3016 RMK SC4AC2CI1 SLP214
CYYG;2003-11-02 17:00;METAR CYYG 021700Z 32010G16KT 15SM SCT029 BKN130 OVC250 04/M02 A3014 RMK SC3AC2CI2 SLP209
CYYG;2003-11-02 18:00;METAR CYYG 021800Z 28010KT 15SM SCT030 BKN110 BKN250 05/M02 A3012 RMK SC3AC2CI1 SLP202
CYYG;2003-11-02 19:00;METAR CYYG 021900Z 32010KT 15SM FEW030 BKN110 OVC250 04/M02 A3014 RMK SC2AC3CI2 SLP209
CYYG;2003-11-02 20:00;METAR CYYG 022000Z 32007KT 15SM FEW030 BKN110 OVC250 04/M02 A3014 RMK SC2AC4CI2 SLP208
CYYG;2003-11-02 21:00;METAR CYYG 022100Z 29006KT 15SM FEW030 BKN100 OVC250 03/M03 A3014 RMK SC2AC3CI2 SLP207
CYYG;2003-11-02 22:00;METAR CYYG 022200Z 30003KT 15SM FEW030 BKN100 OVC250 03/M02 A3016 RMK SC1AC6CI2 SLP215
CYYG;2003-11-02 23:00;METAR CYYG 022300Z 28004KT 15SM FEW030 BKN100 OVC250 03/M03 A3016 RMK SC1AC5CI2 SLP215
CYYG;2003-11-03 00:00;METAR CYYG 030000Z 29006KT 15SM BKN100 BKN170 OVC250 03/M03 A3017 RMK AC5AC2CI0 SLP220
CYYG;2003-11-03 01:00;METAR CYYG 030100Z 29006KT 15SM BKN120 OVC250 03/M03 A3018 RMK AC6CI2 SLP221
CYYG;2003-11-03 02:00;METAR CYYG 030200Z 27005KT 15SM BKN100 OVC250 02/M03 A3017 RMK AC7CI0 SLP218
CYYG;2003-11-03 03:00;METAR CYYG 030300Z 28006KT 15SM FEW100 01/M04 A3016 RMK AC2 SLP215
CYYG;2003-11-03 04:00;METAR CYYG 030400Z 27005KT 15SM SCT033 01/M04 A3017 RMK SC3 SLP217
CYYG;2003-11-03 05:00;METAR CYYG 030500Z 27005KT 15SM FEW033 00/M04 A3016 RMK SC2 SLP216
CYYG;2003-11-03 06:00;METAR CYYG 030600Z 29004KT 15SM FEW030 00/M04 A3017 RMK SC2 SLP218
CYYG;2003-11-03 07:00;METAR CYYG 030700Z 27006KT 15SM BKN035 00/M04 A3017 RMK SC5 SLP217
CYYG;2003-11-03 08:00;METAR CYYG 030800Z 28007KT 15SM FEW035 M00/M03 A3017 RMK SC2 SLP217
CYYG;2003-11-03 09:00;METAR CYYG 030900Z 27007KT 15SM FEW035 M00/M03 A3019 RMK SC1 SLP226
CYYG;2003-11-03 10:00;METAR CYYG 031000Z 28007KT 15SM FEW035 M01/M03 A3019 RMK SC1 FROIN SLP225
CYYG;2003-11-03 11:00;METAR CYYG 031100Z 28006KT 15SM FEW035 BKN160 00/M03 A3019 RMK SC1AC6 FROIN VIRGA SLP226
CYYG;2003-11-03 12:00;METAR CYYG 031200Z 28007KT 15SM FEW035 SCT180 BKN250 01/M02 A3020 RMK SC1AC3CI1 SLP230
CYYG;2003-11-03 13:00;METAR CYYG 031300Z 29008KT 15SM FEW035 SCT180 BKN250 02/M02 A3022 RMK SC1AC2CI2 SLP236
CYYG;2003-11-03 14:00;METAR CYYG 031400Z 29005KT 15SM FEW035 BKN180 BKN250 03/M04 A3019 RMK SC1AC4CI2 SLP226
CYYG;2003-11-03 15:00;METAR CYYG 031500Z 31006KT 15SM FEW035 BKN130 BKN250 04/M04 A3020 RMK SC1AC5CI2 SLP227
CYYG;2003-11-03 16:00;METAR CYYG 031600Z 30008KT 15SM FEW030 BKN160 BKN250 04/M03 A3018 RMK SC2AC5CI1 SLP221
CYYG;2003-11-03 17:00;METAR CYYG 031700Z 30007KT 15SM FEW030 BKN160 OVC250 04/M03 A3015 RMK SC1AC6CI1 SLP213
CYYG;2003-11-03 18:00;METAR CYYG 031800Z 28007KT 15SM FEW030 BKN150 BKN250 04/M02 A3015 RMK SC1AC5CI1 SLP211
CYYG;2003-11-03 19:00;METAR CYYG 031900Z 27006KT 15SM FEW030 SCT150 BKN250 04/M03 A3013 RMK SC1AC2CI3 SLP205
CYYG;2003-11-03 20:00;METAR CYYG 032000Z 27005KT 15SM FEW030 FEW150 BKN250 03/M03 A3014 RMK SC1AC2CI4 SLP208
CYYG;2003-11-03 21:00;METAR CYYG 032100Z 25006KT 15SM FEW030 FEW150 BKN250 02/M03 A3013 RMK SC1AC1CI5 SLP205
CYYG;2003-11-03 22:00;METAR CYYG 032200Z 25003KT 15SM FEW042 SCT095 BKN250 02/M03 A3012 RMK SC2AC2CI2 SLP201
CYYG;2003-11-03 23:00;METAR CYYG 032300Z 25002KT 15SM FEW042 BKN095 BKN250 02/M03 A3011 RMK SC2AC3CI2 SLP197
CYYG;2003-11-04 00:00;METAR CYYG 040000Z 24003KT 15SM OVC040 03/M04 A3009 RMK SC8 SLP192
CYYG;2003-11-04 01:00;METAR CYYG 040100Z 24004KT 15SM BKN035 OVC060 03/M02 A3006 RMK SC6SC2 SLP183
CYYG;2003-11-04 02:00;METAR CYYG 040200Z 25006KT 15SM OVC025 05/M01 A3005 RMK SC8 SLP178
CYYG;2003-11-04 03:00;METAR CYYG 040300Z 26008KT 15SM OVC022 05/M00 A3004 RMK SC8 SLP176
CYYG;2003-11-04 04:00;METAR CYYG 040400Z 27009KT 15SM OVC020 05/00 A3003 RMK SC8 SLP172
CYYG;2003-11-04 05:00;METAR CYYG 040500Z 28007KT 15SM BKN028 OVC120 05/02 A3003 RMK SC6AC2 SLP170
CYYG;2003-11-04 06:00;METAR CYYG 040600Z 29009G17KT 15SM OVC044 05/01 A3002 RMK SC8 SLP168
CYYG;2003-11-04 07:00;METAR CYYG 040700Z 29009KT 15SM OVC040 05/00 A3002 RMK SC8 SLP169
CYYG;2003-11-04 08:00;METAR CYYG 040800Z 29015G20KT 12SM -SHRA OVC022 04/01 A3002 RMK SC8 SLP169
CYYG;2003-11-04 09:00;METAR CYYG 040900Z 29010G15KT 12SM SCT022 OVC120 03/01 A3004 RMK SC3AC5 SLP174
CYYG;2003-11-04 10:00;METAR CYYG 041000Z 31015G21KT 15SM BKN030 BKN120 04/M01 A3006 RMK SC6AC2 SLP180
CYYG;2003-11-04 11:00;METAR CYYG 041100Z 33021G30KT 15SM BKN040 BKN120 03/M07 A3011 RMK SC6AC2 SLP197
CYYG;2003-11-04 12:00;METAR CYYG 041200Z 32020G27KT 15SM BKN042 BKN120 01/M09 A3017 RMK SC5AC1 PRESRR SLP218
CYYG;2003-11-04 13:00;METAR CYYG 041300Z 33020G34KT 15SM SCT045 BKN250 01/M09 A3022 RMK SC3CI1 SLP234
CYYG;2003-11-04 14:00;METAR CYYG 041400Z 33019G27KT 15SM FEW048 BKN250 01/M10 A3023 RMK SC2CI1 SLP239
CYYG;2003-11-04 15:00;METAR CYYG 041500Z 34020G27KT 15SM FEW046 FEW140 BKN250 02/M10 A3025 RMK SC2AC1CI1 SLP247
CYYG;2003-11-04 16:00;METAR CYYG 041600Z 33017G27KT 15SM FEW046 BKN250 02/M09 A3026 RMK SC1CI1 SLP248
CYYG;2003-11-04 17:00;METAR CYYG 041700Z 33018G26KT 15SM FEW042 BKN250 02/M09 A3028 RMK SC1CI1 SLP254
CYYG;2003-11-04 18:00;METAR CYYG 041800Z 33017G24KT 15SM FEW043 FEW140 BKN250 02/M08 A3030 RMK SC1AC1CI2 SLP262
CYYG;2003-11-04 19:00;METAR CYYG 041900Z 32013G20KT 15SM FEW040 FEW140 BKN250 02/M07 A3033 RMK SC1AC2CI1 SLP271
CYYG;2003-11-04 20:00;METAR CYYG 042000Z 33011G17KT 15SM FEW040 FEW140 BKN250 01/M07 A3034 RMK SC1AC1CI2 SLP275
CYYG;2003-11-04 21:00;METAR CYYG 042100Z 33006KT 15SM FEW040 FEW140 BKN250 00/M07 A3035 RMK SC1AC2CI3 SLP279
CYYG;2003-11-04 22:00;METAR CYYG 042200Z 31005KT 15SM FEW040 FEW140 BKN250 M00/M06 A3038 RMK SC1AC2CI3 SLP289
CYYG;2003-11-04 23:00;METAR CYYG 042300Z 29006KT 15SM OVC180 M00/M06 A3041 RMK AS3 SLP300
CYYG;2003-11-05 00:00;METAR CYYG 050000Z 27005KT 15SM FEW036 SCT210 M01/M06 A3043 RMK SC2CC2 SLP308
CYYG;2003-11-05 01:00;METAR CYYG 050100Z 30003KT 15SM FEW038 BKN190 M01/M05 A3044 RMK SC2AC5 SLP312
CYYG;2003-11-05 02:00;METAR CYYG 050200Z 02002KT 15SM BKN190 M00/M05 A3044 RMK AC7 SLP312
CYYG;2003-11-05 03:00;METAR CYYG 050300Z 02003KT 15SM FEW034 SCT190 BKN300 01/M05 A3047 RMK SC2AC2CI0 SLP319
CYYG;2003-11-05 04:00;METAR CYYG 050400Z 00000KT 15SM FEW034 SCT180 SCT220 00/M05 A3046 RMK SC1AC2CI1 SLP318
CYYG;2003-11-05 05:00;METAR CYYG 050500Z 28004KT 15SM SCT032 M00/M04 A3048 RMK SC3 SLP323
CYYG;2003-11-05 06:00;METAR CYYG 050600Z 29003KT 15SM FEW032 BKN110 OVC250 M00/M04 A3048 RMK SC2AC3CI2 SLP324
CYYG;2003-11-05 07:00;METAR CYYG 050700Z 28002KT 15SM FEW032 OVC200 00/M04 A3049 RMK SC2CI6 SLP326
CYYG;2003-11-05 08:00;METAR CYYG 050800Z 26002KT 15SM OVC100 00/M04 A3049 RMK AC8 SLP326
CYYG;2003-11-05 09:00;METAR CYYG 050900Z 24003KT 15SM BKN093 OVC160 01/M05 A3049 RMK AC6AS2 SLP327
CYYG;2003-11-05 10:00;METAR CYYG 051000Z 00000KT 15SM OVC085 00/M04 A3050 RMK AC8 SLP329
CYYG;2003-11-05 11:00;METAR CYYG 051100Z 10002KT 15SM OVC080 01/M03 A3050 RMK AC8 SLP330
CYYG;2003-11-05 12:00;METAR CYYG 051200Z 14004KT 15SM OVC080 02/M03 A3049 RMK AC8 SLP328
CYYG;2003-11-05 13:00;METAR CYYG 051300Z 14005KT 15SM BKN066 OVC160 03/M03 A3049 RMK AC6AC2
CYYG;2003-11-05 14:00;METAR CYYG 051400Z 14008KT 15SM SCT027 OVC065 04/M02 A3047 RMK SC4SC4 SLP320
CYYG;2003-11-05 15:00;METAR CYYG 051500Z 20014G21KT 12SM -SHSN BKN025 OVC035 04/M04 A3044 RMK SC6SC2 SLP309
CYYG;2003-11-05 16:00;METAR CYYG 051600Z 18013KT 15SM -SHRA FEW025 OVC060 04/M03 A3040 RMK SC2SC6 SLP298
CYYG;2003-11-05 17:00;METAR CYYG 051700Z 16013KT 15SM OVC035 04/M02 A3034 RMK SC8 PRESFR SLP277
CYYG;2003-11-05 18:00;METAR CYYG 051800Z 17019G25KT 15SM OVC023 05/M01 A3025 RMK SC8 SLP246
CYYG;2003-11-05 19:00;METAR CYYG 051900Z 18017G25KT 15SM OVC021 05/01 A3023 RMK SC8 SLP237
CYYG;2003-11-05 21:00;METAR CYYG 052100Z 18020G26KT 12SM -SHRA OVC016 07/04 A3014 RMK SC8 PRESFR SLP207
CYYG;2003-11-05 22:00;METAR CYYG 052200Z 18021KT 10SM -SHRA OVC014 07/06 A3011 RMK SC8 SLP197
CYYG;2003-11-05 23:00;METAR CYYG 052300Z 18016KT 6SM -RA BR FEW008 OVC012 08/07 A3008 RMK SF2SC6 SLP187
CYYG;2003-11-06 00:00;METAR CYYG 060000Z 19013G18KT 10SM -RA FEW004 OVC011 09/08 A3003 RMK SF2SF6 SLP171
CYYG;2003-11-06 01:00;METAR CYYG 060100Z 18014KT 8SM -RA FEW005 BKN014 OVC030 10/09 A2999 RMK SF1SC5SC2 SLP158
CYYG;2003-11-06 02:00;METAR CYYG 060200Z 18014KT 15SM -RA FEW004 BKN012 OVC028 10/10 A2995 RMK SF1SC6SC2 SLP144
CYYG;2003-11-06 03:00;METAR CYYG 060300Z 18011KT 6SM -RA BR BKN002 OVC005 11/10 A2991 RMK SF6SF2 SLP131
CYYG;2003-11-06 05:00;METAR CYYG 060500Z 18008KT 1/2SM -RA FG VV001 11/10 A2985 RMK FG8 RVR RWY03 3500 FT SLP109
CYYG;2003-11-06 06:00;METAR CYYG 060600Z 21008KT 1/2SM FG VV001 11/11 A2982 RMK FG8 RVR RWY03 4000 FT SLP101
CYYG;2003-11-06 07:00;METAR CYYG 060700Z 23004KT 1/4SM FG VV001 11/11 A2983 RMK FG8 RVR RWY03 1800 FT SLP103
CYYG;2003-11-06 08:00;METAR CYYG 060800Z 26006KT 15SM OVC005 12/11 A2983 RMK SF8 SLP103
CYYG;2003-11-06 09:00;METAR CYYG 060900Z 28008KT 15SM FEW004 OVC006 12/11 A2987 RMK SF2SF6 SLP115
CYYG;2003-11-06 10:00;METAR CYYG 061000Z 29009KT 15SM FEW006 BKN009 BKN016 OVC033 12/11 A2988 RMK SF1SF4SC2SC2 SLP120
CYYG;2003-11-06 11:00;METAR CYYG 061100Z 33013G18KT 12SM -SHRA OVC011 10/09 A2993 RMK SC8 SLP135
CYYG;2003-11-06 12:00;METAR CYYG 061200Z 33010KT 15SM BKN032 10/07 A2996 RMK SC6 SLP145
CYYG;2003-11-06 13:00;METAR CYYG 061300Z 33008KT 15SM BKN033 09/06 A2999 RMK SC6 SLP157
CYYG;2003-11-06 14:00;METAR CYYG 061400Z 32011KT 15SM FEW033 SCT250 10/04 A3001 RMK SC2CI2 SLP164
CYYG;2003-11-06 15:00;METAR CYYG 061500Z 32014KT 15SM FEW030 BKN250 10/04 A3003 RMK SC2CI4 SLP169
CYYG;2003-11-06 16:00;METAR CYYG 061600Z 33013G18KT 15SM FEW030 BKN250 09/04 A3003 RMK SC2CI2 SLP170
CYYG;2003-11-06 17:00;METAR CYYG 061700Z 33014KT 15SM FEW030 BKN250 09/02 A3003 RMK SC2CI2
CYYG;2003-11-06 18:00;METAR CYYG 061800Z 33009KT 15SM FEW030 BKN250 08/02 A3004 RMK SC2CI2 SLP175
CYYG;2003-11-06 19:00;METAR CYYG 061900Z 34006KT 15SM FEW030 BKN250 08/02 A3006 RMK SC1CI4 SLP181
CYYG;2003-11-06 20:00;METAR CYYG 062000Z 36004KT 15SM FEW030 BKN250 06/02 A3006 RMK SC1CI4
CYYG;2003-11-06 21:00;METAR CYYG 062100Z 36004KT 15SM FEW030 BKN250 05/02 A3005 RMK SC1CI4 SLP178
CYYG;2003-11-06 22:00;METAR CYYG 062200Z 36004KT 15SM BKN250 04/02 A3009 RMK CI6 SLP189
CYYG;2003-11-06 23:00;METAR CYYG 062300Z 01002KT 15SM BKN220 03/01 A3009 RMK CI6 SLP190
CYYG;2003-11-07 00:00;METAR CYYG 070000Z 33002KT 15SM BKN220 03/02 A3011 RMK CI6 SLP197
CYYG;2003-11-07 01:00;METAR CYYG 070100Z 00000KT 15SM FEW170 BKN220 03/02 A3011 RMK CI2CI6 SLP196
CYYG;2003-11-07 02:00;METAR CYYG 070200Z CCA 36003KT 15SM BKN170 03/02 A3011 RMK AC6 SLP196
CYYG;2003-11-07 03:00;METAR CYYG 070300Z 00000KT 15SM SCT020 OVC170 03/02 A3012 RMK SC3AC5 SLP199
CYYG;2003-11-07 04:00;METAR CYYG 070400Z 36003KT 15SM FEW020 SCT030 OVC150 04/01 A3012 RMK SC2SC2AC5 SLP202
CYYG;2003-11-07 05:00;METAR CYYG 070500Z 36002KT 15SM SCT022 OVC032 03/01 A3011 RMK SC3SC5 SLP198
CYYG;2003-11-07 07:00;METAR CYYG 070700Z 02004KT 15SM OVC150 02/M01 A3006 RMK AC8 SLP181
CYYG;2003-11-07 08:00;METAR CYYG 070800Z 01004KT 15SM OVC140 02/M01 A3007 RMK AC6 SLP184
CYYG;2003-11-07 09:00;METAR CYYG 070900Z 32002KT 15SM FEW021 OVC120 02/M01 A3006 RMK SC2AC4 SLP183
CYYG;2003-11-07 10:00;METAR CYYG 071000Z 00000KT 15SM BKN030 OVC120 03/M00 A3006 RMK SC5AC2
CYYG;2003-11-07 11:00;METAR CYYG 071100Z 13002KT 15SM OVC025 03/00 A3008 RMK SC8 SLP187
CYYG;2003-11-07 12:00;METAR CYYG 071200Z 08006KT 15SM BKN030 OVC100 04/02 A3008 RMK SC7AC1 SLP188
CYYG;2003-11-07 13:00;METAR CYYG 071300Z 08009G15KT 15SM BKN035 OVC100 04/01 A3007 RMK SC7AC1 SLP185
CYYG;2003-11-07 14:00;METAR CYYG 071400Z 09009KT 15SM BKN018 OVC033 05/01 A3005 RMK SC6SC2 SLP179
CYYG;2003-11-07 15:00;METAR CYYG 071500Z 08006KT 15SM BKN018 OVC033 05/01 A3005 RMK SC6SC2 SLP177
CYYG;2003-11-07 16:00;METAR CYYG 071600Z 09006KT 15SM BKN017 OVC031 05/01 A3001 RMK SC7SC1 SLP166
CYYG;2003-11-07 17:00;METAR CYYG 071700Z 04003KT 15SM BKN017 OVC022 06/01 A3000 RMK SC7SC1 SLP160
CYYG;2003-11-07 18:00;METAR CYYG 071800Z 02002KT 15SM OVC018 05/01 A2998 RMK SC8 SLP156
CYYG;2003-11-07 19:00;METAR CYYG 071900Z 35004KT 4SM -SHRA BR OVC015 05/02 A2998 RMK SC8 SLP155
CYYG;2003-11-07 20:00;METAR CYYG 072000Z 02002KT 10SM -SHRA FEW012 BKN018 OVC038 04/03 A2997 RMK SC1SC6SC2 SLP152
CYYG;2003-11-07 21:00;METAR CYYG 072100Z 36002KT 10SM -SHRA FEW012 OVC022 04/03 A2997 RMK SC1SC8 SLP151
CYYG;2003-11-07 22:00;METAR CYYG 072200Z 00000KT 10SM -SHRA FEW018 OVC030 04/03 A2997 RMK SC2SC6 SLP150
CYYG;2003-11-07 23:00;METAR CYYG 072300Z 00000KT 15SM OVC016 04/03 A2996 RMK SC8 SLP148
CYYG;2003-11-08 00:00;METAR CYYG 080000Z 16002KT 15SM OVC013 04/03 A2995 RMK SC8 SLP142
CYYG;2003-11-08 01:00;METAR CYYG 080100Z 00000KT 15SM BKN011 OVC100 04/03 A2994 RMK SC5AC2 SLP139
CYYG;2003-11-08 02:00;METAR CYYG 080200Z 00000KT 15SM BKN030 OVC100 04/03 A2993 RMK SC5AC2 SLP138
CYYG;2003-11-08 03:00;METAR CYYG 080300Z 25005KT 15SM FEW030 OVC240 04/02 A2992 RMK SC2CI4 SLP134
CYYG;2003-11-08 04:00;METAR CYYG 080400Z 27006KT 15SM OVC240 03/02 A2991 RMK CS6 SLP130
CYYG;2003-11-08 05:00;METAR CYYG 080500Z 27005KT 15SM OVC240 02/01 A2988 RMK CS6 SLP121
CYYG;2003-11-08 06:00;METAR CYYG 080600Z 23005KT 15SM BKN240 03/01 A2985 RMK CS5 SLP110
CYYG;2003-11-08 07:00;METAR CYYG 080700Z 23006KT 15SM OVC240 02/01 A2984 RMK CS5 SLP106
CYYG;2003-11-08 08:00;METAR CYYG 080800Z 20005KT 15SM OVC240 02/01 A2981 RMK CS6 SLP097
CYYG;2003-11-08 09:00;METAR CYYG 080900Z 23005KT 15SM SCT064 OVC240 04/02 A2980 RMK SC3CS3 SLP092
CYYG;2003-11-08 10:00;METAR CYYG 081000Z 26010KT 15SM BKN062 OVC240 05/01 A2979 RMK SC5CS3 SLP089
CYYG;2003-11-08 11:00;METAR CYYG 081100Z 28011KT 15SM FEW035 OVC072 04/M00 A2979 RMK CU2AC6
CYYG;2003-11-08 12:00;METAR CYYG 081200Z 30010G16KT 15SM BKN026 OVC070 03/M01 A2982 RMK CU6AC2 SLP098
CYYG;2003-11-08 13:00;METAR CYYG 081300Z 29013G24KT 2 1/2SM -SHSN SCT012 OVC030 M00/M03 A2985 RMK CU3SC5 SLP109
CYYG;2003-11-08 14:00;METAR CYYG 081400Z 29018G29KT 15SM BKN026 BKN040 BKN070 00/M07 A2985 RMK SC5SC2AC1 CU ASOCTD SLP108
CYYG;2003-11-08 15:00;METAR CYYG 081500Z 27023G33KT 15SM VCSH FEW040 SCT062 M01/M14 A2984 RMK SC2SC1 SLP108
CYYG;2003-11-08 16:00;METAR CYYG 081600Z 28021G29KT 15SM FEW035 M01/M14 A2984 RMK SC2 SLP107
CYYG;2003-11-08 17:00;METAR CYYG 081700Z 28021G30KT 15SM FEW035 M01/M13 A2983 RMK SC2 SLP104
CYYG;2003-11-08 18:00;METAR CYYG 081800Z 29024G32KT 15SM SCT050 M01/M13 A2984 RMK SC4 SLP107
CYYG;2003-11-08 19:00;METAR CYYG 081900Z 29020G32KT 15SM BKN052 M02/M13 A2985 RMK SC6 SLP110
CYYG;2003-11-08 20:00;METAR CYYG 082000Z 30016G28KT 15SM BKN054 M02/M13 A2987 RMK SC6 SLP117
CYYG;2003-11-08 21:00;METAR CYYG 082100Z 29021G31KT 15SM BKN048 M03/M13 A2989 RMK SC6 SLP124
CYYG;2003-11-08 22:00;METAR CYYG 082200Z 29016G29KT 15SM BKN043 M03/M11 A2991 RMK SC6 SLP130
CYYG;2003-11-08 23:00;METAR CYYG 082300Z 29017G29KT 15SM SCT045 M03/M11 A2993 RMK SC3 SLP137
CYYG;2003-11-09 00:00;METAR CYYG 090000Z 30021G32KT 15SM SCT045 M03/M12 A2994 RMK SC3 SLP141
CYYG;2003-11-09 01:00;METAR CYYG 090100Z 29027G32KT 15SM SCT047 M03/M13 A2996 RMK SC4 SLP148
CYYG;2003-11-09 02:00;METAR CYYG 090200Z 29019G31KT 15SM BKN052 M04/M13 A2998 RMK SC6 SLP154
CYYG;2003-11-09 03:00;METAR CYYG 090300Z 30020G32KT 15SM OVC050 M04/M12 A2998 RMK SC8 SLP156
CYYG;2003-11-09 04:00;METAR CYYG 090400Z 29020G30KT 15SM -SHSN OVC057 M04/M12 A3000 RMK SC8 SLP162
CYYG;2003-11-09 05:00;METAR CYYG 090500Z 29023G29KT 15SM -SHSN OVC052 M04/M12 A3001 RMK SC8 SLP164
CYYG;2003-11-09 06:00;METAR CYYG 090600Z 29020G31KT 15SM -SHSN OVC047 M04/M11 A3001 RMK SC8 SLP166
CYYG;2003-11-09 07:00;METAR CYYG 090700Z 29021G31KT 15SM -SHSN OVC053 M04/M11 A3003 RMK SC8 SLP171
CYYG;2003-11-09 08:00;METAR CYYG 090800Z 29025G36KT 10SM -SHSN OVC055 M04/M10 A3005 RMK SC8 SLP177
CYYG;2003-11-09 09:00;METAR CYYG 090900Z 29024G31KT 10SM -SHSN OVC054 M03/M10 A3007 RMK SC8 SLP185
CYYG;2003-11-09 10:00;METAR CYYG 091000Z 30027G36KT 15SM -SHSN OVC049 M03/M10 A3009 RMK SC8 SLP192
CYYG;2003-11-09 11:00;METAR CYYG 091100Z 29026G32KT 8SM -SHSN BKN050 M04/M10 A3012 RMK SC6 SLP203
CYYG;2003-11-09 12:00;METAR CYYG 091200Z 29017G30KT 10SM -SHSN DRSN FEW028 BKN049 M04/M10 A3015 RMK SC2SC5 SLP214
CYYG;2003-11-09 13:00;METAR CYYG 091300Z 30017G29KT 15SM -SHSN FEW039 SCT050 M03/M09 A3018 RMK CU1SC3 SLP222
CYYG;2003-11-09 14:00;METAR CYYG 091400Z 29023G30KT 15SM -SHSN FEW030 FEW050 M02/M10 A3019 RMK CU1SC1 SLP227
CYYG;2003-11-09 15:00;METAR CYYG 091500Z 29020G29KT 15SM -SHSN BKN026 M02/M10 A3021 RMK SC6 SLP232
CYYG;2003-11-09 16:00;METAR CYYG 091600Z 31020G28KT 15SM -SHSN BKN035 M01/M10 A3021 RMK SC6 SLP234
CYYG;2003-11-09 17:00;METAR CYYG 091700Z 31021G30KT 15SM -SHSN BKN038 M01/M09 A3020 RMK SC6 SLP231
CYYG;2003-11-09 18:00;METAR CYYG 091800Z 31022G27KT 15SM -SHSN BKN036 M01/M10 A3021 RMK SC6 SLP233
CYYG;2003-11-09 19:00;METAR CYYG 091900Z 30017G26KT 15SM -SHSN SCT041 M00/M10 A3021 RMK SC4
CYYG;2003-11-09 20:00;METAR CYYG 092000Z 32016G26KT 15SM FEW035 00/M10 A3023 RMK SC2 SLP239
CYYG;2003-11-09 21:00;METAR CYYG 092100Z 30012G21KT 15SM FEW047 M01/M10 A3025 RMK SC2 SLP245
CYYG;2003-11-09 22:00;METAR CYYG 092200Z 29012KT 15SM FEW048 M01/M11 A3025 RMK SC2 SLP248
CYYG;2003-11-09 23:00;METAR CYYG 092300Z 29012G17KT 15SM FEW048 M01/M11 A3027 RMK SC2 SLP252
CYYG;2003-11-10 00:00;METAR CYYG 100000Z 29008KT 15SM FEW048 M02/M12 A3028 RMK SC1 SLP257
CYYG;2003-11-10 01:00;METAR CYYG 100100Z 29009KT 15SM FEW048 M02/M12 A3029 RMK SC1 SLP259
CYYG;2003-11-10 02:00;METAR CYYG 100200Z 29009KT 15SM FEW048 M03/M12 A3029 RMK SC1 SLP259
CYYG;2003-11-10 03:00;METAR CYYG 100300Z 28007KT 15SM SKC M03/M11 A3029 RMK SLP260
CYYG;2003-11-10 04:00;METAR CYYG 100400Z 28011KT 15SM SKC M03/M11 A3029 RMK SLP260
CYYG;2003-11-10 05:00;METAR CYYG 100500Z 28011KT 15SM SKC M04/M11 A3029 RMK SLP259
CYYG;2003-11-10 07:00;METAR CYYG 100700Z 28011G16KT 15SM FEW040 M04/M11 A3029 RMK SC2 SLP260
CYYG;2003-11-10 08:00;METAR CYYG 100800Z 27007KT 15SM FEW040 M05/M11 A3029 RMK SC2 SLP260
CYYG;2003-11-10 09:00;METAR CYYG 100900Z 27005KT 15SM FEW040 M05/M11 A3029 RMK SC2 SLP261
CYYG;2003-11-10 10:00;METAR CYYG 101000Z 26005KT 15SM FEW040 SCT088 M05/M10 A3029 RMK SC2AC2 SLP260
CYYG;2003-11-10 11:00;METAR CYYG 101100Z 26006KT 15SM FEW033 SCT088 M05/M09 A3029 RMK SC1AC3 SLP261
CYYG;2003-11-10 12:00;METAR CYYG 101200Z 25006KT 15SM FEW030 FEW088 M04/M08 A3030 RMK SC1AC1 SLP263
CYYG;2003-11-10 13:00;METAR CYYG 101300Z 27013KT 15SM FEW030 FEW088 M02/M07 A3028 RMK SC1AC1 SLP257
CYYG;2003-11-10 14:00;METAR CYYG 101400Z 28009G15KT 15SM FEW025 FEW088 M00/M07 A3028 RMK SC1AC1 SLP255
CYYG;2003-11-10 15:00;METAR CYYG 101500Z 27011G17KT 15SM FEW025 00/M07 A3027 RMK SC1 SLP252
CYYG;2003-11-10 16:00;METAR CYYG 101600Z 28012G17KT 15SM FEW030 FEW090 FEW300 01/M06 A3024 RMK CU1AC1CI1 SLP243
CYYG;2003-11-10 17:00;METAR CYYG 101700Z 26013G18KT 15SM FEW030 SCT051 02/M07 A3022 RMK CU1SC3 SLP236
CYYG;2003-11-10 18:00;METAR CYYG 101800Z 27014G19KT 15SM FEW025 BKN038 01/M06 A3020 RMK CU2SC6 SLP231
CYYG;2003-11-10 19:00;METAR CYYG 101900Z 27008KT 15SM VCSH BKN028 01/M05 A3020 RMK SC7 SLP231
CYYG;2003-11-10 20:00;METAR CYYG 102000Z 29009G15KT 15SM SCT028 BKN300 01/M05 A3020 RMK SC4CI1
CYYG;2003-11-10 21:00;METAR CYYG 102100Z 30005KT 15SM FEW028 FEW100 00/M06 A3023 RMK SC2AC1 SLP238
CYYG;2003-11-10 22:00;METAR CYYG 102200Z 27005KT 15SM BKN043 00/M06 A3023 RMK SC7 SLP239
CYYG;2003-11-10 23:00;METAR CYYG 102300Z 27006KT 15SM BKN042 01/M05 A3023 RMK SC7 SLP240
CYYG;2003-11-11 00:00;METAR CYYG 110000Z 27006KT 15SM BKN044 01/M05 A3023 RMK SC7 SLP240
CYYG;2003-11-11 01:00;METAR CYYG 110100Z 26006KT 15SM BKN045 01/M05 A3023 RMK SC7 SLP239
CYYG;2003-11-11 02:00;METAR CYYG 110200Z 27006KT 15SM OVC046 01/M06 A3023 RMK SC8 SLP241
CYYG;2003-11-11 03:00;METAR CYYG 110300Z 27006KT 15SM BKN049 02/M07 A3023 RMK SC7 SLP240
CYYG;2003-11-11 04:00;METAR CYYG 110400Z 27006KT 15SM BKN050 M00/M05 A3024 RMK SC5 SLP242
CYYG;2003-11-11 05:00;METAR CYYG 110500Z 25006KT 15SM SCT050 M00/M04 A3024 RMK SC4 SLP241
CYYG;2003-11-11 06:00;METAR CYYG 110600Z 26008KT 15SM SCT050 00/M04 A3023 RMK SC3 SLP241
CYYG;2003-11-11 08:00;METAR CYYG 110800Z 28006KT 15SM BKN060 00/M03 A3023 RMK SC6 SLP239
CYYG;2003-11-11 09:00;METAR CYYG 110900Z 28008KT 15SM BKN062 00/M03 A3023 RMK SC6 SLP240
CYYG;2003-11-11 10:00;METAR CYYG 111000Z 26007KT 15SM BKN059 00/M03 A3024 RMK SC7 SLP242
CYYG;2003-11-11 11:00;METAR CYYG 111100Z 27007KT 15SM FEW040 BKN060 00/M03 A3025 RMK SC1SC5 SLP247
CYYG;2003-11-11 12:00;METAR CYYG 111200Z 26006KT 15SM FEW040 SCT060 M00/M03 A3027 RMK CU1SC3 SLP252
CYYG;2003-11-11 13:00;METAR CYYG 111300Z 28008KT 15SM FEW040 FEW060 02/M02 A3027 RMK CU1SC2 SLP254
CYYG;2003-11-11 14:00;METAR CYYG 111400Z 29008KT 15SM FEW040 FEW060 03/M03 A3027 RMK CU1SC2
CYYG;2003-11-11 16:00;METAR CYYG 111600Z 31009KT 15SM FEW030 SCT056 04/M06 A3025 RMK CU2SC2 SLP246
CYYG;2003-11-11 17:00;METAR CYYG 111700Z 32006KT 15SM FEW030 BKN046 04/M06 A3025 RMK CU1SC5 SLP245
CYYG;2003-11-11 18:00;METAR CYYG 111800Z 29005KT 15SM FEW030 BKN049 04/M05 A3024 RMK CU1SC6 SLP243
CYYG;2003-11-11 19:00;METAR CYYG 111900Z 28007KT 15SM BKN045 BKN250 04/M05 A3025 RMK SC6CI0 SLP244
CYYG;2003-11-11 20:00;METAR CYYG 112000Z 28003KT 15SM SCT039 BKN250 03/M04 A3025 RMK SC3CI0
CYYG;2003-11-11 21:00;METAR CYYG 112100Z 30003KT 15SM FEW040 BKN250 01/M04 A3023 RMK SC2CI1 SLP239
CYYG;2003-11-11 22:00;METAR CYYG 112200Z 00000KT 15SM FEW040 SCT250 M01/M05 A3022 RMK SC1CI1 SLP236
CYYG;2003-11-11 23:00;METAR CYYG 112300Z 13002KT 15SM FEW250 M00/M05 A3022 RMK CI1 SLP235
CYYG;2003-11-12 00:00;METAR CYYG 120000Z 14004KT 15SM FEW250 M01/M05 A3020 RMK CI2 SLP228
CYYG;2003-11-12 01:00;METAR CYYG 120100Z 13004KT 15SM BKN250 M02/M04 A3017 RMK CI5 SLP218
CYYG;2003-11-12 02:00;METAR CYYG 120200Z 14004KT 15SM BKN180 M00/M05 A3016 RMK CI6 SLP215
CYYG;2003-11-12 03:00;METAR CYYG 120300Z 13004KT 15SM BKN170 M00/M04 A3014 RMK AC7 SLP210
CYYG;2003-11-12 04:00;METAR CYYG 120400Z 15006KT 15SM BKN160 01/M03 A3012 RMK AC7 SLP201
CYYG;2003-11-12 05:00;METAR CYYG 120500Z 17010KT 15SM OVC150 03/M03 A3009 RMK AC8 SLP192
CYYG;2003-11-12 06:00;METAR CYYG 120600Z 17009KT 15SM SCT050 OVC070 04/M02 A3006 RMK SC3AC5 SLP183
CYYG;2003-11-12 07:00;METAR CYYG 120700Z 18011G16KT 10SM -RA OVC019 03/01 A3003 RMK SC8 SLP172
CYYG;2003-11-12 08:00;METAR CYYG 120800Z 18011G17KT 10SM -RA OVC018 03/01 A2999 RMK SC8 SLP159
CYYG;2003-11-12 09:00;METAR CYYG 120900Z 17011G17KT 10SM -RA OVC015 03/02 A2996 RMK SC8 SLP149
CYYG;2003-11-12 10:00;METAR CYYG 121000Z 16010KT 12SM -RA SCT015 OVC034 03/02 A2993 RMK SC4SC4 SLP137
CYYG;2003-11-12 11:00;METAR CYYG 121100Z 17013KT 12SM -RA SCT018 OVC039 04/02 A2989 RMK SC4SC4 SLP125
CYYG;2003-11-12 12:00;METAR CYYG 121200Z 16009KT 8SM -SHRA BKN015 OVC030 04/03 A2988 RMK SC6SC2 SLP120
CYYG;2003-11-12 13:00;METAR CYYG 121300Z 17011KT 10SM -SHRA BKN012 OVC040 04/03 A2987 RMK SC6SC2 SLP116
CYYG;2003-11-12 14:00;METAR CYYG 121400Z 17008KT 5SM -RA BR FEW006 BKN009 OVC015 05/04 A2984 RMK SF2SC6SC1 VIS LWR N-NE SLP108
CYYG;2003-11-12 15:00;METAR CYYG 121500Z 19013KT 12SM -SHRA FEW007 OVC012 06/05 A2982 RMK SF2SC6 SLP099
CYYG;2003-11-12 16:00;METAR CYYG 121600Z 20010KT 15SM -SHRA FEW007 OVC012 06/05 A2979 RMK SF1SC8 SLP090
CYYG;2003-11-12 17:00;METAR CYYG 121700Z 21007KT 15SM -SHRA FEW007 OVC017 07/05 A2977 RMK SF1SC7 SLP083
CYYG;2003-11-12 18:00;METAR CYYG 121800Z 22005KT 15SM -SHRA BKN014 OVC040 07/05 A2976 RMK SC7SC1 SLP079
CYYG;2003-11-12 19:00;METAR CYYG 121900Z 23004KT 15SM -SHRA BKN011 OVC070 07/06 A2975 RMK SC7AC0 SLP077
CYYG;2003-11-12 20:00;METAR CYYG 122000Z 28005KT 15SM -SHRA BKN008 OVC030 07/06 A2975 RMK SF5SC3 SLP076
CYYG;2003-11-12 21:00;METAR CYYG 122100Z 29006KT 15SM SCT030 BKN060 06/04 A2976 RMK SC3SC2 SLP078
CYYG;2003-11-12 22:00;METAR CYYG 122200Z 27005KT 15SM FEW030 SCT043 05/03 A2977 RMK SC2SC2 SLP084
CYYG;2003-11-12 23:00;METAR CYYG 122300Z 27004KT 15SM OVC025 04/03 A2978 RMK SC8 SLP085
CYYG;2003-11-13 00:00;METAR CYYG 130000Z 26005KT 15SM FEW025 04/02 A2979 RMK SC2 SLP090
CYYG;2003-11-13 01:00;METAR CYYG 130100Z 27006KT 15SM SCT030 04/02 A2978 RMK SC3 SLP087
CYYG;2003-11-13 02:00;METAR CYYG 130200Z 27004KT 15SM BKN018 BKN045 04/02 A2977 RMK SC5SC2 SLP084
CYYG;2003-11-13 03:00;METAR CYYG 130300Z 22005KT 15SM FEW018 OVC042 04/03 A2977 RMK SC2SC6 SLP081
CYYG;2003-11-13 04:00;METAR CYYG 130400Z 25005KT 15SM OVC045 05/03 A2976 RMK SC8 SLP078
CYYG;2003-11-13 05:00;METAR CYYG 130500Z 25005KT 15SM FEW045 BKN250 04/02 A2976 RMK SC1CI2 SLP078
CYYG;2003-11-13 06:00;METAR CYYG 130600Z 26005KT 15SM BKN250 04/03 A2975 RMK CI2 SLP077
CYYG;2003-11-13 07:00;METAR CYYG 130700Z 25006KT 12SM MIFG SCT250 03/02 A2975 RMK CI1 SLP077
CYYG;2003-11-13 08:00;METAR CYYG 130800Z 25005KT 12SM MIFG SCT250 02/02 A2975 RMK CI1 SLP075
CYYG;2003-11-13 09:00;METAR CYYG 130900Z 00000KT 10SM PRFG SCT250 01/00 A2973 RMK CI1 SLP070
CYYG;2003-11-13 10:00;METAR CYYG 131000Z 08002KT 1/4SM FZFG SKC M02/M02 A2970 RMK FG6 F 100FT THK FROIN RVR RWY03 1400 FT SLP059
CYYG;2003-11-13 11:00;METAR CYYG 131100Z 09002KT 1/8SM FZFG SKC M01/M02 A2970 RMK FG4 FROIN RVR RWY03 1100 FT SLP058
CYYG;2003-11-13 12:00;METAR CYYG 131200Z 12003KT 1/8SM FZFG BKN230 M00/M01 A2967 RMK FG2CI2 FROIN RVR RWY03 1100 FT SLP048
CYYG;2003-11-13 13:00;METAR CYYG 131300Z 11007KT 10SM FEW012 BKN230 02/02 A2963 RMK SC2CI3 SLP034
CYYG;2003-11-13 14:00;METAR CYYG 131400Z 11006KT 10SM FEW005 SCT040 OVC230 04/03 A2959 RMK SF1SC2CI3 SLP023
CYYG;2003-11-13 15:00;METAR CYYG 131500Z 14010KT 15SM FEW005 FEW040 OVC260 06/05 A2955 RMK SF1SC2CC6 SLP009
CYYG;2003-11-13 16:00;METAR CYYG 131600Z 13011G16KT 15SM FEW080 OVC200 06/03 A2947 RMK AC2CI6 PRESFR SLP982
CYYG;2003-11-13 17:00;METAR CYYG 131700Z 12018KT 15SM -SHRA BKN015 OVC043 06/04 A2937 RMK SC6SC2 PRESFR SLP947
CYYG;2003-11-13 18:00;METAR CYYG 131800Z 13015KT 6SM -RA BR BKN012 OVC015 06/04 A2929 RMK SC6SC2 PRESFR SLP920
CYYG;2003-11-13 19:00;METAR CYYG 131900Z 13018G28KT 15SM FEW012 BKN017 OVC037 06/04 A2920 RMK SF2SC4SC2 PRESFR SLP888
CYYG;2003-11-13 20:00;METAR CYYG 132000Z 13022G27KT 15SM -RA FEW011 OVC014 07/05 A2911 RMK SF2SC6 PRESFR SLP860
CYYG;2003-11-13 21:00;METAR CYYG 132100Z 13018G25KT 15SM OVC010 08/06 A2904 RMK SC8 PRESFR SLP836
CYYG;2003-11-13 22:00;METAR CYYG 132200Z 13021G29KT 8SM RA OVC008 08/07 A2896 RMK SF8 PRESFR SLP810
CYYG;2003-11-13 23:00;METAR CYYG 132300Z 17018G26KT 8SM SHRA BKN008 OVC020 09/08 A2894 RMK SF7NS1 RERA SLP801
CYYG;2003-11-14 00:00;METAR CYYG 140000Z 23004KT 5SM -TSRA BR FEW006 OVC045 08/07 A2894 RMK SF2NS6 CB ASOCTD DIST NE RERA SLP800
CYYG;2003-11-14 01:00;METAR CYYG 140100Z 24007G15KT 15SM -SHRA FEW045 OVC070 08/06 A2892 RMK SC2AC6 RETS SLP795
CYYG;2003-11-14 02:00;METAR CYYG 140200Z 23008KT 15SM BKN025 OVC085 07/05 A2893 RMK SC6AC2 SLP796
CYYG;2003-11-14 03:00;METAR CYYG 140300Z 22007KT 15SM FEW025 SCT085 06/05 A2891 RMK SC1AC2 SLP791
CYYG;2003-11-14 04:00;METAR CYYG 140400Z 22014G21KT 15SM FEW060 BKN085 06/03 A2890 RMK SC2AC5 SLP787
CYYG;2003-11-14 05:00;METAR CYYG 140500Z 21009KT 15SM FEW060 FEW085 05/02 A2890 RMK SC1AC2
CYYG;2003-11-14 06:00;METAR CYYG 140600Z 21014KT 15SM BKN043 06/02 A2888 RMK SC7 SLP782
CYYG;2003-11-14 07:00;METAR CYYG 140700Z 20014G22KT 15SM BKN045 05/02 A2888 RMK SC6 SLP779
CYYG;2003-11-14 08:00;METAR CYYG 140800Z 20015G21KT 15SM FEW020 BKN045 05/02 A2886 RMK SC1SC6 SLP775
CYYG;2003-11-14 09:00;METAR CYYG 140900Z 20014KT 15SM FEW020 BKN033 OVC110 05/02 A2885 RMK SC1SC6AC2 SLP769
CYYG;2003-11-14 10:00;METAR CYYG 141000Z 20014G22KT 15SM SCT022 OVC030 05/02 A2883 RMK SC3SC5 SLP765
CYYG;2003-11-14 11:00;METAR CYYG 141100Z 21011G24KT 15SM VCSH BKN021 BKN040 04/01 A2883 RMK CU5SC2 SLP764
CYYG;2003-11-14 12:00;METAR CYYG 141200Z 21011G22KT 15SM -SHRA BKN016 04/02 A2883 RMK SC7 SLP765
CYYG;2003-11-14 13:00;METAR CYYG 141300Z 23011G17KT 15SM BKN016 BKN040 BKN110 04/02 A2884 RMK SC6SC1AC1 SLP766
CYYG;2003-11-14 14:00;METAR CYYG 141400Z 22018KT 15SM VCSH BKN017 05/02 A2884 RMK SC7 SLP766
CYYG;2003-11-14 15:00;METAR CYYG 141500Z 23011G16KT 15SM VCSH BKN022 04/01 A2884 RMK SC7 SLP767
CYYG;2003-11-14 16:00;METAR CYYG 141600Z 23011G18KT 15SM -SHRA BKN021 BKN043 03/01 A2885 RMK SC6SC2 SLP770
CYYG;2003-11-14 17:00;METAR CYYG 141700Z 25020G30KT 15SM -SHRA BKN015 BKN030 03/01 A2884 RMK SC6SC1 SLP768
CYYG;2003-11-14 18:00;METAR CYYG 141800Z 25016G24KT 15SM VCSH BKN021 BKN039 04/M01 A2886 RMK SC5SC2 SLP773
CYYG;2003-11-14 19:00;METAR CYYG 141900Z 25020G27KT 15SM VCSH BKN026 BKN035 03/M03 A2888 RMK SC5SC2 SLP781
CYYG;2003-11-14 20:00;METAR CYYG 142000Z 25018G25KT 15SM VCSH BKN030 BKN110 01/M04 A2891 RMK SC6AC1 SLP790
CYYG;2003-11-14 21:00;METAR CYYG 142100Z 25018G26KT 15SM BKN028 01/M05 A2893 RMK SC7 SLP799
CYYG;2003-11-14 22:00;METAR CYYG 142200Z 25020G28KT 15SM BKN033 01/M06 A2896 RMK SC7 SLP807
CYYG;2003-11-14 23:00;METAR CYYG 142300Z 26015G25KT 15SM -SHSN BKN033 00/M06 A2896 RMK SC6 SLP810
CYYG;2003-11-15 00:00;METAR CYYG 150000Z 25017G24KT 15SM -SHSN DRSN BKN028 M00/M06 A2897 RMK SC7 SLP812
CYYG;2003-11-15 01:00;METAR CYYG 150100Z 25012G22KT 15SM -SHSN DRSN OVC026 M00/M06 A2898 RMK SC8 SLP817
CYYG;2003-11-15 02:00;METAR CYYG 150200Z 25017G26KT 15SM -SHSN DRSN OVC025 M01/M05 A2900 RMK SC8 SLP822
CYYG;2003-11-15 03:00;METAR CYYG 150300Z 25017G24KT 10SM -SHSN DRSN SCT016 OVC029 M01/M05 A2901 RMK SC3SC5 SLP824
CYYG;2003-11-15 04:00;METAR CYYG 150400Z 25012G21KT 15SM -SHSN DRSN OVC028 M01/M05 A2901 RMK SC8 SLP826
CYYG;2003-11-15 05:00;METAR CYYG 150500Z 25015KT 15SM -SHSN DRSN BKN024 OVC035 M01/M05 A2902 RMK SC6SC2 SLP829
CYYG;2003-11-15 06:00;METAR CYYG 150600Z 26015G20KT 15SM -SHSN DRSN BKN025 OVC048 M01/M06 A2904 RMK SC6SC2 SLP834
CYYG;2003-11-15 07:00;METAR CYYG 150700Z 26014G20KT 15SM -SHSN DRSN OVC024 M01/M06 A2905 RMK SC8 SLP839
CYYG;2003-11-15 08:00;METAR CYYG 150800Z 26012G19KT 15SM -SHSN DRSN OVC023 M01/M06 A2906 RMK SC8 SLP842
CYYG;2003-11-15 09:00;METAR CYYG 150900Z 27013G20KT 15SM -SHSN DRSN FEW018 OVC025 M01/M05 A2906 RMK SC2SC6 SLP844
CYYG;2003-11-15 10:00;METAR CYYG 151000Z 26015G20KT 10SM -SHSN DRSN SCT015 OVC050 M01/M04 A2909 RMK SC3SC5 SLP852
CYYG;2003-11-15 11:00;METAR CYYG 151100Z 26013G19KT 15SM -SHSN DRSN SCT015 OVC032 M01/M04 A2911 RMK SC3SC5 SLP860
CYYG;2003-11-15 12:00;METAR CYYG 151200Z 27013G21KT 15SM OVC030 00/M04 A2914 RMK SC8 SLP870
CYYG;2003-11-15 13:00;METAR CYYG 151300Z 26012G19KT 10SM -SHSN OVC031 M00/M04 A2917 RMK SC8 SLP879
CYYG;2003-11-15 14:00;METAR CYYG 151400Z 27014G19KT 15SM OVC033 00/M04 A2919 RMK SC8 SLP885
CYYG;2003-11-15 15:00;METAR CYYG 151500Z 29018G29KT 12SM -SHSN BKN034 BKN250 01/M04 A2921 RMK SC6CI1 SLP892
CYYG;2003-11-15 16:00;METAR CYYG 151600Z 27012G22KT 15SM -SHSN BKN034 BKN250 01/M03 A2922 RMK SC6CI1 SLP897
CYYG;2003-11-15 17:00;METAR CYYG 151700Z 29018G26KT 15SM FEW025 BKN041 OVC250 02/M04 A2924 RMK SC2SC6CI1 SLP904
CYYG;2003-11-15 18:00;METAR CYYG 151800Z 27021G29KT 15SM FEW025 BKN040 02/M04 A2928 RMK SC1SC6 SLP917
CYYG;2003-11-15 19:00;METAR CYYG 151900Z 27016G22KT 15SM BKN036 02/M04 A2931 RMK SC7 SLP927
CYYG;2003-11-15 20:00;METAR CYYG 152000Z 29019G27KT 15SM OVC034 02/M04 A2934 RMK SC8 SLP939
CYYG;2003-11-15 21:00;METAR CYYG 152100Z 28015G22KT 15SM OVC035 02/M04 A2938 RMK SC8 SLP951
CYYG;2003-11-15 22:00;METAR CYYG 152200Z 29016G26KT 15SM OVC035 02/M04 A2940 RMK SC8 SLP959
CYYG;2003-11-15 23:00;METAR CYYG 152300Z 29016G22KT 15SM OVC035 02/M04 A2943 RMK SC8 SLP968
CYYG;2003-11-16 00:00;METAR CYYG 160000Z 29018G26KT 15SM OVC033 02/M04 A2946 RMK SC8 SLP977
CYYG;2003-11-16 01:00;METAR CYYG 160100Z 28016G22KT 15SM OVC033 02/M04 A2950 RMK SC8 SLP990
CYYG;2003-11-16 02:00;METAR CYYG 160200Z 29015G22KT 15SM OVC030 02/M04 A2953 RMK SC8 SLP001
CYYG;2003-11-16 03:00;METAR CYYG 160300Z 28012G18KT 15SM OVC033 01/M04 A2954 RMK SC8 SLP006
CYYG;2003-11-16 04:00;METAR CYYG 160400Z 28014G21KT 15SM OVC032 01/M04 A2958 RMK SC8 SLP017
CYYG;2003-11-16 05:00;METAR CYYG 160500Z 28012G21KT 15SM OVC032 01/M04 A2960 RMK SC8 SLP025
CYYG;2003-11-16 06:00;METAR CYYG 160600Z 29012G24KT 15SM OVC033 01/M04 A2962 RMK SC8 SLP033
CYYG;2003-11-16 07:00;METAR CYYG 160700Z 29012G20KT 15SM OVC031 01/M05 A2964 RMK SC8 SLP039
CYYG;2003-11-16 08:00;METAR CYYG 160800Z 29014G27KT 15SM OVC031 01/M05 A2967 RMK SC8 SLP048
CYYG;2003-11-16 09:00;METAR CYYG 160900Z 29013G20KT 15SM OVC031 01/M05 A2970 RMK SC8 SLP058
CYYG;2003-11-16 10:00;METAR CYYG 161000Z 30017G24KT 15SM OVC028 01/M05 A2974 RMK SC8 SLP071
CYYG;2003-11-16 11:00;METAR CYYG 161100Z 29010G18KT 15SM OVC027 01/M04 A2977 RMK SC8 SLP084
CYYG;2003-11-16 12:00;METAR CYYG 161200Z 29016KT 15SM BKN026 01/M04 A2982 RMK SC7 SLP099
CYYG;2003-11-16 13:00;METAR CYYG 161300Z 29013G18KT 15SM BKN024 01/M04 A2986 RMK SC7 SLP114
CYYG;2003-11-16 14:00;METAR CYYG 161400Z 29013G19KT 15SM BKN025 01/M04 A2990 RMK SC7 SLP126
CYYG;2003-11-16 15:00;METAR CYYG 161500Z 30012G19KT 15SM BKN025 02/M04 A2992 RMK SC7 SLP134
CYYG;2003-11-16 16:00;METAR CYYG 161600Z 30014KT 15SM BKN027 02/M04 A2994 RMK SC7 SLP140
CYYG;2003-11-16 17:00;METAR CYYG 161700Z 31013G19KT 15SM BKN027 03/M03 A2995 RMK SC7 SLP143
CYYG;2003-11-16 18:00;METAR CYYG 161800Z 30011G19KT 15SM BKN027 03/M03 A2997 RMK SC7 SLP151
CYYG;2003-11-16 19:00;METAR CYYG 161900Z 29011KT 15SM BKN029 03/M03 A3000 RMK SC7 SLP161
CYYG;2003-11-16 20:00;METAR CYYG 162000Z 31008G16KT 15SM BKN030 03/M03 A3003 RMK SC7 SLP172
CYYG;2003-11-16 21:00;METAR CYYG 162100Z 31008KT 15SM BKN031 03/M04 A3005 RMK SC6 SLP179
CYYG;2003-11-16 22:00;METAR CYYG 162200Z 30004KT 15SM SCT030 01/M04 A3008 RMK SC4 SLP188
CYYG;2003-11-16 23:00;METAR CYYG 162300Z 25004KT 15SM FEW030 00/M04 A3010 RMK SC2 SLP195
CYYG;2003-11-17 00:00;METAR CYYG 170000Z 27005KT 15SM FEW030 M00/M04 A3011 RMK SC2 SLP197
CYYG;2003-11-17 01:00;METAR CYYG 170100Z 25006KT 15SM SKC M00/M04 A3012 RMK SLP203
CYYG;2003-11-17 02:00;METAR CYYG 170200Z 29007KT 15SM SKC M01/M04 A3014 RMK SLP207
CYYG;2003-11-17 03:00;METAR CYYG 170300Z 27006KT 15SM SKC M01/M04 A3014 RMK SLP210
CYYG;2003-11-17 04:00;METAR CYYG 170400Z 25006KT 15SM SKC M02/M04 A3016 RMK SLP215
CYYG;2003-11-17 05:00;METAR CYYG 170500Z 29007KT 15SM SKC M01/M04 A3017 RMK SLP217
CYYG;2003-11-17 06:00;METAR CYYG 170600Z 28006KT 15SM SKC M02/M04 A3018 RMK SLP221
CYYG;2003-11-17 07:00;METAR CYYG 170700Z 28004KT 15SM SCT015 M01/M04 A3019 RMK SC4 SLP225
CYYG;2003-11-17 09:00;METAR CYYG 170900Z CCA 27006KT 15SM BKN013 M00/M03 A3021 RMK SC5 SLP232
CYYG;2003-11-17 09:00;METAR CYYG 170900Z 27006KT 15SM BKN013 M00/M03 A3021 RMK SC5 SLP232
CYYG;2003-11-17 10:00;METAR CYYG 171000Z 25004KT 15SM BKN013 M01/M03 A3022 RMK SC6 SLP234
CYYG;2003-11-17 11:00;METAR CYYG 171100Z 25004KT 15SM BKN012 M01/M03 A3023 RMK SC7 SLP240
CYYG;2003-11-17 12:00;METAR CYYG 171200Z 25005KT 15SM BKN012 M01/M03 A3025 RMK SC7 SLP248
CYYG;2003-11-17 13:00;METAR CYYG 171300Z 26006KT 15SM BKN012 M01/M03 A3028 RMK SC7 SLP255
CYYG;2003-11-17 14:00;METAR CYYG 171400Z 25005KT 15SM BKN012 M00/M03 A3029 RMK SC7 SLP260
CYYG;2003-11-17 15:00;METAR CYYG 171500Z 31003KT 15SM BKN012 00/M03 A3029 RMK SC7 SLP260
CYYG;2003-11-17 16:00;METAR CYYG 171600Z 29005KT 15SM BKN013 01/M03 A3028 RMK SC7 SLP257
CYYG;2003-11-17 17:00;METAR CYYG 171700Z 32003KT 15SM BKN014 02/M03 A3027 RMK SC7 SLP252
CYYG;2003-11-17 18:00;METAR CYYG 171800Z 29003KT 15SM BKN016 02/M03 A3026 RMK SC6 SLP250
CYYG;2003-11-17 19:00;METAR CYYG 171900Z 26002KT 15SM FEW016 02/M03 A3026 RMK SC2 SLP250
CYYG;2003-11-17 20:00;METAR CYYG 172000Z 25002KT 15SM FEW017 02/M03 A3026 RMK SC1 SLP251
CYYG;2003-11-17 21:00;METAR CYYG 172100Z 26003KT 15SM FEW250 01/M03 A3028 RMK CI1 SLP256
CYYG;2003-11-17 22:00;METAR CYYG 172200Z 30002KT 15SM FEW250 M02/M03 A3029 RMK CI1 SLP259
CYYG;2003-11-17 23:00;METAR CYYG 172300Z 24003KT 15SM SKC M01/M04 A3029 RMK SLP261
CYYG;2003-11-18 00:00;METAR CYYG 180000Z 24003KT 15SM SKC M01/M03 A3030 RMK SLP263
CYYG;2003-11-18 01:00;METAR CYYG 180100Z 24004KT 15SM SKC M01/M04 A3031 RMK SLP266
CYYG;2003-11-18 02:00;METAR CYYG 180200Z 00000KT 15SM SKC M03/M04 A3031 RMK SLP265
CYYG;2003-11-18 03:00;METAR CYYG 180300Z 17002KT 15SM SKC M02/M04 A3031 RMK SLP265
CYYG;2003-11-18 04:00;METAR CYYG 180400Z 24004KT 15SM SKC M03/M04 A3031 RMK SLP268
CYYG;2003-11-18 05:00;METAR CYYG 180500Z 24004KT 15SM SKC M01/M03 A3032 RMK SLP269
CYYG;2003-11-18 06:00;METAR CYYG 180600Z 23004KT 15SM SKC M01/M03 A3033 RMK SLP272
CYYG;2003-11-18 07:00;METAR CYYG 180700Z 23002KT 15SM SKC M01/M03 A3033 RMK SLP272
CYYG;2003-11-18 08:00;METAR CYYG 180800Z 24002KT 15SM SKC M02/M03 A3033 RMK SLP273
CYYG;2003-11-18 09:00;METAR CYYG 180900Z 27003KT 15SM SKC M02/M03 A3035 RMK SLP279
CYYG;2003-11-18 10:00;METAR CYYG 181000Z 24002KT 15SM SKC M01/M03 A3035 RMK SLP280
CYYG;2003-11-18 11:00;METAR CYYG 181100Z 26004KT 15SM SKC M03/M04 A3038 RMK FROIN SLP290
CYYG;2003-11-18 13:00;METAR CYYG 181300Z 24002KT 15SM SKC 01/M01 A3039 RMK SLP294
CYYG;2003-11-18 14:00;METAR CYYG 181400Z 28002KT 15SM SKC 03/M00 A3039 RMK SLP294
CYYG;2003-11-18 15:00;METAR CYYG 181500Z 32004KT 15SM SKC 04/00 A3040 RMK SLP298
CYYG;2003-11-18 16:00;METAR CYYG 181600Z 27002KT 15SM FEW300 06/M03 A3038 RMK CI0 SLP291
CYYG;2003-11-18 17:00;METAR CYYG 181700Z 30003KT 15SM BKN300 07/M06 A3038 RMK CI1 SLP290
CYYG;2003-11-18 18:00;METAR CYYG 181800Z 32004KT 15SM BKN300 08/M04 A3039 RMK CI2 SLP293
CYYG;2003-11-18 19:00;METAR CYYG 181900Z 05003KT 15SM BKN300 07/M02 A3039 RMK CI2 SLP294
CYYG;2003-11-18 20:00;METAR CYYG 182000Z 10002KT 15SM BKN300 04/M01 A3041 RMK CI3 SLP300
CYYG;2003-11-18 21:00;METAR CYYG 182100Z 12002KT 15SM FEW170 BKN300 02/M01 A3041 RMK AC2CI2 SLP300
CYYG;2003-11-18 22:00;METAR CYYG 182200Z 00000KT 15SM FEW170 OVC300 01/M02 A3041 RMK AC1CI2 SLP301
CYYG;2003-11-18 23:00;METAR CYYG 182300Z 13002KT 15SM FEW170 OVC300 01/M01 A3041 RMK AC1CI2
CYYG;2003-11-19 00:00;METAR CYYG 190000Z 00000KT 15SM FEW170 OVC300 M00/M02 A3042 RMK AC1CI2 SLP304
CYYG;2003-11-19 01:00;METAR CYYG 190100Z 00000KT 15SM FEW170 M02/M03 A3042 RMK AC1 SLP305
CYYG;2003-11-19 02:00;METAR CYYG 190200Z 00000KT 15SM FEW170 M01/M02 A3041 RMK AC1 SLP301
CYYG;2003-11-19 03:00;METAR CYYG 190300Z 13003KT 15SM SKC M01/M01 A3039 RMK SLP295
CYYG;2003-11-19 04:00;METAR CYYG 190400Z 14004KT 15SM SKC M01/M02 A3038 RMK SLP290
CYYG;2003-11-19 05:00;METAR CYYG 190500Z 20004KT 15SM SKC M00/M01 A3036 RMK SLP285
CYYG;2003-11-19 06:00;METAR CYYG 190600Z 16004KT 15SM SKC M01/M02 A3036 RMK SLP282
CYYG;2003-11-19 07:00;METAR CYYG 190700Z 18006KT 15SM SKC M01/M02 A3035 RMK SLP280
CYYG;2003-11-19 08:00;METAR CYYG 190800Z 17005KT 15SM SKC M01/M02 A3036 RMK SLP282
CYYG;2003-11-19 09:00;METAR CYYG 190900Z 18004KT 15SM SKC 01/00 A3035 RMK SLP281
CYYG;2003-11-19 11:00;METAR CYYG 191100Z 19011KT 15SM BKN200 03/M00 A3034 RMK CS4 SLP277
CYYG;2003-11-19 12:00;METAR CYYG 191200Z 18010KT 15SM BKN200 03/00 A3035 RMK CS2 SLP279
CYYG;2003-11-19 13:00;METAR CYYG 191300Z 19010KT 15SM BKN260 04/02 A3033 RMK CS2 SLP275
CYYG;2003-11-19 14:00;METAR CYYG 191400Z 19012G19KT 15SM FEW010 BKN260 05/03 A3031 RMK SF1CS5 SLP266
CYYG;2003-11-19 15:00;METAR CYYG 191500Z 19016KT 15SM FEW008 BKN260 06/03 A3030 RMK SF1CS4 SLP263
CYYG;2003-11-19 16:00;METAR CYYG 191600Z 18016KT 15SM FEW008 SCT190 BKN300 06/03 A3026 RMK SF1AC4CI1 SLP250
CYYG;2003-11-19 17:00;METAR CYYG 191700Z 17017KT 15SM BKN180 BKN300 07/04 A3023 RMK AC5CI1 SLP237
CYYG;2003-11-19 18:00;METAR CYYG 191800Z 17014KT 15SM SCT180 BKN300 08/04 A3019 RMK AC3CI1 SLP225
CYYG;2003-11-19 19:00;METAR CYYG 191900Z 18018KT 15SM FEW180 BKN300 08/03 A3017 RMK AC2CI1 SLP219
CYYG;2003-11-19 20:00;METAR CYYG 192000Z 18014G19KT 15SM BKN180 OVC300 07/04 A3017 RMK AC6CI1 SLP217
CYYG;2003-11-19 21:00;METAR CYYG 192100Z 18016KT 15SM BKN200 OVC300 07/04 A3015 RMK CC6CI1 SLP213
CYYG;2003-11-19 22:00;METAR CYYG 192200Z 17015KT 15SM FEW180 FEW200 BKN240 06/05 A3014 RMK AC2CC1CC5 SLP210
CYYG;2003-11-19 23:00;METAR CYYG 192300Z 17013KT 15SM FEW180 SCT210 BKN240 06/05 A3013 RMK AC2CC2CI4 SLP206
CYYG;2003-11-20 00:00;METAR CYYG 200000Z 16014KT 15SM FEW160 SCT210 BKN240 07/05 A3011 RMK AC2CC2CI3 SLP198
CYYG;2003-11-20 01:00;METAR CYYG 200100Z 16011KT 15SM SCT160 SCT210 BKN240 07/05 A3010 RMK AC3CC1CI3 SLP195
CYYG;2003-11-20 02:00;METAR CYYG 200200Z 17013KT 15SM SCT015 BKN160 OVC240 07/06 A3008 RMK SC3AC3CI2 SLP188
CYYG;2003-11-20 03:00;METAR CYYG 200300Z 16015KT 15SM BKN015 OVC160 08/06 A3005 RMK SC6AC2 SLP178
CYYG;2003-11-20 04:00;METAR CYYG 200400Z 16016KT 15SM SCT015 BKN160 08/07 A3004 RMK SC4AC2 SLP172
CYYG;2003-11-20 05:00;METAR CYYG 200500Z 16012G18KT 15SM FEW015 SCT035 BKN160 08/08 A3000 RMK SC2SC2AC2 SLP159
CYYG;2003-11-20 06:00;METAR CYYG 200600Z 17011G17KT 15SM FEW010 SCT035 BKN160 08/08 A2999 RMK SC2SC2AC2 SLP156
CYYG;2003-11-20 07:00;METAR CYYG 200700Z 17019G25KT 15SM FEW008 SCT030 BKN170 10/09 A2995 RMK SF2SC1AC3 SLP144
CYYG;2003-11-20 09:00;METAR CYYG 200900Z 16017G22KT 15SM BKN005 OVC015 11/11 A2992 RMK SF6SC2 SLP133
CYYG;2003-11-20 08:00;METAR CYYG 200800Z 16018G26KT 15SM SCT006 BKN030 BKN170 10/10 A2993 RMK SF4SC1AC2 SLP136
CYYG;2003-11-20 10:00;METAR CYYG 201000Z 16016G21KT 12SM BKN004 OVC013 12/12 A2991 RMK SF6SC2 SLP129 SLP130 SLP127
CYYG;2003-11-20 13:00;METAR CYYG 201300Z 15017G22KT 15SM SCT004 OVC015 14/13 A2988 RMK SF3SC5 SLP121
CYYG;2003-11-20 14:00;METAR CYYG 201400Z 16014G20KT 15SM FEW005 OVC015 14/13 A2988 RMK SF2SC6 CIG ESTD SLP120
CYYG;2003-11-20 15:00;METAR CYYG 201500Z 16016KT 3SM -SHRA BR OVC005 14/14 A2987 RMK SF8 SLP115
CYYG;2003-11-20 16:00;METAR CYYG 201600Z 17013G18KT 6SM -SHRA BR BKN006 OVC014 14/14 A2985 RMK SF5SC3 BLN CIG SLP110
CYYG;2003-11-20 17:00;METAR CYYG 201700Z CCA 16011KT 12SM VCSH FEW008 OVC020 14/13 A2984 RMK SF2SC6 CIG ESTD SLP106
CYYG;2003-11-20 18:00;METAR CYYG 201800Z 17017KT 12SM VCSH FEW008 BKN025 OVC070 14/12 A2981 RMK SF1SC4AC3 SLP095
CYYG;2003-11-20 19:00;METAR CYYG 201900Z CCA 17021G27KT 15SM FEW009 SCT025 OVC090 15/12 A2979 RMK SF1SC3AC4 CIG ESTD SLP090
CYYG;2003-11-20 20:00;METAR CYYG 202000Z 17021G26KT 15SM FEW025 SCT040 OVC110 14/12 A2979 RMK SC1SC2AC5 SLP089
CYYG;2003-11-20 21:00;METAR CYYG 202100Z 16017G22KT 15SM FEW025 FEW040 BKN097 15/13 A2980 RMK SC1SC2AC5 SLP093
CYYG;2003-11-20 22:00;METAR CYYG 202200Z 17018G24KT 15SM BKN026 OVC060 15/13 A2982 RMK SC6SC2 SLP097
CYYG;2003-11-20 23:00;METAR CYYG 202300Z 16019G26KT 15SM BKN025 OVC046 15/14 A2982 RMK SC7SC1 SLP098
CYYG;2003-11-21 00:00;METAR CYYG 210000Z 16017KT 15SM BKN025 BKN072 OVC110 15/14 A2983 RMK SC5AC2AC2 SLP103
CYYG;2003-11-21 01:00;METAR CYYG 210100Z 16015KT 15SM OVC025 15/14 A2985 RMK SC8 SLP107
CYYG;2003-11-21 02:00;METAR CYYG 210200Z 17014G19KT 10SM -SHRA OVC024 15/14 A2985 RMK SC8 SLP108
CYYG;2003-11-21 03:00;METAR CYYG 210300Z 17017G22KT 15SM -SHRA FEW018 BKN023 OVC110 15/14 A2985 RMK SC2SC3AC2 SLP107
CYYG;2003-11-21 04:00;METAR CYYG 210400Z 17014G20KT 15SM BKN018 OVC059 14/14 A2985 RMK SC6SC2 SLP108
CYYG;2003-11-21 05:00;METAR CYYG 210500Z 17014KT 15SM BKN020 OVC045 14/13 A2985 RMK SC6SC2 SLP107
CYYG;2003-11-21 06:00;METAR CYYG 210600Z 17014KT 15SM BKN021 OVC037 14/13 A2985 RMK SC6SC2
CYYG;2003-11-21 07:00;METAR CYYG 210700Z 16016G22KT 15SM FEW020 BKN038 15/13 A2983 RMK SC2SC4 SLP102
CYYG;2003-11-21 08:00;METAR CYYG 210800Z 16017G25KT 15SM BKN019 OVC040 15/14 A2984 RMK SC5SC3 SLP105
CYYG;2003-11-21 09:00;METAR CYYG 210900Z 15017G24KT 15SM BKN017 OVC040 15/14 A2983 RMK SC6SC2
CYYG;2003-11-21 11:00;METAR CYYG 211100Z 15013G20KT 15SM OVC014 15/14 A2988 RMK SC8 SLP118
CYYG;2003-11-21 12:00;METAR CYYG 211200Z 17016G22KT 12SM OVC014 15/14 A2989 RMK SC8 SLP121
CYYG;2003-11-21 13:00;METAR CYYG 211300Z 16012G18KT 12SM OVC014 15/14 A2990 RMK SC8 SLP124
CYYG;2003-11-21 14:00;METAR CYYG 211400Z 15014G19KT 12SM BKN016 16/14 A2990 RMK SC7 SLP124
CYYG;2003-11-21 15:00;METAR CYYG 211500Z 16015KT 12SM BKN015 BKN048 BKN080 16/14 A2988 RMK SC5SC2AC1 SLP118
CYYG;2003-11-21 16:00;METAR CYYG 211600Z 16015G22KT 12SM BKN018 BKN080 17/14 A2985 RMK SC5AC2 SLP110
CYYG;2003-11-21 17:00;METAR CYYG 211700Z 17019G24KT 12SM BKN015 BKN080 17/14 A2984 RMK SC5AC2 SLP104
CYYG;2003-11-21 18:00;METAR CYYG 211800Z 17013G18KT 12SM SCT016 BKN074 BKN260 17/14 A2984 RMK SC3AC2CI2 SLP106
CYYG;2003-11-21 19:00;METAR CYYG 211900Z 16008KT 12SM FEW015 BKN072 BKN260 16/14 A2985 RMK SC2AC2CI2 VIS LWR W SLP107
CYYG;2003-11-21 20:00;METAR CYYG 212000Z 15010KT 12SM BKN018 OVC080 16/14 A2985 RMK SC6AC2
CYYG;2003-11-21 21:00;METAR CYYG 212100Z 14008KT 12SM OVC016 16/14 A2985 RMK SC8 SLP108
CYYG;2003-11-21 22:00;METAR CYYG 212200Z 15008KT 15SM OVC012 15/14 A2986 RMK SC8 SLP112
CYYG;2003-11-21 23:00;METAR CYYG 212300Z 14007KT 15SM FEW010 FEW040 OVC170 15/13 A2985 RMK SC2SC1AC6 SLP109
CYYG;2003-11-22 00:00;METAR CYYG 220000Z 12008KT 15SM OVC007 14/12 A2985 RMK ST8 SLP109
CYYG;2003-11-22 01:00;METAR CYYG 220100Z 08004KT 5SM -SHRA BR OVC003 12/12 A2984 RMK SF8 SLP105
CYYG;2003-11-22 02:00;METAR CYYG 220200Z 36003KT 3/4SM -RA BR OVC002 12/12 A2983 RMK FG6SF2 RVR RWY03 4500 FT SLP103
CYYG;2003-11-22 03:00;METAR CYYG 220300Z 02003KT 5SM -RA BR FEW002 OVC006 12/12 A2983 RMK SF2SF6 SLP101
CYYG;2003-11-22 04:00;METAR CYYG 220400Z 05004KT 15SM FEW005 BKN013 OVC073 13/12 A2983 RMK SF2SC4AC2 SLP101
CYYG;2003-11-22 05:00;METAR CYYG 220500Z 36005KT 3SM -RA BR OVC014 12/12 A2983 RMK SC8 SLP101
CYYG;2003-11-22 06:00;METAR CYYG 220600Z 02007KT 1/2SM -RA FG VV002 11/11 A2983 RMK FG8 RVR RWY03 3500 FT SLP103
CYYG;2003-11-22 07:00;METAR CYYG 220700Z 36008KT 2SM BR OVC002 10/10 A2984 RMK SF8 SLP106
CYYG;2003-11-22 08:00;METAR CYYG 220800Z 35016KT 3SM BR OVC002 06/06 A2987 RMK SF8 SLP116
CYYG;2003-11-22 09:00;METAR CYYG 220900Z 01018G25KT 5SM -RA BR BKN004 OVC008 05/05 A2990 RMK SF6SF2 SLP126
CYYG;2003-11-22 10:00;METAR CYYG 221000Z 01015G24KT 8SM -RA FEW012 OVC017 05/04 A2993 RMK SF2SC6 SLP137
CYYG;2003-11-22 11:00;METAR CYYG 221100Z 01015G22KT 6SM -RA BR OVC018 05/04 A2996 RMK SC8 SLP148
CYYG;2003-11-22 12:00;METAR CYYG 221200Z 36015G21KT 2 1/2SM -RA BR FEW008 OVC019 04/04 A3000 RMK SF1SC7 SLP159
CYYG;2003-11-22 13:00;METAR CYYG 221300Z 36015G22KT 10SM -SHRA FEW008 FEW012 OVC021 05/04 A3001 RMK SF1SC2SC6 SLP164
CYYG;2003-11-22 14:00;METAR CYYG 221400Z 36017G25KT 3SM -SHRA BR FEW007 OVC021 04/04 A3001 RMK SF2SC6 SLP165
CYYG;2003-11-22 15:00;METAR CYYG 221500Z 01014G24KT 12SM FEW009 BKN020 OVC036 05/04 A3001 RMK SF1SC4SC3 SLP164
CYYG;2003-11-22 16:00;METAR CYYG 221600Z 36019G27KT 15SM FEW009 FEW020 OVC035 05/03 A3001 RMK SF1SC2SC6 SLP162
CYYG;2003-11-22 17:00;METAR CYYG 221700Z 36017G24KT 12SM -SHRA FEW019 OVC035 05/03 A3001 RMK SC2SC6 SLP164
CYYG;2003-11-22 18:00;METAR CYYG 221800Z 36018G26KT 15SM FEW010 BKN027 BKN035 05/02 A3003 RMK SC2SC2SC2 SLP170
CYYG;2003-11-22 19:00;METAR CYYG 221900Z 36017G27KT 15SM FEW015 FEW040 BKN050 BKN250 05/02 A3004 RMK SC1SC2SC4CI2 SLP175
CYYG;2003-11-22 20:00;METAR CYYG 222000Z 01019G27KT 15SM FEW018 FEW050 BKN250 04/01 A3006 RMK SC1SC2CS5 SLP181
CYYG;2003-11-22 21:00;METAR CYYG 222100Z 36019G28KT 15SM FEW018 FEW050 BKN250 04/01 A3008 RMK SC1SC1CI2 SLP187
CYYG;2003-11-22 22:00;METAR CYYG 222200Z 01018G25KT 15SM FEW018 FEW050 BKN250 04/01 A3009 RMK SC1SC1CI2 SLP191
CYYG;2003-11-22 23:00;METAR CYYG 222300Z 01019G24KT 15SM FEW018 04/00 A3010 RMK SC2 SLP196
CYYG;2003-11-23 00:00;METAR CYYG 230000Z 01019G27KT 15SM SKC 03/00 A3012 RMK SLP201
CYYG;2003-11-23 01:00;METAR CYYG 230100Z 01015G22KT 15SM SCT013 03/01 A3012 RMK SC3 SLP203
CYYG;2003-11-23 02:00;METAR CYYG 230200Z 01017G25KT 15SM BKN013 03/01 A3013 RMK SC5 SLP206
CYYG;2003-11-23 03:00;METAR CYYG 230300Z 02014G25KT 15SM FEW014 03/M00 A3014 RMK SC2 SLP210
CYYG;2003-11-23 04:00;METAR CYYG 230400Z 01012G19KT 15SM FEW013 03/00 A3015 RMK SC2 SLP211
CYYG;2003-11-23 05:00;METAR CYYG 230500Z 01012G20KT 15SM BKN013 03/00 A3014 RMK SC6 SLP210
CYYG;2003-11-23 06:00;METAR CYYG 230600Z 02011G18KT 15SM BKN015 03/00 A3016 RMK SC6 SLP216
CYYG;2003-11-23 07:00;METAR CYYG 230700Z 01015KT 15SM BKN013 03/00 A3017 RMK SC6 SLP220
CYYG;2003-11-23 08:00;METAR CYYG 230800Z 02016G21KT 15SM BKN013 03/00 A3017 RMK SC6 SLP219
CYYG;2003-11-23 09:00;METAR CYYG 230900Z 02016G22KT 15SM BKN014 03/01 A3019 RMK SC6 SLP224
CYYG;2003-11-23 10:00;METAR CYYG 231000Z 02019G24KT 15SM BKN013 03/00 A3020 RMK SC7 SLP228
CYYG;2003-11-23 11:00;METAR CYYG 231100Z 03022G27KT 15SM OVC013 03/00 A3022 RMK SC8 SLP234
CYYG;2003-11-23 12:00;METAR CYYG 231200Z 03013G20KT 15SM BKN014 03/00 A3023 RMK SC7 SLP238
CYYG;2003-11-23 13:00;METAR CYYG 231300Z 03016G22KT 15SM BKN014 03/00 A3024 RMK SC7 SLP243
CYYG;2003-11-23 14:00;METAR CYYG 231400Z 01015G24KT 15SM BKN014 03/00 A3026 RMK SC7 SLP249
CYYG;2003-11-23 15:00;METAR CYYG 231500Z 03019G25KT 15SM BKN014 03/01 A3026 RMK SC7 SLP248
CYYG;2003-11-23 16:00;METAR CYYG 231600Z 03017KT 15SM OVC011 04/01 A3026 RMK SC8 SLP248
CYYG;2003-11-23 17:00;METAR CYYG 231700Z 03018KT 15SM OVC010 03/01 A3025 RMK SC8 SLP245
CYYG;2003-11-23 18:00;METAR CYYG 231800Z 03015G20KT 15SM OVC010 03/01 A3025 RMK SC8 SLP244
CYYG;2003-11-23 19:00;METAR CYYG 231900Z 03014KT 15SM OVC010 03/01 A3025 RMK SC8 SLP247
CYYG;2003-11-23 20:00;METAR CYYG 232000Z 02016KT 15SM OVC009 03/01 A3027 RMK SC8 SLP252
CYYG;2003-11-23 21:00;METAR CYYG 232100Z 03012KT 15SM OVC009 03/01 A3026 RMK SC8 SLP250
CYYG;2003-11-23 22:00;METAR CYYG 232200Z 03011KT 15SM OVC010 03/01 A3026 RMK SC8 SLP249
CYYG;2003-11-23 23:00;METAR CYYG 232300Z 02011KT 15SM OVC012 03/01 A3028 RMK SC8 SLP255
CYYG;2003-11-24 00:00;METAR CYYG 240000Z 04011G16KT 15SM OVC013 03/01 A3027 RMK SC8 SLP253
CYYG;2003-11-24 01:00;METAR CYYG 240100Z 06012KT 15SM OVC013 03/01 A3026 RMK SC8 SLP249
CYYG;2003-11-24 02:00;METAR CYYG 240200Z 06010KT 15SM OVC012 03/01 A3025 RMK SC8 SLP246
CYYG;2003-11-24 03:00;METAR CYYG 240300Z 04006KT 15SM OVC011 03/01 A3024 RMK SC8 SLP243
CYYG;2003-11-24 04:00;METAR CYYG 240400Z 04005KT 15SM OVC008 03/02 A3023 RMK SC8 SLP239 FG2SF2SF5 SLP234 FG1SF2SF6 SLP233 FG1SF2SF6 SLP230 FG2SF5SF1 SLP228 SLP230 SLP231 SF6SF2 SLP233 SLP227 SLP219
CYYG;2003-11-24 17:00;METAR CYYG 241700Z 05002KT 4SM BR BKN004 OVC008 06/05 A3016 RMK SF6SF2 SLP215
CYYG;2003-11-24 18:00;METAR CYYG 241800Z 15003KT 3SM BR BKN004 OVC008 06/06 A3013 RMK SF6SF2 SLP206
CYYG;2003-11-24 19:00;METAR CYYG 241900Z 17006KT 5SM BR BKN004 OVC007 06/06 A3012 RMK SF6SF2 SLP201
CYYG;2003-11-24 20:00;METAR CYYG 242000Z 18007KT 4SM BR OVC004 06/06 A3011 RMK SF8 SLP197
CYYG;2003-11-24 21:00;METAR CYYG 242100Z 17007KT 4SM BR OVC004 06/06 A3010 RMK SF8 SLP196
CYYG;2003-11-24 22:00;METAR CYYG 242200Z 15008KT 3SM BR OVC003 06/05 A3009 RMK SF8 SLP191 3000 FT SLP188 5000 FT SLP181 2800 FT SLP175 5500 FT SLP172
CYYG;2003-11-25 04:00;METAR CYYG 250400Z 16010KT 1/4SM FG VV001 06/06 A3001 RMK FG8 RVR RWY03 2200 FT SLP163
CYYG;2003-11-25 05:00;METAR CYYG 250500Z 16008KT 1SM BR VV002 06/06 A2998 RMK FG8 RVR RWY03 6000 FT SLP152
CYYG;2003-11-25 06:00;METAR CYYG 250600Z 17009KT 3SM BR OVC002 06/06 A2997 RMK SF8 SLP149
CYYG;2003-11-25 07:00;METAR CYYG 250700Z 16010KT 15SM BKN004 BKN010 OVC029 06/06 A2995 RMK SF6SF1SC2 SLP142
CYYG;2003-11-25 08:00;METAR CYYG 250800Z 16009KT 1/4SM FG VV001 06/06 A2993 RMK FG8 RVR RWY03 1800 FT SLP136 SLP123 SLP127
CYYG;2003-11-25 14:00;METAR CYYG 251400Z 16009KT 15SM BKN005 OVC010 07/07 A2987 RMK SF5SF3 SLP118
CYYG;2003-11-25 15:00;METAR CYYG 251500Z 17010G16KT 15SM BKN005 OVC010 08/07 A2983 RMK SF5SF3 SLP103
CYYG;2003-11-25 16:00;METAR CYYG 251600Z 20012KT 15SM SCT007 OVC011 08/07 A2984 RMK SF3SC5 SLP105
CYYG;2003-11-25 17:00;METAR CYYG 251700Z 19009KT 15SM FEW004 OVC009 08/07 A2981 RMK SF2SF6 SLP096
CYYG;2003-11-25 18:00;METAR CYYG 251800Z 21008KT 15SM FEW004 OVC012 09/07 A2982 RMK SF1SC7 SLP099
CYYG;2003-11-25 19:00;METAR CYYG 251900Z 22007KT 6SM BR SCT005 OVC008 08/08 A2983 RMK SF3SF5 SLP102
CYYG;2003-11-25 20:00;METAR CYYG 252000Z 24006KT 5SM BR BKN004 OVC008 09/08 A2985 RMK SF6SF2 SLP110
CYYG;2003-11-25 21:00;METAR CYYG 252100Z 25005KT 15SM SCT005 BKN023 09/08 A2985 RMK SF4SC3 SLP111
CYYG;2003-11-25 22:00;METAR CYYG 252200Z 29005KT 15SM FEW005 BKN017 BKN030 08/08 A2987 RMK SF2SC2SC2 SLP118
CYYG;2003-11-25 23:00;METAR CYYG 252300Z 31011G16KT 15SM FEW006 BKN019 BKN033 07/04 A2992 RMK SF2SC3SC1 SLP132
CYYG;2003-11-26 00:00;METAR CYYG 260000Z 31010G15KT 15SM FEW025 BKN040 05/02 A2994 RMK SC2SC2 SLP141
CYYG;2003-11-26 01:00;METAR CYYG 260100Z 30006KT 15SM FEW040 03/01 A2996 RMK SC1 SLP148
CYYG;2003-11-26 02:00;METAR CYYG 260200Z 31006KT 15SM FEW040 03/00 A2998 RMK SC1 SLP153
CYYG;2003-11-26 03:00;METAR CYYG 260300Z 29005KT 15SM SKC 01/M01 A2999 RMK SLP157
CYYG;2003-11-26 04:00;METAR CYYG 260400Z 28005KT 15SM SKC 00/M02 A3002 RMK SLP166
CYYG;2003-11-26 05:00;METAR CYYG 260500Z 30004KT 15SM SKC 00/M03 A3000 RMK SLP160
CYYG;2003-11-26 06:00;METAR CYYG 260600Z 28004KT 15SM SKC M01/M04 A3003 RMK SLP170
CYYG;2003-11-26 07:00;METAR CYYG 260700Z 29006KT 15SM SKC M00/M04 A3005 RMK SLP177
CYYG;2003-11-26 08:00;METAR CYYG 260800Z 31004KT 15SM SKC M01/M04 A3004 RMK SLP176
CYYG;2003-11-26 09:00;METAR CYYG 260900Z 30006KT 15SM SKC M01/M04 A3006 RMK SLP181
CYYG;2003-11-26 10:00;METAR CYYG 261000Z 30005KT 15SM SKC M01/M04 A3008 RMK SLP187
CYYG;2003-11-26 11:00;METAR CYYG 261100Z 29006KT 15SM FEW100 FEW250 M01/M04 A3010 RMK AC1CI1 FROIN SLP195
CYYG;2003-11-26 12:00;METAR CYYG 261200Z 27005KT 15SM FEW030 SCT250 M01/M04 A3012 RMK SC1CI1 SLP201
CYYG;2003-11-26 13:00;METAR CYYG 261300Z 27004KT 15SM FEW030 BKN250 M00/M04 A3012 RMK SC1CI1 SLP200
CYYG;2003-11-26 14:00;METAR CYYG 261400Z 28004KT 15SM FEW028 BKN250 01/M03 A3014 RMK SC1CI2 SLP209
CYYG;2003-11-26 15:00;METAR CYYG 261500Z 25005KT 15SM FEW028 BKN250 02/M04 A3013 RMK SC1CI1 SLP204
CYYG;2003-11-26 16:00;METAR CYYG 261600Z 24006KT 15SM FEW028 SCT250 03/M02 A3011 RMK SC1CI1 SLP199
CYYG;2003-11-26 17:00;METAR CYYG 261700Z 25009KT 15SM FEW028 FEW250 04/M03 A3010 RMK SC1CI1 SLP195
CYYG;2003-11-26 18:00;METAR CYYG 261800Z 23011KT 15SM FEW025 SCT250 03/M04 A3010 RMK SC1CI1 SLP194
CYYG;2003-11-26 19:00;METAR CYYG 261900Z 23008KT 15SM FEW120 SCT250 03/M04 A3010 RMK AC1CI1 SLP196
CYYG;2003-11-26 20:00;METAR CYYG 262000Z 21007KT 15SM FEW120 FEW200 BKN250 02/M04 A3010 RMK AC1CC2CI1 SLP196
CYYG;2003-11-26 21:00;METAR CYYG 262100Z 24005KT 15SM FEW120 FEW200 BKN250 02/M03 A3013 RMK AC1CC2CI2 SLP204
CYYG;2003-11-26 22:00;METAR CYYG 262200Z 25007KT 15SM FEW120 FEW180 BKN250 02/M03 A3014 RMK AC1AC1CI1 SLP209
CYYG;2003-11-26 23:00;METAR CYYG 262300Z 26006KT 15SM FEW180 BKN250 03/M03 A3013 RMK AC2CI2 SLP206
CYYG;2003-11-27 00:00;METAR CYYG 270000Z 26007KT 15SM FEW130 BKN250 02/M03 A3013 RMK AC2CI2 SLP204
CYYG;2003-11-27 01:00;METAR CYYG 270100Z 26007KT 15SM FEW130 BKN250 02/M03 A3014 RMK AC2CI1 SLP210
CYYG;2003-11-27 02:00;METAR CYYG 270200Z 26005KT 15SM FEW130 SCT250 01/M04 A3016 RMK AC1CI1 SLP215
CYYG;2003-11-27 03:00;METAR CYYG 270300Z 28006KT 15SM FEW130 SCT250 01/M03 A3018 RMK AC1CI1 SLP221
CYYG;2003-11-27 04:00;METAR CYYG 270400Z 26004KT 15SM FEW250 01/M03 A3017 RMK CI1 SLP220
CYYG;2003-11-27 05:00;METAR CYYG 270500Z 26004KT 15SM FEW250 00/M03 A3017 RMK CI1 SLP220
CYYG;2003-11-27 06:00;METAR CYYG 270600Z 27004KT 15SM FEW250 M00/M03 A3018 RMK CI1 SLP223
CYYG;2003-11-27 07:00;METAR CYYG 270700Z 30006KT 15SM FEW250 M01/M03 A3020 RMK CI1 SLP227
CYYG;2003-11-27 08:00;METAR CYYG 270800Z 24006KT 15SM SKC M01/M03 A3021 RMK SLP232
CYYG;2003-11-27 09:00;METAR CYYG 270900Z 26005KT 15SM SKC M00/M02 A3021 RMK SLP232
CYYG;2003-11-27 10:00;METAR CYYG 271000Z 26006KT 15SM FEW170 00/M02 A3022 RMK AC2 SLP234
CYYG;2003-11-27 11:00;METAR CYYG 271100Z 26005KT 15SM FEW160 00/M02 A3023 RMK AC1 FROIN SLP238
CYYG;2003-11-27 12:00;METAR CYYG 271200Z 24007KT 15SM FEW160 M01/M02 A3024 RMK AC2 SLP241
CYYG;2003-11-27 13:00;METAR CYYG 271300Z 26007KT 15SM SCT170 01/M01 A3026 RMK AC3 SLP248
CYYG;2003-11-27 14:00;METAR CYYG 271400Z 28005KT 15SM FEW020 SCT170 03/00 A3027 RMK SC1AC4 SLP251
CYYG;2003-11-27 15:00;METAR CYYG 271500Z 27005KT 15SM FEW020 FEW170 SCT300 04/M00 A3025 RMK SC1AC2CI1 SLP247
CYYG;2003-11-27 16:00;METAR CYYG 271600Z 25006KT 15SM FEW020 FEW170 FEW300 05/M02 A3024 RMK SC1AC1CI1 SLP241
CYYG;2003-11-27 17:00;METAR CYYG 271700Z 29007KT 15SM FEW170 FEW300 05/M02 A3024 RMK AC1CI1 SLP241
CYYG;2003-11-27 18:00;METAR CYYG 271800Z 30008KT 15SM FEW020 BKN300 05/M02 A3025 RMK SC1CI2 SLP244
CYYG;2003-11-27 19:00;METAR CYYG 271900Z 29004KT 15SM BKN300 05/M02 A3026 RMK CI2 SLP250
CYYG;2003-11-27 20:00;METAR CYYG 272000Z 31003KT 15SM BKN300 04/M02 A3027 RMK CI2 SLP251
CYYG;2003-11-27 21:00;METAR CYYG 272100Z 27002KT 15SM SCT300 02/M02 A3031 RMK CI1 SLP265
CYYG;2003-11-27 22:00;METAR CYYG 272200Z 00000KT 15SM FEW300 01/M02 A3028 RMK CI0 SLP258
CYYG;2003-11-27 23:00;METAR CYYG 272300Z 27004KT 15SM FEW300 00/M03 A3031 RMK CI0 SLP267
